14837KMSN MSN20050401000009304/01/05 00:00:32  5-MIN KMSN 010600Z 00000KT 9SM CLR 02/01 A3008 720 89  -600 000/00 RMK AO2
14837KMSN MSN20050401000509404/01/05 00:05:31  5-MIN KMSN 010605Z 00000KT 10SM CLR 03/00 A3008 720 82  -500 000/00 RMK AO2
14837KMSN MSN20050401001009404/01/05 00:10:31  5-MIN KMSN 010610Z 00000KT 10SM CLR 02/M01 A3008 710 82 -600 000/00 RMK AO2
14837KMSN MSN20050401001509404/01/05 00:15:31  5-MIN KMSN 010615Z 00000KT 10SM CLR 02/00 A3008 710 85  -600 000/00 RMK AO2
14837KMSN MSN20050401002009404/01/05 00:20:31  5-MIN KMSN 010620Z 00000KT 10SM CLR 02/M01 A3008 720 85 -600 000/00 RMK AO2
14837KMSN MSN20050401002509404/01/05 00:25:31  5-MIN KMSN 010625Z 00000KT 10SM CLR 02/M01 A3008 720 82 -600 000/00 RMK AO2
14837KMSN MSN20050401003009404/01/05 00:30:31  5-MIN KMSN 010630Z 00000KT 10SM CLR 01/M02 A3008 720 82 -700 000/00 RMK AO2
14837KMSN MSN20050401003509404/01/05 00:35:31  5-MIN KMSN 010635Z 00000KT 10SM CLR 02/M01 A3008 720 82 -600 000/00 RMK AO2
14837KMSN MSN20050401004009404/01/05 00:40:31  5-MIN KMSN 010640Z 00000KT 10SM CLR 01/M01 A3008 720 85 -700 000/00 RMK AO2
14837KMSN MSN20050401004509404/01/05 00:45:31  5-MIN KMSN 010645Z 00000KT 10SM CLR 01/M01 A3008 720 85 -700 000/00 RMK AO2
14837KMSN MSN20050401005011104/01/05 00:50:31  5-MIN KMSN 010650Z 00000KT 10SM CLR 02/M01 A3008 720 85 -600 000/00 RMK AO2 SLP191 T00171006
14837KMSN MSN20050401005509404/01/05 00:55:31  5-MIN KMSN 010655Z 00000KT 9SM CLR 02/M01 A3008 720 85  -600 000/00 RMK AO2
14837KMSN MSN20050401010009304/01/05 01:00:31  5-MIN KMSN 010700Z 00000KT 9SM CLR 02/00 A3008 720 89  -600 000/00 RMK AO2
14837KMSN MSN20050401010509304/01/05 01:05:31  5-MIN KMSN 010705Z 00000KT 8SM CLR 01/00 A3007 720 92  -700 000/00 RMK AO2
14837KMSN MSN20050401011009304/01/05 01:10:31  5-MIN KMSN 010710Z 00000KT 8SM CLR 02/00 A3007 720 89  -600 000/00 RMK AO2
14837KMSN MSN20050401011509304/01/05 01:15:31  5-MIN KMSN 010715Z 00000KT 8SM CLR 02/00 A3007 730 89  -600 000/00 RMK AO2
14837KMSN MSN20050401012009304/01/05 01:20:31  5-MIN KMSN 010720Z 00000KT 8SM CLR 02/00 A3007 730 89  -600 000/00 RMK AO2
14837KMSN MSN20050401012509404/01/05 01:25:31  5-MIN KMSN 010725Z 00000KT 8SM CLR 01/M01 A3007 730 92  -800 000/00 RMK AO2
14837KMSN MSN20050401013009304/01/05 01:30:31  5-MIN KMSN 010730Z 00000KT 8SM CLR 01/00 A3007 730 92  -700 000/00 RMK AO2
14837KMSN MSN20050401013509304/01/05 01:35:31  5-MIN KMSN 010735Z 00000KT 7SM CLR 01/00 A3007 730 92  -700 000/00 RMK AO2
14837KMSN MSN20050401014009704/01/05 01:40:31  5-MIN KMSN 010740Z 00000KT 6SM BR CLR 01/M01 A3007 730  92 -800 000/00 RMK AO2
14837KMSN MSN20050401014509704/01/05 01:45:31  5-MIN KMSN 010745Z 00000KT 5SM BR CLR 01/M01 A3007 720  92 -800 000/00 RMK AO2
14837KMSN MSN20050401015011204/01/05 01:50:31  5-MIN KMSN 010750Z 00000KT 6SM BR CLR 01/00 A3007 720 92 -700 000/00 RMK AO2 SLP189 T00110000
14837KMSN MSN20050401015509504/01/05 01:55:31  5-MIN KMSN 010755Z 00000KT 4SM BR CLR 01/00 A3007 720 92 -700 000/00 RMK AO2
14837KMSN MSN20050401020009504/01/05 02:00:31  5-MIN KMSN 010800Z 00000KT 4SM BR CLR 01/00 A3007 720 92 -700 000/00 RMK AO2
14837KMSN MSN20050401020509504/01/05 02:05:31  5-MIN KMSN 010805Z 00000KT 5SM BR CLR 01/00 A3008 720 92 -700 000/00 RMK AO2
14837KMSN MSN20050401021009504/01/05 02:10:31  5-MIN KMSN 010810Z 00000KT 5SM BR CLR 01/00 A3008 720 92 -700 000/00 RMK AO2
14837KMSN MSN20050401021509704/01/05 02:15:31  5-MIN KMSN 010815Z 00000KT 6SM BR CLR 01/M01 A3008 720  92 -800 000/00 RMK AO2
14837KMSN MSN20050401022009404/01/05 02:20:31  5-MIN KMSN 010820Z 00000KT 8SM CLR 01/M01 A3007 720 92  -800 000/00 RMK AO2
14837KMSN MSN20050401022509404/01/05 02:25:31  5-MIN KMSN 010825Z 00000KT 9SM CLR 01/M01 A3007 720 92  -800 000/00 RMK AO2
14837KMSN MSN20050401023009404/01/05 02:30:31  5-MIN KMSN 010830Z 00000KT 9SM CLR 01/M01 A3007 730 92  -800 000/00 RMK AO2
14837KMSN MSN20050401023509404/01/05 02:35:31  5-MIN KMSN 010835Z 00000KT 9SM CLR 01/M01 A3007 730 92  -800 000/00 RMK AO2
14837KMSN MSN20050401024009404/01/05 02:40:31  5-MIN KMSN 010840Z 00000KT 9SM CLR 01/M01 A3007 730 89  -700 000/00 RMK AO2
14837KMSN MSN20050401024509404/01/05 02:45:31  5-MIN KMSN 010845Z 00000KT 8SM CLR 01/M01 A3007 730 92  -800 000/00 RMK AO2
14837KMSN MSN20050401025011704/01/05 02:50:31  5-MIN KMSN 010850Z 00000KT 8SM CLR 01/M01 A3007 730 92  -800 000/00 RMK AO2 SLP188 T00061006 53014
14837KMSN MSN20050401025509404/01/05 02:55:31  5-MIN KMSN 010855Z 00000KT 7SM CLR 01/M01 A3007 730 92  -800 000/00 RMK AO2
14837KMSN MSN20050401030009704/01/05 03:00:31  5-MIN KMSN 010900Z 00000KT 6SM BR CLR 01/M01 A3007 730  92 -800 000/00 RMK AO2
14837KMSN MSN20050401030509704/01/05 03:05:31  5-MIN KMSN 010905Z 00000KT 6SM BR CLR 01/M01 A3007 730  92 -800 000/00 RMK AO2
14837KMSN MSN20050401031009704/01/05 03:10:31  5-MIN KMSN 010910Z 00000KT 4SM BR CLR 01/M01 A3007 730  92 -800 000/00 RMK AO2
14837KMSN MSN20050401031509704/01/05 03:15:31  5-MIN KMSN 010915Z 00000KT 3SM BR CLR 01/M01 A3007 730  92 -800 000/00 RMK AO2
14837KMSN MSN20050401032009704/01/05 03:20:31  5-MIN KMSN 010920Z 00000KT 3SM BR CLR 01/M01 A3007 730  92 -800 000/00 RMK AO2
14837KMSN MSN20050401032509704/01/05 03:25:31  5-MIN KMSN 010925Z 00000KT 4SM BR CLR 00/M01 A3007 730  96 -800 000/00 RMK AO2
14837KMSN MSN20050401033009704/01/05 03:30:31  5-MIN KMSN 010930Z 00000KT 4SM BR CLR 00/M01 A3008 720  96 -800 000/00 RMK AO2
14837KMSN MSN20050401033509704/01/05 03:35:31  5-MIN KMSN 010935Z 00000KT 5SM BR CLR 00/M01 A3008 720  96 -800 000/00 RMK AO2
14837KMSN MSN20050401034009704/01/05 03:40:31  5-MIN KMSN 010940Z 00000KT 6SM BR CLR 00/M01 A3008 720  96 -800 000/00 RMK AO2
14837KMSN MSN20050401034509704/01/05 03:45:31  5-MIN KMSN 010945Z 00000KT 3SM BR CLR 00/M01 A3008 720  92 -800 000/00 RMK AO2
14837KMSN MSN20050401035011404/01/05 03:50:31  5-MIN KMSN 010950Z 00000KT 5SM BR CLR 00/M01 A3008 720  96 -800 000/00 RMK AO2 SLP191 T00001006
14837KMSN MSN20050401035509704/01/05 03:55:31  5-MIN KMSN 010955Z 00000KT 4SM BR CLR 00/M01 A3008 720  96 -800 000/00 RMK AO2
14837KMSN MSN20050401040009704/01/05 04:00:31  5-MIN KMSN 011000Z 00000KT 5SM BR CLR M01/M01 A3008 720 96 -900 000/00 RMK AO2
14837KMSN MSN20050401040509704/01/05 04:05:31  5-MIN KMSN 011005Z 00000KT 5SM BR CLR M01/M01 A3008 720 96 -900 000/00 RMK AO2
14837KMSN MSN20050401041009704/01/05 04:10:31  5-MIN KMSN 011010Z 00000KT 5SM BR CLR 00/M01 A3008 720  92 -900 000/00 RMK AO2
14837KMSN MSN20050401041509704/01/05 04:15:31  5-MIN KMSN 011015Z 00000KT 5SM BR CLR 00/M01 A3008 720  92 -900 000/00 RMK AO2
14837KMSN MSN20050401042009704/01/05 04:20:31  5-MIN KMSN 011020Z 00000KT 5SM BR CLR 00/M01 A3008 720  92 -800 000/00 RMK AO2
14837KMSN MSN20050401042509704/01/05 04:25:31  5-MIN KMSN 011025Z 00000KT 5SM BR CLR 00/M01 A3008 720  92 -900 000/00 RMK AO2
14837KMSN MSN20050401043009704/01/05 04:30:31  5-MIN KMSN 011030Z 00000KT 5SM BR CLR M01/M01 A3008 720 96 -900 000/00 RMK AO2
14837KMSN MSN20050401043509704/01/05 04:35:31  5-MIN KMSN 011035Z 00000KT 6SM BR CLR M01/M01 A3008 710 96 -900 000/00 RMK AO2
14837KMSN MSN20050401044009404/01/05 04:40:31  5-MIN KMSN 011040Z 00000KT 8SM CLR M01/M02 A3008 710 92 -900 000/00 RMK AO2
14837KMSN MSN20050401044509404/01/05 04:45:31  5-MIN KMSN 011045Z 00000KT 8SM CLR M01/M02 A3008 710 92 -900 000/00 RMK AO2
14837KMSN MSN20050401045011404/01/05 04:50:31  5-MIN KMSN 011050Z 00000KT 6SM BR CLR M01/M02 A3008 710 92 -900 000/00 RMK AO2 SLP193 T10061017
14837KMSN MSN20050401045509704/01/05 04:55:31  5-MIN KMSN 011055Z 00000KT 6SM BR CLR M01/M02 A3008 720 88 -900 000/00 RMK AO2
14837KMSN MSN20050401050009404/01/05 05:00:31  5-MIN KMSN 011100Z 00000KT 7SM CLR M01/M02 A3008 710 88 -900 000/00 RMK AO2
14837KMSN MSN20050401050509404/01/05 05:05:31  5-MIN KMSN 011105Z 00000KT 8SM CLR M01/M02 A3008 710 92 -900 000/00 RMK AO2
14837KMSN MSN20050401051009404/01/05 05:10:31  5-MIN KMSN 011110Z 00000KT 8SM CLR 00/M02 A3009 710 88  -900 000/00 RMK AO2
14837KMSN MSN20050401051509404/01/05 05:15:31  5-MIN KMSN 011115Z 00000KT 7SM CLR 00/M01 A3009 710 92  -900 000/00 RMK AO2
14837KMSN MSN20050401052009704/01/05 05:20:31  5-MIN KMSN 011120Z 00000KT 6SM BR CLR 00/M01 A3009 710  92 -900 000/00 RMK AO2
14837KMSN MSN20050401052509704/01/05 05:25:31  5-MIN KMSN 011125Z 00000KT 6SM BR CLR 00/M01 A3009 710  92 -900 000/00 RMK AO2
14837KMSN MSN20050401053009404/01/05 05:30:31  5-MIN KMSN 011130Z 00000KT 7SM CLR 00/M02 A3009 710 88  -900 000/00 RMK AO2
14837KMSN MSN20050401053509404/01/05 05:35:31  5-MIN KMSN 011135Z 00000KT 8SM CLR 00/M02 A3009 710 88  -900 000/00 RMK AO2
14837KMSN MSN20050401054009704/01/05 05:40:31  5-MIN KMSN 011140Z 00000KT 6SM BR CLR 00/M02 A3009 710  88 -900 000/00 RMK AO2
14837KMSN MSN20050401054509704/01/05 05:45:31  5-MIN KMSN 011145Z 00000KT 5SM BR CLR 00/M02 A3009 710  88 -900 000/00 RMK AO2
14837KMSN MSN20050401055013204/01/05 05:50:31  5-MIN KMSN 011150Z 00000KT 6SM BR CLR 00/M02 A3009 710  88 -900 000/00 RMK AO2 SLP195 T00001017 10028 21006 58004
14837KMSN MSN20050401055509704/01/05 05:55:31  5-MIN KMSN 011155Z 00000KT 6SM BR CLR M01/M02 A3009 710 92 -900 000/00 RMK AO2
14837KMSN MSN20050401060009704/01/05 06:00:31  5-MIN KMSN 011200Z 00000KT 6SM BR CLR M01/M02 A3009 710 88 -900 000/00 RMK AO2
14837KMSN MSN20050401060509404/01/05 06:05:31  5-MIN KMSN 011205Z 00000KT 7SM CLR M01/M02 A3009 700 88 -900 000/00 RMK AO2
14837KMSN MSN20050401061009404/01/05 06:10:31  5-MIN KMSN 011210Z 00000KT 7SM CLR M01/M02 A3009 700 88 -900 000/00 RMK AO2
14837KMSN MSN20050401061509404/01/05 06:15:31  5-MIN KMSN 011215Z 00000KT 7SM CLR 00/M02 A3009 700 85  -900 000/00 RMK AO2
14837KMSN MSN20050401062009404/01/05 06:20:31  5-MIN KMSN 011220Z 00000KT 7SM CLR M01/M02 A3010 700 88 -900 000/00 RMK AO2
14837KMSN MSN20050401062509704/01/05 06:25:31  5-MIN KMSN 011225Z 00000KT 6SM BR CLR 00/M02 A3010 700  85 -900 000/00 RMK AO2
14837KMSN MSN20050401063009704/01/05 06:30:31  5-MIN KMSN 011230Z 00000KT 6SM BR CLR 00/M02 A3010 700  88 -900 000/00 RMK AO2
14837KMSN MSN20050401063509404/01/05 06:35:31  5-MIN KMSN 011235Z 00000KT 7SM CLR 01/M01 A3010 700 89  -800 000/00 RMK AO2
14837KMSN MSN20050401064009704/01/05 06:40:31  5-MIN KMSN 011240Z 00000KT 6SM BR CLR 01/M01 A3010 700  89 -800 000/00 RMK AO2
14837KMSN MSN20050401064509704/01/05 06:45:31  5-MIN KMSN 011245Z 00000KT 6SM BR CLR 01/M01 A3010 700  89 -700 000/00 RMK AO2
14837KMSN MSN20050401065011404/01/05 06:50:31  5-MIN KMSN 011250Z 00000KT 6SM BR CLR 02/M01 A3010 700  85 -700 000/00 RMK AO2 SLP200 T00171006
14837KMSN MSN20050401065509504/01/05 06:55:31  5-MIN KMSN 011255Z 00000KT 6SM BR CLR 02/00 A3010 690 85 -600 000/00 RMK AO2
14837KMSN MSN20050401070009504/01/05 07:00:31  5-MIN KMSN 011300Z 00000KT 6SM BR CLR 02/00 A3010 700 85 -600 000/00 RMK AO2
14837KMSN MSN20050401070509304/01/05 07:05:31  5-MIN KMSN 011305Z 00000KT 7SM CLR 03/00 A3010 700 82  -500 000/00 RMK AO2
14837KMSN MSN20050401071009304/01/05 07:10:31  5-MIN KMSN 011310Z 00000KT 7SM CLR 03/01 A3010 700 85  -500 000/00 RMK AO2
14837KMSN MSN20050401071509304/01/05 07:15:31  5-MIN KMSN 011315Z 00000KT 7SM CLR 03/01 A3010 700 85  -500 000/00 RMK AO2
14837KMSN MSN20050401072009304/01/05 07:20:31  5-MIN KMSN 011320Z 00000KT 7SM CLR 03/01 A3010 700 85  -500 000/00 RMK AO2
14837KMSN MSN20050401072509304/01/05 07:25:31  5-MIN KMSN 011325Z 00000KT 7SM CLR 03/01 A3010 700 82  -500 000/00 RMK AO2
14837KMSN MSN20050401073009304/01/05 07:30:31  5-MIN KMSN 011330Z 00000KT 8SM CLR 03/01 A3010 700 85  -500 000/00 RMK AO2
14837KMSN MSN20050401073509304/01/05 07:35:31  5-MIN KMSN 011335Z 00000KT 8SM CLR 04/01 A3010 700 82  -400 000/00 RMK AO2
14837KMSN MSN20050401074009304/01/05 07:40:31  5-MIN KMSN 011340Z 00000KT 9SM CLR 04/01 A3010 700 82  -400 000/00 RMK AO2
14837KMSN MSN20050401074509304/01/05 07:45:31  5-MIN KMSN 011345Z 00000KT 9SM CLR 04/01 A3010 700 79  -300 000/00 RMK AO2
14837KMSN MSN20050401075011004/01/05 07:50:31  5-MIN KMSN 011350Z 00000KT 9SM CLR 04/01 A3010 700 79  -300 000/00 RMK AO2 SLP197 T00440011
14837KMSN MSN20050401075509304/01/05 07:55:31  5-MIN KMSN 011355Z 00000KT 9SM CLR 04/01 A3009 710 76  -300 000/00 RMK AO2
14837KMSN MSN20050401080009304/01/05 08:00:31  5-MIN KMSN 011400Z 00000KT 9SM CLR 05/01 A3009 710 76  -200 000/00 RMK AO2
14837KMSN MSN20050401080509404/01/05 08:05:31  5-MIN KMSN 011405Z 00000KT 10SM CLR 05/01 A3009 710 76  -200 000/00 RMK AO2
14837KMSN MSN20050401081009404/01/05 08:10:31  5-MIN KMSN 011410Z 00000KT 10SM CLR 06/01 A3009 710 73  -200 000/00 RMK AO2
14837KMSN MSN20050401081509404/01/05 08:15:31  5-MIN KMSN 011415Z 00000KT 10SM CLR 06/01 A3008 710 73  -200 000/00 RMK AO2
14837KMSN MSN20050401082009404/01/05 08:20:31  5-MIN KMSN 011420Z 00000KT 10SM CLR 06/01 A3008 710 70  -100 000/00 RMK AO2
14837KMSN MSN20050401082509404/01/05 08:25:31  5-MIN KMSN 011425Z 00000KT 10SM CLR 06/01 A3008 720 70  -100 000/00 RMK AO2
14837KMSN MSN20050401083009404/01/05 08:30:31  5-MIN KMSN 011430Z 00000KT 10SM CLR 06/01 A3008 720 70  -100 000/00 RMK AO2
14837KMSN MSN20050401083509404/01/05 08:35:31  5-MIN KMSN 011435Z 00000KT 10SM CLR 06/01 A3008 720 70  -100 000/00 RMK AO2
14837KMSN MSN20050401084009004/01/05 08:40:31  5-MIN KMSN 011440Z 00000KT 10SM CLR 07/01 A3008 720 67 0 000/00 RMK AO2
14837KMSN MSN20050401084509004/01/05 08:45:31  5-MIN KMSN 011445Z 00000KT 10SM CLR 07/01 A3007 720 65 0 000/00 RMK AO2
14837KMSN MSN20050401085011304/01/05 08:50:31  5-MIN KMSN 011450Z 00000KT 10SM CLR 07/01 A3007 720 65 0 000/00 RMK AO2 SLP189 T00720011 51008
14837KMSN MSN20050401085510104/01/05 08:55:31  5-MIN KMSN 011455Z 00000KT 10SM FEW025 SCT080 07/01  A3007 730 62 0 000/00 RMK AO2
14837KMSN MSN20050401090010104/01/05 09:00:31  5-MIN KMSN 011500Z 00000KT 10SM FEW025 SCT080 07/01  A3007 720 65 0 000/00 RMK AO2
14837KMSN MSN20050401090510104/01/05 09:05:31  5-MIN KMSN 011505Z 00000KT 10SM FEW025 SCT080 07/01  A3007 720 65 0 000/00 RMK AO2
14837KMSN MSN20050401091010104/01/05 09:10:31  5-MIN KMSN 011510Z 00000KT 10SM FEW025 SCT080 07/01  A3007 720 65 0 000/00 RMK AO2
14837KMSN MSN20050401091510304/01/05 09:15:31  5-MIN KMSN 011515Z 00000KT 10SM FEW025 SCT080 08/01  A3007 720 62 100 000/00 RMK AO2
14837KMSN MSN20050401092010304/01/05 09:20:31  5-MIN KMSN 011520Z VRB03KT 10SM FEW025 SCT080 08/01  A3007 720 62 100 VRB/03 RMK AO2
14837KMSN MSN20050401092510304/01/05 09:25:31  5-MIN KMSN 011525Z 00000KT 10SM FEW025 SCT080 08/01  A3008 720 58 100 000/00 RMK AO2
14837KMSN MSN20050401093010304/01/05 09:30:31  5-MIN KMSN 011530Z 24004KT 10SM FEW025 SCT080 08/01  A3008 720 58 100 240/04 RMK AO2
14837KMSN MSN20050401093510304/01/05 09:35:31  5-MIN KMSN 011535Z 23004KT 10SM FEW025 SCT080 08/01  A3008 720 58 100 230/04 RMK AO2
14837KMSN MSN20050401094010304/01/05 09:40:31  5-MIN KMSN 011540Z 24004KT 10SM FEW025 SCT080 08/01  A3008 720 58 100 240/04 RMK AO2
14837KMSN MSN20050401094510304/01/05 09:45:31  5-MIN KMSN 011545Z 23004KT 10SM FEW025 SCT080 08/01  A3008 720 58 100 230/04 RMK AO2
14837KMSN MSN20050401095012004/01/05 09:50:31  5-MIN KMSN 011550Z 23005KT 10SM FEW025 SCT080 08/01  A3007 720 58 100 230/05 RMK AO2 SLP190 T00830006
14837KMSN MSN20050401095509604/01/05 09:55:31  5-MIN KMSN 011555Z 24004KT 10SM BKN065 08/01 A3007 720  60 100 240/04 RMK AO2
14837KMSN MSN20050401100009604/01/05 10:00:31  5-MIN KMSN 011600Z 29003KT 10SM BKN065 08/00 A3007 730  55 100 290/03 RMK AO2
14837KMSN MSN20050401100509604/01/05 10:05:31  5-MIN KMSN 011605Z VRB03KT 10SM BKN065 09/00 A3007 730  53 200 VRB/03 RMK AO2
14837KMSN MSN20050401101009604/01/05 10:10:31  5-MIN KMSN 011610Z 00000KT 10SM OVC060 09/00 A3007 730  53 200 000/00 RMK AO2
14837KMSN MSN20050401101509604/01/05 10:15:31  5-MIN KMSN 011615Z VRB04KT 10SM OVC060 09/M01 A3007 730 51 200 VRB/04 RMK AO2
14837KMSN MSN20050401102009604/01/05 10:20:31  5-MIN KMSN 011620Z VRB03KT 10SM OVC060 09/M01 A3007 730 49 300 VRB/03 RMK AO2
14837KMSN MSN20050401102509604/01/05 10:25:31  5-MIN KMSN 011625Z 24004KT 10SM OVC065 09/M01 A3006 730 51 200 240/04 RMK AO2
14837KMSN MSN20050401103010404/01/05 10:30:31  5-MIN KMSN 011630Z 24005KT 10SM BKN065 OVC085 09/M01  A3006 730 47 300 240/05 RMK AO2
14837KMSN MSN20050401103511104/01/05 10:35:31  5-MIN KMSN 011635Z 26004KT 10SM SCT060 BKN080 BKN090  09/M01 A3006 730 47 300 260/04 RMK AO2
14837KMSN MSN20050401104010404/01/05 10:40:31  5-MIN KMSN 011640Z 27005KT 10SM SCT065 BKN090 10/M01  A3006 740 46 400 270/05 RMK AO2
14837KMSN MSN20050401104510404/01/05 10:45:31  5-MIN KMSN 011645Z 28006KT 10SM FEW070 BKN090 10/M01  A3006 740 46 400 280/06 RMK AO2
14837KMSN MSN20050401105012104/01/05 10:50:31  5-MIN KMSN 011650Z 25004KT 10SM SCT070 BKN090 10/M01  A3006 740 46 400 250/04 RMK AO2 SLP184 T01001011
14837KMSN MSN20050401105510404/01/05 10:55:31  5-MIN KMSN 011655Z VRB06KT 10SM FEW065 BKN090 10/M01  A3005 740 46 400 VRB/06 RMK AO2
14837KMSN MSN20050401110010404/01/05 11:00:31  5-MIN KMSN 011700Z 26007KT 10SM FEW065 BKN090 11/M01  A3005 740 46 400 260/07 RMK AO2
14837KMSN MSN20050401110510404/01/05 11:05:31  5-MIN KMSN 011705Z 29005KT 10SM FEW065 BKN090 10/M01  A3005 740 47 400 290/05 RMK AO2
14837KMSN MSN20050401111010404/01/05 11:10:31  5-MIN KMSN 011710Z 29007KT 10SM SCT065 BKN090 11/M01  A3005 750 46 400 280/07 RMK AO2
14837KMSN MSN20050401111510404/01/05 11:15:31  5-MIN KMSN 011715Z 29007KT 10SM SCT070 BKN090 11/M01  A3005 750 46 400 290/07 RMK AO2
14837KMSN MSN20050401112010404/01/05 11:20:31  5-MIN KMSN 011720Z 26006KT 10SM FEW065 BKN090 11/M01  A3004 750 46 400 260/06 RMK AO2
14837KMSN MSN20050401112510404/01/05 11:25:31  5-MIN KMSN 011725Z 28007KT 10SM FEW065 SCT085 11/M01  A3004 750 46 400 280/07 RMK AO2
14837KMSN MSN20050401113009604/01/05 11:30:31  5-MIN KMSN 011730Z VRB06KT 10SM FEW065 11/M01 A3004 750 46 400 VRB/06 RMK AO2
14837KMSN MSN20050401113509604/01/05 11:35:31  5-MIN KMSN 011735Z 31005KT 10SM FEW065 11/M01 A3004 760 46 400 310/05 RMK AO2
14837KMSN MSN20050401114011304/01/05 11:40:31  5-MIN KMSN 011740Z 27009KT 250V320 10SM FEW090 11/M01  A3003 760 44 500 270/09 250V320 RMK AO2
14837KMSN MSN20050401114509304/01/05 11:45:31  5-MIN KMSN 011745Z 25006KT 10SM CLR 11/M01 A3003 760 42 500 250/06 RMK AO2
14837KMSN MSN20050401115014304/01/05 11:50:31  5-MIN KMSN 011750Z 29007KT 240V310 10SM CLR 12/00 A3002 770 44 600 290/07 240V310 RMK AO2 SLP172 T01170000 10117 21006 58006
14837KMSN MSN20050401115510404/01/05 11:55:31  5-MIN KMSN 011755Z 30007KT 10SM SCT045 BKN100 12/M01  A3002 770 42 600 300/07 RMK AO2
14837KMSN MSN20050401120010404/01/05 12:00:31  5-MIN KMSN 011800Z 28009KT 10SM SCT045 BKN100 12/M01  A3002 770 42 600 280/09 RMK AO2
14837KMSN MSN20050401120510404/01/05 12:05:31  5-MIN KMSN 011805Z 26008KT 10SM SCT045 BKN100 12/M01  A3002 770 41 600 260/08 RMK AO2
14837KMSN MSN20050401121010404/01/05 12:10:31  5-MIN KMSN 011810Z 30009KT 10SM SCT045 BKN100 12/M02  A3002 770 39 600 300/09 RMK AO2
14837KMSN MSN20050401121510404/01/05 12:15:31  5-MIN KMSN 011815Z 30009KT 10SM SCT045 BKN100 12/M01  A3002 770 41 600 300/09 RMK AO2
14837KMSN MSN20050401122010404/01/05 12:20:31  5-MIN KMSN 011820Z 29011KT 10SM SCT050 BKN100 12/M01  A3002 780 41 600 290/11 RMK AO2
14837KMSN MSN20050401122510404/01/05 12:25:31  5-MIN KMSN 011825Z 28009KT 10SM SCT050 BKN100 12/M01  A3001 780 41 600 280/09 RMK AO2
14837KMSN MSN20050401123010404/01/05 12:30:31  5-MIN KMSN 011830Z 27010KT 10SM SCT050 BKN100 12/M01  A3001 780 42 600 270/10 RMK AO2
14837KMSN MSN20050401123510404/01/05 12:35:31  5-MIN KMSN 011835Z 28009KT 10SM SCT050 BKN100 12/M01  A3001 780 42 600 280/09 RMK AO2
14837KMSN MSN20050401124010904/01/05 12:40:31  5-MIN KMSN 011840Z 29012G15KT 10SM SCT050 BKN100 12/M02 A3001 780 39 600 290/12G15 RMK AO2
14837KMSN MSN20050401124512504/01/05 12:45:31  5-MIN KMSN 011845Z 28009G15KT 240V310 10SM SCT050 BKN100 12/M02 A3001 780 38 600 280/09G15 240V310 RMK AO2
14837KMSN MSN20050401125012104/01/05 12:50:31  5-MIN KMSN 011850Z 29010KT 10SM SCT050 BKN100 12/M02  A3001 780 38 600 290/10 RMK AO2 SLP167 T01171022
14837KMSN MSN20050401125510904/01/05 12:55:31  5-MIN KMSN 011855Z 29012G17KT 10SM BKN047 BKN090 12/M02 A3001 790 38 600 290/12G17 RMK AO2
14837KMSN MSN20050401130010904/01/05 13:00:31  5-MIN KMSN 011900Z 29011G18KT 10SM BKN047 BKN090 12/M03 A3000 790 36 600 290/11G18 RMK AO2
14837KMSN MSN20050401130510904/01/05 13:05:31  5-MIN KMSN 011905Z 29009G18KT 10SM BKN047 BKN090 12/M03 A3000 790 35 600 290/09G18 RMK AO2
14837KMSN MSN20050401131010404/01/05 13:10:31  5-MIN KMSN 011910Z 30011KT 10SM BKN047 BKN090 12/M03  A3000 790 36 600 300/11 RMK AO2
14837KMSN MSN20050401131509604/01/05 13:15:31  5-MIN KMSN 011915Z 29012KT 10SM SCT090 11/M04 A3000 790 34 600 290/12 RMK AO2
14837KMSN MSN20050401132010904/01/05 13:20:31  5-MIN KMSN 011920Z 28012G17KT 10SM FEW060 SCT090 11/M04 A3000 790 33 600 280/12G17 RMK AO2
14837KMSN MSN20050401132510904/01/05 13:25:31  5-MIN KMSN 011925Z 29016G19KT 10SM FEW065 SCT090 12/M06 A3000 790 29 600 290/16G19 RMK AO2
14837KMSN MSN20050401133010304/01/05 13:30:31  5-MIN KMSN 011930Z 30011G19KT 10SM SCT060 12/M06 A3000  800 29 600 300/11G19 RMK AO2
14837KMSN MSN20050401133509604/01/05 13:35:31  5-MIN KMSN 011935Z 31012KT 10SM SCT060 12/M05 A2999 800 30 600 310/12 RMK AO2
14837KMSN MSN20050401134010304/01/05 13:40:31  5-MIN KMSN 011940Z 29013G19KT 10SM FEW060 12/M05 A2999  800 30 600 290/13G19 RMK AO2
14837KMSN MSN20050401134510304/01/05 13:45:31  5-MIN KMSN 011945Z 32016G20KT 10SM FEW060 11/M06 A2999  800 30 600 310/16G20 RMK AO2
14837KMSN MSN20050401135012004/01/05 13:50:31  5-MIN KMSN 011950Z 31011G20KT 10SM BKN060 11/M06 A2999  800 31 500 310/11G20 RMK AO2 SLP160 T01061056
14837KMSN MSN20050401135510304/01/05 13:55:31  5-MIN KMSN 011955Z 30013G18KT 10SM BKN065 11/M06 A2999  800 31 500 300/13G18 RMK AO2
14837KMSN MSN20050401140011304/01/05 14:00:31  5-MIN KMSN 012000Z 30010KT 270V330 10SM BKN065 11/M06  A2998 810 30 500 300/10 270V330 RMK AO2
14837KMSN MSN20050401140510304/01/05 14:05:31  5-MIN KMSN 012005Z 31012G18KT 10SM BKN065 11/M06 A2998  810 31 500 300/12G18 RMK AO2
14837KMSN MSN20050401141010304/01/05 14:10:31  5-MIN KMSN 012010Z 32013G18KT 10SM SCT070 11/M05 A2998  810 33 500 310/13G18 RMK AO2
14837KMSN MSN20050401141510304/01/05 14:15:31  5-MIN KMSN 012015Z 31015G18KT 10SM BKN070 11/M05 A2998  810 33 500 310/15G18 RMK AO2
14837KMSN MSN20050401142010304/01/05 14:20:31  5-MIN KMSN 012020Z 30013G18KT 10SM BKN070 11/M04 A2997  810 34 500 300/13G18 RMK AO2
14837KMSN MSN20050401142510304/01/05 14:25:31  5-MIN KMSN 012025Z 31014G19KT 10SM BKN075 11/M03 A2997  810 39 500 310/14G19 RMK AO2
14837KMSN MSN20050401143010304/01/05 14:30:31  5-MIN KMSN 012030Z 31014G19KT 10SM OVC075 10/M03 A2997  820 40 500 310/14G19 RMK AO2
14837KMSN MSN20050401143509604/01/05 14:35:31  5-MIN KMSN 012035Z 31012KT 10SM OVC075 10/M03 A2997 820 40 500 310/12 RMK AO2
14837KMSN MSN20050401144009604/01/05 14:40:31  5-MIN KMSN 012040Z 32011KT 10SM OVC080 10/M03 A2997 820 40 500 320/11 RMK AO2
14837KMSN MSN20050401144509604/01/05 14:45:31  5-MIN KMSN 012045Z 31010KT 10SM OVC080 11/M02 A2997 820 40 500 310/10 RMK AO2
14837KMSN MSN20050401145011904/01/05 14:50:31  5-MIN KMSN 012050Z 31008KT 10SM OVC080 10/M03 A2996 820 40 500 310/08 RMK AO2 SLP152 T01001028 58016
14837KMSN MSN20050401145509604/01/05 14:55:31  5-MIN KMSN 012055Z 33009KT 10SM OVC080 10/M03 A2996 830 39 500 330/09 RMK AO2
14837KMSN MSN20050401150009604/01/05 15:00:31  5-MIN KMSN 012100Z 31008KT 10SM OVC080 11/M04 A2996 830 36 500 310/08 RMK AO2
14837KMSN MSN20050401150509604/01/05 15:05:31  5-MIN KMSN 012105Z 29008KT 10SM OVC080 11/M04 A2996 830 34 500 290/08 RMK AO2
14837KMSN MSN20050401151009604/01/05 15:10:31  5-MIN KMSN 012110Z 31009KT 10SM OVC080 11/M05 A2996 830 32 600 310/09 RMK AO2
14837KMSN MSN20050401151511304/01/05 15:15:31  5-MIN KMSN 012115Z 30009KT 270V330 10SM OVC080 11/M05  A2996 830 32 600 300/09 270V330 RMK AO2
14837KMSN MSN20050401152009604/01/05 15:20:31  5-MIN KMSN 012120Z 31010KT 10SM OVC080 11/M04 A2996 830 34 500 310/10 RMK AO2
14837KMSN MSN20050401152509604/01/05 15:25:31  5-MIN KMSN 012125Z 29008KT 10SM OVC085 11/M05 A2996 830 32 600 290/08 RMK AO2
14837KMSN MSN20050401153009604/01/05 15:30:31  5-MIN KMSN 012130Z 30009KT 10SM OVC085 11/M05 A2996 830 33 500 300/09 RMK AO2
14837KMSN MSN20050401153509604/01/05 15:35:31  5-MIN KMSN 012135Z 29008KT 10SM OVC085 11/M05 A2996 830 33 500 290/08 RMK AO2
14837KMSN MSN20050401154009604/01/05 15:40:31  5-MIN KMSN 012140Z 31009KT 10SM OVC090 11/M05 A2995 830 33 500 310/09 RMK AO2
14837KMSN MSN20050403211509304/03/05 21:15:31  5-MIN KMSN 040315Z 00000KT 10SM CLR 08/04 A2995 840 73  300 000/00 RMK AO2
14837KMSN MSN20050403212009304/03/05 21:20:31  5-MIN KMSN 040320Z 00000KT 10SM CLR 08/04 A2995 840 73  300 000/00 RMK AO2
14837KMSN MSN20050403212509304/03/05 21:25:31  5-MIN KMSN 040325Z 00000KT 10SM CLR 08/02 A2995 840 65  200 000/00 RMK AO2
14837KMSN MSN20050403213009304/03/05 21:30:31  5-MIN KMSN 040330Z 00000KT 10SM CLR 07/02 A2995 840 70  100 000/00 RMK AO2
14837KMSN MSN20050403213509304/03/05 21:35:31  5-MIN KMSN 040335Z 00000KT 10SM CLR 07/01 A2995 840 62  100 000/00 RMK AO2
14837KMSN MSN20050403214009304/03/05 21:40:31  5-MIN KMSN 040340Z 00000KT 10SM CLR 07/00 A2995 840 62  100 000/00 RMK AO2
14837KMSN MSN20050403214509304/03/05 21:45:31  5-MIN KMSN 040345Z 00000KT 10SM CLR 07/01 A2995 840 62  100 000/00 RMK AO2
14837KMSN MSN20050403215011004/03/05 21:50:31  5-MIN KMSN 040350Z 00000KT 10SM CLR 07/00 A2995 840 60  100 000/00 RMK AO2 SLP144 T00720000
14837KMSN MSN20050403215509004/03/05 21:55:31  5-MIN KMSN 040355Z 05005KT 10SM CLR 06/00 A2995 840 65 0 050/05 RMK AO2
14837KMSN MSN20050403220009004/03/05 22:00:31  5-MIN KMSN 040400Z 00000KT 10SM CLR 06/00 A2995 840 65 0 000/00 RMK AO2
14837KMSN MSN20050403220509304/03/05 22:05:31  5-MIN KMSN 040405Z 24003KT 10SM CLR 07/02 A2995 840 70  100 240/03 RMK AO2
14837KMSN MSN20050403221009304/03/05 22:10:31  5-MIN KMSN 040410Z 00000KT 10SM CLR 07/02 A2995 840 73  100 000/00 RMK AO2
14837KMSN MSN20050403221509304/03/05 22:15:31  5-MIN KMSN 040415Z 00000KT 10SM CLR 07/02 A2995 840 73  100 000/00 RMK AO2
14837KMSN MSN20050403222009304/03/05 22:20:31  5-MIN KMSN 040420Z 00000KT 10SM CLR 07/02 A2995 840 70  100 000/00 RMK AO2
14837KMSN MSN20050403222509304/03/05 22:25:31  5-MIN KMSN 040425Z 00000KT 10SM CLR 07/02 A2995 840 70  100 000/00 RMK AO2
14837KMSN MSN20050403223009004/03/05 22:30:31  5-MIN KMSN 040430Z 00000KT 10SM CLR 06/02 A2995 840 73 0 000/00 RMK AO2
14837KMSN MSN20050403223509004/03/05 22:35:31  5-MIN KMSN 040435Z 00000KT 10SM CLR 06/01 A2995 840 67 0 000/00 RMK AO2
14837KMSN MSN20050403224009404/03/05 22:40:31  5-MIN KMSN 040440Z 00000KT 10SM CLR 05/01 A2995 840 76  -100 000/00 RMK AO2
14837KMSN MSN20050403224509004/03/05 22:45:31  5-MIN KMSN 040445Z 00000KT 10SM CLR 06/01 A2995 840 73 0 000/00 RMK AO2
14837KMSN MSN20050403225010704/03/05 22:50:31  5-MIN KMSN 040450Z 00000KT 10SM CLR 06/02 A2995 830 76 0 000/00 RMK AO2 SLP145 T00560017
14837KMSN MSN20050403225509004/03/05 22:55:31  5-MIN KMSN 040455Z 00000KT 10SM CLR 06/02 A2995 830 79 0 000/00 RMK AO2
14837KMSN MSN20050403230009004/03/05 23:00:31  5-MIN KMSN 040500Z 00000KT 10SM CLR 06/02 A2995 830 76 0 000/00 RMK AO2
14837KMSN MSN20050403230509004/03/05 23:05:31  5-MIN KMSN 040505Z 00000KT 10SM CLR 06/03 A2995 830 79 0 000/00 RMK AO2
14837KMSN MSN20050403231009004/03/05 23:10:31  5-MIN KMSN 040510Z 00000KT 10SM CLR 06/02 A2995 830 79 0 000/00 RMK AO2
14837KMSN MSN20050403231509004/03/05 23:15:31  5-MIN KMSN 040515Z 00000KT 10SM CLR 06/01 A2996 830 67 0 000/00 RMK AO2
14837KMSN MSN20050403232009004/03/05 23:20:31  5-MIN KMSN 040520Z 00000KT 10SM CLR 06/01 A2995 830 70 0 000/00 RMK AO2
14837KMSN MSN20050403232509004/03/05 23:25:31  5-MIN KMSN 040525Z 00000KT 10SM CLR 06/01 A2995 830 73 0 000/00 RMK AO2
14837KMSN MSN20050403233009004/03/05 23:30:31  5-MIN KMSN 040530Z 00000KT 10SM CLR 06/01 A2995 840 73 0 000/00 RMK AO2
14837KMSN MSN20050403233509004/03/05 23:35:31  5-MIN KMSN 040535Z 00000KT 10SM CLR 06/01 A2995 840 73 0 000/00 RMK AO2
14837KMSN MSN20050403234009004/03/05 23:40:31  5-MIN KMSN 040540Z 00000KT 10SM CLR 06/02 A2995 840 79 0 000/00 RMK AO2
14837KMSN MSN20050403234509404/03/05 23:45:31  5-MIN KMSN 040545Z 00000KT 10SM CLR 04/01 A2995 830 79  -200 000/00 RMK AO2
14837KMSN MSN20050403235013904/03/05 23:50:31  5-MIN KMSN 040550Z 00000KT 10SM CLR 05/01 A2995 830 76  -100 000/00 RMK AO2 SLP146 T00500011 10178 20044 401891011 53009
14837KMSN MSN20050403235509004/03/05 23:55:31  5-MIN KMSN 040555Z 00000KT 10SM CLR 06/01 A2995 830 73 0 000/00 RMK AO2
14837KMSN MSN20050404000009404/04/05 00:00:31  5-MIN KMSN 040600Z 00000KT 10SM CLR 05/02 A2996 830 79  -100 000/00 RMK AO2
14837KMSN MSN20050404000509404/04/05 00:05:31  5-MIN KMSN 040605Z 00000KT 10SM CLR 05/02 A2996 830 82  -100 000/00 RMK AO2
14837KMSN MSN20050404001009404/04/05 00:10:31  5-MIN KMSN 040610Z 00000KT 10SM CLR 04/02 A2996 830 82  -200 000/00 RMK AO2
14837KMSN MSN20050404001509404/04/05 00:15:31  5-MIN KMSN 040615Z 00000KT 10SM CLR 04/02 A2995 830 82  -200 000/00 RMK AO2
14837KMSN MSN20050404002009404/04/05 00:20:31  5-MIN KMSN 040620Z 00000KT 10SM CLR 04/01 A2995 830 79  -200 000/00 RMK AO2
14837KMSN MSN20050404002509404/04/05 00:25:31  5-MIN KMSN 040625Z 00000KT 10SM CLR 04/01 A2995 830 79  -200 000/00 RMK AO2
14837KMSN MSN20050404003009404/04/05 00:30:31  5-MIN KMSN 040630Z 00000KT 10SM CLR 04/01 A2996 830 79  -200 000/00 RMK AO2
14837KMSN MSN20050404003509404/04/05 00:35:31  5-MIN KMSN 040635Z 00000KT 10SM CLR 04/01 A2996 830 82  -200 000/00 RMK AO2
14837KMSN MSN20050404004009404/04/05 00:40:31  5-MIN KMSN 040640Z 00000KT 10SM CLR 04/01 A2996 830 79  -200 000/00 RMK AO2
14837KMSN MSN20050404004509404/04/05 00:45:31  5-MIN KMSN 040645Z 00000KT 10SM CLR 04/01 A2996 830 79  -200 000/00 RMK AO2
14837KMSN MSN20050404005011104/04/05 00:50:31  5-MIN KMSN 040650Z 00000KT 10SM CLR 04/01 A2995 830 79  -200 000/00 RMK AO2 SLP146 T00440011
14837KMSN MSN20050404005509404/04/05 00:55:31  5-MIN KMSN 040655Z 00000KT 10SM CLR 04/01 A2995 830 76  -200 000/00 RMK AO2
14837KMSN MSN20050404010009404/04/05 01:00:31  5-MIN KMSN 040700Z 00000KT 10SM CLR 05/00 A2996 830 70  -100 000/00 RMK AO2
14837KMSN MSN20050404010509404/04/05 01:05:31  5-MIN KMSN 040705Z 00000KT 10SM CLR 04/00 A2996 830 73  -200 000/00 RMK AO2
14837KMSN MSN20050404011009404/04/05 01:10:31  5-MIN KMSN 040710Z 00000KT 10SM CLR 04/01 A2996 830 76  -200 000/00 RMK AO2
14837KMSN MSN20050404011509404/04/05 01:15:31  5-MIN KMSN 040715Z 00000KT 10SM CLR 05/00 A2996 830 70  -100 000/00 RMK AO2
14837KMSN MSN20050404012009404/04/05 01:20:31  5-MIN KMSN 040720Z 00000KT 10SM CLR 04/01 A2996 830 79  -200 000/00 RMK AO2
14837KMSN MSN20050404012509404/04/05 01:25:31  5-MIN KMSN 040725Z 00000KT 10SM CLR 03/00 A2995 830 79  -300 000/00 RMK AO2
14837KMSN MSN20050404013009404/04/05 01:30:31  5-MIN KMSN 040730Z 00000KT 10SM CLR 03/00 A2995 830 79  -300 000/00 RMK AO2
14837KMSN MSN20050404013509404/04/05 01:35:31  5-MIN KMSN 040735Z 00000KT 10SM CLR 03/M01 A2995 830 79 -400 000/00 RMK AO2
14837KMSN MSN20050404014009404/04/05 01:40:31  5-MIN KMSN 040740Z 00000KT 10SM CLR 03/00 A2995 830 82  -400 000/00 RMK AO2
14837KMSN MSN20050404014509404/04/05 01:45:31  5-MIN KMSN 040745Z 00000KT 10SM CLR 03/00 A2995 830 79  -300 000/00 RMK AO2
14837KMSN MSN20050404015011104/04/05 01:50:31  5-MIN KMSN 040750Z 00000KT 10SM CLR 04/00 A2995 840 76  -200 000/00 RMK AO2 SLP145 T00390000
14837KMSN MSN20050404015509404/04/05 01:55:31  5-MIN KMSN 040755Z 00000KT 10SM CLR 04/00 A2995 840 76  -200 000/00 RMK AO2
14837KMSN MSN20050404020009404/04/05 02:00:31  5-MIN KMSN 040800Z 00000KT 10SM CLR 03/00 A2995 840 79  -300 000/00 RMK AO2
14837KMSN MSN20050404020509404/04/05 02:05:31  5-MIN KMSN 040805Z 00000KT 10SM CLR 03/01 A2995 840 82  -300 000/00 RMK AO2
14837KMSN MSN20050404021009404/04/05 02:10:31  5-MIN KMSN 040810Z 00000KT 10SM CLR 03/01 A2995 840 85  -300 000/00 RMK AO2
14837KMSN MSN20050404021509404/04/05 02:15:31  5-MIN KMSN 040815Z 00000KT 10SM CLR 03/01 A2995 840 82  -300 000/00 RMK AO2
14837KMSN MSN20050404022009404/04/05 02:20:31  5-MIN KMSN 040820Z 00000KT 10SM CLR 03/01 A2995 840 82  -300 000/00 RMK AO2
14837KMSN MSN20050404022509304/04/05 02:25:31  5-MIN KMSN 040825Z 00000KT 9SM CLR 03/01 A2995 840 85  -300 000/00 RMK AO2
14837KMSN MSN20050404023009304/04/05 02:30:31  5-MIN KMSN 040830Z 00000KT 9SM CLR 03/01 A2995 840 85  -300 000/00 RMK AO2
14837KMSN MSN20050404023509304/04/05 02:35:31  5-MIN KMSN 040835Z 00000KT 9SM CLR 03/01 A2995 840 82  -300 000/00 RMK AO2
14837KMSN MSN20050404024009304/04/05 02:40:31  5-MIN KMSN 040840Z 00000KT 9SM CLR 03/01 A2995 840 85  -300 000/00 RMK AO2
14837KMSN MSN20050404024509304/04/05 02:45:31  5-MIN KMSN 040845Z 00000KT 9SM CLR 03/01 A2995 840 85  -400 000/00 RMK AO2
14837KMSN MSN20050404025011604/04/05 02:50:31  5-MIN KMSN 040850Z 00000KT 9SM CLR 02/01 A2995 840 89  -400 000/00 RMK AO2 SLP143 T00220006 51001
14837KMSN MSN20050404025509304/04/05 02:55:31  5-MIN KMSN 040855Z 00000KT 8SM CLR 03/01 A2995 840 85  -300 000/00 RMK AO2
14837KMSN MSN20050404030009304/04/05 03:00:31  5-MIN KMSN 040900Z 00000KT 9SM CLR 02/01 A2995 840 89  -400 000/00 RMK AO2
14837KMSN MSN20050404030509304/04/05 03:05:31  5-MIN KMSN 040905Z 00000KT 9SM CLR 03/01 A2995 840 85  -400 000/00 RMK AO2
14837KMSN MSN20050404031009304/04/05 03:10:31  5-MIN KMSN 040910Z 00000KT 9SM CLR 03/01 A2995 840 85  -300 000/00 RMK AO2
14837KMSN MSN20050404031509304/04/05 03:15:31  5-MIN KMSN 040915Z 00000KT 8SM CLR 02/01 A2995 840 89  -400 000/00 RMK AO2
14837KMSN MSN20050404032009304/04/05 03:20:31  5-MIN KMSN 040920Z 33003KT 8SM CLR 02/00 A2995 840 89  -500 330/03 RMK AO2
14837KMSN MSN20050404032509304/04/05 03:25:31  5-MIN KMSN 040925Z 33003KT 8SM CLR 02/00 A2995 840 89  -500 330/03 RMK AO2
14837KMSN MSN20050404033009304/04/05 03:30:31  5-MIN KMSN 040930Z 00000KT 8SM CLR 02/00 A2995 840 85  -400 000/00 RMK AO2
14837KMSN MSN20050404033509304/04/05 03:35:31  5-MIN KMSN 040935Z 00000KT 8SM CLR 02/01 A2994 840 89  -400 000/00 RMK AO2
14837KMSN MSN20050404034009304/04/05 03:40:31  5-MIN KMSN 040940Z 00000KT 8SM CLR 02/01 A2994 840 89  -400 000/00 RMK AO2
14837KMSN MSN20050404034509304/04/05 03:45:31  5-MIN KMSN 040945Z 00000KT 8SM CLR 02/01 A2994 840 89  -400 000/00 RMK AO2
14837KMSN MSN20050404035011004/04/05 03:50:31  5-MIN KMSN 040950Z 00000KT 8SM CLR 02/01 A2995 840 89  -400 000/00 RMK AO2 SLP143 T00220006
14837KMSN MSN20050404035509304/04/05 03:55:31  5-MIN KMSN 040955Z 00000KT 8SM CLR 02/01 A2995 840 89  -400 000/00 RMK AO2
14837KMSN MSN20050404040009304/04/05 04:00:31  5-MIN KMSN 041000Z 00000KT 8SM CLR 02/01 A2995 840 92  -500 000/00 RMK AO2
14837KMSN MSN20050404040509304/04/05 04:05:31  5-MIN KMSN 041005Z 00000KT 8SM CLR 02/01 A2995 840 92  -500 000/00 RMK AO2
14837KMSN MSN20050404041009304/04/05 04:10:31  5-MIN KMSN 041010Z 00000KT 8SM CLR 02/00 A2995 840 89  -500 000/00 RMK AO2
14837KMSN MSN20050404041509304/04/05 04:15:31  5-MIN KMSN 041015Z 00000KT 8SM CLR 02/01 A2995 840 89  -400 000/00 RMK AO2
14837KMSN MSN20050404042009304/04/05 04:20:31  5-MIN KMSN 041020Z 00000KT 8SM CLR 02/01 A2995 840 89  -400 000/00 RMK AO2
14837KMSN MSN20050404042509304/04/05 04:25:31  5-MIN KMSN 041025Z 00000KT 8SM CLR 02/00 A2995 840 89  -500 000/00 RMK AO2
14837KMSN MSN20050404043009304/04/05 04:30:31  5-MIN KMSN 041030Z 00000KT 8SM CLR 02/00 A2995 830 89  -500 000/00 RMK AO2
14837KMSN MSN20050404043509304/04/05 04:35:31  5-MIN KMSN 041035Z 00000KT 8SM CLR 02/00 A2996 830 89  -500 000/00 RMK AO2
14837KMSN MSN20050404044009304/04/05 04:40:31  5-MIN KMSN 041040Z 00000KT 8SM CLR 02/00 A2996 830 89  -500 000/00 RMK AO2
14837KMSN MSN20050404044509304/04/05 04:45:31  5-MIN KMSN 041045Z 00000KT 8SM CLR 02/00 A2995 830 89  -500 000/00 RMK AO2
14837KMSN MSN20050404045011104/04/05 04:50:31  5-MIN KMSN 041050Z 00000KT 8SM CLR 01/M01 A2995 830 89  -600 000/00 RMK AO2 SLP146 T00111006
14837KMSN MSN20050404045509404/04/05 04:55:31  5-MIN KMSN 041055Z 00000KT 8SM CLR 01/M01 A2996 830 85  -600 000/00 RMK AO2
14837KMSN MSN20050404050009404/04/05 05:00:31  5-MIN KMSN 041100Z 00000KT 8SM CLR 01/M02 A2996 830 82  -600 000/00 RMK AO2
14837KMSN MSN20050404050509404/04/05 05:05:31  5-MIN KMSN 041105Z 00000KT 8SM CLR 01/M01 A2996 830 85  -600 000/00 RMK AO2
14837KMSN MSN20050404051009404/04/05 05:10:31  5-MIN KMSN 041110Z 00000KT 8SM CLR 01/M01 A2996 830 85  -600 000/00 RMK AO2
14837KMSN MSN20050404051509304/04/05 05:15:31  5-MIN KMSN 041115Z 00000KT 7SM CLR 02/00 A2996 830 89  -500 000/00 RMK AO2
14837KMSN MSN20050404052009304/04/05 05:20:31  5-MIN KMSN 041120Z 00000KT 7SM CLR 02/00 A2995 830 89  -500 000/00 RMK AO2
14837KMSN MSN20050404052509404/04/05 05:25:31  5-MIN KMSN 041125Z 00000KT 8SM CLR 01/M02 A2996 830 85  -600 000/00 RMK AO2
14837KMSN MSN20050404053009404/04/05 05:30:31  5-MIN KMSN 041130Z 00000KT 8SM CLR 01/M02 A2996 830 82  -600 000/00 RMK AO2
14837KMSN MSN20050404053509404/04/05 05:35:31  5-MIN KMSN 041135Z 00000KT 7SM CLR 01/M01 A2996 830 85  -600 000/00 RMK AO2
14837KMSN MSN20050404054009704/04/05 05:40:31  5-MIN KMSN 041140Z 35003KT 6SM BR CLR 01/M01 A2996 830  89 -600 350/03 RMK AO2
14837KMSN MSN20050404054509704/04/05 05:45:31  5-MIN KMSN 041145Z 00000KT 4SM BR CLR 01/M01 A2996 830  89 -600 000/00 RMK AO2
14837KMSN MSN20050404055013004/04/05 05:50:31  5-MIN KMSN 041150Z 00000KT 4SM BR CLR 02/00 A2996 830 89 -500 000/00 RMK AO2 SLP148 T00170000 10056 20006 58002
14837KMSN MSN20050404055509504/04/05 05:55:31  5-MIN KMSN 041155Z 00000KT 5SM BR CLR 02/00 A2996 830 89 -500 000/00 RMK AO2
14837KMSN MSN20050404060009504/04/05 06:00:31  5-MIN KMSN 041200Z 00000KT 5SM BR CLR 02/00 A2996 830 89 -500 000/00 RMK AO2
14837KMSN MSN20050404060509504/04/05 06:05:31  5-MIN KMSN 041205Z 00000KT 6SM BR CLR 02/00 A2996 830 89 -500 000/00 RMK AO2
14837KMSN MSN20050404061009504/04/05 06:10:31  5-MIN KMSN 041210Z 00000KT 5SM BR CLR 01/00 A2997 820 92 -600 000/00 RMK AO2
14837KMSN MSN20050404061509504/04/05 06:15:31  5-MIN KMSN 041215Z 00000KT 5SM BR CLR 02/00 A2997 820 89 -500 000/00 RMK AO2
14837KMSN MSN20050404062009504/04/05 06:20:31  5-MIN KMSN 041220Z 00000KT 6SM BR CLR 02/00 A2996 820 89 -500 000/00 RMK AO2
14837KMSN MSN20050404062509504/04/05 06:25:31  5-MIN KMSN 041225Z 00000KT 6SM BR CLR 02/00 A2997 820 89 -500 000/00 RMK AO2
14837KMSN MSN20050404063009704/04/05 06:30:31  5-MIN KMSN 041230Z 05003KT 6SM HZ CLR 02/M01 A2996 830  82 -400 050/03 RMK AO2
14837KMSN MSN20050404063509404/04/05 06:35:31  5-MIN KMSN 041235Z 06004KT 7SM CLR 02/M01 A2996 820 85  -500 060/04 RMK AO2
14837KMSN MSN20050404064009304/04/05 06:40:31  5-MIN KMSN 041240Z 00000KT 7SM CLR 03/00 A2997 820 82  -400 000/00 RMK AO2
14837KMSN MSN20050404064509504/04/05 06:45:31  5-MIN KMSN 041245Z 06003KT 6SM HZ CLR 03/01 A2996 820 82 -300 060/03 RMK AO2
14837KMSN MSN20050404065011004/04/05 06:50:31  5-MIN KMSN 041250Z 06004KT 7SM CLR 04/01 A2997 820 82  -200 060/04 RMK AO2 SLP151 T00390011
14837KMSN MSN20050404065509304/04/05 06:55:31  5-MIN KMSN 041255Z 05003KT 7SM CLR 05/02 A2997 820 79  -100 050/03 RMK AO2
14837KMSN MSN20050404070008904/04/05 07:00:31  5-MIN KMSN 041300Z 05003KT 7SM CLR 06/02 A2997 820 76 0 050/03 RMK AO2
14837KMSN MSN20050404070508904/04/05 07:05:31  5-MIN KMSN 041305Z 05005KT 7SM CLR 06/02 A2997 820 76 0 050/05 RMK AO2
14837KMSN MSN20050404071008904/04/05 07:10:31  5-MIN KMSN 041310Z 06005KT 7SM CLR 06/02 A2997 820 73 0 060/05 RMK AO2
14837KMSN MSN20050404071508904/04/05 07:15:31  5-MIN KMSN 041315Z 05004KT 7SM CLR 06/02 A2997 820 73 0 050/04 RMK AO2
14837KMSN MSN20050404072009204/04/05 07:20:31  5-MIN KMSN 041320Z 06006KT 7SM CLR 07/02 A2996 830 70  100 060/06 RMK AO2
14837KMSN MSN20050404072509204/04/05 07:25:31  5-MIN KMSN 041325Z 07006KT 7SM CLR 07/02 A2996 830 70  100 070/06 RMK AO2
14837KMSN MSN20050404073009204/04/05 07:30:31  5-MIN KMSN 041330Z 08004KT 8SM CLR 07/02 A2997 820 68  100 080/04 RMK AO2
14837KMSN MSN20050404073509204/04/05 07:35:31  5-MIN KMSN 041335Z 08004KT 8SM CLR 07/01 A2996 830 65  100 080/04 RMK AO2
14837KMSN MSN20050404074009204/04/05 07:40:31  5-MIN KMSN 041340Z 12007KT 8SM CLR 08/01 A2996 820 60  200 120/07 RMK AO2
14837KMSN MSN20050404074509204/04/05 07:45:31  5-MIN KMSN 041345Z 10008KT 8SM CLR 08/01 A2996 830 60  200 100/08 RMK AO2
14837KMSN MSN20050404075010904/04/05 07:50:31  5-MIN KMSN 041350Z 10008KT 8SM CLR 08/01 A2996 830 60  200 100/08 RMK AO2 SLP149 T00780006
14837KMSN MSN20050404075509204/04/05 07:55:31  5-MIN KMSN 041355Z 10007KT 8SM CLR 08/01 A2996 830 58  300 100/07 RMK AO2
14837KMSN MSN20050404080009204/04/05 08:00:31  5-MIN KMSN 041400Z 11006KT 8SM CLR 09/01 A2996 830 56  300 110/06 RMK AO2
14837KMSN MSN20050404080509204/04/05 08:05:31  5-MIN KMSN 041405Z 11007KT 9SM CLR 09/01 A2996 830 56  300 110/07 RMK AO2
14837KMSN MSN20050404081009204/04/05 08:10:31  5-MIN KMSN 041410Z 11006KT 9SM CLR 09/01 A2996 830 53  400 110/06 RMK AO2
14837KMSN MSN20050404081509204/04/05 08:15:31  5-MIN KMSN 041415Z 10007KT 9SM CLR 09/01 A2996 830 53  400 100/07 RMK AO2
14837KMSN MSN20050404082009204/04/05 08:20:31  5-MIN KMSN 041420Z 11006KT 9SM CLR 10/01 A2996 830 52  500 110/06 RMK AO2
14837KMSN MSN20050404082509204/04/05 08:25:31  5-MIN KMSN 041425Z 11006KT 9SM CLR 10/01 A2996 830 52  500 110/06 RMK AO2
14837KMSN MSN20050404083009204/04/05 08:30:31  5-MIN KMSN 041430Z 09005KT 9SM CLR 10/01 A2996 830 52  500 090/05 RMK AO2
14837KMSN MSN20050404083509204/04/05 08:35:31  5-MIN KMSN 041435Z 10005KT 9SM CLR 11/01 A2996 830 50  500 090/05 RMK AO2
14837KMSN MSN20050404084009204/04/05 08:40:31  5-MIN KMSN 041440Z 11006KT 9SM CLR 11/01 A2995 830 48  600 110/06 RMK AO2
14837KMSN MSN20050404084509204/04/05 08:45:31  5-MIN KMSN 041445Z 10007KT 9SM CLR 12/01 A2995 840 46  700 100/07 RMK AO2
14837KMSN MSN20050404085011504/04/05 08:50:31  5-MIN KMSN 041450Z 10006KT 9SM CLR 12/01 A2995 830 46  700 100/06 RMK AO2 SLP145 T01220011 53006
14837KMSN MSN20050404085509204/04/05 08:55:31  5-MIN KMSN 041455Z 11008KT 9SM CLR 12/01 A2995 830 44  700 110/08 RMK AO2
14837KMSN MSN20050404090009204/04/05 09:00:31  5-MIN KMSN 041500Z 11007KT 9SM CLR 12/01 A2995 830 44  700 110/07 RMK AO2
14837KMSN MSN20050404090509204/04/05 09:05:31  5-MIN KMSN 041505Z 13008KT 9SM CLR 13/01 A2995 830 44  800 130/08 RMK AO2
14837KMSN MSN20050404091009204/04/05 09:10:31  5-MIN KMSN 041510Z 11007KT 9SM CLR 13/01 A2996 830 44  800 110/07 RMK AO2
14837KMSN MSN20050404091509204/04/05 09:15:31  5-MIN KMSN 041515Z 11007KT 9SM CLR 13/01 A2996 830 44  800 110/07 RMK AO2
14837KMSN MSN20050404092009204/04/05 09:20:31  5-MIN KMSN 041520Z 12006KT 9SM CLR 13/01 A2996 830 43  900 120/06 RMK AO2
14837KMSN MSN20050404092509204/04/05 09:25:31  5-MIN KMSN 041525Z 10008KT 9SM CLR 14/02 A2996 830 43  900 100/08 RMK AO2
14837KMSN MSN20050404093009204/04/05 09:30:31  5-MIN KMSN 041530Z 09008KT 9SM CLR 14/02 A2996 830 43  900 090/08 RMK AO2
14837KMSN MSN20050404093509204/04/05 09:35:31  5-MIN KMSN 041535Z 11008KT 9SM CLR 14/01 A2996 830 41  900 110/08 RMK AO2
14837KMSN MSN20050404094009304/04/05 09:40:31  5-MIN KMSN 041540Z 09009KT 9SM CLR 14/02 A2995 830 41  1000 090/09 RMK AO2
14837KMSN MSN20050404094509304/04/05 09:45:31  5-MIN KMSN 041545Z 09010KT 9SM CLR 15/02 A2996 830 40  1100 090/10 RMK AO2
14837KMSN MSN20050404095011004/04/05 09:50:31  5-MIN KMSN 041550Z 09009KT 9SM CLR 15/02 A2996 830 40  1100 090/09 RMK AO2 SLP147 T01500017
14837KMSN MSN20050404095509504/04/05 09:55:31  5-MIN KMSN 041555Z 10010KT 9SM FEW120 15/02 A2996 830 40 1100 100/10 RMK AO2
14837KMSN MSN20050404100009504/04/05 10:00:31  5-MIN KMSN 041600Z 09009KT 9SM FEW120 15/02 A2996 830 40 1100 090/09 RMK AO2
14837KMSN MSN20050404100509504/04/05 10:05:31  5-MIN KMSN 041605Z 10009KT 9SM FEW120 16/02 A2996 830 39 1200 100/09 RMK AO2
14837KMSN MSN20050404101009504/04/05 10:10:31  5-MIN KMSN 041610Z 11010KT 9SM FEW120 16/02 A2996 830 37 1200 110/10 RMK AO2
14837KMSN MSN20050404101509504/04/05 10:15:31  5-MIN KMSN 041615Z 12009KT 8SM FEW120 16/02 A2996 830 37 1200 120/09 RMK AO2
14837KMSN MSN20050404102009504/04/05 10:20:31  5-MIN KMSN 041620Z 10010KT 9SM FEW120 17/02 A2996 830 36 1300 100/10 RMK AO2
14837KMSN MSN20050404102509504/04/05 10:25:31  5-MIN KMSN 041625Z 12010KT 9SM FEW120 17/02 A2996 830 35 1300 120/10 RMK AO2
14837KMSN MSN20050404103009504/04/05 10:30:31  5-MIN KMSN 041630Z 12010KT 8SM FEW120 17/02 A2996 830 35 1300 110/10 RMK AO2
14837KMSN MSN20050404103509504/04/05 10:35:31  5-MIN KMSN 041635Z 09008KT 8SM FEW120 18/02 A2996 830 35 1400 090/08 RMK AO2
14837KMSN MSN20050404104009504/04/05 10:40:31  5-MIN KMSN 041640Z 13008KT 8SM FEW120 18/02 A2996 830 34 1500 130/08 RMK AO2
14837KMSN MSN20050404104509504/04/05 10:45:31  5-MIN KMSN 041645Z 11010KT 9SM FEW120 18/02 A2996 830 33 1400 110/10 RMK AO2
14837KMSN MSN20050404105011204/04/05 10:50:31  5-MIN KMSN 041650Z 11010KT 9SM FEW120 18/02 A2996 830 32 1500 110/10 RMK AO2 SLP146 T01830017
14837KMSN MSN20050404105509304/04/05 10:55:31  5-MIN KMSN 041655Z 11012KT 9SM CLR 19/02 A2996 830 31  1500 110/12 RMK AO2
14837KMSN MSN20050404110009304/04/05 11:00:31  5-MIN KMSN 041700Z 12014KT 9SM CLR 19/02 A2996 830 30  1600 120/14 RMK AO2
14837KMSN MSN20050404110509304/04/05 11:05:31  5-MIN KMSN 041705Z 12014KT 9SM CLR 18/01 A2995 840 31  1500 120/14 RMK AO2
14837KMSN MSN20050404111009304/04/05 11:10:31  5-MIN KMSN 041710Z 12012KT 9SM CLR 19/02 A2995 840 31  1500 120/12 RMK AO2
14837KMSN MSN20050404111509304/04/05 11:15:31  5-MIN KMSN 041715Z 12012KT 9SM CLR 18/01 A2994 840 31  1500 120/12 RMK AO2
14837KMSN MSN20050404112009304/04/05 11:20:31  5-MIN KMSN 041720Z 12013KT 9SM CLR 19/02 A2994 850 30  1600 110/13 RMK AO2
14837KMSN MSN20050404112509304/04/05 11:25:31  5-MIN KMSN 041725Z 12015KT 9SM CLR 19/02 A2994 850 30  1600 110/15 RMK AO2
14837KMSN MSN20050404113009304/04/05 11:30:31  5-MIN KMSN 041730Z 12012KT 9SM CLR 19/02 A2994 850 30  1600 120/12 RMK AO2
14837KMSN MSN20050404113509304/04/05 11:35:31  5-MIN KMSN 041735Z 12012KT 9SM CLR 19/02 A2994 850 30  1600 120/12 RMK AO2
14837KMSN MSN20050404114009304/04/05 11:40:31  5-MIN KMSN 041740Z 11013KT 9SM CLR 20/02 A2993 850 29  1700 110/13 RMK AO2
14837KMSN MSN20050404114509304/04/05 11:45:31  5-MIN KMSN 041745Z 11014KT 9SM CLR 20/02 A2993 860 29  1700 110/14 RMK AO2
14837KMSN MSN20050404115013304/04/05 11:50:31  5-MIN KMSN 041750Z 12016G21KT 9SM CLR 20/02 A2993 860 29 1700 120/16G21 RMK AO2 SLP135 T02000017 10200 20011 58004
14837KMSN MSN20050404115510104/04/05 11:55:31  5-MIN KMSN 041755Z 13015G21KT 9SM FEW110 20/02 A2992 860 29 1700 120/15G21 RMK AO2
14837KMSN MSN20050404120009504/04/05 12:00:31  5-MIN KMSN 041800Z 12014KT 8SM FEW110 20/02 A2992 870 29 1700 120/14 RMK AO2
14837KMSN MSN20050404120509504/04/05 12:05:31  5-MIN KMSN 041805Z 12016KT 8SM FEW110 20/02 A2992 870 29 1700 120/16 RMK AO2
14837KMSN MSN20050404121010104/04/05 12:10:31  5-MIN KMSN 041810Z 12012G19KT 9SM FEW110 20/02 A2991 870 29 1700 120/12G19 RMK AO2
14837KMSN MSN20050404121510104/04/05 12:15:31  5-MIN KMSN 041815Z 11016G22KT 9SM FEW110 21/01 A2991 870 27 1800 110/16G22 RMK AO2
14837KMSN MSN20050404122010104/04/05 12:20:31  5-MIN KMSN 041820Z 14017G22KT 8SM FEW110 20/02 A2991 870 29 1700 140/17G22 RMK AO2
14837KMSN MSN20050404122510104/04/05 12:25:31  5-MIN KMSN 041825Z 13015G21KT 8SM FEW110 20/02 A2991 870 29 1700 130/15G21 RMK AO2
14837KMSN MSN20050404123010104/04/05 12:30:31  5-MIN KMSN 041830Z 10017G21KT 8SM FEW110 20/02 A2991 880 29 1700 100/17G21 RMK AO2
14837KMSN MSN20050404123510104/04/05 12:35:31  5-MIN KMSN 041835Z 15017G22KT 8SM FEW110 21/02 A2990 880 28 1800 150/17G22 RMK AO2
14837KMSN MSN20050404124010104/04/05 12:40:31  5-MIN KMSN 041840Z 13015G22KT 8SM FEW110 21/02 A2990 880 28 1800 130/15G22 RMK AO2
14837KMSN MSN20050404124509504/04/05 12:45:31  5-MIN KMSN 041845Z 13015KT 8SM FEW110 21/02 A2990 890 29 1800 130/15 RMK AO2
14837KMSN MSN20050404125011204/04/05 12:50:31  5-MIN KMSN 041850Z 12016KT 8SM FEW110 21/02 A2989 890 29 1800 120/16 RMK AO2 SLP124 T02060022
14837KMSN MSN20050404125509304/04/05 12:55:31  5-MIN KMSN 041855Z 12016KT 8SM CLR 21/02 A2989 890 29  1800 120/16 RMK AO2
14837KMSN MSN20050404130009304/04/05 13:00:31  5-MIN KMSN 041900Z 12014KT 8SM CLR 20/02 A2989 890 30  1700 120/14 RMK AO2
14837KMSN MSN20050404130509304/04/05 13:05:31  5-MIN KMSN 041905Z 11017KT 8SM CLR 20/02 A2989 900 30  1700 110/17 RMK AO2
14837KMSN MSN20050404131009304/04/05 13:10:31  5-MIN KMSN 041910Z 12016KT 9SM CLR 20/02 A2988 900 30  1700 120/16 RMK AO2
14837KMSN MSN20050404131509304/04/05 13:15:31  5-MIN KMSN 041915Z 12014KT 8SM CLR 21/02 A2988 900 29  1800 120/14 RMK AO2
14837KMSN MSN20050404132009804/04/05 13:20:31  5-MIN KMSN 041920Z 13015G20KT 8SM CLR 21/02 A2988 900 28 1900 130/15G20 RMK AO2
14837KMSN MSN20050404132509804/04/05 13:25:31  5-MIN KMSN 041925Z 10015G20KT 8SM CLR 21/02 A2988 900 28 1900 100/15G20 RMK AO2
14837KMSN MSN20050404133009804/04/05 13:30:31  5-MIN KMSN 041930Z 11017G20KT 8SM CLR 21/02 A2988 910 28 1900 110/17G20 RMK AO2
14837KMSN MSN20050404133509304/04/05 13:35:31  5-MIN KMSN 041935Z 12014KT 9SM CLR 21/02 A2987 910 28  1900 120/14 RMK AO2
14837KMSN MSN20050404134009304/04/05 13:40:31  5-MIN KMSN 041940Z 11017KT 9SM CLR 21/02 A2987 910 28  1900 110/17 RMK AO2
14837KMSN MSN20050404134509304/04/05 13:45:31  5-MIN KMSN 041945Z 11014KT 9SM CLR 21/02 A2987 910 28  1900 110/14 RMK AO2
14837KMSN MSN20050404135011504/04/05 13:50:31  5-MIN KMSN 041950Z 11017G21KT 9SM CLR 21/02 A2986 920 28 1900 110/17G21 RMK AO2 SLP113 T02110022
14837KMSN MSN20050404135509304/04/05 13:55:31  5-MIN KMSN 041955Z 11016KT 9SM CLR 22/03 A2986 920 28  1900 100/16 RMK AO2
14837KMSN MSN20050404140009304/04/05 14:00:31  5-MIN KMSN 042000Z 11013KT 9SM CLR 21/03 A2986 920 29  1900 110/13 RMK AO2
14837KMSN MSN20050404140509804/04/05 14:05:31  5-MIN KMSN 042005Z 11017G21KT 9SM CLR 21/02 A2986 920 28 1900 110/17G21 RMK AO2
14837KMSN MSN20050404141009804/04/05 14:10:31  5-MIN KMSN 042010Z 10015G21KT 9SM CLR 21/02 A2985 920 28 1900 100/15G21 RMK AO2
14837KMSN MSN20050404141509304/04/05 14:15:31  5-MIN KMSN 042015Z 10018KT 9SM CLR 21/02 A2985 930 28  1900 100/18 RMK AO2
14837KMSN MSN20050404142009304/04/05 14:20:31  5-MIN KMSN 042020Z 12015KT 9SM CLR 21/02 A2985 930 28  1900 120/15 RMK AO2
14837KMSN MSN20050404142509304/04/05 14:25:31  5-MIN KMSN 042025Z 12017KT 9SM CLR 21/02 A2985 930 28  1900 120/17 RMK AO2
14837KMSN MSN20050404143009804/04/05 14:30:31  5-MIN KMSN 042030Z 12017G23KT 9SM CLR 21/02 A2984 940 29 1800 120/17G23 RMK AO2
14837KMSN MSN20050404143509804/04/05 14:35:31  5-MIN KMSN 042035Z 12016G23KT 8SM CLR 21/02 A2984 940 29 1800 120/16G23 RMK AO2
14837KMSN MSN20050404144009304/04/05 14:40:31  5-MIN KMSN 042040Z 10019KT 9SM CLR 21/03 A2984 940 30  1800 100/19 RMK AO2
14837KMSN MSN20050404144509304/04/05 14:45:31  5-MIN KMSN 042045Z 11017KT 9SM CLR 21/03 A2984 940 30  1800 110/17 RMK AO2
14837KMSN MSN20050404145011604/04/05 14:50:31  5-MIN KMSN 042050Z 11017KT 8SM CLR 21/02 A2984 940 29  1800 110/17 RMK AO2 SLP105 T02060022 58009
14837KMSN MSN20050404145509304/04/05 14:55:31  5-MIN KMSN 042055Z 11019KT 8SM CLR 21/02 A2983 940 29  1800 100/19 RMK AO2
14837KMSN MSN20050404150009304/04/05 15:00:31  5-MIN KMSN 042100Z 11015KT 8SM CLR 21/02 A2983 950 29  1900 110/15 RMK AO2
14837KMSN MSN20050404150509304/04/05 15:05:31  5-MIN KMSN 042105Z 10017KT 8SM CLR 21/02 A2983 950 29  1900 100/17 RMK AO2
14837KMSN MSN20050404151009304/04/05 15:10:31  5-MIN KMSN 042110Z 12015KT 8SM CLR 21/02 A2983 950 29  1900 120/15 RMK AO2
14837KMSN MSN20050404151509304/04/05 15:15:31  5-MIN KMSN 042115Z 11018KT 8SM CLR 21/02 A2983 950 29  1900 110/18 RMK AO2
14837KMSN MSN20050404152009304/04/05 15:20:31  5-MIN KMSN 042120Z 11017KT 8SM CLR 21/02 A2983 950 29  1900 110/17 RMK AO2
14837KMSN MSN20050404152509804/04/05 15:25:31  5-MIN KMSN 042125Z 11018G23KT 9SM CLR 21/02 A2983 950 29 1900 110/18G23 RMK AO2
14837KMSN MSN20050404153009304/04/05 15:30:31  5-MIN KMSN 042130Z 11017KT 9SM CLR 21/02 A2983 950 29  1900 110/17 RMK AO2
14837KMSN MSN20050404153509304/04/05 15:35:31  5-MIN KMSN 042135Z 12016KT 9SM CLR 20/02 A2983 950 30  1800 120/16 RMK AO2
14837KMSN MSN20050404154009304/04/05 15:40:31  5-MIN KMSN 042140Z 12017KT 9SM CLR 20/02 A2983 950 30  1800 120/17 RMK AO2
14837KMSN MSN20050404154509304/04/05 15:45:31  5-MIN KMSN 042145Z 11017KT 9SM CLR 20/02 A2983 950 29  1800 110/17 RMK AO2
14837KMSN MSN20050404155011204/04/05 15:50:31  5-MIN KMSN 042150Z 10017KT 6SM HZ CLR 20/02 A2983 950 30 1800 100/17 RMK AO2 SLP102 T02000022
14837KMSN MSN20050404155509504/04/05 15:55:31  5-MIN KMSN 042155Z 11016KT 6SM HZ CLR 19/02 A2983 950 30 1700 110/16 RMK AO2
14837KMSN MSN20050404160009304/04/05 16:00:31  5-MIN KMSN 042200Z 11014KT 9SM CLR 19/02 A2982 950 30  1700 110/14 RMK AO2
14837KMSN MSN20050404160509304/04/05 16:05:31  5-MIN KMSN 042205Z 10015KT 9SM CLR 19/02 A2982 950 31  1700 100/15 RMK AO2
14837KMSN MSN20050404161009304/04/05 16:10:31  5-MIN KMSN 042210Z 11016KT 9SM CLR 19/02 A2982 950 31  1700 110/16 RMK AO2
14837KMSN MSN20050404161509304/04/05 16:15:31  5-MIN KMSN 042215Z 11017KT 9SM CLR 18/02 A2982 960 32  1600 100/17 RMK AO2
14837KMSN MSN20050404162009304/04/05 16:20:31  5-MIN KMSN 042220Z 11014KT 9SM CLR 18/02 A2982 960 32  1600 110/14 RMK AO2
14837KMSN MSN20050404162509304/04/05 16:25:31  5-MIN KMSN 042225Z 11015KT 9SM CLR 19/02 A2982 960 32  1700 110/15 RMK AO2
14837KMSN MSN20050404163009304/04/05 16:30:31  5-MIN KMSN 042230Z 11016KT 9SM CLR 19/02 A2982 960 31  1700 110/16 RMK AO2
14837KMSN MSN20050404163509304/04/05 16:35:31  5-MIN KMSN 042235Z 12014KT 9SM CLR 19/02 A2981 960 31  1700 120/14 RMK AO2
14837KMSN MSN20050404164009304/04/05 16:40:31  5-MIN KMSN 042240Z 10012KT 9SM CLR 19/02 A2981 960 32  1700 100/12 RMK AO2
14837KMSN MSN20050404164509804/04/05 16:45:31  5-MIN KMSN 042245Z 10016G20KT 9SM CLR 19/02 A2981 970 32 1700 100/16G20 RMK AO2
14837KMSN MSN20050404165011504/04/05 16:50:31  5-MIN KMSN 042250Z 10014G20KT 9SM CLR 18/02 A2981 970 34 1600 100/14G20 RMK AO2 SLP097 T01830022
14837KMSN MSN20050404165509304/04/05 16:55:31  5-MIN KMSN 042255Z 11015KT 9SM CLR 18/02 A2981 970 35  1600 100/15 RMK AO2
14837KMSN MSN20050404170009304/04/05 17:00:31  5-MIN KMSN 042300Z 11013KT 9SM CLR 18/02 A2981 970 35  1600 110/13 RMK AO2
14837KMSN MSN20050404170509304/04/05 17:05:31  5-MIN KMSN 042305Z 10013KT 8SM CLR 18/03 A2981 970 36  1600 100/13 RMK AO2
14837KMSN MSN20050404171009304/04/05 17:10:31  5-MIN KMSN 042310Z 11012KT 8SM CLR 18/03 A2981 970 36  1600 110/12 RMK AO2
14837KMSN MSN20050404171509804/04/05 17:15:31  5-MIN KMSN 042315Z 10010G18KT 8SM CLR 17/02 A2981 970 36 1500 100/10G18 RMK AO2
14837KMSN MSN20050404172009304/04/05 17:20:31  5-MIN KMSN 042320Z 11013KT 8SM CLR 17/03 A2981 970 39  1400 100/13 RMK AO2
14837KMSN MSN20050404172509304/04/05 17:25:31  5-MIN KMSN 042325Z 10013KT 8SM CLR 17/02 A2981 970 36  1500 100/13 RMK AO2
14837KMSN MSN20050404173009304/04/05 17:30:31  5-MIN KMSN 042330Z 10012KT 8SM CLR 17/03 A2981 970 37  1500 100/12 RMK AO2
14837KMSN MSN20050404173509304/04/05 17:35:31  5-MIN KMSN 042335Z 10012KT 8SM CLR 17/03 A2981 970 39  1400 100/12 RMK AO2
14837KMSN MSN20050404174009304/04/05 17:40:31  5-MIN KMSN 042340Z 10013KT 8SM CLR 17/02 A2981 970 37  1400 100/13 RMK AO2
14837KMSN MSN20050404174509304/04/05 17:45:31  5-MIN KMSN 042345Z 10012KT 8SM CLR 17/03 A2981 970 39  1400 100/12 RMK AO2
14837KMSN MSN20050404175012804/04/05 17:50:31  5-MIN KMSN 042350Z 11012KT 8SM CLR 17/02 A2980 970 37  1400 110/12 RMK AO2 SLP096 T01670022 10217 20167 56029
14837KMSN MSN20050404175509304/04/05 17:55:31  5-MIN KMSN 042355Z 11013KT 8SM CLR 16/02 A2980 970 39  1400 100/13 RMK AO2
14837KMSN MSN20050404180009304/04/05 18:00:31  5-MIN KMSN 050000Z 11011KT 8SM CLR 16/03 A2980 970 40  1400 110/11 RMK AO2
14837KMSN MSN20050404180509304/04/05 18:05:31  5-MIN KMSN 050005Z 11010KT 8SM CLR 16/03 A2980 970 42  1300 110/10 RMK AO2
14837KMSN MSN20050404181009304/04/05 18:10:31  5-MIN KMSN 050010Z 11011KT 8SM CLR 16/03 A2980 970 42  1300 110/11 RMK AO2
14837KMSN MSN20050404181509304/04/05 18:15:31  5-MIN KMSN 050015Z 11011KT 8SM CLR 16/03 A2980 980 42  1300 110/11 RMK AO2
14837KMSN MSN20050404182009304/04/05 18:20:31  5-MIN KMSN 050020Z 11011KT 8SM CLR 15/03 A2980 980 43  1200 110/11 RMK AO2
14837KMSN MSN20050404182509304/04/05 18:25:31  5-MIN KMSN 050025Z 10010KT 8SM CLR 15/03 A2980 980 43  1200 100/10 RMK AO2
14837KMSN MSN20050404183009304/04/05 18:30:31  5-MIN KMSN 050030Z 10011KT 8SM CLR 14/03 A2980 980 45  1200 100/11 RMK AO2
14837KMSN MSN20050404183509304/04/05 18:35:31  5-MIN KMSN 050035Z 11010KT 8SM CLR 14/02 A2980 980 43  1200 100/10 RMK AO2
14837KMSN MSN20050404184009304/04/05 18:40:31  5-MIN KMSN 050040Z 11010KT 9SM CLR 14/02 A2980 980 45  1100 110/10 RMK AO2
14837KMSN MSN20050404184509404/04/05 18:45:31  5-MIN KMSN 050045Z 11010KT 10SM CLR 14/02 A2980 980 43  1200 110/10 RMK AO2
14837KMSN MSN20050404185011004/04/05 18:50:31  5-MIN KMSN 050050Z 11011KT 9SM CLR 14/02 A2980 980 43  1200 110/11 RMK AO2 SLP094 T01440022
14837KMSN MSN20050404185509404/04/05 18:55:31  5-MIN KMSN 050055Z 11012KT 10SM CLR 14/02 A2980 980 43  1200 100/12 RMK AO2
14837KMSN MSN20050404190009404/04/05 19:00:31  5-MIN KMSN 050100Z 11010KT 10SM CLR 14/02 A2980 980 45  1100 110/10 RMK AO2
14837KMSN MSN20050404190509304/04/05 19:05:31  5-MIN KMSN 050105Z 11010KT 9SM CLR 14/02 A2980 980 43  1100 110/10 RMK AO2
14837KMSN MSN20050404191009304/04/05 19:10:31  5-MIN KMSN 050110Z 11010KT 9SM CLR 14/02 A2980 980 43  1100 110/10 RMK AO2
14837KMSN MSN20050404191509704/04/05 19:15:31  5-MIN KMSN 050115Z 11010KT 10SM FEW090 14/02 A2980 980  43 1100 110/10 RMK AO2
14837KMSN MSN20050404192009704/04/05 19:20:31  5-MIN KMSN 050120Z 12011KT 10SM FEW090 14/02 A2979 980  43 1100 110/11 RMK AO2
14837KMSN MSN20050404192509704/04/05 19:25:31  5-MIN KMSN 050125Z 12010KT 10SM FEW090 14/02 A2979 980  43 1100 120/10 RMK AO2
14837KMSN MSN20050404193009704/04/05 19:30:31  5-MIN KMSN 050130Z 11010KT 10SM FEW090 14/02 A2980 980  43 1100 110/10 RMK AO2
14837KMSN MSN20050404193509704/04/05 19:35:31  5-MIN KMSN 050135Z 12010KT 10SM FEW090 13/02 A2979 980  45 1100 120/10 RMK AO2
14837KMSN MSN20050404194009704/04/05 19:40:31  5-MIN KMSN 050140Z 13010KT 10SM FEW090 13/01 A2979 980  43 1100 130/10 RMK AO2
14837KMSN MSN20050404194509404/04/05 19:45:31  5-MIN KMSN 050145Z 12011KT 10SM CLR 13/01 A2979 980 43  1100 120/11 RMK AO2
14837KMSN MSN20050404195011104/04/05 19:50:31  5-MIN KMSN 050150Z 12011KT 10SM CLR 13/01 A2979 980 43  1100 120/11 RMK AO2 SLP091 T01330011
14837KMSN MSN20050404195509404/04/05 19:55:31  5-MIN KMSN 050155Z 12011KT 10SM CLR 13/01 A2979 980 43  1100 120/11 RMK AO2
14837KMSN MSN20050404200009404/04/05 20:00:31  5-MIN KMSN 050200Z 12010KT 10SM CLR 13/01 A2979 980 43  1100 120/10 RMK AO2
14837KMSN MSN20050404200509404/04/05 20:05:31  5-MIN KMSN 050205Z 12012KT 10SM CLR 13/01 A2979 980 43  1100 120/12 RMK AO2
14837KMSN MSN20050404201009404/04/05 20:10:31  5-MIN KMSN 050210Z 12011KT 10SM CLR 13/01 A2979 980 43  1100 120/11 RMK AO2
14837KMSN MSN20050404201509404/04/05 20:15:31  5-MIN KMSN 050215Z 12012KT 10SM CLR 13/01 A2979 980 43  1100 120/12 RMK AO2
14837KMSN MSN20050404202009404/04/05 20:20:31  5-MIN KMSN 050220Z 12010KT 10SM CLR 13/01 A2979 980 43  1100 120/10 RMK AO2
14837KMSN MSN20050404202509404/04/05 20:25:31  5-MIN KMSN 050225Z 12012KT 10SM CLR 13/01 A2979 980 43  1100 120/12 RMK AO2
14837KMSN MSN20050404203009404/04/05 20:30:31  5-MIN KMSN 050230Z 12010KT 10SM CLR 13/01 A2979 980 43  1100 120/10 RMK AO2
14837KMSN MSN20050404203509404/04/05 20:35:31  5-MIN KMSN 050235Z 12011KT 10SM CLR 13/01 A2979 980 43  1100 120/11 RMK AO2
14837KMSN MSN20050404204009404/04/05 20:40:31  5-MIN KMSN 050240Z 12011KT 10SM CLR 13/01 A2979 980 43  1100 120/11 RMK AO2
14837KMSN MSN20050404204509404/04/05 20:45:31  5-MIN KMSN 050245Z 12009KT 10SM CLR 13/01 A2979 980 44  1000 120/09 RMK AO2
14837KMSN MSN20050404205011704/04/05 20:50:31  5-MIN KMSN 050250Z 12011KT 10SM CLR 13/01 A2979 980 44  1000 120/11 RMK AO2 SLP090 T01280011 56010
14837KMSN MSN20050404205509404/04/05 20:55:31  5-MIN KMSN 050255Z 12009KT 10SM CLR 13/01 A2979 980 44  1000 120/09 RMK AO2
14837KMSN MSN20050404210009404/04/05 21:00:31  5-MIN KMSN 050300Z 12009KT 10SM CLR 13/01 A2979 980 44  1000 120/09 RMK AO2
14837KMSN MSN20050404210509404/04/05 21:05:31  5-MIN KMSN 050305Z 13008KT 10SM CLR 13/01 A2979 980 44  1000 120/08 RMK AO2
14837KMSN MSN20050404211009404/04/05 21:10:31  5-MIN KMSN 050310Z 13010KT 10SM CLR 13/01 A2980 980 44  1000 130/10 RMK AO2
14837KMSN MSN20050404211509404/04/05 21:15:31  5-MIN KMSN 050315Z 13008KT 10SM CLR 13/01 A2979 980 44  1000 130/08 RMK AO2
14837KMSN MSN20050404212009404/04/05 21:20:31  5-MIN KMSN 050320Z 13008KT 10SM CLR 13/01 A2979 980 44  1000 130/08 RMK AO2
14837KMSN MSN20050404212509304/04/05 21:25:31  5-MIN KMSN 050325Z 13008KT 10SM CLR 12/01 A2979 980 46  900 130/08 RMK AO2
14837KMSN MSN20050404213009304/04/05 21:30:31  5-MIN KMSN 050330Z 13008KT 10SM CLR 12/01 A2979 980 46  900 130/08 RMK AO2
14837KMSN MSN20050404213509304/04/05 21:35:31  5-MIN KMSN 050335Z 14009KT 10SM CLR 12/01 A2979 980 46  900 140/09 RMK AO2
14837KMSN MSN20050404214009404/04/05 21:40:31  5-MIN KMSN 050340Z 13009KT 10SM CLR 13/01 A2979 980 44  1000 130/09 RMK AO2
14837KMSN MSN20050404214509304/04/05 21:45:31  5-MIN KMSN 050345Z 13010KT 10SM CLR 12/02 A2979 980 48  900 130/10 RMK AO2
14837KMSN MSN20050404215011004/04/05 21:50:31  5-MIN KMSN 050350Z 14010KT 10SM CLR 12/02 A2979 990 48  900 140/10 RMK AO2 SLP088 T01220017
14837KMSN MSN20050404215509304/04/05 21:55:31  5-MIN KMSN 050355Z 13009KT 10SM CLR 12/02 A2979 980 48  900 130/09 RMK AO2
14837KMSN MSN20050404220009304/04/05 22:00:31  5-MIN KMSN 050400Z 13009KT 10SM CLR 12/02 A2979 980 48  900 130/09 RMK AO2
14837KMSN MSN20050404220509304/04/05 22:05:31  5-MIN KMSN 050405Z 13008KT 10SM CLR 12/02 A2979 980 48  900 130/08 RMK AO2
14837KMSN MSN20050404221009304/04/05 22:10:31  5-MIN KMSN 050410Z 13007KT 10SM CLR 12/02 A2979 980 50  900 130/07 RMK AO2
14837KMSN MSN20050404221509304/04/05 22:15:31  5-MIN KMSN 050415Z 13007KT 10SM CLR 12/02 A2979 980 48  900 130/07 RMK AO2
14837KMSN MSN20050404222009304/04/05 22:20:31  5-MIN KMSN 050420Z 12008KT 10SM CLR 12/02 A2979 990 48  900 120/08 RMK AO2
14837KMSN MSN20050404222509304/04/05 22:25:31  5-MIN KMSN 050425Z 13007KT 10SM CLR 12/02 A2979 990 50  900 130/07 RMK AO2
14837KMSN MSN20050404223009304/04/05 22:30:31  5-MIN KMSN 050430Z 13007KT 10SM CLR 12/02 A2979 990 50  900 120/07 RMK AO2
14837KMSN MSN20050404223509304/04/05 22:35:31  5-MIN KMSN 050435Z 12008KT 10SM CLR 12/02 A2979 990 50  900 120/08 RMK AO2
14837KMSN MSN20050404224009304/04/05 22:40:31  5-MIN KMSN 050440Z 12007KT 10SM CLR 12/02 A2979 990 52  900 120/07 RMK AO2
14837KMSN MSN20050404224509304/04/05 22:45:31  5-MIN KMSN 050445Z 13007KT 10SM CLR 12/02 A2979 980 52  900 130/07 RMK AO2
14837KMSN MSN20050404225011004/04/05 22:50:31  5-MIN KMSN 050450Z 13006KT 10SM CLR 12/02 A2979 990 50  900 130/06 RMK AO2 SLP087 T01220022
14837KMSN MSN20050404225509304/04/05 22:55:31  5-MIN KMSN 050455Z 13006KT 10SM CLR 12/02 A2979 990 52  900 130/06 RMK AO2
14837KMSN MSN20050404230009304/04/05 23:00:31  5-MIN KMSN 050500Z 14008KT 10SM CLR 12/02 A2979 990 52  900 130/08 RMK AO2
14837KMSN MSN20050404230509304/04/05 23:05:31  5-MIN KMSN 050505Z 14005KT 10SM CLR 12/02 A2979 990 50  900 140/05 RMK AO2
14837KMSN MSN20050404231009304/04/05 23:10:31  5-MIN KMSN 050510Z 13007KT 10SM CLR 12/02 A2979 990 50  900 130/07 RMK AO2
14837KMSN MSN20050404231509304/04/05 23:15:31  5-MIN KMSN 050515Z 13005KT 10SM CLR 12/02 A2979 990 50  900 130/05 RMK AO2
14837KMSN MSN20050404232009304/04/05 23:20:31  5-MIN KMSN 050520Z 14004KT 10SM CLR 12/02 A2979 990 50  900 140/04 RMK AO2
14837KMSN MSN20050404232509304/04/05 23:25:31  5-MIN KMSN 050525Z 14004KT 10SM CLR 12/02 A2979 990 50  900 140/04 RMK AO2
14837KMSN MSN20050404233009304/04/05 23:30:31  5-MIN KMSN 050530Z 14005KT 10SM CLR 12/02 A2979 990 50  900 140/05 RMK AO2
14837KMSN MSN20050404233509304/04/05 23:35:31  5-MIN KMSN 050535Z 14007KT 10SM CLR 12/03 A2978 990 52  900 140/07 RMK AO2
14837KMSN MSN20050404234009304/04/05 23:40:31  5-MIN KMSN 050540Z 13005KT 10SM CLR 12/03 A2978 990 52  900 130/05 RMK AO2
14837KMSN MSN20050404234509304/04/05 23:45:31  5-MIN KMSN 050545Z 12005KT 10SM CLR 12/03 A2978 990 54  900 120/05 RMK AO2
14837KMSN MSN20050404235013804/04/05 23:50:31  5-MIN KMSN 050550Z 12005KT 10SM CLR 12/03 A2978 990 54  900 120/05 RMK AO2 SLP083 T01170028 10161 20117 402170006 55003
14837KMSN MSN20050404235509304/04/05 23:55:31  5-MIN KMSN 050555Z 12004KT 10SM CLR 11/03 A2978 990 56  800 120/04 RMK AO2
14837KMSN MSN20050405000009304/05/05 00:00:31  5-MIN KMSN 050600Z VRB05KT 10SM CLR 12/03 A2978 990 54  900 VRB/05 RMK AO2
14837KMSN MSN20050405000509304/05/05 00:05:31  5-MIN KMSN 050605Z 12004KT 10SM CLR 12/03 A2978 990 54  900 120/04 RMK AO2
14837KMSN MSN20050405001009304/05/05 00:10:31  5-MIN KMSN 050610Z 10003KT 10SM CLR 11/03 A2978 990 56  800 100/03 RMK AO2
14837KMSN MSN20050405001509304/05/05 00:15:31  5-MIN KMSN 050615Z 09004KT 10SM CLR 12/03 A2978 1000 54 900 090/04 RMK AO2
14837KMSN MSN20050405002009304/05/05 00:20:31  5-MIN KMSN 050620Z 10003KT 10SM CLR 11/03 A2978 1000 56 800 100/03 RMK AO2
14837KMSN MSN20050405002509304/05/05 00:25:31  5-MIN KMSN 050625Z 10003KT 10SM CLR 11/03 A2978 1000 56 800 100/03 RMK AO2
14837KMSN MSN20050405003009304/05/05 00:30:31  5-MIN KMSN 050630Z 08004KT 10SM CLR 10/03 A2978 1000 60 700 080/04 RMK AO2
14837KMSN MSN20050405003509304/05/05 00:35:31  5-MIN KMSN 050635Z 08004KT 10SM CLR 10/03 A2978 1000 60 700 080/04 RMK AO2
14837KMSN MSN20050405004009304/05/05 00:40:31  5-MIN KMSN 050640Z 09004KT 10SM CLR 11/03 A2978 1000 58 700 090/04 RMK AO2
14837KMSN MSN20050405004509304/05/05 00:45:31  5-MIN KMSN 050645Z 10004KT 10SM CLR 11/03 A2978 1000 58 700 100/04 RMK AO2
14837KMSN MSN20050405005011004/05/05 00:50:31  5-MIN KMSN 050650Z 10004KT 10SM CLR 11/03 A2978 1000 58 700 100/04 RMK AO2 SLP082 T01060028
14837KMSN MSN20050405005509304/05/05 00:55:31  5-MIN KMSN 050655Z 11005KT 10SM CLR 11/03 A2978 1000 58 700 100/05 RMK AO2
14837KMSN MSN20050405010009304/05/05 01:00:31  5-MIN KMSN 050700Z 11005KT 10SM CLR 10/03 A2977 1000 60 700 110/05 RMK AO2
14837KMSN MSN20050405010509304/05/05 01:05:31  5-MIN KMSN 050705Z 10006KT 10SM CLR 10/03 A2977 1000 60 700 100/06 RMK AO2
14837KMSN MSN20050405011009304/05/05 01:10:31  5-MIN KMSN 050710Z 11006KT 10SM CLR 10/03 A2977 1000 63 700 100/06 RMK AO2
14837KMSN MSN20050405011509304/05/05 01:15:31  5-MIN KMSN 050715Z 11006KT 10SM CLR 11/03 A2977 1000 61 700 110/06 RMK AO2
14837KMSN MSN20050405012009304/05/05 01:20:31  5-MIN KMSN 050720Z 12005KT 10SM CLR 10/03 A2977 1000 60 700 120/05 RMK AO2
14837KMSN MSN20050405012509304/05/05 01:25:31  5-MIN KMSN 050725Z 12006KT 10SM CLR 09/03 A2977 1010 63 600 120/06 RMK AO2
14837KMSN MSN20050405013009304/05/05 01:30:31  5-MIN KMSN 050730Z 12006KT 10SM CLR 09/03 A2977 1010 65 600 120/06 RMK AO2
14837KMSN MSN20050405013509304/05/05 01:35:31  5-MIN KMSN 050735Z 13004KT 9SM CLR 09/03 A2977 1010 65  600 120/04 RMK AO2
14837KMSN MSN20050405014009304/05/05 01:40:31  5-MIN KMSN 050740Z 13003KT 9SM CLR 09/03 A2977 1010 65  600 130/03 RMK AO2
14837KMSN MSN20050405014509304/05/05 01:45:31  5-MIN KMSN 050745Z 15003KT 9SM CLR 10/03 A2977 1000 63  700 150/03 RMK AO2
14837KMSN MSN20050405015011004/05/05 01:50:31  5-MIN KMSN 050750Z 00000KT 9SM CLR 10/03 A2977 1010 63  700 000/00 RMK AO2 SLP079 T01000033
14837KMSN MSN20050405015509304/05/05 01:55:31  5-MIN KMSN 050755Z 00000KT 10SM CLR 10/03 A2977 1010 63 700 000/00 RMK AO2
14837KMSN MSN20050405020009304/05/05 02:00:31  5-MIN KMSN 050800Z 00000KT 10SM CLR 10/03 A2977 1010 63 700 000/00 RMK AO2
14837KMSN MSN20050405020509304/05/05 02:05:31  5-MIN KMSN 050805Z 00000KT 10SM CLR 10/03 A2977 1010 63 700 000/00 RMK AO2
14837KMSN MSN20050405021009304/05/05 02:10:31  5-MIN KMSN 050810Z 00000KT 10SM CLR 10/03 A2977 1010 63 700 000/00 RMK AO2
14837KMSN MSN20050405021509304/05/05 02:15:31  5-MIN KMSN 050815Z 00000KT 10SM CLR 10/03 A2977 1010 63 700 000/00 RMK AO2
14837KMSN MSN20050405022009304/05/05 02:20:31  5-MIN KMSN 050820Z 00000KT 10SM CLR 10/04 A2976 1010 65 700 000/00 RMK AO2
14837KMSN MSN20050405022509304/05/05 02:25:31  5-MIN KMSN 050825Z 16003KT 10SM CLR 11/04 A2976 1010 63 800 150/03 RMK AO2
14837KMSN MSN20050405023009304/05/05 02:30:31  5-MIN KMSN 050830Z 16004KT 10SM CLR 11/04 A2976 1010 63 800 160/04 RMK AO2
14837KMSN MSN20050405023509304/05/05 02:35:31  5-MIN KMSN 050835Z 16005KT 10SM CLR 10/04 A2976 1010 65 700 160/05 RMK AO2
14837KMSN MSN20050405024009304/05/05 02:40:31  5-MIN KMSN 050840Z 17005KT 10SM CLR 10/04 A2976 1010 65 700 170/05 RMK AO2
14837KMSN MSN20050405024509304/05/05 02:45:31  5-MIN KMSN 050845Z 17005KT 10SM CLR 10/04 A2976 1010 65 700 160/05 RMK AO2
14837KMSN MSN20050405025011604/05/05 02:50:31  5-MIN KMSN 050850Z 17005KT 10SM CLR 10/04 A2976 1010 65 700 160/05 RMK AO2 SLP078 T01000039 58004
14837KMSN MSN20050405025509304/05/05 02:55:31  5-MIN KMSN 050855Z 17006KT 10SM CLR 10/04 A2976 1010 65 700 170/06 RMK AO2
14837KMSN MSN20050405030009304/05/05 03:00:31  5-MIN KMSN 050900Z 17005KT 10SM CLR 10/04 A2976 1010 65 700 160/05 RMK AO2
14837KMSN MSN20050405030509304/05/05 03:05:31  5-MIN KMSN 050905Z 17005KT 10SM CLR 10/04 A2976 1010 68 700 170/05 RMK AO2
14837KMSN MSN20050405031009304/05/05 03:10:31  5-MIN KMSN 050910Z 17005KT 10SM CLR 10/04 A2976 1010 68 700 170/05 RMK AO2
14837KMSN MSN20050405031509304/05/05 03:15:31  5-MIN KMSN 050915Z 17006KT 10SM CLR 10/04 A2976 1010 68 700 170/06 RMK AO2
14837KMSN MSN20050405032009304/05/05 03:20:31  5-MIN KMSN 050920Z 17006KT 10SM CLR 11/04 A2976 1010 66 800 170/06 RMK AO2
14837KMSN MSN20050405032509304/05/05 03:25:31  5-MIN KMSN 050925Z 17006KT 10SM CLR 11/05 A2976 1010 68 800 170/06 RMK AO2
14837KMSN MSN20050405033009304/05/05 03:30:31  5-MIN KMSN 050930Z 17007KT 10SM CLR 11/04 A2976 1010 66 800 170/07 RMK AO2
14837KMSN MSN20050405033509304/05/05 03:35:31  5-MIN KMSN 050935Z 17006KT 10SM CLR 11/05 A2976 1010 68 800 170/06 RMK AO2
14837KMSN MSN20050405034009304/05/05 03:40:31  5-MIN KMSN 050940Z 17006KT 10SM CLR 11/05 A2976 1010 66 800 170/06 RMK AO2
14837KMSN MSN20050405034509304/05/05 03:45:31  5-MIN KMSN 050945Z 17005KT 10SM CLR 11/05 A2976 1010 68 800 170/05 RMK AO2
14837KMSN MSN20050405035011004/05/05 03:50:31  5-MIN KMSN 050950Z 17004KT 10SM CLR 11/05 A2976 1010 68 800 170/04 RMK AO2 SLP078 T01060050
14837KMSN MSN20050405035509304/05/05 03:55:31  5-MIN KMSN 050955Z 17004KT 10SM CLR 11/05 A2976 1010 68 800 170/04 RMK AO2
14837KMSN MSN20050405040009304/05/05 04:00:31  5-MIN KMSN 051000Z 17004KT 10SM CLR 10/05 A2977 1010 71 700 170/04 RMK AO2
14837KMSN MSN20050405040509304/05/05 04:05:31  5-MIN KMSN 051005Z 17005KT 10SM CLR 10/05 A2977 1010 71 700 170/05 RMK AO2
14837KMSN MSN20050405041009304/05/05 04:10:31  5-MIN KMSN 051010Z 17004KT 10SM CLR 10/05 A2977 1010 71 700 170/04 RMK AO2
14837KMSN MSN20050405041509304/05/05 04:15:31  5-MIN KMSN 051015Z 17006KT 10SM CLR 10/05 A2977 1010 71 700 160/06 RMK AO2
14837KMSN MSN20050405042009304/05/05 04:20:31  5-MIN KMSN 051020Z 16007KT 10SM CLR 10/05 A2976 1010 71 700 160/07 RMK AO2
14837KMSN MSN20050405042509304/05/05 04:25:31  5-MIN KMSN 051025Z 17006KT 10SM CLR 10/05 A2976 1010 71 700 160/06 RMK AO2
14837KMSN MSN20050405043009304/05/05 04:30:31  5-MIN KMSN 051030Z 17005KT 10SM CLR 11/06 A2977 1010 71 800 170/05 RMK AO2
14837KMSN MSN20050405043509304/05/05 04:35:31  5-MIN KMSN 051035Z 17004KT 10SM CLR 11/06 A2977 1010 71 800 170/04 RMK AO2
14837KMSN MSN20050405044009304/05/05 04:40:31  5-MIN KMSN 051040Z 17004KT 10SM CLR 11/06 A2977 1010 71 800 170/04 RMK AO2
14837KMSN MSN20050405044509304/05/05 04:45:31  5-MIN KMSN 051045Z 17004KT 10SM CLR 11/06 A2977 1010 71 800 170/04 RMK AO2
14837KMSN MSN20050405045011004/05/05 04:50:31  5-MIN KMSN 051050Z 17005KT 10SM CLR 11/06 A2977 1010 71 800 170/05 RMK AO2 SLP080 T01060056
14837KMSN MSN20050405045509304/05/05 04:55:31  5-MIN KMSN 051055Z 17005KT 10SM CLR 11/06 A2977 1010 68 800 170/05 RMK AO2
14837KMSN MSN20050405050009304/05/05 05:00:31  5-MIN KMSN 051100Z 18006KT 10SM CLR 11/06 A2977 1000 68 800 180/06 RMK AO2
14837KMSN MSN20050405050509304/05/05 05:05:31  5-MIN KMSN 051105Z 18006KT 10SM CLR 11/06 A2977 1000 68 800 180/06 RMK AO2
14837KMSN MSN20050405051009304/05/05 05:10:31  5-MIN KMSN 051110Z 18006KT 10SM CLR 12/06 A2977 1000 66 900 170/06 RMK AO2
14837KMSN MSN20050405051509304/05/05 05:15:31  5-MIN KMSN 051115Z 18006KT 10SM CLR 11/06 A2977 1000 68 800 180/06 RMK AO2
14837KMSN MSN20050405052009304/05/05 05:20:31  5-MIN KMSN 051120Z 18006KT 10SM CLR 11/06 A2977 1000 68 800 180/06 RMK AO2
14837KMSN MSN20050405052509304/05/05 05:25:31  5-MIN KMSN 051125Z 17007KT 10SM CLR 11/06 A2977 1000 68 800 170/07 RMK AO2
14837KMSN MSN20050405053009304/05/05 05:30:31  5-MIN KMSN 051130Z 17007KT 10SM CLR 11/06 A2977 1000 68 800 170/07 RMK AO2
14837KMSN MSN20050405053509304/05/05 05:35:31  5-MIN KMSN 051135Z 18007KT 10SM CLR 11/06 A2977 1000 68 800 180/07 RMK AO2
14837KMSN MSN20050405054009304/05/05 05:40:31  5-MIN KMSN 051140Z 18007KT 9SM CLR 11/06 A2978 1000 71  800 180/07 RMK AO2
14837KMSN MSN20050405054509304/05/05 05:45:31  5-MIN KMSN 051145Z 18008KT 9SM CLR 12/06 A2978 1000 68  900 180/08 RMK AO2
14837KMSN MSN20050405055012804/05/05 05:50:31  5-MIN KMSN 051150Z 18007KT 9SM CLR 12/06 A2978 1000 68  900 170/07 RMK AO2 SLP084 T01170061 10117 20089 56006
14837KMSN MSN20050405055509304/05/05 05:55:31  5-MIN KMSN 051155Z 18008KT 9SM CLR 12/06 A2978 1000 68  900 170/08 RMK AO2
14837KMSN MSN20050405060009204/05/05 06:00:31  5-MIN KMSN 051200Z 18006KT 9SM CLR 12/06 A2978 990 68  900 180/06 RMK AO2
14837KMSN MSN20050405060509204/05/05 06:05:31  5-MIN KMSN 051205Z 18006KT 9SM CLR 12/06 A2978 990 68  900 180/06 RMK AO2
14837KMSN MSN20050405061009204/05/05 06:10:31  5-MIN KMSN 051210Z 17005KT 9SM CLR 12/06 A2978 990 68  900 170/05 RMK AO2
14837KMSN MSN20050405061509204/05/05 06:15:31  5-MIN KMSN 051215Z 17005KT 9SM CLR 12/06 A2978 990 68  900 170/05 RMK AO2
14837KMSN MSN20050405062009204/05/05 06:20:31  5-MIN KMSN 051220Z 17005KT 9SM CLR 11/06 A2978 990 71  800 170/05 RMK AO2
14837KMSN MSN20050405062509204/05/05 06:25:31  5-MIN KMSN 051225Z 17005KT 9SM CLR 11/06 A2979 990 71  800 170/05 RMK AO2
14837KMSN MSN20050405063009204/05/05 06:30:31  5-MIN KMSN 051230Z 17005KT 9SM CLR 11/06 A2979 990 71  800 170/05 RMK AO2
14837KMSN MSN20050405063509204/05/05 06:35:31  5-MIN KMSN 051235Z 18005KT 9SM CLR 12/06 A2979 990 68  900 180/05 RMK AO2
14837KMSN MSN20050405064009204/05/05 06:40:31  5-MIN KMSN 051240Z 18006KT 9SM CLR 12/07 A2979 990 68  900 170/06 RMK AO2
14837KMSN MSN20050405064509304/05/05 06:45:31  5-MIN KMSN 051245Z 18006KT 9SM CLR 13/06 A2979 980 63  1000 170/06 RMK AO2
14837KMSN MSN20050405065011004/05/05 06:50:31  5-MIN KMSN 051250Z 18007KT 9SM CLR 13/07 A2979 980 66  1000 180/07 RMK AO2 SLP088 T01280067
14837KMSN MSN20050405065509404/05/05 06:55:31  5-MIN KMSN 051255Z 18007KT 10SM CLR 13/07 A2979 980 64  1100 180/07 RMK AO2
14837KMSN MSN20050405070009404/05/05 07:00:31  5-MIN KMSN 051300Z 17008KT 10SM CLR 13/07 A2979 980 64  1100 170/08 RMK AO2
14837KMSN MSN20050405070509404/05/05 07:05:31  5-MIN KMSN 051305Z 18008KT 10SM CLR 13/07 A2979 980 64  1100 180/08 RMK AO2
14837KMSN MSN20050405071009404/05/05 07:10:31  5-MIN KMSN 051310Z 18007KT 10SM CLR 13/07 A2979 980 64  1100 180/07 RMK AO2
14837KMSN MSN20050405071510304/05/05 07:15:31  5-MIN KMSN 051315Z AUTO 18008KT 10SM CLR 14/07 A2979 980 61 1100 180/08 RMK AO2 TSNO
14837KMSN MSN20050405072010304/05/05 07:20:31  5-MIN KMSN 051320Z AUTO 19008KT 10SM CLR 14/07 A2979 980 61 1100 190/08 RMK AO2 TSNO
14837KMSN MSN20050405072509404/05/05 07:25:31  5-MIN KMSN 051325Z 19008KT 10SM CLR 14/07 A2979 980 61  1100 190/08 RMK AO2
14837KMSN MSN20050405073009404/05/05 07:30:31  5-MIN KMSN 051330Z 19008KT 10SM CLR 14/06 A2979 980 57  1200 190/08 RMK AO2
14837KMSN MSN20050405073509404/05/05 07:35:31  5-MIN KMSN 051335Z 19008KT 10SM CLR 14/07 A2980 980 59  1200 190/08 RMK AO2
14837KMSN MSN20050405074009404/05/05 07:40:31  5-MIN KMSN 051340Z 18008KT 10SM CLR 14/07 A2980 980 59  1200 180/08 RMK AO2
14837KMSN MSN20050405074509404/05/05 07:45:31  5-MIN KMSN 051345Z 18007KT 10SM CLR 14/07 A2980 980 59  1200 180/07 RMK AO2
14837KMSN MSN20050405075011104/05/05 07:50:31  5-MIN KMSN 051350Z 18008KT 10SM CLR 15/07 A2980 980 57  1200 180/08 RMK AO2 SLP090 T01500067
14837KMSN MSN20050405075509404/05/05 07:55:31  5-MIN KMSN 051355Z 18007KT 10SM CLR 15/07 A2980 980 57  1200 180/07 RMK AO2
14837KMSN MSN20050405080009404/05/05 08:00:31  5-MIN KMSN 051400Z 19009KT 10SM CLR 16/07 A2980 980 55  1300 190/09 RMK AO2
14837KMSN MSN20050405080509304/05/05 08:05:31  5-MIN KMSN 051405Z 18008KT 9SM CLR 16/07 A2980 980 55  1300 180/08 RMK AO2
14837KMSN MSN20050405081009304/05/05 08:10:31  5-MIN KMSN 051410Z VRB06KT 9SM CLR 16/07 A2980 980 53  1400 VRB/06 RMK AO2
14837KMSN MSN20050405081509304/05/05 08:15:31  5-MIN KMSN 051415Z 19009KT 9SM CLR 16/07 A2979 980 53  1400 190/09 RMK AO2
14837KMSN MSN20050405082009304/05/05 08:20:31  5-MIN KMSN 051420Z 20007KT 9SM CLR 17/07 A2979 980 51  1400 200/07 RMK AO2
14837KMSN MSN20050405082509404/05/05 08:25:31  5-MIN KMSN 051425Z 19007KT 10SM CLR 17/07 A2979 980 51  1400 190/07 RMK AO2
14837KMSN MSN20050405083009404/05/05 08:30:31  5-MIN KMSN 051430Z 19009KT 10SM CLR 17/07 A2979 980 51  1400 190/09 RMK AO2
14837KMSN MSN20050405083509404/05/05 08:35:31  5-MIN KMSN 051435Z 19009KT 10SM CLR 17/07 A2979 980 51  1400 180/09 RMK AO2
14837KMSN MSN20050405084009304/05/05 08:40:31  5-MIN KMSN 051440Z 18010KT 9SM CLR 17/07 A2979 980 51  1400 180/10 RMK AO2
14837KMSN MSN20050405084509304/05/05 08:45:31  5-MIN KMSN 051445Z 18009KT 9SM CLR 17/07 A2980 980 51  1400 180/09 RMK AO2
14837KMSN MSN20050405085011604/05/05 08:50:31  5-MIN KMSN 051450Z 18009KT 9SM CLR 17/07 A2980 980 53  1400 180/09 RMK AO2 SLP089 T01670072 53005
14837KMSN MSN20050405085509304/05/05 08:55:31  5-MIN KMSN 051455Z 20007KT 9SM CLR 17/07 A2980 980 53  1400 190/07 RMK AO2
14837KMSN MSN20050405090009304/05/05 09:00:31  5-MIN KMSN 051500Z 19006KT 9SM CLR 17/07 A2980 980 51  1500 190/06 RMK AO2
14837KMSN MSN20050405090509304/05/05 09:05:31  5-MIN KMSN 051505Z 19008KT 9SM CLR 17/07 A2980 980 51  1500 190/08 RMK AO2
14837KMSN MSN20050405091009304/05/05 09:10:31  5-MIN KMSN 051510Z 20007KT 9SM CLR 18/07 A2980 980 49  1600 200/07 RMK AO2
14837KMSN MSN20050405091509304/05/05 09:15:31  5-MIN KMSN 051515Z 18007KT 8SM CLR 18/07 A2980 980 49  1600 180/07 RMK AO2
14837KMSN MSN20050405092009304/05/05 09:20:31  5-MIN KMSN 051520Z 17009KT 9SM CLR 18/08 A2980 980 51  1600 170/09 RMK AO2
14837KMSN MSN20050405092509304/05/05 09:25:31  5-MIN KMSN 051525Z 19009KT 9SM CLR 18/08 A2980 980 51  1600 190/09 RMK AO2
14837KMSN MSN20050405093009304/05/05 09:30:31  5-MIN KMSN 051530Z 19007KT 9SM CLR 18/08 A2980 980 51  1600 190/07 RMK AO2
14837KMSN MSN20050405093509304/05/05 09:35:31  5-MIN KMSN 051535Z 17012KT 9SM CLR 19/08 A2980 980 48  1700 160/12 RMK AO2
14837KMSN MSN20050405094009304/05/05 09:40:31  5-MIN KMSN 051540Z 18011KT 9SM CLR 18/08 A2980 980 50  1600 180/11 RMK AO2
14837KMSN MSN20050405094509304/05/05 09:45:31  5-MIN KMSN 051545Z 18010KT 8SM CLR 19/08 A2980 980 50  1700 180/10 RMK AO2
14837KMSN MSN20050405095011004/05/05 09:50:31  5-MIN KMSN 051550Z 16012KT 9SM CLR 19/08 A2980 980 50  1700 160/12 RMK AO2 SLP090 T01890083
14837KMSN MSN20050405095509304/05/05 09:55:31  5-MIN KMSN 051555Z 19009KT 9SM CLR 19/08 A2980 980 50  1700 190/09 RMK AO2
14837KMSN MSN20050405100009304/05/05 10:00:31  5-MIN KMSN 051600Z 18009KT 9SM CLR 19/08 A2980 970 50  1700 180/09 RMK AO2
14837KMSN MSN20050405100509304/05/05 10:05:31  5-MIN KMSN 051605Z 19010KT 9SM CLR 19/08 A2980 970 48  1800 190/10 RMK AO2
14837KMSN MSN20050405101009304/05/05 10:10:31  5-MIN KMSN 051610Z 18011KT 9SM CLR 19/08 A2980 970 48  1800 180/11 RMK AO2
14837KMSN MSN20050405101509304/05/05 10:15:31  5-MIN KMSN 051615Z 19009KT 9SM CLR 19/09 A2980 970 50  1800 190/09 RMK AO2
14837KMSN MSN20050405102009304/05/05 10:20:31  5-MIN KMSN 051620Z 19009KT 9SM CLR 19/09 A2980 970 50  1800 190/09 RMK AO2
14837KMSN MSN20050405102509304/05/05 10:25:31  5-MIN KMSN 051625Z 18011KT 9SM CLR 20/09 A2980 970 48  1800 180/11 RMK AO2
14837KMSN MSN20050405103009304/05/05 10:30:31  5-MIN KMSN 051630Z 19010KT 9SM CLR 20/09 A2980 970 48  1800 190/10 RMK AO2
14837KMSN MSN20050405103509304/05/05 10:35:31  5-MIN KMSN 051635Z 18010KT 9SM CLR 20/09 A2980 970 48  1800 180/10 RMK AO2
14837KMSN MSN20050405104009304/05/05 10:40:31  5-MIN KMSN 051640Z 18009KT 9SM CLR 20/09 A2980 970 48  1800 180/09 RMK AO2
14837KMSN MSN20050405104509304/05/05 10:45:31  5-MIN KMSN 051645Z 19008KT 9SM CLR 21/09 A2980 970 48  1900 190/08 RMK AO2
14837KMSN MSN20050405105011004/05/05 10:50:31  5-MIN KMSN 051650Z 17011KT 9SM CLR 21/09 A2980 980 48  1900 170/11 RMK AO2 SLP090 T02060094
14837KMSN MSN20050405105509304/05/05 10:55:31  5-MIN KMSN 051655Z 19009KT 9SM CLR 21/09 A2980 980 48  1900 190/09 RMK AO2
14837KMSN MSN20050405110009304/05/05 11:00:31  5-MIN KMSN 051700Z 18010KT 9SM CLR 21/09 A2980 980 48  1900 180/10 RMK AO2
14837KMSN MSN20050405110509304/05/05 11:05:31  5-MIN KMSN 051705Z 19010KT 9SM CLR 21/09 A2980 980 48  1900 190/10 RMK AO2
14837KMSN MSN20050405111009304/05/05 11:10:31  5-MIN KMSN 051710Z 19009KT 9SM CLR 21/10 A2980 980 50  1900 190/09 RMK AO2
14837KMSN MSN20050405111509304/05/05 11:15:31  5-MIN KMSN 051715Z 17009KT 9SM CLR 21/10 A2980 980 48  2000 170/09 RMK AO2
14837KMSN MSN20050405112009304/05/05 11:20:31  5-MIN KMSN 051720Z 15007KT 9SM CLR 21/09 A2980 980 47  2000 150/07 RMK AO2
14837KMSN MSN20050405112509304/05/05 11:25:31  5-MIN KMSN 051725Z 17010KT 9SM CLR 21/10 A2979 980 48  2000 170/10 RMK AO2
14837KMSN MSN20050405113009304/05/05 11:30:31  5-MIN KMSN 051730Z 17010KT 9SM CLR 22/10 A2980 980 47  2000 170/10 RMK AO2
14837KMSN MSN20050405113509304/05/05 11:35:31  5-MIN KMSN 051735Z 17009KT 9SM CLR 22/10 A2979 980 47  2000 170/09 RMK AO2
14837KMSN MSN20050405114009304/05/05 11:40:31  5-MIN KMSN 051740Z 16012KT 9SM CLR 22/10 A2979 980 45  2100 160/12 RMK AO2
14837KMSN MSN20050405114509304/05/05 11:45:31  5-MIN KMSN 051745Z 17009KT 9SM CLR 22/11 A2979 980 47  2100 170/09 RMK AO2
14837KMSN MSN20050405115012804/05/05 11:50:31  5-MIN KMSN 051750Z 17010KT 9SM CLR 22/11 A2979 980 47  2100 170/10 RMK AO2 SLP087 T02220106 10222 20111 51006
14837KMSN MSN20050405115509504/05/05 11:55:31  5-MIN KMSN 051755Z 16011KT 9SM FEW045 22/11 A2979 980 47 2100 160/11 RMK AO2
14837KMSN MSN20050405120009504/05/05 12:00:31  5-MIN KMSN 051800Z 16011KT 9SM FEW045 23/11 A2979 990 45 2200 150/11 RMK AO2
14837KMSN MSN20050405120509504/05/05 12:05:31  5-MIN KMSN 051805Z 18012KT 9SM FEW045 23/11 A2979 990 47 2200 170/12 RMK AO2
14837KMSN MSN20050405121010104/05/05 12:10:31  5-MIN KMSN 051810Z 17012G17KT 9SM FEW045 23/11 A2979 990 47 2200 170/12G17 RMK AO2
14837KMSN MSN20050405121509804/05/05 12:15:31  5-MIN KMSN 051815Z 18010G17KT 9SM CLR 22/11 A2979 980 47 2100 180/10G17 RMK AO2
14837KMSN MSN20050405122009304/05/05 12:20:31  5-MIN KMSN 051820Z 17013KT 9SM CLR 23/11 A2979 980 47  2200 170/13 RMK AO2
14837KMSN MSN20050405122509304/05/05 12:25:31  5-MIN KMSN 051825Z 17011KT 9SM CLR 23/11 A2979 990 45  2200 170/11 RMK AO2
14837KMSN MSN20050405123009304/05/05 12:30:31  5-MIN KMSN 051830Z 17010KT 9SM CLR 23/11 A2979 980 47  2200 170/10 RMK AO2
14837KMSN MSN20050405123509804/05/05 12:35:31  5-MIN KMSN 051835Z 17013G18KT 9SM CLR 23/11 A2979 990 44 2200 170/13G18 RMK AO2
14837KMSN MSN20050405124011804/05/05 12:40:31  5-MIN KMSN 051840Z 19009G18KT 150V210 9SM SCT046 23/11  A2979 990 47 2200 180/09G18 150V210 RMK AO2
14837KMSN MSN20050405124510104/05/05 12:45:31  5-MIN KMSN 051845Z 18013G18KT 9SM SCT046 23/11 A2979 980 45 2200 180/13G18 RMK AO2
14837KMSN MSN20050405125011204/05/05 12:50:31  5-MIN KMSN 051850Z 17012KT 9SM SCT048 23/11 A2979 990 45 2200 170/12 RMK AO2 SLP086 T02280106
14837KMSN MSN20050405125509504/05/05 12:55:31  5-MIN KMSN 051855Z 18012KT 9SM SCT050 23/11 A2979 980 45 2200 180/12 RMK AO2
14837KMSN MSN20050405130009504/05/05 13:00:31  5-MIN KMSN 051900Z 19014KT 9SM BKN050 23/11 A2979 980 44 2200 180/14 RMK AO2
14837KMSN MSN20050405130509504/05/05 13:05:31  5-MIN KMSN 051905Z 18012KT 9SM BKN048 23/11 A2979 980 45 2200 180/12 RMK AO2
14837KMSN MSN20050405131009504/05/05 13:10:31  5-MIN KMSN 051910Z 17011KT 9SM BKN048 24/11 A2979 990 42 2300 170/11 RMK AO2
14837KMSN MSN20050405131509504/05/05 13:15:31  5-MIN KMSN 051915Z 18009KT 9SM SCT048 23/11 A2979 990 44 2200 180/09 RMK AO2
14837KMSN MSN20050405132009504/05/05 13:20:31  5-MIN KMSN 051920Z 19011KT 9SM SCT048 23/11 A2979 990 44 2200 190/11 RMK AO2
14837KMSN MSN20050405132509504/05/05 13:25:31  5-MIN KMSN 051925Z 16012KT 9SM FEW048 23/11 A2979 990 44 2200 160/12 RMK AO2
14837KMSN MSN20050405133009504/05/05 13:30:31  5-MIN KMSN 051930Z 17010KT 9SM SCT048 23/11 A2979 990 45 2200 170/10 RMK AO2
14837KMSN MSN20050405133509504/05/05 13:35:31  5-MIN KMSN 051935Z 19008KT 9SM SCT048 23/11 A2978 990 44 2200 190/08 RMK AO2
14837KMSN MSN20050405134009504/05/05 13:40:31  5-MIN KMSN 051940Z 18011KT 9SM SCT050 23/11 A2978 990 44 2200 180/11 RMK AO2
14837KMSN MSN20050405134509504/05/05 13:45:31  5-MIN KMSN 051945Z 20009KT 9SM SCT050 23/11 A2978 990 44 2200 200/09 RMK AO2
14837KMSN MSN20050405135011404/05/05 13:50:31  5-MIN KMSN 051950Z 18011KT 10SM BKN050 23/11 A2978 990  44 2200 180/11 RMK AO2 SLP083 T02330106
14837KMSN MSN20050405135509704/05/05 13:55:31  5-MIN KMSN 051955Z 18009KT 10SM BKN050 24/11 A2978 990  42 2300 180/09 RMK AO2
14837KMSN MSN20050405140009704/05/05 14:00:31  5-MIN KMSN 052000Z 18009KT 10SM BKN050 24/11 A2978 990  42 2300 180/09 RMK AO2
14837KMSN MSN20050405140509704/05/05 14:05:31  5-MIN KMSN 052005Z 18009KT 10SM SCT050 24/11 A2978 990  42 2300 180/09 RMK AO2
14837KMSN MSN20050405141009704/05/05 14:10:31  5-MIN KMSN 052010Z 21007KT 10SM SCT050 24/11 A2978 990  42 2300 210/07 RMK AO2
14837KMSN MSN20050405141510304/05/05 14:15:31  5-MIN KMSN 052015Z 20012G17KT 10SM BKN055 24/11 A2979  990 42 2300 190/12G17 RMK AO2
14837KMSN MSN20050405142010304/05/05 14:20:31  5-MIN KMSN 052020Z 21009G17KT 10SM BKN055 23/11 A2978  990 44 2200 210/09G17 RMK AO2
14837KMSN MSN20050405142509704/05/05 14:25:31  5-MIN KMSN 052025Z 19011KT 10SM BKN055 24/11 A2978 990  42 2300 190/11 RMK AO2
14837KMSN MSN20050405143010304/05/05 14:30:31  5-MIN KMSN 052030Z 19009G17KT 10SM BKN055 24/11 A2978  990 42 2300 190/09G17 RMK AO2
14837KMSN MSN20050405143510304/05/05 14:35:31  5-MIN KMSN 052035Z 18014G17KT 10SM BKN055 24/11 A2978  990 41 2400 180/14G17 RMK AO2
14837KMSN MSN20050405144010304/05/05 14:40:31  5-MIN KMSN 052040Z 18012G16KT 10SM BKN055 24/11 A2978  990 41 2400 180/12G16 RMK AO2
14837KMSN MSN20050405144509704/05/05 14:45:31  5-MIN KMSN 052045Z 19011KT 10SM SCT055 24/11 A2978 1000 41 2400 180/11 RMK AO2
14837KMSN MSN20050405145012004/05/05 14:50:31  5-MIN KMSN 052050Z 20008KT 10SM SCT055 24/11 A2978 1000 41 2400 200/08 RMK AO2 SLP082 T02440106 58002
14837KMSN MSN20050405145509704/05/05 14:55:31  5-MIN KMSN 052055Z 20008KT 10SM FEW055 24/11 A2978 1000 41 2400 190/08 RMK AO2
14837KMSN MSN20050405150009704/05/05 15:00:31  5-MIN KMSN 052100Z 22010KT 10SM FEW055 24/11 A2978 1000 42 2300 210/10 RMK AO2
14837KMSN MSN20050405150509704/05/05 15:05:31  5-MIN KMSN 052105Z VRB06KT 10SM SCT055 24/11 A2978 1000 42 2300 VRB/06 RMK AO2
14837KMSN MSN20050405151009704/05/05 15:10:31  5-MIN KMSN 052110Z 22007KT 10SM SCT055 24/11 A2978 1000 41 2400 220/07 RMK AO2
14837KMSN MSN20050405151511404/05/05 15:15:31  5-MIN KMSN 052115Z 20007KT 110V220 10SM SCT055 24/11  A2978 1000 41 2400 200/07 110V220 RMK AO2
14837KMSN MSN20050405152009704/05/05 15:20:31  5-MIN KMSN 052120Z 21009KT 10SM SCT055 24/11 A2978 1000 41 2400 210/09 RMK AO2
14837KMSN MSN20050405152509704/05/05 15:25:31  5-MIN KMSN 052125Z VRB06KT 10SM SCT055 24/11 A2978 1000 41 2400 VRB/06 RMK AO2
14837KMSN MSN20050405153009704/05/05 15:30:31  5-MIN KMSN 052130Z 20008KT 10SM SCT055 24/11 A2978 1000 42 2300 200/08 RMK AO2
14837KMSN MSN20050405153509704/05/05 15:35:31  5-MIN KMSN 052135Z 21005KT 10SM SCT055 24/11 A2978 1000 42 2300 210/05 RMK AO2
14837KMSN MSN20050405154009704/05/05 15:40:31  5-MIN KMSN 052140Z 21008KT 10SM SCT055 24/11 A2978 1000 42 2300 210/08 RMK AO2
14837KMSN MSN20050405154509704/05/05 15:45:31  5-MIN KMSN 052145Z 21007KT 10SM SCT055 24/11 A2978 1000 42 2300 200/07 RMK AO2
14837KMSN MSN20050405155011404/05/05 15:50:31  5-MIN KMSN 052150Z 20008KT 10SM SCT055 24/11 A2978 1000 42 2300 190/08 RMK AO2 SLP082 T02390106
14837KMSN MSN20050405155509704/05/05 15:55:31  5-MIN KMSN 052155Z 20007KT 10SM SCT060 24/11 A2978 990  42 2300 200/07 RMK AO2
14837KMSN MSN20050405160009704/05/05 16:00:31  5-MIN KMSN 052200Z 22007KT 10SM SCT060 24/11 A2978 990  42 2300 210/07 RMK AO2
14837KMSN MSN20050405160509704/05/05 16:05:31  5-MIN KMSN 052205Z 20006KT 10SM SCT060 24/11 A2978 990  42 2300 200/06 RMK AO2
14837KMSN MSN20050405161009704/05/05 16:10:31  5-MIN KMSN 052210Z 20007KT 10SM SCT060 24/11 A2978 990  42 2300 200/07 RMK AO2
14837KMSN MSN20050405161509704/05/05 16:15:31  5-MIN KMSN 052215Z 21007KT 10SM SCT060 24/11 A2979 990  42 2300 210/07 RMK AO2
14837KMSN MSN20050405162009704/05/05 16:20:31  5-MIN KMSN 052220Z 21006KT 10SM BKN060 24/11 A2979 990  42 2300 210/06 RMK AO2
14837KMSN MSN20050405162509704/05/05 16:25:31  5-MIN KMSN 052225Z 22004KT 10SM OVC060 24/11 A2979 990  42 2300 220/04 RMK AO2
14837KMSN MSN20050405163009704/05/05 16:30:31  5-MIN KMSN 052230Z 22007KT 10SM BKN060 24/11 A2979 990  42 2300 220/07 RMK AO2
14837KMSN MSN20050405163509704/05/05 16:35:31  5-MIN KMSN 052235Z VRB06KT 10SM OVC060 24/11 A2979 990  42 2300 VRB/06 RMK AO2
14837KMSN MSN20050405164009704/05/05 16:40:31  5-MIN KMSN 052240Z 21004KT 10SM BKN060 24/11 A2979 980  42 2300 210/04 RMK AO2
14837KMSN MSN20050405164509704/05/05 16:45:31  5-MIN KMSN 052245Z 23004KT 10SM BKN060 24/11 A2979 980  42 2300 230/04 RMK AO2
14837KMSN MSN20050405165011404/05/05 16:50:31  5-MIN KMSN 052250Z 24004KT 10SM BKN060 23/11 A2979 980  44 2200 240/04 RMK AO2 SLP087 T02330106
14837KMSN MSN20050405165509704/05/05 16:55:31  5-MIN KMSN 052255Z VRB04KT 10SM BKN060 23/11 A2979 980  44 2200 VRB/04 RMK AO2
14837KMSN MSN20050405170009704/05/05 17:00:31  5-MIN KMSN 052300Z VRB04KT 10SM BKN065 23/11 A2980 980  45 2100 VRB/04 RMK AO2
14837KMSN MSN20050405170509704/05/05 17:05:31  5-MIN KMSN 052305Z 21005KT 10SM BKN065 23/11 A2980 980  44 2200 210/05 RMK AO2
14837KMSN MSN20050405171009704/05/05 17:10:31  5-MIN KMSN 052310Z VRB05KT 10SM BKN065 23/11 A2980 980  44 2200 VRB/05 RMK AO2
14837KMSN MSN20050405171509704/05/05 17:15:31  5-MIN KMSN 052315Z 18008KT 10SM BKN060 24/11 A2980 980  42 2300 180/08 RMK AO2
14837KMSN MSN20050405172009704/05/05 17:20:31  5-MIN KMSN 052320Z 18008KT 10SM BKN065 24/11 A2980 980  44 2300 180/08 RMK AO2
14837KMSN MSN20050405172509704/05/05 17:25:31  5-MIN KMSN 052325Z 18006KT 10SM BKN060 24/11 A2980 970  44 2300 180/06 RMK AO2
14837KMSN MSN20050405173009704/05/05 17:30:31  5-MIN KMSN 052330Z VRB04KT 10SM BKN060 23/11 A2980 970  45 2200 VRB/04 RMK AO2
14837KMSN MSN20050405173509704/05/05 17:35:31  5-MIN KMSN 052335Z VRB03KT 10SM BKN060 23/11 A2981 970  45 2200 VRB/03 RMK AO2
14837KMSN MSN20050405174009704/05/05 17:40:31  5-MIN KMSN 052340Z VRB04KT 10SM BKN060 23/11 A2981 970  45 2200 VRB/04 RMK AO2
14837KMSN MSN20050405174509704/05/05 17:45:31  5-MIN KMSN 052345Z 25004KT 10SM OVC060 23/11 A2981 970  47 2100 250/04 RMK AO2
14837KMSN MSN20050405175013204/05/05 17:50:31  5-MIN KMSN 052350Z VRB03KT 10SM BKN060 23/11 A2981 960  45 2100 VRB/03 RMK AO2 SLP094 T02280106 10244 20222 58005
14837KMSN MSN20050405175509704/05/05 17:55:31  5-MIN KMSN 052355Z VRB03KT 10SM OVC060 22/11 A2982 960  47 2100 VRB/03 RMK AO2
14837KMSN MSN20050405180009704/05/05 18:00:31  5-MIN KMSN 060000Z 25004KT 10SM BKN060 22/11 A2982 960  47 2100 240/04 RMK AO2
14837KMSN MSN20050405180509704/05/05 18:05:31  5-MIN KMSN 060005Z 00000KT 10SM BKN060 22/11 A2982 960  47 2100 000/00 RMK AO2
14837KMSN MSN20050405181009704/05/05 18:10:31  5-MIN KMSN 060010Z 24003KT 10SM BKN060 22/11 A2982 960  47 2100 240/03 RMK AO2
14837KMSN MSN20050405181509704/05/05 18:15:31  5-MIN KMSN 060015Z 24004KT 10SM BKN060 22/11 A2982 960  50 2000 230/04 RMK AO2
14837KMSN MSN20050405182009704/05/05 18:20:31  5-MIN KMSN 060020Z 22004KT 10SM BKN060 22/11 A2982 950  50 2000 220/04 RMK AO2
14837KMSN MSN20050405182509704/05/05 18:25:31  5-MIN KMSN 060025Z 24003KT 10SM BKN060 21/11 A2983 950  52 1900 240/03 RMK AO2
14837KMSN MSN20050405183009704/05/05 18:30:31  5-MIN KMSN 060030Z 00000KT 10SM BKN060 22/11 A2983 950  49 2000 000/00 RMK AO2
14837KMSN MSN20050405183509704/05/05 18:35:31  5-MIN KMSN 060035Z 00000KT 10SM BKN060 21/11 A2983 950  52 1900 000/00 RMK AO2
14837KMSN MSN20050405184009704/05/05 18:40:31  5-MIN KMSN 060040Z 00000KT 10SM BKN065 21/11 A2983 950  54 1900 000/00 RMK AO2
14837KMSN MSN20050405184509704/05/05 18:45:31  5-MIN KMSN 060045Z 00000KT 10SM BKN065 20/11 A2983 950  56 1800 000/00 RMK AO2
14837KMSN MSN20050405185011404/05/05 18:50:31  5-MIN KMSN 060050Z 00000KT 10SM BKN065 20/11 A2983 950  56 1800 000/00 RMK AO2 SLP101 T02000111
14837KMSN MSN20050405185509704/05/05 18:55:31  5-MIN KMSN 060055Z 00000KT 10SM BKN065 20/11 A2984 940  56 1800 000/00 RMK AO2
14837KMSN MSN20050405190009704/05/05 19:00:31  5-MIN KMSN 060100Z 00000KT 10SM BKN065 19/11 A2984 940  58 1700 000/00 RMK AO2
14837KMSN MSN20050405190509704/05/05 19:05:31  5-MIN KMSN 060105Z 00000KT 10SM BKN065 19/12 A2984 940  60 1700 000/00 RMK AO2
14837KMSN MSN20050405191009704/05/05 19:10:31  5-MIN KMSN 060110Z 00000KT 10SM BKN065 19/12 A2984 940  60 1700 000/00 RMK AO2
14837KMSN MSN20050405191509704/05/05 19:15:31  5-MIN KMSN 060115Z 00000KT 10SM BKN065 19/12 A2984 940  65 1600 000/00 RMK AO2
14837KMSN MSN20050405192009704/05/05 19:20:31  5-MIN KMSN 060120Z 00000KT 10SM BKN065 19/11 A2985 930  58 1600 000/00 RMK AO2
14837KMSN MSN20050405192509704/05/05 19:25:31  5-MIN KMSN 060125Z 00000KT 10SM BKN065 19/11 A2985 930  56 1700 000/00 RMK AO2
14837KMSN MSN20050405193009704/05/05 19:30:31  5-MIN KMSN 060130Z 00000KT 10SM BKN065 19/11 A2985 930  58 1600 000/00 RMK AO2
14837KMSN MSN20050405193509704/05/05 19:35:31  5-MIN KMSN 060135Z 00000KT 10SM OVC070 19/11 A2985 930  58 1600 000/00 RMK AO2
14837KMSN MSN20050405194009704/05/05 19:40:31  5-MIN KMSN 060140Z 00000KT 10SM OVC070 18/11 A2985 930  60 1600 000/00 RMK AO2
14837KMSN MSN20050405194509704/05/05 19:45:31  5-MIN KMSN 060145Z 00000KT 10SM BKN070 18/11 A2986 920  60 1600 000/00 RMK AO2
14837KMSN MSN20050405195011404/05/05 19:50:31  5-MIN KMSN 060150Z 00000KT 10SM BKN070 18/11 A2986 920  62 1500 000/00 RMK AO2 SLP109 T01780106
14837KMSN MSN20050405195509704/05/05 19:55:31  5-MIN KMSN 060155Z 00000KT 10SM OVC070 18/11 A2986 920  62 1500 000/00 RMK AO2
14837KMSN MSN20050405200009704/05/05 20:00:31  5-MIN KMSN 060200Z 00000KT 10SM OVC070 18/11 A2986 920  62 1500 000/00 RMK AO2
14837KMSN MSN20050405200509704/05/05 20:05:31  5-MIN KMSN 060205Z 03003KT 10SM OVC070 18/11 A2986 920  60 1600 030/03 RMK AO2
14837KMSN MSN20050405201009704/05/05 20:10:31  5-MIN KMSN 060210Z 00000KT 10SM OVC070 19/11 A2986 920  58 1600 000/00 RMK AO2
14837KMSN MSN20050405201509704/05/05 20:15:31  5-MIN KMSN 060215Z 00000KT 10SM OVC070 18/11 A2986 920  60 1600 000/00 RMK AO2
14837KMSN MSN20050405202009704/05/05 20:20:31  5-MIN KMSN 060220Z 00000KT 10SM OVC070 18/11 A2986 920  60 1600 000/00 RMK AO2
14837KMSN MSN20050405202509704/05/05 20:25:31  5-MIN KMSN 060225Z 00000KT 10SM OVC070 18/11 A2986 920  64 1500 000/00 RMK AO2
14837KMSN MSN20050405203009704/05/05 20:30:31  5-MIN KMSN 060230Z 00000KT 10SM BKN070 18/12 A2987 920  67 1500 000/00 RMK AO2
14837KMSN MSN20050405203509704/05/05 20:35:31  5-MIN KMSN 060235Z 00000KT 10SM BKN070 18/12 A2986 920  67 1500 000/00 RMK AO2
14837KMSN MSN20050405204009704/05/05 20:40:31  5-MIN KMSN 060240Z 00000KT 10SM BKN070 18/11 A2987 910  64 1500 000/00 RMK AO2
14837KMSN MSN20050405204509704/05/05 20:45:31  5-MIN KMSN 060245Z 00000KT 10SM BKN070 18/11 A2987 910  60 1600 000/00 RMK AO2
14837KMSN MSN20050405205011804/05/05 20:50:31  5-MIN KMSN 060250Z 00000KT 9SM BKN070 19/11 A2987 910 58 1600 000/00 RMK AO2 SLP111 T01890106 53012
14837KMSN MSN20050405205509704/05/05 20:55:31  5-MIN KMSN 060255Z 00000KT 10SM OVC070 18/11 A2987 910  62 1500 000/00 RMK AO2
14837KMSN MSN20050405210009704/05/05 21:00:31  5-MIN KMSN 060300Z 00000KT 10SM OVC070 18/12 A2987 910  67 1500 000/00 RMK AO2
14837KMSN MSN20050405210509704/05/05 21:05:31  5-MIN KMSN 060305Z 00000KT 10SM OVC070 17/12 A2987 910  72 1400 000/00 RMK AO2
14837KMSN MSN20050405211009704/05/05 21:10:31  5-MIN KMSN 060310Z 00000KT 10SM BKN070 18/11 A2987 910  62 1600 000/00 RMK AO2
14837KMSN MSN20050405211509704/05/05 21:15:31  5-MIN KMSN 060315Z 00000KT 10SM BKN070 19/11 A2987 910  58 1600 000/00 RMK AO2
14837KMSN MSN20050405212009504/05/05 21:20:31  5-MIN KMSN 060320Z 00000KT 9SM BKN070 17/11 A2987 910 64 1400 000/00 RMK AO2
14837KMSN MSN20050405212509504/05/05 21:25:31  5-MIN KMSN 060325Z 00000KT 9SM BKN070 17/12 A2987 910 69 1400 000/00 RMK AO2
14837KMSN MSN20050405213009704/05/05 21:30:31  5-MIN KMSN 060330Z 00000KT 10SM BKN070 18/11 A2987 910  62 1500 000/00 RMK AO2
14837KMSN MSN20050405213509704/05/05 21:35:31  5-MIN KMSN 060335Z 00000KT 10SM BKN070 18/11 A2987 910  62 1500 000/00 RMK AO2
14837KMSN MSN20050405214009704/05/05 21:40:31  5-MIN KMSN 060340Z 00000KT 10SM BKN070 18/11 A2987 910  60 1500 000/00 RMK AO2
14837KMSN MSN20050405214509704/05/05 21:45:31  5-MIN KMSN 060345Z 00000KT 10SM BKN070 18/11 A2988 910  64 1500 000/00 RMK AO2
14837KMSN MSN20050405215011204/05/05 21:50:31  5-MIN KMSN 060350Z 00000KT 9SM BKN070 17/12 A2988 900 69 1400 000/00 RMK AO2 SLP115 T01720117
14837KMSN MSN20050405215509504/05/05 21:55:31  5-MIN KMSN 060355Z 00000KT 9SM OVC070 17/13 A2988 900 75 1400 000/00 RMK AO2
14837KMSN MSN20050405220009504/05/05 22:00:31  5-MIN KMSN 060400Z 00000KT 9SM OVC065 17/12 A2988 900 72 1400 000/00 RMK AO2
14837KMSN MSN20050405220509704/05/05 22:05:31  5-MIN KMSN 060405Z 16003KT 10SM OVC070 18/11 A2988 900  64 1500 160/03 RMK AO2
14837KMSN MSN20050405221009704/05/05 22:10:31  5-MIN KMSN 060410Z 00000KT 10SM OVC070 18/11 A2988 900  64 1500 000/00 RMK AO2
14837KMSN MSN20050405221509504/05/05 22:15:31  5-MIN KMSN 060415Z 00000KT 9SM OVC070 17/11 A2988 900 67 1400 000/00 RMK AO2
14837KMSN MSN20050405222009704/05/05 22:20:31  5-MIN KMSN 060420Z 00000KT 10SM OVC070 17/11 A2988 900  67 1400 000/00 RMK AO2
14837KMSN MSN20050405222509504/05/05 22:25:31  5-MIN KMSN 060425Z 33005KT 9SM OVC070 17/11 A2988 900 69 1300 330/05 RMK AO2
14837KMSN MSN20050405223009504/05/05 22:30:31  5-MIN KMSN 060430Z 32004KT 9SM OVC070 17/11 A2988 900 69 1300 320/04 RMK AO2
14837KMSN MSN20050405223509504/05/05 22:35:31  5-MIN KMSN 060435Z 33004KT 9SM OVC070 17/11 A2988 900 67 1400 330/04 RMK AO2
14837KMSN MSN20050405224009504/05/05 22:40:31  5-MIN KMSN 060440Z 33003KT 9SM OVC070 17/11 A2988 900 67 1400 330/03 RMK AO2
14837KMSN MSN20050405224509504/05/05 22:45:31  5-MIN KMSN 060445Z 00000KT 9SM OVC070 18/11 A2988 900 64 1500 000/00 RMK AO2
14837KMSN MSN20050405225011204/05/05 22:50:31  5-MIN KMSN 060450Z 34003KT 9SM OVC070 17/11 A2988 900 67 1400 340/03 RMK AO2 SLP116 T01720111
14837KMSN MSN20050405225509504/05/05 22:55:31  5-MIN KMSN 060455Z 36003KT 9SM OVC070 17/11 A2988 900 67 1400 360/03 RMK AO2
14837KMSN MSN20050405230009504/05/05 23:00:31  5-MIN KMSN 060500Z 00000KT 9SM OVC070 16/11 A2988 900 72 1300 000/00 RMK AO2
14837KMSN MSN20050405230509504/05/05 23:05:31  5-MIN KMSN 060505Z 00000KT 9SM OVC070 17/11 A2988 900 67 1400 000/00 RMK AO2
14837KMSN MSN20050405231010204/05/05 23:10:31  5-MIN KMSN 060510Z 00000KT 9SM FEW060 OVC070 18/11 A2988 900 64 1500 000/00 RMK AO2
14837KMSN MSN20050405231510204/05/05 23:15:31  5-MIN KMSN 060515Z 00000KT 9SM FEW060 OVC070 17/11 A2988 900 69 1300 000/00 RMK AO2
14837KMSN MSN20050405232009504/05/05 23:20:31  5-MIN KMSN 060520Z 00000KT 9SM OVC070 17/11 A2988 900 67 1400 000/00 RMK AO2
14837KMSN MSN20050405232509504/05/05 23:25:31  5-MIN KMSN 060525Z 00000KT 9SM OVC075 17/11 A2988 900 67 1400 000/00 RMK AO2
14837KMSN MSN20050405233010204/05/05 23:30:31  5-MIN KMSN 060530Z 00000KT 9SM FEW060 OVC075 18/11 A2988 900 64 1500 000/00 RMK AO2
14837KMSN MSN20050405233510204/05/05 23:35:31  5-MIN KMSN 060535Z 00000KT 9SM FEW055 OVC075 17/11 A2988 910 67 1400 000/00 RMK AO2
14837KMSN MSN20050405234010204/05/05 23:40:31  5-MIN KMSN 060540Z 00000KT 9SM FEW055 OVC075 18/11 A2987 910 64 1500 000/00 RMK AO2
14837KMSN MSN20050405234510204/05/05 23:45:31  5-MIN KMSN 060545Z 00000KT 9SM FEW055 OVC070 17/11 A2987 910 67 1400 000/00 RMK AO2
14837KMSN MSN20050405235014704/05/05 23:50:31  5-MIN KMSN 060550Z 17003KT 9SM FEW055 OVC070 17/11 A2987 910 67 1400 170/03 RMK AO2 SLP112 T01720111 10228 20161 402440089 51018
14837KMSN MSN20050405235510204/05/05 23:55:31  5-MIN KMSN 060555Z 17007KT 8SM FEW055 OVC070 17/11 A2987 910 67 1400 170/07 RMK AO2
14837KMSN MSN20050406000010204/06/05 00:00:31  5-MIN KMSN 060600Z 17008KT 8SM FEW060 OVC070 18/11 A2987 910 62 1600 170/08 RMK AO2
14837KMSN MSN20050406000509504/06/05 00:05:31  5-MIN KMSN 060605Z 17008KT 8SM OVC070 18/11 A2987 910 62 1600 170/08 RMK AO2
14837KMSN MSN20050406001009504/06/05 00:10:31  5-MIN KMSN 060610Z 17009KT 8SM OVC070 18/11 A2987 910 62 1600 170/09 RMK AO2
14837KMSN MSN20050406001509504/06/05 00:15:31  5-MIN KMSN 060615Z 17009KT 8SM OVC070 18/11 A2987 910 62 1600 170/09 RMK AO2
14837KMSN MSN20050406002009504/06/05 00:20:31  5-MIN KMSN 060620Z 17008KT 8SM OVC070 18/11 A2987 910 62 1500 170/08 RMK AO2
14837KMSN MSN20050406002509504/06/05 00:25:31  5-MIN KMSN 060625Z 17008KT 8SM OVC070 18/11 A2987 910 62 1500 170/08 RMK AO2
14837KMSN MSN20050406003009504/06/05 00:30:31  5-MIN KMSN 060630Z 17007KT 8SM OVC070 18/11 A2987 910 62 1500 170/07 RMK AO2
14837KMSN MSN20050406003509504/06/05 00:35:31  5-MIN KMSN 060635Z 17007KT 8SM OVC070 18/11 A2987 910 62 1600 170/07 RMK AO2
14837KMSN MSN20050406004009504/06/05 00:40:31  5-MIN KMSN 060640Z 16006KT 8SM OVC070 18/11 A2987 910 64 1500 160/06 RMK AO2
14837KMSN MSN20050406004509504/06/05 00:45:31  5-MIN KMSN 060645Z 16005KT 8SM OVC070 18/11 A2987 910 64 1500 150/05 RMK AO2
14837KMSN MSN20050406005011204/06/05 00:50:31  5-MIN KMSN 060650Z 15006KT 8SM OVC070 17/11 A2987 910 67 1400 150/06 RMK AO2 SLP111 T01720111
14837KMSN MSN20050406005509504/06/05 00:55:31  5-MIN KMSN 060655Z 15005KT 8SM OVC070 17/12 A2987 910 69 1400 150/05 RMK AO2
14837KMSN MSN20050406010009504/06/05 01:00:31  5-MIN KMSN 060700Z 16005KT 8SM OVC070 17/12 A2987 910 69 1400 160/05 RMK AO2
14837KMSN MSN20050406010509504/06/05 01:05:31  5-MIN KMSN 060705Z 16005KT 8SM OVC070 17/12 A2987 910 69 1400 160/05 RMK AO2
14837KMSN MSN20050406011009504/06/05 01:10:31  5-MIN KMSN 060710Z 17005KT 8SM OVC070 18/11 A2987 910 64 1500 170/05 RMK AO2
14837KMSN MSN20050406011509504/06/05 01:15:31  5-MIN KMSN 060715Z 16004KT 8SM OVC070 18/11 A2987 910 64 1500 160/04 RMK AO2
14837KMSN MSN20050406012009504/06/05 01:20:31  5-MIN KMSN 060720Z 18003KT 8SM OVC070 18/11 A2987 910 64 1500 180/03 RMK AO2
14837KMSN MSN20050406012509504/06/05 01:25:31  5-MIN KMSN 060725Z 18003KT 8SM OVC070 18/11 A2987 920 64 1500 180/03 RMK AO2
14837KMSN MSN20050406013009504/06/05 01:30:31  5-MIN KMSN 060730Z 16003KT 8SM OVC070 18/11 A2986 920 64 1500 160/03 RMK AO2
14837KMSN MSN20050406013509504/06/05 01:35:31  5-MIN KMSN 060735Z 16004KT 8SM OVC070 17/11 A2986 920 67 1400 160/04 RMK AO2
14837KMSN MSN20050406014009504/06/05 01:40:31  5-MIN KMSN 060740Z 17004KT 8SM OVC075 17/11 A2986 920 67 1400 170/04 RMK AO2
14837KMSN MSN20050406014509504/06/05 01:45:31  5-MIN KMSN 060745Z 17004KT 8SM OVC075 17/11 A2986 920 67 1400 170/04 RMK AO2
14837KMSN MSN20050406015011204/06/05 01:50:31  5-MIN KMSN 060750Z 16004KT 8SM OVC075 17/11 A2986 920 67 1400 160/04 RMK AO2 SLP108 T01720111
14837KMSN MSN20050406015509504/06/05 01:55:31  5-MIN KMSN 060755Z 15003KT 8SM OVC075 17/11 A2986 920 67 1400 150/03 RMK AO2
14837KMSN MSN20050406020009504/06/05 02:00:31  5-MIN KMSN 060800Z 00000KT 8SM OVC075 17/11 A2986 920 67 1400 000/00 RMK AO2
14837KMSN MSN20050406020509504/06/05 02:05:31  5-MIN KMSN 060805Z 00000KT 8SM OVC075 17/11 A2986 920 67 1400 000/00 RMK AO2
14837KMSN MSN20050406021009504/06/05 02:10:31  5-MIN KMSN 060810Z 00000KT 8SM OVC075 18/11 A2986 920 64 1500 000/00 RMK AO2
14837KMSN MSN20050406021509504/06/05 02:15:31  5-MIN KMSN 060815Z 00000KT 8SM OVC075 18/11 A2987 910 64 1500 000/00 RMK AO2
14837KMSN MSN20050406022009504/06/05 02:20:31  5-MIN KMSN 060820Z 19004KT 8SM OVC075 18/11 A2987 910 64 1500 190/04 RMK AO2
14837KMSN MSN20050406022509504/06/05 02:25:31  5-MIN KMSN 060825Z 19004KT 8SM OVC075 18/11 A2987 910 64 1500 180/04 RMK AO2
14837KMSN MSN20050406023009504/06/05 02:30:31  5-MIN KMSN 060830Z 18004KT 8SM OVC075 17/11 A2987 910 67 1400 180/04 RMK AO2
14837KMSN MSN20050406023509504/06/05 02:35:31  5-MIN KMSN 060835Z 17004KT 8SM OVC075 17/11 A2987 910 67 1400 170/04 RMK AO2
14837KMSN MSN20050406024009504/06/05 02:40:31  5-MIN KMSN 060840Z 19003KT 8SM OVC075 17/11 A2987 910 69 1400 190/03 RMK AO2
14837KMSN MSN20050406024509504/06/05 02:45:31  5-MIN KMSN 060845Z 19003KT 8SM OVC075 17/11 A2987 910 67 1400 190/03 RMK AO2
14837KMSN MSN20050406025011804/06/05 02:50:31  5-MIN KMSN 060850Z 16004KT 8SM OVC075 17/11 A2987 910 69 1400 160/04 RMK AO2 SLP111 T01670111 50001
14837KMSN MSN20050406025509504/06/05 02:55:31  5-MIN KMSN 060855Z 17005KT 8SM OVC075 16/11 A2987 910 72 1300 170/05 RMK AO2
14837KMSN MSN20050406030009504/06/05 03:00:31  5-MIN KMSN 060900Z 19004KT 8SM OVC075 16/11 A2987 910 72 1300 190/04 RMK AO2
14837KMSN MSN20050406030509504/06/05 03:05:31  5-MIN KMSN 060905Z 17006KT 8SM OVC075 17/11 A2987 910 69 1400 170/06 RMK AO2
14837KMSN MSN20050406031009504/06/05 03:10:31  5-MIN KMSN 060910Z 16006KT 8SM OVC075 17/11 A2988 900 69 1300 160/06 RMK AO2
14837KMSN MSN20050406031509504/06/05 03:15:31  5-MIN KMSN 060915Z 16004KT 8SM OVC075 16/11 A2988 900 72 1300 160/04 RMK AO2
14837KMSN MSN20050406032009504/06/05 03:20:31  5-MIN KMSN 060920Z 18003KT 8SM OVC075 17/11 A2988 900 69 1300 180/03 RMK AO2
14837KMSN MSN20050406032509504/06/05 03:25:31  5-MIN KMSN 060925Z 17003KT 8SM OVC075 17/11 A2988 900 69 1300 170/03 RMK AO2
14837KMSN MSN20050406033009504/06/05 03:30:31  5-MIN KMSN 060930Z 17004KT 8SM OVC075 17/11 A2988 900 69 1300 170/04 RMK AO2
14837KMSN MSN20050406033509504/06/05 03:35:31  5-MIN KMSN 060935Z 17005KT 8SM OVC075 16/11 A2988 900 72 1300 170/05 RMK AO2
14837KMSN MSN20050406034009504/06/05 03:40:31  5-MIN KMSN 060940Z 17005KT 8SM OVC080 17/11 A2988 900 69 1300 170/05 RMK AO2
14837KMSN MSN20050406034509504/06/05 03:45:31  5-MIN KMSN 060945Z 18006KT 8SM OVC080 17/11 A2988 900 69 1300 180/06 RMK AO2
14837KMSN MSN20050406035011204/06/05 03:50:31  5-MIN KMSN 060950Z 18007KT 8SM OVC080 17/11 A2988 900 69 1300 180/07 RMK AO2 SLP115 T01670111
14837KMSN MSN20050406035509504/06/05 03:55:31  5-MIN KMSN 060955Z 18007KT 8SM OVC080 17/11 A2988 900 69 1300 180/07 RMK AO2
14837KMSN MSN20050406040009504/06/05 04:00:31  5-MIN KMSN 061000Z 18006KT 8SM OVC080 17/11 A2988 900 69 1300 180/06 RMK AO2
14837KMSN MSN20050406040509504/06/05 04:05:31  5-MIN KMSN 061005Z 18007KT 8SM OVC080 17/11 A2988 900 69 1300 180/07 RMK AO2
14837KMSN MSN20050406041009504/06/05 04:10:31  5-MIN KMSN 061010Z 18007KT 8SM OVC080 17/11 A2988 900 69 1300 180/07 RMK AO2
14837KMSN MSN20050406041509504/06/05 04:15:31  5-MIN KMSN 061015Z 19006KT 8SM OVC080 17/11 A2988 900 69 1300 190/06 RMK AO2
14837KMSN MSN20050406042009504/06/05 04:20:31  5-MIN KMSN 061020Z 18006KT 8SM OVC080 17/11 A2988 900 69 1300 180/06 RMK AO2
14837KMSN MSN20050406042509504/06/05 04:25:31  5-MIN KMSN 061025Z 18008KT 8SM OVC080 17/11 A2988 900 69 1300 180/08 RMK AO2
14837KMSN MSN20050406043009504/06/05 04:30:31  5-MIN KMSN 061030Z 18008KT 8SM OVC080 17/11 A2989 900 69 1300 180/08 RMK AO2
14837KMSN MSN20050406043509504/06/05 04:35:31  5-MIN KMSN 061035Z 19008KT 8SM OVC080 17/11 A2989 900 69 1300 180/08 RMK AO2
14837KMSN MSN20050406044009504/06/05 04:40:31  5-MIN KMSN 061040Z 19007KT 8SM OVC080 17/11 A2989 900 69 1300 180/07 RMK AO2
14837KMSN MSN20050406044509504/06/05 04:45:31  5-MIN KMSN 061045Z 18006KT 8SM OVC080 17/11 A2989 900 69 1300 180/06 RMK AO2
14837KMSN MSN20050406045011204/06/05 04:50:31  5-MIN KMSN 061050Z 18007KT 8SM OVC080 17/11 A2989 890 69 1300 180/07 RMK AO2 SLP117 T01670111
14837KMSN MSN20050406045509504/06/05 04:55:31  5-MIN KMSN 061055Z 18007KT 8SM OVC080 17/11 A2989 890 69 1300 180/07 RMK AO2
14837KMSN MSN20050406050009504/06/05 05:00:31  5-MIN KMSN 061100Z 19004KT 8SM OVC080 17/11 A2989 890 69 1300 190/04 RMK AO2
14837KMSN MSN20050406050509504/06/05 05:05:31  5-MIN KMSN 061105Z 20004KT 8SM OVC080 17/11 A2989 890 69 1300 200/04 RMK AO2
14837KMSN MSN20050406051009504/06/05 05:10:31  5-MIN KMSN 061110Z 21003KT 7SM OVC080 17/11 A2989 890 69 1300 210/03 RMK AO2
14837KMSN MSN20050406051509504/06/05 05:15:31  5-MIN KMSN 061115Z 21003KT 7SM OVC080 17/11 A2990 890 69 1300 210/03 RMK AO2
14837KMSN MSN20050406052009504/06/05 05:20:31  5-MIN KMSN 061120Z 18004KT 7SM OVC080 17/11 A2990 880 69 1300 180/04 RMK AO2
14837KMSN MSN20050406052509504/06/05 05:25:31  5-MIN KMSN 061125Z 20005KT 7SM OVC080 17/11 A2990 880 69 1300 200/05 RMK AO2
14837KMSN MSN20050406053009504/06/05 05:30:31  5-MIN KMSN 061130Z 18004KT 8SM OVC080 17/11 A2990 880 69 1300 180/04 RMK AO2
14837KMSN MSN20050406053509504/06/05 05:35:31  5-MIN KMSN 061135Z 18005KT 8SM OVC080 17/11 A2991 880 69 1300 180/05 RMK AO2
14837KMSN MSN20050406054009504/06/05 05:40:31  5-MIN KMSN 061140Z 17003KT 8SM OVC080 16/11 A2991 880 72 1300 170/03 RMK AO2
14837KMSN MSN20050406054509504/06/05 05:45:31  5-MIN KMSN 061145Z 00000KT 8SM OVC080 16/11 A2991 880 72 1300 000/00 RMK AO2
14837KMSN MSN20050406055013004/06/05 05:50:31  5-MIN KMSN 061150Z 15004KT 7SM OVC080 16/11 A2991 870 72 1200 150/04 RMK AO2 SLP125 T01560106 10183 20156 55000
14837KMSN MSN20050406055509504/06/05 05:55:31  5-MIN KMSN 061155Z 15004KT 7SM OVC085 15/11 A2991 870 74 1100 150/04 RMK AO2
14837KMSN MSN20050406060009804/06/05 06:00:31  5-MIN KMSN 061200Z 17003KT 6SM HZ OVC085 16/11 A2991 870 74 1200 160/03 RMK AO2
14837KMSN MSN20050406060509804/06/05 06:05:31  5-MIN KMSN 061205Z 18003KT 6SM HZ OVC085 16/11 A2991 880 74 1200 180/03 RMK AO2
14837KMSN MSN20050406061009804/06/05 06:10:31  5-MIN KMSN 061210Z 18003KT 6SM HZ OVC085 16/11 A2991 870 72 1200 170/03 RMK AO2
14837KMSN MSN20050406061509804/06/05 06:15:31  5-MIN KMSN 061215Z 00000KT 6SM HZ OVC085 16/11 A2991 870 74 1200 000/00 RMK AO2
14837KMSN MSN20050406062009804/06/05 06:20:31  5-MIN KMSN 061220Z 00000KT 6SM HZ OVC085 16/11 A2991 880 74 1200 000/00 RMK AO2
14837KMSN MSN20050406062509804/06/05 06:25:31  5-MIN KMSN 061225Z 15004KT 6SM HZ OVC085 16/11 A2991 880 74 1200 150/04 RMK AO2
14837KMSN MSN20050406063009804/06/05 06:30:31  5-MIN KMSN 061230Z 16005KT 6SM HZ OVC085 16/11 A2991 880 74 1200 160/05 RMK AO2
14837KMSN MSN20050406063509804/06/05 06:35:31  5-MIN KMSN 061235Z 15004KT 6SM HZ OVC085 16/11 A2990 880 74 1200 140/04 RMK AO2
14837KMSN MSN20050406064009804/06/05 06:40:31  5-MIN KMSN 061240Z 14004KT 6SM HZ OVC085 16/11 A2990 880 72 1300 140/04 RMK AO2
14837KMSN MSN20050406064509804/06/05 06:45:31  5-MIN KMSN 061245Z 16004KT 6SM HZ OVC085 17/11 A2990 880 69 1300 160/04 RMK AO2
14837KMSN MSN20050406065011504/06/05 06:50:31  5-MIN KMSN 061250Z 18004KT 6SM HZ BKN085 17/11 A2990 880 69 1300 180/04 RMK AO2 SLP123 T01670111
14837KMSN MSN20050406065509804/06/05 06:55:31  5-MIN KMSN 061255Z 16003KT 6SM HZ BKN085 17/11 A2990 880 69 1300 160/03 RMK AO2
14837KMSN MSN20050406070009804/06/05 07:00:31  5-MIN KMSN 061300Z 15003KT 6SM HZ BKN085 17/11 A2990 880 69 1300 140/03 RMK AO2
14837KMSN MSN20050406070509804/06/05 07:05:31  5-MIN KMSN 061305Z 14003KT 6SM HZ SCT085 17/11 A2990 880 69 1300 140/03 RMK AO2
14837KMSN MSN20050406071009804/06/05 07:10:31  5-MIN KMSN 061310Z 00000KT 6SM HZ FEW085 17/11 A2990 880 69 1300 000/00 RMK AO2
14837KMSN MSN20050406071509804/06/05 07:15:31  5-MIN KMSN 061315Z 00000KT 6SM HZ FEW085 17/11 A2990 880 67 1400 000/00 RMK AO2
14837KMSN MSN20050406072009504/06/05 07:20:31  5-MIN KMSN 061320Z 00000KT 6SM HZ CLR 17/11 A2990 890 67 1400 000/00 RMK AO2
14837KMSN MSN20050406072509504/06/05 07:25:31  5-MIN KMSN 061325Z 00000KT 6SM HZ CLR 18/11 A2989 890 64 1500 000/00 RMK AO2
14837KMSN MSN20050406073009504/06/05 07:30:31  5-MIN KMSN 061330Z 00000KT 6SM HZ CLR 18/11 A2989 890 64 1500 000/00 RMK AO2
14837KMSN MSN20050406073509504/06/05 07:35:31  5-MIN KMSN 061335Z 00000KT 6SM HZ CLR 18/11 A2989 890 64 1500 000/00 RMK AO2
14837KMSN MSN20050406074009504/06/05 07:40:31  5-MIN KMSN 061340Z 00000KT 6SM HZ CLR 18/11 A2989 890 62 1500 000/00 RMK AO2
14837KMSN MSN20050406074509504/06/05 07:45:31  5-MIN KMSN 061345Z 00000KT 6SM HZ CLR 18/11 A2990 890 62 1500 000/00 RMK AO2
14837KMSN MSN20050406075011204/06/05 07:50:31  5-MIN KMSN 061350Z 00000KT 6SM HZ CLR 18/11 A2990 890 62 1500 000/00 RMK AO2 SLP122 T01830111
14837KMSN MSN20050406075509504/06/05 07:55:31  5-MIN KMSN 061355Z 00000KT 6SM HZ CLR 19/11 A2990 890 60 1600 000/00 RMK AO2
14837KMSN MSN20050406080009304/06/05 08:00:31  5-MIN KMSN 061400Z 00000KT 7SM CLR 19/11 A2990 890 60  1600 000/00 RMK AO2
14837KMSN MSN20050406080509304/06/05 08:05:31  5-MIN KMSN 061405Z VRB03KT 7SM CLR 19/11 A2990 890 60  1600 VRB/03 RMK AO2
14837KMSN MSN20050406081009304/06/05 08:10:31  5-MIN KMSN 061410Z 00000KT 7SM CLR 19/11 A2990 890 60  1600 000/00 RMK AO2
14837KMSN MSN20050406081509304/06/05 08:15:31  5-MIN KMSN 061415Z VRB03KT 7SM CLR 19/11 A2990 890 60  1600 VRB/03 RMK AO2
14837KMSN MSN20050406082009304/06/05 08:20:31  5-MIN KMSN 061420Z 00000KT 7SM CLR 19/11 A2989 890 60  1600 000/00 RMK AO2
14837KMSN MSN20050406082509304/06/05 08:25:31  5-MIN KMSN 061425Z 00000KT 7SM CLR 19/11 A2989 890 60  1600 000/00 RMK AO2
14837KMSN MSN20050406083009304/06/05 08:30:31  5-MIN KMSN 061430Z 00000KT 7SM CLR 19/11 A2989 890 58  1700 000/00 RMK AO2
14837KMSN MSN20050406083509304/06/05 08:35:31  5-MIN KMSN 061435Z 28004KT 7SM CLR 19/11 A2989 890 58  1700 280/04 RMK AO2
14837KMSN MSN20050406084009304/06/05 08:40:31  5-MIN KMSN 061440Z 00000KT 7SM CLR 20/11 A2990 890 56  1700 000/00 RMK AO2
14837KMSN MSN20050406084509304/06/05 08:45:31  5-MIN KMSN 061445Z 02004KT 7SM CLR 20/11 A2989 890 56  1700 020/04 RMK AO2
14837KMSN MSN20050406085011604/06/05 08:50:31  5-MIN KMSN 061450Z 00000KT 7SM CLR 21/12 A2990 890 56  1800 000/00 RMK AO2 SLP120 T02060117 53013
14837KMSN MSN20050406085509304/06/05 08:55:31  5-MIN KMSN 061455Z 05003KT 7SM CLR 20/11 A2990 880 56  1700 050/03 RMK AO2
14837KMSN MSN20050406090009304/06/05 09:00:31  5-MIN KMSN 061500Z 00000KT 8SM CLR 20/11 A2990 880 56  1700 000/00 RMK AO2
14837KMSN MSN20050406090509304/06/05 09:05:31  5-MIN KMSN 061505Z 00000KT 8SM CLR 20/11 A2990 880 56  1700 000/00 RMK AO2
14837KMSN MSN20050406091009304/06/05 09:10:31  5-MIN KMSN 061510Z VRB03KT 8SM CLR 21/11 A2990 880 52  1800 VRB/03 RMK AO2
14837KMSN MSN20050406091509304/06/05 09:15:31  5-MIN KMSN 061515Z 00000KT 8SM CLR 21/11 A2990 880 54  1800 000/00 RMK AO2
14837KMSN MSN20050406092009304/06/05 09:20:31  5-MIN KMSN 061520Z 28003KT 8SM CLR 21/11 A2990 880 52  1800 280/03 RMK AO2
14837KMSN MSN20050406092509304/06/05 09:25:31  5-MIN KMSN 061525Z 00000KT 8SM CLR 21/11 A2990 880 54  1800 000/00 RMK AO2
14837KMSN MSN20050406093009304/06/05 09:30:31  5-MIN KMSN 061530Z 00000KT 8SM CLR 21/11 A2990 880 52  1800 000/00 RMK AO2
14837KMSN MSN20050406093509304/06/05 09:35:31  5-MIN KMSN 061535Z 00000KT 8SM CLR 22/12 A2990 880 52  1900 000/00 RMK AO2
14837KMSN MSN20050406094009304/06/05 09:40:31  5-MIN KMSN 061540Z 00000KT 8SM CLR 21/11 A2990 880 52  1800 000/00 RMK AO2
14837KMSN MSN20050406094509304/06/05 09:45:31  5-MIN KMSN 061545Z 00000KT 8SM CLR 21/11 A2990 880 54  1800 000/00 RMK AO2
14837KMSN MSN20050406095011004/06/05 09:50:31  5-MIN KMSN 061550Z 18003KT 8SM CLR 22/11 A2990 880 50  1900 180/03 RMK AO2 SLP122 T02170111
14837KMSN MSN20050406095509304/06/05 09:55:31  5-MIN KMSN 061555Z 00000KT 8SM CLR 21/12 A2990 880 54  1800 000/00 RMK AO2
14837KMSN MSN20050406100009304/06/05 10:00:31  5-MIN KMSN 061600Z 00000KT 8SM CLR 21/11 A2990 880 52  1800 000/00 RMK AO2
14837KMSN MSN20050406100509304/06/05 10:05:31  5-MIN KMSN 061605Z 21004KT 8SM CLR 21/11 A2991 880 52  1800 200/04 RMK AO2
14837KMSN MSN20050406101009304/06/05 10:10:31  5-MIN KMSN 061610Z 00000KT 9SM CLR 21/11 A2991 880 52  1800 000/00 RMK AO2
14837KMSN MSN20050406101509304/06/05 10:15:31  5-MIN KMSN 061615Z 00000KT 9SM CLR 22/11 A2991 880 50  1900 000/00 RMK AO2
14837KMSN MSN20050406102009304/06/05 10:20:31  5-MIN KMSN 061620Z 21004KT 9SM CLR 22/11 A2991 870 49  2000 210/04 RMK AO2
14837KMSN MSN20050406102509304/06/05 10:25:31  5-MIN KMSN 061625Z 19004KT 9SM CLR 22/11 A2991 870 49  2000 190/04 RMK AO2
14837KMSN MSN20050406103009404/06/05 10:30:31  5-MIN KMSN 061630Z VRB04KT 10SM CLR 22/11 A2991 870 49  2000 VRB/04 RMK AO2
14837KMSN MSN20050406103509404/06/05 10:35:31  5-MIN KMSN 061635Z VRB03KT 10SM CLR 22/11 A2991 870 49  2000 VRB/03 RMK AO2
14837KMSN MSN20050406104009404/06/05 10:40:31  5-MIN KMSN 061640Z 27004KT 10SM CLR 22/11 A2991 870 49  2000 270/04 RMK AO2
14837KMSN MSN20050406104509404/06/05 10:45:31  5-MIN KMSN 061645Z VRB05KT 10SM CLR 23/11 A2991 870 45  2000 VRB/05 RMK AO2
14837KMSN MSN20050406105011104/06/05 10:50:31  5-MIN KMSN 061650Z VRB03KT 10SM CLR 22/11 A2991 870 47  2000 VRB/03 RMK AO2 SLP126 T02220106
14837KMSN MSN20050406105509704/06/05 10:55:31  5-MIN KMSN 061655Z VRB04KT 10SM SCT080 23/11 A2991 870  45 2000 VRB/04 RMK AO2
14837KMSN MSN20050406110009704/06/05 11:00:31  5-MIN KMSN 061700Z 25003KT 10SM SCT080 23/11 A2991 870  45 2000 250/03 RMK AO2
14837KMSN MSN20050406110509704/06/05 11:05:31  5-MIN KMSN 061705Z VRB05KT 10SM BKN080 23/11 A2991 870  47 2000 VRB/05 RMK AO2
14837KMSN MSN20050406111009704/06/05 11:10:31  5-MIN KMSN 061710Z 00000KT 10SM BKN080 23/11 A2991 870  47 2000 000/00 RMK AO2
14837KMSN MSN20050406111509704/06/05 11:15:31  5-MIN KMSN 061715Z 00000KT 10SM BKN085 23/11 A2991 870  45 2100 000/00 RMK AO2
14837KMSN MSN20050406112010404/06/05 11:20:31  5-MIN KMSN 061720Z 00000KT 10SM FEW080 BKN090 23/11  A2991 870 45 2100 000/00 RMK AO2
14837KMSN MSN20050406112510404/06/05 11:25:31  5-MIN KMSN 061725Z VRB04KT 10SM FEW080 BKN090 23/11  A2991 870 47 2000 VRB/04 RMK AO2
14837KMSN MSN20050406224509604/06/05 22:45:31  5-MIN KMSN 070445Z 02010KT 10SM OVC045 10/06 A2997 820  74 500 020/10 RMK AO2
14837KMSN MSN20050406225011304/06/05 22:50:31  5-MIN KMSN 070450Z 03008KT 10SM OVC045 10/06 A2997 820  74 500 030/08 RMK AO2 SLP148 T01000056
14837KMSN MSN20050406225510304/06/05 22:55:31  5-MIN KMSN 070455Z 02008KT 10SM BKN045 OVC060 10/06  A2998 810 74 400 020/08 RMK AO2
14837KMSN MSN20050406230011004/06/05 23:00:31  5-MIN KMSN 070500Z 03009KT 10SM FEW024 BKN045 BKN055  10/06 A2998 810 74 400 030/09 RMK AO2
14837KMSN MSN20050406230511004/06/05 23:05:31  5-MIN KMSN 070505Z 03008KT 10SM FEW024 BKN045 OVC060  09/06 A2998 810 76 400 030/08 RMK AO2
14837KMSN MSN20050406231011004/06/05 23:10:31  5-MIN KMSN 070510Z 03010KT 10SM SCT024 BKN045 OVC060  09/06 A2998 810 76 400 030/10 RMK AO2
14837KMSN MSN20050406231511004/06/05 23:15:31  5-MIN KMSN 070515Z 03009KT 10SM BKN024 BKN045 OVC060  09/06 A2998 810 76 400 030/09 RMK AO2
14837KMSN MSN20050406232010304/06/05 23:20:31  5-MIN KMSN 070520Z 04010KT 10SM BKN022 OVC045 09/06  A2998 810 76 400 030/10 RMK AO2
14837KMSN MSN20050406232509604/06/05 23:25:31  5-MIN KMSN 070525Z 03011KT 10SM BKN022 09/06 A2997 820  76 400 030/11 RMK AO2
14837KMSN MSN20050406233009604/06/05 23:30:31  5-MIN KMSN 070530Z 03011KT 10SM OVC022 09/06 A2997 820  79 300 030/11 RMK AO2
14837KMSN MSN20050406233509604/06/05 23:35:31  5-MIN KMSN 070535Z 04011KT 10SM OVC022 09/06 A2997 820  79 300 040/11 RMK AO2
14837KMSN MSN20050406234009604/06/05 23:40:31  5-MIN KMSN 070540Z 03011KT 10SM OVC020 09/06 A2997 820  79 300 030/11 RMK AO2
14837KMSN MSN20050406234509604/06/05 23:45:31  5-MIN KMSN 070545Z 03011KT 10SM OVC020 09/06 A2997 820  79 300 030/11 RMK AO2
14837KMSN MSN20050406235014704/06/05 23:50:31  5-MIN KMSN 070550Z 03011KT 10SM OVC020 09/06 A2997 820  79 300 030/11 RMK AO2 SLP147 60098 T00890056 10183 20089 402500089 51022
14837KMSN MSN20050406235509604/06/05 23:55:31  5-MIN KMSN 070555Z 03011KT 10SM OVC020 09/05 A2997 820  76 300 030/11 RMK AO2
14837KMSN MSN20050407000009604/07/05 00:00:31  5-MIN KMSN 070600Z 03010KT 10SM OVC020 08/05 A2997 820  79 200 030/10 RMK AO2
14837KMSN MSN20050407000509404/07/05 00:05:31  5-MIN KMSN 070605Z 03010KT 9SM BKN020 08/05 A2997 820 79 300 030/10 RMK AO2
14837KMSN MSN20050407001009404/07/05 00:10:31  5-MIN KMSN 070610Z 02011KT 9SM BKN020 08/05 A2997 820 79 300 020/11 RMK AO2
14837KMSN MSN20050407001509404/07/05 00:15:31  5-MIN KMSN 070615Z 02010KT 9SM SCT020 08/05 A2997 820 79 200 020/10 RMK AO2
14837KMSN MSN20050407002009404/07/05 00:20:31  5-MIN KMSN 070620Z 02010KT 9SM SCT020 08/05 A2997 820 79 300 020/10 RMK AO2
14837KMSN MSN20050407002510104/07/05 00:25:31  5-MIN KMSN 070625Z 02010KT 9SM FEW020 SCT050 08/05 A2997 810 79 200 020/10 RMK AO2
14837KMSN MSN20050407003010104/07/05 00:30:31  5-MIN KMSN 070630Z 02010KT 9SM SCT020 BKN050 08/05 A2997 810 79 200 020/10 RMK AO2
14837KMSN MSN20050407003510104/07/05 00:35:31  5-MIN KMSN 070635Z 02010KT 9SM BKN020 BKN050 08/05 A2998 810 79 200 020/10 RMK AO2
14837KMSN MSN20050407004010104/07/05 00:40:31  5-MIN KMSN 070640Z 02010KT 9SM BKN020 BKN050 08/05 A2998 810 79 200 020/10 RMK AO2
14837KMSN MSN20050407004510104/07/05 00:45:31  5-MIN KMSN 070645Z 02011KT 9SM BKN018 BKN050 08/05 A2997 810 79 200 020/11 RMK AO2
14837KMSN MSN20050407005011104/07/05 00:50:31  5-MIN KMSN 070650Z 03009KT 9SM OVC018 08/05 A2997 820 79 300 020/09 RMK AO2 SLP148 T00830050
14837KMSN MSN20050407005509404/07/05 00:55:31  5-MIN KMSN 070655Z 03009KT 8SM OVC018 08/05 A2997 810 82 200 030/09 RMK AO2
14837KMSN MSN20050407010009404/07/05 01:00:31  5-MIN KMSN 070700Z 03009KT 8SM OVC018 08/05 A2997 820 82 200 030/09 RMK AO2
14837KMSN MSN20050407010509404/07/05 01:05:31  5-MIN KMSN 070705Z 03010KT 8SM OVC018 08/05 A2997 820 82 200 030/10 RMK AO2
14837KMSN MSN20050407011009404/07/05 01:10:31  5-MIN KMSN 070710Z 03010KT 8SM OVC018 08/05 A2997 820 82 200 030/10 RMK AO2
14837KMSN MSN20050407011509404/07/05 01:15:31  5-MIN KMSN 070715Z 03009KT 8SM OVC016 08/05 A2997 820 82 200 030/09 RMK AO2
14837KMSN MSN20050407012009404/07/05 01:20:31  5-MIN KMSN 070720Z 03010KT 8SM OVC016 08/05 A2997 810 82 200 020/10 RMK AO2
14837KMSN MSN20050407012509404/07/05 01:25:31  5-MIN KMSN 070725Z 03009KT 8SM OVC016 08/05 A2997 820 82 200 030/09 RMK AO2
14837KMSN MSN20050407013009404/07/05 01:30:31  5-MIN KMSN 070730Z 03009KT 8SM OVC016 08/05 A2998 810 82 200 030/09 RMK AO2
14837KMSN MSN20050407013509404/07/05 01:35:31  5-MIN KMSN 070735Z 03008KT 8SM OVC016 08/05 A2998 810 82 200 030/08 RMK AO2
14837KMSN MSN20050407014009404/07/05 01:40:31  5-MIN KMSN 070740Z 02008KT 8SM OVC014 08/05 A2998 810 82 200 020/08 RMK AO2
14837KMSN MSN20050407014509404/07/05 01:45:31  5-MIN KMSN 070745Z 02011KT 8SM OVC014 08/05 A2998 810 82 200 020/11 RMK AO2
14837KMSN MSN20050407015011104/07/05 01:50:31  5-MIN KMSN 070750Z 03011KT 8SM OVC014 08/05 A2998 810 82 200 020/11 RMK AO2 SLP152 T00780050
14837KMSN MSN20050407015509404/07/05 01:55:31  5-MIN KMSN 070755Z 02011KT 7SM OVC014 08/06 A2999 800 86 200 020/11 RMK AO2
14837KMSN MSN20050407020009404/07/05 02:00:31  5-MIN KMSN 070800Z 02011KT 7SM OVC014 08/06 A2999 800 86 200 020/11 RMK AO2
14837KMSN MSN20050407020510004/07/05 02:05:31  5-MIN KMSN 070805Z 02016G21KT 7SM OVC014 08/05 A2999 800 82 200 020/16G21 RMK AO2
14837KMSN MSN20050407021010004/07/05 02:10:31  5-MIN KMSN 070810Z 01018G24KT 7SM OVC014 08/05 A2999 800 82 200 010/18G24 RMK AO2
14837KMSN MSN20050407021509404/07/05 02:15:31  5-MIN KMSN 070815Z 01018KT 7SM OVC014 08/05 A2999 800 82 200 010/18 RMK AO2
14837KMSN MSN20050407022009404/07/05 02:20:31  5-MIN KMSN 070820Z 01015KT 7SM OVC014 08/05 A2999 800 82 200 010/15 RMK AO2
14837KMSN MSN20050407022509404/07/05 02:25:31  5-MIN KMSN 070825Z 02013KT 7SM OVC014 08/05 A2999 800 82 200 020/13 RMK AO2
14837KMSN MSN20050407023009404/07/05 02:30:31  5-MIN KMSN 070830Z 02012KT 7SM OVC014 08/05 A2999 800 82 200 020/12 RMK AO2
14837KMSN MSN20050407023510304/07/05 02:35:31  5-MIN KMSN 070835Z 02013G19KT 6SM BR OVC014 07/05 A2999 800 86 100 020/13G19 RMK AO2
14837KMSN MSN20050407024009704/07/05 02:40:31  5-MIN KMSN 070840Z 02013KT 6SM BR OVC014 07/05 A2999 800 86 100 020/13 RMK AO2
14837KMSN MSN20050407024509404/07/05 02:45:31  5-MIN KMSN 070845Z 01016KT 7SM OVC014 08/05 A2999 800 82 200 010/16 RMK AO2
14837KMSN MSN20050407025012304/07/05 02:50:31  5-MIN KMSN 070850Z 01017G23KT 7SM OVC014 08/05 A2999 800 82 200 010/17G23 RMK AO2 SLP154 T00780050 50017
14837KMSN MSN20050407025510004/07/05 02:55:31  5-MIN KMSN 070855Z 02016G23KT 8SM OVC014 07/04 A2999 800 82 100 020/16G23 RMK AO2
14837KMSN MSN20050407030010004/07/05 03:00:31  5-MIN KMSN 070900Z 02015G21KT 8SM OVC014 07/04 A2999 800 82 100 020/15G21 RMK AO2
14837KMSN MSN20050407030509404/07/05 03:05:31  5-MIN KMSN 070905Z 02016KT 8SM OVC014 07/04 A2999 800 82 100 020/16 RMK AO2
14837KMSN MSN20050407031010004/07/05 03:10:31  5-MIN KMSN 070910Z 02013G20KT 7SM OVC014 07/04 A2999 800 82 100 020/13G20 RMK AO2
14837KMSN MSN20050407031509404/07/05 03:15:31  5-MIN KMSN 070915Z 02013KT 7SM OVC014 07/04 A2999 800 82 100 020/13 RMK AO2
14837KMSN MSN20050407032009404/07/05 03:20:31  5-MIN KMSN 070920Z 02013KT 7SM OVC014 07/04 A2999 800 82 100 020/13 RMK AO2
14837KMSN MSN20050407032509404/07/05 03:25:31  5-MIN KMSN 070925Z 01013KT 7SM OVC014 07/04 A2999 800 82 100 010/13 RMK AO2
14837KMSN MSN20050407033009404/07/05 03:30:31  5-MIN KMSN 070930Z 02013KT 7SM OVC014 07/04 A2999 800 82 100 020/13 RMK AO2
14837KMSN MSN20050407033509404/07/05 03:35:31  5-MIN KMSN 070935Z 02012KT 7SM OVC014 07/04 A2999 800 82 100 020/12 RMK AO2
14837KMSN MSN20050407034009204/07/05 03:40:31  5-MIN KMSN 070940Z 02016KT 7SM OVC014 07/04 A2999 800 86 0 020/16 RMK AO2
14837KMSN MSN20050407034509204/07/05 03:45:31  5-MIN KMSN 070945Z 01016KT 8SM OVC014 07/04 A2999 800 82 0 010/16 RMK AO2
14837KMSN MSN20050407035010904/07/05 03:50:31  5-MIN KMSN 070950Z 01015KT 8SM OVC014 07/04 A2999 800 82 0 010/15 RMK AO2 SLP155 T00670039
14837KMSN MSN20050407035509804/07/05 03:55:31  5-MIN KMSN 070955Z 01015G22KT 8SM OVC014 07/04 A2999 800 82 0 010/15G22 RMK AO2
14837KMSN MSN20050407040009804/07/05 04:00:31  5-MIN KMSN 071000Z 01016G22KT 8SM OVC014 07/04 A2999 800 82 0 010/16G22 RMK AO2
14837KMSN MSN20050407040509204/07/05 04:05:31  5-MIN KMSN 071005Z 02015KT 9SM OVC014 07/04 A2999 800 82 0 020/15 RMK AO2
14837KMSN MSN20050407041009204/07/05 04:10:31  5-MIN KMSN 071010Z 03013KT 9SM OVC014 06/04 A2999 800 86 0 020/13 RMK AO2
14837KMSN MSN20050407041509204/07/05 04:15:31  5-MIN KMSN 071015Z 01014KT 9SM OVC014 06/04 A2999 800 86 0 010/14 RMK AO2
14837KMSN MSN20050407042009204/07/05 04:20:31  5-MIN KMSN 071020Z 01015KT 9SM OVC014 06/03 A3000 790 82 0 010/15 RMK AO2
14837KMSN MSN20050407042509204/07/05 04:25:31  5-MIN KMSN 071025Z 01016KT 9SM OVC014 06/03 A3000 790 82 0 360/16 RMK AO2
14837KMSN MSN20050407043009204/07/05 04:30:31  5-MIN KMSN 071030Z 01017KT 9SM OVC014 06/03 A3000 790 82 0 010/17 RMK AO2
14837KMSN MSN20050407043509404/07/05 04:35:31  5-MIN KMSN 071035Z 01017KT 10SM OVC014 06/03 A3000 790  82 0 010/17 RMK AO2
14837KMSN MSN20050407044009404/07/05 04:40:31  5-MIN KMSN 071040Z 01014KT 10SM OVC014 06/03 A3000 790  82 0 010/14 RMK AO2
14837KMSN MSN20050407044510004/07/05 04:45:31  5-MIN KMSN 071045Z 01017G22KT 10SM OVC014 06/03 A3000  790 82 0 010/17G22 RMK AO2
14837KMSN MSN20050407045011704/07/05 04:50:31  5-MIN KMSN 071050Z 02018G24KT 10SM OVC014 06/03 A3001  780 82 0 020/18G24 RMK AO2 SLP162 T00610033
14837KMSN MSN20050407045509404/07/05 04:55:31  5-MIN KMSN 071055Z 02016KT 10SM OVC014 06/03 A3001 780  82 0 020/16 RMK AO2
14837KMSN MSN20050407050009404/07/05 05:00:31  5-MIN KMSN 071100Z 01017KT 10SM OVC014 06/03 A3001 780  82 0 010/17 RMK AO2
14837KMSN MSN20050407050510004/07/05 05:05:31  5-MIN KMSN 071105Z 01014G22KT 10SM OVC014 06/03 A3001  780 82 0 010/14G22 RMK AO2
14837KMSN MSN20050407051009204/07/05 05:10:31  5-MIN KMSN 071110Z 01015KT 9SM OVC014 06/03 A3001 780 82 0 010/15 RMK AO2
14837KMSN MSN20050407051509404/07/05 05:15:31  5-MIN KMSN 071115Z 36016KT 10SM OVC014 06/03 A3002 780  82 0 360/16 RMK AO2
14837KMSN MSN20050407052010004/07/05 05:20:31  5-MIN KMSN 071120Z 01018G24KT 10SM OVC014 06/03 A3002  770 82 0 010/18G24 RMK AO2
14837KMSN MSN20050407052510004/07/05 05:25:31  5-MIN KMSN 071125Z 36019G24KT 10SM OVC014 06/03 A3002  770 82 0 360/19G24 RMK AO2
14837KMSN MSN20050407053010004/07/05 05:30:31  5-MIN KMSN 071130Z 01018G23KT 10SM OVC014 06/03 A3002  770 82 0 010/18G23 RMK AO2
14837KMSN MSN20050407053510004/07/05 05:35:31  5-MIN KMSN 071135Z 02019G25KT 10SM OVC014 06/03 A3002  770 82 0 020/19G25 RMK AO2
14837KMSN MSN20050407054010004/07/05 05:40:31  5-MIN KMSN 071140Z 01017G25KT 10SM OVC014 06/03 A3003  770 82 0 010/17G25 RMK AO2
14837KMSN MSN20050407054510004/07/05 05:45:31  5-MIN KMSN 071145Z 36017G25KT 10SM OVC014 06/03 A3003  770 82 0 360/17G25 RMK AO2
14837KMSN MSN20050407055013504/07/05 05:50:31  5-MIN KMSN 071150Z 01018KT 10SM OVC014 06/03 A3003 760  82 0 010/18 RMK AO2 SLP171 70098 T00610033 10089 20061 52006
14837KMSN MSN20050407055509404/07/05 05:55:31  5-MIN KMSN 071155Z 01017KT 10SM OVC014 06/03 A3003 760  82 0 010/17 RMK AO2
14837KMSN MSN20050407060009404/07/05 06:00:31  5-MIN KMSN 071200Z 01018KT 10SM OVC014 06/03 A3003 760  82 0 360/18 RMK AO2
14837KMSN MSN20050407060510204/07/05 06:05:31  5-MIN KMSN 071205Z 01019G23KT 10SM OVC014 06/03 A3003  760 82 0 010/19G23 RMK AO2 $
14837KMSN MSN20050407061010204/07/05 06:10:31  5-MIN KMSN 071210Z 02016G23KT 10SM OVC014 06/03 A3004  760 82 0 020/16G23 RMK AO2 $
14837KMSN MSN20050407061510204/07/05 06:15:31  5-MIN KMSN 071215Z 01017G22KT 10SM OVC014 06/03 A3004  750 82 0 010/17G22 RMK AO2 $
14837KMSN MSN20050407062009604/07/05 06:20:31  5-MIN KMSN 071220Z 02018KT 10SM OVC014 06/03 A3004 750  82 0 020/18 RMK AO2 $
14837KMSN MSN20050407062509604/07/05 06:25:31  5-MIN KMSN 071225Z 01017KT 10SM OVC014 06/03 A3004 750  82 0 010/17 RMK AO2 $
14837KMSN MSN20050407063009604/07/05 06:30:31  5-MIN KMSN 071230Z 01016KT 10SM OVC016 06/03 A3004 750  82 0 010/16 RMK AO2 $
14837KMSN MSN20050407063509904/07/05 06:35:31  5-MIN KMSN 071235Z 02015KT 10SM OVC016 06/03 A3004 750  82 -100 020/15 RMK AO2 $
14837KMSN MSN20050407064009904/07/05 06:40:31  5-MIN KMSN 071240Z 01013KT 10SM OVC016 06/03 A3004 750  82 -100 010/13 RMK AO2 $
14837KMSN MSN20050407064509604/07/05 06:45:31  5-MIN KMSN 071245Z 01013KT 10SM OVC016 07/03 A3004 750  79 0 010/13 RMK AO2 $
14837KMSN MSN20050407065011104/07/05 06:50:31  5-MIN KMSN 071250Z 01011KT 10SM OVC016 07/03 A3004 750  79 0 010/11 RMK AO2 SLP176 T00670033
14837KMSN MSN20050407065509404/07/05 06:55:31  5-MIN KMSN 071255Z 01009KT 10SM OVC016 07/03 A3004 750  79 0 010/09 RMK AO2
14837KMSN MSN20050407070009404/07/05 07:00:31  5-MIN KMSN 071300Z 01012KT 10SM OVC018 07/03 A3004 750  79 0 010/12 RMK AO2
14837KMSN MSN20050407070509404/07/05 07:05:31  5-MIN KMSN 071305Z 02010KT 10SM OVC018 07/04 A3004 750  82 0 020/10 RMK AO2
14837KMSN MSN20050407071009404/07/05 07:10:31  5-MIN KMSN 071310Z 01012KT 10SM OVC018 07/04 A3004 750  82 0 010/12 RMK AO2
14837KMSN MSN20050407071509404/07/05 07:15:31  5-MIN KMSN 071315Z 01013KT 10SM OVC018 07/04 A3004 750  79 0 010/13 RMK AO2
14837KMSN MSN20050407072009404/07/05 07:20:31  5-MIN KMSN 071320Z 01011KT 10SM OVC018 07/04 A3004 750  79 0 010/11 RMK AO2
14837KMSN MSN20050407072509404/07/05 07:25:31  5-MIN KMSN 071325Z 01014KT 10SM OVC018 07/04 A3004 750  79 0 010/14 RMK AO2
14837KMSN MSN20050407073009404/07/05 07:30:31  5-MIN KMSN 071330Z 02015KT 10SM OVC018 07/04 A3004 750  79 0 020/15 RMK AO2
14837KMSN MSN20050407073509404/07/05 07:35:31  5-MIN KMSN 071335Z 03014KT 10SM OVC018 07/04 A3004 750  79 0 020/14 RMK AO2
14837KMSN MSN20050407074009604/07/05 07:40:31  5-MIN KMSN 071340Z 02016KT 10SM OVC018 08/04 A3005 750  76 100 020/16 RMK AO2
14837KMSN MSN20050407074510204/07/05 07:45:31  5-MIN KMSN 071345Z 02016G20KT 10SM OVC018 08/04 A3005  750 76 100 020/16G20 RMK AO2
14837KMSN MSN20050407075011904/07/05 07:50:31  5-MIN KMSN 071350Z 03017G22KT 10SM OVC018 08/04 A3005  750 76 100 030/17G22 RMK AO2 SLP177 T00780039
14837KMSN MSN20050407075510204/07/05 07:55:31  5-MIN KMSN 071355Z 02017G22KT 10SM OVC018 08/04 A3005  740 76 100 020/17G22 RMK AO2
14837KMSN MSN20050407080010204/07/05 08:00:31  5-MIN KMSN 071400Z 01019G23KT 10SM OVC018 08/04 A3005  740 76 100 010/19G23 RMK AO2
14837KMSN MSN20050407080509604/07/05 08:05:31  5-MIN KMSN 071405Z 03017KT 10SM OVC018 08/04 A3005 740  73 200 030/17 RMK AO2
14837KMSN MSN20050407081009604/07/05 08:10:31  5-MIN KMSN 071410Z 02017KT 10SM OVC020 08/04 A3005 740  76 100 020/17 RMK AO2
14837KMSN MSN20050407081510204/07/05 08:15:31  5-MIN KMSN 071415Z 02020G24KT 10SM BKN020 08/03 A3006  740 73 100 020/20G24 RMK AO2
14837KMSN MSN20050407082010204/07/05 08:20:31  5-MIN KMSN 071420Z 03018G24KT 10SM BKN020 08/03 A3006  740 73 100 030/18G24 RMK AO2
14837KMSN MSN20050407082509604/07/05 08:25:31  5-MIN KMSN 071425Z 03015KT 10SM SCT020 09/04 A3006 740  73 200 030/15 RMK AO2
14837KMSN MSN20050407083009604/07/05 08:30:31  5-MIN KMSN 071430Z 03015KT 10SM BKN020 09/04 A3006 740  73 200 030/15 RMK AO2
14837KMSN MSN20050407083509604/07/05 08:35:31  5-MIN KMSN 071435Z 01015KT 10SM BKN020 09/05 A3006 740  74 300 010/15 RMK AO2
14837KMSN MSN20050407084009604/07/05 08:40:31  5-MIN KMSN 071440Z 01019KT 10SM BKN020 09/05 A3006 730  74 300 010/19 RMK AO2
14837KMSN MSN20050407084509604/07/05 08:45:31  5-MIN KMSN 071445Z 02014KT 10SM BKN020 09/04 A3006 740  71 200 020/14 RMK AO2
14837KMSN MSN20050407085011904/07/05 08:50:31  5-MIN KMSN 071450Z 02015KT 10SM FEW020 09/04 A3006 740  73 200 020/15 RMK AO2 SLP181 T00890044 53014
14837KMSN MSN20050407085509604/07/05 08:55:31  5-MIN KMSN 071455Z 01012KT 10SM SCT020 09/04 A3006 740  71 300 010/12 RMK AO2
14837KMSN MSN20050407090009604/07/05 09:00:31  5-MIN KMSN 071500Z 01015KT 10SM SCT020 10/04 A3006 740  68 400 010/15 RMK AO2
14837KMSN MSN20050407090509604/07/05 09:05:31  5-MIN KMSN 071505Z 01012KT 10SM SCT020 10/05 A3006 740  71 400 010/12 RMK AO2
14837KMSN MSN20050407091009604/07/05 09:10:31  5-MIN KMSN 071510Z 36012KT 10SM SCT020 10/05 A3006 740  71 400 360/12 RMK AO2
14837KMSN MSN20050407091510204/07/05 09:15:31  5-MIN KMSN 071515Z 02016G21KT 10SM SCT020 11/05 A3006  730 68 400 020/16G21 RMK AO2
14837KMSN MSN20050407092010204/07/05 09:20:31  5-MIN KMSN 071520Z 03013G21KT 10SM SCT020 11/04 A3006  740 66 400 030/13G21 RMK AO2
14837KMSN MSN20050407092509604/07/05 09:25:31  5-MIN KMSN 071525Z 02018KT 10SM FEW022 11/05 A3006 740  66 500 020/18 RMK AO2
14837KMSN MSN20050407093009604/07/05 09:30:31  5-MIN KMSN 071530Z 03019KT 10SM FEW022 11/04 A3006 740  63 500 030/19 RMK AO2
14837KMSN MSN20050407093509604/07/05 09:35:31  5-MIN KMSN 071535Z 02017KT 10SM FEW022 11/04 A3006 730  66 400 020/17 RMK AO2
14837KMSN MSN20050407094009604/07/05 09:40:31  5-MIN KMSN 071540Z 02017KT 10SM FEW022 11/05 A3006 730  66 500 020/17 RMK AO2
14837KMSN MSN20050407094509604/07/05 09:45:31  5-MIN KMSN 071545Z 03015KT 10SM FEW022 12/05 A3006 730  63 500 030/15 RMK AO2
14837KMSN MSN20050407095011904/07/05 09:50:31  5-MIN KMSN 071550Z 01020G25KT 10SM FEW025 12/05 A3006  730 63 600 010/20G25 RMK AO2 SLP181 T01170050
14837KMSN MSN20050407095510204/07/05 09:55:31  5-MIN KMSN 071555Z 02016G25KT 10SM FEW025 12/04 A3006  730 61 500 020/16G25 RMK AO2
14837KMSN MSN20050407100009604/07/05 10:00:31  5-MIN KMSN 071600Z 04016KT 10SM FEW025 12/05 A3006 730  63 500 040/16 RMK AO2
14837KMSN MSN20050407100509604/07/05 10:05:31  5-MIN KMSN 071605Z 03015KT 10SM FEW025 12/05 A3006 730  63 500 020/15 RMK AO2
14837KMSN MSN20050407101009604/07/05 10:10:31  5-MIN KMSN 071610Z 03015KT 10SM FEW025 12/05 A3006 730  63 500 030/15 RMK AO2
14837KMSN MSN20050407101510204/07/05 10:15:31  5-MIN KMSN 071615Z 01018G24KT 10SM FEW025 12/05 A3006  730 61 600 010/18G24 RMK AO2
14837KMSN MSN20050407102010204/07/05 10:20:31  5-MIN KMSN 071620Z 02017G24KT 10SM FEW025 12/05 A3006  740 61 600 020/17G24 RMK AO2
14837KMSN MSN20050407102510204/07/05 10:25:31  5-MIN KMSN 071625Z 01018G23KT 10SM FEW025 12/04 A3006  740 59 600 010/18G23 RMK AO2
14837KMSN MSN20050407103010204/07/05 10:30:31  5-MIN KMSN 071630Z 03017G23KT 10SM FEW025 12/04 A3006  740 59 600 030/17G23 RMK AO2
14837KMSN MSN20050407103509604/07/05 10:35:31  5-MIN KMSN 071635Z 03017KT 10SM FEW025 12/05 A3006 740  61 600 030/17 RMK AO2
14837KMSN MSN20050407104009604/07/05 10:40:31  5-MIN KMSN 071640Z 02014KT 10SM FEW025 13/05 A3006 740  59 700 020/14 RMK AO2
14837KMSN MSN20050407104510204/07/05 10:45:31  5-MIN KMSN 071645Z 03014G21KT 10SM FEW025 13/05 A3006  740 59 700 030/14G21 RMK AO2
14837KMSN MSN20050407105011904/07/05 10:50:31  5-MIN KMSN 071650Z 02017G22KT 10SM FEW025 13/05 A3005  740 59 700 020/17G22 RMK AO2 SLP179 T01280050
14837KMSN MSN20050407105510204/07/05 10:55:31  5-MIN KMSN 071655Z 03018G22KT 10SM FEW030 13/04 A3005  740 56 700 030/18G22 RMK AO2
14837KMSN MSN20050407110009604/07/05 11:00:31  5-MIN KMSN 071700Z 02015KT 10SM FEW030 13/06 A3005 750  59 800 020/15 RMK AO2
14837KMSN MSN20050407110509604/07/05 11:05:31  5-MIN KMSN 071705Z 04016KT 10SM FEW030 13/05 A3004 750  57 800 040/16 RMK AO2
14837KMSN MSN20050407111009604/07/05 11:10:31  5-MIN KMSN 071710Z 03014KT 10SM FEW030 14/06 A3004 750  57 800 030/14 RMK AO2
14837KMSN MSN20050407111509604/07/05 11:15:31  5-MIN KMSN 071715Z 02015KT 10SM FEW030 14/05 A3004 750  55 800 020/15 RMK AO2
14837KMSN MSN20050407112009604/07/05 11:20:31  5-MIN KMSN 071720Z 04017KT 10SM FEW030 14/05 A3004 750  55 800 040/17 RMK AO2
14837KMSN MSN20050407112510204/07/05 11:25:31  5-MIN KMSN 071725Z 03013G20KT 10SM FEW030 14/05 A3004  760 55 800 030/13G20 RMK AO2
14837KMSN MSN20050407113010204/07/05 11:30:31  5-MIN KMSN 071730Z 03015G20KT 10SM FEW030 14/05 A3003  760 55 800 030/15G20 RMK AO2
14837KMSN MSN20050407113509604/07/05 11:35:31  5-MIN KMSN 071735Z 03014KT 10SM FEW030 14/05 A3003 760  53 900 030/14 RMK AO2
14837KMSN MSN20050407114009604/07/05 11:40:31  5-MIN KMSN 071740Z 02015KT 10SM FEW030 14/06 A3003 760  55 900 020/15 RMK AO2
14837KMSN MSN20050407114510204/07/05 11:45:31  5-MIN KMSN 071745Z 03014G17KT 10SM FEW030 14/05 A3003  760 53 900 030/14G17 RMK AO2
14837KMSN MSN20050407115013404/07/05 11:50:31  5-MIN KMSN 071750Z 03017G21KT 10SM CLR 14/05 A3003 760  53 900 020/17G21 RMK AO2 SLP171 T01440050 10144 20061 52009
14837KMSN MSN20050407115509904/07/05 11:55:31  5-MIN KMSN 071755Z 03016G21KT 10SM CLR 14/04 A3003 760  51 900 030/16G21 RMK AO2
14837KMSN MSN20050407120009904/07/05 12:00:31  5-MIN KMSN 071800Z 03018G21KT 10SM CLR 14/04 A3003 760  51 900 020/18G21 RMK AO2
14837KMSN MSN20050407120509904/07/05 12:05:31  5-MIN KMSN 071805Z 03017G21KT 10SM CLR 14/04 A3003 760  51 900 030/17G21 RMK AO2
14837KMSN MSN20050407121009304/07/05 12:10:31  5-MIN KMSN 071810Z 02017KT 10SM CLR 14/04 A3003 760 51  900 020/17 RMK AO2
14837KMSN MSN20050407121510004/07/05 12:15:31  5-MIN KMSN 071815Z 03012G22KT 10SM CLR 15/05 A3003 760  51 1000 030/12G22 RMK AO2
14837KMSN MSN20050407122009404/07/05 12:20:31  5-MIN KMSN 071820Z 04013KT 10SM CLR 15/05 A3003 760 51  1000 040/13 RMK AO2
14837KMSN MSN20050407122509404/07/05 12:25:31  5-MIN KMSN 071825Z 04014KT 10SM CLR 16/05 A3003 760 49  1000 040/14 RMK AO2
14837KMSN MSN20050407123009404/07/05 12:30:31  5-MIN KMSN 071830Z 02013KT 10SM CLR 15/04 A3003 760 47  1000 010/13 RMK AO2
14837KMSN MSN20050407123509404/07/05 12:35:31  5-MIN KMSN 071835Z 04015KT 10SM CLR 15/04 A3003 760 49  1000 030/15 RMK AO2
14837KMSN MSN20050407124009404/07/05 12:40:31  5-MIN KMSN 071840Z 04012KT 10SM CLR 15/04 A3003 760 49  1000 040/12 RMK AO2
14837KMSN MSN20050407124510004/07/05 12:45:31  5-MIN KMSN 071845Z 01014G21KT 10SM CLR 16/04 A3003 760  47 1000 010/14G21 RMK AO2
14837KMSN MSN20050407125012004/07/05 12:50:31  5-MIN KMSN 071850Z 02012G21KT 10SM FEW045 15/04 A3003  760 49 1000 020/12G21 RMK AO2 SLP171 T01500044
14837KMSN MSN20050407125510004/07/05 12:55:31  5-MIN KMSN 071855Z 02013G21KT 10SM CLR 16/04 A3003 760  47 1000 020/13G21 RMK AO2
14837KMSN MSN20050407130010004/07/05 13:00:31  5-MIN KMSN 071900Z 02015G20KT 10SM CLR 16/04 A3003 760  47 1000 020/15G20 RMK AO2
14837KMSN MSN20050407130510004/07/05 13:05:31  5-MIN KMSN 071905Z 01014G20KT 10SM CLR 16/04 A3003 760  47 1000 010/14G20 RMK AO2
14837KMSN MSN20050407131010004/07/05 13:10:31  5-MIN KMSN 071910Z 03012G20KT 10SM CLR 16/04 A3003 760  47 1000 030/12G20 RMK AO2
14837KMSN MSN20050407131510004/07/05 13:15:31  5-MIN KMSN 071915Z 01015G18KT 10SM CLR 16/04 A3003 760  47 1000 010/15G18 RMK AO2
14837KMSN MSN20050407132010004/07/05 13:20:31  5-MIN KMSN 071920Z 04012G18KT 10SM CLR 16/04 A3003 760  45 1100 030/12G18 RMK AO2
14837KMSN MSN20050407132509404/07/05 13:25:31  5-MIN KMSN 071925Z 02017KT 10SM CLR 16/04 A3003 770 45  1100 020/17 RMK AO2
14837KMSN MSN20050407133010004/07/05 13:30:31  5-MIN KMSN 071930Z 02011G18KT 10SM CLR 16/04 A3003 770  47 1100 020/11G18 RMK AO2
14837KMSN MSN20050407133509404/07/05 13:35:31  5-MIN KMSN 071935Z 02011KT 10SM CLR 16/05 A3003 770 47  1100 020/11 RMK AO2
14837KMSN MSN20050407134010004/07/05 13:40:31  5-MIN KMSN 071940Z 04015G19KT 10SM CLR 16/04 A3002 770  45 1100 040/15G19 RMK AO2
14837KMSN MSN20050407134510004/07/05 13:45:31  5-MIN KMSN 071945Z 04013G19KT 10SM CLR 16/04 A3002 770  47 1100 040/13G19 RMK AO2
14837KMSN MSN20050407135011104/07/05 13:50:31  5-MIN KMSN 071950Z 03015KT 10SM CLR 16/04 A3002 770 45  1100 030/15 RMK AO2 SLP167 T01610044
14837KMSN MSN20050407135510304/07/05 13:55:31  5-MIN KMSN 071955Z 03009G16KT 10SM FEW050 16/05 A3002  770 47 1100 030/09G16 RMK AO2
14837KMSN MSN20050407140010304/07/05 14:00:31  5-MIN KMSN 072000Z 03015G19KT 10SM FEW050 17/05 A3002  780 45 1200 030/15G19 RMK AO2
14837KMSN MSN20050407140510304/07/05 14:05:31  5-MIN KMSN 072005Z 02011G19KT 10SM FEW050 16/04 A3001  780 44 1100 020/11G19 RMK AO2
14837KMSN MSN20050407141009704/07/05 14:10:31  5-MIN KMSN 072010Z 04012KT 10SM FEW050 16/05 A3001 780  47 1100 040/12 RMK AO2
14837KMSN MSN20050407141511304/07/05 14:15:31  5-MIN KMSN 072015Z 05010KT 360V070 10SM FEW050 16/04  A3001 780 45 1100 050/10 360V070 RMK AO2
14837KMSN MSN20050407142009704/07/05 14:20:31  5-MIN KMSN 072020Z 04012KT 10SM FEW050 16/04 A3001 780  45 1100 040/12 RMK AO2
14837KMSN MSN20050407142510004/07/05 14:25:31  5-MIN KMSN 072025Z 04012G19KT 10SM CLR 16/04 A3001 780  44 1100 040/12G19 RMK AO2
14837KMSN MSN20050407143009404/07/05 14:30:31  5-MIN KMSN 072030Z 05010KT 10SM CLR 16/04 A3001 780 45  1100 050/10 RMK AO2
14837KMSN MSN20050407143509404/07/05 14:35:31  5-MIN KMSN 072035Z 04011KT 10SM CLR 17/05 A3001 780 45  1200 040/11 RMK AO2
14837KMSN MSN20050407144010004/07/05 14:40:31  5-MIN KMSN 072040Z 03016G19KT 10SM CLR 17/04 A3001 790  44 1200 030/16G19 RMK AO2
14837KMSN MSN20050407144510004/07/05 14:45:31  5-MIN KMSN 072045Z 04011G19KT 10SM CLR 17/04 A3000 790  44 1200 030/11G19 RMK AO2
14837KMSN MSN20050407145012304/07/05 14:50:31  5-MIN KMSN 072050Z 01011G17KT 10SM CLR 17/04 A3000 790  42 1200 010/11G17 RMK AO2 SLP162 T01670039 58010
14837KMSN MSN20050407145509404/07/05 14:55:31  5-MIN KMSN 072055Z 04010KT 10SM CLR 17/04 A3000 790 44  1200 040/10 RMK AO2
14837KMSN MSN20050407150009404/07/05 15:00:31  5-MIN KMSN 072100Z 04011KT 10SM CLR 17/04 A3000 790 44  1200 030/11 RMK AO2
14837KMSN MSN20050407150509404/07/05 15:05:31  5-MIN KMSN 072105Z 01009KT 10SM CLR 17/04 A3000 790 44  1200 010/09 RMK AO2
14837KMSN MSN20050407151009404/07/05 15:10:31  5-MIN KMSN 072110Z 01012KT 10SM CLR 17/03 A3000 790 39  1300 010/12 RMK AO2
14837KMSN MSN20050407151509404/07/05 15:15:31  5-MIN KMSN 072115Z 04014KT 10SM CLR 17/04 A3000 790 44  1200 040/14 RMK AO2
14837KMSN MSN20050407152009404/07/05 15:20:31  5-MIN KMSN 072120Z 05010KT 10SM CLR 17/04 A3000 790 44  1200 050/10 RMK AO2
14837KMSN MSN20050407152509404/07/05 15:25:31  5-MIN KMSN 072125Z 05009KT 10SM CLR 17/04 A3000 790 44  1200 050/09 RMK AO2
14837KMSN MSN20050407153009404/07/05 15:30:31  5-MIN KMSN 072130Z 05010KT 10SM CLR 17/04 A3000 790 44  1200 040/10 RMK AO2
14837KMSN MSN20050407153509404/07/05 15:35:31  5-MIN KMSN 072135Z 04012KT 10SM CLR 17/04 A3000 790 44  1200 040/12 RMK AO2
14837KMSN MSN20050407154010004/07/05 15:40:31  5-MIN KMSN 072140Z 05013G16KT 10SM CLR 17/04 A3000 790  44 1200 050/13G16 RMK AO2
14837KMSN MSN20050407154510004/07/05 15:45:31  5-MIN KMSN 072145Z 05010G16KT 10SM CLR 17/04 A3000 790  44 1200 050/10G16 RMK AO2
14837KMSN MSN20050407155011104/07/05 15:50:31  5-MIN KMSN 072150Z 02010KT 10SM CLR 17/04 A3000 790 42  1200 020/10 RMK AO2 SLP160 T01670039
14837KMSN MSN20050407155509404/07/05 15:55:31  5-MIN KMSN 072155Z 04011KT 10SM CLR 17/04 A3000 790 42  1200 040/11 RMK AO2
14837KMSN MSN20050407160009404/07/05 16:00:31  5-MIN KMSN 072200Z 03008KT 10SM CLR 17/04 A3000 790 42  1300 030/08 RMK AO2
14837KMSN MSN20050407160509404/07/05 16:05:31  5-MIN KMSN 072205Z 05012KT 10SM CLR 17/04 A3000 790 44  1200 050/12 RMK AO2
14837KMSN MSN20050407161009404/07/05 16:10:31  5-MIN KMSN 072210Z 04011KT 10SM CLR 17/04 A3000 790 42  1200 040/11 RMK AO2
14837KMSN MSN20050407161509404/07/05 16:15:31  5-MIN KMSN 072215Z 05006KT 10SM CLR 17/03 A3000 790 40  1200 050/06 RMK AO2
14837KMSN MSN20050407162009404/07/05 16:20:31  5-MIN KMSN 072220Z 05010KT 10SM CLR 17/04 A3000 790 42  1200 040/10 RMK AO2
14837KMSN MSN20050407162509404/07/05 16:25:31  5-MIN KMSN 072225Z 03008KT 10SM CLR 16/04 A3000 790 44  1100 030/08 RMK AO2
14837KMSN MSN20050407163009404/07/05 16:30:31  5-MIN KMSN 072230Z 06009KT 10SM CLR 17/04 A3000 790 42  1200 050/09 RMK AO2
14837KMSN MSN20050407163509404/07/05 16:35:31  5-MIN KMSN 072235Z 04009KT 10SM CLR 17/04 A3000 790 42  1200 040/09 RMK AO2
14837KMSN MSN20050407164009404/07/05 16:40:31  5-MIN KMSN 072240Z 04009KT 10SM CLR 17/03 A3000 790 40  1200 040/09 RMK AO2
14837KMSN MSN20050407164509404/07/05 16:45:31  5-MIN KMSN 072245Z 05009KT 10SM CLR 16/03 A3000 790 42  1100 050/09 RMK AO2
14837KMSN MSN20050407165011104/07/05 16:50:31  5-MIN KMSN 072250Z 05009KT 10SM CLR 16/03 A3000 790 42  1100 050/09 RMK AO2 SLP162 T01610033
14837KMSN MSN20050407165509404/07/05 16:55:31  5-MIN KMSN 072255Z 06012KT 10SM CLR 16/03 A3000 790 42  1100 060/12 RMK AO2
14837KMSN MSN20050407170009404/07/05 17:00:31  5-MIN KMSN 072300Z 04010KT 10SM CLR 16/03 A3000 790 42  1100 040/10 RMK AO2
14837KMSN MSN20050407170509404/07/05 17:05:31  5-MIN KMSN 072305Z 04010KT 10SM CLR 16/03 A3000 790 42  1100 040/10 RMK AO2
14837KMSN MSN20050407171009404/07/05 17:10:31  5-MIN KMSN 072310Z 04008KT 10SM CLR 16/03 A3000 790 42  1100 040/08 RMK AO2
14837KMSN MSN20050407171509404/07/05 17:15:31  5-MIN KMSN 072315Z 07010KT 10SM CLR 16/03 A3000 790 42  1100 070/10 RMK AO2
14837KMSN MSN20050407172009404/07/05 17:20:31  5-MIN KMSN 072320Z 07010KT 10SM CLR 16/03 A3000 790 43  1100 060/10 RMK AO2
14837KMSN MSN20050407172509404/07/05 17:25:31  5-MIN KMSN 072325Z 05008KT 10SM CLR 16/03 A3000 790 43  1100 050/08 RMK AO2
14837KMSN MSN20050407173009404/07/05 17:30:31  5-MIN KMSN 072330Z 05010KT 10SM CLR 16/04 A3000 790 45  1100 050/10 RMK AO2
14837KMSN MSN20050407173509404/07/05 17:35:31  5-MIN KMSN 072335Z 07010KT 10SM CLR 16/03 A3000 790 43  1100 060/10 RMK AO2
14837KMSN MSN20050407174009404/07/05 17:40:31  5-MIN KMSN 072340Z 06009KT 10SM CLR 15/03 A3000 790 45  1000 060/09 RMK AO2
14837KMSN MSN20050407174509404/07/05 17:45:31  5-MIN KMSN 072345Z 07008KT 10SM CLR 15/04 A3000 790 47  1000 070/08 RMK AO2
14837KMSN MSN20050407175012804/07/05 17:50:31  5-MIN KMSN 072350Z 07007KT 10SM CLR 14/04 A3000 790 49  900 070/07 RMK AO2 SLP162 T01440039 10172 20144 58009
14837KMSN MSN20050407175509304/07/05 17:55:31  5-MIN KMSN 072355Z 07007KT 10SM CLR 14/04 A3000 790 49  900 070/07 RMK AO2
14837KMSN MSN20050407180009304/07/05 18:00:31  5-MIN KMSN 080000Z 07007KT 10SM CLR 14/04 A3000 790 50  900 070/07 RMK AO2
14837KMSN MSN20050407180509304/07/05 18:05:31  5-MIN KMSN 080005Z 07008KT 10SM CLR 14/04 A3000 790 50  900 070/08 RMK AO2
14837KMSN MSN20050407181009304/07/05 18:10:31  5-MIN KMSN 080010Z 08008KT 10SM CLR 14/04 A3000 790 50  900 080/08 RMK AO2
14837KMSN MSN20050407181509304/07/05 18:15:31  5-MIN KMSN 080015Z 08008KT 10SM CLR 14/04 A3000 790 50  900 080/08 RMK AO2
14837KMSN MSN20050407182009304/07/05 18:20:31  5-MIN KMSN 080020Z 08008KT 10SM CLR 14/04 A3000 790 50  900 080/08 RMK AO2
14837KMSN MSN20050407182509304/07/05 18:25:31  5-MIN KMSN 080025Z 08008KT 10SM CLR 13/04 A3000 790 52  800 080/08 RMK AO2
14837KMSN MSN20050407183009304/07/05 18:30:31  5-MIN KMSN 080030Z 08007KT 10SM CLR 13/03 A3000 790 50  800 080/07 RMK AO2
14837KMSN MSN20050407183509304/07/05 18:35:31  5-MIN KMSN 080035Z 10006KT 10SM CLR 12/04 A3000 790 56  700 090/06 RMK AO2
14837KMSN MSN20050407184009304/07/05 18:40:31  5-MIN KMSN 080040Z 09007KT 10SM CLR 12/03 A3000 790 54  700 090/07 RMK AO2
14837KMSN MSN20050407184509304/07/05 18:45:31  5-MIN KMSN 080045Z 09006KT 10SM CLR 12/03 A3000 790 54  700 090/06 RMK AO2
14837KMSN MSN20050407185011004/07/05 18:50:31  5-MIN KMSN 080050Z 09006KT 10SM CLR 12/03 A3001 790 56  600 090/06 RMK AO2 SLP164 T01170033
14837KMSN MSN20050407185509304/07/05 18:55:31  5-MIN KMSN 080055Z 09007KT 10SM CLR 12/03 A3001 780 56  600 090/07 RMK AO2
14837KMSN MSN20050407190009304/07/05 19:00:31  5-MIN KMSN 080100Z 09006KT 10SM CLR 12/03 A3001 780 54  600 090/06 RMK AO2
14837KMSN MSN20050407190509304/07/05 19:05:31  5-MIN KMSN 080105Z 09005KT 10SM CLR 12/03 A3001 780 54  600 090/05 RMK AO2
14837KMSN MSN20050407191009304/07/05 19:10:31  5-MIN KMSN 080110Z 09004KT 10SM CLR 12/03 A3001 780 54  600 090/04 RMK AO2
14837KMSN MSN20050407191509304/07/05 19:15:31  5-MIN KMSN 080115Z 09003KT 10SM CLR 11/03 A3001 780 56  500 080/03 RMK AO2
14837KMSN MSN20050407192009304/07/05 19:20:31  5-MIN KMSN 080120Z 00000KT 10SM CLR 11/03 A3002 780 56  500 000/00 RMK AO2
14837KMSN MSN20050407192509304/07/05 19:25:31  5-MIN KMSN 080125Z 00000KT 10SM CLR 11/03 A3002 770 61  500 000/00 RMK AO2
14837KMSN MSN20050407193009304/07/05 19:30:31  5-MIN KMSN 080130Z 00000KT 10SM CLR 11/04 A3002 770 63  500 000/00 RMK AO2
14837KMSN MSN20050407193509304/07/05 19:35:31  5-MIN KMSN 080135Z 00000KT 10SM CLR 11/03 A3002 770 58  500 000/00 RMK AO2
14837KMSN MSN20050407194009304/07/05 19:40:31  5-MIN KMSN 080140Z 00000KT 10SM CLR 11/03 A3002 770 61  500 000/00 RMK AO2
14837KMSN MSN20050407194509304/07/05 19:45:31  5-MIN KMSN 080145Z 00000KT 10SM CLR 11/04 A3002 770 63  500 000/00 RMK AO2
14837KMSN MSN20050407195011004/07/05 19:50:31  5-MIN KMSN 080150Z 00000KT 10SM CLR 11/05 A3002 770 68  500 000/00 RMK AO2 SLP169 T01060050
14837KMSN MSN20050407195509304/07/05 19:55:31  5-MIN KMSN 080155Z 00000KT 10SM CLR 11/04 A3002 770 63  500 000/00 RMK AO2
14837KMSN MSN20050407200009304/07/05 20:00:31  5-MIN KMSN 080200Z 00000KT 10SM CLR 11/04 A3002 770 63  500 000/00 RMK AO2
14837KMSN MSN20050407200509304/07/05 20:05:31  5-MIN KMSN 080205Z 00000KT 10SM CLR 11/04 A3002 770 63  500 000/00 RMK AO2
14837KMSN MSN20050407201009304/07/05 20:10:31  5-MIN KMSN 080210Z 10004KT 10SM CLR 11/03 A3002 770 56  500 100/04 RMK AO2
14837KMSN MSN20050407201509304/07/05 20:15:31  5-MIN KMSN 080215Z 10005KT 10SM CLR 11/02 A3002 770 52  500 100/05 RMK AO2
14837KMSN MSN20050407202009304/07/05 20:20:31  5-MIN KMSN 080220Z 11005KT 10SM CLR 11/01 A3002 770 52  500 110/05 RMK AO2
14837KMSN MSN20050407202509304/07/05 20:25:31  5-MIN KMSN 080225Z 12005KT 10SM CLR 11/01 A3002 770 52  500 120/05 RMK AO2
14837KMSN MSN20050407203009304/07/05 20:30:31  5-MIN KMSN 080230Z 13005KT 10SM CLR 11/02 A3002 770 54  500 130/05 RMK AO2
14837KMSN MSN20050407203509304/07/05 20:35:31  5-MIN KMSN 080235Z 13005KT 10SM CLR 11/02 A3002 770 54  500 130/05 RMK AO2
14837KMSN MSN20050407204009304/07/05 20:40:31  5-MIN KMSN 080240Z 14004KT 10SM CLR 10/02 A3003 770 56  400 140/04 RMK AO2
14837KMSN MSN20050407204509304/07/05 20:45:31  5-MIN KMSN 080245Z 15004KT 10SM CLR 11/02 A3002 770 54  500 150/04 RMK AO2
14837KMSN MSN20050407205011604/07/05 20:50:31  5-MIN KMSN 080250Z 17003KT 10SM CLR 11/02 A3002 770 56  500 170/03 RMK AO2 SLP170 T01060022 53000
14837KMSN MSN20050407205509304/07/05 20:55:31  5-MIN KMSN 080255Z 00000KT 10SM CLR 10/02 A3003 770 58  400 000/00 RMK AO2
14837KMSN MSN20050407210009304/07/05 21:00:31  5-MIN KMSN 080300Z 00000KT 10SM CLR 10/02 A3002 770 58  400 000/00 RMK AO2
14837KMSN MSN20050407210509304/07/05 21:05:31  5-MIN KMSN 080305Z 00000KT 10SM CLR 10/02 A3002 770 58  400 000/00 RMK AO2
14837KMSN MSN20050407211009304/07/05 21:10:31  5-MIN KMSN 080310Z 00000KT 10SM CLR 10/02 A3002 770 58  400 000/00 RMK AO2
14837KMSN MSN20050407211509304/07/05 21:15:31  5-MIN KMSN 080315Z 15003KT 10SM CLR 10/02 A3002 770 58  400 150/03 RMK AO2
14837KMSN MSN20050407212009304/07/05 21:20:31  5-MIN KMSN 080320Z 15003KT 10SM CLR 10/02 A3002 770 58  400 150/03 RMK AO2
14837KMSN MSN20050407212509304/07/05 21:25:31  5-MIN KMSN 080325Z 00000KT 10SM CLR 10/02 A3003 770 56  400 000/00 RMK AO2
14837KMSN MSN20050407213009304/07/05 21:30:31  5-MIN KMSN 080330Z 15003KT 10SM CLR 10/02 A3002 770 56  400 140/03 RMK AO2
14837KMSN MSN20050407213509304/07/05 21:35:31  5-MIN KMSN 080335Z 11003KT 10SM CLR 09/02 A3002 770 60  300 110/03 RMK AO2
14837KMSN MSN20050407214009304/07/05 21:40:31  5-MIN KMSN 080340Z 00000KT 10SM CLR 07/02 A3002 770 68  100 000/00 RMK AO2
14837KMSN MSN20050407214509304/07/05 21:45:31  5-MIN KMSN 080345Z 00000KT 10SM CLR 08/02 A3002 770 68  100 000/00 RMK AO2
14837KMSN MSN20050407215011004/07/05 21:50:31  5-MIN KMSN 080350Z 00000KT 10SM CLR 08/02 A3002 770 65  200 000/00 RMK AO2 SLP169 T00830022
14837KMSN MSN20050407215509304/07/05 21:55:31  5-MIN KMSN 080355Z 00000KT 10SM CLR 08/02 A3002 770 65  200 000/00 RMK AO2
14837KMSN MSN20050407220009304/07/05 22:00:31  5-MIN KMSN 080400Z 00000KT 10SM CLR 08/03 A3002 770 70  200 000/00 RMK AO2
14837KMSN MSN20050407220509304/07/05 22:05:31  5-MIN KMSN 080405Z 00000KT 10SM CLR 08/04 A3003 770 73  200 000/00 RMK AO2
14837KMSN MSN20050407221009304/07/05 22:10:31  5-MIN KMSN 080410Z 00000KT 10SM CLR 08/04 A3003 770 76  100 000/00 RMK AO2
14837KMSN MSN20050407221509304/07/05 22:15:31  5-MIN KMSN 080415Z 00000KT 10SM CLR 08/03 A3003 770 73  100 000/00 RMK AO2
14837KMSN MSN20050407222009304/07/05 22:20:31  5-MIN KMSN 080420Z 00000KT 10SM CLR 08/04 A3003 760 73  200 000/00 RMK AO2
14837KMSN MSN20050407222509304/07/05 22:25:31  5-MIN KMSN 080425Z 00000KT 10SM CLR 07/03 A3003 760 76  100 000/00 RMK AO2
14837KMSN MSN20050407223009004/07/05 22:30:31  5-MIN KMSN 080430Z 00000KT 10SM CLR 07/03 A3003 760 79 0 000/00 RMK AO2
14837KMSN MSN20050407223509004/07/05 22:35:31  5-MIN KMSN 080435Z 00000KT 10SM CLR 07/04 A3003 760 82 0 000/00 RMK AO2
14837KMSN MSN20050407224009004/07/05 22:40:31  5-MIN KMSN 080440Z 00000KT 10SM CLR 07/04 A3004 760 82 0 000/00 RMK AO2
14837KMSN MSN20050407224509004/07/05 22:45:31  5-MIN KMSN 080445Z 00000KT 10SM CLR 07/04 A3004 760 82 0 000/00 RMK AO2
14837KMSN MSN20050407225010704/07/05 22:50:31  5-MIN KMSN 080450Z 00000KT 10SM CLR 07/04 A3004 760 82 0 000/00 RMK AO2 SLP174 T00670039
14837KMSN MSN20050407225509004/07/05 22:55:31  5-MIN KMSN 080455Z 00000KT 10SM CLR 06/03 A3004 760 82 0 000/00 RMK AO2
14837KMSN MSN20050407230009004/07/05 23:00:31  5-MIN KMSN 080500Z 00000KT 10SM CLR 07/03 A3004 760 76 0 000/00 RMK AO2
14837KMSN MSN20050407230509004/07/05 23:05:31  5-MIN KMSN 080505Z 00000KT 10SM CLR 07/02 A3004 760 70 0 000/00 RMK AO2
14837KMSN MSN20050407231009004/07/05 23:10:31  5-MIN KMSN 080510Z 00000KT 10SM CLR 07/02 A3004 760 73 0 000/00 RMK AO2
14837KMSN MSN20050407231509004/07/05 23:15:31  5-MIN KMSN 080515Z 00000KT 10SM CLR 06/03 A3004 760 79 0 000/00 RMK AO2
14837KMSN MSN20050407232009004/07/05 23:20:31  5-MIN KMSN 080520Z 00000KT 10SM CLR 06/03 A3004 750 79 0 000/00 RMK AO2
14837KMSN MSN20050407232509004/07/05 23:25:31  5-MIN KMSN 080525Z 00000KT 10SM CLR 06/04 A3004 750 86 0 000/00 RMK AO2
14837KMSN MSN20050407233009004/07/05 23:30:31  5-MIN KMSN 080530Z 00000KT 10SM CLR 06/04 A3004 750 86 0 000/00 RMK AO2
14837KMSN MSN20050407233509004/07/05 23:35:31  5-MIN KMSN 080535Z 00000KT 10SM CLR 07/04 A3004 750 82 0 000/00 RMK AO2
14837KMSN MSN20050407234009004/07/05 23:40:31  5-MIN KMSN 080540Z 00000KT 10SM CLR 07/04 A3004 750 82 0 000/00 RMK AO2
14837KMSN MSN20050407234509004/07/05 23:45:31  5-MIN KMSN 080545Z 00000KT 10SM CLR 07/03 A3004 750 79 0 000/00 RMK AO2
14837KMSN MSN20050407235013504/07/05 23:50:31  5-MIN KMSN 080550Z 00000KT 10SM CLR 07/04 A3004 750 82 0 000/00 RMK AO2 SLP176 T00670039 10144 20061 401720061 53007
14837KMSN MSN20050407235509404/07/05 23:55:31  5-MIN KMSN 080555Z 00000KT 10SM CLR 06/03 A3004 750 82  -100 000/00 RMK AO2
14837KMSN MSN20050408000009404/08/05 00:00:31  5-MIN KMSN 080600Z 00000KT 10SM CLR 06/03 A3004 750 82  -100 000/00 RMK AO2
14837KMSN MSN20050408000509404/08/05 00:05:31  5-MIN KMSN 080605Z 00000KT 10SM CLR 06/04 A3004 750 89  -100 000/00 RMK AO2
14837KMSN MSN20050408001009404/08/05 00:10:31  5-MIN KMSN 080610Z 00000KT 10SM CLR 06/03 A3004 750 82  -100 000/00 RMK AO2
14837KMSN MSN20050408001509404/08/05 00:15:31  5-MIN KMSN 080615Z 00000KT 10SM CLR 06/03 A3005 750 82  -100 000/00 RMK AO2
14837KMSN MSN20050408002009404/08/05 00:20:31  5-MIN KMSN 080620Z 00000KT 10SM CLR 06/03 A3004 750 82  -100 000/00 RMK AO2
14837KMSN MSN20050408002509404/08/05 00:25:31  5-MIN KMSN 080625Z 00000KT 10SM CLR 06/03 A3004 750 85  -100 000/00 RMK AO2
14837KMSN MSN20050408003009404/08/05 00:30:31  5-MIN KMSN 080630Z 00000KT 10SM CLR 05/03 A3005 750 89  -200 000/00 RMK AO2
14837KMSN MSN20050408003509404/08/05 00:35:31  5-MIN KMSN 080635Z 00000KT 10SM CLR 05/03 A3004 750 89  -200 000/00 RMK AO2
14837KMSN MSN20050408004009404/08/05 00:40:31  5-MIN KMSN 080640Z 00000KT 10SM CLR 05/03 A3004 750 85  -200 000/00 RMK AO2
14837KMSN MSN20050408004509404/08/05 00:45:31  5-MIN KMSN 080645Z 00000KT 10SM CLR 05/03 A3004 750 85  -200 000/00 RMK AO2
14837KMSN MSN20050408005011104/08/05 00:50:31  5-MIN KMSN 080650Z 00000KT 10SM CLR 05/03 A3004 750 85  -200 000/00 RMK AO2 SLP176 T00500028
14837KMSN MSN20050408005509404/08/05 00:55:31  5-MIN KMSN 080655Z 00000KT 10SM CLR 05/03 A3004 750 89  -200 000/00 RMK AO2
14837KMSN MSN20050408010009404/08/05 01:00:31  5-MIN KMSN 080700Z 00000KT 10SM CLR 04/02 A3004 750 85  -300 000/00 RMK AO2
14837KMSN MSN20050408010509404/08/05 01:05:31  5-MIN KMSN 080705Z 00000KT 10SM CLR 04/03 A3004 750 89  -300 000/00 RMK AO2
14837KMSN MSN20050408011009404/08/05 01:10:31  5-MIN KMSN 080710Z 00000KT 10SM CLR 05/03 A3004 750 89  -200 000/00 RMK AO2
14837KMSN MSN20050408011509404/08/05 01:15:31  5-MIN KMSN 080715Z 00000KT 10SM CLR 04/03 A3004 750 92  -300 000/00 RMK AO2
14837KMSN MSN20050408012009404/08/05 01:20:31  5-MIN KMSN 080720Z 00000KT 10SM CLR 04/03 A3004 750 89  -300 000/00 RMK AO2
14837KMSN MSN20050408012509404/08/05 01:25:31  5-MIN KMSN 080725Z 00000KT 10SM CLR 04/03 A3004 750 89  -300 000/00 RMK AO2
14837KMSN MSN20050408013009404/08/05 01:30:31  5-MIN KMSN 080730Z 00000KT 10SM CLR 04/03 A3004 750 89  -300 000/00 RMK AO2
14837KMSN MSN20050408013509404/08/05 01:35:31  5-MIN KMSN 080735Z 00000KT 10SM CLR 04/03 A3004 750 89  -300 000/00 RMK AO2
14837KMSN MSN20050408014009404/08/05 01:40:31  5-MIN KMSN 080740Z 33003KT 10SM CLR 04/03 A3004 750 89  -300 330/03 RMK AO2
14837KMSN MSN20050408014509404/08/05 01:45:31  5-MIN KMSN 080745Z 33003KT 10SM CLR 04/03 A3004 750 92  -300 330/03 RMK AO2
14837KMSN MSN20050408015011104/08/05 01:50:31  5-MIN KMSN 080750Z 33003KT 10SM CLR 04/03 A3004 750 92  -300 330/03 RMK AO2 SLP176 T00390028
14837KMSN MSN20050408015509404/08/05 01:55:31  5-MIN KMSN 080755Z 33003KT 10SM CLR 04/03 A3004 750 92  -300 330/03 RMK AO2
14837KMSN MSN20050408020009404/08/05 02:00:31  5-MIN KMSN 080800Z 00000KT 10SM CLR 04/03 A3004 750 92  -300 000/00 RMK AO2
14837KMSN MSN20050408020509404/08/05 02:05:31  5-MIN KMSN 080805Z 00000KT 10SM CLR 04/03 A3005 750 92  -300 000/00 RMK AO2
14837KMSN MSN20050408021009404/08/05 02:10:31  5-MIN KMSN 080810Z 00000KT 10SM CLR 04/03 A3005 750 92  -300 000/00 RMK AO2
14837KMSN MSN20050408021509404/08/05 02:15:31  5-MIN KMSN 080815Z 33003KT 10SM CLR 04/03 A3005 750 92  -300 330/03 RMK AO2
14837KMSN MSN20050408022009404/08/05 02:20:31  5-MIN KMSN 080820Z 00000KT 10SM CLR 03/02 A3005 750 92  -400 000/00 RMK AO2
14837KMSN MSN20050408022509304/08/05 02:25:31  5-MIN KMSN 080825Z 00000KT 9SM CLR 03/02 A3005 750 92  -400 000/00 RMK AO2
14837KMSN MSN20050408023009304/08/05 02:30:31  5-MIN KMSN 080830Z 00000KT 9SM CLR 03/02 A3005 740 92  -400 000/00 RMK AO2
14837KMSN MSN20050408023509404/08/05 02:35:31  5-MIN KMSN 080835Z 32003KT 10SM CLR 04/03 A3005 740 92  -300 320/03 RMK AO2
14837KMSN MSN20050408024009404/08/05 02:40:31  5-MIN KMSN 080840Z 00000KT 10SM CLR 04/03 A3006 740 92  -300 000/00 RMK AO2
14837KMSN MSN20050408024509404/08/05 02:45:31  5-MIN KMSN 080845Z 00000KT 10SM CLR 04/03 A3006 740 92  -300 000/00 RMK AO2
14837KMSN MSN20050408025011704/08/05 02:50:31  5-MIN KMSN 080850Z 00000KT 10SM CLR 04/03 A3006 740 92  -300 000/00 RMK AO2 SLP181 T00390028 53006
14837KMSN MSN20050408025509404/08/05 02:55:31  5-MIN KMSN 080855Z 00000KT 10SM CLR 04/03 A3006 740 92  -300 000/00 RMK AO2
14837KMSN MSN20050408030009304/08/05 03:00:31  5-MIN KMSN 080900Z 00000KT 9SM CLR 03/02 A3006 740 92  -400 000/00 RMK AO2
14837KMSN MSN20050408030509304/08/05 03:05:31  5-MIN KMSN 080905Z 00000KT 8SM CLR 03/02 A3006 740 89  -400 000/00 RMK AO2
14837KMSN MSN20050408031009304/08/05 03:10:31  5-MIN KMSN 080910Z 00000KT 9SM CLR 04/02 A3006 740 89  -300 000/00 RMK AO2
14837KMSN MSN20050408031509404/08/05 03:15:31  5-MIN KMSN 080915Z 00000KT 10SM CLR 03/02 A3006 730 92  -400 000/00 RMK AO2
14837KMSN MSN20050408032009304/08/05 03:20:31  5-MIN KMSN 080920Z 00000KT 9SM CLR 03/02 A3006 730 92  -400 000/00 RMK AO2
14837KMSN MSN20050408032509304/08/05 03:25:31  5-MIN KMSN 080925Z 00000KT 9SM CLR 03/02 A3006 730 92  -400 000/00 RMK AO2
14837KMSN MSN20050408033009304/08/05 03:30:31  5-MIN KMSN 080930Z 00000KT 9SM CLR 03/02 A3006 730 92  -400 000/00 RMK AO2
14837KMSN MSN20050408033509304/08/05 03:35:31  5-MIN KMSN 080935Z 00000KT 9SM CLR 04/02 A3006 730 89  -300 000/00 RMK AO2
14837KMSN MSN20050408034009304/08/05 03:40:31  5-MIN KMSN 080940Z 00000KT 9SM CLR 03/02 A3006 730 92  -400 000/00 RMK AO2
14837KMSN MSN20050408034509304/08/05 03:45:31  5-MIN KMSN 080945Z 00000KT 8SM CLR 03/02 A3006 730 92  -400 000/00 RMK AO2
14837KMSN MSN20050408035011004/08/05 03:50:31  5-MIN KMSN 080950Z 00000KT 8SM CLR 03/02 A3007 730 92  -400 000/00 RMK AO2 SLP185 T00330022
14837KMSN MSN20050408035509304/08/05 03:55:31  5-MIN KMSN 080955Z 00000KT 7SM CLR 03/02 A3007 730 96  -500 000/00 RMK AO2
14837KMSN MSN20050408040009304/08/05 04:00:31  5-MIN KMSN 081000Z 00000KT 7SM CLR 03/02 A3007 730 92  -400 000/00 RMK AO2
14837KMSN MSN20050408040509304/08/05 04:05:31  5-MIN KMSN 081005Z 00000KT 7SM CLR 03/02 A3007 730 92  -400 000/00 RMK AO2
14837KMSN MSN20050408041009504/08/05 04:10:31  5-MIN KMSN 081010Z 00000KT 6SM BR CLR 03/02 A3007 730 92 -400 000/00 RMK AO2
14837KMSN MSN20050408041509504/08/05 04:15:31  5-MIN KMSN 081015Z 00000KT 6SM BR CLR 03/02 A3007 720 96 -500 000/00 RMK AO2
14837KMSN MSN20050408042009504/08/05 04:20:31  5-MIN KMSN 081020Z 00000KT 6SM BR CLR 03/02 A3007 720 96 -500 000/00 RMK AO2
14837KMSN MSN20050408042509304/08/05 04:25:31  5-MIN KMSN 081025Z 00000KT 8SM CLR 03/02 A3007 720 92  -500 000/00 RMK AO2
14837KMSN MSN20050408043009304/08/05 04:30:31  5-MIN KMSN 081030Z 00000KT 9SM CLR 03/02 A3007 720 92  -500 000/00 RMK AO2
14837KMSN MSN20050408043509304/08/05 04:35:31  5-MIN KMSN 081035Z 00000KT 8SM CLR 03/02 A3008 720 92  -500 000/00 RMK AO2
14837KMSN MSN20050408044009504/08/05 04:40:31  5-MIN KMSN 081040Z 00000KT 6SM BR CLR 03/02 A3007 720 92 -500 000/00 RMK AO2
14837KMSN MSN20050408044509304/08/05 04:45:31  5-MIN KMSN 081045Z 00000KT 7SM CLR 03/02 A3007 720 96  -500 000/00 RMK AO2
14837KMSN MSN20050408045011204/08/05 04:50:31  5-MIN KMSN 081050Z 00000KT 6SM BR CLR 03/02 A3008 720 96 -500 000/00 RMK AO2 SLP188 T00280022
14837KMSN MSN20050408045509504/08/05 04:55:31  5-MIN KMSN 081055Z 00000KT 4SM BR CLR 03/02 A3008 720 92 -500 000/00 RMK AO2
14837KMSN MSN20050408050009504/08/05 05:00:31  5-MIN KMSN 081100Z 00000KT 5SM BR CLR 03/02 A3008 720 92 -500 000/00 RMK AO2
14837KMSN MSN20050408050509504/08/05 05:05:31  5-MIN KMSN 081105Z 00000KT 6SM BR CLR 02/02 A3008 720 96 -600 000/00 RMK AO2
14837KMSN MSN20050408051009504/08/05 05:10:31  5-MIN KMSN 081110Z 00000KT 4SM BR CLR 03/02 A3008 720 92 -500 000/00 RMK AO2
14837KMSN MSN20050408051509504/08/05 05:15:31  5-MIN KMSN 081115Z 00000KT 4SM BR CLR 02/02 A3008 710 96 -600 000/00 RMK AO2
14837KMSN MSN20050408052009304/08/05 05:20:31  5-MIN KMSN 081120Z 00000KT 7SM CLR 02/02 A3008 710 96  -600 000/00 RMK AO2
14837KMSN MSN20050408052509504/08/05 05:25:31  5-MIN KMSN 081125Z 00000KT 7SM BR CLR 03/02 A3008 710 92 -500 000/00 RMK AO2
14837KMSN MSN20050408053009504/08/05 05:30:31  5-MIN KMSN 081130Z 00000KT 5SM BR CLR 03/02 A3009 710 92 -500 000/00 RMK AO2
14837KMSN MSN20050408053509504/08/05 05:35:31  5-MIN KMSN 081135Z 00000KT 5SM BR CLR 03/02 A3009 710 92 -500 000/00 RMK AO2
14837KMSN MSN20050408054009504/08/05 05:40:31  5-MIN KMSN 081140Z 00000KT 5SM BR CLR 03/02 A3009 710 92 -500 000/00 RMK AO2
14837KMSN MSN20050408054509304/08/05 05:45:31  5-MIN KMSN 081145Z 00000KT 7SM CLR 03/02 A3009 710 92  -500 000/00 RMK AO2
14837KMSN MSN20050408055012804/08/05 05:50:31  5-MIN KMSN 081150Z 00000KT 7SM CLR 02/02 A3009 710 96  -600 000/00 RMK AO2 SLP194 T00220017 10061 20022 53004
14837KMSN MSN20050408055509304/08/05 05:55:31  5-MIN KMSN 081155Z 00000KT 7SM CLR 02/02 A3009 710 96  -600 000/00 RMK AO2
14837KMSN MSN20050408060009304/08/05 06:00:31  5-MIN KMSN 081200Z 00000KT 7SM CLR 02/02 A3009 710 96  -600 000/00 RMK AO2
14837KMSN MSN20050408060509304/08/05 06:05:31  5-MIN KMSN 081205Z 00000KT 7SM CLR 03/02 A3009 710 92  -500 000/00 RMK AO2
14837KMSN MSN20050408061009304/08/05 06:10:31  5-MIN KMSN 081210Z 00000KT 7SM CLR 02/02 A3009 700 96  -600 000/00 RMK AO2
14837KMSN MSN20050408061509304/08/05 06:15:31  5-MIN KMSN 081215Z 00000KT 7SM CLR 03/02 A3010 700 92  -500 000/00 RMK AO2
14837KMSN MSN20050408062009304/08/05 06:20:31  5-MIN KMSN 081220Z 00000KT 7SM CLR 03/02 A3009 700 92  -500 000/00 RMK AO2
14837KMSN MSN20050408062509304/08/05 06:25:31  5-MIN KMSN 081225Z 35003KT 7SM CLR 03/02 A3010 700 92  -500 350/03 RMK AO2
14837KMSN MSN20050408063009304/08/05 06:30:31  5-MIN KMSN 081230Z 35004KT 7SM CLR 03/02 A3010 700 92  -500 350/04 RMK AO2
14837KMSN MSN20050408063509304/08/05 06:35:31  5-MIN KMSN 081235Z 35003KT 7SM CLR 04/02 A3010 700 89  -400 350/03 RMK AO2
14837KMSN MSN20050408064009304/08/05 06:40:31  5-MIN KMSN 081240Z 34003KT 7SM CLR 04/03 A3010 700 89  -300 340/03 RMK AO2
14837KMSN MSN20050408064509304/08/05 06:45:31  5-MIN KMSN 081245Z 34003KT 7SM CLR 05/03 A3010 700 85  -300 340/03 RMK AO2
14837KMSN MSN20050408065011004/08/05 06:50:31  5-MIN KMSN 081250Z 33003KT 7SM CLR 06/03 A3010 700 82  -200 330/03 RMK AO2 SLP198 T00560028
14837KMSN MSN20050408065509304/08/05 06:55:31  5-MIN KMSN 081255Z 35003KT 8SM CLR 06/03 A3010 700 82  -100 340/03 RMK AO2
14837KMSN MSN20050408070009304/08/05 07:00:31  5-MIN KMSN 081300Z 00000KT 8SM CLR 06/03 A3010 700 79  -100 000/00 RMK AO2
14837KMSN MSN20050408070509304/08/05 07:05:31  5-MIN KMSN 081305Z 34003KT 8SM CLR 06/03 A3010 700 79  -100 340/03 RMK AO2
14837KMSN MSN20050408071009304/08/05 07:10:31  5-MIN KMSN 081310Z 00000KT 8SM CLR 07/03 A3010 690 79  -100 000/00 RMK AO2
14837KMSN MSN20050408071508904/08/05 07:15:31  5-MIN KMSN 081315Z 00000KT 8SM CLR 07/03 A3011 690 76 0 000/00 RMK AO2
14837KMSN MSN20050408072009204/08/05 07:20:31  5-MIN KMSN 081320Z 00000KT 9SM CLR 08/03 A3011 690 70  100 000/00 RMK AO2
14837KMSN MSN20050408072509304/08/05 07:25:31  5-MIN KMSN 081325Z 00000KT 10SM CLR 09/03 A3011 690 68  200 000/00 RMK AO2
14837KMSN MSN20050408073009304/08/05 07:30:31  5-MIN KMSN 081330Z 02003KT 10SM CLR 09/03 A3011 690 65  200 010/03 RMK AO2
14837KMSN MSN20050408073509304/08/05 07:35:31  5-MIN KMSN 081335Z 00000KT 10SM CLR 09/04 A3011 690 68  200 000/00 RMK AO2
14837KMSN MSN20050408074009304/08/05 07:40:31  5-MIN KMSN 081340Z 06003KT 10SM CLR 09/03 A3011 690 65  200 060/03 RMK AO2
14837KMSN MSN20050408074509304/08/05 07:45:31  5-MIN KMSN 081345Z 00000KT 10SM CLR 10/02 A3011 690 58  300 000/00 RMK AO2
14837KMSN MSN20050408075011004/08/05 07:50:31  5-MIN KMSN 081350Z 09003KT 10SM CLR 11/03 A3011 690 58  400 080/03 RMK AO2 SLP199 T01060028
14837KMSN MSN20050408075509304/08/05 07:55:31  5-MIN KMSN 081355Z 08005KT 10SM CLR 11/01 A3011 690 52  400 080/05 RMK AO2
14837KMSN MSN20050408080009304/08/05 08:00:31  5-MIN KMSN 081400Z 11006KT 10SM CLR 12/02 A3011 690 50  500 110/06 RMK AO2
14837KMSN MSN20050408080509304/08/05 08:05:31  5-MIN KMSN 081405Z 12006KT 10SM CLR 11/00 A3011 690 46  400 120/06 RMK AO2
14837KMSN MSN20050408081009304/08/05 08:10:31  5-MIN KMSN 081410Z 11006KT 10SM CLR 11/00 A3012 680 46  400 110/06 RMK AO2
14837KMSN MSN20050408081509304/08/05 08:15:31  5-MIN KMSN 081415Z 12007KT 10SM CLR 12/01 A3012 680 46  500 120/07 RMK AO2
14837KMSN MSN20050408082009304/08/05 08:20:31  5-MIN KMSN 081420Z 11006KT 10SM CLR 12/01 A3012 680 46  500 110/06 RMK AO2
14837KMSN MSN20050408082509304/08/05 08:25:31  5-MIN KMSN 081425Z 12006KT 10SM CLR 12/00 A3012 680 44  500 110/06 RMK AO2
14837KMSN MSN20050408083009304/08/05 08:30:31  5-MIN KMSN 081430Z 10006KT 10SM CLR 12/01 A3012 680 44  600 100/06 RMK AO2
14837KMSN MSN20050408083509304/08/05 08:35:31  5-MIN KMSN 081435Z 11007KT 10SM CLR 12/01 A3012 680 44  600 110/07 RMK AO2
14837KMSN MSN20050408084009304/08/05 08:40:31  5-MIN KMSN 081440Z 12006KT 10SM CLR 12/01 A3012 680 44  600 110/06 RMK AO2
14837KMSN MSN20050408084509304/08/05 08:45:31  5-MIN KMSN 081445Z 11005KT 10SM CLR 13/01 A3012 680 43  700 110/05 RMK AO2
14837KMSN MSN20050408085011604/08/05 08:50:31  5-MIN KMSN 081450Z 10006KT 10SM CLR 13/01 A3012 680 41  700 100/06 RMK AO2 SLP201 T01330006 53011
14837KMSN MSN20050408085509304/08/05 08:55:31  5-MIN KMSN 081455Z 09004KT 10SM CLR 13/00 A3012 680 40  700 090/04 RMK AO2
14837KMSN MSN20050408090009304/08/05 09:00:31  5-MIN KMSN 081500Z 10007KT 10SM CLR 13/M01 A3012 680 38 700 090/07 RMK AO2
14837KMSN MSN20050408090509304/08/05 09:05:31  5-MIN KMSN 081505Z 11007KT 10SM CLR 13/M01 A3012 680 38 700 110/07 RMK AO2
14837KMSN MSN20050408091009304/08/05 09:10:31  5-MIN KMSN 081510Z VRB05KT 10SM CLR 14/00 A3012 680 38  800 VRB/05 RMK AO2
14837KMSN MSN20050408091509304/08/05 09:15:31  5-MIN KMSN 081515Z 09006KT 10SM CLR 14/00 A3012 680 38  800 090/06 RMK AO2
14837KMSN MSN20050408092009304/08/05 09:20:31  5-MIN KMSN 081520Z 10007KT 10SM CLR 14/M01 A3012 680 37 800 100/07 RMK AO2
14837KMSN MSN20050408092509304/08/05 09:25:31  5-MIN KMSN 081525Z 09006KT 10SM CLR 14/M01 A3012 680 37 800 090/06 RMK AO2
14837KMSN MSN20050408093009304/08/05 09:30:31  5-MIN KMSN 081530Z 13006KT 10SM CLR 14/00 A3012 680 37  800 130/06 RMK AO2
14837KMSN MSN20050408093509304/08/05 09:35:31  5-MIN KMSN 081535Z 10007KT 10SM CLR 14/00 A3011 690 37  800 100/07 RMK AO2
14837KMSN MSN20050408094009304/08/05 09:40:31  5-MIN KMSN 081540Z 10009KT 10SM CLR 15/M01 A3011 690 33 900 100/09 RMK AO2
14837KMSN MSN20050408094509304/08/05 09:45:31  5-MIN KMSN 081545Z 10008KT 10SM CLR 15/M02 A3011 690 30 900 100/08 RMK AO2
14837KMSN MSN20050408095011004/08/05 09:50:31  5-MIN KMSN 081550Z 12008KT 10SM CLR 16/M02 A3012 680 30 900 120/08 RMK AO2 SLP200 T01561017
14837KMSN MSN20050408095509304/08/05 09:55:31  5-MIN KMSN 081555Z 12010KT 10SM CLR 16/M02 A3012 680 30 900 120/10 RMK AO2
14837KMSN MSN20050408100009404/08/05 10:00:31  5-MIN KMSN 081600Z 12008KT 10SM CLR 16/M02 A3011 690 29 1000 120/08 RMK AO2
14837KMSN MSN20050408100509404/08/05 10:05:31  5-MIN KMSN 081605Z 10009KT 10SM CLR 16/M02 A3011 690 29 1000 100/09 RMK AO2
14837KMSN MSN20050408101009404/08/05 10:10:31  5-MIN KMSN 081610Z 11008KT 10SM CLR 16/M02 A3011 690 29 1000 110/08 RMK AO2
14837KMSN MSN20050408101509404/08/05 10:15:31  5-MIN KMSN 081615Z 12006KT 10SM CLR 16/M02 A3011 690 29 1000 120/06 RMK AO2
14837KMSN MSN20050408102009404/08/05 10:20:31  5-MIN KMSN 081620Z 11008KT 10SM CLR 16/M02 A3011 690 29 1000 110/08 RMK AO2
14837KMSN MSN20050408102509404/08/05 10:25:31  5-MIN KMSN 081625Z 15009KT 10SM CLR 16/M03 A3011 690 27 1000 150/09 RMK AO2
14837KMSN MSN20050408103009404/08/05 10:30:31  5-MIN KMSN 081630Z 12008KT 10SM CLR 17/M03 A3011 690 26 1100 120/08 RMK AO2
14837KMSN MSN20050408103509404/08/05 10:35:31  5-MIN KMSN 081635Z 14007KT 10SM CLR 17/M03 A3011 690 25 1100 140/07 RMK AO2
14837KMSN MSN20050408104009404/08/05 10:40:31  5-MIN KMSN 081640Z 12006KT 10SM CLR 16/M03 A3011 690 27 1000 120/06 RMK AO2
14837KMSN MSN20050408104509404/08/05 10:45:31  5-MIN KMSN 081645Z VRB06KT 10SM CLR 17/M02 A3011 690 27 1100 VRB/06 RMK AO2
14837KMSN MSN20050408105011104/08/05 10:50:31  5-MIN KMSN 081650Z 13006KT 10SM CLR 17/M02 A3011 690 27 1100 120/06 RMK AO2 SLP197 T01671022
14837KMSN MSN20050408105509404/08/05 10:55:31  5-MIN KMSN 081655Z 10009KT 10SM CLR 17/M02 A3011 690 27 1100 100/09 RMK AO2
14837KMSN MSN20050408110009404/08/05 11:00:31  5-MIN KMSN 081700Z 10006KT 10SM CLR 17/M02 A3010 690 27 1100 100/06 RMK AO2
14837KMSN MSN20050408110509404/08/05 11:05:31  5-MIN KMSN 081705Z 11009KT 10SM CLR 17/M02 A3010 700 28 1100 110/09 RMK AO2
14837KMSN MSN20050408111009404/08/05 11:10:31  5-MIN KMSN 081710Z 09007KT 10SM CLR 17/M02 A3010 700 28 1100 090/07 RMK AO2
14837KMSN MSN20050408111509404/08/05 11:15:31  5-MIN KMSN 081715Z 11008KT 10SM CLR 17/M01 A3009 700 28 1200 110/08 RMK AO2
14837KMSN MSN20050408112009404/08/05 11:20:31  5-MIN KMSN 081720Z 11007KT 10SM CLR 17/M02 A3009 700 27 1200 110/07 RMK AO2
14837KMSN MSN20050408112510004/08/05 11:25:31  5-MIN KMSN 081725Z 10008G14KT 10SM CLR 17/M02 A3009 710 27 1200 100/08G14 RMK AO2
14837KMSN MSN20050408113009404/08/05 11:30:31  5-MIN KMSN 081730Z 10008KT 10SM CLR 17/M01 A3009 710 28 1200 100/08 RMK AO2
14837KMSN MSN20050408113509404/08/05 11:35:31  5-MIN KMSN 081735Z 15004KT 10SM CLR 17/M02 A3009 710 28 1100 140/04 RMK AO2
14837KMSN MSN20050408114009404/08/05 11:40:31  5-MIN KMSN 081740Z 11009KT 10SM CLR 18/M01 A3009 710 28 1200 110/09 RMK AO2
14837KMSN MSN20050408114509404/08/05 11:45:31  5-MIN KMSN 081745Z 10009KT 10SM CLR 17/M01 A3009 710 28 1200 100/09 RMK AO2
14837KMSN MSN20050408115012904/08/05 11:50:31  5-MIN KMSN 081750Z 10007KT 10SM CLR 17/M01 A3009 710 29 1200 100/07 RMK AO2 SLP190 T01721006 10178 20022 51009
14837KMSN MSN20050408115509404/08/05 11:55:31  5-MIN KMSN 081755Z VRB05KT 10SM CLR 17/M01 A3008 710 28 1200 VRB/05 RMK AO2
14837KMSN MSN20050408120009404/08/05 12:00:31  5-MIN KMSN 081800Z 15007KT 10SM CLR 17/M01 A3008 710 28 1200 150/07 RMK AO2
14837KMSN MSN20050408120509404/08/05 12:05:31  5-MIN KMSN 081805Z 10005KT 10SM CLR 18/M01 A3008 710 27 1200 100/05 RMK AO2
14837KMSN MSN20050408121009604/08/05 12:10:31  5-MIN KMSN 081810Z 10006KT 10SM CLR 18/M01 A3008 710 28 1200 100/06 RMK AO2 $
14837KMSN MSN20050408121509604/08/05 12:15:31  5-MIN KMSN 081815Z VRB03KT 10SM CLR 18/00 A3008 720 30  1200 VRB/03 RMK AO2 $
14837KMSN MSN20050408122009604/08/05 12:20:31  5-MIN KMSN 081820Z 10009KT 10SM CLR 18/00 A3008 720 29  1300 100/09 RMK AO2 $
14837KMSN MSN20050408122509604/08/05 12:25:31  5-MIN KMSN 081825Z VRB04KT 10SM CLR 18/01 A3008 720 30  1300 VRB/04 RMK AO2 $
14837KMSN MSN20050408123009604/08/05 12:30:31  5-MIN KMSN 081830Z 08008KT 10SM CLR 18/01 A3007 720 30  1300 080/08 RMK AO2 $
14837KMSN MSN20050408123510204/08/05 12:35:31  5-MIN KMSN 081835Z 06009G14KT 10SM CLR 18/01 A3007 720  30 1300 060/09G14 RMK AO2 $
14837KMSN MSN20050408124009604/08/05 12:40:31  5-MIN KMSN 081840Z VRB06KT 10SM CLR 18/00 A3007 720 29  1300 VRB/06 RMK AO2 $
14837KMSN MSN20050408124509604/08/05 12:45:31  5-MIN KMSN 081845Z 10009KT 10SM CLR 18/00 A3007 730 29  1300 100/09 RMK AO2 $
14837KMSN MSN20050408125011304/08/05 12:50:31  5-MIN KMSN 081850Z 10008KT 10SM CLR 18/01 A3007 730 30  1300 100/08 RMK AO2 SLP184 T01830006 $
14837KMSN MSN20050408125509604/08/05 12:55:31  5-MIN KMSN 081855Z 11006KT 10SM CLR 18/00 A3007 730 29  1300 110/06 RMK AO2 $
14837KMSN MSN20050408130011104/08/05 13:00:31  5-MIN KMSN 081900Z 14007KT 090V170 10SM CLR 18/00 A3006 730 29 1300 140/07 090V170 RMK AO2 $
14837KMSN MSN20050408130509604/08/05 13:05:31  5-MIN KMSN 081905Z VRB06KT 10SM CLR 18/00 A3006 730 29  1300 VRB/06 RMK AO2 $
14837KMSN MSN20050408131011104/08/05 13:10:31  5-MIN KMSN 081910Z 09007KT 040V120 10SM CLR 19/01 A3006 740 29 1400 090/07 040V120 RMK AO2 $
14837KMSN MSN20050408131509604/08/05 13:15:31  5-MIN KMSN 081915Z 10008KT 10SM CLR 19/01 A3005 740 29  1400 100/08 RMK AO2 $
14837KMSN MSN20050408132009604/08/05 13:20:31  5-MIN KMSN 081920Z VRB03KT 10SM CLR 18/00 A3005 740 29  1300 VRB/03 RMK AO2 $
14837KMSN MSN20050408132511104/08/05 13:25:31  5-MIN KMSN 081925Z 10010KT 060V170 10SM CLR 19/01 A3005 750 29 1400 100/10 060V170 RMK AO2 $
14837KMSN MSN20050408133009604/08/05 13:30:31  5-MIN KMSN 081930Z 10011KT 10SM CLR 19/01 A3005 750 29  1400 100/11 RMK AO2 $
14837KMSN MSN20050408133510904/08/05 13:35:31  5-MIN KMSN 081935Z 09007KT 050V130 10SM CLR 18/00 A3004 750 29 1400 090/07 050V130 RMK AO2
14837KMSN MSN20050408134010004/08/05 13:40:31  5-MIN KMSN 081940Z 10012G15KT 10SM CLR 19/01 A3004 750  29 1400 100/12G15 RMK AO2
14837KMSN MSN20050408134510004/08/05 13:45:31  5-MIN KMSN 081945Z 11011G15KT 10SM CLR 19/00 A3004 750  28 1400 110/11G15 RMK AO2
14837KMSN MSN20050408135011704/08/05 13:50:31  5-MIN KMSN 081950Z 10010G15KT 10SM CLR 19/00 A3004 750  28 1400 100/10G15 RMK AO2 SLP175 T01890000
14837KMSN MSN20050408135510004/08/05 13:55:31  5-MIN KMSN 081955Z 09007G15KT 10SM CLR 19/M01 A3004 750 26 1400 090/07G15 RMK AO2
14837KMSN MSN20050408140009404/08/05 14:00:31  5-MIN KMSN 082000Z VRB05KT 10SM CLR 19/01 A3004 750 29  1400 VRB/05 RMK AO2
14837KMSN MSN20050408140511604/08/05 14:05:31  5-MIN KMSN 082005Z 12011G14KT 090V170 10SM CLR 19/01  A3004 750 29 1400 120/11G14 090V170 RMK AO2
14837KMSN MSN20050408141010004/08/05 14:10:31  5-MIN KMSN 082010Z 10008G14KT 10SM CLR 19/00 A3004 750  28 1400 100/08G14 RMK AO2
14837KMSN MSN20050408141509404/08/05 14:15:31  5-MIN KMSN 082015Z 14007KT 10SM CLR 19/00 A3004 750 28  1400 140/07 RMK AO2
14837KMSN MSN20050408142009404/08/05 14:20:31  5-MIN KMSN 082020Z 10006KT 10SM CLR 19/00 A3004 760 28  1400 100/06 RMK AO2
14837KMSN MSN20050408142509404/08/05 14:25:31  5-MIN KMSN 082025Z 10010KT 10SM CLR 19/00 A3004 760 28  1400 100/10 RMK AO2
14837KMSN MSN20050408143010004/08/05 14:30:31  5-MIN KMSN 082030Z 13008G17KT 10SM CLR 19/00 A3003 760  28 1400 130/08G17 RMK AO2
14837KMSN MSN20050408143510004/08/05 14:35:31  5-MIN KMSN 082035Z 12007G17KT 10SM CLR 19/00 A3003 760  28 1400 120/07G17 RMK AO2
14837KMSN MSN20050408144010004/08/05 14:40:31  5-MIN KMSN 082040Z 12012G16KT 10SM CLR 19/00 A3003 760  28 1400 120/12G16 RMK AO2
14837KMSN MSN20050408144510004/08/05 14:45:31  5-MIN KMSN 082045Z 11008G16KT 10SM CLR 19/00 A3003 760  28 1400 110/08G16 RMK AO2
14837KMSN MSN20050408145011704/08/05 14:50:31  5-MIN KMSN 082050Z 13009KT 10SM CLR 19/00 A3003 760 28  1400 130/09 RMK AO2 SLP171 T01890000 58011
14837KMSN MSN20050408145509404/08/05 14:55:31  5-MIN KMSN 082055Z 13010KT 10SM CLR 19/00 A3003 770 28  1400 130/10 RMK AO2
14837KMSN MSN20050408150009404/08/05 15:00:31  5-MIN KMSN 082100Z 12007KT 10SM CLR 19/00 A3003 770 28  1400 120/07 RMK AO2
14837KMSN MSN20050408150509404/08/05 15:05:31  5-MIN KMSN 082105Z 10008KT 10SM CLR 19/01 A3003 770 28  1500 100/08 RMK AO2
14837KMSN MSN20050408151009404/08/05 15:10:31  5-MIN KMSN 082110Z 10010KT 10SM CLR 19/M01 A3003 770 26 1400 100/10 RMK AO2
14837KMSN MSN20050408151509404/08/05 15:15:31  5-MIN KMSN 082115Z VRB06KT 10SM CLR 18/M01 A3003 770 27 1400 VRB/06 RMK AO2
14837KMSN MSN20050408152009404/08/05 15:20:31  5-MIN KMSN 082120Z 08006KT 10SM CLR 19/00 A3002 770 28  1400 080/06 RMK AO2
14837KMSN MSN20050408152509404/08/05 15:25:31  5-MIN KMSN 082125Z 11010KT 10SM CLR 19/00 A3002 770 28  1400 100/10 RMK AO2
14837KMSN MSN20050408153009404/08/05 15:30:31  5-MIN KMSN 082130Z 11009KT 10SM CLR 19/01 A3002 770 29  1400 100/09 RMK AO2
14837KMSN MSN20050408153509404/08/05 15:35:31  5-MIN KMSN 082135Z 13006KT 10SM CLR 19/00 A3002 770 28  1400 130/06 RMK AO2
14837KMSN MSN20050408154009404/08/05 15:40:31  5-MIN KMSN 082140Z 10006KT 10SM CLR 19/01 A3002 770 29  1400 100/06 RMK AO2
14837KMSN MSN20050408154509404/08/05 15:45:31  5-MIN KMSN 082145Z 09006KT 10SM CLR 19/00 A3002 770 28  1400 090/06 RMK AO2
14837KMSN MSN20050408155011104/08/05 15:50:31  5-MIN KMSN 082150Z 13009KT 10SM CLR 19/01 A3002 770 29  1400 120/09 RMK AO2 SLP168 T01890006
14837KMSN MSN20050408155509404/08/05 15:55:31  5-MIN KMSN 082155Z 11011KT 10SM CLR 19/01 A3002 770 29  1400 110/11 RMK AO2
14837KMSN MSN20050408160009404/08/05 16:00:31  5-MIN KMSN 082200Z 13009KT 10SM CLR 19/00 A3002 770 28  1400 130/09 RMK AO2
14837KMSN MSN20050408160509404/08/05 16:05:31  5-MIN KMSN 082205Z 10009KT 10SM CLR 19/01 A3002 770 29  1400 100/09 RMK AO2
14837KMSN MSN20050408161009404/08/05 16:10:31  5-MIN KMSN 082210Z 12008KT 10SM CLR 19/01 A3002 770 29  1400 110/08 RMK AO2
14837KMSN MSN20050408161509404/08/05 16:15:31  5-MIN KMSN 082215Z 14010KT 10SM CLR 19/01 A3002 770 29  1400 140/10 RMK AO2
14837KMSN MSN20050408162009404/08/05 16:20:31  5-MIN KMSN 082220Z 12011KT 10SM CLR 18/00 A3002 770 29  1400 120/11 RMK AO2
14837KMSN MSN20050408162509404/08/05 16:25:31  5-MIN KMSN 082225Z 11010KT 10SM CLR 18/01 A3002 770 30  1400 110/10 RMK AO2
14837KMSN MSN20050408163009404/08/05 16:30:31  5-MIN KMSN 082230Z 10010KT 10SM CLR 18/01 A3002 770 30  1400 100/10 RMK AO2
14837KMSN MSN20050408163509404/08/05 16:35:31  5-MIN KMSN 082235Z 09009KT 10SM CLR 18/01 A3002 770 30  1400 090/09 RMK AO2
14837KMSN MSN20050408164010904/08/05 16:40:31  5-MIN KMSN 082240Z 12010KT 050V150 10SM CLR 18/01 A3002 770 30 1400 120/10 050V150 RMK AO2
14837KMSN MSN20050408164509404/08/05 16:45:31  5-MIN KMSN 082245Z 11013KT 10SM CLR 18/01 A3002 770 31  1300 110/13 RMK AO2
14837KMSN MSN20050408165011104/08/05 16:50:31  5-MIN KMSN 082250Z 11010KT 10SM CLR 18/00 A3002 770 30  1300 110/10 RMK AO2 SLP167 T01780000
14837KMSN MSN20050408165509404/08/05 16:55:31  5-MIN KMSN 082255Z 09010KT 10SM CLR 18/01 A3001 780 31  1300 090/10 RMK AO2
14837KMSN MSN20050408170009404/08/05 17:00:31  5-MIN KMSN 082300Z 10010KT 10SM CLR 18/01 A3002 780 31  1300 100/10 RMK AO2
14837KMSN MSN20050408170509404/08/05 17:05:31  5-MIN KMSN 082305Z 10012KT 10SM CLR 18/01 A3002 780 31  1300 100/12 RMK AO2
14837KMSN MSN20050408171009404/08/05 17:10:31  5-MIN KMSN 082310Z 10011KT 10SM CLR 17/01 A3001 780 32  1300 100/11 RMK AO2
14837KMSN MSN20050408171509404/08/05 17:15:31  5-MIN KMSN 082315Z 10014KT 10SM CLR 17/01 A3001 780 32  1300 100/14 RMK AO2
14837KMSN MSN20050408172009404/08/05 17:20:31  5-MIN KMSN 082320Z 09011KT 10SM CLR 17/01 A3001 780 32  1300 090/11 RMK AO2
14837KMSN MSN20050408172509404/08/05 17:25:31  5-MIN KMSN 082325Z 09012KT 10SM CLR 17/01 A3002 780 33  1200 090/12 RMK AO2
14837KMSN MSN20050408173009404/08/05 17:30:31  5-MIN KMSN 082330Z 09014KT 10SM CLR 17/00 A3002 780 32  1200 090/14 RMK AO2
14837KMSN MSN20050408173509404/08/05 17:35:31  5-MIN KMSN 082335Z 09014KT 10SM CLR 16/01 A3001 780 34  1100 090/14 RMK AO2
14837KMSN MSN20050408174009404/08/05 17:40:31  5-MIN KMSN 082340Z 10012KT 10SM CLR 16/01 A3002 780 34  1100 100/12 RMK AO2
14837KMSN MSN20050408174509404/08/05 17:45:31  5-MIN KMSN 082345Z 10012KT 10SM CLR 16/00 A3001 780 33  1100 100/12 RMK AO2
14837KMSN MSN20050408175012904/08/05 17:50:31  5-MIN KMSN 082350Z 10014KT 10SM CLR 16/01 A3002 780 36  1100 100/14 RMK AO2 SLP168 T01560006 10194 20156 56019
14837KMSN MSN20050408175509404/08/05 17:55:31  5-MIN KMSN 082355Z 10012KT 10SM CLR 16/01 A3002 780 36  1100 100/12 RMK AO2
14837KMSN MSN20050408180009404/08/05 18:00:31  5-MIN KMSN 090000Z 11012KT 10SM CLR 15/01 A3002 780 37  1000 110/12 RMK AO2
14837KMSN MSN20050408180509404/08/05 18:05:31  5-MIN KMSN 090005Z 10011KT 10SM CLR 15/01 A3002 780 37  1000 100/11 RMK AO2
14837KMSN MSN20050408181009304/08/05 18:10:31  5-MIN KMSN 090010Z 11013KT 10SM CLR 14/00 A3001 780 37  900 100/13 RMK AO2
14837KMSN MSN20050408181509304/08/05 18:15:31  5-MIN KMSN 090015Z 10011KT 10SM CLR 14/01 A3001 780 38  900 100/11 RMK AO2
14837KMSN MSN20050408182009304/08/05 18:20:31  5-MIN KMSN 090020Z 11011KT 10SM CLR 14/00 A3001 780 37  900 100/11 RMK AO2
14837KMSN MSN20050408182509304/08/05 18:25:31  5-MIN KMSN 090025Z 11011KT 10SM CLR 14/01 A3002 780 40  900 110/11 RMK AO2
14837KMSN MSN20050408183009304/08/05 18:30:31  5-MIN KMSN 090030Z 11010KT 10SM CLR 13/01 A3001 780 41  800 100/10 RMK AO2
14837KMSN MSN20050408183509304/08/05 18:35:31  5-MIN KMSN 090035Z 10009KT 10SM CLR 13/01 A3001 780 41  800 100/09 RMK AO2
14837KMSN MSN20050408184009304/08/05 18:40:31  5-MIN KMSN 090040Z 11010KT 10SM CLR 13/01 A3001 780 41  800 110/10 RMK AO2
14837KMSN MSN20050408184509304/08/05 18:45:31  5-MIN KMSN 090045Z 11010KT 10SM CLR 13/01 A3002 780 41  800 110/10 RMK AO2
14837KMSN MSN20050408185011004/08/05 18:50:31  5-MIN KMSN 090050Z 11009KT 10SM CLR 12/01 A3002 780 44  700 100/09 RMK AO2 SLP168 T01220006
14837KMSN MSN20050408185509304/08/05 18:55:31  5-MIN KMSN 090055Z 11008KT 10SM CLR 12/01 A3002 770 44  700 110/08 RMK AO2
14837KMSN MSN20050408190009304/08/05 19:00:31  5-MIN KMSN 090100Z 11008KT 10SM CLR 12/01 A3002 770 44  700 110/08 RMK AO2
14837KMSN MSN20050408190509304/08/05 19:05:31  5-MIN KMSN 090105Z 11009KT 10SM CLR 12/01 A3002 770 46  600 110/09 RMK AO2
14837KMSN MSN20050408191009304/08/05 19:10:31  5-MIN KMSN 090110Z 11008KT 10SM CLR 12/01 A3002 770 46  600 110/08 RMK AO2
14837KMSN MSN20050408191509304/08/05 19:15:31  5-MIN KMSN 090115Z 11008KT 10SM CLR 12/01 A3002 770 46  600 110/08 RMK AO2
14837KMSN MSN20050408192009304/08/05 19:20:31  5-MIN KMSN 090120Z 11008KT 10SM CLR 12/01 A3002 770 46  600 110/08 RMK AO2
14837KMSN MSN20050408192509304/08/05 19:25:31  5-MIN KMSN 090125Z 11008KT 10SM CLR 12/01 A3003 770 46  600 110/08 RMK AO2
14837KMSN MSN20050408193009304/08/05 19:30:31  5-MIN KMSN 090130Z 11007KT 10SM CLR 11/01 A3003 760 48  500 110/07 RMK AO2
14837KMSN MSN20050408193509304/08/05 19:35:31  5-MIN KMSN 090135Z 11007KT 10SM CLR 11/01 A3003 760 48  500 110/07 RMK AO2
14837KMSN MSN20050408194009304/08/05 19:40:31  5-MIN KMSN 090140Z 12006KT 10SM CLR 11/01 A3003 760 50  500 120/06 RMK AO2
14837KMSN MSN20050408194509304/08/05 19:45:31  5-MIN KMSN 090145Z 12006KT 10SM CLR 11/00 A3003 760 46  500 120/06 RMK AO2
14837KMSN MSN20050408195011004/08/05 19:50:31  5-MIN KMSN 090150Z 12005KT 10SM CLR 11/00 A3003 760 46  500 120/05 RMK AO2 SLP173 T01110000
14837KMSN MSN20050408195509304/08/05 19:55:31  5-MIN KMSN 090155Z 11006KT 10SM CLR 11/00 A3003 760 46  500 110/06 RMK AO2
14837KMSN MSN20050408200009304/08/05 20:00:31  5-MIN KMSN 090200Z 11006KT 10SM CLR 11/00 A3004 760 48  400 110/06 RMK AO2
14837KMSN MSN20050408200509304/08/05 20:05:31  5-MIN KMSN 090205Z 10006KT 10SM CLR 11/00 A3004 760 48  400 100/06 RMK AO2
14837KMSN MSN20050408201009304/08/05 20:10:31  5-MIN KMSN 090210Z 11006KT 10SM CLR 10/M01 A3003 760 47 400 110/06 RMK AO2
14837KMSN MSN20050408201509304/08/05 20:15:31  5-MIN KMSN 090215Z 10006KT 10SM CLR 09/M01 A3004 760 49 300 100/06 RMK AO2
14837KMSN MSN20050408202009304/08/05 20:20:31  5-MIN KMSN 090220Z 10006KT 10SM CLR 10/M01 A3004 760 47 400 100/06 RMK AO2
14837KMSN MSN20050408202509304/08/05 20:25:31  5-MIN KMSN 090225Z 11007KT 10SM CLR 10/M01 A3004 760 47 400 110/07 RMK AO2
14837KMSN MSN20050408203009304/08/05 20:30:31  5-MIN KMSN 090230Z 11006KT 10SM CLR 09/M01 A3004 750 47 300 110/06 RMK AO2
14837KMSN MSN20050408203509304/08/05 20:35:31  5-MIN KMSN 090235Z 11006KT 10SM CLR 09/M01 A3004 750 47 300 110/06 RMK AO2
14837KMSN MSN20050408204009304/08/05 20:40:31  5-MIN KMSN 090240Z 11006KT 10SM CLR 09/M01 A3004 750 47 300 110/06 RMK AO2
14837KMSN MSN20050408204509304/08/05 20:45:31  5-MIN KMSN 090245Z 10007KT 10SM CLR 09/M01 A3004 750 47 300 100/07 RMK AO2
14837KMSN MSN20050408205011604/08/05 20:50:31  5-MIN KMSN 090250Z 10007KT 10SM CLR 09/M01 A3004 760 49 200 100/07 RMK AO2 SLP175 T00891011 56004
14837KMSN MSN20050408205509304/08/05 20:55:31  5-MIN KMSN 090255Z 11007KT 10SM CLR 08/M01 A3004 750 51 200 110/07 RMK AO2
14837KMSN MSN20050408210009304/08/05 21:00:31  5-MIN KMSN 090300Z 11007KT 10SM CLR 08/M01 A3004 760 51 200 110/07 RMK AO2
14837KMSN MSN20050408210509304/08/05 21:05:31  5-MIN KMSN 090305Z 11008KT 10SM CLR 08/M01 A3004 760 51 200 110/08 RMK AO2
14837KMSN MSN20050408211009304/08/05 21:10:31  5-MIN KMSN 090310Z 11008KT 10SM CLR 09/M01 A3004 760 49 200 110/08 RMK AO2
14837KMSN MSN20050408211509304/08/05 21:15:31  5-MIN KMSN 090315Z 12007KT 10SM CLR 09/M01 A3004 760 49 200 120/07 RMK AO2
14837KMSN MSN20050408212009304/08/05 21:20:31  5-MIN KMSN 090320Z 12006KT 10SM CLR 09/M01 A3004 760 49 200 120/06 RMK AO2
14837KMSN MSN20050408212509304/08/05 21:25:31  5-MIN KMSN 090325Z 11007KT 10SM CLR 09/M02 A3004 760 45 200 110/07 RMK AO2
14837KMSN MSN20050408213009304/08/05 21:30:31  5-MIN KMSN 090330Z 11008KT 10SM CLR 08/M02 A3003 760 47 200 110/08 RMK AO2
14837KMSN MSN20050408213509304/08/05 21:35:31  5-MIN KMSN 090335Z 11008KT 10SM CLR 08/M02 A3003 760 49 100 110/08 RMK AO2
14837KMSN MSN20050408214009304/08/05 21:40:31  5-MIN KMSN 090340Z 10009KT 10SM CLR 08/M02 A3003 760 49 100 100/09 RMK AO2
14837KMSN MSN20050408214509304/08/05 21:45:31  5-MIN KMSN 090345Z 11009KT 10SM CLR 08/M03 A3003 760 47 100 110/09 RMK AO2
14837KMSN MSN20050408215011004/08/05 21:50:31  5-MIN KMSN 090350Z 11009KT 10SM CLR 08/M03 A3003 760 47 100 110/09 RMK AO2 SLP172 T00781028
14837KMSN MSN20050408215509304/08/05 21:55:31  5-MIN KMSN 090355Z 11009KT 10SM CLR 08/M04 A3003 760 42 200 110/09 RMK AO2
14837KMSN MSN20050408220009304/08/05 22:00:31  5-MIN KMSN 090400Z 11009KT 10SM CLR 08/M04 A3003 760 42 200 110/09 RMK AO2
14837KMSN MSN20050408220509304/08/05 22:05:31  5-MIN KMSN 090405Z 11008KT 10SM CLR 08/M04 A3003 760 42 200 110/08 RMK AO2
14837KMSN MSN20050408221009304/08/05 22:10:31  5-MIN KMSN 090410Z 11008KT 10SM CLR 08/M04 A3003 760 43 100 110/08 RMK AO2
14837KMSN MSN20050408221509304/08/05 22:15:31  5-MIN KMSN 090415Z 11009KT 10SM CLR 08/M04 A3003 770 41 100 110/09 RMK AO2
14837KMSN MSN20050408222009304/08/05 22:20:31  5-MIN KMSN 090420Z 11009KT 10SM CLR 08/M04 A3003 770 41 100 100/09 RMK AO2
14837KMSN MSN20050408222509304/08/05 22:25:31  5-MIN KMSN 090425Z 11009KT 10SM CLR 08/M04 A3002 770 41 100 100/09 RMK AO2
14837KMSN MSN20050408223009304/08/05 22:30:31  5-MIN KMSN 090430Z 11009KT 10SM CLR 08/M04 A3003 770 43 100 110/09 RMK AO2
14837KMSN MSN20050408223509304/08/05 22:35:31  5-MIN KMSN 090435Z 11007KT 10SM CLR 07/M04 A3002 770 45 100 110/07 RMK AO2
14837KMSN MSN20050408224009304/08/05 22:40:31  5-MIN KMSN 090440Z 11008KT 10SM CLR 07/M04 A3003 770 43 100 110/08 RMK AO2
14837KMSN MSN20050408224509304/08/05 22:45:31  5-MIN KMSN 090445Z 11007KT 10SM CLR 07/M04 A3003 770 45 100 110/07 RMK AO2
14837KMSN MSN20050408225011004/08/05 22:50:31  5-MIN KMSN 090450Z 11007KT 10SM CLR 07/M04 A3003 770 45 100 110/07 RMK AO2 SLP170 T00721039
14837KMSN MSN20050408225509304/08/05 22:55:31  5-MIN KMSN 090455Z 12006KT 10SM CLR 07/M04 A3003 760 45 100 110/06 RMK AO2
14837KMSN MSN20050408230009304/08/05 23:00:31  5-MIN KMSN 090500Z 11005KT 10SM CLR 07/M04 A3003 760 43 100 110/05 RMK AO2
14837KMSN MSN20050408230509304/08/05 23:05:31  5-MIN KMSN 090505Z 11006KT 10SM CLR 07/M04 A3003 760 45 100 110/06 RMK AO2
14837KMSN MSN20050408231009104/08/05 23:10:31  5-MIN KMSN 090510Z 11006KT 10SM CLR 07/M04 A3003 760 47 0 110/06 RMK AO2
14837KMSN MSN20050408231509104/08/05 23:15:31  5-MIN KMSN 090515Z 11005KT 10SM CLR 07/M04 A3003 760 47 0 110/05 RMK AO2
14837KMSN MSN20050408232009104/08/05 23:20:31  5-MIN KMSN 090520Z 11005KT 10SM CLR 07/M04 A3003 760 43 0 110/05 RMK AO2
14837KMSN MSN20050408232509104/08/05 23:25:31  5-MIN KMSN 090525Z 11004KT 10SM CLR 07/M04 A3003 760 47 0 110/04 RMK AO2
14837KMSN MSN20050408233009104/08/05 23:30:31  5-MIN KMSN 090530Z 11004KT 10SM CLR 07/M04 A3003 760 47 0 110/04 RMK AO2
14837KMSN MSN20050408233509104/08/05 23:35:31  5-MIN KMSN 090535Z 10005KT 10SM CLR 07/M04 A3003 760 47 0 100/05 RMK AO2
14837KMSN MSN20050408234009404/08/05 23:40:31  5-MIN KMSN 090540Z 10005KT 10SM CLR 06/M04 A3003 760 50 -100 100/05 RMK AO2
14837KMSN MSN20050408234509404/08/05 23:45:31  5-MIN KMSN 090545Z 11006KT 10SM CLR 06/M03 A3003 760 53 -100 110/06 RMK AO2
14837KMSN MSN20050408235013904/08/05 23:50:31  5-MIN KMSN 090550Z 11006KT 10SM CLR 06/M03 A3003 760 53 -100 110/06 RMK AO2 SLP172 T00561033 10156 20056 401940022 53008
14837KMSN MSN20050408235509104/08/05 23:55:31  5-MIN KMSN 090555Z 12004KT 10SM CLR 06/M03 A3003 760 51 0 120/04 RMK AO2
14837KMSN MSN20050409000009104/09/05 00:00:31  5-MIN KMSN 090600Z 12004KT 10SM CLR 07/M03 A3003 760 49 0 120/04 RMK AO2
14837KMSN MSN20050409000509104/09/05 00:05:31  5-MIN KMSN 090605Z 12004KT 10SM CLR 06/M04 A3003 760 48 0 110/04 RMK AO2
14837KMSN MSN20050409001009104/09/05 00:10:31  5-MIN KMSN 090610Z 11006KT 10SM CLR 06/M04 A3003 760 48 0 110/06 RMK AO2
14837KMSN MSN20050409001509104/09/05 00:15:31  5-MIN KMSN 090615Z 11005KT 10SM CLR 06/M04 A3003 760 48 0 110/05 RMK AO2
14837KMSN MSN20050409002009404/09/05 00:20:31  5-MIN KMSN 090620Z 11005KT 10SM CLR 06/M04 A3003 770 50 -100 110/05 RMK AO2
14837KMSN MSN20050409002509404/09/05 00:25:31  5-MIN KMSN 090625Z 12005KT 10SM CLR 06/M04 A3003 770 50 -100 110/05 RMK AO2
14837KMSN MSN20050409003009404/09/05 00:30:31  5-MIN KMSN 090630Z 11006KT 10SM CLR 06/M04 A3003 770 50 -100 110/06 RMK AO2
14837KMSN MSN20050409003509404/09/05 00:35:31  5-MIN KMSN 090635Z 12005KT 10SM CLR 06/M04 A3003 770 50 -100 110/05 RMK AO2
14837KMSN MSN20050409004009404/09/05 00:40:31  5-MIN KMSN 090640Z 12004KT 10SM CLR 06/M03 A3002 770 53 -100 120/04 RMK AO2
14837KMSN MSN20050409004509404/09/05 00:45:31  5-MIN KMSN 090645Z 12004KT 10SM CLR 06/M03 A3002 770 53 -100 120/04 RMK AO2
14837KMSN MSN20050409005011104/09/05 00:50:31  5-MIN KMSN 090650Z 11005KT 10SM CLR 06/M03 A3002 770 53 -100 110/05 RMK AO2 SLP167 T00561033
14837KMSN MSN20050409005509404/09/05 00:55:31  5-MIN KMSN 090655Z 11006KT 10SM CLR 05/M03 A3002 770 55 -200 110/06 RMK AO2
14837KMSN MSN20050409010009404/09/05 01:00:31  5-MIN KMSN 090700Z 11006KT 10SM CLR 05/M03 A3002 780 55 -200 110/06 RMK AO2
14837KMSN MSN20050409010509404/09/05 01:05:31  5-MIN KMSN 090705Z 12006KT 10SM CLR 05/M03 A3001 780 55 -200 110/06 RMK AO2
14837KMSN MSN20050409011009404/09/05 01:10:31  5-MIN KMSN 090710Z 12004KT 10SM CLR 05/M03 A3001 780 55 -200 120/04 RMK AO2
14837KMSN MSN20050409011509404/09/05 01:15:31  5-MIN KMSN 090715Z 12004KT 10SM CLR 05/M03 A3001 780 55 -100 120/04 RMK AO2
14837KMSN MSN20050409012009404/09/05 01:20:31  5-MIN KMSN 090720Z 12004KT 10SM CLR 04/M03 A3001 780 57 -200 120/04 RMK AO2
14837KMSN MSN20050409012509404/09/05 01:25:31  5-MIN KMSN 090725Z 12004KT 10SM CLR 04/M03 A3000 790 57 -200 120/04 RMK AO2
14837KMSN MSN20050409013009404/09/05 01:30:31  5-MIN KMSN 090730Z 12003KT 10SM CLR 05/M03 A3000 790 55 -100 120/03 RMK AO2
14837KMSN MSN20050409013509404/09/05 01:35:31  5-MIN KMSN 090735Z 12003KT 10SM CLR 06/M04 A3000 790 50 -100 120/03 RMK AO2
14837KMSN MSN20050409014009404/09/05 01:40:31  5-MIN KMSN 090740Z 13003KT 10SM CLR 06/M04 A3000 790 50 -100 130/03 RMK AO2
14837KMSN MSN20050409014509404/09/05 01:45:31  5-MIN KMSN 090745Z VRB03KT 10SM CLR 06/M04 A3000 790 50 -100 VRB/03 RMK AO2
14837KMSN MSN20050409015011104/09/05 01:50:31  5-MIN KMSN 090750Z 13004KT 10SM CLR 06/M04 A3000 790 50 -100 130/04 RMK AO2 SLP160 T00561039
14837KMSN MSN20050409015509404/09/05 01:55:31  5-MIN KMSN 090755Z 13005KT 10SM CLR 05/M04 A3000 790 52 -100 130/05 RMK AO2
14837KMSN MSN20050409020009404/09/05 02:00:31  5-MIN KMSN 090800Z 13006KT 10SM CLR 05/M03 A2999 800 55 -100 130/06 RMK AO2
14837KMSN MSN20050409020509404/09/05 02:05:31  5-MIN KMSN 090805Z 13005KT 10SM CLR 05/M03 A3000 790 55 -100 130/05 RMK AO2
14837KMSN MSN20050409021009404/09/05 02:10:31  5-MIN KMSN 090810Z 14006KT 10SM CLR 06/M03 A3000 790 53 -100 140/06 RMK AO2
14837KMSN MSN20050409021509404/09/05 02:15:31  5-MIN KMSN 090815Z 14006KT 10SM CLR 06/M03 A3000 790 53 -100 140/06 RMK AO2
14837KMSN MSN20050409022009404/09/05 02:20:31  5-MIN KMSN 090820Z 14006KT 10SM CLR 06/M03 A3000 790 53 -100 130/06 RMK AO2
14837KMSN MSN20050409022509404/09/05 02:25:31  5-MIN KMSN 090825Z 13005KT 10SM CLR 05/M04 A3000 790 52 -100 130/05 RMK AO2
14837KMSN MSN20050409023009404/09/05 02:30:31  5-MIN KMSN 090830Z 14004KT 10SM CLR 05/M03 A3000 790 55 -100 140/04 RMK AO2
14837KMSN MSN20050409023509404/09/05 02:35:31  5-MIN KMSN 090835Z 14004KT 10SM CLR 05/M03 A3000 790 55 -100 140/04 RMK AO2
14837KMSN MSN20050409024009404/09/05 02:40:31  5-MIN KMSN 090840Z 14004KT 10SM CLR 06/M03 A3000 790 53 -100 140/04 RMK AO2
14837KMSN MSN20050410015011004/10/05 01:50:31  5-MIN KMSN 100750Z 00000KT 10SM CLR 07/02 A2996 830 70  100 000/00 RMK AO2 SLP145 T00720022
14837KMSN MSN20050410015509304/10/05 01:55:31  5-MIN KMSN 100755Z 00000KT 10SM CLR 07/02 A2996 830 73  100 000/00 RMK AO2
14837KMSN MSN20050410020009304/10/05 02:00:31  5-MIN KMSN 100800Z 34003KT 10SM CLR 07/02 A2996 830 70  100 340/03 RMK AO2
14837KMSN MSN20050410020509304/10/05 02:05:31  5-MIN KMSN 100805Z 36003KT 10SM CLR 07/01 A2996 830 62  100 360/03 RMK AO2
14837KMSN MSN20050410021009304/10/05 02:10:31  5-MIN KMSN 100810Z 02003KT 10SM CLR 07/01 A2996 830 65  100 020/03 RMK AO2
14837KMSN MSN20050410021509304/10/05 02:15:31  5-MIN KMSN 100815Z 05003KT 10SM CLR 07/01 A2996 830 65  100 050/03 RMK AO2
14837KMSN MSN20050410022009004/10/05 02:20:31  5-MIN KMSN 100820Z 05004KT 10SM CLR 06/01 A2996 830 67 0 050/04 RMK AO2
14837KMSN MSN20050410022509304/10/05 02:25:31  5-MIN KMSN 100825Z 05003KT 10SM CLR 07/01 A2996 830 65  100 050/03 RMK AO2
14837KMSN MSN20050410023009004/10/05 02:30:31  5-MIN KMSN 100830Z 04003KT 10SM CLR 06/01 A2996 820 67 0 040/03 RMK AO2
14837KMSN MSN20050410023509004/10/05 02:35:31  5-MIN KMSN 100835Z 03003KT 10SM CLR 06/01 A2996 820 67 0 030/03 RMK AO2
14837KMSN MSN20050410024009004/10/05 02:40:31  5-MIN KMSN 100840Z 01003KT 10SM CLR 06/01 A2996 830 67 0 010/03 RMK AO2
14837KMSN MSN20050410024509304/10/05 02:45:31  5-MIN KMSN 100845Z 36003KT 10SM CLR 07/01 A2996 830 67  100 360/03 RMK AO2
14837KMSN MSN20050410025011204/10/05 02:50:31  5-MIN KMSN 100850Z 01003KT 9SM CLR 06/02 A2996 830 76 0 360/03 RMK AO2 SLP146 T00610022 52005
14837KMSN MSN20050410025508904/10/05 02:55:31  5-MIN KMSN 100855Z 02003KT 9SM CLR 06/01 A2996 830 70 0 020/03 RMK AO2
14837KMSN MSN20050410030009204/10/05 03:00:31  5-MIN KMSN 100900Z 03004KT 9SM CLR 07/01 A2996 830 67  100 030/04 RMK AO2
14837KMSN MSN20050410030509304/10/05 03:05:31  5-MIN KMSN 100905Z 03003KT 10SM CLR 07/01 A2996 830 67  100 030/03 RMK AO2
14837KMSN MSN20050410031009304/10/05 03:10:31  5-MIN KMSN 100910Z 04004KT 10SM CLR 07/01 A2996 830 67  100 040/04 RMK AO2
14837KMSN MSN20050410031509304/10/05 03:15:31  5-MIN KMSN 100915Z 04004KT 10SM CLR 07/01 A2996 830 62  100 040/04 RMK AO2
14837KMSN MSN20050410032009304/10/05 03:20:31  5-MIN KMSN 100920Z 05004KT 10SM CLR 07/01 A2996 830 62  100 050/04 RMK AO2
14837KMSN MSN20050410032509304/10/05 03:25:31  5-MIN KMSN 100925Z 05004KT 10SM CLR 07/01 A2995 830 62  100 050/04 RMK AO2
14837KMSN MSN20050410033009304/10/05 03:30:31  5-MIN KMSN 100930Z 05004KT 10SM CLR 07/01 A2995 830 62  100 050/04 RMK AO2
14837KMSN MSN20050410033509304/10/05 03:35:31  5-MIN KMSN 100935Z 06004KT 10SM CLR 07/01 A2996 830 65  100 060/04 RMK AO2
14837KMSN MSN20050410034009304/10/05 03:40:31  5-MIN KMSN 100940Z 05003KT 10SM CLR 07/01 A2996 830 65  100 050/03 RMK AO2
14837KMSN MSN20050410034509304/10/05 03:45:31  5-MIN KMSN 100945Z 06003KT 10SM CLR 07/01 A2996 830 62  100 060/03 RMK AO2
14837KMSN MSN20050410035011004/10/05 03:50:31  5-MIN KMSN 100950Z 07003KT 10SM CLR 07/01 A2996 830 65  100 060/03 RMK AO2 SLP145 T00670006
14837KMSN MSN20050410035509304/10/05 03:55:31  5-MIN KMSN 100955Z 00000KT 10SM CLR 07/01 A2996 830 65  100 000/00 RMK AO2
14837KMSN MSN20050410040009304/10/05 04:00:31  5-MIN KMSN 101000Z 00000KT 10SM CLR 07/01 A2996 830 65  100 000/00 RMK AO2
14837KMSN MSN20050410040509304/10/05 04:05:31  5-MIN KMSN 101005Z 00000KT 10SM CLR 07/01 A2996 830 65  100 000/00 RMK AO2
14837KMSN MSN20050410041009304/10/05 04:10:31  5-MIN KMSN 101010Z 00000KT 10SM CLR 07/01 A2996 830 65  100 000/00 RMK AO2
14837KMSN MSN20050410041509304/10/05 04:15:31  5-MIN KMSN 101015Z 00000KT 10SM CLR 07/01 A2996 830 67  100 000/00 RMK AO2
14837KMSN MSN20050410042009304/10/05 04:20:31  5-MIN KMSN 101020Z 00000KT 10SM CLR 07/01 A2996 830 62  100 000/00 RMK AO2
14837KMSN MSN20050410042509304/10/05 04:25:31  5-MIN KMSN 101025Z 00000KT 10SM CLR 07/01 A2996 830 62  100 000/00 RMK AO2
14837KMSN MSN20050410043009304/10/05 04:30:31  5-MIN KMSN 101030Z 00000KT 10SM CLR 07/01 A2996 830 65  100 000/00 RMK AO2
14837KMSN MSN20050410043509004/10/05 04:35:31  5-MIN KMSN 101035Z 00000KT 10SM CLR 06/01 A2996 830 67 0 000/00 RMK AO2
14837KMSN MSN20050410044009004/10/05 04:40:31  5-MIN KMSN 101040Z 02003KT 10SM CLR 06/01 A2996 830 67 0 020/03 RMK AO2
14837KMSN MSN20050410044508904/10/05 04:45:31  5-MIN KMSN 101045Z 00000KT 9SM CLR 06/02 A2996 830 76 0 000/00 RMK AO2
14837KMSN MSN20050410045010604/10/05 04:50:31  5-MIN KMSN 101050Z 00000KT 9SM CLR 06/02 A2996 830 73 0 000/00 RMK AO2 SLP145 T00610017
14837KMSN MSN20050410045509204/10/05 04:55:31  5-MIN KMSN 101055Z 00000KT 9SM CLR 07/01 A2996 830 67  100 000/00 RMK AO2
14837KMSN MSN20050410050009304/10/05 05:00:31  5-MIN KMSN 101100Z 06004KT 10SM CLR 07/01 A2995 830 65  100 050/04 RMK AO2
14837KMSN MSN20050410050509204/10/05 05:05:31  5-MIN KMSN 101105Z 07004KT 9SM CLR 07/01 A2996 830 65  100 070/04 RMK AO2
14837KMSN MSN20050410051009204/10/05 05:10:31  5-MIN KMSN 101110Z 09003KT 9SM CLR 07/01 A2996 830 65  100 090/03 RMK AO2
14837KMSN MSN20050410051509304/10/05 05:15:31  5-MIN KMSN 101115Z 00000KT 10SM CLR 07/01 A2996 830 62  100 000/00 RMK AO2
14837KMSN MSN20050410052009204/10/05 05:20:31  5-MIN KMSN 101120Z 08003KT 9SM CLR 07/01 A2996 830 62  100 080/03 RMK AO2
14837KMSN MSN20050410052509204/10/05 05:25:31  5-MIN KMSN 101125Z 08003KT 9SM CLR 07/01 A2996 830 65  100 070/03 RMK AO2
14837KMSN MSN20050410053009204/10/05 05:30:31  5-MIN KMSN 101130Z 08003KT 8SM CLR 07/01 A2996 830 62  100 070/03 RMK AO2
14837KMSN MSN20050410053509204/10/05 05:35:31  5-MIN KMSN 101135Z 11003KT 8SM CLR 07/01 A2996 830 65  100 110/03 RMK AO2
14837KMSN MSN20050410054009204/10/05 05:40:31  5-MIN KMSN 101140Z 07003KT 8SM CLR 08/01 A2996 830 62  200 070/03 RMK AO2
14837KMSN MSN20050410054509204/10/05 05:45:31  5-MIN KMSN 101145Z 06003KT 8SM CLR 08/01 A2996 830 62  200 060/03 RMK AO2
14837KMSN MSN20050410055012704/10/05 05:50:31  5-MIN KMSN 101150Z 07004KT 8SM CLR 07/02 A2996 830 68  100 070/04 RMK AO2 SLP146 T00720017 10094 20061 51005
14837KMSN MSN20050410055509204/10/05 05:55:31  5-MIN KMSN 101155Z 09004KT 8SM CLR 08/02 A2996 830 68  200 080/04 RMK AO2
14837KMSN MSN20050410060009204/10/05 06:00:31  5-MIN KMSN 101200Z 09004KT 8SM CLR 09/02 A2996 830 63  300 090/04 RMK AO2
14837KMSN MSN20050410060509204/10/05 06:05:31  5-MIN KMSN 101205Z 10005KT 8SM CLR 09/03 A2996 830 65  300 100/05 RMK AO2
14837KMSN MSN20050410061009204/10/05 06:10:31  5-MIN KMSN 101210Z 11006KT 8SM CLR 10/03 A2996 820 63  500 110/06 RMK AO2
14837KMSN MSN20050410061509204/10/05 06:15:31  5-MIN KMSN 101215Z 11006KT 8SM CLR 10/03 A2996 820 63  500 100/06 RMK AO2
14837KMSN MSN20050410062009204/10/05 06:20:31  5-MIN KMSN 101220Z 11006KT 8SM CLR 10/03 A2997 820 60  500 110/06 RMK AO2
14837KMSN MSN20050410062509204/10/05 06:25:31  5-MIN KMSN 101225Z 10007KT 8SM CLR 10/03 A2997 820 60  500 100/07 RMK AO2
14837KMSN MSN20050410063009204/10/05 06:30:31  5-MIN KMSN 101230Z 11006KT 8SM CLR 10/03 A2997 820 60  500 110/06 RMK AO2
14837KMSN MSN20050410063509204/10/05 06:35:31  5-MIN KMSN 101235Z 11006KT 8SM CLR 10/03 A2997 820 60  500 110/06 RMK AO2
14837KMSN MSN20050410064009204/10/05 06:40:31  5-MIN KMSN 101240Z 11006KT 8SM CLR 11/03 A2997 820 58  500 110/06 RMK AO2
14837KMSN MSN20050410064509204/10/05 06:45:31  5-MIN KMSN 101245Z 11007KT 8SM CLR 11/03 A2997 820 58  500 110/07 RMK AO2
14837KMSN MSN20050410065010904/10/05 06:50:31  5-MIN KMSN 101250Z 11007KT 8SM CLR 11/03 A2997 820 58  500 110/07 RMK AO2 SLP149 T01060028
14837KMSN MSN20050410065509204/10/05 06:55:31  5-MIN KMSN 101255Z 11007KT 8SM CLR 11/03 A2997 820 58  500 110/07 RMK AO2
14837KMSN MSN20050410070009204/10/05 07:00:31  5-MIN KMSN 101300Z 10007KT 8SM CLR 11/02 A2997 820 56  500 100/07 RMK AO2
14837KMSN MSN20050410070509204/10/05 07:05:31  5-MIN KMSN 101305Z 10007KT 8SM CLR 11/03 A2997 820 58  500 100/07 RMK AO2
14837KMSN MSN20050410071009204/10/05 07:10:31  5-MIN KMSN 101310Z 10006KT 8SM CLR 11/03 A2997 820 56  600 100/06 RMK AO2
14837KMSN MSN20050410071509204/10/05 07:15:31  5-MIN KMSN 101315Z 11006KT 8SM CLR 11/03 A2997 820 56  600 100/06 RMK AO2
14837KMSN MSN20050410072009204/10/05 07:20:31  5-MIN KMSN 101320Z 10007KT 8SM CLR 12/03 A2997 820 54  700 100/07 RMK AO2
14837KMSN MSN20050410072509204/10/05 07:25:31  5-MIN KMSN 101325Z 10007KT 8SM CLR 12/03 A2996 830 54  700 100/07 RMK AO2
14837KMSN MSN20050410073009204/10/05 07:30:31  5-MIN KMSN 101330Z 11006KT 8SM CLR 12/03 A2996 830 54  700 110/06 RMK AO2
14837KMSN MSN20050410073509204/10/05 07:35:31  5-MIN KMSN 101335Z 11007KT 8SM CLR 13/03 A2996 830 50  800 110/07 RMK AO2
14837KMSN MSN20050410074009204/10/05 07:40:31  5-MIN KMSN 101340Z 12007KT 8SM CLR 13/03 A2996 830 50  900 120/07 RMK AO2
14837KMSN MSN20050410074509204/10/05 07:45:31  5-MIN KMSN 101345Z 14007KT 8SM CLR 13/03 A2996 830 50  900 140/07 RMK AO2
14837KMSN MSN20050410075010904/10/05 07:50:31  5-MIN KMSN 101350Z 12007KT 8SM CLR 14/03 A2996 830 48  900 120/07 RMK AO2 SLP147 T01390033
14837KMSN MSN20050410075509304/10/05 07:55:31  5-MIN KMSN 101355Z 12006KT 8SM CLR 14/04 A2996 830 49  1000 120/06 RMK AO2
14837KMSN MSN20050410080009304/10/05 08:00:31  5-MIN KMSN 101400Z 13008KT 8SM CLR 14/04 A2996 830 49  1000 130/08 RMK AO2
14837KMSN MSN20050410080509304/10/05 08:05:31  5-MIN KMSN 101405Z 12008KT 7SM CLR 15/04 A2995 830 47  1100 120/08 RMK AO2
14837KMSN MSN20050410081009304/10/05 08:10:31  5-MIN KMSN 101410Z 12008KT 7SM CLR 15/04 A2995 830 47  1100 110/08 RMK AO2
14837KMSN MSN20050410081509304/10/05 08:15:31  5-MIN KMSN 101415Z 13007KT 7SM CLR 15/04 A2995 830 47  1100 120/07 RMK AO2
14837KMSN MSN20050410082009304/10/05 08:20:31  5-MIN KMSN 101420Z 12005KT 8SM CLR 16/05 A2995 830 47  1200 120/05 RMK AO2
14837KMSN MSN20050410082509304/10/05 08:25:31  5-MIN KMSN 101425Z 13008KT 8SM CLR 16/04 A2995 830 45  1200 130/08 RMK AO2
14837KMSN MSN20050410083009304/10/05 08:30:31  5-MIN KMSN 101430Z 13007KT 8SM CLR 16/05 A2995 840 47  1200 130/07 RMK AO2
14837KMSN MSN20050410083509304/10/05 08:35:31  5-MIN KMSN 101435Z 13007KT 8SM CLR 17/05 A2995 840 45  1300 130/07 RMK AO2
14837KMSN MSN20050410084009304/10/05 08:40:31  5-MIN KMSN 101440Z 13009KT 8SM CLR 17/06 A2995 840 46  1300 130/09 RMK AO2
14837KMSN MSN20050410084509304/10/05 08:45:31  5-MIN KMSN 101445Z 14010KT 8SM CLR 18/06 A2995 840 44  1400 140/10 RMK AO2
14837KMSN MSN20050410085011604/10/05 08:50:31  5-MIN KMSN 101450Z 13009KT 8SM CLR 18/06 A2996 830 44  1400 130/09 RMK AO2 SLP144 T01780056 53000
14837KMSN MSN20050410085509304/10/05 08:55:31  5-MIN KMSN 101455Z 14010KT 8SM CLR 18/06 A2996 830 44  1400 140/10 RMK AO2
14837KMSN MSN20050410090009304/10/05 09:00:31  5-MIN KMSN 101500Z 15010KT 8SM CLR 18/06 A2997 820 42  1400 150/10 RMK AO2
14837KMSN MSN20050410090509304/10/05 09:05:31  5-MIN KMSN 101505Z 14010KT 8SM CLR 19/06 A2997 820 43  1500 140/10 RMK AO2
14837KMSN MSN20050410091009304/10/05 09:10:31  5-MIN KMSN 101510Z 15009KT 8SM CLR 19/06 A2997 820 41  1500 150/09 RMK AO2
14837KMSN MSN20050410091509304/10/05 09:15:31  5-MIN KMSN 101515Z 14009KT 8SM CLR 20/06 A2996 820 40  1600 140/09 RMK AO2
14837KMSN MSN20050410092009304/10/05 09:20:31  5-MIN KMSN 101520Z 13011KT 8SM CLR 20/07 A2996 830 41  1600 130/11 RMK AO2
14837KMSN MSN20050410092509304/10/05 09:25:31  5-MIN KMSN 101525Z 14011KT 8SM CLR 21/07 A2996 830 40  1700 140/11 RMK AO2
14837KMSN MSN20050410093009304/10/05 09:30:31  5-MIN KMSN 101530Z 13011KT 8SM CLR 20/07 A2995 830 41  1600 130/11 RMK AO2
14837KMSN MSN20050410093509304/10/05 09:35:31  5-MIN KMSN 101535Z 13010KT 8SM CLR 21/07 A2995 830 41  1700 130/10 RMK AO2
14837KMSN MSN20050410094009304/10/05 09:40:31  5-MIN KMSN 101540Z 14013KT 8SM CLR 21/07 A2995 830 41  1700 140/13 RMK AO2
14837KMSN MSN20050410094509304/10/05 09:45:31  5-MIN KMSN 101545Z 13010KT 8SM CLR 21/07 A2995 830 40  1800 120/10 RMK AO2
14837KMSN MSN20050410095011004/10/05 09:50:31  5-MIN KMSN 101550Z 14013KT 8SM CLR 21/07 A2995 830 41  1700 130/13 RMK AO2 SLP142 T02060072
14837KMSN MSN20050410095509304/10/05 09:55:31  5-MIN KMSN 101555Z 13011KT 8SM CLR 22/07 A2996 830 39  1800 130/11 RMK AO2
14837KMSN MSN20050410100009304/10/05 10:00:31  5-MIN KMSN 101600Z 13012KT 8SM CLR 22/08 A2996 830 40  1800 130/12 RMK AO2
14837KMSN MSN20050410100509304/10/05 10:05:31  5-MIN KMSN 101605Z 15009KT 8SM CLR 22/07 A2996 830 39  1800 150/09 RMK AO2
14837KMSN MSN20050410101009304/10/05 10:10:31  5-MIN KMSN 101610Z 13009KT 8SM CLR 22/08 A2996 830 39  1900 130/09 RMK AO2
14837KMSN MSN20050410101509304/10/05 10:15:31  5-MIN KMSN 101615Z 14012KT 8SM CLR 22/08 A2996 830 39  1900 140/12 RMK AO2
14837KMSN MSN20050410102009304/10/05 10:20:31  5-MIN KMSN 101620Z 15010KT 9SM CLR 22/08 A2996 830 39  1900 150/10 RMK AO2
14837KMSN MSN20050410102509304/10/05 10:25:31  5-MIN KMSN 101625Z 13009KT 9SM CLR 23/08 A2996 830 37  2000 130/09 RMK AO2
14837KMSN MSN20050410103009304/10/05 10:30:31  5-MIN KMSN 101630Z 13012KT 9SM CLR 23/08 A2996 830 37  2000 130/12 RMK AO2
14837KMSN MSN20050410103509304/10/05 10:35:31  5-MIN KMSN 101635Z 14013KT 9SM CLR 23/08 A2996 830 38  2000 140/13 RMK AO2
14837KMSN MSN20050410104009304/10/05 10:40:31  5-MIN KMSN 101640Z 14012KT 9SM CLR 23/08 A2996 830 38  2000 140/12 RMK AO2
14837KMSN MSN20050410104509304/10/05 10:45:31  5-MIN KMSN 101645Z 15009KT 9SM CLR 23/08 A2996 830 38  2000 140/09 RMK AO2
14837KMSN MSN20050410105011004/10/05 10:50:31  5-MIN KMSN 101650Z 14011KT 9SM CLR 23/08 A2996 830 38  2000 140/11 RMK AO2 SLP143 T02330083
14837KMSN MSN20050410105509304/10/05 10:55:31  5-MIN KMSN 101655Z 16012KT 9SM CLR 24/08 A2996 830 36  2100 160/12 RMK AO2
14837KMSN MSN20050410110009304/10/05 11:00:31  5-MIN KMSN 101700Z 15014KT 9SM CLR 24/08 A2995 830 36  2100 150/14 RMK AO2
14837KMSN MSN20050410110509404/10/05 11:05:31  5-MIN KMSN 101705Z 16014KT 10SM CLR 24/09 A2995 830 38  2100 150/14 RMK AO2
14837KMSN MSN20050410111010004/10/05 11:10:31  5-MIN KMSN 101710Z 15014G19KT 10SM CLR 24/09 A2995 840  36 2200 150/14G19 RMK AO2
14837KMSN MSN20050410111509404/10/05 11:15:31  5-MIN KMSN 101715Z 13015KT 10SM CLR 24/09 A2995 840 38  2100 130/15 RMK AO2
14837KMSN MSN20050410112009404/10/05 11:20:31  5-MIN KMSN 101720Z 14017KT 10SM CLR 24/09 A2995 840 38  2200 140/17 RMK AO2
14837KMSN MSN20050410112510004/10/05 11:25:31  5-MIN KMSN 101725Z 15016G19KT 10SM CLR 25/09 A2994 840  37 2200 150/16G19 RMK AO2
14837KMSN MSN20050410113010004/10/05 11:30:31  5-MIN KMSN 101730Z 15015G20KT 10SM CLR 25/09 A2994 840  37 2200 150/15G20 RMK AO2
14837KMSN MSN20050410113510004/10/05 11:35:31  5-MIN KMSN 101735Z 13015G20KT 10SM CLR 24/09 A2994 840  38 2200 130/15G20 RMK AO2
14837KMSN MSN20050410114009404/10/05 11:40:31  5-MIN KMSN 101740Z 16015KT 10SM CLR 25/09 A2994 840 37  2200 160/15 RMK AO2
14837KMSN MSN20050410114509404/10/05 11:45:31  5-MIN KMSN 101745Z 14015KT 10SM CLR 25/10 A2994 840 38  2200 140/15 RMK AO2
14837KMSN MSN20050410115013804/10/05 11:50:31  5-MIN KMSN 101750Z 14013G23KT 10SM FEW045 25/09 A2994  850 37 2200 140/13G23 RMK AO2 SLP137 T02500094 10250 20072 58000
14837KMSN MSN20050410115510304/10/05 11:55:31  5-MIN KMSN 101755Z 16015G23KT 10SM FEW045 26/09 A2994  840 35 2300 160/15G23 RMK AO2
14837KMSN MSN20050410120009704/10/05 12:00:31  5-MIN KMSN 101800Z 16013KT 10SM FEW045 25/09 A2994 840  37 2200 150/13 RMK AO2
14837KMSN MSN20050410120511804/10/05 12:05:31  5-MIN KMSN 101805Z 16013G18KT 130V190 10SM FEW045 25/09 A2994 840 37 2200 160/13G18 130V190 RMK AO2
14837KMSN MSN20050410121010304/10/05 12:10:31  5-MIN KMSN 101810Z 15017G23KT 10SM FEW045 26/09 A2994  840 35 2300 150/17G23 RMK AO2
14837KMSN MSN20050410121510304/10/05 12:15:31  5-MIN KMSN 101815Z 16017G23KT 10SM FEW045 26/09 A2994  840 35 2300 160/17G23 RMK AO2
14837KMSN MSN20050410122010304/10/05 12:20:31  5-MIN KMSN 101820Z 18012G19KT 10SM FEW045 26/09 A2994  850 35 2300 180/12G19 RMK AO2
14837KMSN MSN20050410122510304/10/05 12:25:31  5-MIN KMSN 101825Z 15011G17KT 10SM FEW045 26/10 A2994  850 37 2300 150/11G17 RMK AO2
14837KMSN MSN20050410123009704/10/05 12:30:31  5-MIN KMSN 101830Z 15014KT 10SM FEW045 26/10 A2994 850  37 2300 140/14 RMK AO2
14837KMSN MSN20050410123509704/10/05 12:35:31  5-MIN KMSN 101835Z 16014KT 10SM FEW045 25/10 A2994 850  38 2200 160/14 RMK AO2
14837KMSN MSN20050410124009704/10/05 12:40:31  5-MIN KMSN 101840Z 18012KT 10SM FEW045 25/10 A2994 850  38 2200 170/12 RMK AO2
14837KMSN MSN20050410124509704/10/05 12:45:31  5-MIN KMSN 101845Z 17013KT 10SM FEW055 25/10 A2994 850  38 2200 170/13 RMK AO2
14837KMSN MSN20050410125012004/10/05 12:50:31  5-MIN KMSN 101850Z 15012G17KT 10SM SCT060 26/10 A2993  850 36 2400 150/12G17 RMK AO2 SLP133 T02610100
14837KMSN MSN20050410125509704/10/05 12:55:31  5-MIN KMSN 101855Z 18011KT 10SM FEW060 26/11 A2993 860  37 2400 180/11 RMK AO2
14837KMSN MSN20050410130009704/10/05 13:00:31  5-MIN KMSN 101900Z 15012KT 10SM FEW060 26/11 A2993 860  38 2300 150/12 RMK AO2
14837KMSN MSN20050410130510404/10/05 13:05:31  5-MIN KMSN 101905Z 16014KT 10SM FEW060 SCT075 26/10  A2993 860 37 2300 160/14 RMK AO2
14837KMSN MSN20050410131009704/10/05 13:10:31  5-MIN KMSN 101910Z 12012KT 10SM FEW075 26/11 A2992 860  37 2400 120/12 RMK AO2
14837KMSN MSN20050410131510304/10/05 13:15:31  5-MIN KMSN 101915Z 13013G19KT 10SM SCT060 26/10 A2992  860 37 2300 130/13G19 RMK AO2
14837KMSN MSN20050410132010104/10/05 13:20:31  5-MIN KMSN 101920Z 13010G19KT 9SM SCT060 25/10 A2992 860 38 2300 120/10G19 RMK AO2
14837KMSN MSN20050410132509504/10/05 13:25:31  5-MIN KMSN 101925Z 17010KT 9SM SCT060 25/11 A2992 860 39 2300 170/10 RMK AO2
14837KMSN MSN20050410133009504/10/05 13:30:31  5-MIN KMSN 101930Z 15012KT 9SM SCT060 26/10 A2992 860 36 2400 150/12 RMK AO2
14837KMSN MSN20050410133509504/10/05 13:35:31  5-MIN KMSN 101935Z 17012KT 9SM SCT060 26/10 A2992 860 36 2400 170/12 RMK AO2
14837KMSN MSN20050410134009504/10/05 13:40:31  5-MIN KMSN 101940Z 17010KT 9SM SCT060 26/11 A2992 870 38 2300 170/10 RMK AO2
14837KMSN MSN20050410134509504/10/05 13:45:31  5-MIN KMSN 101945Z 13011KT 9SM SCT060 26/10 A2991 870 36 2400 130/11 RMK AO2
14837KMSN MSN20050410135011404/10/05 13:50:31  5-MIN KMSN 101950Z 16016KT 10SM SCT060 25/10 A2991 870  38 2300 160/16 RMK AO2 SLP129 T02500100
14837KMSN MSN20050410135509504/10/05 13:55:31  5-MIN KMSN 101955Z 16012KT 9SM FEW065 26/11 A2991 870 37 2400 160/12 RMK AO2
14837KMSN MSN20050410140009304/10/05 14:00:31  5-MIN KMSN 102000Z 14013KT 9SM CLR 26/10 A2991 870 37  2300 140/13 RMK AO2
14837KMSN MSN20050410140509504/10/05 14:05:31  5-MIN KMSN 102005Z 15012KT 9SM SCT060 26/11 A2991 870 38 2300 150/12 RMK AO2
14837KMSN MSN20050410141009504/10/05 14:10:31  5-MIN KMSN 102010Z 14011KT 9SM SCT060 25/11 A2991 870 39 2300 130/11 RMK AO2
14837KMSN MSN20050410141509504/10/05 14:15:31  5-MIN KMSN 102015Z 16013KT 9SM SCT060 26/11 A2991 870 38 2300 160/13 RMK AO2
14837KMSN MSN20050410142009504/10/05 14:20:31  5-MIN KMSN 102020Z 17009KT 9SM SCT060 26/11 A2990 880 37 2400 170/09 RMK AO2
14837KMSN MSN20050410142510104/10/05 14:25:31  5-MIN KMSN 102025Z 13012G16KT 9SM SCT060 27/11 A2990 880 34 2500 130/12G16 RMK AO2
14837KMSN MSN20050410143009504/10/05 14:30:31  5-MIN KMSN 102030Z 17013KT 9SM SCT060 26/10 A2990 880 36 2400 170/13 RMK AO2
14837KMSN MSN20050410143509504/10/05 14:35:31  5-MIN KMSN 102035Z 15010KT 9SM SCT060 26/10 A2990 880 37 2300 150/10 RMK AO2
14837KMSN MSN20050410144009504/10/05 14:40:31  5-MIN KMSN 102040Z 16012KT 9SM SCT060 26/10 A2990 880 37 2300 160/12 RMK AO2
14837KMSN MSN20050410144510204/10/05 14:45:31  5-MIN KMSN 102045Z 15011KT 9SM SCT060 BKN080 25/10 A2990 880 38 2300 150/11 RMK AO2
14837KMSN MSN20050410145012504/10/05 14:50:31  5-MIN KMSN 102050Z 15010KT 9SM SCT060 BKN080 25/10 A2990 880 38 2300 150/10 RMK AO2 SLP125 T02500100 58005
14837KMSN MSN20050410145510204/10/05 14:55:31  5-MIN KMSN 102055Z 14010KT 9SM SCT075 BKN090 25/10 A2990 880 38 2300 140/10 RMK AO2
14837KMSN MSN20050410150010204/10/05 15:00:31  5-MIN KMSN 102100Z 14015KT 9SM FEW075 BKN090 26/10 A2990 880 37 2300 140/15 RMK AO2
14837KMSN MSN20050410150510404/10/05 15:05:31  5-MIN KMSN 102105Z 13013KT 10SM FEW075 SCT090 26/10  A2990 880 36 2400 120/13 RMK AO2
14837KMSN MSN20050410151010404/10/05 15:10:31  5-MIN KMSN 102110Z 12011KT 10SM FEW075 SCT095 26/10  A2990 880 37 2300 120/11 RMK AO2
14837KMSN MSN20050410151510404/10/05 15:15:31  5-MIN KMSN 102115Z 13011KT 10SM FEW070 SCT095 26/10  A2990 890 37 2300 130/11 RMK AO2
14837KMSN MSN20050410152010404/10/05 15:20:31  5-MIN KMSN 102120Z 13012KT 10SM FEW070 SCT090 26/10  A2990 890 37 2300 130/12 RMK AO2
14837KMSN MSN20050410152510404/10/05 15:25:31  5-MIN KMSN 102125Z 13013KT 10SM FEW070 BKN090 26/10  A2990 880 37 2300 130/13 RMK AO2
14837KMSN MSN20050410153010204/10/05 15:30:31  5-MIN KMSN 102130Z 14013KT 9SM FEW070 BKN090 26/10 A2990 890 37 2300 140/13 RMK AO2
14837KMSN MSN20050410153510204/10/05 15:35:31  5-MIN KMSN 102135Z 13012KT 9SM FEW070 BKN090 26/10 A2990 890 37 2300 130/12 RMK AO2
14837KMSN MSN20050410154010204/10/05 15:40:31  5-MIN KMSN 102140Z 13011KT 9SM SCT070 BKN085 26/10 A2990 890 37 2300 130/11 RMK AO2
14837KMSN MSN20050410154509704/10/05 15:45:31  5-MIN KMSN 102145Z 10015KT 10SM BKN070 26/11 A2990 880  38 2300 100/15 RMK AO2
14837KMSN MSN20050410155012104/10/05 15:50:31  5-MIN KMSN 102150Z 09013KT 10SM BKN065 BKN080 25/11  A2990 880 39 2300 090/13 RMK AO2 SLP124 T02500106
14837KMSN MSN20050410155510904/10/05 15:55:31  5-MIN KMSN 102155Z 10016G20KT 9SM BKN070 BKN080 24/10  A2990 880 39 2200 100/16G20 RMK AO2
14837KMSN MSN20050410160009504/10/05 16:00:31  5-MIN KMSN 102200Z 10017KT 9SM BKN070 24/10 A2990 880 41 2200 100/17 RMK AO2
14837KMSN MSN20050410160510904/10/05 16:05:31  5-MIN KMSN 102205Z 10018G22KT 9SM BKN070 BKN080 24/10  A2990 880 41 2200 100/18G22 RMK AO2
14837KMSN MSN20050410161010904/10/05 16:10:31  5-MIN KMSN 102210Z 10018G22KT 9SM BKN070 BKN085 23/09  A2990 880 41 2100 100/18G22 RMK AO2
14837KMSN MSN20050410161509504/10/05 16:15:31  5-MIN KMSN 102215Z 10018KT 9SM BKN070 23/10 A2990 880 42 2100 100/18 RMK AO2
14837KMSN MSN20050410162010104/10/05 16:20:31  5-MIN KMSN 102220Z 09015G21KT 9SM BKN070 23/10 A2990 880 42 2100 090/15G21 RMK AO2
14837KMSN MSN20050410162510104/10/05 16:25:31  5-MIN KMSN 102225Z 10016G21KT 9SM BKN070 23/10 A2990 880 42 2100 100/16G21 RMK AO2
14837KMSN MSN20050410163009504/10/05 16:30:31  5-MIN KMSN 102230Z 10014KT 9SM BKN070 23/10 A2990 880 44 2000 100/14 RMK AO2
14837KMSN MSN20050410163509504/10/05 16:35:31  5-MIN KMSN 102235Z 09014KT 9SM BKN070 23/10 A2990 880 44 2000 090/14 RMK AO2
14837KMSN MSN20050410164010204/10/05 16:40:31  5-MIN KMSN 102240Z 09017KT 9SM BKN070 BKN080 23/09 A2991 880 42 2000 090/17 RMK AO2
14837KMSN MSN20050410164510204/10/05 16:45:31  5-MIN KMSN 102245Z 09016KT 9SM BKN070 BKN080 23/09 A2991 880 42 2000 090/16 RMK AO2
14837KMSN MSN20050410165012604/10/05 16:50:31  5-MIN KMSN 102250Z 09016G22KT 9SM BKN070 BKN080 23/09  A2991 880 42 2000 090/16G22 RMK AO2 SLP128 T02280094
14837KMSN MSN20050410165510104/10/05 16:55:31  5-MIN KMSN 102255Z 09016G22KT 9SM BKN070 22/09 A2991 880 43 2000 090/16G22 RMK AO2
14837KMSN MSN20050410170010104/10/05 17:00:31  5-MIN KMSN 102300Z 09013G22KT 9SM BKN070 22/09 A2991 880 43 2000 090/13G22 RMK AO2
14837KMSN MSN20050410170509504/10/05 17:05:31  5-MIN KMSN 102305Z 10015KT 9SM SCT070 22/09 A2991 880 45 1900 100/15 RMK AO2
14837KMSN MSN20050410171010104/10/05 17:10:31  5-MIN KMSN 102310Z 08017G23KT 9SM SCT070 22/09 A2991 880 43 1900 080/17G23 RMK AO2
14837KMSN MSN20050410171510104/10/05 17:15:31  5-MIN KMSN 102315Z 10016G23KT 9SM SCT070 22/09 A2991 880 43 1900 100/16G23 RMK AO2
14837KMSN MSN20050410172010104/10/05 17:20:31  5-MIN KMSN 102320Z 09017G22KT 9SM BKN070 22/09 A2991 870 43 1900 090/17G22 RMK AO2
14837KMSN MSN20050410172510104/10/05 17:25:31  5-MIN KMSN 102325Z 09018G22KT 9SM BKN070 22/09 A2991 870 43 1900 090/18G22 RMK AO2
14837KMSN MSN20050410173009504/10/05 17:30:31  5-MIN KMSN 102330Z 09019KT 9SM BKN070 22/08 A2991 880 42 1900 090/19 RMK AO2
14837KMSN MSN20050410173509504/10/05 17:35:31  5-MIN KMSN 102335Z 09015KT 9SM BKN070 22/08 A2991 880 42 1900 090/15 RMK AO2
14837KMSN MSN20050410174010104/10/05 17:40:31  5-MIN KMSN 102340Z 09017G21KT 9SM BKN070 21/08 A2991 880 43 1800 090/17G21 RMK AO2
14837KMSN MSN20050410174510104/10/05 17:45:31  5-MIN KMSN 102345Z 09018G21KT 9SM BKN070 21/08 A2990 880 43 1800 090/18G21 RMK AO2
14837KMSN MSN20050410175013004/10/05 17:50:31  5-MIN KMSN 102350Z 09014KT 9SM BKN070 21/08 A2991 880 43 1800 090/14 RMK AO2 SLP128 T02110083 10272 20211 58014
14837KMSN MSN20050410175510404/10/05 17:55:31  5-MIN KMSN 102355Z 09015KT 10SM FEW070 BKN080 21/08  A2991 880 43 1800 090/15 RMK AO2
14837KMSN MSN20050410180011004/10/05 18:00:31  5-MIN KMSN 110000Z 09016G21KT 10SM FEW070 BKN080 21/08  A2991 870 43 1800 090/16G21 RMK AO2
14837KMSN MSN20050410180510404/10/05 18:05:31  5-MIN KMSN 110005Z 09015KT 10SM FEW070 BKN080 20/07  A2991 880 43 1700 090/15 RMK AO2
14837KMSN MSN20050410181010404/10/05 18:10:31  5-MIN KMSN 110010Z 09015KT 10SM FEW070 BKN080 20/07  A2991 870 43 1700 090/15 RMK AO2
14837KMSN MSN20050410181509704/10/05 18:15:31  5-MIN KMSN 110015Z 09012KT 10SM SCT080 20/07 A2991 870  43 1700 090/12 RMK AO2
14837KMSN MSN20050410182009704/10/05 18:20:31  5-MIN KMSN 110020Z 09012KT 10SM SCT080 19/07 A2991 870  44 1600 090/12 RMK AO2
14837KMSN MSN20050410182509704/10/05 18:25:31  5-MIN KMSN 110025Z 09013KT 10SM BKN080 19/07 A2992 870  44 1600 090/13 RMK AO2
14837KMSN MSN20050410183009704/10/05 18:30:31  5-MIN KMSN 110030Z 09015KT 10SM BKN080 19/07 A2992 870  43 1600 090/15 RMK AO2
14837KMSN MSN20050410183509704/10/05 18:35:31  5-MIN KMSN 110035Z 09015KT 10SM BKN080 19/06 A2992 870  41 1600 090/15 RMK AO2
14837KMSN MSN20050410184009704/10/05 18:40:31  5-MIN KMSN 110040Z 10016KT 10SM BKN080 19/06 A2992 870  40 1600 100/16 RMK AO2
14837KMSN MSN20050410184509704/10/05 18:45:31  5-MIN KMSN 110045Z 10014KT 10SM BKN080 19/06 A2992 870  41 1600 100/14 RMK AO2
14837KMSN MSN20050410185012104/10/05 18:50:31  5-MIN KMSN 110050Z 10016KT 10SM SCT080 SCT095 19/06  A2992 870 41 1600 100/16 RMK AO2 SLP131 T01890056
14837KMSN MSN20050410185511004/10/05 18:55:31  5-MIN KMSN 110055Z 09016G23KT 10SM SCT075 SCT095 19/05  A2992 870 39 1600 090/16G23 RMK AO2
14837KMSN MSN20050410190011004/10/05 19:00:31  5-MIN KMSN 110100Z 10015G23KT 10SM FEW075 SCT090 19/05  A2992 860 39 1600 100/15G23 RMK AO2
14837KMSN MSN20050410190509704/10/05 19:05:31  5-MIN KMSN 110105Z 10015KT 10SM FEW075 19/05 A2992 860  39 1600 100/15 RMK AO2
14837KMSN MSN20050410191009704/10/05 19:10:31  5-MIN KMSN 110110Z 09014KT 10SM FEW075 18/05 A2992 860  41 1500 090/14 RMK AO2
14837KMSN MSN20050410191509704/10/05 19:15:31  5-MIN KMSN 110115Z 10018KT 10SM FEW075 18/04 A2992 860  39 1500 100/18 RMK AO2
14837KMSN MSN20050410192010404/10/05 19:20:31  5-MIN KMSN 110120Z 09016KT 10SM SCT075 SCT095 18/04  A2992 860 39 1500 090/16 RMK AO2
14837KMSN MSN20050410192510404/10/05 19:25:31  5-MIN KMSN 110125Z 10016KT 10SM SCT075 SCT095 18/04  A2993 860 39 1500 100/16 RMK AO2
14837KMSN MSN20050410193010404/10/05 19:30:31  5-MIN KMSN 110130Z 10015KT 10SM SCT075 SCT095 18/04  A2992 860 39 1500 100/15 RMK AO2
14837KMSN MSN20050410193510404/10/05 19:35:31  5-MIN KMSN 110135Z 10014KT 10SM SCT075 SCT095 18/04  A2993 860 39 1500 090/14 RMK AO2
14837KMSN MSN20050410194010404/10/05 19:40:31  5-MIN KMSN 110140Z 10013KT 10SM SCT075 SCT095 18/04  A2993 860 41 1400 100/13 RMK AO2
14837KMSN MSN20050410194510404/10/05 19:45:31  5-MIN KMSN 110145Z 09012KT 10SM SCT075 SCT095 18/05  A2993 850 42 1400 090/12 RMK AO2
14837KMSN MSN20050410195012104/10/05 19:50:31  5-MIN KMSN 110150Z 10012KT 10SM SCT075 SCT095 18/05  A2993 850 42 1400 100/12 RMK AO2 SLP135 T01780050
14837KMSN MSN20050410195509404/10/05 19:55:31  5-MIN KMSN 110155Z 10013KT 10SM CLR 17/04 A2994 850 42  1300 100/13 RMK AO2
14837KMSN MSN20050410200009704/10/05 20:00:31  5-MIN KMSN 110200Z 10011KT 10SM FEW095 17/04 A2994 850  42 1300 100/11 RMK AO2
14837KMSN MSN20050410200509704/10/05 20:05:31  5-MIN KMSN 110205Z 10013KT 10SM FEW095 17/04 A2994 850  42 1300 100/13 RMK AO2
14837KMSN MSN20050410201009704/10/05 20:10:31  5-MIN KMSN 110210Z 10012KT 10SM FEW095 17/04 A2994 840  42 1300 100/12 RMK AO2
14837KMSN MSN20050410201509704/10/05 20:15:31  5-MIN KMSN 110215Z 10013KT 10SM FEW095 17/04 A2995 840  41 1300 100/13 RMK AO2
14837KMSN MSN20050410202009704/10/05 20:20:31  5-MIN KMSN 110220Z 10011KT 10SM FEW095 17/04 A2995 840  41 1300 090/11 RMK AO2
14837KMSN MSN20050410202509704/10/05 20:25:31  5-MIN KMSN 110225Z 09013KT 10SM FEW095 17/04 A2995 840  41 1300 090/13 RMK AO2
14837KMSN MSN20050410203009704/10/05 20:30:31  5-MIN KMSN 110230Z 10011KT 10SM FEW095 17/04 A2995 840  41 1300 100/11 RMK AO2
14837KMSN MSN20050410203509704/10/05 20:35:31  5-MIN KMSN 110235Z 10011KT 10SM FEW095 17/04 A2995 840  41 1300 100/11 RMK AO2
14837KMSN MSN20050410204009704/10/05 20:40:31  5-MIN KMSN 110240Z 09011KT 10SM FEW095 17/04 A2995 840  42 1300 090/11 RMK AO2
14837KMSN MSN20050410204509704/10/05 20:45:31  5-MIN KMSN 110245Z 10011KT 10SM FEW095 17/04 A2995 840  42 1300 100/11 RMK AO2
14837KMSN MSN20050410205012004/10/05 20:50:31  5-MIN KMSN 110250Z 10011KT 10SM FEW100 17/04 A2995 840  42 1300 100/11 RMK AO2 SLP141 T01670039 51002
14837KMSN MSN20050410205509704/10/05 20:55:31  5-MIN KMSN 110255Z 10011KT 10SM FEW095 17/04 A2995 840  42 1300 100/11 RMK AO2
14837KMSN MSN20050410210009404/10/05 21:00:31  5-MIN KMSN 110300Z 09010KT 10SM CLR 17/04 A2995 840 42  1300 090/10 RMK AO2
14837KMSN MSN20050410210509404/10/05 21:05:31  5-MIN KMSN 110305Z 09010KT 10SM CLR 17/04 A2995 840 42  1300 090/10 RMK AO2
14837KMSN MSN20050410211009404/10/05 21:10:31  5-MIN KMSN 110310Z 09012KT 10SM CLR 16/04 A2995 840 44  1200 090/12 RMK AO2
14837KMSN MSN20050410211509404/10/05 21:15:31  5-MIN KMSN 110315Z 10011KT 10SM CLR 17/04 A2995 840 42  1300 100/11 RMK AO2
14837KMSN MSN20050410212009404/10/05 21:20:31  5-MIN KMSN 110320Z 10012KT 10SM CLR 16/04 A2995 840 44  1200 100/12 RMK AO2
14837KMSN MSN20050410212509404/10/05 21:25:31  5-MIN KMSN 110325Z 10013KT 10SM CLR 16/04 A2995 840 44  1200 100/13 RMK AO2
14837KMSN MSN20050410213009404/10/05 21:30:31  5-MIN KMSN 110330Z 10013KT 10SM CLR 16/04 A2995 840 44  1200 100/13 RMK AO2
14837KMSN MSN20050410213509404/10/05 21:35:31  5-MIN KMSN 110335Z 10014KT 10SM CLR 16/04 A2995 840 44  1200 100/14 RMK AO2
14837KMSN MSN20050410214009404/10/05 21:40:31  5-MIN KMSN 110340Z 10013KT 10SM CLR 16/04 A2995 840 44  1200 100/13 RMK AO2
14837KMSN MSN20050410214509404/10/05 21:45:31  5-MIN KMSN 110345Z 10014KT 10SM CLR 16/04 A2995 840 44  1200 100/14 RMK AO2
14837KMSN MSN20050410215011104/10/05 21:50:31  5-MIN KMSN 110350Z 10013KT 10SM CLR 16/04 A2994 840 44  1200 100/13 RMK AO2 SLP138 T01610039
14837KMSN MSN20050410215509404/10/05 21:55:31  5-MIN KMSN 110355Z 10013KT 10SM CLR 16/04 A2995 840 44  1200 100/13 RMK AO2
14837KMSN MSN20050410220009404/10/05 22:00:31  5-MIN KMSN 110400Z 10014KT 10SM CLR 17/04 A2995 840 42  1300 100/14 RMK AO2
14837KMSN MSN20050410220509404/10/05 22:05:31  5-MIN KMSN 110405Z 10014KT 10SM CLR 16/04 A2995 840 44  1200 100/14 RMK AO2
14837KMSN MSN20050410221009404/10/05 22:10:31  5-MIN KMSN 110410Z 10013KT 10SM CLR 17/03 A2995 830 40  1300 100/13 RMK AO2
14837KMSN MSN20050410221509404/10/05 22:15:31  5-MIN KMSN 110415Z 10014KT 10SM CLR 17/03 A2995 830 40  1300 100/14 RMK AO2
14837KMSN MSN20050410222009404/10/05 22:20:31  5-MIN KMSN 110420Z 10013KT 10SM CLR 17/03 A2996 830 40  1300 100/13 RMK AO2
14837KMSN MSN20050410222509404/10/05 22:25:31  5-MIN KMSN 110425Z 10012KT 10SM CLR 16/03 A2996 830 42  1200 100/12 RMK AO2
14837KMSN MSN20050410223009404/10/05 22:30:31  5-MIN KMSN 110430Z 10014KT 10SM CLR 16/03 A2996 830 42  1200 100/14 RMK AO2
14837KMSN MSN20050410223509404/10/05 22:35:31  5-MIN KMSN 110435Z 10014KT 10SM CLR 17/03 A2996 830 40  1300 100/14 RMK AO2
14837KMSN MSN20050410224009404/10/05 22:40:31  5-MIN KMSN 110440Z 11012KT 10SM CLR 16/03 A2996 830 42  1200 110/12 RMK AO2
14837KMSN MSN20050410224509404/10/05 22:45:31  5-MIN KMSN 110445Z 10013KT 10SM CLR 16/03 A2996 830 42  1200 100/13 RMK AO2
14837KMSN MSN20050410225011404/10/05 22:50:31  5-MIN KMSN 110450Z 10012KT 10SM SCT080 16/03 A2996 830  42 1200 100/12 RMK AO2 SLP142 T01610033
14837KMSN MSN20050410225509704/10/05 22:55:31  5-MIN KMSN 110455Z 10013KT 10SM FEW085 16/03 A2996 830  42 1200 100/13 RMK AO2
14837KMSN MSN20050410230010404/10/05 23:00:31  5-MIN KMSN 110500Z 10011KT 10SM SCT080 SCT090 16/03  A2996 830 42 1200 100/11 RMK AO2
14837KMSN MSN20050410230510404/10/05 23:05:31  5-MIN KMSN 110505Z 10014KT 10SM BKN080 BKN090 16/03  A2996 830 42 1200 100/14 RMK AO2
14837KMSN MSN20050410231010404/10/05 23:10:31  5-MIN KMSN 110510Z 11014KT 10SM BKN080 BKN090 16/03  A2996 830 42 1200 110/14 RMK AO2
14837KMSN MSN20050410231509704/10/05 23:15:31  5-MIN KMSN 110515Z 11011KT 10SM BKN085 16/03 A2996 830  42 1200 110/11 RMK AO2
14837KMSN MSN20050410232010404/10/05 23:20:31  5-MIN KMSN 110520Z 11013KT 10SM SCT080 BKN090 16/03  A2996 830 42 1200 110/13 RMK AO2
14837KMSN MSN20050410232510404/10/05 23:25:31  5-MIN KMSN 110525Z 11014KT 10SM BKN080 BKN095 16/03  A2996 830 42 1200 110/14 RMK AO2
14837KMSN MSN20050410233009704/10/05 23:30:31  5-MIN KMSN 110530Z 11014KT 10SM BKN090 16/03 A2996 830  42 1200 110/14 RMK AO2
14837KMSN MSN20050410233510404/10/05 23:35:31  5-MIN KMSN 110535Z 11013KT 10SM FEW075 BKN095 16/03  A2996 830 42 1200 110/13 RMK AO2
14837KMSN MSN20050410234010404/10/05 23:40:31  5-MIN KMSN 110540Z 10014KT 10SM FEW070 BKN095 16/03  A2996 820 43 1100 100/14 RMK AO2
14837KMSN MSN20050410234510404/10/05 23:45:31  5-MIN KMSN 110545Z 10014KT 10SM FEW070 BKN095 16/04  A2996 830 45 1100 100/14 RMK AO2
14837KMSN MSN20050410235015004/10/05 23:50:31  5-MIN KMSN 110550Z 11013KT 10SM FEW075 SCT095 16/04  A2996 820 45 1100 110/13 RMK AO2 SLP143 T01560039 10206 20156 402720061  53015
14837KMSN MSN20050410235510404/10/05 23:55:31  5-MIN KMSN 110555Z 10013KT 10SM FEW070 SCT095 16/04  A2996 830 45 1100 100/13 RMK AO2
14837KMSN MSN20050411000010404/11/05 00:00:31  5-MIN KMSN 110600Z 11014KT 10SM FEW070 SCT100 16/04  A2996 830 44 1200 100/14 RMK AO2
14837KMSN MSN20050411000510404/11/05 00:05:31  5-MIN KMSN 110605Z 11013KT 10SM FEW070 SCT095 16/04  A2996 830 45 1100 110/13 RMK AO2
14837KMSN MSN20050411001010404/11/05 00:10:31  5-MIN KMSN 110610Z 11014KT 10SM FEW070 SCT090 16/04  A2996 830 45 1100 110/14 RMK AO2
14837KMSN MSN20050411001510404/11/05 00:15:31  5-MIN KMSN 110615Z 11013KT 10SM FEW070 SCT090 16/04  A2996 830 45 1100 110/13 RMK AO2
14837KMSN MSN20050411002010404/11/05 00:20:31  5-MIN KMSN 110620Z 11013KT 10SM FEW070 SCT095 16/04  A2996 830 44 1200 110/13 RMK AO2
14837KMSN MSN20050411002510404/11/05 00:25:31  5-MIN KMSN 110625Z 11012KT 10SM FEW070 SCT095 16/04  A2996 830 44 1200 110/12 RMK AO2
14837KMSN MSN20050411003010404/11/05 00:30:31  5-MIN KMSN 110630Z 11014KT 10SM FEW070 BKN095 16/04  A2996 830 44 1200 110/14 RMK AO2
14837KMSN MSN20050411003510404/11/05 00:35:31  5-MIN KMSN 110635Z 11015KT 10SM FEW070 BKN095 16/04  A2995 830 44 1200 110/15 RMK AO2
14837KMSN MSN20050411004010404/11/05 00:40:31  5-MIN KMSN 110640Z 11013KT 10SM SCT070 BKN095 16/04  A2995 830 44 1200 110/13 RMK AO2
14837KMSN MSN20050411004510404/11/05 00:45:31  5-MIN KMSN 110645Z 11016KT 10SM BKN070 BKN095 16/04  A2995 840 44 1200 110/16 RMK AO2
14837KMSN MSN20050411030510404/11/05 03:05:31  5-MIN KMSN 110905Z 11012KT 10SM SCT060 SCT080 15/04  A2995 840 47 1100 110/12 RMK AO2
14837KMSN MSN20050411031010404/11/05 03:10:31  5-MIN KMSN 110910Z 11011KT 10SM FEW060 SCT085 14/04  A2995 840 49 1000 110/11 RMK AO2
14837KMSN MSN20050411031509704/11/05 03:15:31  5-MIN KMSN 110915Z 11011KT 10SM FEW060 14/04 A2995 840  49 1000 110/11 RMK AO2
14837KMSN MSN20050411032009704/11/05 03:20:31  5-MIN KMSN 110920Z 12010KT 10SM FEW065 14/04 A2995 840  49 1000 120/10 RMK AO2
14837KMSN MSN20050411032509704/11/05 03:25:31  5-MIN KMSN 110925Z 11011KT 10SM SCT065 14/04 A2995 840  49 1000 110/11 RMK AO2
14837KMSN MSN20050411033010404/11/05 03:30:31  5-MIN KMSN 110930Z 10010KT 10SM SCT070 BKN080 14/04  A2995 840 49 1000 100/10 RMK AO2
14837KMSN MSN20050411033509604/11/05 03:35:31  5-MIN KMSN 110935Z 10010KT 10SM SCT065 14/04 A2995 840  50 900 100/10 RMK AO2
14837KMSN MSN20050411034010304/11/05 03:40:31  5-MIN KMSN 110940Z 10010KT 10SM SCT065 SCT080 14/04  A2995 840 50 900 100/10 RMK AO2
14837KMSN MSN20050411034510304/11/05 03:45:31  5-MIN KMSN 110945Z 11011KT 10SM SCT065 BKN080 14/03  A2995 830 48 900 110/11 RMK AO2
14837KMSN MSN20050411035012004/11/05 03:50:31  5-MIN KMSN 110950Z 11009KT 10SM SCT065 BKN080 14/03  A2995 840 48 900 110/09 RMK AO2 SLP139 T01390033
14837KMSN MSN20050411035510304/11/05 03:55:31  5-MIN KMSN 110955Z 11009KT 10SM FEW065 BKN080 13/03  A2995 840 50 900 110/09 RMK AO2
14837KMSN MSN20050411040010304/11/05 04:00:31  5-MIN KMSN 111000Z 11009KT 10SM FEW065 SCT080 13/03  A2995 830 50 900 110/09 RMK AO2
14837KMSN MSN20050411040509604/11/05 04:05:31  5-MIN KMSN 111005Z 12009KT 10SM FEW065 13/03 A2996 830  50 900 110/09 RMK AO2
14837KMSN MSN20050411041009604/11/05 04:10:31  5-MIN KMSN 111010Z 11011KT 10SM FEW065 13/03 A2996 830  50 900 110/11 RMK AO2
14837KMSN MSN20050411041509604/11/05 04:15:31  5-MIN KMSN 111015Z 11011KT 10SM FEW085 13/03 A2996 830  50 900 110/11 RMK AO2
14837KMSN MSN20050411042009604/11/05 04:20:31  5-MIN KMSN 111020Z 11011KT 10SM SCT080 14/03 A2996 830  47 900 110/11 RMK AO2
14837KMSN MSN20050411042509604/11/05 04:25:31  5-MIN KMSN 111025Z 11011KT 10SM BKN080 13/03 A2996 830  48 900 110/11 RMK AO2
14837KMSN MSN20050411043010304/11/05 04:30:31  5-MIN KMSN 111030Z 11010KT 10SM SCT075 BKN090 13/03  A2996 820 48 900 110/10 RMK AO2
14837KMSN MSN20050411043510304/11/05 04:35:31  5-MIN KMSN 111035Z 11009KT 10SM FEW075 BKN090 13/03  A2997 820 48 900 110/09 RMK AO2
14837KMSN MSN20050411044010304/11/05 04:40:31  5-MIN KMSN 111040Z 11011KT 10SM FEW075 BKN090 13/03  A2997 820 48 900 110/11 RMK AO2
14837KMSN MSN20050411044509604/11/05 04:45:31  5-MIN KMSN 111045Z 11011KT 10SM OVC080 13/03 A2997 820  48 900 110/11 RMK AO2
14837KMSN MSN20050411045011304/11/05 04:50:31  5-MIN KMSN 111050Z 11010KT 10SM OVC080 13/03 A2997 820  48 900 110/10 RMK AO2 SLP146 T01330028
14837KMSN MSN20050411045509604/11/05 04:55:31  5-MIN KMSN 111055Z 11010KT 10SM BKN090 13/03 A2997 820  48 900 110/10 RMK AO2
14837KMSN MSN20050411050009604/11/05 05:00:31  5-MIN KMSN 111100Z 11010KT 10SM BKN090 13/03 A2997 820  50 800 110/10 RMK AO2
14837KMSN MSN20050411050509604/11/05 05:05:31  5-MIN KMSN 111105Z 11009KT 10SM BKN090 13/03 A2998 810  50 800 100/09 RMK AO2
14837KMSN MSN20050411051010304/11/05 05:10:31  5-MIN KMSN 111110Z 11010KT 10SM FEW060 BKN090 13/03  A2997 810 50 800 110/10 RMK AO2
14837KMSN MSN20050411051510304/11/05 05:15:31  5-MIN KMSN 111115Z 10011KT 10SM FEW060 BKN085 13/03  A2997 820 48 800 100/11 RMK AO2
14837KMSN MSN20050411052010304/11/05 05:20:31  5-MIN KMSN 111120Z 11011KT 10SM FEW060 BKN090 13/03  A2997 820 50 800 100/11 RMK AO2
14837KMSN MSN20050411052510304/11/05 05:25:31  5-MIN KMSN 111125Z 10010KT 10SM FEW065 BKN090 13/02  A2997 820 48 800 100/10 RMK AO2
14837KMSN MSN20050411053010904/11/05 05:30:31  5-MIN KMSN 111130Z 10012G17KT 10SM FEW065 BKN090 13/02  A2997 810 48 800 100/12G17 RMK AO2
14837KMSN MSN20050411053510304/11/05 05:35:31  5-MIN KMSN 111135Z 10012KT 10SM FEW065 BKN085 13/02  A2997 810 48 800 100/12 RMK AO2
14837KMSN MSN20050411054010304/11/05 05:40:31  5-MIN KMSN 111140Z 10010KT 10SM SCT080 SCT095 12/02  A2998 810 50 700 100/10 RMK AO2
14837KMSN MSN20050411054509604/11/05 05:45:31  5-MIN KMSN 111145Z 10009KT 10SM FEW080 13/02 A2998 810  46 800 100/09 RMK AO2
14837KMSN MSN20050411055013104/11/05 05:50:31  5-MIN KMSN 111150Z 10010KT 10SM FEW080 12/02 A2998 810  48 700 100/10 RMK AO2 SLP150 T01220017 10161 20122 56004
14837KMSN MSN20050411055509304/11/05 05:55:31  5-MIN KMSN 111155Z 10011KT 10SM CLR 12/02 A2998 810 48  700 100/11 RMK AO2
14837KMSN MSN20050411060009304/11/05 06:00:31  5-MIN KMSN 111200Z 10009KT 10SM CLR 12/01 A2998 810 46  700 100/09 RMK AO2
14837KMSN MSN20050411060509304/11/05 06:05:31  5-MIN KMSN 111205Z 10010KT 10SM CLR 12/01 A2998 810 46  700 100/10 RMK AO2
14837KMSN MSN20050411061009304/11/05 06:10:31  5-MIN KMSN 111210Z 10009KT 10SM CLR 12/01 A2999 800 46  700 100/09 RMK AO2
14837KMSN MSN20050411061509604/11/05 06:15:31  5-MIN KMSN 111215Z 11012KT 10SM FEW085 12/01 A2999 800  44 700 100/12 RMK AO2
14837KMSN MSN20050411062010204/11/05 06:20:31  5-MIN KMSN 111220Z 11012G16KT 10SM FEW085 12/01 A2999  800 44 700 100/12G16 RMK AO2
14837KMSN MSN20050411062509604/11/05 06:25:31  5-MIN KMSN 111225Z 10012KT 10SM FEW085 12/01 A2999 800  44 700 100/12 RMK AO2
14837KMSN MSN20050411063009604/11/05 06:30:31  5-MIN KMSN 111230Z 10012KT 10SM FEW085 12/00 A2999 800  43 700 100/12 RMK AO2
14837KMSN MSN20050411063509604/11/05 06:35:31  5-MIN KMSN 111235Z 10010KT 10SM FEW085 13/00 A2999 800  41 800 090/10 RMK AO2
14837KMSN MSN20050411064009604/11/05 06:40:31  5-MIN KMSN 111240Z 09012KT 10SM FEW080 13/00 A2999 800  41 800 090/12 RMK AO2
14837KMSN MSN20050411064509604/11/05 06:45:31  5-MIN KMSN 111245Z 10014KT 10SM FEW070 13/00 A2999 800  41 800 100/14 RMK AO2
14837KMSN MSN20050411065011304/11/05 06:50:31  5-MIN KMSN 111250Z 10012KT 10SM FEW070 13/00 A2999 800  41 800 090/12 RMK AO2 SLP155 T01280000
14837KMSN MSN20050411065509604/11/05 06:55:31  5-MIN KMSN 111255Z 10012KT 10SM FEW075 13/01 A3000 800  43 800 100/12 RMK AO2
14837KMSN MSN20050411070009604/11/05 07:00:31  5-MIN KMSN 111300Z 09012KT 10SM FEW075 13/00 A3000 790  41 800 090/12 RMK AO2
14837KMSN MSN20050411070509604/11/05 07:05:31  5-MIN KMSN 111305Z 10010KT 10SM FEW070 13/01 A3000 790  43 800 100/10 RMK AO2
14837KMSN MSN20050411071009304/11/05 07:10:31  5-MIN KMSN 111310Z 10012KT 10SM CLR 13/01 A3000 800 41  800 100/12 RMK AO2
14837KMSN MSN20050411071509604/11/05 07:15:31  5-MIN KMSN 111315Z 11014KT 10SM FEW080 13/01 A2999 800  41 800 100/14 RMK AO2
14837KMSN MSN20050411072010204/11/05 07:20:31  5-MIN KMSN 111320Z 10012G17KT 10SM FEW080 14/01 A2999  800 40 900 100/12G17 RMK AO2
14837KMSN MSN20050411072510204/11/05 07:25:31  5-MIN KMSN 111325Z 10014G18KT 10SM FEW085 14/01 A2999  800 40 900 100/14G18 RMK AO2
14837KMSN MSN20050411073009604/11/05 07:30:31  5-MIN KMSN 111330Z 10013KT 10SM FEW085 14/01 A2999 800  40 900 100/13 RMK AO2
14837KMSN MSN20050411073509604/11/05 07:35:31  5-MIN KMSN 111335Z 10012KT 10SM FEW085 14/01 A2999 800  40 900 100/12 RMK AO2
14837KMSN MSN20050411074009604/11/05 07:40:31  5-MIN KMSN 111340Z 10015KT 10SM FEW085 14/01 A2999 800  40 900 100/15 RMK AO2
14837KMSN MSN20050411074509404/11/05 07:45:31  5-MIN KMSN 111345Z 11013KT 10SM CLR 14/01 A2999 800 40  1000 100/13 RMK AO2
14837KMSN MSN20050411075011104/11/05 07:50:31  5-MIN KMSN 111350Z 10013KT 10SM CLR 14/01 A2999 800 38  1000 100/13 RMK AO2 SLP155 T01440006
14837KMSN MSN20050411075510904/11/05 07:55:31  5-MIN KMSN 111355Z 11017G21KT 10SM FEW085 SCT120 14/01  A2999 800 40 900 100/17G21 RMK AO2
14837KMSN MSN20050411080010904/11/05 08:00:31  5-MIN KMSN 111400Z 10016G21KT 10SM FEW085 SCT120 14/01  A2999 800 40 900 100/16G21 RMK AO2
14837KMSN MSN20050411080510404/11/05 08:05:31  5-MIN KMSN 111405Z 10017KT 10SM FEW085 SCT120 14/01  A2999 800 38 1000 100/17 RMK AO2
14837KMSN MSN20050411081009404/11/05 08:10:31  5-MIN KMSN 111410Z 10014KT 10SM CLR 14/01 A2999 800 38  1000 100/14 RMK AO2
14837KMSN MSN20050411081510004/11/05 08:15:31  5-MIN KMSN 111415Z 10017G21KT 10SM CLR 15/01 A2998 810  37 1000 090/17G21 RMK AO2
14837KMSN MSN20050411082010004/11/05 08:20:31  5-MIN KMSN 111420Z 10013G21KT 10SM CLR 15/01 A2998 810  37 1000 100/13G21 RMK AO2
14837KMSN MSN20050411082510004/11/05 08:25:31  5-MIN KMSN 111425Z 10016G21KT 10SM CLR 15/01 A2999 800  37 1000 100/16G21 RMK AO2
14837KMSN MSN20050411083010004/11/05 08:30:31  5-MIN KMSN 111430Z 10016G21KT 10SM CLR 16/01 A2999 800  36 1100 100/16G21 RMK AO2
14837KMSN MSN20050411083510004/11/05 08:35:31  5-MIN KMSN 111435Z 11019G22KT 10SM CLR 16/01 A2999 800  36 1100 110/19G22 RMK AO2
14837KMSN MSN20050411084010004/11/05 08:40:31  5-MIN KMSN 111440Z 11012G22KT 10SM CLR 16/01 A2998 810  36 1100 100/12G22 RMK AO2
14837KMSN MSN20050411084509404/11/05 08:45:31  5-MIN KMSN 111445Z 10013KT 10SM CLR 16/01 A2998 810 37  1100 100/13 RMK AO2
14837KMSN MSN20050411085011704/11/05 08:50:31  5-MIN KMSN 111450Z 10011KT 10SM CLR 16/01 A2998 810 37  1100 100/11 RMK AO2 SLP151 T01560011 53010
14837KMSN MSN20050411085509404/11/05 08:55:31  5-MIN KMSN 111455Z 10016KT 10SM CLR 16/01 A2998 810 36  1200 100/16 RMK AO2
14837KMSN MSN20050411090009404/11/05 09:00:31  5-MIN KMSN 111500Z 10014KT 10SM CLR 16/01 A2998 810 36  1200 100/14 RMK AO2
14837KMSN MSN20050411090509704/11/05 09:05:31  5-MIN KMSN 111505Z 11014KT 10SM FEW065 17/01 A2998 810  34 1200 110/14 RMK AO2
14837KMSN MSN20050411091009704/11/05 09:10:31  5-MIN KMSN 111510Z 10016KT 10SM FEW065 17/02 A2998 810  36 1200 100/16 RMK AO2
14837KMSN MSN20050411091509704/11/05 09:15:31  5-MIN KMSN 111515Z 09017KT 10SM FEW065 17/01 A2998 810  34 1200 090/17 RMK AO2
14837KMSN MSN20050411092009704/11/05 09:20:31  5-MIN KMSN 111520Z 10017KT 10SM FEW065 17/02 A2998 810  36 1200 100/17 RMK AO2
14837KMSN MSN20050411092509704/11/05 09:25:31  5-MIN KMSN 111525Z 10014KT 10SM FEW065 17/02 A2998 810  36 1200 100/14 RMK AO2
14837KMSN MSN20050411093010304/11/05 09:30:31  5-MIN KMSN 111530Z 10016G23KT 10SM FEW065 17/02 A2997  810 35 1300 100/16G23 RMK AO2
14837KMSN MSN20050411093510004/11/05 09:35:31  5-MIN KMSN 111535Z 10014G23KT 10SM CLR 17/02 A2997 820  35 1300 100/14G23 RMK AO2
14837KMSN MSN20050411094009404/11/05 09:40:31  5-MIN KMSN 111540Z 11016KT 10SM CLR 17/02 A2997 820 36  1300 110/16 RMK AO2
14837KMSN MSN20050411094510004/11/05 09:45:31  5-MIN KMSN 111545Z 09015G21KT 10SM CLR 18/02 A2997 820  35 1400 090/15G21 RMK AO2
14837KMSN MSN20050411095011704/11/05 09:50:31  5-MIN KMSN 111550Z 09016G21KT 10SM CLR 18/02 A2997 820  35 1400 090/16G21 RMK AO2 SLP147 T01780022
14837KMSN MSN20050411095509404/11/05 09:55:31  5-MIN KMSN 111555Z 09015KT 10SM CLR 18/02 A2997 820 35  1400 090/15 RMK AO2
14837KMSN MSN20050411100009404/11/05 10:00:31  5-MIN KMSN 111600Z 10015KT 10SM CLR 18/02 A2997 820 35  1400 100/15 RMK AO2
14837KMSN MSN20050411100509404/11/05 10:05:31  5-MIN KMSN 111605Z 09014KT 10SM CLR 18/02 A2996 820 34  1400 090/14 RMK AO2
14837KMSN MSN20050411101010004/11/05 10:10:31  5-MIN KMSN 111610Z 09018G21KT 10SM CLR 18/03 A2997 820  36 1400 090/18G21 RMK AO2
14837KMSN MSN20050411101510004/11/05 10:15:31  5-MIN KMSN 111615Z 09013G21KT 10SM CLR 18/03 A2996 820  35 1400 090/13G21 RMK AO2
14837KMSN MSN20050411102010004/11/05 10:20:31  5-MIN KMSN 111620Z 10014G20KT 10SM CLR 18/03 A2997 820  35 1400 100/14G20 RMK AO2
14837KMSN MSN20050411102510304/11/05 10:25:31  5-MIN KMSN 111625Z 09016G20KT 10SM FEW100 18/03 A2997  820 35 1400 090/16G20 RMK AO2
14837KMSN MSN20050411103010304/11/05 10:30:31  5-MIN KMSN 111630Z 11015G20KT 10SM SCT100 18/03 A2997  820 35 1400 110/15G20 RMK AO2
14837KMSN MSN20050411103509704/11/05 10:35:31  5-MIN KMSN 111635Z 08015KT 10SM FEW100 18/03 A2997 820  36 1400 080/15 RMK AO2
14837KMSN MSN20050411104009704/11/05 10:40:31  5-MIN KMSN 111640Z 09017KT 10SM FEW100 18/03 A2997 820  35 1400 090/17 RMK AO2
14837KMSN MSN20050411104509704/11/05 10:45:31  5-MIN KMSN 111645Z 09016KT 10SM FEW100 18/03 A2997 820  35 1400 090/16 RMK AO2
14837KMSN MSN20050411105011404/11/05 10:50:31  5-MIN KMSN 111650Z 11018KT 10SM FEW100 18/03 A2997 820  35 1400 110/18 RMK AO2 SLP148 T01830028
14837KMSN MSN20050411105510304/11/05 10:55:31  5-MIN KMSN 111655Z 11015G22KT 10SM FEW100 18/03 A2997  820 35 1400 110/15G22 RMK AO2
14837KMSN MSN20050411110009404/11/05 11:00:31  5-MIN KMSN 111700Z 09013KT 10SM CLR 19/03 A2997 820 35  1500 090/13 RMK AO2
14837KMSN MSN20050411110509404/11/05 11:05:31  5-MIN KMSN 111705Z 10016KT 10SM CLR 19/03 A2998 810 34  1600 100/16 RMK AO2
14837KMSN MSN20050411111009404/11/05 11:10:31  5-MIN KMSN 111710Z 10014KT 10SM CLR 19/03 A2997 810 34  1600 100/14 RMK AO2
14837KMSN MSN20050411111510004/11/05 11:15:31  5-MIN KMSN 111715Z 09017G22KT 10SM CLR 19/03 A2998 810  33 1600 090/17G22 RMK AO2
14837KMSN MSN20050411112009404/11/05 11:20:31  5-MIN KMSN 111720Z 12017KT 10SM CLR 19/03 A2998 810 34  1600 110/17 RMK AO2
14837KMSN MSN20050411112509404/11/05 11:25:31  5-MIN KMSN 111725Z 10016KT 10SM CLR 20/03 A2998 810 33  1600 090/16 RMK AO2
14837KMSN MSN20050411113010004/11/05 11:30:31  5-MIN KMSN 111730Z 10017G21KT 10SM CLR 19/03 A2997 810  34 1600 100/17G21 RMK AO2
14837KMSN MSN20050411113509404/11/05 11:35:31  5-MIN KMSN 111735Z 11015KT 10SM CLR 19/03 A2997 820 34  1600 110/15 RMK AO2
14837KMSN MSN20050411114009404/11/05 11:40:31  5-MIN KMSN 111740Z 10013KT 10SM CLR 19/03 A2997 820 34  1600 100/13 RMK AO2
14837KMSN MSN20050411114509404/11/05 11:45:31  5-MIN KMSN 111745Z 10014KT 10SM CLR 20/04 A2997 820 34  1600 100/14 RMK AO2
14837KMSN MSN20050411115013804/11/05 11:50:31  5-MIN KMSN 111750Z 11017G22KT 10SM FEW100 19/03 A2997  820 34 1600 110/17G22 RMK AO2 SLP146 T01940033 10200 20122 50000
14837KMSN MSN20050411115510004/11/05 11:55:31  5-MIN KMSN 111755Z 10016G22KT 10SM CLR 19/03 A2997 820  35 1500 100/16G22 RMK AO2
14837KMSN MSN20050411120009404/11/05 12:00:31  5-MIN KMSN 111800Z 10014KT 10SM CLR 19/03 A2996 820 35  1500 100/14 RMK AO2
14837KMSN MSN20050411120510004/11/05 12:05:31  5-MIN KMSN 111805Z 11015G19KT 10SM CLR 19/04 A2997 820  36 1500 110/15G19 RMK AO2
14837KMSN MSN20050411121010004/11/05 12:10:31  5-MIN KMSN 111810Z 11016G19KT 10SM CLR 19/04 A2997 820  36 1500 110/16G19 RMK AO2
14837KMSN MSN20050411121509404/11/05 12:15:31  5-MIN KMSN 111815Z 10016KT 10SM CLR 19/04 A2997 820 36  1500 100/16 RMK AO2
14837KMSN MSN20050411122010004/11/05 12:20:31  5-MIN KMSN 111820Z 09014G19KT 10SM CLR 19/04 A2996 830  36 1500 090/14G19 RMK AO2
14837KMSN MSN20050411122510004/11/05 12:25:31  5-MIN KMSN 111825Z 10016G20KT 10SM CLR 19/04 A2996 830  36 1500 100/16G20 RMK AO2
14837KMSN MSN20050411123009404/11/05 12:30:31  5-MIN KMSN 111830Z 11018KT 10SM CLR 19/04 A2996 830 36  1500 110/18 RMK AO2
14837KMSN MSN20050411123509404/11/05 12:35:31  5-MIN KMSN 111835Z 09015KT 10SM CLR 19/04 A2995 830 35  1600 090/15 RMK AO2
14837KMSN MSN20050411124010004/11/05 12:40:31  5-MIN KMSN 111840Z 09017G21KT 10SM CLR 19/04 A2995 840  35 1600 090/17G21 RMK AO2
14837KMSN MSN20050411124509404/11/05 12:45:31  5-MIN KMSN 111845Z 09018KT 10SM CLR 19/04 A2995 840 35  1600 090/18 RMK AO2
14837KMSN MSN20050411125011704/11/05 12:50:31  5-MIN KMSN 111850Z 09018G23KT 10SM CLR 19/04 A2995 840  35 1600 080/18G23 RMK AO2 SLP138 T01940039
14837KMSN MSN20050411125510004/11/05 12:55:31  5-MIN KMSN 111855Z 09019G23KT 10SM CLR 19/04 A2995 840  36 1500 090/19G23 RMK AO2
14837KMSN MSN20050411130010004/11/05 13:00:31  5-MIN KMSN 111900Z 09017G23KT 10SM CLR 19/04 A2995 840  35 1600 090/17G23 RMK AO2
14837KMSN MSN20050411130510004/11/05 13:05:31  5-MIN KMSN 111905Z 09018G24KT 10SM CLR 19/04 A2994 840  35 1600 090/18G24 RMK AO2
14837KMSN MSN20050411131010004/11/05 13:10:31  5-MIN KMSN 111910Z 10016G24KT 10SM CLR 19/04 A2994 850  35 1600 100/16G24 RMK AO2
14837KMSN MSN20050411131510004/11/05 13:15:31  5-MIN KMSN 111915Z 10019G23KT 10SM CLR 19/04 A2994 850  35 1600 090/19G23 RMK AO2
14837KMSN MSN20050411132010004/11/05 13:20:31  5-MIN KMSN 111920Z 09018G23KT 10SM CLR 20/04 A2993 850  34 1700 090/18G23 RMK AO2
14837KMSN MSN20050411132510004/11/05 13:25:31  5-MIN KMSN 111925Z 10017G23KT 10SM CLR 20/04 A2993 850  34 1700 090/17G23 RMK AO2
14837KMSN MSN20050411133010004/11/05 13:30:31  5-MIN KMSN 111930Z 10018G23KT 10SM CLR 20/04 A2993 850  34 1700 100/18G23 RMK AO2
14837KMSN MSN20050411133509404/11/05 13:35:31  5-MIN KMSN 111935Z 09016KT 10SM CLR 19/04 A2994 850 35  1600 090/16 RMK AO2
14837KMSN MSN20050411134010004/11/05 13:40:31  5-MIN KMSN 111940Z 10015G22KT 10SM CLR 19/04 A2993 850  35 1600 090/15G22 RMK AO2
14837KMSN MSN20050411134510004/11/05 13:45:31  5-MIN KMSN 111945Z 09018G22KT 10SM CLR 19/04 A2993 850  35 1600 090/18G22 RMK AO2
14837KMSN MSN20050411135011704/11/05 13:50:31  5-MIN KMSN 111950Z 09013G21KT 10SM CLR 19/04 A2993 850  35 1600 090/13G21 RMK AO2 SLP135 T01940039
14837KMSN MSN20050411135509704/11/05 13:55:31  5-MIN KMSN 111955Z 09014KT 10SM BKN100 19/04 A2993 850  35 1600 090/14 RMK AO2
14837KMSN MSN20050411140009704/11/05 14:00:31  5-MIN KMSN 112000Z 10016KT 10SM BKN100 19/03 A2993 860  34 1600 100/16 RMK AO2
14837KMSN MSN20050411140509704/11/05 14:05:31  5-MIN KMSN 112005Z 09016KT 10SM BKN100 20/03 A2993 860  33 1700 090/16 RMK AO2
14837KMSN MSN20050411141010004/11/05 14:10:31  5-MIN KMSN 112010Z 09017G24KT 10SM CLR 20/04 A2992 870  34 1700 090/17G24 RMK AO2
14837KMSN MSN20050411141510004/11/05 14:15:31  5-MIN KMSN 112015Z 09016G24KT 10SM CLR 20/04 A2992 870  34 1700 090/16G24 RMK AO2
14837KMSN MSN20050411142010004/11/05 14:20:31  5-MIN KMSN 112020Z 08018G22KT 10SM CLR 20/04 A2991 870  34 1700 080/18G22 RMK AO2
14837KMSN MSN20050411142510004/11/05 14:25:31  5-MIN KMSN 112025Z 09017G23KT 10SM CLR 20/03 A2991 870  33 1700 090/17G23 RMK AO2
14837KMSN MSN20050411143010004/11/05 14:30:31  5-MIN KMSN 112030Z 10019G23KT 10SM CLR 21/03 A2991 870  32 1800 100/19G23 RMK AO2
14837KMSN MSN20050411143509404/11/05 14:35:31  5-MIN KMSN 112035Z 10018KT 10SM CLR 21/03 A2991 870 30  1800 100/18 RMK AO2
14837KMSN MSN20050411144011804/11/05 14:40:31  5-MIN KMSN 112040Z 10021G26KT 10SM CLR 21/03 A2991 880  30 1800 090/21G26 RMK AO2 PK WND 09026/2040
14837KMSN MSN20050411144511804/11/05 14:45:31  5-MIN KMSN 112045Z 10018G26KT 10SM CLR 21/03 A2991 880  32 1800 100/18G26 RMK AO2 PK WND 09026/2040
14837KMSN MSN20050411145013504/11/05 14:50:31  5-MIN KMSN 112050Z 10017KT 10SM CLR 21/03 A2991 880 32  1800 100/17 RMK AO2 PK WND 09026/2040 SLP125 T02060033 56004
14837KMSN MSN20050411145510004/11/05 14:55:31  5-MIN KMSN 112055Z 09020G26KT 10SM CLR 21/03 A2991 880  30 1800 090/20G26 RMK AO2
14837KMSN MSN20050411150011804/11/05 15:00:31  5-MIN KMSN 112100Z 10020G26KT 10SM CLR 21/03 A2991 880  30 1800 100/20G26 RMK AO2 PK WND 09026/2100
14837KMSN MSN20050411150511804/11/05 15:05:31  5-MIN KMSN 112105Z 09023G26KT 10SM CLR 21/03 A2991 880  30 1800 090/23G26 RMK AO2 PK WND 09026/2105
14837KMSN MSN20050411151011804/11/05 15:10:31  5-MIN KMSN 112110Z 11021G27KT 10SM CLR 20/03 A2991 880  31 1700 100/21G27 RMK AO2 PK WND 11027/2110
14837KMSN MSN20050411151511804/11/05 15:15:31  5-MIN KMSN 112115Z 10019G27KT 10SM CLR 21/03 A2991 880  30 1800 100/19G27 RMK AO2 PK WND 11027/2111
14837KMSN MSN20050411152011804/11/05 15:20:31  5-MIN KMSN 112120Z 10020G25KT 10SM CLR 21/03 A2990 880  30 1800 100/20G25 RMK AO2 PK WND 11027/2111
14837KMSN MSN20050411152511804/11/05 15:25:31  5-MIN KMSN 112125Z 09023G26KT 10SM CLR 21/03 A2990 890  30 1800 090/23G26 RMK AO2 PK WND 11027/2111
14837KMSN MSN20050411153011804/11/05 15:30:31  5-MIN KMSN 112130Z 10019G26KT 10SM CLR 21/03 A2989 890  30 1800 100/19G26 RMK AO2 PK WND 09027/2126
14837KMSN MSN20050411153511804/11/05 15:35:31  5-MIN KMSN 112135Z 10023G29KT 10SM CLR 21/02 A2989 890  29 1800 100/23G29 RMK AO2 PK WND 09029/2134
14837KMSN MSN20050411154012104/11/05 15:40:31  5-MIN KMSN 112140Z 09018G29KT 10SM FEW060 21/03 A2989  890 30 1800 090/18G29 RMK AO2 PK WND 09029/2134
14837KMSN MSN20050411154512104/11/05 15:45:31  5-MIN KMSN 112145Z 10021G27KT 10SM FEW060 21/03 A2989  890 30 1800 100/21G27 RMK AO2 PK WND 09029/2134
14837KMSN MSN20050411155013804/11/05 15:50:31  5-MIN KMSN 112150Z 10019G29KT 10SM FEW060 21/03 A2989  890 30 1800 100/19G29 RMK AO2 PK WND 09029/2148 SLP120 T02060028
14837KMSN MSN20050411155510004/11/05 15:55:31  5-MIN KMSN 112155Z 09015G29KT 10SM CLR 21/03 A2989 890  30 1800 090/15G29 RMK AO2
14837KMSN MSN20050411160010004/11/05 16:00:31  5-MIN KMSN 112200Z 09014G25KT 10SM CLR 21/03 A2988 900  32 1800 090/14G25 RMK AO2
14837KMSN MSN20050411160510004/11/05 16:05:31  5-MIN KMSN 112205Z 09015G22KT 10SM CLR 21/03 A2989 900  32 1800 090/15G22 RMK AO2
14837KMSN MSN20050411161012104/11/05 16:10:31  5-MIN KMSN 112210Z 09021G26KT 10SM FEW110 21/03 A2988  900 30 1800 090/21G26 RMK AO2 PK WND 09026/2210
14837KMSN MSN20050411161512104/11/05 16:15:31  5-MIN KMSN 112215Z 09021G29KT 10SM FEW110 20/02 A2988  900 30 1700 090/21G29 RMK AO2 PK WND 10029/2213
14837KMSN MSN20050411162012104/11/05 16:20:31  5-MIN KMSN 112220Z 10018G29KT 10SM FEW110 20/02 A2988  900 30 1700 100/18G29 RMK AO2 PK WND 10029/2213
14837KMSN MSN20050411162512104/11/05 16:25:31  5-MIN KMSN 112225Z 10019G24KT 10SM FEW110 20/03 A2988  900 31 1700 090/19G24 RMK AO2 PK WND 10029/2213
14837KMSN MSN20050411163012104/11/05 16:30:31  5-MIN KMSN 112230Z 09020G25KT 10SM FEW110 20/02 A2988  900 30 1700 090/20G25 RMK AO2 PK WND 10029/2213
14837KMSN MSN20050411163512104/11/05 16:35:31  5-MIN KMSN 112235Z 09017G25KT 10SM FEW110 20/03 A2988  900 31 1700 090/17G25 RMK AO2 PK WND 10029/2213
14837KMSN MSN20050411164012104/11/05 16:40:31  5-MIN KMSN 112240Z 10018G22KT 10SM FEW110 20/02 A2988  900 30 1700 090/18G22 RMK AO2 PK WND 10029/2213
14837KMSN MSN20050411164512104/11/05 16:45:31  5-MIN KMSN 112245Z 10018G26KT 10SM SCT100 19/02 A2988  900 31 1700 090/18G26 RMK AO2 PK WND 10029/2213
14837KMSN MSN20050411165013804/11/05 16:50:31  5-MIN KMSN 112250Z 10017G26KT 10SM SCT100 19/02 A2988  910 31 1700 090/17G26 RMK AO2 PK WND 10029/2213 SLP116 T01940022
14837KMSN MSN20050411165509704/11/05 16:55:31  5-MIN KMSN 112255Z 09018KT 10SM BKN095 19/02 A2987 910  31 1700 090/18 RMK AO2
14837KMSN MSN20050411170010304/11/05 17:00:31  5-MIN KMSN 112300Z 09017G23KT 10SM BKN100 20/02 A2987  910 30 1700 090/17G23 RMK AO2
14837KMSN MSN20050411170510304/11/05 17:05:31  5-MIN KMSN 112305Z 09016G23KT 10SM BKN100 19/02 A2988  910 31 1700 090/16G23 RMK AO2
14837KMSN MSN20050411171010304/11/05 17:10:31  5-MIN KMSN 112310Z 10015G23KT 10SM SCT095 19/02 A2987  910 31 1700 090/15G23 RMK AO2
14837KMSN MSN20050411171510304/11/05 17:15:31  5-MIN KMSN 112315Z 10018G23KT 10SM BKN090 19/02 A2987  910 31 1700 100/18G23 RMK AO2
14837KMSN MSN20050411172010304/11/05 17:20:31  5-MIN KMSN 112320Z 10016G23KT 10SM BKN090 19/02 A2987  910 31 1700 100/16G23 RMK AO2
14837KMSN MSN20050411172509704/11/05 17:25:31  5-MIN KMSN 112325Z 09017KT 10SM SCT090 19/02 A2987 910  30 1700 090/17 RMK AO2
14837KMSN MSN20050411173010304/11/05 17:30:31  5-MIN KMSN 112330Z 10018G23KT 10SM FEW090 19/02 A2987  910 32 1600 100/18G23 RMK AO2
14837KMSN MSN20050411173510304/11/05 17:35:31  5-MIN KMSN 112335Z 10018G23KT 10SM FEW090 19/02 A2987  910 31 1600 100/18G23 RMK AO2
14837KMSN MSN20050411174010304/11/05 17:40:31  5-MIN KMSN 112340Z 10016G23KT 10SM FEW090 19/02 A2987  910 31 1600 100/16G23 RMK AO2
14837KMSN MSN20050411174510304/11/05 17:45:31  5-MIN KMSN 112345Z 10018G24KT 10SM FEW090 19/02 A2987  910 31 1600 100/18G24 RMK AO2
14837KMSN MSN20050411175013804/11/05 17:50:31  5-MIN KMSN 112350Z 10019G24KT 10SM FEW120 19/02 A2987  910 31 1600 100/19G24 RMK AO2 SLP114 T01890017 10211 20183 58020
14837KMSN MSN20050411175512104/11/05 17:55:31  5-MIN KMSN 112355Z 10023G28KT 10SM FEW060 19/02 A2987  920 31 1600 090/23G28 RMK AO2 PK WND 09028/2355
14837KMSN MSN20050411180012104/11/05 18:00:31  5-MIN KMSN 120000Z 10018G28KT 10SM FEW060 18/02 A2986  920 32 1600 100/18G28 RMK AO2 PK WND 09028/2355
14837KMSN MSN20050411180512104/11/05 18:05:31  5-MIN KMSN 120005Z 09018G27KT 10SM FEW060 18/02 A2986  920 32 1600 090/18G27 RMK AO2 PK WND 09028/2355
14837KMSN MSN20050411181011504/11/05 18:10:31  5-MIN KMSN 120010Z 10019KT 10SM FEW060 18/02 A2987 910  32 1600 090/19 RMK AO2 PK WND 09028/2355
14837KMSN MSN20050411181511504/11/05 18:15:31  5-MIN KMSN 120015Z 10019KT 10SM FEW060 18/02 A2987 910  32 1600 100/19 RMK AO2 PK WND 09028/2355
14837KMSN MSN20050411182012104/11/05 18:20:31  5-MIN KMSN 120020Z 10013G24KT 10SM FEW060 18/02 A2987  910 34 1600 090/13G24 RMK AO2 PK WND 09028/2355
14837KMSN MSN20050411182512104/11/05 18:25:31  5-MIN KMSN 120025Z 09016G24KT 10SM FEW060 18/02 A2987  910 34 1600 090/16G24 RMK AO2 PK WND 09028/2355
14837KMSN MSN20050411183012104/11/05 18:30:31  5-MIN KMSN 120030Z 09014G22KT 10SM BKN120 18/02 A2987  910 34 1600 090/14G22 RMK AO2 PK WND 09028/2355
14837KMSN MSN20050411183512104/11/05 18:35:31  5-MIN KMSN 120035Z 10014G22KT 10SM BKN120 18/02 A2987  910 35 1500 100/14G22 RMK AO2 PK WND 09028/2355
14837KMSN MSN20050411184012104/11/05 18:40:31  5-MIN KMSN 120040Z 10017G22KT 10SM BKN120 18/02 A2987  910 35 1500 090/17G22 RMK AO2 PK WND 09028/2355
14837KMSN MSN20050411184512104/11/05 18:45:31  5-MIN KMSN 120045Z 09014G22KT 10SM BKN120 18/02 A2987  910 35 1500 090/14G22 RMK AO2 PK WND 09028/2355
14837KMSN MSN20050411185013904/11/05 18:50:31  5-MIN KMSN 120050Z 10015KT 10SM FEW090 BKN110 18/02  A2987 910 35 1500 100/15 RMK AO2 PK WND 09028/2355 SLP116 T01780022
14837KMSN MSN20050411185510404/11/05 18:55:31  5-MIN KMSN 120055Z 10016KT 10SM FEW080 OVC110 18/02  A2988 910 35 1500 100/16 RMK AO2
14837KMSN MSN20050411190011004/11/05 19:00:31  5-MIN KMSN 120100Z 10017G22KT 10SM SCT080 BKN110 18/02  A2988 900 35 1500 100/17G22 RMK AO2
14837KMSN MSN20050411190511004/11/05 19:05:31  5-MIN KMSN 120105Z 10015G22KT 10SM SCT080 BKN110 18/02  A2988 910 35 1500 100/15G22 RMK AO2
14837KMSN MSN20050411191010404/11/05 19:10:31  5-MIN KMSN 120110Z 10013KT 10SM SCT080 BKN110 17/02  A2988 900 36 1400 090/13 RMK AO2
14837KMSN MSN20050411191510404/11/05 19:15:31  5-MIN KMSN 120115Z 10016KT 10SM SCT080 BKN110 17/02  A2988 910 36 1400 090/16 RMK AO2
14837KMSN MSN20050411192010404/11/05 19:20:31  5-MIN KMSN 120120Z 09014KT 10SM SCT080 BKN110 17/02  A2988 900 36 1400 090/14 RMK AO2
14837KMSN MSN20050411192510404/11/05 19:25:31  5-MIN KMSN 120125Z 10016KT 10SM SCT080 BKN110 17/02  A2988 900 36 1400 100/16 RMK AO2
14837KMSN MSN20050411193010404/11/05 19:30:31  5-MIN KMSN 120130Z 10014KT 10SM SCT080 BKN110 17/02  A2988 900 36 1400 100/14 RMK AO2
14837KMSN MSN20050411193510404/11/05 19:35:31  5-MIN KMSN 120135Z 10015KT 10SM FEW085 BKN110 17/02  A2988 900 36 1400 100/15 RMK AO2
14837KMSN MSN20050411194010404/11/05 19:40:31  5-MIN KMSN 120140Z 10017KT 10SM FEW085 BKN120 17/02  A2988 900 36 1400 100/17 RMK AO2
14837KMSN MSN20050411194510404/11/05 19:45:31  5-MIN KMSN 120145Z 10016KT 10SM FEW090 BKN120 17/02  A2988 900 36 1400 100/16 RMK AO2
14837KMSN MSN20050411195012104/11/05 19:50:31  5-MIN KMSN 120150Z 09018KT 10SM SCT095 BKN120 17/02  A2988 900 37 1300 090/18 RMK AO2 SLP118 T01670022
14837KMSN MSN20050411195510404/11/05 19:55:31  5-MIN KMSN 120155Z 09014KT 10SM BKN100 BKN120 17/02  A2988 900 37 1300 090/14 RMK AO2
14837KMSN MSN20050411200010404/11/05 20:00:31  5-MIN KMSN 120200Z 09015KT 10SM FEW085 BKN110 17/02  A2988 900 37 1300 090/15 RMK AO2
14837KMSN MSN20050411200509704/11/05 20:05:31  5-MIN KMSN 120205Z 09016KT 10SM BKN110 17/02 A2988 900  36 1300 090/16 RMK AO2
14837KMSN MSN20050411201010404/11/05 20:10:31  5-MIN KMSN 120210Z 09017KT 10SM SCT100 BKN120 17/02  A2988 900 36 1300 090/17 RMK AO2
14837KMSN MSN20050411201510404/11/05 20:15:31  5-MIN KMSN 120215Z 09017KT 10SM SCT100 BKN110 16/02  A2988 900 37 1300 090/17 RMK AO2
14837KMSN MSN20050411202011004/11/05 20:20:31  5-MIN KMSN 120220Z 10016G21KT 10SM FEW085 SCT110 16/02  A2988 900 37 1300 100/16G21 RMK AO2
14837KMSN MSN20050411202511004/11/05 20:25:31  5-MIN KMSN 120225Z 10017G24KT 10SM FEW080 SCT110 16/02  A2988 900 37 1300 090/17G24 RMK AO2
14837KMSN MSN20050411203011004/11/05 20:30:31  5-MIN KMSN 120230Z 10017G24KT 10SM SCT090 BKN110 16/02  A2987 910 37 1300 090/17G24 RMK AO2
14837KMSN MSN20050411203510404/11/05 20:35:31  5-MIN KMSN 120235Z 10017KT 10SM BKN090 BKN110 16/02  A2987 910 37 1300 090/17 RMK AO2
14837KMSN MSN20050411204011004/11/05 20:40:31  5-MIN KMSN 120240Z 10017G22KT 10SM FEW070 BKN090 16/01  A2987 910 36 1300 100/17G22 RMK AO2
14837KMSN MSN20050411204511004/11/05 20:45:31  5-MIN KMSN 120245Z 10017G22KT 10SM FEW070 BKN095 16/01  A2987 910 36 1300 100/17G22 RMK AO2
14837KMSN MSN20050411205012704/11/05 20:50:31  5-MIN KMSN 120250Z 10016KT 10SM SCT075 OVC100 16/01  A2987 910 36 1300 100/16 RMK AO2 SLP114 T01610011 56013
14837KMSN MSN20050411205511004/11/05 20:55:31  5-MIN KMSN 120255Z 10019G24KT 10SM SCT075 OVC095 16/01  A2987 910 36 1300 100/19G24 RMK AO2
14837KMSN MSN20050411210012804/11/05 21:00:31  5-MIN KMSN 120300Z 10020G26KT 10SM SCT075 OVC095 16/01  A2987 910 34 1300 100/20G26 RMK AO2 PK WND 10026/0300
14837KMSN MSN20050411210512804/11/05 21:05:31  5-MIN KMSN 120305Z 10019G26KT 10SM BKN080 OVC100 16/00  A2987 910 33 1300 100/19G26 RMK AO2 PK WND 10026/0300
14837KMSN MSN20050411211012804/11/05 21:10:31  5-MIN KMSN 120310Z 10023G26KT 10SM SCT080 OVC095 16/M01 A2987 910 32 1300 100/23G26 RMK AO2 PK WND 10027/0309
14837KMSN MSN20050411211512804/11/05 21:15:31  5-MIN KMSN 120315Z 10021G27KT 10SM SCT075 OVC095 17/M01 A2986 920 31 1400 100/21G27 RMK AO2 PK WND 09027/0311
14837KMSN MSN20050411212012204/11/05 21:20:31  5-MIN KMSN 120320Z 10025G31KT 10SM OVC090 17/M01 A2986  920 31 1400 100/25G31 RMK AO2 PK WND 10031/0319
14837KMSN MSN20050411212512804/11/05 21:25:31  5-MIN KMSN 120325Z 10022G31KT 10SM BKN090 OVC110 16/M02 A2986 920 28 1300 100/22G31 RMK AO2 PK WND 10031/0319
14837KMSN MSN20050411213012804/11/05 21:30:31  5-MIN KMSN 120330Z 10023G29KT 10SM BKN090 BKN110 16/M03 A2986 920 27 1300 100/23G29 RMK AO2 PK WND 10031/0319
14837KMSN MSN20050411213512804/11/05 21:35:31  5-MIN KMSN 120335Z 10019G29KT 10SM BKN090 BKN110 16/M03 A2986 920 26 1300 100/19G29 RMK AO2 PK WND 10031/0319
14837KMSN MSN20050411214012804/11/05 21:40:31  5-MIN KMSN 120340Z 10020G29KT 10SM BKN085 BKN110 16/M03 A2986 920 26 1300 100/20G29 RMK AO2 PK WND 10031/0319
14837KMSN MSN20050411214512804/11/05 21:45:31  5-MIN KMSN 120345Z 10026G30KT 10SM BKN080 BKN100 16/M04 A2986 920 25 1300 100/26G30 RMK AO2 PK WND 10031/0319
14837KMSN MSN20050411215015304/11/05 21:50:31  5-MIN KMSN 120350Z 10024G30KT 10SM BKN075 BKN090 OVC110 16/M04 A2985 930 24 1300 100/24G30 RMK AO2 PK WND 10031/0319 SLP108  T01611044
14837KMSN MSN20050411215512204/11/05 21:55:31  5-MIN KMSN 120355Z 10024G30KT 10SM BKN075 16/M04 A2985  930 24 1300 100/24G30 RMK AO2 PK WND 10029/0355
14837KMSN MSN20050411220012204/11/05 22:00:31  5-MIN KMSN 120400Z 10025G31KT 10SM OVC075 16/M04 A2985  930 24 1300 100/25G31 RMK AO2 PK WND 11031/0356
14837KMSN MSN20050411220512804/11/05 22:05:31  5-MIN KMSN 120405Z 10021G31KT 10SM BKN075 OVC090 16/M05 A2985 930 23 1300 100/21G31 RMK AO2 PK WND 11031/0356
14837KMSN MSN20050411221012804/11/05 22:10:31  5-MIN KMSN 120410Z 10018G28KT 10SM BKN080 BKN095 16/M04 A2985 930 25 1300 100/18G28 RMK AO2 PK WND 11031/0356
14837KMSN MSN20050411221512804/11/05 22:15:31  5-MIN KMSN 120415Z 10018G27KT 10SM BKN075 BKN090 16/M05 A2985 930 24 1300 100/18G27 RMK AO2 PK WND 11031/0356
14837KMSN MSN20050411222012804/11/05 22:20:31  5-MIN KMSN 120420Z 10021G27KT 10SM FEW070 BKN090 16/M04 A2985 930 25 1300 100/21G27 RMK AO2 PK WND 11031/0356
14837KMSN MSN20050411222512804/11/05 22:25:31  5-MIN KMSN 120425Z 10021G27KT 10SM SCT070 BKN090 16/M05 A2985 930 24 1200 100/21G27 RMK AO2 PK WND 11031/0356
14837KMSN MSN20050411223012804/11/05 22:30:31  5-MIN KMSN 120430Z 11022G28KT 10SM BKN075 OVC090 16/M06 A2985 930 23 1200 100/22G28 RMK AO2 PK WND 11031/0356
14837KMSN MSN20050411223512804/11/05 22:35:31  5-MIN KMSN 120435Z 11022G29KT 10SM BKN075 OVC090 16/M06 A2986 920 23 1200 110/22G29 RMK AO2 PK WND 11031/0356
14837KMSN MSN20050411224012804/11/05 22:40:31  5-MIN KMSN 120440Z 11023G29KT 10SM BKN070 OVC090 16/M06 A2987 910 23 1200 110/23G29 RMK AO2 PK WND 11031/0356
14837KMSN MSN20050411224512904/11/05 22:45:31  5-MIN KMSN 120445Z 12017G31KT 10SM OVC075 16/M06 A2988  900 23 1200 120/17G31 RMK AO2 PK WND 12031/0441 PRESRR
14837KMSN MSN20050411225013904/11/05 22:50:31  5-MIN KMSN 120450Z 11017G31KT 10SM OVC075 15/M06 A2987  910 23 1200 110/17G31 RMK AO2 PK WND 12031/0441 SLP115 T01501056
14837KMSN MSN20050411225510404/11/05 22:55:31  5-MIN KMSN 120455Z 11018G21KT 10SM OVC080 15/M06 A2988  900 23 1200 110/18G21 RMK AO2
14837KMSN MSN20050411230013504/11/05 23:00:31  5-MIN KMSN 120500Z 11022G27KT 10SM BKN075 BKN090 OVC120 15/M06 A2988 900 23 1200 110/22G27 RMK AO2 PK WND 12027/0459
14837KMSN MSN20050411230512804/11/05 23:05:31  5-MIN KMSN 120505Z 11022G28KT 10SM BKN075 OVC120 15/M06 A2988 900 23 1200 110/22G28 RMK AO2 PK WND 10028/0504
14837KMSN MSN20050411231012804/11/05 23:10:31  5-MIN KMSN 120510Z 12018G28KT 10SM BKN075 BKN120 14/M06 A2988 900 24 1100 120/18G28 RMK AO2 PK WND 10028/0504
14837KMSN MSN20050411231512804/11/05 23:15:31  5-MIN KMSN 120515Z 11019G26KT 10SM SCT080 SCT120 14/M06 A2988 910 24 1100 110/19G26 RMK AO2 PK WND 10028/0504
14837KMSN MSN20050411232012204/11/05 23:20:31  5-MIN KMSN 120520Z 11018G26KT 10SM SCT075 14/M06 A2987  910 24 1100 110/18G26 RMK AO2 PK WND 10028/0504
14837KMSN MSN20050411232512204/11/05 23:25:31  5-MIN KMSN 120525Z 11020G25KT 10SM FEW075 14/M06 A2987  910 24 1100 110/20G25 RMK AO2 PK WND 10028/0504
14837KMSN MSN20050411233012204/11/05 23:30:31  5-MIN KMSN 120530Z 11019G25KT 10SM FEW075 14/M06 A2987  910 24 1100 110/19G25 RMK AO2 PK WND 10028/0504
14837KMSN MSN20050411233512204/11/05 23:35:31  5-MIN KMSN 120535Z 11020G26KT 10SM FEW080 14/M06 A2987  910 25 1000 110/20G26 RMK AO2 PK WND 10028/0504
14837KMSN MSN20050411234012204/11/05 23:40:31  5-MIN KMSN 120540Z 11020G26KT 10SM FEW038 14/M06 A2986  920 24 1000 100/20G26 RMK AO2 PK WND 10028/0504
14837KMSN MSN20050411234512804/11/05 23:45:31  5-MIN KMSN 120545Z 10020G27KT 10SM FEW038 SCT085 14/M06 A2986 920 24 1000 100/20G27 RMK AO2 PK WND 10028/0504
14837KMSN MSN20050411235017404/11/05 23:50:31  5-MIN KMSN 120550Z 11020G27KT 10SM SCT060 BKN085 14/M07 A2986 920 23 1000 100/20G27 RMK AO2 PK WND 10028/0504 SLP111 T01391067  10189 20139 402110122 50001
14837KMSN MSN20050411235511004/11/05 23:55:31  5-MIN KMSN 120555Z 11022G26KT 10SM BKN060 BKN085 14/M06 A2987 910 24 1000 110/22G26 RMK AO2
14837KMSN MSN20050412000010504/12/05 00:00:31  5-MIN KMSN 120600Z 10019KT 10SM BKN060 BKN085 14/M07  A2987 920 23 1000 100/19 RMK AO2
14837KMSN MSN20050412000510504/12/05 00:05:31  5-MIN KMSN 120605Z 11020KT 10SM BKN060 OVC090 14/M07  A2987 910 23 1000 110/20 RMK AO2
14837KMSN MSN20050412001012204/12/05 00:10:31  5-MIN KMSN 120610Z 11021G26KT 10SM OVC060 14/M07 A2987  910 23 1000 110/21G26 RMK AO2 PK WND 11026/0607
14837KMSN MSN20050412001512204/12/05 00:15:31  5-MIN KMSN 120615Z 11019G26KT 10SM OVC060 13/M07 A2987  910 24 1000 110/19G26 RMK AO2 PK WND 11026/0607
14837KMSN MSN20050412002012204/12/05 00:20:31  5-MIN KMSN 120620Z 11016G23KT 10SM OVC065 13/M07 A2987  910 24 1000 110/16G23 RMK AO2 PK WND 11026/0607
14837KMSN MSN20050412002512204/12/05 00:25:31  5-MIN KMSN 120625Z 11019G25KT 10SM OVC060 13/M07 A2987  910 23 1000 110/19G25 RMK AO2 PK WND 11026/0607
14837KMSN MSN20050412003012204/12/05 00:30:31  5-MIN KMSN 120630Z 11015G25KT 10SM OVC065 13/M07 A2987  910 24 1000 110/15G25 RMK AO2 PK WND 11026/0607
14837KMSN MSN20050412003512204/12/05 00:35:31  5-MIN KMSN 120635Z 11017G24KT 10SM OVC065 13/M06 A2987  920 25 1000 110/17G24 RMK AO2 PK WND 11026/0607
14837KMSN MSN20050412004012204/12/05 00:40:31  5-MIN KMSN 120640Z 11017KT 10SM BKN065 OVC080 12/M04  A2987 920 32 800 110/17 RMK AO2 PK WND 11026/0607
14837KMSN MSN20050412004513704/12/05 00:45:31  5-MIN KMSN 120645Z 11015KT 10SM -RA SCT060 OVC080 12/M03 A2986 920 35 800 110/15 RMK AO2 PK WND 11026/0607 RAB43 P0000
14837KMSN MSN20050412005016204/12/05 00:50:31  5-MIN KMSN 120650Z 10015G21KT 10SM -RA FEW060 OVC080  12/M03 A2986 920 35 800 100/15G21 RMK AO2 PK WND 11026/0607 RAB43 SLP112  P0000 T01171033
14837KMSN MSN20050412005510404/12/05 00:55:31  5-MIN KMSN 120655Z 10016KT 10SM SCT070 OVC090 12/M03  A2986 920 35 800 100/16 RMK AO2
14837KMSN MSN20050412010010304/12/05 01:00:31  5-MIN KMSN 120700Z 10016G24KT 10SM OVC085 12/M04 A2986  920 33 800 100/16G24 RMK AO2
14837KMSN MSN20050412010510304/12/05 01:05:31  5-MIN KMSN 120705Z 10015G24KT 10SM OVC085 12/M04 A2987  910 32 800 100/15G24 RMK AO2
14837KMSN MSN20050412011010404/12/05 01:10:31  5-MIN KMSN 120710Z 10014KT 10SM FEW045 OVC090 12/M04  A2987 910 33 800 100/14 RMK AO2
14837KMSN MSN20050412011512604/12/05 01:15:31  5-MIN KMSN 120715Z 10014KT 10SM -RA SCT042 SCT070 OVC085 11/M02 A2987 910 40 600 100/14 RMK AO2 RAB12 P0000
14837KMSN MSN20050412012011904/12/05 01:20:31  5-MIN KMSN 120720Z 10014KT 10SM -RA SCT040 OVC080 11/M03 A2986 920 39 600 100/14 RMK AO2 RAB12 P0000
14837KMSN MSN20050412012511904/12/05 01:25:31  5-MIN KMSN 120725Z 10015KT 10SM SCT040 OVC080 11/M03  A2986 920 36 700 100/15 RMK AO2 RAB12E22 P0000
14837KMSN MSN20050412013012604/12/05 01:30:31  5-MIN KMSN 120730Z 10014KT 10SM FEW034 BKN080 OVC095  11/M04 A2987 920 33 700 100/14 RMK AO2 RAB12E22 P0000
14837KMSN MSN20050412013513104/12/05 01:35:31  5-MIN KMSN 120735Z 10018G23KT 10SM SCT034 BKN043 OVC085 11/M05 A2986 920 32 700 100/18G23 RMK AO2 RAB12E22 P0000
14837KMSN MSN20050412014013304/12/05 01:40:31  5-MIN KMSN 120740Z 10015G23KT 10SM -RA FEW034 BKN070  OVC085 11/M05 A2986 920 32 700 100/15G23 RMK AO2 RAB12 P0000
14837KMSN MSN20050412014513304/12/05 01:45:31  5-MIN KMSN 120745Z 11016G22KT 10SM -RA FEW034 BKN070  OVC090 11/M05 A2986 920 32 700 110/16G22 RMK AO2 RAB12 P0000
14837KMSN MSN20050412015015104/12/05 01:50:31  5-MIN KMSN 120750Z 10016G22KT 10SM -RA SCT032 BKN070  OVC090 11/M04 A2986 920 34 700 100/16G22 RMK AO2 RAB12 SLP111 P0000  T01111039
14837KMSN MSN20050412015512004/12/05 01:55:31  5-MIN KMSN 120755Z 11020KT 10SM -RA SCT032 BKN046 OVC075 10/M03 A2986 920 40 600 100/20 RMK AO2 P0000
14837KMSN MSN20050412020012004/12/05 02:00:31  5-MIN KMSN 120800Z 10013KT 10SM -RA BKN030 BKN046 OVC075 09/M02 A2986 920 45 500 100/13 RMK AO2 P0000
14837KMSN MSN20050412020512704/12/05 02:05:31  5-MIN KMSN 120805Z 10016G20KT 10SM -RA BKN030 BKN046  OVC070 09/M01 A2986 920 47 500 090/16G20 RMK AO2 P0000
14837KMSN MSN20050412021012004/12/05 02:10:31  5-MIN KMSN 120810Z 09015KT 10SM -RA BKN030 BKN046 OVC070 09/M01 A2985 930 47 500 090/15 RMK AO2 P0000
14837KMSN MSN20050412021512704/12/05 02:15:31  5-MIN KMSN 120815Z 08015G21KT 10SM -RA BKN030 BKN046  OVC065 09/M01 A2985 930 49 500 080/15G21 RMK AO2 P0000
14837KMSN MSN20050412022012604/12/05 02:20:31  5-MIN KMSN 120820Z 09017G22KT 10SM -RA SCT030 BKN065  OVC085 09/00 A2984 940 53 500 090/17G22 RMK AO2 P0000
14837KMSN MSN20050412022511904/12/05 02:25:31  5-MIN KMSN 120825Z 08016G22KT 10SM -RA SCT030 OVC070  09/00 A2984 940 53 500 080/16G22 RMK AO2 P0000
14837KMSN MSN20050412023011904/12/05 02:30:31  5-MIN KMSN 120830Z 08016KT 10SM -RA FEW030 OVC075 09/00 A2983 950 53 500 080/16 RMK AO2 PRESFR P0000
14837KMSN MSN20050412023511904/12/05 02:35:31  5-MIN KMSN 120835Z 08017G22KT 10SM -RA FEW030 OVC080  09/00 A2983 950 53 500 080/17G22 RMK AO2 P0000
14837KMSN MSN20050412024010604/12/05 02:40:31  5-MIN KMSN 120840Z 07016KT 10SM -RA OVC080 09/00 A2982  960 53 500 070/16 RMK AO2 P0000
14837KMSN MSN20050412024511304/12/05 02:45:31  5-MIN KMSN 120845Z 07017KT 10SM -RA OVC075 08/01 A2981  960 60 400 070/17 RMK AO2 PRESFR P0000
14837KMSN MSN20050412025014804/12/05 02:50:31  5-MIN KMSN 120850Z 07020G23KT 10SM -RA BKN075 OVC090  08/01 A2981 970 60 400 070/20G23 RMK AO2 SLP094 P0000 60000 T00830011 56002
14837KMSN MSN20050412025511904/12/05 02:55:31  5-MIN KMSN 120855Z 08018G23KT 10SM -RA BKN075 OVC090  08/02 A2981 970 63 400 070/18G23 RMK AO2 P0000
14837KMSN MSN20050412030010604/12/05 03:00:31  5-MIN KMSN 120900Z 08020KT 10SM -RA OVC080 08/02 A2981  960 63 400 080/20 RMK AO2 P0000
14837KMSN MSN20050412030510604/12/05 03:05:31  5-MIN KMSN 120905Z 08018KT 10SM -RA OVC080 08/02 A2982  960 63 400 080/18 RMK AO2 P0000
14837KMSN MSN20050412031011904/12/05 03:10:31  5-MIN KMSN 120910Z 09018G23KT 10SM -RA BKN080 OVC100  08/01 A2982 960 60 400 090/18G23 RMK AO2 P0000
14837KMSN MSN20050412031512804/12/05 03:15:31  5-MIN KMSN 120915Z 11012G23KT 10SM BKN080 OVC095 08/01  A2983 950 60 400 110/12G23 RMK AO2 RAE11 PRESRR P0000
14837KMSN MSN20050412032010804/12/05 03:20:31  5-MIN KMSN 120920Z 10013KT 10SM OVC090 08/01 A2983 950  60 400 100/13 RMK AO2 RAE11 P0000
14837KMSN MSN20050412032510804/12/05 03:25:31  5-MIN KMSN 120925Z 10012KT 10SM OVC085 08/01 A2983 950  60 400 100/12 RMK AO2 RAE11 P0000
14837KMSN MSN20050412033010804/12/05 03:30:31  5-MIN KMSN 120930Z 11014KT 10SM OVC085 08/01 A2984 940  62 300 110/14 RMK AO2 RAE11 P0000
14837KMSN MSN20050412033511404/12/05 03:35:31  5-MIN KMSN 120935Z 12013G19KT 10SM OVC085 08/01 A2985  930 62 300 110/13G19 RMK AO2 RAE11 P0000
14837KMSN MSN20050412034011504/12/05 03:40:31  5-MIN KMSN 120940Z 14012KT 10SM OVC085 08/02 A2987 910  65 300 130/12 RMK AO2 RAE11 PRESRR P0000
14837KMSN MSN20050412034510804/12/05 03:45:31  5-MIN KMSN 120945Z 11015KT 10SM OVC080 08/01 A2986 920  62 300 110/15 RMK AO2 RAE11 P0000
14837KMSN MSN20050412035013204/12/05 03:50:31  5-MIN KMSN 120950Z 10015KT 10SM -RA OVC080 08/01 A2986  920 62 300 100/15 RMK AO2 RAE11B47 SLP111 P0000 T00780011
14837KMSN MSN20050412035510604/12/05 03:55:31  5-MIN KMSN 120955Z 09014KT 10SM -RA OVC080 08/02 A2985  930 65 300 090/14 RMK AO2 P0000
14837KMSN MSN20050412040011904/12/05 04:00:31  5-MIN KMSN 121000Z 09015KT 10SM -RA FEW049 SCT055 OVC080 08/02 A2985 930 65 300 090/15 RMK AO2 P0000
14837KMSN MSN20050412040511904/12/05 04:05:31  5-MIN KMSN 121005Z 10015G20KT 10SM -RA BKN055 OVC080  07/02 A2986 920 70 300 100/15G20 RMK AO2 P0000
14837KMSN MSN20050412041011904/12/05 04:10:31  5-MIN KMSN 121010Z 10011KT 10SM -RA FEW046 BKN060 OVC080 07/02 A2986 920 70 200 100/11 RMK AO2 P0000
14837KMSN MSN20050412041512204/12/05 04:15:31  5-MIN KMSN 121015Z 10014KT 10SM FEW049 BKN060 OVC100  07/02 A2986 920 70 200 100/14 RMK AO2 RAE15 P0000
14837KMSN MSN20050412042012204/12/05 04:20:31  5-MIN KMSN 121020Z 09013KT 10SM FEW049 BKN075 OVC095  07/02 A2985 930 68 300 090/13 RMK AO2 RAE15 P0001
14837KMSN MSN20050412042512204/12/05 04:25:31  5-MIN KMSN 121025Z 09015KT 10SM SCT060 SCT070 OVC090  07/02 A2984 930 68 300 090/15 RMK AO2 RAE15 P0001
14837KMSN MSN20050412043011504/12/05 04:30:31  5-MIN KMSN 121030Z 08015KT 10SM SCT065 OVC090 07/02  A2984 940 68 300 080/15 RMK AO2 RAE15 P0001
14837KMSN MSN20050412043512104/12/05 04:35:31  5-MIN KMSN 121035Z 09014KT 10SM -RA SCT065 OVC090 07/01 A2984 940 65 300 090/14 RMK AO2 RAE15B32 P0001
14837KMSN MSN20050412044012804/12/05 04:40:31  5-MIN KMSN 121040Z 09017G21KT 10SM -RA FEW060 OVC090  07/01 A2983 940 65 300 090/17G21 RMK AO2 RAE15B32 P0001
14837KMSN MSN20050412044512804/12/05 04:45:31  5-MIN KMSN 121045Z 09016G21KT 10SM -RA FEW070 OVC090  07/01 A2983 950 65 300 090/16G21 RMK AO2 RAE15B32 P0001
14837KMSN MSN20050412045013804/12/05 04:50:31  5-MIN KMSN 121050Z 09013KT 10SM -RA FEW070 OVC085 07/01 A2983 950 65 300 090/13 RMK AO2 RAE15B32 SLP102 P0001 T00720011
14837KMSN MSN20050412045511904/12/05 04:55:31  5-MIN KMSN 121055Z 09015G20KT 10SM -RA FEW070 OVC080  07/02 A2983 950 68 300 090/15G20 RMK AO2 P0000
14837KMSN MSN20050412050011004/12/05 05:00:31  5-MIN KMSN 121100Z 09016G21KT 9SM -RA OVC080 07/01 A2983 950 65 300 090/16G21 RMK AO2 P0000
14837KMSN MSN20050412050511004/12/05 05:05:31  5-MIN KMSN 121105Z 09018G22KT 9SM -RA OVC080 07/01 A2983 950 65 300 080/18G22 RMK AO2 P0000
14837KMSN MSN20050412051011004/12/05 05:10:31  5-MIN KMSN 121110Z 09016G22KT 9SM -RA OVC080 07/01 A2983 950 65 300 090/16G22 RMK AO2 P0000
14837KMSN MSN20050412051510504/12/05 05:15:31  5-MIN KMSN 121115Z 08018KT 9SM -RA OVC080 07/01 A2982  950 65 300 080/18 RMK AO2 P0000
14837KMSN MSN20050412052011004/12/05 05:20:31  5-MIN KMSN 121120Z 08018G22KT 9SM -RA OVC080 07/01 A2982 960 67 200 080/18G22 RMK AO2 P0000
14837KMSN MSN20050412052511804/12/05 05:25:31  5-MIN KMSN 121125Z 08018G24KT 7SM -RA FEW065 OVC080  07/01 A2981 960 67 200 080/18G24 RMK AO2 P0001
14837KMSN MSN20050412053012804/12/05 05:30:31  5-MIN KMSN 121130Z 08018G28KT 8SM -RA OVC080 07/01 A2981 970 67 200 070/18G28 RMK AO2 PK WND 08028/1127 P0001
14837KMSN MSN20050412053513604/12/05 05:35:31  5-MIN KMSN 121135Z 07019G28KT 9SM -RA FEW065 OVC085  07/02 A2980 970 70 200 070/19G28 RMK AO2 PK WND 08028/1127 P0001
14837KMSN MSN20050412054013604/12/05 05:40:31  5-MIN KMSN 121140Z 07020G27KT 9SM -RA SCT060 OVC085  07/02 A2980 980 70 200 070/20G27 RMK AO2 PK WND 08028/1127 P0001
14837KMSN MSN20050412054513904/12/05 05:45:31  5-MIN KMSN 121145Z 08017G23KT 10SM SCT065 OVC080 07/01  A2982 960 67 200 080/17G23 RMK AO2 PK WND 08028/1127 RAE44 P0001
14837KMSN MSN20050412055018704/12/05 05:50:31  5-MIN KMSN 121150Z 10012KT 10SM SCT065 OVC085 07/01  A2983 950 67 200 100/12 RMK AO2 PK WND 08028/1127 RAE44 PRESRR SLP102 P0001 60002 70002 T00670011 10139 20061 58018
14837KMSN MSN20050412055510904/12/05 05:55:31  5-MIN KMSN 121155Z 09014G18KT 10SM BKN065 OVC085 07/01  A2982 960 67 200 090/14G18 RMK AO2
14837KMSN MSN20050412060010904/12/05 06:00:31  5-MIN KMSN 121200Z 09015G18KT 10SM BKN065 OVC085 07/01  A2982 950 67 200 090/15G18 RMK AO2
14837KMSN MSN20050412060510804/12/05 06:05:31  5-MIN KMSN 121205Z 09015G23KT 9SM SCT065 OVC080 06/01  A2982 950 70 200 080/15G23 RMK AO2
14837KMSN MSN20050412061012404/12/05 06:10:31  5-MIN KMSN 121210Z 08020G24KT 6SM -RA FEW065 OVC080  06/01 A2981 960 70 200 080/20G24 RMK AO2 RAB07 P0000
14837KMSN MSN20050412061512404/12/05 06:15:31  5-MIN KMSN 121215Z 07015G25KT 6SM -RA FEW065 OVC080  06/01 A2981 970 70 200 070/15G25 RMK AO2 RAB07 P0000
14837KMSN MSN20050412062014204/12/05 06:20:31  5-MIN KMSN 121220Z 07019G27KT 6SM -RA FEW065 OVC080  06/02 A2980 970 76 100 070/19G27 RMK AO2 PK WND 07027/1219 RAB07 P0000
14837KMSN MSN20050412062514204/12/05 06:25:31  5-MIN KMSN 121225Z 09017G27KT 7SM -RA SCT065 OVC085  06/01 A2982 950 70 200 090/17G27 RMK AO2 PK WND 07027/1219 RAB07 P0000
14837KMSN MSN20050412063014204/12/05 06:30:31  5-MIN KMSN 121230Z 08016G26KT 7SM -RA BKN060 OVC080  06/01 A2982 960 70 200 080/16G26 RMK AO2 PK WND 07027/1219 RAB07 P0001
14837KMSN MSN20050412063515004/12/05 06:35:31  5-MIN KMSN 121235Z 10015G21KT 6SM -RA BKN060 OVC080  06/01 A2984 940 70 100 100/15G21 RMK AO2 PK WND 07027/1219 RAB07 PRESRR  P0001
14837KMSN MSN20050412064013604/12/05 06:40:31  5-MIN KMSN 121240Z 09015KT 7SM -RA BKN060 OVC080 06/01  A2983 940 73 100 090/15 RMK AO2 PK WND 07027/1219 RAB07 P0001
14837KMSN MSN20050412064513604/12/05 06:45:31  5-MIN KMSN 121245Z 10015G19KT 10SM -RA OVC065 06/01  A2984 940 70 100 090/15G19 RMK AO2 PK WND 07027/1219 RAB07 P0001
14837KMSN MSN20050412065014604/12/05 06:50:31  5-MIN KMSN 121250Z 09010KT 10SM OVC065 06/01 A2984 940  70 100 090/10 RMK AO2 PK WND 07027/1219 RAB07E49 SLP105 P0001 T00610011
14837KMSN MSN20050412065510304/12/05 06:55:31  5-MIN KMSN 121255Z 08012KT 10SM BKN060 OVC070 06/01  A2983 940 67 100 080/12 RMK AO2
14837KMSN MSN20050412070011804/12/05 07:00:31  5-MIN KMSN 121300Z 08014KT 10SM -RA BKN060 OVC070 06/01 A2983 940 70 100 080/14 RMK AO2 RAB00 P0000
14837KMSN MSN20050412070511604/12/05 07:05:31  5-MIN KMSN 121305Z 08014G20KT 9SM -RA OVC060 06/01 A2983 950 67 100 080/14G20 RMK AO2 RAB00 P0000
14837KMSN MSN20050412071011604/12/05 07:10:31  5-MIN KMSN 121310Z 08014G23KT 7SM -RA OVC060 06/01 A2983 950 67 100 080/14G23 RMK AO2 RAB00 P0000
14837KMSN MSN20050412071512404/12/05 07:15:31  5-MIN KMSN 121315Z 08013G23KT 6SM -RA FEW040 OVC060  06/01 A2983 950 67 100 080/13G23 RMK AO2 RAB00 P0000
14837KMSN MSN20050412072012404/12/05 07:20:31  5-MIN KMSN 121320Z 08011KT 6SM -RA SCT038 BKN055 OVC070 06/01 A2982 960 67 200 080/11 RMK AO2 RAB00 P0001
14837KMSN MSN20050412072511804/12/05 07:25:31  5-MIN KMSN 121325Z 08013KT 6SM -RA SCT038 OVC060 06/01  A2982 950 70 100 080/13 RMK AO2 RAB00 P0001
14837KMSN MSN20050412073011804/12/05 07:30:31  5-MIN KMSN 121330Z 10010KT 6SM -RA SCT038 OVC060 06/01  A2983 950 70 100 100/10 RMK AO2 RAB00 P0001
14837KMSN MSN20050412073512404/12/05 07:35:31  5-MIN KMSN 121335Z 09014KT 5SM -RA BKN040 BKN055 OVC070 06/01 A2983 950 70 100 090/14 RMK AO2 RAB00 P0002
14837KMSN MSN20050412074011804/12/05 07:40:31  5-MIN KMSN 121340Z 09012KT 5SM -RA BKN042 OVC055 06/01  A2983 950 70 100 090/12 RMK AO2 RAB00 P0002
14837KMSN MSN20050412074512404/12/05 07:45:31  5-MIN KMSN 121345Z 08013KT 6SM -RA FEW035 BKN044 OVC060 06/01 A2983 940 70 100 080/13 RMK AO2 RAB00 P0002
14837KMSN MSN20050412075014104/12/05 07:50:31  5-MIN KMSN 121350Z 09011KT 7SM -RA BKN044 BKN060 OVC075 06/01 A2984 940 70 100 090/11 RMK AO2 RAB00 SLP107 P0002 T00560006
14837KMSN MSN20050412075511804/12/05 07:55:31  5-MIN KMSN 121355Z 09009KT 6SM -RA BKN045 BKN060 OVC075 06/01 A2984 940 73 100 090/09 RMK AO2 P0000
14837KMSN MSN20050412080011804/12/05 08:00:31  5-MIN KMSN 121400Z 11010KT 5SM -RA FEW041 BKN060 OVC075 06/01 A2985 930 70 100 110/10 RMK AO2 P0001
14837KMSN MSN20050412080511804/12/05 08:05:31  5-MIN KMSN 121405Z 10005KT 5SM -RA SCT049 SCT060 OVC075 06/01 A2985 930 70 100 100/05 RMK AO2 P0002
14837KMSN MSN20050412081011604/12/05 08:10:31  5-MIN KMSN 121410Z 11006KT 5SM -RA SCT049 BKN065 OVC080 06/01 A2985 930 70 0 100/06 RMK AO2 P0002
14837KMSN MSN20050412081511604/12/05 08:15:31  5-MIN KMSN 121415Z 09009KT 5SM -RA SCT049 BKN065 OVC075 06/01 A2986 920 70 0 090/09 RMK AO2 P0003
14837KMSN MSN20050412082011604/12/05 08:20:31  5-MIN KMSN 121420Z 11007KT 6SM -RA BKN047 BKN065 OVC080 06/01 A2986 920 70 0 100/07 RMK AO2 P0003
14837KMSN MSN20050412082511004/12/05 08:25:31  5-MIN KMSN 121425Z 11007KT 8SM -RA BKN049 OVC065 06/01  A2987 910 73 0 110/07 RMK AO2 P0003
14837KMSN MSN20050412083010304/12/05 08:30:31  5-MIN KMSN 121430Z 12007KT 7SM -RA OVC050 06/01 A2987  910 73 0 120/07 RMK AO2 P0003
14837KMSN MSN20050412083511004/12/05 08:35:31  5-MIN KMSN 121435Z 10010KT 6SM -RA SCT048 OVC055 06/01  A2987 910 73 0 100/10 RMK AO2 P0004
14837KMSN MSN20050412084011004/12/05 08:40:31  5-MIN KMSN 121440Z 10009KT 6SM -RA BKN050 OVC060 06/01  A2987 910 73 0 090/09 RMK AO2 P0004
14837KMSN MSN20050412084510304/12/05 08:45:31  5-MIN KMSN 121445Z 10008KT 6SM -RA OVC055 06/01 A2988  910 73 0 100/08 RMK AO2 P0004
14837KMSN MSN20050412085013904/12/05 08:50:31  5-MIN KMSN 121450Z 09009KT 5SM -RA FEW042 OVC055 06/02  A2987 910 76 0 090/09 RMK AO2 SLP117 P0005 60009 T00560017 50005
14837KMSN MSN20050412085511604/12/05 08:55:31  5-MIN KMSN 121455Z 09009KT 6SM -RA FEW042 BKN060 OVC080 06/02 A2987 910 76 0 090/09 RMK AO2 P0000
14837KMSN MSN20050412090011604/12/05 09:00:31  5-MIN KMSN 121500Z 07009KT 6SM -RA FEW042 BKN060 OVC080 06/02 A2987 910 76 0 070/09 RMK AO2 P0000
14837KMSN MSN20050412090511604/12/05 09:05:31  5-MIN KMSN 121505Z 08010KT 5SM -RA FEW042 SCT060 OVC080 05/02 A2988 910 82 0 070/10 RMK AO2 P0001
14837KMSN MSN20050412091011604/12/05 09:10:31  5-MIN KMSN 121510Z 09010KT 5SM -RA FEW040 SCT060 OVC075 05/02 A2987 910 79 0 090/10 RMK AO2 P0001
14837KMSN MSN20050412091511004/12/05 09:15:31  5-MIN KMSN 121515Z 08010KT 5SM -RA FEW035 OVC080 05/02  A2988 900 79 0 080/10 RMK AO2 P0002
14837KMSN MSN20050412092011004/12/05 09:20:31  5-MIN KMSN 121520Z 08009KT 4SM -RA FEW035 OVC075 05/02  A2988 900 79 0 080/09 RMK AO2 P0002
14837KMSN MSN20050412092511004/12/05 09:25:31  5-MIN KMSN 121525Z 09011KT 4SM -RA SCT035 OVC075 05/01  A2988 900 76 0 080/11 RMK AO2 P0003
14837KMSN MSN20050412093011004/12/05 09:30:31  5-MIN KMSN 121530Z 08009KT 5SM -RA BKN035 OVC075 05/02  A2988 900 79 0 080/09 RMK AO2 P0004
14837KMSN MSN20050412093511004/12/05 09:35:31  5-MIN KMSN 121535Z 07010KT 4SM -RA BKN035 OVC075 05/02  A2988 910 79 0 070/10 RMK AO2 P0005
14837KMSN MSN20050412094011004/12/05 09:40:31  5-MIN KMSN 121540Z 07008KT 3SM -RA BKN035 OVC075 05/02  A2987 910 79 0 070/08 RMK AO2 P0006
14837KMSN MSN20050412094511004/12/05 09:45:31  5-MIN KMSN 121545Z 07009KT 4SM -RA BKN035 OVC070 05/02  A2987 910 82 0 070/09 RMK AO2 P0006
14837KMSN MSN20050412095012704/12/05 09:50:31  5-MIN KMSN 121550Z 07011KT 4SM -RA BKN035 OVC070 05/02  A2987 910 79 0 070/11 RMK AO2 SLP118 P0007 T00500017
14837KMSN MSN20050412095511004/12/05 09:55:31  5-MIN KMSN 121555Z 07010KT 4SM -RA BKN033 OVC070 05/02  A2987 910 79 0 070/10 RMK AO2 P0001
14837KMSN MSN20050412100011004/12/05 10:00:31  5-MIN KMSN 121600Z 07012KT 4SM -RA BKN031 OVC065 05/02  A2987 910 79 0 070/12 RMK AO2 P0001
14837KMSN MSN20050412100511304/12/05 10:05:31  5-MIN KMSN 121605Z 07010KT 4SM -RA BKN031 OVC065 04/02  A2987 920 82 -100 070/10 RMK AO2 P0002
14837KMSN MSN20050412101011304/12/05 10:10:31  5-MIN KMSN 121610Z 07012KT 4SM -RA BKN031 OVC060 04/02  A2986 920 82 -100 070/12 RMK AO2 P0003
14837KMSN MSN20050412101511304/12/05 10:15:31  5-MIN KMSN 121615Z 07012KT 5SM -RA BKN029 OVC040 04/02  A2987 920 82 -100 070/12 RMK AO2 P0003
14837KMSN MSN20050412102011004/12/05 10:20:31  5-MIN KMSN 121620Z 08012KT 5SM -RA BKN029 OVC042 04/02  A2986 920 82 0 080/12 RMK AO2 P0004
14837KMSN MSN20050412102511604/12/05 10:25:31  5-MIN KMSN 121625Z 07013KT 5SM -RA BKN029 BKN042 OVC075 04/02 A2986 920 82 0 070/13 RMK AO2 P0004
14837KMSN MSN20050412103011604/12/05 10:30:31  5-MIN KMSN 121630Z 07013KT 6SM -RA BKN029 BKN036 OVC080 04/02 A2986 920 82 0 070/13 RMK AO2 P0004
14837KMSN MSN20050412103511604/12/05 10:35:31  5-MIN KMSN 121635Z 07014KT 7SM -RA BKN029 BKN036 OVC075 04/02 A2986 920 82 0 070/14 RMK AO2 P0005
14837KMSN MSN20050412104011604/12/05 10:40:31  5-MIN KMSN 121640Z 08013KT 6SM -RA SCT029 BKN040 OVC070 04/02 A2986 920 82 0 080/13 RMK AO2 P0005
14837KMSN MSN20050412104511604/12/05 10:45:31  5-MIN KMSN 121645Z 09011KT 5SM -RA SCT029 SCT040 OVC070 04/02 A2986 920 82 0 090/11 RMK AO2 P0006
14837KMSN MSN20050412105013304/12/05 10:50:31  5-MIN KMSN 121650Z 08014G18KT 4SM -RA FEW029 OVC070  04/02 A2986 920 82 0 080/14G18 RMK AO2 SLP114 P0006 T00440017
14837KMSN MSN20050412105511004/12/05 10:55:31  5-MIN KMSN 121655Z 09014KT 6SM -RA FEW029 OVC065 04/02  A2986 920 82 0 090/14 RMK AO2 P0000
14837KMSN MSN20050412110011004/12/05 11:00:31  5-MIN KMSN 121700Z 08013KT 8SM -RA FEW027 OVC065 05/02  A2986 920 82 0 080/13 RMK AO2 P0000
14837KMSN MSN20050412110511004/12/05 11:05:31  5-MIN KMSN 121705Z 08013KT 6SM -RA FEW031 OVC065 05/02  A2986 920 79 0 080/13 RMK AO2 P0001
14837KMSN MSN20050412111011604/12/05 11:10:31  5-MIN KMSN 121710Z 08014KT 5SM -RA SCT029 SCT047 OVC065 05/02 A2986 920 79 0 080/14 RMK AO2 P0001
14837KMSN MSN20050412111511604/12/05 11:15:31  5-MIN KMSN 121715Z 08014KT 6SM -RA FEW024 SCT031 OVC065 05/02 A2986 920 79 0 080/14 RMK AO2 P0001
14837KMSN MSN20050412112011604/12/05 11:20:31  5-MIN KMSN 121720Z 07013KT 7SM -RA FEW024 SCT031 BKN065 05/02 A2986 920 79 0 070/13 RMK AO2 P0001
14837KMSN MSN20050412112511604/12/05 11:25:31  5-MIN KMSN 121725Z 07011KT 7SM -RA FEW029 SCT044 BKN060 05/02 A2986 920 79 0 070/11 RMK AO2 P0001
14837KMSN MSN20050412113011604/12/05 11:30:31  5-MIN KMSN 121730Z 08015G19KT 8SM -RA SCT029 BKN085  06/01 A2986 920 73 0 080/15G19 RMK AO2 P0001
14837KMSN MSN20050412113511004/12/05 11:35:31  5-MIN KMSN 121735Z 08016KT 9SM -RA SCT034 BKN085 06/01  A2985 920 70 0 080/16 RMK AO2 P0001
14837KMSN MSN20050412114011004/12/05 11:40:31  5-MIN KMSN 121740Z 08017KT 10SM -RA FEW040 BKN085 06/01 A2986 920 70 0 080/17 RMK AO2 P0001
14837KMSN MSN20050412114511904/12/05 11:45:31  5-MIN KMSN 121745Z 09013G20KT 10SM FEW037 BKN085 06/01  A2986 920 70 0 080/13G20 RMK AO2 RAE43 P0001
14837KMSN MSN20050412115015204/12/05 11:50:31  5-MIN KMSN 121750Z 08014KT 10SM -RA FEW039 OVC080 06/01 A2985 930 70 0 080/14 RMK AO2 SLP112 P0001 60023 T00560006 10067 20044  53016
14837KMSN MSN20050412115510404/12/05 11:55:31  5-MIN KMSN 121755Z 08012KT 10SM -RA OVC080 06/01 A2985  930 70 0 080/12 RMK AO2 P0000
14837KMSN MSN20050412120011004/12/05 12:00:31  5-MIN KMSN 121800Z 08014KT 10SM -RA SCT023 OVC080 06/01 A2986 920 73 0 080/14 RMK AO2 P0000
14837KMSN MSN20050412120511004/12/05 12:05:31  5-MIN KMSN 121805Z 08010KT 10SM -RA BKN023 OVC080 06/01 A2985 930 73 0 080/10 RMK AO2 P0001
14837KMSN MSN20050412121011004/12/05 12:10:31  5-MIN KMSN 121810Z 08014KT 10SM -RA BKN021 OVC080 06/01 A2985 930 70 0 080/14 RMK AO2 P0001
14837KMSN MSN20050412121511004/12/05 12:15:31  5-MIN KMSN 121815Z 07012KT 10SM -RA BKN021 OVC080 06/01 A2986 920 70 0 070/12 RMK AO2 P0001
14837KMSN MSN20050412122010404/12/05 12:20:31  5-MIN KMSN 121820Z 08011KT 10SM -RA OVC021 06/01 A2986  920 70 0 080/11 RMK AO2 P0001
14837KMSN MSN20050412122510404/12/05 12:25:31  5-MIN KMSN 121825Z 07010KT 10SM -RA OVC021 06/01 A2986  920 70 0 070/10 RMK AO2 P0001
14837KMSN MSN20050412123010404/12/05 12:30:31  5-MIN KMSN 121830Z 07010KT 10SM -RA OVC021 06/01 A2986  920 70 0 070/10 RMK AO2 P0001
14837KMSN MSN20050412123511004/12/05 12:35:31  5-MIN KMSN 121835Z 07012G16KT 10SM -RA OVC021 06/01  A2986 920 70 0 070/12G16 RMK AO2 P0001
14837KMSN MSN20050412124011004/12/05 12:40:31  5-MIN KMSN 121840Z 07011G16KT 10SM -RA OVC021 06/01  A2986 920 73 0 070/11G16 RMK AO2 P0001
14837KMSN MSN20050412124510404/12/05 12:45:31  5-MIN KMSN 121845Z 07010KT 10SM -RA OVC021 06/01 A2986  920 70 0 070/10 RMK AO2 P0001
14837KMSN MSN20050412125012704/12/05 12:50:31  5-MIN KMSN 121850Z 07010KT 10SM -RA BKN021 OVC028 06/01 A2986 920 73 0 070/10 RMK AO2 SLP114 P0001 T00560011
14837KMSN MSN20050412125511004/12/05 12:55:31  5-MIN KMSN 121855Z 07011KT 7SM -RA BKN021 OVC028 06/01  A2986 920 73 0 070/11 RMK AO2 P0000
14837KMSN MSN20050412130011004/12/05 13:00:31  5-MIN KMSN 121900Z 08009KT 7SM -RA BKN021 OVC028 06/01  A2987 910 73 0 080/09 RMK AO2 P0000
14837KMSN MSN20050412130511004/12/05 13:05:31  5-MIN KMSN 121905Z 08007KT 4SM -RA BKN023 OVC028 06/01  A2987 910 73 0 080/07 RMK AO2 P0000
14837KMSN MSN20050412131010304/12/05 13:10:31  5-MIN KMSN 121910Z 08007KT 4SM -RA OVC023 06/01 A2987  910 73 0 080/07 RMK AO2 P0000
14837KMSN MSN20050412131510504/12/05 13:15:31  5-MIN KMSN 121915Z 08005KT 4SM -RA OVC023 06/01 A2987  910 70 100 080/05 RMK AO2 P0000
14837KMSN MSN20050412132010504/12/05 13:20:31  5-MIN KMSN 121920Z 08007KT 4SM -RA OVC023 06/01 A2987  910 70 100 080/07 RMK AO2 P0000
14837KMSN MSN20050412132510504/12/05 13:25:31  5-MIN KMSN 121925Z 10007KT 4SM -RA OVC023 06/01 A2987  910 70 100 100/07 RMK AO2 P0001
14837KMSN MSN20050412133010304/12/05 13:30:31  5-MIN KMSN 121930Z 11006KT 4SM -RA OVC023 06/01 A2988  900 73 0 110/06 RMK AO2 P0001
14837KMSN MSN20050412133510504/12/05 13:35:31  5-MIN KMSN 121935Z 13003KT 8SM -RA OVC025 06/01 A2988  900 70 100 130/03 RMK AO2 P0001
14837KMSN MSN20050412134010604/12/05 13:40:31  5-MIN KMSN 121940Z VRB03KT 10SM -RA OVC025 06/02 A2988  900 73 100 VRB/03 RMK AO2 P0001
14837KMSN MSN20050412134510604/12/05 13:45:31  5-MIN KMSN 121945Z 00000KT 10SM -RA OVC025 06/02 A2988  900 76 100 000/00 RMK AO2 P0001
14837KMSN MSN20050412135012304/12/05 13:50:31  5-MIN KMSN 121950Z 00000KT 10SM -RA OVC025 06/02 A2988  900 73 100 000/00 RMK AO2 SLP120 P0001 T00610017
14837KMSN MSN20050412135510604/12/05 13:55:31  5-MIN KMSN 121955Z 00000KT 10SM -RA OVC025 07/02 A2987  910 70 200 000/00 RMK AO2 P0000
14837KMSN MSN20050412140010604/12/05 14:00:31  5-MIN KMSN 122000Z 00000KT 10SM -RA OVC027 07/02 A2987  910 70 200 000/00 RMK AO2 P0000
14837KMSN MSN20050412140510604/12/05 14:05:31  5-MIN KMSN 122005Z 00000KT 10SM -RA OVC027 07/02 A2987  910 70 200 000/00 RMK AO2 P0000
14837KMSN MSN20050412141010604/12/05 14:10:31  5-MIN KMSN 122010Z 01003KT 10SM -RA OVC029 07/02 A2987  910 70 200 010/03 RMK AO2 P0000
14837KMSN MSN20050412141511504/12/05 14:15:31  5-MIN KMSN 122015Z 01004KT 10SM BKN029 OVC034 07/03  A2987 910 73 200 010/04 RMK AO2 RAE14 P0000
14837KMSN MSN20050412142011504/12/05 14:20:31  5-MIN KMSN 122020Z 05006KT 10SM BKN029 OVC034 07/03  A2987 910 73 200 050/06 RMK AO2 RAE14 P0000
14837KMSN MSN20050412142510804/12/05 14:25:31  5-MIN KMSN 122025Z 05007KT 10SM OVC032 08/01 A2987 910  62 300 040/07 RMK AO2 RAE14 P0000
14837KMSN MSN20050412143010804/12/05 14:30:31  5-MIN KMSN 122030Z 05006KT 10SM OVC032 08/01 A2986 920  62 300 050/06 RMK AO2 RAE14 P0000
14837KMSN MSN20050412143510804/12/05 14:35:31  5-MIN KMSN 122035Z 05005KT 10SM OVC032 08/01 A2986 920  62 300 050/05 RMK AO2 RAE14 P0000
14837KMSN MSN20050412144010804/12/05 14:40:31  5-MIN KMSN 122040Z 05005KT 10SM OVC032 08/01 A2986 920  62 300 050/05 RMK AO2 RAE14 P0000
14837KMSN MSN20050412144510804/12/05 14:45:31  5-MIN KMSN 122045Z 05007KT 10SM OVC034 08/01 A2987 920  60 300 050/07 RMK AO2 RAE14 P0000
14837KMSN MSN20050412145013704/12/05 14:50:31  5-MIN KMSN 122050Z 06006KT 10SM OVC034 08/01 A2987 910  60 300 060/06 RMK AO2 RAE14 SLP118 P0000 60002 T00780006 58006
14837KMSN MSN20050412145510604/12/05 14:55:31  5-MIN KMSN 122055Z 06006KT 10SM -RA OVC034 08/01 A2986  920 60 300 060/06 RMK AO2 P0000
14837KMSN MSN20050412150011204/12/05 15:00:31  5-MIN KMSN 122100Z 05007KT 10SM -RA BKN034 OVC055 08/01 A2986 920 60 300 050/07 RMK AO2 P0000
14837KMSN MSN20050412150511204/12/05 15:05:31  5-MIN KMSN 122105Z 05007KT 10SM -RA BKN034 OVC050 08/01 A2986 920 60 300 050/07 RMK AO2 P0000
14837KMSN MSN20050412151011204/12/05 15:10:31  5-MIN KMSN 122110Z 05008KT 10SM -RA BKN034 OVC050 08/01 A2986 920 58 400 050/08 RMK AO2 P0000
14837KMSN MSN20050412151511204/12/05 15:15:31  5-MIN KMSN 122115Z 05007KT 10SM -RA BKN036 OVC050 08/00 A2986 920 55 400 050/07 RMK AO2 P0000
14837KMSN MSN20050412152011504/12/05 15:20:31  5-MIN KMSN 122120Z 04007KT 10SM BKN034 OVC050 08/01  A2986 920 60 400 040/07 RMK AO2 RAE19 P0000
14837KMSN MSN20050412152511504/12/05 15:25:31  5-MIN KMSN 122125Z 04006KT 10SM BKN034 OVC050 08/00  A2986 920 55 400 040/06 RMK AO2 RAE19 P0000
14837KMSN MSN20050412153011504/12/05 15:30:31  5-MIN KMSN 122130Z 04006KT 10SM BKN034 OVC050 08/01  A2986 920 58 400 040/06 RMK AO2 RAE19 P0000
14837KMSN MSN20050412153510804/12/05 15:35:31  5-MIN KMSN 122135Z 04006KT 10SM OVC034 08/01 A2986 920  58 400 040/06 RMK AO2 RAE19 P0000
14837KMSN MSN20050412154010804/12/05 15:40:31  5-MIN KMSN 122140Z 03006KT 10SM OVC034 08/01 A2986 920  60 400 030/06 RMK AO2 RAE19 P0000
14837KMSN MSN20050412154510804/12/05 15:45:31  5-MIN KMSN 122145Z 03007KT 10SM OVC034 09/01 A2986 920  56 400 030/07 RMK AO2 RAE19 P0000
14837KMSN MSN20050412155012504/12/05 15:50:31  5-MIN KMSN 122150Z 03007KT 10SM OVC034 09/01 A2986 920  56 400 030/07 RMK AO2 RAE19 SLP116 P0000 T00890006
14837KMSN MSN20050412155509604/12/05 15:55:31  5-MIN KMSN 122155Z 03007KT 10SM OVC034 09/01 A2986 920  56 400 030/07 RMK AO2
14837KMSN MSN20050412160009604/12/05 16:00:31  5-MIN KMSN 122200Z 03007KT 10SM OVC034 09/01 A2986 920  58 400 030/07 RMK AO2
14837KMSN MSN20050412160509604/12/05 16:05:31  5-MIN KMSN 122205Z 03007KT 10SM OVC034 09/01 A2986 920  58 400 030/07 RMK AO2
14837KMSN MSN20050412161009604/12/05 16:10:31  5-MIN KMSN 122210Z 04008KT 10SM OVC034 09/01 A2986 920  56 500 040/08 RMK AO2
14837KMSN MSN20050412161509604/12/05 16:15:31  5-MIN KMSN 122215Z 04009KT 10SM OVC034 09/01 A2986 920  56 500 040/09 RMK AO2
14837KMSN MSN20050412162009604/12/05 16:20:31  5-MIN KMSN 122220Z 03008KT 10SM OVC034 10/02 A2986 920  56 600 030/08 RMK AO2
14837KMSN MSN20050412162509604/12/05 16:25:31  5-MIN KMSN 122225Z 03007KT 10SM OVC034 10/01 A2986 920  54 600 030/07 RMK AO2
14837KMSN MSN20050412163009604/12/05 16:30:31  5-MIN KMSN 122230Z 04009KT 10SM OVC034 10/01 A2986 920  54 600 030/09 RMK AO2
14837KMSN MSN20050412163509604/12/05 16:35:31  5-MIN KMSN 122235Z 03008KT 10SM OVC034 10/01 A2986 920  54 600 030/08 RMK AO2
14837KMSN MSN20050412164009604/12/05 16:40:31  5-MIN KMSN 122240Z 03008KT 10SM OVC034 10/01 A2986 920  52 600 030/08 RMK AO2
14837KMSN MSN20050412164509604/12/05 16:45:31  5-MIN KMSN 122245Z 03008KT 10SM OVC034 10/01 A2987 910  54 600 030/08 RMK AO2
14837KMSN MSN20050412165011304/12/05 16:50:31  5-MIN KMSN 122250Z 03008KT 10SM OVC034 10/01 A2987 910  54 600 030/08 RMK AO2 SLP117 T01000011
14837KMSN MSN20050412165509604/12/05 16:55:31  5-MIN KMSN 122255Z 04008KT 10SM OVC034 10/01 A2987 910  54 600 040/08 RMK AO2
14837KMSN MSN20050412170009604/12/05 17:00:31  5-MIN KMSN 122300Z 04009KT 10SM OVC034 10/01 A2987 910  54 600 040/09 RMK AO2
14837KMSN MSN20050412170509604/12/05 17:05:31  5-MIN KMSN 122305Z 05011KT 10SM OVC036 10/00 A2987 910  49 600 050/11 RMK AO2
14837KMSN MSN20050412171009604/12/05 17:10:31  5-MIN KMSN 122310Z 04009KT 10SM OVC036 10/00 A2987 910  49 600 040/09 RMK AO2
14837KMSN MSN20050412171509604/12/05 17:15:31  5-MIN KMSN 122315Z 04008KT 10SM OVC036 10/00 A2987 910  49 600 040/08 RMK AO2
14837KMSN MSN20050412172009604/12/05 17:20:31  5-MIN KMSN 122320Z 03008KT 10SM OVC036 10/01 A2987 910  52 600 030/08 RMK AO2
14837KMSN MSN20050412172509604/12/05 17:25:31  5-MIN KMSN 122325Z 04009KT 10SM OVC036 10/00 A2987 910  49 600 040/09 RMK AO2
14837KMSN MSN20050412173009604/12/05 17:30:31  5-MIN KMSN 122330Z 03009KT 10SM OVC036 10/00 A2987 910  49 600 030/09 RMK AO2
14837KMSN MSN20050412173509604/12/05 17:35:31  5-MIN KMSN 122335Z 04011KT 10SM OVC038 10/00 A2986 920  49 600 040/11 RMK AO2
14837KMSN MSN20050412174009604/12/05 17:40:31  5-MIN KMSN 122340Z 05012KT 10SM OVC038 10/M01 A2987 920 47 600 050/12 RMK AO2
14837KMSN MSN20050412174509604/12/05 17:45:31  5-MIN KMSN 122345Z 05012KT 10SM OVC038 10/M01 A2986 920 47 600 050/12 RMK AO2
14837KMSN MSN20050412175013704/12/05 17:50:31  5-MIN KMSN 122350Z 05010KT 10SM OVC038 11/M01 A2987 910 46 600 050/10 RMK AO2 SLP117 60002 T01061006 10106 20056 50004
14837KMSN MSN20050412175509604/12/05 17:55:31  5-MIN KMSN 122355Z 05011KT 10SM OVC038 10/M01 A2987 910 47 600 050/11 RMK AO2
14837KMSN MSN20050412180009604/12/05 18:00:31  5-MIN KMSN 130000Z 05010KT 10SM OVC038 11/M01 A2987 910 44 600 050/10 RMK AO2
14837KMSN MSN20050412180509604/12/05 18:05:31  5-MIN KMSN 130005Z 05009KT 10SM BKN038 11/M01 A2987 910 46 600 050/09 RMK AO2
14837KMSN MSN20050412181009604/12/05 18:10:31  5-MIN KMSN 130010Z 05009KT 10SM BKN038 10/M01 A2987 910 47 600 050/09 RMK AO2
14837KMSN MSN20050412181509604/12/05 18:15:31  5-MIN KMSN 130015Z 05009KT 10SM BKN038 10/M01 A2987 910 47 600 050/09 RMK AO2
14837KMSN MSN20050412182009604/12/05 18:20:31  5-MIN KMSN 130020Z 03007KT 10SM BKN038 09/00 A2988 910  51 500 030/07 RMK AO2
14837KMSN MSN20050412182509604/12/05 18:25:31  5-MIN KMSN 130025Z 04009KT 10SM BKN038 09/M01 A2988 900 49 500 030/09 RMK AO2
14837KMSN MSN20050412183010304/12/05 18:30:31  5-MIN KMSN 130030Z 04009KT 10SM SCT043 SCT050 09/00  A2988 900 53 400 040/09 RMK AO2
14837KMSN MSN20050412183510304/12/05 18:35:31  5-MIN KMSN 130035Z 03009KT 10SM FEW045 SCT050 08/00  A2988 900 55 400 030/09 RMK AO2
14837KMSN MSN20050412184010304/12/05 18:40:31  5-MIN KMSN 130040Z 03008KT 10SM FEW045 SCT050 08/00  A2988 900 55 400 030/08 RMK AO2
14837KMSN MSN20050412184509604/12/05 18:45:31  5-MIN KMSN 130045Z 03009KT 10SM FEW050 08/M01 A2988 900 53 400 030/09 RMK AO2
14837KMSN MSN20050412185011304/12/05 18:50:31  5-MIN KMSN 130050Z 03008KT 10SM FEW050 08/M01 A2989 890 53 300 030/08 RMK AO2 SLP125 T00831006
14837KMSN MSN20050412185509604/12/05 18:55:31  5-MIN KMSN 130055Z 03007KT 10SM FEW050 08/M01 A2989 890 53 300 030/07 RMK AO2
14837KMSN MSN20050412190009304/12/05 19:00:31  5-MIN KMSN 130100Z 03007KT 10SM CLR 08/M01 A2989 890 55 300 030/07 RMK AO2
14837KMSN MSN20050412190509304/12/05 19:05:31  5-MIN KMSN 130105Z 04008KT 10SM CLR 08/M01 A2989 890 53 300 030/08 RMK AO2
14837KMSN MSN20050412191009304/12/05 19:10:31  5-MIN KMSN 130110Z 03008KT 10SM CLR 08/M01 A2990 890 51 300 030/08 RMK AO2
14837KMSN MSN20050412191509304/12/05 19:15:31  5-MIN KMSN 130115Z 03008KT 10SM CLR 08/M01 A2990 880 51 300 030/08 RMK AO2
14837KMSN MSN20050412192009304/12/05 19:20:31  5-MIN KMSN 130120Z 04008KT 10SM CLR 08/M02 A2990 880 49 300 040/08 RMK AO2
14837KMSN MSN20050412192509304/12/05 19:25:31  5-MIN KMSN 130125Z 04010KT 10SM CLR 08/M02 A2991 880 49 300 040/10 RMK AO2
14837KMSN MSN20050412193009304/12/05 19:30:31  5-MIN KMSN 130130Z 05009KT 10SM CLR 08/M03 A2991 880 45 300 050/09 RMK AO2
14837KMSN MSN20050412193509304/12/05 19:35:31  5-MIN KMSN 130135Z 03008KT 10SM CLR 08/M03 A2991 870 47 300 030/08 RMK AO2
14837KMSN MSN20050412194009304/12/05 19:40:31  5-MIN KMSN 130140Z 02007KT 10SM CLR 08/M03 A2991 870 47 300 020/07 RMK AO2
14837KMSN MSN20050412194509304/12/05 19:45:31  5-MIN KMSN 130145Z 03007KT 10SM CLR 08/M03 A2991 870 47 200 030/07 RMK AO2
14837KMSN MSN20050412195011004/12/05 19:50:31  5-MIN KMSN 130150Z 03008KT 10SM CLR 08/M03 A2991 870 47 200 030/08 RMK AO2 SLP135 T00781028
14837KMSN MSN20050412195509304/12/05 19:55:31  5-MIN KMSN 130155Z 03009KT 10SM CLR 08/M03 A2992 870 47 200 030/09 RMK AO2
14837KMSN MSN20050412200009304/12/05 20:00:31  5-MIN KMSN 130200Z 03008KT 10SM CLR 08/M03 A2992 870 47 200 030/08 RMK AO2
14837KMSN MSN20050412200509304/12/05 20:05:31  5-MIN KMSN 130205Z 03008KT 10SM CLR 08/M03 A2992 870 47 200 030/08 RMK AO2
14837KMSN MSN20050412201009304/12/05 20:10:31  5-MIN KMSN 130210Z 02008KT 10SM CLR 07/M03 A2992 860 49 200 020/08 RMK AO2
14837KMSN MSN20050412201509304/12/05 20:15:31  5-MIN KMSN 130215Z 01006KT 10SM CLR 07/M03 A2992 860 51 100 010/06 RMK AO2
14837KMSN MSN20050412202009104/12/05 20:20:31  5-MIN KMSN 130220Z 01006KT 10SM CLR 06/M03 A2992 860 53 0 010/06 RMK AO2
14837KMSN MSN20050412202509304/12/05 20:25:31  5-MIN KMSN 130225Z 02009KT 10SM CLR 07/M03 A2993 860 51 100 020/09 RMK AO2
14837KMSN MSN20050412203009304/12/05 20:30:31  5-MIN KMSN 130230Z 02007KT 10SM CLR 07/M02 A2993 860 51 200 020/07 RMK AO2
14837KMSN MSN20050412203509304/12/05 20:35:31  5-MIN KMSN 130235Z 02008KT 10SM CLR 07/M02 A2993 860 53 100 020/08 RMK AO2
14837KMSN MSN20050412204009304/12/05 20:40:31  5-MIN KMSN 130240Z 02007KT 10SM CLR 07/M02 A2993 860 53 100 020/07 RMK AO2
14837KMSN MSN20050412204509304/12/05 20:45:31  5-MIN KMSN 130245Z 01006KT 10SM CLR 07/M02 A2993 850 53 100 010/06 RMK AO2
14837KMSN MSN20050412205011404/12/05 20:50:31  5-MIN KMSN 130250Z 35005KT 10SM CLR 06/M02 A2993 860 55 0 350/05 RMK AO2 SLP140 T00611022 53001
14837KMSN MSN20050412205509104/12/05 20:55:31  5-MIN KMSN 130255Z 02008KT 10SM CLR 06/M02 A2993 860 55 0 020/08 RMK AO2
14837KMSN MSN20050412210009104/12/05 21:00:31  5-MIN KMSN 130300Z 02009KT 10SM CLR 06/M02 A2993 860 57 0 020/09 RMK AO2
14837KMSN MSN20050412210509104/12/05 21:05:31  5-MIN KMSN 130305Z 01009KT 10SM CLR 06/M02 A2993 860 57 0 010/09 RMK AO2
14837KMSN MSN20050412211009104/12/05 21:10:31  5-MIN KMSN 130310Z 02011KT 10SM CLR 06/M01 A2993 860 62 0 020/11 RMK AO2
14837KMSN MSN20050412211509004/12/05 21:15:31  5-MIN KMSN 130315Z 02012KT 10SM CLR 06/00 A2993 860 65 0 020/12 RMK AO2
14837KMSN MSN20050412212009004/12/05 21:20:31  5-MIN KMSN 130320Z 02012KT 10SM CLR 06/00 A2993 860 65 0 020/12 RMK AO2
14837KMSN MSN20050412212509104/12/05 21:25:31  5-MIN KMSN 130325Z 03012KT 10SM CLR 06/M01 A2993 860 60 0 030/12 RMK AO2
14837KMSN MSN20050412213009104/12/05 21:30:31  5-MIN KMSN 130330Z 03012KT 10SM CLR 06/M01 A2993 860 60 0 030/12 RMK AO2
14837KMSN MSN20050412213509104/12/05 21:35:31  5-MIN KMSN 130335Z 03011KT 10SM CLR 06/M01 A2993 860 60 0 030/11 RMK AO2
14837KMSN MSN20050412214009104/12/05 21:40:31  5-MIN KMSN 130340Z 03011KT 10SM CLR 06/M01 A2993 850 60 0 030/11 RMK AO2
14837KMSN MSN20050412214509104/12/05 21:45:31  5-MIN KMSN 130345Z 03011KT 10SM CLR 06/M01 A2993 850 62 0 030/11 RMK AO2
14837KMSN MSN20050412215010804/12/05 21:50:31  5-MIN KMSN 130350Z 03010KT 10SM CLR 06/M01 A2993 850 65 0 030/10 RMK AO2 SLP142 T00561006
14837KMSN MSN20050412215509104/12/05 21:55:31  5-MIN KMSN 130355Z 03012KT 10SM CLR 06/M01 A2993 850 65 0 030/12 RMK AO2
14837KMSN MSN20050412220009104/12/05 22:00:31  5-MIN KMSN 130400Z 03012KT 10SM CLR 06/M01 A2993 850 65 0 030/12 RMK AO2
14837KMSN MSN20050412220509104/12/05 22:05:31  5-MIN KMSN 130405Z 03010KT 10SM CLR 06/M01 A2993 850 65 0 030/10 RMK AO2
14837KMSN MSN20050412221009104/12/05 22:10:31  5-MIN KMSN 130410Z 03011KT 10SM CLR 06/M01 A2994 850 65 0 030/11 RMK AO2
14837KMSN MSN20050412221509104/12/05 22:15:31  5-MIN KMSN 130415Z 03010KT 10SM CLR 06/M01 A2994 850 65 0 030/10 RMK AO2
14837KMSN MSN20050412222009404/12/05 22:20:31  5-MIN KMSN 130420Z 03010KT 10SM CLR 05/M01 A2994 850 67 -100 030/10 RMK AO2
14837KMSN MSN20050412222509404/12/05 22:25:31  5-MIN KMSN 130425Z 03011KT 10SM CLR 05/M01 A2994 840 67 -100 030/11 RMK AO2
14837KMSN MSN20050412223009404/12/05 22:30:31  5-MIN KMSN 130430Z 03011KT 10SM CLR 05/M01 A2994 840 67 -100 030/11 RMK AO2
14837KMSN MSN20050412223509404/12/05 22:35:31  5-MIN KMSN 130435Z 03011KT 10SM CLR 05/M01 A2995 840 67 -100 030/11 RMK AO2
14837KMSN MSN20050412224009404/12/05 22:40:31  5-MIN KMSN 130440Z 03011KT 10SM CLR 05/M01 A2995 840 64 -100 030/11 RMK AO2
14837KMSN MSN20050412224509404/12/05 22:45:31  5-MIN KMSN 130445Z 03009KT 10SM CLR 05/M01 A2995 840 64 -100 030/09 RMK AO2
14837KMSN MSN20050412225011104/12/05 22:50:31  5-MIN KMSN 130450Z 03009KT 10SM CLR 05/M01 A2995 830 64 -100 030/09 RMK AO2 SLP150 T00501011
14837KMSN MSN20050412225509404/12/05 22:55:31  5-MIN KMSN 130455Z 03009KT 10SM CLR 04/M01 A2996 830 67 -200 030/09 RMK AO2
14837KMSN MSN20050412230009404/12/05 23:00:31  5-MIN KMSN 130500Z 03010KT 10SM CLR 04/M01 A2996 830 67 -200 030/10 RMK AO2
14837KMSN MSN20050412230509404/12/05 23:05:31  5-MIN KMSN 130505Z 02010KT 10SM CLR 04/M01 A2996 830 67 -200 020/10 RMK AO2
14837KMSN MSN20050412231009404/12/05 23:10:31  5-MIN KMSN 130510Z 03010KT 10SM CLR 04/M01 A2997 820 67 -200 030/10 RMK AO2
14837KMSN MSN20050412231509404/12/05 23:15:31  5-MIN KMSN 130515Z 04008KT 10SM CLR 04/M01 A2997 820 67 -200 040/08 RMK AO2
14837KMSN MSN20050412232009404/12/05 23:20:31  5-MIN KMSN 130520Z 02011KT 10SM CLR 04/M01 A2997 820 67 -200 020/11 RMK AO2
14837KMSN MSN20050412232509404/12/05 23:25:31  5-MIN KMSN 130525Z 03010KT 10SM CLR 04/M01 A2997 820 67 -200 030/10 RMK AO2
14837KMSN MSN20050412233009404/12/05 23:30:31  5-MIN KMSN 130530Z 04010KT 10SM CLR 04/M01 A2998 810 70 -200 030/10 RMK AO2
14837KMSN MSN20050412233509404/12/05 23:35:31  5-MIN KMSN 130535Z 03009KT 10SM CLR 04/M01 A2998 810 70 -200 030/09 RMK AO2
14837KMSN MSN20050412234009404/12/05 23:40:31  5-MIN KMSN 130540Z 03010KT 10SM CLR 04/M01 A2998 810 70 -300 030/10 RMK AO2
14837KMSN MSN20050412234509404/12/05 23:45:31  5-MIN KMSN 130545Z 03010KT 10SM CLR 04/M01 A2998 810 70 -300 030/10 RMK AO2
14837KMSN MSN20050412235013904/12/05 23:50:31  5-MIN KMSN 130550Z 03009KT 10SM CLR 04/M01 A2998 810 70 -300 030/09 RMK AO2 SLP159 T00391011 10106 20039 401390039 51020
14837KMSN MSN20050412235509404/12/05 23:55:31  5-MIN KMSN 130555Z 03008KT 10SM CLR 04/M01 A2998 810 70 -300 030/08 RMK AO2
14837KMSN MSN20050413000009404/13/05 00:00:31  5-MIN KMSN 130600Z 03008KT 10SM CLR 03/M01 A2998 810 72 -300 020/08 RMK AO2
14837KMSN MSN20050413000509404/13/05 00:05:31  5-MIN KMSN 130605Z 02008KT 10SM CLR 03/M01 A2999 800 72 -300 020/08 RMK AO2
14837KMSN MSN20050413001009404/13/05 00:10:31  5-MIN KMSN 130610Z 01008KT 10SM CLR 03/M01 A2999 800 72 -300 010/08 RMK AO2
14837KMSN MSN20050413001509404/13/05 00:15:31  5-MIN KMSN 130615Z 01008KT 10SM CLR 03/M01 A2999 800 75 -400 010/08 RMK AO2
14837KMSN MSN20050413002009404/13/05 00:20:31  5-MIN KMSN 130620Z 02008KT 10SM CLR 03/M01 A2999 800 72 -300 020/08 RMK AO2
14837KMSN MSN20050413002509404/13/05 00:25:31  5-MIN KMSN 130625Z 02007KT 10SM CLR 03/M01 A3000 790 75 -400 020/07 RMK AO2
14837KMSN MSN20050413003009404/13/05 00:30:31  5-MIN KMSN 130630Z 02008KT 10SM CLR 03/M01 A3000 790 75 -400 020/08 RMK AO2
14837KMSN MSN20050413003509404/13/05 00:35:31  5-MIN KMSN 130635Z 02007KT 10SM CLR 03/M01 A3000 790 75 -400 020/07 RMK AO2
14837KMSN MSN20050413004009404/13/05 00:40:31  5-MIN KMSN 130640Z 02008KT 10SM CLR 03/M01 A3000 790 75 -400 010/08 RMK AO2
14837KMSN MSN20050413004509404/13/05 00:45:31  5-MIN KMSN 130645Z 02009KT 10SM CLR 03/M01 A3000 790 75 -400 020/09 RMK AO2
14837KMSN MSN20050413005011104/13/05 00:50:31  5-MIN KMSN 130650Z 02008KT 10SM CLR 03/M01 A3000 790 75 -400 010/08 RMK AO2 SLP164 T00281011
14837KMSN MSN20050413005509404/13/05 00:55:31  5-MIN KMSN 130655Z 02009KT 10SM CLR 03/M01 A3000 790 75 -400 020/09 RMK AO2
14837KMSN MSN20050413010009404/13/05 01:00:31  5-MIN KMSN 130700Z 02009KT 10SM CLR 03/M01 A3000 790 75 -400 020/09 RMK AO2
14837KMSN MSN20050413010509404/13/05 01:05:31  5-MIN KMSN 130705Z 02009KT 10SM CLR 03/M01 A3000 790 75 -400 010/09 RMK AO2
14837KMSN MSN20050413011009404/13/05 01:10:31  5-MIN KMSN 130710Z 02009KT 10SM CLR 03/M01 A3000 790 75 -400 020/09 RMK AO2
14837KMSN MSN20050413011509404/13/05 01:15:31  5-MIN KMSN 130715Z 02009KT 10SM CLR 03/M01 A3000 790 75 -400 020/09 RMK AO2
14837KMSN MSN20050413012009404/13/05 01:20:31  5-MIN KMSN 130720Z 02009KT 10SM CLR 03/M01 A3000 790 75 -400 020/09 RMK AO2
14837KMSN MSN20050413012509404/13/05 01:25:31  5-MIN KMSN 130725Z 02009KT 10SM CLR 03/M01 A3000 790 75 -400 020/09 RMK AO2
14837KMSN MSN20050413013009404/13/05 01:30:31  5-MIN KMSN 130730Z 02009KT 10SM CLR 03/M01 A3000 790 75 -400 020/09 RMK AO2
14837KMSN MSN20050413013509404/13/05 01:35:31  5-MIN KMSN 130735Z 02010KT 10SM CLR 03/M02 A3000 790 72 -400 020/10 RMK AO2
14837KMSN MSN20050413014009404/13/05 01:40:31  5-MIN KMSN 130740Z 02009KT 10SM CLR 03/M02 A3000 790 72 -400 020/09 RMK AO2
14837KMSN MSN20050413014509404/13/05 01:45:31  5-MIN KMSN 130745Z 02010KT 10SM CLR 03/M02 A3000 790 72 -400 020/10 RMK AO2
14837KMSN MSN20050413015011104/13/05 01:50:31  5-MIN KMSN 130750Z 02009KT 10SM CLR 02/M02 A3000 790 75 -500 020/09 RMK AO2 SLP167 T00221017
14837KMSN MSN20050413015509404/13/05 01:55:31  5-MIN KMSN 130755Z 03009KT 10SM CLR 02/M02 A3001 790 75 -500 020/09 RMK AO2
14837KMSN MSN20050413020009404/13/05 02:00:31  5-MIN KMSN 130800Z 03009KT 10SM CLR 03/M02 A3001 780 72 -400 030/09 RMK AO2
14837KMSN MSN20050413020509404/13/05 02:05:31  5-MIN KMSN 130805Z 03008KT 10SM CLR 02/M02 A3001 780 75 -500 030/08 RMK AO2
14837KMSN MSN20050413021009404/13/05 02:10:31  5-MIN KMSN 130810Z 03007KT 10SM CLR 02/M02 A3001 780 75 -500 030/07 RMK AO2
14837KMSN MSN20050413021509404/13/05 02:15:31  5-MIN KMSN 130815Z 03008KT 10SM CLR 02/M02 A3001 780 75 -500 030/08 RMK AO2
14837KMSN MSN20050413022009404/13/05 02:20:31  5-MIN KMSN 130820Z 03006KT 10SM CLR 02/M02 A3001 780 75 -500 030/06 RMK AO2
14837KMSN MSN20050413022509404/13/05 02:25:31  5-MIN KMSN 130825Z 02007KT 10SM CLR 02/M02 A3001 780 75 -600 020/07 RMK AO2
14837KMSN MSN20050413023009404/13/05 02:30:31  5-MIN KMSN 130830Z 02008KT 10SM CLR 02/M02 A3001 780 72 -500 020/08 RMK AO2
14837KMSN MSN20050413023509404/13/05 02:35:31  5-MIN KMSN 130835Z 02008KT 10SM CLR 02/M02 A3002 780 75 -500 020/08 RMK AO2
14837KMSN MSN20050413024009404/13/05 02:40:31  5-MIN KMSN 130840Z 02008KT 10SM CLR 02/M02 A3002 780 75 -600 020/08 RMK AO2
14837KMSN MSN20050413024509404/13/05 02:45:31  5-MIN KMSN 130845Z 02007KT 10SM CLR 02/M02 A3002 780 75 -600 020/07 RMK AO2
14837KMSN MSN20050413025011704/13/05 02:50:31  5-MIN KMSN 130850Z 02006KT 10SM CLR 02/M02 A3002 770 75 -600 020/06 RMK AO2 SLP172 T00171022 53018
14837KMSN MSN20050413025509404/13/05 02:55:31  5-MIN KMSN 130855Z 03006KT 10SM CLR 02/M02 A3002 770 75 -600 030/06 RMK AO2
14837KMSN MSN20050413030009404/13/05 03:00:31  5-MIN KMSN 130900Z 03007KT 10SM CLR 02/M02 A3002 770 75 -600 030/07 RMK AO2
14837KMSN MSN20050413030509404/13/05 03:05:31  5-MIN KMSN 130905Z 03006KT 10SM CLR 02/M02 A3002 770 75 -600 030/06 RMK AO2
14837KMSN MSN20050413031009404/13/05 03:10:31  5-MIN KMSN 130910Z 03007KT 10SM CLR 01/M02 A3003 770 78 -600 030/07 RMK AO2
14837KMSN MSN20050413031509404/13/05 03:15:31  5-MIN KMSN 130915Z 03007KT 10SM CLR 02/M02 A3003 770 75 -600 030/07 RMK AO2
14837KMSN MSN20050413032009404/13/05 03:20:31  5-MIN KMSN 130920Z 03008KT 10SM CLR 02/M02 A3003 770 75 -600 030/08 RMK AO2
14837KMSN MSN20050413032509404/13/05 03:25:31  5-MIN KMSN 130925Z 03008KT 10SM CLR 02/M02 A3003 760 75 -600 030/08 RMK AO2
14837KMSN MSN20050413033009404/13/05 03:30:31  5-MIN KMSN 130930Z 03007KT 10SM CLR 02/M02 A3003 760 75 -600 030/07 RMK AO2
14837KMSN MSN20050413033509404/13/05 03:35:31  5-MIN KMSN 130935Z 03008KT 10SM CLR 01/M03 A3003 760 75 -700 030/08 RMK AO2
14837KMSN MSN20050413034009404/13/05 03:40:31  5-MIN KMSN 130940Z 03007KT 10SM CLR 01/M02 A3003 760 78 -700 030/07 RMK AO2
14837KMSN MSN20050413034509404/13/05 03:45:31  5-MIN KMSN 130945Z 03007KT 10SM CLR 01/M03 A3003 760 75 -700 030/07 RMK AO2
14837KMSN MSN20050413035011104/13/05 03:50:31  5-MIN KMSN 130950Z 03007KT 10SM CLR 01/M02 A3004 760 78 -700 030/07 RMK AO2 SLP178 T00111022
14837KMSN MSN20050413035509404/13/05 03:55:31  5-MIN KMSN 130955Z 03008KT 10SM CLR 01/M02 A3004 760 78 -700 030/08 RMK AO2
14837KMSN MSN20050413040009404/13/05 04:00:31  5-MIN KMSN 131000Z 03008KT 10SM CLR 02/M02 A3004 750 75 -600 030/08 RMK AO2
14837KMSN MSN20050413040509404/13/05 04:05:31  5-MIN KMSN 131005Z 03008KT 10SM CLR 02/M03 A3004 750 72 -600 030/08 RMK AO2
14837KMSN MSN20050413041009404/13/05 04:10:31  5-MIN KMSN 131010Z 03008KT 10SM CLR 01/M03 A3004 750 75 -700 030/08 RMK AO2
14837KMSN MSN20050413041509404/13/05 04:15:31  5-MIN KMSN 131015Z 03008KT 10SM CLR 01/M03 A3005 750 75 -700 030/08 RMK AO2
14837KMSN MSN20050413042009404/13/05 04:20:31  5-MIN KMSN 131020Z 03008KT 10SM CLR 01/M03 A3005 740 75 -700 030/08 RMK AO2
14837KMSN MSN20050413042509404/13/05 04:25:31  5-MIN KMSN 131025Z 03008KT 10SM CLR 01/M03 A3005 740 75 -700 030/08 RMK AO2
14837KMSN MSN20050413043009404/13/05 04:30:31  5-MIN KMSN 131030Z 03007KT 10SM CLR 01/M03 A3006 740 75 -700 030/07 RMK AO2
14837KMSN MSN20050413043509404/13/05 04:35:31  5-MIN KMSN 131035Z 03007KT 10SM CLR 01/M03 A3006 740 75 -700 030/07 RMK AO2
14837KMSN MSN20050413044009404/13/05 04:40:31  5-MIN KMSN 131040Z 03008KT 10SM CLR 01/M03 A3006 730 75 -700 030/08 RMK AO2
14837KMSN MSN20050413044509404/13/05 04:45:31  5-MIN KMSN 131045Z 03008KT 10SM CLR 01/M03 A3006 730 75 -700 030/08 RMK AO2
14837KMSN MSN20050413045011104/13/05 04:50:31  5-MIN KMSN 131050Z 03008KT 10SM CLR 01/M03 A3007 730 75 -700 030/08 RMK AO2 SLP187 T00111028
14837KMSN MSN20050413045509404/13/05 04:55:31  5-MIN KMSN 131055Z 03008KT 10SM CLR 01/M03 A3007 730 75 -700 030/08 RMK AO2
14837KMSN MSN20050413050009404/13/05 05:00:31  5-MIN KMSN 131100Z 04008KT 10SM CLR 01/M03 A3007 720 75 -700 030/08 RMK AO2
14837KMSN MSN20050413050509404/13/05 05:05:31  5-MIN KMSN 131105Z 04008KT 10SM CLR 01/M03 A3007 720 72 -700 030/08 RMK AO2
14837KMSN MSN20050413051009404/13/05 05:10:31  5-MIN KMSN 131110Z 04008KT 10SM CLR 01/M03 A3007 720 78 -800 040/08 RMK AO2
14837KMSN MSN20050413051509404/13/05 05:15:31  5-MIN KMSN 131115Z 03009KT 10SM CLR 01/M03 A3008 720 75 -800 030/09 RMK AO2
14837KMSN MSN20050413052009404/13/05 05:20:31  5-MIN KMSN 131120Z 03008KT 10SM CLR 01/M03 A3008 720 75 -800 030/08 RMK AO2
14837KMSN MSN20050413052509404/13/05 05:25:31  5-MIN KMSN 131125Z 02008KT 10SM CLR 01/M03 A3008 710 75 -700 020/08 RMK AO2
14837KMSN MSN20050413053009404/13/05 05:30:31  5-MIN KMSN 131130Z 03008KT 10SM CLR 01/M03 A3008 710 75 -700 030/08 RMK AO2
14837KMSN MSN20050413053509404/13/05 05:35:31  5-MIN KMSN 131135Z 03008KT 10SM CLR 01/M03 A3009 710 75 -700 030/08 RMK AO2
14837KMSN MSN20050413054009404/13/05 05:40:31  5-MIN KMSN 131140Z 02008KT 10SM CLR 01/M03 A3009 710 72 -700 020/08 RMK AO2
14837KMSN MSN20050413054509404/13/05 05:45:31  5-MIN KMSN 131145Z 02008KT 10SM CLR 01/M03 A3009 710 72 -700 020/08 RMK AO2
14837KMSN MSN20050413055013504/13/05 05:50:31  5-MIN KMSN 131150Z 03008KT 10SM CLR 01/M03 A3009 710 72 -700 020/08 RMK AO2 SLP196 70025 T00111033 10039 20006 51012
14837KMSN MSN20050413055509404/13/05 05:55:31  5-MIN KMSN 131155Z 02007KT 10SM CLR 01/M03 A3010 700 72 -700 020/07 RMK AO2
14837KMSN MSN20050413060009404/13/05 06:00:31  5-MIN KMSN 131200Z 02008KT 10SM CLR 02/M03 A3010 700 72 -700 020/08 RMK AO2
14837KMSN MSN20050413060509404/13/05 06:05:31  5-MIN KMSN 131205Z 03009KT 10SM CLR 02/M03 A3010 700 72 -700 030/09 RMK AO2
14837KMSN MSN20050413061009404/13/05 06:10:31  5-MIN KMSN 131210Z 02008KT 10SM CLR 02/M03 A3010 700 72 -700 020/08 RMK AO2
14837KMSN MSN20050413061509404/13/05 06:15:31  5-MIN KMSN 131215Z 03007KT 10SM CLR 02/M03 A3011 690 69 -600 030/07 RMK AO2
14837KMSN MSN20050413062009404/13/05 06:20:31  5-MIN KMSN 131220Z 02008KT 10SM CLR 02/M03 A3011 690 69 -600 020/08 RMK AO2
14837KMSN MSN20050413062509404/13/05 06:25:31  5-MIN KMSN 131225Z 02008KT 10SM CLR 02/M03 A3011 690 69 -600 020/08 RMK AO2
14837KMSN MSN20050413063009404/13/05 06:30:31  5-MIN KMSN 131230Z 02009KT 10SM CLR 02/M03 A3011 690 69 -600 020/09 RMK AO2
14837KMSN MSN20050413063509404/13/05 06:35:31  5-MIN KMSN 131235Z 02011KT 10SM CLR 03/M03 A3011 690 67 -500 020/11 RMK AO2
14837KMSN MSN20050413064009404/13/05 06:40:31  5-MIN KMSN 131240Z 02011KT 10SM CLR 03/M03 A3012 680 67 -500 020/11 RMK AO2
14837KMSN MSN20050413064509404/13/05 06:45:31  5-MIN KMSN 131245Z 02011KT 10SM CLR 03/M02 A3012 680 69 -500 020/11 RMK AO2
14837KMSN MSN20050413065011104/13/05 06:50:31  5-MIN KMSN 131250Z 02012KT 10SM CLR 03/M02 A3012 680 69 -500 020/12 RMK AO2 SLP205 T00281022
14837KMSN MSN20050413065509404/13/05 06:55:31  5-MIN KMSN 131255Z 02012KT 10SM CLR 03/M03 A3012 680 64 -500 020/12 RMK AO2
14837KMSN MSN20050413070009404/13/05 07:00:31  5-MIN KMSN 131300Z 03012KT 10SM CLR 03/M03 A3012 680 64 -500 030/12 RMK AO2
14837KMSN MSN20050413070509404/13/05 07:05:31  5-MIN KMSN 131305Z 03012KT 10SM CLR 03/M03 A3013 670 64 -500 030/12 RMK AO2
14837KMSN MSN20050413071009404/13/05 07:10:31  5-MIN KMSN 131310Z 03012KT 10SM CLR 04/M03 A3013 670 62 -400 030/12 RMK AO2
14837KMSN MSN20050413071509404/13/05 07:15:31  5-MIN KMSN 131315Z 03013KT 10SM CLR 04/M03 A3013 670 62 -400 030/13 RMK AO2
14837KMSN MSN20050413072009404/13/05 07:20:31  5-MIN KMSN 131320Z 03012KT 10SM CLR 04/M03 A3013 670 62 -400 030/12 RMK AO2
14837KMSN MSN20050413072509404/13/05 07:25:31  5-MIN KMSN 131325Z 03012KT 10SM CLR 04/M03 A3013 670 59 -400 030/12 RMK AO2
14837KMSN MSN20050413073009404/13/05 07:30:31  5-MIN KMSN 131330Z 03011KT 10SM CLR 04/M02 A3013 670 62 -400 030/11 RMK AO2
14837KMSN MSN20050413073509404/13/05 07:35:31  5-MIN KMSN 131335Z 03014KT 10SM CLR 04/M02 A3013 670 62 -400 020/14 RMK AO2
14837KMSN MSN20050413074009404/13/05 07:40:31  5-MIN KMSN 131340Z 03014KT 10SM CLR 04/M02 A3013 670 62 -400 030/14 RMK AO2
14837KMSN MSN20050413074509404/13/05 07:45:31  5-MIN KMSN 131345Z 03014KT 10SM CLR 05/M02 A3013 670 59 -300 030/14 RMK AO2
14837KMSN MSN20050413075011104/13/05 07:50:31  5-MIN KMSN 131350Z 03014KT 10SM CLR 05/M02 A3013 670 59 -300 030/14 RMK AO2 SLP210 T00501022
14837KMSN MSN20050413075509404/13/05 07:55:31  5-MIN KMSN 131355Z 02015KT 10SM CLR 06/M02 A3014 670 57 -200 020/15 RMK AO2
14837KMSN MSN20050413080009404/13/05 08:00:31  5-MIN KMSN 131400Z 03013KT 10SM CLR 06/M03 A3014 670 55 -200 020/13 RMK AO2
14837KMSN MSN20050413080509404/13/05 08:05:31  5-MIN KMSN 131405Z 03015KT 10SM CLR 06/M03 A3014 660 55 -200 030/15 RMK AO2
14837KMSN MSN20050413081009404/13/05 08:10:31  5-MIN KMSN 131410Z 03014KT 10SM CLR 06/M03 A3014 660 53 -200 030/14 RMK AO2
14837KMSN MSN20050413081509404/13/05 08:15:31  5-MIN KMSN 131415Z 03013KT 10SM CLR 06/M02 A3015 660 55 -200 030/13 RMK AO2
14837KMSN MSN20050413082009404/13/05 08:20:31  5-MIN KMSN 131420Z 02014KT 10SM CLR 07/M02 A3015 650 53 -100 020/14 RMK AO2
14837KMSN MSN20050413082509404/13/05 08:25:31  5-MIN KMSN 131425Z 04014KT 10SM CLR 07/M02 A3015 650 53 -100 040/14 RMK AO2
14837KMSN MSN20050413083009404/13/05 08:30:31  5-MIN KMSN 131430Z 04015KT 10SM CLR 07/M02 A3015 650 55 -100 030/15 RMK AO2
14837KMSN MSN20050413083509404/13/05 08:35:31  5-MIN KMSN 131435Z 03011KT 10SM CLR 07/M02 A3015 650 53 -100 030/11 RMK AO2
14837KMSN MSN20050413084009104/13/05 08:40:31  5-MIN KMSN 131440Z 03012KT 10SM CLR 07/M02 A3015 650 53 0 020/12 RMK AO2
14837KMSN MSN20050413084509104/13/05 08:45:31  5-MIN KMSN 131445Z 03014KT 10SM CLR 08/M02 A3016 650 51 0 030/14 RMK AO2
14837KMSN MSN20050413085011404/13/05 08:50:31  5-MIN KMSN 131450Z 03013KT 10SM CLR 08/M02 A3016 650 51 0 030/13 RMK AO2 SLP217 T00781017 53025
14837KMSN MSN20050413085509104/13/05 08:55:31  5-MIN KMSN 131455Z 04013KT 10SM CLR 08/M02 A3016 640 51 0 040/13 RMK AO2
14837KMSN MSN20050413090009104/13/05 09:00:31  5-MIN KMSN 131500Z 04014KT 10SM CLR 08/M02 A3016 640 47 0 040/14 RMK AO2
14837KMSN MSN20050413090509104/13/05 09:05:31  5-MIN KMSN 131505Z 04014KT 10SM CLR 08/M03 A3016 640 45 0 040/14 RMK AO2
14837KMSN MSN20050413091009304/13/05 09:10:31  5-MIN KMSN 131510Z 04014KT 10SM CLR 09/M02 A3017 640 45 100 040/14 RMK AO2
14837KMSN MSN20050413091509304/13/05 09:15:31  5-MIN KMSN 131515Z 05015KT 10SM CLR 09/M02 A3017 640 45 100 050/15 RMK AO2
14837KMSN MSN20050413092009304/13/05 09:20:31  5-MIN KMSN 131520Z 03014KT 10SM CLR 09/M03 A3017 640 43 100 030/14 RMK AO2
14837KMSN MSN20050413092509304/13/05 09:25:31  5-MIN KMSN 131525Z 05015KT 10SM CLR 09/M03 A3017 630 42 200 040/15 RMK AO2
14837KMSN MSN20050413093009304/13/05 09:30:31  5-MIN KMSN 131530Z 04016KT 10SM CLR 09/M03 A3017 630 42 200 030/16 RMK AO2
14837KMSN MSN20050413093509304/13/05 09:35:31  5-MIN KMSN 131535Z 02015KT 10SM CLR 10/M03 A3017 630 40 200 020/15 RMK AO2
14837KMSN MSN20050413094009304/13/05 09:40:31  5-MIN KMSN 131540Z 03015KT 10SM CLR 10/M03 A3017 630 40 200 030/15 RMK AO2
14837KMSN MSN20050413094509304/13/05 09:45:31  5-MIN KMSN 131545Z 03015KT 10SM CLR 10/M03 A3018 630 40 200 030/15 RMK AO2
14837KMSN MSN20050413095011604/13/05 09:50:31  5-MIN KMSN 131550Z 04016G22KT 10SM CLR 10/M03 A3018 630 40 200 040/16G22 RMK AO2 SLP224 T01001028
14837KMSN MSN20050413095509904/13/05 09:55:31  5-MIN KMSN 131555Z 02016G22KT 10SM CLR 10/M03 A3018 630 40 200 020/16G22 RMK AO2
14837KMSN MSN20050413100009904/13/05 10:00:31  5-MIN KMSN 131600Z 02017G21KT 10SM CLR 10/M03 A3018 630 40 200 020/17G21 RMK AO2
14837KMSN MSN20050413100509904/13/05 10:05:31  5-MIN KMSN 131605Z 03014G21KT 10SM CLR 11/M03 A3018 630 39 300 030/14G21 RMK AO2
14837KMSN MSN20050413101009304/13/05 10:10:31  5-MIN KMSN 131610Z 05015KT 10SM CLR 11/M03 A3018 620 39 300 050/15 RMK AO2
14837KMSN MSN20050413101509304/13/05 10:15:31  5-MIN KMSN 131615Z 04015KT 10SM CLR 10/M03 A3018 620 40 200 040/15 RMK AO2
14837KMSN MSN20050413102009904/13/05 10:20:31  5-MIN KMSN 131620Z 06014G21KT 10SM CLR 11/M02 A3018 620 39 300 060/14G21 RMK AO2
14837KMSN MSN20050413102509904/13/05 10:25:31  5-MIN KMSN 131625Z 02015G19KT 10SM CLR 11/M03 A3018 630 37 300 020/15G19 RMK AO2
14837KMSN MSN20050413103009304/13/05 10:30:31  5-MIN KMSN 131630Z 05015KT 10SM CLR 12/M02 A3018 630 38 400 050/15 RMK AO2
14837KMSN MSN20050413103509304/13/05 10:35:31  5-MIN KMSN 131635Z 04012KT 10SM CLR 12/M02 A3018 630 38 400 030/12 RMK AO2
14837KMSN MSN20050413104009904/13/05 10:40:31  5-MIN KMSN 131640Z 02016G19KT 10SM CLR 12/M03 A3018 630 36 400 020/16G19 RMK AO2
14837KMSN MSN20050413104509304/13/05 10:45:31  5-MIN KMSN 131645Z 03016KT 10SM CLR 12/M03 A3018 630 35 400 030/16 RMK AO2
14837KMSN MSN20050413105011004/13/05 10:50:31  5-MIN KMSN 131650Z 02014KT 10SM CLR 12/M03 A3018 630 36 400 020/14 RMK AO2 SLP224 T01171028
14837KMSN MSN20050413105509304/13/05 10:55:31  5-MIN KMSN 131655Z 04017KT 10SM CLR 12/M03 A3018 630 35 500 040/17 RMK AO2
14837KMSN MSN20050413110009904/13/05 11:00:31  5-MIN KMSN 131700Z 04014G21KT 10SM CLR 12/M04 A3018 620 31 500 040/14G21 RMK AO2
14837KMSN MSN20050413110509904/13/05 11:05:31  5-MIN KMSN 131705Z 05012G21KT 10SM CLR 13/M05 A3018 620 28 500 050/12G21 RMK AO2
14837KMSN MSN20050413111009904/13/05 11:10:31  5-MIN KMSN 131710Z 03018G21KT 10SM CLR 13/M05 A3018 620 28 500 030/18G21 RMK AO2
14837KMSN MSN20050413111509304/13/05 11:15:31  5-MIN KMSN 131715Z 05017KT 10SM CLR 13/M06 A3018 620 27 500 050/17 RMK AO2
14837KMSN MSN20050413112009904/13/05 11:20:31  5-MIN KMSN 131720Z 06016G22KT 10SM CLR 13/M06 A3018 620 27 500 050/16G22 RMK AO2
14837KMSN MSN20050413112509904/13/05 11:25:31  5-MIN KMSN 131725Z 05016G23KT 10SM CLR 13/M06 A3019 620 27 500 050/16G23 RMK AO2
14837KMSN MSN20050413113009904/13/05 11:30:31  5-MIN KMSN 131730Z 03015G23KT 10SM CLR 13/M06 A3019 620 26 600 030/15G23 RMK AO2
14837KMSN MSN20050413113509904/13/05 11:35:31  5-MIN KMSN 131735Z 03016G21KT 10SM CLR 13/M06 A3019 620 26 500 030/16G21 RMK AO2
14837KMSN MSN20050413114009304/13/05 11:40:31  5-MIN KMSN 131740Z 04013KT 10SM CLR 13/M06 A3019 620 26 600 040/13 RMK AO2
14837KMSN MSN20050413114509904/13/05 11:45:31  5-MIN KMSN 131745Z 03016G21KT 10SM CLR 13/M06 A3019 620 26 600 030/16G21 RMK AO2
14837KMSN MSN20050413115013404/13/05 11:50:31  5-MIN KMSN 131750Z 05013G22KT 10SM CLR 13/M06 A3019 620 25 600 050/13G22 RMK AO2 SLP226 T01331061 10133 20011 51021
14837KMSN MSN20050413115509904/13/05 11:55:31  5-MIN KMSN 131755Z 04018G22KT 10SM CLR 13/M06 A3019 620 25 600 040/18G22 RMK AO2
14837KMSN MSN20050413120009304/13/05 12:00:31  5-MIN KMSN 131800Z 03014KT 10SM CLR 13/M06 A3019 620 25 600 030/14 RMK AO2
14837KMSN MSN20050413120509904/13/05 12:05:31  5-MIN KMSN 131805Z 05019G23KT 10SM CLR 13/M07 A3019 620 24 600 050/19G23 RMK AO2
14837KMSN MSN20050413121009904/13/05 12:10:31  5-MIN KMSN 131810Z 04014G23KT 10SM CLR 13/M07 A3019 620 23 600 040/14G23 RMK AO2
14837KMSN MSN20050413121509904/13/05 12:15:31  5-MIN KMSN 131815Z 05018G22KT 10SM CLR 14/M05 A3019 620 26 700 050/18G22 RMK AO2
14837KMSN MSN20050413122009904/13/05 12:20:31  5-MIN KMSN 131820Z 02017G22KT 10SM CLR 13/M06 A3019 620 25 600 020/17G22 RMK AO2
14837KMSN MSN20050413122509904/13/05 12:25:31  5-MIN KMSN 131825Z 03016G22KT 10SM CLR 14/M06 A3019 620 25 700 030/16G22 RMK AO2
14837KMSN MSN20050413123009304/13/05 12:30:31  5-MIN KMSN 131830Z 03016KT 10SM CLR 14/M06 A3019 620 25 700 030/16 RMK AO2
14837KMSN MSN20050413123509904/13/05 12:35:31  5-MIN KMSN 131835Z 04018G21KT 10SM CLR 14/M06 A3019 620 24 700 040/18G21 RMK AO2
14837KMSN MSN20050413124009904/13/05 12:40:31  5-MIN KMSN 131840Z 05015G21KT 10SM CLR 14/M06 A3019 610 24 700 040/15G21 RMK AO2
14837KMSN MSN20050413124509904/13/05 12:45:31  5-MIN KMSN 131845Z 04017G22KT 10SM CLR 14/M06 A3019 620 24 700 040/17G22 RMK AO2
14837KMSN MSN20050413125011604/13/05 12:50:31  5-MIN KMSN 131850Z 02017G22KT 10SM CLR 14/M06 A3019 620 24 700 020/17G22 RMK AO2 SLP228 T01391061
14837KMSN MSN20050413125509304/13/05 12:55:31  5-MIN KMSN 131855Z 03016KT 10SM CLR 14/M06 A3019 620 25 700 030/16 RMK AO2
14837KMSN MSN20050413130009904/13/05 13:00:31  5-MIN KMSN 131900Z 03014G21KT 10SM CLR 14/M06 A3019 620 25 700 030/14G21 RMK AO2
14837KMSN MSN20050413130509904/13/05 13:05:31  5-MIN KMSN 131905Z 02016G21KT 10SM CLR 14/M06 A3019 620 25 700 020/16G21 RMK AO2
14837KMSN MSN20050413131009304/13/05 13:10:31  5-MIN KMSN 131910Z 04015KT 10SM CLR 14/M06 A3019 620 24 700 040/15 RMK AO2
14837KMSN MSN20050413131509904/13/05 13:15:31  5-MIN KMSN 131915Z 03017G22KT 10SM CLR 14/M06 A3018 620 25 700 030/17G22 RMK AO2
14837KMSN MSN20050413132009904/13/05 13:20:31  5-MIN KMSN 131920Z 02016G23KT 10SM CLR 14/M06 A3019 620 24 700 020/16G23 RMK AO2
14837KMSN MSN20050413132509904/13/05 13:25:31  5-MIN KMSN 131925Z 04014G23KT 10SM CLR 14/M06 A3018 620 24 700 040/14G23 RMK AO2
14837KMSN MSN20050413133009904/13/05 13:30:31  5-MIN KMSN 131930Z 02018G22KT 10SM CLR 14/M06 A3018 620 24 700 020/18G22 RMK AO2
14837KMSN MSN20050413133509904/13/05 13:35:31  5-MIN KMSN 131935Z 04015G22KT 10SM CLR 14/M06 A3018 620 23 700 040/15G22 RMK AO2
14837KMSN MSN20050413134009904/13/05 13:40:31  5-MIN KMSN 131940Z 03013G22KT 10SM CLR 14/M06 A3018 620 23 700 030/13G22 RMK AO2
14837KMSN MSN20050413134509904/13/05 13:45:31  5-MIN KMSN 131945Z 03018G23KT 10SM CLR 14/M06 A3018 620 24 700 030/18G23 RMK AO2
14837KMSN MSN20050413135011604/13/05 13:50:31  5-MIN KMSN 131950Z 04015G23KT 10SM CLR 14/M06 A3018 620 24 700 040/15G23 RMK AO2 SLP225 T01441056
14837KMSN MSN20050413135509904/13/05 13:55:31  5-MIN KMSN 131955Z 04018G24KT 10SM CLR 14/M04 A3018 630 26 700 040/18G24 RMK AO2
14837KMSN MSN20050413140009904/13/05 14:00:31  5-MIN KMSN 132000Z 01016G24KT 10SM CLR 14/M05 A3018 630 25 700 010/16G24 RMK AO2
14837KMSN MSN20050413140509304/13/05 14:05:31  5-MIN KMSN 132005Z 04016KT 10SM CLR 15/M04 A3018 620 25 800 040/16 RMK AO2
14837KMSN MSN20050413141009304/13/05 14:10:31  5-MIN KMSN 132010Z 03013KT 10SM CLR 14/M06 A3018 630 24 700 030/13 RMK AO2
14837KMSN MSN20050413141509904/13/05 14:15:31  5-MIN KMSN 132015Z 02017G22KT 10SM CLR 15/M04 A3018 630 25 800 020/17G22 RMK AO2
14837KMSN MSN20050413142009904/13/05 14:20:31  5-MIN KMSN 132020Z 03016G22KT 10SM CLR 14/M06 A3018 620 24 700 030/16G22 RMK AO2
14837KMSN MSN20050413142511704/13/05 14:25:31  5-MIN KMSN 132025Z 03017G27KT 10SM CLR 15/M06 A3018 630 23 800 030/17G27 RMK AO2 PK WND 01027/2022
14837KMSN MSN20050413143011704/13/05 14:30:31  5-MIN KMSN 132030Z 03017G27KT 10SM CLR 14/M06 A3018 630 24 700 030/17G27 RMK AO2 PK WND 01027/2022
14837KMSN MSN20050413143511704/13/05 14:35:31  5-MIN KMSN 132035Z 03013G23KT 10SM CLR 15/M06 A3018 630 23 800 030/13G23 RMK AO2 PK WND 01027/2022
14837KMSN MSN20050413144011704/13/05 14:40:31  5-MIN KMSN 132040Z 04017G23KT 10SM CLR 15/M06 A3018 620 23 800 040/17G23 RMK AO2 PK WND 01027/2022
14837KMSN MSN20050413144511704/13/05 14:45:31  5-MIN KMSN 132045Z 02014G21KT 10SM CLR 15/M06 A3018 630 23 800 020/14G21 RMK AO2 PK WND 01027/2022
14837KMSN MSN20050413145014004/13/05 14:50:31  5-MIN KMSN 132050Z 03014G21KT 10SM CLR 15/M06 A3018 630 23 800 030/14G21 RMK AO2 PK WND 01027/2022 SLP225 T01501056 51010
14837KMSN MSN20050413145509904/13/05 14:55:31  5-MIN KMSN 132055Z 03015G21KT 10SM CLR 15/M06 A3018 630 22 800 030/15G21 RMK AO2
14837KMSN MSN20050413150009904/13/05 15:00:31  5-MIN KMSN 132100Z 03017G23KT 10SM CLR 15/M06 A3018 630 23 800 030/17G23 RMK AO2
14837KMSN MSN20050413150509904/13/05 15:05:31  5-MIN KMSN 132105Z 04015G23KT 10SM CLR 16/M06 A3018 630 23 900 040/15G23 RMK AO2
14837KMSN MSN20050413151009304/13/05 15:10:31  5-MIN KMSN 132110Z 04018KT 10SM CLR 16/M06 A3018 630 23 900 040/18 RMK AO2
14837KMSN MSN20050413151509904/13/05 15:15:31  5-MIN KMSN 132115Z 02014G20KT 10SM CLR 15/M06 A3018 630 22 800 020/14G20 RMK AO2
14837KMSN MSN20050413152009904/13/05 15:20:31  5-MIN KMSN 132120Z 03018G24KT 10SM CLR 15/M06 A3018 620 22 800 030/18G24 RMK AO2
14837KMSN MSN20050413152509904/13/05 15:25:31  5-MIN KMSN 132125Z 03015G24KT 10SM CLR 15/M06 A3018 620 22 800 030/15G24 RMK AO2
14837KMSN MSN20050413153009304/13/05 15:30:31  5-MIN KMSN 132130Z 04018KT 10SM CLR 15/M06 A3018 620 22 800 030/18 RMK AO2
14837KMSN MSN20050413153509304/13/05 15:35:31  5-MIN KMSN 132135Z 02018KT 10SM CLR 15/M07 A3018 620 22 800 020/18 RMK AO2
14837KMSN MSN20050413154009904/13/05 15:40:31  5-MIN KMSN 132140Z 03016G22KT 10SM CLR 15/M07 A3018 620 22 800 030/16G22 RMK AO2
14837KMSN MSN20050413154509904/13/05 15:45:31  5-MIN KMSN 132145Z 02016G22KT 10SM CLR 15/M06 A3018 620 23 800 020/16G22 RMK AO2
14837KMSN MSN20050413155011604/13/05 15:50:31  5-MIN KMSN 132150Z 02015G21KT 10SM CLR 15/M06 A3018 620 23 800 020/15G21 RMK AO2 SLP226 T01501056
14837KMSN MSN20050413155509904/13/05 15:55:31  5-MIN KMSN 132155Z 02017G23KT 10SM CLR 14/M06 A3019 620 24 700 020/17G23 RMK AO2
14837KMSN MSN20050413160009904/13/05 16:00:31  5-MIN KMSN 132200Z 01016G23KT 10SM CLR 14/M06 A3019 620 24 700 010/16G23 RMK AO2
14837KMSN MSN20050413160509304/13/05 16:05:31  5-MIN KMSN 132205Z 36016KT 10SM CLR 14/M06 A3019 620 24 700 360/16 RMK AO2
14837KMSN MSN20050413161009904/13/05 16:10:31  5-MIN KMSN 132210Z 03014G22KT 10SM CLR 14/M05 A3019 620 25 700 030/14G22 RMK AO2
14837KMSN MSN20050413161509304/13/05 16:15:31  5-MIN KMSN 132215Z 03015KT 10SM CLR 14/M06 A3019 620 24 700 030/15 RMK AO2
14837KMSN MSN20050413162009304/13/05 16:20:31  5-MIN KMSN 132220Z 04014KT 10SM CLR 14/M06 A3019 610 24 700 040/14 RMK AO2
14837KMSN MSN20050413162509904/13/05 16:25:31  5-MIN KMSN 132225Z 02017G23KT 10SM CLR 14/M06 A3019 610 23 700 020/17G23 RMK AO2
14837KMSN MSN20050413163009904/13/05 16:30:31  5-MIN KMSN 132230Z 02018G23KT 10SM CLR 14/M06 A3020 610 24 700 020/18G23 RMK AO2
14837KMSN MSN20050413163509304/13/05 16:35:31  5-MIN KMSN 132235Z 04013KT 10SM CLR 14/M07 A3020 610 22 700 030/13 RMK AO2
14837KMSN MSN20050413164009304/13/05 16:40:31  5-MIN KMSN 132240Z 03015KT 10SM CLR 14/M06 A3020 610 24 700 030/15 RMK AO2
14837KMSN MSN20050413164509304/13/05 16:45:31  5-MIN KMSN 132245Z 02015KT 10SM CLR 14/M06 A3020 610 23 700 020/15 RMK AO2
14837KMSN MSN20050413165011004/13/05 16:50:31  5-MIN KMSN 132250Z 04016KT 10SM CLR 14/M06 A3020 610 23 700 040/16 RMK AO2 SLP232 T01441061
14837KMSN MSN20050413165509304/13/05 16:55:31  5-MIN KMSN 132255Z 03017KT 10SM CLR 14/M06 A3020 600 24 700 030/17 RMK AO2
14837KMSN MSN20050413170009304/13/05 17:00:31  5-MIN KMSN 132300Z 04016KT 10SM CLR 14/M06 A3020 600 24 700 030/16 RMK AO2
14837KMSN MSN20050413170509304/13/05 17:05:31  5-MIN KMSN 132305Z 02017KT 10SM CLR 14/M06 A3021 600 25 600 020/17 RMK AO2
14837KMSN MSN20050413171009304/13/05 17:10:31  5-MIN KMSN 132310Z 03016KT 10SM CLR 14/M06 A3021 600 24 600 030/16 RMK AO2
14837KMSN MSN20050413171509304/13/05 17:15:31  5-MIN KMSN 132315Z 03016KT 10SM CLR 14/M06 A3021 600 25 600 020/16 RMK AO2
14837KMSN MSN20050413172009304/13/05 17:20:31  5-MIN KMSN 132320Z 04016KT 10SM CLR 13/M06 A3021 600 26 600 040/16 RMK AO2
14837KMSN MSN20050413172509304/13/05 17:25:31  5-MIN KMSN 132325Z 03015KT 10SM CLR 13/M06 A3021 600 26 600 030/15 RMK AO2
14837KMSN MSN20050413173009304/13/05 17:30:31  5-MIN KMSN 132330Z 03014KT 10SM CLR 13/M05 A3021 600 27 600 030/14 RMK AO2
14837KMSN MSN20050413173509304/13/05 17:35:31  5-MIN KMSN 132335Z 03015KT 10SM CLR 13/M05 A3021 590 27 600 030/15 RMK AO2
14837KMSN MSN20050413174009304/13/05 17:40:31  5-MIN KMSN 132340Z 03015KT 10SM CLR 13/M05 A3021 590 27 600 030/15 RMK AO2
14837KMSN MSN20050413174509304/13/05 17:45:31  5-MIN KMSN 132345Z 03014KT 10SM CLR 13/M04 A3022 590 30 500 030/14 RMK AO2
14837KMSN MSN20050413175012804/13/05 17:50:31  5-MIN KMSN 132350Z 03014KT 10SM CLR 13/M04 A3022 590 30 500 020/14 RMK AO2 SLP238 T01281044 10156 20128 58002
14837KMSN MSN20050413175509304/13/05 17:55:31  5-MIN KMSN 132355Z 03010KT 10SM CLR 13/M04 A3022 590 30 500 030/10 RMK AO2
14837KMSN MSN20050413180009304/13/05 18:00:31  5-MIN KMSN 140000Z 04013KT 10SM CLR 12/M04 A3022 590 32 400 030/13 RMK AO2
14837KMSN MSN20050413180509304/13/05 18:05:31  5-MIN KMSN 140005Z 04011KT 10SM CLR 12/M04 A3022 590 32 400 030/11 RMK AO2
14837KMSN MSN20050413181009304/13/05 18:10:31  5-MIN KMSN 140010Z 03010KT 10SM CLR 12/M04 A3022 590 33 400 030/10 RMK AO2
14837KMSN MSN20050413181509304/13/05 18:15:31  5-MIN KMSN 140015Z 03014KT 10SM CLR 12/M04 A3022 580 32 400 030/14 RMK AO2
14837KMSN MSN20050413182009304/13/05 18:20:31  5-MIN KMSN 140020Z 03012KT 10SM CLR 12/M05 A3022 580 30 400 030/12 RMK AO2
14837KMSN MSN20050413182509304/13/05 18:25:31  5-MIN KMSN 140025Z 03011KT 10SM CLR 12/M05 A3023 580 30 400 030/11 RMK AO2
14837KMSN MSN20050413183009304/13/05 18:30:31  5-MIN KMSN 140030Z 03010KT 10SM CLR 11/M05 A3023 580 32 300 030/10 RMK AO2
14837KMSN MSN20050413183509304/13/05 18:35:31  5-MIN KMSN 140035Z 03010KT 10SM CLR 11/M05 A3023 580 32 300 030/10 RMK AO2
14837KMSN MSN20050413184009304/13/05 18:40:31  5-MIN KMSN 140040Z 03009KT 10SM CLR 11/M05 A3023 580 33 200 030/09 RMK AO2
14837KMSN MSN20050413184509304/13/05 18:45:31  5-MIN KMSN 140045Z 03007KT 10SM CLR 10/M05 A3023 580 34 200 030/07 RMK AO2
14837KMSN MSN20050413185011004/13/05 18:50:31  5-MIN KMSN 140050Z 03007KT 10SM CLR 09/M04 A3023 580 37 100 030/07 RMK AO2 SLP244 T00941044
14837KMSN MSN20050413185509304/13/05 18:55:31  5-MIN KMSN 140055Z 02007KT 10SM CLR 09/M04 A3023 580 37 100 020/07 RMK AO2
14837KMSN MSN20050413190009304/13/05 19:00:31  5-MIN KMSN 140100Z 03007KT 10SM CLR 09/M04 A3024 570 37 100 030/07 RMK AO2
14837KMSN MSN20050413190509104/13/05 19:05:31  5-MIN KMSN 140105Z 03007KT 10SM CLR 09/M04 A3024 570 38 0 030/07 RMK AO2
14837KMSN MSN20050413191009104/13/05 19:10:31  5-MIN KMSN 140110Z 03007KT 10SM CLR 09/M04 A3024 570 38 0 030/07 RMK AO2
14837KMSN MSN20050413191509304/13/05 19:15:31  5-MIN KMSN 140115Z 03007KT 10SM CLR 09/M05 A3024 570 35 100 030/07 RMK AO2
14837KMSN MSN20050413192009304/13/05 19:20:31  5-MIN KMSN 140120Z 03007KT 10SM CLR 09/M05 A3024 570 35 100 030/07 RMK AO2
14837KMSN MSN20050413192509104/13/05 19:25:31  5-MIN KMSN 140125Z 02007KT 10SM CLR 09/M05 A3024 570 37 0 020/07 RMK AO2
14837KMSN MSN20050413193009104/13/05 19:30:31  5-MIN KMSN 140130Z 02008KT 10SM CLR 08/M06 A3024 570 37 0 020/08 RMK AO2
14837KMSN MSN20050413193509104/13/05 19:35:31  5-MIN KMSN 140135Z 02007KT 10SM CLR 09/M06 A3025 560 35 0 020/07 RMK AO2
14837KMSN MSN20050413194009404/13/05 19:40:31  5-MIN KMSN 140140Z 01007KT 10SM CLR 08/M06 A3024 570 38 -100 010/07 RMK AO2
14837KMSN MSN20050413194509404/13/05 19:45:31  5-MIN KMSN 140145Z 01007KT 10SM CLR 08/M06 A3025 570 38 -100 010/07 RMK AO2
14837KMSN MSN20050413195011104/13/05 19:50:31  5-MIN KMSN 140150Z 01006KT 10SM CLR 08/M06 A3024 570 38 -100 010/06 RMK AO2 SLP248 T00781056
14837KMSN MSN20050413195509404/13/05 19:55:31  5-MIN KMSN 140155Z 01006KT 10SM CLR 08/M04 A3024 570 41 -100 010/06 RMK AO2
14837KMSN MSN20050413200009404/13/05 20:00:31  5-MIN KMSN 140200Z 01006KT 10SM CLR 08/M04 A3024 570 41 -100 010/06 RMK AO2
14837KMSN MSN20050413200509404/13/05 20:05:31  5-MIN KMSN 140205Z 01006KT 10SM CLR 08/M05 A3024 570 40 -100 010/06 RMK AO2
14837KMSN MSN20050413201009104/13/05 20:10:31  5-MIN KMSN 140210Z 02006KT 10SM CLR 08/M05 A3024 570 38 0 020/06 RMK AO2
14837KMSN MSN20050413201509404/13/05 20:15:31  5-MIN KMSN 140215Z 02006KT 10SM CLR 08/M05 A3024 570 40 -100 010/06 RMK AO2
14837KMSN MSN20050413202009404/13/05 20:20:31  5-MIN KMSN 140220Z 01006KT 10SM CLR 08/M05 A3024 570 40 -100 010/06 RMK AO2
14837KMSN MSN20050413202509104/13/05 20:25:31  5-MIN KMSN 140225Z 36006KT 10SM CLR 08/M06 A3024 570 37 0 360/06 RMK AO2
14837KMSN MSN20050413203009104/13/05 20:30:31  5-MIN KMSN 140230Z 36006KT 10SM CLR 08/M06 A3024 570 35 0 360/06 RMK AO2
14837KMSN MSN20050413203509404/13/05 20:35:31  5-MIN KMSN 140235Z 35006KT 10SM CLR 08/M06 A3024 570 36 -100 350/06 RMK AO2
14837KMSN MSN20050413204009404/13/05 20:40:31  5-MIN KMSN 140240Z 35005KT 10SM CLR 07/M06 A3024 570 38 -100 350/05 RMK AO2
14837KMSN MSN20050413204509404/13/05 20:45:31  5-MIN KMSN 140245Z 35005KT 10SM CLR 07/M06 A3024 570 38 -100 350/05 RMK AO2
14837KMSN MSN20050413205011704/13/05 20:50:31  5-MIN KMSN 140250Z 36006KT 10SM CLR 07/M06 A3024 570 41 -200 360/06 RMK AO2 SLP245 T00671056 53012
14837KMSN MSN20050413205509404/13/05 20:55:31  5-MIN KMSN 140255Z 01006KT 10SM CLR 07/M06 A3024 570 41 -200 010/06 RMK AO2
14837KMSN MSN20050413210009404/13/05 21:00:31  5-MIN KMSN 140300Z 02005KT 10SM CLR 07/M06 A3024 570 41 -200 020/05 RMK AO2
14837KMSN MSN20050413210509404/13/05 21:05:31  5-MIN KMSN 140305Z 02005KT 10SM CLR 07/M06 A3024 570 40 -100 020/05 RMK AO2
14837KMSN MSN20050413211009404/13/05 21:10:31  5-MIN KMSN 140310Z 02005KT 10SM CLR 07/M06 A3024 570 38 -100 020/05 RMK AO2
14837KMSN MSN20050413211509404/13/05 21:15:31  5-MIN KMSN 140315Z 03006KT 10SM CLR 07/M06 A3024 570 39 -200 020/06 RMK AO2
14837KMSN MSN20050413212009404/13/05 21:20:31  5-MIN KMSN 140320Z 03005KT 10SM CLR 07/M08 A3024 570 35 -200 030/05 RMK AO2
14837KMSN MSN20050413212509404/13/05 21:25:31  5-MIN KMSN 140325Z 03005KT 10SM CLR 07/M08 A3024 570 35 -200 030/05 RMK AO2
14837KMSN MSN20050413213009404/13/05 21:30:31  5-MIN KMSN 140330Z 03005KT 10SM CLR 06/M07 A3024 570 41 -300 030/05 RMK AO2
14837KMSN MSN20050413213509404/13/05 21:35:31  5-MIN KMSN 140335Z 03006KT 10SM CLR 06/M07 A3024 570 41 -300 030/06 RMK AO2
14837KMSN MSN20050413214009404/13/05 21:40:31  5-MIN KMSN 140340Z 03006KT 10SM CLR 06/M07 A3024 570 39 -300 030/06 RMK AO2
14837KMSN MSN20050413214509404/13/05 21:45:31  5-MIN KMSN 140345Z 03006KT 10SM CLR 06/M07 A3024 570 39 -300 030/06 RMK AO2
14837KMSN MSN20050413215011104/13/05 21:50:31  5-MIN KMSN 140350Z 03006KT 10SM CLR 06/M07 A3024 570 39 -300 020/06 RMK AO2 SLP247 T00561072
14837KMSN MSN20050413215509404/13/05 21:55:31  5-MIN KMSN 140355Z 03006KT 10SM CLR 06/M07 A3024 570 39 -300 030/06 RMK AO2
14837KMSN MSN20050413220009404/13/05 22:00:31  5-MIN KMSN 140400Z 02006KT 10SM CLR 06/M07 A3025 560 41 -400 020/06 RMK AO2
14837KMSN MSN20050413220509404/13/05 22:05:31  5-MIN KMSN 140405Z 02007KT 10SM CLR 06/M07 A3025 560 41 -400 020/07 RMK AO2
14837KMSN MSN20050413221009404/13/05 22:10:31  5-MIN KMSN 140410Z 02007KT 10SM CLR 06/M07 A3025 560 41 -400 020/07 RMK AO2
14837KMSN MSN20050413221509404/13/05 22:15:31  5-MIN KMSN 140415Z 03008KT 10SM CLR 06/M07 A3025 560 41 -400 030/08 RMK AO2
14837KMSN MSN20050413222009404/13/05 22:20:31  5-MIN KMSN 140420Z 03008KT 10SM CLR 06/M08 A3025 560 36 -300 030/08 RMK AO2
14837KMSN MSN20050413222509404/13/05 22:25:31  5-MIN KMSN 140425Z 03008KT 10SM CLR 06/M07 A3025 560 38 -300 030/08 RMK AO2
14837KMSN MSN20050413223009404/13/05 22:30:31  5-MIN KMSN 140430Z 02008KT 10SM CLR 06/M07 A3025 560 38 -300 020/08 RMK AO2
14837KMSN MSN20050413223509404/13/05 22:35:31  5-MIN KMSN 140435Z 02008KT 10SM CLR 07/M08 A3025 560 35 -200 020/08 RMK AO2
14837KMSN MSN20050413224009404/13/05 22:40:31  5-MIN KMSN 140440Z 01007KT 10SM CLR 06/M07 A3025 560 38 -300 010/07 RMK AO2
14837KMSN MSN20050413224509404/13/05 22:45:31  5-MIN KMSN 140445Z 02007KT 10SM CLR 05/M07 A3025 560 42 -400 010/07 RMK AO2
14837KMSN MSN20050413225011104/13/05 22:50:31  5-MIN KMSN 140450Z 02008KT 10SM CLR 05/M07 A3025 560 42 -400 020/08 RMK AO2 SLP248 T00501067
14837KMSN MSN20050413225509404/13/05 22:55:31  5-MIN KMSN 140455Z 02009KT 10SM CLR 06/M07 A3025 560 38 -300 020/09 RMK AO2
14837KMSN MSN20050413230009404/13/05 23:00:31  5-MIN KMSN 140500Z 02009KT 10SM CLR 06/M07 A3025 560 38 -300 020/09 RMK AO2
14837KMSN MSN20050413230509404/13/05 23:05:31  5-MIN KMSN 140505Z 01008KT 10SM CLR 06/M07 A3026 560 41 -400 010/08 RMK AO2
14837KMSN MSN20050413231009404/13/05 23:10:31  5-MIN KMSN 140510Z 01007KT 10SM CLR 06/M07 A3026 560 41 -400 010/07 RMK AO2
14837KMSN MSN20050413231509404/13/05 23:15:31  5-MIN KMSN 140515Z 03005KT 10SM CLR 05/M07 A3026 550 41 -400 030/05 RMK AO2
14837KMSN MSN20050413232009404/13/05 23:20:31  5-MIN KMSN 140520Z 04004KT 10SM CLR 05/M07 A3026 550 41 -400 040/04 RMK AO2
14837KMSN MSN20050413232509404/13/05 23:25:31  5-MIN KMSN 140525Z 04006KT 10SM CLR 04/M07 A3026 550 44 -500 030/06 RMK AO2
14837KMSN MSN20050413233009404/13/05 23:30:31  5-MIN KMSN 140530Z 03006KT 10SM CLR 04/M07 A3026 550 44 -500 030/06 RMK AO2
14837KMSN MSN20050413233509404/13/05 23:35:31  5-MIN KMSN 140535Z 03005KT 10SM CLR 05/M07 A3026 550 41 -400 030/05 RMK AO2
14837KMSN MSN20050413234009404/13/05 23:40:31  5-MIN KMSN 140540Z 03006KT 10SM CLR 05/M07 A3026 550 41 -400 030/06 RMK AO2
14837KMSN MSN20050413234509404/13/05 23:45:31  5-MIN KMSN 140545Z 03006KT 10SM CLR 06/M07 A3026 550 39 -400 030/06 RMK AO2
14837KMSN MSN20050413235013904/13/05 23:50:31  5-MIN KMSN 140550Z 03006KT 10SM CLR 06/M07 A3026 550 39 -400 020/06 RMK AO2 SLP251 T00561072 10128 20044 401560006 50007
14837KMSN MSN20050413235509404/13/05 23:55:31  5-MIN KMSN 140555Z 02005KT 10SM CLR 06/M07 A3026 550 39 -400 020/05 RMK AO2
14837KMSN MSN20050414000009404/14/05 00:00:31  5-MIN KMSN 140600Z 02006KT 10SM CLR 06/M07 A3026 550 39 -400 020/06 RMK AO2
14837KMSN MSN20050414000509404/14/05 00:05:31  5-MIN KMSN 140605Z 02006KT 10SM CLR 05/M07 A3026 550 42 -400 020/06 RMK AO2
14837KMSN MSN20050414001009404/14/05 00:10:31  5-MIN KMSN 140610Z 02007KT 10SM CLR 06/M07 A3026 550 41 -400 020/07 RMK AO2
14837KMSN MSN20050414001509404/14/05 00:15:31  5-MIN KMSN 140615Z 02006KT 10SM CLR 06/M07 A3026 550 41 -400 020/06 RMK AO2
14837KMSN MSN20050414002009404/14/05 00:20:31  5-MIN KMSN 140620Z 03005KT 10SM CLR 06/M07 A3026 550 41 -400 020/05 RMK AO2
14837KMSN MSN20050414002509404/14/05 00:25:31  5-MIN KMSN 140625Z 02007KT 10SM CLR 06/M07 A3026 550 39 -400 020/07 RMK AO2
14837KMSN MSN20050414003009404/14/05 00:30:31  5-MIN KMSN 140630Z 02006KT 10SM CLR 05/M07 A3026 550 42 -400 020/06 RMK AO2
14837KMSN MSN20050414003509404/14/05 00:35:31  5-MIN KMSN 140635Z 02007KT 10SM CLR 05/M07 A3026 550 42 -400 020/07 RMK AO2
14837KMSN MSN20050414004009404/14/05 00:40:31  5-MIN KMSN 140640Z 01004KT 10SM CLR 05/M07 A3026 550 42 -400 010/04 RMK AO2
14837KMSN MSN20050414004509404/14/05 00:45:31  5-MIN KMSN 140645Z 01004KT 10SM CLR 05/M07 A3026 550 42 -400 010/04 RMK AO2
14837KMSN MSN20050414005011104/14/05 00:50:31  5-MIN KMSN 140650Z 03007KT 10SM CLR 05/M07 A3026 550 42 -400 030/07 RMK AO2 SLP252 T00501067
14837KMSN MSN20050414005509404/14/05 00:55:31  5-MIN KMSN 140655Z 03007KT 10SM CLR 05/M06 A3026 550 44 -400 020/07 RMK AO2
14837KMSN MSN20050414010009404/14/05 01:00:31  5-MIN KMSN 140700Z 03006KT 10SM CLR 05/M06 A3026 550 44 -400 030/06 RMK AO2
14837KMSN MSN20050414010509404/14/05 01:05:31  5-MIN KMSN 140705Z 02005KT 10SM CLR 05/M07 A3026 550 42 -400 020/05 RMK AO2
14837KMSN MSN20050414011009404/14/05 01:10:31  5-MIN KMSN 140710Z 02006KT 10SM CLR 04/M06 A3026 550 46 -500 020/06 RMK AO2
14837KMSN MSN20050414011509404/14/05 01:15:31  5-MIN KMSN 140715Z 02005KT 10SM CLR 04/M06 A3026 550 46 -500 020/05 RMK AO2
14837KMSN MSN20050414012009404/14/05 01:20:31  5-MIN KMSN 140720Z 02006KT 10SM CLR 04/M06 A3027 550 46 -500 020/06 RMK AO2
14837KMSN MSN20050414012509404/14/05 01:25:31  5-MIN KMSN 140725Z 03005KT 10SM CLR 05/M06 A3027 550 44 -400 030/05 RMK AO2
14837KMSN MSN20050414013009404/14/05 01:30:31  5-MIN KMSN 140730Z 02004KT 10SM CLR 05/M07 A3027 550 42 -400 020/04 RMK AO2
14837KMSN MSN20050414013509404/14/05 01:35:31  5-MIN KMSN 140735Z 36004KT 10SM CLR 05/M06 A3027 550 44 -400 360/04 RMK AO2
14837KMSN MSN20050414014009404/14/05 01:40:31  5-MIN KMSN 140740Z 34003KT 10SM CLR 05/M06 A3027 550 44 -400 340/03 RMK AO2
14837KMSN MSN20050414014509404/14/05 01:45:31  5-MIN KMSN 140745Z 35004KT 10SM CLR 04/M06 A3027 540 48 -500 350/04 RMK AO2
14837KMSN MSN20050414015011104/14/05 01:50:31  5-MIN KMSN 140750Z 33003KT 10SM CLR 05/M06 A3027 540 44 -400 330/03 RMK AO2 SLP253 T00501061
14837KMSN MSN20050414015509404/14/05 01:55:31  5-MIN KMSN 140755Z 34004KT 10SM CLR 04/M06 A3027 540 48 -500 340/04 RMK AO2
14837KMSN MSN20050414020009404/14/05 02:00:31  5-MIN KMSN 140800Z 34004KT 10SM CLR 04/M06 A3027 540 48 -500 340/04 RMK AO2
14837KMSN MSN20050414020509404/14/05 02:05:31  5-MIN KMSN 140805Z 34004KT 10SM CLR 04/M06 A3028 540 48 -500 340/04 RMK AO2
14837KMSN MSN20050414021009404/14/05 02:10:31  5-MIN KMSN 140810Z 35004KT 10SM CLR 05/M06 A3028 540 44 -500 350/04 RMK AO2
14837KMSN MSN20050414021509404/14/05 02:15:31  5-MIN KMSN 140815Z 36004KT 10SM CLR 05/M06 A3028 540 44 -500 360/04 RMK AO2
14837KMSN MSN20050414022009404/14/05 02:20:31  5-MIN KMSN 140820Z 36004KT 10SM CLR 05/M06 A3028 540 44 -500 360/04 RMK AO2
14837KMSN MSN20050414022509404/14/05 02:25:31  5-MIN KMSN 140825Z 36004KT 10SM CLR 04/M06 A3028 540 46 -500 360/04 RMK AO2
14837KMSN MSN20050414023009404/14/05 02:30:31  5-MIN KMSN 140830Z 36004KT 10SM CLR 04/M06 A3028 530 48 -500 360/04 RMK AO2
14837KMSN MSN20050414023509404/14/05 02:35:31  5-MIN KMSN 140835Z 36003KT 10SM CLR 04/M06 A3028 530 48 -500 360/03 RMK AO2
14837KMSN MSN20050414024009404/14/05 02:40:31  5-MIN KMSN 140840Z 35003KT 10SM CLR 04/M06 A3028 530 48 -500 350/03 RMK AO2
14837KMSN MSN20050414024509404/14/05 02:45:31  5-MIN KMSN 140845Z 34003KT 10SM CLR 04/M04 A3028 530 57 -600 340/03 RMK AO2
14837KMSN MSN20050414025011704/14/05 02:50:31  5-MIN KMSN 140850Z 33004KT 10SM CLR 03/M04 A3028 530 57 -700 330/04 RMK AO2 SLP259 T00331044 53006
14837KMSN MSN20050414025509404/14/05 02:55:31  5-MIN KMSN 140855Z 33004KT 10SM CLR 03/M04 A3028 530 59 -700 330/04 RMK AO2
14837KMSN MSN20050414030009404/14/05 03:00:31  5-MIN KMSN 140900Z 34004KT 10SM CLR 03/M04 A3028 530 57 -700 340/04 RMK AO2
14837KMSN MSN20050414030509404/14/05 03:05:31  5-MIN KMSN 140905Z 35003KT 10SM CLR 04/M05 A3028 530 52 -600 350/03 RMK AO2
14837KMSN MSN20050414031009404/14/05 03:10:31  5-MIN KMSN 140910Z 33003KT 10SM CLR 03/M04 A3028 530 57 -700 330/03 RMK AO2
14837KMSN MSN20050414031509404/14/05 03:15:31  5-MIN KMSN 140915Z 34003KT 10SM CLR 03/M04 A3028 530 57 -700 340/03 RMK AO2
14837KMSN MSN20050414032009404/14/05 03:20:31  5-MIN KMSN 140920Z 33003KT 10SM CLR 03/M04 A3028 530 59 -700 330/03 RMK AO2
14837KMSN MSN20050414032509404/14/05 03:25:31  5-MIN KMSN 140925Z 33004KT 10SM CLR 03/M04 A3028 530 61 -700 330/04 RMK AO2
14837KMSN MSN20050414033009404/14/05 03:30:31  5-MIN KMSN 140930Z 33004KT 10SM CLR 03/M04 A3028 530 57 -700 330/04 RMK AO2
14837KMSN MSN20050414033509404/14/05 03:35:31  5-MIN KMSN 140935Z 33004KT 10SM CLR 03/M04 A3028 530 61 -700 330/04 RMK AO2
14837KMSN MSN20050414034009404/14/05 03:40:31  5-MIN KMSN 140940Z 33004KT 10SM CLR 02/M04 A3028 530 64 -800 330/04 RMK AO2
14837KMSN MSN20050414034509404/14/05 03:45:31  5-MIN KMSN 140945Z 33003KT 10SM CLR 02/M04 A3028 530 64 -800 330/03 RMK AO2
14837KMSN MSN20050414035011104/14/05 03:50:31  5-MIN KMSN 140950Z 34003KT 10SM CLR 03/M04 A3028 530 57 -700 340/03 RMK AO2 SLP259 T00331044
14837KMSN MSN20050414035509404/14/05 03:55:31  5-MIN KMSN 140955Z 34003KT 10SM CLR 03/M04 A3029 530 61 -700 330/03 RMK AO2
14837KMSN MSN20050414040009404/14/05 04:00:31  5-MIN KMSN 141000Z 34003KT 10SM CLR 02/M04 A3029 530 64 -800 340/03 RMK AO2
14837KMSN MSN20050414040509404/14/05 04:05:31  5-MIN KMSN 141005Z 35004KT 10SM CLR 02/M04 A3029 530 61 -800 340/04 RMK AO2
14837KMSN MSN20050414041009404/14/05 04:10:31  5-MIN KMSN 141010Z 35004KT 10SM CLR 02/M04 A3029 520 61 -800 350/04 RMK AO2
14837KMSN MSN20050414041509404/14/05 04:15:31  5-MIN KMSN 141015Z 35004KT 10SM CLR 02/M04 A3029 520 64 -900 350/04 RMK AO2
14837KMSN MSN20050414042009404/14/05 04:20:31  5-MIN KMSN 141020Z 34004KT 10SM CLR 02/M04 A3029 520 64 -900 340/04 RMK AO2
14837KMSN MSN20050414042509404/14/05 04:25:31  5-MIN KMSN 141025Z 35004KT 10SM CLR 02/M04 A3029 520 61 -800 350/04 RMK AO2
14837KMSN MSN20050414043009404/14/05 04:30:31  5-MIN KMSN 141030Z 35004KT 10SM CLR 03/M04 A3029 520 59 -700 350/04 RMK AO2
14837KMSN MSN20050414043509404/14/05 04:35:31  5-MIN KMSN 141035Z 35004KT 10SM CLR 02/M04 A3029 520 61 -800 350/04 RMK AO2
14837KMSN MSN20050414044009404/14/05 04:40:31  5-MIN KMSN 141040Z 35004KT 10SM CLR 02/M04 A3029 520 61 -800 340/04 RMK AO2
14837KMSN MSN20050414044509404/14/05 04:45:31  5-MIN KMSN 141045Z 34005KT 10SM CLR 02/M04 A3029 520 64 -900 340/05 RMK AO2
14837KMSN MSN20050414045011104/14/05 04:50:31  5-MIN KMSN 141050Z 34004KT 10SM CLR 02/M04 A3030 520 64 -900 340/04 RMK AO2 SLP264 T00171044
14837KMSN MSN20050414045509404/14/05 04:55:31  5-MIN KMSN 141055Z 34003KT 10SM CLR 02/M04 A3030 520 61 -800 340/03 RMK AO2
14837KMSN MSN20050414050009404/14/05 05:00:31  5-MIN KMSN 141100Z 33003KT 10SM CLR 02/M04 A3030 520 61 -800 330/03 RMK AO2
14837KMSN MSN20050414050509404/14/05 05:05:31  5-MIN KMSN 141105Z 34003KT 10SM CLR 02/M04 A3030 510 64 -800 340/03 RMK AO2
14837KMSN MSN20050414051009404/14/05 05:10:31  5-MIN KMSN 141110Z 00000KT 10SM CLR 02/M04 A3030 510 66 -900 000/00 RMK AO2
14837KMSN MSN20050414051509404/14/05 05:15:31  5-MIN KMSN 141115Z 00000KT 10SM CLR 02/M03 A3030 510 69 -900 000/00 RMK AO2
14837KMSN MSN20050414052009404/14/05 05:20:31  5-MIN KMSN 141120Z 00000KT 10SM CLR 02/M03 A3030 510 69 -900 000/00 RMK AO2
14837KMSN MSN20050414052509504/14/05 05:25:31  5-MIN KMSN 141125Z 00000KT 10SM CLR 01/M04 A3031 510 69 -1000 000/00 RMK AO2
14837KMSN MSN20050414053009404/14/05 05:30:31  5-MIN KMSN 141130Z 34003KT 10SM CLR 02/M04 A3031 510 66 -900 340/03 RMK AO2
14837KMSN MSN20050414053509504/14/05 05:35:31  5-MIN KMSN 141135Z 00000KT 10SM CLR 01/M04 A3031 500 69 -1000 000/00 RMK AO2
14837KMSN MSN20050414054009504/14/05 05:40:31  5-MIN KMSN 141140Z 33003KT 10SM CLR 01/M04 A3032 500 69 -1000 330/03 RMK AO2
14837KMSN MSN20050414054509504/14/05 05:45:31  5-MIN KMSN 141145Z 33003KT 10SM CLR 01/M04 A3032 500 69 -1000 330/03 RMK AO2
14837KMSN MSN20050414055012904/14/05 05:50:31  5-MIN KMSN 141150Z 32003KT 10SM CLR 02/M04 A3032 500 66 -900 320/03 RMK AO2 SLP272 T00171039 10056 20011 53008
14837KMSN MSN20050414055509404/14/05 05:55:31  5-MIN KMSN 141155Z 00000KT 10SM CLR 02/M04 A3032 500 64 -800 000/00 RMK AO2
14837KMSN MSN20050414060009404/14/05 06:00:31  5-MIN KMSN 141200Z 00000KT 10SM CLR 02/M04 A3032 500 64 -800 000/00 RMK AO2
14837KMSN MSN20050414060509404/14/05 06:05:31  5-MIN KMSN 141205Z 34004KT 10SM CLR 02/M03 A3032 500 72 -900 340/04 RMK AO2
14837KMSN MSN20050414061009404/14/05 06:10:31  5-MIN KMSN 141210Z 34003KT 10SM CLR 02/M02 A3032 490 72 -900 340/03 RMK AO2
14837KMSN MSN20050414061509404/14/05 06:15:31  5-MIN KMSN 141215Z 34003KT 10SM CLR 02/M02 A3032 490 72 -900 340/03 RMK AO2
14837KMSN MSN20050414062009404/14/05 06:20:31  5-MIN KMSN 141220Z 35003KT 10SM CLR 03/M02 A3032 490 69 -800 350/03 RMK AO2
14837KMSN MSN20050414062509404/14/05 06:25:31  5-MIN KMSN 141225Z 36004KT 10SM CLR 03/M02 A3033 490 67 -700 360/04 RMK AO2
14837KMSN MSN20050414063009404/14/05 06:30:31  5-MIN KMSN 141230Z 35004KT 10SM CLR 03/M02 A3033 490 67 -700 350/04 RMK AO2
14837KMSN MSN20050414063509404/14/05 06:35:31  5-MIN KMSN 141235Z 35005KT 10SM CLR 04/M02 A3033 490 64 -700 350/05 RMK AO2
14837KMSN MSN20050414064009404/14/05 06:40:31  5-MIN KMSN 141240Z 35005KT 10SM CLR 04/M02 A3033 490 67 -700 350/05 RMK AO2
14837KMSN MSN20050414064509404/14/05 06:45:31  5-MIN KMSN 141245Z 35004KT 10SM CLR 04/M02 A3033 480 64 -600 350/04 RMK AO2
14837KMSN MSN20050414065011104/14/05 06:50:31  5-MIN KMSN 141250Z 34004KT 10SM CLR 05/M02 A3033 480 62 -500 340/04 RMK AO2 SLP277 T00501017
14837KMSN MSN20050414065509404/14/05 06:55:31  5-MIN KMSN 141255Z 33003KT 10SM CLR 05/M02 A3033 480 62 -500 330/03 RMK AO2
14837KMSN MSN20050414070009404/14/05 07:00:31  5-MIN KMSN 141300Z 34004KT 10SM CLR 06/M02 A3033 480 59 -500 330/04 RMK AO2
14837KMSN MSN20050414070509404/14/05 07:05:31  5-MIN KMSN 141305Z 34003KT 10SM CLR 06/M02 A3034 480 57 -400 340/03 RMK AO2
14837KMSN MSN20050414071009404/14/05 07:10:31  5-MIN KMSN 141310Z 34004KT 10SM CLR 07/M02 A3034 480 55 -300 340/04 RMK AO2
14837KMSN MSN20050414071509404/14/05 07:15:31  5-MIN KMSN 141315Z 35004KT 10SM CLR 07/M02 A3034 480 55 -300 340/04 RMK AO2
14837KMSN MSN20050414072009404/14/05 07:20:31  5-MIN KMSN 141320Z 35004KT 10SM CLR 07/M01 A3034 480 55 -300 350/04 RMK AO2
14837KMSN MSN20050414072509404/14/05 07:25:31  5-MIN KMSN 141325Z 34005KT 10SM CLR 08/M01 A3034 480 53 -200 340/05 RMK AO2
14837KMSN MSN20050414073009404/14/05 07:30:31  5-MIN KMSN 141330Z 35005KT 10SM CLR 08/M01 A3034 480 53 -200 350/05 RMK AO2
14837KMSN MSN20050414073509404/14/05 07:35:31  5-MIN KMSN 141335Z 36004KT 10SM CLR 08/M02 A3034 480 49 -100 360/04 RMK AO2
14837KMSN MSN20050414074009404/14/05 07:40:31  5-MIN KMSN 141340Z 36005KT 10SM CLR 09/M02 A3034 480 47 -100 360/05 RMK AO2
14837KMSN MSN20050414074509104/14/05 07:45:31  5-MIN KMSN 141345Z 36004KT 10SM CLR 09/M02 A3034 480 45 0 360/04 RMK AO2
14837KMSN MSN20050414075010804/14/05 07:50:31  5-MIN KMSN 141350Z 36004KT 10SM CLR 09/M02 A3034 480 44 0 360/04 RMK AO2 SLP279 T00941022
14837KMSN MSN20050414075509104/14/05 07:55:31  5-MIN KMSN 141355Z VRB05KT 10SM CLR 10/M02 A3034 470 42 0 VRB/05 RMK AO2
14837KMSN MSN20050414080009104/14/05 08:00:31  5-MIN KMSN 141400Z 05006KT 10SM CLR 10/M03 A3034 470 40 0 050/06 RMK AO2
14837KMSN MSN20050414080509304/14/05 08:05:31  5-MIN KMSN 141405Z VRB04KT 10SM CLR 11/M03 A3034 470 39 100 VRB/04 RMK AO2
14837KMSN MSN20050414081009304/14/05 08:10:31  5-MIN KMSN 141410Z 01005KT 10SM CLR 11/M03 A3034 480 39 100 010/05 RMK AO2
14837KMSN MSN20050414081509304/14/05 08:15:31  5-MIN KMSN 141415Z 02005KT 10SM CLR 11/M04 A3035 470 36 100 020/05 RMK AO2
14837KMSN MSN20050414082009304/14/05 08:20:31  5-MIN KMSN 141420Z VRB03KT 10SM CLR 11/M03 A3035 470 37 100 VRB/03 RMK AO2
14837KMSN MSN20050414082509304/14/05 08:25:31  5-MIN KMSN 141425Z 35005KT 10SM CLR 11/M03 A3035 470 36 200 350/05 RMK AO2
14837KMSN MSN20050414083009304/14/05 08:30:31  5-MIN KMSN 141430Z 36004KT 10SM CLR 11/M03 A3035 470 36 200 350/04 RMK AO2
14837KMSN MSN20050414083509304/14/05 08:35:31  5-MIN KMSN 141435Z 35004KT 10SM CLR 12/M03 A3034 470 35 200 350/04 RMK AO2
14837KMSN MSN20050414084009304/14/05 08:40:31  5-MIN KMSN 141440Z VRB04KT 10SM CLR 12/M03 A3034 480 35 200 VRB/04 RMK AO2
14837KMSN MSN20050414084509304/14/05 08:45:31  5-MIN KMSN 141445Z VRB04KT 10SM CLR 12/M03 A3034 480 35 200 VRB/04 RMK AO2
14837KMSN MSN20050414085011604/14/05 08:50:31  5-MIN KMSN 141450Z 04005KT 10SM CLR 12/M03 A3034 480 33 300 040/05 RMK AO2 SLP279 T01221033 53012
14837KMSN MSN20050414085509304/14/05 08:55:31  5-MIN KMSN 141455Z 04005KT 10SM CLR 12/M04 A3034 480 32 300 040/05 RMK AO2
14837KMSN MSN20050414090009304/14/05 09:00:31  5-MIN KMSN 141500Z VRB03KT 10SM CLR 12/M04 A3034 480 31 300 VRB/03 RMK AO2
14837KMSN MSN20050414090509304/14/05 09:05:31  5-MIN KMSN 141505Z 04005KT 10SM CLR 13/M04 A3034 480 31 400 040/05 RMK AO2
14837KMSN MSN20050414091009304/14/05 09:10:31  5-MIN KMSN 141510Z VRB03KT 10SM CLR 13/M03 A3034 480 32 400 VRB/03 RMK AO2
14837KMSN MSN20050414091509304/14/05 09:15:31  5-MIN KMSN 141515Z VRB03KT 10SM CLR 13/M03 A3034 480 32 400 VRB/03 RMK AO2
14837KMSN MSN20050414092009304/14/05 09:20:31  5-MIN KMSN 141520Z VRB03KT 10SM CLR 13/M03 A3034 480 31 400 VRB/03 RMK AO2
14837KMSN MSN20050414092509304/14/05 09:25:31  5-MIN KMSN 141525Z VRB04KT 10SM CLR 13/M03 A3034 480 32 400 VRB/04 RMK AO2
14837KMSN MSN20050414093009304/14/05 09:30:31  5-MIN KMSN 141530Z 04003KT 10SM CLR 14/M03 A3034 480 31 500 040/03 RMK AO2
14837KMSN MSN20050414093509304/14/05 09:35:31  5-MIN KMSN 141535Z 00000KT 10SM CLR 14/M04 A3034 480 29 500 000/00 RMK AO2
14837KMSN MSN20050414094009304/14/05 09:40:31  5-MIN KMSN 141540Z 06004KT 10SM CLR 14/M03 A3034 480 29 600 060/04 RMK AO2
14837KMSN MSN20050414094509304/14/05 09:45:31  5-MIN KMSN 141545Z VRB04KT 10SM CLR 14/M03 A3034 480 29 600 VRB/04 RMK AO2
14837KMSN MSN20050414095011004/14/05 09:50:31  5-MIN KMSN 141550Z 05004KT 10SM CLR 14/M03 A3034 480 29 600 040/04 RMK AO2 SLP276 T01441033
14837KMSN MSN20050414095509304/14/05 09:55:31  5-MIN KMSN 141555Z 05007KT 10SM CLR 15/M03 A3033 480 28 600 050/07 RMK AO2
14837KMSN MSN20050414100009304/14/05 10:00:31  5-MIN KMSN 141600Z 04006KT 10SM CLR 16/M03 A3033 480 27 700 040/06 RMK AO2
14837KMSN MSN20050414100509304/14/05 10:05:31  5-MIN KMSN 141605Z 04005KT 10SM CLR 15/M04 A3034 480 27 600 040/05 RMK AO2
14837KMSN MSN20050414101009304/14/05 10:10:31  5-MIN KMSN 141610Z 04005KT 10SM CLR 16/M04 A3034 480 26 700 040/05 RMK AO2
14837KMSN MSN20050414101509304/14/05 10:15:31  5-MIN KMSN 141615Z 05006KT 10SM CLR 16/M04 A3033 480 26 700 050/06 RMK AO2
14837KMSN MSN20050414102009304/14/05 10:20:31  5-MIN KMSN 141620Z 03007KT 10SM CLR 16/M04 A3033 480 26 700 030/07 RMK AO2
14837KMSN MSN20050414102510904/14/05 10:25:31  5-MIN KMSN 141625Z 04008KT 360V070 10SM CLR 16/M04 A3033 490 24 800 030/08 360V070 RMK AO2
14837KMSN MSN20050414103009304/14/05 10:30:31  5-MIN KMSN 141630Z VRB06KT 10SM CLR 16/M05 A3033 490 23 800 VRB/06 RMK AO2
14837KMSN MSN20050414103509304/14/05 10:35:31  5-MIN KMSN 141635Z 02006KT 10SM CLR 17/M04 A3033 490 24 800 020/06 RMK AO2
14837KMSN MSN20050414104009304/14/05 10:40:31  5-MIN KMSN 141640Z 06006KT 10SM CLR 17/M04 A3033 490 23 800 060/06 RMK AO2
14837KMSN MSN20050414104509304/14/05 10:45:31  5-MIN KMSN 141645Z 08007KT 10SM CLR 17/M04 A3033 490 23 900 080/07 RMK AO2
14837KMSN MSN20050414105011004/14/05 10:50:31  5-MIN KMSN 141650Z 04008KT 10SM CLR 17/M05 A3032 490 22 800 040/08 RMK AO2 SLP272 T01671050
14837KMSN MSN20050414105509304/14/05 10:55:31  5-MIN KMSN 141655Z VRB05KT 10SM CLR 17/M06 A3032 490 21 800 VRB/05 RMK AO2
14837KMSN MSN20050414110009304/14/05 11:00:31  5-MIN KMSN 141700Z 07008KT 10SM CLR 17/M05 A3032 500 22 800 070/08 RMK AO2
14837KMSN MSN20050414110510904/14/05 11:05:31  5-MIN KMSN 141705Z 03007KT 350V070 10SM CLR 17/M05 A3032 500 21 900 030/07 350V070 RMK AO2
14837KMSN MSN20050414111009304/14/05 11:10:31  5-MIN KMSN 141710Z 04006KT 10SM CLR 17/M06 A3032 500 20 900 030/06 RMK AO2
14837KMSN MSN20050414111509304/14/05 11:15:31  5-MIN KMSN 141715Z 04008KT 10SM CLR 17/M06 A3032 500 19 900 040/08 RMK AO2
14837KMSN MSN20050414112009304/14/05 11:20:31  5-MIN KMSN 141720Z 03008KT 10SM CLR 17/M06 A3031 500 19 900 030/08 RMK AO2
14837KMSN MSN20050414112509404/14/05 11:25:31  5-MIN KMSN 141725Z 03008KT 10SM CLR 18/M06 A3031 500 19 1000 030/08 RMK AO2
14837KMSN MSN20050414113009304/14/05 11:30:31  5-MIN KMSN 141730Z 03008KT 10SM CLR 17/M06 A3031 500 20 900 030/08 RMK AO2
14837KMSN MSN20050414113509304/14/05 11:35:31  5-MIN KMSN 141735Z 03008KT 10SM CLR 17/M06 A3031 500 20 900 030/08 RMK AO2
14837KMSN MSN20050414114010904/14/05 11:40:31  5-MIN KMSN 141740Z 04008KT 010V070 10SM CLR 17/M06 A3031 510 19 900 040/08 010V070 RMK AO2
14837KMSN MSN20050414114509404/14/05 11:45:31  5-MIN KMSN 141745Z 04005KT 10SM CLR 18/M06 A3031 500 20 1000 040/05 RMK AO2
14837KMSN MSN20050414115012904/14/05 11:50:31  5-MIN KMSN 141750Z 05009KT 10SM CLR 18/M06 A3031 510 20 1000 050/09 RMK AO2 SLP266 T01781056 10178 20017 50008
14837KMSN MSN20050414115509404/14/05 11:55:31  5-MIN KMSN 141755Z 07009KT 10SM CLR 18/M06 A3031 510 19 1000 070/09 RMK AO2
14837KMSN MSN20050414120009304/14/05 12:00:31  5-MIN KMSN 141800Z VRB03KT 10SM CLR 17/M07 A3031 510 19 900 VRB/03 RMK AO2
14837KMSN MSN20050414120509404/14/05 12:05:31  5-MIN KMSN 141805Z 07006KT 10SM CLR 18/M05 A3031 510 20 1000 070/06 RMK AO2
14837KMSN MSN20050414121009404/14/05 12:10:31  5-MIN KMSN 141810Z VRB04KT 10SM CLR 18/M06 A3030 510 20 1000 VRB/04 RMK AO2
14837KMSN MSN20050414121511004/14/05 12:15:31  5-MIN KMSN 141815Z 02009KT 330V070 10SM CLR 18/M05 A3030 510 20 1100 020/09 330V070 RMK AO2
14837KMSN MSN20050414122009404/14/05 12:20:31  5-MIN KMSN 141820Z 01009KT 10SM CLR 18/M06 A3030 510 19 1100 010/09 RMK AO2
14837KMSN MSN20050414122509404/14/05 12:25:31  5-MIN KMSN 141825Z 04009KT 10SM CLR 18/M06 A3030 510 18 1100 040/09 RMK AO2
14837KMSN MSN20050414123009404/14/05 12:30:31  5-MIN KMSN 141830Z 04008KT 10SM CLR 18/M06 A3030 520 19 1100 040/08 RMK AO2
14837KMSN MSN20050414123509404/14/05 12:35:31  5-MIN KMSN 141835Z 05007KT 10SM CLR 19/M05 A3030 510 19 1100 050/07 RMK AO2
14837KMSN MSN20050414124009404/14/05 12:40:31  5-MIN KMSN 141840Z 03010KT 10SM CLR 19/M04 A3030 520 20 1100 020/10 RMK AO2
14837KMSN MSN20050414124509404/14/05 12:45:31  5-MIN KMSN 141845Z 04010KT 10SM CLR 18/M06 A3030 520 19 1100 040/10 RMK AO2
14837KMSN MSN20050414125011104/14/05 12:50:31  5-MIN KMSN 141850Z 05006KT 10SM CLR 18/M06 A3030 520 19 1100 050/06 RMK AO2 SLP263 T01831056
14837KMSN MSN20050414125509404/14/05 12:55:31  5-MIN KMSN 141855Z 09007KT 10SM CLR 18/M06 A3030 520 19 1100 090/07 RMK AO2
14837KMSN MSN20050414130009404/14/05 13:00:31  5-MIN KMSN 141900Z 02009KT 10SM CLR 19/M05 A3030 520 19 1100 020/09 RMK AO2
14837KMSN MSN20050414130509404/14/05 13:05:31  5-MIN KMSN 141905Z 05006KT 10SM CLR 19/M04 A3030 520 20 1100 050/06 RMK AO2
14837KMSN MSN20050414131009404/14/05 13:10:31  5-MIN KMSN 141910Z 03006KT 10SM CLR 19/M04 A3030 520 19 1200 030/06 RMK AO2
14837KMSN MSN20050414131509404/14/05 13:15:31  5-MIN KMSN 141915Z 08008KT 10SM CLR 19/M05 A3029 520 19 1100 080/08 RMK AO2
14837KMSN MSN20050414132009404/14/05 13:20:31  5-MIN KMSN 141920Z 04008KT 10SM CLR 19/M04 A3029 520 19 1200 040/08 RMK AO2
14837KMSN MSN20050414132509404/14/05 13:25:31  5-MIN KMSN 141925Z 04010KT 10SM CLR 19/M05 A3029 520 19 1100 040/10 RMK AO2
14837KMSN MSN20050414133009404/14/05 13:30:31  5-MIN KMSN 141930Z 01008KT 10SM CLR 19/M04 A3029 520 19 1200 010/08 RMK AO2
14837KMSN MSN20050414133509404/14/05 13:35:31  5-MIN KMSN 141935Z 05005KT 10SM CLR 19/M06 A3029 520 18 1100 050/05 RMK AO2
14837KMSN MSN20050414134009404/14/05 13:40:31  5-MIN KMSN 141940Z 09009KT 10SM CLR 19/M05 A3029 530 18 1200 090/09 RMK AO2
14837KMSN MSN20050414134509404/14/05 13:45:31  5-MIN KMSN 141945Z 09007KT 10SM CLR 19/M05 A3029 530 18 1200 090/07 RMK AO2
14837KMSN MSN20050414135011104/14/05 13:50:31  5-MIN KMSN 141950Z 09010KT 10SM CLR 19/M05 A3029 530 18 1200 080/10 RMK AO2 SLP258 T01941050
14837KMSN MSN20050414135509404/14/05 13:55:31  5-MIN KMSN 141955Z 08007KT 10SM CLR 19/M05 A3028 530 19 1100 080/07 RMK AO2
14837KMSN MSN20050414140009404/14/05 14:00:31  5-MIN KMSN 142000Z 08010KT 10SM CLR 19/M05 A3028 530 18 1200 080/10 RMK AO2
14837KMSN MSN20050414140509404/14/05 14:05:31  5-MIN KMSN 142005Z 11005KT 10SM CLR 19/M06 A3028 530 18 1200 110/05 RMK AO2
14837KMSN MSN20050414141009404/14/05 14:10:31  5-MIN KMSN 142010Z 03009KT 10SM CLR 19/M05 A3028 530 18 1200 030/09 RMK AO2
14837KMSN MSN20050414141509404/14/05 14:15:31  5-MIN KMSN 142015Z 06009KT 10SM CLR 19/M04 A3028 540 19 1200 050/09 RMK AO2
14837KMSN MSN20050414142009404/14/05 14:20:31  5-MIN KMSN 142020Z 04006KT 10SM CLR 19/M05 A3027 540 18 1200 040/06 RMK AO2
14837KMSN MSN20050414142509404/14/05 14:25:31  5-MIN KMSN 142025Z 08005KT 10SM CLR 19/M05 A3027 540 18 1200 080/05 RMK AO2
14837KMSN MSN20050414143009404/14/05 14:30:31  5-MIN KMSN 142030Z 05003KT 10SM CLR 19/M06 A3027 540 17 1200 050/03 RMK AO2
14837KMSN MSN20050414143509404/14/05 14:35:31  5-MIN KMSN 142035Z 05005KT 10SM CLR 19/M04 A3027 540 20 1200 050/05 RMK AO2
14837KMSN MSN20050414144009404/14/05 14:40:31  5-MIN KMSN 142040Z VRB03KT 10SM CLR 19/M04 A3027 550 19 1200 VRB/03 RMK AO2
14837KMSN MSN20050414144509404/14/05 14:45:31  5-MIN KMSN 142045Z 09008KT 10SM CLR 20/M03 A3026 550 20 1300 080/08 RMK AO2
14837KMSN MSN20050414145011704/14/05 14:50:31  5-MIN KMSN 142050Z 03009KT 10SM CLR 19/M04 A3026 550 19 1200 030/09 RMK AO2 SLP250 T01941044 58011
14837KMSN MSN20050414145511004/14/05 14:55:31  5-MIN KMSN 142055Z 07007KT 040V130 10SM CLR 20/M04 A3026 550 18 1300 060/07 040V130 RMK AO2
14837KMSN MSN20050414150009404/14/05 15:00:31  5-MIN KMSN 142100Z 06006KT 10SM CLR 19/M06 A3026 550 18 1200 060/06 RMK AO2
14837KMSN MSN20050414150509404/14/05 15:05:31  5-MIN KMSN 142105Z 08005KT 10SM CLR 19/M04 A3026 550 19 1200 080/05 RMK AO2
14837KMSN MSN20050414151009404/14/05 15:10:31  5-MIN KMSN 142110Z VRB03KT 10SM CLR 19/M05 A3026 550 18 1200 VRB/03 RMK AO2
14837KMSN MSN20050414151509404/14/05 15:15:31  5-MIN KMSN 142115Z 08006KT 10SM CLR 20/M04 A3026 550 18 1300 080/06 RMK AO2
14837KMSN MSN20050414152009404/14/05 15:20:31  5-MIN KMSN 142120Z 04006KT 10SM CLR 20/M04 A3026 560 18 1300 040/06 RMK AO2
14837KMSN MSN20050414152509404/14/05 15:25:31  5-MIN KMSN 142125Z VRB04KT 10SM CLR 20/M04 A3025 560 19 1300 VRB/04 RMK AO2
14837KMSN MSN20050414153009404/14/05 15:30:31  5-MIN KMSN 142130Z 10007KT 10SM CLR 20/M04 A3026 560 18 1300 100/07 RMK AO2
14837KMSN MSN20050414153509404/14/05 15:35:31  5-MIN KMSN 142135Z 09008KT 10SM CLR 19/M05 A3026 560 18 1200 080/08 RMK AO2
14837KMSN MSN20050414154009404/14/05 15:40:31  5-MIN KMSN 142140Z 10005KT 10SM CLR 20/M05 A3025 560 18 1300 100/05 RMK AO2
14837KMSN MSN20050414154509404/14/05 15:45:31  5-MIN KMSN 142145Z 10005KT 10SM CLR 20/M05 A3025 560 18 1300 100/05 RMK AO2
14837KMSN MSN20050414155011104/14/05 15:50:31  5-MIN KMSN 142150Z 06007KT 10SM CLR 20/M05 A3025 560 18 1300 060/07 RMK AO2 SLP247 T02001050
14837KMSN MSN20050414155509404/14/05 15:55:31  5-MIN KMSN 142155Z 04007KT 10SM CLR 20/M04 A3025 560 19 1300 040/07 RMK AO2
14837KMSN MSN20050414160009404/14/05 16:00:31  5-MIN KMSN 142200Z 04005KT 10SM CLR 19/M04 A3025 560 19 1200 030/05 RMK AO2
14837KMSN MSN20050414160509404/14/05 16:05:31  5-MIN KMSN 142205Z 00000KT 10SM CLR 20/M05 A3025 560 18 1300 000/00 RMK AO2
14837KMSN MSN20050414161009404/14/05 16:10:31  5-MIN KMSN 142210Z 00000KT 10SM CLR 20/M06 A3025 560 16 1300 000/00 RMK AO2
14837KMSN MSN20050414161509404/14/05 16:15:31  5-MIN KMSN 142215Z 00000KT 10SM CLR 20/M06 A3025 560 17 1300 000/00 RMK AO2
14837KMSN MSN20050414162009404/14/05 16:20:31  5-MIN KMSN 142220Z 06007KT 10SM CLR 20/M04 A3025 560 18 1300 060/07 RMK AO2
14837KMSN MSN20050414162509404/14/05 16:25:31  5-MIN KMSN 142225Z 07005KT 10SM CLR 19/M04 A3025 560 19 1200 070/05 RMK AO2
14837KMSN MSN20050414163009404/14/05 16:30:31  5-MIN KMSN 142230Z 03004KT 10SM CLR 19/M05 A3025 560 18 1300 030/04 RMK AO2
14837KMSN MSN20050414163509404/14/05 16:35:31  5-MIN KMSN 142235Z 09006KT 10SM CLR 19/M05 A3025 560 18 1300 090/06 RMK AO2
14837KMSN MSN20050414164009404/14/05 16:40:31  5-MIN KMSN 142240Z 07007KT 10SM CLR 19/M04 A3025 560 19 1300 070/07 RMK AO2
14837KMSN MSN20050414164509404/14/05 16:45:31  5-MIN KMSN 142245Z 03004KT 10SM CLR 19/M04 A3025 560 20 1200 030/04 RMK AO2
14837KMSN MSN20050414165011104/14/05 16:50:31  5-MIN KMSN 142250Z 04003KT 10SM CLR 19/M04 A3025 560 19 1300 040/03 RMK AO2 SLP247 T01941044
14837KMSN MSN20050414165509404/14/05 16:55:31  5-MIN KMSN 142255Z 02005KT 10SM CLR 19/M04 A3025 560 19 1300 020/05 RMK AO2
14837KMSN MSN20050414170009404/14/05 17:00:31  5-MIN KMSN 142300Z 36004KT 10SM CLR 19/M03 A3025 560 21 1300 360/04 RMK AO2
14837KMSN MSN20050414170509404/14/05 17:05:31  5-MIN KMSN 142305Z 04004KT 10SM CLR 19/M04 A3025 560 19 1300 040/04 RMK AO2
14837KMSN MSN20050414171009404/14/05 17:10:31  5-MIN KMSN 142310Z 04008KT 10SM CLR 19/M03 A3025 560 22 1200 040/08 RMK AO2
14837KMSN MSN20050414171509404/14/05 17:15:31  5-MIN KMSN 142315Z 04007KT 10SM CLR 19/M04 A3025 560 21 1200 040/07 RMK AO2
14837KMSN MSN20050414172009404/14/05 17:20:31  5-MIN KMSN 142320Z 06003KT 10SM CLR 19/M04 A3025 560 20 1200 060/03 RMK AO2
14837KMSN MSN20050414172509404/14/05 17:25:31  5-MIN KMSN 142325Z 06005KT 10SM CLR 19/M04 A3025 560 21 1200 060/05 RMK AO2
14837KMSN MSN20050414173009404/14/05 17:30:31  5-MIN KMSN 142330Z 06005KT 10SM CLR 19/M03 A3025 560 22 1200 060/05 RMK AO2
14837KMSN MSN20050414173509404/14/05 17:35:31  5-MIN KMSN 142335Z 04005KT 10SM CLR 19/M04 A3024 570 21 1200 040/05 RMK AO2
14837KMSN MSN20050414174009404/14/05 17:40:31  5-MIN KMSN 142340Z 03007KT 10SM CLR 18/M02 A3024 570 25 1100 030/07 RMK AO2
14837KMSN MSN20050414174509404/14/05 17:45:31  5-MIN KMSN 142345Z 03006KT 10SM CLR 18/M02 A3024 570 25 1100 030/06 RMK AO2
14837KMSN MSN20050414175012904/14/05 17:50:31  5-MIN KMSN 142350Z 02007KT 10SM CLR 18/M02 A3024 570 25 1100 020/07 RMK AO2 SLP244 T01781022 10200 20172 58015
14837KMSN MSN20050414175509404/14/05 17:55:31  5-MIN KMSN 142355Z 02005KT 10SM CLR 17/M02 A3024 570 26 1000 020/05 RMK AO2
14837KMSN MSN20050414180009404/14/05 18:00:31  5-MIN KMSN 150000Z 03005KT 10SM CLR 17/M03 A3024 570 25 1000 020/05 RMK AO2
14837KMSN MSN20050414180509404/14/05 18:05:31  5-MIN KMSN 150005Z 03006KT 10SM CLR 17/M03 A3024 570 25 1000 030/06 RMK AO2
14837KMSN MSN20050414181009404/14/05 18:10:31  5-MIN KMSN 150010Z 03005KT 10SM CLR 17/M03 A3024 570 24 1000 030/05 RMK AO2
14837KMSN MSN20050414181509304/14/05 18:15:31  5-MIN KMSN 150015Z 03006KT 10SM CLR 17/M03 A3024 570 25 900 030/06 RMK AO2
14837KMSN MSN20050414182009304/14/05 18:20:31  5-MIN KMSN 150020Z 03006KT 10SM CLR 16/M03 A3024 570 27 900 030/06 RMK AO2
14837KMSN MSN20050414182509304/14/05 18:25:31  5-MIN KMSN 150025Z 03005KT 10SM CLR 16/M03 A3024 570 27 900 020/05 RMK AO2
14837KMSN MSN20050414183009304/14/05 18:30:31  5-MIN KMSN 150030Z 03005KT 10SM CLR 15/M03 A3024 570 29 700 030/05 RMK AO2
14837KMSN MSN20050414183509304/14/05 18:35:31  5-MIN KMSN 150035Z 04009KT 10SM CLR 13/M02 A3025 560 35 500 040/09 RMK AO2
14837KMSN MSN20050414184009304/14/05 18:40:31  5-MIN KMSN 150040Z 06009KT 10SM CLR 13/M01 A3025 560 36 500 060/09 RMK AO2
14837KMSN MSN20050414184509304/14/05 18:45:31  5-MIN KMSN 150045Z 07007KT 10SM CLR 14/M02 A3025 560 34 600 070/07 RMK AO2
14837KMSN MSN20050414185011004/14/05 18:50:31  5-MIN KMSN 150050Z 07009KT 10SM CLR 13/M02 A3025 560 35 500 070/09 RMK AO2 SLP249 T01331017
14837KMSN MSN20050414185509304/14/05 18:55:31  5-MIN KMSN 150055Z 09007KT 10SM CLR 13/M02 A3025 560 36 500 090/07 RMK AO2
14837KMSN MSN20050414190009304/14/05 19:00:31  5-MIN KMSN 150100Z 09010KT 10SM CLR 14/M03 A3026 560 30 700 090/10 RMK AO2
14837KMSN MSN20050414190509304/14/05 19:05:31  5-MIN KMSN 150105Z 09009KT 10SM CLR 14/M04 A3026 550 28 700 090/09 RMK AO2
14837KMSN MSN20050414191009304/14/05 19:10:31  5-MIN KMSN 150110Z 09010KT 10SM CLR 14/M04 A3026 550 29 600 090/10 RMK AO2
14837KMSN MSN20050414191509304/14/05 19:15:31  5-MIN KMSN 150115Z 09011KT 10SM CLR 14/M05 A3026 550 25 600 090/11 RMK AO2
14837KMSN MSN20050414192009304/14/05 19:20:31  5-MIN KMSN 150120Z 09011KT 10SM CLR 14/M06 A3027 540 24 600 090/11 RMK AO2
14837KMSN MSN20050414192509304/14/05 19:25:31  5-MIN KMSN 150125Z 09011KT 10SM CLR 14/M06 A3027 540 25 600 090/11 RMK AO2
14837KMSN MSN20050414193009304/14/05 19:30:31  5-MIN KMSN 150130Z 09011KT 10SM CLR 14/M06 A3027 540 24 600 090/11 RMK AO2
14837KMSN MSN20050414193509304/14/05 19:35:31  5-MIN KMSN 150135Z 09010KT 10SM CLR 14/M06 A3027 540 24 600 090/10 RMK AO2
14837KMSN MSN20050414194009304/14/05 19:40:31  5-MIN KMSN 150140Z 09009KT 10SM CLR 13/M06 A3027 540 25 500 080/09 RMK AO2
14837KMSN MSN20050414194509304/14/05 19:45:31  5-MIN KMSN 150145Z 09008KT 10SM CLR 13/M06 A3028 540 26 500 090/08 RMK AO2
14837KMSN MSN20050414195011004/14/05 19:50:31  5-MIN KMSN 150150Z 10008KT 10SM CLR 12/M06 A3028 530 28 400 100/08 RMK AO2 SLP257 T01221056
14837KMSN MSN20050414195509304/14/05 19:55:31  5-MIN KMSN 150155Z 10008KT 10SM CLR 12/M06 A3028 530 29 300 100/08 RMK AO2
14837KMSN MSN20050414200009304/14/05 20:00:31  5-MIN KMSN 150200Z 10007KT 10SM CLR 12/M06 A3028 530 29 300 100/07 RMK AO2
14837KMSN MSN20050414200509304/14/05 20:05:31  5-MIN KMSN 150205Z 10007KT 10SM CLR 12/M06 A3028 530 29 300 100/07 RMK AO2
14837KMSN MSN20050414201009304/14/05 20:10:31  5-MIN KMSN 150210Z 09008KT 10SM CLR 12/M06 A3028 530 29 300 090/08 RMK AO2
14837KMSN MSN20050414201509304/14/05 20:15:31  5-MIN KMSN 150215Z 09008KT 10SM CLR 12/M06 A3028 530 29 300 090/08 RMK AO2
14837KMSN MSN20050414202009304/14/05 20:20:31  5-MIN KMSN 150220Z 10008KT 10SM CLR 12/M06 A3028 530 28 300 100/08 RMK AO2
14837KMSN MSN20050414202509304/14/05 20:25:31  5-MIN KMSN 150225Z 09007KT 10SM CLR 11/M06 A3029 530 29 200 090/07 RMK AO2
14837KMSN MSN20050414203009304/14/05 20:30:31  5-MIN KMSN 150230Z 09008KT 10SM CLR 11/M06 A3029 530 29 200 090/08 RMK AO2
14837KMSN MSN20050414203509304/14/05 20:35:31  5-MIN KMSN 150235Z 09007KT 10SM CLR 11/M06 A3029 520 29 200 090/07 RMK AO2
14837KMSN MSN20050414204009304/14/05 20:40:31  5-MIN KMSN 150240Z 08005KT 10SM CLR 11/M06 A3029 520 29 200 080/05 RMK AO2
14837KMSN MSN20050414204509304/14/05 20:45:31  5-MIN KMSN 150245Z 07004KT 10SM CLR 11/M06 A3029 520 30 200 070/04 RMK AO2
14837KMSN MSN20050414205011404/14/05 20:50:31  5-MIN KMSN 150250Z 09004KT 10SM CLR 09/M06 A3029 520 34 0 090/04 RMK AO2 SLP261 T00941056 56006
14837KMSN MSN20050414205509304/14/05 20:55:31  5-MIN KMSN 150255Z 09005KT 10SM CLR 10/M06 A3029 520 31 100 090/05 RMK AO2
14837KMSN MSN20050414210009304/14/05 21:00:31  5-MIN KMSN 150300Z 10006KT 10SM CLR 10/M06 A3029 520 31 100 090/06 RMK AO2
14837KMSN MSN20050414210509304/14/05 21:05:31  5-MIN KMSN 150305Z 09003KT 10SM CLR 10/M06 A3029 520 31 100 090/03 RMK AO2
14837KMSN MSN20050414211009304/14/05 21:10:31  5-MIN KMSN 150310Z 00000KT 10SM CLR 10/M06 A3029 520 31 100 000/00 RMK AO2
14837KMSN MSN20050414211509304/14/05 21:15:31  5-MIN KMSN 150315Z 12004KT 10SM CLR 10/M06 A3029 520 31 100 120/04 RMK AO2
14837KMSN MSN20050414212009304/14/05 21:20:31  5-MIN KMSN 150320Z 12005KT 10SM CLR 10/M07 A3029 520 30 100 120/05 RMK AO2
14837KMSN MSN20050414212509304/14/05 21:25:31  5-MIN KMSN 150325Z 14003KT 10SM CLR 10/M07 A3029 530 30 100 140/03 RMK AO2
14837KMSN MSN20050414213009304/14/05 21:30:31  5-MIN KMSN 150330Z 13004KT 10SM CLR 11/M07 A3029 530 28 200 130/04 RMK AO2
14837KMSN MSN20050414213509304/14/05 21:35:31  5-MIN KMSN 150335Z 15003KT 10SM CLR 11/M07 A3029 530 28 200 150/03 RMK AO2
14837KMSN MSN20050414214009304/14/05 21:40:31  5-MIN KMSN 150340Z 14005KT 10SM CLR 10/M07 A3029 530 29 100 130/05 RMK AO2
14837KMSN MSN20050414214509304/14/05 21:45:31  5-MIN KMSN 150345Z 13005KT 10SM CLR 10/M07 A3029 520 30 100 130/05 RMK AO2
14837KMSN MSN20050414215010804/14/05 21:50:31  5-MIN KMSN 150350Z 12004KT 10SM CLR 09/M07 A3029 520 32 0 120/04 RMK AO2 SLP259 T00891067
14837KMSN MSN20050414215509304/14/05 21:55:31  5-MIN KMSN 150355Z 12004KT 10SM CLR 10/M07 A3029 520 29 100 120/04 RMK AO2
14837KMSN MSN20050414220009104/14/05 22:00:31  5-MIN KMSN 150400Z 11004KT 10SM CLR 09/M07 A3029 520 31 0 110/04 RMK AO2
14837KMSN MSN20050414220509104/14/05 22:05:31  5-MIN KMSN 150405Z 11003KT 10SM CLR 09/M07 A3029 520 31 0 110/03 RMK AO2
14837KMSN MSN20050414221009104/14/05 22:10:31  5-MIN KMSN 150410Z 11004KT 10SM CLR 09/M07 A3029 520 32 0 110/04 RMK AO2
14837KMSN MSN20050414221509404/14/05 22:15:31  5-MIN KMSN 150415Z 11004KT 10SM CLR 08/M07 A3029 520 34 -100 100/04 RMK AO2
14837KMSN MSN20050414222009104/14/05 22:20:31  5-MIN KMSN 150420Z 10004KT 10SM CLR 09/M07 A3029 520 32 0 100/04 RMK AO2
14837KMSN MSN20050414222509404/14/05 22:25:31  5-MIN KMSN 150425Z 10003KT 10SM CLR 08/M07 A3029 520 34 -100 100/03 RMK AO2
14837KMSN MSN20050414223009104/14/05 22:30:31  5-MIN KMSN 150430Z 00000KT 10SM CLR 09/M07 A3030 520 32 0 000/00 RMK AO2
14837KMSN MSN20050414223509104/14/05 22:35:31  5-MIN KMSN 150435Z 00000KT 10SM CLR 09/M07 A3030 520 32 0 000/00 RMK AO2
14837KMSN MSN20050414224009104/14/05 22:40:31  5-MIN KMSN 150440Z 00000KT 10SM CLR 09/M07 A3030 520 31 0 000/00 RMK AO2
14837KMSN MSN20050414224509104/14/05 22:45:31  5-MIN KMSN 150445Z 00000KT 10SM CLR 09/M07 A3029 520 31 0 000/00 RMK AO2
14837KMSN MSN20050414225010804/14/05 22:50:31  5-MIN KMSN 150450Z 00000KT 10SM CLR 09/M07 A3029 520 31 0 000/00 RMK AO2 SLP261 T00891072
14837KMSN MSN20050414225509104/14/05 22:55:31  5-MIN KMSN 150455Z 00000KT 10SM CLR 09/M07 A3029 520 31 0 000/00 RMK AO2
14837KMSN MSN20050414230009404/14/05 23:00:31  5-MIN KMSN 150500Z 00000KT 10SM CLR 08/M07 A3029 520 34 -100 000/00 RMK AO2
14837KMSN MSN20050414230509404/14/05 23:05:31  5-MIN KMSN 150505Z 00000KT 10SM CLR 08/M06 A3029 520 35 -100 000/00 RMK AO2
14837KMSN MSN20050414231009404/14/05 23:10:31  5-MIN KMSN 150510Z 00000KT 10SM CLR 07/M02 A3029 520 53 -300 000/00 RMK AO2
14837KMSN MSN20050414231509404/14/05 23:15:31  5-MIN KMSN 150515Z 00000KT 10SM CLR 07/M03 A3029 520 49 -200 000/00 RMK AO2
14837KMSN MSN20050414232009404/14/05 23:20:31  5-MIN KMSN 150520Z 00000KT 10SM CLR 08/M02 A3029 520 49 -100 000/00 RMK AO2
14837KMSN MSN20050414232509404/14/05 23:25:31  5-MIN KMSN 150525Z 00000KT 10SM CLR 08/M05 A3029 520 40 -100 000/00 RMK AO2
14837KMSN MSN20050414233009404/14/05 23:30:31  5-MIN KMSN 150530Z 00000KT 10SM CLR 08/M07 A3030 520 34 -100 000/00 RMK AO2
14837KMSN MSN20050414233509404/14/05 23:35:31  5-MIN KMSN 150535Z 00000KT 10SM CLR 07/M06 A3030 520 38 -200 000/00 RMK AO2
14837KMSN MSN20050414234009404/14/05 23:40:31  5-MIN KMSN 150540Z 00000KT 10SM CLR 06/M04 A3030 520 48 -300 000/00 RMK AO2
14837KMSN MSN20050414234509404/14/05 23:45:31  5-MIN KMSN 150545Z 00000KT 10SM CLR 06/M03 A3030 520 51 -300 000/00 RMK AO2
14837KMSN MSN20050414235013904/14/05 23:50:31  5-MIN KMSN 150550Z 00000KT 10SM CLR 06/M04 A3030 510 50 -400 000/00 RMK AO2 SLP263 T00561039 10172 20056 402000011 51015
14837KMSN MSN20050414235509404/14/05 23:55:31  5-MIN KMSN 150555Z 00000KT 10SM CLR 05/M02 A3030 510 59 -500 000/00 RMK AO2
14837KMSN MSN20050415000009404/15/05 00:00:31  5-MIN KMSN 150600Z 00000KT 10SM CLR 06/M02 A3030 510 59 -400 000/00 RMK AO2
14837KMSN MSN20050415000509404/15/05 00:05:31  5-MIN KMSN 150605Z 00000KT 10SM CLR 06/M03 A3030 510 51 -300 000/00 RMK AO2
14837KMSN MSN20050415001009404/15/05 00:10:31  5-MIN KMSN 150610Z 00000KT 10SM CLR 06/M03 A3030 510 53 -400 000/00 RMK AO2
14837KMSN MSN20050415001509404/15/05 00:15:31  5-MIN KMSN 150615Z 00000KT 10SM CLR 06/M04 A3030 510 50 -400 000/00 RMK AO2
14837KMSN MSN20050415002009404/15/05 00:20:31  5-MIN KMSN 150620Z 02003KT 10SM CLR 06/M05 A3030 510 45 -300 020/03 RMK AO2
14837KMSN MSN20050415002509404/15/05 00:25:31  5-MIN KMSN 150625Z 02003KT 10SM CLR 06/M06 A3030 510 43 -300 020/03 RMK AO2
14837KMSN MSN20050415003009404/15/05 00:30:31  5-MIN KMSN 150630Z 36003KT 10SM CLR 06/M04 A3031 510 48 -400 360/03 RMK AO2
14837KMSN MSN20050415003509404/15/05 00:35:31  5-MIN KMSN 150635Z 00000KT 10SM CLR 05/M02 A3031 510 62 -500 000/00 RMK AO2
14837KMSN MSN20050415004009404/15/05 00:40:31  5-MIN KMSN 150640Z 00000KT 10SM CLR 05/M01 A3031 510 64 -500 000/00 RMK AO2
14837KMSN MSN20050415004509404/15/05 00:45:31  5-MIN KMSN 150645Z 00000KT 10SM CLR 06/M02 A3031 510 59 -400 000/00 RMK AO2
14837KMSN MSN20050415005011104/15/05 00:50:31  5-MIN KMSN 150650Z 00000KT 10SM CLR 05/M02 A3031 510 62 -500 000/00 RMK AO2 SLP265 T00501017
14837KMSN MSN20050415005509404/15/05 00:55:31  5-MIN KMSN 150655Z 00000KT 10SM CLR 04/M03 A3031 510 57 -600 000/00 RMK AO2
14837KMSN MSN20050415010009404/15/05 01:00:31  5-MIN KMSN 150700Z 00000KT 10SM CLR 05/M05 A3031 510 48 -500 000/00 RMK AO2
14837KMSN MSN20050415010509404/15/05 01:05:31  5-MIN KMSN 150705Z 00000KT 10SM CLR 04/M03 A3030 510 59 -600 000/00 RMK AO2
14837KMSN MSN20050415011009404/15/05 01:10:31  5-MIN KMSN 150710Z 00000KT 10SM CLR 04/M03 A3031 510 57 -600 000/00 RMK AO2
14837KMSN MSN20050415011509404/15/05 01:15:31  5-MIN KMSN 150715Z 36004KT 10SM CLR 04/M04 A3031 510 55 -600 360/04 RMK AO2
14837KMSN MSN20050415012009404/15/05 01:20:31  5-MIN KMSN 150720Z 35003KT 10SM CLR 04/M04 A3031 510 57 -600 350/03 RMK AO2
14837KMSN MSN20050415012509404/15/05 01:25:31  5-MIN KMSN 150725Z 00000KT 10SM CLR 04/M04 A3031 510 57 -600 000/00 RMK AO2
14837KMSN MSN20050415013009404/15/05 01:30:31  5-MIN KMSN 150730Z 00000KT 10SM CLR 04/M04 A3031 510 57 -600 000/00 RMK AO2
14837KMSN MSN20050415013509404/15/05 01:35:31  5-MIN KMSN 150735Z 00000KT 10SM CLR 03/M04 A3031 510 59 -700 000/00 RMK AO2
14837KMSN MSN20050415014009404/15/05 01:40:31  5-MIN KMSN 150740Z 00000KT 10SM CLR 03/M04 A3031 500 59 -700 000/00 RMK AO2
14837KMSN MSN20050415014509404/15/05 01:45:31  5-MIN KMSN 150745Z 00000KT 10SM CLR 03/M03 A3031 500 64 -700 000/00 RMK AO2
14837KMSN MSN20050415015011104/15/05 01:50:31  5-MIN KMSN 150750Z 00000KT 10SM CLR 04/M02 A3032 500 67 -600 000/00 RMK AO2 SLP268 T00391017
14837KMSN MSN20050415015509404/15/05 01:55:31  5-MIN KMSN 150755Z 00000KT 10SM CLR 03/M03 A3032 500 64 -700 000/00 RMK AO2
14837KMSN MSN20050415020009404/15/05 02:00:31  5-MIN KMSN 150800Z 35003KT 10SM CLR 03/M03 A3032 500 61 -700 350/03 RMK AO2
14837KMSN MSN20050415020509404/15/05 02:05:31  5-MIN KMSN 150805Z 34003KT 10SM CLR 03/M03 A3032 500 64 -700 340/03 RMK AO2
14837KMSN MSN20050415021009404/15/05 02:10:31  5-MIN KMSN 150810Z 34003KT 10SM CLR 03/M03 A3032 490 67 -800 340/03 RMK AO2
14837KMSN MSN20050415021509404/15/05 02:15:31  5-MIN KMSN 150815Z 33004KT 10SM CLR 03/M03 A3032 490 64 -700 330/04 RMK AO2
14837KMSN MSN20050415022009404/15/05 02:20:31  5-MIN KMSN 150820Z 35004KT 10SM CLR 03/M03 A3033 490 64 -700 350/04 RMK AO2
14837KMSN MSN20050415022509404/15/05 02:25:31  5-MIN KMSN 150825Z 35004KT 10SM CLR 04/M03 A3033 490 59 -600 340/04 RMK AO2
14837KMSN MSN20050415023009404/15/05 02:30:31  5-MIN KMSN 150830Z 34004KT 10SM CLR 03/M03 A3033 490 64 -700 340/04 RMK AO2
14837KMSN MSN20050415023509404/15/05 02:35:31  5-MIN KMSN 150835Z 34004KT 10SM CLR 03/M03 A3033 490 64 -700 340/04 RMK AO2
14837KMSN MSN20050415024009404/15/05 02:40:31  5-MIN KMSN 150840Z 35004KT 10SM CLR 04/M03 A3033 490 59 -700 350/04 RMK AO2
14837KMSN MSN20050415024509404/15/05 02:45:31  5-MIN KMSN 150845Z 34004KT 10SM CLR 03/M03 A3033 490 64 -700 340/04 RMK AO2
14837KMSN MSN20050415025011704/15/05 02:50:31  5-MIN KMSN 150850Z 34004KT 10SM CLR 03/M03 A3033 480 67 -800 340/04 RMK AO2 SLP275 T00281028 53004
14837KMSN MSN20050415025509404/15/05 02:55:31  5-MIN KMSN 150855Z 34004KT 10SM CLR 03/M03 A3033 480 64 -700 340/04 RMK AO2
14837KMSN MSN20050415030009404/15/05 03:00:31  5-MIN KMSN 150900Z 33004KT 10SM CLR 03/M03 A3034 480 67 -800 330/04 RMK AO2
14837KMSN MSN20050415030509404/15/05 03:05:31  5-MIN KMSN 150905Z 34004KT 10SM CLR 03/M03 A3034 480 61 -700 340/04 RMK AO2
14837KMSN MSN20050415031009404/15/05 03:10:31  5-MIN KMSN 150910Z 33003KT 10SM CLR 02/M03 A3034 480 67 -900 330/03 RMK AO2
14837KMSN MSN20050415031509404/15/05 03:15:31  5-MIN KMSN 150915Z 34003KT 10SM CLR 03/M03 A3034 480 67 -800 340/03 RMK AO2
14837KMSN MSN20050415032009404/15/05 03:20:31  5-MIN KMSN 150920Z 00000KT 10SM CLR 03/M03 A3034 480 67 -800 000/00 RMK AO2
14837KMSN MSN20050415032509404/15/05 03:25:31  5-MIN KMSN 150925Z 36003KT 10SM CLR 02/M03 A3034 480 69 -900 360/03 RMK AO2
14837KMSN MSN20050415033009404/15/05 03:30:31  5-MIN KMSN 150930Z 01004KT 10SM CLR 02/M03 A3034 480 67 -900 010/04 RMK AO2
14837KMSN MSN20050415033509404/15/05 03:35:31  5-MIN KMSN 150935Z 02003KT 10SM CLR 02/M03 A3034 480 69 -900 020/03 RMK AO2
14837KMSN MSN20050415034009404/15/05 03:40:31  5-MIN KMSN 150940Z 02003KT 10SM CLR 02/M03 A3034 480 69 -900 020/03 RMK AO2
14837KMSN MSN20050415034509404/15/05 03:45:31  5-MIN KMSN 150945Z 02003KT 10SM CLR 02/M03 A3034 470 67 -900 020/03 RMK AO2
14837KMSN MSN20050415035011104/15/05 03:50:31  5-MIN KMSN 150950Z 01003KT 10SM CLR 02/M03 A3034 470 67 -900 010/03 RMK AO2 SLP279 T00221033
14837KMSN MSN20050415035509404/15/05 03:55:31  5-MIN KMSN 150955Z 00000KT 10SM CLR 02/M03 A3035 470 69 -900 000/00 RMK AO2
14837KMSN MSN20050415040009504/15/05 04:00:31  5-MIN KMSN 151000Z 00000KT 10SM CLR 01/M03 A3035 470 72 -1000 000/00 RMK AO2
14837KMSN MSN20050415040509504/15/05 04:05:31  5-MIN KMSN 151005Z 00000KT 10SM CLR 02/M02 A3035 470 75 -1000 000/00 RMK AO2
14837KMSN MSN20050415041009504/15/05 04:10:31  5-MIN KMSN 151010Z 00000KT 10SM CLR 02/M02 A3035 470 75 -1000 000/00 RMK AO2
14837KMSN MSN20050415041509504/15/05 04:15:31  5-MIN KMSN 151015Z 00000KT 10SM CLR 02/M02 A3035 470 78 -1000 000/00 RMK AO2
14837KMSN MSN20050415042009504/15/05 04:20:31  5-MIN KMSN 151020Z 00000KT 10SM CLR 02/M02 A3035 470 75 -1000 000/00 RMK AO2
14837KMSN MSN20050415042509504/15/05 04:25:31  5-MIN KMSN 151025Z 00000KT 10SM CLR 02/M03 A3036 460 69 -1000 000/00 RMK AO2
14837KMSN MSN20050415043009504/15/05 04:30:31  5-MIN KMSN 151030Z 00000KT 10SM CLR 01/M03 A3036 460 75 -1000 000/00 RMK AO2
14837KMSN MSN20050415043509504/15/05 04:35:31  5-MIN KMSN 151035Z 00000KT 10SM CLR 02/M03 A3036 460 72 -1000 000/00 RMK AO2
14837KMSN MSN20050415044009504/15/05 04:40:31  5-MIN KMSN 151040Z 00000KT 10SM CLR 01/M03 A3036 460 75 -1000 000/00 RMK AO2
14837KMSN MSN20050415044509504/15/05 04:45:31  5-MIN KMSN 151045Z 00000KT 10SM CLR 01/M03 A3036 460 75 -1000 000/00 RMK AO2
14837KMSN MSN20050415045011204/15/05 04:50:31  5-MIN KMSN 151050Z 00000KT 10SM CLR 02/M03 A3036 460 69 -1000 000/00 RMK AO2 SLP284 T00171033
14837KMSN MSN20050415045509504/15/05 04:55:31  5-MIN KMSN 151055Z 00000KT 10SM CLR 01/M04 A3036 460 69 -1000 000/00 RMK AO2
14837KMSN MSN20050415050009504/15/05 05:00:31  5-MIN KMSN 151100Z 00000KT 10SM CLR 01/M03 A3036 460 72 -1000 000/00 RMK AO2
14837KMSN MSN20050415050509504/15/05 05:05:31  5-MIN KMSN 151105Z VRB03KT 10SM CLR 01/M03 A3036 460 72 -1000 VRB/03 RMK AO2
14837KMSN MSN20050415051009504/15/05 05:10:31  5-MIN KMSN 151110Z 05003KT 10SM CLR 02/M03 A3036 460 72 -1000 050/03 RMK AO2
14837KMSN MSN20050415051509504/15/05 05:15:31  5-MIN KMSN 151115Z 06004KT 10SM CLR 02/M03 A3037 450 69 -1000 060/04 RMK AO2
14837KMSN MSN20050415052009504/15/05 05:20:31  5-MIN KMSN 151120Z 00000KT 10SM CLR 01/M03 A3037 450 72 -1000 000/00 RMK AO2
14837KMSN MSN20050415052509504/15/05 05:25:31  5-MIN KMSN 151125Z 00000KT 10SM CLR 02/M03 A3037 450 72 -1000 000/00 RMK AO2
14837KMSN MSN20050415053009504/15/05 05:30:31  5-MIN KMSN 151130Z 00000KT 10SM CLR 02/M03 A3037 450 72 -1000 000/00 RMK AO2
14837KMSN MSN20050415053509504/15/05 05:35:31  5-MIN KMSN 151135Z 05003KT 10SM CLR 02/M02 A3038 440 75 -1000 050/03 RMK AO2
14837KMSN MSN20050415054009504/15/05 05:40:31  5-MIN KMSN 151140Z 00000KT 10SM CLR 02/M02 A3038 440 75 -1000 000/00 RMK AO2
14837KMSN MSN20050415054509504/15/05 05:45:31  5-MIN KMSN 151145Z 03003KT 10SM CLR 02/M02 A3038 440 75 -1000 030/03 RMK AO2
14837KMSN MSN20050415055013004/15/05 05:50:31  5-MIN KMSN 151150Z 01003KT 10SM CLR 02/M03 A3039 440 72 -1000 010/03 RMK AO2 SLP293 T00171028 10061 20006 53011
14837KMSN MSN20050415055509504/15/05 05:55:31  5-MIN KMSN 151155Z 00000KT 10SM CLR 01/M03 A3039 440 75 -1100 000/00 RMK AO2
14837KMSN MSN20050415060009504/15/05 06:00:31  5-MIN KMSN 151200Z 00000KT 10SM CLR 01/M03 A3039 430 75 -1100 000/00 RMK AO2
14837KMSN MSN20050415060509504/15/05 06:05:31  5-MIN KMSN 151205Z 04003KT 10SM CLR 02/M03 A3039 430 72 -1000 040/03 RMK AO2
14837KMSN MSN20050415061009504/15/05 06:10:31  5-MIN KMSN 151210Z 36003KT 10SM CLR 01/M03 A3039 430 75 -1100 360/03 RMK AO2
14837KMSN MSN20050415061509504/15/05 06:15:31  5-MIN KMSN 151215Z 00000KT 10SM CLR 02/M02 A3039 430 75 -1000 000/00 RMK AO2
14837KMSN MSN20050415062009404/15/05 06:20:31  5-MIN KMSN 151220Z 04003KT 10SM CLR 03/M02 A3039 430 69 -900 040/03 RMK AO2
14837KMSN MSN20050415062509404/15/05 06:25:31  5-MIN KMSN 151225Z 00000KT 10SM CLR 03/M02 A3040 430 72 -900 000/00 RMK AO2
14837KMSN MSN20050415063009404/15/05 06:30:31  5-MIN KMSN 151230Z 02003KT 10SM CLR 03/M01 A3039 430 72 -800 020/03 RMK AO2
14837KMSN MSN20050415063509404/15/05 06:35:31  5-MIN KMSN 151235Z 04003KT 10SM CLR 04/M01 A3040 430 70 -700 040/03 RMK AO2
14837KMSN MSN20050415064009404/15/05 06:40:31  5-MIN KMSN 151240Z 06004KT 10SM CLR 04/M01 A3040 430 67 -700 060/04 RMK AO2
14837KMSN MSN20050415064509404/15/05 06:45:31  5-MIN KMSN 151245Z 07004KT 10SM CLR 04/M01 A3040 430 67 -700 070/04 RMK AO2
14837KMSN MSN20050415065011104/15/05 06:50:31  5-MIN KMSN 151250Z 10003KT 10SM CLR 05/M01 A3040 430 64 -600 100/03 RMK AO2 SLP297 T00501011
14837KMSN MSN20050415065509404/15/05 06:55:31  5-MIN KMSN 151255Z 10006KT 10SM CLR 06/M01 A3040 430 62 -500 100/06 RMK AO2
14837KMSN MSN20050415070009404/15/05 07:00:31  5-MIN KMSN 151300Z 11007KT 10SM CLR 06/M02 A3040 430 59 -500 110/07 RMK AO2
14837KMSN MSN20050415070509404/15/05 07:05:31  5-MIN KMSN 151305Z 10007KT 10SM CLR 06/M02 A3040 430 59 -500 100/07 RMK AO2
14837KMSN MSN20050415071009404/15/05 07:10:31  5-MIN KMSN 151310Z 10006KT 10SM CLR 06/M01 A3040 430 62 -500 100/06 RMK AO2
14837KMSN MSN20050415071509404/15/05 07:15:31  5-MIN KMSN 151315Z 10005KT 10SM CLR 06/M01 A3040 420 60 -500 100/05 RMK AO2
14837KMSN MSN20050415072009404/15/05 07:20:31  5-MIN KMSN 151320Z 09005KT 10SM CLR 06/M01 A3040 430 60 -500 090/05 RMK AO2
14837KMSN MSN20050415072509404/15/05 07:25:31  5-MIN KMSN 151325Z 09005KT 10SM CLR 06/M01 A3040 420 60 -500 090/05 RMK AO2
14837KMSN MSN20050415073009404/15/05 07:30:31  5-MIN KMSN 151330Z VRB04KT 10SM CLR 07/M01 A3040 420 57 -400 VRB/04 RMK AO2
14837KMSN MSN20050415073509404/15/05 07:35:31  5-MIN KMSN 151335Z 14005KT 10SM CLR 07/M01 A3040 420 55 -300 130/05 RMK AO2
14837KMSN MSN20050415074009404/15/05 07:40:31  5-MIN KMSN 151340Z 14005KT 10SM CLR 07/M01 A3040 420 55 -300 140/05 RMK AO2
14837KMSN MSN20050415074509404/15/05 07:45:31  5-MIN KMSN 151345Z 11006KT 10SM CLR 07/M01 A3040 420 55 -300 110/06 RMK AO2
14837KMSN MSN20050415075011104/15/05 07:50:31  5-MIN KMSN 151350Z 10006KT 10SM CLR 07/M01 A3040 420 55 -300 090/06 RMK AO2 SLP298 T00721011
14837KMSN MSN20050415075509404/15/05 07:55:31  5-MIN KMSN 151355Z 11006KT 10SM CLR 08/M01 A3040 420 55 -300 110/06 RMK AO2
14837KMSN MSN20050415080009404/15/05 08:00:31  5-MIN KMSN 151400Z 13005KT 10SM CLR 08/M01 A3040 420 51 -200 130/05 RMK AO2
14837KMSN MSN20050415080509404/15/05 08:05:31  5-MIN KMSN 151405Z 12005KT 10SM CLR 08/M01 A3040 420 51 -200 120/05 RMK AO2
14837KMSN MSN20050415081009404/15/05 08:10:31  5-MIN KMSN 151410Z 14005KT 10SM CLR 08/M01 A3040 420 53 -200 140/05 RMK AO2
14837KMSN MSN20050415081509404/15/05 08:15:31  5-MIN KMSN 151415Z 13004KT 10SM CLR 08/M01 A3040 420 51 -200 130/04 RMK AO2
14837KMSN MSN20050415082009404/15/05 08:20:31  5-MIN KMSN 151420Z 10005KT 10SM CLR 09/M01 A3040 420 51 -100 100/05 RMK AO2
14837KMSN MSN20050415082509404/15/05 08:25:31  5-MIN KMSN 151425Z 13004KT 10SM CLR 09/M01 A3040 420 51 -100 130/04 RMK AO2
14837KMSN MSN20050415083009404/15/05 08:30:31  5-MIN KMSN 151430Z 12005KT 10SM CLR 09/M01 A3040 420 47 -100 120/05 RMK AO2
14837KMSN MSN20050415083509404/15/05 08:35:31  5-MIN KMSN 151435Z VRB03KT 10SM CLR 09/M01 A3040 420 47 -100 VRB/03 RMK AO2
14837KMSN MSN20050415084009104/15/05 08:40:31  5-MIN KMSN 151440Z 11004KT 10SM CLR 10/M01 A3040 420 47 0 110/04 RMK AO2
14837KMSN MSN20050418031509704/18/05 03:15:31  5-MIN KMSN 180915Z 12005KT 5SM HZ BKN110 09/06 A3009 710 76 300 120/05 RMK AO2
14837KMSN MSN20050418032009704/18/05 03:20:31  5-MIN KMSN 180920Z 11004KT 5SM HZ OVC110 09/06 A3009 710 76 300 110/04 RMK AO2
14837KMSN MSN20050418032509704/18/05 03:25:31  5-MIN KMSN 180925Z 12003KT 5SM HZ OVC110 09/06 A3009 710 76 300 120/03 RMK AO2
14837KMSN MSN20050418033009704/18/05 03:30:31  5-MIN KMSN 180930Z 00000KT 5SM HZ OVC110 09/06 A3009 710 76 300 000/00 RMK AO2
14837KMSN MSN20050418033509704/18/05 03:35:31  5-MIN KMSN 180935Z 00000KT 5SM HZ OVC110 09/06 A3009 710 76 300 000/00 RMK AO2
14837KMSN MSN20050418034009704/18/05 03:40:31  5-MIN KMSN 180940Z 00000KT 5SM HZ BKN110 10/06 A3009 710 74 300 000/00 RMK AO2
14837KMSN MSN20050418034509704/18/05 03:45:31  5-MIN KMSN 180945Z 00000KT 5SM HZ BKN110 09/06 A3009 710 76 300 000/00 RMK AO2
14837KMSN MSN20050418035011404/18/05 03:50:31  5-MIN KMSN 180950Z 14003KT 5SM HZ BKN110 10/06 A3009 710 74 300 140/03 RMK AO2 SLP188 T01000056
14837KMSN MSN20050418035509704/18/05 03:55:31  5-MIN KMSN 180955Z 13004KT 5SM HZ BKN110 10/06 A3009 710 74 300 130/04 RMK AO2
14837KMSN MSN20050418040009704/18/05 04:00:31  5-MIN KMSN 181000Z 13005KT 5SM HZ SCT110 09/06 A3009 710 79 200 130/05 RMK AO2
14837KMSN MSN20050418040509704/18/05 04:05:31  5-MIN KMSN 181005Z 13003KT 5SM HZ SCT110 09/05 A3009 710 76 200 130/03 RMK AO2
14837KMSN MSN20050418041009704/18/05 04:10:31  5-MIN KMSN 181010Z 15003KT 5SM HZ FEW110 09/06 A3009 710 76 200 140/03 RMK AO2
14837KMSN MSN20050418041509704/18/05 04:15:31  5-MIN KMSN 181015Z 13006KT 5SM HZ FEW110 09/05 A3009 710 76 200 130/06 RMK AO2
14837KMSN MSN20050418042009704/18/05 04:20:31  5-MIN KMSN 181020Z 12006KT 5SM HZ FEW110 09/06 A3009 710 79 200 120/06 RMK AO2
14837KMSN MSN20050418042509704/18/05 04:25:31  5-MIN KMSN 181025Z 13006KT 5SM HZ FEW110 09/06 A3009 710 79 200 120/06 RMK AO2
14837KMSN MSN20050418043009404/18/05 04:30:31  5-MIN KMSN 181030Z 12005KT 5SM HZ CLR 09/06 A3009 710 79 200 120/05 RMK AO2
14837KMSN MSN20050418043509404/18/05 04:35:31  5-MIN KMSN 181035Z 12005KT 5SM HZ CLR 09/06 A3009 710 79 200 120/05 RMK AO2
14837KMSN MSN20050418044009404/18/05 04:40:31  5-MIN KMSN 181040Z 12005KT 5SM HZ CLR 09/05 A3009 710 76 200 120/05 RMK AO2
14837KMSN MSN20050418044509404/18/05 04:45:31  5-MIN KMSN 181045Z 12004KT 5SM HZ CLR 09/06 A3009 710 79 200 120/04 RMK AO2
14837KMSN MSN20050418045011404/18/05 04:50:31  5-MIN KMSN 181050Z 13004KT 4SM HZ FEW110 09/06 A3009 710 79 200 120/04 RMK AO2 SLP189 T00890056
14837KMSN MSN20050418045509404/18/05 04:55:31  5-MIN KMSN 181055Z 12004KT 5SM HZ CLR 09/06 A3009 710 79 200 120/04 RMK AO2
14837KMSN MSN20050418050009404/18/05 05:00:31  5-MIN KMSN 181100Z 12004KT 5SM HZ CLR 09/05 A3009 710 76 200 120/04 RMK AO2
14837KMSN MSN20050418050509404/18/05 05:05:31  5-MIN KMSN 181105Z 13004KT 5SM HZ CLR 09/05 A3009 710 76 200 120/04 RMK AO2
14837KMSN MSN20050418051009404/18/05 05:10:31  5-MIN KMSN 181110Z 13003KT 5SM HZ CLR 09/06 A3009 710 79 200 130/03 RMK AO2
14837KMSN MSN20050418051509404/18/05 05:15:31  5-MIN KMSN 181115Z 13005KT 4SM HZ CLR 09/06 A3009 710 79 200 130/05 RMK AO2
14837KMSN MSN20050418052009404/18/05 05:20:31  5-MIN KMSN 181120Z 13005KT 4SM HZ CLR 09/06 A3009 710 79 200 130/05 RMK AO2
14837KMSN MSN20050418052509704/18/05 05:25:31  5-MIN KMSN 181125Z 13005KT 4SM HZ FEW120 09/06 A3009 710 79 200 130/05 RMK AO2
14837KMSN MSN20050418053009704/18/05 05:30:31  5-MIN KMSN 181130Z 12004KT 4SM HZ FEW120 09/06 A3009 710 79 200 120/04 RMK AO2
14837KMSN MSN20050418053509704/18/05 05:35:31  5-MIN KMSN 181135Z 13003KT 4SM HZ FEW120 09/06 A3010 700 79 200 130/03 RMK AO2
14837KMSN MSN20050418054009704/18/05 05:40:31  5-MIN KMSN 181140Z 00000KT 4SM HZ FEW120 09/06 A3009 700 76 200 000/00 RMK AO2
14837KMSN MSN20050418054509704/18/05 05:45:31  5-MIN KMSN 181145Z 00000KT 4SM HZ FEW120 09/06 A3010 700 76 200 000/00 RMK AO2
14837KMSN MSN20050418055012904/18/05 05:50:31  5-MIN KMSN 181150Z 00000KT 4SM HZ CLR 09/06 A3010 700 76 200 000/00 RMK AO2 SLP191 T00940056 10122 20083 56009
14837KMSN MSN20050418055509404/18/05 05:55:31  5-MIN KMSN 181155Z 00000KT 4SM HZ CLR 09/06 A3010 700 79 200 000/00 RMK AO2
14837KMSN MSN20050418060009404/18/05 06:00:31  5-MIN KMSN 181200Z 00000KT 4SM HZ CLR 09/06 A3010 700 76 200 000/00 RMK AO2
14837KMSN MSN20050418060509404/18/05 06:05:31  5-MIN KMSN 181205Z 00000KT 4SM HZ CLR 09/06 A3009 700 76 200 000/00 RMK AO2
14837KMSN MSN20050418061009404/18/05 06:10:31  5-MIN KMSN 181210Z 00000KT 4SM HZ CLR 09/06 A3009 710 79 200 000/00 RMK AO2
14837KMSN MSN20050418061509404/18/05 06:15:31  5-MIN KMSN 181215Z 00000KT 4SM HZ CLR 10/07 A3009 700 80 300 000/00 RMK AO2
14837KMSN MSN20050418062009404/18/05 06:20:31  5-MIN KMSN 181220Z 10003KT 4SM HZ CLR 10/07 A3010 700 80 300 100/03 RMK AO2
14837KMSN MSN20050418062509404/18/05 06:25:31  5-MIN KMSN 181225Z 00000KT 4SM HZ CLR 10/07 A3010 700 80 300 000/00 RMK AO2
14837KMSN MSN20050418063009404/18/05 06:30:31  5-MIN KMSN 181230Z 00000KT 4SM HZ CLR 11/07 A3010 700 77 400 000/00 RMK AO2
14837KMSN MSN20050418063509404/18/05 06:35:31  5-MIN KMSN 181235Z 00000KT 4SM HZ CLR 11/07 A3010 700 80 400 000/00 RMK AO2
14837KMSN MSN20050418064009404/18/05 06:40:31  5-MIN KMSN 181240Z 16006KT 4SM HZ CLR 11/07 A3010 700 74 400 160/06 RMK AO2
14837KMSN MSN20050418064509404/18/05 06:45:31  5-MIN KMSN 181245Z 16004KT 5SM HZ CLR 12/07 A3010 700 71 500 160/04 RMK AO2
14837KMSN MSN20050418065011104/18/05 06:50:31  5-MIN KMSN 181250Z 17004KT 5SM HZ CLR 12/07 A3010 700 71 500 170/04 RMK AO2 SLP191 T01170067
14837KMSN MSN20050418065509404/18/05 06:55:31  5-MIN KMSN 181255Z 16005KT 5SM HZ CLR 12/07 A3010 700 74 500 160/05 RMK AO2
14837KMSN MSN20050418070009404/18/05 07:00:31  5-MIN KMSN 181300Z 17006KT 5SM HZ CLR 12/07 A3010 700 71 600 160/06 RMK AO2
14837KMSN MSN20050418070509404/18/05 07:05:31  5-MIN KMSN 181305Z 17005KT 5SM HZ CLR 12/07 A3009 700 68 600 170/05 RMK AO2
14837KMSN MSN20050418071009404/18/05 07:10:31  5-MIN KMSN 181310Z 17005KT 5SM HZ CLR 12/07 A3009 710 68 600 170/05 RMK AO2
14837KMSN MSN20050418071509404/18/05 07:15:31  5-MIN KMSN 181315Z 17007KT 5SM HZ CLR 13/07 A3009 700 66 600 170/07 RMK AO2
14837KMSN MSN20050418072009404/18/05 07:20:31  5-MIN KMSN 181320Z 16007KT 5SM HZ CLR 13/07 A3009 710 69 600 160/07 RMK AO2
14837KMSN MSN20050418072509404/18/05 07:25:31  5-MIN KMSN 181325Z 16007KT 5SM HZ CLR 13/07 A3009 710 66 700 160/07 RMK AO2
14837KMSN MSN20050418073009404/18/05 07:30:31  5-MIN KMSN 181330Z 16006KT 5SM HZ CLR 13/07 A3009 710 66 700 160/06 RMK AO2
14837KMSN MSN20050418073509404/18/05 07:35:31  5-MIN KMSN 181335Z 16007KT 5SM HZ CLR 13/07 A3009 710 66 700 160/07 RMK AO2
14837KMSN MSN20050418074009404/18/05 07:40:31  5-MIN KMSN 181340Z 17006KT 5SM HZ CLR 14/07 A3009 710 64 800 170/06 RMK AO2
14837KMSN MSN20050418074509404/18/05 07:45:31  5-MIN KMSN 181345Z 16007KT 5SM HZ CLR 14/07 A3009 710 64 800 160/07 RMK AO2
14837KMSN MSN20050418075011104/18/05 07:50:31  5-MIN KMSN 181350Z 17006KT 5SM HZ CLR 14/08 A3009 710 64 800 170/06 RMK AO2 SLP190 T01440078
14837KMSN MSN20050418075509404/18/05 07:55:31  5-MIN KMSN 181355Z 17005KT 5SM HZ CLR 14/08 A3009 700 64 800 170/05 RMK AO2
14837KMSN MSN20050418080009404/18/05 08:00:31  5-MIN KMSN 181400Z 17006KT 5SM HZ CLR 15/08 A3009 710 62 900 170/06 RMK AO2
14837KMSN MSN20050418080509404/18/05 08:05:31  5-MIN KMSN 181405Z 17007KT 5SM HZ CLR 14/07 A3009 710 61 800 160/07 RMK AO2
14837KMSN MSN20050418081009404/18/05 08:10:31  5-MIN KMSN 181410Z 17006KT 5SM HZ CLR 15/08 A3009 710 62 900 170/06 RMK AO2
14837KMSN MSN20050418081509404/18/05 08:15:31  5-MIN KMSN 181415Z 17006KT 5SM HZ CLR 15/08 A3009 710 62 900 170/06 RMK AO2
14837KMSN MSN20050418082009504/18/05 08:20:31  5-MIN KMSN 181420Z 17006KT 5SM HZ CLR 16/08 A3009 710 59 1000 160/06 RMK AO2
14837KMSN MSN20050418082509504/18/05 08:25:31  5-MIN KMSN 181425Z 18006KT 5SM HZ CLR 16/08 A3008 710 59 1000 180/06 RMK AO2
14837KMSN MSN20050418083009504/18/05 08:30:31  5-MIN KMSN 181430Z 16006KT 5SM HZ CLR 16/08 A3008 710 59 1100 160/06 RMK AO2
14837KMSN MSN20050418083509504/18/05 08:35:31  5-MIN KMSN 181435Z 16008KT 5SM HZ CLR 16/08 A3008 710 59 1000 160/08 RMK AO2
14837KMSN MSN20050418084009504/18/05 08:40:31  5-MIN KMSN 181440Z 16006KT 5SM HZ CLR 16/08 A3008 710 57 1100 160/06 RMK AO2
14837KMSN MSN20050418084509504/18/05 08:45:31  5-MIN KMSN 181445Z 16007KT 5SM HZ CLR 17/08 A3008 720 57 1100 160/07 RMK AO2
14837KMSN MSN20050418085011804/18/05 08:50:31  5-MIN KMSN 181450Z 17007KT 5SM HZ CLR 17/08 A3008 720 55 1200 170/07 RMK AO2 SLP186 T01720083 53002
14837KMSN MSN20050418085509504/18/05 08:55:31  5-MIN KMSN 181455Z 16007KT 5SM HZ CLR 17/08 A3008 720 55 1200 160/07 RMK AO2
14837KMSN MSN20050418090009504/18/05 09:00:31  5-MIN KMSN 181500Z 16007KT 5SM HZ CLR 18/09 A3008 720 55 1200 160/07 RMK AO2
14837KMSN MSN20050418090509504/18/05 09:05:31  5-MIN KMSN 181505Z 16006KT 5SM HZ CLR 18/09 A3008 720 55 1300 160/06 RMK AO2
14837KMSN MSN20050418091009504/18/05 09:10:31  5-MIN KMSN 181510Z 17007KT 6SM HZ CLR 18/09 A3008 720 54 1300 170/07 RMK AO2
14837KMSN MSN20050418091509504/18/05 09:15:31  5-MIN KMSN 181515Z 16007KT 5SM HZ CLR 19/09 A3008 720 52 1400 160/07 RMK AO2
14837KMSN MSN20050418092009504/18/05 09:20:31  5-MIN KMSN 181520Z 17007KT 5SM HZ CLR 19/09 A3008 720 54 1400 170/07 RMK AO2
14837KMSN MSN20050418092509504/18/05 09:25:31  5-MIN KMSN 181525Z 17008KT 5SM HZ CLR 19/09 A3008 720 50 1400 170/08 RMK AO2
14837KMSN MSN20050418093009504/18/05 09:30:31  5-MIN KMSN 181530Z 16007KT 5SM HZ CLR 19/09 A3008 720 52 1400 160/07 RMK AO2
14837KMSN MSN20050418093509504/18/05 09:35:31  5-MIN KMSN 181535Z 17007KT 6SM HZ CLR 20/09 A3008 720 50 1500 170/07 RMK AO2
14837KMSN MSN20050418094009504/18/05 09:40:31  5-MIN KMSN 181540Z 16006KT 6SM HZ CLR 20/09 A3008 720 50 1500 160/06 RMK AO2
14837KMSN MSN20050418094509504/18/05 09:45:31  5-MIN KMSN 181545Z 16008KT 6SM HZ CLR 21/09 A3007 720 48 1600 160/08 RMK AO2
14837KMSN MSN20050418095011204/18/05 09:50:31  5-MIN KMSN 181550Z 17007KT 6SM HZ CLR 21/09 A3007 720 48 1600 170/07 RMK AO2 SLP183 T02060094
14837KMSN MSN20050418095509504/18/05 09:55:31  5-MIN KMSN 181555Z 17007KT 6SM HZ CLR 22/11 A3007 720 49 1700 170/07 RMK AO2
14837KMSN MSN20050418100009504/18/05 10:00:31  5-MIN KMSN 181600Z 17008KT 6SM HZ CLR 22/10 A3007 720 47 1700 170/08 RMK AO2
14837KMSN MSN20050418100509504/18/05 10:05:31  5-MIN KMSN 181605Z 19005KT 6SM HZ CLR 22/10 A3007 730 47 1700 190/05 RMK AO2
14837KMSN MSN20050418101009304/18/05 10:10:31  5-MIN KMSN 181610Z 18007KT 7SM CLR 22/11 A3007 730 47  1800 170/07 RMK AO2
14837KMSN MSN20050418101509304/18/05 10:15:31  5-MIN KMSN 181615Z 18007KT 7SM CLR 22/10 A3007 730 45  1800 180/07 RMK AO2
14837KMSN MSN20050418102009304/18/05 10:20:31  5-MIN KMSN 181620Z 19008KT 7SM CLR 22/11 A3007 730 47  1800 190/08 RMK AO2
14837KMSN MSN20050418102509304/18/05 10:25:31  5-MIN KMSN 181625Z 18007KT 7SM CLR 23/10 A3007 730 44  1800 180/07 RMK AO2
14837KMSN MSN20050418103009304/18/05 10:30:31  5-MIN KMSN 181630Z 16007KT 8SM CLR 23/11 A3006 730 45  1800 160/07 RMK AO2
14837KMSN MSN20050418103509304/18/05 10:35:31  5-MIN KMSN 181635Z 16007KT 8SM CLR 23/11 A3006 730 45  1900 160/07 RMK AO2
14837KMSN MSN20050418104009304/18/05 10:40:31  5-MIN KMSN 181640Z 18006KT 8SM CLR 23/11 A3006 740 44  1900 180/06 RMK AO2
14837KMSN MSN20050418104509304/18/05 10:45:31  5-MIN KMSN 181645Z 18007KT 8SM CLR 23/11 A3006 740 44  1900 180/07 RMK AO2
14837KMSN MSN20050418105011004/18/05 10:50:31  5-MIN KMSN 181650Z 18008KT 9SM CLR 24/11 A3006 740 42  2000 180/08 RMK AO2 SLP176 T02390106
14837KMSN MSN20050418105509304/18/05 10:55:31  5-MIN KMSN 181655Z VRB06KT 9SM CLR 23/11 A3005 740 44  1900 VRB/06 RMK AO2
14837KMSN MSN20050418110009304/18/05 11:00:31  5-MIN KMSN 181700Z 18008KT 9SM CLR 24/11 A3005 740 42  2000 180/08 RMK AO2
14837KMSN MSN20050418110509304/18/05 11:05:31  5-MIN KMSN 181705Z 15007KT 9SM CLR 24/11 A3005 740 42  2000 150/07 RMK AO2
14837KMSN MSN20050418111009304/18/05 11:10:31  5-MIN KMSN 181710Z 22009KT 9SM CLR 24/11 A3005 750 41  2000 220/09 RMK AO2
14837KMSN MSN20050418111509404/18/05 11:15:31  5-MIN KMSN 181715Z VRB05KT 10SM CLR 24/10 A3005 750 39  2100 VRB/05 RMK AO2
14837KMSN MSN20050418112009304/18/05 11:20:31  5-MIN KMSN 181720Z VRB05KT 9SM CLR 24/11 A3004 750 41  2100 VRB/05 RMK AO2
14837KMSN MSN20050418112510904/18/05 11:25:31  5-MIN KMSN 181725Z 20008KT 190V250 9SM CLR 24/10 A3004  750 39 2100 200/08 190V250 RMK AO2
14837KMSN MSN20050418113009304/18/05 11:30:31  5-MIN KMSN 181730Z 21006KT 9SM CLR 24/10 A3004 760 39  2100 200/06 RMK AO2
14837KMSN MSN20050418113509404/18/05 11:35:31  5-MIN KMSN 181735Z 21008KT 10SM CLR 25/10 A3004 760 38  2100 210/08 RMK AO2
14837KMSN MSN20050418114009404/18/05 11:40:31  5-MIN KMSN 181740Z 22008KT 10SM CLR 24/10 A3004 760 39  2100 220/08 RMK AO2
14837KMSN MSN20050418114509404/18/05 11:45:31  5-MIN KMSN 181745Z 22011KT 10SM CLR 25/10 A3003 760 38  2100 220/11 RMK AO2
14837KMSN MSN20050418115012904/18/05 11:50:31  5-MIN KMSN 181750Z 21011KT 10SM CLR 25/09 A3003 760 37  2100 210/11 RMK AO2 SLP167 T02500094 10250 20089 58005
14837KMSN MSN20050418115510904/18/05 11:55:31  5-MIN KMSN 181755Z 22007KT 180V270 10SM CLR 25/11 A3003 760 39 2100 210/07 180V270 RMK AO2
14837KMSN MSN20050418120009504/18/05 12:00:31  5-MIN KMSN 181800Z 20009KT 9SM FEW060 25/11 A3003 760 39 2100 200/09 RMK AO2
14837KMSN MSN20050418120511204/18/05 12:05:31  5-MIN KMSN 181805Z 20011KT 170V240 9SM FEW060 25/10  A3002 770 38 2100 190/11 170V240 RMK AO2
14837KMSN MSN20050418121009504/18/05 12:10:31  5-MIN KMSN 181810Z 22010KT 9SM FEW060 25/09 A3002 770 37 2100 220/10 RMK AO2
14837KMSN MSN20050418121510304/18/05 12:15:31  5-MIN KMSN 181815Z 19011G16KT 10SM FEW060 26/10 A3002  770 37 2200 190/11G16 RMK AO2
14837KMSN MSN20050418122011804/18/05 12:20:31  5-MIN KMSN 181820Z 21007G16KT 160V240 10SM FEW060 26/10 A3002 770 37 2200 200/07G16 160V240 RMK AO2
14837KMSN MSN20050418122509704/18/05 12:25:31  5-MIN KMSN 181825Z 20010KT 10SM FEW060 26/10 A3002 780  37 2200 200/10 RMK AO2
14837KMSN MSN20050418123010304/18/05 12:30:31  5-MIN KMSN 181830Z 21009G15KT 10SM FEW060 26/09 A3001  780 35 2200 210/09G15 RMK AO2
14837KMSN MSN20050418123510304/18/05 12:35:31  5-MIN KMSN 181835Z 21012G15KT 10SM FEW060 26/09 A3001  780 35 2200 210/12G15 RMK AO2
14837KMSN MSN20050418124009704/18/05 12:40:31  5-MIN KMSN 181840Z 21010KT 10SM FEW060 26/09 A3001 780  34 2300 210/10 RMK AO2
14837KMSN MSN20050418124509704/18/05 12:45:31  5-MIN KMSN 181845Z 19011KT 10SM FEW060 26/09 A3001 780  35 2200 190/11 RMK AO2
14837KMSN MSN20050418125012004/18/05 12:50:31  5-MIN KMSN 181850Z 22009G17KT 10SM SCT060 26/09 A3001  780 35 2200 220/09G17 RMK AO2 SLP160 T02560094
14837KMSN MSN20050418125510304/18/05 12:55:31  5-MIN KMSN 181855Z 18013G17KT 10SM FEW065 26/09 A3000  790 34 2300 180/13G17 RMK AO2
14837KMSN MSN20050418130009404/18/05 13:00:31  5-MIN KMSN 181900Z 22010KT 10SM CLR 26/09 A3000 790 35  2200 210/10 RMK AO2
14837KMSN MSN20050418130509404/18/05 13:05:31  5-MIN KMSN 181905Z 18009KT 10SM CLR 26/09 A3000 790 35  2200 180/09 RMK AO2
14837KMSN MSN20050418131009704/18/05 13:10:31  5-MIN KMSN 181910Z 18010KT 10SM FEW065 26/09 A3000 790  34 2300 180/10 RMK AO2
14837KMSN MSN20050418131509704/18/05 13:15:31  5-MIN KMSN 181915Z 21009KT 10SM FEW065 26/10 A3000 790  37 2200 210/09 RMK AO2
14837KMSN MSN20050418132009704/18/05 13:20:31  5-MIN KMSN 181920Z 22010KT 10SM FEW065 26/09 A3000 790  35 2200 220/10 RMK AO2
14837KMSN MSN20050418132509704/18/05 13:25:31  5-MIN KMSN 181925Z 21009KT 10SM FEW065 26/09 A3000 790  35 2200 210/09 RMK AO2
14837KMSN MSN20050418133011304/18/05 13:30:31  5-MIN KMSN 181930Z 22008KT 190V250 10SM FEW065 26/09  A2999 800 35 2200 220/08 190V250 RMK AO2
14837KMSN MSN20050418133509704/18/05 13:35:31  5-MIN KMSN 181935Z 21010KT 10SM FEW065 26/10 A2999 800  36 2300 210/10 RMK AO2
14837KMSN MSN20050418134011304/18/05 13:40:31  5-MIN KMSN 181940Z 22008KT 200V260 10SM FEW065 26/09  A2999 800 34 2300 220/08 200V260 RMK AO2
14837KMSN MSN20050418134509704/18/05 13:45:31  5-MIN KMSN 181945Z VRB06KT 10SM FEW065 26/09 A2999 800  34 2200 VRB/06 RMK AO2
14837KMSN MSN20050418135012004/18/05 13:50:31  5-MIN KMSN 181950Z 22010G15KT 10SM FEW065 26/09 A2999  800 34 2300 220/10G15 RMK AO2 SLP152 T02610094
14837KMSN MSN20050418135510304/18/05 13:55:31  5-MIN KMSN 181955Z 20011G17KT 10SM FEW070 26/09 A2999  800 33 2300 200/11G17 RMK AO2
14837KMSN MSN20050418140010304/18/05 14:00:31  5-MIN KMSN 182000Z 19011G17KT 10SM FEW070 26/09 A2998  810 33 2300 190/11G17 RMK AO2
14837KMSN MSN20050418140511804/18/05 14:05:31  5-MIN KMSN 182005Z 21008G16KT 180V250 10SM SCT070 27/09 A2998 810 33 2400 210/08G16 180V250 RMK AO2
14837KMSN MSN20050418141010304/18/05 14:10:31  5-MIN KMSN 182010Z 21009G15KT 10SM SCT070 26/09 A2998  810 33 2300 210/09G15 RMK AO2
14837KMSN MSN20050418141511304/18/05 14:15:31  5-MIN KMSN 182015Z 22009KT 200V260 10SM SCT070 26/08  A2998 810 32 2300 220/09 200V260 RMK AO2
14837KMSN MSN20050418142009704/18/05 14:20:31  5-MIN KMSN 182020Z 22008KT 10SM SCT070 26/09 A2998 810  34 2300 220/08 RMK AO2
14837KMSN MSN20050418142510304/18/05 14:25:31  5-MIN KMSN 182025Z 19012G16KT 10SM SCT070 26/09 A2997  820 34 2300 190/12G16 RMK AO2
14837KMSN MSN20050418143010304/18/05 14:30:31  5-MIN KMSN 182030Z 20008G16KT 10SM SCT070 26/09 A2997  820 34 2300 200/08G16 RMK AO2
14837KMSN MSN20050418143509704/18/05 14:35:31  5-MIN KMSN 182035Z VRB06KT 10SM SCT070 26/09 A2997 820  34 2300 VRB/06 RMK AO2
14837KMSN MSN20050418144010304/18/05 14:40:31  5-MIN KMSN 182040Z 21009G14KT 10SM SCT070 27/09 A2997  820 33 2400 210/09G14 RMK AO2
14837KMSN MSN20050418144510304/18/05 14:45:31  5-MIN KMSN 182045Z 22007G14KT 10SM SCT070 27/09 A2997  820 33 2400 220/07G14 RMK AO2
14837KMSN MSN20050418145012004/18/05 14:50:31  5-MIN KMSN 182050Z 23010KT 10SM SCT070 26/09 A2997 820  33 2300 230/10 RMK AO2 SLP146 T02610089 58017
14837KMSN MSN20050418145509704/18/05 14:55:31  5-MIN KMSN 182055Z 21010KT 10SM SCT070 27/09 A2997 820  32 2400 210/10 RMK AO2
14837KMSN MSN20050418150009704/18/05 15:00:31  5-MIN KMSN 182100Z 18012KT 10SM SCT070 26/09 A2996 820  34 2300 180/12 RMK AO2
14837KMSN MSN20050418150509504/18/05 15:05:31  5-MIN KMSN 182105Z 21006KT 9SM SCT070 27/09 A2996 820 33 2400 210/06 RMK AO2
14837KMSN MSN20050418151009504/18/05 15:10:31  5-MIN KMSN 182110Z 20009KT 9SM SCT070 26/09 A2996 820 34 2300 200/09 RMK AO2
14837KMSN MSN20050418151509504/18/05 15:15:31  5-MIN KMSN 182115Z 20010KT 9SM FEW075 26/09 A2996 830 33 2300 200/10 RMK AO2
14837KMSN MSN20050418152009504/18/05 15:20:31  5-MIN KMSN 182120Z 21010KT 9SM FEW075 26/09 A2996 830 33 2300 210/10 RMK AO2
14837KMSN MSN20050418152509504/18/05 15:25:31  5-MIN KMSN 182125Z 22008KT 9SM FEW075 26/09 A2996 830 34 2300 220/08 RMK AO2
14837KMSN MSN20050418153009504/18/05 15:30:31  5-MIN KMSN 182130Z 21008KT 9SM FEW075 26/09 A2996 830 34 2300 210/08 RMK AO2
14837KMSN MSN20050418153509504/18/05 15:35:31  5-MIN KMSN 182135Z 20010KT 9SM FEW075 26/09 A2996 830 33 2300 200/10 RMK AO2
14837KMSN MSN20050418154009504/18/05 15:40:31  5-MIN KMSN 182140Z 19010KT 9SM FEW075 26/09 A2996 830 34 2300 190/10 RMK AO2
14837KMSN MSN20050418154509504/18/05 15:45:31  5-MIN KMSN 182145Z 21008KT 9SM FEW075 27/09 A2996 830 33 2400 210/08 RMK AO2
14837KMSN MSN20050418155013004/18/05 15:50:31  5-MIN KMSN 182150Z 20009KT 160V220 10SM SCT075 26/09  A2995 830 33 2300 200/09 160V220 RMK AO2 SLP141 T02610089
14837KMSN MSN20050418155510104/18/05 15:55:31  5-MIN KMSN 182155Z 23010G15KT 9SM BKN075 26/09 A2995 830 33 2300 230/10G15 RMK AO2
14837KMSN MSN20050418160010104/18/05 16:00:31  5-MIN KMSN 182200Z 22007G15KT 9SM BKN075 26/09 A2995 830 33 2300 220/07G15 RMK AO2
14837KMSN MSN20050418160509504/18/05 16:05:31  5-MIN KMSN 182205Z 23009KT 9SM BKN075 26/09 A2995 830 33 2300 230/09 RMK AO2
14837KMSN MSN20050418161009504/18/05 16:10:31  5-MIN KMSN 182210Z 21008KT 9SM BKN075 26/09 A2995 840 34 2300 210/08 RMK AO2
14837KMSN MSN20050418161509504/18/05 16:15:31  5-MIN KMSN 182215Z 23007KT 9SM BKN075 26/09 A2995 840 34 2300 230/07 RMK AO2
14837KMSN MSN20050418162009504/18/05 16:20:31  5-MIN KMSN 182220Z 23008KT 9SM SCT075 26/09 A2995 840 34 2300 230/08 RMK AO2
14837KMSN MSN20050418162509504/18/05 16:25:31  5-MIN KMSN 182225Z 22007KT 9SM SCT080 26/09 A2995 840 34 2300 220/07 RMK AO2
14837KMSN MSN20050418163011204/18/05 16:30:31  5-MIN KMSN 182230Z 23008KT 210V270 9SM SCT080 26/09  A2995 840 34 2400 230/08 210V270 RMK AO2
14837KMSN MSN20050418163509504/18/05 16:35:31  5-MIN KMSN 182235Z 23008KT 9SM FEW080 26/09 A2995 840 33 2400 220/08 RMK AO2
14837KMSN MSN20050418164009504/18/05 16:40:31  5-MIN KMSN 182240Z 21008KT 9SM FEW080 26/09 A2995 840 34 2300 210/08 RMK AO2
14837KMSN MSN20050418164509304/18/05 16:45:31  5-MIN KMSN 182245Z 20006KT 9SM CLR 26/09 A2995 840 34  2300 200/06 RMK AO2
14837KMSN MSN20050418165011204/18/05 16:50:31  5-MIN KMSN 182250Z 22008KT 9SM FEW080 26/09 A2995 840 34 2300 220/08 RMK AO2 SLP139 T02560089
14837KMSN MSN20050418165509304/18/05 16:55:31  5-MIN KMSN 182255Z 22009KT 9SM CLR 26/09 A2994 840 34  2300 220/09 RMK AO2
14837KMSN MSN20050418170009304/18/05 17:00:31  5-MIN KMSN 182300Z 21008KT 9SM CLR 26/09 A2994 840 34  2300 210/08 RMK AO2
14837KMSN MSN20050418170509304/18/05 17:05:31  5-MIN KMSN 182305Z 20006KT 9SM CLR 25/09 A2994 840 35  2200 200/06 RMK AO2
14837KMSN MSN20050418171009304/18/05 17:10:31  5-MIN KMSN 182310Z 22008KT 9SM CLR 26/09 A2994 840 34  2300 210/08 RMK AO2
14837KMSN MSN20050418171509304/18/05 17:15:31  5-MIN KMSN 182315Z 21006KT 9SM CLR 26/09 A2994 840 34  2300 210/06 RMK AO2
14837KMSN MSN20050418172009304/18/05 17:20:31  5-MIN KMSN 182320Z 21006KT 9SM CLR 25/09 A2994 850 35  2200 210/06 RMK AO2
14837KMSN MSN20050418172509304/18/05 17:25:31  5-MIN KMSN 182325Z 21006KT 9SM CLR 25/09 A2994 850 35  2200 210/06 RMK AO2
14837KMSN MSN20050418173009304/18/05 17:30:31  5-MIN KMSN 182330Z 21007KT 9SM CLR 25/09 A2994 850 35  2200 200/07 RMK AO2
14837KMSN MSN20050418173509304/18/05 17:35:31  5-MIN KMSN 182335Z 21007KT 9SM CLR 25/09 A2994 850 35  2200 210/07 RMK AO2
14837KMSN MSN20050418174009304/18/05 17:40:31  5-MIN KMSN 182340Z VRB06KT 9SM CLR 25/09 A2994 850 35  2200 VRB/06 RMK AO2
14837KMSN MSN20050418174509304/18/05 17:45:31  5-MIN KMSN 182345Z 20005KT 9SM CLR 25/09 A2994 850 35  2200 200/05 RMK AO2
14837KMSN MSN20050418175013004/18/05 17:50:31  5-MIN KMSN 182350Z 21006KT 9SM FEW080 25/09 A2994 850 35 2200 210/06 RMK AO2 SLP137 T02500089 10267 20244 56020
14837KMSN MSN20050418175509304/18/05 17:55:31  5-MIN KMSN 182355Z 20006KT 9SM CLR 24/09 A2994 850 36  2200 200/06 RMK AO2
14837KMSN MSN20050418180009304/18/05 18:00:31  5-MIN KMSN 190000Z 21005KT 9SM CLR 24/09 A2994 850 36  2200 210/05 RMK AO2
14837KMSN MSN20050418180509304/18/05 18:05:31  5-MIN KMSN 190005Z 22004KT 9SM CLR 24/09 A2994 850 36  2200 210/04 RMK AO2
14837KMSN MSN20050418181009304/18/05 18:10:31  5-MIN KMSN 190010Z 21003KT 9SM CLR 24/09 A2994 850 36  2200 210/03 RMK AO2
14837KMSN MSN20050418181509304/18/05 18:15:31  5-MIN KMSN 190015Z VRB04KT 9SM CLR 24/09 A2994 850 36  2200 VRB/04 RMK AO2
14837KMSN MSN20050418182009304/18/05 18:20:31  5-MIN KMSN 190020Z VRB04KT 9SM CLR 24/09 A2994 850 36  2200 VRB/04 RMK AO2
14837KMSN MSN20050418182509304/18/05 18:25:31  5-MIN KMSN 190025Z 21004KT 9SM CLR 24/09 A2994 850 38  2100 210/04 RMK AO2
14837KMSN MSN20050418183009304/18/05 18:30:31  5-MIN KMSN 190030Z 20005KT 9SM CLR 24/08 A2994 850 36  2100 200/05 RMK AO2
14837KMSN MSN20050418183509304/18/05 18:35:31  5-MIN KMSN 190035Z 21004KT 9SM CLR 24/08 A2994 850 36  2100 210/04 RMK AO2
14837KMSN MSN20050418184009304/18/05 18:40:31  5-MIN KMSN 190040Z 20004KT 9SM CLR 23/08 A2994 850 38  2100 200/04 RMK AO2
14837KMSN MSN20050418184509304/18/05 18:45:31  5-MIN KMSN 190045Z 21004KT 9SM CLR 23/08 A2994 850 38  2100 210/04 RMK AO2
14837KMSN MSN20050418185011004/18/05 18:50:31  5-MIN KMSN 190050Z 21003KT 9SM CLR 23/08 A2994 850 38  2000 210/03 RMK AO2 SLP135 T02330083
14837KMSN MSN20050418185509304/18/05 18:55:31  5-MIN KMSN 190055Z 21004KT 9SM CLR 23/08 A2994 850 38  2000 210/04 RMK AO2
14837KMSN MSN20050418190009304/18/05 19:00:31  5-MIN KMSN 190100Z 21003KT 9SM CLR 23/09 A2994 850 40  2000 210/03 RMK AO2
14837KMSN MSN20050418190509404/18/05 19:05:31  5-MIN KMSN 190105Z 21003KT 10SM CLR 23/09 A2994 850 42  2000 210/03 RMK AO2
14837KMSN MSN20050418191009404/18/05 19:10:31  5-MIN KMSN 190110Z 21003KT 10SM CLR 22/09 A2994 850 42  1900 210/03 RMK AO2
14837KMSN MSN20050418191509404/18/05 19:15:31  5-MIN KMSN 190115Z 21003KT 10SM CLR 22/09 A2994 840 43  1900 210/03 RMK AO2
14837KMSN MSN20050418192009404/18/05 19:20:31  5-MIN KMSN 190120Z 00000KT 10SM CLR 21/09 A2994 840 47  1800 000/00 RMK AO2
14837KMSN MSN20050418192509404/18/05 19:25:31  5-MIN KMSN 190125Z 00000KT 10SM CLR 19/10 A2994 840 54  1600 000/00 RMK AO2
14837KMSN MSN20050418193009404/18/05 19:30:31  5-MIN KMSN 190130Z 00000KT 10SM CLR 19/09 A2994 840 52  1600 000/00 RMK AO2
14837KMSN MSN20050418193509304/18/05 19:35:31  5-MIN KMSN 190135Z 00000KT 9SM CLR 19/10 A2994 840 56  1500 000/00 RMK AO2
14837KMSN MSN20050418194009304/18/05 19:40:31  5-MIN KMSN 190140Z 00000KT 9SM CLR 19/10 A2995 840 56  1500 000/00 RMK AO2
14837KMSN MSN20050418194509404/18/05 19:45:31  5-MIN KMSN 190145Z 00000KT 10SM CLR 19/10 A2995 840 54  1600 000/00 RMK AO2
14837KMSN MSN20050418195011104/18/05 19:50:31  5-MIN KMSN 190150Z 00000KT 10SM CLR 19/11 A2995 840 60  1500 000/00 RMK AO2 SLP140 T01890111
14837KMSN MSN20050418195509404/18/05 19:55:31  5-MIN KMSN 190155Z 00000KT 10SM CLR 18/11 A2995 840 62  1500 000/00 RMK AO2
14837KMSN MSN20050418200009404/18/05 20:00:31  5-MIN KMSN 190200Z 00000KT 10SM CLR 19/11 A2995 840 60  1500 000/00 RMK AO2
14837KMSN MSN20050418200509404/18/05 20:05:31  5-MIN KMSN 190205Z 00000KT 10SM CLR 19/11 A2995 840 60  1500 000/00 RMK AO2
14837KMSN MSN20050418201009304/18/05 20:10:31  5-MIN KMSN 190210Z 19003KT 9SM CLR 18/11 A2995 840 60  1500 180/03 RMK AO2
14837KMSN MSN20050418201509304/18/05 20:15:31  5-MIN KMSN 190215Z 19003KT 9SM CLR 17/10 A2995 840 62  1300 190/03 RMK AO2
14837KMSN MSN20050418202009304/18/05 20:20:31  5-MIN KMSN 190220Z 18003KT 9SM CLR 18/09 A2995 840 56  1500 180/03 RMK AO2
14837KMSN MSN20050418202509304/18/05 20:25:31  5-MIN KMSN 190225Z 18003KT 9SM CLR 17/10 A2995 830 62  1300 180/03 RMK AO2
14837KMSN MSN20050418203009304/18/05 20:30:31  5-MIN KMSN 190230Z 18003KT 9SM CLR 17/11 A2995 830 64  1300 170/03 RMK AO2
14837KMSN MSN20050418203509304/18/05 20:35:31  5-MIN KMSN 190235Z 00000KT 9SM CLR 17/11 A2995 830 64  1300 000/00 RMK AO2
14837KMSN MSN20050418204009304/18/05 20:40:31  5-MIN KMSN 190240Z 00000KT 9SM CLR 17/10 A2996 830 62  1300 000/00 RMK AO2
14837KMSN MSN20050418204509304/18/05 20:45:31  5-MIN KMSN 190245Z 00000KT 9SM CLR 17/10 A2995 830 64  1300 000/00 RMK AO2
14837KMSN MSN20050418205011704/18/05 20:50:31  5-MIN KMSN 190250Z 00000KT 10SM CLR 17/10 A2995 830 62  1300 000/00 RMK AO2 SLP142 T01720100 56009
14837KMSN MSN20050418205509304/18/05 20:55:31  5-MIN KMSN 190255Z 00000KT 9SM CLR 17/11 A2995 830 67  1300 000/00 RMK AO2
14837KMSN MSN20050418210009304/18/05 21:00:31  5-MIN KMSN 190300Z 17003KT 9SM CLR 17/11 A2995 830 67  1300 160/03 RMK AO2
14837KMSN MSN20050418210509304/18/05 21:05:31  5-MIN KMSN 190305Z 00000KT 9SM CLR 17/11 A2995 830 67  1300 000/00 RMK AO2
14837KMSN MSN20050418211009304/18/05 21:10:31  5-MIN KMSN 190310Z 00000KT 9SM CLR 17/11 A2995 830 64  1300 000/00 RMK AO2
14837KMSN MSN20050418211509304/18/05 21:15:31  5-MIN KMSN 190315Z 17003KT 9SM CLR 17/11 A2995 830 64  1300 170/03 RMK AO2
14837KMSN MSN20050418212009304/18/05 21:20:31  5-MIN KMSN 190320Z 18004KT 9SM CLR 17/09 A2995 830 60  1300 180/04 RMK AO2
14837KMSN MSN20050418212509304/18/05 21:25:31  5-MIN KMSN 190325Z 19004KT 9SM CLR 17/11 A2995 840 67  1300 180/04 RMK AO2
14837KMSN MSN20050418213009304/18/05 21:30:31  5-MIN KMSN 190330Z 19004KT 9SM CLR 18/11 A2995 840 64  1400 190/04 RMK AO2
14837KMSN MSN20050418213509304/18/05 21:35:31  5-MIN KMSN 190335Z 19004KT 9SM CLR 18/11 A2995 840 60  1500 190/04 RMK AO2
14837KMSN MSN20050418214009304/18/05 21:40:31  5-MIN KMSN 190340Z 19004KT 9SM CLR 18/10 A2995 840 58  1500 190/04 RMK AO2
14837KMSN MSN20050418214509304/18/05 21:45:31  5-MIN KMSN 190345Z 18003KT 9SM CLR 17/11 A2995 840 67  1300 180/03 RMK AO2
14837KMSN MSN20050418215011004/18/05 21:50:31  5-MIN KMSN 190350Z 19003KT 9SM CLR 17/11 A2995 840 64  1300 190/03 RMK AO2 SLP138 T01720106
14837KMSN MSN20050418215509304/18/05 21:55:31  5-MIN KMSN 190355Z 19004KT 8SM CLR 18/11 A2994 840 62  1400 180/04 RMK AO2
14837KMSN MSN20050418220009304/18/05 22:00:31  5-MIN KMSN 190400Z 19003KT 8SM CLR 17/11 A2994 840 64  1300 190/03 RMK AO2
14837KMSN MSN20050418220509304/18/05 22:05:31  5-MIN KMSN 190405Z 18003KT 8SM CLR 17/11 A2994 840 64  1300 180/03 RMK AO2
14837KMSN MSN20050418221009304/18/05 22:10:31  5-MIN KMSN 190410Z 00000KT 8SM CLR 17/10 A2994 840 64  1300 000/00 RMK AO2
14837KMSN MSN20050418221509304/18/05 22:15:31  5-MIN KMSN 190415Z 00000KT 8SM CLR 17/09 A2994 840 62  1300 000/00 RMK AO2
14837KMSN MSN20050418222009304/18/05 22:20:31  5-MIN KMSN 190420Z 00000KT 8SM CLR 17/09 A2994 840 60  1300 000/00 RMK AO2
14837KMSN MSN20050418222509304/18/05 22:25:31  5-MIN KMSN 190425Z 00000KT 8SM CLR 17/09 A2994 850 60  1300 000/00 RMK AO2
14837KMSN MSN20050418223009304/18/05 22:30:31  5-MIN KMSN 190430Z 00000KT 8SM CLR 17/09 A2994 850 60  1300 000/00 RMK AO2
14837KMSN MSN20050418223509304/18/05 22:35:31  5-MIN KMSN 190435Z 00000KT 8SM CLR 16/09 A2994 850 62  1200 000/00 RMK AO2
14837KMSN MSN20050418224009304/18/05 22:40:31  5-MIN KMSN 190440Z 00000KT 8SM CLR 16/09 A2994 850 62  1200 000/00 RMK AO2
14837KMSN MSN20050418224509304/18/05 22:45:31  5-MIN KMSN 190445Z 17003KT 8SM CLR 16/09 A2994 850 62  1200 170/03 RMK AO2
14837KMSN MSN20050418225011004/18/05 22:50:31  5-MIN KMSN 190450Z 00000KT 8SM CLR 16/09 A2994 850 64  1200 000/00 RMK AO2 SLP134 T01610094
14837KMSN MSN20050418225509304/18/05 22:55:31  5-MIN KMSN 190455Z 00000KT 8SM CLR 16/11 A2994 850 72  1200 000/00 RMK AO2
14837KMSN MSN20050418230009304/18/05 23:00:31  5-MIN KMSN 190500Z 00000KT 8SM CLR 16/10 A2994 850 69  1200 000/00 RMK AO2
14837KMSN MSN20050418230509304/18/05 23:05:31  5-MIN KMSN 190505Z 00000KT 8SM CLR 16/10 A2993 850 69  1200 000/00 RMK AO2
14837KMSN MSN20050418231009304/18/05 23:10:31  5-MIN KMSN 190510Z 00000KT 8SM CLR 16/11 A2993 850 69  1200 000/00 RMK AO2
14837KMSN MSN20050418231509304/18/05 23:15:31  5-MIN KMSN 190515Z 00000KT 8SM CLR 16/11 A2994 850 74  1200 000/00 RMK AO2
14837KMSN MSN20050418232009304/18/05 23:20:31  5-MIN KMSN 190520Z 00000KT 8SM CLR 16/11 A2994 850 69  1200 000/00 RMK AO2
14837KMSN MSN20050418232509304/18/05 23:25:31  5-MIN KMSN 190525Z 17003KT 8SM CLR 16/10 A2994 850 69  1200 170/03 RMK AO2
14837KMSN MSN20050418233009304/18/05 23:30:31  5-MIN KMSN 190530Z 00000KT 8SM CLR 16/09 A2994 850 67  1200 000/00 RMK AO2
14837KMSN MSN20050418233509304/18/05 23:35:31  5-MIN KMSN 190535Z 00000KT 8SM CLR 16/09 A2994 850 64  1200 000/00 RMK AO2
14837KMSN MSN20050418234009304/18/05 23:40:31  5-MIN KMSN 190540Z 00000KT 8SM CLR 15/09 A2994 850 69  1100 000/00 RMK AO2
14837KMSN MSN20050418234509304/18/05 23:45:31  5-MIN KMSN 190545Z 00000KT 8SM CLR 15/09 A2993 850 66  1100 000/00 RMK AO2
14837KMSN MSN20050418235013804/18/05 23:50:31  5-MIN KMSN 190550Z 00000KT 8SM CLR 15/09 A2993 850 66  1100 000/00 RMK AO2 SLP133 T01500089 10244 20150 402670083 53005
14837KMSN MSN20050418235509304/18/05 23:55:31  5-MIN KMSN 190555Z 00000KT 8SM CLR 15/09 A2993 850 66  1100 000/00 RMK AO2
14837KMSN MSN20050419000009304/19/05 00:00:31  5-MIN KMSN 190600Z 00000KT 8SM CLR 15/09 A2993 850 66  1100 000/00 RMK AO2
14837KMSN MSN20050419000509304/19/05 00:05:31  5-MIN KMSN 190605Z 00000KT 8SM CLR 14/09 A2993 850 69  1000 000/00 RMK AO2
14837KMSN MSN20050419001009304/19/05 00:10:31  5-MIN KMSN 190610Z 00000KT 8SM CLR 14/09 A2993 850 69  1000 000/00 RMK AO2
14837KMSN MSN20050419001509304/19/05 00:15:31  5-MIN KMSN 190615Z 00000KT 8SM CLR 15/09 A2993 860 66  1100 000/00 RMK AO2
14837KMSN MSN20050419002009304/19/05 00:20:31  5-MIN KMSN 190620Z 00000KT 8SM CLR 15/10 A2993 860 72  1100 000/00 RMK AO2
14837KMSN MSN20050419002509304/19/05 00:25:31  5-MIN KMSN 190625Z 00000KT 8SM CLR 14/12 A2993 860 83  1000 000/00 RMK AO2
14837KMSN MSN20050419003009304/19/05 00:30:31  5-MIN KMSN 190630Z 00000KT 7SM CLR 14/11 A2993 860 80  1000 000/00 RMK AO2
14837KMSN MSN20050419003509304/19/05 00:35:31  5-MIN KMSN 190635Z 00000KT 7SM CLR 14/11 A2993 860 80  1000 000/00 RMK AO2
14837KMSN MSN20050419004009304/19/05 00:40:31  5-MIN KMSN 190640Z 00000KT 7SM CLR 14/09 A2993 860 71  1000 000/00 RMK AO2
14837KMSN MSN20050419004509304/19/05 00:45:31  5-MIN KMSN 190645Z 00000KT 8SM CLR 14/09 A2993 860 71  1000 000/00 RMK AO2
14837KMSN MSN20050419005011004/19/05 00:50:31  5-MIN KMSN 190650Z 00000KT 8SM CLR 14/09 A2992 860 71  1000 000/00 RMK AO2 SLP130 T01390089
14837KMSN MSN20050419005509304/19/05 00:55:31  5-MIN KMSN 190655Z 00000KT 8SM CLR 14/09 A2992 860 71  1000 000/00 RMK AO2
14837KMSN MSN20050419010009304/19/05 01:00:31  5-MIN KMSN 190700Z 00000KT 8SM CLR 14/09 A2992 860 71  1000 000/00 RMK AO2
14837KMSN MSN20050419010509304/19/05 01:05:31  5-MIN KMSN 190705Z 00000KT 8SM CLR 14/09 A2992 860 71  1000 000/00 RMK AO2
14837KMSN MSN20050419011009304/19/05 01:10:31  5-MIN KMSN 190710Z 18003KT 8SM CLR 14/09 A2992 860 71  1000 170/03 RMK AO2
14837KMSN MSN20050419011509304/19/05 01:15:31  5-MIN KMSN 190715Z 18003KT 8SM CLR 14/09 A2992 870 72  1000 180/03 RMK AO2
14837KMSN MSN20050419012009304/19/05 01:20:31  5-MIN KMSN 190720Z 18003KT 8SM CLR 14/10 A2992 870 74  1000 180/03 RMK AO2
14837KMSN MSN20050419012509304/19/05 01:25:31  5-MIN KMSN 190725Z 19004KT 8SM CLR 15/11 A2992 870 74  1100 190/04 RMK AO2
14837KMSN MSN20050419013009304/19/05 01:30:31  5-MIN KMSN 190730Z 19004KT 8SM CLR 15/10 A2992 870 72  1100 180/04 RMK AO2
14837KMSN MSN20050419013509304/19/05 01:35:31  5-MIN KMSN 190735Z 18004KT 8SM CLR 16/09 A2991 870 67  1200 180/04 RMK AO2
14837KMSN MSN20050419014009304/19/05 01:40:31  5-MIN KMSN 190740Z 19004KT 8SM CLR 16/09 A2992 870 64  1200 190/04 RMK AO2
14837KMSN MSN20050419014509304/19/05 01:45:31  5-MIN KMSN 190745Z 18003KT 8SM CLR 16/09 A2992 870 67  1200 180/03 RMK AO2
14837KMSN MSN20050419015011004/19/05 01:50:31  5-MIN KMSN 190750Z 16003KT 8SM CLR 16/09 A2992 870 67  1200 160/03 RMK AO2 SLP127 T01560094
14837KMSN MSN20050419015509304/19/05 01:55:31  5-MIN KMSN 190755Z 17003KT 8SM CLR 14/10 A2992 870 74  1000 170/03 RMK AO2
14837KMSN MSN20050419020009304/19/05 02:00:31  5-MIN KMSN 190800Z 18003KT 8SM CLR 15/09 A2992 870 69  1100 180/03 RMK AO2
14837KMSN MSN20050419020509304/19/05 02:05:31  5-MIN KMSN 190805Z 17004KT 8SM CLR 15/10 A2992 870 72  1100 170/04 RMK AO2
14837KMSN MSN20050419021009304/19/05 02:10:31  5-MIN KMSN 190810Z 17004KT 8SM CLR 14/09 A2992 860 69  1000 170/04 RMK AO2
14837KMSN MSN20050419021509304/19/05 02:15:31  5-MIN KMSN 190815Z 17003KT 8SM CLR 15/09 A2992 860 66  1100 170/03 RMK AO2
14837KMSN MSN20050419022009304/19/05 02:20:31  5-MIN KMSN 190820Z 00000KT 8SM CLR 16/09 A2992 860 64  1200 000/00 RMK AO2
14837KMSN MSN20050419022509304/19/05 02:25:31  5-MIN KMSN 190825Z 00000KT 8SM CLR 16/09 A2992 860 64  1200 000/00 RMK AO2
14837KMSN MSN20050419023009304/19/05 02:30:31  5-MIN KMSN 190830Z 17003KT 8SM CLR 15/09 A2992 860 66  1100 170/03 RMK AO2
14837KMSN MSN20050419023509304/19/05 02:35:31  5-MIN KMSN 190835Z 16004KT 8SM CLR 15/09 A2992 860 66  1100 160/04 RMK AO2
14837KMSN MSN20050419024009304/19/05 02:40:31  5-MIN KMSN 190840Z 18004KT 8SM CLR 15/09 A2992 860 66  1100 170/04 RMK AO2
14837KMSN MSN20050419024509304/19/05 02:45:31  5-MIN KMSN 190845Z 18004KT 8SM CLR 14/09 A2992 860 69  1000 180/04 RMK AO2
14837KMSN MSN20050419025011604/19/05 02:50:31  5-MIN KMSN 190850Z 19003KT 8SM CLR 14/09 A2992 860 72  1000 180/03 RMK AO2 SLP129 T01440094 56007
14837KMSN MSN20050419025509304/19/05 02:55:31  5-MIN KMSN 190855Z 18004KT 8SM CLR 14/09 A2992 860 74  1000 180/04 RMK AO2
14837KMSN MSN20050419030009304/19/05 03:00:31  5-MIN KMSN 190900Z 19003KT 8SM CLR 14/09 A2992 860 72  1000 190/03 RMK AO2
14837KMSN MSN20050419030509304/19/05 03:05:31  5-MIN KMSN 190905Z 19004KT 8SM CLR 14/09 A2992 860 72  1000 180/04 RMK AO2
14837KMSN MSN20050419031009304/19/05 03:10:31  5-MIN KMSN 190910Z 20004KT 8SM CLR 15/09 A2992 860 66  1100 200/04 RMK AO2
14837KMSN MSN20050419031509304/19/05 03:15:31  5-MIN KMSN 190915Z 19004KT 8SM CLR 16/09 A2992 860 64  1200 190/04 RMK AO2
14837KMSN MSN20050419032009304/19/05 03:20:31  5-MIN KMSN 190920Z 20004KT 8SM CLR 16/09 A2992 860 64  1200 200/04 RMK AO2
14837KMSN MSN20050419032509304/19/05 03:25:31  5-MIN KMSN 190925Z 22004KT 8SM CLR 15/09 A2992 860 66  1100 220/04 RMK AO2
14837KMSN MSN20050419033009304/19/05 03:30:31  5-MIN KMSN 190930Z 21005KT 8SM CLR 15/09 A2992 860 69  1100 210/05 RMK AO2
14837KMSN MSN20050419033509304/19/05 03:35:31  5-MIN KMSN 190935Z 21006KT 8SM CLR 16/09 A2992 860 62  1200 210/06 RMK AO2
14837KMSN MSN20050419034009304/19/05 03:40:31  5-MIN KMSN 190940Z 21005KT 8SM CLR 16/08 A2992 870 59  1200 210/05 RMK AO2
14837KMSN MSN20050419034509304/19/05 03:45:31  5-MIN KMSN 190945Z 21005KT 8SM CLR 16/08 A2992 870 59  1200 210/05 RMK AO2
14837KMSN MSN20050419035011004/19/05 03:50:31  5-MIN KMSN 190950Z 21005KT 8SM CLR 16/08 A2992 870 59  1200 210/05 RMK AO2 SLP126 T01610083
14837KMSN MSN20050419035509304/19/05 03:55:31  5-MIN KMSN 190955Z 20004KT 8SM CLR 16/08 A2992 870 59  1200 200/04 RMK AO2
14837KMSN MSN20050419040009304/19/05 04:00:31  5-MIN KMSN 191000Z 19005KT 8SM CLR 16/08 A2992 870 59  1200 190/05 RMK AO2
14837KMSN MSN20050419040509304/19/05 04:05:31  5-MIN KMSN 191005Z 19005KT 8SM CLR 16/08 A2991 870 62  1200 190/05 RMK AO2
14837KMSN MSN20050419041009304/19/05 04:10:31  5-MIN KMSN 191010Z 19004KT 8SM CLR 16/08 A2991 870 62  1200 190/04 RMK AO2
14837KMSN MSN20050419041509304/19/05 04:15:31  5-MIN KMSN 191015Z 19003KT 8SM CLR 16/08 A2991 870 59  1200 190/03 RMK AO2
14837KMSN MSN20050419042009304/19/05 04:20:31  5-MIN KMSN 191020Z 18004KT 8SM CLR 16/08 A2991 870 62  1200 180/04 RMK AO2
14837KMSN MSN20050419042509304/19/05 04:25:31  5-MIN KMSN 191025Z 19004KT 8SM CLR 14/08 A2991 870 69  1000 190/04 RMK AO2
14837KMSN MSN20050419043009304/19/05 04:30:31  5-MIN KMSN 191030Z 19003KT 8SM CLR 15/08 A2991 870 64  1100 190/03 RMK AO2
14837KMSN MSN20050419043509304/19/05 04:35:31  5-MIN KMSN 191035Z 18003KT 8SM CLR 14/08 A2991 870 66  1000 180/03 RMK AO2
14837KMSN MSN20050419044009204/19/05 04:40:31  5-MIN KMSN 191040Z 18003KT 7SM CLR 13/08 A2992 870 71  900 180/03 RMK AO2
14837KMSN MSN20050419044509204/19/05 04:45:31  5-MIN KMSN 191045Z 00000KT 7SM CLR 13/09 A2992 870 74  900 000/00 RMK AO2
14837KMSN MSN20050419045011004/19/05 04:50:31  5-MIN KMSN 191050Z 00000KT 7SM CLR 14/09 A2992 870 71  1000 000/00 RMK AO2 SLP127 T01390089
14837KMSN MSN20050419045509204/19/05 04:55:31  5-MIN KMSN 191055Z 00000KT 7SM CLR 13/08 A2992 870 71  900 000/00 RMK AO2
14837KMSN MSN20050419050009204/19/05 05:00:31  5-MIN KMSN 191100Z 17003KT 7SM CLR 13/08 A2992 860 74  800 170/03 RMK AO2
14837KMSN MSN20050419050509204/19/05 05:05:31  5-MIN KMSN 191105Z 17003KT 7SM CLR 13/09 A2992 860 74  900 170/03 RMK AO2
14837KMSN MSN20050419051009404/19/05 05:10:31  5-MIN KMSN 191110Z 14004KT 6SM HZ CLR 13/08 A2992 860 71 900 140/04 RMK AO2
14837KMSN MSN20050419051509404/19/05 05:15:31  5-MIN KMSN 191115Z 15004KT 6SM HZ CLR 13/08 A2992 860 74 800 150/04 RMK AO2
14837KMSN MSN20050419052009404/19/05 05:20:31  5-MIN KMSN 191120Z 14003KT 5SM HZ CLR 12/08 A2992 860 74 800 140/03 RMK AO2
14837KMSN MSN20050419052509404/19/05 05:25:31  5-MIN KMSN 191125Z 00000KT 6SM HZ CLR 13/08 A2992 860 71 800 000/00 RMK AO2
14837KMSN MSN20050419053009404/19/05 05:30:31  5-MIN KMSN 191130Z 14003KT 6SM HZ CLR 13/08 A2993 860 71 900 140/03 RMK AO2
14837KMSN MSN20050419053509404/19/05 05:35:31  5-MIN KMSN 191135Z 13003KT 5SM HZ CLR 13/08 A2993 860 71 900 130/03 RMK AO2
14837KMSN MSN20050419054009504/19/05 05:40:31  5-MIN KMSN 191140Z 13003KT 6SM HZ CLR 14/08 A2993 860 69 1000 130/03 RMK AO2
14837KMSN MSN20050419054509404/19/05 05:45:31  5-MIN KMSN 191145Z 14003KT 6SM HZ CLR 13/08 A2993 860 71 900 140/03 RMK AO2
14837KMSN MSN20050419055012904/19/05 05:50:31  5-MIN KMSN 191150Z 00000KT 6SM HZ CLR 13/08 A2993 860 71 900 000/00 RMK AO2 SLP131 T01330083 10161 20122 55004
14837KMSN MSN20050419055509504/19/05 05:55:31  5-MIN KMSN 191155Z 00000KT 6SM HZ CLR 14/08 A2993 860 69 1000 000/00 RMK AO2
14837KMSN MSN20050419060009504/19/05 06:00:31  5-MIN KMSN 191200Z 00000KT 6SM HZ CLR 14/09 A2993 850 71 1000 000/00 RMK AO2
14837KMSN MSN20050419060509504/19/05 06:05:31  5-MIN KMSN 191205Z 00000KT 5SM HZ CLR 14/08 A2993 850 69 1000 000/00 RMK AO2
14837KMSN MSN20050419061009504/19/05 06:10:31  5-MIN KMSN 191210Z 16003KT 5SM HZ CLR 14/09 A2993 860 69 1000 160/03 RMK AO2
14837KMSN MSN20050419061509504/19/05 06:15:31  5-MIN KMSN 191215Z 15003KT 6SM HZ CLR 15/09 A2993 860 66 1100 150/03 RMK AO2
14837KMSN MSN20050419062009504/19/05 06:20:31  5-MIN KMSN 191220Z 15004KT 6SM HZ CLR 15/09 A2993 850 66 1100 150/04 RMK AO2
14837KMSN MSN20050419062509504/19/05 06:25:31  5-MIN KMSN 191225Z 15004KT 6SM HZ CLR 15/09 A2993 850 69 1100 150/04 RMK AO2
14837KMSN MSN20050419063009504/19/05 06:30:31  5-MIN KMSN 191230Z 16003KT 5SM HZ CLR 15/09 A2993 850 69 1100 160/03 RMK AO2
14837KMSN MSN20050419063509504/19/05 06:35:31  5-MIN KMSN 191235Z 15003KT 5SM HZ CLR 16/09 A2993 850 67 1200 150/03 RMK AO2
14837KMSN MSN20050419064009504/19/05 06:40:31  5-MIN KMSN 191240Z 15003KT 6SM HZ CLR 16/09 A2993 850 67 1200 150/03 RMK AO2
14837KMSN MSN20050419064509504/19/05 06:45:31  5-MIN KMSN 191245Z 16003KT 5SM HZ CLR 16/09 A2993 850 67 1200 150/03 RMK AO2
14837KMSN MSN20050419065011204/19/05 06:50:31  5-MIN KMSN 191250Z 16004KT 5SM HZ CLR 16/10 A2993 850 67 1200 160/04 RMK AO2 SLP133 T01610100
14837KMSN MSN20050419065509504/19/05 06:55:31  5-MIN KMSN 191255Z 16004KT 5SM HZ CLR 16/10 A2994 850 67 1200 160/04 RMK AO2
14837KMSN MSN20050419070009504/19/05 07:00:31  5-MIN KMSN 191300Z 18006KT 5SM HZ CLR 16/10 A2994 850 67 1200 180/06 RMK AO2
14837KMSN MSN20050419070509504/19/05 07:05:31  5-MIN KMSN 191305Z 17005KT 5SM HZ CLR 16/10 A2994 850 67 1200 170/05 RMK AO2
14837KMSN MSN20050419071009504/19/05 07:10:31  5-MIN KMSN 191310Z 18006KT 5SM HZ CLR 17/10 A2994 850 64 1300 180/06 RMK AO2
14837KMSN MSN20050419071509504/19/05 07:15:31  5-MIN KMSN 191315Z 18007KT 6SM HZ CLR 17/10 A2994 850 64 1300 180/07 RMK AO2
14837KMSN MSN20050419072009504/19/05 07:20:31  5-MIN KMSN 191320Z 17007KT 6SM HZ CLR 17/10 A2994 850 62 1300 160/07 RMK AO2
14837KMSN MSN20050419072509504/19/05 07:25:31  5-MIN KMSN 191325Z 17006KT 6SM HZ CLR 17/10 A2994 850 62 1300 170/06 RMK AO2
14837KMSN MSN20050419073009504/19/05 07:30:31  5-MIN KMSN 191330Z 17007KT 6SM HZ CLR 18/10 A2993 850 60 1400 160/07 RMK AO2
14837KMSN MSN20050419073509504/19/05 07:35:31  5-MIN KMSN 191335Z 17006KT 6SM HZ CLR 18/10 A2993 850 60 1400 170/06 RMK AO2
14837KMSN MSN20050419074009504/19/05 07:40:31  5-MIN KMSN 191340Z 18007KT 6SM HZ CLR 18/11 A2993 850 60 1500 180/07 RMK AO2
14837KMSN MSN20050419074509504/19/05 07:45:31  5-MIN KMSN 191345Z 17008KT 6SM HZ CLR 18/10 A2993 850 58 1500 170/08 RMK AO2
14837KMSN MSN20050419075011204/19/05 07:50:31  5-MIN KMSN 191350Z 17008KT 6SM HZ CLR 18/10 A2993 860 58 1500 170/08 RMK AO2 SLP132 T01830100
14837KMSN MSN20050419075509504/19/05 07:55:31  5-MIN KMSN 191355Z 18006KT 6SM HZ CLR 19/10 A2993 860 56 1600 180/06 RMK AO2
14837KMSN MSN20050419080009504/19/05 08:00:31  5-MIN KMSN 191400Z 19006KT 6SM HZ CLR 19/10 A2993 850 56 1500 190/06 RMK AO2
14837KMSN MSN20050419080509504/19/05 08:05:31  5-MIN KMSN 191405Z 19006KT 6SM HZ CLR 19/10 A2993 850 56 1500 180/06 RMK AO2
14837KMSN MSN20050419081009504/19/05 08:10:31  5-MIN KMSN 191410Z 18007KT 6SM HZ CLR 19/10 A2993 860 54 1600 180/07 RMK AO2
14837KMSN MSN20050419081509304/19/05 08:15:31  5-MIN KMSN 191415Z 19007KT 7SM CLR 19/10 A2993 860 54  1600 190/07 RMK AO2
14837KMSN MSN20050419082009304/19/05 08:20:31  5-MIN KMSN 191420Z 17008KT 7SM CLR 19/11 A2992 860 56  1600 170/08 RMK AO2
14837KMSN MSN20050419082509304/19/05 08:25:31  5-MIN KMSN 191425Z 17008KT 7SM CLR 19/11 A2992 860 56  1600 170/08 RMK AO2
14837KMSN MSN20050419083009304/19/05 08:30:31  5-MIN KMSN 191430Z 15008KT 7SM CLR 20/11 A2992 860 54  1700 150/08 RMK AO2
14837KMSN MSN20050419083509304/19/05 08:35:31  5-MIN KMSN 191435Z 15009KT 7SM CLR 20/11 A2992 870 54  1700 150/09 RMK AO2
14837KMSN MSN20050419084009304/19/05 08:40:31  5-MIN KMSN 191440Z 17008KT 7SM CLR 21/11 A2992 870 52  1800 170/08 RMK AO2
14837KMSN MSN20050419084509304/19/05 08:45:31  5-MIN KMSN 191445Z 17009KT 8SM CLR 21/11 A2992 870 52  1800 170/09 RMK AO2
14837KMSN MSN20050419085011604/19/05 08:50:31  5-MIN KMSN 191450Z 16010KT 8SM CLR 21/11 A2992 870 50  1800 160/10 RMK AO2 SLP127 T02110106 53003
14837KMSN MSN20050419085509504/19/05 08:55:31  5-MIN KMSN 191455Z 16012KT 8SM FEW120 21/11 A2991 870 50 1800 160/12 RMK AO2
14837KMSN MSN20050419090009504/19/05 09:00:31  5-MIN KMSN 191500Z 16011KT 8SM FEW120 22/11 A2991 870 50 1900 160/11 RMK AO2
14837KMSN MSN20050419090509504/19/05 09:05:31  5-MIN KMSN 191505Z 17010KT 9SM FEW120 22/11 A2991 870 49 1900 170/10 RMK AO2
14837KMSN MSN20050419091009504/19/05 09:10:31  5-MIN KMSN 191510Z 16011KT 9SM FEW120 22/11 A2991 870 49 2000 160/11 RMK AO2
14837KMSN MSN20050419091509504/19/05 09:15:31  5-MIN KMSN 191515Z 17010KT 9SM FEW120 22/11 A2991 870 50 1900 160/10 RMK AO2
14837KMSN MSN20050419092009504/19/05 09:20:31  5-MIN KMSN 191520Z 18010KT 9SM FEW120 22/11 A2991 870 49 2000 180/10 RMK AO2
14837KMSN MSN20050419092511204/19/05 09:25:31  5-MIN KMSN 191525Z 18009KT 150V220 9SM FEW120 22/11  A2991 870 49 2000 180/09 150V220 RMK AO2
14837KMSN MSN20050419093009504/19/05 09:30:31  5-MIN KMSN 191530Z 17010KT 9SM FEW120 22/11 A2991 870 49 2000 170/10 RMK AO2
14837KMSN MSN20050419093509504/19/05 09:35:31  5-MIN KMSN 191535Z 17009KT 9SM FEW120 22/11 A2991 880 49 2000 170/09 RMK AO2
14837KMSN MSN20050419094009704/19/05 09:40:31  5-MIN KMSN 191540Z 16013KT 10SM FEW120 23/11 A2990 880  47 2000 160/13 RMK AO2
14837KMSN MSN20050419094509704/19/05 09:45:31  5-MIN KMSN 191545Z 17011KT 10SM FEW120 23/11 A2990 880  47 2000 170/11 RMK AO2
14837KMSN MSN20050419095011104/19/05 09:50:31  5-MIN KMSN 191550Z 19011KT 10SM CLR 23/11 A2990 880 47  2000 180/11 RMK AO2 SLP122 T02280111
14837KMSN MSN20050419095509404/19/05 09:55:31  5-MIN KMSN 191555Z 18010KT 10SM CLR 23/11 A2990 880 45  2100 180/10 RMK AO2
14837KMSN MSN20050419100009404/19/05 10:00:31  5-MIN KMSN 191600Z 18011KT 10SM CLR 23/12 A2990 880 47  2100 180/11 RMK AO2
14837KMSN MSN20050419100509404/19/05 10:05:31  5-MIN KMSN 191605Z 17010KT 10SM CLR 23/12 A2990 880 47  2100 160/10 RMK AO2
14837KMSN MSN20050419101009404/19/05 10:10:31  5-MIN KMSN 191610Z 17012KT 10SM CLR 24/11 A2990 890 44  2200 170/12 RMK AO2
14837KMSN MSN20050419101509404/19/05 10:15:31  5-MIN KMSN 191615Z 19012KT 10SM CLR 23/11 A2989 890 45  2100 190/12 RMK AO2
14837KMSN MSN20050419102009404/19/05 10:20:31  5-MIN KMSN 191620Z 18010KT 10SM CLR 23/11 A2989 890 44  2100 180/10 RMK AO2
14837KMSN MSN20050419102510004/19/05 10:25:31  5-MIN KMSN 191625Z 19013G18KT 10SM CLR 24/11 A2989 890  44 2200 190/13G18 RMK AO2
14837KMSN MSN20050419103010004/19/05 10:30:31  5-MIN KMSN 191630Z 18010G18KT 10SM CLR 24/11 A2989 890  44 2200 180/10G18 RMK AO2
14837KMSN MSN20050419103509404/19/05 10:35:31  5-MIN KMSN 191635Z 20011KT 10SM CLR 24/11 A2989 890 44  2200 200/11 RMK AO2
14837KMSN MSN20050419104009404/19/05 10:40:31  5-MIN KMSN 191640Z 19011KT 10SM CLR 24/11 A2989 890 44  2200 190/11 RMK AO2
14837KMSN MSN20050419104509404/19/05 10:45:31  5-MIN KMSN 191645Z 19011KT 10SM CLR 24/11 A2989 890 42  2200 190/11 RMK AO2
14837KMSN MSN20050419105011104/19/05 10:50:31  5-MIN KMSN 191650Z 19011KT 10SM CLR 24/11 A2989 890 44  2200 190/11 RMK AO2 SLP117 T02390111
14837KMSN MSN20050419105509704/19/05 10:55:31  5-MIN KMSN 191655Z 21010KT 10SM FEW045 24/12 A2989 900  44 2200 210/10 RMK AO2
14837KMSN MSN20050419110010304/19/05 11:00:31  5-MIN KMSN 191700Z 21014G17KT 10SM FEW045 24/11 A2988  900 44 2200 200/14G17 RMK AO2
14837KMSN MSN20050419110511804/19/05 11:05:31  5-MIN KMSN 191705Z 19011G17KT 160V220 10SM FEW045 24/12 A2988 900 44 2200 190/11G17 160V220 RMK AO2
14837KMSN MSN20050419111009704/19/05 11:10:31  5-MIN KMSN 191710Z 19010KT 10SM FEW045 24/12 A2988 910  44 2200 190/10 RMK AO2
14837KMSN MSN20050419111510304/19/05 11:15:31  5-MIN KMSN 191715Z 20008G14KT 10SM FEW045 24/12 A2987  910 44 2300 200/08G14 RMK AO2
14837KMSN MSN20050419112010304/19/05 11:20:31  5-MIN KMSN 191720Z 17013G18KT 10SM FEW045 25/12 A2987  910 43 2300 170/13G18 RMK AO2
14837KMSN MSN20050419112510304/19/05 11:25:31  5-MIN KMSN 191725Z 21010G20KT 10SM FEW045 24/11 A2987  910 42 2200 210/10G20 RMK AO2
14837KMSN MSN20050419113010304/19/05 11:30:31  5-MIN KMSN 191730Z 19010G20KT 10SM FEW045 25/11 A2987  910 41 2300 190/10G20 RMK AO2
14837KMSN MSN20050419113510304/19/05 11:35:31  5-MIN KMSN 191735Z 21009G20KT 10SM FEW045 24/11 A2987  910 42 2200 210/09G20 RMK AO2
14837KMSN MSN20050419114010304/19/05 11:40:31  5-MIN KMSN 191740Z 20010G17KT 10SM FEW055 24/11 A2987  910 42 2300 200/10G17 RMK AO2
14837KMSN MSN20050419114510304/19/05 11:45:31  5-MIN KMSN 191745Z 20009G18KT 10SM FEW060 25/11 A2987  910 41 2300 200/09G18 RMK AO2
14837KMSN MSN20050419115013804/19/05 11:50:31  5-MIN KMSN 191750Z 19013G18KT 10SM SCT055 25/11 A2986  920 41 2300 190/13G18 RMK AO2 SLP109 T02500111 10250 20133 58005
14837KMSN MSN20050419115510304/19/05 11:55:31  5-MIN KMSN 191755Z 18011G18KT 10SM FEW055 25/11 A2986  920 41 2300 180/11G18 RMK AO2
14837KMSN MSN20050419120010304/19/05 12:00:31  5-MIN KMSN 191800Z 18014G19KT 10SM FEW055 25/11 A2985  930 41 2300 180/14G19 RMK AO2
14837KMSN MSN20050419120510304/19/05 12:05:31  5-MIN KMSN 191805Z 19014G19KT 10SM FEW095 25/11 A2985  930 39 2300 190/14G19 RMK AO2
14837KMSN MSN20050419121010004/19/05 12:10:31  5-MIN KMSN 191810Z 17017G20KT 10SM CLR 26/11 A2985 930  38 2400 170/17G20 RMK AO2
14837KMSN MSN20050419121510004/19/05 12:15:31  5-MIN KMSN 191815Z 18015G20KT 10SM CLR 26/11 A2985 930  38 2400 180/15G20 RMK AO2
14837KMSN MSN20050419122010004/19/05 12:20:31  5-MIN KMSN 191820Z 18014G20KT 10SM CLR 26/11 A2985 930  38 2400 180/14G20 RMK AO2
14837KMSN MSN20050419122509404/19/05 12:25:31  5-MIN KMSN 191825Z 18014KT 10SM CLR 26/10 A2984 930 37  2400 180/14 RMK AO2
14837KMSN MSN20050419123009404/19/05 12:30:31  5-MIN KMSN 191830Z 18014KT 10SM CLR 26/11 A2984 940 38  2400 180/14 RMK AO2
14837KMSN MSN20050419123510004/19/05 12:35:31  5-MIN KMSN 191835Z 17012G19KT 10SM CLR 26/11 A2984 940  38 2400 170/12G19 RMK AO2
14837KMSN MSN20050419124010304/19/05 12:40:31  5-MIN KMSN 191840Z 18011G18KT 10SM FEW060 25/11 A2984  940 39 2300 180/11G18 RMK AO2
14837KMSN MSN20050419124509704/19/05 12:45:31  5-MIN KMSN 191845Z 17016KT 10SM FEW060 25/10 A2984 940  38 2300 170/16 RMK AO2
14837KMSN MSN20050419125012004/19/05 12:50:31  5-MIN KMSN 191850Z 18017G20KT 10SM SCT060 25/10 A2984  940 38 2300 180/17G20 RMK AO2 SLP101 T02500100
14837KMSN MSN20050419125510304/19/05 12:55:31  5-MIN KMSN 191855Z 18014G20KT 10SM SCT065 25/10 A2984  940 38 2400 170/14G20 RMK AO2
14837KMSN MSN20050419130010304/19/05 13:00:31  5-MIN KMSN 191900Z 18011G20KT 10SM SCT065 25/10 A2984  940 38 2400 180/11G20 RMK AO2
14837KMSN MSN20050419130511004/19/05 13:05:31  5-MIN KMSN 191905Z 17015G20KT 10SM SCT065 SCT090 26/10  A2983 940 37 2400 170/15G20 RMK AO2
14837KMSN MSN20050419131011004/19/05 13:10:31  5-MIN KMSN 191910Z 19015G20KT 10SM FEW065 SCT090 25/10  A2983 950 38 2400 190/15G20 RMK AO2
14837KMSN MSN20050419131511004/19/05 13:15:31  5-MIN KMSN 191915Z 17015G19KT 10SM FEW065 BKN085 25/09  A2983 950 37 2400 170/15G19 RMK AO2
14837KMSN MSN20050419132010404/19/05 13:20:31  5-MIN KMSN 191920Z 18015KT 10SM FEW065 BKN085 26/09  A2983 950 35 2400 180/15 RMK AO2
14837KMSN MSN20050419132510304/19/05 13:25:31  5-MIN KMSN 191925Z 18015G20KT 10SM BKN085 25/10 A2983  950 38 2400 180/15G20 RMK AO2
14837KMSN MSN20050419133009704/19/05 13:30:31  5-MIN KMSN 191930Z 17015KT 10SM BKN085 25/10 A2982 950  38 2400 170/15 RMK AO2
14837KMSN MSN20050419133509704/19/05 13:35:31  5-MIN KMSN 191935Z 18013KT 10SM BKN080 25/10 A2982 960  38 2400 180/13 RMK AO2
14837KMSN MSN20050419134010304/19/05 13:40:31  5-MIN KMSN 191940Z 17016G20KT 10SM BKN080 25/10 A2982  960 38 2400 170/16G20 RMK AO2
14837KMSN MSN20050419134510304/19/05 13:45:31  5-MIN KMSN 191945Z 17018G23KT 10SM OVC080 25/09 A2982  960 37 2400 170/18G23 RMK AO2
14837KMSN MSN20050419135012004/19/05 13:50:31  5-MIN KMSN 191950Z 17016G23KT 10SM OVC080 25/09 A2982  960 37 2400 170/16G23 RMK AO2 SLP093 T02500094
14837KMSN MSN20050419135509704/19/05 13:55:31  5-MIN KMSN 191955Z 18013KT 10SM OVC080 25/10 A2981 960  38 2400 180/13 RMK AO2
14837KMSN MSN20050419140009704/19/05 14:00:31  5-MIN KMSN 192000Z 19013KT 10SM OVC080 25/10 A2981 970  38 2400 180/13 RMK AO2
14837KMSN MSN20050419140509704/19/05 14:05:31  5-MIN KMSN 192005Z 19014KT 10SM OVC075 25/10 A2981 970  38 2400 180/14 RMK AO2
14837KMSN MSN20050419141009704/19/05 14:10:31  5-MIN KMSN 192010Z 18015KT 10SM OVC075 25/09 A2981 970  37 2400 180/15 RMK AO2
14837KMSN MSN20050419141510304/19/05 14:15:31  5-MIN KMSN 192015Z 18010G20KT 10SM OVC075 25/10 A2981  970 38 2400 180/10G20 RMK AO2
14837KMSN MSN20050419142009704/19/05 14:20:31  5-MIN KMSN 192020Z 18011KT 10SM OVC075 24/10 A2980 970  39 2300 180/11 RMK AO2
14837KMSN MSN20050419142509704/19/05 14:25:31  5-MIN KMSN 192025Z 18010KT 10SM BKN070 24/10 A2980 980  39 2300 180/10 RMK AO2
14837KMSN MSN20050419143010304/19/05 14:30:31  5-MIN KMSN 192030Z 19014G19KT 10SM BKN070 25/11 A2980  980 39 2400 180/14G19 RMK AO2
14837KMSN MSN20050419143509704/19/05 14:35:31  5-MIN KMSN 192035Z 18014KT 10SM SCT070 25/11 A2980 980  39 2400 180/14 RMK AO2
14837KMSN MSN20050419144010404/19/05 14:40:31  5-MIN KMSN 192040Z 19014KT 10SM BKN070 BKN080 25/11  A2980 980 39 2400 190/14 RMK AO2
14837KMSN MSN20050419144509704/19/05 14:45:31  5-MIN KMSN 192045Z 19013KT 10SM BKN070 25/10 A2979 980  38 2400 190/13 RMK AO2
14837KMSN MSN20050419145012604/19/05 14:50:31  5-MIN KMSN 192050Z 19014G20KT 10SM BKN065 25/11 A2979  980 39 2400 190/14G20 RMK AO2 SLP085 T02500106 58019
14837KMSN MSN20050419145510304/19/05 14:55:31  5-MIN KMSN 192055Z 18016G20KT 10SM BKN065 25/11 A2979  990 39 2400 180/16G20 RMK AO2
14837KMSN MSN20050419150010404/19/05 15:00:31  5-MIN KMSN 192100Z 18016G21KT 10SM BKN065 26/11 A2978  1000 37 2500 180/16G21 RMK AO2
14837KMSN MSN20050419150511104/19/05 15:05:31  5-MIN KMSN 192105Z 18013G21KT 10SM BKN065 BKN080 26/11  A2978 1000 38 2500 170/13G21 RMK AO2
14837KMSN MSN20050419151010504/19/05 15:10:31  5-MIN KMSN 192110Z 17015KT 10SM SCT065 BKN080 26/11  A2977 1000 40 2500 170/15 RMK AO2
14837KMSN MSN20050419151510504/19/05 15:15:31  5-MIN KMSN 192115Z 18012KT 10SM SCT065 BKN080 26/11  A2977 1000 40 2500 180/12 RMK AO2
14837KMSN MSN20050419152009704/19/05 15:20:31  5-MIN KMSN 192120Z 19013KT 10SM SCT070 26/11 A2977 1000 40 2500 190/13 RMK AO2
14837KMSN MSN20050419152510404/19/05 15:25:31  5-MIN KMSN 192125Z 19014G21KT 10SM SCT070 26/11 A2977  1000 40 2500 190/14G21 RMK AO2
14837KMSN MSN20050419153010404/19/05 15:30:31  5-MIN KMSN 192130Z 18017G21KT 10SM SCT070 25/11 A2977  1000 41 2400 180/17G21 RMK AO2
14837KMSN MSN20050419153510404/19/05 15:35:31  5-MIN KMSN 192135Z 19015G21KT 10SM SCT065 25/11 A2978  1000 41 2400 190/15G21 RMK AO2
14837KMSN MSN20050419154010404/19/05 15:40:31  5-MIN KMSN 192140Z 21014G21KT 10SM BKN065 25/11 A2978  1000 41 2400 210/14G21 RMK AO2
14837KMSN MSN20050419154510304/19/05 15:45:31  5-MIN KMSN 192145Z 20013G21KT 10SM BKN065 25/11 A2978  990 41 2400 200/13G21 RMK AO2
14837KMSN MSN20050419155012004/19/05 15:50:31  5-MIN KMSN 192150Z 21014G20KT 10SM BKN065 25/12 A2978  990 43 2400 210/14G20 RMK AO2 SLP081 T02500117
14837KMSN MSN20050419155510404/19/05 15:55:31  5-MIN KMSN 192155Z 19012G18KT 10SM BKN065 25/12 A2978  1000 43 2400 190/12G18 RMK AO2
14837KMSN MSN20050419160010304/19/05 16:00:31  5-MIN KMSN 192200Z 20011G17KT 10SM BKN065 25/12 A2978  990 43 2400 200/11G17 RMK AO2
14837KMSN MSN20050419160510404/19/05 16:05:31  5-MIN KMSN 192205Z 19013G17KT 10SM BKN065 25/12 A2978  1000 43 2400 180/13G17 RMK AO2
14837KMSN MSN20050419161009704/19/05 16:10:31  5-MIN KMSN 192210Z 18016KT 10SM BKN065 25/12 A2977 1010 43 2400 180/16 RMK AO2
14837KMSN MSN20050419161509704/19/05 16:15:31  5-MIN KMSN 192215Z 19014KT 10SM BKN065 24/12 A2977 1000 46 2400 190/14 RMK AO2
14837KMSN MSN20050419162010404/19/05 16:20:31  5-MIN KMSN 192220Z 19012G18KT 10SM SCT065 24/12 A2977  1000 46 2400 190/12G18 RMK AO2
14837KMSN MSN20050419162511104/19/05 16:25:31  5-MIN KMSN 192225Z 20010G18KT 10SM SCT060 SCT095 24/12  A2977 1000 46 2400 200/10G18 RMK AO2
14837KMSN MSN20050419163010504/19/05 16:30:31  5-MIN KMSN 192230Z 19010KT 10SM SCT060 BKN090 24/12  A2977 1000 46 2400 180/10 RMK AO2
14837KMSN MSN20050419163511204/19/05 16:35:31  5-MIN KMSN 192235Z 19012KT 10SM BKN060 BKN080 BKN100  24/12 A2977 1000 46 2400 190/12 RMK AO2
14837KMSN MSN20050419164011104/19/05 16:40:31  5-MIN KMSN 192240Z 18015G21KT 10SM SCT060 BKN095 24/12  A2976 1010 46 2400 180/15G21 RMK AO2
14837KMSN MSN20050419164511104/19/05 16:45:31  5-MIN KMSN 192245Z 20011G21KT 10SM FEW060 SCT100 24/12  A2977 1010 46 2400 190/11G21 RMK AO2
14837KMSN MSN20050419165012204/19/05 16:50:31  5-MIN KMSN 192250Z 19012KT 10SM FEW060 BKN095 24/12  A2976 1010 46 2400 190/12 RMK AO2 SLP075 T02440122
14837KMSN MSN20050419165511104/19/05 16:55:31  5-MIN KMSN 192255Z 19018G25KT 10SM FEW060 SCT095 25/12  A2976 1010 44 2400 190/18G25 RMK AO2
14837KMSN MSN20050419170011104/19/05 17:00:31  5-MIN KMSN 192300Z 20012G25KT 10SM FEW060 SCT100 24/12  A2976 1010 44 2400 200/12G25 RMK AO2
14837KMSN MSN20050419170511104/19/05 17:05:31  5-MIN KMSN 192305Z 19015G22KT 10SM FEW060 BKN100 24/12  A2976 1010 44 2400 190/15G22 RMK AO2
14837KMSN MSN20050419171011104/19/05 17:10:31  5-MIN KMSN 192310Z 20014G22KT 10SM FEW055 BKN100 24/12  A2976 1010 44 2400 200/14G22 RMK AO2
14837KMSN MSN20050419171511704/19/05 17:15:31  5-MIN KMSN 192315Z 21010G18KT 10SM FEW060 SCT080 BKN100 24/12 A2976 1010 44 2400 210/10G18 RMK AO2
14837KMSN MSN20050419172011704/19/05 17:20:31  5-MIN KMSN 192320Z 21011G17KT 10SM FEW060 SCT080 BKN100 24/12 A2976 1010 44 2400 200/11G17 RMK AO2
14837KMSN MSN20050419172511704/19/05 17:25:31  5-MIN KMSN 192325Z 20014G20KT 10SM FEW055 BKN080 BKN095 24/12 A2976 1020 44 2400 200/14G20 RMK AO2
14837KMSN MSN20050419173011704/19/05 17:30:31  5-MIN KMSN 192330Z 20011G20KT 10SM FEW055 BKN075 BKN100 24/12 A2974 1030 44 2400 200/11G20 RMK AO2
14837KMSN MSN20050419173510504/19/05 17:35:31  5-MIN KMSN 192335Z 20012KT 10SM SCT075 SCT110 24/12  A2974 1030 44 2400 190/12 RMK AO2
14837KMSN MSN20050419174011104/19/05 17:40:31  5-MIN KMSN 192340Z 20015G23KT 10SM SCT075 SCT100 24/12  A2975 1020 44 2400 200/15G23 RMK AO2
14837KMSN MSN20050419174511104/19/05 17:45:31  5-MIN KMSN 192345Z 21011G23KT 10SM SCT080 BKN100 24/12  A2975 1020 44 2400 200/11G23 RMK AO2
14837KMSN MSN20050419175017304/19/05 17:50:31  5-MIN KMSN 192350Z 21009G18KT 10SM SCT075 OVC100 24/12  A2975 1020 46 2300 210/09G18 RMK AO2 SLP071 OCNL LTG DSNT N TS DSNT N  T02390117 10261 20239 58022
14837KMSN MSN20050419175510504/19/05 17:55:31  5-MIN KMSN 192355Z 20010KT 10SM BKN070 BKN100 24/12  A2976 1020 46 2300 200/10 RMK AO2
14837KMSN MSN20050419180010504/19/05 18:00:31  5-MIN KMSN 200000Z 21011KT 10SM BKN070 BKN100 24/12  A2976 1010 46 2300 210/11 RMK AO2
14837KMSN MSN20050419180511204/19/05 18:05:31  5-MIN KMSN 200005Z 21008KT 10SM FEW060 BKN070 OVC100  23/12 A2976 1010 47 2200 210/08 RMK AO2
14837KMSN MSN20050419181010504/19/05 18:10:31  5-MIN KMSN 200010Z 20008KT 10SM SCT055 OVC070 23/12  A2976 1020 47 2300 200/08 RMK AO2
14837KMSN MSN20050419181510504/19/05 18:15:31  5-MIN KMSN 200015Z 20008KT 10SM BKN060 OVC070 23/12  A2975 1020 47 2300 190/08 RMK AO2
14837KMSN MSN20050419182010504/19/05 18:20:31  5-MIN KMSN 200020Z 20007KT 10SM BKN060 OVC070 23/12  A2975 1020 49 2300 200/07 RMK AO2
14837KMSN MSN20050419182510504/19/05 18:25:31  5-MIN KMSN 200025Z 20006KT 10SM BKN060 OVC070 23/12  A2975 1020 49 2300 200/06 RMK AO2
14837KMSN MSN20050419183011404/19/05 18:30:31  5-MIN KMSN 200030Z 20008KT 160V220 10SM OVC060 23/12  A2975 1030 49 2300 200/08 160V220 RMK AO2
14837KMSN MSN20050419183509704/19/05 18:35:31  5-MIN KMSN 200035Z 19009KT 10SM BKN060 23/12 A2974 1030 49 2300 190/09 RMK AO2
14837KMSN MSN20050419184009704/19/05 18:40:31  5-MIN KMSN 200040Z 20007KT 10SM BKN060 23/12 A2974 1030 49 2300 200/07 RMK AO2
14837KMSN MSN20050419184509704/19/05 18:45:31  5-MIN KMSN 200045Z 21007KT 10SM SCT060 23/12 A2975 1030 49 2300 210/07 RMK AO2
14837KMSN MSN20050419185011404/19/05 18:50:31  5-MIN KMSN 200050Z VRB05KT 10SM BKN060 23/12 A2975 1020 49 2300 VRB/05 RMK AO2 SLP071 T02330122
14837KMSN MSN20050419185509704/19/05 18:55:31  5-MIN KMSN 200055Z 21006KT 10SM FEW065 23/12 A2975 1020 51 2200 210/06 RMK AO2
14837KMSN MSN20050419190011404/19/05 19:00:31  5-MIN KMSN 200100Z 21007KT 170V240 10SM FEW070 23/12  A2976 1010 51 2200 210/07 170V240 RMK AO2
14837KMSN MSN20050419190509404/19/05 19:05:31  5-MIN KMSN 200105Z 21007KT 10SM CLR 23/12 A2976 1010 51 2200 200/07 RMK AO2
14837KMSN MSN20050419191009404/19/05 19:10:31  5-MIN KMSN 200110Z 21005KT 10SM CLR 23/12 A2976 1010 51 2200 200/05 RMK AO2
14837KMSN MSN20050419191509404/19/05 19:15:31  5-MIN KMSN 200115Z 20005KT 10SM CLR 23/12 A2976 1010 51 2200 200/05 RMK AO2
14837KMSN MSN20050419192009404/19/05 19:20:31  5-MIN KMSN 200120Z 21005KT 10SM CLR 23/12 A2976 1010 51 2200 210/05 RMK AO2
14837KMSN MSN20050419192509704/19/05 19:25:31  5-MIN KMSN 200125Z 22006KT 10SM FEW070 23/12 A2977 1010 51 2200 210/06 RMK AO2
14837KMSN MSN20050419193009704/19/05 19:30:31  5-MIN KMSN 200130Z 20005KT 10SM FEW070 23/12 A2977 1010 51 2200 200/05 RMK AO2
14837KMSN MSN20050419193509704/19/05 19:35:31  5-MIN KMSN 200135Z 21005KT 10SM FEW070 22/12 A2977 1010 52 2100 210/05 RMK AO2
14837KMSN MSN20050419194009704/19/05 19:40:31  5-MIN KMSN 200140Z 20006KT 10SM SCT070 22/12 A2977 1010 52 2100 200/06 RMK AO2
14837KMSN MSN20050419194509704/19/05 19:45:31  5-MIN KMSN 200145Z 21006KT 10SM FEW070 22/12 A2976 1010 52 2100 200/06 RMK AO2
14837KMSN MSN20050419195011404/19/05 19:50:31  5-MIN KMSN 200150Z 20007KT 10SM SCT070 22/13 A2976 1010 56 2100 200/07 RMK AO2 SLP076 T02170128
14837KMSN MSN20050419195509704/19/05 19:55:31  5-MIN KMSN 200155Z 21007KT 10SM FEW070 22/13 A2977 1010 54 2100 210/07 RMK AO2
14837KMSN MSN20050419200009704/19/05 20:00:31  5-MIN KMSN 200200Z 20006KT 10SM FEW070 22/13 A2977 1010 56 2100 200/06 RMK AO2
14837KMSN MSN20050419200509404/19/05 20:05:31  5-MIN KMSN 200205Z 20006KT 10SM CLR 22/13 A2977 1010 56 2100 200/06 RMK AO2
14837KMSN MSN20050419201009404/19/05 20:10:31  5-MIN KMSN 200210Z 20006KT 10SM CLR 22/13 A2977 1010 56 2100 200/06 RMK AO2
14837KMSN MSN20050419201509404/19/05 20:15:31  5-MIN KMSN 200215Z 21006KT 10SM CLR 21/13 A2977 1010 58 2000 200/06 RMK AO2
14837KMSN MSN20050419202009404/19/05 20:20:31  5-MIN KMSN 200220Z 20007KT 10SM CLR 22/13 A2977 1010 56 2100 200/07 RMK AO2
14837KMSN MSN20050419202509404/19/05 20:25:31  5-MIN KMSN 200225Z 20007KT 10SM CLR 22/13 A2976 1010 56 2100 200/07 RMK AO2
14837KMSN MSN20050419203009704/19/05 20:30:31  5-MIN KMSN 200230Z 20008KT 10SM FEW080 22/13 A2976 1010 56 2100 200/08 RMK AO2
14837KMSN MSN20050419203510504/19/05 20:35:31  5-MIN KMSN 200235Z 20007KT 10SM FEW080 SCT100 21/13  A2976 1010 58 2000 200/07 RMK AO2
14837KMSN MSN20050419204009704/19/05 20:40:31  5-MIN KMSN 200240Z 19008KT 10SM BKN085 21/13 A2976 1020 58 2000 190/08 RMK AO2
14837KMSN MSN20050419204509704/19/05 20:45:31  5-MIN KMSN 200245Z 20008KT 10SM BKN085 22/13 A2976 1020 56 2100 200/08 RMK AO2
14837KMSN MSN20050419205012004/19/05 20:50:31  5-MIN KMSN 200250Z 20006KT 10SM BKN085 22/13 A2976 1020 56 2100 200/06 RMK AO2 SLP072 T02170128 56012
14837KMSN MSN20050419205509704/19/05 20:55:31  5-MIN KMSN 200255Z 20007KT 10SM OVC090 22/13 A2975 1020 58 2100 200/07 RMK AO2
14837KMSN MSN20050419210009704/19/05 21:00:31  5-MIN KMSN 200300Z 20007KT 10SM OVC090 22/13 A2975 1020 58 2100 200/07 RMK AO2
14837KMSN MSN20050419210509704/19/05 21:05:31  5-MIN KMSN 200305Z 20009KT 10SM OVC090 22/13 A2975 1020 58 2100 200/09 RMK AO2
14837KMSN MSN20050419211009704/19/05 21:10:31  5-MIN KMSN 200310Z 20007KT 10SM OVC095 22/13 A2975 1030 58 2100 200/07 RMK AO2
14837KMSN MSN20050419211509704/19/05 21:15:31  5-MIN KMSN 200315Z 19008KT 10SM OVC100 22/13 A2975 1020 58 2100 190/08 RMK AO2
14837KMSN MSN20050419212009704/19/05 21:20:31  5-MIN KMSN 200320Z 20008KT 10SM BKN100 21/13 A2975 1030 58 2000 200/08 RMK AO2
14837KMSN MSN20050419212509704/19/05 21:25:31  5-MIN KMSN 200325Z 20009KT 10SM BKN100 21/13 A2975 1030 58 2000 200/09 RMK AO2
14837KMSN MSN20050419213011204/19/05 21:30:31  5-MIN KMSN 200330Z 21009KT 10SM FEW080 BKN100 OVC110  21/13 A2975 1020 58 2000 210/09 RMK AO2
14837KMSN MSN20050419213510504/19/05 21:35:31  5-MIN KMSN 200335Z 21008KT 10SM BKN080 OVC110 21/13  A2975 1030 58 2000 210/08 RMK AO2
14837KMSN MSN20050419214010504/19/05 21:40:31  5-MIN KMSN 200340Z 20007KT 10SM BKN080 OVC110 21/13  A2974 1030 58 2000 200/07 RMK AO2
14837KMSN MSN20050419214510504/19/05 21:45:31  5-MIN KMSN 200345Z 21008KT 10SM BKN080 OVC110 21/13  A2974 1030 61 2000 200/08 RMK AO2
14837KMSN MSN20050419215014904/19/05 21:50:31  5-MIN KMSN 200350Z 20006KT 10SM BKN080 BKN110 21/13  A2974 1030 61 2000 200/06 RMK AO2 SLP066 CONS LTG DSNT W TS DSNT W  T02110133
14837KMSN MSN20050419215511204/19/05 21:55:31  5-MIN KMSN 200355Z 21006KT 10SM SCT075 BKN090 OVC110  21/13 A2974 1030 61 2000 210/06 RMK AO2
14837KMSN MSN20050419220011204/19/05 22:00:31  5-MIN KMSN 200400Z 21007KT 10SM FEW060 BKN095 OVC110  21/13 A2974 1030 61 2000 210/07 RMK AO2
14837KMSN MSN20050419220511904/19/05 22:05:31  5-MIN KMSN 200405Z 25008KT 10SM SCT050 BKN065 OVC110  21/13 A2976 1010 61 2000 250/08 RMK AO2 PRESRR
14837KMSN MSN20050419221013004/19/05 22:10:31  5-MIN KMSN 200410Z 23006KT 2 1/2SM RA FEW017 BKN050  OVC110 19/14 A2977 1000 70 1800 230/06 RMK AO2 RAB08 P0007
14837KMSN MSN20050419221518504/19/05 22:15:31  5-MIN KMSN 200415Z 23010G20KT 190V270 3SM -TSRA FEW034  BKN045 OVC110 19/14 A2976 1010 72 1700 230/10G20 190V270 RMK AO2 TSB11RAB08 FRQ LTGICCC OHD TS OHD MOV E P0007
14837KMSN MSN20050419222017004/19/05 22:20:31  5-MIN KMSN 200420Z 23007G20KT 6SM -TSRA SCT039 BKN070  OVC095 18/14 A2977 1000 78 1700 230/07G20 RMK AO2 TSB11RAB08 FRQ LTGICCC  OHD TS OHD MOV E P0007
14837KMSN MSN20050419222516404/19/05 22:25:31  5-MIN KMSN 200425Z VRB06KT 5SM -TSRA FEW033 BKN060  OVC090 18/14 A2977 1000 78 1700 VRB/06 RMK AO2 TSB11RAB08 FRQ LTGICCC OHD  TS OHD MOV E P0008
14837KMSN MSN20050419223016404/19/05 22:30:31  5-MIN KMSN 200430Z 22009KT 4SM -TSRA FEW033 BKN060  OVC090 18/15 A2977 1000 83 1600 220/09 RMK AO2 TSB11RAB08 FRQ LTGICCC OHD  TS OHD MOV E P0010
14837KMSN MSN20050420012510604/20/05 01:25:31  5-MIN KMSN 200725Z 26005KT 5SM BR SCT014 OVC021 17/16  A2978 990 90 1500 260/05 RMK AO2
14837KMSN MSN20050420013011304/20/05 01:30:31  5-MIN KMSN 200730Z 26004KT 5SM BR FEW015 BKN022 OVC027  17/16 A2978 990 90 1500 260/04 RMK AO2
14837KMSN MSN20050420013510604/20/05 01:35:31  5-MIN KMSN 200735Z 27006KT 5SM BR SCT019 OVC026 17/16  A2978 990 90 1500 270/06 RMK AO2
14837KMSN MSN20050420014011304/20/05 01:40:31  5-MIN KMSN 200740Z 27004KT 5SM BR SCT021 BKN029 OVC033  17/16 A2978 990 90 1500 270/04 RMK AO2
14837KMSN MSN20050420014511304/20/05 01:45:31  5-MIN KMSN 200745Z 27006KT 5SM BR SCT023 BKN029 OVC037  17/16 A2979 990 90 1500 270/06 RMK AO2
14837KMSN MSN20050420015013004/20/05 01:50:31  5-MIN KMSN 200750Z 28005KT 5SM BR FEW023 SCT029 OVC037  17/16 A2979 990 90 1500 280/05 RMK AO2 SLP082 T01720156
14837KMSN MSN20050420015510604/20/05 01:55:31  5-MIN KMSN 200755Z 27006KT 5SM BR SCT026 OVC035 17/16  A2979 990 90 1500 270/06 RMK AO2
14837KMSN MSN20050420020010604/20/05 02:00:31  5-MIN KMSN 200800Z VRB06KT 5SM BR SCT029 OVC035 17/16  A2979 990 90 1500 VRB/06 RMK AO2
14837KMSN MSN20050420020511304/20/05 02:05:31  5-MIN KMSN 200805Z 28006KT 5SM BR FEW012 SCT029 OVC036  17/16 A2979 980 90 1500 280/06 RMK AO2
14837KMSN MSN20050420021010604/20/05 02:10:31  5-MIN KMSN 200810Z 28007KT 5SM BR FEW012 OVC034 17/16  A2979 990 90 1500 280/07 RMK AO2
14837KMSN MSN20050420021510604/20/05 02:15:31  5-MIN KMSN 200815Z 28007KT 5SM BR FEW012 OVC034 17/16  A2979 980 90 1500 280/07 RMK AO2
14837KMSN MSN20050420022011304/20/05 02:20:31  5-MIN KMSN 200820Z 29007KT 5SM BR FEW010 SCT013 OVC032  17/16 A2979 980 90 1500 290/07 RMK AO2
14837KMSN MSN20050420022511304/20/05 02:25:31  5-MIN KMSN 200825Z 28007KT 5SM BR FEW010 SCT016 OVC032  17/15 A2980 980 90 1400 280/07 RMK AO2
14837KMSN MSN20050420023011304/20/05 02:30:31  5-MIN KMSN 200830Z 29010KT 5SM BR FEW010 SCT022 OVC030  17/14 A2980 980 86 1400 290/10 RMK AO2
14837KMSN MSN20050420023511304/20/05 02:35:31  5-MIN KMSN 200835Z 29008KT 5SM BR FEW010 SCT022 OVC030  17/14 A2980 970 86 1400 290/08 RMK AO2
14837KMSN MSN20050420024011304/20/05 02:40:31  5-MIN KMSN 200840Z 29008KT 6SM HZ FEW010 SCT023 OVC030  17/14 A2980 970 83 1400 280/08 RMK AO2
14837KMSN MSN20050420024510604/20/05 02:45:31  5-MIN KMSN 200845Z 29008KT 6SM HZ SCT023 BKN030 17/14  A2981 970 83 1400 290/08 RMK AO2
14837KMSN MSN20050420025014204/20/05 02:50:31  5-MIN KMSN 200850Z 29008KT 250V320 7SM BKN023 OVC030  16/14 A2981 970 86 1400 290/08 250V320 RMK AO2 SLP091 T01610139 53007
14837KMSN MSN20050420025510204/20/05 02:55:31  5-MIN KMSN 200855Z 29008KT 7SM BKN023 OVC030 16/14 A2981 970 86 1400 280/08 RMK AO2
14837KMSN MSN20050420030010204/20/05 03:00:31  5-MIN KMSN 200900Z 29008KT 7SM BKN023 OVC030 16/13 A2981 970 83 1400 290/08 RMK AO2
14837KMSN MSN20050420030510204/20/05 03:05:31  5-MIN KMSN 200905Z 28007KT 8SM BKN023 OVC030 16/13 A2981 960 83 1400 270/07 RMK AO2
14837KMSN MSN20050420031011004/20/05 03:10:31  5-MIN KMSN 200910Z 29007KT 8SM FEW017 BKN023 OVC030  16/13 A2981 960 83 1400 290/07 RMK AO2
14837KMSN MSN20050420031511604/20/05 03:15:31  5-MIN KMSN 200915Z 30009G14KT 8SM FEW017 BKN023 OVC030  16/13 A2982 960 83 1400 300/09G14 RMK AO2
14837KMSN MSN20050420032010204/20/05 03:20:31  5-MIN KMSN 200920Z 29008KT 9SM BKN020 OVC028 16/13 A2982 960 83 1400 290/08 RMK AO2
14837KMSN MSN20050420032509704/20/05 03:25:31  5-MIN KMSN 200925Z 29007KT 10SM OVC022 16/13 A2982 960  80 1400 290/07 RMK AO2
14837KMSN MSN20050420033010404/20/05 03:30:31  5-MIN KMSN 200930Z 27006KT 10SM SCT020 OVC025 16/13  A2982 960 80 1400 270/06 RMK AO2
14837KMSN MSN20050420033510404/20/05 03:35:31  5-MIN KMSN 200935Z VRB06KT 10SM SCT019 OVC025 16/13  A2982 960 83 1400 VRB/06 RMK AO2
14837KMSN MSN20050420034010404/20/05 03:40:31  5-MIN KMSN 200940Z VRB06KT 10SM SCT019 OVC025 16/13  A2982 960 83 1400 VRB/06 RMK AO2
14837KMSN MSN20050420034509704/20/05 03:45:31  5-MIN KMSN 200945Z VRB06KT 10SM OVC022 16/13 A2982 960  83 1400 VRB/06 RMK AO2
14837KMSN MSN20050420035011404/20/05 03:50:31  5-MIN KMSN 200950Z 27005KT 10SM OVC022 16/13 A2982 960  83 1400 270/05 RMK AO2 SLP093 T01610133
14837KMSN MSN20050420035510404/20/05 03:55:31  5-MIN KMSN 200955Z 28005KT 10SM FEW019 OVC024 16/13  A2981 960 86 1300 280/05 RMK AO2
14837KMSN MSN20050420040010204/20/05 04:00:31  5-MIN KMSN 201000Z 28007KT 9SM FEW019 OVC024 16/13 A2981 960 83 1400 280/07 RMK AO2
14837KMSN MSN20050420040509504/20/05 04:05:31  5-MIN KMSN 201005Z 28007KT 9SM OVC024 16/13 A2981 960 83 1400 280/07 RMK AO2
14837KMSN MSN20050420041009504/20/05 04:10:31  5-MIN KMSN 201010Z 27008KT 9SM OVC024 16/13 A2981 970 86 1300 270/08 RMK AO2
14837KMSN MSN20050420041511204/20/05 04:15:31  5-MIN KMSN 201015Z 28007KT 230V290 9SM OVC024 16/13  A2981 960 86 1300 270/07 230V290 RMK AO2
14837KMSN MSN20050420042009504/20/05 04:20:31  5-MIN KMSN 201020Z 28006KT 9SM BKN024 16/13 A2981 960 86 1300 270/06 RMK AO2
14837KMSN MSN20050420042509504/20/05 04:25:31  5-MIN KMSN 201025Z 29006KT 9SM BKN022 16/13 A2982 960 86 1300 290/06 RMK AO2
14837KMSN MSN20050420043009504/20/05 04:30:31  5-MIN KMSN 201030Z 29006KT 9SM BKN022 16/13 A2982 960 86 1300 290/06 RMK AO2
14837KMSN MSN20050420043509504/20/05 04:35:31  5-MIN KMSN 201035Z 28005KT 9SM BKN022 16/13 A2982 950 86 1300 280/05 RMK AO2
14837KMSN MSN20050420044009504/20/05 04:40:31  5-MIN KMSN 201040Z 28005KT 9SM BKN020 16/13 A2983 950 86 1300 280/05 RMK AO2
14837KMSN MSN20050420044510204/20/05 04:45:31  5-MIN KMSN 201045Z 28006KT 9SM BKN018 BKN024 16/13 A2983 950 86 1300 280/06 RMK AO2
14837KMSN MSN20050420045011904/20/05 04:50:31  5-MIN KMSN 201050Z 30007KT 9SM BKN018 BKN024 16/13 A2983 950 86 1300 300/07 RMK AO2 SLP097 T01560133
14837KMSN MSN20050420045510204/20/05 04:55:31  5-MIN KMSN 201055Z 29005KT 9SM BKN018 OVC024 16/13 A2983 950 86 1300 290/05 RMK AO2
14837KMSN MSN20050420050009504/20/05 05:00:31  5-MIN KMSN 201100Z 29006KT 9SM OVC018 16/13 A2983 950 86 1300 290/06 RMK AO2
14837KMSN MSN20050420050509504/20/05 05:05:31  5-MIN KMSN 201105Z 29006KT 9SM OVC018 16/13 A2983 940 86 1300 290/06 RMK AO2
14837KMSN MSN20050420051009504/20/05 05:10:31  5-MIN KMSN 201110Z 30005KT 9SM OVC018 16/13 A2983 940 86 1300 300/05 RMK AO2
14837KMSN MSN20050420051509504/20/05 05:15:31  5-MIN KMSN 201115Z 29006KT 9SM OVC018 16/13 A2984 940 86 1300 290/06 RMK AO2
14837KMSN MSN20050420052009504/20/05 05:20:31  5-MIN KMSN 201120Z 29007KT 8SM OVC018 16/13 A2984 940 86 1300 290/07 RMK AO2
14837KMSN MSN20050420052510204/20/05 05:25:31  5-MIN KMSN 201125Z 28005KT 8SM BKN018 OVC022 16/13 A2985 930 86 1300 280/05 RMK AO2
14837KMSN MSN20050420053010204/20/05 05:30:31  5-MIN KMSN 201130Z 30004KT 8SM BKN016 OVC022 16/13 A2985 930 86 1300 300/04 RMK AO2
14837KMSN MSN20050420053510204/20/05 05:35:31  5-MIN KMSN 201135Z 29005KT 8SM BKN013 OVC020 16/13 A2985 930 86 1200 290/05 RMK AO2
14837KMSN MSN20050420054010604/20/05 05:40:31  5-MIN KMSN 201140Z 30005KT 4SM BR BKN011 OVC020 16/13  A2985 930 86 1200 300/05 RMK AO2
14837KMSN MSN20050420054511804/20/05 05:45:31  5-MIN KMSN 201145Z 31007KT 4SM BR BKN011 OVC017 16/14  A2986 920 90 1200 310/07 RMK AO2 CIG 008V014
14837KMSN MSN20050420055015204/20/05 05:50:31  5-MIN KMSN 201150Z 30008KT 5SM BR OVC011 16/14 A2986 920 90 1200 300/08 RMK AO2 CIG 008V015 SLP108 70024 T01560139 10172 20156  53010
14837KMSN MSN20050420055511004/20/05 05:55:31  5-MIN KMSN 201155Z 30007KT 5SM BR OVC011 16/14 A2986 920 90 1200 300/07 RMK AO2 CIG 007V013
14837KMSN MSN20050420060011004/20/05 06:00:31  5-MIN KMSN 201200Z 31008KT 4SM BR OVC009 16/14 A2986 920 90 1200 310/08 RMK AO2 CIG 006V012
14837KMSN MSN20050420060511804/20/05 06:05:31  5-MIN KMSN 201205Z 30006KT 3SM BR BKN009 OVC014 16/14  A2986 920 90 1200 300/06 RMK AO2 CIG 006V011
14837KMSN MSN20050420061012404/20/05 06:10:31  5-MIN KMSN 201210Z 30006KT 2 1/2SM BR OVC009 16/14 A2987 910 90 1200 300/06 RMK AO2 TWR VIS 3 CIG 005V012
14837KMSN MSN20050420061511004/20/05 06:15:31  5-MIN KMSN 201215Z 31006KT 3SM BR OVC009 15/14 A2987 910 93 1200 310/06 RMK AO2 CIG 004V011
14837KMSN MSN20050420062011004/20/05 06:20:31  5-MIN KMSN 201220Z 32006KT 3SM BR OVC009 15/14 A2987 910 93 1200 320/06 RMK AO2 CIG 004V012
14837KMSN MSN20050420062512404/20/05 06:25:31  5-MIN KMSN 201225Z 32007KT 2 1/2SM BR OVC007 15/14 A2987 910 93 1200 320/07 RMK AO2 TWR VIS 3 CIG 004V012
14837KMSN MSN20050420063012404/20/05 06:30:31  5-MIN KMSN 201230Z 33006KT 2 1/2SM BR OVC007 15/14 A2987 910 93 1200 330/06 RMK AO2 TWR VIS 3 CIG 004V010
14837KMSN MSN20050420063512404/20/05 06:35:31  5-MIN KMSN 201235Z 34008KT 2 1/2SM BR OVC007 15/14 A2987 910 93 1200 340/08 RMK AO2 TWR VIS 3 CIG 004V010
14837KMSN MSN20050420064012004/20/05 06:40:31  5-MIN KMSN 201240Z 34009KT 3SM BR OVC007 15/14 A2987 910 93 1200 340/09 RMK AO2 SFC VIS 4 CIG 004V010
14837KMSN MSN20050420064512004/20/05 06:45:31  5-MIN KMSN 201245Z 34010KT 3SM BR OVC007 16/14 A2988 900 90 1200 340/10 RMK AO2 SFC VIS 4 CIG 005V010
14837KMSN MSN20050420065014504/20/05 06:50:31  5-MIN KMSN 201250Z 35008KT 3SM BR BKN007 OVC012 16/14  A2988 900 90 1200 350/08 RMK AO2 SFC VIS 4 CIG 005V010 SLP115 T01560139
14837KMSN MSN20050420065512804/20/05 06:55:31  5-MIN KMSN 201255Z 35008KT 3SM BR BKN009 OVC014 16/14  A2989 900 90 1200 350/08 RMK AO2 SFC VIS 6 CIG 006V012
14837KMSN MSN20050420070011804/20/05 07:00:31  5-MIN KMSN 201300Z 35008KT 6SM BR BKN009 OVC014 16/14  A2989 890 90 1200 350/08 RMK AO2 CIG 006V012
14837KMSN MSN20050420070512504/20/05 07:05:31  5-MIN KMSN 201305Z 36008KT 6SM BR BKN009 BKN014 OVC020  16/14 A2989 890 90 1200 360/08 RMK AO2 CIG 007V011
14837KMSN MSN20050420071011304/20/05 07:10:31  5-MIN KMSN 201310Z 35008KT 6SM BR BKN009 BKN014 OVC020  16/14 A2989 890 90 1200 350/08 RMK AO2
14837KMSN MSN20050420071510604/20/05 07:15:31  5-MIN KMSN 201315Z 36010KT 6SM BR BKN009 OVC014 16/14  A2990 890 90 1200 360/10 RMK AO2
14837KMSN MSN20050420072010604/20/05 07:20:31  5-MIN KMSN 201320Z 01008KT 5SM BR BKN009 OVC014 16/14  A2990 890 90 1200 010/08 RMK AO2
14837KMSN MSN20050420072511404/20/05 07:25:31  5-MIN KMSN 201325Z 36011KT 5SM -DZ BR OVC009 16/14 A2990 880 90 1200 360/11 RMK AO2 DZB25 P0000
14837KMSN MSN20050420073013404/20/05 07:30:31  5-MIN KMSN 201330Z 36016KT 4SM -RA BR OVC009 15/13 A2990 890 90 1100 360/16 RMK AO2 DZB25E30RAB30 CIG 006V011 P0001
14837KMSN MSN20050420073514404/20/05 07:35:31  5-MIN KMSN 201335Z 36014KT 3SM -DZ BR OVC009 15/13 A2989 890 90 1100 360/14 RMK AO2 TWR VIS 6 DZB25RAB30E34 CIG 005V010 P0001
14837KMSN MSN20050420074014204/20/05 07:40:31  5-MIN KMSN 201340Z 02013KT 4SM -DZ BR BKN009 OVC013  15/13 A2989 890 90 1100 010/13 RMK AO2 DZB25RAB30E34 CIG 005V011 P0001
14837KMSN MSN20050420074514804/20/05 07:45:31  5-MIN KMSN 201345Z 02013KT 5SM BR BKN007 BKN013 OVC027  15/13 A2989 890 90 1100 020/13 RMK AO2 DZB25E43RAB30E34 CIG 005V010 P0001
14837KMSN MSN20050420075015404/20/05 07:50:31  5-MIN KMSN 201350Z 02012KT 5SM BR SCT007 BKN013 OVC029  16/13 A2990 890 86 1200 020/12 RMK AO2 DZB25E43RAB30E34 SLP121 P0001  T01560133
14837KMSN MSN20050420075511304/20/05 07:55:31  5-MIN KMSN 201355Z 03012KT 6SM BR FEW007 BKN027 OVC032  16/13 A2990 890 86 1200 020/12 RMK AO2
14837KMSN MSN20050420080011004/20/05 08:00:31  5-MIN KMSN 201400Z 03011KT 7SM BKN010 BKN027 OVC032  16/13 A2990 890 86 1200 030/11 RMK AO2
14837KMSN MSN20050420080511004/20/05 08:05:31  5-MIN KMSN 201405Z 03014KT 7SM BKN012 BKN027 OVC032  16/13 A2990 890 83 1300 030/14 RMK AO2
14837KMSN MSN20050420081011004/20/05 08:10:31  5-MIN KMSN 201410Z 03013KT 7SM BKN012 BKN027 OVC032  16/13 A2990 880 83 1300 030/13 RMK AO2
14837KMSN MSN20050420081510204/20/05 08:15:31  5-MIN KMSN 201415Z 02013KT 7SM BKN012 OVC032 16/13 A2990 880 83 1200 020/13 RMK AO2
14837KMSN MSN20050420082010904/20/05 08:20:31  5-MIN KMSN 201420Z 03013G18KT 8SM BKN012 OVC032 16/13  A2991 880 83 1200 030/13G18 RMK AO2
14837KMSN MSN20050420082509504/20/05 08:25:31  5-MIN KMSN 201425Z 03013KT 8SM OVC012 16/13 A2991 880 83 1200 030/13 RMK AO2
14837KMSN MSN20050420083009504/20/05 08:30:31  5-MIN KMSN 201430Z 03013KT 9SM OVC012 16/13 A2991 870 83 1200 020/13 RMK AO2
14837KMSN MSN20050420083509504/20/05 08:35:31  5-MIN KMSN 201435Z 02014KT 9SM OVC012 16/13 A2991 870 83 1200 020/14 RMK AO2
14837KMSN MSN20050420084009704/20/05 08:40:31  5-MIN KMSN 201440Z 03014KT 10SM OVC012 16/12 A2991 870  80 1200 030/14 RMK AO2
14837KMSN MSN20050420084509704/20/05 08:45:31  5-MIN KMSN 201445Z 03011KT 10SM OVC014 16/13 A2991 870  83 1200 030/11 RMK AO2
14837KMSN MSN20050420085012604/20/05 08:50:31  5-MIN KMSN 201450Z 03010KT 10SM OVC014 16/13 A2992 870  83 1200 030/10 RMK AO2 SLP128 60001 T01560128 53017
14837KMSN MSN20050420085509704/20/05 08:55:31  5-MIN KMSN 201455Z 03012KT 10SM OVC014 16/13 A2992 870  80 1200 030/12 RMK AO2
14837KMSN MSN20050420090009704/20/05 09:00:31  5-MIN KMSN 201500Z 04010KT 10SM OVC014 16/13 A2992 860  83 1200 040/10 RMK AO2
14837KMSN MSN20050420090509704/20/05 09:05:31  5-MIN KMSN 201505Z 03010KT 10SM OVC014 16/13 A2993 860  80 1200 030/10 RMK AO2
14837KMSN MSN20050420091009704/20/05 09:10:31  5-MIN KMSN 201510Z 04008KT 10SM OVC014 16/13 A2993 860  83 1200 040/08 RMK AO2
14837KMSN MSN20050420091509704/20/05 09:15:31  5-MIN KMSN 201515Z 04010KT 10SM OVC014 16/13 A2993 860  83 1200 040/10 RMK AO2
14837KMSN MSN20050420092009704/20/05 09:20:31  5-MIN KMSN 201520Z 05012KT 10SM OVC012 16/13 A2992 860  83 1200 050/12 RMK AO2
14837KMSN MSN20050420092510404/20/05 09:25:31  5-MIN KMSN 201525Z 04012KT 10SM BKN012 OVC019 16/13  A2992 860 83 1200 040/12 RMK AO2
14837KMSN MSN20050420093009504/20/05 09:30:31  5-MIN KMSN 201530Z 03014KT 9SM OVC012 16/13 A2992 860 83 1200 030/14 RMK AO2
14837KMSN MSN20050420093509504/20/05 09:35:31  5-MIN KMSN 201535Z 04012KT 9SM OVC012 16/13 A2993 860 83 1200 040/12 RMK AO2
14837KMSN MSN20050420094010204/20/05 09:40:31  5-MIN KMSN 201540Z 04014KT 9SM BKN012 OVC019 16/13 A2993 860 83 1200 040/14 RMK AO2
14837KMSN MSN20050420094510204/20/05 09:45:31  5-MIN KMSN 201545Z 04012KT 8SM BKN012 OVC019 16/13 A2993 850 83 1200 030/12 RMK AO2
14837KMSN MSN20050420095011904/20/05 09:50:31  5-MIN KMSN 201550Z 04012KT 8SM BKN012 OVC019 15/13 A2993 850 86 1100 040/12 RMK AO2 SLP134 T01500128
14837KMSN MSN20050420095510204/20/05 09:55:31  5-MIN KMSN 201555Z 04011KT 8SM BKN012 OVC019 15/13 A2993 850 86 1100 040/11 RMK AO2
14837KMSN MSN20050420100010204/20/05 10:00:31  5-MIN KMSN 201600Z 03014KT 9SM BKN012 OVC019 15/12 A2993 850 83 1100 030/14 RMK AO2
14837KMSN MSN20050420100510204/20/05 10:05:31  5-MIN KMSN 201605Z 04013KT 8SM BKN012 OVC019 15/12 A2994 850 83 1100 040/13 RMK AO2
14837KMSN MSN20050420101009504/20/05 10:10:31  5-MIN KMSN 201610Z 04012KT 9SM OVC012 15/12 A2994 850 83 1100 040/12 RMK AO2
14837KMSN MSN20050420101509504/20/05 10:15:31  5-MIN KMSN 201615Z 05013KT 9SM OVC012 16/12 A2994 850 80 1100 050/13 RMK AO2
14837KMSN MSN20050420102009504/20/05 10:20:31  5-MIN KMSN 201620Z 03009KT 9SM OVC012 16/12 A2995 840 80 1100 030/09 RMK AO2
14837KMSN MSN20050420102509504/20/05 10:25:31  5-MIN KMSN 201625Z 05010KT 9SM OVC012 16/12 A2995 830 80 1100 050/10 RMK AO2
14837KMSN MSN20050420103009504/20/05 10:30:31  5-MIN KMSN 201630Z 04009KT 9SM OVC012 15/12 A2996 830 83 1100 040/09 RMK AO2
14837KMSN MSN20050420103510204/20/05 10:35:31  5-MIN KMSN 201635Z 03012KT 9SM OVC012 15/12 A2996 820 83 1100 030/12 RMK AO2 PRESRR
14837KMSN MSN20050420104009504/20/05 10:40:31  5-MIN KMSN 201640Z 02010KT 8SM OVC012 14/12 A2997 820 86 1000 020/10 RMK AO2
14837KMSN MSN20050420104509504/20/05 10:45:31  5-MIN KMSN 201645Z 03010KT 7SM OVC012 15/13 A2997 820 86 1100 030/10 RMK AO2
14837KMSN MSN20050420105011904/20/05 10:50:31  5-MIN KMSN 201650Z 03010KT 7SM BKN012 OVC016 15/13 A2997 820 86 1000 030/10 RMK AO2 SLP149 T01500128
14837KMSN MSN20050420105509504/20/05 10:55:31  5-MIN KMSN 201655Z 02008KT 7SM OVC012 15/12 A2998 810 83 1000 020/08 RMK AO2
14837KMSN MSN20050420110009504/20/05 11:00:31  5-MIN KMSN 201700Z 01010KT 8SM OVC012 15/12 A2998 810 83 1000 010/10 RMK AO2
14837KMSN MSN20050420110510704/20/05 11:05:31  5-MIN KMSN 201705Z 01009KT 8SM OVC010 15/12 A2998 810 83 1000 010/09 RMK AO2 CIG 008V014
14837KMSN MSN20050420111009504/20/05 11:10:31  5-MIN KMSN 201710Z 02007KT 8SM OVC010 14/12 A2998 810 83 1000 020/07 RMK AO2
14837KMSN MSN20050420111509504/20/05 11:15:31  5-MIN KMSN 201715Z 02009KT 9SM OVC012 15/12 A2998 810 83 1000 020/09 RMK AO2
14837KMSN MSN20050420112009504/20/05 11:20:31  5-MIN KMSN 201720Z 02008KT 9SM OVC012 15/12 A2998 810 80 1000 020/08 RMK AO2
14837KMSN MSN20050420112509704/20/05 11:25:31  5-MIN KMSN 201725Z 03011KT 10SM OVC012 15/12 A2998 810  80 1000 030/11 RMK AO2
14837KMSN MSN20050420113009704/20/05 11:30:31  5-MIN KMSN 201730Z 04012KT 10SM OVC012 15/12 A2998 810  80 1000 040/12 RMK AO2
14837KMSN MSN20050420113509704/20/05 11:35:31  5-MIN KMSN 201735Z 03011KT 10SM OVC012 14/12 A2998 810  83 1000 030/11 RMK AO2
14837KMSN MSN20050420114009704/20/05 11:40:31  5-MIN KMSN 201740Z 04012KT 10SM OVC012 14/12 A2998 810  83 1000 040/12 RMK AO2
14837KMSN MSN20050420114509704/20/05 11:45:31  5-MIN KMSN 201745Z 02011KT 10SM OVC012 14/11 A2998 800  80 1000 020/11 RMK AO2
14837KMSN MSN20050420115013504/20/05 11:50:31  5-MIN KMSN 201750Z 02011KT 9SM OVC012 14/11 A2998 810 83 900 020/11 RMK AO2 SLP153 60001 T01390111 10161 20139 52019
14837KMSN MSN20050420115509404/20/05 11:55:31  5-MIN KMSN 201755Z 02012KT 9SM OVC012 14/11 A2998 810 83 900 020/12 RMK AO2
14837KMSN MSN20050420120009404/20/05 12:00:31  5-MIN KMSN 201800Z 02013KT 9SM OVC012 14/11 A2998 810 83 900 020/13 RMK AO2
14837KMSN MSN20050420120509404/20/05 12:05:31  5-MIN KMSN 201805Z 03013KT 9SM OVC012 14/11 A2998 810 80 900 030/13 RMK AO2
14837KMSN MSN20050420121009404/20/05 12:10:31  5-MIN KMSN 201810Z 02013KT 9SM OVC012 13/11 A2999 800 83 800 020/13 RMK AO2
14837KMSN MSN20050420121509404/20/05 12:15:31  5-MIN KMSN 201815Z 03013KT 9SM OVC012 13/11 A2999 800 83 800 030/13 RMK AO2
14837KMSN MSN20050420122009404/20/05 12:20:31  5-MIN KMSN 201820Z 02013KT 8SM OVC012 13/11 A2999 800 83 800 020/13 RMK AO2
14837KMSN MSN20050420122509404/20/05 12:25:31  5-MIN KMSN 201825Z 03013KT 8SM OVC012 13/11 A2999 800 83 800 030/13 RMK AO2
14837KMSN MSN20050420123009404/20/05 12:30:31  5-MIN KMSN 201830Z 02012KT 8SM OVC012 13/10 A2999 800 83 800 020/12 RMK AO2
14837KMSN MSN20050420123509404/20/05 12:35:31  5-MIN KMSN 201835Z 03014KT 8SM OVC012 13/10 A2999 800 80 800 030/14 RMK AO2
14837KMSN MSN20050420124009404/20/05 12:40:31  5-MIN KMSN 201840Z 03015KT 9SM OVC012 13/10 A2999 800 83 800 030/15 RMK AO2
14837KMSN MSN20050420124509404/20/05 12:45:31  5-MIN KMSN 201845Z 04016KT 9SM OVC012 13/10 A2999 800 83 800 040/16 RMK AO2
14837KMSN MSN20050420125011104/20/05 12:50:31  5-MIN KMSN 201850Z 03016KT 9SM OVC012 13/10 A2999 800 83 800 030/16 RMK AO2 SLP156 T01280100
14837KMSN MSN20050420125509404/20/05 12:55:31  5-MIN KMSN 201855Z 02016KT 9SM OVC012 13/09 A2999 800 80 800 020/16 RMK AO2
14837KMSN MSN20050420130009404/20/05 13:00:31  5-MIN KMSN 201900Z 04017KT 8SM OVC012 13/09 A2999 800 80 800 040/17 RMK AO2
14837KMSN MSN20050420130509404/20/05 13:05:31  5-MIN KMSN 201905Z 04017KT 8SM OVC012 12/09 A2999 800 83 700 040/17 RMK AO2
14837KMSN MSN20050420131009404/20/05 13:10:31  5-MIN KMSN 201910Z 04017KT 8SM OVC012 13/09 A2999 800 80 800 040/17 RMK AO2
14837KMSN MSN20050420131509404/20/05 13:15:31  5-MIN KMSN 201915Z 02017KT 8SM OVC012 12/09 A3000 790 83 700 020/17 RMK AO2
14837KMSN MSN20050420132009404/20/05 13:20:31  5-MIN KMSN 201920Z 03016KT 7SM OVC012 12/09 A3000 800 80 700 030/16 RMK AO2
14837KMSN MSN20050420132509404/20/05 13:25:31  5-MIN KMSN 201925Z 05018KT 7SM OVC012 12/09 A3000 790 80 700 040/18 RMK AO2
14837KMSN MSN20050420133009404/20/05 13:30:31  5-MIN KMSN 201930Z 03016KT 7SM OVC012 12/09 A3000 790 80 700 030/16 RMK AO2
14837KMSN MSN20050420133509404/20/05 13:35:31  5-MIN KMSN 201935Z 03017KT 7SM OVC012 12/09 A3001 780 80 700 030/17 RMK AO2
14837KMSN MSN20050420134009704/20/05 13:40:31  5-MIN KMSN 201940Z 04015KT 6SM HZ OVC012 12/09 A3001 780 83 600 030/15 RMK AO2
14837KMSN MSN20050420134509704/20/05 13:45:31  5-MIN KMSN 201945Z 04013KT 6SM HZ OVC012 12/09 A3001 780 80 700 040/13 RMK AO2
14837KMSN MSN20050420135011404/20/05 13:50:31  5-MIN KMSN 201950Z 04012KT 6SM HZ OVC012 12/09 A3002 780 80 700 040/12 RMK AO2 SLP164 T01220089
14837KMSN MSN20050420135509704/20/05 13:55:31  5-MIN KMSN 201955Z 03013KT 5SM HZ OVC012 12/08 A3002 770 80 600 030/13 RMK AO2
14837KMSN MSN20050420140009704/20/05 14:00:31  5-MIN KMSN 202000Z 04015KT 4SM HZ OVC012 12/08 A3002 770 80 600 040/15 RMK AO2
14837KMSN MSN20050420140509704/20/05 14:05:31  5-MIN KMSN 202005Z 03015KT 3SM HZ OVC012 11/08 A3002 780 83 500 030/15 RMK AO2
14837KMSN MSN20050420141009704/20/05 14:10:31  5-MIN KMSN 202010Z 04014KT 3SM HZ OVC012 11/08 A3002 780 83 500 040/14 RMK AO2
14837KMSN MSN20050420141509704/20/05 14:15:31  5-MIN KMSN 202015Z 04015KT 4SM HZ OVC012 11/08 A3001 780 83 500 040/15 RMK AO2
14837KMSN MSN20050420142009704/20/05 14:20:31  5-MIN KMSN 202020Z 04014KT 4SM HZ OVC012 11/08 A3001 780 83 500 040/14 RMK AO2
14837KMSN MSN20050420142509704/20/05 14:25:31  5-MIN KMSN 202025Z 04015KT 3SM HZ OVC012 11/08 A3001 780 83 500 040/15 RMK AO2
14837KMSN MSN20050420143009704/20/05 14:30:31  5-MIN KMSN 202030Z 03012KT 4SM HZ OVC012 11/08 A3001 780 83 500 030/12 RMK AO2
14837KMSN MSN20050420143509704/20/05 14:35:31  5-MIN KMSN 202035Z 03012KT 4SM HZ OVC012 11/08 A3001 780 83 500 030/12 RMK AO2
14837KMSN MSN20050420144009704/20/05 14:40:31  5-MIN KMSN 202040Z 04016KT 5SM HZ OVC012 11/08 A3000 790 80 500 040/16 RMK AO2
14837KMSN MSN20050420144509704/20/05 14:45:31  5-MIN KMSN 202045Z 04015KT 5SM HZ OVC012 11/08 A3000 790 80 600 040/15 RMK AO2
14837KMSN MSN20050420145012004/20/05 14:50:31  5-MIN KMSN 202050Z 04016KT 6SM HZ OVC012 12/08 A3000 790 77 600 040/16 RMK AO2 SLP160 T01170078 51022
14837KMSN MSN20050420145509404/20/05 14:55:31  5-MIN KMSN 202055Z 04013KT 7SM OVC014 12/08 A3000 790 80 600 030/13 RMK AO2
14837KMSN MSN20050420150009404/20/05 15:00:31  5-MIN KMSN 202100Z 03015KT 9SM OVC014 12/08 A3000 790 77 700 030/15 RMK AO2
14837KMSN MSN20050420150509604/20/05 15:05:31  5-MIN KMSN 202105Z 03016KT 10SM OVC014 12/08 A3000 790  77 600 030/16 RMK AO2
14837KMSN MSN20050420151009604/20/05 15:10:31  5-MIN KMSN 202110Z 03015KT 10SM OVC014 12/08 A3000 790  77 600 030/15 RMK AO2
14837KMSN MSN20050420151509404/20/05 15:15:31  5-MIN KMSN 202115Z 02015KT 9SM OVC014 12/08 A3000 790 77 600 020/15 RMK AO2
14837KMSN MSN20050420152010004/20/05 15:20:31  5-MIN KMSN 202120Z 03014G20KT 8SM OVC014 12/08 A3000 790 77 600 020/14G20 RMK AO2
14837KMSN MSN20050420152510004/20/05 15:25:31  5-MIN KMSN 202125Z 03015G20KT 7SM OVC014 12/08 A3000 790 80 600 030/15G20 RMK AO2
14837KMSN MSN20050420153009404/20/05 15:30:31  5-MIN KMSN 202130Z 04015KT 7SM OVC014 12/08 A3000 790 77 600 040/15 RMK AO2
14837KMSN MSN20050420153509404/20/05 15:35:31  5-MIN KMSN 202135Z 03016KT 7SM OVC014 12/08 A3000 790 77 600 030/16 RMK AO2
14837KMSN MSN20050420154010004/20/05 15:40:31  5-MIN KMSN 202140Z 03013G21KT 8SM OVC014 12/08 A3000 790 77 600 030/13G21 RMK AO2
14837KMSN MSN20050420154509404/20/05 15:45:31  5-MIN KMSN 202145Z 04017KT 9SM OVC014 12/08 A3000 790 77 600 040/17 RMK AO2
14837KMSN MSN20050420155011304/20/05 15:50:31  5-MIN KMSN 202150Z 03018KT 10SM OVC014 11/07 A3000 790  77 500 030/18 RMK AO2 SLP161 T01110072
14837KMSN MSN20050420155509604/20/05 15:55:31  5-MIN KMSN 202155Z 03016KT 10SM OVC016 11/07 A3000 790  77 500 030/16 RMK AO2
14837KMSN MSN20050420160009604/20/05 16:00:31  5-MIN KMSN 202200Z 04014KT 10SM OVC016 11/07 A3000 790  77 500 040/14 RMK AO2
14837KMSN MSN20050420160509604/20/05 16:05:31  5-MIN KMSN 202205Z 05014KT 10SM OVC016 11/07 A3000 790  77 500 050/14 RMK AO2
14837KMSN MSN20050420161009604/20/05 16:10:31  5-MIN KMSN 202210Z 04015KT 10SM OVC016 11/07 A3000 790  77 500 040/15 RMK AO2
14837KMSN MSN20050420161509604/20/05 16:15:31  5-MIN KMSN 202215Z 04015KT 10SM OVC016 11/07 A3001 790  77 500 040/15 RMK AO2
14837KMSN MSN20050420162009404/20/05 16:20:31  5-MIN KMSN 202220Z 03015KT 9SM OVC016 11/07 A3001 790 77 500 030/15 RMK AO2
14837KMSN MSN20050420162509404/20/05 16:25:31  5-MIN KMSN 202225Z 04015KT 7SM OVC016 11/07 A3001 780 77 500 040/15 RMK AO2
14837KMSN MSN20050420163010004/20/05 16:30:31  5-MIN KMSN 202230Z 05013G19KT 7SM OVC016 11/07 A3001 780 77 500 050/13G19 RMK AO2
14837KMSN MSN20050420163510004/20/05 16:35:31  5-MIN KMSN 202235Z 04015G19KT 7SM OVC016 11/07 A3001 780 77 500 040/15G19 RMK AO2
14837KMSN MSN20050420164009404/20/05 16:40:31  5-MIN KMSN 202240Z 04013KT 8SM OVC016 11/07 A3001 780 77 500 040/13 RMK AO2
14837KMSN MSN20050420164509404/20/05 16:45:31  5-MIN KMSN 202245Z 04011KT 9SM OVC016 11/07 A3002 770 77 500 040/11 RMK AO2
14837KMSN MSN20050420165011304/20/05 16:50:31  5-MIN KMSN 202250Z 04012KT 10SM OVC016 11/07 A3002 770  77 500 040/12 RMK AO2 SLP167 T01110072
14837KMSN MSN20050420165509604/20/05 16:55:31  5-MIN KMSN 202255Z 05010KT 10SM OVC016 11/07 A3003 770  77 500 040/10 RMK AO2
14837KMSN MSN20050420170009604/20/05 17:00:31  5-MIN KMSN 202300Z 05010KT 10SM OVC016 11/07 A3003 770  77 500 040/10 RMK AO2
14837KMSN MSN20050420170509604/20/05 17:05:31  5-MIN KMSN 202305Z 04009KT 10SM OVC016 11/07 A3003 760  77 500 040/09 RMK AO2
14837KMSN MSN20050420171009604/20/05 17:10:31  5-MIN KMSN 202310Z 04011KT 10SM OVC016 11/07 A3003 760  80 500 040/11 RMK AO2
14837KMSN MSN20050420171509604/20/05 17:15:31  5-MIN KMSN 202315Z 04010KT 10SM OVC016 11/07 A3003 760  77 500 040/10 RMK AO2
14837KMSN MSN20050420172009604/20/05 17:20:31  5-MIN KMSN 202320Z 04010KT 10SM OVC016 11/07 A3003 760  77 500 040/10 RMK AO2
14837KMSN MSN20050420172509604/20/05 17:25:31  5-MIN KMSN 202325Z 04010KT 10SM OVC016 11/07 A3003 770  77 500 040/10 RMK AO2
14837KMSN MSN20050420173009604/20/05 17:30:31  5-MIN KMSN 202330Z 05011KT 10SM OVC016 11/07 A3002 770  77 500 040/11 RMK AO2
14837KMSN MSN20050420173509604/20/05 17:35:31  5-MIN KMSN 202335Z 04014KT 10SM OVC016 11/07 A3002 770  77 500 040/14 RMK AO2
14837KMSN MSN20050420174009604/20/05 17:40:31  5-MIN KMSN 202340Z 04012KT 10SM OVC016 11/07 A3002 770  77 500 040/12 RMK AO2
14837KMSN MSN20050420174510304/20/05 17:45:31  5-MIN KMSN 202345Z 04013KT 10SM BKN018 OVC032 11/07  A3002 780 80 500 040/13 RMK AO2
14837KMSN MSN20050420175013804/20/05 17:50:31  5-MIN KMSN 202350Z 04013KT 10SM BKN018 OVC032 11/07  A3002 780 77 500 040/13 RMK AO2 SLP165 T01060067 10139 20106 50005
14837KMSN MSN20050420175510304/20/05 17:55:31  5-MIN KMSN 202355Z 04011KT 10SM BKN018 OVC032 11/07  A3002 770 77 500 040/11 RMK AO2
14837KMSN MSN20050420180010304/20/05 18:00:31  5-MIN KMSN 210000Z 04011KT 10SM SCT018 OVC032 11/07  A3002 770 77 500 040/11 RMK AO2
14837KMSN MSN20050420180510304/20/05 18:05:31  5-MIN KMSN 210005Z 05013KT 10SM SCT018 OVC032 11/07  A3002 770 77 500 050/13 RMK AO2
14837KMSN MSN20050420181010304/20/05 18:10:31  5-MIN KMSN 210010Z 05011KT 10SM FEW018 OVC032 11/07  A3003 770 77 500 050/11 RMK AO2
14837KMSN MSN20050420181510304/20/05 18:15:31  5-MIN KMSN 210015Z 04009KT 10SM SCT018 OVC032 11/07  A3003 760 77 500 040/09 RMK AO2
14837KMSN MSN20050420182010304/20/05 18:20:31  5-MIN KMSN 210020Z 04013KT 10SM SCT018 OVC032 11/07  A3003 760 77 400 040/13 RMK AO2
14837KMSN MSN20050420182510304/20/05 18:25:31  5-MIN KMSN 210025Z 04012KT 10SM SCT018 OVC032 11/07  A3004 760 77 400 040/12 RMK AO2
14837KMSN MSN20050420183010304/20/05 18:30:31  5-MIN KMSN 210030Z 05013KT 10SM SCT018 OVC032 11/07  A3004 760 77 400 050/13 RMK AO2
14837KMSN MSN20050420183510304/20/05 18:35:31  5-MIN KMSN 210035Z 05013KT 10SM BKN018 OVC032 10/07  A3004 750 80 400 050/13 RMK AO2
14837KMSN MSN20050420184010304/20/05 18:40:31  5-MIN KMSN 210040Z 05011KT 10SM BKN018 OVC032 10/07  A3004 750 80 400 050/11 RMK AO2
14837KMSN MSN20050420184510304/20/05 18:45:31  5-MIN KMSN 210045Z 04009KT 10SM BKN016 OVC032 10/07  A3005 750 80 400 040/09 RMK AO2
14837KMSN MSN20050420185011304/20/05 18:50:31  5-MIN KMSN 210050Z 04011KT 10SM OVC016 10/07 A3005 750  80 400 040/11 RMK AO2 SLP177 T01000067
14837KMSN MSN20050420185509604/20/05 18:55:31  5-MIN KMSN 210055Z 05012KT 10SM OVC016 10/07 A3005 750  80 400 050/12 RMK AO2
14837KMSN MSN20050420190009604/20/05 19:00:31  5-MIN KMSN 210100Z 03009KT 10SM OVC016 10/07 A3005 740  80 400 030/09 RMK AO2
14837KMSN MSN20050420190509604/20/05 19:05:31  5-MIN KMSN 210105Z 03011KT 10SM OVC016 10/07 A3006 740  80 400 030/11 RMK AO2
14837KMSN MSN20050420191009604/20/05 19:10:31  5-MIN KMSN 210110Z 05010KT 10SM OVC016 10/07 A3006 740  80 400 050/10 RMK AO2
14837KMSN MSN20050420191509604/20/05 19:15:31  5-MIN KMSN 210115Z 05011KT 10SM OVC016 10/07 A3006 730  80 300 050/11 RMK AO2
14837KMSN MSN20050420192009604/20/05 19:20:31  5-MIN KMSN 210120Z 04009KT 10SM OVC016 10/06 A3007 730  77 300 040/09 RMK AO2
14837KMSN MSN20050420192509604/20/05 19:25:31  5-MIN KMSN 210125Z 04010KT 10SM OVC016 10/07 A3007 730  80 300 040/10 RMK AO2
14837KMSN MSN20050420193009604/20/05 19:30:31  5-MIN KMSN 210130Z 04012KT 10SM OVC016 10/07 A3007 730  80 300 040/12 RMK AO2
14837KMSN MSN20050420193509604/20/05 19:35:31  5-MIN KMSN 210135Z 04012KT 10SM OVC016 10/06 A3007 730  77 300 040/12 RMK AO2
14837KMSN MSN20050420194009604/20/05 19:40:31  5-MIN KMSN 210140Z 03012KT 10SM OVC016 10/07 A3007 730  80 300 030/12 RMK AO2
14837KMSN MSN20050420194509604/20/05 19:45:31  5-MIN KMSN 210145Z 02011KT 10SM OVC016 10/07 A3007 730  80 300 020/11 RMK AO2
14837KMSN MSN20050420195011304/20/05 19:50:31  5-MIN KMSN 210150Z 03010KT 10SM OVC016 10/06 A3007 720  77 300 030/10 RMK AO2 SLP185 T01000061
14837KMSN MSN20050420195509604/20/05 19:55:31  5-MIN KMSN 210155Z 03009KT 10SM OVC016 10/06 A3007 720  77 300 030/09 RMK AO2
14837KMSN MSN20050420200009604/20/05 20:00:31  5-MIN KMSN 210200Z 05012KT 10SM OVC016 10/06 A3008 720  77 300 050/12 RMK AO2
14837KMSN MSN20050420200509604/20/05 20:05:31  5-MIN KMSN 210205Z 05014KT 10SM OVC016 10/06 A3008 720  77 300 050/14 RMK AO2
14837KMSN MSN20050420201009604/20/05 20:10:31  5-MIN KMSN 210210Z 03012KT 10SM OVC016 09/06 A3008 720  79 300 030/12 RMK AO2
14837KMSN MSN20050420201509604/20/05 20:15:31  5-MIN KMSN 210215Z 04012KT 10SM OVC016 10/06 A3008 710  74 300 040/12 RMK AO2
14837KMSN MSN20050420202009604/20/05 20:20:31  5-MIN KMSN 210220Z 04012KT 10SM OVC016 09/06 A3009 710  76 300 040/12 RMK AO2
14837KMSN MSN20050420202509604/20/05 20:25:31  5-MIN KMSN 210225Z 05011KT 10SM OVC016 10/06 A3009 710  74 300 050/11 RMK AO2
14837KMSN MSN20050420203009604/20/05 20:30:31  5-MIN KMSN 210230Z 05011KT 10SM OVC018 10/06 A3009 710  74 300 050/11 RMK AO2
14837KMSN MSN20050420203509604/20/05 20:35:31  5-MIN KMSN 210235Z 06013KT 10SM OVC018 10/06 A3009 710  74 300 060/13 RMK AO2
14837KMSN MSN20050420204009604/20/05 20:40:31  5-MIN KMSN 210240Z 06012KT 10SM OVC018 09/06 A3009 700  76 200 060/12 RMK AO2
14837KMSN MSN20050420204509604/20/05 20:45:31  5-MIN KMSN 210245Z 06012KT 10SM OVC018 09/06 A3009 700  76 200 060/12 RMK AO2
14837KMSN MSN20050420205011904/20/05 20:50:31  5-MIN KMSN 210250Z 06013KT 10SM OVC020 09/05 A3010 700  74 200 060/13 RMK AO2 SLP193 T00940050 50006
14837KMSN MSN20050420205509604/20/05 20:55:31  5-MIN KMSN 210255Z 06011KT 10SM OVC020 09/05 A3010 700  74 200 060/11 RMK AO2
14837KMSN MSN20050420210009604/20/05 21:00:31  5-MIN KMSN 210300Z 07010KT 10SM OVC020 09/06 A3010 700  76 200 070/10 RMK AO2
14837KMSN MSN20050420210509604/20/05 21:05:31  5-MIN KMSN 210305Z 06010KT 10SM OVC020 09/06 A3010 700  76 200 060/10 RMK AO2
14837KMSN MSN20050420211009604/20/05 21:10:31  5-MIN KMSN 210310Z 06009KT 10SM OVC020 09/06 A3010 700  76 200 060/09 RMK AO2
14837KMSN MSN20050420211509604/20/05 21:15:31  5-MIN KMSN 210315Z 07010KT 10SM OVC020 08/06 A3010 700  82 100 070/10 RMK AO2
14837KMSN MSN20050420212009604/20/05 21:20:31  5-MIN KMSN 210320Z 06009KT 10SM BKN020 09/05 A3010 700  76 200 060/09 RMK AO2
14837KMSN MSN20050420212509604/20/05 21:25:31  5-MIN KMSN 210325Z 06009KT 10SM BKN020 09/05 A3010 690  76 200 060/09 RMK AO2
14837KMSN MSN20050420213009604/20/05 21:30:31  5-MIN KMSN 210330Z 07006KT 10SM SCT020 09/05 A3010 690  76 200 070/06 RMK AO2
14837KMSN MSN20050420213509604/20/05 21:35:31  5-MIN KMSN 210335Z 06006KT 10SM FEW020 08/05 A3011 690  79 100 060/06 RMK AO2
14837KMSN MSN20050420214009604/20/05 21:40:31  5-MIN KMSN 210340Z 06007KT 10SM FEW020 08/05 A3011 690  79 100 060/07 RMK AO2
14837KMSN MSN20050420214509604/20/05 21:45:31  5-MIN KMSN 210345Z 06007KT 10SM FEW020 08/05 A3011 690  79 100 060/07 RMK AO2
14837KMSN MSN20050420215011304/20/05 21:50:31  5-MIN KMSN 210350Z 05007KT 10SM FEW020 08/05 A3011 690  79 100 050/07 RMK AO2 SLP198 T00830050
14837KMSN MSN20050420215509304/20/05 21:55:31  5-MIN KMSN 210355Z 06006KT 10SM CLR 08/05 A3011 690 79  100 060/06 RMK AO2
14837KMSN MSN20050420220009404/20/05 22:00:31  5-MIN KMSN 210400Z 06007KT 10SM FEW020 08/05 A3011 690  82 0 060/07 RMK AO2
14837KMSN MSN20050420220509404/20/05 22:05:31  5-MIN KMSN 210405Z 06007KT 10SM FEW020 08/05 A3011 690  82 0 060/07 RMK AO2
14837KMSN MSN20050420221009404/20/05 22:10:31  5-MIN KMSN 210410Z 07007KT 10SM FEW020 07/05 A3011 690  86 0 070/07 RMK AO2
14837KMSN MSN20050420221509404/20/05 22:15:31  5-MIN KMSN 210415Z 07007KT 10SM FEW020 07/05 A3011 690  86 0 070/07 RMK AO2
14837KMSN MSN20050420222009404/20/05 22:20:31  5-MIN KMSN 210420Z 07005KT 10SM FEW014 07/05 A3011 690  86 0 070/05 RMK AO2
14837KMSN MSN20050420222509404/20/05 22:25:31  5-MIN KMSN 210425Z 07006KT 10SM FEW014 07/05 A3011 690  86 0 070/06 RMK AO2
14837KMSN MSN20050420223009404/20/05 22:30:31  5-MIN KMSN 210430Z 07007KT 10SM FEW014 07/05 A3011 690  86 0 060/07 RMK AO2
14837KMSN MSN20050420223509404/20/05 22:35:31  5-MIN KMSN 210435Z 06007KT 10SM FEW014 07/05 A3012 680  86 0 060/07 RMK AO2
14837KMSN MSN20050420224009004/20/05 22:40:31  5-MIN KMSN 210440Z 06007KT 10SM CLR 07/05 A3012 680 86 0 060/07 RMK AO2
14837KMSN MSN20050420224509004/20/05 22:45:31  5-MIN KMSN 210445Z 06005KT 10SM CLR 07/05 A3012 680 86 0 060/05 RMK AO2
14837KMSN MSN20050420225010704/20/05 22:50:31  5-MIN KMSN 210450Z 06005KT 10SM CLR 07/05 A3012 680 86 0 060/05 RMK AO2 SLP203 T00720050
14837KMSN MSN20050420225509004/20/05 22:55:31  5-MIN KMSN 210455Z 05005KT 10SM CLR 07/04 A3013 670 82 0 050/05 RMK AO2
14837KMSN MSN20050420230009404/20/05 23:00:31  5-MIN KMSN 210500Z 06005KT 10SM CLR 07/04 A3013 670 86  -100 060/05 RMK AO2
14837KMSN MSN20050420230509404/20/05 23:05:31  5-MIN KMSN 210505Z 06007KT 10SM CLR 07/04 A3013 670 86  -100 060/07 RMK AO2
14837KMSN MSN20050420231009404/20/05 23:10:31  5-MIN KMSN 210510Z 07009KT 10SM CLR 07/04 A3013 670 82  -100 070/09 RMK AO2
14837KMSN MSN20050420231509404/20/05 23:15:31  5-MIN KMSN 210515Z 07009KT 10SM CLR 07/03 A3012 680 79  -100 070/09 RMK AO2
14837KMSN MSN20050420232009404/20/05 23:20:31  5-MIN KMSN 210520Z 07010KT 10SM CLR 07/03 A3013 680 79  -100 070/10 RMK AO2
14837KMSN MSN20050420232509404/20/05 23:25:31  5-MIN KMSN 210525Z 07010KT 10SM CLR 07/03 A3013 670 79  -100 070/10 RMK AO2
14837KMSN MSN20050420233009404/20/05 23:30:31  5-MIN KMSN 210530Z 07009KT 10SM CLR 07/03 A3013 670 79  -100 070/09 RMK AO2
14837KMSN MSN20050420233509404/20/05 23:35:31  5-MIN KMSN 210535Z 07007KT 10SM CLR 06/03 A3012 680 79  -100 070/07 RMK AO2
14837KMSN MSN20050420234009404/20/05 23:40:31  5-MIN KMSN 210540Z 07007KT 10SM CLR 06/03 A3012 680 79  -100 070/07 RMK AO2
14837KMSN MSN20050420234509404/20/05 23:45:31  5-MIN KMSN 210545Z 08009KT 10SM CLR 06/03 A3012 680 79  -100 070/09 RMK AO2
14837KMSN MSN20050420235013904/20/05 23:50:31  5-MIN KMSN 210550Z 07010KT 10SM CLR 06/03 A3012 680 79  -100 070/10 RMK AO2 SLP202 T00610028 10106 20061 401720061 51026
14837KMSN MSN20050420235509404/20/05 23:55:31  5-MIN KMSN 210555Z 07009KT 10SM CLR 06/03 A3012 680 79  -100 070/09 RMK AO2
14837KMSN MSN20050421000009404/21/05 00:00:31  5-MIN KMSN 210600Z 07009KT 10SM CLR 06/03 A3012 680 79  -100 060/09 RMK AO2
14837KMSN MSN20050421000509404/21/05 00:05:31  5-MIN KMSN 210605Z 06008KT 10SM CLR 06/02 A3012 680 76  -100 060/08 RMK AO2
14837KMSN MSN20050421001009404/21/05 00:10:31  5-MIN KMSN 210610Z 06008KT 10SM CLR 06/02 A3012 680 76  -100 060/08 RMK AO2
14837KMSN MSN20050421001509404/21/05 00:15:31  5-MIN KMSN 210615Z 05009KT 10SM CLR 06/02 A3012 680 76  -100 050/09 RMK AO2
14837KMSN MSN20050421002009404/21/05 00:20:31  5-MIN KMSN 210620Z 05007KT 10SM CLR 06/02 A3012 680 76  -100 050/07 RMK AO2
14837KMSN MSN20050421002509404/21/05 00:25:31  5-MIN KMSN 210625Z 06008KT 10SM CLR 06/02 A3012 680 76  -100 060/08 RMK AO2
14837KMSN MSN20050421003009404/21/05 00:30:31  5-MIN KMSN 210630Z 06007KT 10SM CLR 06/02 A3012 680 76  -100 060/07 RMK AO2
14837KMSN MSN20050421003509404/21/05 00:35:31  5-MIN KMSN 210635Z 06007KT 10SM CLR 06/02 A3011 690 79  -200 060/07 RMK AO2
14837KMSN MSN20050421004009404/21/05 00:40:31  5-MIN KMSN 210640Z 06010KT 10SM CLR 06/02 A3010 690 79  -200 060/10 RMK AO2
14837KMSN MSN20050421004509404/21/05 00:45:31  5-MIN KMSN 210645Z 06010KT 10SM CLR 06/02 A3010 690 76  -100 060/10 RMK AO2
14837KMSN MSN20050421005011104/21/05 00:50:31  5-MIN KMSN 210650Z 06008KT 10SM CLR 06/02 A3010 700 79  -200 060/08 RMK AO2 SLP198 T00560022
14837KMSN MSN20050421005509404/21/05 00:55:31  5-MIN KMSN 210655Z 06010KT 10SM CLR 06/02 A3010 700 79  -200 060/10 RMK AO2
14837KMSN MSN20050421010009404/21/05 01:00:31  5-MIN KMSN 210700Z 06010KT 10SM CLR 06/02 A3010 700 76  -200 060/10 RMK AO2
14837KMSN MSN20050421010509404/21/05 01:05:31  5-MIN KMSN 210705Z 07010KT 10SM CLR 06/02 A3010 700 76  -200 060/10 RMK AO2
14837KMSN MSN20050421011009404/21/05 01:10:31  5-MIN KMSN 210710Z 06009KT 10SM CLR 06/02 A3010 700 76  -200 060/09 RMK AO2
14837KMSN MSN20050421011509404/21/05 01:15:31  5-MIN KMSN 210715Z 06008KT 10SM CLR 06/02 A3010 700 76  -200 060/08 RMK AO2
14837KMSN MSN20050421012009404/21/05 01:20:31  5-MIN KMSN 210720Z 07008KT 10SM CLR 06/02 A3010 700 76  -200 060/08 RMK AO2
14837KMSN MSN20050421012509404/21/05 01:25:31  5-MIN KMSN 210725Z 06008KT 10SM CLR 05/02 A3010 690 79  -300 060/08 RMK AO2
14837KMSN MSN20050421013009404/21/05 01:30:31  5-MIN KMSN 210730Z 07007KT 10SM CLR 05/02 A3010 700 79  -300 070/07 RMK AO2
14837KMSN MSN20050421013509404/21/05 01:35:31  5-MIN KMSN 210735Z 07005KT 10SM CLR 05/01 A3010 700 76  -300 070/05 RMK AO2
14837KMSN MSN20050421014009404/21/05 01:40:31  5-MIN KMSN 210740Z 07007KT 10SM CLR 05/01 A3010 700 76  -300 070/07 RMK AO2
14837KMSN MSN20050421014509404/21/05 01:45:31  5-MIN KMSN 210745Z 06007KT 10SM CLR 05/01 A3010 700 76  -200 060/07 RMK AO2
14837KMSN MSN20050421015011104/21/05 01:50:31  5-MIN KMSN 210750Z 07007KT 10SM CLR 04/01 A3010 700 79  -300 070/07 RMK AO2 SLP197 T00440011
14837KMSN MSN20050421015509404/21/05 01:55:31  5-MIN KMSN 210755Z 07007KT 10SM CLR 04/01 A3010 700 79  -300 070/07 RMK AO2
14837KMSN MSN20050421020009404/21/05 02:00:31  5-MIN KMSN 210800Z 07007KT 10SM CLR 04/01 A3010 700 79  -300 070/07 RMK AO2
14837KMSN MSN20050421020509404/21/05 02:05:31  5-MIN KMSN 210805Z 07007KT 10SM CLR 04/01 A3010 700 79  -300 070/07 RMK AO2
14837KMSN MSN20050421021009404/21/05 02:10:31  5-MIN KMSN 210810Z 07007KT 10SM CLR 04/01 A3011 690 79  -300 070/07 RMK AO2
14837KMSN MSN20050421021509404/21/05 02:15:31  5-MIN KMSN 210815Z 07005KT 10SM CLR 04/01 A3011 690 79  -300 070/05 RMK AO2
14837KMSN MSN20050421022009404/21/05 02:20:31  5-MIN KMSN 210820Z 06006KT 10SM CLR 04/01 A3010 700 79  -400 060/06 RMK AO2
14837KMSN MSN20050421022509404/21/05 02:25:31  5-MIN KMSN 210825Z 06006KT 10SM CLR 04/01 A3010 690 79  -400 060/06 RMK AO2
14837KMSN MSN20050421023009404/21/05 02:30:31  5-MIN KMSN 210830Z 06005KT 10SM CLR 04/01 A3011 690 79  -400 060/05 RMK AO2
14837KMSN MSN20050421023509404/21/05 02:35:31  5-MIN KMSN 210835Z 06004KT 10SM CLR 04/01 A3011 690 79  -400 060/04 RMK AO2
14837KMSN MSN20050421024009404/21/05 02:40:31  5-MIN KMSN 210840Z 04003KT 10SM CLR 04/01 A3011 690 79  -400 040/03 RMK AO2
14837KMSN MSN20050421024509404/21/05 02:45:31  5-MIN KMSN 210845Z 04005KT 10SM CLR 04/01 A3011 690 79  -400 030/05 RMK AO2
14837KMSN MSN20050421025011704/21/05 02:50:31  5-MIN KMSN 210850Z 05006KT 10SM CLR 03/01 A3012 680 82  -500 050/06 RMK AO2 SLP203 T00330006 50007
14837KMSN MSN20050421025509404/21/05 02:55:31  5-MIN KMSN 210855Z 06005KT 10SM CLR 03/01 A3012 680 82  -500 050/05 RMK AO2
14837KMSN MSN20050421030009404/21/05 03:00:31  5-MIN KMSN 210900Z 05004KT 10SM CLR 03/01 A3012 680 82  -500 050/04 RMK AO2
14837KMSN MSN20050421030509404/21/05 03:05:31  5-MIN KMSN 210905Z 05004KT 10SM CLR 03/01 A3012 680 85  -500 050/04 RMK AO2
14837KMSN MSN20050421031009404/21/05 03:10:31  5-MIN KMSN 210910Z 04004KT 10SM CLR 03/00 A3012 680 82  -500 040/04 RMK AO2
14837KMSN MSN20050421031509404/21/05 03:15:31  5-MIN KMSN 210915Z 03004KT 10SM CLR 03/01 A3011 690 85  -500 030/04 RMK AO2
14837KMSN MSN20050421032009404/21/05 03:20:31  5-MIN KMSN 210920Z 04005KT 10SM CLR 03/01 A3012 680 85  -500 040/05 RMK AO2
14837KMSN MSN20050421032509404/21/05 03:25:31  5-MIN KMSN 210925Z 03005KT 10SM CLR 03/01 A3012 680 85  -500 030/05 RMK AO2
14837KMSN MSN20050421033009404/21/05 03:30:31  5-MIN KMSN 210930Z 03005KT 10SM CLR 03/01 A3012 680 85  -500 030/05 RMK AO2
14837KMSN MSN20050421033509404/21/05 03:35:31  5-MIN KMSN 210935Z 02005KT 10SM CLR 03/01 A3012 680 85  -500 020/05 RMK AO2
14837KMSN MSN20050421034009404/21/05 03:40:31  5-MIN KMSN 210940Z 02006KT 10SM CLR 03/01 A3012 680 85  -500 020/06 RMK AO2
14837KMSN MSN20050421034509404/21/05 03:45:31  5-MIN KMSN 210945Z 02006KT 10SM CLR 03/01 A3012 680 85  -500 020/06 RMK AO2
14837KMSN MSN20050421035011104/21/05 03:50:31  5-MIN KMSN 210950Z 03007KT 10SM CLR 03/01 A3012 680 85  -500 030/07 RMK AO2 SLP204 T00330011
14837KMSN MSN20050421035509404/21/05 03:55:31  5-MIN KMSN 210955Z 03006KT 10SM CLR 03/01 A3012 680 82  -500 020/06 RMK AO2
14837KMSN MSN20050421040009404/21/05 04:00:31  5-MIN KMSN 211000Z 02005KT 10SM CLR 03/01 A3012 680 82  -500 020/05 RMK AO2
14837KMSN MSN20050421040509404/21/05 04:05:31  5-MIN KMSN 211005Z 02006KT 10SM CLR 03/01 A3013 670 82  -500 020/06 RMK AO2
14837KMSN MSN20050421041009404/21/05 04:10:31  5-MIN KMSN 211010Z 02005KT 10SM CLR 03/01 A3014 660 82  -500 020/05 RMK AO2
14837KMSN MSN20050421041509404/21/05 04:15:31  5-MIN KMSN 211015Z 02005KT 10SM CLR 03/01 A3013 670 85  -600 020/05 RMK AO2
14837KMSN MSN20050421042009404/21/05 04:20:31  5-MIN KMSN 211020Z 03006KT 10SM CLR 03/01 A3013 670 85  -600 030/06 RMK AO2
14837KMSN MSN20050421042509404/21/05 04:25:31  5-MIN KMSN 211025Z 03006KT 10SM CLR 03/01 A3013 670 85  -600 030/06 RMK AO2
14837KMSN MSN20050421043009404/21/05 04:30:31  5-MIN KMSN 211030Z 04007KT 10SM CLR 03/01 A3013 680 85  -600 040/07 RMK AO2
14837KMSN MSN20050421043509404/21/05 04:35:31  5-MIN KMSN 211035Z 04006KT 10SM CLR 02/00 A3013 670 85  -600 040/06 RMK AO2
14837KMSN MSN20050421044009404/21/05 04:40:31  5-MIN KMSN 211040Z 03005KT 10SM CLR 02/00 A3013 670 85  -600 030/05 RMK AO2
14837KMSN MSN20050421044509404/21/05 04:45:31  5-MIN KMSN 211045Z 03005KT 10SM CLR 02/00 A3013 670 89  -700 030/05 RMK AO2
14837KMSN MSN20050421045011404/21/05 04:50:31  5-MIN KMSN 211050Z 03005KT 10SM BKN023 02/00 A3013 670  85 -600 030/05 RMK AO2 SLP209 T00220000
14837KMSN MSN20050421045509704/21/05 04:55:31  5-MIN KMSN 211055Z 03005KT 10SM BKN023 02/01 A3013 670  89 -600 030/05 RMK AO2
14837KMSN MSN20050421050009704/21/05 05:00:31  5-MIN KMSN 211100Z 03005KT 10SM BKN023 03/01 A3013 670  85 -600 030/05 RMK AO2
14837KMSN MSN20050421050509704/21/05 05:05:31  5-MIN KMSN 211105Z 03005KT 10SM BKN023 03/01 A3013 670  85 -600 030/05 RMK AO2
14837KMSN MSN20050421051009704/21/05 05:10:31  5-MIN KMSN 211110Z 03007KT 10SM BKN023 03/01 A3013 680  85 -600 030/07 RMK AO2
14837KMSN MSN20050421051509704/21/05 05:15:31  5-MIN KMSN 211115Z 03006KT 10SM BKN023 03/01 A3013 680  85 -600 030/06 RMK AO2
14837KMSN MSN20050421052009704/21/05 05:20:31  5-MIN KMSN 211120Z 04008KT 10SM BKN023 03/01 A3012 680  85 -500 040/08 RMK AO2
14837KMSN MSN20050421052509704/21/05 05:25:31  5-MIN KMSN 211125Z 04009KT 10SM BKN023 03/01 A3012 680  85 -500 040/09 RMK AO2
14837KMSN MSN20050421053009704/21/05 05:30:31  5-MIN KMSN 211130Z 04008KT 10SM BKN023 03/01 A3012 680  85 -600 040/08 RMK AO2
14837KMSN MSN20050421053509704/21/05 05:35:31  5-MIN KMSN 211135Z 05007KT 10SM BKN023 03/01 A3012 680  85 -600 050/07 RMK AO2
14837KMSN MSN20050421054009704/21/05 05:40:31  5-MIN KMSN 211140Z 05007KT 10SM BKN023 03/01 A3012 680  85 -600 050/07 RMK AO2
14837KMSN MSN20050421054509704/21/05 05:45:31  5-MIN KMSN 211145Z 04008KT 10SM SCT025 03/01 A3012 680  85 -600 040/08 RMK AO2
14837KMSN MSN20050421055014504/21/05 05:50:31  5-MIN KMSN 211150Z 05008KT 10SM FEW017 SCT025 03/01  A3013 670 85 -600 050/08 RMK AO2 SLP208 70001 T00280006 10061 20017 55001
14837KMSN MSN20050421055510404/21/05 05:55:31  5-MIN KMSN 211155Z 05007KT 10SM SCT017 BKN025 03/01  A3013 670 85 -600 050/07 RMK AO2
14837KMSN MSN20050421060010404/21/05 06:00:31  5-MIN KMSN 211200Z 05007KT 10SM SCT019 BKN025 03/01  A3013 670 82 -500 050/07 RMK AO2
14837KMSN MSN20050421060509704/21/05 06:05:31  5-MIN KMSN 211205Z 05006KT 10SM SCT019 03/01 A3013 670  82 -500 040/06 RMK AO2
14837KMSN MSN20050421061009704/21/05 06:10:31  5-MIN KMSN 211210Z 04007KT 10SM SCT019 03/01 A3013 670  85 -500 040/07 RMK AO2
14837KMSN MSN20050421061509704/21/05 06:15:31  5-MIN KMSN 211215Z 04009KT 10SM SCT019 03/01 A3013 670  82 -500 040/09 RMK AO2
14837KMSN MSN20050421062009704/21/05 06:20:31  5-MIN KMSN 211220Z 04007KT 10SM FEW019 04/01 A3013 670  82 -400 040/07 RMK AO2
14837KMSN MSN20050421062509704/21/05 06:25:31  5-MIN KMSN 211225Z 05007KT 10SM FEW021 04/01 A3013 670  82 -400 050/07 RMK AO2
14837KMSN MSN20050421063009404/21/05 06:30:31  5-MIN KMSN 211230Z 05008KT 10SM CLR 04/01 A3013 670 79  -400 050/08 RMK AO2
14837KMSN MSN20050421063509404/21/05 06:35:31  5-MIN KMSN 211235Z 05007KT 10SM CLR 04/01 A3013 670 79  -400 040/07 RMK AO2
14837KMSN MSN20050421064009704/21/05 06:40:31  5-MIN KMSN 211240Z 05007KT 10SM FEW016 03/01 A3013 670  82 -500 050/07 RMK AO2
14837KMSN MSN20050421064509704/21/05 06:45:31  5-MIN KMSN 211245Z 06009KT 10SM FEW024 04/01 A3013 670  82 -400 060/09 RMK AO2
14837KMSN MSN20050421065011404/21/05 06:50:31  5-MIN KMSN 211250Z 06009KT 10SM BKN024 04/01 A3013 670  79 -400 060/09 RMK AO2 SLP208 T00440011
14837KMSN MSN20050421065509704/21/05 06:55:31  5-MIN KMSN 211255Z 06009KT 10SM BKN024 04/02 A3013 670  82 -400 060/09 RMK AO2
14837KMSN MSN20050421070009704/21/05 07:00:31  5-MIN KMSN 211300Z 06009KT 10SM BKN024 04/02 A3013 670  82 -400 060/09 RMK AO2
14837KMSN MSN20050421070509704/21/05 07:05:31  5-MIN KMSN 211305Z 07009KT 10SM SCT024 05/02 A3013 670  79 -300 070/09 RMK AO2
14837KMSN MSN20050421071009704/21/05 07:10:31  5-MIN KMSN 211310Z 07012KT 10SM SCT024 05/02 A3014 660  79 -300 070/12 RMK AO2
14837KMSN MSN20050421071509704/21/05 07:15:31  5-MIN KMSN 211315Z 06010KT 10SM SCT024 05/01 A3014 670  76 -300 060/10 RMK AO2
14837KMSN MSN20050421072009704/21/05 07:20:31  5-MIN KMSN 211320Z 05011KT 10SM FEW024 05/01 A3014 670  76 -300 050/11 RMK AO2
14837KMSN MSN20050421072509704/21/05 07:25:31  5-MIN KMSN 211325Z 06012KT 10SM FEW024 06/02 A3014 660  76 -200 060/12 RMK AO2
14837KMSN MSN20050421073009704/21/05 07:30:31  5-MIN KMSN 211330Z 06011KT 10SM FEW024 05/02 A3014 660  79 -300 060/11 RMK AO2
14837KMSN MSN20050421073509404/21/05 07:35:31  5-MIN KMSN 211335Z 07008KT 10SM CLR 06/02 A3014 660 76  -200 070/08 RMK AO2
14837KMSN MSN20050421074009404/21/05 07:40:31  5-MIN KMSN 211340Z 07009KT 10SM CLR 06/02 A3014 660 76  -200 070/09 RMK AO2
14837KMSN MSN20050421074509404/21/05 07:45:31  5-MIN KMSN 211345Z 07008KT 10SM CLR 06/02 A3014 660 76  -200 070/08 RMK AO2
14837KMSN MSN20050421075011104/21/05 07:50:31  5-MIN KMSN 211350Z 05009KT 10SM CLR 06/02 A3014 660 76  -200 050/09 RMK AO2 SLP211 T00560017
14837KMSN MSN20050421075509704/21/05 07:55:31  5-MIN KMSN 211355Z 08008KT 10SM FEW025 06/02 A3014 670  76 -200 070/08 RMK AO2
14837KMSN MSN20050421080009704/21/05 08:00:31  5-MIN KMSN 211400Z 06009KT 10SM FEW025 06/02 A3013 670  76 -200 060/09 RMK AO2
14837KMSN MSN20050421080509704/21/05 08:05:31  5-MIN KMSN 211405Z 06008KT 10SM FEW025 06/02 A3013 670  76 -200 060/08 RMK AO2
14837KMSN MSN20050421081009704/21/05 08:10:31  5-MIN KMSN 211410Z 07008KT 10SM FEW025 07/02 A3014 670  73 -100 070/08 RMK AO2
14837KMSN MSN20050421081509704/21/05 08:15:31  5-MIN KMSN 211415Z 07008KT 10SM FEW025 07/02 A3014 660  73 -100 070/08 RMK AO2
14837KMSN MSN20050421082009704/21/05 08:20:31  5-MIN KMSN 211420Z 06010KT 10SM FEW025 07/03 A3013 670  76 -100 060/10 RMK AO2
14837KMSN MSN20050421082509404/21/05 08:25:31  5-MIN KMSN 211425Z 06007KT 10SM FEW025 07/03 A3013 670  73 0 060/07 RMK AO2
14837KMSN MSN20050421083009404/21/05 08:30:31  5-MIN KMSN 211430Z 06008KT 10SM FEW025 07/03 A3013 670  73 0 060/08 RMK AO2
14837KMSN MSN20050421083509404/21/05 08:35:31  5-MIN KMSN 211435Z 07008KT 10SM FEW025 08/03 A3013 670  70 0 070/08 RMK AO2
14837KMSN MSN20050421084009404/21/05 08:40:31  5-MIN KMSN 211440Z 07008KT 10SM FEW025 07/03 A3013 670  73 0 070/08 RMK AO2
14837KMSN MSN20050421084509404/21/05 08:45:31  5-MIN KMSN 211445Z 08008KT 10SM FEW025 08/03 A3013 670  70 0 080/08 RMK AO2
14837KMSN MSN20050421085011304/21/05 08:50:31  5-MIN KMSN 211450Z 08009KT 10SM CLR 08/03 A3013 670 70 0 080/09 RMK AO2 SLP207 T00780028 50003
14837KMSN MSN20050421085509004/21/05 08:55:31  5-MIN KMSN 211455Z 07007KT 10SM CLR 08/03 A3013 670 70 0 070/07 RMK AO2
14837KMSN MSN20050421090009304/21/05 09:00:31  5-MIN KMSN 211500Z 05008KT 10SM CLR 08/03 A3013 670 68  100 050/08 RMK AO2
14837KMSN MSN20050421090509304/21/05 09:05:31  5-MIN KMSN 211505Z 08008KT 10SM CLR 08/03 A3013 670 68  100 080/08 RMK AO2
14837KMSN MSN20050421091009304/21/05 09:10:31  5-MIN KMSN 211510Z 06009KT 10SM CLR 09/03 A3013 670 65  100 060/09 RMK AO2
14837KMSN MSN20050421091509304/21/05 09:15:31  5-MIN KMSN 211515Z 07007KT 10SM CLR 09/03 A3013 670 65  100 070/07 RMK AO2
14837KMSN MSN20050421092009304/21/05 09:20:31  5-MIN KMSN 211520Z 09009KT 10SM CLR 09/03 A3012 680 65  100 090/09 RMK AO2
14837KMSN MSN20050421092509304/21/05 09:25:31  5-MIN KMSN 211525Z 08010KT 10SM CLR 09/03 A3012 680 65  200 080/10 RMK AO2
14837KMSN MSN20050421093009904/21/05 09:30:31  5-MIN KMSN 211530Z 07011G16KT 10SM CLR 09/03 A3012 680  63 200 070/11G16 RMK AO2
14837KMSN MSN20050421093509304/21/05 09:35:31  5-MIN KMSN 211535Z 07012KT 10SM CLR 09/03 A3011 690 63  200 070/12 RMK AO2
14837KMSN MSN20050421094009304/21/05 09:40:31  5-MIN KMSN 211540Z 09010KT 10SM CLR 09/03 A3012 680 63  200 090/10 RMK AO2
14837KMSN MSN20050421094509304/21/05 09:45:31  5-MIN KMSN 211545Z 07010KT 10SM CLR 10/03 A3011 690 63  300 070/10 RMK AO2
14837KMSN MSN20050421095011004/21/05 09:50:31  5-MIN KMSN 211550Z 09012KT 10SM CLR 10/03 A3011 690 60  300 090/12 RMK AO2 SLP201 T01000028
14837KMSN MSN20050421095509304/21/05 09:55:31  5-MIN KMSN 211555Z 07010KT 10SM CLR 10/03 A3011 690 60  300 070/10 RMK AO2
14837KMSN MSN20050421100009304/21/05 10:00:31  5-MIN KMSN 211600Z 12008KT 10SM CLR 11/02 A3011 690 56  400 120/08 RMK AO2
14837KMSN MSN20050421100509304/21/05 10:05:31  5-MIN KMSN 211605Z 09012KT 10SM CLR 11/03 A3011 690 58  400 090/12 RMK AO2
14837KMSN MSN20050421101009304/21/05 10:10:31  5-MIN KMSN 211610Z 08010KT 10SM CLR 11/02 A3011 690 56  400 080/10 RMK AO2
14837KMSN MSN20050421101509304/21/05 10:15:31  5-MIN KMSN 211615Z 08009KT 10SM CLR 11/02 A3011 690 54  400 080/09 RMK AO2
14837KMSN MSN20050421102009304/21/05 10:20:31  5-MIN KMSN 211620Z 07012KT 10SM CLR 11/02 A3010 700 54  400 070/12 RMK AO2
14837KMSN MSN20050421102509304/21/05 10:25:31  5-MIN KMSN 211625Z 09010KT 10SM CLR 11/02 A3009 700 52  400 090/10 RMK AO2
14837KMSN MSN20050421103011504/21/05 10:30:31  5-MIN KMSN 211630Z 09012G20KT 050V140 10SM CLR 12/02  A3009 710 50 500 090/12G20 050V140 RMK AO2
14837KMSN MSN20050421103510604/21/05 10:35:31  5-MIN KMSN 211635Z 11010G20KT 10SM CLR 12/02 A3008 710  50 500 110/10G20 RMK AO2 PRESFR
14837KMSN MSN20050421104009304/21/05 10:40:31  5-MIN KMSN 211640Z 10012KT 10SM CLR 12/02 A3008 720 50  500 100/12 RMK AO2
14837KMSN MSN20050421104509304/21/05 10:45:31  5-MIN KMSN 211645Z 08009KT 10SM CLR 11/02 A3008 720 52  500 080/09 RMK AO2
14837KMSN MSN20050421105011004/21/05 10:50:31  5-MIN KMSN 211650Z 08010KT 10SM CLR 12/02 A3008 720 50  500 070/10 RMK AO2 SLP188 T01170017
14837KMSN MSN20050421105509304/21/05 10:55:31  5-MIN KMSN 211655Z 08013KT 10SM CLR 12/02 A3007 720 52  500 080/13 RMK AO2
14837KMSN MSN20050421110009304/21/05 11:00:31  5-MIN KMSN 211700Z 09011KT 10SM CLR 12/02 A3007 720 52  500 090/11 RMK AO2
14837KMSN MSN20050421110510804/21/05 11:05:31  5-MIN KMSN 211705Z 09009KT 050V130 10SM CLR 12/02 A3008 720 50 600 090/09 050V130 RMK AO2
14837KMSN MSN20050421111009904/21/05 11:10:31  5-MIN KMSN 211710Z 08015G18KT 10SM CLR 12/02 A3007 720  50 600 080/15G18 RMK AO2
14837KMSN MSN20050421111509904/21/05 11:15:31  5-MIN KMSN 211715Z 09012G18KT 10SM CLR 12/02 A3008 720  50 600 080/12G18 RMK AO2
14837KMSN MSN20050421112009304/21/05 11:20:31  5-MIN KMSN 211720Z 09008KT 10SM CLR 12/03 A3007 720 52  600 090/08 RMK AO2
14837KMSN MSN20050421112509304/21/05 11:25:31  5-MIN KMSN 211725Z 09012KT 10SM CLR 12/03 A3007 720 52  600 080/12 RMK AO2
14837KMSN MSN20050421113009304/21/05 11:30:31  5-MIN KMSN 211730Z 10013KT 10SM CLR 12/02 A3008 720 50  600 100/13 RMK AO2
14837KMSN MSN20050421113509904/21/05 11:35:31  5-MIN KMSN 211735Z 08013G17KT 10SM CLR 12/02 A3008 720  50 600 080/13G17 RMK AO2
14837KMSN MSN20050421114009904/21/05 11:40:31  5-MIN KMSN 211740Z 09012G16KT 10SM CLR 13/03 A3008 720  50 700 080/12G16 RMK AO2
14837KMSN MSN20050421114509304/21/05 11:45:31  5-MIN KMSN 211745Z 10010KT 10SM CLR 13/03 A3008 720 50  700 100/10 RMK AO2
14837KMSN MSN20050421115012804/21/05 11:50:31  5-MIN KMSN 211750Z 10011KT 10SM CLR 13/03 A3008 720 48  700 100/11 RMK AO2 SLP188 T01330028 10133 20028 50001
14837KMSN MSN20050421115509304/21/05 11:55:31  5-MIN KMSN 211755Z 09005KT 10SM CLR 12/02 A3008 720 50  600 090/05 RMK AO2
14837KMSN MSN20050421120009304/21/05 12:00:31  5-MIN KMSN 211800Z 10012KT 10SM CLR 13/03 A3007 720 50  700 090/12 RMK AO2
14837KMSN MSN20050421120509304/21/05 12:05:31  5-MIN KMSN 211805Z 15008KT 10SM CLR 13/03 A3008 720 50  700 140/08 RMK AO2
14837KMSN MSN20050421121009904/21/05 12:10:31  5-MIN KMSN 211810Z 11010G14KT 10SM CLR 13/03 A3007 720  50 700 110/10G14 RMK AO2
14837KMSN MSN20050421121509904/21/05 12:15:31  5-MIN KMSN 211815Z 11010G14KT 10SM CLR 13/02 A3007 730  46 700 110/10G14 RMK AO2
14837KMSN MSN20050421122009304/21/05 12:20:31  5-MIN KMSN 211820Z 08007KT 10SM CLR 13/03 A3006 730 48  700 080/07 RMK AO2
14837KMSN MSN20050421122509304/21/05 12:25:31  5-MIN KMSN 211825Z 12008KT 10SM CLR 13/03 A3006 740 48  800 110/08 RMK AO2
14837KMSN MSN20050421123009304/21/05 12:30:31  5-MIN KMSN 211830Z 09010KT 10SM CLR 13/02 A3005 740 46  800 090/10 RMK AO2
14837KMSN MSN20050421123509304/21/05 12:35:31  5-MIN KMSN 211835Z 08010KT 10SM CLR 13/02 A3005 750 46  800 080/10 RMK AO2
14837KMSN MSN20050421124009304/21/05 12:40:31  5-MIN KMSN 211840Z 09009KT 10SM CLR 13/02 A3005 750 46  800 090/09 RMK AO2
14837KMSN MSN20050421124509304/21/05 12:45:31  5-MIN KMSN 211845Z 12009KT 10SM CLR 13/02 A3005 750 45  800 120/09 RMK AO2
14837KMSN MSN20050421125011004/21/05 12:50:31  5-MIN KMSN 211850Z 10010KT 10SM CLR 13/02 A3005 750 46  800 100/10 RMK AO2 SLP179 T01330022
14837KMSN MSN20050421125511504/21/05 12:55:31  5-MIN KMSN 211855Z 09009G15KT 060V130 10SM CLR 14/02  A3005 750 45 800 090/09G15 060V130 RMK AO2
14837KMSN MSN20050421130009904/21/05 13:00:31  5-MIN KMSN 211900Z 09009G15KT 10SM CLR 14/02 A3005 750  45 800 090/09G15 RMK AO2
14837KMSN MSN20050421130509304/21/05 13:05:31  5-MIN KMSN 211905Z 08010KT 10SM CLR 14/02 A3005 750 45  800 080/10 RMK AO2
14837KMSN MSN20050421131009304/21/05 13:10:31  5-MIN KMSN 211910Z 13011KT 10SM CLR 14/02 A3004 750 43  900 130/11 RMK AO2
14837KMSN MSN20050421131509304/21/05 13:15:31  5-MIN KMSN 211915Z 11006KT 10SM CLR 14/03 A3004 760 45  900 110/06 RMK AO2
14837KMSN MSN20050421132009904/21/05 13:20:31  5-MIN KMSN 211920Z 13013G18KT 10SM CLR 14/02 A3004 760  43 900 130/13G18 RMK AO2
14837KMSN MSN20050421132509904/21/05 13:25:31  5-MIN KMSN 211925Z 08007G18KT 10SM CLR 14/02 A3004 760  43 900 080/07G18 RMK AO2
14837KMSN MSN20050421133009304/21/05 13:30:31  5-MIN KMSN 211930Z 08011KT 10SM CLR 14/02 A3004 750 43  900 080/11 RMK AO2
14837KMSN MSN20050421133509304/21/05 13:35:31  5-MIN KMSN 211935Z 08009KT 10SM CLR 14/02 A3004 760 41  900 080/09 RMK AO2
14837KMSN MSN20050421134009904/21/05 13:40:31  5-MIN KMSN 211940Z 11012G15KT 10SM CLR 14/02 A3003 760  43 900 110/12G15 RMK AO2
14837KMSN MSN20050421134509304/21/05 13:45:31  5-MIN KMSN 211945Z 12007KT 10SM CLR 14/02 A3004 760 43  800 120/07 RMK AO2
14837KMSN MSN20050421135011004/21/05 13:50:31  5-MIN KMSN 211950Z 09011KT 10SM CLR 14/02 A3004 760 41  900 090/11 RMK AO2 SLP175 T01440017
14837KMSN MSN20050421135509304/21/05 13:55:31  5-MIN KMSN 211955Z 11010KT 10SM CLR 14/02 A3004 760 43  900 100/10 RMK AO2
14837KMSN MSN20050421140009304/21/05 14:00:31  5-MIN KMSN 212000Z 08011KT 10SM CLR 14/02 A3004 760 41  900 080/11 RMK AO2
14837KMSN MSN20050421140509904/21/05 14:05:31  5-MIN KMSN 212005Z 09006G14KT 10SM CLR 14/02 A3003 760  43 900 080/06G14 RMK AO2
14837KMSN MSN20050421141009404/21/05 14:10:31  5-MIN KMSN 212010Z 10010KT 10SM CLR 15/02 A3003 760 42  1000 100/10 RMK AO2
14837KMSN MSN20050421141510004/21/05 14:15:31  5-MIN KMSN 212015Z 11011G14KT 10SM CLR 15/02 A3003 760  42 1000 110/11G14 RMK AO2
14837KMSN MSN20050421142010004/21/05 14:20:31  5-MIN KMSN 212020Z 13009G14KT 10SM CLR 15/01 A3003 770  38 1000 130/09G14 RMK AO2
14837KMSN MSN20050421142509304/21/05 14:25:31  5-MIN KMSN 212025Z 13010KT 10SM CLR 14/01 A3002 770 40  900 120/10 RMK AO2
14837KMSN MSN20050421143009304/21/05 14:30:31  5-MIN KMSN 212030Z VRB04KT 10SM CLR 14/02 A3003 770 41  900 VRB/04 RMK AO2
14837KMSN MSN20050421143509404/21/05 14:35:31  5-MIN KMSN 212035Z 12010KT 10SM CLR 15/02 A3002 770 42  1000 120/10 RMK AO2
14837KMSN MSN20050421144009304/21/05 14:40:31  5-MIN KMSN 212040Z 12008KT 10SM CLR 14/01 A3002 770 40  900 110/08 RMK AO2
14837KMSN MSN20050421144509304/21/05 14:45:31  5-MIN KMSN 212045Z VRB04KT 10SM CLR 14/01 A3001 780 40  900 VRB/04 RMK AO2
14837KMSN MSN20050421145011704/21/05 14:50:31  5-MIN KMSN 212050Z 11010KT 10SM CLR 15/02 A3001 780 40  1000 110/10 RMK AO2 SLP167 T01500017 55018
14837KMSN MSN20050421145509704/21/05 14:55:31  5-MIN KMSN 212055Z 11008KT 10SM FEW120 15/02 A3001 780  40 1000 110/08 RMK AO2
14837KMSN MSN20050421150009704/21/05 15:00:31  5-MIN KMSN 212100Z 14008KT 10SM FEW120 15/01 A3001 780  37 1000 140/08 RMK AO2
14837KMSN MSN20050421150509404/21/05 15:05:31  5-MIN KMSN 212105Z 10008KT 10SM CLR 15/01 A3001 780 38  1000 100/08 RMK AO2
14837KMSN MSN20050421151009404/21/05 15:10:31  5-MIN KMSN 212110Z VRB05KT 10SM CLR 15/01 A3001 780 37  1000 VRB/05 RMK AO2
14837KMSN MSN20050421151509404/21/05 15:15:31  5-MIN KMSN 212115Z 10011KT 10SM CLR 15/01 A3001 780 37  1000 100/11 RMK AO2
14837KMSN MSN20050421152009404/21/05 15:20:31  5-MIN KMSN 212120Z 14008KT 10SM CLR 15/01 A3000 790 37  1000 140/08 RMK AO2
14837KMSN MSN20050421152509404/21/05 15:25:31  5-MIN KMSN 212125Z 11008KT 10SM CLR 15/00 A3000 800 35  1000 110/08 RMK AO2
14837KMSN MSN20050421153009304/21/05 15:30:31  5-MIN KMSN 212130Z 12007KT 10SM CLR 14/00 A3000 790 37  900 120/07 RMK AO2
14837KMSN MSN20050421153511004/21/05 15:35:31  5-MIN KMSN 212135Z 12008KT 080V150 10SM CLR 14/M01 A3000 790 35 1000 120/08 080V150 RMK AO2
14837KMSN MSN20050421154009404/21/05 15:40:31  5-MIN KMSN 212140Z 12007KT 10SM CLR 14/01 A3000 790 38  1000 120/07 RMK AO2
14837KMSN MSN20050421154509304/21/05 15:45:31  5-MIN KMSN 212145Z 10008KT 10SM CLR 14/00 A2999 800 38  900 100/08 RMK AO2
14837KMSN MSN20050421155011404/21/05 15:50:31  5-MIN KMSN 212150Z 13008KT 10SM FEW120 16/01 A2999 800  37 1100 130/08 RMK AO2 SLP160 T01560011
14837KMSN MSN20050421155509704/21/05 15:55:31  5-MIN KMSN 212155Z 13008KT 10SM FEW120 15/01 A2999 800  37 1000 130/08 RMK AO2
14837KMSN MSN20050421160009704/21/05 16:00:31  5-MIN KMSN 212200Z 13008KT 10SM SCT120 15/00 A2999 800  35 1000 130/08 RMK AO2
14837KMSN MSN20050421160509704/21/05 16:05:31  5-MIN KMSN 212205Z 14004KT 10SM SCT120 14/M01 A2999 800 35 1000 140/04 RMK AO2
14837KMSN MSN20050421161009704/21/05 16:10:31  5-MIN KMSN 212210Z VRB05KT 10SM SCT120 14/M01 A2998 810 35 1000 VRB/05 RMK AO2
14837KMSN MSN20050421161509704/21/05 16:15:31  5-MIN KMSN 212215Z 13008KT 10SM FEW120 14/00 A2998 810  37 1000 130/08 RMK AO2
14837KMSN MSN20050421162009604/21/05 16:20:31  5-MIN KMSN 212220Z 14008KT 10SM FEW120 14/00 A2999 800  38 900 140/08 RMK AO2
14837KMSN MSN20050421162509704/21/05 16:25:31  5-MIN KMSN 212225Z 11009KT 10SM SCT120 14/00 A2998 810  37 1000 110/09 RMK AO2
14837KMSN MSN20050421163009704/21/05 16:30:31  5-MIN KMSN 212230Z 13007KT 10SM SCT120 14/00 A2998 810  37 1000 130/07 RMK AO2
14837KMSN MSN20050421163509604/21/05 16:35:31  5-MIN KMSN 212235Z 13007KT 10SM FEW120 14/00 A2998 810  38 900 130/07 RMK AO2
14837KMSN MSN20050421164009604/21/05 16:40:31  5-MIN KMSN 212240Z 12009KT 10SM SCT120 14/00 A2997 810  38 900 120/09 RMK AO2
14837KMSN MSN20050421164509604/21/05 16:45:31  5-MIN KMSN 212245Z 10009KT 10SM SCT120 14/M01 A2997 820 37 900 100/09 RMK AO2
14837KMSN MSN20050421165011304/21/05 16:50:31  5-MIN KMSN 212250Z 13009KT 10SM SCT120 14/M01 A2997 820 37 900 130/09 RMK AO2 SLP153 T01391006
14837KMSN MSN20050421165509604/21/05 16:55:31  5-MIN KMSN 212255Z 12010KT 10SM SCT120 14/M01 A2996 820 35 900 120/10 RMK AO2
14837KMSN MSN20050421170009604/21/05 17:00:31  5-MIN KMSN 212300Z 13008KT 10SM BKN120 14/M01 A2996 830 37 900 120/08 RMK AO2
14837KMSN MSN20050421170509604/21/05 17:05:31  5-MIN KMSN 212305Z 11009KT 10SM BKN120 14/M01 A2996 830 37 900 110/09 RMK AO2
14837KMSN MSN20050421171009604/21/05 17:10:31  5-MIN KMSN 212310Z 11009KT 10SM BKN120 13/M01 A2996 820 38 900 110/09 RMK AO2
14837KMSN MSN20050421171509604/21/05 17:15:31  5-MIN KMSN 212315Z 11007KT 10SM BKN120 13/M01 A2996 830 38 900 110/07 RMK AO2
14837KMSN MSN20050421172009604/21/05 17:20:31  5-MIN KMSN 212320Z 11008KT 10SM SCT120 13/M01 A2996 830 38 900 110/08 RMK AO2
14837KMSN MSN20050421172509604/21/05 17:25:31  5-MIN KMSN 212325Z 09010KT 10SM SCT120 13/00 A2996 830  40 900 090/10 RMK AO2
14837KMSN MSN20050421173009604/21/05 17:30:31  5-MIN KMSN 212330Z 09009KT 10SM SCT120 13/00 A2995 830  41 800 090/09 RMK AO2
14837KMSN MSN20050421173509604/21/05 17:35:31  5-MIN KMSN 212335Z 09010KT 10SM SCT120 13/00 A2995 830  41 800 090/10 RMK AO2
14837KMSN MSN20050421174009604/21/05 17:40:31  5-MIN KMSN 212340Z 08010KT 10SM SCT120 13/00 A2995 840  41 800 080/10 RMK AO2
14837KMSN MSN20050421174509604/21/05 17:45:31  5-MIN KMSN 212345Z 09008KT 10SM SCT120 13/00 A2995 840  41 800 090/08 RMK AO2
14837KMSN MSN20050421175013104/21/05 17:50:31  5-MIN KMSN 212350Z 10008KT 10SM SCT120 13/00 A2995 840  41 800 100/08 RMK AO2 SLP145 T01280000 10156 20122 56021
14837KMSN MSN20050421175509604/21/05 17:55:31  5-MIN KMSN 212355Z 10011KT 10SM BKN110 12/01 A2994 840  44 800 100/11 RMK AO2
14837KMSN MSN20050421180009604/21/05 18:00:31  5-MIN KMSN 220000Z 10009KT 10SM BKN110 12/00 A2994 850  43 800 100/09 RMK AO2
14837KMSN MSN20050421180509604/21/05 18:05:31  5-MIN KMSN 220005Z 12011KT 10SM SCT110 12/M01 A2994 850 41 800 110/11 RMK AO2
14837KMSN MSN20050421181009604/21/05 18:10:31  5-MIN KMSN 220010Z 12010KT 10SM SCT110 12/M01 A2993 850 41 800 120/10 RMK AO2
14837KMSN MSN20050421181509604/21/05 18:15:31  5-MIN KMSN 220015Z 12011KT 10SM FEW110 12/M01 A2993 860 39 800 110/11 RMK AO2
14837KMSN MSN20050421182009604/21/05 18:20:31  5-MIN KMSN 220020Z 11010KT 10SM FEW110 12/M01 A2992 860 41 700 110/10 RMK AO2
14837KMSN MSN20050421182509304/21/05 18:25:31  5-MIN KMSN 220025Z 10010KT 10SM CLR 12/M01 A2992 860 41 700 100/10 RMK AO2
14837KMSN MSN20050421183009604/21/05 18:30:31  5-MIN KMSN 220030Z 10010KT 10SM FEW110 11/M01 A2992 860 42 600 100/10 RMK AO2
14837KMSN MSN20050421183509604/21/05 18:35:31  5-MIN KMSN 220035Z 11007KT 10SM FEW110 11/M01 A2993 860 42 600 110/07 RMK AO2
14837KMSN MSN20050421184009604/21/05 18:40:31  5-MIN KMSN 220040Z 11007KT 10SM FEW110 11/M01 A2993 860 44 600 110/07 RMK AO2
14837KMSN MSN20050421184509604/21/05 18:45:31  5-MIN KMSN 220045Z 10007KT 10SM FEW110 11/M01 A2992 860 44 600 100/07 RMK AO2
14837KMSN MSN20050421185011304/21/05 18:50:31  5-MIN KMSN 220050Z 11008KT 10SM FEW110 11/M01 A2992 860 44 600 110/08 RMK AO2 SLP137 T01061011
14837KMSN MSN20050421185509604/21/05 18:55:31  5-MIN KMSN 220055Z 10008KT 10SM FEW110 10/M01 A2992 860 46 500 100/08 RMK AO2
14837KMSN MSN20050421190009604/21/05 19:00:31  5-MIN KMSN 220100Z 10007KT 10SM FEW110 10/M01 A2992 860 46 500 100/07 RMK AO2
14837KMSN MSN20050421190509604/21/05 19:05:31  5-MIN KMSN 220105Z 10006KT 10SM FEW110 10/M01 A2992 870 46 500 100/06 RMK AO2
14837KMSN MSN20050421191009604/21/05 19:10:31  5-MIN KMSN 220110Z 09006KT 10SM FEW110 10/M01 A2992 870 46 500 090/06 RMK AO2
14837KMSN MSN20050421191509604/21/05 19:15:31  5-MIN KMSN 220115Z 07005KT 10SM FEW110 09/M01 A2992 860 49 400 060/05 RMK AO2
14837KMSN MSN20050421192009604/21/05 19:20:31  5-MIN KMSN 220120Z 07006KT 10SM FEW110 09/M01 A2992 860 51 400 070/06 RMK AO2
14837KMSN MSN20050421192509304/21/05 19:25:31  5-MIN KMSN 220125Z 07008KT 10SM CLR 09/00 A2992 870 53  400 070/08 RMK AO2
14837KMSN MSN20050421193009304/21/05 19:30:31  5-MIN KMSN 220130Z 07006KT 10SM CLR 09/00 A2992 860 53  400 070/06 RMK AO2
14837KMSN MSN20050421193509304/21/05 19:35:31  5-MIN KMSN 220135Z 08005KT 10SM CLR 09/00 A2993 860 53  400 080/05 RMK AO2
14837KMSN MSN20050421194009304/21/05 19:40:31  5-MIN KMSN 220140Z 08004KT 10SM CLR 09/00 A2993 850 53  400 080/04 RMK AO2
14837KMSN MSN20050421194509304/21/05 19:45:31  5-MIN KMSN 220145Z 09003KT 10SM CLR 09/00 A2993 850 53  400 090/03 RMK AO2
14837KMSN MSN20050421195011004/21/05 19:50:31  5-MIN KMSN 220150Z 11004KT 10SM CLR 09/M01 A2993 850 51 400 110/04 RMK AO2 SLP141 T00891006
14837KMSN MSN20050421195509304/21/05 19:55:31  5-MIN KMSN 220155Z 10003KT 10SM CLR 09/M01 A2993 850 51 400 090/03 RMK AO2
14837KMSN MSN20050421200009304/21/05 20:00:31  5-MIN KMSN 220200Z 08003KT 10SM CLR 09/M01 A2993 850 51 400 080/03 RMK AO2
14837KMSN MSN20050421200509304/21/05 20:05:31  5-MIN KMSN 220205Z 06003KT 10SM CLR 09/00 A2993 850 53  400 060/03 RMK AO2
14837KMSN MSN20050421201009304/21/05 20:10:31  5-MIN KMSN 220210Z 00000KT 10SM CLR 08/00 A2994 850 55  300 000/00 RMK AO2
14837KMSN MSN20050421201509304/21/05 20:15:31  5-MIN KMSN 220215Z 00000KT 10SM CLR 08/01 A2994 850 58  300 000/00 RMK AO2
14837KMSN MSN20050421202009304/21/05 20:20:31  5-MIN KMSN 220220Z 00000KT 10SM CLR 08/01 A2994 850 58  300 000/00 RMK AO2
14837KMSN MSN20050421202509304/21/05 20:25:31  5-MIN KMSN 220225Z 00000KT 10SM CLR 09/00 A2994 850 53  400 000/00 RMK AO2
14837KMSN MSN20050421203009304/21/05 20:30:31  5-MIN KMSN 220230Z 00000KT 10SM CLR 09/00 A2994 850 53  400 000/00 RMK AO2
14837KMSN MSN20050421203509304/21/05 20:35:31  5-MIN KMSN 220235Z 00000KT 10SM CLR 09/M01 A2994 840 51 400 000/00 RMK AO2
14837KMSN MSN20050421204009304/21/05 20:40:31  5-MIN KMSN 220240Z 00000KT 10SM CLR 09/00 A2994 850 53  400 000/00 RMK AO2
14837KMSN MSN20050421204509304/21/05 20:45:31  5-MIN KMSN 220245Z 00000KT 10SM CLR 08/01 A2994 850 58  300 000/00 RMK AO2
14837KMSN MSN20050421205011604/21/05 20:50:31  5-MIN KMSN 220250Z 07003KT 10SM CLR 08/00 A2993 850 55  300 070/03 RMK AO2 SLP140 T00830000 57023
14837KMSN MSN20050421205509604/21/05 20:55:31  5-MIN KMSN 220255Z 06004KT 10SM FEW100 08/00 A2993 860  55 300 060/04 RMK AO2
14837KMSN MSN20050421210009604/21/05 21:00:31  5-MIN KMSN 220300Z 06003KT 10SM FEW100 08/01 A2993 860  60 200 050/03 RMK AO2
14837KMSN MSN20050421210509604/21/05 21:05:31  5-MIN KMSN 220305Z 06004KT 10SM FEW100 08/01 A2993 860  58 300 060/04 RMK AO2
14837KMSN MSN20050421211009604/21/05 21:10:31  5-MIN KMSN 220310Z 05003KT 10SM FEW100 08/02 A2993 860  65 200 050/03 RMK AO2
14837KMSN MSN20050421211509604/21/05 21:15:31  5-MIN KMSN 220315Z 05003KT 10SM FEW100 08/02 A2992 860  65 200 050/03 RMK AO2
14837KMSN MSN20050421212009304/21/05 21:20:31  5-MIN KMSN 220320Z 06003KT 10SM CLR 08/01 A2992 860 60  200 060/03 RMK AO2
14837KMSN MSN20050421212509604/21/05 21:25:31  5-MIN KMSN 220325Z 05003KT 10SM FEW110 08/01 A2993 860  60 200 050/03 RMK AO2
14837KMSN MSN20050421213009604/21/05 21:30:31  5-MIN KMSN 220330Z 05004KT 10SM FEW110 08/00 A2992 860  58 200 050/04 RMK AO2
14837KMSN MSN20050421213509604/21/05 21:35:31  5-MIN KMSN 220335Z 05004KT 10SM FEW110 07/01 A2992 870  62 200 050/04 RMK AO2
14837KMSN MSN20050421214009604/21/05 21:40:31  5-MIN KMSN 220340Z 06005KT 10SM FEW110 07/01 A2992 870  62 200 060/05 RMK AO2
14837KMSN MSN20050421214509604/21/05 21:45:31  5-MIN KMSN 220345Z 05004KT 10SM FEW110 07/01 A2991 870  62 200 050/04 RMK AO2
14837KMSN MSN20050421215011304/21/05 21:50:31  5-MIN KMSN 220350Z 06004KT 10SM FEW110 07/01 A2991 870  62 200 060/04 RMK AO2 SLP133 T00720006
14837KMSN MSN20050421215509604/21/05 21:55:31  5-MIN KMSN 220355Z 06005KT 10SM FEW095 07/01 A2991 870  62 200 060/05 RMK AO2
14837KMSN MSN20050421220009604/21/05 22:00:31  5-MIN KMSN 220400Z 07005KT 10SM SCT095 07/01 A2991 870  62 200 070/05 RMK AO2
14837KMSN MSN20050421220509604/21/05 22:05:31  5-MIN KMSN 220405Z 08004KT 10SM SCT100 08/01 A2991 880  60 300 080/04 RMK AO2
14837KMSN MSN20050421221009604/21/05 22:10:31  5-MIN KMSN 220410Z 07004KT 10SM SCT100 07/01 A2990 880  62 200 070/04 RMK AO2
14837KMSN MSN20050421221509604/21/05 22:15:31  5-MIN KMSN 220415Z 07004KT 10SM SCT095 07/01 A2990 880  62 200 070/04 RMK AO2
14837KMSN MSN20050421222009604/21/05 22:20:31  5-MIN KMSN 220420Z 06004KT 10SM SCT095 07/01 A2990 880  62 200 060/04 RMK AO2
14837KMSN MSN20050421222509604/21/05 22:25:31  5-MIN KMSN 220425Z 05004KT 10SM SCT095 07/00 A2990 890  60 200 050/04 RMK AO2
14837KMSN MSN20050421223009604/21/05 22:30:31  5-MIN KMSN 220430Z 07005KT 10SM FEW095 07/00 A2989 900  62 100 070/05 RMK AO2
14837KMSN MSN20050421223509604/21/05 22:35:31  5-MIN KMSN 220435Z 06005KT 10SM FEW095 07/00 A2988 900  62 200 060/05 RMK AO2
14837KMSN MSN20050421224009304/21/05 22:40:31  5-MIN KMSN 220440Z 06005KT 10SM CLR 07/00 A2988 900 62  200 060/05 RMK AO2
14837KMSN MSN20050421224509604/21/05 22:45:31  5-MIN KMSN 220445Z 04003KT 10SM FEW095 07/00 A2989 900  62 100 040/03 RMK AO2
14837KMSN MSN20050421225011304/21/05 22:50:31  5-MIN KMSN 220450Z 00000KT 10SM FEW110 07/00 A2989 890  62 100 000/00 RMK AO2 SLP126 T00670000
14837KMSN MSN20050421225509304/21/05 22:55:31  5-MIN KMSN 220455Z 04003KT 10SM CLR 07/M01 A2989 890 57 200 040/03 RMK AO2
14837KMSN MSN20050421230009304/21/05 23:00:31  5-MIN KMSN 220500Z 04004KT 10SM CLR 07/M01 A2988 900 57 200 040/04 RMK AO2
14837KMSN MSN20050421230509304/21/05 23:05:31  5-MIN KMSN 220505Z 05006KT 10SM CLR 06/00 A2988 900 65  100 050/06 RMK AO2
14837KMSN MSN20050421231009604/21/05 23:10:31  5-MIN KMSN 220510Z 05005KT 10SM FEW095 06/00 A2988 900  65 100 050/05 RMK AO2
14837KMSN MSN20050421231509604/21/05 23:15:31  5-MIN KMSN 220515Z 06004KT 10SM SCT095 07/00 A2988 900  62 200 050/04 RMK AO2
14837KMSN MSN20050421232009604/21/05 23:20:31  5-MIN KMSN 220520Z 05005KT 10SM BKN095 07/01 A2988 900  65 200 050/05 RMK AO2
14837KMSN MSN20050421232509604/21/05 23:25:31  5-MIN KMSN 220525Z 06006KT 10SM BKN095 07/01 A2987 910  65 200 060/06 RMK AO2
14837KMSN MSN20050421233009604/21/05 23:30:31  5-MIN KMSN 220530Z 07007KT 10SM BKN095 07/01 A2987 910  65 200 070/07 RMK AO2
14837KMSN MSN20050421233509604/21/05 23:35:31  5-MIN KMSN 220535Z 07006KT 10SM OVC095 07/01 A2987 910  67 200 070/06 RMK AO2
14837KMSN MSN20050421234009604/21/05 23:40:31  5-MIN KMSN 220540Z 07005KT 10SM OVC095 07/01 A2987 910  67 200 070/05 RMK AO2
14837KMSN MSN20050421234509604/21/05 23:45:31  5-MIN KMSN 220545Z 08007KT 10SM OVC095 07/01 A2987 910  67 200 080/07 RMK AO2
14837KMSN MSN20050421235014104/21/05 23:50:31  5-MIN KMSN 220550Z 08006KT 10SM BKN095 07/01 A2987 910  65 200 080/06 RMK AO2 SLP117 T00720011 10122 20061 401560017 56005
14837KMSN MSN20050421235509604/21/05 23:55:31  5-MIN KMSN 220555Z 08007KT 10SM OVC095 07/01 A2987 910  65 200 080/07 RMK AO2
14837KMSN MSN20050422000009604/22/05 00:00:31  5-MIN KMSN 220600Z 09006KT 10SM OVC095 07/01 A2987 910  65 200 080/06 RMK AO2
14837KMSN MSN20050422000509604/22/05 00:05:31  5-MIN KMSN 220605Z 08005KT 10SM BKN095 07/01 A2987 910  67 200 080/05 RMK AO2
14837KMSN MSN20050422001009604/22/05 00:10:31  5-MIN KMSN 220610Z 07004KT 10SM BKN095 07/01 A2987 910  67 200 070/04 RMK AO2
14837KMSN MSN20050422001509604/22/05 00:15:31  5-MIN KMSN 220615Z 07005KT 10SM SCT095 07/01 A2987 910  67 200 070/05 RMK AO2
14837KMSN MSN20050422002009604/22/05 00:20:31  5-MIN KMSN 220620Z 07005KT 10SM FEW100 07/01 A2986 920  67 200 070/05 RMK AO2
14837KMSN MSN20050422002509604/22/05 00:25:31  5-MIN KMSN 220625Z 08004KT 10SM FEW100 06/01 A2986 920  70 100 080/04 RMK AO2
14837KMSN MSN20050422003009304/22/05 00:30:31  5-MIN KMSN 220630Z 10005KT 10SM CLR 07/01 A2986 920 67  200 100/05 RMK AO2
14837KMSN MSN20050422003509304/22/05 00:35:31  5-MIN KMSN 220635Z 10006KT 10SM CLR 07/01 A2986 920 67  200 100/06 RMK AO2
14837KMSN MSN20050422004009604/22/05 00:40:31  5-MIN KMSN 220640Z 10006KT 10SM FEW100 07/01 A2986 920  67 200 090/06 RMK AO2
14837KMSN MSN20050422004509604/22/05 00:45:31  5-MIN KMSN 220645Z 09005KT 10SM SCT100 07/01 A2986 920  65 200 090/05 RMK AO2
14837KMSN MSN20050422005011304/22/05 00:50:31  5-MIN KMSN 220650Z 09005KT 10SM BKN100 07/01 A2985 930  65 200 080/05 RMK AO2 SLP112 T00670006
14837KMSN MSN20050422005509604/22/05 00:55:31  5-MIN KMSN 220655Z 08005KT 10SM BKN100 07/01 A2985 930  67 200 080/05 RMK AO2
14837KMSN MSN20050422010009604/22/05 01:00:31  5-MIN KMSN 220700Z 09006KT 10SM BKN100 07/01 A2984 930  65 200 090/06 RMK AO2
14837KMSN MSN20050422010509604/22/05 01:05:31  5-MIN KMSN 220705Z 08005KT 10SM OVC100 06/01 A2984 940  70 100 080/05 RMK AO2
14837KMSN MSN20050422011009604/22/05 01:10:31  5-MIN KMSN 220710Z 07005KT 10SM BKN100 06/01 A2984 940  70 100 070/05 RMK AO2
14837KMSN MSN20050422011509604/22/05 01:15:31  5-MIN KMSN 220715Z 07004KT 10SM BKN100 06/01 A2983 940  67 100 070/04 RMK AO2
14837KMSN MSN20050422012009604/22/05 01:20:31  5-MIN KMSN 220720Z 07005KT 10SM SCT100 06/01 A2983 950  67 100 070/05 RMK AO2
14837KMSN MSN20050422012509604/22/05 01:25:31  5-MIN KMSN 220725Z 07005KT 10SM SCT100 06/01 A2983 950  70 100 070/05 RMK AO2
14837KMSN MSN20050422013010304/22/05 01:30:31  5-MIN KMSN 220730Z 06005KT 10SM SCT080 SCT100 06/01  A2983 950 73 100 060/05 RMK AO2
14837KMSN MSN20050422013510304/22/05 01:35:31  5-MIN KMSN 220735Z 05005KT 10SM SCT080 BKN095 06/01  A2982 960 73 100 050/05 RMK AO2
14837KMSN MSN20050422014010304/22/05 01:40:31  5-MIN KMSN 220740Z 04004KT 10SM FEW080 BKN095 06/01  A2982 960 73 100 040/04 RMK AO2
14837KMSN MSN20050422014510304/22/05 01:45:31  5-MIN KMSN 220745Z 03005KT 10SM FEW080 BKN095 06/01  A2981 960 73 100 030/05 RMK AO2
14837KMSN MSN20050422015012004/22/05 01:50:31  5-MIN KMSN 220750Z 04005KT 10SM FEW080 OVC095 06/01  A2981 960 73 100 040/05 RMK AO2 SLP098 T00560011
14837KMSN MSN20050422015510304/22/05 01:55:31  5-MIN KMSN 220755Z 04005KT 10SM FEW080 BKN095 06/01  A2981 960 73 100 040/05 RMK AO2
14837KMSN MSN20050422020010304/22/05 02:00:31  5-MIN KMSN 220800Z 04004KT 10SM FEW080 BKN095 06/01  A2981 960 73 100 040/04 RMK AO2
14837KMSN MSN20050422020510304/22/05 02:05:31  5-MIN KMSN 220805Z 07004KT 10SM FEW080 BKN095 06/01  A2981 970 73 100 070/04 RMK AO2
14837KMSN MSN20050422021010304/22/05 02:10:31  5-MIN KMSN 220810Z 07004KT 10SM FEW080 BKN095 06/01  A2981 970 73 100 070/04 RMK AO2
14837KMSN MSN20050422021510304/22/05 02:15:31  5-MIN KMSN 220815Z 06004KT 10SM FEW080 BKN100 06/01  A2981 970 73 100 060/04 RMK AO2
14837KMSN MSN20050422022009604/22/05 02:20:31  5-MIN KMSN 220820Z 06003KT 10SM BKN100 06/01 A2980 970  73 100 060/03 RMK AO2
14837KMSN MSN20050422022509604/22/05 02:25:31  5-MIN KMSN 220825Z 01003KT 10SM BKN100 06/01 A2980 980  73 100 010/03 RMK AO2
14837KMSN MSN20050422023009604/22/05 02:30:31  5-MIN KMSN 220830Z 00000KT 10SM BKN100 06/02 A2980 980  76 100 000/00 RMK AO2
14837KMSN MSN20050422023509604/22/05 02:35:31  5-MIN KMSN 220835Z 00000KT 10SM BKN100 06/02 A2980 980  76 100 000/00 RMK AO2
14837KMSN MSN20050422024009604/22/05 02:40:31  5-MIN KMSN 220840Z 34003KT 10SM OVC100 06/02 A2980 980  76 100 340/03 RMK AO2
14837KMSN MSN20050422024509604/22/05 02:45:31  5-MIN KMSN 220845Z 35003KT 10SM OVC100 06/02 A2980 980  76 100 340/03 RMK AO2
14837KMSN MSN20050422025011904/22/05 02:50:31  5-MIN KMSN 220850Z 35004KT 10SM OVC100 06/02 A2980 980  76 100 350/04 RMK AO2 SLP092 T00560017 58020
14837KMSN MSN20050422025509604/22/05 02:55:31  5-MIN KMSN 220855Z 34004KT 10SM OVC100 06/02 A2980 980  76 100 340/04 RMK AO2
14837KMSN MSN20050422030009604/22/05 03:00:31  5-MIN KMSN 220900Z 33004KT 10SM OVC100 06/02 A2980 980  76 100 330/04 RMK AO2
14837KMSN MSN20050422030509604/22/05 03:05:31  5-MIN KMSN 220905Z 34003KT 10SM OVC100 06/01 A2980 980  73 100 340/03 RMK AO2
14837KMSN MSN20050422031009604/22/05 03:10:31  5-MIN KMSN 220910Z 35003KT 10SM OVC100 06/01 A2979 980  73 100 350/03 RMK AO2
14837KMSN MSN20050422031509604/22/05 03:15:31  5-MIN KMSN 220915Z 36003KT 10SM OVC100 06/02 A2979 990  76 100 360/03 RMK AO2
14837KMSN MSN20050422032009604/22/05 03:20:31  5-MIN KMSN 220920Z 36003KT 10SM OVC100 06/02 A2979 990  76 100 360/03 RMK AO2
14837KMSN MSN20050422032509604/22/05 03:25:31  5-MIN KMSN 220925Z 00000KT 10SM OVC100 06/02 A2979 990  76 100 000/00 RMK AO2
14837KMSN MSN20050422033009604/22/05 03:30:31  5-MIN KMSN 220930Z 00000KT 10SM OVC100 06/02 A2978 990  76 100 000/00 RMK AO2
14837KMSN MSN20050422033509604/22/05 03:35:31  5-MIN KMSN 220935Z 01003KT 10SM OVC100 06/02 A2978 990  76 100 010/03 RMK AO2
14837KMSN MSN20050422034009604/22/05 03:40:31  5-MIN KMSN 220940Z 00000KT 10SM OVC100 06/02 A2978 990  76 100 000/00 RMK AO2
14837KMSN MSN20050422034509604/22/05 03:45:31  5-MIN KMSN 220945Z 33003KT 10SM OVC095 06/02 A2978 990  76 100 330/03 RMK AO2
14837KMSN MSN20050422035012004/22/05 03:50:31  5-MIN KMSN 220950Z 33004KT 10SM BKN085 OVC100 06/02  A2979 990 76 100 330/04 RMK AO2 SLP088 T00560017
14837KMSN MSN20050422035510304/22/05 03:55:31  5-MIN KMSN 220955Z 34004KT 10SM BKN080 OVC100 06/02  A2978 990 76 100 340/04 RMK AO2
14837KMSN MSN20050422040010304/22/05 04:00:31  5-MIN KMSN 221000Z 34004KT 10SM BKN080 OVC095 06/02  A2978 990 76 100 340/04 RMK AO2
14837KMSN MSN20050422040509604/22/05 04:05:31  5-MIN KMSN 221005Z 35004KT 10SM OVC080 06/02 A2978 990  76 100 340/04 RMK AO2
14837KMSN MSN20050422041010304/22/05 04:10:31  5-MIN KMSN 221010Z 35004KT 10SM BKN075 OVC085 06/02  A2978 990 76 100 350/04 RMK AO2
14837KMSN MSN20050422041509604/22/05 04:15:31  5-MIN KMSN 221015Z 34003KT 10SM OVC075 06/02 A2978 990  76 100 340/03 RMK AO2
14837KMSN MSN20050422042009604/22/05 04:20:31  5-MIN KMSN 221020Z 33003KT 10SM OVC075 06/02 A2978 990  76 100 330/03 RMK AO2
14837KMSN MSN20050422042509604/22/05 04:25:31  5-MIN KMSN 221025Z 00000KT 10SM OVC075 06/02 A2978 1000 76 100 000/00 RMK AO2
14837KMSN MSN20050422043009604/22/05 04:30:31  5-MIN KMSN 221030Z 35003KT 10SM OVC075 06/02 A2978 1000 76 100 350/03 RMK AO2
14837KMSN MSN20050422043509604/22/05 04:35:31  5-MIN KMSN 221035Z 35004KT 10SM OVC075 06/02 A2978 1000 79 100 350/04 RMK AO2
14837KMSN MSN20050422044009604/22/05 04:40:31  5-MIN KMSN 221040Z 36003KT 10SM OVC075 06/02 A2977 1000 79 100 360/03 RMK AO2
14837KMSN MSN20050422044511304/22/05 04:45:31  5-MIN KMSN 221045Z 01004KT 10SM -RA OVC075 06/02 A2977  1000 79 100 010/04 RMK AO2 RAB44 P0000
14837KMSN MSN20050422045013004/22/05 04:50:31  5-MIN KMSN 221050Z 02004KT 10SM -RA OVC075 06/02 A2977  1010 76 100 020/04 RMK AO2 RAB44 SLP082 P0000 T00560017
14837KMSN MSN20050422045510704/22/05 04:55:31  5-MIN KMSN 221055Z 02005KT 10SM -RA OVC075 06/02 A2977  1010 79 100 010/05 RMK AO2 P0000
14837KMSN MSN20050422050010704/22/05 05:00:31  5-MIN KMSN 221100Z 02004KT 10SM -RA OVC075 06/02 A2976  1010 79 200 020/04 RMK AO2 P0000
14837KMSN MSN20050422050510704/22/05 05:05:31  5-MIN KMSN 221105Z 02004KT 10SM -RA OVC070 06/02 A2976  1010 79 200 020/04 RMK AO2 P0000
14837KMSN MSN20050422051010704/22/05 05:10:31  5-MIN KMSN 221110Z 02004KT 10SM -RA OVC070 06/02 A2976  1010 79 200 020/04 RMK AO2 P0000
14837KMSN MSN20050422051510704/22/05 05:15:31  5-MIN KMSN 221115Z 01004KT 10SM -RA OVC070 06/02 A2976  1010 79 200 010/04 RMK AO2 P0000
14837KMSN MSN20050422052011304/22/05 05:20:31  5-MIN KMSN 221120Z 01003KT 10SM -RA SCT037 OVC070 06/03 A2976 1010 82 200 010/03 RMK AO2 P0000
14837KMSN MSN20050422052511304/22/05 05:25:31  5-MIN KMSN 221125Z 00000KT 10SM -RA BKN037 OVC070 06/03 A2976 1010 82 200 000/00 RMK AO2 P0000
14837KMSN MSN20050422053011304/22/05 05:30:31  5-MIN KMSN 221130Z 00000KT 10SM -RA BKN037 OVC070 06/03 A2976 1010 82 200 000/00 RMK AO2 P0000
14837KMSN MSN20050422053511604/22/05 05:35:31  5-MIN KMSN 221135Z 34004KT 10SM BKN037 OVC070 06/03  A2976 1010 82 200 330/04 RMK AO2 RAE31 P0000
14837KMSN MSN20050422054011604/22/05 05:40:31  5-MIN KMSN 221140Z 33004KT 10SM BKN037 OVC070 06/03  A2977 1010 82 200 330/04 RMK AO2 RAE31 P0000
14837KMSN MSN20050422054510804/22/05 05:45:31  5-MIN KMSN 221145Z 34004KT 10SM OVC037 06/03 A2977 1010 82 200 340/04 RMK AO2 RAE31 P0000
14837KMSN MSN20050422055014904/22/05 05:50:31  5-MIN KMSN 221150Z 34004KT 10SM OVC037 06/02 A2977 1010 79 100 330/04 RMK AO2 RAE31 SLP083 P0000 60000 T00560022 10072 20056 58024
14837KMSN MSN20050422055510404/22/05 05:55:31  5-MIN KMSN 221155Z 34005KT 10SM FEW024 OVC037 06/02  A2977 1000 79 100 340/05 RMK AO2
14837KMSN MSN20050422060011104/22/05 06:00:31  5-MIN KMSN 221200Z 36004KT 10SM SCT024 SCT030 OVC037  06/02 A2977 1000 76 200 360/04 RMK AO2
14837KMSN MSN20050422060511104/22/05 06:05:31  5-MIN KMSN 221205Z 01004KT 10SM FEW019 BKN029 OVC037  06/03 A2977 1000 79 200 010/04 RMK AO2
14837KMSN MSN20050422061011104/22/05 06:10:31  5-MIN KMSN 221210Z 03003KT 10SM FEW019 BKN025 OVC039  06/03 A2977 1000 79 200 030/03 RMK AO2
14837KMSN MSN20050422061511104/22/05 06:15:31  5-MIN KMSN 221215Z 03005KT 10SM BKN022 BKN029 OVC039  06/03 A2977 1000 79 200 030/05 RMK AO2
14837KMSN MSN20050422062010404/22/05 06:20:31  5-MIN KMSN 221220Z 04005KT 10SM BKN022 OVC029 06/03  A2977 1000 79 200 040/05 RMK AO2
14837KMSN MSN20050422062510404/22/05 06:25:31  5-MIN KMSN 221225Z 04006KT 10SM BKN022 OVC029 06/03  A2977 1000 79 200 040/06 RMK AO2
14837KMSN MSN20050422063009604/22/05 06:30:31  5-MIN KMSN 221230Z 04005KT 10SM BKN022 06/03 A2977 1000 79 200 040/05 RMK AO2
14837KMSN MSN20050422063509604/22/05 06:35:31  5-MIN KMSN 221235Z 05006KT 10SM OVC022 06/03 A2977 1000 79 200 050/06 RMK AO2
14837KMSN MSN20050422064009604/22/05 06:40:31  5-MIN KMSN 221240Z 04006KT 10SM OVC024 06/03 A2977 1010 79 200 040/06 RMK AO2
14837KMSN MSN20050422064509604/22/05 06:45:31  5-MIN KMSN 221245Z 03006KT 10SM BKN024 07/03 A2977 1010 76 300 030/06 RMK AO2
14837KMSN MSN20050422065011304/22/05 06:50:31  5-MIN KMSN 221250Z 03006KT 10SM OVC024 07/03 A2977 1010 76 300 030/06 RMK AO2 SLP083 T00670028
14837KMSN MSN20050422065509604/22/05 06:55:31  5-MIN KMSN 221255Z 04005KT 10SM OVC024 07/03 A2977 1010 79 300 040/05 RMK AO2
14837KMSN MSN20050422070009604/22/05 07:00:31  5-MIN KMSN 221300Z 03005KT 10SM OVC024 07/03 A2977 1010 76 300 030/05 RMK AO2
14837KMSN MSN20050422070509604/22/05 07:05:31  5-MIN KMSN 221305Z 02006KT 10SM OVC024 07/03 A2976 1010 76 300 020/06 RMK AO2
14837KMSN MSN20050422071009604/22/05 07:10:31  5-MIN KMSN 221310Z 02005KT 10SM OVC024 07/03 A2977 1010 79 300 020/05 RMK AO2
14837KMSN MSN20050422071509604/22/05 07:15:31  5-MIN KMSN 221315Z 01005KT 10SM OVC024 07/03 A2977 1010 76 300 010/05 RMK AO2
14837KMSN MSN20050422072009604/22/05 07:20:31  5-MIN KMSN 221320Z 02005KT 10SM OVC024 07/03 A2977 1010 76 300 020/05 RMK AO2
14837KMSN MSN20050422072510404/22/05 07:25:31  5-MIN KMSN 221325Z 03006KT 10SM BKN020 OVC120 07/03  A2977 1010 76 300 030/06 RMK AO2
14837KMSN MSN20050422073010404/22/05 07:30:31  5-MIN KMSN 221330Z 03006KT 10SM SCT020 OVC120 07/03  A2977 1010 76 300 030/06 RMK AO2
14837KMSN MSN20050422073510404/22/05 07:35:31  5-MIN KMSN 221335Z 02006KT 10SM SCT020 OVC120 07/03  A2977 1000 76 300 020/06 RMK AO2
14837KMSN MSN20050422074010404/22/05 07:40:31  5-MIN KMSN 221340Z 03006KT 10SM SCT020 OVC120 07/03  A2977 1000 76 300 030/06 RMK AO2
14837KMSN MSN20050422074510404/22/05 07:45:31  5-MIN KMSN 221345Z 02006KT 10SM FEW020 OVC120 07/03  A2977 1000 79 300 020/06 RMK AO2
14837KMSN MSN20050422075012104/22/05 07:50:31  5-MIN KMSN 221350Z 01006KT 10SM FEW020 OVC120 07/03  A2977 1000 79 300 010/06 RMK AO2 SLP085 T00670033
14837KMSN MSN20050422075509604/22/05 07:55:31  5-MIN KMSN 221355Z 03005KT 10SM FEW028 07/03 A2977 1000 79 300 030/05 RMK AO2
14837KMSN MSN20050422080010404/22/05 08:00:31  5-MIN KMSN 221400Z 02004KT 10SM FEW028 OVC120 07/03  A2977 1000 79 300 020/04 RMK AO2
14837KMSN MSN20050422080510404/22/05 08:05:31  5-MIN KMSN 221405Z 02004KT 10SM FEW028 OVC120 07/03  A2977 1000 76 300 020/04 RMK AO2
14837KMSN MSN20050422081010404/22/05 08:10:31  5-MIN KMSN 221410Z 02004KT 10SM FEW028 OVC120 07/03  A2977 1000 76 300 020/04 RMK AO2
14837KMSN MSN20050422081510404/22/05 08:15:31  5-MIN KMSN 221415Z 01004KT 10SM FEW028 OVC120 07/03  A2978 1000 76 300 010/04 RMK AO2
14837KMSN MSN20050422082010404/22/05 08:20:31  5-MIN KMSN 221420Z 02005KT 10SM FEW025 OVC120 07/03  A2978 1000 76 300 020/05 RMK AO2
14837KMSN MSN20050422082510404/22/05 08:25:31  5-MIN KMSN 221425Z 02004KT 10SM FEW025 OVC120 07/03  A2978 1000 76 300 020/04 RMK AO2
14837KMSN MSN20050422083010404/22/05 08:30:31  5-MIN KMSN 221430Z 07004KT 10SM FEW025 OVC120 07/03  A2978 1000 76 300 070/04 RMK AO2
14837KMSN MSN20050422083510404/22/05 08:35:31  5-MIN KMSN 221435Z 06005KT 10SM SCT038 BKN055 07/03  A2978 1000 76 300 060/05 RMK AO2
14837KMSN MSN20050422084010404/22/05 08:40:31  5-MIN KMSN 221440Z 00000KT 10SM BKN038 BKN060 07/03  A2978 1000 76 300 000/00 RMK AO2
14837KMSN MSN20050422084511004/22/05 08:45:31  5-MIN KMSN 221445Z 36003KT 10SM FEW030 BKN038 BKN060  08/03 A2978 990 73 400 360/03 RMK AO2
14837KMSN MSN20050422085012604/22/05 08:50:31  5-MIN KMSN 221450Z 35003KT 10SM BKN035 OVC060 08/03  A2978 990 73 400 350/03 RMK AO2 SLP089 T00780033 55009
14837KMSN MSN20050422085510404/22/05 08:55:31  5-MIN KMSN 221455Z 01004KT 10SM BKN035 OVC060 08/03  A2978 1000 73 400 010/04 RMK AO2
14837KMSN MSN20050422090010404/22/05 09:00:31  5-MIN KMSN 221500Z 01003KT 10SM BKN035 OVC060 08/03  A2978 1000 73 400 010/03 RMK AO2
14837KMSN MSN20050422090509604/22/05 09:05:31  5-MIN KMSN 221505Z 01003KT 10SM BKN035 08/03 A2978 1000 73 400 010/03 RMK AO2
14837KMSN MSN20050422091009604/22/05 09:10:31  5-MIN KMSN 221510Z 00000KT 10SM BKN033 08/03 A2978 1000 73 400 000/00 RMK AO2
14837KMSN MSN20050422091509604/22/05 09:15:31  5-MIN KMSN 221515Z 00000KT 10SM OVC033 08/03 A2978 1000 73 400 000/00 RMK AO2
14837KMSN MSN20050422092009604/22/05 09:20:31  5-MIN KMSN 221520Z 00000KT 10SM BKN033 08/03 A2977 1000 73 400 000/00 RMK AO2
14837KMSN MSN20050422092509604/22/05 09:25:31  5-MIN KMSN 221525Z 00000KT 10SM BKN033 08/03 A2977 1000 73 400 000/00 RMK AO2
14837KMSN MSN20050422093009604/22/05 09:30:31  5-MIN KMSN 221530Z 08003KT 10SM SCT033 08/03 A2977 1000 73 400 080/03 RMK AO2
14837KMSN MSN20050422093510404/22/05 09:35:31  5-MIN KMSN 221535Z 00000KT 10SM SCT033 OVC120 08/03  A2977 1000 70 400 000/00 RMK AO2
14837KMSN MSN20050422094010404/22/05 09:40:31  5-MIN KMSN 221540Z 00000KT 10SM SCT033 OVC120 08/03  A2978 1000 70 400 000/00 RMK AO2
14837KMSN MSN20050422094510404/22/05 09:45:31  5-MIN KMSN 221545Z 02003KT 10SM SCT033 OVC120 08/03  A2978 1000 70 500 020/03 RMK AO2
14837KMSN MSN20050422095012104/22/05 09:50:31  5-MIN KMSN 221550Z 00000KT 10SM BKN033 OVC120 08/03  A2978 1000 70 500 000/00 RMK AO2 SLP088 T00830033
14837KMSN MSN20050422095509604/22/05 09:55:31  5-MIN KMSN 221555Z 35003KT 10SM BKN033 08/03 A2978 1000 70 500 350/03 RMK AO2
14837KMSN MSN20050422100009604/22/05 10:00:31  5-MIN KMSN 221600Z 36003KT 10SM BKN033 08/03 A2978 990  70 500 360/03 RMK AO2
14837KMSN MSN20050422100509604/22/05 10:05:31  5-MIN KMSN 221605Z 02005KT 10SM BKN035 08/03 A2978 1000 70 500 020/05 RMK AO2
14837KMSN MSN20050422101009604/22/05 10:10:31  5-MIN KMSN 221610Z 03003KT 10SM BKN035 08/03 A2978 1000 70 500 030/03 RMK AO2
14837KMSN MSN20050422101509604/22/05 10:15:31  5-MIN KMSN 221615Z 05005KT 10SM SCT035 08/03 A2978 1000 70 500 050/05 RMK AO2
14837KMSN MSN20050422102009604/22/05 10:20:31  5-MIN KMSN 221620Z 03003KT 10SM SCT037 09/04 A2978 1000 71 500 030/03 RMK AO2
14837KMSN MSN20050422102509604/22/05 10:25:31  5-MIN KMSN 221625Z 02003KT 10SM SCT037 09/03 A2978 1000 68 500 020/03 RMK AO2
14837KMSN MSN20050422103009604/22/05 10:30:31  5-MIN KMSN 221630Z 04004KT 10SM SCT039 09/04 A2978 1000 68 600 040/04 RMK AO2
14837KMSN MSN20050422103509604/22/05 10:35:31  5-MIN KMSN 221635Z VRB04KT 10SM FEW039 09/04 A2978 1000 68 600 VRB/04 RMK AO2
14837KMSN MSN20050422104010404/22/05 10:40:31  5-MIN KMSN 221640Z 02006KT 10SM SCT039 OVC120 09/04  A2978 1000 68 600 020/06 RMK AO2
14837KMSN MSN20050422104510404/22/05 10:45:31  5-MIN KMSN 221645Z 03005KT 10SM SCT039 OVC120 09/03  A2978 1000 65 600 030/05 RMK AO2
14837KMSN MSN20050422105012104/22/05 10:50:31  5-MIN KMSN 221650Z 04005KT 10SM FEW041 OVC120 10/04  A2978 1000 65 700 040/05 RMK AO2 SLP087 T01000039
14837KMSN MSN20050422105509604/22/05 10:55:31  5-MIN KMSN 221655Z 00000KT 10SM BKN043 09/03 A2978 1000 65 600 000/00 RMK AO2
14837KMSN MSN20050422110010404/22/05 11:00:31  5-MIN KMSN 221700Z 01006KT 10SM FEW024 BKN045 10/04  A2978 1000 68 700 010/06 RMK AO2
14837KMSN MSN20050422110510404/22/05 11:05:31  5-MIN KMSN 221705Z VRB05KT 10SM FEW024 BKN045 10/04  A2977 1000 65 700 VRB/05 RMK AO2
14837KMSN MSN20050422111010404/22/05 11:10:31  5-MIN KMSN 221710Z 00000KT 10SM FEW024 BKN045 10/04  A2977 1000 65 700 000/00 RMK AO2
14837KMSN MSN20050422111510404/22/05 11:15:31  5-MIN KMSN 221715Z VRB03KT 10SM FEW024 BKN045 11/04  A2977 1000 66 700 VRB/03 RMK AO2
14837KMSN MSN20050422112010404/22/05 11:20:31  5-MIN KMSN 221720Z 36004KT 10SM SCT024 BKN045 11/04  A2977 1000 63 800 360/04 RMK AO2
14837KMSN MSN20050422112510404/22/05 11:25:31  5-MIN KMSN 221725Z 00000KT 10SM SCT024 BKN045 11/04  A2977 1000 63 800 000/00 RMK AO2
14837KMSN MSN20050422113010404/22/05 11:30:31  5-MIN KMSN 221730Z 01004KT 10SM SCT026 SCT045 11/04  A2977 1010 63 800 010/04 RMK AO2
14837KMSN MSN20050422113509604/22/05 11:35:31  5-MIN KMSN 221735Z 36006KT 10SM SCT026 11/04 A2977 1010 63 800 350/06 RMK AO2
14837KMSN MSN20050422114009604/22/05 11:40:31  5-MIN KMSN 221740Z 02007KT 10SM FEW026 11/04 A2976 1010 63 800 020/07 RMK AO2
14837KMSN MSN20050422114510404/22/05 11:45:31  5-MIN KMSN 221745Z 04005KT 10SM FEW026 OVC120 10/03  A2976 1010 63 700 040/05 RMK AO2
14837KMSN MSN20050422115013904/22/05 11:50:31  5-MIN KMSN 221750Z 03005KT 10SM FEW026 OVC120 10/03  A2976 1010 63 700 020/05 RMK AO2 SLP081 T01000033 10106 20056 53004
14837KMSN MSN20050422115509304/22/05 11:55:31  5-MIN KMSN 221755Z 06006KT 10SM CLR 10/03 A2976 1010 63 700 060/06 RMK AO2
14837KMSN MSN20050422120009604/22/05 12:00:31  5-MIN KMSN 221800Z 04003KT 10SM FEW025 10/03 A2976 1010 63 700 040/03 RMK AO2
14837KMSN MSN20050422120509604/22/05 12:05:31  5-MIN KMSN 221805Z 02006KT 10SM FEW025 10/03 A2976 1010 63 700 020/06 RMK AO2
14837KMSN MSN20050422121009604/22/05 12:10:31  5-MIN KMSN 221810Z 01004KT 10SM FEW025 10/03 A2976 1010 60 700 010/04 RMK AO2
14837KMSN MSN20050422121509604/22/05 12:15:31  5-MIN KMSN 221815Z 05006KT 10SM FEW025 11/03 A2976 1010 61 800 050/06 RMK AO2
14837KMSN MSN20050422122009604/22/05 12:20:31  5-MIN KMSN 221820Z 05004KT 10SM FEW025 10/03 A2976 1010 60 700 050/04 RMK AO2
14837KMSN MSN20050422122509604/22/05 12:25:31  5-MIN KMSN 221825Z 36005KT 10SM FEW025 11/03 A2977 1010 61 800 360/05 RMK AO2
14837KMSN MSN20050422123010404/22/05 12:30:31  5-MIN KMSN 221830Z 01004KT 10SM SCT047 SCT065 11/03  A2977 1010 61 800 010/04 RMK AO2
14837KMSN MSN20050422123511104/22/05 12:35:31  5-MIN KMSN 221835Z 01004KT 10SM SCT047 BKN060 BKN070  11/03 A2976 1010 61 800 010/04 RMK AO2
14837KMSN MSN20050422124010404/22/05 12:40:31  5-MIN KMSN 221840Z 36003KT 10SM FEW047 SCT060 11/03  A2976 1010 61 800 360/03 RMK AO2
14837KMSN MSN20050422124510404/22/05 12:45:31  5-MIN KMSN 221845Z 04004KT 10SM FEW047 SCT060 11/03  A2976 1010 61 800 030/04 RMK AO2
14837KMSN MSN20050422125011304/22/05 12:50:31  5-MIN KMSN 221850Z 00000KT 10SM FEW049 11/03 A2976 1010 58 800 000/00 RMK AO2 SLP082 T01110033
14837KMSN MSN20050422125509604/22/05 12:55:31  5-MIN KMSN 221855Z 00000KT 10SM FEW060 11/03 A2977 1010 61 800 000/00 RMK AO2
14837KMSN MSN20050422130009604/22/05 13:00:31  5-MIN KMSN 221900Z 01008KT 10SM FEW060 11/04 A2977 1000 61 800 360/08 RMK AO2
14837KMSN MSN20050422130509604/22/05 13:05:31  5-MIN KMSN 221905Z 35008KT 9SM FEW030 11/04 A2977 1000  63 800 350/08 RMK AO2
14837KMSN MSN20050422131009604/22/05 13:10:31  5-MIN KMSN 221910Z 36008KT 9SM FEW030 11/04 A2977 1000  63 800 360/08 RMK AO2
14837KMSN MSN20050422131509604/22/05 13:15:31  5-MIN KMSN 221915Z 35005KT 8SM FEW030 11/04 A2977 1000  63 800 350/05 RMK AO2
14837KMSN MSN20050422132009604/22/05 13:20:31  5-MIN KMSN 221920Z 35011KT 9SM FEW030 12/04 A2977 1000  61 900 350/11 RMK AO2
14837KMSN MSN20050422132509604/22/05 13:25:31  5-MIN KMSN 221925Z 36010KT 9SM FEW030 12/04 A2977 1000  58 900 360/10 RMK AO2
14837KMSN MSN20050422133009304/22/05 13:30:31  5-MIN KMSN 221930Z 01014KT 9SM CLR 12/03 A2978 1000 56  900 010/14 RMK AO2
14837KMSN MSN20050422133509304/22/05 13:35:31  5-MIN KMSN 221935Z 36009KT 10SM CLR 12/03 A2978 1000 54 900 360/09 RMK AO2
14837KMSN MSN20050422134009304/22/05 13:40:31  5-MIN KMSN 221940Z 34010KT 10SM CLR 12/03 A2977 1000 54 900 340/10 RMK AO2
14837KMSN MSN20050422134509304/22/05 13:45:31  5-MIN KMSN 221945Z 01012KT 10SM CLR 12/02 A2978 1000 52 900 010/12 RMK AO2
14837KMSN MSN20050422135011004/22/05 13:50:31  5-MIN KMSN 221950Z 36011KT 10SM CLR 12/02 A2978 1000 52 900 360/11 RMK AO2 SLP086 T01170022
14837KMSN MSN20050422135509304/22/05 13:55:31  5-MIN KMSN 221955Z 34011KT 10SM CLR 12/03 A2978 1000 54 900 340/11 RMK AO2
14837KMSN MSN20050422140009304/22/05 14:00:31  5-MIN KMSN 222000Z 33009KT 10SM CLR 12/03 A2978 1000 54 900 330/09 RMK AO2
14837KMSN MSN20050422140509304/22/05 14:05:31  5-MIN KMSN 222005Z 34008KT 9SM CLR 12/03 A2978 1000 56  900 340/08 RMK AO2
14837KMSN MSN20050422141009904/22/05 14:10:31  5-MIN KMSN 222010Z 35011G15KT 10SM CLR 12/03 A2978 1000 56 900 350/11G15 RMK AO2
14837KMSN MSN20050422141509304/22/05 14:15:31  5-MIN KMSN 222015Z 36012KT 10SM CLR 12/03 A2978 1000 54 900 360/12 RMK AO2
14837KMSN MSN20050422142009304/22/05 14:20:31  5-MIN KMSN 222020Z 35010KT 10SM CLR 12/02 A2978 1000 52 900 350/10 RMK AO2
14837KMSN MSN20050422142509304/22/05 14:25:31  5-MIN KMSN 222025Z 36011KT 10SM CLR 12/02 A2977 1000 52 900 360/11 RMK AO2
14837KMSN MSN20050422143009304/22/05 14:30:31  5-MIN KMSN 222030Z 35011KT 10SM CLR 12/02 A2977 1000 52 900 350/11 RMK AO2
14837KMSN MSN20050422143509304/22/05 14:35:31  5-MIN KMSN 222035Z 36012KT 10SM CLR 12/02 A2978 1000 52 900 360/12 RMK AO2
14837KMSN MSN20050422144009304/22/05 14:40:31  5-MIN KMSN 222040Z 36013KT 10SM CLR 12/02 A2977 1000 52 900 360/13 RMK AO2
14837KMSN MSN20050422144509304/22/05 14:45:31  5-MIN KMSN 222045Z 02012KT 10SM CLR 12/02 A2978 1000 52 900 020/12 RMK AO2
14837KMSN MSN20050422145011904/22/05 14:50:31  5-MIN KMSN 222050Z 01014KT 10SM FEW065 12/02 A2978 1000 52 900 010/14 RMK AO2 SLP086 T01170022 58006
14837KMSN MSN20050422145509604/22/05 14:55:31  5-MIN KMSN 222055Z 02015KT 10SM FEW065 12/02 A2978 1000 50 900 020/15 RMK AO2
14837KMSN MSN20050422150009304/22/05 15:00:31  5-MIN KMSN 222100Z 02012KT 10SM CLR 12/02 A2978 1000 52 900 020/12 RMK AO2
14837KMSN MSN20050422150509304/22/05 15:05:31  5-MIN KMSN 222105Z 02013KT 10SM CLR 12/02 A2977 1000 48 900 020/13 RMK AO2
14837KMSN MSN20050422151009304/22/05 15:10:31  5-MIN KMSN 222110Z 01013KT 10SM CLR 12/02 A2978 1000 48 900 010/13 RMK AO2
14837KMSN MSN20050422151509304/22/05 15:15:31  5-MIN KMSN 222115Z 01014KT 10SM CLR 12/01 A2978 1000 46 900 010/14 RMK AO2
14837KMSN MSN20050422152009604/22/05 15:20:31  5-MIN KMSN 222120Z 01013KT 10SM FEW070 12/01 A2978 990  44 900 010/13 RMK AO2
14837KMSN MSN20050422152509604/22/05 15:25:31  5-MIN KMSN 222125Z 03010KT 10SM FEW070 12/01 A2978 990  44 900 020/10 RMK AO2
14837KMSN MSN20050422153009604/22/05 15:30:31  5-MIN KMSN 222130Z 02010KT 10SM FEW100 12/01 A2978 990  44 900 020/10 RMK AO2
14837KMSN MSN20050422153509604/22/05 15:35:31  5-MIN KMSN 222135Z 04011KT 10SM FEW100 12/01 A2978 990  46 900 040/11 RMK AO2
14837KMSN MSN20050422154009604/22/05 15:40:31  5-MIN KMSN 222140Z 04011KT 10SM FEW100 12/01 A2978 990  44 900 040/11 RMK AO2
14837KMSN MSN20050422154509604/22/05 15:45:31  5-MIN KMSN 222145Z 03010KT 10SM FEW100 12/01 A2978 990  44 900 030/10 RMK AO2
14837KMSN MSN20050422155011304/22/05 15:50:31  5-MIN KMSN 222150Z 04008KT 10SM FEW100 12/01 A2978 990  44 900 040/08 RMK AO2 SLP088 T01220006
14837KMSN MSN20050422155509304/22/05 15:55:31  5-MIN KMSN 222155Z 05008KT 10SM CLR 12/01 A2978 990 44  900 050/08 RMK AO2
14837KMSN MSN20050422160009604/22/05 16:00:31  5-MIN KMSN 222200Z 05010KT 10SM FEW100 12/00 A2978 990  43 900 050/10 RMK AO2
14837KMSN MSN20050422160509604/22/05 16:05:31  5-MIN KMSN 222205Z 06008KT 10SM FEW100 12/00 A2978 990  43 900 050/08 RMK AO2
14837KMSN MSN20050422161009604/22/05 16:10:31  5-MIN KMSN 222210Z 05008KT 10SM FEW100 12/01 A2978 990  44 900 050/08 RMK AO2
14837KMSN MSN20050422161509604/22/05 16:15:31  5-MIN KMSN 222215Z 05008KT 10SM FEW055 12/00 A2978 990  43 900 050/08 RMK AO2
14837KMSN MSN20050422162009604/22/05 16:20:31  5-MIN KMSN 222220Z 05009KT 10SM FEW055 12/00 A2978 990  43 900 050/09 RMK AO2
14837KMSN MSN20050422162509604/22/05 16:25:31  5-MIN KMSN 222225Z 03008KT 10SM SCT055 12/01 A2978 990  44 900 030/08 RMK AO2
14837KMSN MSN20050422163009604/22/05 16:30:31  5-MIN KMSN 222230Z 04010KT 10SM SCT055 12/01 A2978 990  46 900 040/10 RMK AO2
14837KMSN MSN20050422163509604/22/05 16:35:31  5-MIN KMSN 222235Z 02011KT 10SM SCT055 12/01 A2978 990  46 900 020/11 RMK AO2
14837KMSN MSN20050422164010204/22/05 16:40:31  5-MIN KMSN 222240Z 03014G18KT 10SM SCT055 12/01 A2978  990 46 900 030/14G18 RMK AO2
14837KMSN MSN20050422164510204/22/05 16:45:31  5-MIN KMSN 222245Z 02014G18KT 10SM FEW055 12/01 A2978  990 44 900 020/14G18 RMK AO2
14837KMSN MSN20050422165011304/22/05 16:50:31  5-MIN KMSN 222250Z 03010KT 10SM FEW055 12/01 A2979 990  44 900 030/10 RMK AO2 SLP089 T01220006
14837KMSN MSN20050422165509604/22/05 16:55:31  5-MIN KMSN 222255Z 04012KT 10SM FEW055 12/02 A2978 990  48 900 040/12 RMK AO2
14837KMSN MSN20050422170009604/22/05 17:00:31  5-MIN KMSN 222300Z 03013KT 10SM FEW055 12/01 A2978 990  48 900 030/13 RMK AO2
14837KMSN MSN20050422170509604/22/05 17:05:31  5-MIN KMSN 222305Z 05012KT 10SM FEW055 12/01 A2979 990  48 900 040/12 RMK AO2
14837KMSN MSN20050422171009604/22/05 17:10:31  5-MIN KMSN 222310Z 04012KT 10SM FEW055 12/02 A2979 990  50 900 040/12 RMK AO2
14837KMSN MSN20050422171509604/22/05 17:15:31  5-MIN KMSN 222315Z 04011KT 10SM FEW055 12/02 A2979 990  50 900 040/11 RMK AO2
14837KMSN MSN20050422172009604/22/05 17:20:31  5-MIN KMSN 222320Z 05014KT 10SM FEW055 12/02 A2979 990  50 900 050/14 RMK AO2
14837KMSN MSN20050422172509604/22/05 17:25:31  5-MIN KMSN 222325Z 04013KT 10SM FEW055 11/02 A2979 990  52 800 040/13 RMK AO2
14837KMSN MSN20050422173009604/22/05 17:30:31  5-MIN KMSN 222330Z 04011KT 10SM FEW055 11/02 A2979 990  52 800 040/11 RMK AO2
14837KMSN MSN20050422173509604/22/05 17:35:31  5-MIN KMSN 222335Z 04013KT 10SM FEW065 11/02 A2979 990  52 800 040/13 RMK AO2
14837KMSN MSN20050422174009604/22/05 17:40:31  5-MIN KMSN 222340Z 04010KT 10SM FEW065 11/02 A2979 990  52 800 040/10 RMK AO2
14837KMSN MSN20050422174509604/22/05 17:45:31  5-MIN KMSN 222345Z 04008KT 10SM FEW065 11/02 A2979 990  54 800 040/08 RMK AO2
14837KMSN MSN20050422175014604/22/05 17:50:31  5-MIN KMSN 222350Z 04008KT 10SM SCT047 BKN055 11/02  A2979 990 54 800 040/08 RMK AO2 SLP091 VIRGA N T01110022 10122 20100 51005
14837KMSN MSN20050422175510304/22/05 17:55:31  5-MIN KMSN 222355Z 03008KT 10SM BKN049 BKN060 11/02  A2979 990 54 800 030/08 RMK AO2
14837KMSN MSN20050422180012604/22/05 18:00:31  5-MIN KMSN 230000Z 02007KT 9SM -RA FEW039 BKN049 BKN060 11/02 A2979 980 54 800 020/07 RMK AO2 RAB2357 P0000
14837KMSN MSN20050422180512604/22/05 18:05:31  5-MIN KMSN 230005Z 04008KT 7SM -RA FEW037 BKN049 OVC060 11/03 A2979 980 58 700 040/08 RMK AO2 RAB2357 P0000
14837KMSN MSN20050422181012604/22/05 18:10:31  5-MIN KMSN 230010Z 33008KT 6SM -RA SCT035 BKN047 OVC055 10/03 A2979 980 63 700 330/08 RMK AO2 RAB2357 P0000
14837KMSN MSN20050422181512004/22/05 18:15:31  5-MIN KMSN 230015Z 01010KT 7SM -RA SCT035 OVC055 09/03  A2979 980 63 600 010/10 RMK AO2 RAB2357 P0000
14837KMSN MSN20050422182012004/22/05 18:20:31  5-MIN KMSN 230020Z 36010KT 10SM -RA SCT044 OVC060 09/03 A2980 980 65 600 360/10 RMK AO2 RAB2357 P0000
14837KMSN MSN20050422182516404/22/05 18:25:31  5-MIN KMSN 230025Z 35019G27KT 10SM FEW028 BKN044 OVC060 09/04 A2981 960 68 600 350/19G27 RMK AO2 PK WND 36027/0025 RAB2357E21  PRESRR VIRGA P0000
14837KMSN MSN20050422183015904/22/05 18:30:31  5-MIN KMSN 230030Z 35016G27KT 7SM -RA FEW025 BKN040  OVC050 08/05 A2982 960 79 400 350/16G27 RMK AO2 PK WND 36027/0026 RAB2357  PRESRR P0000
14837KMSN MSN20050422183515204/22/05 18:35:31  5-MIN KMSN 230035Z 35017G27KT 6SM -RA SCT036 BKN043  OVC060 08/06 A2982 950 82 400 350/17G27 RMK AO2 PK WND 36027/0026 RAB2357  P0000
14837KMSN MSN20050422184015504/22/05 18:40:31  5-MIN KMSN 230040Z 35019G26KT 3SM -RA BR FEW021 BKN038  OVC050 08/06 A2983 950 86 400 350/19G26 RMK AO2 PK WND 36027/0026 RAB2357  P0000
14837KMSN MSN20050422184515904/22/05 18:45:31  5-MIN KMSN 230045Z 35019G27KT 2 1/2SM -RA BR FEW021  BKN038 OVC055 08/06 A2983 950 86 300 350/19G27 RMK AO2 PK WND 36027/0041  RAB2357 P0001
14837KMSN MSN20050422185017504/22/05 18:50:31  5-MIN KMSN 230050Z 35013G27KT 3SM -RA BR FEW026 OVC038  07/06 A2983 950 89 300 350/13G27 RMK AO2 PK WND 36027/0041 SFC VIS 4  RAB2357 SLP106 P0002 T00720056
14837KMSN MSN20050422185513104/22/05 18:55:31  5-MIN KMSN 230055Z 33012G23KT 3SM -RA BR FEW024 OVC036  07/06 A2983 950 89 300 330/12G23 RMK AO2 SFC VIS 4 P0000
14837KMSN MSN20050422190013104/22/05 19:00:31  5-MIN KMSN 230100Z 34013G20KT 3SM -RA BR FEW024 OVC038  07/06 A2983 950 89 300 330/13G20 RMK AO2 SFC VIS 4 P0000
14837KMSN MSN20050422190512104/22/05 19:05:31  5-MIN KMSN 230105Z 35011G20KT 6SM -RA BR FEW024 OVC038  07/06 A2984 940 89 300 340/11G20 RMK AO2 P0000
14837KMSN MSN20050422191012204/22/05 19:10:31  5-MIN KMSN 230110Z 35014KT 6SM -RA BR FEW024 BKN038  OVC045 07/06 A2985 930 89 300 350/14 RMK AO2 P0000
14837KMSN MSN20050422191511904/22/05 19:15:31  5-MIN KMSN 230115Z 35011KT 10SM -RA FEW024 BKN038 OVC046 07/06 A2985 930 89 300 350/11 RMK AO2 P0000
14837KMSN MSN20050422192011904/22/05 19:20:31  5-MIN KMSN 230120Z 35011KT 10SM -RA BKN038 BKN047 OVC055 07/06 A2985 930 89 300 350/11 RMK AO2 P0000
14837KMSN MSN20050422192511204/22/05 19:25:31  5-MIN KMSN 230125Z 35010KT 10SM -RA BKN040 OVC050 07/06 A2986 920 89 200 350/10 RMK AO2 P0000
14837KMSN MSN20050422193011204/22/05 19:30:31  5-MIN KMSN 230130Z 35008KT 10SM -RA BKN042 OVC050 07/06 A2986 920 89 200 350/08 RMK AO2 P0000
14837KMSN MSN20050422193511204/22/05 19:35:31  5-MIN KMSN 230135Z 35010KT 10SM -RA BKN042 OVC050 07/06 A2987 920 89 200 350/10 RMK AO2 P0000
14837KMSN MSN20050422194011204/22/05 19:40:31  5-MIN KMSN 230140Z 35009KT 10SM -RA BKN040 OVC050 07/06 A2987 910 89 200 350/09 RMK AO2 P0000
14837KMSN MSN20050422194511204/22/05 19:45:31  5-MIN KMSN 230145Z 35014KT 10SM -RA BKN040 OVC048 07/05 A2987 910 86 200 350/14 RMK AO2 P0000
14837KMSN MSN20050422195013204/22/05 19:50:31  5-MIN KMSN 230150Z 34011KT 10SM FEW020 OVC040 07/05  A2987 910 86 200 340/11 RMK AO2 RAE50 SLP120 P0000 T00720050
14837KMSN MSN20050422195510304/22/05 19:55:31  5-MIN KMSN 230155Z 33012KT 10SM FEW010 OVC040 07/05  A2987 910 86 200 330/12 RMK AO2
14837KMSN MSN20050422200010904/22/05 20:00:31  5-MIN KMSN 230200Z 34009G17KT 10SM FEW010 OVC040 07/05  A2988 900 86 200 340/09G17 RMK AO2
14837KMSN MSN20050422200510304/22/05 20:05:31  5-MIN KMSN 230205Z 35009KT 10SM FEW010 OVC040 07/05  A2988 900 86 200 350/09 RMK AO2
14837KMSN MSN20050422201010304/22/05 20:10:31  5-MIN KMSN 230210Z 35010KT 10SM FEW010 OVC040 07/05  A2989 900 86 200 350/10 RMK AO2
14837KMSN MSN20050422201510304/22/05 20:15:31  5-MIN KMSN 230215Z 35010KT 10SM FEW027 OVC036 07/04  A2989 890 82 200 350/10 RMK AO2
14837KMSN MSN20050422202011504/22/05 20:20:31  5-MIN KMSN 230220Z 02017G22KT 10SM FEW027 OVC034 07/04  A2989 890 82 200 020/17G22 RMK AO2 P0001
14837KMSN MSN20050422202511504/22/05 20:25:31  5-MIN KMSN 230225Z 01018G22KT 10SM FEW019 OVC034 07/03  A2989 890 76 200 010/18G22 RMK AO2 P0001
14837KMSN MSN20050422203012104/22/05 20:30:31  5-MIN KMSN 230230Z 02016G22KT 10SM FEW019 BKN034 OVC043 07/02 A2990 890 68 200 020/16G22 RMK AO2 P0001
14837KMSN MSN20050422203510904/22/05 20:35:31  5-MIN KMSN 230235Z 02014KT 10SM BKN034 OVC043 07/01  A2990 880 67 100 020/14 RMK AO2 P0001
14837KMSN MSN20050422204010904/22/05 20:40:31  5-MIN KMSN 230240Z 01015KT 10SM SCT034 OVC043 07/01  A2990 880 67 100 010/15 RMK AO2 P0001
14837KMSN MSN20050422204510904/22/05 20:45:31  5-MIN KMSN 230245Z 01017KT 10SM FEW035 OVC042 07/01  A2990 880 67 100 010/17 RMK AO2 P0001
14837KMSN MSN20050422205013804/22/05 20:50:31  5-MIN KMSN 230250Z 02013KT 10SM FEW033 OVC042 07/01  A2991 880 67 100 020/13 RMK AO2 SLP132 P0001 60003 T00670011 53004
14837KMSN MSN20050422205510304/22/05 20:55:31  5-MIN KMSN 230255Z 01012KT 10SM SCT033 OVC042 06/01  A2991 880 70 100 010/12 RMK AO2
14837KMSN MSN20050422210010304/22/05 21:00:31  5-MIN KMSN 230300Z 01013KT 10SM BKN035 OVC042 06/02  A2991 870 73 100 010/13 RMK AO2
14837KMSN MSN20050422210510304/22/05 21:05:31  5-MIN KMSN 230305Z 01013KT 10SM BKN035 OVC044 06/02  A2991 870 73 100 010/13 RMK AO2
14837KMSN MSN20050422211010904/22/05 21:10:31  5-MIN KMSN 230310Z 01017G20KT 10SM BKN033 OVC044 06/02  A2991 870 73 100 010/17G20 RMK AO2
14837KMSN MSN20050422211510204/22/05 21:15:31  5-MIN KMSN 230315Z 36012G20KT 10SM OVC033 06/02 A2991  870 73 100 360/12G20 RMK AO2
14837KMSN MSN20050422212010004/22/05 21:20:31  5-MIN KMSN 230320Z 35014G18KT 10SM OVC033 06/01 A2991  870 73 0 350/14G18 RMK AO2
14837KMSN MSN20050422212510004/22/05 21:25:31  5-MIN KMSN 230325Z 36017G21KT 10SM OVC032 06/01 A2991  870 70 0 360/17G21 RMK AO2
14837KMSN MSN20050422213010004/22/05 21:30:31  5-MIN KMSN 230330Z 01016G23KT 10SM OVC032 06/01 A2991  870 70 0 360/16G23 RMK AO2
14837KMSN MSN20050422213511804/22/05 21:35:31  5-MIN KMSN 230335Z 36020G26KT 10SM OVC034 06/01 A2992  870 70 0 360/20G26 RMK AO2 PK WND 01026/0334
14837KMSN MSN20050422214011804/22/05 21:40:31  5-MIN KMSN 230340Z 36020G26KT 10SM OVC034 05/00 A2992  870 70 0 360/20G26 RMK AO2 PK WND 01026/0338
14837KMSN MSN20050422214512504/22/05 21:45:31  5-MIN KMSN 230345Z 36019G28KT 10SM FEW030 OVC037 05/M01 A2992 870 67 0 360/19G28 RMK AO2 PK WND 01028/0345
14837KMSN MSN20050422215013504/22/05 21:50:31  5-MIN KMSN 230350Z 36018G28KT 10SM OVC035 05/00 A2992  860 70 0 360/18G28 RMK AO2 PK WND 01028/0345 SLP137 T00500000
14837KMSN MSN20050422215510704/22/05 21:55:31  5-MIN KMSN 230355Z 36020G24KT 10SM BKN035 OVC045 05/00  A2992 860 70 0 360/20G24 RMK AO2
14837KMSN MSN20050422220011004/22/05 22:00:31  5-MIN KMSN 230400Z 36018G25KT 10SM BKN035 OVC045 04/M01 A2992 860 70 -100 360/18G25 RMK AO2
14837KMSN MSN20050422220511004/22/05 22:05:31  5-MIN KMSN 230405Z 34012G25KT 10SM BKN035 OVC045 04/01  A2992 860 76 -100 340/12G25 RMK AO2
14837KMSN MSN20050422221010404/22/05 22:10:31  5-MIN KMSN 230410Z 34013KT 10SM BKN035 OVC045 04/01  A2992 860 79 -100 340/13 RMK AO2
14837KMSN MSN20050422221511104/22/05 22:15:31  5-MIN KMSN 230415Z 35012KT 10SM FEW024 BKN035 OVC045  04/01 A2993 860 79 -100 350/12 RMK AO2
14837KMSN MSN20050422222011604/22/05 22:20:31  5-MIN KMSN 230420Z 34015G19KT 10SM FEW020 BKN035 OVC045 04/01 A2993 860 82 -200 340/15G19 RMK AO2
14837KMSN MSN20050422222511604/22/05 22:25:31  5-MIN KMSN 230425Z 34015G21KT 10SM SCT020 BKN024 OVC045 04/01 A2993 850 79 -200 340/15G21 RMK AO2
14837KMSN MSN20050422223011604/22/05 22:30:31  5-MIN KMSN 230430Z 34016G21KT 10SM BKN018 BKN024 OVC047 03/00 A2993 850 79 -300 340/16G21 RMK AO2
14837KMSN MSN20050422223511604/22/05 22:35:31  5-MIN KMSN 230435Z 34016G21KT 10SM BKN018 BKN024 OVC034 03/00 A2993 850 79 -300 340/16G21 RMK AO2
14837KMSN MSN20050422224011004/22/05 22:40:31  5-MIN KMSN 230440Z 34013G19KT 10SM BKN018 OVC026 03/00  A2994 850 79 -300 340/13G19 RMK AO2
14837KMSN MSN20050422224510304/22/05 22:45:31  5-MIN KMSN 230445Z 35016G25KT 10SM OVC018 03/00 A2994  850 79 -300 350/16G25 RMK AO2
14837KMSN MSN20050422225012004/22/05 22:50:31  5-MIN KMSN 230450Z 35018G25KT 10SM OVC018 03/00 A2994  840 82 -300 350/18G25 RMK AO2 SLP145 T00280000
14837KMSN MSN20050422225510404/22/05 22:55:31  5-MIN KMSN 230455Z 35019G23KT 10SM OVC020 03/M01 A2994  840 79 -300 350/19G23 RMK AO2
14837KMSN MSN20050422230011004/22/05 23:00:31  5-MIN KMSN 230500Z 36019G24KT 10SM BKN020 OVC028 03/M01 A2995 840 79 -300 360/19G24 RMK AO2
14837KMSN MSN20050422230511004/22/05 23:05:31  5-MIN KMSN 230505Z 36018G24KT 10SM BKN020 OVC027 03/M01 A2995 840 79 -400 360/18G24 RMK AO2
14837KMSN MSN20050422231011004/22/05 23:10:31  5-MIN KMSN 230510Z 36016G24KT 10SM BKN022 OVC027 03/M01 A2995 840 79 -400 360/16G24 RMK AO2
14837KMSN MSN20050422231511704/22/05 23:15:31  5-MIN KMSN 230515Z 36016G23KT 10SM FEW017 BKN023 OVC028 03/M01 A2995 830 79 -400 360/16G23 RMK AO2
14837KMSN MSN20050422232012204/22/05 23:20:31  5-MIN KMSN 230520Z 36017G26KT 10SM OVC026 02/M01 A2995  830 78 -400 360/17G26 RMK AO2 PK WND 36026/0517
14837KMSN MSN20050422232512204/22/05 23:25:31  5-MIN KMSN 230525Z 36018G26KT 10SM OVC026 02/M01 A2995  830 78 -400 350/18G26 RMK AO2 PK WND 36026/0517
14837KMSN MSN20050422233012804/22/05 23:30:31  5-MIN KMSN 230530Z 36018G24KT 10SM BKN026 OVC055 02/M01 A2995 830 78 -400 360/18G24 RMK AO2 PK WND 36026/0517
14837KMSN MSN20050422233513004/22/05 23:35:31  5-MIN KMSN 230535Z 36016KT 10SM BKN026 BKN047 OVC055  02/M01 A2996 830 78 -400 360/16 RMK AO2 PK WND 36026/0517
14837KMSN MSN20050422234013504/22/05 23:40:31  5-MIN KMSN 230540Z 35013G21KT 10SM BKN027 BKN049 OVC055 02/M01 A2996 830 78 -400 350/13G21 RMK AO2 PK WND 36026/0517
14837KMSN MSN20050422234513004/22/05 23:45:31  5-MIN KMSN 230545Z 35012KT 10SM FEW024 BKN029 OVC049  02/M02 A2996 830 75 -400 350/12 RMK AO2 PK WND 36026/0517
14837KMSN MSN20050422235018204/22/05 23:50:31  5-MIN KMSN 230550Z 36014KT 10SM FEW024 BKN029 OVC049  02/M02 A2996 830 75 -400 360/14 RMK AO2 PK WND 36026/0517 SLP151 60002  T00221017 10111 20022 401220022 51039
14837KMSN MSN20050422235511204/22/05 23:55:31  5-MIN KMSN 230555Z 36014KT 10SM FEW023 BKN031 OVC049  02/M02 A2996 820 72 -400 350/14 RMK AO2
14837KMSN MSN20050423000010504/23/05 00:00:31  5-MIN KMSN 230600Z 35011KT 10SM BKN031 OVC049 02/M02  A2996 820 72 -400 350/11 RMK AO2
14837KMSN MSN20050423000511204/23/05 00:05:31  5-MIN KMSN 230605Z 35015KT 10SM BKN031 BKN042 OVC049  02/M02 A2996 820 72 -400 350/15 RMK AO2
14837KMSN MSN20050423001011204/23/05 00:10:31  5-MIN KMSN 230610Z 35011KT 10SM FEW026 BKN031 OVC042  02/M02 A2996 820 72 -400 350/11 RMK AO2
14837KMSN MSN20050423001511204/23/05 00:15:31  5-MIN KMSN 230615Z 35013KT 10SM FEW024 BKN031 OVC042  02/M03 A2996 820 69 -400 350/13 RMK AO2
14837KMSN MSN20050423002011704/23/05 00:20:31  5-MIN KMSN 230620Z 36014G22KT 10SM SCT031 BKN042 OVC050 02/M03 A2997 820 69 -400 350/14G22 RMK AO2
14837KMSN MSN20050423002511704/23/05 00:25:31  5-MIN KMSN 230625Z 35009G22KT 10SM SCT028 BKN034 OVC050 02/M03 A2996 820 69 -400 350/09G22 RMK AO2
14837KMSN MSN20050423003011704/23/05 00:30:31  5-MIN KMSN 230630Z 35016G21KT 10SM BKN030 BKN042 OVC050 02/M03 A2996 820 69 -400 340/16G21 RMK AO2
14837KMSN MSN20050423003511704/23/05 00:35:31  5-MIN KMSN 230635Z 35013G21KT 10SM BKN030 BKN042 OVC050 02/M03 A2996 820 69 -400 350/13G21 RMK AO2
14837KMSN MSN20050423004011204/23/05 00:40:31  5-MIN KMSN 230640Z 34014KT 10SM BKN030 BKN042 OVC050  02/M03 A2996 820 69 -400 340/14 RMK AO2
14837KMSN MSN20050423004511204/23/05 00:45:31  5-MIN KMSN 230645Z 34011KT 10SM BKN030 BKN045 OVC050  02/M03 A2996 830 69 -400 340/11 RMK AO2
14837KMSN MSN20050423005012204/23/05 00:50:31  5-MIN KMSN 230650Z 35012KT 10SM BKN030 OVC048 02/M03  A2996 830 72 -500 350/12 RMK AO2 SLP151 T00171028
14837KMSN MSN20050423005511004/23/05 00:55:31  5-MIN KMSN 230655Z 34013G18KT 10SM SCT030 OVC048 02/M03 A2996 830 72 -500 340/13G18 RMK AO2
14837KMSN MSN20050423010011004/23/05 01:00:31  5-MIN KMSN 230700Z 35009G18KT 10SM SCT030 OVC048 02/M03 A2996 830 72 -500 350/09G18 RMK AO2
14837KMSN MSN20050423010511004/23/05 01:05:31  5-MIN KMSN 230705Z 35012G17KT 10SM FEW030 OVC048 02/M03 A2996 830 72 -500 350/12G17 RMK AO2
14837KMSN MSN20050423011011004/23/05 01:10:31  5-MIN KMSN 230710Z 35012G18KT 10SM FEW030 OVC048 02/M03 A2996 830 72 -500 350/12G18 RMK AO2
14837KMSN MSN20050423011511004/23/05 01:15:31  5-MIN KMSN 230715Z 35013G19KT 10SM FEW030 OVC050 02/M03 A2996 830 69 -500 350/13G19 RMK AO2
14837KMSN MSN20050423012011004/23/05 01:20:31  5-MIN KMSN 230720Z 35013G19KT 10SM FEW030 OVC050 02/M04 A2996 830 66 -500 350/13G19 RMK AO2
14837KMSN MSN20050423012510404/23/05 01:25:31  5-MIN KMSN 230725Z 35010G18KT 10SM OVC050 02/M03 A2996  830 69 -500 350/10G18 RMK AO2
14837KMSN MSN20050423013010404/23/05 01:30:31  5-MIN KMSN 230730Z 34011G18KT 10SM OVC050 02/M04 A2996  820 66 -500 340/11G18 RMK AO2
14837KMSN MSN20050423013512004/23/05 01:35:31  5-MIN KMSN 230735Z 34011G18KT 10SM -SN OVC050 02/M04  A2997 820 66 -500 340/11G18 RMK AO2 SNB33 P0000
14837KMSN MSN20050423014012604/23/05 01:40:31  5-MIN KMSN 230740Z 35011G17KT 9SM -SN FEW032 OVC050  02/M04 A2997 820 66 -500 350/11G17 RMK AO2 SNB33 P0000
14837KMSN MSN20050423014512604/23/05 01:45:31  5-MIN KMSN 230745Z 34010G16KT 9SM -SN FEW035 OVC050  02/M04 A2997 820 64 -500 340/10G16 RMK AO2 SNB33 P0000
14837KMSN MSN20050423015013604/23/05 01:50:31  5-MIN KMSN 230750Z 34011KT 9SM -SN SCT040 OVC050 02/M04 A2997 820 64 -500 340/11 RMK AO2 SNB33 SLP154 P0000 T00171044
14837KMSN MSN20050423015511004/23/05 01:55:31  5-MIN KMSN 230755Z 33011G17KT 9SM BKN040 OVC050 02/M04  A2997 820 64 -500 330/11G17 RMK AO2
14837KMSN MSN20050423020011004/23/05 02:00:31  5-MIN KMSN 230800Z 34009G17KT 10SM BKN042 OVC050 02/M04 A2997 820 64 -500 340/09G17 RMK AO2
14837KMSN MSN20050423020511204/23/05 02:05:31  5-MIN KMSN 230805Z 35010KT 10SM BKN042 BKN050 OVC065  02/M04 A2997 820 64 -500 350/10 RMK AO2
14837KMSN MSN20050423021010504/23/05 02:10:31  5-MIN KMSN 230810Z 34009KT 10SM BKN042 OVC065 02/M04  A2997 820 64 -500 340/09 RMK AO2
14837KMSN MSN20050423021510504/23/05 02:15:31  5-MIN KMSN 230815Z 35011KT 10SM SCT042 OVC065 02/M04  A2997 820 64 -500 340/11 RMK AO2
14837KMSN MSN20050423022010504/23/05 02:20:31  5-MIN KMSN 230820Z 34009KT 10SM FEW042 OVC065 02/M04  A2997 820 64 -500 340/09 RMK AO2
14837KMSN MSN20050423022511004/23/05 02:25:31  5-MIN KMSN 230825Z 34010G17KT 10SM FEW042 OVC065 02/M05 A2997 820 61 -500 340/10G17 RMK AO2
14837KMSN MSN20050423023010404/23/05 02:30:31  5-MIN KMSN 230830Z 34011G17KT 10SM OVC070 02/M05 A2997  820 61 -500 340/11G17 RMK AO2
14837KMSN MSN20050423023509704/23/05 02:35:31  5-MIN KMSN 230835Z 34012KT 10SM OVC070 02/M04 A2997 820 64 -500 340/12 RMK AO2
14837KMSN MSN20050423024010404/23/05 02:40:31  5-MIN KMSN 230840Z 34014G18KT 10SM OVC070 02/M05 A2997  820 61 -500 340/14G18 RMK AO2
14837KMSN MSN20050423024510404/23/05 02:45:31  5-MIN KMSN 230845Z 34015G19KT 10SM OVC070 02/M05 A2997  820 61 -500 340/15G19 RMK AO2
14837KMSN MSN20050423025013304/23/05 02:50:31  5-MIN KMSN 230850Z 35012G19KT 10SM OVC075 02/M05 A2996  820 61 -500 340/12G19 RMK AO2 SLP152 60000 T00171050 53018
14837KMSN MSN20050423025510404/23/05 02:55:31  5-MIN KMSN 230855Z 35014G20KT 10SM OVC075 02/M05 A2996  820 61 -500 350/14G20 RMK AO2
14837KMSN MSN20050423030010404/23/05 03:00:31  5-MIN KMSN 230900Z 35013G20KT 10SM OVC075 02/M05 A2996  820 61 -500 340/13G20 RMK AO2
14837KMSN MSN20050423030509704/23/05 03:05:31  5-MIN KMSN 230905Z 35016KT 10SM OVC075 02/M06 A2996 820 59 -500 350/16 RMK AO2
14837KMSN MSN20050423031010404/23/05 03:10:31  5-MIN KMSN 230910Z 34016G21KT 10SM OVC075 02/M06 A2996  820 59 -500 340/16G21 RMK AO2
14837KMSN MSN20050423031510404/23/05 03:15:31  5-MIN KMSN 230915Z 34015G22KT 10SM OVC080 02/M06 A2997  820 59 -500 340/15G22 RMK AO2
14837KMSN MSN20050423032010404/23/05 03:20:31  5-MIN KMSN 230920Z 34012G22KT 10SM OVC080 01/M06 A2997  820 61 -600 340/12G22 RMK AO2
14837KMSN MSN20050423032511004/23/05 03:25:31  5-MIN KMSN 230925Z 34011G19KT 10SM BKN080 OVC110 01/M06 A2997 820 61 -600 340/11G19 RMK AO2
14837KMSN MSN20050423033011704/23/05 03:30:31  5-MIN KMSN 230930Z 34014G19KT 10SM FEW044 BKN080 OVC110 01/M06 A2997 820 61 -600 340/14G19 RMK AO2
14837KMSN MSN20050423033511704/23/05 03:35:31  5-MIN KMSN 230935Z 34014G21KT 10SM SCT044 BKN080 BKN110 01/M06 A2997 820 58 -600 340/14G21 RMK AO2
14837KMSN MSN20050423034011704/23/05 03:40:31  5-MIN KMSN 230940Z 34012G21KT 10SM FEW044 BKN055 OVC110 01/M06 A2997 820 58 -600 340/12G21 RMK AO2
14837KMSN MSN20050423034511204/23/05 03:45:31  5-MIN KMSN 230945Z 34011KT 10SM FEW044 BKN055 OVC110  01/M06 A2997 820 61 -600 340/11 RMK AO2
14837KMSN MSN20050423035012904/23/05 03:50:31  5-MIN KMSN 230950Z 34011KT 10SM FEW044 BKN055 BKN110  01/M06 A2996 820 61 -600 340/11 RMK AO2 SLP152 T00111056
14837KMSN MSN20050423035510504/23/05 03:55:31  5-MIN KMSN 230955Z 34011KT 10SM FEW044 OVC055 01/M06  A2996 820 61 -600 340/11 RMK AO2
14837KMSN MSN20050423040009704/23/05 04:00:31  5-MIN KMSN 231000Z 34014KT 10SM OVC055 01/M06 A2997 820 61 -600 340/14 RMK AO2
14837KMSN MSN20050423040510404/23/05 04:05:31  5-MIN KMSN 231005Z 34013G21KT 10SM OVC055 01/M06 A2996  820 58 -600 340/13G21 RMK AO2
14837KMSN MSN20050423041010404/23/05 04:10:31  5-MIN KMSN 231010Z 34016G21KT 10SM OVC055 01/M06 A2996  830 61 -600 340/16G21 RMK AO2
14837KMSN MSN20050423041510404/23/05 04:15:31  5-MIN KMSN 231015Z 34014G24KT 10SM OVC055 01/M06 A2996  820 58 -600 340/14G24 RMK AO2
14837KMSN MSN20050423042010404/23/05 04:20:31  5-MIN KMSN 231020Z 34011G24KT 10SM OVC055 01/M06 A2996  820 61 -600 330/11G24 RMK AO2
14837KMSN MSN20050423042509704/23/05 04:25:31  5-MIN KMSN 231025Z 34011KT 10SM BKN055 01/M06 A2996 820 63 -600 330/11 RMK AO2
14837KMSN MSN20050423043009704/23/05 04:30:31  5-MIN KMSN 231030Z 33012KT 10SM SCT055 00/M06 A2996 820 66 -700 330/12 RMK AO2
14837KMSN MSN20050423043509704/23/05 04:35:31  5-MIN KMSN 231035Z 33013KT 10SM SCT055 00/M06 A2997 820 63 -700 330/13 RMK AO2
14837KMSN MSN20050423044009704/23/05 04:40:31  5-MIN KMSN 231040Z 33011KT 10SM SCT055 00/M06 A2997 820 66 -700 330/11 RMK AO2
14837KMSN MSN20050423044509704/23/05 04:45:31  5-MIN KMSN 231045Z 34011KT 10SM BKN055 00/M06 A2997 820 66 -700 340/11 RMK AO2
14837KMSN MSN20050423045011404/23/05 04:50:31  5-MIN KMSN 231050Z 34011KT 10SM BKN055 00/M06 A2997 820 66 -700 340/11 RMK AO2 SLP154 T00001056
14837KMSN MSN20050423045509704/23/05 04:55:31  5-MIN KMSN 231055Z 34012KT 10SM BKN055 00/M06 A2997 820 63 -700 340/12 RMK AO2
14837KMSN MSN20050423050009704/23/05 05:00:31  5-MIN KMSN 231100Z 34013KT 10SM BKN055 00/M06 A2997 820 66 -700 340/13 RMK AO2
14837KMSN MSN20050423050509704/23/05 05:05:31  5-MIN KMSN 231105Z 34011KT 10SM BKN055 00/M06 A2997 820 66 -700 330/11 RMK AO2
14837KMSN MSN20050423051010404/23/05 05:10:31  5-MIN KMSN 231110Z 33009G17KT 10SM SCT055 00/M06 A2997  810 66 -700 330/09G17 RMK AO2
14837KMSN MSN20050423051510404/23/05 05:15:31  5-MIN KMSN 231115Z 33011G17KT 10SM SCT055 00/M06 A2998  810 63 -700 330/11G17 RMK AO2
14837KMSN MSN20050423052009804/23/05 05:20:31  5-MIN KMSN 231120Z 33012KT 10SM FEW055 M01/M06 A2998 810 69 -800 330/12 RMK AO2
14837KMSN MSN20050423052509404/23/05 05:25:31  5-MIN KMSN 231125Z 33012KT 10SM CLR 00/M06 A2998 810 66 -700 330/12 RMK AO2
14837KMSN MSN20050423053009504/23/05 05:30:31  5-MIN KMSN 231130Z 33013KT 10SM CLR M01/M06 A2998 810 66 -800 330/13 RMK AO2
14837KMSN MSN20050423053509504/23/05 05:35:31  5-MIN KMSN 231135Z 33012KT 10SM CLR M01/M06 A2998 810 69 -800 330/12 RMK AO2
14837KMSN MSN20050423054010104/23/05 05:40:31  5-MIN KMSN 231140Z 33011G17KT 10SM CLR M01/M06 A2998 810 69 -800 330/11G17 RMK AO2
14837KMSN MSN20050423054510004/23/05 05:45:31  5-MIN KMSN 231145Z 33012G17KT 10SM CLR 00/M06 A2998 810 66 -700 330/12G17 RMK AO2
14837KMSN MSN20050423055015204/23/05 05:50:31  5-MIN KMSN 231150Z 33013G18KT 10SM FEW055 00/M06 A2998  810 66 -700 330/13G18 RMK AO2 SLP159 60000 70002 T00001056 10022 21006  50001
14837KMSN MSN20050423055510004/23/05 05:55:31  5-MIN KMSN 231155Z 34012G18KT 10SM CLR 00/M06 A2998 810 66 -700 340/12G18 RMK AO2
14837KMSN MSN20050423060010004/23/05 06:00:31  5-MIN KMSN 231200Z 33013G18KT 10SM CLR 00/M06 A2999 800 66 -700 330/13G18 RMK AO2
14837KMSN MSN20050423060510004/23/05 06:05:31  5-MIN KMSN 231205Z 33015G18KT 10SM CLR 00/M06 A2999 800 66 -700 330/15G18 RMK AO2
14837KMSN MSN20050423061010004/23/05 06:10:31  5-MIN KMSN 231210Z 34016G23KT 10SM CLR 01/M06 A2999 800 61 -700 340/16G23 RMK AO2
14837KMSN MSN20050423061510004/23/05 06:15:31  5-MIN KMSN 231215Z 33015G23KT 10SM CLR 01/M06 A2999 800 61 -700 330/15G23 RMK AO2
14837KMSN MSN20050423062010004/23/05 06:20:31  5-MIN KMSN 231220Z 33013G21KT 10SM CLR 01/M06 A2999 800 61 -700 330/13G21 RMK AO2
14837KMSN MSN20050423062510004/23/05 06:25:31  5-MIN KMSN 231225Z 34014G18KT 10SM CLR 01/M06 A2999 800 63 -700 340/14G18 RMK AO2
14837KMSN MSN20050423063010004/23/05 06:30:31  5-MIN KMSN 231230Z 34014G18KT 10SM CLR 01/M06 A2999 800 61 -700 340/14G18 RMK AO2
14837KMSN MSN20050423063510004/23/05 06:35:31  5-MIN KMSN 231235Z 33012G18KT 10SM CLR 01/M06 A2999 800 61 -700 330/12G18 RMK AO2
14837KMSN MSN20050423064010004/23/05 06:40:31  5-MIN KMSN 231240Z 34013G19KT 10SM CLR 01/M06 A2999 800 58 -600 340/13G19 RMK AO2
14837KMSN MSN20050423064510004/23/05 06:45:31  5-MIN KMSN 231245Z 33017G23KT 10SM CLR 01/M06 A2999 800 58 -600 330/17G23 RMK AO2
14837KMSN MSN20050423065012104/23/05 06:50:31  5-MIN KMSN 231250Z 33013G23KT 10SM FEW030 01/M06 A2999  800 58 -600 330/13G23 RMK AO2 SLP162 T00111061
14837KMSN MSN20050423065510004/23/05 06:55:31  5-MIN KMSN 231255Z 34015G22KT 10SM CLR 01/M06 A2999 800 58 -600 340/15G22 RMK AO2
14837KMSN MSN20050423070010404/23/05 07:00:31  5-MIN KMSN 231300Z 34017G24KT 10SM SCT030 01/M07 A2999  800 58 -700 340/17G24 RMK AO2
14837KMSN MSN20050423070510404/23/05 07:05:31  5-MIN KMSN 231305Z 34013G24KT 10SM SCT030 01/M07 A2999  800 58 -700 340/13G24 RMK AO2
14837KMSN MSN20050423071010404/23/05 07:10:31  5-MIN KMSN 231310Z 35014G19KT 10SM BKN030 01/M07 A2999  800 58 -700 350/14G19 RMK AO2
14837KMSN MSN20050423071510404/23/05 07:15:31  5-MIN KMSN 231315Z 35016G20KT 10SM BKN030 01/M07 A3000  800 58 -700 350/16G20 RMK AO2
14837KMSN MSN20050423072010404/23/05 07:20:31  5-MIN KMSN 231320Z 34013G20KT 10SM BKN030 01/M07 A2999  800 56 -600 340/13G20 RMK AO2
14837KMSN MSN20050423072509704/23/05 07:25:31  5-MIN KMSN 231325Z 35013KT 10SM SCT030 02/M07 A2999 800 54 -500 350/13 RMK AO2
14837KMSN MSN20050423073011004/23/05 07:30:31  5-MIN KMSN 231330Z 34018G22KT 10SM FEW030 BKN040 02/M07 A2999 800 54 -500 340/18G22 RMK AO2
14837KMSN MSN20050423073511004/23/05 07:35:31  5-MIN KMSN 231335Z 34016G22KT 10SM FEW030 BKN040 01/M07 A2999 800 54 -600 340/16G22 RMK AO2
14837KMSN MSN20050423074011004/23/05 07:40:31  5-MIN KMSN 231340Z 34017G21KT 10SM FEW030 BKN040 02/M07 A2999 800 54 -500 340/17G21 RMK AO2
14837KMSN MSN20050423074511004/23/05 07:45:31  5-MIN KMSN 231345Z 35016G21KT 10SM FEW030 BKN040 01/M07 A2999 800 54 -600 350/16G21 RMK AO2
14837KMSN MSN20050423075012704/23/05 07:50:31  5-MIN KMSN 231350Z 35016G22KT 10SM FEW030 BKN040 02/M06 A2999 800 54 -500 350/16G22 RMK AO2 SLP162 T00221061
14837KMSN MSN20050423075510404/23/05 07:55:31  5-MIN KMSN 231355Z 33019G24KT 10SM BKN038 02/M06 A2999  800 54 -500 330/19G24 RMK AO2
14837KMSN MSN20050423080010404/23/05 08:00:31  5-MIN KMSN 231400Z 33017G24KT 10SM BKN038 02/M07 A2999  800 54 -500 330/17G24 RMK AO2
14837KMSN MSN20050423080510404/23/05 08:05:31  5-MIN KMSN 231405Z 34018G22KT 10SM BKN038 02/M07 A2999  800 54 -500 340/18G22 RMK AO2
14837KMSN MSN20050423081010404/23/05 08:10:31  5-MIN KMSN 231410Z 34012G20KT 10SM OVC038 02/M07 A2999  800 52 -500 340/12G20 RMK AO2
14837KMSN MSN20050423081510404/23/05 08:15:31  5-MIN KMSN 231415Z 33015G22KT 10SM BKN038 02/M07 A2999  800 52 -500 330/15G22 RMK AO2
14837KMSN MSN20050423082010404/23/05 08:20:31  5-MIN KMSN 231420Z 34018G22KT 10SM BKN038 02/M06 A3000  800 54 -500 340/18G22 RMK AO2
14837KMSN MSN20050423082510404/23/05 08:25:31  5-MIN KMSN 231425Z 35019G22KT 10SM BKN038 02/M07 A3000  800 52 -500 350/19G22 RMK AO2
14837KMSN MSN20050423083009704/23/05 08:30:31  5-MIN KMSN 231430Z 34018KT 10SM BKN038 02/M07 A2999 800 50 -500 340/18 RMK AO2
14837KMSN MSN20050423083510404/23/05 08:35:31  5-MIN KMSN 231435Z 35017G22KT 10SM BKN038 02/M07 A3000  800 50 -500 350/17G22 RMK AO2
14837KMSN MSN20050423084010404/23/05 08:40:31  5-MIN KMSN 231440Z 32018G23KT 10SM BKN038 03/M07 A3000  790 50 -400 320/18G23 RMK AO2
14837KMSN MSN20050423084510404/23/05 08:45:31  5-MIN KMSN 231445Z 33015G23KT 10SM BKN038 02/M06 A3000  790 54 -500 330/15G23 RMK AO2
14837KMSN MSN20050423085012704/23/05 08:50:31  5-MIN KMSN 231450Z 33012G20KT 10SM BKN038 02/M06 A3000  790 56 -500 330/12G20 RMK AO2 SLP164 T00221056 53006
14837KMSN MSN20050423085510404/23/05 08:55:31  5-MIN KMSN 231455Z 33016G20KT 10SM OVC038 02/M06 A3000  790 54 -500 330/16G20 RMK AO2
14837KMSN MSN20050423090010404/23/05 09:00:31  5-MIN KMSN 231500Z 34014G20KT 10SM OVC038 02/M06 A3000  790 54 -500 340/14G20 RMK AO2
14837KMSN MSN20050423090509704/23/05 09:05:31  5-MIN KMSN 231505Z 34016KT 10SM OVC038 02/M06 A3000 790 54 -500 330/16 RMK AO2
14837KMSN MSN20050423091010404/23/05 09:10:31  5-MIN KMSN 231510Z 34015G19KT 10SM OVC038 03/M07 A3000  790 50 -400 340/15G19 RMK AO2
14837KMSN MSN20050423091512204/23/05 09:15:31  5-MIN KMSN 231515Z 34017G26KT 10SM OVC040 03/M07 A3000  790 50 -400 340/17G26 RMK AO2 PK WND 32026/1513
14837KMSN MSN20050423092012204/23/05 09:20:31  5-MIN KMSN 231520Z 35016G26KT 10SM OVC040 03/M07 A3000  790 48 -400 350/16G26 RMK AO2 PK WND 32026/1513
14837KMSN MSN20050423092511504/23/05 09:25:31  5-MIN KMSN 231525Z 34017KT 10SM OVC042 03/M07 A3000 790 48 -400 340/17 RMK AO2 PK WND 32026/1513
14837KMSN MSN20050423093011504/23/05 09:30:31  5-MIN KMSN 231530Z 34016KT 10SM OVC042 03/M07 A3000 790 48 -400 330/16 RMK AO2 PK WND 32026/1513
14837KMSN MSN20050423093512204/23/05 09:35:31  5-MIN KMSN 231535Z 34016G25KT 10SM OVC042 03/M08 A3000  800 44 -300 340/16G25 RMK AO2 PK WND 32026/1513
14837KMSN MSN20050423094012204/23/05 09:40:31  5-MIN KMSN 231540Z 36018G25KT 10SM OVC044 03/M08 A2999  800 44 -300 360/18G25 RMK AO2 PK WND 32026/1513
14837KMSN MSN20050423094512204/23/05 09:45:31  5-MIN KMSN 231545Z 35017G23KT 10SM OVC046 03/M07 A2999  800 46 -300 350/17G23 RMK AO2 PK WND 32026/1513
14837KMSN MSN20050423095013904/23/05 09:50:31  5-MIN KMSN 231550Z 36021G24KT 10SM BKN046 04/M07 A2999  800 44 -300 360/21G24 RMK AO2 PK WND 32026/1513 SLP162 T00391072
14837KMSN MSN20050423095510404/23/05 09:55:31  5-MIN KMSN 231555Z 35015G24KT 10SM OVC046 04/M07 A2999  800 44 -200 340/15G24 RMK AO2
14837KMSN MSN20050423100010404/23/05 10:00:31  5-MIN KMSN 231600Z 34015G21KT 10SM OVC048 04/M07 A2999  800 42 -200 340/15G21 RMK AO2
14837KMSN MSN20050423100510404/23/05 10:05:31  5-MIN KMSN 231605Z 35016G23KT 10SM OVC048 04/M07 A2998  800 44 -200 350/16G23 RMK AO2
14837KMSN MSN20050423101010404/23/05 10:10:31  5-MIN KMSN 231610Z 34013G21KT 10SM OVC050 05/M07 A2999  800 42 -100 340/13G21 RMK AO2
14837KMSN MSN20050423101510404/23/05 10:15:31  5-MIN KMSN 231615Z 35016G21KT 10SM OVC050 04/M07 A2999  800 44 -200 350/16G21 RMK AO2
14837KMSN MSN20050423102010404/23/05 10:20:31  5-MIN KMSN 231620Z 33013G21KT 10SM OVC050 04/M07 A2998  810 44 -200 330/13G21 RMK AO2
14837KMSN MSN20050423102510404/23/05 10:25:31  5-MIN KMSN 231625Z 34016G22KT 10SM OVC050 04/M08 A2998  810 41 -200 340/16G22 RMK AO2
14837KMSN MSN20050423103011004/23/05 10:30:31  5-MIN KMSN 231630Z 35016G22KT 10SM BKN050 OVC060 05/M07 A2998 800 42 -100 350/16G22 RMK AO2
14837KMSN MSN20050423103510104/23/05 10:35:31  5-MIN KMSN 231635Z 34014G22KT 10SM BKN050 06/M06 A2998  810 43 0 340/14G22 RMK AO2
14837KMSN MSN20050423104010704/23/05 10:40:31  5-MIN KMSN 231640Z 35013G24KT 10SM BKN050 BKN060 06/M07 A2998 810 41 0 350/13G24 RMK AO2
14837KMSN MSN20050423104510404/23/05 10:45:31  5-MIN KMSN 231645Z 33014G24KT 10SM BKN055 05/M07 A2998  810 41 -100 330/14G24 RMK AO2
14837KMSN MSN20050423105012404/23/05 10:50:31  5-MIN KMSN 231650Z 35012G23KT 10SM BKN050 BKN060 06/M07 A2998 810 39 0 350/12G23 RMK AO2 SLP158 T00611067
14837KMSN MSN20050423105510104/23/05 10:55:31  5-MIN KMSN 231655Z 33015G22KT 10SM BKN055 06/M07 A2998  810 39 0 330/15G22 RMK AO2
14837KMSN MSN20050423110010104/23/05 11:00:31  5-MIN KMSN 231700Z 34014G22KT 10SM SCT050 06/M08 A2998  810 37 0 340/14G22 RMK AO2
14837KMSN MSN20050423110510104/23/05 11:05:31  5-MIN KMSN 231705Z 34015G23KT 10SM SCT050 06/M07 A2998  810 39 0 340/15G23 RMK AO2
14837KMSN MSN20050423111010104/23/05 11:10:31  5-MIN KMSN 231710Z 35012G23KT 10SM SCT050 06/M07 A2998  810 39 0 350/12G23 RMK AO2
14837KMSN MSN20050423111510104/23/05 11:15:31  5-MIN KMSN 231715Z 35019G23KT 10SM BKN055 07/M06 A2998  810 39 0 340/19G23 RMK AO2
14837KMSN MSN20050423112010104/23/05 11:20:31  5-MIN KMSN 231720Z 34015G23KT 10SM BKN055 06/M08 A2998  810 37 0 340/15G23 RMK AO2
14837KMSN MSN20050423112510104/23/05 11:25:31  5-MIN KMSN 231725Z 32015G21KT 10SM BKN055 06/M07 A2998  810 39 0 320/15G21 RMK AO2
14837KMSN MSN20050423113010104/23/05 11:30:31  5-MIN KMSN 231730Z 34016G22KT 10SM BKN055 06/M07 A2997  820 39 0 340/16G22 RMK AO2
14837KMSN MSN20050423113510104/23/05 11:35:31  5-MIN KMSN 231735Z 34017G22KT 10SM OVC055 06/M07 A2997  820 41 0 340/17G22 RMK AO2
14837KMSN MSN20050423114009704/23/05 11:40:31  5-MIN KMSN 231740Z 34017KT 10SM OVC055 05/M07 A2997 810 41 -100 340/17 RMK AO2
14837KMSN MSN20050423114510404/23/05 11:45:31  5-MIN KMSN 231745Z 34013G22KT 10SM OVC055 05/M07 A2997  820 41 -100 340/13G22 RMK AO2
14837KMSN MSN20050423115013604/23/05 11:50:31  5-MIN KMSN 231750Z 33018G22KT 10SM BKN055 06/M07 A2997  820 39 0 330/18G22 RMK AO2 SLP156 T00611067 10067 20000 51005
14837KMSN MSN20050423115510104/23/05 11:55:31  5-MIN KMSN 231755Z 32017G23KT 10SM OVC055 06/M08 A2997  820 37 0 320/17G23 RMK AO2
14837KMSN MSN20050423120010104/23/05 12:00:31  5-MIN KMSN 231800Z 33016G23KT 10SM OVC055 06/M07 A2997  820 39 0 330/16G23 RMK AO2
14837KMSN MSN20050423120510104/23/05 12:05:31  5-MIN KMSN 231805Z 33015G21KT 10SM OVC055 06/M07 A2997  820 39 0 330/15G21 RMK AO2
14837KMSN MSN20050423121010304/23/05 12:10:31  5-MIN KMSN 231810Z 34014G21KT 10SM OVC060 07/M06 A2996  830 39 100 340/14G21 RMK AO2
14837KMSN MSN20050423121510104/23/05 12:15:31  5-MIN KMSN 231815Z 34014G21KT 10SM OVC055 06/M07 A2996  820 39 0 340/14G21 RMK AO2
14837KMSN MSN20050423122010104/23/05 12:20:31  5-MIN KMSN 231820Z 33016G20KT 10SM OVC055 06/M07 A2996  820 39 0 330/16G20 RMK AO2
14837KMSN MSN20050423122510104/23/05 12:25:31  5-MIN KMSN 231825Z 33017G22KT 10SM OVC060 06/M07 A2997  820 38 0 330/17G22 RMK AO2
14837KMSN MSN20050423123010104/23/05 12:30:31  5-MIN KMSN 231830Z 33011G22KT 10SM OVC060 06/M08 A2997  820 37 0 330/11G22 RMK AO2
14837KMSN MSN20050423123510104/23/05 12:35:31  5-MIN KMSN 231835Z 32018G23KT 10SM OVC060 06/M07 A2996  820 38 0 320/18G23 RMK AO2
14837KMSN MSN20050423124010104/23/05 12:40:31  5-MIN KMSN 231840Z 34014G23KT 10SM OVC060 06/M08 A2996  820 36 0 330/14G23 RMK AO2
14837KMSN MSN20050423124510304/23/05 12:45:31  5-MIN KMSN 231845Z 35016G21KT 10SM OVC060 07/M07 A2996  830 38 100 350/16G21 RMK AO2
14837KMSN MSN20050423125012004/23/05 12:50:31  5-MIN KMSN 231850Z 35013G22KT 10SM BKN060 07/M07 A2996  830 36 100 350/13G22 RMK AO2 SLP152 T00671072
14837KMSN MSN20050423125510104/23/05 12:55:31  5-MIN KMSN 231855Z 34015G22KT 10SM OVC060 06/M07 A2996  820 39 0 340/15G22 RMK AO2
14837KMSN MSN20050423130010104/23/05 13:00:31  5-MIN KMSN 231900Z 34017G22KT 10SM OVC060 06/M08 A2996  830 37 0 340/17G22 RMK AO2
14837KMSN MSN20050423130510304/23/05 13:05:31  5-MIN KMSN 231905Z 33015G21KT 10SM OVC060 07/M08 A2996  830 35 100 330/15G21 RMK AO2
14837KMSN MSN20050423131010304/23/05 13:10:31  5-MIN KMSN 231910Z 36018G23KT 10SM OVC060 07/M07 A2996  830 36 100 360/18G23 RMK AO2
14837KMSN MSN20050423131510104/23/05 13:15:31  5-MIN KMSN 231915Z 34012G24KT 10SM OVC060 06/M08 A2996  830 36 0 340/12G24 RMK AO2
14837KMSN MSN20050423132010304/23/05 13:20:31  5-MIN KMSN 231920Z 35016G24KT 10SM OVC060 07/M07 A2996  830 36 100 350/16G24 RMK AO2
14837KMSN MSN20050423132510304/23/05 13:25:31  5-MIN KMSN 231925Z 32017G23KT 10SM OVC065 07/M08 A2995  840 33 100 320/17G23 RMK AO2
14837KMSN MSN20050423133010304/23/05 13:30:31  5-MIN KMSN 231930Z 34014G23KT 10SM OVC065 07/M08 A2995  830 35 100 330/14G23 RMK AO2
14837KMSN MSN20050423133510304/23/05 13:35:31  5-MIN KMSN 231935Z 33016G21KT 10SM OVC065 08/M07 A2996  830 34 200 330/16G21 RMK AO2
14837KMSN MSN20050423134010304/23/05 13:40:31  5-MIN KMSN 231940Z 32013G23KT 10SM OVC065 07/M08 A2995  830 35 100 310/13G23 RMK AO2
14837KMSN MSN20050423134510304/23/05 13:45:31  5-MIN KMSN 231945Z 36017G23KT 10SM OVC065 08/M08 A2995  840 32 200 360/17G23 RMK AO2
14837KMSN MSN20050423135012004/23/05 13:50:31  5-MIN KMSN 231950Z 34012G22KT 10SM BKN065 07/M08 A2995  840 33 100 340/12G22 RMK AO2 SLP148 T00671083
14837KMSN MSN20050423135510304/23/05 13:55:31  5-MIN KMSN 231955Z 33014G20KT 10SM OVC065 07/M08 A2995  840 33 100 330/14G20 RMK AO2
14837KMSN MSN20050423140010304/23/05 14:00:31  5-MIN KMSN 232000Z 32017G23KT 10SM OVC065 07/M07 A2995  840 35 100 320/17G23 RMK AO2
14837KMSN MSN20050423140510304/23/05 14:05:31  5-MIN KMSN 232005Z 33012G23KT 10SM OVC070 08/M07 A2995  840 35 200 320/12G23 RMK AO2
14837KMSN MSN20050423141010304/23/05 14:10:31  5-MIN KMSN 232010Z 32013G20KT 10SM OVC065 08/M07 A2995  840 34 200 320/13G20 RMK AO2
14837KMSN MSN20050423141510304/23/05 14:15:31  5-MIN KMSN 232015Z 35017G23KT 10SM OVC065 07/M07 A2995  840 35 100 350/17G23 RMK AO2
14837KMSN MSN20050423142010304/23/05 14:20:31  5-MIN KMSN 232020Z 32014G23KT 10SM OVC065 07/M08 A2995  840 33 100 310/14G23 RMK AO2
14837KMSN MSN20050423142510304/23/05 14:25:31  5-MIN KMSN 232025Z 34015G20KT 10SM OVC065 07/M08 A2995  840 35 100 330/15G20 RMK AO2
14837KMSN MSN20050423143010304/23/05 14:30:31  5-MIN KMSN 232030Z 33016G22KT 10SM OVC070 07/M08 A2995  840 33 100 330/16G22 RMK AO2
14837KMSN MSN20050423143510304/23/05 14:35:31  5-MIN KMSN 232035Z 34014G22KT 10SM OVC065 08/M07 A2995  840 34 200 340/14G22 RMK AO2
14837KMSN MSN20050423144010304/23/05 14:40:31  5-MIN KMSN 232040Z 33014G21KT 10SM OVC070 08/M07 A2995  840 32 300 320/14G21 RMK AO2
14837KMSN MSN20050423144510304/23/05 14:45:31  5-MIN KMSN 232045Z 33011G21KT 10SM OVC070 08/M08 A2995  840 31 200 320/11G21 RMK AO2
14837KMSN MSN20050423145012604/23/05 14:50:31  5-MIN KMSN 232050Z 34013G21KT 10SM BKN065 08/M08 A2994  840 32 200 340/13G21 RMK AO2 SLP146 T00781078 57009
14837KMSN MSN20050423145510304/23/05 14:55:31  5-MIN KMSN 232055Z 35016G21KT 10SM OVC070 07/M08 A2994  840 33 100 340/16G21 RMK AO2
14837KMSN MSN20050423150010304/23/05 15:00:31  5-MIN KMSN 232100Z 34015G21KT 10SM BKN070 07/M09 A2994  840 31 200 340/15G21 RMK AO2
14837KMSN MSN20050423150510304/23/05 15:05:31  5-MIN KMSN 232105Z 34013G25KT 10SM BKN070 07/M09 A2994  840 32 100 340/13G25 RMK AO2
14837KMSN MSN20050423151010304/23/05 15:10:31  5-MIN KMSN 232110Z 34013G25KT 10SM BKN070 07/M09 A2994  840 31 200 340/13G25 RMK AO2
14837KMSN MSN20050423151510304/23/05 15:15:31  5-MIN KMSN 232115Z 33015G21KT 10SM BKN070 07/M09 A2994  850 31 200 330/15G21 RMK AO2
14837KMSN MSN20050423152010304/23/05 15:20:31  5-MIN KMSN 232120Z 35012G21KT 10SM BKN070 07/M09 A2994  850 32 100 350/12G21 RMK AO2
14837KMSN MSN20050423152509604/23/05 15:25:31  5-MIN KMSN 232125Z 35015KT 10SM BKN075 07/M08 A2994 850 32 200 350/15 RMK AO2
14837KMSN MSN20050423153010304/23/05 15:30:31  5-MIN KMSN 232130Z 34014G21KT 10SM BKN075 07/M09 A2994  850 31 200 340/14G21 RMK AO2
14837KMSN MSN20050423153510304/23/05 15:35:31  5-MIN KMSN 232135Z 34017G21KT 10SM BKN075 07/M09 A2994  850 31 200 330/17G21 RMK AO2
14837KMSN MSN20050423154009604/23/05 15:40:31  5-MIN KMSN 232140Z 34015KT 10SM BKN075 07/M09 A2994 850 31 200 340/15 RMK AO2
14837KMSN MSN20050423154510904/23/05 15:45:31  5-MIN KMSN 232145Z 34015G21KT 10SM BKN070 BKN085 07/M09 A2994 850 30 100 340/15G21 RMK AO2
14837KMSN MSN20050423155012104/23/05 15:50:31  5-MIN KMSN 232150Z 35014KT 10SM BKN070 BKN085 07/M10  A2994 850 29 100 340/14 RMK AO2 SLP145 T00671100
14837KMSN MSN20050423155510704/23/05 15:55:31  5-MIN KMSN 232155Z 34014G19KT 10SM BKN070 OVC085 06/M10 A2993 850 30 0 340/14G19 RMK AO2
14837KMSN MSN20050423160010904/23/05 16:00:31  5-MIN KMSN 232200Z 34014G19KT 10SM BKN070 BKN085 07/M09 A2994 850 32 100 340/14G19 RMK AO2
14837KMSN MSN20050423160510904/23/05 16:05:31  5-MIN KMSN 232205Z 34016G20KT 10SM BKN070 BKN085 07/M10 A2994 850 29 100 340/16G20 RMK AO2
14837KMSN MSN20050423161010904/23/05 16:10:31  5-MIN KMSN 232210Z 33012G20KT 10SM BKN070 BKN085 07/M10 A2993 850 29 100 330/12G20 RMK AO2
14837KMSN MSN20050423161510904/23/05 16:15:31  5-MIN KMSN 232215Z 33012G18KT 10SM BKN070 BKN085 07/M09 A2993 850 31 200 330/12G18 RMK AO2
14837KMSN MSN20050423162010904/23/05 16:20:31  5-MIN KMSN 232220Z 33014G20KT 10SM BKN070 BKN085 08/M09 A2993 850 29 200 330/14G20 RMK AO2
14837KMSN MSN20050423162510304/23/05 16:25:31  5-MIN KMSN 232225Z 32017G24KT 10SM SCT070 07/M09 A2993  850 29 200 320/17G24 RMK AO2
14837KMSN MSN20050423163010304/23/05 16:30:31  5-MIN KMSN 232230Z 32015G24KT 10SM SCT075 08/M09 A2993  850 29 200 320/15G24 RMK AO2
14837KMSN MSN20050423163510304/23/05 16:35:31  5-MIN KMSN 232235Z 33014G21KT 10SM BKN080 08/M09 A2994  850 29 200 330/14G21 RMK AO2
14837KMSN MSN20050423164010304/23/05 16:40:31  5-MIN KMSN 232240Z 33012G21KT 10SM BKN080 07/M09 A2994  850 30 100 330/12G21 RMK AO2
14837KMSN MSN20050423164510304/23/05 16:45:31  5-MIN KMSN 232245Z 34012G20KT 10SM BKN080 07/M10 A2994  850 29 100 340/12G20 RMK AO2
14837KMSN MSN20050423165011304/23/05 16:50:31  5-MIN KMSN 232250Z 36017KT 10SM BKN080 07/M09 A2994 850 30 100 350/17 RMK AO2 SLP144 T00671094
14837KMSN MSN20050423165510104/23/05 16:55:31  5-MIN KMSN 232255Z 35016G19KT 10SM BKN080 06/M09 A2994  850 32 0 350/16G19 RMK AO2
14837KMSN MSN20050423170010104/23/05 17:00:31  5-MIN KMSN 232300Z 34014G19KT 10SM OVC080 06/M09 A2994  850 32 0 340/14G19 RMK AO2
14837KMSN MSN20050423170509404/23/05 17:05:31  5-MIN KMSN 232305Z 34012KT 10SM BKN080 06/M09 A2993 850 32 0 340/12 RMK AO2
14837KMSN MSN20050423171010104/23/05 17:10:31  5-MIN KMSN 232310Z 34012G21KT 10SM BKN080 06/M10 A2993  850 30 0 340/12G21 RMK AO2
14837KMSN MSN20050423171510104/23/05 17:15:31  5-MIN KMSN 232315Z 33015G21KT 10SM BKN080 06/M11 A2994  850 29 0 330/15G21 RMK AO2
14837KMSN MSN20050423172009404/23/05 17:20:31  5-MIN KMSN 232320Z 33013KT 10SM BKN080 06/M10 A2993 850 30 0 330/13 RMK AO2
14837KMSN MSN20050423172509604/23/05 17:25:31  5-MIN KMSN 232325Z 33013KT 10SM BKN080 07/M10 A2993 850 29 100 330/13 RMK AO2
14837KMSN MSN20050423173010304/23/05 17:30:31  5-MIN KMSN 232330Z 34013G21KT 10SM BKN080 07/M11 A2993  850 27 200 340/13G21 RMK AO2
14837KMSN MSN20050423173510304/23/05 17:35:31  5-MIN KMSN 232335Z 34017G24KT 10SM OVC080 07/M11 A2994  850 28 100 340/17G24 RMK AO2
14837KMSN MSN20050423174010304/23/05 17:40:31  5-MIN KMSN 232340Z 34016G24KT 10SM BKN080 07/M10 A2994  850 29 100 340/16G24 RMK AO2
14837KMSN MSN20050423174510304/23/05 17:45:31  5-MIN KMSN 232345Z 34013G21KT 10SM BKN080 07/M11 A2994  850 28 100 340/13G21 RMK AO2
14837KMSN MSN20050423175013604/23/05 17:50:31  5-MIN KMSN 232350Z 34016G20KT 10SM BKN080 06/M10 A2994  850 30 0 340/16G20 RMK AO2 SLP145 T00611100 10083 20056 57008
14837KMSN MSN20050423175510104/23/05 17:55:31  5-MIN KMSN 232355Z 34016G22KT 10SM SCT080 06/M11 A2994  850 29 0 330/16G22 RMK AO2
14837KMSN MSN20050423180010104/23/05 18:00:31  5-MIN KMSN 240000Z 34012G22KT 10SM BKN080 06/M11 A2994  850 29 0 340/12G22 RMK AO2
14837KMSN MSN20050423180510104/23/05 18:05:31  5-MIN KMSN 240005Z 34015G19KT 10SM SCT080 06/M11 A2994  850 29 0 340/15G19 RMK AO2
14837KMSN MSN20050423181010104/23/05 18:10:31  5-MIN KMSN 240010Z 34015G21KT 10SM FEW080 06/M11 A2994  850 28 0 340/15G21 RMK AO2
14837KMSN MSN20050423181509404/23/05 18:15:31  5-MIN KMSN 240015Z 34012KT 10SM FEW080 06/M11 A2994 850 28 0 340/12 RMK AO2
14837KMSN MSN20050423182010104/23/05 18:20:31  5-MIN KMSN 240020Z 34013G19KT 10SM SCT080 06/M11 A2994  850 30 0 340/13G19 RMK AO2
14837KMSN MSN20050423182509404/23/05 18:25:31  5-MIN KMSN 240025Z 34012KT 10SM SCT080 06/M11 A2994 850 30 0 330/12 RMK AO2
14837KMSN MSN20050423183009404/23/05 18:30:31  5-MIN KMSN 240030Z 34013KT 10SM SCT080 06/M11 A2994 850 29 0 340/13 RMK AO2
14837KMSN MSN20050423183510104/23/05 18:35:31  5-MIN KMSN 240035Z 33015G21KT 10SM SCT080 06/M11 A2994  850 29 0 330/15G21 RMK AO2
14837KMSN MSN20050423184010104/23/05 18:40:31  5-MIN KMSN 240040Z 34012G21KT 10SM SCT080 06/M11 A2994  840 29 0 330/12G21 RMK AO2
14837KMSN MSN20050423184510404/23/05 18:45:31  5-MIN KMSN 240045Z 34011G18KT 10SM FEW080 05/M11 A2994  840 31 -100 340/11G18 RMK AO2
14837KMSN MSN20050423185011404/23/05 18:50:31  5-MIN KMSN 240050Z 34010KT 10SM FEW080 05/M11 A2995 840 31 -100 340/10 RMK AO2 SLP148 T00501106
14837KMSN MSN20050423185509704/23/05 18:55:31  5-MIN KMSN 240055Z 34010KT 10SM FEW090 05/M10 A2995 840 33 -100 340/10 RMK AO2
14837KMSN MSN20050423190010404/23/05 19:00:31  5-MIN KMSN 240100Z 33011G16KT 10SM FEW090 04/M10 A2995  840 34 -100 330/11G16 RMK AO2
14837KMSN MSN20050423190509704/23/05 19:05:31  5-MIN KMSN 240105Z 33010KT 10SM FEW090 04/M10 A2995 840 34 -100 330/10 RMK AO2
14837KMSN MSN20050423191009704/23/05 19:10:31  5-MIN KMSN 240110Z 34011KT 10SM FEW090 04/M11 A2995 840 33 -100 340/11 RMK AO2
14837KMSN MSN20050423191509704/23/05 19:15:31  5-MIN KMSN 240115Z 33011KT 10SM FEW090 04/M11 A2995 840 33 -100 330/11 RMK AO2
14837KMSN MSN20050423192009704/23/05 19:20:31  5-MIN KMSN 240120Z 34010KT 10SM FEW100 04/M11 A2995 840 33 -100 340/10 RMK AO2
14837KMSN MSN20050423192509704/23/05 19:25:31  5-MIN KMSN 240125Z 34012KT 10SM FEW100 04/M11 A2995 830 33 -200 340/12 RMK AO2
14837KMSN MSN20050423193009704/23/05 19:30:31  5-MIN KMSN 240130Z 34010KT 10SM FEW100 04/M11 A2995 840 33 -200 340/10 RMK AO2
14837KMSN MSN20050423193509704/23/05 19:35:31  5-MIN KMSN 240135Z 34010KT 10SM FEW100 04/M11 A2995 830 33 -200 340/10 RMK AO2
14837KMSN MSN20050423194009704/23/05 19:40:31  5-MIN KMSN 240140Z 34010KT 10SM FEW100 04/M11 A2995 830 33 -200 340/10 RMK AO2
14837KMSN MSN20050423194509704/23/05 19:45:31  5-MIN KMSN 240145Z 33009KT 10SM FEW100 04/M10 A2996 830 35 -200 330/09 RMK AO2
14837KMSN MSN20050423195011404/23/05 19:50:31  5-MIN KMSN 240150Z 33011KT 10SM FEW100 04/M10 A2996 830 35 -200 330/11 RMK AO2 SLP152 T00391100
14837KMSN MSN20050423195509404/23/05 19:55:31  5-MIN KMSN 240155Z 33009KT 10SM CLR 04/M10 A2996 830 35 -200 330/09 RMK AO2
14837KMSN MSN20050423200010004/23/05 20:00:31  5-MIN KMSN 240200Z 33011G17KT 10SM CLR 04/M09 A2996 830 37 -200 330/11G17 RMK AO2
14837KMSN MSN20050423200510004/23/05 20:05:31  5-MIN KMSN 240205Z 33011G17KT 10SM CLR 04/M09 A2996 830 37 -200 330/11G17 RMK AO2
14837KMSN MSN20050423201009404/23/05 20:10:31  5-MIN KMSN 240210Z 33011KT 10SM CLR 04/M10 A2996 830 35 -200 330/11 RMK AO2
14837KMSN MSN20050423201509404/23/05 20:15:31  5-MIN KMSN 240215Z 34013KT 10SM CLR 04/M10 A2996 830 35 -200 330/13 RMK AO2
14837KMSN MSN20050423202009404/23/05 20:20:31  5-MIN KMSN 240220Z 33011KT 10SM CLR 04/M10 A2996 830 35 -200 330/11 RMK AO2
14837KMSN MSN20050423202510004/23/05 20:25:31  5-MIN KMSN 240225Z 33011G18KT 10SM CLR 04/M10 A2996 830 35 -200 330/11G18 RMK AO2
14837KMSN MSN20050423203010004/23/05 20:30:31  5-MIN KMSN 240230Z 33010G18KT 10SM CLR 03/M10 A2996 820 37 -300 330/10G18 RMK AO2
14837KMSN MSN20050423203509404/23/05 20:35:31  5-MIN KMSN 240235Z 33011KT 10SM CLR 03/M10 A2996 820 37 -300 330/11 RMK AO2
14837KMSN MSN20050423204009404/23/05 20:40:31  5-MIN KMSN 240240Z 33010KT 10SM CLR 03/M10 A2997 820 37 -300 330/10 RMK AO2
14837KMSN MSN20050423204509404/23/05 20:45:31  5-MIN KMSN 240245Z 33010KT 10SM CLR 03/M10 A2997 820 37 -300 330/10 RMK AO2
14837KMSN MSN20050423205011704/23/05 20:50:31  5-MIN KMSN 240250Z 33010KT 10SM CLR 03/M10 A2996 820 37 -300 330/10 RMK AO2 SLP154 T00331100 55002
14837KMSN MSN20050423205509404/23/05 20:55:31  5-MIN KMSN 240255Z 33012KT 10SM CLR 03/M10 A2996 820 37 -300 330/12 RMK AO2
14837KMSN MSN20050423210009404/23/05 21:00:31  5-MIN KMSN 240300Z 33011KT 10SM CLR 03/M10 A2996 820 37 -300 330/11 RMK AO2
14837KMSN MSN20050423210509404/23/05 21:05:31  5-MIN KMSN 240305Z 33010KT 10SM CLR 03/M10 A2996 820 38 -400 330/10 RMK AO2
14837KMSN MSN20050423211009404/23/05 21:10:31  5-MIN KMSN 240310Z 33011KT 10SM CLR 03/M09 A2996 830 39 -300 330/11 RMK AO2
14837KMSN MSN20050423211510004/23/05 21:15:31  5-MIN KMSN 240315Z 33011G17KT 10SM CLR 03/M09 A2996 830 39 -300 330/11G17 RMK AO2
14837KMSN MSN20050423212010004/23/05 21:20:31  5-MIN KMSN 240320Z 33012G17KT 10SM CLR 03/M10 A2996 830 37 -300 330/12G17 RMK AO2
14837KMSN MSN20050423212509404/23/05 21:25:31  5-MIN KMSN 240325Z 33008KT 10SM CLR 03/M10 A2996 830 38 -400 330/08 RMK AO2
14837KMSN MSN20050423213009404/23/05 21:30:31  5-MIN KMSN 240330Z 32008KT 10SM CLR 03/M10 A2996 830 38 -400 320/08 RMK AO2
14837KMSN MSN20050423213509404/23/05 21:35:31  5-MIN KMSN 240335Z 32008KT 10SM CLR 03/M09 A2995 830 40 -400 320/08 RMK AO2
14837KMSN MSN20050423214009404/23/05 21:40:31  5-MIN KMSN 240340Z 32010KT 10SM CLR 03/M09 A2995 830 40 -400 320/10 RMK AO2
14837KMSN MSN20050423214509404/23/05 21:45:31  5-MIN KMSN 240345Z 33011KT 10SM CLR 03/M09 A2995 840 40 -400 330/11 RMK AO2
14837KMSN MSN20050423215011104/23/05 21:50:31  5-MIN KMSN 240350Z 33008KT 10SM CLR 03/M10 A2995 840 38 -400 330/08 RMK AO2 SLP150 T00281100
14837KMSN MSN20050423215509404/23/05 21:55:31  5-MIN KMSN 240355Z 33011KT 10SM CLR 03/M09 A2995 840 40 -400 330/11 RMK AO2
14837KMSN MSN20050423220009404/23/05 22:00:31  5-MIN KMSN 240400Z 32010KT 10SM CLR 03/M10 A2995 840 38 -300 320/10 RMK AO2
14837KMSN MSN20050423220509404/23/05 22:05:31  5-MIN KMSN 240405Z 33009KT 10SM CLR 02/M09 A2994 840 42 -400 330/09 RMK AO2
14837KMSN MSN20050423221009404/23/05 22:10:31  5-MIN KMSN 240410Z 33010KT 10SM CLR 02/M10 A2994 840 40 -400 330/10 RMK AO2
14837KMSN MSN20050423221509404/23/05 22:15:31  5-MIN KMSN 240415Z 33010KT 10SM CLR 02/M09 A2994 850 42 -400 330/10 RMK AO2
14837KMSN MSN20050423222009404/23/05 22:20:31  5-MIN KMSN 240420Z 33012KT 10SM CLR 02/M10 A2994 850 40 -400 330/12 RMK AO2
14837KMSN MSN20050423222509404/23/05 22:25:31  5-MIN KMSN 240425Z 33010KT 10SM CLR 02/M10 A2994 850 40 -400 330/10 RMK AO2
14837KMSN MSN20050423223009404/23/05 22:30:31  5-MIN KMSN 240430Z 33010KT 10SM CLR 02/M09 A2994 850 42 -400 330/10 RMK AO2
14837KMSN MSN20050423223509404/23/05 22:35:31  5-MIN KMSN 240435Z 33010KT 10SM CLR 02/M09 A2994 850 42 -400 330/10 RMK AO2
14837KMSN MSN20050423224009404/23/05 22:40:31  5-MIN KMSN 240440Z 33009KT 10SM CLR 02/M10 A2994 850 40 -400 330/09 RMK AO2
14837KMSN MSN20050423224509404/23/05 22:45:31  5-MIN KMSN 240445Z 33011KT 10SM CLR 02/M10 A2993 850 40 -400 330/11 RMK AO2
14837KMSN MSN20050423225011104/23/05 22:50:31  5-MIN KMSN 240450Z 33013KT 10SM CLR 02/M10 A2993 850 40 -400 330/13 RMK AO2 SLP142 T00221100
14837KMSN MSN20050423225510004/23/05 22:55:31  5-MIN KMSN 240455Z 32010G17KT 10SM CLR 02/M09 A2993 860 42 -400 320/10G17 RMK AO2
14837KMSN MSN20050423230009404/23/05 23:00:31  5-MIN KMSN 240500Z 32010KT 10SM CLR 02/M10 A2993 860 40 -400 320/10 RMK AO2
14837KMSN MSN20050423230509404/23/05 23:05:31  5-MIN KMSN 240505Z 33009KT 10SM CLR 02/M10 A2993 860 40 -400 330/09 RMK AO2
14837KMSN MSN20050423231009404/23/05 23:10:31  5-MIN KMSN 240510Z 33009KT 10SM CLR 02/M10 A2993 860 40 -400 330/09 RMK AO2
14837KMSN MSN20050423231509404/23/05 23:15:31  5-MIN KMSN 240515Z 32007KT 10SM CLR 02/M09 A2993 860 43 -500 320/07 RMK AO2
14837KMSN MSN20050423232009404/23/05 23:20:31  5-MIN KMSN 240520Z 33010KT 10SM CLR 02/M09 A2993 860 43 -500 330/10 RMK AO2
14837KMSN MSN20050423232509404/23/05 23:25:31  5-MIN KMSN 240525Z 33009KT 10SM CLR 02/M09 A2992 860 43 -500 320/09 RMK AO2
14837KMSN MSN20050423233009404/23/05 23:30:31  5-MIN KMSN 240530Z 32010KT 10SM CLR 02/M09 A2992 860 43 -500 320/10 RMK AO2
14837KMSN MSN20050423233509404/23/05 23:35:31  5-MIN KMSN 240535Z 32009KT 10SM CLR 02/M09 A2992 860 43 -500 320/09 RMK AO2
14837KMSN MSN20050423234010004/23/05 23:40:31  5-MIN KMSN 240540Z 33010G17KT 10SM CLR 02/M09 A2992 860 43 -500 330/10G17 RMK AO2
14837KMSN MSN20050423234510004/23/05 23:45:31  5-MIN KMSN 240545Z 33008G17KT 10SM CLR 02/M09 A2992 860 43 -500 330/08G17 RMK AO2
14837KMSN MSN20050423235014504/23/05 23:50:31  5-MIN KMSN 240550Z 33012G17KT 10SM CLR 02/M09 A2992 860 43 -500 330/12G17 RMK AO2 SLP140 T00171094 10061 20017 400831006 51009
14837KMSN MSN20050423235510004/23/05 23:55:31  5-MIN KMSN 240555Z 33010G16KT 10SM CLR 02/M09 A2992 860 43 -500 330/10G16 RMK AO2
14837KMSN MSN20050424000009404/24/05 00:00:31  5-MIN KMSN 240600Z 33008KT 10SM CLR 02/M09 A2992 860 43 -500 330/08 RMK AO2
14837KMSN MSN20050424000509404/24/05 00:05:31  5-MIN KMSN 240605Z 33009KT 10SM CLR 02/M10 A2992 870 42 -500 330/09 RMK AO2
14837KMSN MSN20050424001009404/24/05 00:10:31  5-MIN KMSN 240610Z 33010KT 10SM CLR 02/M09 A2992 870 43 -500 330/10 RMK AO2
14837KMSN MSN20050424001509404/24/05 00:15:31  5-MIN KMSN 240615Z 33008KT 10SM CLR 02/M09 A2992 870 43 -500 330/08 RMK AO2
14837KMSN MSN20050424002009404/24/05 00:20:31  5-MIN KMSN 240620Z 32009KT 10SM CLR 02/M09 A2992 870 43 -500 320/09 RMK AO2
14837KMSN MSN20050424002509404/24/05 00:25:31  5-MIN KMSN 240625Z 33010KT 10SM CLR 02/M09 A2992 870 43 -500 330/10 RMK AO2
14837KMSN MSN20050424003009404/24/05 00:30:31  5-MIN KMSN 240630Z 33010KT 10SM CLR 02/M09 A2991 870 43 -500 330/10 RMK AO2
14837KMSN MSN20050424003510004/24/05 00:35:31  5-MIN KMSN 240635Z 33012G19KT 10SM CLR 02/M09 A2991 870 43 -400 320/12G19 RMK AO2
14837KMSN MSN20050424004010004/24/05 00:40:31  5-MIN KMSN 240640Z 33012G19KT 10SM CLR 02/M09 A2991 870 43 -400 330/12G19 RMK AO2
14837KMSN MSN20050424004509404/24/05 00:45:31  5-MIN KMSN 240645Z 33012KT 10SM CLR 02/M09 A2991 880 43 -400 330/12 RMK AO2
14837KMSN MSN20050424005011104/24/05 00:50:31  5-MIN KMSN 240650Z 34012KT 10SM CLR 02/M09 A2990 880 45 -400 340/12 RMK AO2 SLP133 T00171089
14837KMSN MSN20050424005509404/24/05 00:55:31  5-MIN KMSN 240655Z 33012KT 10SM CLR 02/M09 A2990 880 45 -400 330/12 RMK AO2
14837KMSN MSN20050424010009404/24/05 01:00:31  5-MIN KMSN 240700Z 33011KT 10SM CLR 01/M09 A2990 880 47 -500 330/11 RMK AO2
14837KMSN MSN20050424010509404/24/05 01:05:31  5-MIN KMSN 240705Z 34012KT 10SM CLR 01/M09 A2990 880 47 -500 330/12 RMK AO2
14837KMSN MSN20050424011010004/24/05 01:10:31  5-MIN KMSN 240710Z 33012G17KT 10SM CLR 02/M09 A2990 880 45 -400 330/12G17 RMK AO2
14837KMSN MSN20050424011509404/24/05 01:15:31  5-MIN KMSN 240715Z 34011KT 10SM CLR 01/M09 A2990 880 47 -500 340/11 RMK AO2
14837KMSN MSN20050424012009404/24/05 01:20:31  5-MIN KMSN 240720Z 34012KT 10SM CLR 01/M09 A2990 880 47 -500 330/12 RMK AO2
14837KMSN MSN20050424012509404/24/05 01:25:31  5-MIN KMSN 240725Z 33010KT 10SM CLR 01/M09 A2990 890 47 -500 330/10 RMK AO2
14837KMSN MSN20050424013009404/24/05 01:30:31  5-MIN KMSN 240730Z 33010KT 10SM CLR 01/M09 A2990 890 47 -500 330/10 RMK AO2
14837KMSN MSN20050424013509404/24/05 01:35:31  5-MIN KMSN 240735Z 33010KT 10SM CLR 01/M08 A2990 890 49 -500 330/10 RMK AO2
14837KMSN MSN20050424014009404/24/05 01:40:31  5-MIN KMSN 240740Z 33010KT 10SM CLR 01/M08 A2990 880 49 -500 330/10 RMK AO2
14837KMSN MSN20050424014509404/24/05 01:45:31  5-MIN KMSN 240745Z 34011KT 10SM CLR 01/M08 A2990 890 51 -600 330/11 RMK AO2
14837KMSN MSN20050424015011104/24/05 01:50:31  5-MIN KMSN 240750Z 34011KT 10SM CLR 01/M08 A2990 890 49 -500 340/11 RMK AO2 SLP131 T00111083
14837KMSN MSN20050424015510004/24/05 01:55:31  5-MIN KMSN 240755Z 33012G17KT 10SM CLR 01/M08 A2990 890 49 -500 330/12G17 RMK AO2
14837KMSN MSN20050424020010004/24/05 02:00:31  5-MIN KMSN 240800Z 33010G17KT 10SM CLR 01/M08 A2990 890 51 -500 330/10G17 RMK AO2
14837KMSN MSN20050424020509404/24/05 02:05:31  5-MIN KMSN 240805Z 34011KT 10SM CLR 01/M08 A2989 890 54 -600 330/11 RMK AO2
14837KMSN MSN20050424021009404/24/05 02:10:31  5-MIN KMSN 240810Z 34011KT 10SM CLR 01/M08 A2989 890 54 -600 340/11 RMK AO2
14837KMSN MSN20050424021509404/24/05 02:15:31  5-MIN KMSN 240815Z 33010KT 10SM CLR 01/M08 A2989 890 54 -600 330/10 RMK AO2
14837KMSN MSN20050424022009404/24/05 02:20:31  5-MIN KMSN 240820Z 33012KT 10SM CLR 01/M08 A2989 890 51 -600 330/12 RMK AO2
14837KMSN MSN20050424022509404/24/05 02:25:31  5-MIN KMSN 240825Z 34011KT 10SM CLR 01/M08 A2989 890 54 -600 330/11 RMK AO2
14837KMSN MSN20050424023009404/24/05 02:30:31  5-MIN KMSN 240830Z 34011KT 10SM CLR 01/M08 A2989 890 54 -600 330/11 RMK AO2
14837KMSN MSN20050424023509404/24/05 02:35:31  5-MIN KMSN 240835Z 34011KT 10SM CLR 01/M08 A2989 890 54 -600 330/11 RMK AO2
14837KMSN MSN20050424024009404/24/05 02:40:31  5-MIN KMSN 240840Z 33013KT 10SM CLR 01/M08 A2989 890 54 -600 330/13 RMK AO2
14837KMSN MSN20050424024509404/24/05 02:45:31  5-MIN KMSN 240845Z 33011KT 10SM CLR 01/M08 A2989 890 54 -600 330/11 RMK AO2
14837KMSN MSN20050424025011704/24/05 02:50:31  5-MIN KMSN 240850Z 34011KT 10SM CLR 01/M08 A2989 890 54 -600 340/11 RMK AO2 SLP128 T00061078 56014
14837KMSN MSN20050424025509404/24/05 02:55:31  5-MIN KMSN 240855Z 33011KT 10SM CLR 01/M08 A2989 890 54 -600 330/11 RMK AO2
14837KMSN MSN20050424030009404/24/05 03:00:31  5-MIN KMSN 240900Z 33011KT 10SM CLR 01/M08 A2989 890 54 -600 330/11 RMK AO2
14837KMSN MSN20050424030509404/24/05 03:05:31  5-MIN KMSN 240905Z 33011KT 10SM CLR 01/M08 A2989 890 54 -600 330/11 RMK AO2
14837KMSN MSN20050424031009404/24/05 03:10:31  5-MIN KMSN 240910Z 33010KT 10SM CLR 01/M07 A2989 890 56 -600 320/10 RMK AO2
14837KMSN MSN20050424031509404/24/05 03:15:31  5-MIN KMSN 240915Z 33010KT 10SM CLR 00/M07 A2989 900 58 -600 330/10 RMK AO2
14837KMSN MSN20050424032009404/24/05 03:20:31  5-MIN KMSN 240920Z 33010KT 10SM CLR 00/M07 A2989 900 58 -600 330/10 RMK AO2
14837KMSN MSN20050424032509404/24/05 03:25:31  5-MIN KMSN 240925Z 33010KT 10SM CLR 00/M07 A2988 900 58 -600 330/10 RMK AO2
14837KMSN MSN20050424033009404/24/05 03:30:31  5-MIN KMSN 240930Z 33011KT 10SM CLR 00/M07 A2988 900 58 -600 330/11 RMK AO2
14837KMSN MSN20050424033509404/24/05 03:35:31  5-MIN KMSN 240935Z 33008KT 10SM CLR 00/M07 A2988 900 58 -600 330/08 RMK AO2
14837KMSN MSN20050424034009404/24/05 03:40:31  5-MIN KMSN 240940Z 33009KT 10SM CLR 00/M07 A2988 900 58 -600 320/09 RMK AO2
14837KMSN MSN20050424034509404/24/05 03:45:31  5-MIN KMSN 240945Z 33011KT 10SM CLR 00/M07 A2988 900 58 -600 330/11 RMK AO2
14837KMSN MSN20050424035011104/24/05 03:50:31  5-MIN KMSN 240950Z 32010KT 10SM CLR 00/M07 A2988 900 58 -600 320/10 RMK AO2 SLP126 T00001072
14837KMSN MSN20050424035509404/24/05 03:55:31  5-MIN KMSN 240955Z 32010KT 10SM CLR 00/M07 A2988 900 58 -600 320/10 RMK AO2
14837KMSN MSN20050424040009404/24/05 04:00:31  5-MIN KMSN 241000Z 32011KT 10SM CLR 00/M07 A2988 900 61 -600 320/11 RMK AO2
14837KMSN MSN20050424040509404/24/05 04:05:31  5-MIN KMSN 241005Z 33011KT 10SM CLR 00/M07 A2988 900 61 -600 320/11 RMK AO2
14837KMSN MSN20050424041009404/24/05 04:10:31  5-MIN KMSN 241010Z 33011KT 10SM CLR 00/M07 A2988 900 61 -600 330/11 RMK AO2
14837KMSN MSN20050424041509404/24/05 04:15:31  5-MIN KMSN 241015Z 33009KT 10SM CLR 00/M07 A2988 910 61 -600 330/09 RMK AO2
14837KMSN MSN20050424042009404/24/05 04:20:31  5-MIN KMSN 241020Z 33012KT 10SM CLR 00/M07 A2987 910 61 -600 330/12 RMK AO2
14837KMSN MSN20050424042509404/24/05 04:25:31  5-MIN KMSN 241025Z 32012KT 10SM CLR 00/M07 A2987 910 61 -600 320/12 RMK AO2
14837KMSN MSN20050424043009404/24/05 04:30:31  5-MIN KMSN 241030Z 32012KT 10SM CLR 00/M07 A2987 910 61 -600 320/12 RMK AO2
14837KMSN MSN20050424043510004/24/05 04:35:31  5-MIN KMSN 241035Z 33011G17KT 10SM CLR 00/M07 A2987 910 61 -600 330/11G17 RMK AO2
14837KMSN MSN20050424044010004/24/05 04:40:31  5-MIN KMSN 241040Z 32011G17KT 10SM CLR 00/M07 A2987 910 61 -600 320/11G17 RMK AO2
14837KMSN MSN20050424044510004/24/05 04:45:31  5-MIN KMSN 241045Z 33009G18KT 10SM CLR 00/M07 A2987 910 61 -600 320/09G18 RMK AO2
14837KMSN MSN20050424045011704/24/05 04:50:31  5-MIN KMSN 241050Z 32012G18KT 10SM CLR 00/M07 A2987 910 61 -600 320/12G18 RMK AO2 SLP123 T00001067
14837KMSN MSN20050424045509404/24/05 04:55:31  5-MIN KMSN 241055Z 32011KT 10SM CLR 00/M07 A2987 910 61 -600 320/11 RMK AO2
14837KMSN MSN20050424050010004/24/05 05:00:31  5-MIN KMSN 241100Z 32012G15KT 10SM CLR 00/M07 A2987 910 61 -600 320/12G15 RMK AO2
14837KMSN MSN20050424050510004/24/05 05:05:31  5-MIN KMSN 241105Z 33010G15KT 10SM CLR 00/M06 A2987 910 63 -600 330/10G15 RMK AO2
14837KMSN MSN20050424051010004/24/05 05:10:31  5-MIN KMSN 241110Z 32010G17KT 10SM CLR 00/M06 A2987 910 63 -600 320/10G17 RMK AO2
14837KMSN MSN20050424051510004/24/05 05:15:31  5-MIN KMSN 241115Z 32011G17KT 10SM CLR 00/M06 A2987 910 63 -600 320/11G17 RMK AO2
14837KMSN MSN20050424052010004/24/05 05:20:31  5-MIN KMSN 241120Z 33011G20KT 10SM CLR 00/M06 A2987 910 63 -600 320/11G20 RMK AO2
14837KMSN MSN20050424052510004/24/05 05:25:31  5-MIN KMSN 241125Z 32012G20KT 10SM CLR 00/M06 A2987 920 63 -600 320/12G20 RMK AO2
14837KMSN MSN20050424053009404/24/05 05:30:31  5-MIN KMSN 241130Z 32011KT 10SM CLR 00/M06 A2987 920 63 -600 320/11 RMK AO2
14837KMSN MSN20050424053509404/24/05 05:35:31  5-MIN KMSN 241135Z 32011KT 10SM CLR 00/M06 A2986 920 63 -600 320/11 RMK AO2
14837KMSN MSN20050424054009404/24/05 05:40:31  5-MIN KMSN 241140Z 32011KT 10SM CLR 00/M06 A2986 920 63 -600 320/11 RMK AO2
14837KMSN MSN20050424054509404/24/05 05:45:31  5-MIN KMSN 241145Z 32009KT 10SM CLR 00/M06 A2986 920 63 -600 310/09 RMK AO2
14837KMSN MSN20050424055013504/24/05 05:50:31  5-MIN KMSN 241150Z 32013G18KT 10SM CLR 00/M06 A2986 920 63 -600 320/13G18 RMK AO2 SLP119 T00001061 10017 20000 56011
14837KMSN MSN20050424055510004/24/05 05:55:31  5-MIN KMSN 241155Z 32012G18KT 10SM CLR 01/M06 A2986 920 61 -500 320/12G18 RMK AO2
14837KMSN MSN20050424060010004/24/05 06:00:31  5-MIN KMSN 241200Z 32010G19KT 10SM CLR 01/M06 A2986 920 61 -500 320/10G19 RMK AO2
14837KMSN MSN20050424060510004/24/05 06:05:31  5-MIN KMSN 241205Z 32011G19KT 10SM CLR 01/M06 A2986 920 61 -500 320/11G19 RMK AO2
14837KMSN MSN20050424061009404/24/05 06:10:31  5-MIN KMSN 241210Z 32012KT 10SM CLR 01/M06 A2986 920 63 -500 320/12 RMK AO2
14837KMSN MSN20050424061510004/24/05 06:15:31  5-MIN KMSN 241215Z 33014G22KT 10SM CLR 01/M06 A2986 920 63 -500 330/14G22 RMK AO2
14837KMSN MSN20050424062010004/24/05 06:20:31  5-MIN KMSN 241220Z 33012G22KT 10SM CLR 01/M06 A2986 920 61 -500 330/12G22 RMK AO2
14837KMSN MSN20050424062509404/24/05 06:25:31  5-MIN KMSN 241225Z 32011KT 10SM CLR 01/M06 A2986 920 61 -500 320/11 RMK AO2
14837KMSN MSN20050424063010004/24/05 06:30:31  5-MIN KMSN 241230Z 32014G18KT 10SM CLR 01/M06 A2986 920 61 -500 310/14G18 RMK AO2
14837KMSN MSN20050424063510004/24/05 06:35:31  5-MIN KMSN 241235Z 32010G20KT 10SM CLR 01/M06 A2985 930 61 -500 320/10G20 RMK AO2
14837KMSN MSN20050424064010004/24/05 06:40:31  5-MIN KMSN 241240Z 33018G22KT 10SM CLR 01/M06 A2985 930 61 -500 330/18G22 RMK AO2
14837KMSN MSN20050424064510004/24/05 06:45:31  5-MIN KMSN 241245Z 32016G22KT 10SM CLR 01/M06 A2985 930 61 -500 320/16G22 RMK AO2
14837KMSN MSN20050424065012104/24/05 06:50:31  5-MIN KMSN 241250Z 33014G22KT 10SM FEW030 01/M05 A2985  930 64 -500 330/14G22 RMK AO2 SLP117 T00111050
14837KMSN MSN20050424065510004/24/05 06:55:31  5-MIN KMSN 241255Z 33015G21KT 10SM CLR 02/M06 A2985 930 59 -400 330/15G21 RMK AO2
14837KMSN MSN20050424070010004/24/05 07:00:31  5-MIN KMSN 241300Z 33014G21KT 10SM CLR 02/M05 A2985 930 61 -400 330/14G21 RMK AO2
14837KMSN MSN20050424070510004/24/05 07:05:31  5-MIN KMSN 241305Z 32011G20KT 10SM CLR 02/M05 A2985 930 59 -300 320/11G20 RMK AO2
14837KMSN MSN20050424071010004/24/05 07:10:31  5-MIN KMSN 241310Z 33015G24KT 10SM CLR 02/M05 A2985 930 59 -300 330/15G24 RMK AO2
14837KMSN MSN20050424071511804/24/05 07:15:31  5-MIN KMSN 241315Z 33020G27KT 10SM CLR 02/M05 A2984 930 59 -300 330/20G27 RMK AO2 PK WND 32027/1315
14837KMSN MSN20050424072012204/24/05 07:20:31  5-MIN KMSN 241320Z 34018G27KT 10SM FEW028 02/M05 A2985  930 59 -300 340/18G27 RMK AO2 PK WND 32027/1315
14837KMSN MSN20050424072512204/24/05 07:25:31  5-MIN KMSN 241325Z 33014G23KT 10SM FEW028 02/M05 A2985  930 59 -300 330/14G23 RMK AO2 PK WND 32027/1315
14837KMSN MSN20050424073012204/24/05 07:30:31  5-MIN KMSN 241330Z 33012G24KT 10SM SCT028 03/M04 A2985  930 59 -200 330/12G24 RMK AO2 PK WND 32027/1315
14837KMSN MSN20050424073512204/24/05 07:35:31  5-MIN KMSN 241335Z 34018G25KT 10SM BKN028 02/M05 A2985  930 59 -300 340/18G25 RMK AO2 PK WND 32027/1315
14837KMSN MSN20050424074012204/24/05 07:40:31  5-MIN KMSN 241340Z 34020G26KT 10SM BKN028 02/M05 A2985  930 59 -300 340/20G26 RMK AO2 PK WND 32027/1315
14837KMSN MSN20050424074512204/24/05 07:45:31  5-MIN KMSN 241345Z 34016G26KT 10SM BKN028 02/M05 A2985  930 59 -300 340/16G26 RMK AO2 PK WND 32027/1315
14837KMSN MSN20050424075013904/24/05 07:50:31  5-MIN KMSN 241350Z 33017G22KT 10SM BKN028 02/M04 A2985  930 61 -300 330/17G22 RMK AO2 PK WND 32027/1315 SLP114 T00221044
14837KMSN MSN20050424075510404/24/05 07:55:31  5-MIN KMSN 241355Z 32014G20KT 10SM OVC028 02/M05 A2984  930 59 -300 320/14G20 RMK AO2
14837KMSN MSN20050424080009704/24/05 08:00:31  5-MIN KMSN 241400Z 33012KT 10SM OVC028 03/M04 A2984 940 59 -200 330/12 RMK AO2
14837KMSN MSN20050424080510404/24/05 08:05:31  5-MIN KMSN 241405Z 34016G22KT 10SM OVC028 03/M04 A2984  940 59 -200 340/16G22 RMK AO2
14837KMSN MSN20050424081010404/24/05 08:10:31  5-MIN KMSN 241410Z 33019G25KT 10SM BKN028 02/M04 A2984  940 61 -300 330/19G25 RMK AO2
14837KMSN MSN20050424081510404/24/05 08:15:31  5-MIN KMSN 241415Z 33016G25KT 10SM BKN028 02/M05 A2984  940 59 -300 330/16G25 RMK AO2
14837KMSN MSN20050424082010404/24/05 08:20:31  5-MIN KMSN 241420Z 34016G24KT 10SM BKN028 03/M04 A2983  950 59 -200 340/16G24 RMK AO2
14837KMSN MSN20050424082510404/24/05 08:25:31  5-MIN KMSN 241425Z 32016G24KT 10SM BKN028 03/M04 A2983  950 59 -200 320/16G24 RMK AO2
14837KMSN MSN20050424083010404/24/05 08:30:31  5-MIN KMSN 241430Z 34019G24KT 10SM BKN028 03/M04 A2983  940 59 -200 340/19G24 RMK AO2
14837KMSN MSN20050424083512204/24/05 08:35:31  5-MIN KMSN 241435Z 33017G26KT 10SM BKN028 03/M04 A2983  950 59 -200 330/17G26 RMK AO2 PK WND 33026/1435
14837KMSN MSN20050424084012204/24/05 08:40:31  5-MIN KMSN 241440Z 34016G26KT 10SM BKN028 03/M04 A2983  950 59 -200 340/16G26 RMK AO2 PK WND 33026/1435
14837KMSN MSN20050424084512204/24/05 08:45:31  5-MIN KMSN 241445Z 33015G22KT 10SM BKN028 03/M04 A2983  950 57 -100 330/15G22 RMK AO2 PK WND 33026/1435
14837KMSN MSN20050424085014504/24/05 08:50:31  5-MIN KMSN 241450Z 32016G22KT 10SM BKN028 03/M04 A2983  950 57 -100 320/16G22 RMK AO2 PK WND 33026/1435 SLP108 T00331044 58009
14837KMSN MSN20050424085510404/24/05 08:55:31  5-MIN KMSN 241455Z 33015G22KT 10SM BKN031 03/M04 A2983  950 57 -100 330/15G22 RMK AO2
14837KMSN MSN20050424090010404/24/05 09:00:31  5-MIN KMSN 241500Z 33016G21KT 10SM BKN031 04/M04 A2983  950 57 -100 330/16G21 RMK AO2
14837KMSN MSN20050424090510404/24/05 09:05:31  5-MIN KMSN 241505Z 33011G22KT 10SM BKN031 04/M04 A2983  950 54 -100 320/11G22 RMK AO2
14837KMSN MSN20050424091010404/24/05 09:10:31  5-MIN KMSN 241510Z 31013G22KT 10SM BKN031 04/M04 A2982  950 57 -100 310/13G22 RMK AO2
14837KMSN MSN20050424091510404/24/05 09:15:31  5-MIN KMSN 241515Z 33016G22KT 10SM BKN031 04/M04 A2982  950 54 -100 320/16G22 RMK AO2
14837KMSN MSN20050424092010404/24/05 09:20:31  5-MIN KMSN 241520Z 33017G24KT 10SM BKN031 04/M04 A2982  960 54 -100 330/17G24 RMK AO2
14837KMSN MSN20050424092510104/24/05 09:25:31  5-MIN KMSN 241525Z 34017G24KT 10SM BKN031 04/M04 A2982  960 52 0 330/17G24 RMK AO2
14837KMSN MSN20050424093010104/24/05 09:30:31  5-MIN KMSN 241530Z 31012G21KT 10SM BKN031 04/M04 A2982  960 55 0 310/12G21 RMK AO2
14837KMSN MSN20050424093510104/24/05 09:35:31  5-MIN KMSN 241535Z 32014G18KT 10SM BKN031 05/M04 A2982  960 52 0 320/14G18 RMK AO2
14837KMSN MSN20050424094010304/24/05 09:40:31  5-MIN KMSN 241540Z 33014G19KT 10SM BKN034 06/M03 A2981  960 53 100 320/14G19 RMK AO2
14837KMSN MSN20050424094510304/24/05 09:45:31  5-MIN KMSN 241545Z 32017G21KT 10SM BKN034 06/M04 A2981  960 50 100 320/17G21 RMK AO2
14837KMSN MSN20050424095012004/24/05 09:50:31  5-MIN KMSN 241550Z 33014G21KT 10SM BKN034 06/M04 A2981  970 48 200 330/14G21 RMK AO2 SLP101 T00611039
14837KMSN MSN20050424095510304/24/05 09:55:31  5-MIN KMSN 241555Z 32011G20KT 10SM BKN034 06/M03 A2981  970 51 200 320/11G20 RMK AO2
14837KMSN MSN20050424100010304/24/05 10:00:31  5-MIN KMSN 241600Z 35013G20KT 10SM BKN034 07/M03 A2981  970 49 200 350/13G20 RMK AO2
14837KMSN MSN20050424100511804/24/05 10:05:31  5-MIN KMSN 241605Z 32013G21KT 290V350 10SM BKN036 07/M03 A2981 970 49 200 320/13G21 290V350 RMK AO2
14837KMSN MSN20050424101010304/24/05 10:10:31  5-MIN KMSN 241610Z 31014G21KT 10SM BKN036 06/M04 A2980  970 48 100 310/14G21 RMK AO2
14837KMSN MSN20050424101510304/24/05 10:15:31  5-MIN KMSN 241615Z 34018G22KT 10SM SCT036 06/M04 A2980  970 48 200 340/18G22 RMK AO2
14837KMSN MSN20050424102010304/24/05 10:20:31  5-MIN KMSN 241620Z 35016G22KT 10SM SCT038 06/M04 A2980  980 48 200 350/16G22 RMK AO2
14837KMSN MSN20050424102510304/24/05 10:25:31  5-MIN KMSN 241625Z 33016G21KT 10SM SCT038 07/M03 A2980  980 49 200 330/16G21 RMK AO2
14837KMSN MSN20050424103010304/24/05 10:30:31  5-MIN KMSN 241630Z 32017G22KT 10SM SCT038 07/M04 A2980  980 47 200 320/17G22 RMK AO2
14837KMSN MSN20050424103510304/24/05 10:35:31  5-MIN KMSN 241635Z 33014G22KT 10SM SCT038 07/M04 A2979  980 47 300 330/14G22 RMK AO2
14837KMSN MSN20050424104009604/24/05 10:40:31  5-MIN KMSN 241640Z 33011KT 10SM SCT038 07/M03 A2979 990 49 300 320/11 RMK AO2
14837KMSN MSN20050424104510304/24/05 10:45:31  5-MIN KMSN 241645Z 32009G19KT 10SM SCT038 06/M03 A2978  990 51 200 320/09G19 RMK AO2
14837KMSN MSN20050424105012004/24/05 10:50:31  5-MIN KMSN 241650Z 32011G21KT 10SM SCT038 07/M03 A2978  990 47 300 320/11G21 RMK AO2 SLP091 T00721033
14837KMSN MSN20050424105510304/24/05 10:55:31  5-MIN KMSN 241655Z 30014G21KT 10SM FEW040 07/M03 A2978  990 47 300 300/14G21 RMK AO2
14837KMSN MSN20050424110010404/24/05 11:00:31  5-MIN KMSN 241700Z 34015G19KT 10SM FEW040 08/M03 A2978  1000 47 400 340/15G19 RMK AO2
14837KMSN MSN20050424110511904/24/05 11:05:31  5-MIN KMSN 241705Z 32014G18KT 290V350 10SM FEW040 08/M03 A2977 1000 47 400 320/14G18 290V350 RMK AO2
14837KMSN MSN20050424111010404/24/05 11:10:31  5-MIN KMSN 241710Z 32015G19KT 10SM FEW042 08/M03 A2977  1000 47 400 320/15G19 RMK AO2
14837KMSN MSN20050424111510404/24/05 11:15:31  5-MIN KMSN 241715Z 33017G22KT 10SM SCT042 08/M03 A2977  1000 45 400 330/17G22 RMK AO2
14837KMSN MSN20050424112010404/24/05 11:20:31  5-MIN KMSN 241720Z 32015G22KT 10SM SCT042 08/M03 A2976  1010 45 400 320/15G22 RMK AO2
14837KMSN MSN20050424112510404/24/05 11:25:31  5-MIN KMSN 241725Z 32014G22KT 10SM SCT042 08/M03 A2976  1010 45 500 320/14G22 RMK AO2
14837KMSN MSN20050424113011904/24/05 11:30:31  5-MIN KMSN 241730Z 31011G21KT 280V340 10SM SCT042 08/M03 A2976 1010 45 500 310/11G21 280V340 RMK AO2
14837KMSN MSN20050424113510404/24/05 11:35:31  5-MIN KMSN 241735Z 32013G22KT 10SM SCT042 08/M03 A2976  1010 43 500 320/13G22 RMK AO2
14837KMSN MSN20050424114010404/24/05 11:40:31  5-MIN KMSN 241740Z 31014G22KT 10SM SCT042 09/M03 A2976  1010 43 600 310/14G22 RMK AO2
14837KMSN MSN20050424114510404/24/05 11:45:31  5-MIN KMSN 241745Z 34017G20KT 10SM SCT042 09/M03 A2975  1020 43 600 340/17G20 RMK AO2
14837KMSN MSN20050424115013904/24/05 11:50:31  5-MIN KMSN 241750Z 33016G21KT 10SM FEW046 09/M03 A2975  1020 43 600 330/16G21 RMK AO2 SLP080 T00891028 10089 20006 58010
14837KMSN MSN20050424115510404/24/05 11:55:31  5-MIN KMSN 241755Z 33015G21KT 10SM FEW046 09/M03 A2975  1030 43 600 330/15G21 RMK AO2
14837KMSN MSN20050424120010404/24/05 12:00:31  5-MIN KMSN 241800Z 31015G21KT 10SM FEW046 09/M03 A2974  1030 42 600 310/15G21 RMK AO2
14837KMSN MSN20050424120510404/24/05 12:05:31  5-MIN KMSN 241805Z 31014G21KT 10SM FEW046 09/M02 A2974  1030 44 600 310/14G21 RMK AO2
14837KMSN MSN20050424121010404/24/05 12:10:31  5-MIN KMSN 241810Z 30018G21KT 10SM FEW048 09/M03 A2974  1030 42 600 300/18G21 RMK AO2
14837KMSN MSN20050424121510404/24/05 12:15:31  5-MIN KMSN 241815Z 31017G21KT 10SM FEW050 09/M03 A2974  1030 40 700 310/17G21 RMK AO2
14837KMSN MSN20050424122010404/24/05 12:20:31  5-MIN KMSN 241820Z 33014G21KT 10SM FEW050 09/M03 A2974  1030 42 700 330/14G21 RMK AO2
14837KMSN MSN20050424122510404/24/05 12:25:31  5-MIN KMSN 241825Z 33012G21KT 10SM FEW050 10/M03 A2974  1040 40 700 330/12G21 RMK AO2
14837KMSN MSN20050424123010404/24/05 12:30:31  5-MIN KMSN 241830Z 31016G23KT 10SM FEW050 10/M03 A2974  1030 40 700 310/16G23 RMK AO2
14837KMSN MSN20050424123510404/24/05 12:35:31  5-MIN KMSN 241835Z 32017G23KT 10SM FEW050 09/M03 A2973  1040 40 700 320/17G23 RMK AO2
14837KMSN MSN20050424124010004/24/05 12:40:31  5-MIN KMSN 241840Z 32014G23KT 10SM CLR 10/M03 A2973 1040 39 700 320/14G23 RMK AO2
14837KMSN MSN20050424124511704/24/05 12:45:31  5-MIN KMSN 241845Z 31016G23KT 290V350 10SM CLR 10/M03  A2973 1040 39 700 310/16G23 290V350 RMK AO2
14837KMSN MSN20050424125012104/24/05 12:50:31  5-MIN KMSN 241850Z 33014G23KT 10SM FEW050 11/M03 A2973  1040 37 900 330/14G23 RMK AO2 SLP072 T01111028
14837KMSN MSN20050424125510404/24/05 12:55:31  5-MIN KMSN 241855Z 32015G21KT 10SM FEW055 11/M03 A2973  1040 37 800 320/15G21 RMK AO2
14837KMSN MSN20050424130010404/24/05 13:00:31  5-MIN KMSN 241900Z 32017G23KT 10SM FEW055 11/M03 A2973  1040 37 900 320/17G23 RMK AO2
14837KMSN MSN20050424130510404/24/05 13:05:31  5-MIN KMSN 241905Z 33019G23KT 10SM FEW055 11/M04 A2973  1040 36 800 330/19G23 RMK AO2
14837KMSN MSN20050424131010404/24/05 13:10:31  5-MIN KMSN 241910Z 34012G23KT 10SM FEW055 11/M03 A2972  1050 37 800 340/12G23 RMK AO2
14837KMSN MSN20050424131510404/24/05 13:15:31  5-MIN KMSN 241915Z 31016G23KT 10SM FEW055 11/M03 A2972  1050 36 900 310/16G23 RMK AO2
14837KMSN MSN20050424132012204/24/05 13:20:31  5-MIN KMSN 241920Z 35020G26KT 10SM FEW055 11/M03 A2973  1050 36 900 350/20G26 RMK AO2 PK WND 35026/1919
14837KMSN MSN20050424132511804/24/05 13:25:31  5-MIN KMSN 241925Z 35017G26KT 10SM CLR 11/M03 A2972 1050 36 900 350/17G26 RMK AO2 PK WND 35026/1919
14837KMSN MSN20050424133011804/24/05 13:30:31  5-MIN KMSN 241930Z 34014G24KT 10SM CLR 11/M03 A2972 1050 36 900 340/14G24 RMK AO2 PK WND 35026/1919
14837KMSN MSN20050424133511804/24/05 13:35:31  5-MIN KMSN 241935Z 31016G26KT 10SM CLR 11/M03 A2972 1050 36 900 310/16G26 RMK AO2 PK WND 30026/1934
14837KMSN MSN20050424134011804/24/05 13:40:31  5-MIN KMSN 241940Z 33016G26KT 10SM CLR 11/M03 A2971 1050 36 900 320/16G26 RMK AO2 PK WND 34026/1940
14837KMSN MSN20050424134512204/24/05 13:45:31  5-MIN KMSN 241945Z 34015G26KT 10SM FEW060 11/M04 A2972  1050 34 900 340/15G26 RMK AO2 PK WND 34026/1940
14837KMSN MSN20050424135013904/24/05 13:50:31  5-MIN KMSN 241950Z 35017G23KT 10SM FEW060 12/M04 A2971  1060 33 900 340/17G23 RMK AO2 PK WND 34026/1940 SLP066 T01171039
14837KMSN MSN20050424135510104/24/05 13:55:31  5-MIN KMSN 241955Z 33011G23KT 10SM CLR 12/M04 A2971 1060 32 1000 330/11G23 RMK AO2
14837KMSN MSN20050424140010504/24/05 14:00:31  5-MIN KMSN 242000Z 34016G25KT 10SM FEW060 12/M03 A2970  1060 35 1000 340/16G25 RMK AO2
14837KMSN MSN20050424140510504/24/05 14:05:31  5-MIN KMSN 242005Z 33018G25KT 10SM FEW060 12/M04 A2971  1060 33 1000 320/18G25 RMK AO2
14837KMSN MSN20050424141010504/24/05 14:10:31  5-MIN KMSN 242010Z 34012G23KT 10SM FEW060 12/M03 A2970  1070 33 1000 340/12G23 RMK AO2
14837KMSN MSN20050424141509804/24/05 14:15:31  5-MIN KMSN 242015Z 33016KT 10SM FEW060 12/M03 A2970 1070 33 1000 330/16 RMK AO2
14837KMSN MSN20050424142010504/24/05 14:20:31  5-MIN KMSN 242020Z 32014G23KT 10SM FEW060 12/M05 A2970  1070 30 1000 320/14G23 RMK AO2
14837KMSN MSN20050424142510504/24/05 14:25:31  5-MIN KMSN 242025Z 33017G25KT 10SM FEW060 12/M04 A2970  1070 31 1000 320/17G25 RMK AO2
14837KMSN MSN20050424143012004/24/05 14:30:31  5-MIN KMSN 242030Z 34019G25KT 300V010 10SM FEW060 12/M04 A2970 1070 32 1000 340/19G25 300V010 RMK AO2
14837KMSN MSN20050424143512304/24/05 14:35:31  5-MIN KMSN 242035Z 33016G26KT 10SM FEW060 12/M05 A2969  1080 30 1000 330/16G26 RMK AO2 PK WND 31026/2032
14837KMSN MSN20050424144012304/24/05 14:40:31  5-MIN KMSN 242040Z 31017G26KT 10SM FEW060 12/M04 A2969  1080 31 1000 310/17G26 RMK AO2 PK WND 31026/2032
14837KMSN MSN20050424144512304/24/05 14:45:31  5-MIN KMSN 242045Z 33016G25KT 10SM FEW060 12/M04 A2969  1080 33 1000 330/16G25 RMK AO2 PK WND 31026/2032
14837KMSN MSN20050424145014604/24/05 14:50:31  5-MIN KMSN 242050Z 33016G24KT 10SM SCT060 12/M04 A2969  1080 32 1000 330/16G24 RMK AO2 PK WND 31026/2032 SLP058 T01221039 58026
14837KMSN MSN20050424145510504/24/05 14:55:31  5-MIN KMSN 242055Z 34018G23KT 10SM SCT070 12/M04 A2969  1080 31 1000 340/18G23 RMK AO2
14837KMSN MSN20050424150010504/24/05 15:00:31  5-MIN KMSN 242100Z 34014G24KT 10SM SCT070 12/M04 A2968  1080 32 1000 340/14G24 RMK AO2
14837KMSN MSN20050424150510504/24/05 15:05:31  5-MIN KMSN 242105Z 33015G24KT 10SM SCT070 13/M04 A2968  1090 31 1100 320/15G24 RMK AO2
14837KMSN MSN20050424151010504/24/05 15:10:31  5-MIN KMSN 242110Z 34014G20KT 10SM SCT070 13/M04 A2968  1080 31 1100 340/14G20 RMK AO2
14837KMSN MSN20050424151510504/24/05 15:15:31  5-MIN KMSN 242115Z 32014G20KT 10SM SCT070 12/M04 A2968  1090 31 1100 320/14G20 RMK AO2
14837KMSN MSN20050424152010504/24/05 15:20:31  5-MIN KMSN 242120Z 31013G19KT 10SM SCT070 12/M04 A2968  1090 32 1100 310/13G19 RMK AO2
14837KMSN MSN20050424152510504/24/05 15:25:31  5-MIN KMSN 242125Z 32012G23KT 10SM SCT070 12/M04 A2968  1090 31 1100 320/12G23 RMK AO2
14837KMSN MSN20050424153010504/24/05 15:30:31  5-MIN KMSN 242130Z 31016G23KT 10SM SCT070 13/M04 A2967  1090 31 1100 310/16G23 RMK AO2
14837KMSN MSN20050424153510504/24/05 15:35:31  5-MIN KMSN 242135Z 33018G23KT 10SM SCT070 13/M04 A2968  1090 31 1100 330/18G23 RMK AO2
14837KMSN MSN20050424154010504/24/05 15:40:31  5-MIN KMSN 242140Z 34014G24KT 10SM SCT070 13/M04 A2967  1090 30 1100 340/14G24 RMK AO2
14837KMSN MSN20050424154510504/24/05 15:45:31  5-MIN KMSN 242145Z 31017G24KT 10SM SCT070 13/M04 A2967  1100 30 1100 310/17G24 RMK AO2
14837KMSN MSN20050424155012204/24/05 15:50:31  5-MIN KMSN 242150Z 33015G24KT 10SM SCT070 13/M04 A2967  1090 30 1100 330/15G24 RMK AO2 SLP053 T01281044
14837KMSN MSN20050424155510504/24/05 15:55:31  5-MIN KMSN 242155Z 32016G21KT 10SM SCT075 13/M05 A2968  1090 28 1100 320/16G21 RMK AO2
14837KMSN MSN20050424160012004/24/05 16:00:31  5-MIN KMSN 242200Z 32019G25KT 280V350 10SM SCT075 13/M05 A2967 1090 28 1100 320/19G25 280V350 RMK AO2
14837KMSN MSN20050424160510504/24/05 16:05:31  5-MIN KMSN 242205Z 32017G25KT 10SM SCT075 13/M05 A2967  1100 28 1100 320/17G25 RMK AO2
14837KMSN MSN20050424161010504/24/05 16:10:31  5-MIN KMSN 242210Z 31015G23KT 10SM SCT075 13/M05 A2967  1100 28 1100 300/15G23 RMK AO2
14837KMSN MSN20050424161510504/24/05 16:15:31  5-MIN KMSN 242215Z 32016G22KT 10SM SCT075 13/M05 A2967  1100 28 1100 320/16G22 RMK AO2
14837KMSN MSN20050424162010504/24/05 16:20:31  5-MIN KMSN 242220Z 33014G22KT 10SM BKN075 13/M04 A2967  1100 28 1200 330/14G22 RMK AO2
14837KMSN MSN20050424162510504/24/05 16:25:31  5-MIN KMSN 242225Z 32018G25KT 10SM SCT075 13/M05 A2967  1100 28 1100 320/18G25 RMK AO2
14837KMSN MSN20050424163010504/24/05 16:30:31  5-MIN KMSN 242230Z 31015G25KT 10SM SCT075 13/M05 A2966  1100 28 1100 310/15G25 RMK AO2
14837KMSN MSN20050424163510504/24/05 16:35:31  5-MIN KMSN 242235Z 31018G24KT 10SM BKN075 13/M06 A2966  1100 27 1100 310/18G24 RMK AO2
14837KMSN MSN20050424164010504/24/05 16:40:31  5-MIN KMSN 242240Z 32014G24KT 10SM BKN075 13/M06 A2967  1100 27 1100 310/14G24 RMK AO2
14837KMSN MSN20050424164510504/24/05 16:45:31  5-MIN KMSN 242245Z 31015G24KT 10SM BKN075 13/M05 A2967  1100 28 1100 310/15G24 RMK AO2
14837KMSN MSN20050424165012204/24/05 16:50:31  5-MIN KMSN 242250Z 31016G24KT 10SM BKN075 12/M06 A2966  1100 28 1100 310/16G24 RMK AO2 SLP050 T01221056
14837KMSN MSN20050424165510504/24/05 16:55:31  5-MIN KMSN 242255Z 31014G24KT 10SM BKN075 13/M05 A2966  1100 28 1100 310/14G24 RMK AO2
14837KMSN MSN20050424170010504/24/05 17:00:31  5-MIN KMSN 242300Z 31013G25KT 10SM BKN075 13/M05 A2966  1100 28 1100 310/13G25 RMK AO2
14837KMSN MSN20050424170510504/24/05 17:05:31  5-MIN KMSN 242305Z 33016G25KT 10SM SCT075 12/M06 A2966  1100 28 1100 320/16G25 RMK AO2
14837KMSN MSN20050424171012304/24/05 17:10:31  5-MIN KMSN 242310Z 32019G27KT 10SM FEW075 12/M06 A2966  1100 28 1100 320/19G27 RMK AO2 PK WND 32027/2309
14837KMSN MSN20050424171512304/24/05 17:15:31  5-MIN KMSN 242315Z 32016G27KT 10SM FEW075 12/M05 A2966  1110 29 1100 320/16G27 RMK AO2 PK WND 32027/2309
14837KMSN MSN20050424172012304/24/05 17:20:31  5-MIN KMSN 242320Z 32015G22KT 10SM FEW075 12/M05 A2966  1110 29 1100 320/15G22 RMK AO2 PK WND 32027/2309
14837KMSN MSN20050424172511904/24/05 17:25:31  5-MIN KMSN 242325Z 33014G23KT 10SM CLR 12/M05 A2966 1110 29 1100 320/14G23 RMK AO2 PK WND 32027/2309
14837KMSN MSN20050424173011904/24/05 17:30:31  5-MIN KMSN 242330Z 32014G24KT 10SM CLR 12/M05 A2966 1110 29 1100 320/14G24 RMK AO2 PK WND 32027/2309
14837KMSN MSN20050424173512304/24/05 17:35:31  5-MIN KMSN 242335Z 31015G24KT 10SM FEW075 12/M05 A2966  1110 29 1100 310/15G24 RMK AO2 PK WND 32027/2309
14837KMSN MSN20050424174012304/24/05 17:40:31  5-MIN KMSN 242340Z 31016G24KT 10SM FEW075 12/M05 A2966  1110 29 1100 310/16G24 RMK AO2 PK WND 32027/2309
14837KMSN MSN20050424174512304/24/05 17:45:31  5-MIN KMSN 242345Z 32011G24KT 10SM FEW075 12/M05 A2966  1110 29 1100 320/11G24 RMK AO2 PK WND 32027/2309
14837KMSN MSN20050424175015904/24/05 17:50:31  5-MIN KMSN 242350Z 31018G23KT 10SM FEW075 12/M05 A2966  1110 30 1000 310/18G23 RMK AO2 PK WND 32027/2309 SLP048 T01171050 10133  20089 58021
14837KMSN MSN20050424175510504/24/05 17:55:31  5-MIN KMSN 242355Z 32015G23KT 10SM FEW075 12/M06 A2966  1110 29 1000 320/15G23 RMK AO2
14837KMSN MSN20050424180010504/24/05 18:00:31  5-MIN KMSN 250000Z 32016G21KT 10SM FEW075 12/M06 A2966  1110 29 1000 320/16G21 RMK AO2
14837KMSN MSN20050424180510504/24/05 18:05:31  5-MIN KMSN 250005Z 32013G21KT 10SM FEW075 12/M06 A2966  1110 29 1000 320/13G21 RMK AO2
14837KMSN MSN20050424181010104/24/05 18:10:31  5-MIN KMSN 250010Z 32011G18KT 10SM CLR 12/M06 A2966 1110 29 1000 320/11G18 RMK AO2
14837KMSN MSN20050424181510004/24/05 18:15:31  5-MIN KMSN 250015Z 32012G18KT 10SM CLR 11/M05 A2966 1110 32 900 320/12G18 RMK AO2
14837KMSN MSN20050424182010004/24/05 18:20:31  5-MIN KMSN 250020Z 32013G19KT 10SM CLR 11/M05 A2966 1110 32 900 320/13G19 RMK AO2
14837KMSN MSN20050424182510004/24/05 18:25:31  5-MIN KMSN 250025Z 32011G19KT 10SM CLR 11/M05 A2966 1110 32 900 320/11G19 RMK AO2
14837KMSN MSN20050424183010004/24/05 18:30:31  5-MIN KMSN 250030Z 33015G20KT 10SM CLR 11/M05 A2966 1110 32 900 330/15G20 RMK AO2
14837KMSN MSN20050424183510404/24/05 18:35:31  5-MIN KMSN 250035Z 33017G21KT 10SM FEW075 11/M05 A2966  1110 33 900 330/17G21 RMK AO2
14837KMSN MSN20050424184010404/24/05 18:40:31  5-MIN KMSN 250040Z 33013G21KT 10SM FEW075 11/M05 A2966  1110 33 900 330/13G21 RMK AO2
14837KMSN MSN20050424184510404/24/05 18:45:31  5-MIN KMSN 250045Z 33011G20KT 10SM FEW075 11/M05 A2966  1110 33 900 330/11G20 RMK AO2
14837KMSN MSN20050424185012104/24/05 18:50:31  5-MIN KMSN 250050Z 33011G20KT 10SM FEW075 10/M06 A2966  1110 33 800 330/11G20 RMK AO2 SLP048 T01001056
14837KMSN MSN20050424185509404/24/05 18:55:31  5-MIN KMSN 250055Z 33011KT 10SM CLR 10/M05 A2966 1100 34 800 330/11 RMK AO2
14837KMSN MSN20050424190010004/24/05 19:00:31  5-MIN KMSN 250100Z 32010G16KT 10SM CLR 10/M06 A2966 1100 33 800 320/10G16 RMK AO2
14837KMSN MSN20050424190509404/24/05 19:05:31  5-MIN KMSN 250105Z 32010KT 10SM CLR 10/M05 A2966 1100 34 800 320/10 RMK AO2
14837KMSN MSN20050424191009404/24/05 19:10:31  5-MIN KMSN 250110Z 32010KT 10SM CLR 10/M05 A2966 1100 34 800 320/10 RMK AO2
14837KMSN MSN20050424191509404/24/05 19:15:31  5-MIN KMSN 250115Z 33009KT 10SM CLR 10/M05 A2966 1100 34 800 330/09 RMK AO2
14837KMSN MSN20050424192009404/24/05 19:20:31  5-MIN KMSN 250120Z 33008KT 10SM CLR 09/M05 A2966 1100 35 700 320/08 RMK AO2
14837KMSN MSN20050424192509404/24/05 19:25:31  5-MIN KMSN 250125Z 33008KT 10SM CLR 09/M04 A2966 1100 37 700 330/08 RMK AO2
14837KMSN MSN20050424193009404/24/05 19:30:31  5-MIN KMSN 250130Z 33010KT 10SM CLR 09/M04 A2966 1100 37 700 330/10 RMK AO2
14837KMSN MSN20050424193509404/24/05 19:35:31  5-MIN KMSN 250135Z 33008KT 10SM CLR 09/M04 A2966 1100 37 700 330/08 RMK AO2
14837KMSN MSN20050424194009404/24/05 19:40:31  5-MIN KMSN 250140Z 34008KT 10SM CLR 09/M05 A2966 1100 37 700 330/08 RMK AO2
14837KMSN MSN20050424194509404/24/05 19:45:31  5-MIN KMSN 250145Z 34008KT 10SM CLR 09/M05 A2967 1100 37 700 340/08 RMK AO2
14837KMSN MSN20050424195011104/24/05 19:50:31  5-MIN KMSN 250150Z 34008KT 10SM CLR 08/M04 A2967 1100 40 600 330/08 RMK AO2 SLP051 T00831044
14837KMSN MSN20050424195509404/24/05 19:55:31  5-MIN KMSN 250155Z 33008KT 10SM CLR 09/M04 A2967 1100 38 700 330/08 RMK AO2
14837KMSN MSN20050424200009404/24/05 20:00:31  5-MIN KMSN 250200Z 33009KT 10SM CLR 09/M04 A2967 1100 38 700 330/09 RMK AO2
14837KMSN MSN20050424200509404/24/05 20:05:31  5-MIN KMSN 250205Z 33009KT 10SM CLR 09/M04 A2967 1100 38 700 330/09 RMK AO2
14837KMSN MSN20050424201009404/24/05 20:10:31  5-MIN KMSN 250210Z 33008KT 10SM CLR 08/M04 A2967 1100 40 600 330/08 RMK AO2
14837KMSN MSN20050424201509404/24/05 20:15:31  5-MIN KMSN 250215Z 33009KT 10SM CLR 08/M04 A2967 1100 40 600 330/09 RMK AO2
14837KMSN MSN20050424202009404/24/05 20:20:31  5-MIN KMSN 250220Z 33006KT 10SM CLR 08/M04 A2967 1090 40 600 330/06 RMK AO2
14837KMSN MSN20050424202509404/24/05 20:25:31  5-MIN KMSN 250225Z 33007KT 10SM CLR 08/M04 A2967 1100 40 600 320/07 RMK AO2
14837KMSN MSN20050424203009404/24/05 20:30:31  5-MIN KMSN 250230Z 33007KT 10SM CLR 08/M04 A2967 1100 40 600 330/07 RMK AO2
14837KMSN MSN20050424203509404/24/05 20:35:31  5-MIN KMSN 250235Z 33007KT 10SM CLR 08/M04 A2967 1100 41 500 330/07 RMK AO2
14837KMSN MSN20050424204009404/24/05 20:40:31  5-MIN KMSN 250240Z 33006KT 10SM CLR 08/M04 A2967 1100 41 500 330/06 RMK AO2
14837KMSN MSN20050424204509404/24/05 20:45:31  5-MIN KMSN 250245Z 33006KT 10SM CLR 08/M05 A2967 1100 40 500 330/06 RMK AO2
14837KMSN MSN20050424205011704/24/05 20:50:31  5-MIN KMSN 250250Z 33006KT 10SM CLR 07/M04 A2967 1100 43 500 330/06 RMK AO2 SLP052 T00721044 56009
14837KMSN MSN20050424205509404/24/05 20:55:31  5-MIN KMSN 250255Z 33005KT 10SM CLR 07/M04 A2967 1100 43 500 330/05 RMK AO2
14837KMSN MSN20050424210009404/24/05 21:00:31  5-MIN KMSN 250300Z 32005KT 10SM CLR 07/M04 A2967 1100 43 500 320/05 RMK AO2
14837KMSN MSN20050424210509404/24/05 21:05:31  5-MIN KMSN 250305Z 31005KT 10SM CLR 07/M04 A2966 1100 43 500 310/05 RMK AO2
14837KMSN MSN20050424211009404/24/05 21:10:31  5-MIN KMSN 250310Z 32005KT 10SM CLR 07/M04 A2966 1100 45 400 320/05 RMK AO2
14837KMSN MSN20050424211509404/24/05 21:15:31  5-MIN KMSN 250315Z 31005KT 10SM CLR 07/M04 A2966 1110 43 500 310/05 RMK AO2
14837KMSN MSN20050424212009404/24/05 21:20:31  5-MIN KMSN 250320Z 31005KT 10SM CLR 07/M04 A2966 1100 45 400 310/05 RMK AO2
14837KMSN MSN20050424212509404/24/05 21:25:31  5-MIN KMSN 250325Z 30004KT 10SM CLR 07/M04 A2966 1100 47 400 290/04 RMK AO2
14837KMSN MSN20050424213009404/24/05 21:30:31  5-MIN KMSN 250330Z 29004KT 10SM CLR 07/M04 A2966 1100 47 400 290/04 RMK AO2
14837KMSN MSN20050424213509404/24/05 21:35:31  5-MIN KMSN 250335Z 29005KT 10SM CLR 07/M04 A2966 1110 47 400 290/05 RMK AO2
14837KMSN MSN20050424214009404/24/05 21:40:31  5-MIN KMSN 250340Z 29005KT 10SM CLR 06/M04 A2966 1110 48 300 290/05 RMK AO2
14837KMSN MSN20050424214509404/24/05 21:45:31  5-MIN KMSN 250345Z 29005KT 10SM CLR 06/M04 A2966 1110 48 300 290/05 RMK AO2
14837KMSN MSN20050424215011104/24/05 21:50:31  5-MIN KMSN 250350Z 29004KT 10SM CLR 06/M04 A2965 1110 48 300 290/04 RMK AO2 SLP047 T00611039
14837KMSN MSN20050424215509404/24/05 21:55:31  5-MIN KMSN 250355Z 27003KT 10SM CLR 06/M03 A2965 1110 53 300 270/03 RMK AO2
14837KMSN MSN20050424220009404/24/05 22:00:31  5-MIN KMSN 250400Z 27004KT 10SM CLR 06/M03 A2965 1110 51 300 270/04 RMK AO2
14837KMSN MSN20050424220509404/24/05 22:05:31  5-MIN KMSN 250405Z 27005KT 10SM CLR 07/M04 A2965 1110 47 400 270/05 RMK AO2
14837KMSN MSN20050424221009404/24/05 22:10:31  5-MIN KMSN 250410Z 26004KT 10SM CLR 07/M04 A2965 1120 47 400 260/04 RMK AO2
14837KMSN MSN20050424221509404/24/05 22:15:31  5-MIN KMSN 250415Z 27004KT 10SM CLR 06/M03 A2965 1120 51 400 270/04 RMK AO2
14837KMSN MSN20050424222009404/24/05 22:20:31  5-MIN KMSN 250420Z 27004KT 10SM CLR 06/M04 A2965 1120 48 400 270/04 RMK AO2
14837KMSN MSN20050424222509404/24/05 22:25:31  5-MIN KMSN 250425Z 28005KT 10SM CLR 06/M04 A2965 1120 48 400 270/05 RMK AO2
14837KMSN MSN20050424223009404/24/05 22:30:31  5-MIN KMSN 250430Z 27005KT 10SM CLR 07/M04 A2965 1120 45 400 270/05 RMK AO2
14837KMSN MSN20050424223509404/24/05 22:35:31  5-MIN KMSN 250435Z 28006KT 10SM CLR 07/M04 A2965 1120 45 400 280/06 RMK AO2
14837KMSN MSN20050424224009404/24/05 22:40:31  5-MIN KMSN 250440Z 27005KT 10SM CLR 07/M04 A2965 1120 45 400 270/05 RMK AO2
14837KMSN MSN20050424224509404/24/05 22:45:31  5-MIN KMSN 250445Z 28005KT 10SM CLR 06/M04 A2964 1120 46 400 280/05 RMK AO2
14837KMSN MSN20050424225011104/24/05 22:50:31  5-MIN KMSN 250450Z 27004KT 10SM CLR 07/M04 A2964 1120 45 400 270/04 RMK AO2 SLP042 T00671044
14837KMSN MSN20050424225509404/24/05 22:55:31  5-MIN KMSN 250455Z 26005KT 10SM CLR 06/M04 A2964 1120 48 400 250/05 RMK AO2
14837KMSN MSN20050424230009404/24/05 23:00:31  5-MIN KMSN 250500Z 25003KT 10SM CLR 06/M03 A2964 1130 51 400 250/03 RMK AO2
14837KMSN MSN20050424230509404/24/05 23:05:31  5-MIN KMSN 250505Z 26004KT 10SM CLR 06/M03 A2964 1130 51 400 260/04 RMK AO2
14837KMSN MSN20050424231009404/24/05 23:10:31  5-MIN KMSN 250510Z 26003KT 10SM CLR 06/M03 A2963 1130 51 400 260/03 RMK AO2
14837KMSN MSN20050424231509404/24/05 23:15:31  5-MIN KMSN 250515Z VRB04KT 10SM CLR 06/M04 A2963 1130 50 300 VRB/04 RMK AO2
14837KMSN MSN20050424232009404/24/05 23:20:31  5-MIN KMSN 250520Z VRB05KT 10SM CLR 06/M03 A2963 1130 51 400 VRB/05 RMK AO2
14837KMSN MSN20050424232509404/24/05 23:25:31  5-MIN KMSN 250525Z VRB04KT 10SM CLR 06/M03 A2963 1130 51 400 VRB/04 RMK AO2
14837KMSN MSN20050424233009404/24/05 23:30:31  5-MIN KMSN 250530Z VRB04KT 10SM CLR 06/M04 A2963 1130 50 300 VRB/04 RMK AO2
14837KMSN MSN20050424233509404/24/05 23:35:31  5-MIN KMSN 250535Z 26004KT 10SM CLR 06/M04 A2963 1140 50 300 260/04 RMK AO2
14837KMSN MSN20050424234009404/24/05 23:40:31  5-MIN KMSN 250540Z VRB04KT 10SM CLR 06/M04 A2963 1140 50 300 VRB/04 RMK AO2
14837KMSN MSN20050424234509404/24/05 23:45:31  5-MIN KMSN 250545Z VRB04KT 10SM CLR 06/M04 A2962 1140 48 400 VRB/04 RMK AO2
14837KMSN MSN20050424235013904/24/05 23:50:31  5-MIN KMSN 250550Z VRB04KT 10SM CLR 06/M04 A2962 1140 48 400 VRB/04 RMK AO2 SLP035 T00611039 10117 20056 401330000 51003
14837KMSN MSN20050424235509404/24/05 23:55:31  5-MIN KMSN 250555Z VRB04KT 10SM CLR 06/M04 A2962 1140 50 300 VRB/04 RMK AO2
14837KMSN MSN20050425000009404/25/05 00:00:31  5-MIN KMSN 250600Z VRB04KT 10SM CLR 06/M04 A2962 1140 50 300 VRB/04 RMK AO2
14837KMSN MSN20050425000509404/25/05 00:05:31  5-MIN KMSN 250605Z VRB04KT 10SM CLR 06/M04 A2962 1140 50 300 VRB/04 RMK AO2
14837KMSN MSN20050425001009404/25/05 00:10:31  5-MIN KMSN 250610Z VRB05KT 10SM CLR 06/M04 A2962 1140 48 400 VRB/05 RMK AO2
14837KMSN MSN20050425001509404/25/05 00:15:31  5-MIN KMSN 250615Z VRB05KT 10SM CLR 06/M04 A2962 1140 50 300 VRB/05 RMK AO2
14837KMSN MSN20050425002009404/25/05 00:20:31  5-MIN KMSN 250620Z VRB05KT 10SM CLR 06/M04 A2962 1150 48 400 VRB/05 RMK AO2
14837KMSN MSN20050425002509404/25/05 00:25:31  5-MIN KMSN 250625Z VRB06KT 10SM CLR 07/M04 A2962 1150 47 500 VRB/06 RMK AO2
14837KMSN MSN20050425003009404/25/05 00:30:31  5-MIN KMSN 250630Z VRB05KT 10SM CLR 06/M04 A2961 1150 48 400 VRB/05 RMK AO2
14837KMSN MSN20050425003509404/25/05 00:35:31  5-MIN KMSN 250635Z VRB04KT 10SM CLR 06/M04 A2961 1150 50 300 VRB/04 RMK AO2
14837KMSN MSN20050425004009404/25/05 00:40:31  5-MIN KMSN 250640Z VRB06KT 10SM CLR 06/M04 A2961 1150 48 400 VRB/06 RMK AO2
14837KMSN MSN20050425004509404/25/05 00:45:31  5-MIN KMSN 250645Z VRB05KT 10SM CLR 06/M04 A2961 1160 48 400 VRB/05 RMK AO2
14837KMSN MSN20050425005011104/25/05 00:50:31  5-MIN KMSN 250650Z 26005KT 10SM CLR 06/M04 A2960 1160 48 400 260/05 RMK AO2 SLP028 T00611039
14837KMSN MSN20050425005509404/25/05 00:55:31  5-MIN KMSN 250655Z VRB05KT 10SM CLR 06/M04 A2960 1160 48 400 VRB/05 RMK AO2
14837KMSN MSN20050425010009404/25/05 01:00:31  5-MIN KMSN 250700Z VRB05KT 10SM CLR 06/M04 A2960 1160 48 400 VRB/05 RMK AO2
14837KMSN MSN20050425010509404/25/05 01:05:31  5-MIN KMSN 250705Z VRB05KT 10SM CLR 06/M04 A2960 1170 48 400 VRB/05 RMK AO2
14837KMSN MSN20050425011009404/25/05 01:10:31  5-MIN KMSN 250710Z VRB06KT 10SM CLR 06/M04 A2959 1170 48 400 VRB/06 RMK AO2
14837KMSN MSN20050425011509404/25/05 01:15:31  5-MIN KMSN 250715Z 26006KT 10SM CLR 06/M04 A2959 1170 48 400 260/06 RMK AO2
14837KMSN MSN20050425012009404/25/05 01:20:31  5-MIN KMSN 250720Z VRB06KT 10SM CLR 06/M04 A2959 1170 48 400 VRB/06 RMK AO2
14837KMSN MSN20050425012509404/25/05 01:25:31  5-MIN KMSN 250725Z 26005KT 10SM CLR 06/M04 A2959 1170 48 400 260/05 RMK AO2
14837KMSN MSN20050425013009404/25/05 01:30:31  5-MIN KMSN 250730Z 26006KT 10SM CLR 06/M04 A2959 1170 48 400 260/06 RMK AO2
14837KMSN MSN20050425013509404/25/05 01:35:31  5-MIN KMSN 250735Z VRB05KT 10SM CLR 06/M04 A2959 1170 50 400 VRB/05 RMK AO2
14837KMSN MSN20050425014009404/25/05 01:40:31  5-MIN KMSN 250740Z VRB06KT 10SM CLR 06/M04 A2959 1170 48 400 VRB/06 RMK AO2
14837KMSN MSN20050425014509404/25/05 01:45:31  5-MIN KMSN 250745Z VRB05KT 10SM CLR 06/M04 A2959 1170 50 400 VRB/05 RMK AO2
14837KMSN MSN20050425015011104/25/05 01:50:31  5-MIN KMSN 250750Z 27007KT 10SM CLR 06/M03 A2959 1170 53 400 260/07 RMK AO2 SLP022 T00561033
14837KMSN MSN20050425015511004/25/05 01:55:31  5-MIN KMSN 250755Z 26007KT 230V290 10SM CLR 06/M04 A2959 1180 50 400 260/07 230V290 RMK AO2
14837KMSN MSN20050425020009404/25/05 02:00:31  5-MIN KMSN 250800Z 26006KT 10SM CLR 06/M04 A2959 1180 50 400 260/06 RMK AO2
14837KMSN MSN20050425020509404/25/05 02:05:31  5-MIN KMSN 250805Z 26005KT 10SM CLR 06/M04 A2959 1180 50 400 260/05 RMK AO2
14837KMSN MSN20050425021009404/25/05 02:10:31  5-MIN KMSN 250810Z 26006KT 10SM CLR 06/M04 A2959 1170 50 400 260/06 RMK AO2
14837KMSN MSN20050425021509404/25/05 02:15:31  5-MIN KMSN 250815Z 26006KT 10SM CLR 06/M04 A2958 1180 50 400 260/06 RMK AO2
14837KMSN MSN20050425022009404/25/05 02:20:31  5-MIN KMSN 250820Z 27007KT 10SM CLR 06/M04 A2958 1180 50 400 270/07 RMK AO2
14837KMSN MSN20050425022509404/25/05 02:25:31  5-MIN KMSN 250825Z 27006KT 10SM CLR 06/M04 A2958 1180 50 400 270/06 RMK AO2
14837KMSN MSN20050425023009404/25/05 02:30:31  5-MIN KMSN 250830Z 27006KT 10SM CLR 06/M04 A2958 1180 50 400 270/06 RMK AO2
14837KMSN MSN20050425023509404/25/05 02:35:31  5-MIN KMSN 250835Z 27006KT 10SM CLR 06/M04 A2958 1180 50 400 270/06 RMK AO2
14837KMSN MSN20050425024009404/25/05 02:40:31  5-MIN KMSN 250840Z 27008KT 10SM CLR 06/M04 A2958 1180 50 400 260/08 RMK AO2
14837KMSN MSN20050425024509404/25/05 02:45:31  5-MIN KMSN 250845Z 27007KT 10SM CLR 06/M04 A2958 1180 50 400 270/07 RMK AO2
14837KMSN MSN20050425025011704/25/05 02:50:31  5-MIN KMSN 250850Z 27007KT 10SM CLR 06/M04 A2958 1180 50 400 270/07 RMK AO2 SLP019 T00561039 58015
14837KMSN MSN20050425025509404/25/05 02:55:31  5-MIN KMSN 250855Z VRB06KT 10SM CLR 06/M04 A2958 1180 50 400 VRB/06 RMK AO2
14837KMSN MSN20050425030009404/25/05 03:00:31  5-MIN KMSN 250900Z 28007KT 10SM CLR 05/M04 A2957 1190 52 300 280/07 RMK AO2
14837KMSN MSN20050425030509404/25/05 03:05:31  5-MIN KMSN 250905Z 28006KT 10SM CLR 05/M04 A2957 1190 52 300 280/06 RMK AO2
14837KMSN MSN20050425031009404/25/05 03:10:31  5-MIN KMSN 250910Z 27006KT 10SM CLR 05/M04 A2957 1190 52 300 270/06 RMK AO2
14837KMSN MSN20050425031509404/25/05 03:15:31  5-MIN KMSN 250915Z 28007KT 10SM CLR 05/M04 A2957 1190 52 300 270/07 RMK AO2
14837KMSN MSN20050425032009404/25/05 03:20:31  5-MIN KMSN 250920Z 27006KT 10SM CLR 05/M04 A2957 1190 52 300 270/06 RMK AO2
14837KMSN MSN20050425032509404/25/05 03:25:31  5-MIN KMSN 250925Z 27006KT 10SM CLR 05/M04 A2957 1190 52 300 270/06 RMK AO2
14837KMSN MSN20050425033009404/25/05 03:30:31  5-MIN KMSN 250930Z VRB06KT 10SM CLR 05/M04 A2957 1190 52 300 VRB/06 RMK AO2
14837KMSN MSN20050425033509404/25/05 03:35:31  5-MIN KMSN 250935Z 27005KT 10SM CLR 05/M04 A2957 1190 52 300 270/05 RMK AO2
14837KMSN MSN20050425114009804/25/05 11:40:31  5-MIN KMSN 251740Z 22009KT 10SM SCT100 16/M02 A2947 1290 29 1700 220/09 RMK AO2
14837KMSN MSN20050425114509804/25/05 11:45:31  5-MIN KMSN 251745Z 23009KT 10SM SCT100 16/M01 A2947 1290 30 1800 230/09 RMK AO2
14837KMSN MSN20050425115012104/25/05 11:50:31  5-MIN KMSN 251750Z 23011G15KT 10SM SCT100 16/M02 A2946  1290 29 1800 220/11G15 RMK AO2 SLPNO T01611017
14837KMSN MSN20050425115510504/25/05 11:55:31  5-MIN KMSN 251755Z 24011G15KT 10SM SCT100 16/M02 A2946  1290 29 1800 240/11G15 RMK AO2
14837KMSN MSN20050425120009804/25/05 12:00:31  5-MIN KMSN 251800Z 23010KT 10SM FEW100 16/M01 A2946 1290 30 1800 230/10 RMK AO2
14837KMSN MSN20050425120509804/25/05 12:05:31  5-MIN KMSN 251805Z 22011KT 10SM SCT100 16/M02 A2947 1290 29 1700 220/11 RMK AO2
14837KMSN MSN20050425121009804/25/05 12:10:31  5-MIN KMSN 251810Z 23008KT 10SM SCT095 16/M01 A2946 1290 30 1800 220/08 RMK AO2
14837KMSN MSN20050425121509804/25/05 12:15:31  5-MIN KMSN 251815Z 23010KT 10SM SCT095 16/M01 A2946 1290 30 1800 230/10 RMK AO2
14837KMSN MSN20050425122011504/25/05 12:20:31  5-MIN KMSN 251820Z 23009KT 200V260 10SM FEW095 16/M01  A2946 1290 30 1800 230/09 200V260 RMK AO2
14837KMSN MSN20050425122509804/25/05 12:25:31  5-MIN KMSN 251825Z 24009KT 10SM FEW095 16/M01 A2946 1290 30 1800 240/09 RMK AO2
14837KMSN MSN20050425123010504/25/05 12:30:31  5-MIN KMSN 251830Z 23011G16KT 10SM FEW100 16/M01 A2946  1290 32 1800 230/11G16 RMK AO2
14837KMSN MSN20050425123510504/25/05 12:35:31  5-MIN KMSN 251835Z 22010G16KT 10SM SCT100 16/M02 A2946  1290 29 1800 220/10G16 RMK AO2
14837KMSN MSN20050425124011104/25/05 12:40:31  5-MIN KMSN 251840Z 23011G19KT 10SM FEW080 BKN100 16/M02 A2946 1300 28 1800 230/11G19 RMK AO2
14837KMSN MSN20050425124511104/25/05 12:45:31  5-MIN KMSN 251845Z 22011G19KT 10SM FEW080 SCT100 16/M02 A2946 1290 28 1800 220/11G19 RMK AO2
14837KMSN MSN20050425125012704/25/05 12:50:31  5-MIN KMSN 251850Z 24011G15KT 10SM FEW080 SCT100 16/M02 A2946 1300 29 1800 240/11G15 RMK AO2 SLPNO T01611017
14837KMSN MSN20050425125512704/25/05 12:55:31  5-MIN KMSN 251855Z 19007G15KT 020V320 10SM FEW080 SCT100 17/M01 A2946 1300 31 1800 180/07G15 020V320 RMK AO2
14837KMSN MSN20050425130011804/25/05 13:00:31  5-MIN KMSN 251900Z 24012G17KT 10SM FEW080 BKN100 BKN110 16/M02 A2946 1300 29 1800 240/12G17 RMK AO2
14837KMSN MSN20050425130511104/25/05 13:05:31  5-MIN KMSN 251905Z 22013G18KT 10SM FEW080 BKN100 16/M02 A2946 1290 29 1800 220/13G18 RMK AO2
14837KMSN MSN20050425131011104/25/05 13:10:31  5-MIN KMSN 251910Z 23012G19KT 10SM FEW080 SCT100 16/M03 A2945 1300 28 1700 230/12G19 RMK AO2
14837KMSN MSN20050425131511104/25/05 13:15:31  5-MIN KMSN 251915Z 24006G19KT 10SM FEW080 SCT100 16/M02 A2945 1300 29 1800 240/06G19 RMK AO2
14837KMSN MSN20050425132012204/25/05 13:20:31  5-MIN KMSN 251920Z 23010KT 200V280 10SM FEW080 SCT100  16/M02 A2945 1300 29 1800 230/10 200V280 RMK AO2
14837KMSN MSN20050425132511104/25/05 13:25:31  5-MIN KMSN 251925Z 19009G14KT 10SM FEW080 SCT100 16/M02 A2944 1310 30 1700 190/09G14 RMK AO2
14837KMSN MSN20050425133009804/25/05 13:30:31  5-MIN KMSN 251930Z 21008KT 10SM FEW095 16/M02 A2944 1310 30 1700 210/08 RMK AO2
14837KMSN MSN20050425133509804/25/05 13:35:31  5-MIN KMSN 251935Z 21007KT 10SM FEW095 16/M01 A2944 1320 31 1700 200/07 RMK AO2
14837KMSN MSN20050425134009804/25/05 13:40:31  5-MIN KMSN 251940Z VRB06KT 10SM FEW090 16/M02 A2943 1320 30 1700 VRB/06 RMK AO2
14837KMSN MSN20050425134509804/25/05 13:45:31  5-MIN KMSN 251945Z VRB06KT 10SM FEW090 16/M02 A2943 1320 30 1700 VRB/06 RMK AO2
14837KMSN MSN20050425135011404/25/05 13:50:31  5-MIN KMSN 251950Z VRB05KT 10SM FEW100 16/M03 A2943 1320 28 1700 VRB/05 RMK AO2 SLPNO T01561028
14837KMSN MSN20050425135509804/25/05 13:55:31  5-MIN KMSN 251955Z 22004KT 10SM FEW100 16/M03 A2943 1320 28 1700 220/04 RMK AO2
14837KMSN MSN20050425140009504/25/05 14:00:31  5-MIN KMSN 252000Z 23005KT 10SM CLR 16/M03 A2942 1330 28 1700 230/05 RMK AO2
14837KMSN MSN20050425140509504/25/05 14:05:31  5-MIN KMSN 252005Z 24006KT 10SM CLR 16/M03 A2942 1330 27 1700 240/06 RMK AO2
14837KMSN MSN20050425141009804/25/05 14:10:31  5-MIN KMSN 252010Z VRB04KT 10SM FEW090 16/M02 A2942 1330 29 1700 VRB/04 RMK AO2
14837KMSN MSN20050425141509804/25/05 14:15:31  5-MIN KMSN 252015Z 22009KT 10SM FEW090 16/M02 A2942 1330 28 1800 220/09 RMK AO2
14837KMSN MSN20050425142010504/25/05 14:20:31  5-MIN KMSN 252020Z 22010G16KT 10SM FEW090 16/M03 A2941  1340 27 1800 210/10G16 RMK AO2
14837KMSN MSN20050425142510504/25/05 14:25:31  5-MIN KMSN 252025Z 25008G16KT 10SM FEW090 17/M03 A2941  1340 25 1900 240/08G16 RMK AO2
14837KMSN MSN20050425143012004/25/05 14:30:31  5-MIN KMSN 252030Z 24009G18KT 210V280 10SM FEW095 16/M04 A2941 1340 25 1800 240/09G18 210V280 RMK AO2
14837KMSN MSN20050425143510504/25/05 14:35:31  5-MIN KMSN 252035Z 22011G21KT 10SM FEW100 16/M03 A2941  1340 26 1800 220/11G21 RMK AO2
14837KMSN MSN20050425144012004/25/05 14:40:31  5-MIN KMSN 252040Z 25007G21KT 210V300 10SM FEW095 16/M03 A2940 1350 28 1800 250/07G21 210V300 RMK AO2
14837KMSN MSN20050425144510504/25/05 14:45:31  5-MIN KMSN 252045Z 23016G23KT 10SM FEW090 16/M02 A2941  1340 29 1800 230/16G23 RMK AO2
14837KMSN MSN20050425145012104/25/05 14:50:31  5-MIN KMSN 252050Z 23011G23KT 10SM FEW090 16/M02 A2940  1340 29 1800 230/11G23 RMK AO2 SLPNO T01561022
14837KMSN MSN20050425145509804/25/05 14:55:31  5-MIN KMSN 252055Z 21009KT 10SM FEW080 16/M02 A2940 1350 30 1800 210/09 RMK AO2
14837KMSN MSN20050425150010504/25/05 15:00:31  5-MIN KMSN 252100Z 23011G18KT 10SM SCT080 16/M01 A2940  1350 31 1800 230/11G18 RMK AO2
14837KMSN MSN20050425150511904/25/05 15:05:31  5-MIN KMSN 252105Z 23009G18KT 200V270 10SM SCT080 16/00 A2940 1350 34 1800 230/09G18 200V270 RMK AO2
14837KMSN MSN20050425151010404/25/05 15:10:31  5-MIN KMSN 252110Z 23009G16KT 10SM SCT080 15/01 A2940  1350 37 1700 230/09G16 RMK AO2
14837KMSN MSN20050425151511904/25/05 15:15:31  5-MIN KMSN 252115Z 22009G16KT 190V250 10SM SCT080 15/01 A2939 1350 37 1700 220/09G16 190V250 RMK AO2
14837KMSN MSN20050425152010404/25/05 15:20:31  5-MIN KMSN 252120Z 23010G14KT 10SM SCT080 15/01 A2939  1350 37 1700 220/10G14 RMK AO2
14837KMSN MSN20050425152511904/25/05 15:25:31  5-MIN KMSN 252125Z 22011G18KT 180V240 10SM SCT070 16/01 A2939 1360 36 1800 220/11G18 180V240 RMK AO2
14837KMSN MSN20050425153011904/25/05 15:30:31  5-MIN KMSN 252130Z 24008G18KT 210V280 10SM SCT070 15/01 A2939 1360 37 1700 240/08G18 210V280 RMK AO2
14837KMSN MSN20050425153510404/25/05 15:35:31  5-MIN KMSN 252135Z 23009G18KT 10SM SCT070 14/02 A2939  1360 41 1700 230/09G18 RMK AO2
14837KMSN MSN20050425154010404/25/05 15:40:31  5-MIN KMSN 252140Z 22010G18KT 10SM SCT070 14/02 A2939  1360 41 1700 220/10G18 RMK AO2
14837KMSN MSN20050425154509704/25/05 15:45:31  5-MIN KMSN 252145Z 22010KT 10SM BKN065 15/02 A2938 1360 40 1700 220/10 RMK AO2
14837KMSN MSN20050425155011304/25/05 15:50:31  5-MIN KMSN 252150Z 22008KT 10SM BKN070 15/02 A2938 1370 40 1700 220/08 RMK AO2 SLPNO T01500017
14837KMSN MSN20050425155510404/25/05 15:55:31  5-MIN KMSN 252155Z 22010G16KT 10SM BKN070 15/02 A2938  1370 42 1700 210/10G16 RMK AO2
14837KMSN MSN20050425160010404/25/05 16:00:31  5-MIN KMSN 252200Z 23008G16KT 10SM BKN070 15/03 A2938  1370 43 1700 230/08G16 RMK AO2
14837KMSN MSN20050425160511404/25/05 16:05:31  5-MIN KMSN 252205Z 22010KT 200V260 10SM BKN065 14/03  A2938 1370 45 1700 220/10 200V260 RMK AO2
14837KMSN MSN20050425161010504/25/05 16:10:31  5-MIN KMSN 252210Z 24010KT 10SM BKN060 BKN075 14/03  A2938 1370 45 1700 240/10 RMK AO2
14837KMSN MSN20050425161511104/25/05 16:15:31  5-MIN KMSN 252215Z 24011G16KT 10SM BKN060 BKN075 14/03  A2938 1370 48 1600 230/11G16 RMK AO2
14837KMSN MSN20050425162011104/25/05 16:20:31  5-MIN KMSN 252220Z 24009G16KT 10SM BKN060 BKN075 14/03  A2938 1370 48 1600 240/09G16 RMK AO2
14837KMSN MSN20050425162511104/25/05 16:25:31  5-MIN KMSN 252225Z 22009G15KT 10SM SCT060 BKN075 14/03  A2937 1370 48 1600 220/09G15 RMK AO2
14837KMSN MSN20050425163010504/25/05 16:30:31  5-MIN KMSN 252230Z 24006KT 10SM BKN060 BKN075 14/04  A2937 1380 50 1600 240/06 RMK AO2
14837KMSN MSN20050425163510504/25/05 16:35:31  5-MIN KMSN 252235Z 23006KT 10SM BKN065 BKN075 14/04  A2937 1380 50 1600 230/06 RMK AO2
14837KMSN MSN20050425164010504/25/05 16:40:31  5-MIN KMSN 252240Z VRB05KT 10SM BKN065 BKN080 14/04  A2937 1380 50 1600 VRB/05 RMK AO2
14837KMSN MSN20050425164509704/25/05 16:45:31  5-MIN KMSN 252245Z 23007KT 10SM BKN075 14/04 A2937 1380 50 1600 230/07 RMK AO2
14837KMSN MSN20050425165012104/25/05 16:50:31  5-MIN KMSN 252250Z VRB05KT 10SM BKN065 BKN080 14/04  A2937 1380 50 1600 VRB/05 RMK AO2 SLPNO T01390039
14837KMSN MSN20050425165510504/25/05 16:55:31  5-MIN KMSN 252255Z 24006KT 10SM SCT055 OVC070 14/04  A2937 1380 50 1600 240/06 RMK AO2
14837KMSN MSN20050425170012204/25/05 17:00:31  5-MIN KMSN 252300Z 23006KT 9SM -RA BKN050 OVC070 14/04  A2938 1370 52 1600 230/06 RMK AO2 RAB2257 P0000
14837KMSN MSN20050425170513504/25/05 17:05:31  5-MIN KMSN 252305Z 28012G22KT 6SM -RA FEW042 BKN050  OVC075 12/06 A2939 1360 63 1400 280/12G22 RMK AO2 RAB2257 P0000
14837KMSN MSN20050425171013504/25/05 17:10:31  5-MIN KMSN 252310Z 28012G22KT 5SM -RA SCT042 BKN050  OVC070 11/06 A2939 1360 74 1200 280/12G22 RMK AO2 RAB2257 P0000
14837KMSN MSN20050425171512804/25/05 17:15:31  5-MIN KMSN 252315Z 28009G18KT 5SM -RA BKN046 OVC055  11/07 A2939 1360 77 1200 280/09G18 RMK AO2 RAB2257 P0000
14837KMSN MSN20050425172012204/25/05 17:20:31  5-MIN KMSN 252320Z 28010KT 5SM -RA BKN046 OVC055 10/07  A2939 1360 80 1100 280/10 RMK AO2 RAB2257 P0000
14837KMSN MSN20050425172512204/25/05 17:25:31  5-MIN KMSN 252325Z 28008KT 5SM -RA BKN046 OVC055 10/07  A2939 1360 80 1100 280/08 RMK AO2 RAB2257 P0000
14837KMSN MSN20050425173013704/25/05 17:30:31  5-MIN KMSN 252330Z 27010KT 240V310 6SM -RA BKN046 OVC055 10/07 A2939 1350 80 1100 270/10 240V310 RMK AO2 RAB2257 P0001
14837KMSN MSN20050425173511504/25/05 17:35:31  5-MIN KMSN 252335Z 28010KT 6SM -RA OVC046 10/07 A2939  1350 80 1100 280/10 RMK AO2 RAB2257 P0001
14837KMSN MSN20050425174011504/25/05 17:40:31  5-MIN KMSN 252340Z 28009KT 5SM -RA OVC046 09/07 A2940  1350 83 1000 280/09 RMK AO2 RAB2257 P0001
14837KMSN MSN20050425174511504/25/05 17:45:31  5-MIN KMSN 252345Z 28008KT 5SM -RA OVC046 09/07 A2940  1350 83 1000 270/08 RMK AO2 RAB2257 P0001
14837KMSN MSN20050425175017804/25/05 17:50:31  5-MIN KMSN 252350Z 27008G15KT 250V310 5SM -RA OVC046  09/07 A2940 1350 83 1000 270/08G15 250V310 RMK AO2 RAB2257 SLPNO P0002  60002 T00940067 10167 20094 58021
14837KMSN MSN20050425175511604/25/05 17:55:31  5-MIN KMSN 252355Z 26008G15KT 5SM -RA BR OVC046 09/07  A2941 1340 86 1000 260/08G15 RMK AO2 P0000
14837KMSN MSN20050425180010704/25/05 18:00:31  5-MIN KMSN 260000Z 26009KT 4SM -RA OVC046 09/06 A2941  1340 83 1000 260/09 RMK AO2 P0001
14837KMSN MSN20050425180510904/25/05 18:05:31  5-MIN KMSN 260005Z VRB06KT 3SM -RA BR OVC044 09/07 A2941 1340 86 1000 VRB/06 RMK AO2 P0002
14837KMSN MSN20050425181011704/25/05 18:10:31  5-MIN KMSN 260010Z 26007KT 3SM -RA BR BKN038 OVC046  09/07 A2942 1330 86 1000 260/07 RMK AO2 P0003
14837KMSN MSN20050425181511704/25/05 18:15:31  5-MIN KMSN 260015Z 25008KT 3SM -RA BR BKN037 OVC046  09/07 A2942 1330 86 1000 250/08 RMK AO2 P0004
14837KMSN MSN20050425182011604/25/05 18:20:31  5-MIN KMSN 260020Z VRB04KT 3SM -RA BR BKN034 OVC044  08/07 A2941 1340 89 900 VRB/04 RMK AO2 P0005
14837KMSN MSN20050425182511604/25/05 18:25:31  5-MIN KMSN 260025Z 25004KT 3SM -RA BR BKN034 OVC044  08/07 A2941 1340 89 900 250/04 RMK AO2 P0006
14837KMSN MSN20050425183010804/25/05 18:30:31  5-MIN KMSN 260030Z VRB03KT 4SM -RA BR OVC034 08/06 A2941 1340 86 900 VRB/03 RMK AO2 P0006
14837KMSN MSN20050425183510804/25/05 18:35:31  5-MIN KMSN 260035Z VRB03KT 4SM -RA BR OVC034 08/06 A2940 1340 86 900 VRB/03 RMK AO2 P0006
14837KMSN MSN20050425184011304/25/05 18:40:31  5-MIN KMSN 260040Z VRB03KT 7SM -RA BKN034 OVC043 08/06  A2940 1340 86 900 VRB/03 RMK AO2 P0006
14837KMSN MSN20050425184510604/25/05 18:45:31  5-MIN KMSN 260045Z VRB03KT 9SM -RA OVC034 08/07 A2941  1340 89 900 VRB/03 RMK AO2 P0006
14837KMSN MSN20050425185012904/25/05 18:50:31  5-MIN KMSN 260050Z 23003KT 8SM -RA BKN034 OVC041 08/07  A2940 1350 89 900 230/03 RMK AO2 SLPNO P0007 T00830067
14837KMSN MSN20050425185510804/25/05 18:55:31  5-MIN KMSN 260055Z VRB04KT 6SM -RA BR OVC034 08/07 A2940 1350 89 900 VRB/04 RMK AO2 P0000
14837KMSN MSN20050425190010804/25/05 19:00:31  5-MIN KMSN 260100Z 23004KT 4SM -RA BR OVC036 08/07 A2940 1350 89 900 230/04 RMK AO2 P0000
14837KMSN MSN20050425190511604/25/05 19:05:31  5-MIN KMSN 260105Z VRB04KT 4SM -RA BR BKN036 OVC055  08/07 A2940 1350 89 900 VRB/04 RMK AO2 P0000
14837KMSN MSN20050425191012304/25/05 19:10:31  5-MIN KMSN 260110Z VRB05KT 5SM -RA BR FEW019 BKN036  OVC055 08/07 A2939 1350 89 900 VRB/05 RMK AO2 P0000
14837KMSN MSN20050425191512304/25/05 19:15:31  5-MIN KMSN 260115Z 23004KT 5SM -RA BR FEW019 BKN034  OVC041 08/07 A2939 1350 89 900 230/04 RMK AO2 P0000
14837KMSN MSN20050425192011604/25/05 19:20:31  5-MIN KMSN 260120Z 24006KT 10SM FEW017 OVC036 08/07  A2940 1350 89 900 240/06 RMK AO2 RAE19 P0000
14837KMSN MSN20050425192511604/25/05 19:25:31  5-MIN KMSN 260125Z 23007KT 10SM FEW017 OVC036 08/07  A2940 1350 89 900 230/07 RMK AO2 RAE19 P0000
14837KMSN MSN20050425193011604/25/05 19:30:31  5-MIN KMSN 260130Z VRB06KT 10SM SCT019 OVC034 08/07  A2940 1350 89 900 VRB/06 RMK AO2 RAE19 P0000
14837KMSN MSN20050425193512304/25/05 19:35:31  5-MIN KMSN 260135Z 24006KT 10SM SCT019 BKN028 OVC036  08/07 A2940 1350 89 900 240/06 RMK AO2 RAE19 P0000
14837KMSN MSN20050425194012304/25/05 19:40:31  5-MIN KMSN 260140Z VRB06KT 10SM FEW017 BKN028 OVC036  08/06 A2941 1340 86 900 VRB/06 RMK AO2 RAE19 P0000
14837KMSN MSN20050425194512804/25/05 19:45:31  5-MIN KMSN 260145Z 25009G14KT 10SM SCT019 BKN026 OVC036 08/06 A2940 1350 86 900 250/09G14 RMK AO2 RAE19 P0000
14837KMSN MSN20050425195015304/25/05 19:50:31  5-MIN KMSN 260150Z VRB05G14KT 10SM -RA FEW017 BKN026  OVC038 08/06 A2941 1340 86 900 VRB/05G14 RMK AO2 RAE19B46 SLPNO P0000  T00830061
14837KMSN MSN20050425195512004/25/05 19:55:31  5-MIN KMSN 260155Z 26007KT 10SM -RA FEW018 BKN023 OVC041 08/06 A2941 1340 86 900 260/07 RMK AO2 P0000
14837KMSN MSN20050425200014304/25/05 20:00:31  5-MIN KMSN 260200Z 25007G14KT 210V290 10SM -RA SCT020  BKN027 OVC036 08/06 A2941 1340 82 900 250/07G14 210V290 RMK AO2 P0000
14837KMSN MSN20050425200512704/25/05 20:05:31  5-MIN KMSN 260205Z VRB06G14KT 10SM -RA SCT020 BKN027  OVC036 08/06 A2941 1340 82 900 VRB/06G14 RMK AO2 P0000
14837KMSN MSN20050425201014304/25/05 20:10:31  5-MIN KMSN 260210Z 25009G14KT 230V290 10SM -RA SCT020  BKN025 OVC033 08/06 A2941 1340 86 800 250/09G14 230V290 RMK AO2 P0000
14837KMSN MSN20050425201514404/25/05 20:15:31  5-MIN KMSN 260215Z 25008G14KT 220V280 10SM SCT022 BKN026 OVC034 08/05 A2941 1340 82 800 250/08G14 220V280 RMK AO2 RAE13 P0000
14837KMSN MSN20050425202012804/25/05 20:20:31  5-MIN KMSN 260220Z 26008G14KT 10SM SCT020 BKN028 OVC034 08/05 A2941 1340 82 800 260/08G14 RMK AO2 RAE13 P0000
14837KMSN MSN20050425202512304/25/05 20:25:31  5-MIN KMSN 260225Z 25008KT 10SM SCT020 BKN028 OVC036  08/05 A2941 1340 82 800 250/08 RMK AO2 RAE13 P0000
14837KMSN MSN20050425203012804/25/05 20:30:31  5-MIN KMSN 260230Z VRB06G15KT 10SM BKN020 BKN028 OVC036 08/04 A2941 1340 79 800 VRB/06G15 RMK AO2 RAE13 P0000
14837KMSN MSN20050425203512804/25/05 20:35:31  5-MIN KMSN 260235Z 26008G15KT 10SM SCT020 BKN025 OVC033 08/04 A2941 1340 79 800 260/08G15 RMK AO2 RAE13 P0000
14837KMSN MSN20050425204012804/25/05 20:40:31  5-MIN KMSN 260240Z 26008G15KT 10SM FEW018 BKN031 OVC040 08/04 A2942 1330 79 800 260/08G15 RMK AO2 RAE13 P0000
14837KMSN MSN20050425204514404/25/05 20:45:31  5-MIN KMSN 260245Z 27007G15KT 230V320 10SM SCT020 SCT027 OVC034 07/04 A2941 1340 82 800 260/07G15 230V320 RMK AO2 RAE13 P0000
14837KMSN MSN20050425205016804/25/05 20:50:31  5-MIN KMSN 260250Z 26007KT 220V290 10SM FEW018 SCT023  BKN034 07/04 A2941 1340 82 800 260/07 220V290 RMK AO2 RAE13 SLPNO P0000  60007 T00720044 53001
14837KMSN MSN20050425205511104/25/05 20:55:31  5-MIN KMSN 260255Z VRB06KT 10SM FEW023 SCT031 BKN040  07/04 A2942 1330 79 800 VRB/06 RMK AO2
14837KMSN MSN20050425210011004/25/05 21:00:31  5-MIN KMSN 260300Z 26007KT 9SM FEW023 SCT033 BKN042  07/04 A2942 1330 79 800 250/07 RMK AO2
14837KMSN MSN20050425210512604/25/05 21:05:31  5-MIN KMSN 260305Z 26008KT 220V290 9SM FEW023 SCT033  BKN042 07/04 A2941 1340 79 800 260/08 220V290 RMK AO2
14837KMSN MSN20050425211010204/25/05 21:10:31  5-MIN KMSN 260310Z 26006KT 9SM FEW023 SCT042 07/04 A2941 1340 82 700 260/06 RMK AO2
14837KMSN MSN20050425211509604/25/05 21:15:31  5-MIN KMSN 260315Z 26006KT 9SM FEW039 07/04 A2941 1340  82 700 260/06 RMK AO2
14837KMSN MSN20050425212009304/25/05 21:20:31  5-MIN KMSN 260320Z VRB06KT 8SM CLR 07/04 A2941 1340 82  700 VRB/06 RMK AO2
14837KMSN MSN20050425212509304/25/05 21:25:31  5-MIN KMSN 260325Z VRB04KT 8SM CLR 07/04 A2941 1340 82  700 VRB/04 RMK AO2
14837KMSN MSN20050425213009304/25/05 21:30:31  5-MIN KMSN 260330Z VRB06KT 8SM CLR 07/04 A2941 1340 82  700 VRB/06 RMK AO2
14837KMSN MSN20050425213509304/25/05 21:35:31  5-MIN KMSN 260335Z VRB05KT 8SM CLR 06/03 A2941 1340 82  600 VRB/05 RMK AO2
14837KMSN MSN20050425214009604/25/05 21:40:31  5-MIN KMSN 260340Z 24003KT 8SM FEW032 06/03 A2941 1340  82 600 240/03 RMK AO2
14837KMSN MSN20050425214510204/25/05 21:45:31  5-MIN KMSN 260345Z VRB04KT 9SM FEW026 SCT032 06/03 A2941 1340 82 600 VRB/04 RMK AO2
14837KMSN MSN20050425215011804/25/05 21:50:31  5-MIN KMSN 260350Z VRB04KT 9SM FEW026 BKN034 06/03 A2941 1340 82 600 VRB/04 RMK AO2 SLPNO T00610033
14837KMSN MSN20050425215510404/25/05 21:55:31  5-MIN KMSN 260355Z VRB05KT 10SM FEW026 BKN034 07/03  A2941 1340 79 700 VRB/05 RMK AO2
14837KMSN MSN20050425220010404/25/05 22:00:31  5-MIN KMSN 260400Z 22003KT 10SM FEW026 OVC034 07/04  A2941 1340 82 700 220/03 RMK AO2
14837KMSN MSN20050425220510404/25/05 22:05:31  5-MIN KMSN 260405Z 22005KT 10SM FEW026 OVC034 07/04  A2941 1340 82 700 220/05 RMK AO2
14837KMSN MSN20050425221011104/25/05 22:10:31  5-MIN KMSN 260410Z 23007KT 10SM FEW026 BKN034 OVC055  07/04 A2941 1340 82 700 230/07 RMK AO2
14837KMSN MSN20050425221510404/25/05 22:15:31  5-MIN KMSN 260415Z 22006KT 10SM BKN034 OVC055 07/04  A2941 1340 82 700 220/06 RMK AO2
14837KMSN MSN20050425222010404/25/05 22:20:31  5-MIN KMSN 260420Z VRB05KT 10SM BKN034 OVC055 07/04  A2941 1340 82 700 VRB/05 RMK AO2
14837KMSN MSN20050425222510404/25/05 22:25:31  5-MIN KMSN 260425Z 22005KT 10SM BKN034 OVC055 06/04  A2941 1340 86 600 210/05 RMK AO2
14837KMSN MSN20050425223010404/25/05 22:30:31  5-MIN KMSN 260430Z 22005KT 10SM SCT034 OVC060 06/04  A2941 1340 86 600 220/05 RMK AO2
14837KMSN MSN20050425223510404/25/05 22:35:31  5-MIN KMSN 260435Z 22006KT 10SM FEW034 OVC060 06/04  A2941 1340 86 600 220/06 RMK AO2
14837KMSN MSN20050425224010404/25/05 22:40:31  5-MIN KMSN 260440Z 22008KT 10SM FEW034 BKN060 06/04  A2941 1340 86 600 220/08 RMK AO2
14837KMSN MSN20050425224510404/25/05 22:45:31  5-MIN KMSN 260445Z 22008KT 10SM FEW034 BKN060 06/03  A2941 1340 82 600 220/08 RMK AO2
14837KMSN MSN20050425225012004/25/05 22:50:31  5-MIN KMSN 260450Z 22009KT 10SM FEW034 BKN060 06/03  A2941 1340 82 600 220/09 RMK AO2 SLPNO T00610033
14837KMSN MSN20050425225509604/25/05 22:55:31  5-MIN KMSN 260455Z 22009KT 10SM BKN060 06/03 A2941 1340 82 600 220/09 RMK AO2
14837KMSN MSN20050425230010404/25/05 23:00:31  5-MIN KMSN 260500Z 22007KT 10SM FEW034 SCT060 06/02  A2941 1340 76 600 220/07 RMK AO2
14837KMSN MSN20050425230510404/25/05 23:05:31  5-MIN KMSN 260505Z 22008KT 10SM FEW034 SCT060 06/03  A2941 1340 82 600 220/08 RMK AO2
14837KMSN MSN20050425231010404/25/05 23:10:31  5-MIN KMSN 260510Z 22007KT 10SM FEW034 SCT060 06/03  A2941 1340 82 600 220/07 RMK AO2
14837KMSN MSN20050425231510404/25/05 23:15:31  5-MIN KMSN 260515Z VRB06KT 10SM FEW034 SCT060 06/03  A2941 1340 82 600 VRB/06 RMK AO2
14837KMSN MSN20050425232012004/25/05 23:20:31  5-MIN KMSN 260520Z 22007KT 190V260 10SM FEW034 SCT060  06/03 A2941 1340 82 600 220/07 190V260 RMK AO2
14837KMSN MSN20050425232509604/25/05 23:25:31  5-MIN KMSN 260525Z 23008KT 10SM FEW060 06/03 A2941 1340 79 600 230/08 RMK AO2
14837KMSN MSN20050425233009604/25/05 23:30:31  5-MIN KMSN 260530Z VRB06KT 10SM FEW060 06/03 A2941 1340 79 600 VRB/06 RMK AO2
14837KMSN MSN20050425233511304/25/05 23:35:31  5-MIN KMSN 260535Z 23008KT 200V270 10SM FEW060 06/03  A2941 1340 79 600 230/08 200V270 RMK AO2
14837KMSN MSN20050426204011104/26/05 20:40:31  5-MIN KMSN 270240Z 30009KT 10SM FEW055 BKN075 OVC095  06/01 A2956 1200 67 500 300/09 RMK AO2
14837KMSN MSN20050426204511104/26/05 20:45:31  5-MIN KMSN 270245Z 29007KT 10SM FEW055 BKN080 OVC095  06/01 A2956 1200 67 500 290/07 RMK AO2
14837KMSN MSN20050426205012404/26/05 20:50:31  5-MIN KMSN 270250Z 29008KT 10SM OVC090 06/01 A2956 1200 67 500 290/08 RMK AO2 SLPNO 60000 T00610006 53018
14837KMSN MSN20050426205510404/26/05 20:55:31  5-MIN KMSN 270255Z VRB05KT 10SM BKN080 OVC095 06/01  A2956 1200 70 400 VRB/05 RMK AO2
14837KMSN MSN20050426210010404/26/05 21:00:31  5-MIN KMSN 270300Z 27004KT 10SM BKN080 OVC095 06/01  A2956 1200 67 500 270/04 RMK AO2
14837KMSN MSN20050426210510404/26/05 21:05:31  5-MIN KMSN 270305Z VRB03KT 10SM BKN080 OVC090 06/01  A2956 1200 67 500 VRB/03 RMK AO2
14837KMSN MSN20050426211009604/26/05 21:10:31  5-MIN KMSN 270310Z VRB03KT 10SM OVC085 06/01 A2956 1200 70 400 VRB/03 RMK AO2
14837KMSN MSN20050426211509604/26/05 21:15:31  5-MIN KMSN 270315Z 26004KT 10SM OVC085 06/01 A2956 1200 70 400 260/04 RMK AO2
14837KMSN MSN20050426212009604/26/05 21:20:31  5-MIN KMSN 270320Z 27003KT 10SM OVC085 06/01 A2956 1200 70 400 270/03 RMK AO2
14837KMSN MSN20050426212509604/26/05 21:25:31  5-MIN KMSN 270325Z 28005KT 10SM OVC090 06/01 A2956 1200 70 400 270/05 RMK AO2
14837KMSN MSN20050426213009604/26/05 21:30:31  5-MIN KMSN 270330Z 28005KT 10SM OVC090 06/00 A2956 1200 67 400 280/05 RMK AO2
14837KMSN MSN20050426213509604/26/05 21:35:31  5-MIN KMSN 270335Z 28005KT 10SM OVC090 06/00 A2956 1200 67 400 280/05 RMK AO2
14837KMSN MSN20050426214009604/26/05 21:40:31  5-MIN KMSN 270340Z 28005KT 10SM OVC095 06/00 A2956 1200 67 400 280/05 RMK AO2
14837KMSN MSN20050426214509604/26/05 21:45:31  5-MIN KMSN 270345Z 29005KT 10SM OVC095 06/00 A2956 1200 67 400 290/05 RMK AO2
14837KMSN MSN20050426215011304/26/05 21:50:31  5-MIN KMSN 270350Z 29006KT 10SM BKN095 06/M01 A2956 1200 65 400 290/06 RMK AO2 SLPNO T00561006
14837KMSN MSN20050426215510504/26/05 21:55:31  5-MIN KMSN 270355Z 29004KT 10SM SCT080 BKN100 06/M01  A2956 1200 65 400 290/04 RMK AO2
14837KMSN MSN20050426220010504/26/05 22:00:31  5-MIN KMSN 270400Z 28004KT 10SM BKN065 BKN100 06/M01  A2956 1200 65 400 280/04 RMK AO2
14837KMSN MSN20050426220510504/26/05 22:05:31  5-MIN KMSN 270405Z 29004KT 10SM BKN060 BKN095 06/M01  A2956 1200 65 400 290/04 RMK AO2
14837KMSN MSN20050426221011204/26/05 22:10:31  5-MIN KMSN 270410Z 28003KT 10SM FEW032 BKN055 BKN090  06/M01 A2956 1200 65 400 270/03 RMK AO2
14837KMSN MSN20050426221511204/26/05 22:15:31  5-MIN KMSN 270415Z VRB05KT 10SM FEW032 BKN055 BKN090  06/M01 A2956 1200 65 400 VRB/05 RMK AO2
14837KMSN MSN20050426222011104/26/05 22:20:31  5-MIN KMSN 270420Z 28005KT 10SM BKN055 BKN095 OVC110  06/00 A2956 1200 67 400 280/05 RMK AO2
14837KMSN MSN20050426222511104/26/05 22:25:31  5-MIN KMSN 270425Z 28006KT 10SM BKN055 BKN090 OVC110  06/00 A2956 1200 67 400 280/06 RMK AO2
14837KMSN MSN20050426223010404/26/05 22:30:31  5-MIN KMSN 270430Z 28007KT 10SM BKN050 OVC090 06/00  A2957 1190 67 400 280/07 RMK AO2
14837KMSN MSN20050426223511104/26/05 22:35:31  5-MIN KMSN 270435Z 28006KT 10SM FEW035 BKN050 OVC060  06/00 A2957 1190 67 400 280/06 RMK AO2
14837KMSN MSN20050426224011104/26/05 22:40:31  5-MIN KMSN 270440Z 28008KT 10SM FEW038 BKN050 OVC110  06/01 A2957 1190 70 400 280/08 RMK AO2
14837KMSN MSN20050426224510404/26/05 22:45:31  5-MIN KMSN 270445Z 28007KT 10SM SCT044 OVC050 06/01  A2957 1190 70 400 280/07 RMK AO2
14837KMSN MSN20050426225015304/26/05 22:50:31  5-MIN KMSN 270450Z 27007KT 240V310 10SM -RA BKN044  OVC055 05/01 A2957 1190 73 300 270/07 240V310 RMK AO2 RAB50 SLPNO P0000  T00500006
14837KMSN MSN20050426225512004/26/05 22:55:31  5-MIN KMSN 270455Z 28006KT 10SM -RA BKN040 BKN047 OVC055 05/01 A2957 1190 76 300 270/06 RMK AO2 P0000
14837KMSN MSN20050426230013004/26/05 23:00:31  5-MIN KMSN 270500Z 27007KT 240V310 10SM -RA BKN038  OVC049 05/01 A2957 1190 76 300 270/07 240V310 RMK AO2 P0000
14837KMSN MSN20050426230512004/26/05 23:05:31  5-MIN KMSN 270505Z 27007KT 10SM -RA SCT032 BKN040 OVC049 05/01 A2957 1190 76 300 270/07 RMK AO2 P0000
14837KMSN MSN20050426231011304/26/05 23:10:31  5-MIN KMSN 270510Z 27007KT 10SM -RA BKN029 OVC039 05/01 A2957 1190 76 300 270/07 RMK AO2 P0000
14837KMSN MSN20050426231512004/26/05 23:15:31  5-MIN KMSN 270515Z 28005KT 10SM -RA BKN027 BKN034 OVC042 04/01 A2957 1190 79 200 280/05 RMK AO2 P0000
14837KMSN MSN20050426232011304/26/05 23:20:31  5-MIN KMSN 270520Z 27006KT 10SM -RA BKN025 OVC034 04/02 A2957 1190 82 200 270/06 RMK AO2 P0000
14837KMSN MSN20050426232511904/26/05 23:25:31  5-MIN KMSN 270525Z 27005KT 9SM -RA BKN022 BKN027 OVC034 04/02 A2957 1190 82 200 260/05 RMK AO2 P0000
14837KMSN MSN20050426233011304/26/05 23:30:31  5-MIN KMSN 270530Z 27005KT 8SM -RA BKN022 OVC027 04/02  A2957 1190 82 200 270/05 RMK AO2 P0000
14837KMSN MSN20050426233511304/26/05 23:35:31  5-MIN KMSN 270535Z 27005KT 8SM -RA BKN020 OVC027 04/02  A2957 1190 82 200 270/05 RMK AO2 P0000
14837KMSN MSN20050426234010604/26/05 23:40:31  5-MIN KMSN 270540Z 27004KT 9SM -RA OVC018 04/02 A2957  1190 82 200 260/04 RMK AO2 P0000
14837KMSN MSN20050426234510604/26/05 23:45:31  5-MIN KMSN 270545Z 26004KT 8SM -RA OVC018 04/02 A2957  1190 82 200 260/04 RMK AO2 P0000
14837KMSN MSN20050426235015804/26/05 23:50:31  5-MIN KMSN 270550Z VRB03KT 7SM -RA OVC018 04/02 A2957  1190 85 200 VRB/03 RMK AO2 SLP019 P0000 60000 T00440022 10078 20044  401060044 53021
14837KMSN MSN20050426235510604/26/05 23:55:31  5-MIN KMSN 270555Z VRB03KT 7SM -RA OVC016 04/02 A2957  1190 85 200 VRB/03 RMK AO2 P0000
14837KMSN MSN20050427000010804/27/05 00:00:38  5-MIN KMSN 270600Z VRB03KT 6SM -RA BR OVC016 04/02 A2957 1190 85 200 VRB/03 RMK AO2 P0000
14837KMSN MSN20050427000510804/27/05 00:05:31  5-MIN KMSN 270605Z 26004KT 5SM -RA BR OVC014 04/02 A2957 1190 85 200 260/04 RMK AO2 P0000
14837KMSN MSN20050427001010804/27/05 00:10:31  5-MIN KMSN 270610Z 28006KT 5SM -RA BR OVC014 04/02 A2957 1190 85 200 280/06 RMK AO2 P0000
14837KMSN MSN20050427001510804/27/05 00:15:31  5-MIN KMSN 270615Z 28005KT 5SM -RA BR OVC014 04/02 A2957 1190 85 200 280/05 RMK AO2 P0001
14837KMSN MSN20050427002011604/27/05 00:20:31  5-MIN KMSN 270620Z 31006KT 5SM -RA BR FEW007 OVC014  04/03 A2957 1190 89 200 310/06 RMK AO2 P0001
14837KMSN MSN20050427002511604/27/05 00:25:31  5-MIN KMSN 270625Z 34006KT 4SM -RA BR SCT007 OVC014  04/03 A2958 1180 92 200 340/06 RMK AO2 P0001
14837KMSN MSN20050427003012304/27/05 00:30:31  5-MIN KMSN 270630Z 31007KT 5SM -RA BR SCT007 BKN014  OVC024 04/02 A2958 1190 89 200 300/07 RMK AO2 P0002
14837KMSN MSN20050427003511904/27/05 00:35:31  5-MIN KMSN 270635Z 30007KT 7SM -RA FEW007 BKN014 OVC028 04/02 A2958 1180 89 200 300/07 RMK AO2 P0002
14837KMSN MSN20050427004011904/27/05 00:40:31  5-MIN KMSN 270640Z 31006KT 9SM -RA FEW007 SCT014 OVC025 04/02 A2958 1180 89 200 310/06 RMK AO2 P0002
14837KMSN MSN20050427004512004/27/05 00:45:31  5-MIN KMSN 270645Z 30005KT 10SM -RA FEW008 BKN027 OVC055 04/02 A2958 1180 89 200 300/05 RMK AO2 P0002
14837KMSN MSN20050427005013704/27/05 00:50:31  5-MIN KMSN 270650Z 29005KT 10SM -RA FEW008 BKN025 OVC055 04/02 A2958 1180 89 200 290/05 RMK AO2 SLP020 P0002 T00390022
14837KMSN MSN20050427005511904/27/05 00:55:31  5-MIN KMSN 270655Z 30006KT 8SM -RA FEW012 BKN025 OVC035 04/02 A2958 1180 89 200 300/06 RMK AO2 P0000
14837KMSN MSN20050427010012304/27/05 01:00:31  5-MIN KMSN 270700Z 29005KT 6SM -RA BR BKN012 BKN022  OVC035 04/02 A2958 1180 89 200 290/05 RMK AO2 P0000
14837KMSN MSN20050427010511904/27/05 01:05:31  5-MIN KMSN 270705Z 29008KT 7SM -RA BKN010 BKN019 OVC027 04/02 A2958 1180 89 200 290/08 RMK AO2 P0000
14837KMSN MSN20050427011012204/27/05 01:10:31  5-MIN KMSN 270710Z 30006KT 9SM SCT010 BKN014 OVC043  04/02 A2958 1180 89 200 300/06 RMK AO2 RAE10 P0000
14837KMSN MSN20050427011512704/27/05 01:15:31  5-MIN KMSN 270715Z 29011G15KT 10SM -RA FEW010 BKN016  OVC065 04/02 A2958 1180 85 200 290/11G15 RMK AO2 P0000
14837KMSN MSN20050427012012004/27/05 01:20:31  5-MIN KMSN 270720Z 29012KT 10SM -RA SCT010 BKN016 OVC070 03/01 A2958 1180 85 100 290/12 RMK AO2 P0000
14837KMSN MSN20050427012512004/27/05 01:25:31  5-MIN KMSN 270725Z 30009KT 10SM -RA SCT012 BKN019 OVC070 03/01 A2958 1180 85 100 300/09 RMK AO2 P0000
14837KMSN MSN20050427013012004/27/05 01:30:31  5-MIN KMSN 270730Z 30007KT 10SM -RA SCT012 BKN020 OVC070 03/01 A2959 1170 85 100 300/07 RMK AO2 P0000
14837KMSN MSN20050427013512004/27/05 01:35:31  5-MIN KMSN 270735Z 30008KT 10SM -RA FEW015 BKN024 OVC095 03/01 A2959 1170 85 100 300/08 RMK AO2 P0000
14837KMSN MSN20050427014012604/27/05 01:40:31  5-MIN KMSN 270740Z 31010G14KT 10SM SCT017 BKN080 OVC095 03/01 A2959 1170 89 0 310/10G14 RMK AO2 RAE36 P0000
14837KMSN MSN20050427014512104/27/05 01:45:31  5-MIN KMSN 270745Z 31012KT 10SM FEW013 SCT022 BKN090  03/00 A2959 1170 82 0 310/12 RMK AO2 RAE36 P0000
14837KMSN MSN20050427015013804/27/05 01:50:31  5-MIN KMSN 270750Z 32009KT 10SM FEW013 SCT022 BKN090  03/00 A2959 1170 82 0 320/09 RMK AO2 RAE36 SLP026 P0000 T00280000
14837KMSN MSN20050427015510904/27/05 01:55:31  5-MIN KMSN 270755Z 31006KT 10SM FEW013 SCT020 BKN100  03/00 A2959 1170 82 0 310/06 RMK AO2
14837KMSN MSN20050427020010904/27/05 02:00:31  5-MIN KMSN 270800Z VRB04KT 10SM FEW013 SCT018 BKN095  02/00 A2960 1160 85 0 VRB/04 RMK AO2
14837KMSN MSN20050427020510904/27/05 02:05:31  5-MIN KMSN 270805Z 30007KT 10SM FEW013 BKN090 BKN110  03/01 A2960 1160 85 0 300/07 RMK AO2
14837KMSN MSN20050427021010904/27/05 02:10:31  5-MIN KMSN 270810Z 30008KT 10SM FEW012 BKN090 BKN110  03/00 A2960 1160 82 0 300/08 RMK AO2
14837KMSN MSN20050427021510904/27/05 02:15:31  5-MIN KMSN 270815Z 30009KT 10SM FEW012 BKN090 BKN110  03/00 A2961 1160 82 0 300/09 RMK AO2
14837KMSN MSN20050427022010904/27/05 02:20:31  5-MIN KMSN 270820Z 30007KT 10SM FEW012 BKN090 BKN110  03/00 A2961 1160 82 0 300/07 RMK AO2
14837KMSN MSN20050427022510204/27/05 02:25:31  5-MIN KMSN 270825Z 30008KT 10SM FEW014 BKN090 02/00  A2961 1150 85 0 300/08 RMK AO2
14837KMSN MSN20050427023009404/27/05 02:30:31  5-MIN KMSN 270830Z VRB05KT 10SM BKN085 02/00 A2961 1150 85 0 VRB/05 RMK AO2
14837KMSN MSN20050427023509404/27/05 02:35:31  5-MIN KMSN 270835Z 29005KT 10SM BKN090 02/00 A2961 1150 85 0 290/05 RMK AO2
14837KMSN MSN20050427024009404/27/05 02:40:31  5-MIN KMSN 270840Z 30006KT 10SM BKN090 02/00 A2961 1150 85 0 300/06 RMK AO2
14837KMSN MSN20050427024509404/27/05 02:45:31  5-MIN KMSN 270845Z 30005KT 10SM SCT090 02/00 A2962 1150 85 0 290/05 RMK AO2
14837KMSN MSN20050427025012304/27/05 02:50:31  5-MIN KMSN 270850Z 30006KT 10SM BKN090 02/00 A2962 1140 85 0 290/06 RMK AO2 SLP034 60002 T00220000 53005
14837KMSN MSN20050427025509404/27/05 02:55:31  5-MIN KMSN 270855Z 30005KT 10SM BKN090 02/00 A2962 1140 85 0 300/05 RMK AO2
14837KMSN MSN20050427030010204/27/05 03:00:31  5-MIN KMSN 270900Z 29005KT 10SM SCT019 BKN090 02/00  A2962 1140 85 0 290/05 RMK AO2
14837KMSN MSN20050427030510204/27/05 03:05:31  5-MIN KMSN 270905Z 29007KT 10SM SCT019 BKN085 02/00  A2962 1140 85 0 290/07 RMK AO2
14837KMSN MSN20050427031010204/27/05 03:10:31  5-MIN KMSN 270910Z 28008KT 10SM SCT019 OVC085 02/00  A2962 1140 85 0 280/08 RMK AO2
14837KMSN MSN20050427031510204/27/05 03:15:31  5-MIN KMSN 270915Z 29010KT 10SM FEW017 OVC090 02/00  A2962 1140 85 0 290/10 RMK AO2
14837KMSN MSN20050427032010304/27/05 03:20:31  5-MIN KMSN 270920Z 29007KT 10SM FEW017 OVC095 02/M01  A2962 1140 82 0 290/07 RMK AO2
14837KMSN MSN20050427032510304/27/05 03:25:31  5-MIN KMSN 270925Z 28007KT 10SM FEW017 OVC095 02/M01  A2962 1140 82 0 280/07 RMK AO2
14837KMSN MSN20050427033010304/27/05 03:30:31  5-MIN KMSN 270930Z 29007KT 10SM FEW017 BKN095 02/M01  A2962 1140 82 0 290/07 RMK AO2
14837KMSN MSN20050427033509404/27/05 03:35:31  5-MIN KMSN 270935Z 28008KT 10SM BKN095 02/00 A2963 1140 85 0 280/08 RMK AO2
14837KMSN MSN20050427034010504/27/05 03:40:31  5-MIN KMSN 270940Z 28006KT 10SM FEW070 BKN100 02/00  A2963 1140 85 -100 280/06 RMK AO2
14837KMSN MSN20050427034510204/27/05 03:45:31  5-MIN KMSN 270945Z 29008KT 10SM SCT070 BKN100 02/00  A2963 1140 85 0 290/08 RMK AO2
14837KMSN MSN20050427035012204/27/05 03:50:31  5-MIN KMSN 270950Z 28008KT 10SM BKN070 BKN100 02/00  A2963 1140 85 -100 280/08 RMK AO2 SLP037 T00220000
14837KMSN MSN20050427035509704/27/05 03:55:31  5-MIN KMSN 270955Z 28007KT 10SM BKN070 02/00 A2963 1130 85 -100 280/07 RMK AO2
14837KMSN MSN20050427040009704/27/05 04:00:31  5-MIN KMSN 271000Z 28006KT 10SM BKN070 02/00 A2963 1130 85 -100 280/06 RMK AO2
14837KMSN MSN20050427040509404/27/05 04:05:31  5-MIN KMSN 271005Z 28008KT 10SM OVC070 03/00 A2963 1130 82 0 280/08 RMK AO2
14837KMSN MSN20050427041009404/27/05 04:10:31  5-MIN KMSN 271010Z 28009KT 10SM OVC070 03/00 A2963 1130 82 0 280/09 RMK AO2
14837KMSN MSN20050427041509404/27/05 04:15:31  5-MIN KMSN 271015Z 29007KT 10SM OVC070 03/00 A2963 1130 82 0 280/07 RMK AO2
14837KMSN MSN20050427042009404/27/05 04:20:31  5-MIN KMSN 271020Z 28007KT 10SM OVC070 03/00 A2963 1130 82 0 280/07 RMK AO2
14837KMSN MSN20050427042509404/27/05 04:25:31  5-MIN KMSN 271025Z 28009KT 10SM OVC070 03/00 A2963 1130 82 0 280/09 RMK AO2
14837KMSN MSN20050427043009404/27/05 04:30:31  5-MIN KMSN 271030Z 28008KT 10SM OVC070 03/00 A2963 1130 82 0 280/08 RMK AO2
14837KMSN MSN20050427043511104/27/05 04:35:31  5-MIN KMSN 271035Z 28008KT 240V310 10SM OVC070 03/00  A2964 1130 82 0 280/08 240V310 RMK AO2
14837KMSN MSN20050427044009404/27/05 04:40:31  5-MIN KMSN 271040Z 28008KT 10SM OVC070 03/00 A2964 1130 82 0 280/08 RMK AO2
14837KMSN MSN20050427044509404/27/05 04:45:31  5-MIN KMSN 271045Z 28007KT 10SM BKN065 03/00 A2964 1120 82 0 280/07 RMK AO2
14837KMSN MSN20050427045011104/27/05 04:50:31  5-MIN KMSN 271050Z 28008KT 10SM BKN065 03/00 A2964 1120 82 0 280/08 RMK AO2 SLP043 T00280000
14837KMSN MSN20050427045509404/27/05 04:55:31  5-MIN KMSN 271055Z 27008KT 10SM OVC065 03/00 A2965 1120 82 0 270/08 RMK AO2
14837KMSN MSN20050427050009404/27/05 05:00:31  5-MIN KMSN 271100Z VRB06KT 10SM OVC065 03/00 A2965 1120 82 0 VRB/06 RMK AO2
14837KMSN MSN20050427050509404/27/05 05:05:31  5-MIN KMSN 271105Z 26008KT 10SM OVC065 03/00 A2965 1120 82 0 260/08 RMK AO2
14837KMSN MSN20050427051009404/27/05 05:10:31  5-MIN KMSN 271110Z VRB06KT 10SM OVC065 03/00 A2965 1110 82 0 VRB/06 RMK AO2
14837KMSN MSN20050427051511104/27/05 05:15:31  5-MIN KMSN 271115Z 27007KT 230V300 10SM OVC065 03/00  A2965 1110 82 0 270/07 230V300 RMK AO2
14837KMSN MSN20050427052009404/27/05 05:20:31  5-MIN KMSN 271120Z 28007KT 10SM BKN065 03/00 A2966 1110 82 0 280/07 RMK AO2
14837KMSN MSN20050427052511104/27/05 05:25:31  5-MIN KMSN 271125Z 27007KT 230V300 10SM BKN065 03/00  A2966 1110 82 0 270/07 230V300 RMK AO2
14837KMSN MSN20050427053009404/27/05 05:30:31  5-MIN KMSN 271130Z VRB06KT 10SM BKN065 03/00 A2966 1110 82 0 VRB/06 RMK AO2
14837KMSN MSN20050427053509404/27/05 05:35:31  5-MIN KMSN 271135Z VRB06KT 10SM BKN065 03/00 A2966 1100 82 0 VRB/06 RMK AO2
14837KMSN MSN20050427054009404/27/05 05:40:31  5-MIN KMSN 271140Z 27008KT 10SM BKN065 03/01 A2967 1100 85 0 270/08 RMK AO2
14837KMSN MSN20050427054509404/27/05 05:45:31  5-MIN KMSN 271145Z 27007KT 10SM BKN060 03/00 A2967 1100 82 0 270/07 RMK AO2
14837KMSN MSN20050427055018204/27/05 05:50:31  5-MIN KMSN 271150Z 27007KT 220V300 10SM -RA BKN031  OVC060 03/00 A2967 1100 82 0 260/07 220V300 RMK AO2 RAB49 SLP052 P0000  60002 70003 T00280000 10044 20022 53015
14837KMSN MSN20050427055511104/27/05 05:55:31  5-MIN KMSN 271155Z 27009KT 10SM -RA BKN031 OVC060 03/00 A2967 1100 82 0 270/09 RMK AO2 P0000
14837KMSN MSN20050427060011804/27/05 06:00:31  5-MIN KMSN 271200Z 28007KT 10SM BKN031 OVC060 03/00  A2967 1100 79 0 280/07 RMK AO2 RAE1156 P0000 $
14837KMSN MSN20050427060511004/27/05 06:05:31  5-MIN KMSN 271205Z 28008KT 10SM OVC031 03/01 A2967 1100 82 0 280/08 RMK AO2 RAE1156 P0000 $
14837KMSN MSN20050427061011004/27/05 06:10:31  5-MIN KMSN 271210Z 28007KT 10SM OVC031 03/00 A2967 1090 79 0 280/07 RMK AO2 RAE1156 P0000 $
14837KMSN MSN20050427061511004/27/05 06:15:31  5-MIN KMSN 271215Z 28006KT 10SM OVC031 03/00 A2967 1090 79 0 280/06 RMK AO2 RAE1156 P0000 $
14837KMSN MSN20050427062011004/27/05 06:20:31  5-MIN KMSN 271220Z 27004KT 10SM BKN031 03/00 A2967 1090 79 0 270/04 RMK AO2 RAE1156 P0000 $
14837KMSN MSN20050427062511004/27/05 06:25:31  5-MIN KMSN 271225Z 28005KT 10SM BKN031 03/00 A2968 1090 79 0 280/05 RMK AO2 RAE1156 P0000 $
14837KMSN MSN20050427063011804/27/05 06:30:31  5-MIN KMSN 271230Z 27007KT 10SM BKN031 BKN065 03/01  A2968 1090 82 0 270/07 RMK AO2 RAE1156 P0000 $
14837KMSN MSN20050427063511804/27/05 06:35:31  5-MIN KMSN 271235Z VRB05KT 10SM SCT031 BKN065 03/01  A2968 1090 82 0 VRB/05 RMK AO2 RAE1156 P0000 $
14837KMSN MSN20050427064011804/27/05 06:40:31  5-MIN KMSN 271240Z 27005KT 10SM FEW031 BKN065 04/01  A2968 1090 82 0 270/05 RMK AO2 RAE1156 P0000 $
14837KMSN MSN20050427064511804/27/05 06:45:31  5-MIN KMSN 271245Z 28007KT 10SM FEW031 BKN065 04/01  A2968 1090 82 0 280/07 RMK AO2 RAE1156 P0000 $
14837KMSN MSN20050427065014404/27/05 06:50:31  5-MIN KMSN 271250Z 28006KT 10SM FEW016 SCT030 BKN065  04/01 A2969 1080 79 100 280/06 RMK AO2 RAE1156 SLP057 P0000 T00440011 $
14837KMSN MSN20050427065510604/27/05 06:55:31  5-MIN KMSN 271255Z 28008KT 10SM BKN016 BKN065 04/01  A2969 1080 79 100 280/08 RMK AO2 $
14837KMSN MSN20050427070010604/27/05 07:00:31  5-MIN KMSN 271300Z 28009KT 10SM BKN016 OVC065 04/01  A2969 1080 79 100 280/09 RMK AO2 $
14837KMSN MSN20050427070511304/27/05 07:05:31  5-MIN KMSN 271305Z 29008KT 10SM BKN016 BKN021 OVC065  04/01 A2969 1080 79 100 280/08 RMK AO2 $
14837KMSN MSN20050427071011804/27/05 07:10:31  5-MIN KMSN 271310Z 29010G15KT 10SM BKN016 BKN021 OVC060 04/01 A2969 1080 79 100 290/10G15 RMK AO2 $
14837KMSN MSN20050427071511204/27/05 07:15:31  5-MIN KMSN 271315Z 28008G15KT 10SM BKN016 OVC025 04/01  A2969 1080 79 100 280/08G15 RMK AO2 $
14837KMSN MSN20050427072011204/27/05 07:20:31  5-MIN KMSN 271320Z 29008KT 9SM SCT016 BKN021 OVC060  04/01 A2969 1080 79 100 290/08 RMK AO2 $
14837KMSN MSN20050427072511004/27/05 07:25:31  5-MIN KMSN 271325Z 27008KT 9SM SCT016 BKN026 OVC060  04/01 A2969 1080 79 100 270/08 RMK AO2
14837KMSN MSN20050427073011004/27/05 07:30:31  5-MIN KMSN 271330Z 29007KT 9SM FEW018 BKN026 OVC060  04/01 A2969 1080 79 100 290/07 RMK AO2
14837KMSN MSN20050427073511004/27/05 07:35:31  5-MIN KMSN 271335Z 29007KT 9SM FEW018 BKN026 OVC060  04/01 A2969 1080 79 100 290/07 RMK AO2
14837KMSN MSN20050427074011104/27/05 07:40:31  5-MIN KMSN 271340Z VRB06KT 10SM FEW018 BKN026 OVC060  05/02 A2969 1080 79 200 VRB/06 RMK AO2
14837KMSN MSN20050427074510404/27/05 07:45:31  5-MIN KMSN 271345Z VRB06KT 10SM BKN018 OVC060 05/02  A2970 1070 79 200 VRB/06 RMK AO2
14837KMSN MSN20050427075012104/27/05 07:50:31  5-MIN KMSN 271350Z 27008KT 10SM BKN018 OVC060 06/02  A2970 1070 76 200 270/08 RMK AO2 SLP061 T00560017
14837KMSN MSN20050427075511104/27/05 07:55:31  5-MIN KMSN 271355Z 28009KT 10SM FEW016 BKN022 OVC060  05/01 A2970 1070 76 200 280/09 RMK AO2
14837KMSN MSN20050427080011104/27/05 08:00:31  5-MIN KMSN 271400Z 28009KT 10SM SCT019 BKN025 BKN060  06/01 A2970 1070 73 200 280/09 RMK AO2
14837KMSN MSN20050427080511104/27/05 08:05:31  5-MIN KMSN 271405Z 30010KT 10SM SCT019 BKN025 BKN060  06/01 A2970 1070 70 300 300/10 RMK AO2
14837KMSN MSN20050427081011104/27/05 08:10:31  5-MIN KMSN 271410Z 29009KT 10SM SCT019 BKN025 BKN060  06/01 A2970 1070 70 200 290/09 RMK AO2
14837KMSN MSN20050427081511104/27/05 08:15:31  5-MIN KMSN 271415Z 29010KT 10SM FEW016 BKN023 OVC027  06/01 A2970 1070 73 200 290/10 RMK AO2
14837KMSN MSN20050427082011104/27/05 08:20:31  5-MIN KMSN 271420Z 30009KT 10SM FEW017 SCT023 OVC028  06/01 A2970 1070 70 200 290/09 RMK AO2
14837KMSN MSN20050427082509604/27/05 08:25:31  5-MIN KMSN 271425Z 30010KT 10SM OVC026 06/01 A2970 1070 73 200 300/10 RMK AO2
14837KMSN MSN20050427083009604/27/05 08:30:31  5-MIN KMSN 271430Z 29008KT 10SM OVC026 06/01 A2971 1060 70 200 280/08 RMK AO2
14837KMSN MSN20050427083511004/27/05 08:35:31  5-MIN KMSN 271435Z 30010G15KT 10SM SCT022 OVC028 06/01  A2971 1060 73 200 300/10G15 RMK AO2
14837KMSN MSN20050427084011004/27/05 08:40:31  5-MIN KMSN 271440Z 30009G15KT 10SM FEW022 OVC028 06/01  A2971 1060 70 200 300/09G15 RMK AO2
14837KMSN MSN20050427084512004/27/05 08:45:31  5-MIN KMSN 271445Z 29009KT 270V330 10SM FEW022 OVC028  06/01 A2971 1060 73 200 290/09 270V330 RMK AO2
14837KMSN MSN20050427085012504/27/05 08:50:31  5-MIN KMSN 271450Z 30008KT 10SM OVC028 06/01 A2971 1060 70 200 300/08 RMK AO2 SLP067 60000 T00560006 53017
14837KMSN MSN20050427085510404/27/05 08:55:31  5-MIN KMSN 271455Z 32010KT 10SM SCT023 OVC028 06/01  A2972 1050 73 200 310/10 RMK AO2
14837KMSN MSN20050427090010404/27/05 09:00:31  5-MIN KMSN 271500Z 31008KT 10SM SCT023 OVC028 06/01  A2972 1050 70 300 310/08 RMK AO2
14837KMSN MSN20050427090510404/27/05 09:05:31  5-MIN KMSN 271505Z 32007KT 10SM BKN025 OVC030 06/01  A2972 1050 70 200 320/07 RMK AO2
14837KMSN MSN20050427091010404/27/05 09:10:31  5-MIN KMSN 271510Z 29010KT 10SM BKN025 OVC033 06/01  A2972 1050 70 300 290/10 RMK AO2
14837KMSN MSN20050427091511104/27/05 09:15:31  5-MIN KMSN 271515Z 29007KT 10SM FEW023 BKN030 OVC036  06/01 A2972 1050 67 300 290/07 RMK AO2
14837KMSN MSN20050427092011104/27/05 09:20:31  5-MIN KMSN 271520Z 30007KT 10SM SCT023 BKN030 BKN036  06/01 A2972 1050 67 300 300/07 RMK AO2
14837KMSN MSN20050427092511104/27/05 09:25:31  5-MIN KMSN 271525Z 29006KT 10SM SCT023 BKN027 OVC034  07/01 A2972 1050 67 300 290/06 RMK AO2
14837KMSN MSN20050427093011104/27/05 09:30:31  5-MIN KMSN 271530Z 30008KT 10SM SCT023 BKN027 OVC060  07/02 A2972 1050 68 400 300/08 RMK AO2
14837KMSN MSN20050427093511104/27/05 09:35:31  5-MIN KMSN 271535Z 27008KT 10SM SCT023 BKN028 OVC055  07/01 A2972 1050 67 300 270/08 RMK AO2
14837KMSN MSN20050427094011104/27/05 09:40:31  5-MIN KMSN 271540Z 28006KT 10SM BKN023 BKN028 OVC055  07/01 A2972 1050 67 300 280/06 RMK AO2
14837KMSN MSN20050427094510404/27/05 09:45:31  5-MIN KMSN 271545Z VRB06KT 10SM BKN023 OVC040 07/01  A2972 1050 67 300 VRB/06 RMK AO2
14837KMSN MSN20050427095011104/27/05 09:50:31  5-MIN KMSN 271550Z VRB06KT 10SM SCT023 BKN040 OVC055  07/01 A2972 1050 65 400 VRB/06 RMK AO2
14837KMSN MSN20050427095511104/27/05 09:55:31  5-MIN KMSN 271555Z VRB05KT 10SM BKN023 BKN040 OVC055  07/01 A2972 1050 65 400 VRB/05 RMK AO2
14837KMSN MSN20050427100011104/27/05 10:00:31  5-MIN KMSN 271600Z 30010KT 10SM SCT023 BKN040 OVC055  07/02 A2973 1040 68 400 300/10 RMK AO2
14837KMSN MSN20050427100510404/27/05 10:05:31  5-MIN KMSN 271605Z 30008KT 10SM FEW025 OVC040 07/01  A2973 1040 62 400 300/08 RMK AO2
14837KMSN MSN20050427101012004/27/05 10:10:31  5-MIN KMSN 271610Z 30007KT 270V330 10SM FEW025 OVC040  07/01 A2973 1040 62 400 300/07 270V330 RMK AO2
14837KMSN MSN20050427101511104/27/05 10:15:31  5-MIN KMSN 271615Z 29009KT 10SM FEW027 BKN038 OVC045  07/01 A2973 1040 62 400 290/09 RMK AO2
14837KMSN MSN20050427102011104/27/05 10:20:31  5-MIN KMSN 271620Z 27006KT 10SM FEW027 BKN038 OVC045  07/01 A2973 1040 62 400 270/06 RMK AO2
14837KMSN MSN20050427102511104/27/05 10:25:31  5-MIN KMSN 271625Z 27007KT 10SM FEW027 BKN042 OVC055  07/01 A2973 1040 62 400 270/07 RMK AO2
14837KMSN MSN20050427103011104/27/05 10:30:31  5-MIN KMSN 271630Z 30007KT 10SM FEW027 BKN042 OVC055  07/01 A2973 1040 62 400 300/07 RMK AO2
14837KMSN MSN20050427103511104/27/05 10:35:31  5-MIN KMSN 271635Z 29006KT 10SM FEW027 BKN045 OVC050  07/00 A2973 1040 60 400 280/06 RMK AO2
14837KMSN MSN20050427104011104/27/05 10:40:31  5-MIN KMSN 271640Z 29006KT 10SM FEW027 BKN045 OVC050  07/00 A2973 1040 60 400 290/06 RMK AO2
14837KMSN MSN20050427104511104/27/05 10:45:31  5-MIN KMSN 271645Z 29007KT 10SM SCT031 BKN043 OVC050  07/01 A2973 1040 62 400 290/07 RMK AO2
14837KMSN MSN20050427105012904/27/05 10:50:31  5-MIN KMSN 271650Z 29007KT 10SM SCT031 BKN041 OVC050  07/M01 A2973 1040 60 300 290/07 RMK AO2 SLP074 T00671006
14837KMSN MSN20050427105511104/27/05 10:55:31  5-MIN KMSN 271655Z 28006KT 10SM SCT031 BKN041 OVC050  07/00 A2974 1040 62 300 280/06 RMK AO2
14837KMSN MSN20050427110010404/27/05 11:00:31  5-MIN KMSN 271700Z 29004KT 10SM BKN033 OVC041 07/00  A2974 1030 62 300 290/04 RMK AO2
14837KMSN MSN20050427110510404/27/05 11:05:31  5-MIN KMSN 271705Z 28007KT 10SM SCT030 OVC038 07/00  A2974 1030 62 300 280/07 RMK AO2
14837KMSN MSN20050427111011104/27/05 11:10:31  5-MIN KMSN 271710Z 26006KT 10SM FEW030 BKN038 OVC050  07/00 A2974 1030 62 300 260/06 RMK AO2
14837KMSN MSN20050427111511104/27/05 11:15:31  5-MIN KMSN 271715Z 30007KT 10SM FEW030 BKN038 OVC055  07/00 A2974 1030 62 300 300/07 RMK AO2
14837KMSN MSN20050427112011104/27/05 11:20:31  5-MIN KMSN 271720Z 28008KT 10SM FEW030 SCT036 OVC055  07/00 A2974 1030 60 400 280/08 RMK AO2
14837KMSN MSN20050427112511104/27/05 11:25:31  5-MIN KMSN 271725Z 29007KT 10SM FEW035 BKN047 OVC055  07/00 A2974 1030 62 300 290/07 RMK AO2
14837KMSN MSN20050427113012704/27/05 11:30:31  5-MIN KMSN 271730Z 28007KT 240V310 10SM FEW035 BKN047  OVC055 07/00 A2974 1030 62 300 280/07 240V310 RMK AO2
14837KMSN MSN20050427113510404/27/05 11:35:31  5-MIN KMSN 271735Z 27004KT 10SM FEW045 OVC050 07/00  A2974 1030 62 300 270/04 RMK AO2
14837KMSN MSN20050427114010404/27/05 11:40:31  5-MIN KMSN 271740Z VRB04KT 10SM BKN050 OVC060 07/00  A2974 1030 62 300 VRB/04 RMK AO2
14837KMSN MSN20050427114510404/27/05 11:45:31  5-MIN KMSN 271745Z 31006KT 10SM BKN050 OVC060 07/01  A2974 1030 65 300 300/06 RMK AO2
14837KMSN MSN20050427115013704/27/05 11:50:31  5-MIN KMSN 271750Z 30006KT 10SM OVC050 07/01 A2974 1030 65 300 300/06 RMK AO2 SLP076 60000 T00670006 10078 20028 53015
14837KMSN MSN20050427115509604/27/05 11:55:31  5-MIN KMSN 271755Z 29004KT 10SM OVC050 07/01 A2974 1030 65 300 290/04 RMK AO2
14837KMSN MSN20050427120010404/27/05 12:00:31  5-MIN KMSN 271800Z 28005KT 10SM BKN050 OVC055 07/01  A2974 1030 65 300 280/05 RMK AO2
14837KMSN MSN20050427120510404/27/05 12:05:31  5-MIN KMSN 271805Z 27005KT 10SM BKN045 OVC055 07/01  A2974 1030 65 300 260/05 RMK AO2
14837KMSN MSN20050427121010404/27/05 12:10:31  5-MIN KMSN 271810Z 27005KT 10SM BKN043 OVC050 07/01  A2974 1030 65 300 260/05 RMK AO2
14837KMSN MSN20050427121510404/27/05 12:15:31  5-MIN KMSN 271815Z VRB04KT 10SM BKN041 OVC050 07/01  A2974 1030 62 400 VRB/04 RMK AO2
14837KMSN MSN20050427122010404/27/05 12:20:31  5-MIN KMSN 271820Z 00000KT 10SM BKN040 OVC048 07/01  A2974 1030 65 400 000/00 RMK AO2
14837KMSN MSN20050427122510404/27/05 12:25:31  5-MIN KMSN 271825Z 29004KT 10SM BKN041 OVC048 07/01  A2974 1030 62 400 290/04 RMK AO2
14837KMSN MSN20050427123011304/27/05 12:30:31  5-MIN KMSN 271830Z 31005KT 10SM -RA OVC041 07/01 A2974  1030 65 400 310/05 RMK AO2 RAB30 P0000
14837KMSN MSN20050427123511304/27/05 12:35:31  5-MIN KMSN 271835Z 31006KT 10SM -RA OVC039 07/01 A2975  1020 65 400 310/06 RMK AO2 RAB30 P0000
14837KMSN MSN20050427124011904/27/05 12:40:31  5-MIN KMSN 271840Z 32005KT 10SM -RA BKN039 OVC048 07/01 A2975 1030 65 400 320/05 RMK AO2 RAB30 P0000
14837KMSN MSN20050427124512604/27/05 12:45:31  5-MIN KMSN 271845Z VRB04KT 10SM BKN039 BKN049 OVC060  07/02 A2975 1030 68 400 VRB/04 RMK AO2 RAB30E43 P0000
14837KMSN MSN20050427125013604/27/05 12:50:31  5-MIN KMSN 271850Z 32004KT 10SM SCT038 OVC055 07/02  A2975 1030 68 400 320/04 RMK AO2 RAB30E43 SLP078 P0000 T00720017
14837KMSN MSN20050427125511104/27/05 12:55:31  5-MIN KMSN 271855Z 32006KT 10SM SCT038 BKN055 OVC070  08/02 A2975 1020 65 400 320/06 RMK AO2
14837KMSN MSN20050427130011104/27/05 13:00:31  5-MIN KMSN 271900Z 33006KT 10SM FEW038 BKN055 OVC070  08/02 A2975 1020 65 400 330/06 RMK AO2
14837KMSN MSN20050427130512704/27/05 13:05:31  5-MIN KMSN 271905Z 28007KT 250V320 10SM FEW038 BKN055  OVC070 08/01 A2976 1020 62 400 280/07 250V320 RMK AO2
14837KMSN MSN20050427131010404/27/05 13:10:31  5-MIN KMSN 271910Z 28005KT 10SM BKN050 OVC065 07/01  A2976 1010 65 400 280/05 RMK AO2
14837KMSN MSN20050427131510404/27/05 13:15:31  5-MIN KMSN 271915Z 28006KT 10SM BKN055 OVC070 08/01  A2976 1010 62 400 280/06 RMK AO2
14837KMSN MSN20050427132010404/27/05 13:20:31  5-MIN KMSN 271920Z VRB05KT 10SM FEW047 OVC065 08/01  A2976 1010 62 400 VRB/05 RMK AO2
14837KMSN MSN20050427132510404/27/05 13:25:31  5-MIN KMSN 271925Z 28005KT 10SM FEW047 OVC065 09/02  A2976 1010 60 600 280/05 RMK AO2
14837KMSN MSN20050427133012004/27/05 13:30:31  5-MIN KMSN 271930Z 28007KT 220V330 10SM SCT050 OVC070  10/02 A2976 1010 58 700 280/07 220V330 RMK AO2
14837KMSN MSN20050427133511104/27/05 13:35:31  5-MIN KMSN 271935Z 29010KT 10SM FEW039 SCT050 BKN070  09/01 A2975 1020 53 600 290/10 RMK AO2
14837KMSN MSN20050427134011604/27/05 13:40:31  5-MIN KMSN 271940Z 29011G15KT 10SM FEW037 SCT046 BKN065 09/00 A2975 1020 53 600 290/11G15 RMK AO2
14837KMSN MSN20050427134511704/27/05 13:45:31  5-MIN KMSN 271945Z 27007G15KT 10SM SCT039 SCT046 BKN065 09/M01 A2975 1020 51 600 270/07G15 RMK AO2
14837KMSN MSN20050427135013304/27/05 13:50:31  5-MIN KMSN 271950Z VRB06G15KT 10SM BKN042 BKN060 BKN075 09/01 A2974 1030 53 600 VRB/06G15 RMK AO2 SLP077 T00940006
14837KMSN MSN20050427135510404/27/05 13:55:31  5-MIN KMSN 271955Z 28007KT 10SM BKN040 BKN075 09/01  A2974 1030 53 700 280/07 RMK AO2
14837KMSN MSN20050427140009704/27/05 14:00:31  5-MIN KMSN 272000Z VRB04KT 10SM BKN040 09/M01 A2973 1040 51 600 VRB/04 RMK AO2
14837KMSN MSN20050427140510504/27/05 14:05:31  5-MIN KMSN 272005Z 29006KT 10SM BKN042 OVC060 09/M01  A2974 1030 49 600 290/06 RMK AO2
14837KMSN MSN20050427141010404/27/05 14:10:31  5-MIN KMSN 272010Z 29008KT 10SM BKN042 OVC060 10/00  A2975 1020 49 700 290/08 RMK AO2
14837KMSN MSN20050427141510504/27/05 14:15:31  5-MIN KMSN 272015Z 30010KT 10SM BKN045 OVC060 10/M01  A2975 1020 47 700 300/10 RMK AO2
14837KMSN MSN20050427142010504/27/05 14:20:31  5-MIN KMSN 272020Z VRB06KT 10SM BKN045 OVC055 09/M01  A2975 1020 47 600 VRB/06 RMK AO2
14837KMSN MSN20050427142510504/27/05 14:25:31  5-MIN KMSN 272025Z 29010KT 10SM BKN047 OVC055 09/M02  A2975 1030 45 600 290/10 RMK AO2
14837KMSN MSN20050427143010504/27/05 14:30:31  5-MIN KMSN 272030Z 27006KT 10SM SCT047 OVC055 09/M02  A2974 1030 44 600 270/06 RMK AO2
14837KMSN MSN20050427143509704/27/05 14:35:31  5-MIN KMSN 272035Z 27007KT 10SM OVC050 10/M02 A2974 1030 44 700 270/07 RMK AO2
14837KMSN MSN20050427144012604/27/05 14:40:31  5-MIN KMSN 272040Z 27009G16KT 240V300 10SM BKN055 OVC065 10/M03 A2974 1030 40 700 270/09G16 240V300 RMK AO2
14837KMSN MSN20050427144511004/27/05 14:45:31  5-MIN KMSN 272045Z 26011G17KT 10SM BKN055 OVC070 10/M02 A2974 1030 42 700 260/11G17 RMK AO2
14837KMSN MSN20050427145013904/27/05 14:50:31  5-MIN KMSN 272050Z 28015G21KT 10SM BKN055 BKN070 11/M02 A2975 1020 40 800 280/15G21 RMK AO2 SLP078 60000 T01061022 51009
14837KMSN MSN20050427145511004/27/05 14:55:31  5-MIN KMSN 272055Z 26010G21KT 10SM BKN060 BKN070 11/M03 A2975 1030 37 800 260/10G21 RMK AO2
14837KMSN MSN20050427150012604/27/05 15:00:31  5-MIN KMSN 272100Z 28008G17KT 240V320 10SM SCT060 BKN070 11/M03 A2975 1020 37 800 280/08G17 240V320 RMK AO2
14837KMSN MSN20050427150511904/27/05 15:05:31  5-MIN KMSN 272105Z 27012G18KT 230V300 10SM SCT065 11/M03 A2975 1020 39 800 270/12G18 230V300 RMK AO2
14837KMSN MSN20050427151010404/27/05 15:10:31  5-MIN KMSN 272110Z 27012G19KT 10SM BKN070 10/M03 A2975  1020 39 700 270/12G19 RMK AO2
14837KMSN MSN20050427151510404/27/05 15:15:31  5-MIN KMSN 272115Z 29014G20KT 10SM BKN070 10/M03 A2975  1020 39 700 290/14G20 RMK AO2
14837KMSN MSN20050427152011904/27/05 15:20:31  5-MIN KMSN 272120Z 28013G20KT 220V300 10SM BKN070 09/M03 A2975 1020 40 600 280/13G20 220V300 RMK AO2
14837KMSN MSN20050427152510404/27/05 15:25:31  5-MIN KMSN 272125Z 28010G19KT 10SM BKN070 10/M03 A2976  1020 40 700 280/10G19 RMK AO2
14837KMSN MSN20050427153010404/27/05 15:30:31  5-MIN KMSN 272130Z 28012G19KT 10SM BKN070 10/M03 A2976  1010 40 700 280/12G19 RMK AO2
14837KMSN MSN20050427153510404/27/05 15:35:31  5-MIN KMSN 272135Z 28011G19KT 10SM BKN070 09/M03 A2977  1010 40 600 280/11G19 RMK AO2
14837KMSN MSN20050427154010404/27/05 15:40:31  5-MIN KMSN 272140Z 29013G18KT 10SM BKN070 10/M03 A2977  1010 39 700 290/13G18 RMK AO2
14837KMSN MSN20050427154510404/27/05 15:45:31  5-MIN KMSN 272145Z 28009G18KT 10SM BKN070 09/M03 A2977  1010 40 600 280/09G18 RMK AO2
14837KMSN MSN20050427155012104/27/05 15:50:31  5-MIN KMSN 272150Z 29017G22KT 10SM BKN070 09/M03 A2977  1000 40 600 290/17G22 RMK AO2 SLP086 T00941033
14837KMSN MSN20050427155510404/27/05 15:55:31  5-MIN KMSN 272155Z 28015G22KT 10SM BKN065 09/M04 A2978  1000 39 600 280/15G22 RMK AO2
14837KMSN MSN20050427160011804/27/05 16:00:31  5-MIN KMSN 272200Z 29012G20KT 250V310 10SM OVC065 09/M04 A2978 990 39 600 290/12G20 250V310 RMK AO2
14837KMSN MSN20050427160510304/27/05 16:05:31  5-MIN KMSN 272205Z 28016G23KT 10SM OVC070 09/M04 A2978  990 40 500 280/16G23 RMK AO2
14837KMSN MSN20050427161012104/27/05 16:10:31  5-MIN KMSN 272210Z 28015G26KT 10SM BKN065 09/M04 A2979  990 40 500 280/15G26 RMK AO2 PK WND 27026/2206
14837KMSN MSN20050427161513604/27/05 16:15:31  5-MIN KMSN 272215Z 29013G26KT 240V310 10SM BKN065 09/M04 A2979 990 40 500 290/13G26 240V310 RMK AO2 PK WND 27026/2206
14837KMSN MSN20050427162012104/27/05 16:20:31  5-MIN KMSN 272220Z 30012G20KT 10SM BKN065 09/M03 A2979  990 43 500 300/12G20 RMK AO2 PK WND 27026/2206
14837KMSN MSN20050427162512104/27/05 16:25:31  5-MIN KMSN 272225Z 29015G20KT 10SM BKN065 09/M03 A2979  980 43 500 290/15G20 RMK AO2 PK WND 27026/2206
14837KMSN MSN20050427163013604/27/05 16:30:31  5-MIN KMSN 272230Z 29010G20KT 240V320 10SM BKN065 09/M03 A2979 980 42 500 290/10G20 240V320 RMK AO2 PK WND 27026/2206
14837KMSN MSN20050427163512104/27/05 16:35:31  5-MIN KMSN 272235Z 29012G19KT 10SM BKN065 08/M03 A2980  980 43 500 290/12G19 RMK AO2 PK WND 27026/2206
14837KMSN MSN20050427164012104/27/05 16:40:31  5-MIN KMSN 272240Z 29010G19KT 10SM BKN065 08/M03 A2980  970 43 400 290/10G19 RMK AO2 PK WND 27026/2206
14837KMSN MSN20050427164512104/27/05 16:45:31  5-MIN KMSN 272245Z 29016G20KT 10SM BKN060 08/M03 A2980  970 43 400 290/16G20 RMK AO2 PK WND 27026/2206
14837KMSN MSN20050427165013804/27/05 16:50:31  5-MIN KMSN 272250Z 30011G20KT 10SM BKN060 08/M03 A2981  970 43 400 300/11G20 RMK AO2 PK WND 27026/2206 SLP099 T00831033
14837KMSN MSN20050427165510304/27/05 16:55:31  5-MIN KMSN 272255Z 30012G19KT 10SM BKN060 08/M03 A2981  970 45 400 300/12G19 RMK AO2
14837KMSN MSN20050427170010304/27/05 17:00:31  5-MIN KMSN 272300Z 29015G22KT 10SM BKN060 08/M03 A2982  960 45 400 290/15G22 RMK AO2
14837KMSN MSN20050427170510304/27/05 17:05:31  5-MIN KMSN 272305Z 30014G23KT 10SM BKN060 08/M04 A2982  950 43 400 300/14G23 RMK AO2
14837KMSN MSN20050427171010304/27/05 17:10:31  5-MIN KMSN 272310Z 30015G24KT 10SM BKN060 07/M04 A2983  950 45 300 300/15G24 RMK AO2
14837KMSN MSN20050427171510304/27/05 17:15:31  5-MIN KMSN 272315Z 30014G24KT 10SM BKN060 07/M03 A2983  950 47 300 300/14G24 RMK AO2
14837KMSN MSN20050427172010304/27/05 17:20:31  5-MIN KMSN 272320Z 30016G21KT 10SM BKN060 07/M03 A2983  940 47 300 300/16G21 RMK AO2
14837KMSN MSN20050427172510304/27/05 17:25:31  5-MIN KMSN 272325Z 30011G21KT 10SM BKN060 07/M04 A2984  940 45 300 300/11G21 RMK AO2
14837KMSN MSN20050427173009604/27/05 17:30:31  5-MIN KMSN 272330Z 30009KT 10SM BKN060 08/M03 A2984 940 45 300 290/09 RMK AO2
14837KMSN MSN20050427173509604/27/05 17:35:31  5-MIN KMSN 272335Z 29010KT 10SM BKN060 07/M04 A2983 940 45 300 290/10 RMK AO2
14837KMSN MSN20050427174010304/27/05 17:40:31  5-MIN KMSN 272340Z 29008G19KT 10SM BKN060 07/M04 A2984  940 45 200 290/08G19 RMK AO2
14837KMSN MSN20050427174510304/27/05 17:45:31  5-MIN KMSN 272345Z 29009G19KT 10SM SCT065 07/M04 A2984  940 47 200 290/09G19 RMK AO2
14837KMSN MSN20050427175014404/27/05 17:50:31  5-MIN KMSN 272350Z 29008G16KT 10SM SCT065 07/M04 A2984  940 43 300 290/08G16 RMK AO2 SLP111 60000 T00721044 10106 20067 51002
14837KMSN MSN20050427175510304/27/05 17:55:31  5-MIN KMSN 272355Z 30012G18KT 10SM FEW065 07/M04 A2984  930 43 300 300/12G18 RMK AO2
14837KMSN MSN20050427180011804/27/05 18:00:31  5-MIN KMSN 280000Z 29012G18KT 250V320 10SM FEW060 07/M05 A2985 930 43 200 290/12G18 250V320 RMK AO2
14837KMSN MSN20050427180510304/27/05 18:05:31  5-MIN KMSN 280005Z 30010G17KT 10SM FEW060 07/M04 A2985  930 45 200 300/10G17 RMK AO2
14837KMSN MSN20050427181010304/27/05 18:10:31  5-MIN KMSN 280010Z 30010G19KT 10SM FEW060 07/M05 A2985  930 43 200 290/10G19 RMK AO2
14837KMSN MSN20050427181510304/27/05 18:15:31  5-MIN KMSN 280015Z 30007G19KT 10SM FEW060 07/M05 A2985  930 43 200 300/07G19 RMK AO2
14837KMSN MSN20050427182009904/27/05 18:20:31  5-MIN KMSN 280020Z 30007G17KT 10SM CLR 06/M05 A2985 930 45 100 300/07G17 RMK AO2
14837KMSN MSN20050427182509904/27/05 18:25:31  5-MIN KMSN 280025Z 29008G14KT 10SM CLR 06/M05 A2985 930 45 100 290/08G14 RMK AO2
14837KMSN MSN20050427183009304/27/05 18:30:31  5-MIN KMSN 280030Z 29008KT 10SM CLR 06/M05 A2986 920 45 100 290/08 RMK AO2
14837KMSN MSN20050427183509404/27/05 18:35:31  5-MIN KMSN 280035Z 30006KT 10SM FEW065 06/M05 A2986 920 46 0 300/06 RMK AO2
14837KMSN MSN20050427184009404/27/05 18:40:31  5-MIN KMSN 280040Z 30005KT 10SM FEW065 06/M05 A2986 920 46 0 300/05 RMK AO2
14837KMSN MSN20050427184509404/27/05 18:45:31  5-MIN KMSN 280045Z 31006KT 10SM FEW065 06/M05 A2986 920 46 0 310/06 RMK AO2
14837KMSN MSN20050427185011104/27/05 18:50:31  5-MIN KMSN 280050Z 31005KT 10SM FEW065 06/M05 A2986 920 46 0 300/05 RMK AO2 SLP118 T00561050
14837KMSN MSN20050427185509104/27/05 18:55:31  5-MIN KMSN 280055Z 31003KT 10SM CLR 05/M05 A2986 920 48 0 300/03 RMK AO2
14837KMSN MSN20050427190009104/27/05 19:00:31  5-MIN KMSN 280100Z 00000KT 10SM CLR 05/M04 A2986 920 50 0 000/00 RMK AO2
14837KMSN MSN20050427190509104/27/05 19:05:31  5-MIN KMSN 280105Z 30003KT 10SM CLR 05/M04 A2986 920 50 0 300/03 RMK AO2
14837KMSN MSN20050427191009104/27/05 19:10:31  5-MIN KMSN 280110Z 00000KT 10SM CLR 05/M04 A2987 910 50 0 000/00 RMK AO2
14837KMSN MSN20050427191509404/27/05 19:15:31  5-MIN KMSN 280115Z 28004KT 10SM CLR 04/M04 A2987 910 52 -100 280/04 RMK AO2
14837KMSN MSN20050427192009404/27/05 19:20:31  5-MIN KMSN 280120Z 29003KT 10SM CLR 04/M05 A2987 920 50 -100 280/03 RMK AO2
14837KMSN MSN20050427192509404/27/05 19:25:31  5-MIN KMSN 280125Z 00000KT 10SM CLR 04/M04 A2987 910 52 -100 000/00 RMK AO2
14837KMSN MSN20050427193009404/27/05 19:30:31  5-MIN KMSN 280130Z 29003KT 10SM CLR 04/M04 A2987 910 52 -100 290/03 RMK AO2
14837KMSN MSN20050427193509404/27/05 19:35:31  5-MIN KMSN 280135Z 30003KT 10SM CLR 04/M04 A2987 910 54 -100 300/03 RMK AO2
14837KMSN MSN20050427194009404/27/05 19:40:31  5-MIN KMSN 280140Z 00000KT 10SM CLR 04/M05 A2987 910 50 -100 000/00 RMK AO2
14837KMSN MSN20050427194509404/27/05 19:45:31  5-MIN KMSN 280145Z 00000KT 10SM CLR 03/M04 A2987 910 59 -200 000/00 RMK AO2
14837KMSN MSN20050427195011104/27/05 19:50:31  5-MIN KMSN 280150Z 00000KT 10SM CLR 03/M04 A2987 910 59 -200 000/00 RMK AO2 SLP122 T00331039
14837KMSN MSN20050427195509404/27/05 19:55:31  5-MIN KMSN 280155Z 00000KT 10SM CLR 03/M04 A2987 910 59 -200 000/00 RMK AO2
14837KMSN MSN20050427200009404/27/05 20:00:31  5-MIN KMSN 280200Z 00000KT 10SM CLR 03/M03 A2987 910 67 -300 000/00 RMK AO2
14837KMSN MSN20050427200509404/27/05 20:05:31  5-MIN KMSN 280205Z 00000KT 10SM CLR 03/M04 A2988 910 61 -300 000/00 RMK AO2
14837KMSN MSN20050427201009404/27/05 20:10:31  5-MIN KMSN 280210Z 00000KT 10SM CLR 02/M03 A2988 900 67 -300 000/00 RMK AO2
14837KMSN MSN20050427201509404/27/05 20:15:31  5-MIN KMSN 280215Z 00000KT 10SM CLR 02/M04 A2988 900 64 -300 000/00 RMK AO2
14837KMSN MSN20050427202009704/27/05 20:20:31  5-MIN KMSN 280220Z 00000KT 10SM FEW070 03/M02 A2989 900 72 -300 000/00 RMK AO2
14837KMSN MSN20050427202509704/27/05 20:25:31  5-MIN KMSN 280225Z 00000KT 10SM SCT070 02/M02 A2989 890 75 -400 000/00 RMK AO2
14837KMSN MSN20050427203009704/27/05 20:30:31  5-MIN KMSN 280230Z 00000KT 10SM BKN070 02/M03 A2989 890 69 -400 000/00 RMK AO2
14837KMSN MSN20050427203509704/27/05 20:35:31  5-MIN KMSN 280235Z 00000KT 10SM BKN070 02/M03 A2989 890 69 -400 000/00 RMK AO2
14837KMSN MSN20050427204009704/27/05 20:40:31  5-MIN KMSN 280240Z 00000KT 10SM BKN070 02/M04 A2989 890 64 -400 000/00 RMK AO2
14837KMSN MSN20050427204509704/27/05 20:45:31  5-MIN KMSN 280245Z 00000KT 10SM OVC070 02/M03 A2989 890 69 -400 000/00 RMK AO2
14837KMSN MSN20050427205012004/27/05 20:50:31  5-MIN KMSN 280250Z 00000KT 10SM BKN070 03/M02 A2989 890 69 -300 000/00 RMK AO2 SLP129 T00281022 53032
14837KMSN MSN20050427205509704/27/05 20:55:31  5-MIN KMSN 280255Z 00000KT 10SM BKN070 03/M03 A2989 890 64 -200 000/00 RMK AO2
14837KMSN MSN20050427210009704/27/05 21:00:31  5-MIN KMSN 280300Z 00000KT 10SM BKN070 03/M02 A2990 890 72 -300 000/00 RMK AO2
14837KMSN MSN20050427210509704/27/05 21:05:31  5-MIN KMSN 280305Z 00000KT 10SM BKN070 03/M02 A2990 890 72 -300 000/00 RMK AO2
14837KMSN MSN20050427211009704/27/05 21:10:31  5-MIN KMSN 280310Z 00000KT 10SM BKN070 02/M03 A2990 890 69 -400 000/00 RMK AO2
14837KMSN MSN20050427211509704/27/05 21:15:31  5-MIN KMSN 280315Z 00000KT 10SM BKN070 02/M02 A2990 890 72 -400 000/00 RMK AO2
14837KMSN MSN20050427212009704/27/05 21:20:31  5-MIN KMSN 280320Z 00000KT 10SM BKN070 03/M02 A2990 890 69 -300 000/00 RMK AO2
14837KMSN MSN20050427212509704/27/05 21:25:31  5-MIN KMSN 280325Z 00000KT 10SM BKN070 03/M02 A2990 890 72 -300 000/00 RMK AO2
14837KMSN MSN20050427213009704/27/05 21:30:31  5-MIN KMSN 280330Z 00000KT 10SM BKN070 03/M02 A2990 890 72 -300 000/00 RMK AO2
14837KMSN MSN20050427213509704/27/05 21:35:31  5-MIN KMSN 280335Z 00000KT 10SM BKN070 03/M02 A2990 880 69 -300 000/00 RMK AO2
14837KMSN MSN20050427214009704/27/05 21:40:31  5-MIN KMSN 280340Z 00000KT 10SM FEW070 02/M03 A2990 880 69 -400 000/00 RMK AO2
14837KMSN MSN20050427214509704/27/05 21:45:31  5-MIN KMSN 280345Z 00000KT 10SM FEW070 02/M03 A2990 880 67 -400 000/00 RMK AO2
14837KMSN MSN20050427215011404/27/05 21:50:31  5-MIN KMSN 280350Z 00000KT 10SM FEW070 02/M02 A2990 880 72 -400 000/00 RMK AO2 SLP131 T00221022
14837KMSN MSN20050427215509704/27/05 21:55:31  5-MIN KMSN 280355Z 00000KT 10SM FEW070 02/M02 A2990 880 72 -400 000/00 RMK AO2
14837KMSN MSN20050427220009704/27/05 22:00:31  5-MIN KMSN 280400Z 00000KT 10SM FEW070 02/M03 A2990 880 69 -400 000/00 RMK AO2
14837KMSN MSN20050427220509704/27/05 22:05:31  5-MIN KMSN 280405Z 00000KT 10SM FEW070 02/M03 A2990 880 72 -400 000/00 RMK AO2
14837KMSN MSN20050427221009404/27/05 22:10:31  5-MIN KMSN 280410Z 00000KT 10SM CLR 01/M03 A2990 880 75 -500 000/00 RMK AO2
14837KMSN MSN20050427221509404/27/05 22:15:31  5-MIN KMSN 280415Z 00000KT 10SM CLR 01/M03 A2990 880 75 -500 000/00 RMK AO2
14837KMSN MSN20050427222009404/27/05 22:20:31  5-MIN KMSN 280420Z 00000KT 10SM CLR 01/M03 A2990 880 75 -500 000/00 RMK AO2
14837KMSN MSN20050427222509404/27/05 22:25:31  5-MIN KMSN 280425Z 00000KT 10SM CLR 01/M03 A2990 880 75 -500 000/00 RMK AO2
14837KMSN MSN20050427223009404/27/05 22:30:31  5-MIN KMSN 280430Z 00000KT 10SM CLR 01/M03 A2990 880 75 -500 000/00 RMK AO2
14837KMSN MSN20050427223509404/27/05 22:35:31  5-MIN KMSN 280435Z 00000KT 10SM CLR 01/M03 A2990 880 75 -500 000/00 RMK AO2
14837KMSN MSN20050427224009404/27/05 22:40:31  5-MIN KMSN 280440Z 00000KT 10SM CLR 01/M03 A2990 880 75 -500 000/00 RMK AO2
14837KMSN MSN20050427224509404/27/05 22:45:31  5-MIN KMSN 280445Z 00000KT 10SM CLR 01/M03 A2991 880 75 -500 000/00 RMK AO2
14837KMSN MSN20050427225011404/27/05 22:50:31  5-MIN KMSN 280450Z 00000KT 10SM FEW070 01/M03 A2991 880 75 -500 000/00 RMK AO2 SLP135 T00111028
14837KMSN MSN20050427225509404/27/05 22:55:31  5-MIN KMSN 280455Z 00000KT 10SM CLR 01/M03 A2991 880 78 -600 000/00 RMK AO2
14837KMSN MSN20050427230009404/27/05 23:00:31  5-MIN KMSN 280500Z 00000KT 10SM CLR 01/M03 A2991 880 78 -600 000/00 RMK AO2
14837KMSN MSN20050427230509404/27/05 23:05:31  5-MIN KMSN 280505Z 22003KT 10SM CLR 01/M03 A2991 880 75 -500 220/03 RMK AO2
14837KMSN MSN20050427231009404/27/05 23:10:31  5-MIN KMSN 280510Z 22003KT 10SM CLR 01/M03 A2990 880 75 -500 220/03 RMK AO2
14837KMSN MSN20050427231509404/27/05 23:15:31  5-MIN KMSN 280515Z 22003KT 10SM CLR 01/M02 A2991 880 82 -600 220/03 RMK AO2
14837KMSN MSN20050427232009404/27/05 23:20:31  5-MIN KMSN 280520Z 00000KT 10SM CLR 00/M02 A2991 870 85 -700 000/00 RMK AO2
14837KMSN MSN20050427232509404/27/05 23:25:31  5-MIN KMSN 280525Z 00000KT 10SM CLR 01/M02 A2991 870 82 -600 000/00 RMK AO2
14837KMSN MSN20050427233009404/27/05 23:30:31  5-MIN KMSN 280530Z 00000KT 10SM CLR 00/M03 A2991 870 81 -700 000/00 RMK AO2
14837KMSN MSN20050427233509404/27/05 23:35:31  5-MIN KMSN 280535Z 00000KT 10SM CLR 00/M03 A2991 870 81 -700 000/00 RMK AO2
14837KMSN MSN20050427234009504/27/05 23:40:31  5-MIN KMSN 280540Z 00000KT 10SM CLR M01/M03 A2991 870 85 -700 000/00 RMK AO2
14837KMSN MSN20050427234509404/27/05 23:45:31  5-MIN KMSN 280545Z 00000KT 10SM CLR 00/M03 A2991 870 81 -700 000/00 RMK AO2
14837KMSN MSN20050427235013904/27/05 23:50:31  5-MIN KMSN 280550Z 00000KT 10SM CLR 00/M03 A2991 870 81 -700 000/00 RMK AO2 SLP136 T00001028 10072 21006 401061006 53016
14837KMSN MSN20050427235509404/27/05 23:55:31  5-MIN KMSN 280555Z 00000KT 10SM CLR 00/M03 A2991 870 81 -700 000/00 RMK AO2
14837KMSN MSN20050428000009404/28/05 00:00:38  5-MIN KMSN 280600Z 00000KT 10SM CLR 00/M03 A2991 870 81 -700 000/00 RMK AO2
14837KMSN MSN20050428000509404/28/05 00:05:31  5-MIN KMSN 280605Z 00000KT 10SM CLR 00/M03 A2991 870 81 -700 000/00 RMK AO2
14837KMSN MSN20050428001009404/28/05 00:10:31  5-MIN KMSN 280610Z 00000KT 10SM CLR 00/M03 A2992 870 81 -700 000/00 RMK AO2
14837KMSN MSN20050428001509404/28/05 00:15:33  5-MIN KMSN 280615Z 00000KT 10SM CLR 00/M02 A2992 870 85 -700 000/00 RMK AO2
14837KMSN MSN20050428002009504/28/05 00:20:31  5-MIN KMSN 280620Z 00000KT 10SM CLR M01/M02 A2992 870 88 -700 000/00 RMK AO2
14837KMSN MSN20050428002509404/28/05 00:25:31  5-MIN KMSN 280625Z 00000KT 10SM CLR 00/M03 A2992 870 81 -700 000/00 RMK AO2
14837KMSN MSN20050428003009404/28/05 00:30:31  5-MIN KMSN 280630Z 00000KT 10SM CLR 00/M03 A2992 870 81 -700 000/00 RMK AO2
14837KMSN MSN20050428003509404/28/05 00:35:31  5-MIN KMSN 280635Z 00000KT 10SM CLR 00/M03 A2992 870 81 -700 000/00 RMK AO2
14837KMSN MSN20050428004009504/28/05 00:40:31  5-MIN KMSN 280640Z 00000KT 10SM CLR M01/M02 A2992 870 88 -700 000/00 RMK AO2
14837KMSN MSN20050428004509504/28/05 00:45:31  5-MIN KMSN 280645Z 00000KT 10SM CLR M01/M02 A2991 870 88 -700 000/00 RMK AO2
14837KMSN MSN20050428005011104/28/05 00:50:31  5-MIN KMSN 280650Z 00000KT 10SM CLR 00/M02 A2991 870 85 -700 000/00 RMK AO2 SLP137 T00001022
14837KMSN MSN20050428005509404/28/05 00:55:31  5-MIN KMSN 280655Z 00000KT 10SM CLR 00/M02 A2991 870 85 -700 000/00 RMK AO2
14837KMSN MSN20050428010009404/28/05 01:00:31  5-MIN KMSN 280700Z 22003KT 10SM CLR 00/M02 A2991 870 85 -700 220/03 RMK AO2
14837KMSN MSN20050428010509404/28/05 01:05:31  5-MIN KMSN 280705Z 00000KT 10SM CLR 01/M02 A2991 870 82 -600 000/00 RMK AO2
14837KMSN MSN20050428011009404/28/05 01:10:31  5-MIN KMSN 280710Z 00000KT 10SM CLR 02/M03 A2991 870 72 -400 000/00 RMK AO2
14837KMSN MSN20050428011509404/28/05 01:15:31  5-MIN KMSN 280715Z VRB03KT 10SM CLR 02/M03 A2991 870 69 -400 VRB/03 RMK AO2
14837KMSN MSN20050428012009404/28/05 01:20:31  5-MIN KMSN 280720Z VRB04KT 10SM CLR 03/M03 A2991 870 67 -300 VRB/04 RMK AO2
14837KMSN MSN20050428012509404/28/05 01:25:31  5-MIN KMSN 280725Z VRB03KT 10SM CLR 03/M03 A2992 870 64 -300 VRB/03 RMK AO2
14837KMSN MSN20050428013009404/28/05 01:30:31  5-MIN KMSN 280730Z VRB04KT 10SM CLR 03/M03 A2992 870 64 -300 VRB/04 RMK AO2
14837KMSN MSN20050428013509404/28/05 01:35:31  5-MIN KMSN 280735Z VRB03KT 10SM CLR 03/M03 A2992 870 64 -300 VRB/03 RMK AO2
14837KMSN MSN20050428014009404/28/05 01:40:31  5-MIN KMSN 280740Z 25003KT 10SM CLR 03/M03 A2992 870 64 -300 250/03 RMK AO2
14837KMSN MSN20050428014509404/28/05 01:45:31  5-MIN KMSN 280745Z VRB03KT 10SM CLR 03/M03 A2991 870 64 -200 VRB/03 RMK AO2
14837KMSN MSN20050428015011104/28/05 01:50:31  5-MIN KMSN 280750Z VRB03KT 10SM CLR 03/M03 A2991 870 67 -300 VRB/03 RMK AO2 SLP135 T00281028
14837KMSN MSN20050428015509404/28/05 01:55:31  5-MIN KMSN 280755Z VRB03KT 10SM CLR 03/M03 A2991 870 67 -300 VRB/03 RMK AO2
14837KMSN MSN20050428020009404/28/05 02:00:31  5-MIN KMSN 280800Z VRB03KT 10SM CLR 03/M03 A2991 870 67 -300 VRB/03 RMK AO2
14837KMSN MSN20050428020509404/28/05 02:05:31  5-MIN KMSN 280805Z VRB04KT 10SM CLR 03/M03 A2992 870 64 -300 VRB/04 RMK AO2
14837KMSN MSN20050428021009404/28/05 02:10:31  5-MIN KMSN 280810Z VRB04KT 10SM CLR 03/M03 A2992 870 64 -300 VRB/04 RMK AO2
14837KMSN MSN20050428021509404/28/05 02:15:31  5-MIN KMSN 280815Z 25004KT 10SM CLR 03/M03 A2992 860 64 -300 250/04 RMK AO2
14837KMSN MSN20050428022009404/28/05 02:20:31  5-MIN KMSN 280820Z VRB04KT 10SM CLR 03/M03 A2992 860 64 -300 VRB/04 RMK AO2
14837KMSN MSN20050428022509404/28/05 02:25:31  5-MIN KMSN 280825Z VRB04KT 10SM CLR 03/M03 A2992 860 64 -300 VRB/04 RMK AO2
14837KMSN MSN20050428023009404/28/05 02:30:31  5-MIN KMSN 280830Z VRB03KT 10SM CLR 03/M03 A2992 860 64 -300 VRB/03 RMK AO2
14837KMSN MSN20050428023509404/28/05 02:35:31  5-MIN KMSN 280835Z 00000KT 10SM CLR 02/M03 A2993 860 67 -400 000/00 RMK AO2
14837KMSN MSN20050428024009404/28/05 02:40:31  5-MIN KMSN 280840Z 26004KT 10SM CLR 02/M03 A2993 860 67 -400 260/04 RMK AO2
14837KMSN MSN20050428024509404/28/05 02:45:31  5-MIN KMSN 280845Z VRB04KT 10SM CLR 02/M03 A2993 860 67 -400 VRB/04 RMK AO2
14837KMSN MSN20050428025011704/28/05 02:50:31  5-MIN KMSN 280850Z VRB03KT 10SM CLR 02/M03 A2993 860 67 -400 VRB/03 RMK AO2 SLP140 T00221033 51006
14837KMSN MSN20050428025509404/28/05 02:55:31  5-MIN KMSN 280855Z VRB04KT 10SM CLR 02/M03 A2993 860 67 -400 VRB/04 RMK AO2
14837KMSN MSN20050428030009404/28/05 03:00:31  5-MIN KMSN 280900Z 28004KT 10SM CLR 02/M03 A2993 850 67 -400 280/04 RMK AO2
14837KMSN MSN20050428030509404/28/05 03:05:31  5-MIN KMSN 280905Z 27004KT 10SM CLR 02/M03 A2993 850 69 -500 270/04 RMK AO2
14837KMSN MSN20050428031009404/28/05 03:10:31  5-MIN KMSN 280910Z 27003KT 10SM CLR 02/M03 A2994 850 69 -500 270/03 RMK AO2
14837KMSN MSN20050428031509404/28/05 03:15:31  5-MIN KMSN 280915Z VRB03KT 10SM CLR 02/M03 A2994 850 69 -500 VRB/03 RMK AO2
14837KMSN MSN20050428032009404/28/05 03:20:31  5-MIN KMSN 280920Z 27005KT 10SM CLR 02/M03 A2994 850 69 -500 270/05 RMK AO2
14837KMSN MSN20050428032509404/28/05 03:25:31  5-MIN KMSN 280925Z 28005KT 10SM CLR 02/M03 A2994 850 69 -500 280/05 RMK AO2
14837KMSN MSN20050428033009404/28/05 03:30:31  5-MIN KMSN 280930Z 28004KT 10SM CLR 01/M03 A2994 850 72 -500 270/04 RMK AO2
14837KMSN MSN20050428033509404/28/05 03:35:31  5-MIN KMSN 280935Z 27004KT 10SM CLR 01/M03 A2994 850 72 -600 270/04 RMK AO2
14837KMSN MSN20050428034009404/28/05 03:40:31  5-MIN KMSN 280940Z 27004KT 10SM CLR 01/M03 A2994 850 72 -600 270/04 RMK AO2
14837KMSN MSN20050428034509404/28/05 03:45:31  5-MIN KMSN 280945Z 26004KT 10SM CLR 01/M03 A2994 840 72 -600 260/04 RMK AO2
14837KMSN MSN20050428035011104/28/05 03:50:31  5-MIN KMSN 280950Z VRB04KT 10SM CLR 01/M03 A2994 840 72 -600 VRB/04 RMK AO2 SLP145 T00111033
14837KMSN MSN20050428035509404/28/05 03:55:31  5-MIN KMSN 280955Z 28004KT 10SM CLR 01/M03 A2994 840 72 -600 280/04 RMK AO2
14837KMSN MSN20050428040009404/28/05 04:00:31  5-MIN KMSN 281000Z 28003KT 10SM CLR 01/M03 A2994 850 75 -600 280/03 RMK AO2
14837KMSN MSN20050428040509404/28/05 04:05:31  5-MIN KMSN 281005Z 28003KT 10SM CLR 01/M03 A2994 850 75 -600 280/03 RMK AO2
14837KMSN MSN20050428041009404/28/05 04:10:31  5-MIN KMSN 281010Z 29004KT 10SM CLR 01/M03 A2994 850 75 -600 280/04 RMK AO2
14837KMSN MSN20050428041509404/28/05 04:15:31  5-MIN KMSN 281015Z 29003KT 10SM CLR 01/M04 A2994 850 72 -600 290/03 RMK AO2
14837KMSN MSN20050428042009404/28/05 04:20:31  5-MIN KMSN 281020Z 30004KT 10SM CLR 01/M03 A2994 850 75 -600 300/04 RMK AO2
14837KMSN MSN20050428042509404/28/05 04:25:31  5-MIN KMSN 281025Z 30004KT 10SM CLR 00/M03 A2993 850 78 -700 300/04 RMK AO2
14837KMSN MSN20050428043009404/28/05 04:30:31  5-MIN KMSN 281030Z 28005KT 10SM CLR 00/M04 A2993 850 75 -700 280/05 RMK AO2
14837KMSN MSN20050428043509404/28/05 04:35:31  5-MIN KMSN 281035Z VRB04KT 10SM CLR 00/M03 A2993 850 78 -700 VRB/04 RMK AO2
14837KMSN MSN20050428044009404/28/05 04:40:31  5-MIN KMSN 281040Z 27004KT 10SM CLR 00/M03 A2993 850 78 -700 270/04 RMK AO2
14837KMSN MSN20050428044509404/28/05 04:45:31  5-MIN KMSN 281045Z 29004KT 10SM CLR 00/M03 A2994 850 78 -700 290/04 RMK AO2
14837KMSN MSN20050428045011104/28/05 04:50:31  5-MIN KMSN 281050Z VRB03KT 10SM CLR 00/M03 A2994 850 78 -700 VRB/03 RMK AO2 SLP144 T00001033
14837KMSN MSN20050428045509404/28/05 04:55:31  5-MIN KMSN 281055Z 00000KT 10SM CLR 00/M03 A2994 850 78 -700 000/00 RMK AO2
14837KMSN MSN20050428050009404/28/05 05:00:31  5-MIN KMSN 281100Z 29003KT 10SM CLR 00/M03 A2994 850 78 -700 290/03 RMK AO2
14837KMSN MSN20050428050509404/28/05 05:05:31  5-MIN KMSN 281105Z 29004KT 10SM CLR 00/M03 A2994 850 78 -700 290/04 RMK AO2
14837KMSN MSN20050428051009404/28/05 05:10:31  5-MIN KMSN 281110Z 28004KT 10SM CLR 00/M03 A2994 850 78 -700 280/04 RMK AO2
14837KMSN MSN20050428051509404/28/05 05:15:31  5-MIN KMSN 281115Z 28005KT 10SM CLR 00/M03 A2994 840 81 -700 280/05 RMK AO2
14837KMSN MSN20050428052009404/28/05 05:20:31  5-MIN KMSN 281120Z 28004KT 10SM CLR 01/M03 A2994 840 75 -600 280/04 RMK AO2
14837KMSN MSN20050428052509404/28/05 05:25:31  5-MIN KMSN 281125Z 29004KT 10SM CLR 01/M03 A2994 840 75 -600 290/04 RMK AO2
14837KMSN MSN20050428053009404/28/05 05:30:31  5-MIN KMSN 281130Z 29004KT 10SM CLR 01/M03 A2995 840 75 -600 290/04 RMK AO2
14837KMSN MSN20050428053509404/28/05 05:35:31  5-MIN KMSN 281135Z 29004KT 10SM CLR 01/M03 A2995 840 75 -600 290/04 RMK AO2
14837KMSN MSN20050428054009404/28/05 05:40:31  5-MIN KMSN 281140Z 28004KT 10SM CLR 01/M03 A2995 840 78 -600 280/04 RMK AO2
14837KMSN MSN20050428054509404/28/05 05:45:31  5-MIN KMSN 281145Z 30005KT 10SM CLR 01/M03 A2995 830 78 -600 300/05 RMK AO2
14837KMSN MSN20050428055012904/28/05 05:50:31  5-MIN KMSN 281150Z 28004KT 10SM CLR 01/M03 A2996 830 75 -600 280/04 RMK AO2 SLP150 T00111028 10033 21006 53006
14837KMSN MSN20050428055509404/28/05 05:55:31  5-MIN KMSN 281155Z 29006KT 10SM CLR 01/M03 A2996 830 75 -600 290/06 RMK AO2
14837KMSN MSN20050428060009404/28/05 06:00:31  5-MIN KMSN 281200Z 29006KT 10SM CLR 01/M03 A2996 830 75 -600 290/06 RMK AO2
14837KMSN MSN20050428060509404/28/05 06:05:31  5-MIN KMSN 281205Z 29006KT 10SM CLR 01/M03 A2996 830 75 -600 290/06 RMK AO2
14837KMSN MSN20050428061009404/28/05 06:10:31  5-MIN KMSN 281210Z 29005KT 10SM CLR 01/M03 A2996 830 75 -600 290/05 RMK AO2
14837KMSN MSN20050428061509404/28/05 06:15:31  5-MIN KMSN 281215Z 29005KT 10SM CLR 02/M02 A2996 830 75 -500 290/05 RMK AO2
14837KMSN MSN20050428062009404/28/05 06:20:31  5-MIN KMSN 281220Z 28006KT 10SM CLR 02/M03 A2996 830 72 -500 280/06 RMK AO2
14837KMSN MSN20050428062509404/28/05 06:25:31  5-MIN KMSN 281225Z 30005KT 10SM CLR 02/M03 A2996 830 69 -400 300/05 RMK AO2
14837KMSN MSN20050428063009404/28/05 06:30:31  5-MIN KMSN 281230Z 30005KT 10SM CLR 02/M02 A2996 830 72 -400 300/05 RMK AO2
14837KMSN MSN20050428063509404/28/05 06:35:31  5-MIN KMSN 281235Z 30005KT 10SM CLR 02/M02 A2996 830 72 -400 300/05 RMK AO2
14837KMSN MSN20050428064009404/28/05 06:40:31  5-MIN KMSN 281240Z 31005KT 10SM CLR 02/M02 A2996 820 72 -400 310/05 RMK AO2
14837KMSN MSN20050428064509404/28/05 06:45:31  5-MIN KMSN 281245Z 31006KT 10SM CLR 02/M02 A2996 820 72 -400 310/06 RMK AO2
14837KMSN MSN20050428065011104/28/05 06:50:31  5-MIN KMSN 281250Z 30006KT 10SM CLR 02/M02 A2997 820 72 -400 300/06 RMK AO2 SLP155 T00221022
14837KMSN MSN20050428065509404/28/05 06:55:31  5-MIN KMSN 281255Z VRB04KT 10SM CLR 03/M02 A2997 820 72 -400 VRB/04 RMK AO2
14837KMSN MSN20050428070009404/28/05 07:00:31  5-MIN KMSN 281300Z 29006KT 10SM CLR 03/M02 A2997 820 70 -300 290/06 RMK AO2
14837KMSN MSN20050428070509404/28/05 07:05:31  5-MIN KMSN 281305Z 30007KT 10SM CLR 03/M02 A2997 820 70 -300 300/07 RMK AO2
14837KMSN MSN20050428071009404/28/05 07:10:31  5-MIN KMSN 281310Z 31005KT 10SM CLR 03/M02 A2997 820 67 -300 310/05 RMK AO2
14837KMSN MSN20050428071509404/28/05 07:15:31  5-MIN KMSN 281315Z 30006KT 10SM CLR 03/M02 A2997 820 67 -300 300/06 RMK AO2
14837KMSN MSN20050428072009404/28/05 07:20:31  5-MIN KMSN 281320Z 31007KT 10SM CLR 04/M02 A2997 820 67 -200 300/07 RMK AO2
14837KMSN MSN20050428072511004/28/05 07:25:31  5-MIN KMSN 281325Z 29007KT 260V320 10SM CLR 04/M02 A2997 820 67 -200 290/07 260V320 RMK AO2
14837KMSN MSN20050428073009404/28/05 07:30:31  5-MIN KMSN 281330Z 31006KT 10SM CLR 04/M02 A2997 820 64 -200 300/06 RMK AO2
14837KMSN MSN20050428073509404/28/05 07:35:31  5-MIN KMSN 281335Z 30007KT 10SM CLR 04/M02 A2997 820 62 -200 300/07 RMK AO2
14837KMSN MSN20050428074009404/28/05 07:40:31  5-MIN KMSN 281340Z 30006KT 10SM CLR 04/M02 A2997 820 62 -200 300/06 RMK AO2
14837KMSN MSN20050428074509404/28/05 07:45:31  5-MIN KMSN 281345Z 31006KT 10SM CLR 05/M02 A2997 820 62 -100 310/06 RMK AO2
14837KMSN MSN20050428075011104/28/05 07:50:31  5-MIN KMSN 281350Z 33006KT 10SM CLR 05/M02 A2997 820 62 -100 330/06 RMK AO2 SLP156 T00501017
14837KMSN MSN20050428075509404/28/05 07:55:31  5-MIN KMSN 281355Z VRB05KT 10SM CLR 05/M02 A2997 820 59 -100 VRB/05 RMK AO2
14837KMSN MSN20050428080009404/28/05 08:00:31  5-MIN KMSN 281400Z VRB04KT 10SM CLR 05/M02 A2997 820 62 -100 VRB/04 RMK AO2
14837KMSN MSN20050428080509404/28/05 08:05:31  5-MIN KMSN 281405Z VRB05KT 10SM CLR 05/M02 A2997 820 59 -100 VRB/05 RMK AO2
14837KMSN MSN20050428081009104/28/05 08:10:31  5-MIN KMSN 281410Z VRB05KT 10SM CLR 06/M02 A2997 820 57 0 VRB/05 RMK AO2
14837KMSN MSN20050428081509404/28/05 08:15:31  5-MIN KMSN 281415Z VRB03KT 10SM CLR 05/M02 A2998 810 59 -100 VRB/03 RMK AO2
14837KMSN MSN20050428082009104/28/05 08:20:31  5-MIN KMSN 281420Z 32006KT 10SM CLR 06/M02 A2997 820 55 0 320/06 RMK AO2
14837KMSN MSN20050428082509404/28/05 08:25:31  5-MIN KMSN 281425Z VRB05KT 10SM FEW030 06/M02 A2997 820 55 0 VRB/05 RMK AO2
14837KMSN MSN20050428083009404/28/05 08:30:31  5-MIN KMSN 281430Z 27005KT 10SM FEW030 06/M03 A2997 810 51 0 270/05 RMK AO2
14837KMSN MSN20050428083509404/28/05 08:35:31  5-MIN KMSN 281435Z VRB05KT 10SM FEW030 06/M03 A2997 820 51 0 VRB/05 RMK AO2
14837KMSN MSN20050428084009404/28/05 08:40:31  5-MIN KMSN 281440Z VRB05KT 10SM FEW030 06/M02 A2997 820 55 0 VRB/05 RMK AO2
14837KMSN MSN20050428084509404/28/05 08:45:31  5-MIN KMSN 281445Z 32007KT 10SM FEW030 06/M03 A2997 820 51 0 320/07 RMK AO2
14837KMSN MSN20050428085011704/28/05 08:50:31  5-MIN KMSN 281450Z 31005KT 10SM FEW030 07/M03 A2997 820 51 0 310/05 RMK AO2 SLP156 T00671028 53008
14837KMSN MSN20050428085509404/28/05 08:55:31  5-MIN KMSN 281455Z 32006KT 10SM SCT035 07/M03 A2997 820 51 0 320/06 RMK AO2
14837KMSN MSN20050428090009404/28/05 09:00:31  5-MIN KMSN 281500Z VRB05KT 10SM SCT035 07/M03 A2997 820 49 0 VRB/05 RMK AO2
14837KMSN MSN20050428090509604/28/05 09:05:31  5-MIN KMSN 281505Z VRB06KT 10SM SCT035 07/M03 A2997 820 49 100 VRB/06 RMK AO2
14837KMSN MSN20050428091009604/28/05 09:10:31  5-MIN KMSN 281510Z 33007KT 10SM SCT035 07/M03 A2997 820 49 100 330/07 RMK AO2
14837KMSN MSN20050428091509604/28/05 09:15:31  5-MIN KMSN 281515Z VRB05KT 10SM SCT035 07/M03 A2997 820 47 100 VRB/05 RMK AO2
14837KMSN MSN20050428092009604/28/05 09:20:31  5-MIN KMSN 281520Z VRB05KT 10SM SCT035 07/M03 A2997 820 47 100 VRB/05 RMK AO2
14837KMSN MSN20050428092509604/28/05 09:25:31  5-MIN KMSN 281525Z VRB06KT 10SM SCT035 07/M03 A2997 810 49 100 VRB/06 RMK AO2
14837KMSN MSN20050428093009404/28/05 09:30:31  5-MIN KMSN 281530Z VRB04KT 10SM SCT040 07/M03 A2998 810 49 0 VRB/04 RMK AO2
14837KMSN MSN20050428093511304/28/05 09:35:31  5-MIN KMSN 281535Z 27007KT 240V310 10SM FEW042 07/M04  A2998 810 45 100 270/07 240V310 RMK AO2
14837KMSN MSN20050428094009604/28/05 09:40:31  5-MIN KMSN 281540Z VRB05KT 10SM SCT047 07/M04 A2998 810 45 100 VRB/05 RMK AO2
14837KMSN MSN20050428094509604/28/05 09:45:31  5-MIN KMSN 281545Z 30008KT 10SM SCT047 07/M04 A2998 810 43 100 290/08 RMK AO2
14837KMSN MSN20050428095011304/28/05 09:50:31  5-MIN KMSN 281550Z 34004KT 10SM FEW047 07/M04 A2998 810 43 100 330/04 RMK AO2 SLP159 T00721044
14837KMSN MSN20050428095509604/28/05 09:55:31  5-MIN KMSN 281555Z VRB03KT 10SM BKN049 07/M04 A2998 810 43 100 VRB/03 RMK AO2
14837KMSN MSN20050428100010304/28/05 10:00:31  5-MIN KMSN 281600Z 26007G17KT 10SM BKN049 07/M05 A2998  810 41 100 260/07G17 RMK AO2
14837KMSN MSN20050428100510304/28/05 10:05:31  5-MIN KMSN 281605Z VRB05G17KT 10SM BKN049 07/M06 A2998  810 40 100 VRB/05G17 RMK AO2
14837KMSN MSN20050428101009604/28/05 10:10:31  5-MIN KMSN 281610Z VRB04KT 10SM BKN049 07/M06 A2998 810 40 100 VRB/04 RMK AO2
14837KMSN MSN20050428101509604/28/05 10:15:31  5-MIN KMSN 281615Z 31006KT 10SM BKN049 08/M06 A2998 810 38 200 310/06 RMK AO2
14837KMSN MSN20050428102009604/28/05 10:20:31  5-MIN KMSN 281620Z VRB05KT 10SM BKN049 08/M06 A2998 810 38 200 VRB/05 RMK AO2
14837KMSN MSN20050428102511304/28/05 10:25:31  5-MIN KMSN 281625Z 25008KT 200V280 10SM BKN049 08/M05  A2998 810 40 200 250/08 200V280 RMK AO2
14837KMSN MSN20050428103009604/28/05 10:30:31  5-MIN KMSN 281630Z VRB05KT 10SM BKN049 08/M06 A2998 810 36 200 VRB/05 RMK AO2
14837KMSN MSN20050428103509604/28/05 10:35:31  5-MIN KMSN 281635Z 29005KT 10SM BKN049 09/M05 A2998 810 37 300 290/05 RMK AO2
14837KMSN MSN20050428104009604/28/05 10:40:31  5-MIN KMSN 281640Z VRB03KT 10SM BKN049 08/M07 A2998 810 35 200 VRB/03 RMK AO2
14837KMSN MSN20050428104511304/28/05 10:45:31  5-MIN KMSN 281645Z 27010KT 230V330 10SM BKN049 08/M05  A2998 810 38 200 270/10 230V330 RMK AO2
14837KMSN MSN20050428105011304/28/05 10:50:31  5-MIN KMSN 281650Z 30008KT 10SM BKN049 08/M05 A2998 810 38 200 300/08 RMK AO2 SLP157 T00831050
14837KMSN MSN20050428105512004/28/05 10:55:31  5-MIN KMSN 281655Z 22007KT 190V280 10SM SCT055 BKN120  08/M04 A2997 820 40 300 220/07 190V280 RMK AO2
14837KMSN MSN20050428110010404/28/05 11:00:31  5-MIN KMSN 281700Z VRB03KT 10SM SCT055 BKN120 08/M06  A2997 820 38 200 VRB/03 RMK AO2
14837KMSN MSN20050428110510404/28/05 11:05:31  5-MIN KMSN 281705Z 00000KT 10SM SCT055 BKN120 08/M04  A2997 820 41 200 000/00 RMK AO2
14837KMSN MSN20050428111010404/28/05 11:10:31  5-MIN KMSN 281710Z VRB04KT 10SM SCT055 BKN120 09/M03  A2997 820 42 300 VRB/04 RMK AO2
14837KMSN MSN20050428111509604/28/05 11:15:31  5-MIN KMSN 281715Z VRB05KT 10SM BKN055 09/M04 A2997 820 40 300 VRB/05 RMK AO2
14837KMSN MSN20050428112009604/28/05 11:20:31  5-MIN KMSN 281720Z VRB06KT 10SM BKN055 08/M05 A2996 820 40 200 VRB/06 RMK AO2
14837KMSN MSN20050428112509604/28/05 11:25:31  5-MIN KMSN 281725Z 19008KT 10SM BKN055 09/M04 A2996 830 40 300 190/08 RMK AO2
14837KMSN MSN20050428113011304/28/05 11:30:31  5-MIN KMSN 281730Z 28008KT 230V310 10SM BKN055 09/M03  A2996 820 40 400 280/08 230V310 RMK AO2
14837KMSN MSN20050428113509604/28/05 11:35:31  5-MIN KMSN 281735Z 00000KT 10SM BKN055 09/M04 A2996 830 38 300 000/00 RMK AO2
14837KMSN MSN20050428114009604/28/05 11:40:31  5-MIN KMSN 281740Z VRB06KT 10SM BKN055 09/M03 A2996 830 42 400 VRB/06 RMK AO2
14837KMSN MSN20050428114509604/28/05 11:45:31  5-MIN KMSN 281745Z VRB03KT 10SM BKN055 09/M04 A2995 830 38 300 VRB/03 RMK AO2
14837KMSN MSN20050428115013104/28/05 11:50:31  5-MIN KMSN 281750Z 21006KT 10SM BKN055 10/M03 A2995 840 39 500 210/06 RMK AO2 SLP149 T01001033 10100 20011 51006
14837KMSN MSN20050428115511304/28/05 11:55:31  5-MIN KMSN 281755Z 23007KT 190V280 10SM OVC055 09/M04  A2995 840 38 300 230/07 190V280 RMK AO2
14837KMSN MSN20050428120011304/28/05 12:00:31  5-MIN KMSN 281800Z 22007KT 170V240 10SM OVC055 09/M04  A2995 840 38 300 220/07 170V240 RMK AO2
14837KMSN MSN20050428120509604/28/05 12:05:31  5-MIN KMSN 281805Z VRB05KT 10SM OVC055 10/M03 A2995 840 39 500 VRB/05 RMK AO2
14837KMSN MSN20050428121009604/28/05 12:10:31  5-MIN KMSN 281810Z 23007KT 10SM OVC055 09/M04 A2995 840 39 400 230/07 RMK AO2
14837KMSN MSN20050428121509604/28/05 12:15:31  5-MIN KMSN 281815Z VRB03KT 10SM BKN055 10/M04 A2994 840 37 500 VRB/03 RMK AO2
14837KMSN MSN20050428122009604/28/05 12:20:31  5-MIN KMSN 281820Z VRB04KT 10SM BKN055 09/M04 A2994 840 37 400 VRB/04 RMK AO2
14837KMSN MSN20050428122509604/28/05 12:25:31  5-MIN KMSN 281825Z VRB06KT 10SM BKN060 10/M03 A2994 840 39 500 VRB/06 RMK AO2
14837KMSN MSN20050428123009604/28/05 12:30:31  5-MIN KMSN 281830Z 31007KT 10SM BKN060 10/M03 A2994 850 39 500 310/07 RMK AO2
14837KMSN MSN20050428123511304/28/05 12:35:31  5-MIN KMSN 281835Z 31007KT 280V340 10SM BKN060 10/M04  A2994 850 36 500 310/07 280V340 RMK AO2
14837KMSN MSN20050428124009604/28/05 12:40:31  5-MIN KMSN 281840Z 34006KT 10SM BKN060 10/M04 A2994 850 37 500 340/06 RMK AO2
14837KMSN MSN20050428124509604/28/05 12:45:31  5-MIN KMSN 281845Z VRB04KT 10SM BKN060 10/M04 A2994 850 37 500 VRB/04 RMK AO2
14837KMSN MSN20050428125011304/28/05 12:50:31  5-MIN KMSN 281850Z 34005KT 10SM BKN060 11/M03 A2993 850 37 600 340/05 RMK AO2 SLP142 T01061033
14837KMSN MSN20050428125509604/28/05 12:55:31  5-MIN KMSN 281855Z 00000KT 10SM BKN060 10/M04 A2993 850 37 500 000/00 RMK AO2
14837KMSN MSN20050428130009604/28/05 13:00:31  5-MIN KMSN 281900Z 31005KT 10SM BKN060 10/M04 A2993 850 37 500 310/05 RMK AO2
14837KMSN MSN20050428130509604/28/05 13:05:31  5-MIN KMSN 281905Z 35007KT 10SM OVC060 10/M04 A2993 850 36 500 350/07 RMK AO2
14837KMSN MSN20050428131010304/28/05 13:10:31  5-MIN KMSN 281910Z 25009G15KT 10SM BKN060 10/M04 A2994  850 36 500 250/09G15 RMK AO2
14837KMSN MSN20050428131510304/28/05 13:15:31  5-MIN KMSN 281915Z VRB05G15KT 10SM BKN060 10/M04 A2993  850 36 500 VRB/05G15 RMK AO2
14837KMSN MSN20050428132009604/28/05 13:20:31  5-MIN KMSN 281920Z 27006KT 10SM BKN060 10/M04 A2993 850 36 500 270/06 RMK AO2
14837KMSN MSN20050428132509604/28/05 13:25:31  5-MIN KMSN 281925Z 28007KT 10SM SCT060 11/M04 A2993 850 34 600 280/07 RMK AO2
14837KMSN MSN20050428133009604/28/05 13:30:31  5-MIN KMSN 281930Z 33007KT 10SM FEW060 11/M04 A2993 850 34 600 330/07 RMK AO2
14837KMSN MSN20050428133509604/28/05 13:35:31  5-MIN KMSN 281935Z VRB04KT 10SM SCT060 10/M05 A2993 860 34 500 VRB/04 RMK AO2
14837KMSN MSN20050428134009604/28/05 13:40:31  5-MIN KMSN 281940Z 32007KT 10SM SCT060 11/M04 A2993 850 36 600 320/07 RMK AO2
14837KMSN MSN20050428134509604/28/05 13:45:31  5-MIN KMSN 281945Z VRB05KT 10SM SCT060 10/M04 A2993 850 36 500 VRB/05 RMK AO2
14837KMSN MSN20050428135011304/28/05 13:50:31  5-MIN KMSN 281950Z VRB06KT 10SM SCT065 11/M04 A2993 860 36 600 VRB/06 RMK AO2 SLP140 T01061039
14837KMSN MSN20050428135511304/28/05 13:55:31  5-MIN KMSN 281955Z 28007KT 250V320 10SM BKN065 11/M04  A2993 850 36 600 280/07 250V320 RMK AO2
14837KMSN MSN20050428140009604/28/05 14:00:31  5-MIN KMSN 282000Z VRB03KT 10SM BKN065 10/M06 A2993 860 33 500 VRB/03 RMK AO2
14837KMSN MSN20050428140509604/28/05 14:05:31  5-MIN KMSN 282005Z VRB05KT 10SM BKN065 10/M04 A2992 860 36 500 VRB/05 RMK AO2
14837KMSN MSN20050428141009604/28/05 14:10:31  5-MIN KMSN 282010Z 29006KT 10SM BKN065 11/M04 A2993 860 36 600 290/06 RMK AO2
14837KMSN MSN20050428141509604/28/05 14:15:31  5-MIN KMSN 282015Z VRB04KT 10SM BKN065 11/M04 A2993 860 36 600 VRB/04 RMK AO2
14837KMSN MSN20050428142009604/28/05 14:20:31  5-MIN KMSN 282020Z 02007KT 10SM BKN065 11/M04 A2993 860 36 600 020/07 RMK AO2
14837KMSN MSN20050428142509604/28/05 14:25:31  5-MIN KMSN 282025Z 00000KT 10SM BKN065 11/M03 A2992 860 36 600 000/00 RMK AO2
14837KMSN MSN20050428143009604/28/05 14:30:31  5-MIN KMSN 282030Z VRB03KT 10SM BKN065 11/M03 A2992 860 36 600 VRB/03 RMK AO2
14837KMSN MSN20050428143509604/28/05 14:35:31  5-MIN KMSN 282035Z VRB05KT 10SM BKN065 11/M04 A2992 860 36 600 VRB/05 RMK AO2
14837KMSN MSN20050428144009604/28/05 14:40:31  5-MIN KMSN 282040Z VRB05KT 10SM OVC065 11/M04 A2992 860 34 600 VRB/05 RMK AO2
14837KMSN MSN20050428144509604/28/05 14:45:31  5-MIN KMSN 282045Z VRB06KT 10SM OVC065 11/M04 A2992 870 36 600 VRB/06 RMK AO2
14837KMSN MSN20050428145011904/28/05 14:50:31  5-MIN KMSN 282050Z 00000KT 10SM BKN065 11/M04 A2992 870 34 600 000/00 RMK AO2 SLP136 T01061044 58006
14837KMSN MSN20050428145509604/28/05 14:55:31  5-MIN KMSN 282055Z VRB04KT 10SM BKN065 11/M04 A2992 870 34 600 VRB/04 RMK AO2
14837KMSN MSN20050428150009604/28/05 15:00:31  5-MIN KMSN 282100Z VRB03KT 10SM SCT065 11/M03 A2992 870 36 600 VRB/03 RMK AO2
14837KMSN MSN20050428150509604/28/05 15:05:31  5-MIN KMSN 282105Z VRB04KT 10SM SCT065 11/M04 A2992 870 34 600 VRB/04 RMK AO2
14837KMSN MSN20050428151009604/28/05 15:10:31  5-MIN KMSN 282110Z VRB06KT 10SM SCT065 11/M04 A2992 860 34 600 VRB/06 RMK AO2
14837KMSN MSN20050428151509604/28/05 15:15:31  5-MIN KMSN 282115Z 21003KT 10SM SCT065 10/M06 A2992 870 31 500 210/03 RMK AO2
14837KMSN MSN20050428152009604/28/05 15:20:31  5-MIN KMSN 282120Z VRB05KT 10SM SCT065 11/M04 A2992 870 33 700 VRB/05 RMK AO2
14837KMSN MSN20050428152509604/28/05 15:25:31  5-MIN KMSN 282125Z VRB06KT 10SM SCT065 11/M04 A2992 870 33 700 VRB/06 RMK AO2
14837KMSN MSN20050428153009604/28/05 15:30:31  5-MIN KMSN 282130Z VRB04KT 10SM SCT065 12/M04 A2992 870 32 700 VRB/04 RMK AO2
14837KMSN MSN20050428153509604/28/05 15:35:31  5-MIN KMSN 282135Z 34004KT 10SM SCT065 11/M05 A2991 870 33 600 340/04 RMK AO2
14837KMSN MSN20050428154009604/28/05 15:40:31  5-MIN KMSN 282140Z VRB03KT 10SM SCT065 11/M05 A2991 870 33 600 VRB/03 RMK AO2
14837KMSN MSN20050428154509604/28/05 15:45:31  5-MIN KMSN 282145Z VRB04KT 10SM SCT065 11/M04 A2991 870 33 700 VRB/04 RMK AO2
14837KMSN MSN20050428155011304/28/05 15:50:31  5-MIN KMSN 282150Z VRB05KT 10SM FEW070 12/M04 A2991 870 33 700 VRB/05 RMK AO2 SLP134 T01171039
14837KMSN MSN20050428155509604/28/05 15:55:31  5-MIN KMSN 282155Z 36008KT 10SM FEW070 12/M04 A2991 880 32 700 360/08 RMK AO2
14837KMSN MSN20050428160009604/28/05 16:00:31  5-MIN KMSN 282200Z 33006KT 10SM FEW070 12/M03 A2991 880 35 700 330/06 RMK AO2
14837KMSN MSN20050428160509604/28/05 16:05:31  5-MIN KMSN 282205Z 01008KT 10SM FEW070 11/M04 A2991 880 34 700 010/08 RMK AO2
14837KMSN MSN20050428161010304/28/05 16:10:31  5-MIN KMSN 282210Z VRB04G15KT 10SM FEW070 11/M04 A2991  880 33 700 VRB/04G15 RMK AO2
14837KMSN MSN20050428161510304/28/05 16:15:31  5-MIN KMSN 282215Z 32005G15KT 10SM FEW070 11/M04 A2991  880 33 700 310/05G15 RMK AO2
14837KMSN MSN20050428162009604/28/05 16:20:31  5-MIN KMSN 282220Z 34005KT 10SM FEW070 11/M05 A2991 880 33 600 340/05 RMK AO2
14837KMSN MSN20050428162509604/28/05 16:25:31  5-MIN KMSN 282225Z VRB04KT 10SM FEW070 10/M04 A2991 880 37 500 VRB/04 RMK AO2
14837KMSN MSN20050428163009604/28/05 16:30:31  5-MIN KMSN 282230Z 12004KT 10SM FEW070 10/M06 A2990 880 33 500 120/04 RMK AO2
14837KMSN MSN20050428163509604/28/05 16:35:31  5-MIN KMSN 282235Z 00000KT 10SM FEW070 11/M05 A2990 880 32 700 000/00 RMK AO2
14837KMSN MSN20050428164009604/28/05 16:40:31  5-MIN KMSN 282240Z 00000KT 10SM SCT070 11/M04 A2991 880 33 700 000/00 RMK AO2
14837KMSN MSN20050428164509604/28/05 16:45:31  5-MIN KMSN 282245Z VRB06KT 10SM SCT070 11/M04 A2991 880 33 700 VRB/06 RMK AO2
14837KMSN MSN20050428165011304/28/05 16:50:31  5-MIN KMSN 282250Z VRB03KT 10SM SCT070 11/M04 A2991 880 33 700 VRB/03 RMK AO2 SLP133 T01111044
14837KMSN MSN20050428165509604/28/05 16:55:31  5-MIN KMSN 282255Z VRB06KT 10SM SCT070 11/M04 A2991 880 33 700 VRB/06 RMK AO2
14837KMSN MSN20050428170009604/28/05 17:00:31  5-MIN KMSN 282300Z VRB04KT 10SM SCT070 11/M05 A2991 870 32 700 VRB/04 RMK AO2
14837KMSN MSN20050428170509604/28/05 17:05:31  5-MIN KMSN 282305Z 29006KT 10SM SCT070 11/M04 A2991 870 33 700 290/06 RMK AO2
14837KMSN MSN20050428171009604/28/05 17:10:31  5-MIN KMSN 282310Z 30004KT 10SM FEW070 11/M06 A2991 870 31 600 300/04 RMK AO2
14837KMSN MSN20050428171509604/28/05 17:15:31  5-MIN KMSN 282315Z 00000KT 10SM FEW070 11/M06 A2991 870 31 600 000/00 RMK AO2
14837KMSN MSN20050428172009304/28/05 17:20:31  5-MIN KMSN 282320Z VRB03KT 10SM CLR 11/M05 A2991 870 32 700 VRB/03 RMK AO2
14837KMSN MSN20050428172509604/28/05 17:25:31  5-MIN KMSN 282325Z 01004KT 10SM FEW070 11/M04 A2991 870 33 700 010/04 RMK AO2
14837KMSN MSN20050428173009604/28/05 17:30:31  5-MIN KMSN 282330Z 32006KT 10SM FEW070 11/M04 A2991 870 34 700 320/06 RMK AO2
14837KMSN MSN20050428173509604/28/05 17:35:31  5-MIN KMSN 282335Z 00000KT 10SM FEW070 11/M06 A2991 870 31 600 000/00 RMK AO2
14837KMSN MSN20050428174009604/28/05 17:40:31  5-MIN KMSN 282340Z 34004KT 10SM FEW070 11/M05 A2991 870 33 600 340/04 RMK AO2
14837KMSN MSN20050428174509604/28/05 17:45:31  5-MIN KMSN 282345Z 31005KT 10SM FEW070 11/M04 A2991 870 34 600 310/05 RMK AO2
14837KMSN MSN20050428175013104/28/05 17:50:31  5-MIN KMSN 282350Z 31006KT 10SM FEW070 10/M05 A2992 870 34 500 310/06 RMK AO2 SLP136 T01001050 10117 20089 56012
14837KMSN MSN20050428175509604/28/05 17:55:31  5-MIN KMSN 282355Z 28003KT 10SM FEW070 10/M06 A2992 870 33 500 280/03 RMK AO2
14837KMSN MSN20050428180009604/28/05 18:00:31  5-MIN KMSN 290000Z 30005KT 10SM FEW070 10/M06 A2992 870 33 500 300/05 RMK AO2
14837KMSN MSN20050428180509304/28/05 18:05:31  5-MIN KMSN 290005Z 32004KT 10SM CLR 10/M05 A2992 870 34 500 320/04 RMK AO2
14837KMSN MSN20050428181009304/28/05 18:10:31  5-MIN KMSN 290010Z 00000KT 10SM CLR 10/M04 A2992 860 36 500 000/00 RMK AO2
14837KMSN MSN20050428181509304/28/05 18:15:31  5-MIN KMSN 290015Z 35003KT 10SM CLR 10/M04 A2992 860 36 500 350/03 RMK AO2
14837KMSN MSN20050428182009304/28/05 18:20:31  5-MIN KMSN 290020Z 34004KT 10SM CLR 09/M05 A2992 860 35 400 340/04 RMK AO2
14837KMSN MSN20050428182509304/28/05 18:25:31  5-MIN KMSN 290025Z 34005KT 10SM CLR 09/M05 A2992 860 37 400 340/05 RMK AO2
14837KMSN MSN20050428183009604/28/05 18:30:31  5-MIN KMSN 290030Z 34003KT 10SM FEW070 09/M06 A2992 860 34 400 340/03 RMK AO2
14837KMSN MSN20050428183509604/28/05 18:35:31  5-MIN KMSN 290035Z 35003KT 10SM FEW070 09/M06 A2992 860 34 400 350/03 RMK AO2
14837KMSN MSN20050428184009604/28/05 18:40:31  5-MIN KMSN 290040Z 34003KT 10SM FEW070 09/M06 A2992 860 34 400 340/03 RMK AO2
14837KMSN MSN20050428184509604/28/05 18:45:31  5-MIN KMSN 290045Z 00000KT 10SM FEW070 09/M06 A2993 860 35 400 000/00 RMK AO2
14837KMSN MSN20050428185011304/28/05 18:50:31  5-MIN KMSN 290050Z 00000KT 10SM FEW080 09/M05 A2993 860 37 400 000/00 RMK AO2 SLP140 T00891050
14837KMSN MSN20050428185509604/28/05 18:55:31  5-MIN KMSN 290055Z 36003KT 10SM FEW070 09/M04 A2993 860 38 400 360/03 RMK AO2
14837KMSN MSN20050428190009604/28/05 19:00:31  5-MIN KMSN 290100Z 00000KT 10SM SCT070 09/M06 A2993 860 35 400 000/00 RMK AO2
14837KMSN MSN20050428190509604/28/05 19:05:31  5-MIN KMSN 290105Z 00000KT 10SM BKN070 08/M04 A2993 860 40 300 000/00 RMK AO2
14837KMSN MSN20050428191009604/28/05 19:10:31  5-MIN KMSN 290110Z 00000KT 10SM FEW070 08/M05 A2993 850 40 200 000/00 RMK AO2
14837KMSN MSN20050428191509604/28/05 19:15:31  5-MIN KMSN 290115Z 00000KT 10SM FEW070 08/M05 A2993 850 40 200 000/00 RMK AO2
14837KMSN MSN20050428192009604/28/05 19:20:31  5-MIN KMSN 290120Z 00000KT 10SM FEW070 07/M04 A2993 850 45 200 000/00 RMK AO2
14837KMSN MSN20050428192509604/28/05 19:25:31  5-MIN KMSN 290125Z 34003KT 10SM SCT070 07/M04 A2994 850 43 200 340/03 RMK AO2
14837KMSN MSN20050428193009604/28/05 19:30:31  5-MIN KMSN 290130Z 34003KT 10SM SCT070 07/M04 A2994 850 45 100 340/03 RMK AO2
14837KMSN MSN20050428193509604/28/05 19:35:31  5-MIN KMSN 290135Z 32003KT 10SM SCT070 07/M03 A2994 850 49 100 320/03 RMK AO2
14837KMSN MSN20050428194009404/28/05 19:40:31  5-MIN KMSN 290140Z 32003KT 10SM SCT070 06/M04 A2994 850 48 0 320/03 RMK AO2
14837KMSN MSN20050428194509604/28/05 19:45:31  5-MIN KMSN 290145Z 34003KT 10SM SCT070 07/M03 A2994 850 49 100 340/03 RMK AO2
14837KMSN MSN20050428195011304/28/05 19:50:31  5-MIN KMSN 290150Z 36004KT 10SM SCT070 07/M04 A2994 840 45 100 350/04 RMK AO2 SLP145 T00671044
14837KMSN MSN20050428195509604/28/05 19:55:31  5-MIN KMSN 290155Z 35004KT 10SM FEW070 07/M04 A2994 840 45 100 340/04 RMK AO2
14837KMSN MSN20050428200009604/28/05 20:00:31  5-MIN KMSN 290200Z 33005KT 10SM FEW070 07/M04 A2995 840 47 100 330/05 RMK AO2
14837KMSN MSN20050428200509604/28/05 20:05:31  5-MIN KMSN 290205Z 34004KT 10SM FEW070 07/M03 A2995 840 49 100 340/04 RMK AO2
14837KMSN MSN20050428201009604/28/05 20:10:31  5-MIN KMSN 290210Z 34003KT 10SM FEW070 07/M04 A2995 840 47 100 340/03 RMK AO2
14837KMSN MSN20050428201509604/28/05 20:15:31  5-MIN KMSN 290215Z 36003KT 10SM FEW070 07/M04 A2995 840 45 100 360/03 RMK AO2
14837KMSN MSN20050428202009604/28/05 20:20:31  5-MIN KMSN 290220Z 00000KT 10SM FEW070 07/M04 A2995 840 45 100 000/00 RMK AO2
14837KMSN MSN20050428202509604/28/05 20:25:31  5-MIN KMSN 290225Z 00000KT 10SM SCT075 07/M04 A2995 840 45 100 000/00 RMK AO2
14837KMSN MSN20050428203009604/28/05 20:30:31  5-MIN KMSN 290230Z 00000KT 10SM SCT075 07/M04 A2995 840 45 100 000/00 RMK AO2
14837KMSN MSN20050428203509404/28/05 20:35:31  5-MIN KMSN 290235Z 00000KT 10SM SCT075 06/M04 A2995 840 46 0 000/00 RMK AO2
14837KMSN MSN20050428204009404/28/05 20:40:31  5-MIN KMSN 290240Z 00000KT 10SM BKN070 06/M04 A2995 830 48 0 000/00 RMK AO2
14837KMSN MSN20050428204509404/28/05 20:45:31  5-MIN KMSN 290245Z 00000KT 10SM BKN070 06/M04 A2995 830 48 0 000/00 RMK AO2
14837KMSN MSN20050428205011904/28/05 20:50:31  5-MIN KMSN 290250Z 00000KT 10SM BKN070 07/M04 A2995 830 45 100 000/00 RMK AO2 SLP149 T00671044 53000
14837KMSN MSN20050428205509404/28/05 20:55:31  5-MIN KMSN 290255Z 00000KT 10SM BKN070 06/M04 A2996 830 48 0 000/00 RMK AO2
14837KMSN MSN20050428210009404/28/05 21:00:31  5-MIN KMSN 290300Z 00000KT 10SM BKN070 06/M04 A2995 830 48 0 000/00 RMK AO2
14837KMSN MSN20050428210509404/28/05 21:05:31  5-MIN KMSN 290305Z 00000KT 10SM OVC070 06/M03 A2995 830 53 0 000/00 RMK AO2
14837KMSN MSN20050428211009704/28/05 21:10:31  5-MIN KMSN 290310Z 00000KT 10SM BKN070 05/M04 A2996 830 52 -100 000/00 RMK AO2
14837KMSN MSN20050428211509404/28/05 21:15:31  5-MIN KMSN 290315Z 00000KT 10SM BKN070 06/M03 A2996 830 53 0 000/00 RMK AO2
14837KMSN MSN20050428212009404/28/05 21:20:31  5-MIN KMSN 290320Z 00000KT 10SM SCT070 06/M04 A2996 830 48 0 000/00 RMK AO2
14837KMSN MSN20050428212509404/28/05 21:25:31  5-MIN KMSN 290325Z 00000KT 10SM SCT070 06/M04 A2996 830 48 0 000/00 RMK AO2
14837KMSN MSN20050428213009404/28/05 21:30:31  5-MIN KMSN 290330Z 34003KT 10SM SCT070 06/M04 A2996 830 50 0 340/03 RMK AO2
14837KMSN MSN20050428213509404/28/05 21:35:31  5-MIN KMSN 290335Z 36003KT 10SM BKN070 06/M03 A2996 830 55 0 360/03 RMK AO2
14837KMSN MSN20050428214009404/28/05 21:40:31  5-MIN KMSN 290340Z 01003KT 10SM BKN070 06/M04 A2996 830 50 0 360/03 RMK AO2
14837KMSN MSN20050428214509404/28/05 21:45:31  5-MIN KMSN 290345Z 02004KT 10SM BKN070 06/M04 A2996 830 50 0 020/04 RMK AO2
14837KMSN MSN20050428215011404/28/05 21:50:31  5-MIN KMSN 290350Z 03006KT 10SM BKN070 05/M03 A2996 830 55 -100 030/06 RMK AO2 SLP150 T00501033
14837KMSN MSN20050428215509704/28/05 21:55:31  5-MIN KMSN 290355Z 04006KT 10SM OVC070 04/M03 A2996 830 59 -200 040/06 RMK AO2
14837KMSN MSN20050428220009704/28/05 22:00:31  5-MIN KMSN 290400Z 03005KT 10SM OVC070 04/M03 A2996 830 59 -200 030/05 RMK AO2
14837KMSN MSN20050428220509704/28/05 22:05:31  5-MIN KMSN 290405Z 02004KT 10SM OVC070 04/M03 A2996 830 59 -200 020/04 RMK AO2
14837KMSN MSN20050428221009704/28/05 22:10:31  5-MIN KMSN 290410Z 36003KT 10SM BKN070 04/M03 A2996 830 57 -200 360/03 RMK AO2
14837KMSN MSN20050428221509704/28/05 22:15:31  5-MIN KMSN 290415Z 01003KT 10SM BKN070 05/M02 A2996 830 59 -100 010/03 RMK AO2
14837KMSN MSN20050428222009704/28/05 22:20:31  5-MIN KMSN 290420Z 04003KT 10SM BKN070 05/M03 A2996 830 57 -100 040/03 RMK AO2
14837KMSN MSN20050428222509704/28/05 22:25:31  5-MIN KMSN 290425Z 05005KT 10SM BKN070 04/M03 A2996 830 57 -200 040/05 RMK AO2
14837KMSN MSN20050428223009704/28/05 22:30:31  5-MIN KMSN 290430Z 06005KT 10SM BKN070 04/M02 A2996 830 62 -200 060/05 RMK AO2
14837KMSN MSN20050428223509704/28/05 22:35:31  5-MIN KMSN 290435Z 07005KT 10SM BKN070 04/M02 A2996 830 64 -200 070/05 RMK AO2
14837KMSN MSN20050428224009704/28/05 22:40:31  5-MIN KMSN 290440Z 08006KT 10SM BKN070 04/M02 A2996 830 62 -200 080/06 RMK AO2
14837KMSN MSN20050428224509704/28/05 22:45:31  5-MIN KMSN 290445Z 08005KT 10SM BKN070 04/M02 A2996 830 64 -200 070/05 RMK AO2
14837KMSN MSN20050428225011404/28/05 22:50:31  5-MIN KMSN 290450Z 08004KT 10SM SCT070 04/M02 A2996 830 67 -200 070/04 RMK AO2 SLP151 T00391017
14837KMSN MSN20050428225509704/28/05 22:55:31  5-MIN KMSN 290455Z 07005KT 10SM SCT070 04/M02 A2996 830 67 -200 070/05 RMK AO2
14837KMSN MSN20050428230009704/28/05 23:00:31  5-MIN KMSN 290500Z 08003KT 10SM SCT070 04/M01 A2996 820 70 -200 080/03 RMK AO2
14837KMSN MSN20050428230509704/28/05 23:05:31  5-MIN KMSN 290505Z 00000KT 9SM SCT070 04/M01 A2996 820  70 -200 000/00 RMK AO2
14837KMSN MSN20050428231009704/28/05 23:10:31  5-MIN KMSN 290510Z 11003KT 9SM SCT070 04/M02 A2997 820  64 -200 110/03 RMK AO2
14837KMSN MSN20050428231509704/28/05 23:15:31  5-MIN KMSN 290515Z 10004KT 9SM SCT070 04/M02 A2997 820  67 -200 100/04 RMK AO2
14837KMSN MSN20050428232009704/28/05 23:20:31  5-MIN KMSN 290520Z 10003KT 9SM SCT070 04/M02 A2996 820  67 -200 100/03 RMK AO2
14837KMSN MSN20050428232509704/28/05 23:25:31  5-MIN KMSN 290525Z 07003KT 8SM SCT070 04/M02 A2997 820  67 -200 070/03 RMK AO2
14837KMSN MSN20050428233009704/28/05 23:30:31  5-MIN KMSN 290530Z 09004KT 8SM SCT070 04/M02 A2997 820  67 -200 090/04 RMK AO2
14837KMSN MSN20050428233509704/28/05 23:35:31  5-MIN KMSN 290535Z 10005KT 8SM SCT070 04/M02 A2997 820  67 -200 090/05 RMK AO2
14837KMSN MSN20050428234009704/28/05 23:40:31  5-MIN KMSN 290540Z 11004KT 8SM SCT070 03/M02 A2997 820  70 -300 110/04 RMK AO2
14837KMSN MSN20050428234509704/28/05 23:45:31  5-MIN KMSN 290545Z 10005KT 8SM SCT070 03/M02 A2997 820  70 -300 100/05 RMK AO2
14837KMSN MSN20050428235014204/28/05 23:50:31  5-MIN KMSN 290550Z 09003KT 8SM FEW070 03/M02 A2997 820  67 -300 090/03 RMK AO2 SLP154 T00331022 10100 20033 401171006 53013
14837KMSN MSN20050428235509404/28/05 23:55:31  5-MIN KMSN 290555Z 08004KT 8SM CLR 03/M02 A2997 820 69  -400 080/04 RMK AO2
14837KMSN MSN20050429000009404/29/05 00:00:38  5-MIN KMSN 290600Z 07004KT 8SM CLR 02/M02 A2997 820 72  -400 070/04 RMK AO2
14837KMSN MSN20050429000509404/29/05 00:05:31  5-MIN KMSN 290605Z 07004KT 8SM CLR 02/M02 A2997 820 75  -500 070/04 RMK AO2
14837KMSN MSN20050429001009404/29/05 00:10:31  5-MIN KMSN 290610Z 07004KT 8SM CLR 02/M02 A2997 820 75  -500 060/04 RMK AO2
14837KMSN MSN20050429001509404/29/05 00:15:31  5-MIN KMSN 290615Z 07004KT 8SM CLR 02/M02 A2997 820 75  -500 070/04 RMK AO2
14837KMSN MSN20050429002009704/29/05 00:20:31  5-MIN KMSN 290620Z 09004KT 8SM FEW070 02/M02 A2997 820  75 -500 090/04 RMK AO2
14837KMSN MSN20050429002509704/29/05 00:25:31  5-MIN KMSN 290625Z 09004KT 8SM SCT070 02/M02 A2997 820  72 -400 090/04 RMK AO2
14837KMSN MSN20050429003009704/29/05 00:30:31  5-MIN KMSN 290630Z 09003KT 8SM BKN070 02/M02 A2997 820  72 -400 090/03 RMK AO2
14837KMSN MSN20050429003509704/29/05 00:35:31  5-MIN KMSN 290635Z 09003KT 8SM BKN070 02/M02 A2997 820  75 -500 090/03 RMK AO2
14837KMSN MSN20050429004009704/29/05 00:40:31  5-MIN KMSN 290640Z 00000KT 8SM BKN070 02/M02 A2997 820  72 -400 000/00 RMK AO2
14837KMSN MSN20050429004509704/29/05 00:45:31  5-MIN KMSN 290645Z 00000KT 8SM BKN070 02/M02 A2997 820  72 -400 000/00 RMK AO2
14837KMSN MSN20050429005011404/29/05 00:50:31  5-MIN KMSN 290650Z 00000KT 8SM BKN070 02/M02 A2997 820  72 -400 000/00 RMK AO2 SLP154 T00221022
14837KMSN MSN20050429005509704/29/05 00:55:31  5-MIN KMSN 290655Z 00000KT 8SM BKN070 02/M02 A2997 820  72 -400 000/00 RMK AO2
14837KMSN MSN20050429010009704/29/05 01:00:31  5-MIN KMSN 290700Z 00000KT 8SM BKN070 02/M02 A2997 820  72 -400 000/00 RMK AO2
14837KMSN MSN20050429010509704/29/05 01:05:31  5-MIN KMSN 290705Z 00000KT 8SM BKN070 02/M02 A2997 820  72 -400 000/00 RMK AO2
14837KMSN MSN20050429011009704/29/05 01:10:31  5-MIN KMSN 290710Z 00000KT 8SM OVC070 03/M02 A2997 820  69 -400 000/00 RMK AO2
14837KMSN MSN20050429011509704/29/05 01:15:31  5-MIN KMSN 290715Z 10003KT 8SM OVC070 03/M02 A2996 820  69 -400 090/03 RMK AO2
14837KMSN MSN20050429012009704/29/05 01:20:31  5-MIN KMSN 290720Z 07003KT 9SM BKN070 03/M02 A2996 820  69 -400 070/03 RMK AO2
14837KMSN MSN20050429012509704/29/05 01:25:31  5-MIN KMSN 290725Z 00000KT 9SM BKN070 03/M02 A2996 830  69 -400 000/00 RMK AO2
14837KMSN MSN20050429013009704/29/05 01:30:31  5-MIN KMSN 290730Z 07003KT 8SM SCT070 02/M02 A2996 830  72 -400 060/03 RMK AO2
14837KMSN MSN20050429013509704/29/05 01:35:31  5-MIN KMSN 290735Z 00000KT 8SM FEW070 02/M02 A2996 830  75 -500 000/00 RMK AO2
14837KMSN MSN20050429014009704/29/05 01:40:31  5-MIN KMSN 290740Z 00000KT 8SM FEW070 02/M02 A2996 830  75 -500 000/00 RMK AO2
14837KMSN MSN20050429014509404/29/05 01:45:31  5-MIN KMSN 290745Z 00000KT 8SM CLR 01/M02 A2996 830 78  -600 000/00 RMK AO2
14837KMSN MSN20050429015011404/29/05 01:50:31  5-MIN KMSN 290750Z 00000KT 8SM FEW070 01/M02 A2996 830  82 -600 000/00 RMK AO2 SLP150 T00111017
14837KMSN MSN20050429015509404/29/05 01:55:31  5-MIN KMSN 290755Z 00000KT 8SM CLR 01/M02 A2996 830 82  -600 000/00 RMK AO2
14837KMSN MSN20050429020009404/29/05 02:00:31  5-MIN KMSN 290800Z 00000KT 8SM CLR 02/M02 A2996 830 78  -500 000/00 RMK AO2
14837KMSN MSN20050429020509404/29/05 02:05:31  5-MIN KMSN 290805Z 00000KT 8SM CLR 02/M02 A2996 830 75  -500 000/00 RMK AO2
14837KMSN MSN20050429021009404/29/05 02:10:31  5-MIN KMSN 290810Z 00000KT 8SM CLR 02/M02 A2996 830 72  -400 000/00 RMK AO2
14837KMSN MSN20050429021509404/29/05 02:15:31  5-MIN KMSN 290815Z 00000KT 8SM CLR 01/M02 A2996 830 78  -600 000/00 RMK AO2
14837KMSN MSN20050429022009404/29/05 02:20:31  5-MIN KMSN 290820Z 00000KT 8SM CLR 02/M02 A2996 830 78  -500 000/00 RMK AO2
14837KMSN MSN20050429022509404/29/05 02:25:31  5-MIN KMSN 290825Z 00000KT 8SM CLR 01/M02 A2996 830 78  -600 000/00 RMK AO2
14837KMSN MSN20050429023009404/29/05 02:30:31  5-MIN KMSN 290830Z 00000KT 8SM CLR 01/M02 A2996 830 78  -600 000/00 RMK AO2
14837KMSN MSN20050429023509404/29/05 02:35:31  5-MIN KMSN 290835Z 00000KT 8SM CLR 02/M02 A2996 830 75  -500 000/00 RMK AO2
14837KMSN MSN20050429024009404/29/05 02:40:31  5-MIN KMSN 290840Z 00000KT 8SM CLR 01/M02 A2996 830 78  -600 000/00 RMK AO2
14837KMSN MSN20050429024509404/29/05 02:45:31  5-MIN KMSN 290845Z 00000KT 7SM CLR 00/M03 A2996 830 81  -700 000/00 RMK AO2
14837KMSN MSN20050429025011704/29/05 02:50:31  5-MIN KMSN 290850Z 00000KT 7SM CLR 00/M03 A2995 830 81  -700 000/00 RMK AO2 SLP149 T00001028 53005
14837KMSN MSN20050429025509404/29/05 02:55:31  5-MIN KMSN 290855Z 00000KT 7SM CLR 01/M02 A2995 830 85  -600 000/00 RMK AO2
14837KMSN MSN20050429030009404/29/05 03:00:31  5-MIN KMSN 290900Z 00000KT 7SM CLR 00/M02 A2995 830 85  -700 000/00 RMK AO2
14837KMSN MSN20050429030509404/29/05 03:05:31  5-MIN KMSN 290905Z 00000KT 7SM CLR 00/M02 A2995 830 85  -700 000/00 RMK AO2
14837KMSN MSN20050429031009404/29/05 03:10:31  5-MIN KMSN 290910Z 00000KT 7SM CLR 00/M02 A2995 840 85  -700 000/00 RMK AO2
14837KMSN MSN20050429031509404/29/05 03:15:31  5-MIN KMSN 290915Z 00000KT 7SM CLR 00/M02 A2995 840 85  -700 000/00 RMK AO2
14837KMSN MSN20050429032009704/29/05 03:20:31  5-MIN KMSN 290920Z 00000KT 6SM BR CLR 00/M02 A2995 840  85 -700 000/00 RMK AO2
14837KMSN MSN20050429032509704/29/05 03:25:31  5-MIN KMSN 290925Z 00000KT 6SM BR CLR M01/M03 A2995 830 85 -800 000/00 RMK AO2
14837KMSN MSN20050429033009704/29/05 03:30:31  5-MIN KMSN 290930Z 00000KT 6SM BR CLR M01/M02 A2995 830 88 -800 000/00 RMK AO2
14837KMSN MSN20050429033509704/29/05 03:35:31  5-MIN KMSN 290935Z 00000KT 6SM BR CLR 00/M02 A2995 830  85 -700 000/00 RMK AO2
14837KMSN MSN20050429034009704/29/05 03:40:31  5-MIN KMSN 290940Z 00000KT 6SM BR CLR 00/M02 A2996 830  85 -700 000/00 RMK AO2
14837KMSN MSN20050429034509704/29/05 03:45:31  5-MIN KMSN 290945Z 00000KT 6SM BR CLR M01/M02 A2996 830 88 -800 000/00 RMK AO2
14837KMSN MSN20050429035011404/29/05 03:50:31  5-MIN KMSN 290950Z 00000KT 6SM BR CLR M01/M03 A2996 830 85 -800 000/00 RMK AO2 SLP149 T10061028
14837KMSN MSN20050429035509404/29/05 03:55:31  5-MIN KMSN 290955Z 00000KT 7SM CLR 00/M02 A2995 830 85  -700 000/00 RMK AO2
14837KMSN MSN20050429040009404/29/05 04:00:31  5-MIN KMSN 291000Z 00000KT 7SM CLR M01/M03 A2995 830 85 -800 000/00 RMK AO2
14837KMSN MSN20050429040509404/29/05 04:05:31  5-MIN KMSN 291005Z 00000KT 7SM CLR M01/M03 A2995 830 85 -800 000/00 RMK AO2
14837KMSN MSN20050429041009704/29/05 04:10:31  5-MIN KMSN 291010Z 00000KT 6SM BR CLR M01/M03 A2995 830 85 -800 000/00 RMK AO2
14837KMSN MSN20050429041509704/29/05 04:15:31  5-MIN KMSN 291015Z 00000KT 6SM BR CLR M01/M02 A2995 830 92 -800 000/00 RMK AO2
14837KMSN MSN20050429042009704/29/05 04:20:31  5-MIN KMSN 291020Z 00000KT 6SM BR CLR M01/M03 A2995 840 88 -800 000/00 RMK AO2
14837KMSN MSN20050429042509704/29/05 04:25:31  5-MIN KMSN 291025Z 00000KT 5SM BR CLR M01/M03 A2995 840 88 -800 000/00 RMK AO2
14837KMSN MSN20050429043009704/29/05 04:30:31  5-MIN KMSN 291030Z 00000KT 5SM BR CLR M01/M03 A2995 840 88 -800 000/00 RMK AO2
14837KMSN MSN20050429043509704/29/05 04:35:31  5-MIN KMSN 291035Z 00000KT 5SM BR CLR M01/M03 A2995 840 88 -800 000/00 RMK AO2
14837KMSN MSN20050429044009704/29/05 04:40:31  5-MIN KMSN 291040Z 00000KT 5SM BR CLR M01/M02 A2995 840 88 -800 000/00 RMK AO2
14837KMSN MSN20050429044509704/29/05 04:45:31  5-MIN KMSN 291045Z 00000KT 6SM BR CLR M01/M02 A2995 840 92 -800 000/00 RMK AO2
14837KMSN MSN20050429045011404/29/05 04:50:31  5-MIN KMSN 291050Z 00000KT 5SM BR CLR M01/M03 A2995 840 88 -800 000/00 RMK AO2 SLP149 T10111028
14837KMSN MSN20050429045509704/29/05 04:55:31  5-MIN KMSN 291055Z 00000KT 5SM BR CLR M01/M02 A2995 840 92 -800 000/00 RMK AO2
14837KMSN MSN20050429050009704/29/05 05:00:31  5-MIN KMSN 291100Z 00000KT 4SM BR CLR M01/M03 A2995 840 88 -800 000/00 RMK AO2
14837KMSN MSN20050429050509704/29/05 05:05:31  5-MIN KMSN 291105Z 00000KT 4SM BR CLR M01/M03 A2995 840 88 -800 000/00 RMK AO2
14837KMSN MSN20050429051009704/29/05 05:10:31  5-MIN KMSN 291110Z 00000KT 4SM BR CLR M01/M03 A2995 840 85 -800 000/00 RMK AO2
14837KMSN MSN20050429051509704/29/05 05:15:31  5-MIN KMSN 291115Z 00000KT 4SM BR CLR M01/M02 A2995 840 96 -800 000/00 RMK AO2
14837KMSN MSN20050429052009704/29/05 05:20:31  5-MIN KMSN 291120Z 00000KT 4SM BR CLR M01/M02 A2995 830 92 -800 000/00 RMK AO2
14837KMSN MSN20050429052509704/29/05 05:25:31  5-MIN KMSN 291125Z 00000KT 4SM BR CLR M01/M02 A2995 830 92 -800 000/00 RMK AO2
14837KMSN MSN20050429053009704/29/05 05:30:31  5-MIN KMSN 291130Z 00000KT 4SM BR CLR M01/M02 A2996 830 92 -800 000/00 RMK AO2
14837KMSN MSN20050429053509704/29/05 05:35:31  5-MIN KMSN 291135Z 00000KT 4SM BR CLR M01/M02 A2996 830 92 -800 000/00 RMK AO2
14837KMSN MSN20050429054009704/29/05 05:40:31  5-MIN KMSN 291140Z 00000KT 4SM BR CLR M01/M02 A2996 830 88 -800 000/00 RMK AO2
14837KMSN MSN20050429054509704/29/05 05:45:31  5-MIN KMSN 291145Z 00000KT 4SM BR CLR 00/M02 A2996 830  85 -700 000/00 RMK AO2
14837KMSN MSN20050429055013204/29/05 05:50:31  5-MIN KMSN 291150Z 00000KT 4SM BR CLR 00/M02 A2996 830  85 -700 000/00 RMK AO2 SLP151 T00001022 10028 21011 58005
14837KMSN MSN20050429055509704/29/05 05:55:31  5-MIN KMSN 291155Z 00000KT 4SM BR CLR 00/M02 A2996 830  85 -700 000/00 RMK AO2
14837KMSN MSN20050429060009704/29/05 06:00:31  5-MIN KMSN 291200Z 00000KT 5SM BR CLR 01/M01 A2996 820  89 -600 000/00 RMK AO2
14837KMSN MSN20050429060509704/29/05 06:05:31  5-MIN KMSN 291205Z 00000KT 5SM BR CLR 01/M02 A2996 820  85 -600 000/00 RMK AO2
14837KMSN MSN20050429061009704/29/05 06:10:31  5-MIN KMSN 291210Z 00000KT 4SM BR CLR 01/M01 A2996 820  89 -600 000/00 RMK AO2
14837KMSN MSN20050429061509704/29/05 06:15:31  5-MIN KMSN 291215Z 00000KT 4SM BR CLR 01/M01 A2997 820  85 -600 000/00 RMK AO2
14837KMSN MSN20050429062009704/29/05 06:20:31  5-MIN KMSN 291220Z 00000KT 4SM BR CLR 01/M01 A2996 820  85 -600 000/00 RMK AO2
14837KMSN MSN20050429062509704/29/05 06:25:31  5-MIN KMSN 291225Z 00000KT 4SM HZ CLR 02/M01 A2997 820  82 -500 000/00 RMK AO2
14837KMSN MSN20050429063009704/29/05 06:30:31  5-MIN KMSN 291230Z 00000KT 4SM HZ CLR 02/M01 A2997 820  82 -500 000/00 RMK AO2
14837KMSN MSN20050429063509704/29/05 06:35:31  5-MIN KMSN 291235Z 00000KT 5SM HZ CLR 02/M01 A2997 820  82 -400 000/00 RMK AO2
14837KMSN MSN20050429064009704/29/05 06:40:31  5-MIN KMSN 291240Z 00000KT 5SM HZ CLR 03/M01 A2997 820  79 -400 000/00 RMK AO2
14837KMSN MSN20050429064509704/29/05 06:45:31  5-MIN KMSN 291245Z 36004KT 5SM HZ CLR 03/M01 A2997 820  76 -300 360/04 RMK AO2
14837KMSN MSN20050429065011204/29/05 06:50:31  5-MIN KMSN 291250Z 36003KT 5SM HZ CLR 03/00 A2997 810 79 -300 350/03 RMK AO2 SLP156 T00330000
14837KMSN MSN20050429065509504/29/05 06:55:31  5-MIN KMSN 291255Z 36003KT 5SM HZ CLR 04/00 A2998 810 76 -200 360/03 RMK AO2
14837KMSN MSN20050429070009504/29/05 07:00:31  5-MIN KMSN 291300Z 00000KT 5SM HZ CLR 04/00 A2998 810 76 -200 000/00 RMK AO2
14837KMSN MSN20050429070509704/29/05 07:05:31  5-MIN KMSN 291305Z 00000KT 6SM HZ CLR 04/M01 A2998 810  70 -200 000/00 RMK AO2
14837KMSN MSN20050429071009704/29/05 07:10:31  5-MIN KMSN 291310Z VRB03KT 6SM HZ CLR 05/M01 A2998 810  67 -100 VRB/03 RMK AO2
14837KMSN MSN20050429071509704/29/05 07:15:31  5-MIN KMSN 291315Z 00000KT 6SM HZ CLR 05/M01 A2998 810  67 -100 000/00 RMK AO2
14837KMSN MSN20050429072009004/29/05 07:20:31  5-MIN KMSN 291320Z 00000KT 7SM CLR 06/M01 A2998 810 62 0 000/00 RMK AO2
14837KMSN MSN20050429072509004/29/05 07:25:31  5-MIN KMSN 291325Z 00000KT 7SM CLR 06/M01 A2998 810 62 0 000/00 RMK AO2
14837KMSN MSN20050429073009004/29/05 07:30:31  5-MIN KMSN 291330Z 00000KT 7SM CLR 06/M01 A2998 810 60 0 000/00 RMK AO2
14837KMSN MSN20050429073509004/29/05 07:35:31  5-MIN KMSN 291335Z 00000KT 7SM CLR 06/M01 A2997 810 60 0 000/00 RMK AO2
14837KMSN MSN20050429074009004/29/05 07:40:31  5-MIN KMSN 291340Z 00000KT 8SM CLR 06/M02 A2997 820 55 0 000/00 RMK AO2
14837KMSN MSN20050429074509304/29/05 07:45:31  5-MIN KMSN 291345Z 00000KT 8SM CLR 07/M02 A2997 820 55  100 000/00 RMK AO2
14837KMSN MSN20050429075010704/29/05 07:50:31  5-MIN KMSN 291350Z VRB03KT 8SM CLR 07/M02 A2997 820 53 0 VRB/03 RMK AO2 SLP155 T00671022
14837KMSN MSN20050429075509004/29/05 07:55:31  5-MIN KMSN 291355Z 00000KT 8SM CLR 07/M02 A2997 820 53 0 000/00 RMK AO2
14837KMSN MSN20050429080009304/29/05 08:00:31  5-MIN KMSN 291400Z 00000KT 8SM CLR 07/M02 A2997 820 51  100 000/00 RMK AO2
14837KMSN MSN20050429080509304/29/05 08:05:31  5-MIN KMSN 291405Z VRB03KT 9SM CLR 08/M02 A2997 820 49  200 VRB/03 RMK AO2
14837KMSN MSN20050429081009304/29/05 08:10:31  5-MIN KMSN 291410Z 13008KT 10SM CLR 08/M03 A2996 820 45 200 130/08 RMK AO2
14837KMSN MSN20050429081509304/29/05 08:15:31  5-MIN KMSN 291415Z 14007KT 10SM CLR 08/M03 A2996 820 43 300 140/07 RMK AO2
14837KMSN MSN20050429082009304/29/05 08:20:31  5-MIN KMSN 291420Z 17006KT 10SM CLR 08/M03 A2996 820 45 200 170/06 RMK AO2
14837KMSN MSN20050429082509304/29/05 08:25:31  5-MIN KMSN 291425Z 17007KT 10SM CLR 08/M03 A2997 820 45 300 170/07 RMK AO2
14837KMSN MSN20050429083009304/29/05 08:30:31  5-MIN KMSN 291430Z 16005KT 10SM CLR 08/M03 A2997 820 45 300 160/05 RMK AO2
14837KMSN MSN20050429083509304/29/05 08:35:31  5-MIN KMSN 291435Z 18006KT 10SM CLR 08/M03 A2997 820 45 300 170/06 RMK AO2
14837KMSN MSN20050429084009304/29/05 08:40:31  5-MIN KMSN 291440Z 19006KT 10SM CLR 08/M03 A2997 820 45 300 190/06 RMK AO2
14837KMSN MSN20050429084509304/29/05 08:45:31  5-MIN KMSN 291445Z 18007KT 10SM CLR 08/M02 A2997 820 47 300 180/07 RMK AO2
14837KMSN MSN20050429085011604/29/05 08:50:31  5-MIN KMSN 291450Z 17008KT 10SM CLR 09/M03 A2996 820 43 300 170/08 RMK AO2 SLP152 T00891028 53001
14837KMSN MSN20050429085509304/29/05 08:55:31  5-MIN KMSN 291455Z 15006KT 10SM CLR 08/M03 A2996 820 43 300 150/06 RMK AO2
14837KMSN MSN20050429090009304/29/05 09:00:31  5-MIN KMSN 291500Z 15005KT 10SM CLR 09/M03 A2996 830 43 300 150/05 RMK AO2
14837KMSN MSN20050429090509304/29/05 09:05:31  5-MIN KMSN 291505Z 16005KT 10SM CLR 09/M03 A2996 830 42 300 160/05 RMK AO2
14837KMSN MSN20050429091009304/29/05 09:10:31  5-MIN KMSN 291510Z VRB03KT 10SM CLR 09/M03 A2996 830 42 300 VRB/03 RMK AO2
14837KMSN MSN20050429091509304/29/05 09:15:31  5-MIN KMSN 291515Z VRB04KT 10SM CLR 09/M03 A2996 830 42 400 VRB/04 RMK AO2
14837KMSN MSN20050429092009304/29/05 09:20:31  5-MIN KMSN 291520Z VRB06KT 10SM CLR 09/M03 A2996 830 42 400 VRB/06 RMK AO2
14837KMSN MSN20050429092509304/29/05 09:25:31  5-MIN KMSN 291525Z VRB03KT 10SM CLR 09/M04 A2996 830 40 300 VRB/03 RMK AO2
14837KMSN MSN20050429093009304/29/05 09:30:31  5-MIN KMSN 291530Z 16005KT 10SM CLR 09/M04 A2996 830 39 400 160/05 RMK AO2
14837KMSN MSN20050429093509304/29/05 09:35:31  5-MIN KMSN 291535Z 16006KT 10SM CLR 09/M04 A2996 830 39 400 160/06 RMK AO2
14837KMSN MSN20050429094009304/29/05 09:40:31  5-MIN KMSN 291540Z VRB04KT 10SM CLR 09/M04 A2996 830 39 400 VRB/04 RMK AO2
14837KMSN MSN20050429094509604/29/05 09:45:31  5-MIN KMSN 291545Z 00000KT 10SM SCT055 09/M04 A2996 830 39 400 000/00 RMK AO2
14837KMSN MSN20050429095011304/29/05 09:50:31  5-MIN KMSN 291550Z VRB06KT 10SM SCT055 10/M03 A2996 830 39 500 VRB/06 RMK AO2 SLP149 T01001033
14837KMSN MSN20050429095509604/29/05 09:55:31  5-MIN KMSN 291555Z 10005KT 10SM BKN055 10/M03 A2996 830 39 500 100/05 RMK AO2
14837KMSN MSN20050429100009604/29/05 10:00:31  5-MIN KMSN 291600Z VRB05KT 10SM BKN055 10/M03 A2995 830 40 500 VRB/05 RMK AO2
14837KMSN MSN20050429100509604/29/05 10:05:31  5-MIN KMSN 291605Z VRB03KT 10SM BKN055 10/M03 A2996 830 39 500 VRB/03 RMK AO2
14837KMSN MSN20050429101009604/29/05 10:10:31  5-MIN KMSN 291610Z VRB03KT 10SM BKN055 10/M03 A2996 830 39 500 VRB/03 RMK AO2
14837KMSN MSN20050429101509604/29/05 10:15:31  5-MIN KMSN 291615Z VRB04KT 10SM BKN060 10/M03 A2995 830 39 500 VRB/04 RMK AO2
14837KMSN MSN20050429102009604/29/05 10:20:31  5-MIN KMSN 291620Z VRB04KT 10SM BKN060 11/M03 A2995 830 37 500 VRB/04 RMK AO2
14837KMSN MSN20050429102509604/29/05 10:25:31  5-MIN KMSN 291625Z 23005KT 10SM BKN060 10/M04 A2995 840 37 500 220/05 RMK AO2
14837KMSN MSN20050429103009604/29/05 10:30:31  5-MIN KMSN 291630Z 00000KT 10SM BKN060 10/M04 A2995 840 36 500 000/00 RMK AO2
14837KMSN MSN20050429103509604/29/05 10:35:31  5-MIN KMSN 291635Z VRB06KT 10SM BKN060 11/M04 A2995 840 34 500 VRB/06 RMK AO2
14837KMSN MSN20050429104009604/29/05 10:40:31  5-MIN KMSN 291640Z VRB05KT 10SM BKN060 11/M03 A2994 840 36 600 VRB/05 RMK AO2
14837KMSN MSN20050429104509604/29/05 10:45:31  5-MIN KMSN 291645Z VRB03KT 10SM BKN060 12/M03 A2994 850 36 700 VRB/03 RMK AO2
14837KMSN MSN20050429105011304/29/05 10:50:31  5-MIN KMSN 291650Z 28004KT 10SM BKN060 11/M04 A2994 850 33 600 280/04 RMK AO2 SLP143 T01111044
14837KMSN MSN20050429105509604/29/05 10:55:31  5-MIN KMSN 291655Z VRB03KT 10SM BKN060 10/M04 A2994 850 36 500 VRB/03 RMK AO2
14837KMSN MSN20050429110009604/29/05 11:00:31  5-MIN KMSN 291700Z VRB04KT 10SM BKN060 10/M04 A2994 850 36 500 VRB/04 RMK AO2
14837KMSN MSN20050429110509604/29/05 11:05:31  5-MIN KMSN 291705Z 16006KT 10SM BKN060 11/M04 A2993 850 36 600 160/06 RMK AO2
14837KMSN MSN20050429111009604/29/05 11:10:31  5-MIN KMSN 291710Z 17006KT 10SM BKN060 11/M03 A2993 850 36 600 170/06 RMK AO2
14837KMSN MSN20050429111509604/29/05 11:15:31  5-MIN KMSN 291715Z 24005KT 10SM BKN060 12/M03 A2993 850 35 700 240/05 RMK AO2
14837KMSN MSN20050429112009604/29/05 11:20:31  5-MIN KMSN 291720Z VRB05KT 10SM BKN060 11/M05 A2993 850 33 600 VRB/05 RMK AO2
14837KMSN MSN20050429112509604/29/05 11:25:31  5-MIN KMSN 291725Z VRB04KT 10SM BKN060 10/M06 A2993 850 33 500 VRB/04 RMK AO2
14837KMSN MSN20050429113009604/29/05 11:30:31  5-MIN KMSN 291730Z VRB06KT 10SM BKN060 11/M04 A2993 860 34 600 VRB/06 RMK AO2
14837KMSN MSN20050429113511304/29/05 11:35:31  5-MIN KMSN 291735Z 25007KT 230V310 10SM BKN060 11/M04  A2993 860 33 600 250/07 230V310 RMK AO2
14837KMSN MSN20050429114009604/29/05 11:40:31  5-MIN KMSN 291740Z VRB04KT 10SM BKN060 11/M04 A2993 860 34 600 VRB/04 RMK AO2
14837KMSN MSN20050429114509604/29/05 11:45:31  5-MIN KMSN 291745Z 25007KT 10SM BKN060 11/M04 A2993 860 33 600 250/07 RMK AO2
14837KMSN MSN20050429115013104/29/05 11:50:31  5-MIN KMSN 291750Z VRB06KT 10SM BKN065 11/M04 A2993 860 34 600 VRB/06 RMK AO2 SLP139 T01111039 10117 20000 50001
14837KMSN MSN20050429115509604/29/05 11:55:31  5-MIN KMSN 291755Z VRB05KT 10SM BKN065 11/M04 A2992 860 34 600 VRB/05 RMK AO2
14837KMSN MSN20050429120009604/29/05 12:00:31  5-MIN KMSN 291800Z 24008KT 10SM BKN065 11/M04 A2992 860 33 600 240/08 RMK AO2
14837KMSN MSN20050429120511304/29/05 12:05:31  5-MIN KMSN 291805Z 22007KT 190V270 10SM BKN065 11/M05  A2992 860 32 600 220/07 190V270 RMK AO2
14837KMSN MSN20050429121009604/29/05 12:10:31  5-MIN KMSN 291810Z VRB05KT 10SM BKN065 11/M04 A2992 860 33 600 VRB/05 RMK AO2
14837KMSN MSN20050429121509604/29/05 12:15:31  5-MIN KMSN 291815Z VRB03KT 10SM BKN065 11/M04 A2992 870 34 600 VRB/03 RMK AO2
14837KMSN MSN20050429122009604/29/05 12:20:31  5-MIN KMSN 291820Z VRB06KT 10SM BKN065 12/M04 A2992 870 32 700 VRB/06 RMK AO2
14837KMSN MSN20050429122509604/29/05 12:25:31  5-MIN KMSN 291825Z VRB04KT 10SM BKN065 11/M05 A2992 870 32 600 VRB/04 RMK AO2
14837KMSN MSN20050429123009604/29/05 12:30:31  5-MIN KMSN 291830Z 24008KT 10SM BKN065 12/M04 A2992 870 32 700 240/08 RMK AO2
14837KMSN MSN20050429123509604/29/05 12:35:31  5-MIN KMSN 291835Z VRB04KT 10SM BKN065 11/M05 A2992 870 32 600 VRB/04 RMK AO2
14837KMSN MSN20050429124009604/29/05 12:40:31  5-MIN KMSN 291840Z VRB06KT 10SM BKN065 11/M05 A2992 870 32 600 VRB/06 RMK AO2
14837KMSN MSN20050429124509604/29/05 12:45:31  5-MIN KMSN 291845Z VRB05KT 10SM BKN065 11/M05 A2992 870 32 700 VRB/05 RMK AO2
14837KMSN MSN20050429125011304/29/05 12:50:31  5-MIN KMSN 291850Z VRB06KT 10SM BKN065 12/M04 A2991 870 32 800 VRB/06 RMK AO2 SLP134 T01221039
14837KMSN MSN20050429125511304/29/05 12:55:31  5-MIN KMSN 291855Z 20007KT 170V230 10SM BKN070 12/M04  A2991 870 32 700 190/07 170V230 RMK AO2
14837KMSN MSN20050429130009604/29/05 13:00:31  5-MIN KMSN 291900Z 25007KT 10SM BKN070 12/M04 A2991 870 32 700 250/07 RMK AO2
14837KMSN MSN20050429130509604/29/05 13:05:31  5-MIN KMSN 291905Z VRB03KT 10SM BKN070 12/M04 A2991 870 32 700 VRB/03 RMK AO2
14837KMSN MSN20050429131009604/29/05 13:10:31  5-MIN KMSN 291910Z VRB04KT 10SM BKN070 12/M04 A2991 870 32 700 VRB/04 RMK AO2
14837KMSN MSN20050429131511304/29/05 13:15:31  5-MIN KMSN 291915Z 23007KT 190V250 10SM BKN070 12/M04  A2991 870 32 800 230/07 190V250 RMK AO2
14837KMSN MSN20050429132009604/29/05 13:20:31  5-MIN KMSN 291920Z VRB06KT 10SM BKN070 12/M04 A2991 870 32 700 VRB/06 RMK AO2
14837KMSN MSN20050429132509604/29/05 13:25:31  5-MIN KMSN 291925Z 23006KT 10SM BKN070 11/M04 A2991 870 33 700 230/06 RMK AO2
14837KMSN MSN20050429133009604/29/05 13:30:31  5-MIN KMSN 291930Z VRB06KT 10SM BKN070 12/M04 A2991 870 33 700 VRB/06 RMK AO2
14837KMSN MSN20050429133511304/29/05 13:35:31  5-MIN KMSN 291935Z 20007KT 170V230 10SM BKN070 12/M04  A2991 870 32 700 190/07 170V230 RMK AO2
14837KMSN MSN20050429134009604/29/05 13:40:31  5-MIN KMSN 291940Z 21006KT 10SM BKN070 12/M04 A2991 880 33 700 210/06 RMK AO2
14837KMSN MSN20050429134509604/29/05 13:45:31  5-MIN KMSN 291945Z 20006KT 10SM BKN070 12/M04 A2991 880 33 700 200/06 RMK AO2
14837KMSN MSN20050429135011304/29/05 13:50:31  5-MIN KMSN 291950Z VRB04KT 10SM BKN070 12/M04 A2991 880 32 700 VRB/04 RMK AO2 SLP133 T01171044
14837KMSN MSN20050429135509604/29/05 13:55:31  5-MIN KMSN 291955Z 28006KT 10SM BKN110 12/M04 A2991 880 33 700 280/06 RMK AO2
14837KMSN MSN20050429140009604/29/05 14:00:31  5-MIN KMSN 292000Z 30006KT 10SM SCT110 12/M04 A2991 880 32 700 300/06 RMK AO2
14837KMSN MSN20050429140510404/29/05 14:05:31  5-MIN KMSN 292005Z 30005KT 10SM FEW070 SCT110 12/M04  A2991 880 33 700 300/05 RMK AO2
14837KMSN MSN20050429141010404/29/05 14:10:31  5-MIN KMSN 292010Z 03004KT 10SM FEW075 BKN100 12/M05  A2991 880 30 700 030/04 RMK AO2
14837KMSN MSN20050429141511104/29/05 14:15:31  5-MIN KMSN 292015Z 31006KT 10SM FEW075 SCT095 BKN110  12/M04 A2991 880 33 700 310/06 RMK AO2
14837KMSN MSN20050429142011104/29/05 14:20:31  5-MIN KMSN 292020Z 36004KT 10SM FEW075 SCT090 SCT110  12/M04 A2990 880 33 700 360/04 RMK AO2
14837KMSN MSN20050429142510404/29/05 14:25:31  5-MIN KMSN 292025Z 00000KT 10SM SCT080 SCT110 12/M04  A2990 880 32 700 000/00 RMK AO2
14837KMSN MSN20050429143010404/29/05 14:30:31  5-MIN KMSN 292030Z 00000KT 10SM FEW080 SCT110 12/M04  A2990 880 32 700 000/00 RMK AO2
14837KMSN MSN20050429143509604/29/05 14:35:31  5-MIN KMSN 292035Z 32004KT 10SM FEW080 12/M04 A2990 880 32 700 320/04 RMK AO2
14837KMSN MSN20050429144009604/29/05 14:40:31  5-MIN KMSN 292040Z 00000KT 10SM SCT070 12/M03 A2990 880 35 700 000/00 RMK AO2
14837KMSN MSN20050429144509604/29/05 14:45:31  5-MIN KMSN 292045Z VRB05KT 10SM FEW070 12/M03 A2990 880 35 700 VRB/05 RMK AO2
14837KMSN MSN20050429145011904/29/05 14:50:31  5-MIN KMSN 292050Z 03005KT 10SM FEW070 12/M03 A2990 880 35 700 030/05 RMK AO2 SLP130 T01171033 58012
14837KMSN MSN20050429145509604/29/05 14:55:31  5-MIN KMSN 292055Z 00000KT 10SM FEW070 11/M04 A2990 880 33 700 000/00 RMK AO2
14837KMSN MSN20050429150009604/29/05 15:00:31  5-MIN KMSN 292100Z 00000KT 10SM SCT070 12/M04 A2990 880 32 700 000/00 RMK AO2
14837KMSN MSN20050429150509604/29/05 15:05:31  5-MIN KMSN 292105Z 30003KT 10SM SCT070 11/M04 A2990 880 34 700 300/03 RMK AO2
14837KMSN MSN20050429151009604/29/05 15:10:31  5-MIN KMSN 292110Z 00000KT 10SM FEW070 11/M04 A2990 880 33 700 000/00 RMK AO2
14837KMSN MSN20050429151509604/29/05 15:15:31  5-MIN KMSN 292115Z 00000KT 10SM FEW070 12/M03 A2990 880 35 700 000/00 RMK AO2
14837KMSN MSN20050429152009604/29/05 15:20:31  5-MIN KMSN 292120Z 21007KT 10SM FEW070 11/M05 A2990 880 32 700 210/07 RMK AO2
14837KMSN MSN20050429152509604/29/05 15:25:31  5-MIN KMSN 292125Z 00000KT 10SM FEW070 12/M04 A2990 880 32 700 000/00 RMK AO2
14837KMSN MSN20050429153009604/29/05 15:30:31  5-MIN KMSN 292130Z 00000KT 10SM FEW070 12/M06 A2990 890 29 700 000/00 RMK AO2
14837KMSN MSN20050429153509604/29/05 15:35:31  5-MIN KMSN 292135Z VRB04KT 10SM FEW070 12/M04 A2990 890 32 700 VRB/04 RMK AO2
14837KMSN MSN20050429154009604/29/05 15:40:31  5-MIN KMSN 292140Z VRB04KT 10SM BKN070 12/M04 A2990 880 33 700 VRB/04 RMK AO2
14837KMSN MSN20050429154509604/29/05 15:45:31  5-MIN KMSN 292145Z VRB05KT 10SM BKN070 12/M04 A2990 880 32 700 VRB/05 RMK AO2
14837KMSN MSN20050429155011304/29/05 15:50:31  5-MIN KMSN 292150Z 31006KT 10SM BKN070 11/M04 A2990 880 33 700 310/06 RMK AO2 SLP130 T01111044
14837KMSN MSN20050429155509604/29/05 15:55:31  5-MIN KMSN 292155Z 29006KT 10SM OVC070 11/M04 A2990 880 33 700 290/06 RMK AO2
14837KMSN MSN20050429160009604/29/05 16:00:31  5-MIN KMSN 292200Z 35005KT 10SM OVC070 11/M04 A2990 880 34 700 350/05 RMK AO2
14837KMSN MSN20050429160509604/29/05 16:05:31  5-MIN KMSN 292205Z 34003KT 10SM BKN070 11/M03 A2990 880 36 700 340/03 RMK AO2
14837KMSN MSN20050429161011304/29/05 16:10:31  5-MIN KMSN 292210Z 30007KT 260V320 10SM BKN070 11/M04  A2990 880 34 700 300/07 260V320 RMK AO2
14837KMSN MSN20050429161509604/29/05 16:15:31  5-MIN KMSN 292215Z 00000KT 10SM BKN070 11/M04 A2990 880 34 600 000/00 RMK AO2
14837KMSN MSN20050429162009604/29/05 16:20:31  5-MIN KMSN 292220Z 00000KT 10SM BKN065 11/M04 A2990 880 33 700 000/00 RMK AO2
14837KMSN MSN20050429162509604/29/05 16:25:31  5-MIN KMSN 292225Z 00000KT 10SM SCT065 11/M04 A2990 880 34 700 000/00 RMK AO2
14837KMSN MSN20050429163009604/29/05 16:30:31  5-MIN KMSN 292230Z 00000KT 10SM FEW060 11/M04 A2990 880 34 700 000/00 RMK AO2
14837KMSN MSN20050429163509604/29/05 16:35:31  5-MIN KMSN 292235Z 24005KT 10SM FEW060 11/M03 A2990 880 37 700 230/05 RMK AO2
14837KMSN MSN20050429164009604/29/05 16:40:31  5-MIN KMSN 292240Z VRB04KT 10SM FEW065 11/M04 A2990 880 34 700 VRB/04 RMK AO2
14837KMSN MSN20050429164509604/29/05 16:45:31  5-MIN KMSN 292245Z 31007KT 10SM FEW065 11/M04 A2990 880 34 700 310/07 RMK AO2
14837KMSN MSN20050429165011004/29/05 16:50:31  5-MIN KMSN 292250Z 24005KT 10SM CLR 11/M04 A2990 880 34 600 240/05 RMK AO2 SLP132 T01061044
14837KMSN MSN20050429165509304/29/05 16:55:31  5-MIN KMSN 292255Z VRB03KT 10SM CLR 11/M04 A2990 880 33 700 VRB/03 RMK AO2
14837KMSN MSN20050429170009604/29/05 17:00:31  5-MIN KMSN 292300Z 00000KT 10SM FEW070 11/M04 A2990 880 34 700 000/00 RMK AO2
14837KMSN MSN20050429170509604/29/05 17:05:31  5-MIN KMSN 292305Z 00000KT 10SM FEW070 11/M04 A2990 880 34 700 000/00 RMK AO2
14837KMSN MSN20050429171009604/29/05 17:10:31  5-MIN KMSN 292310Z 00000KT 10SM FEW070 11/M03 A2990 880 36 700 000/00 RMK AO2
14837KMSN MSN20050429171509604/29/05 17:15:31  5-MIN KMSN 292315Z 00000KT 10SM FEW070 11/M04 A2990 880 33 700 000/00 RMK AO2
14837KMSN MSN20050429172009604/29/05 17:20:31  5-MIN KMSN 292320Z 00000KT 10SM FEW070 12/M03 A2990 880 35 700 000/00 RMK AO2
14837KMSN MSN20050429172509604/29/05 17:25:31  5-MIN KMSN 292325Z 00000KT 10SM FEW070 11/M04 A2990 880 34 700 000/00 RMK AO2
14837KMSN MSN20050429173009604/29/05 17:30:31  5-MIN KMSN 292330Z 00000KT 10SM FEW070 12/M03 A2990 880 35 700 000/00 RMK AO2
14837KMSN MSN20050429173509604/29/05 17:35:31  5-MIN KMSN 292335Z 00000KT 10SM FEW070 12/M03 A2990 880 36 700 000/00 RMK AO2
14837KMSN MSN20050429174009604/29/05 17:40:31  5-MIN KMSN 292340Z 30004KT 10SM FEW070 11/M04 A2990 890 34 700 300/04 RMK AO2
14837KMSN MSN20050429174509604/29/05 17:45:31  5-MIN KMSN 292345Z 29005KT 10SM FEW070 11/M03 A2990 890 37 600 290/05 RMK AO2
14837KMSN MSN20050429175013104/29/05 17:50:31  5-MIN KMSN 292350Z 29005KT 10SM FEW070 11/M04 A2990 890 34 600 290/05 RMK AO2 SLP129 T01061044 10122 20106 56009
14837KMSN MSN20050429175509304/29/05 17:55:31  5-MIN KMSN 292355Z 30004KT 10SM CLR 11/M04 A2989 890 34 600 300/04 RMK AO2
14837KMSN MSN20050429180009304/29/05 18:00:31  5-MIN KMSN 300000Z 30004KT 10SM CLR 11/M04 A2989 890 34 600 300/04 RMK AO2
14837KMSN MSN20050429180509604/29/05 18:05:31  5-MIN KMSN 300005Z 32005KT 10SM FEW065 11/M04 A2989 890 36 600 320/05 RMK AO2
14837KMSN MSN20050429181009604/29/05 18:10:31  5-MIN KMSN 300010Z 32006KT 10SM FEW065 11/M04 A2990 890 36 600 320/06 RMK AO2
14837KMSN MSN20050429181509604/29/05 18:15:31  5-MIN KMSN 300015Z 32005KT 10SM FEW065 11/M04 A2990 890 34 600 320/05 RMK AO2
14837KMSN MSN20050429182009604/29/05 18:20:31  5-MIN KMSN 300020Z 33004KT 10SM FEW065 11/M04 A2990 890 34 600 330/04 RMK AO2
14837KMSN MSN20050429182509604/29/05 18:25:31  5-MIN KMSN 300025Z 34004KT 10SM FEW065 10/M04 A2990 890 37 500 340/04 RMK AO2
14837KMSN MSN20050429183009604/29/05 18:30:31  5-MIN KMSN 300030Z 34003KT 10SM FEW065 10/M04 A2990 890 37 500 340/03 RMK AO2
14837KMSN MSN20050429183509604/29/05 18:35:31  5-MIN KMSN 300035Z 34004KT 10SM FEW065 10/M04 A2990 880 37 500 340/04 RMK AO2
14837KMSN MSN20050429184009604/29/05 18:40:31  5-MIN KMSN 300040Z 34003KT 10SM FEW065 10/M04 A2990 880 37 500 340/03 RMK AO2
14837KMSN MSN20050429184509604/29/05 18:45:31  5-MIN KMSN 300045Z 34003KT 10SM FEW085 10/M04 A2990 880 37 500 340/03 RMK AO2
14837KMSN MSN20050429185011304/29/05 18:50:31  5-MIN KMSN 300050Z 34003KT 10SM FEW085 10/M04 A2990 880 37 500 340/03 RMK AO2 SLP131 T01001039
14837KMSN MSN20050429185509604/29/05 18:55:31  5-MIN KMSN 300055Z 34003KT 10SM OVC085 10/M04 A2990 880 36 500 340/03 RMK AO2
14837KMSN MSN20050429190009604/29/05 19:00:31  5-MIN KMSN 300100Z 00000KT 10SM OVC085 09/M03 A2990 880 40 500 000/00 RMK AO2
14837KMSN MSN20050429190509604/29/05 19:05:31  5-MIN KMSN 300105Z 00000KT 10SM OVC085 09/M03 A2991 880 43 400 000/00 RMK AO2
14837KMSN MSN20050429191009604/29/05 19:10:31  5-MIN KMSN 300110Z 00000KT 10SM OVC085 09/M03 A2991 880 42 500 000/00 RMK AO2
14837KMSN MSN20050429191509604/29/05 19:15:31  5-MIN KMSN 300115Z 00000KT 10SM BKN090 09/M03 A2991 880 43 400 000/00 RMK AO2
14837KMSN MSN20050429192009604/29/05 19:20:31  5-MIN KMSN 300120Z 31003KT 10SM BKN090 09/M03 A2991 870 43 400 310/03 RMK AO2
14837KMSN MSN20050429192509604/29/05 19:25:31  5-MIN KMSN 300125Z 32004KT 10SM BKN090 09/M03 A2991 870 43 400 320/04 RMK AO2
14837KMSN MSN20050429193009604/29/05 19:30:31  5-MIN KMSN 300130Z 32004KT 10SM BKN090 09/M03 A2991 870 42 400 320/04 RMK AO2
14837KMSN MSN20050429193509604/29/05 19:35:31  5-MIN KMSN 300135Z 32004KT 10SM BKN090 08/M03 A2991 870 45 300 320/04 RMK AO2
14837KMSN MSN20050429194009604/29/05 19:40:31  5-MIN KMSN 300140Z 32004KT 10SM BKN090 08/M03 A2992 870 45 300 320/04 RMK AO2
14837KMSN MSN20050429194509604/29/05 19:45:31  5-MIN KMSN 300145Z 33004KT 10SM BKN090 08/M03 A2992 870 45 300 330/04 RMK AO2
14837KMSN MSN20050429195011304/29/05 19:50:31  5-MIN KMSN 300150Z 32004KT 10SM SCT080 08/M03 A2992 870 45 300 320/04 RMK AO2 SLP136 T00831028
14837KMSN MSN20050429195510404/29/05 19:55:31  5-MIN KMSN 300155Z 32004KT 10SM BKN075 OVC090 08/M03  A2992 870 45 300 320/04 RMK AO2
14837KMSN MSN20050429200010404/29/05 20:00:31  5-MIN KMSN 300200Z 32004KT 10SM FEW075 SCT090 08/M03  A2992 860 45 300 320/04 RMK AO2
14837KMSN MSN20050429200510404/29/05 20:05:31  5-MIN KMSN 300205Z 32003KT 10SM FEW075 SCT090 08/M03  A2992 860 45 300 320/03 RMK AO2
14837KMSN MSN20050429201010404/29/05 20:10:31  5-MIN KMSN 300210Z 34003KT 10SM FEW075 SCT090 08/M03  A2992 860 45 300 340/03 RMK AO2
14837KMSN MSN20050429201510404/29/05 20:15:31  5-MIN KMSN 300215Z 00000KT 10SM FEW075 SCT090 08/M03  A2992 860 45 300 000/00 RMK AO2
14837KMSN MSN20050429202010404/29/05 20:20:31  5-MIN KMSN 300220Z 00000KT 10SM FEW075 SCT090 08/M03  A2992 860 47 200 000/00 RMK AO2
14837KMSN MSN20050429202509604/29/05 20:25:31  5-MIN KMSN 300225Z 00000KT 10SM BKN100 08/M03 A2992 860 47 200 000/00 RMK AO2
14837KMSN MSN20050429203009604/29/05 20:30:31  5-MIN KMSN 300230Z 00000KT 10SM BKN100 08/M02 A2993 860 49 200 000/00 RMK AO2
14837KMSN MSN20050429203509604/29/05 20:35:31  5-MIN KMSN 300235Z 00000KT 10SM BKN100 07/M02 A2993 860 51 200 000/00 RMK AO2
14837KMSN MSN20050429204009604/29/05 20:40:31  5-MIN KMSN 300240Z 00000KT 10SM BKN100 07/M02 A2993 860 51 200 000/00 RMK AO2
14837KMSN MSN20050429204509604/29/05 20:45:31  5-MIN KMSN 300245Z 00000KT 10SM BKN095 07/M02 A2993 860 51 200 000/00 RMK AO2
14837KMSN MSN20050429205013404/29/05 20:50:31  5-MIN KMSN 300250Z 00000KT 10SM FEW070 BKN080 OVC100  07/M02 A2993 860 51 200 000/00 RMK AO2 SLP138 T00721022 58002
14837KMSN MSN20050429205511104/29/05 20:55:31  5-MIN KMSN 300255Z VRB03KT 10SM FEW070 BKN080 OVC100  08/M02 A2993 860 49 200 VRB/03 RMK AO2
14837KMSN MSN20050429210010404/29/05 21:00:31  5-MIN KMSN 300300Z 30003KT 10SM BKN080 OVC095 08/M02  A2993 860 47 300 300/03 RMK AO2
14837KMSN MSN20050429210509604/29/05 21:05:31  5-MIN KMSN 300305Z 30004KT 10SM OVC080 08/M03 A2993 860 45 300 300/04 RMK AO2
14837KMSN MSN20050429211009604/29/05 21:10:31  5-MIN KMSN 300310Z 30004KT 10SM OVC080 08/M02 A2993 850 47 300 300/04 RMK AO2
14837KMSN MSN20050429211509604/29/05 21:15:31  5-MIN KMSN 300315Z 31005KT 10SM OVC080 08/M02 A2993 850 47 300 310/05 RMK AO2
14837KMSN MSN20050429212009604/29/05 21:20:31  5-MIN KMSN 300320Z 30004KT 10SM OVC075 09/M03 A2993 850 43 400 300/04 RMK AO2
14837KMSN MSN20050429212509604/29/05 21:25:31  5-MIN KMSN 300325Z 30004KT 10SM OVC075 08/M03 A2993 850 45 300 300/04 RMK AO2
14837KMSN MSN20050429213009604/29/05 21:30:31  5-MIN KMSN 300330Z 27003KT 10SM OVC075 09/M03 A2993 850 43 400 270/03 RMK AO2
14837KMSN MSN20050429213509604/29/05 21:35:31  5-MIN KMSN 300335Z 00000KT 10SM OVC075 09/M03 A2993 860 43 400 000/00 RMK AO2
14837KMSN MSN20050429214009604/29/05 21:40:31  5-MIN KMSN 300340Z 00000KT 10SM OVC070 09/M02 A2993 860 45 400 000/00 RMK AO2
14837KMSN MSN20050429214509604/29/05 21:45:31  5-MIN KMSN 300345Z 00000KT 10SM OVC070 09/M03 A2993 860 43 400 000/00 RMK AO2
14837KMSN MSN20050429215011304/29/05 21:50:31  5-MIN KMSN 300350Z 00000KT 10SM BKN070 08/M02 A2993 860 47 300 000/00 RMK AO2 SLP137 T00831022
14837KMSN MSN20050429215509604/29/05 21:55:31  5-MIN KMSN 300355Z 00000KT 10SM OVC070 09/M02 A2992 860 45 400 000/00 RMK AO2
14837KMSN MSN20050429220009604/29/05 22:00:31  5-MIN KMSN 300400Z 00000KT 10SM OVC070 08/M02 A2992 860 47 300 000/00 RMK AO2
14837KMSN MSN20050429220510404/29/05 22:05:31  5-MIN KMSN 300405Z 00000KT 10SM BKN070 OVC090 09/M02  A2992 860 45 400 000/00 RMK AO2
14837KMSN MSN20050429221010404/29/05 22:10:31  5-MIN KMSN 300410Z 00000KT 10SM BKN070 OVC090 08/M02  A2992 860 49 200 000/00 RMK AO2
14837KMSN MSN20050429221510404/29/05 22:15:31  5-MIN KMSN 300415Z 00000KT 10SM BKN080 OVC095 08/M01  A2992 860 53 200 000/00 RMK AO2
14837KMSN MSN20050429222010404/29/05 22:20:31  5-MIN KMSN 300420Z 00000KT 10SM BKN080 OVC095 08/M02  A2992 860 49 200 000/00 RMK AO2
14837KMSN MSN20050429222510404/29/05 22:25:31  5-MIN KMSN 300425Z 00000KT 10SM SCT080 OVC100 08/M01  A2992 860 53 200 000/00 RMK AO2
14837KMSN MSN20050429223009604/29/05 22:30:31  5-MIN KMSN 300430Z 00000KT 10SM OVC090 07/M01 A2992 860 57 200 000/00 RMK AO2
14837KMSN MSN20050429223509604/29/05 22:35:31  5-MIN KMSN 300435Z 00000KT 10SM OVC090 07/M01 A2992 860 57 200 000/00 RMK AO2
14837KMSN MSN20050429224009604/29/05 22:40:31  5-MIN KMSN 300440Z 00000KT 10SM OVC090 07/M01 A2992 860 60 100 000/00 RMK AO2
14837KMSN MSN20050429224509604/29/05 22:45:31  5-MIN KMSN 300445Z 00000KT 10SM OVC090 07/M01 A2992 860 57 100 000/00 RMK AO2
14837KMSN MSN20050429225011304/29/05 22:50:31  5-MIN KMSN 300450Z 00000KT 10SM OVC095 07/M01 A2992 860 57 100 000/00 RMK AO2 SLP136 T00671011
14837KMSN MSN20050429225509604/29/05 22:55:31  5-MIN KMSN 300455Z 00000KT 10SM OVC090 07/M02 A2992 860 55 100 000/00 RMK AO2
14837KMSN MSN20050429230009404/29/05 23:00:31  5-MIN KMSN 300500Z 00000KT 10SM OVC095 06/M01 A2992 860 60 0 000/00 RMK AO2
14837KMSN MSN20050429230509404/29/05 23:05:31  5-MIN KMSN 300505Z 00000KT 10SM OVC090 06/M01 A2992 860 60 0 000/00 RMK AO2
14837KMSN MSN20050429231009404/29/05 23:10:31  5-MIN KMSN 300510Z 00000KT 10SM OVC090 06/M02 A2992 860 55 0 000/00 RMK AO2
14837KMSN MSN20050429231509404/29/05 23:15:31  5-MIN KMSN 300515Z 00000KT 10SM OVC095 06/M02 A2992 860 59 0 000/00 RMK AO2
14837KMSN MSN20050429232009404/29/05 23:20:31  5-MIN KMSN 300520Z 00000KT 10SM OVC090 06/M01 A2992 860 62 0 000/00 RMK AO2
14837KMSN MSN20050429232509404/29/05 23:25:31  5-MIN KMSN 300525Z 00000KT 10SM OVC095 06/M02 A2992 860 59 0 000/00 RMK AO2
14837KMSN MSN20050429233009404/29/05 23:30:31  5-MIN KMSN 300530Z 00000KT 10SM OVC095 06/M02 A2993 860 57 0 000/00 RMK AO2
14837KMSN MSN20050429233509404/29/05 23:35:31  5-MIN KMSN 300535Z 00000KT 10SM OVC090 06/M02 A2992 860 57 0 000/00 RMK AO2
14837KMSN MSN20050429234009404/29/05 23:40:31  5-MIN KMSN 300540Z 00000KT 10SM OVC090 06/M01 A2993 860 62 0 000/00 RMK AO2
14837KMSN MSN20050429234509404/29/05 23:45:31  5-MIN KMSN 300545Z 19003KT 10SM OVC090 06/M01 A2992 860 60 0 190/03 RMK AO2
14837KMSN MSN20050429235013904/29/05 23:50:31  5-MIN KMSN 300550Z 00000KT 10SM SCT090 05/M01 A2992 860 64 0 000/00 RMK AO2 SLP137 T00501011 10106 20044 401221011 53010
14837KMSN MSN20050429235509404/29/05 23:55:31  5-MIN KMSN 300555Z 00000KT 10SM BKN090 06/M02 A2992 860 59 0 000/00 RMK AO2
14837KMSN MSN20050430000009404/30/05 00:00:38  5-MIN KMSN 300600Z 00000KT 10SM BKN090 05/M02 A2992 860 62 0 000/00 RMK AO2
14837KMSN MSN20050430000509704/30/05 00:05:31  5-MIN KMSN 300605Z 00000KT 10SM BKN090 04/M01 A2993 860 67 -100 000/00 RMK AO2
14837KMSN MSN20050430001009704/30/05 00:10:31  5-MIN KMSN 300610Z 00000KT 10SM BKN090 04/M01 A2992 860 73 -200 000/00 RMK AO2
14837KMSN MSN20050430001509704/30/05 00:15:31  5-MIN KMSN 300615Z 00000KT 10SM OVC090 04/M01 A2992 860 67 -100 000/00 RMK AO2
14837KMSN MSN20050430002009704/30/05 00:20:31  5-MIN KMSN 300620Z 00000KT 10SM BKN090 04/M01 A2992 860 67 -100 000/00 RMK AO2
14837KMSN MSN20050430002509704/30/05 00:25:31  5-MIN KMSN 300625Z 00000KT 10SM BKN090 04/M02 A2992 860 64 -100 000/00 RMK AO2
14837KMSN MSN20050430003009704/30/05 00:30:31  5-MIN KMSN 300630Z 00000KT 10SM SCT090 04/M02 A2992 860 67 -200 000/00 RMK AO2
14837KMSN MSN20050430003509704/30/05 00:35:31  5-MIN KMSN 300635Z 00000KT 10SM SCT090 04/M02 A2992 860 67 -200 000/00 RMK AO2
14837KMSN MSN20050430004009704/30/05 00:40:31  5-MIN KMSN 300640Z 00000KT 10SM FEW090 04/M02 A2992 860 64 -100 000/00 RMK AO2
14837KMSN MSN20050430004509404/30/05 00:45:31  5-MIN KMSN 300645Z 00000KT 10SM CLR 04/M02 A2992 870 64 -100 000/00 RMK AO2
14837KMSN MSN20050430005011404/30/05 00:50:31  5-MIN KMSN 300650Z 00000KT 10SM FEW090 04/M02 A2992 860 67 -200 000/00 RMK AO2 SLP136 T00391017
14837KMSN MSN20050430005509404/30/05 00:55:31  5-MIN KMSN 300655Z 00000KT 10SM CLR 03/M02 A2992 870 67 -300 000/00 RMK AO2
14837KMSN MSN20050430010009404/30/05 01:00:31  5-MIN KMSN 300700Z 00000KT 10SM CLR 04/M02 A2992 860 67 -200 000/00 RMK AO2
14837KMSN MSN20050430010509404/30/05 01:05:31  5-MIN KMSN 300705Z 00000KT 10SM CLR 03/M01 A2992 870 72 -200 000/00 RMK AO2
14837KMSN MSN20050430011009704/30/05 01:10:31  5-MIN KMSN 300710Z 00000KT 10SM FEW070 03/M02 A2992 870 69 -300 000/00 RMK AO2
14837KMSN MSN20050430011509704/30/05 01:15:31  5-MIN KMSN 300715Z 00000KT 10SM FEW070 03/M02 A2992 870 69 -300 000/00 RMK AO2
14837KMSN MSN20050430012009704/30/05 01:20:31  5-MIN KMSN 300720Z 00000KT 10SM FEW070 03/M02 A2992 870 69 -300 000/00 RMK AO2
14837KMSN MSN20050430012509704/30/05 01:25:31  5-MIN KMSN 300725Z 00000KT 10SM FEW070 03/M03 A2992 870 67 -300 000/00 RMK AO2
14837KMSN MSN20050430013009704/30/05 01:30:31  5-MIN KMSN 300730Z 00000KT 10SM FEW070 02/M02 A2992 870 72 -400 000/00 RMK AO2
14837KMSN MSN20050430013509704/30/05 01:35:31  5-MIN KMSN 300735Z 00000KT 9SM FEW070 03/M02 A2992 870  72 -300 000/00 RMK AO2
14837KMSN MSN20050430014009704/30/05 01:40:31  5-MIN KMSN 300740Z 00000KT 9SM FEW070 03/M01 A2992 870  75 -300 000/00 RMK AO2
14837KMSN MSN20050430014509404/30/05 01:45:31  5-MIN KMSN 300745Z 00000KT 9SM CLR 03/M01 A2992 870 79  -300 000/00 RMK AO2
14837KMSN MSN20050430015011404/30/05 01:50:31  5-MIN KMSN 300750Z 00000KT 8SM FEW070 02/M01 A2992 870  82 -400 000/00 RMK AO2 SLP135 T00221006
14837KMSN MSN20050430015509404/30/05 01:55:31  5-MIN KMSN 300755Z 00000KT 8SM CLR 02/M01 A2992 870 78  -400 000/00 RMK AO2
14837KMSN MSN20050430020009404/30/05 02:00:31  5-MIN KMSN 300800Z 00000KT 8SM CLR 02/M02 A2991 870 78  -500 000/00 RMK AO2
14837KMSN MSN20050430020509404/30/05 02:05:31  5-MIN KMSN 300805Z 00000KT 8SM CLR 02/M02 A2992 870 72  -400 000/00 RMK AO2
14837KMSN MSN20050430021009404/30/05 02:10:31  5-MIN KMSN 300810Z 00000KT 9SM CLR 02/M02 A2992 870 72  -400 000/00 RMK AO2
14837KMSN MSN20050430021509404/30/05 02:15:31  5-MIN KMSN 300815Z 00000KT 9SM CLR 02/M02 A2991 870 78  -500 000/00 RMK AO2
14837KMSN MSN20050430022009404/30/05 02:20:31  5-MIN KMSN 300820Z 00000KT 8SM CLR 01/M02 A2992 870 78  -500 000/00 RMK AO2
14837KMSN MSN20050430022509404/30/05 02:25:31  5-MIN KMSN 300825Z 00000KT 8SM CLR 01/M02 A2992 870 82  -500 000/00 RMK AO2
14837KMSN MSN20050430023009404/30/05 02:30:31  5-MIN KMSN 300830Z 00000KT 8SM CLR 01/M02 A2992 870 78  -500 000/00 RMK AO2
14837KMSN MSN20050430023509404/30/05 02:35:31  5-MIN KMSN 300835Z 00000KT 8SM CLR 01/M02 A2992 870 78  -500 000/00 RMK AO2
14837KMSN MSN20050430024009404/30/05 02:40:31  5-MIN KMSN 300840Z 00000KT 8SM CLR 01/M02 A2992 870 78  -500 000/00 RMK AO2
14837KMSN MSN20050430024509404/30/05 02:45:31  5-MIN KMSN 300845Z 00000KT 8SM CLR 02/M02 A2992 870 78  -500 000/00 RMK AO2
14837KMSN MSN20050430025011704/30/05 02:50:31  5-MIN KMSN 300850Z 00000KT 7SM CLR 02/M02 A2992 860 78  -500 000/00 RMK AO2 SLP138 T00171017 55001
14837KMSN MSN20050430025509404/30/05 02:55:31  5-MIN KMSN 300855Z 00000KT 8SM CLR 02/M02 A2992 860 75  -500 000/00 RMK AO2
14837KMSN MSN20050430030009404/30/05 03:00:31  5-MIN KMSN 300900Z 00000KT 8SM CLR 01/M02 A2992 860 78  -500 000/00 RMK AO2
14837KMSN MSN20050430030509404/30/05 03:05:31  5-MIN KMSN 300905Z 00000KT 7SM CLR 01/M02 A2992 860 85  -600 000/00 RMK AO2
14837KMSN MSN20050430031009404/30/05 03:10:31  5-MIN KMSN 300910Z 00000KT 7SM CLR 01/M02 A2992 860 82  -500 000/00 RMK AO2
14837KMSN MSN20050430031509404/30/05 03:15:31  5-MIN KMSN 300915Z 00000KT 7SM CLR 01/M02 A2992 860 82  -500 000/00 RMK AO2
14837KMSN MSN20050430032009404/30/05 03:20:31  5-MIN KMSN 300920Z 00000KT 8SM CLR 01/M02 A2992 860 78  -500 000/00 RMK AO2
14837KMSN MSN20050430032509404/30/05 03:25:31  5-MIN KMSN 300925Z 00000KT 8SM CLR 01/M03 A2992 860 78  -600 000/00 RMK AO2
14837KMSN MSN20050430033009404/30/05 03:30:31  5-MIN KMSN 300930Z 00000KT 8SM CLR 01/M03 A2992 860 78  -600 000/00 RMK AO2
14837KMSN MSN20050430033509404/30/05 03:35:31  5-MIN KMSN 300935Z 00000KT 8SM CLR 01/M03 A2993 860 78  -600 000/00 RMK AO2
14837KMSN MSN20050430034009404/30/05 03:40:31  5-MIN KMSN 300940Z 00000KT 8SM CLR 00/M03 A2993 860 81  -700 000/00 RMK AO2
14837KMSN MSN20050430034509404/30/05 03:45:31  5-MIN KMSN 300945Z 00000KT 8SM CLR 00/M03 A2993 860 81  -700 000/00 RMK AO2
14837KMSN MSN20050430035011104/30/05 03:50:31  5-MIN KMSN 300950Z 00000KT 8SM CLR 01/M03 A2993 860 78  -600 000/00 RMK AO2 SLP140 T00061028
14837KMSN MSN20050430035509404/30/05 03:55:31  5-MIN KMSN 300955Z 00000KT 8SM CLR 01/M03 A2993 860 78  -600 000/00 RMK AO2
14837KMSN MSN20050430040009404/30/05 04:00:31  5-MIN KMSN 301000Z 00000KT 8SM CLR 01/M03 A2993 860 78  -600 000/00 RMK AO2
14837KMSN MSN20050430040509404/30/05 04:05:31  5-MIN KMSN 301005Z 00000KT 7SM CLR 00/M03 A2993 860 81  -700 000/00 RMK AO2
14837KMSN MSN20050430041009404/30/05 04:10:31  5-MIN KMSN 301010Z 00000KT 7SM CLR 00/M03 A2993 860 81  -700 000/00 RMK AO2
14837KMSN MSN20050430041509404/30/05 04:15:31  5-MIN KMSN 301015Z 00000KT 7SM CLR 00/M03 A2993 860 81  -700 000/00 RMK AO2
14837KMSN MSN20050430042009404/30/05 04:20:31  5-MIN KMSN 301020Z 00000KT 7SM CLR M01/M03 A2993 860 85 -700 000/00 RMK AO2
14837KMSN MSN20050430042509404/30/05 04:25:31  5-MIN KMSN 301025Z 00000KT 7SM CLR M01/M03 A2993 860 85 -700 000/00 RMK AO2
14837KMSN MSN20050430043009404/30/05 04:30:31  5-MIN KMSN 301030Z 00000KT 7SM CLR M01/M03 A2993 860 85 -700 000/00 RMK AO2
14837KMSN MSN20050430043509404/30/05 04:35:31  5-MIN KMSN 301035Z 00000KT 7SM CLR M01/M03 A2993 860 85 -700 000/00 RMK AO2
14837KMSN MSN20050430044009404/30/05 04:40:31  5-MIN KMSN 301040Z 00000KT 7SM CLR M01/M02 A2993 860 88 -700 000/00 RMK AO2
14837KMSN MSN20050430044509404/30/05 04:45:31  5-MIN KMSN 301045Z 00000KT 8SM CLR M01/M03 A2993 860 85 -800 000/00 RMK AO2
14837KMSN MSN20050430045011104/30/05 04:50:31  5-MIN KMSN 301050Z 00000KT 8SM CLR M01/M04 A2993 860 78 -700 000/00 RMK AO2 SLP142 T10061039
14837KMSN MSN20050430045509404/30/05 04:55:31  5-MIN KMSN 301055Z 00000KT 7SM CLR M01/M04 A2993 850 81 -800 000/00 RMK AO2
14837KMSN MSN20050430050009404/30/05 05:00:31  5-MIN KMSN 301100Z 00000KT 7SM CLR M01/M04 A2993 850 81 -800 000/00 RMK AO2
14837KMSN MSN20050430050509704/30/05 05:05:31  5-MIN KMSN 301105Z 00000KT 6SM BR CLR M01/M03 A2993 850 85 -800 000/00 RMK AO2
14837KMSN MSN20050430051009704/30/05 05:10:31  5-MIN KMSN 301110Z 00000KT 6SM BR CLR M01/M03 A2993 850 85 -700 000/00 RMK AO2
14837KMSN MSN20050430051509704/30/05 05:15:31  5-MIN KMSN 301115Z 00000KT 6SM BR CLR M01/M03 A2993 850 85 -800 000/00 RMK AO2
14837KMSN MSN20050430052009704/30/05 05:20:31  5-MIN KMSN 301120Z 00000KT 6SM HZ CLR 00/M03 A2993 850  81 -700 000/00 RMK AO2
14837KMSN MSN20050430052509704/30/05 05:25:31  5-MIN KMSN 301125Z 00000KT 6SM BR CLR M01/M02 A2993 850 88 -800 000/00 RMK AO2
14837KMSN MSN20050430053009704/30/05 05:30:31  5-MIN KMSN 301130Z 00000KT 6SM BR CLR M01/M02 A2993 850 88 -800 000/00 RMK AO2
14837KMSN MSN20050430053509704/30/05 05:35:31  5-MIN KMSN 301135Z 00000KT 6SM BR CLR M01/M03 A2993 850 85 -800 000/00 RMK AO2
14837KMSN MSN20050430054009404/30/05 05:40:31  5-MIN KMSN 301140Z 00000KT 7SM CLR 00/M03 A2993 850 78  -700 000/00 RMK AO2
14837KMSN MSN20050430054509404/30/05 05:45:31  5-MIN KMSN 301145Z 00000KT 7SM CLR 00/M03 A2993 850 78  -700 000/00 RMK AO2
14837KMSN MSN20050430055012904/30/05 05:50:31  5-MIN KMSN 301150Z 00000KT 7SM CLR 01/M03 A2993 850 72  -500 000/00 RMK AO2 SLP142 T00111033 10056 21011 55000
14837KMSN MSN20050430055509404/30/05 05:55:31  5-MIN KMSN 301155Z 00000KT 8SM CLR 02/M03 A2993 850 72  -500 000/00 RMK AO2
14837KMSN MSN20050430060009404/30/05 06:00:31  5-MIN KMSN 301200Z 00000KT 8SM CLR 01/M03 A2994 850 78  -600 000/00 RMK AO2
14837KMSN MSN20050430060509404/30/05 06:05:31  5-MIN KMSN 301205Z 00000KT 7SM CLR 01/M02 A2994 850 78  -500 000/00 RMK AO2
14837KMSN MSN20050430061009404/30/05 06:10:31  5-MIN KMSN 301210Z 00000KT 8SM CLR 02/M02 A2994 850 72  -400 000/00 RMK AO2
14837KMSN MSN20050430061509404/30/05 06:15:31  5-MIN KMSN 301215Z 00000KT 8SM CLR 03/M01 A2994 850 75  -300 000/00 RMK AO2
14837KMSN MSN20050430062009404/30/05 06:20:31  5-MIN KMSN 301220Z 29004KT 9SM CLR 03/M02 A2994 850 67  -300 290/04 RMK AO2
14837KMSN MSN20050430062509404/30/05 06:25:31  5-MIN KMSN 301225Z VRB03KT 10SM CLR 03/M03 A2994 850 64 -300 VRB/03 RMK AO2
14837KMSN MSN20050430063009404/30/05 06:30:31  5-MIN KMSN 301230Z 27004KT 10SM CLR 04/M03 A2994 850 62 -200 260/04 RMK AO2
14837KMSN MSN20050430063509404/30/05 06:35:31  5-MIN KMSN 301235Z 26004KT 10SM CLR 04/M03 A2994 850 62 -200 260/04 RMK AO2
14837KMSN MSN20050430064009404/30/05 06:40:31  5-MIN KMSN 301240Z 28003KT 10SM CLR 04/M02 A2994 850 64 -200 280/03 RMK AO2
14837KMSN MSN20050430064509404/30/05 06:45:31  5-MIN KMSN 301245Z 26003KT 10SM CLR 04/M02 A2994 850 62 -100 260/03 RMK AO2
14837KMSN MSN20050430065011104/30/05 06:50:31  5-MIN KMSN 301250Z 26004KT 10SM CLR 04/M02 A2994 850 62 -100 260/04 RMK AO2 SLP143 T00441022
14837KMSN MSN20050430065509404/30/05 06:55:31  5-MIN KMSN 301255Z 27003KT 10SM CLR 05/M02 A2994 850 59 -100 270/03 RMK AO2
14837KMSN MSN20050430070009104/30/05 07:00:31  5-MIN KMSN 301300Z 26003KT 10SM CLR 06/M02 A2994 850 57 0 260/03 RMK AO2
14837KMSN MSN20050430070509104/30/05 07:05:31  5-MIN KMSN 301305Z 30003KT 10SM CLR 06/M02 A2994 850 57 0 300/03 RMK AO2
14837KMSN MSN20050430071009104/30/05 07:10:31  5-MIN KMSN 301310Z 30005KT 10SM CLR 06/M02 A2994 850 57 0 300/05 RMK AO2
14837KMSN MSN20050430071509104/30/05 07:15:31  5-MIN KMSN 301315Z 31005KT 10SM CLR 06/M02 A2994 850 57 0 310/05 RMK AO2
14837KMSN MSN20050430072009304/30/05 07:20:31  5-MIN KMSN 301320Z 31004KT 10SM CLR 07/M01 A2994 850 57 100 310/04 RMK AO2
14837KMSN MSN20050430072509304/30/05 07:25:31  5-MIN KMSN 301325Z 31004KT 10SM CLR 07/M02 A2994 850 53 200 310/04 RMK AO2
14837KMSN MSN20050430073009304/30/05 07:30:31  5-MIN KMSN 301330Z 28004KT 10SM CLR 07/M01 A2994 840 55 100 280/04 RMK AO2
14837KMSN MSN20050430073509304/30/05 07:35:31  5-MIN KMSN 301335Z VRB04KT 10SM CLR 07/M01 A2994 840 55 100 VRB/04 RMK AO2
14837KMSN MSN20050430074009304/30/05 07:40:31  5-MIN KMSN 301340Z 27005KT 10SM CLR 08/M02 A2995 840 51 200 270/05 RMK AO2
14837KMSN MSN20050430074509304/30/05 07:45:31  5-MIN KMSN 301345Z VRB05KT 10SM CLR 07/M02 A2994 840 53 100 VRB/05 RMK AO2
14837KMSN MSN20050430075011004/30/05 07:50:31  5-MIN KMSN 301350Z VRB03KT 10SM CLR 08/M02 A2994 850 51 200 VRB/03 RMK AO2 SLP143 T00781017
14837KMSN MSN20050430075509304/30/05 07:55:31  5-MIN KMSN 301355Z 31007KT 10SM CLR 08/M01 A2994 840 51 300 310/07 RMK AO2
14837KMSN MSN20050430080009304/30/05 08:00:31  5-MIN KMSN 301400Z VRB05KT 10SM CLR 08/M02 A2994 850 49 300 VRB/05 RMK AO2
14837KMSN MSN20050430080509304/30/05 08:05:31  5-MIN KMSN 301405Z VRB06KT 10SM CLR 09/M02 A2994 850 47 400 VRB/06 RMK AO2
14837KMSN MSN20050430081009304/30/05 08:10:31  5-MIN KMSN 301410Z 28006KT 10SM CLR 08/M03 A2994 850 45 300 280/06 RMK AO2
14837KMSN MSN20050430081509304/30/05 08:15:31  5-MIN KMSN 301415Z 24006KT 10SM CLR 09/M02 A2994 840 45 400 240/06 RMK AO2
14837KMSN MSN20050430082009304/30/05 08:20:31  5-MIN KMSN 301420Z 25008KT 10SM CLR 09/M03 A2994 840 42 400 250/08 RMK AO2
14837KMSN MSN20050430082509304/30/05 08:25:31  5-MIN KMSN 301425Z 30007KT 10SM CLR 09/M04 A2994 840 40 400 300/07 RMK AO2
14837KMSN MSN20050430083009304/30/05 08:30:31  5-MIN KMSN 301430Z 28007KT 10SM CLR 09/M03 A2994 840 42 400 280/07 RMK AO2
14837KMSN MSN20050430083509304/30/05 08:35:31  5-MIN KMSN 301435Z 27009KT 10SM CLR 09/M04 A2994 850 40 400 270/09 RMK AO2
14837KMSN MSN20050430084009304/30/05 08:40:31  5-MIN KMSN 301440Z 30007KT 10SM CLR 09/M03 A2994 840 40 400 290/07 RMK AO2
14837KMSN MSN20050430084510904/30/05 08:45:31  5-MIN KMSN 301445Z 28008KT 240V320 10SM CLR 09/M03 A2994 850 40 400 280/08 240V320 RMK AO2
14837KMSN MSN20050430085011904/30/05 08:50:31  5-MIN KMSN 301450Z 30010KT 10SM FEW040 10/M03 A2994 850 40 500 300/10 RMK AO2 SLP142 T01001028 51003
14837KMSN MSN20050430085511604/30/05 08:55:31  5-MIN KMSN 301455Z 27008G15KT 230V310 10SM CLR 09/M03  A2994 850 40 400 270/08G15 230V310 RMK AO2
14837KMSN MSN20050430090009604/30/05 09:00:31  5-MIN KMSN 301500Z 28007KT 10SM FEW040 10/M04 A2994 850 37 500 280/07 RMK AO2
14837KMSN MSN20050430090509604/30/05 09:05:31  5-MIN KMSN 301505Z 29009KT 10SM FEW040 10/M05 A2994 850 34 500 290/09 RMK AO2
14837KMSN MSN20050430091010304/30/05 09:10:31  5-MIN KMSN 301510Z 27009G15KT 10SM FEW040 09/M05 A2994  850 35 400 270/09G15 RMK AO2
14837KMSN MSN20050430091511804/30/05 09:15:31  5-MIN KMSN 301515Z 27008G15KT 240V300 10SM FEW040 10/M06 A2994 850 31 500 260/08G15 240V300 RMK AO2
14837KMSN MSN20050430092010304/30/05 09:20:31  5-MIN KMSN 301520Z 27009G14KT 10SM FEW040 10/M06 A2994  850 31 500 270/09G14 RMK AO2
14837KMSN MSN20050430092509604/30/05 09:25:31  5-MIN KMSN 301525Z 28010KT 10SM FEW040 11/M06 A2993 850 31 600 280/10 RMK AO2
14837KMSN MSN20050430093010304/30/05 09:30:31  5-MIN KMSN 301530Z 27012G16KT 10SM FEW040 10/M06 A2994  850 31 500 260/12G16 RMK AO2
14837KMSN MSN20050430093510304/30/05 09:35:31  5-MIN KMSN 301535Z 29011G16KT 10SM FEW040 09/M07 A2994  850 30 400 290/11G16 RMK AO2
14837KMSN MSN20050430094010304/30/05 09:40:31  5-MIN KMSN 301540Z 27010G15KT 10SM FEW040 09/M08 A2994  850 29 400 270/10G15 RMK AO2
14837KMSN MSN20050430094510304/30/05 09:45:31  5-MIN KMSN 301545Z 29010G17KT 10SM SCT060 09/M08 A2994  850 29 400 290/10G17 RMK AO2
14837KMSN MSN20050430095013504/30/05 09:50:31  5-MIN KMSN 301550Z 27009G17KT 220V300 10SM SCT060 11/M07 A2994 850 29 600 260/09G17 220V300 RMK AO2 SLP142 T01061067
14837KMSN MSN20050430095511304/30/05 09:55:31  5-MIN KMSN 301555Z 27007KT 220V300 10SM OVC080 09/M08  A2994 850 29 400 270/07 220V300 RMK AO2
14837KMSN MSN20050430100011304/30/05 10:00:31  5-MIN KMSN 301600Z 26009KT 220V330 10SM OVC080 11/M07  A2994 850 28 600 260/09 220V330 RMK AO2
14837KMSN MSN20050430100511804/30/05 10:05:31  5-MIN KMSN 301605Z 28008G16KT 240V300 10SM OVC080 10/M08 A2994 850 26 500 280/08G16 240V300 RMK AO2
14837KMSN MSN20050430101010304/30/05 10:10:31  5-MIN KMSN 301610Z 26010G16KT 10SM OVC075 09/M08 A2994  850 27 400 260/10G16 RMK AO2
14837KMSN MSN20050430101510304/30/05 10:15:31  5-MIN KMSN 301615Z 26007G15KT 10SM OVC075 09/M08 A2994  850 27 400 260/07G15 RMK AO2
14837KMSN MSN20050430102010304/30/05 10:20:31  5-MIN KMSN 301620Z 27010G16KT 10SM OVC075 09/M08 A2994  840 29 400 270/10G16 RMK AO2
14837KMSN MSN20050430102510304/30/05 10:25:31  5-MIN KMSN 301625Z 29011G16KT 10SM BKN075 09/M08 A2994  840 29 400 290/11G16 RMK AO2
14837KMSN MSN20050430103010304/30/05 10:30:31  5-MIN KMSN 301630Z 29010G16KT 10SM BKN070 09/M08 A2995  840 29 400 290/10G16 RMK AO2
14837KMSN MSN20050430103511804/30/05 10:35:31  5-MIN KMSN 301635Z 29009G15KT 250V320 10SM SCT075 09/M07 A2994 840 30 400 290/09G15 250V320 RMK AO2
14837KMSN MSN20050430104009604/30/05 10:40:31  5-MIN KMSN 301640Z 31009KT 10SM SCT075 10/M07 A2994 840 29 500 310/09 RMK AO2
14837KMSN MSN20050430104510404/30/05 10:45:31  5-MIN KMSN 301645Z 28009KT 10SM BKN080 BKN095 11/M08  A2994 840 27 600 280/09 RMK AO2
14837KMSN MSN20050430105012704/30/05 10:50:31  5-MIN KMSN 301650Z 30010KT 10SM FEW065 BKN080 10/M09  A2994 850 25 500 300/10 RMK AO2 SLP143 VIRGA T01001089
14837KMSN MSN20050430105510304/30/05 10:55:31  5-MIN KMSN 301655Z 29008G14KT 10SM BKN080 10/M08 A2994  850 28 500 280/08G14 RMK AO2
14837KMSN MSN20050430110009604/30/05 11:00:31  5-MIN KMSN 301700Z 30013KT 10SM BKN080 09/M08 A2994 850 27 400 300/13 RMK AO2
14837KMSN MSN20050430110510304/30/05 11:05:31  5-MIN KMSN 301705Z 28012G17KT 10SM BKN080 09/M08 A2994  850 29 400 280/12G17 RMK AO2
14837KMSN MSN20050430111010304/30/05 11:10:31  5-MIN KMSN 301710Z 28008G17KT 10SM BKN080 09/M07 A2994  850 30 400 280/08G17 RMK AO2
14837KMSN MSN20050430111510304/30/05 11:15:31  5-MIN KMSN 301715Z 27009G15KT 10SM SCT080 09/M08 A2994  850 29 400 270/09G15 RMK AO2
14837KMSN MSN20050430112009604/30/05 11:20:31  5-MIN KMSN 301720Z 29009KT 10SM SCT080 10/M07 A2993 850 30 500 290/09 RMK AO2
14837KMSN MSN20050430112509604/30/05 11:25:31  5-MIN KMSN 301725Z 28008KT 10SM SCT075 10/M08 A2993 850 28 500 280/08 RMK AO2
14837KMSN MSN20050430113010304/30/05 11:30:31  5-MIN KMSN 301730Z 27010G17KT 10SM SCT070 09/M07 A2993  850 30 400 270/10G17 RMK AO2
14837KMSN MSN20050430113510304/30/05 11:35:31  5-MIN KMSN 301735Z 29009G17KT 10SM FEW070 09/M07 A2993  850 30 400 290/09G17 RMK AO2
14837KMSN MSN20050430114010304/30/05 11:40:31  5-MIN KMSN 301740Z 28008G16KT 10SM FEW075 09/M07 A2993  850 30 400 280/08G16 RMK AO2
14837KMSN MSN20050430114509604/30/05 11:45:31  5-MIN KMSN 301745Z 29005KT 10SM FEW070 09/M07 A2993 860 30 400 290/05 RMK AO2
14837KMSN MSN20050430115013104/30/05 11:50:31  5-MIN KMSN 301750Z 27009KT 10SM SCT075 10/M07 A2992 860 30 500 270/09 RMK AO2 SLP138 T01001067 10106 20006 50002
14837KMSN MSN20050430115511804/30/05 11:55:31  5-MIN KMSN 301755Z 28008G14KT 250V320 10SM SCT070 09/M07 A2992 860 31 400 280/08G14 250V320 RMK AO2
14837KMSN MSN20050430120011804/30/05 12:00:31  5-MIN KMSN 301800Z 27009G14KT 240V300 10SM SCT070 09/M07 A2993 860 31 400 270/09G14 240V300 RMK AO2
14837KMSN MSN20050430120511804/30/05 12:05:31  5-MIN KMSN 301805Z 27010G15KT 240V310 10SM FEW070 09/M06 A2992 860 33 400 270/10G15 240V310 RMK AO2
14837KMSN MSN20050430121010304/30/05 12:10:31  5-MIN KMSN 301810Z VRB06G15KT 10SM FEW070 10/M07 A2992  860 30 500 VRB/06G15 RMK AO2
14837KMSN MSN20050430121510304/30/05 12:15:31  5-MIN KMSN 301815Z 27009G15KT 10SM FEW070 10/M06 A2992  860 31 500 270/09G15 RMK AO2
14837KMSN MSN20050430122011804/30/05 12:20:31  5-MIN KMSN 301820Z 27008G15KT 210V320 10SM FEW070 11/M04 A2992 870 33 600 270/08G15 210V320 RMK AO2
14837KMSN MSN20050430122509604/30/05 12:25:31  5-MIN KMSN 301825Z VRB06KT 10SM SCT070 11/M06 A2992 870 30 600 VRB/06 RMK AO2
14837KMSN MSN20050430123010404/30/05 12:30:31  5-MIN KMSN 301830Z VRB05KT 10SM SCT070 SCT090 11/M06  A2992 870 31 600 VRB/05 RMK AO2
14837KMSN MSN20050430123510404/30/05 12:35:31  5-MIN KMSN 301835Z 29010KT 10SM SCT070 SCT090 10/M07  A2992 870 30 500 290/10 RMK AO2
14837KMSN MSN20050430124009604/30/05 12:40:31  5-MIN KMSN 301840Z 26007KT 10SM BKN070 09/M07 A2992 870 31 400 260/07 RMK AO2
14837KMSN MSN20050430124509604/30/05 12:45:31  5-MIN KMSN 301845Z 30008KT 10SM BKN070 10/M07 A2992 870 30 500 300/08 RMK AO2
14837KMSN MSN20050430125014404/30/05 12:50:31  5-MIN KMSN 301850Z 27010KT 220V300 10SM FEW049 SCT055  BKN070 09/M07 A2992 860 30 400 270/10 220V300 RMK AO2 SLP138 T00941072
14837KMSN MSN20050430125510904/30/05 12:55:31  5-MIN KMSN 301855Z 27009G14KT 10SM BKN049 BKN075 09/M07 A2992 860 30 400 260/09G14 RMK AO2
14837KMSN MSN20050430130010904/30/05 13:00:31  5-MIN KMSN 301900Z 22009G16KT 10SM SCT049 BKN070 10/M06 A2992 860 31 500 210/09G16 RMK AO2
14837KMSN MSN20050430130510904/30/05 13:05:31  5-MIN KMSN 301905Z 23009G16KT 10SM SCT060 BKN075 09/M06 A2992 860 34 400 230/09G16 RMK AO2
14837KMSN MSN20050430131012504/30/05 13:10:31  5-MIN KMSN 301910Z 19007G14KT 160V220 10SM SCT055 BKN075 09/M06 A2992 860 34 400 190/07G14 160V220 RMK AO2
14837KMSN MSN20050430131510404/30/05 13:15:31  5-MIN KMSN 301915Z VRB06KT 10SM SCT055 SCT080 11/M05  A2992 870 33 600 VRB/06 RMK AO2
14837KMSN MSN20050430132012004/30/05 13:20:31  5-MIN KMSN 301920Z 19007KT 150V220 10SM FEW060 SCT080  11/M06 A2991 870 30 600 190/07 150V220 RMK AO2
14837KMSN MSN20050430132509604/30/05 13:25:31  5-MIN KMSN 301925Z 25008KT 10SM SCT075 10/M06 A2992 870 31 500 250/08 RMK AO2
14837KMSN MSN20050430133011304/30/05 13:30:31  5-MIN KMSN 301930Z 26007KT 220V310 10SM BKN075 10/M06  A2992 870 31 500 260/07 220V310 RMK AO2
14837KMSN MSN20050430133509604/30/05 13:35:31  5-MIN KMSN 301935Z 28011KT 10SM BKN075 10/M07 A2992 870 30 500 280/11 RMK AO2
