14837KMSN MSN20110601000009906/01/11 00:00:35  5-MIN KMSN 010600Z 27007G16KT 10SM CLR 20/06 A3010 700 40 1500 270/07G16 RMK AO2
14837KMSN MSN20110601000509306/01/11 00:05:31  5-MIN KMSN 010605Z VRB06KT 10SM CLR 19/06 A3010 690 41 1400 VRB/06 RMK AO2
14837KMSN MSN20110601001009306/01/11 00:10:31  5-MIN KMSN 010610Z VRB05KT 10SM CLR 19/06 A3010 690 41 1400 VRB/05 RMK AO2
14837KMSN MSN20110601001509906/01/11 00:15:31  5-MIN KMSN 010615Z VRB05G14KT 10SM CLR 19/06 A3010 700 41 1400 VRB/05G14 RMK AO2
14837KMSN MSN20110601002009906/01/11 00:20:31  5-MIN KMSN 010620Z VRB05G14KT 10SM CLR 19/06 A3010 700 41 1400 VRB/05G14 RMK AO2
14837KMSN MSN20110601002509306/01/11 00:25:31  5-MIN KMSN 010625Z 27007KT 10SM CLR 19/06 A3010 700 41 1400 270/07 RMK AO2
14837KMSN MSN20110601003009306/01/11 00:30:31  5-MIN KMSN 010630Z 28006KT 10SM CLR 19/06 A3010 700 41 1400 280/06 RMK AO2
14837KMSN MSN20110601003509306/01/11 00:35:31  5-MIN KMSN 010635Z VRB05KT 10SM CLR 19/06 A3010 700 41 1400 VRB/05 RMK AO2
14837KMSN MSN20110601004009306/01/11 00:40:31  5-MIN KMSN 010640Z 27008KT 10SM CLR 19/06 A3010 700 43 1400 270/08 RMK AO2
14837KMSN MSN20110601004509906/01/11 00:45:31  5-MIN KMSN 010645Z 27006G17KT 10SM CLR 19/06 A3010 700 43 1400 280/06G17 RMK AO2
14837KMSN MSN20110601005011606/01/11 00:50:31  5-MIN KMSN 010650Z 29008G17KT 10SM CLR 19/07 A3010 700 44 1400 290/08G17 RMK AO2 SLP188 T01890067
14837KMSN MSN20110601005509306/01/11 00:55:31  5-MIN KMSN 010655Z VRB06KT 10SM CLR 19/07 A3010 700 44 1400 VRB/06 RMK AO2
14837KMSN MSN20110601010011506/01/11 01:00:31  5-MIN KMSN 010700Z 28009G17KT 250V320 10SM CLR 19/07 A3010 700 44 1400 280/09G17 250V320 RMK AO2
14837KMSN MSN20110601010511506/01/11 01:05:31  5-MIN KMSN 010705Z 29007G17KT 250V350 10SM CLR 19/07 A3010 700 44 1400 290/07G17 250V350 RMK AO2
14837KMSN MSN20110601011009306/01/11 01:10:31  5-MIN KMSN 010710Z 28008KT 10SM CLR 18/07 A3011 690 46 1300 280/08 RMK AO2
14837KMSN MSN20110601011510906/01/11 01:15:31  5-MIN KMSN 010715Z 28008KT 250V310 10SM CLR 18/07 A3011 690 46 1300 280/08 250V310 RMK AO2
14837KMSN MSN20110601012009906/01/11 01:20:31  5-MIN KMSN 010720Z 29007G14KT 10SM CLR 18/07 A3011 690 46 1300 290/07G14 RMK AO2
14837KMSN MSN20110601012509906/01/11 01:25:31  5-MIN KMSN 010725Z 29010G14KT 10SM CLR 18/07 A3011 690 46 1300 290/10G14 RMK AO2
14837KMSN MSN20110601013009306/01/11 01:30:31  5-MIN KMSN 010730Z 29007KT 10SM CLR 18/07 A3011 690 46 1300 290/07 RMK AO2
14837KMSN MSN20110601013510906/01/11 01:35:31  5-MIN KMSN 010735Z 29007KT 250V310 10SM CLR 18/07 A3011 690 48 1200 290/07 250V310 RMK AO2
14837KMSN MSN20110601014009906/01/11 01:40:31  5-MIN KMSN 010740Z 29007G14KT 10SM CLR 18/07 A3012 680 48 1200 300/07G14 RMK AO2
14837KMSN MSN20110601014509906/01/11 01:45:31  5-MIN KMSN 010745Z 29008G14KT 10SM CLR 18/07 A3012 680 48 1200 290/08G14 RMK AO2
14837KMSN MSN20110601015011606/01/11 01:50:31  5-MIN KMSN 010750Z 29010G17KT 10SM CLR 18/06 A3012 680 46 1200 290/10G17 RMK AO2 SLP194 T01780061
14837KMSN MSN20110601015509906/01/11 01:55:31  5-MIN KMSN 010755Z 29008G17KT 10SM CLR 18/07 A3011 690 48 1200 290/08G17 RMK AO2
14837KMSN MSN20110601020011506/01/11 02:00:31  5-MIN KMSN 010800Z 29010G18KT 250V310 10SM CLR 17/06 A3012 680 47 1100 290/10G18 250V310 RMK AO2
14837KMSN MSN20110601020509906/01/11 02:05:31  5-MIN KMSN 010805Z 29009G18KT 10SM CLR 17/06 A3012 680 47 1100 290/09G18 RMK AO2
14837KMSN MSN20110601021009906/01/11 02:10:31  5-MIN KMSN 010810Z 29012G19KT 10SM CLR 17/06 A3012 680 47 1100 290/12G19 RMK AO2
14837KMSN MSN20110601021509906/01/11 02:15:31  5-MIN KMSN 010815Z 29010G19KT 10SM CLR 17/06 A3012 680 47 1100 290/10G19 RMK AO2
14837KMSN MSN20110601022009906/01/11 02:20:31  5-MIN KMSN 010820Z 29009G17KT 10SM CLR 17/06 A3012 680 47 1100 300/09G17 RMK AO2
14837KMSN MSN20110601022509906/01/11 02:25:31  5-MIN KMSN 010825Z 29007G16KT 10SM CLR 17/07 A3012 680 49 1100 290/07G16 RMK AO2
14837KMSN MSN20110601023009906/01/11 02:30:31  5-MIN KMSN 010830Z 29010G16KT 10SM CLR 17/07 A3012 680 51 1100 300/10G16 RMK AO2
14837KMSN MSN20110601023509906/01/11 02:35:31  5-MIN KMSN 010835Z 29008G16KT 10SM CLR 17/07 A3012 680 51 1100 290/08G16 RMK AO2
14837KMSN MSN20110601024010906/01/11 02:40:31  5-MIN KMSN 010840Z 29008KT 250V310 10SM CLR 17/07 A3012 680 51 1100 290/08 250V310 RMK AO2
14837KMSN MSN20110601024509906/01/11 02:45:31  5-MIN KMSN 010845Z 29009G15KT 10SM CLR 17/07 A3013 680 51 1100 290/09G15 RMK AO2
14837KMSN MSN20110601025012206/01/11 02:50:31  5-MIN KMSN 010850Z 30011G15KT 10SM CLR 16/07 A3012 680 53 1000 300/11G15 RMK AO2 SLP197 T01610067 51018
14837KMSN MSN20110601025509306/01/11 02:55:31  5-MIN KMSN 010855Z 30008KT 10SM CLR 16/07 A3012 680 53 1000 300/08 RMK AO2
14837KMSN MSN20110601030009906/01/11 03:00:31  5-MIN KMSN 010900Z 30008G16KT 10SM CLR 16/07 A3012 680 53 1000 300/08G16 RMK AO2
14837KMSN MSN20110601030509906/01/11 03:05:31  5-MIN KMSN 010905Z 31008G16KT 10SM CLR 16/07 A3012 680 53 1000 310/08G16 RMK AO2
14837KMSN MSN20110601031009906/01/11 03:10:31  5-MIN KMSN 010910Z 31008G14KT 10SM CLR 16/07 A3011 690 53 1000 310/08G14 RMK AO2
14837KMSN MSN20110601031509206/01/11 03:15:31  5-MIN KMSN 010915Z 30008KT 10SM CLR 16/07 A3012 680 55 900 300/08 RMK AO2
14837KMSN MSN20110601032009206/01/11 03:20:31  5-MIN KMSN 010920Z 29006KT 10SM CLR 16/07 A3012 680 55 900 290/06 RMK AO2
14837KMSN MSN20110601032509206/01/11 03:25:31  5-MIN KMSN 010925Z 29007KT 10SM CLR 16/07 A3012 680 55 900 300/07 RMK AO2
14837KMSN MSN20110601033009206/01/11 03:30:31  5-MIN KMSN 010930Z 29006KT 10SM CLR 16/07 A3012 680 55 900 290/06 RMK AO2
14837KMSN MSN20110601033509206/01/11 03:35:31  5-MIN KMSN 010935Z 29004KT 10SM CLR 15/07 A3012 680 57 900 290/04 RMK AO2
14837KMSN MSN20110601034009206/01/11 03:40:31  5-MIN KMSN 010940Z 28007KT 10SM CLR 16/07 A3012 680 55 900 280/07 RMK AO2
14837KMSN MSN20110601034509206/01/11 03:45:31  5-MIN KMSN 010945Z 30006KT 10SM CLR 15/07 A3012 680 57 900 300/06 RMK AO2
14837KMSN MSN20110601035010906/01/11 03:50:31  5-MIN KMSN 010950Z 29006KT 10SM CLR 15/07 A3012 680 57 900 300/06 RMK AO2 SLP196 T01500067
14837KMSN MSN20110601035509206/01/11 03:55:31  5-MIN KMSN 010955Z 30005KT 10SM CLR 15/07 A3012 680 57 900 300/05 RMK AO2
14837KMSN MSN20110601040009206/01/11 04:00:31  5-MIN KMSN 011000Z 29006KT 10SM CLR 15/07 A3012 680 57 900 290/06 RMK AO2
14837KMSN MSN20110601040509206/01/11 04:05:31  5-MIN KMSN 011005Z 28005KT 10SM CLR 15/07 A3013 670 57 900 280/05 RMK AO2
14837KMSN MSN20110601041009206/01/11 04:10:31  5-MIN KMSN 011010Z VRB03KT 10SM CLR 14/07 A3012 680 59 800 VRB/03 RMK AO2
14837KMSN MSN20110601041509206/01/11 04:15:31  5-MIN KMSN 011015Z 29006KT 10SM CLR 14/06 A3012 680 57 800 290/06 RMK AO2
14837KMSN MSN20110601042009206/01/11 04:20:31  5-MIN KMSN 011020Z 29007KT 10SM CLR 14/06 A3012 680 57 800 290/07 RMK AO2
14837KMSN MSN20110601042509206/01/11 04:25:31  5-MIN KMSN 011025Z 29005KT 10SM CLR 14/06 A3012 680 57 800 290/05 RMK AO2
14837KMSN MSN20110601043009206/01/11 04:30:31  5-MIN KMSN 011030Z 28006KT 10SM CLR 14/06 A3012 680 57 800 290/06 RMK AO2
14837KMSN MSN20110601043509206/01/11 04:35:31  5-MIN KMSN 011035Z VRB06KT 10SM CLR 14/06 A3013 670 57 800 VRB/06 RMK AO2
14837KMSN MSN20110601044009206/01/11 04:40:31  5-MIN KMSN 011040Z VRB05KT 10SM CLR 15/06 A3013 670 55 900 VRB/05 RMK AO2
14837KMSN MSN20110601044509206/01/11 04:45:31  5-MIN KMSN 011045Z 28005KT 10SM CLR 15/07 A3013 670 57 900 280/05 RMK AO2
14837KMSN MSN20110601045010906/01/11 04:50:31  5-MIN KMSN 011050Z 27005KT 10SM CLR 14/07 A3013 670 59 800 280/05 RMK AO2 SLP201 T01440067
14837KMSN MSN20110601045509206/01/11 04:55:31  5-MIN KMSN 011055Z 27005KT 10SM CLR 15/07 A3013 670 57 900 270/05 RMK AO2
14837KMSN MSN20110601050009206/01/11 05:00:31  5-MIN KMSN 011100Z VRB06KT 10SM CLR 15/07 A3013 670 57 900 VRB/06 RMK AO2
14837KMSN MSN20110601050509206/01/11 05:05:31  5-MIN KMSN 011105Z 26006KT 10SM CLR 15/07 A3014 660 57 900 260/06 RMK AO2
14837KMSN MSN20110601051009206/01/11 05:10:31  5-MIN KMSN 011110Z 28006KT 10SM CLR 15/07 A3014 660 57 900 280/06 RMK AO2
14837KMSN MSN20110601051509206/01/11 05:15:31  5-MIN KMSN 011115Z 28006KT 10SM CLR 15/07 A3014 660 57 900 290/06 RMK AO2
14837KMSN MSN20110601052009206/01/11 05:20:31  5-MIN KMSN 011120Z 28007KT 10SM CLR 15/07 A3014 660 57 900 280/07 RMK AO2
14837KMSN MSN20110601052509206/01/11 05:25:31  5-MIN KMSN 011125Z 29007KT 10SM CLR 15/07 A3014 660 57 900 290/07 RMK AO2
14837KMSN MSN20110601053009206/01/11 05:30:31  5-MIN KMSN 011130Z 29007KT 10SM CLR 15/07 A3014 660 57 900 290/07 RMK AO2
14837KMSN MSN20110601053509206/01/11 05:35:31  5-MIN KMSN 011135Z 29008KT 10SM CLR 15/07 A3014 660 57 900 290/08 RMK AO2
14837KMSN MSN20110601054009806/01/11 05:40:31  5-MIN KMSN 011140Z 29008G16KT 10SM CLR 15/07 A3015 650 57 800 290/08G16 RMK AO2
14837KMSN MSN20110601054511406/01/11 05:45:31  5-MIN KMSN 011145Z 29007G16KT 240V310 10SM CLR 16/07 A3015 650 55 900 290/07G16 240V310 RMK AO2
14837KMSN MSN20110601055013306/01/11 05:50:31  5-MIN KMSN 011150Z VRB04KT 10SM CLR 16/07 A3015 650 55 900 VRB/04 RMK AO2 SLP207 70001 T01560067 10200 20144 53008
14837KMSN MSN20110601055509206/01/11 05:55:31  5-MIN KMSN 011155Z 29007KT 10SM CLR 16/07 A3015 650 55 900 290/07 RMK AO2
14837KMSN MSN20110601060010806/01/11 06:00:31  5-MIN KMSN 011200Z 28009KT 250V310 10SM CLR 16/07 A3015 650 55 900 280/09 250V310 RMK AO2
14837KMSN MSN20110601060509306/01/11 06:05:31  5-MIN KMSN 011205Z VRB06KT 10SM CLR 16/07 A3016 640 53 1000 VRB/06 RMK AO2
14837KMSN MSN20110601061009906/01/11 06:10:31  5-MIN KMSN 011210Z 29009G14KT 10SM CLR 16/07 A3016 640 53 1000 290/09G14 RMK AO2
14837KMSN MSN20110601061511506/01/11 06:15:31  5-MIN KMSN 011215Z 29008G14KT 270V340 10SM CLR 16/07 A3016 640 53 1000 290/08G14 270V340 RMK AO2
14837KMSN MSN20110601062009906/01/11 06:20:31  5-MIN KMSN 011220Z 29007G14KT 10SM CLR 16/07 A3016 640 53 1000 290/07G14 RMK AO2
14837KMSN MSN20110601062509906/01/11 06:25:31  5-MIN KMSN 011225Z 27008G18KT 10SM CLR 16/07 A3017 640 53 1000 270/08G18 RMK AO2
14837KMSN MSN20110601063009906/01/11 06:30:31  5-MIN KMSN 011230Z 27006G18KT 10SM CLR 16/07 A3016 640 53 1000 270/06G18 RMK AO2
14837KMSN MSN20110601063509906/01/11 06:35:31  5-MIN KMSN 011235Z 28010G16KT 10SM CLR 17/07 A3017 640 51 1000 280/10G16 RMK AO2
14837KMSN MSN20110601064009906/01/11 06:40:31  5-MIN KMSN 011240Z VRB06G16KT 10SM CLR 17/07 A3017 640 51 1000 VRB/06G16 RMK AO2
14837KMSN MSN20110601064509306/01/11 06:45:31  5-MIN KMSN 011245Z 28006KT 10SM CLR 17/07 A3017 640 51 1000 280/06 RMK AO2
14837KMSN MSN20110601065011606/01/11 06:50:31  5-MIN KMSN 011250Z VRB06G17KT 10SM CLR 17/06 A3017 640 49 1000 VRB/06G17 RMK AO2 SLP211 T01670061
14837KMSN MSN20110601065509906/01/11 06:55:31  5-MIN KMSN 011255Z 28009G17KT 10SM CLR 17/07 A3017 640 51 1000 280/09G17 RMK AO2
14837KMSN MSN20110601070009906/01/11 07:00:31  5-MIN KMSN 011300Z 28009G15KT 10SM CLR 17/06 A3017 640 49 1000 280/09G15 RMK AO2
14837KMSN MSN20110601070509906/01/11 07:05:31  5-MIN KMSN 011305Z 29005G15KT 10SM CLR 17/06 A3017 640 47 1100 290/05G15 RMK AO2
14837KMSN MSN20110601071011506/01/11 07:10:31  5-MIN KMSN 011310Z 28009G17KT 250V310 10SM CLR 17/06 A3017 640 47 1100 280/09G17 250V310 RMK AO2
14837KMSN MSN20110601071511506/01/11 07:15:31  5-MIN KMSN 011315Z 28008G17KT 250V310 10SM CLR 17/06 A3017 640 47 1100 280/08G17 250V310 RMK AO2
14837KMSN MSN20110601072009906/01/11 07:20:31  5-MIN KMSN 011320Z 27008G17KT 10SM CLR 17/06 A3017 630 47 1100 270/08G17 RMK AO2
14837KMSN MSN20110601072509906/01/11 07:25:31  5-MIN KMSN 011325Z 27009G15KT 10SM CLR 17/06 A3017 630 47 1100 270/09G15 RMK AO2
14837KMSN MSN20110601073009906/01/11 07:30:31  5-MIN KMSN 011330Z 29008G15KT 10SM CLR 18/06 A3017 630 46 1100 290/08G15 RMK AO2
14837KMSN MSN20110601073511506/01/11 07:35:31  5-MIN KMSN 011335Z 27007G14KT 220V300 10SM CLR 18/06 A3017 630 46 1100 270/07G14 220V300 RMK AO2
14837KMSN MSN20110601074009306/01/11 07:40:31  5-MIN KMSN 011340Z VRB04KT 10SM CLR 18/06 A3017 630 46 1100 VRB/04 RMK AO2
14837KMSN MSN20110601074509306/01/11 07:45:31  5-MIN KMSN 011345Z 29008KT 10SM CLR 18/06 A3017 630 44 1200 290/08 RMK AO2
14837KMSN MSN20110601075013206/01/11 07:50:31  5-MIN KMSN 011350Z 27008G17KT 240V320 10SM CLR 18/06 A3018 630 42 1200 270/08G17 240V320 RMK AO2 SLP214 T01830056
14837KMSN MSN20110601075509906/01/11 07:55:31  5-MIN KMSN 011355Z VRB06G17KT 10SM CLR 18/06 A3018 630 42 1200 VRB/06G17 RMK AO2
14837KMSN MSN20110601080011506/01/11 08:00:31  5-MIN KMSN 011400Z 27007G16KT 230V290 10SM CLR 18/06 A3018 630 42 1200 270/07G16 230V290 RMK AO2
14837KMSN MSN20110601080511506/01/11 08:05:31  5-MIN KMSN 011405Z 27008G17KT 230V310 10SM CLR 18/05 A3018 630 41 1200 280/08G17 230V310 RMK AO2
14837KMSN MSN20110601081011506/01/11 08:10:31  5-MIN KMSN 011410Z 28007G17KT 230V320 10SM CLR 18/05 A3018 630 41 1200 280/07G17 230V320 RMK AO2
14837KMSN MSN20110601081510906/01/11 08:15:31  5-MIN KMSN 011415Z 26007KT 220V310 10SM CLR 19/06 A3018 630 41 1300 270/07 220V310 RMK AO2
14837KMSN MSN20110601082009906/01/11 08:20:31  5-MIN KMSN 011420Z 28008G15KT 10SM CLR 19/04 A3018 630 38 1300 280/08G15 RMK AO2
14837KMSN MSN20110601082511506/01/11 08:25:31  5-MIN KMSN 011425Z 27008G15KT 230V310 10SM CLR 19/05 A3018 620 39 1300 270/08G15 230V310 RMK AO2
14837KMSN MSN20110601083009906/01/11 08:30:31  5-MIN KMSN 011430Z 28011G19KT 10SM CLR 19/04 A3018 620 38 1300 290/11G19 RMK AO2
14837KMSN MSN20110601083509906/01/11 08:35:31  5-MIN KMSN 011435Z 26008G19KT 10SM CLR 19/04 A3018 620 38 1300 260/08G19 RMK AO2
14837KMSN MSN20110601084011506/01/11 08:40:31  5-MIN KMSN 011440Z 28010G18KT 240V310 10SM CLR 19/04 A3018 620 38 1300 280/10G18 240V310 RMK AO2
14837KMSN MSN20110601084511506/01/11 08:45:31  5-MIN KMSN 011445Z 26011G19KT 230V300 10SM CLR 19/04 A3018 630 35 1300 260/11G19 230V300 RMK AO2
14837KMSN MSN20110601085012206/01/11 08:50:31  5-MIN KMSN 011450Z 28008G19KT 10SM CLR 19/04 A3018 630 35 1300 280/08G19 RMK AO2 SLP216 T01940039 53009
14837KMSN MSN20110601085509906/01/11 08:55:31  5-MIN KMSN 011455Z 28007G15KT 10SM CLR 20/04 A3018 630 35 1400 280/07G15 RMK AO2
14837KMSN MSN20110601090009906/01/11 09:00:31  5-MIN KMSN 011500Z 28008G15KT 10SM CLR 20/05 A3018 630 37 1400 280/08G15 RMK AO2
14837KMSN MSN20110601090511506/01/11 09:05:31  5-MIN KMSN 011505Z 28009G21KT 230V320 10SM CLR 20/04 A3018 620 35 1400 280/09G21 230V320 RMK AO2
14837KMSN MSN20110601091011506/01/11 09:10:31  5-MIN KMSN 011510Z 27007G21KT 220V300 10SM CLR 20/05 A3018 630 37 1400 270/07G21 220V300 RMK AO2
14837KMSN MSN20110601091509906/01/11 09:15:31  5-MIN KMSN 011515Z 30009G16KT 10SM CLR 20/04 A3018 620 35 1400 300/09G16 RMK AO2
14837KMSN MSN20110601092009906/01/11 09:20:31  5-MIN KMSN 011520Z 28008G14KT 10SM CLR 20/04 A3018 620 35 1400 280/08G14 RMK AO2
14837KMSN MSN20110601092509906/01/11 09:25:31  5-MIN KMSN 011525Z 26008G20KT 10SM CLR 20/03 A3018 620 33 1400 260/08G20 RMK AO2
14837KMSN MSN20110601093011506/01/11 09:30:31  5-MIN KMSN 011530Z 26008G20KT 210V310 10SM CLR 21/04 A3019 620 33 1500 270/08G20 210V310 RMK AO2
14837KMSN MSN20110601093511506/01/11 09:35:31  5-MIN KMSN 011535Z 27008G17KT 240V300 10SM CLR 20/03 A3019 620 33 1400 270/08G17 240V300 RMK AO2
14837KMSN MSN20110601094009906/01/11 09:40:31  5-MIN KMSN 011540Z 29008G17KT 10SM CLR 20/04 A3019 620 34 1400 290/08G17 RMK AO2
14837KMSN MSN20110601094511506/01/11 09:45:31  5-MIN KMSN 011545Z 29012G18KT 250V320 10SM CLR 20/04 A3019 620 34 1400 290/12G18 250V320 RMK AO2
14837KMSN MSN20110601095013206/01/11 09:50:31  5-MIN KMSN 011550Z 29008G18KT 260V320 10SM CLR 21/04 A3019 620 33 1400 300/08G18 260V320 RMK AO2 SLP218 T02060039
14837KMSN MSN20110601095511506/01/11 09:55:31  5-MIN KMSN 011555Z 28008G14KT 250V310 10SM CLR 21/04 A3019 620 34 1400 290/08G14 250V310 RMK AO2
14837KMSN MSN20110601100011506/01/11 10:00:31  5-MIN KMSN 011600Z 29011G19KT 250V320 10SM CLR 21/03 A3019 620 32 1400 290/11G19 250V320 RMK AO2
14837KMSN MSN20110601100509906/01/11 10:05:31  5-MIN KMSN 011605Z 29009G19KT 10SM CLR 21/04 A3019 610 33 1400 290/09G19 RMK AO2
14837KMSN MSN20110601101009906/01/11 10:10:31  5-MIN KMSN 011610Z VRB06G16KT 10SM CLR 21/04 A3019 620 32 1500 VRB/06G16 RMK AO2
14837KMSN MSN20110601101511506/01/11 10:15:31  5-MIN KMSN 011615Z 26007G19KT 210V300 10SM CLR 21/04 A3019 610 32 1500 260/07G19 210V300 RMK AO2
14837KMSN MSN20110601102009906/01/11 10:20:31  5-MIN KMSN 011620Z 27008G19KT 10SM CLR 21/03 A3019 610 30 1500 270/08G19 RMK AO2
14837KMSN MSN20110601102511506/01/11 10:25:31  5-MIN KMSN 011625Z 27009G17KT 230V290 10SM CLR 21/03 A3019 610 30 1400 270/09G17 230V290 RMK AO2
14837KMSN MSN20110601103011506/01/11 10:30:31  5-MIN KMSN 011630Z 27008G18KT 240V310 10SM CLR 21/03 A3019 610 29 1500 270/08G18 240V310 RMK AO2
14837KMSN MSN20110601103509906/01/11 10:35:31  5-MIN KMSN 011635Z 29011G19KT 10SM CLR 21/02 A3019 610 28 1500 290/11G19 RMK AO2
14837KMSN MSN20110601104009906/01/11 10:40:31  5-MIN KMSN 011640Z 25008G19KT 10SM CLR 21/03 A3019 610 29 1500 250/08G19 RMK AO2
14837KMSN MSN20110601104509906/01/11 10:45:31  5-MIN KMSN 011645Z 26011G22KT 10SM CLR 21/03 A3019 610 29 1500 260/11G22 RMK AO2
14837KMSN MSN20110601105011606/01/11 10:50:31  5-MIN KMSN 011650Z 29014G22KT 10SM CLR 22/02 A3019 620 27 1600 290/14G22 RMK AO2 SLP219 T02170022
14837KMSN MSN20110601105511506/01/11 10:55:31  5-MIN KMSN 011655Z 30011G22KT 250V320 10SM CLR 22/03 A3019 620 28 1600 300/11G22 250V320 RMK AO2
14837KMSN MSN20110601110009906/01/11 11:00:31  5-MIN KMSN 011700Z 28011G18KT 10SM CLR 22/02 A3019 620 27 1600 280/11G18 RMK AO2
14837KMSN MSN20110601110509906/01/11 11:05:31  5-MIN KMSN 011705Z VRB06G18KT 10SM CLR 22/03 A3019 620 27 1600 VRB/06G18 RMK AO2
14837KMSN MSN20110601111011506/01/11 11:10:31  5-MIN KMSN 011710Z 29007G17KT 250V310 10SM CLR 22/04 A3019 620 30 1600 290/07G17 250V310 RMK AO2
14837KMSN MSN20110601111511506/01/11 11:15:31  5-MIN KMSN 011715Z 28010G18KT 240V310 10SM CLR 22/02 A3019 610 26 1600 280/10G18 240V310 RMK AO2
14837KMSN MSN20110601112009906/01/11 11:20:31  5-MIN KMSN 011720Z 27011G20KT 10SM CLR 22/03 A3019 620 27 1600 270/11G20 RMK AO2
14837KMSN MSN20110601112511506/01/11 11:25:31  5-MIN KMSN 011725Z 24007G20KT 220V290 10SM CLR 22/03 A3019 620 28 1600 250/07G20 220V290 RMK AO2
14837KMSN MSN20110601113011506/01/11 11:30:31  5-MIN KMSN 011730Z 26009G19KT 230V290 10SM CLR 22/03 A3019 620 29 1600 260/09G19 230V290 RMK AO2
14837KMSN MSN20110601113511506/01/11 11:35:31  5-MIN KMSN 011735Z 26008G19KT 200V310 10SM CLR 22/03 A3019 620 28 1600 270/08G19 200V310 RMK AO2
14837KMSN MSN20110601114009906/01/11 11:40:31  5-MIN KMSN 011740Z 29013G25KT 10SM CLR 22/03 A3019 620 27 1600 290/13G25 RMK AO2
14837KMSN MSN20110601114511506/01/11 11:45:31  5-MIN KMSN 011745Z 24011G25KT 150V280 10SM CLR 22/03 A3019 620 27 1600 240/11G25 150V280 RMK AO2
14837KMSN MSN20110601115015006/01/11 11:50:31  5-MIN KMSN 011750Z 27007G22KT 230V310 10SM CLR 22/03 A3019 620 27 1600 270/07G22 230V310 RMK AO2 SLP218 T02220028 10222 20156 51009
14837KMSN MSN20110601115511506/01/11 11:55:31  5-MIN KMSN 011755Z 28007G21KT 240V310 10SM CLR 23/03 A3019 620 27 1700 290/07G21 240V310 RMK AO2
14837KMSN MSN20110601120009906/01/11 12:00:31  5-MIN KMSN 011800Z 29011G21KT 10SM CLR 23/03 A3018 620 26 1700 290/11G21 RMK AO2
14837KMSN MSN20110601120509906/01/11 12:05:31  5-MIN KMSN 011805Z 30011G21KT 10SM CLR 23/03 A3018 620 26 1700 300/11G21 RMK AO2
14837KMSN MSN20110601121011506/01/11 12:10:31  5-MIN KMSN 011810Z 25010G19KT 210V280 10SM CLR 23/03 A3018 620 26 1700 250/10G19 210V280 RMK AO2
14837KMSN MSN20110601121509906/01/11 12:15:31  5-MIN KMSN 011815Z VRB06G19KT 10SM CLR 23/03 A3018 630 27 1700 VRB/06G19 RMK AO2
14837KMSN MSN20110601122011506/01/11 12:20:31  5-MIN KMSN 011820Z 26010G17KT 230V300 10SM CLR 23/03 A3018 630 27 1700 260/10G17 230V300 RMK AO2
14837KMSN MSN20110601122509906/01/11 12:25:31  5-MIN KMSN 011825Z 28011G18KT 10SM CLR 23/03 A3018 630 26 1700 280/11G18 RMK AO2
14837KMSN MSN20110601123011506/01/11 12:30:31  5-MIN KMSN 011830Z 25008G22KT 220V280 10SM CLR 23/03 A3017 630 27 1700 250/08G22 220V280 RMK AO2
14837KMSN MSN20110601123509906/01/11 12:35:31  5-MIN KMSN 011835Z 27011G22KT 10SM CLR 23/03 A3017 630 25 1800 270/11G22 RMK AO2
14837KMSN MSN20110601124011506/01/11 12:40:31  5-MIN KMSN 011840Z 27008G23KT 250V310 10SM CLR 23/03 A3017 630 26 1800 270/08G23 250V310 RMK AO2
14837KMSN MSN20110601124511506/01/11 12:45:31  5-MIN KMSN 011845Z 29010G23KT 250V320 10SM CLR 24/03 A3017 630 26 1800 290/10G23 250V320 RMK AO2
14837KMSN MSN20110601125011906/01/11 12:50:31  5-MIN KMSN 011850Z 28011G19KT 10SM FEW120 23/03 A3017 630 25 1800 280/11G19 RMK AO2 SLP213 T02330028
14837KMSN MSN20110601125511506/01/11 12:55:31  5-MIN KMSN 011855Z 28010G19KT 220V310 10SM CLR 24/03 A3017 630 26 1800 280/10G19 220V310 RMK AO2
14837KMSN MSN20110601130009906/01/11 13:00:31  5-MIN KMSN 011900Z 27011G19KT 10SM CLR 23/02 A3017 630 24 1800 270/11G19 RMK AO2
14837KMSN MSN20110601130509906/01/11 13:05:31  5-MIN KMSN 011905Z 26011G20KT 10SM CLR 23/03 A3017 640 26 1800 260/11G20 RMK AO2
14837KMSN MSN20110601131009906/01/11 13:10:31  5-MIN KMSN 011910Z 29006G20KT 10SM CLR 24/04 A3017 640 28 1900 290/06G20 RMK AO2
14837KMSN MSN20110601131509906/01/11 13:15:31  5-MIN KMSN 011915Z VRB06G16KT 10SM CLR 24/04 A3017 640 27 1900 VRB/06G16 RMK AO2
14837KMSN MSN20110601132011506/01/11 13:20:31  5-MIN KMSN 011920Z 27011G21KT 230V300 10SM CLR 24/03 A3016 640 26 1900 270/11G21 230V300 RMK AO2
14837KMSN MSN20110601132509906/01/11 13:25:31  5-MIN KMSN 011925Z 28010G21KT 10SM CLR 24/03 A3016 640 25 1900 280/10G21 RMK AO2
14837KMSN MSN20110601133011506/01/11 13:30:31  5-MIN KMSN 011930Z 24010G19KT 190V310 10SM CLR 23/02 A3016 640 24 1800 240/10G19 190V310 RMK AO2
14837KMSN MSN20110601133511506/01/11 13:35:31  5-MIN KMSN 011935Z 29010G18KT 240V320 10SM CLR 24/03 A3016 650 26 1900 290/10G18 240V320 RMK AO2
14837KMSN MSN20110601134011506/01/11 13:40:31  5-MIN KMSN 011940Z 27011G18KT 210V290 10SM CLR 24/03 A3016 650 26 1900 270/11G18 210V290 RMK AO2
14837KMSN MSN20110601134511506/01/11 13:45:31  5-MIN KMSN 011945Z 26010G19KT 210V290 10SM CLR 24/03 A3016 650 25 1900 270/10G19 210V290 RMK AO2
14837KMSN MSN20110601135013206/01/11 13:50:31  5-MIN KMSN 011950Z 26012G19KT 220V290 10SM CLR 24/03 A3016 650 25 1900 260/12G19 220V290 RMK AO2 SLP208 T02390028
14837KMSN MSN20110601135509906/01/11 13:55:31  5-MIN KMSN 011955Z 28010G20KT 10SM CLR 24/03 A3015 650 25 1900 280/10G20 RMK AO2
14837KMSN MSN20110601140011506/01/11 14:00:31  5-MIN KMSN 012000Z 27009G20KT 230V300 10SM CLR 24/03 A3015 650 25 1900 280/09G20 230V300 RMK AO2
14837KMSN MSN20110601140511506/01/11 14:05:31  5-MIN KMSN 012005Z 26012G18KT 200V290 10SM CLR 24/03 A3015 650 25 1900 270/12G18 200V290 RMK AO2
14837KMSN MSN20110601141011506/01/11 14:10:31  5-MIN KMSN 012010Z 28007G19KT 240V320 10SM CLR 24/03 A3015 660 24 1900 280/07G19 240V320 RMK AO2
14837KMSN MSN20110601141509906/01/11 14:15:31  5-MIN KMSN 012015Z 27008G20KT 10SM CLR 24/03 A3015 660 25 1900 280/08G20 RMK AO2
14837KMSN MSN20110601142009906/01/11 14:20:31  5-MIN KMSN 012020Z 27011G20KT 10SM CLR 24/03 A3015 660 25 1900 270/11G20 RMK AO2
14837KMSN MSN20110601142511506/01/11 14:25:31  5-MIN KMSN 012025Z 29012G18KT 250V320 10SM CLR 24/03 A3014 660 25 1900 290/12G18 250V320 RMK AO2
14837KMSN MSN20110601143009906/01/11 14:30:31  5-MIN KMSN 012030Z 29012G19KT 10SM CLR 24/03 A3014 660 24 1900 290/12G19 RMK AO2
14837KMSN MSN20110601143509906/01/11 14:35:31  5-MIN KMSN 012035Z 29012G19KT 10SM CLR 24/03 A3014 660 25 1900 290/12G19 RMK AO2
14837KMSN MSN20110601144011506/01/11 14:40:31  5-MIN KMSN 012040Z 28010G19KT 240V310 10SM CLR 24/03 A3014 660 24 1900 280/10G19 240V310 RMK AO2
14837KMSN MSN20110601144511506/01/11 14:45:31  5-MIN KMSN 012045Z 28011G19KT 230V310 10SM CLR 25/03 A3014 660 24 2000 280/11G19 230V310 RMK AO2
14837KMSN MSN20110601145012506/01/11 14:50:31  5-MIN KMSN 012050Z 29012G19KT 10SM FEW120 25/03 A3014 670 23 2000 290/12G19 RMK AO2 SLP202 T02500028 50002
14837KMSN MSN20110601145509906/01/11 14:55:31  5-MIN KMSN 012055Z 28011G21KT 10SM CLR 25/03 A3014 660 23 2000 290/11G21 RMK AO2
14837KMSN MSN20110601150011506/01/11 15:00:31  5-MIN KMSN 012100Z 28012G21KT 240V300 10SM CLR 25/03 A3014 660 23 2000 280/12G21 240V300 RMK AO2
14837KMSN MSN20110601150509906/01/11 15:05:31  5-MIN KMSN 012105Z 29009G20KT 10SM CLR 25/03 A3013 670 23 2000 290/09G20 RMK AO2
14837KMSN MSN20110601151009906/01/11 15:10:31  5-MIN KMSN 012110Z 29011G19KT 10SM CLR 25/03 A3013 670 24 2000 290/11G19 RMK AO2
14837KMSN MSN20110601151511506/01/11 15:15:31  5-MIN KMSN 012115Z 28007G19KT 240V310 10SM CLR 26/04 A3013 670 24 2100 280/07G19 240V310 RMK AO2
14837KMSN MSN20110601152011506/01/11 15:20:31  5-MIN KMSN 012120Z 29007G15KT 250V310 10SM CLR 26/04 A3014 670 24 2100 290/07G15 250V310 RMK AO2
14837KMSN MSN20110601152509906/01/11 15:25:31  5-MIN KMSN 012125Z 30013G19KT 10SM CLR 26/04 A3014 670 24 2100 300/13G19 RMK AO2
14837KMSN MSN20110601153011506/01/11 15:30:31  5-MIN KMSN 012130Z 27008G19KT 230V330 10SM CLR 25/03 A3013 670 24 2000 270/08G19 230V330 RMK AO2
14837KMSN MSN20110601153509906/01/11 15:35:31  5-MIN KMSN 012135Z 27010G19KT 10SM CLR 25/03 A3013 670 24 2000 270/10G19 RMK AO2
14837KMSN MSN20110601154009906/01/11 15:40:31  5-MIN KMSN 012140Z 28010G19KT 10SM CLR 25/03 A3013 670 24 2000 280/10G19 RMK AO2
14837KMSN MSN20110601154511506/01/11 15:45:31  5-MIN KMSN 012145Z 28008G18KT 240V310 10SM CLR 26/03 A3013 670 23 2100 280/08G18 240V310 RMK AO2
14837KMSN MSN20110601203509306/01/11 20:35:31  5-MIN KMSN 020235Z 00000KT 10SM CLR 19/08 A3016 640 48 1300 000/00 RMK AO2
14837KMSN MSN20110601204009606/01/11 20:40:31  5-MIN KMSN 020240Z 00000KT 10SM FEW120 20/08 A3016 640 45 1400 000/00 RMK AO2
14837KMSN MSN20110601204509606/01/11 20:45:31  5-MIN KMSN 020245Z 00000KT 10SM FEW120 19/08 A3017 640 46 1300 000/00 RMK AO2
14837KMSN MSN20110601205011906/01/11 20:50:31  5-MIN KMSN 020250Z 00000KT 10SM FEW120 19/08 A3017 640 48 1300 000/00 RMK AO2 SLP213 T01940083 55002
14837KMSN MSN20110601205509606/01/11 20:55:31  5-MIN KMSN 020255Z 00000KT 10SM FEW120 20/08 A3016 640 46 1400 000/00 RMK AO2
14837KMSN MSN20110601210009606/01/11 21:00:31  5-MIN KMSN 020300Z 00000KT 10SM FEW120 20/08 A3016 640 45 1400 000/00 RMK AO2
14837KMSN MSN20110601210509606/01/11 21:05:31  5-MIN KMSN 020305Z 00000KT 10SM FEW120 19/08 A3017 630 46 1300 000/00 RMK AO2
14837KMSN MSN20110601211009606/01/11 21:10:31  5-MIN KMSN 020310Z 00000KT 10SM FEW120 18/09 A3017 640 56 1200 000/00 RMK AO2
14837KMSN MSN20110601211509306/01/11 21:15:31  5-MIN KMSN 020315Z 00000KT 10SM CLR 18/08 A3017 640 52 1200 000/00 RMK AO2
14837KMSN MSN20110601212009306/01/11 21:20:31  5-MIN KMSN 020320Z 00000KT 10SM CLR 18/09 A3017 630 55 1100 000/00 RMK AO2
14837KMSN MSN20110601212509306/01/11 21:25:31  5-MIN KMSN 020325Z 00000KT 10SM CLR 18/09 A3018 630 58 1100 000/00 RMK AO2
14837KMSN MSN20110601213009306/01/11 21:30:31  5-MIN KMSN 020330Z 30003KT 10SM CLR 17/11 A3018 630 64 1100 300/03 RMK AO2
14837KMSN MSN20110601213509306/01/11 21:35:31  5-MIN KMSN 020335Z 00000KT 10SM CLR 18/09 A3018 630 56 1200 000/00 RMK AO2
14837KMSN MSN20110601214009306/01/11 21:40:31  5-MIN KMSN 020340Z 30003KT 10SM CLR 18/09 A3019 620 58 1100 300/03 RMK AO2
14837KMSN MSN20110601214509306/01/11 21:45:31  5-MIN KMSN 020345Z 00000KT 10SM CLR 18/10 A3018 620 60 1100 000/00 RMK AO2
14837KMSN MSN20110601215011006/01/11 21:50:31  5-MIN KMSN 020350Z 00000KT 10SM CLR 18/09 A3017 630 54 1200 000/00 RMK AO2 SLP215 T01830089
14837KMSN MSN20110601215509606/01/11 21:55:31  5-MIN KMSN 020355Z 03003KT 10SM FEW120 18/10 A3017 630 58 1200 040/03 RMK AO2
14837KMSN MSN20110601220009606/01/11 22:00:31  5-MIN KMSN 020400Z 00000KT 10SM SCT120 18/11 A3018 630 62 1100 000/00 RMK AO2
14837KMSN MSN20110601220509606/01/11 22:05:31  5-MIN KMSN 020405Z 00000KT 10SM SCT120 18/09 A3017 630 56 1200 000/00 RMK AO2
14837KMSN MSN20110601221009606/01/11 22:10:31  5-MIN KMSN 020410Z 00000KT 10SM SCT120 19/09 A3017 640 52 1300 000/00 RMK AO2
14837KMSN MSN20110601221509606/01/11 22:15:31  5-MIN KMSN 020415Z 05003KT 10SM SCT120 18/11 A3017 630 62 1100 060/03 RMK AO2
14837KMSN MSN20110601222009606/01/11 22:20:31  5-MIN KMSN 020420Z 00000KT 10SM SCT120 18/10 A3017 640 60 1200 000/00 RMK AO2
14837KMSN MSN20110601222509606/01/11 22:25:31  5-MIN KMSN 020425Z 00000KT 10SM SCT120 18/10 A3017 630 58 1200 000/00 RMK AO2
14837KMSN MSN20110601223009606/01/11 22:30:31  5-MIN KMSN 020430Z 00000KT 10SM FEW120 19/09 A3017 630 54 1300 000/00 RMK AO2
14837KMSN MSN20110601223509606/01/11 22:35:31  5-MIN KMSN 020435Z 00000KT 10SM FEW120 18/10 A3017 630 58 1200 000/00 RMK AO2
14837KMSN MSN20110601224009306/01/11 22:40:31  5-MIN KMSN 020440Z 00000KT 10SM CLR 17/10 A3017 640 62 1100 000/00 RMK AO2
14837KMSN MSN20110601224509306/01/11 22:45:31  5-MIN KMSN 020445Z 00000KT 10SM CLR 17/09 A3017 630 60 1100 000/00 RMK AO2
14837KMSN MSN20110601225011006/01/11 22:50:31  5-MIN KMSN 020450Z 00000KT 10SM CLR 17/09 A3017 630 62 1000 000/00 RMK AO2 SLP215 T01670094
14837KMSN MSN20110601225509306/01/11 22:55:31  5-MIN KMSN 020455Z 00000KT 10SM CLR 17/10 A3017 630 64 1000 000/00 RMK AO2
14837KMSN MSN20110601230009306/01/11 23:00:31  5-MIN KMSN 020500Z 00000KT 10SM CLR 17/10 A3017 630 64 1000 000/00 RMK AO2
14837KMSN MSN20110601230509306/01/11 23:05:31  5-MIN KMSN 020505Z 00000KT 10SM CLR 17/10 A3017 640 62 1100 000/00 RMK AO2
14837KMSN MSN20110601231009306/01/11 23:10:31  5-MIN KMSN 020510Z 00000KT 10SM CLR 17/10 A3017 640 64 1000 000/00 RMK AO2
14837KMSN MSN20110601231509306/01/11 23:15:31  5-MIN KMSN 020515Z 00000KT 10SM CLR 17/10 A3017 640 64 1000 000/00 RMK AO2
14837KMSN MSN20110601232009306/01/11 23:20:31  5-MIN KMSN 020520Z 00000KT 10SM CLR 16/11 A3017 630 69 1000 000/00 RMK AO2
14837KMSN MSN20110601232509306/01/11 23:25:31  5-MIN KMSN 020525Z 00000KT 10SM CLR 16/09 A3017 630 64 1000 000/00 RMK AO2
14837KMSN MSN20110601233009306/01/11 23:30:31  5-MIN KMSN 020530Z 00000KT 10SM CLR 17/09 A3017 630 62 1000 000/00 RMK AO2
14837KMSN MSN20110601233509306/01/11 23:35:31  5-MIN KMSN 020535Z 00000KT 10SM CLR 17/09 A3017 640 62 1000 000/00 RMK AO2
14837KMSN MSN20110601234009206/01/11 23:40:31  5-MIN KMSN 020540Z 00000KT 10SM CLR 16/10 A3017 630 69 900 000/00 RMK AO2
14837KMSN MSN20110601234509206/01/11 23:45:31  5-MIN KMSN 020545Z 00000KT 10SM CLR 15/10 A3017 630 72 800 000/00 RMK AO2
14837KMSN MSN20110601235013706/01/11 23:50:31  5-MIN KMSN 020550Z 00000KT 10SM CLR 15/10 A3017 630 72 800 000/00 RMK AO2 SLP216 T01500100 10250 20150 402560144 53010
14837KMSN MSN20110601235509306/01/11 23:55:31  5-MIN KMSN 020555Z 00000KT 10SM CLR 17/10 A3018 630 64 1000 000/00 RMK AO2
14837KMSN MSN20110602000009206/02/11 00:00:32  5-MIN KMSN 020600Z 00000KT 10SM CLR 16/11 A3017 630 72 900 000/00 RMK AO2
14837KMSN MSN20110602000509306/02/11 00:05:31  5-MIN KMSN 020605Z 04004KT 10SM CLR 16/10 A3017 640 67 1000 040/04 RMK AO2
14837KMSN MSN20110602001009206/02/11 00:10:31  5-MIN KMSN 020610Z 03005KT 10SM CLR 15/10 A3017 640 72 800 030/05 RMK AO2
14837KMSN MSN20110602001509206/02/11 00:15:31  5-MIN KMSN 020615Z 00000KT 10SM CLR 14/10 A3017 640 77 700 000/00 RMK AO2
14837KMSN MSN20110602002009206/02/11 00:20:31  5-MIN KMSN 020620Z 00000KT 10SM CLR 14/10 A3016 640 74 800 000/00 RMK AO2
14837KMSN MSN20110602002509206/02/11 00:25:31  5-MIN KMSN 020625Z 00000KT 10SM CLR 15/10 A3016 640 72 800 000/00 RMK AO2
14837KMSN MSN20110602003009206/02/11 00:30:31  5-MIN KMSN 020630Z 00000KT 10SM CLR 15/10 A3017 640 72 800 000/00 RMK AO2
14837KMSN MSN20110602003509206/02/11 00:35:31  5-MIN KMSN 020635Z 00000KT 10SM CLR 14/10 A3017 630 74 800 000/00 RMK AO2
14837KMSN MSN20110602004009206/02/11 00:40:31  5-MIN KMSN 020640Z 00000KT 10SM CLR 14/10 A3017 640 74 800 000/00 RMK AO2
14837KMSN MSN20110602004509206/02/11 00:45:31  5-MIN KMSN 020645Z 00000KT 10SM CLR 14/10 A3017 630 74 800 000/00 RMK AO2
14837KMSN MSN20110602005010906/02/11 00:50:31  5-MIN KMSN 020650Z 00000KT 10SM CLR 14/10 A3017 630 74 800 000/00 RMK AO2 SLP216 T01440100
14837KMSN MSN20110602005509206/02/11 00:55:31  5-MIN KMSN 020655Z 00000KT 10SM CLR 14/10 A3018 630 77 700 000/00 RMK AO2
14837KMSN MSN20110602010009506/02/11 01:00:31  5-MIN KMSN 020700Z 00000KT 10SM FEW120 14/10 A3018 620 74 700 000/00 RMK AO2
14837KMSN MSN20110602010509506/02/11 01:05:31  5-MIN KMSN 020705Z 00000KT 10SM SCT120 14/11 A3018 620 80 700 000/00 RMK AO2
14837KMSN MSN20110602011009506/02/11 01:10:31  5-MIN KMSN 020710Z 00000KT 10SM FEW120 14/10 A3018 620 77 700 000/00 RMK AO2
14837KMSN MSN20110602011509506/02/11 01:15:31  5-MIN KMSN 020715Z 00000KT 10SM FEW120 14/10 A3019 620 77 700 000/00 RMK AO2
14837KMSN MSN20110602012009506/02/11 01:20:31  5-MIN KMSN 020720Z 00000KT 10SM FEW120 14/10 A3018 620 77 700 000/00 RMK AO2
14837KMSN MSN20110602012509506/02/11 01:25:31  5-MIN KMSN 020725Z 00000KT 10SM FEW120 14/11 A3018 620 80 700 000/00 RMK AO2
14837KMSN MSN20110602013009506/02/11 01:30:31  5-MIN KMSN 020730Z 02003KT 10SM SCT120 14/11 A3018 630 80 700 020/03 RMK AO2
14837KMSN MSN20110602013509506/02/11 01:35:31  5-MIN KMSN 020735Z 01004KT 10SM FEW120 13/11 A3018 630 83 600 020/04 RMK AO2
14837KMSN MSN20110602014009506/02/11 01:40:31  5-MIN KMSN 020740Z 01003KT 10SM FEW120 13/11 A3018 630 83 600 020/03 RMK AO2
14837KMSN MSN20110602014509506/02/11 01:45:31  5-MIN KMSN 020745Z 00000KT 10SM FEW120 13/11 A3018 630 83 600 000/00 RMK AO2
14837KMSN MSN20110602015011206/02/11 01:50:31  5-MIN KMSN 020750Z 00000KT 10SM FEW120 14/10 A3018 620 77 700 000/00 RMK AO2 SLP218 T01390100
14837KMSN MSN20110602015509506/02/11 01:55:31  5-MIN KMSN 020755Z 00000KT 10SM FEW120 14/10 A3019 620 77 700 000/00 RMK AO2
14837KMSN MSN20110602020009506/02/11 02:00:31  5-MIN KMSN 020800Z 00000KT 10SM SCT120 14/10 A3019 620 74 700 000/00 RMK AO2
14837KMSN MSN20110602020509506/02/11 02:05:31  5-MIN KMSN 020805Z 00000KT 10SM SCT120 15/10 A3019 610 72 800 000/00 RMK AO2
14837KMSN MSN20110602021009506/02/11 02:10:31  5-MIN KMSN 020810Z 00000KT 10SM BKN120 14/09 A3019 610 72 700 000/00 RMK AO2
14837KMSN MSN20110602021510206/02/11 02:15:31  5-MIN KMSN 020815Z 00000KT 10SM FEW100 BKN120 14/09 A3019 610 69 700 000/00 RMK AO2
14837KMSN MSN20110602022010206/02/11 02:20:31  5-MIN KMSN 020820Z 36003KT 10SM FEW090 BKN120 15/08 A3019 610 64 800 360/03 RMK AO2
14837KMSN MSN20110602022510206/02/11 02:25:31  5-MIN KMSN 020825Z 01003KT 10SM FEW100 BKN120 15/08 A3019 610 64 800 010/03 RMK AO2
14837KMSN MSN20110602023010206/02/11 02:30:31  5-MIN KMSN 020830Z 02005KT 10SM FEW100 SCT120 15/08 A3019 610 64 800 020/05 RMK AO2
14837KMSN MSN20110602023510206/02/11 02:35:31  5-MIN KMSN 020835Z 03005KT 10SM FEW100 SCT120 14/08 A3019 610 66 700 030/05 RMK AO2
14837KMSN MSN20110602024009506/02/11 02:40:31  5-MIN KMSN 020840Z 04006KT 10SM FEW120 14/08 A3020 610 64 700 040/06 RMK AO2
14837KMSN MSN20110602024509206/02/11 02:45:31  5-MIN KMSN 020845Z 06009KT 10SM CLR 14/07 A3020 610 61 700 060/09 RMK AO2
14837KMSN MSN20110602025011506/02/11 02:50:31  5-MIN KMSN 020850Z 07009KT 10SM CLR 14/08 A3020 610 64 700 070/09 RMK AO2 SLP224 T01440078 51004
14837KMSN MSN20110602025509206/02/11 02:55:31  5-MIN KMSN 020855Z 07008KT 10SM CLR 15/07 A3020 610 59 800 080/08 RMK AO2
14837KMSN MSN20110602030009806/02/11 03:00:31  5-MIN KMSN 020900Z 07011G16KT 10SM CLR 15/07 A3020 600 59 800 070/11G16 RMK AO2
14837KMSN MSN20110602030509806/02/11 03:05:31  5-MIN KMSN 020905Z 09015G19KT 10SM CLR 15/07 A3020 600 59 800 090/15G19 RMK AO2
14837KMSN MSN20110602031009806/02/11 03:10:31  5-MIN KMSN 020910Z 08013G19KT 10SM CLR 14/07 A3021 600 59 700 080/13G19 RMK AO2
14837KMSN MSN20110602031509206/02/11 03:15:31  5-MIN KMSN 020915Z 09014KT 10SM CLR 14/07 A3021 600 59 700 090/14 RMK AO2
14837KMSN MSN20110602032009206/02/11 03:20:31  5-MIN KMSN 020920Z 09011KT 10SM CLR 14/07 A3022 590 61 600 090/11 RMK AO2
14837KMSN MSN20110602032509206/02/11 03:25:31  5-MIN KMSN 020925Z 09010KT 10SM CLR 14/07 A3022 590 61 600 090/10 RMK AO2
14837KMSN MSN20110602033009206/02/11 03:30:31  5-MIN KMSN 020930Z 09009KT 10SM CLR 14/07 A3022 590 61 600 090/09 RMK AO2
14837KMSN MSN20110602033509206/02/11 03:35:31  5-MIN KMSN 020935Z 11007KT 10SM CLR 13/07 A3023 580 64 600 110/07 RMK AO2
14837KMSN MSN20110602034009206/02/11 03:40:31  5-MIN KMSN 020940Z 11008KT 10SM CLR 13/07 A3023 580 64 600 110/08 RMK AO2
14837KMSN MSN20110602034510506/02/11 03:45:31  5-MIN KMSN 020945Z 10007G14KT 10SM CLR 13/07 A3024 570 64 500 100/07G14 RMK AO2 PRESRR
14837KMSN MSN20110602035010906/02/11 03:50:31  5-MIN KMSN 020950Z 10009KT 10SM CLR 13/06 A3025 560 61 500 100/09 RMK AO2 SLP240 T01330061
14837KMSN MSN20110602035509206/02/11 03:55:31  5-MIN KMSN 020955Z 09007KT 10SM CLR 13/06 A3024 570 61 500 090/07 RMK AO2
14837KMSN MSN20110602040009506/02/11 04:00:31  5-MIN KMSN 021000Z 09008KT 10SM FEW120 13/07 A3024 570 64 500 090/08 RMK AO2
14837KMSN MSN20110602040509506/02/11 04:05:31  5-MIN KMSN 021005Z 10010KT 10SM FEW120 13/06 A3025 560 61 500 100/10 RMK AO2
14837KMSN MSN20110602041010806/02/11 04:10:31  5-MIN KMSN 021010Z 11011G16KT 10SM FEW095 SCT120 13/06 A3023 580 61 600 110/11G16 RMK AO2
14837KMSN MSN20110602041510206/02/11 04:15:31  5-MIN KMSN 021015Z 11009KT 10SM SCT090 BKN120 13/06 A3023 580 61 600 110/09 RMK AO2
14837KMSN MSN20110602042010906/02/11 04:20:31  5-MIN KMSN 021020Z 11007KT 10SM SCT075 BKN100 BKN120 13/06 A3024 570 61 500 110/07 RMK AO2
14837KMSN MSN20110602042510906/02/11 04:25:31  5-MIN KMSN 021025Z 10010KT 10SM SCT070 BKN100 BKN120 13/06 A3024 570 61 500 110/10 RMK AO2
14837KMSN MSN20110602043009506/02/11 04:30:31  5-MIN KMSN 021030Z 09008KT 10SM SCT070 13/06 A3025 560 61 500 100/08 RMK AO2
14837KMSN MSN20110602043509506/02/11 04:35:31  5-MIN KMSN 021035Z 09008KT 10SM SCT075 13/06 A3025 560 61 500 090/08 RMK AO2
14837KMSN MSN20110602044010206/02/11 04:40:31  5-MIN KMSN 021040Z 09010KT 10SM FEW070 SCT120 13/06 A3025 560 63 500 090/10 RMK AO2
14837KMSN MSN20110602044511106/02/11 04:45:31  5-MIN KMSN 021045Z 09007KT 10SM FEW055 SCT120 13/06 A3024 570 61 500 100/07 RMK AO2 VIRGA SE
14837KMSN MSN20110602045012106/02/11 04:50:31  5-MIN KMSN 021050Z 10008KT 10SM FEW120 13/06 A3024 570 63 500 100/08 RMK AO2 SLP239 VIRGA SE T01280061
14837KMSN MSN20110602045510406/02/11 04:55:31  5-MIN KMSN 021055Z 09009KT 10SM FEW120 13/06 A3024 570 61 500 100/09 RMK AO2 VIRGA SE
14837KMSN MSN20110602050010406/02/11 05:00:31  5-MIN KMSN 021100Z 10010KT 10SM FEW120 13/06 A3024 570 63 500 100/10 RMK AO2 VIRGA SE
14837KMSN MSN20110602050510406/02/11 05:05:31  5-MIN KMSN 021105Z 09009KT 10SM FEW120 13/06 A3024 570 61 500 100/09 RMK AO2 VIRGA SE
14837KMSN MSN20110602051010406/02/11 05:10:31  5-MIN KMSN 021110Z 10011KT 10SM FEW120 13/06 A3024 570 63 500 100/11 RMK AO2 VIRGA SE
14837KMSN MSN20110602051509506/02/11 05:15:31  5-MIN KMSN 021115Z 10011KT 10SM FEW120 13/06 A3024 570 59 500 100/11 RMK AO2
14837KMSN MSN20110602052009506/02/11 05:20:31  5-MIN KMSN 021120Z 10008KT 10SM FEW120 13/06 A3025 560 61 500 100/08 RMK AO2
14837KMSN MSN20110602052509506/02/11 05:25:31  5-MIN KMSN 021125Z 08009KT 10SM FEW120 13/06 A3024 570 61 500 090/09 RMK AO2
14837KMSN MSN20110602053009506/02/11 05:30:31  5-MIN KMSN 021130Z 09011KT 10SM FEW120 13/06 A3024 570 61 500 090/11 RMK AO2
14837KMSN MSN20110602053509506/02/11 05:35:31  5-MIN KMSN 021135Z 09010KT 10SM FEW120 13/06 A3024 570 61 500 100/10 RMK AO2
14837KMSN MSN20110602054010106/02/11 05:40:31  5-MIN KMSN 021140Z 09009G18KT 10SM FEW120 13/06 A3024 570 61 500 090/09G18 RMK AO2
14837KMSN MSN20110602054510106/02/11 05:45:31  5-MIN KMSN 021145Z 09008G18KT 10SM FEW120 13/06 A3024 570 61 500 100/08G18 RMK AO2
14837KMSN MSN20110602055013006/02/11 05:50:31  5-MIN KMSN 021150Z 09008KT 10SM FEW120 13/06 A3024 570 61 500 090/08 RMK AO2 SLP239 T01280056 10167 20128 53007
14837KMSN MSN20110602055509506/02/11 05:55:31  5-MIN KMSN 021155Z 10010KT 10SM FEW120 13/06 A3024 570 61 500 100/10 RMK AO2
14837KMSN MSN20110602060010106/02/11 06:00:31  5-MIN KMSN 021200Z 10012G17KT 10SM FEW120 13/06 A3024 570 61 500 100/12G17 RMK AO2
14837KMSN MSN20110602060509506/02/11 06:05:31  5-MIN KMSN 021205Z 10011KT 10SM FEW120 13/06 A3024 570 61 500 100/11 RMK AO2
14837KMSN MSN20110602061010106/02/11 06:10:31  5-MIN KMSN 021210Z 11014G19KT 10SM FEW120 13/06 A3025 560 61 500 110/14G19 RMK AO2
14837KMSN MSN20110602061510106/02/11 06:15:31  5-MIN KMSN 021215Z 11010G19KT 10SM FEW120 13/06 A3026 550 61 500 110/10G19 RMK AO2
14837KMSN MSN20110602062010106/02/11 06:20:31  5-MIN KMSN 021220Z 10013G19KT 10SM FEW120 13/06 A3026 550 59 500 100/13G19 RMK AO2
14837KMSN MSN20110602062510106/02/11 06:25:31  5-MIN KMSN 021225Z 10010G19KT 10SM FEW120 13/06 A3026 550 59 500 100/10G19 RMK AO2
14837KMSN MSN20110602063009506/02/11 06:30:31  5-MIN KMSN 021230Z 09013KT 10SM FEW120 13/06 A3026 560 59 500 090/13 RMK AO2
14837KMSN MSN20110602063510106/02/11 06:35:31  5-MIN KMSN 021235Z 10013G18KT 10SM FEW120 13/06 A3025 560 59 500 100/13G18 RMK AO2
14837KMSN MSN20110602064010106/02/11 06:40:31  5-MIN KMSN 021240Z 10013G18KT 10SM FEW120 13/05 A3025 560 57 500 110/13G18 RMK AO2
14837KMSN MSN20110602064510106/02/11 06:45:31  5-MIN KMSN 021245Z 11016G20KT 10SM FEW120 13/06 A3026 560 59 500 120/16G20 RMK AO2
14837KMSN MSN20110602065011806/02/11 06:50:31  5-MIN KMSN 021250Z 11015G20KT 10SM FEW120 13/05 A3026 550 57 500 110/15G20 RMK AO2 SLP244 T01330050
14837KMSN MSN20110602065510206/02/11 06:55:31  5-MIN KMSN 021255Z 10012KT 10SM SCT090 SCT120 13/06 A3026 550 59 500 110/12 RMK AO2
14837KMSN MSN20110602070010806/02/11 07:00:31  5-MIN KMSN 021300Z 12015G20KT 10SM SCT090 SCT120 13/06 A3027 550 59 500 120/15G20 RMK AO2
14837KMSN MSN20110602070509806/02/11 07:05:31  5-MIN KMSN 021305Z 10012G20KT 10SM CLR 13/06 A3027 540 59 500 100/12G20 RMK AO2
14837KMSN MSN20110602071009506/02/11 07:10:31  5-MIN KMSN 021310Z 12014KT 10SM SCT120 13/06 A3027 540 59 500 120/14 RMK AO2
14837KMSN MSN20110602071509506/02/11 07:15:31  5-MIN KMSN 021315Z 10012KT 10SM SCT120 14/06 A3027 540 57 600 110/12 RMK AO2
14837KMSN MSN20110602072009506/02/11 07:20:31  5-MIN KMSN 021320Z 10011KT 10SM SCT120 14/06 A3027 540 57 600 110/11 RMK AO2
14837KMSN MSN20110602072510106/02/11 07:25:31  5-MIN KMSN 021325Z 12015G19KT 10SM SCT120 14/06 A3027 540 55 600 120/15G19 RMK AO2
14837KMSN MSN20110602073009506/02/11 07:30:31  5-MIN KMSN 021330Z 13014KT 10SM SCT120 14/06 A3028 530 57 600 130/14 RMK AO2
14837KMSN MSN20110602073509506/02/11 07:35:31  5-MIN KMSN 021335Z 10013KT 10SM SCT095 13/05 A3028 530 57 500 110/13 RMK AO2
14837KMSN MSN20110602074009506/02/11 07:40:31  5-MIN KMSN 021340Z 11013KT 10SM BKN095 14/06 A3027 540 57 600 120/13 RMK AO2
14837KMSN MSN20110602074509506/02/11 07:45:31  5-MIN KMSN 021345Z 11012KT 10SM BKN095 14/06 A3027 540 57 600 120/12 RMK AO2
14837KMSN MSN20110602075011206/02/11 07:50:31  5-MIN KMSN 021350Z 11013KT 10SM BKN095 14/06 A3027 540 57 600 120/13 RMK AO2 SLP249 T01390056
14837KMSN MSN20110602075509506/02/11 07:55:31  5-MIN KMSN 021355Z 10013KT 10SM BKN095 14/06 A3027 540 55 600 100/13 RMK AO2
14837KMSN MSN20110602080010106/02/11 08:00:31  5-MIN KMSN 021400Z 12013G18KT 10SM OVC095 14/06 A3028 540 57 600 130/13G18 RMK AO2
14837KMSN MSN20110602080510106/02/11 08:05:31  5-MIN KMSN 021405Z 11014G18KT 10SM OVC090 14/06 A3028 530 57 600 110/14G18 RMK AO2
14837KMSN MSN20110602081009506/02/11 08:10:31  5-MIN KMSN 021410Z 11014KT 10SM BKN090 14/06 A3028 540 59 600 110/14 RMK AO2
14837KMSN MSN20110602081509506/02/11 08:15:31  5-MIN KMSN 021415Z 11013KT 10SM BKN090 14/06 A3028 540 59 600 110/13 RMK AO2
14837KMSN MSN20110602082009506/02/11 08:20:31  5-MIN KMSN 021420Z 10011KT 10SM BKN090 14/06 A3028 540 59 600 100/11 RMK AO2
14837KMSN MSN20110602082510206/02/11 08:25:31  5-MIN KMSN 021425Z 11011KT 10SM BKN080 BKN095 14/06 A3028 540 59 600 110/11 RMK AO2
14837KMSN MSN20110602083010206/02/11 08:30:31  5-MIN KMSN 021430Z 12012KT 10SM BKN080 BKN095 14/06 A3028 540 59 600 120/12 RMK AO2
14837KMSN MSN20110602083510206/02/11 08:35:31  5-MIN KMSN 021435Z 11011KT 10SM BKN080 BKN090 14/06 A3028 540 59 600 110/11 RMK AO2
14837KMSN MSN20110602084009506/02/11 08:40:31  5-MIN KMSN 021440Z 10013KT 10SM BKN075 14/06 A3027 540 57 600 100/13 RMK AO2
14837KMSN MSN20110602084509506/02/11 08:45:31  5-MIN KMSN 021445Z 11010KT 10SM BKN070 14/06 A3028 540 57 600 110/10 RMK AO2
14837KMSN MSN20110602085011806/02/11 08:50:31  5-MIN KMSN 021450Z 12011KT 10SM OVC070 14/06 A3027 540 57 600 120/11 RMK AO2 SLP251 T01390056 51014
14837KMSN MSN20110602085510206/02/11 08:55:31  5-MIN KMSN 021455Z 12012KT 10SM BKN070 BKN085 14/06 A3027 540 57 600 120/12 RMK AO2
14837KMSN MSN20110602090010206/02/11 09:00:31  5-MIN KMSN 021500Z 11012KT 10SM BKN070 BKN085 14/06 A3027 540 59 600 110/12 RMK AO2
14837KMSN MSN20110602090510206/02/11 09:05:31  5-MIN KMSN 021505Z 12012KT 10SM BKN070 BKN085 14/06 A3027 540 57 600 130/12 RMK AO2
14837KMSN MSN20110602091010206/02/11 09:10:31  5-MIN KMSN 021510Z 12011KT 10SM BKN070 BKN085 14/06 A3028 540 57 600 130/11 RMK AO2
14837KMSN MSN20110602091510206/02/11 09:15:31  5-MIN KMSN 021515Z 13011KT 10SM BKN070 BKN085 14/06 A3027 540 57 600 140/11 RMK AO2
14837KMSN MSN20110602092010206/02/11 09:20:31  5-MIN KMSN 021520Z 13011KT 10SM BKN070 OVC085 14/06 A3027 540 57 600 130/11 RMK AO2
14837KMSN MSN20110602092510206/02/11 09:25:31  5-MIN KMSN 021525Z 12013KT 10SM BKN070 OVC085 14/06 A3026 550 57 600 120/13 RMK AO2
14837KMSN MSN20110602093009506/02/11 09:30:31  5-MIN KMSN 021530Z 10013KT 10SM OVC070 14/06 A3026 550 55 700 110/13 RMK AO2
14837KMSN MSN20110602093509506/02/11 09:35:31  5-MIN KMSN 021535Z 11013KT 10SM OVC070 14/06 A3025 560 55 700 110/13 RMK AO2
14837KMSN MSN20110602094009506/02/11 09:40:31  5-MIN KMSN 021540Z 11011KT 10SM OVC070 14/06 A3025 560 55 700 110/11 RMK AO2
14837KMSN MSN20110602094509506/02/11 09:45:31  5-MIN KMSN 021545Z 12010KT 10SM OVC070 14/06 A3025 560 57 700 120/10 RMK AO2
14837KMSN MSN20110602095011206/02/11 09:50:31  5-MIN KMSN 021550Z 11012KT 10SM BKN070 15/06 A3024 570 55 700 120/12 RMK AO2 SLP240 T01500061
14837KMSN MSN20110602095509506/02/11 09:55:31  5-MIN KMSN 021555Z 11013KT 10SM BKN070 16/06 A3024 570 53 800 120/13 RMK AO2
14837KMSN MSN20110602100009506/02/11 10:00:31  5-MIN KMSN 021600Z 11015KT 10SM SCT075 16/06 A3024 570 51 800 110/15 RMK AO2
14837KMSN MSN20110602100509506/02/11 10:05:31  5-MIN KMSN 021605Z 11013KT 10SM SCT080 16/06 A3024 570 51 900 120/13 RMK AO2
14837KMSN MSN20110602101009506/02/11 10:10:31  5-MIN KMSN 021610Z 12013KT 10SM FEW075 16/06 A3024 570 51 800 120/13 RMK AO2
14837KMSN MSN20110602101509506/02/11 10:15:31  5-MIN KMSN 021615Z 11013KT 10SM FEW075 16/06 A3023 580 51 900 110/13 RMK AO2
14837KMSN MSN20110602102009506/02/11 10:20:31  5-MIN KMSN 021620Z 10011KT 10SM FEW075 17/07 A3024 570 51 900 110/11 RMK AO2
14837KMSN MSN20110602102509506/02/11 10:25:31  5-MIN KMSN 021625Z 12012KT 10SM FEW090 17/06 A3024 570 49 900 120/12 RMK AO2
14837KMSN MSN20110602103010906/02/11 10:30:31  5-MIN KMSN 021630Z 11010KT 080V140 10SM CLR 17/07 A3024 570 49 1000 110/10 080V140 RMK AO2
14837KMSN MSN20110602103509306/02/11 10:35:31  5-MIN KMSN 021635Z 11010KT 10SM CLR 17/07 A3024 570 49 1000 110/10 RMK AO2
14837KMSN MSN20110602104009606/02/11 10:40:31  5-MIN KMSN 021640Z 13011KT 10SM FEW070 17/07 A3024 570 49 1000 130/11 RMK AO2
14837KMSN MSN20110602104509606/02/11 10:45:31  5-MIN KMSN 021645Z 08012KT 10SM FEW070 17/06 A3024 570 47 1000 090/12 RMK AO2
14837KMSN MSN20110602105011306/02/11 10:50:31  5-MIN KMSN 021650Z 12012KT 10SM FEW090 17/07 A3023 580 49 1000 120/12 RMK AO2 SLP236 T01720067
14837KMSN MSN20110602105509906/02/11 10:55:31  5-MIN KMSN 021655Z 12013G18KT 10SM CLR 18/07 A3022 580 48 1100 120/13G18 RMK AO2
14837KMSN MSN20110602110009906/02/11 11:00:31  5-MIN KMSN 021700Z 12012G18KT 10SM CLR 18/06 A3022 590 46 1100 130/12G18 RMK AO2
14837KMSN MSN20110602110509906/02/11 11:05:31  5-MIN KMSN 021705Z 09013G19KT 10SM CLR 18/07 A3022 590 48 1100 100/13G19 RMK AO2
14837KMSN MSN20110602111009306/02/11 11:10:31  5-MIN KMSN 021710Z 10012KT 10SM CLR 18/07 A3022 590 46 1200 100/12 RMK AO2
14837KMSN MSN20110602111509906/02/11 11:15:31  5-MIN KMSN 021715Z 12013G19KT 10SM CLR 18/07 A3022 590 46 1200 120/13G19 RMK AO2
14837KMSN MSN20110602112009906/02/11 11:20:31  5-MIN KMSN 021720Z 10010G18KT 10SM CLR 18/07 A3022 590 46 1200 100/10G18 RMK AO2
14837KMSN MSN20110602112509306/02/11 11:25:31  5-MIN KMSN 021725Z 10012KT 10SM CLR 18/07 A3022 590 46 1200 110/12 RMK AO2
14837KMSN MSN20110602113009306/02/11 11:30:31  5-MIN KMSN 021730Z 12011KT 10SM CLR 19/07 A3022 590 44 1200 120/11 RMK AO2
14837KMSN MSN20110602113509306/02/11 11:35:31  5-MIN KMSN 021735Z 13012KT 10SM CLR 19/07 A3021 590 44 1200 140/12 RMK AO2
14837KMSN MSN20110602114009906/02/11 11:40:31  5-MIN KMSN 021740Z 12012G18KT 10SM CLR 19/07 A3021 600 44 1300 120/12G18 RMK AO2
14837KMSN MSN20110602114509906/02/11 11:45:31  5-MIN KMSN 021745Z 09012G18KT 10SM CLR 19/07 A3020 600 44 1300 100/12G18 RMK AO2
14837KMSN MSN20110602115013706/02/11 11:50:31  5-MIN KMSN 021750Z 11013G18KT 10SM FEW100 19/07 A3020 600 44 1200 110/13G18 RMK AO2 SLP227 T01890067 10194 20128 51011
14837KMSN MSN20110602115509306/02/11 11:55:31  5-MIN KMSN 021755Z 13010KT 10SM CLR 19/07 A3020 600 44 1300 130/10 RMK AO2
14837KMSN MSN20110602120009306/02/11 12:00:31  5-MIN KMSN 021800Z 11011KT 10SM CLR 19/07 A3020 610 44 1300 110/11 RMK AO2
14837KMSN MSN20110602120509306/02/11 12:05:31  5-MIN KMSN 021805Z 12007KT 10SM CLR 19/07 A3020 610 43 1300 120/07 RMK AO2
14837KMSN MSN20110602121009306/02/11 12:10:31  5-MIN KMSN 021810Z 12007KT 10SM CLR 20/08 A3020 610 45 1400 120/07 RMK AO2
14837KMSN MSN20110602121509906/02/11 12:15:31  5-MIN KMSN 021815Z 09009G14KT 10SM CLR 19/07 A3020 610 44 1300 100/09G14 RMK AO2
14837KMSN MSN20110602122009906/02/11 12:20:31  5-MIN KMSN 021820Z 09010G14KT 10SM CLR 20/08 A3019 610 45 1400 100/10G14 RMK AO2
14837KMSN MSN20110602122509306/02/11 12:25:31  5-MIN KMSN 021825Z 14010KT 10SM CLR 21/08 A3019 610 43 1400 140/10 RMK AO2
14837KMSN MSN20110602123009306/02/11 12:30:31  5-MIN KMSN 021830Z 12011KT 10SM CLR 20/07 A3019 610 43 1400 120/11 RMK AO2
14837KMSN MSN20110602123509306/02/11 12:35:31  5-MIN KMSN 021835Z 16007KT 10SM CLR 20/07 A3019 610 43 1400 160/07 RMK AO2
14837KMSN MSN20110602124009306/02/11 12:40:31  5-MIN KMSN 021840Z 12009KT 10SM CLR 20/07 A3020 610 43 1400 130/09 RMK AO2
14837KMSN MSN20110602124509306/02/11 12:45:31  5-MIN KMSN 021845Z 14009KT 10SM CLR 20/08 A3020 610 45 1400 140/09 RMK AO2
14837KMSN MSN20110602125011906/02/11 12:50:31  5-MIN KMSN 021850Z 13012G16KT 10SM FEW120 21/08 A3020 610 43 1400 130/12G16 RMK AO2 SLP223 T02060078
14837KMSN MSN20110602125509306/02/11 12:55:31  5-MIN KMSN 021855Z 14010KT 10SM CLR 20/07 A3019 610 43 1400 140/10 RMK AO2
14837KMSN MSN20110602130009606/02/11 13:00:31  5-MIN KMSN 021900Z 10011KT 10SM FEW085 20/07 A3019 620 43 1400 100/11 RMK AO2
14837KMSN MSN20110602130509606/02/11 13:05:31  5-MIN KMSN 021905Z 12012KT 10SM FEW085 21/08 A3019 620 42 1500 120/12 RMK AO2
14837KMSN MSN20110602131009606/02/11 13:10:31  5-MIN KMSN 021910Z 12010KT 10SM SCT090 21/08 A3019 620 42 1500 120/10 RMK AO2
14837KMSN MSN20110602131510206/02/11 13:15:31  5-MIN KMSN 021915Z 11006G15KT 10SM SCT090 21/07 A3018 620 41 1500 110/06G15 RMK AO2
14837KMSN MSN20110602132009606/02/11 13:20:31  5-MIN KMSN 021920Z 13010KT 10SM SCT090 21/07 A3018 620 41 1500 130/10 RMK AO2
14837KMSN MSN20110602132511206/02/11 13:25:31  5-MIN KMSN 021925Z 14007KT 080V150 10SM BKN090 21/07 A3018 630 41 1500 140/07 080V150 RMK AO2
14837KMSN MSN20110602133009606/02/11 13:30:31  5-MIN KMSN 021930Z 12009KT 10SM BKN090 21/08 A3017 630 42 1500 120/09 RMK AO2
14837KMSN MSN20110602133510306/02/11 13:35:31  5-MIN KMSN 021935Z 14008KT 10SM FEW040 BKN090 21/08 A3017 630 43 1500 140/08 RMK AO2
14837KMSN MSN20110602134010306/02/11 13:40:31  5-MIN KMSN 021940Z 15009KT 10SM SCT040 BKN090 21/08 A3017 630 43 1500 150/09 RMK AO2
14837KMSN MSN20110602134510306/02/11 13:45:31  5-MIN KMSN 021945Z 12008KT 10SM BKN040 BKN090 21/07 A3017 630 41 1500 130/08 RMK AO2
14837KMSN MSN20110602162009606/02/11 16:20:31  5-MIN KMSN 022220Z 12009KT 10SM FEW100 22/08 A3011 690 40 1700 120/09 RMK AO2
14837KMSN MSN20110602162509606/02/11 16:25:31  5-MIN KMSN 022225Z 13010KT 10SM FEW100 22/09 A3011 690 42 1700 130/10 RMK AO2
14837KMSN MSN20110602163009606/02/11 16:30:31  5-MIN KMSN 022230Z 13010KT 10SM SCT042 22/09 A3010 700 42 1700 130/10 RMK AO2
14837KMSN MSN20110602163509606/02/11 16:35:31  5-MIN KMSN 022235Z 13011KT 10SM SCT042 22/09 A3010 700 42 1700 130/11 RMK AO2
14837KMSN MSN20110602164009606/02/11 16:40:31  5-MIN KMSN 022240Z 12008KT 10SM SCT042 22/09 A3010 700 43 1700 120/08 RMK AO2
14837KMSN MSN20110602164509606/02/11 16:45:31  5-MIN KMSN 022245Z 13011KT 10SM SCT042 22/09 A3010 700 43 1700 130/11 RMK AO2
14837KMSN MSN20110602165011306/02/11 16:50:31  5-MIN KMSN 022250Z 14010KT 10SM BKN042 22/08 A3010 700 42 1700 140/10 RMK AO2 SLP192 T02170083
14837KMSN MSN20110602165509606/02/11 16:55:31  5-MIN KMSN 022255Z 13011KT 10SM BKN042 22/08 A3010 700 42 1700 130/11 RMK AO2
14837KMSN MSN20110602170009606/02/11 17:00:31  5-MIN KMSN 022300Z 13010KT 10SM BKN042 22/09 A3010 700 43 1700 130/10 RMK AO2
14837KMSN MSN20110602170509606/02/11 17:05:31  5-MIN KMSN 022305Z 13011KT 10SM BKN042 22/08 A3010 700 42 1700 130/11 RMK AO2
14837KMSN MSN20110602171009606/02/11 17:10:31  5-MIN KMSN 022310Z 13009KT 10SM BKN042 22/09 A3010 700 43 1700 130/09 RMK AO2
14837KMSN MSN20110602171509606/02/11 17:15:31  5-MIN KMSN 022315Z 13012KT 10SM BKN042 22/08 A3010 700 42 1700 130/12 RMK AO2
14837KMSN MSN20110602172009606/02/11 17:20:31  5-MIN KMSN 022320Z 13011KT 10SM BKN042 22/08 A3010 700 42 1700 130/11 RMK AO2
14837KMSN MSN20110602172509606/02/11 17:25:31  5-MIN KMSN 022325Z 13011KT 10SM BKN042 22/08 A3010 700 42 1700 140/11 RMK AO2
14837KMSN MSN20110602173009606/02/11 17:30:31  5-MIN KMSN 022330Z 13010KT 10SM BKN042 22/09 A3010 700 43 1700 130/10 RMK AO2
14837KMSN MSN20110602173509606/02/11 17:35:31  5-MIN KMSN 022335Z 13011KT 10SM BKN042 21/08 A3010 700 43 1600 130/11 RMK AO2
14837KMSN MSN20110602174009606/02/11 17:40:31  5-MIN KMSN 022340Z 14010KT 10SM BKN042 22/08 A3010 700 42 1700 140/10 RMK AO2
14837KMSN MSN20110602174509606/02/11 17:45:31  5-MIN KMSN 022345Z 13011KT 10SM BKN042 21/08 A3010 700 43 1600 130/11 RMK AO2
14837KMSN MSN20110602175013106/02/11 17:50:31  5-MIN KMSN 022350Z 14009KT 10SM BKN042 22/08 A3010 700 42 1700 140/09 RMK AO2 SLP192 T02170083 10228 20189 58021
14837KMSN MSN20110602175509606/02/11 17:55:31  5-MIN KMSN 022355Z 13009KT 10SM BKN042 21/09 A3010 700 45 1600 130/09 RMK AO2
14837KMSN MSN20110602180009606/02/11 18:00:31  5-MIN KMSN 030000Z 13010KT 10SM BKN042 21/08 A3010 690 43 1600 130/10 RMK AO2
14837KMSN MSN20110602180509606/02/11 18:05:31  5-MIN KMSN 030005Z 13010KT 10SM BKN042 21/08 A3010 700 43 1600 130/10 RMK AO2
14837KMSN MSN20110602181009606/02/11 18:10:31  5-MIN KMSN 030010Z 13008KT 10SM BKN042 21/08 A3010 700 43 1600 130/08 RMK AO2
14837KMSN MSN20110602181509606/02/11 18:15:31  5-MIN KMSN 030015Z 12010KT 10SM BKN042 21/08 A3010 700 43 1600 130/10 RMK AO2
14837KMSN MSN20110602182009606/02/11 18:20:31  5-MIN KMSN 030020Z 13010KT 10SM BKN042 21/08 A3010 700 42 1600 130/10 RMK AO2
14837KMSN MSN20110602182509606/02/11 18:25:31  5-MIN KMSN 030025Z 12010KT 10SM BKN042 21/08 A3010 700 43 1600 130/10 RMK AO2
14837KMSN MSN20110602183009606/02/11 18:30:31  5-MIN KMSN 030030Z 13009KT 10SM BKN042 21/08 A3010 700 45 1500 130/09 RMK AO2
14837KMSN MSN20110602183509606/02/11 18:35:31  5-MIN KMSN 030035Z 13009KT 10SM BKN042 21/08 A3010 700 45 1500 130/09 RMK AO2
14837KMSN MSN20110602184009606/02/11 18:40:31  5-MIN KMSN 030040Z 12007KT 10SM SCT040 21/09 A3010 700 46 1500 120/07 RMK AO2
14837KMSN MSN20110602184509606/02/11 18:45:31  5-MIN KMSN 030045Z 13008KT 10SM SCT040 20/09 A3010 700 48 1500 140/08 RMK AO2
14837KMSN MSN20110602185011306/02/11 18:50:31  5-MIN KMSN 030050Z 13009KT 10SM SCT040 20/08 A3010 700 46 1500 130/09 RMK AO2 SLP191 T02000083
14837KMSN MSN20110602185509606/02/11 18:55:31  5-MIN KMSN 030055Z 12008KT 10SM SCT040 20/08 A3010 700 46 1500 120/08 RMK AO2
14837KMSN MSN20110602190009606/02/11 19:00:31  5-MIN KMSN 030100Z 13007KT 10SM SCT040 19/08 A3010 700 48 1400 140/07 RMK AO2
14837KMSN MSN20110602190509606/02/11 19:05:31  5-MIN KMSN 030105Z 12006KT 10SM SCT040 19/08 A3010 700 48 1400 120/06 RMK AO2
14837KMSN MSN20110602191009606/02/11 19:10:31  5-MIN KMSN 030110Z 13007KT 10SM SCT040 19/08 A3010 700 48 1400 130/07 RMK AO2
14837KMSN MSN20110602191509606/02/11 19:15:31  5-MIN KMSN 030115Z 13007KT 10SM SCT040 19/08 A3010 700 48 1400 130/07 RMK AO2
14837KMSN MSN20110602192009606/02/11 19:20:31  5-MIN KMSN 030120Z 13008KT 10SM SCT040 19/08 A3009 700 48 1400 130/08 RMK AO2
14837KMSN MSN20110602192509606/02/11 19:25:31  5-MIN KMSN 030125Z 13008KT 10SM SCT040 19/08 A3009 710 48 1400 130/08 RMK AO2
14837KMSN MSN20110602193009606/02/11 19:30:31  5-MIN KMSN 030130Z 13008KT 10SM SCT040 19/08 A3009 710 50 1400 130/08 RMK AO2
14837KMSN MSN20110602193509606/02/11 19:35:31  5-MIN KMSN 030135Z 13010KT 10SM SCT040 19/09 A3008 710 52 1400 130/10 RMK AO2
14837KMSN MSN20110602194010306/02/11 19:40:31  5-MIN KMSN 030140Z 12009KT 10SM FEW047 BKN060 19/08 A3009 710 48 1400 120/09 RMK AO2
14837KMSN MSN20110602194510306/02/11 19:45:31  5-MIN KMSN 030145Z 13009KT 10SM SCT050 BKN060 19/08 A3009 710 48 1400 130/09 RMK AO2
14837KMSN MSN20110602195012006/02/11 19:50:31  5-MIN KMSN 030150Z 14010KT 10SM SCT048 BKN060 19/08 A3009 710 48 1400 140/10 RMK AO2 SLP189 T01940083
14837KMSN MSN20110602195510306/02/11 19:55:31  5-MIN KMSN 030155Z 14010KT 10SM BKN048 OVC060 19/08 A3009 700 46 1400 140/10 RMK AO2
14837KMSN MSN20110602200010306/02/11 20:00:31  5-MIN KMSN 030200Z 14009KT 10SM BKN048 OVC060 19/08 A3010 700 48 1400 140/09 RMK AO2
14837KMSN MSN20110602200509606/02/11 20:05:31  5-MIN KMSN 030205Z 13008KT 10SM OVC050 19/08 A3010 700 48 1400 140/08 RMK AO2
14837KMSN MSN20110602201009606/02/11 20:10:31  5-MIN KMSN 030210Z 13008KT 10SM OVC050 19/08 A3010 700 48 1400 130/08 RMK AO2
14837KMSN MSN20110602201509606/02/11 20:15:31  5-MIN KMSN 030215Z 13009KT 10SM BKN050 19/08 A3010 700 50 1400 130/09 RMK AO2
14837KMSN MSN20110602202009606/02/11 20:20:31  5-MIN KMSN 030220Z 13008KT 10SM BKN050 18/08 A3010 700 52 1300 140/08 RMK AO2
14837KMSN MSN20110602202509606/02/11 20:25:31  5-MIN KMSN 030225Z 13007KT 10SM SCT050 18/08 A3009 700 52 1300 130/07 RMK AO2
14837KMSN MSN20110602203009606/02/11 20:30:31  5-MIN KMSN 030230Z 13007KT 10SM SCT050 18/09 A3010 700 54 1300 130/07 RMK AO2
14837KMSN MSN20110602203509606/02/11 20:35:31  5-MIN KMSN 030235Z 14008KT 10SM FEW050 18/09 A3010 700 54 1300 140/08 RMK AO2
14837KMSN MSN20110602204009306/02/11 20:40:31  5-MIN KMSN 030240Z 14007KT 10SM CLR 18/09 A3010 700 54 1300 140/07 RMK AO2
14837KMSN MSN20110602204509606/02/11 20:45:31  5-MIN KMSN 030245Z 13007KT 10SM FEW080 18/09 A3010 700 54 1300 130/07 RMK AO2
14837KMSN MSN20110602205011906/02/11 20:50:31  5-MIN KMSN 030250Z 13008KT 10SM FEW080 18/09 A3009 700 54 1300 140/08 RMK AO2 SLP189 T01830089 55013
14837KMSN MSN20110602205509606/02/11 20:55:31  5-MIN KMSN 030255Z 13008KT 10SM BKN085 18/09 A3009 710 54 1300 130/08 RMK AO2
14837KMSN MSN20110602210009606/02/11 21:00:31  5-MIN KMSN 030300Z 12008KT 10SM BKN085 18/09 A3008 710 54 1300 120/08 RMK AO2
14837KMSN MSN20110602210509606/02/11 21:05:31  5-MIN KMSN 030305Z 12008KT 10SM BKN085 18/09 A3008 710 55 1200 120/08 RMK AO2
14837KMSN MSN20110602211009606/02/11 21:10:31  5-MIN KMSN 030310Z 13008KT 10SM OVC085 18/09 A3009 710 54 1300 130/08 RMK AO2
14837KMSN MSN20110602211509606/02/11 21:15:31  5-MIN KMSN 030315Z 14009KT 10SM OVC085 18/09 A3009 710 54 1300 140/09 RMK AO2
14837KMSN MSN20110602212009606/02/11 21:20:31  5-MIN KMSN 030320Z 14006KT 10SM OVC080 18/09 A3009 710 55 1200 140/06 RMK AO2
14837KMSN MSN20110602212509606/02/11 21:25:31  5-MIN KMSN 030325Z 13008KT 10SM BKN080 18/09 A3009 710 55 1200 130/08 RMK AO2
14837KMSN MSN20110602213009606/02/11 21:30:31  5-MIN KMSN 030330Z 13006KT 10SM FEW080 18/09 A3009 710 55 1200 130/06 RMK AO2
14837KMSN MSN20110602213509606/02/11 21:35:31  5-MIN KMSN 030335Z 13007KT 10SM FEW080 18/09 A3009 710 55 1200 130/07 RMK AO2
14837KMSN MSN20110602214009606/02/11 21:40:31  5-MIN KMSN 030340Z 13009KT 10SM FEW080 18/09 A3009 710 55 1200 130/09 RMK AO2
14837KMSN MSN20110602214509606/02/11 21:45:31  5-MIN KMSN 030345Z 13009KT 10SM FEW080 18/09 A3008 710 55 1200 140/09 RMK AO2
14837KMSN MSN20110602215011306/02/11 21:50:31  5-MIN KMSN 030350Z 14007KT 10SM BKN080 17/09 A3009 710 57 1200 140/07 RMK AO2 SLP188 T01720089
14837KMSN MSN20110602215509606/02/11 21:55:31  5-MIN KMSN 030355Z 14010KT 10SM BKN080 18/09 A3009 710 55 1200 150/10 RMK AO2
14837KMSN MSN20110602220009606/02/11 22:00:31  5-MIN KMSN 030400Z 13009KT 10SM BKN080 18/09 A3009 710 55 1200 130/09 RMK AO2
14837KMSN MSN20110602220509606/02/11 22:05:31  5-MIN KMSN 030405Z 13009KT 10SM BKN075 18/09 A3009 710 55 1200 130/09 RMK AO2
14837KMSN MSN20110602221010306/02/11 22:10:31  5-MIN KMSN 030410Z 14008KT 10SM BKN070 BKN085 17/09 A3009 710 57 1200 140/08 RMK AO2
14837KMSN MSN20110602221509606/02/11 22:15:31  5-MIN KMSN 030415Z 14008KT 10SM BKN070 17/09 A3009 710 60 1200 140/08 RMK AO2
14837KMSN MSN20110602222010306/02/11 22:20:31  5-MIN KMSN 030420Z 14008KT 10SM BKN070 BKN080 17/09 A3009 710 60 1200 140/08 RMK AO2
14837KMSN MSN20110602222509606/02/11 22:25:31  5-MIN KMSN 030425Z 14007KT 10SM BKN070 17/09 A3009 710 60 1200 150/07 RMK AO2
14837KMSN MSN20110602223009606/02/11 22:30:31  5-MIN KMSN 030430Z 14010KT 10SM BKN070 17/09 A3009 710 60 1200 140/10 RMK AO2
14837KMSN MSN20110602223509606/02/11 22:35:31  5-MIN KMSN 030435Z 15008KT 10SM SCT070 17/09 A3008 710 60 1200 150/08 RMK AO2
14837KMSN MSN20110602224009606/02/11 22:40:31  5-MIN KMSN 030440Z 15008KT 10SM FEW070 17/09 A3008 710 60 1200 150/08 RMK AO2
14837KMSN MSN20110602224509606/02/11 22:45:31  5-MIN KMSN 030445Z 14007KT 10SM FEW070 17/09 A3008 720 60 1200 140/07 RMK AO2
14837KMSN MSN20110602225011306/02/11 22:50:31  5-MIN KMSN 030450Z 15008KT 10SM FEW070 17/09 A3008 720 60 1200 150/08 RMK AO2 SLP185 T01720094
14837KMSN MSN20110602225509306/02/11 22:55:31  5-MIN KMSN 030455Z 15008KT 10SM CLR 17/09 A3008 720 60 1200 150/08 RMK AO2
14837KMSN MSN20110602230009306/02/11 23:00:31  5-MIN KMSN 030500Z 14007KT 10SM CLR 17/09 A3007 720 62 1100 140/07 RMK AO2
14837KMSN MSN20110602230509306/02/11 23:05:31  5-MIN KMSN 030505Z 13008KT 10SM CLR 17/09 A3007 720 62 1100 140/08 RMK AO2
14837KMSN MSN20110602231009306/02/11 23:10:31  5-MIN KMSN 030510Z 13007KT 10SM CLR 17/09 A3007 720 62 1100 140/07 RMK AO2
14837KMSN MSN20110602231510306/02/11 23:15:31  5-MIN KMSN 030515Z 13008KT 10SM FEW060 SCT090 17/09 A3008 720 62 1100 140/08 RMK AO2
14837KMSN MSN20110602232010306/02/11 23:20:31  5-MIN KMSN 030520Z 14008KT 10SM SCT060 SCT090 17/09 A3008 720 62 1100 140/08 RMK AO2
14837KMSN MSN20110602232509606/02/11 23:25:31  5-MIN KMSN 030525Z 15008KT 10SM SCT060 17/09 A3008 720 62 1100 150/08 RMK AO2
14837KMSN MSN20110602233009606/02/11 23:30:31  5-MIN KMSN 030530Z 14008KT 10SM SCT060 17/09 A3007 720 62 1100 150/08 RMK AO2
14837KMSN MSN20110602233509606/02/11 23:35:31  5-MIN KMSN 030535Z 14009KT 10SM FEW060 17/09 A3007 720 62 1100 140/09 RMK AO2
14837KMSN MSN20110602234009606/02/11 23:40:31  5-MIN KMSN 030540Z 15006KT 10SM FEW060 16/09 A3007 720 64 1100 150/06 RMK AO2
14837KMSN MSN20110602234509606/02/11 23:45:31  5-MIN KMSN 030545Z 14007KT 10SM FEW060 16/09 A3007 730 64 1100 140/07 RMK AO2
14837KMSN MSN20110602235014106/02/11 23:50:31  5-MIN KMSN 030550Z 14006KT 10SM SCT085 16/09 A3007 730 64 1100 140/06 RMK AO2 SLP180 T01610094 10211 20161 402280128 58004
14837KMSN MSN20110602235509606/02/11 23:55:31  5-MIN KMSN 030555Z 12006KT 10SM SCT085 16/09 A3007 730 67 1000 130/06 RMK AO2
14837KMSN MSN20110603000009606/03/11 00:00:32  5-MIN KMSN 030600Z 12007KT 10SM SCT085 16/09 A3007 730 67 1000 130/07 RMK AO2
14837KMSN MSN20110603000509606/03/11 00:05:31  5-MIN KMSN 030605Z 13005KT 10SM FEW085 16/09 A3006 730 67 1000 140/05 RMK AO2
14837KMSN MSN20110603001009606/03/11 00:10:31  5-MIN KMSN 030610Z 13005KT 10SM FEW085 16/09 A3006 730 67 1000 130/05 RMK AO2
14837KMSN MSN20110603001509606/03/11 00:15:31  5-MIN KMSN 030615Z 13005KT 10SM FEW085 16/09 A3006 730 67 1000 130/05 RMK AO2
14837KMSN MSN20110603002009206/03/11 00:20:31  5-MIN KMSN 030620Z 12006KT 10SM CLR 15/09 A3006 740 69 900 130/06 RMK AO2
14837KMSN MSN20110603002509606/03/11 00:25:31  5-MIN KMSN 030625Z 12006KT 10SM FEW095 16/09 A3006 740 67 1000 130/06 RMK AO2
14837KMSN MSN20110603003009606/03/11 00:30:31  5-MIN KMSN 030630Z 12005KT 10SM FEW095 15/09 A3006 740 69 1000 120/05 RMK AO2
14837KMSN MSN20110603003509606/03/11 00:35:31  5-MIN KMSN 030635Z 12004KT 10SM FEW095 15/09 A3005 740 69 1000 120/04 RMK AO2
14837KMSN MSN20110603004009606/03/11 00:40:31  5-MIN KMSN 030640Z 12005KT 10SM FEW095 15/09 A3005 740 69 1000 120/05 RMK AO2
14837KMSN MSN20110603004509606/03/11 00:45:31  5-MIN KMSN 030645Z 11004KT 10SM FEW095 15/09 A3005 740 69 1000 120/04 RMK AO2
14837KMSN MSN20110603005011306/03/11 00:50:31  5-MIN KMSN 030650Z 13006KT 10SM SCT095 15/09 A3005 740 69 1000 140/06 RMK AO2 SLP174 T01500094
14837KMSN MSN20110603005509606/03/11 00:55:31  5-MIN KMSN 030655Z 13005KT 10SM FEW095 15/09 A3005 750 69 1000 130/05 RMK AO2
14837KMSN MSN20110603010009506/03/11 01:00:31  5-MIN KMSN 030700Z 13005KT 10SM FEW095 14/09 A3005 740 72 900 130/05 RMK AO2
14837KMSN MSN20110603010509606/03/11 01:05:31  5-MIN KMSN 030705Z 13005KT 10SM FEW095 15/09 A3005 740 69 1000 140/05 RMK AO2
14837KMSN MSN20110603011009606/03/11 01:10:31  5-MIN KMSN 030710Z 13006KT 10SM FEW095 15/09 A3005 750 69 1000 130/06 RMK AO2
14837KMSN MSN20110603011509306/03/11 01:15:31  5-MIN KMSN 030715Z 13006KT 10SM CLR 15/09 A3005 740 69 1000 130/06 RMK AO2
14837KMSN MSN20110603012009206/03/11 01:20:31  5-MIN KMSN 030720Z 13006KT 10SM CLR 14/09 A3005 740 72 900 140/06 RMK AO2
14837KMSN MSN20110603012509606/03/11 01:25:31  5-MIN KMSN 030725Z 13005KT 10SM FEW100 15/09 A3005 740 69 1000 130/05 RMK AO2
14837KMSN MSN20110603013009606/03/11 01:30:31  5-MIN KMSN 030730Z 13004KT 10SM FEW100 15/09 A3005 740 69 1000 130/04 RMK AO2
14837KMSN MSN20110603013510206/03/11 01:35:31  5-MIN KMSN 030735Z 13004KT 10SM FEW060 SCT100 14/09 A3006 740 72 900 130/04 RMK AO2
14837KMSN MSN20110603014010206/03/11 01:40:31  5-MIN KMSN 030740Z 13005KT 10SM FEW060 BKN100 15/09 A3006 730 69 900 140/05 RMK AO2
14837KMSN MSN20110603014510206/03/11 01:45:31  5-MIN KMSN 030745Z 13006KT 10SM FEW060 BKN100 15/09 A3006 730 69 900 130/06 RMK AO2
14837KMSN MSN20110603015011906/03/11 01:50:31  5-MIN KMSN 030750Z 13006KT 10SM SCT060 BKN095 15/09 A3006 730 69 900 130/06 RMK AO2 SLP178 T01500094
14837KMSN MSN20110603015510206/03/11 01:55:31  5-MIN KMSN 030755Z 13005KT 10SM FEW060 OVC095 15/09 A3006 730 69 900 130/05 RMK AO2
14837KMSN MSN20110603020010206/03/11 02:00:31  5-MIN KMSN 030800Z 13005KT 10SM FEW060 OVC095 15/09 A3006 730 69 900 130/05 RMK AO2
14837KMSN MSN20110603020510206/03/11 02:05:31  5-MIN KMSN 030805Z 12006KT 10SM FEW060 OVC095 14/09 A3006 730 72 900 130/06 RMK AO2
14837KMSN MSN20110603021010206/03/11 02:10:31  5-MIN KMSN 030810Z 12006KT 10SM FEW060 OVC090 14/09 A3006 730 72 900 130/06 RMK AO2
14837KMSN MSN20110603021509506/03/11 02:15:31  5-MIN KMSN 030815Z 13006KT 10SM OVC095 14/09 A3007 730 72 900 130/06 RMK AO2
14837KMSN MSN20110603022009506/03/11 02:20:31  5-MIN KMSN 030820Z 13006KT 10SM OVC095 15/09 A3007 730 69 900 140/06 RMK AO2
14837KMSN MSN20110603022509506/03/11 02:25:31  5-MIN KMSN 030825Z 14005KT 10SM OVC095 15/09 A3006 730 69 900 140/05 RMK AO2
14837KMSN MSN20110603023010206/03/11 02:30:31  5-MIN KMSN 030830Z 14005KT 10SM FEW055 OVC095 15/09 A3006 730 69 900 140/05 RMK AO2
14837KMSN MSN20110603023510906/03/11 02:35:31  5-MIN KMSN 030835Z 14008KT 10SM SCT055 SCT070 OVC095 15/09 A3006 730 69 900 140/08 RMK AO2
14837KMSN MSN20110603024010206/03/11 02:40:31  5-MIN KMSN 030840Z 14006KT 10SM BKN055 OVC095 15/09 A3006 730 69 900 140/06 RMK AO2
14837KMSN MSN20110603024510206/03/11 02:45:31  5-MIN KMSN 030845Z 13006KT 10SM BKN055 OVC100 15/09 A3006 730 69 900 130/06 RMK AO2
14837KMSN MSN20110603025013206/03/11 02:50:31  5-MIN KMSN 030850Z 13005KT 10SM FEW055 SCT065 OVC100 15/09 A3006 730 69 900 130/05 RMK AO2 SLP178 T01500094 58007
14837KMSN MSN20110603025510906/03/11 02:55:31  5-MIN KMSN 030855Z 13006KT 10SM FEW055 SCT065 OVC095 15/09 A3006 730 69 900 130/06 RMK AO2
14837KMSN MSN20110603030010906/03/11 03:00:31  5-MIN KMSN 030900Z 13005KT 10SM SCT060 BKN090 OVC100 15/09 A3006 730 69 900 130/05 RMK AO2
14837KMSN MSN20110603030510906/03/11 03:05:31  5-MIN KMSN 030905Z 13004KT 10SM SCT060 BKN090 OVC100 15/10 A3006 740 72 900 130/04 RMK AO2
14837KMSN MSN20110603031010206/03/11 03:10:31  5-MIN KMSN 030910Z 13004KT 10SM FEW065 OVC095 15/10 A3006 730 72 900 130/04 RMK AO2
14837KMSN MSN20110603031510306/03/11 03:15:31  5-MIN KMSN 030915Z 12005KT 10SM FEW065 OVC100 15/10 A3006 740 72 1000 120/05 RMK AO2
14837KMSN MSN20110603032011006/03/11 03:20:31  5-MIN KMSN 030920Z 13006KT 10SM FEW065 SCT090 OVC110 15/10 A3005 740 72 1000 130/06 RMK AO2
14837KMSN MSN20110603032510306/03/11 03:25:31  5-MIN KMSN 030925Z 12005KT 10SM FEW065 OVC100 15/10 A3005 740 72 1000 130/05 RMK AO2
14837KMSN MSN20110603033009606/03/11 03:30:31  5-MIN KMSN 030930Z 11004KT 10SM OVC100 15/10 A3006 740 72 1000 110/04 RMK AO2
14837KMSN MSN20110603033509506/03/11 03:35:31  5-MIN KMSN 030935Z 11004KT 10SM OVC100 15/10 A3006 740 72 900 110/04 RMK AO2
14837KMSN MSN20110603034009506/03/11 03:40:31  5-MIN KMSN 030940Z 12005KT 10SM OVC100 15/10 A3006 740 72 900 120/05 RMK AO2
14837KMSN MSN20110603034509506/03/11 03:45:31  5-MIN KMSN 030945Z 12005KT 10SM OVC100 15/10 A3006 740 72 900 120/05 RMK AO2
14837KMSN MSN20110603035011206/03/11 03:50:31  5-MIN KMSN 030950Z 13004KT 10SM BKN100 15/10 A3006 740 72 900 130/04 RMK AO2 SLP176 T01500100
14837KMSN MSN20110603035509606/03/11 03:55:31  5-MIN KMSN 030955Z 14004KT 10SM BKN100 15/10 A3006 740 72 1000 150/04 RMK AO2
14837KMSN MSN20110603040009606/03/11 04:00:31  5-MIN KMSN 031000Z 14004KT 10SM BKN100 15/11 A3005 740 74 1000 140/04 RMK AO2
14837KMSN MSN20110603040509606/03/11 04:05:31  5-MIN KMSN 031005Z 16007KT 10SM SCT100 16/11 A3005 740 72 1000 170/07 RMK AO2
14837KMSN MSN20110603041009606/03/11 04:10:31  5-MIN KMSN 031010Z 17006KT 10SM FEW100 16/11 A3006 740 69 1100 170/06 RMK AO2
14837KMSN MSN20110603041509606/03/11 04:15:31  5-MIN KMSN 031015Z 17007KT 10SM SCT100 16/11 A3006 740 72 1100 170/07 RMK AO2
14837KMSN MSN20110603042009606/03/11 04:20:31  5-MIN KMSN 031020Z 17006KT 10SM SCT100 16/11 A3006 740 72 1100 170/06 RMK AO2
14837KMSN MSN20110603042509606/03/11 04:25:31  5-MIN KMSN 031025Z 16007KT 10SM SCT100 16/11 A3006 740 72 1100 160/07 RMK AO2
14837KMSN MSN20110603043009606/03/11 04:30:31  5-MIN KMSN 031030Z 16006KT 10SM SCT100 16/11 A3006 740 72 1100 160/06 RMK AO2
14837KMSN MSN20110603043509606/03/11 04:35:31  5-MIN KMSN 031035Z 16008KT 10SM FEW100 16/11 A3006 740 72 1100 160/08 RMK AO2
14837KMSN MSN20110603044009606/03/11 04:40:31  5-MIN KMSN 031040Z 16007KT 10SM FEW100 16/11 A3005 740 72 1100 160/07 RMK AO2
14837KMSN MSN20110603044509606/03/11 04:45:31  5-MIN KMSN 031045Z 16008KT 10SM FEW100 16/11 A3006 740 72 1100 160/08 RMK AO2
14837KMSN MSN20110603045011006/03/11 04:50:31  5-MIN KMSN 031050Z 16007KT 10SM CLR 16/11 A3006 740 72 1100 160/07 RMK AO2 SLP176 T01610111
14837KMSN MSN20110603045509306/03/11 04:55:31  5-MIN KMSN 031055Z 16007KT 10SM CLR 16/11 A3005 740 72 1100 160/07 RMK AO2
14837KMSN MSN20110603050009306/03/11 05:00:31  5-MIN KMSN 031100Z 16007KT 10SM CLR 16/12 A3005 750 75 1100 160/07 RMK AO2
14837KMSN MSN20110603050509306/03/11 05:05:31  5-MIN KMSN 031105Z 16008KT 10SM CLR 17/12 A3005 750 72 1200 160/08 RMK AO2
14837KMSN MSN20110603051009306/03/11 05:10:31  5-MIN KMSN 031110Z 16008KT 10SM CLR 17/12 A3005 740 72 1200 160/08 RMK AO2
14837KMSN MSN20110603051509306/03/11 05:15:31  5-MIN KMSN 031115Z 16008KT 10SM CLR 17/12 A3005 740 72 1200 160/08 RMK AO2
14837KMSN MSN20110603052009306/03/11 05:20:31  5-MIN KMSN 031120Z 16007KT 10SM CLR 17/12 A3005 740 72 1200 160/07 RMK AO2
14837KMSN MSN20110603052509306/03/11 05:25:31  5-MIN KMSN 031125Z 17008KT 10SM CLR 17/12 A3005 740 69 1200 170/08 RMK AO2
14837KMSN MSN20110603053009306/03/11 05:30:31  5-MIN KMSN 031130Z 17007KT 10SM CLR 17/12 A3005 740 72 1200 170/07 RMK AO2
14837KMSN MSN20110603053509306/03/11 05:35:31  5-MIN KMSN 031135Z 17007KT 10SM CLR 17/12 A3005 750 72 1200 170/07 RMK AO2
14837KMSN MSN20110603054009306/03/11 05:40:31  5-MIN KMSN 031140Z 17009KT 10SM CLR 18/12 A3005 750 69 1300 170/09 RMK AO2
14837KMSN MSN20110603054509306/03/11 05:45:31  5-MIN KMSN 031145Z 17009KT 10SM CLR 18/12 A3005 750 69 1300 170/09 RMK AO2
14837KMSN MSN20110603055012806/03/11 05:50:31  5-MIN KMSN 031150Z 17009KT 10SM CLR 18/12 A3004 750 69 1300 170/09 RMK AO2 SLP171 T01780122 10178 20144 55002
14837KMSN MSN20110603055509306/03/11 05:55:31  5-MIN KMSN 031155Z 18009KT 10SM CLR 18/12 A3005 750 67 1400 180/09 RMK AO2
14837KMSN MSN20110603060009306/03/11 06:00:31  5-MIN KMSN 031200Z 17009KT 10SM CLR 18/13 A3004 750 70 1400 170/09 RMK AO2
14837KMSN MSN20110603060509306/03/11 06:05:31  5-MIN KMSN 031205Z 17008KT 10SM CLR 18/13 A3004 750 70 1400 170/08 RMK AO2
14837KMSN MSN20110603061009306/03/11 06:10:31  5-MIN KMSN 031210Z 17009KT 10SM CLR 19/13 A3004 760 67 1400 170/09 RMK AO2
14837KMSN MSN20110603061509306/03/11 06:15:31  5-MIN KMSN 031215Z 17009KT 10SM CLR 19/13 A3004 760 67 1400 170/09 RMK AO2
14837KMSN MSN20110603062009306/03/11 06:20:31  5-MIN KMSN 031220Z 17008KT 10SM CLR 19/13 A3003 760 67 1500 170/08 RMK AO2
14837KMSN MSN20110603062509306/03/11 06:25:31  5-MIN KMSN 031225Z 17010KT 10SM CLR 19/13 A3003 760 67 1500 180/10 RMK AO2
14837KMSN MSN20110603063009306/03/11 06:30:31  5-MIN KMSN 031230Z 18008KT 10SM CLR 19/13 A3003 760 67 1500 180/08 RMK AO2
14837KMSN MSN20110603063509306/03/11 06:35:31  5-MIN KMSN 031235Z 18007KT 10SM CLR 20/14 A3003 760 67 1600 180/07 RMK AO2
14837KMSN MSN20110603064009306/03/11 06:40:31  5-MIN KMSN 031240Z 18010KT 10SM CLR 20/14 A3003 760 67 1600 180/10 RMK AO2
14837KMSN MSN20110603064509306/03/11 06:45:31  5-MIN KMSN 031245Z 18009KT 10SM CLR 20/14 A3003 770 67 1600 180/09 RMK AO2
14837KMSN MSN20110603065011006/03/11 06:50:31  5-MIN KMSN 031250Z 18010KT 10SM CLR 20/14 A3002 770 67 1600 190/10 RMK AO2 SLP163 T02000139
14837KMSN MSN20110603065509306/03/11 06:55:31  5-MIN KMSN 031255Z 18011KT 10SM CLR 21/14 A3002 770 65 1600 180/11 RMK AO2
14837KMSN MSN20110603070009306/03/11 07:00:31  5-MIN KMSN 031300Z 18009KT 10SM CLR 21/14 A3002 780 65 1600 180/09 RMK AO2
14837KMSN MSN20110603070509306/03/11 07:05:31  5-MIN KMSN 031305Z 18011KT 10SM CLR 21/14 A3001 780 67 1600 180/11 RMK AO2
14837KMSN MSN20110603071009306/03/11 07:10:31  5-MIN KMSN 031310Z 18011KT 10SM CLR 21/14 A3001 780 65 1700 180/11 RMK AO2
14837KMSN MSN20110603071509306/03/11 07:15:31  5-MIN KMSN 031315Z 18014KT 10SM CLR 21/14 A3001 780 65 1700 180/14 RMK AO2
14837KMSN MSN20110603072009306/03/11 07:20:31  5-MIN KMSN 031320Z 18013KT 10SM CLR 21/14 A3001 780 65 1700 180/13 RMK AO2
14837KMSN MSN20110603072509306/03/11 07:25:31  5-MIN KMSN 031325Z 18012KT 10SM CLR 22/15 A3001 790 65 1800 180/12 RMK AO2
14837KMSN MSN20110603073009306/03/11 07:30:31  5-MIN KMSN 031330Z 18013KT 10SM CLR 22/15 A3000 790 65 1800 180/13 RMK AO2
14837KMSN MSN20110603073509306/03/11 07:35:31  5-MIN KMSN 031335Z 18013KT 10SM CLR 22/15 A3000 790 65 1800 180/13 RMK AO2
14837KMSN MSN20110603074009906/03/11 07:40:31  5-MIN KMSN 031340Z 18013G19KT 10SM CLR 22/15 A3001 790 63 1800 180/13G19 RMK AO2
14837KMSN MSN20110603074509306/03/11 07:45:31  5-MIN KMSN 031345Z 18012KT 10SM CLR 22/15 A3001 780 63 1800 180/12 RMK AO2
14837KMSN MSN20110603075011006/03/11 07:50:31  5-MIN KMSN 031350Z 18011KT 10SM CLR 22/16 A3001 780 65 1800 180/11 RMK AO2 SLP159 T02220156
14837KMSN MSN20110603075509306/03/11 07:55:31  5-MIN KMSN 031355Z 17011KT 10SM CLR 23/16 A3001 780 63 1900 180/11 RMK AO2
14837KMSN MSN20110603080009306/03/11 08:00:31  5-MIN KMSN 031400Z 18012KT 10SM CLR 23/16 A3001 780 65 1900 180/12 RMK AO2
14837KMSN MSN20110603080509906/03/11 08:05:31  5-MIN KMSN 031405Z 18010G18KT 10SM CLR 23/16 A3002 780 63 2000 180/10G18 RMK AO2
14837KMSN MSN20110603081009306/03/11 08:10:31  5-MIN KMSN 031410Z 17011KT 10SM CLR 23/16 A3001 780 63 2000 180/11 RMK AO2
14837KMSN MSN20110603081509906/03/11 08:15:31  5-MIN KMSN 031415Z 17012G17KT 10SM CLR 23/16 A3001 780 63 2000 170/12G17 RMK AO2
14837KMSN MSN20110603082009306/03/11 08:20:31  5-MIN KMSN 031420Z 18012KT 10SM CLR 24/17 A3002 780 63 2000 180/12 RMK AO2
14837KMSN MSN20110603082509306/03/11 08:25:31  5-MIN KMSN 031425Z 19009KT 10SM CLR 24/17 A3002 770 63 2000 190/09 RMK AO2
14837KMSN MSN20110603083009306/03/11 08:30:31  5-MIN KMSN 031430Z 18012KT 10SM CLR 24/17 A3002 770 63 2100 180/12 RMK AO2
14837KMSN MSN20110603083509306/03/11 08:35:31  5-MIN KMSN 031435Z 17010KT 10SM CLR 24/17 A3002 780 61 2100 180/10 RMK AO2
14837KMSN MSN20110603084009306/03/11 08:40:31  5-MIN KMSN 031440Z 17012KT 10SM CLR 24/17 A3002 780 63 2100 170/12 RMK AO2
14837KMSN MSN20110603084509306/03/11 08:45:31  5-MIN KMSN 031445Z 18011KT 10SM CLR 24/17 A3002 770 63 2100 180/11 RMK AO2
14837KMSN MSN20110603085011606/03/11 08:50:31  5-MIN KMSN 031450Z 18007KT 10SM CLR 25/17 A3002 770 61 2100 190/07 RMK AO2 SLP161 T02500172 58006
14837KMSN MSN20110603085509306/03/11 08:55:31  5-MIN KMSN 031455Z 18009KT 10SM CLR 25/18 A3002 770 64 2100 180/09 RMK AO2
14837KMSN MSN20110603090009306/03/11 09:00:31  5-MIN KMSN 031500Z 17009KT 10SM CLR 25/18 A3002 770 64 2100 180/09 RMK AO2
14837KMSN MSN20110603090509306/03/11 09:05:31  5-MIN KMSN 031505Z 19011KT 10SM CLR 26/18 A3002 770 61 2200 190/11 RMK AO2
14837KMSN MSN20110603091009306/03/11 09:10:31  5-MIN KMSN 031510Z 19012KT 10SM CLR 26/18 A3001 780 61 2200 190/12 RMK AO2
14837KMSN MSN20110603091509306/03/11 09:15:31  5-MIN KMSN 031515Z 17014KT 10SM CLR 26/18 A3001 780 61 2200 170/14 RMK AO2
14837KMSN MSN20110603092009306/03/11 09:20:31  5-MIN KMSN 031520Z 17012KT 10SM CLR 26/18 A3001 780 59 2300 170/12 RMK AO2
14837KMSN MSN20110603092509306/03/11 09:25:31  5-MIN KMSN 031525Z 18012KT 10SM CLR 26/18 A3001 780 59 2300 180/12 RMK AO2
14837KMSN MSN20110603093009306/03/11 09:30:31  5-MIN KMSN 031530Z 17012KT 10SM CLR 26/18 A3001 780 59 2300 170/12 RMK AO2
14837KMSN MSN20110603093509306/03/11 09:35:31  5-MIN KMSN 031535Z 16012KT 10SM CLR 27/18 A3001 780 60 2300 170/12 RMK AO2
14837KMSN MSN20110603094009306/03/11 09:40:31  5-MIN KMSN 031540Z 17013KT 10SM CLR 27/18 A3001 790 60 2300 170/13 RMK AO2
14837KMSN MSN20110603094509306/03/11 09:45:31  5-MIN KMSN 031545Z 17012KT 10SM CLR 27/18 A3000 790 60 2300 180/12 RMK AO2
14837KMSN MSN20110603095011006/03/11 09:50:31  5-MIN KMSN 031550Z 17012KT 10SM CLR 27/18 A3000 790 60 2400 170/12 RMK AO2 SLP155 T02670183
14837KMSN MSN20110603095509306/03/11 09:55:31  5-MIN KMSN 031555Z 17011KT 10SM CLR 27/18 A3000 790 60 2400 170/11 RMK AO2
14837KMSN MSN20110603100009306/03/11 10:00:31  5-MIN KMSN 031600Z 17010KT 10SM CLR 27/19 A3000 790 60 2400 170/10 RMK AO2
14837KMSN MSN20110603100509306/03/11 10:05:31  5-MIN KMSN 031605Z 17013KT 10SM CLR 27/19 A3000 800 60 2400 170/13 RMK AO2
14837KMSN MSN20110603101009306/03/11 10:10:31  5-MIN KMSN 031610Z 17012KT 10SM CLR 28/19 A2999 800 58 2500 180/12 RMK AO2
14837KMSN MSN20110603101509306/03/11 10:15:31  5-MIN KMSN 031615Z 18011KT 10SM CLR 28/19 A2999 800 58 2500 180/11 RMK AO2
14837KMSN MSN20110603102009306/03/11 10:20:31  5-MIN KMSN 031620Z 17013KT 10SM CLR 28/19 A2999 800 58 2600 170/13 RMK AO2
14837KMSN MSN20110603102509306/03/11 10:25:31  5-MIN KMSN 031625Z 18011KT 10SM CLR 28/19 A2999 800 58 2600 180/11 RMK AO2
14837KMSN MSN20110603103009306/03/11 10:30:31  5-MIN KMSN 031630Z 17012KT 10SM CLR 28/19 A2998 810 58 2600 170/12 RMK AO2
14837KMSN MSN20110603103509306/03/11 10:35:31  5-MIN KMSN 031635Z 17013KT 10SM CLR 29/19 A2998 810 56 2600 170/13 RMK AO2
14837KMSN MSN20110603104009306/03/11 10:40:31  5-MIN KMSN 031640Z 18013KT 10SM CLR 29/19 A2998 810 56 2600 180/13 RMK AO2
14837KMSN MSN20110603104509306/03/11 10:45:31  5-MIN KMSN 031645Z 17013KT 10SM CLR 29/19 A2998 810 56 2600 170/13 RMK AO2
14837KMSN MSN20110603105011006/03/11 10:50:31  5-MIN KMSN 031650Z 17015KT 10SM CLR 29/19 A2998 810 56 2600 170/15 RMK AO2 SLP145 T02890194
14837KMSN MSN20110603105509306/03/11 10:55:31  5-MIN KMSN 031655Z 18013KT 10SM CLR 29/20 A2998 810 56 2700 180/13 RMK AO2
14837KMSN MSN20110603110009306/03/11 11:00:31  5-MIN KMSN 031700Z 18014KT 10SM CLR 29/19 A2998 810 56 2600 180/14 RMK AO2
14837KMSN MSN20110603110509306/03/11 11:05:31  5-MIN KMSN 031705Z 17013KT 10SM CLR 29/20 A2997 820 56 2700 180/13 RMK AO2
14837KMSN MSN20110603111009306/03/11 11:10:31  5-MIN KMSN 031710Z 18013KT 10SM CLR 29/20 A2997 820 56 2700 180/13 RMK AO2
14837KMSN MSN20110603111509306/03/11 11:15:31  5-MIN KMSN 031715Z 17014KT 10SM CLR 29/20 A2997 820 56 2700 180/14 RMK AO2
14837KMSN MSN20110603112009906/03/11 11:20:31  5-MIN KMSN 031720Z 17016G20KT 10SM CLR 30/20 A2996 830 54 2800 180/16G20 RMK AO2
14837KMSN MSN20110603112509906/03/11 11:25:31  5-MIN KMSN 031725Z 18012G20KT 10SM CLR 30/20 A2996 830 54 2800 180/12G20 RMK AO2
14837KMSN MSN20110603113009906/03/11 11:30:31  5-MIN KMSN 031730Z 19015G19KT 10SM CLR 30/20 A2996 830 54 2800 190/15G19 RMK AO2
14837KMSN MSN20110603113509306/03/11 11:35:31  5-MIN KMSN 031735Z 18013KT 10SM CLR 31/20 A2996 830 52 2800 180/13 RMK AO2
14837KMSN MSN20110603114009306/03/11 11:40:31  5-MIN KMSN 031740Z 19014KT 10SM CLR 31/20 A2995 830 52 2800 190/14 RMK AO2
14837KMSN MSN20110603114509306/03/11 11:45:31  5-MIN KMSN 031745Z 18014KT 10SM CLR 31/21 A2995 830 54 2800 180/14 RMK AO2
14837KMSN MSN20110603115012806/03/11 11:50:31  5-MIN KMSN 031750Z 18015KT 10SM CLR 31/20 A2995 830 52 2800 180/15 RMK AO2 SLP137 T03060200 10306 20178 55008
14837KMSN MSN20110603115509306/03/11 11:55:31  5-MIN KMSN 031755Z 18013KT 10SM CLR 31/21 A2995 840 53 2900 180/13 RMK AO2
14837KMSN MSN20110603120009906/03/11 12:00:31  5-MIN KMSN 031800Z 17016G20KT 10SM CLR 31/21 A2995 840 53 2900 170/16G20 RMK AO2
14837KMSN MSN20110603120509906/03/11 12:05:31  5-MIN KMSN 031805Z 17015G20KT 10SM CLR 31/21 A2995 840 53 2900 180/15G20 RMK AO2
14837KMSN MSN20110603124510206/03/11 12:45:31  5-MIN KMSN 031845Z 18013G22KT 10SM FEW048 32/20 A2994 850 49 3000 180/13G22 RMK AO2
14837KMSN MSN20110603125011306/03/11 12:50:31  5-MIN KMSN 031850Z 18014KT 10SM FEW050 32/20 A2994 850 49 3000 180/14 RMK AO2 SLP132 T03170200
14837KMSN MSN20110603125510206/03/11 12:55:31  5-MIN KMSN 031855Z 18017G21KT 10SM FEW050 32/20 A2994 850 49 3000 180/17G21 RMK AO2
14837KMSN MSN20110603130010206/03/11 13:00:31  5-MIN KMSN 031900Z 19015G23KT 10SM FEW050 32/20 A2993 850 49 3000 190/15G23 RMK AO2
14837KMSN MSN20110603130509906/03/11 13:05:31  5-MIN KMSN 031905Z 19013G23KT 10SM CLR 32/20 A2993 850 49 3000 190/13G23 RMK AO2
14837KMSN MSN20110603131009906/03/11 13:10:31  5-MIN KMSN 031910Z 19015G21KT 10SM CLR 32/20 A2993 850 49 3000 190/15G21 RMK AO2
14837KMSN MSN20110603131509906/03/11 13:15:31  5-MIN KMSN 031915Z 17019G23KT 10SM CLR 32/20 A2993 860 48 3000 170/19G23 RMK AO2
14837KMSN MSN20110603132010206/03/11 13:20:31  5-MIN KMSN 031920Z 17016G23KT 10SM FEW055 32/20 A2993 860 48 3000 170/16G23 RMK AO2
14837KMSN MSN20110603132509606/03/11 13:25:31  5-MIN KMSN 031925Z 18015KT 10SM FEW050 32/20 A2993 860 48 3100 180/15 RMK AO2
14837KMSN MSN20110603133009606/03/11 13:30:31  5-MIN KMSN 031930Z 18015KT 10SM FEW050 32/20 A2992 860 48 3100 180/15 RMK AO2
14837KMSN MSN20110603133509606/03/11 13:35:31  5-MIN KMSN 031935Z 17017KT 10SM FEW050 32/20 A2992 860 48 3100 180/17 RMK AO2
14837KMSN MSN20110603134009606/03/11 13:40:31  5-MIN KMSN 031940Z 18019KT 10SM FEW050 33/20 A2992 860 46 3100 180/19 RMK AO2
14837KMSN MSN20110603134509606/03/11 13:45:31  5-MIN KMSN 031945Z 17018KT 10SM FEW055 33/20 A2992 860 46 3100 180/18 RMK AO2
14837KMSN MSN20110603135011906/03/11 13:50:31  5-MIN KMSN 031950Z 17015G23KT 10SM FEW055 33/20 A2992 870 46 3100 170/15G23 RMK AO2 SLP126 T03280200
14837KMSN MSN20110603135510206/03/11 13:55:31  5-MIN KMSN 031955Z 18015G23KT 10SM FEW055 32/20 A2992 870 48 3100 180/15G23 RMK AO2
14837KMSN MSN20110603140009906/03/11 14:00:31  5-MIN KMSN 032000Z 18017G22KT 10SM CLR 33/20 A2992 870 46 3100 180/17G22 RMK AO2
14837KMSN MSN20110603140511706/03/11 14:05:31  5-MIN KMSN 032005Z 17020G28KT 10SM CLR 33/20 A2991 870 46 3100 180/20G28 RMK AO2 PK WND 17028/2004
14837KMSN MSN20110603141011706/03/11 14:10:31  5-MIN KMSN 032010Z 17020G28KT 10SM CLR 33/20 A2991 880 46 3100 170/20G28 RMK AO2 PK WND 17028/2004
14837KMSN MSN20110603141511706/03/11 14:15:31  5-MIN KMSN 032015Z 18018G25KT 10SM CLR 33/20 A2990 880 46 3100 180/18G25 RMK AO2 PK WND 17028/2004
14837KMSN MSN20110603142011706/03/11 14:20:31  5-MIN KMSN 032020Z 19015G24KT 10SM CLR 33/20 A2990 880 46 3100 190/15G24 RMK AO2 PK WND 17028/2004
14837KMSN MSN20110603142511706/03/11 14:25:31  5-MIN KMSN 032025Z 17018G23KT 10SM CLR 33/20 A2990 880 46 3100 170/18G23 RMK AO2 PK WND 17028/2004
14837KMSN MSN20110603143011906/03/11 14:30:31  5-MIN KMSN 032030Z 18019G24KT 9SM FEW050 33/21 A2990 880 48 3100 180/19G24 RMK AO2 PK WND 17028/2004
14837KMSN MSN20110603143511906/03/11 14:35:31  5-MIN KMSN 032035Z 18017G24KT 9SM FEW050 33/21 A2990 890 48 3100 180/17G24 RMK AO2 PK WND 17028/2004
14837KMSN MSN20110603144012006/03/11 14:40:31  5-MIN KMSN 032040Z 18017G24KT 10SM FEW050 33/20 A2989 890 46 3100 180/17G24 RMK AO2 PK WND 17028/2004
14837KMSN MSN20110603144511906/03/11 14:45:31  5-MIN KMSN 032045Z 17017G24KT 9SM FEW050 32/20 A2989 890 48 3100 170/17G24 RMK AO2 PK WND 17028/2004
14837KMSN MSN20110603145014306/03/11 14:50:31  5-MIN KMSN 032050Z 17016G24KT 10SM FEW050 33/21 A2989 900 48 3200 170/16G24 RMK AO2 PK WND 17028/2004 SLP115 T03280206 58022
14837KMSN MSN20110603145510206/03/11 14:55:31  5-MIN KMSN 032055Z 18019G26KT 10SM FEW050 33/20 A2989 900 46 3200 180/19G26 RMK AO2
14837KMSN MSN20110603150009906/03/11 15:00:31  5-MIN KMSN 032100Z 17018G26KT 10SM CLR 33/21 A2989 890 48 3200 170/18G26 RMK AO2
14837KMSN MSN20110603150511706/03/11 15:05:31  5-MIN KMSN 032105Z 17018G27KT 10SM CLR 33/21 A2989 890 48 3200 170/18G27 RMK AO2 PK WND 17027/2105
14837KMSN MSN20110603151011606/03/11 15:10:31  5-MIN KMSN 032110Z 17018G27KT 9SM CLR 33/20 A2989 900 46 3200 180/18G27 RMK AO2 PK WND 17027/2105
14837KMSN MSN20110603151511706/03/11 15:15:31  5-MIN KMSN 032115Z 17021G26KT 10SM CLR 33/20 A2989 900 46 3200 180/21G26 RMK AO2 PK WND 17027/2105
14837KMSN MSN20110603152011706/03/11 15:20:31  5-MIN KMSN 032120Z 17018G25KT 10SM CLR 33/20 A2988 900 46 3200 180/18G25 RMK AO2 PK WND 17027/2105
14837KMSN MSN20110603152512006/03/11 15:25:31  5-MIN KMSN 032125Z 18018G24KT 10SM FEW050 33/20 A2988 900 46 3200 180/18G24 RMK AO2 PK WND 17027/2105
14837KMSN MSN20110603153012006/03/11 15:30:31  5-MIN KMSN 032130Z 17020G25KT 10SM FEW050 33/21 A2988 900 48 3200 170/20G25 RMK AO2 PK WND 17027/2105
14837KMSN MSN20110603153511906/03/11 15:35:31  5-MIN KMSN 032135Z 17020G26KT 9SM FEW050 33/21 A2988 900 48 3200 180/20G26 RMK AO2 PK WND 17027/2105
14837KMSN MSN20110603154011906/03/11 15:40:31  5-MIN KMSN 032140Z 17019G26KT 9SM FEW050 33/21 A2988 900 48 3200 170/19G26 RMK AO2 PK WND 17027/2105
14837KMSN MSN20110603154512006/03/11 15:45:31  5-MIN KMSN 032145Z 17021G25KT 10SM FEW050 33/21 A2988 900 48 3200 170/21G25 RMK AO2 PK WND 17027/2105
14837KMSN MSN20110603155013706/03/11 15:50:31  5-MIN KMSN 032150Z 17020G25KT 10SM FEW050 33/21 A2988 900 48 3200 170/20G25 RMK AO2 PK WND 17027/2105 SLP113 T03280206
14837KMSN MSN20110603155509906/03/11 15:55:31  5-MIN KMSN 032155Z 18018G24KT 10SM CLR 32/20 A2988 900 48 3100 180/18G24 RMK AO2
14837KMSN MSN20110603160009906/03/11 16:00:31  5-MIN KMSN 032200Z 17018G24KT 10SM CLR 33/20 A2988 900 46 3200 170/18G24 RMK AO2
14837KMSN MSN20110603160509906/03/11 16:05:31  5-MIN KMSN 032205Z 18017G24KT 10SM CLR 32/20 A2988 900 48 3100 180/17G24 RMK AO2
14837KMSN MSN20110603161009906/03/11 16:10:31  5-MIN KMSN 032210Z 17017G24KT 10SM CLR 32/20 A2988 900 48 3100 170/17G24 RMK AO2
14837KMSN MSN20110603161509806/03/11 16:15:31  5-MIN KMSN 032215Z 17015G22KT 9SM CLR 32/21 A2988 900 49 3100 170/15G22 RMK AO2
14837KMSN MSN20110603162009306/03/11 16:20:31  5-MIN KMSN 032220Z 17016KT 10SM CLR 32/21 A2987 910 49 3100 180/16 RMK AO2
14837KMSN MSN20110603162509906/03/11 16:25:31  5-MIN KMSN 032225Z 17018G25KT 10SM CLR 32/20 A2987 910 48 3100 170/18G25 RMK AO2
14837KMSN MSN20110603163009906/03/11 16:30:31  5-MIN KMSN 032230Z 17015G25KT 10SM CLR 32/21 A2987 910 49 3100 170/15G25 RMK AO2
14837KMSN MSN20110603163509806/03/11 16:35:31  5-MIN KMSN 032235Z 18017G23KT 9SM CLR 32/21 A2987 910 49 3100 180/17G23 RMK AO2
14837KMSN MSN20110603164009806/03/11 16:40:31  5-MIN KMSN 032240Z 17016G23KT 9SM CLR 32/20 A2987 910 48 3100 180/16G23 RMK AO2
14837KMSN MSN20110603164509206/03/11 16:45:31  5-MIN KMSN 032245Z 18015KT 9SM CLR 32/20 A2987 910 48 3100 180/15 RMK AO2
14837KMSN MSN20110603165011606/03/11 16:50:31  5-MIN KMSN 032250Z 18016G22KT 10SM CLR 32/20 A2987 910 49 3100 180/16G22 RMK AO2 SLP111 T03170200
14837KMSN MSN20110603165509806/03/11 16:55:31  5-MIN KMSN 032255Z 17019G24KT 9SM CLR 32/20 A2987 910 49 3100 170/19G24 RMK AO2
14837KMSN MSN20110603170009806/03/11 17:00:31  5-MIN KMSN 032300Z 18013G24KT 9SM CLR 32/20 A2987 910 49 3100 180/13G24 RMK AO2
14837KMSN MSN20110603170509806/03/11 17:05:31  5-MIN KMSN 032305Z 18013G21KT 9SM CLR 32/20 A2987 910 49 3100 180/13G21 RMK AO2
14837KMSN MSN20110603171009806/03/11 17:10:31  5-MIN KMSN 032310Z 17019G23KT 9SM CLR 32/20 A2987 910 49 3100 170/19G23 RMK AO2
14837KMSN MSN20110603171510106/03/11 17:15:31  5-MIN KMSN 032315Z 17015G23KT 9SM FEW080 32/20 A2987 910 48 3100 180/15G23 RMK AO2
14837KMSN MSN20110603172010106/03/11 17:20:31  5-MIN KMSN 032320Z 17017G21KT 9SM FEW080 32/20 A2987 910 49 3100 180/17G21 RMK AO2
14837KMSN MSN20110603172509506/03/11 17:25:31  5-MIN KMSN 032325Z 18015KT 9SM FEW090 32/20 A2987 910 49 3100 180/15 RMK AO2
14837KMSN MSN20110603173010106/03/11 17:30:31  5-MIN KMSN 032330Z 18014G20KT 9SM FEW090 32/20 A2987 910 49 3100 180/14G20 RMK AO2
14837KMSN MSN20110603173510106/03/11 17:35:31  5-MIN KMSN 032335Z 18012G20KT 9SM FEW090 32/20 A2987 910 49 3100 180/12G20 RMK AO2
14837KMSN MSN20110603174010106/03/11 17:40:31  5-MIN KMSN 032340Z 18011G19KT 9SM FEW090 32/20 A2987 910 49 3000 180/11G19 RMK AO2
14837KMSN MSN20110603174510106/03/11 17:45:31  5-MIN KMSN 032345Z 18012G21KT 9SM FEW090 32/20 A2988 910 49 3000 190/12G21 RMK AO2
14837KMSN MSN20110603175013706/03/11 17:50:31  5-MIN KMSN 032350Z 19012G21KT 10SM FEW070 32/20 A2988 900 49 3000 190/12G21 RMK AO2 SLP111 T03170200 10328 20306 58022
14837KMSN MSN20110603175510106/03/11 17:55:31  5-MIN KMSN 032355Z 19013G19KT 9SM FEW070 32/20 A2988 900 49 3000 190/13G19 RMK AO2
14837KMSN MSN20110603180009506/03/11 18:00:31  5-MIN KMSN 040000Z 19011KT 9SM FEW070 32/20 A2988 900 49 3000 200/11 RMK AO2
14837KMSN MSN20110603180510106/03/11 18:05:31  5-MIN KMSN 040005Z 20013G20KT 9SM FEW070 32/20 A2989 900 49 3000 200/13G20 RMK AO2
14837KMSN MSN20110603181010106/03/11 18:10:31  5-MIN KMSN 040010Z 19011G20KT 9SM FEW070 32/20 A2989 900 49 3000 190/11G20 RMK AO2
14837KMSN MSN20110603181509506/03/11 18:15:31  5-MIN KMSN 040015Z 20012KT 9SM FEW070 32/20 A2989 890 49 3000 200/12 RMK AO2
14837KMSN MSN20110603182010106/03/11 18:20:31  5-MIN KMSN 040020Z 19012G17KT 9SM FEW070 31/20 A2989 890 51 3000 190/12G17 RMK AO2
14837KMSN MSN20110603182510106/03/11 18:25:31  5-MIN KMSN 040025Z 19012G18KT 9SM FEW070 31/20 A2989 890 51 3000 200/12G18 RMK AO2
14837KMSN MSN20110603183010106/03/11 18:30:31  5-MIN KMSN 040030Z 19017G23KT 9SM FEW070 31/20 A2989 890 51 3000 190/17G23 RMK AO2
14837KMSN MSN20110603183510106/03/11 18:35:31  5-MIN KMSN 040035Z 19013G23KT 9SM FEW070 31/20 A2989 890 51 3000 190/13G23 RMK AO2
14837KMSN MSN20110603184009206/03/11 18:40:31  5-MIN KMSN 040040Z 19013KT 9SM CLR 31/20 A2989 890 51 3000 190/13 RMK AO2
14837KMSN MSN20110603184510106/03/11 18:45:31  5-MIN KMSN 040045Z 19012G19KT 9SM FEW110 31/21 A2989 900 54 2900 200/12G19 RMK AO2
14837KMSN MSN20110603185011806/03/11 18:50:31  5-MIN KMSN 040050Z 19011G19KT 9SM FEW110 31/21 A2989 900 54 2900 190/11G19 RMK AO2 SLP114 T03060206
14837KMSN MSN20110603185509506/03/11 18:55:31  5-MIN KMSN 040055Z 19011KT 9SM FEW110 31/21 A2989 890 54 2900 190/11 RMK AO2
14837KMSN MSN20110603190010106/03/11 19:00:31  5-MIN KMSN 040100Z 19014G20KT 9SM FEW110 31/21 A2989 890 54 2900 190/14G20 RMK AO2
14837KMSN MSN20110603190510106/03/11 19:05:31  5-MIN KMSN 040105Z 19012G20KT 8SM FEW110 31/21 A2989 890 54 2900 190/12G20 RMK AO2
14837KMSN MSN20110603191009506/03/11 19:10:31  5-MIN KMSN 040110Z 19011KT 8SM FEW110 31/21 A2989 890 54 2900 190/11 RMK AO2
14837KMSN MSN20110603191510106/03/11 19:15:31  5-MIN KMSN 040115Z 19011G17KT 8SM FEW110 31/21 A2989 890 54 2900 190/11G17 RMK AO2
14837KMSN MSN20110603192010106/03/11 19:20:31  5-MIN KMSN 040120Z 19011G17KT 8SM FEW110 30/21 A2989 890 56 2800 190/11G17 RMK AO2
14837KMSN MSN20110603192509206/03/11 19:25:31  5-MIN KMSN 040125Z 19012KT 8SM CLR 30/21 A2989 890 56 2800 190/12 RMK AO2
14837KMSN MSN20110603193009206/03/11 19:30:31  5-MIN KMSN 040130Z 19010KT 8SM CLR 30/21 A2989 890 56 2800 190/10 RMK AO2
14837KMSN MSN20110603193509506/03/11 19:35:31  5-MIN KMSN 040135Z 19011KT 8SM FEW065 30/21 A2990 890 58 2800 190/11 RMK AO2
14837KMSN MSN20110603194009506/03/11 19:40:31  5-MIN KMSN 040140Z 19011KT 8SM FEW065 30/21 A2990 880 58 2800 190/11 RMK AO2
14837KMSN MSN20110603194509506/03/11 19:45:31  5-MIN KMSN 040145Z 19010KT 8SM FEW065 30/21 A2990 880 58 2800 190/10 RMK AO2
14837KMSN MSN20110603195011806/03/11 19:50:31  5-MIN KMSN 040150Z 19010G16KT 9SM FEW055 29/21 A2990 880 60 2800 190/10G16 RMK AO2 SLP120 T02940211
14837KMSN MSN20110603195509206/03/11 19:55:31  5-MIN KMSN 040155Z 19008KT 9SM CLR 30/21 A2991 880 58 2800 190/08 RMK AO2
14837KMSN MSN20110603200009206/03/11 20:00:31  5-MIN KMSN 040200Z 20010KT 9SM CLR 30/21 A2991 870 58 2800 200/10 RMK AO2
14837KMSN MSN20110603200509806/03/11 20:05:31  5-MIN KMSN 040205Z 20010G17KT 9SM CLR 29/21 A2991 870 60 2800 200/10G17 RMK AO2
14837KMSN MSN20110603201009806/03/11 20:10:31  5-MIN KMSN 040210Z 20009G17KT 9SM CLR 29/21 A2991 870 60 2800 200/09G17 RMK AO2
14837KMSN MSN20110603201509206/03/11 20:15:31  5-MIN KMSN 040215Z 19009KT 9SM CLR 29/21 A2992 870 60 2800 200/09 RMK AO2
14837KMSN MSN20110603202009206/03/11 20:20:31  5-MIN KMSN 040220Z 19007KT 9SM CLR 29/21 A2992 870 60 2800 200/07 RMK AO2
14837KMSN MSN20110603202509206/03/11 20:25:31  5-MIN KMSN 040225Z 19009KT 9SM CLR 29/21 A2992 870 60 2800 190/09 RMK AO2
14837KMSN MSN20110603203009806/03/11 20:30:31  5-MIN KMSN 040230Z 19010G15KT 9SM CLR 29/21 A2992 870 60 2800 190/10G15 RMK AO2
14837KMSN MSN20110603203509806/03/11 20:35:31  5-MIN KMSN 040235Z 20008G15KT 9SM CLR 29/22 A2992 860 62 2800 200/08G15 RMK AO2
14837KMSN MSN20110603204009206/03/11 20:40:31  5-MIN KMSN 040240Z 19009KT 9SM CLR 29/22 A2992 860 62 2800 200/09 RMK AO2
14837KMSN MSN20110603204509206/03/11 20:45:31  5-MIN KMSN 040245Z 19009KT 9SM CLR 29/21 A2992 860 62 2700 190/09 RMK AO2
14837KMSN MSN20110603205011506/03/11 20:50:31  5-MIN KMSN 040250Z 19009KT 9SM CLR 29/21 A2992 860 62 2700 190/09 RMK AO2 SLP126 T02890211 55001
14837KMSN MSN20110603205509206/03/11 20:55:31  5-MIN KMSN 040255Z 19008KT 9SM CLR 29/21 A2992 860 62 2700 200/08 RMK AO2
14837KMSN MSN20110603210009206/03/11 21:00:31  5-MIN KMSN 040300Z 19008KT 9SM CLR 29/21 A2992 860 62 2700 200/08 RMK AO2
14837KMSN MSN20110603210509206/03/11 21:05:31  5-MIN KMSN 040305Z 20008KT 9SM CLR 29/21 A2993 860 62 2700 200/08 RMK AO2
14837KMSN MSN20110603211009206/03/11 21:10:31  5-MIN KMSN 040310Z 19007KT 9SM CLR 28/21 A2993 860 64 2600 190/07 RMK AO2
14837KMSN MSN20110603211509206/03/11 21:15:31  5-MIN KMSN 040315Z 19008KT 9SM CLR 28/21 A2993 860 64 2600 190/08 RMK AO2
14837KMSN MSN20110603212009206/03/11 21:20:31  5-MIN KMSN 040320Z 19007KT 9SM CLR 28/21 A2993 860 64 2600 190/07 RMK AO2
14837KMSN MSN20110603212509206/03/11 21:25:31  5-MIN KMSN 040325Z 19007KT 9SM CLR 28/21 A2993 860 64 2600 190/07 RMK AO2
14837KMSN MSN20110603213009206/03/11 21:30:31  5-MIN KMSN 040330Z 19007KT 9SM CLR 28/21 A2993 860 64 2600 190/07 RMK AO2
14837KMSN MSN20110603213509206/03/11 21:35:31  5-MIN KMSN 040335Z 20005KT 9SM CLR 28/21 A2993 860 64 2600 200/05 RMK AO2
14837KMSN MSN20110603214009206/03/11 21:40:31  5-MIN KMSN 040340Z 20007KT 9SM CLR 29/21 A2993 860 62 2700 210/07 RMK AO2
14837KMSN MSN20110603214509206/03/11 21:45:31  5-MIN KMSN 040345Z 21006KT 9SM CLR 28/21 A2993 860 64 2600 210/06 RMK AO2
14837KMSN MSN20110603215010906/03/11 21:50:31  5-MIN KMSN 040350Z 21006KT 9SM CLR 28/21 A2993 860 62 2600 210/06 RMK AO2 SLP127 T02830206
14837KMSN MSN20110603215509206/03/11 21:55:31  5-MIN KMSN 040355Z 21006KT 9SM CLR 28/21 A2993 860 62 2600 220/06 RMK AO2
14837KMSN MSN20110603220009206/03/11 22:00:31  5-MIN KMSN 040400Z 21007KT 9SM CLR 28/21 A2993 860 62 2600 210/07 RMK AO2
14837KMSN MSN20110603220509206/03/11 22:05:31  5-MIN KMSN 040405Z 21008KT 9SM CLR 28/21 A2993 860 62 2600 210/08 RMK AO2
14837KMSN MSN20110603221009206/03/11 22:10:31  5-MIN KMSN 040410Z 21007KT 9SM CLR 28/21 A2993 860 64 2600 210/07 RMK AO2
14837KMSN MSN20110603221509206/03/11 22:15:31  5-MIN KMSN 040415Z 21008KT 9SM CLR 28/21 A2992 860 64 2600 210/08 RMK AO2
14837KMSN MSN20110603222009206/03/11 22:20:31  5-MIN KMSN 040420Z 21007KT 9SM CLR 28/21 A2992 860 64 2600 220/07 RMK AO2
14837KMSN MSN20110603222510806/03/11 22:25:31  5-MIN KMSN 040425Z 21007KT 180V240 9SM CLR 28/21 A2993 860 64 2600 210/07 180V240 RMK AO2
14837KMSN MSN20110603223009206/03/11 22:30:31  5-MIN KMSN 040430Z 20008KT 9SM CLR 28/21 A2992 860 64 2600 210/08 RMK AO2
14837KMSN MSN20110603223509206/03/11 22:35:31  5-MIN KMSN 040435Z 20007KT 9SM CLR 28/21 A2992 860 64 2600 200/07 RMK AO2
14837KMSN MSN20110603224009806/03/11 22:40:31  5-MIN KMSN 040440Z 21007G15KT 9SM CLR 28/21 A2992 860 64 2600 210/07G15 RMK AO2
14837KMSN MSN20110603224509806/03/11 22:45:31  5-MIN KMSN 040445Z 21006G15KT 9SM CLR 28/21 A2992 860 64 2600 220/06G15 RMK AO2
14837KMSN MSN20110603225011006/03/11 22:50:31  5-MIN KMSN 040450Z 20007KT 10SM CLR 28/21 A2992 860 64 2600 210/07 RMK AO2 SLP125 T02780206
14837KMSN MSN20110603225509206/03/11 22:55:31  5-MIN KMSN 040455Z 20007KT 9SM CLR 28/21 A2992 860 64 2600 210/07 RMK AO2
14837KMSN MSN20110603230009206/03/11 23:00:31  5-MIN KMSN 040500Z 21008KT 9SM CLR 28/21 A2992 860 64 2600 210/08 RMK AO2
14837KMSN MSN20110603230509806/03/11 23:05:31  5-MIN KMSN 040505Z 21007G14KT 9SM CLR 28/21 A2992 860 64 2600 220/07G14 RMK AO2
14837KMSN MSN20110603231009806/03/11 23:10:31  5-MIN KMSN 040510Z 21009G14KT 9SM CLR 28/21 A2992 860 64 2600 210/09G14 RMK AO2
14837KMSN MSN20110603231509806/03/11 23:15:31  5-MIN KMSN 040515Z 21008G15KT 9SM CLR 28/21 A2992 860 64 2600 210/08G15 RMK AO2
14837KMSN MSN20110603232009806/03/11 23:20:31  5-MIN KMSN 040520Z 21006G15KT 9SM CLR 28/21 A2992 860 64 2600 220/06G15 RMK AO2
14837KMSN MSN20110603232509206/03/11 23:25:31  5-MIN KMSN 040525Z 22007KT 9SM CLR 28/21 A2992 860 64 2600 220/07 RMK AO2
14837KMSN MSN20110603233009206/03/11 23:30:31  5-MIN KMSN 040530Z 22005KT 9SM CLR 27/21 A2992 870 66 2500 220/05 RMK AO2
14837KMSN MSN20110603233509806/03/11 23:35:31  5-MIN KMSN 040535Z 22006G15KT 9SM CLR 27/21 A2992 870 66 2500 220/06G15 RMK AO2
14837KMSN MSN20110603234009806/03/11 23:40:31  5-MIN KMSN 040540Z 22006G15KT 9SM CLR 27/21 A2992 870 66 2500 220/06G15 RMK AO2
14837KMSN MSN20110603234509206/03/11 23:45:31  5-MIN KMSN 040545Z 22005KT 9SM CLR 27/21 A2992 870 66 2500 220/05 RMK AO2
14837KMSN MSN20110603235015306/03/11 23:50:31  5-MIN KMSN 040550Z 21007KT 170V240 9SM CLR 27/21 A2992 870 66 2500 210/07 170V240 RMK AO2 SLP123 T02720206 10317 20272 403280144 53015
14837KMSN MSN20110603235509206/03/11 23:55:31  5-MIN KMSN 040555Z VRB06KT 9SM CLR 27/21 A2992 870 66 2500 VRB/06 RMK AO2
14837KMSN MSN20110604000009206/04/11 00:00:32  5-MIN KMSN 040600Z VRB05KT 9SM CLR 27/21 A2992 870 66 2500 VRB/05 RMK AO2
14837KMSN MSN20110604000509206/04/11 00:05:31  5-MIN KMSN 040605Z 22005KT 8SM CLR 27/21 A2992 860 66 2500 220/05 RMK AO2
14837KMSN MSN20110604001009206/04/11 00:10:31  5-MIN KMSN 040610Z 22005KT 8SM CLR 27/21 A2992 860 69 2400 230/05 RMK AO2
14837KMSN MSN20110604001509206/04/11 00:15:31  5-MIN KMSN 040615Z 22008KT 8SM CLR 27/21 A2992 860 69 2400 220/08 RMK AO2
14837KMSN MSN20110604002009206/04/11 00:20:31  5-MIN KMSN 040620Z 22007KT 8SM CLR 27/21 A2992 860 69 2400 220/07 RMK AO2
14837KMSN MSN20110604002509206/04/11 00:25:31  5-MIN KMSN 040625Z 22006KT 8SM CLR 27/21 A2992 860 69 2400 220/06 RMK AO2
14837KMSN MSN20110604003009206/04/11 00:30:31  5-MIN KMSN 040630Z 22007KT 8SM CLR 27/21 A2992 860 69 2400 220/07 RMK AO2
14837KMSN MSN20110604003509206/04/11 00:35:31  5-MIN KMSN 040635Z 22006KT 8SM CLR 27/21 A2992 860 69 2400 220/06 RMK AO2
14837KMSN MSN20110604004009206/04/11 00:40:31  5-MIN KMSN 040640Z 21006KT 8SM CLR 27/21 A2992 860 69 2400 210/06 RMK AO2
14837KMSN MSN20110604004509206/04/11 00:45:31  5-MIN KMSN 040645Z VRB05KT 8SM CLR 27/21 A2992 860 69 2400 VRB/05 RMK AO2
14837KMSN MSN20110604005010906/04/11 00:50:31  5-MIN KMSN 040650Z 21005KT 8SM CLR 27/21 A2992 860 71 2400 220/05 RMK AO2 SLP125 T02670211
14837KMSN MSN20110604005509206/04/11 00:55:31  5-MIN KMSN 040655Z 21005KT 8SM CLR 27/21 A2993 860 71 2400 220/05 RMK AO2
14837KMSN MSN20110604010009206/04/11 01:00:31  5-MIN KMSN 040700Z 22007KT 8SM CLR 27/21 A2993 860 71 2400 220/07 RMK AO2
14837KMSN MSN20110604010509206/04/11 01:05:31  5-MIN KMSN 040705Z 23006KT 8SM CLR 27/21 A2993 860 71 2400 230/06 RMK AO2
14837KMSN MSN20110604011009206/04/11 01:10:31  5-MIN KMSN 040710Z 21005KT 8SM CLR 27/21 A2993 860 71 2400 220/05 RMK AO2
14837KMSN MSN20110604011509206/04/11 01:15:31  5-MIN KMSN 040715Z 22006KT 8SM CLR 27/21 A2993 860 71 2400 220/06 RMK AO2
14837KMSN MSN20110604012009206/04/11 01:20:31  5-MIN KMSN 040720Z 21004KT 8SM CLR 27/21 A2993 860 71 2400 210/04 RMK AO2
14837KMSN MSN20110604012509206/04/11 01:25:31  5-MIN KMSN 040725Z VRB05KT 8SM CLR 26/21 A2993 860 73 2400 VRB/05 RMK AO2
14837KMSN MSN20110604013009206/04/11 01:30:31  5-MIN KMSN 040730Z 22006KT 8SM CLR 26/21 A2993 860 73 2400 220/06 RMK AO2
14837KMSN MSN20110604013509206/04/11 01:35:31  5-MIN KMSN 040735Z 22007KT 8SM CLR 26/21 A2993 850 73 2400 220/07 RMK AO2
14837KMSN MSN20110604014009206/04/11 01:40:31  5-MIN KMSN 040740Z 21004KT 8SM CLR 26/21 A2993 860 73 2400 210/04 RMK AO2
14837KMSN MSN20110604014509206/04/11 01:45:31  5-MIN KMSN 040745Z 21006KT 8SM CLR 26/21 A2993 850 73 2400 210/06 RMK AO2
14837KMSN MSN20110604015010906/04/11 01:50:31  5-MIN KMSN 040750Z 23004KT 8SM CLR 26/21 A2993 850 73 2400 230/04 RMK AO2 SLP128 T02610211
14837KMSN MSN20110604015509206/04/11 01:55:31  5-MIN KMSN 040755Z 22006KT 8SM CLR 26/21 A2993 850 76 2300 230/06 RMK AO2
14837KMSN MSN20110604020009206/04/11 02:00:31  5-MIN KMSN 040800Z 23008KT 8SM CLR 26/21 A2993 850 71 2400 230/08 RMK AO2
14837KMSN MSN20110604020509206/04/11 02:05:31  5-MIN KMSN 040805Z VRB04KT 8SM CLR 26/21 A2993 850 71 2400 VRB/04 RMK AO2
14837KMSN MSN20110604021010806/04/11 02:10:31  5-MIN KMSN 040810Z 24007KT 210V270 8SM CLR 26/21 A2993 850 71 2400 240/07 210V270 RMK AO2
14837KMSN MSN20110604021509206/04/11 02:15:31  5-MIN KMSN 040815Z VRB04KT 8SM CLR 26/21 A2993 850 71 2400 VRB/04 RMK AO2
14837KMSN MSN20110604022009206/04/11 02:20:31  5-MIN KMSN 040820Z VRB06KT 8SM CLR 26/21 A2994 850 73 2300 VRB/06 RMK AO2
14837KMSN MSN20110604022509206/04/11 02:25:31  5-MIN KMSN 040825Z 23004KT 8SM CLR 26/21 A2994 850 73 2300 240/04 RMK AO2
14837KMSN MSN20110604023009206/04/11 02:30:31  5-MIN KMSN 040830Z 23004KT 8SM CLR 26/21 A2994 850 73 2300 230/04 RMK AO2
14837KMSN MSN20110604023509206/04/11 02:35:31  5-MIN KMSN 040835Z 23005KT 8SM CLR 25/21 A2994 840 76 2200 230/05 RMK AO2
14837KMSN MSN20110604024009206/04/11 02:40:31  5-MIN KMSN 040840Z 22007KT 8SM CLR 26/21 A2994 840 73 2300 230/07 RMK AO2
14837KMSN MSN20110604024509206/04/11 02:45:31  5-MIN KMSN 040845Z 23005KT 8SM CLR 25/21 A2994 840 76 2200 230/05 RMK AO2
14837KMSN MSN20110604025011506/04/11 02:50:31  5-MIN KMSN 040850Z VRB04KT 8SM CLR 25/21 A2994 840 76 2200 VRB/04 RMK AO2 SLP131 T02500206 58002
14837KMSN MSN20110604025509206/04/11 02:55:31  5-MIN KMSN 040855Z 24004KT 8SM CLR 25/21 A2994 840 76 2200 240/04 RMK AO2
14837KMSN MSN20110604030009206/04/11 03:00:31  5-MIN KMSN 040900Z 22004KT 8SM CLR 25/21 A2994 840 76 2200 220/04 RMK AO2
14837KMSN MSN20110604030510806/04/11 03:05:31  5-MIN KMSN 040905Z 22007KT 190V260 8SM CLR 25/21 A2994 840 76 2200 220/07 190V260 RMK AO2
14837KMSN MSN20110604031009206/04/11 03:10:31  5-MIN KMSN 040910Z 24004KT 8SM CLR 25/21 A2994 840 76 2200 240/04 RMK AO2
14837KMSN MSN20110604031509206/04/11 03:15:31  5-MIN KMSN 040915Z 24004KT 8SM CLR 25/20 A2995 840 73 2200 240/04 RMK AO2
14837KMSN MSN20110604032009206/04/11 03:20:31  5-MIN KMSN 040920Z 22005KT 8SM CLR 25/20 A2995 840 73 2200 220/05 RMK AO2
14837KMSN MSN20110604032509206/04/11 03:25:31  5-MIN KMSN 040925Z 23004KT 8SM CLR 24/20 A2995 840 76 2200 230/04 RMK AO2
14837KMSN MSN20110604033009206/04/11 03:30:31  5-MIN KMSN 040930Z 23005KT 8SM CLR 24/20 A2995 840 76 2200 230/05 RMK AO2
14837KMSN MSN20110604033509206/04/11 03:35:31  5-MIN KMSN 040935Z 22005KT 8SM CLR 24/20 A2995 840 76 2200 230/05 RMK AO2
14837KMSN MSN20110604034009206/04/11 03:40:31  5-MIN KMSN 040940Z 22005KT 8SM CLR 24/20 A2995 840 76 2200 230/05 RMK AO2
14837KMSN MSN20110604034509206/04/11 03:45:31  5-MIN KMSN 040945Z 23004KT 8SM CLR 24/20 A2995 830 76 2200 230/04 RMK AO2
14837KMSN MSN20110604035010906/04/11 03:50:31  5-MIN KMSN 040950Z VRB03KT 8SM CLR 24/20 A2995 830 76 2200 VRB/03 RMK AO2 SLP135 T02440200
14837KMSN MSN20110604035509206/04/11 03:55:31  5-MIN KMSN 040955Z VRB03KT 8SM CLR 24/20 A2996 830 76 2200 VRB/03 RMK AO2
14837KMSN MSN20110604040009206/04/11 04:00:31  5-MIN KMSN 041000Z 22004KT 7SM CLR 24/20 A2996 830 76 2200 220/04 RMK AO2
14837KMSN MSN20110604040509206/04/11 04:05:31  5-MIN KMSN 041005Z 22005KT 7SM CLR 24/20 A2996 830 78 2100 230/05 RMK AO2
14837KMSN MSN20110604041009206/04/11 04:10:31  5-MIN KMSN 041010Z 23005KT 7SM CLR 24/20 A2996 830 76 2200 230/05 RMK AO2
14837KMSN MSN20110604041509206/04/11 04:15:31  5-MIN KMSN 041015Z 22006KT 8SM CLR 24/20 A2996 830 76 2200 220/06 RMK AO2
14837KMSN MSN20110604042009206/04/11 04:20:31  5-MIN KMSN 041020Z 22006KT 8SM CLR 24/20 A2996 830 76 2200 220/06 RMK AO2
14837KMSN MSN20110604042509206/04/11 04:25:31  5-MIN KMSN 041025Z VRB04KT 7SM CLR 24/20 A2996 830 76 2200 VRB/04 RMK AO2
14837KMSN MSN20110604043009506/04/11 04:30:31  5-MIN KMSN 041030Z 23004KT 6SM HZ CLR 24/20 A2996 830 78 2100 230/04 RMK AO2
14837KMSN MSN20110604043509506/04/11 04:35:31  5-MIN KMSN 041035Z 24003KT 6SM HZ CLR 24/20 A2996 830 78 2100 240/03 RMK AO2
14837KMSN MSN20110604044009506/04/11 04:40:31  5-MIN KMSN 041040Z 23004KT 6SM HZ CLR 24/20 A2996 820 78 2100 230/04 RMK AO2
14837KMSN MSN20110604044509506/04/11 04:45:31  5-MIN KMSN 041045Z 23005KT 6SM HZ CLR 24/20 A2997 820 78 2100 230/05 RMK AO2
14837KMSN MSN20110604045011506/04/11 04:50:31  5-MIN KMSN 041050Z VRB04KT 6SM HZ SCT110 24/20 A2997 820 78 2100 VRB/04 RMK AO2 SLP140 T02390200
14837KMSN MSN20110604045509806/04/11 04:55:31  5-MIN KMSN 041055Z VRB03KT 6SM HZ SCT110 24/20 A2997 820 78 2100 VRB/03 RMK AO2
14837KMSN MSN20110604050009806/04/11 05:00:31  5-MIN KMSN 041100Z VRB03KT 6SM HZ SCT110 24/20 A2997 820 78 2100 VRB/03 RMK AO2
14837KMSN MSN20110604050509806/04/11 05:05:31  5-MIN KMSN 041105Z 00000KT 6SM HZ SCT110 24/20 A2997 820 78 2100 000/00 RMK AO2
14837KMSN MSN20110604051009806/04/11 05:10:31  5-MIN KMSN 041110Z 00000KT 4SM HZ SCT110 24/20 A2997 820 78 2100 000/00 RMK AO2
14837KMSN MSN20110604051509806/04/11 05:15:31  5-MIN KMSN 041115Z 00000KT 4SM HZ SCT110 24/20 A2997 820 78 2100 000/00 RMK AO2
14837KMSN MSN20110604052009806/04/11 05:20:31  5-MIN KMSN 041120Z 00000KT 4SM HZ SCT110 24/20 A2997 820 78 2100 000/00 RMK AO2
14837KMSN MSN20110604052509806/04/11 05:25:31  5-MIN KMSN 041125Z 00000KT 5SM HZ SCT110 24/20 A2997 810 78 2100 000/00 RMK AO2
14837KMSN MSN20110604053009806/04/11 05:30:31  5-MIN KMSN 041130Z 00000KT 5SM HZ SCT110 24/21 A2998 810 81 2100 000/00 RMK AO2
14837KMSN MSN20110604053509806/04/11 05:35:31  5-MIN KMSN 041135Z VRB03KT 6SM HZ SCT110 24/21 A2998 810 81 2100 VRB/03 RMK AO2
14837KMSN MSN20110604054009806/04/11 05:40:31  5-MIN KMSN 041140Z 00000KT 5SM HZ SCT110 24/21 A2998 810 78 2100 000/00 RMK AO2
14837KMSN MSN20110604054509806/04/11 05:45:31  5-MIN KMSN 041145Z 27003KT 4SM HZ SCT110 24/21 A2998 810 78 2100 270/03 RMK AO2
14837KMSN MSN20110604055013306/04/11 05:50:31  5-MIN KMSN 041150Z 00000KT 4SM HZ SCT120 24/21 A2998 800 78 2100 000/00 RMK AO2 SLP147 T02440206 10272 20239 53008
14837KMSN MSN20110604055509806/04/11 05:55:31  5-MIN KMSN 041155Z VRB03KT 5SM HZ SCT120 24/21 A2999 800 78 2100 VRB/03 RMK AO2
14837KMSN MSN20110604060009806/04/11 06:00:31  5-MIN KMSN 041200Z 00000KT 5SM HZ SCT120 24/21 A2999 800 78 2100 000/00 RMK AO2
14837KMSN MSN20110604060509806/04/11 06:05:31  5-MIN KMSN 041205Z 29004KT 5SM HZ SCT120 24/21 A2999 800 78 2100 300/04 RMK AO2
14837KMSN MSN20110604061009806/04/11 06:10:31  5-MIN KMSN 041210Z 29006KT 6SM HZ SCT120 25/21 A2999 800 76 2200 300/06 RMK AO2
14837KMSN MSN20110604061509806/04/11 06:15:31  5-MIN KMSN 041215Z 29005KT 6SM HZ SCT120 25/21 A3000 790 76 2200 300/05 RMK AO2
14837KMSN MSN20110604062009806/04/11 06:20:31  5-MIN KMSN 041220Z 31006KT 6SM HZ SCT120 25/21 A3000 790 76 2200 310/06 RMK AO2
14837KMSN MSN20110604062509806/04/11 06:25:31  5-MIN KMSN 041225Z 31006KT 6SM HZ SCT120 25/21 A3000 790 76 2200 310/06 RMK AO2
14837KMSN MSN20110604063009806/04/11 06:30:31  5-MIN KMSN 041230Z 31006KT 6SM HZ SCT120 25/21 A3000 790 76 2200 310/06 RMK AO2
14837KMSN MSN20110604063509506/04/11 06:35:31  5-MIN KMSN 041235Z 30006KT 7SM SCT120 26/21 A3000 790 73 2200 310/06 RMK AO2
14837KMSN MSN20110604064009506/04/11 06:40:31  5-MIN KMSN 041240Z 31005KT 7SM SCT120 26/21 A3001 780 76 2200 310/05 RMK AO2
14837KMSN MSN20110604064509506/04/11 06:45:31  5-MIN KMSN 041245Z 31007KT 7SM SCT120 26/21 A3001 780 73 2200 310/07 RMK AO2
14837KMSN MSN20110604065011206/04/11 06:50:31  5-MIN KMSN 041250Z 32007KT 7SM SCT120 26/21 A3002 780 71 2300 320/07 RMK AO2 SLP157 T02610206
14837KMSN MSN20110604065509506/04/11 06:55:31  5-MIN KMSN 041255Z 32009KT 8SM SCT120 26/20 A3002 780 68 2300 330/09 RMK AO2
14837KMSN MSN20110604070009506/04/11 07:00:31  5-MIN KMSN 041300Z 32008KT 8SM SCT120 26/20 A3002 770 68 2300 330/08 RMK AO2
14837KMSN MSN20110604070509506/04/11 07:05:31  5-MIN KMSN 041305Z 34009KT 9SM SCT120 26/19 A3002 770 66 2300 340/09 RMK AO2
14837KMSN MSN20110604071009506/04/11 07:10:31  5-MIN KMSN 041310Z 33008KT 9SM SCT120 26/19 A3002 770 66 2300 330/08 RMK AO2
14837KMSN MSN20110604071510206/04/11 07:15:31  5-MIN KMSN 041315Z 34010G16KT 10SM SCT120 26/19 A3002 770 64 2300 350/10G16 RMK AO2
14837KMSN MSN20110604072010206/04/11 07:20:31  5-MIN KMSN 041320Z 35012G17KT 10SM SCT120 26/19 A3002 770 64 2300 350/12G17 RMK AO2
14837KMSN MSN20110604072509606/04/11 07:25:31  5-MIN KMSN 041325Z 34010KT 10SM SCT120 26/19 A3002 770 64 2300 340/10 RMK AO2
14837KMSN MSN20110604073009606/04/11 07:30:31  5-MIN KMSN 041330Z 34008KT 10SM SCT120 27/19 A3002 770 62 2300 350/08 RMK AO2
14837KMSN MSN20110604073510206/04/11 07:35:31  5-MIN KMSN 041335Z 35009G16KT 10SM SCT120 26/19 A3001 780 64 2300 350/09G16 RMK AO2
14837KMSN MSN20110604074010206/04/11 07:40:31  5-MIN KMSN 041340Z 35012G18KT 10SM SCT120 26/19 A3001 780 64 2300 360/12G18 RMK AO2
14837KMSN MSN20110604074510206/04/11 07:45:31  5-MIN KMSN 041345Z 35014G19KT 10SM SCT120 26/18 A3001 780 62 2300 350/14G19 RMK AO2
14837KMSN MSN20110604075011606/04/11 07:50:31  5-MIN KMSN 041350Z 36009G19KT 10SM CLR 26/18 A3001 780 62 2300 360/09G19 RMK AO2 SLP154 T02610183
14837KMSN MSN20110604075509306/04/11 07:55:31  5-MIN KMSN 041355Z 35011KT 10SM CLR 27/18 A3001 780 60 2300 350/11 RMK AO2
14837KMSN MSN20110604080009306/04/11 08:00:31  5-MIN KMSN 041400Z 35010KT 10SM CLR 26/18 A3002 770 62 2300 350/10 RMK AO2
14837KMSN MSN20110604080509306/04/11 08:05:31  5-MIN KMSN 041405Z 35009KT 10SM CLR 26/18 A3002 770 64 2200 350/09 RMK AO2
14837KMSN MSN20110604081009306/04/11 08:10:31  5-MIN KMSN 041410Z 01012KT 10SM CLR 26/18 A3001 780 64 2200 010/12 RMK AO2
14837KMSN MSN20110604081509306/04/11 08:15:31  5-MIN KMSN 041415Z 36008KT 10SM CLR 26/18 A3001 780 64 2200 010/08 RMK AO2
14837KMSN MSN20110604082009306/04/11 08:20:31  5-MIN KMSN 041420Z 35006KT 10SM CLR 26/18 A3001 780 64 2200 360/06 RMK AO2
14837KMSN MSN20110604082509306/04/11 08:25:31  5-MIN KMSN 041425Z 33005KT 10SM CLR 26/18 A3002 770 64 2200 330/05 RMK AO2
14837KMSN MSN20110604083009306/04/11 08:30:31  5-MIN KMSN 041430Z 33005KT 10SM CLR 26/18 A3003 770 64 2200 330/05 RMK AO2
14837KMSN MSN20110604083510006/04/11 08:35:31  5-MIN KMSN 041435Z 33005KT 10SM CLR 27/18 A3003 760 60 2300 340/05 RMK AO2 PRESRR
14837KMSN MSN20110604084009306/04/11 08:40:31  5-MIN KMSN 041440Z 34005KT 10SM CLR 27/18 A3003 760 56 2400 340/05 RMK AO2
14837KMSN MSN20110604084509306/04/11 08:45:31  5-MIN KMSN 041445Z VRB03KT 10SM CLR 27/18 A3003 760 56 2400 VRB/03 RMK AO2
14837KMSN MSN20110604085011606/04/11 08:50:31  5-MIN KMSN 041450Z 35004KT 10SM CLR 28/18 A3003 770 54 2400 350/04 RMK AO2 SLP160 T02780178 53015
14837KMSN MSN20110604085509306/04/11 08:55:31  5-MIN KMSN 041455Z 35004KT 10SM CLR 27/17 A3003 770 54 2400 360/04 RMK AO2
14837KMSN MSN20110604090009306/04/11 09:00:31  5-MIN KMSN 041500Z 02006KT 10SM CLR 27/17 A3003 770 52 2400 020/06 RMK AO2
14837KMSN MSN20110604090509306/04/11 09:05:31  5-MIN KMSN 041505Z 35005KT 10SM CLR 27/17 A3003 770 52 2400 350/05 RMK AO2
14837KMSN MSN20110604091009306/04/11 09:10:31  5-MIN KMSN 041510Z 01006KT 10SM CLR 28/17 A3003 760 50 2400 010/06 RMK AO2
14837KMSN MSN20110604091509306/04/11 09:15:31  5-MIN KMSN 041515Z 33004KT 10SM CLR 28/17 A3003 760 50 2400 330/04 RMK AO2
14837KMSN MSN20110604092009306/04/11 09:20:31  5-MIN KMSN 041520Z 01007KT 10SM CLR 27/16 A3003 760 50 2400 010/07 RMK AO2
14837KMSN MSN20110604092509306/04/11 09:25:31  5-MIN KMSN 041525Z 36007KT 10SM CLR 27/16 A3003 760 48 2400 360/07 RMK AO2
14837KMSN MSN20110604093009306/04/11 09:30:31  5-MIN KMSN 041530Z 01007KT 10SM CLR 28/16 A3004 760 48 2400 010/07 RMK AO2
14837KMSN MSN20110604093509306/04/11 09:35:31  5-MIN KMSN 041535Z 35005KT 10SM CLR 28/17 A3004 760 50 2400 350/05 RMK AO2
14837KMSN MSN20110604094009306/04/11 09:40:31  5-MIN KMSN 041540Z 36008KT 10SM CLR 27/16 A3004 750 50 2400 360/08 RMK AO2
14837KMSN MSN20110604094509606/04/11 09:45:31  5-MIN KMSN 041545Z 33005KT 10SM SCT120 27/14 A3005 740 45 2400 330/05 RMK AO2
14837KMSN MSN20110604095012006/04/11 09:50:31  5-MIN KMSN 041550Z 33008KT 10SM SCT120 27/16 A3006 730 50 2300 330/08 RMK AO2 PRESRR SLP173 T02670156
14837KMSN MSN20110604095510306/04/11 09:55:31  5-MIN KMSN 041555Z 34007KT 10SM BKN120 26/15 A3007 730 50 2200 340/07 RMK AO2 PRESRR
14837KMSN MSN20110604100010306/04/11 10:00:31  5-MIN KMSN 041600Z 34007KT 10SM BKN120 26/13 A3007 720 44 2200 350/07 RMK AO2 PRESRR
14837KMSN MSN20110604100510306/04/11 10:05:31  5-MIN KMSN 041605Z 33007KT 10SM BKN120 26/13 A3008 710 44 2200 330/07 RMK AO2 PRESRR
14837KMSN MSN20110604101009606/04/11 10:10:31  5-MIN KMSN 041610Z 35007KT 10SM BKN120 26/13 A3008 720 43 2200 350/07 RMK AO2
14837KMSN MSN20110604101509606/04/11 10:15:31  5-MIN KMSN 041615Z 35008KT 10SM BKN120 26/13 A3007 730 44 2200 350/08 RMK AO2
14837KMSN MSN20110604102009606/04/11 10:20:31  5-MIN KMSN 041620Z 01006KT 10SM BKN120 26/13 A3005 740 44 2200 010/06 RMK AO2
14837KMSN MSN20110604102510306/04/11 10:25:31  5-MIN KMSN 041625Z 04007KT 10SM BKN120 25/14 A3004 750 49 2100 040/07 RMK AO2 PRESFR
14837KMSN MSN20110604103009606/04/11 10:30:31  5-MIN KMSN 041630Z 02007KT 10SM BKN120 26/13 A3005 750 46 2200 020/07 RMK AO2
14837KMSN MSN20110604103509606/04/11 10:35:31  5-MIN KMSN 041635Z 34006KT 10SM BKN120 25/14 A3006 740 51 2100 340/06 RMK AO2
14837KMSN MSN20110604104009606/04/11 10:40:31  5-MIN KMSN 041640Z 32004KT 10SM BKN120 25/14 A3007 730 49 2100 320/04 RMK AO2
14837KMSN MSN20110604104509606/04/11 10:45:31  5-MIN KMSN 041645Z 00000KT 10SM BKN120 26/14 A3006 730 48 2200 000/00 RMK AO2
14837KMSN MSN20110604105011306/04/11 10:50:31  5-MIN KMSN 041650Z 01003KT 10SM BKN120 26/14 A3006 740 48 2200 010/03 RMK AO2 SLP171 T02610144
14837KMSN MSN20110604105509306/04/11 10:55:31  5-MIN KMSN 041655Z 03005KT 10SM CLR 26/15 A3005 740 50 2200 030/05 RMK AO2
14837KMSN MSN20110604110009306/04/11 11:00:31  5-MIN KMSN 041700Z 00000KT 10SM CLR 27/14 A3006 730 45 2300 000/00 RMK AO2
14837KMSN MSN20110604110509606/04/11 11:05:31  5-MIN KMSN 041705Z VRB03KT 10SM BKN120 27/14 A3006 730 45 2300 VRB/03 RMK AO2
14837KMSN MSN20110604111009606/04/11 11:10:31  5-MIN KMSN 041710Z 35008KT 10SM BKN120 27/14 A3007 730 46 2300 350/08 RMK AO2
14837KMSN MSN20110604111509606/04/11 11:15:31  5-MIN KMSN 041715Z 36007KT 10SM BKN120 28/15 A3007 730 45 2400 360/07 RMK AO2
14837KMSN MSN20110604112009606/04/11 11:20:31  5-MIN KMSN 041720Z 01009KT 10SM BKN120 29/14 A3006 730 40 2500 010/09 RMK AO2
14837KMSN MSN20110604112509306/04/11 11:25:31  5-MIN KMSN 041725Z 36011KT 10SM CLR 29/13 A3007 730 36 2500 360/11 RMK AO2
14837KMSN MSN20110604113009306/04/11 11:30:31  5-MIN KMSN 041730Z 36013KT 10SM CLR 29/12 A3006 730 35 2500 360/13 RMK AO2
14837KMSN MSN20110604113509306/04/11 11:35:31  5-MIN KMSN 041735Z 35010KT 10SM CLR 29/12 A3006 730 35 2500 350/10 RMK AO2
14837KMSN MSN20110604114009306/04/11 11:40:31  5-MIN KMSN 041740Z 35009KT 10SM CLR 29/12 A3006 730 35 2500 360/09 RMK AO2
14837KMSN MSN20110604114509306/04/11 11:45:31  5-MIN KMSN 041745Z 36010KT 10SM CLR 29/13 A3007 730 35 2600 360/10 RMK AO2
14837KMSN MSN20110604115012806/04/11 11:50:31  5-MIN KMSN 041750Z 35011KT 10SM CLR 29/12 A3007 730 34 2600 360/11 RMK AO2 SLP176 T02940122 10294 20244 51013
14837KMSN MSN20110604115509906/04/11 11:55:31  5-MIN KMSN 041755Z 36014G19KT 10SM CLR 29/12 A3007 720 33 2600 360/14G19 RMK AO2
14837KMSN MSN20110604120009906/04/11 12:00:31  5-MIN KMSN 041800Z 01011G19KT 10SM CLR 29/10 A3007 720 30 2500 010/11G19 RMK AO2
14837KMSN MSN20110604120509306/04/11 12:05:31  5-MIN KMSN 041805Z 03010KT 10SM CLR 29/11 A3007 730 31 2600 030/10 RMK AO2
14837KMSN MSN20110604121009306/04/11 12:10:31  5-MIN KMSN 041810Z 04009KT 10SM CLR 29/11 A3007 730 30 2600 050/09 RMK AO2
14837KMSN MSN20110604121509306/04/11 12:15:31  5-MIN KMSN 041815Z 02009KT 10SM CLR 29/10 A3006 730 29 2600 020/09 RMK AO2
14837KMSN MSN20110604122009306/04/11 12:20:31  5-MIN KMSN 041820Z 01008KT 10SM CLR 30/11 A3006 730 29 2700 010/08 RMK AO2
14837KMSN MSN20110604122509306/04/11 12:25:31  5-MIN KMSN 041825Z 02010KT 10SM CLR 30/10 A3006 730 28 2700 030/10 RMK AO2
14837KMSN MSN20110604123009306/04/11 12:30:31  5-MIN KMSN 041830Z 03009KT 10SM CLR 30/09 A3007 730 27 2700 030/09 RMK AO2
14837KMSN MSN20110604123509306/04/11 12:35:31  5-MIN KMSN 041835Z 01010KT 10SM CLR 30/09 A3007 730 27 2700 010/10 RMK AO2
14837KMSN MSN20110604124009306/04/11 12:40:31  5-MIN KMSN 041840Z 02009KT 10SM CLR 30/08 A3007 730 25 2600 020/09 RMK AO2
14837KMSN MSN20110604124509306/04/11 12:45:31  5-MIN KMSN 041845Z 02010KT 10SM CLR 30/09 A3007 730 26 2600 020/10 RMK AO2
14837KMSN MSN20110604125011006/04/11 12:50:31  5-MIN KMSN 041850Z 03005KT 10SM CLR 30/09 A3007 720 26 2600 030/05 RMK AO2 SLP176 T03000089
14837KMSN MSN20110604125509306/04/11 12:55:31  5-MIN KMSN 041855Z 03009KT 10SM CLR 31/08 A3007 730 24 2700 030/09 RMK AO2
14837KMSN MSN20110604130009306/04/11 13:00:31  5-MIN KMSN 041900Z 01008KT 10SM CLR 31/08 A3007 730 24 2700 020/08 RMK AO2
14837KMSN MSN20110604130509306/04/11 13:05:31  5-MIN KMSN 041905Z 02009KT 10SM CLR 31/08 A3007 730 24 2700 020/09 RMK AO2
14837KMSN MSN20110604131009306/04/11 13:10:31  5-MIN KMSN 041910Z 03007KT 10SM CLR 31/08 A3007 730 23 2700 030/07 RMK AO2
14837KMSN MSN20110604131510906/04/11 13:15:31  5-MIN KMSN 041915Z 36008KT 310V040 10SM CLR 31/08 A3007 730 23 2700 360/08 310V040 RMK AO2
14837KMSN MSN20110604132009306/04/11 13:20:31  5-MIN KMSN 041920Z VRB04KT 10SM CLR 31/07 A3007 720 22 2700 VRB/04 RMK AO2
14837KMSN MSN20110604132509306/04/11 13:25:31  5-MIN KMSN 041925Z 02005KT 10SM CLR 31/08 A3007 720 24 2800 020/05 RMK AO2
14837KMSN MSN20110604133009306/04/11 13:30:31  5-MIN KMSN 041930Z 35005KT 10SM CLR 31/08 A3007 730 24 2700 350/05 RMK AO2
14837KMSN MSN20110604133509306/04/11 13:35:31  5-MIN KMSN 041935Z 35006KT 10SM CLR 31/08 A3007 730 24 2700 350/06 RMK AO2
14837KMSN MSN20110604134009306/04/11 13:40:31  5-MIN KMSN 041940Z 32006KT 10SM CLR 31/08 A3007 730 24 2700 320/06 RMK AO2
14837KMSN MSN20110604134509306/04/11 13:45:31  5-MIN KMSN 041945Z 34004KT 10SM CLR 31/09 A3006 730 25 2700 340/04 RMK AO2
14837KMSN MSN20110604135011006/04/11 13:50:31  5-MIN KMSN 041950Z VRB03KT 10SM CLR 31/08 A3006 730 24 2800 VRB/03 RMK AO2 SLP173 T03110083
14837KMSN MSN20110604135509306/04/11 13:55:31  5-MIN KMSN 041955Z VRB03KT 10SM CLR 31/08 A3006 730 24 2800 VRB/03 RMK AO2
14837KMSN MSN20110604140009306/04/11 14:00:31  5-MIN KMSN 042000Z 35006KT 10SM CLR 31/08 A3006 730 24 2800 350/06 RMK AO2
14837KMSN MSN20110604140509306/04/11 14:05:31  5-MIN KMSN 042005Z 32004KT 10SM CLR 31/08 A3007 730 23 2800 320/04 RMK AO2
14837KMSN MSN20110604141009306/04/11 14:10:31  5-MIN KMSN 042010Z 33004KT 10SM CLR 31/08 A3007 730 23 2800 330/04 RMK AO2
14837KMSN MSN20110604141509306/04/11 14:15:31  5-MIN KMSN 042015Z 01004KT 10SM CLR 31/08 A3006 730 23 2800 020/04 RMK AO2
14837KMSN MSN20110604142009306/04/11 14:20:31  5-MIN KMSN 042020Z 34004KT 10SM CLR 31/08 A3006 730 23 2800 340/04 RMK AO2
14837KMSN MSN20110604142509306/04/11 14:25:31  5-MIN KMSN 042025Z 01005KT 10SM CLR 31/08 A3006 730 24 2800 010/05 RMK AO2
14837KMSN MSN20110604143009306/04/11 14:30:31  5-MIN KMSN 042030Z 00000KT 10SM CLR 31/07 A3006 730 21 2800 000/00 RMK AO2
14837KMSN MSN20110604143509306/04/11 14:35:31  5-MIN KMSN 042035Z 01003KT 10SM CLR 31/08 A3006 730 23 2800 010/03 RMK AO2
14837KMSN MSN20110604144009306/04/11 14:40:31  5-MIN KMSN 042040Z 00000KT 10SM CLR 32/08 A3006 740 23 2800 000/00 RMK AO2
14837KMSN MSN20110604144509306/04/11 14:45:31  5-MIN KMSN 042045Z 35003KT 10SM CLR 32/08 A3006 740 22 2800 350/03 RMK AO2
14837KMSN MSN20110604145011606/04/11 14:50:31  5-MIN KMSN 042050Z 01006KT 10SM CLR 32/08 A3006 740 23 2800 010/06 RMK AO2 SLP172 T03170083 51016
14837KMSN MSN20110604145509306/04/11 14:55:31  5-MIN KMSN 042055Z VRB04KT 10SM CLR 31/08 A3006 740 23 2800 VRB/04 RMK AO2
14837KMSN MSN20110604150009306/04/11 15:00:31  5-MIN KMSN 042100Z VRB03KT 10SM CLR 31/08 A3006 740 23 2800 VRB/03 RMK AO2
14837KMSN MSN20110604150509306/04/11 15:05:31  5-MIN KMSN 042105Z 00000KT 10SM CLR 32/07 A3006 740 21 2800 000/00 RMK AO2
14837KMSN MSN20110604151009306/04/11 15:10:31  5-MIN KMSN 042110Z 00000KT 10SM CLR 32/08 A3006 740 23 2800 000/00 RMK AO2
14837KMSN MSN20110604151509306/04/11 15:15:31  5-MIN KMSN 042115Z 00000KT 10SM CLR 32/08 A3005 740 22 2800 000/00 RMK AO2
14837KMSN MSN20110604152009306/04/11 15:20:31  5-MIN KMSN 042120Z 34005KT 10SM CLR 32/08 A3006 740 23 2800 340/05 RMK AO2
14837KMSN MSN20110604152509306/04/11 15:25:31  5-MIN KMSN 042125Z 32004KT 10SM CLR 31/08 A3006 740 23 2800 320/04 RMK AO2
14837KMSN MSN20110604153009306/04/11 15:30:31  5-MIN KMSN 042130Z 29006KT 10SM CLR 31/07 A3006 740 22 2800 290/06 RMK AO2
14837KMSN MSN20110604153509306/04/11 15:35:31  5-MIN KMSN 042135Z 28005KT 10SM CLR 31/07 A3006 740 22 2700 280/05 RMK AO2
14837KMSN MSN20110604154009306/04/11 15:40:31  5-MIN KMSN 042140Z 31005KT 10SM CLR 31/06 A3006 740 20 2800 310/05 RMK AO2
14837KMSN MSN20110604154509306/04/11 15:45:31  5-MIN KMSN 042145Z 23004KT 10SM CLR 31/07 A3006 740 22 2800 240/04 RMK AO2
14837KMSN MSN20110604155011006/04/11 15:50:31  5-MIN KMSN 042150Z 00000KT 10SM CLR 31/07 A3005 740 22 2700 000/00 RMK AO2 SLP170 T03060072
14837KMSN MSN20110604155509306/04/11 15:55:31  5-MIN KMSN 042155Z VRB03KT 10SM CLR 31/08 A3005 740 24 2800 VRB/03 RMK AO2
14837KMSN MSN20110604160009206/04/11 16:00:31  5-MIN KMSN 042200Z VRB04KT 9SM CLR 31/08 A3005 740 24 2700 VRB/04 RMK AO2
14837KMSN MSN20110604160509206/04/11 16:05:31  5-MIN KMSN 042205Z VRB03KT 9SM CLR 32/10 A3005 740 25 2900 VRB/03 RMK AO2
14837KMSN MSN20110604161009306/04/11 16:10:31  5-MIN KMSN 042210Z 33005KT 10SM CLR 31/09 A3005 740 24 2800 340/05 RMK AO2
14837KMSN MSN20110604161509306/04/11 16:15:31  5-MIN KMSN 042215Z 33008KT 10SM CLR 31/08 A3005 740 24 2700 330/08 RMK AO2
14837KMSN MSN20110604162009306/04/11 16:20:31  5-MIN KMSN 042220Z 32006KT 10SM CLR 30/08 A3005 740 24 2700 320/06 RMK AO2
14837KMSN MSN20110604162509306/04/11 16:25:31  5-MIN KMSN 042225Z 34003KT 10SM CLR 31/09 A3005 750 26 2700 340/03 RMK AO2
14837KMSN MSN20110604163009306/04/11 16:30:31  5-MIN KMSN 042230Z 33006KT 10SM CLR 31/09 A3005 750 26 2700 330/06 RMK AO2
14837KMSN MSN20110604163509306/04/11 16:35:31  5-MIN KMSN 042235Z 33005KT 10SM CLR 30/09 A3005 750 27 2700 330/05 RMK AO2
14837KMSN MSN20110604164009306/04/11 16:40:31  5-MIN KMSN 042240Z 33005KT 10SM CLR 30/10 A3004 750 28 2700 330/05 RMK AO2
14837KMSN MSN20110604164509306/04/11 16:45:31  5-MIN KMSN 042245Z 30006KT 10SM CLR 30/09 A3005 750 27 2700 300/06 RMK AO2
14837KMSN MSN20110604165011006/04/11 16:50:31  5-MIN KMSN 042250Z 29004KT 10SM CLR 30/08 A3005 750 24 2700 290/04 RMK AO2 SLP168 T03000078
14837KMSN MSN20110604165509606/04/11 16:55:31  5-MIN KMSN 042255Z 31006KT 10SM FEW120 29/08 A3005 750 26 2600 310/06 RMK AO2
14837KMSN MSN20110604170009606/04/11 17:00:31  5-MIN KMSN 042300Z 32004KT 10SM FEW120 29/09 A3005 750 28 2600 320/04 RMK AO2
14837KMSN MSN20110604170509606/04/11 17:05:31  5-MIN KMSN 042305Z 32005KT 10SM FEW120 29/09 A3004 750 28 2600 320/05 RMK AO2
14837KMSN MSN20110604171009606/04/11 17:10:31  5-MIN KMSN 042310Z 32005KT 10SM FEW120 29/09 A3005 750 28 2600 320/05 RMK AO2
14837KMSN MSN20110604171509606/04/11 17:15:31  5-MIN KMSN 042315Z 31005KT 10SM FEW120 29/11 A3005 740 30 2600 320/05 RMK AO2
14837KMSN MSN20110604172009606/04/11 17:20:31  5-MIN KMSN 042320Z 31006KT 10SM FEW120 30/09 A3005 740 27 2700 310/06 RMK AO2
14837KMSN MSN20110604172509506/04/11 17:25:31  5-MIN KMSN 042325Z 31005KT 8SM FEW120 30/09 A3005 740 26 2700 310/05 RMK AO2
14837KMSN MSN20110604173009506/04/11 17:30:31  5-MIN KMSN 042330Z 31006KT 8SM FEW120 29/09 A3006 740 28 2600 310/06 RMK AO2
14837KMSN MSN20110604173509606/04/11 17:35:31  5-MIN KMSN 042335Z 31006KT 10SM FEW120 29/09 A3006 740 28 2600 310/06 RMK AO2
14837KMSN MSN20110604174009606/04/11 17:40:31  5-MIN KMSN 042340Z 31007KT 10SM FEW120 29/09 A3006 730 27 2600 320/07 RMK AO2
14837KMSN MSN20110604174509606/04/11 17:45:31  5-MIN KMSN 042345Z 31005KT 10SM FEW120 29/08 A3006 730 26 2600 310/05 RMK AO2
14837KMSN MSN20110604175013106/04/11 17:50:31  5-MIN KMSN 042350Z 31005KT 10SM FEW120 29/08 A3007 730 27 2500 310/05 RMK AO2 SLP174 T02890083 10317 20289 58004
14837KMSN MSN20110604175509606/04/11 17:55:31  5-MIN KMSN 042355Z 31004KT 10SM FEW120 29/09 A3007 730 28 2500 310/04 RMK AO2
14837KMSN MSN20110604180009606/04/11 18:00:31  5-MIN KMSN 050000Z 30003KT 10SM FEW120 28/09 A3007 730 30 2500 300/03 RMK AO2
14837KMSN MSN20110604180509606/04/11 18:05:31  5-MIN KMSN 050005Z 31004KT 10SM FEW120 29/09 A3007 730 28 2500 310/04 RMK AO2
14837KMSN MSN20110604181009606/04/11 18:10:31  5-MIN KMSN 050010Z 30003KT 10SM FEW120 28/09 A3007 730 30 2500 300/03 RMK AO2
14837KMSN MSN20110604181509606/04/11 18:15:31  5-MIN KMSN 050015Z 31004KT 10SM FEW120 28/09 A3007 730 30 2500 310/04 RMK AO2
14837KMSN MSN20110604182009606/04/11 18:20:31  5-MIN KMSN 050020Z 32003KT 10SM FEW120 28/11 A3007 730 33 2400 320/03 RMK AO2
14837KMSN MSN20110604182509606/04/11 18:25:31  5-MIN KMSN 050025Z 31003KT 10SM FEW120 27/11 A3007 730 36 2300 320/03 RMK AO2
14837KMSN MSN20110604183009606/04/11 18:30:31  5-MIN KMSN 050030Z 31003KT 10SM FEW120 27/11 A3007 730 37 2300 310/03 RMK AO2
14837KMSN MSN20110604183509506/04/11 18:35:31  5-MIN KMSN 050035Z 00000KT 8SM FEW120 27/11 A3007 720 37 2300 000/00 RMK AO2
14837KMSN MSN20110604184009606/04/11 18:40:31  5-MIN KMSN 050040Z 00000KT 10SM FEW120 26/12 A3007 720 40 2200 000/00 RMK AO2
14837KMSN MSN20110604184509606/04/11 18:45:31  5-MIN KMSN 050045Z 30004KT 10SM FEW120 26/11 A3007 720 38 2200 300/04 RMK AO2
14837KMSN MSN20110604185011306/04/11 18:50:31  5-MIN KMSN 050050Z 30003KT 10SM FEW120 26/11 A3007 720 38 2200 300/03 RMK AO2 SLP178 T02610111
14837KMSN MSN20110604185509606/04/11 18:55:31  5-MIN KMSN 050055Z 30003KT 10SM FEW120 26/12 A3008 720 41 2100 300/03 RMK AO2
14837KMSN MSN20110604190009606/04/11 19:00:31  5-MIN KMSN 050100Z 29003KT 10SM FEW120 26/11 A3008 720 40 2100 290/03 RMK AO2
14837KMSN MSN20110604190509606/04/11 19:05:31  5-MIN KMSN 050105Z 30004KT 10SM FEW120 26/11 A3008 720 38 2100 300/04 RMK AO2
14837KMSN MSN20110604191009606/04/11 19:10:31  5-MIN KMSN 050110Z 30004KT 10SM FEW120 25/11 A3008 720 41 2100 300/04 RMK AO2
14837KMSN MSN20110604191509606/04/11 19:15:31  5-MIN KMSN 050115Z 29004KT 10SM FEW120 25/11 A3007 720 41 2100 290/04 RMK AO2
14837KMSN MSN20110604192009606/04/11 19:20:31  5-MIN KMSN 050120Z 30003KT 10SM FEW120 25/11 A3007 720 41 2100 300/03 RMK AO2
14837KMSN MSN20110604192509606/04/11 19:25:31  5-MIN KMSN 050125Z 00000KT 10SM FEW120 24/12 A3007 730 44 2000 000/00 RMK AO2
14837KMSN MSN20110604193009506/04/11 19:30:31  5-MIN KMSN 050130Z 00000KT 9SM FEW120 24/12 A3007 730 44 2000 000/00 RMK AO2
14837KMSN MSN20110604193509506/04/11 19:35:31  5-MIN KMSN 050135Z 29003KT 9SM FEW120 24/12 A3007 730 44 2000 290/03 RMK AO2
14837KMSN MSN20110604194009606/04/11 19:40:31  5-MIN KMSN 050140Z 30003KT 10SM FEW120 23/12 A3007 730 49 1800 300/03 RMK AO2
14837KMSN MSN20110604194509606/04/11 19:45:31  5-MIN KMSN 050145Z 30003KT 10SM FEW120 22/12 A3007 730 51 1800 300/03 RMK AO2
14837KMSN MSN20110604195011306/04/11 19:50:31  5-MIN KMSN 050150Z 00000KT 10SM FEW120 22/12 A3007 730 52 1700 000/00 RMK AO2 SLP177 T02170117
14837KMSN MSN20110604195509306/04/11 19:55:31  5-MIN KMSN 050155Z 00000KT 10SM CLR 22/12 A3007 720 54 1700 000/00 RMK AO2
14837KMSN MSN20110604200009606/04/11 20:00:31  5-MIN KMSN 050200Z 00000KT 10SM FEW120 22/12 A3008 720 52 1800 000/00 RMK AO2
14837KMSN MSN20110604200509606/04/11 20:05:31  5-MIN KMSN 050205Z 00000KT 10SM FEW120 22/13 A3008 720 56 1700 000/00 RMK AO2
14837KMSN MSN20110604201009606/04/11 20:10:31  5-MIN KMSN 050210Z 00000KT 10SM FEW120 22/12 A3008 710 54 1700 000/00 RMK AO2
14837KMSN MSN20110604201509606/04/11 20:15:31  5-MIN KMSN 050215Z 00000KT 10SM FEW120 21/12 A3008 710 56 1600 000/00 RMK AO2
14837KMSN MSN20110604202009606/04/11 20:20:31  5-MIN KMSN 050220Z 00000KT 10SM FEW120 21/12 A3009 710 56 1600 000/00 RMK AO2
14837KMSN MSN20110604202509606/04/11 20:25:31  5-MIN KMSN 050225Z 00000KT 10SM FEW120 21/12 A3009 710 58 1600 000/00 RMK AO2
14837KMSN MSN20110604203009606/04/11 20:30:31  5-MIN KMSN 050230Z 00000KT 10SM FEW120 21/12 A3009 710 58 1600 000/00 RMK AO2
14837KMSN MSN20110604203509606/04/11 20:35:31  5-MIN KMSN 050235Z 00000KT 10SM FEW120 21/12 A3009 710 54 1600 000/00 RMK AO2
14837KMSN MSN20110604204009606/04/11 20:40:31  5-MIN KMSN 050240Z 00000KT 10SM FEW120 21/12 A3009 710 58 1600 000/00 RMK AO2
14837KMSN MSN20110604204509606/04/11 20:45:31  5-MIN KMSN 050245Z 00000KT 10SM FEW120 20/12 A3009 710 60 1500 000/00 RMK AO2
14837KMSN MSN20110604205011606/04/11 20:50:31  5-MIN KMSN 050250Z 00000KT 10SM CLR 19/12 A3009 700 60 1400 000/00 RMK AO2 SLP186 T01940117 53002
14837KMSN MSN20110604205509306/04/11 20:55:31  5-MIN KMSN 050255Z 00000KT 10SM CLR 20/12 A3010 700 58 1500 000/00 RMK AO2
14837KMSN MSN20110604210009306/04/11 21:00:31  5-MIN KMSN 050300Z 00000KT 10SM CLR 20/12 A3010 700 58 1500 000/00 RMK AO2
14837KMSN MSN20110604210509306/04/11 21:05:31  5-MIN KMSN 050305Z 00000KT 10SM CLR 19/12 A3010 700 62 1400 000/00 RMK AO2
14837KMSN MSN20110604211009306/04/11 21:10:31  5-MIN KMSN 050310Z 00000KT 10SM CLR 19/12 A3010 700 65 1400 000/00 RMK AO2
14837KMSN MSN20110604211509306/04/11 21:15:31  5-MIN KMSN 050315Z 00000KT 10SM CLR 19/12 A3010 700 60 1400 000/00 RMK AO2
14837KMSN MSN20110604212009306/04/11 21:20:31  5-MIN KMSN 050320Z 00000KT 10SM CLR 19/12 A3010 700 60 1400 000/00 RMK AO2
14837KMSN MSN20110604212509306/04/11 21:25:31  5-MIN KMSN 050325Z 00000KT 10SM CLR 19/12 A3010 700 60 1400 000/00 RMK AO2
14837KMSN MSN20110604213009306/04/11 21:30:31  5-MIN KMSN 050330Z 00000KT 10SM CLR 19/12 A3010 700 60 1400 000/00 RMK AO2
14837KMSN MSN20110604213509306/04/11 21:35:31  5-MIN KMSN 050335Z 00000KT 10SM CLR 19/12 A3010 700 62 1400 000/00 RMK AO2
14837KMSN MSN20110604214009306/04/11 21:40:31  5-MIN KMSN 050340Z 00000KT 10SM CLR 19/12 A3010 700 62 1400 000/00 RMK AO2
14837KMSN MSN20110604214509306/04/11 21:45:31  5-MIN KMSN 050345Z 00000KT 10SM CLR 19/12 A3010 700 65 1400 000/00 RMK AO2
14837KMSN MSN20110604215011006/04/11 21:50:31  5-MIN KMSN 050350Z 00000KT 10SM CLR 19/12 A3010 700 65 1400 000/00 RMK AO2 SLP188 T01890122
14837KMSN MSN20110604215509306/04/11 21:55:31  5-MIN KMSN 050355Z 00000KT 10SM CLR 18/12 A3010 700 67 1300 000/00 RMK AO2
14837KMSN MSN20110604220009306/04/11 22:00:31  5-MIN KMSN 050400Z 00000KT 10SM CLR 18/12 A3010 700 67 1300 000/00 RMK AO2
14837KMSN MSN20110604220509306/04/11 22:05:31  5-MIN KMSN 050405Z 00000KT 10SM CLR 18/12 A3011 690 67 1300 000/00 RMK AO2
14837KMSN MSN20110604221009306/04/11 22:10:31  5-MIN KMSN 050410Z 00000KT 10SM CLR 19/12 A3011 690 65 1300 000/00 RMK AO2
14837KMSN MSN20110604221509306/04/11 22:15:31  5-MIN KMSN 050415Z 00000KT 10SM CLR 19/12 A3011 690 65 1300 000/00 RMK AO2
14837KMSN MSN20110604222009306/04/11 22:20:31  5-MIN KMSN 050420Z 00000KT 10SM CLR 18/12 A3011 690 67 1300 000/00 RMK AO2
14837KMSN MSN20110604222509306/04/11 22:25:31  5-MIN KMSN 050425Z 00000KT 10SM CLR 18/12 A3010 690 67 1300 000/00 RMK AO2
14837KMSN MSN20110604223009306/04/11 22:30:31  5-MIN KMSN 050430Z 00000KT 10SM CLR 19/12 A3010 700 65 1400 000/00 RMK AO2
14837KMSN MSN20110604223509306/04/11 22:35:31  5-MIN KMSN 050435Z 00000KT 10SM CLR 18/12 A3010 700 69 1200 000/00 RMK AO2
14837KMSN MSN20110604224009306/04/11 22:40:31  5-MIN KMSN 050440Z 00000KT 10SM CLR 18/12 A3010 700 69 1200 000/00 RMK AO2
14837KMSN MSN20110604224509306/04/11 22:45:31  5-MIN KMSN 050445Z 00000KT 10SM CLR 17/12 A3010 700 72 1200 000/00 RMK AO2
14837KMSN MSN20110604225011006/04/11 22:50:31  5-MIN KMSN 050450Z 00000KT 10SM CLR 17/12 A3010 700 72 1200 000/00 RMK AO2 SLP189 T01720122
14837KMSN MSN20110604225509606/04/11 22:55:31  5-MIN KMSN 050455Z 00000KT 10SM FEW120 18/12 A3010 700 69 1200 000/00 RMK AO2
14837KMSN MSN20110604230009606/04/11 23:00:31  5-MIN KMSN 050500Z 00000KT 10SM SCT120 17/12 A3010 700 72 1200 000/00 RMK AO2
14837KMSN MSN20110604230509606/04/11 23:05:31  5-MIN KMSN 050505Z 00000KT 10SM FEW120 17/12 A3010 700 72 1200 000/00 RMK AO2
14837KMSN MSN20110604231009606/04/11 23:10:31  5-MIN KMSN 050510Z 00000KT 10SM FEW120 17/12 A3010 700 72 1200 000/00 RMK AO2
14837KMSN MSN20110604231509606/04/11 23:15:31  5-MIN KMSN 050515Z 00000KT 10SM FEW120 17/12 A3010 700 75 1100 000/00 RMK AO2
14837KMSN MSN20110604232009606/04/11 23:20:31  5-MIN KMSN 050520Z 00000KT 10SM FEW120 17/12 A3010 700 75 1100 000/00 RMK AO2
14837KMSN MSN20110604232509306/04/11 23:25:31  5-MIN KMSN 050525Z 00000KT 10SM CLR 17/12 A3010 700 75 1100 000/00 RMK AO2
14837KMSN MSN20110604233009306/04/11 23:30:31  5-MIN KMSN 050530Z 00000KT 10SM CLR 17/12 A3010 700 75 1100 000/00 RMK AO2
14837KMSN MSN20110604233509306/04/11 23:35:31  5-MIN KMSN 050535Z 00000KT 10SM CLR 17/13 A3010 700 77 1100 000/00 RMK AO2
14837KMSN MSN20110604234009306/04/11 23:40:31  5-MIN KMSN 050540Z 00000KT 10SM CLR 16/13 A3010 700 80 1000 000/00 RMK AO2
14837KMSN MSN20110604234509306/04/11 23:45:31  5-MIN KMSN 050545Z 00000KT 10SM CLR 17/13 A3010 700 77 1100 000/00 RMK AO2
14837KMSN MSN20110604235014106/04/11 23:50:31  5-MIN KMSN 050550Z 00000KT 10SM FEW120 17/13 A3010 700 77 1100 000/00 RMK AO2 SLP188 T01670128 10289 20161 403170161 53010
14837KMSN MSN20110604235509606/04/11 23:55:31  5-MIN KMSN 050555Z 00000KT 10SM FEW120 17/13 A3010 700 77 1100 000/00 RMK AO2
14837KMSN MSN20110605000009606/05/11 00:00:32  5-MIN KMSN 050600Z 00000KT 10SM FEW120 16/13 A3010 700 83 1000 000/00 RMK AO2
14837KMSN MSN20110605000509606/05/11 00:05:31  5-MIN KMSN 050605Z 00000KT 10SM FEW120 16/13 A3011 690 83 1000 000/00 RMK AO2
14837KMSN MSN20110605001009606/05/11 00:10:31  5-MIN KMSN 050610Z 00000KT 10SM SCT120 17/13 A3011 690 80 1100 000/00 RMK AO2
14837KMSN MSN20110605001509606/05/11 00:15:31  5-MIN KMSN 050615Z 00000KT 10SM BKN120 17/13 A3010 690 80 1100 000/00 RMK AO2
14837KMSN MSN20110605002009606/05/11 00:20:31  5-MIN KMSN 050620Z 00000KT 10SM BKN120 17/13 A3010 700 80 1100 000/00 RMK AO2
14837KMSN MSN20110605002509606/05/11 00:25:31  5-MIN KMSN 050625Z 00000KT 10SM SCT120 17/13 A3010 700 78 1200 000/00 RMK AO2
14837KMSN MSN20110605003009606/05/11 00:30:31  5-MIN KMSN 050630Z 00000KT 10SM SCT120 17/13 A3010 700 78 1200 000/00 RMK AO2
14837KMSN MSN20110605003509606/05/11 00:35:31  5-MIN KMSN 050635Z 00000KT 10SM SCT120 17/13 A3010 700 80 1100 000/00 RMK AO2
14837KMSN MSN20110605004009606/05/11 00:40:31  5-MIN KMSN 050640Z 00000KT 10SM FEW120 17/13 A3010 700 80 1100 000/00 RMK AO2
14837KMSN MSN20110605004509606/05/11 00:45:31  5-MIN KMSN 050645Z 00000KT 10SM FEW120 17/13 A3010 700 80 1100 000/00 RMK AO2
14837KMSN MSN20110605005011006/05/11 00:50:31  5-MIN KMSN 050650Z 00000KT 10SM CLR 16/13 A3010 700 83 1000 000/00 RMK AO2 SLP189 T01610133
14837KMSN MSN20110605005509606/05/11 00:55:31  5-MIN KMSN 050655Z 00000KT 10SM FEW120 16/14 A3010 690 86 1000 000/00 RMK AO2
14837KMSN MSN20110605010009606/05/11 01:00:31  5-MIN KMSN 050700Z 00000KT 10SM FEW120 16/14 A3010 690 86 1000 000/00 RMK AO2
14837KMSN MSN20110605010509606/05/11 01:05:31  5-MIN KMSN 050705Z 00000KT 10SM FEW120 16/14 A3011 690 86 1000 000/00 RMK AO2
14837KMSN MSN20110605011009606/05/11 01:10:31  5-MIN KMSN 050710Z 00000KT 10SM FEW120 16/14 A3011 690 86 1000 000/00 RMK AO2
14837KMSN MSN20110605011509606/05/11 01:15:31  5-MIN KMSN 050715Z 00000KT 10SM FEW120 17/14 A3011 690 83 1100 000/00 RMK AO2
14837KMSN MSN20110605012009606/05/11 01:20:31  5-MIN KMSN 050720Z 00000KT 10SM SCT120 17/14 A3011 690 83 1100 000/00 RMK AO2
14837KMSN MSN20110605012509606/05/11 01:25:31  5-MIN KMSN 050725Z 00000KT 10SM BKN120 16/14 A3011 690 86 1000 000/00 RMK AO2
14837KMSN MSN20110605013009606/05/11 01:30:31  5-MIN KMSN 050730Z 00000KT 10SM BKN120 16/14 A3011 690 86 1000 000/00 RMK AO2
14837KMSN MSN20110605013509606/05/11 01:35:31  5-MIN KMSN 050735Z 00000KT 10SM BKN120 17/14 A3011 690 83 1100 000/00 RMK AO2
14837KMSN MSN20110605014009606/05/11 01:40:31  5-MIN KMSN 050740Z 00000KT 10SM OVC120 17/14 A3011 680 83 1100 000/00 RMK AO2
14837KMSN MSN20110605014509606/05/11 01:45:31  5-MIN KMSN 050745Z 00000KT 10SM OVC120 16/14 A3011 690 86 1000 000/00 RMK AO2
14837KMSN MSN20110605015011306/05/11 01:50:31  5-MIN KMSN 050750Z 00000KT 10SM BKN120 17/13 A3011 690 80 1100 000/00 RMK AO2 SLP192 T01670133
14837KMSN MSN20110605015509606/05/11 01:55:31  5-MIN KMSN 050755Z 00000KT 10SM OVC120 17/13 A3011 690 78 1100 000/00 RMK AO2
14837KMSN MSN20110605020009606/05/11 02:00:31  5-MIN KMSN 050800Z 00000KT 10SM BKN120 17/13 A3011 690 80 1100 000/00 RMK AO2
14837KMSN MSN20110605020509606/05/11 02:05:31  5-MIN KMSN 050805Z 00000KT 10SM OVC120 17/13 A3012 680 80 1100 000/00 RMK AO2
14837KMSN MSN20110605021009606/05/11 02:10:31  5-MIN KMSN 050810Z 00000KT 10SM OVC120 17/13 A3012 680 80 1100 000/00 RMK AO2
14837KMSN MSN20110605021509606/05/11 02:15:31  5-MIN KMSN 050815Z 03003KT 10SM OVC120 17/13 A3012 680 80 1100 030/03 RMK AO2
14837KMSN MSN20110605022009606/05/11 02:20:31  5-MIN KMSN 050820Z 00000KT 10SM OVC120 17/13 A3012 680 80 1100 000/00 RMK AO2
14837KMSN MSN20110605022509606/05/11 02:25:31  5-MIN KMSN 050825Z 00000KT 10SM OVC120 17/13 A3012 680 80 1100 000/00 RMK AO2
14837KMSN MSN20110605023009606/05/11 02:30:31  5-MIN KMSN 050830Z 00000KT 10SM BKN120 17/13 A3012 680 78 1100 000/00 RMK AO2
14837KMSN MSN20110605023509606/05/11 02:35:31  5-MIN KMSN 050835Z 00000KT 10SM BKN120 17/13 A3012 680 80 1100 000/00 RMK AO2
14837KMSN MSN20110605024009606/05/11 02:40:31  5-MIN KMSN 050840Z 00000KT 10SM BKN120 17/14 A3012 680 83 1100 000/00 RMK AO2
14837KMSN MSN20110605024509606/05/11 02:45:31  5-MIN KMSN 050845Z 00000KT 10SM SCT120 17/13 A3012 680 78 1100 000/00 RMK AO2
14837KMSN MSN20110605025011906/05/11 02:50:31  5-MIN KMSN 050850Z 00000KT 10SM BKN120 17/13 A3012 680 78 1100 000/00 RMK AO2 SLP194 T01720133 51002
14837KMSN MSN20110605025509606/05/11 02:55:31  5-MIN KMSN 050855Z 00000KT 10SM FEW120 17/13 A3012 680 80 1100 000/00 RMK AO2
14837KMSN MSN20110605030009606/05/11 03:00:31  5-MIN KMSN 050900Z 00000KT 10SM FEW120 17/13 A3012 680 80 1100 000/00 RMK AO2
14837KMSN MSN20110605030509306/05/11 03:05:31  5-MIN KMSN 050905Z 00000KT 10SM CLR 16/13 A3012 680 83 1000 000/00 RMK AO2
14837KMSN MSN20110605031009306/05/11 03:10:31  5-MIN KMSN 050910Z 00000KT 10SM CLR 16/13 A3012 680 83 1000 000/00 RMK AO2
14837KMSN MSN20110605031509306/05/11 03:15:31  5-MIN KMSN 050915Z 00000KT 10SM CLR 16/13 A3012 680 80 1000 000/00 RMK AO2
14837KMSN MSN20110605032009306/05/11 03:20:31  5-MIN KMSN 050920Z 00000KT 10SM CLR 16/13 A3012 680 80 1000 000/00 RMK AO2
14837KMSN MSN20110605032509206/05/11 03:25:31  5-MIN KMSN 050925Z 00000KT 10SM CLR 16/13 A3012 680 83 900 000/00 RMK AO2
14837KMSN MSN20110605033009206/05/11 03:30:31  5-MIN KMSN 050930Z 00000KT 10SM CLR 16/13 A3012 680 83 900 000/00 RMK AO2
14837KMSN MSN20110605033509206/05/11 03:35:31  5-MIN KMSN 050935Z 00000KT 10SM CLR 16/13 A3012 680 86 900 000/00 RMK AO2
14837KMSN MSN20110605034009306/05/11 03:40:31  5-MIN KMSN 050940Z 00000KT 10SM CLR 16/14 A3012 680 86 1000 000/00 RMK AO2
14837KMSN MSN20110605034509606/05/11 03:45:31  5-MIN KMSN 050945Z 00000KT 10SM SCT110 16/13 A3011 690 83 1000 000/00 RMK AO2
14837KMSN MSN20110605035011306/05/11 03:50:31  5-MIN KMSN 050950Z 00000KT 10SM SCT110 16/13 A3011 690 86 1000 000/00 RMK AO2 SLP193 T01560133
14837KMSN MSN20110605035509206/05/11 03:55:31  5-MIN KMSN 050955Z 00000KT 10SM CLR 15/13 A3011 690 90 900 000/00 RMK AO2
14837KMSN MSN20110605040009206/05/11 04:00:31  5-MIN KMSN 051000Z 00000KT 10SM CLR 15/13 A3011 690 90 900 000/00 RMK AO2
14837KMSN MSN20110605040509206/05/11 04:05:31  5-MIN KMSN 051005Z 00000KT 10SM CLR 14/13 A3011 690 93 800 000/00 RMK AO2
14837KMSN MSN20110605041009206/05/11 04:10:31  5-MIN KMSN 051010Z 00000KT 10SM CLR 14/13 A3011 690 93 800 000/00 RMK AO2
14837KMSN MSN20110605041509206/05/11 04:15:31  5-MIN KMSN 051015Z 00000KT 10SM CLR 14/13 A3012 680 90 800 000/00 RMK AO2
14837KMSN MSN20110605042009206/05/11 04:20:31  5-MIN KMSN 051020Z 00000KT 10SM CLR 14/13 A3012 680 90 800 000/00 RMK AO2
14837KMSN MSN20110605042509206/05/11 04:25:31  5-MIN KMSN 051025Z 00000KT 10SM CLR 14/13 A3012 680 93 800 000/00 RMK AO2
14837KMSN MSN20110605043009206/05/11 04:30:31  5-MIN KMSN 051030Z 00000KT 10SM CLR 14/13 A3012 680 93 800 000/00 RMK AO2
14837KMSN MSN20110605043509206/05/11 04:35:31  5-MIN KMSN 051035Z 00000KT 10SM CLR 14/13 A3012 680 90 800 000/00 RMK AO2
14837KMSN MSN20110605044009206/05/11 04:40:31  5-MIN KMSN 051040Z 00000KT 10SM CLR 14/13 A3012 680 93 800 000/00 RMK AO2
14837KMSN MSN20110605044509106/05/11 04:45:31  5-MIN KMSN 051045Z 00000KT 9SM CLR 14/13 A3011 690 93 800 000/00 RMK AO2
14837KMSN MSN20110605045011106/05/11 04:50:31  5-MIN KMSN 051050Z 00000KT 9SM FEW120 14/13 A3011 690 93 800 000/00 RMK AO2 SLP194 T01440133
14837KMSN MSN20110605045509106/05/11 04:55:31  5-MIN KMSN 051055Z 00000KT 9SM CLR 14/13 A3012 680 93 800 000/00 RMK AO2
14837KMSN MSN20110605050009206/05/11 05:00:31  5-MIN KMSN 051100Z 00000KT 10SM CLR 15/13 A3012 680 90 900 000/00 RMK AO2
14837KMSN MSN20110605050509506/05/11 05:05:31  5-MIN KMSN 051105Z 00000KT 10SM FEW120 15/13 A3012 680 86 900 000/00 RMK AO2
14837KMSN MSN20110605051009206/05/11 05:10:31  5-MIN KMSN 051110Z 00000KT 10SM CLR 16/13 A3012 680 83 900 000/00 RMK AO2
14837KMSN MSN20110605051509206/05/11 05:15:31  5-MIN KMSN 051115Z 00000KT 10SM CLR 16/13 A3012 680 83 900 000/00 RMK AO2
14837KMSN MSN20110605052009206/05/11 05:20:31  5-MIN KMSN 051120Z 00000KT 10SM CLR 15/13 A3012 680 86 900 000/00 RMK AO2
14837KMSN MSN20110605052509206/05/11 05:25:31  5-MIN KMSN 051125Z 00000KT 10SM CLR 15/13 A3012 680 86 900 000/00 RMK AO2
14837KMSN MSN20110605053009206/05/11 05:30:31  5-MIN KMSN 051130Z 00000KT 10SM CLR 15/13 A3012 680 86 900 000/00 RMK AO2
14837KMSN MSN20110605053509206/05/11 05:35:31  5-MIN KMSN 051135Z 00000KT 10SM CLR 15/13 A3012 680 90 900 000/00 RMK AO2
14837KMSN MSN20110605054009206/05/11 05:40:31  5-MIN KMSN 051140Z 00000KT 10SM CLR 15/13 A3012 680 90 900 000/00 RMK AO2
14837KMSN MSN20110605054509306/05/11 05:45:31  5-MIN KMSN 051145Z 00000KT 10SM CLR 16/13 A3012 680 83 1000 000/00 RMK AO2
14837KMSN MSN20110605055013006/05/11 05:50:31  5-MIN KMSN 051150Z 00000KT 9SM FEW120 17/13 A3012 680 80 1100 000/00 RMK AO2 SLP195 T01670133 10172 20139 53006
14837KMSN MSN20110605055509606/05/11 05:55:31  5-MIN KMSN 051155Z 00000KT 10SM FEW120 17/13 A3012 680 80 1100 000/00 RMK AO2
14837KMSN MSN20110605060009606/05/11 06:00:31  5-MIN KMSN 051200Z 00000KT 10SM SCT120 17/13 A3012 680 80 1100 000/00 RMK AO2
14837KMSN MSN20110605060509606/05/11 06:05:31  5-MIN KMSN 051205Z 00000KT 10SM FEW120 17/13 A3012 680 75 1100 000/00 RMK AO2
14837KMSN MSN20110605061009606/05/11 06:10:31  5-MIN KMSN 051210Z 00000KT 10SM FEW120 18/13 A3012 680 72 1200 000/00 RMK AO2
14837KMSN MSN20110605061509606/05/11 06:15:31  5-MIN KMSN 051215Z 00000KT 10SM SCT120 18/13 A3012 680 70 1300 000/00 RMK AO2
14837KMSN MSN20110605062009606/05/11 06:20:31  5-MIN KMSN 051220Z 00000KT 10SM SCT120 18/12 A3013 680 67 1300 000/00 RMK AO2
14837KMSN MSN20110605062509606/05/11 06:25:31  5-MIN KMSN 051225Z 00000KT 10SM BKN120 18/13 A3013 670 70 1300 000/00 RMK AO2
14837KMSN MSN20110605063009606/05/11 06:30:31  5-MIN KMSN 051230Z 00000KT 10SM BKN120 18/13 A3013 670 70 1300 000/00 RMK AO2
14837KMSN MSN20110605063509606/05/11 06:35:31  5-MIN KMSN 051235Z 00000KT 10SM BKN120 19/13 A3013 670 67 1300 000/00 RMK AO2
14837KMSN MSN20110605064009606/05/11 06:40:31  5-MIN KMSN 051240Z 00000KT 10SM BKN120 19/13 A3013 670 67 1300 000/00 RMK AO2
14837KMSN MSN20110605064509606/05/11 06:45:31  5-MIN KMSN 051245Z 00000KT 10SM BKN120 19/13 A3014 670 67 1300 000/00 RMK AO2
14837KMSN MSN20110605065011306/05/11 06:50:31  5-MIN KMSN 051250Z 00000KT 10SM BKN120 19/13 A3014 670 65 1400 000/00 RMK AO2 SLP200 T01940128
14837KMSN MSN20110605065509606/05/11 06:55:31  5-MIN KMSN 051255Z 34003KT 10SM SCT120 19/13 A3014 660 65 1400 340/03 RMK AO2
14837KMSN MSN20110605070009606/05/11 07:00:31  5-MIN KMSN 051300Z 00000KT 10SM SCT120 19/13 A3014 660 67 1400 000/00 RMK AO2
14837KMSN MSN20110605070509606/05/11 07:05:31  5-MIN KMSN 051305Z 00000KT 10SM FEW120 20/13 A3014 660 65 1400 000/00 RMK AO2
14837KMSN MSN20110605071009606/05/11 07:10:31  5-MIN KMSN 051310Z 00000KT 10SM FEW120 21/13 A3014 660 60 1500 000/00 RMK AO2
14837KMSN MSN20110605071509306/05/11 07:15:31  5-MIN KMSN 051315Z 00000KT 10SM CLR 21/13 A3014 660 63 1500 000/00 RMK AO2
14837KMSN MSN20110605072009306/05/11 07:20:31  5-MIN KMSN 051320Z 00000KT 10SM CLR 21/13 A3015 660 63 1500 000/00 RMK AO2
14837KMSN MSN20110605072509306/05/11 07:25:31  5-MIN KMSN 051325Z 00000KT 10SM CLR 21/13 A3015 650 63 1500 000/00 RMK AO2
14837KMSN MSN20110605073009306/05/11 07:30:31  5-MIN KMSN 051330Z 06004KT 10SM CLR 21/13 A3015 650 58 1600 060/04 RMK AO2
14837KMSN MSN20110605073509306/05/11 07:35:31  5-MIN KMSN 051335Z 04005KT 10SM CLR 21/12 A3015 650 56 1600 040/05 RMK AO2
14837KMSN MSN20110605074009306/05/11 07:40:31  5-MIN KMSN 051340Z 02005KT 10SM CLR 22/13 A3015 650 56 1600 030/05 RMK AO2
14837KMSN MSN20110605074509306/05/11 07:45:31  5-MIN KMSN 051345Z 01007KT 10SM CLR 22/13 A3015 650 56 1600 020/07 RMK AO2
14837KMSN MSN20110605075011306/05/11 07:50:31  5-MIN KMSN 051350Z 36005KT 10SM BKN120 22/13 A3015 650 56 1600 360/05 RMK AO2 SLP205 T02170128
14837KMSN MSN20110605075509306/05/11 07:55:31  5-MIN KMSN 051355Z 01004KT 10SM CLR 22/13 A3015 660 56 1600 010/04 RMK AO2
14837KMSN MSN20110605080009306/05/11 08:00:31  5-MIN KMSN 051400Z 01005KT 10SM CLR 22/13 A3015 660 58 1600 020/05 RMK AO2
14837KMSN MSN20110605080509306/05/11 08:05:31  5-MIN KMSN 051405Z 01005KT 10SM CLR 22/13 A3015 660 56 1700 010/05 RMK AO2
14837KMSN MSN20110605081009306/05/11 08:10:31  5-MIN KMSN 051410Z 02005KT 10SM CLR 22/13 A3015 660 54 1700 030/05 RMK AO2
14837KMSN MSN20110605081509306/05/11 08:15:31  5-MIN KMSN 051415Z 04007KT 10SM CLR 23/13 A3014 660 53 1800 040/07 RMK AO2
14837KMSN MSN20110605082009306/05/11 08:20:31  5-MIN KMSN 051420Z 04006KT 10SM CLR 22/13 A3015 660 54 1700 040/06 RMK AO2
14837KMSN MSN20110605082509306/05/11 08:25:31  5-MIN KMSN 051425Z 04006KT 10SM CLR 23/13 A3015 660 53 1800 040/06 RMK AO2
14837KMSN MSN20110605083009606/05/11 08:30:31  5-MIN KMSN 051430Z 05006KT 10SM SCT120 22/12 A3015 650 52 1700 050/06 RMK AO2
14837KMSN MSN20110605083509606/05/11 08:35:31  5-MIN KMSN 051435Z 07006KT 10SM SCT120 23/12 A3015 660 51 1700 070/06 RMK AO2
14837KMSN MSN20110605084009606/05/11 08:40:31  5-MIN KMSN 051440Z 06005KT 10SM SCT120 23/12 A3015 660 51 1700 060/05 RMK AO2
14837KMSN MSN20110605084509606/05/11 08:45:31  5-MIN KMSN 051445Z 07006KT 10SM SCT120 23/12 A3015 650 51 1700 070/06 RMK AO2
14837KMSN MSN20110605085011906/05/11 08:50:31  5-MIN KMSN 051450Z 06004KT 10SM SCT120 23/13 A3015 660 53 1800 060/04 RMK AO2 SLP204 T02280128 53001
14837KMSN MSN20110605085509306/05/11 08:55:31  5-MIN KMSN 051455Z 06005KT 10SM CLR 23/12 A3015 650 51 1700 060/05 RMK AO2
14837KMSN MSN20110605090009606/05/11 09:00:31  5-MIN KMSN 051500Z 07005KT 10SM SCT120 23/13 A3015 650 53 1700 070/05 RMK AO2
14837KMSN MSN20110605090509606/05/11 09:05:31  5-MIN KMSN 051505Z 06006KT 10SM SCT120 24/13 A3015 660 49 1900 060/06 RMK AO2
14837KMSN MSN20110605091009606/05/11 09:10:31  5-MIN KMSN 051510Z 07006KT 10SM SCT120 24/12 A3015 650 47 1900 080/06 RMK AO2
14837KMSN MSN20110605091509606/05/11 09:15:31  5-MIN KMSN 051515Z 08006KT 10SM SCT120 24/12 A3015 660 47 1900 080/06 RMK AO2
14837KMSN MSN20110605092009606/05/11 09:20:31  5-MIN KMSN 051520Z 10006KT 10SM SCT120 23/13 A3015 660 51 1800 100/06 RMK AO2
14837KMSN MSN20110605092509606/05/11 09:25:31  5-MIN KMSN 051525Z 09007KT 10SM SCT120 23/13 A3015 660 51 1800 090/07 RMK AO2
14837KMSN MSN20110605093009606/05/11 09:30:31  5-MIN KMSN 051530Z 09006KT 10SM SCT120 23/13 A3014 660 51 1800 090/06 RMK AO2
14837KMSN MSN20110605093509606/05/11 09:35:31  5-MIN KMSN 051535Z 06007KT 10SM SCT120 24/13 A3014 660 47 1900 060/07 RMK AO2
14837KMSN MSN20110605094009606/05/11 09:40:31  5-MIN KMSN 051540Z VRB06KT 10SM SCT120 25/13 A3014 660 46 2000 VRB/06 RMK AO2
14837KMSN MSN20110605094509606/05/11 09:45:31  5-MIN KMSN 051545Z 08008KT 10SM SCT120 25/13 A3014 660 46 2000 080/08 RMK AO2
14837KMSN MSN20110605095011006/05/11 09:50:31  5-MIN KMSN 051550Z 06006KT 10SM CLR 25/12 A3014 660 44 2000 070/06 RMK AO2 SLP203 T02500122
14837KMSN MSN20110605095509306/05/11 09:55:31  5-MIN KMSN 051555Z 10008KT 10SM CLR 25/12 A3014 660 44 2000 110/08 RMK AO2
14837KMSN MSN20110605100009306/05/11 10:00:31  5-MIN KMSN 051600Z 11008KT 10SM CLR 25/12 A3014 660 44 2000 110/08 RMK AO2
14837KMSN MSN20110605100509306/05/11 10:05:31  5-MIN KMSN 051605Z 09007KT 10SM CLR 25/12 A3014 660 44 2000 090/07 RMK AO2
14837KMSN MSN20110605101009306/05/11 10:10:31  5-MIN KMSN 051610Z 08007KT 10SM CLR 26/12 A3014 660 43 2100 080/07 RMK AO2
14837KMSN MSN20110605101509306/05/11 10:15:31  5-MIN KMSN 051615Z 09005KT 10SM CLR 26/12 A3014 660 43 2100 090/05 RMK AO2
14837KMSN MSN20110605102009306/05/11 10:20:31  5-MIN KMSN 051620Z VRB03KT 10SM CLR 26/12 A3014 660 43 2100 VRB/03 RMK AO2
14837KMSN MSN20110605102509306/05/11 10:25:31  5-MIN KMSN 051625Z 11007KT 10SM CLR 26/13 A3014 660 43 2100 110/07 RMK AO2
14837KMSN MSN20110605103009306/05/11 10:30:31  5-MIN KMSN 051630Z 10007KT 10SM CLR 26/12 A3014 660 41 2100 100/07 RMK AO2
14837KMSN MSN20110605103509306/05/11 10:35:31  5-MIN KMSN 051635Z 12005KT 10SM CLR 26/12 A3014 660 40 2100 120/05 RMK AO2
14837KMSN MSN20110605104009306/05/11 10:40:31  5-MIN KMSN 051640Z VRB03KT 10SM CLR 26/12 A3014 660 41 2100 VRB/03 RMK AO2
14837KMSN MSN20110605104509306/05/11 10:45:31  5-MIN KMSN 051645Z 09006KT 10SM CLR 26/12 A3014 660 41 2100 090/06 RMK AO2
14837KMSN MSN20110605105011006/05/11 10:50:31  5-MIN KMSN 051650Z 06006KT 10SM CLR 27/13 A3014 660 41 2200 060/06 RMK AO2 SLP202 T02670128
14837KMSN MSN20110605105509306/05/11 10:55:31  5-MIN KMSN 051655Z 09006KT 10SM CLR 27/12 A3014 660 40 2200 090/06 RMK AO2
14837KMSN MSN20110605110009306/05/11 11:00:31  5-MIN KMSN 051700Z 10005KT 10SM CLR 27/12 A3013 670 40 2200 110/05 RMK AO2
14837KMSN MSN20110605110509306/05/11 11:05:31  5-MIN KMSN 051705Z 00000KT 10SM CLR 27/12 A3013 670 40 2200 000/00 RMK AO2
14837KMSN MSN20110605111009306/05/11 11:10:31  5-MIN KMSN 051710Z VRB03KT 10SM CLR 27/12 A3013 670 38 2200 VRB/03 RMK AO2
14837KMSN MSN20110605111509306/05/11 11:15:31  5-MIN KMSN 051715Z 15005KT 10SM CLR 27/12 A3013 670 38 2200 160/05 RMK AO2
14837KMSN MSN20110605112009306/05/11 11:20:31  5-MIN KMSN 051720Z 13004KT 10SM CLR 27/12 A3013 670 38 2200 130/04 RMK AO2
14837KMSN MSN20110605112509306/05/11 11:25:31  5-MIN KMSN 051725Z VRB04KT 10SM CLR 27/11 A3013 670 37 2200 VRB/04 RMK AO2
14837KMSN MSN20110605113009306/05/11 11:30:31  5-MIN KMSN 051730Z 11007KT 10SM CLR 27/11 A3013 670 36 2300 110/07 RMK AO2
14837KMSN MSN20110605113509306/05/11 11:35:31  5-MIN KMSN 051735Z 12003KT 10SM CLR 27/12 A3013 670 37 2300 120/03 RMK AO2
14837KMSN MSN20110605114009306/05/11 11:40:31  5-MIN KMSN 051740Z 17004KT 10SM CLR 27/12 A3013 670 37 2300 170/04 RMK AO2
14837KMSN MSN20110605114509306/05/11 11:45:31  5-MIN KMSN 051745Z 00000KT 10SM CLR 27/11 A3013 680 34 2300 000/00 RMK AO2
14837KMSN MSN20110605115012806/05/11 11:50:31  5-MIN KMSN 051750Z VRB03KT 10SM CLR 27/11 A3012 680 34 2300 VRB/03 RMK AO2 SLP197 T02720106 10272 20167 50008
14837KMSN MSN20110605115509306/05/11 11:55:31  5-MIN KMSN 051755Z 00000KT 10SM CLR 28/11 A3012 680 35 2300 000/00 RMK AO2
14837KMSN MSN20110605120009306/05/11 12:00:31  5-MIN KMSN 051800Z 07007KT 10SM CLR 28/11 A3012 680 33 2400 080/07 RMK AO2
14837KMSN MSN20110605120509306/05/11 12:05:31  5-MIN KMSN 051805Z 07007KT 10SM CLR 28/12 A3012 680 35 2400 070/07 RMK AO2
14837KMSN MSN20110605121009306/05/11 12:10:31  5-MIN KMSN 051810Z VRB03KT 10SM CLR 28/11 A3012 680 32 2400 VRB/03 RMK AO2
14837KMSN MSN20110605121509306/05/11 12:15:31  5-MIN KMSN 051815Z 16003KT 10SM CLR 28/11 A3012 680 33 2300 170/03 RMK AO2
14837KMSN MSN20110605122009306/05/11 12:20:31  5-MIN KMSN 051820Z VRB03KT 10SM CLR 28/11 A3012 680 35 2300 VRB/03 RMK AO2
14837KMSN MSN20110605122509306/05/11 12:25:31  5-MIN KMSN 051825Z 08005KT 10SM CLR 28/12 A3012 680 35 2400 080/05 RMK AO2
14837KMSN MSN20110605123009306/05/11 12:30:31  5-MIN KMSN 051830Z 00000KT 10SM CLR 28/11 A3011 690 33 2400 000/00 RMK AO2
14837KMSN MSN20110605123509306/05/11 12:35:31  5-MIN KMSN 051835Z 06005KT 10SM CLR 29/11 A3011 690 32 2500 060/05 RMK AO2
14837KMSN MSN20110605124009306/05/11 12:40:31  5-MIN KMSN 051840Z 08005KT 10SM CLR 28/12 A3011 690 35 2400 080/05 RMK AO2
14837KMSN MSN20110605124509306/05/11 12:45:31  5-MIN KMSN 051845Z 11005KT 10SM CLR 28/12 A3011 690 35 2400 110/05 RMK AO2
14837KMSN MSN20110605125011006/05/11 12:50:31  5-MIN KMSN 051850Z VRB03KT 10SM CLR 28/11 A3011 690 33 2400 VRB/03 RMK AO2 SLP191 T02830111
14837KMSN MSN20110605125509306/05/11 12:55:31  5-MIN KMSN 051855Z 00000KT 10SM CLR 28/11 A3010 690 33 2400 000/00 RMK AO2
14837KMSN MSN20110605130009306/05/11 13:00:31  5-MIN KMSN 051900Z 08005KT 10SM CLR 29/12 A3010 700 34 2500 080/05 RMK AO2
14837KMSN MSN20110605130509306/05/11 13:05:31  5-MIN KMSN 051905Z VRB06KT 10SM CLR 29/12 A3010 700 34 2500 VRB/06 RMK AO2
14837KMSN MSN20110605131009306/05/11 13:10:31  5-MIN KMSN 051910Z 12004KT 10SM CLR 29/11 A3010 700 32 2500 120/04 RMK AO2
14837KMSN MSN20110605131509306/05/11 13:15:31  5-MIN KMSN 051915Z 09004KT 10SM CLR 29/11 A3010 700 32 2500 090/04 RMK AO2
14837KMSN MSN20110605132009306/05/11 13:20:31  5-MIN KMSN 051920Z 00000KT 10SM CLR 29/10 A3010 700 30 2500 000/00 RMK AO2
14837KMSN MSN20110605132509306/05/11 13:25:31  5-MIN KMSN 051925Z VRB03KT 10SM CLR 29/10 A3009 700 30 2500 VRB/03 RMK AO2
14837KMSN MSN20110605133009306/05/11 13:30:31  5-MIN KMSN 051930Z 16004KT 10SM CLR 29/11 A3009 700 30 2600 160/04 RMK AO2
14837KMSN MSN20110605133509306/05/11 13:35:31  5-MIN KMSN 051935Z 00000KT 10SM CLR 29/09 A3009 710 29 2500 000/00 RMK AO2
14837KMSN MSN20110605134009306/05/11 13:40:31  5-MIN KMSN 051940Z 00000KT 10SM CLR 29/09 A3009 710 29 2500 000/00 RMK AO2
14837KMSN MSN20110605134509306/05/11 13:45:31  5-MIN KMSN 051945Z 00000KT 10SM CLR 30/11 A3009 710 29 2600 000/00 RMK AO2
14837KMSN MSN20110605135011006/05/11 13:50:31  5-MIN KMSN 051950Z 25003KT 10SM CLR 29/12 A3009 710 34 2500 250/03 RMK AO2 SLP183 T02890117
14837KMSN MSN20110605135509306/05/11 13:55:31  5-MIN KMSN 051955Z 28006KT 10SM CLR 29/12 A3008 710 33 2600 290/06 RMK AO2
14837KMSN MSN20110605140009306/05/11 14:00:31  5-MIN KMSN 052000Z VRB03KT 10SM CLR 29/12 A3008 720 34 2600 VRB/03 RMK AO2
14837KMSN MSN20110605140509306/05/11 14:05:31  5-MIN KMSN 052005Z 23003KT 10SM CLR 29/12 A3008 720 33 2600 230/03 RMK AO2
14837KMSN MSN20110605141009306/05/11 14:10:31  5-MIN KMSN 052010Z 18004KT 10SM CLR 29/12 A3008 720 33 2600 180/04 RMK AO2
14837KMSN MSN20110605141509506/05/11 14:15:31  5-MIN KMSN 052015Z 00000KT 5SM HZ CLR 29/11 A3008 720 31 2600 000/00 RMK AO2
14837KMSN MSN20110605142009506/05/11 14:20:31  5-MIN KMSN 052020Z 00000KT 5SM HZ CLR 30/11 A3007 720 30 2600 000/00 RMK AO2
14837KMSN MSN20110605142509206/05/11 14:25:31  5-MIN KMSN 052025Z 18006KT 7SM CLR 29/11 A3007 720 31 2500 180/06 RMK AO2
14837KMSN MSN20110605143009506/05/11 14:30:31  5-MIN KMSN 052030Z 21003KT 4SM HZ CLR 29/10 A3007 730 29 2600 210/03 RMK AO2
14837KMSN MSN20110605143509506/05/11 14:35:31  5-MIN KMSN 052035Z 00000KT 5SM HZ CLR 30/09 A3007 730 27 2600 000/00 RMK AO2
14837KMSN MSN20110605144009206/05/11 14:40:31  5-MIN KMSN 052040Z 00000KT 8SM CLR 31/09 A3007 730 25 2700 000/00 RMK AO2
14837KMSN MSN20110605144509306/05/11 14:45:31  5-MIN KMSN 052045Z VRB05KT 10SM CLR 30/08 A3006 730 25 2700 VRB/05 RMK AO2
14837KMSN MSN20110605145011606/05/11 14:50:31  5-MIN KMSN 052050Z 18003KT 10SM CLR 29/09 A3006 730 27 2600 180/03 RMK AO2 SLP175 T02940089 58008
14837KMSN MSN20110605145509306/05/11 14:55:31  5-MIN KMSN 052055Z 00000KT 10SM CLR 30/08 A3006 730 24 2700 000/00 RMK AO2
14837KMSN MSN20110605150009306/05/11 15:00:31  5-MIN KMSN 052100Z 14005KT 10SM CLR 30/09 A3006 730 26 2700 140/05 RMK AO2
14837KMSN MSN20110605150509306/05/11 15:05:31  5-MIN KMSN 052105Z 16005KT 10SM CLR 29/08 A3006 740 26 2600 170/05 RMK AO2
14837KMSN MSN20110605151009306/05/11 15:10:31  5-MIN KMSN 052110Z 17004KT 10SM CLR 29/11 A3006 740 30 2600 170/04 RMK AO2
14837KMSN MSN20110605151509306/05/11 15:15:31  5-MIN KMSN 052115Z 00000KT 10SM CLR 30/10 A3006 740 28 2700 000/00 RMK AO2
14837KMSN MSN20110605152009306/05/11 15:20:31  5-MIN KMSN 052120Z 00000KT 10SM CLR 30/09 A3005 740 27 2700 000/00 RMK AO2
14837KMSN MSN20110605152509306/05/11 15:25:31  5-MIN KMSN 052125Z 00000KT 10SM CLR 30/09 A3005 740 26 2700 000/00 RMK AO2
14837KMSN MSN20110605153009306/05/11 15:30:31  5-MIN KMSN 052130Z 32003KT 10SM CLR 31/10 A3005 750 27 2700 320/03 RMK AO2
14837KMSN MSN20110605153509306/05/11 15:35:31  5-MIN KMSN 052135Z 00000KT 10SM CLR 31/09 A3004 750 26 2700 000/00 RMK AO2
14837KMSN MSN20110605154009306/05/11 15:40:31  5-MIN KMSN 052140Z VRB03KT 10SM CLR 30/09 A3004 750 27 2700 VRB/03 RMK AO2
14837KMSN MSN20110605154509306/05/11 15:45:31  5-MIN KMSN 052145Z VRB04KT 10SM CLR 30/09 A3004 750 27 2700 VRB/04 RMK AO2
14837KMSN MSN20110605155011006/05/11 15:50:31  5-MIN KMSN 052150Z VRB03KT 10SM CLR 30/10 A3004 750 28 2700 VRB/03 RMK AO2 SLP168 T03000100
14837KMSN MSN20110605155509306/05/11 15:55:31  5-MIN KMSN 052155Z 16003KT 10SM CLR 29/10 A3004 750 29 2600 160/03 RMK AO2
14837KMSN MSN20110605160009306/05/11 16:00:31  5-MIN KMSN 052200Z 00000KT 10SM CLR 29/11 A3004 750 30 2600 000/00 RMK AO2
14837KMSN MSN20110605160509306/05/11 16:05:31  5-MIN KMSN 052205Z 00000KT 10SM CLR 30/09 A3004 750 27 2700 000/00 RMK AO2
14837KMSN MSN20110605161009306/05/11 16:10:31  5-MIN KMSN 052210Z 00000KT 10SM CLR 30/09 A3004 750 27 2700 000/00 RMK AO2
14837KMSN MSN20110605161509306/05/11 16:15:31  5-MIN KMSN 052215Z 00000KT 10SM CLR 30/09 A3004 750 26 2700 000/00 RMK AO2
14837KMSN MSN20110605162009306/05/11 16:20:31  5-MIN KMSN 052220Z 00000KT 10SM CLR 31/09 A3004 750 26 2700 000/00 RMK AO2
14837KMSN MSN20110605162509306/05/11 16:25:31  5-MIN KMSN 052225Z 00000KT 10SM CLR 31/10 A3004 750 27 2700 000/00 RMK AO2
14837KMSN MSN20110605163009306/05/11 16:30:31  5-MIN KMSN 052230Z 00000KT 10SM CLR 30/11 A3004 750 29 2700 000/00 RMK AO2
14837KMSN MSN20110605163509306/05/11 16:35:31  5-MIN KMSN 052235Z 00000KT 10SM CLR 31/10 A3004 750 27 2700 000/00 RMK AO2
14837KMSN MSN20110605164009206/05/11 16:40:31  5-MIN KMSN 052240Z 00000KT 9SM CLR 31/11 A3004 750 28 2700 000/00 RMK AO2
14837KMSN MSN20110605164509206/05/11 16:45:31  5-MIN KMSN 052245Z 00000KT 9SM CLR 31/12 A3004 750 31 2800 000/00 RMK AO2
14837KMSN MSN20110605165010906/05/11 16:50:31  5-MIN KMSN 052250Z 00000KT 9SM CLR 31/12 A3004 750 30 2700 000/00 RMK AO2 SLP168 T03060117
14837KMSN MSN20110605165509206/05/11 16:55:31  5-MIN KMSN 052255Z 31003KT 9SM CLR 31/12 A3004 750 32 2700 310/03 RMK AO2
14837KMSN MSN20110605170009306/05/11 17:00:31  5-MIN KMSN 052300Z 33003KT 10SM CLR 30/14 A3004 750 36 2700 340/03 RMK AO2
14837KMSN MSN20110605170509306/05/11 17:05:31  5-MIN KMSN 052305Z 33003KT 10SM CLR 30/12 A3004 760 31 2700 330/03 RMK AO2
14837KMSN MSN20110605171009306/05/11 17:10:31  5-MIN KMSN 052310Z 36003KT 10SM CLR 30/13 A3004 760 34 2700 360/03 RMK AO2
14837KMSN MSN20110605171509306/05/11 17:15:31  5-MIN KMSN 052315Z 36004KT 10SM CLR 29/13 A3004 760 36 2600 360/04 RMK AO2
14837KMSN MSN20110605172009306/05/11 17:20:31  5-MIN KMSN 052320Z 36004KT 10SM CLR 29/13 A3004 760 36 2600 360/04 RMK AO2
14837KMSN MSN20110605172509306/05/11 17:25:31  5-MIN KMSN 052325Z 35003KT 10SM CLR 29/14 A3004 760 38 2600 350/03 RMK AO2
14837KMSN MSN20110605173009306/05/11 17:30:31  5-MIN KMSN 052330Z 35004KT 10SM CLR 29/14 A3004 760 38 2600 350/04 RMK AO2
14837KMSN MSN20110605173509306/05/11 17:35:31  5-MIN KMSN 052335Z 01003KT 10SM CLR 29/13 A3003 760 36 2600 010/03 RMK AO2
14837KMSN MSN20110605174009306/05/11 17:40:31  5-MIN KMSN 052340Z 01004KT 10SM CLR 29/13 A3003 760 36 2600 010/04 RMK AO2
14837KMSN MSN20110605174509306/05/11 17:45:31  5-MIN KMSN 052345Z 02003KT 10SM CLR 29/12 A3003 760 35 2600 020/03 RMK AO2
14837KMSN MSN20110605175012806/05/11 17:50:31  5-MIN KMSN 052350Z 01003KT 10SM CLR 29/14 A3003 760 38 2600 010/03 RMK AO2 SLP165 T02940139 10311 20278 58020
14837KMSN MSN20110605175509306/05/11 17:55:31  5-MIN KMSN 052355Z 00000KT 10SM CLR 29/14 A3003 760 40 2600 000/00 RMK AO2
14837KMSN MSN20110605180009306/05/11 18:00:31  5-MIN KMSN 060000Z 00000KT 10SM CLR 29/14 A3003 760 39 2600 000/00 RMK AO2
14837KMSN MSN20110605180509306/05/11 18:05:31  5-MIN KMSN 060005Z 00000KT 10SM CLR 29/14 A3003 760 39 2600 000/00 RMK AO2
14837KMSN MSN20110605181009306/05/11 18:10:31  5-MIN KMSN 060010Z 35003KT 10SM CLR 29/14 A3003 760 39 2600 350/03 RMK AO2
14837KMSN MSN20110605181509306/05/11 18:15:31  5-MIN KMSN 060015Z 00000KT 10SM CLR 28/16 A3003 760 47 2500 000/00 RMK AO2
14837KMSN MSN20110605182009306/05/11 18:20:31  5-MIN KMSN 060020Z 36003KT 10SM CLR 28/17 A3003 760 52 2400 360/03 RMK AO2
14837KMSN MSN20110605182509306/05/11 18:25:31  5-MIN KMSN 060025Z 36003KT 10SM CLR 27/15 A3003 760 46 2400 360/03 RMK AO2
14837KMSN MSN20110605183009306/05/11 18:30:31  5-MIN KMSN 060030Z 01003KT 10SM CLR 27/15 A3003 770 46 2400 010/03 RMK AO2
14837KMSN MSN20110605183509306/05/11 18:35:31  5-MIN KMSN 060035Z 01004KT 10SM CLR 27/14 A3003 770 45 2400 010/04 RMK AO2
14837KMSN MSN20110605184009306/05/11 18:40:31  5-MIN KMSN 060040Z 00000KT 10SM CLR 27/15 A3003 760 48 2300 000/00 RMK AO2
14837KMSN MSN20110605184509306/05/11 18:45:31  5-MIN KMSN 060045Z 00000KT 10SM CLR 27/16 A3003 770 50 2300 000/00 RMK AO2
14837KMSN MSN20110605185011006/05/11 18:50:31  5-MIN KMSN 060050Z 06003KT 10SM CLR 27/16 A3003 770 48 2400 060/03 RMK AO2 SLP163 T02720156
14837KMSN MSN20110605185509306/05/11 18:55:31  5-MIN KMSN 060055Z 06003KT 10SM CLR 27/15 A3003 770 48 2300 060/03 RMK AO2
14837KMSN MSN20110605190009306/05/11 19:00:31  5-MIN KMSN 060100Z 07006KT 10SM CLR 26/14 A3003 770 48 2300 080/06 RMK AO2
14837KMSN MSN20110605190509306/05/11 19:05:31  5-MIN KMSN 060105Z 09006KT 10SM CLR 26/14 A3003 770 48 2200 090/06 RMK AO2
14837KMSN MSN20110605191009306/05/11 19:10:31  5-MIN KMSN 060110Z 11006KT 10SM CLR 25/13 A3003 770 48 2100 110/06 RMK AO2
14837KMSN MSN20110605191509306/05/11 19:15:31  5-MIN KMSN 060115Z 11007KT 10SM CLR 25/13 A3002 770 46 2100 110/07 RMK AO2
14837KMSN MSN20110605192009306/05/11 19:20:31  5-MIN KMSN 060120Z 11009KT 10SM CLR 25/13 A3003 770 46 2100 120/09 RMK AO2
14837KMSN MSN20110605192509306/05/11 19:25:31  5-MIN KMSN 060125Z 11009KT 10SM CLR 25/12 A3003 770 44 2100 110/09 RMK AO2
14837KMSN MSN20110605193009306/05/11 19:30:31  5-MIN KMSN 060130Z 12010KT 10SM CLR 25/12 A3003 760 44 2100 120/10 RMK AO2
14837KMSN MSN20110605193509306/05/11 19:35:31  5-MIN KMSN 060135Z 12010KT 10SM CLR 25/12 A3003 760 44 2100 120/10 RMK AO2
14837KMSN MSN20110605194009306/05/11 19:40:31  5-MIN KMSN 060140Z 12010KT 10SM CLR 25/12 A3003 760 44 2100 120/10 RMK AO2
14837KMSN MSN20110605194509306/05/11 19:45:31  5-MIN KMSN 060145Z 12009KT 10SM CLR 24/12 A3003 760 46 2100 120/09 RMK AO2
14837KMSN MSN20110605195011006/05/11 19:50:31  5-MIN KMSN 060150Z 13009KT 10SM CLR 24/12 A3003 760 46 2100 130/09 RMK AO2 SLP164 T02440122
14837KMSN MSN20110605195509306/05/11 19:55:31  5-MIN KMSN 060155Z 13009KT 10SM CLR 24/12 A3003 760 46 2100 130/09 RMK AO2
14837KMSN MSN20110605200009306/05/11 20:00:31  5-MIN KMSN 060200Z 13007KT 10SM CLR 24/12 A3003 760 46 2100 130/07 RMK AO2
14837KMSN MSN20110605200509306/05/11 20:05:31  5-MIN KMSN 060205Z 12008KT 10SM CLR 24/12 A3003 760 47 2000 130/08 RMK AO2
14837KMSN MSN20110605201009306/05/11 20:10:31  5-MIN KMSN 060210Z 13009KT 10SM CLR 24/12 A3003 760 47 2000 130/09 RMK AO2
14837KMSN MSN20110605201509306/05/11 20:15:31  5-MIN KMSN 060215Z 13008KT 10SM CLR 24/12 A3003 760 47 2000 130/08 RMK AO2
14837KMSN MSN20110605202009306/05/11 20:20:31  5-MIN KMSN 060220Z 13009KT 10SM CLR 24/12 A3004 760 46 2000 130/09 RMK AO2
14837KMSN MSN20110605202509306/05/11 20:25:31  5-MIN KMSN 060225Z 14008KT 10SM CLR 24/12 A3004 760 46 2000 140/08 RMK AO2
14837KMSN MSN20110605203009306/05/11 20:30:31  5-MIN KMSN 060230Z 13008KT 10SM CLR 23/12 A3004 760 47 1900 140/08 RMK AO2
14837KMSN MSN20110605203509306/05/11 20:35:31  5-MIN KMSN 060235Z 14009KT 10SM CLR 23/12 A3004 760 47 1900 140/09 RMK AO2
14837KMSN MSN20110605204009306/05/11 20:40:31  5-MIN KMSN 060240Z 14008KT 10SM CLR 23/11 A3004 760 45 1900 140/08 RMK AO2
14837KMSN MSN20110605204509306/05/11 20:45:31  5-MIN KMSN 060245Z 14008KT 10SM CLR 23/11 A3004 760 45 1900 140/08 RMK AO2
14837KMSN MSN20110605205011606/05/11 20:50:31  5-MIN KMSN 060250Z 14007KT 10SM CLR 23/11 A3004 760 47 1900 140/07 RMK AO2 SLP166 T02280111 56009
14837KMSN MSN20110605205509306/05/11 20:55:31  5-MIN KMSN 060255Z 14008KT 10SM CLR 23/11 A3004 760 45 1900 140/08 RMK AO2
14837KMSN MSN20110605210009306/05/11 21:00:31  5-MIN KMSN 060300Z 14008KT 10SM CLR 23/11 A3004 750 45 1900 150/08 RMK AO2
14837KMSN MSN20110605210509306/05/11 21:05:31  5-MIN KMSN 060305Z 14008KT 10SM CLR 23/11 A3004 760 45 1900 140/08 RMK AO2
14837KMSN MSN20110605211009306/05/11 21:10:31  5-MIN KMSN 060310Z 14007KT 10SM CLR 22/11 A3004 760 47 1800 140/07 RMK AO2
14837KMSN MSN20110605211509306/05/11 21:15:31  5-MIN KMSN 060315Z 13008KT 10SM CLR 22/10 A3004 760 45 1800 130/08 RMK AO2
14837KMSN MSN20110605212009306/05/11 21:20:31  5-MIN KMSN 060320Z 14009KT 10SM CLR 22/10 A3004 760 45 1800 140/09 RMK AO2
14837KMSN MSN20110605212509306/05/11 21:25:31  5-MIN KMSN 060325Z 13008KT 10SM CLR 22/10 A3004 760 45 1800 130/08 RMK AO2
14837KMSN MSN20110605213009306/05/11 21:30:31  5-MIN KMSN 060330Z 14006KT 10SM CLR 22/10 A3004 760 47 1700 140/06 RMK AO2
14837KMSN MSN20110605213509306/05/11 21:35:31  5-MIN KMSN 060335Z 13007KT 10SM CLR 22/10 A3004 760 47 1700 130/07 RMK AO2
14837KMSN MSN20110605214009306/05/11 21:40:31  5-MIN KMSN 060340Z 13007KT 10SM CLR 22/10 A3003 760 47 1800 130/07 RMK AO2
14837KMSN MSN20110605214509306/05/11 21:45:31  5-MIN KMSN 060345Z 13008KT 10SM CLR 21/10 A3003 760 48 1700 140/08 RMK AO2
14837KMSN MSN20110605215011006/05/11 21:50:31  5-MIN KMSN 060350Z 13007KT 10SM CLR 21/09 A3003 760 47 1700 140/07 RMK AO2 SLP165 T02110094
14837KMSN MSN20110605215509306/05/11 21:55:31  5-MIN KMSN 060355Z 13007KT 10SM CLR 21/09 A3003 760 47 1700 140/07 RMK AO2
14837KMSN MSN20110605220009306/05/11 22:00:31  5-MIN KMSN 060400Z 13007KT 10SM CLR 21/09 A3003 760 47 1700 130/07 RMK AO2
14837KMSN MSN20110605220509306/05/11 22:05:31  5-MIN KMSN 060405Z 13008KT 10SM CLR 21/09 A3003 760 48 1600 130/08 RMK AO2
14837KMSN MSN20110605221009306/05/11 22:10:31  5-MIN KMSN 060410Z 12006KT 10SM CLR 21/10 A3003 760 50 1600 120/06 RMK AO2
14837KMSN MSN20110605221509306/05/11 22:15:31  5-MIN KMSN 060415Z 13006KT 10SM CLR 21/10 A3003 760 50 1600 130/06 RMK AO2
14837KMSN MSN20110605222009306/05/11 22:20:31  5-MIN KMSN 060420Z 13006KT 10SM CLR 20/10 A3003 760 52 1600 130/06 RMK AO2
14837KMSN MSN20110605222509306/05/11 22:25:31  5-MIN KMSN 060425Z 14006KT 10SM CLR 21/10 A3003 760 50 1600 140/06 RMK AO2
14837KMSN MSN20110605223009306/05/11 22:30:31  5-MIN KMSN 060430Z 13007KT 10SM CLR 21/09 A3003 760 48 1600 130/07 RMK AO2
14837KMSN MSN20110605223509306/05/11 22:35:31  5-MIN KMSN 060435Z 13005KT 10SM CLR 20/09 A3003 770 50 1600 140/05 RMK AO2
14837KMSN MSN20110605224009306/05/11 22:40:31  5-MIN KMSN 060440Z 13006KT 10SM CLR 20/09 A3003 770 50 1600 130/06 RMK AO2
14837KMSN MSN20110605224509306/05/11 22:45:31  5-MIN KMSN 060445Z 14004KT 10SM CLR 20/09 A3002 770 50 1600 140/04 RMK AO2
14837KMSN MSN20110605225011006/05/11 22:50:31  5-MIN KMSN 060450Z 14006KT 10SM CLR 19/09 A3003 770 52 1500 150/06 RMK AO2 SLP162 T01940094
14837KMSN MSN20110605225509306/05/11 22:55:31  5-MIN KMSN 060455Z 14006KT 10SM CLR 20/09 A3003 770 48 1600 140/06 RMK AO2
14837KMSN MSN20110605230009306/05/11 23:00:31  5-MIN KMSN 060500Z 14005KT 10SM CLR 19/09 A3002 770 50 1500 140/05 RMK AO2
14837KMSN MSN20110605230509306/05/11 23:05:31  5-MIN KMSN 060505Z 14006KT 10SM CLR 19/09 A3002 770 50 1500 140/06 RMK AO2
14837KMSN MSN20110605231009306/05/11 23:10:31  5-MIN KMSN 060510Z 15005KT 10SM CLR 19/09 A3002 770 50 1500 150/05 RMK AO2
14837KMSN MSN20110605231509306/05/11 23:15:31  5-MIN KMSN 060515Z 13007KT 10SM CLR 19/09 A3002 770 50 1500 140/07 RMK AO2
14837KMSN MSN20110605232009306/05/11 23:20:31  5-MIN KMSN 060520Z 13005KT 10SM CLR 19/09 A3002 770 50 1500 140/05 RMK AO2
14837KMSN MSN20110605232509306/05/11 23:25:31  5-MIN KMSN 060525Z 13006KT 10SM CLR 19/09 A3002 770 52 1400 140/06 RMK AO2
14837KMSN MSN20110605233009306/05/11 23:30:31  5-MIN KMSN 060530Z 15004KT 10SM CLR 19/09 A3002 770 50 1500 160/04 RMK AO2
14837KMSN MSN20110605233509306/05/11 23:35:31  5-MIN KMSN 060535Z 14007KT 10SM CLR 19/09 A3002 770 50 1500 150/07 RMK AO2
14837KMSN MSN20110605234009306/05/11 23:40:31  5-MIN KMSN 060540Z 15005KT 10SM CLR 19/09 A3002 770 52 1400 150/05 RMK AO2
14837KMSN MSN20110605234509306/05/11 23:45:31  5-MIN KMSN 060545Z 15006KT 10SM CLR 19/09 A3002 770 50 1500 160/06 RMK AO2
14837KMSN MSN20110605235013806/05/11 23:50:31  5-MIN KMSN 060550Z 14005KT 10SM CLR 19/09 A3002 770 52 1400 150/05 RMK AO2 SLP161 T01890089 10289 20189 403110139 53002
14837KMSN MSN20110605235509306/05/11 23:55:31  5-MIN KMSN 060555Z 15005KT 10SM CLR 19/09 A3002 770 52 1400 150/05 RMK AO2
14837KMSN MSN20110606000009306/06/11 00:00:32  5-MIN KMSN 060600Z 14004KT 10SM CLR 18/09 A3002 770 54 1400 140/04 RMK AO2
14837KMSN MSN20110606000509306/06/11 00:05:31  5-MIN KMSN 060605Z 15004KT 10SM CLR 18/09 A3002 770 54 1400 150/04 RMK AO2
14837KMSN MSN20110606001009306/06/11 00:10:31  5-MIN KMSN 060610Z 15003KT 10SM CLR 19/09 A3002 770 52 1400 160/03 RMK AO2
14837KMSN MSN20110606001509306/06/11 00:15:31  5-MIN KMSN 060615Z 16004KT 10SM CLR 19/09 A3002 770 52 1400 160/04 RMK AO2
14837KMSN MSN20110606002009306/06/11 00:20:31  5-MIN KMSN 060620Z 18004KT 10SM CLR 19/09 A3002 770 54 1400 180/04 RMK AO2
14837KMSN MSN20110606002509306/06/11 00:25:31  5-MIN KMSN 060625Z 17005KT 10SM CLR 19/09 A3002 770 54 1400 170/05 RMK AO2
14837KMSN MSN20110606003009306/06/11 00:30:31  5-MIN KMSN 060630Z 16006KT 10SM CLR 19/09 A3002 780 54 1400 170/06 RMK AO2
14837KMSN MSN20110606003509306/06/11 00:35:31  5-MIN KMSN 060635Z 16006KT 10SM CLR 19/09 A3001 780 54 1500 160/06 RMK AO2
14837KMSN MSN20110606004009306/06/11 00:40:31  5-MIN KMSN 060640Z 15006KT 10SM CLR 18/09 A3001 780 56 1400 150/06 RMK AO2
14837KMSN MSN20110606004509306/06/11 00:45:31  5-MIN KMSN 060645Z 13005KT 10SM CLR 18/09 A3001 780 56 1400 140/05 RMK AO2
14837KMSN MSN20110606005011006/06/11 00:50:31  5-MIN KMSN 060650Z 14007KT 10SM CLR 18/09 A3001 780 58 1300 140/07 RMK AO2 SLP157 T01780094
14837KMSN MSN20110606005509306/06/11 00:55:31  5-MIN KMSN 060655Z 15006KT 10SM CLR 18/09 A3001 780 56 1400 150/06 RMK AO2
14837KMSN MSN20110606010009306/06/11 01:00:31  5-MIN KMSN 060700Z 15006KT 10SM CLR 18/09 A3001 790 56 1400 150/06 RMK AO2
14837KMSN MSN20110606010509306/06/11 01:05:31  5-MIN KMSN 060705Z 16006KT 10SM CLR 18/09 A3000 790 54 1400 160/06 RMK AO2
14837KMSN MSN20110606011009306/06/11 01:10:31  5-MIN KMSN 060710Z 15007KT 10SM CLR 18/09 A3000 790 54 1400 160/07 RMK AO2
14837KMSN MSN20110606011509306/06/11 01:15:31  5-MIN KMSN 060715Z 16008KT 10SM CLR 19/09 A3000 790 52 1500 160/08 RMK AO2
14837KMSN MSN20110606012009306/06/11 01:20:31  5-MIN KMSN 060720Z 15006KT 10SM CLR 18/09 A3000 790 54 1400 160/06 RMK AO2
14837KMSN MSN20110606012509306/06/11 01:25:31  5-MIN KMSN 060725Z 15006KT 10SM CLR 18/09 A2999 800 54 1400 150/06 RMK AO2
14837KMSN MSN20110606013009306/06/11 01:30:31  5-MIN KMSN 060730Z 15007KT 10SM CLR 18/09 A2999 800 54 1400 150/07 RMK AO2
14837KMSN MSN20110606013509306/06/11 01:35:31  5-MIN KMSN 060735Z 16006KT 10SM CLR 18/09 A2999 800 54 1400 160/06 RMK AO2
14837KMSN MSN20110606014009306/06/11 01:40:31  5-MIN KMSN 060740Z 15006KT 10SM CLR 18/09 A2999 800 54 1400 150/06 RMK AO2
14837KMSN MSN20110606014509306/06/11 01:45:31  5-MIN KMSN 060745Z 15006KT 10SM CLR 18/09 A2999 800 54 1400 150/06 RMK AO2
14837KMSN MSN20110606015011006/06/11 01:50:31  5-MIN KMSN 060750Z 15007KT 10SM CLR 18/09 A2999 800 54 1400 150/07 RMK AO2 SLP149 T01830089
14837KMSN MSN20110606015509306/06/11 01:55:31  5-MIN KMSN 060755Z 14006KT 10SM CLR 18/09 A2998 810 54 1400 150/06 RMK AO2
14837KMSN MSN20110606020009306/06/11 02:00:31  5-MIN KMSN 060800Z 15007KT 10SM CLR 18/09 A2998 810 54 1400 150/07 RMK AO2
14837KMSN MSN20110606020509306/06/11 02:05:31  5-MIN KMSN 060805Z 15007KT 10SM CLR 18/09 A2998 810 54 1400 150/07 RMK AO2
14837KMSN MSN20110606021009306/06/11 02:10:31  5-MIN KMSN 060810Z 15006KT 10SM CLR 18/09 A2998 810 54 1400 150/06 RMK AO2
14837KMSN MSN20110606021509306/06/11 02:15:31  5-MIN KMSN 060815Z 15006KT 10SM CLR 18/09 A2998 810 54 1400 150/06 RMK AO2
14837KMSN MSN20110606022009306/06/11 02:20:31  5-MIN KMSN 060820Z 16005KT 10SM CLR 18/09 A2998 810 54 1400 160/05 RMK AO2
14837KMSN MSN20110606022509306/06/11 02:25:31  5-MIN KMSN 060825Z 16005KT 10SM CLR 18/09 A2998 810 56 1400 160/05 RMK AO2
14837KMSN MSN20110606023009306/06/11 02:30:31  5-MIN KMSN 060830Z 16005KT 10SM CLR 18/09 A2998 810 56 1400 160/05 RMK AO2
14837KMSN MSN20110606023509306/06/11 02:35:31  5-MIN KMSN 060835Z 16005KT 10SM CLR 18/09 A2997 810 56 1400 160/05 RMK AO2
14837KMSN MSN20110606024009306/06/11 02:40:31  5-MIN KMSN 060840Z 16006KT 10SM CLR 18/09 A2997 810 56 1400 160/06 RMK AO2
14837KMSN MSN20110606024509306/06/11 02:45:31  5-MIN KMSN 060845Z 18006KT 10SM CLR 18/09 A2998 810 56 1400 180/06 RMK AO2
14837KMSN MSN20110606025011606/06/11 02:50:31  5-MIN KMSN 060850Z 17005KT 10SM CLR 18/09 A2998 810 56 1400 180/05 RMK AO2 SLP146 T01830094 56005
14837KMSN MSN20110606025509306/06/11 02:55:31  5-MIN KMSN 060855Z 17006KT 10SM CLR 18/09 A2998 810 56 1400 170/06 RMK AO2
14837KMSN MSN20110606030009306/06/11 03:00:31  5-MIN KMSN 060900Z 17006KT 10SM CLR 18/09 A2998 810 58 1400 170/06 RMK AO2
14837KMSN MSN20110606030509306/06/11 03:05:31  5-MIN KMSN 060905Z 17005KT 10SM CLR 18/09 A2998 810 58 1400 170/05 RMK AO2
14837KMSN MSN20110606031009306/06/11 03:10:31  5-MIN KMSN 060910Z 17005KT 10SM CLR 18/09 A2998 810 58 1400 170/05 RMK AO2
14837KMSN MSN20110606031509306/06/11 03:15:31  5-MIN KMSN 060915Z 15005KT 10SM CLR 18/09 A2996 820 58 1400 150/05 RMK AO2
14837KMSN MSN20110606032010006/06/11 03:20:31  5-MIN KMSN 060920Z 14006KT 10SM CLR 17/09 A2996 830 60 1300 140/06 RMK AO2 PRESFR
14837KMSN MSN20110606032509306/06/11 03:25:31  5-MIN KMSN 060925Z 13006KT 10SM CLR 17/10 A2995 830 62 1300 130/06 RMK AO2
14837KMSN MSN20110606033009306/06/11 03:30:31  5-MIN KMSN 060930Z 14005KT 10SM CLR 17/10 A2996 830 62 1300 140/05 RMK AO2
14837KMSN MSN20110606033509306/06/11 03:35:31  5-MIN KMSN 060935Z 16003KT 10SM CLR 18/09 A2996 820 58 1400 160/03 RMK AO2
14837KMSN MSN20110606034009306/06/11 03:40:31  5-MIN KMSN 060940Z 19005KT 10SM CLR 18/10 A2997 820 58 1400 190/05 RMK AO2
14837KMSN MSN20110606034509306/06/11 03:45:31  5-MIN KMSN 060945Z 17004KT 10SM CLR 18/10 A2997 820 58 1400 170/04 RMK AO2
14837KMSN MSN20110606035011006/06/11 03:50:31  5-MIN KMSN 060950Z 15004KT 10SM CLR 18/10 A2996 820 60 1400 160/04 RMK AO2 SLP141 T01780100
14837KMSN MSN20110606035509306/06/11 03:55:31  5-MIN KMSN 060955Z 17003KT 10SM CLR 18/10 A2996 820 60 1400 170/03 RMK AO2
14837KMSN MSN20110606040009306/06/11 04:00:31  5-MIN KMSN 061000Z 16006KT 10SM CLR 18/10 A2996 830 60 1400 160/06 RMK AO2
14837KMSN MSN20110606040511206/06/11 04:05:31  5-MIN KMSN 061005Z 15004KT 10SM FEW100 18/10 A2996 820 60 1400 160/04 RMK AO2 FRQ LTG DSNT NW
14837KMSN MSN20110606041013206/06/11 04:10:31  5-MIN KMSN 061010Z 00000KT 10SM TS FEW100 18/10 A2997 820 60 1400 000/00 RMK AO2 TSB10 FRQ LTGIC OHD TS OHD MOV E
14837KMSN MSN20110606041513906/06/11 04:15:31  5-MIN KMSN 061015Z 33005KT 10SM TS SCT085 18/10 A2999 800 60 1300 330/05 RMK AO2 TSB10 PRESRR FRQ LTGIC OHD TS OHD MOV E
14837KMSN MSN20110606042015206/06/11 04:20:31  5-MIN KMSN 061020Z 36006KT 7SM -TSRA FEW037 BKN085 17/11 A3000 800 67 1300 010/06 RMK AO2 TSB10RAB17 FRQ LTGIC OHD TS OHD MOV E P0000
14837KMSN MSN20110606042515206/06/11 04:25:31  5-MIN KMSN 061025Z 06007KT 4SM -TSRA SCT031 BKN085 16/12 A2997 820 77 1200 060/07 RMK AO2 TSB10RAB17 FRQ LTGIC OHD TS OHD MOV E P0001
14837KMSN MSN20110606043015106/06/11 04:30:31  5-MIN KMSN 061030Z 10007KT 4SM TSRA BKN027 BKN085 16/12 A2995 830 80 1100 100/07 RMK AO2 TSB10RAB17 FRQ LTGIC OHD TS OHD MOV E P0004
14837KMSN MSN20110606043515206/06/11 04:35:31  5-MIN KMSN 061035Z 07005KT 5SM -TSRA BKN027 OVC085 16/13 A2996 830 80 1200 080/05 RMK AO2 TSB10RAB17 FRQ LTGIC OHD TS OHD MOV E P0005
14837KMSN MSN20110606044015206/06/11 04:40:31  5-MIN KMSN 061040Z 09004KT 6SM -TSRA BKN027 OVC085 16/12 A2996 830 77 1200 090/04 RMK AO2 TSB10RAB17 FRQ LTGIC OHD TS OHD MOV E P0005
14837KMSN MSN20110606044515206/06/11 04:45:31  5-MIN KMSN 061045Z 12008KT 8SM -TSRA BKN029 16/12 A2993 850 77 1200 120/08 RMK AO2 TSB10RAB17 PRESFR FRQ LTGIC OHD TS OHD MOV E P0005
14837KMSN MSN20110606045012606/06/11 04:50:31  5-MIN KMSN 061050Z 16009KT 8SM -RA BKN033 OVC041 16/13 A2994 850 80 1200 160/09 RMK AO2 TSB10E48RAB17 P0005
14837KMSN MSN20110606045511206/06/11 04:55:31  5-MIN KMSN 061055Z VRB03KT 8SM -RA BKN033 BKN055 17/13 A2996 830 80 1300 VRB/03 RMK AO2 P0000
14837KMSN MSN20110606050011906/06/11 05:00:31  5-MIN KMSN 061100Z 00000KT 8SM -RA BKN031 BKN042 OVC055 17/13 A2996 820 80 1300 000/00 RMK AO2 P0001
14837KMSN MSN20110606050512006/06/11 05:05:31  5-MIN KMSN 061105Z 12005KT 10SM -RA SCT035 BKN042 OVC055 17/13 A2995 830 78 1300 120/05 RMK AO2 P0001
14837KMSN MSN20110606051011506/06/11 05:10:31  5-MIN KMSN 061110Z 12004KT 10SM BKN044 OVC055 17/13 A2995 840 78 1300 130/04 RMK AO2 RAE10 P0001
14837KMSN MSN20110606051511506/06/11 05:15:31  5-MIN KMSN 061115Z 12004KT 10SM BKN044 BKN055 17/14 A2994 840 83 1300 120/04 RMK AO2 RAE10 P0001
14837KMSN MSN20110606052011506/06/11 05:20:31  5-MIN KMSN 061120Z 15004KT 10SM BKN044 BKN055 17/14 A2995 840 83 1300 150/04 RMK AO2 RAE10 P0001
14837KMSN MSN20110606052510806/06/11 05:25:31  5-MIN KMSN 061125Z 16004KT 10SM BKN044 17/13 A2996 830 78 1300 160/04 RMK AO2 RAE10 P0001
14837KMSN MSN20110606053010806/06/11 05:30:31  5-MIN KMSN 061130Z 15004KT 10SM BKN042 17/13 A2995 830 78 1300 150/04 RMK AO2 RAE10 P0001
14837KMSN MSN20110606053510806/06/11 05:35:31  5-MIN KMSN 061135Z 14006KT 10SM BKN042 18/13 A2995 840 75 1400 140/06 RMK AO2 RAE10 P0001
14837KMSN MSN20110606054010806/06/11 05:40:31  5-MIN KMSN 061140Z 15007KT 10SM BKN042 18/13 A2995 840 75 1400 150/07 RMK AO2 RAE10 P0001
14837KMSN MSN20110606054510806/06/11 05:45:31  5-MIN KMSN 061145Z 16007KT 10SM BKN042 18/13 A2995 840 75 1400 160/07 RMK AO2 RAE10 P0001
14837KMSN MSN20110606055017606/06/11 05:50:31  5-MIN KMSN 061150Z 15009KT 10SM -RA BKN042 BKN050 OVC110 18/13 A2994 850 75 1400 150/09 RMK AO2 RAE10B46 SLP133 P0001 60006 70006 T01780133 10189 20156 56015
14837KMSN MSN20110606055511306/06/11 05:55:31  5-MIN KMSN 061155Z 15008KT 10SM -RA BKN042 OVC100 18/13 A2994 840 75 1400 160/08 RMK AO2 P0000
14837KMSN MSN20110606060011306/06/11 06:00:31  5-MIN KMSN 061200Z 16006KT 10SM -RA BKN042 OVC110 18/13 A2994 840 75 1400 160/06 RMK AO2 P0000
14837KMSN MSN20110606060511206/06/11 06:05:31  5-MIN KMSN 061205Z 16006KT 8SM -RA BKN042 OVC110 18/14 A2995 840 75 1500 160/06 RMK AO2 P0000
14837KMSN MSN20110606061011206/06/11 06:10:31  5-MIN KMSN 061210Z 17008KT 7SM -RA BKN040 OVC110 18/14 A2994 850 78 1500 170/08 RMK AO2 P0000
14837KMSN MSN20110606061511906/06/11 06:15:31  5-MIN KMSN 061215Z 17008KT 7SM -RA SCT036 BKN046 OVC110 18/14 A2993 850 75 1500 180/08 RMK AO2 P0000
14837KMSN MSN20110606062012106/06/11 06:20:31  5-MIN KMSN 061220Z 18009KT 9SM SCT034 SCT055 BKN110 18/14 A2993 860 75 1500 180/09 RMK AO2 RAE18 P0000
14837KMSN MSN20110606062515106/06/11 06:25:31  5-MIN KMSN 061225Z 18008KT 10SM TS FEW034 BKN110 18/14 A2993 860 81 1400 180/08 RMK AO2 TSB25RAE18 FRQ LTGIC OHD TS OHD MOV SE P0000
14837KMSN MSN20110606063015106/06/11 06:30:31  5-MIN KMSN 061230Z 17009KT 10SM TS FEW032 SCT110 18/14 A2994 850 78 1400 170/09 RMK AO2 TSB25RAE18 FRQ LTGIC OHD TS OHD MOV SE P0000
14837KMSN MSN20110606063515106/06/11 06:35:31  5-MIN KMSN 061235Z 17006KT 10SM TS FEW030 SCT100 18/14 A2995 840 81 1400 170/06 RMK AO2 TSB25RAE18 FRQ LTGIC OHD TS OHD MOV SE P0000
14837KMSN MSN20110606064015106/06/11 06:40:31  5-MIN KMSN 061240Z 17006KT 10SM TS FEW027 BKN100 18/14 A2994 840 81 1400 170/06 RMK AO2 TSB25RAE18 FRQ LTGIC OHD TS OHD MOV SE P0000
14837KMSN MSN20110606064514406/06/11 06:45:31  5-MIN KMSN 061245Z 17005KT 10SM TS BKN100 18/14 A2994 850 78 1500 170/05 RMK AO2 TSB25RAE18 FRQ LTGIC OHD TS OHD MOV SE P0000
14837KMSN MSN20110606065016106/06/11 06:50:31  5-MIN KMSN 061250Z 17005KT 10SM TS BKN110 18/14 A2994 850 78 1500 170/05 RMK AO2 TSB25RAE18 SLP134 FRQ LTGIC OHD TS OHD MOV SE P0000 T01830144
14837KMSN MSN20110606065512806/06/11 06:55:31  5-MIN KMSN 061255Z 16003KT 10SM TS BKN110 18/14 A2995 840 78 1500 160/03 RMK AO2 OCNL LTGIC OHD TS OHD MOV SE
14837KMSN MSN20110606070012806/06/11 07:00:31  5-MIN KMSN 061300Z 14003KT 10SM TS BKN110 18/14 A2995 840 78 1500 140/03 RMK AO2 OCNL LTGIC OHD TS OHD MOV SE
14837KMSN MSN20110606070510206/06/11 07:05:31  5-MIN KMSN 061305Z 13003KT 10SM SCT110 18/14 A2995 840 78 1500 130/03 RMK AO2 TSE01
14837KMSN MSN20110606071010206/06/11 07:10:31  5-MIN KMSN 061310Z 09003KT 10SM SCT110 18/14 A2995 840 78 1500 090/03 RMK AO2 TSE01
14837KMSN MSN20110606071510106/06/11 07:15:31  5-MIN KMSN 061315Z 07005KT 9SM SCT110 18/15 A2994 840 81 1500 070/05 RMK AO2 TSE01
14837KMSN MSN20110606072010106/06/11 07:20:31  5-MIN KMSN 061320Z 07004KT 9SM SCT100 18/15 A2994 850 83 1400 070/04 RMK AO2 TSE01
14837KMSN MSN20110606072510106/06/11 07:25:31  5-MIN KMSN 061325Z 00000KT 9SM FEW110 18/15 A2994 850 81 1500 000/00 RMK AO2 TSE01
14837KMSN MSN20110606073010106/06/11 07:30:31  5-MIN KMSN 061330Z 16003KT 9SM FEW100 18/15 A2993 850 81 1500 160/03 RMK AO2 TSE01
14837KMSN MSN20110606073510106/06/11 07:35:31  5-MIN KMSN 061335Z 16006KT 9SM FEW100 18/15 A2993 860 81 1500 160/06 RMK AO2 TSE01
14837KMSN MSN20110606074010106/06/11 07:40:31  5-MIN KMSN 061340Z 16007KT 9SM FEW100 19/15 A2993 860 78 1600 160/07 RMK AO2 TSE01
14837KMSN MSN20110606074509806/06/11 07:45:31  5-MIN KMSN 061345Z 16007KT 8SM CLR 19/16 A2993 860 81 1600 160/07 RMK AO2 TSE01
14837KMSN MSN20110606075011506/06/11 07:50:31  5-MIN KMSN 061350Z 15006KT 8SM CLR 19/16 A2993 860 78 1600 150/06 RMK AO2 TSE01 SLP130 T01940156
14837KMSN MSN20110606075509506/06/11 07:55:31  5-MIN KMSN 061355Z 14007KT 8SM FEW120 19/16 A2993 860 78 1600 140/07 RMK AO2
14837KMSN MSN20110606080009506/06/11 08:00:31  5-MIN KMSN 061400Z 13007KT 8SM FEW120 19/16 A2993 860 81 1600 140/07 RMK AO2
14837KMSN MSN20110606080509506/06/11 08:05:31  5-MIN KMSN 061405Z 15007KT 8SM FEW120 21/16 A2992 860 75 1800 150/07 RMK AO2
14837KMSN MSN20110606081009506/06/11 08:10:31  5-MIN KMSN 061410Z 14008KT 8SM FEW120 21/17 A2992 870 75 1800 140/08 RMK AO2
14837KMSN MSN20110606081509506/06/11 08:15:31  5-MIN KMSN 061415Z 14007KT 8SM FEW120 22/17 A2992 870 73 1900 140/07 RMK AO2
14837KMSN MSN20110606082009506/06/11 08:20:31  5-MIN KMSN 061420Z 13008KT 8SM FEW120 22/17 A2991 870 73 1900 140/08 RMK AO2
14837KMSN MSN20110606082509506/06/11 08:25:31  5-MIN KMSN 061425Z 14008KT 8SM FEW120 22/17 A2991 870 75 1900 140/08 RMK AO2
14837KMSN MSN20110606083009506/06/11 08:30:31  5-MIN KMSN 061430Z 15010KT 7SM FEW120 22/17 A2991 880 73 2000 150/10 RMK AO2
14837KMSN MSN20110606083509506/06/11 08:35:31  5-MIN KMSN 061435Z 16010KT 7SM FEW120 23/18 A2990 880 73 2000 170/10 RMK AO2
14837KMSN MSN20110606084009506/06/11 08:40:31  5-MIN KMSN 061440Z 16010KT 7SM FEW120 23/18 A2990 880 73 2000 170/10 RMK AO2
14837KMSN MSN20110606084509506/06/11 08:45:31  5-MIN KMSN 061445Z 16010KT 7SM FEW120 23/18 A2990 880 70 2100 170/10 RMK AO2
14837KMSN MSN20110606085012406/06/11 08:50:31  5-MIN KMSN 061450Z 17007KT 7SM FEW120 23/18 A2990 890 70 2100 170/07 RMK AO2 SLP118 60000 T02330178 58012
14837KMSN MSN20110606085509506/06/11 08:55:31  5-MIN KMSN 061455Z 16011KT 7SM FEW120 24/19 A2990 890 73 2200 160/11 RMK AO2
14837KMSN MSN20110606090009506/06/11 09:00:31  5-MIN KMSN 061500Z 17009KT 7SM FEW120 24/18 A2989 890 71 2200 170/09 RMK AO2
14837KMSN MSN20110606090509506/06/11 09:05:31  5-MIN KMSN 061505Z 18010KT 7SM FEW120 24/19 A2989 890 71 2200 180/10 RMK AO2
14837KMSN MSN20110606091009506/06/11 09:10:31  5-MIN KMSN 061510Z 17010KT 7SM FEW120 25/19 A2989 890 71 2300 170/10 RMK AO2
14837KMSN MSN20110606091509506/06/11 09:15:31  5-MIN KMSN 061515Z 17011KT 7SM FEW120 25/19 A2988 900 71 2300 170/11 RMK AO2
14837KMSN MSN20110606092009506/06/11 09:20:31  5-MIN KMSN 061520Z 17014KT 7SM FEW120 26/19 A2988 900 68 2400 170/14 RMK AO2
14837KMSN MSN20110606092509506/06/11 09:25:31  5-MIN KMSN 061525Z 17014KT 7SM FEW120 26/20 A2988 900 68 2400 170/14 RMK AO2
14837KMSN MSN20110606093009506/06/11 09:30:31  5-MIN KMSN 061530Z 17014KT 7SM FEW120 26/20 A2987 910 68 2400 170/14 RMK AO2
14837KMSN MSN20110606093509506/06/11 09:35:31  5-MIN KMSN 061535Z 18013KT 7SM FEW120 27/20 A2987 910 66 2500 180/13 RMK AO2
14837KMSN MSN20110606094009506/06/11 09:40:31  5-MIN KMSN 061540Z 18013KT 7SM FEW120 27/20 A2986 920 66 2500 180/13 RMK AO2
14837KMSN MSN20110606094509506/06/11 09:45:31  5-MIN KMSN 061545Z 18013KT 7SM FEW120 27/20 A2986 920 66 2500 180/13 RMK AO2
14837KMSN MSN20110606095011206/06/11 09:50:31  5-MIN KMSN 061550Z 18014KT 8SM FEW120 27/20 A2986 920 64 2600 180/14 RMK AO2 SLP106 T02720200
14837KMSN MSN20110606095509506/06/11 09:55:31  5-MIN KMSN 061555Z 17014KT 8SM FEW120 27/20 A2986 920 64 2600 170/14 RMK AO2
14837KMSN MSN20110606100009506/06/11 10:00:31  5-MIN KMSN 061600Z 17011KT 8SM FEW120 28/20 A2985 930 62 2600 170/11 RMK AO2
14837KMSN MSN20110606100509506/06/11 10:05:31  5-MIN KMSN 061605Z 17014KT 8SM FEW120 28/21 A2985 930 64 2600 170/14 RMK AO2
14837KMSN MSN20110606101009506/06/11 10:10:31  5-MIN KMSN 061610Z 18012KT 9SM FEW120 28/21 A2985 930 62 2700 180/12 RMK AO2
14837KMSN MSN20110606101509506/06/11 10:15:31  5-MIN KMSN 061615Z 17014KT 9SM FEW120 28/21 A2985 930 62 2700 170/14 RMK AO2
14837KMSN MSN20110606102009506/06/11 10:20:31  5-MIN KMSN 061620Z 18013KT 9SM FEW120 29/21 A2985 930 60 2800 190/13 RMK AO2
14837KMSN MSN20110606102509506/06/11 10:25:31  5-MIN KMSN 061625Z 18012KT 9SM FEW120 29/21 A2985 930 60 2800 180/12 RMK AO2
14837KMSN MSN20110606103009506/06/11 10:30:31  5-MIN KMSN 061630Z 17014KT 9SM FEW120 29/21 A2985 930 58 2800 170/14 RMK AO2
14837KMSN MSN20110606103509606/06/11 10:35:31  5-MIN KMSN 061635Z 16012KT 10SM FEW120 29/21 A2985 930 58 2800 170/12 RMK AO2
14837KMSN MSN20110606104009606/06/11 10:40:31  5-MIN KMSN 061640Z 17012KT 10SM FEW120 30/21 A2984 940 56 2900 180/12 RMK AO2
14837KMSN MSN20110606104509606/06/11 10:45:31  5-MIN KMSN 061645Z 17015KT 10SM FEW120 30/21 A2984 940 56 2900 170/15 RMK AO2
14837KMSN MSN20110606105011306/06/11 10:50:31  5-MIN KMSN 061650Z 19012KT 10SM FEW120 30/20 A2984 940 54 2900 190/12 RMK AO2 SLP097 T03000200
14837KMSN MSN20110606105509906/06/11 10:55:31  5-MIN KMSN 061655Z 17016G19KT 10SM CLR 31/20 A2983 940 52 3000 170/16G19 RMK AO2
14837KMSN MSN20110606110009906/06/11 11:00:31  5-MIN KMSN 061700Z 19013G19KT 10SM CLR 31/20 A2983 950 52 3000 190/13G19 RMK AO2
14837KMSN MSN20110606110509306/06/11 11:05:31  5-MIN KMSN 061705Z 19012KT 10SM CLR 31/20 A2983 950 51 3000 190/12 RMK AO2
14837KMSN MSN20110606111009306/06/11 11:10:31  5-MIN KMSN 061710Z 17015KT 10SM CLR 31/20 A2983 950 51 3000 170/15 RMK AO2
14837KMSN MSN20110606111509306/06/11 11:15:31  5-MIN KMSN 061715Z 17014KT 10SM CLR 31/20 A2982 950 51 3000 170/14 RMK AO2
14837KMSN MSN20110606112009906/06/11 11:20:31  5-MIN KMSN 061720Z 18015G20KT 10SM CLR 31/20 A2982 950 51 3000 180/15G20 RMK AO2
14837KMSN MSN20110606112509906/06/11 11:25:31  5-MIN KMSN 061725Z 19012G20KT 10SM CLR 31/20 A2983 950 51 3000 190/12G20 RMK AO2
14837KMSN MSN20110606113009306/06/11 11:30:31  5-MIN KMSN 061730Z 18013KT 10SM CLR 32/20 A2982 950 49 3100 180/13 RMK AO2
14837KMSN MSN20110606113509906/06/11 11:35:31  5-MIN KMSN 061735Z 20013G20KT 10SM CLR 32/20 A2982 960 49 3100 200/13G20 RMK AO2
14837KMSN MSN20110606114009906/06/11 11:40:31  5-MIN KMSN 061740Z 19013G20KT 10SM CLR 32/20 A2982 960 49 3100 190/13G20 RMK AO2
14837KMSN MSN20110606114509906/06/11 11:45:31  5-MIN KMSN 061745Z 19014G22KT 10SM CLR 32/20 A2982 960 48 3200 190/14G22 RMK AO2
14837KMSN MSN20110606115014006/06/11 11:50:31  5-MIN KMSN 061750Z 18014G22KT 10SM CLR 32/20 A2981 960 48 3200 190/14G22 RMK AO2 SLP090 60000 T03220200 10322 20178 58016
14837KMSN MSN20110606115509906/06/11 11:55:31  5-MIN KMSN 061755Z 19013G21KT 10SM CLR 32/20 A2981 960 48 3200 190/13G21 RMK AO2
14837KMSN MSN20110606120009906/06/11 12:00:31  5-MIN KMSN 061800Z 18012G21KT 10SM CLR 32/21 A2981 970 49 3200 190/12G21 RMK AO2
14837KMSN MSN20110606120509906/06/11 12:05:31  5-MIN KMSN 061805Z 17017G22KT 10SM CLR 33/21 A2981 970 48 3200 180/17G22 RMK AO2
14837KMSN MSN20110606121009906/06/11 12:10:31  5-MIN KMSN 061810Z 18012G22KT 10SM CLR 33/20 A2981 970 46 3200 180/12G22 RMK AO2
14837KMSN MSN20110606121509906/06/11 12:15:31  5-MIN KMSN 061815Z 19014G18KT 10SM CLR 33/20 A2981 970 46 3200 190/14G18 RMK AO2
14837KMSN MSN20110606122009906/06/11 12:20:31  5-MIN KMSN 061820Z 19013G21KT 10SM CLR 33/20 A2980 970 46 3300 190/13G21 RMK AO2
14837KMSN MSN20110606122509906/06/11 12:25:31  5-MIN KMSN 061825Z 18014G21KT 10SM CLR 33/20 A2980 970 46 3300 180/14G21 RMK AO2
14837KMSN MSN20110606123009906/06/11 12:30:31  5-MIN KMSN 061830Z 20009G20KT 10SM CLR 33/19 A2980 970 43 3300 200/09G20 RMK AO2
14837KMSN MSN20110606123509906/06/11 12:35:31  5-MIN KMSN 061835Z 22013G22KT 10SM CLR 33/19 A2980 970 42 3300 220/13G22 RMK AO2
14837KMSN MSN20110606124011506/06/11 12:40:31  5-MIN KMSN 061840Z 21013G22KT 180V250 10SM CLR 33/19 A2980 970 42 3300 210/13G22 180V250 RMK AO2
14837KMSN MSN20110606124509906/06/11 12:45:31  5-MIN KMSN 061845Z 19013G21KT 10SM CLR 33/19 A2980 980 42 3300 190/13G21 RMK AO2
14837KMSN MSN20110606125011606/06/11 12:50:31  5-MIN KMSN 061850Z 21009G21KT 10SM CLR 33/19 A2980 980 42 3300 210/09G21 RMK AO2 SLP085 T03330189
14837KMSN MSN20110606125511506/06/11 12:55:31  5-MIN KMSN 061855Z 22009G15KT 170V240 10SM CLR 34/19 A2980 980 42 3400 220/09G15 170V240 RMK AO2
14837KMSN MSN20110606130009906/06/11 13:00:31  5-MIN KMSN 061900Z 22008G17KT 10SM CLR 33/19 A2980 980 43 3300 220/08G17 RMK AO2
14837KMSN MSN20110606130509906/06/11 13:05:31  5-MIN KMSN 061905Z 19014G17KT 10SM CLR 34/19 A2980 980 42 3400 190/14G17 RMK AO2
14837KMSN MSN20110606131009906/06/11 13:10:31  5-MIN KMSN 061910Z 20012G18KT 10SM CLR 34/19 A2979 980 42 3400 210/12G18 RMK AO2
14837KMSN MSN20110606131509906/06/11 13:15:31  5-MIN KMSN 061915Z 21009G18KT 10SM CLR 34/19 A2979 980 42 3400 210/09G18 RMK AO2
14837KMSN MSN20110606132011506/06/11 13:20:31  5-MIN KMSN 061920Z 21009G16KT 190V250 10SM CLR 34/19 A2979 980 42 3400 220/09G16 190V250 RMK AO2
14837KMSN MSN20110606132509906/06/11 13:25:31  5-MIN KMSN 061925Z 21008G16KT 10SM CLR 34/19 A2979 980 40 3400 220/08G16 RMK AO2
14837KMSN MSN20110606133009906/06/11 13:30:31  5-MIN KMSN 061930Z 22008G16KT 10SM CLR 34/19 A2979 980 40 3400 220/08G16 RMK AO2
14837KMSN MSN20110606133509906/06/11 13:35:31  5-MIN KMSN 061935Z 22010G16KT 10SM CLR 34/19 A2979 990 40 3400 230/10G16 RMK AO2
14837KMSN MSN20110606134009906/06/11 13:40:31  5-MIN KMSN 061940Z 21009G15KT 10SM CLR 34/19 A2979 990 40 3400 210/09G15 RMK AO2
14837KMSN MSN20110606134511506/06/11 13:45:31  5-MIN KMSN 061945Z 23009G17KT 190V250 10SM CLR 34/19 A2979 990 40 3400 230/09G17 190V250 RMK AO2
14837KMSN MSN20110606135011906/06/11 13:50:31  5-MIN KMSN 061950Z 23009G17KT 10SM FEW060 34/19 A2978 990 40 3400 230/09G17 RMK AO2 SLP079 T03390189
14837KMSN MSN20110606135509906/06/11 13:55:31  5-MIN KMSN 061955Z 22007G16KT 10SM CLR 34/19 A2978 990 40 3500 230/07G16 RMK AO2
14837KMSN MSN20110606140010206/06/11 14:00:31  5-MIN KMSN 062000Z 23011G16KT 10SM FEW060 34/19 A2978 990 39 3500 230/11G16 RMK AO2
14837KMSN MSN20110606140510306/06/11 14:05:31  5-MIN KMSN 062005Z 22009G16KT 10SM FEW060 34/19 A2978 1000 39 3500 220/09G16 RMK AO2
14837KMSN MSN20110606141011906/06/11 14:10:31  5-MIN KMSN 062010Z 24008G15KT 190V260 10SM FEW060 34/19 A2978 1000 39 3500 240/08G15 190V260 RMK AO2
14837KMSN MSN20110606141511306/06/11 14:15:31  5-MIN KMSN 062015Z 23008KT 200V290 10SM FEW060 34/19 A2978 1000 40 3500 230/08 200V290 RMK AO2
14837KMSN MSN20110606142009706/06/11 14:20:31  5-MIN KMSN 062020Z VRB06KT 10SM FEW060 34/19 A2978 1000 39 3500 VRB/06 RMK AO2
14837KMSN MSN20110606142511306/06/11 14:25:31  5-MIN KMSN 062025Z 25007KT 220V290 10SM FEW060 34/19 A2977 1000 40 3400 250/07 220V290 RMK AO2
14837KMSN MSN20110606143011306/06/11 14:30:31  5-MIN KMSN 062030Z 23007KT 180V270 10SM FEW060 34/19 A2977 1000 40 3400 230/07 180V270 RMK AO2
14837KMSN MSN20110606143509706/06/11 14:35:31  5-MIN KMSN 062035Z 23008KT 10SM FEW060 34/19 A2977 1000 40 3400 240/08 RMK AO2
14837KMSN MSN20110606144009706/06/11 14:40:31  5-MIN KMSN 062040Z VRB06KT 10SM FEW060 34/19 A2977 1000 42 3400 VRB/06 RMK AO2
14837KMSN MSN20110606144509706/06/11 14:45:31  5-MIN KMSN 062045Z 24008KT 10SM FEW060 34/19 A2977 1000 42 3400 240/08 RMK AO2
14837KMSN MSN20110606145012006/06/11 14:50:31  5-MIN KMSN 062050Z 23008KT 10SM FEW060 34/19 A2977 1000 42 3400 240/08 RMK AO2 SLP074 T03390194 56027
14837KMSN MSN20110606145509706/06/11 14:55:31  5-MIN KMSN 062055Z 24007KT 10SM FEW055 34/19 A2977 1010 42 3400 240/07 RMK AO2
14837KMSN MSN20110606150009706/06/11 15:00:31  5-MIN KMSN 062100Z 23006KT 10SM FEW055 34/19 A2977 1010 42 3400 230/06 RMK AO2
14837KMSN MSN20110606150509706/06/11 15:05:31  5-MIN KMSN 062105Z 24007KT 10SM FEW055 34/19 A2977 1010 42 3400 250/07 RMK AO2
14837KMSN MSN20110606151009706/06/11 15:10:31  5-MIN KMSN 062110Z 23008KT 10SM FEW055 34/19 A2977 1010 42 3400 240/08 RMK AO2
14837KMSN MSN20110606151509706/06/11 15:15:31  5-MIN KMSN 062115Z VRB05KT 10SM FEW055 34/19 A2977 1010 42 3400 VRB/05 RMK AO2
14837KMSN MSN20110606152009706/06/11 15:20:31  5-MIN KMSN 062120Z VRB04KT 10SM FEW055 34/20 A2977 1010 43 3400 VRB/04 RMK AO2
14837KMSN MSN20110606152509706/06/11 15:25:31  5-MIN KMSN 062125Z 22003KT 10SM FEW055 34/20 A2977 1010 43 3400 230/03 RMK AO2
14837KMSN MSN20110606153009706/06/11 15:30:31  5-MIN KMSN 062130Z 22005KT 10SM FEW055 34/20 A2977 1010 43 3400 230/05 RMK AO2
14837KMSN MSN20110606153509706/06/11 15:35:31  5-MIN KMSN 062135Z VRB04KT 10SM FEW055 34/19 A2977 1010 42 3400 VRB/04 RMK AO2
14837KMSN MSN20110606154009706/06/11 15:40:31  5-MIN KMSN 062140Z VRB05KT 10SM FEW055 34/19 A2976 1010 42 3400 VRB/05 RMK AO2
14837KMSN MSN20110606154509706/06/11 15:45:31  5-MIN KMSN 062145Z VRB05KT 10SM FEW055 34/19 A2976 1010 40 3400 VRB/05 RMK AO2
14837KMSN MSN20110606155011406/06/11 15:50:31  5-MIN KMSN 062150Z VRB06KT 10SM FEW055 34/19 A2976 1010 42 3400 VRB/06 RMK AO2 SLP072 T03390194
14837KMSN MSN20110606155509406/06/11 15:55:31  5-MIN KMSN 062155Z 25007KT 10SM CLR 34/19 A2976 1010 42 3400 250/07 RMK AO2
14837KMSN MSN20110606160009706/06/11 16:00:31  5-MIN KMSN 062200Z VRB06KT 10SM FEW055 34/19 A2976 1010 42 3400 VRB/06 RMK AO2
14837KMSN MSN20110606160509706/06/11 16:05:31  5-MIN KMSN 062205Z VRB06KT 10SM FEW055 34/19 A2976 1010 42 3400 VRB/06 RMK AO2
14837KMSN MSN20110606161009706/06/11 16:10:31  5-MIN KMSN 062210Z 24007KT 10SM FEW055 34/19 A2976 1010 42 3400 240/07 RMK AO2
14837KMSN MSN20110606161509706/06/11 16:15:31  5-MIN KMSN 062215Z 23006KT 10SM FEW055 33/19 A2976 1010 43 3400 230/06 RMK AO2
14837KMSN MSN20110606162009706/06/11 16:20:31  5-MIN KMSN 062220Z 23007KT 10SM FEW055 33/19 A2976 1010 43 3400 230/07 RMK AO2
14837KMSN MSN20110606162509706/06/11 16:25:31  5-MIN KMSN 062225Z VRB06KT 10SM FEW055 33/19 A2976 1010 43 3400 VRB/06 RMK AO2
14837KMSN MSN20110606163009706/06/11 16:30:31  5-MIN KMSN 062230Z 23005KT 10SM FEW055 34/20 A2976 1010 43 3400 230/05 RMK AO2
14837KMSN MSN20110606163509706/06/11 16:35:31  5-MIN KMSN 062235Z 24005KT 10SM FEW055 34/20 A2976 1010 43 3400 240/05 RMK AO2
14837KMSN MSN20110606164009706/06/11 16:40:31  5-MIN KMSN 062240Z VRB05KT 10SM FEW055 33/20 A2976 1020 45 3400 VRB/05 RMK AO2
14837KMSN MSN20110606164509706/06/11 16:45:31  5-MIN KMSN 062245Z 24005KT 10SM FEW055 33/20 A2976 1020 45 3400 240/05 RMK AO2
14837KMSN MSN20110606165011406/06/11 16:50:31  5-MIN KMSN 062250Z VRB05KT 10SM FEW055 33/20 A2976 1020 45 3400 VRB/05 RMK AO2 SLP070 T03330200
14837KMSN MSN20110606165509706/06/11 16:55:31  5-MIN KMSN 062255Z 23006KT 10SM FEW050 33/20 A2975 1020 45 3400 230/06 RMK AO2
14837KMSN MSN20110606170009706/06/11 17:00:31  5-MIN KMSN 062300Z 23006KT 10SM FEW050 33/20 A2976 1020 45 3400 230/06 RMK AO2
14837KMSN MSN20110606170509706/06/11 17:05:31  5-MIN KMSN 062305Z 24006KT 10SM FEW050 33/20 A2976 1020 45 3400 240/06 RMK AO2
14837KMSN MSN20110606171009706/06/11 17:10:31  5-MIN KMSN 062310Z 23005KT 10SM FEW050 33/20 A2976 1020 45 3400 230/05 RMK AO2
14837KMSN MSN20110606171509706/06/11 17:15:31  5-MIN KMSN 062315Z 24005KT 10SM FEW050 33/20 A2976 1020 46 3300 240/05 RMK AO2
14837KMSN MSN20110606172009706/06/11 17:20:31  5-MIN KMSN 062320Z 23006KT 10SM FEW050 33/20 A2976 1020 46 3300 230/06 RMK AO2
14837KMSN MSN20110606172509706/06/11 17:25:31  5-MIN KMSN 062325Z 23005KT 10SM FEW050 32/20 A2975 1020 48 3200 230/05 RMK AO2
14837KMSN MSN20110606173009706/06/11 17:30:31  5-MIN KMSN 062330Z 23005KT 10SM FEW050 33/20 A2976 1020 46 3300 240/05 RMK AO2
14837KMSN MSN20110606173509406/06/11 17:35:31  5-MIN KMSN 062335Z 24004KT 10SM CLR 32/20 A2976 1020 48 3200 240/04 RMK AO2
14837KMSN MSN20110606174009406/06/11 17:40:31  5-MIN KMSN 062340Z 23004KT 10SM CLR 33/20 A2976 1020 46 3300 230/04 RMK AO2
14837KMSN MSN20110606174509406/06/11 17:45:31  5-MIN KMSN 062345Z 23004KT 10SM CLR 33/20 A2976 1020 46 3300 240/04 RMK AO2
14837KMSN MSN20110606175012906/06/11 17:50:31  5-MIN KMSN 062350Z 23003KT 10SM CLR 32/21 A2976 1020 49 3200 230/03 RMK AO2 SLP070 T03220206 10344 20322 56015
14837KMSN MSN20110606175509406/06/11 17:55:31  5-MIN KMSN 062355Z 25003KT 10SM CLR 32/21 A2976 1020 49 3200 250/03 RMK AO2
14837KMSN MSN20110606180009406/06/11 18:00:31  5-MIN KMSN 070000Z VRB04KT 10SM CLR 32/21 A2976 1010 49 3200 VRB/04 RMK AO2
14837KMSN MSN20110606180509406/06/11 18:05:31  5-MIN KMSN 070005Z 24005KT 10SM CLR 32/21 A2976 1010 51 3200 240/05 RMK AO2
14837KMSN MSN20110606181009406/06/11 18:10:31  5-MIN KMSN 070010Z 22004KT 10SM CLR 31/21 A2976 1010 53 3100 230/04 RMK AO2
14837KMSN MSN20110606181509406/06/11 18:15:31  5-MIN KMSN 070015Z 23004KT 10SM CLR 32/21 A2976 1010 51 3200 230/04 RMK AO2
14837KMSN MSN20110606182009406/06/11 18:20:31  5-MIN KMSN 070020Z VRB04KT 10SM CLR 32/21 A2976 1010 51 3200 VRB/04 RMK AO2
14837KMSN MSN20110606182509406/06/11 18:25:31  5-MIN KMSN 070025Z 23005KT 10SM CLR 31/20 A2976 1010 51 3100 240/05 RMK AO2
14837KMSN MSN20110606183009406/06/11 18:30:31  5-MIN KMSN 070030Z 23004KT 10SM CLR 31/20 A2976 1010 51 3100 240/04 RMK AO2
14837KMSN MSN20110606183509406/06/11 18:35:31  5-MIN KMSN 070035Z 24004KT 10SM CLR 31/20 A2976 1010 51 3100 240/04 RMK AO2
14837KMSN MSN20110606184009406/06/11 18:40:31  5-MIN KMSN 070040Z 24003KT 10SM CLR 31/21 A2976 1010 53 3100 240/03 RMK AO2
14837KMSN MSN20110606184509406/06/11 18:45:31  5-MIN KMSN 070045Z 24004KT 10SM CLR 31/21 A2976 1010 53 3100 240/04 RMK AO2
14837KMSN MSN20110606185011106/06/11 18:50:31  5-MIN KMSN 070050Z 24004KT 10SM CLR 31/21 A2976 1010 54 3100 240/04 RMK AO2 SLP072 T03060206
14837KMSN MSN20110606185509406/06/11 18:55:31  5-MIN KMSN 070055Z 24004KT 10SM CLR 31/21 A2976 1010 54 3100 240/04 RMK AO2
14837KMSN MSN20110606190009406/06/11 19:00:31  5-MIN KMSN 070100Z 23004KT 10SM CLR 31/21 A2976 1010 54 3100 230/04 RMK AO2
14837KMSN MSN20110606190509406/06/11 19:05:31  5-MIN KMSN 070105Z 23005KT 10SM CLR 31/21 A2976 1010 54 3100 230/05 RMK AO2
14837KMSN MSN20110606191009406/06/11 19:10:31  5-MIN KMSN 070110Z 23004KT 10SM CLR 31/21 A2976 1010 54 3100 230/04 RMK AO2
14837KMSN MSN20110606191509406/06/11 19:15:31  5-MIN KMSN 070115Z 24003KT 10SM CLR 31/21 A2976 1010 54 3100 240/03 RMK AO2
14837KMSN MSN20110606192009406/06/11 19:20:31  5-MIN KMSN 070120Z 23004KT 10SM CLR 30/21 A2977 1010 56 3000 240/04 RMK AO2
14837KMSN MSN20110606192509406/06/11 19:25:31  5-MIN KMSN 070125Z 23004KT 10SM CLR 29/21 A2977 1010 58 2900 230/04 RMK AO2
14837KMSN MSN20110606193009406/06/11 19:30:31  5-MIN KMSN 070130Z 23004KT 10SM CLR 29/21 A2977 1010 58 2900 230/04 RMK AO2
14837KMSN MSN20110606193509406/06/11 19:35:31  5-MIN KMSN 070135Z 23003KT 10SM CLR 29/21 A2977 1010 60 2900 230/03 RMK AO2
14837KMSN MSN20110606194009306/06/11 19:40:31  5-MIN KMSN 070140Z 23003KT 9SM CLR 29/21 A2977 1010 60 2900 230/03 RMK AO2
14837KMSN MSN20110606194509306/06/11 19:45:31  5-MIN KMSN 070145Z 23004KT 9SM CLR 29/21 A2977 1010 60 2900 230/04 RMK AO2
14837KMSN MSN20110606195011006/06/11 19:50:31  5-MIN KMSN 070150Z 23003KT 9SM CLR 28/21 A2977 1010 62 2800 230/03 RMK AO2 SLP075 T02830206
14837KMSN MSN20110606195509406/06/11 19:55:31  5-MIN KMSN 070155Z 23004KT 10SM CLR 28/21 A2977 1000 62 2800 230/04 RMK AO2
14837KMSN MSN20110606200009406/06/11 20:00:31  5-MIN KMSN 070200Z 23004KT 10SM CLR 28/21 A2977 1000 62 2800 230/04 RMK AO2
14837KMSN MSN20110606200509406/06/11 20:05:31  5-MIN KMSN 070205Z 22004KT 10SM CLR 28/21 A2977 1000 62 2800 220/04 RMK AO2
14837KMSN MSN20110606201009406/06/11 20:10:31  5-MIN KMSN 070210Z 22004KT 10SM CLR 28/21 A2977 1000 62 2800 220/04 RMK AO2
14837KMSN MSN20110606201509406/06/11 20:15:31  5-MIN KMSN 070215Z 23003KT 10SM CLR 28/21 A2978 1000 62 2800 230/03 RMK AO2
14837KMSN MSN20110606202009406/06/11 20:20:31  5-MIN KMSN 070220Z 22003KT 10SM CLR 27/21 A2978 1000 66 2700 230/03 RMK AO2
14837KMSN MSN20110606202509406/06/11 20:25:31  5-MIN KMSN 070225Z 22003KT 10SM CLR 28/21 A2978 1000 64 2700 220/03 RMK AO2
14837KMSN MSN20110606203009406/06/11 20:30:31  5-MIN KMSN 070230Z 22003KT 10SM CLR 28/21 A2978 1000 62 2800 230/03 RMK AO2
14837KMSN MSN20110606203509306/06/11 20:35:31  5-MIN KMSN 070235Z 23003KT 10SM CLR 28/21 A2978 990 64 2700 230/03 RMK AO2
14837KMSN MSN20110606204009306/06/11 20:40:31  5-MIN KMSN 070240Z 23003KT 10SM CLR 27/21 A2978 990 66 2700 240/03 RMK AO2
14837KMSN MSN20110606204509306/06/11 20:45:31  5-MIN KMSN 070245Z 23003KT 10SM CLR 27/21 A2978 990 66 2700 240/03 RMK AO2
14837KMSN MSN20110606205011606/06/11 20:50:31  5-MIN KMSN 070250Z 20003KT 10SM CLR 27/21 A2978 990 69 2600 210/03 RMK AO2 SLP079 T02670206 55004
14837KMSN MSN20110606205509306/06/11 20:55:31  5-MIN KMSN 070255Z 00000KT 10SM CLR 27/21 A2978 990 66 2700 000/00 RMK AO2
14837KMSN MSN20110606210009306/06/11 21:00:31  5-MIN KMSN 070300Z 22003KT 10SM CLR 27/21 A2979 990 69 2600 220/03 RMK AO2
14837KMSN MSN20110606210509306/06/11 21:05:31  5-MIN KMSN 070305Z 22003KT 10SM CLR 28/21 A2979 990 64 2700 220/03 RMK AO2
14837KMSN MSN20110606211009306/06/11 21:10:31  5-MIN KMSN 070310Z 22003KT 10SM CLR 28/21 A2979 990 64 2700 220/03 RMK AO2
14837KMSN MSN20110606211509306/06/11 21:15:31  5-MIN KMSN 070315Z 21003KT 10SM CLR 27/21 A2979 990 66 2700 210/03 RMK AO2
14837KMSN MSN20110606212009306/06/11 21:20:31  5-MIN KMSN 070320Z 21003KT 10SM CLR 28/21 A2979 980 62 2800 210/03 RMK AO2
14837KMSN MSN20110606212509306/06/11 21:25:31  5-MIN KMSN 070325Z 00000KT 10SM CLR 28/21 A2979 980 62 2800 000/00 RMK AO2
14837KMSN MSN20110606213009306/06/11 21:30:31  5-MIN KMSN 070330Z 20003KT 10SM CLR 28/21 A2979 980 64 2700 200/03 RMK AO2
14837KMSN MSN20110606213509306/06/11 21:35:31  5-MIN KMSN 070335Z 22003KT 10SM CLR 28/21 A2980 980 64 2700 220/03 RMK AO2
14837KMSN MSN20110606214009306/06/11 21:40:31  5-MIN KMSN 070340Z 22003KT 10SM CLR 28/21 A2980 980 62 2800 220/03 RMK AO2
14837KMSN MSN20110606214509306/06/11 21:45:31  5-MIN KMSN 070345Z 22003KT 10SM CLR 28/21 A2980 980 64 2700 220/03 RMK AO2
14837KMSN MSN20110606215011006/06/11 21:50:31  5-MIN KMSN 070350Z 22004KT 10SM CLR 28/21 A2980 980 64 2700 220/04 RMK AO2 SLP082 T02780206
14837KMSN MSN20110606215509306/06/11 21:55:31  5-MIN KMSN 070355Z 22005KT 10SM CLR 28/21 A2980 980 62 2800 220/05 RMK AO2
14837KMSN MSN20110606220009306/06/11 22:00:31  5-MIN KMSN 070400Z 22005KT 10SM CLR 28/21 A2980 980 62 2800 220/05 RMK AO2
14837KMSN MSN20110606220509306/06/11 22:05:31  5-MIN KMSN 070405Z 22006KT 10SM CLR 28/21 A2980 980 62 2800 220/06 RMK AO2
14837KMSN MSN20110606221009306/06/11 22:10:31  5-MIN KMSN 070410Z 22005KT 10SM CLR 28/21 A2980 980 62 2800 220/05 RMK AO2
14837KMSN MSN20110606221509306/06/11 22:15:31  5-MIN KMSN 070415Z 22005KT 10SM CLR 28/21 A2980 980 62 2800 220/05 RMK AO2
14837KMSN MSN20110606222009306/06/11 22:20:31  5-MIN KMSN 070420Z 23005KT 10SM CLR 28/21 A2980 980 62 2800 230/05 RMK AO2
14837KMSN MSN20110606222509306/06/11 22:25:31  5-MIN KMSN 070425Z 22005KT 10SM CLR 28/21 A2980 980 64 2700 230/05 RMK AO2
14837KMSN MSN20110606223009306/06/11 22:30:31  5-MIN KMSN 070430Z 23004KT 10SM CLR 28/21 A2980 980 64 2700 230/04 RMK AO2
14837KMSN MSN20110606223509306/06/11 22:35:31  5-MIN KMSN 070435Z 22004KT 10SM CLR 28/21 A2980 980 64 2700 230/04 RMK AO2
14837KMSN MSN20110606224009306/06/11 22:40:31  5-MIN KMSN 070440Z 22003KT 10SM CLR 27/21 A2980 970 66 2600 230/03 RMK AO2
14837KMSN MSN20110606224509306/06/11 22:45:31  5-MIN KMSN 070445Z 22004KT 10SM CLR 27/21 A2980 970 66 2600 230/04 RMK AO2
14837KMSN MSN20110606225011006/06/11 22:50:31  5-MIN KMSN 070450Z 22004KT 10SM CLR 27/21 A2980 980 66 2600 230/04 RMK AO2 SLP083 T02720206
14837KMSN MSN20110606225509306/06/11 22:55:31  5-MIN KMSN 070455Z 22003KT 10SM CLR 27/21 A2980 970 66 2600 220/03 RMK AO2
14837KMSN MSN20110606230009306/06/11 23:00:31  5-MIN KMSN 070500Z 23003KT 10SM CLR 27/21 A2980 970 69 2600 230/03 RMK AO2
14837KMSN MSN20110606230509306/06/11 23:05:31  5-MIN KMSN 070505Z 00000KT 10SM CLR 26/21 A2980 970 71 2500 000/00 RMK AO2
14837KMSN MSN20110606231009306/06/11 23:10:31  5-MIN KMSN 070510Z 00000KT 10SM CLR 26/21 A2980 970 73 2500 000/00 RMK AO2
14837KMSN MSN20110606231509306/06/11 23:15:31  5-MIN KMSN 070515Z 00000KT 10SM CLR 26/21 A2980 980 73 2500 000/00 RMK AO2
14837KMSN MSN20110606232009306/06/11 23:20:31  5-MIN KMSN 070520Z 00000KT 10SM CLR 26/21 A2980 980 71 2500 000/00 RMK AO2
14837KMSN MSN20110606232509306/06/11 23:25:31  5-MIN KMSN 070525Z 00000KT 10SM CLR 26/21 A2980 970 71 2500 000/00 RMK AO2
14837KMSN MSN20110606233009306/06/11 23:30:31  5-MIN KMSN 070530Z 00000KT 10SM CLR 26/21 A2980 980 73 2500 000/00 RMK AO2
14837KMSN MSN20110606233509306/06/11 23:35:31  5-MIN KMSN 070535Z 00000KT 10SM CLR 27/21 A2980 980 69 2600 000/00 RMK AO2
14837KMSN MSN20110606234009306/06/11 23:40:31  5-MIN KMSN 070540Z VRB03KT 10SM CLR 26/21 A2980 980 71 2500 VRB/03 RMK AO2
14837KMSN MSN20110606234509306/06/11 23:45:31  5-MIN KMSN 070545Z 00000KT 10SM CLR 26/21 A2980 980 71 2500 000/00 RMK AO2
14837KMSN MSN20110606235013806/06/11 23:50:31  5-MIN KMSN 070550Z 22003KT 10SM CLR 26/21 A2980 980 71 2500 220/03 RMK AO2 SLP081 T02610206 10322 20256 403440156 53009
14837KMSN MSN20110606235509306/06/11 23:55:31  5-MIN KMSN 070555Z 22003KT 10SM CLR 26/21 A2980 980 71 2500 220/03 RMK AO2
14837KMSN MSN20110607000009306/07/11 00:00:32  5-MIN KMSN 070600Z 00000KT 10SM CLR 27/21 A2980 980 69 2600 000/00 RMK AO2
14837KMSN MSN20110607000509306/07/11 00:05:31  5-MIN KMSN 070605Z 22003KT 10SM CLR 27/21 A2980 980 69 2600 230/03 RMK AO2
14837KMSN MSN20110607001009306/07/11 00:10:31  5-MIN KMSN 070610Z 22004KT 10SM CLR 27/21 A2980 980 69 2600 220/04 RMK AO2
14837KMSN MSN20110607001509306/07/11 00:15:31  5-MIN KMSN 070615Z 22004KT 10SM CLR 27/21 A2979 980 69 2600 220/04 RMK AO2
14837KMSN MSN20110607002009306/07/11 00:20:31  5-MIN KMSN 070620Z 22003KT 10SM CLR 27/21 A2979 980 69 2600 220/03 RMK AO2
14837KMSN MSN20110607002509306/07/11 00:25:31  5-MIN KMSN 070625Z 22003KT 10SM CLR 26/21 A2979 980 71 2500 220/03 RMK AO2
14837KMSN MSN20110607003009306/07/11 00:30:31  5-MIN KMSN 070630Z 00000KT 10SM CLR 26/21 A2979 980 71 2500 000/00 RMK AO2
14837KMSN MSN20110607003509306/07/11 00:35:31  5-MIN KMSN 070635Z 00000KT 10SM CLR 26/21 A2979 980 73 2500 000/00 RMK AO2
14837KMSN MSN20110607004009306/07/11 00:40:31  5-MIN KMSN 070640Z 20003KT 10SM CLR 26/21 A2979 980 73 2500 210/03 RMK AO2
14837KMSN MSN20110607004509306/07/11 00:45:31  5-MIN KMSN 070645Z 00000KT 10SM CLR 26/21 A2979 980 71 2500 000/00 RMK AO2
14837KMSN MSN20110607005010906/07/11 00:50:31  5-MIN KMSN 070650Z 21003KT 9SM CLR 26/21 A2979 980 71 2500 210/03 RMK AO2 SLP080 T02610206
14837KMSN MSN20110607005509206/07/11 00:55:31  5-MIN KMSN 070655Z 20003KT 9SM CLR 26/21 A2979 980 71 2500 200/03 RMK AO2
14837KMSN MSN20110607010009206/07/11 01:00:31  5-MIN KMSN 070700Z 21003KT 9SM CLR 26/21 A2979 980 71 2500 210/03 RMK AO2
14837KMSN MSN20110607010509206/07/11 01:05:31  5-MIN KMSN 070705Z 21003KT 9SM CLR 26/21 A2979 980 71 2500 210/03 RMK AO2
14837KMSN MSN20110607011009206/07/11 01:10:31  5-MIN KMSN 070710Z 21003KT 9SM CLR 26/21 A2979 980 71 2500 210/03 RMK AO2
14837KMSN MSN20110607011509206/07/11 01:15:31  5-MIN KMSN 070715Z 20003KT 9SM CLR 26/21 A2979 980 71 2500 210/03 RMK AO2
14837KMSN MSN20110607012009206/07/11 01:20:31  5-MIN KMSN 070720Z 22004KT 9SM CLR 26/21 A2979 980 71 2500 220/04 RMK AO2
14837KMSN MSN20110607012509206/07/11 01:25:31  5-MIN KMSN 070725Z 21003KT 9SM CLR 26/21 A2979 980 71 2500 220/03 RMK AO2
14837KMSN MSN20110607013009206/07/11 01:30:31  5-MIN KMSN 070730Z 22004KT 9SM CLR 26/21 A2979 980 71 2500 230/04 RMK AO2
14837KMSN MSN20110607013509206/07/11 01:35:31  5-MIN KMSN 070735Z 22003KT 9SM CLR 26/21 A2979 980 71 2500 220/03 RMK AO2
14837KMSN MSN20110607014009206/07/11 01:40:31  5-MIN KMSN 070740Z 22004KT 9SM CLR 26/21 A2979 980 71 2500 220/04 RMK AO2
14837KMSN MSN20110607014509206/07/11 01:45:31  5-MIN KMSN 070745Z 22005KT 9SM CLR 26/21 A2979 980 71 2500 220/05 RMK AO2
14837KMSN MSN20110607015010906/07/11 01:50:31  5-MIN KMSN 070750Z 21003KT 9SM CLR 26/21 A2979 980 71 2500 220/03 RMK AO2 SLP081 T02610206
14837KMSN MSN20110607015509206/07/11 01:55:31  5-MIN KMSN 070755Z 21005KT 9SM CLR 26/21 A2979 980 71 2500 220/05 RMK AO2
14837KMSN MSN20110607020009206/07/11 02:00:31  5-MIN KMSN 070800Z 21005KT 9SM CLR 26/21 A2979 980 71 2500 220/05 RMK AO2
14837KMSN MSN20110607020509206/07/11 02:05:31  5-MIN KMSN 070805Z 21004KT 9SM CLR 26/21 A2979 980 71 2500 220/04 RMK AO2
14837KMSN MSN20110607021009206/07/11 02:10:31  5-MIN KMSN 070810Z 22004KT 9SM CLR 26/21 A2980 980 71 2500 220/04 RMK AO2
14837KMSN MSN20110607021509206/07/11 02:15:31  5-MIN KMSN 070815Z 22005KT 9SM CLR 26/21 A2980 980 71 2500 220/05 RMK AO2
14837KMSN MSN20110607022009206/07/11 02:20:31  5-MIN KMSN 070820Z 22006KT 9SM CLR 26/21 A2980 980 71 2500 220/06 RMK AO2
14837KMSN MSN20110607022509206/07/11 02:25:31  5-MIN KMSN 070825Z 21003KT 9SM CLR 26/21 A2980 980 71 2500 210/03 RMK AO2
14837KMSN MSN20110607023009206/07/11 02:30:31  5-MIN KMSN 070830Z 22004KT 9SM CLR 26/21 A2980 980 71 2500 220/04 RMK AO2
14837KMSN MSN20110607023509206/07/11 02:35:31  5-MIN KMSN 070835Z 22003KT 9SM CLR 26/21 A2980 980 73 2500 220/03 RMK AO2
14837KMSN MSN20110607024009206/07/11 02:40:31  5-MIN KMSN 070840Z 22005KT 9SM CLR 26/21 A2980 980 73 2500 220/05 RMK AO2
14837KMSN MSN20110607024509206/07/11 02:45:31  5-MIN KMSN 070845Z 22004KT 9SM CLR 26/21 A2980 980 73 2500 220/04 RMK AO2
14837KMSN MSN20110607025011506/07/11 02:50:31  5-MIN KMSN 070850Z 20003KT 8SM CLR 26/21 A2980 980 73 2500 200/03 RMK AO2 SLP082 T02560206 50004
14837KMSN MSN20110607025509206/07/11 02:55:31  5-MIN KMSN 070855Z 21003KT 8SM CLR 26/21 A2980 980 73 2500 210/03 RMK AO2
14837KMSN MSN20110607030009206/07/11 03:00:31  5-MIN KMSN 070900Z 20003KT 8SM CLR 26/21 A2980 980 73 2500 200/03 RMK AO2
14837KMSN MSN20110607030509206/07/11 03:05:31  5-MIN KMSN 070905Z 21003KT 8SM CLR 26/21 A2980 980 73 2500 210/03 RMK AO2
14837KMSN MSN20110607031009206/07/11 03:10:31  5-MIN KMSN 070910Z 20003KT 8SM CLR 25/21 A2980 980 76 2400 210/03 RMK AO2
14837KMSN MSN20110607031509206/07/11 03:15:31  5-MIN KMSN 070915Z 00000KT 8SM CLR 25/21 A2980 980 76 2400 000/00 RMK AO2
14837KMSN MSN20110607032009206/07/11 03:20:31  5-MIN KMSN 070920Z 20003KT 7SM CLR 25/21 A2980 980 76 2400 200/03 RMK AO2
14837KMSN MSN20110607032509206/07/11 03:25:31  5-MIN KMSN 070925Z 20003KT 7SM CLR 25/21 A2980 980 76 2400 200/03 RMK AO2
14837KMSN MSN20110607033009206/07/11 03:30:31  5-MIN KMSN 070930Z 20004KT 7SM CLR 25/21 A2980 980 76 2400 200/04 RMK AO2
14837KMSN MSN20110607033509206/07/11 03:35:31  5-MIN KMSN 070935Z 20004KT 7SM CLR 25/21 A2980 980 76 2400 200/04 RMK AO2
14837KMSN MSN20110607034009206/07/11 03:40:31  5-MIN KMSN 070940Z 20004KT 7SM CLR 25/21 A2980 970 76 2400 200/04 RMK AO2
14837KMSN MSN20110607034509206/07/11 03:45:31  5-MIN KMSN 070945Z 20004KT 7SM CLR 25/21 A2980 970 76 2400 200/04 RMK AO2
14837KMSN MSN20110607035010906/07/11 03:50:31  5-MIN KMSN 070950Z 00000KT 7SM CLR 24/21 A2980 970 78 2300 000/00 RMK AO2 SLP084 T02440206
14837KMSN MSN20110607035509206/07/11 03:55:31  5-MIN KMSN 070955Z 21003KT 7SM CLR 25/21 A2980 970 76 2400 220/03 RMK AO2
14837KMSN MSN20110607040009206/07/11 04:00:31  5-MIN KMSN 071000Z 21004KT 7SM CLR 25/21 A2981 970 76 2400 210/04 RMK AO2
14837KMSN MSN20110607040509206/07/11 04:05:31  5-MIN KMSN 071005Z 21004KT 7SM CLR 25/21 A2981 970 76 2400 210/04 RMK AO2
14837KMSN MSN20110607041009206/07/11 04:10:31  5-MIN KMSN 071010Z 22005KT 7SM CLR 25/21 A2981 970 76 2400 220/05 RMK AO2
14837KMSN MSN20110607041509206/07/11 04:15:31  5-MIN KMSN 071015Z 22004KT 7SM CLR 25/21 A2981 970 76 2400 220/04 RMK AO2
14837KMSN MSN20110607042009206/07/11 04:20:31  5-MIN KMSN 071020Z 21005KT 7SM CLR 25/21 A2981 970 76 2400 220/05 RMK AO2
14837KMSN MSN20110607042509206/07/11 04:25:31  5-MIN KMSN 071025Z 22003KT 7SM CLR 25/20 A2981 970 73 2400 220/03 RMK AO2
14837KMSN MSN20110607043009506/07/11 04:30:31  5-MIN KMSN 071030Z 21004KT 6SM HZ CLR 25/20 A2981 970 73 2400 210/04 RMK AO2
14837KMSN MSN20110607043509506/07/11 04:35:31  5-MIN KMSN 071035Z 22004KT 6SM HZ CLR 25/20 A2981 970 73 2400 220/04 RMK AO2
14837KMSN MSN20110607044009506/07/11 04:40:31  5-MIN KMSN 071040Z 22004KT 6SM HZ CLR 24/20 A2981 960 76 2300 220/04 RMK AO2
14837KMSN MSN20110607044509506/07/11 04:45:31  5-MIN KMSN 071045Z 22005KT 6SM HZ CLR 25/20 A2981 960 73 2400 220/05 RMK AO2
14837KMSN MSN20110607045011206/07/11 04:50:31  5-MIN KMSN 071050Z 22004KT 6SM HZ CLR 25/20 A2982 960 73 2400 220/04 RMK AO2 SLP088 T02500200
14837KMSN MSN20110607045509506/07/11 04:55:31  5-MIN KMSN 071055Z 22004KT 6SM HZ CLR 25/20 A2982 960 73 2400 220/04 RMK AO2
14837KMSN MSN20110607050009506/07/11 05:00:31  5-MIN KMSN 071100Z 21004KT 6SM HZ CLR 25/20 A2982 960 73 2400 220/04 RMK AO2
14837KMSN MSN20110607050509506/07/11 05:05:31  5-MIN KMSN 071105Z 21004KT 6SM HZ CLR 25/20 A2982 960 73 2400 210/04 RMK AO2
14837KMSN MSN20110607051009506/07/11 05:10:31  5-MIN KMSN 071110Z VRB05KT 6SM HZ CLR 25/20 A2982 960 73 2400 VRB/05 RMK AO2
14837KMSN MSN20110607051509506/07/11 05:15:31  5-MIN KMSN 071115Z 22005KT 6SM HZ CLR 25/20 A2982 960 73 2400 220/05 RMK AO2
14837KMSN MSN20110607052009506/07/11 05:20:31  5-MIN KMSN 071120Z 22005KT 6SM HZ CLR 25/20 A2982 960 73 2400 230/05 RMK AO2
14837KMSN MSN20110607052509506/07/11 05:25:31  5-MIN KMSN 071125Z 22006KT 6SM HZ CLR 25/20 A2982 950 73 2400 230/06 RMK AO2
14837KMSN MSN20110607053009506/07/11 05:30:31  5-MIN KMSN 071130Z 22006KT 6SM HZ CLR 25/20 A2982 950 73 2400 230/06 RMK AO2
14837KMSN MSN20110607053509506/07/11 05:35:31  5-MIN KMSN 071135Z 22005KT 6SM HZ CLR 25/20 A2983 950 73 2400 220/05 RMK AO2
14837KMSN MSN20110607054009506/07/11 05:40:31  5-MIN KMSN 071140Z 22005KT 6SM HZ CLR 25/20 A2982 950 73 2400 220/05 RMK AO2
14837KMSN MSN20110607054509506/07/11 05:45:31  5-MIN KMSN 071145Z 22004KT 6SM HZ CLR 25/21 A2983 950 76 2400 220/04 RMK AO2
14837KMSN MSN20110607055013006/07/11 05:50:31  5-MIN KMSN 071150Z 21004KT 6SM HZ CLR 25/21 A2983 950 76 2400 220/04 RMK AO2 SLP092 T02500206 10267 20244 53001
14837KMSN MSN20110607055509506/07/11 05:55:31  5-MIN KMSN 071155Z 23006KT 6SM HZ CLR 25/21 A2983 950 76 2400 230/06 RMK AO2
14837KMSN MSN20110607060009506/07/11 06:00:31  5-MIN KMSN 071200Z 22005KT 6SM HZ CLR 26/21 A2982 950 73 2400 220/05 RMK AO2
14837KMSN MSN20110607060509506/07/11 06:05:31  5-MIN KMSN 071205Z 22005KT 6SM HZ CLR 26/21 A2982 950 73 2400 220/05 RMK AO2
14837KMSN MSN20110607061009506/07/11 06:10:31  5-MIN KMSN 071210Z 22005KT 6SM HZ CLR 26/21 A2983 950 73 2400 230/05 RMK AO2
14837KMSN MSN20110607061509506/07/11 06:15:31  5-MIN KMSN 071215Z VRB05KT 6SM HZ CLR 26/21 A2983 950 73 2400 VRB/05 RMK AO2
14837KMSN MSN20110607062009506/07/11 06:20:31  5-MIN KMSN 071220Z 22005KT 6SM HZ CLR 26/21 A2983 950 73 2400 220/05 RMK AO2
14837KMSN MSN20110607062509506/07/11 06:25:31  5-MIN KMSN 071225Z 22006KT 6SM HZ CLR 26/21 A2983 950 73 2400 230/06 RMK AO2
14837KMSN MSN20110607063009506/07/11 06:30:31  5-MIN KMSN 071230Z 22005KT 6SM HZ CLR 26/21 A2983 950 73 2400 220/05 RMK AO2
14837KMSN MSN20110607063509506/07/11 06:35:31  5-MIN KMSN 071235Z VRB05KT 6SM HZ CLR 26/21 A2983 950 73 2400 VRB/05 RMK AO2
14837KMSN MSN20110607064009506/07/11 06:40:31  5-MIN KMSN 071240Z 22004KT 6SM HZ CLR 26/21 A2983 950 73 2400 220/04 RMK AO2
14837KMSN MSN20110607064509506/07/11 06:45:31  5-MIN KMSN 071245Z 22004KT 6SM HZ CLR 26/21 A2983 950 71 2500 220/04 RMK AO2
14837KMSN MSN20110607065011206/07/11 06:50:31  5-MIN KMSN 071250Z 22004KT 6SM HZ CLR 26/21 A2983 950 71 2500 230/04 RMK AO2 SLP093 T02610206
14837KMSN MSN20110607065509506/07/11 06:55:31  5-MIN KMSN 071255Z 21005KT 6SM HZ CLR 26/21 A2983 950 73 2500 220/05 RMK AO2
14837KMSN MSN20110607070009506/07/11 07:00:31  5-MIN KMSN 071300Z 22005KT 6SM HZ CLR 26/21 A2983 950 71 2500 220/05 RMK AO2
14837KMSN MSN20110607070509506/07/11 07:05:31  5-MIN KMSN 071305Z VRB04KT 6SM HZ CLR 26/21 A2983 950 73 2500 VRB/04 RMK AO2
14837KMSN MSN20110607071009506/07/11 07:10:31  5-MIN KMSN 071310Z 22005KT 6SM HZ CLR 26/21 A2983 950 73 2500 220/05 RMK AO2
14837KMSN MSN20110607071509506/07/11 07:15:31  5-MIN KMSN 071315Z 21004KT 6SM HZ CLR 27/21 A2983 950 71 2500 210/04 RMK AO2
14837KMSN MSN20110607072009506/07/11 07:20:31  5-MIN KMSN 071320Z 21005KT 6SM HZ CLR 27/21 A2983 950 71 2500 210/05 RMK AO2
14837KMSN MSN20110607072509506/07/11 07:25:31  5-MIN KMSN 071325Z VRB04KT 6SM HZ CLR 27/21 A2983 950 71 2500 VRB/04 RMK AO2
14837KMSN MSN20110607073009506/07/11 07:30:31  5-MIN KMSN 071330Z 20004KT 6SM HZ CLR 27/21 A2983 950 71 2500 200/04 RMK AO2
14837KMSN MSN20110607073509506/07/11 07:35:31  5-MIN KMSN 071335Z 00000KT 6SM HZ CLR 27/22 A2983 950 71 2600 000/00 RMK AO2
14837KMSN MSN20110607074009506/07/11 07:40:31  5-MIN KMSN 071340Z VRB03KT 6SM HZ CLR 27/21 A2983 950 69 2600 VRB/03 RMK AO2
14837KMSN MSN20110607074509506/07/11 07:45:31  5-MIN KMSN 071345Z 21004KT 6SM HZ CLR 27/21 A2983 950 69 2600 210/04 RMK AO2
14837KMSN MSN20110607075011206/07/11 07:50:31  5-MIN KMSN 071350Z 00000KT 6SM HZ CLR 28/22 A2983 950 69 2700 000/00 RMK AO2 SLP094 T02780217
14837KMSN MSN20110607075509506/07/11 07:55:31  5-MIN KMSN 071355Z 24004KT 6SM HZ CLR 28/21 A2983 950 66 2700 240/04 RMK AO2
14837KMSN MSN20110607080009506/07/11 08:00:31  5-MIN KMSN 071400Z 24006KT 6SM HZ CLR 28/21 A2983 950 66 2700 240/06 RMK AO2
14837KMSN MSN20110607080509506/07/11 08:05:31  5-MIN KMSN 071405Z VRB03KT 6SM HZ CLR 28/21 A2983 950 64 2700 VRB/03 RMK AO2
14837KMSN MSN20110607081009506/07/11 08:10:31  5-MIN KMSN 071410Z 24005KT 6SM HZ CLR 28/21 A2983 950 66 2700 240/05 RMK AO2
14837KMSN MSN20110607081509506/07/11 08:15:31  5-MIN KMSN 071415Z 23005KT 6SM HZ CLR 28/21 A2983 950 64 2700 240/05 RMK AO2
14837KMSN MSN20110607082009506/07/11 08:20:31  5-MIN KMSN 071420Z 24006KT 6SM HZ CLR 28/21 A2983 950 62 2700 240/06 RMK AO2
14837KMSN MSN20110607082509506/07/11 08:25:31  5-MIN KMSN 071425Z VRB05KT 6SM HZ CLR 28/21 A2983 950 64 2700 VRB/05 RMK AO2
14837KMSN MSN20110607083009506/07/11 08:30:31  5-MIN KMSN 071430Z 22006KT 6SM HZ CLR 28/21 A2982 950 62 2700 230/06 RMK AO2
14837KMSN MSN20110607083509506/07/11 08:35:31  5-MIN KMSN 071435Z VRB05KT 6SM HZ CLR 28/21 A2982 960 62 2700 VRB/05 RMK AO2
14837KMSN MSN20110607084009506/07/11 08:40:31  5-MIN KMSN 071440Z 22006KT 6SM HZ CLR 29/21 A2982 960 60 2800 220/06 RMK AO2
14837KMSN MSN20110607084509506/07/11 08:45:31  5-MIN KMSN 071445Z 23007KT 6SM HZ CLR 28/21 A2982 960 62 2700 230/07 RMK AO2
14837KMSN MSN20110607085011506/07/11 08:50:31  5-MIN KMSN 071450Z 24007KT 7SM CLR 29/21 A2982 960 60 2800 240/07 RMK AO2 SLP090 T02890206 53009
14837KMSN MSN20110607085509206/07/11 08:55:31  5-MIN KMSN 071455Z VRB06KT 7SM CLR 29/21 A2982 960 60 2800 VRB/06 RMK AO2
14837KMSN MSN20110607090009206/07/11 09:00:31  5-MIN KMSN 071500Z 23006KT 7SM CLR 29/21 A2982 960 60 2800 240/06 RMK AO2
14837KMSN MSN20110607090509206/07/11 09:05:31  5-MIN KMSN 071505Z 23005KT 7SM CLR 29/21 A2982 960 60 2800 230/05 RMK AO2
14837KMSN MSN20110607091009206/07/11 09:10:31  5-MIN KMSN 071510Z 24006KT 7SM CLR 29/21 A2982 960 58 2900 240/06 RMK AO2
14837KMSN MSN20110607091509206/07/11 09:15:31  5-MIN KMSN 071515Z VRB05KT 7SM CLR 29/21 A2982 960 58 2900 VRB/05 RMK AO2
14837KMSN MSN20110607092010806/07/11 09:20:31  5-MIN KMSN 071520Z 23007KT 190V260 7SM CLR 29/21 A2981 960 58 2900 230/07 190V260 RMK AO2
14837KMSN MSN20110607092509206/07/11 09:25:31  5-MIN KMSN 071525Z 23005KT 7SM CLR 30/21 A2981 960 56 2900 230/05 RMK AO2
14837KMSN MSN20110607093009206/07/11 09:30:31  5-MIN KMSN 071530Z 22007KT 7SM CLR 30/21 A2981 960 56 2900 220/07 RMK AO2
14837KMSN MSN20110607093509206/07/11 09:35:31  5-MIN KMSN 071535Z 23008KT 7SM CLR 30/20 A2981 970 54 2900 230/08 RMK AO2
14837KMSN MSN20110607094009206/07/11 09:40:31  5-MIN KMSN 071540Z 22006KT 7SM CLR 30/21 A2981 970 56 2900 220/06 RMK AO2
14837KMSN MSN20110607094509206/07/11 09:45:31  5-MIN KMSN 071545Z 23005KT 7SM CLR 31/21 A2981 970 54 3000 240/05 RMK AO2
14837KMSN MSN20110607095010906/07/11 09:50:31  5-MIN KMSN 071550Z 23005KT 7SM CLR 31/21 A2981 970 54 3000 230/05 RMK AO2 SLP085 T03060206
14837KMSN MSN20110607095509206/07/11 09:55:31  5-MIN KMSN 071555Z 23005KT 7SM CLR 31/20 A2981 970 52 3000 230/05 RMK AO2
14837KMSN MSN20110607100009206/07/11 10:00:31  5-MIN KMSN 071600Z 23007KT 7SM CLR 31/21 A2980 970 53 3100 230/07 RMK AO2
14837KMSN MSN20110607100509206/07/11 10:05:31  5-MIN KMSN 071605Z 22008KT 7SM CLR 31/21 A2980 970 53 3100 230/08 RMK AO2
14837KMSN MSN20110607101009206/07/11 10:10:31  5-MIN KMSN 071610Z 22006KT 7SM CLR 31/21 A2980 970 53 3100 230/06 RMK AO2
14837KMSN MSN20110607101509206/07/11 10:15:31  5-MIN KMSN 071615Z 21006KT 7SM CLR 32/20 A2980 970 49 3100 210/06 RMK AO2
14837KMSN MSN20110607102009206/07/11 10:20:31  5-MIN KMSN 071620Z 20005KT 7SM CLR 32/21 A2980 980 51 3100 200/05 RMK AO2
14837KMSN MSN20110607102509206/07/11 10:25:31  5-MIN KMSN 071625Z VRB05KT 7SM CLR 32/21 A2980 980 49 3200 VRB/05 RMK AO2
14837KMSN MSN20110607103009206/07/11 10:30:31  5-MIN KMSN 071630Z 20007KT 7SM CLR 32/20 A2980 980 49 3100 200/07 RMK AO2
14837KMSN MSN20110607103509206/07/11 10:35:31  5-MIN KMSN 071635Z 20006KT 7SM CLR 32/20 A2979 980 48 3200 200/06 RMK AO2
14837KMSN MSN20110607104010806/07/11 10:40:31  5-MIN KMSN 071640Z 24009KT 200V260 7SM CLR 32/20 A2979 980 48 3200 240/09 200V260 RMK AO2
14837KMSN MSN20110607104509806/07/11 10:45:31  5-MIN KMSN 071645Z 20006G14KT 8SM CLR 32/20 A2979 980 48 3200 200/06G14 RMK AO2
14837KMSN MSN20110607105010906/07/11 10:50:31  5-MIN KMSN 071650Z 20006KT 8SM CLR 32/20 A2979 990 48 3200 210/06 RMK AO2 SLP079 T03220200
14837KMSN MSN20110607105509206/07/11 10:55:31  5-MIN KMSN 071655Z 21008KT 8SM CLR 32/20 A2979 980 48 3200 220/08 RMK AO2
14837KMSN MSN20110607110009206/07/11 11:00:31  5-MIN KMSN 071700Z 21009KT 8SM CLR 33/20 A2979 980 46 3300 210/09 RMK AO2
14837KMSN MSN20110607110509206/07/11 11:05:31  5-MIN KMSN 071705Z 20008KT 8SM CLR 33/20 A2979 990 46 3300 200/08 RMK AO2
14837KMSN MSN20110607111009206/07/11 11:10:31  5-MIN KMSN 071710Z 20009KT 8SM CLR 33/20 A2979 990 46 3300 200/09 RMK AO2
14837KMSN MSN20110607111509206/07/11 11:15:31  5-MIN KMSN 071715Z 20008KT 8SM CLR 33/20 A2979 990 46 3300 210/08 RMK AO2
14837KMSN MSN20110607112009206/07/11 11:20:31  5-MIN KMSN 071720Z 22007KT 8SM CLR 33/19 A2979 990 44 3300 230/07 RMK AO2
14837KMSN MSN20110607112509206/07/11 11:25:31  5-MIN KMSN 071725Z 21007KT 8SM CLR 33/20 A2979 990 45 3300 210/07 RMK AO2
14837KMSN MSN20110607113009206/07/11 11:30:31  5-MIN KMSN 071730Z 20008KT 8SM CLR 33/20 A2979 990 45 3300 200/08 RMK AO2
14837KMSN MSN20110607113509206/07/11 11:35:31  5-MIN KMSN 071735Z 22008KT 8SM CLR 33/19 A2978 990 43 3300 220/08 RMK AO2
14837KMSN MSN20110607114009206/07/11 11:40:31  5-MIN KMSN 071740Z 19009KT 8SM CLR 33/19 A2978 990 43 3300 190/09 RMK AO2
14837KMSN MSN20110607114509206/07/11 11:45:31  5-MIN KMSN 071745Z 21008KT 8SM CLR 33/20 A2978 990 45 3300 210/08 RMK AO2
14837KMSN MSN20110607115014906/07/11 11:50:31  5-MIN KMSN 071750Z 22008G14KT 180V240 8SM CLR 33/19 A2978 990 43 3300 220/08G14 180V240 RMK AO2 SLP077 T03330194 10333 20250 58003
14837KMSN MSN20110607115509206/07/11 11:55:31  5-MIN KMSN 071755Z 23007KT 8SM CLR 33/19 A2978 990 43 3300 230/07 RMK AO2
14837KMSN MSN20110607120009806/07/11 12:00:31  5-MIN KMSN 071800Z 22008G15KT 8SM CLR 33/19 A2978 990 43 3300 220/08G15 RMK AO2
14837KMSN MSN20110607120509906/07/11 12:05:31  5-MIN KMSN 071805Z 21006G15KT 8SM CLR 34/20 A2978 1000 43 3400 210/06G15 RMK AO2
14837KMSN MSN20110607121009306/07/11 12:10:31  5-MIN KMSN 071810Z 21007KT 8SM CLR 34/20 A2978 1000 43 3400 210/07 RMK AO2
14837KMSN MSN20110607121509306/07/11 12:15:31  5-MIN KMSN 071815Z 21008KT 8SM CLR 34/19 A2978 1000 42 3400 220/08 RMK AO2
14837KMSN MSN20110607122010906/07/11 12:20:31  5-MIN KMSN 071820Z 22009KT 190V250 8SM CLR 34/20 A2978 1000 43 3400 230/09 190V250 RMK AO2
14837KMSN MSN20110607122509906/07/11 12:25:31  5-MIN KMSN 071825Z 23011G16KT 8SM CLR 34/19 A2978 1000 42 3400 230/11G16 RMK AO2
14837KMSN MSN20110607123009306/07/11 12:30:31  5-MIN KMSN 071830Z 22007KT 8SM CLR 34/19 A2977 1000 42 3400 230/07 RMK AO2
14837KMSN MSN20110607123510906/07/11 12:35:31  5-MIN KMSN 071835Z 21007KT 170V230 8SM CLR 34/19 A2977 1000 42 3400 210/07 170V230 RMK AO2
14837KMSN MSN20110607124009906/07/11 12:40:31  5-MIN KMSN 071840Z 22009G16KT 8SM CLR 34/19 A2977 1000 42 3400 220/09G16 RMK AO2
14837KMSN MSN20110607124509906/07/11 12:45:31  5-MIN KMSN 071845Z 21012G16KT 8SM CLR 34/19 A2977 1000 42 3400 210/12G16 RMK AO2
14837KMSN MSN20110607125011606/07/11 12:50:31  5-MIN KMSN 071850Z 20011G16KT 8SM CLR 34/20 A2977 1000 42 3500 200/11G16 RMK AO2 SLP072 T03440200
14837KMSN MSN20110607125509906/07/11 12:55:31  5-MIN KMSN 071855Z 19011G17KT 8SM CLR 34/20 A2977 1010 42 3500 200/11G17 RMK AO2
14837KMSN MSN20110607130009906/07/11 13:00:31  5-MIN KMSN 071900Z 21008G17KT 8SM CLR 35/20 A2977 1010 40 3500 210/08G17 RMK AO2
14837KMSN MSN20110607130509306/07/11 13:05:31  5-MIN KMSN 071905Z 22009KT 8SM CLR 34/19 A2977 1010 40 3500 230/09 RMK AO2
14837KMSN MSN20110607131009306/07/11 13:10:31  5-MIN KMSN 071910Z 22008KT 8SM CLR 34/19 A2977 1010 40 3500 220/08 RMK AO2
14837KMSN MSN20110607131509906/07/11 13:15:31  5-MIN KMSN 071915Z 23013G16KT 8SM CLR 34/19 A2976 1010 39 3500 230/13G16 RMK AO2
14837KMSN MSN20110607132009906/07/11 13:20:31  5-MIN KMSN 071920Z 18016G22KT 9SM CLR 34/18 A2976 1010 38 3500 190/16G22 RMK AO2
14837KMSN MSN20110607132509906/07/11 13:25:31  5-MIN KMSN 071925Z 20010G22KT 9SM CLR 35/18 A2976 1010 36 3500 200/10G22 RMK AO2
14837KMSN MSN20110607133009906/07/11 13:30:31  5-MIN KMSN 071930Z 23010G15KT 9SM CLR 35/19 A2976 1010 38 3500 230/10G15 RMK AO2
14837KMSN MSN20110607133509906/07/11 13:35:31  5-MIN KMSN 071935Z 23010G15KT 9SM CLR 34/18 A2976 1010 38 3500 230/10G15 RMK AO2
14837KMSN MSN20110607134009306/07/11 13:40:31  5-MIN KMSN 071940Z 23010KT 9SM CLR 34/18 A2976 1010 38 3500 230/10 RMK AO2
14837KMSN MSN20110607134509906/07/11 13:45:31  5-MIN KMSN 071945Z 20012G18KT 9SM CLR 34/18 A2975 1020 36 3500 200/12G18 RMK AO2
14837KMSN MSN20110607135011606/07/11 13:50:31  5-MIN KMSN 071950Z 19015G21KT 9SM CLR 35/17 A2975 1020 34 3500 190/15G21 RMK AO2 SLP067 T03500172
14837KMSN MSN20110607135510206/07/11 13:55:31  5-MIN KMSN 071955Z 21011G21KT 9SM FEW065 35/17 A2975 1020 34 3600 210/11G21 RMK AO2
14837KMSN MSN20110607140011906/07/11 14:00:31  5-MIN KMSN 072000Z 22009G18KT 190V250 10SM FEW065 35/17 A2975 1020 34 3600 220/09G18 190V250 RMK AO2
14837KMSN MSN20110607140510306/07/11 14:05:31  5-MIN KMSN 072005Z 20014G21KT 10SM FEW065 35/17 A2975 1020 33 3600 210/14G21 RMK AO2
14837KMSN MSN20110607141010306/07/11 14:10:31  5-MIN KMSN 072010Z 20014G21KT 10SM FEW065 35/16 A2975 1020 30 3600 200/14G21 RMK AO2
14837KMSN MSN20110607141510006/07/11 14:15:31  5-MIN KMSN 072015Z 23007G20KT 10SM CLR 36/16 A2975 1020 31 3600 230/07G20 RMK AO2
14837KMSN MSN20110607142010006/07/11 14:20:31  5-MIN KMSN 072020Z 22009G16KT 10SM CLR 35/16 A2975 1020 32 3600 220/09G16 RMK AO2
14837KMSN MSN20110607142511606/07/11 14:25:31  5-MIN KMSN 072025Z 22009G14KT 190V260 10SM CLR 35/16 A2975 1030 30 3600 220/09G14 190V260 RMK AO2
14837KMSN MSN20110607143011606/07/11 14:30:31  5-MIN KMSN 072030Z 22013G17KT 180V250 10SM CLR 35/16 A2975 1030 30 3600 220/13G17 180V250 RMK AO2
14837KMSN MSN20110607143510006/07/11 14:35:31  5-MIN KMSN 072035Z 21012G22KT 10SM CLR 35/16 A2974 1030 30 3600 210/12G22 RMK AO2
14837KMSN MSN20110607144010006/07/11 14:40:31  5-MIN KMSN 072040Z 22012G22KT 10SM CLR 35/14 A2974 1030 28 3600 230/12G22 RMK AO2
14837KMSN MSN20110607144510006/07/11 14:45:31  5-MIN KMSN 072045Z 21009G19KT 10SM CLR 35/14 A2974 1030 28 3600 210/09G19 RMK AO2
14837KMSN MSN20110607145012306/07/11 14:50:31  5-MIN KMSN 072050Z 21009G18KT 10SM CLR 35/15 A2974 1030 29 3600 220/09G18 RMK AO2 SLP063 T03500150 56012
14837KMSN MSN20110607145510006/07/11 14:55:31  5-MIN KMSN 072055Z 22009G18KT 10SM CLR 35/15 A2974 1030 29 3600 230/09G18 RMK AO2
14837KMSN MSN20110607150010006/07/11 15:00:31  5-MIN KMSN 072100Z 23008G17KT 10SM CLR 35/15 A2974 1030 29 3600 230/08G17 RMK AO2
14837KMSN MSN20110607150511606/07/11 15:05:31  5-MIN KMSN 072105Z 23009G17KT 200V270 10SM CLR 35/16 A2974 1030 30 3600 230/09G17 200V270 RMK AO2
14837KMSN MSN20110607151010006/07/11 15:10:31  5-MIN KMSN 072110Z 22010G18KT 10SM CLR 35/16 A2974 1030 30 3600 220/10G18 RMK AO2
14837KMSN MSN20110607151509906/07/11 15:15:31  5-MIN KMSN 072115Z 22010G18KT 9SM CLR 35/16 A2974 1030 32 3600 220/10G18 RMK AO2
14837KMSN MSN20110607152010006/07/11 15:20:31  5-MIN KMSN 072120Z 22008G15KT 10SM CLR 35/16 A2974 1030 32 3600 220/08G15 RMK AO2
14837KMSN MSN20110607152510006/07/11 15:25:31  5-MIN KMSN 072125Z 20010G17KT 10SM CLR 35/16 A2974 1030 32 3600 200/10G17 RMK AO2
14837KMSN MSN20110607153010006/07/11 15:30:31  5-MIN KMSN 072130Z 21011G17KT 10SM CLR 35/15 A2974 1030 29 3600 210/11G17 RMK AO2
14837KMSN MSN20110607153510006/07/11 15:35:31  5-MIN KMSN 072135Z 22012G19KT 10SM CLR 35/15 A2974 1030 29 3600 220/12G19 RMK AO2
14837KMSN MSN20110607154010006/07/11 15:40:31  5-MIN KMSN 072140Z 20013G20KT 10SM CLR 35/15 A2974 1030 29 3600 200/13G20 RMK AO2
14837KMSN MSN20110607154510006/07/11 15:45:31  5-MIN KMSN 072145Z 21012G20KT 10SM CLR 35/14 A2974 1030 28 3600 220/12G20 RMK AO2
14837KMSN MSN20110607155011706/07/11 15:50:31  5-MIN KMSN 072150Z 22012G24KT 10SM CLR 34/14 A2974 1030 29 3500 220/12G24 RMK AO2 SLP062 T03440144
14837KMSN MSN20110607155510006/07/11 15:55:31  5-MIN KMSN 072155Z 22012G24KT 10SM CLR 34/14 A2974 1030 29 3500 220/12G24 RMK AO2
14837KMSN MSN20110607160010006/07/11 16:00:31  5-MIN KMSN 072200Z 22011G17KT 10SM CLR 34/14 A2974 1030 28 3500 220/11G17 RMK AO2
14837KMSN MSN20110607160510006/07/11 16:05:31  5-MIN KMSN 072205Z 22012G20KT 10SM CLR 34/14 A2974 1040 28 3500 220/12G20 RMK AO2
14837KMSN MSN20110607161010006/07/11 16:10:31  5-MIN KMSN 072210Z 22011G20KT 10SM CLR 34/14 A2973 1040 29 3500 220/11G20 RMK AO2
14837KMSN MSN20110607161510006/07/11 16:15:31  5-MIN KMSN 072215Z 21013G18KT 10SM CLR 34/14 A2973 1040 29 3500 210/13G18 RMK AO2
14837KMSN MSN20110607162010006/07/11 16:20:31  5-MIN KMSN 072220Z 20014G19KT 10SM CLR 34/14 A2973 1040 28 3500 200/14G19 RMK AO2
14837KMSN MSN20110607162511606/07/11 16:25:31  5-MIN KMSN 072225Z 22011G19KT 170V240 10SM CLR 34/14 A2973 1040 29 3500 230/11G19 170V240 RMK AO2
14837KMSN MSN20110607163010006/07/11 16:30:31  5-MIN KMSN 072230Z 20008G18KT 10SM CLR 34/14 A2973 1040 28 3500 210/08G18 RMK AO2
14837KMSN MSN20110607163510006/07/11 16:35:31  5-MIN KMSN 072235Z 21011G19KT 10SM CLR 34/14 A2973 1040 29 3500 210/11G19 RMK AO2
14837KMSN MSN20110607164010006/07/11 16:40:31  5-MIN KMSN 072240Z 21011G19KT 10SM CLR 34/14 A2973 1050 29 3500 210/11G19 RMK AO2
14837KMSN MSN20110607164510006/07/11 16:45:31  5-MIN KMSN 072245Z 21011G19KT 10SM CLR 34/15 A2973 1040 30 3500 210/11G19 RMK AO2
14837KMSN MSN20110607165011706/07/11 16:50:31  5-MIN KMSN 072250Z 21006G19KT 10SM CLR 34/16 A2972 1050 31 3500 210/06G19 RMK AO2 SLP057 T03440156
14837KMSN MSN20110607165510006/07/11 16:55:31  5-MIN KMSN 072255Z 22009G16KT 10SM CLR 34/16 A2973 1050 31 3500 220/09G16 RMK AO2
14837KMSN MSN20110607170010006/07/11 17:00:31  5-MIN KMSN 072300Z 20013G20KT 10SM CLR 34/16 A2972 1050 32 3500 200/13G20 RMK AO2
14837KMSN MSN20110607170510006/07/11 17:05:31  5-MIN KMSN 072305Z 19015G22KT 10SM CLR 34/16 A2972 1050 32 3500 190/15G22 RMK AO2
14837KMSN MSN20110607171010006/07/11 17:10:31  5-MIN KMSN 072310Z 20007G22KT 10SM CLR 34/16 A2972 1050 32 3500 200/07G22 RMK AO2
14837KMSN MSN20110607171510006/07/11 17:15:31  5-MIN KMSN 072315Z 20012G19KT 10SM CLR 34/16 A2972 1050 32 3500 210/12G19 RMK AO2
14837KMSN MSN20110607172011606/07/11 17:20:31  5-MIN KMSN 072320Z 20010G19KT 180V250 10SM CLR 34/16 A2972 1050 32 3500 200/10G19 180V250 RMK AO2
14837KMSN MSN20110607172510006/07/11 17:25:31  5-MIN KMSN 072325Z 20013G21KT 10SM CLR 34/16 A2973 1050 32 3500 200/13G21 RMK AO2
14837KMSN MSN20110607173010006/07/11 17:30:31  5-MIN KMSN 072330Z 20011G21KT 10SM CLR 34/15 A2972 1050 31 3500 210/11G21 RMK AO2
14837KMSN MSN20110607173510006/07/11 17:35:31  5-MIN KMSN 072335Z 20009G18KT 10SM CLR 33/16 A2972 1050 33 3400 210/09G18 RMK AO2
14837KMSN MSN20110607174010006/07/11 17:40:31  5-MIN KMSN 072340Z 21012G19KT 10SM CLR 33/16 A2973 1040 33 3400 210/12G19 RMK AO2
14837KMSN MSN20110607174510006/07/11 17:45:31  5-MIN KMSN 072345Z 19010G19KT 10SM CLR 33/15 A2973 1040 32 3400 190/10G19 RMK AO2
14837KMSN MSN20110607175013506/07/11 17:50:31  5-MIN KMSN 072350Z 21010G20KT 10SM CLR 33/15 A2973 1040 32 3400 210/10G20 RMK AO2 SLP059 T03330150 10356 20333 56013
14837KMSN MSN20110607175510006/07/11 17:55:31  5-MIN KMSN 072355Z 20012G21KT 10SM CLR 33/15 A2973 1040 32 3400 210/12G21 RMK AO2
14837KMSN MSN20110607180010006/07/11 18:00:31  5-MIN KMSN 080000Z 20010G21KT 10SM CLR 33/15 A2973 1040 32 3400 200/10G21 RMK AO2
14837KMSN MSN20110607180511606/07/11 18:05:31  5-MIN KMSN 080005Z 20007G16KT 180V240 10SM CLR 33/15 A2973 1040 33 3300 210/07G16 180V240 RMK AO2
14837KMSN MSN20110607181010006/07/11 18:10:31  5-MIN KMSN 080010Z 19011G16KT 10SM CLR 33/15 A2973 1040 33 3300 200/11G16 RMK AO2
14837KMSN MSN20110607181510006/07/11 18:15:31  5-MIN KMSN 080015Z 20011G16KT 10SM CLR 33/14 A2973 1040 32 3300 200/11G16 RMK AO2
14837KMSN MSN20110607182010006/07/11 18:20:31  5-MIN KMSN 080020Z 20009G16KT 10SM CLR 33/14 A2973 1040 32 3300 200/09G16 RMK AO2
14837KMSN MSN20110607182510006/07/11 18:25:31  5-MIN KMSN 080025Z 19010G16KT 10SM CLR 33/15 A2973 1040 33 3300 200/10G16 RMK AO2
14837KMSN MSN20110607183009406/07/11 18:30:31  5-MIN KMSN 080030Z 19008KT 10SM CLR 32/15 A2973 1040 34 3300 190/08 RMK AO2
14837KMSN MSN20110607183509406/07/11 18:35:31  5-MIN KMSN 080035Z 20007KT 10SM CLR 32/15 A2973 1040 34 3300 200/07 RMK AO2
14837KMSN MSN20110607184010006/07/11 18:40:31  5-MIN KMSN 080040Z 20010G17KT 10SM CLR 32/15 A2973 1040 34 3300 200/10G17 RMK AO2
14837KMSN MSN20110607184510006/07/11 18:45:31  5-MIN KMSN 080045Z 20010G18KT 10SM CLR 32/15 A2973 1040 34 3300 200/10G18 RMK AO2
14837KMSN MSN20110607185011706/07/11 18:50:31  5-MIN KMSN 080050Z 19008G18KT 10SM CLR 32/15 A2973 1040 34 3300 200/08G18 RMK AO2 SLP059 T03220150
14837KMSN MSN20110607185510006/07/11 18:55:31  5-MIN KMSN 080055Z 20010G16KT 10SM CLR 32/15 A2973 1040 34 3300 210/10G16 RMK AO2
14837KMSN MSN20110607190010006/07/11 19:00:31  5-MIN KMSN 080100Z 19008G16KT 10SM CLR 32/16 A2973 1040 37 3200 190/08G16 RMK AO2
14837KMSN MSN20110607190509406/07/11 19:05:31  5-MIN KMSN 080105Z 19010KT 10SM CLR 32/16 A2973 1040 37 3200 190/10 RMK AO2
14837KMSN MSN20110607191009406/07/11 19:10:31  5-MIN KMSN 080110Z 19010KT 10SM CLR 31/16 A2973 1040 38 3100 200/10 RMK AO2
14837KMSN MSN20110607191510006/07/11 19:15:31  5-MIN KMSN 080115Z 19011G19KT 10SM CLR 32/16 A2973 1040 37 3200 190/11G19 RMK AO2
14837KMSN MSN20110607192010006/07/11 19:20:31  5-MIN KMSN 080120Z 19010G19KT 10SM CLR 32/16 A2973 1040 37 3200 200/10G19 RMK AO2
14837KMSN MSN20110607192509406/07/11 19:25:31  5-MIN KMSN 080125Z 19011KT 10SM CLR 31/16 A2973 1040 40 3100 190/11 RMK AO2
14837KMSN MSN20110607193009406/07/11 19:30:31  5-MIN KMSN 080130Z 19009KT 10SM CLR 31/16 A2973 1040 40 3100 190/09 RMK AO2
14837KMSN MSN20110607193510006/07/11 19:35:31  5-MIN KMSN 080135Z 19010G17KT 10SM CLR 31/16 A2973 1040 41 3100 190/10G17 RMK AO2
14837KMSN MSN20110607194010006/07/11 19:40:31  5-MIN KMSN 080140Z 19011G17KT 10SM CLR 31/16 A2973 1040 41 3100 200/11G17 RMK AO2
14837KMSN MSN20110607194509406/07/11 19:45:31  5-MIN KMSN 080145Z 19012KT 10SM CLR 31/16 A2973 1040 39 3100 190/12 RMK AO2
14837KMSN MSN20110607195011106/07/11 19:50:31  5-MIN KMSN 080150Z 20011KT 10SM CLR 31/16 A2973 1040 39 3100 200/11 RMK AO2 SLP060 T03060156
14837KMSN MSN20110607195510006/07/11 19:55:31  5-MIN KMSN 080155Z 19010G16KT 10SM CLR 31/16 A2973 1040 39 3100 190/10G16 RMK AO2
14837KMSN MSN20110607200009406/07/11 20:00:31  5-MIN KMSN 080200Z 19011KT 10SM CLR 31/16 A2973 1040 41 3100 190/11 RMK AO2
14837KMSN MSN20110607200510006/07/11 20:05:31  5-MIN KMSN 080205Z 19011G17KT 10SM CLR 30/16 A2973 1040 42 3000 190/11G17 RMK AO2
14837KMSN MSN20110607201009406/07/11 20:10:31  5-MIN KMSN 080210Z 19010KT 10SM CLR 30/16 A2974 1030 42 3000 190/10 RMK AO2
14837KMSN MSN20110607201509406/07/11 20:15:31  5-MIN KMSN 080215Z 19011KT 10SM CLR 30/16 A2974 1040 42 3000 190/11 RMK AO2
14837KMSN MSN20110607202009406/07/11 20:20:31  5-MIN KMSN 080220Z 19009KT 10SM CLR 30/16 A2974 1030 42 3000 190/09 RMK AO2
14837KMSN MSN20110607202509406/07/11 20:25:31  5-MIN KMSN 080225Z 19010KT 10SM CLR 29/16 A2974 1030 44 3000 190/10 RMK AO2
14837KMSN MSN20110607203009406/07/11 20:30:31  5-MIN KMSN 080230Z 19009KT 10SM CLR 29/16 A2974 1030 44 3000 190/09 RMK AO2
14837KMSN MSN20110607203509406/07/11 20:35:31  5-MIN KMSN 080235Z 19010KT 10SM CLR 29/16 A2974 1030 44 3000 190/10 RMK AO2
14837KMSN MSN20110607204009406/07/11 20:40:31  5-MIN KMSN 080240Z 19009KT 10SM CLR 29/16 A2974 1030 44 3000 200/09 RMK AO2
14837KMSN MSN20110607204509406/07/11 20:45:31  5-MIN KMSN 080245Z 20011KT 10SM CLR 29/17 A2974 1030 45 3000 200/11 RMK AO2
14837KMSN MSN20110607205011706/07/11 20:50:31  5-MIN KMSN 080250Z 19008KT 10SM CLR 29/17 A2974 1030 45 3000 200/08 RMK AO2 SLP064 T02940167 55004
14837KMSN MSN20110607205510006/07/11 20:55:31  5-MIN KMSN 080255Z 19008G16KT 10SM CLR 29/17 A2975 1030 45 2900 190/08G16 RMK AO2
14837KMSN MSN20110607210010006/07/11 21:00:31  5-MIN KMSN 080300Z 19008G16KT 10SM CLR 29/17 A2975 1020 47 2900 190/08G16 RMK AO2
14837KMSN MSN20110607210509406/07/11 21:05:31  5-MIN KMSN 080305Z 19009KT 10SM CLR 29/17 A2975 1020 47 2900 190/09 RMK AO2
14837KMSN MSN20110607211009406/07/11 21:10:31  5-MIN KMSN 080310Z 19010KT 10SM CLR 29/17 A2975 1020 48 2900 190/10 RMK AO2
14837KMSN MSN20110607211509406/07/11 21:15:31  5-MIN KMSN 080315Z 19010KT 10SM CLR 29/17 A2975 1020 48 2900 190/10 RMK AO2
14837KMSN MSN20110607212010006/07/11 21:20:31  5-MIN KMSN 080320Z 19009G16KT 10SM CLR 29/17 A2975 1020 47 2900 200/09G16 RMK AO2
14837KMSN MSN20110607212510006/07/11 21:25:31  5-MIN KMSN 080325Z 19011G19KT 10SM CLR 29/17 A2975 1030 47 2900 190/11G19 RMK AO2
14837KMSN MSN20110607213010006/07/11 21:30:31  5-MIN KMSN 080330Z 20012G19KT 10SM CLR 29/17 A2975 1030 47 2900 200/12G19 RMK AO2
14837KMSN MSN20110607213510006/07/11 21:35:31  5-MIN KMSN 080335Z 20008G19KT 10SM CLR 29/17 A2975 1020 45 2900 200/08G19 RMK AO2
14837KMSN MSN20110607214010006/07/11 21:40:31  5-MIN KMSN 080340Z 20009G19KT 10SM CLR 29/17 A2975 1020 47 2900 200/09G19 RMK AO2
14837KMSN MSN20110607214510006/07/11 21:45:31  5-MIN KMSN 080345Z 20011G18KT 10SM CLR 29/17 A2975 1030 47 2900 200/11G18 RMK AO2
14837KMSN MSN20110607215011706/07/11 21:50:31  5-MIN KMSN 080350Z 20010G19KT 10SM CLR 29/16 A2975 1020 44 2900 200/10G19 RMK AO2 SLP065 T02940161
14837KMSN MSN20110607215511606/07/11 21:55:31  5-MIN KMSN 080355Z 20009G23KT 180V240 10SM CLR 29/16 A2975 1020 44 2900 200/09G23 180V240 RMK AO2
14837KMSN MSN20110607220010006/07/11 22:00:31  5-MIN KMSN 080400Z 20010G23KT 10SM CLR 29/16 A2975 1020 45 2900 200/10G23 RMK AO2
14837KMSN MSN20110607220510006/07/11 22:05:31  5-MIN KMSN 080405Z 20007G17KT 10SM CLR 29/16 A2975 1020 45 2900 200/07G17 RMK AO2
14837KMSN MSN20110607221010006/07/11 22:10:31  5-MIN KMSN 080410Z 19007G17KT 10SM CLR 29/16 A2975 1020 45 2900 190/07G17 RMK AO2
14837KMSN MSN20110607221510006/07/11 22:15:31  5-MIN KMSN 080415Z 19008G16KT 10SM CLR 29/16 A2975 1020 45 2900 190/08G16 RMK AO2
14837KMSN MSN20110607222010006/07/11 22:20:31  5-MIN KMSN 080420Z 20008G16KT 10SM CLR 28/16 A2975 1020 47 2800 200/08G16 RMK AO2
14837KMSN MSN20110607222510006/07/11 22:25:31  5-MIN KMSN 080425Z 20010G17KT 10SM CLR 28/16 A2975 1020 47 2800 200/10G17 RMK AO2
14837KMSN MSN20110607223010006/07/11 22:30:31  5-MIN KMSN 080430Z 20009G17KT 10SM CLR 29/16 A2975 1020 45 2900 200/09G17 RMK AO2
14837KMSN MSN20110607223509406/07/11 22:35:31  5-MIN KMSN 080435Z 20008KT 10SM CLR 28/17 A2975 1020 48 2800 200/08 RMK AO2
14837KMSN MSN20110607224009406/07/11 22:40:31  5-MIN KMSN 080440Z 19010KT 10SM CLR 28/17 A2975 1020 48 2800 190/10 RMK AO2
14837KMSN MSN20110607224509406/07/11 22:45:31  5-MIN KMSN 080445Z 19009KT 10SM CLR 28/17 A2975 1020 48 2800 190/09 RMK AO2
14837KMSN MSN20110607225011106/07/11 22:50:31  5-MIN KMSN 080450Z 19010KT 10SM CLR 28/17 A2975 1020 50 2800 190/10 RMK AO2 SLP066 T02780167
14837KMSN MSN20110607225510006/07/11 22:55:31  5-MIN KMSN 080455Z 19010G17KT 10SM CLR 28/17 A2975 1020 48 2800 190/10G17 RMK AO2
14837KMSN MSN20110607230010006/07/11 23:00:31  5-MIN KMSN 080500Z 19008G17KT 10SM CLR 28/17 A2975 1020 48 2800 200/08G17 RMK AO2
14837KMSN MSN20110607230510006/07/11 23:05:31  5-MIN KMSN 080505Z 20008G16KT 10SM CLR 28/17 A2975 1020 50 2800 200/08G16 RMK AO2
14837KMSN MSN20110607231010006/07/11 23:10:31  5-MIN KMSN 080510Z 20007G16KT 10SM CLR 28/17 A2975 1020 50 2800 200/07G16 RMK AO2
14837KMSN MSN20110607231510006/07/11 23:15:31  5-MIN KMSN 080515Z 19009G15KT 10SM CLR 28/17 A2975 1020 50 2800 200/09G15 RMK AO2
14837KMSN MSN20110607232010006/07/11 23:20:31  5-MIN KMSN 080520Z 20010G20KT 10SM CLR 28/17 A2975 1020 52 2800 200/10G20 RMK AO2
14837KMSN MSN20110607232510006/07/11 23:25:31  5-MIN KMSN 080525Z 20009G20KT 10SM CLR 28/17 A2975 1020 50 2800 200/09G20 RMK AO2
14837KMSN MSN20110607233010006/07/11 23:30:31  5-MIN KMSN 080530Z 20010G17KT 10SM CLR 28/17 A2975 1020 50 2800 200/10G17 RMK AO2
14837KMSN MSN20110607233510006/07/11 23:35:31  5-MIN KMSN 080535Z 19009G17KT 10SM CLR 28/17 A2975 1020 52 2800 190/09G17 RMK AO2
14837KMSN MSN20110607234009406/07/11 23:40:31  5-MIN KMSN 080540Z 20010KT 10SM CLR 28/18 A2975 1020 54 2800 200/10 RMK AO2
14837KMSN MSN20110607234510006/07/11 23:45:31  5-MIN KMSN 080545Z 20010G18KT 10SM CLR 28/18 A2975 1020 54 2800 200/10G18 RMK AO2
14837KMSN MSN20110607235014506/07/11 23:50:31  5-MIN KMSN 080550Z 20007G18KT 10SM CLR 28/18 A2975 1020 54 2800 200/07G18 RMK AO2 SLP066 T02780178 10333 20278 403560244 53006
14837KMSN MSN20110607235510006/07/11 23:55:31  5-MIN KMSN 080555Z 20009G16KT 10SM CLR 28/18 A2975 1020 54 2800 200/09G16 RMK AO2
14837KMSN MSN20110608000010006/08/11 00:00:32  5-MIN KMSN 080600Z 20006G15KT 10SM CLR 28/18 A2975 1020 54 2800 200/06G15 RMK AO2
14837KMSN MSN20110608000510006/08/11 00:05:31  5-MIN KMSN 080605Z 20008G14KT 10SM CLR 28/18 A2975 1020 54 2800 200/08G14 RMK AO2
14837KMSN MSN20110608001010006/08/11 00:10:31  5-MIN KMSN 080610Z 21007G14KT 10SM CLR 28/18 A2975 1020 54 2800 210/07G14 RMK AO2
14837KMSN MSN20110608001510006/08/11 00:15:31  5-MIN KMSN 080615Z 21007G14KT 10SM CLR 28/18 A2975 1020 54 2800 210/07G14 RMK AO2
14837KMSN MSN20110608002010006/08/11 00:20:31  5-MIN KMSN 080620Z 21006G14KT 10SM CLR 28/18 A2975 1020 56 2800 210/06G14 RMK AO2
14837KMSN MSN20110608002509406/08/11 00:25:31  5-MIN KMSN 080625Z 21007KT 10SM CLR 27/18 A2975 1020 58 2700 210/07 RMK AO2
14837KMSN MSN20110608003011006/08/11 00:30:31  5-MIN KMSN 080630Z 20007KT 170V230 10SM CLR 27/18 A2975 1020 58 2700 210/07 170V230 RMK AO2
14837KMSN MSN20110608003509406/08/11 00:35:31  5-MIN KMSN 080635Z 21006KT 10SM CLR 27/18 A2975 1020 58 2700 210/06 RMK AO2
14837KMSN MSN20110608004009406/08/11 00:40:31  5-MIN KMSN 080640Z 21007KT 10SM CLR 27/18 A2975 1020 58 2700 210/07 RMK AO2
14837KMSN MSN20110608004509406/08/11 00:45:31  5-MIN KMSN 080645Z VRB05KT 10SM CLR 27/18 A2975 1020 58 2700 VRB/05 RMK AO2
14837KMSN MSN20110608005011106/08/11 00:50:31  5-MIN KMSN 080650Z 21006KT 10SM CLR 27/18 A2975 1020 58 2700 210/06 RMK AO2 SLP066 T02720183
14837KMSN MSN20110608005509406/08/11 00:55:31  5-MIN KMSN 080655Z 21007KT 10SM CLR 27/18 A2975 1020 60 2600 220/07 RMK AO2
14837KMSN MSN20110608010009406/08/11 01:00:31  5-MIN KMSN 080700Z VRB06KT 10SM CLR 27/18 A2975 1020 60 2600 VRB/06 RMK AO2
14837KMSN MSN20110608010509406/08/11 01:05:31  5-MIN KMSN 080705Z 21007KT 10SM CLR 27/18 A2975 1020 58 2700 210/07 RMK AO2
14837KMSN MSN20110608011009406/08/11 01:10:31  5-MIN KMSN 080710Z 20008KT 10SM CLR 27/19 A2975 1020 60 2700 210/08 RMK AO2
14837KMSN MSN20110608011509406/08/11 01:15:31  5-MIN KMSN 080715Z 21007KT 10SM CLR 27/19 A2975 1020 60 2700 210/07 RMK AO2
14837KMSN MSN20110608012009406/08/11 01:20:31  5-MIN KMSN 080720Z 21007KT 10SM CLR 27/19 A2975 1020 60 2700 210/07 RMK AO2
14837KMSN MSN20110608012509406/08/11 01:25:31  5-MIN KMSN 080725Z 21006KT 10SM CLR 27/19 A2975 1020 62 2600 220/06 RMK AO2
14837KMSN MSN20110608013009406/08/11 01:30:31  5-MIN KMSN 080730Z 21005KT 10SM CLR 27/19 A2975 1020 62 2600 210/05 RMK AO2
14837KMSN MSN20110608013509406/08/11 01:35:31  5-MIN KMSN 080735Z VRB06KT 10SM CLR 27/19 A2975 1020 60 2700 VRB/06 RMK AO2
14837KMSN MSN20110608014009406/08/11 01:40:31  5-MIN KMSN 080740Z VRB06KT 10SM CLR 27/19 A2975 1020 62 2600 VRB/06 RMK AO2
14837KMSN MSN20110608014509406/08/11 01:45:31  5-MIN KMSN 080745Z VRB06KT 10SM CLR 27/19 A2975 1020 62 2600 VRB/06 RMK AO2
14837KMSN MSN20110608015011106/08/11 01:50:31  5-MIN KMSN 080750Z 23006KT 10SM CLR 27/19 A2975 1020 62 2600 230/06 RMK AO2 SLP066 T02670189
14837KMSN MSN20110608015509406/08/11 01:55:31  5-MIN KMSN 080755Z 22006KT 10SM CLR 27/19 A2976 1020 62 2600 220/06 RMK AO2
14837KMSN MSN20110608020009306/08/11 02:00:31  5-MIN KMSN 080800Z 22005KT 9SM CLR 27/19 A2976 1020 62 2600 220/05 RMK AO2
14837KMSN MSN20110608020509306/08/11 02:05:31  5-MIN KMSN 080805Z 23005KT 9SM CLR 27/19 A2976 1020 62 2600 230/05 RMK AO2
14837KMSN MSN20110608021009306/08/11 02:10:31  5-MIN KMSN 080810Z VRB04KT 9SM CLR 27/19 A2976 1020 62 2600 VRB/04 RMK AO2
14837KMSN MSN20110608021509306/08/11 02:15:31  5-MIN KMSN 080815Z 22005KT 9SM CLR 27/19 A2976 1020 62 2600 230/05 RMK AO2
14837KMSN MSN20110608022009306/08/11 02:20:31  5-MIN KMSN 080820Z 22005KT 9SM CLR 27/19 A2976 1010 62 2600 220/05 RMK AO2
14837KMSN MSN20110608022509306/08/11 02:25:31  5-MIN KMSN 080825Z VRB05KT 9SM CLR 27/19 A2976 1020 62 2600 VRB/05 RMK AO2
14837KMSN MSN20110608023009306/08/11 02:30:31  5-MIN KMSN 080830Z 21005KT 9SM CLR 27/19 A2976 1020 62 2600 210/05 RMK AO2
14837KMSN MSN20110608023509306/08/11 02:35:31  5-MIN KMSN 080835Z 21005KT 9SM CLR 27/19 A2976 1020 62 2600 210/05 RMK AO2
14837KMSN MSN20110608024009306/08/11 02:40:31  5-MIN KMSN 080840Z 21006KT 9SM CLR 27/19 A2976 1020 62 2600 210/06 RMK AO2
14837KMSN MSN20110608024509306/08/11 02:45:31  5-MIN KMSN 080845Z 21005KT 9SM CLR 27/19 A2976 1020 62 2600 210/05 RMK AO2
14837KMSN MSN20110608025011606/08/11 02:50:31  5-MIN KMSN 080850Z VRB05KT 9SM CLR 26/19 A2976 1020 64 2600 VRB/05 RMK AO2 SLP068 T02610189 51002
14837KMSN MSN20110608025509306/08/11 02:55:31  5-MIN KMSN 080855Z 21005KT 9SM CLR 26/19 A2976 1020 64 2600 210/05 RMK AO2
14837KMSN MSN20110608030009306/08/11 03:00:31  5-MIN KMSN 080900Z 21006KT 9SM CLR 27/19 A2976 1020 62 2600 210/06 RMK AO2
14837KMSN MSN20110608030509306/08/11 03:05:31  5-MIN KMSN 080905Z 21005KT 9SM CLR 27/19 A2975 1020 62 2600 210/05 RMK AO2
14837KMSN MSN20110608031009306/08/11 03:10:31  5-MIN KMSN 080910Z VRB04KT 9SM CLR 26/19 A2975 1020 64 2600 VRB/04 RMK AO2
14837KMSN MSN20110608031509306/08/11 03:15:31  5-MIN KMSN 080915Z 22005KT 9SM CLR 26/19 A2976 1020 64 2600 220/05 RMK AO2
14837KMSN MSN20110608032009306/08/11 03:20:31  5-MIN KMSN 080920Z 21006KT 9SM CLR 27/19 A2976 1020 62 2600 220/06 RMK AO2
14837KMSN MSN20110608032509306/08/11 03:25:31  5-MIN KMSN 080925Z 22007KT 9SM CLR 27/19 A2975 1020 62 2600 220/07 RMK AO2
14837KMSN MSN20110608033009306/08/11 03:30:31  5-MIN KMSN 080930Z 21006KT 9SM CLR 27/19 A2975 1020 62 2600 210/06 RMK AO2
14837KMSN MSN20110608033509306/08/11 03:35:31  5-MIN KMSN 080935Z 21005KT 9SM CLR 27/19 A2975 1020 62 2600 220/05 RMK AO2
14837KMSN MSN20110608034009406/08/11 03:40:31  5-MIN KMSN 080940Z 21005KT 10SM CLR 27/19 A2975 1020 62 2600 210/05 RMK AO2
14837KMSN MSN20110608034509406/08/11 03:45:31  5-MIN KMSN 080945Z 21005KT 10SM CLR 27/19 A2975 1020 62 2600 210/05 RMK AO2
14837KMSN MSN20110608035011106/08/11 03:50:31  5-MIN KMSN 080950Z VRB05KT 10SM CLR 26/19 A2975 1020 64 2600 VRB/05 RMK AO2 SLP065 T02610189
14837KMSN MSN20110608035509406/08/11 03:55:31  5-MIN KMSN 080955Z 21005KT 10SM CLR 26/19 A2975 1020 64 2600 210/05 RMK AO2
14837KMSN MSN20110608040009406/08/11 04:00:31  5-MIN KMSN 081000Z VRB04KT 10SM CLR 26/19 A2975 1020 64 2600 VRB/04 RMK AO2
14837KMSN MSN20110608040509606/08/11 04:05:31  5-MIN KMSN 081005Z 22005KT 9SM FEW120 26/19 A2975 1020 64 2600 220/05 RMK AO2
14837KMSN MSN20110608041009606/08/11 04:10:31  5-MIN KMSN 081010Z 23005KT 9SM FEW110 26/19 A2975 1020 64 2600 230/05 RMK AO2
14837KMSN MSN20110608041509606/08/11 04:15:31  5-MIN KMSN 081015Z 22004KT 9SM SCT110 27/19 A2975 1020 62 2600 220/04 RMK AO2
14837KMSN MSN20110608042009606/08/11 04:20:31  5-MIN KMSN 081020Z 22006KT 9SM BKN110 27/19 A2975 1020 62 2600 220/06 RMK AO2
14837KMSN MSN20110608042511306/08/11 04:25:31  5-MIN KMSN 081025Z 22007KT 180V250 10SM BKN110 27/19 A2975 1020 62 2600 220/07 180V250 RMK AO2
14837KMSN MSN20110608043009706/08/11 04:30:31  5-MIN KMSN 081030Z 23005KT 10SM BKN110 27/19 A2975 1020 62 2600 230/05 RMK AO2
14837KMSN MSN20110608043509706/08/11 04:35:31  5-MIN KMSN 081035Z 22005KT 10SM BKN110 27/19 A2975 1020 62 2600 220/05 RMK AO2
14837KMSN MSN20110608044009706/08/11 04:40:31  5-MIN KMSN 081040Z 22005KT 10SM OVC110 27/19 A2975 1030 62 2600 220/05 RMK AO2
14837KMSN MSN20110608044509606/08/11 04:45:31  5-MIN KMSN 081045Z 22004KT 9SM OVC110 27/19 A2975 1020 62 2600 220/04 RMK AO2
14837KMSN MSN20110608045011306/08/11 04:50:31  5-MIN KMSN 081050Z 22005KT 8SM BKN110 26/19 A2975 1020 64 2600 230/05 RMK AO2 SLP066 T02610189
14837KMSN MSN20110608045510506/08/11 04:55:31  5-MIN KMSN 081055Z 22007KT 8SM TS BKN110 26/19 A2975 1020 64 2600 220/07 RMK AO2 TSB54
14837KMSN MSN20110608050015806/08/11 05:00:31  5-MIN KMSN 081100Z 23007KT 8SM -TSRA FEW070 BKN110 26/19 A2975 1020 64 2600 230/07 RMK AO2 TSB1054RAB1056 OCNL LTGIC OHD TS OHD MOV E P0000
14837KMSN MSN20110608050515806/08/11 05:05:31  5-MIN KMSN 081105Z 21008KT 8SM -TSRA FEW060 SCT110 26/19 A2975 1020 64 2600 210/08 RMK AO2 TSB1054RAB1056 OCNL LTGIC OHD TS OHD MOV E P0000
14837KMSN MSN20110608051015806/08/11 05:10:31  5-MIN KMSN 081110Z 23008KT 9SM -TSRA FEW065 SCT110 26/19 A2975 1020 64 2600 230/08 RMK AO2 TSB1054RAB1056 OCNL LTGIC OHD TS OHD MOV E P0000
14837KMSN MSN20110608051515806/08/11 05:15:31  5-MIN KMSN 081115Z 23007KT 9SM -TSRA FEW065 SCT110 26/19 A2975 1020 64 2600 230/07 RMK AO2 TSB1054RAB1056 OCNL LTGIC OHD TS OHD MOV E P0000
14837KMSN MSN20110608052015106/08/11 05:20:31  5-MIN KMSN 081120Z VRB04KT 9SM -TSRA FEW065 26/19 A2975 1020 64 2600 VRB/04 RMK AO2 TSB1054RAB1056 OCNL LTGIC OHD TS OHD MOV E P0000
14837KMSN MSN20110608052515106/08/11 05:25:31  5-MIN KMSN 081125Z 22007KT 9SM -TSRA FEW060 26/19 A2975 1020 64 2600 230/07 RMK AO2 TSB1054RAB1056 OCNL LTGIC OHD TS OHD MOV E P0000
14837KMSN MSN20110608053013006/08/11 05:30:31  5-MIN KMSN 081130Z 21006KT 9SM FEW075 SCT100 26/18 A2976 1020 62 2600 210/06 RMK AO2 TSB1054E26RAB1056E26 P0000
14837KMSN MSN20110608053514606/08/11 05:35:31  5-MIN KMSN 081135Z 20007KT 170V240 8SM FEW080 SCT110 26/19 A2975 1020 64 2600 210/07 170V240 RMK AO2 TSB1054E26RAB1056E26 P0000
14837KMSN MSN20110608054013906/08/11 05:40:31  5-MIN KMSN 081140Z 21007KT 180V240 8SM FEW100 26/19 A2975 1020 64 2600 210/07 180V240 RMK AO2 TSB1054E26RAB1056E26 P0000
14837KMSN MSN20110608054512306/08/11 05:45:31  5-MIN KMSN 081145Z 20007KT 8SM FEW100 26/19 A2975 1020 66 2500 200/07 RMK AO2 TSB1054E26RAB1056E26 P0000
14837KMSN MSN20110608055016406/08/11 05:50:31  5-MIN KMSN 081150Z 20008KT 7SM FEW100 26/19 A2976 1010 68 2500 200/08 RMK AO2 TSB1054E26RAB1056E26 SLP069 P0000 60000 T02560194 10278 20256 51002
14837KMSN MSN20110608055510206/08/11 05:55:31  5-MIN KMSN 081155Z 19010G15KT 7SM FEW100 26/19 A2976 1020 68 2500 200/10G15 RMK AO2
14837KMSN MSN20110608060010206/08/11 06:00:31  5-MIN KMSN 081200Z 20005G15KT 7SM FEW100 26/19 A2975 1020 68 2500 200/05G15 RMK AO2
14837KMSN MSN20110608060509306/08/11 06:05:31  5-MIN KMSN 081205Z 21006KT 7SM CLR 26/19 A2976 1020 68 2500 210/06 RMK AO2
14837KMSN MSN20110608061009306/08/11 06:10:31  5-MIN KMSN 081210Z 19007KT 7SM CLR 26/19 A2975 1020 68 2500 200/07 RMK AO2
14837KMSN MSN20110608061509306/08/11 06:15:31  5-MIN KMSN 081215Z 20007KT 7SM CLR 26/19 A2976 1010 68 2500 200/07 RMK AO2
14837KMSN MSN20110608062009306/08/11 06:20:31  5-MIN KMSN 081220Z 21007KT 7SM CLR 26/19 A2976 1010 68 2500 210/07 RMK AO2
14837KMSN MSN20110608062511206/08/11 06:25:31  5-MIN KMSN 081225Z 20007KT 6SM -RA FEW050 26/19 A2976 1010 68 2500 200/07 RMK AO2 RAB23 P0000
14837KMSN MSN20110608063011806/08/11 06:30:31  5-MIN KMSN 081230Z 21008G15KT 7SM -RA FEW070 26/19 A2976 1010 68 2500 220/08G15 RMK AO2 RAB23 P0000
14837KMSN MSN20110608063511706/08/11 06:35:31  5-MIN KMSN 081235Z 22008G15KT 8SM FEW080 26/19 A2976 1010 68 2500 220/08G15 RMK AO2 RAB23E35 P0000
14837KMSN MSN20110608064011106/08/11 06:40:31  5-MIN KMSN 081240Z 23007KT 7SM FEW070 26/19 A2977 1000 68 2500 240/07 RMK AO2 RAB23E35 P0000
14837KMSN MSN20110608064511206/08/11 06:45:31  5-MIN KMSN 081245Z VRB06KT 7SM -RA FEW070 26/19 A2977 1000 66 2500 VRB/06 RMK AO2 RAB23 P0000
14837KMSN MSN20110608065012806/08/11 06:50:31  5-MIN KMSN 081250Z 23004KT 8SM FEW070 26/19 A2977 1000 66 2500 230/04 RMK AO2 RAB23E50 SLP074 P0000 T02560189
14837KMSN MSN20110608065509606/08/11 06:55:31  5-MIN KMSN 081255Z 20006KT 8SM FEW090 26/19 A2978 1000 66 2500 200/06 RMK AO2
14837KMSN MSN20110608070009606/08/11 07:00:31  5-MIN KMSN 081300Z VRB06KT 8SM SCT110 26/19 A2978 1000 66 2500 VRB/06 RMK AO2
14837KMSN MSN20110608070510206/08/11 07:05:31  5-MIN KMSN 081305Z 20007G15KT 8SM SCT110 26/19 A2978 1000 64 2500 210/07G15 RMK AO2
14837KMSN MSN20110608071010206/08/11 07:10:31  5-MIN KMSN 081310Z 20008G15KT 8SM SCT110 26/19 A2978 1000 64 2500 210/08G15 RMK AO2
14837KMSN MSN20110608071510206/08/11 07:15:31  5-MIN KMSN 081315Z 21008G15KT 8SM SCT110 26/19 A2978 1000 64 2500 210/08G15 RMK AO2
14837KMSN MSN20110608072010206/08/11 07:20:31  5-MIN KMSN 081320Z 21012G19KT 8SM SCT110 26/19 A2978 1000 64 2500 220/12G19 RMK AO2
14837KMSN MSN20110608072510206/08/11 07:25:31  5-MIN KMSN 081325Z 21009G19KT 8SM FEW090 26/19 A2978 1000 64 2500 210/09G19 RMK AO2
14837KMSN MSN20110608073009606/08/11 07:30:31  5-MIN KMSN 081330Z 20011KT 7SM FEW095 26/19 A2978 1000 64 2500 200/11 RMK AO2
14837KMSN MSN20110608073510206/08/11 07:35:31  5-MIN KMSN 081335Z 20011G17KT 7SM FEW095 26/19 A2977 1000 64 2600 200/11G17 RMK AO2
14837KMSN MSN20110608074010206/08/11 07:40:31  5-MIN KMSN 081340Z 20009G18KT 7SM FEW090 27/19 A2977 1000 62 2600 200/09G18 RMK AO2
14837KMSN MSN20110608074510206/08/11 07:45:31  5-MIN KMSN 081345Z 21007G18KT 8SM FEW100 27/19 A2978 1000 62 2600 210/07G18 RMK AO2
14837KMSN MSN20110608075011906/08/11 07:50:31  5-MIN KMSN 081350Z 21009G14KT 7SM FEW100 27/19 A2977 1000 62 2600 210/09G14 RMK AO2 SLP072 T02670189
14837KMSN MSN20110608075510206/08/11 07:55:31  5-MIN KMSN 081355Z 21008G18KT 7SM FEW100 27/19 A2977 1000 62 2600 210/08G18 RMK AO2
14837KMSN MSN20110608080010206/08/11 08:00:31  5-MIN KMSN 081400Z 21010G19KT 7SM FEW100 26/19 A2977 1010 64 2600 220/10G19 RMK AO2
14837KMSN MSN20110608080510206/08/11 08:05:31  5-MIN KMSN 081405Z 20010G19KT 7SM FEW095 26/19 A2977 1010 64 2600 200/10G19 RMK AO2
14837KMSN MSN20110608081014606/08/11 08:10:31  5-MIN KMSN 081410Z 20008G16KT 7SM TS SCT090 26/19 A2977 1000 64 2600 200/08G16 RMK AO2 TSB06 OCNL LTGICCC VC SE TS VC SE MOV NE
14837KMSN MSN20110608081514606/08/11 08:15:31  5-MIN KMSN 081415Z 21012G17KT 7SM TS BKN090 26/19 A2977 1000 64 2600 210/12G17 RMK AO2 TSB06 OCNL LTGICCC VC SE TS VC SE MOV NE
14837KMSN MSN20110608082016206/08/11 08:20:31  5-MIN KMSN 081420Z 21011G18KT 180V240 7SM TS BKN090 27/18 A2977 1000 60 2600 210/11G18 180V240 RMK AO2 TSB06 OCNL LTGICCC VC SE TS VC SE MOV NE
14837KMSN MSN20110608082514606/08/11 08:25:31  5-MIN KMSN 081425Z 20012G19KT 8SM TS BKN090 27/18 A2977 1000 60 2600 200/12G19 RMK AO2 TSB06 OCNL LTGICCC VC SE TS VC SE MOV NE
14837KMSN MSN20110608083011106/08/11 08:30:31  5-MIN KMSN 081430Z 21009G19KT 8SM BKN090 27/18 A2977 1000 60 2600 210/09G19 RMK AO2 TSB06E29
14837KMSN MSN20110608083511106/08/11 08:35:31  5-MIN KMSN 081435Z 20011G20KT 8SM BKN090 27/18 A2977 1010 56 2700 200/11G20 RMK AO2 TSB06E29
14837KMSN MSN20110608084011106/08/11 08:40:31  5-MIN KMSN 081440Z 22006G20KT 8SM SCT090 27/18 A2977 1000 56 2700 220/06G20 RMK AO2 TSB06E29
14837KMSN MSN20110608084511106/08/11 08:45:31  5-MIN KMSN 081445Z 22010G20KT 7SM SCT090 27/18 A2978 1000 58 2700 230/10G20 RMK AO2 TSB06E29
14837KMSN MSN20110608085014006/08/11 08:50:31  5-MIN KMSN 081450Z 21012G20KT 7SM SCT095 27/18 A2978 1000 60 2600 210/12G20 RMK AO2 TSB06E29 SLP076 60000 T02670183 53001
14837KMSN MSN20110608085510206/08/11 08:55:31  5-MIN KMSN 081455Z 23011G19KT 7SM SCT090 27/18 A2978 1000 60 2600 230/11G19 RMK AO2
14837KMSN MSN20110608090011806/08/11 09:00:31  5-MIN KMSN 081500Z 23009G21KT 200V270 7SM BKN090 27/18 A2978 1000 58 2700 230/09G21 200V270 RMK AO2
14837KMSN MSN20110608090510206/08/11 09:05:31  5-MIN KMSN 081505Z 23010G21KT 7SM SCT090 27/18 A2977 1000 60 2600 240/10G21 RMK AO2
14837KMSN MSN20110608091010206/08/11 09:10:31  5-MIN KMSN 081510Z 23010G18KT 7SM SCT090 27/18 A2977 1000 60 2600 240/10G18 RMK AO2
14837KMSN MSN20110608091510206/08/11 09:15:31  5-MIN KMSN 081515Z 23011G19KT 8SM FEW090 27/18 A2977 1010 56 2700 230/11G19 RMK AO2
14837KMSN MSN20110608092010206/08/11 09:20:31  5-MIN KMSN 081520Z 23008G19KT 8SM FEW090 27/18 A2977 1010 56 2700 230/08G19 RMK AO2
14837KMSN MSN20110608092510206/08/11 09:25:31  5-MIN KMSN 081525Z 23008G18KT 8SM FEW090 27/18 A2977 1010 56 2700 230/08G18 RMK AO2
14837KMSN MSN20110608093009906/08/11 09:30:31  5-MIN KMSN 081530Z 22008G16KT 8SM CLR 27/18 A2977 1000 56 2700 220/08G16 RMK AO2
14837KMSN MSN20110608093509906/08/11 09:35:31  5-MIN KMSN 081535Z 22009G17KT 8SM CLR 27/18 A2976 1010 56 2700 220/09G17 RMK AO2
14837KMSN MSN20110608094009906/08/11 09:40:31  5-MIN KMSN 081540Z 22009G17KT 8SM CLR 27/17 A2977 1010 55 2600 220/09G17 RMK AO2
14837KMSN MSN20110608094509306/08/11 09:45:31  5-MIN KMSN 081545Z 21007KT 8SM CLR 27/17 A2977 1010 55 2600 210/07 RMK AO2
14837KMSN MSN20110608095011006/08/11 09:50:31  5-MIN KMSN 081550Z 21008KT 8SM CLR 27/17 A2977 1000 55 2600 220/08 RMK AO2 SLP073 T02670172
14837KMSN MSN20110608095509606/08/11 09:55:31  5-MIN KMSN 081555Z 22006KT 8SM SCT100 27/17 A2977 1010 55 2600 230/06 RMK AO2
14837KMSN MSN20110608100009606/08/11 10:00:31  5-MIN KMSN 081600Z 21008KT 8SM SCT100 26/17 A2976 1010 57 2600 220/08 RMK AO2
14837KMSN MSN20110608100509606/08/11 10:05:31  5-MIN KMSN 081605Z 21009KT 8SM SCT100 26/17 A2976 1010 57 2600 210/09 RMK AO2
14837KMSN MSN20110608101010206/08/11 10:10:31  5-MIN KMSN 081610Z 20008G14KT 8SM SCT100 26/17 A2976 1010 57 2600 200/08G14 RMK AO2
14837KMSN MSN20110608101509606/08/11 10:15:31  5-MIN KMSN 081615Z 21007KT 7SM SCT100 26/17 A2976 1010 59 2500 210/07 RMK AO2
14837KMSN MSN20110608102009606/08/11 10:20:31  5-MIN KMSN 081620Z 21006KT 7SM SCT100 26/17 A2975 1020 59 2500 220/06 RMK AO2
14837KMSN MSN20110608102509606/08/11 10:25:31  5-MIN KMSN 081625Z 21007KT 7SM SCT100 26/17 A2975 1020 59 2500 220/07 RMK AO2
14837KMSN MSN20110608103009606/08/11 10:30:31  5-MIN KMSN 081630Z 21005KT 7SM FEW110 26/17 A2975 1030 59 2500 210/05 RMK AO2
14837KMSN MSN20110608103509606/08/11 10:35:31  5-MIN KMSN 081635Z 22004KT 7SM FEW110 26/18 A2975 1020 61 2500 220/04 RMK AO2
14837KMSN MSN20110608104009606/08/11 10:40:31  5-MIN KMSN 081640Z 22007KT 7SM FEW110 26/18 A2976 1010 61 2500 220/07 RMK AO2
14837KMSN MSN20110608104509606/08/11 10:45:31  5-MIN KMSN 081645Z 22007KT 7SM FEW110 26/17 A2976 1020 57 2600 220/07 RMK AO2
14837KMSN MSN20110608105011306/08/11 10:50:31  5-MIN KMSN 081650Z 21004KT 7SM FEW100 26/18 A2975 1020 59 2600 210/04 RMK AO2 SLP068 T02610178
14837KMSN MSN20110608105509606/08/11 10:55:31  5-MIN KMSN 081655Z 22005KT 7SM SCT100 26/17 A2975 1020 57 2600 230/05 RMK AO2
14837KMSN MSN20110608110009606/08/11 11:00:31  5-MIN KMSN 081700Z 22004KT 7SM SCT100 26/17 A2975 1020 57 2600 230/04 RMK AO2
14837KMSN MSN20110608110509606/08/11 11:05:31  5-MIN KMSN 081705Z 23005KT 7SM SCT100 26/17 A2976 1010 57 2600 230/05 RMK AO2
14837KMSN MSN20110608111011206/08/11 11:10:31  5-MIN KMSN 081710Z VRB05KT 7SM -RA SCT100 26/17 A2976 1010 57 2600 VRB/05 RMK AO2 RAB10 P0000
14837KMSN MSN20110608111511206/08/11 11:15:31  5-MIN KMSN 081715Z 24008KT 7SM -RA SCT100 27/17 A2976 1010 55 2600 250/08 RMK AO2 RAB10 P0000
14837KMSN MSN20110608112012706/08/11 11:20:31  5-MIN KMSN 081720Z 23007KT 190V280 8SM SCT100 27/18 A2976 1020 56 2700 230/07 190V280 RMK AO2 RAB10E19 P0000
14837KMSN MSN20110608112511706/08/11 11:25:31  5-MIN KMSN 081725Z 22009G16KT 8SM SCT100 27/18 A2975 1020 56 2700 230/09G16 RMK AO2 RAB10E19 P0000
14837KMSN MSN20110608113012406/08/11 11:30:31  5-MIN KMSN 081730Z 21011G20KT 7SM SCT100 27/17 A2974 1030 54 2700 220/11G20 RMK AO2 RAB10E19 PRESFR P0000
14837KMSN MSN20110608113511706/08/11 11:35:31  5-MIN KMSN 081735Z 22010G20KT 7SM SCT100 28/17 A2974 1030 52 2800 220/10G20 RMK AO2 RAB10E19 P0000
14837KMSN MSN20110608114011706/08/11 11:40:31  5-MIN KMSN 081740Z 22011G18KT 7SM SCT100 28/18 A2974 1030 54 2800 220/11G18 RMK AO2 RAB10E19 P0000
14837KMSN MSN20110608114511706/08/11 11:45:31  5-MIN KMSN 081745Z 22008G17KT 7SM SCT100 28/18 A2975 1020 54 2800 220/08G17 RMK AO2 RAB10E19 P0000
14837KMSN MSN20110608115016506/08/11 11:50:31  5-MIN KMSN 081750Z 22008G16KT 7SM FEW080 SCT110 28/18 A2975 1030 52 2800 220/08G16 RMK AO2 RAB10E19 SLP065 P0000 60000 T02830178 10283 20256 51006
14837KMSN MSN20110608115510906/08/11 11:55:31  5-MIN KMSN 081755Z 22014G21KT 7SM FEW080 SCT110 29/18 A2975 1020 52 2900 220/14G21 RMK AO2
14837KMSN MSN20110608120010906/08/11 12:00:31  5-MIN KMSN 081800Z 22008G21KT 7SM FEW080 SCT110 28/18 A2975 1020 54 2800 230/08G21 RMK AO2
14837KMSN MSN20110608120510906/08/11 12:05:31  5-MIN KMSN 081805Z 23011G16KT 7SM FEW080 SCT110 28/18 A2975 1020 54 2800 230/11G16 RMK AO2
14837KMSN MSN20110608121014106/08/11 12:10:31  5-MIN KMSN 081810Z 23007G16KT 200V270 6SM -RA FEW080 SCT110 27/19 A2975 1020 60 2700 230/07G16 200V270 RMK AO2 RAB07 P0000
14837KMSN MSN20110608121512506/08/11 12:15:31  5-MIN KMSN 081815Z 22010G15KT 6SM -RA FEW080 SCT110 28/19 A2975 1030 60 2800 220/10G15 RMK AO2 RAB07 P0000
14837KMSN MSN20110608122013306/08/11 12:20:31  5-MIN KMSN 081820Z 23007G15KT 190V260 8SM FEW100 28/19 A2974 1030 58 2800 230/07G15 190V260 RMK AO2 RAB07E19 P0000
14837KMSN MSN20110608122513306/08/11 12:25:31  5-MIN KMSN 081825Z 23008G15KT 190V250 7SM FEW100 29/19 A2974 1030 56 2900 230/08G15 190V250 RMK AO2 RAB07E19 P0000
14837KMSN MSN20110608123011706/08/11 12:30:31  5-MIN KMSN 081830Z 24007G14KT 7SM FEW100 29/19 A2974 1030 56 2900 240/07G14 RMK AO2 RAB07E19 P0000
14837KMSN MSN20110608123511106/08/11 12:35:31  5-MIN KMSN 081835Z 23007KT 7SM FEW100 28/19 A2974 1030 58 2800 230/07 RMK AO2 RAB07E19 P0000
14837KMSN MSN20110608124011406/08/11 12:40:31  5-MIN KMSN 081840Z VRB06KT 6SM HZ FEW100 28/19 A2975 1030 60 2800 VRB/06 RMK AO2 RAB07E19 P0000
14837KMSN MSN20110608124513406/08/11 12:45:31  5-MIN KMSN 081845Z 23008KT 200V270 6SM -RA FEW100 28/21 A2975 1020 62 2800 230/08 200V270 RMK AO2 RAB07E19B42 P0000
14837KMSN MSN20110608125014106/08/11 12:50:31  5-MIN KMSN 081850Z 23005G15KT 7SM -RA FEW100 28/21 A2975 1030 62 2800 230/05G15 RMK AO2 RAB07E19B42 SLP065 P0000 T02830206
14837KMSN MSN20110608125510206/08/11 12:55:31  5-MIN KMSN 081855Z 23007G15KT 7SM SCT100 28/21 A2975 1020 62 2800 230/07G15 RMK AO2
14837KMSN MSN20110608130011206/08/11 13:00:31  5-MIN KMSN 081900Z 23007KT 210V300 7SM SCT100 28/20 A2975 1020 60 2800 230/07 210V300 RMK AO2
14837KMSN MSN20110608130509606/08/11 13:05:31  5-MIN KMSN 081905Z 23007KT 7SM SCT100 28/20 A2975 1020 60 2800 230/07 RMK AO2
14837KMSN MSN20110608131009606/08/11 13:10:31  5-MIN KMSN 081910Z 22008KT 7SM SCT100 29/21 A2975 1020 58 2900 230/08 RMK AO2
14837KMSN MSN20110608131509606/08/11 13:15:31  5-MIN KMSN 081915Z 23007KT 7SM SCT100 29/21 A2975 1030 58 2900 230/07 RMK AO2
14837KMSN MSN20110608132011206/08/11 13:20:31  5-MIN KMSN 081920Z 22008KT 180V250 7SM SCT100 30/21 A2975 1020 58 3000 220/08 180V250 RMK AO2
14837KMSN MSN20110608132510206/08/11 13:25:31  5-MIN KMSN 081925Z 21009G16KT 7SM SCT100 30/21 A2974 1030 56 3000 210/09G16 RMK AO2
14837KMSN MSN20110608133010206/08/11 13:30:31  5-MIN KMSN 081930Z 22009G17KT 7SM SCT100 29/21 A2974 1030 58 3000 220/09G17 RMK AO2
14837KMSN MSN20110608133510206/08/11 13:35:31  5-MIN KMSN 081935Z 20010G17KT 7SM SCT100 30/21 A2974 1030 56 3000 200/10G17 RMK AO2
14837KMSN MSN20110608134010206/08/11 13:40:31  5-MIN KMSN 081940Z 21011G17KT 7SM SCT100 30/21 A2974 1030 56 3000 210/11G17 RMK AO2
14837KMSN MSN20110608134510206/08/11 13:45:31  5-MIN KMSN 081945Z 21011G21KT 7SM SCT100 30/21 A2975 1030 56 3000 210/11G21 RMK AO2
14837KMSN MSN20110608135013506/08/11 13:50:31  5-MIN KMSN 081950Z 22011G21KT 180V250 7SM SCT110 29/21 A2975 1030 58 2900 220/11G21 180V250 RMK AO2 SLP066 T02940206
14837KMSN MSN20110608135510206/08/11 13:55:31  5-MIN KMSN 081955Z 22012G19KT 7SM SCT110 29/21 A2975 1030 58 2900 220/12G19 RMK AO2
14837KMSN MSN20110608140010206/08/11 14:00:31  5-MIN KMSN 082000Z 23010G18KT 7SM SCT110 29/21 A2975 1020 58 2900 230/10G18 RMK AO2
14837KMSN MSN20110608140510506/08/11 14:05:31  5-MIN KMSN 082005Z 21009G17KT 6SM HZ SCT110 29/21 A2975 1020 58 2900 210/09G17 RMK AO2
14837KMSN MSN20110608141012106/08/11 14:10:31  5-MIN KMSN 082010Z 22008G16KT 180V250 6SM HZ FEW110 30/21 A2975 1020 58 3000 220/08G16 180V250 RMK AO2
14837KMSN MSN20110608141510506/08/11 14:15:31  5-MIN KMSN 082015Z 21006G16KT 6SM HZ FEW110 30/21 A2975 1020 58 3000 210/06G16 RMK AO2
14837KMSN MSN20110608142009906/08/11 14:20:31  5-MIN KMSN 082020Z 21008KT 6SM HZ FEW110 30/21 A2975 1020 58 3000 210/08 RMK AO2
14837KMSN MSN20110608142509906/08/11 14:25:31  5-MIN KMSN 082025Z 20009KT 6SM HZ FEW110 30/21 A2975 1020 58 3000 200/09 RMK AO2
14837KMSN MSN20110608143010506/08/11 14:30:31  5-MIN KMSN 082030Z 23011G17KT 6SM HZ FEW110 30/21 A2975 1020 58 3000 230/11G17 RMK AO2
14837KMSN MSN20110608143512106/08/11 14:35:31  5-MIN KMSN 082035Z 22009G17KT 190V250 6SM HZ FEW110 30/21 A2975 1020 58 3000 220/09G17 190V250 RMK AO2
14837KMSN MSN20110608144010506/08/11 14:40:31  5-MIN KMSN 082040Z 21012G16KT 6SM HZ FEW110 30/21 A2975 1020 58 3000 220/12G16 RMK AO2
14837KMSN MSN20110608144510506/08/11 14:45:31  5-MIN KMSN 082045Z 23009G18KT 6SM HZ FEW110 30/21 A2975 1020 58 3000 240/09G18 RMK AO2
14837KMSN MSN20110608145013406/08/11 14:50:31  5-MIN KMSN 082050Z 22010G18KT 6SM HZ FEW110 31/21 A2975 1020 56 3100 220/10G18 RMK AO2 SLP067 60000 T03060211 56009
14837KMSN MSN20110608145511206/08/11 14:55:31  5-MIN KMSN 082055Z 23009G17KT 6SM HZ FEW040 SCT110 31/21 A2975 1020 56 3100 230/09G17 RMK AO2
14837KMSN MSN20110608150011206/08/11 15:00:31  5-MIN KMSN 082100Z 22008G17KT 6SM HZ FEW040 SCT110 31/21 A2975 1020 56 3100 230/08G17 RMK AO2
14837KMSN MSN20110608150511206/08/11 15:05:31  5-MIN KMSN 082105Z 22009G17KT 6SM HZ FEW040 SCT110 31/21 A2975 1020 56 3100 220/09G17 RMK AO2
14837KMSN MSN20110608151012806/08/11 15:10:31  5-MIN KMSN 082110Z 23007G15KT 180V250 6SM HZ FEW040 SCT110 31/21 A2975 1020 56 3100 230/07G15 180V250 RMK AO2
14837KMSN MSN20110608151511206/08/11 15:15:31  5-MIN KMSN 082115Z 22008G15KT 6SM HZ FEW040 SCT110 31/21 A2975 1020 56 3100 220/08G15 RMK AO2
14837KMSN MSN20110608152011206/08/11 15:20:31  5-MIN KMSN 082120Z 22009G16KT 6SM HZ FEW040 SCT110 31/21 A2975 1020 56 3100 220/09G16 RMK AO2
14837KMSN MSN20110608152511206/08/11 15:25:31  5-MIN KMSN 082125Z VRB06G16KT 6SM HZ FEW040 SCT110 31/21 A2975 1020 56 3100 VRB/06G16 RMK AO2
14837KMSN MSN20110608153011206/08/11 15:30:31  5-MIN KMSN 082130Z 23007G15KT 6SM HZ FEW040 SCT110 31/21 A2975 1020 56 3100 230/07G15 RMK AO2
14837KMSN MSN20110608153511206/08/11 15:35:31  5-MIN KMSN 082135Z 22008G15KT 6SM HZ FEW036 SCT110 31/22 A2975 1020 58 3100 230/08G15 RMK AO2
14837KMSN MSN20110608154012806/08/11 15:40:31  5-MIN KMSN 082140Z 22007G14KT 190V250 6SM HZ FEW036 SCT110 31/21 A2975 1020 56 3100 220/07G14 190V250 RMK AO2
14837KMSN MSN20110608154511206/08/11 15:45:31  5-MIN KMSN 082145Z 23010G18KT 6SM HZ FEW036 SCT110 31/21 A2975 1020 56 3100 230/10G18 RMK AO2
14837KMSN MSN20110608155012906/08/11 15:50:31  5-MIN KMSN 082150Z 22008G18KT 6SM HZ FEW036 SCT110 31/21 A2975 1020 56 3100 220/08G18 RMK AO2 SLP066 T03060211
14837KMSN MSN20110608155511206/08/11 15:55:31  5-MIN KMSN 082155Z 23007G15KT 6SM HZ FEW036 SCT110 31/21 A2975 1020 56 3100 230/07G15 RMK AO2
14837KMSN MSN20110608160010606/08/11 16:00:31  5-MIN KMSN 082200Z 21007KT 6SM HZ FEW036 SCT110 31/21 A2975 1020 56 3100 210/07 RMK AO2
14837KMSN MSN20110608160510606/08/11 16:05:31  5-MIN KMSN 082205Z 23008KT 6SM HZ FEW036 SCT110 31/21 A2975 1020 56 3100 230/08 RMK AO2
14837KMSN MSN20110608161011206/08/11 16:10:31  5-MIN KMSN 082210Z 22007G15KT 6SM HZ FEW036 SCT110 31/21 A2975 1020 56 3100 220/07G15 RMK AO2
14837KMSN MSN20110608161511206/08/11 16:15:31  5-MIN KMSN 082215Z 23007G15KT 6SM HZ FEW036 SCT110 30/21 A2976 1010 58 3000 230/07G15 RMK AO2
14837KMSN MSN20110608162011206/08/11 16:20:31  5-MIN KMSN 082220Z 22008G17KT 6SM HZ FEW036 SCT110 31/21 A2976 1020 56 3100 220/08G17 RMK AO2
14837KMSN MSN20110608162511206/08/11 16:25:31  5-MIN KMSN 082225Z 23008G17KT 6SM HZ FEW036 SCT110 31/21 A2975 1020 56 3100 230/08G17 RMK AO2
14837KMSN MSN20110608163010606/08/11 16:30:31  5-MIN KMSN 082230Z 22009KT 6SM HZ FEW036 SCT110 30/21 A2975 1020 58 3000 230/09 RMK AO2
14837KMSN MSN20110608163511206/08/11 16:35:31  5-MIN KMSN 082235Z 22009G15KT 6SM HZ FEW036 SCT110 30/21 A2975 1020 58 3000 220/09G15 RMK AO2
14837KMSN MSN20110608164011206/08/11 16:40:31  5-MIN KMSN 082240Z 23008G15KT 6SM HZ FEW036 SCT110 30/21 A2975 1020 58 3000 230/08G15 RMK AO2
14837KMSN MSN20110608164510606/08/11 16:45:31  5-MIN KMSN 082245Z 22008KT 6SM HZ FEW036 SCT110 30/21 A2975 1020 58 3000 220/08 RMK AO2
14837KMSN MSN20110608165011606/08/11 16:50:31  5-MIN KMSN 082250Z 21006KT 6SM HZ FEW038 30/21 A2975 1020 58 3000 220/06 RMK AO2 SLP066 T03000211
14837KMSN MSN20110608165509906/08/11 16:55:31  5-MIN KMSN 082255Z 23007KT 6SM HZ FEW038 30/21 A2976 1020 58 3000 230/07 RMK AO2
14837KMSN MSN20110608170009906/08/11 17:00:31  5-MIN KMSN 082300Z 21006KT 6SM HZ FEW038 30/21 A2975 1020 58 3000 210/06 RMK AO2
14837KMSN MSN20110608170509906/08/11 17:05:31  5-MIN KMSN 082305Z 22008KT 6SM HZ FEW038 29/21 A2975 1020 60 2900 230/08 RMK AO2
14837KMSN MSN20110608171009906/08/11 17:10:31  5-MIN KMSN 082310Z 20007KT 6SM HZ FEW038 29/21 A2974 1040 60 3000 200/07 RMK AO2
14837KMSN MSN20110608171509906/08/11 17:15:31  5-MIN KMSN 082315Z 20007KT 6SM HZ FEW038 29/21 A2973 1040 58 3000 210/07 RMK AO2
14837KMSN MSN20110608172009906/08/11 17:20:31  5-MIN KMSN 082320Z 22005KT 6SM HZ FEW038 29/21 A2973 1040 58 3000 220/05 RMK AO2
14837KMSN MSN20110608172509606/08/11 17:25:31  5-MIN KMSN 082325Z 22005KT 7SM FEW038 29/21 A2973 1050 58 3000 220/05 RMK AO2
14837KMSN MSN20110608173009606/08/11 17:30:31  5-MIN KMSN 082330Z 22005KT 7SM FEW038 29/21 A2974 1030 58 3000 230/05 RMK AO2
14837KMSN MSN20110608173510306/08/11 17:35:31  5-MIN KMSN 082335Z 24006KT 7SM FEW032 SCT120 29/21 A2975 1020 58 2900 240/06 RMK AO2
14837KMSN MSN20110608174014406/08/11 17:40:31  5-MIN KMSN 082340Z 23005KT 7SM TS FEW032 SCT120 29/21 A2975 1020 58 2900 230/05 RMK AO2 TSB39 OCNL LTGCGIC VC W TS VC W MOV E
14837KMSN MSN20110608174514406/08/11 17:45:31  5-MIN KMSN 082345Z 20007KT 7SM TS FEW032 SCT120 29/21 A2974 1030 58 3000 200/07 RMK AO2 TSB39 OCNL LTGCGIC VC W TS VC W MOV E
14837KMSN MSN20110608175018506/08/11 17:50:31  5-MIN KMSN 082350Z 20007KT 7SM TS FEW032 SCT120 29/21 A2973 1040 58 3000 200/07 RMK AO2 TSB39 SLP060 OCNL LTGCGIC VC W TS VC W MOV E 60000 T02940206 10306 20272 53001
14837KMSN MSN20110608175514306/08/11 17:55:31  5-MIN KMSN 082355Z 20008KT 8SM TS FEW038 BKN120 29/21 A2972 1050 58 3000 200/08 RMK AO2 PRESFR OCNL LTGCGIC OHD TS OHD MOV E
14837KMSN MSN20110608180015806/08/11 18:00:31  5-MIN KMSN 090000Z 19009KT 8SM -TSRA FEW038 SCT080 BKN120 29/21 A2972 1050 58 3000 190/09 RMK AO2 RAB00 OCNL LTGCGIC OHD TS OHD MOV E P0000
14837KMSN MSN20110608180515106/08/11 18:05:31  5-MIN KMSN 090005Z 21010KT 7SM -TSRA SCT080 SCT090 29/21 A2973 1040 58 3000 210/10 RMK AO2 RAB00 OCNL LTGCGIC OHD TS OHD MOV E P0000
14837KMSN MSN20110608181015906/08/11 18:10:31  5-MIN KMSN 090010Z 21008KT 6SM -TSRA FEW038 SCT065 BKN090 29/21 A2973 1040 62 2900 210/08 RMK AO2 RAB00 FRQ LTGCGICCA OHD TS OHD MOV E P0001
14837KMSN MSN20110608181515906/08/11 18:15:31  5-MIN KMSN 090015Z 20010KT 5SM -TSRA FEW037 BKN060 BKN090 28/22 A2973 1040 66 2800 200/10 RMK AO2 RAB00 FRQ LTGCGICCA OHD TS OHD MOV E P0001
14837KMSN MSN20110608182016606/08/11 18:20:31  5-MIN KMSN 090020Z 21006KT 5SM -TSRA FEW034 BKN055 BKN075 28/22 A2974 1030 71 2800 210/06 RMK AO2 RAB00 PRESRR FRQ LTGCGICCA OHD TS OHD MOV E P0001
14837KMSN MSN20110608182515906/08/11 18:25:31  5-MIN KMSN 090025Z 23007KT 5SM -TSRA BKN055 BKN085 27/22 A2976 1020 74 2700 230/07 RMK AO2 RAB00 PRESRR FRQ LTGCGICCA OHD TS OHD MOV E P0001
14837KMSN MSN20110608183016606/08/11 18:30:31  5-MIN KMSN 090030Z 23005KT 6SM -TSRA BKN050 BKN070 OVC090 27/22 A2977 1000 76 2600 230/05 RMK AO2 RAB00 PRESRR FRQ LTGCGICCA OHD TS OHD MOV E P0001
14837KMSN MSN20110608183515206/08/11 18:35:31  5-MIN KMSN 090035Z 24005KT 6SM -TSRA BKN050 BKN070 27/22 A2976 1010 73 2600 240/05 RMK AO2 RAB00 FRQ LTGCGICCA OHD TS OHD MOV E P0001
14837KMSN MSN20110608184014506/08/11 18:40:31  5-MIN KMSN 090040Z VRB03KT 4SM -TSRA BKN046 26/22 A2975 1020 76 2600 VRB/03 RMK AO2 RAB00 FRQ LTGCGICCA OHD TS OHD MOV E P0002
14837KMSN MSN20110608184514506/08/11 18:45:31  5-MIN KMSN 090045Z 00000KT 3SM -TSRA OVC046 26/22 A2974 1030 79 2600 000/00 RMK AO2 RAB00 FRQ LTGCGICCA OHD TS OHD MOV E P0002
14837KMSN MSN20110608185016306/08/11 18:50:31  5-MIN KMSN 090050Z 25003KT 3SM -TSRA OVC044 25/22 A2976 1010 84 2400 250/03 RMK AO2 RAB00 SLP071 CONS LTGCGICCA OHD TS OHD MOV E P0004 T02500222
14837KMSN MSN20110608185514206/08/11 18:55:31  5-MIN KMSN 090055Z 21009KT 3SM TSRA BR OVC041 24/22 A2975 1030 87 2400 210/09 RMK AO2 CONS LTGCGICCA OHD TS OHD MOV E P0001
14837KMSN MSN20110608190014506/08/11 19:00:31  5-MIN KMSN 090100Z 22011G23KT 2SM TSRA OVC038 24/22 A2975 1020 84 2400 220/11G23 RMK AO2 CONS LTGCGICCA OHD TS OHD MOV E P0004
14837KMSN MSN20110608190515206/08/11 19:05:31  5-MIN KMSN 090105Z 25016G24KT 2SM +TSRA OVC034 23/21 A2980 970 84 2200 250/16G24 RMK AO2 PRESRR CONS LTGCGICCA OHD TS OHD MOV E P0009
14837KMSN MSN20110608191017006/08/11 19:10:31  5-MIN KMSN 090110Z 23017G33KT 1SM +TSRA OVC028 20/17 A2985 930 81 1800 230/17G33 RMK AO2 PK WND 24033/0106 PRESRR CONS LTGCGICCA OHD TS OHD MOV E P0014
14837KMSN MSN20110608191517306/08/11 19:15:31  5-MIN KMSN 090115Z 22014G33KT 1SM +TSRA BR OVC024 18/16 A2986 920 87 1600 230/14G33 RMK AO2 PK WND 24033/0106 PRESRR CONS LTGCGICCA OHD TS OHD MOV E P0027
14837KMSN MSN20110608192017606/08/11 19:20:31  5-MIN KMSN 090120Z 20012G24KT 1SM +TSRA BR OVC024 18/16 A2987 910 87 1600 200/12G24 RMK AO2 PK WND 24033/0106 SFC VIS 2 CONS LTGCGICCA OHD TS OHD MOV E P0034
14837KMSN MSN20110608192518006/08/11 19:25:31  5-MIN KMSN 090125Z 21008G21KT 1SM +TSRA BKN026 OVC070 19/16 A2987 910 84 1600 210/08G21 RMK AO2 PK WND 24033/0106 SFC VIS 2 CONS LTGCGICCA OHD TS OHD MOV E P0036
14837KMSN MSN20110608193006706/08/11 19:30:31  5-MIN KMSN 090130Z AUTO -RA M M M M /M RMK AO2 $
14837KMSN MSN20110608193509706/08/11 19:35:31  5-MIN KMSN 090135Z VRB04KT UP A2986 M M M VRB/04 RMK AO2 RAB34E35UPB35 P0036 $
14837KMSN MSN20110608194014306/08/11 19:40:31  5-MIN KMSN 090140Z 20009KT 6SM TSRA BKN030 OVC060 19/16 A2986 920 84 1600 200/09 RMK AO2 OCNL LTGIC OHD TS OHD MOV E P0036 $
14837KMSN MSN20110608194514406/08/11 19:45:31  5-MIN KMSN 090145Z 23010KT 6SM -TSRA BKN030 OVC060 19/16 A2984 940 84 1700 230/10 RMK AO2 OCNL LTGIC OHD TS OHD MOV E P0036 $
14837KMSN MSN20110608195016506/08/11 19:50:31  5-MIN KMSN 090150Z 23010KT 9SM -TSRA BKN030 OVC060 19/16 A2984 940 84 1700 230/10 RMK AO2 SLP098 OCNL LTGICCA VC E TS VC E MOV E P0036 T01900161 $
14837KMSN MSN20110608195514906/08/11 19:55:31  5-MIN KMSN 090155Z 20007KT 10SM -TSRA BKN030 OVC060 20/17 A2984 940 84 1800 200/07 RMK AO2 OCNL LTGICCA VC E TS VC E MOV E P0000 $
14837KMSN MSN20110608200014906/08/11 20:00:31  5-MIN KMSN 090200Z VRB06KT 10SM -TSRA BKN030 OVC060 20/17 A2984 940 84 1800 VRB/06 RMK AO2 OCNL LTGICCA VC E TS VC E MOV E P0000 $
14837KMSN MSN20110608201511006/08/11 20:15:31  5-MIN KMSN 090215Z 28004KT 10SM -TSRA OVC060 20/18 A2982 960 87 1800 280/04 RMK AO2 P0000 $
14837KMSN MSN20110608202014906/08/11 20:20:31  5-MIN KMSN 090220Z 28004KT 10SM -TSRA SCT060 OVC110 20/18 A2982 960 87 1800 280/04 RMK AO2 OCNL LTGICCA VC E TS VC E MOV E P0000 $
14837KMSN MSN20110608202513306/08/11 20:25:31  5-MIN KMSN 090225Z 28004KT 10SM -TSRA SCT060 OVC110 20/18 A2982 960 87 1800 280/04 RMK AO2 OCNL LTG DSNT E P0000 $
14837KMSN MSN20110608203013206/08/11 20:30:31  5-MIN KMSN 090230Z 13008KT 10SM -RA SCT060 OVC110 20/18 A2977 1010 87 1900 130/08 RMK AO2 OCNL LTG DSNT E P0000 $
14837KMSN MSN20110608203513206/08/11 20:35:31  5-MIN KMSN 090235Z 13008KT 10SM -RA SCT060 OVC110 20/18 A2977 1010 87 1900 130/08 RMK AO2 OCNL LTG DSNT E P0000 $
14837KMSN MSN20110608204014406/08/11 20:40:31  5-MIN KMSN 090240Z 13008KT 10SM -TSRA SCT060 OVC110 19/18 A2977 1010 90 1800 130/08 RMK AO2 OCNL LTGIC OHD TS OHD MOV E P0000
14837KMSN MSN20110608204514406/08/11 20:45:31  5-MIN KMSN 090245Z VRB04KT 10SM -TSRA SCT060 OVC110 19/18 A2976 1010 90 1800 VRB/04 RMK AO2 OCNL LTGIC OHD TS OHD MOV E P0000
14837KMSN MSN20110608205016806/08/11 20:50:31  5-MIN KMSN 090250Z 00000KT 10SM -TSRA SCT085 OVC110 19/18 A2979 990 90 1800 000/00 RMK AO2 SLP081 OCNL LTGIC OHD TS OHD MOV E P0000 60042 T01940178 $
14837KMSN MSN20110608205514906/08/11 20:55:31  5-MIN KMSN 090255Z VRB03KT 6SM -TSRA BR SCT065 BKN110 19/18 A2979 990 90 1800 VRB/03 RMK AO2 OCNL LTGICCA OHD TS OHD MOV E P0000 $
14837KMSN MSN20110608210014906/08/11 21:00:31  5-MIN KMSN 090300Z 00000KT 4SM -TSRA BR SCT050 BKN110 19/18 A2979 990 90 1800 000/00 RMK AO2 OCNL LTGICCA OHD TS OHD MOV E P0005 $
14837KMSN MSN20110608210514606/08/11 21:05:31  5-MIN KMSN 090305Z 23005KT 8SM -TSRA SCT049 SCT110 19/18 A2979 990 90 1800 240/05 RMK AO2 OCNL LTGICCA OHD TS OHD MOV E P0005 $
14837KMSN MSN20110608211014106/08/11 21:10:31  5-MIN KMSN 090310Z 21007KT 8SM -RA FEW045 SCT100 19/18 A2987 910 90 1700 210/07 RMK AO2 PRESRR TSE08 OCNL LTG DSNT E P0005
14837KMSN MSN20110608211513406/08/11 21:15:31  5-MIN KMSN 090315Z 18014KT 8SM -RA FEW031 SCT100 19/18 A2984 940 93 1700 180/14 RMK AO2 TSE08 OCNL LTG DSNT E P0005
14837KMSN MSN20110608212013506/08/11 21:20:31  5-MIN KMSN 090320Z 19014KT 10SM -RA FEW031 SCT095 20/18 A2981 960 90 1800 190/14 RMK AO2 TSE08 OCNL LTG DSNT E P0005
14837KMSN MSN20110608212512806/08/11 21:25:31  5-MIN KMSN 090325Z 20010KT 10SM -RA FEW034 20/18 A2982 960 90 1800 210/10 RMK AO2 TSE08 OCNL LTG DSNT E P0005
14837KMSN MSN20110608213014406/08/11 21:30:31  5-MIN KMSN 090330Z 24007KT 210V270 10SM -RA FEW090 19/18 A2984 940 90 1700 240/07 210V270 RMK AO2 TSE08 OCNL LTG DSNT E P0005
14837KMSN MSN20110608213513506/08/11 21:35:31  5-MIN KMSN 090335Z 00000KT 10SM -RA FEW090 19/18 A2986 920 90 1700 000/00 RMK AO2 PRESRR TSE08 OCNL LTG DSNT E P0005
14837KMSN MSN20110608214014206/08/11 21:40:31  5-MIN KMSN 090340Z 20006KT 10SM -RA FEW090 SCT120 21/18 A2987 910 81 1900 200/06 RMK AO2 PRESRR TSE08 OCNL LTG DSNT E P0005
14837KMSN MSN20110608214511206/08/11 21:45:31  5-MIN KMSN 090345Z 20008KT 10SM -RA SCT120 20/18 A2986 920 87 1800 200/08 RMK AO2 TSE08 P0005
14837KMSN MSN20110608215014206/08/11 21:50:31  5-MIN KMSN 090350Z 18011G17KT 10SM -RA FEW045 BKN120 20/17 A2984 940 84 1800 190/11G17 RMK AO2 SLP100 TSE08 P0005 T02000172
14837KMSN MSN20110608215511906/08/11 21:55:31  5-MIN KMSN 090355Z VRB03G17KT 10SM -RA FEW045 BKN120 20/17 A2984 940 84 1800 VRB/03G17 RMK AO2 P0000
14837KMSN MSN20110608220011906/08/11 22:00:31  5-MIN KMSN 090400Z 02011G15KT 10SM -RA FEW045 BKN120 19/18 A2985 930 90 1700 020/11G15 RMK AO2 P0000
14837KMSN MSN20110608220511306/08/11 22:05:31  5-MIN KMSN 090405Z 00000KT 10SM -RA FEW045 BKN120 19/18 A2984 940 90 1700 000/00 RMK AO2 P0000
14837KMSN MSN20110608221012906/08/11 22:10:31  5-MIN KMSN 090410Z 35005KT 10SM -RA FEW045 BKN120 19/18 A2985 930 90 1700 350/05 RMK AO2 OCNL LTG DSNT W P0000
14837KMSN MSN20110608221512906/08/11 22:15:31  5-MIN KMSN 090415Z 00000KT 10SM -RA FEW045 BKN120 19/18 A2986 920 93 1600 000/00 RMK AO2 OCNL LTG DSNT W P0001
14837KMSN MSN20110608222015106/08/11 22:20:31  5-MIN KMSN 090420Z 10005KT 10SM -TSRA SCT065 BKN120 19/18 A2985 930 90 1700 110/05 RMK AO2 TSB18 OCNL LTGICCA OHD TS OHD MOV E P0001
14837KMSN MSN20110608222515106/08/11 22:25:31  5-MIN KMSN 090425Z 05005KT 10SM -TSRA SCT065 BKN120 19/18 A2984 940 90 1700 050/05 RMK AO2 TSB18 OCNL LTGICCA OHD TS OHD MOV E P0001
14837KMSN MSN20110608223015106/08/11 22:30:31  5-MIN KMSN 090430Z 34005KT 10SM -TSRA SCT060 SCT120 19/18 A2983 950 90 1700 340/05 RMK AO2 TSB18 OCNL LTGICCA OHD TS OHD MOV E P0001
14837KMSN MSN20110608223515106/08/11 22:35:31  5-MIN KMSN 090435Z 00000KT 10SM -TSRA SCT060 SCT120 19/18 A2983 950 93 1700 000/00 RMK AO2 TSB18 OCNL LTGICCA OHD TS OHD MOV E P0001
14837KMSN MSN20110608224013906/08/11 22:40:31  5-MIN KMSN 090440Z 00000KT 10SM FEW060 SCT120 19/18 A2984 940 90 1700 000/00 RMK AO2 TSB18E40RAE36 OCNL LTG DSNT E P0001
14837KMSN MSN20110608224513906/08/11 22:45:31  5-MIN KMSN 090445Z 36003KT 10SM FEW060 SCT120 19/18 A2985 930 90 1700 360/03 RMK AO2 TSB18E40RAE36 OCNL LTG DSNT E P0001
14837KMSN MSN20110608225015506/08/11 22:50:31  5-MIN KMSN 090450Z 01004KT 9SM FEW060 SCT120 19/18 A2985 930 93 1600 010/04 RMK AO2 TSB18E40RAE36 SLP102 OCNL LTG DSNT E P0001 T01890178
14837KMSN MSN20110608225509506/08/11 22:55:31  5-MIN KMSN 090455Z 00000KT 9SM FEW120 19/18 A2985 930 93 1600 000/00 RMK AO2
14837KMSN MSN20110608230009506/08/11 23:00:31  5-MIN KMSN 090500Z 33003KT 8SM FEW100 19/18 A2985 930 93 1600 330/03 RMK AO2
14837KMSN MSN20110608230511106/08/11 23:05:31  5-MIN KMSN 090505Z 34003KT 7SM -RA FEW055 19/18 A2985 930 93 1600 350/03 RMK AO2 RAB02 P0000
14837KMSN MSN20110608231011106/08/11 23:10:31  5-MIN KMSN 090510Z 00000KT 7SM -RA FEW046 19/18 A2986 920 97 1600 000/00 RMK AO2 RAB02 P0000
14837KMSN MSN20110608231511106/08/11 23:15:31  5-MIN KMSN 090515Z 00000KT 9SM -RA FEW055 19/18 A2986 920 93 1600 000/00 RMK AO2 RAB02 P0000
14837KMSN MSN20110608232011006/08/11 23:20:31  5-MIN KMSN 090520Z 00000KT 9SM FEW055 19/18 A2986 920 93 1600 000/00 RMK AO2 RAB02E20 P0000
14837KMSN MSN20110608232511006/08/11 23:25:31  5-MIN KMSN 090525Z 00000KT 8SM FEW055 19/18 A2986 920 93 1600 000/00 RMK AO2 RAB02E20 P0000
14837KMSN MSN20110608233011006/08/11 23:30:31  5-MIN KMSN 090530Z 00000KT 7SM FEW032 18/18 A2986 920 96 1600 000/00 RMK AO2 RAB02E20 P0000
14837KMSN MSN20110608233511306/08/11 23:35:31  5-MIN KMSN 090535Z 00000KT 5SM BR FEW100 19/18 A2987 910 93 1600 000/00 RMK AO2 RAB02E20 P0000
14837KMSN MSN20110608234011306/08/11 23:40:31  5-MIN KMSN 090540Z 00000KT 5SM BR FEW100 19/18 A2986 920 93 1600 000/00 RMK AO2 RAB02E20 P0000
14837KMSN MSN20110608234511306/08/11 23:45:31  5-MIN KMSN 090545Z 00000KT 4SM BR FEW100 18/18 A2987 910 96 1600 000/00 RMK AO2 RAB02E20 P0000
14837KMSN MSN20110608235015806/08/11 23:50:31  5-MIN KMSN 090550Z 00000KT 4SM BR FEW100 18/18 A2987 910 96 1600 000/00 RMK AO2 RAB02E20 SLP109 P0000 60048 T01830178 10294 20183 403060183
14837KMSN MSN20110608235509506/08/11 23:55:31  5-MIN KMSN 090555Z 00000KT 4SM BR CLR 18/18 A2987 910 96 1600 000/00 RMK AO2
14837KMSN MSN20110609000009506/09/11 00:00:32  5-MIN KMSN 090600Z 00000KT 5SM BR CLR 18/18 A2987 910 96 1600 000/00 RMK AO2
14837KMSN MSN20110609140509506/09/11 14:05:31  5-MIN KMSN 092005Z 05010KT 10SM OVC019 14/10 A3007 720 74 900 050/10 RMK AO2
14837KMSN MSN20110609141009506/09/11 14:10:31  5-MIN KMSN 092010Z 05011KT 10SM OVC019 14/10 A3007 730 74 900 050/11 RMK AO2
14837KMSN MSN20110609141509506/09/11 14:15:31  5-MIN KMSN 092015Z 05009KT 10SM OVC019 14/10 A3007 730 74 900 050/09 RMK AO2
14837KMSN MSN20110609142009506/09/11 14:20:31  5-MIN KMSN 092020Z 05009KT 10SM OVC019 14/10 A3007 720 74 900 050/09 RMK AO2
14837KMSN MSN20110609142509506/09/11 14:25:31  5-MIN KMSN 092025Z 05009KT 10SM OVC019 14/10 A3007 720 74 900 060/09 RMK AO2
14837KMSN MSN20110609143009506/09/11 14:30:31  5-MIN KMSN 092030Z 05010KT 10SM OVC021 14/10 A3007 720 74 900 050/10 RMK AO2
14837KMSN MSN20110609143509506/09/11 14:35:31  5-MIN KMSN 092035Z 04008KT 10SM OVC021 14/10 A3008 720 74 900 050/08 RMK AO2
14837KMSN MSN20110609144009506/09/11 14:40:31  5-MIN KMSN 092040Z 05008KT 10SM OVC021 14/10 A3008 720 74 900 060/08 RMK AO2
14837KMSN MSN20110609144509506/09/11 14:45:31  5-MIN KMSN 092045Z 07007KT 10SM OVC021 14/10 A3008 720 74 900 070/07 RMK AO2
14837KMSN MSN20110609145012406/09/11 14:50:31  5-MIN KMSN 092050Z 05008KT 10SM OVC021 15/10 A3008 720 72 900 060/08 RMK AO2 SLP184 60000 T01500100 51009
14837KMSN MSN20110609145509506/09/11 14:55:31  5-MIN KMSN 092055Z 06008KT 10SM OVC021 14/10 A3008 720 74 900 060/08 RMK AO2
14837KMSN MSN20110609150009506/09/11 15:00:31  5-MIN KMSN 092100Z 08009KT 10SM OVC021 14/10 A3008 720 74 900 080/09 RMK AO2
14837KMSN MSN20110609150509506/09/11 15:05:31  5-MIN KMSN 092105Z 07007KT 10SM OVC021 14/10 A3008 720 74 900 070/07 RMK AO2
14837KMSN MSN20110609151009506/09/11 15:10:31  5-MIN KMSN 092110Z 06008KT 10SM OVC021 15/10 A3009 710 72 900 060/08 RMK AO2
14837KMSN MSN20110609151509506/09/11 15:15:31  5-MIN KMSN 092115Z 07009KT 10SM OVC021 14/10 A3008 710 74 900 080/09 RMK AO2
14837KMSN MSN20110609152009506/09/11 15:20:31  5-MIN KMSN 092120Z 07009KT 10SM OVC021 14/09 A3009 710 72 900 070/09 RMK AO2
14837KMSN MSN20110609152509506/09/11 15:25:31  5-MIN KMSN 092125Z 07009KT 10SM OVC023 14/09 A3008 710 72 900 070/09 RMK AO2
14837KMSN MSN20110609153009506/09/11 15:30:31  5-MIN KMSN 092130Z 07009KT 10SM OVC023 14/09 A3008 720 72 900 070/09 RMK AO2
14837KMSN MSN20110609153509506/09/11 15:35:31  5-MIN KMSN 092135Z 07007KT 10SM OVC023 14/09 A3008 710 72 900 070/07 RMK AO2
14837KMSN MSN20110609154009506/09/11 15:40:31  5-MIN KMSN 092140Z 08008KT 10SM OVC023 14/09 A3008 720 72 900 080/08 RMK AO2
14837KMSN MSN20110609154509506/09/11 15:45:31  5-MIN KMSN 092145Z 06006KT 10SM OVC023 14/10 A3008 720 74 900 070/06 RMK AO2
14837KMSN MSN20110609155011206/09/11 15:50:31  5-MIN KMSN 092150Z 06009KT 10SM OVC023 14/10 A3008 710 74 900 060/09 RMK AO2 SLP186 T01440100
14837KMSN MSN20110609155511806/09/11 15:55:31  5-MIN KMSN 092155Z 05011KT 10SM -RA BKN023 OVC026 14/09 A3008 720 72 900 060/11 RMK AO2 RAB55 P0000
14837KMSN MSN20110609160012006/09/11 16:00:31  5-MIN KMSN 092200Z 07009KT 10SM -RA BKN023 OVC026 14/09 A3008 720 72 900 070/09 RMK AO2 RAB2155 P0000
14837KMSN MSN20110609160512006/09/11 16:05:31  5-MIN KMSN 092205Z 06008KT 10SM -RA BKN023 OVC026 14/10 A3009 710 74 900 060/08 RMK AO2 RAB2155 P0000
14837KMSN MSN20110609161011906/09/11 16:10:31  5-MIN KMSN 092210Z 03009KT 10SM BKN023 OVC026 14/10 A3009 710 74 800 030/09 RMK AO2 RAB2155E09 P0000
14837KMSN MSN20110609161511906/09/11 16:15:31  5-MIN KMSN 092215Z 03008KT 10SM BKN023 OVC026 14/09 A3009 710 74 800 030/08 RMK AO2 RAB2155E09 P0000
14837KMSN MSN20110609162011206/09/11 16:20:31  5-MIN KMSN 092220Z 04011KT 10SM OVC023 14/09 A3008 710 72 900 040/11 RMK AO2 RAB2155E09 P0000
14837KMSN MSN20110609162511206/09/11 16:25:31  5-MIN KMSN 092225Z 05009KT 10SM OVC023 14/09 A3008 720 72 900 050/09 RMK AO2 RAB2155E09 P0000
14837KMSN MSN20110609163011206/09/11 16:30:31  5-MIN KMSN 092230Z 04009KT 10SM OVC023 14/10 A3008 720 74 900 050/09 RMK AO2 RAB2155E09 P0000
14837KMSN MSN20110609163511906/09/11 16:35:31  5-MIN KMSN 092235Z 05011KT 10SM BKN023 OVC027 14/10 A3008 720 74 900 050/11 RMK AO2 RAB2155E09 P0000
14837KMSN MSN20110609164011906/09/11 16:40:31  5-MIN KMSN 092240Z 06011KT 10SM BKN023 OVC027 14/09 A3008 720 72 900 060/11 RMK AO2 RAB2155E09 P0000
14837KMSN MSN20110609164511206/09/11 16:45:31  5-MIN KMSN 092245Z 06008KT 10SM OVC025 14/09 A3008 720 72 900 060/08 RMK AO2 RAB2155E09 P0000
14837KMSN MSN20110609165012906/09/11 16:50:31  5-MIN KMSN 092250Z 07011KT 10SM OVC025 14/09 A3008 720 74 800 080/11 RMK AO2 RAB2155E09 SLP185 P0000 T01390094
14837KMSN MSN20110609165509506/09/11 16:55:31  5-MIN KMSN 092255Z 08011KT 10SM OVC025 14/09 A3007 720 74 800 080/11 RMK AO2
14837KMSN MSN20110609170009506/09/11 17:00:31  5-MIN KMSN 092300Z 07011KT 10SM OVC025 14/09 A3007 730 72 900 070/11 RMK AO2
14837KMSN MSN20110609170509506/09/11 17:05:31  5-MIN KMSN 092305Z 06011KT 10SM OVC025 14/09 A3006 730 72 900 060/11 RMK AO2
14837KMSN MSN20110609171009506/09/11 17:10:31  5-MIN KMSN 092310Z 07011KT 10SM OVC025 14/09 A3006 730 72 900 070/11 RMK AO2
14837KMSN MSN20110609171509506/09/11 17:15:31  5-MIN KMSN 092315Z 09012KT 10SM OVC025 14/09 A3006 740 72 900 090/12 RMK AO2
14837KMSN MSN20110609172009506/09/11 17:20:31  5-MIN KMSN 092320Z 08013KT 10SM OVC025 14/09 A3005 740 74 800 090/13 RMK AO2
14837KMSN MSN20110609172509506/09/11 17:25:31  5-MIN KMSN 092325Z 09013KT 10SM OVC025 14/09 A3005 740 71 800 090/13 RMK AO2
14837KMSN MSN20110609173009506/09/11 17:30:31  5-MIN KMSN 092330Z 09011KT 10SM OVC025 14/09 A3006 730 71 800 090/11 RMK AO2
14837KMSN MSN20110609173509506/09/11 17:35:31  5-MIN KMSN 092335Z 07008KT 10SM OVC025 14/09 A3006 740 74 800 070/08 RMK AO2
14837KMSN MSN20110609174010206/09/11 17:40:31  5-MIN KMSN 092340Z 08010KT 10SM SCT022 OVC025 14/09 A3006 740 74 800 090/10 RMK AO2
14837KMSN MSN20110609174510206/09/11 17:45:31  5-MIN KMSN 092345Z 08008KT 10SM SCT022 OVC025 14/09 A3006 740 74 800 080/08 RMK AO2
14837KMSN MSN20110609175014306/09/11 17:50:31  5-MIN KMSN 092350Z 09010KT 10SM SCT020 OVC027 14/09 A3006 730 74 800 090/10 RMK AO2 SLP180 60000 T01390094 10156 20139 53005
14837KMSN MSN20110609175510206/09/11 17:55:31  5-MIN KMSN 092355Z 08009KT 10SM SCT020 OVC027 13/09 A3006 730 77 700 080/09 RMK AO2
14837KMSN MSN20110609180010206/09/11 18:00:31  5-MIN KMSN 100000Z 08008KT 10SM SCT020 OVC027 13/09 A3007 730 77 700 090/08 RMK AO2
14837KMSN MSN20110609180510206/09/11 18:05:31  5-MIN KMSN 100005Z 11008KT 10SM SCT020 OVC027 13/09 A3007 720 77 700 110/08 RMK AO2
14837KMSN MSN20110609181010206/09/11 18:10:31  5-MIN KMSN 100010Z 11008KT 10SM SCT020 OVC027 13/09 A3007 730 77 700 110/08 RMK AO2
14837KMSN MSN20110609181510206/09/11 18:15:31  5-MIN KMSN 100015Z 11009KT 10SM SCT020 OVC029 13/09 A3006 730 77 700 110/09 RMK AO2
14837KMSN MSN20110609182010206/09/11 18:20:31  5-MIN KMSN 100020Z 09011KT 10SM SCT020 OVC029 13/09 A3005 740 77 800 090/11 RMK AO2
14837KMSN MSN20110609182510906/09/11 18:25:31  5-MIN KMSN 100025Z 08009KT 10SM FEW020 OVC029 13/09 A3005 750 77 800 080/09 RMK AO2 PRESFR
14837KMSN MSN20110609183010206/09/11 18:30:31  5-MIN KMSN 100030Z 09010KT 10SM FEW020 OVC029 13/09 A3004 750 77 800 090/10 RMK AO2
14837KMSN MSN20110609183510906/09/11 18:35:31  5-MIN KMSN 100035Z 09011KT 10SM FEW020 OVC029 13/09 A3003 760 77 800 090/11 RMK AO2 PRESFR
14837KMSN MSN20110609184010906/09/11 18:40:31  5-MIN KMSN 100040Z 08012KT 10SM FEW018 OVC029 13/09 A3003 770 77 800 080/12 RMK AO2 PRESFR
14837KMSN MSN20110609184509506/09/11 18:45:31  5-MIN KMSN 100045Z 08012KT 10SM OVC029 13/09 A3002 770 77 800 080/12 RMK AO2
14837KMSN MSN20110609185011906/09/11 18:50:31  5-MIN KMSN 100050Z 07013KT 10SM OVC029 13/09 A3002 780 80 700 070/13 RMK AO2 PRESFR SLP165 T01280094
14837KMSN MSN20110609185510206/09/11 18:55:31  5-MIN KMSN 100055Z 08014KT 10SM OVC029 13/09 A3000 790 80 700 080/14 RMK AO2 PRESFR
14837KMSN MSN20110609190010806/09/11 19:00:31  5-MIN KMSN 100100Z 10014G19KT 10SM OVC029 13/09 A2999 800 77 800 100/14G19 RMK AO2 PRESFR
14837KMSN MSN20110609190509506/09/11 19:05:31  5-MIN KMSN 100105Z 09012KT 10SM BKN029 13/09 A2999 800 77 800 100/12 RMK AO2
14837KMSN MSN20110609191009506/09/11 19:10:31  5-MIN KMSN 100110Z 11014KT 10SM BKN029 13/09 A3000 790 77 800 110/14 RMK AO2
14837KMSN MSN20110609191510106/09/11 19:15:31  5-MIN KMSN 100115Z 10009G19KT 10SM BKN029 13/09 A3002 780 77 700 100/09G19 RMK AO2
14837KMSN MSN20110609192010206/09/11 19:20:31  5-MIN KMSN 100120Z 07007KT 10SM BKN029 13/09 A3003 760 77 700 080/07 RMK AO2 PRESRR
14837KMSN MSN20110609192509506/09/11 19:25:31  5-MIN KMSN 100125Z 08008KT 10SM BKN029 13/09 A3003 760 77 700 080/08 RMK AO2
14837KMSN MSN20110609193009506/09/11 19:30:31  5-MIN KMSN 100130Z 06010KT 10SM BKN031 13/09 A3004 760 77 700 070/10 RMK AO2
14837KMSN MSN20110609193509506/09/11 19:35:31  5-MIN KMSN 100135Z 06008KT 10SM OVC031 13/09 A3004 750 77 700 070/08 RMK AO2
14837KMSN MSN20110609194009506/09/11 19:40:31  5-MIN KMSN 100140Z 07008KT 10SM OVC031 13/09 A3003 760 77 700 070/08 RMK AO2
14837KMSN MSN20110609194510106/09/11 19:45:31  5-MIN KMSN 100145Z 08009G16KT 10SM OVC031 13/08 A3004 760 74 700 080/09G16 RMK AO2
14837KMSN MSN20110609195011806/09/11 19:50:31  5-MIN KMSN 100150Z 08010G16KT 10SM OVC033 13/08 A3004 760 74 700 080/10G16 RMK AO2 SLP172 T01280083
14837KMSN MSN20110609195509506/09/11 19:55:31  5-MIN KMSN 100155Z 08009KT 10SM OVC033 13/08 A3003 760 74 700 080/09 RMK AO2
14837KMSN MSN20110609200009506/09/11 20:00:31  5-MIN KMSN 100200Z 07009KT 10SM OVC033 13/08 A3005 750 74 700 070/09 RMK AO2
14837KMSN MSN20110609200509506/09/11 20:05:31  5-MIN KMSN 100205Z 06011KT 10SM OVC033 13/08 A3005 750 74 700 070/11 RMK AO2
14837KMSN MSN20110609201009506/09/11 20:10:31  5-MIN KMSN 100210Z 07009KT 10SM OVC033 13/08 A3005 740 71 700 070/09 RMK AO2
14837KMSN MSN20110609201509506/09/11 20:15:31  5-MIN KMSN 100215Z 08011KT 10SM OVC033 13/08 A3005 750 71 700 080/11 RMK AO2
14837KMSN MSN20110609202009506/09/11 20:20:31  5-MIN KMSN 100220Z 07009KT 10SM OVC033 13/08 A3005 750 71 700 080/09 RMK AO2
14837KMSN MSN20110609202509506/09/11 20:25:31  5-MIN KMSN 100225Z 07008KT 10SM OVC033 13/08 A3005 740 71 700 070/08 RMK AO2
14837KMSN MSN20110609203009506/09/11 20:30:31  5-MIN KMSN 100230Z 07008KT 10SM OVC033 13/07 A3006 740 69 700 070/08 RMK AO2
14837KMSN MSN20110609203509506/09/11 20:35:31  5-MIN KMSN 100235Z 08010KT 10SM OVC035 13/07 A3006 740 69 700 080/10 RMK AO2
14837KMSN MSN20110609204009506/09/11 20:40:31  5-MIN KMSN 100240Z 08009KT 10SM OVC035 13/07 A3006 730 69 700 080/09 RMK AO2
14837KMSN MSN20110609204509506/09/11 20:45:31  5-MIN KMSN 100245Z 07005KT 10SM OVC037 13/07 A3006 730 69 700 070/05 RMK AO2
14837KMSN MSN20110609205011806/09/11 20:50:31  5-MIN KMSN 100250Z 07009KT 10SM OVC037 13/07 A3007 730 69 700 070/09 RMK AO2 SLP183 T01280072 58005
14837KMSN MSN20110609205509506/09/11 20:55:31  5-MIN KMSN 100255Z 08007KT 10SM OVC037 13/07 A3007 730 69 700 080/07 RMK AO2
14837KMSN MSN20110609210009506/09/11 21:00:31  5-MIN KMSN 100300Z 09007KT 10SM OVC037 13/07 A3006 730 69 700 090/07 RMK AO2
14837KMSN MSN20110609210509506/09/11 21:05:31  5-MIN KMSN 100305Z 08007KT 10SM OVC037 13/07 A3006 740 69 700 090/07 RMK AO2
14837KMSN MSN20110609211009506/09/11 21:10:31  5-MIN KMSN 100310Z 09009KT 10SM OVC037 13/07 A3006 740 69 700 090/09 RMK AO2
14837KMSN MSN20110609211509506/09/11 21:15:31  5-MIN KMSN 100315Z 09008KT 10SM OVC035 13/07 A3006 740 69 700 090/08 RMK AO2
14837KMSN MSN20110609212009506/09/11 21:20:31  5-MIN KMSN 100320Z 08009KT 10SM OVC035 13/07 A3005 740 69 700 080/09 RMK AO2
14837KMSN MSN20110609212509506/09/11 21:25:31  5-MIN KMSN 100325Z 09009KT 10SM OVC033 13/07 A3004 750 69 700 090/09 RMK AO2
14837KMSN MSN20110609213009506/09/11 21:30:31  5-MIN KMSN 100330Z 10008KT 10SM OVC033 13/07 A3004 750 69 700 100/08 RMK AO2
14837KMSN MSN20110609213509506/09/11 21:35:31  5-MIN KMSN 100335Z 10009KT 10SM OVC033 13/07 A3004 750 69 700 100/09 RMK AO2
14837KMSN MSN20110609214009506/09/11 21:40:31  5-MIN KMSN 100340Z 08009KT 10SM OVC033 13/07 A3004 760 69 700 080/09 RMK AO2
14837KMSN MSN20110609214509506/09/11 21:45:31  5-MIN KMSN 100345Z 08008KT 10SM OVC033 13/07 A3004 750 69 700 080/08 RMK AO2
14837KMSN MSN20110609215011206/09/11 21:50:31  5-MIN KMSN 100350Z 09009KT 10SM OVC033 13/07 A3004 750 69 700 090/09 RMK AO2 SLP173 T01280072
14837KMSN MSN20110609215509506/09/11 21:55:31  5-MIN KMSN 100355Z 08008KT 10SM OVC033 13/07 A3004 750 69 700 080/08 RMK AO2
14837KMSN MSN20110609220009506/09/11 22:00:31  5-MIN KMSN 100400Z 07012KT 10SM OVC033 13/07 A3005 750 66 700 070/12 RMK AO2
14837KMSN MSN20110609220509506/09/11 22:05:31  5-MIN KMSN 100405Z 07009KT 10SM OVC033 13/06 A3006 740 63 700 080/09 RMK AO2
14837KMSN MSN20110609221010106/09/11 22:10:31  5-MIN KMSN 100410Z 08009G17KT 10SM OVC033 13/06 A3006 740 63 700 080/09G17 RMK AO2
14837KMSN MSN20110609221510106/09/11 22:15:31  5-MIN KMSN 100415Z 07010G17KT 10SM OVC033 12/06 A3006 740 66 600 080/10G17 RMK AO2
14837KMSN MSN20110609222009506/09/11 22:20:31  5-MIN KMSN 100420Z 07010KT 10SM OVC033 13/06 A3006 730 63 700 070/10 RMK AO2
14837KMSN MSN20110609222509506/09/11 22:25:31  5-MIN KMSN 100425Z 08011KT 10SM OVC033 12/06 A3007 730 66 600 080/11 RMK AO2
14837KMSN MSN20110609223009506/09/11 22:30:31  5-MIN KMSN 100430Z 08009KT 10SM OVC033 12/06 A3007 730 66 600 080/09 RMK AO2
14837KMSN MSN20110609223509506/09/11 22:35:31  5-MIN KMSN 100435Z 07006KT 10SM OVC033 12/06 A3007 730 66 600 070/06 RMK AO2
14837KMSN MSN20110609224009506/09/11 22:40:31  5-MIN KMSN 100440Z 06005KT 10SM OVC033 12/07 A3007 730 68 600 060/05 RMK AO2
14837KMSN MSN20110609224509506/09/11 22:45:31  5-MIN KMSN 100445Z 04009KT 10SM OVC033 12/06 A3007 730 66 600 040/09 RMK AO2
14837KMSN MSN20110609225011206/09/11 22:50:31  5-MIN KMSN 100450Z 04007KT 10SM OVC033 12/06 A3008 720 66 600 050/07 RMK AO2 SLP187 T01220061
14837KMSN MSN20110609225509506/09/11 22:55:31  5-MIN KMSN 100455Z 02007KT 10SM OVC033 12/06 A3008 720 66 600 020/07 RMK AO2
14837KMSN MSN20110609230009506/09/11 23:00:31  5-MIN KMSN 100500Z 03009KT 10SM OVC031 12/06 A3009 710 66 600 040/09 RMK AO2
14837KMSN MSN20110609230509506/09/11 23:05:31  5-MIN KMSN 100505Z 03005KT 10SM OVC031 12/06 A3009 710 66 600 030/05 RMK AO2
14837KMSN MSN20110609231009506/09/11 23:10:31  5-MIN KMSN 100510Z 01006KT 10SM OVC031 12/06 A3009 710 66 600 020/06 RMK AO2
14837KMSN MSN20110609231509506/09/11 23:15:31  5-MIN KMSN 100515Z 36004KT 10SM OVC029 12/06 A3010 700 66 600 360/04 RMK AO2
14837KMSN MSN20110609232009506/09/11 23:20:31  5-MIN KMSN 100520Z 32003KT 10SM OVC029 12/07 A3010 700 68 600 320/03 RMK AO2
14837KMSN MSN20110609232509506/09/11 23:25:31  5-MIN KMSN 100525Z 01004KT 10SM OVC029 12/07 A3010 700 68 600 010/04 RMK AO2
14837KMSN MSN20110609233009506/09/11 23:30:31  5-MIN KMSN 100530Z 04007KT 10SM OVC029 12/07 A3009 710 68 600 040/07 RMK AO2
14837KMSN MSN20110609233509506/09/11 23:35:31  5-MIN KMSN 100535Z 04009KT 10SM OVC029 12/06 A3008 720 66 600 050/09 RMK AO2
14837KMSN MSN20110609234010206/09/11 23:40:31  5-MIN KMSN 100540Z 06007KT 10SM OVC029 12/06 A3008 720 66 600 060/07 RMK AO2 PRESFR
14837KMSN MSN20110609234510206/09/11 23:45:31  5-MIN KMSN 100545Z 06007KT 10SM OVC031 12/07 A3007 730 68 600 060/07 RMK AO2 PRESFR
14837KMSN MSN20110609235014006/09/11 23:50:31  5-MIN KMSN 100550Z 07007KT 10SM OVC031 12/06 A3007 730 66 600 070/07 RMK AO2 SLP183 T01220061 10133 20122 401890122 53003
14837KMSN MSN20110609235509506/09/11 23:55:31  5-MIN KMSN 100555Z 04008KT 10SM OVC033 12/06 A3007 720 66 600 040/08 RMK AO2
14837KMSN MSN20110610000009506/10/11 00:00:32  5-MIN KMSN 100600Z 03008KT 10SM OVC030 12/07 A3007 720 68 600 040/08 RMK AO2
14837KMSN MSN20110610000510206/10/11 00:05:31  5-MIN KMSN 100605Z 04006KT 10SM BKN028 OVC034 12/07 A3007 730 68 600 050/06 RMK AO2
14837KMSN MSN20110610001010206/10/11 00:10:31  5-MIN KMSN 100610Z 04008KT 10SM BKN028 OVC034 12/07 A3007 720 68 600 040/08 RMK AO2
14837KMSN MSN20110610001510206/10/11 00:15:31  5-MIN KMSN 100615Z 04009KT 10SM BKN028 OVC034 12/07 A3007 730 68 600 050/09 RMK AO2
14837KMSN MSN20110610002010106/10/11 00:20:31  5-MIN KMSN 100620Z 03011G16KT 10SM OVC028 12/07 A3006 730 68 600 030/11G16 RMK AO2
14837KMSN MSN20110610002509506/10/11 00:25:31  5-MIN KMSN 100625Z 04011KT 10SM OVC028 12/07 A3006 740 68 600 050/11 RMK AO2
14837KMSN MSN20110610003009506/10/11 00:30:31  5-MIN KMSN 100630Z 05012KT 10SM OVC028 12/07 A3005 740 68 600 050/12 RMK AO2
14837KMSN MSN20110610003510906/10/11 00:35:31  5-MIN KMSN 100635Z 06011KT 10SM BKN028 OVC090 12/07 A3004 750 68 600 060/11 RMK AO2 PRESFR
14837KMSN MSN20110610004011806/10/11 00:40:31  5-MIN KMSN 100640Z 06010KT 10SM -RA BKN028 OVC085 12/07 A3004 750 74 600 060/10 RMK AO2 RAB36 P0000
14837KMSN MSN20110610004511706/10/11 00:45:31  5-MIN KMSN 100645Z 04006KT 9SM -RA SCT028 OVC085 12/07 A3005 750 74 600 040/06 RMK AO2 RAB36 P0000
14837KMSN MSN20110610005014106/10/11 00:50:31  5-MIN KMSN 100650Z 03010KT 9SM -RA FEW024 SCT030 OVC085 12/07 A3005 750 74 600 030/10 RMK AO2 RAB36 SLP176 P0001 T01170072
14837KMSN MSN20110610005511806/10/11 00:55:31  5-MIN KMSN 100655Z 04010G14KT 10SM -RA FEW024 OVC085 11/08 A3004 750 80 500 040/10G14 RMK AO2 P0000
14837KMSN MSN20110610010011206/10/11 01:00:31  5-MIN KMSN 100700Z 05010KT 10SM -RA FEW048 OVC085 11/08 A3003 760 80 500 050/10 RMK AO2 P0000
14837KMSN MSN20110610010511206/10/11 01:05:31  5-MIN KMSN 100705Z 07006KT 10SM -RA SCT041 OVC085 11/08 A3004 760 80 500 070/06 RMK AO2 P0000
14837KMSN MSN20110610011011906/10/11 01:10:31  5-MIN KMSN 100710Z 06006KT 10SM -RA FEW024 BKN039 OVC085 11/08 A3004 750 80 500 060/06 RMK AO2 P0000
14837KMSN MSN20110610011511906/10/11 01:15:31  5-MIN KMSN 100715Z 06005KT 10SM -RA SCT024 BKN039 OVC085 11/08 A3004 750 80 500 060/05 RMK AO2 P0000
14837KMSN MSN20110610012011906/10/11 01:20:31  5-MIN KMSN 100720Z 05006KT 10SM -RA FEW024 BKN039 OVC080 11/08 A3004 750 80 500 050/06 RMK AO2 P0000
14837KMSN MSN20110610012511906/10/11 01:25:31  5-MIN KMSN 100725Z 05004KT 10SM -RA FEW024 SCT039 OVC080 11/08 A3005 750 83 500 060/04 RMK AO2 P0000
14837KMSN MSN20110610013011906/10/11 01:30:31  5-MIN KMSN 100730Z 00000KT 10SM -RA SCT024 SCT039 OVC080 11/08 A3005 740 83 500 000/00 RMK AO2 P0000
14837KMSN MSN20110610013511906/10/11 01:35:31  5-MIN KMSN 100735Z 00000KT 10SM -RA SCT024 BKN037 OVC080 11/08 A3005 740 83 500 000/00 RMK AO2 P0001
14837KMSN MSN20110610014011206/10/11 01:40:31  5-MIN KMSN 100740Z 01004KT 10SM -RA BKN024 OVC080 11/08 A3006 740 83 500 010/04 RMK AO2 P0001
14837KMSN MSN20110610014511206/10/11 01:45:31  5-MIN KMSN 100745Z 00000KT 10SM -RA BKN024 OVC080 11/08 A3007 730 83 500 000/00 RMK AO2 P0001
14837KMSN MSN20110610015013006/10/11 01:50:31  5-MIN KMSN 100750Z 00000KT 5SM RA BR BKN024 OVC080 11/08 A3007 730 86 400 000/00 RMK AO2 SLP184 P0001 T01060083
14837KMSN MSN20110610015511006/10/11 01:55:31  5-MIN KMSN 100755Z 00000KT 2 1/2SM RA BR OVC024 11/09 A3007 730 89 400 000/00 RMK AO2 P0001
14837KMSN MSN20110610020010606/10/11 02:00:31  5-MIN KMSN 100800Z 07003KT 4SM RA BR OVC024 11/09 A3007 730 89 400 070/03 RMK AO2 P0003
14837KMSN MSN20110610020510706/10/11 02:05:31  5-MIN KMSN 100805Z 08005KT 4SM +RA BR OVC024 11/09 A3006 740 89 400 080/05 RMK AO2 P0006
14837KMSN MSN20110610021011306/10/11 02:10:31  5-MIN KMSN 100810Z 09006KT 4SM RA BR OVC024 11/09 A3005 750 89 400 100/06 RMK AO2 PRESFR P0009
14837KMSN MSN20110610021510606/10/11 02:15:31  5-MIN KMSN 100815Z 11005KT 4SM RA BR OVC026 11/09 A3005 740 89 400 110/05 RMK AO2 P0011
14837KMSN MSN20110610022012006/10/11 02:20:31  5-MIN KMSN 100820Z 10009KT 4SM RA BR FEW024 OVC029 11/09 A3003 760 89 400 110/09 RMK AO2 PRESFR P0012
14837KMSN MSN20110610022512006/10/11 02:25:31  5-MIN KMSN 100825Z 11010KT 5SM RA BR FEW024 OVC031 11/09 A3002 770 89 500 110/10 RMK AO2 PRESFR P0014
14837KMSN MSN20110610023011306/10/11 02:30:31  5-MIN KMSN 100830Z 09008KT 4SM RA BR BKN031 OVC045 10/09 A3002 770 93 400 100/08 RMK AO2 P0015
14837KMSN MSN20110610023512006/10/11 02:35:31  5-MIN KMSN 100835Z 09011KT 4SM RA BR BKN031 OVC045 10/08 A3000 790 89 400 090/11 RMK AO2 PRESFR P0017
14837KMSN MSN20110610024011306/10/11 02:40:31  5-MIN KMSN 100840Z 11010KT 4SM RA BR BKN031 OVC050 10/08 A3000 790 89 400 110/10 RMK AO2 P0018
14837KMSN MSN20110610024511306/10/11 02:45:31  5-MIN KMSN 100845Z 11008KT 4SM RA BR BKN031 OVC041 10/08 A3000 790 89 400 120/08 RMK AO2 P0019
14837KMSN MSN20110610025014206/10/11 02:50:31  5-MIN KMSN 100850Z 10008KT 4SM RA BR OVC031 10/08 A2999 800 89 400 100/08 RMK AO2 PRESFR SLP155 P0020 60023 T01000083 56001
14837KMSN MSN20110610025511406/10/11 02:55:31  5-MIN KMSN 100855Z 08007KT 4SM -RA BR FEW020 OVC033 10/09 A2999 800 93 400 080/07 RMK AO2 P0001
14837KMSN MSN20110610030011406/10/11 03:00:31  5-MIN KMSN 100900Z 05005KT 5SM -RA BR SCT020 OVC033 10/09 A2999 800 93 400 050/05 RMK AO2 P0001
14837KMSN MSN20110610030511406/10/11 03:05:31  5-MIN KMSN 100905Z 07007KT 6SM -RA BR SCT020 OVC031 10/09 A2997 820 93 500 070/07 RMK AO2 P0002
14837KMSN MSN20110610031011706/10/11 03:10:31  5-MIN KMSN 100910Z 08009G14KT 7SM -RA SCT020 OVC029 10/08 A2997 820 89 500 090/09G14 RMK AO2 P0002
14837KMSN MSN20110610031511206/10/11 03:15:31  5-MIN KMSN 100915Z 09011KT 10SM -RA FEW020 BKN029 10/09 A2997 820 93 500 090/11 RMK AO2 P0002
14837KMSN MSN20110610032011806/10/11 03:20:31  5-MIN KMSN 100920Z VRB05G14KT 10SM -RA SCT020 BKN031 10/08 A2998 810 89 400 VRB/05G14 RMK AO2 P0002
14837KMSN MSN20110610032510706/10/11 03:25:31  5-MIN KMSN 100925Z 02007KT 10SM BKN020 10/09 A2999 800 93 400 020/07 RMK AO2 RAE22 P0002
14837KMSN MSN20110610033012106/10/11 03:30:31  5-MIN KMSN 100930Z 04005KT 10SM BKN020 BKN024 10/08 A2999 800 89 400 040/05 RMK AO2 RAE22 PRESRR P0002
14837KMSN MSN20110610033511406/10/11 03:35:31  5-MIN KMSN 100935Z 00000KT 10SM BKN018 10/09 A3001 780 93 400 000/00 RMK AO2 RAE22 PRESRR P0002
14837KMSN MSN20110610034010706/10/11 03:40:31  5-MIN KMSN 100940Z 05003KT 10SM BKN018 10/08 A3001 780 89 400 050/03 RMK AO2 RAE22 P0002
14837KMSN MSN20110610034510706/10/11 03:45:31  5-MIN KMSN 100945Z 09003KT 10SM OVC018 10/08 A3000 790 89 400 090/03 RMK AO2 RAE22 P0002
14837KMSN MSN20110610035012406/10/11 03:50:31  5-MIN KMSN 100950Z 06005KT 10SM OVC018 10/08 A3000 790 89 400 070/05 RMK AO2 RAE22 SLP159 P0002 T01000083
14837KMSN MSN20110610035509506/10/11 03:55:31  5-MIN KMSN 100955Z 08007KT 10SM OVC018 10/08 A2999 800 89 400 080/07 RMK AO2
14837KMSN MSN20110610040009506/10/11 04:00:31  5-MIN KMSN 101000Z 08007KT 10SM OVC018 10/08 A2999 800 89 400 080/07 RMK AO2
14837KMSN MSN20110610040509506/10/11 04:05:31  5-MIN KMSN 101005Z 06005KT 10SM OVC018 10/09 A2999 800 93 400 070/05 RMK AO2
14837KMSN MSN20110610041009506/10/11 04:10:31  5-MIN KMSN 101010Z 07006KT 10SM OVC016 10/09 A2999 800 93 400 070/06 RMK AO2
14837KMSN MSN20110610041510206/10/11 04:15:31  5-MIN KMSN 101015Z 07006KT 10SM BKN016 BKN050 10/08 A2998 810 89 400 070/06 RMK AO2
14837KMSN MSN20110610042011806/10/11 04:20:31  5-MIN KMSN 101020Z 05008KT 10SM -RA BKN016 BKN042 10/08 A2998 810 89 400 050/08 RMK AO2 RAB19 P0000
14837KMSN MSN20110610042511806/10/11 04:25:31  5-MIN KMSN 101025Z 05007KT 10SM -RA SCT016 BKN042 10/09 A2998 810 93 400 050/07 RMK AO2 RAB19 P0000
14837KMSN MSN20110610043012506/10/11 04:30:31  5-MIN KMSN 101030Z 05007KT 10SM -RA FEW016 BKN044 OVC100 10/08 A2997 810 89 400 050/07 RMK AO2 RAB19 P0000
14837KMSN MSN20110610043512506/10/11 04:35:31  5-MIN KMSN 101035Z 07006KT 10SM -RA FEW016 BKN046 OVC100 10/09 A2998 810 93 400 080/06 RMK AO2 RAB19 P0000
14837KMSN MSN20110610044011806/10/11 04:40:31  5-MIN KMSN 101040Z 09005KT 10SM -RA BKN046 OVC100 10/09 A2998 810 93 400 100/05 RMK AO2 RAB19 P0000
14837KMSN MSN20110610044512506/10/11 04:45:31  5-MIN KMSN 101045Z 09004KT 10SM -RA FEW016 BKN044 OVC100 10/09 A2999 800 93 400 090/04 RMK AO2 RAB19 P0000
14837KMSN MSN20110610045013506/10/11 04:50:31  5-MIN KMSN 101050Z 11007KT 10SM -RA SCT014 OVC044 10/09 A2998 810 93 400 110/07 RMK AO2 RAB19 SLP153 P0000 T01000089
14837KMSN MSN20110610045511206/10/11 04:55:31  5-MIN KMSN 101055Z 10005KT 10SM -RA BKN014 OVC046 10/09 A2997 820 93 500 100/05 RMK AO2 P0000
14837KMSN MSN20110610050011206/10/11 05:00:31  5-MIN KMSN 101100Z 09006KT 10SM -RA BKN014 OVC046 10/09 A2997 820 93 500 090/06 RMK AO2 P0001
14837KMSN MSN20110610050511206/10/11 05:05:31  5-MIN KMSN 101105Z 08006KT 10SM -RA BKN012 OVC044 10/09 A2997 820 93 500 080/06 RMK AO2 P0001
14837KMSN MSN20110610051010506/10/11 05:10:31  5-MIN KMSN 101110Z 08006KT 10SM -RA OVC012 10/09 A2996 830 93 500 080/06 RMK AO2 P0001
14837KMSN MSN20110610051510706/10/11 05:15:31  5-MIN KMSN 101115Z 07006KT 10SM OVC012 10/09 A2996 830 93 500 070/06 RMK AO2 RAE13 P0001
14837KMSN MSN20110610052011706/10/11 05:20:31  5-MIN KMSN 101120Z 08007KT 10SM -RA OVC010 10/09 A2995 840 93 500 080/07 RMK AO2 CIG 008V014 P0001
14837KMSN MSN20110610052512406/10/11 05:25:31  5-MIN KMSN 101125Z 07006KT 10SM -RA OVC010 10/09 A2994 840 93 500 070/06 RMK AO2 CIG 006V014 PRESFR P0001
14837KMSN MSN20110610053012406/10/11 05:30:31  5-MIN KMSN 101130Z 08007KT 10SM -RA OVC010 10/09 A2994 850 93 500 080/07 RMK AO2 CIG 006V011 PRESFR P0001
14837KMSN MSN20110610053512306/10/11 05:35:31  5-MIN KMSN 101135Z 09009KT 8SM -RA OVC008 10/09 A2993 860 93 500 090/09 RMK AO2 CIG 006V013 PRESFR P0001
14837KMSN MSN20110610054011606/10/11 05:40:31  5-MIN KMSN 101140Z 08008KT 7SM -RA OVC008 10/09 A2993 860 93 500 080/08 RMK AO2 CIG 006V010 P0001
14837KMSN MSN20110610054512606/10/11 05:45:31  5-MIN KMSN 101145Z 08010KT 6SM -RA BR OVC008 10/09 A2992 870 93 500 080/10 RMK AO2 CIG 005V010 PRESFR P0002
14837KMSN MSN20110610055015106/10/11 05:50:31  5-MIN KMSN 101150Z 09010KT 7SM -RA OVC008 10/09 A2992 870 93 500 090/10 RMK AO2 SLP133 P0002 60028 70028 T01000089 10122 20100 58021
14837KMSN MSN20110610055510406/10/11 05:55:31  5-MIN KMSN 101155Z 08006KT 8SM -RA OVC006 10/09 A2992 860 93 500 090/06 RMK AO2 P0000
14837KMSN MSN20110610060010506/10/11 06:00:31  5-MIN KMSN 101200Z 08008KT 10SM -RA OVC006 10/09 A2992 860 96 500 080/08 RMK AO2 P0000
14837KMSN MSN20110610060510706/10/11 06:05:31  5-MIN KMSN 101205Z 07007KT 10SM OVC006 10/09 A2993 850 93 500 080/07 RMK AO2 RAE03 P0000
14837KMSN MSN20110610061011406/10/11 06:10:31  5-MIN KMSN 101210Z 07007KT 10SM OVC006 11/09 A2994 840 93 600 070/07 RMK AO2 RAE03 PRESRR P0000
14837KMSN MSN20110612223009506/12/11 22:30:31  5-MIN KMSN 130430Z 00000KT 10SM OVC100 15/11 A3013 670 74 900 000/00 RMK AO2
14837KMSN MSN20110612223509506/12/11 22:35:31  5-MIN KMSN 130435Z 00000KT 10SM OVC100 14/11 A3013 670 77 800 000/00 RMK AO2
14837KMSN MSN20110612224009506/12/11 22:40:31  5-MIN KMSN 130440Z 00000KT 10SM OVC100 14/11 A3013 670 77 800 000/00 RMK AO2
14837KMSN MSN20110612224509506/12/11 22:45:31  5-MIN KMSN 130445Z 00000KT 10SM OVC100 14/11 A3013 670 77 800 000/00 RMK AO2
14837KMSN MSN20110612225011206/12/11 22:50:31  5-MIN KMSN 130450Z 00000KT 10SM OVC100 14/11 A3013 670 80 800 000/00 RMK AO2 SLP203 T01440111
14837KMSN MSN20110612225509506/12/11 22:55:31  5-MIN KMSN 130455Z 00000KT 10SM OVC100 14/11 A3013 670 80 800 000/00 RMK AO2
14837KMSN MSN20110612230009506/12/11 23:00:31  5-MIN KMSN 130500Z 00000KT 10SM OVC100 14/11 A3013 670 77 800 000/00 RMK AO2
14837KMSN MSN20110612230509506/12/11 23:05:31  5-MIN KMSN 130505Z 00000KT 10SM OVC100 14/11 A3013 670 80 800 000/00 RMK AO2
14837KMSN MSN20110612231009506/12/11 23:10:31  5-MIN KMSN 130510Z 00000KT 10SM OVC100 14/11 A3013 670 83 700 000/00 RMK AO2
14837KMSN MSN20110612231509506/12/11 23:15:31  5-MIN KMSN 130515Z 00000KT 10SM OVC100 14/11 A3013 670 83 700 000/00 RMK AO2
14837KMSN MSN20110612232009506/12/11 23:20:31  5-MIN KMSN 130520Z 00000KT 10SM OVC100 14/11 A3013 680 83 700 000/00 RMK AO2
14837KMSN MSN20110612232509506/12/11 23:25:31  5-MIN KMSN 130525Z 00000KT 10SM OVC100 14/11 A3013 670 83 700 000/00 RMK AO2
14837KMSN MSN20110612233009506/12/11 23:30:31  5-MIN KMSN 130530Z 00000KT 10SM OVC100 14/11 A3013 670 83 700 000/00 RMK AO2
14837KMSN MSN20110612233509506/12/11 23:35:31  5-MIN KMSN 130535Z 00000KT 10SM OVC100 14/11 A3012 680 83 700 000/00 RMK AO2
14837KMSN MSN20110612234009506/12/11 23:40:31  5-MIN KMSN 130540Z 00000KT 10SM OVC100 14/11 A3013 680 83 700 000/00 RMK AO2
14837KMSN MSN20110612234509506/12/11 23:45:31  5-MIN KMSN 130545Z 00000KT 10SM OVC100 14/11 A3013 670 83 700 000/00 RMK AO2
14837KMSN MSN20110612235014006/12/11 23:50:31  5-MIN KMSN 130550Z 00000KT 10SM OVC100 14/11 A3013 670 83 700 000/00 RMK AO2 SLP201 T01390111 10172 20139 402060072 53006
14837KMSN MSN20110612235509506/12/11 23:55:31  5-MIN KMSN 130555Z 00000KT 10SM OVC100 14/11 A3012 680 83 700 000/00 RMK AO2
14837KMSN MSN20110613000009506/13/11 00:00:32  5-MIN KMSN 130600Z 00000KT 10SM OVC110 14/11 A3012 680 83 700 000/00 RMK AO2
14837KMSN MSN20110613000509506/13/11 00:05:31  5-MIN KMSN 130605Z 00000KT 10SM OVC110 14/11 A3012 680 83 700 000/00 RMK AO2
14837KMSN MSN20110613001009506/13/11 00:10:31  5-MIN KMSN 130610Z 00000KT 10SM OVC110 14/11 A3012 680 83 700 000/00 RMK AO2
14837KMSN MSN20110613001509506/13/11 00:15:31  5-MIN KMSN 130615Z 00000KT 10SM OVC110 14/11 A3012 680 83 700 000/00 RMK AO2
14837KMSN MSN20110613002009506/13/11 00:20:31  5-MIN KMSN 130620Z 00000KT 10SM OVC110 14/11 A3012 680 83 800 000/00 RMK AO2
14837KMSN MSN20110613002509506/13/11 00:25:31  5-MIN KMSN 130625Z 00000KT 10SM OVC110 14/11 A3012 680 83 800 000/00 RMK AO2
14837KMSN MSN20110613003009506/13/11 00:30:31  5-MIN KMSN 130630Z 00000KT 10SM OVC110 14/11 A3012 680 83 800 000/00 RMK AO2
14837KMSN MSN20110613003509506/13/11 00:35:31  5-MIN KMSN 130635Z 00000KT 10SM OVC110 14/11 A3011 690 83 800 000/00 RMK AO2
14837KMSN MSN20110613004009506/13/11 00:40:31  5-MIN KMSN 130640Z 00000KT 10SM OVC100 14/11 A3011 690 83 800 000/00 RMK AO2
14837KMSN MSN20110613004509506/13/11 00:45:31  5-MIN KMSN 130645Z 00000KT 10SM OVC100 14/11 A3011 690 83 800 000/00 RMK AO2
14837KMSN MSN20110613005011206/13/11 00:50:31  5-MIN KMSN 130650Z 00000KT 10SM OVC100 14/11 A3011 690 83 800 000/00 RMK AO2 SLP194 T01390111
14837KMSN MSN20110613005509506/13/11 00:55:31  5-MIN KMSN 130655Z 00000KT 10SM OVC100 14/11 A3011 690 83 800 000/00 RMK AO2
14837KMSN MSN20110613010009506/13/11 01:00:31  5-MIN KMSN 130700Z 00000KT 10SM OVC100 13/11 A3011 690 86 700 000/00 RMK AO2
14837KMSN MSN20110613010509506/13/11 01:05:31  5-MIN KMSN 130705Z 00000KT 10SM OVC100 13/11 A3011 690 86 700 000/00 RMK AO2
14837KMSN MSN20110613011009506/13/11 01:10:31  5-MIN KMSN 130710Z 00000KT 10SM OVC100 13/11 A3011 690 86 700 000/00 RMK AO2
14837KMSN MSN20110613011509506/13/11 01:15:31  5-MIN KMSN 130715Z 00000KT 10SM OVC100 13/11 A3011 690 86 700 000/00 RMK AO2
14837KMSN MSN20110613012009506/13/11 01:20:31  5-MIN KMSN 130720Z 00000KT 10SM OVC100 13/11 A3011 690 86 700 000/00 RMK AO2
14837KMSN MSN20110613012509506/13/11 01:25:31  5-MIN KMSN 130725Z 00000KT 10SM OVC100 13/11 A3012 680 89 600 000/00 RMK AO2
14837KMSN MSN20110613013009506/13/11 01:30:31  5-MIN KMSN 130730Z 00000KT 10SM OVC100 13/12 A3012 680 89 700 000/00 RMK AO2
14837KMSN MSN20110613013509506/13/11 01:35:31  5-MIN KMSN 130735Z 00000KT 10SM OVC100 13/12 A3012 680 89 700 000/00 RMK AO2
14837KMSN MSN20110613014010206/13/11 01:40:31  5-MIN KMSN 130740Z 01003KT 10SM FEW090 OVC100 13/12 A3012 680 89 700 010/03 RMK AO2
14837KMSN MSN20110613014510206/13/11 01:45:31  5-MIN KMSN 130745Z 35003KT 10SM SCT090 OVC100 13/12 A3012 680 89 700 360/03 RMK AO2
14837KMSN MSN20110613015011906/13/11 01:50:31  5-MIN KMSN 130750Z 00000KT 10SM BKN090 OVC100 13/12 A3013 670 89 700 000/00 RMK AO2 SLP201 T01330117
14837KMSN MSN20110613015509506/13/11 01:55:31  5-MIN KMSN 130755Z 34003KT 10SM OVC095 13/12 A3013 670 89 700 340/03 RMK AO2
14837KMSN MSN20110613020009506/13/11 02:00:31  5-MIN KMSN 130800Z 34003KT 10SM OVC095 13/11 A3013 670 86 700 340/03 RMK AO2
14837KMSN MSN20110613020509506/13/11 02:05:31  5-MIN KMSN 130805Z 34003KT 10SM OVC095 13/11 A3013 670 86 700 340/03 RMK AO2
14837KMSN MSN20110613021009506/13/11 02:10:31  5-MIN KMSN 130810Z 00000KT 10SM OVC095 13/11 A3013 670 86 700 000/00 RMK AO2
14837KMSN MSN20110613021509506/13/11 02:15:31  5-MIN KMSN 130815Z 00000KT 10SM OVC100 13/11 A3013 670 86 700 000/00 RMK AO2
14837KMSN MSN20110613022009506/13/11 02:20:31  5-MIN KMSN 130820Z 00000KT 10SM OVC100 14/11 A3013 670 83 700 000/00 RMK AO2
14837KMSN MSN20110613022509506/13/11 02:25:31  5-MIN KMSN 130825Z 00000KT 10SM OVC100 14/11 A3014 660 83 700 000/00 RMK AO2
14837KMSN MSN20110613023009506/13/11 02:30:31  5-MIN KMSN 130830Z 00000KT 10SM OVC100 14/11 A3014 660 83 700 000/00 RMK AO2
14837KMSN MSN20110613023509506/13/11 02:35:31  5-MIN KMSN 130835Z 00000KT 10SM OVC100 14/11 A3014 660 83 700 000/00 RMK AO2
14837KMSN MSN20110613024009506/13/11 02:40:31  5-MIN KMSN 130840Z 00000KT 10SM OVC100 14/11 A3014 660 83 700 000/00 RMK AO2
14837KMSN MSN20110613024509506/13/11 02:45:31  5-MIN KMSN 130845Z 00000KT 10SM OVC100 14/11 A3014 660 83 700 000/00 RMK AO2
14837KMSN MSN20110613025011806/13/11 02:50:31  5-MIN KMSN 130850Z 00000KT 10SM OVC100 14/11 A3014 660 83 700 000/00 RMK AO2 SLP206 T01390111 50000
14837KMSN MSN20110613025509506/13/11 02:55:31  5-MIN KMSN 130855Z 04003KT 10SM OVC100 14/11 A3014 660 83 700 040/03 RMK AO2
14837KMSN MSN20110613030009506/13/11 03:00:31  5-MIN KMSN 130900Z 00000KT 10SM OVC095 14/11 A3015 660 80 700 000/00 RMK AO2
14837KMSN MSN20110613030509506/13/11 03:05:31  5-MIN KMSN 130905Z 00000KT 10SM OVC095 14/11 A3015 650 80 700 000/00 RMK AO2
14837KMSN MSN20110613031009506/13/11 03:10:31  5-MIN KMSN 130910Z 00000KT 10SM OVC095 14/11 A3015 650 80 700 000/00 RMK AO2
14837KMSN MSN20110613031509506/13/11 03:15:31  5-MIN KMSN 130915Z 00000KT 10SM OVC095 14/11 A3015 650 80 700 000/00 RMK AO2
14837KMSN MSN20110613032009506/13/11 03:20:31  5-MIN KMSN 130920Z 00000KT 10SM OVC095 13/11 A3016 650 83 600 000/00 RMK AO2
14837KMSN MSN20110613032509506/13/11 03:25:31  5-MIN KMSN 130925Z 00000KT 10SM OVC095 13/11 A3016 650 83 600 000/00 RMK AO2
14837KMSN MSN20110613033009506/13/11 03:30:31  5-MIN KMSN 130930Z 00000KT 10SM OVC095 14/11 A3016 650 80 700 000/00 RMK AO2
14837KMSN MSN20110613033509506/13/11 03:35:31  5-MIN KMSN 130935Z 00000KT 10SM OVC095 14/11 A3016 640 80 700 000/00 RMK AO2
14837KMSN MSN20110613034009506/13/11 03:40:31  5-MIN KMSN 130940Z 00000KT 10SM OVC095 13/11 A3016 640 83 600 000/00 RMK AO2
14837KMSN MSN20110613034509506/13/11 03:45:31  5-MIN KMSN 130945Z 00000KT 10SM OVC095 13/11 A3016 640 83 600 000/00 RMK AO2
14837KMSN MSN20110613035011206/13/11 03:50:31  5-MIN KMSN 130950Z 00000KT 10SM BKN095 13/11 A3016 640 86 600 000/00 RMK AO2 SLP213 T01330111
14837KMSN MSN20110613035509506/13/11 03:55:31  5-MIN KMSN 130955Z 36003KT 10SM BKN100 13/11 A3016 640 86 600 360/03 RMK AO2
14837KMSN MSN20110613040009506/13/11 04:00:31  5-MIN KMSN 131000Z 01004KT 10SM BKN100 13/11 A3016 640 86 600 010/04 RMK AO2
14837KMSN MSN20110613040509506/13/11 04:05:31  5-MIN KMSN 131005Z 01005KT 10SM SCT100 12/10 A3016 640 86 500 010/05 RMK AO2
14837KMSN MSN20110613041009506/13/11 04:10:31  5-MIN KMSN 131010Z 02005KT 10SM FEW100 12/10 A3016 640 89 400 020/05 RMK AO2
14837KMSN MSN20110613041509506/13/11 04:15:31  5-MIN KMSN 131015Z 02004KT 10SM FEW100 12/10 A3016 640 89 400 020/04 RMK AO2
14837KMSN MSN20110613042009206/13/11 04:20:31  5-MIN KMSN 131020Z 00000KT 10SM CLR 12/10 A3016 640 89 400 000/00 RMK AO2
14837KMSN MSN20110613042509206/13/11 04:25:31  5-MIN KMSN 131025Z 00000KT 10SM CLR 12/10 A3017 640 86 500 000/00 RMK AO2
14837KMSN MSN20110613043009206/13/11 04:30:31  5-MIN KMSN 131030Z 00000KT 10SM CLR 12/10 A3016 640 86 500 000/00 RMK AO2
14837KMSN MSN20110613043509206/13/11 04:35:31  5-MIN KMSN 131035Z 00000KT 10SM CLR 13/10 A3016 650 83 600 000/00 RMK AO2
14837KMSN MSN20110613044009206/13/11 04:40:31  5-MIN KMSN 131040Z 00000KT 10SM CLR 12/09 A3015 650 83 500 000/00 RMK AO2
14837KMSN MSN20110613044509206/13/11 04:45:31  5-MIN KMSN 131045Z 05003KT 10SM CLR 12/09 A3015 650 83 500 060/03 RMK AO2
14837KMSN MSN20110613045011106/13/11 04:50:31  5-MIN KMSN 131050Z 00000KT 8SM FEW100 12/09 A3016 650 83 500 000/00 RMK AO2 SLP212 T01220094
14837KMSN MSN20110613045509206/13/11 04:55:31  5-MIN KMSN 131055Z 00000KT 10SM CLR 12/09 A3016 650 83 500 000/00 RMK AO2
14837KMSN MSN20110613050009206/13/11 05:00:31  5-MIN KMSN 131100Z 05003KT 10SM CLR 12/09 A3016 640 83 500 060/03 RMK AO2
14837KMSN MSN20110613050509206/13/11 05:05:31  5-MIN KMSN 131105Z 05003KT 10SM CLR 12/09 A3016 640 83 500 050/03 RMK AO2
14837KMSN MSN20110613051009206/13/11 05:10:31  5-MIN KMSN 131110Z 05003KT 10SM CLR 13/10 A3016 640 83 600 050/03 RMK AO2
14837KMSN MSN20110613051509206/13/11 05:15:31  5-MIN KMSN 131115Z 00000KT 10SM CLR 13/10 A3016 640 83 600 000/00 RMK AO2
14837KMSN MSN20110613052009206/13/11 05:20:31  5-MIN KMSN 131120Z 00000KT 10SM CLR 13/10 A3017 640 80 600 000/00 RMK AO2
14837KMSN MSN20110613052509206/13/11 05:25:31  5-MIN KMSN 131125Z 00000KT 10SM CLR 14/10 A3017 630 77 700 000/00 RMK AO2
14837KMSN MSN20110613053009206/13/11 05:30:31  5-MIN KMSN 131130Z 00000KT 10SM CLR 14/11 A3017 630 80 700 000/00 RMK AO2
14837KMSN MSN20110613053509206/13/11 05:35:31  5-MIN KMSN 131135Z 00000KT 10SM CLR 14/11 A3017 640 80 700 000/00 RMK AO2
14837KMSN MSN20110613054009206/13/11 05:40:31  5-MIN KMSN 131140Z 00000KT 10SM CLR 14/10 A3017 640 74 800 000/00 RMK AO2
14837KMSN MSN20110613054509206/13/11 05:45:31  5-MIN KMSN 131145Z 00000KT 10SM CLR 14/10 A3017 640 74 800 000/00 RMK AO2
14837KMSN MSN20110613055013006/13/11 05:50:31  5-MIN KMSN 131150Z 00000KT 10SM FEW120 14/10 A3017 640 74 800 000/00 RMK AO2 SLP214 T01440100 10144 20111 53006
14837KMSN MSN20110613055509206/13/11 05:55:31  5-MIN KMSN 131155Z 07003KT 10SM CLR 14/11 A3017 640 77 800 070/03 RMK AO2
14837KMSN MSN20110613060009206/13/11 06:00:31  5-MIN KMSN 131200Z 06003KT 10SM CLR 15/11 A3016 640 74 800 070/03 RMK AO2
14837KMSN MSN20110613060509206/13/11 06:05:31  5-MIN KMSN 131205Z 00000KT 10SM CLR 15/11 A3017 640 74 800 000/00 RMK AO2
14837KMSN MSN20110613061009206/13/11 06:10:31  5-MIN KMSN 131210Z 05003KT 10SM CLR 16/11 A3017 640 72 900 060/03 RMK AO2
14837KMSN MSN20110613061509206/13/11 06:15:31  5-MIN KMSN 131215Z 00000KT 10SM CLR 16/11 A3017 640 72 900 000/00 RMK AO2
14837KMSN MSN20110613062009306/13/11 06:20:31  5-MIN KMSN 131220Z 06003KT 10SM CLR 16/11 A3016 640 69 1000 060/03 RMK AO2
14837KMSN MSN20110613062509306/13/11 06:25:31  5-MIN KMSN 131225Z 07005KT 10SM CLR 16/11 A3016 640 69 1000 070/05 RMK AO2
14837KMSN MSN20110613063009306/13/11 06:30:31  5-MIN KMSN 131230Z 08005KT 10SM CLR 16/11 A3016 640 69 1000 080/05 RMK AO2
14837KMSN MSN20110613063509306/13/11 06:35:31  5-MIN KMSN 131235Z 08006KT 10SM CLR 16/11 A3016 640 69 1000 080/06 RMK AO2
14837KMSN MSN20110613064009306/13/11 06:40:31  5-MIN KMSN 131240Z 07007KT 10SM CLR 17/10 A3016 640 64 1000 070/07 RMK AO2
14837KMSN MSN20110613064509306/13/11 06:45:31  5-MIN KMSN 131245Z 07006KT 10SM CLR 17/11 A3016 640 67 1000 070/06 RMK AO2
14837KMSN MSN20110613065011306/13/11 06:50:31  5-MIN KMSN 131250Z 07006KT 10SM FEW120 17/10 A3017 640 64 1000 070/06 RMK AO2 SLP215 T01670100
14837KMSN MSN20110613065509306/13/11 06:55:31  5-MIN KMSN 131255Z 07006KT 10SM CLR 17/10 A3017 640 62 1100 070/06 RMK AO2
14837KMSN MSN20110613070009306/13/11 07:00:31  5-MIN KMSN 131300Z 08005KT 10SM CLR 17/10 A3017 640 62 1100 080/05 RMK AO2
14837KMSN MSN20110613070509306/13/11 07:05:31  5-MIN KMSN 131305Z 07006KT 10SM CLR 17/10 A3017 630 62 1100 070/06 RMK AO2
14837KMSN MSN20110613071009306/13/11 07:10:31  5-MIN KMSN 131310Z 09005KT 10SM CLR 18/10 A3017 630 60 1100 090/05 RMK AO2
14837KMSN MSN20110613071509306/13/11 07:15:31  5-MIN KMSN 131315Z 08006KT 10SM CLR 17/10 A3017 630 62 1100 090/06 RMK AO2
14837KMSN MSN20110613072009306/13/11 07:20:31  5-MIN KMSN 131320Z 08006KT 10SM CLR 18/10 A3017 630 60 1100 080/06 RMK AO2
14837KMSN MSN20110613072509306/13/11 07:25:31  5-MIN KMSN 131325Z 09005KT 10SM CLR 18/10 A3018 630 60 1100 090/05 RMK AO2
14837KMSN MSN20110613073009306/13/11 07:30:31  5-MIN KMSN 131330Z 09006KT 10SM CLR 18/10 A3018 630 60 1100 090/06 RMK AO2
14837KMSN MSN20110613073509306/13/11 07:35:31  5-MIN KMSN 131335Z 08006KT 10SM CLR 18/09 A3017 630 58 1100 080/06 RMK AO2
14837KMSN MSN20110613074009306/13/11 07:40:31  5-MIN KMSN 131340Z 09007KT 10SM CLR 18/09 A3018 630 56 1200 090/07 RMK AO2
14837KMSN MSN20110613074509306/13/11 07:45:31  5-MIN KMSN 131345Z 09007KT 10SM CLR 18/09 A3018 630 56 1200 090/07 RMK AO2
14837KMSN MSN20110613075011006/13/11 07:50:31  5-MIN KMSN 131350Z 08008KT 10SM CLR 18/09 A3018 620 56 1200 080/08 RMK AO2 SLP219 T01830094
14837KMSN MSN20110613075509306/13/11 07:55:31  5-MIN KMSN 131355Z 08008KT 10SM CLR 18/09 A3018 630 54 1200 080/08 RMK AO2
14837KMSN MSN20110613080009306/13/11 08:00:31  5-MIN KMSN 131400Z 08006KT 10SM CLR 18/09 A3018 620 56 1200 080/06 RMK AO2
14837KMSN MSN20110613080509306/13/11 08:05:31  5-MIN KMSN 131405Z 09008KT 10SM CLR 18/09 A3018 630 56 1200 090/08 RMK AO2
14837KMSN MSN20110613081009306/13/11 08:10:31  5-MIN KMSN 131410Z 09007KT 10SM CLR 19/09 A3018 620 52 1300 090/07 RMK AO2
14837KMSN MSN20110613081509306/13/11 08:15:31  5-MIN KMSN 131415Z 10007KT 10SM CLR 19/09 A3018 620 52 1300 100/07 RMK AO2
14837KMSN MSN20110613082009306/13/11 08:20:31  5-MIN KMSN 131420Z 08009KT 10SM CLR 19/09 A3018 620 52 1300 090/09 RMK AO2
14837KMSN MSN20110613082509306/13/11 08:25:31  5-MIN KMSN 131425Z 08007KT 10SM CLR 19/09 A3018 620 52 1300 080/07 RMK AO2
14837KMSN MSN20110613083009306/13/11 08:30:31  5-MIN KMSN 131430Z 08008KT 10SM CLR 19/09 A3018 620 50 1300 080/08 RMK AO2
14837KMSN MSN20110613083509306/13/11 08:35:31  5-MIN KMSN 131435Z 09008KT 10SM CLR 19/09 A3019 620 52 1300 090/08 RMK AO2
14837KMSN MSN20110613084009306/13/11 08:40:31  5-MIN KMSN 131440Z 08007KT 10SM CLR 19/09 A3019 620 50 1300 090/07 RMK AO2
14837KMSN MSN20110613084509306/13/11 08:45:31  5-MIN KMSN 131445Z 06009KT 10SM CLR 19/09 A3019 620 50 1300 060/09 RMK AO2
14837KMSN MSN20110613085011606/13/11 08:50:31  5-MIN KMSN 131450Z 06008KT 10SM CLR 20/09 A3019 620 48 1400 060/08 RMK AO2 SLP221 T02000089 51007
14837KMSN MSN20110613085509306/13/11 08:55:31  5-MIN KMSN 131455Z 07008KT 10SM CLR 20/09 A3019 620 48 1400 070/08 RMK AO2
14837KMSN MSN20110613090009306/13/11 09:00:31  5-MIN KMSN 131500Z 06007KT 10SM CLR 20/08 A3018 620 46 1400 070/07 RMK AO2
14837KMSN MSN20110613090509306/13/11 09:05:31  5-MIN KMSN 131505Z 09010KT 10SM CLR 20/09 A3018 620 48 1400 090/10 RMK AO2
14837KMSN MSN20110613091009306/13/11 09:10:31  5-MIN KMSN 131510Z 10008KT 10SM CLR 20/08 A3018 630 46 1400 110/08 RMK AO2
14837KMSN MSN20110613091509306/13/11 09:15:31  5-MIN KMSN 131515Z 07007KT 10SM CLR 20/09 A3017 630 48 1400 070/07 RMK AO2
14837KMSN MSN20110613092009306/13/11 09:20:31  5-MIN KMSN 131520Z 07008KT 10SM CLR 20/09 A3017 630 48 1400 070/08 RMK AO2
14837KMSN MSN20110613092509306/13/11 09:25:31  5-MIN KMSN 131525Z 10007KT 10SM CLR 21/09 A3017 630 46 1500 100/07 RMK AO2
14837KMSN MSN20110613093009306/13/11 09:30:31  5-MIN KMSN 131530Z 10007KT 10SM CLR 20/08 A3017 630 46 1400 100/07 RMK AO2
14837KMSN MSN20110613093509306/13/11 09:35:31  5-MIN KMSN 131535Z 08006KT 10SM CLR 20/08 A3017 630 46 1400 080/06 RMK AO2
14837KMSN MSN20110613094010906/13/11 09:40:31  5-MIN KMSN 131540Z 10007KT 080V140 10SM CLR 21/08 A3017 630 45 1500 100/07 080V140 RMK AO2
14837KMSN MSN20110613094509306/13/11 09:45:31  5-MIN KMSN 131545Z 11007KT 10SM CLR 20/08 A3017 630 46 1400 110/07 RMK AO2
14837KMSN MSN20110613095011006/13/11 09:50:31  5-MIN KMSN 131550Z 12004KT 10SM CLR 20/08 A3017 630 45 1400 120/04 RMK AO2 SLP216 T02000078
14837KMSN MSN20110613095509306/13/11 09:55:31  5-MIN KMSN 131555Z VRB06KT 10SM CLR 20/08 A3018 630 45 1400 VRB/06 RMK AO2
14837KMSN MSN20110613100009306/13/11 10:00:31  5-MIN KMSN 131600Z 09006KT 10SM CLR 21/08 A3017 630 45 1500 090/06 RMK AO2
14837KMSN MSN20110613100509306/13/11 10:05:31  5-MIN KMSN 131605Z VRB04KT 10SM CLR 21/09 A3017 630 45 1500 VRB/04 RMK AO2
14837KMSN MSN20110613101009306/13/11 10:10:31  5-MIN KMSN 131610Z 11007KT 10SM CLR 21/09 A3017 630 45 1500 110/07 RMK AO2
14837KMSN MSN20110613101509306/13/11 10:15:31  5-MIN KMSN 131615Z 13004KT 10SM CLR 21/08 A3017 630 45 1500 130/04 RMK AO2
14837KMSN MSN20110613102009306/13/11 10:20:31  5-MIN KMSN 131620Z 09006KT 10SM CLR 21/09 A3017 630 45 1500 100/06 RMK AO2
14837KMSN MSN20110613102509306/13/11 10:25:31  5-MIN KMSN 131625Z 05005KT 10SM CLR 21/08 A3017 630 43 1500 050/05 RMK AO2
14837KMSN MSN20110613103009306/13/11 10:30:31  5-MIN KMSN 131630Z VRB03KT 10SM CLR 21/09 A3017 630 47 1500 VRB/03 RMK AO2
14837KMSN MSN20110613103509306/13/11 10:35:31  5-MIN KMSN 131635Z 11008KT 10SM CLR 21/09 A3018 630 45 1500 120/08 RMK AO2
14837KMSN MSN20110613104009306/13/11 10:40:31  5-MIN KMSN 131640Z 12007KT 10SM CLR 21/09 A3017 630 45 1500 120/07 RMK AO2
14837KMSN MSN20110613104509306/13/11 10:45:31  5-MIN KMSN 131645Z 15008KT 10SM CLR 21/08 A3017 630 45 1500 150/08 RMK AO2
14837KMSN MSN20110613105012606/13/11 10:50:31  5-MIN KMSN 131650Z 11007KT 080V140 10SM CLR 21/09 A3017 630 45 1500 110/07 080V140 RMK AO2 SLP215 T02110089
14837KMSN MSN20110613105509306/13/11 10:55:31  5-MIN KMSN 131655Z VRB03KT 10SM CLR 21/09 A3017 630 45 1500 VRB/03 RMK AO2
14837KMSN MSN20110613110009306/13/11 11:00:31  5-MIN KMSN 131700Z 13008KT 10SM CLR 22/09 A3017 640 45 1600 130/08 RMK AO2
14837KMSN MSN20110613110509306/13/11 11:05:31  5-MIN KMSN 131705Z 08008KT 10SM CLR 21/09 A3016 640 45 1500 080/08 RMK AO2
14837KMSN MSN20110613111009306/13/11 11:10:31  5-MIN KMSN 131710Z 05006KT 10SM CLR 22/09 A3016 640 45 1600 060/06 RMK AO2
14837KMSN MSN20110613111509306/13/11 11:15:31  5-MIN KMSN 131715Z 13006KT 10SM CLR 22/09 A3016 640 45 1600 130/06 RMK AO2
14837KMSN MSN20110613112009306/13/11 11:20:31  5-MIN KMSN 131720Z 08007KT 10SM CLR 22/09 A3015 650 43 1600 080/07 RMK AO2
14837KMSN MSN20110613112509306/13/11 11:25:31  5-MIN KMSN 131725Z 09009KT 10SM CLR 22/09 A3015 650 43 1600 090/09 RMK AO2
14837KMSN MSN20110613113009306/13/11 11:30:31  5-MIN KMSN 131730Z 11005KT 10SM CLR 22/09 A3015 650 43 1600 110/05 RMK AO2
14837KMSN MSN20110613113509306/13/11 11:35:31  5-MIN KMSN 131735Z 12006KT 10SM CLR 22/09 A3015 650 43 1600 130/06 RMK AO2
14837KMSN MSN20110613114009306/13/11 11:40:31  5-MIN KMSN 131740Z 09009KT 10SM CLR 22/09 A3014 660 43 1700 100/09 RMK AO2
14837KMSN MSN20110613114510906/13/11 11:45:31  5-MIN KMSN 131745Z 08008KT 050V140 10SM CLR 22/09 A3014 660 43 1700 090/08 050V140 RMK AO2
14837KMSN MSN20110613115012806/13/11 11:50:31  5-MIN KMSN 131750Z VRB06KT 10SM CLR 22/09 A3014 660 43 1700 VRB/06 RMK AO2 SLP203 T02220094 10222 20144 53007
14837KMSN MSN20110613115509306/13/11 11:55:31  5-MIN KMSN 131755Z 12011KT 10SM CLR 22/09 A3014 660 42 1700 120/11 RMK AO2
14837KMSN MSN20110613120009306/13/11 12:00:31  5-MIN KMSN 131800Z 12008KT 10SM CLR 22/09 A3013 670 43 1600 120/08 RMK AO2
14837KMSN MSN20110613120509906/13/11 12:05:31  5-MIN KMSN 131805Z 09007G15KT 10SM CLR 22/09 A3013 670 43 1600 090/07G15 RMK AO2
14837KMSN MSN20110613121009906/13/11 12:10:31  5-MIN KMSN 131810Z 09011G15KT 10SM CLR 22/09 A3012 680 43 1700 100/11G15 RMK AO2
14837KMSN MSN20110613121509906/13/11 12:15:31  5-MIN KMSN 131815Z 09008G16KT 10SM CLR 22/09 A3012 680 42 1700 100/08G16 RMK AO2
14837KMSN MSN20110613122009906/13/11 12:20:31  5-MIN KMSN 131820Z 09008G16KT 10SM CLR 22/09 A3013 670 42 1700 090/08G16 RMK AO2
14837KMSN MSN20110613122509906/13/11 12:25:31  5-MIN KMSN 131825Z 12007G15KT 10SM CLR 22/09 A3013 670 43 1700 120/07G15 RMK AO2
14837KMSN MSN20110613123009306/13/11 12:30:31  5-MIN KMSN 131830Z 12006KT 10SM CLR 22/09 A3012 680 43 1700 120/06 RMK AO2
14837KMSN MSN20110613123509306/13/11 12:35:31  5-MIN KMSN 131835Z 11009KT 10SM CLR 23/09 A3013 670 42 1800 110/09 RMK AO2
14837KMSN MSN20110613124009306/13/11 12:40:31  5-MIN KMSN 131840Z 07005KT 10SM CLR 23/09 A3013 680 40 1800 070/05 RMK AO2
14837KMSN MSN20110613124509306/13/11 12:45:31  5-MIN KMSN 131845Z 12009KT 10SM CLR 23/10 A3012 680 42 1800 120/09 RMK AO2
14837KMSN MSN20110613125011606/13/11 12:50:31  5-MIN KMSN 131850Z 11009G16KT 10SM CLR 22/09 A3012 680 42 1700 110/09G16 RMK AO2 SLP199 T02220089
14837KMSN MSN20110613125510206/13/11 12:55:31  5-MIN KMSN 131855Z 12009G16KT 10SM FEW050 22/09 A3012 680 43 1700 120/09G16 RMK AO2
14837KMSN MSN20110613130009606/13/11 13:00:31  5-MIN KMSN 131900Z 13008KT 10SM FEW050 22/09 A3012 680 43 1700 130/08 RMK AO2
14837KMSN MSN20110613130509606/13/11 13:05:31  5-MIN KMSN 131905Z 09009KT 10SM FEW050 23/09 A3011 690 42 1800 090/09 RMK AO2
14837KMSN MSN20110613131009606/13/11 13:10:31  5-MIN KMSN 131910Z 08007KT 10SM FEW050 23/10 A3011 690 44 1800 090/07 RMK AO2
14837KMSN MSN20110613131509906/13/11 13:15:31  5-MIN KMSN 131915Z 13009G16KT 10SM CLR 23/10 A3011 690 44 1800 130/09G16 RMK AO2
14837KMSN MSN20110613132009906/13/11 13:20:31  5-MIN KMSN 131920Z 11011G16KT 10SM CLR 23/09 A3011 690 42 1800 110/11G16 RMK AO2
14837KMSN MSN20110613132509306/13/11 13:25:31  5-MIN KMSN 131925Z 08008KT 10SM CLR 23/10 A3010 700 44 1800 080/08 RMK AO2
14837KMSN MSN20110613133009306/13/11 13:30:31  5-MIN KMSN 131930Z 09009KT 10SM CLR 23/09 A3010 700 42 1800 090/09 RMK AO2
14837KMSN MSN20110613133509306/13/11 13:35:31  5-MIN KMSN 131935Z 13012KT 10SM CLR 23/10 A3010 700 44 1800 130/12 RMK AO2
14837KMSN MSN20110613134009906/13/11 13:40:31  5-MIN KMSN 131940Z 12010G17KT 10SM CLR 23/09 A3010 700 42 1800 120/10G17 RMK AO2
14837KMSN MSN20110613134509906/13/11 13:45:31  5-MIN KMSN 131945Z 12011G17KT 10SM CLR 23/09 A3010 700 42 1800 120/11G17 RMK AO2
14837KMSN MSN20110613135011606/13/11 13:50:31  5-MIN KMSN 131950Z 11011G17KT 10SM CLR 23/09 A3010 700 41 1900 120/11G17 RMK AO2 SLP191 T02330094
14837KMSN MSN20110613135509606/13/11 13:55:31  5-MIN KMSN 131955Z 11011KT 10SM FEW055 23/09 A3010 700 42 1800 120/11 RMK AO2
14837KMSN MSN20110613140009606/13/11 14:00:31  5-MIN KMSN 132000Z 15006KT 10SM FEW055 23/09 A3010 700 40 1800 150/06 RMK AO2
14837KMSN MSN20110613140510206/13/11 14:05:31  5-MIN KMSN 132005Z 12010G16KT 10SM FEW055 23/09 A3011 690 41 1900 120/10G16 RMK AO2
14837KMSN MSN20110613141010206/13/11 14:10:31  5-MIN KMSN 132010Z 14009G16KT 10SM FEW055 23/09 A3012 680 42 1800 140/09G16 RMK AO2
14837KMSN MSN20110613141509606/13/11 14:15:31  5-MIN KMSN 132015Z 14009KT 10SM FEW055 23/08 A3012 680 38 1800 140/09 RMK AO2
14837KMSN MSN20110613142009606/13/11 14:20:31  5-MIN KMSN 132020Z 11009KT 10SM FEW055 23/08 A3012 680 38 1800 120/09 RMK AO2
14837KMSN MSN20110613142509606/13/11 14:25:31  5-MIN KMSN 132025Z 11009KT 10SM FEW055 23/08 A3012 680 38 1800 110/09 RMK AO2
14837KMSN MSN20110613143009606/13/11 14:30:31  5-MIN KMSN 132030Z 09008KT 10SM FEW055 23/09 A3012 680 42 1800 090/08 RMK AO2
14837KMSN MSN20110613143509606/13/11 14:35:31  5-MIN KMSN 132035Z 11007KT 10SM FEW055 23/09 A3012 680 41 1800 110/07 RMK AO2
14837KMSN MSN20110613144010206/13/11 14:40:31  5-MIN KMSN 132040Z 11006G14KT 10SM FEW055 23/09 A3012 680 42 1800 110/06G14 RMK AO2
14837KMSN MSN20110613144509606/13/11 14:45:31  5-MIN KMSN 132045Z 14010KT 10SM FEW055 23/09 A3012 680 41 1800 140/10 RMK AO2
14837KMSN MSN20110613145011906/13/11 14:50:31  5-MIN KMSN 132050Z 16010KT 10SM FEW055 23/09 A3011 690 39 1900 160/10 RMK AO2 SLP195 T02330089 58017
14837KMSN MSN20110613145509306/13/11 14:55:31  5-MIN KMSN 132055Z 15007KT 10SM CLR 23/09 A3011 690 41 1900 150/07 RMK AO2
14837KMSN MSN20110613150009906/13/11 15:00:31  5-MIN KMSN 132100Z 10008G14KT 10SM CLR 23/09 A3010 700 41 1900 100/08G14 RMK AO2
14837KMSN MSN20110613150510206/13/11 15:05:31  5-MIN KMSN 132105Z 14010G14KT 10SM FEW060 23/09 A3010 700 41 1900 140/10G14 RMK AO2
14837KMSN MSN20110613151010206/13/11 15:10:31  5-MIN KMSN 132110Z 13009G14KT 10SM FEW060 23/09 A3010 700 41 1900 130/09G14 RMK AO2
14837KMSN MSN20110613151510206/13/11 15:15:31  5-MIN KMSN 132115Z 11010G14KT 10SM FEW060 23/09 A3010 700 42 1800 110/10G14 RMK AO2
14837KMSN MSN20110613152009606/13/11 15:20:31  5-MIN KMSN 132120Z 13010KT 10SM FEW060 23/09 A3009 710 42 1800 130/10 RMK AO2
14837KMSN MSN20110613152509606/13/11 15:25:31  5-MIN KMSN 132125Z 13010KT 10SM FEW060 23/09 A3009 710 42 1800 130/10 RMK AO2
14837KMSN MSN20110613153009606/13/11 15:30:31  5-MIN KMSN 132130Z 13009KT 10SM FEW060 23/09 A3008 710 40 1800 130/09 RMK AO2
14837KMSN MSN20110613153510206/13/11 15:35:31  5-MIN KMSN 132135Z 13010G15KT 10SM FEW060 23/10 A3008 720 42 1900 130/10G15 RMK AO2
14837KMSN MSN20110613154009306/13/11 15:40:31  5-MIN KMSN 132140Z 12012KT 10SM CLR 23/10 A3008 720 42 1900 120/12 RMK AO2
14837KMSN MSN20110613154509306/13/11 15:45:31  5-MIN KMSN 132145Z 11010KT 10SM CLR 23/09 A3008 720 40 1800 110/10 RMK AO2
14837KMSN MSN20110613155011006/13/11 15:50:31  5-MIN KMSN 132150Z 13010KT 10SM CLR 23/09 A3008 710 40 1800 130/10 RMK AO2 SLP185 T02280089
14837KMSN MSN20110613155510906/13/11 15:55:31  5-MIN KMSN 132155Z 13011KT 090V150 10SM CLR 23/09 A3009 710 40 1800 130/11 090V150 RMK AO2
14837KMSN MSN20110613160009306/13/11 16:00:31  5-MIN KMSN 132200Z 11010KT 10SM CLR 23/09 A3008 710 42 1800 110/10 RMK AO2
14837KMSN MSN20110613160509306/13/11 16:05:31  5-MIN KMSN 132205Z 14011KT 10SM CLR 23/09 A3008 710 42 1800 140/11 RMK AO2
14837KMSN MSN20110613161009306/13/11 16:10:31  5-MIN KMSN 132210Z 14011KT 10SM CLR 23/08 A3008 720 39 1800 140/11 RMK AO2
14837KMSN MSN20110613161509306/13/11 16:15:31  5-MIN KMSN 132215Z 13011KT 10SM CLR 22/08 A3008 720 40 1800 130/11 RMK AO2
14837KMSN MSN20110613162009306/13/11 16:20:31  5-MIN KMSN 132220Z 12010KT 10SM CLR 22/09 A3007 720 42 1800 130/10 RMK AO2
14837KMSN MSN20110613162509306/13/11 16:25:31  5-MIN KMSN 132225Z 13010KT 10SM CLR 22/08 A3007 730 40 1800 130/10 RMK AO2
14837KMSN MSN20110613163009306/13/11 16:30:31  5-MIN KMSN 132230Z 13010KT 10SM CLR 22/08 A3007 730 40 1800 140/10 RMK AO2
14837KMSN MSN20110613163509906/13/11 16:35:31  5-MIN KMSN 132235Z 14013G18KT 10SM CLR 22/08 A3006 730 40 1800 140/13G18 RMK AO2
14837KMSN MSN20110613164009906/13/11 16:40:31  5-MIN KMSN 132240Z 12013G18KT 10SM CLR 22/08 A3006 740 40 1800 120/13G18 RMK AO2
14837KMSN MSN20110613164509906/13/11 16:45:31  5-MIN KMSN 132245Z 12010G18KT 10SM CLR 22/08 A3006 730 42 1700 120/10G18 RMK AO2
14837KMSN MSN20110613165011006/13/11 16:50:31  5-MIN KMSN 132250Z 13013KT 10SM CLR 22/08 A3007 730 40 1800 130/13 RMK AO2 SLP180 T02220083
14837KMSN MSN20110613165509306/13/11 16:55:31  5-MIN KMSN 132255Z 12011KT 10SM CLR 22/08 A3007 730 40 1800 120/11 RMK AO2
14837KMSN MSN20110613170009306/13/11 17:00:31  5-MIN KMSN 132300Z 12014KT 10SM CLR 22/08 A3006 730 40 1800 120/14 RMK AO2
14837KMSN MSN20110613170509306/13/11 17:05:31  5-MIN KMSN 132305Z 13013KT 10SM CLR 22/08 A3006 730 40 1800 130/13 RMK AO2
14837KMSN MSN20110613171009306/13/11 17:10:31  5-MIN KMSN 132310Z 12014KT 10SM CLR 22/08 A3006 740 40 1800 120/14 RMK AO2
14837KMSN MSN20110613171509306/13/11 17:15:31  5-MIN KMSN 132315Z 11013KT 10SM CLR 22/08 A3006 730 42 1700 120/13 RMK AO2
14837KMSN MSN20110613172009306/13/11 17:20:31  5-MIN KMSN 132320Z 11010KT 10SM CLR 22/08 A3006 740 42 1700 110/10 RMK AO2
14837KMSN MSN20110613172509306/13/11 17:25:31  5-MIN KMSN 132325Z 12012KT 10SM CLR 22/08 A3006 740 42 1700 120/12 RMK AO2
14837KMSN MSN20110613173009306/13/11 17:30:31  5-MIN KMSN 132330Z 11009KT 10SM CLR 21/07 A3007 730 40 1600 120/09 RMK AO2
14837KMSN MSN20110613173509306/13/11 17:35:31  5-MIN KMSN 132335Z 11010KT 10SM CLR 22/07 A3007 730 39 1700 120/10 RMK AO2
14837KMSN MSN20110613174009306/13/11 17:40:31  5-MIN KMSN 132340Z 12008KT 10SM CLR 21/08 A3007 730 42 1600 120/08 RMK AO2
14837KMSN MSN20110613174509306/13/11 17:45:31  5-MIN KMSN 132345Z 12013KT 10SM CLR 21/08 A3007 730 42 1700 130/13 RMK AO2
14837KMSN MSN20110613175012806/13/11 17:50:31  5-MIN KMSN 132350Z 12012KT 10SM CLR 21/07 A3006 730 40 1700 130/12 RMK AO2 SLP179 T02110072 10233 20211 55008
14837KMSN MSN20110613175509306/13/11 17:55:31  5-MIN KMSN 132355Z 12012KT 10SM CLR 21/07 A3007 730 38 1600 120/12 RMK AO2
14837KMSN MSN20110613180009306/13/11 18:00:31  5-MIN KMSN 140000Z 12012KT 10SM CLR 21/07 A3007 730 38 1600 130/12 RMK AO2
14837KMSN MSN20110613180509306/13/11 18:05:31  5-MIN KMSN 140005Z 13010KT 10SM CLR 21/07 A3007 730 38 1600 130/10 RMK AO2
14837KMSN MSN20110613181009306/13/11 18:10:31  5-MIN KMSN 140010Z 12012KT 10SM CLR 21/07 A3006 730 41 1600 120/12 RMK AO2
14837KMSN MSN20110613181509306/13/11 18:15:31  5-MIN KMSN 140015Z 12008KT 10SM CLR 21/07 A3006 730 41 1600 120/08 RMK AO2
14837KMSN MSN20110613182009306/13/11 18:20:31  5-MIN KMSN 140020Z 12007KT 10SM CLR 21/08 A3006 730 43 1600 120/07 RMK AO2
14837KMSN MSN20110613182509306/13/11 18:25:31  5-MIN KMSN 140025Z 12008KT 10SM CLR 21/07 A3006 730 41 1600 120/08 RMK AO2
14837KMSN MSN20110613183009306/13/11 18:30:31  5-MIN KMSN 140030Z 12009KT 10SM CLR 21/07 A3007 730 41 1600 120/09 RMK AO2
14837KMSN MSN20110613183509306/13/11 18:35:31  5-MIN KMSN 140035Z 12007KT 10SM CLR 21/07 A3007 730 41 1600 120/07 RMK AO2
14837KMSN MSN20110613184009306/13/11 18:40:31  5-MIN KMSN 140040Z 12006KT 10SM CLR 20/08 A3007 720 45 1500 130/06 RMK AO2
14837KMSN MSN20110613184509306/13/11 18:45:31  5-MIN KMSN 140045Z 13007KT 10SM CLR 20/07 A3008 720 43 1500 140/07 RMK AO2
14837KMSN MSN20110613185011006/13/11 18:50:31  5-MIN KMSN 140050Z 13007KT 10SM CLR 20/07 A3008 720 43 1500 130/07 RMK AO2 SLP183 T02000072
14837KMSN MSN20110613185509306/13/11 18:55:31  5-MIN KMSN 140055Z 12006KT 10SM CLR 20/07 A3008 720 43 1500 120/06 RMK AO2
14837KMSN MSN20110613190009306/13/11 19:00:31  5-MIN KMSN 140100Z 12006KT 10SM CLR 19/08 A3008 720 46 1400 120/06 RMK AO2
14837KMSN MSN20110613190509306/13/11 19:05:31  5-MIN KMSN 140105Z 12005KT 10SM CLR 19/08 A3008 720 46 1400 120/05 RMK AO2
14837KMSN MSN20110613191009306/13/11 19:10:31  5-MIN KMSN 140110Z 13006KT 10SM CLR 19/08 A3008 720 48 1400 130/06 RMK AO2
14837KMSN MSN20110613191509306/13/11 19:15:31  5-MIN KMSN 140115Z 13007KT 10SM CLR 19/07 A3008 720 46 1400 130/07 RMK AO2
14837KMSN MSN20110613192009306/13/11 19:20:31  5-MIN KMSN 140120Z 13006KT 10SM CLR 19/07 A3008 720 44 1400 130/06 RMK AO2
14837KMSN MSN20110613192509306/13/11 19:25:31  5-MIN KMSN 140125Z 13006KT 10SM CLR 19/07 A3008 720 44 1400 130/06 RMK AO2
14837KMSN MSN20110613193009306/13/11 19:30:31  5-MIN KMSN 140130Z 13005KT 10SM CLR 19/07 A3008 720 46 1400 130/05 RMK AO2
14837KMSN MSN20110613193509306/13/11 19:35:31  5-MIN KMSN 140135Z 13004KT 10SM CLR 19/08 A3008 720 48 1400 130/04 RMK AO2
14837KMSN MSN20110614123510206/14/11 12:35:31  5-MIN KMSN 141835Z 14014G21KT 10SM FEW045 24/11 A3003 770 42 2000 140/14G21 RMK AO2
14837KMSN MSN20110614124009606/14/11 12:40:31  5-MIN KMSN 141840Z 14011KT 10SM FEW045 24/11 A3003 770 44 2000 150/11 RMK AO2
14837KMSN MSN20110614124510206/14/11 12:45:31  5-MIN KMSN 141845Z 12015G18KT 10SM FEW045 24/11 A3003 760 44 2000 130/15G18 RMK AO2
14837KMSN MSN20110614125011906/14/11 12:50:31  5-MIN KMSN 141850Z 12011G18KT 10SM FEW050 24/11 A3003 770 44 2000 120/11G18 RMK AO2 SLP166 T02390111
14837KMSN MSN20110614125510206/14/11 12:55:31  5-MIN KMSN 141855Z 13013G21KT 10SM FEW050 24/11 A3003 760 44 2000 140/13G21 RMK AO2
14837KMSN MSN20110614130010206/14/11 13:00:31  5-MIN KMSN 141900Z 13013G21KT 10SM FEW050 24/11 A3003 770 44 2000 130/13G21 RMK AO2
14837KMSN MSN20110614130509606/14/11 13:05:31  5-MIN KMSN 141905Z 11014KT 10SM FEW050 24/12 A3003 760 46 2000 110/14 RMK AO2
14837KMSN MSN20110614131010206/14/11 13:10:31  5-MIN KMSN 141910Z 12015G20KT 10SM FEW050 24/12 A3003 770 46 2000 120/15G20 RMK AO2
14837KMSN MSN20110614131510206/14/11 13:15:31  5-MIN KMSN 141915Z 16013G20KT 10SM FEW050 24/11 A3003 770 44 2000 160/13G20 RMK AO2
14837KMSN MSN20110614132009606/14/11 13:20:31  5-MIN KMSN 141920Z 12011KT 10SM FEW050 24/11 A3003 770 42 2100 120/11 RMK AO2
14837KMSN MSN20110614132510206/14/11 13:25:31  5-MIN KMSN 141925Z 13017G20KT 10SM FEW050 24/11 A3002 770 42 2100 130/17G20 RMK AO2
14837KMSN MSN20110614133010206/14/11 13:30:31  5-MIN KMSN 141930Z 13015G20KT 10SM FEW050 24/10 A3002 770 39 2100 130/15G20 RMK AO2
14837KMSN MSN20110614133510206/14/11 13:35:31  5-MIN KMSN 141935Z 15013G21KT 10SM FEW050 24/10 A3002 770 39 2100 150/13G21 RMK AO2
14837KMSN MSN20110614134010206/14/11 13:40:31  5-MIN KMSN 141940Z 13013G21KT 10SM FEW050 24/10 A3002 770 39 2100 130/13G21 RMK AO2
14837KMSN MSN20110614134510206/14/11 13:45:31  5-MIN KMSN 141945Z 14012G21KT 10SM FEW050 24/10 A3002 780 39 2100 140/12G21 RMK AO2
14837KMSN MSN20110614135011906/14/11 13:50:31  5-MIN KMSN 141950Z 12013G23KT 10SM FEW050 25/11 A3002 780 39 2100 120/13G23 RMK AO2 SLP162 T02500106
14837KMSN MSN20110614135510206/14/11 13:55:31  5-MIN KMSN 141955Z 14014G23KT 10SM FEW055 24/10 A3001 780 39 2100 140/14G23 RMK AO2
14837KMSN MSN20110614140010206/14/11 14:00:31  5-MIN KMSN 142000Z 15013G19KT 10SM FEW055 24/10 A3001 780 39 2100 150/13G19 RMK AO2
14837KMSN MSN20110614140509606/14/11 14:05:31  5-MIN KMSN 142005Z 14014KT 10SM FEW055 25/11 A3001 780 39 2200 140/14 RMK AO2
14837KMSN MSN20110614141010206/14/11 14:10:31  5-MIN KMSN 142010Z 14013G21KT 10SM FEW055 24/10 A3001 780 39 2100 140/13G21 RMK AO2
14837KMSN MSN20110614141510206/14/11 14:15:31  5-MIN KMSN 142015Z 11016G21KT 10SM FEW055 24/10 A3001 780 39 2100 110/16G21 RMK AO2
14837KMSN MSN20110614142010206/14/11 14:20:31  5-MIN KMSN 142020Z 12010G21KT 10SM FEW055 24/11 A3000 790 41 2100 120/10G21 RMK AO2
14837KMSN MSN20110614142510206/14/11 14:25:31  5-MIN KMSN 142025Z 13017G22KT 10SM FEW055 24/10 A3000 790 39 2100 130/17G22 RMK AO2
14837KMSN MSN20110614143010206/14/11 14:30:31  5-MIN KMSN 142030Z 13015G22KT 10SM FEW055 24/10 A3000 790 41 2000 130/15G22 RMK AO2
14837KMSN MSN20110614143510206/14/11 14:35:31  5-MIN KMSN 142035Z 14011G20KT 10SM FEW055 24/08 A2999 800 36 2000 140/11G20 RMK AO2
14837KMSN MSN20110614144010206/14/11 14:40:31  5-MIN KMSN 142040Z 14013G19KT 10SM FEW055 24/09 A2999 800 39 2100 140/13G19 RMK AO2
14837KMSN MSN20110614144510206/14/11 14:45:31  5-MIN KMSN 142045Z 11014G19KT 10SM FEW055 24/10 A2999 800 41 2100 120/14G19 RMK AO2
14837KMSN MSN20110614145011906/14/11 14:50:31  5-MIN KMSN 142050Z 12014KT 10SM FEW055 24/10 A2998 800 41 2100 130/14 RMK AO2 SLP153 T02390100 58006
14837KMSN MSN20110614145509906/14/11 14:55:31  5-MIN KMSN 142055Z 12012G22KT 10SM CLR 24/09 A2998 810 39 2100 130/12G22 RMK AO2
14837KMSN MSN20110614150009906/14/11 15:00:31  5-MIN KMSN 142100Z 13017G22KT 10SM CLR 23/09 A2998 810 41 2000 130/17G22 RMK AO2
14837KMSN MSN20110614150509906/14/11 15:05:31  5-MIN KMSN 142105Z 12014G21KT 10SM CLR 23/09 A2997 820 39 2000 120/14G21 RMK AO2
14837KMSN MSN20110614151009306/14/11 15:10:31  5-MIN KMSN 142110Z 12016KT 10SM CLR 23/09 A2997 820 39 2000 120/16 RMK AO2
14837KMSN MSN20110614151509306/14/11 15:15:31  5-MIN KMSN 142115Z 12013KT 10SM CLR 23/09 A2997 820 39 2000 120/13 RMK AO2
14837KMSN MSN20110614152009906/14/11 15:20:31  5-MIN KMSN 142120Z 13016G20KT 10SM CLR 23/09 A2997 820 39 2000 140/16G20 RMK AO2
14837KMSN MSN20110614152509906/14/11 15:25:31  5-MIN KMSN 142125Z 12014G20KT 10SM CLR 24/09 A2996 820 38 2100 130/14G20 RMK AO2
14837KMSN MSN20110614153009306/14/11 15:30:31  5-MIN KMSN 142130Z 13014KT 10SM CLR 23/09 A2997 820 41 2000 130/14 RMK AO2
14837KMSN MSN20110614153509906/14/11 15:35:31  5-MIN KMSN 142135Z 13015G21KT 10SM CLR 23/09 A2996 820 41 2000 130/15G21 RMK AO2
14837KMSN MSN20110614154009906/14/11 15:40:31  5-MIN KMSN 142140Z 14013G21KT 10SM CLR 23/09 A2996 830 41 2000 140/13G21 RMK AO2
14837KMSN MSN20110614154509906/14/11 15:45:31  5-MIN KMSN 142145Z 12013G21KT 10SM CLR 23/09 A2996 830 39 2000 120/13G21 RMK AO2
14837KMSN MSN20110614155011606/14/11 15:50:31  5-MIN KMSN 142150Z 12013G21KT 10SM CLR 23/09 A2996 830 41 2000 120/13G21 RMK AO2 SLP144 T02330094
14837KMSN MSN20110614155509906/14/11 15:55:31  5-MIN KMSN 142155Z 12016G21KT 10SM CLR 23/10 A2996 830 42 2000 120/16G21 RMK AO2
14837KMSN MSN20110614160009906/14/11 16:00:31  5-MIN KMSN 142200Z 11017G21KT 10SM CLR 23/09 A2995 830 41 2000 110/17G21 RMK AO2
14837KMSN MSN20110614160509906/14/11 16:05:31  5-MIN KMSN 142205Z 11016G21KT 10SM CLR 23/09 A2995 830 41 2000 120/16G21 RMK AO2
14837KMSN MSN20110614161009906/14/11 16:10:31  5-MIN KMSN 142210Z 12018G24KT 10SM CLR 24/09 A2995 840 39 2100 120/18G24 RMK AO2
14837KMSN MSN20110614161509906/14/11 16:15:31  5-MIN KMSN 142215Z 12017G24KT 10SM CLR 23/09 A2995 840 39 2000 120/17G24 RMK AO2
14837KMSN MSN20110614162009306/14/11 16:20:31  5-MIN KMSN 142220Z 12017KT 10SM CLR 23/09 A2995 840 41 2000 120/17 RMK AO2
14837KMSN MSN20110614162509906/14/11 16:25:31  5-MIN KMSN 142225Z 12014G22KT 10SM CLR 23/09 A2995 840 41 2000 120/14G22 RMK AO2
14837KMSN MSN20110614163009906/14/11 16:30:31  5-MIN KMSN 142230Z 12016G21KT 10SM CLR 23/09 A2994 840 42 2000 120/16G21 RMK AO2
14837KMSN MSN20110614163509906/14/11 16:35:31  5-MIN KMSN 142235Z 12013G21KT 10SM CLR 23/09 A2994 850 42 2000 120/13G21 RMK AO2
14837KMSN MSN20110614164009306/14/11 16:40:31  5-MIN KMSN 142240Z 11013KT 10SM CLR 23/10 A2993 850 42 2100 110/13 RMK AO2
14837KMSN MSN20110614164509906/14/11 16:45:31  5-MIN KMSN 142245Z 13015G20KT 10SM CLR 23/10 A2994 850 42 2100 130/15G20 RMK AO2
14837KMSN MSN20110614165011906/14/11 16:50:31  5-MIN KMSN 142250Z 10016G21KT 10SM FEW100 23/10 A2993 850 44 2000 100/16G21 RMK AO2 SLP134 T02280100
14837KMSN MSN20110614165510206/14/11 16:55:31  5-MIN KMSN 142255Z 11012G21KT 10SM FEW100 23/10 A2993 850 44 2000 120/12G21 RMK AO2
14837KMSN MSN20110614170010206/14/11 17:00:31  5-MIN KMSN 142300Z 11018G22KT 10SM FEW100 23/10 A2993 850 44 2000 110/18G22 RMK AO2
14837KMSN MSN20110614170510206/14/11 17:05:31  5-MIN KMSN 142305Z 11012G22KT 10SM FEW100 22/11 A2993 850 47 1900 110/12G22 RMK AO2
14837KMSN MSN20110614171010206/14/11 17:10:31  5-MIN KMSN 142310Z 10016G20KT 10SM FEW100 22/11 A2993 860 47 1900 100/16G20 RMK AO2
14837KMSN MSN20110614171510206/14/11 17:15:31  5-MIN KMSN 142315Z 11015G20KT 10SM FEW100 22/11 A2993 860 49 1900 110/15G20 RMK AO2
14837KMSN MSN20110614172009606/14/11 17:20:31  5-MIN KMSN 142320Z 12014KT 10SM FEW100 22/10 A2993 860 45 1900 120/14 RMK AO2
14837KMSN MSN20110614172509606/14/11 17:25:31  5-MIN KMSN 142325Z 11015KT 10SM FEW100 22/11 A2993 860 49 1900 110/15 RMK AO2
14837KMSN MSN20110614173010206/14/11 17:30:31  5-MIN KMSN 142330Z 11016G21KT 10SM FEW100 22/11 A2993 860 49 1900 110/16G21 RMK AO2
14837KMSN MSN20110614173510206/14/11 17:35:31  5-MIN KMSN 142335Z 10017G23KT 10SM FEW100 22/10 A2993 860 47 1900 110/17G23 RMK AO2
14837KMSN MSN20110614174010206/14/11 17:40:31  5-MIN KMSN 142340Z 11012G23KT 10SM FEW100 22/11 A2993 860 49 1900 110/12G23 RMK AO2
14837KMSN MSN20110614174509606/14/11 17:45:31  5-MIN KMSN 142345Z 10013KT 10SM FEW100 22/11 A2993 850 50 1900 100/13 RMK AO2
14837KMSN MSN20110614175013106/14/11 17:50:31  5-MIN KMSN 142350Z 11011KT 10SM FEW100 22/11 A2993 850 49 1900 110/11 RMK AO2 SLP134 T02170106 10250 20217 58014
14837KMSN MSN20110614175510206/14/11 17:55:31  5-MIN KMSN 142355Z 12014G18KT 10SM FEW100 21/11 A2994 850 52 1800 120/14G18 RMK AO2
14837KMSN MSN20110614180010206/14/11 18:00:31  5-MIN KMSN 150000Z 10012G19KT 10SM FEW100 21/11 A2994 850 50 1800 110/12G19 RMK AO2
14837KMSN MSN20110614180510206/14/11 18:05:31  5-MIN KMSN 150005Z 11015G20KT 10SM FEW100 21/10 A2994 850 48 1800 110/15G20 RMK AO2
14837KMSN MSN20110614181009606/14/11 18:10:31  5-MIN KMSN 150010Z 12014KT 10SM FEW100 21/10 A2993 850 48 1800 120/14 RMK AO2
14837KMSN MSN20110614181509606/14/11 18:15:31  5-MIN KMSN 150015Z 11014KT 10SM FEW100 21/10 A2993 850 48 1800 110/14 RMK AO2
14837KMSN MSN20110614182009606/14/11 18:20:31  5-MIN KMSN 150020Z 11013KT 10SM FEW100 21/10 A2993 850 48 1800 110/13 RMK AO2
14837KMSN MSN20110614182510206/14/11 18:25:31  5-MIN KMSN 150025Z 11012G19KT 10SM FEW100 21/10 A2993 850 50 1700 120/12G19 RMK AO2
14837KMSN MSN20110614183010206/14/11 18:30:31  5-MIN KMSN 150030Z 11013G18KT 10SM FEW100 21/10 A2993 850 50 1700 120/13G18 RMK AO2
14837KMSN MSN20110614183509606/14/11 18:35:31  5-MIN KMSN 150035Z 10013KT 10SM FEW100 21/10 A2993 850 50 1700 110/13 RMK AO2
14837KMSN MSN20110614184009606/14/11 18:40:31  5-MIN KMSN 150040Z 11011KT 10SM FEW100 21/10 A2994 850 50 1700 110/11 RMK AO2
14837KMSN MSN20110614184509606/14/11 18:45:31  5-MIN KMSN 150045Z 10012KT 10SM FEW100 21/10 A2994 850 50 1700 110/12 RMK AO2
14837KMSN MSN20110614185011006/14/11 18:50:31  5-MIN KMSN 150050Z 11011KT 10SM CLR 21/10 A2993 850 50 1700 110/11 RMK AO2 SLP134 T02060100
14837KMSN MSN20110614185509606/14/11 18:55:31  5-MIN KMSN 150055Z 11011KT 10SM FEW090 20/10 A2993 850 52 1700 120/11 RMK AO2
14837KMSN MSN20110614190009606/14/11 19:00:31  5-MIN KMSN 150100Z 11011KT 10SM FEW090 20/10 A2993 860 52 1700 110/11 RMK AO2
14837KMSN MSN20110614190509606/14/11 19:05:31  5-MIN KMSN 150105Z 11011KT 10SM FEW090 20/09 A2993 860 50 1700 110/11 RMK AO2
14837KMSN MSN20110614191009606/14/11 19:10:31  5-MIN KMSN 150110Z 11011KT 10SM FEW090 20/09 A2992 860 50 1700 110/11 RMK AO2
14837KMSN MSN20110614191510206/14/11 19:15:31  5-MIN KMSN 150115Z 11013G19KT 10SM FEW090 20/09 A2992 870 50 1700 110/13G19 RMK AO2
14837KMSN MSN20110614192010206/14/11 19:20:31  5-MIN KMSN 150120Z 11010G19KT 10SM FEW090 19/09 A2992 870 52 1600 110/10G19 RMK AO2
14837KMSN MSN20110614192509606/14/11 19:25:31  5-MIN KMSN 150125Z 11011KT 10SM FEW090 19/09 A2991 870 52 1600 110/11 RMK AO2
14837KMSN MSN20110614193009606/14/11 19:30:31  5-MIN KMSN 150130Z 11011KT 10SM FEW090 19/09 A2991 870 52 1600 110/11 RMK AO2
14837KMSN MSN20110614193509606/14/11 19:35:31  5-MIN KMSN 150135Z 11011KT 10SM BKN100 19/09 A2991 870 50 1600 110/11 RMK AO2
14837KMSN MSN20110614194009606/14/11 19:40:31  5-MIN KMSN 150140Z 11011KT 10SM BKN100 19/09 A2991 870 50 1600 110/11 RMK AO2
14837KMSN MSN20110614194509606/14/11 19:45:31  5-MIN KMSN 150145Z 11012KT 10SM OVC110 19/09 A2991 870 50 1600 110/12 RMK AO2
14837KMSN MSN20110614195011306/14/11 19:50:31  5-MIN KMSN 150150Z 11012KT 10SM BKN110 19/09 A2991 870 50 1600 110/12 RMK AO2 SLP127 T01940089
14837KMSN MSN20110614195509606/14/11 19:55:31  5-MIN KMSN 150155Z 11011KT 10SM BKN100 19/09 A2991 870 50 1600 110/11 RMK AO2
14837KMSN MSN20110614200009606/14/11 20:00:31  5-MIN KMSN 150200Z 11009KT 10SM OVC100 19/09 A2991 870 50 1600 110/09 RMK AO2
14837KMSN MSN20110614200509606/14/11 20:05:31  5-MIN KMSN 150205Z 11013KT 10SM OVC110 19/09 A2991 870 50 1600 120/13 RMK AO2
14837KMSN MSN20110614201009606/14/11 20:10:31  5-MIN KMSN 150210Z 11010KT 10SM OVC110 19/09 A2991 870 50 1600 110/10 RMK AO2
14837KMSN MSN20110614201509606/14/11 20:15:31  5-MIN KMSN 150215Z 12011KT 10SM OVC110 19/09 A2992 870 50 1600 120/11 RMK AO2
14837KMSN MSN20110614202009606/14/11 20:20:31  5-MIN KMSN 150220Z 12012KT 10SM OVC110 19/09 A2992 860 50 1600 120/12 RMK AO2
14837KMSN MSN20110614202509606/14/11 20:25:31  5-MIN KMSN 150225Z 13009KT 10SM OVC110 19/09 A2992 860 50 1600 130/09 RMK AO2
14837KMSN MSN20110614203009606/14/11 20:30:31  5-MIN KMSN 150230Z 13010KT 10SM OVC100 19/09 A2992 860 50 1600 140/10 RMK AO2
14837KMSN MSN20110614203509606/14/11 20:35:31  5-MIN KMSN 150235Z 13010KT 10SM OVC100 19/09 A2992 860 50 1600 130/10 RMK AO2
14837KMSN MSN20110614204009606/14/11 20:40:31  5-MIN KMSN 150240Z 13011KT 10SM OVC100 19/09 A2992 860 50 1600 130/11 RMK AO2
14837KMSN MSN20110614204509606/14/11 20:45:31  5-MIN KMSN 150245Z 12011KT 10SM OVC100 19/09 A2992 860 50 1600 130/11 RMK AO2
14837KMSN MSN20110614205011906/14/11 20:50:31  5-MIN KMSN 150250Z 13010KT 10SM OVC100 19/09 A2992 870 50 1600 130/10 RMK AO2 SLP128 T01940089 56016
14837KMSN MSN20110614205509606/14/11 20:55:31  5-MIN KMSN 150255Z 13012KT 10SM OVC110 19/09 A2992 870 50 1600 130/12 RMK AO2
14837KMSN MSN20110614210009606/14/11 21:00:31  5-MIN KMSN 150300Z 13011KT 10SM OVC110 20/09 A2991 870 48 1700 130/11 RMK AO2
14837KMSN MSN20110614210509606/14/11 21:05:31  5-MIN KMSN 150305Z 12013KT 10SM OVC110 20/09 A2991 870 48 1700 120/13 RMK AO2
14837KMSN MSN20110614211009606/14/11 21:10:31  5-MIN KMSN 150310Z 12012KT 10SM OVC110 20/09 A2991 880 48 1700 130/12 RMK AO2
14837KMSN MSN20110614211509606/14/11 21:15:31  5-MIN KMSN 150315Z 12012KT 10SM OVC120 20/09 A2991 880 48 1700 130/12 RMK AO2
14837KMSN MSN20110614212010206/14/11 21:20:31  5-MIN KMSN 150320Z 12009G17KT 10SM OVC120 19/09 A2991 880 50 1600 120/09G17 RMK AO2
14837KMSN MSN20110614212509606/14/11 21:25:31  5-MIN KMSN 150325Z 12012KT 10SM BKN120 19/09 A2990 880 50 1600 120/12 RMK AO2
14837KMSN MSN20110614213009606/14/11 21:30:31  5-MIN KMSN 150330Z 12013KT 10SM BKN120 19/09 A2990 880 50 1600 120/13 RMK AO2
14837KMSN MSN20110614213509606/14/11 21:35:31  5-MIN KMSN 150335Z 11011KT 10SM BKN120 19/09 A2990 890 52 1600 120/11 RMK AO2
14837KMSN MSN20110614214009606/14/11 21:40:31  5-MIN KMSN 150340Z 11012KT 10SM OVC120 19/09 A2989 890 50 1700 110/12 RMK AO2
14837KMSN MSN20110614214509606/14/11 21:45:31  5-MIN KMSN 150345Z 11012KT 10SM OVC110 19/09 A2989 890 50 1700 120/12 RMK AO2
14837KMSN MSN20110614215011306/14/11 21:50:31  5-MIN KMSN 150350Z 11011KT 10SM OVC120 19/09 A2989 890 50 1700 110/11 RMK AO2 SLP118 T01940089
14837KMSN MSN20110614215509606/14/11 21:55:31  5-MIN KMSN 150355Z 11013KT 10SM OVC110 19/09 A2989 900 52 1600 110/13 RMK AO2
14837KMSN MSN20110614220009606/14/11 22:00:31  5-MIN KMSN 150400Z 11012KT 10SM OVC110 19/09 A2988 900 52 1600 110/12 RMK AO2
14837KMSN MSN20110614220509606/14/11 22:05:31  5-MIN KMSN 150405Z 11012KT 10SM OVC110 19/09 A2988 900 52 1600 110/12 RMK AO2
14837KMSN MSN20110614221009606/14/11 22:10:31  5-MIN KMSN 150410Z 11012KT 10SM OVC120 19/09 A2988 900 52 1600 110/12 RMK AO2
14837KMSN MSN20110614221509606/14/11 22:15:31  5-MIN KMSN 150415Z 11012KT 10SM OVC120 19/09 A2988 910 54 1600 120/12 RMK AO2
14837KMSN MSN20110614222009606/14/11 22:20:31  5-MIN KMSN 150420Z 11013KT 10SM OVC120 18/09 A2987 910 54 1600 120/13 RMK AO2
14837KMSN MSN20110614222509606/14/11 22:25:31  5-MIN KMSN 150425Z 11013KT 10SM OVC110 18/09 A2987 910 54 1600 120/13 RMK AO2
14837KMSN MSN20110614223010206/14/11 22:30:31  5-MIN KMSN 150430Z 11011G18KT 10SM OVC120 18/09 A2987 910 54 1600 120/11G18 RMK AO2
14837KMSN MSN20110614223509606/14/11 22:35:31  5-MIN KMSN 150435Z 11012KT 10SM OVC110 18/09 A2987 910 54 1600 110/12 RMK AO2
14837KMSN MSN20110614224009606/14/11 22:40:31  5-MIN KMSN 150440Z 11012KT 10SM BKN110 18/09 A2987 910 55 1500 110/12 RMK AO2
14837KMSN MSN20110614224509606/14/11 22:45:31  5-MIN KMSN 150445Z 11013KT 10SM BKN110 18/09 A2987 910 55 1500 110/13 RMK AO2
14837KMSN MSN20110614225011906/14/11 22:50:31  5-MIN KMSN 150450Z 10009G19KT 10SM BKN110 18/09 A2987 910 55 1500 100/09G19 RMK AO2 SLP110 T01780089
14837KMSN MSN20110614225510206/14/11 22:55:31  5-MIN KMSN 150455Z 11011G18KT 10SM BKN110 18/09 A2987 910 58 1500 110/11G18 RMK AO2
14837KMSN MSN20110614230010206/14/11 23:00:31  5-MIN KMSN 150500Z 11011G18KT 10SM BKN100 18/09 A2987 910 55 1500 110/11G18 RMK AO2
14837KMSN MSN20110614230510306/14/11 23:05:31  5-MIN KMSN 150505Z 11010KT 10SM BKN100 BKN120 17/09 A2987 910 57 1400 110/10 RMK AO2
14837KMSN MSN20110614231010306/14/11 23:10:31  5-MIN KMSN 150510Z 11010KT 10SM BKN100 OVC120 17/09 A2987 910 57 1400 110/10 RMK AO2
14837KMSN MSN20110614231509606/14/11 23:15:31  5-MIN KMSN 150515Z 11011KT 10SM OVC100 17/09 A2986 920 57 1400 120/11 RMK AO2
14837KMSN MSN20110614232009606/14/11 23:20:31  5-MIN KMSN 150520Z 11012KT 10SM OVC100 17/09 A2986 920 57 1400 110/12 RMK AO2
14837KMSN MSN20110614232509606/14/11 23:25:31  5-MIN KMSN 150525Z 11011KT 10SM OVC095 17/09 A2985 930 57 1400 110/11 RMK AO2
14837KMSN MSN20110614233009606/14/11 23:30:31  5-MIN KMSN 150530Z 11011KT 10SM OVC090 17/09 A2985 930 57 1400 120/11 RMK AO2
14837KMSN MSN20110614233509606/14/11 23:35:31  5-MIN KMSN 150535Z 11011KT 10SM OVC090 17/09 A2984 930 57 1500 110/11 RMK AO2
14837KMSN MSN20110614234010306/14/11 23:40:31  5-MIN KMSN 150540Z 11010KT 10SM BKN090 17/09 A2983 950 57 1500 110/10 RMK AO2 PRESFR
14837KMSN MSN20110614234511006/14/11 23:45:31  5-MIN KMSN 150545Z 10011KT 10SM BKN090 BKN110 17/09 A2983 950 57 1500 100/11 RMK AO2 PRESFR
14837KMSN MSN20110614235014806/14/11 23:50:31  5-MIN KMSN 150550Z 10009KT 10SM SCT090 BKN110 17/09 A2983 950 57 1500 100/09 RMK AO2 SLP097 T01720089 10211 20172 402500100 55006
14837KMSN MSN20110614235510306/14/11 23:55:31  5-MIN KMSN 150555Z 10010KT 10SM SCT090 BKN110 17/09 A2983 950 57 1500 100/10 RMK AO2
14837KMSN MSN20110615000010306/15/11 00:00:32  5-MIN KMSN 150600Z 10010KT 10SM FEW090 SCT120 17/09 A2983 950 57 1500 100/10 RMK AO2
14837KMSN MSN20110615000509606/15/11 00:05:31  5-MIN KMSN 150605Z 10010KT 10SM FEW090 17/09 A2983 950 57 1500 110/10 RMK AO2
14837KMSN MSN20110615001010306/15/11 00:10:31  5-MIN KMSN 150610Z 12008KT 10SM FEW080 SCT110 17/09 A2984 930 57 1500 120/08 RMK AO2
14837KMSN MSN20110615001509606/15/11 00:15:31  5-MIN KMSN 150615Z 12010KT 10SM SCT080 17/09 A2984 940 57 1500 120/10 RMK AO2
14837KMSN MSN20110615002009606/15/11 00:20:31  5-MIN KMSN 150620Z 12010KT 10SM SCT080 17/09 A2984 940 57 1500 120/10 RMK AO2
14837KMSN MSN20110615002509606/15/11 00:25:31  5-MIN KMSN 150625Z 11011KT 10SM SCT080 18/09 A2984 940 55 1500 120/11 RMK AO2
14837KMSN MSN20110615003009606/15/11 00:30:31  5-MIN KMSN 150630Z 13012KT 10SM BKN080 18/09 A2984 940 55 1500 130/12 RMK AO2
14837KMSN MSN20110615032511306/15/11 03:25:31  5-MIN KMSN 150925Z 12011KT 10SM OVC070 17/12 A2979 990 72 1500 120/11 RMK AO2 RAB0857E11 P0000
14837KMSN MSN20110615033012006/15/11 03:30:31  5-MIN KMSN 150930Z 13011KT 10SM -RA OVC070 17/12 A2979 990 72 1500 130/11 RMK AO2 RAB0857E11B30 P0000
14837KMSN MSN20110615033511906/15/11 03:35:31  5-MIN KMSN 150935Z 12011KT 9SM -RA OVC075 16/12 A2979 990 75 1400 120/11 RMK AO2 RAB0857E11B30 P0000
14837KMSN MSN20110615034015406/15/11 03:40:31  5-MIN KMSN 150940Z 13009KT 8SM -TSRA OVC075 16/12 A2979 990 75 1400 130/09 RMK AO2 TSB40RAB0857E11B30 OCNL LTGCC OHD TS OHD MOV N P0000
14837KMSN MSN20110615034515406/15/11 03:45:31  5-MIN KMSN 150945Z 13010KT 10SM -TSRA OVC075 16/12 A2979 990 77 1400 130/10 RMK AO2 TSB40RAB0857E11B30 FRQ LTGCC OHD TS OHD MOV N P0000
14837KMSN MSN20110615035017106/15/11 03:50:31  5-MIN KMSN 150950Z 14010KT 10SM -TSRA OVC075 16/12 A2979 990 75 1400 140/10 RMK AO2 TSB40RAB0857E11B30 SLP084 FRQ LTGCC OHD TS OHD MOV N P0000 T01610117
14837KMSN MSN20110615035514106/15/11 03:55:31  5-MIN KMSN 150955Z 15009KT 8SM -TSRA BKN075 OVC090 16/12 A2979 990 80 1300 150/09 RMK AO2 FRQ LTGCC OHD TS OHD MOV N P0000
14837KMSN MSN20110615040014706/15/11 04:00:31  5-MIN KMSN 151000Z 13010KT 5SM TSRA FEW060 BKN070 OVC090 16/12 A2979 990 80 1300 130/10 RMK AO2 FRQ LTGCC OHD TS OHD MOV N P0000
14837KMSN MSN20110615040514306/15/11 04:05:31  5-MIN KMSN 151005Z 13009KT 5SM TSRA BR FEW055 OVC080 15/13 A2978 990 86 1300 130/09 RMK AO2 FRQ LTGCC OHD TS OHD MOV N P0002
14837KMSN MSN20110615041015106/15/11 04:10:31  5-MIN KMSN 151010Z 13010KT 5SM -TSRA BR FEW045 BKN075 OVC090 15/13 A2978 990 86 1300 130/10 RMK AO2 FRQ LTGCC OHD TS OHD MOV N P0002
14837KMSN MSN20110615041514306/15/11 04:15:31  5-MIN KMSN 151015Z 12006KT 4SM TSRA BR SCT039 OVC080 15/13 A2978 990 86 1300 120/06 RMK AO2 FRQ LTGCC OHD TS OHD MOV N P0003
14837KMSN MSN20110615042015106/15/11 04:20:31  5-MIN KMSN 151020Z 11007KT 4SM TSRA BR SCT036 BKN075 OVC090 15/13 A2978 1000 86 1300 110/07 RMK AO2 FRQ LTGCC OHD TS OHD MOV N P0004
14837KMSN MSN20110615042515206/15/11 04:25:31  5-MIN KMSN 151025Z 11007KT 4SM -TSRA BR SCT037 BKN080 OVC095 14/13 A2978 1000 90 1200 110/07 RMK AO2 FRQ LTGCC OHD TS OHD MOV N P0005
14837KMSN MSN20110615043015206/15/11 04:30:31  5-MIN KMSN 151030Z 11008KT 5SM -TSRA BR SCT043 BKN050 OVC095 14/13 A2978 1000 90 1200 110/08 RMK AO2 FRQ LTGCC OHD TS OHD MOV N P0006
14837KMSN MSN20110615043515806/15/11 04:35:31  5-MIN KMSN 151035Z 11010G15KT 6SM -TSRA BR SCT043 BKN050 OVC085 14/13 A2977 1000 90 1200 110/10G15 RMK AO2 FRQ LTGCC OHD TS OHD MOV N P0007
14837KMSN MSN20110615044012906/15/11 04:40:31  5-MIN KMSN 151040Z 11011KT 6SM -RA BR FEW041 BKN050 OVC090 14/13 A2977 1000 90 1200 120/11 RMK AO2 TSE38 P0007
14837KMSN MSN20110615044512606/15/11 04:45:31  5-MIN KMSN 151045Z 11010KT 7SM -RA FEW044 BKN050 OVC070 14/13 A2977 1010 90 1200 110/10 RMK AO2 TSE38 P0008
14837KMSN MSN20110615045012906/15/11 04:50:31  5-MIN KMSN 151050Z 11009KT 9SM -RA OVC060 14/13 A2976 1010 90 1200 110/09 RMK AO2 TSE38 SLP076 P0008 T01440128
14837KMSN MSN20110615045510606/15/11 04:55:31  5-MIN KMSN 151055Z 10010KT 9SM -RA OVC060 14/13 A2976 1010 90 1200 110/10 RMK AO2 P0000
14837KMSN MSN20110615050011206/15/11 05:00:31  5-MIN KMSN 151100Z 10011G17KT 9SM -RA OVC060 15/13 A2976 1020 86 1300 110/11G17 RMK AO2 P0000
14837KMSN MSN20110615050511206/15/11 05:05:31  5-MIN KMSN 151105Z 11009G17KT 7SM -RA OVC065 14/13 A2975 1020 90 1200 110/09G17 RMK AO2 P0000
14837KMSN MSN20110615051010906/15/11 05:10:31  5-MIN KMSN 151110Z 11011KT 6SM -RA BR OVC065 14/13 A2975 1020 90 1200 120/11 RMK AO2 P0000
14837KMSN MSN20110615051510906/15/11 05:15:31  5-MIN KMSN 151115Z 11011KT 6SM -RA BR OVC065 14/13 A2974 1030 90 1200 110/11 RMK AO2 P0000
14837KMSN MSN20110615052010906/15/11 05:20:31  5-MIN KMSN 151120Z 11012KT 5SM -RA BR OVC070 14/13 A2974 1030 90 1200 110/12 RMK AO2 P0001
14837KMSN MSN20110615052510906/15/11 05:25:31  5-MIN KMSN 151125Z 11011KT 5SM -RA BR OVC070 14/13 A2974 1040 90 1300 110/11 RMK AO2 P0001
14837KMSN MSN20110615053010906/15/11 05:30:31  5-MIN KMSN 151130Z 11012KT 6SM -RA BR OVC070 14/13 A2973 1040 90 1300 110/12 RMK AO2 P0001
14837KMSN MSN20110615053510606/15/11 05:35:31  5-MIN KMSN 151135Z 11012KT 7SM -RA OVC065 14/13 A2973 1040 90 1300 110/12 RMK AO2 P0001
14837KMSN MSN20110615054011306/15/11 05:40:31  5-MIN KMSN 151140Z 10011KT 7SM -RA BKN055 OVC070 14/12 A2973 1040 86 1300 100/11 RMK AO2 P0001
14837KMSN MSN20110615054511606/15/11 05:45:31  5-MIN KMSN 151145Z 10012KT 6SM -RA BR BKN050 OVC070 14/12 A2973 1040 86 1300 100/12 RMK AO2 P0002
14837KMSN MSN20110615055016306/15/11 05:50:31  5-MIN KMSN 151150Z 11011KT 4SM -RA BR BKN050 OVC070 14/12 A2973 1040 86 1300 110/11 RMK AO2 SLP066 P0002 60012 70012 T01440122 10178 20144 55011
14837KMSN MSN20110615055513306/15/11 05:55:31  5-MIN KMSN 151155Z 11008KT 3SM -RA BR FEW036 BKN050 OVC070 14/12 A2974 1030 90 1200 110/08 RMK AO2 TWR VIS 4 P0000
14837KMSN MSN20110615060013206/15/11 06:00:31  5-MIN KMSN 151200Z 11011G18KT 3SM -RA BR FEW036 OVC050 14/12 A2974 1030 90 1200 120/11G18 RMK AO2 TWR VIS 4 P0001
14837KMSN MSN20110615060513906/15/11 06:05:31  5-MIN KMSN 151205Z 11011G18KT 3SM -RA BR SCT030 SCT038 OVC050 14/12 A2973 1040 90 1200 110/11G18 RMK AO2 TWR VIS 4 P0001
14837KMSN MSN20110615061012206/15/11 06:10:31  5-MIN KMSN 151210Z 12012G19KT 4SM -RA BR BKN034 OVC050 14/12 A2973 1040 90 1200 120/12G19 RMK AO2 P0001
14837KMSN MSN20110615061512906/15/11 06:15:31  5-MIN KMSN 151215Z 13016G21KT 4SM -RA BR SCT029 BKN036 OVC050 14/12 A2973 1040 90 1200 130/16G21 RMK AO2 P0002
14837KMSN MSN20110615062012906/15/11 06:20:31  5-MIN KMSN 151220Z 12015G22KT 6SM -RA BR SCT025 BKN034 OVC050 14/12 A2973 1040 86 1300 130/15G22 RMK AO2 P0002
14837KMSN MSN20110615062512706/15/11 06:25:31  5-MIN KMSN 151225Z 13014G22KT 10SM -RA BKN025 BKN030 OVC034 14/12 A2973 1040 83 1300 130/14G22 RMK AO2 P0002
14837KMSN MSN20110615063011606/15/11 06:30:31  5-MIN KMSN 151230Z 12015KT 10SM BKN025 OVC034 14/12 A2973 1040 83 1300 120/15 RMK AO2 RAE27 P0002
14837KMSN MSN20110615063511406/15/11 06:35:31  5-MIN KMSN 151235Z 11014KT 10SM -RA BKN025 OVC034 14/12 A2973 1040 83 1300 120/14 RMK AO2 P0002
14837KMSN MSN20110615064010706/15/11 06:40:31  5-MIN KMSN 151240Z 11015KT 10SM -RA OVC023 14/12 A2973 1040 83 1300 110/15 RMK AO2 P0002
14837KMSN MSN20110615064511306/15/11 06:45:31  5-MIN KMSN 151245Z 11014G20KT 10SM -RA OVC023 14/12 A2973 1040 83 1300 120/14G20 RMK AO2 P0002
14837KMSN MSN20110615065013306/15/11 06:50:31  5-MIN KMSN 151250Z 11014KT 10SM BKN020 OVC025 14/12 A2972 1050 83 1300 110/14 RMK AO2 RAE50 SLP062 P0002 T01440117
14837KMSN MSN20110615065510306/15/11 06:55:31  5-MIN KMSN 151255Z 11013G18KT 10SM OVC020 14/12 A2972 1050 83 1300 110/13G18 RMK AO2
14837KMSN MSN20110615070010306/15/11 07:00:31  5-MIN KMSN 151300Z 11015G21KT 10SM OVC020 14/12 A2972 1050 83 1300 110/15G21 RMK AO2
14837KMSN MSN20110615070510306/15/11 07:05:31  5-MIN KMSN 151305Z 11011G21KT 10SM OVC020 14/12 A2972 1050 83 1300 110/11G21 RMK AO2
14837KMSN MSN20110615071010306/15/11 07:10:31  5-MIN KMSN 151310Z 12013G21KT 10SM OVC020 14/12 A2972 1050 83 1300 120/13G21 RMK AO2
14837KMSN MSN20110615071510306/15/11 07:15:31  5-MIN KMSN 151315Z 12014G20KT 10SM OVC020 14/12 A2972 1050 83 1300 120/14G20 RMK AO2
14837KMSN MSN20110615072010306/15/11 07:20:31  5-MIN KMSN 151320Z 11013G20KT 10SM OVC020 14/12 A2971 1060 83 1300 110/13G20 RMK AO2
14837KMSN MSN20110615072510306/15/11 07:25:31  5-MIN KMSN 151325Z 11015G20KT 10SM OVC018 14/12 A2971 1060 83 1300 110/15G20 RMK AO2
14837KMSN MSN20110615073010306/15/11 07:30:31  5-MIN KMSN 151330Z 12016G23KT 10SM OVC018 14/11 A2972 1050 80 1300 120/16G23 RMK AO2
14837KMSN MSN20110615073510306/15/11 07:35:31  5-MIN KMSN 151335Z 12014G23KT 10SM OVC018 14/12 A2972 1050 83 1300 120/14G23 RMK AO2
14837KMSN MSN20110615074010306/15/11 07:40:31  5-MIN KMSN 151340Z 12013G20KT 10SM OVC018 14/12 A2972 1050 83 1300 130/13G20 RMK AO2
14837KMSN MSN20110615074510306/15/11 07:45:31  5-MIN KMSN 151345Z 12011G20KT 10SM OVC018 14/12 A2972 1050 83 1300 120/11G20 RMK AO2
14837KMSN MSN20110615075012006/15/11 07:50:31  5-MIN KMSN 151350Z 12014G21KT 10SM OVC018 14/12 A2971 1060 86 1200 120/14G21 RMK AO2 SLP060 T01390117
14837KMSN MSN20110615075510306/15/11 07:55:31  5-MIN KMSN 151355Z 12014G21KT 10SM OVC016 14/12 A2972 1050 86 1200 120/14G21 RMK AO2
14837KMSN MSN20110615080010306/15/11 08:00:31  5-MIN KMSN 151400Z 12013G20KT 10SM OVC016 14/12 A2971 1060 86 1200 120/13G20 RMK AO2
14837KMSN MSN20110615080511506/15/11 08:05:31  5-MIN KMSN 151405Z 12012KT 4SM -DZ BR OVC016 14/12 A2971 1060 86 1200 120/12 RMK AO2 DZB02 P0000
14837KMSN MSN20110615081015306/15/11 08:10:31  5-MIN KMSN 151410Z 12013KT 1 3/4SM -RA BR OVC016 14/12 A2971 1060 86 1200 120/13 RMK AO2 TWR VIS 2 1/2 VIS 1 1/4V5 DZB02E08RAB08 P0000
14837KMSN MSN20110615081514106/15/11 08:15:31  5-MIN KMSN 151415Z 12012KT 1 1/4SM -RA BR OVC016 14/12 A2971 1060 90 1200 120/12 RMK AO2 TWR VIS 2 1/2 DZB02E08RAB08 P0001
14837KMSN MSN20110615082015406/15/11 08:20:31  5-MIN KMSN 151420Z 12013KT 1 3/4SM RA BR BKN016 BKN022 OVC040 13/12 A2971 1060 93 1200 120/13 RMK AO2 TWR VIS 2 1/2 DZB02E08RAB08 P0002
14837KMSN MSN20110615082516106/15/11 08:25:31  5-MIN KMSN 151425Z 12016G20KT 1 3/4SM -RA BR BKN016 BKN022 OVC042 14/12 A2971 1060 90 1200 120/16G20 RMK AO2 TWR VIS 2 1/2 DZB02E08RAB08 P0003
14837KMSN MSN20110615083014306/15/11 08:30:31  5-MIN KMSN 151430Z 12013G20KT 2SM -RA BR SCT016 SCT022 OVC042 14/13 A2971 1060 93 1200 120/13G20 RMK AO2 DZB02E08RAB08 P0004
14837KMSN MSN20110615083513706/15/11 08:35:31  5-MIN KMSN 151435Z 12013KT 2SM -RA BR SCT016 BKN023 OVC043 14/13 A2971 1060 93 1200 120/13 RMK AO2 DZB02E08RAB08 P0004
14837KMSN MSN20110615084013706/15/11 08:40:31  5-MIN KMSN 151440Z 12012KT 2SM -RA BR SCT014 BKN020 OVC043 14/13 A2971 1060 93 1200 120/12 RMK AO2 DZB02E08RAB08 P0004
14837KMSN MSN20110615084515706/15/11 08:45:31  5-MIN KMSN 151445Z 12011G18KT 1 3/4SM -RA BR FEW014 BKN020 OVC043 14/13 A2970 1060 93 1200 120/11G18 RMK AO2 TWR VIS 2 DZB02E08RAB08 P0005
14837KMSN MSN20110615085017006/15/11 08:50:31  5-MIN KMSN 151450Z 12013KT 1 3/4SM -RA BR FEW014 BKN020 OVC043 14/13 A2970 1070 93 1200 120/13 RMK AO2 DZB02E08RAB08 SLP056 P0006 60008 T01390128 58018
14837KMSN MSN20110615085514106/15/11 08:55:31  5-MIN KMSN 151455Z 12010KT 1 1/4SM -RA BR FEW014 BKN020 OVC025 14/13 A2970 1070 93 1200 120/10 RMK AO2 TWR VIS 1 3/4 P0001
14837KMSN MSN20110615090013306/15/11 09:00:31  5-MIN KMSN 151500Z 11008KT 1 1/4SM RA BR BKN018 OVC025 14/13 A2970 1070 93 1200 110/08 RMK AO2 TWR VIS 1 3/4 P0002
14837KMSN MSN20110615090512706/15/11 09:05:31  5-MIN KMSN 151505Z 12010KT 1 1/4SM -RA BR OVC018 14/13 A2970 1070 93 1200 120/10 RMK AO2 TWR VIS 1 3/4 P0003
14837KMSN MSN20110615091012306/15/11 09:10:31  5-MIN KMSN 151510Z 12009KT 1 3/4SM -RA BR OVC020 14/13 A2969 1070 93 1200 120/09 RMK AO2 SFC VIS 2 P0003
14837KMSN MSN20110615091510906/15/11 09:15:31  5-MIN KMSN 151515Z 11008KT 2SM -RA BR OVC020 14/13 A2969 1080 93 1200 120/08 RMK AO2 P0004
14837KMSN MSN20110615092012306/15/11 09:20:31  5-MIN KMSN 151520Z 11009KT 2SM -RA BR OVC020 14/13 A2969 1080 93 1200 120/09 RMK AO2 SFC VIS 2 1/2 P0004
14837KMSN MSN20110615092511306/15/11 09:25:31  5-MIN KMSN 151525Z 12009KT 2 1/2SM -RA BR OVC020 14/13 A2969 1080 93 1200 120/09 RMK AO2 P0005
14837KMSN MSN20110615093010906/15/11 09:30:31  5-MIN KMSN 151530Z 12009KT 3SM -RA BR OVC020 14/13 A2969 1080 96 1200 120/09 RMK AO2 P0005
14837KMSN MSN20110615093510806/15/11 09:35:31  5-MIN KMSN 151535Z 11007KT 7SM OVC020 14/13 A2969 1080 93 1300 110/07 RMK AO2 RAE32 P0005
14837KMSN MSN20110615094011106/15/11 09:40:31  5-MIN KMSN 151540Z 11009KT 6SM BR OVC018 14/13 A2969 1080 93 1300 110/09 RMK AO2 RAE32 P0005
14837KMSN MSN20110615094511106/15/11 09:45:31  5-MIN KMSN 151545Z 11009KT 6SM BR OVC018 14/13 A2969 1080 93 1300 110/09 RMK AO2 RAE32 P0005
14837KMSN MSN20110615095012806/15/11 09:50:31  5-MIN KMSN 151550Z 11009KT 6SM BR OVC018 14/13 A2969 1080 93 1300 110/09 RMK AO2 RAE32 SLP053 P0005 T01440133
14837KMSN MSN20110615095510606/15/11 09:55:31  5-MIN KMSN 151555Z 11009KT 6SM BR FEW009 OVC016 14/13 A2969 1080 93 1300 110/09 RMK AO2
14837KMSN MSN20110615100010306/15/11 10:00:31  5-MIN KMSN 151600Z 11009KT 7SM FEW009 OVC016 15/13 A2969 1080 90 1400 110/09 RMK AO2
14837KMSN MSN20110615100510306/15/11 10:05:31  5-MIN KMSN 151605Z 11008KT 7SM FEW009 OVC016 15/14 A2969 1080 93 1400 110/08 RMK AO2
14837KMSN MSN20110615101010606/15/11 10:10:31  5-MIN KMSN 151610Z 11008KT 6SM BR FEW009 OVC016 15/14 A2969 1080 93 1400 120/08 RMK AO2
14837KMSN MSN20110615101509606/15/11 10:15:31  5-MIN KMSN 151615Z 12010KT 7SM OVC012 15/14 A2969 1080 93 1400 120/10 RMK AO2
14837KMSN MSN20110615102010306/15/11 10:20:31  5-MIN KMSN 151620Z 13009KT 7SM FEW009 OVC012 16/14 A2969 1080 90 1400 130/09 RMK AO2
14837KMSN MSN20110615102510306/15/11 10:25:31  5-MIN KMSN 151625Z 13008KT 7SM SCT010 OVC014 16/14 A2969 1080 90 1400 130/08 RMK AO2
14837KMSN MSN20110615103009606/15/11 10:30:31  5-MIN KMSN 151630Z 12009KT 7SM OVC012 16/14 A2969 1080 90 1500 130/09 RMK AO2
14837KMSN MSN20110615103509606/15/11 10:35:31  5-MIN KMSN 151635Z 12008KT 7SM OVC012 16/14 A2969 1080 90 1500 120/08 RMK AO2
14837KMSN MSN20110615104009606/15/11 10:40:31  5-MIN KMSN 151640Z 13009KT 7SM OVC012 16/14 A2969 1080 90 1500 130/09 RMK AO2
14837KMSN MSN20110615104509606/15/11 10:45:31  5-MIN KMSN 151645Z 12008KT 7SM OVC012 17/15 A2969 1080 90 1600 120/08 RMK AO2
14837KMSN MSN20110615105011306/15/11 10:50:31  5-MIN KMSN 151650Z 12008KT 7SM OVC012 17/16 A2968 1080 90 1600 120/08 RMK AO2 SLP049 T01720156
14837KMSN MSN20110615105510306/15/11 10:55:31  5-MIN KMSN 151655Z 13009KT 7SM BKN012 OVC017 17/16 A2968 1090 90 1600 140/09 RMK AO2
14837KMSN MSN20110615110010306/15/11 11:00:31  5-MIN KMSN 151700Z 14010KT 7SM BKN012 OVC043 18/16 A2968 1090 87 1700 140/10 RMK AO2
14837KMSN MSN20110615110511006/15/11 11:05:31  5-MIN KMSN 151705Z 13011KT 8SM BKN012 BKN017 OVC043 18/16 A2968 1090 84 1800 140/11 RMK AO2
14837KMSN MSN20110615111010306/15/11 11:10:31  5-MIN KMSN 151710Z 13010KT 8SM BKN015 OVC045 19/16 A2968 1090 84 1800 130/10 RMK AO2
14837KMSN MSN20110615111510306/15/11 11:15:31  5-MIN KMSN 151715Z 13012KT 8SM BKN012 OVC047 18/16 A2968 1090 84 1800 140/12 RMK AO2
14837KMSN MSN20110615112010306/15/11 11:20:31  5-MIN KMSN 151720Z 14013KT 8SM BKN012 OVC047 18/16 A2968 1090 84 1800 140/13 RMK AO2
14837KMSN MSN20110615112510306/15/11 11:25:31  5-MIN KMSN 151725Z 14011KT 8SM BKN012 OVC047 18/16 A2968 1090 84 1800 140/11 RMK AO2
14837KMSN MSN20110615113010306/15/11 11:30:31  5-MIN KMSN 151730Z 14012KT 8SM BKN012 OVC047 18/16 A2968 1090 84 1800 140/12 RMK AO2
14837KMSN MSN20110615113510306/15/11 11:35:31  5-MIN KMSN 151735Z 15011KT 9SM BKN012 OVC049 18/16 A2967 1090 84 1800 150/11 RMK AO2
14837KMSN MSN20110615114010306/15/11 11:40:31  5-MIN KMSN 151740Z 15012KT 9SM BKN012 OVC049 18/16 A2968 1090 84 1800 150/12 RMK AO2
14837KMSN MSN20110615114510306/15/11 11:45:31  5-MIN KMSN 151745Z 15009KT 9SM BKN012 OVC049 18/16 A2968 1090 84 1800 150/09 RMK AO2
14837KMSN MSN20110615115014406/15/11 11:50:31  5-MIN KMSN 151750Z 16011KT 9SM BKN014 OVC049 18/16 A2968 1090 84 1800 160/11 RMK AO2 SLP048 60013 T01830156 10189 20133 57012
14837KMSN MSN20110615115510306/15/11 11:55:31  5-MIN KMSN 151755Z 16012KT 9SM BKN014 OVC049 18/16 A2968 1080 84 1800 160/12 RMK AO2
14837KMSN MSN20110615120010306/15/11 12:00:31  5-MIN KMSN 151800Z 16009KT 9SM BKN014 OVC019 18/16 A2969 1080 84 1800 170/09 RMK AO2
14837KMSN MSN20110615120509606/15/11 12:05:31  5-MIN KMSN 151805Z 16008KT 9SM OVC014 18/16 A2969 1080 84 1800 160/08 RMK AO2
14837KMSN MSN20110615121009606/15/11 12:10:31  5-MIN KMSN 151810Z 15009KT 8SM OVC014 18/16 A2969 1080 84 1800 150/09 RMK AO2
14837KMSN MSN20110615121510306/15/11 12:15:31  5-MIN KMSN 151815Z 14010KT 8SM BKN014 OVC022 18/16 A2969 1080 87 1700 150/10 RMK AO2
14837KMSN MSN20110615122009606/15/11 12:20:31  5-MIN KMSN 151820Z 14010KT 7SM OVC014 18/16 A2969 1080 87 1700 150/10 RMK AO2
14837KMSN MSN20110615122511506/15/11 12:25:31  5-MIN KMSN 151825Z 15010KT 5SM -RA BR OVC014 18/16 A2968 1080 87 1700 160/10 RMK AO2 RAB21 P0000
14837KMSN MSN20110615123011506/15/11 12:30:31  5-MIN KMSN 151830Z 13010KT 4SM -RA BR OVC014 18/16 A2968 1080 87 1700 140/10 RMK AO2 RAB21 P0000
14837KMSN MSN20110615123511506/15/11 12:35:31  5-MIN KMSN 151835Z 13009KT 4SM -RA BR OVC014 18/16 A2968 1080 87 1700 140/09 RMK AO2 RAB21 P0000
14837KMSN MSN20110615124011506/15/11 12:40:31  5-MIN KMSN 151840Z 13011KT 3SM -RA BR OVC012 17/16 A2968 1080 90 1600 130/11 RMK AO2 RAB21 P0000
14837KMSN MSN20110615124511506/15/11 12:45:31  5-MIN KMSN 151845Z 13008KT 3SM -RA BR OVC012 17/16 A2968 1090 90 1600 130/08 RMK AO2 RAB21 P0001
14837KMSN MSN20110615125013206/15/11 12:50:31  5-MIN KMSN 151850Z 13010KT 3SM -RA BR OVC012 17/16 A2968 1090 90 1600 140/10 RMK AO2 RAB21 SLP048 P0002 T01720156
14837KMSN MSN20110615125511606/15/11 12:55:31  5-MIN KMSN 151855Z 13010KT 3SM -RA BR BKN012 OVC017 17/16 A2968 1090 90 1600 130/10 RMK AO2 P0000
14837KMSN MSN20110615130011606/15/11 13:00:31  5-MIN KMSN 151900Z 13009KT 3SM -RA BR BKN012 OVC019 17/16 A2968 1090 90 1600 140/09 RMK AO2 P0000
14837KMSN MSN20110615130512306/15/11 13:05:31  5-MIN KMSN 151905Z 13008KT 3SM -RA BR BKN012 BKN017 OVC033 17/16 A2968 1090 93 1600 130/08 RMK AO2 P0001
14837KMSN MSN20110615131012306/15/11 13:10:31  5-MIN KMSN 151910Z 14010KT 3SM -RA BR FEW008 BKN012 OVC033 18/16 A2968 1090 90 1700 140/10 RMK AO2 P0001
14837KMSN MSN20110615131512306/15/11 13:15:31  5-MIN KMSN 151915Z 13011KT 3SM -RA BR FEW008 BKN014 OVC033 18/16 A2968 1090 90 1700 140/11 RMK AO2 P0001
14837KMSN MSN20110615132012306/15/11 13:20:31  5-MIN KMSN 151920Z 14009KT 3SM -RA BR FEW008 BKN019 OVC031 18/16 A2967 1090 90 1700 140/09 RMK AO2 P0001
14837KMSN MSN20110615132512306/15/11 13:25:31  5-MIN KMSN 151925Z 14009KT 3SM -RA BR FEW008 BKN014 OVC031 18/17 A2967 1090 93 1700 140/09 RMK AO2 P0001
14837KMSN MSN20110615133012306/15/11 13:30:31  5-MIN KMSN 151930Z 14007KT 3SM -RA BR FEW008 BKN012 OVC031 18/17 A2967 1090 93 1700 140/07 RMK AO2 P0001
14837KMSN MSN20110615133512306/15/11 13:35:31  5-MIN KMSN 151935Z 15007KT 3SM -RA BR SCT008 BKN012 OVC031 18/17 A2967 1090 93 1700 150/07 RMK AO2 P0002
14837KMSN MSN20110615134012306/15/11 13:40:31  5-MIN KMSN 151940Z 15008KT 3SM -RA BR SCT008 BKN012 OVC018 18/17 A2967 1090 93 1700 150/08 RMK AO2 P0002
14837KMSN MSN20110615134511606/15/11 13:45:31  5-MIN KMSN 151945Z 16006KT 3SM -RA BR BKN008 OVC015 18/17 A2967 1090 93 1700 160/06 RMK AO2 P0002
14837KMSN MSN20110615135015906/15/11 13:50:31  5-MIN KMSN 151950Z 16007KT 2 1/2SM -RA BR BKN008 OVC017 18/17 A2967 1090 93 1700 160/07 RMK AO2 TWR VIS 3 CIG 007V013 SLP046 P0002 T01780167
14837KMSN MSN20110615135514206/15/11 13:55:31  5-MIN KMSN 151955Z 16006KT 2 1/2SM -RA BR BKN008 OVC017 18/17 A2967 1090 93 1700 160/06 RMK AO2 TWR VIS 3 CIG 006V013 P0000
14837KMSN MSN20110615140014206/15/11 14:00:31  5-MIN KMSN 152000Z 17005KT 2 1/2SM -RA BR BKN008 OVC017 18/17 A2967 1090 90 1800 170/05 RMK AO2 TWR VIS 3 CIG 006V013 P0000
14837KMSN MSN20110615140514906/15/11 14:05:31  5-MIN KMSN 152005Z 17006KT 2 1/2SM -RA BR BKN008 BKN012 OVC019 18/17 A2967 1090 93 1800 170/06 RMK AO2 TWR VIS 3 CIG 006V010 P0000
14837KMSN MSN20110615141014206/15/11 14:10:31  5-MIN KMSN 152010Z 17006KT 2 1/2SM -RA BR BKN008 OVC019 18/17 A2968 1090 93 1800 180/06 RMK AO2 SFC VIS 3 CIG 006V013 P0000
14837KMSN MSN20110615141514206/15/11 14:15:31  5-MIN KMSN 152015Z 18006KT 2 1/2SM -RA BR BKN008 OVC017 18/17 A2968 1090 93 1800 180/06 RMK AO2 SFC VIS 3 CIG 006V012 P0000
14837KMSN MSN20110615142014206/15/11 14:20:31  5-MIN KMSN 152020Z 18006KT 2 1/2SM -RA BR BKN008 OVC017 18/17 A2968 1090 93 1800 180/06 RMK AO2 SFC VIS 3 CIG 006V011 P0001
14837KMSN MSN20110615142513706/15/11 14:25:31  5-MIN KMSN 152025Z 18006KT 2 1/2SM -RA BR SCT008 BKN013 OVC017 18/17 A2968 1090 93 1800 180/06 RMK AO2 SFC VIS 3 P0001
14837KMSN MSN20110615143013706/15/11 14:30:31  5-MIN KMSN 152030Z 18004KT 2 1/2SM -RA BR SCT008 BKN014 OVC019 18/17 A2968 1090 93 1800 180/04 RMK AO2 SFC VIS 4 P0001
14837KMSN MSN20110615143513006/15/11 14:35:31  5-MIN KMSN 152035Z 17004KT 2 1/2SM -RA BR SCT008 OVC016 18/17 A2968 1090 93 1800 170/04 RMK AO2 SFC VIS 4 P0001
14837KMSN MSN20110615144013006/15/11 14:40:31  5-MIN KMSN 152040Z 15006KT 2 1/2SM -RA BR SCT008 OVC016 18/17 A2968 1090 93 1800 150/06 RMK AO2 SFC VIS 3 P0001
14837KMSN MSN20110615144513006/15/11 14:45:31  5-MIN KMSN 152045Z 16005KT 2 1/2SM -RA BR FEW008 OVC018 18/17 A2968 1090 93 1800 160/05 RMK AO2 SFC VIS 3 P0001
14837KMSN MSN20110615145015906/15/11 14:50:31  5-MIN KMSN 152050Z 14004KT 2 1/2SM -RA BR SCT008 OVC018 18/17 A2968 1090 93 1800 140/04 RMK AO2 SFC VIS 3 SLP047 P0001 60005 T01830172 56006
14837KMSN MSN20110615145514906/15/11 14:55:31  5-MIN KMSN 152055Z 13006KT 2 1/2SM -RA BR SCT005 BKN010 OVC021 18/17 A2968 1090 93 1700 130/06 RMK AO2 SFC VIS 3 CIG 009V013 P0000
14837KMSN MSN20110615150012806/15/11 15:00:31  5-MIN KMSN 152100Z 12005KT 3SM -RA BR BKN007 OVC019 18/17 A2968 1090 93 1700 120/05 RMK AO2 CIG 005V010 P0000
14837KMSN MSN20110615150512806/15/11 15:05:31  5-MIN KMSN 152105Z 10005KT 3SM -RA BR BKN007 OVC019 18/17 A2968 1090 93 1700 110/05 RMK AO2 CIG 005V010 P0000
14837KMSN MSN20110615151012806/15/11 15:10:31  5-MIN KMSN 152110Z 05003KT 3SM -RA BR BKN007 OVC019 18/17 A2968 1090 93 1700 050/03 RMK AO2 CIG 005V012 P0000
14837KMSN MSN20110615151512106/15/11 15:15:31  5-MIN KMSN 152115Z 01005KT 3SM -RA BR OVC007 18/17 A2968 1090 93 1700 010/05 RMK AO2 CIG 005V010 P0000
14837KMSN MSN20110615152012106/15/11 15:20:31  5-MIN KMSN 152120Z 34004KT 3SM -RA BR OVC007 18/17 A2968 1090 93 1700 340/04 RMK AO2 CIG 005V012 P0000
14837KMSN MSN20110616145012706/16/11 14:50:31  5-MIN KMSN 162050Z VRB06KT 10SM SCT043 BKN060 26/16 A2976 1010 53 2500 VRB/06 RMK AO2 SLP074 T02560156 55000
14837KMSN MSN20110616145510406/16/11 14:55:31  5-MIN KMSN 162055Z 31005KT 10SM FEW045 SCT080 25/15 A2976 1010 53 2400 310/05 RMK AO2
14837KMSN MSN20110616150009706/16/11 15:00:31  5-MIN KMSN 162100Z VRB04KT 10SM SCT080 25/16 A2976 1010 55 2400 VRB/04 RMK AO2
14837KMSN MSN20110616150510406/16/11 15:05:31  5-MIN KMSN 162105Z VRB04KT 10SM FEW050 BKN080 25/15 A2976 1010 53 2400 VRB/04 RMK AO2
14837KMSN MSN20110616151010406/16/11 15:10:31  5-MIN KMSN 162110Z 30004KT 10SM FEW050 BKN080 26/16 A2976 1010 53 2500 300/04 RMK AO2
14837KMSN MSN20110616151510406/16/11 15:15:31  5-MIN KMSN 162115Z 31004KT 10SM FEW050 BKN080 26/16 A2976 1010 51 2600 310/04 RMK AO2
14837KMSN MSN20110616152011106/16/11 15:20:31  5-MIN KMSN 162120Z 27006KT 10SM FEW047 SCT055 BKN080 26/15 A2976 1010 51 2500 270/06 RMK AO2
14837KMSN MSN20110616152511106/16/11 15:25:31  5-MIN KMSN 162125Z 30007KT 10SM FEW047 SCT060 BKN080 26/15 A2976 1010 51 2500 300/07 RMK AO2
14837KMSN MSN20110616153011106/16/11 15:30:31  5-MIN KMSN 162130Z 28008KT 10SM FEW047 SCT060 BKN080 26/15 A2976 1010 50 2600 280/08 RMK AO2
14837KMSN MSN20110616153511106/16/11 15:35:31  5-MIN KMSN 162135Z 24008KT 10SM FEW047 BKN060 BKN080 26/15 A2977 1010 51 2500 250/08 RMK AO2
14837KMSN MSN20110616154010406/16/11 15:40:31  5-MIN KMSN 162140Z VRB04KT 10SM SCT050 BKN060 26/15 A2977 1010 51 2500 VRB/04 RMK AO2
14837KMSN MSN20110616154510406/16/11 15:45:31  5-MIN KMSN 162145Z 29006KT 10SM FEW048 SCT060 26/15 A2977 1010 50 2600 290/06 RMK AO2
14837KMSN MSN20110616155012106/16/11 15:50:31  5-MIN KMSN 162150Z VRB04KT 10SM FEW048 SCT060 26/15 A2977 1010 50 2600 VRB/04 RMK AO2 SLP076 T02610150
14837KMSN MSN20110616155510406/16/11 15:55:31  5-MIN KMSN 162155Z VRB05KT 10SM SCT055 SCT070 26/15 A2977 1010 50 2600 VRB/05 RMK AO2
14837KMSN MSN20110616160009706/16/11 16:00:31  5-MIN KMSN 162200Z 30005KT 10SM FEW050 27/16 A2977 1010 50 2600 300/05 RMK AO2
14837KMSN MSN20110616160510406/16/11 16:05:31  5-MIN KMSN 162205Z 30005KT 10SM FEW050 SCT070 27/16 A2977 1010 50 2600 300/05 RMK AO2
14837KMSN MSN20110616161010406/16/11 16:10:31  5-MIN KMSN 162210Z 29007KT 10SM FEW050 SCT070 27/16 A2976 1010 50 2600 290/07 RMK AO2
14837KMSN MSN20110616161510406/16/11 16:15:31  5-MIN KMSN 162215Z 27006KT 10SM FEW050 SCT070 26/15 A2976 1010 50 2600 270/06 RMK AO2
14837KMSN MSN20110616162012006/16/11 16:20:31  5-MIN KMSN 162220Z 30007KT 260V320 10SM FEW050 SCT070 26/15 A2976 1010 50 2600 300/07 260V320 RMK AO2
14837KMSN MSN20110616162510406/16/11 16:25:31  5-MIN KMSN 162225Z 28008KT 10SM FEW050 SCT070 26/15 A2976 1010 50 2600 290/08 RMK AO2
14837KMSN MSN20110616163010406/16/11 16:30:31  5-MIN KMSN 162230Z 30004KT 10SM FEW050 SCT070 26/15 A2976 1010 50 2600 310/04 RMK AO2
14837KMSN MSN20110616163510406/16/11 16:35:31  5-MIN KMSN 162235Z VRB05KT 10SM FEW050 SCT070 26/15 A2976 1010 50 2600 VRB/05 RMK AO2
14837KMSN MSN20110616164010406/16/11 16:40:31  5-MIN KMSN 162240Z 28005KT 10SM FEW050 SCT070 27/15 A2976 1010 48 2600 280/05 RMK AO2
14837KMSN MSN20110616164510406/16/11 16:45:31  5-MIN KMSN 162245Z 00000KT 10SM FEW050 SCT070 26/15 A2976 1010 50 2600 000/00 RMK AO2
14837KMSN MSN20110616165011406/16/11 16:50:31  5-MIN KMSN 162250Z 30004KT 10SM FEW050 27/16 A2976 1010 50 2600 300/04 RMK AO2 SLP073 T02670156
14837KMSN MSN20110616165509706/16/11 16:55:31  5-MIN KMSN 162255Z VRB04KT 10SM FEW048 26/15 A2976 1010 50 2600 VRB/04 RMK AO2
14837KMSN MSN20110616170009706/16/11 17:00:31  5-MIN KMSN 162300Z 30005KT 10SM FEW050 27/15 A2976 1010 48 2600 300/05 RMK AO2
14837KMSN MSN20110616170509706/16/11 17:05:31  5-MIN KMSN 162305Z VRB06KT 10SM FEW050 27/15 A2976 1010 48 2600 VRB/06 RMK AO2
14837KMSN MSN20110616171009706/16/11 17:10:31  5-MIN KMSN 162310Z 31006KT 10SM FEW050 26/15 A2976 1010 50 2600 310/06 RMK AO2
14837KMSN MSN20110616171509706/16/11 17:15:31  5-MIN KMSN 162315Z 27004KT 10SM FEW048 26/15 A2976 1010 50 2600 270/04 RMK AO2
14837KMSN MSN20110616172009706/16/11 17:20:31  5-MIN KMSN 162320Z 32006KT 10SM FEW048 26/16 A2977 1010 51 2600 320/06 RMK AO2
14837KMSN MSN20110616172509706/16/11 17:25:31  5-MIN KMSN 162325Z 30003KT 10SM FEW048 26/16 A2977 1010 51 2600 300/03 RMK AO2
14837KMSN MSN20110616173009706/16/11 17:30:31  5-MIN KMSN 162330Z 00000KT 10SM FEW060 27/16 A2976 1010 50 2600 000/00 RMK AO2
14837KMSN MSN20110616173509706/16/11 17:35:31  5-MIN KMSN 162335Z 00000KT 10SM FEW060 26/16 A2977 1010 53 2500 000/00 RMK AO2
14837KMSN MSN20110616174009406/16/11 17:40:31  5-MIN KMSN 162340Z 00000KT 10SM CLR 25/16 A2977 1010 55 2400 000/00 RMK AO2
14837KMSN MSN20110616174509706/16/11 17:45:31  5-MIN KMSN 162345Z 35003KT 10SM FEW050 25/16 A2977 1010 57 2400 350/03 RMK AO2
14837KMSN MSN20110616175013206/16/11 17:50:31  5-MIN KMSN 162350Z 02004KT 10SM FEW050 25/16 A2977 1010 57 2400 020/04 RMK AO2 SLP077 T02500161 10267 20228 58002
14837KMSN MSN20110616175509706/16/11 17:55:31  5-MIN KMSN 162355Z 36003KT 10SM FEW060 26/17 A2977 1010 57 2500 010/03 RMK AO2
14837KMSN MSN20110616180009706/16/11 18:00:31  5-MIN KMSN 170000Z 02003KT 10SM FEW060 26/16 A2977 1010 55 2500 020/03 RMK AO2
14837KMSN MSN20110616180509706/16/11 18:05:31  5-MIN KMSN 170005Z 01004KT 10SM FEW060 25/16 A2977 1010 57 2400 020/04 RMK AO2
14837KMSN MSN20110616181009706/16/11 18:10:31  5-MIN KMSN 170010Z 35003KT 10SM FEW060 24/17 A2977 1010 61 2400 350/03 RMK AO2
14837KMSN MSN20110616181509706/16/11 18:15:31  5-MIN KMSN 170015Z 36003KT 10SM FEW060 24/17 A2977 1010 63 2300 010/03 RMK AO2
14837KMSN MSN20110616182009706/16/11 18:20:31  5-MIN KMSN 170020Z 01004KT 10SM FEW060 24/17 A2977 1010 63 2300 010/04 RMK AO2
14837KMSN MSN20110616182509706/16/11 18:25:31  5-MIN KMSN 170025Z 00000KT 10SM FEW060 24/17 A2977 1000 66 2300 000/00 RMK AO2
14837KMSN MSN20110616183009706/16/11 18:30:31  5-MIN KMSN 170030Z 00000KT 10SM FEW060 24/17 A2977 1000 63 2400 000/00 RMK AO2
14837KMSN MSN20110616183509706/16/11 18:35:31  5-MIN KMSN 170035Z 00000KT 10SM SCT060 24/17 A2977 1000 63 2400 000/00 RMK AO2
14837KMSN MSN20110616184009706/16/11 18:40:31  5-MIN KMSN 170040Z 00000KT 10SM SCT060 24/17 A2977 1000 63 2400 000/00 RMK AO2
14837KMSN MSN20110616184509706/16/11 18:45:31  5-MIN KMSN 170045Z 03003KT 10SM SCT060 24/17 A2977 1000 66 2300 030/03 RMK AO2
14837KMSN MSN20110616185011406/16/11 18:50:31  5-MIN KMSN 170050Z 04004KT 10SM SCT060 24/17 A2977 1000 66 2300 040/04 RMK AO2 SLP078 T02390172
14837KMSN MSN20110616185509706/16/11 18:55:31  5-MIN KMSN 170055Z 05005KT 10SM BKN060 23/17 A2977 1000 68 2200 050/05 RMK AO2
14837KMSN MSN20110616190009706/16/11 19:00:31  5-MIN KMSN 170100Z 04004KT 10SM SCT060 23/17 A2977 1000 70 2200 040/04 RMK AO2
14837KMSN MSN20110616190509706/16/11 19:05:31  5-MIN KMSN 170105Z 02004KT 10SM SCT060 23/17 A2977 1000 70 2200 030/04 RMK AO2
14837KMSN MSN20110616191009706/16/11 19:10:31  5-MIN KMSN 170110Z 00000KT 10SM SCT060 22/17 A2977 1000 73 2100 000/00 RMK AO2
14837KMSN MSN20110616191509706/16/11 19:15:31  5-MIN KMSN 170115Z 00000KT 10SM SCT060 22/17 A2977 1000 73 2100 000/00 RMK AO2
14837KMSN MSN20110616192009706/16/11 19:20:31  5-MIN KMSN 170120Z 00000KT 10SM SCT060 22/17 A2977 1000 73 2100 000/00 RMK AO2
14837KMSN MSN20110616192509706/16/11 19:25:31  5-MIN KMSN 170125Z 05003KT 10SM SCT060 22/17 A2977 1000 75 2000 050/03 RMK AO2
14837KMSN MSN20110616193009706/16/11 19:30:31  5-MIN KMSN 170130Z 05004KT 10SM SCT060 22/17 A2977 1000 70 2100 050/04 RMK AO2
14837KMSN MSN20110616193509706/16/11 19:35:31  5-MIN KMSN 170135Z 00000KT 10SM SCT060 22/17 A2977 1000 73 2000 000/00 RMK AO2
14837KMSN MSN20110616194009706/16/11 19:40:31  5-MIN KMSN 170140Z 00000KT 10SM FEW032 21/17 A2977 1000 75 2000 000/00 RMK AO2
14837KMSN MSN20110616194509706/16/11 19:45:31  5-MIN KMSN 170145Z 00000KT 10SM FEW032 21/17 A2977 1000 75 2000 000/00 RMK AO2
14837KMSN MSN20110616195011406/16/11 19:50:31  5-MIN KMSN 170150Z 05003KT 10SM FEW032 22/17 A2977 1000 73 2000 050/03 RMK AO2 SLP078 T02170167
14837KMSN MSN20110616195509706/16/11 19:55:31  5-MIN KMSN 170155Z 05003KT 10SM FEW032 21/17 A2977 1000 75 2000 050/03 RMK AO2
14837KMSN MSN20110616200009706/16/11 20:00:31  5-MIN KMSN 170200Z 00000KT 10SM FEW032 21/17 A2977 1000 75 2000 000/00 RMK AO2
14837KMSN MSN20110616200509706/16/11 20:05:31  5-MIN KMSN 170205Z 07003KT 10SM FEW032 21/17 A2977 1000 75 2000 070/03 RMK AO2
14837KMSN MSN20110616201009706/16/11 20:10:31  5-MIN KMSN 170210Z 07003KT 10SM FEW032 21/17 A2977 1000 78 1900 070/03 RMK AO2
14837KMSN MSN20110616201509706/16/11 20:15:31  5-MIN KMSN 170215Z 00000KT 10SM FEW032 20/17 A2978 1000 81 1900 000/00 RMK AO2
14837KMSN MSN20110616202009706/16/11 20:20:31  5-MIN KMSN 170220Z 00000KT 10SM FEW032 20/17 A2978 1000 81 1900 000/00 RMK AO2
14837KMSN MSN20110616202509706/16/11 20:25:31  5-MIN KMSN 170225Z 00000KT 10SM FEW032 20/17 A2978 1000 81 1900 000/00 RMK AO2
14837KMSN MSN20110616203009706/16/11 20:30:31  5-MIN KMSN 170230Z 05003KT 10SM FEW032 20/17 A2978 1000 81 1800 050/03 RMK AO2
14837KMSN MSN20110616203509606/16/11 20:35:31  5-MIN KMSN 170235Z 04003KT 10SM FEW032 20/16 A2978 990 78 1800 040/03 RMK AO2
14837KMSN MSN20110616204009606/16/11 20:40:31  5-MIN KMSN 170240Z 00000KT 10SM FEW032 20/16 A2978 990 78 1800 000/00 RMK AO2
14837KMSN MSN20110616204509606/16/11 20:45:31  5-MIN KMSN 170245Z 00000KT 10SM FEW050 20/16 A2978 990 78 1800 000/00 RMK AO2
14837KMSN MSN20110616205011906/16/11 20:50:31  5-MIN KMSN 170250Z 00000KT 10SM FEW050 19/16 A2978 990 81 1800 000/00 RMK AO2 SLP082 T01940161 53002
14837KMSN MSN20110616205509606/16/11 20:55:31  5-MIN KMSN 170255Z 04003KT 10SM FEW050 19/16 A2979 990 81 1800 050/03 RMK AO2
14837KMSN MSN20110616210009606/16/11 21:00:31  5-MIN KMSN 170300Z 07003KT 10SM FEW050 19/16 A2979 990 81 1800 070/03 RMK AO2
14837KMSN MSN20110616210509606/16/11 21:05:31  5-MIN KMSN 170305Z 09003KT 10SM FEW050 19/16 A2979 990 81 1800 090/03 RMK AO2
14837KMSN MSN20110616211009606/16/11 21:10:31  5-MIN KMSN 170310Z 08004KT 10SM FEW050 20/16 A2979 990 78 1800 080/04 RMK AO2
14837KMSN MSN20110616211509606/16/11 21:15:31  5-MIN KMSN 170315Z 09003KT 10SM FEW050 20/16 A2979 980 78 1800 090/03 RMK AO2
14837KMSN MSN20110616212009606/16/11 21:20:31  5-MIN KMSN 170320Z 08003KT 10SM SCT055 20/16 A2979 990 78 1800 090/03 RMK AO2
14837KMSN MSN20110616212509606/16/11 21:25:31  5-MIN KMSN 170325Z 06004KT 10SM SCT055 19/16 A2979 990 81 1800 060/04 RMK AO2
14837KMSN MSN20110616213009606/16/11 21:30:31  5-MIN KMSN 170330Z 06004KT 10SM SCT055 19/16 A2979 990 81 1800 060/04 RMK AO2
14837KMSN MSN20110616213509606/16/11 21:35:31  5-MIN KMSN 170335Z 07004KT 10SM FEW055 19/16 A2979 990 81 1800 070/04 RMK AO2
14837KMSN MSN20110616214009606/16/11 21:40:31  5-MIN KMSN 170340Z 07003KT 10SM FEW055 20/16 A2979 990 78 1800 070/03 RMK AO2
14837KMSN MSN20110616214509606/16/11 21:45:31  5-MIN KMSN 170345Z 07004KT 10SM FEW055 19/16 A2979 990 81 1800 070/04 RMK AO2
14837KMSN MSN20110616215011306/16/11 21:50:31  5-MIN KMSN 170350Z 10003KT 10SM FEW055 19/16 A2979 990 81 1800 100/03 RMK AO2 SLP083 T01940161
14837KMSN MSN20110616215509606/16/11 21:55:31  5-MIN KMSN 170355Z 00000KT 10SM FEW060 19/16 A2979 990 81 1800 000/00 RMK AO2
14837KMSN MSN20110616220009606/16/11 22:00:31  5-MIN KMSN 170400Z 00000KT 10SM FEW060 19/16 A2978 990 81 1800 000/00 RMK AO2
14837KMSN MSN20110616220509606/16/11 22:05:31  5-MIN KMSN 170405Z 00000KT 10SM FEW055 19/16 A2978 990 84 1700 000/00 RMK AO2
14837KMSN MSN20110616221009606/16/11 22:10:31  5-MIN KMSN 170410Z 00000KT 10SM FEW060 18/16 A2978 990 87 1600 000/00 RMK AO2
14837KMSN MSN20110616221509606/16/11 22:15:31  5-MIN KMSN 170415Z 00000KT 10SM FEW060 19/16 A2978 990 84 1700 000/00 RMK AO2
14837KMSN MSN20110616222009606/16/11 22:20:31  5-MIN KMSN 170420Z 00000KT 10SM FEW055 18/16 A2979 990 87 1600 000/00 RMK AO2
14837KMSN MSN20110616222509306/16/11 22:25:31  5-MIN KMSN 170425Z 00000KT 10SM CLR 19/16 A2978 990 84 1700 000/00 RMK AO2
14837KMSN MSN20110616223009306/16/11 22:30:31  5-MIN KMSN 170430Z 00000KT 10SM CLR 18/16 A2979 990 90 1600 000/00 RMK AO2
14837KMSN MSN20110616223509306/16/11 22:35:31  5-MIN KMSN 170435Z 10003KT 10SM CLR 18/16 A2979 990 87 1600 100/03 RMK AO2
14837KMSN MSN20110616224009306/16/11 22:40:31  5-MIN KMSN 170440Z 08003KT 10SM CLR 19/16 A2979 990 81 1700 080/03 RMK AO2
14837KMSN MSN20110616224509306/16/11 22:45:31  5-MIN KMSN 170445Z 07003KT 10SM CLR 18/16 A2979 990 84 1600 070/03 RMK AO2
14837KMSN MSN20110616225011006/16/11 22:50:31  5-MIN KMSN 170450Z 07003KT 10SM CLR 18/16 A2979 980 84 1600 070/03 RMK AO2 SLP085 T01830156
14837KMSN MSN20110616225509306/16/11 22:55:31  5-MIN KMSN 170455Z 00000KT 10SM CLR 18/16 A2979 980 87 1600 000/00 RMK AO2
14837KMSN MSN20110616230009306/16/11 23:00:31  5-MIN KMSN 170500Z 00000KT 10SM CLR 17/16 A2980 980 90 1500 000/00 RMK AO2
14837KMSN MSN20110616230509306/16/11 23:05:31  5-MIN KMSN 170505Z 00000KT 10SM CLR 18/16 A2980 980 87 1600 000/00 RMK AO2
14837KMSN MSN20110616231009306/16/11 23:10:31  5-MIN KMSN 170510Z 00000KT 10SM CLR 18/16 A2979 980 87 1600 000/00 RMK AO2
14837KMSN MSN20110616231509306/16/11 23:15:31  5-MIN KMSN 170515Z 11004KT 10SM CLR 18/16 A2980 980 84 1600 120/04 RMK AO2
14837KMSN MSN20110616232009306/16/11 23:20:31  5-MIN KMSN 170520Z 10005KT 10SM CLR 18/16 A2980 980 84 1600 110/05 RMK AO2
14837KMSN MSN20110616232509306/16/11 23:25:31  5-MIN KMSN 170525Z 10004KT 10SM CLR 18/16 A2980 980 87 1600 100/04 RMK AO2
14837KMSN MSN20110616233009306/16/11 23:30:31  5-MIN KMSN 170530Z 00000KT 10SM CLR 18/16 A2980 980 87 1600 000/00 RMK AO2
14837KMSN MSN20110616233509306/16/11 23:35:31  5-MIN KMSN 170535Z 10003KT 10SM CLR 18/15 A2980 980 83 1600 100/03 RMK AO2
14837KMSN MSN20110616234009306/16/11 23:40:31  5-MIN KMSN 170540Z 00000KT 10SM CLR 18/15 A2980 970 83 1600 000/00 RMK AO2
14837KMSN MSN20110616234509306/16/11 23:45:31  5-MIN KMSN 170545Z 00000KT 10SM CLR 18/15 A2981 970 83 1600 000/00 RMK AO2
14837KMSN MSN20110616235013806/16/11 23:50:31  5-MIN KMSN 170550Z 12004KT 10SM CLR 18/15 A2980 970 83 1600 120/04 RMK AO2 SLP089 T01780150 10256 20172 402670128 53006
14837KMSN MSN20110616235509306/16/11 23:55:31  5-MIN KMSN 170555Z 13004KT 10SM CLR 17/15 A2981 970 87 1500 130/04 RMK AO2
14837KMSN MSN20110617000009306/17/11 00:00:32  5-MIN KMSN 170600Z 11004KT 10SM CLR 18/15 A2981 970 83 1600 110/04 RMK AO2
14837KMSN MSN20110617000509306/17/11 00:05:31  5-MIN KMSN 170605Z 11004KT 10SM CLR 17/15 A2980 970 87 1500 120/04 RMK AO2
14837KMSN MSN20110617001009306/17/11 00:10:31  5-MIN KMSN 170610Z 11004KT 10SM CLR 17/15 A2981 970 87 1500 110/04 RMK AO2
14837KMSN MSN20110617001509306/17/11 00:15:31  5-MIN KMSN 170615Z 11003KT 10SM CLR 17/14 A2981 970 83 1500 110/03 RMK AO2
14837KMSN MSN20110617002009306/17/11 00:20:31  5-MIN KMSN 170620Z 12003KT 10SM CLR 17/15 A2981 970 87 1500 120/03 RMK AO2
14837KMSN MSN20110617002509306/17/11 00:25:31  5-MIN KMSN 170625Z 13003KT 10SM CLR 17/15 A2981 970 87 1500 130/03 RMK AO2
14837KMSN MSN20110617003009306/17/11 00:30:31  5-MIN KMSN 170630Z 13003KT 10SM CLR 17/14 A2981 970 83 1500 130/03 RMK AO2
14837KMSN MSN20110617003509306/17/11 00:35:31  5-MIN KMSN 170635Z 14003KT 10SM CLR 18/14 A2981 970 81 1600 140/03 RMK AO2
14837KMSN MSN20110617004009306/17/11 00:40:31  5-MIN KMSN 170640Z 14003KT 10SM CLR 17/14 A2981 970 83 1500 140/03 RMK AO2
14837KMSN MSN20110617004509306/17/11 00:45:31  5-MIN KMSN 170645Z 15003KT 10SM CLR 18/14 A2981 970 81 1600 150/03 RMK AO2
14837KMSN MSN20110617005011006/17/11 00:50:31  5-MIN KMSN 170650Z 16004KT 10SM CLR 18/14 A2981 970 81 1600 160/04 RMK AO2 SLP090 T01780144
14837KMSN MSN20110617005509306/17/11 00:55:31  5-MIN KMSN 170655Z 16005KT 10SM CLR 18/14 A2981 970 81 1600 160/05 RMK AO2
14837KMSN MSN20110617010009306/17/11 01:00:31  5-MIN KMSN 170700Z 16005KT 10SM CLR 18/14 A2981 960 81 1600 160/05 RMK AO2
14837KMSN MSN20110617010509306/17/11 01:05:31  5-MIN KMSN 170705Z 18004KT 10SM CLR 18/14 A2982 960 81 1500 180/04 RMK AO2
14837KMSN MSN20110617011009306/17/11 01:10:31  5-MIN KMSN 170710Z 18005KT 10SM CLR 18/14 A2982 960 81 1500 180/05 RMK AO2
14837KMSN MSN20110617011509306/17/11 01:15:31  5-MIN KMSN 170715Z 18006KT 10SM CLR 18/14 A2982 960 81 1500 180/06 RMK AO2
14837KMSN MSN20110617012009306/17/11 01:20:31  5-MIN KMSN 170720Z 18004KT 10SM CLR 18/15 A2982 960 83 1500 180/04 RMK AO2
14837KMSN MSN20110617012509306/17/11 01:25:31  5-MIN KMSN 170725Z 18004KT 10SM CLR 18/14 A2982 960 81 1500 180/04 RMK AO2
14837KMSN MSN20110617013009306/17/11 01:30:31  5-MIN KMSN 170730Z 18005KT 10SM CLR 18/14 A2983 950 81 1500 180/05 RMK AO2
14837KMSN MSN20110617013509306/17/11 01:35:31  5-MIN KMSN 170735Z 19004KT 10SM CLR 18/14 A2983 940 81 1500 190/04 RMK AO2
14837KMSN MSN20110617014009306/17/11 01:40:31  5-MIN KMSN 170740Z 18003KT 10SM CLR 18/14 A2984 940 81 1500 190/03 RMK AO2
14837KMSN MSN20110617014509306/17/11 01:45:31  5-MIN KMSN 170745Z 18003KT 10SM CLR 18/14 A2984 940 81 1500 180/03 RMK AO2
14837KMSN MSN20110617015011006/17/11 01:50:31  5-MIN KMSN 170750Z 16003KT 10SM CLR 18/14 A2984 940 81 1500 170/03 RMK AO2 SLP101 T01780144
14837KMSN MSN20110617015509306/17/11 01:55:31  5-MIN KMSN 170755Z 16003KT 10SM CLR 18/14 A2984 940 81 1500 170/03 RMK AO2
14837KMSN MSN20110617020009306/17/11 02:00:31  5-MIN KMSN 170800Z 15003KT 10SM CLR 18/14 A2984 940 81 1500 150/03 RMK AO2
14837KMSN MSN20110617020509306/17/11 02:05:31  5-MIN KMSN 170805Z 00000KT 10SM CLR 18/14 A2984 940 81 1500 000/00 RMK AO2
14837KMSN MSN20110617021009306/17/11 02:10:31  5-MIN KMSN 170810Z 14004KT 10SM CLR 17/14 A2984 940 83 1500 140/04 RMK AO2
14837KMSN MSN20110617021509306/17/11 02:15:31  5-MIN KMSN 170815Z 15003KT 10SM CLR 17/14 A2984 940 83 1500 150/03 RMK AO2
14837KMSN MSN20110617022009306/17/11 02:20:31  5-MIN KMSN 170820Z 15003KT 10SM CLR 17/14 A2984 940 83 1500 150/03 RMK AO2
14837KMSN MSN20110617022509306/17/11 02:25:31  5-MIN KMSN 170825Z 00000KT 10SM CLR 17/14 A2984 940 86 1400 000/00 RMK AO2
14837KMSN MSN20110617023009206/17/11 02:30:31  5-MIN KMSN 170830Z 00000KT 9SM CLR 16/14 A2985 930 90 1300 000/00 RMK AO2
14837KMSN MSN20110617023509206/17/11 02:35:31  5-MIN KMSN 170835Z 00000KT 8SM CLR 15/14 A2985 930 93 1200 000/00 RMK AO2
14837KMSN MSN20110617024009206/17/11 02:40:31  5-MIN KMSN 170840Z 00000KT 8SM CLR 16/14 A2984 930 86 1300 000/00 RMK AO2
14837KMSN MSN20110617024509206/17/11 02:45:31  5-MIN KMSN 170845Z 00000KT 8SM CLR 16/14 A2984 940 90 1300 000/00 RMK AO2
14837KMSN MSN20110617072009806/17/11 07:20:31  5-MIN KMSN 171320Z 00000KT 6SM HZ FEW060 21/16 A2984 940 75 1800 000/00 RMK AO2
14837KMSN MSN20110617072509806/17/11 07:25:31  5-MIN KMSN 171325Z 00000KT 6SM HZ FEW060 21/17 A2984 940 75 1900 000/00 RMK AO2
14837KMSN MSN20110617073009806/17/11 07:30:31  5-MIN KMSN 171330Z 00000KT 6SM HZ FEW060 21/17 A2984 940 75 1900 000/00 RMK AO2
14837KMSN MSN20110617073509806/17/11 07:35:31  5-MIN KMSN 171335Z 00000KT 6SM HZ FEW060 22/17 A2983 950 73 2000 000/00 RMK AO2
14837KMSN MSN20110617074009806/17/11 07:40:31  5-MIN KMSN 171340Z 05003KT 6SM HZ FEW060 22/17 A2983 950 75 2000 050/03 RMK AO2
14837KMSN MSN20110617074509806/17/11 07:45:31  5-MIN KMSN 171345Z 04003KT 6SM HZ FEW060 22/17 A2983 950 75 2000 050/03 RMK AO2
14837KMSN MSN20110617075011206/17/11 07:50:31  5-MIN KMSN 171350Z 06005KT 7SM FEW060 22/17 A2983 950 73 2100 060/05 RMK AO2 SLP095 T02220172
14837KMSN MSN20110617075509206/17/11 07:55:31  5-MIN KMSN 171355Z 05004KT 7SM CLR 22/17 A2982 950 73 2100 050/04 RMK AO2
14837KMSN MSN20110617080009206/17/11 08:00:31  5-MIN KMSN 171400Z 06005KT 7SM CLR 22/18 A2982 960 75 2100 060/05 RMK AO2
14837KMSN MSN20110617080509206/17/11 08:05:31  5-MIN KMSN 171405Z 05005KT 7SM CLR 23/18 A2982 960 73 2100 050/05 RMK AO2
14837KMSN MSN20110617081009206/17/11 08:10:31  5-MIN KMSN 171410Z 06006KT 7SM CLR 23/18 A2981 960 73 2100 060/06 RMK AO2
14837KMSN MSN20110617081509206/17/11 08:15:31  5-MIN KMSN 171415Z 06005KT 8SM CLR 23/18 A2982 960 73 2100 060/05 RMK AO2
14837KMSN MSN20110617082009206/17/11 08:20:31  5-MIN KMSN 171420Z 05006KT 9SM CLR 23/18 A2982 960 70 2200 060/06 RMK AO2
14837KMSN MSN20110617082509206/17/11 08:25:31  5-MIN KMSN 171425Z 07006KT 9SM CLR 24/18 A2982 960 68 2200 070/06 RMK AO2
14837KMSN MSN20110617083009306/17/11 08:30:31  5-MIN KMSN 171430Z 07005KT 10SM CLR 23/18 A2982 960 70 2200 070/05 RMK AO2
14837KMSN MSN20110617083509306/17/11 08:35:31  5-MIN KMSN 171435Z 07004KT 10SM CLR 24/17 A2982 960 66 2200 070/04 RMK AO2
14837KMSN MSN20110617084009306/17/11 08:40:31  5-MIN KMSN 171440Z VRB04KT 10SM CLR 24/18 A2982 960 68 2200 VRB/04 RMK AO2
14837KMSN MSN20110617084509206/17/11 08:45:31  5-MIN KMSN 171445Z 08006KT 9SM CLR 24/18 A2981 970 71 2300 080/06 RMK AO2
14837KMSN MSN20110617085011506/17/11 08:50:31  5-MIN KMSN 171450Z 08006KT 8SM CLR 24/18 A2981 970 71 2300 090/06 RMK AO2 SLP090 T02390183 53002
14837KMSN MSN20110617085509206/17/11 08:55:31  5-MIN KMSN 171455Z 08007KT 8SM CLR 24/18 A2981 970 71 2300 090/07 RMK AO2
14837KMSN MSN20110617090009206/17/11 09:00:31  5-MIN KMSN 171500Z 08006KT 8SM CLR 24/18 A2981 970 68 2300 080/06 RMK AO2
14837KMSN MSN20110617090509206/17/11 09:05:31  5-MIN KMSN 171505Z 08006KT 8SM CLR 24/18 A2981 970 68 2300 090/06 RMK AO2
14837KMSN MSN20110617091009206/17/11 09:10:31  5-MIN KMSN 171510Z 08006KT 8SM CLR 24/18 A2981 960 68 2300 090/06 RMK AO2
14837KMSN MSN20110617091509206/17/11 09:15:31  5-MIN KMSN 171515Z 08008KT 8SM CLR 24/18 A2981 960 71 2300 080/08 RMK AO2
14837KMSN MSN20110617092009206/17/11 09:20:31  5-MIN KMSN 171520Z VRB06KT 8SM CLR 24/18 A2981 970 68 2300 VRB/06 RMK AO2
14837KMSN MSN20110617092509206/17/11 09:25:31  5-MIN KMSN 171525Z 09007KT 8SM CLR 24/18 A2981 960 71 2300 090/07 RMK AO2
14837KMSN MSN20110617093009206/17/11 09:30:31  5-MIN KMSN 171530Z 09007KT 8SM CLR 24/18 A2982 960 68 2300 090/07 RMK AO2
14837KMSN MSN20110617093509206/17/11 09:35:31  5-MIN KMSN 171535Z 07008KT 8SM CLR 24/18 A2982 960 68 2300 070/08 RMK AO2
14837KMSN MSN20110617094009206/17/11 09:40:31  5-MIN KMSN 171540Z 09008KT 8SM CLR 24/18 A2981 960 68 2300 100/08 RMK AO2
14837KMSN MSN20110617094509206/17/11 09:45:31  5-MIN KMSN 171545Z 07008KT 9SM CLR 24/18 A2981 970 68 2300 070/08 RMK AO2
14837KMSN MSN20110617095011206/17/11 09:50:31  5-MIN KMSN 171550Z 08010KT 8SM FEW025 25/18 A2981 970 66 2400 080/10 RMK AO2 SLP090 T02500183
14837KMSN MSN20110617095510106/17/11 09:55:31  5-MIN KMSN 171555Z 08010G15KT 8SM FEW025 25/18 A2981 960 66 2400 080/10G15 RMK AO2
14837KMSN MSN20110617100010106/17/11 10:00:31  5-MIN KMSN 171600Z 08011G15KT 8SM FEW025 25/19 A2982 960 68 2400 080/11G15 RMK AO2
14837KMSN MSN20110617100509206/17/11 10:05:31  5-MIN KMSN 171605Z 08011KT 9SM CLR 25/18 A2982 950 66 2400 080/11 RMK AO2
14837KMSN MSN20110617101009206/17/11 10:10:31  5-MIN KMSN 171610Z 09008KT 8SM CLR 25/18 A2983 950 66 2400 090/08 RMK AO2
14837KMSN MSN20110617101509206/17/11 10:15:31  5-MIN KMSN 171615Z 09009KT 8SM CLR 25/18 A2983 940 66 2400 090/09 RMK AO2
14837KMSN MSN20110617102009206/17/11 10:20:31  5-MIN KMSN 171620Z 09007KT 8SM CLR 26/18 A2984 940 64 2400 090/07 RMK AO2
14837KMSN MSN20110617102509206/17/11 10:25:31  5-MIN KMSN 171625Z 08008KT 9SM CLR 26/18 A2984 940 64 2400 090/08 RMK AO2
14837KMSN MSN20110617103009206/17/11 10:30:31  5-MIN KMSN 171630Z 08007KT 9SM CLR 26/18 A2984 940 64 2400 090/07 RMK AO2
14837KMSN MSN20110617103509206/17/11 10:35:31  5-MIN KMSN 171635Z 07007KT 9SM CLR 26/18 A2984 940 64 2400 080/07 RMK AO2
14837KMSN MSN20110617104009206/17/11 10:40:31  5-MIN KMSN 171640Z 12010KT 9SM CLR 26/18 A2984 930 64 2400 130/10 RMK AO2
14837KMSN MSN20110617104509206/17/11 10:45:31  5-MIN KMSN 171645Z 10008KT 9SM CLR 26/18 A2985 930 64 2400 100/08 RMK AO2
14837KMSN MSN20110617105011006/17/11 10:50:31  5-MIN KMSN 171650Z 11010KT 10SM CLR 26/18 A2985 930 64 2400 110/10 RMK AO2 SLP103 T02560183
14837KMSN MSN20110617105509306/17/11 10:55:31  5-MIN KMSN 171655Z 10007KT 10SM CLR 26/18 A2984 930 64 2400 110/07 RMK AO2
14837KMSN MSN20110617110009606/17/11 11:00:31  5-MIN KMSN 171700Z 11008KT 10SM FEW030 26/18 A2984 930 62 2500 110/08 RMK AO2
14837KMSN MSN20110617110509606/17/11 11:05:31  5-MIN KMSN 171705Z 10008KT 10SM FEW030 26/18 A2984 940 64 2400 110/08 RMK AO2
14837KMSN MSN20110617111009606/17/11 11:10:31  5-MIN KMSN 171710Z 10006KT 10SM FEW030 26/18 A2984 940 62 2500 100/06 RMK AO2
14837KMSN MSN20110617111509606/17/11 11:15:31  5-MIN KMSN 171715Z 07009KT 10SM FEW030 26/18 A2984 940 62 2500 070/09 RMK AO2
14837KMSN MSN20110617112009606/17/11 11:20:31  5-MIN KMSN 171720Z 07008KT 10SM FEW030 26/18 A2984 940 62 2500 070/08 RMK AO2
14837KMSN MSN20110617112509606/17/11 11:25:31  5-MIN KMSN 171725Z 08007KT 10SM FEW030 26/18 A2984 940 62 2500 080/07 RMK AO2
14837KMSN MSN20110617113009606/17/11 11:30:31  5-MIN KMSN 171730Z 08009KT 10SM FEW030 26/19 A2984 940 64 2500 080/09 RMK AO2
14837KMSN MSN20110617113509606/17/11 11:35:31  5-MIN KMSN 171735Z 08008KT 10SM FEW030 26/19 A2984 940 64 2500 080/08 RMK AO2
14837KMSN MSN20110617114009606/17/11 11:40:31  5-MIN KMSN 171740Z 12009KT 10SM FEW030 26/18 A2984 940 62 2500 120/09 RMK AO2
14837KMSN MSN20110617114509606/17/11 11:45:31  5-MIN KMSN 171745Z 12010KT 10SM FEW030 26/18 A2984 940 62 2500 120/10 RMK AO2
14837KMSN MSN20110617115013106/17/11 11:50:31  5-MIN KMSN 171750Z 11009KT 10SM FEW030 26/18 A2984 940 62 2500 120/09 RMK AO2 SLP099 T02610183 10267 20178 58013
14837KMSN MSN20110617115509306/17/11 11:55:31  5-MIN KMSN 171755Z 09010KT 10SM CLR 27/19 A2984 940 62 2500 090/10 RMK AO2
14837KMSN MSN20110617120009306/17/11 12:00:31  5-MIN KMSN 171800Z 08007KT 10SM CLR 27/19 A2983 950 62 2500 080/07 RMK AO2
14837KMSN MSN20110617120509306/17/11 12:05:31  5-MIN KMSN 171805Z 08007KT 10SM CLR 27/19 A2983 950 62 2500 090/07 RMK AO2
14837KMSN MSN20110617121009306/17/11 12:10:31  5-MIN KMSN 171810Z 09012KT 10SM CLR 27/19 A2983 950 62 2500 100/12 RMK AO2
14837KMSN MSN20110617121509306/17/11 12:15:31  5-MIN KMSN 171815Z 09009KT 10SM CLR 27/19 A2983 950 62 2600 090/09 RMK AO2
14837KMSN MSN20110617122009306/17/11 12:20:31  5-MIN KMSN 171820Z 09012KT 10SM CLR 27/19 A2982 950 62 2600 090/12 RMK AO2
14837KMSN MSN20110617122509306/17/11 12:25:31  5-MIN KMSN 171825Z 08012KT 10SM CLR 27/19 A2982 950 62 2600 090/12 RMK AO2
14837KMSN MSN20110617123009306/17/11 12:30:31  5-MIN KMSN 171830Z 12008KT 10SM CLR 27/19 A2982 950 64 2600 120/08 RMK AO2
14837KMSN MSN20110617123509306/17/11 12:35:31  5-MIN KMSN 171835Z 11009KT 10SM CLR 27/19 A2982 950 62 2600 120/09 RMK AO2
14837KMSN MSN20110617124009306/17/11 12:40:31  5-MIN KMSN 171840Z 12009KT 10SM CLR 27/19 A2982 950 62 2600 120/09 RMK AO2
14837KMSN MSN20110617124509306/17/11 12:45:31  5-MIN KMSN 171845Z 12008KT 10SM CLR 27/19 A2983 950 60 2600 130/08 RMK AO2
14837KMSN MSN20110617125011906/17/11 12:50:31  5-MIN KMSN 171850Z VRB05G15KT 10SM FEW035 27/19 A2982 950 62 2600 VRB/05G15 RMK AO2 SLP095 T02670189
14837KMSN MSN20110617125509606/17/11 12:55:31  5-MIN KMSN 171855Z 09009KT 10SM FEW035 27/19 A2982 960 60 2600 090/09 RMK AO2
14837KMSN MSN20110617130009606/17/11 13:00:31  5-MIN KMSN 171900Z 09009KT 10SM FEW035 27/19 A2982 960 62 2600 090/09 RMK AO2
14837KMSN MSN20110617130509606/17/11 13:05:31  5-MIN KMSN 171905Z 07010KT 10SM FEW035 27/19 A2982 960 62 2600 070/10 RMK AO2
14837KMSN MSN20110617131009606/17/11 13:10:31  5-MIN KMSN 171910Z 10010KT 10SM FEW035 27/19 A2982 960 60 2600 100/10 RMK AO2
14837KMSN MSN20110617131509606/17/11 13:15:31  5-MIN KMSN 171915Z 09010KT 10SM FEW035 27/18 A2982 960 60 2600 090/10 RMK AO2
14837KMSN MSN20110617132010206/17/11 13:20:31  5-MIN KMSN 171920Z 08008G16KT 10SM FEW035 26/18 A2982 950 62 2500 090/08G16 RMK AO2
14837KMSN MSN20110617132509606/17/11 13:25:31  5-MIN KMSN 171925Z 09010KT 10SM FEW035 27/19 A2982 950 62 2600 100/10 RMK AO2
14837KMSN MSN20110617133009606/17/11 13:30:31  5-MIN KMSN 171930Z 08009KT 10SM FEW035 26/18 A2983 950 62 2500 080/09 RMK AO2
14837KMSN MSN20110617133509606/17/11 13:35:31  5-MIN KMSN 171935Z 08010KT 10SM FEW035 27/18 A2983 950 60 2500 080/10 RMK AO2
14837KMSN MSN20110617134010306/17/11 13:40:31  5-MIN KMSN 171940Z 09008KT 10SM FEW035 SCT046 26/18 A2983 950 62 2500 100/08 RMK AO2
14837KMSN MSN20110617134510306/17/11 13:45:31  5-MIN KMSN 171945Z 10008KT 10SM FEW035 SCT046 26/19 A2983 950 64 2500 100/08 RMK AO2
14837KMSN MSN20110617135012006/17/11 13:50:31  5-MIN KMSN 171950Z 10008KT 10SM SCT035 BKN046 27/19 A2983 940 62 2500 110/08 RMK AO2 SLP098 T02670189
14837KMSN MSN20110617135510306/17/11 13:55:31  5-MIN KMSN 171955Z 11008KT 10SM BKN037 BKN046 26/18 A2984 940 62 2500 110/08 RMK AO2
14837KMSN MSN20110617140010306/17/11 14:00:31  5-MIN KMSN 172000Z 12011KT 10SM BKN037 BKN046 26/18 A2983 940 62 2500 130/11 RMK AO2
14837KMSN MSN20110617140510306/17/11 14:05:31  5-MIN KMSN 172005Z 12009KT 10SM SCT037 BKN046 27/18 A2983 950 60 2500 130/09 RMK AO2
14837KMSN MSN20110617141010306/17/11 14:10:31  5-MIN KMSN 172010Z 13009KT 10SM SCT037 SCT044 27/18 A2983 950 58 2600 130/09 RMK AO2
14837KMSN MSN20110617141510306/17/11 14:15:31  5-MIN KMSN 172015Z 10010KT 10SM SCT037 SCT044 27/19 A2983 950 60 2600 100/10 RMK AO2
14837KMSN MSN20110617142010306/17/11 14:20:31  5-MIN KMSN 172020Z 08011KT 10SM SCT037 SCT044 27/19 A2983 950 60 2600 080/11 RMK AO2
14837KMSN MSN20110617142509606/17/11 14:25:31  5-MIN KMSN 172025Z 10010KT 10SM FEW037 27/19 A2983 950 60 2600 100/10 RMK AO2
14837KMSN MSN20110617143009606/17/11 14:30:31  5-MIN KMSN 172030Z 12011KT 10SM FEW037 27/19 A2983 950 60 2600 120/11 RMK AO2
14837KMSN MSN20110617143510306/17/11 14:35:31  5-MIN KMSN 172035Z 11010KT 10SM FEW037 SCT049 27/18 A2983 950 60 2500 110/10 RMK AO2
14837KMSN MSN20110617144010306/17/11 14:40:31  5-MIN KMSN 172040Z 10008KT 10SM SCT037 BKN049 27/18 A2983 950 60 2500 100/08 RMK AO2
14837KMSN MSN20110617144510306/17/11 14:45:31  5-MIN KMSN 172045Z 11010KT 10SM SCT037 BKN049 27/18 A2983 950 60 2500 110/10 RMK AO2
14837KMSN MSN20110617145012606/17/11 14:50:31  5-MIN KMSN 172050Z 10010KT 10SM SCT037 BKN049 27/19 A2983 950 62 2500 110/10 RMK AO2 SLP097 T02670189 50009
14837KMSN MSN20110617145510306/17/11 14:55:31  5-MIN KMSN 172055Z 09010KT 10SM SCT037 BKN049 27/18 A2983 950 60 2500 100/10 RMK AO2
14837KMSN MSN20110617150010306/17/11 15:00:31  5-MIN KMSN 172100Z 11011KT 10SM FEW037 SCT049 27/18 A2984 940 60 2500 110/11 RMK AO2
14837KMSN MSN20110617150510306/17/11 15:05:31  5-MIN KMSN 172105Z 13008KT 10SM FEW037 SCT049 27/18 A2984 940 60 2500 130/08 RMK AO2
14837KMSN MSN20110617151010306/17/11 15:10:31  5-MIN KMSN 172110Z 11009KT 10SM FEW037 SCT049 26/18 A2984 940 62 2500 110/09 RMK AO2
14837KMSN MSN20110617151509606/17/11 15:15:31  5-MIN KMSN 172115Z 12007KT 10SM SCT049 26/18 A2984 940 62 2500 120/07 RMK AO2
14837KMSN MSN20110617152009606/17/11 15:20:31  5-MIN KMSN 172120Z 10012KT 10SM FEW049 27/18 A2984 940 60 2500 110/12 RMK AO2
14837KMSN MSN20110617152509606/17/11 15:25:31  5-MIN KMSN 172125Z 08009KT 10SM FEW049 27/18 A2984 940 60 2500 080/09 RMK AO2
14837KMSN MSN20110617153009606/17/11 15:30:31  5-MIN KMSN 172130Z 11010KT 10SM FEW049 27/19 A2984 940 60 2600 110/10 RMK AO2
14837KMSN MSN20110617153509606/17/11 15:35:31  5-MIN KMSN 172135Z 10011KT 10SM FEW049 27/18 A2984 940 60 2500 100/11 RMK AO2
14837KMSN MSN20110617154009606/17/11 15:40:31  5-MIN KMSN 172140Z 08011KT 10SM FEW049 27/18 A2984 940 60 2500 090/11 RMK AO2
14837KMSN MSN20110617154509606/17/11 15:45:31  5-MIN KMSN 172145Z 10010KT 10SM FEW049 27/18 A2984 940 60 2500 100/10 RMK AO2
14837KMSN MSN20110617155011306/17/11 15:50:31  5-MIN KMSN 172150Z 11011KT 10SM FEW049 27/18 A2984 940 60 2500 110/11 RMK AO2 SLP100 T02670183
14837KMSN MSN20110617155509606/17/11 15:55:31  5-MIN KMSN 172155Z 09009KT 10SM FEW049 27/18 A2984 940 60 2500 090/09 RMK AO2
14837KMSN MSN20110617160009606/17/11 16:00:31  5-MIN KMSN 172200Z 11011KT 10SM FEW049 27/18 A2984 940 60 2500 110/11 RMK AO2
14837KMSN MSN20110617160509606/17/11 16:05:31  5-MIN KMSN 172205Z 12007KT 10SM FEW049 27/18 A2984 940 57 2500 120/07 RMK AO2
14837KMSN MSN20110617161009606/17/11 16:10:31  5-MIN KMSN 172210Z 12007KT 10SM FEW049 27/18 A2984 940 60 2500 120/07 RMK AO2
14837KMSN MSN20110617161509606/17/11 16:15:31  5-MIN KMSN 172215Z 11008KT 10SM FEW049 26/18 A2984 940 62 2500 110/08 RMK AO2
14837KMSN MSN20110617162009606/17/11 16:20:31  5-MIN KMSN 172220Z 11011KT 10SM FEW049 26/18 A2984 940 62 2500 110/11 RMK AO2
14837KMSN MSN20110617162509606/17/11 16:25:31  5-MIN KMSN 172225Z 09011KT 10SM FEW049 26/18 A2984 940 62 2500 090/11 RMK AO2
14837KMSN MSN20110617163009606/17/11 16:30:31  5-MIN KMSN 172230Z 09010KT 10SM FEW049 27/18 A2984 940 57 2500 100/10 RMK AO2
14837KMSN MSN20110617163509606/17/11 16:35:31  5-MIN KMSN 172235Z 12010KT 10SM FEW049 26/18 A2984 940 59 2500 120/10 RMK AO2
14837KMSN MSN20110617164009606/17/11 16:40:31  5-MIN KMSN 172240Z 10009KT 10SM FEW049 26/18 A2984 940 59 2500 100/09 RMK AO2
14837KMSN MSN20110617164509306/17/11 16:45:31  5-MIN KMSN 172245Z 10009KT 10SM CLR 26/18 A2984 940 59 2500 100/09 RMK AO2
14837KMSN MSN20110617165011006/17/11 16:50:31  5-MIN KMSN 172250Z 11009KT 10SM CLR 26/18 A2983 940 62 2500 110/09 RMK AO2 SLP099 T02610183
14837KMSN MSN20110617165509306/17/11 16:55:31  5-MIN KMSN 172255Z 10010KT 10SM CLR 26/18 A2983 950 62 2500 110/10 RMK AO2
14837KMSN MSN20110617170009306/17/11 17:00:31  5-MIN KMSN 172300Z 11009KT 10SM CLR 26/18 A2984 940 64 2400 110/09 RMK AO2
14837KMSN MSN20110617170509306/17/11 17:05:31  5-MIN KMSN 172305Z 11010KT 10SM CLR 26/18 A2984 940 62 2500 110/10 RMK AO2
14837KMSN MSN20110617171009306/17/11 17:10:31  5-MIN KMSN 172310Z 11010KT 10SM CLR 26/18 A2984 940 62 2500 110/10 RMK AO2
14837KMSN MSN20110617171509306/17/11 17:15:31  5-MIN KMSN 172315Z 09009KT 10SM CLR 26/18 A2984 940 62 2500 090/09 RMK AO2
14837KMSN MSN20110617172009306/17/11 17:20:31  5-MIN KMSN 172320Z 11008KT 10SM CLR 26/18 A2984 940 64 2400 110/08 RMK AO2
14837KMSN MSN20110617172509306/17/11 17:25:31  5-MIN KMSN 172325Z 12009KT 10SM CLR 26/18 A2984 940 64 2400 120/09 RMK AO2
14837KMSN MSN20110617173009306/17/11 17:30:31  5-MIN KMSN 172330Z 12011KT 10SM CLR 26/18 A2984 930 64 2400 130/11 RMK AO2
14837KMSN MSN20110617173509306/17/11 17:35:31  5-MIN KMSN 172335Z 10009KT 10SM CLR 26/18 A2984 940 64 2400 110/09 RMK AO2
14837KMSN MSN20110617174009306/17/11 17:40:31  5-MIN KMSN 172340Z 08011KT 10SM CLR 25/18 A2985 930 66 2300 080/11 RMK AO2
14837KMSN MSN20110617174509306/17/11 17:45:31  5-MIN KMSN 172345Z 08011KT 10SM CLR 25/18 A2984 940 64 2300 080/11 RMK AO2
14837KMSN MSN20110617175012806/17/11 17:50:31  5-MIN KMSN 172350Z 08010KT 10SM CLR 25/18 A2984 940 66 2300 080/10 RMK AO2 SLP102 T02500183 10272 20250 56001
14837KMSN MSN20110617175509306/17/11 17:55:31  5-MIN KMSN 172355Z 08007KT 10SM CLR 25/18 A2985 930 66 2300 080/07 RMK AO2
14837KMSN MSN20110617180009306/17/11 18:00:31  5-MIN KMSN 180000Z 10008KT 10SM CLR 25/18 A2985 930 66 2300 110/08 RMK AO2
14837KMSN MSN20110617180509306/17/11 18:05:31  5-MIN KMSN 180005Z 09010KT 10SM CLR 25/18 A2984 930 64 2300 100/10 RMK AO2
14837KMSN MSN20110617181009606/17/11 18:10:31  5-MIN KMSN 180010Z 08010KT 10SM FEW100 24/18 A2985 930 66 2300 080/10 RMK AO2
14837KMSN MSN20110617181509606/17/11 18:15:31  5-MIN KMSN 180015Z 07008KT 10SM FEW100 24/18 A2985 930 66 2300 080/08 RMK AO2
14837KMSN MSN20110617182009306/17/11 18:20:31  5-MIN KMSN 180020Z 07008KT 10SM CLR 24/18 A2985 930 66 2300 070/08 RMK AO2
14837KMSN MSN20110617182509306/17/11 18:25:31  5-MIN KMSN 180025Z 07008KT 10SM CLR 24/18 A2985 930 66 2300 080/08 RMK AO2
14837KMSN MSN20110617183009306/17/11 18:30:31  5-MIN KMSN 180030Z 07009KT 10SM CLR 24/18 A2985 930 68 2200 080/09 RMK AO2
14837KMSN MSN20110617183509306/17/11 18:35:31  5-MIN KMSN 180035Z 08007KT 10SM CLR 24/18 A2985 930 68 2200 080/07 RMK AO2
14837KMSN MSN20110617184009306/17/11 18:40:31  5-MIN KMSN 180040Z 08008KT 10SM CLR 24/18 A2985 930 68 2200 080/08 RMK AO2
14837KMSN MSN20110617184509306/17/11 18:45:31  5-MIN KMSN 180045Z 09007KT 10SM CLR 24/17 A2985 930 66 2200 090/07 RMK AO2
14837KMSN MSN20110617185011006/17/11 18:50:31  5-MIN KMSN 180050Z 07009KT 10SM CLR 24/17 A2985 930 66 2200 080/09 RMK AO2 SLP103 T02390172
14837KMSN MSN20110617185509306/17/11 18:55:31  5-MIN KMSN 180055Z 08007KT 10SM CLR 23/17 A2985 930 68 2100 080/07 RMK AO2
14837KMSN MSN20110617190009306/17/11 19:00:31  5-MIN KMSN 180100Z 07008KT 10SM CLR 23/17 A2985 930 68 2100 070/08 RMK AO2
14837KMSN MSN20110617190509306/17/11 19:05:31  5-MIN KMSN 180105Z 08008KT 10SM CLR 23/17 A2985 930 68 2100 080/08 RMK AO2
14837KMSN MSN20110617191009306/17/11 19:10:31  5-MIN KMSN 180110Z 09009KT 10SM CLR 23/17 A2985 930 70 2100 090/09 RMK AO2
14837KMSN MSN20110617191509306/17/11 19:15:31  5-MIN KMSN 180115Z 09007KT 10SM CLR 23/17 A2985 930 66 2100 100/07 RMK AO2
14837KMSN MSN20110617192009306/17/11 19:20:31  5-MIN KMSN 180120Z 10007KT 10SM CLR 23/17 A2985 930 66 2100 100/07 RMK AO2
14837KMSN MSN20110617192509306/17/11 19:25:31  5-MIN KMSN 180125Z 10005KT 10SM CLR 23/17 A2985 930 66 2100 100/05 RMK AO2
14837KMSN MSN20110617193009306/17/11 19:30:31  5-MIN KMSN 180130Z 10005KT 10SM CLR 23/17 A2985 930 68 2100 110/05 RMK AO2
14837KMSN MSN20110617193509306/17/11 19:35:31  5-MIN KMSN 180135Z 10005KT 10SM CLR 23/17 A2985 930 68 2100 100/05 RMK AO2
14837KMSN MSN20110617194009306/17/11 19:40:31  5-MIN KMSN 180140Z 10007KT 10SM CLR 22/17 A2985 930 70 2000 100/07 RMK AO2
14837KMSN MSN20110617194509306/17/11 19:45:31  5-MIN KMSN 180145Z 08006KT 10SM CLR 22/17 A2985 930 70 2000 090/06 RMK AO2
14837KMSN MSN20110617195011006/17/11 19:50:31  5-MIN KMSN 180150Z 08005KT 10SM CLR 22/17 A2985 930 70 2000 080/05 RMK AO2 SLP104 T02220167
14837KMSN MSN20110617195509306/17/11 19:55:31  5-MIN KMSN 180155Z 08006KT 10SM CLR 22/17 A2985 930 75 2000 080/06 RMK AO2
14837KMSN MSN20110617200009306/17/11 20:00:31  5-MIN KMSN 180200Z 07006KT 10SM CLR 22/17 A2985 930 75 2000 080/06 RMK AO2
14837KMSN MSN20110617200509306/17/11 20:05:31  5-MIN KMSN 180205Z 07005KT 10SM CLR 22/17 A2985 930 75 2000 080/05 RMK AO2
14837KMSN MSN20110617201009306/17/11 20:10:31  5-MIN KMSN 180210Z 07004KT 10SM CLR 22/17 A2985 930 75 2000 080/04 RMK AO2
14837KMSN MSN20110617201509306/17/11 20:15:31  5-MIN KMSN 180215Z 08005KT 10SM CLR 22/17 A2985 930 75 2000 080/05 RMK AO2
14837KMSN MSN20110617202009306/17/11 20:20:31  5-MIN KMSN 180220Z 08005KT 10SM CLR 21/17 A2986 920 78 1900 080/05 RMK AO2
14837KMSN MSN20110617202509306/17/11 20:25:31  5-MIN KMSN 180225Z 09005KT 10SM CLR 21/17 A2986 920 78 1900 090/05 RMK AO2
14837KMSN MSN20110617203009306/17/11 20:30:31  5-MIN KMSN 180230Z 09005KT 10SM CLR 21/17 A2986 920 78 1900 090/05 RMK AO2
14837KMSN MSN20110617203509306/17/11 20:35:31  5-MIN KMSN 180235Z 09007KT 10SM CLR 22/17 A2986 920 75 1900 100/07 RMK AO2
14837KMSN MSN20110617204009306/17/11 20:40:31  5-MIN KMSN 180240Z 09006KT 10SM CLR 22/17 A2986 920 73 1900 090/06 RMK AO2
14837KMSN MSN20110617204509306/17/11 20:45:31  5-MIN KMSN 180245Z 10007KT 10SM CLR 21/17 A2986 920 75 1900 110/07 RMK AO2
14837KMSN MSN20110617205011606/17/11 20:50:31  5-MIN KMSN 180250Z 11005KT 10SM CLR 22/17 A2986 920 73 1900 110/05 RMK AO2 SLP108 T02170167 53004
14837KMSN MSN20110617205509306/17/11 20:55:31  5-MIN KMSN 180255Z 11007KT 10SM CLR 21/17 A2986 920 75 1900 110/07 RMK AO2
14837KMSN MSN20110617210009306/17/11 21:00:31  5-MIN KMSN 180300Z 12006KT 10SM CLR 21/17 A2987 920 75 1900 120/06 RMK AO2
14837KMSN MSN20110617210509306/17/11 21:05:31  5-MIN KMSN 180305Z 10008KT 10SM CLR 21/17 A2987 910 75 1900 100/08 RMK AO2
14837KMSN MSN20110617211009306/17/11 21:10:31  5-MIN KMSN 180310Z 10005KT 10SM CLR 21/17 A2987 910 75 1900 100/05 RMK AO2
14837KMSN MSN20110617211509306/17/11 21:15:31  5-MIN KMSN 180315Z 10007KT 10SM CLR 21/17 A2987 910 75 1900 100/07 RMK AO2
14837KMSN MSN20110617212009306/17/11 21:20:31  5-MIN KMSN 180320Z 09006KT 10SM CLR 21/17 A2987 910 75 1900 090/06 RMK AO2
14837KMSN MSN20110617212509306/17/11 21:25:31  5-MIN KMSN 180325Z 08006KT 10SM CLR 21/17 A2987 910 75 1900 090/06 RMK AO2
14837KMSN MSN20110617213009306/17/11 21:30:31  5-MIN KMSN 180330Z 09006KT 10SM CLR 21/17 A2987 910 78 1800 090/06 RMK AO2
14837KMSN MSN20110617213509306/17/11 21:35:31  5-MIN KMSN 180335Z 09005KT 10SM CLR 21/17 A2987 910 78 1800 090/05 RMK AO2
14837KMSN MSN20110617214009306/17/11 21:40:31  5-MIN KMSN 180340Z 10004KT 10SM CLR 21/17 A2987 910 78 1800 100/04 RMK AO2
14837KMSN MSN20110617214509306/17/11 21:45:31  5-MIN KMSN 180345Z 10005KT 10SM CLR 21/17 A2987 910 78 1800 100/05 RMK AO2
14837KMSN MSN20110617215011006/17/11 21:50:31  5-MIN KMSN 180350Z 10008KT 10SM CLR 21/17 A2988 910 78 1800 100/08 RMK AO2 SLP111 T02060167
14837KMSN MSN20110617215509306/17/11 21:55:31  5-MIN KMSN 180355Z 11006KT 10SM CLR 21/17 A2988 900 78 1800 110/06 RMK AO2
14837KMSN MSN20110617220009306/17/11 22:00:31  5-MIN KMSN 180400Z 10005KT 10SM CLR 21/17 A2988 900 78 1800 100/05 RMK AO2
14837KMSN MSN20110617220509306/17/11 22:05:31  5-MIN KMSN 180405Z 09005KT 10SM CLR 21/17 A2988 900 78 1800 090/05 RMK AO2
14837KMSN MSN20110617221009306/17/11 22:10:31  5-MIN KMSN 180410Z 09006KT 10SM CLR 20/16 A2988 900 78 1700 090/06 RMK AO2
14837KMSN MSN20110617221509306/17/11 22:15:31  5-MIN KMSN 180415Z 09005KT 10SM CLR 20/16 A2988 900 78 1700 090/05 RMK AO2
14837KMSN MSN20110617222009306/17/11 22:20:31  5-MIN KMSN 180420Z 08006KT 10SM CLR 20/16 A2988 900 78 1700 090/06 RMK AO2
14837KMSN MSN20110617222509306/17/11 22:25:31  5-MIN KMSN 180425Z 08004KT 10SM CLR 20/16 A2988 900 78 1700 080/04 RMK AO2
14837KMSN MSN20110617223009306/17/11 22:30:31  5-MIN KMSN 180430Z 09004KT 10SM CLR 19/16 A2988 900 81 1700 090/04 RMK AO2
14837KMSN MSN20110617223509306/17/11 22:35:31  5-MIN KMSN 180435Z 09004KT 10SM CLR 19/16 A2989 900 81 1700 090/04 RMK AO2
14837KMSN MSN20110617224009306/17/11 22:40:31  5-MIN KMSN 180440Z 09004KT 10SM CLR 19/16 A2989 890 81 1700 090/04 RMK AO2
14837KMSN MSN20110617224509306/17/11 22:45:31  5-MIN KMSN 180445Z 09003KT 10SM CLR 19/16 A2989 890 81 1700 090/03 RMK AO2
14837KMSN MSN20110617225011006/17/11 22:50:31  5-MIN KMSN 180450Z 09004KT 10SM CLR 19/16 A2989 890 81 1700 090/04 RMK AO2 SLP116 T01940161
14837KMSN MSN20110617225509306/17/11 22:55:31  5-MIN KMSN 180455Z 11005KT 10SM CLR 19/16 A2989 890 81 1700 110/05 RMK AO2
14837KMSN MSN20110617230009306/17/11 23:00:31  5-MIN KMSN 180500Z 11004KT 10SM CLR 19/16 A2990 890 81 1700 110/04 RMK AO2
14837KMSN MSN20110617230509306/17/11 23:05:31  5-MIN KMSN 180505Z 12003KT 10SM CLR 19/16 A2990 880 81 1600 120/03 RMK AO2
14837KMSN MSN20110617231009306/17/11 23:10:31  5-MIN KMSN 180510Z 11005KT 10SM CLR 19/16 A2990 880 81 1600 110/05 RMK AO2
14837KMSN MSN20110617231509306/17/11 23:15:31  5-MIN KMSN 180515Z 11006KT 10SM CLR 19/16 A2990 880 84 1600 110/06 RMK AO2
14837KMSN MSN20110617232009306/17/11 23:20:31  5-MIN KMSN 180520Z 11004KT 10SM CLR 19/16 A2990 880 78 1600 110/04 RMK AO2
14837KMSN MSN20110617232509306/17/11 23:25:31  5-MIN KMSN 180525Z 11005KT 10SM CLR 19/16 A2991 880 81 1600 110/05 RMK AO2
14837KMSN MSN20110617233009306/17/11 23:30:31  5-MIN KMSN 180530Z 12005KT 10SM CLR 19/16 A2991 880 81 1600 130/05 RMK AO2
14837KMSN MSN20110617233509306/17/11 23:35:31  5-MIN KMSN 180535Z 12005KT 10SM CLR 19/16 A2991 880 81 1600 120/05 RMK AO2
14837KMSN MSN20110617234009306/17/11 23:40:31  5-MIN KMSN 180540Z 13006KT 10SM CLR 19/16 A2991 880 81 1600 130/06 RMK AO2
14837KMSN MSN20110617234509306/17/11 23:45:31  5-MIN KMSN 180545Z 13006KT 10SM CLR 19/16 A2991 880 81 1600 130/06 RMK AO2
14837KMSN MSN20110617235013806/17/11 23:50:31  5-MIN KMSN 180550Z 13006KT 10SM CLR 19/15 A2991 870 78 1600 130/06 RMK AO2 SLP123 T01890150 10250 20189 402720144 53006
14837KMSN MSN20110617235509606/17/11 23:55:31  5-MIN KMSN 180555Z 12006KT 10SM FEW055 19/15 A2991 870 78 1600 130/06 RMK AO2
14837KMSN MSN20110618000009606/18/11 00:00:32  5-MIN KMSN 180600Z 13007KT 10SM FEW050 19/15 A2991 870 78 1600 130/07 RMK AO2
14837KMSN MSN20110618000509606/18/11 00:05:31  5-MIN KMSN 180605Z 12006KT 10SM FEW050 19/15 A2991 870 78 1600 120/06 RMK AO2
14837KMSN MSN20110618001009606/18/11 00:10:31  5-MIN KMSN 180610Z 12005KT 10SM FEW050 19/15 A2991 870 78 1600 120/05 RMK AO2
14837KMSN MSN20110618001509606/18/11 00:15:31  5-MIN KMSN 180615Z 11006KT 10SM FEW050 18/15 A2991 880 81 1500 110/06 RMK AO2
14837KMSN MSN20110618002009606/18/11 00:20:31  5-MIN KMSN 180620Z 12005KT 10SM FEW050 18/15 A2991 870 81 1500 120/05 RMK AO2
14837KMSN MSN20110618002509606/18/11 00:25:31  5-MIN KMSN 180625Z 11004KT 10SM FEW050 18/15 A2991 870 81 1500 110/04 RMK AO2
14837KMSN MSN20110618003009606/18/11 00:30:31  5-MIN KMSN 180630Z 11005KT 10SM FEW050 18/15 A2991 880 81 1500 110/05 RMK AO2
14837KMSN MSN20110618003509606/18/11 00:35:31  5-MIN KMSN 180635Z 11004KT 10SM SCT050 18/15 A2990 880 81 1500 120/04 RMK AO2
14837KMSN MSN20110618004009606/18/11 00:40:31  5-MIN KMSN 180640Z 11004KT 10SM SCT046 18/15 A2990 880 81 1500 110/04 RMK AO2
14837KMSN MSN20110618004509606/18/11 00:45:31  5-MIN KMSN 180645Z 11004KT 10SM SCT046 18/15 A2990 880 81 1500 120/04 RMK AO2
14837KMSN MSN20110618005011306/18/11 00:50:31  5-MIN KMSN 180650Z 11004KT 10SM SCT046 18/15 A2990 880 81 1500 110/04 RMK AO2 SLP119 T01830150
14837KMSN MSN20110618005509606/18/11 00:55:31  5-MIN KMSN 180655Z 11004KT 10SM BKN046 18/15 A2990 880 81 1500 110/04 RMK AO2
14837KMSN MSN20110618010009606/18/11 01:00:31  5-MIN KMSN 180700Z 10005KT 10SM SCT044 18/15 A2990 890 81 1500 110/05 RMK AO2
14837KMSN MSN20110618010509606/18/11 01:05:31  5-MIN KMSN 180705Z 10004KT 10SM SCT044 18/15 A2989 890 81 1500 100/04 RMK AO2
14837KMSN MSN20110618011009606/18/11 01:10:31  5-MIN KMSN 180710Z 11004KT 10SM BKN044 18/15 A2989 890 81 1500 110/04 RMK AO2
14837KMSN MSN20110618011509606/18/11 01:15:31  5-MIN KMSN 180715Z 11004KT 10SM BKN044 18/15 A2989 900 83 1500 120/04 RMK AO2
14837KMSN MSN20110618012009606/18/11 01:20:31  5-MIN KMSN 180720Z 11004KT 10SM BKN044 18/14 A2988 900 78 1500 110/04 RMK AO2
14837KMSN MSN20110618012509606/18/11 01:25:31  5-MIN KMSN 180725Z 11005KT 10SM BKN044 18/15 A2988 900 83 1500 110/05 RMK AO2
14837KMSN MSN20110618013009506/18/11 01:30:31  5-MIN KMSN 180730Z 12008KT 9SM BKN044 18/14 A2988 900 81 1500 120/08 RMK AO2
14837KMSN MSN20110618013509506/18/11 01:35:31  5-MIN KMSN 180735Z 12007KT 9SM BKN044 18/14 A2987 910 81 1500 120/07 RMK AO2
14837KMSN MSN20110618014009506/18/11 01:40:31  5-MIN KMSN 180740Z 12006KT 9SM BKN044 18/14 A2987 910 81 1500 120/06 RMK AO2
14837KMSN MSN20110618014509506/18/11 01:45:31  5-MIN KMSN 180745Z 12004KT 9SM SCT042 18/14 A2987 910 81 1500 130/04 RMK AO2
14837KMSN MSN20110618015011206/18/11 01:50:31  5-MIN KMSN 180750Z 13004KT 9SM FEW042 18/14 A2987 910 81 1500 130/04 RMK AO2 SLP110 T01780144
14837KMSN MSN20110618015509506/18/11 01:55:31  5-MIN KMSN 180755Z 12004KT 9SM FEW042 18/14 A2987 910 81 1500 130/04 RMK AO2
14837KMSN MSN20110618020009206/18/11 02:00:31  5-MIN KMSN 180800Z 12003KT 9SM CLR 18/14 A2986 920 81 1500 120/03 RMK AO2
14837KMSN MSN20110618020509206/18/11 02:05:31  5-MIN KMSN 180805Z 10005KT 9SM CLR 17/14 A2986 920 83 1400 100/05 RMK AO2
14837KMSN MSN20110618021009206/18/11 02:10:31  5-MIN KMSN 180810Z 10004KT 9SM CLR 17/14 A2986 920 83 1400 100/04 RMK AO2
14837KMSN MSN20110618021509206/18/11 02:15:31  5-MIN KMSN 180815Z 00000KT 8SM CLR 17/14 A2987 910 83 1400 000/00 RMK AO2
14837KMSN MSN20110618022009206/18/11 02:20:31  5-MIN KMSN 180820Z 00000KT 8SM CLR 17/14 A2987 910 83 1400 000/00 RMK AO2
14837KMSN MSN20110618022509506/18/11 02:25:31  5-MIN KMSN 180825Z 07003KT 8SM FEW050 17/14 A2987 910 83 1400 070/03 RMK AO2
14837KMSN MSN20110618023009506/18/11 02:30:31  5-MIN KMSN 180830Z 07004KT 7SM SCT050 17/14 A2987 910 83 1400 080/04 RMK AO2
14837KMSN MSN20110618023509506/18/11 02:35:31  5-MIN KMSN 180835Z 07004KT 7SM FEW050 17/14 A2986 920 86 1400 070/04 RMK AO2
14837KMSN MSN20110618024009506/18/11 02:40:31  5-MIN KMSN 180840Z 06004KT 7SM FEW050 17/14 A2986 920 86 1400 070/04 RMK AO2
14837KMSN MSN20110618024509506/18/11 02:45:31  5-MIN KMSN 180845Z 07004KT 7SM FEW050 17/14 A2986 920 86 1400 070/04 RMK AO2
14837KMSN MSN20110618025011806/18/11 02:50:31  5-MIN KMSN 180850Z 05003KT 7SM FEW050 17/14 A2986 920 86 1400 050/03 RMK AO2 SLP109 T01670144 53015
14837KMSN MSN20110618025509506/18/11 02:55:31  5-MIN KMSN 180855Z 06004KT 7SM FEW050 17/14 A2986 920 86 1400 060/04 RMK AO2
14837KMSN MSN20110618030009206/18/11 03:00:31  5-MIN KMSN 180900Z 05004KT 7SM CLR 17/14 A2986 920 86 1400 060/04 RMK AO2
14837KMSN MSN20110618030509206/18/11 03:05:31  5-MIN KMSN 180905Z 05003KT 7SM CLR 17/14 A2986 920 86 1400 050/03 RMK AO2
14837KMSN MSN20110618031009206/18/11 03:10:31  5-MIN KMSN 180910Z 06004KT 7SM CLR 17/14 A2986 920 86 1400 060/04 RMK AO2
14837KMSN MSN20110618031509206/18/11 03:15:31  5-MIN KMSN 180915Z 07004KT 7SM CLR 17/14 A2987 910 86 1400 070/04 RMK AO2
14837KMSN MSN20110618032009206/18/11 03:20:31  5-MIN KMSN 180920Z 08003KT 7SM CLR 16/14 A2987 910 90 1300 080/03 RMK AO2
14837KMSN MSN20110618032509206/18/11 03:25:31  5-MIN KMSN 180925Z 08003KT 7SM CLR 17/14 A2986 920 86 1400 090/03 RMK AO2
14837KMSN MSN20110618033009506/18/11 03:30:31  5-MIN KMSN 180930Z 00000KT 6SM BR CLR 16/14 A2986 920 90 1300 000/00 RMK AO2
14837KMSN MSN20110618033509506/18/11 03:35:31  5-MIN KMSN 180935Z 06003KT 6SM BR CLR 16/14 A2986 920 90 1300 060/03 RMK AO2
14837KMSN MSN20110618034009506/18/11 03:40:31  5-MIN KMSN 180940Z 04003KT 5SM BR CLR 16/14 A2986 920 90 1300 040/03 RMK AO2
14837KMSN MSN20110618034509506/18/11 03:45:31  5-MIN KMSN 180945Z 05003KT 5SM BR CLR 17/14 A2986 920 86 1400 050/03 RMK AO2
14837KMSN MSN20110618035011506/18/11 03:50:31  5-MIN KMSN 180950Z 06004KT 6SM BR FEW110 17/14 A2986 920 86 1400 060/04 RMK AO2 SLP108 T01670144
14837KMSN MSN20110618035509206/18/11 03:55:31  5-MIN KMSN 180955Z 06003KT 7SM CLR 17/14 A2986 920 86 1400 060/03 RMK AO2
14837KMSN MSN20110618040009206/18/11 04:00:31  5-MIN KMSN 181000Z 00000KT 7SM CLR 17/14 A2986 920 83 1400 000/00 RMK AO2
14837KMSN MSN20110618040509206/18/11 04:05:31  5-MIN KMSN 181005Z 07003KT 8SM CLR 17/14 A2986 920 83 1400 070/03 RMK AO2
14837KMSN MSN20110618041009206/18/11 04:10:31  5-MIN KMSN 181010Z 07003KT 8SM CLR 16/14 A2986 920 86 1300 070/03 RMK AO2
14837KMSN MSN20110618041509206/18/11 04:15:31  5-MIN KMSN 181015Z 07004KT 7SM CLR 16/14 A2985 930 86 1300 070/04 RMK AO2
14837KMSN MSN20110618042009206/18/11 04:20:31  5-MIN KMSN 181020Z 08004KT 7SM CLR 16/14 A2985 930 86 1300 080/04 RMK AO2
14837KMSN MSN20110618042509506/18/11 04:25:31  5-MIN KMSN 181025Z 08003KT 6SM BR CLR 16/14 A2986 920 86 1300 080/03 RMK AO2
14837KMSN MSN20110618043009506/18/11 04:30:31  5-MIN KMSN 181030Z 07003KT 6SM HZ CLR 17/14 A2986 920 83 1400 070/03 RMK AO2
14837KMSN MSN20110618043509506/18/11 04:35:31  5-MIN KMSN 181035Z 00000KT 6SM BR CLR 17/14 A2987 910 86 1400 000/00 RMK AO2
14837KMSN MSN20110618044009506/18/11 04:40:31  5-MIN KMSN 181040Z 00000KT 6SM BR CLR 17/14 A2987 910 86 1400 000/00 RMK AO2
14837KMSN MSN20110618044509506/18/11 04:45:31  5-MIN KMSN 181045Z 00000KT 6SM BR CLR 17/14 A2988 900 86 1300 000/00 RMK AO2
14837KMSN MSN20110618045011506/18/11 04:50:31  5-MIN KMSN 181050Z 09003KT 6SM HZ FEW120 17/14 A2988 900 86 1300 090/03 RMK AO2 SLP114 T01670144
14837KMSN MSN20110618045509506/18/11 04:55:31  5-MIN KMSN 181055Z 09003KT 6SM HZ CLR 17/14 A2988 900 86 1300 090/03 RMK AO2
14837KMSN MSN20110618050009506/18/11 05:00:31  5-MIN KMSN 181100Z 09003KT 6SM HZ CLR 17/14 A2988 900 83 1400 090/03 RMK AO2
14837KMSN MSN20110618050509506/18/11 05:05:31  5-MIN KMSN 181105Z 00000KT 6SM HZ CLR 17/14 A2988 900 83 1400 000/00 RMK AO2
14837KMSN MSN20110618051009506/18/11 05:10:31  5-MIN KMSN 181110Z 00000KT 6SM HZ CLR 18/14 A2989 900 81 1500 000/00 RMK AO2
14837KMSN MSN20110618051509506/18/11 05:15:31  5-MIN KMSN 181115Z 00000KT 6SM HZ CLR 18/15 A2989 900 83 1500 000/00 RMK AO2
14837KMSN MSN20110618052009206/18/11 05:20:31  5-MIN KMSN 181120Z 00000KT 7SM CLR 18/14 A2989 890 81 1500 000/00 RMK AO2
14837KMSN MSN20110618052509206/18/11 05:25:31  5-MIN KMSN 181125Z 00000KT 7SM CLR 18/14 A2989 900 81 1500 000/00 RMK AO2
14837KMSN MSN20110618053009806/18/11 05:30:31  5-MIN KMSN 181130Z 05003KT 6SM HZ BKN120 18/14 A2988 900 81 1500 050/03 RMK AO2
14837KMSN MSN20110618053509506/18/11 05:35:31  5-MIN KMSN 181135Z 05003KT 7SM BKN120 18/14 A2989 890 81 1500 050/03 RMK AO2
14837KMSN MSN20110618054009506/18/11 05:40:31  5-MIN KMSN 181140Z 00000KT 7SM BKN120 18/15 A2989 890 81 1500 000/00 RMK AO2
14837KMSN MSN20110618054509506/18/11 05:45:31  5-MIN KMSN 181145Z 07004KT 7SM BKN120 18/15 A2989 890 81 1500 070/04 RMK AO2
14837KMSN MSN20110618055013006/18/11 05:50:31  5-MIN KMSN 181150Z 08003KT 8SM BKN120 18/14 A2989 890 78 1500 090/03 RMK AO2 SLP119 T01830144 10189 20161 56016
14837KMSN MSN20110618055509506/18/11 05:55:31  5-MIN KMSN 181155Z 08003KT 9SM BKN120 18/14 A2990 880 78 1500 080/03 RMK AO2
14837KMSN MSN20110618060009506/18/11 06:00:31  5-MIN KMSN 181200Z 06004KT 8SM BKN120 19/15 A2989 890 78 1600 060/04 RMK AO2
14837KMSN MSN20110618060509506/18/11 06:05:31  5-MIN KMSN 181205Z 05004KT 8SM BKN120 19/14 A2989 890 75 1600 050/04 RMK AO2
14837KMSN MSN20110619212011206/19/11 21:20:31  5-MIN KMSN 200320Z 02006KT 4SM BR OVC009 21/19 A2978 990 90 1900 030/06 RMK AO2 CIG 008V011 $
14837KMSN MSN20110619212511206/19/11 21:25:31  5-MIN KMSN 200325Z 02007KT 4SM BR OVC009 21/19 A2978 990 90 1900 030/07 RMK AO2 CIG 007V011 $
14837KMSN MSN20110619213010006/19/11 21:30:31  5-MIN KMSN 200330Z 03006KT 4SM BR OVC007 21/19 A2978 990 90 1900 030/06 RMK AO2 $
14837KMSN MSN20110619213510006/19/11 21:35:31  5-MIN KMSN 200335Z 03006KT 4SM BR OVC007 21/19 A2978 990 90 1900 030/06 RMK AO2 $
14837KMSN MSN20110619214010006/19/11 21:40:31  5-MIN KMSN 200340Z 03007KT 3SM BR OVC007 21/19 A2978 990 90 1900 030/07 RMK AO2 $
14837KMSN MSN20110619214510006/19/11 21:45:31  5-MIN KMSN 200345Z 04006KT 3SM BR OVC007 21/19 A2978 990 90 1900 050/06 RMK AO2 $
14837KMSN MSN20110619215011706/19/11 21:50:31  5-MIN KMSN 200350Z 03006KT 4SM BR OVC007 21/19 A2978 990 90 1900 030/06 RMK AO2 SLP081 T02060189 $
14837KMSN MSN20110619215510006/19/11 21:55:31  5-MIN KMSN 200355Z 04006KT 3SM BR OVC007 21/19 A2978 990 90 1900 040/06 RMK AO2 $
14837KMSN MSN20110619220010006/19/11 22:00:31  5-MIN KMSN 200400Z 03007KT 3SM BR OVC007 21/19 A2978 990 90 1900 030/07 RMK AO2 $
14837KMSN MSN20110619220510006/19/11 22:05:31  5-MIN KMSN 200405Z 03009KT 3SM BR OVC007 21/19 A2978 990 90 1900 040/09 RMK AO2 $
14837KMSN MSN20110619221010006/19/11 22:10:31  5-MIN KMSN 200410Z 04007KT 3SM BR OVC007 21/19 A2978 990 90 1900 040/07 RMK AO2 $
14837KMSN MSN20110619221510106/19/11 22:15:31  5-MIN KMSN 200415Z 04006KT 3SM BR OVC005 20/19 A2978 1000 93 1900 050/06 RMK AO2 $
14837KMSN MSN20110619222010106/19/11 22:20:31  5-MIN KMSN 200420Z 03005KT 3SM BR OVC005 20/19 A2978 1000 93 1900 030/05 RMK AO2 $
14837KMSN MSN20110619222510106/19/11 22:25:31  5-MIN KMSN 200425Z 03006KT 3SM BR OVC005 20/19 A2977 1000 93 1900 030/06 RMK AO2 $
14837KMSN MSN20110619223010506/19/11 22:30:31  5-MIN KMSN 200430Z 03007KT 2 1/2SM BR OVC005 20/19 A2977 1000 93 1900 030/07 RMK AO2 $
14837KMSN MSN20110619223510506/19/11 22:35:31  5-MIN KMSN 200435Z 03006KT 2 1/2SM BR OVC005 20/19 A2978 1000 93 1800 030/06 RMK AO2 $
14837KMSN MSN20110619224010506/19/11 22:40:31  5-MIN KMSN 200440Z 03006KT 2 1/2SM BR OVC005 20/19 A2978 1000 93 1800 030/06 RMK AO2 $
14837KMSN MSN20110619224510506/19/11 22:45:31  5-MIN KMSN 200445Z 03004KT 2 1/2SM BR OVC005 20/19 A2978 1000 93 1900 030/04 RMK AO2 $
14837KMSN MSN20110619225012206/19/11 22:50:31  5-MIN KMSN 200450Z 03004KT 2 1/2SM BR OVC005 20/19 A2977 1000 93 1900 030/04 RMK AO2 SLP078 T02000189 $
14837KMSN MSN20110619225510506/19/11 22:55:31  5-MIN KMSN 200455Z 03004KT 2 1/2SM BR OVC005 20/18 A2978 1000 90 1900 040/04 RMK AO2 $
14837KMSN MSN20110619230010506/19/11 23:00:31  5-MIN KMSN 200500Z 03005KT 2 1/2SM BR OVC005 20/19 A2977 1000 93 1900 030/05 RMK AO2 $
14837KMSN MSN20110619230510506/19/11 23:05:31  5-MIN KMSN 200505Z 04006KT 2 1/2SM BR OVC005 20/18 A2977 1000 90 1900 040/06 RMK AO2 $
14837KMSN MSN20110619231010506/19/11 23:10:31  5-MIN KMSN 200510Z 04005KT 2 1/2SM BR OVC005 20/18 A2977 1000 90 1900 040/05 RMK AO2 $
14837KMSN MSN20110619231510106/19/11 23:15:31  5-MIN KMSN 200515Z 03005KT 2SM BR OVC005 20/18 A2977 1010 90 1900 030/05 RMK AO2 $
14837KMSN MSN20110619232010106/19/11 23:20:31  5-MIN KMSN 200520Z 04005KT 2SM BR OVC005 20/19 A2977 1010 93 1900 040/05 RMK AO2 $
14837KMSN MSN20110619232510106/19/11 23:25:31  5-MIN KMSN 200525Z 04005KT 2SM BR OVC005 20/19 A2976 1010 93 1900 040/05 RMK AO2 $
14837KMSN MSN20110619233010506/19/11 23:30:31  5-MIN KMSN 200530Z 04006KT 1 3/4SM BR OVC003 20/19 A2976 1010 93 1900 040/06 RMK AO2 $
14837KMSN MSN20110619233510506/19/11 23:35:31  5-MIN KMSN 200535Z 05008KT 1 1/2SM BR OVC003 19/18 A2976 1010 93 1800 050/08 RMK AO2 $
14837KMSN MSN20110619234010106/19/11 23:40:31  5-MIN KMSN 200540Z 04006KT 1SM BR OVC003 19/19 A2976 1010 97 1800 040/06 RMK AO2 $
14837KMSN MSN20110619234511506/19/11 23:45:31  5-MIN KMSN 200545Z 03005KT 3/4SM BR OVC003 19/19 A2977 1010 97 1800 030/05 RMK AO2 CIG 001V004 $
14837KMSN MSN20110619235014806/19/11 23:50:31  5-MIN KMSN 200550Z 03006KT 1/2SM FG OVC003 19/19 A2977 1010 97 1800 030/06 RMK AO2 SLP075 T01940189 10233 20194 402670167 58005 $
14837KMSN MSN20110619235510406/19/11 23:55:31  5-MIN KMSN 200555Z 03005KT 1/2SM FG OVC001 19/19 A2977 1010 100 1700 030/05 RMK AO2 $
14837KMSN MSN20110620000010406/20/11 00:00:32  5-MIN KMSN 200600Z 04005KT 1/2SM FG OVC001 19/19 A2977 1010 100 1700 040/05 RMK AO2 $
14837KMSN MSN20110620000510406/20/11 00:05:31  5-MIN KMSN 200605Z 03005KT 1/4SM FG OVC001 19/19 A2977 1000 100 1700 030/05 RMK AO2 $
14837KMSN MSN20110620001010406/20/11 00:10:31  5-MIN KMSN 200610Z 04004KT 1/4SM FG OVC001 19/19 A2977 1000 100 1700 040/04 RMK AO2 $
14837KMSN MSN20110620001510406/20/11 00:15:31  5-MIN KMSN 200615Z 03006KT 1/4SM FG OVC001 19/19 A2977 1000 100 1700 040/06 RMK AO2 $
14837KMSN MSN20110620002010406/20/11 00:20:31  5-MIN KMSN 200620Z 04005KT 1/4SM FG OVC001 19/19 A2977 1000 100 1700 040/05 RMK AO2 $
14837KMSN MSN20110620002510306/20/11 00:25:31  5-MIN KMSN 200625Z 03005KT 1/4SM FG VV001 19/19 A2978 1000 100 1700 040/05 RMK AO2 $
14837KMSN MSN20110620003010306/20/11 00:30:31  5-MIN KMSN 200630Z 04006KT 1/4SM FG VV001 19/19 A2977 1000 100 1700 040/06 RMK AO2 $
14837KMSN MSN20110620003510306/20/11 00:35:31  5-MIN KMSN 200635Z 04006KT 1/4SM FG VV001 19/19 A2977 1010 100 1700 050/06 RMK AO2 $
14837KMSN MSN20110620004010306/20/11 00:40:31  5-MIN KMSN 200640Z 05004KT 1/2SM FG VV001 19/19 A2977 1000 100 1700 060/04 RMK AO2 $
14837KMSN MSN20110620004510406/20/11 00:45:31  5-MIN KMSN 200645Z 04005KT 1/2SM FG OVC001 19/19 A2977 1000 100 1700 050/05 RMK AO2 $
14837KMSN MSN20110620005012106/20/11 00:50:31  5-MIN KMSN 200650Z 06006KT 1/2SM FG OVC001 19/19 A2976 1010 100 1700 060/06 RMK AO2 SLP073 T01890189 $
14837KMSN MSN20110620005510406/20/11 00:55:31  5-MIN KMSN 200655Z 05006KT 3/4SM BR OVC001 19/19 A2975 1020 100 1700 050/06 RMK AO2 $
14837KMSN MSN20110620010010406/20/11 01:00:31  5-MIN KMSN 200700Z 05005KT 3/4SM BR OVC001 19/19 A2975 1020 100 1800 050/05 RMK AO2 $
14837KMSN MSN20110620010510206/20/11 01:05:31  5-MIN KMSN 200705Z 07005KT 1SM BR OVC001 19/19 A2976 1010 100 1700 070/05 RMK AO2 $
14837KMSN MSN20110620011010106/20/11 01:10:31  5-MIN KMSN 200710Z 07005KT 1SM BR OVC001 19/18 A2976 1010 97 1700 070/05 RMK AO2 $
14837KMSN MSN20110620011510506/20/11 01:15:31  5-MIN KMSN 200715Z 07006KT 1 1/4SM BR OVC001 19/18 A2975 1020 93 1800 070/06 RMK AO2 $
14837KMSN MSN20110620012011706/20/11 01:20:31  5-MIN KMSN 200720Z 07007KT 1 1/2SM BR OVC001 19/18 A2975 1020 93 1800 070/07 RMK AO2 CIG 001V005 $
14837KMSN MSN20110620012511706/20/11 01:25:31  5-MIN KMSN 200725Z 07006KT 1 3/4SM BR OVC003 19/18 A2976 1010 93 1800 070/06 RMK AO2 CIG 001V006 $
14837KMSN MSN20110620013010506/20/11 01:30:31  5-MIN KMSN 200730Z 07004KT 1 3/4SM BR OVC003 19/18 A2977 1000 93 1800 070/04 RMK AO2 $
14837KMSN MSN20110620013510106/20/11 01:35:31  5-MIN KMSN 200735Z 07004KT 2SM BR OVC003 19/18 A2977 1000 93 1800 070/04 RMK AO2 $
14837KMSN MSN20110620014010106/20/11 01:40:31  5-MIN KMSN 200740Z 05006KT 2SM BR OVC005 19/18 A2976 1010 93 1800 060/06 RMK AO2 $
14837KMSN MSN20110620014510106/20/11 01:45:31  5-MIN KMSN 200745Z 05005KT 2SM BR OVC005 19/18 A2977 1010 93 1800 050/05 RMK AO2 $
14837KMSN MSN20110620015011806/20/11 01:50:31  5-MIN KMSN 200750Z 07004KT 2SM BR OVC005 19/18 A2977 1000 93 1800 070/04 RMK AO2 SLP076 T01940183 $
14837KMSN MSN20110620015510506/20/11 01:55:31  5-MIN KMSN 200755Z 06004KT 2 1/2SM BR OVC005 19/18 A2977 1000 93 1800 070/04 RMK AO2 $
14837KMSN MSN20110620020010506/20/11 02:00:31  5-MIN KMSN 200800Z 08005KT 2 1/2SM BR OVC005 19/18 A2977 1010 93 1800 080/05 RMK AO2 $
14837KMSN MSN20110620020510506/20/11 02:05:31  5-MIN KMSN 200805Z 09004KT 2 1/2SM BR OVC005 19/18 A2976 1010 93 1800 090/04 RMK AO2 $
14837KMSN MSN20110620021010506/20/11 02:10:31  5-MIN KMSN 200810Z 07004KT 2 1/2SM BR OVC005 19/18 A2976 1010 93 1800 070/04 RMK AO2 $
14837KMSN MSN20110620021511706/20/11 02:15:31  5-MIN KMSN 200815Z 06005KT 2 1/2SM BR OVC005 19/18 A2976 1020 93 1800 060/05 RMK AO2 CIG 005V009 $
14837KMSN MSN20110620022010506/20/11 02:20:31  5-MIN KMSN 200820Z 06005KT 2 1/2SM BR OVC005 19/18 A2975 1020 93 1800 060/05 RMK AO2 $
14837KMSN MSN20110620022510506/20/11 02:25:31  5-MIN KMSN 200825Z 07003KT 2 1/2SM BR OVC005 19/18 A2975 1020 90 1800 070/03 RMK AO2 $
14837KMSN MSN20110620023010506/20/11 02:30:31  5-MIN KMSN 200830Z 07005KT 2 1/2SM BR OVC005 19/18 A2975 1030 90 1800 070/05 RMK AO2 $
14837KMSN MSN20110620023510506/20/11 02:35:31  5-MIN KMSN 200835Z 05006KT 2 1/2SM BR OVC005 19/18 A2974 1030 93 1800 060/06 RMK AO2 $
14837KMSN MSN20110620024010506/20/11 02:40:31  5-MIN KMSN 200840Z 05006KT 2 1/2SM BR OVC005 19/18 A2974 1030 93 1800 060/06 RMK AO2 $
14837KMSN MSN20110620024510506/20/11 02:45:31  5-MIN KMSN 200845Z 05005KT 2 1/2SM BR OVC005 19/18 A2974 1030 93 1800 060/05 RMK AO2 $
14837KMSN MSN20110620025012806/20/11 02:50:31  5-MIN KMSN 200850Z 04006KT 2 1/2SM BR OVC005 19/18 A2973 1040 93 1800 050/06 RMK AO2 SLP064 T01890178 56006 $
14837KMSN MSN20110620025510506/20/11 02:55:31  5-MIN KMSN 200855Z 06006KT 2 1/2SM BR OVC005 19/18 A2973 1040 93 1800 060/06 RMK AO2 $
14837KMSN MSN20110620030010506/20/11 03:00:31  5-MIN KMSN 200900Z 05006KT 2 1/2SM BR OVC005 19/18 A2973 1040 93 1800 050/06 RMK AO2 $
14837KMSN MSN20110620030510506/20/11 03:05:31  5-MIN KMSN 200905Z 05008KT 2 1/2SM BR OVC005 19/18 A2973 1040 93 1800 060/08 RMK AO2 $
14837KMSN MSN20110620031010506/20/11 03:10:31  5-MIN KMSN 200910Z 07005KT 2 1/2SM BR OVC005 19/18 A2973 1040 93 1800 070/05 RMK AO2 $
14837KMSN MSN20110620031510506/20/11 03:15:31  5-MIN KMSN 200915Z 06005KT 2 1/2SM BR OVC005 19/18 A2973 1040 93 1800 060/05 RMK AO2 $
14837KMSN MSN20110620032010506/20/11 03:20:31  5-MIN KMSN 200920Z 05007KT 2 1/2SM BR OVC005 19/18 A2973 1040 93 1800 060/07 RMK AO2 $
14837KMSN MSN20110620032510106/20/11 03:25:31  5-MIN KMSN 200925Z 07004KT 2SM BR OVC005 19/18 A2974 1030 93 1800 070/04 RMK AO2 $
14837KMSN MSN20110620033010106/20/11 03:30:31  5-MIN KMSN 200930Z 06005KT 2SM BR OVC005 19/18 A2973 1040 93 1800 060/05 RMK AO2 $
14837KMSN MSN20110620033510106/20/11 03:35:31  5-MIN KMSN 200935Z 06006KT 2SM BR OVC005 19/18 A2972 1050 93 1800 060/06 RMK AO2 $
14837KMSN MSN20110620034010106/20/11 03:40:31  5-MIN KMSN 200940Z 06005KT 2SM BR OVC005 19/18 A2972 1050 93 1800 070/05 RMK AO2 $
14837KMSN MSN20110620034511206/20/11 03:45:31  5-MIN KMSN 200945Z 06006KT 1 3/4SM BR OVC005 19/18 A2971 1060 93 1800 070/06 RMK AO2 PRESFR $
14837KMSN MSN20110620035012206/20/11 03:50:31  5-MIN KMSN 200950Z 06007KT 1 3/4SM BR OVC005 18/18 A2971 1060 96 1700 070/07 RMK AO2 SLP056 T01830178 $
14837KMSN MSN20110620035510506/20/11 03:55:31  5-MIN KMSN 200955Z 06007KT 1 1/2SM BR OVC003 18/18 A2970 1070 96 1700 060/07 RMK AO2 $
14837KMSN MSN20110620040010506/20/11 04:00:31  5-MIN KMSN 201000Z 08006KT 1 1/2SM BR OVC003 18/18 A2970 1070 96 1700 080/06 RMK AO2 $
14837KMSN MSN20110620040510506/20/11 04:05:31  5-MIN KMSN 201005Z 09006KT 1 1/4SM BR OVC003 18/18 A2970 1060 96 1700 090/06 RMK AO2 $
14837KMSN MSN20110620041010506/20/11 04:10:31  5-MIN KMSN 201010Z 08006KT 1 1/4SM BR OVC003 18/18 A2970 1070 96 1700 090/06 RMK AO2 $
14837KMSN MSN20110620041510106/20/11 04:15:31  5-MIN KMSN 201015Z 07006KT 1SM BR OVC003 18/18 A2970 1070 96 1700 070/06 RMK AO2 $
14837KMSN MSN20110620042010106/20/11 04:20:31  5-MIN KMSN 201020Z 07008KT 1SM BR OVC003 18/18 A2970 1070 96 1700 070/08 RMK AO2 $
14837KMSN MSN20110620042510306/20/11 04:25:31  5-MIN KMSN 201025Z 08007KT 3/4SM BR OVC003 18/18 A2971 1060 96 1700 080/07 RMK AO2 $
14837KMSN MSN20110620043010306/20/11 04:30:31  5-MIN KMSN 201030Z 08008KT 1/2SM FG OVC001 18/18 A2971 1060 96 1700 090/08 RMK AO2 $
14837KMSN MSN20110620043510306/20/11 04:35:31  5-MIN KMSN 201035Z 09006KT 1/2SM FG OVC001 18/18 A2972 1050 96 1700 090/06 RMK AO2 $
14837KMSN MSN20110620044010306/20/11 04:40:31  5-MIN KMSN 201040Z 08006KT 1/4SM FG OVC001 18/18 A2972 1050 96 1700 080/06 RMK AO2 $
14837KMSN MSN20110620044510406/20/11 04:45:31  5-MIN KMSN 201045Z 06008KT 1/4SM FG OVC001 18/18 A2971 1060 100 1700 060/08 RMK AO2 $
14837KMSN MSN20110620045012006/20/11 04:50:31  5-MIN KMSN 201050Z 06006KT 1/4SM FG VV001 18/18 A2972 1050 100 1700 060/06 RMK AO2 SLP058 T01780178 $
14837KMSN MSN20110620045510206/20/11 04:55:31  5-MIN KMSN 201055Z 07007KT 1/4SM FG VV001 18/17 A2972 1050 96 1700 070/07 RMK AO2 $
14837KMSN MSN20110620050010206/20/11 05:00:31  5-MIN KMSN 201100Z 06007KT 1/4SM FG VV001 18/17 A2973 1050 96 1700 060/07 RMK AO2 $
14837KMSN MSN20110620050510206/20/11 05:05:31  5-MIN KMSN 201105Z 06007KT 1/4SM FG VV001 18/17 A2973 1040 96 1600 070/07 RMK AO2 $
14837KMSN MSN20110620051010306/20/11 05:10:31  5-MIN KMSN 201110Z 07005KT 1/4SM FG VV001 17/17 A2974 1040 100 1600 070/05 RMK AO2 $
14837KMSN MSN20110620051510306/20/11 05:15:31  5-MIN KMSN 201115Z 07006KT 1/4SM FG VV001 17/17 A2974 1030 100 1600 070/06 RMK AO2 $
14837KMSN MSN20110620052010306/20/11 05:20:31  5-MIN KMSN 201120Z 07005KT 1/4SM FG VV001 17/17 A2974 1030 100 1600 070/05 RMK AO2 $
14837KMSN MSN20110620052510306/20/11 05:25:31  5-MIN KMSN 201125Z 06007KT 1/4SM FG VV001 17/17 A2974 1030 100 1600 060/07 RMK AO2 $
14837KMSN MSN20110620053010306/20/11 05:30:31  5-MIN KMSN 201130Z 05006KT 1/4SM FG VV001 17/17 A2974 1030 100 1600 050/06 RMK AO2 $
14837KMSN MSN20110620053510406/20/11 05:35:31  5-MIN KMSN 201135Z 03007KT 1/4SM FG OVC001 17/17 A2974 1030 100 1600 040/07 RMK AO2 $
14837KMSN MSN20110620054010406/20/11 05:40:31  5-MIN KMSN 201140Z 04007KT 1/4SM FG OVC001 17/17 A2974 1030 100 1600 040/07 RMK AO2 $
14837KMSN MSN20110620054511506/20/11 05:45:31  5-MIN KMSN 201145Z 04008KT 1/4SM FG OVC001 17/17 A2975 1030 96 1600 040/08 RMK AO2 TWR VIS 1/4 $
14837KMSN MSN20110620055015606/20/11 05:50:31  5-MIN KMSN 201150Z 05009KT 1/4SM FG OVC001 17/17 A2974 1030 96 1600 050/09 RMK AO2 TWR VIS 1/4 SLP069 70013 T01720167 10194 20172 58011 $
14837KMSN MSN20110620055511506/20/11 05:55:31  5-MIN KMSN 201155Z 06007KT 1/4SM FG OVC001 17/17 A2974 1030 96 1600 060/07 RMK AO2 TWR VIS 1/2 $
14837KMSN MSN20110620060011506/20/11 06:00:31  5-MIN KMSN 201200Z 05009KT 1/2SM FG OVC001 17/17 A2974 1030 96 1600 060/09 RMK AO2 TWR VIS 3/4 $
14837KMSN MSN20110620060510106/20/11 06:05:31  5-MIN KMSN 201205Z 05008KT 1SM BR OVC001 17/17 A2973 1040 96 1600 050/08 RMK AO2 $
14837KMSN MSN20110620061010106/20/11 06:10:31  5-MIN KMSN 201210Z 04009KT 1SM BR OVC001 17/17 A2974 1040 96 1600 040/09 RMK AO2 $
14837KMSN MSN20110620061510106/20/11 06:15:31  5-MIN KMSN 201215Z 05010KT 1SM BR OVC001 17/17 A2973 1040 96 1600 050/10 RMK AO2 $
14837KMSN MSN20110620062010106/20/11 06:20:31  5-MIN KMSN 201220Z 06007KT 1SM BR OVC003 17/17 A2973 1040 96 1600 060/07 RMK AO2 $
14837KMSN MSN20110620062510106/20/11 06:25:31  5-MIN KMSN 201225Z 06007KT 1SM BR OVC003 17/17 A2973 1040 96 1600 060/07 RMK AO2 $
14837KMSN MSN20110620063010106/20/11 06:30:31  5-MIN KMSN 201230Z 07007KT 1SM BR OVC003 17/17 A2974 1040 96 1600 070/07 RMK AO2 $
14837KMSN MSN20110620063510106/20/11 06:35:31  5-MIN KMSN 201235Z 06006KT 1SM BR OVC003 17/17 A2974 1040 96 1600 060/06 RMK AO2 $
14837KMSN MSN20110620064010106/20/11 06:40:31  5-MIN KMSN 201240Z 06007KT 1SM BR OVC003 18/17 A2974 1040 93 1600 070/07 RMK AO2 $
14837KMSN MSN20110620064510106/20/11 06:45:31  5-MIN KMSN 201245Z 05009KT 1SM BR OVC003 18/17 A2973 1040 96 1600 060/09 RMK AO2 $
14837KMSN MSN20110620065011806/20/11 06:50:31  5-MIN KMSN 201250Z 06010KT 1SM BR OVC003 18/17 A2974 1030 93 1600 060/10 RMK AO2 SLP066 T01780167 $
14837KMSN MSN20110620065510106/20/11 06:55:31  5-MIN KMSN 201255Z 05008KT 1SM BR OVC003 18/17 A2974 1030 93 1600 050/08 RMK AO2 $
14837KMSN MSN20110620070010106/20/11 07:00:31  5-MIN KMSN 201300Z 05008KT 1SM BR OVC003 18/17 A2974 1030 93 1600 060/08 RMK AO2 $
14837KMSN MSN20110620070510106/20/11 07:05:31  5-MIN KMSN 201305Z 06008KT 1SM BR OVC003 18/17 A2974 1030 96 1600 060/08 RMK AO2 $
14837KMSN MSN20110620071010106/20/11 07:10:31  5-MIN KMSN 201310Z 07007KT 1SM BR OVC003 18/17 A2975 1020 96 1600 070/07 RMK AO2 $
14837KMSN MSN20110620071510106/20/11 07:15:31  5-MIN KMSN 201315Z 05006KT 1SM BR OVC003 18/17 A2975 1020 96 1600 060/06 RMK AO2 $
14837KMSN MSN20110620072010106/20/11 07:20:31  5-MIN KMSN 201320Z 05006KT 1SM BR OVC003 18/17 A2975 1020 96 1600 060/06 RMK AO2 $
14837KMSN MSN20110620072510106/20/11 07:25:31  5-MIN KMSN 201325Z 06007KT 1SM BR OVC003 18/17 A2975 1020 96 1600 060/07 RMK AO2 $
14837KMSN MSN20110620073010106/20/11 07:30:31  5-MIN KMSN 201330Z 06010KT 1SM BR OVC003 18/17 A2975 1030 96 1600 060/10 RMK AO2 $
14837KMSN MSN20110620073510106/20/11 07:35:31  5-MIN KMSN 201335Z 05010KT 1SM BR OVC003 18/17 A2975 1030 96 1600 050/10 RMK AO2 $
14837KMSN MSN20110620074011506/20/11 07:40:31  5-MIN KMSN 201340Z 06009KT 1SM BR OVC003 18/17 A2974 1030 93 1700 060/09 RMK AO2 SFC VIS 1 1/4 $
14837KMSN MSN20110620074511506/20/11 07:45:31  5-MIN KMSN 201345Z 07007KT 1SM BR OVC003 18/17 A2975 1020 93 1700 070/07 RMK AO2 SFC VIS 1 1/4 $
14837KMSN MSN20110620075013606/20/11 07:50:31  5-MIN KMSN 201350Z 09008KT 1 1/4SM BR OVC003 18/17 A2975 1020 93 1700 090/08 RMK AO2 TWR VIS 1 1/2 SLP070 T01830172 $
14837KMSN MSN20110620075511906/20/11 07:55:31  5-MIN KMSN 201355Z 07009KT 1 1/4SM BR OVC003 18/17 A2974 1030 96 1600 070/09 RMK AO2 TWR VIS 1 1/2 $
14837KMSN MSN20110620080011506/20/11 08:00:31  5-MIN KMSN 201400Z 07010KT 1SM BR OVC003 18/17 A2974 1030 96 1600 080/10 RMK AO2 TWR VIS 1 1/2 $
14837KMSN MSN20110620080511506/20/11 08:05:31  5-MIN KMSN 201405Z 07012KT 1SM BR OVC003 18/17 A2974 1030 96 1600 070/12 RMK AO2 TWR VIS 1 1/2 $
14837KMSN MSN20110620081011506/20/11 08:10:31  5-MIN KMSN 201410Z 07009KT 1SM BR OVC003 18/17 A2974 1030 96 1600 070/09 RMK AO2 TWR VIS 1 1/2 $
14837KMSN MSN20110620081510106/20/11 08:15:31  5-MIN KMSN 201415Z 09007KT 1SM BR OVC003 18/17 A2974 1030 93 1700 090/07 RMK AO2 $
14837KMSN MSN20110620082010306/20/11 08:20:31  5-MIN KMSN 201420Z VRB05KT 3/4SM BR OVC003 18/17 A2975 1020 96 1600 VRB/05 RMK AO2 $
14837KMSN MSN20110620082511006/20/11 08:25:31  5-MIN KMSN 201425Z 15004KT 3/4SM BR OVC003 18/17 A2976 1010 96 1600 160/04 RMK AO2 PRESRR $
14837KMSN MSN20110620083010306/20/11 08:30:31  5-MIN KMSN 201430Z 14005KT 3/4SM BR OVC003 18/17 A2976 1010 93 1700 140/05 RMK AO2 $
14837KMSN MSN20110620083510306/20/11 08:35:31  5-MIN KMSN 201435Z 12003KT 3/4SM BR OVC003 18/17 A2976 1010 93 1700 120/03 RMK AO2 $
14837KMSN MSN20110620084010306/20/11 08:40:31  5-MIN KMSN 201440Z 11004KT 3/4SM BR OVC003 18/18 A2976 1020 96 1700 110/04 RMK AO2 $
14837KMSN MSN20110620084510306/20/11 08:45:31  5-MIN KMSN 201445Z 08003KT 3/4SM BR OVC003 18/18 A2975 1020 96 1700 080/03 RMK AO2 $
14837KMSN MSN20110620085012606/20/11 08:50:31  5-MIN KMSN 201450Z 07004KT 3/4SM BR OVC003 18/18 A2975 1020 96 1700 070/04 RMK AO2 SLP071 T01830178 53011 $
14837KMSN MSN20110620085510306/20/11 08:55:31  5-MIN KMSN 201455Z 07004KT 3/4SM BR OVC003 18/18 A2975 1020 96 1700 080/04 RMK AO2 $
14837KMSN MSN20110620090010306/20/11 09:00:31  5-MIN KMSN 201500Z 09003KT 3/4SM BR OVC003 18/18 A2975 1020 96 1700 090/03 RMK AO2 $
14837KMSN MSN20110620090510306/20/11 09:05:31  5-MIN KMSN 201505Z 00000KT 3/4SM BR OVC003 18/18 A2976 1020 96 1700 000/00 RMK AO2 $
14837KMSN MSN20110620091010306/20/11 09:10:31  5-MIN KMSN 201510Z 00000KT 3/4SM BR OVC003 19/18 A2976 1010 93 1700 000/00 RMK AO2 $
14837KMSN MSN20110620091511306/20/11 09:15:31  5-MIN KMSN 201515Z 12003KT 3/4SM BR OVC003 19/18 A2976 1010 93 1700 120/03 RMK AO2 SFC VIS 1 $
14837KMSN MSN20110620092012506/20/11 09:20:31  5-MIN KMSN 201520Z 00000KT 3/4SM BR OVC003 19/18 A2976 1010 93 1700 000/00 RMK AO2 SFC VIS 1 CIG 002V006 $
14837KMSN MSN20110620092511706/20/11 09:25:31  5-MIN KMSN 201525Z 00000KT 1 1/4SM BR OVC003 19/18 A2976 1020 93 1700 000/00 RMK AO2 CIG 002V006 $
14837KMSN MSN20110620093011706/20/11 09:30:31  5-MIN KMSN 201530Z 00000KT 1 1/4SM BR OVC003 19/18 A2975 1020 93 1700 000/00 RMK AO2 CIG 003V006 $
14837KMSN MSN20110620093513106/20/11 09:35:31  5-MIN KMSN 201535Z 00000KT 1 1/4SM BR OVC005 19/18 A2974 1030 90 1800 000/00 RMK AO2 SFC VIS 1 1/2 CIG 003V007 $
14837KMSN MSN20110620094012106/20/11 09:40:31  5-MIN KMSN 201540Z 00000KT 1 1/4SM -RA BR OVC005 19/18 A2974 1030 90 1800 000/00 RMK AO2 RAB38 P0000 $
14837KMSN MSN20110620094513506/20/11 09:45:31  5-MIN KMSN 201545Z 00000KT 1 1/4SM -RA BR OVC005 19/18 A2974 1030 90 1800 000/00 RMK AO2 SFC VIS 1 1/2 RAB38 P0000 $
14837KMSN MSN20110620095015106/20/11 09:50:31  5-MIN KMSN 201550Z 12003KT 1 1/4SM BR OVC007 19/18 A2974 1030 90 1800 120/03 RMK AO2 SFC VIS 1 3/4 RAB38E50 SLP067 P0000 T01940178 $
14837KMSN MSN20110620095511906/20/11 09:55:31  5-MIN KMSN 201555Z 10003KT 1 1/4SM BR OVC007 19/18 A2973 1040 90 1800 100/03 RMK AO2 SFC VIS 1 1/2 $
14837KMSN MSN20110620100012606/20/11 10:00:31  5-MIN KMSN 201600Z 09006KT 1 1/4SM BR OVC007 19/18 A2972 1050 90 1800 090/06 RMK AO2 SFC VIS 1 1/2 PRESFR $
14837KMSN MSN20110620100512606/20/11 10:05:31  5-MIN KMSN 201605Z 09010KT 1 1/4SM BR OVC007 20/18 A2969 1080 87 2000 090/10 RMK AO2 SFC VIS 1 3/4 PRESFR $
14837KMSN MSN20110620101012206/20/11 10:10:31  5-MIN KMSN 201610Z 08011KT 1 3/4SM BR OVC007 21/18 A2967 1090 87 2000 080/11 RMK AO2 SFC VIS 2 PRESFR $
14837KMSN MSN20110620101511506/20/11 10:15:31  5-MIN KMSN 201615Z 07007KT 1 3/4SM BR OVC007 21/18 A2969 1070 87 2000 070/07 RMK AO2 SFC VIS 2 $
14837KMSN MSN20110620102011506/20/11 10:20:31  5-MIN KMSN 201620Z 08008KT 1 3/4SM HZ OVC007 21/18 A2970 1070 84 2000 080/08 RMK AO2 SFC VIS 2 $
14837KMSN MSN20110620102511906/20/11 10:25:31  5-MIN KMSN 201625Z 10008KT 1 3/4SM HZ OVC007 21/18 A2970 1070 84 2100 100/08 RMK AO2 SFC VIS 2 1/2 $
14837KMSN MSN20110620103011906/20/11 10:30:31  5-MIN KMSN 201630Z 11008KT 1 3/4SM HZ OVC009 21/18 A2970 1070 84 2100 110/08 RMK AO2 SFC VIS 2 1/2 $
14837KMSN MSN20110620103511906/20/11 10:35:31  5-MIN KMSN 201635Z 08007KT 1 3/4SM HZ OVC009 21/18 A2971 1060 84 2100 080/07 RMK AO2 SFC VIS 2 1/2 $
14837KMSN MSN20110620104011906/20/11 10:40:31  5-MIN KMSN 201640Z 07008KT 1 3/4SM BR OVC009 21/18 A2971 1060 87 2000 070/08 RMK AO2 SFC VIS 2 1/2 $
14837KMSN MSN20110620104512506/20/11 10:45:31  5-MIN KMSN 201645Z 09010G14KT 1 3/4SM HZ OVC009 22/18 A2970 1070 81 2100 090/10G14 RMK AO2 SFC VIS 2 1/2 $
14837KMSN MSN20110620105010106/20/11 10:50:31  5-MIN KMSN 201650Z 08009KT 3SM HZ OVC009 22/18 A2969 1070 81 2100 080/09 RMK AO2 $
14837KMSN MSN20110620105510106/20/11 10:55:31  5-MIN KMSN 201655Z 09010KT 3SM HZ OVC009 22/19 A2970 1070 84 2100 090/10 RMK AO2 $
14837KMSN MSN20110620110010106/20/11 11:00:31  5-MIN KMSN 201700Z 08010KT 3SM HZ OVC009 21/18 A2970 1070 84 2100 090/10 RMK AO2 $
14837KMSN MSN20110620110510106/20/11 11:05:31  5-MIN KMSN 201705Z 08011KT 3SM HZ OVC009 22/19 A2970 1070 84 2100 090/11 RMK AO2 $
14837KMSN MSN20110620111010106/20/11 11:10:31  5-MIN KMSN 201710Z 09009KT 3SM HZ OVC009 22/19 A2970 1070 81 2200 090/09 RMK AO2 $
14837KMSN MSN20110620111510106/20/11 11:15:31  5-MIN KMSN 201715Z 09010KT 3SM HZ OVC009 22/19 A2970 1060 84 2100 090/10 RMK AO2 $
14837KMSN MSN20110620112010106/20/11 11:20:31  5-MIN KMSN 201720Z 09008KT 3SM HZ OVC009 22/19 A2970 1070 84 2100 100/08 RMK AO2 $
14837KMSN MSN20110620112510106/20/11 11:25:31  5-MIN KMSN 201725Z 11010KT 3SM HZ OVC009 22/19 A2970 1070 84 2100 110/10 RMK AO2 $
14837KMSN MSN20110620113010106/20/11 11:30:31  5-MIN KMSN 201730Z 10008KT 3SM HZ OVC009 22/19 A2970 1070 84 2200 100/08 RMK AO2 $
14837KMSN MSN20110620113510106/20/11 11:35:31  5-MIN KMSN 201735Z 10007KT 3SM HZ OVC009 22/19 A2970 1070 84 2100 110/07 RMK AO2 $
14837KMSN MSN20110620114010106/20/11 11:40:31  5-MIN KMSN 201740Z 10006KT 3SM HZ OVC009 22/19 A2970 1070 81 2200 100/06 RMK AO2 $
14837KMSN MSN20110620114510106/20/11 11:45:31  5-MIN KMSN 201745Z 11007KT 3SM HZ OVC011 22/19 A2970 1070 84 2200 110/07 RMK AO2 $
14837KMSN MSN20110620115014206/20/11 11:50:31  5-MIN KMSN 201750Z 10007KT 3SM HZ OVC011 22/19 A2969 1070 84 2200 100/07 RMK AO2 SLP050 60000 T02220194 10222 20172 53002 $
14837KMSN MSN20110620115510106/20/11 11:55:31  5-MIN KMSN 201755Z 10009KT 3SM HZ OVC011 22/19 A2969 1070 84 2200 110/09 RMK AO2 $
14837KMSN MSN20110620120010106/20/11 12:00:31  5-MIN KMSN 201800Z 10007KT 3SM HZ OVC011 23/19 A2969 1080 81 2300 100/07 RMK AO2 $
14837KMSN MSN20110620120510106/20/11 12:05:31  5-MIN KMSN 201805Z VRB05KT 3SM HZ OVC011 23/19 A2969 1080 81 2300 VRB/05 RMK AO2 $
14837KMSN MSN20110620121011106/20/11 12:10:31  5-MIN KMSN 201810Z 10008KT 3SM HZ BKN011 23/20 A2968 1080 81 2300 100/08 RMK AO2 SFC VIS 3 $
14837KMSN MSN20110620121512706/20/11 12:15:31  5-MIN KMSN 201815Z 05007KT 020V080 3SM HZ BKN011 23/20 A2968 1080 81 2300 050/07 020V080 RMK AO2 SFC VIS 4 $
14837KMSN MSN20110620122011106/20/11 12:20:31  5-MIN KMSN 201820Z 05006KT 3SM HZ BKN011 23/20 A2968 1090 81 2300 050/06 RMK AO2 SFC VIS 3 $
14837KMSN MSN20110620122511106/20/11 12:25:31  5-MIN KMSN 201825Z 09006KT 3SM HZ BKN011 23/20 A2968 1080 81 2300 090/06 RMK AO2 SFC VIS 4 $
14837KMSN MSN20110620123011106/20/11 12:30:31  5-MIN KMSN 201830Z VRB04KT 3SM HZ BKN011 24/20 A2969 1080 78 2400 VRB/04 RMK AO2 SFC VIS 4 $
14837KMSN MSN20110620123511106/20/11 12:35:31  5-MIN KMSN 201835Z 07005KT 3SM HZ BKN013 23/19 A2969 1080 78 2300 070/05 RMK AO2 SFC VIS 4 $
14837KMSN MSN20110620124010106/20/11 12:40:31  5-MIN KMSN 201840Z 07006KT 4SM HZ BKN013 23/19 A2969 1080 78 2300 070/06 RMK AO2 $
14837KMSN MSN20110620124510106/20/11 12:45:31  5-MIN KMSN 201845Z VRB03KT 4SM HZ BKN015 23/19 A2969 1070 78 2300 VRB/03 RMK AO2 $
14837KMSN MSN20110620125011806/20/11 12:50:31  5-MIN KMSN 201850Z 12006KT 4SM HZ BKN015 24/20 A2970 1070 76 2400 120/06 RMK AO2 SLP051 T02440200 $
14837KMSN MSN20110620125510106/20/11 12:55:31  5-MIN KMSN 201855Z 09004KT 5SM HZ BKN015 24/20 A2970 1070 76 2400 090/04 RMK AO2 $
14837KMSN MSN20110620130010106/20/11 13:00:31  5-MIN KMSN 201900Z VRB03KT 5SM HZ BKN015 24/20 A2970 1070 76 2400 VRB/03 RMK AO2 $
14837KMSN MSN20110620130510106/20/11 13:05:31  5-MIN KMSN 201905Z 08005KT 5SM HZ BKN017 24/20 A2970 1070 76 2400 090/05 RMK AO2 $
14837KMSN MSN20110620131010806/20/11 13:10:31  5-MIN KMSN 201910Z 00000KT 5SM HZ SCT017 BKN022 25/20 A2970 1070 73 2500 000/00 RMK AO2 $
14837KMSN MSN20110620131510106/20/11 13:15:31  5-MIN KMSN 201915Z 11004KT 5SM HZ BKN019 26/20 A2971 1060 71 2600 110/04 RMK AO2 $
14837KMSN MSN20110620132010106/20/11 13:20:31  5-MIN KMSN 201920Z VRB03KT 5SM HZ BKN019 25/20 A2971 1060 73 2500 VRB/03 RMK AO2 $
14837KMSN MSN20110620132510106/20/11 13:25:31  5-MIN KMSN 201925Z 00000KT 5SM HZ BKN019 25/19 A2971 1060 71 2500 000/00 RMK AO2 $
14837KMSN MSN20110620133010106/20/11 13:30:31  5-MIN KMSN 201930Z 00000KT 6SM HZ BKN022 26/20 A2971 1060 71 2600 000/00 RMK AO2 $
14837KMSN MSN20110620133510106/20/11 13:35:31  5-MIN KMSN 201935Z 00000KT 6SM HZ BKN022 26/19 A2971 1060 66 2600 000/00 RMK AO2 $
14837KMSN MSN20110620134010106/20/11 13:40:31  5-MIN KMSN 201940Z 00000KT 6SM HZ BKN022 26/20 A2971 1060 71 2600 000/00 RMK AO2 $
14837KMSN MSN20110620134510806/20/11 13:45:31  5-MIN KMSN 201945Z VRB03KT 6SM HZ BKN022 OVC026 26/20 A2971 1060 71 2600 VRB/03 RMK AO2 $
14837KMSN MSN20110620135011806/20/11 13:50:31  5-MIN KMSN 201950Z 04003KT 6SM HZ OVC022 26/19 A2971 1060 68 2600 040/03 RMK AO2 SLP056 T02560194 $
14837KMSN MSN20110620135510106/20/11 13:55:31  5-MIN KMSN 201955Z 01003KT 6SM HZ BKN022 26/20 A2971 1060 68 2600 010/03 RMK AO2 $
14837KMSN MSN20110620140010106/20/11 14:00:31  5-MIN KMSN 202000Z 36004KT 6SM HZ BKN022 26/20 A2971 1060 71 2600 360/04 RMK AO2 $
14837KMSN MSN20110620140509806/20/11 14:05:31  5-MIN KMSN 202005Z 02004KT 7SM BKN022 26/20 A2972 1050 71 2600 030/04 RMK AO2 $
14837KMSN MSN20110620141009806/20/11 14:10:31  5-MIN KMSN 202010Z VRB03KT 7SM BKN022 26/20 A2972 1050 68 2600 VRB/03 RMK AO2 $
14837KMSN MSN20110620141509806/20/11 14:15:31  5-MIN KMSN 202015Z VRB03KT 7SM BKN026 26/20 A2972 1050 68 2600 VRB/03 RMK AO2 $
14837KMSN MSN20110620142009806/20/11 14:20:31  5-MIN KMSN 202020Z 03006KT 8SM BKN026 26/20 A2971 1060 68 2600 030/06 RMK AO2 $
14837KMSN MSN20110620142509806/20/11 14:25:31  5-MIN KMSN 202025Z 01006KT 8SM BKN026 26/20 A2971 1060 68 2600 010/06 RMK AO2 $
14837KMSN MSN20110620143009806/20/11 14:30:31  5-MIN KMSN 202030Z 01005KT 8SM BKN030 26/20 A2971 1060 68 2600 010/05 RMK AO2 $
14837KMSN MSN20110620143509806/20/11 14:35:31  5-MIN KMSN 202035Z 02003KT 8SM BKN030 26/19 A2971 1060 66 2600 020/03 RMK AO2 $
14837KMSN MSN20110620144010506/20/11 14:40:31  5-MIN KMSN 202040Z 05006KT 9SM SCT024 BKN030 27/20 A2972 1050 66 2700 050/06 RMK AO2 $
14837KMSN MSN20110620144510606/20/11 14:45:31  5-MIN KMSN 202045Z 05003KT 10SM SCT024 BKN030 27/19 A2972 1050 64 2700 050/03 RMK AO2 $
14837KMSN MSN20110620145009906/20/11 14:50:31  5-MIN KMSN 202050Z 06006KT 10SM BKN028 26/20 A2972 1050 68 2600 060/06 RMK AO2 $
14837KMSN MSN20110620145511306/20/11 14:55:31  5-MIN KMSN 202055Z VRB04KT 10SM BKN028 BKN033 BKN046 26/19 A2972 1050 66 2500 VRB/04 RMK AO2 $
14837KMSN MSN20110620150011306/20/11 15:00:31  5-MIN KMSN 202100Z 13003KT 10SM BKN028 BKN033 BKN044 26/19 A2972 1050 66 2500 140/03 RMK AO2 $
14837KMSN MSN20110620150511306/20/11 15:05:31  5-MIN KMSN 202105Z 00000KT 10SM SCT028 BKN033 BKN044 26/19 A2972 1050 66 2500 000/00 RMK AO2 $
14837KMSN MSN20110620151011306/20/11 15:10:31  5-MIN KMSN 202110Z VRB03KT 10SM SCT028 BKN033 BKN044 26/19 A2972 1050 66 2500 VRB/03 RMK AO2 $
14837KMSN MSN20110620151511306/20/11 15:15:31  5-MIN KMSN 202115Z 00000KT 10SM SCT028 BKN033 BKN044 26/19 A2972 1050 64 2600 000/00 RMK AO2 $
14837KMSN MSN20110620152011306/20/11 15:20:31  5-MIN KMSN 202120Z 00000KT 10SM SCT028 BKN033 BKN044 26/18 A2972 1050 62 2600 000/00 RMK AO2 $
14837KMSN MSN20110620152510606/20/11 15:25:31  5-MIN KMSN 202125Z 12003KT 10SM FEW033 BKN065 26/19 A2972 1050 66 2500 120/03 RMK AO2 $
14837KMSN MSN20110620153010606/20/11 15:30:31  5-MIN KMSN 202130Z 00000KT 10SM BKN065 BKN075 26/19 A2972 1050 66 2500 000/00 RMK AO2 $
14837KMSN MSN20110620153511306/20/11 15:35:31  5-MIN KMSN 202135Z 09004KT 10SM FEW044 BKN065 BKN075 26/19 A2972 1050 66 2500 090/04 RMK AO2 $
14837KMSN MSN20110620154011306/20/11 15:40:31  5-MIN KMSN 202140Z 10004KT 10SM FEW044 BKN065 BKN075 26/19 A2972 1050 66 2500 100/04 RMK AO2 $
14837KMSN MSN20110620154511306/20/11 15:45:31  5-MIN KMSN 202145Z 10003KT 10SM FEW044 BKN065 BKN075 26/19 A2972 1050 68 2500 100/03 RMK AO2 $
14837KMSN MSN20110620155013006/20/11 15:50:31  5-MIN KMSN 202150Z 10005KT 10SM FEW044 BKN065 BKN075 26/19 A2972 1050 68 2500 100/05 RMK AO2 SLP060 T02560194 $
14837KMSN MSN20110620155511306/20/11 15:55:31  5-MIN KMSN 202155Z 10004KT 10SM FEW044 SCT050 OVC060 25/19 A2972 1050 68 2500 100/04 RMK AO2 $
14837KMSN MSN20110620160011306/20/11 16:00:31  5-MIN KMSN 202200Z 08005KT 10SM FEW044 SCT050 OVC060 25/19 A2972 1050 68 2500 090/05 RMK AO2 $
14837KMSN MSN20110620160511306/20/11 16:05:31  5-MIN KMSN 202205Z 08004KT 10SM FEW044 SCT050 OVC060 26/19 A2972 1050 66 2500 080/04 RMK AO2 $
14837KMSN MSN20110620161011306/20/11 16:10:31  5-MIN KMSN 202210Z 08004KT 10SM FEW044 SCT050 OVC060 25/19 A2972 1050 71 2500 090/04 RMK AO2 $
14837KMSN MSN20110620161511306/20/11 16:15:31  5-MIN KMSN 202215Z 06004KT 10SM FEW044 SCT050 OVC060 26/19 A2972 1050 68 2500 070/04 RMK AO2 $
14837KMSN MSN20110620162011306/20/11 16:20:31  5-MIN KMSN 202220Z 06003KT 10SM FEW044 SCT050 OVC060 26/19 A2972 1050 68 2500 060/03 RMK AO2 $
14837KMSN MSN20110620162511306/20/11 16:25:31  5-MIN KMSN 202225Z 00000KT 10SM FEW044 SCT050 OVC060 26/20 A2972 1050 71 2500 000/00 RMK AO2 $
14837KMSN MSN20110620163011206/20/11 16:30:31  5-MIN KMSN 202230Z 02004KT 9SM FEW041 SCT060 BKN085 26/21 A2972 1050 76 2500 030/04 RMK AO2 $
14837KMSN MSN20110620163511506/20/11 16:35:31  5-MIN KMSN 202235Z 02007KT 6SM HZ FEW041 SCT060 BKN085 25/21 A2972 1050 79 2500 020/07 RMK AO2 $
14837KMSN MSN20110620164010806/20/11 16:40:31  5-MIN KMSN 202240Z 05005KT 6SM HZ FEW041 BKN085 25/21 A2972 1050 79 2500 050/05 RMK AO2 $
14837KMSN MSN20110620164510106/20/11 16:45:31  5-MIN KMSN 202245Z 04004KT 6SM HZ BKN085 25/21 A2972 1050 79 2500 040/04 RMK AO2 $
14837KMSN MSN20110620165011806/20/11 16:50:31  5-MIN KMSN 202250Z 05005KT 6SM HZ BKN085 25/21 A2972 1050 79 2500 050/05 RMK AO2 SLP059 T02500211 $
14837KMSN MSN20110620165510806/20/11 16:55:31  5-MIN KMSN 202255Z 03006KT 6SM HZ FEW038 BKN085 24/21 A2972 1050 81 2400 030/06 RMK AO2 $
14837KMSN MSN20110620170010806/20/11 17:00:31  5-MIN KMSN 202300Z 03008KT 6SM HZ SCT036 BKN085 24/21 A2972 1050 81 2400 030/08 RMK AO2 $
14837KMSN MSN20110620170510806/20/11 17:05:31  5-MIN KMSN 202305Z 03007KT 6SM HZ BKN036 OVC085 24/21 A2972 1050 84 2400 030/07 RMK AO2 $
14837KMSN MSN20110620171011506/20/11 17:10:31  5-MIN KMSN 202310Z 04006KT 6SM HZ FEW017 BKN036 OVC085 24/21 A2972 1050 84 2400 040/06 RMK AO2 $
14837KMSN MSN20110620171511506/20/11 17:15:31  5-MIN KMSN 202315Z 03008KT 6SM HZ FEW017 BKN036 OVC085 24/21 A2972 1050 84 2400 030/08 RMK AO2 $
14837KMSN MSN20110620172010806/20/11 17:20:31  5-MIN KMSN 202320Z 06005KT 6SM HZ FEW017 OVC036 24/21 A2972 1050 84 2400 060/05 RMK AO2 $
14837KMSN MSN20110620172511506/20/11 17:25:31  5-MIN KMSN 202325Z 06007KT 6SM HZ FEW017 BKN036 OVC085 24/21 A2972 1050 81 2400 070/07 RMK AO2 $
14837KMSN MSN20110620173011506/20/11 17:30:31  5-MIN KMSN 202330Z 08011KT 6SM HZ FEW017 BKN036 OVC085 24/21 A2972 1050 81 2400 080/11 RMK AO2 $
14837KMSN MSN20110620173511506/20/11 17:35:31  5-MIN KMSN 202335Z 08009KT 6SM HZ FEW017 BKN036 OVC090 24/21 A2972 1050 81 2400 080/09 RMK AO2 $
14837KMSN MSN20110620174010806/20/11 17:40:31  5-MIN KMSN 202340Z 07009KT 5SM HZ SCT036 OVC090 24/21 A2972 1050 81 2400 070/09 RMK AO2 $
14837KMSN MSN20110620174510806/20/11 17:45:31  5-MIN KMSN 202345Z 07010KT 5SM HZ FEW036 OVC085 24/21 A2971 1060 81 2400 070/10 RMK AO2 $
14837KMSN MSN20110620175014306/20/11 17:50:31  5-MIN KMSN 202350Z 06007KT 5SM HZ FEW034 OVC090 24/21 A2971 1060 81 2400 060/07 RMK AO2 SLP058 T02390206 10267 20222 53009 $
14837KMSN MSN20110620175510106/20/11 17:55:31  5-MIN KMSN 202355Z 06008KT 5SM HZ OVC090 24/21 A2972 1050 81 2400 060/08 RMK AO2 $
14837KMSN MSN20110620180010106/20/11 18:00:31  5-MIN KMSN 210000Z 07007KT 5SM HZ OVC090 23/21 A2972 1050 84 2300 080/07 RMK AO2 $
14837KMSN MSN20110620180510106/20/11 18:05:31  5-MIN KMSN 210005Z 06006KT 5SM HZ OVC090 23/21 A2972 1050 84 2300 060/06 RMK AO2 $
14837KMSN MSN20110620181010106/20/11 18:10:31  5-MIN KMSN 210010Z 06008KT 5SM HZ OVC090 23/21 A2972 1050 84 2300 060/08 RMK AO2 $
14837KMSN MSN20110620181510106/20/11 18:15:31  5-MIN KMSN 210015Z 06006KT 4SM HZ OVC090 23/21 A2972 1050 84 2300 060/06 RMK AO2 $
14837KMSN MSN20110620182010106/20/11 18:20:31  5-MIN KMSN 210020Z 05008KT 4SM HZ OVC085 23/20 A2972 1050 81 2300 050/08 RMK AO2 $
14837KMSN MSN20110620182510106/20/11 18:25:31  5-MIN KMSN 210025Z 05008KT 4SM HZ OVC085 23/20 A2972 1050 84 2200 060/08 RMK AO2 $
14837KMSN MSN20110620183010106/20/11 18:30:31  5-MIN KMSN 210030Z 06009KT 4SM HZ OVC085 23/20 A2971 1060 84 2200 060/09 RMK AO2 $
14837KMSN MSN20110620183510106/20/11 18:35:31  5-MIN KMSN 210035Z 06007KT 4SM HZ OVC085 23/20 A2971 1060 84 2200 060/07 RMK AO2 $
14837KMSN MSN20110620184010106/20/11 18:40:31  5-MIN KMSN 210040Z 06006KT 4SM HZ OVC085 23/20 A2971 1060 84 2200 060/06 RMK AO2 $
14837KMSN MSN20110620184510806/20/11 18:45:31  5-MIN KMSN 210045Z 06006KT 4SM HZ FEW027 OVC085 23/20 A2971 1060 84 2200 070/06 RMK AO2 $
14837KMSN MSN20110620185012506/20/11 18:50:31  5-MIN KMSN 210050Z 06008KT 4SM HZ FEW027 OVC085 23/20 A2971 1060 84 2200 070/08 RMK AO2 SLP058 T02280200 $
14837KMSN MSN20110620185510106/20/11 18:55:31  5-MIN KMSN 210055Z 06006KT 4SM HZ OVC085 23/20 A2971 1060 84 2200 060/06 RMK AO2 $
14837KMSN MSN20110620190010106/20/11 19:00:31  5-MIN KMSN 210100Z 07005KT 4SM HZ OVC080 23/20 A2971 1060 84 2200 070/05 RMK AO2 $
14837KMSN MSN20110620190510106/20/11 19:05:31  5-MIN KMSN 210105Z 06004KT 4SM HZ OVC080 23/20 A2971 1050 84 2200 060/04 RMK AO2 $
14837KMSN MSN20110620191010106/20/11 19:10:31  5-MIN KMSN 210110Z 07006KT 4SM BR OVC075 23/21 A2971 1060 87 2200 070/06 RMK AO2 $
14837KMSN MSN20110620191510106/20/11 19:15:31  5-MIN KMSN 210115Z 07006KT 4SM BR OVC075 23/21 A2971 1060 87 2200 070/06 RMK AO2 $
14837KMSN MSN20110620192010106/20/11 19:20:31  5-MIN KMSN 210120Z 07007KT 4SM HZ OVC075 23/20 A2971 1060 84 2200 070/07 RMK AO2 $
14837KMSN MSN20110620192510106/20/11 19:25:31  5-MIN KMSN 210125Z 07007KT 4SM HZ OVC070 23/20 A2972 1050 84 2200 070/07 RMK AO2 $
14837KMSN MSN20110620193010106/20/11 19:30:31  5-MIN KMSN 210130Z 08006KT 4SM HZ OVC070 23/20 A2972 1050 84 2200 080/06 RMK AO2 $
14837KMSN MSN20110620193510106/20/11 19:35:31  5-MIN KMSN 210135Z 08007KT 4SM HZ OVC070 23/20 A2972 1050 84 2200 080/07 RMK AO2 $
14837KMSN MSN20110620194010106/20/11 19:40:31  5-MIN KMSN 210140Z 08007KT 4SM HZ OVC070 23/20 A2972 1050 84 2200 080/07 RMK AO2 $
14837KMSN MSN20110620194510106/20/11 19:45:31  5-MIN KMSN 210145Z 07008KT 5SM HZ OVC070 23/20 A2972 1050 84 2200 080/08 RMK AO2 $
14837KMSN MSN20110620195011806/20/11 19:50:31  5-MIN KMSN 210150Z 07007KT 5SM HZ OVC070 23/20 A2972 1050 84 2200 070/07 RMK AO2 SLP059 T02280200 $
14837KMSN MSN20110620195511406/20/11 19:55:31  5-MIN KMSN 210155Z 09007KT 5SM -RA OVC070 23/20 A2972 1050 84 2200 090/07 RMK AO2 RAB54 P0000 $
14837KMSN MSN20110620200011606/20/11 20:00:31  5-MIN KMSN 210200Z 09007KT 5SM -RA OVC070 22/20 A2971 1060 87 2200 090/07 RMK AO2 RAB0154 P0000 $
14837KMSN MSN20110620200511806/20/11 20:05:31  5-MIN KMSN 210205Z 08006KT 4SM BR OVC070 22/20 A2972 1050 87 2200 080/06 RMK AO2 RAB0154E04 P0000 $
14837KMSN MSN20110620201011806/20/11 20:10:31  5-MIN KMSN 210210Z 07006KT 4SM BR OVC070 22/20 A2972 1050 87 2200 080/06 RMK AO2 RAB0154E04 P0000 $
14837KMSN MSN20110620201511806/20/11 20:15:31  5-MIN KMSN 210215Z 07005KT 4SM BR OVC065 22/20 A2972 1050 87 2200 080/05 RMK AO2 RAB0154E04 P0000 $
14837KMSN MSN20110620202011806/20/11 20:20:31  5-MIN KMSN 210220Z 07005KT 4SM BR OVC070 22/20 A2972 1050 87 2200 070/05 RMK AO2 RAB0154E04 P0000 $
14837KMSN MSN20110620202511806/20/11 20:25:31  5-MIN KMSN 210225Z 08005KT 4SM HZ OVC070 22/19 A2972 1050 84 2200 080/05 RMK AO2 RAB0154E04 P0000 $
14837KMSN MSN20110620203011806/20/11 20:30:31  5-MIN KMSN 210230Z 08004KT 4SM BR OVC070 22/20 A2972 1050 87 2200 090/04 RMK AO2 RAB0154E04 P0000 $
14837KMSN MSN20110620203511806/20/11 20:35:31  5-MIN KMSN 210235Z 07004KT 5SM BR OVC065 22/20 A2972 1050 87 2200 070/04 RMK AO2 RAB0154E04 P0000 $
14837KMSN MSN20110620204011806/20/11 20:40:31  5-MIN KMSN 210240Z 06005KT 5SM BR OVC065 22/20 A2973 1040 87 2200 060/05 RMK AO2 RAB0154E04 P0000 $
14837KMSN MSN20110620204511806/20/11 20:45:31  5-MIN KMSN 210245Z 06005KT 5SM HZ OVC060 22/19 A2973 1040 84 2200 060/05 RMK AO2 RAB0154E04 P0000 $
14837KMSN MSN20110620205014706/20/11 20:50:31  5-MIN KMSN 210250Z 05004KT 5SM HZ OVC060 22/19 A2973 1040 84 2200 050/04 RMK AO2 RAB0154E04 SLP063 P0000 60000 T02220194 58002 $
14837KMSN MSN20110620205510106/20/11 20:55:31  5-MIN KMSN 210255Z 05006KT 5SM HZ OVC060 22/19 A2973 1040 84 2200 050/06 RMK AO2 $
14837KMSN MSN20110620210010806/20/11 21:00:31  5-MIN KMSN 210300Z 05004KT 5SM BR BKN060 OVC075 22/19 A2972 1050 87 2100 060/04 RMK AO2 $
14837KMSN MSN20110620210510106/20/11 21:05:31  5-MIN KMSN 210305Z 06004KT 5SM BR OVC065 22/19 A2972 1050 87 2100 060/04 RMK AO2 $
14837KMSN MSN20110620211010806/20/11 21:10:31  5-MIN KMSN 210310Z 06005KT 5SM BR BKN065 OVC080 22/19 A2972 1050 87 2100 060/05 RMK AO2 $
14837KMSN MSN20110620211510806/20/11 21:15:31  5-MIN KMSN 210315Z 06005KT 5SM BR BKN065 OVC080 22/19 A2972 1050 87 2100 060/05 RMK AO2 $
14837KMSN MSN20110620212010806/20/11 21:20:31  5-MIN KMSN 210320Z 06004KT 5SM BR SCT065 OVC080 22/19 A2972 1050 87 2100 060/04 RMK AO2 $
14837KMSN MSN20110620212510806/20/11 21:25:31  5-MIN KMSN 210325Z 06007KT 5SM BR SCT070 OVC080 22/19 A2972 1050 87 2100 060/07 RMK AO2 $
14837KMSN MSN20110620213010806/20/11 21:30:31  5-MIN KMSN 210330Z 06007KT 5SM HZ FEW070 OVC085 22/19 A2972 1050 84 2100 060/07 RMK AO2 $
14837KMSN MSN20110620213510806/20/11 21:35:31  5-MIN KMSN 210335Z 06008KT 5SM HZ FEW070 OVC085 22/19 A2972 1050 84 2100 060/08 RMK AO2 $
14837KMSN MSN20110620214010106/20/11 21:40:31  5-MIN KMSN 210340Z 07009KT 5SM HZ OVC085 22/19 A2972 1050 84 2100 070/09 RMK AO2 $
14837KMSN MSN20110620214510106/20/11 21:45:31  5-MIN KMSN 210345Z 07007KT 5SM HZ OVC085 22/19 A2972 1050 84 2100 070/07 RMK AO2 $
14837KMSN MSN20110620215011806/20/11 21:50:31  5-MIN KMSN 210350Z 07007KT 5SM HZ OVC085 22/19 A2972 1050 84 2100 070/07 RMK AO2 SLP060 T02170189 $
14837KMSN MSN20110620215510106/20/11 21:55:31  5-MIN KMSN 210355Z 07005KT 5SM BR OVC085 21/19 A2972 1050 87 2000 070/05 RMK AO2 $
14837KMSN MSN20110620220010106/20/11 22:00:31  5-MIN KMSN 210400Z 07006KT 5SM BR OVC085 21/19 A2971 1060 87 2100 070/06 RMK AO2 $
14837KMSN MSN20110620220510106/20/11 22:05:31  5-MIN KMSN 210405Z 06007KT 5SM BR OVC085 21/19 A2972 1050 87 2000 070/07 RMK AO2 $
14837KMSN MSN20110620221010806/20/11 22:10:31  5-MIN KMSN 210410Z 07006KT 5SM BR SCT031 OVC085 21/19 A2972 1050 87 2000 070/06 RMK AO2 $
14837KMSN MSN20110620221510806/20/11 22:15:31  5-MIN KMSN 210415Z 07007KT 5SM BR BKN031 OVC085 21/19 A2972 1050 87 2000 070/07 RMK AO2 $
14837KMSN MSN20110620222010806/20/11 22:20:31  5-MIN KMSN 210420Z 08005KT 5SM BR BKN031 OVC085 21/19 A2972 1050 87 2000 080/05 RMK AO2 $
14837KMSN MSN20110620222510806/20/11 22:25:31  5-MIN KMSN 210425Z 07009KT 5SM BR BKN031 OVC085 21/19 A2972 1050 87 2000 070/09 RMK AO2 $
14837KMSN MSN20110620223010806/20/11 22:30:31  5-MIN KMSN 210430Z 07008KT 5SM BR BKN031 OVC085 21/19 A2971 1060 87 2000 070/08 RMK AO2 $
14837KMSN MSN20110620223510806/20/11 22:35:31  5-MIN KMSN 210435Z 07008KT 4SM HZ BKN031 OVC085 21/18 A2972 1050 84 2000 070/08 RMK AO2 $
14837KMSN MSN20110620224010806/20/11 22:40:31  5-MIN KMSN 210440Z 07010KT 4SM BR BKN031 OVC085 21/18 A2972 1050 87 2000 070/10 RMK AO2 $
14837KMSN MSN20110620224510806/20/11 22:45:31  5-MIN KMSN 210445Z 08007KT 4SM BR SCT031 OVC085 21/18 A2972 1050 87 2000 080/07 RMK AO2 $
14837KMSN MSN20110620225012506/20/11 22:50:31  5-MIN KMSN 210450Z 08009KT 5SM BR FEW031 OVC085 21/18 A2972 1050 87 2000 080/09 RMK AO2 SLP059 T02060183 $
14837KMSN MSN20110620225510806/20/11 22:55:31  5-MIN KMSN 210455Z 08007KT 4SM BR FEW031 OVC085 21/18 A2972 1050 87 2000 080/07 RMK AO2 $
14837KMSN MSN20110620230010806/20/11 23:00:31  5-MIN KMSN 210500Z 07006KT 4SM BR FEW033 OVC085 21/18 A2972 1050 87 2000 070/06 RMK AO2 $
14837KMSN MSN20110620230510806/20/11 23:05:31  5-MIN KMSN 210505Z 08005KT 4SM BR SCT033 OVC085 21/18 A2972 1050 87 2000 080/05 RMK AO2 $
14837KMSN MSN20110620231010806/20/11 23:10:31  5-MIN KMSN 210510Z 08006KT 4SM BR BKN033 OVC090 21/18 A2972 1050 87 2000 080/06 RMK AO2 $
14837KMSN MSN20110620231510806/20/11 23:15:31  5-MIN KMSN 210515Z 09008KT 4SM BR BKN033 OVC090 20/18 A2972 1050 90 1900 100/08 RMK AO2 $
14837KMSN MSN20110620232010806/20/11 23:20:31  5-MIN KMSN 210520Z 08007KT 4SM BR BKN035 OVC090 20/18 A2972 1050 90 1900 080/07 RMK AO2 $
14837KMSN MSN20110620232510806/20/11 23:25:31  5-MIN KMSN 210525Z 08007KT 4SM BR BKN035 OVC090 20/18 A2972 1050 87 1900 080/07 RMK AO2 $
14837KMSN MSN20110620233010806/20/11 23:30:31  5-MIN KMSN 210530Z 08005KT 4SM BR SCT035 OVC085 20/18 A2973 1040 87 1900 090/05 RMK AO2 $
14837KMSN MSN20110620233510806/20/11 23:35:31  5-MIN KMSN 210535Z 07005KT 4SM BR SCT035 OVC085 20/18 A2973 1040 87 1900 070/05 RMK AO2 $
14837KMSN MSN20110620234010806/20/11 23:40:31  5-MIN KMSN 210540Z 06004KT 4SM BR FEW037 OVC090 20/18 A2972 1050 87 1900 070/04 RMK AO2 $
14837KMSN MSN20110620234510806/20/11 23:45:31  5-MIN KMSN 210545Z 06006KT 4SM BR FEW037 OVC090 20/18 A2972 1050 87 1900 060/06 RMK AO2 $
14837KMSN MSN20110620235015206/20/11 23:50:31  5-MIN KMSN 210550Z 07006KT 4SM BR OVC090 20/18 A2972 1050 87 1900 070/06 RMK AO2 SLP060 60000 T02000178 10239 20200 402670172 53004 $
14837KMSN MSN20110620235510106/20/11 23:55:31  5-MIN KMSN 210555Z 07007KT 4SM BR OVC090 19/18 A2972 1050 90 1900 080/07 RMK AO2 $
14837KMSN MSN20110621000010106/21/11 00:00:32  5-MIN KMSN 210600Z 07005KT 4SM BR OVC090 19/18 A2972 1050 90 1900 070/05 RMK AO2 $
14837KMSN MSN20110621000510106/21/11 00:05:31  5-MIN KMSN 210605Z 07007KT 4SM BR OVC090 19/18 A2971 1060 90 1900 070/07 RMK AO2 $
14837KMSN MSN20110621001010106/21/11 00:10:31  5-MIN KMSN 210610Z 07007KT 4SM BR OVC090 19/18 A2970 1070 90 1900 070/07 RMK AO2 $
14837KMSN MSN20110621001510806/21/11 00:15:31  5-MIN KMSN 210615Z 07008KT 4SM BR OVC090 19/17 A2970 1070 87 1900 080/08 RMK AO2 PRESFR $
14837KMSN MSN20110621002010106/21/11 00:20:31  5-MIN KMSN 210620Z 08007KT 4SM BR OVC090 19/17 A2969 1080 87 1900 080/07 RMK AO2 $
14837KMSN MSN20110621002510106/21/11 00:25:31  5-MIN KMSN 210625Z 08007KT 4SM BR OVC090 19/17 A2970 1070 87 1900 080/07 RMK AO2 $
14837KMSN MSN20110621003010106/21/11 00:30:31  5-MIN KMSN 210630Z 08008KT 4SM BR OVC085 19/17 A2970 1070 87 1900 080/08 RMK AO2 $
14837KMSN MSN20110621003510106/21/11 00:35:31  5-MIN KMSN 210635Z 07007KT 5SM BR OVC085 19/17 A2970 1070 87 1900 080/07 RMK AO2 $
14837KMSN MSN20110621004010106/21/11 00:40:31  5-MIN KMSN 210640Z 08008KT 5SM BR OVC090 19/17 A2969 1080 87 1900 080/08 RMK AO2 $
14837KMSN MSN20110621004510106/21/11 00:45:31  5-MIN KMSN 210645Z 08007KT 5SM BR OVC090 19/17 A2969 1070 90 1800 080/07 RMK AO2 $
14837KMSN MSN20110621005011806/21/11 00:50:31  5-MIN KMSN 210650Z 09007KT 5SM BR BKN090 19/17 A2969 1080 90 1800 090/07 RMK AO2 SLP050 T01890172 $
14837KMSN MSN20110621005510806/21/11 00:55:31  5-MIN KMSN 210655Z 08007KT 5SM BR FEW022 BKN090 19/17 A2969 1080 90 1800 080/07 RMK AO2 $
14837KMSN MSN20110621010011506/21/11 01:00:31  5-MIN KMSN 210700Z 09006KT 5SM BR FEW022 SCT060 OVC090 19/17 A2969 1080 90 1800 090/06 RMK AO2 $
14837KMSN MSN20110621010511506/21/11 01:05:31  5-MIN KMSN 210705Z 09008KT 5SM BR FEW022 BKN060 OVC090 19/17 A2969 1080 87 1900 090/08 RMK AO2 $
14837KMSN MSN20110621011011506/21/11 01:10:31  5-MIN KMSN 210710Z 09009KT 5SM BR FEW022 BKN060 OVC090 19/17 A2968 1090 90 1800 090/09 RMK AO2 $
14837KMSN MSN20110621011511506/21/11 01:15:31  5-MIN KMSN 210715Z 09009KT 5SM BR FEW022 BKN060 BKN075 19/17 A2968 1080 90 1800 090/09 RMK AO2 $
14837KMSN MSN20110621012011506/21/11 01:20:31  5-MIN KMSN 210720Z 08007KT 5SM BR SCT060 BKN075 BKN090 19/17 A2968 1090 90 1800 080/07 RMK AO2 $
14837KMSN MSN20110621012511506/21/11 01:25:31  5-MIN KMSN 210725Z 08005KT 6SM BR SCT060 SCT075 BKN085 19/17 A2968 1090 90 1800 080/05 RMK AO2 $
14837KMSN MSN20110621013011506/21/11 01:30:31  5-MIN KMSN 210730Z 09007KT 6SM BR FEW060 SCT075 SCT085 19/17 A2968 1090 90 1800 090/07 RMK AO2 $
14837KMSN MSN20110621013511506/21/11 01:35:31  5-MIN KMSN 210735Z 08007KT 6SM BR FEW015 SCT070 SCT085 19/17 A2968 1090 87 1800 080/07 RMK AO2 $
14837KMSN MSN20110621014010806/21/11 01:40:31  5-MIN KMSN 210740Z 09008KT 6SM BR FEW019 SCT085 19/17 A2968 1090 87 1800 090/08 RMK AO2 $
14837KMSN MSN20110621014510806/21/11 01:45:31  5-MIN KMSN 210745Z 09005KT 6SM BR FEW048 BKN080 19/17 A2968 1090 87 1800 100/05 RMK AO2 $
14837KMSN MSN20110621015013206/21/11 01:50:31  5-MIN KMSN 210750Z 10007KT 6SM BR FEW019 SCT048 BKN085 19/17 A2968 1090 87 1800 110/07 RMK AO2 SLP046 T01890167 $
14837KMSN MSN20110621015510806/21/11 01:55:31  5-MIN KMSN 210755Z 11007KT 6SM BR SCT019 BKN085 19/17 A2968 1090 90 1800 110/07 RMK AO2 $
14837KMSN MSN20110621020010806/21/11 02:00:31  5-MIN KMSN 210800Z 10007KT 6SM BR BKN019 OVC080 19/17 A2969 1080 90 1800 110/07 RMK AO2 $
14837KMSN MSN20110621020511506/21/11 02:05:31  5-MIN KMSN 210805Z 10008KT 6SM BR BKN019 BKN055 OVC080 19/17 A2969 1080 90 1800 110/08 RMK AO2 $
14837KMSN MSN20110621021011506/21/11 02:10:31  5-MIN KMSN 210810Z 10006KT 6SM BR BKN019 BKN037 OVC080 19/17 A2969 1080 90 1800 100/06 RMK AO2 $
14837KMSN MSN20110621021511506/21/11 02:15:31  5-MIN KMSN 210815Z 10006KT 6SM BR SCT019 BKN037 OVC085 19/17 A2969 1080 90 1800 100/06 RMK AO2 $
14837KMSN MSN20110621022011506/21/11 02:20:31  5-MIN KMSN 210820Z 10006KT 6SM BR SCT019 BKN050 OVC090 19/17 A2969 1080 90 1800 100/06 RMK AO2 $
14837KMSN MSN20110621022511506/21/11 02:25:31  5-MIN KMSN 210825Z 11005KT 6SM BR FEW019 BKN050 OVC090 19/17 A2969 1080 90 1800 110/05 RMK AO2 $
14837KMSN MSN20110621023011506/21/11 02:30:31  5-MIN KMSN 210830Z 11005KT 6SM BR FEW019 BKN050 OVC090 19/17 A2969 1080 90 1800 120/05 RMK AO2 $
14837KMSN MSN20110621023511506/21/11 02:35:31  5-MIN KMSN 210835Z 11007KT 6SM BR SCT036 BKN047 OVC085 19/17 A2969 1080 90 1800 110/07 RMK AO2 $
14837KMSN MSN20110621024011506/21/11 02:40:31  5-MIN KMSN 210840Z 09005KT 6SM BR SCT036 BKN047 OVC090 19/17 A2969 1080 90 1800 090/05 RMK AO2 $
14837KMSN MSN20110621024511506/21/11 02:45:31  5-MIN KMSN 210845Z 08003KT 6SM BR SCT036 BKN050 OVC090 19/17 A2969 1080 90 1800 080/03 RMK AO2 $
14837KMSN MSN20110621025013806/21/11 02:50:31  5-MIN KMSN 210850Z 08006KT 6SM BR FEW036 SCT048 OVC095 19/17 A2968 1090 90 1800 080/06 RMK AO2 SLP045 T01890172 56002 $
14837KMSN MSN20110621025511506/21/11 02:55:31  5-MIN KMSN 210855Z 08007KT 6SM BR FEW016 SCT036 BKN050 19/17 A2967 1100 90 1800 090/07 RMK AO2 $
14837KMSN MSN20110621030012206/21/11 03:00:31  5-MIN KMSN 210900Z 08007KT 6SM BR FEW016 SCT036 BKN095 19/17 A2966 1110 90 1900 090/07 RMK AO2 PRESFR $
14837KMSN MSN20110621030510806/21/11 03:05:31  5-MIN KMSN 210905Z 08006KT 5SM BR FEW016 SCT095 18/17 A2966 1110 90 1800 080/06 RMK AO2 $
14837KMSN MSN20110621031010806/21/11 03:10:31  5-MIN KMSN 210910Z 08005KT 5SM BR FEW016 SCT095 18/17 A2966 1100 93 1800 080/05 RMK AO2 $
14837KMSN MSN20110621031510106/21/11 03:15:31  5-MIN KMSN 210915Z 08005KT 5SM BR FEW016 18/17 A2967 1100 93 1800 080/05 RMK AO2 $
14837KMSN MSN20110621032010106/21/11 03:20:31  5-MIN KMSN 210920Z 07006KT 5SM BR FEW016 18/17 A2967 1100 93 1800 070/06 RMK AO2 $
14837KMSN MSN20110621032509806/21/11 03:25:31  5-MIN KMSN 210925Z 07006KT 5SM BR CLR 18/17 A2966 1100 93 1800 070/06 RMK AO2 $
14837KMSN MSN20110621033010106/21/11 03:30:31  5-MIN KMSN 210930Z 08005KT 5SM BR FEW013 18/17 A2967 1100 90 1800 090/05 RMK AO2 $
14837KMSN MSN20110621033510106/21/11 03:35:31  5-MIN KMSN 210935Z 08007KT 5SM BR SCT013 18/17 A2967 1100 90 1800 080/07 RMK AO2 $
14837KMSN MSN20110621034010106/21/11 03:40:31  5-MIN KMSN 210940Z 07005KT 5SM BR BKN013 18/17 A2967 1090 93 1800 070/05 RMK AO2 $
14837KMSN MSN20110621034510106/21/11 03:45:31  5-MIN KMSN 210945Z 09007KT 5SM BR BKN011 18/17 A2967 1100 93 1800 090/07 RMK AO2 $
14837KMSN MSN20110621035011806/21/11 03:50:31  5-MIN KMSN 210950Z 08006KT 5SM BR BKN011 18/17 A2967 1100 93 1800 080/06 RMK AO2 SLP042 T01830172 $
14837KMSN MSN20110621035511306/21/11 03:55:31  5-MIN KMSN 210955Z 09007KT 5SM BR OVC011 18/17 A2967 1090 93 1800 090/07 RMK AO2 CIG 007V013 $
14837KMSN MSN20110621040011306/21/11 04:00:31  5-MIN KMSN 211000Z 10004KT 5SM BR OVC011 18/17 A2968 1090 93 1800 100/04 RMK AO2 CIG 007V015 $
14837KMSN MSN20110621040511306/21/11 04:05:31  5-MIN KMSN 211005Z 09005KT 5SM BR OVC009 18/17 A2968 1090 93 1800 100/05 RMK AO2 CIG 007V012 $
14837KMSN MSN20110621041011306/21/11 04:10:31  5-MIN KMSN 211010Z 09005KT 5SM BR OVC009 18/17 A2967 1090 93 1800 100/05 RMK AO2 CIG 006V010 $
14837KMSN MSN20110621041510106/21/11 04:15:31  5-MIN KMSN 211015Z 08006KT 5SM BR OVC007 18/17 A2967 1100 93 1800 090/06 RMK AO2 $
14837KMSN MSN20110621042011306/21/11 04:20:31  5-MIN KMSN 211020Z 09008KT 5SM BR OVC007 18/17 A2967 1100 93 1800 090/08 RMK AO2 CIG 006V011 $
14837KMSN MSN20110621042511306/21/11 04:25:31  5-MIN KMSN 211025Z 08007KT 5SM BR OVC007 18/17 A2966 1100 93 1800 090/07 RMK AO2 CIG 006V011 $
14837KMSN MSN20110621043010106/21/11 04:30:31  5-MIN KMSN 211030Z 09006KT 5SM BR OVC007 18/17 A2967 1100 93 1800 100/06 RMK AO2 $
14837KMSN MSN20110621043510106/21/11 04:35:31  5-MIN KMSN 211035Z 10005KT 4SM BR OVC007 19/17 A2967 1090 90 1800 100/05 RMK AO2 $
14837KMSN MSN20110621044010106/21/11 04:40:31  5-MIN KMSN 211040Z 10004KT 4SM BR OVC007 19/17 A2967 1090 90 1800 100/04 RMK AO2 $
14837KMSN MSN20110621044510106/21/11 04:45:31  5-MIN KMSN 211045Z 10003KT 3SM BR OVC007 19/17 A2968 1090 90 1800 100/03 RMK AO2 $
14837KMSN MSN20110621045011806/21/11 04:50:31  5-MIN KMSN 211050Z 10004KT 3SM BR OVC007 19/17 A2967 1090 90 1800 110/04 RMK AO2 SLP043 T01890172 $
14837KMSN MSN20110621045510106/21/11 04:55:31  5-MIN KMSN 211055Z 11006KT 3SM BR OVC007 19/18 A2967 1100 93 1800 110/06 RMK AO2 $
14837KMSN MSN20110621050010106/21/11 05:00:31  5-MIN KMSN 211100Z 11006KT 3SM BR OVC007 19/18 A2966 1100 93 1900 110/06 RMK AO2 $
14837KMSN MSN20110621050511306/21/11 05:05:31  5-MIN KMSN 211105Z 11005KT 3SM BR OVC007 19/18 A2967 1100 93 1800 110/05 RMK AO2 CIG 006V009 $
14837KMSN MSN20110621051010106/21/11 05:10:31  5-MIN KMSN 211110Z 13003KT 3SM BR OVC007 19/18 A2968 1090 93 1800 130/03 RMK AO2 $
14837KMSN MSN20110621051510106/21/11 05:15:31  5-MIN KMSN 211115Z 12006KT 3SM BR OVC007 19/18 A2968 1090 90 1900 120/06 RMK AO2 $
14837KMSN MSN20110621052010106/21/11 05:20:31  5-MIN KMSN 211120Z 11005KT 3SM BR OVC007 19/18 A2967 1100 90 1900 110/05 RMK AO2 $
14837KMSN MSN20110621052510106/21/11 05:25:31  5-MIN KMSN 211125Z 12004KT 3SM BR OVC007 19/18 A2968 1090 90 1900 120/04 RMK AO2 $
14837KMSN MSN20110621053010106/21/11 05:30:31  5-MIN KMSN 211130Z 12004KT 3SM BR OVC007 19/18 A2968 1090 90 1900 120/04 RMK AO2 $
14837KMSN MSN20110621053510106/21/11 05:35:31  5-MIN KMSN 211135Z 13004KT 3SM BR OVC007 19/18 A2968 1090 90 1900 130/04 RMK AO2 $
14837KMSN MSN20110621054010106/21/11 05:40:31  5-MIN KMSN 211140Z 12006KT 3SM BR OVC007 19/18 A2968 1090 93 1900 120/06 RMK AO2 $
14837KMSN MSN20110621054510106/21/11 05:45:31  5-MIN KMSN 211145Z 11007KT 3SM BR OVC007 19/18 A2968 1080 90 1900 110/07 RMK AO2 $
14837KMSN MSN20110621055013606/21/11 05:50:31  5-MIN KMSN 211150Z 11007KT 3SM BR OVC007 19/18 A2968 1080 90 1900 110/07 RMK AO2 SLP047 T01940178 10194 20183 56015 $
14837KMSN MSN20110621055510106/21/11 05:55:31  5-MIN KMSN 211155Z 11005KT 3SM BR OVC007 19/18 A2968 1090 90 1900 110/05 RMK AO2 $
14837KMSN MSN20110621060010106/21/11 06:00:31  5-MIN KMSN 211200Z 10004KT 3SM BR OVC007 19/18 A2968 1090 93 1900 100/04 RMK AO2 $
14837KMSN MSN20110621060510106/21/11 06:05:31  5-MIN KMSN 211205Z 10004KT 3SM BR OVC007 19/18 A2967 1090 93 1900 100/04 RMK AO2 $
14837KMSN MSN20110621061010106/21/11 06:10:31  5-MIN KMSN 211210Z 08005KT 3SM BR OVC007 20/18 A2967 1100 90 2000 080/05 RMK AO2 $
14837KMSN MSN20110621061510106/21/11 06:15:31  5-MIN KMSN 211215Z 09005KT 3SM BR OVC007 20/18 A2967 1100 90 2000 090/05 RMK AO2 $
14837KMSN MSN20110621062010106/21/11 06:20:31  5-MIN KMSN 211220Z 08005KT 3SM BR OVC007 20/18 A2966 1110 90 2000 080/05 RMK AO2 $
14837KMSN MSN20110621062510106/21/11 06:25:31  5-MIN KMSN 211225Z 09004KT 3SM BR OVC007 20/18 A2966 1100 90 2000 090/04 RMK AO2 $
14837KMSN MSN20110621063010106/21/11 06:30:31  5-MIN KMSN 211230Z 11006KT 3SM BR OVC007 21/19 A2966 1110 90 2000 110/06 RMK AO2 $
14837KMSN MSN20110621063510106/21/11 06:35:31  5-MIN KMSN 211235Z 13006KT 3SM BR OVC007 21/19 A2967 1100 90 2000 130/06 RMK AO2 $
14837KMSN MSN20110621064010606/21/11 06:40:31  5-MIN KMSN 211240Z 13006KT 3SM BR BKN007 OVC060 21/19 A2967 1100 90 2000 130/06 RMK AO2
14837KMSN MSN20110621064510606/21/11 06:45:31  5-MIN KMSN 211245Z 11004KT 3SM BR BKN007 OVC060 21/19 A2966 1100 90 2000 110/04 RMK AO2
14837KMSN MSN20110621065012306/21/11 06:50:31  5-MIN KMSN 211250Z 10006KT 3SM BR BKN007 OVC060 21/19 A2966 1100 87 2100 110/06 RMK AO2 SLP040 T02110189
14837KMSN MSN20110621065510606/21/11 06:55:31  5-MIN KMSN 211255Z 11004KT 3SM BR BKN007 OVC060 21/19 A2966 1110 87 2100 110/04 RMK AO2
14837KMSN MSN20110621070011606/21/11 07:00:31  5-MIN KMSN 211300Z 12005KT 3SM BR BKN007 OVC060 21/19 A2966 1110 90 2100 120/05 RMK AO2 SFC VIS 3
14837KMSN MSN20110621070510906/21/11 07:05:31  5-MIN KMSN 211305Z 11004KT 3SM BR OVC007 22/19 A2966 1110 87 2200 120/04 RMK AO2 SFC VIS 4
14837KMSN MSN20110621071012106/21/11 07:10:31  5-MIN KMSN 211310Z 11005KT 3SM BR OVC007 22/19 A2965 1110 87 2200 110/05 RMK AO2 SFC VIS 4 CIG 007V012
14837KMSN MSN20110621071512106/21/11 07:15:31  5-MIN KMSN 211315Z 10006KT 3SM BR BKN007 22/20 A2964 1120 87 2300 100/06 RMK AO2 SFC VIS 4 CIG 007V012
14837KMSN MSN20110621072011806/21/11 07:20:31  5-MIN KMSN 211320Z 10007KT 4SM BR BKN007 22/20 A2964 1130 87 2300 100/07 RMK AO2 CIG 007V012 PRESFR
14837KMSN MSN20110621072511106/21/11 07:25:31  5-MIN KMSN 211325Z 11006KT 4SM HZ BKN007 23/20 A2964 1130 84 2300 110/06 RMK AO2 CIG 007V012
14837KMSN MSN20110621073011106/21/11 07:30:31  5-MIN KMSN 211330Z 12006KT 4SM HZ BKN009 23/20 A2964 1120 84 2300 120/06 RMK AO2 CIG 008V012
14837KMSN MSN20110621073511106/21/11 07:35:31  5-MIN KMSN 211335Z 11007KT 5SM BR BKN009 23/21 A2964 1120 87 2300 110/07 RMK AO2 CIG 008V012
14837KMSN MSN20110621074011106/21/11 07:40:31  5-MIN KMSN 211340Z 15009KT 5SM HZ BKN009 23/21 A2965 1120 84 2400 150/09 RMK AO2 CIG 008V012
14837KMSN MSN20110621074511106/21/11 07:45:31  5-MIN KMSN 211345Z 15008KT 5SM HZ BKN009 24/21 A2964 1120 84 2400 150/08 RMK AO2 CIG 008V012
14837KMSN MSN20110621075009906/21/11 07:50:31  5-MIN KMSN 211350Z 14009KT 6SM HZ BKN011 24/21 A2964 1120 81 2400 140/09 RMK AO2
14837KMSN MSN20110621075509906/21/11 07:55:31  5-MIN KMSN 211355Z 15006KT 6SM HZ BKN011 24/21 A2965 1120 84 2400 150/06 RMK AO2
14837KMSN MSN20110621080009906/21/11 08:00:31  5-MIN KMSN 211400Z 13006KT 6SM HZ BKN011 24/21 A2965 1120 84 2400 130/06 RMK AO2
14837KMSN MSN20110621080509906/21/11 08:05:31  5-MIN KMSN 211405Z 13008KT 6SM HZ BKN011 24/21 A2965 1120 81 2500 140/08 RMK AO2
14837KMSN MSN20110621081009906/21/11 08:10:31  5-MIN KMSN 211410Z 11008KT 6SM HZ OVC011 24/21 A2963 1130 81 2500 110/08 RMK AO2
14837KMSN MSN20110621081510606/21/11 08:15:31  5-MIN KMSN 211415Z 11008KT 6SM HZ OVC011 24/22 A2962 1140 84 2500 110/08 RMK AO2 PRESFR
14837KMSN MSN20110621082009906/21/11 08:20:31  5-MIN KMSN 211420Z 13007KT 6SM HZ OVC011 25/22 A2963 1140 81 2600 140/07 RMK AO2
14837KMSN MSN20110621082509606/21/11 08:25:31  5-MIN KMSN 211425Z 11008KT 7SM OVC013 25/22 A2962 1140 81 2600 120/08 RMK AO2
14837KMSN MSN20110621083009606/21/11 08:30:31  5-MIN KMSN 211430Z 14008KT 7SM OVC013 25/22 A2963 1130 81 2600 150/08 RMK AO2
14837KMSN MSN20110621083509606/21/11 08:35:31  5-MIN KMSN 211435Z 14010KT 7SM OVC013 26/22 A2964 1130 79 2600 140/10 RMK AO2
14837KMSN MSN20110621084009606/21/11 08:40:31  5-MIN KMSN 211440Z 13007KT 7SM OVC013 26/22 A2964 1130 81 2600 130/07 RMK AO2
14837KMSN MSN20110621084509606/21/11 08:45:31  5-MIN KMSN 211445Z 15009KT 7SM OVC013 26/22 A2964 1130 81 2600 150/09 RMK AO2
14837KMSN MSN20110621085011906/21/11 08:50:31  5-MIN KMSN 211450Z 16009KT 8SM OVC013 26/22 A2964 1130 81 2600 160/09 RMK AO2 SLP031 T02560222 53003
14837KMSN MSN20110621085510306/21/11 08:55:31  5-MIN KMSN 211455Z 15008KT 8SM BKN015 BKN100 26/22 A2964 1130 79 2700 150/08 RMK AO2
14837KMSN MSN20110621090009606/21/11 09:00:31  5-MIN KMSN 211500Z 13008KT 7SM BKN015 26/22 A2964 1130 79 2700 140/08 RMK AO2
14837KMSN MSN20110621090509606/21/11 09:05:31  5-MIN KMSN 211505Z 14008KT 7SM BKN015 26/22 A2964 1130 79 2700 140/08 RMK AO2
14837KMSN MSN20110621091009606/21/11 09:10:31  5-MIN KMSN 211510Z 13008KT 7SM BKN015 27/23 A2964 1120 79 2800 130/08 RMK AO2
14837KMSN MSN20110621091509606/21/11 09:15:31  5-MIN KMSN 211515Z 14010KT 7SM BKN015 27/22 A2964 1120 76 2800 150/10 RMK AO2
14837KMSN MSN20110621092009606/21/11 09:20:31  5-MIN KMSN 211520Z 13008KT 8SM BKN015 27/23 A2964 1120 79 2800 140/08 RMK AO2
14837KMSN MSN20110621092509606/21/11 09:25:31  5-MIN KMSN 211525Z 14007KT 7SM BKN015 27/23 A2964 1120 79 2800 140/07 RMK AO2
14837KMSN MSN20110621093009606/21/11 09:30:31  5-MIN KMSN 211530Z 16009KT 7SM BKN015 27/23 A2964 1120 76 2800 160/09 RMK AO2
14837KMSN MSN20110621093509606/21/11 09:35:31  5-MIN KMSN 211535Z 13010KT 8SM SCT017 27/23 A2964 1120 76 2800 140/10 RMK AO2
14837KMSN MSN20110621094009606/21/11 09:40:31  5-MIN KMSN 211540Z 14011KT 9SM SCT017 27/23 A2964 1120 76 2800 140/11 RMK AO2
14837KMSN MSN20110621094509606/21/11 09:45:31  5-MIN KMSN 211545Z 14009KT 9SM SCT017 28/23 A2964 1130 74 2900 140/09 RMK AO2
14837KMSN MSN20110621095011406/21/11 09:50:31  5-MIN KMSN 211550Z 14010KT 10SM FEW019 28/23 A2963 1130 71 3000 140/10 RMK AO2 SLP028 T02830228
14837KMSN MSN20110621095509706/21/11 09:55:31  5-MIN KMSN 211555Z 13011KT 10SM FEW019 28/23 A2964 1130 71 3000 130/11 RMK AO2
14837KMSN MSN20110621100010406/21/11 10:00:31  5-MIN KMSN 211600Z 15012KT 10SM FEW019 BKN110 28/23 A2963 1130 71 3000 150/12 RMK AO2
14837KMSN MSN20110621100510406/21/11 10:05:31  5-MIN KMSN 211605Z 13014KT 10SM FEW019 BKN110 28/23 A2963 1130 71 3000 140/14 RMK AO2
14837KMSN MSN20110621101010406/21/11 10:10:31  5-MIN KMSN 211610Z 13014KT 10SM FEW019 BKN110 28/22 A2963 1140 69 2900 130/14 RMK AO2
14837KMSN MSN20110621101510406/21/11 10:15:31  5-MIN KMSN 211615Z 15011KT 10SM FEW019 BKN110 28/22 A2963 1140 71 2900 150/11 RMK AO2
14837KMSN MSN20110621102010406/21/11 10:20:31  5-MIN KMSN 211620Z 16011KT 10SM FEW020 BKN110 28/22 A2963 1130 69 3000 160/11 RMK AO2
14837KMSN MSN20110621102510406/21/11 10:25:31  5-MIN KMSN 211625Z 14009KT 10SM FEW020 BKN110 28/22 A2963 1130 69 3000 140/09 RMK AO2
14837KMSN MSN20110621103011006/21/11 10:30:31  5-MIN KMSN 211630Z 13011G17KT 10SM FEW020 BKN110 29/23 A2963 1130 69 3000 130/11G17 RMK AO2
14837KMSN MSN20110621103511006/21/11 10:35:31  5-MIN KMSN 211635Z 14013G17KT 10SM FEW020 BKN110 28/22 A2963 1130 66 3000 140/13G17 RMK AO2
14837KMSN MSN20110621104010406/21/11 10:40:31  5-MIN KMSN 211640Z 15012KT 10SM SCT080 BKN110 28/22 A2963 1130 66 3000 150/12 RMK AO2
14837KMSN MSN20110621104510406/21/11 10:45:31  5-MIN KMSN 211645Z 14013KT 10SM SCT080 BKN110 28/22 A2963 1140 66 3000 150/13 RMK AO2
14837KMSN MSN20110621105012106/21/11 10:50:31  5-MIN KMSN 211650Z 15013KT 10SM SCT080 BKN110 28/21 A2963 1130 64 3000 150/13 RMK AO2 SLP028 T02830211
14837KMSN MSN20110621105511106/21/11 10:55:31  5-MIN KMSN 211655Z 15013KT 10SM FEW028 SCT045 BKN110 28/21 A2963 1130 66 2900 150/13 RMK AO2
14837KMSN MSN20110621110011106/21/11 11:00:31  5-MIN KMSN 211700Z 14012KT 10SM FEW028 SCT045 BKN110 28/21 A2963 1140 66 2900 140/12 RMK AO2
14837KMSN MSN20110621110510406/21/11 11:05:31  5-MIN KMSN 211705Z 14010KT 10SM FEW060 BKN120 28/21 A2963 1130 66 2900 140/10 RMK AO2
14837KMSN MSN20110621111010406/21/11 11:10:31  5-MIN KMSN 211710Z 15010KT 10SM FEW060 BKN120 28/22 A2963 1140 66 3000 150/10 RMK AO2
14837KMSN MSN20110621111510406/21/11 11:15:31  5-MIN KMSN 211715Z 14009KT 10SM FEW060 BKN120 29/22 A2963 1140 64 3000 150/09 RMK AO2
14837KMSN MSN20110621112010406/21/11 11:20:31  5-MIN KMSN 211720Z 16011KT 10SM FEW055 BKN120 29/22 A2963 1140 64 3000 160/11 RMK AO2
14837KMSN MSN20110621112510406/21/11 11:25:31  5-MIN KMSN 211725Z 14013KT 10SM FEW055 BKN120 29/22 A2962 1140 62 3100 140/13 RMK AO2
14837KMSN MSN20110621113010406/21/11 11:30:31  5-MIN KMSN 211730Z 16012KT 10SM FEW055 BKN120 29/22 A2962 1140 62 3100 160/12 RMK AO2
14837KMSN MSN20110621113511006/21/11 11:35:31  5-MIN KMSN 211735Z 15011G19KT 10SM FEW055 BKN120 29/22 A2962 1140 62 3100 150/11G19 RMK AO2
14837KMSN MSN20110621114011006/21/11 11:40:31  5-MIN KMSN 211740Z 15011G19KT 10SM FEW055 BKN120 30/22 A2962 1140 60 3100 150/11G19 RMK AO2
14837KMSN MSN20110621114510406/21/11 11:45:31  5-MIN KMSN 211745Z 14012KT 10SM FEW055 BKN120 30/22 A2962 1140 60 3100 140/12 RMK AO2
14837KMSN MSN20110621115013906/21/11 11:50:31  5-MIN KMSN 211750Z 16011KT 10SM FEW055 BKN120 29/21 A2962 1140 60 3100 160/11 RMK AO2 SLP024 T02940211 10300 20194 56008
14837KMSN MSN20110621115511006/21/11 11:55:31  5-MIN KMSN 211755Z 14013G20KT 10SM SCT080 BKN120 30/21 A2962 1140 58 3200 140/13G20 RMK AO2
14837KMSN MSN20110621120011006/21/11 12:00:31  5-MIN KMSN 211800Z 16014G20KT 10SM SCT080 BKN120 30/21 A2962 1150 56 3200 170/14G20 RMK AO2
14837KMSN MSN20110621120510406/21/11 12:05:31  5-MIN KMSN 211805Z 15013KT 10SM SCT080 BKN120 31/21 A2961 1150 54 3200 160/13 RMK AO2
14837KMSN MSN20110621121011006/21/11 12:10:31  5-MIN KMSN 211810Z 15017G22KT 10SM SCT080 BKN120 31/21 A2961 1150 54 3200 160/17G22 RMK AO2
14837KMSN MSN20110621121511006/21/11 12:15:31  5-MIN KMSN 211815Z 16016G22KT 10SM SCT080 BKN120 31/20 A2961 1150 52 3200 160/16G22 RMK AO2
14837KMSN MSN20110621122011006/21/11 12:20:31  5-MIN KMSN 211820Z 17014G21KT 10SM SCT080 BKN120 29/19 A2961 1150 54 3100 170/14G21 RMK AO2
14837KMSN MSN20110621122515906/21/11 12:25:31  5-MIN KMSN 211825Z 16019G23KT 10SM TS FEW040 SCT080 BKN120 29/19 A2961 1150 54 3100 160/19G23 RMK AO2 TSB24 FRQ LTGCGCC VC SW TS VC SW MOV N
14837KMSN MSN20110621123015906/21/11 12:30:31  5-MIN KMSN 211830Z 17018G23KT 10SM TS FEW040 SCT080 BKN120 29/19 A2962 1140 56 3000 170/18G23 RMK AO2 TSB24 FRQ LTGCGCC VC SW TS VC SW MOV N
14837KMSN MSN20110621123516506/21/11 12:35:31  5-MIN KMSN 211835Z 17020G24KT 7SM -TSRA FEW028 BKN080 28/21 A2962 1140 64 3000 170/20G24 RMK AO2 TSB24RAB32 FRQ LTGCGCC VC SW TS VC SW MOV N P0000
14837KMSN MSN20110621124016306/21/11 12:40:31  5-MIN KMSN 211840Z 17014G25KT 7SM -TSRA FEW028 BKN080 28/21 A2962 1140 64 3000 170/14G25 RMK AO2 TSB24RAB32 FRQ LTGCGCC VC W TS VC W MOV N P0000
14837KMSN MSN20110621124516506/21/11 12:45:31  5-MIN KMSN 211845Z 18014G25KT 10SM TS FEW028 BKN080 28/21 A2962 1140 62 3000 180/14G25 RMK AO2 TSB24RAB32E42 OCNL LTGCGCC VC W TS VC W MOV N P0000
14837KMSN MSN20110621125019106/21/11 12:50:31  5-MIN KMSN 211850Z 19014G20KT 10SM TS FEW037 BKN055 BKN065 28/20 A2962 1140 60 3000 190/14G20 RMK AO2 TSB24RAB32E42 SLP026 OCNL LTGCCIC VC NW TS VC NW MOV N P0000 T02830200
14837KMSN MSN20110621125514706/21/11 12:55:31  5-MIN KMSN 211855Z 18011G18KT 10SM TS FEW033 BKN055 28/19 A2962 1140 58 3000 190/11G18 RMK AO2 OCNL LTGICCC VC NW TS VC NW MOV N
14837KMSN MSN20110621130014706/21/11 13:00:31  5-MIN KMSN 211900Z 18014G20KT 10SM TS FEW037 BKN055 28/19 A2962 1150 56 3000 180/14G20 RMK AO2 OCNL LTGICCC VC NW TS VC NW MOV N
14837KMSN MSN20110621130511606/21/11 13:05:31  5-MIN KMSN 211905Z 16020G25KT 10SM FEW033 BKN055 28/19 A2962 1150 56 3000 160/20G25 RMK AO2 TSE05
14837KMSN MSN20110621131011606/21/11 13:10:31  5-MIN KMSN 211910Z 18015G25KT 10SM FEW029 BKN055 28/19 A2962 1150 56 3000 180/15G25 RMK AO2 TSE05
14837KMSN MSN20110621131510306/21/11 13:15:31  5-MIN KMSN 211915Z 18010KT 10SM OVC055 28/18 A2961 1150 54 3000 180/10 RMK AO2 TSE05
14837KMSN MSN20110621132010306/21/11 13:20:31  5-MIN KMSN 211920Z 18009KT 10SM OVC055 28/19 A2961 1150 56 3000 180/09 RMK AO2 TSE05
14837KMSN MSN20110621132511006/21/11 13:25:31  5-MIN KMSN 211925Z 18009KT 10SM FEW040 OVC055 28/19 A2961 1150 58 2900 190/09 RMK AO2 TSE05
14837KMSN MSN20110621133010306/21/11 13:30:31  5-MIN KMSN 211930Z 19008KT 10SM OVC055 28/19 A2961 1160 58 2900 190/08 RMK AO2 TSE05
14837KMSN MSN20110621133510306/21/11 13:35:31  5-MIN KMSN 211935Z 17008KT 10SM OVC050 28/19 A2960 1160 60 2900 170/08 RMK AO2 TSE05
14837KMSN MSN20110621134010306/21/11 13:40:31  5-MIN KMSN 211940Z 17008KT 10SM OVC050 27/19 A2960 1160 62 2900 170/08 RMK AO2 TSE05
14837KMSN MSN20110621134515506/21/11 13:45:31  5-MIN KMSN 211945Z 18009KT 10SM -TSRA OVC050 28/19 A2960 1160 60 2900 180/09 RMK AO2 TSE05B43RAB42 OCNL LTGICCC VC S TS VC S MOV N P0000
14837KMSN MSN20110621135017806/21/11 13:50:31  5-MIN KMSN 211950Z 17017G24KT 10SM -TSRA OVC050 28/19 A2961 1160 60 2900 170/17G24 RMK AO2 TSE05B43RAB42 SLP020 OCNL LTGICCC VC S TS VC S MOV N P0000 T02780194
14837KMSN MSN20110621135514506/21/11 13:55:31  5-MIN KMSN 211955Z 17018G24KT 10SM -TSRA OVC050 28/19 A2960 1160 58 2900 170/18G24 RMK AO2 OCNL LTGICCC OHD TS OHD MOV N P0000
14837KMSN MSN20110621140015206/21/11 14:00:31  5-MIN KMSN 212000Z 16018G23KT 10SM -TSRA FEW039 OVC050 28/19 A2960 1170 58 2900 160/18G23 RMK AO2 OCNL LTGICCC OHD TS OHD MOV N P0000
14837KMSN MSN20110621140515906/21/11 14:05:31  5-MIN KMSN 212005Z 16019G24KT 10SM TS FEW036 BKN050 28/19 A2959 1170 58 3000 160/19G24 RMK AO2 RAE02 OCNL LTGICCC VC NE TS VC NE MOV N P0000
14837KMSN MSN20110621141013806/21/11 14:10:31  5-MIN KMSN 212010Z 17020G27KT 10SM SCT050 29/19 A2959 1170 56 3100 170/20G27 RMK AO2 PK WND 16027/2009 TSE10RAE02 P0000
14837KMSN MSN20110621141514506/21/11 14:15:31  5-MIN KMSN 212015Z 17017G27KT 10SM FEW050 SCT120 29/19 A2959 1180 56 3100 180/17G27 RMK AO2 PK WND 16027/2009 TSE10RAE02 P0000
14837KMSN MSN20110621142014506/21/11 14:20:31  5-MIN KMSN 212020Z 16020G26KT 10SM FEW050 SCT120 29/19 A2959 1180 56 3100 160/20G26 RMK AO2 PK WND 16027/2009 TSE10RAE02 P0000
14837KMSN MSN20110621142514506/21/11 14:25:31  5-MIN KMSN 212025Z 18018G26KT 10SM FEW050 SCT120 29/19 A2959 1180 56 3100 180/18G26 RMK AO2 PK WND 16027/2009 TSE10RAE02 P0000
14837KMSN MSN20110621143013806/21/11 14:30:31  5-MIN KMSN 212030Z 15020G27KT 10SM SCT100 29/20 A2959 1170 56 3100 160/20G27 RMK AO2 PK WND 15027/2029 TSE10RAE02 P0000
14837KMSN MSN20110621143513806/21/11 14:35:31  5-MIN KMSN 212035Z 17023G28KT 10SM SCT100 29/19 A2959 1170 56 3100 170/23G28 RMK AO2 PK WND 17028/2035 TSE10RAE02 P0000
14837KMSN MSN20110621144013806/21/11 14:40:31  5-MIN KMSN 212040Z 16022G29KT 10SM SCT065 28/19 A2959 1180 56 3000 170/22G29 RMK AO2 PK WND 17029/2039 TSE10RAE02 P0000
14837KMSN MSN20110621144514506/21/11 14:45:31  5-MIN KMSN 212045Z 17024G30KT 10SM FEW048 BKN060 28/18 A2958 1180 56 3000 170/24G30 RMK AO2 PK WND 16030/2043 TSE10RAE02 P0000
14837KMSN MSN20110621145017406/21/11 14:50:31  5-MIN KMSN 212050Z 17022G30KT 10SM SCT055 BKN065 28/18 A2958 1180 56 3000 170/22G30 RMK AO2 PK WND 16030/2043 TSE10RAE02 SLP011 P0000 60000 T02780183 58005
14837KMSN MSN20110621145511006/21/11 14:55:31  5-MIN KMSN 212055Z 17017G28KT 10SM FEW047 BKN060 28/18 A2958 1180 56 3000 170/17G28 RMK AO2
14837KMSN MSN20110621150011006/21/11 15:00:31  5-MIN KMSN 212100Z 17018G24KT 10SM SCT047 BKN060 28/18 A2959 1180 54 2900 180/18G24 RMK AO2
14837KMSN MSN20110621150510406/21/11 15:05:31  5-MIN KMSN 212105Z 17016KT 10SM BKN047 OVC060 28/18 A2959 1170 54 2900 170/16 RMK AO2
14837KMSN MSN20110621151011006/21/11 15:10:31  5-MIN KMSN 212110Z 16014G24KT 10SM BKN045 OVC055 27/18 A2959 1170 56 2900 170/14G24 RMK AO2
14837KMSN MSN20110621151511006/21/11 15:15:31  5-MIN KMSN 212115Z 16017G24KT 10SM BKN045 OVC055 27/18 A2959 1170 58 2900 160/17G24 RMK AO2
14837KMSN MSN20110621152010306/21/11 15:20:31  5-MIN KMSN 212120Z 17014G22KT 10SM OVC043 27/18 A2959 1170 56 2900 170/14G22 RMK AO2
14837KMSN MSN20110621152509706/21/11 15:25:31  5-MIN KMSN 212125Z 16015KT 10SM OVC045 27/18 A2960 1170 58 2900 160/15 RMK AO2
14837KMSN MSN20110621153010306/21/11 15:30:31  5-MIN KMSN 212130Z 17012G19KT 10SM OVC045 27/18 A2959 1170 58 2900 170/12G19 RMK AO2
14837KMSN MSN20110621153510306/21/11 15:35:31  5-MIN KMSN 212135Z 16013G19KT 10SM OVC043 27/18 A2959 1170 58 2900 160/13G19 RMK AO2
14837KMSN MSN20110621154009706/21/11 15:40:31  5-MIN KMSN 212140Z 16014KT 10SM OVC043 27/18 A2959 1170 58 2900 160/14 RMK AO2
14837KMSN MSN20110621154509706/21/11 15:45:31  5-MIN KMSN 212145Z 16012KT 10SM BKN045 28/19 A2959 1170 58 2900 160/12 RMK AO2
14837KMSN MSN20110621155011406/21/11 15:50:31  5-MIN KMSN 212150Z 16013KT 10SM FEW045 28/19 A2959 1170 58 2900 160/13 RMK AO2 SLP015 T02780189
14837KMSN MSN20110621155510306/21/11 15:55:31  5-MIN KMSN 212155Z 15013G19KT 10SM FEW045 28/19 A2959 1170 60 2900 150/13G19 RMK AO2
14837KMSN MSN20110621160009706/21/11 16:00:31  5-MIN KMSN 212200Z 15012KT 10SM FEW045 28/19 A2959 1170 60 2900 160/12 RMK AO2
14837KMSN MSN20110621160509706/21/11 16:05:31  5-MIN KMSN 212205Z 17013KT 10SM FEW045 28/19 A2959 1170 60 2900 170/13 RMK AO2
14837KMSN MSN20110621161009706/21/11 16:10:31  5-MIN KMSN 212210Z 17011KT 10SM FEW045 28/19 A2958 1180 60 2900 170/11 RMK AO2
14837KMSN MSN20110621161509706/21/11 16:15:31  5-MIN KMSN 212215Z 16012KT 10SM FEW045 28/19 A2958 1180 60 3000 160/12 RMK AO2
14837KMSN MSN20110621162010306/21/11 16:20:31  5-MIN KMSN 212220Z 17013G21KT 10SM FEW045 28/19 A2957 1190 60 3000 170/13G21 RMK AO2
14837KMSN MSN20110621162511006/21/11 16:25:31  5-MIN KMSN 212225Z 15012G21KT 10SM FEW045 28/20 A2957 1190 62 3000 150/12G21 RMK AO2 PRESFR
14837KMSN MSN20110621163009706/21/11 16:30:31  5-MIN KMSN 212230Z 15013KT 10SM FEW045 28/20 A2956 1200 62 3000 150/13 RMK AO2
14837KMSN MSN20110621163509706/21/11 16:35:31  5-MIN KMSN 212235Z 15012KT 10SM FEW045 28/20 A2956 1200 62 3000 150/12 RMK AO2
14837KMSN MSN20110621164010306/21/11 16:40:31  5-MIN KMSN 212240Z 15013G20KT 10SM FEW045 28/20 A2955 1210 62 3000 150/13G20 RMK AO2
14837KMSN MSN20110621164510306/21/11 16:45:31  5-MIN KMSN 212245Z 15012G20KT 10SM FEW042 28/20 A2955 1210 62 3000 150/12G20 RMK AO2
14837KMSN MSN20110621165011406/21/11 16:50:31  5-MIN KMSN 212250Z 15013KT 10SM FEW042 28/21 A2955 1210 62 3100 150/13 RMK AO2 SLP999 T02830206
14837KMSN MSN20110621165510706/21/11 16:55:31  5-MIN KMSN 212255Z 15011KT 10SM -RA FEW042 28/20 A2954 1220 62 3000 150/11 RMK AO2 P0000
14837KMSN MSN20110621170012106/21/11 17:00:31  5-MIN KMSN 212300Z 16012KT 10SM -RA FEW049 SCT065 BKN085 28/21 A2954 1220 64 3000 160/12 RMK AO2 P0000
14837KMSN MSN20110621170512106/21/11 17:05:31  5-MIN KMSN 212305Z 15010KT 10SM -RA FEW049 SCT065 BKN090 28/21 A2954 1220 64 3000 160/10 RMK AO2 P0000
14837KMSN MSN20110621171012306/21/11 17:10:31  5-MIN KMSN 212310Z 16012KT 10SM FEW049 SCT070 BKN090 28/21 A2953 1220 64 3000 160/12 RMK AO2 RAE06 P0000
14837KMSN MSN20110621171512306/21/11 17:15:31  5-MIN KMSN 212315Z 14010KT 10SM FEW049 SCT065 SCT085 27/21 A2953 1230 66 3000 140/10 RMK AO2 RAE06 P0000
14837KMSN MSN20110621172012906/21/11 17:20:31  5-MIN KMSN 212320Z 16013G17KT 10SM FEW049 SCT070 SCT090 27/21 A2953 1230 66 2900 160/13G17 RMK AO2 RAE06 P0000
14837KMSN MSN20110621172510906/21/11 17:25:31  5-MIN KMSN 212325Z 16011KT 10SM FEW050 27/20 A2953 1230 66 2900 160/11 RMK AO2 RAE06 P0000
14837KMSN MSN20110621173010906/21/11 17:30:31  5-MIN KMSN 212330Z 15009KT 10SM FEW050 27/20 A2953 1230 66 2900 150/09 RMK AO2 RAE06 P0000
14837KMSN MSN20110621173510606/21/11 17:35:31  5-MIN KMSN 212335Z 14007KT 10SM CLR 27/21 A2953 1220 69 2900 140/07 RMK AO2 RAE06 P0000
14837KMSN MSN20110621174010906/21/11 17:40:31  5-MIN KMSN 212340Z 13007KT 10SM SCT050 27/21 A2954 1220 69 2900 130/07 RMK AO2 RAE06 P0000
14837KMSN MSN20110621174511606/21/11 17:45:31  5-MIN KMSN 212345Z 13007KT 10SM FEW038 SCT065 26/21 A2953 1220 71 2800 130/07 RMK AO2 RAE06 P0000
14837KMSN MSN20110621175020206/21/11 17:50:31  5-MIN KMSN 212350Z 11007KT 10SM TS FEW038 SCT050 SCT120 26/21 A2953 1220 71 2800 120/07 RMK AO2 TSB49RAE06 SLP995 OCNL LTGIC VC W TS VC W MOV N P0000 60000 T02610206 10306 20261 58013
14837KMSN MSN20110621175514606/21/11 17:55:31  5-MIN KMSN 212355Z 11008KT 10SM TS FEW038 SCT050 SCT070 26/21 A2953 1220 71 2800 110/08 RMK AO2 OCNL LTGIC VC NW TS VC NW MOV N
14837KMSN MSN20110621180013906/21/11 18:00:31  5-MIN KMSN 220000Z 13010KT 10SM TS FEW038 SCT070 26/21 A2954 1220 71 2800 130/10 RMK AO2 OCNL LTGIC VC NW TS VC NW MOV N
14837KMSN MSN20110621180513906/21/11 18:05:31  5-MIN KMSN 220005Z 13009KT 10SM TS SCT042 SCT055 26/21 A2954 1220 71 2800 140/09 RMK AO2 OCNL LTGIC VC NW TS VC NW MOV N
14837KMSN MSN20110621181013906/21/11 18:10:31  5-MIN KMSN 220010Z 12008KT 10SM TS SCT042 BKN060 26/21 A2954 1220 73 2800 120/08 RMK AO2 OCNL LTGIC VC NW TS VC NW MOV N
14837KMSN MSN20110621181511706/21/11 18:15:31  5-MIN KMSN 220015Z 11006KT 10SM SCT044 BKN055 BKN070 26/21 A2954 1220 73 2800 120/06 RMK AO2 TSE15
14837KMSN MSN20110621182011706/21/11 18:20:31  5-MIN KMSN 220020Z 12006KT 10SM SCT044 BKN060 BKN070 26/22 A2954 1220 79 2800 120/06 RMK AO2 TSE15
14837KMSN MSN20110621182511006/21/11 18:25:31  5-MIN KMSN 220025Z 11008KT 10SM BKN044 BKN060 26/22 A2954 1220 76 2800 120/08 RMK AO2 TSE15
14837KMSN MSN20110621183015806/21/11 18:30:31  5-MIN KMSN 220030Z 10009G17KT 10SM TS SCT040 BKN047 BKN055 26/21 A2953 1220 73 2800 100/09G17 RMK AO2 TSE15B26 FRQ LTGICCA OHD TS OHD MOV N
14837KMSN MSN20110621183515806/21/11 18:35:31  5-MIN KMSN 220035Z 11011G19KT 10SM TS FEW040 SCT047 BKN055 25/21 A2954 1220 76 2700 110/11G19 RMK AO2 TSE15B26 FRQ LTGICCA OHD TS OHD MOV N
14837KMSN MSN20110621184015906/21/11 18:40:31  5-MIN KMSN 220040Z 14008G19KT 10SM TS SCT040 SCT049 BKN055 25/20 A2954 1220 73 2700 150/08G19 RMK AO2 TSE15B26 OCNL LTGICCA OHD TS OHD MOV N
14837KMSN MSN20110621184515306/21/11 18:45:31  5-MIN KMSN 220045Z 13009KT 10SM TS FEW038 SCT045 BKN055 25/19 A2954 1220 71 2700 140/09 RMK AO2 TSE15B26 OCNL LTGICCA OHD TS OHD MOV N
14837KMSN MSN20110621185018806/21/11 18:50:31  5-MIN KMSN 220050Z 16014G17KT 4SM +TSRA FEW030 BKN041 BKN050 24/19 A2955 1210 73 2600 160/14G17 RMK AO2 TSE15B26RAB49 SLP000 FRQ LTGICCA OHD TS OHD MOV N P0000 T02440194
14837KMSN MSN20110621185517606/21/11 18:55:31  5-MIN KMSN 220055Z 16028G34KT 2SM +TSRA SCT028 BKN041 BKN050 24/21 A2954 1210 81 2600 160/28G34 RMK AO2 PK WND 16034/0055 CONS LTGICCA OHD TS OHD MOV N P0001
14837KMSN MSN20110621190021506/21/11 19:00:31  5-MIN KMSN 220100Z 21020G34KT 190V250 1/2SM +TSRA SCT006 BKN030 BKN042 23/20 A2957 1190 84 2400 220/20G34 190V250 RMK AO2 PK WND 16034/0055 TWR VIS 3/4 PRESRR CONS LTGCGICCA OHD TS OHD MOV N P0017
14837KMSN MSN20110621190522906/21/11 19:05:31  5-MIN KMSN 220105Z 24012G33KT 190V310 1/4SM +TSRA BR BKN004 BKN030 OVC050 22/20 A2959 1170 87 2300 240/12G33 190V310 RMK AO2 PK WND 16034/0055 WSHFT 0049 SFC VIS 3/4 PRESRR CONS LTGCGICCA OHD TS OHD MOV N P0044
14837KMSN MSN20110621191022306/21/11 19:10:31  5-MIN KMSN 220110Z 05007G24KT 020V100 2SM TSRA BR BKN006 BKN028 OVC041 22/19 A2955 1210 87 2300 050/07G24 020V100 RMK AO2 PK WND 16034/0055 WSHFT 0049 GRB06E08 CONS LTGCGICCA OHD TS OHD MOV N GR 1/4 P0095
14837KMSN MSN20110621191522506/21/11 19:15:31  5-MIN KMSN 220115Z 13007KT 080V170 2SM -TSRA BKN010 BKN028 OVC041 22/19 A2954 1220 81 2400 130/07 080V170 RMK AO2 PK WND 16034/0055 WSHFT 0049 SFC VIS 3 GRB06E08 CONS LTGCGICCA OHD TS OHD MOV N GR 1/4 P0099
14837KMSN MSN20110621192022006/21/11 19:20:31  5-MIN KMSN 220120Z 23008G16KT 190V310 2SM TSRA BKN012 BKN037 OVC050 23/19 A2954 1220 78 2400 240/08G16 190V310 RMK AO2 PK WND 16034/0055 WSHFT 0049 GRB06E08 CONS LTGCGICCA OHD TS OHD MOV N GR 1/4 P0103
14837KMSN MSN20110621192522806/21/11 19:25:31  5-MIN KMSN 220125Z 27008G18KT 220V330 2SM -TSRA BKN017 BKN038 23/19 A2953 1230 78 2500 270/08G18 220V330 RMK AO2 PK WND 16034/0055 WSHFT 0049 SFC VIS 2 1/2 GRB06E08 CONS LTGCGICCA OHD TS OHD MOV N GR 1/4 P0106
14837KMSN MSN20110621193021006/21/11 19:30:31  5-MIN KMSN 220130Z 30009G18KT 3SM +TSRA BKN017 BKN038 22/18 A2953 1230 81 2300 300/09G18 RMK AO2 PK WND 16034/0055 WSHFT 0049 TWR VIS 4 GRB06E08 CONS LTGCGICCA OHD TS OHD MOV N GR 1/4 P0107 $
14837KMSN MSN20110621193521206/21/11 19:35:31  5-MIN KMSN 220135Z VRB05G16KT 3SM +TSRA BR BKN017 BKN038 22/19 A2952 1230 87 2300 VRB/05G16 RMK AO2 PK WND 16034/0055 WSHFT 0049 TWR VIS 4 GRB06E08 FRQ LTGCGICCA OHD TS OHD MOV N GR 1/4 P0117 $
14837KMSN MSN20110621194021606/21/11 19:40:31  5-MIN KMSN 220140Z 15011G16KT 3SM TSRA SCT019 BKN028 OVC042 23/20 A2953 1220 84 2400 150/11G16 RMK AO2 PK WND 16034/0055 WSHFT 0049 TWR VIS 4 GRB06E08 OCNL LTGCGICCA OHD TS OHD MOV N GR 1/4 P0123 $
14837KMSN MSN20110621194522006/21/11 19:45:31  5-MIN KMSN 220145Z 17009G16KT 3SM -TSRA BR SCT023 BKN038 BKN048 23/21 A2953 1220 87 2400 180/09G16 RMK AO2 PK WND 16034/0055 WSHFT 0049 TWR VIS 4 GRB06E08 OCNL LTGCGICCA OHD TS OHD MOV N GR 1/4 P0132 $
14837KMSN MSN20110621195023006/21/11 19:50:31  5-MIN KMSN 220150Z 17006KT 3SM -TSRA BR FEW026 SCT033 OVC046 23/21 A2954 1220 90 2400 170/06 RMK AO2 PK WND 16034/0055 WSHFT 0049 TWR VIS 4 GRB06E08 SLP995 FRQ LTGCGICCA OHD TS OHD MOV N GR 1/4 P0132 T02280211 $
14837KMSN MSN20110621195515206/21/11 19:55:31  5-MIN KMSN 220155Z 14007KT 4SM -TSRA BR FEW006 BKN044 22/21 A2955 1210 90 2400 140/07 RMK AO2 CONS LTGCGICCA OHD TS OHD MOV N P0000 $
14837KMSN MSN20110621200015906/21/11 20:00:31  5-MIN KMSN 220200Z 14006KT 4SM -TSRA BR FEW006 BKN044 22/21 A2956 1200 90 2400 140/06 RMK AO2 PRESRR CONS LTGCGICCA OHD TS OHD MOV N P0000 $
14837KMSN MSN20110621200516906/21/11 20:05:31  5-MIN KMSN 220205Z 12005KT 4SM TS BR FEW027 SCT043 BKN049 22/21 A2956 1200 90 2300 130/05 RMK AO2 RAE03 PRESRR CONS LTGCGICCA OHD TS OHD MOV N P0000 $
14837KMSN MSN20110621201015506/21/11 20:10:31  5-MIN KMSN 220210Z 11005KT 4SM TS BR SCT049 BKN090 22/21 A2956 1200 90 2300 120/05 RMK AO2 RAE03 CONS LTGCGICCA OHD TS OHD MOV N P0000 $
14837KMSN MSN20110621201515706/21/11 20:15:31  5-MIN KMSN 220215Z 09003KT 4SM TS BR SCT047 BKN090 22/21 A2956 1200 90 2400 090/03 RMK AO2 RAE03 CONS LTGCGICCA VC E TS VC E MOV N P0000 $
14837KMSN MSN20110621202015706/21/11 20:20:31  5-MIN KMSN 220220Z 07003KT 4SM TS BR FEW049 BKN090 22/21 A2956 1200 90 2400 070/03 RMK AO2 RAE03 CONS LTGCGICCA VC E TS VC E MOV N P0000 $
14837KMSN MSN20110621202515706/21/11 20:25:31  5-MIN KMSN 220225Z 07003KT 4SM TS BR FEW049 BKN090 22/21 A2955 1200 93 2300 070/03 RMK AO2 RAE03 CONS LTGCGICCA VC E TS VC E MOV N P0000 $
14837KMSN MSN20110621203015006/21/11 20:30:31  5-MIN KMSN 220230Z 09003KT 4SM TS BR BKN090 22/21 A2955 1210 93 2300 090/03 RMK AO2 RAE03 CONS LTGCGICCA VC E TS VC E MOV N P0000 $
14837KMSN MSN20110621203514206/21/11 20:35:31  5-MIN KMSN 220235Z 12004KT 4SM BR FEW036 BKN090 22/21 A2955 1210 93 2300 120/04 RMK AO2 TSE32RAE03 FRQ LTG DSNT N-E P0000 $
14837KMSN MSN20110621204014206/21/11 20:40:31  5-MIN KMSN 220240Z 15005KT 4SM BR FEW036 BKN090 23/21 A2955 1210 87 2400 160/05 RMK AO2 TSE32RAE03 FRQ LTG DSNT N-E P0000 $
14837KMSN MSN20110621204510106/21/11 20:45:31  5-MIN KMSN 220245Z 16005KT 4SM HZ FEW040 BKN090 A2955 M M M 170/05 RMK AO2 P0000 $
14837KMSN MSN20110621205014706/21/11 20:50:31  5-MIN KMSN 220250Z 16004KT 4SM BR FEW040 BKN090 22/21 A2994 850 90 1900 160/04 RMK AO2 SLP133 TSE32RAE03 P0000 60136 T02200206 $
14837KMSN MSN20110621205510506/21/11 20:55:31  5-MIN KMSN 220255Z 18006KT 10SM FEW040 BKN090 23/21 A2994 850 87 2000 180/06 RMK AO2 $
14837KMSN MSN20110621210010506/21/11 21:00:31  5-MIN KMSN 220300Z 19007KT 10SM FEW040 BKN090 23/20 A2994 850 81 2000 190/07 RMK AO2 $
14837KMSN MSN20110621210510606/21/11 21:05:31  5-MIN KMSN 220305Z 18007KT 10SM FEW040 BKN090 23/20 A2954 1220 81 2500 190/07 RMK AO2 $
14837KMSN MSN20110621211011606/21/11 21:10:31  5-MIN KMSN 220310Z 18007KT 10SM BKN090 23/19 A2955 1210 81 2400 180/07 RMK AO2 OCNL LTG DSNT NE $
14837KMSN MSN20110621211513006/21/11 21:15:31  5-MIN KMSN 220315Z 19007KT 10SM SCT043 BKN050 BKN090 23/19 A2955 1210 81 2400 190/07 RMK AO2 OCNL LTG DSNT NE $
14837KMSN MSN20110621212013006/21/11 21:20:31  5-MIN KMSN 220320Z 19008KT 10SM SCT043 BKN050 BKN090 23/19 A2955 1210 81 2400 190/08 RMK AO2 OCNL LTG DSNT NE $
14837KMSN MSN20110621212513206/21/11 21:25:31  5-MIN KMSN 220325Z 19008KT 10SM SCT043 BKN050 BKN090 23/19 A2955 1210 81 2400 190/08 RMK AO2 OCNL LTG DSNT N-NE $
14837KMSN MSN20110621213013206/21/11 21:30:31  5-MIN KMSN 220330Z 19010KT 10SM SCT043 BKN055 OVC070 23/19 A2955 1210 81 2400 190/10 RMK AO2 OCNL LTG DSNT N-NE $
14837KMSN MSN20110621213513206/21/11 21:35:31  5-MIN KMSN 220335Z 19010KT 10SM SCT043 BKN060 OVC095 23/19 A2955 1210 81 2400 190/10 RMK AO2 OCNL LTG DSNT N-NE $
14837KMSN MSN20110621214013206/21/11 21:40:31  5-MIN KMSN 220340Z 19010KT 10SM SCT045 BKN060 OVC110 23/19 A2955 1210 81 2400 190/10 RMK AO2 OCNL LTG DSNT N-NE $
14837KMSN MSN20110621214513206/21/11 21:45:31  5-MIN KMSN 220345Z 19010KT 10SM BKN048 BKN070 OVC110 23/19 A2955 1210 81 2400 190/10 RMK AO2 OCNL LTG DSNT N-NE $
14837KMSN MSN20110621215014906/21/11 21:50:31  5-MIN KMSN 220350Z 19010KT 10SM SCT048 BKN070 BKN095 23/19 A2955 1210 81 2400 190/10 RMK AO2 SLP999 OCNL LTG DSNT N-NE T02280194 $
14837KMSN MSN20110621215511306/21/11 21:55:31  5-MIN KMSN 220355Z 19009KT 10SM SCT046 BKN070 BKN090 23/19 A2955 1210 81 2400 190/09 RMK AO2 $
14837KMSN MSN20110621220013206/21/11 22:00:31  5-MIN KMSN 220400Z 19009KT 10SM SCT046 BKN070 BKN090 23/19 A2955 1210 81 2400 190/09 RMK AO2 OCNL LTG DSNT N-NE $
14837KMSN MSN20110621220513206/21/11 22:05:31  5-MIN KMSN 220405Z 19010KT 10SM SCT046 BKN070 BKN090 23/20 A2955 1210 84 2400 190/10 RMK AO2 OCNL LTG DSNT N-NE $
14837KMSN MSN20110621221013206/21/11 22:10:31  5-MIN KMSN 220410Z 19009KT 10SM SCT046 BKN070 BKN090 23/20 A2955 1210 84 2400 190/09 RMK AO2 OCNL LTG DSNT N-NE $
14837KMSN MSN20110621221513206/21/11 22:15:31  5-MIN KMSN 220415Z 19007KT 10SM SCT046 BKN070 BKN090 23/19 A2955 1210 81 2400 190/07 RMK AO2 OCNL LTG DSNT N-NE $
14837KMSN MSN20110621222010606/21/11 22:20:31  5-MIN KMSN 220420Z 19007KT 10SM SCT046 BKN100 23/19 A2955 1210 81 2400 200/07 RMK AO2 $
14837KMSN MSN20110621222510606/21/11 22:25:31  5-MIN KMSN 220425Z 19008KT 10SM SCT046 BKN100 23/19 A2955 1210 81 2400 190/08 RMK AO2 $
14837KMSN MSN20110621223010606/21/11 22:30:31  5-MIN KMSN 220430Z 18009KT 10SM SCT046 BKN100 23/19 A2955 1210 81 2400 180/09 RMK AO2 $
14837KMSN MSN20110621223510606/21/11 22:35:31  5-MIN KMSN 220435Z 18009KT 10SM SCT046 BKN100 23/19 A2955 1210 78 2400 190/09 RMK AO2 $
14837KMSN MSN20110621224010606/21/11 22:40:31  5-MIN KMSN 220440Z 19009KT 10SM SCT044 BKN100 23/19 A2955 1210 78 2400 190/09 RMK AO2 $
14837KMSN MSN20110621224510606/21/11 22:45:31  5-MIN KMSN 220445Z 19007KT 10SM FEW044 BKN100 23/19 A2955 1210 78 2400 190/07 RMK AO2 $
14837KMSN MSN20110621225012306/21/11 22:50:31  5-MIN KMSN 220450Z 18006KT 10SM FEW044 BKN100 22/19 A2955 1210 81 2400 180/06 RMK AO2 SLP999 T02220189 $
14837KMSN MSN20110621225510606/21/11 22:55:31  5-MIN KMSN 220455Z 17008KT 10SM SCT042 BKN100 22/18 A2955 1210 78 2400 170/08 RMK AO2 $
14837KMSN MSN20110621230010606/21/11 23:00:31  5-MIN KMSN 220500Z 19006KT 10SM SCT042 SCT100 22/18 A2955 1210 81 2300 190/06 RMK AO2 $
14837KMSN MSN20110621230509906/21/11 23:05:31  5-MIN KMSN 220505Z 19007KT 10SM FEW042 22/18 A2955 1210 75 2400 190/07 RMK AO2 $
14837KMSN MSN20110621231009906/21/11 23:10:31  5-MIN KMSN 220510Z 19007KT 10SM FEW039 22/18 A2955 1210 78 2300 190/07 RMK AO2 $
14837KMSN MSN20110621231509606/21/11 23:15:31  5-MIN KMSN 220515Z 19007KT 10SM CLR 22/18 A2955 1210 78 2300 190/07 RMK AO2 $
14837KMSN MSN20110621232009606/21/11 23:20:31  5-MIN KMSN 220520Z 18006KT 10SM CLR 22/18 A2955 1210 78 2300 190/06 RMK AO2 $
14837KMSN MSN20110621232509906/21/11 23:25:31  5-MIN KMSN 220525Z 19006KT 10SM FEW090 22/18 A2955 1210 78 2300 190/06 RMK AO2 $
14837KMSN MSN20110621233009906/21/11 23:30:31  5-MIN KMSN 220530Z 18007KT 10SM FEW095 22/18 A2954 1220 78 2300 190/07 RMK AO2 $
14837KMSN MSN20110621233510606/21/11 23:35:31  5-MIN KMSN 220535Z 18007KT 10SM FEW047 SCT090 22/18 A2954 1220 78 2300 180/07 RMK AO2 $
14837KMSN MSN20110621234010606/21/11 23:40:31  5-MIN KMSN 220540Z 18007KT 10SM FEW047 BKN090 22/18 A2954 1220 78 2300 180/07 RMK AO2 $
14837KMSN MSN20110621234510606/21/11 23:45:31  5-MIN KMSN 220545Z 17008KT 10SM FEW075 BKN090 21/18 A2954 1220 81 2300 170/08 RMK AO2 $
14837KMSN MSN20110621235015106/21/11 23:50:31  5-MIN KMSN 220550Z 17007KT 10SM FEW070 BKN090 21/18 A2954 1220 81 2300 170/07 RMK AO2 SLP995 60136 T02110178 10261 20211 403060183 $
14837KMSN MSN20110621235510606/21/11 23:55:31  5-MIN KMSN 220555Z 17007KT 10SM FEW070 BKN095 21/18 A2954 1220 81 2300 170/07 RMK AO2 $
14837KMSN MSN20110622000010606/22/11 00:00:32  5-MIN KMSN 220600Z 17007KT 10SM FEW070 BKN095 21/18 A2954 1220 81 2300 170/07 RMK AO2 $
14837KMSN MSN20110622000510606/22/11 00:05:31  5-MIN KMSN 220605Z 17007KT 10SM FEW070 OVC095 21/18 A2954 1220 81 2300 180/07 RMK AO2 $
14837KMSN MSN20110622001009906/22/11 00:10:31  5-MIN KMSN 220610Z 18007KT 10SM BKN095 21/18 A2954 1220 81 2300 180/07 RMK AO2 $
14837KMSN MSN20110622001509906/22/11 00:15:31  5-MIN KMSN 220615Z 17007KT 10SM BKN095 21/18 A2954 1220 81 2300 170/07 RMK AO2 $
14837KMSN MSN20110622002009906/22/11 00:20:31  5-MIN KMSN 220620Z 17007KT 10SM BKN090 21/18 A2954 1220 84 2200 180/07 RMK AO2 $
14837KMSN MSN20110622002510606/22/11 00:25:31  5-MIN KMSN 220625Z 17007KT 10SM FEW060 OVC095 21/18 A2954 1220 81 2300 170/07 RMK AO2 $
14837KMSN MSN20110622003011306/22/11 00:30:31  5-MIN KMSN 220630Z 18007KT 10SM FEW049 SCT060 OVC095 21/18 A2954 1220 81 2300 190/07 RMK AO2 $
14837KMSN MSN20110622003510606/22/11 00:35:31  5-MIN KMSN 220635Z 18007KT 10SM BKN055 OVC095 21/18 A2954 1220 81 2300 180/07 RMK AO2 $
14837KMSN MSN20110622004011306/22/11 00:40:31  5-MIN KMSN 220640Z 18006KT 10SM SCT049 BKN060 OVC095 21/18 A2954 1220 81 2300 180/06 RMK AO2 $
14837KMSN MSN20110622004511306/22/11 00:45:31  5-MIN KMSN 220645Z 18005KT 10SM SCT049 BKN060 OVC095 21/18 A2954 1220 81 2300 180/05 RMK AO2 $
14837KMSN MSN20110622005012306/22/11 00:50:31  5-MIN KMSN 220650Z 18005KT 10SM SCT055 BKN095 21/18 A2954 1220 81 2300 180/05 RMK AO2 SLP995 T02110178 $
14837KMSN MSN20110622005510606/22/11 00:55:31  5-MIN KMSN 220655Z 18005KT 10SM SCT050 BKN095 21/18 A2954 1220 84 2200 180/05 RMK AO2 $
14837KMSN MSN20110622010010606/22/11 01:00:31  5-MIN KMSN 220700Z 17006KT 10SM FEW050 OVC095 21/18 A2954 1220 84 2200 180/06 RMK AO2 $
14837KMSN MSN20110622010510606/22/11 01:05:31  5-MIN KMSN 220705Z 17005KT 10SM FEW050 OVC095 21/18 A2954 1220 84 2200 170/05 RMK AO2 $
14837KMSN MSN20110622011010606/22/11 01:10:31  5-MIN KMSN 220710Z 17006KT 10SM FEW050 OVC095 21/18 A2954 1220 84 2200 170/06 RMK AO2 $
14837KMSN MSN20110622011509906/22/11 01:15:31  5-MIN KMSN 220715Z 18007KT 10SM OVC095 21/18 A2954 1220 84 2200 180/07 RMK AO2 $
14837KMSN MSN20110622012009906/22/11 01:20:31  5-MIN KMSN 220720Z 18006KT 10SM OVC095 21/18 A2954 1220 87 2200 180/06 RMK AO2 $
14837KMSN MSN20110622012509906/22/11 01:25:31  5-MIN KMSN 220725Z 18006KT 10SM OVC095 21/18 A2954 1220 84 2200 180/06 RMK AO2 $
14837KMSN MSN20110622013009906/22/11 01:30:31  5-MIN KMSN 220730Z 17007KT 10SM OVC095 21/18 A2954 1220 87 2200 170/07 RMK AO2 $
14837KMSN MSN20110622013509906/22/11 01:35:31  5-MIN KMSN 220735Z 17007KT 10SM OVC090 21/18 A2954 1220 87 2200 170/07 RMK AO2 $
14837KMSN MSN20110622014009906/22/11 01:40:31  5-MIN KMSN 220740Z 17009KT 10SM OVC090 21/18 A2954 1220 87 2200 170/09 RMK AO2 $
14837KMSN MSN20110622014509906/22/11 01:45:31  5-MIN KMSN 220745Z 18008KT 10SM OVC090 21/18 A2954 1220 87 2200 180/08 RMK AO2 $
14837KMSN MSN20110622015012306/22/11 01:50:31  5-MIN KMSN 220750Z 18010KT 10SM FEW070 OVC090 21/18 A2954 1220 87 2200 190/10 RMK AO2 SLP996 T02060183 $
14837KMSN MSN20110622015510606/22/11 01:55:31  5-MIN KMSN 220755Z 18008KT 10SM FEW070 OVC090 21/18 A2954 1220 87 2200 180/08 RMK AO2 $
14837KMSN MSN20110622020010606/22/11 02:00:31  5-MIN KMSN 220800Z 18008KT 10SM SCT070 OVC085 21/18 A2954 1220 87 2200 190/08 RMK AO2 $
14837KMSN MSN20110622020510606/22/11 02:05:31  5-MIN KMSN 220805Z 18008KT 10SM BKN075 OVC090 21/18 A2954 1220 87 2200 180/08 RMK AO2 $
14837KMSN MSN20110622021010606/22/11 02:10:31  5-MIN KMSN 220810Z 17010KT 10SM BKN075 OVC090 21/18 A2954 1220 87 2200 170/10 RMK AO2 $
14837KMSN MSN20110622021510606/22/11 02:15:31  5-MIN KMSN 220815Z 17009KT 10SM BKN075 OVC090 21/18 A2954 1220 87 2200 170/09 RMK AO2 $
14837KMSN MSN20110622022010606/22/11 02:20:31  5-MIN KMSN 220820Z 16009KT 10SM FEW065 OVC085 21/18 A2954 1220 87 2200 170/09 RMK AO2 $
14837KMSN MSN20110622022509906/22/11 02:25:31  5-MIN KMSN 220825Z 17009KT 10SM OVC080 21/18 A2954 1220 87 2200 170/09 RMK AO2 $
14837KMSN MSN20110622023009906/22/11 02:30:31  5-MIN KMSN 220830Z 17008KT 10SM OVC085 21/18 A2954 1220 87 2200 180/08 RMK AO2 $
14837KMSN MSN20110622023509906/22/11 02:35:31  5-MIN KMSN 220835Z 17008KT 10SM OVC085 21/18 A2954 1220 87 2200 170/08 RMK AO2 $
14837KMSN MSN20110622024009906/22/11 02:40:31  5-MIN KMSN 220840Z 17008KT 10SM OVC085 21/18 A2954 1220 87 2200 170/08 RMK AO2 $
14837KMSN MSN20110622024509906/22/11 02:45:31  5-MIN KMSN 220845Z 17009KT 10SM OVC085 21/18 A2954 1220 87 2200 170/09 RMK AO2 $
14837KMSN MSN20110622025012206/22/11 02:50:31  5-MIN KMSN 220850Z 17010KT 10SM OVC090 21/18 A2953 1230 87 2200 170/10 RMK AO2 SLP993 T02060183 56132 $
14837KMSN MSN20110622025510606/22/11 02:55:31  5-MIN KMSN 220855Z 18009KT 10SM FEW075 OVC090 21/18 A2953 1230 87 2200 180/09 RMK AO2 $
14837KMSN MSN20110622030010506/22/11 03:00:31  5-MIN KMSN 220900Z 18008KT 9SM SCT075 OVC090 21/18 A2953 1230 87 2200 190/08 RMK AO2 $
14837KMSN MSN20110622030512206/22/11 03:05:31  5-MIN KMSN 220905Z 18007KT 10SM -RA BKN080 OVC095 21/19 A2953 1230 90 2200 180/07 RMK AO2 RAB01 P0000 $
14837KMSN MSN20110622031012106/22/11 03:10:31  5-MIN KMSN 220910Z 18006KT 10SM BKN080 OVC100 21/19 A2953 1230 90 2200 190/06 RMK AO2 RAB01E10 P0000 $
14837KMSN MSN20110622031512106/22/11 03:15:31  5-MIN KMSN 220915Z 18006KT 10SM BKN075 OVC095 21/19 A2953 1230 90 2200 190/06 RMK AO2 RAB01E10 P0000 $
14837KMSN MSN20110622032012106/22/11 03:20:31  5-MIN KMSN 220920Z 18007KT 10SM SCT075 OVC090 21/19 A2953 1230 90 2200 180/07 RMK AO2 RAB01E10 P0000 $
14837KMSN MSN20110622032512106/22/11 03:25:31  5-MIN KMSN 220925Z 18008KT 10SM SCT080 OVC095 21/19 A2953 1230 90 2200 190/08 RMK AO2 RAB01E10 P0000 $
14837KMSN MSN20110622033012106/22/11 03:30:31  5-MIN KMSN 220930Z 18008KT 10SM SCT080 OVC090 21/19 A2953 1230 90 2200 180/08 RMK AO2 RAB01E10 P0000 $
14837KMSN MSN20110622033511406/22/11 03:35:31  5-MIN KMSN 220935Z 18009KT 10SM OVC085 21/18 A2953 1230 87 2200 190/09 RMK AO2 RAB01E10 P0000 $
14837KMSN MSN20110622034011406/22/11 03:40:31  5-MIN KMSN 220940Z 18007KT 10SM OVC085 21/18 A2953 1230 87 2200 180/07 RMK AO2 RAB01E10 P0000 $
14837KMSN MSN20110622034511406/22/11 03:45:31  5-MIN KMSN 220945Z 18006KT 10SM OVC085 21/18 A2953 1230 87 2200 180/06 RMK AO2 RAB01E10 P0000 $
14837KMSN MSN20110622035013806/22/11 03:50:31  5-MIN KMSN 220950Z 18007KT 10SM BKN085 OVC110 21/18 A2951 1250 87 2200 180/07 RMK AO2 RAB01E10 SLP986 P0000 T02060183 $
14837KMSN MSN20110622035510606/22/11 03:55:31  5-MIN KMSN 220955Z 19006KT 10SM BKN085 OVC110 21/18 A2951 1250 87 2200 190/06 RMK AO2 $
14837KMSN MSN20110622040010606/22/11 04:00:31  5-MIN KMSN 221000Z 18008KT 10SM SCT080 OVC110 21/18 A2951 1250 87 2200 180/08 RMK AO2 $
14837KMSN MSN20110622040510606/22/11 04:05:31  5-MIN KMSN 221005Z 17008KT 10SM FEW080 OVC110 21/18 A2951 1250 87 2200 180/08 RMK AO2 $
14837KMSN MSN20110622041010606/22/11 04:10:31  5-MIN KMSN 221010Z 17008KT 10SM FEW080 OVC110 21/18 A2951 1250 87 2200 170/08 RMK AO2 $
14837KMSN MSN20110622041509906/22/11 04:15:31  5-MIN KMSN 221015Z 18007KT 10SM OVC100 21/18 A2951 1250 87 2200 180/07 RMK AO2 $
14837KMSN MSN20110622042009906/22/11 04:20:31  5-MIN KMSN 221020Z 18006KT 10SM OVC110 21/18 A2951 1250 87 2200 180/06 RMK AO2 $
14837KMSN MSN20110622042509906/22/11 04:25:31  5-MIN KMSN 221025Z 17008KT 10SM OVC100 21/18 A2951 1250 87 2200 170/08 RMK AO2 $
14837KMSN MSN20110622043009906/22/11 04:30:31  5-MIN KMSN 221030Z 17009KT 10SM OVC110 21/18 A2951 1250 87 2200 170/09 RMK AO2 $
14837KMSN MSN20110622043510606/22/11 04:35:31  5-MIN KMSN 221035Z 17008KT 10SM FEW075 OVC110 21/18 A2951 1250 87 2200 170/08 RMK AO2 $
14837KMSN MSN20110622044010606/22/11 04:40:31  5-MIN KMSN 221040Z 16008KT 10SM SCT080 OVC110 21/18 A2951 1250 87 2200 160/08 RMK AO2 $
14837KMSN MSN20110622044510606/22/11 04:45:31  5-MIN KMSN 221045Z 16008KT 10SM SCT080 BKN110 21/18 A2951 1250 87 2200 160/08 RMK AO2 $
14837KMSN MSN20110622045012306/22/11 04:50:31  5-MIN KMSN 221050Z 17009KT 10SM BKN085 BKN110 21/18 A2951 1250 87 2200 170/09 RMK AO2 SLP986 T02060183 $
14837KMSN MSN20110622045510606/22/11 04:55:31  5-MIN KMSN 221055Z 17009KT 10SM BKN090 OVC110 21/18 A2951 1250 87 2200 170/09 RMK AO2 $
14837KMSN MSN20110622050009906/22/11 05:00:31  5-MIN KMSN 221100Z 18008KT 10SM OVC090 21/18 A2951 1250 87 2200 180/08 RMK AO2 $
14837KMSN MSN20110622050509906/22/11 05:05:31  5-MIN KMSN 221105Z 18010KT 10SM OVC100 21/18 A2951 1250 87 2200 190/10 RMK AO2 $
14837KMSN MSN20110622051009906/22/11 05:10:31  5-MIN KMSN 221110Z 18008KT 10SM OVC100 21/18 A2951 1250 87 2200 180/08 RMK AO2 $
14837KMSN MSN20110622051509906/22/11 05:15:31  5-MIN KMSN 221115Z 18010KT 10SM OVC100 21/18 A2951 1250 87 2200 190/10 RMK AO2 $
14837KMSN MSN20110622052009906/22/11 05:20:31  5-MIN KMSN 221120Z 18011KT 10SM BKN100 21/18 A2951 1250 87 2200 180/11 RMK AO2 $
14837KMSN MSN20110622052509906/22/11 05:25:31  5-MIN KMSN 221125Z 18009KT 10SM BKN100 21/18 A2951 1250 87 2200 180/09 RMK AO2 $
14837KMSN MSN20110622053009906/22/11 05:30:31  5-MIN KMSN 221130Z 18012KT 10SM SCT100 21/18 A2951 1250 87 2200 190/12 RMK AO2 $
14837KMSN MSN20110622053510606/22/11 05:35:31  5-MIN KMSN 221135Z 18010KT 10SM FEW012 SCT100 21/18 A2951 1250 87 2200 180/10 RMK AO2 $
14837KMSN MSN20110622054009906/22/11 05:40:31  5-MIN KMSN 221140Z 18011KT 10SM FEW012 21/18 A2951 1250 87 2200 180/11 RMK AO2 $
14837KMSN MSN20110622054509906/22/11 05:45:31  5-MIN KMSN 221145Z 18012KT 10SM FEW012 21/18 A2951 1250 87 2200 180/12 RMK AO2 $
14837KMSN MSN20110622055014606/22/11 05:50:31  5-MIN KMSN 221150Z 18012KT 10SM FEW047 21/18 A2951 1250 84 2200 180/12 RMK AO2 SLP986 60000 70136 T02060178 10211 20206 58003 $
14837KMSN MSN20110622055510606/22/11 05:55:31  5-MIN KMSN 221155Z 18009KT 10SM FEW014 SCT047 21/18 A2952 1240 87 2200 180/09 RMK AO2 $
14837KMSN MSN20110622060010606/22/11 06:00:31  5-MIN KMSN 221200Z 18011KT 10SM SCT014 SCT047 21/18 A2952 1240 84 2200 180/11 RMK AO2 $
14837KMSN MSN20110622060510606/22/11 06:05:31  5-MIN KMSN 221205Z 18014KT 10SM SCT014 BKN025 21/18 A2952 1240 84 2200 180/14 RMK AO2 $
14837KMSN MSN20110622061010606/22/11 06:10:31  5-MIN KMSN 221210Z 18013KT 10SM SCT014 BKN025 21/18 A2952 1240 84 2200 180/13 RMK AO2 $
14837KMSN MSN20110622061511306/22/11 06:15:31  5-MIN KMSN 221215Z 18013KT 10SM SCT014 BKN021 BKN025 21/18 A2952 1240 84 2200 180/13 RMK AO2 $
14837KMSN MSN20110622062011306/22/11 06:20:31  5-MIN KMSN 221220Z 19012KT 10SM BKN016 BKN021 BKN027 21/18 A2952 1240 84 2200 190/12 RMK AO2 $
14837KMSN MSN20110622062510606/22/11 06:25:31  5-MIN KMSN 221225Z 18011KT 10SM BKN016 OVC027 21/18 A2952 1240 84 2200 180/11 RMK AO2 $
14837KMSN MSN20110622063011306/22/11 06:30:31  5-MIN KMSN 221230Z 18011KT 10SM BKN016 BKN020 OVC033 21/18 A2952 1240 81 2300 180/11 RMK AO2 $
14837KMSN MSN20110622063512806/22/11 06:35:31  5-MIN KMSN 221235Z 18012KT 8SM -RA BKN016 BKN026 OVC033 21/18 A2952 1240 81 2300 180/12 RMK AO2 RAB34 P0000 $
14837KMSN MSN20110622064012106/22/11 06:40:31  5-MIN KMSN 221240Z 20007KT 8SM -RA BKN016 OVC024 21/18 A2952 1240 84 2200 210/07 RMK AO2 RAB34 P0000 $
14837KMSN MSN20110622064512806/22/11 06:45:31  5-MIN KMSN 221245Z 19008KT 7SM -RA BKN016 BKN024 OVC033 20/17 A2952 1240 84 2100 190/08 RMK AO2 RAB34 P0000 $
14837KMSN MSN20110622065014406/22/11 06:50:31  5-MIN KMSN 221250Z 19007KT 8SM SCT016 BKN023 BKN033 20/17 A2951 1250 84 2200 190/07 RMK AO2 RAB34E48 SLP987 P0000 T02000172 $
14837KMSN MSN20110622065511906/22/11 06:55:31  5-MIN KMSN 221255Z 19011G17KT 10SM SCT016 BKN021 OVC033 21/18 A2951 1250 84 2200 190/11G17 RMK AO2 $
14837KMSN MSN20110622070011906/22/11 07:00:31  5-MIN KMSN 221300Z 19014G19KT 10SM BKN016 BKN021 BKN033 21/17 A2951 1250 81 2200 190/14G19 RMK AO2 $
14837KMSN MSN20110622070511906/22/11 07:05:31  5-MIN KMSN 221305Z 19013G19KT 10SM BKN016 BKN021 BKN033 21/17 A2951 1250 81 2200 190/13G19 RMK AO2 $
14837KMSN MSN20110622071011906/22/11 07:10:31  5-MIN KMSN 221310Z 19010G17KT 10SM BKN018 BKN026 BKN033 21/17 A2951 1250 78 2300 190/10G17 RMK AO2 $
14837KMSN MSN20110622071511906/22/11 07:15:31  5-MIN KMSN 221315Z 18015G21KT 10SM BKN018 BKN028 OVC050 22/18 A2951 1250 78 2300 180/15G21 RMK AO2 $
14837KMSN MSN20110622072011906/22/11 07:20:31  5-MIN KMSN 221320Z 18015G21KT 10SM BKN018 BKN026 OVC055 21/17 A2951 1250 78 2300 180/15G21 RMK AO2 $
14837KMSN MSN20110622072511306/22/11 07:25:31  5-MIN KMSN 221325Z 19015KT 10SM SCT018 BKN026 BKN050 21/17 A2951 1250 78 2300 190/15 RMK AO2 $
14837KMSN MSN20110622073011306/22/11 07:30:31  5-MIN KMSN 221330Z 18012KT 10SM SCT018 BKN026 BKN050 21/17 A2951 1250 81 2200 180/12 RMK AO2 $
14837KMSN MSN20110622073511306/22/11 07:35:31  5-MIN KMSN 221335Z 19012KT 10SM SCT018 BKN026 BKN050 21/17 A2951 1250 78 2200 190/12 RMK AO2 $
14837KMSN MSN20110622074011306/22/11 07:40:31  5-MIN KMSN 221340Z 19012KT 10SM SCT020 BKN026 OVC050 21/17 A2951 1250 78 2200 190/12 RMK AO2 $
14837KMSN MSN20110622074511906/22/11 07:45:31  5-MIN KMSN 221345Z 20008G17KT 10SM FEW020 BKN026 BKN050 21/17 A2951 1250 75 2300 200/08G17 RMK AO2 $
14837KMSN MSN20110622075013006/22/11 07:50:31  5-MIN KMSN 221350Z 19010KT 10SM FEW020 BKN026 BKN050 21/17 A2952 1240 75 2300 190/10 RMK AO2 SLP991 T02110167 $
14837KMSN MSN20110622075511906/22/11 07:55:31  5-MIN KMSN 221355Z 19012G17KT 10SM SCT020 BKN046 OVC055 21/17 A2952 1240 75 2300 190/12G17 RMK AO2 $
14837KMSN MSN20110622080011906/22/11 08:00:31  5-MIN KMSN 221400Z 20010G17KT 10SM SCT020 BKN027 OVC050 21/17 A2952 1240 78 2200 200/10G17 RMK AO2 $
14837KMSN MSN20110622080511306/22/11 08:05:31  5-MIN KMSN 221405Z 19009KT 10SM SCT020 BKN027 OVC047 21/17 A2952 1240 78 2200 200/09 RMK AO2 $
14837KMSN MSN20110622081011906/22/11 08:10:31  5-MIN KMSN 221410Z 21010G20KT 10SM SCT020 BKN030 OVC047 21/16 A2952 1240 75 2200 220/10G20 RMK AO2 $
14837KMSN MSN20110622081513506/22/11 08:15:31  5-MIN KMSN 221415Z 20009G20KT 170V240 10SM SCT020 BKN031 OVC038 21/16 A2952 1240 75 2200 200/09G20 170V240 RMK AO2 $
14837KMSN MSN20110622082011906/22/11 08:20:31  5-MIN KMSN 221420Z 20013G17KT 10SM SCT020 BKN028 OVC037 21/16 A2952 1240 75 2200 200/13G17 RMK AO2 $
14837KMSN MSN20110622082511906/22/11 08:25:31  5-MIN KMSN 221425Z 20010G17KT 10SM SCT020 BKN028 OVC035 21/16 A2952 1240 75 2200 200/10G17 RMK AO2 $
14837KMSN MSN20110622083011906/22/11 08:30:31  5-MIN KMSN 221430Z 20011G15KT 10SM SCT020 BKN026 OVC033 21/16 A2952 1240 75 2200 210/11G15 RMK AO2 $
14837KMSN MSN20110622083511206/22/11 08:35:31  5-MIN KMSN 221435Z 21008G15KT 10SM BKN023 OVC030 21/16 A2952 1240 75 2200 210/08G15 RMK AO2 $
14837KMSN MSN20110622084011906/22/11 08:40:31  5-MIN KMSN 221440Z 19014G18KT 10SM BKN020 BKN025 OVC030 21/16 A2952 1240 75 2200 190/14G18 RMK AO2 $
14837KMSN MSN20110622084511906/22/11 08:45:31  5-MIN KMSN 221445Z 18013G18KT 10SM BKN020 BKN025 OVC030 20/16 A2952 1240 78 2100 180/13G18 RMK AO2 $
14837KMSN MSN20110622085014206/22/11 08:50:31  5-MIN KMSN 221450Z 19012KT 10SM BKN020 BKN030 OVC060 20/16 A2952 1240 78 2100 190/12 RMK AO2 SLP991 60000 T02000161 55003 $
14837KMSN MSN20110622085511306/22/11 08:55:31  5-MIN KMSN 221455Z 19010KT 10SM SCT022 BKN031 BKN060 21/17 A2952 1240 78 2200 190/10 RMK AO2 $
14837KMSN MSN20110622090011706/22/11 09:00:31  5-MIN KMSN 221500Z 19010G16KT 10SM SCT020 BKN025 BKN031 21/17 A2951 1240 78 2200 190/10G16 RMK AO2
14837KMSN MSN20110622090511106/22/11 09:05:31  5-MIN KMSN 221505Z 21007KT 10SM FEW020 SCT026 BKN075 21/17 A2951 1250 75 2300 210/07 RMK AO2
14837KMSN MSN20110622091011106/22/11 09:10:31  5-MIN KMSN 221510Z 20013KT 10SM FEW017 SCT022 BKN060 22/17 A2951 1250 73 2300 200/13 RMK AO2
14837KMSN MSN20110622091511706/22/11 09:15:31  5-MIN KMSN 221515Z 19011G16KT 10SM FEW019 BKN027 BKN060 21/17 A2951 1250 75 2300 190/11G16 RMK AO2
14837KMSN MSN20110622092011706/22/11 09:20:31  5-MIN KMSN 221520Z 19014G19KT 10SM FEW019 BKN027 BKN060 21/17 A2951 1250 75 2300 190/14G19 RMK AO2
14837KMSN MSN20110622092511706/22/11 09:25:31  5-MIN KMSN 221525Z 20011G20KT 10SM FEW019 BKN027 BKN060 22/17 A2951 1250 73 2300 200/11G20 RMK AO2
14837KMSN MSN20110622093011706/22/11 09:30:31  5-MIN KMSN 221530Z 19014G20KT 10SM FEW019 BKN027 BKN060 22/17 A2951 1250 73 2300 200/14G20 RMK AO2
14837KMSN MSN20110622093511706/22/11 09:35:31  5-MIN KMSN 221535Z 18011G18KT 10SM BKN019 BKN027 OVC040 21/17 A2951 1250 75 2300 190/11G18 RMK AO2
14837KMSN MSN20110622094011706/22/11 09:40:31  5-MIN KMSN 221540Z 18015G20KT 10SM SCT021 BKN032 OVC046 21/17 A2951 1250 75 2300 180/15G20 RMK AO2
14837KMSN MSN20110622094511706/22/11 09:45:31  5-MIN KMSN 221545Z 19013G20KT 10SM BKN021 BKN032 BKN046 21/16 A2951 1250 73 2300 190/13G20 RMK AO2
14837KMSN MSN20110622095012806/22/11 09:50:31  5-MIN KMSN 221550Z 18014KT 10SM BKN021 BKN034 BKN046 22/17 A2951 1250 73 2300 180/14 RMK AO2 SLP987 T02170167
14837KMSN MSN20110622095511106/22/11 09:55:31  5-MIN KMSN 221555Z 18016KT 10SM SCT021 BKN031 BKN039 21/17 A2951 1250 75 2300 180/16 RMK AO2
14837KMSN MSN20110622100011106/22/11 10:00:31  5-MIN KMSN 221600Z 18014KT 10SM SCT019 SCT024 BKN031 22/17 A2951 1250 75 2300 180/14 RMK AO2
14837KMSN MSN20110622100511106/22/11 10:05:31  5-MIN KMSN 221605Z 18015KT 10SM SCT019 BKN023 BKN035 21/17 A2951 1250 75 2300 180/15 RMK AO2
14837KMSN MSN20110622101011006/22/11 10:10:31  5-MIN KMSN 221610Z 19011KT 9SM BKN019 BKN023 BKN085 21/17 A2951 1240 78 2200 190/11 RMK AO2
14837KMSN MSN20110622101511006/22/11 10:15:31  5-MIN KMSN 221615Z 19010KT 8SM BKN017 BKN022 OVC085 21/17 A2952 1240 78 2200 190/10 RMK AO2
14837KMSN MSN20110622102012606/22/11 10:20:31  5-MIN KMSN 221620Z 20007KT 4SM -RA BKN017 BKN022 OVC029 20/17 A2952 1240 84 2100 200/07 RMK AO2 RAB17 P0000
14837KMSN MSN20110622102513206/22/11 10:25:31  5-MIN KMSN 221625Z 20010G15KT 4SM -RA BKN017 BKN022 OVC034 20/17 A2952 1240 81 2100 200/10G15 RMK AO2 RAB17 P0000
14837KMSN MSN20110622103013206/22/11 10:30:31  5-MIN KMSN 221630Z 20011G16KT 9SM -RA SCT017 SCT025 OVC036 20/17 A2951 1240 81 2200 200/11G16 RMK AO2 RAB17 P0000
14837KMSN MSN20110622103513206/22/11 10:35:31  5-MIN KMSN 221635Z 21008G16KT 10SM FEW017 BKN036 OVC047 20/16 A2951 1240 78 2200 210/08G16 RMK AO2 RAB17E33 P0000
14837KMSN MSN20110622104012606/22/11 10:40:31  5-MIN KMSN 221640Z 19011KT 10SM FEW018 BKN036 OVC055 21/16 A2951 1240 75 2200 200/11 RMK AO2 RAB17E33 P0000
14837KMSN MSN20110622104512606/22/11 10:45:31  5-MIN KMSN 221645Z 20010KT 10SM FEW018 BKN036 OVC085 21/16 A2951 1240 75 2200 200/10 RMK AO2 RAB17E33 P0000
14837KMSN MSN20110622105014906/22/11 10:50:31  5-MIN KMSN 221650Z 19009G16KT 10SM SCT036 BKN049 BKN085 21/17 A2951 1240 75 2300 190/09G16 RMK AO2 RAB17E33 SLP989 P0000 T02110167
14837KMSN MSN20110622105512606/22/11 10:55:31  5-MIN KMSN 221655Z 19011G16KT 7SM -RA FEW020 SCT036 BKN046 21/17 A2952 1240 81 2200 190/11G16 RMK AO2 P0000
14837KMSN MSN20110622110012306/22/11 11:00:31  5-MIN KMSN 221700Z 20007KT 4SM -RA BR FEW014 SCT020 BKN036 20/18 A2952 1240 87 2100 200/07 RMK AO2 P0000
14837KMSN MSN20110622110513306/22/11 11:05:31  5-MIN KMSN 221705Z 22007KT 3SM -RA BR SCT012 SCT020 BKN036 19/17 A2952 1240 87 2100 220/07 RMK AO2 TWR VIS 4 P0004
14837KMSN MSN20110622111012606/22/11 11:10:31  5-MIN KMSN 221710Z 20011G16KT 5SM -RA SCT015 BKN036 BKN045 20/17 A2952 1240 84 2100 200/11G16 RMK AO2 P0004
14837KMSN MSN20110622111512906/22/11 11:15:31  5-MIN KMSN 221715Z 20008G16KT 10SM BKN015 BKN022 BKN045 20/17 A2952 1240 84 2100 210/08G16 RMK AO2 RAE12 P0004
14837KMSN MSN20110622112012606/22/11 11:20:31  5-MIN KMSN 221720Z VRB06G15KT 7SM -RA BKN015 BKN022 OVC041 20/18 A2952 1240 87 2100 VRB/06G15 RMK AO2 P0004
14837KMSN MSN20110622112514506/22/11 11:25:31  5-MIN KMSN 221725Z 23007G15KT 180V240 5SM -RA BR SCT012 BKN017 OVC043 20/18 A2952 1240 87 2100 230/07G15 180V240 RMK AO2 P0004
14837KMSN MSN20110622113012306/22/11 11:30:31  5-MIN KMSN 221730Z 20005KT 5SM -RA BR BKN014 BKN041 OVC049 20/18 A2952 1240 90 2100 200/05 RMK AO2 P0004
14837KMSN MSN20110622113512606/22/11 11:35:31  5-MIN KMSN 221735Z 20011G17KT 7SM -RA SCT014 BKN040 OVC047 20/18 A2952 1240 87 2100 200/11G17 RMK AO2 P0004
14837KMSN MSN20110622114012606/22/11 11:40:31  5-MIN KMSN 221740Z 20011G17KT 9SM -RA SCT014 BKN034 OVC050 20/18 A2952 1240 87 2100 200/11G17 RMK AO2 P0004
14837KMSN MSN20110622114512006/22/11 11:45:31  5-MIN KMSN 221745Z 20010KT 7SM -RA SCT014 BKN030 OVC041 20/17 A2952 1240 84 2100 200/10 RMK AO2 P0004
14837KMSN MSN20110622115016706/22/11 11:50:31  5-MIN KMSN 221750Z 19014G17KT 7SM -RA BKN014 BKN030 OVC048 20/17 A2952 1240 84 2100 190/14G17 RMK AO2 SLP991 P0004 60004 T02000172 10217 20194 55000
14837KMSN MSN20110622115512706/22/11 11:55:31  5-MIN KMSN 221755Z 19011G17KT 10SM -RA FEW014 BKN027 OVC050 20/17 A2952 1240 84 2100 200/11G17 RMK AO2 P0000
14837KMSN MSN20110622120012406/22/11 12:00:31  5-MIN KMSN 221800Z 19012KT 9SM FEW014 BKN029 OVC045 20/18 A2952 1240 87 2100 200/12 RMK AO2 RAE1758 P0000
14837KMSN MSN20110622120512006/22/11 12:05:31  5-MIN KMSN 221805Z 18010KT 9SM -RA FEW012 BKN029 BKN037 20/18 A2951 1240 90 2200 180/10 RMK AO2 P0000
14837KMSN MSN20110622121012106/22/11 12:10:31  5-MIN KMSN 221810Z 18011KT 10SM -RA FEW012 BKN027 BKN037 20/18 A2951 1240 90 2200 180/11 RMK AO2 P0000
14837KMSN MSN20110622121512106/22/11 12:15:31  5-MIN KMSN 221815Z 18013KT 10SM -RA FEW012 BKN030 BKN043 21/18 A2951 1240 87 2200 180/13 RMK AO2 P0000
14837KMSN MSN20110622122012306/22/11 12:20:31  5-MIN KMSN 221820Z 20011KT 10SM FEW012 SCT030 BKN043 21/18 A2951 1250 84 2300 200/11 RMK AO2 RAE16 P0000
14837KMSN MSN20110622122512306/22/11 12:25:31  5-MIN KMSN 221825Z 19013KT 10SM FEW031 SCT041 SCT085 22/18 A2951 1250 81 2300 190/13 RMK AO2 RAE16 P0000
14837KMSN MSN20110622123012306/22/11 12:30:31  5-MIN KMSN 221830Z 18012KT 10SM FEW011 SCT055 SCT085 21/18 A2951 1250 84 2200 180/12 RMK AO2 RAE16 P0000
14837KMSN MSN20110622123513506/22/11 12:35:31  5-MIN KMSN 221835Z 22009G17KT 3SM -RA FEW014 SCT026 BKN055 21/18 A2952 1240 84 2200 220/09G17 RMK AO2 RAE16B34 P0000
14837KMSN MSN20110622124013806/22/11 12:40:31  5-MIN KMSN 221840Z VRB05G14KT 1SM -RA BR FEW014 BKN023 BKN046 19/17 A2952 1240 90 2000 VRB/05G14 RMK AO2 RAE16B34 P0006
14837KMSN MSN20110622124514806/22/11 12:45:31  5-MIN KMSN 221845Z VRB05G14KT 1SM -RA BR FEW014 BKN021 BKN027 18/17 A2951 1240 93 2000 VRB/05G14 RMK AO2 SFC VIS 2 RAE16B34 P0011
14837KMSN MSN20110622125013506/22/11 12:50:31  5-MIN KMSN 221850Z 21007KT 3SM -RA BR FEW014 BKN033 19/17 A2951 1240 90 2000 220/07 RMK AO2 SFC VIS 4 RAE16B34 P0012
14837KMSN MSN20110622125513606/22/11 12:55:31  5-MIN KMSN 221855Z 22007KT 190V260 9SM -RA FEW014 BKN031 BKN060 19/17 A2951 1240 87 2100 220/07 190V260 RMK AO2 P0000
14837KMSN MSN20110622130012506/22/11 13:00:31  5-MIN KMSN 221900Z 22006KT 10SM FEW014 BKN026 BKN031 20/18 A2951 1240 87 2200 220/06 RMK AO2 RAE1857 P0000
14837KMSN MSN20110622130512506/22/11 13:05:31  5-MIN KMSN 221905Z 21007KT 10SM SCT020 BKN026 BKN031 21/18 A2951 1250 84 2200 210/07 RMK AO2 RAE1857 P0000
14837KMSN MSN20110622131012506/22/11 13:10:31  5-MIN KMSN 221910Z 22007KT 10SM SCT018 SCT023 BKN031 21/18 A2951 1250 81 2300 220/07 RMK AO2 RAE1857 P0000
14837KMSN MSN20110622131512506/22/11 13:15:31  5-MIN KMSN 221915Z 21008KT 10SM BKN020 BKN031 BKN038 21/18 A2951 1250 81 2300 210/08 RMK AO2 RAE1857 P0000
14837KMSN MSN20110622132014106/22/11 13:20:31  5-MIN KMSN 221920Z 22007KT 180V250 10SM BKN020 BKN031 BKN038 21/18 A2951 1240 81 2300 230/07 180V250 RMK AO2 RAE1857 P0000
14837KMSN MSN20110622132513106/22/11 13:25:31  5-MIN KMSN 221925Z 21009G15KT 10SM FEW018 SCT024 BKN050 21/17 A2951 1240 81 2200 220/09G15 RMK AO2 RAE1857 P0000
14837KMSN MSN20110622133014106/22/11 13:30:31  5-MIN KMSN 221930Z 21007KT 190V250 10SM FEW018 SCT022 BKN050 21/17 A2951 1240 81 2200 220/07 190V250 RMK AO2 RAE1857 P0000
14837KMSN MSN20110622133512506/22/11 13:35:31  5-MIN KMSN 221935Z 21008KT 10SM FEW020 BKN055 OVC075 21/17 A2951 1240 81 2200 210/08 RMK AO2 RAE1857 P0000
14837KMSN MSN20110622134012506/22/11 13:40:31  5-MIN KMSN 221940Z 23007KT 10SM FEW020 BKN055 BKN075 21/17 A2951 1240 81 2200 230/07 RMK AO2 RAE1857 P0000
14837KMSN MSN20110622134514106/22/11 13:45:31  5-MIN KMSN 221945Z 23007KT 190V270 10SM FEW020 BKN055 BKN075 21/17 A2952 1240 78 2300 230/07 190V270 RMK AO2 RAE1857 P0000
14837KMSN MSN20110622135015406/22/11 13:50:31  5-MIN KMSN 221950Z 23008G14KT 6SM -RA FEW013 BKN050 OVC070 20/17 A2952 1240 84 2100 230/08G14 RMK AO2 RAE1857B47 SLP993 P0000 T02000172
14837KMSN MSN20110622135512906/22/11 13:55:31  5-MIN KMSN 221955Z 23008G15KT 3SM -RA BR FEW012 BKN034 OVC075 19/17 A2952 1240 90 2000 240/08G15 RMK AO2 P0000
14837KMSN MSN20110622140012906/22/11 14:00:31  5-MIN KMSN 222000Z VRB04G15KT 4SM -RA BR FEW012 BKN034 OVC065 19/18 A2952 1240 93 2000 VRB/04G15 RMK AO2 P0000
14837KMSN MSN20110622140512006/22/11 14:05:31  5-MIN KMSN 222005Z 23007KT 8SM -RA FEW012 BKN035 OVC044 19/17 A2952 1240 87 2100 230/07 RMK AO2 P0000
14837KMSN MSN20110622141012306/22/11 14:10:31  5-MIN KMSN 222010Z 23006KT 10SM FEW012 BKN037 OVC044 19/17 A2952 1240 87 2100 230/06 RMK AO2 RAE07 P0000
14837KMSN MSN20110622141512306/22/11 14:15:31  5-MIN KMSN 222015Z VRB05KT 10SM FEW012 BKN037 OVC044 20/17 A2952 1240 84 2100 VRB/05 RMK AO2 RAE07 P0000
14837KMSN MSN20110622142011606/22/11 14:20:31  5-MIN KMSN 222020Z VRB04KT 10SM BKN037 OVC045 20/17 A2952 1240 84 2100 VRB/04 RMK AO2 RAE07 P0000
14837KMSN MSN20110622142510906/22/11 14:25:31  5-MIN KMSN 222025Z 22007KT 10SM OVC042 20/17 A2952 1240 84 2100 230/07 RMK AO2 RAE07 P0000
14837KMSN MSN20110622143010906/22/11 14:30:31  5-MIN KMSN 222030Z VRB04KT 10SM OVC045 20/17 A2952 1240 84 2100 VRB/04 RMK AO2 RAE07 P0000
14837KMSN MSN20110622143511606/22/11 14:35:31  5-MIN KMSN 222035Z VRB06KT 10SM BKN043 OVC050 21/17 A2951 1240 78 2200 VRB/06 RMK AO2 RAE07 P0000
14837KMSN MSN20110622144011606/22/11 14:40:31  5-MIN KMSN 222040Z 23006KT 10SM SCT041 OVC050 21/17 A2951 1240 78 2200 230/06 RMK AO2 RAE07 P0000
14837KMSN MSN20110622144511606/22/11 14:45:31  5-MIN KMSN 222045Z 22006KT 10SM FEW045 OVC055 21/17 A2951 1240 78 2200 230/06 RMK AO2 RAE07 P0000
14837KMSN MSN20110622145014506/22/11 14:50:31  5-MIN KMSN 222050Z 22005KT 10SM FEW028 OVC055 21/17 A2951 1240 75 2300 220/05 RMK AO2 RAE07 SLP988 P0000 60012 T02110167 51003
14837KMSN MSN20110622145511106/22/11 14:55:31  5-MIN KMSN 222055Z 23005KT 10SM SCT026 SCT032 OVC055 22/17 A2951 1240 73 2300 230/05 RMK AO2
14837KMSN MSN20110622150011706/22/11 15:00:31  5-MIN KMSN 222100Z 23011G18KT 10SM SCT024 SCT034 OVC060 22/17 A2951 1240 73 2300 230/11G18 RMK AO2
14837KMSN MSN20110622150511706/22/11 15:05:31  5-MIN KMSN 222105Z 21008G18KT 10SM FEW026 SCT037 OVC060 22/16 A2951 1240 70 2300 220/08G18 RMK AO2
14837KMSN MSN20110622151011706/22/11 15:10:31  5-MIN KMSN 222110Z 20008G17KT 10SM FEW026 SCT037 OVC060 22/17 A2951 1240 73 2300 210/08G17 RMK AO2
14837KMSN MSN20110622151511106/22/11 15:15:31  5-MIN KMSN 222115Z 22008KT 10SM FEW026 SCT037 OVC060 22/16 A2951 1250 70 2300 220/08 RMK AO2
14837KMSN MSN20110622152011006/22/11 15:20:31  5-MIN KMSN 222120Z 21007G14KT 10SM FEW026 OVC060 22/16 A2951 1240 70 2300 210/07G14 RMK AO2
14837KMSN MSN20110622152510406/22/11 15:25:31  5-MIN KMSN 222125Z 22006KT 10SM FEW037 OVC060 22/16 A2951 1240 70 2300 220/06 RMK AO2
14837KMSN MSN20110622153010406/22/11 15:30:31  5-MIN KMSN 222130Z 23006KT 10SM FEW037 BKN060 22/16 A2951 1240 70 2300 230/06 RMK AO2
14837KMSN MSN20110622153511006/22/11 15:35:31  5-MIN KMSN 222135Z 22011G20KT 10SM FEW037 BKN060 21/16 A2952 1240 73 2300 220/11G20 RMK AO2
14837KMSN MSN20110622154011006/22/11 15:40:31  5-MIN KMSN 222140Z 22011G21KT 10SM SCT026 BKN065 20/16 A2952 1230 75 2100 220/11G21 RMK AO2
14837KMSN MSN20110622154512606/22/11 15:45:31  5-MIN KMSN 222145Z 20010G21KT 10SM -RA SCT026 BKN065 19/16 A2952 1230 78 2100 210/10G21 RMK AO2 RAB43 P0000
14837KMSN MSN20110622155015006/22/11 15:50:31  5-MIN KMSN 222150Z 21007G17KT 10SM -RA FEW028 BKN037 OVC065 19/16 A2952 1230 81 2100 220/07G17 RMK AO2 RAB43 SLP994 P0000 T01940161
14837KMSN MSN20110622155512706/22/11 15:55:31  5-MIN KMSN 222155Z 21007G15KT 10SM -RA FEW028 BKN039 OVC065 19/16 A2952 1230 81 2100 210/07G15 RMK AO2 P0000
14837KMSN MSN20110622160012506/22/11 16:00:31  5-MIN KMSN 222200Z 20010KT 10SM FEW028 BKN039 OVC047 20/16 A2952 1230 78 2100 200/10 RMK AO2 RAE2158 P0000
14837KMSN MSN20110622160512506/22/11 16:05:31  5-MIN KMSN 222205Z 22009KT 10SM FEW028 BKN041 OVC047 20/16 A2952 1230 78 2100 220/09 RMK AO2 RAE2158 P0000
14837KMSN MSN20110622161014706/22/11 16:10:31  5-MIN KMSN 222210Z 20009G14KT 180V240 10SM FEW028 BKN041 OVC060 20/17 A2952 1230 81 2100 200/09G14 180V240 RMK AO2 RAE2158 P0000
14837KMSN MSN20110622161512506/22/11 16:15:31  5-MIN KMSN 222215Z 21007KT 10SM FEW020 BKN041 OVC060 21/17 A2952 1230 78 2200 210/07 RMK AO2 RAE2158 P0000
14837KMSN MSN20110622162014106/22/11 16:20:31  5-MIN KMSN 222220Z 21008KT 170V240 10SM FEW028 BKN041 OVC060 21/17 A2952 1230 78 2200 210/08 170V240 RMK AO2 RAE2158 P0000
14837KMSN MSN20110622162513106/22/11 16:25:31  5-MIN KMSN 222225Z 20010G15KT 10SM FEW028 BKN041 OVC060 21/17 A2952 1230 78 2200 200/10G15 RMK AO2 RAE2158 P0000
14837KMSN MSN20110622163013106/22/11 16:30:31  5-MIN KMSN 222230Z 21009G15KT 10SM FEW028 BKN041 OVC060 21/17 A2952 1230 78 2200 210/09G15 RMK AO2 RAE2158 P0000
14837KMSN MSN20110622163512506/22/11 16:35:31  5-MIN KMSN 222235Z 22008KT 10SM SCT019 SCT025 BKN060 21/17 A2952 1230 78 2200 220/08 RMK AO2 RAE2158 P0000
14837KMSN MSN20110622164012506/22/11 16:40:31  5-MIN KMSN 222240Z 22008KT 10SM SCT019 SCT025 BKN060 21/16 A2952 1230 75 2200 220/08 RMK AO2 RAE2158 P0000
14837KMSN MSN20110622164512506/22/11 16:45:31  5-MIN KMSN 222245Z 22007KT 10SM SCT019 SCT025 BKN060 21/16 A2952 1230 75 2200 220/07 RMK AO2 RAE2158 P0000
14837KMSN MSN20110622165014806/22/11 16:50:31  5-MIN KMSN 222250Z 22007G14KT 10SM SCT021 BKN049 BKN065 21/16 A2952 1230 75 2200 230/07G14 RMK AO2 RAE2158 SLP993 P0000 T02060161
14837KMSN MSN20110622165511706/22/11 16:55:31  5-MIN KMSN 222255Z 20007G14KT 10SM SCT021 BKN030 BKN070 21/16 A2952 1230 75 2200 200/07G14 RMK AO2
14837KMSN MSN20110622170011106/22/11 17:00:31  5-MIN KMSN 222300Z 21007KT 10SM SCT021 BKN030 BKN070 21/17 A2952 1230 78 2200 210/07 RMK AO2
14837KMSN MSN20110622170511706/22/11 17:05:31  5-MIN KMSN 222305Z 21010G17KT 10SM SCT021 BKN030 BKN070 20/16 A2952 1230 78 2100 210/10G17 RMK AO2
14837KMSN MSN20110622171011706/22/11 17:10:31  5-MIN KMSN 222310Z 22008G17KT 10SM FEW017 BKN024 BKN070 20/16 A2952 1230 78 2100 220/08G17 RMK AO2
14837KMSN MSN20110622171511706/22/11 17:15:31  5-MIN KMSN 222315Z 22009G16KT 10SM FEW017 SCT024 BKN070 20/16 A2953 1230 78 2100 220/09G16 RMK AO2
14837KMSN MSN20110622172011706/22/11 17:20:31  5-MIN KMSN 222320Z 21009G15KT 10SM FEW017 SCT024 BKN070 20/16 A2953 1230 78 2100 210/09G15 RMK AO2
14837KMSN MSN20110622172511706/22/11 17:25:31  5-MIN KMSN 222325Z 23008G15KT 10SM FEW017 SCT024 BKN070 20/16 A2952 1230 78 2100 230/08G15 RMK AO2
14837KMSN MSN20110622173011706/22/11 17:30:31  5-MIN KMSN 222330Z VRB05G15KT 10SM FEW017 SCT024 BKN070 20/16 A2952 1230 78 2100 VRB/05G15 RMK AO2
14837KMSN MSN20110622173512706/22/11 17:35:31  5-MIN KMSN 222335Z 22007KT 190V280 10SM FEW017 SCT024 BKN070 20/16 A2952 1230 78 2100 220/07 190V280 RMK AO2
14837KMSN MSN20110622174011106/22/11 17:40:31  5-MIN KMSN 222340Z 22005KT 10SM FEW024 SCT033 BKN070 20/16 A2953 1230 78 2100 230/05 RMK AO2
14837KMSN MSN20110622174511106/22/11 17:45:31  5-MIN KMSN 222345Z 22008KT 10SM FEW024 SCT033 BKN070 20/16 A2953 1230 78 2100 230/08 RMK AO2
14837KMSN MSN20110622175015806/22/11 17:50:31  5-MIN KMSN 222350Z 22007G16KT 10SM FEW024 SCT033 BKN070 20/16 A2953 1230 78 2100 220/07G16 RMK AO2 SLP994 60012 T02000161 10217 20183 58001
14837KMSN MSN20110622175511706/22/11 17:55:31  5-MIN KMSN 222355Z 21006G16KT 10SM FEW024 SCT033 BKN070 20/16 A2953 1230 78 2100 210/06G16 RMK AO2
14837KMSN MSN20110622180011106/22/11 18:00:31  5-MIN KMSN 230000Z 21004KT 10SM FEW024 SCT033 BKN070 20/16 A2953 1230 78 2100 210/04 RMK AO2
14837KMSN MSN20110622180511706/22/11 18:05:31  5-MIN KMSN 230005Z 21008G14KT 10SM SCT020 BKN028 BKN060 20/16 A2953 1230 78 2100 210/08G14 RMK AO2
14837KMSN MSN20110622181011706/22/11 18:10:31  5-MIN KMSN 230010Z 22004G14KT 10SM SCT020 BKN028 BKN060 20/16 A2953 1230 78 2100 220/04G14 RMK AO2
14837KMSN MSN20110622181511106/22/11 18:15:31  5-MIN KMSN 230015Z 20008KT 10SM SCT020 BKN028 BKN060 20/16 A2953 1230 78 2100 200/08 RMK AO2
14837KMSN MSN20110622182011106/22/11 18:20:31  5-MIN KMSN 230020Z 21008KT 10SM SCT020 BKN028 BKN060 20/16 A2953 1230 78 2100 210/08 RMK AO2
14837KMSN MSN20110622182510406/22/11 18:25:31  5-MIN KMSN 230025Z 20008KT 10SM BKN017 OVC023 20/16 A2953 1230 78 2100 200/08 RMK AO2
14837KMSN MSN20110622183010406/22/11 18:30:31  5-MIN KMSN 230030Z 20006KT 10SM BKN017 OVC023 20/16 A2953 1230 78 2100 200/06 RMK AO2
14837KMSN MSN20110622183510406/22/11 18:35:31  5-MIN KMSN 230035Z 22009KT 10SM BKN019 OVC024 20/16 A2953 1230 78 2100 220/09 RMK AO2
14837KMSN MSN20110622184010406/22/11 18:40:31  5-MIN KMSN 230040Z 22005KT 10SM BKN019 OVC026 20/16 A2953 1230 78 2100 220/05 RMK AO2
14837KMSN MSN20110622184511106/22/11 18:45:31  5-MIN KMSN 230045Z VRB05KT 10SM BKN019 BKN028 OVC050 20/16 A2953 1230 78 2100 VRB/05 RMK AO2
14837KMSN MSN20110622185012806/22/11 18:50:31  5-MIN KMSN 230050Z 23007KT 10SM BKN019 BKN023 OVC050 19/16 A2953 1230 81 2100 230/07 RMK AO2 SLP996 T01940161
14837KMSN MSN20110622185511106/22/11 18:55:31  5-MIN KMSN 230055Z VRB06KT 10SM BKN019 BKN023 OVC050 19/16 A2953 1230 81 2100 VRB/06 RMK AO2
14837KMSN MSN20110622190011106/22/11 19:00:31  5-MIN KMSN 230100Z 22004KT 10SM BKN019 BKN025 OVC042 19/16 A2953 1230 81 2100 220/04 RMK AO2
14837KMSN MSN20110622190511106/22/11 19:05:31  5-MIN KMSN 230105Z 22005KT 10SM BKN021 BKN028 OVC042 19/16 A2953 1230 81 2100 220/05 RMK AO2
14837KMSN MSN20110622191011106/22/11 19:10:31  5-MIN KMSN 230110Z 22006KT 10SM BKN018 BKN023 OVC042 19/16 A2953 1230 81 2100 230/06 RMK AO2
14837KMSN MSN20110622191510406/22/11 19:15:31  5-MIN KMSN 230115Z 22005KT 10SM BKN018 OVC023 19/16 A2953 1230 81 2100 220/05 RMK AO2
14837KMSN MSN20110622192010406/22/11 19:20:31  5-MIN KMSN 230120Z 20007KT 10SM BKN018 OVC023 19/16 A2953 1230 81 2100 200/07 RMK AO2
14837KMSN MSN20110622192510406/22/11 19:25:31  5-MIN KMSN 230125Z 20005KT 10SM BKN018 OVC023 19/16 A2953 1230 81 2100 200/05 RMK AO2
14837KMSN MSN20110622193010406/22/11 19:30:31  5-MIN KMSN 230130Z 19006KT 10SM BKN016 OVC022 19/16 A2952 1230 81 2100 200/06 RMK AO2
14837KMSN MSN20110622193510406/22/11 19:35:31  5-MIN KMSN 230135Z 19007KT 10SM BKN016 OVC022 19/16 A2953 1230 81 2100 190/07 RMK AO2
14837KMSN MSN20110622194010406/22/11 19:40:31  5-MIN KMSN 230140Z 21005KT 10SM BKN016 OVC022 19/16 A2953 1230 81 2100 210/05 RMK AO2
14837KMSN MSN20110622194509706/22/11 19:45:31  5-MIN KMSN 230145Z VRB05KT 10SM OVC018 19/16 A2953 1230 81 2100 VRB/05 RMK AO2
14837KMSN MSN20110622195011406/22/11 19:50:31  5-MIN KMSN 230150Z 22005KT 10SM OVC018 19/17 A2953 1230 84 2100 220/05 RMK AO2 SLP995 T01940167
14837KMSN MSN20110622195510406/22/11 19:55:31  5-MIN KMSN 230155Z 22005KT 10SM BKN016 OVC022 19/17 A2953 1230 87 2000 220/05 RMK AO2
14837KMSN MSN20110622200010406/22/11 20:00:31  5-MIN KMSN 230200Z 21005KT 10SM BKN016 OVC022 19/17 A2953 1230 87 2000 220/05 RMK AO2
14837KMSN MSN20110622200510406/22/11 20:05:31  5-MIN KMSN 230205Z 18006KT 10SM BKN014 OVC022 19/17 A2953 1230 87 2000 180/06 RMK AO2
14837KMSN MSN20110622201012606/22/11 20:10:31  5-MIN KMSN 230210Z 20006KT 9SM -DZ BKN014 BKN019 OVC024 19/17 A2953 1230 87 2000 200/06 RMK AO2 DZB09 P0000
14837KMSN MSN20110622201512906/22/11 20:15:31  5-MIN KMSN 230215Z 18006KT 4SM -DZ BR SCT012 BKN017 OVC024 19/17 A2953 1230 87 2000 180/06 RMK AO2 DZB09 P0000
14837KMSN MSN20110622202012906/22/11 20:20:31  5-MIN KMSN 230220Z 19006KT 4SM -DZ BR SCT009 BKN012 OVC024 18/17 A2953 1230 93 1900 190/06 RMK AO2 DZB09 P0000
14837KMSN MSN20110622202512906/22/11 20:25:31  5-MIN KMSN 230225Z 18006KT 4SM -DZ BR SCT009 BKN014 OVC024 18/17 A2953 1230 93 1900 190/06 RMK AO2 DZB09 P0000
14837KMSN MSN20110622203012906/22/11 20:30:31  5-MIN KMSN 230230Z 19006KT 4SM -DZ BR SCT009 BKN014 OVC024 18/17 A2953 1230 93 1900 190/06 RMK AO2 DZB09 P0000
14837KMSN MSN20110622203514106/22/11 20:35:31  5-MIN KMSN 230235Z VRB04KT 4SM -DZ BR FEW005 BKN009 OVC014 18/18 A2953 1230 96 1900 VRB/04 RMK AO2 DZB09 CIG 007V012 P0000
14837KMSN MSN20110622204014406/22/11 20:40:31  5-MIN KMSN 230240Z 19005KT 3SM -DZ BR BKN007 OVC012 18/18 A2953 1230 96 1900 190/05 RMK AO2 SFC VIS 4 DZB09 CIG 005V009 P0000
14837KMSN MSN20110622204513906/22/11 20:45:31  5-MIN KMSN 230245Z 20005KT 3SM -DZ BR BKN007 BKN010 OVC014 18/18 A2953 1230 96 1900 200/05 RMK AO2 SFC VIS 4 DZB09 P0000
14837KMSN MSN20110622205016306/22/11 20:50:31  5-MIN KMSN 230250Z 20006KT 4SM -DZ BR BKN007 OVC012 18/18 A2953 1230 96 1900 200/06 RMK AO2 DZB09 CIG 004V010 SLP996 P0000 60000 T01830178 51005
14837KMSN MSN20110622205512806/22/11 20:55:31  5-MIN KMSN 230255Z 20004KT 4SM -DZ BR BKN007 OVC012 18/17 A2953 1230 93 1900 200/04 RMK AO2 CIG 004V010 P0000
14837KMSN MSN20110622210012806/22/11 21:00:31  5-MIN KMSN 230300Z 20005KT 4SM -DZ BR BKN007 OVC012 18/17 A2953 1230 93 1900 200/05 RMK AO2 CIG 004V011 P0000
14837KMSN MSN20110622210512806/22/11 21:05:31  5-MIN KMSN 230305Z 22003KT 4SM -DZ BR BKN007 OVC012 18/17 A2953 1230 93 1900 220/03 RMK AO2 CIG 004V010 P0000
14837KMSN MSN20110622211013106/22/11 21:10:31  5-MIN KMSN 230310Z 20005KT 3SM -DZ BR OVC007 18/17 A2953 1230 93 1900 200/05 RMK AO2 TWR VIS 4 CIG 004V013 P0001
14837KMSN MSN20110622211513806/22/11 21:15:31  5-MIN KMSN 230315Z 20004KT 3SM -DZ BR BKN007 OVC014 18/17 A2953 1230 93 1900 200/04 RMK AO2 TWR VIS 4 CIG 005V012 P0001
14837KMSN MSN20110622212013806/22/11 21:20:31  5-MIN KMSN 230320Z 21004KT 3SM -DZ BR BKN007 OVC014 18/18 A2953 1230 96 1900 210/04 RMK AO2 TWR VIS 4 CIG 005V012 P0001
14837KMSN MSN20110622212513806/22/11 21:25:31  5-MIN KMSN 230325Z 19005KT 3SM -DZ BR BKN007 OVC014 18/18 A2953 1230 96 1900 200/05 RMK AO2 TWR VIS 4 CIG 005V012 P0002
14837KMSN MSN20110622213013806/22/11 21:30:31  5-MIN KMSN 230330Z 19005KT 3SM -DZ BR BKN007 OVC014 18/17 A2953 1230 93 1900 190/05 RMK AO2 TWR VIS 4 CIG 005V010 P0002
14837KMSN MSN20110622213513806/22/11 21:35:31  5-MIN KMSN 230335Z 21005KT 3SM -DZ BR BKN007 OVC016 18/17 A2953 1230 93 1900 210/05 RMK AO2 TWR VIS 4 CIG 005V010 P0002
14837KMSN MSN20110622214013806/22/11 21:40:31  5-MIN KMSN 230340Z 19006KT 3SM -DZ BR BKN007 OVC016 18/17 A2953 1230 93 1900 200/06 RMK AO2 TWR VIS 4 CIG 005V011 P0002
14837KMSN MSN20110622214512806/22/11 21:45:31  5-MIN KMSN 230345Z 20005KT 4SM -DZ BR BKN007 OVC014 18/18 A2953 1230 96 1900 210/05 RMK AO2 CIG 005V011 P0002
14837KMSN MSN20110622215015706/22/11 21:50:31  5-MIN KMSN 230350Z 19006KT 3SM BR BKN007 OVC014 18/17 A2953 1230 93 1900 190/06 RMK AO2 TWR VIS 4 DZE46 CIG 005V011 SLP994 P0002 T01830172
14837KMSN MSN20110622215512806/22/11 21:55:31  5-MIN KMSN 230355Z 19005KT 3SM BR BKN007 OVC014 18/18 A2953 1230 96 1900 190/05 RMK AO2 TWR VIS 4 CIG 005V011
14837KMSN MSN20110622220010606/22/11 22:00:31  5-MIN KMSN 230400Z 20006KT 3SM BR SCT007 OVC014 18/17 A2952 1230 93 1900 200/06 RMK AO2
14837KMSN MSN20110622220511806/22/11 22:05:31  5-MIN KMSN 230405Z 21005KT 3SM BR BKN007 OVC014 18/17 A2952 1240 93 2000 210/05 RMK AO2 CIG 006V010
14837KMSN MSN20110622221011806/22/11 22:10:31  5-MIN KMSN 230410Z 20005KT 3SM BR BKN007 OVC014 18/17 A2952 1240 93 2000 210/05 RMK AO2 CIG 006V010
14837KMSN MSN20110622221510606/22/11 22:15:31  5-MIN KMSN 230415Z 21005KT 4SM BR FEW007 OVC012 18/17 A2952 1240 93 2000 210/05 RMK AO2
14837KMSN MSN20110622222010606/22/11 22:20:31  5-MIN KMSN 230420Z 21005KT 4SM BR SCT007 OVC012 18/17 A2952 1240 93 2000 220/05 RMK AO2
14837KMSN MSN20110622222510606/22/11 22:25:31  5-MIN KMSN 230425Z 23005KT 4SM BR SCT007 OVC012 18/17 A2952 1240 93 2000 230/05 RMK AO2
14837KMSN MSN20110622223010606/22/11 22:30:31  5-MIN KMSN 230430Z 22005KT 4SM BR SCT007 OVC012 18/17 A2952 1240 93 2000 220/05 RMK AO2
14837KMSN MSN20110622223510606/22/11 22:35:31  5-MIN KMSN 230435Z 21003KT 4SM BR SCT007 OVC012 18/17 A2952 1240 93 2000 210/03 RMK AO2
14837KMSN MSN20110622224009906/22/11 22:40:31  5-MIN KMSN 230440Z 21004KT 4SM BR OVC010 18/17 A2952 1240 93 2000 210/04 RMK AO2
14837KMSN MSN20110622224509906/22/11 22:45:31  5-MIN KMSN 230445Z 22004KT 4SM BR OVC010 18/17 A2952 1230 93 1900 220/04 RMK AO2
14837KMSN MSN20110622225011606/22/11 22:50:31  5-MIN KMSN 230450Z 21004KT 4SM BR OVC010 18/17 A2952 1240 93 2000 210/04 RMK AO2 SLP992 T01830172
14837KMSN MSN20110622225510906/22/11 22:55:31  5-MIN KMSN 230455Z 21004KT 6SM -DZ BR OVC010 18/17 A2952 1240 93 2000 210/04 RMK AO2 P0000
14837KMSN MSN20110622230011606/22/11 23:00:31  5-MIN KMSN 230500Z 20004KT 4SM -DZ BR BKN008 OVC012 18/17 A2952 1240 93 2000 200/04 RMK AO2 P0000
14837KMSN MSN20110622230512106/22/11 23:05:31  5-MIN KMSN 230505Z 23006KT 5SM -DZ BR OVC008 18/17 A2952 1240 93 2000 230/06 RMK AO2 CIG 006V013 P0000
14837KMSN MSN20110622231012106/22/11 23:10:31  5-MIN KMSN 230510Z 22004KT 6SM -DZ BR OVC008 18/17 A2952 1240 93 2000 220/04 RMK AO2 CIG 006V012 P0000
14837KMSN MSN20110622231511806/22/11 23:15:31  5-MIN KMSN 230515Z 21004KT 7SM -DZ OVC008 18/17 A2952 1240 93 2000 210/04 RMK AO2 CIG 006V010 P0000
14837KMSN MSN20110622232012106/22/11 23:20:31  5-MIN KMSN 230520Z 21004KT 4SM -DZ BR OVC008 18/17 A2952 1240 93 2000 220/04 RMK AO2 CIG 006V010 P0000
14837KMSN MSN20110622232512506/22/11 23:25:31  5-MIN KMSN 230525Z 22004KT 2 1/2SM -DZ BR OVC008 18/17 A2952 1240 93 2000 220/04 RMK AO2 CIG 006V010 P0000
14837KMSN MSN20110622233012106/22/11 23:30:31  5-MIN KMSN 230530Z 21003KT 3SM -DZ BR OVC008 18/17 A2952 1240 93 2000 210/03 RMK AO2 CIG 005V010 P0001
14837KMSN MSN20110622233512106/22/11 23:35:31  5-MIN KMSN 230535Z 21004KT 4SM -DZ BR OVC008 18/17 A2952 1240 93 2000 210/04 RMK AO2 CIG 005V010 P0001
14837KMSN MSN20110622234012106/22/11 23:40:31  5-MIN KMSN 230540Z 22004KT 6SM -DZ BR OVC008 18/17 A2951 1240 93 2000 220/04 RMK AO2 CIG 005V010 P0001
14837KMSN MSN20110622234511806/22/11 23:45:31  5-MIN KMSN 230545Z 21004KT 8SM -DZ OVC006 18/17 A2951 1240 93 2000 220/04 RMK AO2 CIG 005V010 P0001
14837KMSN MSN20110622235017106/22/11 23:50:31  5-MIN KMSN 230550Z 22005KT 8SM OVC006 18/17 A2951 1240 93 2000 220/05 RMK AO2 DZE48 CIG 005V011 SLP990 P0001 60003 T01830172 10200 20183 402170183 51002
14837KMSN MSN20110622235512106/22/11 23:55:31  5-MIN KMSN 230555Z 21005KT 6SM -DZ BR OVC006 18/17 A2951 1240 93 2000 210/05 RMK AO2 CIG 005V011 P0000
14837KMSN MSN20110623000011806/23/11 00:00:32  5-MIN KMSN 230600Z 21004KT 7SM -DZ OVC008 18/17 A2951 1250 93 2000 210/04 RMK AO2 CIG 005V012 P0000
14837KMSN MSN20110623000511906/23/11 00:05:31  5-MIN KMSN 230605Z 22005KT 10SM -DZ OVC008 18/17 A2951 1250 93 2000 230/05 RMK AO2 CIG 005V012 P0000
14837KMSN MSN20110623001011906/23/11 00:10:31  5-MIN KMSN 230610Z 22003KT 10SM -DZ OVC008 18/17 A2951 1250 93 2000 220/03 RMK AO2 CIG 005V012 P0000
14837KMSN MSN20110623001511906/23/11 00:15:31  5-MIN KMSN 230615Z 22005KT 10SM -DZ OVC008 18/17 A2951 1250 93 2000 230/05 RMK AO2 CIG 006V012 P0000
14837KMSN MSN20110623002011906/23/11 00:20:31  5-MIN KMSN 230620Z 22005KT 10SM -DZ OVC008 18/17 A2951 1250 93 2000 220/05 RMK AO2 CIG 006V012 P0000
14837KMSN MSN20110623002511906/23/11 00:25:31  5-MIN KMSN 230625Z 22007KT 10SM -DZ OVC008 18/17 A2951 1250 93 2000 220/07 RMK AO2 CIG 007V012 P0000
14837KMSN MSN20110623003011906/23/11 00:30:31  5-MIN KMSN 230630Z 23004KT 10SM -DZ OVC008 18/17 A2951 1250 93 2000 230/04 RMK AO2 CIG 007V010 P0000
14837KMSN MSN20110623003512806/23/11 00:35:31  5-MIN KMSN 230635Z 23004KT 10SM BKN008 OVC013 18/17 A2951 1250 93 2000 230/04 RMK AO2 DZE34 CIG 007V010 P0000
14837KMSN MSN20110623004011606/23/11 00:40:31  5-MIN KMSN 230640Z 22005KT 10SM BKN008 OVC013 18/17 A2951 1250 93 2000 230/05 RMK AO2 DZE34 P0000
14837KMSN MSN20110623004512806/23/11 00:45:31  5-MIN KMSN 230645Z 23003KT 10SM BKN008 OVC013 18/17 A2951 1240 93 2000 230/03 RMK AO2 DZE34 CIG 007V010 P0000
14837KMSN MSN20110623005012806/23/11 00:50:31  5-MIN KMSN 230650Z 22003KT 10SM BKN010 OVC014 18/17 A2951 1240 93 2000 220/03 RMK AO2 DZE34 CIG 007V012 P0000
14837KMSN MSN20110623005510906/23/11 00:55:31  5-MIN KMSN 230655Z 22004KT 10SM OVC010 18/17 A2951 1240 93 2000 230/04 RMK AO2 CIG 007V013
14837KMSN MSN20110623010011606/23/11 01:00:31  5-MIN KMSN 230700Z 21003KT 10SM BKN008 OVC013 18/17 A2951 1240 93 2000 210/03 RMK AO2 CIG 007V011
14837KMSN MSN20110623010510906/23/11 01:05:31  5-MIN KMSN 230705Z VRB04KT 10SM OVC008 18/17 A2951 1240 93 2000 VRB/04 RMK AO2 CIG 007V013
14837KMSN MSN20110623011010906/23/11 01:10:31  5-MIN KMSN 230710Z 23003KT 10SM OVC008 18/17 A2951 1250 93 2000 230/03 RMK AO2 CIG 007V012
14837KMSN MSN20110623011510906/23/11 01:15:31  5-MIN KMSN 230715Z 23003KT 10SM OVC008 18/17 A2951 1250 93 2000 230/03 RMK AO2 CIG 007V011
14837KMSN MSN20110623012010906/23/11 01:20:31  5-MIN KMSN 230720Z 23004KT 10SM OVC008 18/17 A2951 1250 93 2000 230/04 RMK AO2 CIG 007V011
14837KMSN MSN20110623012509706/23/11 01:25:31  5-MIN KMSN 230725Z 23005KT 10SM OVC008 18/17 A2951 1250 93 2000 230/05 RMK AO2
14837KMSN MSN20110623013010906/23/11 01:30:31  5-MIN KMSN 230730Z 21004KT 10SM OVC008 18/17 A2951 1250 93 2000 210/04 RMK AO2 CIG 007V011
14837KMSN MSN20110623013510906/23/11 01:35:31  5-MIN KMSN 230735Z 22003KT 10SM OVC008 18/17 A2951 1250 93 2000 220/03 RMK AO2 CIG 007V011
14837KMSN MSN20110623014010906/23/11 01:40:31  5-MIN KMSN 230740Z 21004KT 10SM OVC008 18/17 A2950 1250 93 2000 210/04 RMK AO2 CIG 006V011
14837KMSN MSN20110623014510906/23/11 01:45:31  5-MIN KMSN 230745Z VRB03KT 10SM OVC008 18/17 A2950 1250 93 2000 VRB/03 RMK AO2 CIG 006V011
14837KMSN MSN20110623015012606/23/11 01:50:31  5-MIN KMSN 230750Z 21003KT 10SM OVC008 18/17 A2951 1250 93 2000 210/03 RMK AO2 CIG 005V011 SLP987 T01830172
14837KMSN MSN20110623015510906/23/11 01:55:31  5-MIN KMSN 230755Z 22004KT 10SM OVC008 18/17 A2951 1250 93 2000 220/04 RMK AO2 CIG 005V011
14837KMSN MSN20110623020010906/23/11 02:00:31  5-MIN KMSN 230800Z 22005KT 10SM OVC008 18/17 A2951 1250 93 2000 220/05 RMK AO2 CIG 005V011
14837KMSN MSN20110623020510906/23/11 02:05:31  5-MIN KMSN 230805Z 23004KT 10SM OVC008 18/17 A2950 1250 93 2000 230/04 RMK AO2 CIG 005V011
14837KMSN MSN20110623021010806/23/11 02:10:31  5-MIN KMSN 230810Z 21004KT 9SM OVC006 18/17 A2951 1250 93 2000 220/04 RMK AO2 CIG 005V010
14837KMSN MSN20110623021510806/23/11 02:15:31  5-MIN KMSN 230815Z 23003KT 7SM OVC006 18/18 A2951 1250 96 2000 230/03 RMK AO2 CIG 004V009
14837KMSN MSN20110623022010806/23/11 02:20:31  5-MIN KMSN 230820Z 22003KT 8SM OVC006 18/18 A2950 1250 96 2000 220/03 RMK AO2 CIG 004V009
14837KMSN MSN20110623022510806/23/11 02:25:31  5-MIN KMSN 230825Z 22004KT 7SM OVC006 18/18 A2950 1250 96 2000 220/04 RMK AO2 CIG 004V009
14837KMSN MSN20110623023009906/23/11 02:30:31  5-MIN KMSN 230830Z 21003KT 6SM BR OVC006 18/18 A2950 1250 96 2000 220/03 RMK AO2
14837KMSN MSN20110623023509906/23/11 02:35:31  5-MIN KMSN 230835Z 22003KT 5SM BR OVC006 18/18 A2951 1250 96 2000 230/03 RMK AO2
14837KMSN MSN20110623024011406/23/11 02:40:31  5-MIN KMSN 230840Z 23003KT 2SM RA BR OVC006 18/18 A2951 1250 96 2000 230/03 RMK AO2 RAB36 P0001
14837KMSN MSN20110623024511906/23/11 02:45:31  5-MIN KMSN 230845Z 00000KT 1 1/4SM -RA BR OVC006 18/18 A2951 1250 96 2000 000/00 RMK AO2 RAB36 P0002
14837KMSN MSN20110623025014706/23/11 02:50:31  5-MIN KMSN 230850Z 00000KT 1 1/4SM RA BR OVC006 18/18 A2951 1250 96 2000 000/00 RMK AO2 RAB36 SLP987 P0004 60004 T01830178 58006
14837KMSN MSN20110623025512606/23/11 02:55:31  5-MIN KMSN 230855Z 00000KT 1 1/4SM RA BR BKN006 BKN011 OVC019 18/18 A2951 1250 96 2000 000/00 RMK AO2 P0002
14837KMSN MSN20110623030012706/23/11 03:00:31  5-MIN KMSN 230900Z 00000KT 1 1/2SM -RA BR SCT006 BKN009 OVC021 18/18 A2951 1250 96 2000 000/00 RMK AO2 P0002
14837KMSN MSN20110623030513506/23/11 03:05:31  5-MIN KMSN 230905Z 00000KT 2SM -RA BR BKN006 BKN013 OVC021 18/18 A2950 1250 96 2000 000/00 RMK AO2 VIS 1 3/4V4 P0003
14837KMSN MSN20110623031012306/23/11 03:10:31  5-MIN KMSN 230910Z 00000KT 3SM -RA BR BKN006 BKN012 OVC021 18/18 A2951 1250 96 2000 000/00 RMK AO2 P0003
14837KMSN MSN20110623031512506/23/11 03:15:31  5-MIN KMSN 230915Z 00000KT 4SM BR BKN006 BKN010 OVC021 18/18 A2950 1250 96 2000 000/00 RMK AO2 RAE14 P0003
14837KMSN MSN20110623032012506/23/11 03:20:31  5-MIN KMSN 230920Z 00000KT 5SM BR BKN006 BKN012 OVC021 18/18 A2950 1250 96 2000 000/00 RMK AO2 RAE14 P0003
14837KMSN MSN20110623032513706/23/11 03:25:31  5-MIN KMSN 230925Z 00000KT 5SM BR BKN006 BKN012 OVC021 18/18 A2951 1250 96 2000 000/00 RMK AO2 RAE14 CIG 003V010 P0003
14837KMSN MSN20110623033013006/23/11 03:30:31  5-MIN KMSN 230930Z 00000KT 5SM BR BKN006 OVC012 18/18 A2951 1250 96 2000 000/00 RMK AO2 RAE14 CIG 004V010 P0003
14837KMSN MSN20110623033513706/23/11 03:35:31  5-MIN KMSN 230935Z 00000KT 6SM BR BKN006 BKN012 OVC028 18/18 A2951 1250 96 2000 000/00 RMK AO2 RAE14 CIG 004V010 P0003
14837KMSN MSN20110623034012506/23/11 03:40:31  5-MIN KMSN 230940Z 00000KT 6SM BR FEW006 SCT009 OVC028 18/18 A2951 1250 96 2000 000/00 RMK AO2 RAE14 P0003
14837KMSN MSN20110623034512506/23/11 03:45:31  5-MIN KMSN 230945Z 00000KT 4SM BR FEW006 BKN015 OVC028 18/18 A2951 1250 96 2000 000/00 RMK AO2 RAE14 P0003
14837KMSN MSN20110623035014206/23/11 03:50:31  5-MIN KMSN 230950Z 00000KT 3SM BR SCT008 BKN023 OVC028 18/18 A2951 1250 96 2000 000/00 RMK AO2 RAE14 SLP989 P0003 T01830178
14837KMSN MSN20110623035511306/23/11 03:55:31  5-MIN KMSN 230955Z 00000KT 4SM BR FEW008 SCT013 OVC026 18/18 A2951 1250 96 2000 000/00 RMK AO2
14837KMSN MSN20110623040011306/23/11 04:00:31  5-MIN KMSN 231000Z 00000KT 4SM BR SCT011 BKN022 OVC026 18/18 A2951 1250 96 2000 000/00 RMK AO2
14837KMSN MSN20110623040511306/23/11 04:05:31  5-MIN KMSN 231005Z 00000KT 4SM BR FEW011 BKN020 OVC026 18/18 A2951 1250 96 2000 000/00 RMK AO2
14837KMSN MSN20110623041011306/23/11 04:10:31  5-MIN KMSN 231010Z 00000KT 5SM BR FEW011 BKN020 OVC026 18/18 A2951 1250 96 2000 000/00 RMK AO2
14837KMSN MSN20110623041511306/23/11 04:15:31  5-MIN KMSN 231015Z 00000KT 6SM BR FEW011 BKN020 OVC028 19/18 A2951 1240 93 2000 000/00 RMK AO2
14837KMSN MSN20110623042010606/23/11 04:20:31  5-MIN KMSN 231020Z 00000KT 6SM BR FEW011 OVC017 19/18 A2951 1240 93 2000 000/00 RMK AO2
14837KMSN MSN20110623042510606/23/11 04:25:31  5-MIN KMSN 231025Z 00000KT 6SM BR FEW010 OVC017 19/18 A2951 1240 93 2000 000/00 RMK AO2
14837KMSN MSN20110623043012606/23/11 04:30:31  5-MIN KMSN 231030Z 00000KT 2 1/2SM -RA BR FEW010 OVC017 19/18 A2951 1240 93 2000 000/00 RMK AO2 RAB29 P0000
14837KMSN MSN20110623043512206/23/11 04:35:31  5-MIN KMSN 231035Z 00000KT 2SM -RA BR FEW008 OVC015 19/18 A2951 1240 93 2000 000/00 RMK AO2 RAB29 P0001
14837KMSN MSN20110623044012206/23/11 04:40:31  5-MIN KMSN 231040Z 00000KT 3SM -RA BR SCT008 OVC015 19/18 A2952 1240 93 2000 000/00 RMK AO2 RAB29 P0001
14837KMSN MSN20110623044513806/23/11 04:45:31  5-MIN KMSN 231045Z VRB06KT 1 1/2SM -RA BR BKN008 OVC013 18/18 A2952 1240 96 2000 VRB/06 RMK AO2 RAB29 CIG 005V008 P0002
14837KMSN MSN20110623045015506/23/11 04:50:31  5-MIN KMSN 231050Z 28006KT 1 1/4SM -RA BR BKN006 OVC013 18/17 A2952 1240 93 2000 280/06 RMK AO2 RAB29 CIG 005V008 SLP991 P0003 T01830172
14837KMSN MSN20110623045512706/23/11 04:55:31  5-MIN KMSN 231055Z 27008KT 2 1/2SM -RA BR SCT006 BKN013 OVC019 18/17 A2952 1240 96 1900 280/08 RMK AO2 P0000
14837KMSN MSN20110623050012806/23/11 05:00:31  5-MIN KMSN 231100Z VRB05KT 3SM -RA BR BKN006 OVC013 18/17 A2952 1240 96 1900 VRB/05 RMK AO2 CIG 005V010 P0000
14837KMSN MSN20110623050514006/23/11 05:05:31  5-MIN KMSN 231105Z VRB05KT 2SM BR BKN006 OVC013 18/17 A2952 1240 93 1900 VRB/05 RMK AO2 TWR VIS 4 RAE02 CIG 004V009 P0000
14837KMSN MSN20110623051012806/23/11 05:10:31  5-MIN KMSN 231110Z 28007KT 2SM BR BKN006 OVC013 18/17 A2952 1240 93 1900 280/07 RMK AO2 TWR VIS 4 RAE02 P0000
14837KMSN MSN20110623051512806/23/11 05:15:31  5-MIN KMSN 231115Z 28008KT 2SM BR BKN006 OVC010 17/17 A2952 1230 96 1800 280/08 RMK AO2 TWR VIS 4 RAE02 P0000
14837KMSN MSN20110623052014606/23/11 05:20:31  5-MIN KMSN 231120Z 28008G17KT 2SM BR BKN006 OVC010 17/16 A2952 1230 93 1800 280/08G17 RMK AO2 TWR VIS 4 RAE02 CIG 004V009 P0000
14837KMSN MSN20110623052515206/23/11 05:25:31  5-MIN KMSN 231125Z 28008G17KT 220V310 6SM BR BKN006 OVC010 17/16 A2952 1230 93 1800 280/08G17 220V310 RMK AO2 RAE02 CIG 004V009 P0000
14837KMSN MSN20110623053012106/23/11 05:30:31  5-MIN KMSN 231130Z 28008KT 10SM OVC010 17/16 A2952 1230 93 1800 280/08 RMK AO2 RAE02 CIG 004V011 P0000
14837KMSN MSN20110623053512006/23/11 05:35:31  5-MIN KMSN 231135Z 28009KT 7SM OVC010 17/16 A2953 1230 93 1800 280/09 RMK AO2 RAE02 CIG 005V011 P0000
14837KMSN MSN20110623054012706/23/11 05:40:31  5-MIN KMSN 231140Z 29007KT 240V320 5SM BR OVC009 17/16 A2953 1230 93 1800 290/07 240V320 RMK AO2 RAE02 P0000
14837KMSN MSN20110623054513006/23/11 05:45:31  5-MIN KMSN 231145Z 28010G15KT 240V310 7SM OVC009 17/16 A2953 1230 93 1800 280/10G15 240V310 RMK AO2 RAE02 P0000
14837KMSN MSN20110623055017806/23/11 05:50:31  5-MIN KMSN 231150Z 29007G17KT 260V320 10SM OVC009 17/16 A2953 1230 90 1800 290/07G17 260V320 RMK AO2 RAE02 SLP996 P0000 60010 70029 T01720156 10189 20172 58002
14837KMSN MSN20110623055512206/23/11 05:55:31  5-MIN KMSN 231155Z 29006G17KT 10SM BKN009 OVC014 17/16 A2953 1230 93 1800 290/06G17 RMK AO2 CIG 007V012
14837KMSN MSN20110623060010406/23/11 06:00:31  5-MIN KMSN 231200Z 29008KT 10SM SCT009 OVC014 17/16 A2953 1230 93 1800 290/08 RMK AO2
14837KMSN MSN20110623060510306/23/11 06:05:31  5-MIN KMSN 231205Z VRB06G14KT 10SM OVC014 17/16 A2953 1230 90 1800 VRB/06G14 RMK AO2
14837KMSN MSN20110623061011006/23/11 06:10:31  5-MIN KMSN 231210Z 29007G14KT 10SM SCT009 OVC014 17/16 A2953 1230 90 1800 290/07G14 RMK AO2
14837KMSN MSN20110623061510406/23/11 06:15:31  5-MIN KMSN 231215Z 28007KT 10SM SCT009 OVC014 17/16 A2953 1220 90 1800 280/07 RMK AO2
14837KMSN MSN20110623062011606/23/11 06:20:31  5-MIN KMSN 231220Z 29009KT 10SM BKN009 OVC014 17/16 A2954 1220 90 1800 290/09 RMK AO2 CIG 007V012
14837KMSN MSN20110623062511606/23/11 06:25:31  5-MIN KMSN 231225Z VRB06KT 10SM BKN009 OVC014 17/16 A2954 1220 93 1700 VRB/06 RMK AO2 CIG 006V012
14837KMSN MSN20110623063011506/23/11 06:30:31  5-MIN KMSN 231230Z 29008KT 8SM BKN007 OVC014 17/16 A2954 1220 93 1700 290/08 RMK AO2 CIG 005V011
14837KMSN MSN20110623063510806/23/11 06:35:31  5-MIN KMSN 231235Z 29007KT 8SM OVC007 17/16 A2954 1220 93 1700 290/07 RMK AO2 CIG 005V011
14837KMSN MSN20110623064010806/23/11 06:40:31  5-MIN KMSN 231240Z 27003KT 9SM OVC007 17/16 A2954 1220 93 1700 270/03 RMK AO2 CIG 005V010
14837KMSN MSN20110623064510806/23/11 06:45:31  5-MIN KMSN 231245Z 28005KT 8SM OVC007 17/16 A2954 1220 93 1700 280/05 RMK AO2 CIG 005V010
14837KMSN MSN20110623065016006/23/11 06:50:31  5-MIN KMSN 231250Z 27008KT 230V300 5SM -RA BR OVC007 17/15 A2954 1220 90 1700 270/08 230V300 RMK AO2 RAB46 CIG 005V012 SLP001 P0000 T01670150
14837KMSN MSN20110623065512706/23/11 06:55:31  5-MIN KMSN 231255Z 27007KT 240V300 4SM BR OVC007 16/15 A2954 1210 93 1700 280/07 240V300 RMK AO2 CIG 005V010
14837KMSN MSN20110623070012906/23/11 07:00:31  5-MIN KMSN 231300Z 29006KT 6SM -DZ BR OVC007 16/15 A2955 1210 93 1700 290/06 RMK AO2 DZB1258 CIG 006V010 P0000
14837KMSN MSN20110623070513206/23/11 07:05:31  5-MIN KMSN 231305Z 29009G15KT 9SM -DZ OVC007 16/14 A2955 1210 90 1700 300/09G15 RMK AO2 DZB1258 CIG 006V011 P0000
14837KMSN MSN20110623071014806/23/11 07:10:31  5-MIN KMSN 231310Z 29007G18KT 240V310 10SM OVC007 16/14 A2955 1210 90 1700 290/07G18 240V310 RMK AO2 DZB1258E07 CIG 006V011 P0000
14837KMSN MSN20110623071513906/23/11 07:15:31  5-MIN KMSN 231315Z 29010G18KT 10SM BKN009 OVC026 16/14 A2955 1210 90 1700 290/10G18 RMK AO2 DZB1258E07 CIG 006V011 P0000
14837KMSN MSN20110623072012706/23/11 07:20:31  5-MIN KMSN 231320Z 29008G16KT 10SM SCT009 OVC028 16/14 A2955 1210 90 1700 290/08G16 RMK AO2 DZB1258E07 P0000
14837KMSN MSN20110623072512706/23/11 07:25:31  5-MIN KMSN 231325Z 29010G16KT 10SM BKN009 OVC028 16/14 A2955 1210 90 1700 290/10G16 RMK AO2 DZB1258E07 P0000
14837KMSN MSN20110623073014306/23/11 07:30:31  5-MIN KMSN 231330Z 28009G16KT 240V300 10SM BKN009 OVC028 16/14 A2955 1200 90 1700 280/09G16 240V300 RMK AO2 DZB1258E07 P0000
14837KMSN MSN20110623073513906/23/11 07:35:31  5-MIN KMSN 231335Z VRB06G15KT 10SM BKN009 OVC028 16/14 A2956 1200 90 1700 VRB/06G15 RMK AO2 DZB1258E07 CIG 007V011 P0000
14837KMSN MSN20110623074013306/23/11 07:40:31  5-MIN KMSN 231340Z 27007KT 10SM BKN009 OVC028 16/14 A2956 1200 90 1700 270/07 RMK AO2 DZB1258E07 CIG 007V011 P0000
14837KMSN MSN20110623074512106/23/11 07:45:31  5-MIN KMSN 231345Z VRB05KT 10SM BKN007 OVC011 16/15 A2956 1200 93 1600 VRB/05 RMK AO2 DZB1258E07 P0000
14837KMSN MSN20110623075015906/23/11 07:50:31  5-MIN KMSN 231350Z 29007KT 240V320 10SM OVC007 16/14 A2956 1200 90 1600 290/07 240V320 RMK AO2 DZB1258E07 CIG 006V009 SLP007 P0000 T01610144
14837KMSN MSN20110623075510906/23/11 07:55:31  5-MIN KMSN 231355Z 29008KT 10SM OVC007 16/14 A2956 1200 90 1600 300/08 RMK AO2 CIG 005V009
14837KMSN MSN20110623080010806/23/11 08:00:31  5-MIN KMSN 231400Z 29005KT 9SM OVC007 16/15 A2956 1200 93 1600 290/05 RMK AO2 CIG 005V009
14837KMSN MSN20110623080509606/23/11 08:05:31  5-MIN KMSN 231405Z 30005KT 8SM OVC005 16/15 A2956 1200 93 1600 300/05 RMK AO2
14837KMSN MSN20110623081009906/23/11 08:10:31  5-MIN KMSN 231410Z 28005KT 6SM BR OVC005 16/15 A2956 1200 93 1600 280/05 RMK AO2
14837KMSN MSN20110623081512106/23/11 08:15:31  5-MIN KMSN 231415Z 26009G15KT 230V290 6SM BR OVC005 16/14 A2957 1190 93 1600 270/09G15 230V290 RMK AO2
14837KMSN MSN20110623082010906/23/11 08:20:31  5-MIN KMSN 231420Z VRB06G15KT 9SM BKN005 OVC009 16/14 A2957 1190 90 1600 VRB/06G15 RMK AO2
14837KMSN MSN20110623082512206/23/11 08:25:31  5-MIN KMSN 231425Z VRB05G15KT 10SM BKN005 OVC011 16/14 A2957 1190 90 1600 VRB/05G15 RMK AO2 CIG 005V009
14837KMSN MSN20110623083011006/23/11 08:30:31  5-MIN KMSN 231430Z VRB05G15KT 10SM SCT005 OVC011 16/14 A2957 1190 86 1600 VRB/05G15 RMK AO2
14837KMSN MSN20110623083512006/23/11 08:35:31  5-MIN KMSN 231435Z 27008KT 240V300 10SM BKN005 OVC011 16/14 A2957 1190 86 1600 280/08 240V300 RMK AO2
14837KMSN MSN20110623084012606/23/11 08:40:31  5-MIN KMSN 231440Z 27009G14KT 220V300 10SM BKN005 OVC011 16/13 A2957 1190 83 1600 270/09G14 220V300 RMK AO2
14837KMSN MSN20110623084510306/23/11 08:45:31  5-MIN KMSN 231445Z VRB04G14KT 10SM OVC013 16/13 A2957 1190 83 1600 VRB/04G14 RMK AO2
14837KMSN MSN20110623085012606/23/11 08:50:31  5-MIN KMSN 231450Z VRB06KT 10SM OVC013 16/13 A2957 1190 83 1600 VRB/06 RMK AO2 SLP012 60000 T01610133 53007
14837KMSN MSN20110623085509706/23/11 08:55:31  5-MIN KMSN 231455Z VRB06KT 10SM OVC013 16/13 A2958 1190 86 1600 VRB/06 RMK AO2
14837KMSN MSN20110623090009706/23/11 09:00:31  5-MIN KMSN 231500Z VRB06KT 10SM OVC013 16/13 A2958 1180 83 1600 VRB/06 RMK AO2
14837KMSN MSN20110623090509706/23/11 09:05:31  5-MIN KMSN 231505Z 28009KT 10SM OVC013 16/13 A2958 1180 83 1600 280/09 RMK AO2
14837KMSN MSN20110623091010306/23/11 09:10:31  5-MIN KMSN 231510Z 29009G18KT 10SM OVC013 16/13 A2958 1180 83 1600 290/09G18 RMK AO2
14837KMSN MSN20110623091510306/23/11 09:15:31  5-MIN KMSN 231515Z 30007G18KT 10SM OVC013 16/13 A2958 1180 83 1600 300/07G18 RMK AO2
14837KMSN MSN20110623092011906/23/11 09:20:31  5-MIN KMSN 231520Z 28008G18KT 250V310 10SM OVC013 16/13 A2958 1180 83 1600 280/08G18 250V310 RMK AO2
14837KMSN MSN20110623092511706/23/11 09:25:31  5-MIN KMSN 231525Z 29010G18KT 10SM BKN013 BKN019 OVC036 16/13 A2958 1180 80 1600 290/10G18 RMK AO2
14837KMSN MSN20110623093011706/23/11 09:30:31  5-MIN KMSN 231530Z 29012G19KT 10SM BKN015 BKN025 OVC034 16/13 A2958 1180 80 1600 290/12G19 RMK AO2
14837KMSN MSN20110623093513306/23/11 09:35:31  5-MIN KMSN 231535Z 29010G19KT 250V310 10SM BKN015 BKN025 OVC036 16/13 A2958 1180 80 1600 290/10G19 250V310 RMK AO2
14837KMSN MSN20110623094011706/23/11 09:40:31  5-MIN KMSN 231540Z 30010G17KT 10SM BKN015 BKN025 OVC036 16/13 A2958 1180 80 1600 300/10G17 RMK AO2
14837KMSN MSN20110623094511606/23/11 09:45:31  5-MIN KMSN 231545Z 29011G17KT 7SM BKN015 BKN025 OVC034 16/13 A2958 1180 83 1600 290/11G17 RMK AO2
14837KMSN MSN20110623095014906/23/11 09:50:31  5-MIN KMSN 231550Z 29006G17KT 6SM -DZ SCT015 BKN023 OVC032 16/13 A2958 1180 83 1600 290/06G17 RMK AO2 DZB46 SLP014 P0000 T01610133
14837KMSN MSN20110623095512606/23/11 09:55:31  5-MIN KMSN 231555Z 30009G14KT 7SM -DZ BKN015 BKN027 OVC035 16/14 A2958 1180 86 1600 300/09G14 RMK AO2 P0000
14837KMSN MSN20110623100012606/23/11 10:00:31  5-MIN KMSN 231600Z VRB05G14KT 7SM -DZ BKN015 BKN027 OVC035 16/13 A2958 1180 83 1600 VRB/05G14 RMK AO2 P0000
14837KMSN MSN20110623100514206/23/11 10:05:31  5-MIN KMSN 231605Z 28009G14KT 250V320 7SM -DZ BKN015 BKN025 OVC032 16/13 A2958 1180 83 1600 290/09G14 250V320 RMK AO2 P0000
14837KMSN MSN20110623101013706/23/11 10:10:31  5-MIN KMSN 231610Z VRB06G14KT 9SM -RA BKN017 BKN025 OVC032 16/13 A2958 1180 83 1600 VRB/06G14 RMK AO2 DZE09RAB09 P0000
14837KMSN MSN20110623101513106/23/11 10:15:31  5-MIN KMSN 231615Z 28010G16KT 10SM -RA SCT015 OVC025 16/13 A2959 1180 80 1600 290/10G16 RMK AO2 DZE09RAB09 P0000
14837KMSN MSN20110623102013006/23/11 10:20:31  5-MIN KMSN 231620Z VRB06G16KT 10SM SCT015 OVC025 16/13 A2959 1170 80 1600 VRB/06G16 RMK AO2 DZE09RAB09E16 P0000
14837KMSN MSN20110623102513106/23/11 10:25:31  5-MIN KMSN 231625Z 29009G17KT 10SM -RA FEW017 OVC025 16/13 A2959 1170 80 1600 300/09G17 RMK AO2 DZE09RAB09 P0000
14837KMSN MSN20110623103013106/23/11 10:30:31  5-MIN KMSN 231630Z 30006G17KT 10SM -RA BKN020 OVC025 16/13 A2959 1170 80 1600 300/06G17 RMK AO2 DZE09RAB09 P0000
14837KMSN MSN20110623103512406/23/11 10:35:31  5-MIN KMSN 231635Z 30006KT 7SM -RA BKN017 OVC025 16/13 A2959 1170 86 1500 300/06 RMK AO2 DZE09RAB09 P0000
14837KMSN MSN20110623104012606/23/11 10:40:31  5-MIN KMSN 231640Z VRB06KT 3SM RA BR BKN017 OVC025 16/13 A2959 1170 86 1500 VRB/06 RMK AO2 DZE09RAB09 P0001
14837KMSN MSN20110623104513406/23/11 10:45:31  5-MIN KMSN 231645Z 30008KT 4SM -RA BR SCT015 BKN021 OVC027 16/13 A2959 1170 86 1500 300/08 RMK AO2 DZE09RAB09 P0002
14837KMSN MSN20110623105014106/23/11 10:50:31  5-MIN KMSN 231650Z 30007KT 9SM -RA SCT015 OVC025 16/13 A2959 1170 86 1500 300/07 RMK AO2 DZE09RAB09 SLP019 P0002 T01560133
14837KMSN MSN20110623105513006/23/11 10:55:31  5-MIN KMSN 231655Z 27008KT 240V310 10SM -RA SCT017 OVC025 16/13 A2959 1170 86 1500 270/08 240V310 RMK AO2 P0000
14837KMSN MSN20110623110012006/23/11 11:00:31  5-MIN KMSN 231700Z VRB05G14KT 10SM -RA SCT015 OVC025 15/13 A2959 1170 90 1500 VRB/05G14 RMK AO2 P0000
14837KMSN MSN20110623110511906/23/11 11:05:31  5-MIN KMSN 231705Z 29005G14KT 9SM -RA SCT015 OVC025 15/13 A2959 1170 90 1500 300/05G14 RMK AO2 P0000
14837KMSN MSN20110623111011606/23/11 11:10:31  5-MIN KMSN 231710Z VRB06KT 4SM -RA BR BKN017 OVC027 15/13 A2959 1170 90 1500 VRB/06 RMK AO2 P0000
14837KMSN MSN20110623111512506/23/11 11:15:31  5-MIN KMSN 231715Z VRB05KT 3SM RA BR BKN015 OVC024 15/13 A2959 1170 90 1500 VRB/05 RMK AO2 TWR VIS 4 P0001
14837KMSN MSN20110623112012606/23/11 11:20:31  5-MIN KMSN 231720Z VRB05KT 3SM -RA BR BKN015 OVC021 15/14 A2959 1170 93 1500 VRB/05 RMK AO2 TWR VIS 5 P0002
14837KMSN MSN20110623112511606/23/11 11:25:31  5-MIN KMSN 231725Z VRB04KT 4SM -RA BR BKN013 OVC021 15/14 A2959 1170 93 1500 VRB/04 RMK AO2 P0002
14837KMSN MSN20110623113011306/23/11 11:30:31  5-MIN KMSN 231730Z VRB05KT 9SM -RA BKN013 OVC019 15/14 A2960 1170 93 1500 VRB/05 RMK AO2 P0002
14837KMSN MSN20110623113510606/23/11 11:35:31  5-MIN KMSN 231735Z 28005KT 8SM -RA OVC011 16/14 A2960 1170 90 1500 290/05 RMK AO2 P0003
14837KMSN MSN20110623114010606/23/11 11:40:31  5-MIN KMSN 231740Z 30007KT 7SM -RA OVC011 16/14 A2960 1170 90 1500 300/07 RMK AO2 P0003
14837KMSN MSN20110623114510606/23/11 11:45:31  5-MIN KMSN 231745Z 29007KT 8SM -RA OVC011 16/14 A2960 1170 90 1500 290/07 RMK AO2 P0003
14837KMSN MSN20110623115015506/23/11 11:50:31  5-MIN KMSN 231750Z VRB06KT 10SM -RA BKN011 OVC018 16/14 A2959 1170 90 1500 VRB/06 RMK AO2 SLP020 P0003 60005 T01560139 10172 20150 51016
14837KMSN MSN20110623115513306/23/11 11:55:31  5-MIN KMSN 231755Z 28006KT 10SM -RA BKN011 BKN016 OVC026 16/14 A2960 1170 90 1500 280/06 RMK AO2 CIG 008V013 P0000
14837KMSN MSN20110623120012106/23/11 12:00:31  5-MIN KMSN 231800Z 28006KT 10SM -RA SCT011 BKN016 OVC026 16/14 A2960 1160 90 1500 280/06 RMK AO2 P0000
14837KMSN MSN20110623120513906/23/11 12:05:31  5-MIN KMSN 231805Z 27007KT 230V320 10SM FEW011 BKN015 OVC026 16/13 A2960 1160 86 1500 270/07 230V320 RMK AO2 RAE05 P0000
14837KMSN MSN20110623121011306/23/11 12:10:31  5-MIN KMSN 231810Z VRB06KT 8SM -RA BKN015 OVC026 16/14 A2960 1160 90 1500 VRB/06 RMK AO2 P0000
14837KMSN MSN20110623121511406/23/11 12:15:31  5-MIN KMSN 231815Z 29005KT 10SM -RA BKN015 OVC026 16/14 A2960 1160 90 1500 290/05 RMK AO2 P0000
14837KMSN MSN20110623122012306/23/11 12:20:31  5-MIN KMSN 231820Z VRB06KT 10SM BKN015 BKN019 OVC024 16/14 A2960 1160 86 1600 VRB/06 RMK AO2 RAE20 P0000
14837KMSN MSN20110623122511606/23/11 12:25:31  5-MIN KMSN 231825Z 29005KT 10SM BKN013 OVC021 16/14 A2960 1160 86 1600 290/05 RMK AO2 RAE20 P0000
14837KMSN MSN20110623123013206/23/11 12:30:31  5-MIN KMSN 231830Z 29007KT 260V330 10SM BKN013 OVC018 16/14 A2960 1160 86 1600 300/07 260V330 RMK AO2 RAE20 P0000
14837KMSN MSN20110623123513206/23/11 12:35:31  5-MIN KMSN 231835Z 29008KT 240V310 10SM BKN013 OVC022 16/14 A2960 1160 86 1600 290/08 240V310 RMK AO2 RAE20 P0000
14837KMSN MSN20110623124010906/23/11 12:40:31  5-MIN KMSN 231840Z 29009KT 10SM OVC015 16/13 A2960 1160 83 1600 300/09 RMK AO2 RAE20 P0000
14837KMSN MSN20110623124513206/23/11 12:45:31  5-MIN KMSN 231845Z 28007KT 240V330 10SM BKN013 OVC018 16/13 A2960 1160 83 1600 290/07 240V330 RMK AO2 RAE20 P0000
14837KMSN MSN20110623125012606/23/11 12:50:31  5-MIN KMSN 231850Z 29006KT 10SM OVC013 16/13 A2960 1160 83 1600 290/06 RMK AO2 RAE20 SLP022 P0000 T01610133
14837KMSN MSN20110623125510706/23/11 12:55:31  5-MIN KMSN 231855Z 28006KT 10SM -RA OVC013 16/13 A2960 1160 83 1600 280/06 RMK AO2 P0000
14837KMSN MSN20110623130010706/23/11 13:00:31  5-MIN KMSN 231900Z 30006KT 10SM -RA OVC013 16/14 A2960 1160 86 1600 300/06 RMK AO2 P0000
14837KMSN MSN20110623130510706/23/11 13:05:31  5-MIN KMSN 231905Z 28007KT 10SM -RA OVC013 16/14 A2961 1160 86 1600 280/07 RMK AO2 P0000
14837KMSN MSN20110623131010706/23/11 13:10:31  5-MIN KMSN 231910Z VRB05KT 10SM -RA OVC013 16/14 A2961 1150 86 1600 VRB/05 RMK AO2 P0000
14837KMSN MSN20110623131510906/23/11 13:15:31  5-MIN KMSN 231915Z 28007KT 10SM OVC013 16/14 A2961 1150 86 1600 280/07 RMK AO2 RAE15 P0000
14837KMSN MSN20110623132010906/23/11 13:20:31  5-MIN KMSN 231920Z 29006KT 10SM OVC013 16/14 A2961 1150 86 1600 290/06 RMK AO2 RAE15 P0000
14837KMSN MSN20110623132512506/23/11 13:25:31  5-MIN KMSN 231925Z 28007KT 230V310 10SM OVC013 16/14 A2961 1150 86 1600 280/07 230V310 RMK AO2 RAE15 P0000
14837KMSN MSN20110623133010906/23/11 13:30:31  5-MIN KMSN 231930Z VRB06KT 10SM OVC011 16/14 A2961 1150 86 1600 VRB/06 RMK AO2 RAE15 P0000
14837KMSN MSN20110623133510906/23/11 13:35:31  5-MIN KMSN 231935Z VRB05KT 10SM OVC011 16/14 A2961 1150 86 1600 VRB/05 RMK AO2 RAE15 P0000
14837KMSN MSN20110623134012106/23/11 13:40:31  5-MIN KMSN 231940Z 30006KT 10SM OVC011 16/14 A2961 1150 86 1600 300/06 RMK AO2 RAE15 CIG 009V015 P0000
14837KMSN MSN20110623134510906/23/11 13:45:31  5-MIN KMSN 231945Z 29006KT 10SM OVC011 16/14 A2961 1150 86 1600 300/06 RMK AO2 RAE15 P0000
14837KMSN MSN20110623135012606/23/11 13:50:31  5-MIN KMSN 231950Z 31006KT 10SM OVC011 16/14 A2962 1150 86 1600 310/06 RMK AO2 RAE15 SLP027 P0000 T01610139
14837KMSN MSN20110623135509706/23/11 13:55:31  5-MIN KMSN 231955Z 31006KT 10SM OVC011 16/14 A2962 1150 86 1600 320/06 RMK AO2
14837KMSN MSN20110623140009706/23/11 14:00:31  5-MIN KMSN 232000Z VRB06KT 10SM OVC011 16/14 A2962 1140 86 1600 VRB/06 RMK AO2
14837KMSN MSN20110623140509706/23/11 14:05:31  5-MIN KMSN 232005Z 30008KT 10SM OVC011 16/14 A2962 1150 86 1600 310/08 RMK AO2
14837KMSN MSN20110623141009706/23/11 14:10:31  5-MIN KMSN 232010Z 31006KT 10SM OVC013 16/14 A2962 1150 86 1600 310/06 RMK AO2
14837KMSN MSN20110623141510306/23/11 14:15:31  5-MIN KMSN 232015Z 31010G17KT 10SM OVC013 16/13 A2962 1150 83 1600 310/10G17 RMK AO2
14837KMSN MSN20110623142010306/23/11 14:20:31  5-MIN KMSN 232020Z 31008G17KT 10SM OVC013 16/13 A2962 1140 83 1600 310/08G17 RMK AO2
14837KMSN MSN20110623142510306/23/11 14:25:31  5-MIN KMSN 232025Z 31009G14KT 10SM OVC013 16/13 A2962 1140 83 1600 310/09G14 RMK AO2
14837KMSN MSN20110623143010306/23/11 14:30:31  5-MIN KMSN 232030Z 30008G14KT 10SM OVC011 16/13 A2962 1140 83 1600 300/08G14 RMK AO2
14837KMSN MSN20110623143509706/23/11 14:35:31  5-MIN KMSN 232035Z 29008KT 10SM OVC011 16/13 A2962 1140 86 1500 290/08 RMK AO2
14837KMSN MSN20110623144010906/23/11 14:40:31  5-MIN KMSN 232040Z 30008KT 10SM OVC011 16/13 A2962 1140 86 1500 300/08 RMK AO2 CIG 009V013
14837KMSN MSN20110623144510806/23/11 14:45:31  5-MIN KMSN 232045Z 29007KT 7SM OVC011 16/13 A2962 1140 86 1500 290/07 RMK AO2 CIG 009V013
14837KMSN MSN20110623145016206/23/11 14:50:31  5-MIN KMSN 232050Z 29007G14KT 4SM -DZ BR OVC011 16/13 A2963 1140 86 1500 300/07G14 RMK AO2 DZB46 CIG 008V013 SLP030 P0000 60000 T01560133 51007
14837KMSN MSN20110623145512706/23/11 14:55:31  5-MIN KMSN 232055Z 29007G14KT 5SM -DZ BR OVC011 16/14 A2963 1130 90 1500 290/07G14 RMK AO2 CIG 008V013 P0000
14837KMSN MSN20110623150011806/23/11 15:00:31  5-MIN KMSN 232100Z 29006KT 7SM -DZ OVC009 16/14 A2963 1130 90 1500 300/06 RMK AO2 CIG 008V013 P0000
14837KMSN MSN20110623150511806/23/11 15:05:31  5-MIN KMSN 232105Z 29009KT 7SM -DZ OVC009 16/14 A2963 1130 90 1500 290/09 RMK AO2 CIG 008V013 P0000
14837KMSN MSN20110623151012106/23/11 15:10:31  5-MIN KMSN 232110Z 31007KT 4SM -DZ BR OVC009 16/14 A2963 1130 90 1500 310/07 RMK AO2 CIG 008V013 P0000
14837KMSN MSN20110623151512106/23/11 15:15:31  5-MIN KMSN 232115Z 30008KT 3SM -DZ BR OVC009 16/14 A2963 1130 90 1500 300/08 RMK AO2 CIG 008V013 P0000
14837KMSN MSN20110623152013106/23/11 15:20:31  5-MIN KMSN 232120Z 30008KT 3SM -DZ BR OVC009 16/14 A2963 1130 90 1500 300/08 RMK AO2 SFC VIS 4 CIG 008V013 P0000
14837KMSN MSN20110623152511906/23/11 15:25:31  5-MIN KMSN 232125Z 30006KT 3SM -DZ BR OVC011 16/14 A2963 1130 90 1500 300/06 RMK AO2 SFC VIS 6 P0000
14837KMSN MSN20110623153011906/23/11 15:30:31  5-MIN KMSN 232130Z 30006KT 10SM -DZ OVC011 16/14 A2963 1130 90 1500 310/06 RMK AO2 CIG 008V014 P0000
14837KMSN MSN20110623153511906/23/11 15:35:31  5-MIN KMSN 232135Z 30007KT 10SM -DZ OVC009 16/14 A2964 1130 90 1500 300/07 RMK AO2 CIG 008V014 P0000
14837KMSN MSN20110623154010706/23/11 15:40:31  5-MIN KMSN 232140Z 31008KT 10SM -DZ OVC011 16/14 A2964 1130 90 1500 320/08 RMK AO2 P0000
14837KMSN MSN20110623154510906/23/11 15:45:31  5-MIN KMSN 232145Z 30006KT 10SM OVC011 16/14 A2964 1130 90 1500 310/06 RMK AO2 DZE45 P0000
14837KMSN MSN20110623155013306/23/11 15:50:31  5-MIN KMSN 232150Z 31005KT 10SM BKN011 OVC016 16/14 A2964 1130 90 1500 310/05 RMK AO2 DZE45 SLP035 P0000 T01560139
14837KMSN MSN20110623155509706/23/11 15:55:31  5-MIN KMSN 232155Z 31008KT 10SM OVC011 16/14 A2964 1120 90 1500 310/08 RMK AO2
14837KMSN MSN20110623160009706/23/11 16:00:31  5-MIN KMSN 232200Z 31006KT 10SM OVC011 16/13 A2964 1120 86 1500 310/06 RMK AO2
14837KMSN MSN20110623160509706/23/11 16:05:31  5-MIN KMSN 232205Z 30005KT 10SM OVC011 16/13 A2964 1120 86 1500 310/05 RMK AO2
14837KMSN MSN20110623161009706/23/11 16:10:31  5-MIN KMSN 232210Z 30006KT 10SM OVC011 16/13 A2965 1120 86 1500 300/06 RMK AO2
14837KMSN MSN20110623161509706/23/11 16:15:31  5-MIN KMSN 232215Z 31006KT 10SM OVC011 16/13 A2965 1120 86 1500 310/06 RMK AO2
14837KMSN MSN20110623162010306/23/11 16:20:31  5-MIN KMSN 232220Z 30010G14KT 10SM OVC011 16/13 A2964 1120 86 1500 300/10G14 RMK AO2
14837KMSN MSN20110623162510306/23/11 16:25:31  5-MIN KMSN 232225Z 30007G14KT 10SM OVC011 16/13 A2964 1120 86 1500 300/07G14 RMK AO2
14837KMSN MSN20110623163009706/23/11 16:30:31  5-MIN KMSN 232230Z 30008KT 10SM OVC011 16/13 A2964 1120 86 1500 310/08 RMK AO2
14837KMSN MSN20110623163509706/23/11 16:35:31  5-MIN KMSN 232235Z 31007KT 10SM OVC011 16/13 A2964 1120 83 1600 310/07 RMK AO2
14837KMSN MSN20110623164009706/23/11 16:40:31  5-MIN KMSN 232240Z 32008KT 10SM OVC011 16/13 A2964 1120 83 1600 320/08 RMK AO2
14837KMSN MSN20110623164510306/23/11 16:45:31  5-MIN KMSN 232245Z 32009G15KT 10SM OVC011 16/13 A2964 1120 86 1500 320/09G15 RMK AO2
14837KMSN MSN20110623165012006/23/11 16:50:31  5-MIN KMSN 232250Z 31010G16KT 10SM OVC011 16/13 A2964 1120 86 1500 310/10G16 RMK AO2 SLP036 T01560133
14837KMSN MSN20110623165509706/23/11 16:55:31  5-MIN KMSN 232255Z 31010KT 10SM OVC011 16/13 A2965 1120 86 1500 310/10 RMK AO2
14837KMSN MSN20110623170010306/23/11 17:00:31  5-MIN KMSN 232300Z 31010G16KT 10SM OVC011 16/13 A2965 1120 86 1500 310/10G16 RMK AO2
14837KMSN MSN20110623170511906/23/11 17:05:31  5-MIN KMSN 232305Z 31009G17KT 290V350 10SM OVC011 16/13 A2965 1120 86 1500 320/09G17 290V350 RMK AO2
14837KMSN MSN20110623171010306/23/11 17:10:31  5-MIN KMSN 232310Z 31008G17KT 10SM OVC011 16/13 A2965 1120 86 1500 320/08G17 RMK AO2
14837KMSN MSN20110623171510306/23/11 17:15:31  5-MIN KMSN 232315Z 30007G17KT 10SM OVC011 16/13 A2965 1110 86 1500 300/07G17 RMK AO2
14837KMSN MSN20110623172010306/23/11 17:20:31  5-MIN KMSN 232320Z 31006G17KT 10SM OVC011 16/13 A2965 1110 86 1500 310/06G17 RMK AO2
14837KMSN MSN20110623172509706/23/11 17:25:31  5-MIN KMSN 232325Z 30007KT 10SM OVC011 16/13 A2965 1110 86 1500 300/07 RMK AO2
14837KMSN MSN20110623173009706/23/11 17:30:31  5-MIN KMSN 232330Z 31008KT 10SM OVC011 16/13 A2965 1110 86 1500 310/08 RMK AO2
14837KMSN MSN20110623173510306/23/11 17:35:31  5-MIN KMSN 232335Z 30008G15KT 10SM OVC011 16/13 A2965 1110 86 1500 300/08G15 RMK AO2
14837KMSN MSN20110623174011906/23/11 17:40:31  5-MIN KMSN 232340Z 30008G15KT 270V330 10SM OVC011 16/13 A2965 1110 86 1500 310/08G15 270V330 RMK AO2
14837KMSN MSN20110623174510306/23/11 17:45:31  5-MIN KMSN 232345Z 31006G15KT 10SM OVC011 16/13 A2966 1110 86 1500 310/06G15 RMK AO2
14837KMSN MSN20110623175014406/23/11 17:50:31  5-MIN KMSN 232350Z 30005G14KT 10SM OVC011 16/13 A2966 1110 86 1500 310/05G14 RMK AO2 SLP041 60000 T01560133 10161 20156 53009
14837KMSN MSN20110623175509706/23/11 17:55:31  5-MIN KMSN 232355Z 30007KT 10SM OVC011 16/13 A2966 1110 86 1500 300/07 RMK AO2
14837KMSN MSN20110623180009706/23/11 18:00:31  5-MIN KMSN 240000Z 31006KT 10SM OVC011 16/13 A2966 1110 86 1500 310/06 RMK AO2
14837KMSN MSN20110623180509706/23/11 18:05:31  5-MIN KMSN 240005Z 31007KT 10SM OVC011 16/13 A2966 1100 86 1500 310/07 RMK AO2
14837KMSN MSN20110623181009706/23/11 18:10:31  5-MIN KMSN 240010Z 30007KT 10SM OVC011 16/13 A2966 1100 86 1500 310/07 RMK AO2
14837KMSN MSN20110623181512506/23/11 18:15:31  5-MIN KMSN 240015Z 31007KT 270V340 10SM OVC011 16/13 A2966 1100 86 1500 310/07 270V340 RMK AO2 CIG 009V013
14837KMSN MSN20110623182010306/23/11 18:20:31  5-MIN KMSN 240020Z 30009G14KT 10SM OVC011 16/13 A2966 1100 86 1500 300/09G14 RMK AO2
14837KMSN MSN20110623182510306/23/11 18:25:31  5-MIN KMSN 240025Z 30008G14KT 10SM OVC011 16/13 A2967 1100 86 1500 300/08G14 RMK AO2
14837KMSN MSN20110623183010306/23/11 18:30:31  5-MIN KMSN 240030Z 28007G14KT 10SM OVC011 16/13 A2967 1100 86 1500 280/07G14 RMK AO2
14837KMSN MSN20110623183509706/23/11 18:35:31  5-MIN KMSN 240035Z 29006KT 10SM OVC011 16/14 A2967 1100 90 1500 300/06 RMK AO2
14837KMSN MSN20110623184009706/23/11 18:40:31  5-MIN KMSN 240040Z 31007KT 10SM OVC011 16/14 A2967 1100 90 1500 310/07 RMK AO2
14837KMSN MSN20110623184509706/23/11 18:45:31  5-MIN KMSN 240045Z 30006KT 10SM OVC011 16/14 A2967 1100 90 1500 300/06 RMK AO2
14837KMSN MSN20110623185011406/23/11 18:50:31  5-MIN KMSN 240050Z VRB06KT 10SM OVC013 16/13 A2967 1100 86 1500 VRB/06 RMK AO2 SLP045 T01560133
14837KMSN MSN20110623185509706/23/11 18:55:31  5-MIN KMSN 240055Z 31005KT 10SM OVC013 16/13 A2967 1100 86 1500 310/05 RMK AO2
14837KMSN MSN20110623190009706/23/11 19:00:31  5-MIN KMSN 240100Z 30007KT 10SM OVC013 16/13 A2967 1100 86 1500 310/07 RMK AO2
14837KMSN MSN20110623190509606/23/11 19:05:31  5-MIN KMSN 240105Z 31008KT 7SM OVC013 16/13 A2967 1100 86 1500 310/08 RMK AO2
14837KMSN MSN20110623191011206/23/11 19:10:31  5-MIN KMSN 240110Z 30007KT 270V330 7SM OVC013 16/13 A2967 1100 86 1500 310/07 270V330 RMK AO2
14837KMSN MSN20110623191509706/23/11 19:15:31  5-MIN KMSN 240115Z 29006KT 10SM OVC013 16/13 A2967 1100 86 1500 290/06 RMK AO2
14837KMSN MSN20110623192009706/23/11 19:20:31  5-MIN KMSN 240120Z 30006KT 10SM OVC013 16/13 A2967 1100 86 1500 300/06 RMK AO2
14837KMSN MSN20110623192509706/23/11 19:25:31  5-MIN KMSN 240125Z 30007KT 10SM OVC011 16/13 A2967 1090 86 1500 300/07 RMK AO2
14837KMSN MSN20110623193009706/23/11 19:30:31  5-MIN KMSN 240130Z VRB05KT 10SM OVC011 16/14 A2967 1100 90 1500 VRB/05 RMK AO2
14837KMSN MSN20110623193509606/23/11 19:35:31  5-MIN KMSN 240135Z 30009KT 9SM OVC011 16/14 A2967 1090 90 1500 300/09 RMK AO2
14837KMSN MSN20110623194010906/23/11 19:40:31  5-MIN KMSN 240140Z 30008KT 3SM BR OVC011 16/13 A2967 1090 86 1500 300/08 RMK AO2 SFC VIS 5
14837KMSN MSN20110623194513106/23/11 19:45:31  5-MIN KMSN 240145Z 30007G15KT 2SM -RA BR OVC011 15/14 A2968 1090 93 1400 300/07G15 RMK AO2 SFC VIS 3 RAB42 P0000
14837KMSN MSN20110623195013806/23/11 19:50:31  5-MIN KMSN 240150Z 30007G15KT 2SM -RA BR OVC011 15/14 A2968 1090 93 1400 310/07G15 RMK AO2 RAB42 SLP048 P0000 T01500139
14837KMSN MSN20110623195512306/23/11 19:55:31  5-MIN KMSN 240155Z 31007KT 1 1/2SM -RA BR OVC011 15/14 A2968 1090 93 1400 310/07 RMK AO2 SFC VIS 2 P0000
14837KMSN MSN20110623200012306/23/11 20:00:31  5-MIN KMSN 240200Z 31006KT 1 1/2SM -RA BR OVC013 15/14 A2968 1090 93 1400 310/06 RMK AO2 SFC VIS 2 P0000
14837KMSN MSN20110623200513006/23/11 20:05:31  5-MIN KMSN 240205Z 31005KT 1 1/2SM -RA BR FEW008 OVC013 15/14 A2968 1090 93 1400 310/05 RMK AO2 SFC VIS 2 P0000
14837KMSN MSN20110623201012306/23/11 20:10:31  5-MIN KMSN 240210Z 29004KT 1 1/2SM -RA BR OVC015 15/14 A2968 1090 93 1400 300/04 RMK AO2 SFC VIS 2 P0000
14837KMSN MSN20110623201513906/23/11 20:15:31  5-MIN KMSN 240215Z 30007KT 260V320 1 1/2SM -RA BR OVC015 15/14 A2968 1090 93 1400 300/07 260V320 RMK AO2 SFC VIS 2 P0000
14837KMSN MSN20110623202012006/23/11 20:20:31  5-MIN KMSN 240220Z 30006KT 3SM -DZ BR OVC015 15/14 A2968 1090 93 1400 300/06 RMK AO2 RAE18DZB18 P0000
14837KMSN MSN20110623202512006/23/11 20:25:31  5-MIN KMSN 240225Z 30007KT 3SM -DZ BR OVC015 15/14 A2968 1090 93 1400 300/07 RMK AO2 RAE18DZB18 P0000
14837KMSN MSN20110623203012706/23/11 20:30:31  5-MIN KMSN 240230Z 31008KT 3SM OVC013 15/14 A2968 1090 93 1400 310/08 RMK AO2 SFC VIS 10 RAE18DZB18E28 P0000
14837KMSN MSN20110623203512706/23/11 20:35:31  5-MIN KMSN 240235Z 31006KT 3SM OVC013 15/13 A2968 1090 90 1400 310/06 RMK AO2 SFC VIS 10 RAE18DZB18E28 P0000
14837KMSN MSN20110623204012706/23/11 20:40:31  5-MIN KMSN 240240Z 31007KT 3SM OVC013 15/13 A2968 1080 90 1400 310/07 RMK AO2 SFC VIS 10 RAE18DZB18E28 P0000
14837KMSN MSN20110623204512706/23/11 20:45:31  5-MIN KMSN 240245Z 31007KT 3SM OVC013 15/13 A2969 1080 90 1400 310/07 RMK AO2 SFC VIS 10 RAE18DZB18E28 P0000
14837KMSN MSN20110623205015606/23/11 20:50:31  5-MIN KMSN 240250Z 31005KT 3SM OVC013 15/13 A2969 1080 90 1400 310/05 RMK AO2 SFC VIS 10 RAE18DZB18E28 SLP052 P0000 60001 T01500133 51010
14837KMSN MSN20110623205510706/23/11 20:55:31  5-MIN KMSN 240255Z 31005KT 3SM OVC013 15/13 A2969 1080 90 1400 310/05 RMK AO2 SFC VIS 10
14837KMSN MSN20110623210010706/23/11 21:00:31  5-MIN KMSN 240300Z 31007KT 3SM OVC013 15/13 A2969 1080 90 1400 310/07 RMK AO2 SFC VIS 10
14837KMSN MSN20110623210510706/23/11 21:05:31  5-MIN KMSN 240305Z 31007KT 3SM OVC013 15/13 A2969 1080 90 1400 320/07 RMK AO2 SFC VIS 10
14837KMSN MSN20110623211010706/23/11 21:10:31  5-MIN KMSN 240310Z VRB06KT 3SM OVC013 15/13 A2969 1070 90 1400 VRB/06 RMK AO2 SFC VIS 10
14837KMSN MSN20110623211511306/23/11 21:15:31  5-MIN KMSN 240315Z 31009G15KT 3SM OVC013 15/13 A2970 1070 90 1400 310/09G15 RMK AO2 SFC VIS 10
14837KMSN MSN20110623212011306/23/11 21:20:31  5-MIN KMSN 240320Z 31007G15KT 3SM OVC013 15/13 A2970 1070 90 1400 310/07G15 RMK AO2 SFC VIS 10
14837KMSN MSN20110623212510706/23/11 21:25:31  5-MIN KMSN 240325Z VRB05KT 3SM OVC013 15/13 A2970 1070 90 1400 VRB/05 RMK AO2 SFC VIS 10
14837KMSN MSN20110623213010706/23/11 21:30:31  5-MIN KMSN 240330Z 31006KT 3SM OVC013 15/13 A2969 1070 90 1400 310/06 RMK AO2 SFC VIS 10
14837KMSN MSN20110623213510706/23/11 21:35:31  5-MIN KMSN 240335Z 31008KT 3SM OVC013 15/13 A2969 1070 90 1400 310/08 RMK AO2 SFC VIS 10
14837KMSN MSN20110623214010706/23/11 21:40:31  5-MIN KMSN 240340Z 31005KT 3SM OVC013 15/13 A2969 1080 86 1400 310/05 RMK AO2 SFC VIS 10
14837KMSN MSN20110623214510706/23/11 21:45:31  5-MIN KMSN 240345Z 32007KT 3SM OVC013 15/13 A2969 1080 90 1400 320/07 RMK AO2 SFC VIS 10
14837KMSN MSN20110623215012406/23/11 21:50:31  5-MIN KMSN 240350Z 31006KT 3SM OVC013 15/13 A2969 1080 90 1400 310/06 RMK AO2 SFC VIS 10 SLP054 T01500133
14837KMSN MSN20110623215511306/23/11 21:55:31  5-MIN KMSN 240355Z 31009G14KT 3SM OVC013 15/13 A2969 1080 90 1400 310/09G14 RMK AO2 SFC VIS 10
14837KMSN MSN20110623220011306/23/11 22:00:31  5-MIN KMSN 240400Z 31009G14KT 3SM OVC013 15/13 A2969 1080 86 1400 320/09G14 RMK AO2 SFC VIS 10
14837KMSN MSN20110623220510306/23/11 22:05:31  5-MIN KMSN 240405Z 31007G17KT 10SM OVC013 15/13 A2969 1080 86 1400 310/07G17 RMK AO2
14837KMSN MSN20110623221010306/23/11 22:10:31  5-MIN KMSN 240410Z 32010G17KT 10SM OVC013 15/13 A2969 1080 86 1400 320/10G17 RMK AO2
14837KMSN MSN20110623221510306/23/11 22:15:31  5-MIN KMSN 240415Z 31008G15KT 10SM OVC013 15/13 A2969 1080 86 1400 310/08G15 RMK AO2
14837KMSN MSN20110623222009706/23/11 22:20:31  5-MIN KMSN 240420Z 32008KT 10SM OVC013 15/13 A2969 1080 86 1400 320/08 RMK AO2
14837KMSN MSN20110623222509706/23/11 22:25:31  5-MIN KMSN 240425Z 31009KT 10SM OVC013 15/13 A2969 1080 86 1400 310/09 RMK AO2
14837KMSN MSN20110623223009706/23/11 22:30:31  5-MIN KMSN 240430Z 31006KT 10SM OVC013 15/13 A2969 1080 86 1400 310/06 RMK AO2
14837KMSN MSN20110623223509706/23/11 22:35:31  5-MIN KMSN 240435Z 30006KT 10SM OVC013 15/13 A2969 1080 86 1400 300/06 RMK AO2
14837KMSN MSN20110623224011306/23/11 22:40:31  5-MIN KMSN 240440Z 31007KT 270V330 10SM OVC013 15/13 A2969 1080 86 1400 310/07 270V330 RMK AO2
14837KMSN MSN20110623224509706/23/11 22:45:31  5-MIN KMSN 240445Z 32006KT 10SM OVC013 15/13 A2969 1070 86 1400 320/06 RMK AO2
14837KMSN MSN20110623225011406/23/11 22:50:31  5-MIN KMSN 240450Z 32008KT 10SM OVC013 15/13 A2969 1070 86 1400 320/08 RMK AO2 SLP055 T01500128
14837KMSN MSN20110623225509706/23/11 22:55:31  5-MIN KMSN 240455Z 32006KT 10SM OVC013 15/13 A2970 1070 86 1400 320/06 RMK AO2
14837KMSN MSN20110623230009706/23/11 23:00:31  5-MIN KMSN 240500Z 32007KT 10SM OVC013 15/13 A2970 1070 86 1400 320/07 RMK AO2
14837KMSN MSN20110623230509706/23/11 23:05:31  5-MIN KMSN 240505Z VRB05KT 10SM OVC013 15/13 A2970 1070 86 1400 VRB/05 RMK AO2
14837KMSN MSN20110623231009706/23/11 23:10:31  5-MIN KMSN 240510Z 32009KT 10SM OVC013 15/13 A2969 1070 86 1400 320/09 RMK AO2
14837KMSN MSN20110623231509706/23/11 23:15:31  5-MIN KMSN 240515Z 33005KT 10SM OVC013 15/13 A2970 1070 86 1400 330/05 RMK AO2
14837KMSN MSN20110623232009706/23/11 23:20:31  5-MIN KMSN 240520Z 32004KT 10SM OVC013 15/13 A2970 1070 86 1400 320/04 RMK AO2
14837KMSN MSN20110623232509706/23/11 23:25:31  5-MIN KMSN 240525Z 32006KT 10SM OVC013 15/13 A2970 1070 86 1400 320/06 RMK AO2
14837KMSN MSN20110623233009706/23/11 23:30:31  5-MIN KMSN 240530Z 32006KT 10SM OVC013 15/13 A2969 1070 86 1400 320/06 RMK AO2
14837KMSN MSN20110623233509706/23/11 23:35:31  5-MIN KMSN 240535Z 33007KT 10SM OVC013 15/13 A2969 1080 86 1400 330/07 RMK AO2
14837KMSN MSN20110623234009706/23/11 23:40:31  5-MIN KMSN 240540Z 32006KT 10SM OVC013 15/13 A2969 1070 86 1400 320/06 RMK AO2
14837KMSN MSN20110623234509706/23/11 23:45:31  5-MIN KMSN 240545Z 33006KT 10SM OVC013 15/13 A2970 1070 86 1400 330/06 RMK AO2
14837KMSN MSN20110623235014806/23/11 23:50:31  5-MIN KMSN 240550Z 32007KT 10SM OVC013 15/13 A2970 1070 86 1400 320/07 RMK AO2 SLP055 60001 T01500128 10156 20150 401890150 53006
14837KMSN MSN20110623235509706/23/11 23:55:31  5-MIN KMSN 240555Z 31006KT 10SM OVC013 15/13 A2970 1070 86 1400 320/06 RMK AO2
14837KMSN MSN20110624000009706/24/11 00:00:32  5-MIN KMSN 240600Z 32006KT 10SM OVC013 15/13 A2970 1070 86 1400 320/06 RMK AO2
14837KMSN MSN20110624000509706/24/11 00:05:31  5-MIN KMSN 240605Z 31007KT 10SM OVC013 15/13 A2970 1070 86 1400 320/07 RMK AO2
14837KMSN MSN20110624001009706/24/11 00:10:31  5-MIN KMSN 240610Z 30004KT 10SM OVC013 15/13 A2970 1070 86 1400 300/04 RMK AO2
14837KMSN MSN20110624001509706/24/11 00:15:31  5-MIN KMSN 240615Z 30006KT 10SM OVC013 14/13 A2970 1070 90 1300 310/06 RMK AO2
14837KMSN MSN20110624002009706/24/11 00:20:31  5-MIN KMSN 240620Z 31006KT 10SM OVC013 14/13 A2970 1070 90 1300 310/06 RMK AO2
14837KMSN MSN20110624002510306/24/11 00:25:31  5-MIN KMSN 240625Z 31006G14KT 10SM OVC013 15/12 A2970 1070 83 1400 320/06G14 RMK AO2
14837KMSN MSN20110624003010306/24/11 00:30:31  5-MIN KMSN 240630Z 31006G14KT 10SM OVC015 14/12 A2970 1070 86 1300 320/06G14 RMK AO2
14837KMSN MSN20110624003509706/24/11 00:35:31  5-MIN KMSN 240635Z 32006KT 10SM OVC015 14/12 A2970 1070 86 1300 320/06 RMK AO2
14837KMSN MSN20110624004009706/24/11 00:40:31  5-MIN KMSN 240640Z 32006KT 10SM OVC015 14/12 A2970 1070 86 1300 320/06 RMK AO2
14837KMSN MSN20110624004509706/24/11 00:45:31  5-MIN KMSN 240645Z 32005KT 10SM OVC015 14/12 A2970 1070 86 1300 320/05 RMK AO2
14837KMSN MSN20110624005011406/24/11 00:50:31  5-MIN KMSN 240650Z 32005KT 10SM OVC015 14/12 A2970 1070 86 1300 320/05 RMK AO2 SLP056 T01440122
14837KMSN MSN20110624005509706/24/11 00:55:31  5-MIN KMSN 240655Z 31006KT 10SM OVC015 14/12 A2970 1070 86 1300 320/06 RMK AO2
14837KMSN MSN20110624010009706/24/11 01:00:31  5-MIN KMSN 240700Z 32005KT 10SM OVC015 14/12 A2970 1070 86 1300 320/05 RMK AO2
14837KMSN MSN20110624010509706/24/11 01:05:31  5-MIN KMSN 240705Z 31006KT 10SM OVC015 14/12 A2970 1070 86 1300 310/06 RMK AO2
14837KMSN MSN20110624011009706/24/11 01:10:31  5-MIN KMSN 240710Z 32004KT 10SM OVC015 14/12 A2970 1070 86 1300 320/04 RMK AO2
14837KMSN MSN20110624011509706/24/11 01:15:31  5-MIN KMSN 240715Z 32005KT 10SM OVC015 14/12 A2970 1070 86 1300 320/05 RMK AO2
14837KMSN MSN20110624012009706/24/11 01:20:31  5-MIN KMSN 240720Z 32007KT 10SM OVC015 14/12 A2970 1070 83 1300 320/07 RMK AO2
14837KMSN MSN20110624012509706/24/11 01:25:31  5-MIN KMSN 240725Z 32006KT 10SM OVC015 14/12 A2970 1070 83 1300 320/06 RMK AO2
14837KMSN MSN20110624013009706/24/11 01:30:31  5-MIN KMSN 240730Z 32006KT 10SM OVC015 14/12 A2970 1070 83 1300 320/06 RMK AO2
14837KMSN MSN20110624013509706/24/11 01:35:31  5-MIN KMSN 240735Z 32006KT 10SM OVC015 14/12 A2970 1070 83 1300 320/06 RMK AO2
14837KMSN MSN20110624014009706/24/11 01:40:31  5-MIN KMSN 240740Z 31006KT 10SM OVC015 14/12 A2970 1070 83 1300 310/06 RMK AO2
14837KMSN MSN20110624014509706/24/11 01:45:31  5-MIN KMSN 240745Z 32008KT 10SM OVC017 14/12 A2970 1070 83 1300 320/08 RMK AO2
14837KMSN MSN20110624015011406/24/11 01:50:31  5-MIN KMSN 240750Z 32007KT 10SM OVC017 14/12 A2970 1070 83 1300 320/07 RMK AO2 SLP055 T01440117
14837KMSN MSN20110624015509706/24/11 01:55:31  5-MIN KMSN 240755Z 32007KT 10SM OVC019 14/12 A2970 1070 83 1300 320/07 RMK AO2
14837KMSN MSN20110624020009706/24/11 02:00:31  5-MIN KMSN 240800Z 32007KT 10SM OVC019 14/12 A2969 1070 83 1300 330/07 RMK AO2
14837KMSN MSN20110624020511106/24/11 02:05:31  5-MIN KMSN 240805Z 32007KT 10SM BKN019 BKN055 OVC110 14/12 A2969 1070 86 1200 320/07 RMK AO2
14837KMSN MSN20110624021011106/24/11 02:10:31  5-MIN KMSN 240810Z 32007KT 10SM BKN019 BKN055 OVC110 14/12 A2969 1070 86 1200 320/07 RMK AO2
14837KMSN MSN20110624021511106/24/11 02:15:31  5-MIN KMSN 240815Z 32006KT 10SM SCT019 BKN055 OVC110 14/12 A2970 1070 86 1200 320/06 RMK AO2
14837KMSN MSN20110624022010406/24/11 02:20:31  5-MIN KMSN 240820Z 32006KT 10SM FEW019 OVC050 14/12 A2970 1070 86 1200 330/06 RMK AO2
14837KMSN MSN20110624022510406/24/11 02:25:31  5-MIN KMSN 240825Z 32007KT 10SM FEW019 OVC050 14/12 A2970 1070 86 1200 320/07 RMK AO2
14837KMSN MSN20110624023010406/24/11 02:30:31  5-MIN KMSN 240830Z 32005KT 10SM SCT019 OVC050 14/12 A2970 1070 86 1200 330/05 RMK AO2
14837KMSN MSN20110624023510406/24/11 02:35:31  5-MIN KMSN 240835Z 32007KT 10SM BKN019 OVC050 14/12 A2970 1070 86 1200 330/07 RMK AO2
14837KMSN MSN20110624024010406/24/11 02:40:31  5-MIN KMSN 240840Z 32006KT 10SM BKN021 OVC050 14/11 A2970 1070 83 1200 320/06 RMK AO2
14837KMSN MSN20110624024510406/24/11 02:45:31  5-MIN KMSN 240845Z 31006KT 10SM BKN021 OVC050 14/11 A2970 1070 83 1200 320/06 RMK AO2
14837KMSN MSN20110624025012706/24/11 02:50:31  5-MIN KMSN 240850Z 32005KT 10SM BKN021 BKN050 14/11 A2970 1060 83 1200 320/05 RMK AO2 SLP058 T01390111 51003
14837KMSN MSN20110624025511106/24/11 02:55:31  5-MIN KMSN 240855Z 32006KT 10SM SCT021 BKN050 BKN075 13/11 A2971 1060 86 1200 320/06 RMK AO2
14837KMSN MSN20110624030011106/24/11 03:00:31  5-MIN KMSN 240900Z 32005KT 10SM SCT021 BKN050 BKN065 13/11 A2971 1060 86 1100 320/05 RMK AO2
14837KMSN MSN20110624030511106/24/11 03:05:31  5-MIN KMSN 240905Z 32005KT 10SM SCT021 SCT050 OVC070 13/11 A2971 1060 86 1100 320/05 RMK AO2
14837KMSN MSN20110624031011106/24/11 03:10:31  5-MIN KMSN 240910Z 32005KT 10SM SCT021 SCT050 OVC070 14/11 A2971 1060 83 1200 320/05 RMK AO2
14837KMSN MSN20110624031510406/24/11 03:15:31  5-MIN KMSN 240915Z 31005KT 10SM SCT021 BKN070 14/11 A2971 1060 83 1200 320/05 RMK AO2
14837KMSN MSN20110624032010406/24/11 03:20:31  5-MIN KMSN 240920Z 31005KT 10SM SCT021 OVC075 14/11 A2971 1060 83 1200 310/05 RMK AO2
14837KMSN MSN20110624032510406/24/11 03:25:31  5-MIN KMSN 240925Z 33006KT 10SM BKN021 OVC070 14/11 A2971 1060 83 1200 330/06 RMK AO2
14837KMSN MSN20110624033010406/24/11 03:30:31  5-MIN KMSN 240930Z 30005KT 10SM SCT021 OVC075 14/11 A2972 1050 83 1200 310/05 RMK AO2
14837KMSN MSN20110624033510406/24/11 03:35:31  5-MIN KMSN 240935Z 31004KT 10SM SCT021 BKN075 14/11 A2972 1050 83 1200 310/04 RMK AO2
14837KMSN MSN20110624034010406/24/11 03:40:31  5-MIN KMSN 240940Z 30005KT 10SM SCT021 BKN075 14/11 A2972 1050 83 1200 300/05 RMK AO2
14837KMSN MSN20110624034510406/24/11 03:45:31  5-MIN KMSN 240945Z 31005KT 10SM SCT021 BKN075 14/11 A2972 1050 83 1200 310/05 RMK AO2
14837KMSN MSN20110624035010406/24/11 03:50:31  5-MIN KMSN 240950Z 31003KT 10SM BKN019 BKN075 14/12 A2972 1050 86 1200 310/03 RMK AO2
14837KMSN MSN20110624035510406/24/11 03:55:31  5-MIN KMSN 240955Z 29003KT 10SM BKN019 OVC075 14/12 A2972 1050 86 1200 300/03 RMK AO2
14837KMSN MSN20110624040009706/24/11 04:00:31  5-MIN KMSN 241000Z 30003KT 10SM OVC019 14/12 A2972 1050 86 1200 300/03 RMK AO2
14837KMSN MSN20110624040509706/24/11 04:05:31  5-MIN KMSN 241005Z 00000KT 10SM OVC019 14/12 A2972 1050 86 1200 000/00 RMK AO2
14837KMSN MSN20110624041009706/24/11 04:10:31  5-MIN KMSN 241010Z 29004KT 10SM OVC019 14/12 A2972 1050 86 1200 300/04 RMK AO2
14837KMSN MSN20110624041509706/24/11 04:15:31  5-MIN KMSN 241015Z 31004KT 10SM OVC019 14/12 A2972 1050 86 1200 310/04 RMK AO2
14837KMSN MSN20110624042009706/24/11 04:20:31  5-MIN KMSN 241020Z 31005KT 10SM OVC019 14/12 A2972 1050 86 1200 310/05 RMK AO2
14837KMSN MSN20110624042509706/24/11 04:25:31  5-MIN KMSN 241025Z 30003KT 10SM OVC019 14/12 A2972 1050 86 1200 300/03 RMK AO2
14837KMSN MSN20110624043010406/24/11 04:30:31  5-MIN KMSN 241030Z 29003KT 10SM BKN019 OVC027 14/12 A2973 1040 86 1200 290/03 RMK AO2
14837KMSN MSN20110624043510406/24/11 04:35:31  5-MIN KMSN 241035Z 29003KT 10SM BKN022 OVC027 14/12 A2973 1040 86 1200 290/03 RMK AO2
14837KMSN MSN20110624044011106/24/11 04:40:31  5-MIN KMSN 241040Z 29004KT 10SM BKN022 BKN027 OVC050 14/12 A2973 1040 86 1200 290/04 RMK AO2
14837KMSN MSN20110624044511106/24/11 04:45:31  5-MIN KMSN 241045Z 00000KT 10SM SCT018 BKN024 OVC050 14/12 A2973 1040 86 1200 000/00 RMK AO2
14837KMSN MSN20110624045012806/24/11 04:50:31  5-MIN KMSN 241050Z 00000KT 10SM SCT018 BKN024 OVC050 14/12 A2974 1030 86 1200 000/00 RMK AO2 SLP069 T01390117
14837KMSN MSN20110624045510406/24/11 04:55:31  5-MIN KMSN 241055Z 29004KT 10SM FEW019 OVC024 14/12 A2974 1040 86 1200 300/04 RMK AO2
14837KMSN MSN20110624050010406/24/11 05:00:31  5-MIN KMSN 241100Z 29004KT 10SM FEW019 OVC024 14/12 A2974 1030 86 1200 290/04 RMK AO2
14837KMSN MSN20110624050510406/24/11 05:05:31  5-MIN KMSN 241105Z 29005KT 10SM FEW017 OVC024 14/12 A2974 1030 90 1200 290/05 RMK AO2
14837KMSN MSN20110624051010406/24/11 05:10:31  5-MIN KMSN 241110Z VRB05KT 10SM FEW014 OVC022 14/12 A2974 1030 90 1200 VRB/05 RMK AO2
14837KMSN MSN20110624051509706/24/11 05:15:31  5-MIN KMSN 241115Z 31006KT 10SM OVC022 14/12 A2974 1030 83 1200 310/06 RMK AO2
14837KMSN MSN20110624052010306/24/11 05:20:31  5-MIN KMSN 241120Z 31005KT 9SM SCT015 OVC022 14/12 A2974 1030 86 1200 310/05 RMK AO2
14837KMSN MSN20110624052510306/24/11 05:25:31  5-MIN KMSN 241125Z VRB06KT 9SM FEW013 OVC020 14/12 A2974 1030 86 1200 VRB/06 RMK AO2
14837KMSN MSN20110624053010406/24/11 05:30:31  5-MIN KMSN 241130Z 29004KT 10SM FEW013 OVC020 14/12 A2974 1030 90 1200 290/04 RMK AO2
14837KMSN MSN20110624053510406/24/11 05:35:31  5-MIN KMSN 241135Z 31006KT 10SM SCT013 OVC020 14/12 A2975 1030 90 1200 320/06 RMK AO2
14837KMSN MSN20110624054010406/24/11 05:40:31  5-MIN KMSN 241140Z 31005KT 10SM SCT013 OVC020 14/12 A2975 1020 90 1200 310/05 RMK AO2
14837KMSN MSN20110624054511006/24/11 05:45:31  5-MIN KMSN 241145Z 31008G14KT 10SM FEW011 OVC020 14/12 A2975 1020 90 1200 310/08G14 RMK AO2
14837KMSN MSN20110624055016606/24/11 05:50:31  5-MIN KMSN 241150Z 31007KT 9SM -DZ FEW011 OVC020 14/12 A2975 1020 90 1200 310/07 RMK AO2 DZB50 SLP073 P0000 60000 70006 T01390122 10150 20133 53003
14837KMSN MSN20110624055512006/24/11 05:55:31  5-MIN KMSN 241155Z 30006KT 7SM -DZ FEW011 BKN020 OVC025 14/12 A2975 1030 90 1200 300/06 RMK AO2 P0000
14837KMSN MSN20110624060012006/24/11 06:00:31  5-MIN KMSN 241200Z 32007KT 7SM -DZ FEW011 BKN020 OVC031 14/12 A2975 1030 90 1200 320/07 RMK AO2 P0000
14837KMSN MSN20110624060512306/24/11 06:05:31  5-MIN KMSN 241205Z 31007KT 10SM SCT020 BKN026 OVC031 14/12 A2975 1030 90 1200 320/07 RMK AO2 DZE05 P0000
14837KMSN MSN20110624061012306/24/11 06:10:31  5-MIN KMSN 241210Z 32008KT 10SM SCT020 SCT026 OVC033 14/12 A2975 1030 86 1200 320/08 RMK AO2 DZE05 P0000
14837KMSN MSN20110624061512306/24/11 06:15:31  5-MIN KMSN 241215Z 31007KT 10SM SCT020 BKN025 OVC033 14/12 A2975 1020 86 1200 310/07 RMK AO2 DZE05 P0000
14837KMSN MSN20110624062012906/24/11 06:20:31  5-MIN KMSN 241220Z 31007G14KT 10SM SCT020 BKN025 OVC033 14/12 A2975 1020 83 1200 320/07G14 RMK AO2 DZE05 P0000
14837KMSN MSN20110624062511606/24/11 06:25:31  5-MIN KMSN 241225Z 32008KT 10SM BKN022 OVC033 14/12 A2975 1020 83 1200 320/08 RMK AO2 DZE05 P0000
14837KMSN MSN20110624063012306/24/11 06:30:31  5-MIN KMSN 241230Z 32009KT 10SM FEW018 BKN024 OVC033 14/12 A2975 1020 83 1200 320/09 RMK AO2 DZE05 P0000
14837KMSN MSN20110624063510906/24/11 06:35:31  5-MIN KMSN 241235Z 32009KT 10SM OVC024 14/12 A2975 1020 83 1200 320/09 RMK AO2 DZE05 P0000
14837KMSN MSN20110624064010906/24/11 06:40:31  5-MIN KMSN 241240Z 31008KT 10SM OVC024 14/11 A2976 1020 80 1200 310/08 RMK AO2 DZE05 P0000
14837KMSN MSN20110624064510906/24/11 06:45:31  5-MIN KMSN 241245Z 32007KT 10SM OVC026 14/11 A2976 1010 80 1200 320/07 RMK AO2 DZE05 P0000
14837KMSN MSN20110624065012606/24/11 06:50:31  5-MIN KMSN 241250Z 33008KT 10SM OVC026 14/11 A2976 1010 80 1200 330/08 RMK AO2 DZE05 SLP076 P0000 T01440111
14837KMSN MSN20110624065509706/24/11 06:55:31  5-MIN KMSN 241255Z 31007KT 10SM OVC026 14/11 A2976 1020 80 1200 310/07 RMK AO2
14837KMSN MSN20110624070009706/24/11 07:00:31  5-MIN KMSN 241300Z 30005KT 10SM OVC026 14/11 A2976 1020 80 1200 310/05 RMK AO2
14837KMSN MSN20110624070510306/24/11 07:05:31  5-MIN KMSN 241305Z 31007G14KT 10SM OVC026 15/11 A2976 1010 77 1300 310/07G14 RMK AO2
14837KMSN MSN20110624071011006/24/11 07:10:31  5-MIN KMSN 241310Z 30009G15KT 10SM FEW019 OVC026 15/12 A2976 1010 80 1300 300/09G15 RMK AO2
14837KMSN MSN20110624071511006/24/11 07:15:31  5-MIN KMSN 241315Z 31008G15KT 10SM SCT019 OVC026 15/11 A2976 1010 77 1300 320/08G15 RMK AO2
14837KMSN MSN20110624072010406/24/11 07:20:31  5-MIN KMSN 241320Z 32009KT 10SM SCT019 OVC026 14/11 A2976 1010 80 1200 320/09 RMK AO2
14837KMSN MSN20110624072510406/24/11 07:25:31  5-MIN KMSN 241325Z 30007KT 10SM BKN017 OVC026 14/11 A2976 1010 80 1200 300/07 RMK AO2
14837KMSN MSN20110624073011106/24/11 07:30:31  5-MIN KMSN 241330Z 30008KT 10SM BKN017 BKN024 OVC029 14/11 A2977 1010 80 1200 300/08 RMK AO2
14837KMSN MSN20110624073510406/24/11 07:35:31  5-MIN KMSN 241335Z 31007KT 10SM BKN017 OVC024 14/11 A2977 1010 80 1200 310/07 RMK AO2
14837KMSN MSN20110624074011306/24/11 07:40:31  5-MIN KMSN 241340Z 31007KT 260V330 10SM OVC017 15/12 A2977 1010 80 1300 310/07 260V330 RMK AO2
14837KMSN MSN20110624074509706/24/11 07:45:31  5-MIN KMSN 241345Z 32006KT 10SM OVC017 15/12 A2977 1000 80 1300 320/06 RMK AO2
14837KMSN MSN20110624075011406/24/11 07:50:31  5-MIN KMSN 241350Z 32006KT 10SM OVC017 15/12 A2977 1000 80 1300 320/06 RMK AO2 SLP080 T01500117
14837KMSN MSN20110624075511306/24/11 07:55:31  5-MIN KMSN 241355Z 31007KT 270V340 10SM OVC017 15/12 A2977 1000 80 1300 310/07 270V340 RMK AO2
14837KMSN MSN20110624080009706/24/11 08:00:31  5-MIN KMSN 241400Z 31007KT 10SM OVC017 15/12 A2977 1000 80 1300 310/07 RMK AO2
14837KMSN MSN20110624080510306/24/11 08:05:31  5-MIN KMSN 241405Z 31010G14KT 10SM OVC017 15/12 A2977 1000 80 1300 320/10G14 RMK AO2
14837KMSN MSN20110624081010406/24/11 08:10:31  5-MIN KMSN 241410Z 30007KT 10SM BKN017 OVC021 15/12 A2977 1000 80 1300 310/07 RMK AO2
14837KMSN MSN20110624081509706/24/11 08:15:31  5-MIN KMSN 241415Z VRB06KT 10SM OVC017 15/12 A2977 1000 80 1300 VRB/06 RMK AO2
14837KMSN MSN20110624082009706/24/11 08:20:31  5-MIN KMSN 241420Z 31006KT 10SM OVC017 15/12 A2977 1000 80 1300 310/06 RMK AO2
14837KMSN MSN20110624082509706/24/11 08:25:31  5-MIN KMSN 241425Z 32009KT 10SM OVC017 15/12 A2977 1000 80 1300 330/09 RMK AO2
14837KMSN MSN20110624083009706/24/11 08:30:31  5-MIN KMSN 241430Z 31009KT 10SM OVC017 15/12 A2977 1000 80 1300 320/09 RMK AO2
14837KMSN MSN20110624083510306/24/11 08:35:31  5-MIN KMSN 241435Z 32006G14KT 10SM OVC017 16/12 A2977 1000 80 1300 320/06G14 RMK AO2
14837KMSN MSN20110624084010306/24/11 08:40:31  5-MIN KMSN 241440Z 31007G14KT 10SM OVC017 16/12 A2977 1000 80 1300 310/07G14 RMK AO2
14837KMSN MSN20110624084509706/24/11 08:45:31  5-MIN KMSN 241445Z 32008KT 10SM OVC019 16/12 A2977 1000 77 1300 320/08 RMK AO2
14837KMSN MSN20110624085012606/24/11 08:50:31  5-MIN KMSN 241450Z 31009KT 10SM OVC019 16/12 A2978 1000 80 1300 320/09 RMK AO2 SLP082 60000 T01560122 51014
14837KMSN MSN20110624085509706/24/11 08:55:31  5-MIN KMSN 241455Z 30007KT 10SM OVC019 16/12 A2978 1000 80 1300 310/07 RMK AO2
14837KMSN MSN20110624090010206/24/11 09:00:31  5-MIN KMSN 241500Z 31008G14KT 10SM OVC021 16/12 A2978 990 77 1300 310/08G14 RMK AO2
14837KMSN MSN20110624090509606/24/11 09:05:31  5-MIN KMSN 241505Z 31008KT 10SM OVC021 16/12 A2978 990 80 1300 310/08 RMK AO2
14837KMSN MSN20110624091009606/24/11 09:10:31  5-MIN KMSN 241510Z 32008KT 10SM OVC019 16/12 A2978 990 77 1300 320/08 RMK AO2
14837KMSN MSN20110624091510406/24/11 09:15:31  5-MIN KMSN 241515Z 31008KT 10SM BKN019 OVC039 16/12 A2978 1000 80 1300 310/08 RMK AO2
14837KMSN MSN20110624092011006/24/11 09:20:31  5-MIN KMSN 241520Z 31009G14KT 10SM BKN019 OVC039 16/12 A2978 1000 77 1400 310/09G14 RMK AO2
14837KMSN MSN20110624092511006/24/11 09:25:31  5-MIN KMSN 241525Z 31008G14KT 10SM BKN021 OVC041 16/12 A2977 1000 77 1400 310/08G14 RMK AO2
14837KMSN MSN20110624093010406/24/11 09:30:31  5-MIN KMSN 241530Z 30008KT 10SM BKN021 OVC041 16/12 A2977 1000 77 1400 300/08 RMK AO2
14837KMSN MSN20110624093510406/24/11 09:35:31  5-MIN KMSN 241535Z 31008KT 10SM BKN021 OVC041 16/12 A2977 1000 77 1400 320/08 RMK AO2
14837KMSN MSN20110624094010406/24/11 09:40:31  5-MIN KMSN 241540Z 31006KT 10SM BKN021 OVC041 17/12 A2977 1010 75 1500 310/06 RMK AO2
14837KMSN MSN20110624094511006/24/11 09:45:31  5-MIN KMSN 241545Z 33010G14KT 10SM BKN021 OVC041 17/13 A2977 1010 75 1500 330/10G14 RMK AO2
14837KMSN MSN20110624095012706/24/11 09:50:31  5-MIN KMSN 241550Z 31008G14KT 10SM BKN021 OVC036 17/13 A2977 1010 77 1500 310/08G14 RMK AO2 SLP079 T01670128
14837KMSN MSN20110624095511106/24/11 09:55:31  5-MIN KMSN 241555Z 33009KT 10SM BKN019 BKN034 OVC042 17/12 A2977 1000 72 1500 330/09 RMK AO2
14837KMSN MSN20110624100011106/24/11 10:00:31  5-MIN KMSN 241600Z 31010KT 10SM BKN019 BKN024 OVC042 17/13 A2977 1000 75 1500 320/10 RMK AO2
14837KMSN MSN20110624100511106/24/11 10:05:31  5-MIN KMSN 241605Z 32005KT 10SM BKN019 BKN024 OVC042 17/13 A2977 1000 75 1500 320/05 RMK AO2
14837KMSN MSN20110624101011106/24/11 10:10:31  5-MIN KMSN 241610Z 31007KT 10SM BKN019 BKN024 OVC034 17/13 A2977 1000 75 1500 310/07 RMK AO2
14837KMSN MSN20110624101511106/24/11 10:15:31  5-MIN KMSN 241615Z 32009KT 10SM BKN019 BKN024 OVC034 17/13 A2977 1000 75 1500 320/09 RMK AO2
14837KMSN MSN20110624102011106/24/11 10:20:31  5-MIN KMSN 241620Z 31008KT 10SM BKN021 BKN027 OVC034 17/13 A2977 1000 75 1500 310/08 RMK AO2
14837KMSN MSN20110624102511106/24/11 10:25:31  5-MIN KMSN 241625Z 32008KT 10SM SCT021 BKN025 OVC034 18/13 A2977 1000 72 1600 320/08 RMK AO2
14837KMSN MSN20110624103011106/24/11 10:30:31  5-MIN KMSN 241630Z 32007KT 10SM SCT021 BKN025 OVC034 18/13 A2978 1000 72 1600 320/07 RMK AO2
14837KMSN MSN20110624103511606/24/11 10:35:31  5-MIN KMSN 241635Z 32010G15KT 10SM SCT021 BKN025 OVC045 18/13 A2978 990 72 1600 320/10G15 RMK AO2
14837KMSN MSN20110624104011606/24/11 10:40:31  5-MIN KMSN 241640Z VRB06G15KT 10SM BKN023 BKN034 OVC045 18/13 A2978 990 72 1700 VRB/06G15 RMK AO2
14837KMSN MSN20110624104511606/24/11 10:45:31  5-MIN KMSN 241645Z 31010G14KT 10SM BKN023 BKN034 OVC045 19/13 A2978 990 70 1700 310/10G14 RMK AO2
14837KMSN MSN20110624105013406/24/11 10:50:31  5-MIN KMSN 241650Z 32007G14KT 10SM BKN023 BKN034 OVC045 18/13 A2978 1000 70 1700 330/07G14 RMK AO2 SLP082 T01830128
14837KMSN MSN20110624105511006/24/11 10:55:31  5-MIN KMSN 241655Z 31008KT 10SM BKN023 BKN034 OVC045 18/13 A2978 990 72 1600 310/08 RMK AO2
14837KMSN MSN20110624110011006/24/11 11:00:31  5-MIN KMSN 241700Z 32010KT 10SM BKN023 BKN034 OVC045 18/13 A2979 990 70 1600 330/10 RMK AO2
14837KMSN MSN20110624110511006/24/11 11:05:31  5-MIN KMSN 241705Z 31008KT 10SM SCT023 BKN032 OVC045 18/13 A2978 990 72 1700 310/08 RMK AO2
14837KMSN MSN20110624111011006/24/11 11:10:31  5-MIN KMSN 241710Z 33010KT 10SM SCT023 BKN032 OVC045 19/14 A2978 990 70 1800 330/10 RMK AO2
14837KMSN MSN20110624111511606/24/11 11:15:31  5-MIN KMSN 241715Z 30011G16KT 10SM FEW023 BKN032 OVC047 19/13 A2979 990 70 1700 300/11G16 RMK AO2
14837KMSN MSN20110624112011606/24/11 11:20:31  5-MIN KMSN 241720Z 32008G16KT 10SM FEW023 BKN032 OVC049 19/13 A2978 990 70 1700 320/08G16 RMK AO2
14837KMSN MSN20110624112511606/24/11 11:25:31  5-MIN KMSN 241725Z 32011G16KT 10SM FEW026 BKN034 OVC049 19/13 A2978 990 67 1800 320/11G16 RMK AO2
14837KMSN MSN20110624113011006/24/11 11:30:31  5-MIN KMSN 241730Z 33010KT 10SM FEW026 SCT034 OVC049 19/13 A2978 990 67 1800 340/10 RMK AO2
14837KMSN MSN20110624113510306/24/11 11:35:31  5-MIN KMSN 241735Z 31008KT 10SM SCT034 OVC049 19/14 A2978 990 70 1800 310/08 RMK AO2
14837KMSN MSN20110624114011006/24/11 11:40:31  5-MIN KMSN 241740Z 33009KT 10SM FEW028 BKN034 OVC049 19/14 A2979 990 70 1800 330/09 RMK AO2
14837KMSN MSN20110624114511006/24/11 11:45:31  5-MIN KMSN 241745Z 33010KT 10SM FEW026 BKN034 OVC049 19/13 A2978 990 67 1800 330/10 RMK AO2
14837KMSN MSN20110624115015106/24/11 11:50:31  5-MIN KMSN 241750Z 35011KT 10SM FEW026 SCT034 OVC049 20/13 A2978 990 65 1800 350/11 RMK AO2 SLP083 60000 T02000133 10200 20139 51009
14837KMSN MSN20110624115511006/24/11 11:55:31  5-MIN KMSN 241755Z 35012KT 10SM FEW026 SCT034 BKN049 21/14 A2978 990 65 1900 350/12 RMK AO2
14837KMSN MSN20110624120011006/24/11 12:00:31  5-MIN KMSN 241800Z 33007KT 10SM FEW026 SCT034 BKN049 19/13 A2979 990 65 1800 330/07 RMK AO2
14837KMSN MSN20110624120511606/24/11 12:05:31  5-MIN KMSN 241805Z 33008G16KT 10SM BKN030 BKN036 OVC049 19/13 A2979 990 67 1700 330/08G16 RMK AO2
14837KMSN MSN20110624121010906/24/11 12:10:31  5-MIN KMSN 241810Z 31008G16KT 10SM BKN032 OVC049 18/13 A2979 980 70 1600 320/08G16 RMK AO2
14837KMSN MSN20110624121510306/24/11 12:15:31  5-MIN KMSN 241815Z 32010KT 10SM BKN032 OVC049 18/13 A2979 980 72 1600 330/10 RMK AO2
14837KMSN MSN20110624122009606/24/11 12:20:31  5-MIN KMSN 241820Z 34008KT 10SM OVC034 18/13 A2979 980 70 1600 340/08 RMK AO2
14837KMSN MSN20110624122509606/24/11 12:25:31  5-MIN KMSN 241825Z VRB05KT 10SM OVC036 19/13 A2979 980 70 1700 VRB/05 RMK AO2
14837KMSN MSN20110624123010306/24/11 12:30:31  5-MIN KMSN 241830Z 33009KT 10SM SCT033 OVC043 19/13 A2979 980 67 1800 340/09 RMK AO2
14837KMSN MSN20110624123511006/24/11 12:35:31  5-MIN KMSN 241835Z 33009KT 10SM FEW030 BKN041 OVC049 19/13 A2979 990 67 1800 330/09 RMK AO2
14837KMSN MSN20110624124010306/24/11 12:40:31  5-MIN KMSN 241840Z 34008KT 10SM BKN040 OVC050 21/14 A2979 990 65 1900 340/08 RMK AO2
14837KMSN MSN20110624124511606/24/11 12:45:31  5-MIN KMSN 241845Z 33009G16KT 10SM FEW030 BKN042 OVC050 21/14 A2979 980 65 1900 330/09G16 RMK AO2
14837KMSN MSN20110624125013306/24/11 12:50:31  5-MIN KMSN 241850Z 34008G17KT 10SM FEW030 BKN043 OVC050 20/13 A2979 980 65 1800 340/08G17 RMK AO2 SLP086 T02000133
14837KMSN MSN20110624125510906/24/11 12:55:31  5-MIN KMSN 241855Z 35008G17KT 10SM FEW030 OVC046 20/13 A2979 980 65 1800 350/08G17 RMK AO2
14837KMSN MSN20110624130011606/24/11 13:00:31  5-MIN KMSN 241900Z 34010G15KT 10SM FEW030 BKN043 OVC050 19/13 A2979 980 67 1800 340/10G15 RMK AO2
14837KMSN MSN20110624130510306/24/11 13:05:31  5-MIN KMSN 241905Z 34009KT 10SM FEW030 OVC045 20/13 A2979 980 65 1800 340/09 RMK AO2
14837KMSN MSN20110624131011606/24/11 13:10:31  5-MIN KMSN 241910Z 32009G15KT 10SM FEW030 SCT037 OVC045 20/14 A2980 980 67 1800 320/09G15 RMK AO2
14837KMSN MSN20110624131510306/24/11 13:15:31  5-MIN KMSN 241915Z 32007KT 10SM FEW030 OVC043 20/14 A2979 980 67 1800 320/07 RMK AO2
14837KMSN MSN20110624132010306/24/11 13:20:31  5-MIN KMSN 241920Z 32009KT 10SM FEW030 OVC043 20/13 A2980 980 65 1800 320/09 RMK AO2
14837KMSN MSN20110624132510306/24/11 13:25:31  5-MIN KMSN 241925Z 32006KT 10SM FEW033 OVC045 20/14 A2979 980 67 1800 320/06 RMK AO2
14837KMSN MSN20110624133010306/24/11 13:30:31  5-MIN KMSN 241930Z 32007KT 10SM FEW033 OVC047 20/13 A2979 980 65 1800 320/07 RMK AO2
14837KMSN MSN20110624133510306/24/11 13:35:31  5-MIN KMSN 241935Z 32006KT 10SM SCT033 OVC047 20/13 A2980 980 65 1800 320/06 RMK AO2
14837KMSN MSN20110624134011906/24/11 13:40:31  5-MIN KMSN 241940Z 32008KT 270V340 10SM SCT033 OVC047 20/14 A2979 980 67 1800 320/08 270V340 RMK AO2
14837KMSN MSN20110624134510306/24/11 13:45:31  5-MIN KMSN 241945Z 33009KT 10SM SCT033 OVC049 21/14 A2979 980 65 1900 330/09 RMK AO2
14837KMSN MSN20110624135013606/24/11 13:50:31  5-MIN KMSN 241950Z 32007KT 280V350 10SM FEW033 OVC049 21/13 A2979 980 63 1900 330/07 280V350 RMK AO2 SLP086 T02060133
14837KMSN MSN20110624135510306/24/11 13:55:31  5-MIN KMSN 241955Z 33007KT 10SM SCT033 OVC049 21/14 A2980 980 65 1900 330/07 RMK AO2
14837KMSN MSN20110624140010906/24/11 14:00:31  5-MIN KMSN 242000Z 33006G14KT 10SM BKN033 OVC049 20/13 A2980 980 65 1800 330/06G14 RMK AO2
14837KMSN MSN20110624140511606/24/11 14:05:31  5-MIN KMSN 242005Z 33010G14KT 10SM BKN035 BKN042 OVC049 20/13 A2980 980 65 1800 340/10G14 RMK AO2
14837KMSN MSN20110624141011006/24/11 14:10:31  5-MIN KMSN 242010Z 33007KT 10SM SCT035 SCT042 OVC049 21/14 A2980 980 65 1900 330/07 RMK AO2
14837KMSN MSN20110624141511606/24/11 14:15:31  5-MIN KMSN 242015Z 34010G16KT 10SM FEW033 SCT042 OVC049 21/13 A2980 980 63 1900 340/10G16 RMK AO2
14837KMSN MSN20110624142011606/24/11 14:20:31  5-MIN KMSN 242020Z 32010G16KT 10SM FEW033 BKN044 OVC049 21/13 A2980 970 63 1900 320/10G16 RMK AO2
14837KMSN MSN20110624142510906/24/11 14:25:31  5-MIN KMSN 242025Z 33007G14KT 10SM FEW038 OVC049 21/13 A2980 980 63 1900 330/07G14 RMK AO2
14837KMSN MSN20110624143009606/24/11 14:30:31  5-MIN KMSN 242030Z 33008KT 10SM OVC049 21/13 A2980 970 63 1900 330/08 RMK AO2
14837KMSN MSN20110624143509606/24/11 14:35:31  5-MIN KMSN 242035Z 33007KT 10SM OVC049 21/13 A2980 970 63 1900 330/07 RMK AO2
14837KMSN MSN20110624144009606/24/11 14:40:31  5-MIN KMSN 242040Z 33008KT 10SM OVC049 21/13 A2980 970 63 1900 330/08 RMK AO2
14837KMSN MSN20110624144509606/24/11 14:45:31  5-MIN KMSN 242045Z 32008KT 10SM OVC049 21/13 A2981 970 63 1900 320/08 RMK AO2
14837KMSN MSN20110624145011906/24/11 14:50:31  5-MIN KMSN 242050Z 33008KT 10SM OVC049 21/13 A2980 970 60 1900 340/08 RMK AO2 SLP091 T02060128 53003
14837KMSN MSN20110624145509606/24/11 14:55:31  5-MIN KMSN 242055Z 31006KT 10SM OVC055 21/13 A2980 970 63 1900 310/06 RMK AO2
14837KMSN MSN20110624150009606/24/11 15:00:31  5-MIN KMSN 242100Z 32005KT 10SM BKN055 21/13 A2980 970 63 1900 320/05 RMK AO2
14837KMSN MSN20110624150509606/24/11 15:05:31  5-MIN KMSN 242105Z 32006KT 10SM BKN055 21/13 A2981 970 63 1900 320/06 RMK AO2
14837KMSN MSN20110624151009606/24/11 15:10:31  5-MIN KMSN 242110Z 31005KT 10SM BKN055 20/13 A2981 970 65 1800 320/05 RMK AO2
14837KMSN MSN20110624151509606/24/11 15:15:31  5-MIN KMSN 242115Z 32008KT 10SM BKN055 20/13 A2981 970 65 1800 320/08 RMK AO2
14837KMSN MSN20110624152011006/24/11 15:20:31  5-MIN KMSN 242120Z 32006KT 10SM BKN039 BKN045 OVC055 20/13 A2981 970 65 1800 320/06 RMK AO2
14837KMSN MSN20110624152510306/24/11 15:25:31  5-MIN KMSN 242125Z 32007KT 10SM BKN039 OVC047 20/13 A2981 960 63 1800 320/07 RMK AO2
14837KMSN MSN20110624153010306/24/11 15:30:31  5-MIN KMSN 242130Z 33008KT 10SM BKN039 OVC047 20/13 A2981 960 63 1800 330/08 RMK AO2
14837KMSN MSN20110624153510306/24/11 15:35:31  5-MIN KMSN 242135Z 32006KT 10SM FEW036 OVC049 20/13 A2981 970 63 1800 320/06 RMK AO2
14837KMSN MSN20110624154010306/24/11 15:40:31  5-MIN KMSN 242140Z 33005KT 10SM SCT043 OVC049 20/13 A2981 970 65 1800 330/05 RMK AO2
14837KMSN MSN20110624154510306/24/11 15:45:31  5-MIN KMSN 242145Z 32005KT 10SM FEW043 OVC055 21/13 A2981 970 63 1900 320/05 RMK AO2
14837KMSN MSN20110624155012006/24/11 15:50:31  5-MIN KMSN 242150Z 33006KT 10SM FEW035 OVC055 21/13 A2981 970 63 1900 330/06 RMK AO2 SLP092 T02060133
14837KMSN MSN20110624155510306/24/11 15:55:31  5-MIN KMSN 242155Z 32007KT 10SM FEW035 OVC050 20/13 A2981 970 65 1800 320/07 RMK AO2
14837KMSN MSN20110624160010306/24/11 16:00:31  5-MIN KMSN 242200Z 31005KT 10SM FEW035 OVC050 20/13 A2981 970 65 1800 310/05 RMK AO2
14837KMSN MSN20110624160510306/24/11 16:05:31  5-MIN KMSN 242205Z VRB04KT 10SM FEW035 OVC050 20/13 A2981 970 65 1800 VRB/04 RMK AO2
14837KMSN MSN20110624161010306/24/11 16:10:31  5-MIN KMSN 242210Z 31005KT 10SM FEW035 OVC050 21/13 A2981 970 63 1900 310/05 RMK AO2
14837KMSN MSN20110624161509606/24/11 16:15:31  5-MIN KMSN 242215Z VRB05KT 10SM OVC055 21/13 A2981 970 63 1900 VRB/05 RMK AO2
14837KMSN MSN20110624162009606/24/11 16:20:31  5-MIN KMSN 242220Z 32004KT 10SM OVC055 21/14 A2981 960 65 1900 320/04 RMK AO2
14837KMSN MSN20110624162509606/24/11 16:25:31  5-MIN KMSN 242225Z 32004KT 10SM OVC055 21/13 A2981 970 63 1900 320/04 RMK AO2
14837KMSN MSN20110624163009606/24/11 16:30:31  5-MIN KMSN 242230Z 31005KT 10SM OVC055 21/13 A2981 970 63 1900 310/05 RMK AO2
14837KMSN MSN20110624163509606/24/11 16:35:31  5-MIN KMSN 242235Z 29004KT 10SM OVC055 21/13 A2981 970 63 1900 290/04 RMK AO2
14837KMSN MSN20110624164009606/24/11 16:40:31  5-MIN KMSN 242240Z VRB04KT 10SM OVC055 21/13 A2981 970 63 1900 VRB/04 RMK AO2
14837KMSN MSN20110624164509606/24/11 16:45:31  5-MIN KMSN 242245Z VRB03KT 10SM OVC055 21/14 A2981 970 65 1900 VRB/03 RMK AO2
14837KMSN MSN20110624165012006/24/11 16:50:31  5-MIN KMSN 242250Z 32004KT 10SM FEW040 BKN055 21/13 A2981 960 63 1900 330/04 RMK AO2 SLP094 T02060133
14837KMSN MSN20110624165510306/24/11 16:55:31  5-MIN KMSN 242255Z VRB06KT 10SM FEW040 BKN055 21/13 A2982 960 63 1900 VRB/06 RMK AO2
14837KMSN MSN20110624170010306/24/11 17:00:31  5-MIN KMSN 242300Z 32004KT 10SM FEW040 BKN055 21/13 A2982 960 63 1900 330/04 RMK AO2
14837KMSN MSN20110624170510306/24/11 17:05:31  5-MIN KMSN 242305Z 32004KT 10SM FEW040 BKN055 21/14 A2982 960 63 1900 320/04 RMK AO2
14837KMSN MSN20110624171010306/24/11 17:10:31  5-MIN KMSN 242310Z VRB03KT 10SM FEW040 BKN055 22/14 A2982 960 61 2000 VRB/03 RMK AO2
14837KMSN MSN20110624171510306/24/11 17:15:31  5-MIN KMSN 242315Z 31006KT 10SM FEW040 BKN055 21/13 A2982 960 61 1900 310/06 RMK AO2
14837KMSN MSN20110624172010306/24/11 17:20:31  5-MIN KMSN 242320Z 32004KT 10SM FEW040 BKN055 21/13 A2982 960 61 1900 320/04 RMK AO2
14837KMSN MSN20110624172510306/24/11 17:25:31  5-MIN KMSN 242325Z 30005KT 10SM FEW040 BKN055 21/14 A2982 950 63 1900 300/05 RMK AO2
14837KMSN MSN20110624173010306/24/11 17:30:31  5-MIN KMSN 242330Z 32006KT 10SM FEW042 OVC060 21/13 A2983 950 63 1900 330/06 RMK AO2
14837KMSN MSN20110624173511006/24/11 17:35:31  5-MIN KMSN 242335Z 33004KT 10SM FEW040 SCT050 OVC060 21/13 A2983 950 63 1900 330/04 RMK AO2
14837KMSN MSN20110624174011006/24/11 17:40:31  5-MIN KMSN 242340Z 31005KT 10SM FEW040 SCT050 OVC060 21/13 A2983 950 63 1900 320/05 RMK AO2
14837KMSN MSN20110624174511006/24/11 17:45:31  5-MIN KMSN 242345Z 32006KT 10SM FEW042 SCT050 OVC060 21/13 A2983 950 60 1900 320/06 RMK AO2
14837KMSN MSN20110624175013806/24/11 17:50:31  5-MIN KMSN 242350Z 32005KT 10SM SCT042 OVC060 21/13 A2983 950 63 1900 320/05 RMK AO2 SLP099 T02060133 10217 20183 53006
14837KMSN MSN20110624175510306/24/11 17:55:31  5-MIN KMSN 242355Z 32004KT 10SM SCT042 OVC060 20/13 A2983 950 65 1800 320/04 RMK AO2
14837KMSN MSN20110624180010306/24/11 18:00:31  5-MIN KMSN 250000Z 32003KT 10SM SCT042 OVC060 20/13 A2983 950 63 1800 320/03 RMK AO2
14837KMSN MSN20110624180510306/24/11 18:05:31  5-MIN KMSN 250005Z 32003KT 10SM SCT042 OVC060 20/13 A2983 950 65 1800 320/03 RMK AO2
14837KMSN MSN20110624181010306/24/11 18:10:31  5-MIN KMSN 250010Z 33003KT 10SM SCT042 OVC060 20/13 A2983 950 65 1800 330/03 RMK AO2
14837KMSN MSN20110624181510306/24/11 18:15:31  5-MIN KMSN 250015Z 32004KT 10SM SCT047 OVC060 20/13 A2983 940 65 1800 320/04 RMK AO2
14837KMSN MSN20110624182010306/24/11 18:20:31  5-MIN KMSN 250020Z 32004KT 10SM FEW047 OVC060 20/13 A2983 950 65 1800 330/04 RMK AO2
14837KMSN MSN20110624182510306/24/11 18:25:31  5-MIN KMSN 250025Z 33004KT 10SM FEW047 OVC060 20/13 A2983 950 65 1800 330/04 RMK AO2
14837KMSN MSN20110624183010306/24/11 18:30:31  5-MIN KMSN 250030Z 34003KT 10SM FEW045 OVC060 20/13 A2983 950 65 1800 340/03 RMK AO2
14837KMSN MSN20110624183509606/24/11 18:35:31  5-MIN KMSN 250035Z 33003KT 10SM OVC060 20/13 A2983 950 65 1800 330/03 RMK AO2
14837KMSN MSN20110624184009606/24/11 18:40:31  5-MIN KMSN 250040Z 32004KT 10SM OVC065 20/13 A2983 950 65 1800 320/04 RMK AO2
14837KMSN MSN20110624184509606/24/11 18:45:31  5-MIN KMSN 250045Z 31003KT 10SM OVC065 20/13 A2983 940 65 1800 310/03 RMK AO2
14837KMSN MSN20110624185011306/24/11 18:50:31  5-MIN KMSN 250050Z 31003KT 10SM OVC065 20/13 A2983 940 65 1800 310/03 RMK AO2 SLP101 T02000133
14837KMSN MSN20110624185509606/24/11 18:55:31  5-MIN KMSN 250055Z 00000KT 10SM OVC060 20/13 A2984 940 65 1800 000/00 RMK AO2
14837KMSN MSN20110624190009606/24/11 19:00:31  5-MIN KMSN 250100Z 30003KT 10SM OVC060 20/13 A2984 940 65 1800 300/03 RMK AO2
14837KMSN MSN20110624190509606/24/11 19:05:31  5-MIN KMSN 250105Z 30003KT 10SM OVC060 20/13 A2984 940 65 1800 310/03 RMK AO2
14837KMSN MSN20110624191009606/24/11 19:10:31  5-MIN KMSN 250110Z 31003KT 10SM OVC060 20/13 A2984 940 65 1800 310/03 RMK AO2
14837KMSN MSN20110624191509606/24/11 19:15:31  5-MIN KMSN 250115Z 31003KT 10SM OVC060 20/13 A2984 940 65 1800 310/03 RMK AO2
14837KMSN MSN20110624192009606/24/11 19:20:31  5-MIN KMSN 250120Z 31003KT 10SM OVC060 20/13 A2984 940 65 1800 310/03 RMK AO2
14837KMSN MSN20110624192509606/24/11 19:25:31  5-MIN KMSN 250125Z 31003KT 10SM OVC060 19/13 A2984 940 67 1700 310/03 RMK AO2
14837KMSN MSN20110624193009606/24/11 19:30:31  5-MIN KMSN 250130Z 00000KT 10SM OVC060 19/13 A2984 940 67 1700 000/00 RMK AO2
14837KMSN MSN20110624193509606/24/11 19:35:31  5-MIN KMSN 250135Z 00000KT 10SM OVC060 19/13 A2984 940 67 1700 000/00 RMK AO2
14837KMSN MSN20110624194009606/24/11 19:40:31  5-MIN KMSN 250140Z 00000KT 10SM OVC060 19/13 A2984 940 67 1700 000/00 RMK AO2
14837KMSN MSN20110624194509606/24/11 19:45:31  5-MIN KMSN 250145Z 00000KT 10SM OVC060 19/13 A2984 940 67 1700 000/00 RMK AO2
14837KMSN MSN20110624195011306/24/11 19:50:31  5-MIN KMSN 250150Z 00000KT 10SM BKN060 19/13 A2984 940 67 1700 000/00 RMK AO2 SLP104 T01940133
14837KMSN MSN20110624195509606/24/11 19:55:31  5-MIN KMSN 250155Z 00000KT 10SM OVC060 19/13 A2985 930 70 1600 000/00 RMK AO2
14837KMSN MSN20110624200009606/24/11 20:00:31  5-MIN KMSN 250200Z 00000KT 10SM BKN060 19/13 A2985 930 70 1600 000/00 RMK AO2
14837KMSN MSN20110624200509606/24/11 20:05:31  5-MIN KMSN 250205Z 00000KT 10SM BKN060 19/13 A2985 930 70 1600 000/00 RMK AO2
14837KMSN MSN20110624201009606/24/11 20:10:31  5-MIN KMSN 250210Z 00000KT 10SM BKN060 18/14 A2985 930 75 1600 000/00 RMK AO2
14837KMSN MSN20110624201509606/24/11 20:15:31  5-MIN KMSN 250215Z 00000KT 10SM BKN060 18/13 A2985 930 72 1600 000/00 RMK AO2
14837KMSN MSN20110624202009606/24/11 20:20:31  5-MIN KMSN 250220Z 00000KT 10SM BKN060 18/14 A2985 930 75 1600 000/00 RMK AO2
14837KMSN MSN20110624202509606/24/11 20:25:31  5-MIN KMSN 250225Z 00000KT 10SM BKN060 18/14 A2985 930 81 1500 000/00 RMK AO2
14837KMSN MSN20110624203009606/24/11 20:30:31  5-MIN KMSN 250230Z 00000KT 10SM BKN060 18/14 A2985 930 78 1500 000/00 RMK AO2
14837KMSN MSN20110624203509606/24/11 20:35:31  5-MIN KMSN 250235Z 00000KT 10SM BKN060 18/14 A2985 930 78 1500 000/00 RMK AO2
14837KMSN MSN20110624204009606/24/11 20:40:31  5-MIN KMSN 250240Z 00000KT 10SM BKN060 17/14 A2985 930 80 1400 000/00 RMK AO2
14837KMSN MSN20110624204509606/24/11 20:45:31  5-MIN KMSN 250245Z 00000KT 10SM BKN060 17/14 A2985 930 80 1400 000/00 RMK AO2
14837KMSN MSN20110624205011906/24/11 20:50:31  5-MIN KMSN 250250Z 00000KT 10SM BKN060 17/14 A2985 930 80 1400 000/00 RMK AO2 SLP108 T01720139 53008
14837KMSN MSN20110624205509606/24/11 20:55:31  5-MIN KMSN 250255Z 00000KT 10SM FEW060 17/14 A2986 920 83 1400 000/00 RMK AO2
14837KMSN MSN20110624210009606/24/11 21:00:31  5-MIN KMSN 250300Z 00000KT 10SM FEW060 17/14 A2986 920 83 1400 000/00 RMK AO2
14837KMSN MSN20110624210509606/24/11 21:05:31  5-MIN KMSN 250305Z 00000KT 10SM FEW060 16/14 A2986 920 86 1300 000/00 RMK AO2
14837KMSN MSN20110624211009606/24/11 21:10:31  5-MIN KMSN 250310Z 00000KT 10SM FEW060 16/14 A2986 920 86 1300 000/00 RMK AO2
14837KMSN MSN20110624211509606/24/11 21:15:31  5-MIN KMSN 250315Z 29003KT 10SM FEW060 16/14 A2986 920 90 1200 290/03 RMK AO2
14837KMSN MSN20110624212009606/24/11 21:20:31  5-MIN KMSN 250320Z 00000KT 10SM FEW060 16/14 A2986 920 90 1200 000/00 RMK AO2
14837KMSN MSN20110624212509306/24/11 21:25:31  5-MIN KMSN 250325Z 29003KT 10SM CLR 16/14 A2986 920 86 1300 290/03 RMK AO2
14837KMSN MSN20110624213009306/24/11 21:30:31  5-MIN KMSN 250330Z 30003KT 10SM CLR 16/13 A2986 920 83 1300 300/03 RMK AO2
14837KMSN MSN20110624213509306/24/11 21:35:31  5-MIN KMSN 250335Z 29003KT 10SM CLR 17/13 A2986 920 78 1400 300/03 RMK AO2
14837KMSN MSN20110624214009306/24/11 21:40:31  5-MIN KMSN 250340Z 00000KT 10SM CLR 16/13 A2985 930 86 1200 000/00 RMK AO2
14837KMSN MSN20110624214509306/24/11 21:45:31  5-MIN KMSN 250345Z 00000KT 10SM CLR 16/13 A2985 930 86 1200 000/00 RMK AO2
14837KMSN MSN20110624215011006/24/11 21:50:31  5-MIN KMSN 250350Z 00000KT 10SM CLR 16/13 A2985 930 86 1200 000/00 RMK AO2 SLP108 T01560133
14837KMSN MSN20110624215509306/24/11 21:55:31  5-MIN KMSN 250355Z 00000KT 10SM CLR 15/13 A2985 930 90 1200 000/00 RMK AO2
14837KMSN MSN20110624220009306/24/11 22:00:31  5-MIN KMSN 250400Z 29003KT 10SM CLR 16/13 A2985 930 86 1200 300/03 RMK AO2
14837KMSN MSN20110624220509306/24/11 22:05:31  5-MIN KMSN 250405Z 00000KT 10SM CLR 15/13 A2986 920 90 1200 000/00 RMK AO2
14837KMSN MSN20110624221009306/24/11 22:10:31  5-MIN KMSN 250410Z 29003KT 10SM CLR 16/13 A2986 920 83 1300 290/03 RMK AO2
14837KMSN MSN20110624221509306/24/11 22:15:31  5-MIN KMSN 250415Z 29004KT 10SM CLR 17/13 A2986 920 80 1400 290/04 RMK AO2
14837KMSN MSN20110624222009306/24/11 22:20:31  5-MIN KMSN 250420Z 29003KT 10SM CLR 17/13 A2986 920 80 1400 300/03 RMK AO2
14837KMSN MSN20110624222509306/24/11 22:25:31  5-MIN KMSN 250425Z 00000KT 10SM CLR 16/13 A2986 920 80 1300 000/00 RMK AO2
14837KMSN MSN20110624223009306/24/11 22:30:31  5-MIN KMSN 250430Z 29003KT 10SM CLR 16/13 A2986 920 80 1300 290/03 RMK AO2
14837KMSN MSN20110624223509306/24/11 22:35:31  5-MIN KMSN 250435Z 00000KT 10SM CLR 17/13 A2986 920 77 1400 000/00 RMK AO2
14837KMSN MSN20110624224009306/24/11 22:40:31  5-MIN KMSN 250440Z 00000KT 10SM CLR 16/13 A2986 920 83 1200 000/00 RMK AO2
14837KMSN MSN20110624224509306/24/11 22:45:31  5-MIN KMSN 250445Z 00000KT 10SM CLR 15/13 A2986 920 86 1200 000/00 RMK AO2
14837KMSN MSN20110624225011006/24/11 22:50:31  5-MIN KMSN 250450Z 00000KT 10SM CLR 15/13 A2986 920 86 1200 000/00 RMK AO2 SLP110 T01500128
14837KMSN MSN20110624225509306/24/11 22:55:31  5-MIN KMSN 250455Z 00000KT 10SM CLR 14/13 A2986 920 90 1100 000/00 RMK AO2
14837KMSN MSN20110624230009306/24/11 23:00:31  5-MIN KMSN 250500Z 00000KT 10SM CLR 15/13 A2986 920 86 1200 000/00 RMK AO2
14837KMSN MSN20110624230509306/24/11 23:05:31  5-MIN KMSN 250505Z 00000KT 10SM CLR 14/12 A2986 920 86 1100 000/00 RMK AO2
14837KMSN MSN20110624231009306/24/11 23:10:31  5-MIN KMSN 250510Z 00000KT 10SM CLR 14/12 A2987 910 86 1100 000/00 RMK AO2
14837KMSN MSN20110624231509306/24/11 23:15:31  5-MIN KMSN 250515Z 00000KT 10SM CLR 14/13 A2987 910 90 1100 000/00 RMK AO2
14837KMSN MSN20110624232009306/24/11 23:20:31  5-MIN KMSN 250520Z 00000KT 10SM CLR 14/12 A2987 910 90 1000 000/00 RMK AO2
14837KMSN MSN20110624232509306/24/11 23:25:31  5-MIN KMSN 250525Z 00000KT 10SM CLR 14/12 A2987 910 90 1000 000/00 RMK AO2
14837KMSN MSN20110624233009306/24/11 23:30:31  5-MIN KMSN 250530Z 00000KT 10SM CLR 14/12 A2988 900 90 1000 000/00 RMK AO2
14837KMSN MSN20110624233509306/24/11 23:35:31  5-MIN KMSN 250535Z 00000KT 10SM CLR 14/13 A2988 900 93 1000 000/00 RMK AO2
14837KMSN MSN20110624234009306/24/11 23:40:31  5-MIN KMSN 250540Z 00000KT 10SM CLR 14/13 A2988 900 90 1100 000/00 RMK AO2
14837KMSN MSN20110624234509306/24/11 23:45:31  5-MIN KMSN 250545Z 00000KT 10SM CLR 14/12 A2989 900 90 1000 000/00 RMK AO2
14837KMSN MSN20110624235013806/24/11 23:50:31  5-MIN KMSN 250550Z 00000KT 10SM CLR 14/12 A2989 890 90 1000 000/00 RMK AO2 SLP119 T01390122 10200 20139 402170133 53009
14837KMSN MSN20110624235509206/24/11 23:55:31  5-MIN KMSN 250555Z 00000KT 10SM CLR 13/12 A2989 890 93 900 000/00 RMK AO2
14837KMSN MSN20110625000009306/25/11 00:00:32  5-MIN KMSN 250600Z 00000KT 10SM CLR 14/13 A2989 890 93 1000 000/00 RMK AO2
14837KMSN MSN20110625000509206/25/11 00:05:31  5-MIN KMSN 250605Z 30003KT 10SM CLR 13/12 A2989 890 96 900 300/03 RMK AO2
14837KMSN MSN20110625001009206/25/11 00:10:31  5-MIN KMSN 250610Z 30004KT 10SM CLR 13/12 A2990 880 93 900 300/04 RMK AO2
14837KMSN MSN20110625001509306/25/11 00:15:31  5-MIN KMSN 250615Z 30004KT 10SM CLR 15/13 A2990 880 86 1100 300/04 RMK AO2
14837KMSN MSN20110625002009306/25/11 00:20:31  5-MIN KMSN 250620Z 30004KT 10SM CLR 14/13 A2990 880 90 1100 300/04 RMK AO2
14837KMSN MSN20110625002509306/25/11 00:25:31  5-MIN KMSN 250625Z 30003KT 10SM CLR 14/13 A2990 880 90 1100 300/03 RMK AO2
14837KMSN MSN20110625003009306/25/11 00:30:31  5-MIN KMSN 250630Z 29003KT 10SM CLR 14/13 A2990 880 93 1000 290/03 RMK AO2
14837KMSN MSN20110625003509206/25/11 00:35:31  5-MIN KMSN 250635Z 00000KT 10SM CLR 13/12 A2990 880 93 900 000/00 RMK AO2
14837KMSN MSN20110625004009206/25/11 00:40:31  5-MIN KMSN 250640Z 00000KT 10SM CLR 13/12 A2990 880 89 900 000/00 RMK AO2
14837KMSN MSN20110625004509206/25/11 00:45:31  5-MIN KMSN 250645Z 00000KT 10SM CLR 13/12 A2990 880 89 900 000/00 RMK AO2
14837KMSN MSN20110625005011006/25/11 00:50:31  5-MIN KMSN 250650Z 00000KT 10SM CLR 14/12 A2991 880 90 1000 000/00 RMK AO2 SLP126 T01390122
14837KMSN MSN20110625005509206/25/11 00:55:31  5-MIN KMSN 250655Z 00000KT 10SM CLR 13/12 A2991 880 93 900 000/00 RMK AO2
14837KMSN MSN20110625010009206/25/11 01:00:31  5-MIN KMSN 250700Z 00000KT 10SM CLR 13/12 A2991 880 93 900 000/00 RMK AO2
14837KMSN MSN20110625010509206/25/11 01:05:31  5-MIN KMSN 250705Z 00000KT 10SM CLR 13/12 A2991 880 93 900 000/00 RMK AO2
14837KMSN MSN20110625011009206/25/11 01:10:31  5-MIN KMSN 250710Z 00000KT 10SM CLR 13/12 A2990 880 93 900 000/00 RMK AO2
14837KMSN MSN20110625011509206/25/11 01:15:31  5-MIN KMSN 250715Z 08003KT 10SM CLR 12/11 A2989 890 93 800 080/03 RMK AO2
14837KMSN MSN20110625012009206/25/11 01:20:31  5-MIN KMSN 250720Z 00000KT 10SM CLR 12/11 A2989 890 96 700 000/00 RMK AO2
14837KMSN MSN20110625012509206/25/11 01:25:31  5-MIN KMSN 250725Z 00000KT 10SM CLR 12/11 A2989 890 93 700 000/00 RMK AO2
14837KMSN MSN20110625013009206/25/11 01:30:31  5-MIN KMSN 250730Z 00000KT 10SM CLR 12/11 A2989 890 93 700 000/00 RMK AO2
14837KMSN MSN20110625013509206/25/11 01:35:31  5-MIN KMSN 250735Z 00000KT 10SM CLR 12/11 A2990 880 93 800 000/00 RMK AO2
14837KMSN MSN20110625014009206/25/11 01:40:31  5-MIN KMSN 250740Z 00000KT 10SM CLR 12/11 A2990 880 93 800 000/00 RMK AO2
14837KMSN MSN20110625014509106/25/11 01:45:31  5-MIN KMSN 250745Z 00000KT 9SM CLR 12/11 A2990 880 96 700 000/00 RMK AO2
14837KMSN MSN20110625015010806/25/11 01:50:31  5-MIN KMSN 250750Z 00000KT 7SM CLR 12/12 A2991 880 96 800 000/00 RMK AO2 SLP126 T01220117
14837KMSN MSN20110625015509506/25/11 01:55:31  5-MIN KMSN 250755Z 00000KT 6SM BR CLR 12/12 A2991 870 100 700 000/00 RMK AO2
14837KMSN MSN20110625020009406/25/11 02:00:31  5-MIN KMSN 250800Z 00000KT 5SM BR CLR 12/12 A2992 870 96 800 000/00 RMK AO2
14837KMSN MSN20110625020509506/25/11 02:05:31  5-MIN KMSN 250805Z 00000KT 3SM BR CLR 12/12 A2992 870 100 700 000/00 RMK AO2
14837KMSN MSN20110625021009406/25/11 02:10:31  5-MIN KMSN 250810Z 00000KT 3SM BR CLR 12/11 A2992 870 96 700 000/00 RMK AO2
14837KMSN MSN20110625021509106/25/11 02:15:31  5-MIN KMSN 250815Z 00000KT 7SM CLR 12/11 A2992 870 93 700 000/00 RMK AO2
14837KMSN MSN20110625022009206/25/11 02:20:31  5-MIN KMSN 250820Z 00000KT 10SM CLR 12/11 A2991 870 93 700 000/00 RMK AO2
14837KMSN MSN20110625022509106/25/11 02:25:31  5-MIN KMSN 250825Z 00000KT 8SM CLR 11/11 A2991 870 96 700 000/00 RMK AO2
14837KMSN MSN20110625023009506/25/11 02:30:31  5-MIN KMSN 250830Z 09003KT 3SM BR CLR 11/11 A2991 870 100 700 090/03 RMK AO2
14837KMSN MSN20110625023509406/25/11 02:35:31  5-MIN KMSN 250835Z 00000KT 3SM BR CLR 12/11 A2991 870 93 700 000/00 RMK AO2
14837KMSN MSN20110625024009106/25/11 02:40:31  5-MIN KMSN 250840Z 00000KT 7SM CLR 11/10 A2991 880 93 700 000/00 RMK AO2
14837KMSN MSN20110625024509206/25/11 02:45:31  5-MIN KMSN 250845Z 00000KT 10SM CLR 11/10 A2991 880 93 700 000/00 RMK AO2
14837KMSN MSN20110625025011706/25/11 02:50:31  5-MIN KMSN 250850Z 00000KT 5SM BR CLR 11/11 A2991 880 96 700 000/00 RMK AO2 SLP126 T01110106 53011
14837KMSN MSN20110625025509806/25/11 02:55:31  5-MIN KMSN 250855Z 00000KT 1 1/2SM BR CLR 11/11 A2991 870 96 700 000/00 RMK AO2
14837KMSN MSN20110625030009406/25/11 03:00:31  5-MIN KMSN 250900Z 00000KT 3SM BR CLR 11/11 A2991 870 96 700 000/00 RMK AO2
14837KMSN MSN20110625030509406/25/11 03:05:31  5-MIN KMSN 250905Z 00000KT 3SM BR CLR 11/11 A2991 870 96 700 000/00 RMK AO2
14837KMSN MSN20110625031009406/25/11 03:10:31  5-MIN KMSN 250910Z 00000KT 3SM BR CLR 11/11 A2991 870 96 700 000/00 RMK AO2
14837KMSN MSN20110625031509406/25/11 03:15:31  5-MIN KMSN 250915Z 00000KT 4SM BR CLR 11/11 A2991 870 96 700 000/00 RMK AO2
14837KMSN MSN20110625032009406/25/11 03:20:31  5-MIN KMSN 250920Z 00000KT 4SM BR CLR 12/11 A2992 870 93 700 000/00 RMK AO2
14837KMSN MSN20110625032509406/25/11 03:25:31  5-MIN KMSN 250925Z 00000KT 4SM BR CLR 12/11 A2992 870 96 700 000/00 RMK AO2
14837KMSN MSN20110625033009406/25/11 03:30:31  5-MIN KMSN 250930Z 00000KT 4SM BR CLR 11/11 A2992 860 96 600 000/00 RMK AO2
14837KMSN MSN20110625033509406/25/11 03:35:31  5-MIN KMSN 250935Z 00000KT 4SM BR CLR 11/11 A2993 860 96 600 000/00 RMK AO2
14837KMSN MSN20110625034009406/25/11 03:40:31  5-MIN KMSN 250940Z 00000KT 4SM BR CLR 11/11 A2992 860 96 600 000/00 RMK AO2
14837KMSN MSN20110625034509406/25/11 03:45:31  5-MIN KMSN 250945Z 00000KT 4SM BR CLR 11/11 A2993 850 96 600 000/00 RMK AO2
14837KMSN MSN20110625035011406/25/11 03:50:31  5-MIN KMSN 250950Z 00000KT 3SM BR FEW120 11/11 A2993 860 96 600 000/00 RMK AO2 SLP134 T01110106
14837KMSN MSN20110625035509406/25/11 03:55:31  5-MIN KMSN 250955Z 00000KT 3SM BR CLR 11/11 A2993 860 96 600 000/00 RMK AO2
14837KMSN MSN20110625040009506/25/11 04:00:31  5-MIN KMSN 251000Z 00000KT 3SM BR CLR 11/11 A2993 850 100 600 000/00 RMK AO2
14837KMSN MSN20110625040509406/25/11 04:05:31  5-MIN KMSN 251005Z 00000KT 2SM BR CLR 11/11 A2994 850 96 600 000/00 RMK AO2
14837KMSN MSN20110625041009506/25/11 04:10:31  5-MIN KMSN 251010Z 00000KT 2SM BR CLR 11/11 A2994 840 100 600 000/00 RMK AO2
14837KMSN MSN20110625041509406/25/11 04:15:31  5-MIN KMSN 251015Z 00000KT 2SM BR CLR 11/10 A2995 840 96 500 000/00 RMK AO2
14837KMSN MSN20110625042009406/25/11 04:20:31  5-MIN KMSN 251020Z 00000KT 2SM BR CLR 11/10 A2995 840 96 500 000/00 RMK AO2
14837KMSN MSN20110625042509406/25/11 04:25:31  5-MIN KMSN 251025Z 00000KT 2SM BR CLR 11/10 A2994 850 96 600 000/00 RMK AO2
14837KMSN MSN20110625043010106/25/11 04:30:31  5-MIN KMSN 251030Z 00000KT 1 1/2SM BR SCT120 10/09 A2994 850 96 500 000/00 RMK AO2
14837KMSN MSN20110625043510106/25/11 04:35:31  5-MIN KMSN 251035Z 00000KT 1 1/2SM BR SCT120 11/10 A2994 850 96 600 000/00 RMK AO2
14837KMSN MSN20110625044010106/25/11 04:40:31  5-MIN KMSN 251040Z 00000KT 1 1/2SM BR SCT120 11/10 A2993 860 96 600 000/00 RMK AO2
14837KMSN MSN20110625044510106/25/11 04:45:31  5-MIN KMSN 251045Z 00000KT 1 1/2SM BR SCT120 11/09 A2994 850 93 600 000/00 RMK AO2
14837KMSN MSN20110625045009706/25/11 04:50:31  5-MIN KMSN 251050Z 00000KT 3SM BR SCT120 11/10 A2994 850 96 600 000/00 RMK AO2
14837KMSN MSN20110625045509706/25/11 04:55:31  5-MIN KMSN 251055Z 00000KT 5SM BR SCT120 11/10 A2994 850 93 600 000/00 RMK AO2
14837KMSN MSN20110625050009706/25/11 05:00:31  5-MIN KMSN 251100Z 00000KT 6SM BR SCT120 11/10 A2994 850 93 600 000/00 RMK AO2
14837KMSN MSN20110625050509406/25/11 05:05:31  5-MIN KMSN 251105Z 00000KT 7SM SCT120 11/10 A2993 850 93 600 000/00 RMK AO2
14837KMSN MSN20110625051009406/25/11 05:10:31  5-MIN KMSN 251110Z 00000KT 7SM SCT120 11/11 A2993 860 96 600 000/00 RMK AO2
14837KMSN MSN20110625051509406/25/11 05:15:31  5-MIN KMSN 251115Z 00000KT 7SM SCT120 12/11 A2993 860 93 700 000/00 RMK AO2
14837KMSN MSN20110625052009406/25/11 05:20:31  5-MIN KMSN 251120Z 00000KT 7SM SCT120 12/11 A2993 860 93 800 000/00 RMK AO2
14837KMSN MSN20110625052509406/25/11 05:25:31  5-MIN KMSN 251125Z 00000KT 8SM FEW120 12/12 A2992 860 96 800 000/00 RMK AO2
14837KMSN MSN20110625053009406/25/11 05:30:31  5-MIN KMSN 251130Z 00000KT 8SM FEW120 13/12 A2992 860 93 800 000/00 RMK AO2
14837KMSN MSN20110625053509406/25/11 05:35:31  5-MIN KMSN 251135Z 00000KT 8SM FEW120 13/12 A2992 860 89 900 000/00 RMK AO2
14837KMSN MSN20110625054009406/25/11 05:40:31  5-MIN KMSN 251140Z 00000KT 8SM FEW120 13/12 A2992 870 93 900 000/00 RMK AO2
14837KMSN MSN20110625054509406/25/11 05:45:31  5-MIN KMSN 251145Z 00000KT 8SM FEW120 13/12 A2992 870 93 900 000/00 RMK AO2
14837KMSN MSN20110625055013006/25/11 05:50:31  5-MIN KMSN 251150Z 00000KT 8SM FEW120 14/13 A2992 870 93 1000 000/00 RMK AO2 SLP129 T01390128 10150 20100 50007
14837KMSN MSN20110625055509506/25/11 05:55:31  5-MIN KMSN 251155Z 00000KT 6SM BR CLR 14/13 A2992 870 93 1000 000/00 RMK AO2
14837KMSN MSN20110625060009206/25/11 06:00:31  5-MIN KMSN 251200Z 00000KT 7SM CLR 14/13 A2992 860 93 1000 000/00 RMK AO2
14837KMSN MSN20110625060509206/25/11 06:05:31  5-MIN KMSN 251205Z 00000KT 7SM CLR 15/13 A2992 860 90 1100 000/00 RMK AO2
14837KMSN MSN20110625061009206/25/11 06:10:31  5-MIN KMSN 251210Z 00000KT 8SM CLR 15/13 A2992 860 90 1100 000/00 RMK AO2
14837KMSN MSN20110625061509206/25/11 06:15:31  5-MIN KMSN 251215Z 00000KT 9SM CLR 16/13 A2993 860 86 1200 000/00 RMK AO2
14837KMSN MSN20110625062009306/25/11 06:20:31  5-MIN KMSN 251220Z 00000KT 10SM CLR 16/13 A2993 850 83 1200 000/00 RMK AO2
14837KMSN MSN20110625062509306/25/11 06:25:31  5-MIN KMSN 251225Z 00000KT 10SM CLR 17/13 A2993 860 80 1300 000/00 RMK AO2
14837KMSN MSN20110625063009306/25/11 06:30:31  5-MIN KMSN 251230Z 00000KT 10SM CLR 17/13 A2993 860 78 1400 000/00 RMK AO2
14837KMSN MSN20110625063509306/25/11 06:35:31  5-MIN KMSN 251235Z 00000KT 10SM CLR 17/13 A2993 860 80 1300 000/00 RMK AO2
14837KMSN MSN20110625064009306/25/11 06:40:31  5-MIN KMSN 251240Z 00000KT 10SM CLR 17/13 A2993 860 80 1300 000/00 RMK AO2
14837KMSN MSN20110625064509306/25/11 06:45:31  5-MIN KMSN 251245Z 00000KT 10SM CLR 17/13 A2993 860 78 1400 000/00 RMK AO2
14837KMSN MSN20110625065011306/25/11 06:50:31  5-MIN KMSN 251250Z 00000KT 10SM FEW120 17/14 A2994 850 80 1300 000/00 RMK AO2 SLP135 T01720139
14837KMSN MSN20110625065509306/25/11 06:55:31  5-MIN KMSN 251255Z 00000KT 10SM CLR 18/13 A2995 840 75 1400 000/00 RMK AO2
14837KMSN MSN20110625070010006/25/11 07:00:31  5-MIN KMSN 251300Z 19003KT 10SM CLR 18/14 A2996 830 75 1500 190/03 RMK AO2 PRESRR
14837KMSN MSN20110625070509306/25/11 07:05:31  5-MIN KMSN 251305Z 00000KT 10SM CLR 18/13 A2996 830 72 1400 000/00 RMK AO2
14837KMSN MSN20110625071009306/25/11 07:10:31  5-MIN KMSN 251310Z 00000KT 10SM CLR 19/13 A2997 820 70 1500 000/00 RMK AO2
14837KMSN MSN20110625071509306/25/11 07:15:31  5-MIN KMSN 251315Z 00000KT 10SM CLR 19/13 A2996 830 67 1500 000/00 RMK AO2
14837KMSN MSN20110625072009306/25/11 07:20:31  5-MIN KMSN 251320Z 00000KT 10SM CLR 19/13 A2996 820 70 1500 000/00 RMK AO2
14837KMSN MSN20110625072509606/25/11 07:25:31  5-MIN KMSN 251325Z 14003KT 10SM FEW120 19/13 A2996 830 65 1600 140/03 RMK AO2
14837KMSN MSN20110625073009606/25/11 07:30:31  5-MIN KMSN 251330Z 17003KT 10SM FEW120 19/13 A2995 830 67 1600 170/03 RMK AO2
14837KMSN MSN20110625073509606/25/11 07:35:31  5-MIN KMSN 251335Z 16003KT 10SM FEW120 19/13 A2995 830 65 1600 160/03 RMK AO2
14837KMSN MSN20110625074009606/25/11 07:40:31  5-MIN KMSN 251340Z 18003KT 10SM FEW120 19/13 A2996 830 65 1600 180/03 RMK AO2
14837KMSN MSN20110625074509606/25/11 07:45:31  5-MIN KMSN 251345Z 18003KT 10SM FEW120 20/13 A2996 830 63 1600 180/03 RMK AO2
14837KMSN MSN20110625075011306/25/11 07:50:31  5-MIN KMSN 251350Z 17003KT 10SM FEW120 20/13 A2996 830 65 1600 170/03 RMK AO2 SLP141 T02000133
14837KMSN MSN20110625075509606/25/11 07:55:31  5-MIN KMSN 251355Z 00000KT 10SM FEW120 20/13 A2996 830 63 1600 000/00 RMK AO2
14837KMSN MSN20110625080009606/25/11 08:00:31  5-MIN KMSN 251400Z 00000KT 10SM FEW120 21/13 A2995 830 60 1700 000/00 RMK AO2
14837KMSN MSN20110625080509606/25/11 08:05:31  5-MIN KMSN 251405Z 19003KT 10SM FEW120 21/13 A2996 830 60 1700 190/03 RMK AO2
14837KMSN MSN20110625081009606/25/11 08:10:31  5-MIN KMSN 251410Z 19005KT 10SM FEW120 21/13 A2996 830 60 1700 200/05 RMK AO2
14837KMSN MSN20110625081509606/25/11 08:15:31  5-MIN KMSN 251415Z 19005KT 10SM FEW120 21/13 A2996 820 60 1700 190/05 RMK AO2
14837KMSN MSN20110625082009606/25/11 08:20:31  5-MIN KMSN 251420Z 18007KT 10SM FEW120 21/12 A2996 820 58 1700 180/07 RMK AO2
14837KMSN MSN20110625082509606/25/11 08:25:31  5-MIN KMSN 251425Z 16006KT 10SM FEW120 21/13 A2997 820 60 1700 160/06 RMK AO2
14837KMSN MSN20110625083009606/25/11 08:30:31  5-MIN KMSN 251430Z 19006KT 10SM FEW120 21/12 A2996 830 56 1800 190/06 RMK AO2
14837KMSN MSN20110625083509606/25/11 08:35:31  5-MIN KMSN 251435Z 17007KT 10SM FEW120 21/13 A2995 830 61 1800 170/07 RMK AO2
14837KMSN MSN20110625084009606/25/11 08:40:31  5-MIN KMSN 251440Z 18006KT 10SM FEW120 21/13 A2995 840 58 1800 180/06 RMK AO2
14837KMSN MSN20110625084509606/25/11 08:45:31  5-MIN KMSN 251445Z 18006KT 10SM FEW120 21/12 A2995 840 56 1800 180/06 RMK AO2
14837KMSN MSN20110625085011906/25/11 08:50:31  5-MIN KMSN 251450Z 18006KT 10SM FEW120 22/13 A2995 830 56 1800 190/06 RMK AO2 SLP140 T02170128 50002
14837KMSN MSN20110625085509606/25/11 08:55:31  5-MIN KMSN 251455Z 19007KT 10SM FEW120 22/12 A2996 830 54 1800 190/07 RMK AO2
14837KMSN MSN20110625090009606/25/11 09:00:31  5-MIN KMSN 251500Z 19008KT 10SM FEW120 22/13 A2996 830 56 1800 190/08 RMK AO2
14837KMSN MSN20110625090509606/25/11 09:05:31  5-MIN KMSN 251505Z 19005KT 10SM FEW120 22/13 A2996 830 58 1800 190/05 RMK AO2
14837KMSN MSN20110625091009606/25/11 09:10:31  5-MIN KMSN 251510Z 20005KT 10SM FEW120 22/13 A2996 830 56 1800 200/05 RMK AO2
14837KMSN MSN20110625091509606/25/11 09:15:31  5-MIN KMSN 251515Z 20006KT 10SM FEW120 22/13 A2996 830 56 1800 200/06 RMK AO2
14837KMSN MSN20110625092009606/25/11 09:20:31  5-MIN KMSN 251520Z 19004KT 10SM FEW120 22/12 A2996 830 54 1800 200/04 RMK AO2
14837KMSN MSN20110625092509606/25/11 09:25:31  5-MIN KMSN 251525Z 18005KT 10SM FEW120 22/13 A2996 830 56 1900 180/05 RMK AO2
14837KMSN MSN20110625093009606/25/11 09:30:31  5-MIN KMSN 251530Z 18006KT 10SM FEW120 22/13 A2996 830 54 1900 180/06 RMK AO2
14837KMSN MSN20110625093509306/25/11 09:35:31  5-MIN KMSN 251535Z 18006KT 10SM CLR 22/12 A2996 830 52 1900 180/06 RMK AO2
14837KMSN MSN20110625094009306/25/11 09:40:31  5-MIN KMSN 251540Z 18005KT 10SM CLR 22/13 A2995 830 54 1900 180/05 RMK AO2
14837KMSN MSN20110625094509306/25/11 09:45:31  5-MIN KMSN 251545Z 19005KT 10SM CLR 22/13 A2996 830 54 1900 190/05 RMK AO2
14837KMSN MSN20110625095011006/25/11 09:50:31  5-MIN KMSN 251550Z 18005KT 10SM CLR 22/13 A2996 830 54 1900 180/05 RMK AO2 SLP142 T02220128
14837KMSN MSN20110625095509306/25/11 09:55:31  5-MIN KMSN 251555Z 20006KT 10SM CLR 23/13 A2996 830 53 2000 200/06 RMK AO2
14837KMSN MSN20110625100009306/25/11 10:00:31  5-MIN KMSN 251600Z 17007KT 10SM CLR 23/13 A2996 830 53 2000 170/07 RMK AO2
14837KMSN MSN20110625100509306/25/11 10:05:31  5-MIN KMSN 251605Z 19007KT 10SM CLR 22/13 A2996 820 54 1900 190/07 RMK AO2
14837KMSN MSN20110625101009306/25/11 10:10:31  5-MIN KMSN 251610Z 18006KT 10SM CLR 23/13 A2996 820 53 2000 180/06 RMK AO2
14837KMSN MSN20110625101509306/25/11 10:15:31  5-MIN KMSN 251615Z 18007KT 10SM CLR 23/13 A2996 820 55 2000 190/07 RMK AO2
14837KMSN MSN20110625102009306/25/11 10:20:31  5-MIN KMSN 251620Z 16006KT 10SM CLR 23/13 A2997 820 55 2000 160/06 RMK AO2
14837KMSN MSN20110625102509306/25/11 10:25:31  5-MIN KMSN 251625Z 18007KT 10SM CLR 23/13 A2996 820 53 2000 180/07 RMK AO2
14837KMSN MSN20110625103009306/25/11 10:30:31  5-MIN KMSN 251630Z 16007KT 10SM CLR 23/13 A2996 830 51 2000 170/07 RMK AO2
14837KMSN MSN20110625103509306/25/11 10:35:31  5-MIN KMSN 251635Z 18009KT 10SM CLR 23/13 A2996 830 53 2000 180/09 RMK AO2
14837KMSN MSN20110625104009306/25/11 10:40:31  5-MIN KMSN 251640Z 19007KT 10SM CLR 23/13 A2996 830 51 2000 190/07 RMK AO2
14837KMSN MSN20110625104509306/25/11 10:45:31  5-MIN KMSN 251645Z VRB04KT 10SM CLR 23/13 A2996 830 53 2000 VRB/04 RMK AO2
14837KMSN MSN20110625105011006/25/11 10:50:31  5-MIN KMSN 251650Z 15008KT 10SM CLR 23/13 A2996 830 55 2000 150/08 RMK AO2 SLP143 T02280133
14837KMSN MSN20110625105509306/25/11 10:55:31  5-MIN KMSN 251655Z 17006KT 10SM CLR 23/13 A2996 830 51 2000 170/06 RMK AO2
14837KMSN MSN20110625110009306/25/11 11:00:31  5-MIN KMSN 251700Z 16008KT 10SM CLR 23/13 A2996 830 51 2000 160/08 RMK AO2
14837KMSN MSN20110625110509306/25/11 11:05:31  5-MIN KMSN 251705Z 19007KT 10SM CLR 23/12 A2996 830 47 2000 190/07 RMK AO2
14837KMSN MSN20110625111009306/25/11 11:10:31  5-MIN KMSN 251710Z 17005KT 10SM CLR 23/13 A2996 830 51 2000 170/05 RMK AO2
14837KMSN MSN20110625111509306/25/11 11:15:31  5-MIN KMSN 251715Z 19004KT 10SM CLR 23/13 A2996 830 51 2000 190/04 RMK AO2
14837KMSN MSN20110625112009306/25/11 11:20:31  5-MIN KMSN 251720Z 00000KT 10SM CLR 23/12 A2995 830 49 2000 000/00 RMK AO2
14837KMSN MSN20110625112509306/25/11 11:25:31  5-MIN KMSN 251725Z 20007KT 10SM CLR 23/13 A2995 830 51 2000 210/07 RMK AO2
14837KMSN MSN20110625113009306/25/11 11:30:31  5-MIN KMSN 251730Z 16006KT 10SM CLR 23/13 A2995 830 51 2000 160/06 RMK AO2
14837KMSN MSN20110625113509306/25/11 11:35:31  5-MIN KMSN 251735Z 18007KT 10SM CLR 23/13 A2995 840 51 2000 190/07 RMK AO2
14837KMSN MSN20110625114009306/25/11 11:40:31  5-MIN KMSN 251740Z 19007KT 10SM CLR 24/13 A2995 830 49 2100 190/07 RMK AO2
14837KMSN MSN20110625114509306/25/11 11:45:31  5-MIN KMSN 251745Z VRB03KT 10SM CLR 24/12 A2996 830 47 2100 VRB/03 RMK AO2
14837KMSN MSN20110625115012806/25/11 11:50:31  5-MIN KMSN 251750Z VRB06KT 10SM CLR 23/13 A2996 830 51 2000 VRB/06 RMK AO2 SLP142 T02330128 10239 20139 50014
14837KMSN MSN20110625115509306/25/11 11:55:31  5-MIN KMSN 251755Z VRB03KT 10SM CLR 23/12 A2996 830 49 2000 VRB/03 RMK AO2
14837KMSN MSN20110625120009306/25/11 12:00:31  5-MIN KMSN 251800Z 19007KT 10SM CLR 23/12 A2996 830 49 2000 190/07 RMK AO2
14837KMSN MSN20110625120509306/25/11 12:05:31  5-MIN KMSN 251805Z 20006KT 10SM CLR 24/12 A2996 830 47 2100 200/06 RMK AO2
14837KMSN MSN20110625121009306/25/11 12:10:31  5-MIN KMSN 251810Z 23005KT 10SM CLR 24/13 A2996 830 49 2100 230/05 RMK AO2
14837KMSN MSN20110625121510906/25/11 12:15:31  5-MIN KMSN 251815Z 19007KT 160V220 10SM CLR 24/13 A2996 830 49 2100 190/07 160V220 RMK AO2
14837KMSN MSN20110625122009306/25/11 12:20:31  5-MIN KMSN 251820Z 17008KT 10SM CLR 23/13 A2996 830 51 2000 180/08 RMK AO2
14837KMSN MSN20110625122509306/25/11 12:25:31  5-MIN KMSN 251825Z 19007KT 10SM CLR 23/13 A2996 830 51 2000 190/07 RMK AO2
14837KMSN MSN20110625123009306/25/11 12:30:31  5-MIN KMSN 251830Z 20006KT 10SM CLR 23/13 A2996 830 51 2000 200/06 RMK AO2
14837KMSN MSN20110625123509306/25/11 12:35:31  5-MIN KMSN 251835Z 19008KT 10SM CLR 23/13 A2996 830 51 2000 190/08 RMK AO2
14837KMSN MSN20110625124009306/25/11 12:40:31  5-MIN KMSN 251840Z 18005KT 10SM CLR 23/13 A2995 830 53 2000 180/05 RMK AO2
14837KMSN MSN20110625124509306/25/11 12:45:31  5-MIN KMSN 251845Z 18007KT 10SM CLR 23/13 A2995 830 53 2000 180/07 RMK AO2
14837KMSN MSN20110625125012006/25/11 12:50:31  5-MIN KMSN 251850Z 18005KT 10SM FEW045 SCT120 23/13 A2995 830 51 2000 180/05 RMK AO2 SLP141 T02330128
14837KMSN MSN20110625125510306/25/11 12:55:31  5-MIN KMSN 251855Z 18007KT 10SM FEW045 SCT120 24/13 A2995 830 51 2100 180/07 RMK AO2
14837KMSN MSN20110625130010306/25/11 13:00:31  5-MIN KMSN 251900Z 17008KT 10SM FEW045 SCT120 24/13 A2995 830 51 2100 170/08 RMK AO2
14837KMSN MSN20110625130510306/25/11 13:05:31  5-MIN KMSN 251905Z 18007KT 10SM FEW045 SCT120 23/13 A2995 830 51 2000 180/07 RMK AO2
14837KMSN MSN20110625131010306/25/11 13:10:31  5-MIN KMSN 251910Z 19005KT 10SM FEW045 SCT120 23/12 A2995 830 49 2000 190/05 RMK AO2
14837KMSN MSN20110625131510306/25/11 13:15:31  5-MIN KMSN 251915Z 19005KT 10SM FEW045 SCT120 23/13 A2995 840 51 2000 190/05 RMK AO2
14837KMSN MSN20110625132010306/25/11 13:20:31  5-MIN KMSN 251920Z 17006KT 10SM FEW045 SCT120 23/12 A2995 840 49 2000 170/06 RMK AO2
14837KMSN MSN20110625132510306/25/11 13:25:31  5-MIN KMSN 251925Z 17007KT 10SM FEW048 SCT120 23/12 A2995 840 49 2000 170/07 RMK AO2
14837KMSN MSN20110625133010306/25/11 13:30:31  5-MIN KMSN 251930Z 16004KT 10SM FEW048 SCT120 23/13 A2995 840 51 2000 160/04 RMK AO2
14837KMSN MSN20110625133510306/25/11 13:35:31  5-MIN KMSN 251935Z 19004KT 10SM FEW048 SCT120 23/13 A2994 840 51 2000 200/04 RMK AO2
14837KMSN MSN20110625134010306/25/11 13:40:31  5-MIN KMSN 251940Z 16006KT 10SM FEW048 SCT120 23/13 A2994 840 51 2000 160/06 RMK AO2
14837KMSN MSN20110625134510306/25/11 13:45:31  5-MIN KMSN 251945Z 18004KT 10SM FEW048 SCT120 23/13 A2994 840 51 2000 180/04 RMK AO2
14837KMSN MSN20110625135013006/25/11 13:50:31  5-MIN KMSN 251950Z 14004KT 10SM FEW046 SCT120 23/13 A2994 850 53 2000 150/04 RMK AO2 SLP137 VIRGA E-S T02330133
14837KMSN MSN20110625135511306/25/11 13:55:31  5-MIN KMSN 251955Z 17003KT 10SM FEW046 SCT120 23/13 A2994 850 53 2000 170/03 RMK AO2 VIRGA E-S
14837KMSN MSN20110625140011306/25/11 14:00:31  5-MIN KMSN 252000Z 18005KT 10SM FEW046 SCT120 23/13 A2994 850 53 2000 180/05 RMK AO2 VIRGA E-S
14837KMSN MSN20110625140511306/25/11 14:05:31  5-MIN KMSN 252005Z 18004KT 10SM FEW046 SCT120 23/13 A2994 850 51 2000 180/04 RMK AO2 VIRGA E-S
14837KMSN MSN20110625141011306/25/11 14:10:31  5-MIN KMSN 252010Z 20003KT 10SM FEW046 SCT120 23/13 A2994 840 51 2000 200/03 RMK AO2 VIRGA E-S
14837KMSN MSN20110625141511306/25/11 14:15:31  5-MIN KMSN 252015Z 19005KT 10SM FEW046 SCT120 23/13 A2995 840 51 2000 190/05 RMK AO2 VIRGA E-S
14837KMSN MSN20110625142011306/25/11 14:20:31  5-MIN KMSN 252020Z 19004KT 10SM FEW046 SCT120 23/13 A2995 840 51 2000 190/04 RMK AO2 VIRGA E-S
14837KMSN MSN20110625142511306/25/11 14:25:31  5-MIN KMSN 252025Z 00000KT 10SM FEW046 SCT120 23/13 A2995 840 51 2000 000/00 RMK AO2 VIRGA E-S
14837KMSN MSN20110625143011306/25/11 14:30:31  5-MIN KMSN 252030Z 18003KT 10SM FEW046 SCT120 24/13 A2995 840 49 2100 190/03 RMK AO2 VIRGA E-S
14837KMSN MSN20110625143511306/25/11 14:35:31  5-MIN KMSN 252035Z 18004KT 10SM FEW046 SCT120 23/13 A2995 840 51 2000 180/04 RMK AO2 VIRGA E-S
14837KMSN MSN20110625144010306/25/11 14:40:31  5-MIN KMSN 252040Z VRB03KT 10SM FEW046 SCT120 23/13 A2995 840 51 2000 VRB/03 RMK AO2
14837KMSN MSN20110625144510306/25/11 14:45:31  5-MIN KMSN 252045Z 00000KT 10SM FEW046 SCT120 23/13 A2995 840 53 2000 000/00 RMK AO2
14837KMSN MSN20110625145012606/25/11 14:50:31  5-MIN KMSN 252050Z 20004KT 10SM FEW044 SCT120 23/13 A2995 840 51 2000 210/04 RMK AO2 SLP140 T02330128 51001
14837KMSN MSN20110625145510306/25/11 14:55:31  5-MIN KMSN 252055Z 18003KT 10SM FEW043 SCT120 23/13 A2995 840 51 2000 180/03 RMK AO2
14837KMSN MSN20110625150010306/25/11 15:00:31  5-MIN KMSN 252100Z 00000KT 10SM FEW043 SCT120 23/13 A2995 840 51 2000 000/00 RMK AO2
14837KMSN MSN20110625150510306/25/11 15:05:31  5-MIN KMSN 252105Z 19004KT 10SM FEW043 SCT120 23/13 A2995 840 53 2000 190/04 RMK AO2
14837KMSN MSN20110625151010306/25/11 15:10:31  5-MIN KMSN 252110Z 00000KT 10SM FEW043 SCT120 23/12 A2995 840 49 2000 000/00 RMK AO2
14837KMSN MSN20110625151510306/25/11 15:15:31  5-MIN KMSN 252115Z 00000KT 10SM FEW043 SCT120 23/14 A2995 840 55 2000 000/00 RMK AO2
14837KMSN MSN20110625152010306/25/11 15:20:31  5-MIN KMSN 252120Z 21003KT 10SM FEW043 SCT120 23/13 A2995 830 53 2000 210/03 RMK AO2
14837KMSN MSN20110625152510306/25/11 15:25:31  5-MIN KMSN 252125Z VRB03KT 10SM FEW043 SCT120 23/13 A2995 830 53 2000 VRB/03 RMK AO2
14837KMSN MSN20110625153010306/25/11 15:30:31  5-MIN KMSN 252130Z 20004KT 10SM FEW043 SCT120 23/13 A2995 830 53 2000 200/04 RMK AO2
14837KMSN MSN20110625153510306/25/11 15:35:31  5-MIN KMSN 252135Z 00000KT 10SM FEW043 SCT120 23/14 A2995 830 55 2000 000/00 RMK AO2
14837KMSN MSN20110625154010306/25/11 15:40:31  5-MIN KMSN 252140Z 21004KT 10SM FEW043 SCT120 23/14 A2996 830 55 2000 210/04 RMK AO2
14837KMSN MSN20110625154510306/25/11 15:45:31  5-MIN KMSN 252145Z 22003KT 10SM FEW043 SCT120 23/13 A2995 830 53 2000 220/03 RMK AO2
14837KMSN MSN20110625155011306/25/11 15:50:31  5-MIN KMSN 252150Z 19005KT 10SM FEW120 23/13 A2995 830 53 2000 190/05 RMK AO2 SLP141 T02330133
14837KMSN MSN20110625155509606/25/11 15:55:31  5-MIN KMSN 252155Z 17005KT 10SM FEW120 23/13 A2995 840 51 2000 180/05 RMK AO2
14837KMSN MSN20110625160009606/25/11 16:00:31  5-MIN KMSN 252200Z 15005KT 10SM FEW120 23/13 A2995 840 55 2000 150/05 RMK AO2
14837KMSN MSN20110625160509606/25/11 16:05:31  5-MIN KMSN 252205Z 19003KT 10SM FEW120 23/13 A2995 840 53 2000 190/03 RMK AO2
14837KMSN MSN20110625161009606/25/11 16:10:31  5-MIN KMSN 252210Z 17004KT 10SM FEW120 23/14 A2995 840 55 2000 170/04 RMK AO2
14837KMSN MSN20110625161509606/25/11 16:15:31  5-MIN KMSN 252215Z 16003KT 10SM FEW120 23/13 A2995 840 53 2000 170/03 RMK AO2
14837KMSN MSN20110625162009606/25/11 16:20:31  5-MIN KMSN 252220Z 19003KT 10SM FEW120 23/13 A2995 840 53 2000 190/03 RMK AO2
14837KMSN MSN20110625162509606/25/11 16:25:31  5-MIN KMSN 252225Z 16004KT 10SM FEW120 23/13 A2995 840 53 2000 170/04 RMK AO2
14837KMSN MSN20110625163009606/25/11 16:30:31  5-MIN KMSN 252230Z 19004KT 10SM FEW120 23/13 A2995 840 53 2000 190/04 RMK AO2
14837KMSN MSN20110625163509606/25/11 16:35:31  5-MIN KMSN 252235Z VRB03KT 10SM FEW120 23/13 A2995 840 53 2000 VRB/03 RMK AO2
14837KMSN MSN20110625164009606/25/11 16:40:31  5-MIN KMSN 252240Z 17003KT 10SM FEW120 23/13 A2995 830 53 2000 170/03 RMK AO2
14837KMSN MSN20110625164509606/25/11 16:45:31  5-MIN KMSN 252245Z 19004KT 10SM FEW120 23/13 A2995 830 53 2000 190/04 RMK AO2
14837KMSN MSN20110625165011306/25/11 16:50:31  5-MIN KMSN 252250Z 18005KT 10SM FEW120 23/13 A2995 830 53 2000 190/05 RMK AO2 SLP141 T02330133
14837KMSN MSN20110625165509306/25/11 16:55:31  5-MIN KMSN 252255Z 19004KT 10SM CLR 23/13 A2995 840 53 2000 200/04 RMK AO2
14837KMSN MSN20110625170009606/25/11 17:00:31  5-MIN KMSN 252300Z 19004KT 10SM FEW120 23/13 A2995 840 53 2000 190/04 RMK AO2
14837KMSN MSN20110625170509606/25/11 17:05:31  5-MIN KMSN 252305Z 19005KT 10SM FEW120 23/13 A2995 840 51 2000 190/05 RMK AO2
14837KMSN MSN20110625171009606/25/11 17:10:31  5-MIN KMSN 252310Z 17005KT 10SM FEW120 23/13 A2995 840 55 2000 170/05 RMK AO2
14837KMSN MSN20110625171509606/25/11 17:15:31  5-MIN KMSN 252315Z 18005KT 10SM FEW120 23/13 A2995 840 53 2000 180/05 RMK AO2
14837KMSN MSN20110625172009606/25/11 17:20:31  5-MIN KMSN 252320Z 19004KT 10SM FEW120 23/13 A2995 840 55 2000 190/04 RMK AO2
14837KMSN MSN20110625172509606/25/11 17:25:31  5-MIN KMSN 252325Z 18005KT 10SM FEW120 23/13 A2995 840 55 2000 180/05 RMK AO2
14837KMSN MSN20110625173009606/25/11 17:30:31  5-MIN KMSN 252330Z 19004KT 10SM FEW120 23/13 A2995 830 55 2000 190/04 RMK AO2
14837KMSN MSN20110625173509606/25/11 17:35:31  5-MIN KMSN 252335Z 18004KT 10SM FEW120 23/13 A2995 840 55 2000 190/04 RMK AO2
14837KMSN MSN20110625174009606/25/11 17:40:31  5-MIN KMSN 252340Z 17005KT 10SM FEW120 23/14 A2995 840 57 2000 170/05 RMK AO2
14837KMSN MSN20110625174509606/25/11 17:45:31  5-MIN KMSN 252345Z 17004KT 10SM FEW120 23/13 A2995 840 55 2000 170/04 RMK AO2
14837KMSN MSN20110625175013106/25/11 17:50:31  5-MIN KMSN 252350Z 17005KT 10SM FEW120 23/13 A2995 840 55 2000 170/05 RMK AO2 SLP138 T02280133 10239 20228 55003
14837KMSN MSN20110625175509606/25/11 17:55:31  5-MIN KMSN 252355Z 17005KT 10SM FEW120 22/13 A2995 840 56 1900 170/05 RMK AO2
14837KMSN MSN20110625180009606/25/11 18:00:31  5-MIN KMSN 260000Z 19005KT 10SM FEW120 23/13 A2995 840 55 2000 190/05 RMK AO2
14837KMSN MSN20110625180509606/25/11 18:05:31  5-MIN KMSN 260005Z 20004KT 10SM FEW120 23/13 A2995 840 55 2000 200/04 RMK AO2
14837KMSN MSN20110625181009606/25/11 18:10:31  5-MIN KMSN 260010Z 19004KT 10SM FEW120 23/14 A2995 840 57 2000 190/04 RMK AO2
14837KMSN MSN20110625181509606/25/11 18:15:31  5-MIN KMSN 260015Z 19003KT 10SM FEW120 23/13 A2995 840 55 2000 190/03 RMK AO2
14837KMSN MSN20110625182009606/25/11 18:20:31  5-MIN KMSN 260020Z 18003KT 10SM FEW120 23/13 A2995 840 55 2000 190/03 RMK AO2
14837KMSN MSN20110625182509606/25/11 18:25:31  5-MIN KMSN 260025Z 19003KT 10SM FEW120 23/14 A2995 840 57 2000 190/03 RMK AO2
14837KMSN MSN20110625183009606/25/11 18:30:31  5-MIN KMSN 260030Z 17003KT 10SM FEW120 22/14 A2995 840 59 1900 170/03 RMK AO2
14837KMSN MSN20110625183509606/25/11 18:35:31  5-MIN KMSN 260035Z 17003KT 10SM FEW120 22/14 A2995 840 59 1900 170/03 RMK AO2
14837KMSN MSN20110625184009606/25/11 18:40:31  5-MIN KMSN 260040Z 17004KT 10SM FEW120 22/14 A2995 840 59 1900 170/04 RMK AO2
14837KMSN MSN20110625184509606/25/11 18:45:31  5-MIN KMSN 260045Z 17003KT 10SM FEW120 22/13 A2994 840 56 1900 180/03 RMK AO2
14837KMSN MSN20110625185011306/25/11 18:50:31  5-MIN KMSN 260050Z 16003KT 10SM FEW120 22/14 A2994 840 59 1900 160/03 RMK AO2 SLP136 T02220139
14837KMSN MSN20110625185509606/25/11 18:55:31  5-MIN KMSN 260055Z 16003KT 10SM FEW020 22/13 A2994 840 56 1900 160/03 RMK AO2
14837KMSN MSN20110625190009606/25/11 19:00:31  5-MIN KMSN 260100Z 17003KT 10SM FEW020 22/13 A2994 840 56 1900 170/03 RMK AO2
14837KMSN MSN20110625190509606/25/11 19:05:31  5-MIN KMSN 260105Z 00000KT 10SM FEW020 21/14 A2994 840 65 1800 000/00 RMK AO2
14837KMSN MSN20110625191009606/25/11 19:10:31  5-MIN KMSN 260110Z 00000KT 10SM FEW020 21/16 A2994 840 73 1700 000/00 RMK AO2
14837KMSN MSN20110625191509606/25/11 19:15:31  5-MIN KMSN 260115Z 00000KT 10SM FEW020 20/16 A2995 840 75 1700 000/00 RMK AO2
14837KMSN MSN20110625192009606/25/11 19:20:31  5-MIN KMSN 260120Z 00000KT 10SM FEW020 21/15 A2995 840 70 1700 000/00 RMK AO2
14837KMSN MSN20110625192509606/25/11 19:25:31  5-MIN KMSN 260125Z 00000KT 10SM FEW020 20/15 A2995 840 72 1700 000/00 RMK AO2
14837KMSN MSN20110625193009606/25/11 19:30:31  5-MIN KMSN 260130Z 00000KT 10SM FEW020 20/14 A2995 840 70 1700 000/00 RMK AO2
14837KMSN MSN20110625193509606/25/11 19:35:31  5-MIN KMSN 260135Z 00000KT 10SM FEW020 20/14 A2995 840 70 1700 000/00 RMK AO2
14837KMSN MSN20110625194009606/25/11 19:40:31  5-MIN KMSN 260140Z 00000KT 10SM FEW020 19/15 A2994 840 75 1600 000/00 RMK AO2
14837KMSN MSN20110625194509606/25/11 19:45:31  5-MIN KMSN 260145Z 00000KT 10SM FEW020 19/16 A2994 840 78 1600 000/00 RMK AO2
14837KMSN MSN20110625195011306/25/11 19:50:31  5-MIN KMSN 260150Z 00000KT 10SM FEW020 19/15 A2994 840 75 1600 000/00 RMK AO2 SLP136 T01940150
14837KMSN MSN20110625195509306/25/11 19:55:31  5-MIN KMSN 260155Z 00000KT 10SM CLR 20/15 A2994 850 72 1700 000/00 RMK AO2
14837KMSN MSN20110625200009606/25/11 20:00:31  5-MIN KMSN 260200Z 00000KT 10SM SCT120 19/15 A2994 840 75 1600 000/00 RMK AO2
14837KMSN MSN20110625200509606/25/11 20:05:31  5-MIN KMSN 260205Z 00000KT 10SM SCT120 19/14 A2994 850 75 1500 000/00 RMK AO2
14837KMSN MSN20110625201009606/25/11 20:10:31  5-MIN KMSN 260210Z 00000KT 10SM SCT120 19/15 A2994 850 78 1500 000/00 RMK AO2
14837KMSN MSN20110625201509606/25/11 20:15:31  5-MIN KMSN 260215Z 00000KT 10SM SCT120 19/15 A2994 850 78 1500 000/00 RMK AO2
14837KMSN MSN20110625202009606/25/11 20:20:31  5-MIN KMSN 260220Z 00000KT 10SM SCT120 19/15 A2994 840 78 1500 000/00 RMK AO2
14837KMSN MSN20110625202509606/25/11 20:25:31  5-MIN KMSN 260225Z 00000KT 10SM SCT120 19/15 A2994 840 78 1500 000/00 RMK AO2
14837KMSN MSN20110625203009606/25/11 20:30:31  5-MIN KMSN 260230Z 00000KT 10SM SCT120 19/15 A2995 840 78 1500 000/00 RMK AO2
14837KMSN MSN20110625203509606/25/11 20:35:31  5-MIN KMSN 260235Z 00000KT 10SM SCT120 19/15 A2995 840 78 1500 000/00 RMK AO2
14837KMSN MSN20110625204009606/25/11 20:40:31  5-MIN KMSN 260240Z 00000KT 10SM SCT120 18/15 A2995 840 81 1500 000/00 RMK AO2
14837KMSN MSN20110625204509606/25/11 20:45:31  5-MIN KMSN 260245Z 00000KT 10SM SCT120 18/15 A2995 840 81 1500 000/00 RMK AO2
14837KMSN MSN20110625205011906/25/11 20:50:31  5-MIN KMSN 260250Z 00000KT 10SM SCT120 18/15 A2995 840 81 1500 000/00 RMK AO2 SLP138 T01830150 58000
14837KMSN MSN20110625205509306/25/11 20:55:31  5-MIN KMSN 260255Z 00000KT 10SM CLR 18/15 A2995 840 83 1400 000/00 RMK AO2
14837KMSN MSN20110625210009306/25/11 21:00:31  5-MIN KMSN 260300Z 00000KT 10SM CLR 18/15 A2995 840 83 1400 000/00 RMK AO2
14837KMSN MSN20110625210509306/25/11 21:05:31  5-MIN KMSN 260305Z 00000KT 10SM CLR 18/15 A2995 840 83 1400 000/00 RMK AO2
14837KMSN MSN20110625211009306/25/11 21:10:31  5-MIN KMSN 260310Z 00000KT 10SM CLR 18/15 A2995 830 83 1400 000/00 RMK AO2
14837KMSN MSN20110625211509606/25/11 21:15:31  5-MIN KMSN 260315Z 00000KT 10SM SCT120 18/15 A2995 840 83 1400 000/00 RMK AO2
14837KMSN MSN20110625212009606/25/11 21:20:31  5-MIN KMSN 260320Z 00000KT 10SM SCT120 17/15 A2995 830 87 1300 000/00 RMK AO2
14837KMSN MSN20110625212509606/25/11 21:25:31  5-MIN KMSN 260325Z 00000KT 10SM SCT120 18/15 A2995 830 83 1400 000/00 RMK AO2
14837KMSN MSN20110625213009606/25/11 21:30:31  5-MIN KMSN 260330Z 00000KT 10SM SCT120 18/15 A2995 830 83 1400 000/00 RMK AO2
14837KMSN MSN20110625213509606/25/11 21:35:31  5-MIN KMSN 260335Z 00000KT 10SM SCT120 18/15 A2995 840 83 1400 000/00 RMK AO2
14837KMSN MSN20110625214009606/25/11 21:40:31  5-MIN KMSN 260340Z 00000KT 10SM SCT120 18/15 A2995 830 83 1400 000/00 RMK AO2
14837KMSN MSN20110625214509606/25/11 21:45:31  5-MIN KMSN 260345Z 00000KT 10SM SCT120 17/15 A2995 830 87 1300 000/00 RMK AO2
14837KMSN MSN20110625215011006/25/11 21:50:31  5-MIN KMSN 260350Z 00000KT 10SM CLR 17/15 A2995 830 90 1300 000/00 RMK AO2 SLP140 T01670150
14837KMSN MSN20110625215509306/25/11 21:55:31  5-MIN KMSN 260355Z 00000KT 10SM CLR 17/15 A2995 830 90 1300 000/00 RMK AO2
14837KMSN MSN20110625220009306/25/11 22:00:31  5-MIN KMSN 260400Z 00000KT 10SM CLR 17/15 A2995 830 90 1300 000/00 RMK AO2
14837KMSN MSN20110625220509306/25/11 22:05:31  5-MIN KMSN 260405Z 00000KT 10SM CLR 17/15 A2995 830 90 1300 000/00 RMK AO2
14837KMSN MSN20110625221009306/25/11 22:10:31  5-MIN KMSN 260410Z 00000KT 10SM CLR 16/15 A2995 830 93 1200 000/00 RMK AO2
14837KMSN MSN20110625221509306/25/11 22:15:31  5-MIN KMSN 260415Z 00000KT 10SM CLR 16/14 A2995 830 90 1200 000/00 RMK AO2
14837KMSN MSN20110625222009306/25/11 22:20:31  5-MIN KMSN 260420Z 00000KT 10SM CLR 16/14 A2996 830 90 1200 000/00 RMK AO2
14837KMSN MSN20110625222509306/25/11 22:25:31  5-MIN KMSN 260425Z 00000KT 10SM CLR 16/15 A2996 830 93 1200 000/00 RMK AO2
14837KMSN MSN20110625223009306/25/11 22:30:31  5-MIN KMSN 260430Z 00000KT 10SM CLR 16/15 A2995 840 93 1200 000/00 RMK AO2
14837KMSN MSN20110625223509306/25/11 22:35:31  5-MIN KMSN 260435Z 00000KT 10SM CLR 16/15 A2995 840 93 1200 000/00 RMK AO2
14837KMSN MSN20110625224009306/25/11 22:40:31  5-MIN KMSN 260440Z 00000KT 10SM CLR 17/15 A2995 830 90 1300 000/00 RMK AO2
14837KMSN MSN20110625224509306/25/11 22:45:31  5-MIN KMSN 260445Z 00000KT 10SM CLR 16/15 A2995 830 93 1200 000/00 RMK AO2
14837KMSN MSN20110625225011006/25/11 22:50:31  5-MIN KMSN 260450Z 00000KT 10SM CLR 16/14 A2996 830 93 1100 000/00 RMK AO2 SLP141 T01560144
14837KMSN MSN20110625225509206/25/11 22:55:31  5-MIN KMSN 260455Z 00000KT 9SM CLR 16/14 A2996 830 93 1100 000/00 RMK AO2
14837KMSN MSN20110625230009206/25/11 23:00:31  5-MIN KMSN 260500Z 00000KT 9SM CLR 16/14 A2996 830 93 1100 000/00 RMK AO2
14837KMSN MSN20110625230509306/25/11 23:05:31  5-MIN KMSN 260505Z 00000KT 10SM CLR 16/14 A2996 830 90 1200 000/00 RMK AO2
14837KMSN MSN20110625231009206/25/11 23:10:31  5-MIN KMSN 260510Z 00000KT 9SM CLR 16/14 A2996 830 93 1100 000/00 RMK AO2
14837KMSN MSN20110625231509206/25/11 23:15:31  5-MIN KMSN 260515Z 00000KT 8SM CLR 15/14 A2996 830 96 1100 000/00 RMK AO2
14837KMSN MSN20110625232009206/25/11 23:20:31  5-MIN KMSN 260520Z 32003KT 8SM CLR 16/14 A2996 830 93 1100 330/03 RMK AO2
14837KMSN MSN20110625232509206/25/11 23:25:31  5-MIN KMSN 260525Z 00000KT 8SM CLR 16/14 A2995 830 93 1100 000/00 RMK AO2
14837KMSN MSN20110625233009206/25/11 23:30:31  5-MIN KMSN 260530Z 00000KT 8SM CLR 15/14 A2995 840 96 1100 000/00 RMK AO2
14837KMSN MSN20110625233509206/25/11 23:35:31  5-MIN KMSN 260535Z 00000KT 8SM CLR 16/14 A2995 840 93 1100 000/00 RMK AO2
14837KMSN MSN20110625234009206/25/11 23:40:31  5-MIN KMSN 260540Z 00000KT 8SM CLR 16/14 A2995 840 93 1100 000/00 RMK AO2
14837KMSN MSN20110625234509206/25/11 23:45:31  5-MIN KMSN 260545Z 00000KT 9SM CLR 16/14 A2995 840 93 1100 000/00 RMK AO2
14837KMSN MSN20110625235013706/25/11 23:50:31  5-MIN KMSN 260550Z 00000KT 9SM CLR 16/14 A2995 840 93 1100 000/00 RMK AO2 SLP137 T01560144 10228 20150 402390100 53001
14837KMSN MSN20110625235509206/25/11 23:55:31  5-MIN KMSN 260555Z 00000KT 9SM CLR 16/14 A2995 840 93 1100 000/00 RMK AO2
14837KMSN MSN20110626000009506/26/11 00:00:32  5-MIN KMSN 260600Z 00000KT 5SM BR CLR 15/14 A2994 840 93 1100 000/00 RMK AO2
14837KMSN MSN20110626000509506/26/11 00:05:31  5-MIN KMSN 260605Z 00000KT 5SM BR CLR 15/14 A2994 850 96 1100 000/00 RMK AO2
14837KMSN MSN20110626001009506/26/11 00:10:31  5-MIN KMSN 260610Z 00000KT 6SM BR CLR 15/14 A2994 850 93 1100 000/00 RMK AO2
14837KMSN MSN20110626001509506/26/11 00:15:31  5-MIN KMSN 260615Z 00000KT 5SM BR CLR 14/14 A2994 850 96 1000 000/00 RMK AO2
14837KMSN MSN20110626002009506/26/11 00:20:31  5-MIN KMSN 260620Z 00000KT 6SM BR CLR 15/14 A2994 850 93 1100 000/00 RMK AO2
14837KMSN MSN20110626002509206/26/11 00:25:31  5-MIN KMSN 260625Z 00000KT 8SM CLR 15/14 A2993 850 93 1100 000/00 RMK AO2
14837KMSN MSN20110626003009206/26/11 00:30:31  5-MIN KMSN 260630Z 00000KT 9SM CLR 15/14 A2994 850 93 1100 000/00 RMK AO2
14837KMSN MSN20110626003509506/26/11 00:35:31  5-MIN KMSN 260635Z 00000KT 4SM BR CLR 14/14 A2994 850 96 1000 000/00 RMK AO2
14837KMSN MSN20110626004009506/26/11 00:40:31  5-MIN KMSN 260640Z 00000KT 3SM BR CLR 14/14 A2993 850 96 1000 000/00 RMK AO2
14837KMSN MSN20110626004509506/26/11 00:45:31  5-MIN KMSN 260645Z 00000KT 4SM BR CLR 14/14 A2993 850 96 1000 000/00 RMK AO2
14837KMSN MSN20110626005011206/26/11 00:50:31  5-MIN KMSN 260650Z 00000KT 6SM BR CLR 14/14 A2994 850 96 1000 000/00 RMK AO2 SLP135 T01440139
14837KMSN MSN20110626005509506/26/11 00:55:31  5-MIN KMSN 260655Z 00000KT 4SM BR CLR 14/14 A2994 850 96 1000 000/00 RMK AO2
14837KMSN MSN20110626010009506/26/11 01:00:31  5-MIN KMSN 260700Z 00000KT 4SM BR CLR 14/14 A2993 850 96 1000 000/00 RMK AO2
14837KMSN MSN20110626010509606/26/11 01:05:31  5-MIN KMSN 260705Z 00000KT 5SM BR CLR 14/14 A2993 850 100 1000 000/00 RMK AO2
14837KMSN MSN20110626011009506/26/11 01:10:31  5-MIN KMSN 260710Z 00000KT 5SM BR CLR 14/13 A2994 850 96 1000 000/00 RMK AO2
14837KMSN MSN20110626011509506/26/11 01:15:31  5-MIN KMSN 260715Z 00000KT 5SM BR CLR 14/13 A2994 850 96 1000 000/00 RMK AO2
14837KMSN MSN20110626012009506/26/11 01:20:31  5-MIN KMSN 260720Z 00000KT 5SM BR CLR 14/13 A2994 850 96 1000 000/00 RMK AO2
14837KMSN MSN20110626012509606/26/11 01:25:31  5-MIN KMSN 260725Z 00000KT 5SM BR CLR 14/14 A2994 850 100 1000 000/00 RMK AO2
14837KMSN MSN20110626013009906/26/11 01:30:31  5-MIN KMSN 260730Z 00000KT 2 1/2SM BR CLR 14/14 A2994 850 96 1000 000/00 RMK AO2
14837KMSN MSN20110626013509406/26/11 01:35:31  5-MIN KMSN 260735Z 00000KT 3SM BR CLR 13/13 A2994 850 96 900 000/00 RMK AO2
14837KMSN MSN20110626014009406/26/11 01:40:31  5-MIN KMSN 260740Z 00000KT 3SM BR CLR 13/13 A2994 850 96 900 000/00 RMK AO2
14837KMSN MSN20110626014509406/26/11 01:45:31  5-MIN KMSN 260745Z 00000KT 3SM BR CLR 13/12 A2994 850 96 800 000/00 RMK AO2
14837KMSN MSN20110626015011106/26/11 01:50:31  5-MIN KMSN 260750Z 00000KT 6SM BR CLR 13/13 A2994 850 96 900 000/00 RMK AO2 SLP136 T01330128
14837KMSN MSN20110626015509406/26/11 01:55:31  5-MIN KMSN 260755Z 00000KT 5SM BR CLR 13/13 A2994 840 96 900 000/00 RMK AO2
14837KMSN MSN20110626020009406/26/11 02:00:31  5-MIN KMSN 260800Z 00000KT 5SM BR CLR 13/13 A2994 840 96 900 000/00 RMK AO2
14837KMSN MSN20110626020509406/26/11 02:05:31  5-MIN KMSN 260805Z 00000KT 5SM BR CLR 13/13 A2995 840 96 900 000/00 RMK AO2
14837KMSN MSN20110626021009506/26/11 02:10:31  5-MIN KMSN 260810Z 00000KT 5SM BR CLR 13/13 A2995 840 100 900 000/00 RMK AO2
14837KMSN MSN20110626021509406/26/11 02:15:31  5-MIN KMSN 260815Z 00000KT 2SM BR CLR 13/13 A2995 840 96 900 000/00 RMK AO2
14837KMSN MSN20110626022009506/26/11 02:20:31  5-MIN KMSN 260820Z 00000KT 2SM BR CLR 13/13 A2995 840 100 900 000/00 RMK AO2
14837KMSN MSN20110626022509406/26/11 02:25:31  5-MIN KMSN 260825Z 00000KT 2SM BR CLR 13/13 A2995 830 96 900 000/00 RMK AO2
14837KMSN MSN20110626023009506/26/11 02:30:31  5-MIN KMSN 260830Z 00000KT 2SM BR CLR 13/13 A2995 830 100 900 000/00 RMK AO2
14837KMSN MSN20110626023509506/26/11 02:35:31  5-MIN KMSN 260835Z 00000KT 2SM BR CLR 13/13 A2995 830 100 900 000/00 RMK AO2
14837KMSN MSN20110626024009506/26/11 02:40:31  5-MIN KMSN 260840Z 00000KT 2SM BR CLR 13/13 A2995 830 100 900 000/00 RMK AO2
14837KMSN MSN20110626024509406/26/11 02:45:31  5-MIN KMSN 260845Z 00000KT 2SM BR CLR 13/13 A2995 830 96 900 000/00 RMK AO2
14837KMSN MSN20110626025009406/26/11 02:50:31  5-MIN KMSN 260850Z 00000KT 3SM BR CLR 13/13 A2995 830 96 900 000/00 RMK AO2
14837KMSN MSN20110626025509406/26/11 02:55:31  5-MIN KMSN 260855Z 00000KT 3SM BR CLR 13/13 A2996 830 96 900 000/00 RMK AO2
14837KMSN MSN20110626030009406/26/11 03:00:31  5-MIN KMSN 260900Z 00000KT 3SM BR CLR 13/13 A2996 830 96 900 000/00 RMK AO2
14837KMSN MSN20110626030509406/26/11 03:05:31  5-MIN KMSN 260905Z 00000KT 3SM BR CLR 13/12 A2995 830 96 800 000/00 RMK AO2
14837KMSN MSN20110626031009406/26/11 03:10:31  5-MIN KMSN 260910Z 00000KT 3SM BR CLR 13/12 A2995 830 96 800 000/00 RMK AO2
14837KMSN MSN20110626031509406/26/11 03:15:31  5-MIN KMSN 260915Z 00000KT 3SM BR CLR 13/12 A2996 830 96 800 000/00 RMK AO2
14837KMSN MSN20110626032009506/26/11 03:20:31  5-MIN KMSN 260920Z 00000KT 3SM BR CLR 13/13 A2996 830 100 800 000/00 RMK AO2
14837KMSN MSN20110626032510106/26/11 03:25:31  5-MIN KMSN 260925Z 00000KT 1 3/4SM BR FEW080 13/13 A2996 830 96 900 000/00 RMK AO2
14837KMSN MSN20110626033009706/26/11 03:30:31  5-MIN KMSN 260930Z 00000KT 2SM BR FEW080 13/13 A2996 830 96 900 000/00 RMK AO2
14837KMSN MSN20110626033509706/26/11 03:35:31  5-MIN KMSN 260935Z 00000KT 2SM BR FEW080 13/13 A2997 820 96 900 000/00 RMK AO2
14837KMSN MSN20110626034009706/26/11 03:40:31  5-MIN KMSN 260940Z 00000KT 2SM BR FEW080 13/12 A2997 820 96 800 000/00 RMK AO2
14837KMSN MSN20110626034509706/26/11 03:45:31  5-MIN KMSN 260945Z 00000KT 2SM BR FEW080 13/13 A2997 820 96 800 000/00 RMK AO2
14837KMSN MSN20110626035011506/26/11 03:50:31  5-MIN KMSN 260950Z 00000KT 2SM BR FEW080 12/12 A2998 810 100 700 000/00 RMK AO2 SLP148 T01220122
14837KMSN MSN20110626035509806/26/11 03:55:31  5-MIN KMSN 260955Z 00000KT 2SM BR SCT080 12/12 A2998 810 100 700 000/00 RMK AO2
14837KMSN MSN20110626040009706/26/11 04:00:31  5-MIN KMSN 261000Z 00000KT 2SM BR SCT080 13/12 A2998 810 96 800 000/00 RMK AO2
14837KMSN MSN20110626040509806/26/11 04:05:31  5-MIN KMSN 261005Z 00000KT 1SM BR SCT080 12/12 A2998 810 100 700 000/00 RMK AO2
14837KMSN MSN20110626041009806/26/11 04:10:31  5-MIN KMSN 261010Z 00000KT 1SM BR SCT080 13/13 A2998 810 100 800 000/00 RMK AO2
14837KMSN MSN20110626041509706/26/11 04:15:31  5-MIN KMSN 261015Z 00000KT 2SM BR SCT080 13/12 A2998 810 96 800 000/00 RMK AO2
14837KMSN MSN20110626042009806/26/11 04:20:31  5-MIN KMSN 261020Z 00000KT 2SM BR SCT080 12/12 A2999 800 100 600 000/00 RMK AO2
14837KMSN MSN20110626042509806/26/11 04:25:31  5-MIN KMSN 261025Z 00000KT 2SM BR SCT080 12/12 A2999 800 100 700 000/00 RMK AO2
14837KMSN MSN20110626043009706/26/11 04:30:31  5-MIN KMSN 261030Z 00000KT 2SM BR SCT080 13/12 A2998 800 96 800 000/00 RMK AO2
14837KMSN MSN20110626043509706/26/11 04:35:31  5-MIN KMSN 261035Z 00000KT 3SM BR SCT070 13/12 A2998 810 96 800 000/00 RMK AO2
14837KMSN MSN20110626044009806/26/11 04:40:31  5-MIN KMSN 261040Z 00000KT 3SM BR SCT070 12/12 A2998 800 100 700 000/00 RMK AO2
14837KMSN MSN20110626044509806/26/11 04:45:31  5-MIN KMSN 261045Z 00000KT 3SM BR SCT070 12/12 A2999 800 100 700 000/00 RMK AO2
14837KMSN MSN20110626045011406/26/11 04:50:31  5-MIN KMSN 261050Z 00000KT 4SM BR BKN100 13/12 A2998 810 96 800 000/00 RMK AO2 SLP151 T01280122
14837KMSN MSN20110626045509706/26/11 04:55:31  5-MIN KMSN 261055Z 00000KT 4SM BR BKN100 13/12 A2999 800 96 800 000/00 RMK AO2
14837KMSN MSN20110626050009706/26/11 05:00:31  5-MIN KMSN 261100Z 00000KT 4SM BR BKN100 13/12 A2999 800 96 800 000/00 RMK AO2
14837KMSN MSN20110626050509706/26/11 05:05:31  5-MIN KMSN 261105Z 00000KT 4SM BR BKN100 13/12 A2998 810 93 800 000/00 RMK AO2
14837KMSN MSN20110626051009706/26/11 05:10:31  5-MIN KMSN 261110Z 00000KT 4SM BR BKN100 13/13 A2998 810 96 800 000/00 RMK AO2
14837KMSN MSN20110626051509706/26/11 05:15:31  5-MIN KMSN 261115Z 00000KT 4SM BR BKN100 14/13 A2998 810 93 900 000/00 RMK AO2
14837KMSN MSN20110626052009706/26/11 05:20:31  5-MIN KMSN 261120Z 00000KT 4SM BR BKN100 14/13 A2998 810 93 900 000/00 RMK AO2
14837KMSN MSN20110626052509806/26/11 05:25:31  5-MIN KMSN 261125Z 00000KT 4SM BR BKN100 14/13 A2998 810 93 1000 000/00 RMK AO2
14837KMSN MSN20110626053009806/26/11 05:30:31  5-MIN KMSN 261130Z 00000KT 4SM BR BKN100 14/13 A2999 800 93 1000 000/00 RMK AO2
14837KMSN MSN20110626053509806/26/11 05:35:31  5-MIN KMSN 261135Z 00000KT 3SM BR BKN100 14/13 A2999 800 93 1000 000/00 RMK AO2
14837KMSN MSN20110626054010806/26/11 05:40:31  5-MIN KMSN 261140Z 00000KT 3SM BR BKN100 14/14 A2999 800 96 1000 000/00 RMK AO2 TWR VIS 6
14837KMSN MSN20110626054510806/26/11 05:45:31  5-MIN KMSN 261145Z 00000KT 3SM BR BKN120 15/14 A2999 800 93 1000 000/00 RMK AO2 TWR VIS 6
14837KMSN MSN20110626055013306/26/11 05:50:31  5-MIN KMSN 261150Z 00000KT 4SM BR BKN120 15/14 A3000 790 93 1000 000/00 RMK AO2 SLP156 T01500139 10156 20117 53003
14837KMSN MSN20110626055509806/26/11 05:55:31  5-MIN KMSN 261155Z 00000KT 4SM BR BKN120 16/14 A3000 790 93 1100 000/00 RMK AO2
14837KMSN MSN20110626060009806/26/11 06:00:31  5-MIN KMSN 261200Z 00000KT 4SM BR BKN120 16/14 A3000 790 93 1100 000/00 RMK AO2
14837KMSN MSN20110626060509806/26/11 06:05:31  5-MIN KMSN 261205Z 00000KT 4SM BR BKN120 16/15 A3000 790 96 1100 000/00 RMK AO2
14837KMSN MSN20110626061009806/26/11 06:10:31  5-MIN KMSN 261210Z 00000KT 4SM BR BKN120 16/14 A3000 790 93 1100 000/00 RMK AO2
14837KMSN MSN20110626061509806/26/11 06:15:31  5-MIN KMSN 261215Z 00000KT 4SM BR BKN120 16/14 A2999 800 93 1100 000/00 RMK AO2
14837KMSN MSN20110626062009806/26/11 06:20:31  5-MIN KMSN 261220Z 00000KT 4SM BR BKN120 16/14 A2999 800 93 1100 000/00 RMK AO2
14837KMSN MSN20110626062509806/26/11 06:25:31  5-MIN KMSN 261225Z 00000KT 4SM BR SCT120 16/15 A3000 790 96 1100 000/00 RMK AO2
14837KMSN MSN20110626063009806/26/11 06:30:31  5-MIN KMSN 261230Z 00000KT 4SM BR SCT120 16/15 A3000 790 93 1100 000/00 RMK AO2
14837KMSN MSN20110626063509806/26/11 06:35:31  5-MIN KMSN 261235Z 00000KT 4SM BR SCT120 16/15 A3000 790 93 1100 000/00 RMK AO2
14837KMSN MSN20110626064009806/26/11 06:40:31  5-MIN KMSN 261240Z 00000KT 4SM BR SCT120 16/14 A3001 790 90 1100 000/00 RMK AO2
14837KMSN MSN20110626064509806/26/11 06:45:31  5-MIN KMSN 261245Z 00000KT 4SM BR SCT120 16/15 A3001 780 93 1100 000/00 RMK AO2
14837KMSN MSN20110626065011506/26/11 06:50:31  5-MIN KMSN 261250Z 00000KT 4SM BR SCT120 17/15 A3001 780 90 1200 000/00 RMK AO2 SLP159 T01670150
14837KMSN MSN20110626065509506/26/11 06:55:31  5-MIN KMSN 261255Z 00000KT 4SM BR CLR 17/16 A3001 780 90 1300 000/00 RMK AO2
14837KMSN MSN20110626070009506/26/11 07:00:31  5-MIN KMSN 261300Z 00000KT 4SM BR CLR 18/16 A3001 790 87 1300 000/00 RMK AO2
14837KMSN MSN20110626070509506/26/11 07:05:31  5-MIN KMSN 261305Z 00000KT 5SM BR CLR 18/16 A3000 790 87 1300 000/00 RMK AO2
14837KMSN MSN20110626071009506/26/11 07:10:31  5-MIN KMSN 261310Z 14003KT 5SM HZ CLR 18/16 A3000 790 84 1400 140/03 RMK AO2
14837KMSN MSN20110626071509806/26/11 07:15:31  5-MIN KMSN 261315Z 00000KT 6SM HZ FEW120 18/16 A3000 790 84 1400 000/00 RMK AO2
14837KMSN MSN20110626072009806/26/11 07:20:31  5-MIN KMSN 261320Z 00000KT 6SM HZ FEW120 19/16 A3000 790 81 1500 000/00 RMK AO2
14837KMSN MSN20110626072509806/26/11 07:25:31  5-MIN KMSN 261325Z 00000KT 6SM HZ FEW120 19/16 A2999 800 84 1500 000/00 RMK AO2
14837KMSN MSN20110626073009506/26/11 07:30:31  5-MIN KMSN 261330Z 14003KT 7SM FEW120 19/16 A2999 800 78 1500 140/03 RMK AO2
14837KMSN MSN20110626073509506/26/11 07:35:31  5-MIN KMSN 261335Z VRB03KT 7SM FEW120 20/16 A2999 800 78 1600 VRB/03 RMK AO2
14837KMSN MSN20110626074009506/26/11 07:40:31  5-MIN KMSN 261340Z 00000KT 8SM FEW120 21/16 A2999 800 75 1700 000/00 RMK AO2
14837KMSN MSN20110626074509506/26/11 07:45:31  5-MIN KMSN 261345Z 14003KT 9SM FEW120 21/16 A2999 800 73 1700 140/03 RMK AO2
14837KMSN MSN20110626075011306/26/11 07:50:31  5-MIN KMSN 261350Z 11003KT 10SM FEW120 21/16 A2999 800 70 1700 110/03 RMK AO2 SLP152 T02110156
14837KMSN MSN20110626075509606/26/11 07:55:31  5-MIN KMSN 261355Z 13003KT 10SM FEW120 22/16 A2999 800 68 1800 130/03 RMK AO2
14837KMSN MSN20110626080009606/26/11 08:00:31  5-MIN KMSN 261400Z 12007KT 10SM FEW120 22/15 A2998 810 65 1800 130/07 RMK AO2
14837KMSN MSN20110626080509606/26/11 08:05:31  5-MIN KMSN 261405Z 12008KT 10SM FEW120 22/14 A2999 800 63 1800 120/08 RMK AO2
14837KMSN MSN20110626081009606/26/11 08:10:31  5-MIN KMSN 261410Z 13007KT 10SM FEW120 22/14 A2999 800 61 1800 130/07 RMK AO2
14837KMSN MSN20110626081509606/26/11 08:15:31  5-MIN KMSN 261415Z 13008KT 10SM FEW120 22/14 A2999 800 59 1900 130/08 RMK AO2
14837KMSN MSN20110626082009606/26/11 08:20:31  5-MIN KMSN 261420Z 14006KT 10SM FEW120 22/13 A2999 800 54 1900 140/06 RMK AO2
14837KMSN MSN20110626082509606/26/11 08:25:31  5-MIN KMSN 261425Z 13008KT 10SM FEW120 22/14 A2999 800 59 1900 140/08 RMK AO2
14837KMSN MSN20110626083009306/26/11 08:30:31  5-MIN KMSN 261430Z 14007KT 10SM CLR 22/14 A2999 800 59 1900 140/07 RMK AO2
14837KMSN MSN20110626083509306/26/11 08:35:31  5-MIN KMSN 261435Z 14007KT 10SM CLR 23/14 A2999 800 57 1900 140/07 RMK AO2
14837KMSN MSN20110626084009306/26/11 08:40:31  5-MIN KMSN 261440Z 13008KT 10SM CLR 23/14 A2999 800 59 1900 130/08 RMK AO2
14837KMSN MSN20110626084509306/26/11 08:45:31  5-MIN KMSN 261445Z 13007KT 10SM CLR 23/14 A2999 800 59 1900 130/07 RMK AO2
14837KMSN MSN20110626085011606/26/11 08:50:31  5-MIN KMSN 261450Z 17008KT 10SM CLR 23/14 A2999 800 57 1900 170/08 RMK AO2 SLP153 T02280139 51014
14837KMSN MSN20110626085509306/26/11 08:55:31  5-MIN KMSN 261455Z 15006KT 10SM CLR 23/13 A2999 800 53 2000 150/06 RMK AO2
14837KMSN MSN20110626090009306/26/11 09:00:31  5-MIN KMSN 261500Z 15007KT 10SM CLR 23/13 A2999 800 55 1900 150/07 RMK AO2
14837KMSN MSN20110626090509306/26/11 09:05:31  5-MIN KMSN 261505Z 14009KT 10SM CLR 23/13 A2998 810 53 2000 150/09 RMK AO2
14837KMSN MSN20110626091009306/26/11 09:10:31  5-MIN KMSN 261510Z 14008KT 10SM CLR 23/13 A2999 800 53 2000 140/08 RMK AO2
14837KMSN MSN20110626091509306/26/11 09:15:31  5-MIN KMSN 261515Z 15008KT 10SM CLR 23/13 A2999 800 51 2000 150/08 RMK AO2
14837KMSN MSN20110626092009306/26/11 09:20:31  5-MIN KMSN 261520Z 18007KT 10SM CLR 23/12 A2999 800 49 2000 180/07 RMK AO2
14837KMSN MSN20110626092509306/26/11 09:25:31  5-MIN KMSN 261525Z 17010KT 10SM CLR 24/12 A2999 800 46 2100 170/10 RMK AO2
14837KMSN MSN20110626093009306/26/11 09:30:31  5-MIN KMSN 261530Z 17010KT 10SM CLR 24/11 A2999 800 44 2100 170/10 RMK AO2
14837KMSN MSN20110626093509306/26/11 09:35:31  5-MIN KMSN 261535Z 16008KT 10SM CLR 23/11 A2998 810 45 2000 160/08 RMK AO2
14837KMSN MSN20110626094009306/26/11 09:40:31  5-MIN KMSN 261540Z 17011KT 10SM CLR 24/11 A2998 810 42 2100 180/11 RMK AO2
14837KMSN MSN20110626094509306/26/11 09:45:31  5-MIN KMSN 261545Z 16010KT 10SM CLR 24/11 A2998 810 42 2100 160/10 RMK AO2
14837KMSN MSN20110626095011006/26/11 09:50:31  5-MIN KMSN 261550Z 14006KT 10SM CLR 24/11 A2997 820 42 2100 150/06 RMK AO2 SLP147 T02390106
14837KMSN MSN20110626095509306/26/11 09:55:31  5-MIN KMSN 261555Z 15010KT 10SM CLR 24/11 A2997 810 42 2100 150/10 RMK AO2
14837KMSN MSN20110626100009306/26/11 10:00:31  5-MIN KMSN 261600Z 16011KT 10SM CLR 24/11 A2997 810 42 2100 160/11 RMK AO2
14837KMSN MSN20110626100509306/26/11 10:05:31  5-MIN KMSN 261605Z 13012KT 10SM CLR 24/11 A2997 820 41 2100 140/12 RMK AO2
14837KMSN MSN20110626101009306/26/11 10:10:31  5-MIN KMSN 261610Z 15008KT 10SM CLR 25/11 A2998 810 39 2200 150/08 RMK AO2
14837KMSN MSN20110626101509306/26/11 10:15:31  5-MIN KMSN 261615Z 12011KT 10SM CLR 24/11 A2998 810 42 2100 130/11 RMK AO2
14837KMSN MSN20110626102009306/26/11 10:20:31  5-MIN KMSN 261620Z 12010KT 10SM CLR 24/11 A2998 810 42 2100 120/10 RMK AO2
14837KMSN MSN20110626102509306/26/11 10:25:31  5-MIN KMSN 261625Z 13009KT 10SM CLR 24/11 A2998 810 42 2100 140/09 RMK AO2
14837KMSN MSN20110626103009306/26/11 10:30:31  5-MIN KMSN 261630Z 14012KT 10SM CLR 24/12 A2998 810 44 2100 140/12 RMK AO2
14837KMSN MSN20110626103509306/26/11 10:35:31  5-MIN KMSN 261635Z 15008KT 10SM CLR 24/11 A2997 820 42 2100 150/08 RMK AO2
14837KMSN MSN20110626104009306/26/11 10:40:31  5-MIN KMSN 261640Z 13010KT 10SM CLR 25/12 A2998 810 43 2200 130/10 RMK AO2
14837KMSN MSN20110626104509306/26/11 10:45:31  5-MIN KMSN 261645Z 12010KT 10SM CLR 25/12 A2998 810 43 2200 120/10 RMK AO2
14837KMSN MSN20110626105011606/26/11 10:50:31  5-MIN KMSN 261650Z 13013G17KT 10SM CLR 25/12 A2998 810 44 2200 130/13G17 RMK AO2 SLP148 T02500122
14837KMSN MSN20110626105509906/26/11 10:55:31  5-MIN KMSN 261655Z 12011G17KT 10SM CLR 25/12 A2998 810 44 2200 120/11G17 RMK AO2
14837KMSN MSN20110626110009306/26/11 11:00:31  5-MIN KMSN 261700Z 12010KT 10SM CLR 25/12 A2998 810 44 2200 130/10 RMK AO2
14837KMSN MSN20110626110509306/26/11 11:05:31  5-MIN KMSN 261705Z 13010KT 10SM CLR 25/12 A2998 810 44 2200 130/10 RMK AO2
14837KMSN MSN20110626111009306/26/11 11:10:31  5-MIN KMSN 261710Z 12011KT 10SM CLR 25/12 A2997 820 43 2200 130/11 RMK AO2
14837KMSN MSN20110626111509906/26/11 11:15:31  5-MIN KMSN 261715Z 16008G17KT 10SM CLR 26/13 A2997 820 44 2300 160/08G17 RMK AO2
14837KMSN MSN20110626112009906/26/11 11:20:31  5-MIN KMSN 261720Z VRB06G17KT 10SM CLR 25/12 A2997 820 44 2200 VRB/06G17 RMK AO2
14837KMSN MSN20110626112509906/26/11 11:25:31  5-MIN KMSN 261725Z 15012G15KT 10SM CLR 26/13 A2997 820 44 2300 150/12G15 RMK AO2
14837KMSN MSN20110626113009306/26/11 11:30:31  5-MIN KMSN 261730Z 13010KT 10SM CLR 26/12 A2997 820 43 2300 130/10 RMK AO2
14837KMSN MSN20110626113509906/26/11 11:35:31  5-MIN KMSN 261735Z 12009G15KT 10SM CLR 25/12 A2997 820 44 2200 120/09G15 RMK AO2
14837KMSN MSN20110626114009306/26/11 11:40:31  5-MIN KMSN 261740Z 14010KT 10SM CLR 26/13 A2997 820 44 2300 140/10 RMK AO2
14837KMSN MSN20110626114509306/26/11 11:45:31  5-MIN KMSN 261745Z 16009KT 10SM CLR 26/12 A2997 820 43 2300 160/09 RMK AO2
14837KMSN MSN20110626115013406/26/11 11:50:31  5-MIN KMSN 261750Z 13011G15KT 10SM CLR 26/12 A2997 820 43 2300 130/11G15 RMK AO2 SLP145 T02560122 10256 20150 58003
14837KMSN MSN20110626115509906/26/11 11:55:31  5-MIN KMSN 261755Z 13012G15KT 10SM CLR 26/12 A2997 820 43 2300 140/12G15 RMK AO2
14837KMSN MSN20110626120009306/26/11 12:00:31  5-MIN KMSN 261800Z 17010KT 10SM CLR 26/12 A2996 820 40 2300 170/10 RMK AO2
14837KMSN MSN20110626120509306/26/11 12:05:31  5-MIN KMSN 261805Z 13011KT 10SM CLR 26/12 A2996 830 41 2300 130/11 RMK AO2
14837KMSN MSN20110626121009906/26/11 12:10:31  5-MIN KMSN 261810Z 15012G18KT 10SM CLR 26/12 A2996 830 41 2300 150/12G18 RMK AO2
14837KMSN MSN20110626121509906/26/11 12:15:31  5-MIN KMSN 261815Z 16007G18KT 10SM CLR 26/12 A2996 830 43 2300 170/07G18 RMK AO2
14837KMSN MSN20110626122009906/26/11 12:20:31  5-MIN KMSN 261820Z 14009G16KT 10SM CLR 26/12 A2996 830 43 2300 140/09G16 RMK AO2
14837KMSN MSN20110626122509906/26/11 12:25:31  5-MIN KMSN 261825Z 14014G18KT 10SM CLR 26/12 A2996 830 40 2300 140/14G18 RMK AO2
14837KMSN MSN20110626123009906/26/11 12:30:31  5-MIN KMSN 261830Z 13010G18KT 10SM CLR 26/12 A2996 830 41 2300 130/10G18 RMK AO2
14837KMSN MSN20110626123509906/26/11 12:35:31  5-MIN KMSN 261835Z 15010G16KT 10SM CLR 26/12 A2996 830 41 2300 160/10G16 RMK AO2
14837KMSN MSN20110626124009306/26/11 12:40:31  5-MIN KMSN 261840Z 18007KT 10SM CLR 26/12 A2995 830 40 2300 180/07 RMK AO2
14837KMSN MSN20110626124509306/26/11 12:45:31  5-MIN KMSN 261845Z 13008KT 10SM CLR 26/13 A2995 830 43 2300 130/08 RMK AO2
14837KMSN MSN20110626125011006/26/11 12:50:31  5-MIN KMSN 261850Z 14009KT 10SM CLR 26/13 A2996 830 43 2300 140/09 RMK AO2 SLP141 T02610128
14837KMSN MSN20110626125509306/26/11 12:55:31  5-MIN KMSN 261855Z 15011KT 10SM CLR 26/12 A2995 830 40 2300 150/11 RMK AO2
14837KMSN MSN20110626130009306/26/11 13:00:31  5-MIN KMSN 261900Z 11009KT 10SM CLR 26/12 A2995 840 40 2300 110/09 RMK AO2
14837KMSN MSN20110626130509306/26/11 13:05:31  5-MIN KMSN 261905Z 13010KT 10SM CLR 26/12 A2995 840 41 2300 130/10 RMK AO2
14837KMSN MSN20110626131009306/26/11 13:10:31  5-MIN KMSN 261910Z 13007KT 10SM CLR 26/12 A2995 840 40 2400 130/07 RMK AO2
14837KMSN MSN20110626131509906/26/11 13:15:31  5-MIN KMSN 261915Z 15010G16KT 10SM CLR 27/12 A2995 840 38 2400 150/10G16 RMK AO2
14837KMSN MSN20110626132009906/26/11 13:20:31  5-MIN KMSN 261920Z 13008G16KT 10SM CLR 26/12 A2994 850 40 2400 130/08G16 RMK AO2
14837KMSN MSN20110626132509306/26/11 13:25:31  5-MIN KMSN 261925Z 14011KT 10SM CLR 26/12 A2994 850 40 2400 140/11 RMK AO2
14837KMSN MSN20110626133009306/26/11 13:30:31  5-MIN KMSN 261930Z 13010KT 10SM CLR 27/12 A2994 850 38 2400 130/10 RMK AO2
14837KMSN MSN20110626133509306/26/11 13:35:31  5-MIN KMSN 261935Z 12007KT 10SM CLR 26/13 A2993 850 43 2400 120/07 RMK AO2
14837KMSN MSN20110626134010906/26/11 13:40:31  5-MIN KMSN 261940Z 16007KT 110V200 10SM CLR 27/12 A2993 850 40 2400 160/07 110V200 RMK AO2
14837KMSN MSN20110626134509306/26/11 13:45:31  5-MIN KMSN 261945Z 11009KT 10SM CLR 26/13 A2993 850 43 2400 110/09 RMK AO2
14837KMSN MSN20110626135011606/26/11 13:50:31  5-MIN KMSN 261950Z 13013G18KT 10SM CLR 26/12 A2993 850 41 2400 130/13G18 RMK AO2 SLP132 T02610122
14837KMSN MSN20110626135509906/26/11 13:55:31  5-MIN KMSN 261955Z 16010G18KT 10SM CLR 27/12 A2993 850 40 2400 160/10G18 RMK AO2
14837KMSN MSN20110626140009906/26/11 14:00:31  5-MIN KMSN 262000Z 14014G18KT 10SM CLR 27/12 A2993 860 40 2400 140/14G18 RMK AO2
14837KMSN MSN20110626140509306/26/11 14:05:31  5-MIN KMSN 262005Z 13012KT 10SM CLR 26/12 A2993 860 41 2400 140/12 RMK AO2
14837KMSN MSN20110626141009906/26/11 14:10:31  5-MIN KMSN 262010Z 15010G17KT 10SM CLR 26/12 A2993 860 41 2400 150/10G17 RMK AO2
14837KMSN MSN20110626141509906/26/11 14:15:31  5-MIN KMSN 262015Z 10010G17KT 10SM CLR 26/12 A2993 860 41 2400 100/10G17 RMK AO2
14837KMSN MSN20110626142009906/26/11 14:20:31  5-MIN KMSN 262020Z 11013G18KT 10SM CLR 27/13 A2993 860 43 2400 110/13G18 RMK AO2
14837KMSN MSN20110626142509906/26/11 14:25:31  5-MIN KMSN 262025Z 12011G18KT 10SM CLR 26/12 A2992 860 41 2400 130/11G18 RMK AO2
14837KMSN MSN20110626143011506/26/11 14:30:31  5-MIN KMSN 262030Z 12016G24KT 090V160 10SM CLR 27/13 A2991 870 43 2500 120/16G24 090V160 RMK AO2
14837KMSN MSN20110626143509906/26/11 14:35:31  5-MIN KMSN 262035Z 14010G24KT 10SM CLR 27/12 A2991 870 38 2500 150/10G24 RMK AO2
14837KMSN MSN20110626144009906/26/11 14:40:31  5-MIN KMSN 262040Z 14014G21KT 10SM CLR 27/12 A2991 870 40 2500 140/14G21 RMK AO2
14837KMSN MSN20110626144509906/26/11 14:45:31  5-MIN KMSN 262045Z 12015G21KT 10SM CLR 26/12 A2991 870 40 2400 120/15G21 RMK AO2
14837KMSN MSN20110626145011606/26/11 14:50:31  5-MIN KMSN 262050Z 12013KT 10SM CLR 27/12 A2991 870 40 2500 120/13 RMK AO2 SLP125 T02670122 56008
14837KMSN MSN20110626145509906/26/11 14:55:31  5-MIN KMSN 262055Z 13010G18KT 10SM CLR 26/13 A2991 870 43 2400 140/10G18 RMK AO2
14837KMSN MSN20110626150009906/26/11 15:00:31  5-MIN KMSN 262100Z 13011G18KT 10SM CLR 27/12 A2991 870 40 2500 130/11G18 RMK AO2
14837KMSN MSN20110626150509306/26/11 15:05:31  5-MIN KMSN 262105Z 14013KT 10SM CLR 27/12 A2991 870 40 2500 140/13 RMK AO2
14837KMSN MSN20110626151009306/26/11 15:10:31  5-MIN KMSN 262110Z 13012KT 10SM CLR 27/12 A2992 870 40 2400 130/12 RMK AO2
14837KMSN MSN20110626151509306/26/11 15:15:31  5-MIN KMSN 262115Z 12010KT 10SM CLR 26/12 A2991 870 41 2400 130/10 RMK AO2
14837KMSN MSN20110626152009306/26/11 15:20:31  5-MIN KMSN 262120Z 14015KT 10SM CLR 27/12 A2991 870 38 2500 150/15 RMK AO2
14837KMSN MSN20110626152509906/26/11 15:25:31  5-MIN KMSN 262125Z 14011G19KT 10SM CLR 27/12 A2991 870 38 2500 140/11G19 RMK AO2
14837KMSN MSN20110626153009906/26/11 15:30:31  5-MIN KMSN 262130Z 15011G19KT 10SM CLR 27/12 A2991 870 40 2500 150/11G19 RMK AO2
14837KMSN MSN20110626153509306/26/11 15:35:31  5-MIN KMSN 262135Z 12012KT 10SM CLR 27/13 A2991 870 41 2500 120/12 RMK AO2
14837KMSN MSN20110626154009306/26/11 15:40:31  5-MIN KMSN 262140Z 11012KT 10SM CLR 26/12 A2991 870 41 2400 120/12 RMK AO2
14837KMSN MSN20110626154509306/26/11 15:45:31  5-MIN KMSN 262145Z 12012KT 10SM CLR 27/12 A2991 870 40 2500 120/12 RMK AO2
14837KMSN MSN20110626155011006/26/11 15:50:31  5-MIN KMSN 262150Z 14012KT 10SM CLR 26/12 A2991 880 41 2400 140/12 RMK AO2 SLP123 T02610122
14837KMSN MSN20110626155509906/26/11 15:55:31  5-MIN KMSN 262155Z 15013G19KT 10SM CLR 26/12 A2991 870 40 2400 150/13G19 RMK AO2
14837KMSN MSN20110626160009306/26/11 16:00:31  5-MIN KMSN 262200Z 13012KT 10SM CLR 27/12 A2991 870 38 2500 130/12 RMK AO2
14837KMSN MSN20110626160509906/26/11 16:05:31  5-MIN KMSN 262205Z 13014G20KT 10SM CLR 26/12 A2990 880 40 2400 130/14G20 RMK AO2
14837KMSN MSN20110626161009306/26/11 16:10:31  5-MIN KMSN 262210Z 13013KT 10SM CLR 26/12 A2990 880 40 2400 130/13 RMK AO2
14837KMSN MSN20110626161509906/26/11 16:15:31  5-MIN KMSN 262215Z 14013G18KT 10SM CLR 26/12 A2990 880 40 2400 140/13G18 RMK AO2
14837KMSN MSN20110626162009906/26/11 16:20:31  5-MIN KMSN 262220Z 13015G20KT 10SM CLR 26/12 A2990 880 40 2400 140/15G20 RMK AO2
14837KMSN MSN20110626162509906/26/11 16:25:31  5-MIN KMSN 262225Z 13013G20KT 10SM CLR 26/12 A2990 880 40 2400 130/13G20 RMK AO2
14837KMSN MSN20110626163009306/26/11 16:30:31  5-MIN KMSN 262230Z 13015KT 10SM CLR 26/12 A2990 890 40 2400 130/15 RMK AO2
14837KMSN MSN20110626163509906/26/11 16:35:31  5-MIN KMSN 262235Z 14015G20KT 10SM CLR 26/11 A2989 890 38 2400 140/15G20 RMK AO2
14837KMSN MSN20110626164009906/26/11 16:40:31  5-MIN KMSN 262240Z 14012G20KT 10SM CLR 26/11 A2990 890 40 2300 140/12G20 RMK AO2
14837KMSN MSN20110626164509306/26/11 16:45:31  5-MIN KMSN 262245Z 14012KT 10SM CLR 26/12 A2990 890 40 2400 140/12 RMK AO2
14837KMSN MSN20110626165011606/26/11 16:50:31  5-MIN KMSN 262250Z 14012G20KT 10SM CLR 26/12 A2989 890 41 2400 140/12G20 RMK AO2 SLP118 T02560117
14837KMSN MSN20110626165509906/26/11 16:55:31  5-MIN KMSN 262255Z 14013G20KT 10SM CLR 26/12 A2989 890 41 2400 140/13G20 RMK AO2
14837KMSN MSN20110626170009906/26/11 17:00:31  5-MIN KMSN 262300Z 13012G19KT 10SM CLR 26/11 A2989 890 40 2400 130/12G19 RMK AO2
14837KMSN MSN20110626170509906/26/11 17:05:31  5-MIN KMSN 262305Z 13011G19KT 10SM CLR 26/12 A2989 890 41 2400 130/11G19 RMK AO2
14837KMSN MSN20110626171009906/26/11 17:10:31  5-MIN KMSN 262310Z 13015G21KT 10SM CLR 26/11 A2989 890 40 2400 130/15G21 RMK AO2
14837KMSN MSN20110626171509906/26/11 17:15:31  5-MIN KMSN 262315Z 13014G21KT 10SM CLR 26/11 A2989 890 38 2400 140/14G21 RMK AO2
14837KMSN MSN20110626172009306/26/11 17:20:31  5-MIN KMSN 262320Z 14012KT 10SM CLR 26/11 A2989 890 40 2400 140/12 RMK AO2
14837KMSN MSN20110626172509906/26/11 17:25:31  5-MIN KMSN 262325Z 13015G18KT 10SM CLR 26/11 A2989 890 40 2400 130/15G18 RMK AO2
14837KMSN MSN20110626173009906/26/11 17:30:31  5-MIN KMSN 262330Z 14013G18KT 10SM CLR 25/11 A2989 900 41 2300 140/13G18 RMK AO2
14837KMSN MSN20110626173509306/26/11 17:35:31  5-MIN KMSN 262335Z 13012KT 10SM CLR 25/11 A2989 890 39 2300 140/12 RMK AO2
14837KMSN MSN20110626174009306/26/11 17:40:31  5-MIN KMSN 262340Z 14009KT 10SM CLR 25/11 A2989 890 41 2300 140/09 RMK AO2
14837KMSN MSN20110626174509306/26/11 17:45:31  5-MIN KMSN 262345Z 14008KT 10SM CLR 25/11 A2989 890 41 2300 140/08 RMK AO2
14837KMSN MSN20110626175012806/26/11 17:50:31  5-MIN KMSN 262350Z 13013KT 10SM CLR 25/11 A2989 890 41 2300 130/13 RMK AO2 SLP119 T02500111 10267 20250 58018
14837KMSN MSN20110626175509306/26/11 17:55:31  5-MIN KMSN 262355Z 13009KT 10SM CLR 25/11 A2990 890 39 2300 140/09 RMK AO2
14837KMSN MSN20110626180009306/26/11 18:00:31  5-MIN KMSN 270000Z 14010KT 10SM CLR 25/11 A2990 880 39 2300 140/10 RMK AO2
14837KMSN MSN20110626180509306/26/11 18:05:31  5-MIN KMSN 270005Z 13012KT 10SM CLR 24/11 A2990 890 42 2200 140/12 RMK AO2
14837KMSN MSN20110626181009306/26/11 18:10:31  5-MIN KMSN 270010Z 13011KT 10SM CLR 24/11 A2990 890 42 2200 130/11 RMK AO2
14837KMSN MSN20110626181509306/26/11 18:15:31  5-MIN KMSN 270015Z 14009KT 10SM CLR 24/11 A2990 880 42 2200 140/09 RMK AO2
14837KMSN MSN20110626182009306/26/11 18:20:31  5-MIN KMSN 270020Z 14010KT 10SM CLR 24/11 A2991 880 41 2200 140/10 RMK AO2
14837KMSN MSN20110626182510006/26/11 18:25:31  5-MIN KMSN 270025Z 15008KT 10SM CLR 24/11 A2993 860 41 2200 150/08 RMK AO2 PRESRR
14837KMSN MSN20110626183009306/26/11 18:30:31  5-MIN KMSN 270030Z 16011KT 10SM CLR 25/11 A2992 860 39 2300 160/11 RMK AO2
14837KMSN MSN20110626183509306/26/11 18:35:31  5-MIN KMSN 270035Z 14008KT 10SM CLR 24/11 A2992 870 41 2200 150/08 RMK AO2
14837KMSN MSN20110626184009306/26/11 18:40:31  5-MIN KMSN 270040Z 13009KT 10SM CLR 24/11 A2991 870 42 2100 140/09 RMK AO2
14837KMSN MSN20110626184509306/26/11 18:45:31  5-MIN KMSN 270045Z 13008KT 10SM CLR 24/11 A2991 870 44 2100 130/08 RMK AO2
14837KMSN MSN20110626185011006/26/11 18:50:31  5-MIN KMSN 270050Z 14008KT 10SM CLR 24/11 A2992 860 42 2100 140/08 RMK AO2 SLP129 T02390106
14837KMSN MSN20110626185509306/26/11 18:55:31  5-MIN KMSN 270055Z 14007KT 10SM CLR 23/11 A2993 850 45 2100 140/07 RMK AO2
14837KMSN MSN20110626190010006/26/11 19:00:31  5-MIN KMSN 270100Z 13006KT 10SM CLR 23/11 A2994 850 44 2000 130/06 RMK AO2 PRESRR
14837KMSN MSN20110626190509306/26/11 19:05:31  5-MIN KMSN 270105Z 13006KT 10SM CLR 23/11 A2994 850 44 2000 130/06 RMK AO2
14837KMSN MSN20110626191009306/26/11 19:10:31  5-MIN KMSN 270110Z 12006KT 10SM CLR 23/11 A2993 850 47 2000 130/06 RMK AO2
14837KMSN MSN20110626191509306/26/11 19:15:31  5-MIN KMSN 270115Z 12006KT 10SM CLR 23/11 A2992 860 47 2000 120/06 RMK AO2
14837KMSN MSN20110626192009306/26/11 19:20:31  5-MIN KMSN 270120Z 12007KT 10SM CLR 22/12 A2992 860 52 1900 120/07 RMK AO2
14837KMSN MSN20110626192509306/26/11 19:25:31  5-MIN KMSN 270125Z 12006KT 10SM CLR 21/12 A2992 870 54 1800 120/06 RMK AO2
14837KMSN MSN20110626193009306/26/11 19:30:31  5-MIN KMSN 270130Z 12007KT 10SM CLR 21/12 A2991 870 56 1800 120/07 RMK AO2
14837KMSN MSN20110626193509306/26/11 19:35:31  5-MIN KMSN 270135Z 12007KT 10SM CLR 21/12 A2992 870 54 1800 120/07 RMK AO2
14837KMSN MSN20110626194009306/26/11 19:40:31  5-MIN KMSN 270140Z 12006KT 10SM CLR 21/12 A2992 870 56 1800 120/06 RMK AO2
14837KMSN MSN20110626194509306/26/11 19:45:31  5-MIN KMSN 270145Z 11006KT 10SM CLR 21/12 A2992 860 58 1700 120/06 RMK AO2
14837KMSN MSN20110626195011006/26/11 19:50:31  5-MIN KMSN 270150Z 12005KT 10SM CLR 21/12 A2993 860 58 1700 120/05 RMK AO2 SLP130 T02060122
14837KMSN MSN20110626195509306/26/11 19:55:31  5-MIN KMSN 270155Z 11006KT 10SM CLR 21/12 A2992 860 58 1700 110/06 RMK AO2
14837KMSN MSN20110626200009306/26/11 20:00:31  5-MIN KMSN 270200Z 11007KT 10SM CLR 21/12 A2992 870 56 1800 120/07 RMK AO2
14837KMSN MSN20110626200509306/26/11 20:05:31  5-MIN KMSN 270205Z 11007KT 10SM CLR 20/12 A2992 870 58 1700 120/07 RMK AO2
14837KMSN MSN20110626201009306/26/11 20:10:31  5-MIN KMSN 270210Z 12008KT 10SM CLR 20/12 A2991 870 60 1700 120/08 RMK AO2
14837KMSN MSN20110626201509306/26/11 20:15:31  5-MIN KMSN 270215Z 11008KT 10SM CLR 20/12 A2991 870 60 1700 120/08 RMK AO2
14837KMSN MSN20110626202009306/26/11 20:20:31  5-MIN KMSN 270220Z 11009KT 10SM CLR 20/12 A2991 880 60 1700 110/09 RMK AO2
14837KMSN MSN20110626202509306/26/11 20:25:31  5-MIN KMSN 270225Z 11008KT 10SM CLR 20/12 A2990 880 58 1700 120/08 RMK AO2
14837KMSN MSN20110626203009306/26/11 20:30:31  5-MIN KMSN 270230Z 12008KT 10SM CLR 21/12 A2991 880 56 1800 120/08 RMK AO2
14837KMSN MSN20110626203509306/26/11 20:35:31  5-MIN KMSN 270235Z 12009KT 10SM CLR 21/12 A2990 880 56 1800 120/09 RMK AO2
14837KMSN MSN20110626204009306/26/11 20:40:31  5-MIN KMSN 270240Z 12009KT 10SM CLR 21/12 A2990 880 56 1800 120/09 RMK AO2
14837KMSN MSN20110626204509306/26/11 20:45:31  5-MIN KMSN 270245Z 12009KT 10SM CLR 21/12 A2990 880 56 1800 120/09 RMK AO2
14837KMSN MSN20110626205011606/26/11 20:50:31  5-MIN KMSN 270250Z 12009KT 10SM CLR 20/12 A2990 880 58 1700 120/09 RMK AO2 SLP121 T02000117 55005
14837KMSN MSN20110626205509306/26/11 20:55:31  5-MIN KMSN 270255Z 12010KT 10SM CLR 21/12 A2990 890 56 1800 120/10 RMK AO2
14837KMSN MSN20110626210009306/26/11 21:00:31  5-MIN KMSN 270300Z 12008KT 10SM CLR 20/12 A2990 890 58 1700 120/08 RMK AO2
14837KMSN MSN20110626210509306/26/11 21:05:31  5-MIN KMSN 270305Z 12008KT 10SM CLR 19/12 A2990 880 60 1600 120/08 RMK AO2
14837KMSN MSN20110626211009306/26/11 21:10:31  5-MIN KMSN 270310Z 12007KT 10SM CLR 20/12 A2990 890 58 1700 120/07 RMK AO2
14837KMSN MSN20110626211509306/26/11 21:15:31  5-MIN KMSN 270315Z 12007KT 10SM CLR 19/12 A2990 890 60 1700 120/07 RMK AO2
14837KMSN MSN20110626212009306/26/11 21:20:31  5-MIN KMSN 270320Z 12006KT 10SM CLR 19/12 A2989 890 60 1700 120/06 RMK AO2
14837KMSN MSN20110626212509306/26/11 21:25:31  5-MIN KMSN 270325Z 13006KT 10SM CLR 19/12 A2989 890 60 1700 130/06 RMK AO2
14837KMSN MSN20110626213009306/26/11 21:30:31  5-MIN KMSN 270330Z 12007KT 10SM CLR 20/12 A2989 890 58 1700 130/07 RMK AO2
14837KMSN MSN20110626213509306/26/11 21:35:31  5-MIN KMSN 270335Z 12007KT 10SM CLR 19/12 A2989 890 60 1700 120/07 RMK AO2
14837KMSN MSN20110626214009306/26/11 21:40:31  5-MIN KMSN 270340Z 12006KT 10SM CLR 19/12 A2989 890 60 1700 130/06 RMK AO2
14837KMSN MSN20110626214509306/26/11 21:45:31  5-MIN KMSN 270345Z 13005KT 10SM CLR 19/12 A2989 890 60 1700 130/05 RMK AO2
14837KMSN MSN20110626215011006/26/11 21:50:31  5-MIN KMSN 270350Z 13006KT 10SM CLR 19/12 A2990 890 60 1700 140/06 RMK AO2 SLP119 T01940117
14837KMSN MSN20110626215509306/26/11 21:55:31  5-MIN KMSN 270355Z 13007KT 10SM CLR 19/12 A2989 890 60 1700 130/07 RMK AO2
14837KMSN MSN20110626220009306/26/11 22:00:31  5-MIN KMSN 270400Z 13007KT 10SM CLR 19/12 A2988 900 60 1700 130/07 RMK AO2
14837KMSN MSN20110626220509306/26/11 22:05:31  5-MIN KMSN 270405Z 13006KT 10SM CLR 19/12 A2989 890 60 1700 130/06 RMK AO2
14837KMSN MSN20110626221009306/26/11 22:10:31  5-MIN KMSN 270410Z 14006KT 10SM CLR 19/12 A2990 890 60 1700 140/06 RMK AO2
14837KMSN MSN20110626221509306/26/11 22:15:31  5-MIN KMSN 270415Z 14007KT 10SM CLR 19/12 A2990 890 60 1700 140/07 RMK AO2
14837KMSN MSN20110626222009306/26/11 22:20:31  5-MIN KMSN 270420Z 14008KT 10SM CLR 20/12 A2989 890 58 1700 140/08 RMK AO2
14837KMSN MSN20110626222509306/26/11 22:25:31  5-MIN KMSN 270425Z 14009KT 10SM CLR 20/12 A2990 880 58 1700 150/09 RMK AO2
14837KMSN MSN20110626223009306/26/11 22:30:31  5-MIN KMSN 270430Z 14009KT 10SM CLR 20/12 A2990 880 58 1700 150/09 RMK AO2
14837KMSN MSN20110626223509306/26/11 22:35:31  5-MIN KMSN 270435Z 15009KT 10SM CLR 20/12 A2991 880 58 1700 150/09 RMK AO2
14837KMSN MSN20110626224009306/26/11 22:40:31  5-MIN KMSN 270440Z 15008KT 10SM CLR 20/12 A2990 880 58 1700 150/08 RMK AO2
14837KMSN MSN20110626224509306/26/11 22:45:31  5-MIN KMSN 270445Z 15008KT 10SM CLR 20/12 A2990 880 58 1700 150/08 RMK AO2
14837KMSN MSN20110626225011006/26/11 22:50:31  5-MIN KMSN 270450Z 15009KT 10SM CLR 20/12 A2990 880 58 1700 150/09 RMK AO2 SLP120 T02000117
14837KMSN MSN20110626225509306/26/11 22:55:31  5-MIN KMSN 270455Z 15009KT 10SM CLR 20/12 A2990 880 58 1700 150/09 RMK AO2
14837KMSN MSN20110626230009306/26/11 23:00:31  5-MIN KMSN 270500Z 15009KT 10SM CLR 20/12 A2991 880 58 1700 150/09 RMK AO2
14837KMSN MSN20110626230509306/26/11 23:05:31  5-MIN KMSN 270505Z 15010KT 10SM CLR 20/12 A2991 880 58 1700 150/10 RMK AO2
14837KMSN MSN20110626231009306/26/11 23:10:31  5-MIN KMSN 270510Z 15010KT 10SM CLR 20/12 A2991 880 60 1700 150/10 RMK AO2
14837KMSN MSN20110626231509306/26/11 23:15:31  5-MIN KMSN 270515Z 15010KT 10SM CLR 20/12 A2990 880 58 1700 160/10 RMK AO2
14837KMSN MSN20110626232009306/26/11 23:20:31  5-MIN KMSN 270520Z 15008KT 10SM CLR 20/12 A2990 880 58 1700 150/08 RMK AO2
14837KMSN MSN20110626232509306/26/11 23:25:31  5-MIN KMSN 270525Z 15010KT 10SM CLR 20/12 A2990 880 58 1700 150/10 RMK AO2
14837KMSN MSN20110626233009306/26/11 23:30:31  5-MIN KMSN 270530Z 14010KT 10SM CLR 20/12 A2990 890 58 1700 140/10 RMK AO2
14837KMSN MSN20110626233509306/26/11 23:35:31  5-MIN KMSN 270535Z 14008KT 10SM CLR 20/12 A2989 890 58 1700 140/08 RMK AO2
14837KMSN MSN20110626234009306/26/11 23:40:31  5-MIN KMSN 270540Z 13009KT 10SM CLR 19/12 A2989 890 60 1700 130/09 RMK AO2
14837KMSN MSN20110626234509306/26/11 23:45:31  5-MIN KMSN 270545Z 12008KT 10SM CLR 19/12 A2989 890 62 1700 130/08 RMK AO2
14837KMSN MSN20110626235013806/26/11 23:50:31  5-MIN KMSN 270550Z 13008KT 10SM CLR 19/12 A2988 900 62 1700 130/08 RMK AO2 SLP112 T01940122 10250 20194 402670117 50001
14837KMSN MSN20110626235510006/26/11 23:55:31  5-MIN KMSN 270555Z 12008KT 10SM CLR 19/12 A2987 910 65 1600 120/08 RMK AO2 PRESFR
14837KMSN MSN20110627000010006/27/11 00:00:32  5-MIN KMSN 270600Z 12008KT 10SM CLR 19/12 A2986 920 65 1600 120/08 RMK AO2 PRESFR
14837KMSN MSN20110627000510006/27/11 00:05:31  5-MIN KMSN 270605Z 12008KT 10SM CLR 19/12 A2985 930 65 1600 120/08 RMK AO2 PRESFR
14837KMSN MSN20110627001010006/27/11 00:10:31  5-MIN KMSN 270610Z 12007KT 10SM CLR 19/12 A2985 930 65 1600 120/07 RMK AO2 PRESFR
14837KMSN MSN20110627001510006/27/11 00:15:31  5-MIN KMSN 270615Z 12007KT 10SM CLR 19/12 A2984 940 65 1600 120/07 RMK AO2 PRESFR
14837KMSN MSN20110627002009306/27/11 00:20:31  5-MIN KMSN 270620Z 12008KT 10SM CLR 18/13 A2984 940 70 1600 120/08 RMK AO2
14837KMSN MSN20110627002509306/27/11 00:25:31  5-MIN KMSN 270625Z 12008KT 10SM CLR 19/13 A2984 940 67 1600 120/08 RMK AO2
14837KMSN MSN20110627003009306/27/11 00:30:31  5-MIN KMSN 270630Z 13008KT 10SM CLR 18/13 A2984 940 70 1600 130/08 RMK AO2
14837KMSN MSN20110627003509306/27/11 00:35:31  5-MIN KMSN 270635Z 13009KT 10SM CLR 18/13 A2984 940 70 1600 130/09 RMK AO2
14837KMSN MSN20110627004009306/27/11 00:40:31  5-MIN KMSN 270640Z 13009KT 10SM CLR 19/13 A2984 930 67 1600 130/09 RMK AO2
14837KMSN MSN20110627004509306/27/11 00:45:31  5-MIN KMSN 270645Z 13008KT 10SM CLR 19/13 A2985 930 67 1600 130/08 RMK AO2
14837KMSN MSN20110627005011006/27/11 00:50:31  5-MIN KMSN 270650Z 12008KT 10SM CLR 19/13 A2985 930 67 1600 130/08 RMK AO2 SLP101 T01890128
14837KMSN MSN20110627005509306/27/11 00:55:31  5-MIN KMSN 270655Z 12008KT 10SM CLR 19/13 A2984 940 70 1600 120/08 RMK AO2
14837KMSN MSN20110627010009306/27/11 01:00:31  5-MIN KMSN 270700Z 11008KT 10SM CLR 19/13 A2984 940 70 1700 120/08 RMK AO2
14837KMSN MSN20110627010509306/27/11 01:05:31  5-MIN KMSN 270705Z 12009KT 10SM CLR 19/13 A2983 940 70 1700 120/09 RMK AO2
14837KMSN MSN20110627011009306/27/11 01:10:31  5-MIN KMSN 270710Z 12009KT 10SM CLR 19/13 A2983 950 70 1700 130/09 RMK AO2
14837KMSN MSN20110627011509306/27/11 01:15:31  5-MIN KMSN 270715Z 14007KT 10SM CLR 19/13 A2984 940 70 1700 140/07 RMK AO2
14837KMSN MSN20110627012009306/27/11 01:20:31  5-MIN KMSN 270720Z 14007KT 10SM CLR 19/13 A2984 940 70 1700 140/07 RMK AO2
14837KMSN MSN20110627012509306/27/11 01:25:31  5-MIN KMSN 270725Z 14008KT 10SM CLR 19/13 A2984 940 67 1700 150/08 RMK AO2
14837KMSN MSN20110627013009306/27/11 01:30:31  5-MIN KMSN 270730Z 16008KT 10SM CLR 19/13 A2985 930 67 1700 160/08 RMK AO2
14837KMSN MSN20110627013509306/27/11 01:35:31  5-MIN KMSN 270735Z 17007KT 10SM CLR 19/13 A2985 930 67 1700 180/07 RMK AO2
14837KMSN MSN20110627014009606/27/11 01:40:31  5-MIN KMSN 270740Z 17006KT 10SM FEW043 19/13 A2985 930 67 1700 170/06 RMK AO2
14837KMSN MSN20110627014509606/27/11 01:45:31  5-MIN KMSN 270745Z 17006KT 10SM SCT043 19/14 A2985 930 70 1700 170/06 RMK AO2
14837KMSN MSN20110627015011306/27/11 01:50:31  5-MIN KMSN 270750Z 16006KT 10SM BKN041 19/14 A2985 930 70 1700 160/06 RMK AO2 SLP102 T01940139
14837KMSN MSN20110627015509606/27/11 01:55:31  5-MIN KMSN 270755Z 16005KT 10SM BKN041 19/14 A2985 930 70 1700 170/05 RMK AO2
14837KMSN MSN20110627020009606/27/11 02:00:31  5-MIN KMSN 270800Z 13005KT 10SM BKN041 19/14 A2984 940 70 1700 140/05 RMK AO2
14837KMSN MSN20110627020509606/27/11 02:05:31  5-MIN KMSN 270805Z 13006KT 10SM OVC041 19/14 A2983 940 70 1700 130/06 RMK AO2
14837KMSN MSN20110627021009606/27/11 02:10:31  5-MIN KMSN 270810Z 13005KT 10SM BKN041 19/14 A2983 950 72 1700 130/05 RMK AO2
14837KMSN MSN20110627021510306/27/11 02:15:31  5-MIN KMSN 270815Z 12005KT 10SM BKN041 18/14 A2982 950 75 1600 120/05 RMK AO2 PRESFR
14837KMSN MSN20110627022009606/27/11 02:20:31  5-MIN KMSN 270820Z 13005KT 10SM BKN041 18/14 A2982 960 75 1600 130/05 RMK AO2
14837KMSN MSN20110627022510306/27/11 02:25:31  5-MIN KMSN 270825Z 12005KT 10SM OVC039 18/14 A2981 960 75 1600 120/05 RMK AO2 PRESFR
14837KMSN MSN20110627023010306/27/11 02:30:31  5-MIN KMSN 270830Z 12007KT 10SM BKN039 18/14 A2981 970 78 1600 120/07 RMK AO2 PRESFR
14837KMSN MSN20110627023510306/27/11 02:35:31  5-MIN KMSN 270835Z 12009KT 10SM BKN039 18/14 A2980 980 75 1600 120/09 RMK AO2 PRESFR
14837KMSN MSN20110627024010306/27/11 02:40:31  5-MIN KMSN 270840Z 12009KT 10SM BKN039 18/14 A2979 990 75 1600 120/09 RMK AO2 PRESFR
14837KMSN MSN20110627024510406/27/11 02:45:31  5-MIN KMSN 270845Z 12012KT 10SM SCT039 18/14 A2978 1000 78 1700 120/12 RMK AO2 PRESFR
14837KMSN MSN20110627025012006/27/11 02:50:31  5-MIN KMSN 270850Z 12011KT 10SM FEW039 18/14 A2977 1000 78 1700 120/11 RMK AO2 SLP076 T01830144 58009
14837KMSN MSN20110627025509706/27/11 02:55:31  5-MIN KMSN 270855Z 12011KT 10SM FEW039 18/14 A2977 1000 78 1700 120/11 RMK AO2
14837KMSN MSN20110627030009406/27/11 03:00:31  5-MIN KMSN 270900Z 12012KT 10SM CLR 18/14 A2977 1010 78 1700 120/12 RMK AO2
14837KMSN MSN20110627030509406/27/11 03:05:31  5-MIN KMSN 270905Z 13012KT 10SM CLR 19/14 A2976 1010 75 1700 130/12 RMK AO2
14837KMSN MSN20110627031009406/27/11 03:10:31  5-MIN KMSN 270910Z 13011KT 10SM CLR 19/14 A2976 1020 75 1700 130/11 RMK AO2
14837KMSN MSN20110627031509406/27/11 03:15:31  5-MIN KMSN 270915Z 13012KT 10SM CLR 18/14 A2975 1020 78 1700 130/12 RMK AO2
14837KMSN MSN20110627032009406/27/11 03:20:31  5-MIN KMSN 270920Z 14012KT 10SM CLR 19/14 A2975 1020 75 1800 140/12 RMK AO2
14837KMSN MSN20110627032510106/27/11 03:25:31  5-MIN KMSN 270925Z 13012KT 10SM CLR 19/14 A2974 1030 75 1800 130/12 RMK AO2 PRESFR
14837KMSN MSN20110627033009406/27/11 03:30:31  5-MIN KMSN 270930Z 13012KT 10SM CLR 19/15 A2973 1040 78 1800 130/12 RMK AO2
14837KMSN MSN20110627033510106/27/11 03:35:31  5-MIN KMSN 270935Z 13013KT 10SM CLR 19/15 A2973 1040 78 1800 130/13 RMK AO2 PRESFR
14837KMSN MSN20110627034010006/27/11 03:40:31  5-MIN KMSN 270940Z 12012KT 9SM CLR 19/15 A2972 1050 78 1800 120/12 RMK AO2 PRESFR
14837KMSN MSN20110627034509306/27/11 03:45:31  5-MIN KMSN 270945Z 12015KT 9SM CLR 19/15 A2972 1050 78 1800 120/15 RMK AO2
14837KMSN MSN20110627035011006/27/11 03:50:31  5-MIN KMSN 270950Z 12012KT 9SM CLR 18/15 A2972 1050 81 1700 130/12 RMK AO2 SLP058 T01830150
14837KMSN MSN20110627035509306/27/11 03:55:31  5-MIN KMSN 270955Z 12013KT 9SM CLR 18/15 A2972 1050 81 1700 120/13 RMK AO2
14837KMSN MSN20110627040009306/27/11 04:00:31  5-MIN KMSN 271000Z 12013KT 9SM CLR 18/15 A2972 1050 81 1700 120/13 RMK AO2
14837KMSN MSN20110627040509906/27/11 04:05:31  5-MIN KMSN 271005Z 13011G19KT 9SM CLR 19/15 A2973 1050 78 1800 130/11G19 RMK AO2
14837KMSN MSN20110627041009306/27/11 04:10:31  5-MIN KMSN 271010Z 14009KT 9SM CLR 19/15 A2973 1040 78 1800 150/09 RMK AO2
14837KMSN MSN20110627041509306/27/11 04:15:31  5-MIN KMSN 271015Z 14010KT 9SM CLR 19/15 A2974 1030 78 1800 140/10 RMK AO2
14837KMSN MSN20110627042009906/27/11 04:20:31  5-MIN KMSN 271020Z 13013G17KT 9SM CLR 19/15 A2974 1030 78 1800 140/13G17 RMK AO2
14837KMSN MSN20110627042509306/27/11 04:25:31  5-MIN KMSN 271025Z 13012KT 9SM CLR 18/15 A2974 1030 81 1700 130/12 RMK AO2
14837KMSN MSN20110627043009306/27/11 04:30:31  5-MIN KMSN 271030Z 13014KT 9SM CLR 19/15 A2974 1030 78 1800 130/14 RMK AO2
14837KMSN MSN20110627043509906/27/11 04:35:31  5-MIN KMSN 271035Z 14010G18KT 9SM CLR 19/15 A2974 1030 78 1800 140/10G18 RMK AO2
14837KMSN MSN20110627044009306/27/11 04:40:31  5-MIN KMSN 271040Z 13009KT 8SM CLR 19/15 A2974 1030 78 1800 130/09 RMK AO2
14837KMSN MSN20110627044509306/27/11 04:45:31  5-MIN KMSN 271045Z 13011KT 8SM CLR 19/15 A2974 1030 78 1800 130/11 RMK AO2
14837KMSN MSN20110627045011006/27/11 04:50:31  5-MIN KMSN 271050Z 13011KT 8SM CLR 18/15 A2974 1030 81 1700 130/11 RMK AO2 SLP066 T01830150
14837KMSN MSN20110627045509306/27/11 04:55:31  5-MIN KMSN 271055Z 12010KT 7SM CLR 18/15 A2974 1030 81 1700 130/10 RMK AO2
14837KMSN MSN20110627050009306/27/11 05:00:31  5-MIN KMSN 271100Z 11012KT 7SM CLR 18/15 A2973 1040 81 1700 120/12 RMK AO2
14837KMSN MSN20110627050509306/27/11 05:05:31  5-MIN KMSN 271105Z 12011KT 7SM CLR 18/15 A2974 1030 81 1700 120/11 RMK AO2
14837KMSN MSN20110627051009606/27/11 05:10:31  5-MIN KMSN 271110Z 12011KT 6SM HZ CLR 18/15 A2973 1040 81 1700 120/11 RMK AO2
14837KMSN MSN20110627051509606/27/11 05:15:31  5-MIN KMSN 271115Z 11012KT 6SM HZ CLR 18/15 A2973 1040 81 1700 110/12 RMK AO2
14837KMSN MSN20110627052009606/27/11 05:20:31  5-MIN KMSN 271120Z 11012KT 6SM HZ CLR 18/15 A2973 1040 81 1700 110/12 RMK AO2
14837KMSN MSN20110627052509606/27/11 05:25:31  5-MIN KMSN 271125Z 11012KT 6SM HZ CLR 18/15 A2973 1040 81 1700 120/12 RMK AO2
14837KMSN MSN20110627053009906/27/11 05:30:31  5-MIN KMSN 271130Z 11011KT 6SM HZ FEW095 18/15 A2973 1040 81 1700 110/11 RMK AO2
14837KMSN MSN20110627053510506/27/11 05:35:31  5-MIN KMSN 271135Z 12007G16KT 6SM HZ FEW075 18/15 A2974 1040 81 1700 130/07G16 RMK AO2
14837KMSN MSN20110627054011206/27/11 05:40:31  5-MIN KMSN 271140Z 13008KT 5SM -RA SCT060 18/16 A2974 1030 84 1700 130/08 RMK AO2 RAB38 P0000
14837KMSN MSN20110627054511206/27/11 05:45:31  5-MIN KMSN 271145Z 13009KT 5SM -RA SCT055 18/16 A2974 1030 84 1700 130/09 RMK AO2 RAB38 P0000
14837KMSN MSN20110627055015306/27/11 05:50:31  5-MIN KMSN 271150Z 15006KT 5SM -RA SCT047 18/16 A2975 1020 84 1700 150/06 RMK AO2 RAB38 SLP069 P0000 60000 T01830156 10194 20183 58034
14837KMSN MSN20110627055511306/27/11 05:55:31  5-MIN KMSN 271155Z 16006KT 5SM -RA SCT045 18/16 A2976 1010 84 1700 170/06 RMK AO2 PRESRR P0000
14837KMSN MSN20110627060011906/27/11 06:00:31  5-MIN KMSN 271200Z 24007KT 6SM -RA FEW015 SCT046 19/16 A2980 980 84 1700 240/07 RMK AO2 PRESRR P0000
14837KMSN MSN20110627060511906/27/11 06:05:31  5-MIN KMSN 271205Z 22005KT 6SM -RA SCT015 BKN043 19/16 A2983 950 84 1700 220/05 RMK AO2 PRESRR P0000
14837KMSN MSN20110627061011206/27/11 06:10:31  5-MIN KMSN 271210Z 19007KT 5SM -RA BKN015 BKN039 19/16 A2982 960 84 1700 200/07 RMK AO2 P0000
14837KMSN MSN20110627061511206/27/11 06:15:31  5-MIN KMSN 271215Z 19006KT 4SM -RA BKN015 BKN029 19/16 A2982 950 84 1700 200/06 RMK AO2 P0000
14837KMSN MSN20110627062010806/27/11 06:20:31  5-MIN KMSN 271220Z 18008KT 3SM -RA BR BKN015 19/17 A2983 950 87 1700 180/08 RMK AO2 P0001
14837KMSN MSN20110627062510806/27/11 06:25:31  5-MIN KMSN 271225Z 18008KT 3SM -RA BR OVC015 19/17 A2983 950 87 1700 190/08 RMK AO2 P0001
14837KMSN MSN20110627063010806/27/11 06:30:31  5-MIN KMSN 271230Z 19008KT 3SM -RA BR OVC015 19/17 A2983 950 87 1700 190/08 RMK AO2 P0001
14837KMSN MSN20110627063510806/27/11 06:35:31  5-MIN KMSN 271235Z 18007KT 3SM -RA BR OVC015 19/17 A2981 970 87 1700 180/07 RMK AO2 P0001
14837KMSN MSN20110627064011506/27/11 06:40:31  5-MIN KMSN 271240Z 18007KT 3SM -RA BR BKN015 BKN027 19/17 A2980 970 90 1700 180/07 RMK AO2 P0001
14837KMSN MSN20110627064512506/27/11 06:45:31  5-MIN KMSN 271245Z 18007KT 3SM -RA BR BKN015 BKN060 19/17 A2981 970 90 1700 180/07 RMK AO2 SFC VIS 4 P0001
14837KMSN MSN20110627065012706/27/11 06:50:31  5-MIN KMSN 271250Z 17006KT 3SM BR SCT015 BKN075 19/17 A2980 980 90 1700 170/06 RMK AO2 SFC VIS 4 RAE49 P0001
14837KMSN MSN20110627065511506/27/11 06:55:31  5-MIN KMSN 271255Z 16005KT 3SM BR FEW015 SCT060 19/17 A2980 980 90 1700 160/05 RMK AO2 SFC VIS 3
14837KMSN MSN20110627070009806/27/11 07:00:31  5-MIN KMSN 271300Z 17006KT 3SM BR FEW015 19/17 A2979 980 90 1700 170/06 RMK AO2
14837KMSN MSN20110627070509806/27/11 07:05:31  5-MIN KMSN 271305Z 18006KT 3SM BR FEW065 19/17 A2979 980 90 1700 180/06 RMK AO2
14837KMSN MSN20110627071010506/27/11 07:10:31  5-MIN KMSN 271310Z 16007KT 3SM BR FEW015 SCT120 19/17 A2979 990 90 1700 160/07 RMK AO2
14837KMSN MSN20110627071510506/27/11 07:15:31  5-MIN KMSN 271315Z 16006KT 3SM BR FEW015 SCT120 19/17 A2978 990 90 1700 160/06 RMK AO2
14837KMSN MSN20110627072011306/27/11 07:20:31  5-MIN KMSN 271320Z 17005KT 3SM BR FEW012 SCT080 BKN120 19/17 A2978 1000 90 1700 170/05 RMK AO2
14837KMSN MSN20110627072511306/27/11 07:25:31  5-MIN KMSN 271325Z 16006KT 3SM BR FEW012 SCT080 BKN120 19/18 A2977 1000 93 1700 160/06 RMK AO2
14837KMSN MSN20110627073012006/27/11 07:30:31  5-MIN KMSN 271330Z 15006KT 3SM BR FEW012 SCT080 BKN120 19/18 A2976 1010 93 1700 160/06 RMK AO2 PRESFR
14837KMSN MSN20110627073511306/27/11 07:35:31  5-MIN KMSN 271335Z 15006KT 3SM BR FEW012 SCT080 BKN120 19/18 A2976 1010 90 1800 150/06 RMK AO2
14837KMSN MSN20110627074011306/27/11 07:40:31  5-MIN KMSN 271340Z 16008KT 3SM BR FEW012 SCT080 BKN120 19/18 A2975 1020 90 1800 160/08 RMK AO2
14837KMSN MSN20110627074513206/27/11 07:45:31  5-MIN KMSN 271345Z 15008KT 3SM -RA BR FEW090 SCT110 19/18 A2975 1020 90 1800 160/08 RMK AO2 SFC VIS 4 RAB44 P0000
14837KMSN MSN20110627075014906/27/11 07:50:31  5-MIN KMSN 271350Z 15007KT 3SM -RA BR SCT065 BKN110 19/18 A2975 1020 90 1800 150/07 RMK AO2 SFC VIS 4 RAB44 SLP070 P0000 T01940178
14837KMSN MSN20110627075511606/27/11 07:55:31  5-MIN KMSN 271355Z 15008KT 3SM -RA BR SCT065 SCT110 19/18 A2974 1030 90 1800 150/08 RMK AO2 P0000
14837KMSN MSN20110627080012106/27/11 08:00:31  5-MIN KMSN 271400Z 16007KT 3SM BR FEW075 19/18 A2974 1030 90 1800 160/07 RMK AO2 SFC VIS 3 RAE00 P0000
14837KMSN MSN20110627080512106/27/11 08:05:31  5-MIN KMSN 271405Z 15006KT 3SM BR FEW075 20/18 A2974 1030 87 1900 150/06 RMK AO2 SFC VIS 3 RAE00 P0000
14837KMSN MSN20110627081012106/27/11 08:10:31  5-MIN KMSN 271410Z 13006KT 3SM BR FEW055 20/18 A2973 1040 90 1900 130/06 RMK AO2 SFC VIS 3 RAE00 P0000
14837KMSN MSN20110627081511106/27/11 08:15:31  5-MIN KMSN 271415Z 13005KT 3SM BR FEW085 20/18 A2974 1040 87 1900 130/05 RMK AO2 RAE00 P0000
14837KMSN MSN20110627082011106/27/11 08:20:31  5-MIN KMSN 271420Z 15006KT 3SM BR SCT110 20/18 A2973 1040 90 1900 150/06 RMK AO2 RAE00 P0000
14837KMSN MSN20110627082511106/27/11 08:25:31  5-MIN KMSN 271425Z 15006KT 3SM BR BKN110 20/18 A2973 1040 90 1900 160/06 RMK AO2 RAE00 P0000
14837KMSN MSN20110627083012106/27/11 08:30:31  5-MIN KMSN 271430Z 16007KT 3SM BR BKN110 20/18 A2973 1040 90 1900 160/07 RMK AO2 SFC VIS 3 RAE00 P0000
14837KMSN MSN20110627083512106/27/11 08:35:31  5-MIN KMSN 271435Z 15007KT 3SM BR SCT110 20/18 A2973 1040 90 1900 150/07 RMK AO2 SFC VIS 4 RAE00 P0000
14837KMSN MSN20110627084012106/27/11 08:40:31  5-MIN KMSN 271440Z 16007KT 3SM BR SCT110 21/18 A2972 1050 87 2000 160/07 RMK AO2 SFC VIS 4 RAE00 P0000
14837KMSN MSN20110627084512106/27/11 08:45:31  5-MIN KMSN 271445Z 16006KT 3SM BR FEW110 21/19 A2972 1050 87 2000 160/06 RMK AO2 SFC VIS 4 RAE00 P0000
14837KMSN MSN20110627085015006/27/11 08:50:31  5-MIN KMSN 271450Z 16007KT 3SM BR FEW110 21/19 A2972 1050 87 2000 160/07 RMK AO2 SFC VIS 4 RAE00 SLP062 P0000 60001 T02110189 55006
14837KMSN MSN20110627085511606/27/11 08:55:31  5-MIN KMSN 271455Z 18007KT 3SM BR FEW012 BKN110 21/19 A2972 1050 87 2000 180/07 RMK AO2 SFC VIS 4
14837KMSN MSN20110627090011606/27/11 09:00:31  5-MIN KMSN 271500Z 16008KT 3SM BR FEW012 BKN110 21/18 A2972 1050 87 2000 160/08 RMK AO2 SFC VIS 4
14837KMSN MSN20110627090511606/27/11 09:05:31  5-MIN KMSN 271505Z 18008KT 3SM HZ FEW012 BKN110 21/18 A2973 1040 84 2000 180/08 RMK AO2 SFC VIS 4
14837KMSN MSN20110627091011606/27/11 09:10:31  5-MIN KMSN 271510Z 18008KT 3SM BR FEW010 BKN110 21/19 A2973 1040 87 2000 180/08 RMK AO2 SFC VIS 4
14837KMSN MSN20110627091511606/27/11 09:15:31  5-MIN KMSN 271515Z 18008KT 3SM BR FEW010 BKN110 21/19 A2973 1040 87 2000 180/08 RMK AO2 SFC VIS 4
14837KMSN MSN20110627092011606/27/11 09:20:31  5-MIN KMSN 271520Z 18008KT 3SM BR FEW010 BKN110 21/19 A2973 1040 87 2000 190/08 RMK AO2 SFC VIS 4
14837KMSN MSN20110627092511606/27/11 09:25:31  5-MIN KMSN 271525Z 19006KT 3SM BR FEW010 BKN110 21/19 A2973 1040 87 2000 190/06 RMK AO2 SFC VIS 4
14837KMSN MSN20110627093011606/27/11 09:30:31  5-MIN KMSN 271530Z 18006KT 3SM HZ FEW010 BKN110 22/19 A2973 1040 84 2100 180/06 RMK AO2 SFC VIS 4
14837KMSN MSN20110627093510906/27/11 09:35:31  5-MIN KMSN 271535Z 18006KT 3SM BR BKN110 22/19 A2973 1040 87 2100 180/06 RMK AO2 SFC VIS 4
14837KMSN MSN20110627094010906/27/11 09:40:31  5-MIN KMSN 271540Z 18006KT 3SM HZ BKN110 22/19 A2973 1040 84 2200 180/06 RMK AO2 SFC VIS 4
14837KMSN MSN20110627094510906/27/11 09:45:31  5-MIN KMSN 271545Z 17005KT 3SM HZ BKN110 22/19 A2973 1040 84 2200 170/05 RMK AO2 SFC VIS 4
14837KMSN MSN20110627095012606/27/11 09:50:31  5-MIN KMSN 271550Z 17004KT 3SM HZ BKN110 23/20 A2973 1040 84 2200 180/04 RMK AO2 SFC VIS 4 SLP062 T02280200
14837KMSN MSN20110627095510606/27/11 09:55:31  5-MIN KMSN 271555Z VRB03KT 5SM HZ FEW080 SCT120 23/20 A2973 1040 81 2300 VRB/03 RMK AO2
14837KMSN MSN20110627100010606/27/11 10:00:31  5-MIN KMSN 271600Z 21006KT 6SM HZ FEW080 SCT120 24/19 A2973 1040 76 2300 220/06 RMK AO2
14837KMSN MSN20110627100510306/27/11 10:05:31  5-MIN KMSN 271605Z VRB04KT 9SM FEW080 SCT120 24/19 A2973 1040 71 2400 VRB/04 RMK AO2
14837KMSN MSN20110627101010406/27/11 10:10:31  5-MIN KMSN 271610Z 23005KT 10SM FEW080 SCT120 25/19 A2973 1040 68 2500 240/05 RMK AO2
14837KMSN MSN20110627101510406/27/11 10:15:31  5-MIN KMSN 271615Z 24006KT 10SM FEW080 SCT120 25/18 A2973 1040 66 2500 240/06 RMK AO2
14837KMSN MSN20110627102010406/27/11 10:20:31  5-MIN KMSN 271620Z 23009KT 10SM FEW080 SCT120 25/18 A2973 1040 66 2500 230/09 RMK AO2
14837KMSN MSN20110627102512006/27/11 10:25:31  5-MIN KMSN 271625Z 22007KT 190V250 10SM FEW080 SCT120 25/18 A2973 1040 66 2500 220/07 190V250 RMK AO2
14837KMSN MSN20110627103009706/27/11 10:30:31  5-MIN KMSN 271630Z 24007KT 10SM SCT120 25/18 A2973 1040 66 2500 250/07 RMK AO2
14837KMSN MSN20110627103510406/27/11 10:35:31  5-MIN KMSN 271635Z 24007KT 10SM FEW030 SCT120 25/18 A2974 1040 66 2500 250/07 RMK AO2
14837KMSN MSN20110627104011006/27/11 10:40:31  5-MIN KMSN 271640Z 23007G14KT 10SM FEW030 SCT120 25/18 A2974 1030 64 2500 230/07G14 RMK AO2
14837KMSN MSN20110627104511006/27/11 10:45:31  5-MIN KMSN 271645Z 23008G15KT 10SM FEW030 SCT120 24/17 A2974 1030 63 2400 240/08G15 RMK AO2
14837KMSN MSN20110627105014306/27/11 10:50:31  5-MIN KMSN 271650Z 23007G15KT 190V260 10SM FEW028 BKN085 24/17 A2974 1030 63 2400 230/07G15 190V260 RMK AO2 SLP066 T02440172
14837KMSN MSN20110627105511006/27/11 10:55:31  5-MIN KMSN 271655Z 23009G14KT 10SM FEW028 BKN080 24/18 A2974 1030 66 2400 240/09G14 RMK AO2
14837KMSN MSN20110627110010406/27/11 11:00:31  5-MIN KMSN 271700Z VRB06KT 10SM FEW028 BKN085 24/18 A2974 1030 66 2400 VRB/06 RMK AO2
14837KMSN MSN20110627110511006/27/11 11:05:31  5-MIN KMSN 271705Z 24009G16KT 10SM FEW028 BKN085 24/17 A2974 1030 63 2400 240/09G16 RMK AO2
14837KMSN MSN20110627111012606/27/11 11:10:31  5-MIN KMSN 271710Z 23007G16KT 190V260 10SM FEW028 BKN085 24/17 A2974 1030 63 2400 230/07G16 190V260 RMK AO2
14837KMSN MSN20110627111512606/27/11 11:15:31  5-MIN KMSN 271715Z 24008G17KT 200V270 10SM FEW028 BKN085 24/17 A2975 1030 66 2300 240/08G17 200V270 RMK AO2
14837KMSN MSN20110627112012606/27/11 11:20:31  5-MIN KMSN 271720Z 23009G17KT 200V270 10SM FEW028 BKN070 24/17 A2974 1030 66 2300 240/09G17 200V270 RMK AO2
14837KMSN MSN20110627112512606/27/11 11:25:31  5-MIN KMSN 271725Z 24007G15KT 200V300 10SM FEW028 BKN070 24/17 A2974 1030 66 2300 240/07G15 200V300 RMK AO2
14837KMSN MSN20110627113012006/27/11 11:30:31  5-MIN KMSN 271730Z 23007KT 190V260 10SM FEW028 BKN070 24/17 A2974 1030 66 2300 230/07 190V260 RMK AO2
14837KMSN MSN20110627113510406/27/11 11:35:31  5-MIN KMSN 271735Z 23008KT 10SM FEW028 BKN070 24/17 A2974 1030 66 2300 230/08 RMK AO2
14837KMSN MSN20110627114011006/27/11 11:40:31  5-MIN KMSN 271740Z 23008G14KT 10SM FEW030 BKN060 24/17 A2975 1030 66 2300 230/08G14 RMK AO2
14837KMSN MSN20110627114511006/27/11 11:45:31  5-MIN KMSN 271745Z 23010G18KT 10SM FEW030 BKN060 24/17 A2974 1030 63 2300 230/10G18 RMK AO2
14837KMSN MSN20110627115015106/27/11 11:50:31  5-MIN KMSN 271750Z 22008G21KT 10SM FEW030 BKN060 24/17 A2974 1030 63 2300 230/08G21 RMK AO2 SLP067 60001 T02390167 10250 20183 58010
14837KMSN MSN20110627115511006/27/11 11:55:31  5-MIN KMSN 271755Z 22007G21KT 10SM FEW030 BKN060 24/17 A2974 1030 63 2300 230/07G21 RMK AO2
14837KMSN MSN20110627120011006/27/11 12:00:31  5-MIN KMSN 271800Z 23009G14KT 10SM FEW030 BKN060 24/17 A2974 1030 63 2300 230/09G14 RMK AO2
14837KMSN MSN20110627120510406/27/11 12:05:31  5-MIN KMSN 271805Z 23008KT 10SM FEW030 BKN060 24/17 A2974 1030 63 2300 230/08 RMK AO2
14837KMSN MSN20110627121011006/27/11 12:10:31  5-MIN KMSN 271810Z 23008G18KT 10SM FEW030 BKN060 24/17 A2974 1030 66 2300 230/08G18 RMK AO2
14837KMSN MSN20110627121510306/27/11 12:15:31  5-MIN KMSN 271815Z 22007G18KT 10SM OVC055 24/17 A2974 1030 66 2300 230/07G18 RMK AO2
14837KMSN MSN20110627122011006/27/11 12:20:31  5-MIN KMSN 271820Z 23008G15KT 10SM SCT045 OVC055 24/17 A2974 1030 66 2300 230/08G15 RMK AO2
14837KMSN MSN20110627122512606/27/11 12:25:31  5-MIN KMSN 271825Z 23008G15KT 200V270 10SM SCT043 OVC055 24/18 A2974 1030 66 2400 230/08G15 200V270 RMK AO2
14837KMSN MSN20110627123011706/27/11 12:30:31  5-MIN KMSN 271830Z 23009G15KT 10SM SCT040 BKN049 OVC060 24/17 A2974 1030 63 2400 230/09G15 RMK AO2
14837KMSN MSN20110627123513306/27/11 12:35:31  5-MIN KMSN 271835Z 22007G16KT 190V260 10SM FEW040 BKN049 OVC060 24/17 A2974 1040 63 2400 230/07G16 190V260 RMK AO2
14837KMSN MSN20110627124011706/27/11 12:40:31  5-MIN KMSN 271840Z 23004G16KT 10SM SCT042 BKN049 OVC060 24/17 A2973 1040 63 2400 230/04G16 RMK AO2
14837KMSN MSN20110627124511106/27/11 12:45:31  5-MIN KMSN 271845Z 24005KT 10SM FEW039 SCT049 BKN060 25/18 A2974 1040 64 2500 240/05 RMK AO2
14837KMSN MSN20110627125012706/27/11 12:50:31  5-MIN KMSN 271850Z 23007G16KT 10SM SCT036 BKN055 25/18 A2973 1040 66 2500 230/07G16 RMK AO2 SLP064 T02500183
14837KMSN MSN20110627125512606/27/11 12:55:31  5-MIN KMSN 271855Z 22007G16KT 200V270 10SM SCT036 BKN055 26/18 A2973 1040 61 2500 230/07G16 200V270 RMK AO2
14837KMSN MSN20110627130011006/27/11 13:00:31  5-MIN KMSN 271900Z 22010G16KT 10SM FEW036 SCT060 26/18 A2973 1040 64 2500 230/10G16 RMK AO2
14837KMSN MSN20110627130512606/27/11 13:05:31  5-MIN KMSN 271905Z 23009G16KT 190V260 10SM FEW036 SCT060 26/18 A2973 1040 64 2500 230/09G16 190V260 RMK AO2
14837KMSN MSN20110627131011306/27/11 13:10:31  5-MIN KMSN 271910Z 22007KT 200V260 10SM SCT038 26/18 A2973 1040 64 2500 230/07 200V260 RMK AO2
14837KMSN MSN20110627131511906/27/11 13:15:31  5-MIN KMSN 271915Z 22009G16KT 190V250 10SM SCT038 26/18 A2973 1040 62 2600 220/09G16 190V250 RMK AO2
14837KMSN MSN20110627132010306/27/11 13:20:31  5-MIN KMSN 271920Z 24009G16KT 10SM FEW040 26/18 A2973 1040 62 2600 240/09G16 RMK AO2
14837KMSN MSN20110627132510306/27/11 13:25:31  5-MIN KMSN 271925Z 23012G18KT 10SM FEW040 26/18 A2974 1040 62 2600 230/12G18 RMK AO2
14837KMSN MSN20110627133011906/27/11 13:30:31  5-MIN KMSN 271930Z 24009G18KT 210V270 10SM FEW040 26/18 A2973 1040 62 2600 240/09G18 210V270 RMK AO2
14837KMSN MSN20110627133510306/27/11 13:35:31  5-MIN KMSN 271935Z 23009G16KT 10SM FEW038 26/18 A2974 1030 62 2600 230/09G16 RMK AO2
14837KMSN MSN20110627134010006/27/11 13:40:31  5-MIN KMSN 271940Z 22008G15KT 10SM CLR 26/18 A2974 1030 62 2600 230/08G15 RMK AO2
14837KMSN MSN20110627134511006/27/11 13:45:31  5-MIN KMSN 271945Z 23009G16KT 10SM FEW037 SCT047 26/18 A2975 1020 64 2500 240/09G16 RMK AO2
14837KMSN MSN20110627135012006/27/11 13:50:31  5-MIN KMSN 271950Z VRB06G16KT 10SM BKN040 26/18 A2975 1020 64 2500 VRB/06G16 RMK AO2 SLP068 T02560183
14837KMSN MSN20110627135510406/27/11 13:55:31  5-MIN KMSN 271955Z 23007KT 10SM SCT040 BKN050 26/18 A2975 1020 64 2500 230/07 RMK AO2
14837KMSN MSN20110627140010406/27/11 14:00:31  5-MIN KMSN 272000Z VRB06KT 10SM BKN040 BKN050 26/18 A2975 1020 64 2500 VRB/06 RMK AO2
14837KMSN MSN20110627140511106/27/11 14:05:31  5-MIN KMSN 272005Z VRB05KT 10SM BKN040 BKN050 BKN055 26/18 A2975 1020 64 2500 VRB/05 RMK AO2
14837KMSN MSN20110627141012706/27/11 14:10:31  5-MIN KMSN 272010Z 24007KT 180V270 10SM SCT038 BKN048 OVC060 26/18 A2975 1020 64 2500 250/07 180V270 RMK AO2
14837KMSN MSN20110627141513306/27/11 14:15:31  5-MIN KMSN 272015Z 23008G14KT 200V260 10SM BKN038 BKN048 OVC060 26/18 A2975 1020 64 2500 230/08G14 200V260 RMK AO2
14837KMSN MSN20110627142011006/27/11 14:20:31  5-MIN KMSN 272020Z 23007G14KT 10SM BKN040 OVC050 26/18 A2975 1020 64 2500 230/07G14 RMK AO2
14837KMSN MSN20110627142511006/27/11 14:25:31  5-MIN KMSN 272025Z VRB06G14KT 10SM SCT038 OVC055 26/18 A2975 1020 64 2500 VRB/06G14 RMK AO2
14837KMSN MSN20110627143011106/27/11 14:30:31  5-MIN KMSN 272030Z 23006KT 10SM FEW038 SCT050 OVC060 26/19 A2975 1020 66 2500 230/06 RMK AO2
14837KMSN MSN20110627143510406/27/11 14:35:31  5-MIN KMSN 272035Z VRB06KT 10SM FEW038 OVC060 26/19 A2975 1020 64 2600 VRB/06 RMK AO2
14837KMSN MSN20110627144010406/27/11 14:40:31  5-MIN KMSN 272040Z VRB06KT 10SM FEW038 BKN060 26/19 A2975 1030 64 2600 VRB/06 RMK AO2
14837KMSN MSN20110627144510406/27/11 14:45:31  5-MIN KMSN 272045Z 23006KT 10SM FEW038 BKN060 27/19 A2975 1020 64 2600 240/06 RMK AO2
14837KMSN MSN20110627145014306/27/11 14:50:31  5-MIN KMSN 272050Z 23007KT 200V260 10SM FEW038 BKN060 27/19 A2974 1030 62 2600 230/07 200V260 RMK AO2 SLP067 T02670189 51006
14837KMSN MSN20110627145509706/27/11 14:55:31  5-MIN KMSN 272055Z VRB06KT 10SM SCT060 27/19 A2975 1030 62 2600 VRB/06 RMK AO2
14837KMSN MSN20110627150009706/27/11 15:00:31  5-MIN KMSN 272100Z VRB05KT 10SM SCT060 27/19 A2975 1020 62 2600 VRB/05 RMK AO2
14837KMSN MSN20110627150512006/27/11 15:05:31  5-MIN KMSN 272105Z 23007KT 200V280 10SM FEW040 SCT060 27/19 A2975 1020 62 2600 240/07 200V280 RMK AO2
14837KMSN MSN20110627151011106/27/11 15:10:31  5-MIN KMSN 272110Z VRB06KT 10SM SCT040 SCT049 SCT060 27/19 A2975 1020 62 2600 VRB/06 RMK AO2
14837KMSN MSN20110627151510406/27/11 15:15:31  5-MIN KMSN 272115Z VRB05KT 10SM SCT044 BKN060 27/19 A2975 1020 62 2600 VRB/05 RMK AO2
14837KMSN MSN20110627152011106/27/11 15:20:31  5-MIN KMSN 272120Z VRB04KT 10SM FEW038 SCT046 BKN060 27/19 A2975 1020 62 2700 VRB/04 RMK AO2
14837KMSN MSN20110627152511106/27/11 15:25:31  5-MIN KMSN 272125Z 23004KT 10SM FEW042 SCT049 BKN060 27/19 A2975 1020 60 2700 240/04 RMK AO2
14837KMSN MSN20110627153011106/27/11 15:30:31  5-MIN KMSN 272130Z VRB04KT 10SM FEW042 SCT049 OVC065 27/19 A2975 1020 62 2600 VRB/04 RMK AO2
14837KMSN MSN20110627153511106/27/11 15:35:31  5-MIN KMSN 272135Z VRB05KT 10SM FEW042 SCT049 BKN065 27/19 A2975 1020 60 2700 VRB/05 RMK AO2
14837KMSN MSN20110627154011106/27/11 15:40:31  5-MIN KMSN 272140Z VRB06KT 10SM FEW042 SCT049 BKN065 28/19 A2975 1020 60 2800 VRB/06 RMK AO2
14837KMSN MSN20110627154509706/27/11 15:45:31  5-MIN KMSN 272145Z 22005KT 10SM FEW042 27/19 A2975 1020 62 2700 230/05 RMK AO2
14837KMSN MSN20110627155011406/27/11 15:50:31  5-MIN KMSN 272150Z VRB06KT 10SM FEW042 27/19 A2975 1020 62 2700 VRB/06 RMK AO2 SLP069 T02720194
14837KMSN MSN20110627155509706/27/11 15:55:31  5-MIN KMSN 272155Z VRB05KT 10SM FEW042 27/19 A2975 1020 62 2700 VRB/05 RMK AO2
14837KMSN MSN20110627160009706/27/11 16:00:31  5-MIN KMSN 272200Z VRB06KT 10SM FEW042 28/19 A2975 1020 60 2800 VRB/06 RMK AO2
14837KMSN MSN20110627160509706/27/11 16:05:31  5-MIN KMSN 272205Z VRB05KT 10SM FEW042 27/19 A2975 1020 60 2700 VRB/05 RMK AO2
14837KMSN MSN20110627161009706/27/11 16:10:31  5-MIN KMSN 272210Z 23006KT 10SM FEW042 27/19 A2975 1030 62 2700 230/06 RMK AO2
14837KMSN MSN20110627161509706/27/11 16:15:31  5-MIN KMSN 272215Z VRB05KT 10SM FEW042 27/19 A2975 1030 62 2700 VRB/05 RMK AO2
14837KMSN MSN20110627162009706/27/11 16:20:31  5-MIN KMSN 272220Z 24004KT 10SM FEW042 28/19 A2974 1030 60 2800 240/04 RMK AO2
14837KMSN MSN20110627162509706/27/11 16:25:31  5-MIN KMSN 272225Z 22007KT 10SM FEW038 28/19 A2974 1030 60 2800 220/07 RMK AO2
14837KMSN MSN20110627163009706/27/11 16:30:31  5-MIN KMSN 272230Z 22007KT 10SM FEW038 27/19 A2974 1030 62 2700 230/07 RMK AO2
14837KMSN MSN20110627163511306/27/11 16:35:31  5-MIN KMSN 272235Z 22007KT 180V250 10SM FEW038 27/19 A2974 1030 62 2700 220/07 180V250 RMK AO2
14837KMSN MSN20110627164009406/27/11 16:40:31  5-MIN KMSN 272240Z 23007KT 10SM CLR 27/19 A2974 1030 62 2700 230/07 RMK AO2
14837KMSN MSN20110627164511306/27/11 16:45:31  5-MIN KMSN 272245Z 25007KT 220V290 10SM FEW040 27/19 A2974 1030 62 2700 250/07 220V290 RMK AO2
14837KMSN MSN20110627165013606/27/11 16:50:31  5-MIN KMSN 272250Z 24009G14KT 210V290 10SM FEW040 27/19 A2974 1030 60 2700 240/09G14 210V290 RMK AO2 SLP066 T02720189
14837KMSN MSN20110627165510306/27/11 16:55:31  5-MIN KMSN 272255Z 23006G14KT 10SM FEW040 28/19 A2974 1030 60 2800 230/06G14 RMK AO2
14837KMSN MSN20110627170009406/27/11 17:00:31  5-MIN KMSN 272300Z VRB06KT 10SM CLR 28/19 A2974 1030 60 2800 VRB/06 RMK AO2
14837KMSN MSN20110627170511306/27/11 17:05:31  5-MIN KMSN 272305Z 25007KT 210V290 10SM FEW040 27/19 A2974 1030 62 2700 250/07 210V290 RMK AO2
14837KMSN MSN20110627171009706/27/11 17:10:31  5-MIN KMSN 272310Z VRB05KT 10SM FEW040 27/19 A2974 1030 60 2700 VRB/05 RMK AO2
14837KMSN MSN20110627171509706/27/11 17:15:31  5-MIN KMSN 272315Z VRB04KT 10SM FEW040 27/19 A2975 1020 60 2700 VRB/04 RMK AO2
14837KMSN MSN20110627172009706/27/11 17:20:31  5-MIN KMSN 272320Z VRB04KT 10SM FEW040 27/19 A2975 1020 60 2700 VRB/04 RMK AO2
14837KMSN MSN20110627172509706/27/11 17:25:31  5-MIN KMSN 272325Z VRB04KT 10SM FEW040 27/19 A2975 1020 62 2600 VRB/04 RMK AO2
14837KMSN MSN20110627173009706/27/11 17:30:31  5-MIN KMSN 272330Z VRB04KT 10SM FEW032 27/19 A2975 1020 62 2600 VRB/04 RMK AO2
14837KMSN MSN20110627173511106/27/11 17:35:31  5-MIN KMSN 272335Z VRB05KT 10SM SCT041 SCT070 BKN100 27/19 A2975 1020 62 2600 VRB/05 RMK AO2
14837KMSN MSN20110627174011106/27/11 17:40:31  5-MIN KMSN 272340Z 27008KT 10SM FEW041 SCT070 BKN100 27/19 A2975 1020 62 2600 270/08 RMK AO2
14837KMSN MSN20110627174511106/27/11 17:45:31  5-MIN KMSN 272345Z VRB05KT 10SM SCT039 SCT050 BKN065 27/19 A2975 1020 60 2700 VRB/05 RMK AO2
14837KMSN MSN20110627175015206/27/11 17:50:31  5-MIN KMSN 272350Z 28008G14KT 10SM SCT039 BKN050 BKN070 27/18 A2976 1020 58 2700 290/08G14 RMK AO2 SLP070 T02720183 10278 20239 53002
14837KMSN MSN20110627175512606/27/11 17:55:31  5-MIN KMSN 272355Z 28010G22KT 220V310 10SM FEW039 SCT048 27/18 A2976 1010 56 2700 280/10G22 220V310 RMK AO2
14837KMSN MSN20110627180011006/27/11 18:00:31  5-MIN KMSN 280000Z 29010G22KT 10SM FEW039 SCT048 27/18 A2976 1010 57 2600 290/10G22 RMK AO2
14837KMSN MSN20110627180512606/27/11 18:05:31  5-MIN KMSN 280005Z 28011G18KT 260V320 10SM FEW039 SCT048 27/18 A2977 1010 57 2600 280/11G18 260V320 RMK AO2
14837KMSN MSN20110627181011006/27/11 18:10:31  5-MIN KMSN 280010Z 30010G20KT 10SM FEW039 SCT048 26/17 A2977 1000 57 2500 300/10G20 RMK AO2
14837KMSN MSN20110627181512606/27/11 18:15:31  5-MIN KMSN 280015Z 28007G20KT 240V310 10SM FEW039 SCT048 26/17 A2977 1000 57 2500 280/07G20 240V310 RMK AO2
14837KMSN MSN20110627182010406/27/11 18:20:31  5-MIN KMSN 280020Z 28006KT 10SM FEW039 SCT048 26/17 A2978 1000 57 2500 280/06 RMK AO2
14837KMSN MSN20110627182510406/27/11 18:25:31  5-MIN KMSN 280025Z VRB06KT 10SM FEW039 SCT048 26/17 A2978 1000 59 2500 VRB/06 RMK AO2
14837KMSN MSN20110627183010306/27/11 18:30:31  5-MIN KMSN 280030Z 26008KT 10SM FEW039 SCT048 26/17 A2978 990 57 2500 270/08 RMK AO2
14837KMSN MSN20110627183510206/27/11 18:35:31  5-MIN KMSN 280035Z 28011G17KT 10SM FEW040 26/16 A2979 990 55 2500 280/11G17 RMK AO2
14837KMSN MSN20110627184010206/27/11 18:40:31  5-MIN KMSN 280040Z 28009G17KT 10SM FEW040 25/16 A2979 980 55 2400 280/09G17 RMK AO2
14837KMSN MSN20110627184510206/27/11 18:45:31  5-MIN KMSN 280045Z 29009G14KT 10SM FEW040 25/16 A2979 980 55 2400 290/09G14 RMK AO2
14837KMSN MSN20110627185011906/27/11 18:50:31  5-MIN KMSN 280050Z 29007G14KT 10SM FEW040 25/14 A2979 980 51 2400 290/07G14 RMK AO2 SLP085 T02500144
14837KMSN MSN20110627185510206/27/11 18:55:31  5-MIN KMSN 280055Z 29009G14KT 10SM FEW040 25/14 A2980 980 51 2400 290/09G14 RMK AO2
14837KMSN MSN20110627190010206/27/11 19:00:31  5-MIN KMSN 280100Z 29008G14KT 10SM FEW040 24/14 A2980 980 51 2300 290/08G14 RMK AO2
14837KMSN MSN20110627190510206/27/11 19:05:31  5-MIN KMSN 280105Z 28006G15KT 10SM FEW040 24/14 A2980 980 51 2300 290/06G15 RMK AO2
14837KMSN MSN20110627191010206/27/11 19:10:31  5-MIN KMSN 280110Z 29007G15KT 10SM FEW040 24/14 A2980 970 51 2300 300/07G15 RMK AO2
14837KMSN MSN20110627191510206/27/11 19:15:31  5-MIN KMSN 280115Z 29009G15KT 10SM FEW040 24/14 A2980 970 53 2300 290/09G15 RMK AO2
14837KMSN MSN20110627192011806/27/11 19:20:31  5-MIN KMSN 280120Z 30007G15KT 260V330 10SM FEW040 24/14 A2981 970 53 2300 300/07G15 260V330 RMK AO2
14837KMSN MSN20110627192509606/27/11 19:25:31  5-MIN KMSN 280125Z 29008KT 10SM FEW040 24/14 A2981 970 53 2300 290/08 RMK AO2
14837KMSN MSN20110627193009606/27/11 19:30:31  5-MIN KMSN 280130Z 29008KT 10SM FEW040 23/14 A2981 970 55 2200 290/08 RMK AO2
14837KMSN MSN20110627193509606/27/11 19:35:31  5-MIN KMSN 280135Z 29008KT 10SM FEW040 23/14 A2981 970 55 2200 290/08 RMK AO2
14837KMSN MSN20110627194009606/27/11 19:40:31  5-MIN KMSN 280140Z 29008KT 10SM FEW040 23/14 A2981 960 55 2200 300/08 RMK AO2
14837KMSN MSN20110627194509606/27/11 19:45:31  5-MIN KMSN 280145Z 30008KT 10SM FEW040 23/14 A2981 960 55 2200 300/08 RMK AO2
14837KMSN MSN20110627195011306/27/11 19:50:31  5-MIN KMSN 280150Z 30008KT 10SM FEW046 23/13 A2982 960 53 2200 300/08 RMK AO2 SLP093 T02330133
14837KMSN MSN20110627195511206/27/11 19:55:31  5-MIN KMSN 280155Z 30008KT 270V330 10SM FEW046 23/13 A2982 960 55 2100 300/08 270V330 RMK AO2
14837KMSN MSN20110627200010206/27/11 20:00:31  5-MIN KMSN 280200Z 29009G14KT 10SM FEW046 23/13 A2982 950 55 2100 290/09G14 RMK AO2
14837KMSN MSN20110627200510206/27/11 20:05:31  5-MIN KMSN 280205Z 30007G14KT 10SM FEW046 23/13 A2983 950 53 2100 300/07G14 RMK AO2
14837KMSN MSN20110627201009606/27/11 20:10:31  5-MIN KMSN 280210Z VRB05KT 10SM FEW046 23/13 A2983 950 53 2100 VRB/05 RMK AO2
14837KMSN MSN20110627201509606/27/11 20:15:31  5-MIN KMSN 280215Z 29007KT 10SM FEW046 23/13 A2983 940 53 2100 290/07 RMK AO2
14837KMSN MSN20110627202010906/27/11 20:20:31  5-MIN KMSN 280220Z 30008KT 260V330 10SM CLR 22/13 A2984 940 54 2000 300/08 260V330 RMK AO2
14837KMSN MSN20110627202509906/27/11 20:25:31  5-MIN KMSN 280225Z 30007G16KT 10SM CLR 22/13 A2984 940 54 2000 310/07G16 RMK AO2
14837KMSN MSN20110627203009906/27/11 20:30:31  5-MIN KMSN 280230Z 29008G16KT 10SM CLR 22/12 A2984 940 52 2000 290/08G16 RMK AO2
14837KMSN MSN20110627203509906/27/11 20:35:31  5-MIN KMSN 280235Z 30007G17KT 10SM CLR 22/12 A2985 930 52 2000 300/07G17 RMK AO2
14837KMSN MSN20110627204009906/27/11 20:40:31  5-MIN KMSN 280240Z 29008G17KT 10SM CLR 22/12 A2985 930 51 2000 300/08G17 RMK AO2
14837KMSN MSN20110627204509906/27/11 20:45:31  5-MIN KMSN 280245Z 29006G18KT 10SM CLR 22/12 A2985 930 52 2000 290/06G18 RMK AO2
14837KMSN MSN20110627205013806/27/11 20:50:31  5-MIN KMSN 280250Z 30008G18KT 280V340 10SM CLR 22/12 A2985 930 52 2000 300/08G18 280V340 RMK AO2 SLP105 T02170117 53004
14837KMSN MSN20110627205509906/27/11 20:55:31  5-MIN KMSN 280255Z 30008G15KT 10SM CLR 22/11 A2986 920 50 2000 300/08G15 RMK AO2
14837KMSN MSN20110627210009906/27/11 21:00:31  5-MIN KMSN 280300Z 30008G15KT 10SM CLR 22/11 A2986 920 50 2000 300/08G15 RMK AO2
14837KMSN MSN20110627210509906/27/11 21:05:31  5-MIN KMSN 280305Z 30008G15KT 10SM CLR 22/11 A2986 920 49 1900 300/08G15 RMK AO2
14837KMSN MSN20110627211009906/27/11 21:10:31  5-MIN KMSN 280310Z 31007G15KT 10SM CLR 21/11 A2986 920 50 1900 310/07G15 RMK AO2
14837KMSN MSN20110627211509306/27/11 21:15:31  5-MIN KMSN 280315Z 30007KT 10SM CLR 21/11 A2986 920 50 1900 300/07 RMK AO2
14837KMSN MSN20110627212009306/27/11 21:20:31  5-MIN KMSN 280320Z 30006KT 10SM CLR 21/11 A2986 920 50 1900 300/06 RMK AO2
14837KMSN MSN20110627212509306/27/11 21:25:31  5-MIN KMSN 280325Z 30005KT 10SM CLR 21/11 A2986 920 52 1800 310/05 RMK AO2
14837KMSN MSN20110627213009306/27/11 21:30:31  5-MIN KMSN 280330Z 30006KT 10SM CLR 21/11 A2986 920 52 1800 300/06 RMK AO2
14837KMSN MSN20110627213509306/27/11 21:35:31  5-MIN KMSN 280335Z 30006KT 10SM CLR 21/11 A2987 910 54 1800 300/06 RMK AO2
14837KMSN MSN20110627214009306/27/11 21:40:31  5-MIN KMSN 280340Z 30005KT 10SM CLR 20/11 A2987 920 56 1700 300/05 RMK AO2
14837KMSN MSN20110627214509306/27/11 21:45:31  5-MIN KMSN 280345Z 29004KT 10SM CLR 20/11 A2987 910 56 1700 290/04 RMK AO2
14837KMSN MSN20110627215011006/27/11 21:50:31  5-MIN KMSN 280350Z 29004KT 10SM CLR 20/11 A2987 920 56 1700 300/04 RMK AO2 SLP109 T02000111
14837KMSN MSN20110627215509306/27/11 21:55:31  5-MIN KMSN 280355Z 29005KT 10SM CLR 19/11 A2987 910 58 1700 290/05 RMK AO2
14837KMSN MSN20110627220009306/27/11 22:00:31  5-MIN KMSN 280400Z 28004KT 10SM CLR 20/11 A2987 910 56 1700 280/04 RMK AO2
14837KMSN MSN20110627220509306/27/11 22:05:31  5-MIN KMSN 280405Z 00000KT 10SM CLR 19/11 A2987 910 58 1700 000/00 RMK AO2
14837KMSN MSN20110627221009306/27/11 22:10:31  5-MIN KMSN 280410Z 29004KT 10SM CLR 19/11 A2987 910 58 1700 290/04 RMK AO2
14837KMSN MSN20110627221509306/27/11 22:15:31  5-MIN KMSN 280415Z 29004KT 10SM CLR 19/11 A2987 910 58 1700 290/04 RMK AO2
14837KMSN MSN20110627222009306/27/11 22:20:31  5-MIN KMSN 280420Z 28003KT 10SM CLR 19/11 A2987 910 58 1700 280/03 RMK AO2
14837KMSN MSN20110627222509306/27/11 22:25:31  5-MIN KMSN 280425Z 29003KT 10SM CLR 19/11 A2987 910 58 1700 290/03 RMK AO2
14837KMSN MSN20110627223009306/27/11 22:30:31  5-MIN KMSN 280430Z 00000KT 10SM CLR 19/11 A2987 910 58 1700 000/00 RMK AO2
14837KMSN MSN20110627223509306/27/11 22:35:31  5-MIN KMSN 280435Z 29003KT 10SM CLR 19/11 A2987 910 60 1600 290/03 RMK AO2
14837KMSN MSN20110627224009306/27/11 22:40:31  5-MIN KMSN 280440Z VRB03KT 10SM CLR 19/11 A2987 910 58 1600 VRB/03 RMK AO2
14837KMSN MSN20110627224509306/27/11 22:45:31  5-MIN KMSN 280445Z 27003KT 10SM CLR 19/11 A2987 910 56 1700 270/03 RMK AO2
14837KMSN MSN20110627225011006/27/11 22:50:31  5-MIN KMSN 280450Z 00000KT 10SM CLR 19/11 A2987 910 58 1600 000/00 RMK AO2 SLP112 T01890106
14837KMSN MSN20110627225509306/27/11 22:55:31  5-MIN KMSN 280455Z 00000KT 10SM CLR 19/11 A2987 910 58 1600 000/00 RMK AO2
14837KMSN MSN20110627230009306/27/11 23:00:31  5-MIN KMSN 280500Z 00000KT 10SM CLR 19/11 A2987 910 58 1600 000/00 RMK AO2
14837KMSN MSN20110627230509306/27/11 23:05:31  5-MIN KMSN 280505Z 00000KT 10SM CLR 19/11 A2988 910 60 1600 000/00 RMK AO2
14837KMSN MSN20110627231009306/27/11 23:10:31  5-MIN KMSN 280510Z 00000KT 10SM CLR 19/11 A2988 910 60 1600 000/00 RMK AO2
14837KMSN MSN20110627231509306/27/11 23:15:31  5-MIN KMSN 280515Z 00000KT 10SM CLR 19/11 A2987 910 60 1600 000/00 RMK AO2
14837KMSN MSN20110627232009306/27/11 23:20:31  5-MIN KMSN 280520Z VRB03KT 10SM CLR 19/11 A2988 910 60 1600 VRB/03 RMK AO2
14837KMSN MSN20110627232509306/27/11 23:25:31  5-MIN KMSN 280525Z 28004KT 10SM CLR 19/11 A2988 910 60 1600 280/04 RMK AO2
14837KMSN MSN20110627233009306/27/11 23:30:31  5-MIN KMSN 280530Z 00000KT 10SM CLR 19/11 A2988 900 60 1600 000/00 RMK AO2
14837KMSN MSN20110627233509306/27/11 23:35:31  5-MIN KMSN 280535Z 00000KT 10SM CLR 19/11 A2988 900 60 1600 000/00 RMK AO2
14837KMSN MSN20110627234009306/27/11 23:40:31  5-MIN KMSN 280540Z 00000KT 10SM CLR 19/11 A2988 900 60 1600 000/00 RMK AO2
14837KMSN MSN20110627234509306/27/11 23:45:31  5-MIN KMSN 280545Z VRB03KT 10SM CLR 19/11 A2988 900 60 1600 VRB/03 RMK AO2
14837KMSN MSN20110627235013806/27/11 23:50:31  5-MIN KMSN 280550Z 27005KT 10SM CLR 19/11 A2988 900 60 1600 270/05 RMK AO2 SLP114 T01890111 10272 20189 402780183 51032
14837KMSN MSN20110627235509306/27/11 23:55:31  5-MIN KMSN 280555Z VRB06KT 10SM CLR 19/11 A2988 900 60 1600 VRB/06 RMK AO2
14837KMSN MSN20110628000009306/28/11 00:00:32  5-MIN KMSN 280600Z 27007KT 10SM CLR 19/11 A2988 900 58 1600 280/07 RMK AO2
14837KMSN MSN20110628000509306/28/11 00:05:31  5-MIN KMSN 280605Z 28007KT 10SM CLR 19/11 A2989 900 58 1600 290/07 RMK AO2
14837KMSN MSN20110628001009306/28/11 00:10:31  5-MIN KMSN 280610Z 29008KT 10SM CLR 19/11 A2989 900 58 1600 290/08 RMK AO2
14837KMSN MSN20110628001509306/28/11 00:15:31  5-MIN KMSN 280615Z 29006KT 10SM CLR 19/11 A2989 890 58 1600 290/06 RMK AO2
14837KMSN MSN20110628002009306/28/11 00:20:31  5-MIN KMSN 280620Z VRB05KT 10SM CLR 18/11 A2989 890 60 1500 VRB/05 RMK AO2
14837KMSN MSN20110628002509306/28/11 00:25:31  5-MIN KMSN 280625Z 28005KT 10SM CLR 18/11 A2989 890 60 1500 280/05 RMK AO2
14837KMSN MSN20110628003009306/28/11 00:30:31  5-MIN KMSN 280630Z VRB05KT 10SM CLR 18/11 A2989 890 62 1500 VRB/05 RMK AO2
14837KMSN MSN20110628003509306/28/11 00:35:31  5-MIN KMSN 280635Z 29005KT 10SM CLR 18/11 A2989 890 62 1500 290/05 RMK AO2
14837KMSN MSN20110628004009306/28/11 00:40:31  5-MIN KMSN 280640Z 28006KT 10SM CLR 18/11 A2989 890 62 1500 280/06 RMK AO2
14837KMSN MSN20110628004509306/28/11 00:45:31  5-MIN KMSN 280645Z 29006KT 10SM CLR 18/11 A2989 890 64 1500 290/06 RMK AO2
14837KMSN MSN20110628005011006/28/11 00:50:31  5-MIN KMSN 280650Z 29006KT 10SM CLR 18/11 A2989 890 64 1500 290/06 RMK AO2 SLP117 T01780111
14837KMSN MSN20110628005509306/28/11 00:55:31  5-MIN KMSN 280655Z 29006KT 10SM CLR 18/11 A2989 890 64 1500 290/06 RMK AO2
14837KMSN MSN20110628010009306/28/11 01:00:31  5-MIN KMSN 280700Z 29006KT 10SM CLR 18/11 A2989 890 64 1500 290/06 RMK AO2
14837KMSN MSN20110628010509306/28/11 01:05:31  5-MIN KMSN 280705Z 29005KT 10SM CLR 18/11 A2989 890 64 1500 290/05 RMK AO2
14837KMSN MSN20110628011009306/28/11 01:10:31  5-MIN KMSN 280710Z VRB05KT 10SM CLR 17/11 A2989 890 67 1400 VRB/05 RMK AO2
14837KMSN MSN20110628011509306/28/11 01:15:31  5-MIN KMSN 280715Z 29005KT 10SM CLR 17/11 A2989 890 67 1400 290/05 RMK AO2
14837KMSN MSN20110628012009306/28/11 01:20:31  5-MIN KMSN 280720Z 30007KT 10SM CLR 17/11 A2990 890 67 1400 300/07 RMK AO2
14837KMSN MSN20110628012509306/28/11 01:25:31  5-MIN KMSN 280725Z 29007KT 10SM CLR 18/11 A2990 890 64 1500 300/07 RMK AO2
14837KMSN MSN20110628013009306/28/11 01:30:31  5-MIN KMSN 280730Z 29006KT 10SM CLR 17/11 A2990 880 67 1400 300/06 RMK AO2
14837KMSN MSN20110628013509306/28/11 01:35:31  5-MIN KMSN 280735Z 29006KT 10SM CLR 17/11 A2990 880 67 1400 300/06 RMK AO2
14837KMSN MSN20110628014009306/28/11 01:40:31  5-MIN KMSN 280740Z 30006KT 10SM CLR 17/11 A2990 880 67 1400 300/06 RMK AO2
14837KMSN MSN20110628014509306/28/11 01:45:31  5-MIN KMSN 280745Z 29007KT 10SM CLR 17/11 A2991 880 67 1400 290/07 RMK AO2
14837KMSN MSN20110628015011006/28/11 01:50:31  5-MIN KMSN 280750Z 29006KT 10SM CLR 17/11 A2991 870 67 1400 300/06 RMK AO2 SLP124 T01720111
14837KMSN MSN20110628015509306/28/11 01:55:31  5-MIN KMSN 280755Z VRB06KT 10SM CLR 17/11 A2991 870 67 1400 VRB/06 RMK AO2
14837KMSN MSN20110628020009306/28/11 02:00:31  5-MIN KMSN 280800Z 30007KT 10SM CLR 17/11 A2992 870 67 1400 300/07 RMK AO2
14837KMSN MSN20110628020509306/28/11 02:05:31  5-MIN KMSN 280805Z 31006KT 10SM CLR 17/11 A2992 870 67 1400 310/06 RMK AO2
14837KMSN MSN20110628021009306/28/11 02:10:31  5-MIN KMSN 280810Z 31005KT 10SM CLR 17/11 A2992 870 67 1400 310/05 RMK AO2
14837KMSN MSN20110628021509306/28/11 02:15:31  5-MIN KMSN 280815Z 31006KT 10SM CLR 17/11 A2992 870 67 1400 320/06 RMK AO2
14837KMSN MSN20110628022009306/28/11 02:20:31  5-MIN KMSN 280820Z 31005KT 10SM CLR 17/11 A2992 860 69 1300 310/05 RMK AO2
14837KMSN MSN20110628022509306/28/11 02:25:31  5-MIN KMSN 280825Z 31006KT 10SM CLR 17/11 A2992 860 69 1300 310/06 RMK AO2
14837KMSN MSN20110628023009306/28/11 02:30:31  5-MIN KMSN 280830Z 31004KT 10SM CLR 17/11 A2992 860 69 1300 310/04 RMK AO2
14837KMSN MSN20110628023509306/28/11 02:35:31  5-MIN KMSN 280835Z 31008KT 10SM CLR 17/11 A2992 860 69 1300 310/08 RMK AO2
14837KMSN MSN20110628024009306/28/11 02:40:31  5-MIN KMSN 280840Z 31005KT 10SM CLR 17/11 A2992 860 69 1300 310/05 RMK AO2
14837KMSN MSN20110628024509906/28/11 02:45:31  5-MIN KMSN 280845Z 31008G17KT 10SM CLR 17/11 A2993 860 67 1300 310/08G17 RMK AO2
14837KMSN MSN20110628025012206/28/11 02:50:31  5-MIN KMSN 280850Z 31006G17KT 10SM CLR 17/11 A2992 860 67 1300 310/06G17 RMK AO2 SLP129 T01670106 51009
14837KMSN MSN20110628025509306/28/11 02:55:31  5-MIN KMSN 280855Z 31007KT 10SM CLR 17/11 A2993 860 67 1300 310/07 RMK AO2
14837KMSN MSN20110628030009306/28/11 03:00:31  5-MIN KMSN 280900Z 30006KT 10SM CLR 16/11 A2993 860 69 1200 310/06 RMK AO2
14837KMSN MSN20110628030509306/28/11 03:05:31  5-MIN KMSN 280905Z 31006KT 10SM CLR 16/11 A2992 860 69 1200 310/06 RMK AO2
14837KMSN MSN20110628031009306/28/11 03:10:31  5-MIN KMSN 280910Z 31007KT 10SM CLR 16/11 A2993 860 69 1200 310/07 RMK AO2
14837KMSN MSN20110628031509306/28/11 03:15:31  5-MIN KMSN 280915Z 31006KT 10SM CLR 16/11 A2993 860 69 1200 310/06 RMK AO2
14837KMSN MSN20110628032009306/28/11 03:20:31  5-MIN KMSN 280920Z 31008KT 10SM CLR 16/11 A2993 850 69 1200 320/08 RMK AO2
14837KMSN MSN20110628032509906/28/11 03:25:31  5-MIN KMSN 280925Z 31009G14KT 10SM CLR 16/11 A2994 850 69 1200 310/09G14 RMK AO2
14837KMSN MSN20110628033009306/28/11 03:30:31  5-MIN KMSN 280930Z 32006KT 10SM CLR 16/11 A2994 850 69 1200 320/06 RMK AO2
14837KMSN MSN20110628033509306/28/11 03:35:31  5-MIN KMSN 280935Z 30006KT 10SM CLR 16/11 A2994 850 72 1100 300/06 RMK AO2
14837KMSN MSN20110628034009306/28/11 03:40:31  5-MIN KMSN 280940Z 30005KT 10SM CLR 16/11 A2994 840 72 1100 300/05 RMK AO2
14837KMSN MSN20110628034509306/28/11 03:45:31  5-MIN KMSN 280945Z 29005KT 10SM CLR 16/11 A2995 840 72 1100 300/05 RMK AO2
14837KMSN MSN20110628035011306/28/11 03:50:31  5-MIN KMSN 280950Z VRB04KT 10SM FEW025 16/11 A2994 840 72 1100 VRB/04 RMK AO2 SLP136 T01560106
14837KMSN MSN20110628035509306/28/11 03:55:31  5-MIN KMSN 280955Z 29005KT 10SM CLR 16/11 A2994 840 72 1100 290/05 RMK AO2
14837KMSN MSN20110628040009306/28/11 04:00:31  5-MIN KMSN 281000Z 29005KT 10SM CLR 16/11 A2994 840 72 1100 290/05 RMK AO2
14837KMSN MSN20110628040509306/28/11 04:05:31  5-MIN KMSN 281005Z VRB03KT 10SM CLR 16/11 A2995 840 72 1100 VRB/03 RMK AO2
14837KMSN MSN20110628041009306/28/11 04:10:31  5-MIN KMSN 281010Z 30003KT 10SM CLR 16/11 A2995 840 72 1100 300/03 RMK AO2
14837KMSN MSN20110628041509306/28/11 04:15:31  5-MIN KMSN 281015Z 00000KT 10SM CLR 15/11 A2995 840 74 1100 000/00 RMK AO2
14837KMSN MSN20110628042009306/28/11 04:20:31  5-MIN KMSN 281020Z 00000KT 10SM CLR 15/11 A2995 840 74 1100 000/00 RMK AO2
14837KMSN MSN20110628042509306/28/11 04:25:31  5-MIN KMSN 281025Z VRB03KT 10SM CLR 15/11 A2995 830 74 1100 VRB/03 RMK AO2
14837KMSN MSN20110628043009306/28/11 04:30:31  5-MIN KMSN 281030Z 30004KT 10SM CLR 15/11 A2995 830 74 1100 300/04 RMK AO2
14837KMSN MSN20110628043509306/28/11 04:35:31  5-MIN KMSN 281035Z 28003KT 10SM CLR 15/11 A2996 830 74 1100 280/03 RMK AO2
14837KMSN MSN20110628044009306/28/11 04:40:31  5-MIN KMSN 281040Z VRB04KT 10SM CLR 15/11 A2996 830 74 1100 VRB/04 RMK AO2
14837KMSN MSN20110628044509306/28/11 04:45:31  5-MIN KMSN 281045Z 28004KT 10SM CLR 15/11 A2996 830 74 1100 280/04 RMK AO2
14837KMSN MSN20110628045011006/28/11 04:50:31  5-MIN KMSN 281050Z VRB05KT 10SM CLR 15/11 A2996 830 74 1100 VRB/05 RMK AO2 SLP142 T01500106
14837KMSN MSN20110628045509306/28/11 04:55:31  5-MIN KMSN 281055Z VRB04KT 10SM CLR 15/11 A2996 820 74 1100 VRB/04 RMK AO2
14837KMSN MSN20110628050009306/28/11 05:00:31  5-MIN KMSN 281100Z 29004KT 10SM CLR 15/11 A2997 820 74 1100 290/04 RMK AO2
14837KMSN MSN20110628050509306/28/11 05:05:31  5-MIN KMSN 281105Z 29006KT 10SM CLR 15/11 A2997 820 74 1100 290/06 RMK AO2
14837KMSN MSN20110628051009306/28/11 05:10:31  5-MIN KMSN 281110Z 30005KT 10SM CLR 15/11 A2997 820 74 1100 300/05 RMK AO2
14837KMSN MSN20110628051509306/28/11 05:15:31  5-MIN KMSN 281115Z VRB04KT 10SM CLR 15/11 A2997 820 74 1100 VRB/04 RMK AO2
14837KMSN MSN20110628052009306/28/11 05:20:31  5-MIN KMSN 281120Z 30006KT 10SM CLR 16/11 A2997 820 72 1100 300/06 RMK AO2
14837KMSN MSN20110628052509306/28/11 05:25:31  5-MIN KMSN 281125Z 29005KT 10SM CLR 16/11 A2997 820 72 1100 300/05 RMK AO2
14837KMSN MSN20110628053009306/28/11 05:30:31  5-MIN KMSN 281130Z 28004KT 10SM CLR 16/11 A2997 820 72 1100 290/04 RMK AO2
14837KMSN MSN20110628053509306/28/11 05:35:31  5-MIN KMSN 281135Z VRB04KT 10SM CLR 16/11 A2997 820 72 1100 VRB/04 RMK AO2
14837KMSN MSN20110628054009306/28/11 05:40:31  5-MIN KMSN 281140Z VRB04KT 10SM CLR 16/11 A2998 810 72 1100 VRB/04 RMK AO2
14837KMSN MSN20110628054509306/28/11 05:45:31  5-MIN KMSN 281145Z 28005KT 10SM CLR 16/11 A2998 810 72 1100 280/05 RMK AO2
14837KMSN MSN20110628055013406/28/11 05:50:31  5-MIN KMSN 281150Z 29007KT 10SM CLR 16/11 A2998 810 69 1200 290/07 RMK AO2 SLP148 70001 T01610106 10189 20150 53015
14837KMSN MSN20110628055509306/28/11 05:55:31  5-MIN KMSN 281155Z 31007KT 10SM CLR 16/11 A2998 810 69 1200 310/07 RMK AO2
14837KMSN MSN20110628060009306/28/11 06:00:31  5-MIN KMSN 281200Z 30006KT 10SM CLR 16/11 A2998 810 69 1200 300/06 RMK AO2
14837KMSN MSN20110628060509306/28/11 06:05:31  5-MIN KMSN 281205Z 29005KT 10SM CLR 16/11 A2998 810 69 1200 300/05 RMK AO2
14837KMSN MSN20110628061009306/28/11 06:10:31  5-MIN KMSN 281210Z 30006KT 10SM CLR 16/11 A2998 810 69 1200 300/06 RMK AO2
14837KMSN MSN20110628061509306/28/11 06:15:31  5-MIN KMSN 281215Z 29007KT 10SM CLR 16/11 A2998 810 69 1200 300/07 RMK AO2
14837KMSN MSN20110628062009306/28/11 06:20:31  5-MIN KMSN 281220Z 29006KT 10SM CLR 17/11 A2999 800 69 1200 290/06 RMK AO2
14837KMSN MSN20110628062509306/28/11 06:25:31  5-MIN KMSN 281225Z VRB06KT 10SM CLR 17/11 A2999 800 69 1200 VRB/06 RMK AO2
14837KMSN MSN20110628063010906/28/11 06:30:31  5-MIN KMSN 281230Z 30007KT 270V340 10SM CLR 17/11 A2999 800 69 1200 300/07 270V340 RMK AO2
14837KMSN MSN20110628063509306/28/11 06:35:31  5-MIN KMSN 281235Z VRB06KT 10SM CLR 17/11 A2999 800 67 1300 VRB/06 RMK AO2
14837KMSN MSN20110628064009306/28/11 06:40:31  5-MIN KMSN 281240Z 31005KT 10SM CLR 17/11 A2999 800 67 1300 310/05 RMK AO2
14837KMSN MSN20110628064509306/28/11 06:45:31  5-MIN KMSN 281245Z VRB06KT 10SM CLR 17/11 A2999 800 67 1300 VRB/06 RMK AO2
14837KMSN MSN20110628065011606/28/11 06:50:31  5-MIN KMSN 281250Z 31009G14KT 10SM CLR 17/11 A3000 790 67 1300 310/09G14 RMK AO2 SLP153 T01720111
14837KMSN MSN20110628065511506/28/11 06:55:31  5-MIN KMSN 281255Z 31007G14KT 280V340 10SM CLR 17/11 A3000 790 67 1300 310/07G14 280V340 RMK AO2
14837KMSN MSN20110628070009306/28/11 07:00:31  5-MIN KMSN 281300Z 31006KT 10SM CLR 18/12 A3000 790 67 1300 310/06 RMK AO2
14837KMSN MSN20110628070509906/28/11 07:05:31  5-MIN KMSN 281305Z 31012G16KT 10SM CLR 18/12 A3000 790 67 1300 310/12G16 RMK AO2
14837KMSN MSN20110628071009906/28/11 07:10:31  5-MIN KMSN 281310Z 32008G16KT 10SM CLR 18/11 A3000 790 64 1300 320/08G16 RMK AO2
14837KMSN MSN20110628071509906/28/11 07:15:31  5-MIN KMSN 281315Z 32008G15KT 10SM CLR 18/12 A3000 790 67 1300 320/08G15 RMK AO2
14837KMSN MSN20110628072009906/28/11 07:20:31  5-MIN KMSN 281320Z 33008G15KT 10SM CLR 18/12 A3000 790 67 1300 330/08G15 RMK AO2
14837KMSN MSN20110628072509906/28/11 07:25:31  5-MIN KMSN 281325Z 31010G15KT 10SM CLR 18/12 A3000 790 65 1400 310/10G15 RMK AO2
14837KMSN MSN20110628073009906/28/11 07:30:31  5-MIN KMSN 281330Z 33009G15KT 10SM CLR 18/12 A3000 790 65 1400 330/09G15 RMK AO2
14837KMSN MSN20110628073510206/28/11 07:35:31  5-MIN KMSN 281335Z 33011G14KT 10SM FEW026 18/12 A3001 790 67 1400 330/11G14 RMK AO2
14837KMSN MSN20110628074010206/28/11 07:40:31  5-MIN KMSN 281340Z 32012G22KT 10SM FEW026 18/12 A3001 790 65 1400 320/12G22 RMK AO2
14837KMSN MSN20110628074510206/28/11 07:45:31  5-MIN KMSN 281345Z 32004G22KT 10SM FEW026 18/12 A3000 790 65 1400 320/04G22 RMK AO2
14837KMSN MSN20110628075011306/28/11 07:50:31  5-MIN KMSN 281350Z 31008KT 10SM FEW026 18/12 A3000 790 65 1400 310/08 RMK AO2 SLP155 T01830117
14837KMSN MSN20110628075510206/28/11 07:55:31  5-MIN KMSN 281355Z 32011G15KT 10SM FEW028 19/12 A3000 790 62 1500 320/11G15 RMK AO2
14837KMSN MSN20110628080010206/28/11 08:00:31  5-MIN KMSN 281400Z 32007G16KT 10SM FEW028 18/12 A3000 790 65 1400 320/07G16 RMK AO2
14837KMSN MSN20110628080510206/28/11 08:05:31  5-MIN KMSN 281405Z 33009G16KT 10SM FEW028 19/12 A3001 780 62 1500 330/09G16 RMK AO2
14837KMSN MSN20110628081009606/28/11 08:10:31  5-MIN KMSN 281410Z 30008KT 10SM FEW028 19/12 A3001 780 65 1500 300/08 RMK AO2
14837KMSN MSN20110628081509606/28/11 08:15:31  5-MIN KMSN 281415Z 32006KT 10SM FEW028 19/12 A3001 780 62 1500 330/06 RMK AO2
14837KMSN MSN20110628082009606/28/11 08:20:31  5-MIN KMSN 281420Z 33010KT 10SM FEW028 19/12 A3001 780 62 1500 330/10 RMK AO2
14837KMSN MSN20110628082510206/28/11 08:25:31  5-MIN KMSN 281425Z 32010G16KT 10SM FEW028 19/12 A3002 780 62 1500 320/10G16 RMK AO2
14837KMSN MSN20110628083010206/28/11 08:30:31  5-MIN KMSN 281430Z 34009G17KT 10SM FEW028 19/12 A3001 780 62 1500 340/09G17 RMK AO2
14837KMSN MSN20110628083510206/28/11 08:35:31  5-MIN KMSN 281435Z 34009G17KT 10SM FEW028 19/12 A3001 780 60 1500 340/09G17 RMK AO2
14837KMSN MSN20110628084010206/28/11 08:40:31  5-MIN KMSN 281440Z 33011G17KT 10SM FEW028 19/12 A3001 780 62 1500 330/11G17 RMK AO2
14837KMSN MSN20110628084510206/28/11 08:45:31  5-MIN KMSN 281445Z 34012G17KT 10SM FEW028 20/12 A3001 780 60 1600 340/12G17 RMK AO2
14837KMSN MSN20110628085012506/28/11 08:50:31  5-MIN KMSN 281450Z 33010G17KT 10SM FEW028 20/12 A3001 780 60 1600 330/10G17 RMK AO2 SLP158 T02000122 51018
14837KMSN MSN20110628085511206/28/11 08:55:31  5-MIN KMSN 281455Z 34008KT 300V010 10SM FEW034 21/13 A3001 780 60 1600 340/08 300V010 RMK AO2
14837KMSN MSN20110628090009606/28/11 09:00:31  5-MIN KMSN 281500Z 33009KT 10SM FEW034 21/13 A3001 780 60 1600 340/09 RMK AO2
14837KMSN MSN20110628090509606/28/11 09:05:31  5-MIN KMSN 281505Z 33007KT 10SM FEW034 21/13 A3001 780 60 1600 330/07 RMK AO2
14837KMSN MSN20110628091010206/28/11 09:10:31  5-MIN KMSN 281510Z 32010G18KT 10SM FEW034 21/13 A3001 780 60 1600 320/10G18 RMK AO2
14837KMSN MSN20110628091510206/28/11 09:15:31  5-MIN KMSN 281515Z 35011G18KT 10SM FEW034 21/13 A3001 780 58 1700 350/11G18 RMK AO2
14837KMSN MSN20110628092010206/28/11 09:20:31  5-MIN KMSN 281520Z 34010G16KT 10SM FEW034 21/13 A3001 780 58 1700 340/10G16 RMK AO2
14837KMSN MSN20110628092510206/28/11 09:25:31  5-MIN KMSN 281525Z 33008G15KT 10SM FEW034 21/13 A3001 780 58 1700 330/08G15 RMK AO2
14837KMSN MSN20110628093010206/28/11 09:30:31  5-MIN KMSN 281530Z 32008G17KT 10SM FEW034 21/12 A3001 780 56 1700 320/08G17 RMK AO2
14837KMSN MSN20110628093510206/28/11 09:35:31  5-MIN KMSN 281535Z 32011G17KT 10SM FEW034 22/13 A3001 780 56 1800 330/11G17 RMK AO2
14837KMSN MSN20110628094010206/28/11 09:40:31  5-MIN KMSN 281540Z 33012G17KT 10SM FEW034 21/12 A3001 780 56 1700 330/12G17 RMK AO2
14837KMSN MSN20110628094510206/28/11 09:45:31  5-MIN KMSN 281545Z 33011G18KT 10SM FEW034 22/13 A3002 780 56 1800 330/11G18 RMK AO2
14837KMSN MSN20110628095011906/28/11 09:50:31  5-MIN KMSN 281550Z 32013G18KT 10SM FEW034 22/13 A3002 770 56 1800 320/13G18 RMK AO2 SLP161 T02170128
14837KMSN MSN20110628095510206/28/11 09:55:31  5-MIN KMSN 281555Z 31012G18KT 10SM FEW038 22/12 A3002 770 54 1800 310/12G18 RMK AO2
14837KMSN MSN20110628100011806/28/11 10:00:31  5-MIN KMSN 281600Z 33009G18KT 310V010 10SM FEW038 22/13 A3002 770 56 1800 330/09G18 310V010 RMK AO2
14837KMSN MSN20110628100509606/28/11 10:05:31  5-MIN KMSN 281605Z 32009KT 10SM FEW038 22/13 A3003 770 56 1800 320/09 RMK AO2
14837KMSN MSN20110628101010206/28/11 10:10:31  5-MIN KMSN 281610Z 33010G18KT 10SM FEW038 22/13 A3003 770 54 1800 330/10G18 RMK AO2
14837KMSN MSN20110628101510206/28/11 10:15:31  5-MIN KMSN 281615Z 34010G18KT 10SM FEW038 22/13 A3003 770 54 1800 340/10G18 RMK AO2
14837KMSN MSN20110628102010206/28/11 10:20:31  5-MIN KMSN 281620Z 33009G16KT 10SM FEW038 22/13 A3003 770 56 1800 340/09G16 RMK AO2
14837KMSN MSN20110628102510206/28/11 10:25:31  5-MIN KMSN 281625Z 31010G16KT 10SM FEW038 23/13 A3002 770 55 1900 310/10G16 RMK AO2
14837KMSN MSN20110628103010206/28/11 10:30:31  5-MIN KMSN 281630Z 32013G18KT 10SM FEW038 22/13 A3002 770 54 1800 320/13G18 RMK AO2
14837KMSN MSN20110628103510206/28/11 10:35:31  5-MIN KMSN 281635Z 32011G18KT 10SM FEW038 22/12 A3002 770 52 1800 320/11G18 RMK AO2
14837KMSN MSN20110628104011806/28/11 10:40:31  5-MIN KMSN 281640Z 34009G17KT 300V360 10SM FEW038 22/13 A3002 770 54 1800 340/09G17 300V360 RMK AO2
14837KMSN MSN20110628104510206/28/11 10:45:31  5-MIN KMSN 281645Z 32010G17KT 10SM FEW038 23/13 A3002 770 55 1900 320/10G17 RMK AO2
14837KMSN MSN20110628105011906/28/11 10:50:31  5-MIN KMSN 281650Z 33009G17KT 10SM FEW038 23/13 A3002 770 55 1900 330/09G17 RMK AO2 SLP163 T02280133
14837KMSN MSN20110628105510206/28/11 10:55:31  5-MIN KMSN 281655Z 31011G17KT 10SM FEW040 23/13 A3003 770 53 1900 310/11G17 RMK AO2
14837KMSN MSN20110628110011806/28/11 11:00:31  5-MIN KMSN 281700Z 32008G17KT 280V350 10SM FEW040 23/13 A3003 770 53 1900 320/08G17 280V350 RMK AO2
14837KMSN MSN20110628110509606/28/11 11:05:31  5-MIN KMSN 281705Z 31009KT 10SM FEW040 23/13 A3003 760 55 1900 320/09 RMK AO2
14837KMSN MSN20110628111010206/28/11 11:10:31  5-MIN KMSN 281710Z 30008G14KT 10SM FEW040 23/13 A3003 770 53 1900 300/08G14 RMK AO2
14837KMSN MSN20110628111511806/28/11 11:15:31  5-MIN KMSN 281715Z 30008G17KT 260V330 10SM FEW040 23/13 A3003 760 53 1900 310/08G17 260V330 RMK AO2
14837KMSN MSN20110628112010206/28/11 11:20:31  5-MIN KMSN 281720Z 31010G16KT 10SM FEW040 23/12 A3003 760 51 1900 310/10G16 RMK AO2
14837KMSN MSN20110628112510206/28/11 11:25:31  5-MIN KMSN 281725Z 32010G16KT 10SM FEW040 23/13 A3003 770 53 1900 320/10G16 RMK AO2
14837KMSN MSN20110628113010206/28/11 11:30:31  5-MIN KMSN 281730Z 32006G16KT 10SM FEW040 23/13 A3003 770 53 1900 320/06G16 RMK AO2
14837KMSN MSN20110628113510206/28/11 11:35:31  5-MIN KMSN 281735Z 32012G17KT 10SM FEW040 23/13 A3003 760 53 1900 320/12G17 RMK AO2
14837KMSN MSN20110628114010206/28/11 11:40:31  5-MIN KMSN 281740Z 33010G17KT 10SM FEW040 23/13 A3003 760 51 1900 330/10G17 RMK AO2
14837KMSN MSN20110628114511806/28/11 11:45:31  5-MIN KMSN 281745Z 31009G17KT 270V340 10SM FEW040 23/13 A3003 760 51 1900 310/09G17 270V340 RMK AO2
14837KMSN MSN20110628115013106/28/11 11:50:31  5-MIN KMSN 281750Z 32009KT 10SM FEW040 24/13 A3003 770 51 2000 320/09 RMK AO2 SLP164 T02390133 10239 20161 51010
14837KMSN MSN20110628115509606/28/11 11:55:31  5-MIN KMSN 281755Z 33007KT 10SM FEW045 24/14 A3003 770 53 2000 330/07 RMK AO2
14837KMSN MSN20110628120010206/28/11 12:00:31  5-MIN KMSN 281800Z 32009G15KT 10SM FEW045 24/13 A3003 760 49 2100 330/09G15 RMK AO2
14837KMSN MSN20110628120510206/28/11 12:05:31  5-MIN KMSN 281805Z 33008G15KT 10SM FEW045 24/13 A3003 760 51 2000 340/08G15 RMK AO2
14837KMSN MSN20110628121010206/28/11 12:10:31  5-MIN KMSN 281810Z 31009G15KT 10SM FEW045 24/13 A3003 760 49 2100 310/09G15 RMK AO2
14837KMSN MSN20110628121510206/28/11 12:15:31  5-MIN KMSN 281815Z 33012G18KT 10SM FEW045 24/12 A3003 760 47 2000 330/12G18 RMK AO2
14837KMSN MSN20110628122010206/28/11 12:20:31  5-MIN KMSN 281820Z 33010G18KT 10SM FEW045 24/12 A3003 760 47 2000 330/10G18 RMK AO2
14837KMSN MSN20110628122510206/28/11 12:25:31  5-MIN KMSN 281825Z 35009G15KT 10SM FEW045 24/13 A3003 760 47 2100 350/09G15 RMK AO2
14837KMSN MSN20110628123010206/28/11 12:30:31  5-MIN KMSN 281830Z 33010G17KT 10SM FEW045 24/13 A3004 760 49 2100 330/10G17 RMK AO2
14837KMSN MSN20110628123510206/28/11 12:35:31  5-MIN KMSN 281835Z 34010G17KT 10SM FEW045 25/13 A3004 760 46 2100 340/10G17 RMK AO2
14837KMSN MSN20110628124009606/28/11 12:40:31  5-MIN KMSN 281840Z 35007KT 10SM FEW045 25/13 A3004 760 48 2100 350/07 RMK AO2
14837KMSN MSN20110628124510206/28/11 12:45:31  5-MIN KMSN 281845Z 33010G15KT 10SM FEW045 25/13 A3003 760 48 2100 330/10G15 RMK AO2
14837KMSN MSN20110628125011906/28/11 12:50:31  5-MIN KMSN 281850Z 31011G16KT 10SM FEW046 24/13 A3003 760 47 2100 310/11G16 RMK AO2 SLP166 T02440128
14837KMSN MSN20110628125509606/28/11 12:55:31  5-MIN KMSN 281855Z 33013KT 10SM FEW046 24/12 A3003 760 46 2100 330/13 RMK AO2
14837KMSN MSN20110628130009606/28/11 13:00:31  5-MIN KMSN 281900Z 31006KT 10SM FEW046 25/13 A3003 760 46 2100 310/06 RMK AO2
14837KMSN MSN20110628130509606/28/11 13:05:31  5-MIN KMSN 281905Z 34010KT 10SM FEW046 25/13 A3003 760 46 2100 340/10 RMK AO2
14837KMSN MSN20110628131009606/28/11 13:10:31  5-MIN KMSN 281910Z 33008KT 10SM FEW046 25/13 A3003 760 46 2100 330/08 RMK AO2
14837KMSN MSN20110628131510206/28/11 13:15:31  5-MIN KMSN 281915Z 32011G16KT 10SM FEW046 25/13 A3003 760 46 2100 320/11G16 RMK AO2
14837KMSN MSN20110628132010206/28/11 13:20:31  5-MIN KMSN 281920Z 31009G16KT 10SM FEW046 25/12 A3003 760 43 2100 310/09G16 RMK AO2
14837KMSN MSN20110628132509606/28/11 13:25:31  5-MIN KMSN 281925Z 33010KT 10SM FEW046 25/12 A3003 760 44 2100 330/10 RMK AO2
14837KMSN MSN20110628133010206/28/11 13:30:31  5-MIN KMSN 281930Z 31009G17KT 10SM FEW046 25/13 A3003 760 48 2100 310/09G17 RMK AO2
14837KMSN MSN20110628133510206/28/11 13:35:31  5-MIN KMSN 281935Z 32009G17KT 10SM FEW046 26/13 A3003 760 44 2200 320/09G17 RMK AO2
14837KMSN MSN20110628134010206/28/11 13:40:31  5-MIN KMSN 281940Z 30008G15KT 10SM FEW046 26/13 A3003 760 44 2200 300/08G15 RMK AO2
14837KMSN MSN20110628134510206/28/11 13:45:31  5-MIN KMSN 281945Z 35011G15KT 10SM FEW046 26/13 A3003 760 46 2200 350/11G15 RMK AO2
14837KMSN MSN20110628135011906/28/11 13:50:31  5-MIN KMSN 281950Z 33008G15KT 10SM FEW046 25/12 A3003 760 44 2100 330/08G15 RMK AO2 SLP165 T02500122
14837KMSN MSN20110628135510206/28/11 13:55:31  5-MIN KMSN 281955Z 33008G15KT 10SM SCT055 24/13 A3003 760 47 2100 330/08G15 RMK AO2
14837KMSN MSN20110628140010206/28/11 14:00:31  5-MIN KMSN 282000Z VRB06G15KT 10SM SCT055 24/12 A3003 760 47 2000 VRB/06G15 RMK AO2
14837KMSN MSN20110628140511206/28/11 14:05:31  5-MIN KMSN 282005Z 33007KT 280V350 10SM SCT055 26/13 A3003 760 46 2200 330/07 280V350 RMK AO2
14837KMSN MSN20110628141009606/28/11 14:10:31  5-MIN KMSN 282010Z 31009KT 10SM SCT055 26/13 A3004 760 46 2200 310/09 RMK AO2
14837KMSN MSN20110628141509606/28/11 14:15:31  5-MIN KMSN 282015Z VRB06KT 10SM SCT055 25/13 A3004 760 46 2100 VRB/06 RMK AO2
14837KMSN MSN20110628142009606/28/11 14:20:31  5-MIN KMSN 282020Z 28006KT 10SM SCT055 24/12 A3004 760 46 2100 280/06 RMK AO2
14837KMSN MSN20110628142509606/28/11 14:25:31  5-MIN KMSN 282025Z VRB05KT 10SM SCT055 25/13 A3004 760 46 2100 VRB/05 RMK AO2
14837KMSN MSN20110628143009606/28/11 14:30:31  5-MIN KMSN 282030Z 32008KT 10SM SCT055 25/13 A3004 760 46 2100 320/08 RMK AO2
14837KMSN MSN20110628143511806/28/11 14:35:31  5-MIN KMSN 282035Z 32007G15KT 300V360 10SM SCT055 26/12 A3004 760 43 2200 330/07G15 300V360 RMK AO2
14837KMSN MSN20110628144010206/28/11 14:40:31  5-MIN KMSN 282040Z 33008G15KT 10SM SCT055 26/12 A3003 760 43 2200 330/08G15 RMK AO2
14837KMSN MSN20110628144509606/28/11 14:45:31  5-MIN KMSN 282045Z 32009KT 10SM SCT055 26/13 A3003 760 44 2200 330/09 RMK AO2
14837KMSN MSN20110628145011906/28/11 14:50:31  5-MIN KMSN 282050Z 32009KT 10SM SCT055 25/13 A3003 760 46 2100 320/09 RMK AO2 SLP166 T02500128 51005
14837KMSN MSN20110628145509606/28/11 14:55:31  5-MIN KMSN 282055Z 32009KT 10SM SCT055 24/12 A3003 760 46 2100 320/09 RMK AO2
14837KMSN MSN20110628150009606/28/11 15:00:31  5-MIN KMSN 282100Z 32008KT 10SM SCT055 24/12 A3003 760 46 2100 320/08 RMK AO2
14837KMSN MSN20110628150510206/28/11 15:05:31  5-MIN KMSN 282105Z 33009G14KT 10SM BKN055 25/12 A3003 760 44 2100 330/09G14 RMK AO2
14837KMSN MSN20110628151010206/28/11 15:10:31  5-MIN KMSN 282110Z 31008G14KT 10SM BKN055 24/12 A3003 760 44 2100 320/08G14 RMK AO2
14837KMSN MSN20110628151509606/28/11 15:15:31  5-MIN KMSN 282115Z 30007KT 10SM BKN055 24/12 A3003 770 46 2100 300/07 RMK AO2
14837KMSN MSN20110628152010206/28/11 15:20:31  5-MIN KMSN 282120Z 31009G15KT 10SM SCT055 26/12 A3003 770 43 2200 310/09G15 RMK AO2
14837KMSN MSN20110628152510206/28/11 15:25:31  5-MIN KMSN 282125Z 32005G15KT 10SM SCT055 25/12 A3003 770 44 2100 320/05G15 RMK AO2
14837KMSN MSN20110628153009606/28/11 15:30:31  5-MIN KMSN 282130Z 32006KT 10SM SCT055 26/13 A3002 770 44 2200 330/06 RMK AO2
14837KMSN MSN20110628153509606/28/11 15:35:31  5-MIN KMSN 282135Z VRB05KT 10SM SCT055 26/13 A3002 770 46 2200 VRB/05 RMK AO2
14837KMSN MSN20110628154009606/28/11 15:40:31  5-MIN KMSN 282140Z VRB06KT 10SM SCT055 26/13 A3002 770 44 2200 VRB/06 RMK AO2
14837KMSN MSN20110628154509606/28/11 15:45:31  5-MIN KMSN 282145Z 30005KT 10SM SCT055 25/13 A3002 770 48 2100 300/05 RMK AO2
14837KMSN MSN20110628155011306/28/11 15:50:31  5-MIN KMSN 282150Z 33009KT 10SM SCT055 26/13 A3003 770 46 2200 340/09 RMK AO2 SLP164 T02560133
14837KMSN MSN20110628155509606/28/11 15:55:31  5-MIN KMSN 282155Z 33008KT 10SM SCT055 24/13 A3003 770 47 2100 330/08 RMK AO2
14837KMSN MSN20110628160009606/28/11 16:00:31  5-MIN KMSN 282200Z 31006KT 10SM FEW055 25/13 A3003 770 46 2100 310/06 RMK AO2
14837KMSN MSN20110628160509606/28/11 16:05:31  5-MIN KMSN 282205Z 31007KT 10SM SCT055 26/13 A3002 770 46 2200 310/07 RMK AO2
14837KMSN MSN20110628161009606/28/11 16:10:31  5-MIN KMSN 282210Z VRB06KT 10SM SCT055 26/13 A3002 770 46 2200 VRB/06 RMK AO2
14837KMSN MSN20110628161509606/28/11 16:15:31  5-MIN KMSN 282215Z 30009KT 10SM SCT055 26/13 A3002 770 46 2200 300/09 RMK AO2
14837KMSN MSN20110628162009606/28/11 16:20:31  5-MIN KMSN 282220Z 32007KT 10SM FEW055 25/13 A3003 770 48 2100 320/07 RMK AO2
14837KMSN MSN20110628162509606/28/11 16:25:31  5-MIN KMSN 282225Z VRB05KT 10SM SCT055 25/13 A3003 770 46 2100 VRB/05 RMK AO2
14837KMSN MSN20110628163009606/28/11 16:30:31  5-MIN KMSN 282230Z 30004KT 10SM SCT055 26/13 A3003 770 46 2200 310/04 RMK AO2
14837KMSN MSN20110628163509606/28/11 16:35:31  5-MIN KMSN 282235Z 29005KT 10SM BKN055 25/13 A3003 770 46 2100 290/05 RMK AO2
14837KMSN MSN20110628164011206/28/11 16:40:31  5-MIN KMSN 282240Z 28007KT 240V310 10SM BKN055 26/12 A3002 770 43 2200 280/07 240V310 RMK AO2
14837KMSN MSN20110628164510206/28/11 16:45:31  5-MIN KMSN 282245Z 33009G15KT 10SM BKN055 26/13 A3003 770 44 2200 330/09G15 RMK AO2
14837KMSN MSN20110628165011906/28/11 16:50:31  5-MIN KMSN 282250Z VRB04G15KT 10SM SCT055 26/13 A3003 770 46 2200 VRB/04G15 RMK AO2 SLP165 T02560133
14837KMSN MSN20110628165509606/28/11 16:55:31  5-MIN KMSN 282255Z 29007KT 10SM SCT055 26/13 A3003 770 44 2200 290/07 RMK AO2
14837KMSN MSN20110628170009606/28/11 17:00:31  5-MIN KMSN 282300Z 32006KT 10SM SCT055 24/13 A3003 770 49 2000 320/06 RMK AO2
14837KMSN MSN20110628170509606/28/11 17:05:31  5-MIN KMSN 282305Z 32004KT 10SM SCT055 24/13 A3003 760 49 2000 320/04 RMK AO2
14837KMSN MSN20110628171009606/28/11 17:10:31  5-MIN KMSN 282310Z VRB03KT 10SM SCT055 24/13 A3003 760 49 2100 VRB/03 RMK AO2
14837KMSN MSN20110628171509606/28/11 17:15:31  5-MIN KMSN 282315Z VRB04KT 10SM BKN055 25/13 A3003 770 48 2100 VRB/04 RMK AO2
14837KMSN MSN20110628172009606/28/11 17:20:31  5-MIN KMSN 282320Z 31004KT 10SM BKN055 26/14 A3003 760 48 2200 310/04 RMK AO2
14837KMSN MSN20110628172509606/28/11 17:25:31  5-MIN KMSN 282325Z 28005KT 10SM BKN055 25/13 A3003 770 46 2100 280/05 RMK AO2
14837KMSN MSN20110628173009606/28/11 17:30:31  5-MIN KMSN 282330Z 29006KT 10SM BKN055 24/13 A3003 760 49 2000 290/06 RMK AO2
14837KMSN MSN20110628173509606/28/11 17:35:31  5-MIN KMSN 282335Z 30004KT 10SM BKN055 24/13 A3003 760 47 2100 300/04 RMK AO2
14837KMSN MSN20110628174009606/28/11 17:40:31  5-MIN KMSN 282340Z 31004KT 10SM BKN055 24/13 A3003 760 49 2000 310/04 RMK AO2
14837KMSN MSN20110628174509606/28/11 17:45:31  5-MIN KMSN 282345Z 32006KT 10SM SCT055 24/13 A3003 760 49 2000 320/06 RMK AO2
14837KMSN MSN20110628175013106/28/11 17:50:31  5-MIN KMSN 282350Z 33004KT 10SM FEW055 24/13 A3003 760 49 2100 330/04 RMK AO2 SLP167 T02440133 10256 20239 50001
14837KMSN MSN20110628175509606/28/11 17:55:31  5-MIN KMSN 282355Z 33005KT 10SM SCT055 24/13 A3003 760 49 2100 330/05 RMK AO2
14837KMSN MSN20110628180009606/28/11 18:00:31  5-MIN KMSN 290000Z 34005KT 10SM SCT055 24/13 A3003 760 49 2100 340/05 RMK AO2
14837KMSN MSN20110628180509606/28/11 18:05:31  5-MIN KMSN 290005Z 31004KT 10SM SCT055 24/13 A3003 760 49 2100 310/04 RMK AO2
14837KMSN MSN20110628181009606/28/11 18:10:31  5-MIN KMSN 290010Z 30005KT 10SM SCT055 24/13 A3003 760 47 2100 300/05 RMK AO2
14837KMSN MSN20110628181509606/28/11 18:15:31  5-MIN KMSN 290015Z 30005KT 10SM FEW055 24/13 A3003 760 49 2000 300/05 RMK AO2
14837KMSN MSN20110628182009606/28/11 18:20:31  5-MIN KMSN 290020Z 31004KT 10SM FEW055 24/13 A3004 760 51 2000 310/04 RMK AO2
14837KMSN MSN20110628182509606/28/11 18:25:31  5-MIN KMSN 290025Z 32004KT 10SM FEW055 23/13 A3004 760 53 1900 320/04 RMK AO2
14837KMSN MSN20110628183009606/28/11 18:30:31  5-MIN KMSN 290030Z 00000KT 10SM FEW050 23/13 A3004 760 53 1900 000/00 RMK AO2
14837KMSN MSN20110628183509306/28/11 18:35:31  5-MIN KMSN 290035Z 00000KT 10SM CLR 24/13 A3004 760 51 2000 000/00 RMK AO2
14837KMSN MSN20110628184009606/28/11 18:40:31  5-MIN KMSN 290040Z 30003KT 10SM FEW055 24/13 A3004 760 51 2000 310/03 RMK AO2
14837KMSN MSN20110628184509606/28/11 18:45:31  5-MIN KMSN 290045Z 31003KT 10SM FEW055 24/14 A3004 760 53 2000 310/03 RMK AO2
14837KMSN MSN20110628185011306/28/11 18:50:31  5-MIN KMSN 290050Z 00000KT 10SM FEW055 23/13 A3003 760 53 1900 000/00 RMK AO2 SLP167 T02330133
14837KMSN MSN20110628185509606/28/11 18:55:31  5-MIN KMSN 290055Z 00000KT 10SM FEW055 23/13 A3003 760 53 1900 000/00 RMK AO2
14837KMSN MSN20110628190009606/28/11 19:00:31  5-MIN KMSN 290100Z 00000KT 10SM FEW055 23/14 A3003 760 55 1900 000/00 RMK AO2
14837KMSN MSN20110628190509606/28/11 19:05:31  5-MIN KMSN 290105Z 00000KT 10SM FEW055 23/14 A3003 760 57 1900 000/00 RMK AO2
14837KMSN MSN20110628191009306/28/11 19:10:31  5-MIN KMSN 290110Z 00000KT 10SM CLR 23/14 A3003 760 57 1900 000/00 RMK AO2
14837KMSN MSN20110628191509306/28/11 19:15:31  5-MIN KMSN 290115Z 00000KT 10SM CLR 22/14 A3003 760 59 1800 000/00 RMK AO2
14837KMSN MSN20110628192009306/28/11 19:20:31  5-MIN KMSN 290120Z 00000KT 10SM CLR 21/14 A3004 760 63 1700 000/00 RMK AO2
14837KMSN MSN20110628192509606/28/11 19:25:31  5-MIN KMSN 290125Z 00000KT 10SM FEW055 21/14 A3004 760 63 1700 000/00 RMK AO2
14837KMSN MSN20110628193009606/28/11 19:30:31  5-MIN KMSN 290130Z 00000KT 10SM FEW055 21/14 A3004 760 65 1600 000/00 RMK AO2
14837KMSN MSN20110628193509606/28/11 19:35:31  5-MIN KMSN 290135Z 00000KT 10SM FEW055 20/14 A3004 760 67 1600 000/00 RMK AO2
14837KMSN MSN20110628194009606/28/11 19:40:31  5-MIN KMSN 290140Z 00000KT 10SM FEW055 20/14 A3004 760 70 1600 000/00 RMK AO2
14837KMSN MSN20110628194509606/28/11 19:45:31  5-MIN KMSN 290145Z 00000KT 10SM FEW055 20/14 A3003 760 70 1600 000/00 RMK AO2
14837KMSN MSN20110628195011006/28/11 19:50:31  5-MIN KMSN 290150Z 00000KT 10SM CLR 19/14 A3004 760 72 1500 000/00 RMK AO2 SLP169 T01940144
14837KMSN MSN20110628195509306/28/11 19:55:31  5-MIN KMSN 290155Z 00000KT 10SM CLR 19/14 A3004 760 75 1400 000/00 RMK AO2
14837KMSN MSN20110628200009306/28/11 20:00:31  5-MIN KMSN 290200Z 00000KT 10SM CLR 19/14 A3004 760 75 1400 000/00 RMK AO2
14837KMSN MSN20110628200509306/28/11 20:05:31  5-MIN KMSN 290205Z 00000KT 10SM CLR 18/14 A3004 760 78 1400 000/00 RMK AO2
14837KMSN MSN20110628201009306/28/11 20:10:31  5-MIN KMSN 290210Z 00000KT 10SM CLR 18/14 A3004 750 78 1400 000/00 RMK AO2
14837KMSN MSN20110628201509306/28/11 20:15:31  5-MIN KMSN 290215Z 00000KT 10SM CLR 18/14 A3004 750 81 1300 000/00 RMK AO2
14837KMSN MSN20110628202009306/28/11 20:20:31  5-MIN KMSN 290220Z 00000KT 10SM CLR 18/14 A3004 760 81 1300 000/00 RMK AO2
14837KMSN MSN20110628202509306/28/11 20:25:31  5-MIN KMSN 290225Z 00000KT 10SM CLR 18/14 A3004 750 81 1300 000/00 RMK AO2
14837KMSN MSN20110628203009306/28/11 20:30:31  5-MIN KMSN 290230Z 00000KT 10SM CLR 18/14 A3004 750 81 1300 000/00 RMK AO2
14837KMSN MSN20110628203509306/28/11 20:35:31  5-MIN KMSN 290235Z 00000KT 10SM CLR 18/14 A3004 750 75 1400 000/00 RMK AO2
14837KMSN MSN20110628204009306/28/11 20:40:31  5-MIN KMSN 290240Z 00000KT 10SM CLR 18/14 A3004 750 78 1300 000/00 RMK AO2
14837KMSN MSN20110628204509306/28/11 20:45:31  5-MIN KMSN 290245Z 00000KT 10SM CLR 17/14 A3004 750 80 1200 000/00 RMK AO2
14837KMSN MSN20110628205011606/28/11 20:50:31  5-MIN KMSN 290250Z 00000KT 10SM CLR 18/14 A3005 750 78 1300 000/00 RMK AO2 SLP173 T01780139 53001
14837KMSN MSN20110628205509306/28/11 20:55:31  5-MIN KMSN 290255Z 00000KT 10SM CLR 17/14 A3005 750 80 1200 000/00 RMK AO2
14837KMSN MSN20110628210009306/28/11 21:00:31  5-MIN KMSN 290300Z 00000KT 10SM CLR 17/14 A3005 750 80 1200 000/00 RMK AO2
14837KMSN MSN20110628210509306/28/11 21:05:31  5-MIN KMSN 290305Z 00000KT 10SM CLR 17/14 A3005 750 80 1200 000/00 RMK AO2
14837KMSN MSN20110628211009306/28/11 21:10:31  5-MIN KMSN 290310Z 00000KT 10SM CLR 17/14 A3005 750 80 1200 000/00 RMK AO2
14837KMSN MSN20110628211509306/28/11 21:15:31  5-MIN KMSN 290315Z 00000KT 10SM CLR 17/14 A3005 750 83 1200 000/00 RMK AO2
14837KMSN MSN20110628212009306/28/11 21:20:31  5-MIN KMSN 290320Z 00000KT 10SM CLR 17/14 A3005 750 83 1200 000/00 RMK AO2
14837KMSN MSN20110628212509306/28/11 21:25:31  5-MIN KMSN 290325Z 00000KT 10SM CLR 16/14 A3005 750 86 1100 000/00 RMK AO2
14837KMSN MSN20110628213009306/28/11 21:30:31  5-MIN KMSN 290330Z 00000KT 10SM CLR 16/14 A3005 750 86 1100 000/00 RMK AO2
14837KMSN MSN20110628213509306/28/11 21:35:31  5-MIN KMSN 290335Z 00000KT 10SM CLR 16/14 A3005 750 86 1100 000/00 RMK AO2
14837KMSN MSN20110628214009306/28/11 21:40:31  5-MIN KMSN 290340Z 00000KT 10SM CLR 16/14 A3005 750 90 1100 000/00 RMK AO2
14837KMSN MSN20110628214509306/28/11 21:45:31  5-MIN KMSN 290345Z 00000KT 10SM CLR 16/14 A3005 750 90 1100 000/00 RMK AO2
14837KMSN MSN20110628215011006/28/11 21:50:31  5-MIN KMSN 290350Z 00000KT 10SM CLR 16/14 A3005 750 86 1100 000/00 RMK AO2 SLP173 T01610139
14837KMSN MSN20110628215509306/28/11 21:55:31  5-MIN KMSN 290355Z 00000KT 10SM CLR 15/14 A3005 750 93 1000 000/00 RMK AO2
14837KMSN MSN20110628220009306/28/11 22:00:31  5-MIN KMSN 290400Z 00000KT 10SM CLR 15/14 A3005 740 93 1000 000/00 RMK AO2
14837KMSN MSN20110628220509306/28/11 22:05:31  5-MIN KMSN 290405Z 00000KT 10SM CLR 16/14 A3005 740 90 1000 000/00 RMK AO2
14837KMSN MSN20110628221009306/28/11 22:10:31  5-MIN KMSN 290410Z 00000KT 10SM CLR 16/14 A3005 740 90 1000 000/00 RMK AO2
14837KMSN MSN20110628221509306/28/11 22:15:31  5-MIN KMSN 290415Z 00000KT 10SM CLR 16/14 A3005 740 90 1000 000/00 RMK AO2
14837KMSN MSN20110628222009306/28/11 22:20:31  5-MIN KMSN 290420Z 00000KT 10SM CLR 17/14 A3005 740 86 1200 000/00 RMK AO2
14837KMSN MSN20110628222509306/28/11 22:25:31  5-MIN KMSN 290425Z 00000KT 10SM CLR 16/14 A3005 740 86 1100 000/00 RMK AO2
14837KMSN MSN20110628223009306/28/11 22:30:31  5-MIN KMSN 290430Z 00000KT 10SM CLR 16/14 A3005 740 90 1000 000/00 RMK AO2
14837KMSN MSN20110628223509206/28/11 22:35:31  5-MIN KMSN 290435Z 00000KT 10SM CLR 14/14 A3005 740 96 900 000/00 RMK AO2
14837KMSN MSN20110628224009306/28/11 22:40:31  5-MIN KMSN 290440Z 00000KT 10SM CLR 16/14 A3005 740 90 1000 000/00 RMK AO2
14837KMSN MSN20110628224509306/28/11 22:45:31  5-MIN KMSN 290445Z 00000KT 10SM CLR 16/14 A3005 740 86 1100 000/00 RMK AO2
14837KMSN MSN20110628225011006/28/11 22:50:31  5-MIN KMSN 290450Z 00000KT 10SM CLR 16/14 A3005 740 90 1000 000/00 RMK AO2 SLP174 T01560139
14837KMSN MSN20110628225509306/28/11 22:55:31  5-MIN KMSN 290455Z 00000KT 10SM CLR 15/14 A3005 740 93 1000 000/00 RMK AO2
14837KMSN MSN20110628230009206/28/11 23:00:31  5-MIN KMSN 290500Z 00000KT 10SM CLR 14/14 A3005 740 96 900 000/00 RMK AO2
14837KMSN MSN20110628230509206/28/11 23:05:31  5-MIN KMSN 290505Z 00000KT 10SM CLR 14/14 A3005 740 96 900 000/00 RMK AO2
14837KMSN MSN20110628231009206/28/11 23:10:31  5-MIN KMSN 290510Z 00000KT 10SM CLR 14/14 A3005 740 96 900 000/00 RMK AO2
14837KMSN MSN20110628231509306/28/11 23:15:31  5-MIN KMSN 290515Z 00000KT 10SM CLR 15/14 A3006 740 93 1000 000/00 RMK AO2
14837KMSN MSN20110628232009206/28/11 23:20:31  5-MIN KMSN 290520Z 00000KT 10SM CLR 15/14 A3006 740 93 900 000/00 RMK AO2
14837KMSN MSN20110628232509206/28/11 23:25:31  5-MIN KMSN 290525Z 00000KT 10SM CLR 14/14 A3006 740 96 900 000/00 RMK AO2
14837KMSN MSN20110628233009206/28/11 23:30:31  5-MIN KMSN 290530Z 00000KT 10SM CLR 14/14 A3006 740 96 900 000/00 RMK AO2
14837KMSN MSN20110628233509206/28/11 23:35:31  5-MIN KMSN 290535Z 00000KT 10SM CLR 14/13 A3006 740 93 900 000/00 RMK AO2
14837KMSN MSN20110628234009206/28/11 23:40:31  5-MIN KMSN 290540Z 00000KT 10SM CLR 14/13 A3006 740 93 900 000/00 RMK AO2
14837KMSN MSN20110628234509206/28/11 23:45:31  5-MIN KMSN 290545Z 00000KT 10SM CLR 14/14 A3006 740 96 900 000/00 RMK AO2
14837KMSN MSN20110628235013706/28/11 23:50:31  5-MIN KMSN 290550Z 00000KT 10SM CLR 14/14 A3005 740 96 900 000/00 RMK AO2 SLP174 T01440139 10244 20144 402560144 53005
14837KMSN MSN20110628235509306/28/11 23:55:31  5-MIN KMSN 290555Z 00000KT 10SM CLR 14/14 A3005 740 100 800 000/00 RMK AO2
14837KMSN MSN20110629000009206/29/11 00:00:32  5-MIN KMSN 290600Z 00000KT 10SM CLR 14/14 A3005 740 96 900 000/00 RMK AO2
14837KMSN MSN20110629000509206/29/11 00:05:31  5-MIN KMSN 290605Z 00000KT 9SM CLR 14/14 A3005 740 100 800 000/00 RMK AO2
14837KMSN MSN20110629001009106/29/11 00:10:31  5-MIN KMSN 290610Z 00000KT 8SM CLR 14/13 A3005 740 93 900 000/00 RMK AO2
14837KMSN MSN20110629001509106/29/11 00:15:31  5-MIN KMSN 290615Z 00000KT 9SM CLR 14/13 A3005 740 93 900 000/00 RMK AO2
14837KMSN MSN20110629002009106/29/11 00:20:31  5-MIN KMSN 290620Z 00000KT 8SM CLR 14/13 A3005 740 96 800 000/00 RMK AO2
14837KMSN MSN20110629002509506/29/11 00:25:31  5-MIN KMSN 290625Z 00000KT 6SM BR CLR 13/13 A3005 740 100 800 000/00 RMK AO2
14837KMSN MSN20110629003009406/29/11 00:30:31  5-MIN KMSN 290630Z 00000KT 5SM BR CLR 14/13 A3005 740 96 800 000/00 RMK AO2
14837KMSN MSN20110629003509406/29/11 00:35:31  5-MIN KMSN 290635Z 00000KT 5SM BR CLR 14/13 A3005 740 93 900 000/00 RMK AO2
14837KMSN MSN20110629004009406/29/11 00:40:31  5-MIN KMSN 290640Z 00000KT 6SM BR CLR 14/14 A3005 740 96 900 000/00 RMK AO2
14837KMSN MSN20110629004509406/29/11 00:45:31  5-MIN KMSN 290645Z 00000KT 5SM BR CLR 14/13 A3006 740 96 800 000/00 RMK AO2
14837KMSN MSN20110629005011106/29/11 00:50:31  5-MIN KMSN 290650Z 00000KT 4SM BR CLR 14/13 A3006 740 96 800 000/00 RMK AO2 SLP175 T01390133
14837KMSN MSN20110629005511006/29/11 00:55:31  5-MIN KMSN 290655Z 00000KT 2 1/2SM BR CLR 13/13 A3006 740 96 800 000/00 RMK AO2 VIS 1 1/4V5
14837KMSN MSN20110629010009406/29/11 01:00:31  5-MIN KMSN 290700Z 00000KT 2SM BR CLR 14/13 A3005 740 96 800 000/00 RMK AO2
14837KMSN MSN20110629010510706/29/11 01:05:31  5-MIN KMSN 290705Z 00000KT 2 1/2SM BR CLR 13/13 A3005 740 100 800 000/00 RMK AO2 VIS 1V4
14837KMSN MSN20110629011009506/29/11 01:10:31  5-MIN KMSN 290710Z 00000KT 2SM BR CLR 13/13 A3005 740 100 800 000/00 RMK AO2
14837KMSN MSN20110629011509406/29/11 01:15:31  5-MIN KMSN 290715Z 00000KT 3SM BR CLR 14/13 A3005 750 96 800 000/00 RMK AO2
14837KMSN MSN20110629012009506/29/11 01:20:31  5-MIN KMSN 290720Z 00000KT 3SM BR CLR 13/13 A3005 740 100 800 000/00 RMK AO2
14837KMSN MSN20110629012509406/29/11 01:25:31  5-MIN KMSN 290725Z 00000KT 3SM BR CLR 13/13 A3005 740 96 800 000/00 RMK AO2
14837KMSN MSN20110629013009406/29/11 01:30:31  5-MIN KMSN 290730Z 00000KT 4SM BR CLR 13/13 A3005 740 96 800 000/00 RMK AO2
14837KMSN MSN20110629013509506/29/11 01:35:31  5-MIN KMSN 290735Z 00000KT 2SM BR CLR 13/13 A3005 740 100 700 000/00 RMK AO2
14837KMSN MSN20110629014009406/29/11 01:40:31  5-MIN KMSN 290740Z 00000KT 2SM BR CLR 13/13 A3005 740 96 800 000/00 RMK AO2
14837KMSN MSN20110629014509806/29/11 01:45:31  5-MIN KMSN 290745Z 00000KT 1 1/4SM BR CLR 13/13 A3005 740 96 800 000/00 RMK AO2
14837KMSN MSN20110629015009806/29/11 01:50:31  5-MIN KMSN 290750Z 00000KT 1 3/4SM BR CLR 13/13 A3005 740 96 800 000/00 RMK AO2
14837KMSN MSN20110629015509806/29/11 01:55:31  5-MIN KMSN 290755Z 00000KT 1 1/2SM BR CLR 13/12 A3005 740 96 700 000/00 RMK AO2
14837KMSN MSN20110629020009806/29/11 02:00:31  5-MIN KMSN 290800Z 00000KT 1 1/2SM BR CLR 13/12 A3005 740 96 700 000/00 RMK AO2
14837KMSN MSN20110629020509806/29/11 02:05:31  5-MIN KMSN 290805Z 00000KT 1 1/2SM BR CLR 13/13 A3005 740 96 800 000/00 RMK AO2
14837KMSN MSN20110629021009406/29/11 02:10:31  5-MIN KMSN 290810Z 00000KT 2SM BR CLR 13/12 A3005 740 96 700 000/00 RMK AO2
14837KMSN MSN20110629021509406/29/11 02:15:31  5-MIN KMSN 290815Z 00000KT 3SM BR CLR 13/12 A3005 740 93 700 000/00 RMK AO2
14837KMSN MSN20110629022009406/29/11 02:20:31  5-MIN KMSN 290820Z 00000KT 3SM BR CLR 13/12 A3005 740 93 700 000/00 RMK AO2
14837KMSN MSN20110629022509406/29/11 02:25:31  5-MIN KMSN 290825Z 00000KT 3SM BR CLR 13/12 A3005 740 93 700 000/00 RMK AO2
14837KMSN MSN20110629023009406/29/11 02:30:31  5-MIN KMSN 290830Z 00000KT 3SM BR CLR 12/12 A3006 740 96 600 000/00 RMK AO2
14837KMSN MSN20110629023509506/29/11 02:35:31  5-MIN KMSN 290835Z 00000KT 3SM BR CLR 12/12 A3006 740 100 600 000/00 RMK AO2
14837KMSN MSN20110629024009506/29/11 02:40:31  5-MIN KMSN 290840Z 00000KT 3SM BR CLR 12/12 A3006 730 100 600 000/00 RMK AO2
14837KMSN MSN20110629024509506/29/11 02:45:31  5-MIN KMSN 290845Z 00000KT 3SM BR CLR 12/12 A3006 730 100 600 000/00 RMK AO2
14837KMSN MSN20110629025011706/29/11 02:50:31  5-MIN KMSN 290850Z 00000KT 3SM BR CLR 13/12 A3006 730 96 700 000/00 RMK AO2 SLP178 T01280122 50002
14837KMSN MSN20110629025509406/29/11 02:55:31  5-MIN KMSN 290855Z 00000KT 5SM BR CLR 13/12 A3007 730 96 700 000/00 RMK AO2
14837KMSN MSN20110629030009406/29/11 03:00:31  5-MIN KMSN 290900Z 00000KT 6SM BR CLR 13/12 A3007 730 96 700 000/00 RMK AO2
14837KMSN MSN20110629030509406/29/11 03:05:31  5-MIN KMSN 290905Z 00000KT 6SM BR CLR 13/12 A3007 730 96 700 000/00 RMK AO2
14837KMSN MSN20110629031009406/29/11 03:10:31  5-MIN KMSN 290910Z 00000KT 3SM BR CLR 13/12 A3007 720 96 700 000/00 RMK AO2
14837KMSN MSN20110629031509406/29/11 03:15:31  5-MIN KMSN 290915Z 00000KT 3SM BR CLR 12/12 A3008 720 96 600 000/00 RMK AO2
14837KMSN MSN20110629032009506/29/11 03:20:31  5-MIN KMSN 290920Z 00000KT 3SM BR CLR 12/12 A3008 720 100 600 000/00 RMK AO2
14837KMSN MSN20110629032509506/29/11 03:25:31  5-MIN KMSN 290925Z 00000KT 3SM BR CLR 12/12 A3008 720 100 600 000/00 RMK AO2
14837KMSN MSN20110629033009506/29/11 03:30:31  5-MIN KMSN 290930Z 00000KT 3SM BR CLR 12/12 A3008 710 100 600 000/00 RMK AO2
14837KMSN MSN20110629033509406/29/11 03:35:31  5-MIN KMSN 290935Z 00000KT 3SM BR CLR 12/12 A3008 710 96 600 000/00 RMK AO2
14837KMSN MSN20110629034009406/29/11 03:40:31  5-MIN KMSN 290940Z 00000KT 3SM BR CLR 12/12 A3008 710 96 600 000/00 RMK AO2
14837KMSN MSN20110629034509906/29/11 03:45:31  5-MIN KMSN 290945Z 00000KT 1SM BCFG BR CLR 12/12 A3008 710 96 600 000/00 RMK AO2
14837KMSN MSN20110629035011706/29/11 03:50:31  5-MIN KMSN 290950Z 00000KT 1SM BCFG BR CLR 12/12 A3009 710 100 600 000/00 RMK AO2 SLP186 T01220122
14837KMSN MSN20110629035509906/29/11 03:55:31  5-MIN KMSN 290955Z 00000KT 1SM BCFG BR CLR 12/11 A3009 710 96 500 000/00 RMK AO2
14837KMSN MSN20110629040009906/29/11 04:00:31  5-MIN KMSN 291000Z 00000KT 1SM BCFG BR CLR 12/11 A3009 710 96 500 000/00 RMK AO2
14837KMSN MSN20110629040511306/29/11 04:05:31  5-MIN KMSN 291005Z 00000KT 1 1/4SM BCFG BR CLR 12/12 A3009 710 96 600 000/00 RMK AO2 VIS 1/2V5
14837KMSN MSN20110629041010306/29/11 04:10:31  5-MIN KMSN 291010Z 00000KT 1 3/4SM BCFG BR CLR 12/12 A3009 700 96 600 000/00 RMK AO2
14837KMSN MSN20110629041510006/29/11 04:15:31  5-MIN KMSN 291015Z 00000KT 10SM BCFG BR CLR 12/12 A3010 700 96 600 000/00 RMK AO2
14837KMSN MSN20110629042009906/29/11 04:20:31  5-MIN KMSN 291020Z 00000KT 3SM BCFG BR CLR 12/11 A3010 700 96 500 000/00 RMK AO2
14837KMSN MSN20110629042509906/29/11 04:25:31  5-MIN KMSN 291025Z 00000KT 3SM BCFG BR CLR 12/12 A3010 700 96 600 000/00 RMK AO2
14837KMSN MSN20110629043009906/29/11 04:30:31  5-MIN KMSN 291030Z 00000KT 3SM BCFG BR CLR 12/12 A3010 690 96 600 000/00 RMK AO2
14837KMSN MSN20110629043509906/29/11 04:35:31  5-MIN KMSN 291035Z 00000KT 3SM BCFG BR CLR 12/12 A3010 690 96 600 000/00 RMK AO2
14837KMSN MSN20110629044009906/29/11 04:40:31  5-MIN KMSN 291040Z 00000KT 3SM BCFG BR CLR 13/12 A3010 700 96 600 000/00 RMK AO2
14837KMSN MSN20110629044509406/29/11 04:45:31  5-MIN KMSN 291045Z 00000KT 4SM BR CLR 13/12 A3010 700 96 600 000/00 RMK AO2
14837KMSN MSN20110629045011606/29/11 04:50:31  5-MIN KMSN 291050Z 00000KT 4SM BCFG BR CLR 13/12 A3010 700 96 600 000/00 RMK AO2 SLP190 T01280122
14837KMSN MSN20110629045510006/29/11 04:55:31  5-MIN KMSN 291055Z 00000KT 10SM BCFG BR CLR 13/12 A3010 700 93 600 000/00 RMK AO2
14837KMSN MSN20110629050010006/29/11 05:00:31  5-MIN KMSN 291100Z 00000KT 10SM BCFG BR CLR 13/12 A3010 700 93 600 000/00 RMK AO2
14837KMSN MSN20110629050510006/29/11 05:05:31  5-MIN KMSN 291105Z 00000KT 10SM BCFG BR CLR 13/12 A3010 690 89 700 000/00 RMK AO2
14837KMSN MSN20110629051010006/29/11 05:10:31  5-MIN KMSN 291110Z 00000KT 10SM BCFG BR CLR 13/12 A3011 690 93 700 000/00 RMK AO2
14837KMSN MSN20110629051510206/29/11 05:15:31  5-MIN KMSN 291115Z 00000KT 10SM BCFG BR CLR 13/12 A3011 690 93 700 000/00 RMK AO2 $
14837KMSN MSN20110629052009406/29/11 05:20:31  5-MIN KMSN 291120Z 00000KT 10SM CLR 13/12 A3012 680 89 700 000/00 RMK AO2 $
14837KMSN MSN20110629052509406/29/11 05:25:31  5-MIN KMSN 291125Z 00000KT 10SM CLR 13/12 A3012 680 93 700 000/00 RMK AO2 $
14837KMSN MSN20110629053009406/29/11 05:30:31  5-MIN KMSN 291130Z 00000KT 10SM CLR 14/13 A3012 680 93 700 000/00 RMK AO2 $
14837KMSN MSN20110629053509406/29/11 05:35:31  5-MIN KMSN 291135Z 00000KT 10SM CLR 14/13 A3013 680 90 800 000/00 RMK AO2 $
14837KMSN MSN20110629054009406/29/11 05:40:31  5-MIN KMSN 291140Z 00000KT 10SM CLR 14/13 A3013 670 93 800 000/00 RMK AO2 $
14837KMSN MSN20110629054509406/29/11 05:45:31  5-MIN KMSN 291145Z 00000KT 10SM CLR 16/13 A3013 670 86 900 000/00 RMK AO2 $
14837KMSN MSN20110629055013006/29/11 05:50:31  5-MIN KMSN 291150Z 00000KT 10SM CLR 16/14 A3013 670 86 1000 000/00 RMK AO2 SLP200 T01610139 10161 20117 53003 $
14837KMSN MSN20110629055509506/29/11 05:55:31  5-MIN KMSN 291155Z 05004KT 10SM CLR 16/14 A3013 670 86 1000 050/04 RMK AO2 $
14837KMSN MSN20110629060009406/29/11 06:00:31  5-MIN KMSN 291200Z 00000KT 9SM CLR 16/14 A3013 670 90 1000 000/00 RMK AO2 $
14837KMSN MSN20110629060509406/29/11 06:05:31  5-MIN KMSN 291205Z 00000KT 8SM CLR 16/14 A3014 670 90 1000 000/00 RMK AO2 $
14837KMSN MSN20110629061009406/29/11 06:10:31  5-MIN KMSN 291210Z 00000KT 8SM CLR 17/15 A3014 660 90 1100 000/00 RMK AO2 $
14837KMSN MSN20110629061509406/29/11 06:15:31  5-MIN KMSN 291215Z 05003KT 8SM CLR 17/16 A3014 660 90 1100 050/03 RMK AO2 $
14837KMSN MSN20110629062009406/29/11 06:20:31  5-MIN KMSN 291220Z 00000KT 8SM CLR 18/16 A3014 660 87 1200 000/00 RMK AO2 $
14837KMSN MSN20110629062509206/29/11 06:25:31  5-MIN KMSN 291225Z 03003KT 8SM CLR 18/16 A3014 660 87 1200 040/03 RMK AO2
14837KMSN MSN20110629063009206/29/11 06:30:31  5-MIN KMSN 291230Z 05004KT 8SM CLR 18/16 A3014 660 87 1200 050/04 RMK AO2
14837KMSN MSN20110629063509206/29/11 06:35:31  5-MIN KMSN 291235Z 00000KT 8SM CLR 18/16 A3014 660 87 1200 000/00 RMK AO2
14837KMSN MSN20110629064009506/29/11 06:40:31  5-MIN KMSN 291240Z 00000KT 8SM FEW100 19/16 A3014 660 84 1300 000/00 RMK AO2
14837KMSN MSN20110629064509506/29/11 06:45:31  5-MIN KMSN 291245Z 08003KT 8SM FEW100 19/16 A3014 660 84 1300 080/03 RMK AO2
14837KMSN MSN20110629065011206/29/11 06:50:31  5-MIN KMSN 291250Z 07004KT 8SM FEW100 19/16 A3013 670 84 1300 070/04 RMK AO2 SLP201 T01890161
14837KMSN MSN20110629065509206/29/11 06:55:31  5-MIN KMSN 291255Z VRB03KT 9SM CLR 19/16 A3013 670 81 1400 VRB/03 RMK AO2
14837KMSN MSN20110629070009206/29/11 07:00:31  5-MIN KMSN 291300Z 11003KT 9SM CLR 19/16 A3013 670 78 1400 120/03 RMK AO2
14837KMSN MSN20110629070509306/29/11 07:05:31  5-MIN KMSN 291305Z 12004KT 10SM CLR 19/16 A3013 670 81 1400 120/04 RMK AO2
14837KMSN MSN20110629071009306/29/11 07:10:31  5-MIN KMSN 291310Z 11005KT 10SM CLR 20/16 A3013 670 75 1400 110/05 RMK AO2
14837KMSN MSN20110629071509306/29/11 07:15:31  5-MIN KMSN 291315Z 11005KT 10SM CLR 20/16 A3013 670 75 1400 110/05 RMK AO2
14837KMSN MSN20110629072009306/29/11 07:20:31  5-MIN KMSN 291320Z 12005KT 10SM CLR 20/16 A3014 660 75 1400 120/05 RMK AO2
14837KMSN MSN20110629072509306/29/11 07:25:31  5-MIN KMSN 291325Z 11005KT 10SM CLR 20/16 A3014 670 75 1400 110/05 RMK AO2
14837KMSN MSN20110629073009306/29/11 07:30:31  5-MIN KMSN 291330Z 12006KT 10SM CLR 21/16 A3014 670 73 1500 120/06 RMK AO2
14837KMSN MSN20110629073509306/29/11 07:35:31  5-MIN KMSN 291335Z 13004KT 10SM CLR 21/15 A3014 660 70 1500 130/04 RMK AO2
14837KMSN MSN20110629074009306/29/11 07:40:31  5-MIN KMSN 291340Z 12005KT 10SM CLR 21/16 A3014 660 73 1500 130/05 RMK AO2
14837KMSN MSN20110629074509306/29/11 07:45:31  5-MIN KMSN 291345Z 12003KT 10SM CLR 21/16 A3014 660 73 1500 120/03 RMK AO2
14837KMSN MSN20110629075011306/29/11 07:50:31  5-MIN KMSN 291350Z 15004KT 10SM FEW120 21/16 A3014 670 70 1600 150/04 RMK AO2 SLP202 T02110156
14837KMSN MSN20110629075509606/29/11 07:55:31  5-MIN KMSN 291355Z 12006KT 10SM FEW120 21/16 A3014 660 70 1600 120/06 RMK AO2
14837KMSN MSN20110629080009606/29/11 08:00:31  5-MIN KMSN 291400Z 13005KT 10SM FEW120 21/15 A3014 660 68 1600 130/05 RMK AO2
14837KMSN MSN20110629080509606/29/11 08:05:31  5-MIN KMSN 291405Z 14005KT 10SM FEW120 21/16 A3014 670 70 1600 140/05 RMK AO2
14837KMSN MSN20110629081009606/29/11 08:10:31  5-MIN KMSN 291410Z VRB03KT 10SM FEW120 22/16 A3013 670 68 1600 VRB/03 RMK AO2
14837KMSN MSN20110629081509606/29/11 08:15:31  5-MIN KMSN 291415Z 15006KT 10SM FEW120 22/16 A3013 670 68 1600 150/06 RMK AO2
14837KMSN MSN20110629082009606/29/11 08:20:31  5-MIN KMSN 291420Z VRB03KT 10SM FEW120 22/15 A3013 670 65 1600 VRB/03 RMK AO2
14837KMSN MSN20110629082509306/29/11 08:25:31  5-MIN KMSN 291425Z 15006KT 10SM CLR 22/16 A3013 670 65 1700 150/06 RMK AO2
14837KMSN MSN20110629083009306/29/11 08:30:31  5-MIN KMSN 291430Z 16004KT 10SM CLR 22/16 A3013 670 65 1700 160/04 RMK AO2
14837KMSN MSN20110629083509306/29/11 08:35:31  5-MIN KMSN 291435Z 17006KT 10SM CLR 22/16 A3013 670 65 1700 170/06 RMK AO2
14837KMSN MSN20110629084009306/29/11 08:40:31  5-MIN KMSN 291440Z 15004KT 10SM CLR 22/15 A3013 670 63 1700 160/04 RMK AO2
14837KMSN MSN20110629084509306/29/11 08:45:31  5-MIN KMSN 291445Z 13004KT 10SM CLR 22/16 A3013 670 65 1700 130/04 RMK AO2
14837KMSN MSN20110629085011606/29/11 08:50:31  5-MIN KMSN 291450Z 18003KT 10SM CLR 23/16 A3013 670 63 1800 180/03 RMK AO2 SLP199 T02280156 53015
14837KMSN MSN20110629085509306/29/11 08:55:31  5-MIN KMSN 291455Z 17005KT 10SM CLR 23/16 A3012 680 63 1800 170/05 RMK AO2
14837KMSN MSN20110629090009306/29/11 09:00:31  5-MIN KMSN 291500Z 15006KT 10SM CLR 23/16 A3012 680 63 1800 150/06 RMK AO2
14837KMSN MSN20110629090509306/29/11 09:05:31  5-MIN KMSN 291505Z 13006KT 10SM CLR 23/16 A3012 680 63 1800 130/06 RMK AO2
14837KMSN MSN20110629091009306/29/11 09:10:31  5-MIN KMSN 291510Z VRB04KT 10SM CLR 23/16 A3012 680 63 1800 VRB/04 RMK AO2
14837KMSN MSN20110629091509306/29/11 09:15:31  5-MIN KMSN 291515Z 17006KT 10SM CLR 23/15 A3012 680 59 1800 170/06 RMK AO2
14837KMSN MSN20110629092009306/29/11 09:20:31  5-MIN KMSN 291520Z 17006KT 10SM CLR 23/15 A3012 680 59 1800 170/06 RMK AO2
14837KMSN MSN20110629092509306/29/11 09:25:31  5-MIN KMSN 291525Z 18006KT 10SM CLR 23/15 A3012 680 59 1800 180/06 RMK AO2
14837KMSN MSN20110629093009306/29/11 09:30:31  5-MIN KMSN 291530Z 19004KT 10SM CLR 23/15 A3011 690 59 1900 190/04 RMK AO2
14837KMSN MSN20110629093509306/29/11 09:35:31  5-MIN KMSN 291535Z 18007KT 10SM CLR 23/15 A3011 690 59 1900 180/07 RMK AO2
14837KMSN MSN20110629094009306/29/11 09:40:31  5-MIN KMSN 291540Z VRB03KT 10SM CLR 23/15 A3012 680 59 1800 VRB/03 RMK AO2
14837KMSN MSN20110629094509306/29/11 09:45:31  5-MIN KMSN 291545Z 20006KT 10SM CLR 24/16 A3012 680 59 1900 200/06 RMK AO2
14837KMSN MSN20110629095011006/29/11 09:50:31  5-MIN KMSN 291550Z 16005KT 10SM CLR 23/15 A3011 690 59 1900 170/05 RMK AO2 SLP194 T02330150
14837KMSN MSN20110629095509606/29/11 09:55:31  5-MIN KMSN 291555Z VRB05KT 10SM FEW035 24/16 A3011 690 59 1900 VRB/05 RMK AO2
14837KMSN MSN20110629100009606/29/11 10:00:31  5-MIN KMSN 291600Z 15004KT 10SM FEW035 24/16 A3011 690 59 1900 160/04 RMK AO2
14837KMSN MSN20110629100509606/29/11 10:05:31  5-MIN KMSN 291605Z 16004KT 10SM FEW035 24/16 A3011 690 59 1900 160/04 RMK AO2
14837KMSN MSN20110629101009606/29/11 10:10:31  5-MIN KMSN 291610Z 16006KT 10SM FEW035 24/16 A3012 680 59 1900 160/06 RMK AO2
14837KMSN MSN20110629101509606/29/11 10:15:31  5-MIN KMSN 291615Z VRB04KT 10SM SCT035 24/15 A3011 690 55 2000 VRB/04 RMK AO2
14837KMSN MSN20110629102009606/29/11 10:20:31  5-MIN KMSN 291620Z 17006KT 10SM SCT035 24/16 A3011 690 57 2000 170/06 RMK AO2
14837KMSN MSN20110629102509606/29/11 10:25:31  5-MIN KMSN 291625Z VRB04KT 10SM SCT035 24/15 A3011 690 55 2000 VRB/04 RMK AO2
14837KMSN MSN20110629103009606/29/11 10:30:31  5-MIN KMSN 291630Z VRB04KT 10SM SCT035 25/14 A3011 690 51 2000 VRB/04 RMK AO2
14837KMSN MSN20110629103509606/29/11 10:35:31  5-MIN KMSN 291635Z 18007KT 10SM SCT035 24/14 A3011 690 53 2000 180/07 RMK AO2
14837KMSN MSN20110629104009606/29/11 10:40:31  5-MIN KMSN 291640Z 17006KT 10SM SCT035 25/14 A3011 690 51 2000 170/06 RMK AO2
14837KMSN MSN20110629104509606/29/11 10:45:31  5-MIN KMSN 291645Z 00000KT 10SM SCT035 25/14 A3011 690 49 2000 000/00 RMK AO2
14837KMSN MSN20110629105011306/29/11 10:50:31  5-MIN KMSN 291650Z 17005KT 10SM SCT035 26/15 A3011 690 51 2100 170/05 RMK AO2 SLP191 T02560150
14837KMSN MSN20110629105509606/29/11 10:55:31  5-MIN KMSN 291655Z 16005KT 10SM SCT042 25/15 A3011 690 53 2000 160/05 RMK AO2
14837KMSN MSN20110629110009606/29/11 11:00:31  5-MIN KMSN 291700Z 19006KT 10SM SCT042 25/15 A3011 690 53 2000 190/06 RMK AO2
14837KMSN MSN20110629110509606/29/11 11:05:31  5-MIN KMSN 291705Z 17004KT 10SM FEW042 25/15 A3010 690 53 2000 170/04 RMK AO2
14837KMSN MSN20110629111009606/29/11 11:10:31  5-MIN KMSN 291710Z 16008KT 10SM FEW042 26/16 A3010 700 53 2100 160/08 RMK AO2
14837KMSN MSN20110629111509306/29/11 11:15:31  5-MIN KMSN 291715Z 17005KT 10SM CLR 26/15 A3010 700 51 2100 170/05 RMK AO2
14837KMSN MSN20110629112009606/29/11 11:20:31  5-MIN KMSN 291720Z VRB04KT 10SM SCT043 26/15 A3010 700 51 2100 VRB/04 RMK AO2
14837KMSN MSN20110629112509606/29/11 11:25:31  5-MIN KMSN 291725Z 17007KT 10SM SCT043 26/15 A3010 700 51 2100 170/07 RMK AO2
14837KMSN MSN20110629113009606/29/11 11:30:31  5-MIN KMSN 291730Z 17003KT 10SM SCT043 25/14 A3009 700 51 2100 170/03 RMK AO2
14837KMSN MSN20110629113509606/29/11 11:35:31  5-MIN KMSN 291735Z VRB06KT 10SM SCT043 26/15 A3009 700 51 2100 VRB/06 RMK AO2
14837KMSN MSN20110629114009606/29/11 11:40:31  5-MIN KMSN 291740Z VRB04KT 10SM SCT043 26/15 A3009 710 51 2100 VRB/04 RMK AO2
14837KMSN MSN20110629114509606/29/11 11:45:31  5-MIN KMSN 291745Z 17009KT 10SM SCT043 26/16 A3009 710 51 2200 170/09 RMK AO2
14837KMSN MSN20110629115013106/29/11 11:50:31  5-MIN KMSN 291750Z 18007KT 10SM SCT043 26/14 A3009 710 49 2100 180/07 RMK AO2 SLP185 T02560144 10261 20161 58002
14837KMSN MSN20110629115509606/29/11 11:55:31  5-MIN KMSN 291755Z 25005KT 10SM FEW045 26/14 A3008 710 48 2100 250/05 RMK AO2
14837KMSN MSN20110629120009606/29/11 12:00:31  5-MIN KMSN 291800Z 17005KT 10SM FEW045 26/14 A3008 710 48 2200 180/05 RMK AO2
14837KMSN MSN20110629120509606/29/11 12:05:31  5-MIN KMSN 291805Z 21004KT 10SM FEW045 26/14 A3008 710 49 2100 210/04 RMK AO2
14837KMSN MSN20110629121009606/29/11 12:10:31  5-MIN KMSN 291810Z 19005KT 10SM FEW045 26/15 A3009 710 50 2200 190/05 RMK AO2
14837KMSN MSN20110629121509606/29/11 12:15:31  5-MIN KMSN 291815Z 16005KT 10SM FEW045 26/15 A3008 710 50 2200 170/05 RMK AO2
14837KMSN MSN20110629122009606/29/11 12:20:31  5-MIN KMSN 291820Z 17006KT 10SM FEW045 26/14 A3008 720 49 2100 180/06 RMK AO2
14837KMSN MSN20110629122509606/29/11 12:25:31  5-MIN KMSN 291825Z 17007KT 10SM FEW045 26/14 A3008 720 48 2200 170/07 RMK AO2
14837KMSN MSN20110629123009606/29/11 12:30:31  5-MIN KMSN 291830Z 16007KT 10SM FEW045 26/14 A3008 720 46 2200 160/07 RMK AO2
14837KMSN MSN20110629123509606/29/11 12:35:31  5-MIN KMSN 291835Z 18008KT 10SM FEW045 26/14 A3008 720 48 2200 190/08 RMK AO2
14837KMSN MSN20110629124010206/29/11 12:40:31  5-MIN KMSN 291840Z 18009G14KT 10SM FEW045 26/14 A3007 720 48 2200 180/09G14 RMK AO2
14837KMSN MSN20110629124510206/29/11 12:45:31  5-MIN KMSN 291845Z 15009G14KT 10SM FEW045 26/14 A3007 730 48 2200 150/09G14 RMK AO2
14837KMSN MSN20110629125011306/29/11 12:50:31  5-MIN KMSN 291850Z 14008KT 10SM FEW046 26/14 A3007 730 48 2200 140/08 RMK AO2 SLP180 T02610144
14837KMSN MSN20110629125509606/29/11 12:55:31  5-MIN KMSN 291855Z 16008KT 10SM FEW046 26/15 A3007 730 50 2200 170/08 RMK AO2
14837KMSN MSN20110629130009606/29/11 13:00:31  5-MIN KMSN 291900Z 17007KT 10SM FEW046 26/14 A3007 730 48 2200 170/07 RMK AO2
14837KMSN MSN20110629130509606/29/11 13:05:31  5-MIN KMSN 291905Z 20005KT 10SM FEW046 26/14 A3007 730 48 2200 200/05 RMK AO2
14837KMSN MSN20110629131009606/29/11 13:10:31  5-MIN KMSN 291910Z 17005KT 10SM FEW046 27/15 A3007 730 48 2300 170/05 RMK AO2
14837KMSN MSN20110629131509606/29/11 13:15:31  5-MIN KMSN 291915Z 00000KT 10SM FEW046 27/14 A3006 730 46 2300 000/00 RMK AO2
14837KMSN MSN20110629132009606/29/11 13:20:31  5-MIN KMSN 291920Z 16007KT 10SM FEW046 27/14 A3006 730 46 2300 170/07 RMK AO2
14837KMSN MSN20110629132509606/29/11 13:25:31  5-MIN KMSN 291925Z VRB03KT 10SM FEW046 27/15 A3006 730 48 2300 VRB/03 RMK AO2
14837KMSN MSN20110629133009606/29/11 13:30:31  5-MIN KMSN 291930Z VRB04KT 10SM FEW046 27/16 A3006 730 48 2300 VRB/04 RMK AO2
14837KMSN MSN20110629133509606/29/11 13:35:31  5-MIN KMSN 291935Z VRB03KT 10SM FEW046 27/14 A3006 730 46 2300 VRB/03 RMK AO2
14837KMSN MSN20110629134009606/29/11 13:40:31  5-MIN KMSN 291940Z 12004KT 10SM FEW046 27/15 A3006 740 48 2300 120/04 RMK AO2
14837KMSN MSN20110629134509606/29/11 13:45:31  5-MIN KMSN 291945Z 16006KT 10SM FEW046 27/14 A3006 740 46 2300 160/06 RMK AO2
14837KMSN MSN20110629135011306/29/11 13:50:31  5-MIN KMSN 291950Z 19007KT 10SM FEW046 27/14 A3006 740 46 2300 190/07 RMK AO2 SLP175 T02670144
14837KMSN MSN20110629135509606/29/11 13:55:31  5-MIN KMSN 291955Z VRB05KT 10SM FEW050 27/14 A3005 740 45 2300 VRB/05 RMK AO2
14837KMSN MSN20110629140011206/29/11 14:00:31  5-MIN KMSN 292000Z 14008KT 120V180 10SM FEW050 27/15 A3005 740 46 2400 140/08 120V180 RMK AO2
14837KMSN MSN20110629140510206/29/11 14:05:31  5-MIN KMSN 292005Z 17007G16KT 10SM FEW050 27/14 A3005 740 45 2400 180/07G16 RMK AO2
14837KMSN MSN20110629141010206/29/11 14:10:31  5-MIN KMSN 292010Z 18007G16KT 10SM FEW050 27/14 A3005 740 45 2400 180/07G16 RMK AO2
14837KMSN MSN20110629141509606/29/11 14:15:31  5-MIN KMSN 292015Z 19004KT 10SM FEW050 27/14 A3005 740 45 2300 190/04 RMK AO2
14837KMSN MSN20110629142009606/29/11 14:20:31  5-MIN KMSN 292020Z 18005KT 10SM FEW050 27/14 A3005 740 43 2400 180/05 RMK AO2
14837KMSN MSN20110629142509606/29/11 14:25:31  5-MIN KMSN 292025Z 18008KT 10SM FEW050 27/14 A3005 740 43 2400 180/08 RMK AO2
14837KMSN MSN20110629143009606/29/11 14:30:31  5-MIN KMSN 292030Z 15006KT 10SM FEW050 27/14 A3005 740 43 2400 150/06 RMK AO2
14837KMSN MSN20110629143509606/29/11 14:35:31  5-MIN KMSN 292035Z 14004KT 10SM FEW050 27/14 A3005 740 45 2400 140/04 RMK AO2
14837KMSN MSN20110629144009606/29/11 14:40:31  5-MIN KMSN 292040Z 19006KT 10SM FEW050 27/14 A3005 740 45 2400 190/06 RMK AO2
14837KMSN MSN20110629144509606/29/11 14:45:31  5-MIN KMSN 292045Z 19003KT 10SM FEW050 27/14 A3005 740 45 2400 190/03 RMK AO2
14837KMSN MSN20110629145011906/29/11 14:50:31  5-MIN KMSN 292050Z VRB04KT 10SM FEW050 28/15 A3005 750 45 2400 VRB/04 RMK AO2 SLP172 T02780150 58014
14837KMSN MSN20110629145509606/29/11 14:55:31  5-MIN KMSN 292055Z 17010KT 10SM FEW050 27/14 A3005 750 45 2400 170/10 RMK AO2
14837KMSN MSN20110629150009606/29/11 15:00:31  5-MIN KMSN 292100Z 15009KT 10SM FEW050 27/14 A3005 750 45 2400 150/09 RMK AO2
14837KMSN MSN20110629150509606/29/11 15:05:31  5-MIN KMSN 292105Z 17008KT 10SM FEW050 27/14 A3005 750 45 2400 170/08 RMK AO2
14837KMSN MSN20110629151009606/29/11 15:10:31  5-MIN KMSN 292110Z 20004KT 10SM FEW050 27/14 A3005 750 43 2400 200/04 RMK AO2
14837KMSN MSN20110629151509606/29/11 15:15:31  5-MIN KMSN 292115Z 19004KT 10SM FEW050 27/14 A3004 750 43 2400 190/04 RMK AO2
14837KMSN MSN20110629152009606/29/11 15:20:31  5-MIN KMSN 292120Z 17008KT 10SM FEW050 27/14 A3004 750 43 2400 170/08 RMK AO2
14837KMSN MSN20110629152509606/29/11 15:25:31  5-MIN KMSN 292125Z 18009KT 10SM FEW050 27/14 A3004 750 45 2400 180/09 RMK AO2
14837KMSN MSN20110629153009606/29/11 15:30:31  5-MIN KMSN 292130Z 16006KT 10SM FEW050 27/14 A3004 750 45 2400 160/06 RMK AO2
14837KMSN MSN20110629153509606/29/11 15:35:31  5-MIN KMSN 292135Z VRB05KT 10SM FEW050 28/15 A3004 750 45 2400 VRB/05 RMK AO2
14837KMSN MSN20110629154009606/29/11 15:40:31  5-MIN KMSN 292140Z 18008KT 10SM FEW050 28/15 A3004 750 45 2400 180/08 RMK AO2
14837KMSN MSN20110629154509606/29/11 15:45:31  5-MIN KMSN 292145Z 16007KT 10SM FEW050 27/14 A3004 760 45 2400 170/07 RMK AO2
14837KMSN MSN20110629155011306/29/11 15:50:31  5-MIN KMSN 292150Z 18008KT 10SM FEW050 27/15 A3004 760 46 2400 190/08 RMK AO2 SLP168 T02720150
14837KMSN MSN20110629155509606/29/11 15:55:31  5-MIN KMSN 292155Z 15006KT 10SM FEW055 27/14 A3004 760 45 2400 160/06 RMK AO2
14837KMSN MSN20110629160009606/29/11 16:00:31  5-MIN KMSN 292200Z VRB05KT 10SM FEW055 27/15 A3003 760 46 2400 VRB/05 RMK AO2
14837KMSN MSN20110629160509606/29/11 16:05:31  5-MIN KMSN 292205Z 18006KT 10SM FEW055 27/15 A3003 760 46 2400 180/06 RMK AO2
14837KMSN MSN20110629161009606/29/11 16:10:31  5-MIN KMSN 292210Z 17008KT 10SM FEW055 28/14 A3003 760 43 2400 170/08 RMK AO2
14837KMSN MSN20110629161509306/29/11 16:15:31  5-MIN KMSN 292215Z 18007KT 10SM CLR 27/14 A3003 760 43 2400 190/07 RMK AO2
14837KMSN MSN20110629162009306/29/11 16:20:31  5-MIN KMSN 292220Z 17009KT 10SM CLR 27/14 A3003 770 45 2400 170/09 RMK AO2
14837KMSN MSN20110629162509606/29/11 16:25:31  5-MIN KMSN 292225Z 17007KT 10SM FEW055 27/14 A3003 770 45 2400 170/07 RMK AO2
14837KMSN MSN20110629163009606/29/11 16:30:31  5-MIN KMSN 292230Z 17008KT 10SM SCT055 27/14 A3002 770 45 2400 180/08 RMK AO2
14837KMSN MSN20110629163509606/29/11 16:35:31  5-MIN KMSN 292235Z VRB04KT 10SM FEW055 27/14 A3002 770 45 2400 VRB/04 RMK AO2
14837KMSN MSN20110629164009606/29/11 16:40:31  5-MIN KMSN 292240Z 18009KT 10SM FEW055 27/14 A3002 770 45 2400 190/09 RMK AO2
14837KMSN MSN20110629164509606/29/11 16:45:31  5-MIN KMSN 292245Z 18006KT 10SM FEW055 27/14 A3002 770 43 2400 190/06 RMK AO2
14837KMSN MSN20110629165011306/29/11 16:50:31  5-MIN KMSN 292250Z 19006KT 10SM FEW055 27/14 A3002 770 45 2400 200/06 RMK AO2 SLP162 T02720144
14837KMSN MSN20110629165509606/29/11 16:55:31  5-MIN KMSN 292255Z 18010KT 10SM FEW055 28/14 A3002 780 43 2500 180/10 RMK AO2
14837KMSN MSN20110629170009606/29/11 17:00:31  5-MIN KMSN 292300Z 19008KT 10SM FEW060 27/14 A3002 780 43 2400 190/08 RMK AO2
14837KMSN MSN20110629170509606/29/11 17:05:31  5-MIN KMSN 292305Z 20006KT 10SM FEW060 27/14 A3002 780 43 2400 200/06 RMK AO2
14837KMSN MSN20110629171009306/29/11 17:10:31  5-MIN KMSN 292310Z 16008KT 10SM CLR 27/14 A3001 780 45 2400 160/08 RMK AO2
14837KMSN MSN20110629171509306/29/11 17:15:31  5-MIN KMSN 292315Z 18008KT 10SM CLR 27/14 A3001 780 45 2400 180/08 RMK AO2
14837KMSN MSN20110629172009606/29/11 17:20:31  5-MIN KMSN 292320Z 18007KT 10SM FEW060 27/15 A3001 780 46 2400 180/07 RMK AO2
14837KMSN MSN20110629172509606/29/11 17:25:31  5-MIN KMSN 292325Z 18007KT 10SM FEW060 27/14 A3001 780 45 2400 180/07 RMK AO2
14837KMSN MSN20110629173009606/29/11 17:30:31  5-MIN KMSN 292330Z 17009KT 10SM FEW060 27/15 A3001 780 46 2400 170/09 RMK AO2
14837KMSN MSN20110629173509606/29/11 17:35:31  5-MIN KMSN 292335Z 18008KT 10SM FEW060 27/14 A3001 780 45 2400 180/08 RMK AO2
14837KMSN MSN20110629174009606/29/11 17:40:31  5-MIN KMSN 292340Z 18007KT 10SM FEW060 27/14 A3001 780 45 2400 180/07 RMK AO2
14837KMSN MSN20110629174509606/29/11 17:45:31  5-MIN KMSN 292345Z 17008KT 10SM FEW060 27/14 A3001 780 45 2400 180/08 RMK AO2
14837KMSN MSN20110629175013106/29/11 17:50:31  5-MIN KMSN 292350Z 17009KT 10SM FEW060 27/15 A3001 780 46 2400 170/09 RMK AO2 SLP159 T02720150 10278 20256 56012
14837KMSN MSN20110629175509306/29/11 17:55:31  5-MIN KMSN 292355Z 19009KT 10SM CLR 27/14 A3001 780 45 2400 190/09 RMK AO2
14837KMSN MSN20110629180009606/29/11 18:00:31  5-MIN KMSN 300000Z 18008KT 10SM FEW060 27/14 A3001 780 45 2400 180/08 RMK AO2
14837KMSN MSN20110629180509606/29/11 18:05:31  5-MIN KMSN 300005Z 19007KT 10SM FEW060 27/14 A3001 780 46 2300 190/07 RMK AO2
14837KMSN MSN20110629181009606/29/11 18:10:31  5-MIN KMSN 300010Z 19008KT 10SM FEW060 27/14 A3001 780 46 2300 200/08 RMK AO2
14837KMSN MSN20110629181509606/29/11 18:15:31  5-MIN KMSN 300015Z 18009KT 10SM FEW060 27/14 A3001 790 45 2400 180/09 RMK AO2
14837KMSN MSN20110629182009606/29/11 18:20:31  5-MIN KMSN 300020Z 18008KT 10SM FEW100 27/14 A3000 790 46 2400 190/08 RMK AO2
14837KMSN MSN20110629182509606/29/11 18:25:31  5-MIN KMSN 300025Z 18008KT 10SM FEW100 27/15 A3000 790 48 2400 190/08 RMK AO2
14837KMSN MSN20110629183009606/29/11 18:30:31  5-MIN KMSN 300030Z 19009KT 10SM FEW100 27/14 A3000 790 46 2400 190/09 RMK AO2
14837KMSN MSN20110629183509606/29/11 18:35:31  5-MIN KMSN 300035Z 19007KT 10SM FEW100 27/14 A3000 790 46 2400 190/07 RMK AO2
14837KMSN MSN20110629184009606/29/11 18:40:31  5-MIN KMSN 300040Z 18008KT 10SM FEW100 27/15 A3000 790 48 2400 190/08 RMK AO2
14837KMSN MSN20110629184509606/29/11 18:45:31  5-MIN KMSN 300045Z 18007KT 10SM FEW100 27/15 A3000 790 48 2400 190/07 RMK AO2
14837KMSN MSN20110629185011306/29/11 18:50:31  5-MIN KMSN 300050Z 19007KT 10SM FEW100 26/15 A3000 790 50 2300 190/07 RMK AO2 SLP154 T02610150
14837KMSN MSN20110629185509606/29/11 18:55:31  5-MIN KMSN 300055Z 18005KT 10SM FEW100 26/15 A3000 790 50 2300 190/05 RMK AO2
14837KMSN MSN20110629190009606/29/11 19:00:31  5-MIN KMSN 300100Z 19007KT 10SM FEW100 26/16 A3000 790 51 2300 190/07 RMK AO2
14837KMSN MSN20110629190509606/29/11 19:05:31  5-MIN KMSN 300105Z 18008KT 10SM FEW100 26/15 A3000 790 50 2300 180/08 RMK AO2
14837KMSN MSN20110629191009606/29/11 19:10:31  5-MIN KMSN 300110Z 18007KT 10SM FEW100 26/16 A3000 790 53 2200 180/07 RMK AO2
14837KMSN MSN20110629191509606/29/11 19:15:31  5-MIN KMSN 300115Z 17007KT 10SM FEW100 26/16 A3000 790 53 2200 180/07 RMK AO2
14837KMSN MSN20110629192009306/29/11 19:20:31  5-MIN KMSN 300120Z 17006KT 10SM CLR 26/16 A3000 790 53 2200 180/06 RMK AO2
14837KMSN MSN20110629192509306/29/11 19:25:31  5-MIN KMSN 300125Z 18006KT 10SM CLR 26/16 A2999 800 53 2200 180/06 RMK AO2
14837KMSN MSN20110629193009306/29/11 19:30:31  5-MIN KMSN 300130Z 17006KT 10SM CLR 25/16 A2999 800 55 2200 170/06 RMK AO2
14837KMSN MSN20110629193509306/29/11 19:35:31  5-MIN KMSN 300135Z 18006KT 10SM CLR 25/16 A2999 800 55 2200 180/06 RMK AO2
14837KMSN MSN20110629194009306/29/11 19:40:31  5-MIN KMSN 300140Z 18005KT 10SM CLR 25/16 A2999 800 55 2200 190/05 RMK AO2
14837KMSN MSN20110629194509306/29/11 19:45:31  5-MIN KMSN 300145Z 18005KT 10SM CLR 24/16 A2999 800 57 2100 190/05 RMK AO2
14837KMSN MSN20110629195011006/29/11 19:50:31  5-MIN KMSN 300150Z 18005KT 10SM CLR 25/16 A2999 800 55 2200 180/05 RMK AO2 SLP150 T02500156
14837KMSN MSN20110629195509306/29/11 19:55:31  5-MIN KMSN 300155Z 18005KT 10SM CLR 24/16 A2999 800 57 2100 180/05 RMK AO2
14837KMSN MSN20110629200009306/29/11 20:00:31  5-MIN KMSN 300200Z 18005KT 10SM CLR 24/16 A2999 800 57 2100 180/05 RMK AO2
14837KMSN MSN20110629200509306/29/11 20:05:31  5-MIN KMSN 300205Z 19005KT 10SM CLR 24/16 A2999 800 57 2100 190/05 RMK AO2
14837KMSN MSN20110629201009306/29/11 20:10:31  5-MIN KMSN 300210Z 19005KT 10SM CLR 24/16 A2999 800 57 2100 190/05 RMK AO2
14837KMSN MSN20110629201509306/29/11 20:15:31  5-MIN KMSN 300215Z 18004KT 10SM CLR 24/16 A3000 790 57 2100 190/04 RMK AO2
14837KMSN MSN20110629202009306/29/11 20:20:31  5-MIN KMSN 300220Z 16004KT 10SM CLR 24/16 A3000 790 57 2100 160/04 RMK AO2
14837KMSN MSN20110629202509306/29/11 20:25:31  5-MIN KMSN 300225Z 12009KT 10SM CLR 22/16 A3000 790 68 1900 120/09 RMK AO2
14837KMSN MSN20110629203009306/29/11 20:30:31  5-MIN KMSN 300230Z 12009KT 10SM CLR 22/17 A3000 790 73 1800 120/09 RMK AO2
14837KMSN MSN20110629203509306/29/11 20:35:31  5-MIN KMSN 300235Z 13010KT 10SM CLR 22/17 A3000 790 70 1900 130/10 RMK AO2
14837KMSN MSN20110629204009306/29/11 20:40:31  5-MIN KMSN 300240Z 14010KT 10SM CLR 22/17 A3000 790 70 1800 140/10 RMK AO2
14837KMSN MSN20110629204509306/29/11 20:45:31  5-MIN KMSN 300245Z 14011KT 10SM CLR 22/16 A3000 790 68 1800 140/11 RMK AO2
14837KMSN MSN20110629205011606/29/11 20:50:31  5-MIN KMSN 300250Z 14008KT 10SM CLR 22/16 A3000 790 68 1800 140/08 RMK AO2 SLP155 T02220161 56013
14837KMSN MSN20110629205509306/29/11 20:55:31  5-MIN KMSN 300255Z 14006KT 10SM CLR 22/16 A3000 790 68 1800 140/06 RMK AO2
14837KMSN MSN20110629210009306/29/11 21:00:31  5-MIN KMSN 300300Z 15008KT 10SM CLR 22/16 A3001 780 70 1800 150/08 RMK AO2
14837KMSN MSN20110629210509306/29/11 21:05:31  5-MIN KMSN 300305Z 14007KT 10SM CLR 22/16 A3001 780 70 1800 140/07 RMK AO2
14837KMSN MSN20110629211009306/29/11 21:10:31  5-MIN KMSN 300310Z 13006KT 10SM CLR 22/16 A3001 780 70 1800 140/06 RMK AO2
14837KMSN MSN20110629211509306/29/11 21:15:31  5-MIN KMSN 300315Z 14007KT 10SM CLR 22/16 A3001 780 70 1800 150/07 RMK AO2
14837KMSN MSN20110629212009306/29/11 21:20:31  5-MIN KMSN 300320Z 14006KT 10SM CLR 21/16 A3001 780 73 1700 140/06 RMK AO2
14837KMSN MSN20110629212509306/29/11 21:25:31  5-MIN KMSN 300325Z 15006KT 10SM CLR 21/16 A3002 780 70 1700 150/06 RMK AO2
14837KMSN MSN20110629213009306/29/11 21:30:31  5-MIN KMSN 300330Z 15007KT 10SM CLR 22/16 A3002 780 65 1800 150/07 RMK AO2
14837KMSN MSN20110629213509306/29/11 21:35:31  5-MIN KMSN 300335Z 15009KT 10SM CLR 21/16 A3002 780 70 1700 160/09 RMK AO2
14837KMSN MSN20110629214009306/29/11 21:40:31  5-MIN KMSN 300340Z 16009KT 10SM CLR 21/16 A3002 780 70 1700 160/09 RMK AO2
14837KMSN MSN20110629214509306/29/11 21:45:31  5-MIN KMSN 300345Z 16007KT 10SM CLR 21/16 A3001 780 70 1700 160/07 RMK AO2
14837KMSN MSN20110629215011006/29/11 21:50:31  5-MIN KMSN 300350Z 15007KT 10SM CLR 21/15 A3001 780 68 1700 150/07 RMK AO2 SLP159 T02110150
14837KMSN MSN20110629215509306/29/11 21:55:31  5-MIN KMSN 300355Z 15007KT 10SM CLR 21/15 A3002 780 68 1700 150/07 RMK AO2
14837KMSN MSN20110629220009306/29/11 22:00:31  5-MIN KMSN 300400Z 14008KT 10SM CLR 21/15 A3002 770 70 1600 150/08 RMK AO2
14837KMSN MSN20110629220509306/29/11 22:05:31  5-MIN KMSN 300405Z 15009KT 10SM CLR 21/15 A3002 770 70 1600 160/09 RMK AO2
14837KMSN MSN20110629221009306/29/11 22:10:31  5-MIN KMSN 300410Z 15009KT 10SM CLR 21/15 A3002 770 70 1600 150/09 RMK AO2
14837KMSN MSN20110629221509306/29/11 22:15:31  5-MIN KMSN 300415Z 15007KT 10SM CLR 21/15 A3002 770 70 1600 160/07 RMK AO2
14837KMSN MSN20110629222009306/29/11 22:20:31  5-MIN KMSN 300420Z 16007KT 10SM CLR 21/15 A3002 770 70 1600 160/07 RMK AO2
14837KMSN MSN20110629222509306/29/11 22:25:31  5-MIN KMSN 300425Z 16008KT 10SM CLR 21/15 A3002 770 70 1600 160/08 RMK AO2
14837KMSN MSN20110629223009306/29/11 22:30:31  5-MIN KMSN 300430Z 16008KT 10SM CLR 21/14 A3002 770 67 1600 160/08 RMK AO2
14837KMSN MSN20110629223509306/29/11 22:35:31  5-MIN KMSN 300435Z 16007KT 10SM CLR 20/14 A3002 770 70 1600 160/07 RMK AO2
14837KMSN MSN20110629224009306/29/11 22:40:31  5-MIN KMSN 300440Z 16007KT 10SM CLR 20/14 A3002 770 70 1600 160/07 RMK AO2
14837KMSN MSN20110629224509306/29/11 22:45:31  5-MIN KMSN 300445Z 16008KT 10SM CLR 20/14 A3002 770 70 1600 160/08 RMK AO2
14837KMSN MSN20110629225011006/29/11 22:50:31  5-MIN KMSN 300450Z 16007KT 10SM CLR 20/14 A3002 770 70 1600 160/07 RMK AO2 SLP162 T02000144
14837KMSN MSN20110629225509306/29/11 22:55:31  5-MIN KMSN 300455Z 17007KT 10SM CLR 20/14 A3003 770 70 1600 170/07 RMK AO2
14837KMSN MSN20110629230009306/29/11 23:00:31  5-MIN KMSN 300500Z 17007KT 10SM CLR 20/14 A3003 770 70 1600 170/07 RMK AO2
14837KMSN MSN20110629230509306/29/11 23:05:31  5-MIN KMSN 300505Z 16007KT 10SM CLR 20/14 A3003 770 70 1600 170/07 RMK AO2
14837KMSN MSN20110629231009306/29/11 23:10:31  5-MIN KMSN 300510Z 16007KT 10SM CLR 19/14 A3002 770 70 1500 160/07 RMK AO2
14837KMSN MSN20110629231509306/29/11 23:15:31  5-MIN KMSN 300515Z 17005KT 10SM CLR 19/14 A3002 770 70 1500 170/05 RMK AO2
14837KMSN MSN20110629232009306/29/11 23:20:31  5-MIN KMSN 300520Z 17006KT 10SM CLR 19/14 A3003 760 70 1500 170/06 RMK AO2
14837KMSN MSN20110629232509306/29/11 23:25:31  5-MIN KMSN 300525Z 15006KT 10SM CLR 19/14 A3003 760 70 1500 150/06 RMK AO2
14837KMSN MSN20110629233009306/29/11 23:30:31  5-MIN KMSN 300530Z 16007KT 10SM CLR 19/14 A3003 760 70 1500 160/07 RMK AO2
14837KMSN MSN20110629233509306/29/11 23:35:31  5-MIN KMSN 300535Z 16006KT 10SM CLR 19/14 A3003 760 70 1500 160/06 RMK AO2
14837KMSN MSN20110629234009306/29/11 23:40:31  5-MIN KMSN 300540Z 15006KT 10SM CLR 19/14 A3003 760 70 1500 150/06 RMK AO2
14837KMSN MSN20110629234509306/29/11 23:45:31  5-MIN KMSN 300545Z 15006KT 10SM CLR 19/14 A3003 760 72 1400 150/06 RMK AO2
14837KMSN MSN20110629235013806/29/11 23:50:31  5-MIN KMSN 300550Z 15006KT 10SM CLR 19/13 A3003 760 70 1400 150/06 RMK AO2 SLP165 T01890133 10272 20189 402780117 55002
14837KMSN MSN20110629235509306/29/11 23:55:31  5-MIN KMSN 300555Z 16005KT 10SM CLR 19/13 A3003 760 70 1400 160/05 RMK AO2
14837KMSN MSN20110630000009306/30/11 00:00:32  5-MIN KMSN 300600Z 15005KT 10SM CLR 19/13 A3003 760 70 1400 150/05 RMK AO2
14837KMSN MSN20110630000509306/30/11 00:05:31  5-MIN KMSN 300605Z 16005KT 10SM CLR 19/13 A3003 760 70 1400 160/05 RMK AO2
14837KMSN MSN20110630001009306/30/11 00:10:31  5-MIN KMSN 300610Z 16005KT 10SM CLR 19/13 A3003 760 70 1400 160/05 RMK AO2
14837KMSN MSN20110630001509306/30/11 00:15:31  5-MIN KMSN 300615Z 16006KT 10SM CLR 19/13 A3003 760 70 1400 160/06 RMK AO2
14837KMSN MSN20110630002009306/30/11 00:20:31  5-MIN KMSN 300620Z 15004KT 10SM CLR 18/13 A3004 760 72 1400 160/04 RMK AO2
14837KMSN MSN20110630002509306/30/11 00:25:31  5-MIN KMSN 300625Z 15004KT 10SM CLR 18/13 A3004 760 72 1400 150/04 RMK AO2
14837KMSN MSN20110630003009306/30/11 00:30:31  5-MIN KMSN 300630Z 15004KT 10SM CLR 18/13 A3004 760 72 1400 150/04 RMK AO2
14837KMSN MSN20110630003509306/30/11 00:35:31  5-MIN KMSN 300635Z 15005KT 10SM CLR 18/13 A3004 760 72 1400 150/05 RMK AO2
14837KMSN MSN20110630004009306/30/11 00:40:31  5-MIN KMSN 300640Z 15006KT 10SM CLR 18/13 A3004 760 72 1400 160/06 RMK AO2
14837KMSN MSN20110630004509306/30/11 00:45:31  5-MIN KMSN 300645Z 15005KT 10SM CLR 18/13 A3003 760 72 1400 160/05 RMK AO2
14837KMSN MSN20110630005011006/30/11 00:50:31  5-MIN KMSN 300650Z 16006KT 10SM CLR 18/13 A3003 760 72 1400 160/06 RMK AO2 SLP166 T01830133
14837KMSN MSN20110630005509306/30/11 00:55:31  5-MIN KMSN 300655Z 15004KT 10SM CLR 18/13 A3003 760 72 1400 150/04 RMK AO2
14837KMSN MSN20110630010009306/30/11 01:00:31  5-MIN KMSN 300700Z 15005KT 10SM CLR 18/13 A3003 760 75 1300 150/05 RMK AO2
14837KMSN MSN20110630010509306/30/11 01:05:31  5-MIN KMSN 300705Z 15005KT 10SM CLR 18/13 A3003 760 75 1300 160/05 RMK AO2
14837KMSN MSN20110630011009306/30/11 01:10:31  5-MIN KMSN 300710Z 14005KT 10SM CLR 18/13 A3003 760 75 1300 150/05 RMK AO2
14837KMSN MSN20110630011509306/30/11 01:15:31  5-MIN KMSN 300715Z 14006KT 10SM CLR 18/13 A3003 770 75 1300 150/06 RMK AO2
14837KMSN MSN20110630012009306/30/11 01:20:31  5-MIN KMSN 300720Z 15005KT 10SM CLR 18/13 A3003 770 75 1300 150/05 RMK AO2
14837KMSN MSN20110630012509306/30/11 01:25:31  5-MIN KMSN 300725Z 16005KT 10SM CLR 18/13 A3003 770 75 1300 160/05 RMK AO2
14837KMSN MSN20110630013009306/30/11 01:30:31  5-MIN KMSN 300730Z 17005KT 10SM CLR 18/13 A3003 770 72 1400 170/05 RMK AO2
14837KMSN MSN20110630013509306/30/11 01:35:31  5-MIN KMSN 300735Z 18005KT 10SM CLR 18/13 A3002 770 72 1400 180/05 RMK AO2
14837KMSN MSN20110630014009306/30/11 01:40:31  5-MIN KMSN 300740Z 18005KT 10SM CLR 18/13 A3003 770 72 1400 180/05 RMK AO2
14837KMSN MSN20110630014509306/30/11 01:45:31  5-MIN KMSN 300745Z 18006KT 10SM CLR 18/13 A3003 770 72 1400 180/06 RMK AO2
14837KMSN MSN20110630015011006/30/11 01:50:31  5-MIN KMSN 300750Z 17006KT 10SM CLR 18/13 A3002 770 72 1400 170/06 RMK AO2 SLP161 T01830133
14837KMSN MSN20110630015509306/30/11 01:55:31  5-MIN KMSN 300755Z 17007KT 10SM CLR 18/13 A3002 770 72 1400 170/07 RMK AO2
14837KMSN MSN20110630020009306/30/11 02:00:31  5-MIN KMSN 300800Z 17006KT 10SM CLR 18/13 A3002 770 72 1400 170/06 RMK AO2
14837KMSN MSN20110630020509306/30/11 02:05:31  5-MIN KMSN 300805Z 17005KT 10SM CLR 18/13 A3002 770 72 1400 170/05 RMK AO2
14837KMSN MSN20110630021009306/30/11 02:10:31  5-MIN KMSN 300810Z 17006KT 10SM CLR 18/13 A3002 770 72 1400 170/06 RMK AO2
14837KMSN MSN20110630021509306/30/11 02:15:31  5-MIN KMSN 300815Z 17006KT 10SM CLR 18/13 A3002 770 75 1300 170/06 RMK AO2
14837KMSN MSN20110630022009306/30/11 02:20:31  5-MIN KMSN 300820Z 17006KT 10SM CLR 18/13 A3002 770 72 1400 170/06 RMK AO2
14837KMSN MSN20110630022509306/30/11 02:25:31  5-MIN KMSN 300825Z 17007KT 10SM CLR 18/13 A3002 770 72 1400 170/07 RMK AO2
14837KMSN MSN20110630023009306/30/11 02:30:31  5-MIN KMSN 300830Z 17007KT 10SM CLR 18/13 A3002 770 72 1400 170/07 RMK AO2
14837KMSN MSN20110630023509306/30/11 02:35:31  5-MIN KMSN 300835Z 17007KT 10SM CLR 18/13 A3002 770 75 1300 170/07 RMK AO2
14837KMSN MSN20110630024009306/30/11 02:40:31  5-MIN KMSN 300840Z 17007KT 10SM CLR 18/13 A3002 770 75 1300 170/07 RMK AO2
14837KMSN MSN20110630024509306/30/11 02:45:31  5-MIN KMSN 300845Z 16006KT 10SM CLR 18/13 A3002 770 75 1300 170/06 RMK AO2
14837KMSN MSN20110630025011606/30/11 02:50:31  5-MIN KMSN 300850Z 16006KT 10SM CLR 18/13 A3002 770 75 1300 160/06 RMK AO2 SLP161 T01780133 51010
14837KMSN MSN20110630025509306/30/11 02:55:31  5-MIN KMSN 300855Z 17006KT 10SM CLR 18/13 A3002 770 72 1400 170/06 RMK AO2
14837KMSN MSN20110630030009306/30/11 03:00:31  5-MIN KMSN 300900Z 17006KT 10SM CLR 18/13 A3002 770 72 1400 170/06 RMK AO2
14837KMSN MSN20110630030509306/30/11 03:05:31  5-MIN KMSN 300905Z 16006KT 10SM CLR 18/13 A3002 770 75 1300 160/06 RMK AO2
14837KMSN MSN20110630031009306/30/11 03:10:31  5-MIN KMSN 300910Z 17007KT 10SM CLR 18/13 A3001 780 72 1400 170/07 RMK AO2
14837KMSN MSN20110630031509306/30/11 03:15:31  5-MIN KMSN 300915Z 17008KT 10SM CLR 18/13 A3001 780 72 1400 170/08 RMK AO2
14837KMSN MSN20110630032009306/30/11 03:20:31  5-MIN KMSN 300920Z 18008KT 10SM CLR 18/13 A3002 780 75 1300 180/08 RMK AO2
14837KMSN MSN20110630032509306/30/11 03:25:31  5-MIN KMSN 300925Z 17008KT 10SM CLR 18/13 A3001 780 75 1300 170/08 RMK AO2
14837KMSN MSN20110630033009306/30/11 03:30:31  5-MIN KMSN 300930Z 17008KT 10SM CLR 18/13 A3001 780 75 1300 170/08 RMK AO2
14837KMSN MSN20110630033509306/30/11 03:35:31  5-MIN KMSN 300935Z 17007KT 10SM CLR 18/13 A3001 780 75 1300 170/07 RMK AO2
14837KMSN MSN20110630034009306/30/11 03:40:31  5-MIN KMSN 300940Z 17007KT 10SM CLR 18/13 A3002 780 75 1300 170/07 RMK AO2
14837KMSN MSN20110630034509306/30/11 03:45:31  5-MIN KMSN 300945Z 17006KT 10SM CLR 18/13 A3002 770 75 1300 170/06 RMK AO2
14837KMSN MSN20110630035011306/30/11 03:50:31  5-MIN KMSN 300950Z 16006KT 10SM FEW100 18/13 A3002 770 75 1300 170/06 RMK AO2 SLP161 T01780133
14837KMSN MSN20110630035509306/30/11 03:55:31  5-MIN KMSN 300955Z 17006KT 10SM CLR 18/13 A3002 770 75 1300 170/06 RMK AO2
14837KMSN MSN20110630040009306/30/11 04:00:31  5-MIN KMSN 301000Z 17006KT 10SM CLR 18/13 A3002 770 75 1300 170/06 RMK AO2
14837KMSN MSN20110630040509306/30/11 04:05:31  5-MIN KMSN 301005Z 16006KT 10SM CLR 18/13 A3002 780 75 1300 170/06 RMK AO2
14837KMSN MSN20110630041009306/30/11 04:10:31  5-MIN KMSN 301010Z 15007KT 10SM CLR 18/13 A3001 780 75 1300 160/07 RMK AO2
14837KMSN MSN20110630041509306/30/11 04:15:31  5-MIN KMSN 301015Z 16006KT 10SM CLR 18/13 A3001 780 75 1300 160/06 RMK AO2
14837KMSN MSN20110630042009306/30/11 04:20:31  5-MIN KMSN 301020Z 16006KT 10SM CLR 17/13 A3001 780 78 1300 160/06 RMK AO2
14837KMSN MSN20110630042509306/30/11 04:25:31  5-MIN KMSN 301025Z 16007KT 10SM CLR 17/13 A3001 780 78 1300 170/07 RMK AO2
14837KMSN MSN20110630043009306/30/11 04:30:31  5-MIN KMSN 301030Z 16007KT 10SM CLR 18/13 A3001 780 75 1300 170/07 RMK AO2
14837KMSN MSN20110630043509306/30/11 04:35:31  5-MIN KMSN 301035Z 16006KT 10SM CLR 17/13 A3001 780 78 1300 170/06 RMK AO2
14837KMSN MSN20110630044009306/30/11 04:40:31  5-MIN KMSN 301040Z 16006KT 10SM CLR 17/13 A3002 780 78 1300 170/06 RMK AO2
14837KMSN MSN20110630044509306/30/11 04:45:31  5-MIN KMSN 301045Z 17005KT 10SM CLR 18/13 A3002 770 75 1300 170/05 RMK AO2
14837KMSN MSN20110630045011006/30/11 04:50:31  5-MIN KMSN 301050Z 16006KT 10SM CLR 17/13 A3002 770 78 1300 160/06 RMK AO2 SLP162 T01720133
14837KMSN MSN20110630045509306/30/11 04:55:31  5-MIN KMSN 301055Z 16005KT 10SM CLR 17/13 A3002 770 78 1200 160/05 RMK AO2
14837KMSN MSN20110630050009306/30/11 05:00:31  5-MIN KMSN 301100Z 15004KT 10SM CLR 17/13 A3002 770 78 1200 150/04 RMK AO2
14837KMSN MSN20110630050509306/30/11 05:05:31  5-MIN KMSN 301105Z 15004KT 10SM CLR 17/13 A3002 770 78 1200 160/04 RMK AO2
14837KMSN MSN20110630051009306/30/11 05:10:31  5-MIN KMSN 301110Z 16006KT 10SM CLR 18/13 A3002 770 75 1300 160/06 RMK AO2
14837KMSN MSN20110630051509306/30/11 05:15:31  5-MIN KMSN 301115Z 15005KT 10SM CLR 18/13 A3002 770 75 1300 160/05 RMK AO2
14837KMSN MSN20110630052009306/30/11 05:20:31  5-MIN KMSN 301120Z 14003KT 10SM CLR 18/13 A3003 770 75 1300 140/03 RMK AO2
14837KMSN MSN20110630052509306/30/11 05:25:31  5-MIN KMSN 301125Z 14004KT 10SM CLR 18/14 A3002 770 78 1300 140/04 RMK AO2
14837KMSN MSN20110630053009306/30/11 05:30:31  5-MIN KMSN 301130Z 14004KT 10SM CLR 18/14 A3002 770 78 1300 140/04 RMK AO2
14837KMSN MSN20110630053509306/30/11 05:35:31  5-MIN KMSN 301135Z 14003KT 10SM CLR 18/13 A3003 770 72 1400 140/03 RMK AO2
14837KMSN MSN20110630054009306/30/11 05:40:31  5-MIN KMSN 301140Z 15004KT 10SM CLR 18/14 A3003 770 75 1400 150/04 RMK AO2
14837KMSN MSN20110630054509306/30/11 05:45:31  5-MIN KMSN 301145Z 14006KT 10SM CLR 18/14 A3002 770 75 1400 140/06 RMK AO2
14837KMSN MSN20110630055013106/30/11 05:50:31  5-MIN KMSN 301150Z 14006KT 10SM FEW100 18/14 A3003 770 75 1400 140/06 RMK AO2 SLP162 T01830139 10189 20172 58004
14837KMSN MSN20110630055509306/30/11 05:55:31  5-MIN KMSN 301155Z 15005KT 10SM CLR 18/14 A3002 770 75 1400 150/05 RMK AO2
14837KMSN MSN20110630060009306/30/11 06:00:31  5-MIN KMSN 301200Z 14007KT 10SM CLR 19/14 A3002 770 72 1400 150/07 RMK AO2
14837KMSN MSN20110630060509306/30/11 06:05:31  5-MIN KMSN 301205Z 15006KT 10SM CLR 19/14 A3002 770 72 1400 150/06 RMK AO2
14837KMSN MSN20110630061009306/30/11 06:10:31  5-MIN KMSN 301210Z 16007KT 10SM CLR 19/14 A3002 770 70 1500 160/07 RMK AO2
14837KMSN MSN20110630061509306/30/11 06:15:31  5-MIN KMSN 301215Z 16007KT 10SM CLR 19/14 A3002 770 72 1500 160/07 RMK AO2
14837KMSN MSN20110630062009306/30/11 06:20:31  5-MIN KMSN 301220Z 17007KT 10SM CLR 19/14 A3002 770 70 1500 170/07 RMK AO2
14837KMSN MSN20110630062509306/30/11 06:25:31  5-MIN KMSN 301225Z 16007KT 10SM CLR 19/14 A3003 770 72 1500 170/07 RMK AO2
14837KMSN MSN20110630063009306/30/11 06:30:31  5-MIN KMSN 301230Z 16006KT 10SM CLR 20/14 A3003 770 70 1600 160/06 RMK AO2
14837KMSN MSN20110630063509306/30/11 06:35:31  5-MIN KMSN 301235Z 15008KT 10SM CLR 20/14 A3003 770 70 1600 150/08 RMK AO2
14837KMSN MSN20110630064009306/30/11 06:40:31  5-MIN KMSN 301240Z 16006KT 10SM CLR 20/14 A3003 770 70 1600 170/06 RMK AO2
14837KMSN MSN20110630064509306/30/11 06:45:31  5-MIN KMSN 301245Z 16006KT 10SM CLR 21/15 A3003 760 70 1600 160/06 RMK AO2
14837KMSN MSN20110630065011006/30/11 06:50:31  5-MIN KMSN 301250Z 17007KT 10SM CLR 21/15 A3003 760 70 1600 170/07 RMK AO2 SLP164 T02060150
14837KMSN MSN20110630065509306/30/11 06:55:31  5-MIN KMSN 301255Z 16007KT 10SM CLR 21/15 A3003 760 68 1700 170/07 RMK AO2
14837KMSN MSN20110630070009306/30/11 07:00:31  5-MIN KMSN 301300Z 16009KT 10SM CLR 21/15 A3003 760 68 1700 160/09 RMK AO2
14837KMSN MSN20110630070509606/30/11 07:05:31  5-MIN KMSN 301305Z 15007KT 10SM SCT110 21/15 A3003 760 68 1700 160/07 RMK AO2
14837KMSN MSN20110630071009606/30/11 07:10:31  5-MIN KMSN 301310Z 17006KT 10SM SCT110 22/16 A3004 760 68 1700 170/06 RMK AO2
14837KMSN MSN20110630071509606/30/11 07:15:31  5-MIN KMSN 301315Z 17006KT 10SM SCT110 22/16 A3004 760 68 1700 170/06 RMK AO2
14837KMSN MSN20110630072009606/30/11 07:20:31  5-MIN KMSN 301320Z 18007KT 10SM SCT110 22/16 A3003 760 68 1700 180/07 RMK AO2
14837KMSN MSN20110630072509606/30/11 07:25:31  5-MIN KMSN 301325Z 19008KT 10SM SCT110 22/16 A3003 760 68 1800 190/08 RMK AO2
14837KMSN MSN20110630073009606/30/11 07:30:31  5-MIN KMSN 301330Z 18008KT 10SM SCT110 22/16 A3003 760 65 1800 180/08 RMK AO2
14837KMSN MSN20110630073509606/30/11 07:35:31  5-MIN KMSN 301335Z 17009KT 10SM SCT120 22/16 A3003 770 65 1800 180/09 RMK AO2
14837KMSN MSN20110630074009606/30/11 07:40:31  5-MIN KMSN 301340Z 17011KT 10SM SCT120 22/16 A3002 770 68 1800 180/11 RMK AO2
14837KMSN MSN20110630074509606/30/11 07:45:31  5-MIN KMSN 301345Z 18009KT 10SM SCT120 22/16 A3002 770 65 1800 180/09 RMK AO2
14837KMSN MSN20110630075011306/30/11 07:50:31  5-MIN KMSN 301350Z 17008KT 10SM SCT120 23/16 A3003 770 65 1900 180/08 RMK AO2 SLP163 T02280161
14837KMSN MSN20110630075509606/30/11 07:55:31  5-MIN KMSN 301355Z 18007KT 10SM SCT120 23/16 A3003 760 65 1900 190/07 RMK AO2
14837KMSN MSN20110630080009606/30/11 08:00:31  5-MIN KMSN 301400Z 18008KT 10SM SCT120 23/16 A3003 760 65 1900 180/08 RMK AO2
14837KMSN MSN20110630080509606/30/11 08:05:31  5-MIN KMSN 301405Z 18007KT 10SM SCT120 23/17 A3003 770 66 1900 180/07 RMK AO2
14837KMSN MSN20110630081009606/30/11 08:10:31  5-MIN KMSN 301410Z 17010KT 10SM SCT120 23/17 A3002 770 66 2000 170/10 RMK AO2
14837KMSN MSN20110630081509606/30/11 08:15:31  5-MIN KMSN 301415Z 17010KT 10SM SCT120 23/16 A3002 770 63 2000 170/10 RMK AO2
14837KMSN MSN20110630082009606/30/11 08:20:31  5-MIN KMSN 301420Z 18010KT 10SM FEW120 24/17 A3002 770 63 2000 180/10 RMK AO2
14837KMSN MSN20110630082509606/30/11 08:25:31  5-MIN KMSN 301425Z 17010KT 10SM FEW120 24/17 A3002 770 61 2100 170/10 RMK AO2
14837KMSN MSN20110630083009606/30/11 08:30:31  5-MIN KMSN 301430Z 18010KT 10SM FEW120 24/17 A3002 780 63 2000 180/10 RMK AO2
14837KMSN MSN20110630083509606/30/11 08:35:31  5-MIN KMSN 301435Z 16008KT 10SM FEW120 24/17 A3002 780 63 2000 170/08 RMK AO2
14837KMSN MSN20110630084009606/30/11 08:40:31  5-MIN KMSN 301440Z 17007KT 10SM FEW120 24/17 A3002 780 63 2100 170/07 RMK AO2
14837KMSN MSN20110630084509606/30/11 08:45:31  5-MIN KMSN 301445Z 15008KT 10SM FEW120 24/17 A3001 780 63 2100 150/08 RMK AO2
14837KMSN MSN20110630085011906/30/11 08:50:31  5-MIN KMSN 301450Z 17008KT 10SM FEW120 24/17 A3001 780 63 2100 170/08 RMK AO2 SLP157 T02440172 53001
14837KMSN MSN20110630085509606/30/11 08:55:31  5-MIN KMSN 301455Z 16008KT 10SM SCT110 24/17 A3001 780 63 2100 160/08 RMK AO2
14837KMSN MSN20110630090009606/30/11 09:00:31  5-MIN KMSN 301500Z 16007KT 10SM SCT110 25/17 A3001 780 61 2200 160/07 RMK AO2
14837KMSN MSN20110630090509606/30/11 09:05:31  5-MIN KMSN 301505Z 17008KT 10SM SCT110 25/18 A3001 790 64 2200 170/08 RMK AO2
14837KMSN MSN20110630091009606/30/11 09:10:31  5-MIN KMSN 301510Z 19007KT 10SM SCT110 25/18 A3000 790 64 2200 190/07 RMK AO2
14837KMSN MSN20110630091509606/30/11 09:15:31  5-MIN KMSN 301515Z 18011KT 10SM SCT110 26/18 A3001 780 61 2200 180/11 RMK AO2
14837KMSN MSN20110630092009606/30/11 09:20:31  5-MIN KMSN 301520Z 19008KT 10SM SCT110 26/18 A3001 780 61 2200 190/08 RMK AO2
14837KMSN MSN20110630092509606/30/11 09:25:31  5-MIN KMSN 301525Z 18008KT 10SM OVC035 26/18 A3001 780 61 2200 180/08 RMK AO2
14837KMSN MSN20110630093009606/30/11 09:30:31  5-MIN KMSN 301530Z 18008KT 10SM OVC035 26/18 A3001 780 61 2200 190/08 RMK AO2
14837KMSN MSN20110630093509606/30/11 09:35:31  5-MIN KMSN 301535Z 19007KT 10SM OVC035 26/18 A3001 780 61 2200 190/07 RMK AO2
14837KMSN MSN20110630094009606/30/11 09:40:31  5-MIN KMSN 301540Z 19007KT 10SM BKN035 26/18 A3001 780 61 2200 190/07 RMK AO2
14837KMSN MSN20110630094509606/30/11 09:45:31  5-MIN KMSN 301545Z 18009KT 10SM BKN035 26/18 A3001 790 62 2300 180/09 RMK AO2
14837KMSN MSN20110630095011306/30/11 09:50:31  5-MIN KMSN 301550Z 17012KT 10SM BKN035 26/18 A3000 790 62 2300 170/12 RMK AO2 SLP155 T02610183
14837KMSN MSN20110630095509606/30/11 09:55:31  5-MIN KMSN 301555Z 17009KT 10SM BKN035 26/18 A3000 790 62 2300 180/09 RMK AO2
14837KMSN MSN20110630100009606/30/11 10:00:31  5-MIN KMSN 301600Z 18010KT 10SM BKN035 26/18 A3000 790 62 2300 180/10 RMK AO2
14837KMSN MSN20110630100509606/30/11 10:05:31  5-MIN KMSN 301605Z 17011KT 10SM BKN035 26/18 A2999 800 62 2300 170/11 RMK AO2
14837KMSN MSN20110630101009606/30/11 10:10:31  5-MIN KMSN 301610Z 17012KT 10SM BKN035 27/19 A2999 800 62 2400 170/12 RMK AO2
14837KMSN MSN20110630101510306/30/11 10:15:31  5-MIN KMSN 301615Z 16015KT 10SM FEW035 SCT043 27/19 A2999 800 60 2400 160/15 RMK AO2
14837KMSN MSN20110630102009606/30/11 10:20:31  5-MIN KMSN 301620Z 16014KT 10SM FEW035 28/19 A2998 800 58 2500 160/14 RMK AO2
14837KMSN MSN20110630102509606/30/11 10:25:31  5-MIN KMSN 301625Z 17015KT 10SM FEW043 27/19 A2998 810 60 2400 170/15 RMK AO2
14837KMSN MSN20110630103009606/30/11 10:30:31  5-MIN KMSN 301630Z 16014KT 10SM FEW110 28/19 A2998 810 58 2500 170/14 RMK AO2
14837KMSN MSN20110630103509606/30/11 10:35:31  5-MIN KMSN 301635Z 16013KT 10SM FEW110 28/19 A2998 810 60 2500 170/13 RMK AO2
14837KMSN MSN20110630104009906/30/11 10:40:31  5-MIN KMSN 301640Z 18014G19KT 10SM CLR 28/19 A2998 810 60 2500 180/14G19 RMK AO2
14837KMSN MSN20110630104509906/30/11 10:45:31  5-MIN KMSN 301645Z 17012G19KT 10SM CLR 28/19 A2997 820 58 2600 170/12G19 RMK AO2
14837KMSN MSN20110630105011006/30/11 10:50:31  5-MIN KMSN 301650Z 17015KT 10SM CLR 28/20 A2997 820 60 2600 170/15 RMK AO2 SLP143 T02830200
14837KMSN MSN20110630105509606/30/11 10:55:31  5-MIN KMSN 301655Z 17011KT 10SM FEW110 28/19 A2997 820 58 2600 170/11 RMK AO2
14837KMSN MSN20110630110009606/30/11 11:00:31  5-MIN KMSN 301700Z 17015KT 10SM FEW110 28/19 A2997 820 58 2600 170/15 RMK AO2
14837KMSN MSN20110630110509606/30/11 11:05:31  5-MIN KMSN 301705Z 17015KT 10SM FEW110 28/20 A2996 830 60 2600 170/15 RMK AO2
14837KMSN MSN20110630111009606/30/11 11:10:31  5-MIN KMSN 301710Z 17013KT 10SM FEW110 29/20 A2996 830 58 2600 180/13 RMK AO2
14837KMSN MSN20110630111510206/30/11 11:15:31  5-MIN KMSN 301715Z 19014G21KT 10SM FEW110 29/20 A2996 830 58 2700 190/14G21 RMK AO2
14837KMSN MSN20110630112009906/30/11 11:20:31  5-MIN KMSN 301720Z 18013G21KT 10SM CLR 29/20 A2995 830 58 2700 180/13G21 RMK AO2
14837KMSN MSN20110630112509906/30/11 11:25:31  5-MIN KMSN 301725Z 18014G20KT 10SM CLR 29/20 A2995 840 58 2700 190/14G20 RMK AO2
14837KMSN MSN20110630113009906/30/11 11:30:31  5-MIN KMSN 301730Z 18016G20KT 10SM CLR 29/20 A2995 840 58 2700 180/16G20 RMK AO2
14837KMSN MSN20110630113509906/30/11 11:35:31  5-MIN KMSN 301735Z 17017G20KT 10SM CLR 29/21 A2994 850 58 2700 170/17G20 RMK AO2
14837KMSN MSN20110630114009906/30/11 11:40:31  5-MIN KMSN 301740Z 17017G20KT 10SM CLR 29/21 A2994 840 58 2700 170/17G20 RMK AO2
14837KMSN MSN20110630114509306/30/11 11:45:31  5-MIN KMSN 301745Z 18016KT 10SM CLR 29/21 A2995 840 58 2700 180/16 RMK AO2
14837KMSN MSN20110630115012806/30/11 11:50:31  5-MIN KMSN 301750Z 18016KT 10SM CLR 29/21 A2994 840 58 2700 180/16 RMK AO2 SLP135 T02940206 10294 20183 58005
14837KMSN MSN20110630115510206/30/11 11:55:31  5-MIN KMSN 301755Z 18013G22KT 10SM SCT032 29/21 A2994 850 60 2700 180/13G22 RMK AO2
14837KMSN MSN20110630120009606/30/11 12:00:31  5-MIN KMSN 301800Z 19012KT 10SM SCT032 29/21 A2994 850 60 2700 190/12 RMK AO2
14837KMSN MSN20110630120509606/30/11 12:05:31  5-MIN KMSN 301805Z 18013KT 10SM SCT032 29/21 A2994 850 60 2700 180/13 RMK AO2
14837KMSN MSN20110630121009606/30/11 12:10:31  5-MIN KMSN 301810Z 18017KT 10SM SCT032 29/21 A2993 850 60 2700 180/17 RMK AO2
14837KMSN MSN20110630121509606/30/11 12:15:31  5-MIN KMSN 301815Z 17016KT 10SM SCT032 29/21 A2993 850 60 2700 170/16 RMK AO2
14837KMSN MSN20110630122009606/30/11 12:20:31  5-MIN KMSN 301820Z 17014KT 10SM SCT032 30/21 A2993 860 58 2800 170/14 RMK AO2
14837KMSN MSN20110630122509606/30/11 12:25:31  5-MIN KMSN 301825Z 16015KT 10SM FEW032 30/22 A2993 860 60 2800 170/15 RMK AO2
14837KMSN MSN20110630123009606/30/11 12:30:31  5-MIN KMSN 301830Z 17015KT 10SM FEW032 30/22 A2993 860 60 2800 170/15 RMK AO2
14837KMSN MSN20110630123510206/30/11 12:35:31  5-MIN KMSN 301835Z 17012G19KT 10SM FEW032 31/22 A2993 860 58 2900 180/12G19 RMK AO2
14837KMSN MSN20110630124009306/30/11 12:40:31  5-MIN KMSN 301840Z 17016KT 10SM CLR 31/22 A2993 860 58 2900 170/16 RMK AO2
14837KMSN MSN20110630124509606/30/11 12:45:31  5-MIN KMSN 301845Z 19015KT 10SM SCT035 31/22 A2993 860 58 2900 190/15 RMK AO2
14837KMSN MSN20110630125011906/30/11 12:50:31  5-MIN KMSN 301850Z 19014G21KT 10SM SCT035 31/22 A2992 860 58 2900 190/14G21 RMK AO2 SLP128 T03060217
14837KMSN MSN20110630125510206/30/11 12:55:31  5-MIN KMSN 301855Z 17015G20KT 10SM SCT036 31/22 A2992 860 58 2900 170/15G20 RMK AO2
14837KMSN MSN20110630130010206/30/11 13:00:31  5-MIN KMSN 301900Z 17015G20KT 10SM SCT036 31/22 A2992 860 60 2900 170/15G20 RMK AO2
14837KMSN MSN20110630130509606/30/11 13:05:31  5-MIN KMSN 301905Z 17016KT 10SM SCT036 31/22 A2992 860 58 2900 170/16 RMK AO2
14837KMSN MSN20110630131009606/30/11 13:10:31  5-MIN KMSN 301910Z 16014KT 10SM SCT036 31/22 A2992 860 58 2900 160/14 RMK AO2
14837KMSN MSN20110630131509606/30/11 13:15:31  5-MIN KMSN 301915Z 17011KT 10SM SCT036 31/22 A2993 860 60 2900 170/11 RMK AO2
14837KMSN MSN20110630132010206/30/11 13:20:31  5-MIN KMSN 301920Z 18014G19KT 10SM SCT036 30/22 A2992 860 60 2800 190/14G19 RMK AO2
14837KMSN MSN20110630132509606/30/11 13:25:31  5-MIN KMSN 301925Z 17017KT 10SM SCT036 31/22 A2992 860 58 2900 170/17 RMK AO2
14837KMSN MSN20110630133009606/30/11 13:30:31  5-MIN KMSN 301930Z 17016KT 10SM SCT036 31/22 A2992 860 60 2900 180/16 RMK AO2
14837KMSN MSN20110630133509606/30/11 13:35:31  5-MIN KMSN 301935Z 17017KT 10SM SCT036 31/22 A2992 860 60 2900 170/17 RMK AO2
14837KMSN MSN20110630134009606/30/11 13:40:31  5-MIN KMSN 301940Z 19014KT 10SM SCT036 31/22 A2992 860 60 2900 190/14 RMK AO2
14837KMSN MSN20110630134509606/30/11 13:45:31  5-MIN KMSN 301945Z 18015KT 10SM SCT036 31/22 A2992 860 60 2900 180/15 RMK AO2
14837KMSN MSN20110630135011306/30/11 13:50:31  5-MIN KMSN 301950Z 17017KT 10SM SCT036 31/22 A2992 870 60 2900 170/17 RMK AO2 SLP126 T03060222
14837KMSN MSN20110630135509606/30/11 13:55:31  5-MIN KMSN 301955Z 18016KT 10SM BKN034 31/22 A2992 870 60 2900 180/16 RMK AO2
14837KMSN MSN20110630140010206/30/11 14:00:31  5-MIN KMSN 302000Z 18014G21KT 10SM SCT034 31/22 A2992 870 60 2900 180/14G21 RMK AO2
14837KMSN MSN20110630140509606/30/11 14:05:31  5-MIN KMSN 302005Z 16014KT 10SM BKN034 31/22 A2992 870 60 2900 160/14 RMK AO2
14837KMSN MSN20110630141009606/30/11 14:10:31  5-MIN KMSN 302010Z 17016KT 10SM BKN034 31/22 A2992 870 60 2900 170/16 RMK AO2
14837KMSN MSN20110630141510306/30/11 14:15:31  5-MIN KMSN 302015Z 17014KT 10SM BKN034 BKN041 30/22 A2991 870 62 2800 180/14 RMK AO2
14837KMSN MSN20110630142009606/30/11 14:20:31  5-MIN KMSN 302020Z 16015KT 10SM BKN034 30/22 A2991 870 62 2800 170/15 RMK AO2
14837KMSN MSN20110630142510206/30/11 14:25:31  5-MIN KMSN 302025Z 17017G20KT 10SM BKN034 31/22 A2991 870 60 2900 170/17G20 RMK AO2
14837KMSN MSN20110630143009606/30/11 14:30:31  5-MIN KMSN 302030Z 17014KT 10SM BKN034 31/23 A2991 870 62 2900 170/14 RMK AO2
14837KMSN MSN20110630143509606/30/11 14:35:31  5-MIN KMSN 302035Z 16015KT 10SM BKN036 31/23 A2991 880 60 3000 160/15 RMK AO2
14837KMSN MSN20110630144009606/30/11 14:40:31  5-MIN KMSN 302040Z 18014KT 10SM BKN036 31/23 A2991 870 60 2900 180/14 RMK AO2
14837KMSN MSN20110630144509606/30/11 14:45:31  5-MIN KMSN 302045Z 16014KT 10SM BKN036 31/23 A2991 880 60 3000 160/14 RMK AO2
14837KMSN MSN20110630145011906/30/11 14:50:31  5-MIN KMSN 302050Z 16014KT 10SM BKN036 31/23 A2991 880 63 3000 160/14 RMK AO2 SLP122 T03110233 58021
14837KMSN MSN20110630145509606/30/11 14:55:31  5-MIN KMSN 302055Z 18014KT 10SM BKN036 31/23 A2990 880 60 3000 180/14 RMK AO2
14837KMSN MSN20110630150009606/30/11 15:00:31  5-MIN KMSN 302100Z 17013KT 10SM BKN036 31/23 A2990 880 60 3000 170/13 RMK AO2
14837KMSN MSN20110630150509606/30/11 15:05:31  5-MIN KMSN 302105Z 18015KT 10SM SCT036 31/23 A2990 890 60 3000 180/15 RMK AO2
14837KMSN MSN20110630151009606/30/11 15:10:31  5-MIN KMSN 302110Z 17015KT 10SM SCT036 31/23 A2989 890 60 3000 170/15 RMK AO2
14837KMSN MSN20110630151509606/30/11 15:15:31  5-MIN KMSN 302115Z 17017KT 10SM FEW036 32/23 A2989 890 58 3000 170/17 RMK AO2
14837KMSN MSN20110630152009606/30/11 15:20:31  5-MIN KMSN 302120Z 17016KT 10SM FEW036 31/23 A2989 900 60 3000 170/16 RMK AO2
14837KMSN MSN20110630152509306/30/11 15:25:31  5-MIN KMSN 302125Z 17015KT 10SM CLR 31/23 A2988 900 60 3000 180/15 RMK AO2
14837KMSN MSN20110630153009606/30/11 15:30:31  5-MIN KMSN 302130Z 17016KT 10SM FEW036 32/23 A2988 900 58 3000 170/16 RMK AO2
14837KMSN MSN20110630153509606/30/11 15:35:31  5-MIN KMSN 302135Z 17016KT 10SM FEW036 32/23 A2988 900 58 3000 170/16 RMK AO2
14837KMSN MSN20110630154010206/30/11 15:40:31  5-MIN KMSN 302140Z 18015G21KT 10SM FEW036 31/23 A2988 900 60 3000 180/15G21 RMK AO2
14837KMSN MSN20110630154510206/30/11 15:45:31  5-MIN KMSN 302145Z 17015G21KT 10SM FEW036 31/23 A2988 900 60 3000 170/15G21 RMK AO2
14837KMSN MSN20110630155011306/30/11 15:50:31  5-MIN KMSN 302150Z 17016KT 10SM FEW036 32/23 A2988 910 58 3000 170/16 RMK AO2 SLP110 T03170228
14837KMSN MSN20110630155509306/30/11 15:55:31  5-MIN KMSN 302155Z 17015KT 10SM CLR 32/23 A2987 910 58 3100 180/15 RMK AO2
14837KMSN MSN20110630160010206/30/11 16:00:31  5-MIN KMSN 302200Z 18014G20KT 10SM FEW036 32/23 A2987 910 61 3100 180/14G20 RMK AO2
14837KMSN MSN20110630160510206/30/11 16:05:31  5-MIN KMSN 302205Z 17013G21KT 10SM FEW036 31/23 A2986 920 60 3000 180/13G21 RMK AO2
14837KMSN MSN20110630161010206/30/11 16:10:31  5-MIN KMSN 302210Z 18012G21KT 10SM FEW036 31/23 A2986 920 60 3000 180/12G21 RMK AO2
14837KMSN MSN20110630161509606/30/11 16:15:31  5-MIN KMSN 302215Z 18014KT 10SM FEW036 31/23 A2986 920 60 3000 180/14 RMK AO2
14837KMSN MSN20110630162009606/30/11 16:20:31  5-MIN KMSN 302220Z 18014KT 10SM FEW036 31/23 A2986 920 60 3000 180/14 RMK AO2
14837KMSN MSN20110630162509606/30/11 16:25:31  5-MIN KMSN 302225Z 18015KT 10SM FEW036 31/23 A2986 920 60 3000 180/15 RMK AO2
14837KMSN MSN20110630163009606/30/11 16:30:31  5-MIN KMSN 302230Z 18016KT 10SM FEW036 31/23 A2986 920 60 3000 180/16 RMK AO2
14837KMSN MSN20110630163509606/30/11 16:35:31  5-MIN KMSN 302235Z 18014KT 10SM FEW036 31/23 A2986 920 60 3000 180/14 RMK AO2
14837KMSN MSN20110630164009606/30/11 16:40:31  5-MIN KMSN 302240Z 18012KT 10SM FEW040 31/23 A2986 920 60 3000 180/12 RMK AO2
14837KMSN MSN20110630164509606/30/11 16:45:31  5-MIN KMSN 302245Z 19010KT 10SM FEW040 31/23 A2986 920 60 3000 190/10 RMK AO2
14837KMSN MSN20110630165011306/30/11 16:50:31  5-MIN KMSN 302250Z 18011KT 10SM FEW044 31/23 A2985 930 63 3000 180/11 RMK AO2 SLP104 T03110233
14837KMSN MSN20110630165510206/30/11 16:55:31  5-MIN KMSN 302255Z 18014G19KT 10SM FEW044 31/23 A2985 930 60 3000 180/14G19 RMK AO2
14837KMSN MSN20110630170010206/30/11 17:00:31  5-MIN KMSN 302300Z 18012G19KT 10SM FEW044 31/23 A2986 920 62 2900 180/12G19 RMK AO2
14837KMSN MSN20110630170510206/30/11 17:05:31  5-MIN KMSN 302305Z 18013G17KT 10SM FEW044 31/23 A2986 920 62 2900 180/13G17 RMK AO2
14837KMSN MSN20110630171009606/30/11 17:10:31  5-MIN KMSN 302310Z 18012KT 10SM FEW044 31/23 A2986 920 62 2900 180/12 RMK AO2
14837KMSN MSN20110630171509606/30/11 17:15:31  5-MIN KMSN 302315Z 18014KT 10SM FEW044 31/23 A2986 920 62 2900 180/14 RMK AO2
14837KMSN MSN20110630172009606/30/11 17:20:31  5-MIN KMSN 302320Z 18013KT 10SM FEW044 31/23 A2986 920 62 2900 180/13 RMK AO2
14837KMSN MSN20110630172509606/30/11 17:25:31  5-MIN KMSN 302325Z 18013KT 10SM FEW044 31/23 A2986 920 62 2900 180/13 RMK AO2
14837KMSN MSN20110630173009606/30/11 17:30:31  5-MIN KMSN 302330Z 18014KT 10SM FEW044 31/23 A2986 920 62 2900 180/14 RMK AO2
14837KMSN MSN20110630173509606/30/11 17:35:31  5-MIN KMSN 302335Z 17015KT 10SM FEW044 31/23 A2986 920 62 2900 170/15 RMK AO2
14837KMSN MSN20110630174009606/30/11 17:40:31  5-MIN KMSN 302340Z 18015KT 10SM FEW044 31/23 A2986 920 62 2900 180/15 RMK AO2
14837KMSN MSN20110630174509606/30/11 17:45:31  5-MIN KMSN 302345Z 17016KT 10SM SCT035 31/23 A2986 920 62 2900 170/16 RMK AO2
14837KMSN MSN20110630175013106/30/11 17:50:31  5-MIN KMSN 302350Z 16013KT 10SM BKN035 31/23 A2986 920 62 2900 170/13 RMK AO2 SLP107 T03060228 10317 20289 56013
14837KMSN MSN20110630175509606/30/11 17:55:31  5-MIN KMSN 302355Z 17012KT 10SM BKN035 30/23 A2986 920 65 2900 170/12 RMK AO2
14837KMSN MSN20110630180009606/30/11 18:00:31  5-MIN KMSN 010000Z 16014KT 10SM FEW035 30/23 A2986 920 65 2900 170/14 RMK AO2
14837KMSN MSN20110630180509606/30/11 18:05:31  5-MIN KMSN 010005Z 17013KT 10SM FEW035 30/23 A2986 920 65 2900 170/13 RMK AO2
14837KMSN MSN20110630181009606/30/11 18:10:31  5-MIN KMSN 010010Z 17012KT 10SM FEW035 30/23 A2986 920 65 2900 170/12 RMK AO2
14837KMSN MSN20110630181509606/30/11 18:15:31  5-MIN KMSN 010015Z 17012KT 10SM FEW035 30/23 A2986 920 65 2900 170/12 RMK AO2
14837KMSN MSN20110630182009606/30/11 18:20:31  5-MIN KMSN 010020Z 17012KT 10SM FEW035 30/23 A2986 920 65 2900 170/12 RMK AO2
14837KMSN MSN20110630182509606/30/11 18:25:31  5-MIN KMSN 010025Z 17013KT 10SM SCT035 30/23 A2986 920 65 2900 170/13 RMK AO2
14837KMSN MSN20110630183010206/30/11 18:30:31  5-MIN KMSN 010030Z 16014G19KT 10SM FEW035 30/23 A2986 920 65 2900 160/14G19 RMK AO2
14837KMSN MSN20110630183509606/30/11 18:35:31  5-MIN KMSN 010035Z 17013KT 10SM FEW035 30/23 A2986 920 65 2900 170/13 RMK AO2
14837KMSN MSN20110630184009606/30/11 18:40:31  5-MIN KMSN 010040Z 17013KT 10SM FEW035 30/23 A2986 920 65 2900 170/13 RMK AO2
14837KMSN MSN20110630184509606/30/11 18:45:31  5-MIN KMSN 010045Z 16016KT 10SM FEW035 30/23 A2986 920 65 2900 170/16 RMK AO2
14837KMSN MSN20110630185011306/30/11 18:50:31  5-MIN KMSN 010050Z 17014KT 10SM SCT035 30/23 A2986 920 65 2900 170/14 RMK AO2 SLP106 T03000228
14837KMSN MSN20110630185509606/30/11 18:55:31  5-MIN KMSN 010055Z 16013KT 10SM SCT035 30/23 A2986 920 65 2900 160/13 RMK AO2
14837KMSN MSN20110630190009606/30/11 19:00:31  5-MIN KMSN 010100Z 17012KT 10SM BKN035 30/23 A2986 920 65 2900 170/12 RMK AO2
14837KMSN MSN20110630190509606/30/11 19:05:31  5-MIN KMSN 010105Z 17016KT 10SM BKN035 29/23 A2986 920 67 2800 170/16 RMK AO2
14837KMSN MSN20110630191009606/30/11 19:10:31  5-MIN KMSN 010110Z 17016KT 10SM BKN035 30/23 A2986 920 65 2900 170/16 RMK AO2
14837KMSN MSN20110630191510206/30/11 19:15:31  5-MIN KMSN 010115Z 17016G22KT 10SM BKN035 29/23 A2986 920 67 2800 170/16G22 RMK AO2
14837KMSN MSN20110630192010206/30/11 19:20:31  5-MIN KMSN 010120Z 17014G22KT 10SM BKN035 30/23 A2986 920 65 2900 170/14G22 RMK AO2
14837KMSN MSN20110630192509606/30/11 19:25:31  5-MIN KMSN 010125Z 17012KT 10SM BKN035 29/23 A2986 920 67 2800 180/12 RMK AO2
14837KMSN MSN20110630193009606/30/11 19:30:31  5-MIN KMSN 010130Z 17012KT 10SM OVC033 29/23 A2986 920 67 2800 170/12 RMK AO2
14837KMSN MSN20110630193509606/30/11 19:35:31  5-MIN KMSN 010135Z 16011KT 10SM OVC033 29/23 A2986 920 67 2800 160/11 RMK AO2
14837KMSN MSN20110630194009606/30/11 19:40:31  5-MIN KMSN 010140Z 16015KT 10SM OVC033 29/23 A2986 920 67 2800 170/15 RMK AO2
14837KMSN MSN20110630194510206/30/11 19:45:31  5-MIN KMSN 010145Z 17016G21KT 10SM OVC033 29/23 A2986 920 67 2800 170/16G21 RMK AO2
14837KMSN MSN20110630195012606/30/11 19:50:31  5-MIN KMSN 010150Z 17015G21KT 10SM BKN033 OVC038 29/23 A2986 920 67 2800 170/15G21 RMK AO2 SLP106 T02940228
14837KMSN MSN20110630195510906/30/11 19:55:31  5-MIN KMSN 010155Z 17017G23KT 10SM BKN033 OVC038 29/23 A2986 920 67 2800 170/17G23 RMK AO2
14837KMSN MSN20110630200010206/30/11 20:00:31  5-MIN KMSN 010200Z 17012G23KT 10SM OVC033 29/23 A2987 910 67 2800 180/12G23 RMK AO2
14837KMSN MSN20110630200510206/30/11 20:05:31  5-MIN KMSN 010205Z 17015G22KT 10SM OVC033 29/23 A2987 910 67 2800 170/15G22 RMK AO2
14837KMSN MSN20110630201010206/30/11 20:10:31  5-MIN KMSN 010210Z 17017G21KT 10SM OVC033 29/23 A2987 910 69 2700 170/17G21 RMK AO2
14837KMSN MSN20110630201509606/30/11 20:15:31  5-MIN KMSN 010215Z 17016KT 10SM OVC033 29/23 A2987 910 69 2700 170/16 RMK AO2
14837KMSN MSN20110630202009606/30/11 20:20:31  5-MIN KMSN 010220Z 17016KT 10SM OVC035 29/23 A2987 910 69 2700 170/16 RMK AO2
14837KMSN MSN20110630202510206/30/11 20:25:31  5-MIN KMSN 010225Z 17019G22KT 10SM OVC035 29/23 A2987 910 69 2700 180/19G22 RMK AO2
14837KMSN MSN20110630203009606/30/11 20:30:31  5-MIN KMSN 010230Z 17016KT 10SM OVC035 29/23 A2988 910 69 2700 170/16 RMK AO2
14837KMSN MSN20110630203509606/30/11 20:35:31  5-MIN KMSN 010235Z 18016KT 10SM OVC035 29/23 A2987 910 69 2700 180/16 RMK AO2
14837KMSN MSN20110630204010206/30/11 20:40:31  5-MIN KMSN 010240Z 18016G22KT 10SM OVC035 29/23 A2987 910 69 2700 180/16G22 RMK AO2
14837KMSN MSN20110630204510206/30/11 20:45:31  5-MIN KMSN 010245Z 18015G22KT 10SM OVC037 29/23 A2987 910 69 2700 180/15G22 RMK AO2
14837KMSN MSN20110630205011906/30/11 20:50:31  5-MIN KMSN 010250Z 18015KT 10SM OVC037 29/23 A2988 910 69 2700 180/15 RMK AO2 SLP110 T02890228 55014
14837KMSN MSN20110630205509606/30/11 20:55:31  5-MIN KMSN 010255Z 18016KT 10SM OVC037 29/23 A2988 910 69 2700 180/16 RMK AO2
14837KMSN MSN20110630210010206/30/11 21:00:31  5-MIN KMSN 010300Z 18017G22KT 10SM OVC037 28/23 A2988 910 71 2700 180/17G22 RMK AO2
14837KMSN MSN20110630210512006/30/11 21:05:31  5-MIN KMSN 010305Z 18018G26KT 10SM OVC037 28/23 A2987 910 71 2700 180/18G26 RMK AO2 PK WND 18026/0303
14837KMSN MSN20110630211012006/30/11 21:10:31  5-MIN KMSN 010310Z 18018G26KT 10SM BKN037 28/23 A2987 910 71 2700 180/18G26 RMK AO2 PK WND 18026/0303
14837KMSN MSN20110630211512006/30/11 21:15:31  5-MIN KMSN 010315Z 18016G24KT 10SM SCT037 28/23 A2988 910 71 2700 180/16G24 RMK AO2 PK WND 18026/0303
14837KMSN MSN20110630212012006/30/11 21:20:31  5-MIN KMSN 010320Z 18017G24KT 10SM SCT037 28/23 A2988 900 71 2700 180/17G24 RMK AO2 PK WND 18026/0303
14837KMSN MSN20110630212511406/30/11 21:25:31  5-MIN KMSN 010325Z 19016KT 10SM SCT037 28/23 A2988 900 71 2700 190/16 RMK AO2 PK WND 18026/0303
14837KMSN MSN20110630213012006/30/11 21:30:31  5-MIN KMSN 010330Z 18015G24KT 10SM SCT037 28/23 A2988 900 71 2700 180/15G24 RMK AO2 PK WND 18026/0303
14837KMSN MSN20110630213512006/30/11 21:35:31  5-MIN KMSN 010335Z 18016G24KT 10SM SCT035 28/23 A2988 900 71 2700 180/16G24 RMK AO2 PK WND 18026/0303
14837KMSN MSN20110630214012006/30/11 21:40:31  5-MIN KMSN 010340Z 18015G24KT 10SM SCT035 28/23 A2988 900 71 2700 180/15G24 RMK AO2 PK WND 18026/0303
14837KMSN MSN20110630214512006/30/11 21:45:31  5-MIN KMSN 010345Z 18015G24KT 10SM SCT035 28/23 A2988 900 74 2600 180/15G24 RMK AO2 PK WND 18026/0303
14837KMSN MSN20110630215013706/30/11 21:50:31  5-MIN KMSN 010350Z 18015G22KT 10SM FEW035 28/23 A2988 900 74 2600 190/15G22 RMK AO2 PK WND 18026/0303 SLP110 T02780228
14837KMSN MSN20110630215510206/30/11 21:55:31  5-MIN KMSN 010355Z 18016G22KT 10SM FEW035 28/23 A2988 900 74 2600 180/16G22 RMK AO2
14837KMSN MSN20110630220010206/30/11 22:00:31  5-MIN KMSN 010400Z 19016G22KT 10SM FEW033 28/23 A2987 910 74 2600 190/16G22 RMK AO2
14837KMSN MSN20110630220509906/30/11 22:05:31  5-MIN KMSN 010405Z 18017G23KT 10SM CLR 28/23 A2987 910 74 2600 190/17G23 RMK AO2
14837KMSN MSN20110630221009906/30/11 22:10:31  5-MIN KMSN 010410Z 19016G23KT 10SM CLR 28/23 A2987 910 74 2600 190/16G23 RMK AO2
14837KMSN MSN20110630221509906/30/11 22:15:31  5-MIN KMSN 010415Z 19013G23KT 10SM CLR 28/23 A2988 910 74 2600 190/13G23 RMK AO2
14837KMSN MSN20110630222011706/30/11 22:20:31  5-MIN KMSN 010420Z 19021G27KT 10SM CLR 28/23 A2988 900 74 2600 190/21G27 RMK AO2 PK WND 19027/0419
14837KMSN MSN20110630222511706/30/11 22:25:31  5-MIN KMSN 010425Z 19018G27KT 10SM CLR 28/22 A2988 900 71 2600 190/18G27 RMK AO2 PK WND 19027/0419
14837KMSN MSN20110630223011706/30/11 22:30:31  5-MIN KMSN 010430Z 19012G25KT 10SM CLR 28/22 A2988 900 71 2600 190/12G25 RMK AO2 PK WND 19027/0419
14837KMSN MSN20110630223511706/30/11 22:35:31  5-MIN KMSN 010435Z 19016G20KT 10SM CLR 27/22 A2989 890 74 2500 190/16G20 RMK AO2 PK WND 19027/0419
14837KMSN MSN20110630224011706/30/11 22:40:31  5-MIN KMSN 010440Z 19016G23KT 10SM CLR 27/22 A2989 890 74 2500 190/16G23 RMK AO2 PK WND 19027/0419
14837KMSN MSN20110630224512406/30/11 22:45:31  5-MIN KMSN 010445Z 19016G23KT 10SM CLR 27/22 A2990 880 74 2500 190/16G23 RMK AO2 PK WND 19027/0419 PRESRR
14837KMSN MSN20110630225013406/30/11 22:50:31  5-MIN KMSN 010450Z 19015G23KT 10SM CLR 27/22 A2990 880 74 2500 190/15G23 RMK AO2 PK WND 19027/0419 SLP117 T02720222
14837KMSN MSN20110630225509906/30/11 22:55:31  5-MIN KMSN 010455Z 19011G21KT 10SM CLR 27/22 A2990 880 74 2500 190/11G21 RMK AO2
14837KMSN MSN20110630230009906/30/11 23:00:31  5-MIN KMSN 010500Z 18013G19KT 10SM CLR 27/22 A2990 890 74 2500 190/13G19 RMK AO2
14837KMSN MSN20110630230509906/30/11 23:05:31  5-MIN KMSN 010505Z 19014G21KT 10SM CLR 27/22 A2989 890 74 2500 190/14G21 RMK AO2
14837KMSN MSN20110630231009906/30/11 23:10:31  5-MIN KMSN 010510Z 19013G21KT 10SM CLR 27/22 A2990 890 74 2500 190/13G21 RMK AO2
14837KMSN MSN20110630231509906/30/11 23:15:31  5-MIN KMSN 010515Z 19013G20KT 10SM CLR 27/22 A2990 880 74 2500 190/13G20 RMK AO2
14837KMSN MSN20110630232009906/30/11 23:20:31  5-MIN KMSN 010520Z 19014G20KT 10SM CLR 27/22 A2990 880 74 2500 190/14G20 RMK AO2
14837KMSN MSN20110630232509906/30/11 23:25:31  5-MIN KMSN 010525Z 18013G18KT 10SM CLR 27/22 A2990 880 74 2500 180/13G18 RMK AO2
14837KMSN MSN20110630233009306/30/11 23:30:31  5-MIN KMSN 010530Z 18013KT 10SM CLR 27/22 A2990 880 74 2500 180/13 RMK AO2
14837KMSN MSN20110630233509606/30/11 23:35:31  5-MIN KMSN 010535Z 18012KT 10SM FEW031 27/22 A2991 870 74 2500 180/12 RMK AO2
14837KMSN MSN20110630234009606/30/11 23:40:31  5-MIN KMSN 010540Z 18010KT 10SM SCT031 27/22 A2991 870 74 2500 190/10 RMK AO2
14837KMSN MSN20110630234509606/30/11 23:45:31  5-MIN KMSN 010545Z 19009KT 10SM BKN031 27/22 A2992 870 74 2500 190/09 RMK AO2
14837KMSN MSN20110630235014106/30/11 23:50:31  5-MIN KMSN 010550Z 18012KT 10SM BKN031 27/22 A2992 860 74 2500 180/12 RMK AO2 SLP124 T02720222 10300 20272 403170172 53005
14837KMSN MSN20110630235509606/30/11 23:55:31  5-MIN KMSN 010555Z 18009KT 10SM BKN029 27/22 A2992 860 74 2500 180/09 RMK AO2
