14837KMSN MSN20031201000010312/01/03 00:00:32  5-MIN KMSN 010600Z 31015G24KT 10SM FEW040 01/M10 A3011 690 43 -700 310/15G24 RMK AO2
14837KMSN MSN20031201000510312/01/03 00:05:31  5-MIN KMSN 010605Z 31014G24KT 10SM FEW040 01/M10 A3012 680 43 -800 310/14G24 RMK AO2
14837KMSN MSN20031201001010312/01/03 00:10:31  5-MIN KMSN 010610Z 31015G22KT 10SM FEW040 01/M09 A3012 680 45 -800 310/15G22 RMK AO2
14837KMSN MSN20031201001510312/01/03 00:15:31  5-MIN KMSN 010615Z 31012G21KT 10SM FEW040 01/M09 A3012 680 45 -800 310/12G21 RMK AO2
14837KMSN MSN20031201002010312/01/03 00:20:31  5-MIN KMSN 010620Z 30011G21KT 10SM FEW040 01/M09 A3012 680 45 -800 300/11G21 RMK AO2
14837KMSN MSN20031201002510312/01/03 00:25:31  5-MIN KMSN 010625Z 30012G21KT 10SM FEW040 01/M09 A3013 670 47 -800 300/12G21 RMK AO2
14837KMSN MSN20031201003010312/01/03 00:30:31  5-MIN KMSN 010630Z 31012G20KT 10SM FEW040 01/M09 A3013 670 49 -800 310/12G20 RMK AO2
14837KMSN MSN20031201003510312/01/03 00:35:31  5-MIN KMSN 010635Z 30009G17KT 10SM FEW040 01/M09 A3013 670 49 -800 300/09G17 RMK AO2
14837KMSN MSN20031201004010312/01/03 00:40:31  5-MIN KMSN 010640Z 29011G17KT 10SM FEW040 01/M09 A3013 670 47 -800 290/11G17 RMK AO2
14837KMSN MSN20031201004510312/01/03 00:45:31  5-MIN KMSN 010645Z 30010G18KT 10SM FEW040 01/M09 A3014 670 49 -800 300/10G18 RMK AO2
14837KMSN MSN20031201005012012/01/03 00:50:31  5-MIN KMSN 010650Z 30013G19KT 10SM FEW040 01/M09 A3014 660 47 -800 300/13G19 RMK AO2 SLP211 T00061094
14837KMSN MSN20031201005510012/01/03 00:55:31  5-MIN KMSN 010655Z 30015G20KT 10SM CLR 01/M09 A3014 660 47 -900 300/15G20 RMK AO2
14837KMSN MSN20031201010010012/01/03 01:00:31  5-MIN KMSN 010700Z 30013G20KT 10SM CLR 01/M09 A3015 650 47 -900 300/13G20 RMK AO2
14837KMSN MSN20031201010510012/01/03 01:05:31  5-MIN KMSN 010705Z 29009G18KT 10SM CLR 01/M09 A3015 650 47 -900 290/09G18 RMK AO2
14837KMSN MSN20031201011010012/01/03 01:10:31  5-MIN KMSN 010710Z 30014G19KT 10SM CLR 01/M10 A3015 650 45 -900 300/14G19 RMK AO2
14837KMSN MSN20031201011510012/01/03 01:15:31  5-MIN KMSN 010715Z 29016G22KT 10SM CLR 01/M10 A3016 650 45 -900 290/16G22 RMK AO2
14837KMSN MSN20031201012010012/01/03 01:20:31  5-MIN KMSN 010720Z 29013G22KT 10SM CLR 01/M10 A3016 640 45 -900 290/13G22 RMK AO2
14837KMSN MSN20031201012510012/01/03 01:25:31  5-MIN KMSN 010725Z 30016G22KT 10SM CLR 01/M11 A3016 640 43 -900 300/16G22 RMK AO2
14837KMSN MSN20031201013010112/01/03 01:30:31  5-MIN KMSN 010730Z 29015G23KT 10SM CLR 00/M10 A3017 640 47 -1000 290/15G23 RMK AO2
14837KMSN MSN20031201013511712/01/03 01:35:31  5-MIN KMSN 010735Z 29011G23KT 260V330 10SM CLR 00/M11 A3017 630 45 -1000 290/11G23 260V330 RMK AO2
14837KMSN MSN20031201014010112/01/03 01:40:31  5-MIN KMSN 010740Z 29015G18KT 10SM CLR 00/M11 A3017 630 45 -1000 290/15G18 RMK AO2
14837KMSN MSN20031201014510112/01/03 01:45:31  5-MIN KMSN 010745Z 29010G18KT 10SM CLR 00/M11 A3018 630 45 -1000 290/10G18 RMK AO2
14837KMSN MSN20031201015011812/01/03 01:50:31  5-MIN KMSN 010750Z 29013G19KT 10SM CLR 00/M10 A3018 630 47 -1000 290/13G19 RMK AO2 SLP225 T00001100
14837KMSN MSN20031201015510112/01/03 01:55:31  5-MIN KMSN 010755Z 29012G19KT 10SM CLR 00/M11 A3018 630 45 -1000 280/12G19 RMK AO2
14837KMSN MSN20031201020010112/01/03 02:00:31  5-MIN KMSN 010800Z 29010G19KT 10SM CLR 00/M11 A3018 620 45 -1000 290/10G19 RMK AO2
14837KMSN MSN20031201020510112/01/03 02:05:31  5-MIN KMSN 010805Z 29012G18KT 10SM CLR 00/M11 A3019 620 45 -1000 290/12G18 RMK AO2
14837KMSN MSN20031201021010112/01/03 02:10:31  5-MIN KMSN 010810Z 28008G18KT 10SM CLR 00/M11 A3019 620 45 -1000 280/08G18 RMK AO2
14837KMSN MSN20031201021509612/01/03 02:15:31  5-MIN KMSN 010815Z 29008KT 10SM CLR M01/M11 A3019 610 47 -1100 290/08 RMK AO2
14837KMSN MSN20031201022011712/01/03 02:20:31  5-MIN KMSN 010820Z 28009G15KT 250V320 10SM CLR 00/M11 A3020 610 45 -1000 280/09G15 250V320 RMK AO2
14837KMSN MSN20031201022510112/01/03 02:25:31  5-MIN KMSN 010825Z 28011G18KT 10SM CLR 00/M11 A3020 610 45 -1000 280/11G18 RMK AO2
14837KMSN MSN20031201023010212/01/03 02:30:31  5-MIN KMSN 010830Z 28008G18KT 10SM CLR M01/M10 A3020 600 49 -1100 280/08G18 RMK AO2
14837KMSN MSN20031201023509612/01/03 02:35:31  5-MIN KMSN 010835Z 28008KT 10SM CLR M01/M10 A3020 600 49 -1100 280/08 RMK AO2
14837KMSN MSN20031201024009612/01/03 02:40:31  5-MIN KMSN 010840Z 28009KT 10SM CLR M01/M10 A3021 600 49 -1100 280/09 RMK AO2
14837KMSN MSN20031201024509612/01/03 02:45:31  5-MIN KMSN 010845Z 28007KT 10SM CLR M01/M10 A3021 600 49 -1100 280/07 RMK AO2
14837KMSN MSN20031201025011912/01/03 02:50:31  5-MIN KMSN 010850Z 28008KT 10SM CLR M01/M10 A3021 600 49 -1100 280/08 RMK AO2 SLP237 T10061100 52035
14837KMSN MSN20031201025509612/01/03 02:55:31  5-MIN KMSN 010855Z 28008KT 10SM CLR M01/M10 A3022 590 49 -1100 280/08 RMK AO2
14837KMSN MSN20031201030009612/01/03 03:00:31  5-MIN KMSN 010900Z 27008KT 10SM CLR M01/M10 A3022 590 49 -1100 270/08 RMK AO2
14837KMSN MSN20031201030509612/01/03 03:05:31  5-MIN KMSN 010905Z 27007KT 10SM CLR M01/M09 A3022 590 51 -1100 270/07 RMK AO2
14837KMSN MSN20031201031009612/01/03 03:10:31  5-MIN KMSN 010910Z 28009KT 10SM CLR M01/M09 A3022 590 51 -1100 280/09 RMK AO2
14837KMSN MSN20031201031509612/01/03 03:15:31  5-MIN KMSN 010915Z 27007KT 10SM CLR M01/M10 A3022 590 49 -1100 270/07 RMK AO2
14837KMSN MSN20031201032010212/01/03 03:20:31  5-MIN KMSN 010920Z 28012G17KT 10SM CLR M01/M09 A3023 580 51 -1100 280/12G17 RMK AO2
14837KMSN MSN20031201032510212/01/03 03:25:31  5-MIN KMSN 010925Z 27011G17KT 10SM CLR M01/M09 A3023 580 51 -1100 270/11G17 RMK AO2
14837KMSN MSN20031201033009612/01/03 03:30:31  5-MIN KMSN 010930Z 28010KT 10SM CLR M01/M09 A3023 580 51 -1100 280/10 RMK AO2
14837KMSN MSN20031201033509612/01/03 03:35:31  5-MIN KMSN 010935Z 28010KT 10SM CLR M01/M09 A3023 580 51 -1100 280/10 RMK AO2
14837KMSN MSN20031201034009612/01/03 03:40:31  5-MIN KMSN 010940Z 28009KT 10SM CLR M01/M09 A3023 580 51 -1100 270/09 RMK AO2
14837KMSN MSN20031201034509612/01/03 03:45:31  5-MIN KMSN 010945Z 28010KT 10SM CLR M01/M09 A3024 570 53 -1200 280/10 RMK AO2
14837KMSN MSN20031201035012912/01/03 03:50:31  5-MIN KMSN 010950Z 28008KT 230V310 10SM CLR M01/M09 A3024 570 53 -1200 280/08 230V310 RMK AO2 SLP245 T10111094
14837KMSN MSN20031201035509612/01/03 03:55:31  5-MIN KMSN 010955Z 28008KT 10SM CLR M01/M09 A3024 570 53 -1200 280/08 RMK AO2
14837KMSN MSN20031201040009612/01/03 04:00:31  5-MIN KMSN 011000Z 27007KT 10SM CLR M01/M09 A3024 570 53 -1200 270/07 RMK AO2
14837KMSN MSN20031201040509612/01/03 04:05:31  5-MIN KMSN 011005Z 28007KT 10SM CLR M01/M09 A3024 570 53 -1200 280/07 RMK AO2
14837KMSN MSN20031201041009612/01/03 04:10:31  5-MIN KMSN 011010Z 27008KT 10SM CLR M01/M09 A3024 570 53 -1200 270/08 RMK AO2
14837KMSN MSN20031201041509612/01/03 04:15:31  5-MIN KMSN 011015Z 27009KT 10SM CLR M01/M09 A3024 570 53 -1200 270/09 RMK AO2
14837KMSN MSN20031201042009612/01/03 04:20:31  5-MIN KMSN 011020Z 27008KT 10SM CLR M01/M09 A3024 570 53 -1200 270/08 RMK AO2
14837KMSN MSN20031201042509612/01/03 04:25:31  5-MIN KMSN 011025Z 27008KT 10SM CLR M01/M10 A3024 570 51 -1200 270/08 RMK AO2
14837KMSN MSN20031201043009612/01/03 04:30:31  5-MIN KMSN 011030Z 26007KT 10SM CLR M01/M09 A3024 570 53 -1200 260/07 RMK AO2
14837KMSN MSN20031201043509612/01/03 04:35:31  5-MIN KMSN 011035Z 27009KT 10SM CLR M01/M08 A3024 570 58 -1200 270/09 RMK AO2
14837KMSN MSN20031201044011812/01/03 04:40:31  5-MIN KMSN 011040Z 27008G15KT 230V300 10SM CLR M01/M10 A3024 570 51 -1200 270/08G15 230V300 RMK AO2
14837KMSN MSN20031201044510212/01/03 04:45:31  5-MIN KMSN 011045Z 26008G15KT 10SM CLR M01/M10 A3024 570 51 -1200 260/08G15 RMK AO2
14837KMSN MSN20031201045011312/01/03 04:50:31  5-MIN KMSN 011050Z 26008KT 10SM CLR M01/M09 A3024 570 53 -1200 260/08 RMK AO2 SLP248 T10111094
14837KMSN MSN20031201045511212/01/03 04:55:31  5-MIN KMSN 011055Z 27008KT 240V300 10SM CLR M02/M09 A3024 570 55 -1300 270/08 240V300 RMK AO2
14837KMSN MSN20031201050009612/01/03 05:00:31  5-MIN KMSN 011100Z 26008KT 10SM CLR M01/M09 A3025 560 53 -1200 260/08 RMK AO2
14837KMSN MSN20031201050509612/01/03 05:05:31  5-MIN KMSN 011105Z 27007KT 10SM CLR M02/M09 A3025 560 55 -1300 270/07 RMK AO2
14837KMSN MSN20031201051011212/01/03 05:10:31  5-MIN KMSN 011110Z 27008KT 240V300 10SM CLR M02/M09 A3025 560 55 -1300 260/08 240V300 RMK AO2
14837KMSN MSN20031201051509612/01/03 05:15:31  5-MIN KMSN 011115Z 26007KT 10SM CLR M02/M09 A3025 560 55 -1300 260/07 RMK AO2
14837KMSN MSN20031201052009612/01/03 05:20:31  5-MIN KMSN 011120Z 26009KT 10SM CLR M02/M09 A3025 560 55 -1300 260/09 RMK AO2
14837KMSN MSN20031201052509612/01/03 05:25:31  5-MIN KMSN 011125Z 26009KT 10SM CLR M02/M09 A3025 560 55 -1300 260/09 RMK AO2
14837KMSN MSN20031201053009612/01/03 05:30:31  5-MIN KMSN 011130Z 27008KT 10SM CLR M02/M09 A3025 560 55 -1300 270/08 RMK AO2
14837KMSN MSN20031201053509612/01/03 05:35:31  5-MIN KMSN 011135Z VRB06KT 10SM CLR M02/M09 A3025 560 55 -1300 VRB/06 RMK AO2
14837KMSN MSN20031201054009612/01/03 05:40:31  5-MIN KMSN 011140Z 27006KT 10SM CLR M02/M09 A3025 560 55 -1300 270/06 RMK AO2
14837KMSN MSN20031201054509612/01/03 05:45:31  5-MIN KMSN 011145Z 27007KT 10SM CLR M02/M09 A3025 560 55 -1300 270/07 RMK AO2
14837KMSN MSN20031201055013112/01/03 05:50:31  5-MIN KMSN 011150Z 26007KT 10SM CLR M02/M09 A3026 560 58 -1300 260/07 RMK AO2 SLP253 T10171089 10011 21017 53036
14837KMSN MSN20031201055509612/01/03 05:55:31  5-MIN KMSN 011155Z 26007KT 10SM CLR M02/M09 A3026 550 55 -1300 260/07 RMK AO2
14837KMSN MSN20031201060009612/01/03 06:00:31  5-MIN KMSN 011200Z 26008KT 10SM CLR M02/M11 A3026 550 51 -1300 260/08 RMK AO2
14837KMSN MSN20031201060509612/01/03 06:05:31  5-MIN KMSN 011205Z 25007KT 10SM CLR M02/M10 A3026 550 55 -1300 250/07 RMK AO2
14837KMSN MSN20031201061009612/01/03 06:10:31  5-MIN KMSN 011210Z VRB06KT 10SM CLR M02/M09 A3027 550 58 -1300 VRB/06 RMK AO2
14837KMSN MSN20031201061511212/01/03 06:15:31  5-MIN KMSN 011215Z 26008KT 220V290 10SM CLR M02/M10 A3027 550 53 -1300 260/08 220V290 RMK AO2
14837KMSN MSN20031201062009612/01/03 06:20:31  5-MIN KMSN 011220Z 25008KT 10SM CLR M02/M10 A3027 550 53 -1300 250/08 RMK AO2
14837KMSN MSN20031201062511212/01/03 06:25:31  5-MIN KMSN 011225Z 25007KT 210V270 10SM CLR M02/M10 A3027 550 55 -1300 250/07 210V270 RMK AO2
14837KMSN MSN20031201063009612/01/03 06:30:31  5-MIN KMSN 011230Z 25007KT 10SM CLR M02/M10 A3027 550 53 -1300 250/07 RMK AO2
14837KMSN MSN20031201063509612/01/03 06:35:31  5-MIN KMSN 011235Z 25008KT 10SM CLR M02/M10 A3027 550 53 -1300 250/08 RMK AO2
14837KMSN MSN20031201064009612/01/03 06:40:31  5-MIN KMSN 011240Z 25006KT 10SM CLR M02/M10 A3027 550 53 -1300 250/06 RMK AO2
14837KMSN MSN20031201064509612/01/03 06:45:31  5-MIN KMSN 011245Z 24006KT 10SM CLR M02/M10 A3027 550 53 -1300 240/06 RMK AO2
14837KMSN MSN20031201065011312/01/03 06:50:31  5-MIN KMSN 011250Z 24007KT 10SM CLR M02/M10 A3027 550 53 -1300 240/07 RMK AO2 SLP257 T10171100
14837KMSN MSN20031201065509612/01/03 06:55:31  5-MIN KMSN 011255Z 24009KT 10SM CLR M02/M10 A3027 540 53 -1300 240/09 RMK AO2
14837KMSN MSN20031201070011212/01/03 07:00:31  5-MIN KMSN 011300Z 24007KT 200V270 10SM CLR M02/M10 A3027 540 53 -1300 240/07 200V270 RMK AO2
14837KMSN MSN20031201070509612/01/03 07:05:31  5-MIN KMSN 011305Z 24006KT 10SM CLR M02/M09 A3027 540 58 -1300 240/06 RMK AO2
14837KMSN MSN20031201071009612/01/03 07:10:31  5-MIN KMSN 011310Z 25006KT 10SM CLR M02/M10 A3026 550 53 -1300 240/06 RMK AO2
14837KMSN MSN20031201071511212/01/03 07:15:31  5-MIN KMSN 011315Z 25007KT 210V300 10SM CLR M02/M11 A3026 550 49 -1300 250/07 210V300 RMK AO2
14837KMSN MSN20031201072009612/01/03 07:20:31  5-MIN KMSN 011320Z 25008KT 10SM CLR M02/M11 A3027 550 51 -1300 250/08 RMK AO2
14837KMSN MSN20031201072509612/01/03 07:25:31  5-MIN KMSN 011325Z 25008KT 10SM CLR M02/M10 A3027 540 53 -1300 250/08 RMK AO2
14837KMSN MSN20031201073009612/01/03 07:30:31  5-MIN KMSN 011330Z 24005KT 10SM CLR M02/M10 A3027 540 53 -1300 240/05 RMK AO2
14837KMSN MSN20031201073509612/01/03 07:35:31  5-MIN KMSN 011335Z VRB06KT 10SM CLR M02/M10 A3027 540 53 -1300 VRB/06 RMK AO2
14837KMSN MSN20031201074010212/01/03 07:40:31  5-MIN KMSN 011340Z 24011G14KT 10SM CLR M02/M10 A3027 540 53 -1300 240/11G14 RMK AO2
14837KMSN MSN20031201074509612/01/03 07:45:31  5-MIN KMSN 011345Z 24008KT 10SM CLR M02/M10 A3027 540 53 -1300 240/08 RMK AO2
14837KMSN MSN20031201075011912/01/03 07:50:31  5-MIN KMSN 011350Z 25008G14KT 10SM CLR M02/M10 A3028 540 53 -1300 250/08G14 RMK AO2 SLP261 T10171100
14837KMSN MSN20031201075509612/01/03 07:55:31  5-MIN KMSN 011355Z 24008KT 10SM CLR M01/M10 A3028 540 51 -1200 240/08 RMK AO2
14837KMSN MSN20031201080009612/01/03 08:00:31  5-MIN KMSN 011400Z 26006KT 10SM CLR M01/M10 A3028 530 51 -1200 260/06 RMK AO2
14837KMSN MSN20031201080509612/01/03 08:05:31  5-MIN KMSN 011405Z 25009KT 10SM CLR M01/M10 A3028 530 51 -1200 250/09 RMK AO2
14837KMSN MSN20031201081011212/01/03 08:10:31  5-MIN KMSN 011410Z 25008KT 230V310 10SM CLR M01/M10 A3028 530 51 -1200 250/08 230V310 RMK AO2
14837KMSN MSN20031201081510212/01/03 08:15:31  5-MIN KMSN 011415Z 24009G15KT 10SM CLR M01/M10 A3028 530 51 -1200 240/09G15 RMK AO2
14837KMSN MSN20031201082010212/01/03 08:20:31  5-MIN KMSN 011420Z VRB06G15KT 10SM CLR M01/M10 A3028 530 51 -1200 VRB/06G15 RMK AO2
14837KMSN MSN20031201082509612/01/03 08:25:31  5-MIN KMSN 011425Z 26010KT 10SM CLR M01/M10 A3029 530 49 -1200 260/10 RMK AO2
14837KMSN MSN20031201083010212/01/03 08:30:31  5-MIN KMSN 011430Z 25010G16KT 10SM CLR M01/M09 A3029 530 51 -1200 250/10G16 RMK AO2
14837KMSN MSN20031201083511812/01/03 08:35:31  5-MIN KMSN 011435Z 26009G16KT 220V290 10SM CLR M01/M10 A3029 530 49 -1200 260/09G16 220V290 RMK AO2
14837KMSN MSN20031201084010212/01/03 08:40:31  5-MIN KMSN 011440Z 25009G15KT 10SM CLR M01/M09 A3029 520 51 -1200 250/09G15 RMK AO2
14837KMSN MSN20031201084510112/01/03 08:45:31  5-MIN KMSN 011445Z 26011G17KT 10SM CLR 00/M09 A3029 520 49 -1100 250/11G17 RMK AO2
14837KMSN MSN20031201085012412/01/03 08:50:31  5-MIN KMSN 011450Z 26011G17KT 10SM CLR 00/M09 A3030 520 49 -1100 260/11G17 RMK AO2 SLP269 T00001094 51014
14837KMSN MSN20031201085510112/01/03 08:55:31  5-MIN KMSN 011455Z 27010G17KT 10SM CLR 00/M09 A3030 520 49 -1100 270/10G17 RMK AO2
14837KMSN MSN20031201090011712/01/03 09:00:31  5-MIN KMSN 011500Z 26008G16KT 220V300 10SM CLR 00/M09 A3030 520 49 -1100 260/08G16 220V300 RMK AO2
14837KMSN MSN20031201090510112/01/03 09:05:31  5-MIN KMSN 011505Z 27013G20KT 10SM CLR 00/M10 A3030 520 47 -1100 270/13G20 RMK AO2
14837KMSN MSN20031201091010112/01/03 09:10:31  5-MIN KMSN 011510Z 27010G20KT 10SM CLR 01/M09 A3030 510 47 -1000 270/10G20 RMK AO2
14837KMSN MSN20031201091510112/01/03 09:15:31  5-MIN KMSN 011515Z 27013G17KT 10SM CLR 01/M10 A3030 510 45 -1000 260/13G17 RMK AO2
14837KMSN MSN20031201092010112/01/03 09:20:31  5-MIN KMSN 011520Z 26010G17KT 10SM CLR 01/M09 A3030 510 47 -1000 260/10G17 RMK AO2
14837KMSN MSN20031201092510112/01/03 09:25:31  5-MIN KMSN 011525Z 26011G24KT 10SM CLR 01/M10 A3031 510 45 -1000 260/11G24 RMK AO2
14837KMSN MSN20031201093010112/01/03 09:30:31  5-MIN KMSN 011530Z 27013G24KT 10SM CLR 01/M09 A3031 510 47 -1000 270/13G24 RMK AO2
14837KMSN MSN20031201093510112/01/03 09:35:31  5-MIN KMSN 011535Z 27013G20KT 10SM CLR 01/M09 A3031 510 47 -1000 270/13G20 RMK AO2
14837KMSN MSN20031201094010112/01/03 09:40:31  5-MIN KMSN 011540Z 28011G19KT 10SM CLR 01/M09 A3031 500 45 -1000 280/11G19 RMK AO2
14837KMSN MSN20031201094511712/01/03 09:45:31  5-MIN KMSN 011545Z 26011G17KT 220V290 10SM CLR 01/M09 A3031 500 45 -1000 260/11G17 220V290 RMK AO2
14837KMSN MSN20031201095011812/01/03 09:50:31  5-MIN KMSN 011550Z 28013G20KT 10SM CLR 01/M09 A3032 500 45 -1000 280/13G20 RMK AO2 SLP275 T00111094
14837KMSN MSN20031201095510012/01/03 09:55:31  5-MIN KMSN 011555Z 28013G20KT 10SM CLR 02/M09 A3032 500 43 -900 280/13G20 RMK AO2
14837KMSN MSN20031201100010112/01/03 10:00:31  5-MIN KMSN 011600Z 28011G20KT 10SM CLR 01/M09 A3032 500 45 -1000 280/11G20 RMK AO2
14837KMSN MSN20031201100510012/01/03 10:05:31  5-MIN KMSN 011605Z 27012G18KT 10SM CLR 02/M09 A3032 500 43 -900 270/12G18 RMK AO2
14837KMSN MSN20031201101010012/01/03 10:10:31  5-MIN KMSN 011610Z 28012G19KT 10SM CLR 02/M09 A3032 500 43 -900 280/12G19 RMK AO2
14837KMSN MSN20031201101511612/01/03 10:15:31  5-MIN KMSN 011615Z 28013G21KT 250V310 10SM CLR 02/M09 A3032 500 43 -900 280/13G21 250V310 RMK AO2
14837KMSN MSN20031201102010012/01/03 10:20:31  5-MIN KMSN 011620Z 29014G21KT 10SM CLR 02/M09 A3032 500 43 -900 290/14G21 RMK AO2
14837KMSN MSN20031201102510012/01/03 10:25:31  5-MIN KMSN 011625Z 27013G20KT 10SM CLR 02/M10 A3031 500 40 -800 270/13G20 RMK AO2
14837KMSN MSN20031201103010012/01/03 10:30:31  5-MIN KMSN 011630Z 29016G22KT 10SM CLR 02/M09 A3032 500 42 -800 290/16G22 RMK AO2
14837KMSN MSN20031201103510012/01/03 10:35:31  5-MIN KMSN 011635Z 28012G22KT 10SM CLR 02/M10 A3031 500 40 -800 280/12G22 RMK AO2
14837KMSN MSN20031201104009412/01/03 10:40:31  5-MIN KMSN 011640Z 28010KT 10SM CLR 02/M10 A3031 500 40 -800 280/10 RMK AO2
14837KMSN MSN20031201104510012/01/03 10:45:31  5-MIN KMSN 011645Z 29015G20KT 10SM CLR 02/M10 A3031 500 40 -800 290/15G20 RMK AO2
14837KMSN MSN20031201105011712/01/03 10:50:31  5-MIN KMSN 011650Z 28014G21KT 10SM CLR 02/M10 A3031 500 40 -800 280/14G21 RMK AO2 SLP274 T00221100
14837KMSN MSN20031201105510012/01/03 10:55:31  5-MIN KMSN 011655Z 29015G21KT 10SM CLR 03/M10 A3031 510 38 -800 290/15G21 RMK AO2
14837KMSN MSN20031201110010012/01/03 11:00:31  5-MIN KMSN 011700Z 29013G24KT 10SM CLR 03/M10 A3031 510 38 -800 290/13G24 RMK AO2
14837KMSN MSN20031201110510012/01/03 11:05:31  5-MIN KMSN 011705Z 28013G24KT 10SM CLR 03/M10 A3031 510 38 -800 280/13G24 RMK AO2
14837KMSN MSN20031201111010012/01/03 11:10:31  5-MIN KMSN 011710Z 28013G21KT 10SM CLR 03/M11 A3031 510 37 -800 280/13G21 RMK AO2
14837KMSN MSN20031201111510012/01/03 11:15:31  5-MIN KMSN 011715Z 28015G25KT 10SM CLR 03/M11 A3031 510 35 -800 280/15G25 RMK AO2
14837KMSN MSN20031201112010012/01/03 11:20:31  5-MIN KMSN 011720Z 28012G25KT 10SM CLR 03/M11 A3031 510 35 -800 280/12G25 RMK AO2
14837KMSN MSN20031201112510012/01/03 11:25:31  5-MIN KMSN 011725Z 28013G22KT 10SM CLR 03/M11 A3031 510 35 -800 280/13G22 RMK AO2
14837KMSN MSN20031201113010012/01/03 11:30:31  5-MIN KMSN 011730Z 28014G22KT 10SM CLR 03/M11 A3030 510 35 -800 280/14G22 RMK AO2
14837KMSN MSN20031201113510012/01/03 11:35:31  5-MIN KMSN 011735Z 29011G20KT 10SM CLR 03/M12 A3030 510 34 -800 280/11G20 RMK AO2
14837KMSN MSN20031201114010012/01/03 11:40:31  5-MIN KMSN 011740Z 29015G23KT 10SM CLR 03/M11 A3030 510 35 -800 290/15G23 RMK AO2
14837KMSN MSN20031201114510012/01/03 11:45:31  5-MIN KMSN 011745Z 27013G23KT 10SM CLR 03/M12 A3030 510 32 -700 270/13G23 RMK AO2
14837KMSN MSN20031201115015112/01/03 11:50:31  5-MIN KMSN 011750Z 28014G18KT 260V320 10SM CLR 03/M11 A3030 510 34 -700 280/14G18 260V320 RMK AO2 SLP269 T00331111 10033 21022 53013
14837KMSN MSN20031201115510012/01/03 11:55:31  5-MIN KMSN 011755Z 28011G19KT 10SM CLR 03/M11 A3030 510 34 -700 280/11G19 RMK AO2
14837KMSN MSN20031201120010012/01/03 12:00:31  5-MIN KMSN 011800Z 27014G21KT 10SM CLR 04/M11 A3030 510 32 -600 270/14G21 RMK AO2
14837KMSN MSN20031201120510012/01/03 12:05:31  5-MIN KMSN 011805Z 29017G24KT 10SM CLR 04/M13 A3030 510 28 -600 290/17G24 RMK AO2
14837KMSN MSN20031201121010012/01/03 12:10:31  5-MIN KMSN 011810Z 30017G25KT 10SM CLR 04/M14 A3030 520 26 -600 300/17G25 RMK AO2
14837KMSN MSN20031201121510012/01/03 12:15:31  5-MIN KMSN 011815Z 30015G25KT 10SM CLR 04/M14 A3030 510 26 -600 300/15G25 RMK AO2
14837KMSN MSN20031201122010012/01/03 12:20:31  5-MIN KMSN 011820Z 30014G20KT 10SM CLR 04/M14 A3030 510 25 -600 300/14G20 RMK AO2
14837KMSN MSN20031201122510012/01/03 12:25:31  5-MIN KMSN 011825Z 29016G24KT 10SM CLR 04/M14 A3030 510 25 -600 290/16G24 RMK AO2
14837KMSN MSN20031201123010012/01/03 12:30:31  5-MIN KMSN 011830Z 29015G24KT 10SM CLR 04/M14 A3030 510 25 -600 290/15G24 RMK AO2
14837KMSN MSN20031201123510012/01/03 12:35:31  5-MIN KMSN 011835Z 29017G24KT 10SM CLR 04/M14 A3031 510 25 -600 290/17G24 RMK AO2
14837KMSN MSN20031201124010012/01/03 12:40:31  5-MIN KMSN 011840Z 29015G24KT 10SM CLR 04/M14 A3031 510 26 -600 290/15G24 RMK AO2
14837KMSN MSN20031201124510012/01/03 12:45:31  5-MIN KMSN 011845Z 29015G23KT 10SM CLR 04/M14 A3030 510 25 -600 290/15G23 RMK AO2
14837KMSN MSN20031201125011712/01/03 12:50:31  5-MIN KMSN 011850Z 29013G23KT 10SM CLR 04/M14 A3030 510 25 -600 290/13G23 RMK AO2 SLP271 T00391144
14837KMSN MSN20031201125510012/01/03 12:55:31  5-MIN KMSN 011855Z 29013G21KT 10SM CLR 04/M14 A3031 510 26 -600 290/13G21 RMK AO2
14837KMSN MSN20031201130010012/01/03 13:00:31  5-MIN KMSN 011900Z 28013G24KT 10SM CLR 04/M14 A3031 510 26 -600 280/13G24 RMK AO2
14837KMSN MSN20031201130510012/01/03 13:05:31  5-MIN KMSN 011905Z 28015G24KT 10SM CLR 04/M14 A3031 510 26 -600 280/15G24 RMK AO2
14837KMSN MSN20031201131010012/01/03 13:10:31  5-MIN KMSN 011910Z 29014G23KT 10SM CLR 04/M14 A3031 510 26 -600 290/14G23 RMK AO2
14837KMSN MSN20031201131510012/01/03 13:15:31  5-MIN KMSN 011915Z 29012G20KT 10SM CLR 04/M13 A3031 510 27 -600 280/12G20 RMK AO2
14837KMSN MSN20031201132010012/01/03 13:20:31  5-MIN KMSN 011920Z 29011G24KT 10SM CLR 04/M14 A3031 510 26 -600 290/11G24 RMK AO2
14837KMSN MSN20031201132510012/01/03 13:25:31  5-MIN KMSN 011925Z 29014G24KT 10SM CLR 04/M14 A3031 500 26 -600 290/14G24 RMK AO2
14837KMSN MSN20031201133010012/01/03 13:30:31  5-MIN KMSN 011930Z 30016G24KT 10SM CLR 04/M14 A3031 500 26 -600 290/16G24 RMK AO2
14837KMSN MSN20031201133510012/01/03 13:35:31  5-MIN KMSN 011935Z 29017G24KT 10SM CLR 04/M14 A3031 500 26 -600 290/17G24 RMK AO2
14837KMSN MSN20031201134010012/01/03 13:40:31  5-MIN KMSN 011940Z 28013G23KT 10SM CLR 04/M14 A3032 500 26 -600 280/13G23 RMK AO2
14837KMSN MSN20031201134510012/01/03 13:45:31  5-MIN KMSN 011945Z 27016G24KT 10SM CLR 04/M14 A3032 490 26 -600 270/16G24 RMK AO2
14837KMSN MSN20031201135011712/01/03 13:50:31  5-MIN KMSN 011950Z 27017G24KT 10SM CLR 04/M14 A3032 500 25 -600 270/17G24 RMK AO2 SLP275 T00391144
14837KMSN MSN20031201135510012/01/03 13:55:31  5-MIN KMSN 011955Z 29018G23KT 10SM CLR 04/M15 A3032 490 24 -600 290/18G23 RMK AO2
14837KMSN MSN20031201140010012/01/03 14:00:31  5-MIN KMSN 012000Z 30015G25KT 10SM CLR 04/M15 A3032 500 24 -600 300/15G25 RMK AO2
14837KMSN MSN20031201140510012/01/03 14:05:31  5-MIN KMSN 012005Z 30017G25KT 10SM CLR 04/M15 A3032 490 24 -600 300/17G25 RMK AO2
14837KMSN MSN20031201141011812/01/03 14:10:31  5-MIN KMSN 012010Z 28015G28KT 10SM CLR 04/M15 A3032 490 24 -600 280/15G28 RMK AO2 PK WND 27028/2010
14837KMSN MSN20031201141511812/01/03 14:15:31  5-MIN KMSN 012015Z 29017G28KT 10SM CLR 04/M16 A3033 490 23 -600 290/17G28 RMK AO2 PK WND 27028/2010
14837KMSN MSN20031201142011812/01/03 14:20:31  5-MIN KMSN 012020Z 29016G27KT 10SM CLR 04/M15 A3033 490 24 -600 290/16G27 RMK AO2 PK WND 27028/2010
14837KMSN MSN20031201142511812/01/03 14:25:31  5-MIN KMSN 012025Z 28014G25KT 10SM CLR 04/M16 A3033 490 23 -600 280/14G25 RMK AO2 PK WND 27028/2010
14837KMSN MSN20031201143011812/01/03 14:30:31  5-MIN KMSN 012030Z 30017G27KT 10SM CLR 04/M15 A3033 490 24 -700 300/17G27 RMK AO2 PK WND 27028/2010
14837KMSN MSN20031201143511812/01/03 14:35:31  5-MIN KMSN 012035Z 30013G27KT 10SM CLR 04/M15 A3033 480 24 -700 300/13G27 RMK AO2 PK WND 27028/2010
14837KMSN MSN20031201144011812/01/03 14:40:31  5-MIN KMSN 012040Z 29013G20KT 10SM CLR 04/M15 A3033 480 24 -700 290/13G20 RMK AO2 PK WND 27028/2010
14837KMSN MSN20031201144511812/01/03 14:45:31  5-MIN KMSN 012045Z 29012G20KT 10SM CLR 04/M15 A3034 480 24 -700 290/12G20 RMK AO2 PK WND 27028/2010
14837KMSN MSN20031201145015712/01/03 14:50:31  5-MIN KMSN 012050Z 31011G17KT 280V340 10SM CLR 04/M14 A3034 480 25 -700 310/11G17 280V340 RMK AO2 PK WND 27028/2010 SLP282 T00391144 50001
14837KMSN MSN20031201145510012/01/03 14:55:31  5-MIN KMSN 012055Z 30014G22KT 10SM CLR 04/M14 A3034 480 25 -700 300/14G22 RMK AO2
14837KMSN MSN20031201150010012/01/03 15:00:31  5-MIN KMSN 012100Z 29012G22KT 10SM CLR 03/M15 A3034 470 25 -700 290/12G22 RMK AO2
14837KMSN MSN20031201150511612/01/03 15:05:31  5-MIN KMSN 012105Z 29013G23KT 270V330 10SM CLR 03/M15 A3035 470 25 -700 290/13G23 270V330 RMK AO2
14837KMSN MSN20031201151010012/01/03 15:10:31  5-MIN KMSN 012110Z 29014G23KT 10SM CLR 03/M15 A3035 470 25 -700 290/14G23 RMK AO2
14837KMSN MSN20031201151510012/01/03 15:15:31  5-MIN KMSN 012115Z 30011G19KT 10SM CLR 03/M14 A3035 470 26 -700 300/11G19 RMK AO2
14837KMSN MSN20031201152011612/01/03 15:20:31  5-MIN KMSN 012120Z 28011G19KT 250V320 10SM CLR 03/M14 A3035 470 26 -700 280/11G19 250V320 RMK AO2
14837KMSN MSN20031201152510012/01/03 15:25:31  5-MIN KMSN 012125Z 30014G19KT 10SM CLR 03/M15 A3036 460 26 -800 300/14G19 RMK AO2
14837KMSN MSN20031201153010012/01/03 15:30:31  5-MIN KMSN 012130Z 28012G19KT 10SM CLR 03/M14 A3036 460 27 -800 280/12G19 RMK AO2
14837KMSN MSN20031201153510012/01/03 15:35:31  5-MIN KMSN 012135Z 28014G20KT 10SM CLR 03/M15 A3037 460 26 -800 280/14G20 RMK AO2
14837KMSN MSN20031201154010012/01/03 15:40:31  5-MIN KMSN 012140Z 29013G20KT 10SM CLR 03/M14 A3037 450 27 -800 290/13G20 RMK AO2
14837KMSN MSN20031201154510012/01/03 15:45:31  5-MIN KMSN 012145Z 29011G20KT 10SM CLR 02/M14 A3037 450 28 -900 290/11G20 RMK AO2
14837KMSN MSN20031201155011712/01/03 15:50:31  5-MIN KMSN 012150Z 29011G17KT 10SM CLR 02/M14 A3037 450 28 -900 290/11G17 RMK AO2 SLP295 T00221144
14837KMSN MSN20031201155510012/01/03 15:55:31  5-MIN KMSN 012155Z 28008G17KT 10SM CLR 02/M14 A3037 450 28 -900 280/08G17 RMK AO2
14837KMSN MSN20031201160009412/01/03 16:00:31  5-MIN KMSN 012200Z 29009KT 10SM CLR 02/M14 A3037 450 28 -900 290/09 RMK AO2
14837KMSN MSN20031201160510012/01/03 16:05:31  5-MIN KMSN 012205Z 29011G19KT 10SM CLR 02/M14 A3037 450 28 -900 290/11G19 RMK AO2
14837KMSN MSN20031201161010112/01/03 16:10:31  5-MIN KMSN 012210Z 29009G19KT 10SM CLR 02/M14 A3038 450 30 -1000 290/09G19 RMK AO2
14837KMSN MSN20031201161511712/01/03 16:15:31  5-MIN KMSN 012215Z 29011G18KT 250V310 10SM CLR 02/M14 A3038 440 29 -1000 290/11G18 250V310 RMK AO2
14837KMSN MSN20031201162010112/01/03 16:20:31  5-MIN KMSN 012220Z 30012G18KT 10SM CLR 02/M14 A3038 440 29 -1000 300/12G18 RMK AO2
14837KMSN MSN20031201162510112/01/03 16:25:31  5-MIN KMSN 012225Z 29010G17KT 10SM CLR 02/M14 A3038 440 29 -1000 290/10G17 RMK AO2
14837KMSN MSN20031201163010112/01/03 16:30:31  5-MIN KMSN 012230Z 30009G17KT 10SM CLR 02/M14 A3038 440 30 -1000 290/09G17 RMK AO2
14837KMSN MSN20031201163510112/01/03 16:35:31  5-MIN KMSN 012235Z 30012G17KT 10SM CLR 02/M14 A3038 440 30 -1000 290/12G17 RMK AO2
14837KMSN MSN20031201164010112/01/03 16:40:31  5-MIN KMSN 012240Z 28009G17KT 10SM CLR 02/M14 A3039 440 30 -1000 280/09G17 RMK AO2
14837KMSN MSN20031201164509512/01/03 16:45:31  5-MIN KMSN 012245Z 28008KT 10SM CLR 01/M14 A3039 430 32 -1100 280/08 RMK AO2
14837KMSN MSN20031201165011212/01/03 16:50:31  5-MIN KMSN 012250Z 29010KT 10SM CLR 01/M14 A3039 430 32 -1100 290/10 RMK AO2 SLP301 T00111139
14837KMSN MSN20031201165509512/01/03 16:55:31  5-MIN KMSN 012255Z 29009KT 10SM CLR 01/M13 A3039 430 33 -1100 290/09 RMK AO2
14837KMSN MSN20031201170009512/01/03 17:00:31  5-MIN KMSN 012300Z 29008KT 10SM CLR 01/M13 A3039 430 33 -1100 290/08 RMK AO2
14837KMSN MSN20031201170510112/01/03 17:05:31  5-MIN KMSN 012305Z 29010G15KT 10SM CLR 01/M13 A3039 430 33 -1100 280/10G15 RMK AO2
14837KMSN MSN20031201171009512/01/03 17:10:31  5-MIN KMSN 012310Z 29011KT 10SM CLR 01/M13 A3039 430 33 -1100 290/11 RMK AO2
14837KMSN MSN20031201171510112/01/03 17:15:31  5-MIN KMSN 012315Z 29010G14KT 10SM CLR 01/M13 A3040 430 35 -1100 280/10G14 RMK AO2
14837KMSN MSN20031201172010112/01/03 17:20:31  5-MIN KMSN 012320Z 29010G15KT 10SM CLR 01/M13 A3040 420 35 -1100 290/10G15 RMK AO2
14837KMSN MSN20031201172509512/01/03 17:25:31  5-MIN KMSN 012325Z 29010KT 10SM CLR 01/M13 A3040 420 35 -1100 290/10 RMK AO2
14837KMSN MSN20031201173009512/01/03 17:30:31  5-MIN KMSN 012330Z 28009KT 10SM CLR 01/M13 A3040 420 36 -1200 280/09 RMK AO2
14837KMSN MSN20031201173509512/01/03 17:35:31  5-MIN KMSN 012335Z 28008KT 10SM CLR 01/M13 A3041 420 35 -1200 280/08 RMK AO2
14837KMSN MSN20031201174009512/01/03 17:40:31  5-MIN KMSN 012340Z 29008KT 10SM CLR 00/M13 A3041 420 38 -1200 290/08 RMK AO2
14837KMSN MSN20031201174510112/01/03 17:45:31  5-MIN KMSN 012345Z 29009G15KT 10SM CLR 01/M13 A3041 420 36 -1200 290/09G15 RMK AO2
14837KMSN MSN20031201175013612/01/03 17:50:31  5-MIN KMSN 012350Z 28008G16KT 10SM CLR 01/M13 A3041 410 36 -1200 280/08G16 RMK AO2 SLP309 T00061128 10039 20000 53014
14837KMSN MSN20031201175510112/01/03 17:55:31  5-MIN KMSN 012355Z 28008G16KT 10SM CLR 01/M13 A3041 410 36 -1200 280/08G16 RMK AO2
14837KMSN MSN20031201180009512/01/03 18:00:31  5-MIN KMSN 020000Z 28008KT 10SM CLR 00/M13 A3041 410 38 -1200 280/08 RMK AO2
14837KMSN MSN20031201180509512/01/03 18:05:31  5-MIN KMSN 020005Z 28009KT 10SM CLR 00/M13 A3041 410 38 -1200 280/09 RMK AO2
14837KMSN MSN20031201181009512/01/03 18:10:31  5-MIN KMSN 020010Z 28007KT 10SM CLR 00/M13 A3041 410 38 -1200 280/07 RMK AO2
14837KMSN MSN20031201181509512/01/03 18:15:31  5-MIN KMSN 020015Z 28009KT 10SM CLR 00/M12 A3041 410 39 -1200 280/09 RMK AO2
14837KMSN MSN20031201182009512/01/03 18:20:31  5-MIN KMSN 020020Z 27008KT 10SM CLR 00/M12 A3041 410 39 -1200 270/08 RMK AO2
14837KMSN MSN20031201182509512/01/03 18:25:31  5-MIN KMSN 020025Z 28007KT 10SM CLR 00/M13 A3042 410 38 -1200 280/07 RMK AO2
14837KMSN MSN20031201183009512/01/03 18:30:31  5-MIN KMSN 020030Z 27006KT 10SM CLR 00/M13 A3042 400 36 -1200 270/06 RMK AO2
14837KMSN MSN20031201183509612/01/03 18:35:31  5-MIN KMSN 020035Z 27006KT 10SM CLR M01/M13 A3042 400 39 -1300 270/06 RMK AO2
14837KMSN MSN20031201184009612/01/03 18:40:31  5-MIN KMSN 020040Z 27005KT 10SM CLR M01/M13 A3042 400 39 -1300 270/05 RMK AO2
14837KMSN MSN20031201184509612/01/03 18:45:31  5-MIN KMSN 020045Z 27006KT 10SM CLR M01/M13 A3043 400 39 -1300 270/06 RMK AO2
14837KMSN MSN20031201185011312/01/03 18:50:31  5-MIN KMSN 020050Z 26006KT 10SM CLR M01/M13 A3043 400 41 -1400 260/06 RMK AO2 SLP315 T10111128
14837KMSN MSN20031201185509612/01/03 18:55:31  5-MIN KMSN 020055Z 27006KT 10SM CLR M01/M12 A3043 400 43 -1400 270/06 RMK AO2
14837KMSN MSN20031201190009612/01/03 19:00:31  5-MIN KMSN 020100Z 27007KT 10SM CLR M01/M12 A3043 400 43 -1400 270/07 RMK AO2
14837KMSN MSN20031201190511212/01/03 19:05:31  5-MIN KMSN 020105Z 28007KT 240V310 10SM CLR M01/M12 A3043 400 43 -1400 280/07 240V310 RMK AO2
14837KMSN MSN20031201191009612/01/03 19:10:31  5-MIN KMSN 020110Z 28008KT 10SM CLR M01/M12 A3043 400 43 -1400 280/08 RMK AO2
14837KMSN MSN20031201191509612/01/03 19:15:31  5-MIN KMSN 020115Z 28008KT 10SM CLR M01/M12 A3043 390 43 -1400 280/08 RMK AO2
14837KMSN MSN20031201192009612/01/03 19:20:31  5-MIN KMSN 020120Z 29007KT 10SM CLR M01/M12 A3044 390 43 -1400 280/07 RMK AO2
14837KMSN MSN20031201192509612/01/03 19:25:31  5-MIN KMSN 020125Z 29008KT 10SM CLR M01/M12 A3044 390 43 -1400 290/08 RMK AO2
14837KMSN MSN20031201193009612/01/03 19:30:31  5-MIN KMSN 020130Z 29007KT 10SM CLR M01/M12 A3044 380 45 -1400 290/07 RMK AO2
14837KMSN MSN20031201193509612/01/03 19:35:31  5-MIN KMSN 020135Z 29007KT 10SM CLR M01/M12 A3045 380 45 -1400 290/07 RMK AO2
14837KMSN MSN20031201194009612/01/03 19:40:31  5-MIN KMSN 020140Z 30006KT 10SM CLR M02/M12 A3045 380 46 -1500 300/06 RMK AO2
14837KMSN MSN20031201194509612/01/03 19:45:31  5-MIN KMSN 020145Z 30004KT 10SM CLR M02/M12 A3045 380 46 -1500 300/04 RMK AO2
14837KMSN MSN20031201195011312/01/03 19:50:31  5-MIN KMSN 020150Z VRB04KT 10SM CLR M02/M12 A3045 380 46 -1500 VRB/04 RMK AO2 SLP323 T10171117
14837KMSN MSN20031201195509612/01/03 19:55:31  5-MIN KMSN 020155Z 30005KT 10SM CLR M02/M12 A3045 380 46 -1500 300/05 RMK AO2
14837KMSN MSN20031201200009612/01/03 20:00:31  5-MIN KMSN 020200Z 29005KT 10SM CLR M02/M12 A3045 380 44 -1500 290/05 RMK AO2
14837KMSN MSN20031201200509612/01/03 20:05:31  5-MIN KMSN 020205Z 30006KT 10SM CLR M02/M12 A3045 380 46 -1500 300/06 RMK AO2
14837KMSN MSN20031201201009612/01/03 20:10:31  5-MIN KMSN 020210Z 29005KT 10SM CLR M02/M12 A3045 380 46 -1500 290/05 RMK AO2
14837KMSN MSN20031201201509612/01/03 20:15:31  5-MIN KMSN 020215Z 30004KT 10SM CLR M02/M12 A3045 370 46 -1500 290/04 RMK AO2
14837KMSN MSN20031201202009612/01/03 20:20:31  5-MIN KMSN 020220Z 30006KT 10SM CLR M02/M12 A3046 370 48 -1600 300/06 RMK AO2
14837KMSN MSN20031201202509612/01/03 20:25:31  5-MIN KMSN 020225Z 30006KT 10SM CLR M02/M12 A3046 370 46 -1500 290/06 RMK AO2
14837KMSN MSN20031201203009612/01/03 20:30:31  5-MIN KMSN 020230Z 29005KT 10SM CLR M02/M12 A3046 370 48 -1600 290/05 RMK AO2
14837KMSN MSN20031201203509612/01/03 20:35:31  5-MIN KMSN 020235Z 29006KT 10SM CLR M02/M12 A3046 370 48 -1600 290/06 RMK AO2
14837KMSN MSN20031201204009612/01/03 20:40:31  5-MIN KMSN 020240Z 30005KT 10SM CLR M02/M12 A3046 370 48 -1600 290/05 RMK AO2
14837KMSN MSN20031201204509612/01/03 20:45:31  5-MIN KMSN 020245Z 29006KT 10SM CLR M02/M12 A3046 370 48 -1600 290/06 RMK AO2
14837KMSN MSN20031201205011912/01/03 20:50:31  5-MIN KMSN 020250Z 29004KT 10SM CLR M02/M12 A3046 360 48 -1600 290/04 RMK AO2 SLP328 T10221117 51023
14837KMSN MSN20031201205509612/01/03 20:55:31  5-MIN KMSN 020255Z 30005KT 10SM CLR M02/M12 A3046 360 48 -1600 290/05 RMK AO2
14837KMSN MSN20031201210009612/01/03 21:00:31  5-MIN KMSN 020300Z 28004KT 10SM CLR M02/M12 A3046 360 48 -1600 280/04 RMK AO2
14837KMSN MSN20031201210509612/01/03 21:05:31  5-MIN KMSN 020305Z 28004KT 10SM CLR M02/M11 A3047 360 51 -1600 280/04 RMK AO2
14837KMSN MSN20031201211009612/01/03 21:10:31  5-MIN KMSN 020310Z VRB03KT 10SM CLR M03/M12 A3047 360 48 -1600 VRB/03 RMK AO2
14837KMSN MSN20031201211509612/01/03 21:15:31  5-MIN KMSN 020315Z VRB04KT 10SM CLR M03/M12 A3047 360 48 -1600 VRB/04 RMK AO2
14837KMSN MSN20031201212009612/01/03 21:20:31  5-MIN KMSN 020320Z VRB03KT 10SM CLR M03/M12 A3047 360 50 -1600 VRB/03 RMK AO2
14837KMSN MSN20031201212509612/01/03 21:25:31  5-MIN KMSN 020325Z 27003KT 10SM CLR M03/M12 A3047 360 53 -1700 260/03 RMK AO2
14837KMSN MSN20031201213009612/01/03 21:30:31  5-MIN KMSN 020330Z 28003KT 10SM CLR M03/M12 A3047 360 53 -1700 280/03 RMK AO2
14837KMSN MSN20031201213509612/01/03 21:35:31  5-MIN KMSN 020335Z 26003KT 10SM CLR M03/M11 A3047 360 55 -1700 260/03 RMK AO2
14837KMSN MSN20031201214009612/01/03 21:40:31  5-MIN KMSN 020340Z 27004KT 10SM CLR M04/M11 A3047 360 57 -1800 270/04 RMK AO2
14837KMSN MSN20031201214509612/01/03 21:45:31  5-MIN KMSN 020345Z 28004KT 10SM CLR M03/M11 A3047 360 55 -1700 280/04 RMK AO2
14837KMSN MSN20031201215011312/01/03 21:50:31  5-MIN KMSN 020350Z 27004KT 10SM CLR M03/M11 A3047 360 55 -1700 270/04 RMK AO2 SLP330 T10331111
14837KMSN MSN20031201215509612/01/03 21:55:31  5-MIN KMSN 020355Z 28004KT 10SM CLR M03/M12 A3047 360 53 -1700 280/04 RMK AO2
14837KMSN MSN20031201220009612/01/03 22:00:31  5-MIN KMSN 020400Z 28005KT 10SM CLR M03/M12 A3047 360 53 -1700 280/05 RMK AO2
14837KMSN MSN20031201220509612/01/03 22:05:31  5-MIN KMSN 020405Z 29004KT 10SM CLR M03/M12 A3047 360 53 -1700 290/04 RMK AO2
14837KMSN MSN20031201221009612/01/03 22:10:31  5-MIN KMSN 020410Z 28005KT 10SM CLR M03/M12 A3047 360 50 -1700 280/05 RMK AO2
14837KMSN MSN20031201221509612/01/03 22:15:31  5-MIN KMSN 020415Z 29004KT 10SM CLR M03/M12 A3047 360 53 -1700 290/04 RMK AO2
14837KMSN MSN20031201222009612/01/03 22:20:31  5-MIN KMSN 020420Z VRB03KT 10SM CLR M03/M12 A3047 360 53 -1700 VRB/03 RMK AO2
14837KMSN MSN20031201222509612/01/03 22:25:31  5-MIN KMSN 020425Z 00000KT 10SM CLR M03/M11 A3047 360 55 -1700 000/00 RMK AO2
14837KMSN MSN20031201223009612/01/03 22:30:31  5-MIN KMSN 020430Z 00000KT 10SM CLR M03/M12 A3047 360 50 -1700 000/00 RMK AO2
14837KMSN MSN20031201223509612/01/03 22:35:31  5-MIN KMSN 020435Z 00000KT 10SM CLR M04/M12 A3048 350 52 -1800 000/00 RMK AO2
14837KMSN MSN20031201224009612/01/03 22:40:31  5-MIN KMSN 020440Z 00000KT 10SM CLR M03/M12 A3048 350 50 -1700 000/00 RMK AO2
14837KMSN MSN20031201224509612/01/03 22:45:31  5-MIN KMSN 020445Z 00000KT 10SM CLR M04/M12 A3048 350 55 -1900 000/00 RMK AO2
14837KMSN MSN20031201225011312/01/03 22:50:31  5-MIN KMSN 020450Z 00000KT 10SM CLR M05/M12 A3048 350 57 -1900 000/00 RMK AO2 SLP332 T10501122
14837KMSN MSN20031201225509612/01/03 22:55:31  5-MIN KMSN 020455Z 00000KT 10SM CLR M04/M12 A3048 350 57 -1900 000/00 RMK AO2
14837KMSN MSN20031201230009612/01/03 23:00:31  5-MIN KMSN 020500Z 00000KT 10SM CLR M04/M11 A3048 350 60 -1900 000/00 RMK AO2
14837KMSN MSN20031201230509612/01/03 23:05:31  5-MIN KMSN 020505Z 00000KT 10SM CLR M04/M11 A3048 350 60 -1900 000/00 RMK AO2
14837KMSN MSN20031201231009612/01/03 23:10:31  5-MIN KMSN 020510Z 00000KT 10SM CLR M05/M11 A3048 350 62 -1900 000/00 RMK AO2
14837KMSN MSN20031201231509612/01/03 23:15:31  5-MIN KMSN 020515Z 00000KT 10SM CLR M05/M13 A3048 350 52 -1900 000/00 RMK AO2
14837KMSN MSN20031201232009612/01/03 23:20:31  5-MIN KMSN 020520Z 00000KT 10SM CLR M05/M13 A3048 350 52 -1900 000/00 RMK AO2
14837KMSN MSN20031201232509612/01/03 23:25:31  5-MIN KMSN 020525Z 28003KT 10SM CLR M06/M13 A3048 350 54 -2000 280/03 RMK AO2
14837KMSN MSN20031201233009612/01/03 23:30:31  5-MIN KMSN 020530Z 27003KT 10SM CLR M06/M13 A3048 350 59 -2100 270/03 RMK AO2
14837KMSN MSN20031201233509612/01/03 23:35:31  5-MIN KMSN 020535Z 28003KT 10SM CLR M07/M12 A3048 350 68 -2200 280/03 RMK AO2
14837KMSN MSN20031201234009612/01/03 23:40:31  5-MIN KMSN 020540Z 29003KT 10SM CLR M05/M12 A3048 350 60 -2000 290/03 RMK AO2
14837KMSN MSN20031201234509612/01/03 23:45:31  5-MIN KMSN 020545Z 29004KT 10SM CLR M05/M12 A3048 350 57 -1900 290/04 RMK AO2
14837KMSN MSN20031201235014112/01/03 23:50:31  5-MIN KMSN 020550Z 30004KT 10SM CLR M04/M12 A3048 350 57 -1900 290/04 RMK AO2 SLP334 T10441117 10006 21067 400391067 51018
14837KMSN MSN20031201235509612/01/03 23:55:31  5-MIN KMSN 020555Z 28004KT 10SM CLR M05/M12 A3048 350 60 -2000 280/04 RMK AO2
14837KMSN MSN20031202000009612/02/03 00:00:31  5-MIN KMSN 020600Z 28003KT 10SM CLR M06/M12 A3049 340 62 -2000 280/03 RMK AO2
14837KMSN MSN20031202000509612/02/03 00:05:31  5-MIN KMSN 020605Z 28003KT 10SM CLR M06/M11 A3049 340 65 -2000 280/03 RMK AO2
14837KMSN MSN20031202001009612/02/03 00:10:31  5-MIN KMSN 020610Z 28004KT 10SM CLR M05/M12 A3049 340 60 -2000 280/04 RMK AO2
14837KMSN MSN20031202001509612/02/03 00:15:31  5-MIN KMSN 020615Z 27004KT 10SM CLR M06/M12 A3049 340 62 -2000 270/04 RMK AO2
14837KMSN MSN20031202002009612/02/03 00:20:31  5-MIN KMSN 020620Z 28003KT 10SM CLR M06/M12 A3049 340 62 -2000 270/03 RMK AO2
14837KMSN MSN20031202002509612/02/03 00:25:31  5-MIN KMSN 020625Z 27004KT 10SM CLR M06/M11 A3049 340 65 -2000 260/04 RMK AO2
14837KMSN MSN20031202003009612/02/03 00:30:31  5-MIN KMSN 020630Z 27004KT 10SM CLR M05/M11 A3049 340 62 -2000 270/04 RMK AO2
14837KMSN MSN20031202003509612/02/03 00:35:31  5-MIN KMSN 020635Z 27004KT 10SM CLR M05/M11 A3049 340 62 -2000 270/04 RMK AO2
14837KMSN MSN20031202004009612/02/03 00:40:31  5-MIN KMSN 020640Z 28004KT 10SM CLR M05/M12 A3049 340 60 -2000 280/04 RMK AO2
14837KMSN MSN20031202004509612/02/03 00:45:31  5-MIN KMSN 020645Z 28004KT 10SM CLR M05/M12 A3049 340 60 -2000 270/04 RMK AO2
14837KMSN MSN20031202005011312/02/03 00:50:31  5-MIN KMSN 020650Z 28004KT 10SM CLR M05/M11 A3049 340 62 -2000 280/04 RMK AO2 SLP336 T10501111
14837KMSN MSN20031202005509612/02/03 00:55:31  5-MIN KMSN 020655Z 29004KT 10SM CLR M05/M12 A3049 340 57 -2000 290/04 RMK AO2
14837KMSN MSN20031202010009612/02/03 01:00:31  5-MIN KMSN 020700Z 27004KT 10SM CLR M05/M12 A3049 340 60 -2000 270/04 RMK AO2
14837KMSN MSN20031202010509612/02/03 01:05:31  5-MIN KMSN 020705Z 29004KT 10SM CLR M05/M12 A3049 340 60 -2000 290/04 RMK AO2
14837KMSN MSN20031202011009612/02/03 01:10:31  5-MIN KMSN 020710Z 28004KT 10SM CLR M05/M12 A3050 340 60 -2000 280/04 RMK AO2
14837KMSN MSN20031202011509612/02/03 01:15:31  5-MIN KMSN 020715Z 28005KT 10SM CLR M05/M12 A3050 330 60 -2000 280/05 RMK AO2
14837KMSN MSN20031202012009612/02/03 01:20:31  5-MIN KMSN 020720Z VRB03KT 10SM CLR M05/M12 A3050 330 60 -2000 VRB/03 RMK AO2
14837KMSN MSN20031202012509612/02/03 01:25:31  5-MIN KMSN 020725Z 30003KT 10SM CLR M05/M12 A3050 330 60 -2000 300/03 RMK AO2
14837KMSN MSN20031202013009612/02/03 01:30:31  5-MIN KMSN 020730Z 00000KT 10SM CLR M05/M12 A3050 330 60 -2000 000/00 RMK AO2
14837KMSN MSN20031202013509612/02/03 01:35:31  5-MIN KMSN 020735Z 00000KT 10SM CLR M06/M12 A3051 330 62 -2000 000/00 RMK AO2
14837KMSN MSN20031202014009612/02/03 01:40:31  5-MIN KMSN 020740Z 00000KT 10SM CLR M06/M12 A3051 320 65 -2100 000/00 RMK AO2
14837KMSN MSN20031202014509612/02/03 01:45:31  5-MIN KMSN 020745Z 28004KT 10SM CLR M06/M12 A3051 320 62 -2100 280/04 RMK AO2
14837KMSN MSN20031202015011312/02/03 01:50:31  5-MIN KMSN 020750Z 30003KT 10SM CLR M05/M12 A3051 320 57 -2000 300/03 RMK AO2 SLP344 T10501122
14837KMSN MSN20031202015509612/02/03 01:55:31  5-MIN KMSN 020755Z 00000KT 10SM CLR M05/M11 A3051 320 62 -2000 000/00 RMK AO2
14837KMSN MSN20031202020009612/02/03 02:00:31  5-MIN KMSN 020800Z 27004KT 10SM CLR M06/M12 A3052 320 59 -2100 270/04 RMK AO2
14837KMSN MSN20031202020509612/02/03 02:05:31  5-MIN KMSN 020805Z 28004KT 10SM CLR M06/M12 A3052 310 62 -2100 280/04 RMK AO2
14837KMSN MSN20031202021009612/02/03 02:10:31  5-MIN KMSN 020810Z 28004KT 10SM CLR M05/M12 A3052 310 60 -2000 280/04 RMK AO2
14837KMSN MSN20031202021509612/02/03 02:15:31  5-MIN KMSN 020815Z 28004KT 10SM CLR M05/M12 A3052 310 60 -2000 280/04 RMK AO2
14837KMSN MSN20031202022009612/02/03 02:20:31  5-MIN KMSN 020820Z 28004KT 10SM CLR M05/M12 A3052 310 57 -2000 280/04 RMK AO2
14837KMSN MSN20031202022509612/02/03 02:25:31  5-MIN KMSN 020825Z 29004KT 10SM CLR M05/M12 A3052 310 60 -2000 280/04 RMK AO2
14837KMSN MSN20031202023009612/02/03 02:30:31  5-MIN KMSN 020830Z 29004KT 10SM CLR M05/M12 A3052 310 60 -2000 290/04 RMK AO2
14837KMSN MSN20031202023509612/02/03 02:35:31  5-MIN KMSN 020835Z 29003KT 10SM CLR M05/M12 A3052 310 60 -2000 290/03 RMK AO2
14837KMSN MSN20031202024009612/02/03 02:40:31  5-MIN KMSN 020840Z 29003KT 10SM CLR M05/M12 A3052 320 60 -2000 280/03 RMK AO2
14837KMSN MSN20031202024509612/02/03 02:45:31  5-MIN KMSN 020845Z 28003KT 10SM CLR M06/M12 A3052 320 62 -2100 280/03 RMK AO2
14837KMSN MSN20031202025011912/02/03 02:50:31  5-MIN KMSN 020850Z 28004KT 10SM CLR M06/M12 A3052 320 59 -2100 280/04 RMK AO2 SLP346 T10561122 53006
14837KMSN MSN20031202025509612/02/03 02:55:31  5-MIN KMSN 020855Z 30004KT 10SM CLR M06/M11 A3052 320 68 -2100 300/04 RMK AO2
14837KMSN MSN20031202030009612/02/03 03:00:31  5-MIN KMSN 020900Z 30004KT 10SM CLR M06/M12 A3052 320 59 -2100 300/04 RMK AO2
14837KMSN MSN20031202030509612/02/03 03:05:31  5-MIN KMSN 020905Z 29004KT 10SM CLR M07/M12 A3052 310 65 -2200 290/04 RMK AO2
14837KMSN MSN20031202031009612/02/03 03:10:31  5-MIN KMSN 020910Z 28005KT 10SM CLR M06/M12 A3052 310 65 -2100 280/05 RMK AO2
14837KMSN MSN20031202031509612/02/03 03:15:31  5-MIN KMSN 020915Z 29005KT 10SM CLR M06/M12 A3052 320 65 -2100 290/05 RMK AO2
14837KMSN MSN20031202032009612/02/03 03:20:31  5-MIN KMSN 020920Z 30004KT 10SM CLR M06/M12 A3052 320 65 -2100 300/04 RMK AO2
14837KMSN MSN20031202032509612/02/03 03:25:31  5-MIN KMSN 020925Z 30004KT 10SM CLR M06/M12 A3052 320 65 -2100 300/04 RMK AO2
14837KMSN MSN20031202033009612/02/03 03:30:31  5-MIN KMSN 020930Z 30003KT 10SM CLR M07/M12 A3052 320 68 -2200 300/03 RMK AO2
14837KMSN MSN20031202033509612/02/03 03:35:31  5-MIN KMSN 020935Z 32003KT 10SM CLR M06/M12 A3051 320 65 -2100 320/03 RMK AO2
14837KMSN MSN20031202034009612/02/03 03:40:31  5-MIN KMSN 020940Z 32003KT 10SM CLR M06/M12 A3052 320 62 -2100 320/03 RMK AO2
14837KMSN MSN20031202034509612/02/03 03:45:31  5-MIN KMSN 020945Z 31003KT 10SM CLR M06/M12 A3052 320 65 -2100 300/03 RMK AO2
14837KMSN MSN20031202035011312/02/03 03:50:31  5-MIN KMSN 020950Z 00000KT 10SM CLR M08/M12 A3052 320 71 -2300 000/00 RMK AO2 SLP346 T10781122
14837KMSN MSN20031202035509612/02/03 03:55:31  5-MIN KMSN 020955Z 00000KT 10SM CLR M07/M12 A3052 320 68 -2200 000/00 RMK AO2
14837KMSN MSN20031202040009612/02/03 04:00:31  5-MIN KMSN 021000Z 00000KT 10SM CLR M07/M13 A3052 310 65 -2300 000/00 RMK AO2
14837KMSN MSN20031202040509612/02/03 04:05:31  5-MIN KMSN 021005Z 00000KT 10SM CLR M07/M12 A3052 310 71 -2300 000/00 RMK AO2
14837KMSN MSN20031202041009612/02/03 04:10:31  5-MIN KMSN 021010Z 30003KT 10SM CLR M07/M12 A3052 310 68 -2200 300/03 RMK AO2
14837KMSN MSN20031202041509612/02/03 04:15:31  5-MIN KMSN 021015Z 30003KT 10SM CLR M07/M12 A3052 310 71 -2300 300/03 RMK AO2
14837KMSN MSN20031202042009612/02/03 04:20:31  5-MIN KMSN 021020Z 30003KT 10SM CLR M07/M12 A3053 310 71 -2300 300/03 RMK AO2
14837KMSN MSN20031202042509612/02/03 04:25:31  5-MIN KMSN 021025Z 30003KT 10SM CLR M07/M12 A3053 310 71 -2300 290/03 RMK AO2
14837KMSN MSN20031202043009612/02/03 04:30:31  5-MIN KMSN 021030Z 00000KT 10SM CLR M07/M12 A3052 310 71 -2300 000/00 RMK AO2
14837KMSN MSN20031202043509612/02/03 04:35:31  5-MIN KMSN 021035Z 00000KT 10SM CLR M08/M12 A3053 310 74 -2400 000/00 RMK AO2
14837KMSN MSN20031202044009612/02/03 04:40:31  5-MIN KMSN 021040Z 00000KT 10SM CLR M08/M12 A3052 310 77 -2400 000/00 RMK AO2
14837KMSN MSN20031202044509612/02/03 04:45:31  5-MIN KMSN 021045Z 00000KT 10SM CLR M08/M12 A3052 310 77 -2400 000/00 RMK AO2
14837KMSN MSN20031202045011312/02/03 04:50:31  5-MIN KMSN 021050Z 00000KT 10SM CLR M08/M11 A3052 310 77 -2400 000/00 RMK AO2 SLP350 T10781111
14837KMSN MSN20031202045509612/02/03 04:55:31  5-MIN KMSN 021055Z 00000KT 10SM CLR M08/M11 A3052 310 77 -2400 000/00 RMK AO2
14837KMSN MSN20031202050009612/02/03 05:00:31  5-MIN KMSN 021100Z 00000KT 10SM CLR M08/M12 A3052 310 74 -2400 000/00 RMK AO2
14837KMSN MSN20031202050509612/02/03 05:05:31  5-MIN KMSN 021105Z 00000KT 10SM CLR M08/M12 A3052 310 74 -2400 000/00 RMK AO2
14837KMSN MSN20031202051009612/02/03 05:10:31  5-MIN KMSN 021110Z 00000KT 10SM CLR M08/M12 A3052 310 74 -2400 000/00 RMK AO2
14837KMSN MSN20031202051509612/02/03 05:15:31  5-MIN KMSN 021115Z 00000KT 10SM CLR M08/M12 A3052 310 74 -2400 000/00 RMK AO2
14837KMSN MSN20031202052009612/02/03 05:20:31  5-MIN KMSN 021120Z 00000KT 10SM CLR M08/M12 A3053 310 77 -2400 000/00 RMK AO2
14837KMSN MSN20031202052509612/02/03 05:25:31  5-MIN KMSN 021125Z 00000KT 10SM CLR M08/M11 A3053 310 80 -2400 000/00 RMK AO2
14837KMSN MSN20031202053009612/02/03 05:30:31  5-MIN KMSN 021130Z 00000KT 10SM CLR M08/M12 A3053 300 77 -2400 000/00 RMK AO2
14837KMSN MSN20031202053509612/02/03 05:35:31  5-MIN KMSN 021135Z 00000KT 10SM CLR M08/M11 A3053 300 84 -2400 000/00 RMK AO2
14837KMSN MSN20031202054009612/02/03 05:40:31  5-MIN KMSN 021140Z 00000KT 10SM CLR M09/M11 A3053 300 84 -2500 000/00 RMK AO2
14837KMSN MSN20031202054509612/02/03 05:45:31  5-MIN KMSN 021145Z 00000KT 10SM CLR M09/M12 A3053 300 80 -2500 000/00 RMK AO2
14837KMSN MSN20031202055013112/02/03 05:50:31  5-MIN KMSN 021150Z 28003KT 10SM CLR M09/M11 A3054 300 84 -2500 280/03 RMK AO2 SLP354 T10891111 11050 21089 52011
14837KMSN MSN20031202055509612/02/03 05:55:31  5-MIN KMSN 021155Z 29003KT 10SM CLR M08/M12 A3054 300 77 -2400 290/03 RMK AO2
14837KMSN MSN20031202060009612/02/03 06:00:31  5-MIN KMSN 021200Z 00000KT 10SM CLR M08/M12 A3054 300 74 -2400 000/00 RMK AO2
14837KMSN MSN20031202060509612/02/03 06:05:31  5-MIN KMSN 021205Z 26003KT 10SM CLR M08/M12 A3054 290 77 -2500 260/03 RMK AO2
14837KMSN MSN20031202061009612/02/03 06:10:31  5-MIN KMSN 021210Z 26003KT 10SM CLR M08/M11 A3054 290 80 -2400 260/03 RMK AO2
14837KMSN MSN20031202061509612/02/03 06:15:31  5-MIN KMSN 021215Z 29003KT 10SM CLR M08/M11 A3054 300 80 -2400 290/03 RMK AO2
14837KMSN MSN20031202062009612/02/03 06:20:31  5-MIN KMSN 021220Z 00000KT 10SM CLR M08/M11 A3054 300 77 -2400 000/00 RMK AO2
14837KMSN MSN20031202062509612/02/03 06:25:31  5-MIN KMSN 021225Z 25003KT 10SM CLR M08/M11 A3054 290 80 -2500 250/03 RMK AO2
14837KMSN MSN20031202063009612/02/03 06:30:31  5-MIN KMSN 021230Z 28003KT 10SM CLR M08/M11 A3054 290 77 -2400 280/03 RMK AO2
14837KMSN MSN20031202063509612/02/03 06:35:31  5-MIN KMSN 021235Z 31004KT 10SM CLR M07/M11 A3054 300 74 -2300 310/04 RMK AO2
14837KMSN MSN20031202064009612/02/03 06:40:31  5-MIN KMSN 021240Z 35004KT 10SM CLR M08/M12 A3054 300 71 -2400 350/04 RMK AO2
14837KMSN MSN20031202064509612/02/03 06:45:31  5-MIN KMSN 021245Z 34003KT 10SM CLR M08/M12 A3054 300 77 -2400 340/03 RMK AO2
14837KMSN MSN20031202065011312/02/03 06:50:31  5-MIN KMSN 021250Z 31003KT 10SM CLR M08/M12 A3054 300 77 -2400 310/03 RMK AO2 SLP356 T10831117
14837KMSN MSN20031202065509612/02/03 06:55:31  5-MIN KMSN 021255Z 30003KT 10SM CLR M09/M12 A3054 300 80 -2500 300/03 RMK AO2
14837KMSN MSN20031202070009612/02/03 07:00:31  5-MIN KMSN 021300Z 32003KT 10SM CLR M09/M12 A3054 300 80 -2500 320/03 RMK AO2
14837KMSN MSN20031202070509612/02/03 07:05:31  5-MIN KMSN 021305Z 00000KT 10SM CLR M08/M12 A3054 300 77 -2400 000/00 RMK AO2
14837KMSN MSN20031202071009612/02/03 07:10:31  5-MIN KMSN 021310Z 00000KT 10SM CLR M09/M12 A3054 300 80 -2500 000/00 RMK AO2
14837KMSN MSN20031202071509612/02/03 07:15:31  5-MIN KMSN 021315Z 00000KT 10SM CLR M09/M12 A3054 300 80 -2500 000/00 RMK AO2
14837KMSN MSN20031202072009612/02/03 07:20:31  5-MIN KMSN 021320Z 00000KT 10SM CLR M08/M12 A3054 300 77 -2400 000/00 RMK AO2
14837KMSN MSN20031202072509612/02/03 07:25:31  5-MIN KMSN 021325Z 00000KT 10SM CLR M08/M11 A3054 300 80 -2400 000/00 RMK AO2
14837KMSN MSN20031202073009612/02/03 07:30:31  5-MIN KMSN 021330Z 34003KT 10SM CLR M08/M11 A3054 300 77 -2400 340/03 RMK AO2
14837KMSN MSN20031202073509612/02/03 07:35:31  5-MIN KMSN 021335Z 00000KT 10SM CLR M08/M11 A3053 300 77 -2400 000/00 RMK AO2
14837KMSN MSN20031202074009612/02/03 07:40:31  5-MIN KMSN 021340Z 00000KT 10SM CLR M08/M11 A3054 300 77 -2400 000/00 RMK AO2
14837KMSN MSN20031202074509612/02/03 07:45:31  5-MIN KMSN 021345Z 00000KT 10SM CLR M08/M11 A3054 300 77 -2400 000/00 RMK AO2
14837KMSN MSN20031202075011312/02/03 07:50:31  5-MIN KMSN 021350Z 00000KT 10SM CLR M08/M11 A3054 300 77 -2400 000/00 RMK AO2 SLP355 T10781111
14837KMSN MSN20031202075509612/02/03 07:55:31  5-MIN KMSN 021355Z 00000KT 10SM CLR M08/M11 A3054 300 80 -2400 000/00 RMK AO2
14837KMSN MSN20031202080009612/02/03 08:00:31  5-MIN KMSN 021400Z 00000KT 10SM CLR M07/M11 A3054 300 77 -2300 000/00 RMK AO2
14837KMSN MSN20031202080509612/02/03 08:05:31  5-MIN KMSN 021405Z 00000KT 10SM CLR M07/M10 A3054 300 81 -2300 000/00 RMK AO2
14837KMSN MSN20031202081009612/02/03 08:10:31  5-MIN KMSN 021410Z 00000KT 10SM CLR M07/M09 A3054 300 81 -2200 000/00 RMK AO2
14837KMSN MSN20031202081509612/02/03 08:15:31  5-MIN KMSN 021415Z 00000KT 10SM CLR M06/M09 A3054 300 77 -2200 000/00 RMK AO2
14837KMSN MSN20031202082009612/02/03 08:20:31  5-MIN KMSN 021420Z 00000KT 10SM CLR M06/M09 A3054 290 74 -2100 000/00 RMK AO2
14837KMSN MSN20031202082509612/02/03 08:25:31  5-MIN KMSN 021425Z 00000KT 10SM CLR M05/M09 A3055 290 74 -2000 000/00 RMK AO2
14837KMSN MSN20031202083009612/02/03 08:30:31  5-MIN KMSN 021430Z VRB03KT 10SM CLR M05/M10 A3055 290 68 -2000 VRB/03 RMK AO2
14837KMSN MSN20031202083509612/02/03 08:35:31  5-MIN KMSN 021435Z 31004KT 10SM CLR M05/M11 A3055 290 62 -2000 310/04 RMK AO2
14837KMSN MSN20031202084009612/02/03 08:40:31  5-MIN KMSN 021440Z 35003KT 10SM CLR M04/M11 A3055 290 60 -2000 350/03 RMK AO2
14837KMSN MSN20031202084509612/02/03 08:45:31  5-MIN KMSN 021445Z VRB03KT 10SM CLR M04/M11 A3055 280 62 -2000 VRB/03 RMK AO2
14837KMSN MSN20031202085011912/02/03 08:50:31  5-MIN KMSN 021450Z 33003KT 10SM CLR M04/M11 A3055 280 60 -2000 320/03 RMK AO2 SLP360 T10441111 53006
14837KMSN MSN20031202085509612/02/03 08:55:31  5-MIN KMSN 021455Z VRB03KT 10SM CLR M04/M11 A3056 280 57 -1900 VRB/03 RMK AO2
14837KMSN MSN20031202090009612/02/03 09:00:31  5-MIN KMSN 021500Z 34003KT 10SM CLR M04/M11 A3056 280 60 -1900 340/03 RMK AO2
14837KMSN MSN20031202090509612/02/03 09:05:31  5-MIN KMSN 021505Z VRB03KT 10SM CLR M04/M11 A3056 280 57 -1900 VRB/03 RMK AO2
14837KMSN MSN20031202091009612/02/03 09:10:31  5-MIN KMSN 021510Z 01004KT 10SM CLR M04/M11 A3056 280 60 -1900 010/04 RMK AO2
14837KMSN MSN20031202091509612/02/03 09:15:31  5-MIN KMSN 021515Z 35004KT 10SM CLR M04/M11 A3056 280 60 -1900 350/04 RMK AO2
14837KMSN MSN20031202092009612/02/03 09:20:31  5-MIN KMSN 021520Z 01005KT 10SM CLR M04/M11 A3056 280 57 -1900 010/05 RMK AO2
14837KMSN MSN20031202092509612/02/03 09:25:31  5-MIN KMSN 021525Z 01004KT 10SM CLR M04/M11 A3056 280 60 -1900 010/04 RMK AO2
14837KMSN MSN20031202093009612/02/03 09:30:31  5-MIN KMSN 021530Z 01004KT 10SM CLR M03/M11 A3056 280 57 -1800 010/04 RMK AO2
14837KMSN MSN20031202093509612/02/03 09:35:31  5-MIN KMSN 021535Z 34003KT 10SM CLR M03/M11 A3056 280 57 -1800 340/03 RMK AO2
14837KMSN MSN20031202094009612/02/03 09:40:31  5-MIN KMSN 021540Z VRB03KT 10SM CLR M03/M10 A3057 270 60 -1800 VRB/03 RMK AO2
14837KMSN MSN20031202094509612/02/03 09:45:31  5-MIN KMSN 021545Z VRB03KT 10SM CLR M03/M11 A3057 270 57 -1800 VRB/03 RMK AO2
14837KMSN MSN20031202095011312/02/03 09:50:31  5-MIN KMSN 021550Z 00000KT 10SM CLR M03/M11 A3057 270 55 -1800 000/00 RMK AO2 SLP364 T10281106
14837KMSN MSN20031202095509912/02/03 09:55:31  5-MIN KMSN 021555Z 03003KT 10SM FEW120 M03/M11 A3057 270 53 -1800 030/03 RMK AO2
14837KMSN MSN20031202100009912/02/03 10:00:31  5-MIN KMSN 021600Z 00000KT 10SM FEW120 M03/M11 A3057 270 53 -1800 000/00 RMK AO2
14837KMSN MSN20031202100509912/02/03 10:05:31  5-MIN KMSN 021605Z 08003KT 10SM FEW120 M02/M11 A3057 270 53 -1700 080/03 RMK AO2
14837KMSN MSN20031202101009912/02/03 10:10:31  5-MIN KMSN 021610Z VRB04KT 10SM FEW120 M02/M11 A3056 270 51 -1700 VRB/04 RMK AO2
14837KMSN MSN20031202101509912/02/03 10:15:31  5-MIN KMSN 021615Z 00000KT 10SM FEW120 M02/M11 A3057 270 51 -1700 000/00 RMK AO2
14837KMSN MSN20031202102009912/02/03 10:20:31  5-MIN KMSN 021620Z VRB03KT 10SM FEW120 M02/M11 A3056 280 51 -1700 VRB/03 RMK AO2
14837KMSN MSN20031202102509912/02/03 10:25:31  5-MIN KMSN 021625Z 00000KT 10SM FEW120 M02/M11 A3056 280 53 -1700 000/00 RMK AO2
14837KMSN MSN20031202103009912/02/03 10:30:31  5-MIN KMSN 021630Z 00000KT 10SM FEW120 M02/M11 A3056 280 51 -1700 000/00 RMK AO2
14837KMSN MSN20031202103509912/02/03 10:35:31  5-MIN KMSN 021635Z VRB03KT 10SM FEW120 M02/M11 A3056 280 49 -1600 VRB/03 RMK AO2
14837KMSN MSN20031202104009912/02/03 10:40:31  5-MIN KMSN 021640Z VRB03KT 10SM FEW120 M02/M12 A3056 280 44 -1600 VRB/03 RMK AO2
14837KMSN MSN20031202104509912/02/03 10:45:31  5-MIN KMSN 021645Z 00000KT 10SM FEW120 M02/M12 A3056 280 44 -1600 000/00 RMK AO2
14837KMSN MSN20031202105011612/02/03 10:50:31  5-MIN KMSN 021650Z 03004KT 10SM FEW120 M02/M12 A3056 280 46 -1600 030/04 RMK AO2 SLP361 T10171117
14837KMSN MSN20031202105509912/02/03 10:55:31  5-MIN KMSN 021655Z VRB04KT 10SM SCT120 M02/M13 A3055 280 42 -1600 VRB/04 RMK AO2
14837KMSN MSN20031202110009912/02/03 11:00:31  5-MIN KMSN 021700Z 00000KT 10SM SCT120 M02/M13 A3055 290 42 -1600 000/00 RMK AO2
14837KMSN MSN20031202110509912/02/03 11:05:31  5-MIN KMSN 021705Z VRB03KT 10SM SCT120 M02/M13 A3055 290 41 -1600 VRB/03 RMK AO2
14837KMSN MSN20031202111009912/02/03 11:10:31  5-MIN KMSN 021710Z VRB03KT 10SM SCT120 M01/M13 A3055 290 41 -1500 VRB/03 RMK AO2
14837KMSN MSN20031202111509912/02/03 11:15:31  5-MIN KMSN 021715Z 00000KT 10SM SCT120 M02/M13 A3055 290 42 -1600 000/00 RMK AO2
14837KMSN MSN20031202112009912/02/03 11:20:31  5-MIN KMSN 021720Z 00000KT 10SM SCT120 M01/M13 A3055 290 41 -1500 000/00 RMK AO2
14837KMSN MSN20031202112509912/02/03 11:25:31  5-MIN KMSN 021725Z VRB03KT 10SM SCT120 M02/M13 A3054 290 42 -1600 VRB/03 RMK AO2
14837KMSN MSN20031202113009912/02/03 11:30:31  5-MIN KMSN 021730Z VRB03KT 10SM SCT120 M01/M12 A3054 300 43 -1500 VRB/03 RMK AO2
14837KMSN MSN20031202113509912/02/03 11:35:31  5-MIN KMSN 021735Z VRB03KT 10SM SCT120 M01/M12 A3053 300 43 -1500 VRB/03 RMK AO2
14837KMSN MSN20031202114009912/02/03 11:40:31  5-MIN KMSN 021740Z 00000KT 10SM SCT120 M01/M12 A3053 300 43 -1500 000/00 RMK AO2
14837KMSN MSN20031202114509912/02/03 11:45:31  5-MIN KMSN 021745Z 00000KT 10SM SCT120 M01/M13 A3053 310 41 -1500 000/00 RMK AO2
14837KMSN MSN20031202115013412/02/03 11:50:31  5-MIN KMSN 021750Z 00000KT 10SM SCT120 M01/M13 A3053 310 41 -1500 000/00 RMK AO2 SLP351 T10111128 11006 21094 53006
14837KMSN MSN20031202115509912/02/03 11:55:31  5-MIN KMSN 021755Z 00000KT 10SM SCT120 M01/M13 A3053 300 41 -1500 000/00 RMK AO2
14837KMSN MSN20031202120009912/02/03 12:00:31  5-MIN KMSN 021800Z 00000KT 10SM SCT120 M01/M13 A3053 300 41 -1500 000/00 RMK AO2
14837KMSN MSN20031202120509912/02/03 12:05:31  5-MIN KMSN 021805Z 00000KT 10SM SCT120 M01/M13 A3053 300 41 -1500 000/00 RMK AO2
14837KMSN MSN20031202121009912/02/03 12:10:31  5-MIN KMSN 021810Z 00000KT 10SM SCT120 M01/M13 A3053 310 41 -1500 000/00 RMK AO2
14837KMSN MSN20031202121509912/02/03 12:15:31  5-MIN KMSN 021815Z 00000KT 10SM SCT120 M01/M12 A3053 310 41 -1400 000/00 RMK AO2
14837KMSN MSN20031202122009912/02/03 12:20:31  5-MIN KMSN 021820Z 00000KT 10SM SCT120 M01/M12 A3053 310 41 -1400 000/00 RMK AO2
14837KMSN MSN20031202122509812/02/03 12:25:31  5-MIN KMSN 021825Z 24003KT 10SM SCT120 00/M12 A3053 310 41 -1400 240/03 RMK AO2
14837KMSN MSN20031202123009912/02/03 12:30:31  5-MIN KMSN 021830Z 27004KT 10SM SCT120 M01/M12 A3053 310 41 -1400 270/04 RMK AO2
14837KMSN MSN20031202123509912/02/03 12:35:31  5-MIN KMSN 021835Z 00000KT 10SM SCT120 M01/M13 A3052 310 39 -1400 000/00 RMK AO2
14837KMSN MSN20031202124009912/02/03 12:40:31  5-MIN KMSN 021840Z 24004KT 10SM SCT120 M01/M13 A3052 310 39 -1400 240/04 RMK AO2
14837KMSN MSN20031202124509912/02/03 12:45:31  5-MIN KMSN 021845Z VRB03KT 10SM SCT120 M01/M13 A3052 320 41 -1500 VRB/03 RMK AO2
14837KMSN MSN20031202125011612/02/03 12:50:31  5-MIN KMSN 021850Z 21004KT 10SM SCT120 M01/M12 A3052 310 43 -1500 210/04 RMK AO2 SLP348 T10111122
14837KMSN MSN20031202125509912/02/03 12:55:31  5-MIN KMSN 021855Z 20003KT 10SM BKN110 M01/M12 A3052 320 45 -1500 200/03 RMK AO2
14837KMSN MSN20031202130009912/02/03 13:00:31  5-MIN KMSN 021900Z 24004KT 10SM BKN110 M01/M12 A3051 320 43 -1400 240/04 RMK AO2
14837KMSN MSN20031202130509912/02/03 13:05:31  5-MIN KMSN 021905Z 20005KT 10SM BKN110 M01/M11 A3051 320 45 -1400 200/05 RMK AO2
14837KMSN MSN20031202131009912/02/03 13:10:31  5-MIN KMSN 021910Z 21004KT 10SM SCT110 M01/M12 A3051 320 45 -1500 210/04 RMK AO2
14837KMSN MSN20031202131509912/02/03 13:15:31  5-MIN KMSN 021915Z 23003KT 10SM SCT110 M01/M12 A3051 330 45 -1500 230/03 RMK AO2
14837KMSN MSN20031202132009912/02/03 13:20:31  5-MIN KMSN 021920Z 25004KT 10SM SCT110 M01/M11 A3051 330 45 -1400 250/04 RMK AO2
14837KMSN MSN20031202132509912/02/03 13:25:31  5-MIN KMSN 021925Z 24004KT 10SM SCT110 M01/M12 A3051 330 45 -1500 240/04 RMK AO2
14837KMSN MSN20031202133009912/02/03 13:30:31  5-MIN KMSN 021930Z 25003KT 10SM SCT110 M01/M12 A3051 330 45 -1500 250/03 RMK AO2
14837KMSN MSN20031202133509912/02/03 13:35:31  5-MIN KMSN 021935Z 23003KT 10SM SCT110 M01/M12 A3051 330 43 -1500 230/03 RMK AO2
14837KMSN MSN20031202134009912/02/03 13:40:31  5-MIN KMSN 021940Z 23004KT 10SM SCT110 M01/M12 A3051 320 43 -1500 230/04 RMK AO2
14837KMSN MSN20031202134509912/02/03 13:45:31  5-MIN KMSN 021945Z 25003KT 10SM SCT110 M01/M12 A3050 330 45 -1500 240/03 RMK AO2
14837KMSN MSN20031202135011612/02/03 13:50:31  5-MIN KMSN 021950Z 00000KT 10SM SCT110 M01/M12 A3050 330 45 -1500 000/00 RMK AO2 SLP341 T10111117
14837KMSN MSN20031202135510612/02/03 13:55:31  5-MIN KMSN 021955Z 24003KT 10SM FEW090 SCT120 M01/M12 A3050 330 45 -1500 240/03 RMK AO2
14837KMSN MSN20031202140010612/02/03 14:00:31  5-MIN KMSN 022000Z 00000KT 10SM FEW090 SCT120 M01/M12 A3050 330 45 -1500 000/00 RMK AO2
14837KMSN MSN20031202140510612/02/03 14:05:31  5-MIN KMSN 022005Z 00000KT 10SM FEW090 SCT120 M01/M11 A3050 340 47 -1500 000/00 RMK AO2
14837KMSN MSN20031202141010612/02/03 14:10:31  5-MIN KMSN 022010Z 00000KT 10SM FEW090 SCT120 M01/M12 A3049 340 45 -1500 000/00 RMK AO2
14837KMSN MSN20031202141510612/02/03 14:15:31  5-MIN KMSN 022015Z 00000KT 10SM FEW090 SCT120 M01/M12 A3050 330 45 -1500 000/00 RMK AO2
14837KMSN MSN20031202142010612/02/03 14:20:31  5-MIN KMSN 022020Z 23003KT 10SM FEW090 SCT120 M01/M12 A3049 340 45 -1500 230/03 RMK AO2
14837KMSN MSN20031202142510612/02/03 14:25:31  5-MIN KMSN 022025Z 00000KT 10SM FEW090 SCT120 M01/M11 A3049 340 47 -1500 000/00 RMK AO2
14837KMSN MSN20031202143010612/02/03 14:30:31  5-MIN KMSN 022030Z 00000KT 10SM FEW090 SCT120 M01/M11 A3049 340 47 -1500 000/00 RMK AO2
14837KMSN MSN20031202143510612/02/03 14:35:31  5-MIN KMSN 022035Z 00000KT 10SM FEW090 SCT120 M01/M11 A3049 340 47 -1500 000/00 RMK AO2
14837KMSN MSN20031202144010612/02/03 14:40:31  5-MIN KMSN 022040Z 00000KT 10SM FEW090 SCT120 M01/M11 A3049 340 47 -1500 000/00 RMK AO2
14837KMSN MSN20031202144510612/02/03 14:45:31  5-MIN KMSN 022045Z 00000KT 10SM FEW090 SCT120 M01/M11 A3049 340 47 -1500 000/00 RMK AO2
14837KMSN MSN20031202145012912/02/03 14:50:31  5-MIN KMSN 022050Z 00000KT 10SM FEW090 SCT120 M01/M11 A3049 340 47 -1500 000/00 RMK AO2 SLP338 T10111111 58008
14837KMSN MSN20031202145509912/02/03 14:55:31  5-MIN KMSN 022055Z 00000KT 10SM SCT120 M01/M11 A3049 340 47 -1500 000/00 RMK AO2
14837KMSN MSN20031202150009912/02/03 15:00:31  5-MIN KMSN 022100Z 00000KT 10SM SCT120 M01/M12 A3049 340 45 -1500 000/00 RMK AO2
14837KMSN MSN20031202150509912/02/03 15:05:31  5-MIN KMSN 022105Z 00000KT 10SM SCT120 M01/M12 A3049 340 45 -1500 000/00 RMK AO2
14837KMSN MSN20031202151009912/02/03 15:10:31  5-MIN KMSN 022110Z 00000KT 10SM SCT120 M01/M11 A3049 340 47 -1500 000/00 RMK AO2
14837KMSN MSN20031202151509912/02/03 15:15:31  5-MIN KMSN 022115Z 00000KT 10SM SCT120 M01/M11 A3049 340 47 -1500 000/00 RMK AO2
14837KMSN MSN20031202152009912/02/03 15:20:31  5-MIN KMSN 022120Z 00000KT 10SM SCT120 M01/M11 A3049 340 47 -1500 000/00 RMK AO2
14837KMSN MSN20031202152509912/02/03 15:25:31  5-MIN KMSN 022125Z 00000KT 10SM SCT120 M01/M11 A3049 340 47 -1500 000/00 RMK AO2
14837KMSN MSN20031202153009912/02/03 15:30:31  5-MIN KMSN 022130Z 00000KT 10SM SCT120 M01/M11 A3049 340 49 -1500 000/00 RMK AO2
14837KMSN MSN20031202153509912/02/03 15:35:31  5-MIN KMSN 022135Z 00000KT 10SM SCT120 M01/M11 A3049 340 47 -1500 000/00 RMK AO2
14837KMSN MSN20031202154009912/02/03 15:40:31  5-MIN KMSN 022140Z 00000KT 10SM SCT120 M01/M12 A3048 350 45 -1500 000/00 RMK AO2
14837KMSN MSN20031202154509912/02/03 15:45:31  5-MIN KMSN 022145Z 00000KT 10SM SCT120 M01/M11 A3048 350 45 -1400 000/00 RMK AO2
14837KMSN MSN20031202155011612/02/03 15:50:31  5-MIN KMSN 022150Z 00000KT 10SM SCT120 M01/M12 A3048 350 45 -1400 000/00 RMK AO2 SLP336 T10111117
14837KMSN MSN20031202155509912/02/03 15:55:31  5-MIN KMSN 022155Z 00000KT 10SM BKN120 M01/M12 A3048 350 43 -1400 000/00 RMK AO2
14837KMSN MSN20031202160009912/02/03 16:00:31  5-MIN KMSN 022200Z 00000KT 10SM BKN120 M01/M12 A3048 350 45 -1400 000/00 RMK AO2
14837KMSN MSN20031202160509912/02/03 16:05:31  5-MIN KMSN 022205Z 00000KT 10SM BKN120 M01/M12 A3048 350 45 -1400 000/00 RMK AO2
14837KMSN MSN20031202161009912/02/03 16:10:31  5-MIN KMSN 022210Z 00000KT 10SM BKN120 M01/M12 A3048 350 45 -1400 000/00 RMK AO2
14837KMSN MSN20031202161509912/02/03 16:15:31  5-MIN KMSN 022215Z 00000KT 10SM BKN120 M02/M12 A3048 350 46 -1500 000/00 RMK AO2
14837KMSN MSN20031202162009912/02/03 16:20:31  5-MIN KMSN 022220Z 00000KT 10SM BKN120 M02/M11 A3048 350 49 -1500 000/00 RMK AO2
14837KMSN MSN20031202162509912/02/03 16:25:31  5-MIN KMSN 022225Z 00000KT 10SM BKN120 M02/M11 A3048 350 49 -1500 000/00 RMK AO2
14837KMSN MSN20031202163009912/02/03 16:30:31  5-MIN KMSN 022230Z 00000KT 10SM BKN120 M02/M11 A3048 350 51 -1600 000/00 RMK AO2
14837KMSN MSN20031202163509912/02/03 16:35:31  5-MIN KMSN 022235Z 00000KT 10SM FEW120 M02/M12 A3048 350 46 -1500 000/00 RMK AO2
14837KMSN MSN20031202164009912/02/03 16:40:31  5-MIN KMSN 022240Z 00000KT 10SM FEW120 M02/M12 A3047 360 48 -1600 000/00 RMK AO2
14837KMSN MSN20031202164509912/02/03 16:45:31  5-MIN KMSN 022245Z 00000KT 10SM FEW120 M02/M11 A3047 360 51 -1600 000/00 RMK AO2
14837KMSN MSN20031202165011612/02/03 16:50:31  5-MIN KMSN 022250Z 00000KT 10SM FEW120 M02/M11 A3047 360 51 -1600 000/00 RMK AO2 SLP334 T10221111
14837KMSN MSN20031202165509912/02/03 16:55:31  5-MIN KMSN 022255Z 00000KT 10SM FEW120 M02/M11 A3047 360 51 -1600 000/00 RMK AO2
14837KMSN MSN20031202170009912/02/03 17:00:31  5-MIN KMSN 022300Z 00000KT 10SM FEW120 M02/M11 A3047 360 51 -1600 000/00 RMK AO2
14837KMSN MSN20031202170509912/02/03 17:05:31  5-MIN KMSN 022305Z 00000KT 10SM FEW120 M03/M10 A3048 350 60 -1700 000/00 RMK AO2
14837KMSN MSN20031202171009912/02/03 17:10:31  5-MIN KMSN 022310Z 00000KT 10SM FEW120 M03/M09 A3048 350 63 -1700 000/00 RMK AO2
14837KMSN MSN20031202171509912/02/03 17:15:31  5-MIN KMSN 022315Z 09003KT 10SM FEW120 M03/M10 A3048 350 60 -1700 090/03 RMK AO2
14837KMSN MSN20031202172009912/02/03 17:20:31  5-MIN KMSN 022320Z 09003KT 10SM FEW120 M03/M10 A3048 350 60 -1700 090/03 RMK AO2
14837KMSN MSN20031202172509912/02/03 17:25:31  5-MIN KMSN 022325Z 00000KT 10SM FEW120 M03/M09 A3048 350 65 -1700 000/00 RMK AO2
14837KMSN MSN20031202173009912/02/03 17:30:31  5-MIN KMSN 022330Z 00000KT 10SM FEW120 M03/M09 A3048 350 60 -1700 000/00 RMK AO2
14837KMSN MSN20031202173509612/02/03 17:35:31  5-MIN KMSN 022335Z 00000KT 10SM CLR M03/M09 A3048 360 60 -1700 000/00 RMK AO2
14837KMSN MSN20031202174009612/02/03 17:40:31  5-MIN KMSN 022340Z 00000KT 10SM CLR M03/M10 A3047 360 58 -1700 000/00 RMK AO2
14837KMSN MSN20031202174509912/02/03 17:45:31  5-MIN KMSN 022345Z 00000KT 10SM SCT120 M03/M09 A3047 360 63 -1700 000/00 RMK AO2
14837KMSN MSN20031202175013412/02/03 17:50:31  5-MIN KMSN 022350Z 00000KT 10SM BKN120 M03/M09 A3047 360 63 -1700 000/00 RMK AO2 SLP333 T10281089 10000 21033 56013
14837KMSN MSN20031202175509912/02/03 17:55:31  5-MIN KMSN 022355Z 00000KT 10SM BKN120 M03/M11 A3047 360 55 -1700 000/00 RMK AO2
14837KMSN MSN20031202180009912/02/03 18:00:31  5-MIN KMSN 030000Z 10004KT 10SM BKN110 M03/M11 A3047 360 55 -1600 100/04 RMK AO2
14837KMSN MSN20031202180509912/02/03 18:05:31  5-MIN KMSN 030005Z 12005KT 10SM OVC110 M03/M11 A3047 360 53 -1600 120/05 RMK AO2
14837KMSN MSN20031202181009912/02/03 18:10:31  5-MIN KMSN 030010Z 11004KT 10SM OVC110 M03/M09 A3047 360 63 -1700 110/04 RMK AO2
14837KMSN MSN20031202181509912/02/03 18:15:31  5-MIN KMSN 030015Z 11003KT 10SM OVC110 M02/M11 A3047 360 53 -1600 110/03 RMK AO2
14837KMSN MSN20031202182009912/02/03 18:20:31  5-MIN KMSN 030020Z 09003KT 10SM OVC110 M03/M10 A3046 370 60 -1700 080/03 RMK AO2
14837KMSN MSN20031202182509912/02/03 18:25:31  5-MIN KMSN 030025Z 07004KT 10SM OVC110 M04/M09 A3046 360 65 -1800 070/04 RMK AO2
14837KMSN MSN20031202183009912/02/03 18:30:31  5-MIN KMSN 030030Z 09004KT 10SM OVC120 M04/M10 A3046 370 63 -1800 080/04 RMK AO2
14837KMSN MSN20031202183509912/02/03 18:35:31  5-MIN KMSN 030035Z 08004KT 10SM OVC120 M04/M09 A3046 370 68 -1800 080/04 RMK AO2
14837KMSN MSN20031202184009912/02/03 18:40:31  5-MIN KMSN 030040Z 10003KT 10SM OVC120 M03/M09 A3046 370 63 -1700 090/03 RMK AO2
14837KMSN MSN20031202184509912/02/03 18:45:31  5-MIN KMSN 030045Z 11003KT 10SM OVC120 M04/M09 A3046 370 68 -1800 110/03 RMK AO2
14837KMSN MSN20031202185011612/02/03 18:50:31  5-MIN KMSN 030050Z 00000KT 10SM OVC120 M03/M09 A3046 370 65 -1700 000/00 RMK AO2 SLP331 T10331089
14837KMSN MSN20031202185509912/02/03 18:55:31  5-MIN KMSN 030055Z 12003KT 10SM OVC110 M03/M09 A3046 370 65 -1700 120/03 RMK AO2
14837KMSN MSN20031202190009912/02/03 19:00:31  5-MIN KMSN 030100Z 00000KT 10SM BKN110 M03/M09 A3046 360 60 -1600 000/00 RMK AO2
14837KMSN MSN20031202190509912/02/03 19:05:31  5-MIN KMSN 030105Z 12003KT 10SM BKN110 M03/M08 A3047 360 68 -1700 120/03 RMK AO2
14837KMSN MSN20031202191009912/02/03 19:10:31  5-MIN KMSN 030110Z 00000KT 10SM BKN110 M03/M10 A3047 360 58 -1600 000/00 RMK AO2
14837KMSN MSN20031202191509912/02/03 19:15:31  5-MIN KMSN 030115Z 00000KT 10SM BKN110 M03/M10 A3047 360 58 -1600 000/00 RMK AO2
14837KMSN MSN20031202192009912/02/03 19:20:31  5-MIN KMSN 030120Z 09003KT 10SM BKN120 M03/M10 A3047 360 58 -1600 090/03 RMK AO2
14837KMSN MSN20031202192509912/02/03 19:25:31  5-MIN KMSN 030125Z 09004KT 10SM BKN120 M02/M09 A3047 360 58 -1600 090/04 RMK AO2
14837KMSN MSN20031202193009912/02/03 19:30:31  5-MIN KMSN 030130Z 07003KT 10SM BKN120 M03/M09 A3046 370 60 -1600 070/03 RMK AO2
14837KMSN MSN20031202193509912/02/03 19:35:31  5-MIN KMSN 030135Z 06004KT 10SM BKN120 M03/M09 A3046 370 65 -1700 060/04 RMK AO2
14837KMSN MSN20031202194009912/02/03 19:40:31  5-MIN KMSN 030140Z 06004KT 10SM BKN120 M03/M09 A3046 370 63 -1600 060/04 RMK AO2
14837KMSN MSN20031202194509912/02/03 19:45:31  5-MIN KMSN 030145Z 07005KT 10SM BKN120 M03/M09 A3046 370 60 -1600 060/05 RMK AO2
14837KMSN MSN20031202195011612/02/03 19:50:31  5-MIN KMSN 030150Z 06004KT 10SM BKN120 M03/M09 A3046 370 63 -1600 050/04 RMK AO2 SLP329 T10281089
14837KMSN MSN20031202195509912/02/03 19:55:31  5-MIN KMSN 030155Z 06005KT 10SM BKN120 M03/M08 A3046 370 66 -1600 060/05 RMK AO2
14837KMSN MSN20031202200009912/02/03 20:00:31  5-MIN KMSN 030200Z 07005KT 10SM BKN120 M03/M09 A3046 370 63 -1600 070/05 RMK AO2
14837KMSN MSN20031202200509912/02/03 20:05:31  5-MIN KMSN 030205Z 08004KT 10SM BKN120 M03/M09 A3046 370 60 -1600 080/04 RMK AO2
14837KMSN MSN20031202201009912/02/03 20:10:31  5-MIN KMSN 030210Z 07004KT 10SM OVC120 M03/M09 A3046 370 60 -1600 070/04 RMK AO2
14837KMSN MSN20031202201509912/02/03 20:15:31  5-MIN KMSN 030215Z 07003KT 10SM OVC120 M03/M09 A3046 370 60 -1600 070/03 RMK AO2
14837KMSN MSN20031202202009912/02/03 20:20:31  5-MIN KMSN 030220Z 07004KT 10SM OVC120 M03/M10 A3046 370 58 -1600 070/04 RMK AO2
14837KMSN MSN20031202202509912/02/03 20:25:31  5-MIN KMSN 030225Z 09003KT 10SM BKN120 M02/M10 A3046 360 55 -1600 090/03 RMK AO2
14837KMSN MSN20031202203009912/02/03 20:30:31  5-MIN KMSN 030230Z 11003KT 10SM OVC120 M02/M10 A3046 360 55 -1600 110/03 RMK AO2
14837KMSN MSN20031202203509912/02/03 20:35:31  5-MIN KMSN 030235Z 00000KT 10SM OVC120 M02/M11 A3046 370 51 -1600 000/00 RMK AO2
14837KMSN MSN20031202204009912/02/03 20:40:31  5-MIN KMSN 030240Z 13003KT 10SM OVC120 M02/M11 A3046 370 51 -1600 130/03 RMK AO2
14837KMSN MSN20031202204509912/02/03 20:45:31  5-MIN KMSN 030245Z 12003KT 10SM OVC120 M02/M11 A3046 370 51 -1600 120/03 RMK AO2
14837KMSN MSN20031202205012212/02/03 20:50:31  5-MIN KMSN 030250Z 11005KT 10SM OVC120 M02/M11 A3046 370 51 -1600 110/05 RMK AO2 SLP329 T10221111 56006
14837KMSN MSN20031202205509912/02/03 20:55:31  5-MIN KMSN 030255Z 10005KT 10SM OVC120 M03/M11 A3046 370 55 -1600 100/05 RMK AO2
14837KMSN MSN20031202210009912/02/03 21:00:31  5-MIN KMSN 030300Z 10005KT 10SM OVC120 M02/M11 A3046 370 53 -1600 100/05 RMK AO2
14837KMSN MSN20031202210509912/02/03 21:05:31  5-MIN KMSN 030305Z 11004KT 10SM OVC120 M02/M11 A3046 370 51 -1600 100/04 RMK AO2
14837KMSN MSN20031202211009912/02/03 21:10:31  5-MIN KMSN 030310Z 10004KT 10SM OVC120 M02/M11 A3046 370 51 -1600 100/04 RMK AO2
14837KMSN MSN20031202211509912/02/03 21:15:31  5-MIN KMSN 030315Z 10004KT 10SM OVC120 M02/M11 A3046 370 51 -1600 100/04 RMK AO2
14837KMSN MSN20031202212009912/02/03 21:20:31  5-MIN KMSN 030320Z 10004KT 10SM OVC110 M02/M11 A3046 370 51 -1600 100/04 RMK AO2
14837KMSN MSN20031202212509912/02/03 21:25:31  5-MIN KMSN 030325Z 09004KT 10SM OVC110 M02/M11 A3046 370 51 -1600 090/04 RMK AO2
14837KMSN MSN20031202213009912/02/03 21:30:31  5-MIN KMSN 030330Z 09005KT 10SM OVC110 M02/M11 A3046 370 51 -1600 090/05 RMK AO2
14837KMSN MSN20031202213509912/02/03 21:35:31  5-MIN KMSN 030335Z 10005KT 10SM OVC120 M03/M11 A3046 370 53 -1600 100/05 RMK AO2
14837KMSN MSN20031202214009912/02/03 21:40:31  5-MIN KMSN 030340Z 10005KT 10SM OVC120 M03/M11 A3046 370 53 -1600 090/05 RMK AO2
14837KMSN MSN20031202214509912/02/03 21:45:31  5-MIN KMSN 030345Z 09004KT 10SM BKN120 M03/M11 A3046 370 55 -1600 090/04 RMK AO2
14837KMSN MSN20031202215011612/02/03 21:50:31  5-MIN KMSN 030350Z 09003KT 10SM BKN120 M03/M11 A3046 370 55 -1600 080/03 RMK AO2 SLP326 T10281106
14837KMSN MSN20031202215509912/02/03 21:55:31  5-MIN KMSN 030355Z 08004KT 10SM OVC120 M03/M11 A3045 370 55 -1600 080/04 RMK AO2
14837KMSN MSN20031202220009912/02/03 22:00:31  5-MIN KMSN 030400Z 10006KT 10SM OVC120 M03/M11 A3046 370 55 -1600 100/06 RMK AO2
14837KMSN MSN20031202220509912/02/03 22:05:31  5-MIN KMSN 030405Z 10006KT 10SM OVC120 M03/M10 A3046 370 58 -1600 100/06 RMK AO2
14837KMSN MSN20031202221009912/02/03 22:10:31  5-MIN KMSN 030410Z 10007KT 10SM OVC120 M02/M10 A3046 370 55 -1600 100/07 RMK AO2
14837KMSN MSN20031202221509912/02/03 22:15:31  5-MIN KMSN 030415Z 11006KT 10SM OVC120 M02/M11 A3045 370 53 -1600 110/06 RMK AO2
14837KMSN MSN20031202222009912/02/03 22:20:31  5-MIN KMSN 030420Z 11007KT 10SM OVC120 M02/M11 A3045 380 53 -1600 110/07 RMK AO2
14837KMSN MSN20031202222509912/02/03 22:25:31  5-MIN KMSN 030425Z 11006KT 10SM OVC120 M02/M10 A3045 380 55 -1600 110/06 RMK AO2
14837KMSN MSN20031202223009912/02/03 22:30:31  5-MIN KMSN 030430Z 11008KT 10SM OVC120 M02/M09 A3045 380 58 -1600 110/08 RMK AO2
14837KMSN MSN20031202223509912/02/03 22:35:31  5-MIN KMSN 030435Z 12007KT 10SM OVC120 M02/M09 A3045 380 58 -1600 120/07 RMK AO2
14837KMSN MSN20031202224009912/02/03 22:40:31  5-MIN KMSN 030440Z 12008KT 10SM OVC120 M02/M09 A3045 380 58 -1600 120/08 RMK AO2
14837KMSN MSN20031202224509912/02/03 22:45:31  5-MIN KMSN 030445Z 12006KT 10SM OVC110 M02/M09 A3045 380 60 -1600 120/06 RMK AO2
14837KMSN MSN20031202225011612/02/03 22:50:31  5-MIN KMSN 030450Z 12007KT 10SM OVC110 M02/M09 A3045 380 60 -1600 120/07 RMK AO2 SLP322 T10221089
14837KMSN MSN20031202225509912/02/03 22:55:31  5-MIN KMSN 030455Z 12008KT 10SM OVC110 M02/M08 A3045 380 63 -1600 120/08 RMK AO2
14837KMSN MSN20031202230009912/02/03 23:00:31  5-MIN KMSN 030500Z 12007KT 10SM OVC110 M02/M08 A3045 380 63 -1600 120/07 RMK AO2
14837KMSN MSN20031202230509912/02/03 23:05:31  5-MIN KMSN 030505Z 13007KT 10SM OVC110 M02/M08 A3045 380 63 -1600 120/07 RMK AO2
14837KMSN MSN20031202231009912/02/03 23:10:31  5-MIN KMSN 030510Z 13008KT 10SM OVC120 M02/M09 A3045 380 58 -1600 130/08 RMK AO2
14837KMSN MSN20031202231509912/02/03 23:15:31  5-MIN KMSN 030515Z 14007KT 10SM OVC120 M02/M09 A3045 370 58 -1600 140/07 RMK AO2
14837KMSN MSN20031202232009912/02/03 23:20:31  5-MIN KMSN 030520Z 14008KT 10SM OVC120 M02/M09 A3045 370 58 -1600 140/08 RMK AO2
14837KMSN MSN20031202232509912/02/03 23:25:31  5-MIN KMSN 030525Z 13007KT 10SM OVC120 M02/M09 A3045 380 58 -1600 130/07 RMK AO2
14837KMSN MSN20031202233009912/02/03 23:30:31  5-MIN KMSN 030530Z 14007KT 10SM OVC120 M02/M09 A3045 380 58 -1600 140/07 RMK AO2
14837KMSN MSN20031202233509912/02/03 23:35:31  5-MIN KMSN 030535Z 13007KT 10SM OVC120 M02/M09 A3045 380 58 -1600 130/07 RMK AO2
14837KMSN MSN20031202234009912/02/03 23:40:31  5-MIN KMSN 030540Z 13007KT 10SM OVC120 M03/M09 A3045 380 63 -1600 130/07 RMK AO2
14837KMSN MSN20031202234509912/02/03 23:45:31  5-MIN KMSN 030545Z 13006KT 10SM OVC110 M03/M09 A3045 380 63 -1600 130/06 RMK AO2
14837KMSN MSN20031202235014412/02/03 23:50:31  5-MIN KMSN 030550Z 13007KT 10SM OVC110 M03/M09 A3045 380 63 -1600 130/07 RMK AO2 SLP322 T10281089 11022 21039 400001094 55003
14837KMSN MSN20031202235509912/02/03 23:55:31  5-MIN KMSN 030555Z 13006KT 10SM OVC110 M03/M09 A3045 380 63 -1600 130/06 RMK AO2
14837KMSN MSN20031203000009912/03/03 00:00:31  5-MIN KMSN 030600Z 12007KT 10SM OVC110 M03/M09 A3045 380 63 -1600 120/07 RMK AO2
14837KMSN MSN20031203000509912/03/03 00:05:31  5-MIN KMSN 030605Z 11007KT 10SM OVC110 M03/M08 A3045 380 66 -1600 110/07 RMK AO2
14837KMSN MSN20031203001009912/03/03 00:10:31  5-MIN KMSN 030610Z 11007KT 10SM OVC110 M03/M08 A3045 380 66 -1600 110/07 RMK AO2
14837KMSN MSN20031203001509912/03/03 00:15:31  5-MIN KMSN 030615Z 11008KT 10SM OVC110 M03/M08 A3045 380 68 -1600 110/08 RMK AO2
14837KMSN MSN20031203002009912/03/03 00:20:31  5-MIN KMSN 030620Z 11006KT 10SM BKN110 M03/M08 A3045 380 68 -1600 110/06 RMK AO2
14837KMSN MSN20031203002509912/03/03 00:25:31  5-MIN KMSN 030625Z 11006KT 10SM BKN110 M03/M08 A3045 380 68 -1600 110/06 RMK AO2
14837KMSN MSN20031203003009912/03/03 00:30:31  5-MIN KMSN 030630Z 11006KT 10SM SCT110 M03/M08 A3045 380 68 -1600 110/06 RMK AO2
14837KMSN MSN20031203003509912/03/03 00:35:31  5-MIN KMSN 030635Z 10006KT 10SM FEW110 M03/M08 A3045 380 71 -1700 100/06 RMK AO2
14837KMSN MSN20031203004009912/03/03 00:40:31  5-MIN KMSN 030640Z 10006KT 10SM FEW110 M03/M08 A3044 380 68 -1600 100/06 RMK AO2
14837KMSN MSN20031203004509612/03/03 00:45:31  5-MIN KMSN 030645Z 10006KT 10SM CLR M03/M08 A3044 380 68 -1600 100/06 RMK AO2
14837KMSN MSN20031203005011312/03/03 00:50:31  5-MIN KMSN 030650Z 11006KT 10SM CLR M03/M08 A3044 390 68 -1600 110/06 RMK AO2 SLP320 T10281078
14837KMSN MSN20031203005509612/03/03 00:55:31  5-MIN KMSN 030655Z 11006KT 10SM CLR M03/M08 A3044 390 68 -1600 110/06 RMK AO2
14837KMSN MSN20031203010009612/03/03 01:00:31  5-MIN KMSN 030700Z 12006KT 10SM CLR M03/M08 A3044 390 68 -1600 110/06 RMK AO2
14837KMSN MSN20031203010509612/03/03 01:05:31  5-MIN KMSN 030705Z 11005KT 10SM CLR M03/M08 A3044 380 68 -1600 110/05 RMK AO2
14837KMSN MSN20031203011009612/03/03 01:10:31  5-MIN KMSN 030710Z 11006KT 10SM CLR M03/M08 A3045 380 68 -1600 110/06 RMK AO2
14837KMSN MSN20031203011509612/03/03 01:15:31  5-MIN KMSN 030715Z 12005KT 10SM CLR M03/M08 A3045 380 68 -1600 120/05 RMK AO2
14837KMSN MSN20031203012009612/03/03 01:20:31  5-MIN KMSN 030720Z 12005KT 10SM CLR M03/M07 A3045 380 71 -1600 120/05 RMK AO2
14837KMSN MSN20031203012509612/03/03 01:25:31  5-MIN KMSN 030725Z 13005KT 10SM CLR M03/M08 A3045 380 68 -1600 130/05 RMK AO2
14837KMSN MSN20031203013009612/03/03 01:30:31  5-MIN KMSN 030730Z 12004KT 10SM CLR M03/M08 A3045 380 68 -1600 120/04 RMK AO2
14837KMSN MSN20031203013509612/03/03 01:35:31  5-MIN KMSN 030735Z 11004KT 10SM CLR M03/M08 A3045 380 68 -1600 110/04 RMK AO2
14837KMSN MSN20031203014009612/03/03 01:40:31  5-MIN KMSN 030740Z 11005KT 10SM CLR M03/M08 A3045 380 68 -1600 100/05 RMK AO2
14837KMSN MSN20031203014509612/03/03 01:45:31  5-MIN KMSN 030745Z 11005KT 10SM CLR M03/M08 A3046 370 71 -1700 110/05 RMK AO2
14837KMSN MSN20031203015011312/03/03 01:50:31  5-MIN KMSN 030750Z 10005KT 10SM CLR M03/M08 A3046 370 71 -1700 100/05 RMK AO2 SLP326 T10331078
14837KMSN MSN20031203015509612/03/03 01:55:31  5-MIN KMSN 030755Z 10006KT 10SM CLR M03/M08 A3046 370 71 -1700 100/06 RMK AO2
14837KMSN MSN20031203020009612/03/03 02:00:31  5-MIN KMSN 030800Z 10005KT 10SM CLR M04/M08 A3046 370 74 -1800 100/05 RMK AO2
14837KMSN MSN20031203020509912/03/03 02:05:31  5-MIN KMSN 030805Z 09005KT 10SM FEW110 M04/M08 A3045 380 74 -1800 090/05 RMK AO2
14837KMSN MSN20031203021009912/03/03 02:10:31  5-MIN KMSN 030810Z 08006KT 10SM SCT110 M03/M08 A3045 380 71 -1700 080/06 RMK AO2
14837KMSN MSN20031203021509912/03/03 02:15:31  5-MIN KMSN 030815Z 09007KT 10SM FEW110 M03/M07 A3045 380 74 -1700 090/07 RMK AO2
14837KMSN MSN20031203022009912/03/03 02:20:31  5-MIN KMSN 030820Z 08005KT 10SM SCT120 M03/M07 A3044 380 74 -1700 070/05 RMK AO2
14837KMSN MSN20031203022509912/03/03 02:25:31  5-MIN KMSN 030825Z 07004KT 10SM BKN120 M04/M08 A3044 380 74 -1800 070/04 RMK AO2
14837KMSN MSN20031203023009912/03/03 02:30:31  5-MIN KMSN 030830Z 07004KT 10SM BKN120 M04/M08 A3044 380 78 -1800 070/04 RMK AO2
14837KMSN MSN20031203023509912/03/03 02:35:31  5-MIN KMSN 030835Z 07003KT 10SM BKN120 M04/M08 A3044 380 74 -1800 070/03 RMK AO2
14837KMSN MSN20031203024009912/03/03 02:40:31  5-MIN KMSN 030840Z 06003KT 10SM BKN110 M04/M08 A3044 380 74 -1800 050/03 RMK AO2
14837KMSN MSN20031203024509912/03/03 02:45:31  5-MIN KMSN 030845Z 00000KT 10SM BKN110 M04/M08 A3045 380 74 -1800 000/00 RMK AO2
14837KMSN MSN20031203025012212/03/03 02:50:31  5-MIN KMSN 030850Z 00000KT 10SM BKN110 M04/M07 A3045 380 78 -1800 000/00 RMK AO2 SLP322 T10391072 56005
14837KMSN MSN20031203025509912/03/03 02:55:31  5-MIN KMSN 030855Z 00000KT 10SM BKN120 M03/M08 A3044 380 71 -1700 000/00 RMK AO2
14837KMSN MSN20031203030009912/03/03 03:00:31  5-MIN KMSN 030900Z 11003KT 10SM BKN120 M03/M08 A3044 380 71 -1700 110/03 RMK AO2
14837KMSN MSN20031203030509912/03/03 03:05:31  5-MIN KMSN 030905Z 10004KT 10SM BKN120 M03/M08 A3044 380 71 -1700 100/04 RMK AO2
14837KMSN MSN20031203031009912/03/03 03:10:31  5-MIN KMSN 030910Z 10003KT 10SM BKN120 M04/M08 A3044 380 74 -1800 100/03 RMK AO2
14837KMSN MSN20031203031509912/03/03 03:15:31  5-MIN KMSN 030915Z 09003KT 10SM OVC120 M04/M08 A3044 380 74 -1800 090/03 RMK AO2
14837KMSN MSN20031203032009912/03/03 03:20:31  5-MIN KMSN 030920Z 07004KT 10SM OVC120 M04/M08 A3045 380 78 -1800 070/04 RMK AO2
14837KMSN MSN20031203032509912/03/03 03:25:31  5-MIN KMSN 030925Z 07005KT 10SM OVC120 M04/M08 A3045 380 74 -1800 070/05 RMK AO2
14837KMSN MSN20031203033009912/03/03 03:30:31  5-MIN KMSN 030930Z 08003KT 10SM BKN120 M04/M08 A3045 380 74 -1800 080/03 RMK AO2
14837KMSN MSN20031203033509912/03/03 03:35:31  5-MIN KMSN 030935Z 00000KT 10SM BKN120 M04/M08 A3045 380 78 -1800 000/00 RMK AO2
14837KMSN MSN20031203034009912/03/03 03:40:31  5-MIN KMSN 030940Z 00000KT 10SM SCT120 M04/M08 A3045 380 74 -1800 000/00 RMK AO2
14837KMSN MSN20031203034509912/03/03 03:45:31  5-MIN KMSN 030945Z 12004KT 10SM FEW110 M04/M07 A3045 380 78 -1800 120/04 RMK AO2
14837KMSN MSN20031203035011612/03/03 03:50:31  5-MIN KMSN 030950Z 11005KT 10SM FEW120 M04/M08 A3045 380 74 -1800 110/05 RMK AO2 SLP322 T10391078
14837KMSN MSN20031203035509912/03/03 03:55:31  5-MIN KMSN 030955Z 11004KT 10SM FEW120 M04/M08 A3045 380 74 -1800 110/04 RMK AO2
14837KMSN MSN20031203040009912/03/03 04:00:31  5-MIN KMSN 031000Z 09005KT 10SM FEW120 M04/M08 A3044 380 74 -1800 090/05 RMK AO2
14837KMSN MSN20031203040509912/03/03 04:05:31  5-MIN KMSN 031005Z 08004KT 10SM FEW120 M04/M08 A3044 380 78 -1800 080/04 RMK AO2
14837KMSN MSN20031203041009912/03/03 04:10:31  5-MIN KMSN 031010Z 06005KT 10SM FEW120 M05/M08 A3044 380 81 -1900 060/05 RMK AO2
14837KMSN MSN20031203041509912/03/03 04:15:31  5-MIN KMSN 031015Z 06007KT 10SM FEW120 M06/M08 A3044 390 81 -2000 060/07 RMK AO2
14837KMSN MSN20031203042009912/03/03 04:20:31  5-MIN KMSN 031020Z 06006KT 10SM FEW120 M06/M08 A3044 390 84 -2000 060/06 RMK AO2
14837KMSN MSN20031203042509912/03/03 04:25:31  5-MIN KMSN 031025Z 08005KT 10SM FEW120 M05/M08 A3044 380 81 -1900 080/05 RMK AO2
14837KMSN MSN20031203043009912/03/03 04:30:31  5-MIN KMSN 031030Z 09004KT 10SM SCT120 M05/M08 A3045 380 81 -1900 090/04 RMK AO2
14837KMSN MSN20031203043509912/03/03 04:35:31  5-MIN KMSN 031035Z 09003KT 10SM BKN120 M04/M08 A3045 380 74 -1800 090/03 RMK AO2
14837KMSN MSN20031203044009912/03/03 04:40:31  5-MIN KMSN 031040Z 10003KT 10SM BKN120 M04/M07 A3045 380 78 -1800 100/03 RMK AO2
14837KMSN MSN20031203044509912/03/03 04:45:31  5-MIN KMSN 031045Z 08003KT 10SM BKN120 M04/M08 A3045 380 78 -1800 080/03 RMK AO2
14837KMSN MSN20031203045011612/03/03 04:50:31  5-MIN KMSN 031050Z 08004KT 10SM BKN120 M05/M08 A3045 380 81 -1900 080/04 RMK AO2 SLP324 T10501078
14837KMSN MSN20031203045509912/03/03 04:55:31  5-MIN KMSN 031055Z 09003KT 10SM BKN120 M04/M08 A3045 380 78 -1800 090/03 RMK AO2
14837KMSN MSN20031203050009912/03/03 05:00:31  5-MIN KMSN 031100Z 00000KT 10SM SCT120 M04/M08 A3045 380 78 -1800 000/00 RMK AO2
14837KMSN MSN20031203050509912/03/03 05:05:31  5-MIN KMSN 031105Z 02003KT 10SM FEW120 M06/M08 A3045 380 84 -2000 020/03 RMK AO2
14837KMSN MSN20031203051009912/03/03 05:10:31  5-MIN KMSN 031110Z 04003KT 10SM FEW120 M05/M08 A3045 380 81 -1900 040/03 RMK AO2
14837KMSN MSN20031203051509912/03/03 05:15:31  5-MIN KMSN 031115Z 03003KT 10SM FEW120 M05/M08 A3045 380 81 -1900 030/03 RMK AO2
14837KMSN MSN20031203052009612/03/03 05:20:31  5-MIN KMSN 031120Z 04003KT 10SM CLR M04/M07 A3045 380 81 -1800 030/03 RMK AO2
14837KMSN MSN20031203052509612/03/03 05:25:31  5-MIN KMSN 031125Z 03003KT 10SM CLR M04/M07 A3045 380 81 -1800 030/03 RMK AO2
14837KMSN MSN20031203053009612/03/03 05:30:31  5-MIN KMSN 031130Z 03003KT 10SM CLR M05/M07 A3044 380 84 -1900 030/03 RMK AO2
14837KMSN MSN20031203053509612/03/03 05:35:31  5-MIN KMSN 031135Z 03004KT 10SM CLR M05/M07 A3044 390 84 -1900 030/04 RMK AO2
14837KMSN MSN20031203054009612/03/03 05:40:31  5-MIN KMSN 031140Z 04005KT 10SM CLR M04/M07 A3044 390 81 -1800 040/05 RMK AO2
14837KMSN MSN20031203054509612/03/03 05:45:31  5-MIN KMSN 031145Z 04004KT 10SM CLR M05/M07 A3044 390 84 -1900 040/04 RMK AO2
14837KMSN MSN20031203055013112/03/03 05:50:31  5-MIN KMSN 031150Z 05004KT 10SM CLR M05/M07 A3044 390 84 -1900 040/04 RMK AO2 SLP320 T10501072 11028 21056 58000
14837KMSN MSN20031203055509612/03/03 05:55:31  5-MIN KMSN 031155Z 04004KT 10SM CLR M05/M08 A3044 390 81 -1900 040/04 RMK AO2
14837KMSN MSN20031203060009612/03/03 06:00:31  5-MIN KMSN 031200Z 04005KT 10SM CLR M04/M08 A3044 390 78 -1800 040/05 RMK AO2
14837KMSN MSN20031203060509612/03/03 06:05:31  5-MIN KMSN 031205Z 04006KT 10SM CLR M05/M08 A3044 390 81 -1900 040/06 RMK AO2
14837KMSN MSN20031203061009612/03/03 06:10:31  5-MIN KMSN 031210Z 03005KT 10SM CLR M05/M08 A3044 390 81 -1900 030/05 RMK AO2
14837KMSN MSN20031203061509612/03/03 06:15:31  5-MIN KMSN 031215Z 04004KT 10SM CLR M05/M08 A3044 390 81 -1900 040/04 RMK AO2
14837KMSN MSN20031203062009612/03/03 06:20:31  5-MIN KMSN 031220Z 05004KT 10SM CLR M05/M07 A3044 390 84 -1900 040/04 RMK AO2
14837KMSN MSN20031203062509612/03/03 06:25:31  5-MIN KMSN 031225Z 04003KT 10SM CLR M05/M07 A3043 390 84 -1900 040/03 RMK AO2
14837KMSN MSN20031203063009612/03/03 06:30:31  5-MIN KMSN 031230Z 04003KT 10SM CLR M04/M07 A3043 390 81 -1800 040/03 RMK AO2
14837KMSN MSN20031203063509612/03/03 06:35:31  5-MIN KMSN 031235Z 03003KT 10SM CLR M04/M07 A3043 390 81 -1800 030/03 RMK AO2
14837KMSN MSN20031203064009612/03/03 06:40:31  5-MIN KMSN 031240Z 03004KT 10SM CLR M04/M07 A3043 390 81 -1800 020/04 RMK AO2
14837KMSN MSN20031203064509612/03/03 06:45:31  5-MIN KMSN 031245Z 03004KT 10SM CLR M05/M07 A3043 390 84 -1900 030/04 RMK AO2
14837KMSN MSN20031203065011312/03/03 06:50:31  5-MIN KMSN 031250Z 04004KT 10SM CLR M05/M08 A3043 390 81 -1900 040/04 RMK AO2 SLP319 T10501078
14837KMSN MSN20031203065509612/03/03 06:55:31  5-MIN KMSN 031255Z 04004KT 10SM CLR M06/M08 A3044 390 88 -2000 040/04 RMK AO2
14837KMSN MSN20031203070009612/03/03 07:00:31  5-MIN KMSN 031300Z 04003KT 10SM CLR M06/M08 A3044 390 88 -2000 040/03 RMK AO2
14837KMSN MSN20031203070509612/03/03 07:05:31  5-MIN KMSN 031305Z 00000KT 10SM CLR M05/M07 A3044 390 88 -1900 000/00 RMK AO2
14837KMSN MSN20031203071009612/03/03 07:10:31  5-MIN KMSN 031310Z 00000KT 10SM CLR M05/M07 A3044 390 84 -1900 000/00 RMK AO2
14837KMSN MSN20031203071509612/03/03 07:15:31  5-MIN KMSN 031315Z 07003KT 10SM CLR M04/M07 A3044 390 81 -1800 070/03 RMK AO2
14837KMSN MSN20031203072009612/03/03 07:20:31  5-MIN KMSN 031320Z 07003KT 10SM CLR M04/M07 A3044 390 81 -1800 070/03 RMK AO2
14837KMSN MSN20031203072509612/03/03 07:25:31  5-MIN KMSN 031325Z 06003KT 10SM CLR M05/M07 A3044 390 84 -1900 060/03 RMK AO2
14837KMSN MSN20031203073009612/03/03 07:30:31  5-MIN KMSN 031330Z 06003KT 10SM CLR M05/M08 A3044 390 81 -1900 060/03 RMK AO2
14837KMSN MSN20031203073509612/03/03 07:35:31  5-MIN KMSN 031335Z VRB03KT 10SM CLR M05/M07 A3044 380 84 -1900 VRB/03 RMK AO2
14837KMSN MSN20031203074009612/03/03 07:40:31  5-MIN KMSN 031340Z 05005KT 10SM CLR M05/M07 A3044 380 84 -1900 050/05 RMK AO2
14837KMSN MSN20031203074509612/03/03 07:45:31  5-MIN KMSN 031345Z 05005KT 10SM CLR M06/M08 A3044 380 84 -2000 050/05 RMK AO2
14837KMSN MSN20031203075011312/03/03 07:50:31  5-MIN KMSN 031350Z 06004KT 10SM CLR M06/M08 A3044 390 84 -2000 060/04 RMK AO2 SLP323 T10611083
14837KMSN MSN20031203075509612/03/03 07:55:31  5-MIN KMSN 031355Z 06004KT 10SM CLR M06/M08 A3044 390 84 -2000 060/04 RMK AO2
14837KMSN MSN20031203080009612/03/03 08:00:31  5-MIN KMSN 031400Z 06005KT 10SM CLR M05/M07 A3044 390 84 -1900 060/05 RMK AO2
14837KMSN MSN20031203080509612/03/03 08:05:31  5-MIN KMSN 031405Z 07005KT 10SM CLR M04/M07 A3044 390 84 -1800 060/05 RMK AO2
14837KMSN MSN20031203081009612/03/03 08:10:31  5-MIN KMSN 031410Z 07006KT 10SM CLR M04/M06 A3044 390 85 -1800 070/06 RMK AO2
14837KMSN MSN20031203081509612/03/03 08:15:31  5-MIN KMSN 031415Z 08005KT 10SM CLR M04/M06 A3044 390 88 -1800 080/05 RMK AO2
14837KMSN MSN20031203082009612/03/03 08:20:31  5-MIN KMSN 031420Z 09006KT 10SM CLR M03/M06 A3044 390 85 -1700 080/06 RMK AO2
14837KMSN MSN20031203082509612/03/03 08:25:31  5-MIN KMSN 031425Z 09006KT 10SM CLR M03/M05 A3044 390 85 -1600 080/06 RMK AO2
14837KMSN MSN20031203083009612/03/03 08:30:31  5-MIN KMSN 031430Z 09006KT 10SM CLR M02/M04 A3044 390 85 -1500 080/06 RMK AO2
14837KMSN MSN20031203083509612/03/03 08:35:31  5-MIN KMSN 031435Z 09007KT 10SM CLR M02/M04 A3044 390 85 -1500 090/07 RMK AO2
14837KMSN MSN20031203084009612/03/03 08:40:31  5-MIN KMSN 031440Z 09006KT 10SM CLR M02/M04 A3044 380 85 -1500 090/06 RMK AO2
14837KMSN MSN20031203084509612/03/03 08:45:31  5-MIN KMSN 031445Z 09007KT 10SM CLR M01/M04 A3044 390 81 -1400 090/07 RMK AO2
14837KMSN MSN20031203085011912/03/03 08:50:31  5-MIN KMSN 031450Z 10007KT 10SM CLR M01/M04 A3044 390 81 -1400 100/07 RMK AO2 SLP319 T10111039 58003
14837KMSN MSN20031203085509612/03/03 08:55:31  5-MIN KMSN 031455Z 10007KT 10SM CLR M01/M03 A3044 390 81 -1300 100/07 RMK AO2
14837KMSN MSN20031203090009612/03/03 09:00:31  5-MIN KMSN 031500Z 10007KT 10SM CLR M01/M03 A3044 390 81 -1300 100/07 RMK AO2
14837KMSN MSN20031203090509612/03/03 09:05:31  5-MIN KMSN 031505Z 11008KT 10SM CLR M01/M03 A3044 390 81 -1300 110/08 RMK AO2
14837KMSN MSN20031203091009512/03/03 09:10:31  5-MIN KMSN 031510Z 10010KT 10SM CLR 00/M03 A3044 390 81 -1300 100/10 RMK AO2
14837KMSN MSN20031203091509512/03/03 09:15:31  5-MIN KMSN 031515Z 11008KT 10SM CLR 00/M03 A3044 390 78 -1300 110/08 RMK AO2
14837KMSN MSN20031203092009512/03/03 09:20:31  5-MIN KMSN 031520Z 11008KT 10SM CLR 00/M03 A3044 390 78 -1300 110/08 RMK AO2
14837KMSN MSN20031203092509512/03/03 09:25:31  5-MIN KMSN 031525Z 12009KT 10SM CLR 01/M03 A3044 390 75 -1200 120/09 RMK AO2
14837KMSN MSN20031203093009512/03/03 09:30:31  5-MIN KMSN 031530Z 12010KT 10SM CLR 01/M03 A3044 390 78 -1200 120/10 RMK AO2
14837KMSN MSN20031203093509512/03/03 09:35:31  5-MIN KMSN 031535Z 12012KT 10SM CLR 01/M03 A3044 390 72 -1100 110/12 RMK AO2
14837KMSN MSN20031203094009512/03/03 09:40:31  5-MIN KMSN 031540Z 13010KT 10SM CLR 01/M03 A3044 390 72 -1100 130/10 RMK AO2
14837KMSN MSN20031203094509512/03/03 09:45:31  5-MIN KMSN 031545Z 13010KT 10SM CLR 01/M03 A3044 390 72 -1100 130/10 RMK AO2
14837KMSN MSN20031203095011212/03/03 09:50:31  5-MIN KMSN 031550Z 12013KT 10SM CLR 02/M03 A3044 390 69 -1100 120/13 RMK AO2 SLP319 T00171033
14837KMSN MSN20031203095509512/03/03 09:55:31  5-MIN KMSN 031555Z 12014KT 10SM CLR 02/M04 A3044 390 66 -1100 120/14 RMK AO2
14837KMSN MSN20031203100009512/03/03 10:00:31  5-MIN KMSN 031600Z 12012KT 10SM CLR 02/M03 A3044 390 67 -1000 120/12 RMK AO2
14837KMSN MSN20031203100510112/03/03 10:05:31  5-MIN KMSN 031605Z 12014G19KT 10SM CLR 02/M04 A3044 390 66 -1100 120/14G19 RMK AO2
14837KMSN MSN20031203101010112/03/03 10:10:31  5-MIN KMSN 031610Z 13013G19KT 10SM CLR 02/M04 A3044 390 66 -1100 130/13G19 RMK AO2
14837KMSN MSN20031203101509512/03/03 10:15:31  5-MIN KMSN 031615Z 13010KT 10SM CLR 02/M04 A3043 390 64 -1000 130/10 RMK AO2
14837KMSN MSN20031203102010012/03/03 10:20:31  5-MIN KMSN 031620Z 13016G19KT 10SM CLR 03/M04 A3043 390 59 -900 130/16G19 RMK AO2
14837KMSN MSN20031203102510112/03/03 10:25:31  5-MIN KMSN 031625Z 13014G19KT 10SM CLR 02/M04 A3043 400 61 -1000 130/14G19 RMK AO2
14837KMSN MSN20031203103010012/03/03 10:30:31  5-MIN KMSN 031630Z 12011G19KT 10SM CLR 03/M04 A3043 400 59 -900 120/11G19 RMK AO2
14837KMSN MSN20031203103509412/03/03 10:35:31  5-MIN KMSN 031635Z 12014KT 10SM CLR 03/M05 A3043 400 56 -900 120/14 RMK AO2
14837KMSN MSN20031203104009412/03/03 10:40:31  5-MIN KMSN 031640Z 13012KT 10SM CLR 03/M05 A3043 400 56 -900 130/12 RMK AO2
14837KMSN MSN20031203104509412/03/03 10:45:31  5-MIN KMSN 031645Z 12015KT 10SM CLR 03/M05 A3042 400 54 -800 120/15 RMK AO2
14837KMSN MSN20031203105011112/03/03 10:50:31  5-MIN KMSN 031650Z 13012KT 10SM CLR 03/M06 A3042 400 54 -900 130/12 RMK AO2 SLP312 T00281056
14837KMSN MSN20031203105509412/03/03 10:55:31  5-MIN KMSN 031655Z 12014KT 10SM CLR 03/M05 A3042 410 56 -900 120/14 RMK AO2
14837KMSN MSN20031203110009412/03/03 11:00:31  5-MIN KMSN 031700Z 13012KT 10SM CLR 03/M06 A3042 410 54 -900 120/12 RMK AO2
14837KMSN MSN20031203110509412/03/03 11:05:31  5-MIN KMSN 031705Z 12015KT 10SM CLR 03/M06 A3041 410 54 -900 120/15 RMK AO2
14837KMSN MSN20031203111009412/03/03 11:10:31  5-MIN KMSN 031710Z 12014KT 10SM CLR 03/M06 A3041 410 54 -900 120/14 RMK AO2
14837KMSN MSN20031203111509412/03/03 11:15:31  5-MIN KMSN 031715Z 13013KT 10SM CLR 03/M06 A3041 410 54 -900 130/13 RMK AO2
14837KMSN MSN20031203112009412/03/03 11:20:31  5-MIN KMSN 031720Z 12013KT 10SM CLR 03/M06 A3041 420 54 -900 120/13 RMK AO2
14837KMSN MSN20031203112509412/03/03 11:25:31  5-MIN KMSN 031725Z 12013KT 10SM CLR 02/M06 A3040 420 56 -900 120/13 RMK AO2
14837KMSN MSN20031203113009412/03/03 11:30:31  5-MIN KMSN 031730Z 12012KT 10SM CLR 02/M06 A3040 430 56 -900 120/12 RMK AO2
14837KMSN MSN20031203113509412/03/03 11:35:31  5-MIN KMSN 031735Z 12013KT 10SM CLR 03/M06 A3039 430 52 -900 120/13 RMK AO2
14837KMSN MSN20031203114009412/03/03 11:40:31  5-MIN KMSN 031740Z 11010KT 10SM CLR 03/M06 A3039 430 54 -900 110/10 RMK AO2
14837KMSN MSN20031203114509412/03/03 11:45:31  5-MIN KMSN 031745Z 12010KT 10SM CLR 03/M06 A3039 430 54 -900 120/10 RMK AO2
14837KMSN MSN20031203115012912/03/03 11:50:31  5-MIN KMSN 031750Z 12011KT 10SM CLR 03/M06 A3039 430 52 -800 120/11 RMK AO2 SLP301 T00331056 10033 21067 50000
14837KMSN MSN20031203115509412/03/03 11:55:31  5-MIN KMSN 031755Z 11010KT 10SM CLR 03/M06 A3039 440 52 -800 110/10 RMK AO2
14837KMSN MSN20031203120009412/03/03 12:00:31  5-MIN KMSN 031800Z 11014KT 10SM CLR 03/M06 A3039 440 52 -800 110/14 RMK AO2
14837KMSN MSN20031203120509412/03/03 12:05:31  5-MIN KMSN 031805Z 11009KT 10SM CLR 03/M06 A3038 440 52 -800 100/09 RMK AO2
14837KMSN MSN20031203121009412/03/03 12:10:31  5-MIN KMSN 031810Z 12008KT 10SM CLR 03/M06 A3038 440 54 -800 110/08 RMK AO2
14837KMSN MSN20031203121509412/03/03 12:15:31  5-MIN KMSN 031815Z 10013KT 10SM CLR 03/M06 A3038 440 50 -800 100/13 RMK AO2
14837KMSN MSN20031203122009412/03/03 12:20:31  5-MIN KMSN 031820Z 11012KT 10SM CLR 04/M06 A3038 450 48 -700 100/12 RMK AO2
14837KMSN MSN20031203122509412/03/03 12:25:31  5-MIN KMSN 031825Z 10012KT 10SM CLR 03/M06 A3037 450 52 -800 100/12 RMK AO2
14837KMSN MSN20031203123009412/03/03 12:30:31  5-MIN KMSN 031830Z 11010KT 10SM CLR 03/M06 A3037 450 52 -800 110/10 RMK AO2
14837KMSN MSN20031203123509412/03/03 12:35:31  5-MIN KMSN 031835Z 11013KT 10SM CLR 04/M05 A3037 450 52 -700 100/13 RMK AO2
14837KMSN MSN20031203124009412/03/03 12:40:31  5-MIN KMSN 031840Z 10010KT 10SM CLR 04/M05 A3037 450 52 -700 100/10 RMK AO2
14837KMSN MSN20031203124509412/03/03 12:45:31  5-MIN KMSN 031845Z 11011KT 10SM CLR 04/M05 A3037 450 50 -600 110/11 RMK AO2
14837KMSN MSN20031203125011112/03/03 12:50:31  5-MIN KMSN 031850Z 12013KT 10SM CLR 04/M05 A3037 450 52 -700 120/13 RMK AO2 SLP293 T00391050
14837KMSN MSN20031203125509412/03/03 12:55:31  5-MIN KMSN 031855Z 12011KT 10SM CLR 04/M05 A3036 460 52 -700 120/11 RMK AO2
14837KMSN MSN20031203130009412/03/03 13:00:31  5-MIN KMSN 031900Z 13011KT 10SM CLR 04/M05 A3036 460 52 -700 130/11 RMK AO2
14837KMSN MSN20031203130509412/03/03 13:05:31  5-MIN KMSN 031905Z 11012KT 10SM CLR 04/M05 A3036 460 52 -700 110/12 RMK AO2
14837KMSN MSN20031203131009412/03/03 13:10:31  5-MIN KMSN 031910Z 10011KT 10SM CLR 04/M04 A3036 460 52 -600 100/11 RMK AO2
14837KMSN MSN20031203131509412/03/03 13:15:31  5-MIN KMSN 031915Z 12013KT 10SM CLR 04/M04 A3035 470 52 -600 120/13 RMK AO2
14837KMSN MSN20031203132009412/03/03 13:20:31  5-MIN KMSN 031920Z 12011KT 10SM CLR 04/M04 A3035 470 52 -600 110/11 RMK AO2
14837KMSN MSN20031203132509412/03/03 13:25:31  5-MIN KMSN 031925Z 10012KT 10SM CLR 04/M04 A3035 470 52 -600 100/12 RMK AO2
14837KMSN MSN20031203133009412/03/03 13:30:31  5-MIN KMSN 031930Z 10011KT 10SM CLR 04/M04 A3035 470 52 -600 100/11 RMK AO2
14837KMSN MSN20031203133509412/03/03 13:35:31  5-MIN KMSN 031935Z 10011KT 10SM CLR 04/M04 A3035 470 54 -700 100/11 RMK AO2
14837KMSN MSN20031203134009412/03/03 13:40:31  5-MIN KMSN 031940Z 11011KT 10SM CLR 04/M04 A3035 470 52 -600 100/11 RMK AO2
14837KMSN MSN20031203134509412/03/03 13:45:31  5-MIN KMSN 031945Z 10011KT 10SM CLR 04/M05 A3035 470 50 -600 100/11 RMK AO2
14837KMSN MSN20031203135011112/03/03 13:50:31  5-MIN KMSN 031950Z 11010KT 10SM CLR 04/M04 A3035 470 52 -600 100/10 RMK AO2 SLP287 T00441044
14837KMSN MSN20031203135509412/03/03 13:55:31  5-MIN KMSN 031955Z 09010KT 10SM CLR 04/M05 A3035 470 50 -600 090/10 RMK AO2
14837KMSN MSN20031203140009412/03/03 14:00:31  5-MIN KMSN 032000Z 09011KT 10SM CLR 04/M05 A3035 470 50 -600 090/11 RMK AO2
14837KMSN MSN20031203140509412/03/03 14:05:31  5-MIN KMSN 032005Z 09010KT 10SM CLR 05/M05 A3035 470 48 -500 090/10 RMK AO2
14837KMSN MSN20031203141009412/03/03 14:10:31  5-MIN KMSN 032010Z 11010KT 10SM CLR 05/M05 A3035 470 48 -500 100/10 RMK AO2
14837KMSN MSN20031203141509412/03/03 14:15:31  5-MIN KMSN 032015Z 11012KT 10SM CLR 04/M06 A3035 470 48 -600 110/12 RMK AO2
14837KMSN MSN20031203142009412/03/03 14:20:31  5-MIN KMSN 032020Z 12011KT 10SM CLR 04/M06 A3035 470 46 -600 120/11 RMK AO2
14837KMSN MSN20031203142509412/03/03 14:25:31  5-MIN KMSN 032025Z 12012KT 10SM CLR 04/M06 A3035 470 48 -700 120/12 RMK AO2
14837KMSN MSN20031203143009412/03/03 14:30:31  5-MIN KMSN 032030Z 12012KT 10SM CLR 04/M06 A3035 470 48 -700 120/12 RMK AO2
14837KMSN MSN20031203143509412/03/03 14:35:31  5-MIN KMSN 032035Z 11010KT 10SM CLR 04/M06 A3035 470 48 -700 110/10 RMK AO2
14837KMSN MSN20031203144009412/03/03 14:40:31  5-MIN KMSN 032040Z 12011KT 10SM CLR 04/M06 A3035 470 48 -600 120/11 RMK AO2
14837KMSN MSN20031203144509412/03/03 14:45:31  5-MIN KMSN 032045Z 12010KT 10SM CLR 04/M06 A3035 470 48 -700 120/10 RMK AO2
14837KMSN MSN20031203145011712/03/03 14:50:31  5-MIN KMSN 032050Z 11012KT 10SM CLR 04/M06 A3035 470 48 -700 110/12 RMK AO2 SLP287 T00391061 58017
14837KMSN MSN20031203145509712/03/03 14:55:31  5-MIN KMSN 032055Z 11012KT 10SM SCT120 04/M06 A3035 470 48 -700 100/12 RMK AO2
14837KMSN MSN20031203150009712/03/03 15:00:31  5-MIN KMSN 032100Z 09012KT 10SM SCT120 04/M06 A3035 470 48 -700 090/12 RMK AO2
14837KMSN MSN20031203150509712/03/03 15:05:31  5-MIN KMSN 032105Z 10011KT 10SM SCT120 03/M07 A3035 470 48 -700 100/11 RMK AO2
14837KMSN MSN20031203151009712/03/03 15:10:31  5-MIN KMSN 032110Z 10011KT 10SM FEW120 03/M07 A3035 470 48 -700 100/11 RMK AO2
14837KMSN MSN20031203151509712/03/03 15:15:31  5-MIN KMSN 032115Z 10010KT 10SM FEW120 03/M07 A3034 480 48 -700 100/10 RMK AO2
14837KMSN MSN20031203152009712/03/03 15:20:31  5-MIN KMSN 032120Z 10009KT 10SM FEW120 03/M07 A3034 480 50 -800 100/09 RMK AO2
14837KMSN MSN20031203152509712/03/03 15:25:31  5-MIN KMSN 032125Z 09011KT 10SM FEW120 03/M06 A3034 480 52 -800 090/11 RMK AO2
14837KMSN MSN20031203153009712/03/03 15:30:31  5-MIN KMSN 032130Z 10008KT 10SM FEW120 03/M07 A3034 480 50 -800 100/08 RMK AO2
14837KMSN MSN20031203153509712/03/03 15:35:31  5-MIN KMSN 032135Z 10010KT 10SM FEW120 03/M07 A3034 480 50 -800 100/10 RMK AO2
14837KMSN MSN20031203154009712/03/03 15:40:31  5-MIN KMSN 032140Z 10009KT 10SM FEW120 03/M07 A3034 480 50 -800 100/09 RMK AO2
14837KMSN MSN20031203154509712/03/03 15:45:31  5-MIN KMSN 032145Z 10009KT 10SM FEW120 03/M07 A3034 480 50 -800 100/09 RMK AO2
14837KMSN MSN20031203155011412/03/03 15:50:31  5-MIN KMSN 032150Z 10008KT 10SM SCT100 02/M07 A3034 480 52 -900 100/08 RMK AO2 SLP284 T00221067
14837KMSN MSN20031203155509712/03/03 15:55:31  5-MIN KMSN 032155Z 10009KT 10SM FEW100 02/M07 A3033 480 52 -900 100/09 RMK AO2
14837KMSN MSN20031203160009712/03/03 16:00:31  5-MIN KMSN 032200Z 09010KT 10SM SCT100 02/M07 A3033 480 52 -900 090/10 RMK AO2
14837KMSN MSN20031203160509712/03/03 16:05:31  5-MIN KMSN 032205Z 09009KT 10SM SCT100 02/M07 A3033 490 52 -900 090/09 RMK AO2
14837KMSN MSN20031203161009712/03/03 16:10:31  5-MIN KMSN 032210Z 09009KT 10SM SCT100 02/M07 A3033 490 52 -900 080/09 RMK AO2
14837KMSN MSN20031203161509712/03/03 16:15:31  5-MIN KMSN 032215Z 09008KT 10SM SCT100 02/M07 A3033 490 52 -900 090/08 RMK AO2
14837KMSN MSN20031203162009712/03/03 16:20:31  5-MIN KMSN 032220Z 08008KT 10SM SCT100 02/M07 A3033 490 52 -900 080/08 RMK AO2
14837KMSN MSN20031203162509812/03/03 16:25:31  5-MIN KMSN 032225Z 07008KT 10SM SCT100 01/M07 A3033 490 54 -1000 070/08 RMK AO2
14837KMSN MSN20031203163009812/03/03 16:30:31  5-MIN KMSN 032230Z 08009KT 10SM SCT100 01/M07 A3033 490 54 -1000 080/09 RMK AO2
14837KMSN MSN20031203163509812/03/03 16:35:31  5-MIN KMSN 032235Z 08008KT 10SM SCT100 01/M07 A3033 490 54 -1000 080/08 RMK AO2
14837KMSN MSN20031203164009812/03/03 16:40:31  5-MIN KMSN 032240Z 09009KT 10SM FEW100 01/M08 A3033 490 51 -1000 090/09 RMK AO2
14837KMSN MSN20031203164509812/03/03 16:45:31  5-MIN KMSN 032245Z 08008KT 10SM FEW100 01/M08 A3033 490 51 -1000 080/08 RMK AO2
14837KMSN MSN20031203165011512/03/03 16:50:31  5-MIN KMSN 032250Z 08008KT 10SM FEW100 01/M08 A3033 490 54 -1100 080/08 RMK AO2 SLP282 T00061078
14837KMSN MSN20031203165509512/03/03 16:55:31  5-MIN KMSN 032255Z 08008KT 10SM CLR 01/M08 A3033 490 54 -1100 080/08 RMK AO2
14837KMSN MSN20031203170009512/03/03 17:00:31  5-MIN KMSN 032300Z 08010KT 10SM CLR 01/M08 A3033 490 51 -1000 080/10 RMK AO2
14837KMSN MSN20031203170509812/03/03 17:05:31  5-MIN KMSN 032305Z 08008KT 10SM FEW100 01/M08 A3033 490 51 -1000 080/08 RMK AO2
14837KMSN MSN20031203171009812/03/03 17:10:31  5-MIN KMSN 032310Z 09007KT 10SM FEW100 01/M08 A3033 490 51 -1100 080/07 RMK AO2
14837KMSN MSN20031203171509812/03/03 17:15:31  5-MIN KMSN 032315Z 09008KT 10SM FEW100 01/M08 A3032 490 49 -1000 090/08 RMK AO2
14837KMSN MSN20031203172009812/03/03 17:20:31  5-MIN KMSN 032320Z 08008KT 10SM FEW100 01/M08 A3032 500 49 -1000 080/08 RMK AO2
14837KMSN MSN20031203172509812/03/03 17:25:31  5-MIN KMSN 032325Z 08007KT 10SM FEW100 01/M07 A3032 490 56 -1000 080/07 RMK AO2
14837KMSN MSN20031203173009812/03/03 17:30:31  5-MIN KMSN 032330Z 09008KT 10SM FEW100 01/M08 A3032 500 49 -1000 080/08 RMK AO2
14837KMSN MSN20031203173509812/03/03 17:35:31  5-MIN KMSN 032335Z 09007KT 10SM FEW100 01/M08 A3032 490 49 -1000 090/07 RMK AO2
14837KMSN MSN20031203174009812/03/03 17:40:31  5-MIN KMSN 032340Z 10009KT 10SM FEW100 01/M08 A3033 490 49 -1000 100/09 RMK AO2
14837KMSN MSN20031203174509812/03/03 17:45:31  5-MIN KMSN 032345Z 10008KT 10SM FEW100 01/M07 A3033 490 54 -1000 100/08 RMK AO2
14837KMSN MSN20031203175013312/03/03 17:50:31  5-MIN KMSN 032350Z 10007KT 10SM FEW100 01/M07 A3033 490 58 -1100 100/07 RMK AO2 SLP282 T00061067 10050 20006 56013
14837KMSN MSN20031203175509812/03/03 17:55:31  5-MIN KMSN 032355Z 10007KT 10SM OVC095 01/M08 A3033 490 51 -1000 100/07 RMK AO2
14837KMSN MSN20031203180009812/03/03 18:00:31  5-MIN KMSN 040000Z 10007KT 10SM BKN095 01/M08 A3033 490 54 -1100 100/07 RMK AO2
14837KMSN MSN20031203180509812/03/03 18:05:31  5-MIN KMSN 040005Z 11007KT 10SM BKN095 01/M07 A3033 480 56 -1100 110/07 RMK AO2
14837KMSN MSN20031203181009812/03/03 18:10:31  5-MIN KMSN 040010Z 11006KT 10SM BKN095 01/M07 A3033 490 56 -1100 100/06 RMK AO2
14837KMSN MSN20031203181509812/03/03 18:15:31  5-MIN KMSN 040015Z 10007KT 10SM BKN095 00/M07 A3033 480 58 -1100 100/07 RMK AO2
14837KMSN MSN20031203182009812/03/03 18:20:31  5-MIN KMSN 040020Z 10006KT 10SM BKN095 00/M07 A3034 480 58 -1100 100/06 RMK AO2
14837KMSN MSN20031203182509812/03/03 18:25:31  5-MIN KMSN 040025Z 10006KT 10SM BKN095 00/M07 A3033 480 61 -1100 100/06 RMK AO2
14837KMSN MSN20031203183009812/03/03 18:30:31  5-MIN KMSN 040030Z 10006KT 10SM BKN095 00/M07 A3033 480 58 -1100 100/06 RMK AO2
14837KMSN MSN20031203183509812/03/03 18:35:31  5-MIN KMSN 040035Z 10006KT 10SM BKN095 00/M07 A3034 480 61 -1100 100/06 RMK AO2
14837KMSN MSN20031203184009812/03/03 18:40:31  5-MIN KMSN 040040Z 11006KT 10SM BKN095 00/M06 A3033 480 63 -1100 110/06 RMK AO2
14837KMSN MSN20031203184509812/03/03 18:45:31  5-MIN KMSN 040045Z 11006KT 10SM BKN095 00/M06 A3033 480 63 -1100 110/06 RMK AO2
14837KMSN MSN20031203185011512/03/03 18:50:31  5-MIN KMSN 040050Z 11007KT 10SM BKN095 00/M06 A3033 480 66 -1100 110/07 RMK AO2 SLP284 T00001056
14837KMSN MSN20031203185509812/03/03 18:55:31  5-MIN KMSN 040055Z 11006KT 10SM BKN090 00/M06 A3033 490 66 -1100 110/06 RMK AO2
14837KMSN MSN20031203190009912/03/03 19:00:31  5-MIN KMSN 040100Z 11007KT 10SM BKN090 M01/M06 A3033 490 69 -1200 110/07 RMK AO2
14837KMSN MSN20031203190509912/03/03 19:05:31  5-MIN KMSN 040105Z 11007KT 10SM BKN090 M01/M06 A3033 490 69 -1200 110/07 RMK AO2
14837KMSN MSN20031203191009812/03/03 19:10:31  5-MIN KMSN 040110Z 10005KT 10SM BKN090 00/M06 A3033 490 66 -1100 100/05 RMK AO2
14837KMSN MSN20031203191509912/03/03 19:15:31  5-MIN KMSN 040115Z 09005KT 10SM BKN090 M01/M06 A3033 490 69 -1200 090/05 RMK AO2
14837KMSN MSN20031203192009912/03/03 19:20:31  5-MIN KMSN 040120Z 09006KT 10SM BKN090 M01/M06 A3033 480 69 -1200 090/06 RMK AO2
14837KMSN MSN20031203192509912/03/03 19:25:31  5-MIN KMSN 040125Z 10006KT 10SM BKN090 M01/M06 A3034 480 69 -1200 100/06 RMK AO2
14837KMSN MSN20031203193009912/03/03 19:30:31  5-MIN KMSN 040130Z 09005KT 10SM BKN090 M01/M06 A3033 490 69 -1200 090/05 RMK AO2
14837KMSN MSN20031203193509912/03/03 19:35:31  5-MIN KMSN 040135Z 08004KT 10SM BKN090 M01/M06 A3033 490 72 -1300 070/04 RMK AO2
14837KMSN MSN20031203194009912/03/03 19:40:31  5-MIN KMSN 040140Z 08004KT 10SM BKN090 M02/M06 A3033 480 72 -1400 080/04 RMK AO2
14837KMSN MSN20031203194509912/03/03 19:45:31  5-MIN KMSN 040145Z 09004KT 10SM FEW090 M01/M06 A3033 480 69 -1300 090/04 RMK AO2
14837KMSN MSN20031203195011312/03/03 19:50:31  5-MIN KMSN 040150Z 09004KT 10SM CLR M01/M06 A3033 490 72 -1300 090/04 RMK AO2 SLP284 T10111056
14837KMSN MSN20031203195509612/03/03 19:55:31  5-MIN KMSN 040155Z 09005KT 10SM CLR M02/M06 A3033 490 72 -1300 090/05 RMK AO2
14837KMSN MSN20031203200009612/03/03 20:00:31  5-MIN KMSN 040200Z 08005KT 10SM CLR M02/M06 A3032 490 75 -1400 080/05 RMK AO2
14837KMSN MSN20031203200509612/03/03 20:05:31  5-MIN KMSN 040205Z 08005KT 10SM CLR M02/M06 A3032 490 75 -1400 070/05 RMK AO2
14837KMSN MSN20031203201009612/03/03 20:10:31  5-MIN KMSN 040210Z 07004KT 10SM CLR M02/M06 A3032 500 75 -1400 070/04 RMK AO2
14837KMSN MSN20031203201509612/03/03 20:15:31  5-MIN KMSN 040215Z 07005KT 10SM CLR M02/M06 A3032 500 75 -1400 070/05 RMK AO2
14837KMSN MSN20031203202009612/03/03 20:20:31  5-MIN KMSN 040220Z 07005KT 10SM CLR M02/M06 A3032 500 78 -1400 070/05 RMK AO2
14837KMSN MSN20031203202509612/03/03 20:25:31  5-MIN KMSN 040225Z 06004KT 10SM CLR M02/M06 A3032 500 75 -1400 060/04 RMK AO2
14837KMSN MSN20031203203009612/03/03 20:30:31  5-MIN KMSN 040230Z 06004KT 10SM CLR M02/M06 A3032 500 78 -1400 060/04 RMK AO2
14837KMSN MSN20031203203509612/03/03 20:35:31  5-MIN KMSN 040235Z 05004KT 10SM CLR M02/M06 A3031 500 78 -1400 050/04 RMK AO2
14837KMSN MSN20031203204009612/03/03 20:40:31  5-MIN KMSN 040240Z 06003KT 10SM CLR M02/M06 A3031 500 78 -1400 060/03 RMK AO2
14837KMSN MSN20031203204509612/03/03 20:45:31  5-MIN KMSN 040245Z 06003KT 10SM CLR M02/M06 A3031 500 75 -1300 060/03 RMK AO2
14837KMSN MSN20031203205011912/03/03 20:50:31  5-MIN KMSN 040250Z 00000KT 10SM CLR M02/M06 A3031 500 78 -1400 000/00 RMK AO2 SLP276 T10221056 56006
14837KMSN MSN20031203205509612/03/03 20:55:31  5-MIN KMSN 040255Z 00000KT 10SM CLR M03/M06 A3031 500 81 -1500 000/00 RMK AO2
14837KMSN MSN20031203210009612/03/03 21:00:31  5-MIN KMSN 040300Z 00000KT 10SM CLR M03/M06 A3031 500 81 -1500 000/00 RMK AO2
14837KMSN MSN20031203210509612/03/03 21:05:31  5-MIN KMSN 040305Z 04003KT 10SM CLR M03/M06 A3031 500 81 -1500 040/03 RMK AO2
14837KMSN MSN20031203211009612/03/03 21:10:31  5-MIN KMSN 040310Z 06003KT 10SM CLR M02/M06 A3031 500 78 -1400 060/03 RMK AO2
14837KMSN MSN20031203211509912/03/03 21:15:31  5-MIN KMSN 040315Z 06003KT 10SM FEW100 M02/M06 A3031 500 78 -1400 060/03 RMK AO2
14837KMSN MSN20031203212009912/03/03 21:20:31  5-MIN KMSN 040320Z 06004KT 10SM SCT100 M02/M06 A3032 500 78 -1400 060/04 RMK AO2
14837KMSN MSN20031203212509912/03/03 21:25:31  5-MIN KMSN 040325Z 05003KT 10SM BKN100 M02/M06 A3032 500 78 -1400 050/03 RMK AO2
14837KMSN MSN20031203213009912/03/03 21:30:31  5-MIN KMSN 040330Z 04003KT 10SM BKN100 M02/M06 A3032 500 75 -1300 040/03 RMK AO2
14837KMSN MSN20031203213509912/03/03 21:35:31  5-MIN KMSN 040335Z 04003KT 10SM BKN100 M02/M06 A3032 500 78 -1400 040/03 RMK AO2
14837KMSN MSN20031203214009912/03/03 21:40:31  5-MIN KMSN 040340Z 03003KT 10SM OVC100 M02/M06 A3032 500 78 -1400 030/03 RMK AO2
14837KMSN MSN20031203214509912/03/03 21:45:31  5-MIN KMSN 040345Z 03004KT 10SM OVC100 M02/M06 A3031 500 78 -1400 030/04 RMK AO2
14837KMSN MSN20031203215011612/03/03 21:50:31  5-MIN KMSN 040350Z 04004KT 10SM BKN100 M02/M06 A3031 500 78 -1400 040/04 RMK AO2 SLP275 T10221056
14837KMSN MSN20031203215509912/03/03 21:55:31  5-MIN KMSN 040355Z 05005KT 10SM OVC100 M02/M06 A3031 510 78 -1400 050/05 RMK AO2
14837KMSN MSN20031203220009912/03/03 22:00:31  5-MIN KMSN 040400Z 07004KT 10SM OVC100 M03/M06 A3031 510 81 -1500 070/04 RMK AO2
14837KMSN MSN20031203220509912/03/03 22:05:31  5-MIN KMSN 040405Z 07003KT 10SM OVC100 M03/M06 A3031 510 81 -1500 070/03 RMK AO2
14837KMSN MSN20031203221009912/03/03 22:10:31  5-MIN KMSN 040410Z 08003KT 10SM OVC100 M03/M06 A3030 510 81 -1500 080/03 RMK AO2
14837KMSN MSN20031203221509912/03/03 22:15:31  5-MIN KMSN 040415Z 07003KT 10SM BKN100 M02/M06 A3030 510 78 -1400 070/03 RMK AO2
14837KMSN MSN20031203222009912/03/03 22:20:31  5-MIN KMSN 040420Z 06003KT 10SM BKN100 M02/M06 A3030 510 78 -1400 060/03 RMK AO2
14837KMSN MSN20031203222509912/03/03 22:25:31  5-MIN KMSN 040425Z 05003KT 10SM SCT100 M03/M06 A3030 510 81 -1500 050/03 RMK AO2
14837KMSN MSN20031203223009912/03/03 22:30:31  5-MIN KMSN 040430Z 05003KT 10SM FEW100 M02/M06 A3030 510 78 -1400 050/03 RMK AO2
14837KMSN MSN20031203223509912/03/03 22:35:31  5-MIN KMSN 040435Z 06004KT 10SM FEW100 M02/M05 A3030 510 81 -1400 060/04 RMK AO2
14837KMSN MSN20031203224009912/03/03 22:40:31  5-MIN KMSN 040440Z 07004KT 10SM FEW100 M02/M06 A3030 520 78 -1400 070/04 RMK AO2
14837KMSN MSN20031203224509912/03/03 22:45:31  5-MIN KMSN 040445Z 07003KT 10SM FEW100 M03/M06 A3030 520 81 -1500 070/03 RMK AO2
14837KMSN MSN20031203225011612/03/03 22:50:31  5-MIN KMSN 040450Z 08003KT 10SM FEW100 M03/M06 A3029 520 81 -1400 080/03 RMK AO2 SLP269 T10281056
14837KMSN MSN20031203225509912/03/03 22:55:31  5-MIN KMSN 040455Z 08003KT 10SM FEW085 M03/M06 A3029 520 81 -1400 080/03 RMK AO2
14837KMSN MSN20031203230009912/03/03 23:00:31  5-MIN KMSN 040500Z 07003KT 10SM FEW085 M03/M06 A3029 520 81 -1400 070/03 RMK AO2
14837KMSN MSN20031203230509912/03/03 23:05:31  5-MIN KMSN 040505Z 06003KT 10SM SCT085 M03/M06 A3029 520 81 -1400 060/03 RMK AO2
14837KMSN MSN20031203231009912/03/03 23:10:31  5-MIN KMSN 040510Z 05003KT 10SM BKN085 M03/M07 A3029 520 75 -1400 050/03 RMK AO2
14837KMSN MSN20031203231509912/03/03 23:15:31  5-MIN KMSN 040515Z 00000KT 10SM BKN090 M03/M07 A3029 520 78 -1500 000/00 RMK AO2
14837KMSN MSN20031203232009912/03/03 23:20:31  5-MIN KMSN 040520Z 05003KT 10SM BKN090 M03/M06 A3029 520 78 -1400 050/03 RMK AO2
14837KMSN MSN20031203232509912/03/03 23:25:31  5-MIN KMSN 040525Z 05003KT 10SM BKN090 M02/M06 A3029 530 78 -1400 050/03 RMK AO2
14837KMSN MSN20031203233009912/03/03 23:30:31  5-MIN KMSN 040530Z 06003KT 10SM OVC090 M02/M06 A3029 520 75 -1300 060/03 RMK AO2
14837KMSN MSN20031203233509912/03/03 23:35:31  5-MIN KMSN 040535Z 07003KT 10SM OVC090 M02/M06 A3029 530 75 -1300 070/03 RMK AO2
14837KMSN MSN20031203234009912/03/03 23:40:31  5-MIN KMSN 040540Z 00000KT 10SM OVC090 M02/M06 A3029 530 78 -1400 000/00 RMK AO2
14837KMSN MSN20031203234509912/03/03 23:45:31  5-MIN KMSN 040545Z 00000KT 10SM OVC090 M02/M06 A3028 530 75 -1300 000/00 RMK AO2
14837KMSN MSN20031203235014412/03/03 23:50:31  5-MIN KMSN 040550Z 11003KT 10SM OVC090 M02/M06 A3028 530 75 -1300 110/03 RMK AO2 SLP263 T10171056 10011 21033 400501067 58005
14837KMSN MSN20031203235509912/03/03 23:55:31  5-MIN KMSN 040555Z 09003KT 10SM OVC090 M02/M06 A3028 540 75 -1300 090/03 RMK AO2
14837KMSN MSN20031204000009912/04/03 00:00:31  5-MIN KMSN 040600Z 00000KT 10SM OVC090 M02/M06 A3027 540 75 -1300 000/00 RMK AO2
14837KMSN MSN20031204000509912/04/03 00:05:31  5-MIN KMSN 040605Z 00000KT 10SM OVC085 M02/M06 A3027 540 78 -1400 000/00 RMK AO2
14837KMSN MSN20031204001009912/04/03 00:10:31  5-MIN KMSN 040610Z 00000KT 10SM OVC085 M02/M06 A3027 540 78 -1400 000/00 RMK AO2
14837KMSN MSN20031204001509912/04/03 00:15:31  5-MIN KMSN 040615Z 00000KT 10SM OVC085 M02/M06 A3027 540 78 -1400 000/00 RMK AO2
14837KMSN MSN20031204002009912/04/03 00:20:31  5-MIN KMSN 040620Z 05003KT 10SM OVC085 M02/M06 A3027 540 75 -1300 050/03 RMK AO2
14837KMSN MSN20031204002509912/04/03 00:25:31  5-MIN KMSN 040625Z 07003KT 10SM OVC085 M02/M06 A3027 540 75 -1300 060/03 RMK AO2
14837KMSN MSN20031204003009912/04/03 00:30:31  5-MIN KMSN 040630Z 07003KT 10SM OVC085 M02/M06 A3027 540 78 -1300 070/03 RMK AO2
14837KMSN MSN20031204003509912/04/03 00:35:31  5-MIN KMSN 040635Z 07004KT 10SM OVC085 M02/M06 A3027 540 78 -1300 070/04 RMK AO2
14837KMSN MSN20031204004009912/04/03 00:40:31  5-MIN KMSN 040640Z 07004KT 10SM OVC085 M02/M06 A3027 540 78 -1300 070/04 RMK AO2
14837KMSN MSN20031204004509912/04/03 00:45:31  5-MIN KMSN 040645Z 06005KT 10SM OVC085 M03/M06 A3027 540 78 -1400 060/05 RMK AO2
14837KMSN MSN20031204005011612/04/03 00:50:31  5-MIN KMSN 040650Z 06005KT 10SM BKN085 M03/M06 A3027 550 78 -1400 060/05 RMK AO2 SLP259 T10281061
14837KMSN MSN20031204005509912/04/03 00:55:31  5-MIN KMSN 040655Z 06005KT 10SM OVC085 M03/M06 A3027 550 78 -1400 060/05 RMK AO2
14837KMSN MSN20031204010009912/04/03 01:00:31  5-MIN KMSN 040700Z 06005KT 10SM BKN085 M03/M06 A3027 540 78 -1400 060/05 RMK AO2
14837KMSN MSN20031204010509912/04/03 01:05:31  5-MIN KMSN 040705Z 07004KT 10SM BKN085 M03/M06 A3027 540 78 -1400 070/04 RMK AO2
14837KMSN MSN20031204011009912/04/03 01:10:31  5-MIN KMSN 040710Z 07004KT 10SM SCT085 M03/M06 A3027 550 78 -1400 060/04 RMK AO2
14837KMSN MSN20031204011509912/04/03 01:15:31  5-MIN KMSN 040715Z 06004KT 10SM BKN085 M02/M06 A3027 550 75 -1300 060/04 RMK AO2
14837KMSN MSN20031204012009912/04/03 01:20:31  5-MIN KMSN 040720Z 06004KT 10SM BKN085 M02/M06 A3027 540 75 -1300 060/04 RMK AO2
14837KMSN MSN20031204012509912/04/03 01:25:31  5-MIN KMSN 040725Z 06004KT 10SM BKN085 M03/M06 A3027 540 78 -1400 060/04 RMK AO2
14837KMSN MSN20031204013009912/04/03 01:30:31  5-MIN KMSN 040730Z 06004KT 10SM BKN085 M03/M06 A3027 540 78 -1400 060/04 RMK AO2
14837KMSN MSN20031204013509912/04/03 01:35:31  5-MIN KMSN 040735Z 05003KT 10SM BKN085 M03/M07 A3027 540 78 -1500 050/03 RMK AO2
14837KMSN MSN20031204014009912/04/03 01:40:31  5-MIN KMSN 040740Z 02003KT 10SM OVC080 M03/M06 A3027 540 81 -1500 020/03 RMK AO2
14837KMSN MSN20031204014509912/04/03 01:45:31  5-MIN KMSN 040745Z 03003KT 10SM OVC080 M03/M06 A3027 540 78 -1400 030/03 RMK AO2
14837KMSN MSN20031204015011612/04/03 01:50:31  5-MIN KMSN 040750Z 05003KT 10SM BKN080 M03/M06 A3027 540 78 -1400 050/03 RMK AO2 SLP260 T10281061
14837KMSN MSN20031204015509912/04/03 01:55:31  5-MIN KMSN 040755Z 06003KT 10SM BKN080 M03/M06 A3027 540 78 -1400 060/03 RMK AO2
14837KMSN MSN20031204020009912/04/03 02:00:31  5-MIN KMSN 040800Z 06003KT 10SM SCT080 M03/M06 A3027 540 78 -1400 060/03 RMK AO2
14837KMSN MSN20031204020509912/04/03 02:05:31  5-MIN KMSN 040805Z 05004KT 10SM SCT080 M03/M06 A3027 550 78 -1400 050/04 RMK AO2
14837KMSN MSN20031204021009912/04/03 02:10:31  5-MIN KMSN 040810Z 04004KT 10SM FEW080 M03/M06 A3027 550 78 -1400 040/04 RMK AO2
14837KMSN MSN20031204021509612/04/03 02:15:31  5-MIN KMSN 040815Z 04004KT 10SM CLR M03/M06 A3026 550 78 -1400 040/04 RMK AO2
14837KMSN MSN20031204022009612/04/03 02:20:31  5-MIN KMSN 040820Z 04004KT 10SM CLR M03/M07 A3026 550 75 -1400 040/04 RMK AO2
14837KMSN MSN20031204022509612/04/03 02:25:31  5-MIN KMSN 040825Z 02004KT 10SM CLR M03/M07 A3026 550 78 -1500 010/04 RMK AO2
14837KMSN MSN20031204023009612/04/03 02:30:31  5-MIN KMSN 040830Z 03005KT 10SM CLR M04/M07 A3026 550 78 -1600 030/05 RMK AO2
14837KMSN MSN20031204023509612/04/03 02:35:31  5-MIN KMSN 040835Z 03004KT 10SM CLR M03/M07 A3026 550 78 -1500 020/04 RMK AO2
14837KMSN MSN20031204024009612/04/03 02:40:31  5-MIN KMSN 040840Z 03004KT 10SM CLR M03/M07 A3026 550 78 -1500 030/04 RMK AO2
14837KMSN MSN20031204024509612/04/03 02:45:31  5-MIN KMSN 040845Z 01004KT 10SM CLR M03/M07 A3026 550 78 -1500 010/04 RMK AO2
14837KMSN MSN20031204025011912/04/03 02:50:31  5-MIN KMSN 040850Z 35003KT 10SM CLR M04/M07 A3026 560 81 -1600 350/03 RMK AO2 SLP255 T10441072 58012
14837KMSN MSN20031204025509612/04/03 02:55:31  5-MIN KMSN 040855Z 35003KT 10SM CLR M04/M07 A3025 560 81 -1600 350/03 RMK AO2
14837KMSN MSN20031204030009612/04/03 03:00:31  5-MIN KMSN 040900Z 35004KT 10SM CLR M04/M07 A3025 560 84 -1600 350/04 RMK AO2
14837KMSN MSN20031204030509612/04/03 03:05:31  5-MIN KMSN 040905Z 35003KT 10SM CLR M04/M07 A3025 560 84 -1600 350/03 RMK AO2
14837KMSN MSN20031204031009612/04/03 03:10:31  5-MIN KMSN 040910Z 35003KT 10SM CLR M04/M07 A3024 570 84 -1600 350/03 RMK AO2
14837KMSN MSN20031204031509612/04/03 03:15:31  5-MIN KMSN 040915Z 35003KT 10SM CLR M04/M07 A3024 570 84 -1600 350/03 RMK AO2
14837KMSN MSN20031204032009612/04/03 03:20:31  5-MIN KMSN 040920Z 35004KT 10SM CLR M04/M07 A3024 570 84 -1600 350/04 RMK AO2
14837KMSN MSN20031204032509912/04/03 03:25:31  5-MIN KMSN 040925Z 36003KT 10SM FEW100 M04/M07 A3024 570 84 -1600 360/03 RMK AO2
14837KMSN MSN20031204033009912/04/03 03:30:31  5-MIN KMSN 040930Z 36004KT 10SM FEW100 M04/M07 A3024 570 84 -1600 360/04 RMK AO2
14837KMSN MSN20031204033509912/04/03 03:35:31  5-MIN KMSN 040935Z 00000KT 10SM FEW100 M04/M07 A3024 570 81 -1500 000/00 RMK AO2
14837KMSN MSN20031204034009912/04/03 03:40:31  5-MIN KMSN 040940Z 00000KT 10SM SCT090 M03/M07 A3024 570 78 -1500 000/00 RMK AO2
14837KMSN MSN20031204034509912/04/03 03:45:31  5-MIN KMSN 040945Z 00000KT 10SM BKN090 M03/M07 A3024 570 78 -1500 000/00 RMK AO2
14837KMSN MSN20031204035011612/04/03 03:50:31  5-MIN KMSN 040950Z 00000KT 10SM BKN090 M04/M07 A3024 570 81 -1500 000/00 RMK AO2 SLP252 T10391067
14837KMSN MSN20031204035509912/04/03 03:55:31  5-MIN KMSN 040955Z 00000KT 10SM BKN090 M04/M07 A3024 570 84 -1600 000/00 RMK AO2
14837KMSN MSN20031204040009912/04/03 04:00:31  5-MIN KMSN 041000Z 00000KT 10SM OVC090 M04/M07 A3024 570 84 -1600 000/00 RMK AO2
14837KMSN MSN20031204040509912/04/03 04:05:31  5-MIN KMSN 041005Z 00000KT 10SM OVC090 M03/M06 A3024 570 81 -1500 000/00 RMK AO2
14837KMSN MSN20031204041009912/04/03 04:10:31  5-MIN KMSN 041010Z 00000KT 10SM OVC090 M03/M06 A3025 570 81 -1500 000/00 RMK AO2
14837KMSN MSN20031204041509912/04/03 04:15:31  5-MIN KMSN 041015Z 00000KT 10SM OVC090 M03/M06 A3024 570 81 -1500 000/00 RMK AO2
14837KMSN MSN20031204042009912/04/03 04:20:31  5-MIN KMSN 041020Z 00000KT 10SM OVC090 M03/M06 A3024 570 78 -1400 000/00 RMK AO2
14837KMSN MSN20031204042509912/04/03 04:25:31  5-MIN KMSN 041025Z VRB03KT 10SM OVC085 M03/M06 A3024 570 78 -1400 VRB/03 RMK AO2
14837KMSN MSN20031204043009912/04/03 04:30:31  5-MIN KMSN 041030Z 00000KT 10SM OVC085 M03/M06 A3024 570 81 -1400 000/00 RMK AO2
14837KMSN MSN20031204043509912/04/03 04:35:31  5-MIN KMSN 041035Z 07003KT 10SM OVC085 M02/M06 A3024 570 78 -1300 070/03 RMK AO2
14837KMSN MSN20031204044009912/04/03 04:40:31  5-MIN KMSN 041040Z 06003KT 10SM OVC085 M02/M05 A3024 570 81 -1300 060/03 RMK AO2
14837KMSN MSN20031204044509912/04/03 04:45:31  5-MIN KMSN 041045Z 00000KT 10SM OVC080 M02/M05 A3024 570 81 -1300 000/00 RMK AO2
14837KMSN MSN20031204045011612/04/03 04:50:31  5-MIN KMSN 041050Z 07004KT 10SM OVC085 M02/M06 A3024 570 75 -1200 070/04 RMK AO2 SLP251 T10171056
14837KMSN MSN20031204045509912/04/03 04:55:31  5-MIN KMSN 041055Z 06005KT 10SM OVC085 M02/M06 A3024 570 78 -1300 060/05 RMK AO2
14837KMSN MSN20031204050009912/04/03 05:00:31  5-MIN KMSN 041100Z 06004KT 10SM OVC085 M02/M05 A3024 570 81 -1300 060/04 RMK AO2
14837KMSN MSN20031204050509912/04/03 05:05:31  5-MIN KMSN 041105Z 05004KT 10SM OVC085 M02/M05 A3024 570 81 -1300 050/04 RMK AO2
14837KMSN MSN20031204051009912/04/03 05:10:31  5-MIN KMSN 041110Z 04004KT 10SM OVC090 M02/M05 A3024 570 81 -1300 040/04 RMK AO2
14837KMSN MSN20031204051509912/04/03 05:15:31  5-MIN KMSN 041115Z 04004KT 10SM OVC090 M02/M05 A3024 570 81 -1300 040/04 RMK AO2
14837KMSN MSN20031204052009912/04/03 05:20:31  5-MIN KMSN 041120Z 02005KT 10SM OVC095 M02/M05 A3024 570 81 -1300 020/05 RMK AO2
14837KMSN MSN20031204052509912/04/03 05:25:31  5-MIN KMSN 041125Z 04006KT 10SM OVC095 M02/M05 A3023 580 81 -1300 030/06 RMK AO2
14837KMSN MSN20031204053009912/04/03 05:30:31  5-MIN KMSN 041130Z 04006KT 10SM OVC095 M02/M04 A3023 580 85 -1300 040/06 RMK AO2
14837KMSN MSN20031204053509912/04/03 05:35:31  5-MIN KMSN 041135Z 04007KT 10SM OVC100 M02/M04 A3023 580 85 -1300 040/07 RMK AO2
14837KMSN MSN20031204054009912/04/03 05:40:31  5-MIN KMSN 041140Z 04007KT 10SM OVC100 M02/M04 A3023 580 81 -1200 030/07 RMK AO2
14837KMSN MSN20031204054509912/04/03 05:45:31  5-MIN KMSN 041145Z 04006KT 10SM OVC100 M02/M04 A3023 580 81 -1200 040/06 RMK AO2
14837KMSN MSN20031204055013412/04/03 05:50:31  5-MIN KMSN 041150Z 05006KT 10SM OVC100 M02/M04 A3023 580 81 -1200 040/06 RMK AO2 SLP247 T10171044 11017 21050 58008
14837KMSN MSN20031204055509912/04/03 05:55:31  5-MIN KMSN 041155Z 05005KT 10SM OVC100 M02/M04 A3023 580 81 -1200 050/05 RMK AO2
14837KMSN MSN20031204060009912/04/03 06:00:31  5-MIN KMSN 041200Z 03005KT 10SM OVC100 M02/M04 A3023 580 81 -1200 030/05 RMK AO2
14837KMSN MSN20031204060509812/04/03 06:05:31  5-MIN KMSN 041205Z 02004KT 9SM OVC095 M02/M04 A3023 580 81 -1200 020/04 RMK AO2
14837KMSN MSN20031204061009812/04/03 06:10:31  5-MIN KMSN 041210Z 02004KT 9SM OVC095 M02/M04 A3023 580 81 -1200 020/04 RMK AO2
14837KMSN MSN20031204061509812/04/03 06:15:31  5-MIN KMSN 041215Z 04003KT 9SM OVC095 M02/M04 A3023 580 81 -1200 040/03 RMK AO2
14837KMSN MSN20031204062009912/04/03 06:20:31  5-MIN KMSN 041220Z 04003KT 10SM OVC095 M02/M04 A3023 580 81 -1200 040/03 RMK AO2
14837KMSN MSN20031204062509812/04/03 06:25:31  5-MIN KMSN 041225Z VRB03KT 9SM OVC090 M02/M04 A3023 580 81 -1200 VRB/03 RMK AO2
14837KMSN MSN20031204063009812/04/03 06:30:31  5-MIN KMSN 041230Z 03004KT 9SM OVC090 M02/M04 A3023 580 85 -1300 020/04 RMK AO2
14837KMSN MSN20031204063509812/04/03 06:35:31  5-MIN KMSN 041235Z 02005KT 9SM OVC090 M02/M04 A3023 580 85 -1300 020/05 RMK AO2
14837KMSN MSN20031204064009812/04/03 06:40:31  5-MIN KMSN 041240Z 02006KT 9SM OVC095 M02/M04 A3023 580 85 -1300 020/06 RMK AO2
14837KMSN MSN20031204064509812/04/03 06:45:31  5-MIN KMSN 041245Z 01006KT 9SM OVC090 M02/M04 A3023 580 81 -1200 010/06 RMK AO2
14837KMSN MSN20031204065011512/04/03 06:50:31  5-MIN KMSN 041250Z 01005KT 9SM OVC090 M02/M04 A3023 580 85 -1300 010/05 RMK AO2 SLP247 T10221044
14837KMSN MSN20031204065509812/04/03 06:55:31  5-MIN KMSN 041255Z 02005KT 9SM OVC095 M02/M05 A3023 580 81 -1300 020/05 RMK AO2
14837KMSN MSN20031204070009812/04/03 07:00:31  5-MIN KMSN 041300Z VRB03KT 9SM OVC095 M02/M05 A3023 580 81 -1300 VRB/03 RMK AO2
14837KMSN MSN20031204070509812/04/03 07:05:31  5-MIN KMSN 041305Z 04005KT 9SM OVC095 M02/M05 A3023 580 81 -1300 040/05 RMK AO2
14837KMSN MSN20031204071009812/04/03 07:10:31  5-MIN KMSN 041310Z 04006KT 8SM OVC090 M03/M05 A3022 590 85 -1400 030/06 RMK AO2
14837KMSN MSN20031204071509812/04/03 07:15:31  5-MIN KMSN 041315Z 04005KT 7SM OVC090 M03/M05 A3022 590 85 -1400 040/05 RMK AO2
14837KMSN MSN20031204072010512/04/03 07:20:31  5-MIN KMSN 041320Z 03003KT 7SM FEW080 BKN090 M03/M06 A3022 580 85 -1400 030/03 RMK AO2
14837KMSN MSN20031204072511212/04/03 07:25:31  5-MIN KMSN 041325Z 05003KT 7SM FEW080 BKN090 BKN110 M03/M05 A3023 580 85 -1400 050/03 RMK AO2
14837KMSN MSN20031204073011212/04/03 07:30:31  5-MIN KMSN 041330Z 00000KT 7SM FEW080 BKN090 BKN120 M02/M05 A3022 590 81 -1300 000/00 RMK AO2
14837KMSN MSN20031204073511212/04/03 07:35:31  5-MIN KMSN 041335Z 08004KT 7SM SCT080 BKN090 BKN110 M02/M05 A3022 590 81 -1300 080/04 RMK AO2
14837KMSN MSN20031204074010512/04/03 07:40:31  5-MIN KMSN 041340Z 06003KT 7SM BKN085 BKN110 M02/M05 A3022 590 81 -1300 060/03 RMK AO2
14837KMSN MSN20031204074510512/04/03 07:45:31  5-MIN KMSN 041345Z 07003KT 7SM BKN080 BKN110 M02/M05 A3022 590 81 -1300 070/03 RMK AO2
14837KMSN MSN20031204075011512/04/03 07:50:31  5-MIN KMSN 041350Z 05003KT 7SM SCT085 M02/M05 A3022 590 81 -1300 050/03 RMK AO2 SLP245 T10221050
14837KMSN MSN20031204075509812/04/03 07:55:31  5-MIN KMSN 041355Z 04004KT 7SM FEW080 M03/M05 A3022 590 85 -1400 040/04 RMK AO2
14837KMSN MSN20031204080009812/04/03 08:00:31  5-MIN KMSN 041400Z 04004KT 7SM FEW085 M03/M06 A3022 590 85 -1400 030/04 RMK AO2
14837KMSN MSN20031204080509812/04/03 08:05:31  5-MIN KMSN 041405Z 03003KT 7SM FEW085 M03/M06 A3022 590 85 -1400 030/03 RMK AO2
14837KMSN MSN20031204081009812/04/03 08:10:31  5-MIN KMSN 041410Z 04003KT 7SM FEW085 M03/M05 A3022 590 85 -1400 030/03 RMK AO2
14837KMSN MSN20031204081509812/04/03 08:15:31  5-MIN KMSN 041415Z 00000KT 7SM FEW085 M03/M05 A3022 590 85 -1400 000/00 RMK AO2
14837KMSN MSN20031204082009812/04/03 08:20:31  5-MIN KMSN 041420Z 00000KT 7SM SCT085 M03/M05 A3022 590 85 -1400 000/00 RMK AO2
14837KMSN MSN20031204082509812/04/03 08:25:31  5-MIN KMSN 041425Z 00000KT 7SM SCT085 M03/M05 A3022 590 85 -1400 000/00 RMK AO2
14837KMSN MSN20031204083009812/04/03 08:30:31  5-MIN KMSN 041430Z 00000KT 7SM SCT085 M03/M05 A3022 590 85 -1400 000/00 RMK AO2
14837KMSN MSN20031204083509812/04/03 08:35:31  5-MIN KMSN 041435Z 00000KT 7SM SCT085 M02/M04 A3022 590 85 -1300 000/00 RMK AO2
14837KMSN MSN20031204084009812/04/03 08:40:31  5-MIN KMSN 041440Z 00000KT 7SM SCT085 M02/M04 A3022 590 85 -1200 000/00 RMK AO2
14837KMSN MSN20031204084509812/04/03 08:45:31  5-MIN KMSN 041445Z 00000KT 7SM SCT085 M01/M04 A3022 590 81 -1200 000/00 RMK AO2
14837KMSN MSN20031204085012112/04/03 08:50:31  5-MIN KMSN 041450Z 00000KT 7SM SCT085 M01/M04 A3022 590 78 -1100 000/00 RMK AO2 SLP245 T10061039 57008
14837KMSN MSN20031204085509812/04/03 08:55:31  5-MIN KMSN 041455Z 00000KT 7SM SCT085 M01/M03 A3022 590 81 -1100 000/00 RMK AO2
14837KMSN MSN20031204090009812/04/03 09:00:31  5-MIN KMSN 041500Z VRB03KT 7SM SCT085 M01/M03 A3022 590 81 -1100 VRB/03 RMK AO2
14837KMSN MSN20031204090509712/04/03 09:05:31  5-MIN KMSN 041505Z 07005KT 7SM SCT085 00/M03 A3022 590 81 -1000 070/05 RMK AO2
14837KMSN MSN20031204091009612/04/03 09:10:31  5-MIN KMSN 041510Z VRB05KT 8SM SCT085 01/M03 A3022 590 78 -900 VRB/05 RMK AO2
14837KMSN MSN20031204091509612/04/03 09:15:31  5-MIN KMSN 041515Z 08005KT 8SM FEW085 01/M02 A3022 590 82 -900 070/05 RMK AO2
14837KMSN MSN20031204092009612/04/03 09:20:31  5-MIN KMSN 041520Z 08004KT 9SM FEW085 01/M02 A3022 590 78 -900 080/04 RMK AO2
14837KMSN MSN20031204092509612/04/03 09:25:31  5-MIN KMSN 041525Z 09004KT 9SM FEW085 01/M02 A3022 590 78 -900 090/04 RMK AO2
14837KMSN MSN20031204093009612/04/03 09:30:31  5-MIN KMSN 041530Z 09004KT 8SM FEW085 02/M02 A3022 590 75 -800 080/04 RMK AO2
14837KMSN MSN20031204093509612/04/03 09:35:31  5-MIN KMSN 041535Z 09005KT 9SM FEW085 02/M02 A3022 590 75 -800 090/05 RMK AO2
14837KMSN MSN20031204094009612/04/03 09:40:31  5-MIN KMSN 041540Z 11006KT 9SM FEW085 02/M02 A3022 590 75 -700 110/06 RMK AO2
14837KMSN MSN20031204094509612/04/03 09:45:31  5-MIN KMSN 041545Z 10010KT 9SM FEW085 02/M02 A3022 590 75 -700 100/10 RMK AO2
14837KMSN MSN20031204095011412/04/03 09:50:31  5-MIN KMSN 041550Z 09009KT 10SM FEW085 03/M02 A3022 590 72 -700 090/09 RMK AO2 SLP242 T00281017
14837KMSN MSN20031204095509712/04/03 09:55:31  5-MIN KMSN 041555Z 11009KT 10SM FEW090 02/M02 A3022 590 75 -700 110/09 RMK AO2
14837KMSN MSN20031204100009612/04/03 10:00:31  5-MIN KMSN 041600Z 11010KT 9SM FEW090 02/M02 A3022 590 75 -700 110/10 RMK AO2
14837KMSN MSN20031204100509612/04/03 10:05:31  5-MIN KMSN 041605Z 11009KT 9SM SCT090 02/M02 A3022 590 75 -700 110/09 RMK AO2
14837KMSN MSN20031204101009612/04/03 10:10:31  5-MIN KMSN 041610Z 11009KT 9SM SCT090 02/M02 A3022 590 75 -800 110/09 RMK AO2
14837KMSN MSN20031204101509612/04/03 10:15:31  5-MIN KMSN 041615Z 11008KT 9SM BKN100 02/M02 A3022 590 72 -700 110/08 RMK AO2
14837KMSN MSN20031204102009612/04/03 10:20:31  5-MIN KMSN 041620Z 10006KT 9SM BKN100 02/M02 A3022 590 75 -700 100/06 RMK AO2
14837KMSN MSN20031204102509612/04/03 10:25:31  5-MIN KMSN 041625Z 10007KT 9SM BKN100 03/M02 A3021 590 72 -700 100/07 RMK AO2
14837KMSN MSN20031204103009612/04/03 10:30:31  5-MIN KMSN 041630Z 08006KT 9SM BKN100 03/M02 A3021 600 72 -700 080/06 RMK AO2
14837KMSN MSN20031204103509612/04/03 10:35:31  5-MIN KMSN 041635Z 09009KT 9SM BKN100 03/M02 A3021 600 72 -700 090/09 RMK AO2
14837KMSN MSN20031204104009612/04/03 10:40:31  5-MIN KMSN 041640Z 08007KT 9SM BKN100 03/M02 A3021 600 70 -600 070/07 RMK AO2
14837KMSN MSN20031204104509612/04/03 10:45:31  5-MIN KMSN 041645Z 09007KT 9SM OVC100 03/M02 A3021 600 70 -600 090/07 RMK AO2
14837KMSN MSN20031204105011312/04/03 10:50:31  5-MIN KMSN 041650Z 10006KT 9SM OVC095 03/M02 A3021 600 70 -600 100/06 RMK AO2 SLP239 T00331017
14837KMSN MSN20031204105509712/04/03 10:55:31  5-MIN KMSN 041655Z 09008KT 10SM OVC090 03/M02 A3021 600 70 -600 090/08 RMK AO2
14837KMSN MSN20031204110009712/04/03 11:00:31  5-MIN KMSN 041700Z 09008KT 10SM OVC090 03/M02 A3021 600 70 -600 090/08 RMK AO2
14837KMSN MSN20031204110509712/04/03 11:05:31  5-MIN KMSN 041705Z 11007KT 10SM OVC085 03/M02 A3021 600 70 -600 110/07 RMK AO2
14837KMSN MSN20031204111009712/04/03 11:10:31  5-MIN KMSN 041710Z 10008KT 10SM OVC085 03/M02 A3021 600 70 -600 100/08 RMK AO2
14837KMSN MSN20031204111509612/04/03 11:15:31  5-MIN KMSN 041715Z 08007KT 9SM OVC080 03/M02 A3020 600 70 -600 080/07 RMK AO2
14837KMSN MSN20031204112009712/04/03 11:20:31  5-MIN KMSN 041720Z 09007KT 10SM OVC080 03/M02 A3020 600 70 -600 080/07 RMK AO2
14837KMSN MSN20031204112509712/04/03 11:25:31  5-MIN KMSN 041725Z 09006KT 10SM OVC080 03/M02 A3020 600 70 -600 090/06 RMK AO2
14837KMSN MSN20031204113009712/04/03 11:30:31  5-MIN KMSN 041730Z 10005KT 10SM OVC080 03/M02 A3020 600 67 -600 090/05 RMK AO2
14837KMSN MSN20031204113509712/04/03 11:35:31  5-MIN KMSN 041735Z 08007KT 10SM OVC080 03/M02 A3020 610 70 -600 080/07 RMK AO2
14837KMSN MSN20031204114009612/04/03 11:40:31  5-MIN KMSN 041740Z 09005KT 9SM OVC080 03/M02 A3020 610 70 -600 090/05 RMK AO2
14837KMSN MSN20031204114509612/04/03 11:45:31  5-MIN KMSN 041745Z 07006KT 9SM OVC080 03/M02 A3020 610 70 -600 070/06 RMK AO2
14837KMSN MSN20031204115013212/04/03 11:50:31  5-MIN KMSN 041750Z 07007KT 10SM OVC080 03/M02 A3019 610 70 -600 070/07 RMK AO2 SLP233 T00331017 10033 21033 56003
14837KMSN MSN20031204115509612/04/03 11:55:31  5-MIN KMSN 041755Z 08007KT 9SM OVC080 03/M02 A3019 620 70 -600 080/07 RMK AO2
14837KMSN MSN20031204120009612/04/03 12:00:31  5-MIN KMSN 041800Z 08005KT 9SM OVC080 03/M02 A3019 620 70 -600 080/05 RMK AO2
14837KMSN MSN20031204120509612/04/03 12:05:31  5-MIN KMSN 041805Z 06006KT 9SM OVC080 03/M02 A3019 620 70 -600 060/06 RMK AO2
14837KMSN MSN20031204121009612/04/03 12:10:31  5-MIN KMSN 041810Z 07005KT 9SM OVC080 03/M02 A3018 620 70 -600 060/05 RMK AO2
14837KMSN MSN20031204121509612/04/03 12:15:31  5-MIN KMSN 041815Z 05006KT 9SM OVC080 03/M02 A3018 630 70 -500 050/06 RMK AO2
14837KMSN MSN20031204122009612/04/03 12:20:31  5-MIN KMSN 041820Z 07005KT 9SM OVC080 03/M02 A3018 630 70 -500 070/05 RMK AO2
14837KMSN MSN20031204122509612/04/03 12:25:31  5-MIN KMSN 041825Z 08006KT 9SM OVC080 04/M02 A3017 630 67 -500 080/06 RMK AO2
14837KMSN MSN20031204123009712/04/03 12:30:31  5-MIN KMSN 041830Z 06007KT 10SM OVC075 04/M02 A3017 630 67 -500 060/07 RMK AO2
14837KMSN MSN20031204123509712/04/03 12:35:31  5-MIN KMSN 041835Z 06006KT 10SM OVC075 04/M02 A3017 630 67 -500 060/06 RMK AO2
14837KMSN MSN20031204124009712/04/03 12:40:31  5-MIN KMSN 041840Z 06007KT 10SM OVC075 03/M02 A3017 640 70 -500 060/07 RMK AO2
14837KMSN MSN20031204124509712/04/03 12:45:31  5-MIN KMSN 041845Z 07006KT 10SM OVC075 03/M01 A3016 640 72 -500 070/06 RMK AO2
14837KMSN MSN20031204125011412/04/03 12:50:31  5-MIN KMSN 041850Z 06007KT 10SM OVC075 03/M01 A3016 640 72 -500 060/07 RMK AO2 SLP223 T00331011
14837KMSN MSN20031204125509612/04/03 12:55:31  5-MIN KMSN 041855Z 06009KT 9SM OVC070 03/M02 A3016 650 70 -500 060/09 RMK AO2
14837KMSN MSN20031204130009712/04/03 13:00:31  5-MIN KMSN 041900Z 06008KT 10SM OVC070 03/M02 A3015 650 70 -500 060/08 RMK AO2
14837KMSN MSN20031204130509712/04/03 13:05:31  5-MIN KMSN 041905Z 06007KT 10SM OVC070 03/M02 A3016 650 70 -500 050/07 RMK AO2
14837KMSN MSN20031204131009712/04/03 13:10:31  5-MIN KMSN 041910Z 06006KT 10SM OVC070 04/M02 A3016 650 67 -500 060/06 RMK AO2
14837KMSN MSN20031204131509712/04/03 13:15:31  5-MIN KMSN 041915Z 06007KT 10SM OVC070 04/M02 A3016 650 67 -500 060/07 RMK AO2
14837KMSN MSN20031204132009712/04/03 13:20:31  5-MIN KMSN 041920Z 06007KT 10SM OVC070 04/M02 A3016 650 67 -500 060/07 RMK AO2
14837KMSN MSN20031204132509712/04/03 13:25:31  5-MIN KMSN 041925Z 07006KT 10SM OVC070 04/M02 A3016 650 67 -500 070/06 RMK AO2
14837KMSN MSN20031204133009712/04/03 13:30:31  5-MIN KMSN 041930Z 06005KT 10SM OVC070 04/M01 A3016 650 70 -500 060/05 RMK AO2
14837KMSN MSN20031204133509712/04/03 13:35:31  5-MIN KMSN 041935Z 05007KT 10SM OVC070 04/M02 A3015 650 67 -400 050/07 RMK AO2
14837KMSN MSN20031204134009712/04/03 13:40:31  5-MIN KMSN 041940Z 05006KT 10SM OVC070 04/M02 A3015 650 67 -400 050/06 RMK AO2
14837KMSN MSN20031204134509712/04/03 13:45:31  5-MIN KMSN 041945Z 06007KT 10SM OVC070 04/M02 A3015 650 67 -400 060/07 RMK AO2
14837KMSN MSN20031204135011412/04/03 13:50:31  5-MIN KMSN 041950Z 07006KT 10SM OVC070 04/M02 A3015 650 67 -400 070/06 RMK AO2 SLP219 T00391017
14837KMSN MSN20031204135509712/04/03 13:55:31  5-MIN KMSN 041955Z 06006KT 10SM OVC070 04/M02 A3015 660 67 -400 060/06 RMK AO2
14837KMSN MSN20031204140009712/04/03 14:00:31  5-MIN KMSN 042000Z 05005KT 10SM OVC070 04/M02 A3014 660 67 -400 050/05 RMK AO2
14837KMSN MSN20031204140509712/04/03 14:05:31  5-MIN KMSN 042005Z 06006KT 10SM OVC070 04/M01 A3014 660 70 -400 060/06 RMK AO2
14837KMSN MSN20031204141009712/04/03 14:10:31  5-MIN KMSN 042010Z 06007KT 10SM OVC070 04/M02 A3014 660 67 -400 060/07 RMK AO2
14837KMSN MSN20031204141509712/04/03 14:15:31  5-MIN KMSN 042015Z 06006KT 10SM OVC070 04/M01 A3014 660 70 -400 060/06 RMK AO2
14837KMSN MSN20031204142009612/04/03 14:20:31  5-MIN KMSN 042020Z 07006KT 9SM OVC070 04/M01 A3014 660 70 -400 070/06 RMK AO2
14837KMSN MSN20031204142509712/04/03 14:25:31  5-MIN KMSN 042025Z 07006KT 10SM OVC070 04/M02 A3014 660 67 -400 070/06 RMK AO2
14837KMSN MSN20031204143009712/04/03 14:30:31  5-MIN KMSN 042030Z 07005KT 10SM OVC070 04/M02 A3014 660 67 -400 070/05 RMK AO2
14837KMSN MSN20031204143509712/04/03 14:35:31  5-MIN KMSN 042035Z 07007KT 10SM OVC070 04/M02 A3014 660 67 -400 070/07 RMK AO2
14837KMSN MSN20031204144009712/04/03 14:40:31  5-MIN KMSN 042040Z VRB06KT 10SM OVC070 04/M02 A3013 670 67 -400 VRB/06 RMK AO2
14837KMSN MSN20031204144509712/04/03 14:45:31  5-MIN KMSN 042045Z 07007KT 10SM OVC070 04/M02 A3013 670 67 -400 070/07 RMK AO2
14837KMSN MSN20031204145012012/04/03 14:50:31  5-MIN KMSN 042050Z 07007KT 10SM OVC070 04/M02 A3013 670 67 -400 070/07 RMK AO2 SLP213 T00391017 58009
14837KMSN MSN20031204145509712/04/03 14:55:31  5-MIN KMSN 042055Z 07007KT 10SM OVC070 04/M02 A3013 670 67 -400 070/07 RMK AO2
14837KMSN MSN20031204150009712/04/03 15:00:31  5-MIN KMSN 042100Z 07006KT 10SM OVC070 04/M02 A3013 670 67 -400 070/06 RMK AO2
14837KMSN MSN20031204150509712/04/03 15:05:31  5-MIN KMSN 042105Z 06005KT 10SM OVC070 04/M01 A3013 670 70 -400 060/05 RMK AO2
14837KMSN MSN20031204151009712/04/03 15:10:31  5-MIN KMSN 042110Z 07004KT 10SM OVC070 04/M02 A3013 670 67 -400 070/04 RMK AO2
14837KMSN MSN20031204151509712/04/03 15:15:31  5-MIN KMSN 042115Z 07003KT 10SM OVC070 04/M01 A3013 670 70 -400 070/03 RMK AO2
14837KMSN MSN20031204152009712/04/03 15:20:31  5-MIN KMSN 042120Z 07004KT 10SM OVC070 04/M01 A3013 670 70 -400 070/04 RMK AO2
14837KMSN MSN20031204152509712/04/03 15:25:31  5-MIN KMSN 042125Z 06004KT 10SM OVC070 04/M01 A3013 670 70 -400 060/04 RMK AO2
14837KMSN MSN20031204153009712/04/03 15:30:31  5-MIN KMSN 042130Z 06005KT 10SM OVC070 04/M02 A3013 670 67 -400 060/05 RMK AO2
14837KMSN MSN20031204153509712/04/03 15:35:31  5-MIN KMSN 042135Z 06006KT 10SM OVC070 04/M02 A3013 670 67 -400 060/06 RMK AO2
14837KMSN MSN20031204154009712/04/03 15:40:31  5-MIN KMSN 042140Z 06005KT 10SM OVC070 04/M02 A3013 670 67 -400 060/05 RMK AO2
14837KMSN MSN20031204154509712/04/03 15:45:31  5-MIN KMSN 042145Z 06006KT 10SM OVC070 04/M02 A3013 670 67 -400 060/06 RMK AO2
14837KMSN MSN20031204155011412/04/03 15:50:31  5-MIN KMSN 042150Z 06006KT 10SM OVC070 04/M02 A3013 670 67 -400 060/06 RMK AO2 SLP213 T00391017
14837KMSN MSN20031204155509712/04/03 15:55:31  5-MIN KMSN 042155Z 06006KT 10SM OVC065 04/M02 A3013 670 67 -400 060/06 RMK AO2
14837KMSN MSN20031204160009712/04/03 16:00:31  5-MIN KMSN 042200Z 06006KT 10SM OVC065 04/M02 A3013 670 67 -400 060/06 RMK AO2
14837KMSN MSN20031204160509712/04/03 16:05:31  5-MIN KMSN 042205Z 06006KT 10SM OVC065 04/M02 A3013 670 67 -400 060/06 RMK AO2
14837KMSN MSN20031204161011212/04/03 16:10:31  5-MIN KMSN 042210Z 06005KT 6SM -RA OVC065 03/M02 A3013 670 70 -500 050/05 RMK AO2 RAB09 P0000
14837KMSN MSN20031204161511212/04/03 16:15:31  5-MIN KMSN 042215Z 05005KT 6SM -RA OVC065 03/M01 A3013 670 72 -500 050/05 RMK AO2 RAB09 P0000
14837KMSN MSN20031204162011212/04/03 16:20:31  5-MIN KMSN 042220Z 05004KT 5SM -RA OVC065 03/M01 A3013 670 72 -500 050/04 RMK AO2 RAB09 P0000
14837KMSN MSN20031204162511212/04/03 16:25:31  5-MIN KMSN 042225Z 04004KT 5SM -RA OVC065 03/M01 A3013 670 75 -600 040/04 RMK AO2 RAB09 P0000
14837KMSN MSN20031204163011212/04/03 16:30:31  5-MIN KMSN 042230Z 05005KT 5SM -RA OVC065 03/M01 A3013 670 72 -500 050/05 RMK AO2 RAB09 P0000
14837KMSN MSN20031204163511212/04/03 16:35:31  5-MIN KMSN 042235Z 05004KT 5SM -RA OVC065 03/M01 A3013 670 72 -500 050/04 RMK AO2 RAB09 P0000
14837KMSN MSN20031204164011312/04/03 16:40:31  5-MIN KMSN 042240Z 06004KT 10SM -RA OVC065 03/M01 A3013 670 72 -500 060/04 RMK AO2 RAB09 P0000
14837KMSN MSN20031204164511312/04/03 16:45:31  5-MIN KMSN 042245Z 06004KT 10SM -RA OVC065 03/M01 A3013 670 72 -500 060/04 RMK AO2 RAB09 P0000
14837KMSN MSN20031204165013012/04/03 16:50:31  5-MIN KMSN 042250Z 07006KT 10SM -RA OVC065 03/M01 A3013 670 72 -500 070/06 RMK AO2 RAB09 SLP210 P0000 T00331011
14837KMSN MSN20031204165510712/04/03 16:55:31  5-MIN KMSN 042255Z 06006KT 10SM -RA OVC065 03/M01 A3013 680 72 -500 060/06 RMK AO2 P0000
14837KMSN MSN20031204170010712/04/03 17:00:31  5-MIN KMSN 042300Z VRB06KT 10SM -RA OVC065 03/M01 A3012 680 75 -600 VRB/06 RMK AO2 P0000
14837KMSN MSN20031204170510712/04/03 17:05:31  5-MIN KMSN 042305Z 07007KT 10SM -RA OVC065 03/M01 A3012 680 75 -600 070/07 RMK AO2 P0000
14837KMSN MSN20031204171010712/04/03 17:10:31  5-MIN KMSN 042310Z 07007KT 10SM -RA OVC065 03/M01 A3013 680 75 -600 070/07 RMK AO2 P0000
14837KMSN MSN20031204171510712/04/03 17:15:31  5-MIN KMSN 042315Z 08008KT 10SM -RA OVC065 03/M01 A3013 670 75 -600 070/08 RMK AO2 P0000
14837KMSN MSN20031204172010912/04/03 17:20:31  5-MIN KMSN 042320Z 08008KT 10SM OVC065 03/M01 A3012 680 75 -600 070/08 RMK AO2 RAE19 P0000
14837KMSN MSN20031204172510912/04/03 17:25:31  5-MIN KMSN 042325Z 08008KT 10SM OVC065 03/M01 A3012 680 75 -600 080/08 RMK AO2 RAE19 P0000
14837KMSN MSN20031204173010912/04/03 17:30:31  5-MIN KMSN 042330Z 08009KT 10SM OVC065 03/M01 A3012 680 75 -600 080/09 RMK AO2 RAE19 P0000
14837KMSN MSN20031204173510912/04/03 17:35:31  5-MIN KMSN 042335Z 08008KT 10SM OVC065 03/M01 A3012 680 75 -600 080/08 RMK AO2 RAE19 P0000
14837KMSN MSN20031204174010912/04/03 17:40:31  5-MIN KMSN 042340Z 08009KT 10SM OVC065 03/M01 A3012 680 75 -600 080/09 RMK AO2 RAE19 P0000
14837KMSN MSN20031204174510912/04/03 17:45:31  5-MIN KMSN 042345Z 08009KT 10SM OVC065 03/M02 A3012 680 72 -600 080/09 RMK AO2 RAE19 P0000
14837KMSN MSN20031204175015012/04/03 17:50:31  5-MIN KMSN 042350Z 08009KT 10SM OVC060 03/M01 A3012 680 75 -600 070/09 RMK AO2 RAE19 SLP210 P0000 60000 T00281011 10039 20028 56020
14837KMSN MSN20031204175509712/04/03 17:55:31  5-MIN KMSN 042355Z 08009KT 10SM OVC060 03/M02 A3012 680 72 -500 080/09 RMK AO2
14837KMSN MSN20031204180009712/04/03 18:00:31  5-MIN KMSN 050000Z 08008KT 10SM OVC060 03/M02 A3012 680 72 -600 080/08 RMK AO2
14837KMSN MSN20031204180509712/04/03 18:05:31  5-MIN KMSN 050005Z 07007KT 10SM OVC060 02/M01 A3012 680 78 -600 070/07 RMK AO2
14837KMSN MSN20031204181009712/04/03 18:10:31  5-MIN KMSN 050010Z 08007KT 10SM OVC060 03/M02 A3012 680 72 -600 070/07 RMK AO2
14837KMSN MSN20031204181509712/04/03 18:15:31  5-MIN KMSN 050015Z 07006KT 10SM OVC060 02/M01 A3012 680 78 -600 070/06 RMK AO2
14837KMSN MSN20031204182009712/04/03 18:20:31  5-MIN KMSN 050020Z 07006KT 10SM OVC060 02/M01 A3012 680 78 -600 070/06 RMK AO2
14837KMSN MSN20031204182509712/04/03 18:25:31  5-MIN KMSN 050025Z 07006KT 10SM OVC055 02/M01 A3012 680 78 -600 070/06 RMK AO2
14837KMSN MSN20031204183009712/04/03 18:30:31  5-MIN KMSN 050030Z 07007KT 10SM OVC055 02/M02 A3012 680 75 -600 070/07 RMK AO2
14837KMSN MSN20031204183509712/04/03 18:35:31  5-MIN KMSN 050035Z 07006KT 10SM OVC055 02/M02 A3011 690 75 -600 070/06 RMK AO2
14837KMSN MSN20031204184009712/04/03 18:40:31  5-MIN KMSN 050040Z 07006KT 10SM OVC055 02/M02 A3011 690 75 -600 070/06 RMK AO2
14837KMSN MSN20031204184509712/04/03 18:45:31  5-MIN KMSN 050045Z 07006KT 10SM OVC055 02/M02 A3011 690 75 -600 070/06 RMK AO2
14837KMSN MSN20031204185011412/04/03 18:50:31  5-MIN KMSN 050050Z 08006KT 10SM OVC055 02/M02 A3011 690 75 -600 080/06 RMK AO2 SLP205 T00221017
14837KMSN MSN20031204185509712/04/03 18:55:31  5-MIN KMSN 050055Z 08007KT 10SM OVC060 02/M02 A3011 690 75 -600 080/07 RMK AO2
14837KMSN MSN20031204190009712/04/03 19:00:31  5-MIN KMSN 050100Z 08007KT 10SM OVC060 02/M02 A3010 700 75 -600 080/07 RMK AO2
14837KMSN MSN20031204190509712/04/03 19:05:31  5-MIN KMSN 050105Z 07006KT 10SM OVC060 02/M02 A3010 700 72 -600 070/06 RMK AO2
14837KMSN MSN20031204191009712/04/03 19:10:31  5-MIN KMSN 050110Z 08006KT 10SM OVC060 02/M02 A3010 700 72 -600 080/06 RMK AO2
14837KMSN MSN20031204191509712/04/03 19:15:31  5-MIN KMSN 050115Z 08006KT 10SM OVC060 02/M02 A3010 700 72 -600 080/06 RMK AO2
14837KMSN MSN20031204192009712/04/03 19:20:31  5-MIN KMSN 050120Z 07006KT 10SM OVC065 02/M02 A3010 700 72 -600 070/06 RMK AO2
14837KMSN MSN20031204192509712/04/03 19:25:31  5-MIN KMSN 050125Z 07005KT 10SM OVC065 02/M02 A3010 700 72 -600 070/05 RMK AO2
14837KMSN MSN20031204193010412/04/03 19:30:31  5-MIN KMSN 050130Z 07004KT 10SM SCT050 OVC065 02/M02 A3010 700 72 -600 060/04 RMK AO2
14837KMSN MSN20031204193510412/04/03 19:35:31  5-MIN KMSN 050135Z 06005KT 10SM BKN050 OVC065 02/M02 A3010 700 75 -700 060/05 RMK AO2
14837KMSN MSN20031204194010412/04/03 19:40:31  5-MIN KMSN 050140Z 06004KT 10SM BKN048 OVC065 02/M02 A3010 700 75 -700 060/04 RMK AO2
14837KMSN MSN20031204194510412/04/03 19:45:31  5-MIN KMSN 050145Z 05005KT 10SM BKN048 OVC065 02/M02 A3009 700 75 -700 050/05 RMK AO2
14837KMSN MSN20031204195011412/04/03 19:50:31  5-MIN KMSN 050150Z 05004KT 10SM OVC050 02/M02 A3009 710 75 -700 050/04 RMK AO2 SLP199 T00171022
14837KMSN MSN20031204195509712/04/03 19:55:31  5-MIN KMSN 050155Z 05005KT 10SM OVC050 02/M02 A3009 710 75 -700 050/05 RMK AO2
14837KMSN MSN20031204200011212/04/03 20:00:31  5-MIN KMSN 050200Z 06005KT 5SM -RA OVC050 02/M02 A3009 710 75 -700 050/05 RMK AO2 RAB00 P0000
14837KMSN MSN20031204200511212/04/03 20:05:31  5-MIN KMSN 050205Z 06006KT 7SM -RA OVC050 02/M02 A3009 710 75 -700 050/06 RMK AO2 RAB00 P0000
14837KMSN MSN20031204201011212/04/03 20:10:31  5-MIN KMSN 050210Z 06006KT 5SM -RA OVC050 02/M02 A3009 710 75 -700 060/06 RMK AO2 RAB00 P0000
14837KMSN MSN20031204201511212/04/03 20:15:31  5-MIN KMSN 050215Z 06007KT 5SM -RA OVC048 02/M02 A3009 710 75 -700 060/07 RMK AO2 RAB00 P0000
14837KMSN MSN20031204202011212/04/03 20:20:31  5-MIN KMSN 050220Z 06007KT 5SM -RA OVC048 02/M02 A3009 710 78 -700 060/07 RMK AO2 RAB00 P0000
14837KMSN MSN20031204202511212/04/03 20:25:31  5-MIN KMSN 050225Z 07006KT 5SM -RA OVC048 02/M02 A3009 710 78 -600 070/06 RMK AO2 RAB00 P0000
14837KMSN MSN20031204203011912/04/03 20:30:31  5-MIN KMSN 050230Z 07006KT 4SM -RASN OVC048 02/M02 A3008 710 78 -600 070/06 RMK AO2 RAB00SNB28 P0000
14837KMSN MSN20031204203511912/04/03 20:35:31  5-MIN KMSN 050235Z 06006KT 4SM -RASN OVC048 02/M01 A3008 710 82 -600 060/06 RMK AO2 RAB00SNB28 P0000
14837KMSN MSN20031204204012612/04/03 20:40:31  5-MIN KMSN 050240Z 06007KT 4SM -RASN FEW026 OVC048 02/M01 A3008 720 82 -600 060/07 RMK AO2 RAB00SNB28 P0000
14837KMSN MSN20031204204512912/04/03 20:45:31  5-MIN KMSN 050245Z 06006KT 6SM -RASN BR SCT028 OVC048 01/M01 A3008 720 85 -700 060/06 RMK AO2 RAB00SNB28 P0000
14837KMSN MSN20031204205015612/04/03 20:50:31  5-MIN KMSN 050250Z 06007KT 8SM -SN FEW028 OVC048 02/M01 A3008 720 82 -600 060/07 RMK AO2 RAB00E46SNB28 SLP195 P0000 60000 T00171011 58003
14837KMSN MSN20031204205511312/04/03 20:55:31  5-MIN KMSN 050255Z 06007KT 9SM -SN FEW028 OVC048 02/M01 A3008 720 82 -600 060/07 RMK AO2 P0000
14837KMSN MSN20031204210011312/04/03 21:00:31  5-MIN KMSN 050300Z 05006KT 8SM -SN FEW028 OVC050 02/M01 A3008 720 82 -600 050/06 RMK AO2 P0000
14837KMSN MSN20031204210511612/04/03 21:05:31  5-MIN KMSN 050305Z 04005KT 6SM -SN BR FEW028 OVC048 01/M01 A3008 720 85 -700 040/05 RMK AO2 P0000
14837KMSN MSN20031204211010912/04/03 21:10:31  5-MIN KMSN 050310Z 04006KT 6SM -SN BR OVC048 01/M01 A3008 720 85 -700 040/06 RMK AO2 P0000
14837KMSN MSN20031204211510912/04/03 21:15:31  5-MIN KMSN 050315Z 04006KT 5SM -SN BR OVC046 01/M01 A3008 720 85 -700 040/06 RMK AO2 P0000
14837KMSN MSN20031204212010912/04/03 21:20:31  5-MIN KMSN 050320Z 04005KT 5SM -SN BR OVC046 01/M01 A3008 720 85 -700 040/05 RMK AO2 P0000
14837KMSN MSN20031204212510912/04/03 21:25:31  5-MIN KMSN 050325Z 04006KT 5SM -SN BR OVC044 01/M01 A3008 720 85 -700 040/06 RMK AO2 P0000
14837KMSN MSN20031204213010912/04/03 21:30:31  5-MIN KMSN 050330Z 03006KT 5SM -SN BR OVC042 01/M01 A3008 720 89 -700 030/06 RMK AO2 P0000
14837KMSN MSN20031204213510912/04/03 21:35:31  5-MIN KMSN 050335Z 02007KT 4SM -SN BR OVC041 01/M01 A3008 720 89 -700 020/07 RMK AO2 P0000
14837KMSN MSN20031204214010912/04/03 21:40:31  5-MIN KMSN 050340Z 03006KT 4SM -SN BR OVC041 01/M01 A3007 720 89 -700 030/06 RMK AO2 P0000
14837KMSN MSN20031204214510912/04/03 21:45:31  5-MIN KMSN 050345Z 03007KT 4SM -SN BR OVC039 01/M01 A3007 720 89 -700 030/07 RMK AO2 P0000
14837KMSN MSN20031204215012612/04/03 21:50:31  5-MIN KMSN 050350Z 03008KT 4SM -SN BR OVC039 01/M01 A3007 730 89 -700 020/08 RMK AO2 SLP191 P0000 T00111006
14837KMSN MSN20031204215510912/04/03 21:55:31  5-MIN KMSN 050355Z 03007KT 4SM -SN BR OVC039 01/M01 A3007 730 89 -700 030/07 RMK AO2 P0000
14837KMSN MSN20031204220010912/04/03 22:00:31  5-MIN KMSN 050400Z 03007KT 4SM -SN BR OVC039 01/M01 A3007 730 92 -800 030/07 RMK AO2 P0000
14837KMSN MSN20031204220510912/04/03 22:05:31  5-MIN KMSN 050405Z 04006KT 4SM -SN BR OVC039 01/M01 A3007 730 92 -800 040/06 RMK AO2 P0000
14837KMSN MSN20031204221010912/04/03 22:10:31  5-MIN KMSN 050410Z 03007KT 3SM -SN BR OVC039 01/M01 A3007 730 92 -800 030/07 RMK AO2 P0000
14837KMSN MSN20031204221511612/04/03 22:15:31  5-MIN KMSN 050415Z 04005KT 3SM -SN BR SCT030 OVC039 01/M01 A3007 730 92 -800 040/05 RMK AO2 P0000
14837KMSN MSN20031204222011612/04/03 22:20:31  5-MIN KMSN 050420Z 03006KT 3SM -SN BR SCT028 OVC039 01/M01 A3007 730 92 -800 030/06 RMK AO2 P0000
14837KMSN MSN20031204222511612/04/03 22:25:31  5-MIN KMSN 050425Z 03006KT 3SM -SN BR BKN028 OVC039 01/M01 A3007 730 92 -800 030/06 RMK AO2 P0000
14837KMSN MSN20031204223011612/04/03 22:30:31  5-MIN KMSN 050430Z 03006KT 3SM -SN BR BKN028 OVC039 01/M01 A3007 730 92 -800 030/06 RMK AO2 P0000
14837KMSN MSN20031204223511612/04/03 22:35:31  5-MIN KMSN 050435Z 02006KT 3SM -SN BR BKN028 OVC042 01/M01 A3007 730 92 -800 020/06 RMK AO2 P0000
14837KMSN MSN20031204224012312/04/03 22:40:31  5-MIN KMSN 050440Z 03006KT 3SM -SN BR BKN028 BKN045 OVC055 01/M01 A3006 730 92 -800 030/06 RMK AO2 P0000
14837KMSN MSN20031204224511612/04/03 22:45:31  5-MIN KMSN 050445Z 02006KT 3SM -SN BR BKN026 OVC050 01/M01 A3006 730 92 -800 020/06 RMK AO2 P0000
14837KMSN MSN20031204225014112/04/03 22:50:31  5-MIN KMSN 050450Z 03007KT 3SM -RASN BR SCT026 OVC050 01/M01 A3006 730 92 -800 020/07 RMK AO2 RAB48 SLP188 P0000 T00061006
14837KMSN MSN20031204225511812/04/03 22:55:31  5-MIN KMSN 050455Z 02007KT 3SM -RASN BR FEW026 OVC050 01/M01 A3006 730 92 -800 020/07 RMK AO2 P0000
14837KMSN MSN20031204230011712/04/03 23:00:31  5-MIN KMSN 050500Z 02006KT 3SM -RASN BR FEW026 OVC050 01/00 A3006 730 96 -800 020/06 RMK AO2 P0000
14837KMSN MSN20031204230511412/04/03 23:05:31  5-MIN KMSN 050505Z 03006KT 4SM -RA BR OVC050 01/00 A3006 730 96 -800 020/06 RMK AO2 SNE02 P0000
14837KMSN MSN20031204231012212/04/03 23:10:31  5-MIN KMSN 050510Z 03007KT 4SM -RA BR FEW040 OVC050 01/M01 A3006 730 89 -800 030/07 RMK AO2 SNE02 P0000
14837KMSN MSN20031204231512212/04/03 23:15:31  5-MIN KMSN 050515Z 03007KT 4SM -RA BR SCT040 OVC050 01/M01 A3006 740 92 -800 030/07 RMK AO2 SNE02 P0000
14837KMSN MSN20031204232012912/04/03 23:20:31  5-MIN KMSN 050520Z 03007KT 4SM -RA BR FEW025 BKN040 OVC050 01/M01 A3006 740 92 -800 030/07 RMK AO2 SNE02 P0000
14837KMSN MSN20031204232512912/04/03 23:25:31  5-MIN KMSN 050525Z 03007KT 4SM -RA BR FEW025 BKN042 OVC050 01/M01 A3006 740 92 -800 030/07 RMK AO2 SNE02 P0000
14837KMSN MSN20031204233012912/04/03 23:30:31  5-MIN KMSN 050530Z 03008KT 4SM -RA BR FEW025 BKN042 OVC055 01/M01 A3006 740 92 -800 030/08 RMK AO2 SNE02 P0000
14837KMSN MSN20031204233512212/04/03 23:35:31  5-MIN KMSN 050535Z 03008KT 4SM -RA BR FEW025 OVC042 01/M01 A3006 740 92 -800 030/08 RMK AO2 SNE02 P0000
14837KMSN MSN20031204234012212/04/03 23:40:31  5-MIN KMSN 050540Z 03007KT 4SM -RA BR SCT025 OVC042 01/M01 A3006 740 92 -800 030/07 RMK AO2 SNE02 P0000
14837KMSN MSN20031204234512212/04/03 23:45:31  5-MIN KMSN 050545Z 03007KT 4SM -RA BR BKN023 OVC042 01/M01 A3006 740 92 -800 030/07 RMK AO2 SNE02 P0000
14837KMSN MSN20031204235018512/04/03 23:50:31  5-MIN KMSN 050550Z 04007KT 3SM -RASN BR BKN023 BKN033 OVC042 01/M01 A3006 740 92 -800 030/07 RMK AO2 SNE02B47 SLP186 P0000 60000 T00061006 10028 20006 400391050 56014
14837KMSN MSN20031204235512512/04/03 23:55:31  5-MIN KMSN 050555Z 03007KT 3SM -RASN BR BKN023 BKN033 OVC040 01/M01 A3005 740 92 -800 030/07 RMK AO2 P0000
14837KMSN MSN20031205000011812/05/03 00:00:31  5-MIN KMSN 050600Z 04007KT 3SM -RASN BR BKN023 OVC033 01/M01 A3005 740 92 -700 040/07 RMK AO2 P0000
14837KMSN MSN20031205000512212/05/03 00:05:31  5-MIN KMSN 050605Z 03007KT 2 1/2SM -RASN BR BKN023 OVC035 01/M01 A3005 750 92 -700 030/07 RMK AO2 P0000
14837KMSN MSN20031205001012612/05/03 00:10:31  5-MIN KMSN 050610Z 04007KT 2 1/2SM -SN BR SCT023 OVC035 01/M01 A3005 750 92 -700 040/07 RMK AO2 RAE07 P0000
14837KMSN MSN20031205001512912/05/03 00:15:31  5-MIN KMSN 050615Z 04007KT 2SM -SN BR FEW016 SCT023 OVC035 01/M01 A3004 750 92 -700 030/07 RMK AO2 RAE07 P0000
14837KMSN MSN20031205002012612/05/03 00:20:31  5-MIN KMSN 050620Z 04008KT 1 3/4SM -SN BR FEW016 OVC033 01/M01 A3004 750 92 -700 040/08 RMK AO2 RAE07 P0001
14837KMSN MSN20031205002512612/05/03 00:25:31  5-MIN KMSN 050625Z 04007KT 1 3/4SM -SN BR FEW023 OVC033 01/M01 A3004 750 92 -700 040/07 RMK AO2 RAE07 P0001
14837KMSN MSN20031205003012612/05/03 00:30:31  5-MIN KMSN 050630Z 04007KT 1 1/2SM -SN BR BKN030 OVC035 01/M01 A3004 750 92 -700 040/07 RMK AO2 RAE07 P0001
14837KMSN MSN20031205003512612/05/03 00:35:31  5-MIN KMSN 050635Z 04008KT 1 1/2SM -SN BR BKN028 OVC035 01/M01 A3004 750 92 -700 040/08 RMK AO2 RAE07 P0001
14837KMSN MSN20031205004013312/05/03 00:40:31  5-MIN KMSN 050640Z 04008KT 1 1/2SM -SN BR FEW008 BKN025 OVC032 00/M01 A3004 750 96 -800 040/08 RMK AO2 RAE07 P0002
14837KMSN MSN20031205004513312/05/03 00:45:31  5-MIN KMSN 050645Z 04008KT 1 1/2SM -SN BR SCT008 BKN025 OVC030 00/M01 A3004 750 96 -800 040/08 RMK AO2 RAE07 P0002
14837KMSN MSN20031205005015012/05/03 00:50:31  5-MIN KMSN 050650Z 04007KT 1 1/4SM -SN BR BKN008 BKN025 OVC030 00/M01 A3004 750 96 -800 040/07 RMK AO2 RAE07 SLP181 P0002 T00001006
14837KMSN MSN20031205005512012/05/03 00:55:31  5-MIN KMSN 050655Z 04008KT 1 1/4SM -SN BR BKN006 OVC025 00/M01 A3004 750 96 -800 040/08 RMK AO2 P0000
14837KMSN MSN20031205010012012/05/03 01:00:31  5-MIN KMSN 050700Z 04007KT 1 1/4SM -SN BR BKN006 OVC025 00/M01 A3004 750 96 -800 040/07 RMK AO2 P0001
14837KMSN MSN20031205010510912/05/03 01:05:31  5-MIN KMSN 050705Z 04009KT 1SM -SN BR OVC006 00/M01 A3004 750 96 -800 040/09 RMK AO2 P0001
14837KMSN MSN20031205011010912/05/03 01:10:31  5-MIN KMSN 050710Z 04009KT 1SM -SN BR OVC006 00/M01 A3004 760 96 -800 040/09 RMK AO2 P0002
14837KMSN MSN20031205011510912/05/03 01:15:31  5-MIN KMSN 050715Z 04008KT 1SM -SN BR OVC006 00/M01 A3004 760 96 -800 040/08 RMK AO2 P0002
14837KMSN MSN20031205012010912/05/03 01:20:31  5-MIN KMSN 050720Z 04008KT 1SM -SN BR OVC006 00/M01 A3004 750 96 -800 040/08 RMK AO2 P0002
14837KMSN MSN20031205012510912/05/03 01:25:31  5-MIN KMSN 050725Z 04010KT 1SM -SN BR OVC006 00/M01 A3004 760 96 -800 040/10 RMK AO2 P0003
14837KMSN MSN20031205013010912/05/03 01:30:31  5-MIN KMSN 050730Z 04009KT 1SM -SN BR OVC006 00/M01 A3004 760 96 -800 040/09 RMK AO2 P0003
14837KMSN MSN20031205013512312/05/03 01:35:31  5-MIN KMSN 050735Z 05008KT 1SM -SN BR BKN006 BKN025 OVC029 00/M01 A3004 760 96 -800 040/08 RMK AO2 P0004
14837KMSN MSN20031205014011612/05/03 01:40:31  5-MIN KMSN 050740Z 04009KT 1SM -SN BR BKN006 OVC024 00/M01 A3004 760 96 -800 040/09 RMK AO2 P0004
14837KMSN MSN20031205014512012/05/03 01:45:31  5-MIN KMSN 050745Z 04008KT 1 1/4SM -SN BR BKN006 OVC022 00/M01 A3004 760 96 -800 040/08 RMK AO2 P0004
14837KMSN MSN20031205015013312/05/03 01:50:31  5-MIN KMSN 050750Z 04008KT 1SM -SN BR BKN006 OVC022 00/00 A3004 760 100 -800 040/08 RMK AO2 SLP180 P0005 T00000000
14837KMSN MSN20031205015512812/05/03 01:55:31  5-MIN KMSN 050755Z 04008KT 1SM -SN BR BKN006 OVC022 00/M01 A3004 760 96 -800 040/08 RMK AO2 CIG 004V009 P0000
14837KMSN MSN20031205020011612/05/03 02:00:31  5-MIN KMSN 050800Z 04007KT 1SM -SN BR BKN006 OVC022 00/00 A3004 760 100 -800 040/07 RMK AO2 P0001
14837KMSN MSN20031205020512012/05/03 02:05:31  5-MIN KMSN 050805Z 04008KT 1 1/4SM -SN BR BKN006 OVC024 00/M01 A3004 760 96 -800 040/08 RMK AO2 P0001
14837KMSN MSN20031205021012712/05/03 02:10:31  5-MIN KMSN 050810Z 04008KT 1 1/4SM -SN BR BKN006 BKN021 OVC026 00/M01 A3004 760 96 -800 040/08 RMK AO2 P0001
14837KMSN MSN20031205021512712/05/03 02:15:31  5-MIN KMSN 050815Z 04007KT 1 1/4SM -SN BR BKN006 BKN024 OVC030 00/M01 A3004 760 96 -800 040/07 RMK AO2 P0001
14837KMSN MSN20031205022012712/05/03 02:20:31  5-MIN KMSN 050820Z 04007KT 1 1/2SM -SN BR SCT006 BKN010 OVC030 00/M01 A3004 760 96 -800 040/07 RMK AO2 P0002
14837KMSN MSN20031205022512712/05/03 02:25:31  5-MIN KMSN 050825Z 04007KT 1 1/2SM -SN BR SCT006 BKN012 OVC030 01/M01 A3004 760 92 -700 040/07 RMK AO2 P0002
14837KMSN MSN20031205023012612/05/03 02:30:31  5-MIN KMSN 050830Z 04008KT 1 3/4SM -SN BR FEW006 BKN014 OVC028 01/00 A3004 760 96 -700 030/08 RMK AO2 P0002
14837KMSN MSN20031205023512312/05/03 02:35:31  5-MIN KMSN 050835Z 03008KT 2SM -SN BR FEW006 BKN016 OVC032 01/M01 A3004 760 92 -700 030/08 RMK AO2 P0002
14837KMSN MSN20031205024012012/05/03 02:40:31  5-MIN KMSN 050840Z 03008KT 2 1/2SM -SN BR BKN018 OVC032 01/M01 A3004 760 92 -700 030/08 RMK AO2 P0002
14837KMSN MSN20031205024511312/05/03 02:45:31  5-MIN KMSN 050845Z 04008KT 2 1/2SM -SN BR OVC018 01/M01 A3004 760 92 -700 030/08 RMK AO2 P0002
14837KMSN MSN20031205025014212/05/03 02:50:31  5-MIN KMSN 050850Z 03008KT 2 1/2SM -SN BR OVC020 01/M01 A3004 760 92 -700 030/08 RMK AO2 SLP180 P0002 60009 T00061006 56008
14837KMSN MSN20031205025512012/05/03 02:55:31  5-MIN KMSN 050855Z 03008KT 2 1/2SM -SN BR BKN022 OVC036 01/M01 A3004 760 92 -700 030/08 RMK AO2 P0000
14837KMSN MSN20031205030012712/05/03 03:00:31  5-MIN KMSN 050900Z 03008KT 2 1/2SM -SN BR BKN022 BKN038 OVC049 01/M01 A3003 760 92 -700 030/08 RMK AO2 P0000
14837KMSN MSN20031205030512712/05/03 03:05:31  5-MIN KMSN 050905Z 03008KT 2 1/2SM -SN BR BKN024 BKN038 OVC047 01/M01 A3003 760 92 -700 030/08 RMK AO2 P0000
14837KMSN MSN20031205031011612/05/03 03:10:31  5-MIN KMSN 050910Z 03008KT 3SM -SN BR SCT024 OVC041 01/M01 A3003 760 92 -700 030/08 RMK AO2 P0000
14837KMSN MSN20031205031511612/05/03 03:15:31  5-MIN KMSN 050915Z 03008KT 4SM -SN BR FEW026 OVC041 01/M01 A3003 760 92 -700 030/08 RMK AO2 P0000
14837KMSN MSN20031205032012312/05/03 03:20:31  5-MIN KMSN 050920Z 03007KT 4SM -SN BR FEW028 BKN041 OVC047 01/M01 A3004 760 92 -700 030/07 RMK AO2 P0000
14837KMSN MSN20031205032511812/05/03 03:25:31  5-MIN KMSN 050925Z 02008KT 5SM BR BKN037 OVC043 01/M01 A3004 760 92 -700 020/08 RMK AO2 SNE23 P0000
14837KMSN MSN20031205033011812/05/03 03:30:31  5-MIN KMSN 050930Z 02008KT 6SM BR BKN042 OVC065 01/M01 A3004 760 92 -700 020/08 RMK AO2 SNE23 P0000
14837KMSN MSN20031205033512512/05/03 03:35:31  5-MIN KMSN 050935Z 02010KT 6SM BR SCT040 BKN048 OVC100 01/M01 A3003 760 85 -700 020/10 RMK AO2 SNE23 P0000
14837KMSN MSN20031205034012212/05/03 03:40:31  5-MIN KMSN 050940Z 02009KT 7SM SCT040 BKN050 OVC100 01/M01 A3004 760 85 -700 020/09 RMK AO2 SNE23 P0000
14837KMSN MSN20031205034512212/05/03 03:45:31  5-MIN KMSN 050945Z 02010KT 7SM FEW040 BKN048 OVC100 01/M01 A3004 760 85 -700 020/10 RMK AO2 SNE23 P0000
14837KMSN MSN20031205035013912/05/03 03:50:31  5-MIN KMSN 050950Z 02010KT 7SM BKN044 BKN050 OVC100 01/M01 A3004 760 85 -700 020/10 RMK AO2 SNE23 SLP178 P0000 T00111011
14837KMSN MSN20031205035511012/05/03 03:55:31  5-MIN KMSN 050955Z 02010KT 8SM BKN044 BKN060 OVC100 01/M01 A3004 760 85 -700 020/10 RMK AO2
14837KMSN MSN20031205040011012/05/03 04:00:31  5-MIN KMSN 051000Z 02010KT 8SM BKN044 BKN060 OVC100 01/M01 A3004 760 85 -700 020/10 RMK AO2
14837KMSN MSN20031205040510312/05/03 04:05:31  5-MIN KMSN 051005Z 03010KT 8SM BKN040 OVC065 01/M01 A3004 750 85 -700 020/10 RMK AO2
14837KMSN MSN20031205041010312/05/03 04:10:31  5-MIN KMSN 051010Z 03011KT 9SM BKN038 OVC065 01/M01 A3004 750 85 -700 030/11 RMK AO2
14837KMSN MSN20031205041510312/05/03 04:15:31  5-MIN KMSN 051015Z 03010KT 9SM BKN036 OVC065 01/M01 A3004 750 85 -700 020/10 RMK AO2
14837KMSN MSN20031205042010312/05/03 04:20:31  5-MIN KMSN 051020Z 02010KT 9SM BKN038 OVC070 01/M02 A3004 750 82 -700 020/10 RMK AO2
14837KMSN MSN20031205042510312/05/03 04:25:31  5-MIN KMSN 051025Z 02011KT 9SM BKN038 OVC070 01/M02 A3004 750 82 -700 020/11 RMK AO2
14837KMSN MSN20031205043010312/05/03 04:30:31  5-MIN KMSN 051030Z 01010KT 9SM BKN038 OVC070 01/M02 A3004 750 82 -700 010/10 RMK AO2
14837KMSN MSN20031205043509612/05/03 04:35:31  5-MIN KMSN 051035Z 01010KT 9SM OVC040 01/M01 A3004 750 85 -700 010/10 RMK AO2
14837KMSN MSN20031205044009612/05/03 04:40:31  5-MIN KMSN 051040Z 01010KT 9SM OVC042 01/M01 A3004 750 85 -700 010/10 RMK AO2
14837KMSN MSN20031205044511012/05/03 04:45:31  5-MIN KMSN 051045Z 01009KT 9SM BKN042 BKN070 OVC100 01/M02 A3004 750 82 -700 010/09 RMK AO2
14837KMSN MSN20031205045012012/05/03 04:50:31  5-MIN KMSN 051050Z 01009KT 9SM BKN060 OVC100 01/M02 A3004 750 85 -700 010/09 RMK AO2 SLP182 T00061017
14837KMSN MSN20031205045510312/05/03 04:55:31  5-MIN KMSN 051055Z 01010KT 8SM BKN060 OVC100 01/M02 A3004 750 85 -700 010/10 RMK AO2
14837KMSN MSN20031205050010312/05/03 05:00:31  5-MIN KMSN 051100Z 01011KT 9SM BKN070 OVC100 01/M02 A3004 750 85 -700 010/11 RMK AO2
14837KMSN MSN20031205050511012/05/03 05:05:31  5-MIN KMSN 051105Z 36009KT 9SM FEW065 BKN080 OVC100 01/M02 A3004 750 85 -700 360/09 RMK AO2
14837KMSN MSN20031205051010312/05/03 05:10:31  5-MIN KMSN 051110Z 01011KT 9SM FEW065 OVC085 01/M02 A3005 750 85 -700 010/11 RMK AO2
14837KMSN MSN20031205051510312/05/03 05:15:31  5-MIN KMSN 051115Z 01011KT 9SM FEW065 OVC085 01/M02 A3005 750 85 -700 010/11 RMK AO2
14837KMSN MSN20031205052010312/05/03 05:20:31  5-MIN KMSN 051120Z 01012KT 9SM FEW065 OVC085 01/M02 A3005 740 85 -700 010/12 RMK AO2
14837KMSN MSN20031205052509612/05/03 05:25:31  5-MIN KMSN 051125Z 01011KT 9SM OVC080 01/M02 A3005 740 82 -800 010/11 RMK AO2
14837KMSN MSN20031205053009612/05/03 05:30:31  5-MIN KMSN 051130Z 01011KT 9SM OVC080 01/M02 A3006 740 82 -800 010/11 RMK AO2
14837KMSN MSN20031205053509712/05/03 05:35:31  5-MIN KMSN 051135Z 01012KT 10SM OVC080 01/M02 A3006 740 82 -800 010/12 RMK AO2
14837KMSN MSN20031205054009712/05/03 05:40:31  5-MIN KMSN 051140Z 01011KT 10SM OVC075 01/M02 A3006 730 82 -800 010/11 RMK AO2
14837KMSN MSN20031205054509712/05/03 05:45:31  5-MIN KMSN 051145Z 01012KT 10SM OVC080 01/M02 A3006 730 82 -800 010/12 RMK AO2
14837KMSN MSN20031205055014412/05/03 05:50:31  5-MIN KMSN 051150Z 01013KT 10SM OVC080 01/M02 A3006 730 82 -800 010/13 RMK AO2 SLP189 60009 70009 T00061022 10011 20000 56006
14837KMSN MSN20031205055509712/05/03 05:55:31  5-MIN KMSN 051155Z 01012KT 10SM OVC075 01/M02 A3007 730 82 -800 010/12 RMK AO2
14837KMSN MSN20031205060009712/05/03 06:00:31  5-MIN KMSN 051200Z 02011KT 10SM OVC075 01/M03 A3007 730 78 -800 020/11 RMK AO2
14837KMSN MSN20031205060509712/05/03 06:05:31  5-MIN KMSN 051205Z 02012KT 10SM OVC075 01/M03 A3007 730 78 -800 010/12 RMK AO2
14837KMSN MSN20031205061009712/05/03 06:10:31  5-MIN KMSN 051210Z 01010KT 10SM OVC075 01/M02 A3008 720 82 -800 010/10 RMK AO2
14837KMSN MSN20031205061509712/05/03 06:15:31  5-MIN KMSN 051215Z 01012KT 10SM OVC080 01/M02 A3008 720 82 -800 010/12 RMK AO2
14837KMSN MSN20031205062009712/05/03 06:20:31  5-MIN KMSN 051220Z 01011KT 10SM OVC080 01/M02 A3008 720 82 -800 010/11 RMK AO2
14837KMSN MSN20031205062509712/05/03 06:25:31  5-MIN KMSN 051225Z 36009KT 10SM OVC085 01/M02 A3008 710 82 -800 360/09 RMK AO2
14837KMSN MSN20031205063009712/05/03 06:30:31  5-MIN KMSN 051230Z 36009KT 10SM OVC085 01/M02 A3009 710 82 -800 360/09 RMK AO2
14837KMSN MSN20031205063509612/05/03 06:35:31  5-MIN KMSN 051235Z 01011KT 9SM OVC085 01/M02 A3009 710 82 -800 360/11 RMK AO2
14837KMSN MSN20031205064009612/05/03 06:40:31  5-MIN KMSN 051240Z 36012KT 9SM OVC085 00/M02 A3009 710 85 -900 360/12 RMK AO2
14837KMSN MSN20031205064509612/05/03 06:45:31  5-MIN KMSN 051245Z 36010KT 9SM OVC085 00/M02 A3009 700 85 -900 360/10 RMK AO2
14837KMSN MSN20031205065011312/05/03 06:50:31  5-MIN KMSN 051250Z 36009KT 9SM OVC085 00/M03 A3010 700 81 -900 360/09 RMK AO2 SLP200 T00001028
14837KMSN MSN20031205065509612/05/03 06:55:31  5-MIN KMSN 051255Z 36009KT 9SM OVC080 00/M02 A3010 700 85 -900 360/09 RMK AO2
14837KMSN MSN20031205070009612/05/03 07:00:31  5-MIN KMSN 051300Z 36010KT 9SM OVC080 00/M02 A3010 700 85 -900 360/10 RMK AO2
14837KMSN MSN20031205070509612/05/03 07:05:31  5-MIN KMSN 051305Z 36009KT 8SM BKN085 00/M02 A3010 700 85 -900 360/09 RMK AO2
14837KMSN MSN20031205071009612/05/03 07:10:31  5-MIN KMSN 051310Z 36010KT 9SM BKN080 00/M03 A3010 690 81 -900 360/10 RMK AO2
14837KMSN MSN20031205071509612/05/03 07:15:31  5-MIN KMSN 051315Z 01010KT 9SM SCT080 00/M03 A3011 690 81 -900 360/10 RMK AO2
14837KMSN MSN20031205072009612/05/03 07:20:31  5-MIN KMSN 051320Z 36010KT 9SM FEW080 00/M03 A3011 690 81 -900 360/10 RMK AO2
14837KMSN MSN20031205072509612/05/03 07:25:31  5-MIN KMSN 051325Z 01011KT 9SM FEW080 00/M03 A3011 690 81 -900 010/11 RMK AO2
14837KMSN MSN20031205073009612/05/03 07:30:31  5-MIN KMSN 051330Z 01012KT 8SM FEW085 00/M03 A3011 690 81 -900 010/12 RMK AO2
14837KMSN MSN20031205073509612/05/03 07:35:31  5-MIN KMSN 051335Z 36010KT 8SM FEW090 00/M03 A3012 680 81 -900 360/10 RMK AO2
14837KMSN MSN20031205074009612/05/03 07:40:31  5-MIN KMSN 051340Z 36012KT 8SM FEW090 00/M03 A3012 680 81 -900 360/12 RMK AO2
14837KMSN MSN20031205074509612/05/03 07:45:31  5-MIN KMSN 051345Z 36012KT 8SM FEW090 00/M03 A3012 680 81 -900 360/12 RMK AO2
14837KMSN MSN20031205075011312/05/03 07:50:31  5-MIN KMSN 051350Z 36011KT 8SM SCT100 00/M03 A3012 680 81 -900 360/11 RMK AO2 SLP209 T00001028
14837KMSN MSN20031205075509612/05/03 07:55:31  5-MIN KMSN 051355Z 01012KT 8SM BKN110 00/M03 A3012 680 81 -900 010/12 RMK AO2
14837KMSN MSN20031205080009612/05/03 08:00:31  5-MIN KMSN 051400Z 36011KT 8SM BKN110 00/M03 A3013 670 81 -900 360/11 RMK AO2
14837KMSN MSN20031205080509612/05/03 08:05:31  5-MIN KMSN 051405Z 36011KT 8SM BKN110 00/M03 A3013 670 81 -900 360/11 RMK AO2
14837KMSN MSN20031205081009612/05/03 08:10:31  5-MIN KMSN 051410Z 36011KT 9SM SCT110 00/M03 A3013 670 81 -900 360/11 RMK AO2
14837KMSN MSN20031205081509612/05/03 08:15:31  5-MIN KMSN 051415Z 36010KT 9SM SCT110 00/M03 A3013 670 81 -900 360/10 RMK AO2
14837KMSN MSN20031205082009612/05/03 08:20:31  5-MIN KMSN 051420Z 36009KT 8SM SCT110 00/M03 A3014 670 81 -900 360/09 RMK AO2
14837KMSN MSN20031205082509612/05/03 08:25:31  5-MIN KMSN 051425Z 36010KT 8SM FEW110 00/M03 A3014 660 81 -900 360/10 RMK AO2
14837KMSN MSN20031205083009312/05/03 08:30:31  5-MIN KMSN 051430Z 36010KT 8SM CLR 00/M03 A3014 660 78 -900 360/10 RMK AO2
14837KMSN MSN20031205083509312/05/03 08:35:31  5-MIN KMSN 051435Z 36009KT 9SM CLR 00/M03 A3014 660 78 -900 360/09 RMK AO2
14837KMSN MSN20031205084009312/05/03 08:40:31  5-MIN KMSN 051440Z 36009KT 9SM CLR 00/M03 A3014 660 78 -900 360/09 RMK AO2
14837KMSN MSN20031205084509312/05/03 08:45:31  5-MIN KMSN 051445Z 36009KT 9SM CLR 00/M03 A3015 660 78 -900 360/09 RMK AO2
14837KMSN MSN20031205085011612/05/03 08:50:31  5-MIN KMSN 051450Z 36010KT 9SM CLR 00/M03 A3015 660 78 -900 360/10 RMK AO2 SLP218 T00001033 53010
14837KMSN MSN20031205085509312/05/03 08:55:31  5-MIN KMSN 051455Z 36009KT 9SM CLR 00/M03 A3015 650 78 -900 360/09 RMK AO2
14837KMSN MSN20031205090009312/05/03 09:00:31  5-MIN KMSN 051500Z 36010KT 9SM CLR 00/M03 A3015 650 81 -900 360/10 RMK AO2
14837KMSN MSN20031205090509312/05/03 09:05:31  5-MIN KMSN 051505Z 36010KT 9SM CLR 01/M03 A3015 650 78 -900 360/10 RMK AO2
14837KMSN MSN20031205091009412/05/03 09:10:31  5-MIN KMSN 051510Z 36013KT 10SM CLR 01/M03 A3016 650 75 -900 360/13 RMK AO2
14837KMSN MSN20031205091509312/05/03 09:15:31  5-MIN KMSN 051515Z 01011KT 9SM CLR 01/M03 A3016 640 78 -900 360/11 RMK AO2
14837KMSN MSN20031205092009412/05/03 09:20:31  5-MIN KMSN 051520Z 01012KT 10SM CLR 01/M03 A3017 640 78 -900 010/12 RMK AO2
14837KMSN MSN20031205092509412/05/03 09:25:31  5-MIN KMSN 051525Z 01014KT 10SM CLR 01/M03 A3017 640 72 -800 010/14 RMK AO2
14837KMSN MSN20031205093009412/05/03 09:30:31  5-MIN KMSN 051530Z 02013KT 10SM CLR 01/M03 A3017 630 75 -800 010/13 RMK AO2
14837KMSN MSN20031205093509412/05/03 09:35:31  5-MIN KMSN 051535Z 01015KT 10SM CLR 01/M03 A3017 630 72 -800 360/15 RMK AO2
14837KMSN MSN20031205094009412/05/03 09:40:31  5-MIN KMSN 051540Z 01013KT 10SM CLR 01/M03 A3018 630 72 -800 010/13 RMK AO2
14837KMSN MSN20031205094509412/05/03 09:45:31  5-MIN KMSN 051545Z 01014KT 10SM CLR 01/M03 A3018 630 75 -800 010/14 RMK AO2
14837KMSN MSN20031205095011112/05/03 09:50:31  5-MIN KMSN 051550Z 01015KT 10SM CLR 02/M03 A3018 630 69 -800 010/15 RMK AO2 SLP229 T00171033
14837KMSN MSN20031205095510012/05/03 09:55:31  5-MIN KMSN 051555Z 01013G20KT 10SM CLR 02/M03 A3018 620 69 -800 010/13G20 RMK AO2
14837KMSN MSN20031205100009412/05/03 10:00:31  5-MIN KMSN 051600Z 02012KT 10SM CLR 02/M03 A3018 620 72 -800 020/12 RMK AO2
14837KMSN MSN20031205100509412/05/03 10:05:31  5-MIN KMSN 051605Z 02012KT 10SM CLR 02/M03 A3018 620 69 -800 020/12 RMK AO2
14837KMSN MSN20031205101009412/05/03 10:10:31  5-MIN KMSN 051610Z 01013KT 10SM CLR 02/M03 A3018 620 72 -800 010/13 RMK AO2
14837KMSN MSN20031205101509412/05/03 10:15:31  5-MIN KMSN 051615Z 01012KT 10SM CLR 02/M03 A3018 620 69 -800 010/12 RMK AO2
14837KMSN MSN20031205102009412/05/03 10:20:31  5-MIN KMSN 051620Z 02015KT 10SM CLR 02/M03 A3018 620 69 -700 020/15 RMK AO2
14837KMSN MSN20031205102509412/05/03 10:25:31  5-MIN KMSN 051625Z 02014KT 10SM CLR 02/M03 A3018 620 67 -700 020/14 RMK AO2
14837KMSN MSN20031205103009412/05/03 10:30:31  5-MIN KMSN 051630Z 01014KT 10SM CLR 02/M03 A3019 620 67 -700 010/14 RMK AO2
14837KMSN MSN20031205103509412/05/03 10:35:31  5-MIN KMSN 051635Z 02013KT 10SM CLR 02/M03 A3018 620 69 -700 020/13 RMK AO2
14837KMSN MSN20031205104009412/05/03 10:40:31  5-MIN KMSN 051640Z 02013KT 10SM CLR 02/M03 A3018 620 67 -700 020/13 RMK AO2
14837KMSN MSN20031205104509412/05/03 10:45:31  5-MIN KMSN 051645Z 02013KT 10SM CLR 03/M03 A3018 620 67 -600 020/13 RMK AO2
14837KMSN MSN20031205105011112/05/03 10:50:31  5-MIN KMSN 051650Z 01013KT 10SM CLR 03/M03 A3018 620 67 -600 010/13 RMK AO2 SLP230 T00281028
14837KMSN MSN20031205105509412/05/03 10:55:31  5-MIN KMSN 051655Z 01014KT 10SM CLR 03/M03 A3018 620 67 -600 010/14 RMK AO2
14837KMSN MSN20031205110009412/05/03 11:00:31  5-MIN KMSN 051700Z 01014KT 10SM CLR 03/M03 A3018 620 67 -600 010/14 RMK AO2
14837KMSN MSN20031205110509412/05/03 11:05:31  5-MIN KMSN 051705Z 01014KT 10SM CLR 03/M03 A3018 620 61 -600 010/14 RMK AO2
14837KMSN MSN20031205111009412/05/03 11:10:31  5-MIN KMSN 051710Z 01015KT 10SM CLR 03/M03 A3018 620 61 -600 010/15 RMK AO2
14837KMSN MSN20031205111509412/05/03 11:15:31  5-MIN KMSN 051715Z 01014KT 10SM CLR 03/M03 A3018 620 64 -600 010/14 RMK AO2
14837KMSN MSN20031205112009412/05/03 11:20:31  5-MIN KMSN 051720Z 01014KT 10SM CLR 04/M03 A3018 620 62 -500 010/14 RMK AO2
14837KMSN MSN20031205112509412/05/03 11:25:31  5-MIN KMSN 051725Z 02012KT 10SM CLR 04/M03 A3018 620 62 -500 020/12 RMK AO2
14837KMSN MSN20031205113009412/05/03 11:30:31  5-MIN KMSN 051730Z 01014KT 10SM CLR 04/M02 A3018 620 62 -400 010/14 RMK AO2
14837KMSN MSN20031205113510012/05/03 11:35:31  5-MIN KMSN 051735Z 02016G20KT 10SM CLR 04/M03 A3018 620 59 -400 020/16G20 RMK AO2
14837KMSN MSN20031205114009412/05/03 11:40:31  5-MIN KMSN 051740Z 01015KT 10SM CLR 04/M03 A3018 620 59 -400 010/15 RMK AO2
14837KMSN MSN20031205114509412/05/03 11:45:31  5-MIN KMSN 051745Z 02014KT 10SM CLR 04/M03 A3018 620 57 -400 020/14 RMK AO2
14837KMSN MSN20031205115012912/05/03 11:50:31  5-MIN KMSN 051750Z 02015KT 10SM CLR 05/M03 A3018 620 57 -300 020/15 RMK AO2 SLP228 T00501028 10050 20000 51028
14837KMSN MSN20031205115510012/05/03 11:55:31  5-MIN KMSN 051755Z 01012G19KT 10SM CLR 05/M03 A3018 630 55 -300 010/12G19 RMK AO2
14837KMSN MSN20031205120010012/05/03 12:00:31  5-MIN KMSN 051800Z 04016G19KT 10SM CLR 05/M03 A3018 620 55 -300 040/16G19 RMK AO2
14837KMSN MSN20031205120509412/05/03 12:05:31  5-MIN KMSN 051805Z 02012KT 10SM CLR 05/M03 A3018 620 55 -300 020/12 RMK AO2
14837KMSN MSN20031205121009412/05/03 12:10:31  5-MIN KMSN 051810Z 02016KT 10SM CLR 05/M04 A3018 620 50 -300 020/16 RMK AO2
14837KMSN MSN20031205121509412/05/03 12:15:31  5-MIN KMSN 051815Z 02013KT 10SM CLR 06/M04 A3018 620 48 -300 020/13 RMK AO2
14837KMSN MSN20031205122009412/05/03 12:20:31  5-MIN KMSN 051820Z 36013KT 10SM CLR 06/M03 A3019 620 55 -300 360/13 RMK AO2
14837KMSN MSN20031205122509412/05/03 12:25:31  5-MIN KMSN 051825Z 01014KT 10SM CLR 06/M03 A3019 620 55 -300 010/14 RMK AO2
14837KMSN MSN20031205123009412/05/03 12:30:31  5-MIN KMSN 051830Z 36012KT 10SM CLR 06/M03 A3019 620 55 -300 360/12 RMK AO2
14837KMSN MSN20031205123509412/05/03 12:35:31  5-MIN KMSN 051835Z 36016KT 10SM CLR 06/M03 A3019 620 55 -300 360/16 RMK AO2
14837KMSN MSN20031205124009412/05/03 12:40:31  5-MIN KMSN 051840Z 01013KT 10SM CLR 06/M03 A3019 620 53 -300 010/13 RMK AO2
14837KMSN MSN20031205124509412/05/03 12:45:31  5-MIN KMSN 051845Z 01016KT 10SM CLR 06/M03 A3019 610 55 -300 010/16 RMK AO2
14837KMSN MSN20031205125011112/05/03 12:50:31  5-MIN KMSN 051850Z 01015KT 10SM CLR 06/M03 A3019 620 53 -300 010/15 RMK AO2 SLP231 T00561033
14837KMSN MSN20031205125509412/05/03 12:55:31  5-MIN KMSN 051855Z 01014KT 10SM CLR 06/M03 A3019 610 53 -300 010/14 RMK AO2
14837KMSN MSN20031205130010012/05/03 13:00:31  5-MIN KMSN 051900Z 36014G20KT 10SM CLR 06/M04 A3019 610 50 -300 360/14G20 RMK AO2
14837KMSN MSN20031205130509412/05/03 13:05:31  5-MIN KMSN 051905Z 02018KT 10SM CLR 06/M04 A3019 610 48 -300 020/18 RMK AO2
14837KMSN MSN20031205131009412/05/03 13:10:31  5-MIN KMSN 051910Z 01016KT 10SM CLR 06/M04 A3019 610 48 -300 010/16 RMK AO2
14837KMSN MSN20031205131510012/05/03 13:15:31  5-MIN KMSN 051915Z 01014G21KT 10SM CLR 06/M04 A3019 610 48 -300 010/14G21 RMK AO2
14837KMSN MSN20031205132010012/05/03 13:20:31  5-MIN KMSN 051920Z 01017G21KT 10SM CLR 06/M04 A3019 610 48 -300 360/17G21 RMK AO2
14837KMSN MSN20031205132510012/05/03 13:25:31  5-MIN KMSN 051925Z 36012G21KT 10SM CLR 06/M04 A3019 610 50 -300 360/12G21 RMK AO2
14837KMSN MSN20031205133009412/05/03 13:30:31  5-MIN KMSN 051930Z 36013KT 10SM CLR 06/M04 A3019 610 48 -300 360/13 RMK AO2
14837KMSN MSN20031205133509412/05/03 13:35:31  5-MIN KMSN 051935Z 36013KT 10SM CLR 06/M04 A3019 610 48 -300 360/13 RMK AO2
14837KMSN MSN20031205134009412/05/03 13:40:31  5-MIN KMSN 051940Z 36014KT 10SM CLR 06/M04 A3020 610 48 -300 360/14 RMK AO2
14837KMSN MSN20031205134509412/05/03 13:45:31  5-MIN KMSN 051945Z 01013KT 10SM CLR 06/M04 A3020 610 48 -300 010/13 RMK AO2
14837KMSN MSN20031205135011112/05/03 13:50:31  5-MIN KMSN 051950Z 36015KT 10SM CLR 06/M05 A3020 610 46 -300 360/15 RMK AO2 SLP234 T00561050
14837KMSN MSN20031205135510012/05/03 13:55:31  5-MIN KMSN 051955Z 36012G20KT 10SM CLR 06/M04 A3020 610 48 -300 360/12G20 RMK AO2
14837KMSN MSN20031205140009412/05/03 14:00:31  5-MIN KMSN 052000Z 01014KT 10SM CLR 06/M05 A3020 610 46 -300 010/14 RMK AO2
14837KMSN MSN20031205140509412/05/03 14:05:31  5-MIN KMSN 052005Z 01015KT 10SM CLR 06/M05 A3020 610 46 -300 010/15 RMK AO2
14837KMSN MSN20031205141010012/05/03 14:10:31  5-MIN KMSN 052010Z 36014G19KT 10SM CLR 06/M04 A3020 600 48 -300 360/14G19 RMK AO2
14837KMSN MSN20031205141510012/05/03 14:15:31  5-MIN KMSN 052015Z 01013G19KT 10SM CLR 06/M05 A3020 610 46 -300 010/13G19 RMK AO2
14837KMSN MSN20031205142009412/05/03 14:20:31  5-MIN KMSN 052020Z 01014KT 10SM CLR 06/M05 A3020 610 46 -300 010/14 RMK AO2
14837KMSN MSN20031205142509412/05/03 14:25:31  5-MIN KMSN 052025Z 01013KT 10SM CLR 06/M05 A3020 610 46 -300 010/13 RMK AO2
14837KMSN MSN20031205143009412/05/03 14:30:31  5-MIN KMSN 052030Z 01013KT 10SM CLR 06/M06 A3020 610 44 -300 360/13 RMK AO2
14837KMSN MSN20031205143509412/05/03 14:35:31  5-MIN KMSN 052035Z 36013KT 10SM CLR 06/M06 A3020 600 44 -300 360/13 RMK AO2
14837KMSN MSN20031205144009412/05/03 14:40:31  5-MIN KMSN 052040Z 36014KT 10SM CLR 06/M06 A3021 600 43 -300 360/14 RMK AO2
14837KMSN MSN20031205144509412/05/03 14:45:31  5-MIN KMSN 052045Z 01013KT 10SM CLR 06/M06 A3020 600 43 -300 010/13 RMK AO2
14837KMSN MSN20031205145011712/05/03 14:50:31  5-MIN KMSN 052050Z 01013KT 10SM CLR 06/M06 A3020 600 43 -300 360/13 RMK AO2 SLP236 T00561061 50010
14837KMSN MSN20031205145509412/05/03 14:55:31  5-MIN KMSN 052055Z 01011KT 10SM CLR 06/M07 A3021 600 39 -300 010/11 RMK AO2
14837KMSN MSN20031205150009412/05/03 15:00:31  5-MIN KMSN 052100Z 01012KT 10SM CLR 06/M07 A3021 600 41 -300 010/12 RMK AO2
14837KMSN MSN20031205150509412/05/03 15:05:31  5-MIN KMSN 052105Z 36011KT 10SM CLR 06/M07 A3021 600 39 -300 360/11 RMK AO2
14837KMSN MSN20031205151009412/05/03 15:10:31  5-MIN KMSN 052110Z 01011KT 10SM CLR 06/M07 A3021 590 39 -300 360/11 RMK AO2
14837KMSN MSN20031205151509412/05/03 15:15:31  5-MIN KMSN 052115Z 36009KT 10SM CLR 05/M07 A3021 590 41 -400 360/09 RMK AO2
14837KMSN MSN20031205152009412/05/03 15:20:31  5-MIN KMSN 052120Z 01011KT 10SM CLR 05/M07 A3021 590 41 -400 010/11 RMK AO2
14837KMSN MSN20031205152509412/05/03 15:25:31  5-MIN KMSN 052125Z 01011KT 10SM CLR 05/M07 A3022 590 41 -400 360/11 RMK AO2
14837KMSN MSN20031205153009412/05/03 15:30:31  5-MIN KMSN 052130Z 01009KT 10SM CLR 04/M07 A3022 590 42 -500 360/09 RMK AO2
14837KMSN MSN20031205153509412/05/03 15:35:31  5-MIN KMSN 052135Z 36008KT 10SM CLR 04/M07 A3022 580 44 -500 360/08 RMK AO2
14837KMSN MSN20031205154009412/05/03 15:40:31  5-MIN KMSN 052140Z 36007KT 10SM CLR 04/M07 A3023 580 44 -500 360/07 RMK AO2
14837KMSN MSN20031205154509412/05/03 15:45:31  5-MIN KMSN 052145Z 35006KT 10SM CLR 04/M07 A3023 580 44 -500 350/06 RMK AO2
14837KMSN MSN20031205155011112/05/03 15:50:31  5-MIN KMSN 052150Z 36006KT 10SM CLR 04/M07 A3023 580 46 -500 360/06 RMK AO2 SLP245 T00391067
14837KMSN MSN20031205155509412/05/03 15:55:31  5-MIN KMSN 052155Z 36006KT 10SM CLR 04/M07 A3023 580 44 -500 360/06 RMK AO2
14837KMSN MSN20031205160009412/05/03 16:00:31  5-MIN KMSN 052200Z 35007KT 10SM CLR 03/M07 A3024 570 46 -600 350/07 RMK AO2
14837KMSN MSN20031205160509412/05/03 16:05:31  5-MIN KMSN 052205Z 35006KT 10SM CLR 03/M07 A3024 570 46 -600 350/06 RMK AO2
14837KMSN MSN20031205161009412/05/03 16:10:31  5-MIN KMSN 052210Z 36006KT 10SM CLR 03/M07 A3024 570 48 -700 360/06 RMK AO2
14837KMSN MSN20031205161509412/05/03 16:15:31  5-MIN KMSN 052215Z 36005KT 10SM CLR 03/M07 A3024 570 48 -700 360/05 RMK AO2
14837KMSN MSN20031205162009412/05/03 16:20:31  5-MIN KMSN 052220Z VRB04KT 10SM CLR 03/M07 A3025 560 46 -600 VRB/04 RMK AO2
14837KMSN MSN20031205162509412/05/03 16:25:31  5-MIN KMSN 052225Z 35004KT 10SM CLR 03/M08 A3025 560 44 -600 350/04 RMK AO2
14837KMSN MSN20031205163009412/05/03 16:30:31  5-MIN KMSN 052230Z 35004KT 10SM CLR 03/M08 A3025 560 44 -600 350/04 RMK AO2
14837KMSN MSN20031205163509412/05/03 16:35:31  5-MIN KMSN 052235Z 35005KT 10SM CLR 03/M08 A3026 550 46 -700 350/05 RMK AO2
14837KMSN MSN20031205164009412/05/03 16:40:31  5-MIN KMSN 052240Z 34003KT 10SM CLR 03/M08 A3026 550 46 -700 340/03 RMK AO2
14837KMSN MSN20031205164509412/05/03 16:45:31  5-MIN KMSN 052245Z 00000KT 10SM CLR 02/M08 A3026 550 47 -800 000/00 RMK AO2
14837KMSN MSN20031205165011112/05/03 16:50:31  5-MIN KMSN 052250Z 36003KT 10SM CLR 02/M08 A3026 550 49 -900 350/03 RMK AO2 SLP257 T00171078
14837KMSN MSN20031205165509412/05/03 16:55:31  5-MIN KMSN 052255Z 35004KT 10SM CLR 02/M08 A3026 550 49 -900 350/04 RMK AO2
14837KMSN MSN20031205170009412/05/03 17:00:31  5-MIN KMSN 052300Z 34003KT 10SM CLR 02/M08 A3027 550 47 -800 340/03 RMK AO2
14837KMSN MSN20031205170509412/05/03 17:05:31  5-MIN KMSN 052305Z 34003KT 10SM CLR 02/M07 A3027 540 52 -900 340/03 RMK AO2
14837KMSN MSN20031205171009412/05/03 17:10:31  5-MIN KMSN 052310Z 00000KT 10SM CLR 02/M07 A3027 540 52 -900 000/00 RMK AO2
14837KMSN MSN20031205171509412/05/03 17:15:31  5-MIN KMSN 052315Z 34003KT 10SM CLR 01/M07 A3027 540 54 -900 330/03 RMK AO2
14837KMSN MSN20031205172009512/05/03 17:20:31  5-MIN KMSN 052320Z 33003KT 10SM CLR 00/M07 A3027 540 58 -1100 320/03 RMK AO2
14837KMSN MSN20031205172509512/05/03 17:25:31  5-MIN KMSN 052325Z 33003KT 10SM CLR 00/M07 A3027 540 58 -1100 330/03 RMK AO2
14837KMSN MSN20031205173009512/05/03 17:30:31  5-MIN KMSN 052330Z 33003KT 10SM CLR 00/M07 A3028 540 58 -1100 320/03 RMK AO2
14837KMSN MSN20031205173509512/05/03 17:35:31  5-MIN KMSN 052335Z 33003KT 10SM CLR 00/M07 A3028 530 58 -1100 330/03 RMK AO2
14837KMSN MSN20031205174009512/05/03 17:40:31  5-MIN KMSN 052340Z 33003KT 10SM CLR 00/M07 A3028 540 58 -1100 330/03 RMK AO2
14837KMSN MSN20031205174509512/05/03 17:45:31  5-MIN KMSN 052345Z 34003KT 10SM CLR 01/M07 A3028 530 56 -1000 340/03 RMK AO2
14837KMSN MSN20031205175012912/05/03 17:50:31  5-MIN KMSN 052350Z 33004KT 10SM CLR 01/M07 A3028 530 54 -900 330/04 RMK AO2 SLP264 T00111072 10056 20000 51008
14837KMSN MSN20031205175509512/05/03 17:55:31  5-MIN KMSN 052355Z 33003KT 10SM CLR 01/M07 A3028 530 56 -1000 330/03 RMK AO2
14837KMSN MSN20031205180009512/05/03 18:00:31  5-MIN KMSN 060000Z 33004KT 10SM CLR 00/M07 A3029 530 58 -1100 330/04 RMK AO2
14837KMSN MSN20031205180509512/05/03 18:05:31  5-MIN KMSN 060005Z 34004KT 10SM CLR 01/M07 A3029 530 56 -1000 340/04 RMK AO2
14837KMSN MSN20031205181009512/05/03 18:10:31  5-MIN KMSN 060010Z 34003KT 10SM CLR 01/M07 A3029 530 56 -1000 340/03 RMK AO2
14837KMSN MSN20031205181509512/05/03 18:15:31  5-MIN KMSN 060015Z 33003KT 10SM CLR 01/M07 A3029 520 56 -1000 330/03 RMK AO2
14837KMSN MSN20031205182009612/05/03 18:20:31  5-MIN KMSN 060020Z 33003KT 10SM CLR M01/M07 A3029 520 61 -1200 330/03 RMK AO2
14837KMSN MSN20031205182509612/05/03 18:25:31  5-MIN KMSN 060025Z 34003KT 10SM CLR M01/M07 A3029 520 61 -1200 340/03 RMK AO2
14837KMSN MSN20031205183009612/05/03 18:30:31  5-MIN KMSN 060030Z 33003KT 10SM CLR M01/M07 A3029 520 61 -1200 330/03 RMK AO2
14837KMSN MSN20031205183509612/05/03 18:35:31  5-MIN KMSN 060035Z 32003KT 10SM CLR M01/M07 A3030 520 63 -1200 320/03 RMK AO2
14837KMSN MSN20031205184009612/05/03 18:40:31  5-MIN KMSN 060040Z 32004KT 10SM CLR M02/M07 A3030 510 69 -1400 320/04 RMK AO2
14837KMSN MSN20031205184509612/05/03 18:45:31  5-MIN KMSN 060045Z 31003KT 10SM CLR M02/M07 A3030 510 72 -1400 310/03 RMK AO2
14837KMSN MSN20031205185011312/05/03 18:50:31  5-MIN KMSN 060050Z 31004KT 10SM CLR M02/M07 A3031 510 69 -1300 310/04 RMK AO2 SLP274 T10171067
14837KMSN MSN20031205185509612/05/03 18:55:31  5-MIN KMSN 060055Z 32004KT 10SM CLR M01/M07 A3031 510 66 -1300 320/04 RMK AO2
14837KMSN MSN20031205190009612/05/03 19:00:31  5-MIN KMSN 060100Z 32003KT 10SM CLR M01/M07 A3031 510 66 -1300 320/03 RMK AO2
14837KMSN MSN20031205190509612/05/03 19:05:31  5-MIN KMSN 060105Z 00000KT 10SM CLR M01/M07 A3031 510 63 -1300 000/00 RMK AO2
14837KMSN MSN20031205191009612/05/03 19:10:31  5-MIN KMSN 060110Z 00000KT 10SM CLR M01/M07 A3031 510 61 -1200 000/00 RMK AO2
14837KMSN MSN20031205191509612/05/03 19:15:31  5-MIN KMSN 060115Z 00000KT 10SM CLR M01/M07 A3031 510 63 -1300 000/00 RMK AO2
14837KMSN MSN20031205192009612/05/03 19:20:31  5-MIN KMSN 060120Z 00000KT 10SM CLR M02/M07 A3031 510 66 -1300 000/00 RMK AO2
14837KMSN MSN20031205192509612/05/03 19:25:31  5-MIN KMSN 060125Z 00000KT 10SM CLR M02/M07 A3031 510 66 -1300 000/00 RMK AO2
14837KMSN MSN20031205193009612/05/03 19:30:31  5-MIN KMSN 060130Z 36003KT 10SM CLR M01/M07 A3031 500 63 -1300 360/03 RMK AO2
14837KMSN MSN20031205193509612/05/03 19:35:31  5-MIN KMSN 060135Z 00000KT 10SM CLR M02/M07 A3031 500 66 -1300 000/00 RMK AO2
14837KMSN MSN20031205194009612/05/03 19:40:31  5-MIN KMSN 060140Z 31003KT 10SM CLR M03/M07 A3032 500 71 -1500 310/03 RMK AO2
14837KMSN MSN20031205194509612/05/03 19:45:31  5-MIN KMSN 060145Z 33003KT 10SM CLR M02/M07 A3032 500 66 -1300 330/03 RMK AO2
14837KMSN MSN20031205195011312/05/03 19:50:31  5-MIN KMSN 060150Z 33006KT 10SM CLR M01/M07 A3032 500 63 -1300 320/06 RMK AO2 SLP278 T10111072
14837KMSN MSN20031205195509512/05/03 19:55:31  5-MIN KMSN 060155Z 33006KT 10SM CLR 01/M07 A3032 500 56 -1100 330/06 RMK AO2
14837KMSN MSN20031205200009512/05/03 20:00:31  5-MIN KMSN 060200Z 34006KT 10SM CLR 01/M07 A3032 500 56 -1000 340/06 RMK AO2
14837KMSN MSN20031205200509512/05/03 20:05:31  5-MIN KMSN 060205Z 35004KT 10SM CLR 00/M07 A3032 500 58 -1100 340/04 RMK AO2
14837KMSN MSN20031205201009612/05/03 20:10:31  5-MIN KMSN 060210Z 35004KT 10SM CLR M02/M08 A3032 500 63 -1300 350/04 RMK AO2
14837KMSN MSN20031205201509612/05/03 20:15:31  5-MIN KMSN 060215Z 36005KT 10SM CLR M01/M08 A3031 510 60 -1300 360/05 RMK AO2
14837KMSN MSN20031205202009612/05/03 20:20:31  5-MIN KMSN 060220Z 36005KT 10SM CLR M01/M07 A3031 510 63 -1300 360/05 RMK AO2
14837KMSN MSN20031205202509612/05/03 20:25:31  5-MIN KMSN 060225Z 34004KT 10SM CLR M01/M07 A3031 500 61 -1200 340/04 RMK AO2
14837KMSN MSN20031205203009512/05/03 20:30:31  5-MIN KMSN 060230Z 33004KT 10SM CLR 00/M07 A3031 500 61 -1100 330/04 RMK AO2
14837KMSN MSN20031205203509512/05/03 20:35:31  5-MIN KMSN 060235Z 33004KT 10SM CLR 00/M07 A3031 500 61 -1100 330/04 RMK AO2
14837KMSN MSN20031205204009512/05/03 20:40:31  5-MIN KMSN 060240Z 33005KT 10SM CLR 00/M07 A3032 500 58 -1100 330/05 RMK AO2
14837KMSN MSN20031205204509612/05/03 20:45:31  5-MIN KMSN 060245Z 33005KT 10SM CLR M01/M07 A3032 500 63 -1200 330/05 RMK AO2
14837KMSN MSN20031205205011912/05/03 20:50:31  5-MIN KMSN 060250Z 33006KT 10SM CLR M01/M07 A3032 500 63 -1200 330/06 RMK AO2 SLP277 T10061067 51026
14837KMSN MSN20031205205509512/05/03 20:55:31  5-MIN KMSN 060255Z 33005KT 10SM CLR 00/M06 A3032 500 63 -1100 330/05 RMK AO2
14837KMSN MSN20031205210009512/05/03 21:00:31  5-MIN KMSN 060300Z 33006KT 10SM CLR 00/M06 A3032 500 63 -1100 330/06 RMK AO2
14837KMSN MSN20031205210509512/05/03 21:05:31  5-MIN KMSN 060305Z 33006KT 10SM CLR 00/M06 A3031 500 63 -1100 330/06 RMK AO2
14837KMSN MSN20031205211009512/05/03 21:10:31  5-MIN KMSN 060310Z 34004KT 10SM CLR 00/M06 A3031 510 66 -1100 340/04 RMK AO2
14837KMSN MSN20031205211509512/05/03 21:15:31  5-MIN KMSN 060315Z 33004KT 10SM CLR 00/M06 A3030 510 66 -1100 330/04 RMK AO2
14837KMSN MSN20031205212009512/05/03 21:20:31  5-MIN KMSN 060320Z 31005KT 10SM CLR 00/M06 A3030 510 66 -1100 310/05 RMK AO2
14837KMSN MSN20031205212509612/05/03 21:25:31  5-MIN KMSN 060325Z 31006KT 10SM CLR M01/M06 A3031 510 69 -1300 310/06 RMK AO2
14837KMSN MSN20031205213009612/05/03 21:30:31  5-MIN KMSN 060330Z 31006KT 10SM CLR M02/M06 A3031 510 72 -1300 310/06 RMK AO2
14837KMSN MSN20031205213509612/05/03 21:35:31  5-MIN KMSN 060335Z 31006KT 10SM CLR M01/M06 A3031 510 72 -1300 310/06 RMK AO2
14837KMSN MSN20031205214009612/05/03 21:40:31  5-MIN KMSN 060340Z 31006KT 10SM CLR M01/M06 A3031 510 72 -1300 310/06 RMK AO2
14837KMSN MSN20031205214509612/05/03 21:45:31  5-MIN KMSN 060345Z 31006KT 10SM CLR M01/M06 A3031 510 69 -1200 310/06 RMK AO2
14837KMSN MSN20031205215011312/05/03 21:50:31  5-MIN KMSN 060350Z 31006KT 10SM CLR M01/M05 A3031 500 75 -1300 310/06 RMK AO2 SLP275 T10111050
14837KMSN MSN20031205215509612/05/03 21:55:31  5-MIN KMSN 060355Z 31007KT 10SM CLR M01/M05 A3032 500 72 -1200 310/07 RMK AO2
14837KMSN MSN20031205220009612/05/03 22:00:31  5-MIN KMSN 060400Z 32007KT 10SM CLR M01/M04 A3032 500 75 -1200 320/07 RMK AO2
14837KMSN MSN20031205220509612/05/03 22:05:31  5-MIN KMSN 060405Z 33006KT 10SM CLR M01/M04 A3032 500 75 -1200 320/06 RMK AO2
14837KMSN MSN20031205221009612/05/03 22:10:31  5-MIN KMSN 060410Z 32006KT 10SM CLR M01/M04 A3032 500 75 -1200 320/06 RMK AO2
14837KMSN MSN20031205221509612/05/03 22:15:31  5-MIN KMSN 060415Z 32006KT 10SM CLR M01/M04 A3032 500 75 -1200 320/06 RMK AO2
14837KMSN MSN20031205222009612/05/03 22:20:31  5-MIN KMSN 060420Z 33006KT 10SM CLR M01/M04 A3032 490 75 -1200 330/06 RMK AO2
14837KMSN MSN20031205222509612/05/03 22:25:31  5-MIN KMSN 060425Z 32006KT 10SM CLR M01/M04 A3032 490 78 -1200 320/06 RMK AO2
14837KMSN MSN20031205223009612/05/03 22:30:31  5-MIN KMSN 060430Z 32007KT 10SM CLR M01/M04 A3033 490 78 -1200 320/07 RMK AO2
14837KMSN MSN20031205223509612/05/03 22:35:31  5-MIN KMSN 060435Z 32007KT 10SM CLR M01/M04 A3033 490 78 -1200 320/07 RMK AO2
14837KMSN MSN20031205224009612/05/03 22:40:31  5-MIN KMSN 060440Z 32007KT 10SM CLR M01/M04 A3033 490 78 -1200 320/07 RMK AO2
14837KMSN MSN20031205224509612/05/03 22:45:31  5-MIN KMSN 060445Z 32006KT 10SM CLR M01/M04 A3033 490 78 -1200 320/06 RMK AO2
14837KMSN MSN20031205225011312/05/03 22:50:31  5-MIN KMSN 060450Z 33007KT 10SM CLR M01/M04 A3033 490 78 -1200 320/07 RMK AO2 SLP280 T10061039
14837KMSN MSN20031205225509612/05/03 22:55:31  5-MIN KMSN 060455Z 33006KT 10SM CLR M01/M04 A3033 490 78 -1200 330/06 RMK AO2
14837KMSN MSN20031205230009612/05/03 23:00:31  5-MIN KMSN 060500Z 33008KT 10SM CLR M01/M03 A3033 490 81 -1200 330/08 RMK AO2
14837KMSN MSN20031205230509512/05/03 23:05:31  5-MIN KMSN 060505Z 33008KT 10SM CLR 00/M03 A3033 490 78 -1100 330/08 RMK AO2
14837KMSN MSN20031205231009612/05/03 23:10:31  5-MIN KMSN 060510Z 33007KT 10SM CLR M01/M04 A3032 490 78 -1200 320/07 RMK AO2
14837KMSN MSN20031205231509612/05/03 23:15:31  5-MIN KMSN 060515Z 33008KT 10SM CLR M01/M04 A3032 490 78 -1200 330/08 RMK AO2
14837KMSN MSN20031205232009512/05/03 23:20:31  5-MIN KMSN 060520Z 33008KT 10SM CLR 00/M03 A3032 490 78 -1100 330/08 RMK AO2
14837KMSN MSN20031205232509612/05/03 23:25:31  5-MIN KMSN 060525Z 32006KT 10SM CLR M01/M04 A3032 500 78 -1200 320/06 RMK AO2
14837KMSN MSN20031205233009612/05/03 23:30:31  5-MIN KMSN 060530Z 32005KT 10SM CLR M01/M04 A3032 500 78 -1200 320/05 RMK AO2
14837KMSN MSN20031205233509612/05/03 23:35:31  5-MIN KMSN 060535Z 32006KT 10SM CLR M01/M04 A3032 500 78 -1200 320/06 RMK AO2
14837KMSN MSN20031205234009612/05/03 23:40:31  5-MIN KMSN 060540Z 32006KT 10SM CLR M01/M04 A3032 500 78 -1200 320/06 RMK AO2
14837KMSN MSN20031205234509612/05/03 23:45:31  5-MIN KMSN 060545Z 32005KT 10SM CLR M01/M04 A3032 500 78 -1200 320/05 RMK AO2
14837KMSN MSN20031205235014112/05/03 23:50:31  5-MIN KMSN 060550Z 32006KT 10SM CLR M01/M04 A3032 500 81 -1300 320/06 RMK AO2 SLP277 T10111039 10011 21028 400561028 50012
14837KMSN MSN20031205235509612/05/03 23:55:31  5-MIN KMSN 060555Z 32006KT 10SM CLR M01/M04 A3033 490 81 -1300 320/06 RMK AO2
14837KMSN MSN20031206000009612/06/03 00:00:31  5-MIN KMSN 060600Z 32005KT 10SM CLR M01/M04 A3033 490 81 -1300 320/05 RMK AO2
14837KMSN MSN20031206000509612/06/03 00:05:31  5-MIN KMSN 060605Z 32006KT 10SM CLR M01/M04 A3033 490 81 -1300 320/06 RMK AO2
14837KMSN MSN20031206001009612/06/03 00:10:31  5-MIN KMSN 060610Z 34004KT 10SM CLR M01/M04 A3032 490 81 -1300 330/04 RMK AO2
14837KMSN MSN20031206001509512/06/03 00:15:31  5-MIN KMSN 060615Z VRB04KT 9SM CLR M01/M04 A3032 500 81 -1300 VRB/04 RMK AO2
14837KMSN MSN20031206002009512/06/03 00:20:31  5-MIN KMSN 060620Z 32004KT 9SM CLR M01/M04 A3032 490 81 -1300 320/04 RMK AO2
14837KMSN MSN20031206002509512/06/03 00:25:31  5-MIN KMSN 060625Z VRB03KT 9SM CLR M01/M04 A3032 490 81 -1300 VRB/03 RMK AO2
14837KMSN MSN20031206003009512/06/03 00:30:31  5-MIN KMSN 060630Z VRB04KT 9SM CLR M02/M04 A3033 490 81 -1300 VRB/04 RMK AO2
14837KMSN MSN20031206003509512/06/03 00:35:31  5-MIN KMSN 060635Z VRB03KT 9SM CLR M01/M04 A3033 490 81 -1300 VRB/03 RMK AO2
14837KMSN MSN20031206004009512/06/03 00:40:31  5-MIN KMSN 060640Z 32003KT 9SM CLR M01/M04 A3033 490 78 -1300 320/03 RMK AO2
14837KMSN MSN20031206004509512/06/03 00:45:31  5-MIN KMSN 060645Z 33003KT 9SM CLR M02/M04 A3033 490 81 -1300 320/03 RMK AO2
14837KMSN MSN20031206005011212/06/03 00:50:31  5-MIN KMSN 060650Z 33005KT 8SM CLR M02/M04 A3033 490 81 -1300 330/05 RMK AO2 SLP280 T10171044
14837KMSN MSN20031206005509512/06/03 00:55:31  5-MIN KMSN 060655Z 33004KT 8SM CLR M02/M04 A3033 490 81 -1300 330/04 RMK AO2
14837KMSN MSN20031206010009512/06/03 01:00:31  5-MIN KMSN 060700Z 30003KT 8SM CLR M02/M04 A3033 490 81 -1300 300/03 RMK AO2
14837KMSN MSN20031206010509512/06/03 01:05:31  5-MIN KMSN 060705Z 30003KT 8SM CLR M02/M04 A3033 490 81 -1300 300/03 RMK AO2
14837KMSN MSN20031206011009512/06/03 01:10:31  5-MIN KMSN 060710Z 32003KT 8SM CLR M02/M04 A3033 490 85 -1400 310/03 RMK AO2
14837KMSN MSN20031206011509512/06/03 01:15:31  5-MIN KMSN 060715Z 33004KT 8SM CLR M02/M04 A3033 490 81 -1300 320/04 RMK AO2
14837KMSN MSN20031206012009512/06/03 01:20:31  5-MIN KMSN 060720Z 31003KT 8SM CLR M02/M04 A3033 490 81 -1300 310/03 RMK AO2
14837KMSN MSN20031206012509512/06/03 01:25:31  5-MIN KMSN 060725Z 27003KT 8SM CLR M03/M04 A3033 490 88 -1500 270/03 RMK AO2
14837KMSN MSN20031206013009512/06/03 01:30:31  5-MIN KMSN 060730Z 26004KT 7SM CLR M02/M04 A3033 480 85 -1400 260/04 RMK AO2
14837KMSN MSN20031206013509512/06/03 01:35:31  5-MIN KMSN 060735Z 28004KT 7SM CLR M03/M04 A3033 480 88 -1500 280/04 RMK AO2
14837KMSN MSN20031206014009512/06/03 01:40:31  5-MIN KMSN 060740Z 29005KT 7SM CLR M03/M05 A3033 490 85 -1500 290/05 RMK AO2
14837KMSN MSN20031206014509512/06/03 01:45:31  5-MIN KMSN 060745Z 31005KT 7SM CLR M03/M05 A3033 490 85 -1500 310/05 RMK AO2
14837KMSN MSN20031206015011212/06/03 01:50:31  5-MIN KMSN 060750Z 29004KT 7SM CLR M02/M04 A3033 490 85 -1400 290/04 RMK AO2 SLP281 T10221044
14837KMSN MSN20031206015509512/06/03 01:55:31  5-MIN KMSN 060755Z 26003KT 7SM CLR M03/M05 A3034 480 85 -1500 260/03 RMK AO2
14837KMSN MSN20031206020009812/06/03 02:00:31  5-MIN KMSN 060800Z 00000KT 7SM FEW050 M02/M04 A3034 480 85 -1400 000/00 RMK AO2
14837KMSN MSN20031206020509812/06/03 02:05:31  5-MIN KMSN 060805Z 00000KT 7SM FEW050 M02/M04 A3034 480 85 -1400 000/00 RMK AO2
14837KMSN MSN20031206021009812/06/03 02:10:31  5-MIN KMSN 060810Z 00000KT 7SM SCT050 M02/M04 A3034 480 85 -1400 000/00 RMK AO2
14837KMSN MSN20031206021509812/06/03 02:15:31  5-MIN KMSN 060815Z 31004KT 7SM BKN050 M02/M05 A3034 480 81 -1400 310/04 RMK AO2
14837KMSN MSN20031206022009812/06/03 02:20:31  5-MIN KMSN 060820Z 31005KT 7SM BKN050 M02/M04 A3034 480 85 -1400 310/05 RMK AO2
14837KMSN MSN20031206022509812/06/03 02:25:31  5-MIN KMSN 060825Z 32005KT 7SM BKN050 M02/M04 A3034 480 85 -1400 320/05 RMK AO2
14837KMSN MSN20031206023009812/06/03 02:30:31  5-MIN KMSN 060830Z 32005KT 7SM BKN050 M02/M04 A3034 480 85 -1400 320/05 RMK AO2
14837KMSN MSN20031206023509812/06/03 02:35:31  5-MIN KMSN 060835Z 31005KT 7SM BKN050 M02/M04 A3034 480 85 -1400 310/05 RMK AO2
14837KMSN MSN20031206024009812/06/03 02:40:31  5-MIN KMSN 060840Z 32005KT 7SM OVC050 M02/M04 A3034 480 85 -1400 320/05 RMK AO2
14837KMSN MSN20031206024509812/06/03 02:45:31  5-MIN KMSN 060845Z 32005KT 7SM OVC048 M02/M04 A3034 480 85 -1400 320/05 RMK AO2
14837KMSN MSN20031206025012112/06/03 02:50:31  5-MIN KMSN 060850Z 31006KT 7SM OVC048 M02/M04 A3034 480 81 -1400 310/06 RMK AO2 SLP283 T10171044 50002
14837KMSN MSN20031206025509812/06/03 02:55:31  5-MIN KMSN 060855Z 31007KT 7SM BKN048 M02/M04 A3034 480 81 -1400 310/07 RMK AO2
14837KMSN MSN20031206030009812/06/03 03:00:31  5-MIN KMSN 060900Z 32006KT 7SM BKN048 M02/M04 A3034 480 85 -1400 320/06 RMK AO2
14837KMSN MSN20031206030510112/06/03 03:05:31  5-MIN KMSN 060905Z 32007KT 6SM BR BKN048 M02/M04 A3034 480 85 -1400 320/07 RMK AO2
14837KMSN MSN20031206031010112/06/03 03:10:31  5-MIN KMSN 060910Z 32007KT 6SM BR BKN048 M02/M04 A3034 480 85 -1400 320/07 RMK AO2
14837KMSN MSN20031206031510112/06/03 03:15:31  5-MIN KMSN 060915Z 32006KT 6SM BR BKN048 M02/M04 A3034 480 85 -1400 320/06 RMK AO2
14837KMSN MSN20031206032010112/06/03 03:20:31  5-MIN KMSN 060920Z 31006KT 6SM BR BKN048 M02/M04 A3034 480 85 -1400 310/06 RMK AO2
14837KMSN MSN20031206032510112/06/03 03:25:31  5-MIN KMSN 060925Z 32006KT 6SM BR BKN048 M02/M04 A3033 480 85 -1400 310/06 RMK AO2
14837KMSN MSN20031206033010112/06/03 03:30:31  5-MIN KMSN 060930Z 32006KT 6SM BR BKN048 M02/M04 A3033 480 85 -1400 320/06 RMK AO2
14837KMSN MSN20031206033510112/06/03 03:35:31  5-MIN KMSN 060935Z 32006KT 6SM BR BKN055 M02/M04 A3034 480 85 -1400 320/06 RMK AO2
14837KMSN MSN20031206034010112/06/03 03:40:31  5-MIN KMSN 060940Z 32005KT 6SM BR BKN055 M02/M04 A3034 480 85 -1400 320/05 RMK AO2
14837KMSN MSN20031206034510112/06/03 03:45:31  5-MIN KMSN 060945Z 32005KT 6SM HZ BKN055 M02/M04 A3034 480 81 -1400 310/05 RMK AO2
14837KMSN MSN20031206035012512/06/03 03:50:31  5-MIN KMSN 060950Z 31006KT 6SM HZ SCT025 BKN055 M02/M04 A3034 480 81 -1400 310/06 RMK AO2 SLP282 T10171044
14837KMSN MSN20031206035510812/06/03 03:55:31  5-MIN KMSN 060955Z 32006KT 6SM HZ SCT025 BKN055 M02/M04 A3034 480 81 -1400 320/06 RMK AO2
14837KMSN MSN20031206040010812/06/03 04:00:31  5-MIN KMSN 061000Z 32005KT 6SM HZ FEW025 SCT055 M02/M04 A3034 480 81 -1400 320/05 RMK AO2
14837KMSN MSN20031206040510812/06/03 04:05:31  5-MIN KMSN 061005Z 32005KT 6SM HZ FEW025 SCT060 M02/M04 A3034 480 81 -1400 310/05 RMK AO2
14837KMSN MSN20031206041010812/06/03 04:10:31  5-MIN KMSN 061010Z 31005KT 6SM BR FEW025 SCT060 M02/M04 A3034 480 85 -1400 310/05 RMK AO2
14837KMSN MSN20031206041510812/06/03 04:15:31  5-MIN KMSN 061015Z 32005KT 6SM BR FEW025 SCT060 M02/M04 A3034 480 85 -1400 320/05 RMK AO2
14837KMSN MSN20031206042010812/06/03 04:20:31  5-MIN KMSN 061020Z 32005KT 6SM BR FEW025 SCT060 M02/M04 A3034 480 85 -1400 310/05 RMK AO2
14837KMSN MSN20031206042510812/06/03 04:25:31  5-MIN KMSN 061025Z 31004KT 6SM BR FEW025 SCT060 M02/M04 A3034 480 85 -1400 310/04 RMK AO2
14837KMSN MSN20031206043010812/06/03 04:30:31  5-MIN KMSN 061030Z 31004KT 6SM BR FEW025 SCT060 M02/M04 A3034 480 85 -1400 310/04 RMK AO2
14837KMSN MSN20031206043510812/06/03 04:35:31  5-MIN KMSN 061035Z 30003KT 5SM BR FEW025 SCT060 M03/M04 A3034 480 88 -1500 300/03 RMK AO2
14837KMSN MSN20031206044010112/06/03 04:40:31  5-MIN KMSN 061040Z 29003KT 5SM BR FEW060 M03/M04 A3034 480 88 -1500 290/03 RMK AO2
14837KMSN MSN20031206044510112/06/03 04:45:31  5-MIN KMSN 061045Z 30003KT 5SM BR FEW060 M03/M04 A3034 480 88 -1500 300/03 RMK AO2
14837KMSN MSN20031206045011812/06/03 04:50:31  5-MIN KMSN 061050Z 30003KT 5SM BR SCT027 M03/M04 A3034 480 88 -1500 300/03 RMK AO2 SLP286 T10281044
14837KMSN MSN20031206045510112/06/03 04:55:31  5-MIN KMSN 061055Z 31003KT 5SM BR BKN027 M03/M04 A3034 480 88 -1500 310/03 RMK AO2
14837KMSN MSN20031206050010112/06/03 05:00:31  5-MIN KMSN 061100Z 31004KT 5SM BR BKN027 M02/M04 A3034 480 85 -1400 300/04 RMK AO2
14837KMSN MSN20031206050510112/06/03 05:05:31  5-MIN KMSN 061105Z 31003KT 5SM BR BKN027 M02/M04 A3034 480 85 -1400 310/03 RMK AO2
14837KMSN MSN20031206051010112/06/03 05:10:31  5-MIN KMSN 061110Z 31004KT 5SM BR OVC025 M02/M04 A3034 480 85 -1400 310/04 RMK AO2
14837KMSN MSN20031206051510112/06/03 05:15:31  5-MIN KMSN 061115Z 30003KT 5SM BR OVC025 M02/M04 A3034 480 85 -1400 300/03 RMK AO2
14837KMSN MSN20031206052010112/06/03 05:20:31  5-MIN KMSN 061120Z 00000KT 5SM BR OVC025 M02/M04 A3034 480 85 -1400 000/00 RMK AO2
14837KMSN MSN20031206052510112/06/03 05:25:31  5-MIN KMSN 061125Z 00000KT 5SM BR BKN025 M03/M04 A3034 480 88 -1500 000/00 RMK AO2
14837KMSN MSN20031206053010812/06/03 05:30:31  5-MIN KMSN 061130Z 00000KT 5SM BR BKN025 BKN034 M02/M04 A3034 470 85 -1400 000/00 RMK AO2
14837KMSN MSN20031206053510812/06/03 05:35:31  5-MIN KMSN 061135Z 00000KT 5SM BR SCT025 OVC034 M03/M04 A3034 470 88 -1500 000/00 RMK AO2
14837KMSN MSN20031206054010812/06/03 05:40:31  5-MIN KMSN 061140Z 00000KT 5SM BR SCT025 OVC034 M03/M04 A3035 470 88 -1500 000/00 RMK AO2
14837KMSN MSN20031206054510812/06/03 05:45:31  5-MIN KMSN 061145Z 00000KT 5SM BR FEW025 OVC034 M03/M04 A3035 470 88 -1500 000/00 RMK AO2
14837KMSN MSN20031206055013612/06/03 05:50:31  5-MIN KMSN 061150Z 00000KT 5SM BR OVC032 M03/M04 A3035 470 88 -1500 000/00 RMK AO2 SLP289 T10281044 11006 21033 53004
14837KMSN MSN20031206055510112/06/03 05:55:31  5-MIN KMSN 061155Z 00000KT 5SM BR OVC032 M03/M04 A3035 470 88 -1500 000/00 RMK AO2
14837KMSN MSN20031206060010812/06/03 06:00:31  5-MIN KMSN 061200Z 00000KT 5SM BR SCT024 OVC032 M03/M04 A3035 470 88 -1500 000/00 RMK AO2
14837KMSN MSN20031206060510812/06/03 06:05:31  5-MIN KMSN 061205Z 00000KT 5SM BR BKN024 OVC032 M03/M04 A3035 470 88 -1500 000/00 RMK AO2
14837KMSN MSN20031206061010812/06/03 06:10:31  5-MIN KMSN 061210Z 00000KT 5SM BR BKN024 OVC032 M02/M04 A3035 470 88 -1400 000/00 RMK AO2
14837KMSN MSN20031206061510812/06/03 06:15:31  5-MIN KMSN 061215Z 00000KT 5SM BR BKN024 OVC032 M02/M04 A3035 470 88 -1400 000/00 RMK AO2
14837KMSN MSN20031206062010112/06/03 06:20:31  5-MIN KMSN 061220Z 29003KT 6SM BR OVC024 M02/M04 A3035 470 88 -1400 290/03 RMK AO2
14837KMSN MSN20031206062510112/06/03 06:25:31  5-MIN KMSN 061225Z 00000KT 6SM BR OVC024 M02/M04 A3035 470 88 -1400 000/00 RMK AO2
14837KMSN MSN20031206063010112/06/03 06:30:31  5-MIN KMSN 061230Z 00000KT 6SM BR OVC024 M02/M04 A3035 470 85 -1400 000/00 RMK AO2
14837KMSN MSN20031206063510112/06/03 06:35:31  5-MIN KMSN 061235Z 00000KT 6SM BR OVC024 M02/M04 A3035 470 85 -1400 000/00 RMK AO2
14837KMSN MSN20031206064010112/06/03 06:40:31  5-MIN KMSN 061240Z 31003KT 6SM BR OVC024 M02/M03 A3035 470 88 -1400 310/03 RMK AO2
14837KMSN MSN20031206064510112/06/03 06:45:31  5-MIN KMSN 061245Z 31003KT 6SM BR OVC024 M01/M03 A3035 470 85 -1300 310/03 RMK AO2
14837KMSN MSN20031206065011812/06/03 06:50:31  5-MIN KMSN 061250Z 31004KT 6SM BR OVC024 M01/M03 A3035 470 85 -1300 310/04 RMK AO2 SLP288 T10111033
14837KMSN MSN20031206065510112/06/03 06:55:31  5-MIN KMSN 061255Z 31004KT 6SM BR OVC024 M01/M03 A3035 470 85 -1300 310/04 RMK AO2
14837KMSN MSN20031206070010112/06/03 07:00:31  5-MIN KMSN 061300Z 31004KT 6SM BR OVC022 M01/M03 A3035 470 88 -1300 310/04 RMK AO2
14837KMSN MSN20031206070510112/06/03 07:05:31  5-MIN KMSN 061305Z 32004KT 6SM BR OVC022 M01/M03 A3035 470 88 -1300 310/04 RMK AO2
14837KMSN MSN20031206071010112/06/03 07:10:31  5-MIN KMSN 061310Z 32003KT 5SM BR OVC022 M01/M03 A3035 470 88 -1300 320/03 RMK AO2
14837KMSN MSN20031206071510112/06/03 07:15:31  5-MIN KMSN 061315Z 32004KT 5SM BR OVC022 M01/M03 A3035 470 88 -1300 320/04 RMK AO2
14837KMSN MSN20031206072010112/06/03 07:20:31  5-MIN KMSN 061320Z 32004KT 5SM BR OVC022 M01/M03 A3035 470 85 -1200 320/04 RMK AO2
14837KMSN MSN20031206072510112/06/03 07:25:31  5-MIN KMSN 061325Z 32003KT 5SM BR OVC022 M01/M03 A3035 470 88 -1300 320/03 RMK AO2
14837KMSN MSN20031206073010112/06/03 07:30:31  5-MIN KMSN 061330Z 32004KT 5SM BR OVC022 M01/M03 A3035 470 85 -1200 320/04 RMK AO2
14837KMSN MSN20031206073510112/06/03 07:35:31  5-MIN KMSN 061335Z 33003KT 5SM BR OVC022 M01/M03 A3035 470 85 -1200 320/03 RMK AO2
14837KMSN MSN20031206074010112/06/03 07:40:31  5-MIN KMSN 061340Z 31003KT 5SM BR OVC022 M01/M03 A3035 470 85 -1200 310/03 RMK AO2
14837KMSN MSN20031206074510112/06/03 07:45:31  5-MIN KMSN 061345Z 31003KT 5SM BR OVC022 M01/M03 A3035 470 85 -1200 310/03 RMK AO2
14837KMSN MSN20031206075011812/06/03 07:50:31  5-MIN KMSN 061350Z 31003KT 5SM BR OVC022 M01/M03 A3035 470 85 -1200 310/03 RMK AO2 SLP289 T10061028
14837KMSN MSN20031206075510112/06/03 07:55:31  5-MIN KMSN 061355Z 31003KT 5SM BR OVC022 M01/M03 A3035 470 85 -1200 310/03 RMK AO2
14837KMSN MSN20031206080010112/06/03 08:00:31  5-MIN KMSN 061400Z 32003KT 5SM BR OVC022 M01/M03 A3035 470 85 -1200 320/03 RMK AO2
14837KMSN MSN20031206080510112/06/03 08:05:31  5-MIN KMSN 061405Z 00000KT 5SM BR OVC022 M01/M03 A3035 470 85 -1200 000/00 RMK AO2
14837KMSN MSN20031206081010112/06/03 08:10:31  5-MIN KMSN 061410Z 00000KT 5SM BR OVC022 M01/M03 A3035 470 85 -1200 000/00 RMK AO2
14837KMSN MSN20031206081510112/06/03 08:15:31  5-MIN KMSN 061415Z 00000KT 5SM BR OVC022 M01/M03 A3035 470 85 -1200 000/00 RMK AO2
14837KMSN MSN20031206082010112/06/03 08:20:31  5-MIN KMSN 061420Z 00000KT 5SM BR OVC022 M01/M03 A3035 470 85 -1200 000/00 RMK AO2
14837KMSN MSN20031206082510112/06/03 08:25:31  5-MIN KMSN 061425Z 30003KT 5SM BR OVC022 M01/M03 A3035 470 85 -1200 300/03 RMK AO2
14837KMSN MSN20031206083010112/06/03 08:30:31  5-MIN KMSN 061430Z 32003KT 5SM BR OVC022 M01/M03 A3036 460 85 -1200 320/03 RMK AO2
14837KMSN MSN20031206083510112/06/03 08:35:31  5-MIN KMSN 061435Z 32004KT 5SM BR OVC022 M01/M03 A3035 470 85 -1200 310/04 RMK AO2
14837KMSN MSN20031206084010012/06/03 08:40:31  5-MIN KMSN 061440Z 32004KT 5SM HZ OVC022 00/M03 A3036 460 81 -1200 320/04 RMK AO2
14837KMSN MSN20031206084510012/06/03 08:45:31  5-MIN KMSN 061445Z 32003KT 6SM HZ OVC022 00/M03 A3036 460 81 -1200 320/03 RMK AO2
14837KMSN MSN20031206085012312/06/03 08:50:31  5-MIN KMSN 061450Z 31004KT 6SM HZ OVC022 00/M03 A3035 470 81 -1200 310/04 RMK AO2 SLP289 T00001028 53004
14837KMSN MSN20031206085510012/06/03 08:55:31  5-MIN KMSN 061455Z 31004KT 6SM HZ OVC022 00/M03 A3035 470 81 -1200 310/04 RMK AO2
14837KMSN MSN20031206090010012/06/03 09:00:31  5-MIN KMSN 061500Z 32005KT 6SM HZ OVC022 00/M03 A3035 470 81 -1200 320/05 RMK AO2
14837KMSN MSN20031206090510012/06/03 09:05:31  5-MIN KMSN 061505Z 31005KT 6SM HZ OVC022 00/M03 A3035 470 81 -1200 310/05 RMK AO2
14837KMSN MSN20031206091010012/06/03 09:10:31  5-MIN KMSN 061510Z 30004KT 6SM HZ OVC022 00/M03 A3035 470 81 -1200 300/04 RMK AO2
14837KMSN MSN20031206091510012/06/03 09:15:31  5-MIN KMSN 061515Z 30005KT 6SM HZ OVC022 00/M03 A3035 470 81 -1200 300/05 RMK AO2
14837KMSN MSN20031206092010012/06/03 09:20:31  5-MIN KMSN 061520Z 29004KT 6SM HZ OVC022 00/M03 A3035 470 81 -1200 290/04 RMK AO2
14837KMSN MSN20031206092510012/06/03 09:25:31  5-MIN KMSN 061525Z 30005KT 5SM HZ OVC022 00/M03 A3036 460 81 -1200 300/05 RMK AO2
14837KMSN MSN20031206093010012/06/03 09:30:31  5-MIN KMSN 061530Z 30004KT 5SM HZ OVC022 00/M03 A3035 470 81 -1200 290/04 RMK AO2
14837KMSN MSN20031206093510012/06/03 09:35:31  5-MIN KMSN 061535Z 31005KT 5SM BR OVC022 00/M02 A3036 460 85 -1200 310/05 RMK AO2
14837KMSN MSN20031206094010012/06/03 09:40:31  5-MIN KMSN 061540Z 30004KT 5SM HZ OVC022 00/M03 A3036 460 81 -1200 300/04 RMK AO2
14837KMSN MSN20031206094510012/06/03 09:45:31  5-MIN KMSN 061545Z 31004KT 5SM HZ OVC022 00/M03 A3036 460 81 -1200 300/04 RMK AO2
14837KMSN MSN20031206095011712/06/03 09:50:31  5-MIN KMSN 061550Z 31005KT 5SM HZ OVC022 00/M03 A3036 460 81 -1200 310/05 RMK AO2 SLP294 T00001028
14837KMSN MSN20031206095510012/06/03 09:55:31  5-MIN KMSN 061555Z 32004KT 5SM BR OVC022 00/M02 A3037 450 85 -1200 320/04 RMK AO2
14837KMSN MSN20031206100010012/06/03 10:00:31  5-MIN KMSN 061600Z VRB03KT 5SM BR OVC022 00/M02 A3036 460 85 -1200 VRB/03 RMK AO2
14837KMSN MSN20031206100510012/06/03 10:05:31  5-MIN KMSN 061605Z 31004KT 5SM BR OVC024 00/M02 A3036 460 85 -1200 310/04 RMK AO2
14837KMSN MSN20031206101010012/06/03 10:10:31  5-MIN KMSN 061610Z 32004KT 5SM BR OVC024 00/M02 A3036 460 85 -1200 320/04 RMK AO2
14837KMSN MSN20031206101510012/06/03 10:15:31  5-MIN KMSN 061615Z 30004KT 5SM BR OVC024 00/M02 A3035 470 85 -1200 300/04 RMK AO2
14837KMSN MSN20031206102010012/06/03 10:20:31  5-MIN KMSN 061620Z 31004KT 5SM BR OVC024 00/M02 A3035 470 85 -1200 310/04 RMK AO2
14837KMSN MSN20031206102510012/06/03 10:25:31  5-MIN KMSN 061625Z 29005KT 5SM BR OVC024 00/M02 A3035 470 85 -1200 290/05 RMK AO2
14837KMSN MSN20031206103010012/06/03 10:30:31  5-MIN KMSN 061630Z 30004KT 5SM BR OVC024 00/M02 A3035 470 85 -1200 300/04 RMK AO2
14837KMSN MSN20031206103510012/06/03 10:35:31  5-MIN KMSN 061635Z 31005KT 6SM HZ OVC024 01/M02 A3034 480 82 -1100 310/05 RMK AO2
14837KMSN MSN20031206104010012/06/03 10:40:31  5-MIN KMSN 061640Z 29006KT 6SM HZ OVC026 01/M02 A3034 470 82 -1100 290/06 RMK AO2
14837KMSN MSN20031206104510012/06/03 10:45:31  5-MIN KMSN 061645Z 31005KT 6SM HZ OVC026 01/M02 A3034 470 82 -1100 310/05 RMK AO2
14837KMSN MSN20031206105011712/06/03 10:50:31  5-MIN KMSN 061650Z 29005KT 6SM HZ OVC026 01/M02 A3034 480 82 -1100 290/05 RMK AO2 SLP285 T00061022
14837KMSN MSN20031206105510012/06/03 10:55:31  5-MIN KMSN 061655Z VRB05KT 6SM HZ OVC026 01/M02 A3034 480 82 -1100 VRB/05 RMK AO2
14837KMSN MSN20031206110010012/06/03 11:00:31  5-MIN KMSN 061700Z 30005KT 6SM HZ OVC026 01/M02 A3034 480 82 -1100 300/05 RMK AO2
14837KMSN MSN20031206110510012/06/03 11:05:31  5-MIN KMSN 061705Z 30006KT 6SM HZ OVC026 01/M02 A3033 480 82 -1100 300/06 RMK AO2
14837KMSN MSN20031206111010012/06/03 11:10:31  5-MIN KMSN 061710Z 31005KT 6SM HZ OVC026 01/M02 A3033 490 82 -1100 310/05 RMK AO2
14837KMSN MSN20031206111510012/06/03 11:15:31  5-MIN KMSN 061715Z 32005KT 6SM HZ OVC026 01/M02 A3033 490 82 -1100 320/05 RMK AO2
14837KMSN MSN20031206112010012/06/03 11:20:31  5-MIN KMSN 061720Z 32004KT 6SM HZ OVC026 01/M02 A3032 490 82 -1100 310/04 RMK AO2
14837KMSN MSN20031206112509712/06/03 11:25:31  5-MIN KMSN 061725Z 32005KT 7SM OVC026 01/M02 A3032 500 82 -1100 310/05 RMK AO2
14837KMSN MSN20031206113009712/06/03 11:30:31  5-MIN KMSN 061730Z 32005KT 7SM OVC026 01/M02 A3032 500 82 -1100 320/05 RMK AO2
14837KMSN MSN20031206113509712/06/03 11:35:31  5-MIN KMSN 061735Z 33004KT 7SM OVC026 01/M02 A3032 500 82 -1000 330/04 RMK AO2
14837KMSN MSN20031206114009712/06/03 11:40:31  5-MIN KMSN 061740Z 33005KT 7SM OVC026 01/M02 A3031 500 78 -1000 330/05 RMK AO2
14837KMSN MSN20031206114509712/06/03 11:45:31  5-MIN KMSN 061745Z 34006KT 7SM OVC026 01/M02 A3031 500 78 -1000 340/06 RMK AO2
14837KMSN MSN20031206115013212/06/03 11:50:31  5-MIN KMSN 061750Z 33006KT 8SM OVC026 01/M02 A3031 510 78 -1000 330/06 RMK AO2 SLP274 T00111022 10011 21028 53001
14837KMSN MSN20031206115509712/06/03 11:55:31  5-MIN KMSN 061755Z 31006KT 8SM OVC026 01/M02 A3031 510 78 -1000 310/06 RMK AO2
14837KMSN MSN20031206120009712/06/03 12:00:31  5-MIN KMSN 061800Z 30006KT 8SM OVC026 01/M02 A3031 510 78 -1000 290/06 RMK AO2
14837KMSN MSN20031206120509712/06/03 12:05:31  5-MIN KMSN 061805Z 32006KT 9SM OVC026 01/M03 A3031 500 75 -1000 320/06 RMK AO2
14837KMSN MSN20031206121009712/06/03 12:10:31  5-MIN KMSN 061810Z VRB05KT 9SM OVC026 01/M03 A3031 500 75 -1000 VRB/05 RMK AO2
14837KMSN MSN20031206121509712/06/03 12:15:31  5-MIN KMSN 061815Z 29005KT 9SM OVC026 01/M02 A3031 500 78 -1000 290/05 RMK AO2
14837KMSN MSN20031206122009612/06/03 12:20:31  5-MIN KMSN 061820Z 29005KT 9SM OVC026 02/M02 A3031 510 75 -900 290/05 RMK AO2
14837KMSN MSN20031206122509712/06/03 12:25:31  5-MIN KMSN 061825Z 30007KT 9SM OVC026 01/M03 A3031 510 75 -1000 300/07 RMK AO2
14837KMSN MSN20031206123009712/06/03 12:30:31  5-MIN KMSN 061830Z 28006KT 9SM OVC026 01/M03 A3030 510 75 -1000 280/06 RMK AO2
14837KMSN MSN20031206123509712/06/03 12:35:31  5-MIN KMSN 061835Z 30005KT 9SM OVC026 01/M03 A3030 510 75 -1000 300/05 RMK AO2
14837KMSN MSN20031206124009712/06/03 12:40:31  5-MIN KMSN 061840Z 30004KT 8SM OVC026 01/M03 A3030 520 75 -1000 300/04 RMK AO2
14837KMSN MSN20031206124509712/06/03 12:45:31  5-MIN KMSN 061845Z 30006KT 8SM OVC026 01/M03 A3030 520 75 -1000 300/06 RMK AO2
14837KMSN MSN20031206125011412/06/03 12:50:31  5-MIN KMSN 061850Z 30005KT 8SM OVC026 01/M03 A3030 520 75 -1000 300/05 RMK AO2 SLP270 T00111028
14837KMSN MSN20031206125509712/06/03 12:55:31  5-MIN KMSN 061855Z 31005KT 9SM OVC026 01/M03 A3029 520 75 -1000 310/05 RMK AO2
14837KMSN MSN20031206130009712/06/03 13:00:31  5-MIN KMSN 061900Z 31005KT 9SM OVC026 01/M03 A3029 520 75 -1000 310/05 RMK AO2
14837KMSN MSN20031206130509712/06/03 13:05:31  5-MIN KMSN 061905Z 29004KT 9SM OVC026 01/M03 A3029 520 75 -1000 290/04 RMK AO2
14837KMSN MSN20031206131009612/06/03 13:10:31  5-MIN KMSN 061910Z 31005KT 9SM OVC026 01/M03 A3029 530 72 -900 300/05 RMK AO2
14837KMSN MSN20031206131509612/06/03 13:15:31  5-MIN KMSN 061915Z 28006KT 9SM OVC026 01/M03 A3029 530 72 -900 280/06 RMK AO2
14837KMSN MSN20031206132009712/06/03 13:20:31  5-MIN KMSN 061920Z 31006KT 10SM OVC026 02/M03 A3028 530 69 -900 310/06 RMK AO2
14837KMSN MSN20031206132509712/06/03 13:25:31  5-MIN KMSN 061925Z 31005KT 10SM OVC026 01/M04 A3028 530 69 -900 310/05 RMK AO2
14837KMSN MSN20031206133009712/06/03 13:30:31  5-MIN KMSN 061930Z 30005KT 10SM OVC026 02/M04 A3028 540 66 -900 300/05 RMK AO2
14837KMSN MSN20031206133509712/06/03 13:35:31  5-MIN KMSN 061935Z 32005KT 10SM OVC026 01/M03 A3028 540 72 -900 310/05 RMK AO2
14837KMSN MSN20031206134009712/06/03 13:40:31  5-MIN KMSN 061940Z 31005KT 10SM OVC026 01/M03 A3028 530 72 -900 310/05 RMK AO2
14837KMSN MSN20031206134509712/06/03 13:45:31  5-MIN KMSN 061945Z 30004KT 10SM OVC026 01/M04 A3028 530 69 -900 300/04 RMK AO2
14837KMSN MSN20031206135011412/06/03 13:50:31  5-MIN KMSN 061950Z 31006KT 10SM OVC024 01/M04 A3028 530 69 -900 310/06 RMK AO2 SLP265 T00111039
14837KMSN MSN20031206135509712/06/03 13:55:31  5-MIN KMSN 061955Z 30006KT 10SM OVC024 01/M04 A3028 530 69 -900 300/06 RMK AO2
14837KMSN MSN20031206140009712/06/03 14:00:31  5-MIN KMSN 062000Z 32006KT 10SM OVC024 01/M04 A3028 530 69 -900 320/06 RMK AO2
14837KMSN MSN20031206140509712/06/03 14:05:31  5-MIN KMSN 062005Z 31005KT 10SM OVC024 01/M04 A3028 530 69 -900 310/05 RMK AO2
14837KMSN MSN20031206141009712/06/03 14:10:31  5-MIN KMSN 062010Z 30006KT 10SM OVC024 01/M04 A3028 530 69 -900 300/06 RMK AO2
14837KMSN MSN20031206141509712/06/03 14:15:31  5-MIN KMSN 062015Z 30007KT 10SM OVC024 01/M04 A3028 530 66 -900 300/07 RMK AO2
14837KMSN MSN20031206142009712/06/03 14:20:31  5-MIN KMSN 062020Z 29005KT 10SM OVC024 01/M04 A3028 530 66 -900 290/05 RMK AO2
14837KMSN MSN20031206142509712/06/03 14:25:31  5-MIN KMSN 062025Z VRB06KT 10SM OVC024 01/M04 A3028 530 66 -900 VRB/06 RMK AO2
14837KMSN MSN20031206143009712/06/03 14:30:31  5-MIN KMSN 062030Z 29006KT 10SM OVC024 01/M04 A3028 530 66 -900 290/06 RMK AO2
14837KMSN MSN20031206143509712/06/03 14:35:31  5-MIN KMSN 062035Z 30004KT 10SM OVC024 01/M04 A3028 530 66 -900 300/04 RMK AO2
14837KMSN MSN20031206144009712/06/03 14:40:31  5-MIN KMSN 062040Z 29004KT 10SM OVC024 01/M04 A3029 530 66 -900 290/04 RMK AO2
14837KMSN MSN20031206144509712/06/03 14:45:31  5-MIN KMSN 062045Z 31005KT 10SM OVC024 01/M04 A3029 530 66 -900 310/05 RMK AO2
14837KMSN MSN20031206145012012/06/03 14:50:31  5-MIN KMSN 062050Z 29004KT 10SM OVC024 01/M04 A3029 530 66 -900 290/04 RMK AO2 SLP266 T00111044 58014
14837KMSN MSN20031206145509812/06/03 14:55:31  5-MIN KMSN 062055Z 31006KT 10SM OVC024 01/M04 A3029 530 69 -1000 300/06 RMK AO2
14837KMSN MSN20031206150009812/06/03 15:00:31  5-MIN KMSN 062100Z 30004KT 10SM OVC024 01/M04 A3028 530 69 -1000 300/04 RMK AO2
14837KMSN MSN20031206150509812/06/03 15:05:31  5-MIN KMSN 062105Z 32004KT 10SM OVC024 01/M04 A3028 530 69 -1000 320/04 RMK AO2
14837KMSN MSN20031206151009812/06/03 15:10:31  5-MIN KMSN 062110Z VRB04KT 10SM OVC024 01/M04 A3028 530 69 -1000 VRB/04 RMK AO2
14837KMSN MSN20031206151509812/06/03 15:15:31  5-MIN KMSN 062115Z 31005KT 10SM OVC022 01/M04 A3028 530 69 -1000 310/05 RMK AO2
14837KMSN MSN20031206152009812/06/03 15:20:31  5-MIN KMSN 062120Z 32003KT 10SM OVC022 01/M04 A3028 530 69 -1000 320/03 RMK AO2
14837KMSN MSN20031206152509812/06/03 15:25:31  5-MIN KMSN 062125Z 28004KT 10SM OVC022 01/M04 A3028 530 69 -1000 280/04 RMK AO2
14837KMSN MSN20031206153009812/06/03 15:30:31  5-MIN KMSN 062130Z 31006KT 10SM OVC020 01/M04 A3028 530 72 -1000 310/06 RMK AO2
14837KMSN MSN20031206153509812/06/03 15:35:31  5-MIN KMSN 062135Z VRB03KT 10SM OVC020 01/M04 A3028 530 69 -1000 VRB/03 RMK AO2
14837KMSN MSN20031206154009812/06/03 15:40:31  5-MIN KMSN 062140Z 31005KT 10SM OVC020 01/M04 A3028 530 72 -1000 310/05 RMK AO2
14837KMSN MSN20031206154509812/06/03 15:45:31  5-MIN KMSN 062145Z 30004KT 10SM OVC020 01/M04 A3028 530 72 -1000 300/04 RMK AO2
14837KMSN MSN20031206155011512/06/03 15:50:31  5-MIN KMSN 062150Z 32003KT 10SM OVC020 01/M04 A3028 540 72 -1000 320/03 RMK AO2 SLP263 T00061039
14837KMSN MSN20031206155509812/06/03 15:55:31  5-MIN KMSN 062155Z 30003KT 10SM OVC020 01/M04 A3027 540 72 -1000 300/03 RMK AO2
14837KMSN MSN20031206160009812/06/03 16:00:31  5-MIN KMSN 062200Z 30004KT 10SM OVC018 00/M04 A3027 540 75 -1100 300/04 RMK AO2
14837KMSN MSN20031206160509812/06/03 16:05:31  5-MIN KMSN 062205Z 32004KT 10SM OVC018 00/M04 A3027 540 75 -1100 320/04 RMK AO2
14837KMSN MSN20031206161009812/06/03 16:10:31  5-MIN KMSN 062210Z 30004KT 10SM OVC018 00/M04 A3028 540 75 -1100 300/04 RMK AO2
14837KMSN MSN20031206161509812/06/03 16:15:31  5-MIN KMSN 062215Z 31003KT 10SM OVC018 00/M04 A3028 540 75 -1100 310/03 RMK AO2
14837KMSN MSN20031206162009812/06/03 16:20:31  5-MIN KMSN 062220Z 31003KT 10SM OVC018 00/M04 A3027 540 75 -1100 310/03 RMK AO2
14837KMSN MSN20031206162509812/06/03 16:25:31  5-MIN KMSN 062225Z 31003KT 10SM OVC018 00/M04 A3028 540 75 -1100 310/03 RMK AO2
14837KMSN MSN20031206163009812/06/03 16:30:31  5-MIN KMSN 062230Z 31003KT 10SM OVC018 00/M04 A3028 540 75 -1100 310/03 RMK AO2
14837KMSN MSN20031206163509812/06/03 16:35:31  5-MIN KMSN 062235Z 31004KT 10SM OVC018 00/M04 A3028 540 75 -1100 310/04 RMK AO2
14837KMSN MSN20031206164009812/06/03 16:40:31  5-MIN KMSN 062240Z 00000KT 10SM OVC018 00/M04 A3028 530 75 -1100 000/00 RMK AO2
14837KMSN MSN20031206164509812/06/03 16:45:31  5-MIN KMSN 062245Z 00000KT 10SM OVC018 00/M04 A3028 540 75 -1100 000/00 RMK AO2
14837KMSN MSN20031206165011512/06/03 16:50:31  5-MIN KMSN 062250Z 00000KT 10SM OVC018 00/M04 A3028 540 75 -1100 000/00 RMK AO2 SLP264 T00001039
14837KMSN MSN20031206165509812/06/03 16:55:31  5-MIN KMSN 062255Z 00000KT 10SM OVC018 00/M04 A3028 530 75 -1100 000/00 RMK AO2
14837KMSN MSN20031206170009812/06/03 17:00:31  5-MIN KMSN 062300Z 31003KT 10SM OVC018 00/M04 A3028 530 75 -1100 310/03 RMK AO2
14837KMSN MSN20031206170509812/06/03 17:05:31  5-MIN KMSN 062305Z 00000KT 10SM OVC018 00/M04 A3028 530 75 -1100 000/00 RMK AO2
14837KMSN MSN20031206171009812/06/03 17:10:31  5-MIN KMSN 062310Z 00000KT 10SM OVC018 00/M04 A3028 530 75 -1100 000/00 RMK AO2
14837KMSN MSN20031206171509812/06/03 17:15:31  5-MIN KMSN 062315Z 26004KT 10SM OVC018 00/M04 A3028 540 75 -1100 260/04 RMK AO2
14837KMSN MSN20031206172009812/06/03 17:20:31  5-MIN KMSN 062320Z 00000KT 10SM OVC018 00/M04 A3028 540 72 -1100 000/00 RMK AO2
14837KMSN MSN20031206172509812/06/03 17:25:31  5-MIN KMSN 062325Z 25003KT 10SM OVC018 00/M04 A3028 530 75 -1100 250/03 RMK AO2
14837KMSN MSN20031206173009812/06/03 17:30:31  5-MIN KMSN 062330Z 21005KT 10SM OVC018 00/M04 A3027 540 72 -1100 210/05 RMK AO2
14837KMSN MSN20031206173509812/06/03 17:35:31  5-MIN KMSN 062335Z 21003KT 10SM OVC018 00/M04 A3027 540 72 -1100 210/03 RMK AO2
14837KMSN MSN20031206174009812/06/03 17:40:31  5-MIN KMSN 062340Z 23003KT 10SM OVC018 00/M04 A3027 540 72 -1100 230/03 RMK AO2
14837KMSN MSN20031206174509812/06/03 17:45:31  5-MIN KMSN 062345Z 00000KT 10SM OVC018 00/M04 A3027 540 72 -1100 000/00 RMK AO2
14837KMSN MSN20031206175013312/06/03 17:50:31  5-MIN KMSN 062350Z 00000KT 10SM OVC018 00/M04 A3026 550 72 -1100 000/00 RMK AO2 SLP259 T00001044 10017 20000 55007
14837KMSN MSN20031206175509812/06/03 17:55:31  5-MIN KMSN 062355Z 27003KT 10SM OVC018 00/M04 A3026 550 72 -1100 270/03 RMK AO2
14837KMSN MSN20031206180009812/06/03 18:00:31  5-MIN KMSN 070000Z 00000KT 10SM OVC018 00/M04 A3026 550 72 -1100 000/00 RMK AO2
14837KMSN MSN20031206180509712/06/03 18:05:31  5-MIN KMSN 070005Z 32003KT 9SM OVC018 00/M04 A3026 550 72 -1100 320/03 RMK AO2
14837KMSN MSN20031206181009712/06/03 18:10:31  5-MIN KMSN 070010Z 00000KT 9SM OVC018 00/M04 A3026 550 72 -1100 000/00 RMK AO2
14837KMSN MSN20031206181509812/06/03 18:15:31  5-MIN KMSN 070015Z 30004KT 9SM OVC018 M01/M04 A3026 550 75 -1100 300/04 RMK AO2
14837KMSN MSN20031206182009812/06/03 18:20:31  5-MIN KMSN 070020Z 29003KT 9SM OVC018 M01/M04 A3026 550 75 -1100 290/03 RMK AO2
14837KMSN MSN20031206182509712/06/03 18:25:31  5-MIN KMSN 070025Z 00000KT 9SM OVC018 00/M04 A3026 550 72 -1100 000/00 RMK AO2
14837KMSN MSN20031206183009812/06/03 18:30:31  5-MIN KMSN 070030Z 31004KT 9SM OVC018 M01/M04 A3026 550 75 -1100 310/04 RMK AO2
14837KMSN MSN20031206183509812/06/03 18:35:31  5-MIN KMSN 070035Z 00000KT 9SM OVC018 M01/M04 A3026 550 75 -1100 000/00 RMK AO2
14837KMSN MSN20031206184009812/06/03 18:40:31  5-MIN KMSN 070040Z 00000KT 9SM OVC018 M01/M04 A3026 550 75 -1100 000/00 RMK AO2
14837KMSN MSN20031206184509712/06/03 18:45:31  5-MIN KMSN 070045Z 00000KT 9SM OVC018 00/M04 A3026 550 72 -1100 000/00 RMK AO2
14837KMSN MSN20031206185011412/06/03 18:50:31  5-MIN KMSN 070050Z 00000KT 9SM OVC018 00/M04 A3026 550 72 -1100 000/00 RMK AO2 SLP258 T00001044
14837KMSN MSN20031206185509712/06/03 18:55:31  5-MIN KMSN 070055Z 00000KT 8SM OVC018 00/M04 A3026 550 72 -1100 000/00 RMK AO2
14837KMSN MSN20031206190009812/06/03 19:00:31  5-MIN KMSN 070100Z 28003KT 8SM OVC018 M01/M04 A3026 550 75 -1100 280/03 RMK AO2
14837KMSN MSN20031206190509812/06/03 19:05:31  5-MIN KMSN 070105Z 28003KT 8SM OVC016 M01/M04 A3026 550 78 -1100 280/03 RMK AO2
14837KMSN MSN20031206191009812/06/03 19:10:31  5-MIN KMSN 070110Z 00000KT 8SM OVC016 M01/M04 A3026 550 78 -1100 000/00 RMK AO2
14837KMSN MSN20031206191509812/06/03 19:15:31  5-MIN KMSN 070115Z 27003KT 8SM OVC016 M01/M04 A3026 550 78 -1100 270/03 RMK AO2
14837KMSN MSN20031206192009812/06/03 19:20:31  5-MIN KMSN 070120Z 30003KT 8SM OVC016 M01/M04 A3026 550 75 -1100 300/03 RMK AO2
14837KMSN MSN20031206192509812/06/03 19:25:31  5-MIN KMSN 070125Z 00000KT 8SM OVC016 M01/M04 A3026 550 75 -1100 000/00 RMK AO2
14837KMSN MSN20031206193009812/06/03 19:30:31  5-MIN KMSN 070130Z 00000KT 9SM OVC016 M01/M04 A3026 550 78 -1100 000/00 RMK AO2
14837KMSN MSN20031206193509712/06/03 19:35:31  5-MIN KMSN 070135Z 00000KT 9SM OVC016 00/M04 A3026 550 72 -1100 000/00 RMK AO2
14837KMSN MSN20031206194009712/06/03 19:40:31  5-MIN KMSN 070140Z 00000KT 9SM OVC016 00/M04 A3026 550 72 -1100 000/00 RMK AO2
14837KMSN MSN20031206194509812/06/03 19:45:31  5-MIN KMSN 070145Z 00000KT 9SM OVC016 M01/M04 A3026 550 78 -1100 000/00 RMK AO2
14837KMSN MSN20031206195011512/06/03 19:50:31  5-MIN KMSN 070150Z 00000KT 9SM OVC016 M01/M04 A3025 560 78 -1100 000/00 RMK AO2 SLP256 T10061039
14837KMSN MSN20031206195509812/06/03 19:55:31  5-MIN KMSN 070155Z 00000KT 9SM OVC016 M01/M04 A3025 560 78 -1100 000/00 RMK AO2
14837KMSN MSN20031206200009812/06/03 20:00:31  5-MIN KMSN 070200Z 00000KT 8SM OVC016 M01/M04 A3025 560 78 -1100 000/00 RMK AO2
14837KMSN MSN20031206200509812/06/03 20:05:31  5-MIN KMSN 070205Z 00000KT 8SM OVC016 M01/M04 A3025 560 78 -1100 000/00 RMK AO2
14837KMSN MSN20031206201009812/06/03 20:10:31  5-MIN KMSN 070210Z 00000KT 9SM OVC016 M01/M04 A3024 570 78 -1100 000/00 RMK AO2
14837KMSN MSN20031206201509812/06/03 20:15:31  5-MIN KMSN 070215Z 00000KT 9SM OVC016 M01/M04 A3024 570 78 -1100 000/00 RMK AO2
14837KMSN MSN20031206202009812/06/03 20:20:31  5-MIN KMSN 070220Z 00000KT 9SM OVC016 M01/M04 A3024 570 78 -1100 000/00 RMK AO2
14837KMSN MSN20031206202509812/06/03 20:25:31  5-MIN KMSN 070225Z 00000KT 9SM OVC016 M01/M04 A3024 570 78 -1100 000/00 RMK AO2
14837KMSN MSN20031206203009812/06/03 20:30:31  5-MIN KMSN 070230Z 13003KT 8SM OVC016 M01/M04 A3023 580 78 -1100 120/03 RMK AO2
14837KMSN MSN20031206203509912/06/03 20:35:31  5-MIN KMSN 070235Z 13004KT 10SM OVC014 M01/M04 A3023 580 78 -1100 130/04 RMK AO2
14837KMSN MSN20031206204009912/06/03 20:40:31  5-MIN KMSN 070240Z 16005KT 10SM OVC014 M01/M03 A3023 580 81 -1100 160/05 RMK AO2
14837KMSN MSN20031206204509812/06/03 20:45:31  5-MIN KMSN 070245Z 16003KT 10SM OVC014 00/M03 A3022 590 78 -1000 160/03 RMK AO2
14837KMSN MSN20031206205012112/06/03 20:50:31  5-MIN KMSN 070250Z 17005KT 10SM OVC014 00/M03 A3022 590 78 -1000 160/05 RMK AO2 SLP243 T00001033 58008
14837KMSN MSN20031206205509712/06/03 20:55:31  5-MIN KMSN 070255Z 17005KT 8SM OVC014 00/M03 A3022 590 78 -1000 160/05 RMK AO2
14837KMSN MSN20031206210009712/06/03 21:00:31  5-MIN KMSN 070300Z 15005KT 8SM OVC014 00/M03 A3022 590 78 -1000 150/05 RMK AO2
14837KMSN MSN20031206210509812/06/03 21:05:31  5-MIN KMSN 070305Z 15007KT 8SM OVC014 M01/M03 A3021 600 81 -1100 150/07 RMK AO2
14837KMSN MSN20031206211009812/06/03 21:10:31  5-MIN KMSN 070310Z 17007KT 8SM OVC014 M01/M04 A3021 600 78 -1100 170/07 RMK AO2
14837KMSN MSN20031206211509812/06/03 21:15:31  5-MIN KMSN 070315Z 17005KT 8SM OVC014 M01/M04 A3021 600 78 -1100 170/05 RMK AO2
14837KMSN MSN20031206212009812/06/03 21:20:31  5-MIN KMSN 070320Z 16006KT 8SM OVC014 M01/M04 A3021 600 78 -1100 160/06 RMK AO2
14837KMSN MSN20031206212509812/06/03 21:25:31  5-MIN KMSN 070325Z 16004KT 8SM OVC014 M01/M04 A3021 600 78 -1100 160/04 RMK AO2
14837KMSN MSN20031206213009812/06/03 21:30:31  5-MIN KMSN 070330Z 18004KT 9SM OVC014 M01/M04 A3022 590 78 -1100 180/04 RMK AO2
14837KMSN MSN20031206213509712/06/03 21:35:31  5-MIN KMSN 070335Z 19005KT 9SM OVC014 00/M04 A3022 590 75 -1000 190/05 RMK AO2
14837KMSN MSN20031206214009712/06/03 21:40:31  5-MIN KMSN 070340Z 19005KT 9SM OVC014 00/M04 A3022 590 75 -1000 190/05 RMK AO2
14837KMSN MSN20031206214509712/06/03 21:45:31  5-MIN KMSN 070345Z 21005KT 9SM OVC014 00/M04 A3022 590 75 -1000 210/05 RMK AO2
14837KMSN MSN20031206215011512/06/03 21:50:31  5-MIN KMSN 070350Z 15005KT 10SM OVC014 00/M04 A3022 590 75 -1000 150/05 RMK AO2 SLP242 T00001039
14837KMSN MSN20031206215509812/06/03 21:55:31  5-MIN KMSN 070355Z 16006KT 9SM OVC014 M01/M04 A3022 590 78 -1100 160/06 RMK AO2
14837KMSN MSN20031206220009812/06/03 22:00:31  5-MIN KMSN 070400Z 15006KT 9SM OVC014 M01/M04 A3022 590 78 -1100 150/06 RMK AO2
14837KMSN MSN20031206220509812/06/03 22:05:31  5-MIN KMSN 070405Z 17006KT 9SM OVC014 M01/M03 A3022 590 81 -1100 170/06 RMK AO2
14837KMSN MSN20031206221009712/06/03 22:10:31  5-MIN KMSN 070410Z 18005KT 9SM OVC014 00/M03 A3022 590 78 -1000 180/05 RMK AO2
14837KMSN MSN20031206221509712/06/03 22:15:31  5-MIN KMSN 070415Z 18005KT 9SM OVC014 00/M04 A3022 590 75 -1000 180/05 RMK AO2
14837KMSN MSN20031206222009712/06/03 22:20:31  5-MIN KMSN 070420Z 17005KT 9SM OVC014 00/M03 A3022 590 78 -1000 170/05 RMK AO2
14837KMSN MSN20031206222509712/06/03 22:25:31  5-MIN KMSN 070425Z 16006KT 9SM OVC014 00/M03 A3022 590 78 -1000 160/06 RMK AO2
14837KMSN MSN20031206223009712/06/03 22:30:31  5-MIN KMSN 070430Z 16006KT 8SM OVC014 00/M03 A3022 590 78 -1000 160/06 RMK AO2
14837KMSN MSN20031206223509712/06/03 22:35:31  5-MIN KMSN 070435Z 17007KT 8SM OVC014 00/M03 A3022 590 78 -1000 170/07 RMK AO2
14837KMSN MSN20031206224009712/06/03 22:40:31  5-MIN KMSN 070440Z 18005KT 8SM OVC014 00/M03 A3022 580 78 -1000 170/05 RMK AO2
14837KMSN MSN20031206224509712/06/03 22:45:31  5-MIN KMSN 070445Z 18005KT 8SM OVC014 00/M03 A3022 580 78 -1000 180/05 RMK AO2
14837KMSN MSN20031206225011512/06/03 22:50:31  5-MIN KMSN 070450Z 16005KT 7SM OVC014 M01/M03 A3022 580 81 -1100 160/05 RMK AO2 SLP245 T10061033
14837KMSN MSN20031206225509712/06/03 22:55:31  5-MIN KMSN 070455Z 17006KT 7SM OVC014 00/M03 A3022 590 78 -1000 170/06 RMK AO2
14837KMSN MSN20031206230009812/06/03 23:00:31  5-MIN KMSN 070500Z 17006KT 7SM OVC014 M01/M03 A3022 580 81 -1100 170/06 RMK AO2
14837KMSN MSN20031206230509712/06/03 23:05:31  5-MIN KMSN 070505Z 17004KT 7SM OVC014 00/M03 A3022 590 78 -1000 170/04 RMK AO2
14837KMSN MSN20031206231009712/06/03 23:10:31  5-MIN KMSN 070510Z 17008KT 7SM OVC014 00/M03 A3022 590 78 -1000 170/08 RMK AO2
14837KMSN MSN20031206231509812/06/03 23:15:31  5-MIN KMSN 070515Z 17006KT 7SM OVC014 M01/M03 A3022 590 81 -1100 170/06 RMK AO2
14837KMSN MSN20031206232009812/06/03 23:20:31  5-MIN KMSN 070520Z 17007KT 7SM OVC014 M01/M03 A3023 580 81 -1100 170/07 RMK AO2
14837KMSN MSN20031206232509812/06/03 23:25:31  5-MIN KMSN 070525Z 17007KT 7SM OVC014 M01/M03 A3023 580 81 -1100 170/07 RMK AO2
14837KMSN MSN20031206233009812/06/03 23:30:31  5-MIN KMSN 070530Z 16007KT 7SM OVC014 M01/M03 A3023 580 81 -1100 160/07 RMK AO2
14837KMSN MSN20031206233509812/06/03 23:35:31  5-MIN KMSN 070535Z 17006KT 7SM OVC014 M01/M03 A3023 580 81 -1100 170/06 RMK AO2
14837KMSN MSN20031206234009812/06/03 23:40:31  5-MIN KMSN 070540Z 17005KT 7SM OVC014 M01/M03 A3022 580 81 -1100 170/05 RMK AO2
14837KMSN MSN20031206234509812/06/03 23:45:31  5-MIN KMSN 070545Z 17007KT 7SM OVC012 M01/M03 A3022 590 81 -1100 170/07 RMK AO2
14837KMSN MSN20031206235014312/06/03 23:50:31  5-MIN KMSN 070550Z 19007KT 7SM OVC012 M01/M03 A3022 590 81 -1100 190/07 RMK AO2 SLP243 T10061033 10000 21006 400171033 58014
14837KMSN MSN20031206235509812/06/03 23:55:31  5-MIN KMSN 070555Z 20004KT 7SM OVC012 M01/M03 A3022 590 81 -1100 200/04 RMK AO2
14837KMSN MSN20031207000009812/07/03 00:00:31  5-MIN KMSN 070600Z 19006KT 7SM OVC012 M01/M03 A3021 590 81 -1100 180/06 RMK AO2
14837KMSN MSN20031207000509812/07/03 00:05:31  5-MIN KMSN 070605Z VRB04KT 7SM OVC012 M01/M03 A3021 600 81 -1100 VRB/04 RMK AO2
14837KMSN MSN20031207001009812/07/03 00:10:31  5-MIN KMSN 070610Z 18006KT 7SM OVC012 M01/M03 A3021 600 81 -1100 180/06 RMK AO2
14837KMSN MSN20031207001509812/07/03 00:15:31  5-MIN KMSN 070615Z 19007KT 7SM OVC012 M01/M03 A3021 600 81 -1100 190/07 RMK AO2
14837KMSN MSN20031207002009812/07/03 00:20:31  5-MIN KMSN 070620Z 19005KT 7SM OVC012 M01/M03 A3021 600 81 -1100 190/05 RMK AO2
14837KMSN MSN20031207002509812/07/03 00:25:31  5-MIN KMSN 070625Z 20005KT 7SM OVC012 M01/M03 A3021 590 81 -1100 200/05 RMK AO2
14837KMSN MSN20031207003009812/07/03 00:30:31  5-MIN KMSN 070630Z 19005KT 7SM OVC012 M01/M03 A3021 590 81 -1100 190/05 RMK AO2
14837KMSN MSN20031207003509812/07/03 00:35:31  5-MIN KMSN 070635Z 20003KT 7SM OVC012 M01/M03 A3021 590 81 -1100 190/03 RMK AO2
14837KMSN MSN20031207004009812/07/03 00:40:31  5-MIN KMSN 070640Z 16006KT 7SM OVC012 M01/M03 A3021 600 81 -1100 160/06 RMK AO2
14837KMSN MSN20031207004509812/07/03 00:45:31  5-MIN KMSN 070645Z 16006KT 8SM OVC012 M01/M03 A3021 600 81 -1100 160/06 RMK AO2
14837KMSN MSN20031207005011512/07/03 00:50:31  5-MIN KMSN 070650Z 17006KT 8SM OVC012 M01/M03 A3021 600 81 -1100 170/06 RMK AO2 SLP239 T10061033
14837KMSN MSN20031207005509812/07/03 00:55:31  5-MIN KMSN 070655Z 17006KT 7SM OVC012 M01/M03 A3021 600 81 -1100 160/06 RMK AO2
14837KMSN MSN20031207010009812/07/03 01:00:31  5-MIN KMSN 070700Z 17006KT 7SM OVC012 M01/M03 A3021 600 81 -1100 170/06 RMK AO2
14837KMSN MSN20031207010509812/07/03 01:05:31  5-MIN KMSN 070705Z 17006KT 7SM OVC012 M01/M03 A3021 600 81 -1100 170/06 RMK AO2
14837KMSN MSN20031207011009812/07/03 01:10:31  5-MIN KMSN 070710Z 16007KT 7SM OVC012 M01/M03 A3020 600 81 -1100 160/07 RMK AO2
14837KMSN MSN20031207011509812/07/03 01:15:31  5-MIN KMSN 070715Z 17005KT 7SM OVC012 M01/M03 A3020 600 81 -1100 170/05 RMK AO2
14837KMSN MSN20031207012009812/07/03 01:20:31  5-MIN KMSN 070720Z 16008KT 7SM OVC012 M01/M03 A3020 600 81 -1100 160/08 RMK AO2
14837KMSN MSN20031207012510112/07/03 01:25:31  5-MIN KMSN 070725Z 16008KT 6SM HZ OVC012 M01/M03 A3020 610 81 -1100 160/08 RMK AO2
14837KMSN MSN20031207013010112/07/03 01:30:31  5-MIN KMSN 070730Z 16010KT 6SM HZ OVC012 M01/M03 A3020 600 81 -1100 160/10 RMK AO2
14837KMSN MSN20031207013510112/07/03 01:35:31  5-MIN KMSN 070735Z 17007KT 6SM HZ OVC012 M01/M03 A3020 600 81 -1100 170/07 RMK AO2
14837KMSN MSN20031207014010112/07/03 01:40:31  5-MIN KMSN 070740Z 17007KT 6SM HZ OVC012 M01/M03 A3020 600 81 -1100 170/07 RMK AO2
14837KMSN MSN20031207014510112/07/03 01:45:31  5-MIN KMSN 070745Z 17006KT 6SM HZ OVC012 M01/M03 A3020 600 81 -1100 170/06 RMK AO2
14837KMSN MSN20031207015011512/07/03 01:50:31  5-MIN KMSN 070750Z 17006KT 8SM OVC012 M01/M03 A3020 600 81 -1100 170/06 RMK AO2 SLP238 T10061033
14837KMSN MSN20031207015510112/07/03 01:55:31  5-MIN KMSN 070755Z 17007KT 6SM HZ OVC012 M01/M03 A3020 610 81 -1100 170/07 RMK AO2
14837KMSN MSN20031207020010112/07/03 02:00:31  5-MIN KMSN 070800Z 15008KT 6SM HZ OVC012 M01/M03 A3020 600 81 -1100 150/08 RMK AO2
14837KMSN MSN20031207020510112/07/03 02:05:31  5-MIN KMSN 070805Z 16008KT 6SM HZ OVC012 M01/M03 A3020 610 81 -1100 150/08 RMK AO2
14837KMSN MSN20031207021010112/07/03 02:10:31  5-MIN KMSN 070810Z 16009KT 6SM HZ OVC012 M01/M03 A3020 610 81 -1100 160/09 RMK AO2
14837KMSN MSN20031207021510112/07/03 02:15:31  5-MIN KMSN 070815Z 16008KT 6SM HZ OVC012 M01/M03 A3020 610 81 -1100 160/08 RMK AO2
14837KMSN MSN20031207022010112/07/03 02:20:31  5-MIN KMSN 070820Z 16010KT 6SM HZ OVC012 M01/M03 A3020 610 81 -1100 160/10 RMK AO2
14837KMSN MSN20031207022510112/07/03 02:25:31  5-MIN KMSN 070825Z 16009KT 6SM HZ OVC012 M01/M03 A3020 610 81 -1100 160/09 RMK AO2
14837KMSN MSN20031207023010112/07/03 02:30:31  5-MIN KMSN 070830Z 15010KT 6SM HZ OVC012 M01/M03 A3019 610 81 -1100 150/10 RMK AO2
14837KMSN MSN20031207023510112/07/03 02:35:31  5-MIN KMSN 070835Z 16009KT 6SM BR OVC010 M01/M03 A3019 610 85 -1000 160/09 RMK AO2
14837KMSN MSN20031207024010112/07/03 02:40:31  5-MIN KMSN 070840Z 16008KT 6SM BR OVC010 M01/M03 A3019 620 85 -1000 160/08 RMK AO2
14837KMSN MSN20031207024510112/07/03 02:45:31  5-MIN KMSN 070845Z 16008KT 6SM BR OVC010 M01/M03 A3019 620 85 -1000 160/08 RMK AO2
14837KMSN MSN20031207025012112/07/03 02:50:31  5-MIN KMSN 070850Z 16008KT 7SM OVC010 M01/M03 A3018 620 85 -1000 160/08 RMK AO2 SLP231 T10061028 50001
14837KMSN MSN20031207025510112/07/03 02:55:31  5-MIN KMSN 070855Z 15010KT 6SM BR OVC010 M01/M03 A3018 620 85 -1000 150/10 RMK AO2
14837KMSN MSN20031207030010112/07/03 03:00:31  5-MIN KMSN 070900Z 15010KT 6SM BR OVC010 M01/M03 A3018 620 85 -1000 150/10 RMK AO2
14837KMSN MSN20031207030510112/07/03 03:05:31  5-MIN KMSN 070905Z 16008KT 6SM BR OVC010 M01/M03 A3018 620 85 -1000 160/08 RMK AO2
14837KMSN MSN20031207031010112/07/03 03:10:31  5-MIN KMSN 070910Z 16008KT 5SM BR OVC010 M01/M03 A3018 620 85 -1000 160/08 RMK AO2
14837KMSN MSN20031207031510112/07/03 03:15:31  5-MIN KMSN 070915Z 15010KT 5SM BR OVC010 M01/M03 A3018 630 85 -1000 150/10 RMK AO2
14837KMSN MSN20031207032010112/07/03 03:20:31  5-MIN KMSN 070920Z 16009KT 5SM BR OVC010 M01/M03 A3018 630 85 -1000 160/09 RMK AO2
14837KMSN MSN20031207032510112/07/03 03:25:31  5-MIN KMSN 070925Z 16008KT 5SM BR OVC010 M01/M03 A3018 630 85 -1000 160/08 RMK AO2
14837KMSN MSN20031207033010112/07/03 03:30:31  5-MIN KMSN 070930Z 16011KT 5SM BR OVC010 M01/M03 A3017 630 85 -1000 150/11 RMK AO2
14837KMSN MSN20031207033510112/07/03 03:35:31  5-MIN KMSN 070935Z 16012KT 6SM HZ OVC010 M01/M03 A3017 630 81 -1000 160/12 RMK AO2
14837KMSN MSN20031207034011312/07/03 03:40:31  5-MIN KMSN 070940Z 16011KT 6SM HZ OVC010 M01/M03 A3017 630 81 -1000 160/11 RMK AO2 CIG 009V013
14837KMSN MSN20031207034511312/07/03 03:45:31  5-MIN KMSN 070945Z 16010KT 6SM HZ OVC010 M01/M03 A3017 640 81 -1000 160/10 RMK AO2 CIG 009V013
14837KMSN MSN20031207035011512/07/03 03:50:31  5-MIN KMSN 070950Z 16010KT 7SM OVC010 M01/M03 A3017 630 85 -1100 150/10 RMK AO2 SLP227 T10111033
14837KMSN MSN20031207035510112/07/03 03:55:31  5-MIN KMSN 070955Z 16010KT 6SM HZ OVC010 M01/M03 A3017 630 81 -1000 160/10 RMK AO2
14837KMSN MSN20031207040010112/07/03 04:00:31  5-MIN KMSN 071000Z 16010KT 6SM BR OVC010 M01/M03 A3017 630 85 -1100 160/10 RMK AO2
14837KMSN MSN20031207040510112/07/03 04:05:31  5-MIN KMSN 071005Z 17012KT 6SM BR OVC010 M01/M03 A3017 640 85 -1100 160/12 RMK AO2
14837KMSN MSN20031207041010112/07/03 04:10:31  5-MIN KMSN 071010Z 16013KT 6SM BR OVC010 M01/M03 A3016 640 85 -1100 160/13 RMK AO2
14837KMSN MSN20031207041510112/07/03 04:15:31  5-MIN KMSN 071015Z 15014KT 6SM BR OVC010 M01/M03 A3016 640 85 -1100 150/14 RMK AO2
14837KMSN MSN20031207042010112/07/03 04:20:31  5-MIN KMSN 071020Z 16014KT 6SM HZ OVC012 M01/M04 A3016 640 81 -1100 160/14 RMK AO2
14837KMSN MSN20031207042510112/07/03 04:25:31  5-MIN KMSN 071025Z 16011KT 6SM HZ OVC012 M01/M04 A3016 640 81 -1100 160/11 RMK AO2
14837KMSN MSN20031207043010112/07/03 04:30:31  5-MIN KMSN 071030Z 16010KT 6SM BR OVC012 M01/M03 A3016 650 85 -1100 160/10 RMK AO2
14837KMSN MSN20031207043510112/07/03 04:35:31  5-MIN KMSN 071035Z 16010KT 6SM BR OVC012 M01/M03 A3016 650 85 -1100 160/10 RMK AO2
14837KMSN MSN20031207044010112/07/03 04:40:31  5-MIN KMSN 071040Z 16009KT 6SM BR OVC012 M01/M03 A3015 650 85 -1100 160/09 RMK AO2
14837KMSN MSN20031207044510112/07/03 04:45:31  5-MIN KMSN 071045Z 15010KT 6SM BR OVC012 M01/M03 A3015 650 85 -1100 150/10 RMK AO2
14837KMSN MSN20031207045011812/07/03 04:50:31  5-MIN KMSN 071050Z 16009KT 6SM BR OVC012 M01/M03 A3015 650 85 -1100 160/09 RMK AO2 SLP221 T10111033
14837KMSN MSN20031207045510112/07/03 04:55:31  5-MIN KMSN 071055Z 16010KT 6SM BR OVC012 M01/M03 A3015 650 85 -1100 160/10 RMK AO2
14837KMSN MSN20031207050010112/07/03 05:00:31  5-MIN KMSN 071100Z 16011KT 6SM BR OVC012 M01/M03 A3015 650 85 -1100 160/11 RMK AO2
14837KMSN MSN20031207050510112/07/03 05:05:31  5-MIN KMSN 071105Z 16012KT 6SM BR OVC012 M01/M03 A3015 650 85 -1100 150/12 RMK AO2
14837KMSN MSN20031207051010112/07/03 05:10:31  5-MIN KMSN 071110Z 16011KT 6SM BR OVC012 M01/M03 A3015 660 85 -1100 160/11 RMK AO2
14837KMSN MSN20031207051510112/07/03 05:15:31  5-MIN KMSN 071115Z 16013KT 6SM HZ OVC012 M01/M03 A3014 660 81 -1000 150/13 RMK AO2
14837KMSN MSN20031207052010112/07/03 05:20:31  5-MIN KMSN 071120Z 16012KT 6SM HZ OVC012 M01/M03 A3015 650 81 -1000 160/12 RMK AO2
14837KMSN MSN20031207052510112/07/03 05:25:31  5-MIN KMSN 071125Z 16011KT 6SM HZ OVC012 M01/M03 A3015 650 81 -1000 160/11 RMK AO2
14837KMSN MSN20031207053010112/07/03 05:30:31  5-MIN KMSN 071130Z 16012KT 6SM HZ OVC012 M01/M03 A3015 660 81 -1000 160/12 RMK AO2
14837KMSN MSN20031207053510112/07/03 05:35:31  5-MIN KMSN 071135Z 16010KT 6SM HZ OVC012 M01/M03 A3015 660 81 -1000 160/10 RMK AO2
14837KMSN MSN20031207054010112/07/03 05:40:31  5-MIN KMSN 071140Z 16011KT 6SM HZ OVC012 M01/M03 A3015 660 81 -1000 160/11 RMK AO2
14837KMSN MSN20031207054510112/07/03 05:45:31  5-MIN KMSN 071145Z 15013KT 5SM HZ OVC012 M01/M03 A3015 650 81 -1000 150/13 RMK AO2
14837KMSN MSN20031207055013612/07/03 05:50:31  5-MIN KMSN 071150Z 16010KT 6SM HZ OVC012 M01/M03 A3015 650 81 -1000 160/10 RMK AO2 SLP220 T10061033 11006 21011 58013
14837KMSN MSN20031207055510112/07/03 05:55:31  5-MIN KMSN 071155Z 17009KT 6SM BR OVC012 M01/M03 A3015 650 85 -1000 170/09 RMK AO2
14837KMSN MSN20031207060010112/07/03 06:00:31  5-MIN KMSN 071200Z 16011KT 6SM BR OVC010 M01/M03 A3015 650 85 -1000 160/11 RMK AO2
14837KMSN MSN20031207060510112/07/03 06:05:31  5-MIN KMSN 071205Z 16010KT 6SM BR OVC010 M01/M03 A3015 660 85 -1000 160/10 RMK AO2
14837KMSN MSN20031207061010112/07/03 06:10:31  5-MIN KMSN 071210Z 16013KT 6SM BR OVC010 M01/M03 A3015 660 85 -1000 160/13 RMK AO2
14837KMSN MSN20031207061510112/07/03 06:15:31  5-MIN KMSN 071215Z 15011KT 6SM HZ OVC010 M01/M03 A3014 660 81 -1000 150/11 RMK AO2
14837KMSN MSN20031207062010112/07/03 06:20:31  5-MIN KMSN 071220Z 16013KT 6SM HZ OVC010 M01/M03 A3014 660 81 -1000 160/13 RMK AO2
14837KMSN MSN20031207062510112/07/03 06:25:31  5-MIN KMSN 071225Z 16011KT 6SM HZ OVC010 M01/M03 A3014 660 81 -1000 160/11 RMK AO2
14837KMSN MSN20031207063010112/07/03 06:30:31  5-MIN KMSN 071230Z 16011KT 6SM HZ OVC010 M01/M03 A3014 660 81 -1000 160/11 RMK AO2
14837KMSN MSN20031207063510112/07/03 06:35:31  5-MIN KMSN 071235Z 16011KT 6SM HZ OVC010 M01/M03 A3014 660 81 -1000 160/11 RMK AO2
14837KMSN MSN20031207064010112/07/03 06:40:31  5-MIN KMSN 071240Z 16011KT 6SM HZ OVC010 M01/M03 A3014 660 81 -1000 160/11 RMK AO2
14837KMSN MSN20031207064510112/07/03 06:45:31  5-MIN KMSN 071245Z 16011KT 6SM HZ OVC010 M01/M03 A3014 660 81 -1000 160/11 RMK AO2
14837KMSN MSN20031207065011812/07/03 06:50:31  5-MIN KMSN 071250Z 16011KT 5SM HZ OVC010 M01/M03 A3014 660 81 -1000 160/11 RMK AO2 SLP216 T10061033
14837KMSN MSN20031207065510112/07/03 06:55:31  5-MIN KMSN 071255Z 16012KT 5SM HZ OVC010 M01/M03 A3014 660 81 -1000 160/12 RMK AO2
14837KMSN MSN20031207070010112/07/03 07:00:31  5-MIN KMSN 071300Z 16012KT 5SM HZ OVC010 M01/M03 A3014 660 81 -1000 160/12 RMK AO2
14837KMSN MSN20031207070510112/07/03 07:05:31  5-MIN KMSN 071305Z 16011KT 5SM BR OVC010 M01/M03 A3014 660 85 -1000 160/11 RMK AO2
14837KMSN MSN20031207071010112/07/03 07:10:31  5-MIN KMSN 071310Z 16012KT 5SM BR OVC010 M01/M03 A3013 670 85 -1000 160/12 RMK AO2
14837KMSN MSN20031207071510112/07/03 07:15:31  5-MIN KMSN 071315Z 16012KT 5SM BR OVC010 M01/M03 A3013 670 85 -1000 160/12 RMK AO2
14837KMSN MSN20031207072010112/07/03 07:20:31  5-MIN KMSN 071320Z 16012KT 5SM BR OVC010 M01/M03 A3013 670 85 -1000 150/12 RMK AO2
14837KMSN MSN20031207072510112/07/03 07:25:31  5-MIN KMSN 071325Z 16013KT 5SM BR OVC010 M01/M03 A3013 670 85 -1000 160/13 RMK AO2
14837KMSN MSN20031207073010112/07/03 07:30:31  5-MIN KMSN 071330Z 17012KT 6SM BR OVC010 M01/M03 A3013 670 85 -1000 160/12 RMK AO2
14837KMSN MSN20031207073510112/07/03 07:35:31  5-MIN KMSN 071335Z 17011KT 6SM BR OVC010 M01/M03 A3013 670 85 -1000 170/11 RMK AO2
14837KMSN MSN20031207074010112/07/03 07:40:31  5-MIN KMSN 071340Z 17010KT 6SM BR OVC010 M01/M03 A3013 670 85 -1000 170/10 RMK AO2
14837KMSN MSN20031207074510112/07/03 07:45:31  5-MIN KMSN 071345Z 16012KT 5SM BR OVC010 M01/M03 A3013 670 85 -1000 160/12 RMK AO2
14837KMSN MSN20031207075012512/07/03 07:50:31  5-MIN KMSN 071350Z 16013KT 6SM BR OVC010 M01/M03 A3013 670 85 -1000 150/13 RMK AO2 SLP212 BINOVC T10061028
14837KMSN MSN20031207075510112/07/03 07:55:31  5-MIN KMSN 071355Z 16011KT 6SM BR OVC010 M01/M03 A3013 670 85 -1000 160/11 RMK AO2
14837KMSN MSN20031207080010112/07/03 08:00:31  5-MIN KMSN 071400Z 16014KT 6SM BR OVC010 M01/M03 A3013 670 85 -1000 160/14 RMK AO2
14837KMSN MSN20031207080510112/07/03 08:05:31  5-MIN KMSN 071405Z 16011KT 6SM BR OVC010 M01/M03 A3013 670 85 -1000 160/11 RMK AO2
14837KMSN MSN20031207081010112/07/03 08:10:31  5-MIN KMSN 071410Z 16011KT 4SM BR OVC010 M01/M03 A3013 670 85 -1000 160/11 RMK AO2
14837KMSN MSN20031207081510112/07/03 08:15:31  5-MIN KMSN 071415Z 17010KT 4SM BR OVC010 M01/M03 A3013 670 85 -1000 160/10 RMK AO2
14837KMSN MSN20031207082010112/07/03 08:20:31  5-MIN KMSN 071420Z 16012KT 4SM BR OVC010 M01/M03 A3013 670 85 -1000 160/12 RMK AO2
14837KMSN MSN20031207082510112/07/03 08:25:31  5-MIN KMSN 071425Z 16012KT 4SM BR OVC010 M01/M03 A3013 670 85 -1000 160/12 RMK AO2
14837KMSN MSN20031207083010812/07/03 08:30:31  5-MIN KMSN 071430Z 17011KT 4SM BR BKN010 OVC100 M01/M03 A3013 670 85 -1000 170/11 RMK AO2
14837KMSN MSN20031207083510812/07/03 08:35:31  5-MIN KMSN 071435Z 17011KT 4SM BR BKN010 OVC100 M01/M03 A3013 670 85 -1000 170/11 RMK AO2
14837KMSN MSN20031207084010612/07/03 08:40:31  5-MIN KMSN 071440Z 18011KT 4SM HZ BKN010 OVC100 00/M03 A3013 670 81 -900 170/11 RMK AO2
14837KMSN MSN20031207084510612/07/03 08:45:31  5-MIN KMSN 071445Z 17012KT 4SM HZ BKN010 BKN120 00/M03 A3013 670 81 -900 170/12 RMK AO2
14837KMSN MSN20031207085012912/07/03 08:50:31  5-MIN KMSN 071450Z 17011KT 4SM HZ BKN010 BKN120 00/M03 A3013 670 81 -900 170/11 RMK AO2 SLP212 T00001028 56011
14837KMSN MSN20031207085509912/07/03 08:55:31  5-MIN KMSN 071455Z 18013KT 4SM HZ BKN010 00/M03 A3013 670 81 -900 180/13 RMK AO2
14837KMSN MSN20031207090009912/07/03 09:00:31  5-MIN KMSN 071500Z 17012KT 4SM HZ BKN010 00/M03 A3013 670 81 -900 170/12 RMK AO2
14837KMSN MSN20031207090509912/07/03 09:05:31  5-MIN KMSN 071505Z 17013KT 4SM HZ BKN010 00/M03 A3013 670 81 -900 160/13 RMK AO2
14837KMSN MSN20031207091009912/07/03 09:10:31  5-MIN KMSN 071510Z 16014KT 4SM HZ BKN010 00/M03 A3013 670 81 -900 160/14 RMK AO2
14837KMSN MSN20031207091509912/07/03 09:15:31  5-MIN KMSN 071515Z 16013KT 5SM HZ BKN010 00/M03 A3013 680 81 -900 160/13 RMK AO2
14837KMSN MSN20031207092009912/07/03 09:20:31  5-MIN KMSN 071520Z 16013KT 5SM HZ BKN010 00/M03 A3012 680 81 -900 160/13 RMK AO2
14837KMSN MSN20031207092510612/07/03 09:25:31  5-MIN KMSN 071525Z 17012KT 5SM HZ BKN010 BKN100 01/M03 A3012 680 78 -800 160/12 RMK AO2
14837KMSN MSN20031207093010612/07/03 09:30:31  5-MIN KMSN 071530Z 17012KT 5SM HZ BKN010 BKN100 00/M03 A3012 680 81 -900 170/12 RMK AO2
14837KMSN MSN20031207093510612/07/03 09:35:31  5-MIN KMSN 071535Z 16014KT 5SM HZ BKN010 BKN100 01/M03 A3012 680 78 -800 160/14 RMK AO2
14837KMSN MSN20031207094010612/07/03 09:40:31  5-MIN KMSN 071540Z 16015KT 5SM HZ BKN010 BKN100 01/M03 A3012 680 78 -800 160/15 RMK AO2
14837KMSN MSN20031207094510612/07/03 09:45:31  5-MIN KMSN 071545Z 17013KT 5SM HZ BKN010 BKN100 01/M03 A3012 680 78 -800 170/13 RMK AO2
14837KMSN MSN20031207095012312/07/03 09:50:31  5-MIN KMSN 071550Z 17014KT 4SM HZ BKN012 BKN100 01/M03 A3012 680 78 -800 170/14 RMK AO2 SLP210 T00061028
14837KMSN MSN20031207095510612/07/03 09:55:31  5-MIN KMSN 071555Z 16015KT 4SM HZ BKN012 BKN100 01/M03 A3012 680 78 -800 160/15 RMK AO2
14837KMSN MSN20031207100010612/07/03 10:00:31  5-MIN KMSN 071600Z 16012KT 4SM HZ BKN012 BKN100 01/M03 A3013 670 78 -800 160/12 RMK AO2
14837KMSN MSN20031207100510612/07/03 10:05:31  5-MIN KMSN 071605Z 17011KT 4SM HZ BKN012 BKN100 01/M03 A3013 670 78 -800 170/11 RMK AO2
14837KMSN MSN20031207101010612/07/03 10:10:31  5-MIN KMSN 071610Z 17012KT 4SM HZ BKN012 BKN100 01/M03 A3013 680 78 -800 170/12 RMK AO2
14837KMSN MSN20031207101510612/07/03 10:15:31  5-MIN KMSN 071615Z 16013KT 4SM HZ BKN012 BKN100 01/M02 A3012 680 78 -800 160/13 RMK AO2
14837KMSN MSN20031207102010612/07/03 10:20:31  5-MIN KMSN 071620Z 16015KT 4SM HZ BKN012 BKN100 01/M02 A3012 680 78 -800 160/15 RMK AO2
14837KMSN MSN20031207102510612/07/03 10:25:31  5-MIN KMSN 071625Z 17013KT 4SM HZ BKN012 BKN100 01/M02 A3011 690 78 -700 170/13 RMK AO2
14837KMSN MSN20031207103010612/07/03 10:30:31  5-MIN KMSN 071630Z 16012KT 6SM HZ SCT012 SCT110 02/M02 A3011 690 75 -700 160/12 RMK AO2
14837KMSN MSN20031207103510612/07/03 10:35:31  5-MIN KMSN 071635Z 16014KT 6SM HZ SCT012 SCT110 02/M02 A3010 690 75 -700 160/14 RMK AO2
14837KMSN MSN20031207104010312/07/03 10:40:31  5-MIN KMSN 071640Z 17013KT 7SM FEW012 SCT110 02/M02 A3010 700 75 -700 170/13 RMK AO2
14837KMSN MSN20031207104510312/07/03 10:45:31  5-MIN KMSN 071645Z 16016KT 7SM FEW012 SCT110 02/M02 A3010 700 75 -700 160/16 RMK AO2
14837KMSN MSN20031207105012012/07/03 10:50:31  5-MIN KMSN 071650Z 16015KT 7SM FEW012 SCT110 02/M02 A3010 700 75 -700 160/15 RMK AO2 SLP202 T00171022
14837KMSN MSN20031207105509312/07/03 10:55:31  5-MIN KMSN 071655Z 17012KT 7SM CLR 02/M02 A3009 710 72 -600 170/12 RMK AO2
14837KMSN MSN20031207110009312/07/03 11:00:31  5-MIN KMSN 071700Z 17013KT 7SM CLR 02/M03 A3009 710 72 -700 170/13 RMK AO2
14837KMSN MSN20031207110509612/07/03 11:05:31  5-MIN KMSN 071705Z 17013KT 7SM FEW110 02/M03 A3009 710 72 -600 170/13 RMK AO2
14837KMSN MSN20031207111009612/07/03 11:10:31  5-MIN KMSN 071710Z 17012KT 7SM FEW110 02/M02 A3008 710 72 -600 170/12 RMK AO2
14837KMSN MSN20031207111509612/07/03 11:15:31  5-MIN KMSN 071715Z 16017KT 7SM FEW110 02/M03 A3008 720 69 -600 160/17 RMK AO2
14837KMSN MSN20031207112009612/07/03 11:20:31  5-MIN KMSN 071720Z 16014KT 7SM FEW110 02/M03 A3008 720 69 -600 160/14 RMK AO2
14837KMSN MSN20031207112509612/07/03 11:25:31  5-MIN KMSN 071725Z 16012KT 7SM FEW110 02/M02 A3008 720 72 -600 160/12 RMK AO2
14837KMSN MSN20031207113009612/07/03 11:30:31  5-MIN KMSN 071730Z 17013KT 7SM FEW110 03/M02 A3007 720 69 -500 170/13 RMK AO2
14837KMSN MSN20031207113509612/07/03 11:35:31  5-MIN KMSN 071735Z 17014KT 7SM FEW110 03/M03 A3007 730 67 -500 170/14 RMK AO2
14837KMSN MSN20031207114009612/07/03 11:40:31  5-MIN KMSN 071740Z 16016KT 7SM FEW110 03/M02 A3006 730 69 -500 160/16 RMK AO2
14837KMSN MSN20031207114509612/07/03 11:45:31  5-MIN KMSN 071745Z 16013KT 7SM FEW110 03/M02 A3006 730 69 -500 160/13 RMK AO2
14837KMSN MSN20031207115013112/07/03 11:50:31  5-MIN KMSN 071750Z 17012KT 7SM FEW120 03/M02 A3006 740 69 -500 170/12 RMK AO2 SLP187 T00281022 10028 21006 56007
14837KMSN MSN20031207115509312/07/03 11:55:31  5-MIN KMSN 071755Z 16014KT 7SM CLR 03/M02 A3005 740 67 -400 160/14 RMK AO2
14837KMSN MSN20031207120009312/07/03 12:00:31  5-MIN KMSN 071800Z 16013KT 7SM CLR 03/M02 A3005 750 67 -400 160/13 RMK AO2
14837KMSN MSN20031207120509312/07/03 12:05:31  5-MIN KMSN 071805Z 15013KT 7SM CLR 03/M02 A3004 750 67 -400 150/13 RMK AO2
14837KMSN MSN20031207121009312/07/03 12:10:31  5-MIN KMSN 071810Z 16015KT 8SM CLR 03/M02 A3004 750 67 -400 160/15 RMK AO2
14837KMSN MSN20031207121509312/07/03 12:15:31  5-MIN KMSN 071815Z 16014KT 8SM CLR 03/M03 A3004 750 64 -400 160/14 RMK AO2
14837KMSN MSN20031207122009312/07/03 12:20:31  5-MIN KMSN 071820Z 17012KT 7SM CLR 03/M03 A3004 750 64 -400 170/12 RMK AO2
14837KMSN MSN20031207122509312/07/03 12:25:31  5-MIN KMSN 071825Z 17011KT 8SM CLR 04/M02 A3004 760 64 -300 170/11 RMK AO2
14837KMSN MSN20031207123009312/07/03 12:30:31  5-MIN KMSN 071830Z 16015KT 8SM CLR 04/M02 A3004 760 64 -300 160/15 RMK AO2
14837KMSN MSN20031207123509312/07/03 12:35:31  5-MIN KMSN 071835Z 16012KT 8SM CLR 04/M02 A3004 760 64 -300 160/12 RMK AO2
14837KMSN MSN20031207124009312/07/03 12:40:31  5-MIN KMSN 071840Z 17013KT 8SM CLR 04/M02 A3003 760 64 -300 170/13 RMK AO2
14837KMSN MSN20031207124509312/07/03 12:45:31  5-MIN KMSN 071845Z 17011KT 8SM CLR 04/M02 A3003 760 64 -300 170/11 RMK AO2
14837KMSN MSN20031207125011312/07/03 12:50:31  5-MIN KMSN 071850Z 17011KT 8SM FEW120 03/M02 A3003 770 67 -400 170/11 RMK AO2 SLP177 T00331022
14837KMSN MSN20031207125509612/07/03 12:55:31  5-MIN KMSN 071855Z 17013KT 7SM FEW120 04/M02 A3002 770 64 -300 160/13 RMK AO2
14837KMSN MSN20031207130009612/07/03 13:00:31  5-MIN KMSN 071900Z 16013KT 7SM FEW120 04/M02 A3002 770 64 -300 160/13 RMK AO2
14837KMSN MSN20031207130509612/07/03 13:05:31  5-MIN KMSN 071905Z 17012KT 7SM FEW120 04/M02 A3002 780 64 -300 170/12 RMK AO2
14837KMSN MSN20031207131010212/07/03 13:10:31  5-MIN KMSN 071910Z 17011G18KT 7SM FEW120 04/M02 A3001 780 64 -300 170/11G18 RMK AO2
14837KMSN MSN20031207131509612/07/03 13:15:31  5-MIN KMSN 071915Z 16014KT 7SM FEW080 03/M02 A3001 780 67 -400 160/14 RMK AO2
14837KMSN MSN20031207132009612/07/03 13:20:31  5-MIN KMSN 071920Z 16013KT 7SM FEW080 03/M02 A3001 780 67 -400 160/13 RMK AO2
14837KMSN MSN20031207132509612/07/03 13:25:31  5-MIN KMSN 071925Z 16014KT 8SM FEW075 04/M02 A3001 780 67 -300 160/14 RMK AO2
14837KMSN MSN20031207133009612/07/03 13:30:31  5-MIN KMSN 071930Z 15015KT 8SM SCT075 04/M02 A3000 790 67 -300 150/15 RMK AO2
14837KMSN MSN20031207133509612/07/03 13:35:31  5-MIN KMSN 071935Z 16015KT 7SM SCT070 04/M02 A3000 790 67 -300 160/15 RMK AO2
14837KMSN MSN20031207134009612/07/03 13:40:31  5-MIN KMSN 071940Z 16011KT 7SM BKN070 04/M02 A3000 790 67 -300 160/11 RMK AO2
14837KMSN MSN20031207134509612/07/03 13:45:31  5-MIN KMSN 071945Z 16016KT 8SM BKN070 04/M02 A3000 790 67 -300 160/16 RMK AO2
14837KMSN MSN20031207135011312/07/03 13:50:31  5-MIN KMSN 071950Z 17013KT 8SM BKN070 04/M02 A3000 790 67 -300 160/13 RMK AO2 SLP166 T00391017
14837KMSN MSN20031207135509612/07/03 13:55:31  5-MIN KMSN 071955Z 16015KT 7SM OVC070 04/M02 A3000 790 64 -300 160/15 RMK AO2
14837KMSN MSN20031207140009612/07/03 14:00:31  5-MIN KMSN 072000Z 17013KT 7SM BKN070 04/M02 A3000 790 67 -300 170/13 RMK AO2
14837KMSN MSN20031207140509612/07/03 14:05:31  5-MIN KMSN 072005Z 16014KT 7SM BKN070 04/M02 A3000 790 67 -300 160/14 RMK AO2
14837KMSN MSN20031207141009612/07/03 14:10:31  5-MIN KMSN 072010Z 16013KT 7SM SCT070 04/M02 A3000 790 67 -300 160/13 RMK AO2
14837KMSN MSN20031207141509612/07/03 14:15:31  5-MIN KMSN 072015Z 17012KT 7SM SCT070 04/M02 A3000 800 67 -300 160/12 RMK AO2
14837KMSN MSN20031207142009612/07/03 14:20:31  5-MIN KMSN 072020Z 17013KT 7SM BKN070 04/M01 A2999 800 67 -200 170/13 RMK AO2
14837KMSN MSN20031207142509612/07/03 14:25:31  5-MIN KMSN 072025Z 16012KT 7SM SCT065 04/M01 A2999 800 67 -200 160/12 RMK AO2
14837KMSN MSN20031207143009612/07/03 14:30:31  5-MIN KMSN 072030Z 16015KT 7SM SCT065 04/M01 A2999 800 67 -200 160/15 RMK AO2
14837KMSN MSN20031207143509612/07/03 14:35:31  5-MIN KMSN 072035Z 16014KT 7SM SCT065 04/M01 A2999 800 70 -300 160/14 RMK AO2
14837KMSN MSN20031207144009612/07/03 14:40:31  5-MIN KMSN 072040Z 16015KT 7SM SCT065 04/M01 A2999 800 70 -300 150/15 RMK AO2
14837KMSN MSN20031207144509612/07/03 14:45:31  5-MIN KMSN 072045Z 17013KT 7SM SCT065 04/M01 A2998 810 70 -300 160/13 RMK AO2
14837KMSN MSN20031207145011912/07/03 14:50:31  5-MIN KMSN 072050Z 17011KT 7SM FEW065 04/M01 A2998 810 70 -300 170/11 RMK AO2 SLP162 T00391011 58024
14837KMSN MSN20031207145509312/07/03 14:55:31  5-MIN KMSN 072055Z 16013KT 7SM CLR 04/M01 A2998 800 70 -300 160/13 RMK AO2
14837KMSN MSN20031207150009312/07/03 15:00:31  5-MIN KMSN 072100Z 16011KT 7SM CLR 04/M01 A2998 810 70 -300 160/11 RMK AO2
14837KMSN MSN20031207150509312/07/03 15:05:31  5-MIN KMSN 072105Z 16012KT 7SM CLR 04/M01 A2998 810 70 -300 160/12 RMK AO2
14837KMSN MSN20031207151009312/07/03 15:10:31  5-MIN KMSN 072110Z 16011KT 7SM CLR 04/M01 A2998 810 70 -300 160/11 RMK AO2
14837KMSN MSN20031207151509312/07/03 15:15:31  5-MIN KMSN 072115Z 16010KT 7SM CLR 04/M01 A2998 810 70 -300 150/10 RMK AO2
14837KMSN MSN20031207152009312/07/03 15:20:31  5-MIN KMSN 072120Z 15011KT 7SM CLR 04/M01 A2998 810 70 -200 150/11 RMK AO2
14837KMSN MSN20031207152509312/07/03 15:25:31  5-MIN KMSN 072125Z 16012KT 7SM CLR 04/M01 A2998 810 70 -200 160/12 RMK AO2
14837KMSN MSN20031207153009312/07/03 15:30:31  5-MIN KMSN 072130Z 17011KT 7SM CLR 04/M01 A2998 810 70 -200 170/11 RMK AO2
14837KMSN MSN20031207153509612/07/03 15:35:31  5-MIN KMSN 072135Z 16011KT 6SM HZ CLR 04/M01 A2998 810 70 -200 160/11 RMK AO2
14837KMSN MSN20031207154009612/07/03 15:40:31  5-MIN KMSN 072140Z 16011KT 6SM HZ CLR 03/M01 A2998 810 72 -300 160/11 RMK AO2
14837KMSN MSN20031207154509612/07/03 15:45:31  5-MIN KMSN 072145Z 16011KT 6SM HZ CLR 03/M01 A2998 810 72 -300 160/11 RMK AO2
14837KMSN MSN20031207155011612/07/03 15:50:31  5-MIN KMSN 072150Z 16010KT 6SM HZ FEW120 03/M01 A2998 810 72 -300 160/10 RMK AO2 SLP159 T00331011
14837KMSN MSN20031207155509612/07/03 15:55:31  5-MIN KMSN 072155Z 16011KT 6SM HZ CLR 03/M01 A2998 810 72 -300 160/11 RMK AO2
14837KMSN MSN20031207160009912/07/03 16:00:31  5-MIN KMSN 072200Z 16011KT 6SM HZ FEW120 03/M01 A2998 810 72 -300 160/11 RMK AO2
14837KMSN MSN20031207160509912/07/03 16:05:31  5-MIN KMSN 072205Z 16010KT 6SM HZ FEW120 04/M01 A2998 810 70 -300 160/10 RMK AO2
14837KMSN MSN20031207161009912/07/03 16:10:31  5-MIN KMSN 072210Z 16011KT 6SM HZ FEW120 03/M01 A2998 810 72 -300 160/11 RMK AO2
14837KMSN MSN20031207161509912/07/03 16:15:31  5-MIN KMSN 072215Z 16009KT 6SM HZ FEW120 03/M01 A2998 810 72 -300 160/09 RMK AO2
14837KMSN MSN20031207162009912/07/03 16:20:31  5-MIN KMSN 072220Z 16010KT 6SM HZ FEW120 03/M01 A2998 810 72 -300 160/10 RMK AO2
14837KMSN MSN20031207162509912/07/03 16:25:31  5-MIN KMSN 072225Z 16011KT 6SM HZ FEW120 03/M01 A2998 810 72 -300 160/11 RMK AO2
14837KMSN MSN20031207163009612/07/03 16:30:31  5-MIN KMSN 072230Z 16011KT 7SM FEW120 03/M01 A2998 810 76 -300 160/11 RMK AO2
14837KMSN MSN20031207163509612/07/03 16:35:31  5-MIN KMSN 072235Z 16011KT 7SM FEW120 03/M01 A2998 810 76 -300 160/11 RMK AO2
14837KMSN MSN20031207164009612/07/03 16:40:31  5-MIN KMSN 072240Z 16011KT 7SM FEW120 03/M01 A2998 810 76 -300 160/11 RMK AO2
14837KMSN MSN20031207164509612/07/03 16:45:31  5-MIN KMSN 072245Z 16011KT 7SM FEW120 03/M01 A2998 810 76 -300 160/11 RMK AO2
14837KMSN MSN20031207165011012/07/03 16:50:31  5-MIN KMSN 072250Z 16010KT 7SM CLR 03/M01 A2998 810 76 -300 160/10 RMK AO2 SLP160 T00331006
14837KMSN MSN20031207165509312/07/03 16:55:31  5-MIN KMSN 072255Z 16010KT 7SM CLR 03/M01 A2998 810 76 -300 160/10 RMK AO2
14837KMSN MSN20031207170009312/07/03 17:00:31  5-MIN KMSN 072300Z 16009KT 7SM CLR 03/M01 A2998 810 76 -300 160/09 RMK AO2
14837KMSN MSN20031207170509312/07/03 17:05:31  5-MIN KMSN 072305Z 15013KT 7SM CLR 03/M01 A2998 810 76 -300 150/13 RMK AO2
14837KMSN MSN20031207171009312/07/03 17:10:31  5-MIN KMSN 072310Z 16010KT 7SM CLR 03/M01 A2998 810 76 -300 160/10 RMK AO2
14837KMSN MSN20031207171509312/07/03 17:15:31  5-MIN KMSN 072315Z 16012KT 7SM CLR 03/M01 A2998 810 76 -300 160/12 RMK AO2
14837KMSN MSN20031207172009312/07/03 17:20:31  5-MIN KMSN 072320Z 16012KT 7SM CLR 03/M01 A2998 810 76 -300 160/12 RMK AO2
14837KMSN MSN20031207172509312/07/03 17:25:31  5-MIN KMSN 072325Z 16012KT 7SM CLR 03/M01 A2998 810 76 -300 160/12 RMK AO2
14837KMSN MSN20031207173009312/07/03 17:30:31  5-MIN KMSN 072330Z 16011KT 7SM CLR 03/M01 A2998 810 76 -300 160/11 RMK AO2
14837KMSN MSN20031207173509312/07/03 17:35:31  5-MIN KMSN 072335Z 16011KT 7SM CLR 03/M01 A2998 810 76 -300 160/11 RMK AO2
14837KMSN MSN20031207174009312/07/03 17:40:31  5-MIN KMSN 072340Z 16013KT 7SM CLR 03/M01 A2997 810 76 -300 160/13 RMK AO2
14837KMSN MSN20031207174509312/07/03 17:45:31  5-MIN KMSN 072345Z 16013KT 7SM CLR 03/M01 A2997 810 76 -300 160/13 RMK AO2
14837KMSN MSN20031207175012812/07/03 17:50:31  5-MIN KMSN 072350Z 16012KT 7SM CLR 03/M01 A2997 810 76 -300 160/12 RMK AO2 SLP159 T00331006 10044 20028 56023
14837KMSN MSN20031207175509312/07/03 17:55:31  5-MIN KMSN 072355Z 16014KT 7SM CLR 03/M01 A2997 820 76 -300 160/14 RMK AO2
14837KMSN MSN20031207180009312/07/03 18:00:31  5-MIN KMSN 080000Z 16013KT 7SM CLR 03/M01 A2997 820 76 -300 160/13 RMK AO2
14837KMSN MSN20031207180509312/07/03 18:05:31  5-MIN KMSN 080005Z 16014KT 7SM CLR 03/M01 A2997 820 76 -300 160/14 RMK AO2
14837KMSN MSN20031207181009312/07/03 18:10:31  5-MIN KMSN 080010Z 16015KT 7SM CLR 03/M01 A2997 820 76 -300 160/15 RMK AO2
14837KMSN MSN20031207181509312/07/03 18:15:31  5-MIN KMSN 080015Z 16012KT 7SM CLR 03/M01 A2997 820 76 -300 160/12 RMK AO2
14837KMSN MSN20031207182009312/07/03 18:20:31  5-MIN KMSN 080020Z 16013KT 7SM CLR 03/M01 A2997 820 76 -300 160/13 RMK AO2
14837KMSN MSN20031207182509612/07/03 18:25:31  5-MIN KMSN 080025Z 16012KT 7SM FEW120 03/M01 A2997 820 76 -300 160/12 RMK AO2
14837KMSN MSN20031207183009612/07/03 18:30:31  5-MIN KMSN 080030Z 16011KT 7SM FEW120 03/M01 A2996 820 79 -400 160/11 RMK AO2
14837KMSN MSN20031207183509312/07/03 18:35:31  5-MIN KMSN 080035Z 16012KT 7SM CLR 03/M01 A2996 820 79 -400 160/12 RMK AO2
14837KMSN MSN20031207184009312/07/03 18:40:31  5-MIN KMSN 080040Z 16012KT 7SM CLR 03/M01 A2996 820 79 -400 160/12 RMK AO2
14837KMSN MSN20031207184509312/07/03 18:45:31  5-MIN KMSN 080045Z 16013KT 7SM CLR 03/M01 A2997 820 79 -400 160/13 RMK AO2
14837KMSN MSN20031207185011012/07/03 18:50:31  5-MIN KMSN 080050Z 16010KT 7SM CLR 03/M01 A2997 820 79 -400 160/10 RMK AO2 SLP156 T00281006
14837KMSN MSN20031207185509312/07/03 18:55:31  5-MIN KMSN 080055Z 16012KT 7SM CLR 03/M01 A2996 820 79 -400 160/12 RMK AO2
14837KMSN MSN20031207190009612/07/03 19:00:31  5-MIN KMSN 080100Z 16011KT 7SM FEW110 03/M01 A2997 820 79 -400 160/11 RMK AO2
14837KMSN MSN20031207190509612/07/03 19:05:31  5-MIN KMSN 080105Z 16013KT 7SM FEW110 03/M01 A2996 820 79 -400 160/13 RMK AO2
14837KMSN MSN20031207191009612/07/03 19:10:31  5-MIN KMSN 080110Z 16011KT 7SM FEW110 03/M01 A2996 820 79 -400 160/11 RMK AO2
14837KMSN MSN20031207191509612/07/03 19:15:31  5-MIN KMSN 080115Z 16010KT 7SM FEW110 03/M01 A2996 820 79 -400 160/10 RMK AO2
14837KMSN MSN20031207192009912/07/03 19:20:31  5-MIN KMSN 080120Z 15009KT 6SM HZ FEW110 03/M01 A2996 830 79 -400 150/09 RMK AO2
14837KMSN MSN20031207192509912/07/03 19:25:31  5-MIN KMSN 080125Z 15011KT 6SM HZ FEW110 03/M01 A2996 830 79 -400 150/11 RMK AO2
14837KMSN MSN20031207193009512/07/03 19:30:31  5-MIN KMSN 080130Z 16011KT 6SM HZ CLR 03/00 A2996 830 82 -400 160/11 RMK AO2
14837KMSN MSN20031207193509512/07/03 19:35:31  5-MIN KMSN 080135Z 16012KT 6SM HZ CLR 03/00 A2996 830 82 -400 160/12 RMK AO2
14837KMSN MSN20031207194009512/07/03 19:40:31  5-MIN KMSN 080140Z 16013KT 6SM HZ CLR 03/00 A2996 830 82 -400 160/13 RMK AO2
14837KMSN MSN20031207194509512/07/03 19:45:31  5-MIN KMSN 080145Z 16013KT 6SM HZ CLR 03/00 A2996 820 82 -400 160/13 RMK AO2
14837KMSN MSN20031207195011012/07/03 19:50:31  5-MIN KMSN 080150Z 16014KT 8SM CLR 03/M01 A2996 820 79 -400 160/14 RMK AO2 SLP155 T00281006
14837KMSN MSN20031207195509312/07/03 19:55:31  5-MIN KMSN 080155Z 16011KT 8SM CLR 03/M01 A2997 820 79 -400 160/11 RMK AO2
14837KMSN MSN20031207200009312/07/03 20:00:31  5-MIN KMSN 080200Z 17012KT 8SM CLR 03/M01 A2996 820 79 -400 170/12 RMK AO2
14837KMSN MSN20031207200509312/07/03 20:05:31  5-MIN KMSN 080205Z 16011KT 8SM CLR 03/M01 A2997 820 79 -400 160/11 RMK AO2
14837KMSN MSN20031207201009612/07/03 20:10:31  5-MIN KMSN 080210Z 16012KT 8SM FEW100 03/M01 A2996 820 79 -400 160/12 RMK AO2
14837KMSN MSN20031207201509612/07/03 20:15:31  5-MIN KMSN 080215Z 16013KT 8SM SCT100 03/M01 A2996 830 79 -400 160/13 RMK AO2
14837KMSN MSN20031207202009612/07/03 20:20:31  5-MIN KMSN 080220Z 16012KT 8SM BKN095 02/M01 A2996 830 82 -400 160/12 RMK AO2
14837KMSN MSN20031207202509612/07/03 20:25:31  5-MIN KMSN 080225Z 16012KT 8SM BKN090 02/M01 A2996 830 82 -400 160/12 RMK AO2
14837KMSN MSN20031207203009612/07/03 20:30:31  5-MIN KMSN 080230Z 16013KT 8SM BKN090 02/M01 A2996 830 82 -400 160/13 RMK AO2
14837KMSN MSN20031207203509612/07/03 20:35:31  5-MIN KMSN 080235Z 16013KT 8SM OVC085 02/M01 A2996 830 82 -400 160/13 RMK AO2
14837KMSN MSN20031207204009612/07/03 20:40:31  5-MIN KMSN 080240Z 16013KT 8SM BKN085 02/M01 A2996 830 82 -400 160/13 RMK AO2
14837KMSN MSN20031207204509612/07/03 20:45:31  5-MIN KMSN 080245Z 16014KT 8SM BKN090 02/M01 A2995 830 82 -400 160/14 RMK AO2
14837KMSN MSN20031207205011812/07/03 20:50:31  5-MIN KMSN 080250Z 16013KT 8SM BKN085 02/00 A2995 830 85 -400 160/13 RMK AO2 SLP151 T00220000 56004
14837KMSN MSN20031207205509812/07/03 20:55:31  5-MIN KMSN 080255Z 16012KT 5SM BR BKN085 02/00 A2995 830 85 -400 160/12 RMK AO2
14837KMSN MSN20031207210009812/07/03 21:00:31  5-MIN KMSN 080300Z 17012KT 5SM BR SCT080 02/00 A2995 830 85 -400 170/12 RMK AO2
14837KMSN MSN20031207210509812/07/03 21:05:31  5-MIN KMSN 080305Z 16011KT 5SM BR SCT090 02/00 A2995 830 85 -400 160/11 RMK AO2
14837KMSN MSN20031207211009812/07/03 21:10:31  5-MIN KMSN 080310Z 16012KT 6SM BR SCT090 02/00 A2995 840 85 -400 160/12 RMK AO2
14837KMSN MSN20031207211509512/07/03 21:15:31  5-MIN KMSN 080315Z 16011KT 7SM FEW090 02/00 A2995 840 85 -400 160/11 RMK AO2
14837KMSN MSN20031207212009512/07/03 21:20:31  5-MIN KMSN 080320Z 17012KT 7SM FEW090 02/00 A2995 840 85 -400 170/12 RMK AO2
14837KMSN MSN20031207212509512/07/03 21:25:31  5-MIN KMSN 080325Z 17012KT 7SM FEW090 02/00 A2995 840 85 -400 170/12 RMK AO2
14837KMSN MSN20031207213009612/07/03 21:30:31  5-MIN KMSN 080330Z 17012KT 7SM FEW090 02/M01 A2995 840 82 -400 170/12 RMK AO2
14837KMSN MSN20031207213509312/07/03 21:35:31  5-MIN KMSN 080335Z 16010KT 7SM CLR 02/M01 A2995 840 82 -400 160/10 RMK AO2
14837KMSN MSN20031207214009212/07/03 21:40:31  5-MIN KMSN 080340Z 17010KT 7SM CLR 02/00 A2995 830 85 -400 170/10 RMK AO2
14837KMSN MSN20031207214509212/07/03 21:45:31  5-MIN KMSN 080345Z 17010KT 7SM CLR 02/00 A2995 830 85 -400 170/10 RMK AO2
14837KMSN MSN20031207215010912/07/03 21:50:31  5-MIN KMSN 080350Z 17010KT 7SM CLR 02/00 A2995 830 85 -400 170/10 RMK AO2 SLP151 T00220000
14837KMSN MSN20031207215509512/07/03 21:55:31  5-MIN KMSN 080355Z 17009KT 5SM BR CLR 02/00 A2995 830 85 -400 170/09 RMK AO2
14837KMSN MSN20031207220009512/07/03 22:00:31  5-MIN KMSN 080400Z 17009KT 5SM BR CLR 02/00 A2995 830 85 -400 170/09 RMK AO2
14837KMSN MSN20031207220509812/07/03 22:05:31  5-MIN KMSN 080405Z 17010KT 6SM BR SCT100 02/00 A2995 830 85 -400 170/10 RMK AO2
14837KMSN MSN20031207221009812/07/03 22:10:31  5-MIN KMSN 080410Z 17010KT 6SM BR BKN095 02/00 A2996 830 85 -400 170/10 RMK AO2
14837KMSN MSN20031207221509812/07/03 22:15:31  5-MIN KMSN 080415Z 17011KT 6SM BR BKN095 02/00 A2996 830 85 -400 160/11 RMK AO2
14837KMSN MSN20031207222009812/07/03 22:20:31  5-MIN KMSN 080420Z 17011KT 6SM HZ BKN095 03/00 A2996 830 82 -400 170/11 RMK AO2
14837KMSN MSN20031207222509812/07/03 22:25:31  5-MIN KMSN 080425Z 17009KT 6SM HZ OVC095 03/00 A2996 830 82 -400 170/09 RMK AO2
14837KMSN MSN20031207223009812/07/03 22:30:31  5-MIN KMSN 080430Z 17012KT 6SM HZ OVC095 03/00 A2996 830 82 -400 170/12 RMK AO2
14837KMSN MSN20031207223509812/07/03 22:35:31  5-MIN KMSN 080435Z 17011KT 6SM HZ OVC095 03/00 A2995 830 82 -400 170/11 RMK AO2
14837KMSN MSN20031207224009812/07/03 22:40:31  5-MIN KMSN 080440Z 17013KT 6SM HZ OVC095 03/00 A2995 830 82 -400 170/13 RMK AO2
14837KMSN MSN20031207224509812/07/03 22:45:31  5-MIN KMSN 080445Z 17012KT 6SM HZ OVC095 03/00 A2995 830 82 -400 170/12 RMK AO2
14837KMSN MSN20031207225011212/07/03 22:50:31  5-MIN KMSN 080450Z 17011KT 7SM OVC090 03/00 A2995 830 82 -400 170/11 RMK AO2 SLP151 T00280000
14837KMSN MSN20031207225509812/07/03 22:55:31  5-MIN KMSN 080455Z 17011KT 6SM HZ OVC090 03/00 A2995 840 82 -400 170/11 RMK AO2
14837KMSN MSN20031207230010512/07/03 23:00:31  5-MIN KMSN 080500Z 17011KT 6SM BR BKN085 OVC100 03/01 A2995 830 85 -400 170/11 RMK AO2
14837KMSN MSN20031207230510512/07/03 23:05:31  5-MIN KMSN 080505Z 17009KT 6SM BR BKN085 OVC100 03/01 A2995 830 85 -400 170/09 RMK AO2
14837KMSN MSN20031207231010512/07/03 23:10:31  5-MIN KMSN 080510Z 17012KT 6SM HZ SCT085 OVC100 03/00 A2995 840 82 -400 170/12 RMK AO2
14837KMSN MSN20031207231510512/07/03 23:15:31  5-MIN KMSN 080515Z 18011KT 6SM HZ BKN080 OVC100 03/00 A2995 840 82 -400 180/11 RMK AO2
14837KMSN MSN20031207232010512/07/03 23:20:31  5-MIN KMSN 080520Z 18010KT 6SM HZ SCT080 OVC100 03/00 A2995 840 82 -400 180/10 RMK AO2
14837KMSN MSN20031207232510512/07/03 23:25:31  5-MIN KMSN 080525Z 18011KT 6SM HZ FEW080 BKN100 03/00 A2995 830 82 -400 180/11 RMK AO2
14837KMSN MSN20031207233010512/07/03 23:30:31  5-MIN KMSN 080530Z 18011KT 6SM HZ FEW080 BKN100 03/00 A2995 840 82 -400 180/11 RMK AO2
14837KMSN MSN20031207233510512/07/03 23:35:31  5-MIN KMSN 080535Z 18011KT 6SM HZ FEW080 BKN100 03/00 A2995 840 82 -400 180/11 RMK AO2
14837KMSN MSN20031207234010512/07/03 23:40:31  5-MIN KMSN 080540Z 18010KT 6SM HZ FEW075 BKN095 03/00 A2995 840 82 -400 180/10 RMK AO2
14837KMSN MSN20031207234510512/07/03 23:45:31  5-MIN KMSN 080545Z 18009KT 6SM HZ SCT075 BKN095 03/00 A2995 830 79 -300 180/09 RMK AO2
14837KMSN MSN20031207235015012/07/03 23:50:31  5-MIN KMSN 080550Z 18008KT 6SM HZ SCT070 BKN090 03/00 A2995 830 79 -300 180/08 RMK AO2 SLP151 T00330000 10033 20022 400441011 58007
14837KMSN MSN20031207235511212/07/03 23:55:31  5-MIN KMSN 080555Z 19009KT 7SM -RA BKN070 BKN090 03/00 A2996 830 79 -300 190/09 RMK AO2 P0000
14837KMSN MSN20031208000011912/08/03 00:00:31  5-MIN KMSN 080600Z 19009KT 7SM -RA SCT055 BKN070 OVC090 03/00 A2996 830 79 -300 190/09 RMK AO2 P0000
14837KMSN MSN20031208000511812/08/03 00:05:31  5-MIN KMSN 080605Z 19009G15KT 7SM -RA BKN055 OVC070 03/00 A2996 830 79 -300 180/09G15 RMK AO2 P0000
14837KMSN MSN20031208001011212/08/03 00:10:31  5-MIN KMSN 080610Z 18011KT 7SM -RA FEW039 OVC060 03/00 A2996 830 79 -300 180/11 RMK AO2 P0000
14837KMSN MSN20031208001511212/08/03 00:15:31  5-MIN KMSN 080615Z 18009KT 7SM -RA BKN041 OVC065 03/00 A2996 830 79 -300 180/09 RMK AO2 P0000
14837KMSN MSN20031208002011212/08/03 00:20:31  5-MIN KMSN 080620Z 18008KT 7SM -RA BKN032 OVC065 03/00 A2996 830 79 -300 180/08 RMK AO2 P0000
14837KMSN MSN20031208002511212/08/03 00:25:31  5-MIN KMSN 080625Z 18010KT 7SM -RA BKN028 OVC065 03/01 A2996 830 82 -300 180/10 RMK AO2 P0000
14837KMSN MSN20031208003011912/08/03 00:30:31  5-MIN KMSN 080630Z 18009KT 7SM -RA BKN028 BKN036 OVC060 03/01 A2996 830 82 -300 180/09 RMK AO2 P0000
14837KMSN MSN20031208003511212/08/03 00:35:31  5-MIN KMSN 080635Z 19007KT 7SM -RA BKN028 OVC036 03/01 A2996 830 82 -300 180/07 RMK AO2 P0000
14837KMSN MSN20031208004011912/08/03 00:40:31  5-MIN KMSN 080640Z 18009KT 7SM -RA BKN028 BKN036 OVC047 03/01 A2996 830 82 -300 180/09 RMK AO2 P0000
14837KMSN MSN20031208004511912/08/03 00:45:31  5-MIN KMSN 080645Z 18008KT 7SM -RA BKN026 BKN036 OVC047 03/01 A2996 830 82 -300 180/08 RMK AO2 P0000
14837KMSN MSN20031208005013612/08/03 00:50:31  5-MIN KMSN 080650Z 18008KT 7SM -RA BKN026 BKN036 OVC049 03/01 A2996 830 82 -300 180/08 RMK AO2 SLP151 P0000 T00330006
14837KMSN MSN20031208005511912/08/03 00:55:31  5-MIN KMSN 080655Z 18008KT 7SM -RA SCT030 BKN036 OVC049 03/01 A2995 830 82 -300 180/08 RMK AO2 P0000
14837KMSN MSN20031208010011212/08/03 01:00:31  5-MIN KMSN 080700Z 18008KT 7SM -RA SCT033 OVC049 03/01 A2995 830 82 -300 180/08 RMK AO2 P0000
14837KMSN MSN20031208010511212/08/03 01:05:31  5-MIN KMSN 080705Z 17009KT 7SM -RA FEW029 OVC049 03/01 A2995 830 82 -300 170/09 RMK AO2 P0000
14837KMSN MSN20031208011011212/08/03 01:10:31  5-MIN KMSN 080710Z 17009KT 7SM -RA FEW029 OVC049 03/01 A2995 830 82 -300 170/09 RMK AO2 P0000
14837KMSN MSN20031208011510512/08/03 01:15:31  5-MIN KMSN 080715Z 17009KT 7SM -RA OVC049 03/01 A2995 830 82 -300 170/09 RMK AO2 P0000
14837KMSN MSN20031208012010512/08/03 01:20:31  5-MIN KMSN 080720Z 17011KT 7SM -RA OVC049 03/01 A2995 840 82 -300 170/11 RMK AO2 P0000
14837KMSN MSN20031208012510512/08/03 01:25:31  5-MIN KMSN 080725Z 16013KT 7SM -RA OVC049 03/01 A2995 840 85 -400 160/13 RMK AO2 P0000
14837KMSN MSN20031208013010512/08/03 01:30:31  5-MIN KMSN 080730Z 17012KT 7SM -RA OVC049 03/01 A2995 840 85 -400 170/12 RMK AO2 P0000
14837KMSN MSN20031208013510512/08/03 01:35:31  5-MIN KMSN 080735Z 17011KT 6SM -RA OVC055 03/01 A2995 840 85 -400 170/11 RMK AO2 P0000
14837KMSN MSN20031208014010512/08/03 01:40:31  5-MIN KMSN 080740Z 17010KT 6SM -RA OVC055 03/01 A2995 840 85 -400 170/10 RMK AO2 P0000
14837KMSN MSN20031208014510512/08/03 01:45:31  5-MIN KMSN 080745Z 17011KT 6SM -RA OVC055 03/01 A2995 840 85 -400 170/11 RMK AO2 P0000
14837KMSN MSN20031208015012212/08/03 01:50:31  5-MIN KMSN 080750Z 17011KT 6SM -RA OVC055 03/01 A2995 840 85 -400 170/11 RMK AO2 SLP149 P0000 T00280006
14837KMSN MSN20031208015510812/08/03 01:55:31  5-MIN KMSN 080755Z 17010KT 6SM -RA BR OVC055 03/01 A2995 840 85 -400 170/10 RMK AO2 P0000
14837KMSN MSN20031208020010812/08/03 02:00:31  5-MIN KMSN 080800Z 17010KT 6SM -RA BR OVC060 03/01 A2995 840 85 -300 170/10 RMK AO2 P0000
14837KMSN MSN20031208020510812/08/03 02:05:31  5-MIN KMSN 080805Z 17009KT 6SM -RA BR OVC060 03/01 A2995 840 85 -300 170/09 RMK AO2 P0000
14837KMSN MSN20031208021010812/08/03 02:10:31  5-MIN KMSN 080810Z 17008KT 6SM -RA BR OVC060 03/01 A2995 840 85 -300 170/08 RMK AO2 P0000
14837KMSN MSN20031208021511512/08/03 02:15:31  5-MIN KMSN 080815Z 16010KT 6SM -RA BR SCT050 OVC060 03/01 A2994 840 85 -300 160/10 RMK AO2 P0000
14837KMSN MSN20031208022011512/08/03 02:20:31  5-MIN KMSN 080820Z 16009KT 6SM -RA BR BKN050 OVC060 02/01 A2994 840 89 -400 160/09 RMK AO2 P0000
14837KMSN MSN20031208022511512/08/03 02:25:31  5-MIN KMSN 080825Z 17010KT 6SM -RA BR BKN050 OVC060 03/01 A2995 840 85 -300 170/10 RMK AO2 P0000
14837KMSN MSN20031208023010812/08/03 02:30:31  5-MIN KMSN 080830Z 17009KT 6SM -RA BR OVC050 03/01 A2995 840 85 -300 170/09 RMK AO2 P0000
14837KMSN MSN20031208023510812/08/03 02:35:31  5-MIN KMSN 080835Z 16009KT 6SM -RA BR OVC050 03/01 A2995 840 85 -300 160/09 RMK AO2 P0000
14837KMSN MSN20031208024010812/08/03 02:40:31  5-MIN KMSN 080840Z 16009KT 6SM -RA BR OVC050 03/01 A2994 840 85 -300 160/09 RMK AO2 P0000
14837KMSN MSN20031208024510812/08/03 02:45:31  5-MIN KMSN 080845Z 15012KT 6SM -RA BR OVC050 02/01 A2994 840 89 -400 150/12 RMK AO2 P0000
14837KMSN MSN20031208025013712/08/03 02:50:31  5-MIN KMSN 080850Z 15012KT 6SM -RA BR OVC050 02/01 A2994 850 89 -400 150/12 RMK AO2 SLP146 P0000 60000 T00220006 52001
14837KMSN MSN20031208025510812/08/03 02:55:31  5-MIN KMSN 080855Z 15013KT 6SM -RA BR OVC050 02/01 A2994 850 89 -400 150/13 RMK AO2 P0000
14837KMSN MSN20031208030010812/08/03 03:00:31  5-MIN KMSN 080900Z 14012KT 6SM -RA BR OVC050 02/01 A2993 850 89 -400 140/12 RMK AO2 P0000
14837KMSN MSN20031208030510812/08/03 03:05:31  5-MIN KMSN 080905Z 14010KT 6SM -RA BR OVC050 02/01 A2993 860 89 -400 140/10 RMK AO2 P0000
14837KMSN MSN20031208031010812/08/03 03:10:31  5-MIN KMSN 080910Z 14012KT 6SM -RA BR OVC055 02/01 A2992 860 89 -400 140/12 RMK AO2 P0000
14837KMSN MSN20031208031510812/08/03 03:15:31  5-MIN KMSN 080915Z 14011KT 6SM -RA BR OVC055 02/01 A2992 860 89 -400 140/11 RMK AO2 P0000
14837KMSN MSN20031208032010812/08/03 03:20:31  5-MIN KMSN 080920Z 14011KT 6SM -RA BR OVC055 02/01 A2992 870 89 -400 140/11 RMK AO2 P0000
14837KMSN MSN20031208032510812/08/03 03:25:31  5-MIN KMSN 080925Z 14009KT 6SM -RA BR OVC055 02/01 A2992 870 89 -400 140/09 RMK AO2 P0000
14837KMSN MSN20031208033010812/08/03 03:30:31  5-MIN KMSN 080930Z 14010KT 6SM -RA BR OVC055 02/01 A2992 870 89 -400 140/10 RMK AO2 P0000
14837KMSN MSN20031208033510812/08/03 03:35:31  5-MIN KMSN 080935Z 14009KT 6SM -RA BR OVC060 02/01 A2992 870 89 -400 140/09 RMK AO2 P0000
14837KMSN MSN20031208034010812/08/03 03:40:31  5-MIN KMSN 080940Z 14009KT 6SM -RA BR OVC060 02/01 A2992 870 89 -400 130/09 RMK AO2 P0000
14837KMSN MSN20031208034510812/08/03 03:45:31  5-MIN KMSN 080945Z 14009KT 6SM -RA BR OVC060 02/01 A2992 870 89 -400 140/09 RMK AO2 P0000
14837KMSN MSN20031208035012512/08/03 03:50:31  5-MIN KMSN 080950Z 14010KT 6SM -RA BR OVC060 02/01 A2991 870 89 -400 140/10 RMK AO2 SLP137 P0000 T00220006
14837KMSN MSN20031208035510812/08/03 03:55:31  5-MIN KMSN 080955Z 14010KT 6SM -RA BR OVC060 02/01 A2991 870 89 -400 140/10 RMK AO2 P0000
14837KMSN MSN20031208040010812/08/03 04:00:31  5-MIN KMSN 081000Z 14009KT 6SM -RA BR OVC060 02/01 A2991 880 89 -400 140/09 RMK AO2 P0000
14837KMSN MSN20031208040510812/08/03 04:05:31  5-MIN KMSN 081005Z 14009KT 6SM -RA BR OVC060 02/01 A2991 880 89 -400 140/09 RMK AO2 P0000
14837KMSN MSN20031208041010812/08/03 04:10:31  5-MIN KMSN 081010Z 14010KT 6SM -RA BR OVC060 02/01 A2991 880 89 -400 140/10 RMK AO2 P0000
14837KMSN MSN20031208041510812/08/03 04:15:31  5-MIN KMSN 081015Z 14011KT 6SM -RA BR OVC065 02/01 A2991 880 89 -400 140/11 RMK AO2 P0000
14837KMSN MSN20031208042010812/08/03 04:20:31  5-MIN KMSN 081020Z 14009KT 6SM -RA BR OVC065 02/01 A2991 880 89 -400 140/09 RMK AO2 P0000
14837KMSN MSN20031208042510812/08/03 04:25:31  5-MIN KMSN 081025Z 14009KT 6SM -RA BR OVC065 02/01 A2991 880 89 -400 140/09 RMK AO2 P0000
14837KMSN MSN20031208043011012/08/03 04:30:31  5-MIN KMSN 081030Z 15010KT 6SM BR OVC065 02/01 A2991 880 89 -400 140/10 RMK AO2 RAE30 P0000
14837KMSN MSN20031208043511012/08/03 04:35:31  5-MIN KMSN 081035Z 15009KT 6SM BR OVC065 02/00 A2991 880 85 -400 140/09 RMK AO2 RAE30 P0000
14837KMSN MSN20031208044011012/08/03 04:40:31  5-MIN KMSN 081040Z 15010KT 5SM BR OVC065 02/00 A2991 880 85 -400 150/10 RMK AO2 RAE30 P0000
14837KMSN MSN20031208044511012/08/03 04:45:31  5-MIN KMSN 081045Z 15010KT 5SM BR OVC065 02/00 A2990 880 85 -400 150/10 RMK AO2 RAE30 P0000
14837KMSN MSN20031208045012712/08/03 04:50:31  5-MIN KMSN 081050Z 14009KT 6SM BR BKN065 02/00 A2991 880 85 -400 140/09 RMK AO2 RAE30 SLP134 P0000 T00220000
14837KMSN MSN20031208045509812/08/03 04:55:31  5-MIN KMSN 081055Z 15008KT 6SM BR BKN065 02/00 A2991 880 85 -400 140/08 RMK AO2
14837KMSN MSN20031208050009812/08/03 05:00:31  5-MIN KMSN 081100Z 14010KT 6SM BR BKN065 02/00 A2990 880 85 -400 140/10 RMK AO2
14837KMSN MSN20031208050509812/08/03 05:05:31  5-MIN KMSN 081105Z 15009KT 5SM BR BKN065 02/00 A2990 880 85 -400 150/09 RMK AO2
14837KMSN MSN20031208051009812/08/03 05:10:31  5-MIN KMSN 081110Z 15009KT 5SM BR BKN065 02/00 A2991 880 85 -400 150/09 RMK AO2
14837KMSN MSN20031208051509812/08/03 05:15:31  5-MIN KMSN 081115Z 15010KT 5SM BR BKN065 02/00 A2990 880 85 -400 140/10 RMK AO2
14837KMSN MSN20031208052009812/08/03 05:20:31  5-MIN KMSN 081120Z 14010KT 5SM BR OVC070 02/00 A2990 880 85 -400 140/10 RMK AO2
14837KMSN MSN20031208052509812/08/03 05:25:31  5-MIN KMSN 081125Z 14009KT 5SM BR OVC070 02/00 A2990 880 85 -400 140/09 RMK AO2
14837KMSN MSN20031208053009812/08/03 05:30:31  5-MIN KMSN 081130Z 14010KT 6SM BR OVC070 02/00 A2990 880 85 -400 140/10 RMK AO2
14837KMSN MSN20031208053509812/08/03 05:35:31  5-MIN KMSN 081135Z 14009KT 6SM BR OVC070 02/00 A2990 880 85 -400 140/09 RMK AO2
14837KMSN MSN20031208054009812/08/03 05:40:31  5-MIN KMSN 081140Z 14008KT 6SM BR OVC070 02/00 A2990 880 85 -400 140/08 RMK AO2
14837KMSN MSN20031208054509812/08/03 05:45:31  5-MIN KMSN 081145Z 14010KT 6SM BR OVC070 02/00 A2990 880 85 -400 130/10 RMK AO2
14837KMSN MSN20031208055013912/08/03 05:50:31  5-MIN KMSN 081150Z 14009KT 6SM BR OVC075 02/00 A2990 880 85 -400 140/09 RMK AO2 SLP134 60000 T00220000 10033 20022 58005
14837KMSN MSN20031208055509812/08/03 05:55:31  5-MIN KMSN 081155Z 14010KT 6SM BR OVC075 02/00 A2990 880 85 -400 140/10 RMK AO2
14837KMSN MSN20031208060009812/08/03 06:00:31  5-MIN KMSN 081200Z 14010KT 6SM BR OVC075 02/00 A2991 880 85 -400 140/10 RMK AO2
14837KMSN MSN20031208060509812/08/03 06:05:31  5-MIN KMSN 081205Z 15010KT 6SM BR OVC075 02/00 A2991 880 85 -400 150/10 RMK AO2
14837KMSN MSN20031208061009812/08/03 06:10:31  5-MIN KMSN 081210Z 14009KT 6SM BR OVC075 02/00 A2991 880 85 -400 140/09 RMK AO2
14837KMSN MSN20031208061509812/08/03 06:15:31  5-MIN KMSN 081215Z 15010KT 5SM BR OVC075 02/00 A2991 880 85 -400 150/10 RMK AO2
14837KMSN MSN20031208062009812/08/03 06:20:31  5-MIN KMSN 081220Z 15010KT 5SM BR OVC080 02/00 A2991 880 85 -400 150/10 RMK AO2
14837KMSN MSN20031208062509812/08/03 06:25:31  5-MIN KMSN 081225Z 15009KT 5SM BR OVC080 02/00 A2991 880 85 -400 150/09 RMK AO2
14837KMSN MSN20031208063009812/08/03 06:30:31  5-MIN KMSN 081230Z 14008KT 5SM BR OVC080 02/00 A2991 880 85 -400 140/08 RMK AO2
14837KMSN MSN20031208063509812/08/03 06:35:31  5-MIN KMSN 081235Z 15008KT 5SM BR OVC080 02/00 A2991 880 85 -400 140/08 RMK AO2
14837KMSN MSN20031208064009812/08/03 06:40:31  5-MIN KMSN 081240Z 15008KT 5SM BR OVC080 02/00 A2991 880 85 -400 150/08 RMK AO2
14837KMSN MSN20031208064509812/08/03 06:45:31  5-MIN KMSN 081245Z 15009KT 5SM BR OVC080 02/00 A2991 880 85 -400 150/09 RMK AO2
14837KMSN MSN20031208065011512/08/03 06:50:31  5-MIN KMSN 081250Z 15008KT 5SM BR OVC080 02/00 A2991 880 85 -400 150/08 RMK AO2 SLP135 T00220000
14837KMSN MSN20031208065509812/08/03 06:55:31  5-MIN KMSN 081255Z 15009KT 5SM BR OVC080 02/00 A2991 880 85 -400 140/09 RMK AO2
14837KMSN MSN20031208070009812/08/03 07:00:31  5-MIN KMSN 081300Z 15009KT 5SM BR OVC080 02/00 A2991 880 85 -400 150/09 RMK AO2
14837KMSN MSN20031208070509812/08/03 07:05:31  5-MIN KMSN 081305Z 15010KT 5SM BR OVC080 02/00 A2991 880 85 -400 150/10 RMK AO2
14837KMSN MSN20031208071009812/08/03 07:10:31  5-MIN KMSN 081310Z 15009KT 4SM BR OVC080 02/00 A2991 880 89 -400 150/09 RMK AO2
14837KMSN MSN20031208071509812/08/03 07:15:31  5-MIN KMSN 081315Z 14006KT 4SM BR OVC080 02/00 A2991 880 85 -400 140/06 RMK AO2
14837KMSN MSN20031208072009812/08/03 07:20:31  5-MIN KMSN 081320Z 15007KT 4SM BR OVC080 02/00 A2990 880 89 -400 150/07 RMK AO2
14837KMSN MSN20031208072509812/08/03 07:25:31  5-MIN KMSN 081325Z 15007KT 4SM BR OVC080 02/00 A2990 880 85 -400 150/07 RMK AO2
14837KMSN MSN20031208073009812/08/03 07:30:31  5-MIN KMSN 081330Z 15008KT 5SM BR OVC080 02/00 A2990 880 85 -400 150/08 RMK AO2
14837KMSN MSN20031208073509812/08/03 07:35:31  5-MIN KMSN 081335Z 15008KT 5SM BR OVC080 02/00 A2990 880 85 -400 150/08 RMK AO2
14837KMSN MSN20031208074009812/08/03 07:40:31  5-MIN KMSN 081340Z 14009KT 5SM BR OVC080 02/00 A2990 880 85 -400 140/09 RMK AO2
14837KMSN MSN20031208074509812/08/03 07:45:31  5-MIN KMSN 081345Z 14007KT 5SM BR OVC085 02/00 A2990 880 85 -400 140/07 RMK AO2
14837KMSN MSN20031208075011512/08/03 07:50:31  5-MIN KMSN 081350Z 15007KT 5SM BR OVC085 02/00 A2990 880 85 -400 140/07 RMK AO2 SLP133 T00220000
14837KMSN MSN20031208075510512/08/03 07:55:31  5-MIN KMSN 081355Z 15008KT 5SM BR FEW070 OVC085 02/00 A2990 880 85 -400 150/08 RMK AO2
14837KMSN MSN20031208080010512/08/03 08:00:31  5-MIN KMSN 081400Z 15008KT 5SM BR BKN070 OVC085 02/00 A2990 890 85 -400 150/08 RMK AO2
14837KMSN MSN20031208080510512/08/03 08:05:31  5-MIN KMSN 081405Z 15008KT 4SM BR BKN070 OVC085 02/00 A2990 890 85 -400 150/08 RMK AO2
14837KMSN MSN20031208081010512/08/03 08:10:31  5-MIN KMSN 081410Z 14009KT 4SM BR BKN070 OVC085 02/00 A2990 890 85 -400 140/09 RMK AO2
14837KMSN MSN20031208081509812/08/03 08:15:31  5-MIN KMSN 081415Z 15008KT 4SM BR OVC070 02/00 A2990 880 85 -400 150/08 RMK AO2
14837KMSN MSN20031208082009812/08/03 08:20:31  5-MIN KMSN 081420Z 14007KT 4SM BR OVC070 02/00 A2990 880 85 -400 140/07 RMK AO2
14837KMSN MSN20031208082509812/08/03 08:25:31  5-MIN KMSN 081425Z 14008KT 4SM BR OVC070 02/00 A2990 880 85 -400 140/08 RMK AO2
14837KMSN MSN20031208083009812/08/03 08:30:31  5-MIN KMSN 081430Z 15009KT 5SM BR OVC070 02/00 A2990 880 85 -400 150/09 RMK AO2
14837KMSN MSN20031208083509812/08/03 08:35:31  5-MIN KMSN 081435Z 14009KT 5SM BR OVC070 02/00 A2990 880 85 -400 140/09 RMK AO2
14837KMSN MSN20031208084009812/08/03 08:40:31  5-MIN KMSN 081440Z 15008KT 5SM BR OVC070 02/00 A2990 880 85 -400 140/08 RMK AO2
14837KMSN MSN20031208084509812/08/03 08:45:31  5-MIN KMSN 081445Z 15009KT 5SM BR OVC070 02/00 A2990 880 85 -400 140/09 RMK AO2
14837KMSN MSN20031208085012112/08/03 08:50:31  5-MIN KMSN 081450Z 15010KT 5SM BR BKN070 02/00 A2990 880 85 -400 150/10 RMK AO2 SLP133 T00220000 56011
14837KMSN MSN20031208085509812/08/03 08:55:31  5-MIN KMSN 081455Z 15009KT 5SM BR BKN070 02/00 A2990 890 85 -400 150/09 RMK AO2
14837KMSN MSN20031208090009812/08/03 09:00:31  5-MIN KMSN 081500Z 15010KT 5SM BR SCT070 02/00 A2989 890 85 -400 150/10 RMK AO2
14837KMSN MSN20031208090509812/08/03 09:05:31  5-MIN KMSN 081505Z 15009KT 5SM BR BKN070 02/00 A2989 890 85 -400 150/09 RMK AO2
14837KMSN MSN20031208091010512/08/03 09:10:31  5-MIN KMSN 081510Z 15008KT 5SM BR SCT065 BKN120 02/00 A2989 890 85 -400 150/08 RMK AO2
14837KMSN MSN20031208091510512/08/03 09:15:31  5-MIN KMSN 081515Z 15008KT 5SM BR SCT065 BKN120 02/00 A2989 890 85 -400 150/08 RMK AO2
14837KMSN MSN20031208092010512/08/03 09:20:31  5-MIN KMSN 081520Z 15010KT 5SM BR SCT065 BKN120 02/00 A2989 890 85 -400 150/10 RMK AO2
14837KMSN MSN20031208092509812/08/03 09:25:31  5-MIN KMSN 081525Z 15010KT 5SM BR BKN120 02/00 A2989 890 85 -400 150/10 RMK AO2
14837KMSN MSN20031208093009812/08/03 09:30:31  5-MIN KMSN 081530Z 15011KT 5SM BR BKN120 02/00 A2989 890 85 -400 150/11 RMK AO2
14837KMSN MSN20031208093509812/08/03 09:35:31  5-MIN KMSN 081535Z 15010KT 5SM BR BKN120 02/00 A2989 890 85 -400 150/10 RMK AO2
14837KMSN MSN20031208094009812/08/03 09:40:31  5-MIN KMSN 081540Z 15011KT 5SM BR BKN120 02/00 A2989 890 85 -400 150/11 RMK AO2
14837KMSN MSN20031208094509812/08/03 09:45:31  5-MIN KMSN 081545Z 15010KT 5SM BR BKN120 02/00 A2989 890 85 -400 150/10 RMK AO2
14837KMSN MSN20031208095011512/08/03 09:50:31  5-MIN KMSN 081550Z 14010KT 5SM HZ BKN120 03/00 A2989 890 82 -300 140/10 RMK AO2 SLP129 T00280000
14837KMSN MSN20031208095511212/08/03 09:55:31  5-MIN KMSN 081555Z 15009KT 5SM HZ SCT049 BKN065 OVC120 03/00 A2989 890 82 -300 150/09 RMK AO2
14837KMSN MSN20031208100012712/08/03 10:00:31  5-MIN KMSN 081600Z 16009KT 5SM -RA SCT049 BKN065 OVC120 03/01 A2989 890 85 -300 160/09 RMK AO2 RAB1559 P0000
14837KMSN MSN20031208100512212/08/03 10:05:31  5-MIN KMSN 081605Z 15009KT 5SM HZ SCT055 BKN120 03/01 A2989 890 82 -200 150/09 RMK AO2 RAB1559E05 P0000
14837KMSN MSN20031208101012212/08/03 10:10:31  5-MIN KMSN 081610Z 15009KT 6SM HZ SCT055 BKN120 03/01 A2989 890 82 -200 150/09 RMK AO2 RAB1559E05 P0000
14837KMSN MSN20031208101512212/08/03 10:15:31  5-MIN KMSN 081615Z 15008KT 5SM HZ SCT060 BKN075 04/01 A2989 890 82 -100 150/08 RMK AO2 RAB1559E05 P0000
14837KMSN MSN20031208102011512/08/03 10:20:31  5-MIN KMSN 081620Z 15012KT 5SM HZ BKN075 04/01 A2989 890 79 -100 150/12 RMK AO2 RAB1559E05 P0000
14837KMSN MSN20031208102511512/08/03 10:25:31  5-MIN KMSN 081625Z 15009KT 6SM HZ BKN075 04/01 A2989 900 79 -100 150/09 RMK AO2 RAB1559E05 P0000
14837KMSN MSN20031208103011612/08/03 10:30:31  5-MIN KMSN 081630Z 16013KT 7SM FEW065 OVC080 05/01 A2988 900 76 0 160/13 RMK AO2 RAB1559E05 P0000
14837KMSN MSN20031208103511612/08/03 10:35:31  5-MIN KMSN 081635Z 16012KT 7SM FEW065 OVC080 05/01 A2988 900 76 0 160/12 RMK AO2 RAB1559E05 P0000
14837KMSN MSN20031208104010912/08/03 10:40:31  5-MIN KMSN 081640Z 15012KT 7SM OVC080 05/01 A2988 900 76 0 150/12 RMK AO2 RAB1559E05 P0000
14837KMSN MSN20031208104510912/08/03 10:45:31  5-MIN KMSN 081645Z 15011KT 7SM BKN080 05/01 A2988 900 76 0 150/11 RMK AO2 RAB1559E05 P0000
14837KMSN MSN20031208105012912/08/03 10:50:31  5-MIN KMSN 081650Z 17010KT 7SM BKN080 04/01 A2988 900 76 -100 170/10 RMK AO2 RAB1559E05 SLP126 P0000 T00440006
14837KMSN MSN20031208105510912/08/03 10:55:31  5-MIN KMSN 081655Z 17009KT 7SM FEW020 BKN080 BKN120 04/01 A2988 900 76 -100 170/09 RMK AO2
14837KMSN MSN20031208110011212/08/03 11:00:31  5-MIN KMSN 081700Z 18012KT 6SM HZ FEW020 BKN080 BKN120 04/01 A2988 900 76 -100 170/12 RMK AO2
14837KMSN MSN20031208110510512/08/03 11:05:31  5-MIN KMSN 081705Z 17010KT 6SM HZ FEW080 BKN120 04/01 A2988 900 79 -100 170/10 RMK AO2
14837KMSN MSN20031208111010212/08/03 11:10:31  5-MIN KMSN 081710Z 16011KT 7SM FEW080 BKN120 04/01 A2988 900 79 -100 160/11 RMK AO2
14837KMSN MSN20031208111510212/08/03 11:15:31  5-MIN KMSN 081715Z 16012KT 7SM FEW080 BKN120 04/01 A2988 910 79 -100 160/12 RMK AO2
14837KMSN MSN20031208112010212/08/03 11:20:31  5-MIN KMSN 081720Z 18011KT 7SM FEW080 BKN120 04/01 A2987 910 76 -100 180/11 RMK AO2
14837KMSN MSN20031208112510212/08/03 11:25:31  5-MIN KMSN 081725Z 16012KT 7SM FEW015 SCT070 04/01 A2987 910 76 -100 160/12 RMK AO2
14837KMSN MSN20031208113010512/08/03 11:30:31  5-MIN KMSN 081730Z 18011KT 6SM HZ FEW015 BKN070 04/01 A2987 910 76 -100 170/11 RMK AO2
14837KMSN MSN20031208113510512/08/03 11:35:31  5-MIN KMSN 081735Z 17011KT 6SM HZ FEW015 BKN070 04/01 A2987 910 76 -100 170/11 RMK AO2
14837KMSN MSN20031208114010512/08/03 11:40:31  5-MIN KMSN 081740Z 18011KT 6SM HZ FEW015 BKN070 04/01 A2987 910 76 -100 180/11 RMK AO2
14837KMSN MSN20031208114510512/08/03 11:45:31  5-MIN KMSN 081745Z 17009KT 6SM HZ FEW015 OVC070 04/01 A2987 910 76 -100 170/09 RMK AO2
14837KMSN MSN20031208115014612/08/03 11:50:31  5-MIN KMSN 081750Z 17010KT 6SM HZ FEW015 OVC070 04/01 A2987 920 79 -100 170/10 RMK AO2 SLP121 60000 T00440011 10050 20017 58002
14837KMSN MSN20031208115510212/08/03 11:55:31  5-MIN KMSN 081755Z 18008KT 6SM HZ FEW015 OVC070 04/01 A2986 920 76 0 180/08 RMK AO2
14837KMSN MSN20031208120010212/08/03 12:00:31  5-MIN KMSN 081800Z 17010KT 6SM HZ SCT015 OVC070 04/01 A2986 920 76 0 170/10 RMK AO2
14837KMSN MSN20031208120509912/08/03 12:05:31  5-MIN KMSN 081805Z 18010KT 7SM SCT015 OVC070 04/01 A2986 920 76 0 180/10 RMK AO2
14837KMSN MSN20031208121010612/08/03 12:10:31  5-MIN KMSN 081810Z 16011KT 7SM SCT015 BKN050 OVC070 04/01 A2985 930 76 0 160/11 RMK AO2
14837KMSN MSN20031208121510912/08/03 12:15:31  5-MIN KMSN 081815Z 16011KT 6SM HZ BKN015 BKN050 OVC070 04/01 A2985 930 76 0 160/11 RMK AO2
14837KMSN MSN20031208122010612/08/03 12:20:31  5-MIN KMSN 081820Z 16009KT 7SM SCT015 BKN050 OVC070 04/01 A2985 930 76 0 160/09 RMK AO2
14837KMSN MSN20031208122510612/08/03 12:25:31  5-MIN KMSN 081825Z 17009KT 7SM SCT015 SCT050 OVC070 04/01 A2985 930 79 0 170/09 RMK AO2
14837KMSN MSN20031208123010612/08/03 12:30:31  5-MIN KMSN 081830Z 17009KT 7SM FEW015 SCT050 OVC070 04/01 A2984 940 76 0 170/09 RMK AO2
14837KMSN MSN20031208123510612/08/03 12:35:31  5-MIN KMSN 081835Z 17011KT 7SM FEW015 BKN050 OVC070 04/01 A2984 940 76 0 170/11 RMK AO2
14837KMSN MSN20031208124010612/08/03 12:40:31  5-MIN KMSN 081840Z 17008KT 7SM FEW015 BKN050 OVC070 04/01 A2984 940 76 0 170/08 RMK AO2
14837KMSN MSN20031208124509912/08/03 12:45:31  5-MIN KMSN 081845Z 16007KT 7SM BKN050 OVC070 04/01 A2984 940 76 0 160/07 RMK AO2
14837KMSN MSN20031208125011612/08/03 12:50:31  5-MIN KMSN 081850Z 16007KT 7SM BKN050 OVC070 05/01 A2984 940 76 0 160/07 RMK AO2 SLP110 T00500011
14837KMSN MSN20031208125509212/08/03 12:55:31  5-MIN KMSN 081855Z 17007KT 7SM OVC050 04/01 A2984 940 76 0 170/07 RMK AO2
14837KMSN MSN20031208130009212/08/03 13:00:31  5-MIN KMSN 081900Z 15009KT 7SM OVC050 04/01 A2984 940 76 0 150/09 RMK AO2
14837KMSN MSN20031208130509212/08/03 13:05:31  5-MIN KMSN 081905Z 15008KT 8SM OVC050 04/01 A2984 940 76 0 150/08 RMK AO2
14837KMSN MSN20031208131009212/08/03 13:10:31  5-MIN KMSN 081910Z 16009KT 8SM OVC050 04/01 A2984 940 76 0 160/09 RMK AO2
14837KMSN MSN20031208131509212/08/03 13:15:31  5-MIN KMSN 081915Z 17007KT 8SM OVC055 04/01 A2984 940 76 0 170/07 RMK AO2
14837KMSN MSN20031208132009212/08/03 13:20:31  5-MIN KMSN 081920Z 15007KT 8SM OVC050 04/01 A2984 940 76 0 150/07 RMK AO2
14837KMSN MSN20031208132509212/08/03 13:25:31  5-MIN KMSN 081925Z 15007KT 8SM OVC050 04/01 A2983 940 76 0 140/07 RMK AO2
14837KMSN MSN20031208133009212/08/03 13:30:31  5-MIN KMSN 081930Z 16007KT 8SM OVC050 05/01 A2983 950 73 0 160/07 RMK AO2
14837KMSN MSN20031208133509212/08/03 13:35:31  5-MIN KMSN 081935Z 16007KT 8SM OVC050 05/01 A2983 950 73 0 160/07 RMK AO2
14837KMSN MSN20031208134009212/08/03 13:40:31  5-MIN KMSN 081940Z 15006KT 8SM OVC050 05/01 A2983 950 73 0 150/06 RMK AO2
14837KMSN MSN20031208134509212/08/03 13:45:31  5-MIN KMSN 081945Z 16007KT 8SM OVC050 05/01 A2983 950 73 0 160/07 RMK AO2
14837KMSN MSN20031208135010912/08/03 13:50:31  5-MIN KMSN 081950Z 15008KT 8SM OVC050 05/01 A2983 950 73 0 150/08 RMK AO2 SLP109 T00500006
14837KMSN MSN20031208135509212/08/03 13:55:31  5-MIN KMSN 081955Z 14008KT 8SM OVC050 04/01 A2983 950 76 0 140/08 RMK AO2
14837KMSN MSN20031208140009212/08/03 14:00:31  5-MIN KMSN 082000Z 15006KT 8SM OVC050 05/01 A2983 950 73 0 150/06 RMK AO2
14837KMSN MSN20031208140509212/08/03 14:05:31  5-MIN KMSN 082005Z 15006KT 8SM OVC050 04/01 A2983 950 76 0 150/06 RMK AO2
14837KMSN MSN20031208141009212/08/03 14:10:31  5-MIN KMSN 082010Z 16007KT 8SM OVC050 04/01 A2983 950 76 0 160/07 RMK AO2
14837KMSN MSN20031208141509212/08/03 14:15:31  5-MIN KMSN 082015Z 13007KT 8SM OVC050 04/01 A2983 950 76 0 130/07 RMK AO2
14837KMSN MSN20031208142009212/08/03 14:20:31  5-MIN KMSN 082020Z 17008KT 8SM OVC050 04/01 A2983 940 76 0 160/08 RMK AO2
14837KMSN MSN20031208142509212/08/03 14:25:31  5-MIN KMSN 082025Z 15007KT 8SM OVC050 04/01 A2983 950 76 0 150/07 RMK AO2
14837KMSN MSN20031208143009212/08/03 14:30:31  5-MIN KMSN 082030Z 16007KT 8SM OVC050 04/01 A2984 940 76 0 160/07 RMK AO2
14837KMSN MSN20031208143509212/08/03 14:35:31  5-MIN KMSN 082035Z 16006KT 8SM OVC055 04/01 A2984 940 76 0 160/06 RMK AO2
14837KMSN MSN20031208144009212/08/03 14:40:31  5-MIN KMSN 082040Z 16006KT 8SM OVC055 04/01 A2984 940 76 0 160/06 RMK AO2
14837KMSN MSN20031208144509212/08/03 14:45:31  5-MIN KMSN 082045Z 17005KT 8SM OVC055 04/01 A2984 940 76 0 170/05 RMK AO2
14837KMSN MSN20031208145011512/08/03 14:50:31  5-MIN KMSN 082050Z 13006KT 8SM OVC055 04/01 A2984 940 76 0 130/06 RMK AO2 SLP111 T00440006 58012
14837KMSN MSN20031208145509212/08/03 14:55:31  5-MIN KMSN 082055Z 12006KT 8SM OVC055 04/01 A2984 940 76 0 120/06 RMK AO2
14837KMSN MSN20031208150009212/08/03 15:00:31  5-MIN KMSN 082100Z 13006KT 8SM OVC060 04/01 A2984 940 76 0 130/06 RMK AO2
14837KMSN MSN20031208150509212/08/03 15:05:31  5-MIN KMSN 082105Z 15004KT 8SM OVC060 04/01 A2984 940 76 0 150/04 RMK AO2
14837KMSN MSN20031208151009212/08/03 15:10:31  5-MIN KMSN 082110Z 15004KT 8SM OVC060 04/01 A2984 940 76 0 150/04 RMK AO2
14837KMSN MSN20031208151509212/08/03 15:15:31  5-MIN KMSN 082115Z 14006KT 8SM OVC060 04/01 A2984 940 76 0 130/06 RMK AO2
14837KMSN MSN20031208152009212/08/03 15:20:31  5-MIN KMSN 082120Z 12006KT 8SM OVC060 04/01 A2984 940 76 0 120/06 RMK AO2
14837KMSN MSN20031208152509212/08/03 15:25:31  5-MIN KMSN 082125Z 13007KT 8SM OVC060 04/01 A2984 930 76 0 130/07 RMK AO2
14837KMSN MSN20031208153009212/08/03 15:30:31  5-MIN KMSN 082130Z 12005KT 8SM OVC060 04/01 A2984 940 76 0 120/05 RMK AO2
14837KMSN MSN20031208153509212/08/03 15:35:31  5-MIN KMSN 082135Z 12006KT 7SM OVC060 04/01 A2984 940 76 0 120/06 RMK AO2
14837KMSN MSN20031208154009212/08/03 15:40:31  5-MIN KMSN 082140Z 11006KT 7SM OVC060 04/01 A2984 940 76 0 110/06 RMK AO2
14837KMSN MSN20031208154509212/08/03 15:45:31  5-MIN KMSN 082145Z 10006KT 7SM OVC060 04/01 A2984 940 79 0 100/06 RMK AO2
14837KMSN MSN20031208155011212/08/03 15:50:31  5-MIN KMSN 082150Z 11006KT 7SM HZ OVC060 04/01 A2984 940 79 0 110/06 RMK AO2 SLP113 T00440011
14837KMSN MSN20031208155509212/08/03 15:55:31  5-MIN KMSN 082155Z 12006KT 7SM OVC060 04/01 A2984 940 79 0 110/06 RMK AO2
14837KMSN MSN20031208160009212/08/03 16:00:31  5-MIN KMSN 082200Z 11006KT 7SM OVC060 04/01 A2984 930 79 0 110/06 RMK AO2
14837KMSN MSN20031208160509212/08/03 16:05:31  5-MIN KMSN 082205Z 12007KT 7SM OVC060 04/01 A2985 930 79 0 120/07 RMK AO2
14837KMSN MSN20031208161009912/08/03 16:10:31  5-MIN KMSN 082210Z 12007KT 7SM FEW018 OVC065 04/01 A2985 930 79 0 120/07 RMK AO2
14837KMSN MSN20031208161509912/08/03 16:15:31  5-MIN KMSN 082215Z 12005KT 7SM SCT018 OVC065 04/01 A2985 930 79 0 120/05 RMK AO2
14837KMSN MSN20031208162009912/08/03 16:20:31  5-MIN KMSN 082220Z 12009KT 7SM SCT018 OVC065 04/01 A2985 930 76 0 120/09 RMK AO2
14837KMSN MSN20031208162510212/08/03 16:25:31  5-MIN KMSN 082225Z 12008KT 5SM HZ FEW018 OVC065 04/01 A2985 930 76 0 120/08 RMK AO2
14837KMSN MSN20031208163010212/08/03 16:30:31  5-MIN KMSN 082230Z 12007KT 4SM HZ FEW018 OVC065 04/01 A2985 930 76 0 120/07 RMK AO2
14837KMSN MSN20031208163510212/08/03 16:35:31  5-MIN KMSN 082235Z 12008KT 4SM HZ FEW018 OVC065 04/01 A2985 930 76 0 120/08 RMK AO2
14837KMSN MSN20031208164010212/08/03 16:40:31  5-MIN KMSN 082240Z 12008KT 4SM HZ FEW018 OVC065 04/01 A2985 930 76 0 120/08 RMK AO2
14837KMSN MSN20031208164509812/08/03 16:45:31  5-MIN KMSN 082245Z 13007KT 4SM HZ OVC065 04/01 A2985 930 79 -100 130/07 RMK AO2
14837KMSN MSN20031208165011512/08/03 16:50:31  5-MIN KMSN 082250Z 13007KT 4SM HZ OVC065 04/01 A2985 930 79 -100 130/07 RMK AO2 SLP116 T00390006
14837KMSN MSN20031208165509812/08/03 16:55:31  5-MIN KMSN 082255Z 13006KT 6SM HZ OVC065 04/01 A2985 930 79 -100 130/06 RMK AO2
14837KMSN MSN20031208170009812/08/03 17:00:31  5-MIN KMSN 082300Z 14005KT 6SM HZ OVC065 04/01 A2986 920 79 -100 140/05 RMK AO2
14837KMSN MSN20031208170509512/08/03 17:05:31  5-MIN KMSN 082305Z 14006KT 6SM HZ OVC065 04/01 A2985 930 76 0 140/06 RMK AO2
14837KMSN MSN20031208171009812/08/03 17:10:31  5-MIN KMSN 082310Z 13006KT 6SM HZ OVC065 04/01 A2985 930 79 -100 130/06 RMK AO2
14837KMSN MSN20031208171509812/08/03 17:15:31  5-MIN KMSN 082315Z 12004KT 6SM HZ OVC065 04/01 A2985 930 79 -100 120/04 RMK AO2
14837KMSN MSN20031208172009512/08/03 17:20:31  5-MIN KMSN 082320Z 12005KT 7SM OVC065 04/01 A2986 920 79 -100 120/05 RMK AO2
14837KMSN MSN20031208172509512/08/03 17:25:31  5-MIN KMSN 082325Z 13004KT 7SM OVC065 04/01 A2986 920 79 -100 130/04 RMK AO2
14837KMSN MSN20031208173009512/08/03 17:30:31  5-MIN KMSN 082330Z 13004KT 7SM OVC065 04/01 A2986 920 79 -100 130/04 RMK AO2
14837KMSN MSN20031208173509512/08/03 17:35:31  5-MIN KMSN 082335Z 13005KT 7SM OVC065 04/01 A2986 920 79 -100 120/05 RMK AO2
14837KMSN MSN20031208174009512/08/03 17:40:31  5-MIN KMSN 082340Z 13005KT 7SM OVC065 04/01 A2986 920 79 -100 130/05 RMK AO2
14837KMSN MSN20031208174509512/08/03 17:45:31  5-MIN KMSN 082345Z 11005KT 7SM OVC065 04/01 A2986 920 79 -100 110/05 RMK AO2
14837KMSN MSN20031208175013012/08/03 17:50:31  5-MIN KMSN 082350Z 12004KT 8SM OVC065 04/01 A2986 920 79 -100 110/04 RMK AO2 SLP119 T00390006 10050 20039 55009
14837KMSN MSN20031208175509512/08/03 17:55:31  5-MIN KMSN 082355Z 12004KT 8SM OVC065 04/01 A2986 920 79 -100 120/04 RMK AO2
14837KMSN MSN20031208180009512/08/03 18:00:31  5-MIN KMSN 090000Z 13005KT 8SM OVC065 04/01 A2986 920 79 -100 130/05 RMK AO2
14837KMSN MSN20031208180509512/08/03 18:05:31  5-MIN KMSN 090005Z 12004KT 8SM OVC065 04/01 A2986 920 79 -100 120/04 RMK AO2
14837KMSN MSN20031208181009512/08/03 18:10:31  5-MIN KMSN 090010Z 12004KT 8SM OVC065 04/01 A2986 920 79 -100 120/04 RMK AO2
14837KMSN MSN20031208181509512/08/03 18:15:31  5-MIN KMSN 090015Z 12004KT 8SM OVC065 03/01 A2986 920 82 -200 120/04 RMK AO2
14837KMSN MSN20031208182009512/08/03 18:20:31  5-MIN KMSN 090020Z 12004KT 8SM OVC065 03/01 A2986 920 82 -200 120/04 RMK AO2
14837KMSN MSN20031208182509512/08/03 18:25:31  5-MIN KMSN 090025Z 12005KT 8SM BKN065 03/01 A2986 920 82 -200 120/05 RMK AO2
14837KMSN MSN20031208183009512/08/03 18:30:31  5-MIN KMSN 090030Z 13005KT 8SM BKN065 04/01 A2987 910 79 -100 120/05 RMK AO2
14837KMSN MSN20031208183509512/08/03 18:35:31  5-MIN KMSN 090035Z 13005KT 8SM BKN065 03/01 A2987 910 82 -200 120/05 RMK AO2
14837KMSN MSN20031208184009512/08/03 18:40:31  5-MIN KMSN 090040Z 13004KT 8SM BKN065 03/01 A2987 910 82 -200 130/04 RMK AO2
14837KMSN MSN20031208184509512/08/03 18:45:31  5-MIN KMSN 090045Z 13005KT 8SM BKN065 03/01 A2987 910 82 -200 130/05 RMK AO2
14837KMSN MSN20031208185011912/08/03 18:50:31  5-MIN KMSN 090050Z 13005KT 8SM FEW021 OVC065 03/01 A2987 910 82 -200 130/05 RMK AO2 SLP123 T00330006
14837KMSN MSN20031208185510212/08/03 18:55:31  5-MIN KMSN 090055Z 13005KT 8SM FEW021 OVC065 03/01 A2987 910 82 -200 130/05 RMK AO2
14837KMSN MSN20031208190010212/08/03 19:00:31  5-MIN KMSN 090100Z 13005KT 8SM FEW021 OVC065 04/01 A2987 910 79 -100 130/05 RMK AO2
14837KMSN MSN20031208190510212/08/03 19:05:31  5-MIN KMSN 090105Z 15005KT 8SM SCT021 OVC065 03/01 A2988 910 82 -200 150/05 RMK AO2
14837KMSN MSN20031208191010212/08/03 19:10:31  5-MIN KMSN 090110Z 15007KT 8SM BKN021 OVC065 04/01 A2988 910 79 -100 150/07 RMK AO2
14837KMSN MSN20031208191510212/08/03 19:15:31  5-MIN KMSN 090115Z 14006KT 8SM BKN021 OVC065 04/01 A2988 910 79 -100 140/06 RMK AO2
14837KMSN MSN20031208192010212/08/03 19:20:31  5-MIN KMSN 090120Z 14006KT 8SM BKN021 OVC065 04/01 A2988 910 79 -100 130/06 RMK AO2
14837KMSN MSN20031208192510212/08/03 19:25:31  5-MIN KMSN 090125Z 14007KT 8SM BKN021 OVC065 04/01 A2988 900 79 -100 140/07 RMK AO2
14837KMSN MSN20031208193009512/08/03 19:30:31  5-MIN KMSN 090130Z 14007KT 8SM OVC021 04/01 A2988 900 79 -100 140/07 RMK AO2
14837KMSN MSN20031208193509512/08/03 19:35:31  5-MIN KMSN 090135Z 13006KT 8SM OVC021 04/01 A2988 900 79 -100 130/06 RMK AO2
14837KMSN MSN20031208194009512/08/03 19:40:31  5-MIN KMSN 090140Z 13006KT 8SM BKN021 03/01 A2988 900 82 -200 130/06 RMK AO2
14837KMSN MSN20031208194509512/08/03 19:45:31  5-MIN KMSN 090145Z 14006KT 8SM BKN021 03/01 A2988 900 82 -200 140/06 RMK AO2
14837KMSN MSN20031208195011212/08/03 19:50:31  5-MIN KMSN 090150Z 13006KT 8SM BKN021 03/01 A2988 900 82 -200 130/06 RMK AO2 SLP125 T00330006
14837KMSN MSN20031208195510212/08/03 19:55:31  5-MIN KMSN 090155Z 13005KT 8SM BKN021 OVC065 03/01 A2988 900 82 -200 130/05 RMK AO2
14837KMSN MSN20031208200010212/08/03 20:00:31  5-MIN KMSN 090200Z 13005KT 8SM BKN021 BKN065 03/01 A2988 900 82 -200 130/05 RMK AO2
14837KMSN MSN20031208200510212/08/03 20:05:31  5-MIN KMSN 090205Z 13006KT 8SM BKN021 BKN065 03/01 A2988 900 82 -200 130/06 RMK AO2
14837KMSN MSN20031208201010212/08/03 20:10:31  5-MIN KMSN 090210Z 13004KT 8SM BKN021 BKN065 03/01 A2988 900 82 -200 120/04 RMK AO2
14837KMSN MSN20031208201510212/08/03 20:15:31  5-MIN KMSN 090215Z 12004KT 8SM BKN021 BKN065 03/01 A2988 900 85 -300 120/04 RMK AO2
14837KMSN MSN20031208202010212/08/03 20:20:31  5-MIN KMSN 090220Z 13004KT 8SM FEW021 BKN065 03/00 A2988 900 82 -300 130/04 RMK AO2
14837KMSN MSN20031208202510212/08/03 20:25:31  5-MIN KMSN 090225Z 12004KT 8SM FEW021 BKN065 03/00 A2988 900 82 -300 120/04 RMK AO2
14837KMSN MSN20031208203010212/08/03 20:30:31  5-MIN KMSN 090230Z 13005KT 8SM FEW021 BKN065 03/00 A2988 900 82 -300 130/05 RMK AO2
14837KMSN MSN20031208203509512/08/03 20:35:31  5-MIN KMSN 090235Z 12004KT 8SM BKN060 03/00 A2988 900 82 -300 120/04 RMK AO2
14837KMSN MSN20031208204009512/08/03 20:40:31  5-MIN KMSN 090240Z 12004KT 8SM BKN060 03/00 A2988 900 82 -300 120/04 RMK AO2
14837KMSN MSN20031208204509512/08/03 20:45:31  5-MIN KMSN 090245Z 12004KT 8SM BKN060 02/00 A2988 900 85 -300 120/04 RMK AO2
14837KMSN MSN20031208205011812/08/03 20:50:31  5-MIN KMSN 090250Z 13003KT 8SM BKN060 02/00 A2988 900 89 -400 130/03 RMK AO2 SLP127 T00170000 53008
14837KMSN MSN20031208205510312/08/03 20:55:31  5-MIN KMSN 090255Z 12003KT 8SM FEW019 BKN060 02/M01 A2988 900 85 -400 120/03 RMK AO2
14837KMSN MSN20031208210010212/08/03 21:00:31  5-MIN KMSN 090300Z 12004KT 8SM FEW019 BKN060 02/00 A2988 900 85 -300 120/04 RMK AO2
14837KMSN MSN20031208210510212/08/03 21:05:31  5-MIN KMSN 090305Z 13003KT 8SM FEW019 BKN060 02/00 A2988 900 85 -300 130/03 RMK AO2
14837KMSN MSN20031208211010312/08/03 21:10:31  5-MIN KMSN 090310Z 00000KT 8SM FEW019 BKN060 02/M01 A2988 900 85 -400 000/00 RMK AO2
14837KMSN MSN20031208211510312/08/03 21:15:31  5-MIN KMSN 090315Z 00000KT 8SM FEW019 BKN060 02/M01 A2988 900 85 -400 000/00 RMK AO2
14837KMSN MSN20031208212010212/08/03 21:20:31  5-MIN KMSN 090320Z 00000KT 8SM FEW019 BKN060 02/00 A2988 900 85 -300 000/00 RMK AO2
14837KMSN MSN20031208212510212/08/03 21:25:31  5-MIN KMSN 090325Z 00000KT 8SM BKN019 BKN060 02/00 A2988 900 85 -300 000/00 RMK AO2
14837KMSN MSN20031208213010212/08/03 21:30:31  5-MIN KMSN 090330Z 00000KT 8SM BKN019 BKN060 02/00 A2988 900 85 -300 000/00 RMK AO2
14837KMSN MSN20031208213510212/08/03 21:35:31  5-MIN KMSN 090335Z 00000KT 8SM BKN019 BKN060 02/00 A2989 900 85 -300 000/00 RMK AO2
14837KMSN MSN20031208214010212/08/03 21:40:31  5-MIN KMSN 090340Z 00000KT 8SM BKN019 BKN060 02/00 A2989 900 85 -400 000/00 RMK AO2
14837KMSN MSN20031208214510212/08/03 21:45:31  5-MIN KMSN 090345Z 00000KT 8SM BKN019 BKN060 02/00 A2989 900 85 -400 000/00 RMK AO2
14837KMSN MSN20031208215011912/08/03 21:50:31  5-MIN KMSN 090350Z 00000KT 8SM BKN019 BKN060 02/00 A2989 890 89 -400 000/00 RMK AO2 SLP129 T00170000
14837KMSN MSN20031208215510212/08/03 21:55:31  5-MIN KMSN 090355Z 00000KT 8SM BKN019 BKN060 02/00 A2989 900 89 -400 000/00 RMK AO2
14837KMSN MSN20031208220010212/08/03 22:00:31  5-MIN KMSN 090400Z 00000KT 8SM BKN019 BKN060 02/00 A2989 900 89 -400 000/00 RMK AO2
14837KMSN MSN20031208220510212/08/03 22:05:31  5-MIN KMSN 090405Z 00000KT 8SM BKN019 BKN060 02/00 A2989 890 89 -400 000/00 RMK AO2
14837KMSN MSN20031208221010212/08/03 22:10:31  5-MIN KMSN 090410Z 00000KT 8SM BKN019 BKN060 02/00 A2989 890 89 -400 000/00 RMK AO2
14837KMSN MSN20031208221510312/08/03 22:15:31  5-MIN KMSN 090415Z 00000KT 8SM BKN019 BKN060 01/M01 A2989 890 89 -500 000/00 RMK AO2
14837KMSN MSN20031208222010212/08/03 22:20:31  5-MIN KMSN 090420Z 00000KT 8SM BKN019 BKN060 01/00 A2989 890 92 -500 000/00 RMK AO2
14837KMSN MSN20031208222510212/08/03 22:25:31  5-MIN KMSN 090425Z 00000KT 7SM BKN019 BKN060 02/00 A2989 890 89 -400 000/00 RMK AO2
14837KMSN MSN20031208223010312/08/03 22:30:31  5-MIN KMSN 090430Z 00000KT 8SM BKN019 BKN060 01/M01 A2989 890 89 -500 000/00 RMK AO2
14837KMSN MSN20031208223510212/08/03 22:35:31  5-MIN KMSN 090435Z 00000KT 8SM BKN019 BKN060 01/00 A2989 890 92 -500 000/00 RMK AO2
14837KMSN MSN20031208224010212/08/03 22:40:31  5-MIN KMSN 090440Z 05003KT 8SM BKN019 BKN060 02/00 A2989 890 89 -400 050/03 RMK AO2
14837KMSN MSN20031208224509512/08/03 22:45:31  5-MIN KMSN 090445Z 06003KT 8SM BKN019 01/00 A2990 880 92 -500 060/03 RMK AO2
14837KMSN MSN20031208225011312/08/03 22:50:31  5-MIN KMSN 090450Z 00000KT 7SM BKN019 01/M01 A2990 880 89 -500 000/00 RMK AO2 SLP133 T00111006
14837KMSN MSN20031208225509512/08/03 22:55:31  5-MIN KMSN 090455Z 00000KT 7SM BKN019 02/00 A2990 880 89 -400 000/00 RMK AO2
14837KMSN MSN20031208230009512/08/03 23:00:31  5-MIN KMSN 090500Z 00000KT 8SM BKN019 02/00 A2990 880 89 -400 000/00 RMK AO2
14837KMSN MSN20031208230509512/08/03 23:05:31  5-MIN KMSN 090505Z 00000KT 8SM BKN019 01/00 A2990 880 92 -500 000/00 RMK AO2
14837KMSN MSN20031208231009612/08/03 23:10:31  5-MIN KMSN 090510Z 00000KT 8SM BKN019 02/M01 A2990 880 85 -400 000/00 RMK AO2
14837KMSN MSN20031208231509512/08/03 23:15:31  5-MIN KMSN 090515Z 04003KT 8SM BKN019 02/00 A2990 880 89 -400 040/03 RMK AO2
14837KMSN MSN20031208232009512/08/03 23:20:31  5-MIN KMSN 090520Z 06003KT 8SM BKN019 02/00 A2990 880 85 -400 060/03 RMK AO2
14837KMSN MSN20031208232509512/08/03 23:25:31  5-MIN KMSN 090525Z 00000KT 8SM BKN019 02/00 A2990 880 89 -400 000/00 RMK AO2
14837KMSN MSN20031208233009512/08/03 23:30:31  5-MIN KMSN 090530Z 00000KT 7SM BKN019 02/00 A2990 880 89 -400 000/00 RMK AO2
14837KMSN MSN20031208233509612/08/03 23:35:31  5-MIN KMSN 090535Z 00000KT 7SM BKN019 01/M01 A2990 880 89 -500 000/00 RMK AO2
14837KMSN MSN20031208234009512/08/03 23:40:31  5-MIN KMSN 090540Z 00000KT 7SM BKN019 01/00 A2990 880 92 -500 000/00 RMK AO2
14837KMSN MSN20031208234509612/08/03 23:45:31  5-MIN KMSN 090545Z 00000KT 7SM BKN019 01/M01 A2990 880 92 -600 000/00 RMK AO2
14837KMSN MSN20031208235014112/08/03 23:50:31  5-MIN KMSN 090550Z 00000KT 7SM BKN019 01/M01 A2990 880 92 -600 000/00 RMK AO2 SLP133 T00061006 10039 20006 400500006 51007
14837KMSN MSN20031208235509612/08/03 23:55:31  5-MIN KMSN 090555Z 00000KT 7SM SCT019 00/M01 A2990 880 96 -600 000/00 RMK AO2
14837KMSN MSN20031209000009912/09/03 00:00:31  5-MIN KMSN 090600Z 00000KT 6SM BR BKN019 00/M01 A2990 880 92 -600 000/00 RMK AO2
14837KMSN MSN20031209000509912/09/03 00:05:31  5-MIN KMSN 090605Z 00000KT 6SM BR BKN019 00/M01 A2990 880 92 -600 000/00 RMK AO2
14837KMSN MSN20031209001009912/09/03 00:10:31  5-MIN KMSN 090610Z 00000KT 6SM BR BKN019 00/M01 A2990 880 96 -600 000/00 RMK AO2
14837KMSN MSN20031209001509912/09/03 00:15:31  5-MIN KMSN 090615Z 00000KT 6SM BR BKN019 00/M01 A2990 880 96 -600 000/00 RMK AO2
14837KMSN MSN20031209002010012/09/03 00:20:31  5-MIN KMSN 090620Z 00000KT 5SM BR BKN019 M01/M01 A2990 880 96 -700 000/00 RMK AO2
14837KMSN MSN20031209002510012/09/03 00:25:31  5-MIN KMSN 090625Z 00000KT 4SM BR BKN019 M01/M02 A2991 880 92 -700 000/00 RMK AO2
14837KMSN MSN20031209003010012/09/03 00:30:31  5-MIN KMSN 090630Z 00000KT 5SM BR BKN019 M01/M02 A2991 880 96 -800 000/00 RMK AO2
14837KMSN MSN20031209003510012/09/03 00:35:31  5-MIN KMSN 090635Z 00000KT 5SM BR BKN019 M01/M01 A2991 880 96 -700 000/00 RMK AO2
14837KMSN MSN20031209004009912/09/03 00:40:31  5-MIN KMSN 090640Z 00000KT 5SM BR BKN019 00/M01 A2991 880 92 -700 000/00 RMK AO2
14837KMSN MSN20031209004509912/09/03 00:45:31  5-MIN KMSN 090645Z 00000KT 5SM BR BKN019 00/M01 A2991 870 92 -700 000/00 RMK AO2
14837KMSN MSN20031209005011612/09/03 00:50:31  5-MIN KMSN 090650Z 00000KT 5SM BR OVC019 00/M01 A2991 870 92 -700 000/00 RMK AO2 SLP136 T00001011
14837KMSN MSN20031209005509912/09/03 00:55:31  5-MIN KMSN 090655Z 00000KT 5SM BR OVC019 00/M01 A2992 870 92 -700 000/00 RMK AO2
14837KMSN MSN20031209010009912/09/03 01:00:31  5-MIN KMSN 090700Z 00000KT 5SM BR OVC019 00/M01 A2992 870 92 -700 000/00 RMK AO2
14837KMSN MSN20031209010509912/09/03 01:05:31  5-MIN KMSN 090705Z 00000KT 5SM BR OVC019 00/M01 A2992 870 96 -700 000/00 RMK AO2
14837KMSN MSN20031209011009912/09/03 01:10:31  5-MIN KMSN 090710Z 00000KT 5SM BR OVC019 00/M01 A2991 870 96 -700 000/00 RMK AO2
14837KMSN MSN20031209011509912/09/03 01:15:31  5-MIN KMSN 090715Z 00000KT 5SM BR OVC019 00/M01 A2992 870 96 -700 000/00 RMK AO2
14837KMSN MSN20031209012009912/09/03 01:20:31  5-MIN KMSN 090720Z 00000KT 6SM BR OVC019 01/M01 A2991 870 92 -600 000/00 RMK AO2
14837KMSN MSN20031209012509912/09/03 01:25:31  5-MIN KMSN 090725Z 00000KT 6SM BR OVC019 01/M01 A2991 870 92 -600 000/00 RMK AO2
14837KMSN MSN20031209013009912/09/03 01:30:31  5-MIN KMSN 090730Z 00000KT 6SM BR OVC019 01/M01 A2991 870 92 -600 000/00 RMK AO2
14837KMSN MSN20031209013509912/09/03 01:35:31  5-MIN KMSN 090735Z 00000KT 6SM BR OVC019 01/M01 A2992 870 92 -600 000/00 RMK AO2
14837KMSN MSN20031209014009912/09/03 01:40:31  5-MIN KMSN 090740Z 00000KT 6SM BR OVC019 01/M01 A2992 870 92 -600 000/00 RMK AO2
14837KMSN MSN20031209014509912/09/03 01:45:31  5-MIN KMSN 090745Z 00000KT 6SM BR OVC019 01/M01 A2992 870 92 -600 000/00 RMK AO2
14837KMSN MSN20031209015011612/09/03 01:50:31  5-MIN KMSN 090750Z 00000KT 6SM BR OVC019 01/M01 A2992 860 92 -600 000/00 RMK AO2 SLP140 T00061006
14837KMSN MSN20031209015509812/09/03 01:55:31  5-MIN KMSN 090755Z 00000KT 6SM BR OVC021 01/00 A2992 860 92 -500 000/00 RMK AO2
14837KMSN MSN20031209020009912/09/03 02:00:31  5-MIN KMSN 090800Z 00000KT 6SM BR OVC021 01/M01 A2993 860 92 -600 000/00 RMK AO2
14837KMSN MSN20031209020509912/09/03 02:05:31  5-MIN KMSN 090805Z 00000KT 6SM BR OVC021 01/M01 A2993 860 89 -500 000/00 RMK AO2
14837KMSN MSN20031209021009912/09/03 02:10:31  5-MIN KMSN 090810Z 00000KT 6SM BR OVC021 01/M01 A2993 860 92 -600 000/00 RMK AO2
14837KMSN MSN20031209021509812/09/03 02:15:31  5-MIN KMSN 090815Z 00000KT 6SM BR OVC021 01/00 A2993 860 96 -600 000/00 RMK AO2
14837KMSN MSN20031209022009812/09/03 02:20:31  5-MIN KMSN 090820Z 00000KT 5SM BR OVC021 01/00 A2993 860 96 -600 000/00 RMK AO2
14837KMSN MSN20031209022509812/09/03 02:25:31  5-MIN KMSN 090825Z 00000KT 5SM BR OVC021 01/00 A2993 860 96 -600 000/00 RMK AO2
14837KMSN MSN20031209023009812/09/03 02:30:31  5-MIN KMSN 090830Z 34003KT 6SM BR OVC021 01/00 A2992 860 92 -500 340/03 RMK AO2
14837KMSN MSN20031209023509812/09/03 02:35:31  5-MIN KMSN 090835Z 34003KT 6SM BR OVC021 01/00 A2992 860 92 -500 340/03 RMK AO2
14837KMSN MSN20031209024009912/09/03 02:40:31  5-MIN KMSN 090840Z 35004KT 6SM BR OVC021 01/M01 A2992 870 89 -500 350/04 RMK AO2
14837KMSN MSN20031209024509912/09/03 02:45:31  5-MIN KMSN 090845Z 35004KT 6SM BR OVC023 01/M01 A2992 870 92 -600 350/04 RMK AO2
14837KMSN MSN20031209025012212/09/03 02:50:31  5-MIN KMSN 090850Z 35005KT 6SM BR OVC023 01/M01 A2992 870 92 -600 350/05 RMK AO2 SLP139 T00061006 51006
14837KMSN MSN20031209025509912/09/03 02:55:31  5-MIN KMSN 090855Z 35004KT 6SM BR OVC023 01/M01 A2992 860 92 -600 350/04 RMK AO2
14837KMSN MSN20031209030009912/09/03 03:00:31  5-MIN KMSN 090900Z 34003KT 6SM BR OVC023 01/M01 A2992 870 92 -600 340/03 RMK AO2
14837KMSN MSN20031209030509912/09/03 03:05:31  5-MIN KMSN 090905Z 35004KT 6SM BR BKN023 01/M01 A2992 870 92 -600 350/04 RMK AO2
14837KMSN MSN20031209031009912/09/03 03:10:31  5-MIN KMSN 090910Z 34003KT 6SM BR BKN023 01/M01 A2992 870 92 -600 340/03 RMK AO2
14837KMSN MSN20031209031509912/09/03 03:15:31  5-MIN KMSN 090915Z 35003KT 6SM BR SCT023 01/M01 A2992 870 92 -600 350/03 RMK AO2
14837KMSN MSN20031209032009912/09/03 03:20:31  5-MIN KMSN 090920Z 00000KT 5SM BR SCT023 01/M01 A2992 870 92 -600 000/00 RMK AO2
14837KMSN MSN20031209032509912/09/03 03:25:31  5-MIN KMSN 090925Z 00000KT 5SM BR FEW023 01/M01 A2991 870 92 -600 000/00 RMK AO2
14837KMSN MSN20031209033009912/09/03 03:30:31  5-MIN KMSN 090930Z 00000KT 5SM BR FEW023 00/M01 A2992 870 96 -700 000/00 RMK AO2
14837KMSN MSN20031209033509912/09/03 03:35:31  5-MIN KMSN 090935Z 00000KT 5SM BR FEW022 01/M01 A2992 870 92 -600 000/00 RMK AO2
14837KMSN MSN20031209034009912/09/03 03:40:31  5-MIN KMSN 090940Z 00000KT 5SM BR SCT022 00/M01 A2992 860 92 -700 000/00 RMK AO2
14837KMSN MSN20031209034509912/09/03 03:45:31  5-MIN KMSN 090945Z 00000KT 6SM BR BKN022 01/M01 A2992 860 92 -600 000/00 RMK AO2
14837KMSN MSN20031209035011612/09/03 03:50:31  5-MIN KMSN 090950Z 00000KT 6SM BR BKN020 00/M01 A2993 860 92 -700 000/00 RMK AO2 SLP142 T00001011
14837KMSN MSN20031209035509912/09/03 03:55:31  5-MIN KMSN 090955Z 00000KT 5SM BR BKN020 01/M01 A2993 860 92 -600 000/00 RMK AO2
14837KMSN MSN20031209040009912/09/03 04:00:31  5-MIN KMSN 091000Z 00000KT 6SM BR OVC020 01/M01 A2993 860 92 -600 000/00 RMK AO2
14837KMSN MSN20031209040509912/09/03 04:05:31  5-MIN KMSN 091005Z 00000KT 5SM BR OVC020 01/M01 A2993 860 92 -600 000/00 RMK AO2
14837KMSN MSN20031209041009912/09/03 04:10:31  5-MIN KMSN 091010Z 00000KT 5SM BR OVC020 01/M01 A2993 860 92 -600 000/00 RMK AO2
14837KMSN MSN20031209041509912/09/03 04:15:31  5-MIN KMSN 091015Z 00000KT 5SM BR OVC020 01/M01 A2993 860 92 -600 000/00 RMK AO2
14837KMSN MSN20031209042009812/09/03 04:20:31  5-MIN KMSN 091020Z 00000KT 5SM BR OVC020 01/00 A2992 860 96 -600 000/00 RMK AO2
14837KMSN MSN20031209042509812/09/03 04:25:31  5-MIN KMSN 091025Z 00000KT 5SM BR OVC020 01/00 A2992 860 92 -500 000/00 RMK AO2
14837KMSN MSN20031209043009812/09/03 04:30:31  5-MIN KMSN 091030Z 00000KT 5SM BR OVC020 01/00 A2992 860 92 -500 000/00 RMK AO2
14837KMSN MSN20031209043509812/09/03 04:35:31  5-MIN KMSN 091035Z 00000KT 5SM BR OVC020 01/00 A2992 860 92 -500 000/00 RMK AO2
14837KMSN MSN20031209044009812/09/03 04:40:31  5-MIN KMSN 091040Z 01003KT 6SM BR OVC020 01/00 A2992 870 92 -500 010/03 RMK AO2
14837KMSN MSN20031209044509812/09/03 04:45:31  5-MIN KMSN 091045Z 01003KT 6SM BR OVC020 02/00 A2991 870 89 -500 010/03 RMK AO2
14837KMSN MSN20031209045011512/09/03 04:50:31  5-MIN KMSN 091050Z 02003KT 6SM BR OVC022 02/01 A2991 870 92 -400 020/03 RMK AO2 SLP136 T00170006
14837KMSN MSN20031209045509812/09/03 04:55:31  5-MIN KMSN 091055Z 00000KT 6SM BR OVC022 02/01 A2991 870 92 -500 000/00 RMK AO2
14837KMSN MSN20031209050009812/09/03 05:00:31  5-MIN KMSN 091100Z 00000KT 6SM BR OVC022 02/01 A2991 870 92 -400 000/00 RMK AO2
14837KMSN MSN20031209050509812/09/03 05:05:31  5-MIN KMSN 091105Z 00000KT 6SM BR OVC022 02/01 A2991 870 92 -400 000/00 RMK AO2
14837KMSN MSN20031209051009812/09/03 05:10:31  5-MIN KMSN 091110Z 00000KT 5SM BR OVC022 02/01 A2991 870 92 -500 000/00 RMK AO2
14837KMSN MSN20031209051509812/09/03 05:15:31  5-MIN KMSN 091115Z 00000KT 6SM BR OVC022 02/01 A2991 870 89 -400 000/00 RMK AO2
14837KMSN MSN20031209052009812/09/03 05:20:31  5-MIN KMSN 091120Z 36003KT 6SM BR OVC022 02/01 A2991 870 89 -400 360/03 RMK AO2
14837KMSN MSN20031209052509812/09/03 05:25:31  5-MIN KMSN 091125Z 36003KT 6SM BR OVC022 02/01 A2991 870 89 -400 360/03 RMK AO2
14837KMSN MSN20031209053009812/09/03 05:30:31  5-MIN KMSN 091130Z 36003KT 6SM BR OVC022 02/01 A2991 880 92 -400 360/03 RMK AO2
14837KMSN MSN20031209053509812/09/03 05:35:31  5-MIN KMSN 091135Z 36004KT 6SM BR OVC022 02/01 A2991 880 92 -400 360/04 RMK AO2
14837KMSN MSN20031209054009812/09/03 05:40:31  5-MIN KMSN 091140Z 00000KT 6SM BR OVC022 02/01 A2991 870 92 -400 000/00 RMK AO2
14837KMSN MSN20031209054509812/09/03 05:45:31  5-MIN KMSN 091145Z 00000KT 6SM BR OVC022 02/01 A2992 870 92 -500 000/00 RMK AO2
14837KMSN MSN20031209055013312/09/03 05:50:31  5-MIN KMSN 091150Z 00000KT 6SM BR OVC022 02/01 A2992 860 92 -500 000/00 RMK AO2 SLP139 T00170006 10022 21011 50006
14837KMSN MSN20031209055509812/09/03 05:55:31  5-MIN KMSN 091155Z 00000KT 6SM BR OVC022 02/01 A2992 860 92 -500 000/00 RMK AO2
14837KMSN MSN20031209060009812/09/03 06:00:31  5-MIN KMSN 091200Z 00000KT 6SM BR OVC022 02/01 A2992 860 92 -500 000/00 RMK AO2
14837KMSN MSN20031209060509812/09/03 06:05:31  5-MIN KMSN 091205Z 00000KT 6SM BR OVC022 02/01 A2993 860 92 -500 000/00 RMK AO2
14837KMSN MSN20031209061009812/09/03 06:10:31  5-MIN KMSN 091210Z 00000KT 6SM BR OVC022 02/01 A2992 860 92 -500 000/00 RMK AO2
14837KMSN MSN20031209061509812/09/03 06:15:31  5-MIN KMSN 091215Z 00000KT 6SM BR OVC022 02/01 A2993 860 92 -500 000/00 RMK AO2
14837KMSN MSN20031209062009812/09/03 06:20:31  5-MIN KMSN 091220Z 00000KT 6SM BR OVC022 02/01 A2993 850 92 -500 000/00 RMK AO2
14837KMSN MSN20031209062509812/09/03 06:25:31  5-MIN KMSN 091225Z 00000KT 6SM BR OVC022 02/01 A2993 850 92 -500 000/00 RMK AO2
14837KMSN MSN20031209063009812/09/03 06:30:31  5-MIN KMSN 091230Z 00000KT 6SM BR OVC022 02/01 A2993 850 92 -500 000/00 RMK AO2
14837KMSN MSN20031209063509812/09/03 06:35:31  5-MIN KMSN 091235Z 00000KT 6SM BR OVC022 02/01 A2994 850 92 -500 000/00 RMK AO2
14837KMSN MSN20031209064009812/09/03 06:40:31  5-MIN KMSN 091240Z 00000KT 6SM BR OVC022 02/01 A2994 850 92 -500 000/00 RMK AO2
14837KMSN MSN20031209064509812/09/03 06:45:31  5-MIN KMSN 091245Z 00000KT 6SM BR OVC022 02/01 A2994 850 92 -500 000/00 RMK AO2
14837KMSN MSN20031209065011512/09/03 06:50:31  5-MIN KMSN 091250Z 00000KT 6SM BR OVC022 02/01 A2994 840 92 -500 000/00 RMK AO2 SLP147 T00170006
14837KMSN MSN20031209065509812/09/03 06:55:31  5-MIN KMSN 091255Z 00000KT 4SM BR OVC022 02/01 A2995 840 92 -500 000/00 RMK AO2
14837KMSN MSN20031209070009812/09/03 07:00:31  5-MIN KMSN 091300Z 00000KT 4SM BR OVC022 02/01 A2995 840 89 -400 000/00 RMK AO2
14837KMSN MSN20031209070509812/09/03 07:05:31  5-MIN KMSN 091305Z 00000KT 4SM BR OVC022 02/01 A2994 840 92 -500 000/00 RMK AO2
14837KMSN MSN20031209071009812/09/03 07:10:31  5-MIN KMSN 091310Z 00000KT 4SM BR OVC022 02/01 A2994 850 92 -500 000/00 RMK AO2
14837KMSN MSN20031209071509812/09/03 07:15:31  5-MIN KMSN 091315Z 00000KT 3SM BR OVC022 02/01 A2994 850 92 -500 000/00 RMK AO2
14837KMSN MSN20031209072009812/09/03 07:20:31  5-MIN KMSN 091320Z 00000KT 3SM BR OVC022 02/01 A2994 850 92 -500 000/00 RMK AO2
14837KMSN MSN20031209072509812/09/03 07:25:31  5-MIN KMSN 091325Z 00000KT 3SM BR OVC022 02/01 A2994 850 92 -500 000/00 RMK AO2
14837KMSN MSN20031209073009812/09/03 07:30:31  5-MIN KMSN 091330Z 00000KT 3SM BR OVC022 02/01 A2994 850 92 -500 000/00 RMK AO2
14837KMSN MSN20031209073509812/09/03 07:35:31  5-MIN KMSN 091335Z 00000KT 3SM BR OVC022 02/01 A2994 850 92 -500 000/00 RMK AO2
14837KMSN MSN20031209074009812/09/03 07:40:31  5-MIN KMSN 091340Z 00000KT 3SM BR OVC022 02/01 A2994 850 89 -400 000/00 RMK AO2
14837KMSN MSN20031209074509812/09/03 07:45:31  5-MIN KMSN 091345Z 36003KT 3SM BR OVC022 02/01 A2994 850 89 -400 360/03 RMK AO2
14837KMSN MSN20031209075011512/09/03 07:50:31  5-MIN KMSN 091350Z 00000KT 3SM BR OVC022 02/01 A2994 850 89 -400 000/00 RMK AO2 SLP145 T00220006
14837KMSN MSN20031209075510812/09/03 07:55:31  5-MIN KMSN 091355Z 00000KT 3SM BR OVC022 02/01 A2994 850 92 -400 000/00 RMK AO2 SFC VIS 4
14837KMSN MSN20031209080009812/09/03 08:00:31  5-MIN KMSN 091400Z 00000KT 3SM BR OVC022 02/01 A2994 850 89 -400 000/00 RMK AO2
14837KMSN MSN20031209080509812/09/03 08:05:31  5-MIN KMSN 091405Z 00000KT 3SM BR OVC022 02/01 A2994 840 89 -400 000/00 RMK AO2
14837KMSN MSN20031209081009812/09/03 08:10:31  5-MIN KMSN 091410Z 00000KT 3SM BR OVC022 02/01 A2994 850 89 -400 000/00 RMK AO2
14837KMSN MSN20031209081509812/09/03 08:15:31  5-MIN KMSN 091415Z 00000KT 3SM BR OVC022 02/01 A2994 850 92 -400 000/00 RMK AO2
14837KMSN MSN20031209082009812/09/03 08:20:31  5-MIN KMSN 091420Z 00000KT 3SM BR OVC022 02/01 A2994 840 92 -400 000/00 RMK AO2
14837KMSN MSN20031209082509812/09/03 08:25:31  5-MIN KMSN 091425Z 00000KT 3SM BR OVC022 02/01 A2994 840 92 -400 000/00 RMK AO2
14837KMSN MSN20031209083009812/09/03 08:30:31  5-MIN KMSN 091430Z 00000KT 3SM BR OVC022 02/01 A2995 840 92 -400 000/00 RMK AO2
14837KMSN MSN20031209083509812/09/03 08:35:31  5-MIN KMSN 091435Z 00000KT 3SM BR OVC022 02/01 A2995 840 92 -400 000/00 RMK AO2
14837KMSN MSN20031209084009812/09/03 08:40:31  5-MIN KMSN 091440Z 00000KT 3SM BR OVC022 02/01 A2995 840 92 -400 000/00 RMK AO2
14837KMSN MSN20031209084509812/09/03 08:45:31  5-MIN KMSN 091445Z 00000KT 3SM BR OVC022 03/01 A2994 840 89 -300 000/00 RMK AO2
14837KMSN MSN20031209085012112/09/03 08:50:31  5-MIN KMSN 091450Z 36004KT 3SM BR OVC022 03/01 A2994 850 89 -300 360/04 RMK AO2 SLP147 T00280011 53001
14837KMSN MSN20031209085509812/09/03 08:55:31  5-MIN KMSN 091455Z 35003KT 3SM BR OVC022 03/02 A2994 840 92 -300 350/03 RMK AO2
14837KMSN MSN20031209090009812/09/03 09:00:31  5-MIN KMSN 091500Z 00000KT 3SM BR OVC022 03/02 A2995 840 89 -300 000/00 RMK AO2
14837KMSN MSN20031209090509812/09/03 09:05:31  5-MIN KMSN 091505Z 00000KT 3SM BR OVC022 03/02 A2995 840 89 -300 000/00 RMK AO2
14837KMSN MSN20031209091009812/09/03 09:10:31  5-MIN KMSN 091510Z 01003KT 3SM BR OVC022 03/02 A2994 840 89 -300 010/03 RMK AO2
14837KMSN MSN20031209091509812/09/03 09:15:31  5-MIN KMSN 091515Z 35003KT 3SM BR OVC022 04/02 A2995 840 89 -200 350/03 RMK AO2
14837KMSN MSN20031209092009812/09/03 09:20:31  5-MIN KMSN 091520Z 35003KT 3SM BR OVC022 04/02 A2995 840 89 -200 350/03 RMK AO2
14837KMSN MSN20031209092509812/09/03 09:25:31  5-MIN KMSN 091525Z 36003KT 3SM BR OVC022 04/02 A2995 840 89 -200 360/03 RMK AO2
14837KMSN MSN20031209093009812/09/03 09:30:31  5-MIN KMSN 091530Z 02003KT 3SM BR OVC022 04/02 A2995 840 89 -200 020/03 RMK AO2
14837KMSN MSN20031209093509812/09/03 09:35:31  5-MIN KMSN 091535Z 03004KT 3SM BR OVC022 04/02 A2995 840 85 -100 030/04 RMK AO2
14837KMSN MSN20031209094009812/09/03 09:40:31  5-MIN KMSN 091540Z 03005KT 3SM BR OVC022 04/02 A2995 840 85 -100 030/05 RMK AO2
14837KMSN MSN20031209094509812/09/03 09:45:31  5-MIN KMSN 091545Z 03005KT 3SM HZ OVC022 04/02 A2995 840 82 -100 030/05 RMK AO2
14837KMSN MSN20031209095011512/09/03 09:50:31  5-MIN KMSN 091550Z 02005KT 3SM HZ OVC022 04/02 A2995 840 82 -100 020/05 RMK AO2 SLP148 T00440017
14837KMSN MSN20031209095509812/09/03 09:55:31  5-MIN KMSN 091555Z 02005KT 3SM HZ OVC022 04/02 A2995 840 82 -100 020/05 RMK AO2
14837KMSN MSN20031209100009812/09/03 10:00:31  5-MIN KMSN 091600Z 02006KT 3SM HZ OVC022 04/02 A2995 840 82 -100 020/06 RMK AO2
14837KMSN MSN20031209100509812/09/03 10:05:31  5-MIN KMSN 091605Z 03005KT 3SM BR OVC022 04/02 A2995 840 85 -100 020/05 RMK AO2
14837KMSN MSN20031209101009812/09/03 10:10:31  5-MIN KMSN 091610Z 04006KT 3SM HZ OVC022 04/02 A2995 840 82 -100 030/06 RMK AO2
14837KMSN MSN20031209101509812/09/03 10:15:31  5-MIN KMSN 091615Z 04006KT 3SM HZ OVC022 04/02 A2995 840 82 -100 040/06 RMK AO2
14837KMSN MSN20031209102009812/09/03 10:20:31  5-MIN KMSN 091620Z 04008KT 3SM BR OVC022 04/02 A2994 850 85 -200 040/08 RMK AO2
14837KMSN MSN20031209102509812/09/03 10:25:31  5-MIN KMSN 091625Z 04008KT 3SM BR OVC022 04/02 A2994 850 85 -200 040/08 RMK AO2
14837KMSN MSN20031209103009812/09/03 10:30:31  5-MIN KMSN 091630Z 03008KT 3SM BR OVC022 04/02 A2993 850 89 -200 030/08 RMK AO2
14837KMSN MSN20031209103509812/09/03 10:35:31  5-MIN KMSN 091635Z 04007KT 3SM HZ OVC022 04/02 A2993 850 82 -100 040/07 RMK AO2
14837KMSN MSN20031209104009812/09/03 10:40:31  5-MIN KMSN 091640Z 04007KT 3SM HZ OVC022 04/02 A2994 850 82 -100 040/07 RMK AO2
14837KMSN MSN20031209104509812/09/03 10:45:31  5-MIN KMSN 091645Z 04007KT 3SM HZ OVC022 04/02 A2994 850 82 -100 030/07 RMK AO2
14837KMSN MSN20031209105011512/09/03 10:50:31  5-MIN KMSN 091650Z 04006KT 3SM HZ OVC022 04/02 A2994 850 82 -100 040/06 RMK AO2 SLP144 T00440017
14837KMSN MSN20031209105509812/09/03 10:55:31  5-MIN KMSN 091655Z 04005KT 3SM HZ OVC022 04/02 A2994 850 82 -100 040/05 RMK AO2
14837KMSN MSN20031209110009812/09/03 11:00:31  5-MIN KMSN 091700Z 04005KT 3SM HZ OVC022 04/02 A2994 850 82 -100 040/05 RMK AO2
14837KMSN MSN20031209110509812/09/03 11:05:31  5-MIN KMSN 091705Z 05005KT 3SM HZ OVC022 04/02 A2993 850 82 -100 050/05 RMK AO2
14837KMSN MSN20031209111009812/09/03 11:10:31  5-MIN KMSN 091710Z 05004KT 3SM HZ OVC022 04/02 A2993 850 82 -100 050/04 RMK AO2
14837KMSN MSN20031209111509812/09/03 11:15:31  5-MIN KMSN 091715Z 04005KT 3SM HZ OVC022 04/02 A2993 860 82 -100 040/05 RMK AO2
14837KMSN MSN20031209112009812/09/03 11:20:31  5-MIN KMSN 091720Z 04005KT 3SM HZ OVC022 04/02 A2992 860 82 -100 040/05 RMK AO2
14837KMSN MSN20031209112509812/09/03 11:25:31  5-MIN KMSN 091725Z 06006KT 3SM HZ OVC022 04/02 A2992 870 82 -100 060/06 RMK AO2
14837KMSN MSN20031209113009812/09/03 11:30:31  5-MIN KMSN 091730Z 06007KT 3SM HZ OVC022 04/02 A2991 870 82 -100 060/07 RMK AO2
14837KMSN MSN20031209113509812/09/03 11:35:31  5-MIN KMSN 091735Z 05007KT 3SM HZ OVC022 04/02 A2991 870 82 -100 050/07 RMK AO2
14837KMSN MSN20031209114009812/09/03 11:40:31  5-MIN KMSN 091740Z 07006KT 3SM HZ OVC022 04/02 A2991 870 82 -100 070/06 RMK AO2
14837KMSN MSN20031209114509812/09/03 11:45:31  5-MIN KMSN 091745Z 06006KT 3SM HZ OVC020 04/02 A2991 870 82 -100 060/06 RMK AO2
14837KMSN MSN20031209115015212/09/03 11:50:31  5-MIN KMSN 091750Z 07007KT 3SM -RA OVC020 04/02 A2990 880 82 -100 070/07 RMK AO2 RAB50 SLP133 P0000 60000 T00440017 10044 20017 51006
14837KMSN MSN20031209115512212/09/03 11:55:31  5-MIN KMSN 091755Z 06008KT 3SM -RA OVC020 04/02 A2989 890 82 -100 060/08 RMK AO2 SFC VIS 4 PRESFR P0000
14837KMSN MSN20031209120012212/09/03 12:00:31  5-MIN KMSN 091800Z 06009KT 3SM -RA OVC020 04/02 A2988 900 85 -100 060/09 RMK AO2 SFC VIS 4 PRESFR P0000
14837KMSN MSN20031209120511812/09/03 12:05:31  5-MIN KMSN 091805Z 06005KT 3SM -RA BR OVC020 04/02 A2990 890 85 -100 060/05 RMK AO2 SFC VIS 4 P0000
14837KMSN MSN20031209121011812/09/03 12:10:31  5-MIN KMSN 091810Z 07006KT 3SM -RA BR OVC020 04/02 A2990 880 85 -100 070/06 RMK AO2 SFC VIS 4 P0000
14837KMSN MSN20031209121510812/09/03 12:15:31  5-MIN KMSN 091815Z 06005KT 3SM -RA BR OVC020 04/02 A2990 880 85 -100 060/05 RMK AO2 P0000
14837KMSN MSN20031209122010812/09/03 12:20:31  5-MIN KMSN 091820Z 05006KT 3SM -RA BR OVC020 04/02 A2989 890 89 -200 050/06 RMK AO2 P0000
14837KMSN MSN20031209122510812/09/03 12:25:31  5-MIN KMSN 091825Z 04006KT 3SM -RA BR OVC020 04/02 A2989 890 89 -100 040/06 RMK AO2 P0000
14837KMSN MSN20031209123010812/09/03 12:30:31  5-MIN KMSN 091830Z 01005KT 3SM -RA BR OVC020 04/02 A2990 890 89 -200 010/05 RMK AO2 P0000
14837KMSN MSN20031209123511512/09/03 12:35:31  5-MIN KMSN 091835Z 34004KT 3SM -RA BR FEW013 OVC018 04/02 A2990 880 89 -200 340/04 RMK AO2 P0000
14837KMSN MSN20031209124010812/09/03 12:40:31  5-MIN KMSN 091840Z 34004KT 3SM -RA BR OVC018 04/02 A2990 890 89 -200 340/04 RMK AO2 P0000
14837KMSN MSN20031209124510812/09/03 12:45:31  5-MIN KMSN 091845Z 35005KT 3SM -RA BR OVC016 04/02 A2990 890 89 -200 350/05 RMK AO2 P0000
14837KMSN MSN20031209125012512/09/03 12:50:31  5-MIN KMSN 091850Z 35004KT 3SM -RA BR OVC016 04/02 A2990 890 89 -200 350/04 RMK AO2 SLP132 P0001 T00390022
14837KMSN MSN20031209125512212/09/03 12:55:31  5-MIN KMSN 091855Z 35004KT 2 1/2SM -RA BR OVC016 04/03 A2989 890 92 -200 350/04 RMK AO2 TWR VIS 3 P0000
14837KMSN MSN20031209130012212/09/03 13:00:31  5-MIN KMSN 091900Z 36004KT 2 1/2SM -RA BR OVC016 04/03 A2989 890 92 -100 360/04 RMK AO2 TWR VIS 3 P0000
14837KMSN MSN20031209130510812/09/03 13:05:31  5-MIN KMSN 091905Z 36005KT 2SM -RA BR OVC016 04/03 A2989 890 92 -100 360/05 RMK AO2 P0001
14837KMSN MSN20031209131010812/09/03 13:10:31  5-MIN KMSN 091910Z 36004KT 2SM -RA BR OVC014 04/03 A2989 890 92 -100 360/04 RMK AO2 P0001
14837KMSN MSN20031209131510812/09/03 13:15:31  5-MIN KMSN 091915Z 01005KT 2SM -RA BR OVC014 04/03 A2989 890 92 -100 010/05 RMK AO2 P0002
14837KMSN MSN20031209132010812/09/03 13:20:31  5-MIN KMSN 091920Z 01006KT 2SM -RA BR OVC014 04/03 A2989 890 92 -100 010/06 RMK AO2 P0002
14837KMSN MSN20031209132510812/09/03 13:25:31  5-MIN KMSN 091925Z 02006KT 2SM -RA BR OVC014 04/03 A2989 900 92 -100 020/06 RMK AO2 P0002
14837KMSN MSN20031209133010812/09/03 13:30:31  5-MIN KMSN 091930Z 02005KT 2SM -RA BR OVC014 04/03 A2988 900 92 -100 020/05 RMK AO2 P0002
14837KMSN MSN20031209133510812/09/03 13:35:31  5-MIN KMSN 091935Z 01006KT 2SM -RA BR OVC014 04/03 A2988 900 92 -100 010/06 RMK AO2 P0002
14837KMSN MSN20031209134010812/09/03 13:40:31  5-MIN KMSN 091940Z 02007KT 2SM -RA BR OVC014 04/03 A2988 900 92 -100 020/07 RMK AO2 P0003
14837KMSN MSN20031209134510812/09/03 13:45:31  5-MIN KMSN 091945Z 02007KT 2SM -RA BR OVC014 04/03 A2988 900 92 -100 020/07 RMK AO2 P0003
14837KMSN MSN20031209135012512/09/03 13:50:31  5-MIN KMSN 091950Z 01007KT 2SM -RA BR OVC014 04/03 A2988 910 92 -100 010/07 RMK AO2 SLP125 P0003 T00390028
14837KMSN MSN20031209135510812/09/03 13:55:31  5-MIN KMSN 091955Z 02006KT 2SM -RA BR OVC014 04/03 A2987 910 92 -100 020/06 RMK AO2 P0000
14837KMSN MSN20031209140010812/09/03 14:00:31  5-MIN KMSN 092000Z 02006KT 2SM -RA BR OVC014 04/03 A2987 910 92 -100 020/06 RMK AO2 P0000
14837KMSN MSN20031209140510812/09/03 14:05:31  5-MIN KMSN 092005Z 02008KT 2SM -RA BR OVC014 04/03 A2987 910 92 -100 020/08 RMK AO2 P0000
14837KMSN MSN20031209141010812/09/03 14:10:31  5-MIN KMSN 092010Z 03008KT 2SM -RA BR OVC014 04/03 A2987 910 92 -100 020/08 RMK AO2 P0000
14837KMSN MSN20031209141510812/09/03 14:15:31  5-MIN KMSN 092015Z 03007KT 2SM -RA BR OVC014 04/03 A2987 910 92 -100 030/07 RMK AO2 P0000
14837KMSN MSN20031209142010812/09/03 14:20:31  5-MIN KMSN 092020Z 03007KT 2SM -RA BR OVC014 04/03 A2987 910 92 -100 030/07 RMK AO2 P0000
14837KMSN MSN20031209142510812/09/03 14:25:31  5-MIN KMSN 092025Z 03006KT 2SM -RA BR OVC014 04/03 A2987 910 92 -100 030/06 RMK AO2 P0000
14837KMSN MSN20031209143012212/09/03 14:30:31  5-MIN KMSN 092030Z 03007KT 2SM -RA BR OVC014 04/03 A2987 910 92 -100 030/07 RMK AO2 SFC VIS 2 1/2 P0000
14837KMSN MSN20031209143512212/09/03 14:35:31  5-MIN KMSN 092035Z 03008KT 2SM -RA BR OVC014 04/03 A2986 920 92 -100 020/08 RMK AO2 SFC VIS 2 1/2 P0000
14837KMSN MSN20031209144010812/09/03 14:40:31  5-MIN KMSN 092040Z 03008KT 2SM -RA BR OVC014 04/03 A2986 920 92 -100 030/08 RMK AO2 P0000
14837KMSN MSN20031209144510812/09/03 14:45:31  5-MIN KMSN 092045Z 03006KT 2SM -RA BR OVC014 04/03 A2986 920 92 -100 030/06 RMK AO2 P0000
14837KMSN MSN20031209145013712/09/03 14:50:31  5-MIN KMSN 092050Z 03008KT 2SM -RA BR OVC014 04/03 A2986 920 92 -100 030/08 RMK AO2 SLP120 P0000 60004 T00390028 58015
14837KMSN MSN20031209145512212/09/03 14:55:31  5-MIN KMSN 092055Z 03008KT 2SM -RA BR OVC014 04/03 A2986 920 92 -100 030/08 RMK AO2 SFC VIS 2 1/2 P0000
14837KMSN MSN20031209150010812/09/03 15:00:31  5-MIN KMSN 092100Z 03007KT 2SM -RA BR OVC014 04/03 A2986 920 92 -100 030/07 RMK AO2 P0000
14837KMSN MSN20031209150512212/09/03 15:05:31  5-MIN KMSN 092105Z 04008KT 2SM -RA BR OVC014 04/03 A2986 920 92 -100 030/08 RMK AO2 SFC VIS 2 1/2 P0000
14837KMSN MSN20031209151012212/09/03 15:10:31  5-MIN KMSN 092110Z 03008KT 2SM -RA BR OVC014 04/03 A2986 920 92 -100 030/08 RMK AO2 SFC VIS 2 1/2 P0000
14837KMSN MSN20031209151512912/09/03 15:15:31  5-MIN KMSN 092115Z 03008KT 2SM -RA BR BKN014 OVC032 04/03 A2986 920 92 -100 030/08 RMK AO2 SFC VIS 2 1/2 P0000
14837KMSN MSN20031209152014012/09/03 15:20:31  5-MIN KMSN 092120Z 04009KT 2SM -DZ BR BKN014 OVC032 04/03 A2985 930 92 -100 040/09 RMK AO2 SFC VIS 2 1/2 RAE17DZB17 P0000
14837KMSN MSN20031209152514012/09/03 15:25:31  5-MIN KMSN 092125Z 04009KT 2SM -DZ BR BKN014 OVC032 04/03 A2985 930 92 -100 040/09 RMK AO2 SFC VIS 2 1/2 RAE17DZB17 P0000
14837KMSN MSN20031209153012512/09/03 15:30:31  5-MIN KMSN 092130Z 04008KT 2SM BR SCT014 OVC032 04/03 A2985 930 92 -100 040/08 RMK AO2 RAE17DZB17E26 P0000
14837KMSN MSN20031209153512512/09/03 15:35:31  5-MIN KMSN 092135Z 04009KT 2SM BR SCT014 OVC029 04/03 A2985 930 92 -100 040/09 RMK AO2 RAE17DZB17E26 P0000
14837KMSN MSN20031209154012512/09/03 15:40:31  5-MIN KMSN 092140Z 04008KT 2SM BR FEW016 OVC029 04/03 A2985 930 92 -100 040/08 RMK AO2 RAE17DZB17E26 P0000
14837KMSN MSN20031209154512512/09/03 15:45:31  5-MIN KMSN 092145Z 04008KT 2SM BR FEW014 OVC029 04/03 A2985 930 92 -100 040/08 RMK AO2 RAE17DZB17E26 P0000
14837KMSN MSN20031209155013512/09/03 15:50:31  5-MIN KMSN 092150Z 04009KT 2SM BR OVC029 04/03 A2985 930 92 -100 040/09 RMK AO2 RAE17DZB17E26 SLP117 P0000 T00390028
14837KMSN MSN20031209155509812/09/03 15:55:31  5-MIN KMSN 092155Z 04008KT 2SM BR OVC027 04/03 A2986 920 92 -100 040/08 RMK AO2
14837KMSN MSN20031209160009812/09/03 16:00:31  5-MIN KMSN 092200Z 04008KT 2SM BR OVC027 04/03 A2986 920 92 -100 040/08 RMK AO2
14837KMSN MSN20031209160509812/09/03 16:05:31  5-MIN KMSN 092205Z 04008KT 2SM BR OVC025 04/03 A2985 930 92 -100 040/08 RMK AO2
14837KMSN MSN20031209161011212/09/03 16:10:31  5-MIN KMSN 092210Z 04009KT 2SM BR FEW013 BKN022 OVC027 04/03 A2985 930 92 -100 040/09 RMK AO2
14837KMSN MSN20031209161511212/09/03 16:15:31  5-MIN KMSN 092215Z 04008KT 2SM BR FEW013 BKN022 OVC027 04/03 A2984 940 92 -100 040/08 RMK AO2
14837KMSN MSN20031209162012612/09/03 16:20:31  5-MIN KMSN 092220Z 04009KT 1 1/2SM BR FEW008 BKN022 OVC027 04/03 A2984 940 96 -100 040/09 RMK AO2 SFC VIS 2
14837KMSN MSN20031209162511612/09/03 16:25:31  5-MIN KMSN 092225Z 04009KT 1 1/2SM BR SCT008 SCT013 OVC022 04/03 A2984 940 96 -100 030/09 RMK AO2
14837KMSN MSN20031209163011612/09/03 16:30:31  5-MIN KMSN 092230Z 03010KT 1 1/2SM BR SCT008 BKN013 OVC022 04/03 A2983 950 96 -100 030/10 RMK AO2
14837KMSN MSN20031209163513212/09/03 16:35:31  5-MIN KMSN 092235Z 04009KT 1 1/2SM BR BKN006 BKN013 OVC022 04/03 A2983 940 96 -100 040/09 RMK AO2 SFC VIS 2 P0001
14837KMSN MSN20031209164012512/09/03 16:40:31  5-MIN KMSN 092240Z 04008KT 1 1/2SM BR BKN006 OVC022 04/03 A2983 940 96 -100 040/08 RMK AO2 SFC VIS 2 P0001
14837KMSN MSN20031209164513712/09/03 16:45:31  5-MIN KMSN 092245Z 05008KT 1 1/2SM BR BKN006 OVC022 04/03 A2983 940 96 -100 050/08 RMK AO2 SFC VIS 2 CIG 005V010 P0001
14837KMSN MSN20031209165014312/09/03 16:50:31  5-MIN KMSN 092250Z 05007KT 1 1/2SM BR BKN006 BKN010 OVC022 04/03 A2984 940 96 -100 050/07 RMK AO2 SFC VIS 2 SLP112 T00390033
14837KMSN MSN20031209165513812/09/03 16:55:31  5-MIN KMSN 092255Z 05009KT 1 1/2SM BR BKN006 BKN010 OVC022 04/03 A2984 940 96 -100 050/09 RMK AO2 SFC VIS 2 CIG 005V010
14837KMSN MSN20031209170013112/09/03 17:00:31  5-MIN KMSN 092300Z 05009KT 1 1/2SM BR BKN006 OVC010 04/03 A2984 940 96 -100 040/09 RMK AO2 SFC VIS 2 CIG 005V009
14837KMSN MSN20031209170512412/09/03 17:05:31  5-MIN KMSN 092305Z 05011KT 1 1/2SM BR OVC006 04/03 A2983 950 96 -100 050/11 RMK AO2 SFC VIS 2 CIG 005V011
14837KMSN MSN20031209171012412/09/03 17:10:31  5-MIN KMSN 092310Z 05009KT 1 1/2SM BR OVC006 04/03 A2983 950 96 -100 050/09 RMK AO2 SFC VIS 2 CIG 005V011
14837KMSN MSN20031209171513112/09/03 17:15:31  5-MIN KMSN 092315Z 04010KT 1 1/2SM BR BKN006 OVC011 04/03 A2983 950 96 -100 040/10 RMK AO2 SFC VIS 2 CIG 005V009
14837KMSN MSN20031209172011912/09/03 17:20:31  5-MIN KMSN 092320Z 04010KT 1 1/2SM BR BKN006 OVC011 04/03 A2982 950 96 -100 040/10 RMK AO2 SFC VIS 2
14837KMSN MSN20031209172512412/09/03 17:25:31  5-MIN KMSN 092325Z 04010KT 1 1/2SM BR OVC006 04/03 A2982 960 96 -100 040/10 RMK AO2 SFC VIS 2 CIG 006V011
14837KMSN MSN20031209173012412/09/03 17:30:31  5-MIN KMSN 092330Z 04010KT 1 1/2SM BR OVC006 04/03 A2981 960 96 -100 040/10 RMK AO2 SFC VIS 2 CIG 006V011
14837KMSN MSN20031209173511212/09/03 17:35:31  5-MIN KMSN 092335Z 04010KT 1 1/2SM BR OVC006 04/03 A2981 970 96 -100 040/10 RMK AO2 SFC VIS 2
14837KMSN MSN20031209174011212/09/03 17:40:31  5-MIN KMSN 092340Z 04012KT 1 1/2SM BR OVC006 04/03 A2981 960 96 -100 040/12 RMK AO2 SFC VIS 2
14837KMSN MSN20031209174512412/09/03 17:45:31  5-MIN KMSN 092345Z 04012KT 2SM BR OVC006 04/03 A2981 970 96 -100 040/12 RMK AO2 TWR VIS 2 1/2 CIG 006V011
14837KMSN MSN20031209175015312/09/03 17:50:31  5-MIN KMSN 092350Z 04009KT 2SM BR OVC006 04/03 A2981 970 96 -100 040/09 RMK AO2 TWR VIS 2 1/2 SLP102 60004 T00390033 10044 20039 58012
14837KMSN MSN20031209175512412/09/03 17:55:31  5-MIN KMSN 092355Z 04011KT 2SM BR OVC006 04/03 A2981 960 96 -100 040/11 RMK AO2 TWR VIS 2 1/2 CIG 006V011
14837KMSN MSN20031209180011212/09/03 18:00:31  5-MIN KMSN 100000Z 04011KT 2SM BR OVC006 04/03 A2981 970 96 -100 040/11 RMK AO2 TWR VIS 2 1/2
14837KMSN MSN20031209180511212/09/03 18:05:31  5-MIN KMSN 100005Z 04011KT 2SM BR OVC006 04/03 A2981 970 96 -100 040/11 RMK AO2 TWR VIS 2 1/2
14837KMSN MSN20031209181011212/09/03 18:10:31  5-MIN KMSN 100010Z 04011KT 2SM BR OVC006 04/03 A2981 970 96 -100 040/11 RMK AO2 TWR VIS 2 1/2
14837KMSN MSN20031209181510212/09/03 18:15:31  5-MIN KMSN 100015Z 05011KT 2 1/2SM BR OVC006 04/03 A2981 970 92 -100 050/11 RMK AO2
14837KMSN MSN20031209182010212/09/03 18:20:31  5-MIN KMSN 100020Z 05009KT 2 1/2SM BR OVC006 04/03 A2981 960 92 -100 050/09 RMK AO2
14837KMSN MSN20031209182510212/09/03 18:25:31  5-MIN KMSN 100025Z 06009KT 2 1/2SM BR OVC006 04/03 A2982 960 96 -100 060/09 RMK AO2
14837KMSN MSN20031209183010212/09/03 18:30:31  5-MIN KMSN 100030Z 06012KT 2 1/2SM BR OVC006 04/03 A2982 960 92 -100 060/12 RMK AO2
14837KMSN MSN20031209183510212/09/03 18:35:31  5-MIN KMSN 100035Z 06010KT 2 1/2SM BR OVC006 04/03 A2982 960 92 -100 060/10 RMK AO2
14837KMSN MSN20031209184010212/09/03 18:40:31  5-MIN KMSN 100040Z 05011KT 2 1/2SM BR OVC006 04/03 A2981 970 92 -100 050/11 RMK AO2
14837KMSN MSN20031209184510212/09/03 18:45:31  5-MIN KMSN 100045Z 05008KT 2 1/2SM BR OVC006 04/03 A2981 970 92 -100 050/08 RMK AO2
14837KMSN MSN20031209185011912/09/03 18:50:31  5-MIN KMSN 100050Z 05010KT 2 1/2SM BR OVC006 04/03 A2982 960 92 -100 050/10 RMK AO2 SLP104 T00390028
14837KMSN MSN20031209185510212/09/03 18:55:31  5-MIN KMSN 100055Z 06009KT 2 1/2SM BR OVC006 04/03 A2982 960 92 -100 060/09 RMK AO2
14837KMSN MSN20031209190010212/09/03 19:00:31  5-MIN KMSN 100100Z 06011KT 2 1/2SM BR OVC006 04/03 A2982 960 92 -100 060/11 RMK AO2
14837KMSN MSN20031209190511512/09/03 19:05:31  5-MIN KMSN 100105Z 07009KT 2 1/2SM -RA OVC006 04/03 A2982 960 92 -100 070/09 RMK AO2 RAB01 P0000
14837KMSN MSN20031209191012812/09/03 19:10:31  5-MIN KMSN 100110Z 07009KT 2SM -RA BR OVC006 04/03 A2982 960 92 -100 070/09 RMK AO2 TWR VIS 2 1/2 RAB01 P0001
14837KMSN MSN20031209191513112/09/03 19:15:31  5-MIN KMSN 100115Z 06008KT 1 1/2SM RA BR OVC006 04/03 A2981 960 92 -100 060/08 RMK AO2 TWR VIS 2 1/2 RAB01 P0002
14837KMSN MSN20031209192013112/09/03 19:20:31  5-MIN KMSN 100120Z 06011KT 1 1/2SM RA BR OVC006 04/03 A2981 970 92 -100 060/11 RMK AO2 TWR VIS 2 1/2 RAB01 P0004
14837KMSN MSN20031209192512912/09/03 19:25:31  5-MIN KMSN 100125Z 06009KT 1 1/2SM -RA BR OVC006 04/03 A2980 970 92 0 060/09 RMK AO2 TWR VIS 2 1/2 RAB01 P0005
14837KMSN MSN20031209193013212/09/03 19:30:31  5-MIN KMSN 100130Z 06009KT 1 1/2SM -RA BR OVC006 03/03 A2980 980 96 -100 060/09 RMK AO2 TWR VIS 2 1/2 RAB01 P0006
14837KMSN MSN20031209193514412/09/03 19:35:31  5-MIN KMSN 100135Z 06011KT 1 1/2SM -RA BR OVC006 03/03 A2980 980 96 -100 060/11 RMK AO2 TWR VIS 2 1/2 RAB01 CIG 005V009 P0007
14837KMSN MSN20031209194014412/09/03 19:40:31  5-MIN KMSN 100140Z 05009KT 1 1/2SM -RA BR OVC006 03/03 A2979 980 96 -100 050/09 RMK AO2 TWR VIS 2 1/2 RAB01 CIG 005V009 P0008
14837KMSN MSN20031209194514412/09/03 19:45:31  5-MIN KMSN 100145Z 05009KT 1 1/2SM -RA BR OVC006 03/03 A2979 980 96 -100 050/09 RMK AO2 TWR VIS 2 1/2 RAB01 CIG 005V009 P0009
14837KMSN MSN20031209195015712/09/03 19:50:31  5-MIN KMSN 100150Z 05010KT 2SM -RA BR OVC006 03/03 A2978 990 96 -100 050/10 RMK AO2 TWR VIS 2 1/2 RAB01 CIG 005V009 SLP093 P0010 T00330028
14837KMSN MSN20031209195513512/09/03 19:55:31  5-MIN KMSN 100155Z 05009KT 2SM -RA BR OVC006 03/03 A2978 1000 96 -100 050/09 RMK AO2 TWR VIS 2 1/2 CIG 005V009 P0001
14837KMSN MSN20031209200014812/09/03 20:00:31  5-MIN KMSN 100200Z 04012KT 2SM RA BR BKN006 OVC011 03/03 A2977 1000 96 -100 040/12 RMK AO2 TWR VIS 2 1/2 CIG 005V009 PRESFR P0003
14837KMSN MSN20031209200514112/09/03 20:05:31  5-MIN KMSN 100205Z 05011KT 2SM RA BR BKN008 OVC011 03/03 A2978 1000 96 -100 050/11 RMK AO2 TWR VIS 2 1/2 CIG 005V011 P0004
14837KMSN MSN20031209201013112/09/03 20:10:31  5-MIN KMSN 100210Z 05010KT 2 1/2SM -RA BR BKN008 OVC011 03/03 A2978 990 96 -100 050/10 RMK AO2 CIG 006V010 P0004
14837KMSN MSN20031209201513112/09/03 20:15:31  5-MIN KMSN 100215Z 04009KT 2 1/2SM -RA BR BKN008 OVC013 03/03 A2979 990 96 -100 040/09 RMK AO2 CIG 006V010 P0005
14837KMSN MSN20031209202013112/09/03 20:20:31  5-MIN KMSN 100220Z 04009KT 2 1/2SM -RA BR BKN008 OVC013 03/03 A2978 990 96 -100 040/09 RMK AO2 CIG 006V011 P0006
14837KMSN MSN20031209202514112/09/03 20:25:31  5-MIN KMSN 100225Z 04008KT 2 1/2SM -RA BR BKN008 OVC015 03/02 A2978 990 92 -100 040/08 RMK AO2 SFC VIS 3 CIG 006V013 P0007
14837KMSN MSN20031209203012012/09/03 20:30:31  5-MIN KMSN 100230Z 04008KT 3SM -RA BR OVC010 03/02 A2978 990 92 -100 030/08 RMK AO2 CIG 006V015 P0007
14837KMSN MSN20031209203512812/09/03 20:35:31  5-MIN KMSN 100235Z 04010KT 3SM -RA BR BKN008 OVC013 03/02 A2978 1000 92 -100 040/10 RMK AO2 CIG 006V010 P0009
14837KMSN MSN20031209204012112/09/03 20:40:31  5-MIN KMSN 100240Z 05009KT 3SM -RA BR OVC010 03/02 A2977 1000 92 -100 050/09 RMK AO2 CIG 006V014 P0010
14837KMSN MSN20031209204512012/09/03 20:45:31  5-MIN KMSN 100245Z 04010KT 3SM RA BR OVC010 03/02 A2977 1000 96 -100 040/10 RMK AO2 CIG 006V013 P0013
14837KMSN MSN20031209205016312/09/03 20:50:31  5-MIN KMSN 100250Z 05010KT 2 1/2SM RA BR OVC010 03/02 A2977 1000 96 -100 050/10 RMK AO2 TWR VIS 3 CIG 006V013 SLP088 P0015 60025 T00280022 58015
14837KMSN MSN20031209205514112/09/03 20:55:31  5-MIN KMSN 100255Z 04010KT 2 1/2SM RA BR BKN008 OVC014 03/02 A2976 1010 96 -100 040/10 RMK AO2 TWR VIS 3 CIG 006V011 P0000
14837KMSN MSN20031209210014112/09/03 21:00:31  5-MIN KMSN 100300Z 04010KT 2 1/2SM RA BR BKN008 OVC014 03/02 A2976 1010 92 -100 040/10 RMK AO2 TWR VIS 3 CIG 006V011 P0003
14837KMSN MSN20031209210513612/09/03 21:05:31  5-MIN KMSN 100305Z 04010KT 2 1/2SM RA BR BKN008 BKN012 OVC017 03/02 A2976 1010 92 -100 030/10 RMK AO2 TWR VIS 3 P0004
14837KMSN MSN20031209211013512/09/03 21:10:31  5-MIN KMSN 100310Z 04011KT 3SM -RA BR BKN008 BKN012 OVC017 03/02 A2975 1020 92 -100 040/11 RMK AO2 CIG 006V011 P0005
14837KMSN MSN20031209211513512/09/03 21:15:31  5-MIN KMSN 100315Z 03011KT 3SM -RA BR BKN008 BKN012 OVC017 03/02 A2975 1020 92 -100 030/11 RMK AO2 CIG 006V011 P0006
14837KMSN MSN20031209212012812/09/03 21:20:31  5-MIN KMSN 100320Z 03011KT 3SM -RA BR BKN008 OVC012 03/02 A2975 1030 92 -100 030/11 RMK AO2 CIG 006V011 P0007
14837KMSN MSN20031209212511512/09/03 21:25:31  5-MIN KMSN 100325Z 03014KT 3SM RA BR BKN008 OVC020 02/02 A2974 1030 96 -200 030/14 RMK AO2 P0008
14837KMSN MSN20031209213012912/09/03 21:30:31  5-MIN KMSN 100330Z 03012KT 3SM RA BR BKN008 BKN017 OVC024 02/02 A2973 1040 96 -200 030/12 RMK AO2 PRESFR P0009
14837KMSN MSN20031209213511512/09/03 21:35:31  5-MIN KMSN 100335Z 03013KT 3SM RA BR BKN008 OVC015 02/02 A2973 1040 96 -200 030/13 RMK AO2 P0009
14837KMSN MSN20031209214011612/09/03 21:40:31  5-MIN KMSN 100340Z 02013KT 3SM -RA BR BKN008 OVC012 02/02 A2972 1050 96 -200 020/13 RMK AO2 P0010
14837KMSN MSN20031209214511612/09/03 21:45:31  5-MIN KMSN 100345Z 03013KT 3SM -RA BR BKN008 OVC012 02/02 A2973 1040 96 -200 030/13 RMK AO2 P0011
14837KMSN MSN20031209215013212/09/03 21:50:31  5-MIN KMSN 100350Z 03011KT 3SM RA BR BKN008 OVC015 02/02 A2973 1050 96 -200 030/11 RMK AO2 SLP073 P0012 T00220017
14837KMSN MSN20031209215510812/09/03 21:55:31  5-MIN KMSN 100355Z 03012KT 3SM RA BR OVC008 02/02 A2972 1050 96 -200 030/12 RMK AO2 P0001
14837KMSN MSN20031209220012012/09/03 22:00:31  5-MIN KMSN 100400Z 03011KT 3SM RA BR OVC008 02/02 A2972 1050 96 -200 030/11 RMK AO2 CIG 005V011 P0002
14837KMSN MSN20031209220512012/09/03 22:05:31  5-MIN KMSN 100405Z 02012KT 3SM RA BR OVC006 02/02 A2971 1060 96 -200 020/12 RMK AO2 CIG 005V010 P0003
14837KMSN MSN20031209221013112/09/03 22:10:31  5-MIN KMSN 100410Z 02013KT 3SM -RA BR OVC006 02/02 A2971 1060 96 -100 020/13 RMK AO2 SFC VIS 3 CIG 005V010 P0003
14837KMSN MSN20031209221513112/09/03 22:15:31  5-MIN KMSN 100415Z 02012KT 3SM -RA BR OVC006 02/02 A2970 1070 96 -100 020/12 RMK AO2 SFC VIS 3 CIG 005V009 P0004
14837KMSN MSN20031209222013112/09/03 22:20:31  5-MIN KMSN 100420Z 02012KT 3SM -RA BR OVC006 02/02 A2971 1060 96 -100 020/12 RMK AO2 SFC VIS 3 CIG 005V009 P0005
14837KMSN MSN20031209222510912/09/03 22:25:31  5-MIN KMSN 100425Z 02011KT 3SM -RA BR OVC006 02/02 A2971 1060 96 -100 020/11 RMK AO2 P0006
14837KMSN MSN20031209223010912/09/03 22:30:31  5-MIN KMSN 100430Z 01011KT 3SM -RA BR OVC006 02/02 A2971 1060 96 -100 010/11 RMK AO2 P0006
14837KMSN MSN20031209223510912/09/03 22:35:31  5-MIN KMSN 100435Z 02012KT 3SM -RA BR OVC006 02/02 A2970 1070 96 -100 020/12 RMK AO2 P0007
14837KMSN MSN20031209224012112/09/03 22:40:31  5-MIN KMSN 100440Z 02014KT 3SM -RA BR OVC006 02/02 A2970 1070 96 -100 020/14 RMK AO2 CIG 005V009 P0007
14837KMSN MSN20031209224510912/09/03 22:45:31  5-MIN KMSN 100445Z 03013KT 3SM -RA BR OVC006 02/02 A2970 1070 96 -100 030/13 RMK AO2 P0008
14837KMSN MSN20031209225012612/09/03 22:50:31  5-MIN KMSN 100450Z 02012KT 3SM -RA BR OVC006 02/02 A2970 1070 96 -100 020/12 RMK AO2 SLP063 P0009 T00220017
14837KMSN MSN20031209225510912/09/03 22:55:31  5-MIN KMSN 100455Z 02012KT 3SM -RA BR OVC006 02/02 A2969 1070 96 -100 020/12 RMK AO2 P0000
14837KMSN MSN20031209230010912/09/03 23:00:31  5-MIN KMSN 100500Z 02012KT 3SM -RA BR OVC006 02/02 A2969 1080 96 -100 020/12 RMK AO2 P0001
14837KMSN MSN20031209230510912/09/03 23:05:31  5-MIN KMSN 100505Z 02012KT 3SM -RA BR OVC006 02/02 A2969 1080 96 -100 020/12 RMK AO2 P0001
14837KMSN MSN20031209231010912/09/03 23:10:31  5-MIN KMSN 100510Z 02013KT 3SM -RA BR OVC006 02/01 A2969 1080 92 -100 020/13 RMK AO2 P0002
14837KMSN MSN20031209231510912/09/03 23:15:31  5-MIN KMSN 100515Z 03012KT 3SM -RA BR OVC006 02/01 A2969 1080 92 -100 030/12 RMK AO2 P0003
14837KMSN MSN20031209232012112/09/03 23:20:31  5-MIN KMSN 100520Z 03011KT 3SM -RA BR OVC006 02/01 A2969 1080 92 -100 020/11 RMK AO2 CIG 004V010 P0004
14837KMSN MSN20031209232512712/09/03 23:25:31  5-MIN KMSN 100525Z 03014G18KT 3SM -RA BR OVC006 02/02 A2969 1080 96 -100 020/14G18 RMK AO2 CIG 005V010 P0004
14837KMSN MSN20031209233011512/09/03 23:30:31  5-MIN KMSN 100530Z 03011G18KT 3SM -RA BR OVC006 02/02 A2968 1080 96 -100 030/11G18 RMK AO2 P0005
14837KMSN MSN20031209233510912/09/03 23:35:31  5-MIN KMSN 100535Z 03011KT 3SM -RA BR OVC006 02/02 A2968 1090 96 -100 030/11 RMK AO2 P0006
14837KMSN MSN20031209234010912/09/03 23:40:31  5-MIN KMSN 100540Z 02011KT 3SM -RA BR OVC006 02/02 A2967 1090 96 -100 020/11 RMK AO2 P0006
14837KMSN MSN20031209234510912/09/03 23:45:31  5-MIN KMSN 100545Z 02011KT 3SM -RA BR OVC006 02/02 A2967 1100 96 -100 020/11 RMK AO2 P0007
14837KMSN MSN20031209235016012/09/03 23:50:31  5-MIN KMSN 100550Z 03011KT 3SM -RA BR OVC006 02/02 A2967 1100 96 -100 020/11 RMK AO2 SLP054 P0008 60056 T00220017 10039 20022 400441011 58015
14837KMSN MSN20031209235510912/09/03 23:55:31  5-MIN KMSN 100555Z 02011KT 4SM -RA BR OVC006 02/02 A2967 1100 96 -100 020/11 RMK AO2 P0000
14837KMSN MSN20031210000010912/10/03 00:00:31  5-MIN KMSN 100600Z 02013KT 4SM -RA BR OVC006 02/02 A2966 1100 96 -100 020/13 RMK AO2 P0001
14837KMSN MSN20031210000511512/10/03 00:05:31  5-MIN KMSN 100605Z 02011G17KT 4SM -RA BR OVC006 02/02 A2966 1110 96 -100 020/11G17 RMK AO2 P0002
14837KMSN MSN20031210001010912/10/03 00:10:31  5-MIN KMSN 100610Z 02011KT 4SM -RA BR OVC006 02/02 A2965 1110 96 -100 020/11 RMK AO2 P0003
14837KMSN MSN20031210001510912/10/03 00:15:31  5-MIN KMSN 100615Z 03012KT 4SM -RA BR OVC006 02/02 A2966 1110 96 -100 030/12 RMK AO2 P0003
14837KMSN MSN20031210002010912/10/03 00:20:31  5-MIN KMSN 100620Z 02012KT 4SM -RA BR OVC006 02/02 A2965 1110 96 -100 020/12 RMK AO2 P0004
14837KMSN MSN20031210002510912/10/03 00:25:31  5-MIN KMSN 100625Z 02010KT 4SM -RA BR OVC006 02/02 A2965 1110 96 -100 020/10 RMK AO2 P0005
14837KMSN MSN20031210003010912/10/03 00:30:31  5-MIN KMSN 100630Z 02010KT 4SM -RA BR OVC006 02/02 A2965 1110 96 -100 020/10 RMK AO2 P0005
14837KMSN MSN20031210003510812/10/03 00:35:31  5-MIN KMSN 100635Z 02011KT 4SM RA BR OVC006 02/02 A2965 1120 96 -100 020/11 RMK AO2 P0006
14837KMSN MSN20031210004010912/10/03 00:40:31  5-MIN KMSN 100640Z 02013KT 4SM -RA BR OVC006 02/02 A2964 1130 96 -100 020/13 RMK AO2 P0007
14837KMSN MSN20031210004511612/10/03 00:45:31  5-MIN KMSN 100645Z 02014KT 4SM -RA BR OVC006 02/02 A2963 1130 96 -100 020/14 RMK AO2 PRESFR P0008
14837KMSN MSN20031210005012612/10/03 00:50:31  5-MIN KMSN 100650Z 01013KT 4SM -RA BR OVC006 02/02 A2964 1130 96 -100 010/13 RMK AO2 SLP042 P0011 T00220017
14837KMSN MSN20031210005510912/10/03 00:55:31  5-MIN KMSN 100655Z 01012KT 4SM -RA BR OVC006 02/02 A2963 1130 96 -100 010/12 RMK AO2 P0000
14837KMSN MSN20031210010010912/10/03 01:00:31  5-MIN KMSN 100700Z 02012KT 4SM -RA BR OVC006 02/01 A2963 1140 92 -100 020/12 RMK AO2 P0001
14837KMSN MSN20031210010510912/10/03 01:05:31  5-MIN KMSN 100705Z 01011KT 4SM -RA BR OVC006 02/02 A2963 1130 96 -100 010/11 RMK AO2 P0001
14837KMSN MSN20031210011010912/10/03 01:10:31  5-MIN KMSN 100710Z 01010KT 5SM -RA BR OVC006 02/01 A2963 1130 92 -100 010/10 RMK AO2 P0002
14837KMSN MSN20031210011510912/10/03 01:15:31  5-MIN KMSN 100715Z 01012KT 4SM -RA BR OVC006 02/02 A2963 1130 96 -100 010/12 RMK AO2 P0002
14837KMSN MSN20031210012010912/10/03 01:20:31  5-MIN KMSN 100720Z 02013KT 4SM -RA BR OVC006 02/01 A2963 1130 92 -100 020/13 RMK AO2 P0003
14837KMSN MSN20031210012510912/10/03 01:25:31  5-MIN KMSN 100725Z 01013KT 4SM -RA BR OVC006 02/01 A2963 1130 92 -100 010/13 RMK AO2 P0004
14837KMSN MSN20031210013010912/10/03 01:30:31  5-MIN KMSN 100730Z 01011KT 4SM -RA BR OVC006 02/01 A2963 1130 92 -100 360/11 RMK AO2 P0004
14837KMSN MSN20031210013510912/10/03 01:35:31  5-MIN KMSN 100735Z 01011KT 4SM -RA BR OVC006 02/02 A2963 1130 96 -100 010/11 RMK AO2 P0005
14837KMSN MSN20031210014010912/10/03 01:40:31  5-MIN KMSN 100740Z 01013KT 4SM -RA BR OVC006 02/01 A2963 1140 92 -100 010/13 RMK AO2 P0006
14837KMSN MSN20031210014510912/10/03 01:45:31  5-MIN KMSN 100745Z 01012KT 4SM -RA BR OVC006 02/01 A2963 1140 92 -100 010/12 RMK AO2 P0006
14837KMSN MSN20031210015012612/10/03 01:50:31  5-MIN KMSN 100750Z 01012KT 4SM -RA BR OVC006 02/01 A2963 1130 92 -100 360/12 RMK AO2 SLP040 P0009 T00220011
14837KMSN MSN20031210015512112/10/03 01:55:31  5-MIN KMSN 100755Z 36012KT 4SM -RA BR OVC006 02/01 A2963 1130 92 -100 360/12 RMK AO2 CIG 005V009 P0000
14837KMSN MSN20031210020012112/10/03 02:00:31  5-MIN KMSN 100800Z 01012KT 5SM -RA BR OVC006 02/01 A2963 1140 92 -100 010/12 RMK AO2 CIG 005V009 P0001
14837KMSN MSN20031210020511812/10/03 02:05:31  5-MIN KMSN 100805Z 01014KT 5SM -RA BR OVC006 02/01 A2962 1140 92 0 010/14 RMK AO2 CIG 005V009 P0002
14837KMSN MSN20031210021011812/10/03 02:10:31  5-MIN KMSN 100810Z 36011KT 5SM -RA BR OVC006 02/01 A2962 1140 92 0 360/11 RMK AO2 CIG 005V010 P0003
14837KMSN MSN20031210021511812/10/03 02:15:31  5-MIN KMSN 100815Z 35010KT 5SM -RA BR OVC006 02/01 A2962 1140 92 0 350/10 RMK AO2 CIG 005V010 P0003
14837KMSN MSN20031210022010612/10/03 02:20:31  5-MIN KMSN 100820Z 36010KT 5SM -RA BR OVC006 02/01 A2962 1150 92 0 360/10 RMK AO2 P0004
14837KMSN MSN20031210022510912/10/03 02:25:31  5-MIN KMSN 100825Z 36010KT 5SM -RA BR OVC006 02/01 A2962 1150 96 -100 360/10 RMK AO2 P0004
14837KMSN MSN20031210023010912/10/03 02:30:31  5-MIN KMSN 100830Z 36011KT 5SM -RA BR OVC006 02/01 A2962 1150 96 -100 360/11 RMK AO2 P0005
14837KMSN MSN20031210023510912/10/03 02:35:31  5-MIN KMSN 100835Z 36011KT 5SM -RA BR OVC006 02/01 A2962 1150 96 -100 360/11 RMK AO2 P0006
14837KMSN MSN20031210024010912/10/03 02:40:31  5-MIN KMSN 100840Z 36012KT 5SM -RA BR OVC006 02/01 A2961 1150 96 -100 360/12 RMK AO2 P0006
14837KMSN MSN20031210024510912/10/03 02:45:31  5-MIN KMSN 100845Z 01012KT 5SM -RA BR OVC006 02/01 A2961 1150 96 -100 010/12 RMK AO2 P0007
14837KMSN MSN20031210025013812/10/03 02:50:31  5-MIN KMSN 100850Z 01012KT 5SM -RA BR OVC006 02/01 A2961 1150 96 -100 010/12 RMK AO2 SLP033 P0011 60031 T00170011 56033
14837KMSN MSN20031210025510912/10/03 02:55:31  5-MIN KMSN 100855Z 36012KT 5SM -RA BR OVC006 02/01 A2960 1160 96 -100 360/12 RMK AO2 P0001
14837KMSN MSN20031210030010812/10/03 03:00:31  5-MIN KMSN 100900Z 01013KT 5SM RA BR OVC006 02/01 A2960 1160 96 -100 360/13 RMK AO2 P0001
14837KMSN MSN20031210030510912/10/03 03:05:31  5-MIN KMSN 100905Z 01013KT 5SM -RA BR OVC006 02/01 A2959 1170 96 -100 360/13 RMK AO2 P0002
14837KMSN MSN20031210031010912/10/03 03:10:31  5-MIN KMSN 100910Z 36014KT 5SM -RA BR OVC006 02/01 A2959 1170 96 -100 360/14 RMK AO2 P0002
14837KMSN MSN20031210031511612/10/03 03:15:31  5-MIN KMSN 100915Z 36015KT 6SM -RA BR OVC006 02/01 A2958 1180 96 -100 360/15 RMK AO2 PRESFR P0003
14837KMSN MSN20031210032010912/10/03 03:20:31  5-MIN KMSN 100920Z 01015KT 6SM -RA BR OVC006 02/01 A2958 1180 96 -100 010/15 RMK AO2 P0003
14837KMSN MSN20031210032510912/10/03 03:25:31  5-MIN KMSN 100925Z 01016KT 6SM -RA BR OVC006 02/01 A2958 1180 92 -100 010/16 RMK AO2 P0003
14837KMSN MSN20031210033011212/10/03 03:30:31  5-MIN KMSN 100930Z 01015G20KT 7SM -RA OVC006 02/01 A2958 1180 92 -100 010/15G20 RMK AO2 P0003
14837KMSN MSN20031210033512912/10/03 03:35:31  5-MIN KMSN 100935Z 01014G20KT 8SM UP BKN006 OVC010 02/01 A2958 1180 92 -100 010/14G20 RMK AO2 RAE33UPB33 P0004
14837KMSN MSN20031210034012412/10/03 03:40:31  5-MIN KMSN 100940Z 01014G19KT 7SM -RA OVC006 02/01 A2958 1180 92 -100 010/14G19 RMK AO2 CIG 005V010 P0004
14837KMSN MSN20031210034512412/10/03 03:45:31  5-MIN KMSN 100945Z 01013G19KT 7SM -RA OVC006 02/01 A2957 1190 92 -100 010/13G19 RMK AO2 CIG 005V010 P0004
14837KMSN MSN20031210035014112/10/03 03:50:31  5-MIN KMSN 100950Z 01015G21KT 7SM -RA OVC006 02/01 A2957 1190 92 -100 010/15G21 RMK AO2 CIG 005V010 SLP021 P0005 T00170006
14837KMSN MSN20031210035512412/10/03 03:55:31  5-MIN KMSN 100955Z 01014G21KT 7SM -RA OVC006 02/01 A2957 1190 92 -100 010/14G21 RMK AO2 CIG 006V010 P0000
14837KMSN MSN20031210040010312/10/03 04:00:31  5-MIN KMSN 101000Z 01015KT 7SM -RA OVC006 02/01 A2957 1190 92 0 360/15 RMK AO2 P0000
14837KMSN MSN20031210040511212/10/03 04:05:31  5-MIN KMSN 101005Z 36015G20KT 8SM -RA OVC006 02/01 A2957 1190 92 -100 360/15G20 RMK AO2 P0001
14837KMSN MSN20031210041011812/10/03 04:10:31  5-MIN KMSN 101010Z 36015KT 8SM -RA OVC006 02/01 A2957 1190 92 -100 360/15 RMK AO2 CIG 006V011 P0001
14837KMSN MSN20031210041511212/10/03 04:15:31  5-MIN KMSN 101015Z 01013G20KT 7SM -RA OVC006 02/01 A2957 1190 92 -100 360/13G20 RMK AO2 P0001
14837KMSN MSN20031210042011212/10/03 04:20:31  5-MIN KMSN 101020Z 01016G21KT 6SM -RA BR OVC006 02/01 A2956 1200 92 0 010/16G21 RMK AO2 P0002
14837KMSN MSN20031210042511412/10/03 04:25:31  5-MIN KMSN 101025Z 36015G21KT 5SM RA BR OVC006 01/01 A2956 1200 96 -100 360/15G21 RMK AO2 P0003
14837KMSN MSN20031210043010812/10/03 04:30:31  5-MIN KMSN 101030Z 01015KT 5SM RA BR OVC006 01/01 A2956 1200 96 -100 010/15 RMK AO2 P0004
14837KMSN MSN20031210043510812/10/03 04:35:31  5-MIN KMSN 101035Z 01015KT 6SM RA BR OVC006 01/01 A2956 1200 96 -100 360/15 RMK AO2 P0004
14837KMSN MSN20031210044010912/10/03 04:40:31  5-MIN KMSN 101040Z 01016KT 6SM -RA BR OVC006 01/01 A2956 1200 96 -100 360/16 RMK AO2 P0005
14837KMSN MSN20031210044510912/10/03 04:45:31  5-MIN KMSN 101045Z 01015KT 6SM -RA BR OVC006 01/01 A2956 1200 96 -100 010/15 RMK AO2 P0006
14837KMSN MSN20031210045012612/10/03 04:50:31  5-MIN KMSN 101050Z 01014KT 6SM -RA BR OVC006 01/01 A2955 1200 96 -100 360/14 RMK AO2 SLP015 P0009 T00110006
14837KMSN MSN20031210045510812/10/03 04:55:31  5-MIN KMSN 101055Z 01014KT 5SM RA BR OVC006 01/01 A2956 1200 96 -100 360/14 RMK AO2 P0000
14837KMSN MSN20031210050010812/10/03 05:00:31  5-MIN KMSN 101100Z 01014KT 5SM RA BR OVC006 01/01 A2955 1200 96 -100 010/14 RMK AO2 P0001
14837KMSN MSN20031210050510812/10/03 05:05:31  5-MIN KMSN 101105Z 01015KT 5SM RA BR OVC006 01/01 A2955 1210 96 -100 360/15 RMK AO2 P0002
14837KMSN MSN20031210051012012/10/03 05:10:31  5-MIN KMSN 101110Z 01014KT 5SM RA BR OVC006 01/01 A2955 1210 96 -100 010/14 RMK AO2 CIG 006V011 P0003
14837KMSN MSN20031210051512112/10/03 05:15:31  5-MIN KMSN 101115Z 01014KT 5SM -RA BR OVC006 01/01 A2955 1210 96 -100 010/14 RMK AO2 CIG 006V011 P0004
14837KMSN MSN20031210052012112/10/03 05:20:31  5-MIN KMSN 101120Z 01015KT 6SM -RA BR OVC006 01/01 A2955 1210 96 -100 010/15 RMK AO2 CIG 006V011 P0004
14837KMSN MSN20031210052512112/10/03 05:25:31  5-MIN KMSN 101125Z 01013KT 5SM -RA BR OVC006 01/00 A2955 1210 92 -100 010/13 RMK AO2 CIG 006V011 P0005
14837KMSN MSN20031210053010912/10/03 05:30:31  5-MIN KMSN 101130Z 01016KT 6SM -RA BR OVC006 01/00 A2955 1210 92 -100 010/16 RMK AO2 P0006
14837KMSN MSN20031210053510912/10/03 05:35:31  5-MIN KMSN 101135Z 01016KT 6SM -RA BR OVC006 01/00 A2954 1220 92 -100 010/16 RMK AO2 P0006
14837KMSN MSN20031210054010912/10/03 05:40:31  5-MIN KMSN 101140Z 01016KT 6SM -RA BR OVC006 01/00 A2954 1220 92 -100 010/16 RMK AO2 P0007
14837KMSN MSN20031210054512112/10/03 05:45:31  5-MIN KMSN 101145Z 01019KT 6SM -RA BR OVC006 01/00 A2954 1220 92 -100 010/19 RMK AO2 CIG 006V010 P0007
14837KMSN MSN20031210055016812/10/03 05:50:31  5-MIN KMSN 101150Z 01015KT 6SM -RA BR OVC008 01/00 A2954 1220 92 -100 010/15 RMK AO2 CIG 006V010 SLP008 P0010 60056 70117 T00110000 10022 20011 56021
14837KMSN MSN20031210055512112/10/03 05:55:31  5-MIN KMSN 101155Z 36017KT 6SM -RA BR OVC008 01/00 A2953 1230 92 -100 360/17 RMK AO2 CIG 006V010 P0000
14837KMSN MSN20031210060012712/10/03 06:00:31  5-MIN KMSN 101200Z 01019G25KT 6SM -RA BR OVC008 01/00 A2953 1230 92 -100 010/19G25 RMK AO2 CIG 006V010 P0001
14837KMSN MSN20031210060512712/10/03 06:05:31  5-MIN KMSN 101205Z 01017G25KT 6SM -RA BR OVC008 01/00 A2952 1240 92 -100 360/17G25 RMK AO2 CIG 006V010 P0001
14837KMSN MSN20031210061012712/10/03 06:10:31  5-MIN KMSN 101210Z 01019G24KT 6SM -RA BR OVC008 01/00 A2952 1240 92 -100 010/19G24 RMK AO2 CIG 006V011 P0002
14837KMSN MSN20031210061512612/10/03 06:15:31  5-MIN KMSN 101215Z 36016G24KT 5SM RA BR OVC008 01/00 A2952 1240 92 -100 360/16G24 RMK AO2 CIG 006V011 P0002
14837KMSN MSN20031210062012712/10/03 06:20:31  5-MIN KMSN 101220Z 01017G23KT 5SM -RA BR OVC008 01/00 A2952 1240 92 -100 360/17G23 RMK AO2 CIG 006V011 P0003
14837KMSN MSN20031210062512712/10/03 06:25:31  5-MIN KMSN 101225Z 36017G22KT 5SM -RA BR OVC008 01/00 A2952 1240 92 -100 360/17G22 RMK AO2 CIG 006V011 P0003
14837KMSN MSN20031210063012712/10/03 06:30:31  5-MIN KMSN 101230Z 01018G24KT 6SM -RA BR OVC008 01/00 A2952 1240 92 -100 010/18G24 RMK AO2 CIG 006V011 P0004
14837KMSN MSN20031210063512712/10/03 06:35:31  5-MIN KMSN 101235Z 01019G24KT 6SM -RA BR OVC008 01/00 A2951 1240 92 -100 360/19G24 RMK AO2 CIG 006V011 P0004
14837KMSN MSN20031210064012712/10/03 06:40:31  5-MIN KMSN 101240Z 01016G23KT 6SM -RA BR OVC008 01/00 A2951 1240 92 -100 010/16G23 RMK AO2 CIG 006V011 P0005
14837KMSN MSN20031210064512412/10/03 06:45:31  5-MIN KMSN 101245Z 01018G23KT 7SM -RA OVC008 01/00 A2951 1240 92 -100 360/18G23 RMK AO2 CIG 006V011 P0005
14837KMSN MSN20031210065014112/10/03 06:50:31  5-MIN KMSN 101250Z 36017G23KT 7SM -RA OVC008 01/00 A2951 1240 92 -100 360/17G23 RMK AO2 CIG 006V011 SLP000 P0005 T00110000
14837KMSN MSN20031210065512412/10/03 06:55:31  5-MIN KMSN 101255Z 36016G22KT 7SM -RA OVC008 01/00 A2951 1250 92 -100 360/16G22 RMK AO2 CIG 006V011 P0000
14837KMSN MSN20031210070010912/10/03 07:00:31  5-MIN KMSN 101300Z 36016G22KT 7SM -RA OVC008 01/00 A2951 1250 92 0 360/16G22 RMK AO2 P0000
14837KMSN MSN20031210070512412/10/03 07:05:31  5-MIN KMSN 101305Z 01018G22KT 6SM -RA BR OVC008 01/00 A2951 1250 92 0 010/18G22 RMK AO2 CIG 007V013 P0001
14837KMSN MSN20031210071012412/10/03 07:10:31  5-MIN KMSN 101310Z 36017G22KT 6SM -RA BR OVC008 01/00 A2950 1250 92 0 360/17G22 RMK AO2 CIG 007V011 P0001
14837KMSN MSN20031210071510912/10/03 07:15:31  5-MIN KMSN 101315Z 01017G23KT 7SM -RA OVC008 01/00 A2950 1260 92 0 010/17G23 RMK AO2 P0001
14837KMSN MSN20031210072012112/10/03 07:20:31  5-MIN KMSN 101320Z 01020G23KT 7SM -RA OVC008 01/00 A2950 1260 92 0 010/20G23 RMK AO2 CIG 007V011 P0002
14837KMSN MSN20031210072512412/10/03 07:25:31  5-MIN KMSN 101325Z 36018G25KT 6SM -RA BR OVC008 01/00 A2949 1260 92 0 360/18G25 RMK AO2 CIG 007V011 P0002
14837KMSN MSN20031210073012412/10/03 07:30:31  5-MIN KMSN 101330Z 36017G25KT 6SM -RA BR OVC008 01/00 A2949 1260 92 0 360/17G25 RMK AO2 CIG 007V011 P0003
14837KMSN MSN20031210073512412/10/03 07:35:31  5-MIN KMSN 101335Z 01018G24KT 6SM -RA BR OVC008 01/00 A2949 1260 92 0 010/18G24 RMK AO2 CIG 007V011 P0003
14837KMSN MSN20031210074012412/10/03 07:40:31  5-MIN KMSN 101340Z 01018G25KT 6SM -RA BR OVC008 01/00 A2950 1260 92 0 010/18G25 RMK AO2 CIG 007V012 P0004
14837KMSN MSN20031210074512312/10/03 07:45:31  5-MIN KMSN 101345Z 01017G25KT 6SM RA BR OVC008 01/00 A2950 1250 92 0 010/17G25 RMK AO2 CIG 007V012 P0004
14837KMSN MSN20031210075014012/10/03 07:50:31  5-MIN KMSN 101350Z 01017G24KT 5SM RA BR OVC008 01/00 A2951 1250 92 0 010/17G24 RMK AO2 CIG 007V012 SLP999 P0005 T00110000
14837KMSN MSN20031210075512412/10/03 07:55:31  5-MIN KMSN 101355Z 01020G24KT 6SM -RA BR OVC008 01/00 A2951 1250 92 0 010/20G24 RMK AO2 CIG 007V012 P0001
14837KMSN MSN20031210080011112/10/03 08:00:31  5-MIN KMSN 101400Z 01020G24KT 5SM RA BR OVC008 01/00 A2951 1250 92 0 010/20G24 RMK AO2 P0002
14837KMSN MSN20031210080512312/10/03 08:05:31  5-MIN KMSN 101405Z 36015G24KT 5SM RA BR OVC008 01/00 A2950 1250 92 0 360/15G24 RMK AO2 CIG 007V012 P0002
14837KMSN MSN20031210081012312/10/03 08:10:31  5-MIN KMSN 101410Z 36020G24KT 5SM RA BR OVC008 01/00 A2950 1260 92 0 360/20G24 RMK AO2 CIG 007V012 P0003
14837KMSN MSN20031210081512412/10/03 08:15:31  5-MIN KMSN 101415Z 36019G25KT 4SM -RA BR OVC008 01/00 A2949 1260 92 0 360/19G25 RMK AO2 CIG 007V011 P0004
14837KMSN MSN20031210082012412/10/03 08:20:31  5-MIN KMSN 101420Z 36018G25KT 4SM -RA BR OVC008 01/00 A2949 1260 92 0 360/18G25 RMK AO2 CIG 007V013 P0004
14837KMSN MSN20031210082512412/10/03 08:25:31  5-MIN KMSN 101425Z 36015G22KT 4SM -RA BR OVC008 01/00 A2949 1260 92 0 360/15G22 RMK AO2 CIG 007V013 P0005
14837KMSN MSN20031210083011212/10/03 08:30:31  5-MIN KMSN 101430Z 36019G24KT 4SM -RA BR OVC008 01/00 A2949 1270 92 0 360/19G24 RMK AO2 P0005
14837KMSN MSN20031210083511212/10/03 08:35:31  5-MIN KMSN 101435Z 36018G24KT 4SM -RA BR OVC010 01/00 A2949 1270 92 0 360/18G24 RMK AO2 P0006
14837KMSN MSN20031210084011212/10/03 08:40:31  5-MIN KMSN 101440Z 36018G24KT 4SM -RA BR OVC010 01/00 A2949 1260 92 0 360/18G24 RMK AO2 P0006
14837KMSN MSN20031210084511212/10/03 08:45:31  5-MIN KMSN 101445Z 36016G24KT 5SM -RA BR OVC010 01/00 A2950 1250 92 0 360/16G24 RMK AO2 P0007
14837KMSN MSN20031210085014112/10/03 08:50:31  5-MIN KMSN 101450Z 36015G22KT 5SM -RA BR OVC010 01/00 A2951 1250 92 0 360/15G22 RMK AO2 SLP999 P0007 60018 T00110000 56023
14837KMSN MSN20031210085511912/10/03 08:55:31  5-MIN KMSN 101455Z 36017G20KT 5SM -RA BR BKN008 OVC012 01/00 A2951 1250 92 0 360/17G20 RMK AO2 P0001
14837KMSN MSN20031210090011912/10/03 09:00:31  5-MIN KMSN 101500Z 36015G20KT 5SM -RA BR BKN008 OVC012 01/00 A2951 1250 92 0 360/15G20 RMK AO2 P0001
14837KMSN MSN20031210090512912/10/03 09:05:31  5-MIN KMSN 101505Z 36015G20KT 5SM -PLRA OVC010 01/00 A2950 1250 92 0 360/15G20 RMK AO2 PLB05 CIG 007V014 P0002
14837KMSN MSN20031210091013412/10/03 09:10:31  5-MIN KMSN 101510Z 36017G20KT 4SM PL OVC010 01/00 A2950 1260 96 -100 360/17G20 RMK AO2 RAE08PLB05 CIG 007V013 P0002
14837KMSN MSN20031210091513512/10/03 09:15:31  5-MIN KMSN 101515Z 36020G23KT 4SM PL OVC010 01/M01 A2950 1260 92 -100 360/20G23 RMK AO2 RAE08PLB05 CIG 007V013 P0003
14837KMSN MSN20031210092013512/10/03 09:20:31  5-MIN KMSN 101520Z 36014G23KT 5SM PL OVC010 01/M01 A2950 1260 92 -100 350/14G23 RMK AO2 RAE08PLB05 CIG 007V014 P0003
14837KMSN MSN20031210092513512/10/03 09:25:31  5-MIN KMSN 101525Z 35018G24KT 6SM PL OVC010 01/M01 A2950 1260 92 -100 350/18G24 RMK AO2 RAE08PLB05 CIG 007V014 P0004
14837KMSN MSN20031210093013512/10/03 09:30:31  5-MIN KMSN 101530Z 36017G24KT 6SM PL OVC010 01/M01 A2950 1260 92 -100 360/17G24 RMK AO2 RAE08PLB05 CIG 007V015 P0004
14837KMSN MSN20031210093512312/10/03 09:35:31  5-MIN KMSN 101535Z 35014G23KT 6SM PL OVC010 01/M01 A2949 1260 92 -100 350/14G23 RMK AO2 RAE08PLB05 P0004
14837KMSN MSN20031210094013112/10/03 09:40:31  5-MIN KMSN 101540Z 35013G23KT 6SM -PLSN OVC010 01/M01 A2950 1260 92 -100 350/13G23 RMK AO2 RAE08PLB05SNB38 P0004
14837KMSN MSN20031210094513112/10/03 09:45:31  5-MIN KMSN 101545Z 35013G20KT 6SM -PLSN OVC012 01/M01 A2950 1250 92 -100 350/13G20 RMK AO2 RAE08PLB05SNB38 P0004
14837KMSN MSN20031210095016112/10/03 09:50:31  5-MIN KMSN 101550Z 35016G21KT 6SM -PLSN BKN010 OVC016 01/M01 A2950 1250 92 -100 350/16G21 RMK AO2 RAE08PLB05SNB38 CIG 007V013 SLP999 T00061006
14837KMSN MSN20031210095513412/10/03 09:55:31  5-MIN KMSN 101555Z 35014G21KT 4SM -PLSN BKN010 OVC016 01/M01 A2950 1250 92 -100 350/14G21 RMK AO2 CIG 008V012 P0000
14837KMSN MSN20031210100011512/10/03 10:00:31  5-MIN KMSN 101600Z 35011G21KT 3SM -PLSN OVC010 01/M01 A2950 1250 92 -100 350/11G21 RMK AO2 P0000
14837KMSN MSN20031210100511512/10/03 10:05:31  5-MIN KMSN 101605Z 35013G19KT 3SM -PLSN OVC012 01/M01 A2950 1250 92 -100 350/13G19 RMK AO2 P0000
14837KMSN MSN20031210101013612/10/03 10:10:31  5-MIN KMSN 101610Z 35013G19KT 2SM -SN BR OVC012 01/M01 A2950 1250 92 -100 350/13G19 RMK AO2 TWR VIS 2 1/2 PLE06 P0000
14837KMSN MSN20031210101514712/10/03 10:15:31  5-MIN KMSN 101615Z 35012G18KT 1 1/2SM -SN BR BKN010 OVC015 01/M01 A2951 1250 92 -100 350/12G18 RMK AO2 TWR VIS 2 1/2 PLE06 P0000
14837KMSN MSN20031210102013312/10/03 10:20:31  5-MIN KMSN 101620Z 35012G19KT 1 1/2SM -SN BR BKN010 OVC015 01/M01 A2951 1250 92 -100 350/12G19 RMK AO2 PLE06 P0000
14837KMSN MSN20031210102513312/10/03 10:25:31  5-MIN KMSN 101625Z 34011G20KT 1 1/2SM -SN BR BKN010 OVC015 01/M01 A2951 1250 92 -100 340/11G20 RMK AO2 PLE06 P0001
14837KMSN MSN20031210103013312/10/03 10:30:31  5-MIN KMSN 101630Z 34009G20KT 1 1/2SM -SN BR BKN010 OVC015 01/M01 A2951 1250 92 -100 340/09G20 RMK AO2 PLE06 P0001
14837KMSN MSN20031210103514512/10/03 10:35:31  5-MIN KMSN 101635Z 34011G16KT 1 1/2SM -SN BR BKN009 OVC016 01/M01 A2950 1250 92 -100 340/11G16 RMK AO2 PLE06 CIG 006V012 P0001
14837KMSN MSN20031210104014512/10/03 10:40:31  5-MIN KMSN 101640Z 34015G19KT 1 1/2SM -SN BR BKN009 OVC016 01/M01 A2950 1260 92 -100 340/15G19 RMK AO2 PLE06 CIG 006V012 P0001
14837KMSN MSN20031210104515912/10/03 10:45:31  5-MIN KMSN 101645Z 34013G19KT 1 1/4SM -SN BR BKN009 OVC016 00/M01 A2950 1260 96 -200 340/13G19 RMK AO2 TWR VIS 1 1/2 PLE06 CIG 006V011 P0001
14837KMSN MSN20031210105017112/10/03 10:50:31  5-MIN KMSN 101650Z 33013G19KT 1 1/4SM -SN BR SCT009 BKN012 OVC018 00/M01 A2949 1260 96 -200 330/13G19 RMK AO2 TWR VIS 1 1/2 PLE06 SLP995 P0002 T00001006
14837KMSN MSN20031210105514912/10/03 10:55:31  5-MIN KMSN 101655Z 34013G19KT 1SM -SN BR BKN009 OVC018 00/M01 A2949 1260 96 -200 330/13G19 RMK AO2 TWR VIS 1 1/2 CIG 005V014 P0000
14837KMSN MSN20031210110013712/10/03 11:00:31  5-MIN KMSN 101700Z 34013G19KT 1SM -SN BR BKN009 OVC015 00/M01 A2949 1260 96 -200 340/13G19 RMK AO2 TWR VIS 1 1/2 P0000
14837KMSN MSN20031210110513512/10/03 11:05:31  5-MIN KMSN 101705Z 34011G19KT 1SM -SN BR BKN009 OVC018 00/M01 A2949 1260 96 -200 340/11G19 RMK AO2 CIG 005V013 P0000
14837KMSN MSN20031210111012312/10/03 11:10:31  5-MIN KMSN 101710Z 34014G20KT 1SM -SN BR BKN009 OVC018 00/M01 A2949 1260 96 -200 340/14G20 RMK AO2 P0000
14837KMSN MSN20031210111513512/10/03 11:15:31  5-MIN KMSN 101715Z 34012G22KT 3/4SM -SN BR BKN007 OVC011 00/M01 A2949 1270 96 -200 340/12G22 RMK AO2 TWR VIS 1 P0001
14837KMSN MSN20031210112012312/10/03 11:20:31  5-MIN KMSN 101720Z 34012G22KT 1SM -SN BR BKN007 OVC011 00/M01 A2949 1270 96 -200 340/12G22 RMK AO2 P0001
14837KMSN MSN20031210112514412/10/03 11:25:31  5-MIN KMSN 101725Z 34012G19KT 1SM -SN BR BKN007 BKN011 OVC030 00/M01 A2949 1270 92 -200 340/12G19 RMK AO2 SFC VIS 1 1/2 P0001
14837KMSN MSN20031210113014412/10/03 11:30:31  5-MIN KMSN 101730Z 34011G19KT 1SM -SN BR BKN007 BKN011 OVC015 00/M01 A2949 1270 92 -200 330/11G19 RMK AO2 SFC VIS 1 1/4 P0001
14837KMSN MSN20031210113514412/10/03 11:35:31  5-MIN KMSN 101735Z 33015G20KT 1SM -SN BR BKN007 BKN011 OVC015 00/M01 A2949 1260 92 -200 330/15G20 RMK AO2 SFC VIS 1 1/2 P0001
14837KMSN MSN20031210114015612/10/03 11:40:31  5-MIN KMSN 101740Z 34012G20KT 1SM -SN BR BKN007 BKN011 OVC031 00/M01 A2949 1260 92 -200 340/12G20 RMK AO2 SFC VIS 1 1/2 CIG 005V009 P0001
14837KMSN MSN20031210114515612/10/03 11:45:31  5-MIN KMSN 101745Z 34015G21KT 1SM -SN BR BKN007 BKN013 OVC031 00/M01 A2949 1260 92 -200 340/15G21 RMK AO2 SFC VIS 1 1/2 CIG 005V010 P0001
14837KMSN MSN20031210115017612/10/03 11:50:31  5-MIN KMSN 101750Z 33013G21KT 1 1/2SM -SN BR BKN007 BKN013 OVC031 M01/M01 A2949 1260 96 -200 330/13G21 RMK AO2 CIG 005V010 SLP995 T10061011 10011 21006 55008
14837KMSN MSN20031210115514712/10/03 11:55:31  5-MIN KMSN 101755Z 34013G20KT 1 1/2SM -SN BR BKN010 BKN013 OVC031 M01/M02 A2949 1260 92 -200 340/13G20 RMK AO2 CIG 005V010 P0000
14837KMSN MSN20031210120014912/10/03 12:00:31  5-MIN KMSN 101800Z 34017G21KT 1 1/2SM -SN BR SCT010 BKN013 OVC031 M01/M02 A2949 1260 92 -200 340/17G21 RMK AO2 SFC VIS 1 3/4 P0000
14837KMSN MSN20031210120514912/10/03 12:05:31  5-MIN KMSN 101805Z 34016G21KT 1 1/4SM -SN BR SCT010 BKN014 OVC031 M01/M02 A2949 1270 92 -200 340/16G21 RMK AO2 TWR VIS 1 1/2 P0000
14837KMSN MSN20031210121012412/10/03 12:10:31  5-MIN KMSN 101810Z 34014G21KT 1SM -SN BR BKN010 OVC017 M01/M02 A2949 1260 92 -200 340/14G21 RMK AO2 P0000
14837KMSN MSN20031210121513612/10/03 12:15:31  5-MIN KMSN 101815Z 33015G23KT 3/4SM -SN BR BKN010 OVC017 M01/M02 A2949 1270 92 -200 330/15G23 RMK AO2 TWR VIS 1 P0001
14837KMSN MSN20031210122011912/10/03 12:20:31  5-MIN KMSN 101820Z 33015G23KT 3/4SM -SN BR OVC009 M01/M02 A2949 1260 88 -200 330/15G23 RMK AO2 P0001
14837KMSN MSN20031210122512612/10/03 12:25:31  5-MIN KMSN 101825Z 33013G23KT 3/4SM -SN BR BKN009 OVC016 M01/M02 A2949 1260 92 -200 330/13G23 RMK AO2 P0001
14837KMSN MSN20031210123012612/10/03 12:30:31  5-MIN KMSN 101830Z 34016G23KT 3/4SM -SN BR BKN009 OVC016 M01/M02 A2949 1270 92 -200 330/16G23 RMK AO2 P0001
14837KMSN MSN20031210123511812/10/03 12:35:31  5-MIN KMSN 101835Z 33014G23KT 1/2SM SN BR OVC009 M01/M02 A2949 1270 88 -200 330/14G23 RMK AO2 P0001
14837KMSN MSN20031210124011812/10/03 12:40:31  5-MIN KMSN 101840Z 33015G21KT 1/2SM SN BR OVC009 M01/M02 A2949 1270 92 -200 330/15G21 RMK AO2 P0001
14837KMSN MSN20031210124511812/10/03 12:45:31  5-MIN KMSN 101845Z 33015G20KT 1/2SM SN BR OVC009 M01/M02 A2949 1260 92 -300 330/15G20 RMK AO2 P0002
14837KMSN MSN20031210125014212/10/03 12:50:31  5-MIN KMSN 101850Z 32015G21KT 1/2SM SN BR BKN007 OVC012 M01/M02 A2949 1260 92 -300 320/15G21 RMK AO2 SLP996 P0002 T10111022
14837KMSN MSN20031210125512512/10/03 12:55:31  5-MIN KMSN 101855Z 34016G21KT 1/2SM SN BR BKN007 OVC012 M01/M02 A2950 1260 92 -300 340/16G21 RMK AO2 P0000
14837KMSN MSN20031210130012512/10/03 13:00:31  5-MIN KMSN 101900Z 32014G22KT 1/2SM SN BR BKN007 OVC012 M01/M02 A2950 1260 92 -300 320/14G22 RMK AO2 P0000
14837KMSN MSN20031210130512512/10/03 13:05:31  5-MIN KMSN 101905Z 33016G22KT 1/2SM SN BR BKN007 OVC012 M01/M02 A2950 1250 92 -300 330/16G22 RMK AO2 P0000
14837KMSN MSN20031210131012512/10/03 13:10:31  5-MIN KMSN 101910Z 33012G21KT 1/2SM SN BR BKN007 OVC012 M01/M02 A2950 1250 92 -300 330/12G21 RMK AO2 P0000
14837KMSN MSN20031210131512512/10/03 13:15:31  5-MIN KMSN 101915Z 33015G23KT 1/2SM SN BR BKN007 OVC012 M01/M02 A2951 1250 92 -300 330/15G23 RMK AO2 P0000
14837KMSN MSN20031210132013212/10/03 13:20:31  5-MIN KMSN 101920Z 33013G23KT 1/2SM SN BR BKN007 BKN012 OVC017 M01/M03 A2951 1250 88 -300 330/13G23 RMK AO2 P0000
14837KMSN MSN20031210132512512/10/03 13:25:31  5-MIN KMSN 101925Z 33016G22KT 1/2SM SN BR BKN007 OVC015 M01/M03 A2951 1250 88 -300 330/16G22 RMK AO2 P0001
14837KMSN MSN20031210133012512/10/03 13:30:31  5-MIN KMSN 101930Z 33014G23KT 1/2SM SN BR BKN007 OVC015 M01/M03 A2951 1250 88 -300 330/14G23 RMK AO2 P0001
14837KMSN MSN20031210133512512/10/03 13:35:31  5-MIN KMSN 101935Z 33016G23KT 1/2SM SN BR BKN007 OVC012 M01/M03 A2951 1250 88 -300 330/16G23 RMK AO2 P0001
14837KMSN MSN20031210134013212/10/03 13:40:31  5-MIN KMSN 101940Z 34014G23KT 1/2SM SN BR BKN007 BKN010 OVC015 M01/M03 A2951 1250 88 -300 340/14G23 RMK AO2 P0001
14837KMSN MSN20031210134513212/10/03 13:45:31  5-MIN KMSN 101945Z 33016G23KT 1/2SM SN BR BKN007 BKN010 OVC015 M01/M03 A2951 1240 88 -300 330/16G23 RMK AO2 P0001
14837KMSN MSN20031210135014312/10/03 13:50:31  5-MIN KMSN 101950Z 34013G22KT 1/2SM SN BR SCT005 BKN010 OVC014 M01/M03 A2951 1240 88 -300 340/13G22 RMK AO2 SLP003 T10111028
14837KMSN MSN20031210135512512/10/03 13:55:31  5-MIN KMSN 101955Z 34013G22KT 1/2SM SN BR FEW005 OVC012 M01/M03 A2951 1240 88 -300 330/13G22 RMK AO2 P0000
14837KMSN MSN20031210140013412/10/03 14:00:31  5-MIN KMSN 102000Z 34012G22KT 1/2SM SN FZFG FEW005 BKN010 OVC012 M01/M03 A2952 1240 88 -300 340/12G22 RMK AO2 P0000
14837KMSN MSN20031210140514312/10/03 14:05:31  5-MIN KMSN 102005Z 33014G20KT 1/2SM -SN BR FEW005 BKN010 OVC018 M01/M03 A2952 1240 88 -300 330/14G20 RMK AO2 SFC VIS 1 P0000
14837KMSN MSN20031210141013112/10/03 14:10:31  5-MIN KMSN 102010Z 34015G21KT 1SM -SN BR FEW005 BKN010 OVC015 M01/M03 A2952 1240 85 -300 330/15G21 RMK AO2 P0000
14837KMSN MSN20031210141514512/10/03 14:15:31  5-MIN KMSN 102015Z 34016G24KT 1SM -SN BR FEW005 BKN010 OVC015 M01/M03 A2952 1240 85 -300 340/16G24 RMK AO2 SFC VIS 1 1/2 P0000
14837KMSN MSN20031210142014512/10/03 14:20:31  5-MIN KMSN 102020Z 33017G24KT 1SM -SN BR SCT010 BKN015 OVC041 M02/M03 A2952 1230 88 -400 330/17G24 RMK AO2 SFC VIS 1 1/2 P0000
14837KMSN MSN20031210142513812/10/03 14:25:31  5-MIN KMSN 102025Z 33013G24KT 1SM -SN BR BKN012 OVC039 M02/M03 A2952 1230 88 -400 330/13G24 RMK AO2 SFC VIS 1 1/4 P0000
14837KMSN MSN20031210143013112/10/03 14:30:31  5-MIN KMSN 102030Z 33013G22KT 1SM -SN BR BKN012 BKN017 OVC039 M02/M03 A2953 1230 88 -400 330/13G22 RMK AO2 P0000
14837KMSN MSN20031210143512712/10/03 14:35:31  5-MIN KMSN 102035Z 33012G22KT 1/2SM SN FZFG BKN012 OVC039 M02/M03 A2952 1230 88 -400 330/12G22 RMK AO2 P0000
14837KMSN MSN20031210144012712/10/03 14:40:31  5-MIN KMSN 102040Z 34013G21KT 1/2SM SN FZFG BKN010 OVC039 M02/M03 A2953 1230 88 -400 340/13G21 RMK AO2 P0001
14837KMSN MSN20031210144512712/10/03 14:45:31  5-MIN KMSN 102045Z 33013G21KT 1/2SM SN BR VV010 M02/M03 A2953 1230 88 -400 330/13G21 RMK AO2 SFC VIS 1 P0001
14837KMSN MSN20031210145015712/10/03 14:50:31  5-MIN KMSN 102050Z 33014G20KT 1/2SM -SN BR VV011 M02/M03 A2953 1220 88 -400 330/14G20 RMK AO2 SFC VIS 1 SLP010 P0001 60004 T10171033 56005
14837KMSN MSN20031210145512812/10/03 14:55:31  5-MIN KMSN 102055Z 33013G22KT 1/2SM SN BR OVC009 M02/M03 A2954 1220 88 -400 330/13G22 RMK AO2 SFC VIS 1 P0000
14837KMSN MSN20031210150011912/10/03 15:00:31  5-MIN KMSN 102100Z 33012G22KT 1/2SM SN FZFG VV009 M02/M03 A2954 1220 88 -400 330/12G22 RMK AO2 P0000
14837KMSN MSN20031210150512912/10/03 15:05:31  5-MIN KMSN 102105Z 33013G20KT 1/2SM SN BR VV011 M02/M03 A2954 1220 88 -400 330/13G20 RMK AO2 SFC VIS 3/4 P0000
14837KMSN MSN20031210151013012/10/03 15:10:31  5-MIN KMSN 102110Z 33014G20KT 1/2SM SN BR OVC009 M02/M03 A2954 1210 88 -400 330/14G20 RMK AO2 SFC VIS 3/4 P0000
14837KMSN MSN20031210151512012/10/03 15:15:31  5-MIN KMSN 102115Z 33014G20KT 1/2SM SN FZFG OVC009 M02/M03 A2955 1210 88 -400 330/14G20 RMK AO2 P0000
14837KMSN MSN20031210152012012/10/03 15:20:31  5-MIN KMSN 102120Z 33014G19KT 1/2SM SN FZFG OVC009 M02/M03 A2955 1210 88 -400 330/14G19 RMK AO2 P0000
14837KMSN MSN20031210152512012/10/03 15:25:31  5-MIN KMSN 102125Z 33015G24KT 1/2SM SN FZFG OVC009 M02/M03 A2955 1210 92 -500 330/15G24 RMK AO2 P0000
14837KMSN MSN20031210153012712/10/03 15:30:31  5-MIN KMSN 102130Z 33015G24KT 1/2SM SN FZFG BKN008 OVC013 M02/M03 A2956 1200 92 -500 330/15G24 RMK AO2 P0000
14837KMSN MSN20031210153512712/10/03 15:35:31  5-MIN KMSN 102135Z 33016G22KT 1/2SM SN FZFG BKN008 OVC013 M02/M03 A2956 1200 88 -500 330/16G22 RMK AO2 P0000
14837KMSN MSN20031210154012912/10/03 15:40:31  5-MIN KMSN 102140Z 33012G22KT 1/2SM SN BR VV009 M02/M03 A2956 1200 88 -500 330/12G22 RMK AO2 SFC VIS 3/4 P0000
14837KMSN MSN20031210154513212/10/03 15:45:31  5-MIN KMSN 102145Z 33012G22KT 1/2SM SN BR OVC009 M02/M03 A2957 1190 88 -500 330/12G22 RMK AO2 SFC VIS 1 1/2 P0000
14837KMSN MSN20031210155014712/10/03 15:50:31  5-MIN KMSN 102150Z 33013G23KT 1SM SN BR OVC012 M02/M04 A2957 1190 85 -500 330/13G23 RMK AO2 SFC VIS 1 1/2 SLP021 P0000 T10171039
14837KMSN MSN20031210155513112/10/03 15:55:31  5-MIN KMSN 102155Z 33012G23KT 1SM -SN BR OVC014 M02/M04 A2957 1190 85 -500 330/12G23 RMK AO2 SFC VIS 1 3/4 P0000
14837KMSN MSN20031210160013112/10/03 16:00:31  5-MIN KMSN 102200Z 32013G19KT 1SM -SN BR OVC014 M02/M04 A2957 1190 85 -500 320/13G19 RMK AO2 SFC VIS 1 1/2 P0000
14837KMSN MSN20031210160513812/10/03 16:05:31  5-MIN KMSN 102205Z 33014G19KT 1SM -SN BR BKN014 OVC022 M02/M04 A2958 1180 88 -600 320/14G19 RMK AO2 SFC VIS 1 1/4 P0000
14837KMSN MSN20031210161013112/10/03 16:10:31  5-MIN KMSN 102210Z 33014G19KT 1SM -SN BR FEW012 BKN018 OVC025 M02/M04 A2958 1180 88 -600 330/14G19 RMK AO2 P0000
14837KMSN MSN20031210161513112/10/03 16:15:31  5-MIN KMSN 102215Z 32013G20KT 1SM -SN BR BKN016 BKN021 OVC025 M02/M04 A2958 1180 88 -600 320/13G20 RMK AO2 P0000
14837KMSN MSN20031210162012412/10/03 16:20:31  5-MIN KMSN 102220Z 32016G20KT 1SM -SN BR BKN016 OVC025 M02/M04 A2959 1170 88 -600 320/16G20 RMK AO2 P0000
14837KMSN MSN20031210162512412/10/03 16:25:31  5-MIN KMSN 102225Z 33014G19KT 1SM -SN BR BKN018 OVC025 M02/M04 A2959 1170 88 -600 320/14G19 RMK AO2 P0000
14837KMSN MSN20031210163013312/10/03 16:30:31  5-MIN KMSN 102230Z 33014G18KT 1SM -SN BLSN FEW014 BKN018 OVC025 M02/M04 A2960 1170 88 -600 330/14G18 RMK AO2 P0000
14837KMSN MSN20031210163514712/10/03 16:35:31  5-MIN KMSN 102235Z 32012G22KT 1SM -SN BLSN SCT015 BKN020 OVC025 M02/M04 A2959 1170 88 -600 320/12G22 RMK AO2 SFC VIS 1 1/2 P0000
14837KMSN MSN20031210164014712/10/03 16:40:31  5-MIN KMSN 102240Z 32014G22KT 1SM -SN BLSN FEW015 BKN020 OVC042 M02/M04 A2960 1160 88 -600 320/14G22 RMK AO2 SFC VIS 1 1/2 P0000
14837KMSN MSN20031210164514012/10/03 16:45:31  5-MIN KMSN 102245Z 33017G23KT 1SM -SN BLSN BKN018 OVC025 M02/M04 A2960 1160 85 -600 330/17G23 RMK AO2 SFC VIS 1 1/2 P0000
14837KMSN MSN20031210165015312/10/03 16:50:31  5-MIN KMSN 102250Z 33013G23KT 1SM -SN BLSN BKN015 OVC023 M02/M04 A2960 1160 85 -600 330/13G23 RMK AO2 SFC VIS 3 SLP033 P0002 T10221044
14837KMSN MSN20031210165514312/10/03 16:55:31  5-MIN KMSN 102255Z 32013G20KT 1SM -SN BLSN FEW013 BKN018 OVC023 M02/M04 A2961 1160 85 -600 320/13G20 RMK AO2 SFC VIS 3 P0000
14837KMSN MSN20031210170013612/10/03 17:00:31  5-MIN KMSN 102300Z 32011G18KT 1SM -SN BLSN BKN018 OVC026 M02/M04 A2961 1150 85 -600 320/11G18 RMK AO2 SFC VIS 3 P0000
14837KMSN MSN20031210170513612/10/03 17:05:31  5-MIN KMSN 102305Z 33014G19KT 1SM -SN BLSN BKN018 OVC024 M02/M04 A2961 1150 85 -600 330/14G19 RMK AO2 SFC VIS 3 P0000
14837KMSN MSN20031210171013612/10/03 17:10:31  5-MIN KMSN 102310Z 33012G19KT 1SM -SN BLSN BKN018 OVC024 M02/M04 A2961 1150 85 -600 320/12G19 RMK AO2 SFC VIS 3 P0000
14837KMSN MSN20031210171513612/10/03 17:15:31  5-MIN KMSN 102315Z 33013G20KT 1SM -SN BLSN BKN018 OVC024 M02/M05 A2962 1150 81 -600 320/13G20 RMK AO2 SFC VIS 3 P0000
14837KMSN MSN20031210172012912/10/03 17:20:31  5-MIN KMSN 102320Z 34014G22KT 1SM -SN BLSN OVC018 M03/M05 A2962 1150 85 -700 330/14G22 RMK AO2 SFC VIS 3 P0000
14837KMSN MSN20031210172515212/10/03 17:25:31  5-MIN KMSN 102325Z 33012G22KT 300V010 1SM -SN BLSN SCT018 BKN023 M03/M05 A2962 1150 85 -700 330/12G22 300V010 RMK AO2 SFC VIS 3 P0000
14837KMSN MSN20031210173012612/10/03 17:30:31  5-MIN KMSN 102330Z 33015G20KT 3SM BR SCT018 BKN023 M03/M05 A2962 1140 85 -700 330/15G20 RMK AO2 SNE26 P0000
14837KMSN MSN20031210173511612/10/03 17:35:31  5-MIN KMSN 102335Z 33013G20KT 7SM SCT018 M03/M05 A2962 1140 85 -700 330/13G20 RMK AO2 SNE26 P0001
14837KMSN MSN20031210174011712/10/03 17:40:31  5-MIN KMSN 102340Z 33013G20KT 10SM SCT018 M03/M05 A2962 1140 85 -700 330/13G20 RMK AO2 SNE26 P0001
14837KMSN MSN20031210174511712/10/03 17:45:31  5-MIN KMSN 102345Z 33013G20KT 10SM FEW018 M03/M05 A2963 1140 85 -700 330/13G20 RMK AO2 SNE26 P0001
14837KMSN MSN20031210175016412/10/03 17:50:31  5-MIN KMSN 102350Z 33011G19KT 10SM BKN016 M03/M06 A2963 1130 81 -700 330/11G19 RMK AO2 SNE26 SLP043 P0001 60017 4/002 T10281056 11006 21028 53015
14837KMSN MSN20031210175509912/10/03 17:55:31  5-MIN KMSN 102355Z 32009KT 10SM BKN016 M03/M06 A2963 1130 81 -700 320/09 RMK AO2
14837KMSN MSN20031210180010512/10/03 18:00:31  5-MIN KMSN 110000Z 33012G20KT 10SM BKN016 M03/M06 A2963 1130 81 -700 330/12G20 RMK AO2
14837KMSN MSN20031210180510512/10/03 18:05:31  5-MIN KMSN 110005Z 33018G25KT 10SM BKN016 M03/M06 A2964 1130 81 -700 330/18G25 RMK AO2
14837KMSN MSN20031210181011912/10/03 18:10:31  5-MIN KMSN 110010Z 32014G25KT 10SM BKN018 BKN045 BKN090 M03/M06 A2964 1120 81 -700 320/14G25 RMK AO2
14837KMSN MSN20031210181511212/10/03 18:15:31  5-MIN KMSN 110015Z 32015G20KT 10SM BKN018 OVC045 M03/M06 A2964 1120 81 -700 320/15G20 RMK AO2
14837KMSN MSN20031210182011212/10/03 18:20:31  5-MIN KMSN 110020Z 32013G20KT 10SM BKN018 OVC045 M03/M06 A2965 1120 81 -700 320/13G20 RMK AO2
14837KMSN MSN20031210182511212/10/03 18:25:31  5-MIN KMSN 110025Z 33014G20KT 10SM BKN018 OVC045 M03/M06 A2965 1110 81 -700 320/14G20 RMK AO2
14837KMSN MSN20031210183011212/10/03 18:30:31  5-MIN KMSN 110030Z 32015G22KT 10SM BKN018 OVC045 M03/M06 A2966 1110 81 -700 320/15G22 RMK AO2
14837KMSN MSN20031210183511212/10/03 18:35:31  5-MIN KMSN 110035Z 33012G22KT 10SM SCT018 OVC047 M03/M06 A2966 1110 78 -700 330/12G22 RMK AO2
14837KMSN MSN20031210184011212/10/03 18:40:31  5-MIN KMSN 110040Z 33015G20KT 10SM SCT018 BKN047 M03/M06 A2966 1100 81 -800 330/15G20 RMK AO2
14837KMSN MSN20031210184511912/10/03 18:45:31  5-MIN KMSN 110045Z 32013G20KT 10SM SCT018 BKN047 OVC060 M03/M06 A2966 1100 81 -800 320/13G20 RMK AO2
14837KMSN MSN20031210185013612/10/03 18:50:31  5-MIN KMSN 110050Z 32016G22KT 10SM SCT018 BKN049 BKN060 M03/M06 A2967 1100 81 -800 320/16G22 RMK AO2 SLP056 T10331061
14837KMSN MSN20031210185511912/10/03 18:55:31  5-MIN KMSN 110055Z 32013G22KT 10SM SCT018 BKN049 BKN060 M03/M06 A2967 1090 81 -800 320/13G22 RMK AO2
14837KMSN MSN20031210190011912/10/03 19:00:31  5-MIN KMSN 110100Z 32013G18KT 10SM SCT018 BKN049 BKN060 M03/M06 A2968 1090 81 -800 320/13G18 RMK AO2
14837KMSN MSN20031210190511312/10/03 19:05:31  5-MIN KMSN 110105Z 32012KT 10SM SCT018 BKN049 BKN060 M03/M06 A2968 1090 81 -800 320/12 RMK AO2
14837KMSN MSN20031210191011212/10/03 19:10:31  5-MIN KMSN 110110Z 31014G20KT 10SM BKN018 OVC055 M03/M06 A2968 1080 81 -800 310/14G20 RMK AO2
14837KMSN MSN20031210191511212/10/03 19:15:31  5-MIN KMSN 110115Z 32013G20KT 10SM BKN018 OVC050 M03/M06 A2968 1090 81 -800 320/13G20 RMK AO2
14837KMSN MSN20031210192010512/10/03 19:20:31  5-MIN KMSN 110120Z 32014G20KT 10SM OVC018 M03/M06 A2969 1080 85 -800 320/14G20 RMK AO2
14837KMSN MSN20031210192510512/10/03 19:25:31  5-MIN KMSN 110125Z 31013G19KT 10SM OVC018 M03/M06 A2969 1080 81 -800 310/13G19 RMK AO2
14837KMSN MSN20031210193010512/10/03 19:30:31  5-MIN KMSN 110130Z 32014G22KT 10SM OVC018 M03/M06 A2969 1080 81 -800 320/14G22 RMK AO2
14837KMSN MSN20031210193511212/10/03 19:35:31  5-MIN KMSN 110135Z 32015G22KT 10SM BKN018 OVC045 M03/M07 A2969 1080 78 -800 320/15G22 RMK AO2
14837KMSN MSN20031210194011212/10/03 19:40:31  5-MIN KMSN 110140Z 31013G19KT 10SM BKN018 OVC045 M03/M06 A2969 1080 81 -800 310/13G19 RMK AO2
14837KMSN MSN20031210194512812/10/03 19:45:31  5-MIN KMSN 110145Z 31015G21KT 280V340 10SM BKN018 OVC045 M03/M07 A2969 1080 78 -800 310/15G21 280V340 RMK AO2
14837KMSN MSN20031210195012912/10/03 19:50:31  5-MIN KMSN 110150Z 32011G21KT 10SM BKN018 OVC045 M03/M07 A2969 1070 78 -800 310/11G21 RMK AO2 SLP065 T10331067
14837KMSN MSN20031210195511912/10/03 19:55:31  5-MIN KMSN 110155Z 31013G19KT 10SM BKN018 BKN045 OVC060 M04/M07 A2970 1070 81 -900 310/13G19 RMK AO2
14837KMSN MSN20031210200011912/10/03 20:00:31  5-MIN KMSN 110200Z 31013G19KT 10SM BKN018 BKN045 OVC060 M04/M07 A2970 1070 81 -900 310/13G19 RMK AO2
14837KMSN MSN20031210200511212/10/03 20:05:31  5-MIN KMSN 110205Z 31013G19KT 10SM BKN018 OVC045 M04/M07 A2971 1060 81 -900 310/13G19 RMK AO2
14837KMSN MSN20031210201011212/10/03 20:10:31  5-MIN KMSN 110210Z 31014G19KT 10SM BKN018 OVC060 M04/M07 A2971 1060 81 -900 310/14G19 RMK AO2
14837KMSN MSN20031210201509912/10/03 20:15:31  5-MIN KMSN 110215Z 31010KT 10SM OVC018 M04/M07 A2971 1060 81 -900 310/10 RMK AO2
14837KMSN MSN20031210202009912/10/03 20:20:31  5-MIN KMSN 110220Z 31013KT 10SM OVC018 M04/M07 A2971 1060 81 -900 310/13 RMK AO2
14837KMSN MSN20031210202510512/10/03 20:25:31  5-MIN KMSN 110225Z 31013G18KT 10SM OVC018 M04/M07 A2971 1060 78 -900 310/13G18 RMK AO2
14837KMSN MSN20031210203010512/10/03 20:30:31  5-MIN KMSN 110230Z 30012G19KT 10SM OVC018 M04/M07 A2971 1060 78 -900 300/12G19 RMK AO2
14837KMSN MSN20031210203510612/10/03 20:35:31  5-MIN KMSN 110235Z 30010G19KT 10SM OVC018 M04/M08 A2972 1050 78 -1000 300/10G19 RMK AO2
14837KMSN MSN20031210204010612/10/03 20:40:31  5-MIN KMSN 110240Z 32011G17KT 10SM OVC018 M04/M07 A2972 1050 81 -1000 310/11G17 RMK AO2
14837KMSN MSN20031210204510012/10/03 20:45:31  5-MIN KMSN 110245Z 32012KT 10SM BKN018 M04/M07 A2972 1050 81 -1000 320/12 RMK AO2
14837KMSN MSN20031210205012912/10/03 20:50:31  5-MIN KMSN 110250Z 31013G18KT 10SM BKN018 M04/M08 A2972 1050 78 -1000 310/13G18 RMK AO2 SLP074 T10441078 51031
14837KMSN MSN20031210205510612/10/03 20:55:31  5-MIN KMSN 110255Z 31013G18KT 10SM BKN018 M04/M08 A2972 1050 78 -1000 310/13G18 RMK AO2
14837KMSN MSN20031210210010012/10/03 21:00:31  5-MIN KMSN 110300Z 32012KT 10SM BKN018 M04/M08 A2972 1050 78 -1000 320/12 RMK AO2
14837KMSN MSN20031210210510612/10/03 21:05:31  5-MIN KMSN 110305Z 31011G16KT 10SM BKN018 M04/M08 A2973 1040 78 -1000 310/11G16 RMK AO2
14837KMSN MSN20031210211010612/10/03 21:10:31  5-MIN KMSN 110310Z 31013G18KT 10SM OVC018 M04/M08 A2973 1040 78 -1000 310/13G18 RMK AO2
14837KMSN MSN20031210211510612/10/03 21:15:31  5-MIN KMSN 110315Z 31015G19KT 10SM OVC018 M04/M08 A2973 1040 78 -1000 310/15G19 RMK AO2
14837KMSN MSN20031210212010612/10/03 21:20:31  5-MIN KMSN 110320Z 31013G19KT 10SM OVC018 M05/M08 A2973 1040 81 -1100 310/13G19 RMK AO2
14837KMSN MSN20031210212510612/10/03 21:25:31  5-MIN KMSN 110325Z 32013G20KT 10SM OVC018 M05/M08 A2974 1040 81 -1100 320/13G20 RMK AO2
14837KMSN MSN20031210213010612/10/03 21:30:31  5-MIN KMSN 110330Z 32012G20KT 10SM BKN018 M05/M08 A2974 1040 81 -1100 320/12G20 RMK AO2
14837KMSN MSN20031210213510612/10/03 21:35:31  5-MIN KMSN 110335Z 31011G18KT 10SM BKN018 M05/M08 A2974 1030 81 -1100 310/11G18 RMK AO2
14837KMSN MSN20031210214010612/10/03 21:40:31  5-MIN KMSN 110340Z 32012G18KT 10SM BKN018 M05/M08 A2974 1030 81 -1100 320/12G18 RMK AO2
14837KMSN MSN20031210214510612/10/03 21:45:31  5-MIN KMSN 110345Z 32015G18KT 10SM BKN018 M05/M08 A2974 1030 81 -1100 310/15G18 RMK AO2
14837KMSN MSN20031210215012312/10/03 21:50:31  5-MIN KMSN 110350Z 32012G20KT 10SM BKN018 M05/M08 A2974 1030 81 -1100 320/12G20 RMK AO2 SLP083 T10501078
14837KMSN MSN20031210215510612/10/03 21:55:31  5-MIN KMSN 110355Z 31014G20KT 10SM OVC018 M05/M08 A2975 1030 81 -1100 310/14G20 RMK AO2
14837KMSN MSN20031210220010612/10/03 22:00:31  5-MIN KMSN 110400Z 31012G20KT 10SM OVC018 M05/M08 A2975 1020 81 -1100 310/12G20 RMK AO2
14837KMSN MSN20031210220510612/10/03 22:05:31  5-MIN KMSN 110405Z 32009G18KT 10SM OVC018 M05/M08 A2975 1020 81 -1100 320/09G18 RMK AO2
14837KMSN MSN20031210221010612/10/03 22:10:31  5-MIN KMSN 110410Z 31012G17KT 10SM OVC018 M05/M08 A2976 1010 77 -1100 310/12G17 RMK AO2
14837KMSN MSN20031210221510612/10/03 22:15:31  5-MIN KMSN 110415Z 30011G18KT 10SM OVC016 M05/M08 A2976 1010 77 -1100 300/11G18 RMK AO2
14837KMSN MSN20031210222012212/10/03 22:20:31  5-MIN KMSN 110420Z 30009G18KT 270V340 10SM OVC016 M06/M08 A2977 1010 81 -1200 300/09G18 270V340 RMK AO2
14837KMSN MSN20031210222510612/10/03 22:25:31  5-MIN KMSN 110425Z 29010G15KT 10SM OVC016 M06/M08 A2977 1010 84 -1200 290/10G15 RMK AO2
14837KMSN MSN20031210223010012/10/03 22:30:31  5-MIN KMSN 110430Z 30009KT 10SM OVC016 M06/M08 A2977 1000 81 -1200 300/09 RMK AO2
14837KMSN MSN20031210223510612/10/03 22:35:31  5-MIN KMSN 110435Z 30013G17KT 10SM OVC016 M06/M08 A2977 1000 81 -1200 300/13G17 RMK AO2
14837KMSN MSN20031210224010612/10/03 22:40:31  5-MIN KMSN 110440Z 30011G17KT 10SM OVC016 M06/M08 A2977 1000 81 -1200 300/11G17 RMK AO2
14837KMSN MSN20031210224510612/10/03 22:45:31  5-MIN KMSN 110445Z 30012G19KT 10SM OVC016 M06/M08 A2977 1000 81 -1200 300/12G19 RMK AO2
14837KMSN MSN20031210225012312/10/03 22:50:31  5-MIN KMSN 110450Z 31009G19KT 10SM OVC016 M06/M08 A2978 1000 81 -1200 310/09G19 RMK AO2 SLP094 T10561083
14837KMSN MSN20031210225510012/10/03 22:55:31  5-MIN KMSN 110455Z 31012KT 10SM OVC016 M06/M08 A2978 1000 81 -1200 310/12 RMK AO2
14837KMSN MSN20031210230010612/10/03 23:00:31  5-MIN KMSN 110500Z 31014G18KT 10SM OVC016 M06/M08 A2978 1000 84 -1200 310/14G18 RMK AO2
14837KMSN MSN20031210230510612/10/03 23:05:31  5-MIN KMSN 110505Z 31014G19KT 10SM OVC016 M06/M08 A2978 1000 84 -1200 310/14G19 RMK AO2
14837KMSN MSN20031210231010612/10/03 23:10:31  5-MIN KMSN 110510Z 31009G19KT 10SM OVC016 M06/M10 A2978 1000 71 -1200 310/09G19 RMK AO2
14837KMSN MSN20031210231510512/10/03 23:15:31  5-MIN KMSN 110515Z 32011G19KT 10SM OVC016 M06/M10 A2978 990 71 -1200 310/11G19 RMK AO2
14837KMSN MSN20031210232010512/10/03 23:20:31  5-MIN KMSN 110520Z 31011G19KT 10SM OVC016 M06/M10 A2978 990 71 -1200 310/11G19 RMK AO2
14837KMSN MSN20031210232510512/10/03 23:25:31  5-MIN KMSN 110525Z 31012G19KT 10SM OVC016 M06/M10 A2979 990 71 -1200 300/12G19 RMK AO2
14837KMSN MSN20031210233010512/10/03 23:30:31  5-MIN KMSN 110530Z 31010G19KT 10SM OVC016 M06/M10 A2979 980 71 -1200 310/10G19 RMK AO2
14837KMSN MSN20031210233509912/10/03 23:35:31  5-MIN KMSN 110535Z 30012KT 10SM OVC016 M06/M09 A2979 980 77 -1200 300/12 RMK AO2
14837KMSN MSN20031210234010512/10/03 23:40:31  5-MIN KMSN 110540Z 32016G19KT 10SM OVC016 M06/M09 A2979 990 77 -1200 320/16G19 RMK AO2
14837KMSN MSN20031210234510512/10/03 23:45:31  5-MIN KMSN 110545Z 31011G19KT 10SM OVC016 M06/M09 A2979 980 77 -1200 310/11G19 RMK AO2
14837KMSN MSN20031210235014412/10/03 23:50:31  5-MIN KMSN 110550Z 31012KT 10SM OVC016 M06/M09 A2979 980 77 -1200 310/12 RMK AO2 SLP100 T10561089 11028 21056 400221056 51029
14837KMSN MSN20031210235510512/10/03 23:55:31  5-MIN KMSN 110555Z 30010G19KT 10SM OVC016 M06/M09 A2980 980 74 -1200 300/10G19 RMK AO2
14837KMSN MSN20031211000010512/11/03 00:00:31  5-MIN KMSN 110600Z 31012G19KT 10SM OVC016 M06/M09 A2980 980 74 -1200 310/12G19 RMK AO2
14837KMSN MSN20031211000510512/11/03 00:05:31  5-MIN KMSN 110605Z 31010G18KT 10SM OVC016 M06/M09 A2980 980 77 -1200 310/10G18 RMK AO2
14837KMSN MSN20031211001010512/11/03 00:10:31  5-MIN KMSN 110610Z 32009G17KT 10SM OVC016 M06/M09 A2980 980 77 -1200 320/09G17 RMK AO2
14837KMSN MSN20031211001510512/11/03 00:15:31  5-MIN KMSN 110615Z 31010G16KT 10SM OVC016 M06/M09 A2980 980 77 -1200 310/10G16 RMK AO2
14837KMSN MSN20031211002009912/11/03 00:20:31  5-MIN KMSN 110620Z 31010KT 10SM OVC016 M06/M09 A2980 980 77 -1200 310/10 RMK AO2
14837KMSN MSN20031211002510512/11/03 00:25:31  5-MIN KMSN 110625Z 32011G18KT 10SM OVC016 M06/M09 A2980 980 81 -1300 320/11G18 RMK AO2
14837KMSN MSN20031211003010512/11/03 00:30:31  5-MIN KMSN 110630Z 32012G18KT 10SM OVC016 M06/M09 A2981 970 81 -1300 320/12G18 RMK AO2
14837KMSN MSN20031211003509912/11/03 00:35:31  5-MIN KMSN 110635Z 31011KT 10SM OVC016 M06/M09 A2981 970 81 -1300 310/11 RMK AO2
14837KMSN MSN20031211004010512/11/03 00:40:31  5-MIN KMSN 110640Z 32012G17KT 10SM OVC014 M06/M09 A2981 970 81 -1300 310/12G17 RMK AO2
14837KMSN MSN20031211004510512/11/03 00:45:31  5-MIN KMSN 110645Z 31011G16KT 10SM OVC014 M06/M09 A2981 970 77 -1300 310/11G16 RMK AO2
14837KMSN MSN20031211005011612/11/03 00:50:31  5-MIN KMSN 110650Z 30010KT 10SM OVC014 M06/M09 A2982 960 81 -1300 300/10 RMK AO2 SLP109 T10611089
14837KMSN MSN20031211005510512/11/03 00:55:31  5-MIN KMSN 110655Z 30013G17KT 10SM OVC014 M06/M09 A2982 950 77 -1300 300/13G17 RMK AO2
14837KMSN MSN20031211010010512/11/03 01:00:31  5-MIN KMSN 110700Z 31011G19KT 10SM OVC014 M06/M09 A2982 960 77 -1300 310/11G19 RMK AO2
14837KMSN MSN20031211010510512/11/03 01:05:31  5-MIN KMSN 110705Z 31009G19KT 10SM OVC014 M06/M09 A2982 960 77 -1300 310/09G19 RMK AO2
14837KMSN MSN20031211011009912/11/03 01:10:31  5-MIN KMSN 110710Z 31011KT 10SM OVC014 M06/M09 A2982 960 77 -1300 310/11 RMK AO2
14837KMSN MSN20031211011509912/11/03 01:15:31  5-MIN KMSN 110715Z 30009KT 10SM OVC014 M07/M09 A2983 950 81 -1400 300/09 RMK AO2
14837KMSN MSN20031211012009912/11/03 01:20:31  5-MIN KMSN 110720Z 31011KT 10SM OVC014 M07/M09 A2983 950 84 -1400 300/11 RMK AO2
14837KMSN MSN20031211012509912/11/03 01:25:31  5-MIN KMSN 110725Z 30010KT 10SM OVC014 M07/M09 A2983 950 81 -1400 300/10 RMK AO2
14837KMSN MSN20031211013009912/11/03 01:30:31  5-MIN KMSN 110730Z 31012KT 10SM OVC014 M07/M09 A2983 950 81 -1400 310/12 RMK AO2
14837KMSN MSN20031211013510512/11/03 01:35:31  5-MIN KMSN 110735Z 31010G17KT 10SM OVC014 M07/M10 A2984 940 77 -1400 310/10G17 RMK AO2
14837KMSN MSN20031211014010512/11/03 01:40:31  5-MIN KMSN 110740Z 32012G17KT 10SM OVC014 M07/M10 A2984 940 77 -1400 320/12G17 RMK AO2
14837KMSN MSN20031211014510512/11/03 01:45:31  5-MIN KMSN 110745Z 30011G17KT 10SM OVC014 M07/M09 A2984 940 81 -1400 300/11G17 RMK AO2
14837KMSN MSN20031211015012212/11/03 01:50:31  5-MIN KMSN 110750Z 30012G17KT 10SM OVC014 M07/M10 A2984 940 77 -1400 300/12G17 RMK AO2 SLP117 T10671100
14837KMSN MSN20031211015509912/11/03 01:55:31  5-MIN KMSN 110755Z 31010KT 10SM OVC014 M07/M10 A2984 930 77 -1400 310/10 RMK AO2
14837KMSN MSN20031211020009912/11/03 02:00:31  5-MIN KMSN 110800Z 32011KT 10SM OVC014 M07/M10 A2985 930 77 -1400 320/11 RMK AO2
14837KMSN MSN20031211020510512/11/03 02:05:31  5-MIN KMSN 110805Z 32012G18KT 10SM OVC014 M07/M10 A2985 930 77 -1400 320/12G18 RMK AO2
14837KMSN MSN20031211021010512/11/03 02:10:31  5-MIN KMSN 110810Z 32012G18KT 10SM OVC016 M07/M10 A2985 930 81 -1500 310/12G18 RMK AO2
14837KMSN MSN20031211021509912/11/03 02:15:31  5-MIN KMSN 110815Z 32012KT 10SM OVC016 M07/M10 A2985 930 81 -1500 320/12 RMK AO2
14837KMSN MSN20031211022009912/11/03 02:20:31  5-MIN KMSN 110820Z 31011KT 10SM OVC016 M07/M11 A2986 920 74 -1500 310/11 RMK AO2
14837KMSN MSN20031211022509912/11/03 02:25:31  5-MIN KMSN 110825Z 32011KT 10SM OVC016 M07/M11 A2986 920 77 -1500 310/11 RMK AO2
14837KMSN MSN20031211023009912/11/03 02:30:31  5-MIN KMSN 110830Z 30012KT 10SM OVC016 M07/M11 A2987 910 77 -1500 300/12 RMK AO2
14837KMSN MSN20031211023510512/11/03 02:35:31  5-MIN KMSN 110835Z 30009G17KT 10SM OVC016 M07/M11 A2987 910 74 -1500 300/09G17 RMK AO2
14837KMSN MSN20031211024010512/11/03 02:40:31  5-MIN KMSN 110840Z 32011G17KT 10SM OVC016 M08/M11 A2987 910 77 -1600 320/11G17 RMK AO2
14837KMSN MSN20031211024509912/11/03 02:45:31  5-MIN KMSN 110845Z 31011KT 10SM OVC016 M08/M11 A2987 910 77 -1600 310/11 RMK AO2
14837KMSN MSN20031211025012212/11/03 02:50:31  5-MIN KMSN 110850Z 32010KT 10SM OVC016 M08/M11 A2987 910 80 -1600 320/10 RMK AO2 SLP127 T10781106 51025
14837KMSN MSN20031211025509912/11/03 02:55:31  5-MIN KMSN 110855Z 31008KT 10SM OVC016 M08/M11 A2987 910 77 -1600 310/08 RMK AO2
14837KMSN MSN20031211030009912/11/03 03:00:31  5-MIN KMSN 110900Z 32009KT 10SM OVC016 M08/M12 A2987 910 77 -1700 320/09 RMK AO2
14837KMSN MSN20031211030509912/11/03 03:05:31  5-MIN KMSN 110905Z 32007KT 10SM OVC016 M08/M12 A2987 910 74 -1700 320/07 RMK AO2
14837KMSN MSN20031211031011512/11/03 03:10:31  5-MIN KMSN 110910Z 31010KT 280V340 10SM BKN016 M08/M12 A2987 910 77 -1700 310/10 280V340 RMK AO2
14837KMSN MSN20031211031509912/11/03 03:15:31  5-MIN KMSN 110915Z 32009KT 10SM BKN016 M08/M12 A2987 910 74 -1700 320/09 RMK AO2
14837KMSN MSN20031211032009912/11/03 03:20:31  5-MIN KMSN 110920Z 32008KT 10SM SCT016 M08/M12 A2987 910 74 -1700 320/08 RMK AO2
14837KMSN MSN20031211032509912/11/03 03:25:31  5-MIN KMSN 110925Z 31007KT 10SM FEW016 M09/M12 A2987 910 77 -1700 310/07 RMK AO2
14837KMSN MSN20031211033010512/11/03 03:30:31  5-MIN KMSN 110930Z 31010G15KT 10SM FEW016 M09/M12 A2987 910 80 -1700 310/10G15 RMK AO2
14837KMSN MSN20031211033509912/11/03 03:35:31  5-MIN KMSN 110935Z 31009KT 10SM FEW016 M09/M12 A2987 910 77 -1700 310/09 RMK AO2
14837KMSN MSN20031211034009612/11/03 03:40:31  5-MIN KMSN 110940Z 31008KT 10SM CLR M09/M12 A2987 910 77 -1700 310/08 RMK AO2
14837KMSN MSN20031211034509612/11/03 03:45:31  5-MIN KMSN 110945Z 31010KT 10SM CLR M09/M12 A2987 910 77 -1700 310/10 RMK AO2
14837KMSN MSN20031211035011312/11/03 03:50:31  5-MIN KMSN 110950Z 30008KT 10SM CLR M09/M13 A2987 910 74 -1800 300/08 RMK AO2 SLP129 T10891128
14837KMSN MSN20031211035509612/11/03 03:55:31  5-MIN KMSN 110955Z 31009KT 10SM CLR M09/M13 A2988 910 77 -1800 310/09 RMK AO2
14837KMSN MSN20031211040009612/11/03 04:00:31  5-MIN KMSN 111000Z 29008KT 10SM CLR M09/M13 A2988 900 77 -1800 290/08 RMK AO2
14837KMSN MSN20031211040510212/11/03 04:05:31  5-MIN KMSN 111005Z 30010G16KT 10SM CLR M09/M13 A2988 900 77 -1800 300/10G16 RMK AO2
14837KMSN MSN20031211041010212/11/03 04:10:31  5-MIN KMSN 111010Z 30010G16KT 10SM CLR M09/M13 A2988 900 77 -1800 300/10G16 RMK AO2
14837KMSN MSN20031211041509612/11/03 04:15:31  5-MIN KMSN 111015Z 31008KT 10SM CLR M09/M13 A2988 900 77 -1800 310/08 RMK AO2
14837KMSN MSN20031211042009612/11/03 04:20:31  5-MIN KMSN 111020Z 31010KT 10SM CLR M10/M13 A2989 900 77 -1900 300/10 RMK AO2
14837KMSN MSN20031211042509612/11/03 04:25:31  5-MIN KMSN 111025Z 30008KT 10SM CLR M10/M13 A2989 890 77 -1900 300/08 RMK AO2
14837KMSN MSN20031211043010212/11/03 04:30:31  5-MIN KMSN 111030Z 30012G15KT 10SM CLR M10/M14 A2989 890 73 -1900 300/12G15 RMK AO2
14837KMSN MSN20031211043510212/11/03 04:35:31  5-MIN KMSN 111035Z 31010G16KT 10SM CLR M10/M13 A2989 890 77 -1900 310/10G16 RMK AO2
14837KMSN MSN20031211044010212/11/03 04:40:31  5-MIN KMSN 111040Z 31009G16KT 10SM CLR M10/M13 A2989 890 77 -1900 310/09G16 RMK AO2
14837KMSN MSN20031211044509612/11/03 04:45:31  5-MIN KMSN 111045Z 31011KT 10SM CLR M10/M14 A2989 890 73 -1900 310/11 RMK AO2
14837KMSN MSN20031211045011312/11/03 04:50:31  5-MIN KMSN 111050Z 30010KT 10SM CLR M10/M13 A2989 890 77 -1900 300/10 RMK AO2 SLP136 T11001133
14837KMSN MSN20031211045509612/11/03 04:55:31  5-MIN KMSN 111055Z 30011KT 10SM CLR M11/M13 A2989 890 80 -2000 300/11 RMK AO2
14837KMSN MSN20031211050009612/11/03 05:00:31  5-MIN KMSN 111100Z 30009KT 10SM CLR M11/M14 A2989 890 77 -2000 300/09 RMK AO2
14837KMSN MSN20031211050509612/11/03 05:05:31  5-MIN KMSN 111105Z 31009KT 10SM CLR M11/M14 A2990 880 73 -2000 310/09 RMK AO2
14837KMSN MSN20031211051009612/11/03 05:10:31  5-MIN KMSN 111110Z 30007KT 10SM CLR M11/M14 A2990 890 73 -2000 300/07 RMK AO2
14837KMSN MSN20031211051509612/11/03 05:15:31  5-MIN KMSN 111115Z 30008KT 10SM CLR M11/M14 A2990 880 73 -2000 300/08 RMK AO2
14837KMSN MSN20031211052009612/11/03 05:20:31  5-MIN KMSN 111120Z 30009KT 10SM CLR M11/M14 A2991 880 77 -2000 300/09 RMK AO2
14837KMSN MSN20031211052509612/11/03 05:25:31  5-MIN KMSN 111125Z 31007KT 10SM CLR M11/M14 A2990 880 73 -2000 310/07 RMK AO2
14837KMSN MSN20031211053009612/11/03 05:30:31  5-MIN KMSN 111130Z 31007KT 10SM CLR M11/M14 A2991 880 77 -2100 310/07 RMK AO2
14837KMSN MSN20031211053509612/11/03 05:35:31  5-MIN KMSN 111135Z 31008KT 10SM CLR M11/M14 A2991 870 80 -2100 300/08 RMK AO2
14837KMSN MSN20031211054009612/11/03 05:40:31  5-MIN KMSN 111140Z 31008KT 10SM CLR M11/M14 A2991 870 77 -2100 310/08 RMK AO2
14837KMSN MSN20031211054509612/11/03 05:45:31  5-MIN KMSN 111145Z 30008KT 10SM CLR M11/M14 A2992 870 77 -2100 300/08 RMK AO2
14837KMSN MSN20031211055014312/11/03 05:50:31  5-MIN KMSN 111150Z 29007KT 10SM CLR M11/M15 A2992 870 73 -2100 290/07 RMK AO2 SLP146 70050 4/002 T11111150 11056 21111 51024
14837KMSN MSN20031211055509612/11/03 05:55:31  5-MIN KMSN 111155Z 29009KT 10SM CLR M11/M14 A2992 860 77 -2100 290/09 RMK AO2
14837KMSN MSN20031211060009612/11/03 06:00:31  5-MIN KMSN 111200Z 29009KT 10SM CLR M11/M14 A2993 860 77 -2100 290/09 RMK AO2
14837KMSN MSN20031211060509612/11/03 06:05:31  5-MIN KMSN 111205Z 29008KT 10SM CLR M11/M14 A2993 860 80 -2100 290/08 RMK AO2
14837KMSN MSN20031211061009612/11/03 06:10:31  5-MIN KMSN 111210Z 29008KT 10SM CLR M11/M15 A2993 860 73 -2100 290/08 RMK AO2
14837KMSN MSN20031211061509612/11/03 06:15:31  5-MIN KMSN 111215Z 30010KT 10SM CLR M12/M14 A2993 850 84 -2200 300/10 RMK AO2
14837KMSN MSN20031211062009612/11/03 06:20:31  5-MIN KMSN 111220Z 29007KT 10SM CLR M12/M15 A2993 850 76 -2200 290/07 RMK AO2
14837KMSN MSN20031211062509612/11/03 06:25:31  5-MIN KMSN 111225Z 30008KT 10SM CLR M12/M15 A2994 850 76 -2200 290/08 RMK AO2
14837KMSN MSN20031211063009612/11/03 06:30:31  5-MIN KMSN 111230Z 29008KT 10SM CLR M12/M16 A2995 840 73 -2200 290/08 RMK AO2
14837KMSN MSN20031211063509612/11/03 06:35:31  5-MIN KMSN 111235Z 29007KT 10SM CLR M12/M15 A2995 840 76 -2200 280/07 RMK AO2
14837KMSN MSN20031211064009612/11/03 06:40:31  5-MIN KMSN 111240Z 29009KT 10SM CLR M12/M15 A2995 840 76 -2200 290/09 RMK AO2
14837KMSN MSN20031211064509612/11/03 06:45:31  5-MIN KMSN 111245Z 29007KT 10SM CLR M12/M15 A2995 840 76 -2200 290/07 RMK AO2
14837KMSN MSN20031211065011312/11/03 06:50:31  5-MIN KMSN 111250Z 28008KT 10SM CLR M12/M15 A2995 830 76 -2200 280/08 RMK AO2 SLP158 T11171150
14837KMSN MSN20031211065509612/11/03 06:55:31  5-MIN KMSN 111255Z 30008KT 10SM CLR M12/M14 A2995 840 80 -2200 300/08 RMK AO2
14837KMSN MSN20031211070009612/11/03 07:00:31  5-MIN KMSN 111300Z 30009KT 10SM CLR M12/M16 A2995 830 73 -2200 300/09 RMK AO2
14837KMSN MSN20031211070509612/11/03 07:05:31  5-MIN KMSN 111305Z 29008KT 10SM CLR M12/M16 A2996 830 73 -2200 290/08 RMK AO2
14837KMSN MSN20031211071009612/11/03 07:10:31  5-MIN KMSN 111310Z 29007KT 10SM CLR M12/M15 A2995 830 76 -2200 290/07 RMK AO2
14837KMSN MSN20031211071509612/11/03 07:15:31  5-MIN KMSN 111315Z 30007KT 10SM CLR M12/M16 A2996 830 76 -2300 290/07 RMK AO2
14837KMSN MSN20031211072009612/11/03 07:20:31  5-MIN KMSN 111320Z 30008KT 10SM CLR M12/M16 A2996 830 76 -2300 300/08 RMK AO2
14837KMSN MSN20031211072509612/11/03 07:25:31  5-MIN KMSN 111325Z 30008KT 10SM CLR M12/M16 A2996 830 76 -2300 300/08 RMK AO2
14837KMSN MSN20031211073009612/11/03 07:30:31  5-MIN KMSN 111330Z 29008KT 10SM CLR M12/M16 A2996 830 76 -2300 290/08 RMK AO2
14837KMSN MSN20031211073509612/11/03 07:35:31  5-MIN KMSN 111335Z 29006KT 10SM CLR M12/M15 A2996 830 80 -2300 290/06 RMK AO2
14837KMSN MSN20031211074009612/11/03 07:40:31  5-MIN KMSN 111340Z VRB06KT 10SM CLR M12/M16 A2996 830 76 -2300 VRB/06 RMK AO2
14837KMSN MSN20031211074509612/11/03 07:45:31  5-MIN KMSN 111345Z 29007KT 10SM CLR M12/M15 A2996 830 80 -2300 290/07 RMK AO2
14837KMSN MSN20031211075011312/11/03 07:50:31  5-MIN KMSN 111350Z 30008KT 10SM CLR M12/M16 A2997 820 76 -2300 300/08 RMK AO2 SLP162 T11221156
14837KMSN MSN20031211075509612/11/03 07:55:31  5-MIN KMSN 111355Z 31008KT 10SM CLR M12/M16 A2996 820 76 -2300 310/08 RMK AO2
14837KMSN MSN20031211080009612/11/03 08:00:31  5-MIN KMSN 111400Z 30008KT 10SM CLR M12/M16 A2996 820 76 -2300 290/08 RMK AO2
14837KMSN MSN20031211080509612/11/03 08:05:31  5-MIN KMSN 111405Z 31006KT 10SM CLR M12/M16 A2997 820 76 -2300 310/06 RMK AO2
14837KMSN MSN20031211081009612/11/03 08:10:31  5-MIN KMSN 111410Z 30008KT 10SM CLR M12/M16 A2997 820 76 -2300 300/08 RMK AO2
14837KMSN MSN20031211081509612/11/03 08:15:31  5-MIN KMSN 111415Z 31009KT 10SM CLR M12/M16 A2998 810 76 -2300 310/09 RMK AO2
14837KMSN MSN20031211082009612/11/03 08:20:31  5-MIN KMSN 111420Z 30006KT 10SM CLR M12/M16 A2998 810 73 -2200 300/06 RMK AO2
14837KMSN MSN20031211082509612/11/03 08:25:31  5-MIN KMSN 111425Z 30006KT 10SM CLR M12/M16 A2998 810 73 -2200 300/06 RMK AO2
14837KMSN MSN20031211083009612/11/03 08:30:31  5-MIN KMSN 111430Z 29008KT 10SM CLR M12/M16 A2998 810 73 -2200 290/08 RMK AO2
14837KMSN MSN20031211083509612/11/03 08:35:31  5-MIN KMSN 111435Z 29009KT 10SM CLR M12/M16 A2998 810 70 -2200 290/09 RMK AO2
14837KMSN MSN20031211084009612/11/03 08:40:31  5-MIN KMSN 111440Z 30010KT 10SM CLR M12/M16 A2998 810 73 -2200 300/10 RMK AO2
14837KMSN MSN20031211084509612/11/03 08:45:31  5-MIN KMSN 111445Z 31008KT 10SM CLR M12/M16 A2998 810 73 -2200 310/08 RMK AO2
14837KMSN MSN20031211085011912/11/03 08:50:31  5-MIN KMSN 111450Z 30007KT 10SM CLR M12/M16 A2999 800 73 -2200 300/07 RMK AO2 SLP170 T11171156 53018
14837KMSN MSN20031211085509912/11/03 08:55:31  5-MIN KMSN 111455Z 31011KT 10SM FEW020 M12/M16 A2999 800 73 -2300 310/11 RMK AO2
14837KMSN MSN20031211090009912/11/03 09:00:31  5-MIN KMSN 111500Z 30011KT 10SM FEW020 M12/M16 A2999 800 73 -2300 300/11 RMK AO2
14837KMSN MSN20031211090509912/11/03 09:05:31  5-MIN KMSN 111505Z 31010KT 10SM FEW020 M12/M16 A2999 800 70 -2300 310/10 RMK AO2
14837KMSN MSN20031211091010512/11/03 09:10:31  5-MIN KMSN 111510Z 31009G16KT 10SM FEW020 M12/M16 A2999 800 73 -2300 310/09G16 RMK AO2
14837KMSN MSN20031211091509912/11/03 09:15:31  5-MIN KMSN 111515Z 31011KT 10SM FEW020 M12/M16 A2999 800 70 -2300 310/11 RMK AO2
14837KMSN MSN20031211092009912/11/03 09:20:31  5-MIN KMSN 111520Z 30010KT 10SM FEW020 M12/M16 A2999 800 73 -2300 300/10 RMK AO2
14837KMSN MSN20031211092509912/11/03 09:25:31  5-MIN KMSN 111525Z 31010KT 10SM FEW020 M12/M16 A2999 800 73 -2300 300/10 RMK AO2
14837KMSN MSN20031211093009912/11/03 09:30:31  5-MIN KMSN 111530Z 31010KT 10SM FEW020 M12/M16 A3000 790 73 -2300 310/10 RMK AO2
14837KMSN MSN20031211093509912/11/03 09:35:31  5-MIN KMSN 111535Z 31010KT 10SM FEW020 M12/M16 A3000 790 73 -2300 310/10 RMK AO2
14837KMSN MSN20031211094010512/11/03 09:40:31  5-MIN KMSN 111540Z 30010G15KT 10SM FEW020 M12/M15 A3000 790 76 -2300 300/10G15 RMK AO2
14837KMSN MSN20031211094510512/11/03 09:45:31  5-MIN KMSN 111545Z 30009G15KT 10SM FEW020 M12/M16 A3000 790 73 -2300 300/09G15 RMK AO2
14837KMSN MSN20031211095011612/11/03 09:50:31  5-MIN KMSN 111550Z 32010KT 10SM FEW020 M11/M16 A3001 780 70 -2200 320/10 RMK AO2 SLP176 T11111156
14837KMSN MSN20031211095509912/11/03 09:55:31  5-MIN KMSN 111555Z 31008KT 10SM FEW015 M11/M16 A3001 780 70 -2200 310/08 RMK AO2
14837KMSN MSN20031211100009912/11/03 10:00:31  5-MIN KMSN 111600Z 29008KT 10SM FEW015 M11/M16 A3001 780 70 -2200 290/08 RMK AO2
14837KMSN MSN20031211100511512/11/03 10:05:31  5-MIN KMSN 111605Z 30008KT 260V330 10SM FEW015 M11/M16 A3002 770 70 -2200 300/08 260V330 RMK AO2
14837KMSN MSN20031211101009912/11/03 10:10:31  5-MIN KMSN 111610Z 29011KT 10SM FEW015 M11/M16 A3002 770 70 -2200 290/11 RMK AO2
14837KMSN MSN20031211101509912/11/03 10:15:31  5-MIN KMSN 111615Z 31011KT 10SM FEW018 M11/M16 A3002 770 70 -2200 310/11 RMK AO2
14837KMSN MSN20031211102009912/11/03 10:20:31  5-MIN KMSN 111620Z 29009KT 10SM FEW018 M11/M15 A3002 770 73 -2200 290/09 RMK AO2
14837KMSN MSN20031211102509912/11/03 10:25:31  5-MIN KMSN 111625Z 30008KT 10SM FEW018 M11/M15 A3002 770 73 -2200 300/08 RMK AO2
14837KMSN MSN20031211103009912/11/03 10:30:31  5-MIN KMSN 111630Z 28007KT 10SM FEW018 M11/M15 A3002 770 73 -2200 280/07 RMK AO2
14837KMSN MSN20031211103509912/11/03 10:35:31  5-MIN KMSN 111635Z 29008KT 10SM FEW018 M11/M15 A3002 780 73 -2200 290/08 RMK AO2
14837KMSN MSN20031211104009912/11/03 10:40:31  5-MIN KMSN 111640Z 30009KT 10SM FEW018 M11/M16 A3002 780 70 -2200 290/09 RMK AO2
14837KMSN MSN20031211104509912/11/03 10:45:31  5-MIN KMSN 111645Z 32010KT 10SM FEW018 M11/M16 A3001 780 64 -2100 320/10 RMK AO2
14837KMSN MSN20031211105011612/11/03 10:50:31  5-MIN KMSN 111650Z 31008KT 10SM FEW018 M11/M15 A3001 780 70 -2100 310/08 RMK AO2 SLP179 T11061150
14837KMSN MSN20031211105511512/11/03 10:55:31  5-MIN KMSN 111655Z 30007KT 260V320 10SM FEW018 M11/M16 A3001 780 67 -2100 300/07 260V320 RMK AO2
14837KMSN MSN20031211110009912/11/03 11:00:31  5-MIN KMSN 111700Z 29009KT 10SM FEW018 M11/M15 A3001 780 70 -2100 290/09 RMK AO2
14837KMSN MSN20031211110509912/11/03 11:05:31  5-MIN KMSN 111705Z 28009KT 10SM FEW018 M11/M15 A3002 780 70 -2100 280/09 RMK AO2
14837KMSN MSN20031211111009912/11/03 11:10:31  5-MIN KMSN 111710Z 29008KT 10SM FEW018 M11/M15 A3001 780 70 -2100 290/08 RMK AO2
14837KMSN MSN20031211111509912/11/03 11:15:31  5-MIN KMSN 111715Z 29010KT 10SM FEW018 M11/M15 A3001 780 70 -2100 290/10 RMK AO2
14837KMSN MSN20031211112009912/11/03 11:20:31  5-MIN KMSN 111720Z 30010KT 10SM FEW018 M11/M15 A3001 780 70 -2100 300/10 RMK AO2
14837KMSN MSN20031211112511512/11/03 11:25:31  5-MIN KMSN 111725Z 28009KT 250V320 10SM FEW018 M11/M15 A3001 780 70 -2100 280/09 250V320 RMK AO2
14837KMSN MSN20031211113009912/11/03 11:30:31  5-MIN KMSN 111730Z 28009KT 10SM FEW018 M11/M16 A3001 780 67 -2100 280/09 RMK AO2
14837KMSN MSN20031211113510512/11/03 11:35:31  5-MIN KMSN 111735Z 29010G16KT 10SM FEW018 M11/M16 A3001 780 67 -2100 290/10G16 RMK AO2
14837KMSN MSN20031211114010512/11/03 11:40:31  5-MIN KMSN 111740Z 30008G16KT 10SM FEW018 M11/M15 A3001 780 70 -2100 300/08G16 RMK AO2
14837KMSN MSN20031211114510512/11/03 11:45:31  5-MIN KMSN 111745Z 28010G15KT 10SM FEW018 M11/M15 A3001 780 70 -2100 280/10G15 RMK AO2
14837KMSN MSN20031211115013412/11/03 11:50:31  5-MIN KMSN 111750Z 27010KT 10SM FEW020 M11/M15 A3001 780 70 -2100 270/10 RMK AO2 SLP177 T11061150 11106 21122 51022
14837KMSN MSN20031211115509912/11/03 11:55:31  5-MIN KMSN 111755Z 28009KT 10SM FEW020 M11/M15 A3001 780 70 -2100 280/09 RMK AO2
14837KMSN MSN20031211120009912/11/03 12:00:31  5-MIN KMSN 111800Z 28010KT 10SM FEW020 M11/M14 A3001 780 73 -2100 280/10 RMK AO2
14837KMSN MSN20031211120509912/11/03 12:05:31  5-MIN KMSN 111805Z 27008KT 10SM FEW020 M11/M15 A3001 780 70 -2100 270/08 RMK AO2
14837KMSN MSN20031211121009912/11/03 12:10:31  5-MIN KMSN 111810Z 29010KT 10SM FEW020 M11/M16 A3001 780 67 -2100 290/10 RMK AO2
14837KMSN MSN20031211121509912/11/03 12:15:31  5-MIN KMSN 111815Z 28010KT 10SM FEW020 M10/M15 A3001 780 67 -2100 280/10 RMK AO2
14837KMSN MSN20031211122009912/11/03 12:20:31  5-MIN KMSN 111820Z 30010KT 10SM FEW020 M10/M15 A3001 780 67 -2100 300/10 RMK AO2
14837KMSN MSN20031211122511512/11/03 12:25:31  5-MIN KMSN 111825Z 29007KT 270V330 10SM FEW020 M10/M15 A3001 780 67 -2100 290/07 270V330 RMK AO2
14837KMSN MSN20031211123009912/11/03 12:30:31  5-MIN KMSN 111830Z VRB06KT 10SM FEW020 M10/M14 A3001 780 70 -2100 VRB/06 RMK AO2
14837KMSN MSN20031211123509912/11/03 12:35:31  5-MIN KMSN 111835Z 27007KT 10SM FEW020 M10/M15 A3001 780 67 -2100 270/07 RMK AO2
14837KMSN MSN20031211124009912/11/03 12:40:31  5-MIN KMSN 111840Z 30009KT 10SM FEW020 M10/M14 A3001 780 70 -2100 300/09 RMK AO2
14837KMSN MSN20031211124509912/11/03 12:45:31  5-MIN KMSN 111845Z 30009KT 10SM FEW020 M10/M15 A3001 780 67 -2100 300/09 RMK AO2
14837KMSN MSN20031211125013212/11/03 12:50:31  5-MIN KMSN 111850Z 29009KT 260V320 10SM FEW020 M10/M15 A3001 780 67 -2100 290/09 260V320 RMK AO2 SLP177 T11001150
14837KMSN MSN20031211125509912/11/03 12:55:31  5-MIN KMSN 111855Z 30009KT 10SM FEW024 M10/M14 A3001 780 70 -2100 300/09 RMK AO2
14837KMSN MSN20031211130009912/11/03 13:00:31  5-MIN KMSN 111900Z 31008KT 10SM FEW024 M09/M16 A3001 780 61 -2000 310/08 RMK AO2
14837KMSN MSN20031211130509912/11/03 13:05:31  5-MIN KMSN 111905Z 29010KT 10SM FEW024 M09/M15 A3001 780 64 -2000 290/10 RMK AO2
14837KMSN MSN20031211131009912/11/03 13:10:31  5-MIN KMSN 111910Z 30010KT 10SM FEW024 M10/M15 A3001 780 67 -2100 290/10 RMK AO2
14837KMSN MSN20031211131509912/11/03 13:15:31  5-MIN KMSN 111915Z 31011KT 10SM FEW024 M09/M15 A3001 780 64 -2000 300/11 RMK AO2
14837KMSN MSN20031211132009912/11/03 13:20:31  5-MIN KMSN 111920Z 29009KT 10SM FEW024 M09/M15 A3001 780 64 -2000 290/09 RMK AO2
14837KMSN MSN20031211132509912/11/03 13:25:31  5-MIN KMSN 111925Z 31012KT 10SM FEW024 M09/M15 A3001 780 64 -2000 310/12 RMK AO2
14837KMSN MSN20031211133009912/11/03 13:30:31  5-MIN KMSN 111930Z 31010KT 10SM FEW024 M09/M14 A3001 780 70 -2000 310/10 RMK AO2
14837KMSN MSN20031211133509912/11/03 13:35:31  5-MIN KMSN 111935Z 29008KT 10SM FEW024 M09/M16 A3001 780 61 -2000 290/08 RMK AO2
14837KMSN MSN20031211134009912/11/03 13:40:31  5-MIN KMSN 111940Z 29010KT 10SM FEW024 M09/M16 A3001 780 61 -2000 290/10 RMK AO2
14837KMSN MSN20031211134509912/11/03 13:45:31  5-MIN KMSN 111945Z 29009KT 10SM FEW024 M09/M14 A3001 780 67 -2000 290/09 RMK AO2
14837KMSN MSN20031211135011612/11/03 13:50:31  5-MIN KMSN 111950Z 30008KT 10SM FEW024 M09/M14 A3001 780 67 -2000 300/08 RMK AO2 SLP178 T10941144
14837KMSN MSN20031211135509912/11/03 13:55:31  5-MIN KMSN 111955Z 30010KT 10SM FEW026 M09/M14 A3002 780 64 -1900 300/10 RMK AO2
14837KMSN MSN20031211140009912/11/03 14:00:31  5-MIN KMSN 112000Z 29010KT 10SM FEW026 M09/M15 A3002 770 64 -2000 290/10 RMK AO2
14837KMSN MSN20031211140509912/11/03 14:05:31  5-MIN KMSN 112005Z 29010KT 10SM FEW026 M09/M15 A3002 780 64 -2000 290/10 RMK AO2
14837KMSN MSN20031211141009912/11/03 14:10:31  5-MIN KMSN 112010Z 28010KT 10SM FEW026 M09/M14 A3002 770 64 -1900 280/10 RMK AO2
14837KMSN MSN20031211141509912/11/03 14:15:31  5-MIN KMSN 112015Z 30010KT 10SM FEW026 M09/M15 A3002 770 64 -2000 300/10 RMK AO2
14837KMSN MSN20031211142009912/11/03 14:20:31  5-MIN KMSN 112020Z 30008KT 10SM FEW026 M09/M16 A3003 770 61 -2000 290/08 RMK AO2
14837KMSN MSN20031211142509912/11/03 14:25:31  5-MIN KMSN 112025Z 28009KT 10SM FEW026 M09/M14 A3003 760 70 -2000 280/09 RMK AO2
14837KMSN MSN20031211143009912/11/03 14:30:31  5-MIN KMSN 112030Z 28010KT 10SM FEW026 M09/M16 A3004 760 61 -2000 280/10 RMK AO2
14837KMSN MSN20031211143509912/11/03 14:35:31  5-MIN KMSN 112035Z 29008KT 10SM FEW026 M09/M15 A3004 760 61 -1900 290/08 RMK AO2
14837KMSN MSN20031211144011512/11/03 14:40:31  5-MIN KMSN 112040Z 30008KT 280V340 10SM FEW026 M09/M15 A3004 760 61 -1900 290/08 280V340 RMK AO2
14837KMSN MSN20031211144509912/11/03 14:45:31  5-MIN KMSN 112045Z 31007KT 10SM FEW026 M09/M15 A3004 750 61 -1900 310/07 RMK AO2
14837KMSN MSN20031211145012212/11/03 14:50:31  5-MIN KMSN 112050Z 32008KT 10SM FEW026 M09/M15 A3005 750 64 -2000 310/08 RMK AO2 SLP191 T10941150 50007
14837KMSN MSN20031211145509912/11/03 14:55:31  5-MIN KMSN 112055Z 31009KT 10SM FEW028 M09/M16 A3005 750 61 -2000 310/09 RMK AO2
14837KMSN MSN20031211150009912/11/03 15:00:31  5-MIN KMSN 112100Z 32009KT 10SM FEW028 M09/M16 A3005 750 61 -2000 320/09 RMK AO2
14837KMSN MSN20031211150509912/11/03 15:05:31  5-MIN KMSN 112105Z 31007KT 10SM FEW028 M09/M15 A3005 750 64 -2000 310/07 RMK AO2
14837KMSN MSN20031211151009912/11/03 15:10:31  5-MIN KMSN 112110Z 30009KT 10SM FEW028 M09/M16 A3005 740 61 -2000 300/09 RMK AO2
14837KMSN MSN20031211151509912/11/03 15:15:31  5-MIN KMSN 112115Z 32009KT 10SM FEW028 M09/M16 A3005 740 59 -2000 320/09 RMK AO2
14837KMSN MSN20031211152009912/11/03 15:20:31  5-MIN KMSN 112120Z 29007KT 10SM FEW028 M09/M16 A3005 740 61 -2000 290/07 RMK AO2
14837KMSN MSN20031211152511212/11/03 15:25:31  5-MIN KMSN 112125Z 28007KT 250V320 10SM CLR M09/M16 A3006 740 61 -2000 280/07 250V320 RMK AO2
14837KMSN MSN20031211153009612/11/03 15:30:31  5-MIN KMSN 112130Z 29006KT 10SM CLR M09/M16 A3006 740 61 -2000 290/06 RMK AO2
14837KMSN MSN20031211153509612/11/03 15:35:31  5-MIN KMSN 112135Z 29009KT 10SM CLR M10/M16 A3006 740 64 -2100 290/09 RMK AO2
14837KMSN MSN20031211154009612/11/03 15:40:31  5-MIN KMSN 112140Z 29008KT 10SM CLR M10/M16 A3006 740 61 -2100 290/08 RMK AO2
14837KMSN MSN20031211154509612/11/03 15:45:31  5-MIN KMSN 112145Z 29010KT 10SM CLR M10/M16 A3006 730 64 -2100 290/10 RMK AO2
14837KMSN MSN20031211155011312/11/03 15:50:31  5-MIN KMSN 112150Z 30010KT 10SM CLR M10/M17 A3006 730 58 -2100 300/10 RMK AO2 SLP197 T11001167
14837KMSN MSN20031211155509612/11/03 15:55:31  5-MIN KMSN 112155Z 28006KT 10SM CLR M10/M16 A3006 730 64 -2100 280/06 RMK AO2
14837KMSN MSN20031211160009612/11/03 16:00:31  5-MIN KMSN 112200Z 28006KT 10SM CLR M10/M17 A3007 730 58 -2100 280/06 RMK AO2
14837KMSN MSN20031211160509612/11/03 16:05:31  5-MIN KMSN 112205Z 28006KT 10SM CLR M11/M16 A3007 730 64 -2200 280/06 RMK AO2
14837KMSN MSN20031211161009612/11/03 16:10:31  5-MIN KMSN 112210Z 28007KT 10SM CLR M11/M16 A3007 730 67 -2200 280/07 RMK AO2
14837KMSN MSN20031211161509612/11/03 16:15:31  5-MIN KMSN 112215Z 28007KT 10SM CLR M11/M16 A3007 730 67 -2200 280/07 RMK AO2
14837KMSN MSN20031211162009612/11/03 16:20:31  5-MIN KMSN 112220Z 28006KT 10SM CLR M11/M16 A3007 720 67 -2200 280/06 RMK AO2
14837KMSN MSN20031211162509612/11/03 16:25:31  5-MIN KMSN 112225Z 29007KT 10SM CLR M11/M15 A3007 720 70 -2200 290/07 RMK AO2
14837KMSN MSN20031211163009612/11/03 16:30:31  5-MIN KMSN 112230Z 29006KT 10SM CLR M11/M16 A3007 720 67 -2200 290/06 RMK AO2
14837KMSN MSN20031211163509612/11/03 16:35:31  5-MIN KMSN 112235Z 29006KT 10SM CLR M11/M16 A3008 720 64 -2200 290/06 RMK AO2
14837KMSN MSN20031211164009612/11/03 16:40:31  5-MIN KMSN 112240Z 28008KT 10SM CLR M11/M17 A3008 720 61 -2200 280/08 RMK AO2
14837KMSN MSN20031211164509612/11/03 16:45:31  5-MIN KMSN 112245Z 29006KT 10SM CLR M11/M17 A3008 720 61 -2200 290/06 RMK AO2
14837KMSN MSN20031211165011312/11/03 16:50:31  5-MIN KMSN 112250Z 29005KT 10SM CLR M11/M16 A3008 720 64 -2200 290/05 RMK AO2 SLP203 T11061161
14837KMSN MSN20031211165509612/11/03 16:55:31  5-MIN KMSN 112255Z 30004KT 10SM CLR M11/M16 A3008 720 67 -2300 290/04 RMK AO2
14837KMSN MSN20031211170009612/11/03 17:00:31  5-MIN KMSN 112300Z 30005KT 10SM CLR M11/M16 A3008 710 70 -2300 300/05 RMK AO2
14837KMSN MSN20031211170509612/11/03 17:05:31  5-MIN KMSN 112305Z 29005KT 10SM CLR M11/M16 A3008 710 70 -2300 290/05 RMK AO2
14837KMSN MSN20031211171009612/11/03 17:10:31  5-MIN KMSN 112310Z 29005KT 10SM CLR M11/M16 A3009 710 70 -2300 290/05 RMK AO2
14837KMSN MSN20031211171509612/11/03 17:15:31  5-MIN KMSN 112315Z 29006KT 10SM CLR M11/M16 A3009 710 67 -2300 290/06 RMK AO2
14837KMSN MSN20031211172009612/11/03 17:20:31  5-MIN KMSN 112320Z VRB05KT 10SM CLR M11/M16 A3009 710 67 -2300 VRB/05 RMK AO2
14837KMSN MSN20031211172509612/11/03 17:25:31  5-MIN KMSN 112325Z 29007KT 10SM CLR M11/M17 A3009 710 61 -2300 290/07 RMK AO2
14837KMSN MSN20031211173009612/11/03 17:30:31  5-MIN KMSN 112330Z 30007KT 10SM CLR M11/M17 A3009 710 64 -2300 300/07 RMK AO2
14837KMSN MSN20031211173509612/11/03 17:35:31  5-MIN KMSN 112335Z 31009KT 10SM CLR M11/M17 A3009 710 64 -2300 300/09 RMK AO2
14837KMSN MSN20031211174009612/11/03 17:40:31  5-MIN KMSN 112340Z 30007KT 10SM CLR M11/M17 A3009 700 64 -2300 290/07 RMK AO2
14837KMSN MSN20031211174510212/11/03 17:45:31  5-MIN KMSN 112345Z 30007KT 10SM CLR M11/M16 A3010 700 70 -2300 300/07 RMK AO2 4/002
14837KMSN MSN20031211175013712/11/03 17:50:31  5-MIN KMSN 112350Z 30008KT 10SM CLR M11/M16 A3010 700 67 -2300 300/08 RMK AO2 SLP211 4/002 T11111161 11089 21117 53012
14837KMSN MSN20031211175509612/11/03 17:55:31  5-MIN KMSN 112355Z 30006KT 10SM CLR M11/M16 A3010 700 67 -2300 300/06 RMK AO2
14837KMSN MSN20031211180009612/11/03 18:00:31  5-MIN KMSN 120000Z 30006KT 10SM CLR M12/M16 A3010 700 70 -2400 300/06 RMK AO2
14837KMSN MSN20031211180509612/11/03 18:05:31  5-MIN KMSN 120005Z 30007KT 10SM CLR M12/M17 A3010 690 67 -2400 300/07 RMK AO2
14837KMSN MSN20031211181009612/11/03 18:10:31  5-MIN KMSN 120010Z 30007KT 10SM CLR M12/M17 A3011 690 64 -2400 290/07 RMK AO2
14837KMSN MSN20031211181509612/11/03 18:15:31  5-MIN KMSN 120015Z VRB04KT 10SM CLR M12/M17 A3011 690 67 -2400 VRB/04 RMK AO2
14837KMSN MSN20031211182009612/11/03 18:20:31  5-MIN KMSN 120020Z VRB05KT 10SM CLR M12/M16 A3011 690 70 -2400 VRB/05 RMK AO2
14837KMSN MSN20031211182509612/11/03 18:25:31  5-MIN KMSN 120025Z 30004KT 10SM CLR M12/M16 A3011 690 70 -2400 300/04 RMK AO2
14837KMSN MSN20031211183009612/11/03 18:30:31  5-MIN KMSN 120030Z 30005KT 10SM CLR M12/M17 A3011 690 67 -2400 300/05 RMK AO2
14837KMSN MSN20031211183509612/11/03 18:35:31  5-MIN KMSN 120035Z 30005KT 10SM CLR M12/M17 A3012 680 67 -2400 300/05 RMK AO2
14837KMSN MSN20031211184009612/11/03 18:40:31  5-MIN KMSN 120040Z VRB03KT 10SM CLR M12/M17 A3012 680 70 -2500 VRB/03 RMK AO2
14837KMSN MSN20031211184509612/11/03 18:45:31  5-MIN KMSN 120045Z 31006KT 10SM CLR M12/M17 A3012 680 70 -2500 310/06 RMK AO2
14837KMSN MSN20031211185011312/11/03 18:50:31  5-MIN KMSN 120050Z 31006KT 10SM CLR M12/M16 A3012 680 70 -2400 310/06 RMK AO2 SLP218 T11171161
14837KMSN MSN20031211185509612/11/03 18:55:31  5-MIN KMSN 120055Z 31005KT 10SM CLR M12/M18 A3012 680 61 -2400 310/05 RMK AO2
14837KMSN MSN20031211190009612/11/03 19:00:31  5-MIN KMSN 120100Z 30005KT 10SM CLR M12/M17 A3013 670 70 -2500 300/05 RMK AO2
14837KMSN MSN20031211190509612/11/03 19:05:31  5-MIN KMSN 120105Z 32006KT 10SM CLR M12/M17 A3012 680 70 -2500 310/06 RMK AO2
14837KMSN MSN20031211191009612/11/03 19:10:31  5-MIN KMSN 120110Z 31005KT 10SM CLR M12/M17 A3012 680 70 -2500 310/05 RMK AO2
14837KMSN MSN20031211191509612/11/03 19:15:31  5-MIN KMSN 120115Z 31005KT 10SM CLR M12/M17 A3012 680 70 -2500 310/05 RMK AO2
14837KMSN MSN20031211192009612/11/03 19:20:31  5-MIN KMSN 120120Z 32004KT 10SM CLR M12/M17 A3013 680 70 -2500 320/04 RMK AO2
14837KMSN MSN20031211192509612/11/03 19:25:31  5-MIN KMSN 120125Z 31006KT 10SM CLR M12/M17 A3013 670 70 -2500 310/06 RMK AO2
14837KMSN MSN20031211193009612/11/03 19:30:31  5-MIN KMSN 120130Z 30005KT 10SM CLR M12/M17 A3013 670 67 -2500 300/05 RMK AO2
14837KMSN MSN20031211193509612/11/03 19:35:31  5-MIN KMSN 120135Z 30005KT 10SM CLR M12/M17 A3013 670 70 -2500 300/05 RMK AO2
14837KMSN MSN20031211194009612/11/03 19:40:31  5-MIN KMSN 120140Z 31006KT 10SM CLR M13/M17 A3013 670 70 -2600 310/06 RMK AO2
14837KMSN MSN20031211194509612/11/03 19:45:31  5-MIN KMSN 120145Z 31008KT 10SM CLR M12/M17 A3013 670 67 -2500 310/08 RMK AO2
14837KMSN MSN20031211195011312/11/03 19:50:31  5-MIN KMSN 120150Z 31006KT 10SM CLR M12/M16 A3013 670 73 -2500 310/06 RMK AO2 SLP223 T11221161
14837KMSN MSN20031211195509612/11/03 19:55:31  5-MIN KMSN 120155Z 31007KT 10SM CLR M13/M17 A3013 670 73 -2600 310/07 RMK AO2
14837KMSN MSN20031211200009612/11/03 20:00:31  5-MIN KMSN 120200Z 31007KT 10SM CLR M13/M17 A3013 670 73 -2600 310/07 RMK AO2
14837KMSN MSN20031211200509612/11/03 20:05:31  5-MIN KMSN 120205Z 32006KT 10SM CLR M13/M17 A3014 670 73 -2600 310/06 RMK AO2
14837KMSN MSN20031211201009612/11/03 20:10:31  5-MIN KMSN 120210Z 30005KT 10SM CLR M13/M17 A3014 670 73 -2600 300/05 RMK AO2
14837KMSN MSN20031211201509612/11/03 20:15:31  5-MIN KMSN 120215Z 30005KT 10SM CLR M13/M17 A3014 670 70 -2600 300/05 RMK AO2
14837KMSN MSN20031211202009612/11/03 20:20:31  5-MIN KMSN 120220Z 30007KT 10SM CLR M13/M17 A3014 660 70 -2600 300/07 RMK AO2
14837KMSN MSN20031211202509612/11/03 20:25:31  5-MIN KMSN 120225Z 30006KT 10SM CLR M13/M17 A3014 660 70 -2600 300/06 RMK AO2
14837KMSN MSN20031211203009612/11/03 20:30:31  5-MIN KMSN 120230Z 31007KT 10SM CLR M13/M17 A3014 660 76 -2700 310/07 RMK AO2
14837KMSN MSN20031211203509612/11/03 20:35:31  5-MIN KMSN 120235Z 31007KT 10SM CLR M13/M17 A3014 660 73 -2600 310/07 RMK AO2
14837KMSN MSN20031211204009612/11/03 20:40:31  5-MIN KMSN 120240Z 32006KT 10SM CLR M13/M17 A3014 660 76 -2700 320/06 RMK AO2
14837KMSN MSN20031211204509612/11/03 20:45:31  5-MIN KMSN 120245Z VRB05KT 10SM CLR M13/M17 A3014 660 76 -2700 VRB/05 RMK AO2
14837KMSN MSN20031211205011912/11/03 20:50:31  5-MIN KMSN 120250Z 31006KT 10SM CLR M13/M17 A3015 660 73 -2700 310/06 RMK AO2 SLP228 T11331172 53018
14837KMSN MSN20031211205509612/11/03 20:55:31  5-MIN KMSN 120255Z 32007KT 10SM CLR M13/M17 A3015 650 73 -2700 320/07 RMK AO2
14837KMSN MSN20031211210009612/11/03 21:00:31  5-MIN KMSN 120300Z 32006KT 10SM CLR M13/M17 A3015 650 73 -2700 320/06 RMK AO2
14837KMSN MSN20031211210509612/11/03 21:05:31  5-MIN KMSN 120305Z 31006KT 10SM CLR M13/M17 A3015 650 73 -2700 310/06 RMK AO2
14837KMSN MSN20031211211009612/11/03 21:10:31  5-MIN KMSN 120310Z 32006KT 10SM CLR M13/M17 A3015 650 76 -2700 320/06 RMK AO2
14837KMSN MSN20031211211509612/11/03 21:15:31  5-MIN KMSN 120315Z 31006KT 10SM CLR M13/M17 A3016 650 73 -2700 310/06 RMK AO2
14837KMSN MSN20031211212009612/11/03 21:20:31  5-MIN KMSN 120320Z VRB03KT 10SM CLR M14/M17 A3016 640 76 -2700 VRB/03 RMK AO2
14837KMSN MSN20031211212509612/11/03 21:25:31  5-MIN KMSN 120325Z 30004KT 10SM CLR M14/M17 A3016 640 76 -2700 300/04 RMK AO2
14837KMSN MSN20031211213009612/11/03 21:30:31  5-MIN KMSN 120330Z 31005KT 10SM CLR M14/M18 A3016 640 73 -2700 310/05 RMK AO2
14837KMSN MSN20031211213509612/11/03 21:35:31  5-MIN KMSN 120335Z 30005KT 10SM CLR M14/M18 A3016 640 73 -2800 300/05 RMK AO2
14837KMSN MSN20031211214009612/11/03 21:40:31  5-MIN KMSN 120340Z VRB04KT 10SM CLR M14/M17 A3017 640 76 -2800 VRB/04 RMK AO2
14837KMSN MSN20031211214509612/11/03 21:45:31  5-MIN KMSN 120345Z 30005KT 10SM CLR M14/M17 A3017 640 76 -2800 300/05 RMK AO2
14837KMSN MSN20031211215011312/11/03 21:50:31  5-MIN KMSN 120350Z 30005KT 10SM CLR M14/M17 A3017 640 76 -2800 300/05 RMK AO2 SLP236 T11391172
14837KMSN MSN20031211215509612/11/03 21:55:31  5-MIN KMSN 120355Z 31006KT 10SM CLR M14/M17 A3017 640 76 -2800 310/06 RMK AO2
14837KMSN MSN20031211220009612/11/03 22:00:31  5-MIN KMSN 120400Z 31007KT 10SM CLR M14/M18 A3017 640 73 -2800 310/07 RMK AO2
14837KMSN MSN20031211220509612/11/03 22:05:31  5-MIN KMSN 120405Z 30008KT 10SM CLR M14/M18 A3017 640 73 -2800 300/08 RMK AO2
14837KMSN MSN20031211221009612/11/03 22:10:31  5-MIN KMSN 120410Z 30007KT 10SM CLR M14/M18 A3017 640 73 -2800 300/07 RMK AO2
14837KMSN MSN20031211221509612/11/03 22:15:31  5-MIN KMSN 120415Z 30007KT 10SM CLR M14/M18 A3017 630 69 -2800 300/07 RMK AO2
14837KMSN MSN20031211222009612/11/03 22:20:31  5-MIN KMSN 120420Z 31007KT 10SM CLR M14/M18 A3017 630 73 -2800 310/07 RMK AO2
14837KMSN MSN20031211222509612/11/03 22:25:31  5-MIN KMSN 120425Z 30006KT 10SM CLR M14/M18 A3018 630 69 -2800 300/06 RMK AO2
14837KMSN MSN20031211223009612/11/03 22:30:31  5-MIN KMSN 120430Z 31007KT 10SM CLR M14/M18 A3018 630 73 -2800 310/07 RMK AO2
14837KMSN MSN20031211223509612/11/03 22:35:31  5-MIN KMSN 120435Z 31006KT 10SM CLR M14/M17 A3018 630 76 -2800 310/06 RMK AO2
14837KMSN MSN20031211224009612/11/03 22:40:31  5-MIN KMSN 120440Z 30006KT 10SM CLR M14/M18 A3018 630 73 -2800 300/06 RMK AO2
14837KMSN MSN20031211224509612/11/03 22:45:31  5-MIN KMSN 120445Z 31006KT 10SM CLR M14/M18 A3018 630 73 -2800 310/06 RMK AO2
14837KMSN MSN20031211225011312/11/03 22:50:31  5-MIN KMSN 120450Z 31005KT 10SM CLR M14/M18 A3018 630 73 -2800 310/05 RMK AO2 SLP239 T11441183
14837KMSN MSN20031211225509612/11/03 22:55:31  5-MIN KMSN 120455Z 31006KT 10SM CLR M14/M18 A3018 630 73 -2800 310/06 RMK AO2
14837KMSN MSN20031211230009612/11/03 23:00:31  5-MIN KMSN 120500Z 31008KT 10SM CLR M14/M19 A3018 630 69 -2800 300/08 RMK AO2
14837KMSN MSN20031211230509612/11/03 23:05:31  5-MIN KMSN 120505Z 30006KT 10SM CLR M14/M19 A3018 630 69 -2800 300/06 RMK AO2
14837KMSN MSN20031211231009612/11/03 23:10:31  5-MIN KMSN 120510Z 31007KT 10SM CLR M14/M21 A3018 630 60 -2800 310/07 RMK AO2
14837KMSN MSN20031211231509612/11/03 23:15:31  5-MIN KMSN 120515Z 31007KT 10SM CLR M14/M19 A3018 630 66 -2800 300/07 RMK AO2
14837KMSN MSN20031211232009612/11/03 23:20:31  5-MIN KMSN 120520Z 30007KT 10SM CLR M14/M19 A3018 620 66 -2800 300/07 RMK AO2
14837KMSN MSN20031211232509612/11/03 23:25:31  5-MIN KMSN 120525Z 31006KT 10SM CLR M14/M19 A3018 620 69 -2800 310/06 RMK AO2
14837KMSN MSN20031211233009612/11/03 23:30:31  5-MIN KMSN 120530Z 31008KT 10SM CLR M14/M19 A3018 620 69 -2800 310/08 RMK AO2
14837KMSN MSN20031211233509612/11/03 23:35:31  5-MIN KMSN 120535Z 31007KT 10SM CLR M14/M19 A3018 630 69 -2800 310/07 RMK AO2
14837KMSN MSN20031211234009612/11/03 23:40:31  5-MIN KMSN 120540Z 31006KT 10SM CLR M14/M19 A3018 620 69 -2800 310/06 RMK AO2
14837KMSN MSN20031211234509612/11/03 23:45:31  5-MIN KMSN 120545Z 30006KT 10SM CLR M14/M19 A3018 620 69 -2800 300/06 RMK AO2
14837KMSN MSN20031211235014112/11/03 23:50:31  5-MIN KMSN 120550Z 30005KT 10SM CLR M14/M19 A3019 620 69 -2900 300/05 RMK AO2 SLP242 T11441189 11111 21144 410561144 51015
14837KMSN MSN20031211235509612/11/03 23:55:31  5-MIN KMSN 120555Z 30005KT 10SM CLR M14/M19 A3019 620 69 -2900 300/05 RMK AO2
14837KMSN MSN20031212000009612/12/03 00:00:31  5-MIN KMSN 120600Z 30006KT 10SM CLR M14/M18 A3019 620 73 -2900 300/06 RMK AO2
14837KMSN MSN20031212000509612/12/03 00:05:31  5-MIN KMSN 120605Z 29004KT 10SM CLR M14/M19 A3019 610 69 -2900 290/04 RMK AO2
14837KMSN MSN20031212001009612/12/03 00:10:31  5-MIN KMSN 120610Z 29006KT 10SM CLR M14/M18 A3019 610 73 -2900 290/06 RMK AO2
14837KMSN MSN20031212001509612/12/03 00:15:31  5-MIN KMSN 120615Z 29004KT 10SM CLR M15/M19 A3019 620 72 -2900 290/04 RMK AO2
14837KMSN MSN20031212002009612/12/03 00:20:31  5-MIN KMSN 120620Z 30005KT 10SM CLR M14/M18 A3019 620 73 -2900 290/05 RMK AO2
14837KMSN MSN20031212002509612/12/03 00:25:31  5-MIN KMSN 120625Z 29006KT 10SM CLR M14/M19 A3019 620 69 -2900 290/06 RMK AO2
14837KMSN MSN20031212003009612/12/03 00:30:31  5-MIN KMSN 120630Z 29005KT 10SM CLR M14/M18 A3019 620 73 -2900 290/05 RMK AO2
14837KMSN MSN20031212003509612/12/03 00:35:31  5-MIN KMSN 120635Z 30005KT 10SM CLR M14/M18 A3019 620 73 -2900 300/05 RMK AO2
14837KMSN MSN20031212004009612/12/03 00:40:31  5-MIN KMSN 120640Z 30005KT 10SM CLR M15/M18 A3019 620 76 -2900 300/05 RMK AO2
14837KMSN MSN20031212004509612/12/03 00:45:31  5-MIN KMSN 120645Z VRB03KT 10SM CLR M15/M18 A3019 620 76 -2900 VRB/03 RMK AO2
14837KMSN MSN20031212005011312/12/03 00:50:31  5-MIN KMSN 120650Z 30004KT 10SM CLR M15/M18 A3019 620 76 -2900 300/04 RMK AO2 SLP243 T11501183
14837KMSN MSN20031212005509612/12/03 00:55:31  5-MIN KMSN 120655Z VRB04KT 10SM CLR M15/M19 A3019 610 72 -2900 VRB/04 RMK AO2
14837KMSN MSN20031212010009612/12/03 01:00:31  5-MIN KMSN 120700Z VRB03KT 10SM CLR M15/M19 A3019 610 72 -2900 VRB/03 RMK AO2
14837KMSN MSN20031212010509612/12/03 01:05:31  5-MIN KMSN 120705Z VRB04KT 10SM CLR M15/M18 A3020 610 76 -2900 VRB/04 RMK AO2
14837KMSN MSN20031212011009612/12/03 01:10:31  5-MIN KMSN 120710Z 30004KT 10SM CLR M15/M18 A3020 610 76 -2900 300/04 RMK AO2
14837KMSN MSN20031212011509612/12/03 01:15:31  5-MIN KMSN 120715Z 29005KT 10SM CLR M15/M18 A3020 610 76 -2900 290/05 RMK AO2
14837KMSN MSN20031212012009612/12/03 01:20:31  5-MIN KMSN 120720Z 29005KT 10SM CLR M15/M18 A3020 610 76 -2900 290/05 RMK AO2
14837KMSN MSN20031212012509612/12/03 01:25:31  5-MIN KMSN 120725Z 30006KT 10SM CLR M15/M18 A3020 600 76 -2900 290/06 RMK AO2
14837KMSN MSN20031212013009612/12/03 01:30:31  5-MIN KMSN 120730Z 29007KT 10SM CLR M15/M18 A3021 600 76 -3000 290/07 RMK AO2
14837KMSN MSN20031212013509612/12/03 01:35:31  5-MIN KMSN 120735Z 30005KT 10SM CLR M15/M19 A3021 600 72 -3000 290/05 RMK AO2
14837KMSN MSN20031212014009612/12/03 01:40:31  5-MIN KMSN 120740Z 30007KT 10SM CLR M15/M19 A3021 600 72 -3000 300/07 RMK AO2
14837KMSN MSN20031212014509612/12/03 01:45:31  5-MIN KMSN 120745Z 29005KT 10SM CLR M15/M19 A3021 590 72 -3000 290/05 RMK AO2
14837KMSN MSN20031212015011312/12/03 01:50:31  5-MIN KMSN 120750Z 29006KT 10SM CLR M15/M18 A3022 590 76 -3000 290/06 RMK AO2 SLP252 T11501183
14837KMSN MSN20031212015509612/12/03 01:55:31  5-MIN KMSN 120755Z 30006KT 10SM CLR M15/M18 A3022 590 76 -3000 300/06 RMK AO2
14837KMSN MSN20031212020009612/12/03 02:00:31  5-MIN KMSN 120800Z 30004KT 10SM CLR M15/M19 A3022 590 72 -3000 300/04 RMK AO2
14837KMSN MSN20031212020509912/12/03 02:05:31  5-MIN KMSN 120805Z 30004KT 10SM FEW110 M15/M19 A3022 590 72 -3000 300/04 RMK AO2
14837KMSN MSN20031212021009912/12/03 02:10:31  5-MIN KMSN 120810Z 29004KT 10SM FEW110 M16/M19 A3022 580 76 -3000 290/04 RMK AO2
14837KMSN MSN20031212021509912/12/03 02:15:31  5-MIN KMSN 120815Z VRB03KT 10SM FEW110 M15/M19 A3023 580 72 -3000 VRB/03 RMK AO2
14837KMSN MSN20031212022009912/12/03 02:20:31  5-MIN KMSN 120820Z 00000KT 10SM FEW110 M16/M19 A3023 580 76 -3100 000/00 RMK AO2
14837KMSN MSN20031212022509912/12/03 02:25:31  5-MIN KMSN 120825Z 00000KT 10SM FEW110 M16/M19 A3023 580 76 -3100 000/00 RMK AO2
14837KMSN MSN20031212023009912/12/03 02:30:31  5-MIN KMSN 120830Z 26004KT 10SM FEW110 M15/M19 A3023 580 72 -3000 260/04 RMK AO2
14837KMSN MSN20031212023509612/12/03 02:35:31  5-MIN KMSN 120835Z 00000KT 10SM CLR M15/M19 A3023 580 72 -3000 000/00 RMK AO2
14837KMSN MSN20031212024009612/12/03 02:40:31  5-MIN KMSN 120840Z 28003KT 10SM CLR M16/M18 A3023 580 79 -3100 280/03 RMK AO2
14837KMSN MSN20031212024509612/12/03 02:45:31  5-MIN KMSN 120845Z 28004KT 10SM CLR M16/M18 A3023 580 79 -3000 280/04 RMK AO2
14837KMSN MSN20031212025011912/12/03 02:50:31  5-MIN KMSN 120850Z 28003KT 10SM CLR M16/M19 A3023 580 76 -3000 280/03 RMK AO2 SLP255 T11561189 51014
14837KMSN MSN20031212025509612/12/03 02:55:31  5-MIN KMSN 120855Z 29005KT 10SM CLR M16/M19 A3023 580 76 -3000 290/05 RMK AO2
14837KMSN MSN20031212030009612/12/03 03:00:31  5-MIN KMSN 120900Z 29005KT 10SM CLR M16/M19 A3023 580 76 -3000 290/05 RMK AO2
14837KMSN MSN20031212030509612/12/03 03:05:31  5-MIN KMSN 120905Z VRB04KT 10SM CLR M16/M19 A3023 580 76 -3100 VRB/04 RMK AO2
14837KMSN MSN20031212031009612/12/03 03:10:31  5-MIN KMSN 120910Z 28004KT 10SM CLR M16/M19 A3023 580 76 -3100 280/04 RMK AO2
14837KMSN MSN20031212031509612/12/03 03:15:31  5-MIN KMSN 120915Z 28004KT 10SM CLR M16/M19 A3023 580 76 -3100 280/04 RMK AO2
14837KMSN MSN20031212032009612/12/03 03:20:31  5-MIN KMSN 120920Z VRB03KT 10SM CLR M16/M18 A3023 580 79 -3100 VRB/03 RMK AO2
14837KMSN MSN20031212032509612/12/03 03:25:31  5-MIN KMSN 120925Z VRB03KT 10SM CLR M16/M19 A3023 580 76 -3100 VRB/03 RMK AO2
14837KMSN MSN20031212033009612/12/03 03:30:31  5-MIN KMSN 120930Z VRB03KT 10SM CLR M16/M18 A3023 580 79 -3100 VRB/03 RMK AO2
14837KMSN MSN20031212033509612/12/03 03:35:31  5-MIN KMSN 120935Z 27004KT 10SM CLR M16/M18 A3023 580 79 -3100 270/04 RMK AO2
14837KMSN MSN20031212034009612/12/03 03:40:31  5-MIN KMSN 120940Z VRB03KT 10SM CLR M16/M19 A3023 580 79 -3100 VRB/03 RMK AO2
14837KMSN MSN20031212034509612/12/03 03:45:31  5-MIN KMSN 120945Z 27003KT 10SM CLR M16/M19 A3023 580 79 -3100 270/03 RMK AO2
14837KMSN MSN20031212035011312/12/03 03:50:31  5-MIN KMSN 120950Z 28004KT 10SM CLR M16/M19 A3023 580 79 -3100 280/04 RMK AO2 SLP258 T11611189
14837KMSN MSN20031212035509612/12/03 03:55:31  5-MIN KMSN 120955Z VRB04KT 10SM CLR M16/M19 A3024 570 79 -3100 VRB/04 RMK AO2
14837KMSN MSN20031212040009612/12/03 04:00:31  5-MIN KMSN 121000Z 28004KT 10SM CLR M16/M19 A3024 570 79 -3100 280/04 RMK AO2
14837KMSN MSN20031212040509612/12/03 04:05:31  5-MIN KMSN 121005Z 28003KT 10SM CLR M16/M19 A3023 570 79 -3100 280/03 RMK AO2
14837KMSN MSN20031212041009612/12/03 04:10:31  5-MIN KMSN 121010Z 29003KT 10SM CLR M16/M19 A3024 570 79 -3100 290/03 RMK AO2
14837KMSN MSN20031212041509612/12/03 04:15:31  5-MIN KMSN 121015Z 28003KT 10SM CLR M16/M19 A3024 570 79 -3100 280/03 RMK AO2
14837KMSN MSN20031212042009612/12/03 04:20:31  5-MIN KMSN 121020Z VRB04KT 10SM CLR M16/M19 A3024 570 79 -3100 VRB/04 RMK AO2
14837KMSN MSN20031212042509612/12/03 04:25:31  5-MIN KMSN 121025Z 27004KT 10SM CLR M16/M19 A3024 570 79 -3100 270/04 RMK AO2
14837KMSN MSN20031212043009612/12/03 04:30:31  5-MIN KMSN 121030Z 27004KT 10SM CLR M16/M19 A3024 570 79 -3100 270/04 RMK AO2
14837KMSN MSN20031212043509612/12/03 04:35:31  5-MIN KMSN 121035Z 27005KT 10SM CLR M17/M19 A3024 570 83 -3200 270/05 RMK AO2
14837KMSN MSN20031212044009612/12/03 04:40:31  5-MIN KMSN 121040Z 28003KT 10SM CLR M17/M19 A3024 570 83 -3200 280/03 RMK AO2
14837KMSN MSN20031212044509612/12/03 04:45:31  5-MIN KMSN 121045Z 27004KT 10SM CLR M17/M19 A3024 570 83 -3200 270/04 RMK AO2
14837KMSN MSN20031212045011312/12/03 04:50:31  5-MIN KMSN 121050Z 28003KT 10SM CLR M17/M19 A3024 570 83 -3200 270/03 RMK AO2 SLP263 T11671189
14837KMSN MSN20031212045509612/12/03 04:55:31  5-MIN KMSN 121055Z 28005KT 10SM CLR M17/M19 A3025 560 83 -3200 280/05 RMK AO2
14837KMSN MSN20031212050009612/12/03 05:00:31  5-MIN KMSN 121100Z 28004KT 10SM CLR M17/M19 A3025 560 79 -3200 280/04 RMK AO2
14837KMSN MSN20031212050509612/12/03 05:05:31  5-MIN KMSN 121105Z 27005KT 10SM CLR M17/M19 A3025 560 79 -3200 270/05 RMK AO2
14837KMSN MSN20031212051009512/12/03 05:10:31  5-MIN KMSN 121110Z VRB04KT 9SM CLR M17/M19 A3025 560 79 -3200 VRB/04 RMK AO2
14837KMSN MSN20031212051509512/12/03 05:15:31  5-MIN KMSN 121115Z 28005KT 9SM CLR M17/M19 A3025 560 79 -3200 280/05 RMK AO2
14837KMSN MSN20031212052009512/12/03 05:20:31  5-MIN KMSN 121120Z 28004KT 9SM CLR M17/M19 A3026 560 83 -3200 280/04 RMK AO2
14837KMSN MSN20031212052509512/12/03 05:25:31  5-MIN KMSN 121125Z 28006KT 9SM CLR M17/M19 A3026 560 79 -3200 280/06 RMK AO2
14837KMSN MSN20031212053009512/12/03 05:30:31  5-MIN KMSN 121130Z 27004KT 9SM CLR M17/M19 A3026 550 79 -3200 270/04 RMK AO2
14837KMSN MSN20031212053509512/12/03 05:35:31  5-MIN KMSN 121135Z 27005KT 9SM CLR M17/M19 A3026 560 79 -3200 270/05 RMK AO2
14837KMSN MSN20031212054009612/12/03 05:40:31  5-MIN KMSN 121140Z 27005KT 10SM CLR M17/M19 A3026 550 79 -3200 270/05 RMK AO2
14837KMSN MSN20031212054509612/12/03 05:45:31  5-MIN KMSN 121145Z 27005KT 10SM CLR M17/M19 A3026 550 79 -3200 270/05 RMK AO2
14837KMSN MSN20031212055013612/12/03 05:50:31  5-MIN KMSN 121150Z 27004KT 9SM CLR M17/M19 A3026 550 79 -3200 270/04 RMK AO2 SLP268 4/002 T11671194 11144 21167 53013
14837KMSN MSN20031212055509512/12/03 05:55:31  5-MIN KMSN 121155Z VRB04KT 9SM CLR M17/M19 A3026 550 79 -3200 VRB/04 RMK AO2
14837KMSN MSN20031212060009512/12/03 06:00:31  5-MIN KMSN 121200Z VRB03KT 9SM CLR M17/M19 A3026 550 79 -3200 VRB/03 RMK AO2
14837KMSN MSN20031212060509512/12/03 06:05:31  5-MIN KMSN 121205Z VRB03KT 9SM CLR M17/M19 A3027 550 79 -3200 VRB/03 RMK AO2
14837KMSN MSN20031212061009512/12/03 06:10:31  5-MIN KMSN 121210Z VRB04KT 9SM CLR M17/M19 A3027 550 79 -3200 VRB/04 RMK AO2
14837KMSN MSN20031212061509512/12/03 06:15:31  5-MIN KMSN 121215Z 28004KT 9SM CLR M17/M19 A3027 540 79 -3200 270/04 RMK AO2
14837KMSN MSN20031212062009512/12/03 06:20:31  5-MIN KMSN 121220Z 28005KT 9SM CLR M17/M19 A3027 540 79 -3200 280/05 RMK AO2
14837KMSN MSN20031212062509512/12/03 06:25:31  5-MIN KMSN 121225Z 28005KT 9SM CLR M17/M19 A3027 540 79 -3200 280/05 RMK AO2
14837KMSN MSN20031212063009512/12/03 06:30:31  5-MIN KMSN 121230Z 28005KT 9SM CLR M17/M19 A3027 540 79 -3300 280/05 RMK AO2
14837KMSN MSN20031212063509512/12/03 06:35:31  5-MIN KMSN 121235Z 28006KT 9SM CLR M17/M19 A3027 540 79 -3300 280/06 RMK AO2
14837KMSN MSN20031212064009512/12/03 06:40:31  5-MIN KMSN 121240Z 27005KT 9SM CLR M17/M19 A3027 540 79 -3300 270/05 RMK AO2
14837KMSN MSN20031212064509512/12/03 06:45:31  5-MIN KMSN 121245Z 27005KT 9SM CLR M17/M19 A3028 540 79 -3300 270/05 RMK AO2
14837KMSN MSN20031212065011212/12/03 06:50:31  5-MIN KMSN 121250Z 27004KT 9SM CLR M17/M19 A3028 530 79 -3300 270/04 RMK AO2 SLP274 T11671194
14837KMSN MSN20031212065509512/12/03 06:55:31  5-MIN KMSN 121255Z 26004KT 9SM CLR M17/M19 A3028 530 79 -3300 260/04 RMK AO2
14837KMSN MSN20031212070009512/12/03 07:00:31  5-MIN KMSN 121300Z 27005KT 9SM CLR M17/M19 A3028 530 83 -3300 270/05 RMK AO2
14837KMSN MSN20031212070509512/12/03 07:05:31  5-MIN KMSN 121305Z 27005KT 9SM CLR M17/M19 A3028 530 83 -3300 270/05 RMK AO2
14837KMSN MSN20031212071009512/12/03 07:10:31  5-MIN KMSN 121310Z 27005KT 9SM CLR M17/M19 A3028 530 83 -3300 270/05 RMK AO2
14837KMSN MSN20031212071509512/12/03 07:15:31  5-MIN KMSN 121315Z 27004KT 8SM CLR M17/M20 A3028 530 79 -3300 270/04 RMK AO2
14837KMSN MSN20031212072009512/12/03 07:20:31  5-MIN KMSN 121320Z 27004KT 8SM CLR M17/M20 A3029 530 79 -3300 270/04 RMK AO2
14837KMSN MSN20031212072509512/12/03 07:25:31  5-MIN KMSN 121325Z VRB04KT 8SM CLR M17/M19 A3029 530 87 -3300 VRB/04 RMK AO2
14837KMSN MSN20031212073009512/12/03 07:30:31  5-MIN KMSN 121330Z 27005KT 7SM CLR M17/M19 A3029 520 83 -3300 270/05 RMK AO2
14837KMSN MSN20031212073509512/12/03 07:35:31  5-MIN KMSN 121335Z 28006KT 7SM CLR M17/M19 A3029 520 83 -3300 280/06 RMK AO2
14837KMSN MSN20031212074009512/12/03 07:40:31  5-MIN KMSN 121340Z 28006KT 7SM CLR M17/M19 A3029 520 79 -3300 280/06 RMK AO2
14837KMSN MSN20031212074509512/12/03 07:45:31  5-MIN KMSN 121345Z 28006KT 7SM CLR M17/M20 A3029 520 79 -3400 280/06 RMK AO2
14837KMSN MSN20031212075011512/12/03 07:50:31  5-MIN KMSN 121350Z VRB04KT 7SM FEW020 M17/M20 A3029 520 76 -3300 VRB/04 RMK AO2 SLP279 T11671200
14837KMSN MSN20031212075509512/12/03 07:55:31  5-MIN KMSN 121355Z 28006KT 7SM CLR M17/M19 A3029 520 79 -3300 270/06 RMK AO2
14837KMSN MSN20031212080009512/12/03 08:00:31  5-MIN KMSN 121400Z 28006KT 7SM CLR M17/M19 A3029 520 79 -3300 280/06 RMK AO2
14837KMSN MSN20031212080509512/12/03 08:05:31  5-MIN KMSN 121405Z 28005KT 8SM CLR M17/M19 A3030 520 79 -3300 280/05 RMK AO2
14837KMSN MSN20031212081009812/12/03 08:10:31  5-MIN KMSN 121410Z 27005KT 6SM HZ CLR M17/M19 A3030 520 79 -3300 270/05 RMK AO2
14837KMSN MSN20031212081509512/12/03 08:15:31  5-MIN KMSN 121415Z 28006KT 7SM CLR M17/M19 A3030 520 79 -3300 270/06 RMK AO2
14837KMSN MSN20031212082009512/12/03 08:20:31  5-MIN KMSN 121420Z 28005KT 7SM CLR M17/M19 A3030 510 79 -3300 280/05 RMK AO2
14837KMSN MSN20031212082509512/12/03 08:25:31  5-MIN KMSN 121425Z 29004KT 7SM CLR M16/M19 A3030 520 76 -3200 290/04 RMK AO2
14837KMSN MSN20031212083009512/12/03 08:30:31  5-MIN KMSN 121430Z 30007KT 7SM CLR M16/M19 A3030 520 76 -3200 300/07 RMK AO2
14837KMSN MSN20031212083509512/12/03 08:35:31  5-MIN KMSN 121435Z 29008KT 7SM CLR M16/M19 A3030 510 76 -3200 290/08 RMK AO2
14837KMSN MSN20031212084009512/12/03 08:40:31  5-MIN KMSN 121440Z 28007KT 7SM CLR M16/M19 A3030 510 79 -3200 280/07 RMK AO2
14837KMSN MSN20031212084509512/12/03 08:45:31  5-MIN KMSN 121445Z 27007KT 7SM CLR M16/M19 A3031 510 79 -3200 270/07 RMK AO2
14837KMSN MSN20031212085011812/12/03 08:50:31  5-MIN KMSN 121450Z 29006KT 9SM CLR M16/M19 A3031 510 76 -3100 290/06 RMK AO2 SLP284 T11561189 53012
14837KMSN MSN20031212085509512/12/03 08:55:31  5-MIN KMSN 121455Z VRB05KT 9SM CLR M16/M19 A3031 510 76 -3100 VRB/05 RMK AO2
14837KMSN MSN20031212090009512/12/03 09:00:31  5-MIN KMSN 121500Z 27004KT 8SM CLR M16/M19 A3031 510 76 -3100 270/04 RMK AO2
14837KMSN MSN20031212090509512/12/03 09:05:31  5-MIN KMSN 121505Z 29004KT 9SM CLR M16/M19 A3031 500 76 -3100 290/04 RMK AO2
14837KMSN MSN20031212091009512/12/03 09:10:31  5-MIN KMSN 121510Z 25005KT 9SM CLR M16/M19 A3031 500 76 -3100 250/05 RMK AO2
14837KMSN MSN20031212091509512/12/03 09:15:31  5-MIN KMSN 121515Z 27004KT 9SM CLR M15/M19 A3032 500 72 -3100 270/04 RMK AO2
14837KMSN MSN20031212092009512/12/03 09:20:31  5-MIN KMSN 121520Z 29003KT 9SM CLR M15/M18 A3032 500 76 -3100 290/03 RMK AO2
14837KMSN MSN20031212092509512/12/03 09:25:31  5-MIN KMSN 121525Z VRB03KT 9SM CLR M15/M18 A3032 500 76 -3100 VRB/03 RMK AO2
14837KMSN MSN20031212093009612/12/03 09:30:31  5-MIN KMSN 121530Z 31005KT 10SM CLR M14/M18 A3032 500 73 -3000 310/05 RMK AO2
14837KMSN MSN20031212093509612/12/03 09:35:31  5-MIN KMSN 121535Z 31005KT 10SM CLR M14/M18 A3032 500 73 -3000 310/05 RMK AO2
14837KMSN MSN20031212094009612/12/03 09:40:31  5-MIN KMSN 121540Z 32005KT 10SM CLR M14/M18 A3032 500 73 -3000 320/05 RMK AO2
14837KMSN MSN20031212094509612/12/03 09:45:31  5-MIN KMSN 121545Z 29005KT 10SM CLR M14/M18 A3032 500 73 -3000 290/05 RMK AO2
14837KMSN MSN20031212095011312/12/03 09:50:31  5-MIN KMSN 121550Z 31005KT 10SM CLR M14/M19 A3032 490 69 -3000 310/05 RMK AO2 SLP289 T11441189
14837KMSN MSN20031212095509612/12/03 09:55:31  5-MIN KMSN 121555Z 31005KT 10SM CLR M14/M18 A3032 490 69 -2900 300/05 RMK AO2
14837KMSN MSN20031212100009612/12/03 10:00:31  5-MIN KMSN 121600Z 28005KT 10SM CLR M14/M18 A3032 490 73 -2900 280/05 RMK AO2
14837KMSN MSN20031212100509612/12/03 10:05:31  5-MIN KMSN 121605Z 29003KT 10SM CLR M14/M18 A3032 500 73 -2900 290/03 RMK AO2
14837KMSN MSN20031212101009612/12/03 10:10:31  5-MIN KMSN 121610Z 30004KT 10SM CLR M13/M18 A3032 500 69 -2900 300/04 RMK AO2
14837KMSN MSN20031212101509612/12/03 10:15:31  5-MIN KMSN 121615Z VRB03KT 10SM CLR M13/M17 A3032 500 73 -2900 VRB/03 RMK AO2
14837KMSN MSN20031212102009612/12/03 10:20:31  5-MIN KMSN 121620Z 30004KT 10SM CLR M13/M17 A3032 500 70 -2800 300/04 RMK AO2
14837KMSN MSN20031212102509612/12/03 10:25:31  5-MIN KMSN 121625Z 30004KT 10SM CLR M13/M17 A3032 500 70 -2800 300/04 RMK AO2
14837KMSN MSN20031212103009612/12/03 10:30:31  5-MIN KMSN 121630Z VRB05KT 10SM CLR M12/M17 A3032 500 70 -2700 VRB/05 RMK AO2
14837KMSN MSN20031212103509612/12/03 10:35:31  5-MIN KMSN 121635Z 32007KT 10SM CLR M12/M17 A3032 500 67 -2600 320/07 RMK AO2
14837KMSN MSN20031212104009612/12/03 10:40:31  5-MIN KMSN 121640Z 30006KT 10SM CLR M12/M18 A3032 500 61 -2700 300/06 RMK AO2
14837KMSN MSN20031212104509612/12/03 10:45:31  5-MIN KMSN 121645Z 32007KT 10SM CLR M12/M18 A3032 500 64 -2700 320/07 RMK AO2
14837KMSN MSN20031212105011312/12/03 10:50:31  5-MIN KMSN 121650Z 31007KT 10SM CLR M12/M18 A3031 500 64 -2700 300/07 RMK AO2 SLP286 T11221178
14837KMSN MSN20031212105509612/12/03 10:55:31  5-MIN KMSN 121655Z 32005KT 10SM CLR M12/M18 A3031 500 64 -2700 320/05 RMK AO2
14837KMSN MSN20031212110009612/12/03 11:00:31  5-MIN KMSN 121700Z 30006KT 10SM CLR M12/M18 A3031 500 61 -2600 300/06 RMK AO2
14837KMSN MSN20031212110509612/12/03 11:05:31  5-MIN KMSN 121705Z 32004KT 10SM CLR M12/M17 A3031 510 64 -2600 320/04 RMK AO2
14837KMSN MSN20031212111009612/12/03 11:10:31  5-MIN KMSN 121710Z VRB03KT 10SM CLR M12/M17 A3031 510 64 -2600 VRB/03 RMK AO2
14837KMSN MSN20031212111509612/12/03 11:15:31  5-MIN KMSN 121715Z 34003KT 10SM CLR M12/M17 A3030 510 67 -2600 340/03 RMK AO2
14837KMSN MSN20031212112009612/12/03 11:20:31  5-MIN KMSN 121720Z VRB04KT 10SM CLR M12/M17 A3030 510 64 -2600 VRB/04 RMK AO2
14837KMSN MSN20031212112509612/12/03 11:25:31  5-MIN KMSN 121725Z 33004KT 10SM CLR M11/M17 A3030 520 64 -2500 330/04 RMK AO2
14837KMSN MSN20031212113009612/12/03 11:30:31  5-MIN KMSN 121730Z 34006KT 10SM CLR M11/M17 A3029 520 64 -2500 340/06 RMK AO2
14837KMSN MSN20031212113509612/12/03 11:35:31  5-MIN KMSN 121735Z 34006KT 10SM CLR M11/M17 A3029 520 64 -2500 340/06 RMK AO2
14837KMSN MSN20031212114009612/12/03 11:40:31  5-MIN KMSN 121740Z 30005KT 10SM CLR M11/M17 A3029 520 64 -2500 300/05 RMK AO2
14837KMSN MSN20031212114509612/12/03 11:45:31  5-MIN KMSN 121745Z VRB04KT 10SM CLR M11/M17 A3030 520 64 -2500 VRB/04 RMK AO2
14837KMSN MSN20031212115013112/12/03 11:50:31  5-MIN KMSN 121750Z VRB05KT 10SM CLR M11/M17 A3029 520 64 -2500 VRB/05 RMK AO2 SLP279 T11111167 11106 21172 52016
14837KMSN MSN20031212115509612/12/03 11:55:31  5-MIN KMSN 121755Z 29004KT 10SM CLR M11/M17 A3029 520 61 -2500 280/04 RMK AO2
14837KMSN MSN20031212120009612/12/03 12:00:31  5-MIN KMSN 121800Z VRB04KT 10SM CLR M11/M17 A3029 520 61 -2500 VRB/04 RMK AO2
14837KMSN MSN20031212120509612/12/03 12:05:31  5-MIN KMSN 121805Z 32005KT 10SM CLR M11/M17 A3029 520 61 -2500 320/05 RMK AO2
14837KMSN MSN20031212121009612/12/03 12:10:31  5-MIN KMSN 121810Z 31005KT 10SM CLR M11/M17 A3029 520 64 -2500 300/05 RMK AO2
14837KMSN MSN20031212121509612/12/03 12:15:31  5-MIN KMSN 121815Z 33004KT 10SM CLR M11/M17 A3029 520 61 -2500 330/04 RMK AO2
14837KMSN MSN20031212122009612/12/03 12:20:31  5-MIN KMSN 121820Z VRB03KT 10SM CLR M11/M17 A3029 520 58 -2500 VRB/03 RMK AO2
14837KMSN MSN20031212122509612/12/03 12:25:31  5-MIN KMSN 121825Z 29005KT 10SM CLR M11/M17 A3029 520 61 -2500 290/05 RMK AO2
14837KMSN MSN20031212123009612/12/03 12:30:31  5-MIN KMSN 121830Z VRB06KT 10SM CLR M11/M17 A3029 520 61 -2500 VRB/06 RMK AO2
14837KMSN MSN20031212123509612/12/03 12:35:31  5-MIN KMSN 121835Z 31006KT 10SM CLR M11/M17 A3029 520 58 -2500 310/06 RMK AO2
14837KMSN MSN20031212124009612/12/03 12:40:31  5-MIN KMSN 121840Z 32004KT 10SM CLR M11/M17 A3028 530 58 -2400 320/04 RMK AO2
14837KMSN MSN20031212124509612/12/03 12:45:31  5-MIN KMSN 121845Z 33005KT 10SM CLR M10/M17 A3028 530 58 -2400 330/05 RMK AO2
14837KMSN MSN20031212125011312/12/03 12:50:31  5-MIN KMSN 121850Z 33006KT 10SM CLR M10/M17 A3028 530 58 -2400 330/06 RMK AO2 SLP274 T11001167
14837KMSN MSN20031212125509612/12/03 12:55:31  5-MIN KMSN 121855Z 35003KT 10SM CLR M10/M17 A3028 530 58 -2400 350/03 RMK AO2
14837KMSN MSN20031212130009612/12/03 13:00:31  5-MIN KMSN 121900Z 30005KT 10SM CLR M10/M17 A3028 530 58 -2400 300/05 RMK AO2
14837KMSN MSN20031212130509612/12/03 13:05:31  5-MIN KMSN 121905Z 30005KT 10SM CLR M10/M17 A3028 530 58 -2400 300/05 RMK AO2
14837KMSN MSN20031212131009612/12/03 13:10:31  5-MIN KMSN 121910Z 29005KT 10SM CLR M10/M17 A3028 530 56 -2400 280/05 RMK AO2
14837KMSN MSN20031212131509612/12/03 13:15:31  5-MIN KMSN 121915Z VRB04KT 10SM CLR M10/M17 A3028 530 58 -2400 VRB/04 RMK AO2
14837KMSN MSN20031212132009612/12/03 13:20:31  5-MIN KMSN 121920Z 31005KT 10SM CLR M10/M17 A3028 530 58 -2400 300/05 RMK AO2
14837KMSN MSN20031212132509612/12/03 13:25:31  5-MIN KMSN 121925Z 31005KT 10SM CLR M09/M17 A3028 530 56 -2300 310/05 RMK AO2
14837KMSN MSN20031212133009612/12/03 13:30:31  5-MIN KMSN 121930Z 27005KT 10SM CLR M09/M18 A3028 530 51 -2300 270/05 RMK AO2
14837KMSN MSN20031212133509612/12/03 13:35:31  5-MIN KMSN 121935Z 32004KT 10SM CLR M09/M16 A3029 530 59 -2300 320/04 RMK AO2
14837KMSN MSN20031212134009612/12/03 13:40:31  5-MIN KMSN 121940Z VRB04KT 10SM CLR M09/M18 A3029 530 51 -2300 VRB/04 RMK AO2
14837KMSN MSN20031212134509612/12/03 13:45:31  5-MIN KMSN 121945Z 32004KT 10SM CLR M09/M17 A3029 530 53 -2300 320/04 RMK AO2
14837KMSN MSN20031212135011312/12/03 13:50:31  5-MIN KMSN 121950Z 32004KT 10SM CLR M09/M17 A3029 530 53 -2300 320/04 RMK AO2 SLP277 T10941172
14837KMSN MSN20031212135509612/12/03 13:55:31  5-MIN KMSN 121955Z 32005KT 10SM CLR M09/M17 A3029 530 54 -2200 320/05 RMK AO2
14837KMSN MSN20031212140009612/12/03 14:00:31  5-MIN KMSN 122000Z VRB03KT 10SM CLR M09/M17 A3029 520 54 -2200 VRB/03 RMK AO2
14837KMSN MSN20031212140509612/12/03 14:05:31  5-MIN KMSN 122005Z 31004KT 10SM CLR M09/M16 A3029 520 56 -2200 310/04 RMK AO2
14837KMSN MSN20031212141009612/12/03 14:10:31  5-MIN KMSN 122010Z 33004KT 10SM CLR M09/M16 A3029 520 56 -2200 330/04 RMK AO2
14837KMSN MSN20031212141509612/12/03 14:15:31  5-MIN KMSN 122015Z 25004KT 10SM CLR M09/M17 A3029 520 54 -2200 250/04 RMK AO2
14837KMSN MSN20031212142009612/12/03 14:20:31  5-MIN KMSN 122020Z 26003KT 10SM CLR M09/M17 A3029 520 54 -2200 260/03 RMK AO2
14837KMSN MSN20031212142509612/12/03 14:25:31  5-MIN KMSN 122025Z 28004KT 10SM CLR M09/M17 A3029 520 54 -2200 270/04 RMK AO2
14837KMSN MSN20031212143009612/12/03 14:30:31  5-MIN KMSN 122030Z 27003KT 10SM CLR M09/M17 A3029 520 54 -2200 270/03 RMK AO2
14837KMSN MSN20031212143509612/12/03 14:35:31  5-MIN KMSN 122035Z 00000KT 10SM CLR M09/M17 A3029 520 54 -2200 000/00 RMK AO2
14837KMSN MSN20031212144009612/12/03 14:40:31  5-MIN KMSN 122040Z 25003KT 10SM CLR M09/M17 A3030 520 54 -2200 250/03 RMK AO2
14837KMSN MSN20031212144509612/12/03 14:45:31  5-MIN KMSN 122045Z 26003KT 10SM CLR M09/M17 A3030 510 54 -2200 260/03 RMK AO2
14837KMSN MSN20031212145011912/12/03 14:50:31  5-MIN KMSN 122050Z VRB03KT 10SM CLR M09/M17 A3030 510 54 -2300 VRB/03 RMK AO2 SLP282 T10891167 58005
14837KMSN MSN20031212145509612/12/03 14:55:31  5-MIN KMSN 122055Z 21004KT 10SM CLR M09/M17 A3030 510 54 -2300 210/04 RMK AO2
14837KMSN MSN20031212150009612/12/03 15:00:31  5-MIN KMSN 122100Z 00000KT 10SM CLR M09/M16 A3031 510 56 -2300 000/00 RMK AO2
14837KMSN MSN20031212150509612/12/03 15:05:31  5-MIN KMSN 122105Z 00000KT 10SM CLR M09/M16 A3031 510 59 -2300 000/00 RMK AO2
14837KMSN MSN20031212151009612/12/03 15:10:31  5-MIN KMSN 122110Z VRB03KT 10SM CLR M09/M17 A3031 510 54 -2300 VRB/03 RMK AO2
14837KMSN MSN20031212151509612/12/03 15:15:31  5-MIN KMSN 122115Z 00000KT 10SM CLR M09/M17 A3031 500 54 -2300 000/00 RMK AO2
14837KMSN MSN20031212152009612/12/03 15:20:31  5-MIN KMSN 122120Z 29003KT 10SM CLR M09/M17 A3031 500 54 -2300 280/03 RMK AO2
14837KMSN MSN20031212152509612/12/03 15:25:31  5-MIN KMSN 122125Z 00000KT 10SM CLR M09/M17 A3031 500 51 -2300 000/00 RMK AO2
14837KMSN MSN20031212153009612/12/03 15:30:31  5-MIN KMSN 122130Z 00000KT 10SM CLR M09/M17 A3031 500 54 -2300 000/00 RMK AO2
14837KMSN MSN20031212153509612/12/03 15:35:31  5-MIN KMSN 122135Z 00000KT 10SM CLR M09/M17 A3031 500 54 -2300 000/00 RMK AO2
14837KMSN MSN20031212154009612/12/03 15:40:31  5-MIN KMSN 122140Z 00000KT 10SM CLR M08/M17 A3032 500 51 -2200 000/00 RMK AO2
14837KMSN MSN20031212154509612/12/03 15:45:31  5-MIN KMSN 122145Z 32003KT 10SM CLR M08/M17 A3031 500 51 -2200 320/03 RMK AO2
14837KMSN MSN20031212155011312/12/03 15:50:31  5-MIN KMSN 122150Z 33003KT 10SM CLR M09/M16 A3032 500 56 -2300 330/03 RMK AO2 SLP286 T10891161
14837KMSN MSN20031212155509612/12/03 15:55:31  5-MIN KMSN 122155Z 31003KT 10SM CLR M09/M17 A3032 500 54 -2300 310/03 RMK AO2
14837KMSN MSN20031212160009612/12/03 16:00:31  5-MIN KMSN 122200Z 32003KT 10SM CLR M09/M17 A3032 500 54 -2300 320/03 RMK AO2
14837KMSN MSN20031212160509612/12/03 16:05:31  5-MIN KMSN 122205Z 32003KT 10SM CLR M09/M17 A3032 490 56 -2300 320/03 RMK AO2
14837KMSN MSN20031212161009612/12/03 16:10:31  5-MIN KMSN 122210Z 33004KT 10SM CLR M09/M16 A3032 490 59 -2300 330/04 RMK AO2
14837KMSN MSN20031212161509612/12/03 16:15:31  5-MIN KMSN 122215Z 34004KT 10SM CLR M09/M16 A3032 500 59 -2300 340/04 RMK AO2
14837KMSN MSN20031212162009612/12/03 16:20:31  5-MIN KMSN 122220Z 00000KT 10SM CLR M09/M16 A3032 500 59 -2300 000/00 RMK AO2
14837KMSN MSN20031212162509612/12/03 16:25:31  5-MIN KMSN 122225Z 33003KT 10SM CLR M09/M16 A3032 500 59 -2300 330/03 RMK AO2
14837KMSN MSN20031212163009612/12/03 16:30:31  5-MIN KMSN 122230Z 00000KT 10SM CLR M09/M16 A3032 500 61 -2300 000/00 RMK AO2
14837KMSN MSN20031212163509612/12/03 16:35:31  5-MIN KMSN 122235Z 00000KT 10SM CLR M10/M15 A3032 500 67 -2400 000/00 RMK AO2
14837KMSN MSN20031212164009612/12/03 16:40:31  5-MIN KMSN 122240Z 00000KT 10SM CLR M10/M15 A3032 500 67 -2400 000/00 RMK AO2
14837KMSN MSN20031212164509612/12/03 16:45:31  5-MIN KMSN 122245Z 00000KT 10SM CLR M11/M14 A3032 500 73 -2500 000/00 RMK AO2
14837KMSN MSN20031212165011312/12/03 16:50:31  5-MIN KMSN 122250Z 00000KT 10SM CLR M11/M15 A3032 500 70 -2500 000/00 RMK AO2 SLP289 T11061150
14837KMSN MSN20031212165509612/12/03 16:55:31  5-MIN KMSN 122255Z 32003KT 10SM CLR M11/M15 A3032 500 70 -2500 320/03 RMK AO2
14837KMSN MSN20031212170009612/12/03 17:00:31  5-MIN KMSN 122300Z 00000KT 10SM CLR M11/M15 A3032 500 70 -2500 000/00 RMK AO2
14837KMSN MSN20031212170509612/12/03 17:05:31  5-MIN KMSN 122305Z 00000KT 10SM CLR M11/M14 A3032 500 77 -2600 000/00 RMK AO2
14837KMSN MSN20031212171009612/12/03 17:10:31  5-MIN KMSN 122310Z 00000KT 10SM CLR M12/M15 A3032 500 76 -2600 000/00 RMK AO2
14837KMSN MSN20031212171509612/12/03 17:15:31  5-MIN KMSN 122315Z 36003KT 10SM CLR M12/M14 A3032 500 80 -2600 360/03 RMK AO2
14837KMSN MSN20031212172009612/12/03 17:20:31  5-MIN KMSN 122320Z 36004KT 10SM CLR M12/M14 A3032 500 80 -2600 360/04 RMK AO2
14837KMSN MSN20031212172509612/12/03 17:25:31  5-MIN KMSN 122325Z 36003KT 10SM CLR M11/M14 A3032 500 77 -2600 360/03 RMK AO2
14837KMSN MSN20031212173009612/12/03 17:30:31  5-MIN KMSN 122330Z 36003KT 10SM CLR M11/M15 A3032 500 73 -2600 360/03 RMK AO2
14837KMSN MSN20031212173509612/12/03 17:35:31  5-MIN KMSN 122335Z 36003KT 10SM CLR M11/M15 A3032 500 73 -2600 360/03 RMK AO2
14837KMSN MSN20031212174009612/12/03 17:40:31  5-MIN KMSN 122340Z 00000KT 10SM CLR M12/M16 A3032 500 76 -2700 000/00 RMK AO2
14837KMSN MSN20031212174509612/12/03 17:45:31  5-MIN KMSN 122345Z 00000KT 10SM CLR M12/M15 A3032 500 80 -2700 000/00 RMK AO2
14837KMSN MSN20031212175013712/12/03 17:50:31  5-MIN KMSN 122350Z 00000KT 10SM CLR M12/M15 A3032 500 76 -2600 000/00 RMK AO2 SLP288 4/002 T11171150 11083 21122 53003
14837KMSN MSN20031212175509612/12/03 17:55:31  5-MIN KMSN 122355Z 00000KT 10SM CLR M12/M15 A3032 500 80 -2700 000/00 RMK AO2
14837KMSN MSN20031212180009612/12/03 18:00:31  5-MIN KMSN 130000Z 00000KT 10SM CLR M12/M15 A3032 500 80 -2700 000/00 RMK AO2
14837KMSN MSN20031212180509612/12/03 18:05:31  5-MIN KMSN 130005Z 00000KT 10SM CLR M12/M16 A3032 500 76 -2700 000/00 RMK AO2
14837KMSN MSN20031212181009612/12/03 18:10:31  5-MIN KMSN 130010Z 00000KT 10SM CLR M12/M15 A3032 500 80 -2700 000/00 RMK AO2
14837KMSN MSN20031212181509612/12/03 18:15:31  5-MIN KMSN 130015Z 00000KT 10SM CLR M12/M15 A3032 500 80 -2700 000/00 RMK AO2
14837KMSN MSN20031212182009612/12/03 18:20:31  5-MIN KMSN 130020Z 00000KT 10SM CLR M12/M15 A3032 500 80 -2700 000/00 RMK AO2
14837KMSN MSN20031212182509612/12/03 18:25:31  5-MIN KMSN 130025Z 00000KT 10SM CLR M12/M15 A3032 500 80 -2700 000/00 RMK AO2
14837KMSN MSN20031212183009612/12/03 18:30:31  5-MIN KMSN 130030Z 00000KT 10SM CLR M13/M15 A3032 500 84 -2800 000/00 RMK AO2
14837KMSN MSN20031212183509612/12/03 18:35:31  5-MIN KMSN 130035Z 00000KT 10SM CLR M12/M15 A3032 500 80 -2700 000/00 RMK AO2
14837KMSN MSN20031212184009612/12/03 18:40:31  5-MIN KMSN 130040Z 00000KT 10SM CLR M12/M14 A3032 500 84 -2700 000/00 RMK AO2
14837KMSN MSN20031212184509612/12/03 18:45:31  5-MIN KMSN 130045Z 00000KT 10SM CLR M12/M14 A3032 500 84 -2700 000/00 RMK AO2
14837KMSN MSN20031212185011312/12/03 18:50:31  5-MIN KMSN 130050Z 00000KT 10SM CLR M12/M15 A3032 500 80 -2700 000/00 RMK AO2 SLP288 T11221150
14837KMSN MSN20031212185509612/12/03 18:55:31  5-MIN KMSN 130055Z 00000KT 10SM CLR M12/M15 A3032 500 80 -2700 000/00 RMK AO2
14837KMSN MSN20031212190009612/12/03 19:00:31  5-MIN KMSN 130100Z 00000KT 10SM CLR M13/M15 A3032 500 84 -2800 000/00 RMK AO2
14837KMSN MSN20031212190509612/12/03 19:05:31  5-MIN KMSN 130105Z 00000KT 10SM CLR M13/M14 A3032 500 91 -2800 000/00 RMK AO2
14837KMSN MSN20031212191009612/12/03 19:10:31  5-MIN KMSN 130110Z 00000KT 10SM CLR M13/M14 A3031 500 87 -2800 000/00 RMK AO2
14837KMSN MSN20031212191509612/12/03 19:15:31  5-MIN KMSN 130115Z 00000KT 10SM CLR M13/M15 A3031 500 84 -2800 000/00 RMK AO2
14837KMSN MSN20031212192009612/12/03 19:20:31  5-MIN KMSN 130120Z 00000KT 10SM CLR M13/M15 A3031 500 84 -2800 000/00 RMK AO2
14837KMSN MSN20031212192509612/12/03 19:25:31  5-MIN KMSN 130125Z 00000KT 10SM CLR M13/M16 A3031 500 80 -2800 000/00 RMK AO2
14837KMSN MSN20031212193009612/12/03 19:30:31  5-MIN KMSN 130130Z 00000KT 10SM CLR M13/M16 A3031 510 83 -2800 000/00 RMK AO2
14837KMSN MSN20031212193509612/12/03 19:35:31  5-MIN KMSN 130135Z 00000KT 10SM CLR M13/M15 A3031 510 84 -2800 000/00 RMK AO2
14837KMSN MSN20031212194009612/12/03 19:40:31  5-MIN KMSN 130140Z 00000KT 10SM CLR M13/M15 A3031 510 87 -2800 000/00 RMK AO2
14837KMSN MSN20031212194509612/12/03 19:45:31  5-MIN KMSN 130145Z 00000KT 10SM CLR M13/M15 A3031 510 87 -2800 000/00 RMK AO2
14837KMSN MSN20031212195011312/12/03 19:50:31  5-MIN KMSN 130150Z 00000KT 10SM CLR M13/M14 A3031 510 87 -2800 000/00 RMK AO2 SLP284 T11281144
14837KMSN MSN20031212195509612/12/03 19:55:31  5-MIN KMSN 130155Z 00000KT 10SM CLR M13/M15 A3031 510 87 -2800 000/00 RMK AO2
14837KMSN MSN20031212200009612/12/03 20:00:31  5-MIN KMSN 130200Z 00000KT 10SM CLR M13/M16 A3031 510 83 -2800 000/00 RMK AO2
14837KMSN MSN20031212200509612/12/03 20:05:31  5-MIN KMSN 130205Z 00000KT 10SM CLR M14/M16 A3031 510 87 -2900 000/00 RMK AO2
14837KMSN MSN20031212201009612/12/03 20:10:31  5-MIN KMSN 130210Z 00000KT 10SM CLR M14/M16 A3031 500 87 -2900 000/00 RMK AO2
14837KMSN MSN20031212201509612/12/03 20:15:31  5-MIN KMSN 130215Z 00000KT 10SM CLR M14/M15 A3031 510 91 -2900 000/00 RMK AO2
14837KMSN MSN20031212202009612/12/03 20:20:31  5-MIN KMSN 130220Z 00000KT 10SM CLR M13/M16 A3031 510 83 -2800 000/00 RMK AO2
14837KMSN MSN20031212202509612/12/03 20:25:31  5-MIN KMSN 130225Z 00000KT 10SM CLR M13/M16 A3031 510 83 -2800 000/00 RMK AO2
14837KMSN MSN20031212203009612/12/03 20:30:31  5-MIN KMSN 130230Z 00000KT 10SM CLR M13/M16 A3031 510 83 -2800 000/00 RMK AO2
14837KMSN MSN20031212203509512/12/03 20:35:31  5-MIN KMSN 130235Z 00000KT 9SM CLR M14/M15 A3031 510 91 -2900 000/00 RMK AO2
14837KMSN MSN20031212204009612/12/03 20:40:31  5-MIN KMSN 130240Z 00000KT 10SM CLR M14/M15 A3031 510 91 -2900 000/00 RMK AO2
14837KMSN MSN20031212204509612/12/03 20:45:31  5-MIN KMSN 130245Z 00000KT 10SM CLR M13/M16 A3031 510 83 -2800 000/00 RMK AO2
14837KMSN MSN20031212205011912/12/03 20:50:31  5-MIN KMSN 130250Z 00000KT 10SM CLR M14/M16 A3031 510 87 -2900 000/00 RMK AO2 SLP284 T11391156 50005
14837KMSN MSN20031212205509612/12/03 20:55:31  5-MIN KMSN 130255Z 00000KT 10SM CLR M14/M16 A3031 510 87 -2900 000/00 RMK AO2
14837KMSN MSN20031212210009612/12/03 21:00:31  5-MIN KMSN 130300Z 00000KT 10SM CLR M14/M16 A3031 510 87 -2900 000/00 RMK AO2
14837KMSN MSN20031212210509612/12/03 21:05:31  5-MIN KMSN 130305Z 00000KT 10SM CLR M14/M16 A3031 510 87 -2900 000/00 RMK AO2
14837KMSN MSN20031212211009612/12/03 21:10:31  5-MIN KMSN 130310Z 00000KT 10SM CLR M14/M16 A3031 510 87 -2900 000/00 RMK AO2
14837KMSN MSN20031212211509512/12/03 21:15:31  5-MIN KMSN 130315Z 00000KT 9SM CLR M14/M16 A3031 510 87 -2900 000/00 RMK AO2
14837KMSN MSN20031212212009512/12/03 21:20:31  5-MIN KMSN 130320Z 00000KT 9SM CLR M14/M16 A3031 510 91 -3000 000/00 RMK AO2
14837KMSN MSN20031212212509512/12/03 21:25:31  5-MIN KMSN 130325Z 00000KT 9SM CLR M14/M16 A3031 510 87 -2900 000/00 RMK AO2
14837KMSN MSN20031212213009512/12/03 21:30:31  5-MIN KMSN 130330Z 00000KT 8SM CLR M14/M15 A3031 500 91 -2900 000/00 RMK AO2
14837KMSN MSN20031212213509512/12/03 21:35:31  5-MIN KMSN 130335Z 00000KT 8SM CLR M14/M15 A3032 500 91 -2900 000/00 RMK AO2
14837KMSN MSN20031212214009512/12/03 21:40:31  5-MIN KMSN 130340Z 00000KT 8SM CLR M14/M16 A3032 500 87 -2900 000/00 RMK AO2
14837KMSN MSN20031212214509512/12/03 21:45:31  5-MIN KMSN 130345Z 00000KT 9SM CLR M13/M16 A3033 490 83 -2900 000/00 RMK AO2
14837KMSN MSN20031212215011212/12/03 21:50:31  5-MIN KMSN 130350Z 00000KT 9SM CLR M13/M15 A3033 490 87 -2900 000/00 RMK AO2 SLP291 T11331150
14837KMSN MSN20031212215509512/12/03 21:55:31  5-MIN KMSN 130355Z 00000KT 9SM CLR M13/M15 A3033 490 87 -2900 000/00 RMK AO2
14837KMSN MSN20031212220009512/12/03 22:00:31  5-MIN KMSN 130400Z 00000KT 9SM CLR M13/M16 A3033 490 83 -2900 000/00 RMK AO2
14837KMSN MSN20031212220509512/12/03 22:05:31  5-MIN KMSN 130405Z 00000KT 9SM CLR M14/M16 A3033 480 87 -2900 000/00 RMK AO2
14837KMSN MSN20031212221009512/12/03 22:10:31  5-MIN KMSN 130410Z 00000KT 9SM CLR M14/M16 A3033 480 87 -2900 000/00 RMK AO2
14837KMSN MSN20031212221509512/12/03 22:15:31  5-MIN KMSN 130415Z 00000KT 9SM CLR M14/M16 A3034 480 87 -3000 000/00 RMK AO2
14837KMSN MSN20031212222009512/12/03 22:20:31  5-MIN KMSN 130420Z 00000KT 9SM CLR M14/M16 A3034 480 87 -3000 000/00 RMK AO2
14837KMSN MSN20031212222509512/12/03 22:25:31  5-MIN KMSN 130425Z 00000KT 9SM CLR M14/M16 A3034 470 87 -3000 000/00 RMK AO2
14837KMSN MSN20031212223009512/12/03 22:30:31  5-MIN KMSN 130430Z 00000KT 8SM CLR M14/M15 A3034 480 91 -3000 000/00 RMK AO2
14837KMSN MSN20031212223509512/12/03 22:35:31  5-MIN KMSN 130435Z 15003KT 8SM CLR M13/M15 A3035 470 87 -2900 150/03 RMK AO2
14837KMSN MSN20031212224009512/12/03 22:40:31  5-MIN KMSN 130440Z 17003KT 9SM CLR M13/M15 A3034 470 87 -2900 170/03 RMK AO2
14837KMSN MSN20031212224509512/12/03 22:45:31  5-MIN KMSN 130445Z 17004KT 9SM CLR M13/M15 A3035 470 87 -2900 170/04 RMK AO2
14837KMSN MSN20031212225011312/12/03 22:50:31  5-MIN KMSN 130450Z 00000KT 10SM CLR M13/M16 A3034 480 83 -2900 000/00 RMK AO2 SLP294 T11331156
14837KMSN MSN20031212225509612/12/03 22:55:31  5-MIN KMSN 130455Z 00000KT 10SM CLR M13/M16 A3034 480 83 -2900 000/00 RMK AO2
14837KMSN MSN20031212230009612/12/03 23:00:31  5-MIN KMSN 130500Z 00000KT 10SM CLR M13/M16 A3034 480 80 -2800 000/00 RMK AO2
14837KMSN MSN20031212230509612/12/03 23:05:31  5-MIN KMSN 130505Z 00000KT 10SM CLR M13/M16 A3034 480 80 -2800 000/00 RMK AO2
14837KMSN MSN20031212231009512/12/03 23:10:31  5-MIN KMSN 130510Z 00000KT 9SM CLR M13/M18 A3034 480 66 -2900 000/00 RMK AO2
14837KMSN MSN20031212231509512/12/03 23:15:31  5-MIN KMSN 130515Z 00000KT 9SM CLR M14/M17 A3034 480 76 -3000 000/00 RMK AO2
14837KMSN MSN20031212232009512/12/03 23:20:31  5-MIN KMSN 130520Z 00000KT 9SM CLR M13/M17 A3034 480 73 -2900 000/00 RMK AO2
14837KMSN MSN20031212232509512/12/03 23:25:31  5-MIN KMSN 130525Z 00000KT 9SM CLR M13/M16 A3034 480 80 -2900 000/00 RMK AO2
14837KMSN MSN20031212233009612/12/03 23:30:31  5-MIN KMSN 130530Z 00000KT 10SM CLR M13/M16 A3034 480 76 -2800 000/00 RMK AO2
14837KMSN MSN20031212233509612/12/03 23:35:31  5-MIN KMSN 130535Z 00000KT 10SM CLR M13/M16 A3034 480 76 -2800 000/00 RMK AO2
14837KMSN MSN20031212234009612/12/03 23:40:31  5-MIN KMSN 130540Z 00000KT 10SM CLR M13/M16 A3035 470 80 -2900 000/00 RMK AO2
14837KMSN MSN20031212234509512/12/03 23:45:31  5-MIN KMSN 130545Z 00000KT 9SM CLR M13/M16 A3034 480 83 -2900 000/00 RMK AO2
14837KMSN MSN20031212235014112/12/03 23:50:31  5-MIN KMSN 130550Z 00000KT 10SM CLR M13/M16 A3034 470 83 -2900 000/00 RMK AO2 SLP295 T11331156 11122 21144 410831172 58004
14837KMSN MSN20031212235509612/12/03 23:55:31  5-MIN KMSN 130555Z 00000KT 10SM CLR M13/M16 A3034 480 83 -2900 000/00 RMK AO2
14837KMSN MSN20031213000009612/13/03 00:00:31  5-MIN KMSN 130600Z 00000KT 10SM CLR M13/M15 A3034 480 84 -2800 000/00 RMK AO2
14837KMSN MSN20031213000509612/13/03 00:05:31  5-MIN KMSN 130605Z 00000KT 10SM CLR M12/M15 A3033 480 80 -2700 000/00 RMK AO2
14837KMSN MSN20031213001009612/13/03 00:10:31  5-MIN KMSN 130610Z 00000KT 10SM CLR M13/M16 A3033 480 80 -2800 000/00 RMK AO2
14837KMSN MSN20031213001509612/13/03 00:15:31  5-MIN KMSN 130615Z 00000KT 10SM CLR M13/M16 A3033 480 80 -2800 000/00 RMK AO2
14837KMSN MSN20031213002009612/13/03 00:20:31  5-MIN KMSN 130620Z 00000KT 10SM CLR M13/M16 A3034 480 80 -2800 000/00 RMK AO2
14837KMSN MSN20031213002509612/13/03 00:25:31  5-MIN KMSN 130625Z 00000KT 10SM CLR M13/M16 A3034 480 80 -2800 000/00 RMK AO2
14837KMSN MSN20031213003009612/13/03 00:30:31  5-MIN KMSN 130630Z 00000KT 10SM CLR M14/M16 A3033 480 87 -2900 000/00 RMK AO2
14837KMSN MSN20031213003509512/13/03 00:35:31  5-MIN KMSN 130635Z 00000KT 9SM CLR M13/M16 A3033 480 83 -2900 000/00 RMK AO2
14837KMSN MSN20031213004009512/13/03 00:40:31  5-MIN KMSN 130640Z 00000KT 9SM CLR M13/M16 A3034 480 83 -2900 000/00 RMK AO2
14837KMSN MSN20031213004509612/13/03 00:45:31  5-MIN KMSN 130645Z 00000KT 10SM CLR M13/M16 A3033 490 83 -2900 000/00 RMK AO2
14837KMSN MSN20031213005011312/13/03 00:50:31  5-MIN KMSN 130650Z 00000KT 10SM CLR M14/M16 A3033 490 87 -2900 000/00 RMK AO2 SLP288 T11391156
14837KMSN MSN20031213005509612/13/03 00:55:31  5-MIN KMSN 130655Z 04003KT 10SM CLR M14/M16 A3033 490 87 -2900 040/03 RMK AO2
14837KMSN MSN20031213010009512/13/03 01:00:31  5-MIN KMSN 130700Z 06003KT 9SM CLR M14/M16 A3032 490 87 -2900 050/03 RMK AO2
14837KMSN MSN20031213010509512/13/03 01:05:31  5-MIN KMSN 130705Z 05003KT 9SM CLR M13/M16 A3032 490 83 -2900 050/03 RMK AO2
14837KMSN MSN20031213011009612/13/03 01:10:31  5-MIN KMSN 130710Z 00000KT 10SM CLR M13/M16 A3032 490 83 -2900 000/00 RMK AO2
14837KMSN MSN20031213011509612/13/03 01:15:31  5-MIN KMSN 130715Z 00000KT 10SM CLR M13/M16 A3033 490 83 -2900 000/00 RMK AO2
14837KMSN MSN20031213012009612/13/03 01:20:31  5-MIN KMSN 130720Z 00000KT 10SM CLR M14/M16 A3033 490 83 -2900 000/00 RMK AO2
14837KMSN MSN20031213012509612/13/03 01:25:31  5-MIN KMSN 130725Z 00000KT 10SM CLR M14/M16 A3033 490 83 -2900 000/00 RMK AO2
14837KMSN MSN20031213013009612/13/03 01:30:31  5-MIN KMSN 130730Z 00000KT 10SM CLR M14/M16 A3032 490 83 -2900 000/00 RMK AO2
14837KMSN MSN20031213013509612/13/03 01:35:31  5-MIN KMSN 130735Z 00000KT 10SM CLR M14/M16 A3033 490 83 -2900 000/00 RMK AO2
14837KMSN MSN20031213014009612/13/03 01:40:31  5-MIN KMSN 130740Z 00000KT 10SM CLR M14/M16 A3033 490 83 -2900 000/00 RMK AO2
14837KMSN MSN20031213014509612/13/03 01:45:31  5-MIN KMSN 130745Z 00000KT 10SM CLR M14/M16 A3032 490 87 -2900 000/00 RMK AO2
14837KMSN MSN20031213015011312/13/03 01:50:31  5-MIN KMSN 130750Z 00000KT 10SM CLR M14/M16 A3032 490 83 -2900 000/00 RMK AO2 SLP288 T11391161
14837KMSN MSN20031213015509612/13/03 01:55:31  5-MIN KMSN 130755Z 00000KT 10SM CLR M14/M16 A3032 490 83 -2900 000/00 RMK AO2
14837KMSN MSN20031213020009612/13/03 02:00:31  5-MIN KMSN 130800Z 00000KT 10SM CLR M14/M16 A3033 490 83 -2900 000/00 RMK AO2
14837KMSN MSN20031213020509612/13/03 02:05:31  5-MIN KMSN 130805Z 00000KT 10SM CLR M14/M16 A3033 490 83 -2900 000/00 RMK AO2
14837KMSN MSN20031213021009612/13/03 02:10:31  5-MIN KMSN 130810Z 00000KT 10SM CLR M14/M16 A3033 490 83 -2900 000/00 RMK AO2
14837KMSN MSN20031213021509512/13/03 02:15:31  5-MIN KMSN 130815Z 00000KT 9SM CLR M14/M16 A3033 490 87 -3000 000/00 RMK AO2
14837KMSN MSN20031213022009512/13/03 02:20:31  5-MIN KMSN 130820Z 00000KT 9SM CLR M14/M16 A3033 490 87 -3000 000/00 RMK AO2
14837KMSN MSN20031213022509612/13/03 02:25:31  5-MIN KMSN 130825Z 00000KT 10SM CLR M14/M16 A3032 490 87 -3000 000/00 RMK AO2
14837KMSN MSN20031213023009512/13/03 02:30:31  5-MIN KMSN 130830Z 00000KT 9SM CLR M14/M16 A3033 490 87 -2900 000/00 RMK AO2
14837KMSN MSN20031213023509512/13/03 02:35:31  5-MIN KMSN 130835Z 00000KT 9SM CLR M14/M16 A3033 490 87 -2900 000/00 RMK AO2
14837KMSN MSN20031213024009512/13/03 02:40:31  5-MIN KMSN 130840Z 00000KT 9SM CLR M14/M16 A3033 490 87 -3000 000/00 RMK AO2
14837KMSN MSN20031213024509512/13/03 02:45:31  5-MIN KMSN 130845Z 00000KT 9SM CLR M14/M16 A3033 490 87 -3000 000/00 RMK AO2
14837KMSN MSN20031213025011812/13/03 02:50:31  5-MIN KMSN 130850Z 00000KT 9SM CLR M14/M16 A3033 490 87 -3000 000/00 RMK AO2 SLP288 T11441161 51012
14837KMSN MSN20031213025509512/13/03 02:55:31  5-MIN KMSN 130855Z 00000KT 9SM CLR M14/M16 A3032 490 87 -3000 000/00 RMK AO2
14837KMSN MSN20031213030009512/13/03 03:00:31  5-MIN KMSN 130900Z 00000KT 9SM CLR M14/M16 A3032 500 87 -3000 000/00 RMK AO2
14837KMSN MSN20031213030509512/13/03 03:05:31  5-MIN KMSN 130905Z 00000KT 9SM CLR M14/M16 A3032 500 87 -3000 000/00 RMK AO2
14837KMSN MSN20031213031009512/13/03 03:10:31  5-MIN KMSN 130910Z 00000KT 9SM CLR M14/M16 A3032 500 91 -3000 000/00 RMK AO2
14837KMSN MSN20031213031509512/13/03 03:15:31  5-MIN KMSN 130915Z 00000KT 9SM CLR M14/M16 A3032 500 87 -2900 000/00 RMK AO2
14837KMSN MSN20031213032009512/13/03 03:20:31  5-MIN KMSN 130920Z 00000KT 9SM CLR M14/M16 A3032 500 87 -2900 000/00 RMK AO2
14837KMSN MSN20031213032509512/13/03 03:25:31  5-MIN KMSN 130925Z 00000KT 9SM CLR M14/M16 A3032 500 83 -2900 000/00 RMK AO2
14837KMSN MSN20031213033009512/13/03 03:30:31  5-MIN KMSN 130930Z 00000KT 8SM CLR M14/M16 A3032 490 87 -3000 000/00 RMK AO2
14837KMSN MSN20031213033509512/13/03 03:35:31  5-MIN KMSN 130935Z 00000KT 8SM CLR M14/M16 A3033 490 87 -3000 000/00 RMK AO2
14837KMSN MSN20031213034009512/13/03 03:40:31  5-MIN KMSN 130940Z 00000KT 9SM CLR M14/M16 A3032 490 91 -3000 000/00 RMK AO2
14837KMSN MSN20031213034509512/13/03 03:45:31  5-MIN KMSN 130945Z 00000KT 9SM CLR M14/M16 A3033 490 87 -3000 000/00 RMK AO2
14837KMSN MSN20031213035011212/13/03 03:50:31  5-MIN KMSN 130950Z 00000KT 9SM CLR M14/M16 A3033 490 87 -3000 000/00 RMK AO2 SLP288 T11441161
14837KMSN MSN20031213035509512/13/03 03:55:31  5-MIN KMSN 130955Z 00000KT 8SM CLR M14/M16 A3033 490 87 -3000 000/00 RMK AO2
14837KMSN MSN20031213040009512/13/03 04:00:31  5-MIN KMSN 131000Z 00000KT 8SM CLR M14/M16 A3033 490 91 -3000 000/00 RMK AO2
14837KMSN MSN20031213040509512/13/03 04:05:31  5-MIN KMSN 131005Z 00000KT 7SM CLR M14/M16 A3033 490 91 -3000 000/00 RMK AO2
14837KMSN MSN20031213041009512/13/03 04:10:31  5-MIN KMSN 131010Z 00000KT 7SM CLR M14/M16 A3033 490 87 -3000 000/00 RMK AO2
14837KMSN MSN20031213041509512/13/03 04:15:31  5-MIN KMSN 131015Z 00000KT 8SM CLR M14/M17 A3033 490 83 -3000 000/00 RMK AO2
14837KMSN MSN20031213042009512/13/03 04:20:31  5-MIN KMSN 131020Z 00000KT 8SM CLR M14/M16 A3033 490 87 -3000 000/00 RMK AO2
14837KMSN MSN20031213042509512/13/03 04:25:31  5-MIN KMSN 131025Z 00000KT 9SM CLR M14/M16 A3033 490 87 -3000 000/00 RMK AO2
14837KMSN MSN20031213043009512/13/03 04:30:31  5-MIN KMSN 131030Z 00000KT 9SM CLR M14/M16 A3033 490 87 -3000 000/00 RMK AO2
14837KMSN MSN20031213043509612/13/03 04:35:31  5-MIN KMSN 131035Z 00000KT 10SM CLR M14/M16 A3033 490 83 -2900 000/00 RMK AO2
14837KMSN MSN20031213044009612/13/03 04:40:31  5-MIN KMSN 131040Z 00000KT 10SM CLR M14/M16 A3033 490 87 -3000 000/00 RMK AO2
14837KMSN MSN20031213044509512/13/03 04:45:31  5-MIN KMSN 131045Z 00000KT 9SM CLR M14/M16 A3033 490 87 -3000 000/00 RMK AO2
14837KMSN MSN20031213045011212/13/03 04:50:31  5-MIN KMSN 131050Z 00000KT 9SM CLR M14/M16 A3033 490 87 -3000 000/00 RMK AO2 SLP289 T11441161
14837KMSN MSN20031213045509512/13/03 04:55:31  5-MIN KMSN 131055Z 00000KT 9SM CLR M14/M16 A3032 490 87 -2900 000/00 RMK AO2
14837KMSN MSN20031213050009512/13/03 05:00:31  5-MIN KMSN 131100Z 00000KT 9SM CLR M14/M16 A3032 500 87 -3000 000/00 RMK AO2
14837KMSN MSN20031213050509512/13/03 05:05:31  5-MIN KMSN 131105Z 00000KT 9SM CLR M15/M17 A3032 490 87 -3100 000/00 RMK AO2
14837KMSN MSN20031213051009512/13/03 05:10:31  5-MIN KMSN 131110Z 00000KT 9SM CLR M15/M17 A3032 500 87 -3100 000/00 RMK AO2
14837KMSN MSN20031213051509612/13/03 05:15:31  5-MIN KMSN 131115Z 00000KT 10SM CLR M14/M17 A3032 500 83 -3000 000/00 RMK AO2
14837KMSN MSN20031213052009612/13/03 05:20:31  5-MIN KMSN 131120Z 00000KT 10SM CLR M14/M17 A3032 500 83 -3000 000/00 RMK AO2
14837KMSN MSN20031213052509512/13/03 05:25:31  5-MIN KMSN 131125Z 00000KT 9SM CLR M14/M17 A3032 500 83 -3000 000/00 RMK AO2
14837KMSN MSN20031213053009512/13/03 05:30:31  5-MIN KMSN 131130Z 00000KT 9SM CLR M14/M16 A3032 500 87 -3000 000/00 RMK AO2
14837KMSN MSN20031213053509512/13/03 05:35:31  5-MIN KMSN 131135Z 00000KT 9SM CLR M14/M16 A3032 500 87 -3000 000/00 RMK AO2
14837KMSN MSN20031213054009512/13/03 05:40:31  5-MIN KMSN 131140Z 00000KT 9SM CLR M14/M17 A3032 500 83 -3000 000/00 RMK AO2
14837KMSN MSN20031213054509512/13/03 05:45:31  5-MIN KMSN 131145Z 00000KT 9SM CLR M15/M17 A3032 500 87 -3100 000/00 RMK AO2
14837KMSN MSN20031213055013012/13/03 05:50:31  5-MIN KMSN 131150Z 00000KT 9SM CLR M14/M17 A3032 500 83 -3000 000/00 RMK AO2 SLP286 T11441167 11122 21150 55006
14837KMSN MSN20031213055509512/13/03 05:55:31  5-MIN KMSN 131155Z 00000KT 9SM CLR M14/M16 A3032 500 87 -3000 000/00 RMK AO2
14837KMSN MSN20031213060009512/13/03 06:00:31  5-MIN KMSN 131200Z 00000KT 9SM CLR M14/M16 A3031 500 87 -3000 000/00 RMK AO2
14837KMSN MSN20031213060509512/13/03 06:05:31  5-MIN KMSN 131205Z 00000KT 9SM CLR M15/M17 A3031 500 87 -3100 000/00 RMK AO2
14837KMSN MSN20031213061009512/13/03 06:10:31  5-MIN KMSN 131210Z 00000KT 9SM CLR M14/M17 A3031 500 83 -3000 000/00 RMK AO2
14837KMSN MSN20031213061509512/13/03 06:15:31  5-MIN KMSN 131215Z 00000KT 9SM CLR M15/M17 A3031 510 87 -3100 000/00 RMK AO2
14837KMSN MSN20031213062009512/13/03 06:20:31  5-MIN KMSN 131220Z 00000KT 9SM CLR M15/M17 A3031 500 87 -3100 000/00 RMK AO2
14837KMSN MSN20031213062509512/13/03 06:25:31  5-MIN KMSN 131225Z 00000KT 9SM CLR M14/M17 A3031 510 83 -3000 000/00 RMK AO2
14837KMSN MSN20031213063009512/13/03 06:30:31  5-MIN KMSN 131230Z 00000KT 9SM CLR M14/M16 A3031 510 87 -3000 000/00 RMK AO2
14837KMSN MSN20031213063509512/13/03 06:35:31  5-MIN KMSN 131235Z 00000KT 9SM CLR M14/M16 A3031 510 87 -3000 000/00 RMK AO2
14837KMSN MSN20031213064009512/13/03 06:40:31  5-MIN KMSN 131240Z 00000KT 9SM CLR M14/M16 A3031 510 83 -2900 000/00 RMK AO2
14837KMSN MSN20031213064509512/13/03 06:45:31  5-MIN KMSN 131245Z 00000KT 9SM CLR M14/M16 A3031 510 87 -3000 000/00 RMK AO2
14837KMSN MSN20031213065011312/13/03 06:50:31  5-MIN KMSN 131250Z 00000KT 10SM CLR M14/M17 A3031 510 83 -3000 000/00 RMK AO2 SLP284 T11441167
14837KMSN MSN20031213065509612/13/03 06:55:31  5-MIN KMSN 131255Z 00000KT 10SM CLR M14/M16 A3030 510 87 -3000 000/00 RMK AO2
14837KMSN MSN20031213070009612/13/03 07:00:31  5-MIN KMSN 131300Z 00000KT 10SM CLR M14/M16 A3030 510 87 -3000 000/00 RMK AO2
14837KMSN MSN20031213070509612/13/03 07:05:31  5-MIN KMSN 131305Z 00000KT 10SM CLR M14/M17 A3031 510 83 -3000 000/00 RMK AO2
14837KMSN MSN20031213071009512/13/03 07:10:31  5-MIN KMSN 131310Z 15003KT 9SM CLR M14/M16 A3031 510 91 -3000 150/03 RMK AO2
14837KMSN MSN20031213071509512/13/03 07:15:31  5-MIN KMSN 131315Z 14003KT 9SM CLR M14/M16 A3031 510 87 -3000 140/03 RMK AO2
14837KMSN MSN20031213072009512/13/03 07:20:31  5-MIN KMSN 131320Z 15003KT 9SM CLR M15/M17 A3031 510 87 -3100 150/03 RMK AO2
14837KMSN MSN20031213072509512/13/03 07:25:31  5-MIN KMSN 131325Z VRB03KT 8SM CLR M15/M17 A3030 510 83 -3100 VRB/03 RMK AO2
14837KMSN MSN20031213073009512/13/03 07:30:31  5-MIN KMSN 131330Z 17005KT 8SM CLR M14/M17 A3031 510 83 -3000 170/05 RMK AO2
14837KMSN MSN20031213073509512/13/03 07:35:31  5-MIN KMSN 131335Z 17004KT 8SM CLR M12/M14 A3031 510 87 -2700 170/04 RMK AO2
14837KMSN MSN20031213074009512/13/03 07:40:31  5-MIN KMSN 131340Z 17006KT 8SM CLR M12/M14 A3031 510 84 -2700 170/06 RMK AO2
14837KMSN MSN20031213074509512/13/03 07:45:31  5-MIN KMSN 131345Z 17004KT 8SM CLR M13/M14 A3031 500 91 -2800 170/04 RMK AO2
14837KMSN MSN20031213075011212/13/03 07:50:31  5-MIN KMSN 131350Z 17006KT 8SM CLR M13/M16 A3031 500 83 -2900 160/06 RMK AO2 SLP285 T11331156
14837KMSN MSN20031213075509512/13/03 07:55:31  5-MIN KMSN 131355Z 16006KT 8SM CLR M12/M14 A3031 500 84 -2700 160/06 RMK AO2
14837KMSN MSN20031213080009512/13/03 08:00:31  5-MIN KMSN 131400Z 17006KT 8SM CLR M12/M14 A3032 500 84 -2700 160/06 RMK AO2
14837KMSN MSN20031213080509512/13/03 08:05:31  5-MIN KMSN 131405Z 17005KT 8SM CLR M12/M14 A3032 500 84 -2600 170/05 RMK AO2
14837KMSN MSN20031213081009512/13/03 08:10:31  5-MIN KMSN 131410Z 17005KT 8SM CLR M12/M15 A3032 500 76 -2600 170/05 RMK AO2
14837KMSN MSN20031213081509512/13/03 08:15:31  5-MIN KMSN 131415Z 17004KT 8SM CLR M11/M14 A3032 500 80 -2600 170/04 RMK AO2
14837KMSN MSN20031213082009512/13/03 08:20:31  5-MIN KMSN 131420Z 16005KT 7SM CLR M11/M14 A3032 500 80 -2600 160/05 RMK AO2
14837KMSN MSN20031213082509512/13/03 08:25:31  5-MIN KMSN 131425Z 16006KT 7SM CLR M11/M14 A3032 500 77 -2600 160/06 RMK AO2
14837KMSN MSN20031213083009612/13/03 08:30:31  5-MIN KMSN 131430Z 16005KT 10SM CLR M11/M14 A3032 500 80 -2600 160/05 RMK AO2
14837KMSN MSN20031213083509612/13/03 08:35:31  5-MIN KMSN 131435Z 17006KT 10SM CLR M11/M14 A3032 500 77 -2500 160/06 RMK AO2
14837KMSN MSN20031213084009612/13/03 08:40:31  5-MIN KMSN 131440Z 17004KT 10SM CLR M11/M13 A3032 500 84 -2500 170/04 RMK AO2
14837KMSN MSN20031213084509612/13/03 08:45:31  5-MIN KMSN 131445Z 16006KT 10SM CLR M11/M14 A3032 500 77 -2500 160/06 RMK AO2
14837KMSN MSN20031213085011912/13/03 08:50:31  5-MIN KMSN 131450Z 16006KT 10SM CLR M11/M14 A3032 500 77 -2500 160/06 RMK AO2 SLP287 T11061139 58003
14837KMSN MSN20031213085509512/13/03 08:55:31  5-MIN KMSN 131455Z 16005KT 8SM CLR M11/M14 A3032 500 73 -2500 160/05 RMK AO2
14837KMSN MSN20031213090009512/13/03 09:00:31  5-MIN KMSN 131500Z 16004KT 8SM CLR M10/M14 A3031 500 70 -2400 160/04 RMK AO2
14837KMSN MSN20031213090509512/13/03 09:05:31  5-MIN KMSN 131505Z 16004KT 8SM CLR M10/M14 A3031 500 73 -2400 160/04 RMK AO2
14837KMSN MSN20031213091009512/13/03 09:10:31  5-MIN KMSN 131510Z 15003KT 8SM CLR M10/M13 A3031 510 77 -2400 150/03 RMK AO2
14837KMSN MSN20031213091509512/13/03 09:15:31  5-MIN KMSN 131515Z 14003KT 8SM CLR M10/M13 A3031 510 77 -2400 140/03 RMK AO2
14837KMSN MSN20031213092009512/13/03 09:20:31  5-MIN KMSN 131520Z 15004KT 8SM CLR M09/M13 A3031 510 73 -2300 150/04 RMK AO2
14837KMSN MSN20031213092509512/13/03 09:25:31  5-MIN KMSN 131525Z 15005KT 8SM CLR M09/M13 A3031 510 73 -2300 150/05 RMK AO2
14837KMSN MSN20031213093009512/13/03 09:30:31  5-MIN KMSN 131530Z 15005KT 9SM CLR M09/M13 A3031 510 74 -2300 150/05 RMK AO2
14837KMSN MSN20031213093509512/13/03 09:35:31  5-MIN KMSN 131535Z 15005KT 9SM CLR M09/M12 A3031 510 77 -2300 150/05 RMK AO2
14837KMSN MSN20031213094009512/13/03 09:40:31  5-MIN KMSN 131540Z 15006KT 8SM CLR M09/M13 A3031 510 74 -2300 150/06 RMK AO2
14837KMSN MSN20031213094509512/13/03 09:45:31  5-MIN KMSN 131545Z 16006KT 8SM CLR M08/M13 A3030 510 70 -2200 160/06 RMK AO2
14837KMSN MSN20031213095011312/13/03 09:50:31  5-MIN KMSN 131550Z 15005KT 10SM CLR M08/M13 A3030 510 70 -2200 150/05 RMK AO2 SLP280 T10831128
14837KMSN MSN20031213095509512/13/03 09:55:31  5-MIN KMSN 131555Z 16005KT 8SM CLR M08/M12 A3030 510 74 -2200 160/05 RMK AO2
14837KMSN MSN20031213100009512/13/03 10:00:31  5-MIN KMSN 131600Z 15007KT 8SM CLR M08/M12 A3030 510 77 -2200 150/07 RMK AO2
14837KMSN MSN20031213100509512/13/03 10:05:31  5-MIN KMSN 131605Z 15007KT 8SM CLR M08/M12 A3030 520 77 -2200 150/07 RMK AO2
14837KMSN MSN20031213101009512/13/03 10:10:31  5-MIN KMSN 131610Z 15005KT 8SM CLR M08/M12 A3030 520 74 -2100 150/05 RMK AO2
14837KMSN MSN20031213101509512/13/03 10:15:31  5-MIN KMSN 131615Z 15007KT 9SM CLR M08/M12 A3030 520 74 -2100 150/07 RMK AO2
14837KMSN MSN20031213102009512/13/03 10:20:31  5-MIN KMSN 131620Z 15007KT 9SM CLR M08/M12 A3029 520 74 -2100 150/07 RMK AO2
14837KMSN MSN20031213102509512/13/03 10:25:31  5-MIN KMSN 131625Z 15008KT 9SM CLR M08/M11 A3029 520 80 -2100 150/08 RMK AO2
14837KMSN MSN20031213103009512/13/03 10:30:31  5-MIN KMSN 131630Z 15007KT 9SM CLR M07/M12 A3029 520 71 -2000 150/07 RMK AO2
14837KMSN MSN20031213103509512/13/03 10:35:31  5-MIN KMSN 131635Z 15007KT 8SM CLR M07/M12 A3029 520 71 -2000 150/07 RMK AO2
14837KMSN MSN20031213104009512/13/03 10:40:31  5-MIN KMSN 131640Z 15009KT 8SM CLR M07/M11 A3029 530 74 -2000 150/09 RMK AO2
14837KMSN MSN20031213104509512/13/03 10:45:31  5-MIN KMSN 131645Z 16009KT 9SM CLR M07/M11 A3029 530 74 -2000 150/09 RMK AO2
14837KMSN MSN20031213105011312/13/03 10:50:31  5-MIN KMSN 131650Z 16008KT 10SM CLR M07/M11 A3028 530 71 -1900 160/08 RMK AO2 SLP272 T10671111
14837KMSN MSN20031213105509512/13/03 10:55:31  5-MIN KMSN 131655Z 16008KT 9SM CLR M07/M11 A3028 540 74 -1900 150/08 RMK AO2
14837KMSN MSN20031213110009512/13/03 11:00:31  5-MIN KMSN 131700Z 15008KT 8SM CLR M07/M10 A3027 540 77 -1900 150/08 RMK AO2
14837KMSN MSN20031213110509512/13/03 11:05:31  5-MIN KMSN 131705Z 15008KT 9SM CLR M07/M10 A3028 540 77 -1900 150/08 RMK AO2
14837KMSN MSN20031213111009512/13/03 11:10:31  5-MIN KMSN 131710Z 15009KT 9SM CLR M06/M11 A3027 540 71 -1900 150/09 RMK AO2
14837KMSN MSN20031213111509512/13/03 11:15:31  5-MIN KMSN 131715Z 15009KT 9SM CLR M06/M11 A3027 540 71 -1800 150/09 RMK AO2
14837KMSN MSN20031213112009512/13/03 11:20:31  5-MIN KMSN 131720Z 15008KT 9SM CLR M06/M11 A3026 550 71 -1800 150/08 RMK AO2
14837KMSN MSN20031213112509512/13/03 11:25:31  5-MIN KMSN 131725Z 15009KT 9SM CLR M06/M10 A3026 550 71 -1800 150/09 RMK AO2
14837KMSN MSN20031213113009512/13/03 11:30:31  5-MIN KMSN 131730Z 15008KT 9SM CLR M06/M11 A3026 560 68 -1800 150/08 RMK AO2
14837KMSN MSN20031213113509612/13/03 11:35:31  5-MIN KMSN 131735Z 15007KT 10SM CLR M06/M10 A3025 560 71 -1800 150/07 RMK AO2
14837KMSN MSN20031213114009612/13/03 11:40:31  5-MIN KMSN 131740Z 14008KT 10SM CLR M05/M11 A3025 560 65 -1700 140/08 RMK AO2
14837KMSN MSN20031213114509612/13/03 11:45:31  5-MIN KMSN 131745Z 15007KT 10SM CLR M05/M11 A3024 570 65 -1700 150/07 RMK AO2
14837KMSN MSN20031213115013112/13/03 11:50:31  5-MIN KMSN 131750Z 16010KT 10SM CLR M05/M11 A3024 570 65 -1700 150/10 RMK AO2 SLP258 T10501106 11050 21150 55000
14837KMSN MSN20031213115509612/13/03 11:55:31  5-MIN KMSN 131755Z 15009KT 10SM CLR M05/M11 A3024 570 65 -1700 150/09 RMK AO2
14837KMSN MSN20031213120009612/13/03 12:00:31  5-MIN KMSN 131800Z 16009KT 10SM CLR M04/M11 A3023 580 62 -1600 150/09 RMK AO2
14837KMSN MSN20031213120509612/13/03 12:05:31  5-MIN KMSN 131805Z 15008KT 10SM CLR M04/M10 A3023 580 65 -1600 150/08 RMK AO2
14837KMSN MSN20031213121009612/13/03 12:10:31  5-MIN KMSN 131810Z 15007KT 10SM CLR M04/M10 A3023 580 65 -1600 150/07 RMK AO2
14837KMSN MSN20031213121509612/13/03 12:15:31  5-MIN KMSN 131815Z 15007KT 10SM CLR M04/M10 A3022 580 65 -1600 150/07 RMK AO2
14837KMSN MSN20031213122009612/13/03 12:20:31  5-MIN KMSN 131820Z 15008KT 10SM CLR M04/M11 A3022 590 60 -1500 150/08 RMK AO2
14837KMSN MSN20031213122509912/13/03 12:25:31  5-MIN KMSN 131825Z 15008KT 10SM FEW110 M04/M10 A3022 590 63 -1500 150/08 RMK AO2
14837KMSN MSN20031213123009912/13/03 12:30:31  5-MIN KMSN 131830Z 15011KT 10SM FEW110 M04/M09 A3022 590 65 -1500 150/11 RMK AO2
14837KMSN MSN20031213123509912/13/03 12:35:31  5-MIN KMSN 131835Z 15009KT 10SM FEW110 M04/M09 A3021 590 65 -1500 150/09 RMK AO2
14837KMSN MSN20031213124009612/13/03 12:40:31  5-MIN KMSN 131840Z 16010KT 10SM CLR M03/M10 A3021 590 60 -1400 150/10 RMK AO2
14837KMSN MSN20031213124509612/13/03 12:45:31  5-MIN KMSN 131845Z 16010KT 10SM CLR M03/M11 A3021 590 57 -1400 160/10 RMK AO2
14837KMSN MSN20031213125011612/13/03 12:50:31  5-MIN KMSN 131850Z 15009KT 10SM FEW120 M03/M10 A3021 600 60 -1400 150/09 RMK AO2 SLP248 T10331100
14837KMSN MSN20031213125509912/13/03 12:55:31  5-MIN KMSN 131855Z 16007KT 10SM FEW100 M03/M10 A3021 600 60 -1400 160/07 RMK AO2
14837KMSN MSN20031213130009612/13/03 13:00:31  5-MIN KMSN 131900Z 16008KT 10SM CLR M03/M10 A3021 600 60 -1400 150/08 RMK AO2
14837KMSN MSN20031213130509612/13/03 13:05:31  5-MIN KMSN 131905Z 14007KT 10SM CLR M03/M09 A3021 600 63 -1400 140/07 RMK AO2
14837KMSN MSN20031213131009612/13/03 13:10:31  5-MIN KMSN 131910Z 15008KT 10SM CLR M03/M09 A3020 600 63 -1400 150/08 RMK AO2
14837KMSN MSN20031213131509912/13/03 13:15:31  5-MIN KMSN 131915Z 15009KT 10SM FEW100 M03/M10 A3020 600 60 -1400 150/09 RMK AO2
14837KMSN MSN20031213132009912/13/03 13:20:31  5-MIN KMSN 131920Z 15007KT 10SM FEW100 M03/M09 A3020 600 63 -1400 150/07 RMK AO2
14837KMSN MSN20031213132509612/13/03 13:25:31  5-MIN KMSN 131925Z 15009KT 10SM CLR M03/M10 A3020 610 60 -1400 150/09 RMK AO2
14837KMSN MSN20031213133009612/13/03 13:30:31  5-MIN KMSN 131930Z 14008KT 10SM CLR M03/M10 A3020 610 60 -1400 140/08 RMK AO2
14837KMSN MSN20031213133509912/13/03 13:35:31  5-MIN KMSN 131935Z 15007KT 10SM FEW100 M03/M10 A3020 610 60 -1400 150/07 RMK AO2
14837KMSN MSN20031213134009912/13/03 13:40:31  5-MIN KMSN 131940Z 15008KT 10SM FEW100 M03/M10 A3020 610 60 -1400 150/08 RMK AO2
14837KMSN MSN20031213134509612/13/03 13:45:31  5-MIN KMSN 131945Z 15007KT 10SM CLR M03/M10 A3020 610 60 -1400 150/07 RMK AO2
14837KMSN MSN20031213135011312/13/03 13:50:31  5-MIN KMSN 131950Z 16008KT 10SM CLR M03/M10 A3019 610 58 -1300 150/08 RMK AO2 SLP241 T10281100
14837KMSN MSN20031213135509612/13/03 13:55:31  5-MIN KMSN 131955Z 14005KT 10SM CLR M03/M09 A3019 610 63 -1400 140/05 RMK AO2
14837KMSN MSN20031213140009612/13/03 14:00:31  5-MIN KMSN 132000Z 15007KT 10SM CLR M03/M09 A3019 620 60 -1300 150/07 RMK AO2
14837KMSN MSN20031213140509612/13/03 14:05:31  5-MIN KMSN 132005Z 14007KT 10SM CLR M03/M11 A3019 620 55 -1300 130/07 RMK AO2
14837KMSN MSN20031213141009612/13/03 14:10:31  5-MIN KMSN 132010Z 14007KT 10SM CLR M03/M10 A3019 620 58 -1300 140/07 RMK AO2
14837KMSN MSN20031213141509612/13/03 14:15:31  5-MIN KMSN 132015Z 14006KT 10SM CLR M03/M09 A3019 620 60 -1300 140/06 RMK AO2
14837KMSN MSN20031213142009612/13/03 14:20:31  5-MIN KMSN 132020Z 13006KT 10SM CLR M03/M09 A3019 620 60 -1300 130/06 RMK AO2
14837KMSN MSN20031213142509612/13/03 14:25:31  5-MIN KMSN 132025Z 13006KT 10SM CLR M03/M09 A3018 620 60 -1300 130/06 RMK AO2
14837KMSN MSN20031213143009612/13/03 14:30:31  5-MIN KMSN 132030Z 14006KT 10SM CLR M03/M09 A3018 620 60 -1300 140/06 RMK AO2
14837KMSN MSN20031213143509612/13/03 14:35:31  5-MIN KMSN 132035Z 13007KT 10SM CLR M03/M09 A3018 620 60 -1300 130/07 RMK AO2
14837KMSN MSN20031213144009612/13/03 14:40:31  5-MIN KMSN 132040Z 13007KT 10SM CLR M03/M09 A3018 620 60 -1300 130/07 RMK AO2
14837KMSN MSN20031213144509612/13/03 14:45:31  5-MIN KMSN 132045Z 13005KT 10SM CLR M03/M09 A3018 620 60 -1300 130/05 RMK AO2
14837KMSN MSN20031213145012212/13/03 14:50:31  5-MIN KMSN 132050Z 12008KT 10SM FEW100 M03/M09 A3018 620 60 -1300 120/08 RMK AO2 SLP237 T10281094 58025
14837KMSN MSN20031213145509912/13/03 14:55:31  5-MIN KMSN 132055Z 13005KT 10SM SCT100 M03/M10 A3018 620 58 -1300 130/05 RMK AO2
14837KMSN MSN20031213150009912/13/03 15:00:31  5-MIN KMSN 132100Z 13008KT 10SM FEW100 M03/M10 A3018 620 58 -1300 130/08 RMK AO2
14837KMSN MSN20031213150509912/13/03 15:05:31  5-MIN KMSN 132105Z 14009KT 10SM FEW100 M03/M10 A3018 630 58 -1300 140/09 RMK AO2
14837KMSN MSN20031213151009912/13/03 15:10:31  5-MIN KMSN 132110Z 14007KT 10SM FEW100 M03/M10 A3018 630 58 -1300 140/07 RMK AO2
14837KMSN MSN20031213151509912/13/03 15:15:31  5-MIN KMSN 132115Z 14009KT 10SM FEW100 M03/M10 A3018 630 58 -1300 140/09 RMK AO2
14837KMSN MSN20031213152009912/13/03 15:20:31  5-MIN KMSN 132120Z 15009KT 10SM FEW100 M03/M11 A3018 630 55 -1300 150/09 RMK AO2
14837KMSN MSN20031213152509912/13/03 15:25:31  5-MIN KMSN 132125Z 14010KT 10SM FEW100 M03/M10 A3018 630 58 -1300 140/10 RMK AO2
14837KMSN MSN20031213153009912/13/03 15:30:31  5-MIN KMSN 132130Z 14009KT 10SM FEW100 M03/M09 A3018 630 60 -1300 140/09 RMK AO2
14837KMSN MSN20031213153509912/13/03 15:35:31  5-MIN KMSN 132135Z 16009KT 10SM SCT095 M03/M09 A3018 630 60 -1300 160/09 RMK AO2
14837KMSN MSN20031213154009912/13/03 15:40:31  5-MIN KMSN 132140Z 15006KT 10SM SCT095 M03/M10 A3018 630 58 -1300 150/06 RMK AO2
14837KMSN MSN20031213154509912/13/03 15:45:31  5-MIN KMSN 132145Z 14007KT 10SM BKN090 M03/M11 A3018 630 55 -1300 140/07 RMK AO2
14837KMSN MSN20031213155011612/13/03 15:50:31  5-MIN KMSN 132150Z 14008KT 10SM BKN090 M03/M10 A3017 630 58 -1300 140/08 RMK AO2 SLP235 T10281100
14837KMSN MSN20031213155509912/13/03 15:55:31  5-MIN KMSN 132155Z 14006KT 10SM BKN090 M03/M10 A3017 630 58 -1300 140/06 RMK AO2
14837KMSN MSN20031213160009912/13/03 16:00:31  5-MIN KMSN 132200Z 15006KT 10SM OVC090 M03/M09 A3017 630 63 -1400 140/06 RMK AO2
14837KMSN MSN20031213160509912/13/03 16:05:31  5-MIN KMSN 132205Z 14006KT 10SM OVC090 M03/M09 A3017 630 60 -1300 140/06 RMK AO2
14837KMSN MSN20031213161009912/13/03 16:10:31  5-MIN KMSN 132210Z 15006KT 10SM OVC090 M03/M09 A3017 630 60 -1300 140/06 RMK AO2
14837KMSN MSN20031213161509912/13/03 16:15:31  5-MIN KMSN 132215Z 14006KT 10SM OVC090 M03/M09 A3017 630 60 -1300 140/06 RMK AO2
14837KMSN MSN20031213162009912/13/03 16:20:31  5-MIN KMSN 132220Z 15008KT 10SM OVC090 M03/M09 A3017 630 60 -1300 150/08 RMK AO2
14837KMSN MSN20031213162509912/13/03 16:25:31  5-MIN KMSN 132225Z 15007KT 10SM OVC090 M03/M09 A3017 640 63 -1400 150/07 RMK AO2
14837KMSN MSN20031213163009912/13/03 16:30:31  5-MIN KMSN 132230Z 15007KT 10SM OVC090 M03/M08 A3017 640 68 -1400 150/07 RMK AO2
14837KMSN MSN20031213163509912/13/03 16:35:31  5-MIN KMSN 132235Z 15008KT 10SM OVC090 M03/M09 A3017 640 65 -1400 150/08 RMK AO2
14837KMSN MSN20031213164009912/13/03 16:40:31  5-MIN KMSN 132240Z 15007KT 10SM OVC090 M03/M09 A3017 640 63 -1400 150/07 RMK AO2
14837KMSN MSN20031213164509912/13/03 16:45:31  5-MIN KMSN 132245Z 15006KT 10SM OVC090 M03/M10 A3017 640 60 -1400 150/06 RMK AO2
14837KMSN MSN20031213165011612/13/03 16:50:31  5-MIN KMSN 132250Z 15007KT 10SM OVC090 M03/M10 A3016 640 60 -1400 150/07 RMK AO2 SLP231 T10331100
14837KMSN MSN20031213165509912/13/03 16:55:31  5-MIN KMSN 132255Z 15007KT 10SM OVC090 M03/M09 A3016 640 65 -1400 150/07 RMK AO2
14837KMSN MSN20031213170009912/13/03 17:00:31  5-MIN KMSN 132300Z 15006KT 10SM OVC090 M03/M09 A3016 640 63 -1400 150/06 RMK AO2
14837KMSN MSN20031213170510512/13/03 17:05:31  5-MIN KMSN 132305Z 15006KT 10SM OVC090 M03/M09 A3016 640 63 -1400 150/06 RMK AO2 4/002
14837KMSN MSN20031213171010512/13/03 17:10:31  5-MIN KMSN 132310Z 15006KT 10SM OVC090 M03/M09 A3016 640 63 -1400 150/06 RMK AO2 4/002
14837KMSN MSN20031213171510512/13/03 17:15:31  5-MIN KMSN 132315Z 14005KT 10SM OVC090 M03/M09 A3016 640 65 -1400 140/05 RMK AO2 4/002
14837KMSN MSN20031213172010512/13/03 17:20:31  5-MIN KMSN 132320Z 14005KT 10SM OVC090 M04/M09 A3016 640 65 -1400 140/05 RMK AO2 4/002
14837KMSN MSN20031213172510512/13/03 17:25:31  5-MIN KMSN 132325Z 15006KT 10SM OVC090 M04/M09 A3016 640 68 -1400 150/06 RMK AO2 4/002
14837KMSN MSN20031213173010512/13/03 17:30:31  5-MIN KMSN 132330Z 16006KT 10SM OVC090 M04/M09 A3016 640 65 -1400 150/06 RMK AO2 4/002
14837KMSN MSN20031213173510512/13/03 17:35:31  5-MIN KMSN 132335Z 15007KT 10SM OVC090 M03/M09 A3016 650 63 -1400 150/07 RMK AO2 4/002
14837KMSN MSN20031213174010512/13/03 17:40:31  5-MIN KMSN 132340Z 15007KT 10SM OVC090 M03/M09 A3016 650 63 -1400 150/07 RMK AO2 4/002
14837KMSN MSN20031213174510512/13/03 17:45:31  5-MIN KMSN 132345Z 15006KT 10SM OVC085 M03/M08 A3016 650 68 -1400 150/06 RMK AO2 4/002
14837KMSN MSN20031213175014712/13/03 17:50:31  5-MIN KMSN 132350Z 15007KT 10SM FEW030 OVC085 M04/M09 A3016 640 68 -1400 150/07 RMK AO2 SLP229 4/002 T10391089 11028 21050 56019
14837KMSN MSN20031213175510612/13/03 17:55:31  5-MIN KMSN 132355Z 15006KT 10SM FEW030 OVC085 M03/M10 A3016 650 60 -1400 150/06 RMK AO2
14837KMSN MSN20031213180010612/13/03 18:00:31  5-MIN KMSN 140000Z 16006KT 10SM FEW030 OVC085 M03/M09 A3016 650 65 -1400 160/06 RMK AO2
14837KMSN MSN20031213180510612/13/03 18:05:31  5-MIN KMSN 140005Z 16006KT 10SM FEW030 OVC085 M03/M09 A3015 650 63 -1400 160/06 RMK AO2
14837KMSN MSN20031213181010612/13/03 18:10:31  5-MIN KMSN 140010Z 15006KT 10SM FEW030 OVC075 M03/M09 A3015 650 65 -1400 150/06 RMK AO2
14837KMSN MSN20031213181510612/13/03 18:15:31  5-MIN KMSN 140015Z 15007KT 10SM FEW030 OVC075 M03/M09 A3015 650 65 -1400 150/07 RMK AO2
14837KMSN MSN20031213182010612/13/03 18:20:31  5-MIN KMSN 140020Z 14006KT 10SM FEW030 OVC060 M03/M08 A3015 650 68 -1400 130/06 RMK AO2
14837KMSN MSN20031213182512212/13/03 18:25:31  5-MIN KMSN 140025Z 14006KT 10SM -SN FEW030 OVC060 M03/M08 A3015 650 68 -1400 140/06 RMK AO2 SNB22 P0000
14837KMSN MSN20031213183011412/13/03 18:30:31  5-MIN KMSN 140030Z 15007KT 9SM -SN OVC060 M03/M08 A3015 650 68 -1400 150/07 RMK AO2 SNB22 P0000
14837KMSN MSN20031213183511412/13/03 18:35:31  5-MIN KMSN 140035Z 14007KT 9SM -SN OVC055 M03/M08 A3015 650 68 -1400 140/07 RMK AO2 SNB22 P0000
14837KMSN MSN20031213184011412/13/03 18:40:31  5-MIN KMSN 140040Z 15008KT 9SM -SN OVC055 M03/M08 A3015 650 71 -1400 150/08 RMK AO2 SNB22 P0000
14837KMSN MSN20031213184512112/13/03 18:45:31  5-MIN KMSN 140045Z 15007KT 9SM -SN FEW041 OVC060 M03/M08 A3015 650 71 -1400 150/07 RMK AO2 SNB22 P0000
14837KMSN MSN20031213185014512/13/03 18:50:31  5-MIN KMSN 140050Z 14007KT 9SM -SN SCT037 BKN060 OVC080 M03/M08 A3015 650 71 -1400 140/07 RMK AO2 SNB22 SLP227 P0000 T10331078
14837KMSN MSN20031213185512212/13/03 18:55:31  5-MIN KMSN 140055Z 15008KT 8SM -SN SCT035 BKN055 OVC080 M03/M08 A3015 650 71 -1400 140/08 RMK AO2 P0000
14837KMSN MSN20031213190011512/13/03 19:00:31  5-MIN KMSN 140100Z 15007KT 6SM -SN FEW035 OVC055 M04/M08 A3015 650 74 -1400 140/07 RMK AO2 P0000
14837KMSN MSN20031213190511512/13/03 19:05:31  5-MIN KMSN 140105Z 15007KT 5SM -SN FEW033 OVC055 M04/M07 A3015 650 78 -1400 140/07 RMK AO2 P0000
14837KMSN MSN20031213191011512/13/03 19:10:31  5-MIN KMSN 140110Z 14008KT 4SM -SN SCT033 OVC050 M04/M07 A3015 660 78 -1400 140/08 RMK AO2 P0000
14837KMSN MSN20031213191511512/13/03 19:15:31  5-MIN KMSN 140115Z 15005KT 4SM -SN SCT033 OVC050 M04/M07 A3015 660 81 -1400 150/05 RMK AO2 P0000
14837KMSN MSN20031213192011512/13/03 19:20:31  5-MIN KMSN 140120Z 16006KT 4SM -SN FEW031 OVC050 M04/M07 A3015 660 81 -1400 160/06 RMK AO2 P0000
14837KMSN MSN20031213192511512/13/03 19:25:31  5-MIN KMSN 140125Z 15007KT 4SM -SN FEW031 OVC048 M04/M07 A3015 660 81 -1400 150/07 RMK AO2 P0000
14837KMSN MSN20031213193011512/13/03 19:30:31  5-MIN KMSN 140130Z 14007KT 4SM -SN SCT031 OVC048 M04/M07 A3015 660 81 -1400 140/07 RMK AO2 P0000
14837KMSN MSN20031213193511512/13/03 19:35:31  5-MIN KMSN 140135Z 14005KT 3SM -SN BKN031 OVC048 M04/M07 A3014 660 81 -1400 140/05 RMK AO2 P0000
14837KMSN MSN20031213194011512/13/03 19:40:31  5-MIN KMSN 140140Z 14005KT 3SM -SN BKN029 OVC048 M04/M07 A3014 660 81 -1400 130/05 RMK AO2 P0000
14837KMSN MSN20031213194511812/13/03 19:45:31  5-MIN KMSN 140145Z 14006KT 3SM -SN BR BKN029 OVC046 M04/M07 A3014 660 84 -1500 130/06 RMK AO2 P0000
14837KMSN MSN20031213195012812/13/03 19:50:31  5-MIN KMSN 140150Z 13005KT 3SM -SN BR OVC029 M04/M07 A3014 670 84 -1500 120/05 RMK AO2 SLP222 P0000 T10441067
14837KMSN MSN20031213195511112/13/03 19:55:31  5-MIN KMSN 140155Z 12005KT 3SM -SN BR OVC029 M04/M07 A3013 670 84 -1500 120/05 RMK AO2 P0000
14837KMSN MSN20031213200012512/13/03 20:00:31  5-MIN KMSN 140200Z 12007KT 2 1/2SM -SN BR OVC029 M04/M06 A3013 670 88 -1500 120/07 RMK AO2 TWR VIS 3 P0000
14837KMSN MSN20031213200513212/13/03 20:05:31  5-MIN KMSN 140205Z 12005KT 2 1/2SM -SN BR BKN031 OVC048 M04/M06 A3013 670 88 -1500 120/05 RMK AO2 TWR VIS 3 P0000
14837KMSN MSN20031213201013212/13/03 20:10:31  5-MIN KMSN 140210Z 11005KT 2 1/2SM -SN BR BKN033 OVC048 M04/M06 A3012 680 88 -1500 110/05 RMK AO2 TWR VIS 3 P0000
14837KMSN MSN20031213201513912/13/03 20:15:31  5-MIN KMSN 140215Z 11005KT 2 1/2SM -SN BR BKN033 BKN048 OVC070 M04/M06 A3012 680 88 -1500 110/05 RMK AO2 TWR VIS 3 P0000
14837KMSN MSN20031213202013912/13/03 20:20:31  5-MIN KMSN 140220Z 12004KT 2 1/2SM -SN BR BKN035 BKN048 OVC070 M04/M06 A3012 680 88 -1500 110/04 RMK AO2 TWR VIS 3 P0000
14837KMSN MSN20031213202513912/13/03 20:25:31  5-MIN KMSN 140225Z 10004KT 2 1/2SM -SN BR SCT037 BKN060 OVC070 M04/M06 A3012 680 88 -1500 100/04 RMK AO2 TWR VIS 3 P0000
14837KMSN MSN20031213203013912/13/03 20:30:31  5-MIN KMSN 140230Z 10004KT 2 1/2SM -SN BR FEW037 BKN060 OVC070 M04/M06 A3012 680 88 -1500 100/04 RMK AO2 TWR VIS 3 P0000
14837KMSN MSN20031213203512512/13/03 20:35:31  5-MIN KMSN 140235Z 09003KT 3SM -SN BR FEW037 BKN055 OVC070 M04/M06 A3011 680 88 -1500 090/03 RMK AO2 P0000
14837KMSN MSN20031213204012512/13/03 20:40:31  5-MIN KMSN 140240Z 07003KT 4SM -SN BR FEW031 BKN055 OVC070 M04/M06 A3012 680 88 -1500 060/03 RMK AO2 P0000
14837KMSN MSN20031213204512512/13/03 20:45:31  5-MIN KMSN 140245Z 08003KT 4SM -SN BR FEW029 BKN040 OVC060 M04/M06 A3011 690 88 -1500 080/03 RMK AO2 P0000
14837KMSN MSN20031213205016812/13/03 20:50:31  5-MIN KMSN 140250Z 06003KT 2 1/2SM -SN BR SCT027 BKN040 OVC060 M04/M06 A3011 690 88 -1500 060/03 RMK AO2 TWR VIS 3 SLP212 P0000 60000 T10441061 56008
14837KMSN MSN20031213205513512/13/03 20:55:31  5-MIN KMSN 140255Z 08004KT 2SM -SN BR BKN022 BKN039 OVC055 M04/M06 A3011 690 88 -1400 080/04 RMK AO2 TWR VIS 3 P0000
14837KMSN MSN20031213210013512/13/03 21:00:31  5-MIN KMSN 140300Z 07004KT 2SM -SN BR BKN020 BKN025 OVC039 M04/M06 A3011 690 88 -1400 070/04 RMK AO2 TWR VIS 3 P0000
14837KMSN MSN20031213210512812/13/03 21:05:31  5-MIN KMSN 140305Z 08003KT 2SM -SN BR BKN022 OVC034 M04/M06 A3011 690 88 -1400 080/03 RMK AO2 TWR VIS 3 P0000
14837KMSN MSN20031213211013212/13/03 21:10:31  5-MIN KMSN 140310Z 08003KT 2 1/2SM -SN BR BKN022 OVC034 M04/M06 A3011 690 88 -1400 080/03 RMK AO2 TWR VIS 3 P0000
14837KMSN MSN20031213211511812/13/03 21:15:31  5-MIN KMSN 140315Z 08003KT 3SM -SN BR BKN022 OVC038 M04/M06 A3010 690 88 -1400 080/03 RMK AO2 P0000
14837KMSN MSN20031213212013512/13/03 21:20:31  5-MIN KMSN 140320Z 08003KT 3SM -SN BR SCT019 SCT024 OVC038 M04/M06 A3010 700 88 -1400 070/03 RMK AO2 SFC VIS 4 P0000
14837KMSN MSN20031213212513512/13/03 21:25:31  5-MIN KMSN 140325Z 07003KT 3SM -SN BR FEW021 SCT032 OVC038 M04/M06 A3010 700 88 -1400 070/03 RMK AO2 SFC VIS 5 P0000
14837KMSN MSN20031213213012812/13/03 21:30:31  5-MIN KMSN 140330Z 08004KT 3SM -SN BR FEW023 OVC040 M04/M06 A3010 700 88 -1400 080/04 RMK AO2 SFC VIS 4 P0000
14837KMSN MSN20031213213511812/13/03 21:35:31  5-MIN KMSN 140335Z 10004KT 3SM -SN BR FEW029 OVC040 M04/M06 A3010 700 88 -1400 100/04 RMK AO2 P0000
14837KMSN MSN20031213214011812/13/03 21:40:31  5-MIN KMSN 140340Z 10004KT 3SM -SN BR FEW029 OVC040 M04/M06 A3010 700 88 -1400 100/04 RMK AO2 P0000
14837KMSN MSN20031213214512812/13/03 21:45:31  5-MIN KMSN 140345Z 10004KT 3SM -SN BR FEW029 OVC040 M04/M06 A3009 700 88 -1400 100/04 RMK AO2 SFC VIS 4 P0000
14837KMSN MSN20031213215013512/13/03 21:50:31  5-MIN KMSN 140350Z 09004KT 3SM -SN BR FEW029 OVC040 M04/M06 A3009 710 88 -1400 090/04 RMK AO2 SLP205 P0000 T10441061
14837KMSN MSN20031213215513912/13/03 21:55:31  5-MIN KMSN 140355Z 09004KT 2 1/2SM -SN BR FEW028 SCT034 OVC042 M04/M06 A3009 710 88 -1400 090/04 RMK AO2 TWR VIS 3 P0000
14837KMSN MSN20031213220013512/13/03 22:00:31  5-MIN KMSN 140400Z 10004KT 2SM -SN BR SCT032 BKN042 OVC055 M04/M06 A3009 710 88 -1400 100/04 RMK AO2 TWR VIS 3 P0000
14837KMSN MSN20031213220513912/13/03 22:05:31  5-MIN KMSN 140405Z 10005KT 2 1/2SM -SN BR SCT038 BKN045 OVC060 M04/M06 A3009 710 88 -1400 100/05 RMK AO2 TWR VIS 3 P0000
14837KMSN MSN20031213221013212/13/03 22:10:31  5-MIN KMSN 140410Z 09004KT 2 1/2SM -SN BR BKN040 OVC060 M04/M06 A3008 710 92 -1400 090/04 RMK AO2 TWR VIS 3 P0000
14837KMSN MSN20031213221511812/13/03 22:15:31  5-MIN KMSN 140415Z 09005KT 2SM -SN BR BKN040 OVC055 M04/M06 A3008 720 88 -1400 080/05 RMK AO2 P0000
14837KMSN MSN20031213222012512/13/03 22:20:31  5-MIN KMSN 140420Z 09004KT 2SM -SN BR SCT034 BKN045 OVC055 M04/M06 A3008 720 88 -1400 090/04 RMK AO2 P0000
14837KMSN MSN20031213222512512/13/03 22:25:31  5-MIN KMSN 140425Z 00000KT 2SM -SN BR BKN034 BKN047 OVC060 M04/M06 A3008 710 88 -1400 000/00 RMK AO2 P0000
14837KMSN MSN20031213223012512/13/03 22:30:31  5-MIN KMSN 140430Z 00000KT 2SM -SN BR SCT034 BKN047 OVC060 M04/M06 A3008 720 88 -1400 000/00 RMK AO2 P0000
14837KMSN MSN20031213223511812/13/03 22:35:31  5-MIN KMSN 140435Z 06003KT 2SM -SN BR BKN036 OVC047 M05/M06 A3008 720 92 -1500 060/03 RMK AO2 P0000
14837KMSN MSN20031213224011812/13/03 22:40:31  5-MIN KMSN 140440Z 06003KT 2SM -SN BR BKN032 OVC047 M05/M06 A3008 720 92 -1500 060/03 RMK AO2 P0000
14837KMSN MSN20031213224511812/13/03 22:45:31  5-MIN KMSN 140445Z 06003KT 2SM -SN BR BKN032 OVC045 M05/M06 A3007 720 92 -1500 060/03 RMK AO2 P0000
14837KMSN MSN20031213225013912/13/03 22:50:31  5-MIN KMSN 140450Z 06003KT 2 1/2SM -SN BR BKN032 OVC045 M05/M06 A3007 730 92 -1500 060/03 RMK AO2 SLP195 P0000 T10501061
14837KMSN MSN20031213225512212/13/03 22:55:31  5-MIN KMSN 140455Z 07003KT 2 1/2SM -SN BR SCT032 OVC045 M05/M06 A3007 730 92 -1500 070/03 RMK AO2 P0000
14837KMSN MSN20031213230012212/13/03 23:00:31  5-MIN KMSN 140500Z 10003KT 2 1/2SM -SN BR BKN032 OVC045 M04/M06 A3007 730 88 -1400 100/03 RMK AO2 P0000
14837KMSN MSN20031213230512212/13/03 23:05:31  5-MIN KMSN 140505Z 08003KT 2 1/2SM -SN BR BKN030 OVC041 M04/M06 A3007 730 88 -1400 080/03 RMK AO2 P0000
14837KMSN MSN20031213231011812/13/03 23:10:31  5-MIN KMSN 140510Z 07004KT 3SM -SN BR BKN028 OVC041 M04/M07 A3006 730 84 -1400 070/04 RMK AO2 P0000
14837KMSN MSN20031213231512512/13/03 23:15:31  5-MIN KMSN 140515Z 08004KT 3SM -SN BR BKN026 BKN037 OVC046 M04/M07 A3006 740 84 -1400 080/04 RMK AO2 P0000
14837KMSN MSN20031213232012512/13/03 23:20:31  5-MIN KMSN 140520Z 07003KT 3SM -SN BR BKN024 BKN028 OVC037 M04/M07 A3006 740 84 -1400 070/03 RMK AO2 P0000
14837KMSN MSN20031213232512512/13/03 23:25:31  5-MIN KMSN 140525Z 08003KT 3SM -SN BR BKN024 BKN037 OVC048 M04/M07 A3005 740 84 -1400 080/03 RMK AO2 P0000
14837KMSN MSN20031213233012512/13/03 23:30:31  5-MIN KMSN 140530Z 08004KT 3SM -SN BR BKN022 BKN027 OVC048 M05/M06 A3005 750 92 -1500 080/04 RMK AO2 P0000
14837KMSN MSN20031213233512512/13/03 23:35:31  5-MIN KMSN 140535Z 08004KT 3SM -SN BR BKN024 BKN048 OVC055 M05/M07 A3005 750 88 -1400 080/04 RMK AO2 P0000
14837KMSN MSN20031213234012512/13/03 23:40:31  5-MIN KMSN 140540Z 09004KT 3SM -SN BR FEW027 BKN034 OVC048 M05/M07 A3004 750 88 -1400 090/04 RMK AO2 P0000
14837KMSN MSN20031213234512512/13/03 23:45:31  5-MIN KMSN 140545Z 10005KT 3SM -SN BR FEW027 BKN041 OVC048 M06/M07 A3004 760 88 -1500 100/05 RMK AO2 P0000
14837KMSN MSN20031213235016212/13/03 23:50:31  5-MIN KMSN 140550Z 10005KT 3SM -SN BR OVC046 M06/M07 A3003 760 92 -1600 100/05 RMK AO2 SLP184 P0000 60000 T10611072 11033 21061 410281150 58016
14837KMSN MSN20031213235511112/13/03 23:55:31  5-MIN KMSN 140555Z 10005KT 3SM -SN BR OVC048 M07/M08 A3003 760 92 -1600 100/05 RMK AO2 P0000
14837KMSN MSN20031214000012012/14/03 00:00:31  5-MIN KMSN 140600Z 10004KT 3SM BR BKN048 OVC055 M06/M08 A3003 760 88 -1600 100/04 RMK AO2 SNE00 P0000
14837KMSN MSN20031214000512012/14/03 00:05:31  5-MIN KMSN 140605Z 10004KT 3SM BR BKN048 BKN055 M07/M08 A3003 760 92 -1600 100/04 RMK AO2 SNE00 P0000
14837KMSN MSN20031214001012012/14/03 00:10:31  5-MIN KMSN 140610Z 09003KT 3SM BR BKN048 BKN055 M07/M08 A3003 760 92 -1600 090/03 RMK AO2 SNE00 P0000
14837KMSN MSN20031214001512012/14/03 00:15:31  5-MIN KMSN 140615Z 00000KT 4SM BR BKN048 BKN055 M07/M08 A3003 760 92 -1600 000/00 RMK AO2 SNE00 P0000
14837KMSN MSN20031214002012012/14/03 00:20:31  5-MIN KMSN 140620Z 00000KT 4SM BR BKN048 BKN055 M07/M08 A3003 770 92 -1600 000/00 RMK AO2 SNE00 P0000
14837KMSN MSN20031214002512712/14/03 00:25:31  5-MIN KMSN 140625Z 00000KT 4SM -SN BR BKN048 BKN055 M07/M08 A3003 770 92 -1600 000/00 RMK AO2 SNE00B22 P0000
14837KMSN MSN20031214003012712/14/03 00:30:31  5-MIN KMSN 140630Z 00000KT 4SM -SN BR BKN048 BKN055 M07/M08 A3002 770 92 -1600 000/00 RMK AO2 SNE00B22 P0000
14837KMSN MSN20031214003512712/14/03 00:35:31  5-MIN KMSN 140635Z 00000KT 4SM -SN BR BKN048 BKN055 M07/M07 A3002 770 96 -1600 000/00 RMK AO2 SNE00B22 P0000
14837KMSN MSN20031214004012712/14/03 00:40:31  5-MIN KMSN 140640Z 36003KT 4SM -SN BR BKN048 BKN055 M07/M07 A3002 770 96 -1600 360/03 RMK AO2 SNE00B22 P0000
14837KMSN MSN20031214004512712/14/03 00:45:31  5-MIN KMSN 140645Z 36003KT 3SM -SN BR FEW030 OVC046 M06/M07 A3002 770 92 -1600 350/03 RMK AO2 SNE00B22 P0000
14837KMSN MSN20031214005014312/14/03 00:50:31  5-MIN KMSN 140650Z 00000KT 3SM BR SCT032 OVC046 M06/M07 A3002 770 92 -1600 000/00 RMK AO2 SNE00B22E50 SLP180 P0000 T10611072
14837KMSN MSN20031214005510812/14/03 00:55:31  5-MIN KMSN 140655Z 00000KT 3SM BR BKN032 OVC046 M06/M07 A3002 770 96 -1600 000/00 RMK AO2
14837KMSN MSN20031214010012412/14/03 01:00:31  5-MIN KMSN 140700Z 00000KT 4SM -SN BR BKN032 OVC046 M06/M07 A3002 770 92 -1500 000/00 RMK AO2 SNB00 P0000
14837KMSN MSN20031214010512412/14/03 01:05:31  5-MIN KMSN 140705Z 00000KT 4SM -SN BR BKN032 OVC046 M06/M07 A3002 770 92 -1500 000/00 RMK AO2 SNB00 P0000
14837KMSN MSN20031214011012412/14/03 01:10:31  5-MIN KMSN 140710Z 01003KT 3SM -SN BR FEW027 OVC032 M06/M07 A3002 770 92 -1600 010/03 RMK AO2 SNB00 P0000
14837KMSN MSN20031214011512412/14/03 01:15:31  5-MIN KMSN 140715Z 00000KT 3SM -SN BR SCT027 OVC032 M06/M07 A3002 780 92 -1500 000/00 RMK AO2 SNB00 P0000
14837KMSN MSN20031214012013112/14/03 01:20:31  5-MIN KMSN 140720Z 09003KT 3SM -SN BR FEW012 SCT027 OVC032 M06/M07 A3001 780 92 -1500 080/03 RMK AO2 SNB00 P0000
14837KMSN MSN20031214012513112/14/03 01:25:31  5-MIN KMSN 140725Z 09003KT 3SM -SN BR FEW012 BKN027 OVC034 M06/M07 A3001 780 92 -1500 080/03 RMK AO2 SNB00 P0000
14837KMSN MSN20031214013013112/14/03 01:30:31  5-MIN KMSN 140730Z 10004KT 3SM -SN BR FEW012 BKN027 OVC034 M06/M07 A3001 780 92 -1500 100/04 RMK AO2 SNB00 P0000
14837KMSN MSN20031214013513112/14/03 01:35:31  5-MIN KMSN 140735Z 10003KT 3SM -SN BR FEW012 BKN025 OVC043 M06/M07 A3001 780 92 -1500 100/03 RMK AO2 SNB00 P0000
14837KMSN MSN20031214014013112/14/03 01:40:31  5-MIN KMSN 140740Z 00000KT 4SM -SN BR FEW012 BKN025 OVC043 M06/M07 A3001 780 92 -1500 000/00 RMK AO2 SNB00 P0000
14837KMSN MSN20031214014513112/14/03 01:45:31  5-MIN KMSN 140745Z 00000KT 4SM -SN BR FEW012 SCT025 OVC043 M06/M06 A3002 770 96 -1500 000/00 RMK AO2 SNB00 P0000
14837KMSN MSN20031214015014812/14/03 01:50:31  5-MIN KMSN 140750Z 00000KT 4SM -SN BR SCT025 BKN036 OVC043 M06/M07 A3002 770 92 -1500 000/00 RMK AO2 SNB00 SLP178 P0000 T10561067
14837KMSN MSN20031214015512512/14/03 01:55:31  5-MIN KMSN 140755Z 31003KT 3SM -SN BR SCT025 BKN036 OVC043 M06/M06 A3002 770 96 -1500 310/03 RMK AO2 P0000
14837KMSN MSN20031214020012512/14/03 02:00:31  5-MIN KMSN 140800Z 00000KT 4SM -SN BR BKN025 BKN036 OVC043 M06/M06 A3002 770 96 -1500 000/00 RMK AO2 P0000
14837KMSN MSN20031214020512512/14/03 02:05:31  5-MIN KMSN 140805Z 00000KT 4SM -SN BR BKN025 BKN036 OVC043 M05/M06 A3002 770 92 -1400 000/00 RMK AO2 P0000
14837KMSN MSN20031214021011812/14/03 02:10:31  5-MIN KMSN 140810Z 00000KT 4SM -SN BR BKN027 OVC036 M05/M06 A3002 770 92 -1400 000/00 RMK AO2 P0000
14837KMSN MSN20031214021511312/14/03 02:15:31  5-MIN KMSN 140815Z 00000KT 4SM BR OVC027 M05/M06 A3002 770 92 -1400 000/00 RMK AO2 SNE13 P0000
14837KMSN MSN20031214022011312/14/03 02:20:31  5-MIN KMSN 140820Z 00000KT 4SM BR OVC027 M05/M06 A3002 770 92 -1400 000/00 RMK AO2 SNE13 P0000
14837KMSN MSN20031214022511312/14/03 02:25:31  5-MIN KMSN 140825Z 00000KT 4SM BR OVC027 M05/M06 A3002 770 92 -1400 000/00 RMK AO2 SNE13 P0000
14837KMSN MSN20031214023011312/14/03 02:30:31  5-MIN KMSN 140830Z 00000KT 4SM BR OVC029 M05/M06 A3002 780 92 -1400 000/00 RMK AO2 SNE13 P0000
14837KMSN MSN20031214023511312/14/03 02:35:31  5-MIN KMSN 140835Z 00000KT 4SM BR OVC029 M05/M06 A3001 780 92 -1400 000/00 RMK AO2 SNE13 P0000
14837KMSN MSN20031214024011312/14/03 02:40:31  5-MIN KMSN 140840Z 00000KT 4SM BR OVC029 M05/M06 A3001 780 92 -1400 000/00 RMK AO2 SNE13 P0000
14837KMSN MSN20031214024511312/14/03 02:45:31  5-MIN KMSN 140845Z 00000KT 4SM BR OVC029 M05/M06 A3001 780 92 -1400 000/00 RMK AO2 SNE13 P0000
14837KMSN MSN20031214025014212/14/03 02:50:31  5-MIN KMSN 140850Z 00000KT 4SM BR OVC029 M05/M06 A3001 780 92 -1400 000/00 RMK AO2 SNE13 SLP174 P0000 60000 T10501061 58025
14837KMSN MSN20031214025510112/14/03 02:55:31  5-MIN KMSN 140855Z 00000KT 4SM BR OVC029 M05/M06 A3000 790 92 -1400 000/00 RMK AO2
14837KMSN MSN20031214030010112/14/03 03:00:31  5-MIN KMSN 140900Z 00000KT 4SM BR OVC029 M05/M06 A3001 780 92 -1400 000/00 RMK AO2
14837KMSN MSN20031214030510112/14/03 03:05:31  5-MIN KMSN 140905Z 00000KT 4SM BR OVC029 M05/M06 A3000 790 92 -1400 000/00 RMK AO2
14837KMSN MSN20031214031010112/14/03 03:10:31  5-MIN KMSN 140910Z 00000KT 4SM BR OVC029 M05/M06 A3000 790 92 -1400 000/00 RMK AO2
14837KMSN MSN20031214031510112/14/03 03:15:31  5-MIN KMSN 140915Z 30003KT 4SM BR OVC029 M05/M06 A3000 790 92 -1400 300/03 RMK AO2
14837KMSN MSN20031214032010112/14/03 03:20:31  5-MIN KMSN 140920Z 30003KT 4SM BR OVC029 M05/M06 A3001 790 92 -1400 300/03 RMK AO2
14837KMSN MSN20031214032510112/14/03 03:25:31  5-MIN KMSN 140925Z 30003KT 4SM BR OVC029 M05/M06 A3001 790 96 -1400 300/03 RMK AO2
14837KMSN MSN20031214033010112/14/03 03:30:31  5-MIN KMSN 140930Z 30003KT 4SM BR OVC029 M05/M06 A3000 790 92 -1400 300/03 RMK AO2
14837KMSN MSN20031214033510112/14/03 03:35:31  5-MIN KMSN 140935Z 00000KT 4SM BR OVC029 M05/M06 A3000 790 92 -1400 000/00 RMK AO2
14837KMSN MSN20031214034010112/14/03 03:40:31  5-MIN KMSN 140940Z 00000KT 4SM BR OVC029 M05/M06 A3000 790 92 -1400 000/00 RMK AO2
14837KMSN MSN20031214034510112/14/03 03:45:31  5-MIN KMSN 140945Z 00000KT 4SM BR OVC031 M05/M06 A3000 790 92 -1400 000/00 RMK AO2
14837KMSN MSN20031214035014112/14/03 03:50:31  5-MIN KMSN 140950Z 31003KT 3SM -SN BR BKN031 OVC043 M05/M06 A3000 790 92 -1400 310/03 RMK AO2 SNB49 SLP171 P0000 T10501061
14837KMSN MSN20031214035511812/14/03 03:55:31  5-MIN KMSN 140955Z 00000KT 3SM -SN BR BKN031 OVC043 M05/M06 A3000 790 92 -1400 000/00 RMK AO2 P0000
14837KMSN MSN20031214040011812/14/03 04:00:31  5-MIN KMSN 141000Z 00000KT 3SM -SN BR SCT031 OVC043 M05/M06 A3000 790 92 -1400 000/00 RMK AO2 P0000
14837KMSN MSN20031214040511812/14/03 04:05:31  5-MIN KMSN 141005Z 35003KT 3SM -SN BR BKN031 OVC043 M05/M06 A3000 800 92 -1400 350/03 RMK AO2 P0000
14837KMSN MSN20031214041011812/14/03 04:10:31  5-MIN KMSN 141010Z 33003KT 3SM -SN BR BKN033 OVC043 M05/M06 A2999 800 92 -1400 330/03 RMK AO2 P0000
14837KMSN MSN20031214041511812/14/03 04:15:31  5-MIN KMSN 141015Z 34003KT 3SM -SN BR BKN033 OVC043 M05/M06 A2999 800 92 -1400 340/03 RMK AO2 P0000
14837KMSN MSN20031214042011812/14/03 04:20:31  5-MIN KMSN 141020Z 33003KT 3SM -SN BR BKN031 OVC043 M05/M06 A2999 800 92 -1400 330/03 RMK AO2 P0000
14837KMSN MSN20031214042511812/14/03 04:25:31  5-MIN KMSN 141025Z 32003KT 3SM -SN BR BKN031 OVC043 M05/M06 A2999 800 92 -1400 320/03 RMK AO2 P0000
14837KMSN MSN20031214043011812/14/03 04:30:31  5-MIN KMSN 141030Z 00000KT 3SM -SN BR BKN031 OVC043 M05/M06 A2998 800 96 -1400 000/00 RMK AO2 P0000
14837KMSN MSN20031214043511812/14/03 04:35:31  5-MIN KMSN 141035Z 00000KT 3SM -SN BR BKN031 OVC043 M05/M06 A2999 800 96 -1400 000/00 RMK AO2 P0000
14837KMSN MSN20031214044012012/14/03 04:40:31  5-MIN KMSN 141040Z 00000KT 3SM BR SCT031 OVC043 M05/M06 A2998 810 92 -1400 000/00 RMK AO2 SNE38 P0000
14837KMSN MSN20031214044512012/14/03 04:45:31  5-MIN KMSN 141045Z 00000KT 3SM BR FEW031 OVC043 M05/M06 A2998 810 92 -1400 000/00 RMK AO2 SNE38 P0000
14837KMSN MSN20031214045014412/14/03 04:50:31  5-MIN KMSN 141050Z 00000KT 3SM BR FEW019 SCT029 OVC043 M05/M06 A2998 810 92 -1400 000/00 RMK AO2 SNE38 SLP165 P0000 T10501061
14837KMSN MSN20031214045510812/14/03 04:55:31  5-MIN KMSN 141055Z 00000KT 3SM BR SCT019 OVC043 M05/M06 A2998 810 92 -1400 000/00 RMK AO2
14837KMSN MSN20031214050010812/14/03 05:00:31  5-MIN KMSN 141100Z 00000KT 3SM BR SCT019 OVC043 M05/M06 A2998 810 92 -1400 000/00 RMK AO2
14837KMSN MSN20031214050510812/14/03 05:05:31  5-MIN KMSN 141105Z 00000KT 3SM BR SCT017 OVC041 M05/M06 A2998 810 92 -1400 000/00 RMK AO2
14837KMSN MSN20031214051010812/14/03 05:10:31  5-MIN KMSN 141110Z 00000KT 3SM BR SCT017 OVC041 M05/M06 A2998 810 96 -1400 000/00 RMK AO2
14837KMSN MSN20031214051510812/14/03 05:15:31  5-MIN KMSN 141115Z 00000KT 3SM BR SCT017 OVC041 M05/M06 A2998 810 92 -1400 000/00 RMK AO2
14837KMSN MSN20031214052010812/14/03 05:20:31  5-MIN KMSN 141120Z 00000KT 3SM BR SCT015 OVC041 M05/M06 A2998 810 92 -1400 000/00 RMK AO2
14837KMSN MSN20031214052510812/14/03 05:25:31  5-MIN KMSN 141125Z 00000KT 3SM BR SCT015 OVC041 M05/M06 A2997 820 92 -1400 000/00 RMK AO2
14837KMSN MSN20031214053010812/14/03 05:30:31  5-MIN KMSN 141130Z 10003KT 3SM BR SCT015 OVC041 M05/M06 A2997 820 92 -1400 100/03 RMK AO2
14837KMSN MSN20031214053510812/14/03 05:35:31  5-MIN KMSN 141135Z 00000KT 3SM BR FEW015 OVC041 M05/M06 A2997 820 96 -1400 000/00 RMK AO2
14837KMSN MSN20031214054010812/14/03 05:40:31  5-MIN KMSN 141140Z 00000KT 3SM BR FEW015 OVC041 M04/M06 A2997 820 92 -1300 000/00 RMK AO2
14837KMSN MSN20031214054510812/14/03 05:45:31  5-MIN KMSN 141145Z 00000KT 3SM BR FEW015 OVC041 M04/M06 A2997 820 92 -1300 000/00 RMK AO2
14837KMSN MSN20031214055014712/14/03 05:50:31  5-MIN KMSN 141150Z 00000KT 3SM BR OVC041 M04/M06 A2997 810 88 -1300 000/00 RMK AO2 SLP163 4002 60000 T10441061 11044 21072 58009
14837KMSN MSN20031214055510112/14/03 05:55:31  5-MIN KMSN 141155Z 00000KT 3SM BR OVC041 M04/M06 A2997 810 88 -1300 000/00 RMK AO2
14837KMSN MSN20031214060010112/14/03 06:00:31  5-MIN KMSN 141200Z 00000KT 3SM BR OVC041 M04/M06 A2997 820 92 -1300 000/00 RMK AO2
14837KMSN MSN20031214060510112/14/03 06:05:31  5-MIN KMSN 141205Z 00000KT 3SM BR OVC041 M04/M06 A2998 810 92 -1300 000/00 RMK AO2
14837KMSN MSN20031214061010112/14/03 06:10:31  5-MIN KMSN 141210Z 00000KT 3SM BR OVC041 M04/M06 A2998 810 92 -1300 000/00 RMK AO2
14837KMSN MSN20031214061510112/14/03 06:15:31  5-MIN KMSN 141215Z 00000KT 3SM BR OVC041 M04/M06 A2998 810 92 -1300 000/00 RMK AO2
14837KMSN MSN20031214062010112/14/03 06:20:31  5-MIN KMSN 141220Z 00000KT 3SM BR OVC041 M05/M06 A2998 810 96 -1400 000/00 RMK AO2
14837KMSN MSN20031214062510812/14/03 06:25:31  5-MIN KMSN 141225Z 00000KT 3SM BR FEW031 OVC041 M05/M06 A2998 810 96 -1400 000/00 RMK AO2
14837KMSN MSN20031214063011512/14/03 06:30:31  5-MIN KMSN 141230Z 00000KT 3SM BR SCT020 SCT031 OVC041 M05/M06 A2998 810 96 -1400 000/00 RMK AO2
14837KMSN MSN20031214063511512/14/03 06:35:31  5-MIN KMSN 141235Z 00000KT 3SM BR SCT020 BKN031 OVC041 M04/M06 A2997 820 92 -1300 000/00 RMK AO2
14837KMSN MSN20031214064011512/14/03 06:40:31  5-MIN KMSN 141240Z 00000KT 3SM BR FEW020 SCT031 OVC041 M05/M06 A2997 820 96 -1400 000/00 RMK AO2
14837KMSN MSN20031214064513112/14/03 06:45:31  5-MIN KMSN 141245Z 00000KT 3SM -SN BR FEW020 SCT031 OVC041 M05/M06 A2997 810 96 -1400 000/00 RMK AO2 SNB43 P0000
14837KMSN MSN20031214065015212/14/03 06:50:31  5-MIN KMSN 141250Z 00000KT 2 1/2SM -SN BR FEW020 SCT031 OVC041 M05/M06 A2997 820 92 -1400 000/00 RMK AO2 SNB43 SLP162 P0000 T10501061
14837KMSN MSN20031214065512212/14/03 06:55:31  5-MIN KMSN 141255Z 00000KT 2 1/2SM -SN BR SCT020 OVC041 M05/M06 A2997 820 96 -1400 000/00 RMK AO2 P0000
14837KMSN MSN20031214070013212/14/03 07:00:31  5-MIN KMSN 141300Z 00000KT 2 1/2SM -SN BR SCT018 OVC041 M05/M06 A2997 820 92 -1400 000/00 RMK AO2 TWR VIS 3 P0000
14837KMSN MSN20031214070513212/14/03 07:05:31  5-MIN KMSN 141305Z 00000KT 2 1/2SM -SN BR BKN018 OVC041 M06/M06 A2996 820 96 -1400 000/00 RMK AO2 TWR VIS 3 P0000
14837KMSN MSN20031214071013212/14/03 07:10:31  5-MIN KMSN 141310Z 00000KT 2 1/2SM -SN BR BKN018 OVC041 M06/M06 A2997 820 96 -1400 000/00 RMK AO2 TWR VIS 3 P0000
14837KMSN MSN20031214071513512/14/03 07:15:31  5-MIN KMSN 141315Z 00000KT 2SM -SN BR BKN018 BKN041 OVC090 M06/M06 A2996 820 96 -1400 000/00 RMK AO2 TWR VIS 3 P0000
14837KMSN MSN20031214072013212/14/03 07:20:31  5-MIN KMSN 141320Z 00000KT 2SM -SN BR BKN018 OVC085 M06/M06 A2996 830 96 -1400 000/00 RMK AO2 TWR VIS 2 1/2 P0000
14837KMSN MSN20031214072513612/14/03 07:25:31  5-MIN KMSN 141325Z 00000KT 1 1/2SM -SN BR SCT018 BKN085 M06/M07 A2996 830 92 -1500 000/00 RMK AO2 TWR VIS 2 1/2 P0000
14837KMSN MSN20031214073013612/14/03 07:30:31  5-MIN KMSN 141330Z 00000KT 3/4SM BR SCT018 BKN085 M06/M07 A2996 830 96 -1500 000/00 RMK AO2 TWR VIS 2 1/2 SNE29 P0000
14837KMSN MSN20031214073513612/14/03 07:35:31  5-MIN KMSN 141335Z 00000KT 3/4SM BR SCT018 BKN085 M06/M06 A2996 830 96 -1400 000/00 RMK AO2 TWR VIS 2 1/2 SNE29 P0000
14837KMSN MSN20031214074013612/14/03 07:40:31  5-MIN KMSN 141340Z 00000KT 3/4SM BR SCT018 BKN085 M06/M07 A2996 830 92 -1400 000/00 RMK AO2 TWR VIS 2 1/2 SNE29 P0000
14837KMSN MSN20031214074513612/14/03 07:45:31  5-MIN KMSN 141345Z 00000KT 3/4SM BR SCT018 BKN080 M06/M07 A2996 830 96 -1500 000/00 RMK AO2 TWR VIS 2 1/2 SNE29 P0000
14837KMSN MSN20031214104509912/14/03 10:45:31  5-MIN KMSN 141645Z 22005KT 10SM BKN030 M03/M06 A2995 840 81 -1100 220/05 RMK AO2
14837KMSN MSN20031214105013012/14/03 10:50:31  5-MIN KMSN 141650Z VRB04KT 10SM FEW014 SCT028 BKN034 M03/M06 A2995 840 78 -1000 VRB/04 RMK AO2 SLP153 T10281061
14837KMSN MSN20031214105511312/14/03 10:55:31  5-MIN KMSN 141655Z 27005KT 10SM SCT014 SCT028 OVC034 M03/M07 A2995 840 75 -1000 260/05 RMK AO2
14837KMSN MSN20031214110011312/14/03 11:00:31  5-MIN KMSN 141700Z VRB04KT 10SM SCT014 SCT028 BKN034 M03/M07 A2994 840 75 -1000 VRB/04 RMK AO2
14837KMSN MSN20031214110511312/14/03 11:05:31  5-MIN KMSN 141705Z 27005KT 10SM SCT014 SCT028 BKN034 M03/M07 A2994 840 75 -1000 270/05 RMK AO2
14837KMSN MSN20031214111011312/14/03 11:10:31  5-MIN KMSN 141710Z 00000KT 10SM SCT014 SCT028 BKN034 M03/M06 A2994 850 78 -1000 000/00 RMK AO2
14837KMSN MSN20031214111510612/14/03 11:15:31  5-MIN KMSN 141715Z VRB04KT 10SM SCT014 BKN034 M03/M07 A2994 850 75 -1000 VRB/04 RMK AO2
14837KMSN MSN20031214112010612/14/03 11:20:31  5-MIN KMSN 141720Z 21004KT 10SM SCT014 BKN034 M03/M07 A2994 850 75 -1000 210/04 RMK AO2
14837KMSN MSN20031214112510612/14/03 11:25:31  5-MIN KMSN 141725Z 24006KT 10SM SCT014 BKN034 M03/M06 A2994 850 78 -1000 240/06 RMK AO2
14837KMSN MSN20031214113010612/14/03 11:30:31  5-MIN KMSN 141730Z VRB04KT 10SM SCT014 BKN034 M03/M06 A2994 850 78 -1000 VRB/04 RMK AO2
14837KMSN MSN20031214113510612/14/03 11:35:31  5-MIN KMSN 141735Z VRB04KT 10SM SCT014 BKN034 M03/M06 A2993 850 78 -1000 VRB/04 RMK AO2
14837KMSN MSN20031214114010612/14/03 11:40:31  5-MIN KMSN 141740Z VRB03KT 10SM SCT014 BKN034 M03/M06 A2992 860 78 -1000 VRB/03 RMK AO2
14837KMSN MSN20031214114510612/14/03 11:45:31  5-MIN KMSN 141745Z 19004KT 10SM SCT014 BKN034 M03/M06 A2992 870 78 -1000 190/04 RMK AO2
14837KMSN MSN20031214115014712/14/03 11:50:31  5-MIN KMSN 141750Z 19005KT 10SM FEW020 BKN034 M03/M06 A2992 870 78 -1000 190/05 RMK AO2 SLP144 60000 T10281061 11028 21067 56005
14837KMSN MSN20031214115510612/14/03 11:55:31  5-MIN KMSN 141755Z 21003KT 10SM FEW023 OVC031 M03/M07 A2991 870 75 -1000 210/03 RMK AO2
14837KMSN MSN20031214120010612/14/03 12:00:31  5-MIN KMSN 141800Z 24003KT 10SM FEW020 BKN031 M03/M07 A2991 880 75 -1000 240/03 RMK AO2
14837KMSN MSN20031214120510612/14/03 12:05:31  5-MIN KMSN 141805Z 22003KT 10SM FEW020 BKN031 M03/M07 A2991 870 75 -1000 220/03 RMK AO2
14837KMSN MSN20031214121010512/14/03 12:10:31  5-MIN KMSN 141810Z 26004KT 10SM FEW020 BKN031 M02/M06 A2991 870 75 -900 260/04 RMK AO2
14837KMSN MSN20031214121510512/14/03 12:15:31  5-MIN KMSN 141815Z 24004KT 10SM FEW020 BKN031 M02/M07 A2991 870 72 -900 240/04 RMK AO2
14837KMSN MSN20031214122010512/14/03 12:20:31  5-MIN KMSN 141820Z 26004KT 10SM FEW020 BKN031 M02/M07 A2990 880 72 -900 260/04 RMK AO2
14837KMSN MSN20031214122509812/14/03 12:25:31  5-MIN KMSN 141825Z 23003KT 10SM BKN031 M02/M07 A2990 880 72 -900 230/03 RMK AO2
14837KMSN MSN20031214123009812/14/03 12:30:31  5-MIN KMSN 141830Z 23004KT 10SM BKN031 M02/M07 A2990 880 72 -900 230/04 RMK AO2
14837KMSN MSN20031214123509812/14/03 12:35:31  5-MIN KMSN 141835Z 26004KT 10SM BKN031 M02/M07 A2990 880 72 -900 260/04 RMK AO2
14837KMSN MSN20031214124009812/14/03 12:40:31  5-MIN KMSN 141840Z 27006KT 10SM BKN031 M02/M06 A2990 880 75 -900 270/06 RMK AO2
14837KMSN MSN20031214124509812/14/03 12:45:31  5-MIN KMSN 141845Z 24005KT 10SM BKN031 M02/M06 A2990 880 75 -900 240/05 RMK AO2
14837KMSN MSN20031214125011512/14/03 12:50:31  5-MIN KMSN 141850Z 25004KT 10SM BKN031 M02/M06 A2991 880 75 -900 250/04 RMK AO2 SLP139 T10221061
14837KMSN MSN20031214125510512/14/03 12:55:31  5-MIN KMSN 141855Z 25005KT 10SM FEW020 OVC031 M02/M06 A2991 880 75 -900 250/05 RMK AO2
14837KMSN MSN20031214130010512/14/03 13:00:31  5-MIN KMSN 141900Z 23004KT 10SM FEW020 OVC031 M02/M06 A2990 880 75 -900 230/04 RMK AO2
14837KMSN MSN20031214130510512/14/03 13:05:31  5-MIN KMSN 141905Z VRB04KT 10SM SCT020 OVC031 M02/M06 A2990 880 75 -900 VRB/04 RMK AO2
14837KMSN MSN20031214131010512/14/03 13:10:31  5-MIN KMSN 141910Z VRB04KT 10SM BKN020 BKN031 M02/M06 A2990 880 75 -900 VRB/04 RMK AO2
14837KMSN MSN20031214131510512/14/03 13:15:31  5-MIN KMSN 141915Z 22004KT 10SM BKN020 BKN031 M02/M06 A2990 880 75 -900 220/04 RMK AO2
14837KMSN MSN20031214132010512/14/03 13:20:31  5-MIN KMSN 141920Z 22003KT 10SM BKN020 BKN031 M02/M06 A2990 890 75 -900 220/03 RMK AO2
14837KMSN MSN20031214132510512/14/03 13:25:31  5-MIN KMSN 141925Z 25004KT 10SM BKN020 BKN031 M02/M06 A2989 890 75 -900 250/04 RMK AO2
14837KMSN MSN20031214133010512/14/03 13:30:31  5-MIN KMSN 141930Z 23003KT 10SM BKN020 OVC031 M02/M06 A2989 890 75 -900 230/03 RMK AO2
14837KMSN MSN20031214133510512/14/03 13:35:31  5-MIN KMSN 141935Z VRB05KT 10SM BKN020 OVC031 M02/M06 A2989 890 72 -800 VRB/05 RMK AO2
14837KMSN MSN20031214134010512/14/03 13:40:31  5-MIN KMSN 141940Z 22005KT 10SM BKN020 OVC031 M02/M06 A2989 890 72 -800 220/05 RMK AO2
14837KMSN MSN20031214134510512/14/03 13:45:31  5-MIN KMSN 141945Z 21006KT 10SM BKN020 OVC031 M02/M06 A2989 890 75 -900 210/06 RMK AO2
14837KMSN MSN20031214135012212/14/03 13:50:31  5-MIN KMSN 141950Z VRB05KT 10SM BKN020 OVC031 M02/M06 A2989 890 72 -800 VRB/05 RMK AO2 SLP134 T10171061
14837KMSN MSN20031214135509812/14/03 13:55:31  5-MIN KMSN 141955Z 23006KT 10SM OVC020 M02/M06 A2989 890 75 -900 230/06 RMK AO2
14837KMSN MSN20031214140009812/14/03 14:00:31  5-MIN KMSN 142000Z 24007KT 10SM OVC020 M02/M06 A2990 890 75 -900 240/07 RMK AO2
14837KMSN MSN20031214140509812/14/03 14:05:31  5-MIN KMSN 142005Z 23007KT 10SM OVC020 M02/M06 A2990 890 75 -900 230/07 RMK AO2
14837KMSN MSN20031214141009812/14/03 14:10:31  5-MIN KMSN 142010Z 22008KT 10SM OVC020 M02/M07 A2990 880 72 -900 220/08 RMK AO2
14837KMSN MSN20031214141509812/14/03 14:15:31  5-MIN KMSN 142015Z 24005KT 10SM OVC020 M02/M07 A2990 880 72 -900 230/05 RMK AO2
14837KMSN MSN20031214142009812/14/03 14:20:31  5-MIN KMSN 142020Z 24007KT 10SM OVC020 M02/M06 A2990 880 75 -900 240/07 RMK AO2
14837KMSN MSN20031214142509812/14/03 14:25:31  5-MIN KMSN 142025Z 24007KT 10SM OVC018 M02/M06 A2990 880 75 -900 230/07 RMK AO2
14837KMSN MSN20031214143009812/14/03 14:30:31  5-MIN KMSN 142030Z 21005KT 10SM OVC018 M02/M06 A2990 880 75 -900 210/05 RMK AO2
14837KMSN MSN20031214143509812/14/03 14:35:31  5-MIN KMSN 142035Z 22006KT 10SM OVC018 M02/M06 A2990 880 75 -900 220/06 RMK AO2
14837KMSN MSN20031214144009812/14/03 14:40:31  5-MIN KMSN 142040Z VRB06KT 10SM OVC018 M02/M06 A2990 880 75 -900 VRB/06 RMK AO2
14837KMSN MSN20031214144509812/14/03 14:45:31  5-MIN KMSN 142045Z 23006KT 10SM OVC018 M02/M06 A2991 880 75 -900 230/06 RMK AO2
14837KMSN MSN20031214145012212/14/03 14:50:31  5-MIN KMSN 142050Z 22007KT 10SM OVC018 M03/M06 A2990 880 78 -1000 220/07 RMK AO2 SLP139 T10281061 58015
14837KMSN MSN20031214145509912/14/03 14:55:31  5-MIN KMSN 142055Z 22006KT 10SM OVC018 M03/M06 A2991 880 78 -1000 220/06 RMK AO2
14837KMSN MSN20031214150009912/14/03 15:00:31  5-MIN KMSN 142100Z 23005KT 10SM OVC016 M03/M06 A2991 880 78 -1000 230/05 RMK AO2
14837KMSN MSN20031214150509912/14/03 15:05:31  5-MIN KMSN 142105Z 20006KT 10SM OVC016 M03/M06 A2991 870 78 -1000 200/06 RMK AO2
14837KMSN MSN20031214151009912/14/03 15:10:31  5-MIN KMSN 142110Z 20006KT 10SM OVC016 M03/M06 A2991 870 78 -1000 200/06 RMK AO2
14837KMSN MSN20031214151509912/14/03 15:15:31  5-MIN KMSN 142115Z 20006KT 10SM OVC016 M03/M06 A2991 870 78 -1000 200/06 RMK AO2
14837KMSN MSN20031214152009912/14/03 15:20:31  5-MIN KMSN 142120Z 20006KT 10SM OVC016 M03/M06 A2991 870 78 -1000 200/06 RMK AO2
14837KMSN MSN20031214152510612/14/03 15:25:31  5-MIN KMSN 142125Z 21005KT 10SM BKN016 OVC023 M03/M06 A2992 870 78 -1000 210/05 RMK AO2
14837KMSN MSN20031214153010612/14/03 15:30:31  5-MIN KMSN 142130Z 20004KT 10SM BKN016 OVC023 M03/M06 A2991 870 78 -1000 200/04 RMK AO2
14837KMSN MSN20031214153510612/14/03 15:35:31  5-MIN KMSN 142135Z 19005KT 10SM SCT016 OVC023 M03/M06 A2991 880 81 -1100 190/05 RMK AO2
14837KMSN MSN20031214154009812/14/03 15:40:31  5-MIN KMSN 142140Z 18005KT 9SM OVC020 M03/M07 A2991 880 78 -1100 180/05 RMK AO2
14837KMSN MSN20031214154509812/14/03 15:45:31  5-MIN KMSN 142145Z 18005KT 9SM OVC020 M03/M07 A2991 880 75 -1000 180/05 RMK AO2
14837KMSN MSN20031214155011612/14/03 15:50:31  5-MIN KMSN 142150Z 18004KT 10SM BKN020 M03/M06 A2991 880 78 -1000 180/04 RMK AO2 SLP139 T10281061
14837KMSN MSN20031214155510512/14/03 15:55:31  5-MIN KMSN 142155Z 18005KT 9SM FEW016 OVC020 M03/M06 A2990 880 78 -1000 180/05 RMK AO2
14837KMSN MSN20031214160009812/14/03 16:00:31  5-MIN KMSN 142200Z 18006KT 9SM OVC020 M03/M06 A2991 880 78 -1000 180/06 RMK AO2
14837KMSN MSN20031214160510512/14/03 16:05:31  5-MIN KMSN 142205Z 18005KT 8SM SCT015 OVC020 M03/M06 A2991 880 81 -1000 180/05 RMK AO2
14837KMSN MSN20031214161010512/14/03 16:10:31  5-MIN KMSN 142210Z 19005KT 8SM SCT015 OVC020 M03/M06 A2991 880 78 -1000 190/05 RMK AO2
14837KMSN MSN20031214161510512/14/03 16:15:31  5-MIN KMSN 142215Z 18006KT 8SM BKN015 OVC020 M03/M06 A2991 880 78 -1000 180/06 RMK AO2
14837KMSN MSN20031214162010512/14/03 16:20:31  5-MIN KMSN 142220Z 18006KT 8SM BKN015 OVC020 M03/M06 A2991 880 85 -1100 180/06 RMK AO2
14837KMSN MSN20031214162510512/14/03 16:25:31  5-MIN KMSN 142225Z 18005KT 8SM BKN015 OVC020 M03/M06 A2991 880 78 -1000 180/05 RMK AO2
14837KMSN MSN20031214163009812/14/03 16:30:31  5-MIN KMSN 142230Z 18005KT 8SM OVC015 M03/M06 A2991 870 85 -1100 180/05 RMK AO2
14837KMSN MSN20031214163509812/14/03 16:35:31  5-MIN KMSN 142235Z 17005KT 9SM OVC015 M03/M06 A2991 870 78 -1000 170/05 RMK AO2
14837KMSN MSN20031214164009812/14/03 16:40:31  5-MIN KMSN 142240Z 18005KT 9SM OVC015 M03/M06 A2991 880 81 -1100 180/05 RMK AO2
14837KMSN MSN20031214164509812/14/03 16:45:31  5-MIN KMSN 142245Z 17006KT 8SM OVC015 M03/M06 A2990 880 85 -1100 170/06 RMK AO2
14837KMSN MSN20031214165011512/14/03 16:50:31  5-MIN KMSN 142250Z 17006KT 8SM OVC015 M03/M06 A2990 880 81 -1100 170/06 RMK AO2 SLP138 T10331061
14837KMSN MSN20031214165509812/14/03 16:55:31  5-MIN KMSN 142255Z 18006KT 9SM OVC015 M03/M06 A2990 880 81 -1100 180/06 RMK AO2
14837KMSN MSN20031214170009812/14/03 17:00:31  5-MIN KMSN 142300Z 17006KT 9SM OVC015 M03/M06 A2991 880 81 -1100 170/06 RMK AO2
14837KMSN MSN20031214170509812/14/03 17:05:31  5-MIN KMSN 142305Z 18007KT 9SM OVC015 M03/M06 A2991 880 81 -1100 180/07 RMK AO2
14837KMSN MSN20031214171009812/14/03 17:10:31  5-MIN KMSN 142310Z 19007KT 9SM OVC015 M03/M06 A2991 870 81 -1000 180/07 RMK AO2
14837KMSN MSN20031214171509812/14/03 17:15:31  5-MIN KMSN 142315Z 19006KT 9SM OVC015 M03/M06 A2991 870 78 -1000 190/06 RMK AO2
14837KMSN MSN20031214172009812/14/03 17:20:31  5-MIN KMSN 142320Z 18007KT 9SM OVC015 M03/M06 A2991 880 81 -1100 180/07 RMK AO2
14837KMSN MSN20031214172509812/14/03 17:25:31  5-MIN KMSN 142325Z 18005KT 9SM OVC015 M03/M06 A2991 880 78 -1000 180/05 RMK AO2
14837KMSN MSN20031214173009812/14/03 17:30:31  5-MIN KMSN 142330Z 19007KT 9SM OVC015 M03/M06 A2990 880 78 -1000 190/07 RMK AO2
14837KMSN MSN20031214173509912/14/03 17:35:31  5-MIN KMSN 142335Z 18006KT 10SM OVC015 M03/M07 A2990 880 78 -1100 180/06 RMK AO2
14837KMSN MSN20031214174009912/14/03 17:40:31  5-MIN KMSN 142340Z 18006KT 10SM OVC015 M03/M06 A2990 880 81 -1100 180/06 RMK AO2
14837KMSN MSN20031214174509912/14/03 17:45:31  5-MIN KMSN 142345Z 19006KT 10SM OVC015 M03/M06 A2991 880 78 -1000 190/06 RMK AO2
14837KMSN MSN20031214175014012/14/03 17:50:31  5-MIN KMSN 142350Z 18006KT 10SM OVC015 M03/M06 A2990 880 81 -1100 180/06 RMK AO2 SLP138 4/002 T10331061 11017 21033 55003
14837KMSN MSN20031214175509912/14/03 17:55:31  5-MIN KMSN 142355Z 19006KT 10SM OVC015 M03/M06 A2990 880 81 -1100 190/06 RMK AO2
14837KMSN MSN20031214180009912/14/03 18:00:31  5-MIN KMSN 150000Z 17007KT 10SM OVC015 M03/M06 A2990 880 81 -1100 170/07 RMK AO2
14837KMSN MSN20031214180509912/14/03 18:05:31  5-MIN KMSN 150005Z 17006KT 10SM OVC015 M03/M06 A2990 890 81 -1100 170/06 RMK AO2
14837KMSN MSN20031214181009912/14/03 18:10:31  5-MIN KMSN 150010Z 18006KT 10SM OVC015 M03/M06 A2990 890 81 -1100 170/06 RMK AO2
14837KMSN MSN20031214181509912/14/03 18:15:31  5-MIN KMSN 150015Z 18006KT 10SM OVC015 M03/M06 A2989 890 81 -1100 170/06 RMK AO2
14837KMSN MSN20031214182009912/14/03 18:20:31  5-MIN KMSN 150020Z 17007KT 10SM OVC015 M03/M06 A2989 890 81 -1100 170/07 RMK AO2
14837KMSN MSN20031214182509912/14/03 18:25:31  5-MIN KMSN 150025Z 19006KT 10SM OVC015 M03/M06 A2989 890 81 -1100 190/06 RMK AO2
14837KMSN MSN20031214183009912/14/03 18:30:31  5-MIN KMSN 150030Z 17006KT 10SM OVC015 M03/M06 A2989 890 81 -1100 170/06 RMK AO2
14837KMSN MSN20031214183509912/14/03 18:35:31  5-MIN KMSN 150035Z 18006KT 10SM OVC015 M03/M06 A2989 890 81 -1100 180/06 RMK AO2
14837KMSN MSN20031214184009912/14/03 18:40:31  5-MIN KMSN 150040Z 19007KT 10SM OVC015 M03/M06 A2989 890 85 -1100 190/07 RMK AO2
14837KMSN MSN20031214184509912/14/03 18:45:31  5-MIN KMSN 150045Z 17007KT 10SM OVC015 M03/M06 A2989 890 81 -1100 170/07 RMK AO2
14837KMSN MSN20031214185011612/14/03 18:50:31  5-MIN KMSN 150050Z 17006KT 10SM OVC015 M03/M07 A2989 890 78 -1100 170/06 RMK AO2 SLP134 T10331067
14837KMSN MSN20031214185509912/14/03 18:55:31  5-MIN KMSN 150055Z 18006KT 10SM OVC015 M03/M06 A2989 890 81 -1100 180/06 RMK AO2
14837KMSN MSN20031214190009912/14/03 19:00:31  5-MIN KMSN 150100Z 18008KT 10SM OVC015 M03/M06 A2989 890 81 -1100 180/08 RMK AO2
14837KMSN MSN20031214190509912/14/03 19:05:31  5-MIN KMSN 150105Z 18008KT 10SM OVC015 M03/M06 A2989 890 81 -1100 180/08 RMK AO2
14837KMSN MSN20031214191009912/14/03 19:10:31  5-MIN KMSN 150110Z 18007KT 10SM OVC015 M03/M06 A2989 890 81 -1100 180/07 RMK AO2
14837KMSN MSN20031214191509912/14/03 19:15:31  5-MIN KMSN 150115Z 20006KT 10SM OVC015 M03/M06 A2989 890 81 -1100 200/06 RMK AO2
14837KMSN MSN20031214192009912/14/03 19:20:31  5-MIN KMSN 150120Z 19007KT 10SM OVC015 M03/M06 A2989 890 81 -1100 190/07 RMK AO2
14837KMSN MSN20031214192509912/14/03 19:25:31  5-MIN KMSN 150125Z 19006KT 10SM OVC015 M03/M06 A2989 890 81 -1100 190/06 RMK AO2
14837KMSN MSN20031214193009912/14/03 19:30:31  5-MIN KMSN 150130Z 19009KT 10SM OVC015 M03/M06 A2990 880 81 -1100 190/09 RMK AO2
14837KMSN MSN20031214193509912/14/03 19:35:31  5-MIN KMSN 150135Z 19008KT 10SM OVC015 M03/M06 A2990 880 81 -1100 190/08 RMK AO2
14837KMSN MSN20031214194009912/14/03 19:40:31  5-MIN KMSN 150140Z 19009KT 10SM OVC015 M03/M06 A2989 890 81 -1100 190/09 RMK AO2
14837KMSN MSN20031214194509912/14/03 19:45:31  5-MIN KMSN 150145Z 18008KT 10SM OVC015 M03/M06 A2989 890 81 -1100 180/08 RMK AO2
14837KMSN MSN20031214195011612/14/03 19:50:31  5-MIN KMSN 150150Z 19009KT 10SM OVC015 M03/M06 A2989 890 81 -1100 180/09 RMK AO2 SLP136 T10331061
14837KMSN MSN20031214195509912/14/03 19:55:31  5-MIN KMSN 150155Z 19008KT 10SM OVC013 M03/M06 A2989 890 81 -1100 190/08 RMK AO2
14837KMSN MSN20031214200009912/14/03 20:00:31  5-MIN KMSN 150200Z 18008KT 10SM OVC013 M03/M06 A2989 890 81 -1100 180/08 RMK AO2
14837KMSN MSN20031214200509812/14/03 20:05:31  5-MIN KMSN 150205Z 18008KT 9SM OVC013 M03/M06 A2989 890 81 -1100 180/08 RMK AO2
14837KMSN MSN20031214201009812/14/03 20:10:31  5-MIN KMSN 150210Z 18009KT 9SM OVC013 M03/M06 A2989 890 81 -1100 180/09 RMK AO2
14837KMSN MSN20031214201509812/14/03 20:15:31  5-MIN KMSN 150215Z 18010KT 9SM OVC013 M03/M06 A2989 890 81 -1100 180/10 RMK AO2
14837KMSN MSN20031214202009812/14/03 20:20:31  5-MIN KMSN 150220Z 18009KT 9SM OVC013 M03/M06 A2989 890 81 -1100 180/09 RMK AO2
14837KMSN MSN20031214202509812/14/03 20:25:31  5-MIN KMSN 150225Z 19010KT 9SM OVC013 M03/M06 A2989 890 81 -1100 190/10 RMK AO2
14837KMSN MSN20031214203009812/14/03 20:30:31  5-MIN KMSN 150230Z 18008KT 9SM OVC013 M03/M06 A2989 890 81 -1100 180/08 RMK AO2
14837KMSN MSN20031214203509812/14/03 20:35:31  5-MIN KMSN 150235Z 18011KT 9SM OVC013 M03/M06 A2989 890 81 -1100 170/11 RMK AO2
14837KMSN MSN20031214204009812/14/03 20:40:31  5-MIN KMSN 150240Z 18010KT 9SM OVC013 M03/M06 A2989 890 81 -1100 180/10 RMK AO2
14837KMSN MSN20031214204509812/14/03 20:45:31  5-MIN KMSN 150245Z 19011KT 8SM OVC013 M03/M06 A2989 890 81 -1100 190/11 RMK AO2
14837KMSN MSN20031214205012212/14/03 20:50:31  5-MIN KMSN 150250Z 20008KT 10SM OVC013 M03/M06 A2989 890 81 -1100 200/08 RMK AO2 SLP135 T10331061 57001
14837KMSN MSN20031214205509812/14/03 20:55:31  5-MIN KMSN 150255Z 19010KT 8SM OVC013 M03/M06 A2989 890 81 -1100 190/10 RMK AO2
14837KMSN MSN20031214210009812/14/03 21:00:31  5-MIN KMSN 150300Z 18009KT 8SM OVC013 M03/M06 A2989 890 81 -1100 180/09 RMK AO2
14837KMSN MSN20031214210509812/14/03 21:05:31  5-MIN KMSN 150305Z 18011KT 8SM OVC013 M03/M06 A2989 890 85 -1100 180/11 RMK AO2
14837KMSN MSN20031214211009812/14/03 21:10:31  5-MIN KMSN 150310Z 19009KT 8SM OVC013 M03/M06 A2989 890 85 -1100 190/09 RMK AO2
14837KMSN MSN20031214211509812/14/03 21:15:31  5-MIN KMSN 150315Z 19010KT 8SM OVC013 M03/M06 A2989 890 85 -1100 190/10 RMK AO2
14837KMSN MSN20031214212010412/14/03 21:20:31  5-MIN KMSN 150320Z 19006G15KT 8SM OVC013 M03/M06 A2989 890 81 -1100 190/06G15 RMK AO2
14837KMSN MSN20031214212509812/14/03 21:25:31  5-MIN KMSN 150325Z 20009KT 8SM OVC011 M03/M06 A2989 890 81 -1100 200/09 RMK AO2
14837KMSN MSN20031214213009812/14/03 21:30:31  5-MIN KMSN 150330Z 19010KT 8SM OVC011 M03/M06 A2990 890 81 -1100 190/10 RMK AO2
14837KMSN MSN20031214213509812/14/03 21:35:31  5-MIN KMSN 150335Z 20009KT 8SM OVC011 M03/M06 A2990 890 81 -1100 200/09 RMK AO2
14837KMSN MSN20031214214009812/14/03 21:40:31  5-MIN KMSN 150340Z 19008KT 8SM OVC011 M03/M06 A2989 890 81 -1100 190/08 RMK AO2
14837KMSN MSN20031214214509812/14/03 21:45:31  5-MIN KMSN 150345Z 19010KT 8SM OVC011 M03/M06 A2989 890 81 -1100 190/10 RMK AO2
14837KMSN MSN20031214215012112/14/03 21:50:31  5-MIN KMSN 150350Z 19008G16KT 8SM OVC011 M03/M06 A2989 890 85 -1100 190/08G16 RMK AO2 SLP134 T10331056
14837KMSN MSN20031214215510412/14/03 21:55:31  5-MIN KMSN 150355Z 18012G16KT 7SM OVC011 M03/M06 A2989 890 81 -1100 180/12G16 RMK AO2
14837KMSN MSN20031214220009812/14/03 22:00:31  5-MIN KMSN 150400Z 19009KT 7SM OVC011 M03/M06 A2989 900 85 -1000 180/09 RMK AO2
14837KMSN MSN20031214220509812/14/03 22:05:31  5-MIN KMSN 150405Z 18009KT 7SM OVC011 M03/M06 A2989 900 85 -1000 180/09 RMK AO2
14837KMSN MSN20031214221009812/14/03 22:10:31  5-MIN KMSN 150410Z 19009KT 7SM OVC011 M03/M06 A2989 890 85 -1100 190/09 RMK AO2
14837KMSN MSN20031214221509812/14/03 22:15:31  5-MIN KMSN 150415Z 19010KT 7SM OVC011 M03/M06 A2989 890 85 -1100 190/10 RMK AO2
14837KMSN MSN20031214222011412/14/03 22:20:31  5-MIN KMSN 150420Z 18011KT 7SM -SN OVC011 M03/M06 A2989 890 85 -1100 180/11 RMK AO2 SNB17 P0000
14837KMSN MSN20031214222511412/14/03 22:25:31  5-MIN KMSN 150425Z 19009KT 7SM -SN OVC011 M03/M06 A2989 890 85 -1100 180/09 RMK AO2 SNB17 P0000
14837KMSN MSN20031214223011712/14/03 22:30:31  5-MIN KMSN 150430Z 18012KT 6SM -SN BR OVC011 M03/M06 A2989 890 85 -1100 180/12 RMK AO2 SNB17 P0000
14837KMSN MSN20031214223512312/14/03 22:35:31  5-MIN KMSN 150435Z 19010G16KT 6SM -SN BR OVC011 M03/M06 A2989 890 85 -1100 190/10G16 RMK AO2 SNB17 P0000
14837KMSN MSN20031214224011712/14/03 22:40:31  5-MIN KMSN 150440Z 19009KT 6SM -SN BR OVC009 M03/M06 A2989 890 85 -1100 190/09 RMK AO2 SNB17 P0000
14837KMSN MSN20031214224511412/14/03 22:45:31  5-MIN KMSN 150445Z 19008KT 7SM -SN OVC009 M03/M06 A2989 890 85 -1100 190/08 RMK AO2 SNB17 P0000
14837KMSN MSN20031214225013112/14/03 22:50:31  5-MIN KMSN 150450Z 20007KT 7SM -SN OVC009 M03/M06 A2989 900 85 -1000 190/07 RMK AO2 SNB17 SLP132 P0000 T10331056
14837KMSN MSN20031214225511112/14/03 22:55:31  5-MIN KMSN 150455Z 18011KT 6SM -SN BR OVC009 M03/M06 A2989 890 85 -1100 180/11 RMK AO2 P0000
14837KMSN MSN20031214230011112/14/03 23:00:31  5-MIN KMSN 150500Z 18009KT 6SM -SN BR OVC009 M03/M06 A2988 900 85 -1000 180/09 RMK AO2 P0000
14837KMSN MSN20031214230511112/14/03 23:05:31  5-MIN KMSN 150505Z 18011KT 6SM -SN BR OVC009 M03/M06 A2988 900 85 -1000 180/11 RMK AO2 P0000
14837KMSN MSN20031214231010812/14/03 23:10:31  5-MIN KMSN 150510Z 17009KT 6SM -SN OVC009 M03/M06 A2987 910 81 -1000 170/09 RMK AO2 P0000
14837KMSN MSN20031214231510812/14/03 23:15:31  5-MIN KMSN 150515Z 18011KT 6SM -SN OVC009 M03/M06 A2987 910 81 -1000 180/11 RMK AO2 P0000
14837KMSN MSN20031214232010812/14/03 23:20:31  5-MIN KMSN 150520Z 16014KT 6SM -SN OVC009 M03/M06 A2986 920 81 -1000 160/14 RMK AO2 P0000
14837KMSN MSN20031214232510812/14/03 23:25:31  5-MIN KMSN 150525Z 17011KT 6SM -SN OVC009 M03/M06 A2986 920 81 -1000 170/11 RMK AO2 P0000
14837KMSN MSN20031214233010812/14/03 23:30:31  5-MIN KMSN 150530Z 18011KT 6SM -SN OVC009 M03/M06 A2986 920 81 -1000 180/11 RMK AO2 P0000
14837KMSN MSN20031214233510812/14/03 23:35:31  5-MIN KMSN 150535Z 16013KT 6SM -SN OVC009 M03/M06 A2986 920 81 -1000 160/13 RMK AO2 P0000
14837KMSN MSN20031214234010812/14/03 23:40:31  5-MIN KMSN 150540Z 17012KT 6SM -SN OVC009 M03/M06 A2986 920 81 -1000 170/12 RMK AO2 P0000
14837KMSN MSN20031214234510812/14/03 23:45:31  5-MIN KMSN 150545Z 17011KT 6SM -SN OVC009 M03/M06 A2987 910 81 -1000 170/11 RMK AO2 P0000
14837KMSN MSN20031214235016212/14/03 23:50:31  5-MIN KMSN 150550Z 17013KT 6SM -SN BR OVC009 M03/M06 A2987 920 85 -1000 170/13 RMK AO2 SLP124 P0000 60000 T10331056 11033 21033 410171072 56004
14837KMSN MSN20031214235511112/14/03 23:55:31  5-MIN KMSN 150555Z 18011KT 6SM -SN BR OVC009 M03/M06 A2987 910 85 -1000 180/11 RMK AO2 P0000
14837KMSN MSN20031215000011112/15/03 00:00:31  5-MIN KMSN 150600Z 18012KT 5SM -SN BR OVC009 M03/M06 A2987 910 85 -1000 180/12 RMK AO2 P0000
14837KMSN MSN20031215000511112/15/03 00:05:31  5-MIN KMSN 150605Z 18010KT 5SM -SN BR OVC009 M03/M06 A2987 910 85 -1000 180/10 RMK AO2 P0000
14837KMSN MSN20031215001011112/15/03 00:10:31  5-MIN KMSN 150610Z 18009KT 5SM -SN BR OVC009 M03/M06 A2986 920 85 -1000 180/09 RMK AO2 P0000
14837KMSN MSN20031215001511112/15/03 00:15:31  5-MIN KMSN 150615Z 17011KT 5SM -SN BR OVC009 M03/M06 A2986 920 85 -1000 170/11 RMK AO2 P0000
14837KMSN MSN20031215002010812/15/03 00:20:31  5-MIN KMSN 150620Z 17012KT 5SM -SN OVC009 M03/M06 A2985 930 81 -1000 170/12 RMK AO2 P0000
14837KMSN MSN20031215002510812/15/03 00:25:31  5-MIN KMSN 150625Z 17011KT 5SM -SN OVC009 M03/M06 A2985 930 81 -1000 170/11 RMK AO2 P0000
14837KMSN MSN20031215003010812/15/03 00:30:31  5-MIN KMSN 150630Z 17013KT 5SM -SN OVC009 M03/M06 A2985 930 81 -1000 170/13 RMK AO2 P0000
14837KMSN MSN20031215003510812/15/03 00:35:31  5-MIN KMSN 150635Z 17013KT 5SM -SN OVC009 M03/M06 A2984 940 81 -1000 170/13 RMK AO2 P0000
14837KMSN MSN20031215004010812/15/03 00:40:31  5-MIN KMSN 150640Z 16011KT 5SM -SN OVC007 M03/M06 A2984 940 81 -1000 160/11 RMK AO2 P0000
14837KMSN MSN20031215004510812/15/03 00:45:31  5-MIN KMSN 150645Z 17012KT 5SM -SN OVC007 M03/M06 A2984 940 81 -1000 170/12 RMK AO2 P0000
14837KMSN MSN20031215005012512/15/03 00:50:31  5-MIN KMSN 150650Z 18011KT 5SM -SN OVC007 M03/M06 A2984 940 81 -1000 180/11 RMK AO2 SLP117 P0000 T10331061
14837KMSN MSN20031215005511112/15/03 00:55:31  5-MIN KMSN 150655Z 17013KT 5SM -SN BR OVC007 M03/M06 A2984 940 85 -1000 170/13 RMK AO2 P0000
14837KMSN MSN20031215010011112/15/03 01:00:31  5-MIN KMSN 150700Z 17013KT 5SM -SN BR OVC007 M03/M06 A2984 940 85 -1000 160/13 RMK AO2 P0000
14837KMSN MSN20031215010511112/15/03 01:05:31  5-MIN KMSN 150705Z 17015KT 5SM -SN BR OVC007 M03/M06 A2983 940 85 -1000 160/15 RMK AO2 P0000
14837KMSN MSN20031215011011112/15/03 01:10:31  5-MIN KMSN 150710Z 18014KT 6SM -SN BR OVC007 M03/M06 A2983 950 85 -1000 180/14 RMK AO2 P0000
14837KMSN MSN20031215011511112/15/03 01:15:31  5-MIN KMSN 150715Z 17011KT 6SM -SN BR OVC007 M03/M06 A2983 950 85 -1000 170/11 RMK AO2 P0000
14837KMSN MSN20031215012011112/15/03 01:20:31  5-MIN KMSN 150720Z 18010KT 5SM -SN BR OVC007 M03/M06 A2983 950 85 -1000 180/10 RMK AO2 P0000
14837KMSN MSN20031215012511112/15/03 01:25:31  5-MIN KMSN 150725Z 18012KT 5SM -SN BR OVC007 M03/M05 A2983 950 88 -1000 180/12 RMK AO2 P0000
14837KMSN MSN20031215013011112/15/03 01:30:31  5-MIN KMSN 150730Z 17010KT 5SM -SN BR OVC007 M03/M05 A2983 940 88 -1000 170/10 RMK AO2 P0000
14837KMSN MSN20031215013511112/15/03 01:35:31  5-MIN KMSN 150735Z 18013KT 5SM -SN BR OVC007 M03/M05 A2984 940 88 -1000 180/13 RMK AO2 P0000
14837KMSN MSN20031215014011112/15/03 01:40:31  5-MIN KMSN 150740Z 17013KT 5SM -SN BR OVC007 M03/M05 A2984 940 88 -1000 170/13 RMK AO2 P0000
14837KMSN MSN20031215014511112/15/03 01:45:31  5-MIN KMSN 150745Z 18012KT 5SM -SN BR OVC007 M03/M05 A2984 940 88 -1000 180/12 RMK AO2 P0000
14837KMSN MSN20031215015013012/15/03 01:50:31  5-MIN KMSN 150750Z 19013KT 5SM BR OVC007 M04/M06 A2984 940 88 -1100 190/13 RMK AO2 SNE46 SLP116 P0000 T10391056
14837KMSN MSN20031215015510112/15/03 01:55:31  5-MIN KMSN 150755Z 18014KT 6SM BR OVC007 M04/M06 A2984 940 88 -1100 180/14 RMK AO2
14837KMSN MSN20031215020010112/15/03 02:00:31  5-MIN KMSN 150800Z 17015KT 6SM BR OVC007 M04/M06 A2983 950 88 -1100 170/15 RMK AO2
14837KMSN MSN20031215020510112/15/03 02:05:31  5-MIN KMSN 150805Z 17013KT 6SM BR OVC007 M04/M06 A2983 940 88 -1100 170/13 RMK AO2
14837KMSN MSN20031215021010112/15/03 02:10:31  5-MIN KMSN 150810Z 18013KT 5SM BR OVC007 M04/M06 A2984 940 88 -1100 180/13 RMK AO2
14837KMSN MSN20031215021511712/15/03 02:15:31  5-MIN KMSN 150815Z 18013KT 5SM -SN BR OVC005 M04/M05 A2984 940 92 -1100 180/13 RMK AO2 SNB12 P0000
14837KMSN MSN20031215022011712/15/03 02:20:31  5-MIN KMSN 150820Z 18014KT 5SM -SN BR OVC005 M04/M06 A2984 940 88 -1100 170/14 RMK AO2 SNB12 P0000
14837KMSN MSN20031215022511712/15/03 02:25:31  5-MIN KMSN 150825Z 17014KT 5SM -SN BR OVC005 M04/M06 A2984 940 88 -1100 170/14 RMK AO2 SNB12 P0000
14837KMSN MSN20031215023011712/15/03 02:30:31  5-MIN KMSN 150830Z 17014KT 5SM -SN BR OVC005 M04/M05 A2983 940 92 -1100 170/14 RMK AO2 SNB12 P0000
14837KMSN MSN20031215023511712/15/03 02:35:31  5-MIN KMSN 150835Z 18015KT 5SM -SN BR OVC005 M04/M06 A2983 950 88 -1100 180/15 RMK AO2 SNB12 P0000
14837KMSN MSN20031215024011712/15/03 02:40:31  5-MIN KMSN 150840Z 18013KT 5SM -SN BR OVC005 M04/M06 A2984 940 88 -1100 180/13 RMK AO2 SNB12 P0000
14837KMSN MSN20031215024511712/15/03 02:45:31  5-MIN KMSN 150845Z 18014KT 5SM -SN BR OVC005 M04/M06 A2984 940 88 -1100 180/14 RMK AO2 SNB12 P0000
14837KMSN MSN20031215025014612/15/03 02:50:31  5-MIN KMSN 150850Z 17012KT 5SM -SN BR OVC005 M04/M06 A2984 940 88 -1100 170/12 RMK AO2 SNB12 SLP116 P0000 60000 T10391056 58008
14837KMSN MSN20031215025511112/15/03 02:55:31  5-MIN KMSN 150855Z 18010KT 5SM -SN BR OVC005 M04/M06 A2984 940 88 -1100 180/10 RMK AO2 P0000
14837KMSN MSN20031215030011112/15/03 03:00:31  5-MIN KMSN 150900Z 17011KT 5SM -SN BR OVC005 M04/M06 A2984 940 88 -1100 170/11 RMK AO2 P0000
14837KMSN MSN20031215031011112/15/03 03:10:31  5-MIN KMSN 150910Z 17011KT 5SM -SN BR OVC005 M04/M06 A2983 950 88 -1100 170/11 RMK AO2 P0000
14837KMSN MSN20031215031511312/15/03 03:15:31  5-MIN KMSN 150915Z 17014KT 5SM BR OVC005 M04/M06 A2983 950 88 -1100 170/14 RMK AO2 SNE14 P0000
14837KMSN MSN20031215032011312/15/03 03:20:31  5-MIN KMSN 150920Z 17011KT 5SM BR OVC005 M04/M06 A2983 950 88 -1100 170/11 RMK AO2 SNE14 P0000
14837KMSN MSN20031215032511312/15/03 03:25:31  5-MIN KMSN 150925Z 18014KT 5SM BR OVC005 M04/M06 A2983 950 88 -1100 170/14 RMK AO2 SNE14 P0000
14837KMSN MSN20031215033011312/15/03 03:30:31  5-MIN KMSN 150930Z 17013KT 5SM BR OVC005 M04/M05 A2983 950 92 -1000 170/13 RMK AO2 SNE14 P0000
14837KMSN MSN20031215033511312/15/03 03:35:31  5-MIN KMSN 150935Z 17011KT 5SM BR OVC005 M04/M06 A2983 950 88 -1100 170/11 RMK AO2 SNE14 P0000
14837KMSN MSN20031215034011912/15/03 03:40:31  5-MIN KMSN 150940Z 17013G18KT 4SM BR OVC005 M04/M06 A2982 950 88 -1000 170/13G18 RMK AO2 SNE14 P0000
14837KMSN MSN20031215034511912/15/03 03:45:31  5-MIN KMSN 150945Z 18013G18KT 4SM BR OVC005 M04/M06 A2982 960 88 -1000 180/13G18 RMK AO2 SNE14 P0000
14837KMSN MSN20031215035013012/15/03 03:50:31  5-MIN KMSN 150950Z 17014KT 4SM BR OVC005 M04/M06 A2982 960 88 -1000 170/14 RMK AO2 SNE14 SLP111 P0000 T10391056
14837KMSN MSN20031215035510712/15/03 03:55:31  5-MIN KMSN 150955Z 17016G21KT 4SM BR OVC005 M04/M06 A2982 960 88 -1000 170/16G21 RMK AO2
14837KMSN MSN20031215040010712/15/03 04:00:31  5-MIN KMSN 151000Z 18014G21KT 4SM BR OVC005 M04/M06 A2982 960 88 -1000 180/14G21 RMK AO2
14837KMSN MSN20031215040510112/15/03 04:05:31  5-MIN KMSN 151005Z 18011KT 4SM BR OVC005 M04/M05 A2982 960 92 -1000 180/11 RMK AO2
14837KMSN MSN20031215041010112/15/03 04:10:31  5-MIN KMSN 151010Z 18012KT 4SM BR OVC005 M04/M05 A2982 960 92 -1000 170/12 RMK AO2
14837KMSN MSN20031215041510112/15/03 04:15:31  5-MIN KMSN 151015Z 17014KT 4SM BR OVC005 M04/M05 A2981 960 92 -1000 170/14 RMK AO2
14837KMSN MSN20031215042010112/15/03 04:20:31  5-MIN KMSN 151020Z 17013KT 4SM BR OVC005 M04/M05 A2981 970 92 -1000 170/13 RMK AO2
14837KMSN MSN20031215042510112/15/03 04:25:31  5-MIN KMSN 151025Z 18011KT 3SM BR OVC005 M04/M05 A2981 960 92 -1000 170/11 RMK AO2
14837KMSN MSN20031215043010112/15/03 04:30:31  5-MIN KMSN 151030Z 18014KT 3SM BR OVC005 M04/M05 A2981 960 92 -1000 170/14 RMK AO2
14837KMSN MSN20031215043510712/15/03 04:35:31  5-MIN KMSN 151035Z 17015G20KT 3SM BR OVC005 M04/M05 A2981 960 92 -1000 170/15G20 RMK AO2
14837KMSN MSN20031215044010712/15/03 04:40:31  5-MIN KMSN 151040Z 17013G20KT 3SM BR OVC005 M04/M05 A2981 960 92 -1000 170/13G20 RMK AO2
14837KMSN MSN20031215044511712/15/03 04:45:31  5-MIN KMSN 151045Z 18015KT 3SM -SN BR OVC005 M04/M05 A2982 960 92 -1000 180/15 RMK AO2 SNB43 P0000
14837KMSN MSN20031215045013412/15/03 04:50:31  5-MIN KMSN 151050Z 18014KT 3SM -SN BR OVC005 M04/M05 A2982 960 92 -1000 180/14 RMK AO2 SNB43 SLP109 P0000 T10391050
14837KMSN MSN20031215045511112/15/03 04:55:31  5-MIN KMSN 151055Z 17013KT 3SM -SN BR OVC005 M04/M05 A2982 960 92 -1000 170/13 RMK AO2 P0000
14837KMSN MSN20031215050011112/15/03 05:00:31  5-MIN KMSN 151100Z 18012KT 3SM -SN BR OVC005 M04/M05 A2982 960 92 -1000 170/12 RMK AO2 P0000
14837KMSN MSN20031215050511112/15/03 05:05:31  5-MIN KMSN 151105Z 18011KT 3SM -SN BR OVC005 M04/M05 A2982 960 92 -1000 170/11 RMK AO2 P0000
14837KMSN MSN20031215051011112/15/03 05:10:31  5-MIN KMSN 151110Z 17012KT 3SM -SN BR OVC005 M04/M04 A2981 960 96 -1000 170/12 RMK AO2 P0000
14837KMSN MSN20031215051511112/15/03 05:15:31  5-MIN KMSN 151115Z 18012KT 3SM -SN BR OVC005 M04/M05 A2981 960 92 -1000 180/12 RMK AO2 P0000
14837KMSN MSN20031215052011112/15/03 05:20:31  5-MIN KMSN 151120Z 18013KT 3SM -SN BR OVC005 M04/M05 A2981 970 92 -1000 180/13 RMK AO2 P0000
14837KMSN MSN20031215052511112/15/03 05:25:31  5-MIN KMSN 151125Z 18013KT 3SM -SN BR OVC005 M04/M04 A2981 970 96 -1000 180/13 RMK AO2 P0000
14837KMSN MSN20031215053011112/15/03 05:30:31  5-MIN KMSN 151130Z 18012KT 3SM -SN BR OVC005 M04/M04 A2981 970 96 -1000 180/12 RMK AO2 P0000
14837KMSN MSN20031215053511112/15/03 05:35:31  5-MIN KMSN 151135Z 18013KT 3SM -SN BR OVC005 M04/M05 A2981 960 92 -1000 180/13 RMK AO2 P0000
14837KMSN MSN20031215054011112/15/03 05:40:31  5-MIN KMSN 151140Z 17012KT 3SM -SN BR OVC005 M03/M04 A2982 960 92 -1000 170/12 RMK AO2 P0000
14837KMSN MSN20031215054511112/15/03 05:45:31  5-MIN KMSN 151145Z 17014KT 3SM -SN BR OVC005 M03/M04 A2981 960 92 -1000 170/14 RMK AO2 P0000
14837KMSN MSN20031215055015212/15/03 05:50:31  5-MIN KMSN 151150Z 18010KT 3SM -SN BR OVC005 M03/M04 A2981 970 92 -1000 180/10 RMK AO2 SLP107 P0000 60000 T10331044 11033 21039 56009
14837KMSN MSN20031215055511112/15/03 05:55:31  5-MIN KMSN 151155Z 17013KT 4SM -SN BR OVC005 M03/M04 A2981 970 92 -1000 170/13 RMK AO2 P0000
14837KMSN MSN20031215060011112/15/03 06:00:31  5-MIN KMSN 151200Z 18011KT 4SM -SN BR OVC005 M03/M04 A2981 970 92 -1000 180/11 RMK AO2 P0000
14837KMSN MSN20031215060511112/15/03 06:05:31  5-MIN KMSN 151205Z 18011KT 4SM -SN BR OVC005 M03/M04 A2981 970 92 -1000 180/11 RMK AO2 P0000
14837KMSN MSN20031215061011112/15/03 06:10:31  5-MIN KMSN 151210Z 18013KT 4SM -SN BR OVC005 M03/M04 A2981 970 92 -1000 180/13 RMK AO2 P0000
14837KMSN MSN20031215061511112/15/03 06:15:31  5-MIN KMSN 151215Z 18013KT 4SM -SN BR OVC005 M03/M04 A2981 970 92 -1000 180/13 RMK AO2 P0000
14837KMSN MSN20031215062011112/15/03 06:20:31  5-MIN KMSN 151220Z 18013KT 4SM -SN BR OVC005 M03/M04 A2981 970 92 -1000 180/13 RMK AO2 P0000
14837KMSN MSN20031215062511112/15/03 06:25:31  5-MIN KMSN 151225Z 18014KT 5SM -SN BR OVC005 M03/M04 A2981 970 92 -1000 180/14 RMK AO2 P0000
14837KMSN MSN20031215063011112/15/03 06:30:31  5-MIN KMSN 151230Z 18012KT 5SM -SN BR OVC005 M03/M04 A2981 970 92 -1000 180/12 RMK AO2 P0000
14837KMSN MSN20031215063511712/15/03 06:35:31  5-MIN KMSN 151235Z 18016G20KT 5SM -SN BR OVC005 M03/M04 A2981 970 92 -1000 180/16G20 RMK AO2 P0000
14837KMSN MSN20031215064011712/15/03 06:40:31  5-MIN KMSN 151240Z 17012G21KT 5SM -SN BR OVC005 M03/M04 A2980 970 92 -1000 170/12G21 RMK AO2 P0000
14837KMSN MSN20031215064511712/15/03 06:45:31  5-MIN KMSN 151245Z 18013G19KT 5SM -SN BR OVC005 M03/M04 A2980 970 92 -1000 180/13G19 RMK AO2 P0000
14837KMSN MSN20031215065013412/15/03 06:50:31  5-MIN KMSN 151250Z 18014G19KT 4SM -SN BR OVC005 M03/M04 A2981 970 92 -1000 180/14G19 RMK AO2 SLP105 P0000 T10331044
14837KMSN MSN20031215065511712/15/03 06:55:31  5-MIN KMSN 151255Z 18012G18KT 4SM -SN BR OVC005 M03/M04 A2981 970 92 -1000 180/12G18 RMK AO2 P0000
14837KMSN MSN20031215070011112/15/03 07:00:31  5-MIN KMSN 151300Z 18014KT 4SM -SN BR OVC005 M03/M04 A2981 970 92 -1000 180/14 RMK AO2 P0000
14837KMSN MSN20031215070512112/15/03 07:05:31  5-MIN KMSN 151305Z 17013KT 3SM -SN BR OVC005 M03/M04 A2980 970 92 -1000 170/13 RMK AO2 SFC VIS 4 P0000
14837KMSN MSN20031215071012112/15/03 07:10:31  5-MIN KMSN 151310Z 18010KT 3SM -SN BR OVC005 M03/M04 A2980 980 92 -1000 180/10 RMK AO2 SFC VIS 4 P0000
14837KMSN MSN20031215071512412/15/03 07:15:31  5-MIN KMSN 151315Z 18014KT 2 1/2SM -SN BR OVC005 M03/M04 A2980 980 92 -900 180/14 RMK AO2 SFC VIS 3 P0000
14837KMSN MSN20031215072012412/15/03 07:20:31  5-MIN KMSN 151320Z 17012KT 2SM -SN BR OVC005 M03/M04 A2980 980 92 -900 170/12 RMK AO2 TWR VIS 2 1/2 P0000
14837KMSN MSN20031215072512412/15/03 07:25:31  5-MIN KMSN 151325Z 18010KT 1 1/2SM -SN BR OVC005 M03/M04 A2980 980 96 -900 180/10 RMK AO2 SFC VIS 2 P0000
14837KMSN MSN20031215073011412/15/03 07:30:31  5-MIN KMSN 151330Z 17010KT 1 1/2SM -SN BR OVC003 M03/M04 A2980 980 96 -900 170/10 RMK AO2 P0000
14837KMSN MSN20031215073512012/15/03 07:35:31  5-MIN KMSN 151335Z 17015G19KT 1 1/2SM -SN BR OVC003 M03/M04 A2979 980 96 -900 170/15G19 RMK AO2 P0000
14837KMSN MSN20031215074012012/15/03 07:40:31  5-MIN KMSN 151340Z 17012G19KT 1 1/2SM -SN BR OVC003 M03/M04 A2979 980 96 -900 170/12G19 RMK AO2 P0000
14837KMSN MSN20031215074511412/15/03 07:45:31  5-MIN KMSN 151345Z 17014KT 1 1/2SM -SN BR OVC003 M03/M04 A2979 990 96 -900 170/14 RMK AO2 P0000
14837KMSN MSN20031215075014112/15/03 07:50:31  5-MIN KMSN 151350Z 17012KT 1SM -SN BR OVC003 M03/M04 A2979 990 96 -900 170/12 RMK AO2 TWR VIS 1 1/2 SLP099 P0000 T10331039
14837KMSN MSN20031215075512412/15/03 07:55:31  5-MIN KMSN 151355Z 17011KT 1SM -SN BR OVC003 M03/M04 A2979 980 96 -900 170/11 RMK AO2 SFC VIS 1 1/4 P0000
14837KMSN MSN20031215080012412/15/03 08:00:31  5-MIN KMSN 151400Z 17012KT 1SM -SN BR OVC003 M03/M04 A2980 980 96 -900 170/12 RMK AO2 SFC VIS 1 1/4 P0000
14837KMSN MSN20031215080512412/15/03 08:05:31  5-MIN KMSN 151405Z 17014KT 1SM -SN BR OVC003 M03/M04 A2979 980 96 -900 170/14 RMK AO2 SFC VIS 1 1/4 P0000
14837KMSN MSN20031215081012412/15/03 08:10:31  5-MIN KMSN 151410Z 18011KT 1SM -SN BR OVC003 M03/M04 A2980 980 92 -900 180/11 RMK AO2 SFC VIS 1 1/4 P0000
14837KMSN MSN20031215081512412/15/03 08:15:31  5-MIN KMSN 151415Z 17014KT 1SM -SN BR OVC003 M03/M04 A2980 980 92 -900 170/14 RMK AO2 SFC VIS 1 1/4 P0000
14837KMSN MSN20031215082012612/15/03 08:20:31  5-MIN KMSN 151420Z 17012KT 1SM BR OVC003 M03/M04 A2980 970 92 -900 170/12 RMK AO2 SFC VIS 1 1/2 SNE18 P0000
14837KMSN MSN20031215082512612/15/03 08:25:31  5-MIN KMSN 151425Z 17012KT 1SM BR OVC003 M03/M04 A2980 980 92 -900 170/12 RMK AO2 SFC VIS 1 1/2 SNE18 P0000
14837KMSN MSN20031215083012612/15/03 08:30:31  5-MIN KMSN 151430Z 17012KT 1SM BR OVC003 M03/M03 A2979 980 96 -900 170/12 RMK AO2 SFC VIS 1 1/2 SNE18 P0000
14837KMSN MSN20031215083512612/15/03 08:35:31  5-MIN KMSN 151435Z 17014KT 1SM BR OVC003 M03/M03 A2979 990 96 -900 170/14 RMK AO2 SFC VIS 1 1/2 SNE18 P0000
14837KMSN MSN20031215084012612/15/03 08:40:31  5-MIN KMSN 151440Z 16014KT 1SM BR OVC003 M03/M03 A2979 990 96 -900 160/14 RMK AO2 SFC VIS 1 1/2 SNE18 P0000
14837KMSN MSN20031215084512612/15/03 08:45:31  5-MIN KMSN 151445Z 17014KT 1SM BR OVC003 M03/M03 A2979 980 96 -900 160/14 RMK AO2 SFC VIS 1 1/2 SNE18 P0000
14837KMSN MSN20031215085015512/15/03 08:50:31  5-MIN KMSN 151450Z 17014KT 1SM BR OVC003 M03/M03 A2979 990 96 -900 170/14 RMK AO2 SFC VIS 1 1/2 SNE18 SLP099 P0000 60000 T10281033 56009
14837KMSN MSN20031215085511412/15/03 08:55:31  5-MIN KMSN 151455Z 17014KT 1SM BR OVC003 M03/M03 A2979 990 96 -900 160/14 RMK AO2 SFC VIS 1 1/2
14837KMSN MSN20031215090011412/15/03 09:00:31  5-MIN KMSN 151500Z 16014KT 1SM BR OVC003 M02/M03 A2979 980 92 -800 160/14 RMK AO2 SFC VIS 1 1/2
14837KMSN MSN20031215090511412/15/03 09:05:31  5-MIN KMSN 151505Z 16011KT 1SM BR OVC003 M03/M03 A2979 980 96 -900 160/11 RMK AO2 SFC VIS 1 1/2
14837KMSN MSN20031215091012012/15/03 09:10:31  5-MIN KMSN 151510Z 17014G19KT 1SM BR OVC003 M02/M03 A2979 980 96 -800 170/14G19 RMK AO2 SFC VIS 1 1/2
14837KMSN MSN20031215091511412/15/03 09:15:31  5-MIN KMSN 151515Z 16015KT 1SM BR OVC003 M02/M03 A2979 990 96 -800 160/15 RMK AO2 SFC VIS 1 3/4
14837KMSN MSN20031215092011412/15/03 09:20:31  5-MIN KMSN 151520Z 17015KT 1SM BR OVC003 M02/M03 A2979 990 96 -800 170/15 RMK AO2 SFC VIS 1 3/4
14837KMSN MSN20031215092512012/15/03 09:25:31  5-MIN KMSN 151525Z 16018G21KT 1SM BR OVC003 M02/M03 A2980 980 96 -800 160/18G21 RMK AO2 SFC VIS 1 3/4
14837KMSN MSN20031215093012012/15/03 09:30:31  5-MIN KMSN 151530Z 16017G21KT 1SM BR OVC003 M02/M03 A2980 980 96 -800 160/17G21 RMK AO2 SFC VIS 1 3/4
14837KMSN MSN20031215093512012/15/03 09:35:31  5-MIN KMSN 151535Z 16017G22KT 1SM BR OVC003 M02/M03 A2979 980 96 -800 160/17G22 RMK AO2 SFC VIS 1 3/4
14837KMSN MSN20031215094011612/15/03 09:40:31  5-MIN KMSN 151540Z 17016G22KT 1SM BR OVC003 M02/M03 A2980 980 96 -800 170/16G22 RMK AO2 SFC VIS 2
14837KMSN MSN20031215094511012/15/03 09:45:31  5-MIN KMSN 151545Z 17016KT 1SM BR OVC003 M02/M03 A2980 980 96 -800 170/16 RMK AO2 SFC VIS 2
14837KMSN MSN20031215095012712/15/03 09:50:31  5-MIN KMSN 151550Z 16014KT 1SM BR OVC003 M02/M03 A2980 980 96 -800 160/14 RMK AO2 SFC VIS 2 SLP101 T10221028
14837KMSN MSN20031215095511412/15/03 09:55:31  5-MIN KMSN 151555Z 17012KT 1SM BR OVC003 M02/M03 A2979 980 96 -800 160/12 RMK AO2 SFC VIS 1 3/4
14837KMSN MSN20031215100011412/15/03 10:00:31  5-MIN KMSN 151600Z 16017KT 1SM BR OVC003 M02/M03 A2979 990 96 -800 160/17 RMK AO2 SFC VIS 1 3/4
14837KMSN MSN20031215100511412/15/03 10:05:31  5-MIN KMSN 151605Z 16014KT 1SM BR OVC003 M02/M03 A2979 990 96 -800 160/14 RMK AO2 SFC VIS 1 3/4
14837KMSN MSN20031215101010612/15/03 10:10:31  5-MIN KMSN 151610Z 16014G19KT 2SM BR OVC003 M02/M03 A2979 990 96 -800 160/14G19 RMK AO2
14837KMSN MSN20031215101510612/15/03 10:15:31  5-MIN KMSN 151615Z 16014G19KT 2SM BR OVC003 M02/M03 A2979 990 96 -800 160/14G19 RMK AO2
14837KMSN MSN20031215102010712/15/03 10:20:31  5-MIN KMSN 151620Z 16015G19KT 2SM BR OVC003 M02/M03 A2978 1000 92 -700 160/15G19 RMK AO2
14837KMSN MSN20031215102510112/15/03 10:25:31  5-MIN KMSN 151625Z 16015KT 2SM BR OVC003 M02/M03 A2978 1000 92 -700 160/15 RMK AO2
14837KMSN MSN20031215103010112/15/03 10:30:31  5-MIN KMSN 151630Z 16016KT 2SM BR OVC003 M02/M03 A2977 1000 92 -700 160/16 RMK AO2
14837KMSN MSN20031215103510112/15/03 10:35:31  5-MIN KMSN 151635Z 16014KT 2SM BR OVC003 M02/M03 A2977 1000 92 -700 160/14 RMK AO2
14837KMSN MSN20031215104011112/15/03 10:40:31  5-MIN KMSN 151640Z 16016G20KT 2 1/2SM BR OVC003 M02/M03 A2977 1010 92 -700 160/16G20 RMK AO2
14837KMSN MSN20031215104510512/15/03 10:45:31  5-MIN KMSN 151645Z 16015KT 2 1/2SM BR OVC003 M02/M03 A2976 1010 92 -700 160/15 RMK AO2
14837KMSN MSN20031215105013212/15/03 10:50:31  5-MIN KMSN 151650Z 16016KT 2 1/2SM BR OVC003 M02/M03 A2976 1020 92 -700 160/16 RMK AO2 SFC VIS 3 SLP088 T10171028
14837KMSN MSN20031215105512112/15/03 10:55:31  5-MIN KMSN 151655Z 16018G21KT 2 1/2SM BR OVC003 M02/M03 A2975 1020 92 -700 160/18G21 RMK AO2 SFC VIS 4
14837KMSN MSN20031215110011712/15/03 11:00:31  5-MIN KMSN 151700Z 16013G21KT 3SM BR OVC005 M02/M03 A2975 1020 92 -700 160/13G21 RMK AO2 SFC VIS 4
14837KMSN MSN20031215110511112/15/03 11:05:31  5-MIN KMSN 151705Z 16014KT 3SM BR OVC005 M02/M03 A2974 1030 92 -700 160/14 RMK AO2 SFC VIS 4
14837KMSN MSN20031215111011112/15/03 11:10:31  5-MIN KMSN 151710Z 16013KT 3SM BR OVC005 M02/M03 A2975 1020 92 -700 160/13 RMK AO2 SFC VIS 4
14837KMSN MSN20031215111511112/15/03 11:15:31  5-MIN KMSN 151715Z 15014KT 3SM BR OVC005 M02/M03 A2974 1030 92 -700 150/14 RMK AO2 SFC VIS 4
14837KMSN MSN20031215112011112/15/03 11:20:31  5-MIN KMSN 151720Z 15017KT 3SM BR OVC005 M02/M03 A2975 1020 92 -700 150/17 RMK AO2 SFC VIS 4
14837KMSN MSN20031215112511112/15/03 11:25:31  5-MIN KMSN 151725Z 15015KT 3SM BR OVC005 M02/M03 A2974 1030 92 -700 150/15 RMK AO2 SFC VIS 4
14837KMSN MSN20031215113011112/15/03 11:30:31  5-MIN KMSN 151730Z 15015KT 3SM BR OVC005 M02/M03 A2973 1040 92 -700 150/15 RMK AO2 SFC VIS 4
14837KMSN MSN20031215113511112/15/03 11:35:31  5-MIN KMSN 151735Z 16013KT 3SM BR OVC005 M02/M03 A2973 1040 92 -700 160/13 RMK AO2 SFC VIS 4
14837KMSN MSN20031215114011712/15/03 11:40:31  5-MIN KMSN 151740Z 15015G22KT 3SM BR OVC005 M01/M03 A2974 1030 88 -600 150/15G22 RMK AO2 SFC VIS 4
14837KMSN MSN20031215114511712/15/03 11:45:31  5-MIN KMSN 151745Z 16016G22KT 3SM BR OVC005 M01/M03 A2973 1040 88 -600 160/16G22 RMK AO2 SFC VIS 5
14837KMSN MSN20031215115015212/15/03 11:50:31  5-MIN KMSN 151750Z 16014KT 3SM BR OVC007 M01/M03 A2973 1040 88 -600 160/14 RMK AO2 SFC VIS 5 SLP078 60000 T10111028 11011 21033 57007
14837KMSN MSN20031215115510112/15/03 11:55:31  5-MIN KMSN 151755Z 16012KT 5SM BR OVC007 M01/M03 A2971 1060 88 -600 160/12 RMK AO2
14837KMSN MSN20031215120010112/15/03 12:00:31  5-MIN KMSN 151800Z 15011KT 5SM BR OVC007 M01/M03 A2972 1050 88 -600 150/11 RMK AO2
14837KMSN MSN20031215120510712/15/03 12:05:31  5-MIN KMSN 151805Z 15014G19KT 5SM BR OVC007 M01/M03 A2972 1050 88 -600 150/14G19 RMK AO2
14837KMSN MSN20031215121010112/15/03 12:10:31  5-MIN KMSN 151810Z 15016KT 5SM BR OVC007 M01/M03 A2972 1050 88 -600 150/16 RMK AO2
14837KMSN MSN20031215121510712/15/03 12:15:31  5-MIN KMSN 151815Z 15011G20KT 4SM BR OVC007 M01/M02 A2972 1050 92 -600 150/11G20 RMK AO2
14837KMSN MSN20031215122010112/15/03 12:20:31  5-MIN KMSN 151820Z 15016KT 4SM BR OVC007 M01/M02 A2971 1060 92 -600 150/16 RMK AO2
14837KMSN MSN20031215122510112/15/03 12:25:31  5-MIN KMSN 151825Z 16012KT 5SM BR OVC007 M01/M02 A2971 1060 92 -600 160/12 RMK AO2
14837KMSN MSN20031215123010112/15/03 12:30:31  5-MIN KMSN 151830Z 16011KT 5SM BR OVC007 M01/M02 A2971 1060 92 -600 160/11 RMK AO2
14837KMSN MSN20031215123510112/15/03 12:35:31  5-MIN KMSN 151835Z 15013KT 5SM BR OVC007 M01/M02 A2970 1070 88 -500 150/13 RMK AO2
14837KMSN MSN20031215124010112/15/03 12:40:31  5-MIN KMSN 151840Z 15013KT 5SM BR OVC007 M01/M02 A2969 1080 88 -500 150/13 RMK AO2
14837KMSN MSN20031215124510812/15/03 12:45:31  5-MIN KMSN 151845Z 15014KT 5SM BR OVC007 M01/M02 A2968 1080 88 -500 140/14 RMK AO2 PRESFR
14837KMSN MSN20031215125012512/15/03 12:50:31  5-MIN KMSN 151850Z 14015KT 5SM BR OVC007 M01/M02 A2968 1090 88 -500 140/15 RMK AO2 PRESFR SLP060 T10061022
14837KMSN MSN20031215125510112/15/03 12:55:31  5-MIN KMSN 151855Z 15013KT 5SM BR OVC007 M01/M02 A2968 1080 88 -500 150/13 RMK AO2
14837KMSN MSN20031215130010112/15/03 13:00:31  5-MIN KMSN 151900Z 15011KT 5SM BR OVC007 M01/M02 A2968 1090 88 -500 150/11 RMK AO2
14837KMSN MSN20031215130510112/15/03 13:05:31  5-MIN KMSN 151905Z 15012KT 5SM BR OVC007 M01/M02 A2968 1080 88 -500 150/12 RMK AO2
14837KMSN MSN20031215131010112/15/03 13:10:31  5-MIN KMSN 151910Z 15012KT 5SM BR OVC007 M01/M02 A2967 1100 88 -400 150/12 RMK AO2
14837KMSN MSN20031215131510112/15/03 13:15:31  5-MIN KMSN 151915Z 15012KT 5SM BR OVC007 M01/M02 A2967 1090 92 -400 150/12 RMK AO2
14837KMSN MSN20031215132010012/15/03 13:20:31  5-MIN KMSN 151920Z 15010KT 5SM BR OVC007 00/M02 A2967 1100 88 -400 150/10 RMK AO2
14837KMSN MSN20031215132510012/15/03 13:25:31  5-MIN KMSN 151925Z 15011KT 5SM BR OVC007 00/M02 A2967 1100 88 -400 150/11 RMK AO2
14837KMSN MSN20031215133010012/15/03 13:30:31  5-MIN KMSN 151930Z 15013KT 5SM BR OVC007 00/M02 A2967 1100 88 -400 150/13 RMK AO2
14837KMSN MSN20031215133510612/15/03 13:35:31  5-MIN KMSN 151935Z 15011G18KT 5SM BR OVC007 00/M02 A2966 1110 88 -400 150/11G18 RMK AO2
14837KMSN MSN20031215134010012/15/03 13:40:31  5-MIN KMSN 151940Z 14012KT 5SM BR OVC007 00/M02 A2966 1110 88 -400 140/12 RMK AO2
14837KMSN MSN20031215134510612/15/03 13:45:31  5-MIN KMSN 151945Z 15014G17KT 5SM BR OVC009 00/M02 A2966 1100 88 -400 150/14G17 RMK AO2
14837KMSN MSN20031215135011712/15/03 13:50:31  5-MIN KMSN 151950Z 16011KT 5SM BR OVC009 00/M01 A2966 1110 92 -400 160/11 RMK AO2 SLP053 T00001011
14837KMSN MSN20031215135510012/15/03 13:55:31  5-MIN KMSN 151955Z 15013KT 5SM BR OVC009 00/M01 A2965 1110 92 -400 150/13 RMK AO2
14837KMSN MSN20031215140010012/15/03 14:00:31  5-MIN KMSN 152000Z 15012KT 5SM BR OVC009 00/M01 A2965 1120 92 -400 150/12 RMK AO2
14837KMSN MSN20031215140510012/15/03 14:05:31  5-MIN KMSN 152005Z 15011KT 5SM BR OVC009 00/M01 A2965 1110 92 -400 150/11 RMK AO2
14837KMSN MSN20031215141010012/15/03 14:10:31  5-MIN KMSN 152010Z 16012KT 5SM BR OVC009 01/M01 A2965 1110 89 -300 160/12 RMK AO2
14837KMSN MSN20031215141510012/15/03 14:15:31  5-MIN KMSN 152015Z 15013KT 5SM BR OVC009 01/M01 A2965 1120 89 -300 150/13 RMK AO2
14837KMSN MSN20031215142010012/15/03 14:20:31  5-MIN KMSN 152020Z 15015KT 5SM BR OVC009 01/M01 A2964 1120 89 -300 150/15 RMK AO2
14837KMSN MSN20031215142510012/15/03 14:25:31  5-MIN KMSN 152025Z 15013KT 5SM BR OVC009 01/M01 A2965 1120 89 -300 150/13 RMK AO2
14837KMSN MSN20031215143010012/15/03 14:30:31  5-MIN KMSN 152030Z 15011KT 5SM BR OVC009 01/M01 A2964 1120 89 -300 150/11 RMK AO2
14837KMSN MSN20031215143510012/15/03 14:35:31  5-MIN KMSN 152035Z 15013KT 5SM BR OVC009 01/M01 A2965 1120 89 -300 150/13 RMK AO2
14837KMSN MSN20031215144010012/15/03 14:40:31  5-MIN KMSN 152040Z 15015KT 5SM BR OVC009 01/M01 A2964 1120 89 -300 150/15 RMK AO2
14837KMSN MSN20031215144510612/15/03 14:45:31  5-MIN KMSN 152045Z 16012G20KT 5SM BR OVC009 01/M01 A2964 1120 89 -300 150/12G20 RMK AO2
14837KMSN MSN20031215145012912/15/03 14:50:31  5-MIN KMSN 152050Z 16012G20KT 5SM BR OVC009 01/M01 A2964 1120 89 -300 160/12G20 RMK AO2 SLP047 T00061011 58023
14837KMSN MSN20031215145510012/15/03 14:55:31  5-MIN KMSN 152055Z 15013KT 5SM BR OVC009 01/M01 A2964 1130 89 -300 150/13 RMK AO2
14837KMSN MSN20031215150010012/15/03 15:00:31  5-MIN KMSN 152100Z 15011KT 5SM BR OVC009 01/M01 A2964 1130 92 -300 150/11 RMK AO2
14837KMSN MSN20031215150510012/15/03 15:05:31  5-MIN KMSN 152105Z 15013KT 5SM BR OVC009 01/M01 A2964 1120 92 -300 150/13 RMK AO2
14837KMSN MSN20031215151010012/15/03 15:10:31  5-MIN KMSN 152110Z 16012KT 5SM BR OVC009 01/M01 A2964 1120 89 -200 160/12 RMK AO2
14837KMSN MSN20031215151510012/15/03 15:15:31  5-MIN KMSN 152115Z 16013KT 5SM BR OVC009 01/M01 A2964 1120 92 -300 160/13 RMK AO2
14837KMSN MSN20031215152010012/15/03 15:20:31  5-MIN KMSN 152120Z 16014KT 5SM BR OVC009 01/M01 A2964 1120 89 -200 160/14 RMK AO2
14837KMSN MSN20031215152510012/15/03 15:25:31  5-MIN KMSN 152125Z 16013KT 5SM BR OVC009 01/M01 A2964 1130 89 -200 160/13 RMK AO2
14837KMSN MSN20031215153010012/15/03 15:30:31  5-MIN KMSN 152130Z 16015KT 5SM BR OVC009 01/M01 A2964 1130 89 -200 160/15 RMK AO2
14837KMSN MSN20031215153510012/15/03 15:35:31  5-MIN KMSN 152135Z 15013KT 5SM BR OVC009 01/M01 A2963 1140 92 -300 150/13 RMK AO2
14837KMSN MSN20031215154010012/15/03 15:40:31  5-MIN KMSN 152140Z 15015KT 5SM BR OVC009 01/M01 A2962 1140 89 -200 150/15 RMK AO2
14837KMSN MSN20031215154510012/15/03 15:45:31  5-MIN KMSN 152145Z 15014KT 5SM BR OVC009 01/M01 A2962 1140 89 -200 150/14 RMK AO2
14837KMSN MSN20031215155012412/15/03 15:50:31  5-MIN KMSN 152150Z 15013KT 5SM BR OVC009 01/M01 A2961 1150 89 -200 140/13 RMK AO2 PRESFR SLP037 T00111006
14837KMSN MSN20031215155510712/15/03 15:55:31  5-MIN KMSN 152155Z 14012KT 5SM BR OVC009 01/M01 A2960 1160 89 -200 140/12 RMK AO2 PRESFR
14837KMSN MSN20031215160010012/15/03 16:00:31  5-MIN KMSN 152200Z 15014KT 5SM BR OVC009 01/M01 A2960 1160 89 -200 150/14 RMK AO2
14837KMSN MSN20031215160510012/15/03 16:05:31  5-MIN KMSN 152205Z 15015KT 5SM BR OVC009 01/M01 A2961 1160 89 -200 140/15 RMK AO2
14837KMSN MSN20031215161010012/15/03 16:10:31  5-MIN KMSN 152210Z 15013KT 5SM BR OVC009 01/M01 A2961 1150 89 -200 150/13 RMK AO2
14837KMSN MSN20031215161510012/15/03 16:15:31  5-MIN KMSN 152215Z 15014KT 5SM BR OVC009 01/M01 A2961 1150 89 -200 150/14 RMK AO2
14837KMSN MSN20031215162010012/15/03 16:20:31  5-MIN KMSN 152220Z 15011KT 5SM BR OVC009 01/M01 A2961 1150 89 -200 150/11 RMK AO2
14837KMSN MSN20031215162510012/15/03 16:25:31  5-MIN KMSN 152225Z 15014KT 4SM BR OVC009 01/M01 A2961 1150 89 -200 150/14 RMK AO2
14837KMSN MSN20031215163010012/15/03 16:30:31  5-MIN KMSN 152230Z 15014KT 4SM BR OVC009 01/M01 A2961 1150 89 -200 150/14 RMK AO2
14837KMSN MSN20031215163510012/15/03 16:35:31  5-MIN KMSN 152235Z 15012KT 4SM BR OVC009 01/M01 A2961 1150 89 -200 150/12 RMK AO2
14837KMSN MSN20031215164010012/15/03 16:40:31  5-MIN KMSN 152240Z 15014KT 4SM BR OVC009 01/M01 A2962 1150 89 -200 150/14 RMK AO2
14837KMSN MSN20031215164510012/15/03 16:45:31  5-MIN KMSN 152245Z 15014KT 4SM BR OVC009 01/M01 A2962 1150 89 -200 150/14 RMK AO2
14837KMSN MSN20031215165011712/15/03 16:50:31  5-MIN KMSN 152250Z 15012KT 4SM BR OVC009 01/M01 A2962 1140 89 -200 150/12 RMK AO2 SLP040 T00111006
14837KMSN MSN20031215165510012/15/03 16:55:31  5-MIN KMSN 152255Z 16013KT 6SM BR OVC009 01/M01 A2962 1140 89 -200 160/13 RMK AO2
14837KMSN MSN20031215170010012/15/03 17:00:31  5-MIN KMSN 152300Z 15013KT 4SM BR OVC009 01/M01 A2962 1140 89 -200 150/13 RMK AO2
14837KMSN MSN20031215170510012/15/03 17:05:31  5-MIN KMSN 152305Z 15011KT 4SM BR OVC009 01/M01 A2963 1140 89 -200 150/11 RMK AO2
14837KMSN MSN20031215171010012/15/03 17:10:31  5-MIN KMSN 152310Z 15010KT 4SM BR OVC009 01/M01 A2963 1140 89 -200 150/10 RMK AO2
14837KMSN MSN20031215171510012/15/03 17:15:31  5-MIN KMSN 152315Z 15012KT 4SM BR OVC009 01/M01 A2962 1140 89 -200 150/12 RMK AO2
14837KMSN MSN20031215172010012/15/03 17:20:31  5-MIN KMSN 152320Z 15012KT 4SM BR OVC009 01/M01 A2962 1140 89 -200 150/12 RMK AO2
14837KMSN MSN20031215172510012/15/03 17:25:31  5-MIN KMSN 152325Z 15012KT 4SM BR OVC009 01/M01 A2962 1140 89 -200 150/12 RMK AO2
14837KMSN MSN20031215173010012/15/03 17:30:31  5-MIN KMSN 152330Z 15013KT 4SM BR OVC009 01/M01 A2963 1140 89 -200 150/13 RMK AO2
14837KMSN MSN20031215173510012/15/03 17:35:31  5-MIN KMSN 152335Z 15013KT 4SM BR OVC009 01/M01 A2962 1140 89 -200 150/13 RMK AO2
14837KMSN MSN20031215174010012/15/03 17:40:31  5-MIN KMSN 152340Z 15011KT 4SM BR OVC009 01/M01 A2962 1140 89 -200 150/11 RMK AO2
14837KMSN MSN20031215174510612/15/03 17:45:31  5-MIN KMSN 152345Z 15011KT 4SM BR OVC009 01/M01 A2962 1140 89 -200 150/11 RMK AO2 4/002
14837KMSN MSN20031215175014112/15/03 17:50:31  5-MIN KMSN 152350Z 15012KT 5SM BR OVC009 01/M01 A2962 1140 89 -200 150/12 RMK AO2 SLP040 4/002 T00111006 10011 21011 56027
14837KMSN MSN20031215175510012/15/03 17:55:31  5-MIN KMSN 152355Z 16015KT 6SM BR OVC009 01/M01 A2962 1140 89 -200 160/15 RMK AO2
14837KMSN MSN20031215180010012/15/03 18:00:31  5-MIN KMSN 160000Z 15012KT 5SM BR OVC009 01/M01 A2961 1150 89 -200 150/12 RMK AO2
14837KMSN MSN20031215180510012/15/03 18:05:31  5-MIN KMSN 160005Z 15013KT 5SM BR OVC009 01/M01 A2961 1150 89 -200 150/13 RMK AO2
14837KMSN MSN20031215181010012/15/03 18:10:31  5-MIN KMSN 160010Z 15013KT 5SM BR OVC009 01/M01 A2960 1160 89 -200 150/13 RMK AO2
14837KMSN MSN20031215181509912/15/03 18:15:31  5-MIN KMSN 160015Z 14014KT 5SM BR OVC009 01/00 A2960 1160 92 -200 140/14 RMK AO2
14837KMSN MSN20031215182009912/15/03 18:20:31  5-MIN KMSN 160020Z 15013KT 5SM BR OVC009 01/00 A2960 1160 92 -200 150/13 RMK AO2
14837KMSN MSN20031215182509912/15/03 18:25:31  5-MIN KMSN 160025Z 15012KT 5SM BR OVC009 01/00 A2960 1160 92 -200 150/12 RMK AO2
14837KMSN MSN20031215183009912/15/03 18:30:31  5-MIN KMSN 160030Z 15013KT 5SM BR OVC009 01/00 A2960 1160 92 -200 150/13 RMK AO2
14837KMSN MSN20031215183509912/15/03 18:35:31  5-MIN KMSN 160035Z 15014KT 5SM BR OVC009 01/00 A2960 1160 92 -200 150/14 RMK AO2
14837KMSN MSN20031215184009912/15/03 18:40:31  5-MIN KMSN 160040Z 16014KT 5SM BR OVC009 01/00 A2960 1160 92 -200 150/14 RMK AO2
14837KMSN MSN20031215184509912/15/03 18:45:31  5-MIN KMSN 160045Z 15013KT 5SM BR OVC009 02/00 A2960 1160 89 -100 150/13 RMK AO2
14837KMSN MSN20031215185011612/15/03 18:50:31  5-MIN KMSN 160050Z 15013KT 5SM BR OVC009 02/00 A2960 1160 89 -100 150/13 RMK AO2 SLP032 T00170000
14837KMSN MSN20031215185509912/15/03 18:55:31  5-MIN KMSN 160055Z 16013KT 6SM BR OVC009 02/00 A2960 1160 89 -100 160/13 RMK AO2
14837KMSN MSN20031215190009912/15/03 19:00:31  5-MIN KMSN 160100Z 16013KT 5SM BR OVC009 02/00 A2960 1160 89 -100 160/13 RMK AO2
14837KMSN MSN20031215190509912/15/03 19:05:31  5-MIN KMSN 160105Z 16013KT 5SM BR OVC009 02/00 A2960 1160 89 -100 160/13 RMK AO2
14837KMSN MSN20031215191009912/15/03 19:10:31  5-MIN KMSN 160110Z 16014KT 5SM BR OVC009 02/00 A2960 1170 89 -100 160/14 RMK AO2
14837KMSN MSN20031215191509912/15/03 19:15:31  5-MIN KMSN 160115Z 16014KT 5SM BR OVC009 02/00 A2959 1170 89 -100 160/14 RMK AO2
14837KMSN MSN20031215192009912/15/03 19:20:31  5-MIN KMSN 160120Z 15014KT 5SM BR OVC009 02/00 A2959 1170 89 -100 150/14 RMK AO2
14837KMSN MSN20031215192509912/15/03 19:25:31  5-MIN KMSN 160125Z 16013KT 5SM BR OVC009 02/00 A2959 1170 89 -100 150/13 RMK AO2
14837KMSN MSN20031215193009912/15/03 19:30:31  5-MIN KMSN 160130Z 16013KT 5SM BR OVC009 02/00 A2960 1170 89 -100 160/13 RMK AO2
14837KMSN MSN20031215193509912/15/03 19:35:31  5-MIN KMSN 160135Z 16015KT 5SM BR OVC009 02/00 A2959 1170 89 -100 160/15 RMK AO2
14837KMSN MSN20031215194009912/15/03 19:40:31  5-MIN KMSN 160140Z 16012KT 5SM BR OVC009 02/00 A2959 1170 89 -100 160/12 RMK AO2
14837KMSN MSN20031215194510612/15/03 19:45:31  5-MIN KMSN 160145Z 16014KT 5SM BR BKN009 OVC046 02/00 A2960 1170 89 -100 160/14 RMK AO2
14837KMSN MSN20031215195012312/15/03 19:50:31  5-MIN KMSN 160150Z 16015KT 5SM BR BKN011 OVC046 02/00 A2959 1170 89 -100 160/15 RMK AO2 SLP030 T00170000
14837KMSN MSN20031215195510612/15/03 19:55:31  5-MIN KMSN 160155Z 16015KT 6SM BR BKN011 OVC045 02/00 A2959 1170 89 -100 160/15 RMK AO2
14837KMSN MSN20031215200010612/15/03 20:00:31  5-MIN KMSN 160200Z 17014KT 6SM BR BKN011 OVC045 02/00 A2959 1170 89 -100 170/14 RMK AO2
14837KMSN MSN20031215200510312/15/03 20:05:31  5-MIN KMSN 160205Z 16015KT 5SM BR BKN011 OVC045 02/00 A2959 1170 85 0 160/15 RMK AO2
14837KMSN MSN20031215201011212/15/03 20:10:31  5-MIN KMSN 160210Z 16012G20KT 5SM BR BKN013 OVC045 02/00 A2959 1170 89 -100 160/12G20 RMK AO2
14837KMSN MSN20031215201510612/15/03 20:15:31  5-MIN KMSN 160215Z 17014KT 5SM BR BKN013 OVC040 02/00 A2959 1170 89 -100 160/14 RMK AO2
14837KMSN MSN20031215202010612/15/03 20:20:31  5-MIN KMSN 160220Z 16014KT 5SM BR BKN013 OVC040 02/00 A2959 1180 89 -100 160/14 RMK AO2
14837KMSN MSN20031215202510912/15/03 20:25:31  5-MIN KMSN 160225Z 16015G20KT 5SM BR BKN013 OVC042 02/00 A2958 1180 85 0 160/15G20 RMK AO2
14837KMSN MSN20031215203011012/15/03 20:30:31  5-MIN KMSN 160230Z 16013KT 5SM BR BKN013 BKN036 OVC050 02/00 A2959 1180 85 0 160/13 RMK AO2
14837KMSN MSN20031215203511012/15/03 20:35:31  5-MIN KMSN 160235Z 16014KT 5SM BR SCT013 BKN036 OVC050 02/00 A2958 1180 85 0 160/14 RMK AO2
14837KMSN MSN20031215204011312/15/03 20:40:31  5-MIN KMSN 160240Z 16015KT 5SM BR SCT013 BKN040 OVC050 02/00 A2958 1180 89 -100 160/15 RMK AO2
14837KMSN MSN20031215204511912/15/03 20:45:31  5-MIN KMSN 160245Z 16014G19KT 5SM BR SCT013 BKN040 OVC050 02/00 A2958 1180 89 -100 160/14G19 RMK AO2
14837KMSN MSN20031215205014212/15/03 20:50:31  5-MIN KMSN 160250Z 16015G20KT 5SM BR FEW013 SCT040 OVC050 02/00 A2958 1180 89 -100 160/15G20 RMK AO2 SLP027 T00170000 55006
14837KMSN MSN20031215205511312/15/03 20:55:31  5-MIN KMSN 160255Z 16014KT 6SM BR FEW013 SCT040 OVC050 02/00 A2958 1180 89 -100 160/14 RMK AO2
14837KMSN MSN20031215210010612/15/03 21:00:31  5-MIN KMSN 160300Z 16014KT 6SM BR FEW013 OVC048 02/00 A2958 1180 89 -100 160/14 RMK AO2
14837KMSN MSN20031215210510612/15/03 21:05:31  5-MIN KMSN 160305Z 16014KT 6SM BR FEW013 OVC048 02/00 A2958 1180 89 -100 160/14 RMK AO2
14837KMSN MSN20031215211010612/15/03 21:10:31  5-MIN KMSN 160310Z 16015KT 6SM BR FEW013 OVC046 02/00 A2958 1180 89 -100 160/15 RMK AO2
14837KMSN MSN20031215211509912/15/03 21:15:31  5-MIN KMSN 160315Z 16014KT 6SM BR OVC046 02/00 A2957 1190 89 -100 160/14 RMK AO2
14837KMSN MSN20031215212010612/15/03 21:20:31  5-MIN KMSN 160320Z 16015KT 6SM BR FEW014 OVC046 02/00 A2957 1190 89 -100 160/15 RMK AO2
14837KMSN MSN20031215212510612/15/03 21:25:31  5-MIN KMSN 160325Z 16014KT 6SM BR FEW014 OVC046 02/00 A2957 1190 89 -100 160/14 RMK AO2
14837KMSN MSN20031215213009612/15/03 21:30:31  5-MIN KMSN 160330Z 16015KT 6SM BR OVC044 02/00 A2957 1190 89 0 160/15 RMK AO2
14837KMSN MSN20031215213509612/15/03 21:35:31  5-MIN KMSN 160335Z 16013KT 6SM BR OVC044 02/00 A2956 1200 89 0 160/13 RMK AO2
14837KMSN MSN20031215214009612/15/03 21:40:31  5-MIN KMSN 160340Z 16014KT 6SM BR OVC044 02/00 A2956 1200 89 0 160/14 RMK AO2
14837KMSN MSN20031215214509612/15/03 21:45:31  5-MIN KMSN 160345Z 16015KT 6SM BR OVC044 02/00 A2956 1190 85 0 160/15 RMK AO2
14837KMSN MSN20031215215011312/15/03 21:50:31  5-MIN KMSN 160350Z 16012KT 6SM BR OVC046 02/00 A2956 1200 85 0 160/12 RMK AO2 SLP020 T00220000
14837KMSN MSN20031215215510012/15/03 21:55:31  5-MIN KMSN 160355Z 16012KT 7SM FEW037 OVC046 02/00 A2956 1200 89 0 160/12 RMK AO2
14837KMSN MSN20031215220009612/15/03 22:00:31  5-MIN KMSN 160400Z 16012KT 6SM BR OVC044 02/00 A2956 1200 89 0 160/12 RMK AO2
14837KMSN MSN20031215220509612/15/03 22:05:31  5-MIN KMSN 160405Z 16013KT 6SM BR OVC044 02/00 A2956 1200 85 0 160/13 RMK AO2
14837KMSN MSN20031215221009312/15/03 22:10:31  5-MIN KMSN 160410Z 16013KT 7SM OVC044 02/00 A2956 1200 85 0 160/13 RMK AO2
14837KMSN MSN20031215221509312/15/03 22:15:31  5-MIN KMSN 160415Z 16013KT 7SM OVC044 02/00 A2956 1200 85 0 160/13 RMK AO2
14837KMSN MSN20031215222010012/15/03 22:20:31  5-MIN KMSN 160420Z 16012KT 7SM BKN044 OVC050 02/00 A2956 1200 85 0 160/12 RMK AO2
14837KMSN MSN20031215222509312/15/03 22:25:31  5-MIN KMSN 160425Z 16012KT 7SM OVC046 02/00 A2955 1200 85 0 160/12 RMK AO2
14837KMSN MSN20031215223009312/15/03 22:30:31  5-MIN KMSN 160430Z 16011KT 7SM OVC046 02/00 A2955 1200 85 0 160/11 RMK AO2
14837KMSN MSN20031215223510012/15/03 22:35:31  5-MIN KMSN 160435Z 17011KT 7SM FEW034 OVC048 02/00 A2955 1210 85 0 160/11 RMK AO2
14837KMSN MSN20031215224010012/15/03 22:40:31  5-MIN KMSN 160440Z 16010KT 7SM SCT032 OVC048 02/00 A2955 1210 85 0 160/10 RMK AO2
14837KMSN MSN20031215224510012/15/03 22:45:31  5-MIN KMSN 160445Z 17010KT 7SM BKN032 OVC048 02/00 A2955 1210 85 0 160/10 RMK AO2
14837KMSN MSN20031215225011712/15/03 22:50:31  5-MIN KMSN 160450Z 16009KT 7SM BKN032 OVC048 02/00 A2955 1210 85 0 160/09 RMK AO2 SLP016 T00220000
14837KMSN MSN20031215225510312/15/03 22:55:31  5-MIN KMSN 160455Z 16009KT 6SM BR BKN032 OVC046 02/00 A2955 1210 85 0 160/09 RMK AO2
14837KMSN MSN20031215230009612/15/03 23:00:31  5-MIN KMSN 160500Z 16008KT 6SM BR OVC032 02/00 A2955 1210 85 0 160/08 RMK AO2
14837KMSN MSN20031215230509612/15/03 23:05:31  5-MIN KMSN 160505Z 16009KT 6SM BR OVC030 02/00 A2955 1210 85 0 160/09 RMK AO2
14837KMSN MSN20031215231010312/15/03 23:10:31  5-MIN KMSN 160510Z 16009KT 6SM BR BKN030 OVC045 02/00 A2955 1210 85 0 160/09 RMK AO2
14837KMSN MSN20031215231510312/15/03 23:15:31  5-MIN KMSN 160515Z 16010KT 6SM BR BKN027 OVC033 02/00 A2954 1220 85 0 160/10 RMK AO2
14837KMSN MSN20031215232010312/15/03 23:20:31  5-MIN KMSN 160520Z 15008KT 6SM BR BKN027 OVC032 02/00 A2954 1220 85 0 150/08 RMK AO2
14837KMSN MSN20031215232511912/15/03 23:25:31  5-MIN KMSN 160525Z 16008KT 6SM -RA BR BKN027 OVC032 02/00 A2954 1220 85 0 160/08 RMK AO2 RAB21 P0000
14837KMSN MSN20031215233011212/15/03 23:30:31  5-MIN KMSN 160530Z 15009KT 6SM -RA BR OVC025 02/01 A2953 1220 89 0 150/09 RMK AO2 RAB21 P0000
14837KMSN MSN20031215233510912/15/03 23:35:31  5-MIN KMSN 160535Z 16009KT 7SM -RA OVC025 02/01 A2953 1220 89 0 160/09 RMK AO2 RAB21 P0000
14837KMSN MSN20031215234010912/15/03 23:40:31  5-MIN KMSN 160540Z 16008KT 7SM -RA OVC027 02/01 A2953 1230 89 0 160/08 RMK AO2 RAB21 P0000
14837KMSN MSN20031215234511912/15/03 23:45:31  5-MIN KMSN 160545Z 16008KT 6SM -RA BR BKN025 OVC031 02/01 A2953 1230 89 0 160/08 RMK AO2 RAB21 P0000
14837KMSN MSN20031215235015912/15/03 23:50:31  5-MIN KMSN 160550Z 17008KT 7SM OVC025 02/01 A2953 1230 89 0 170/08 RMK AO2 RAB21E48 SLP008 P0000 60000 T00220006 10022 20011 400221039 56014
14837KMSN MSN20031215235509312/15/03 23:55:31  5-MIN KMSN 160555Z 17008KT 7SM OVC025 02/01 A2953 1230 89 0 170/08 RMK AO2
14837KMSN MSN20031216000009312/16/03 00:00:31  5-MIN KMSN 160600Z 17009KT 7SM OVC025 02/01 A2953 1230 89 0 170/09 RMK AO2
14837KMSN MSN20031216000509612/16/03 00:05:31  5-MIN KMSN 160605Z 17009KT 6SM BR OVC025 02/01 A2952 1230 89 0 170/09 RMK AO2
14837KMSN MSN20031216001011112/16/03 00:10:31  5-MIN KMSN 160610Z 17010KT 5SM UP BR OVC025 02/01 A2952 1230 89 0 170/10 RMK AO2 UPB07 P0000
14837KMSN MSN20031216001511112/16/03 00:15:31  5-MIN KMSN 160615Z 17009KT 6SM UP BR OVC025 02/01 A2952 1240 89 0 170/09 RMK AO2 UPB07 P0000
14837KMSN MSN20031216002011112/16/03 00:20:31  5-MIN KMSN 160620Z 17008KT 6SM BR OVC025 02/01 A2952 1240 89 0 170/08 RMK AO2 UPB07E16 P0000
14837KMSN MSN20031216002511712/16/03 00:25:31  5-MIN KMSN 160625Z 17010KT 7SM -DZ OVC025 02/01 A2952 1240 89 0 170/10 RMK AO2 UPB07E16DZB24 P0000
14837KMSN MSN20031216003011712/16/03 00:30:31  5-MIN KMSN 160630Z 17008KT 7SM -DZ OVC025 02/01 A2952 1240 89 0 170/08 RMK AO2 UPB07E16DZB24 P0000
14837KMSN MSN20031216003511712/16/03 00:35:31  5-MIN KMSN 160635Z 17009KT 7SM -DZ OVC025 02/01 A2951 1250 89 0 170/09 RMK AO2 UPB07E16DZB24 P0000
14837KMSN MSN20031216004011712/16/03 00:40:31  5-MIN KMSN 160640Z 17009KT 7SM -DZ OVC025 02/01 A2951 1250 89 0 160/09 RMK AO2 UPB07E16DZB24 P0000
14837KMSN MSN20031216004511712/16/03 00:45:31  5-MIN KMSN 160645Z 17008KT 7SM -DZ OVC023 02/01 A2950 1250 89 0 170/08 RMK AO2 UPB07E16DZB24 P0000
14837KMSN MSN20031216005012512/16/03 00:50:31  5-MIN KMSN 160650Z 17008KT 7SM OVC023 02/00 A2950 1250 85 0 170/08 RMK AO2 SLP997 DZB07E48 P0000 T00220000
14837KMSN MSN20031216005509512/16/03 00:55:31  5-MIN KMSN 160655Z 16007KT 7SM OVC023 02/00 A2950 1260 85 100 160/07 RMK AO2
14837KMSN MSN20031216010009512/16/03 01:00:31  5-MIN KMSN 160700Z 17007KT 7SM OVC023 02/00 A2950 1260 85 100 170/07 RMK AO2
14837KMSN MSN20031216010509512/16/03 01:05:31  5-MIN KMSN 160705Z 16008KT 7SM OVC023 02/00 A2949 1260 85 100 160/08 RMK AO2
14837KMSN MSN20031216011009512/16/03 01:10:31  5-MIN KMSN 160710Z 16007KT 7SM OVC023 02/00 A2949 1270 85 100 160/07 RMK AO2
14837KMSN MSN20031216011509512/16/03 01:15:31  5-MIN KMSN 160715Z 16008KT 7SM OVC023 02/00 A2949 1270 85 100 160/08 RMK AO2
14837KMSN MSN20031216012009512/16/03 01:20:31  5-MIN KMSN 160720Z 16008KT 7SM OVC023 02/00 A2949 1270 85 100 160/08 RMK AO2
14837KMSN MSN20031216012509512/16/03 01:25:31  5-MIN KMSN 160725Z 16008KT 7SM OVC023 02/00 A2949 1270 85 100 160/08 RMK AO2
14837KMSN MSN20031216013009512/16/03 01:30:31  5-MIN KMSN 160730Z 16008KT 7SM OVC023 02/00 A2949 1260 85 100 160/08 RMK AO2
14837KMSN MSN20031216013509512/16/03 01:35:31  5-MIN KMSN 160735Z 16008KT 7SM OVC023 02/00 A2949 1270 85 100 160/08 RMK AO2
14837KMSN MSN20031216014011112/16/03 01:40:31  5-MIN KMSN 160740Z 16009KT 7SM -RA OVC021 02/00 A2948 1270 85 100 160/09 RMK AO2 RAB40 P0000
14837KMSN MSN20031216014511112/16/03 01:45:31  5-MIN KMSN 160745Z 16009KT 7SM -RA OVC021 02/01 A2948 1270 89 100 160/09 RMK AO2 RAB40 P0000
14837KMSN MSN20031216015012712/16/03 01:50:31  5-MIN KMSN 160750Z 15008KT 8SM OVC021 02/01 A2947 1280 89 100 150/08 RMK AO2 RAB40E49 SLP988 P0000 T00220006
14837KMSN MSN20031216015509512/16/03 01:55:31  5-MIN KMSN 160755Z 15010KT 8SM OVC021 02/01 A2947 1280 89 100 150/10 RMK AO2
14837KMSN MSN20031216020009512/16/03 02:00:31  5-MIN KMSN 160800Z 16009KT 7SM OVC019 02/01 A2947 1280 89 100 150/09 RMK AO2
14837KMSN MSN20031216020509512/16/03 02:05:31  5-MIN KMSN 160805Z 16011KT 7SM OVC019 02/01 A2948 1280 89 100 160/11 RMK AO2
14837KMSN MSN20031216021009512/16/03 02:10:31  5-MIN KMSN 160810Z 17010KT 7SM OVC019 03/01 A2948 1280 85 100 170/10 RMK AO2
14837KMSN MSN20031216021509512/16/03 02:15:31  5-MIN KMSN 160815Z 16013KT 8SM OVC019 03/01 A2947 1280 85 100 160/13 RMK AO2
14837KMSN MSN20031216022009512/16/03 02:20:31  5-MIN KMSN 160820Z 17011KT 8SM OVC019 03/01 A2948 1280 85 100 160/11 RMK AO2
14837KMSN MSN20031216022509512/16/03 02:25:31  5-MIN KMSN 160825Z 16011KT 7SM OVC019 03/01 A2947 1280 85 200 160/11 RMK AO2
14837KMSN MSN20031216023009512/16/03 02:30:31  5-MIN KMSN 160830Z 16010KT 7SM OVC019 03/01 A2946 1290 85 200 160/10 RMK AO2
14837KMSN MSN20031216023509512/16/03 02:35:31  5-MIN KMSN 160835Z 17009KT 7SM OVC019 02/01 A2946 1290 89 100 160/09 RMK AO2
14837KMSN MSN20031216024009512/16/03 02:40:31  5-MIN KMSN 160840Z 16010KT 7SM OVC019 03/01 A2946 1290 85 200 160/10 RMK AO2
14837KMSN MSN20031216024509512/16/03 02:45:31  5-MIN KMSN 160845Z 16009KT 7SM OVC019 03/01 A2946 1290 85 200 160/09 RMK AO2
14837KMSN MSN20031216025012412/16/03 02:50:31  5-MIN KMSN 160850Z 16009KT 7SM OVC019 03/01 A2946 1300 85 200 160/09 RMK AO2 SLP982 60000 T00280006 58017
14837KMSN MSN20031216025509512/16/03 02:55:31  5-MIN KMSN 160855Z 15009KT 7SM OVC019 02/01 A2946 1300 89 100 150/09 RMK AO2
14837KMSN MSN20031216030009512/16/03 03:00:31  5-MIN KMSN 160900Z 15010KT 7SM OVC019 02/01 A2945 1300 89 100 150/10 RMK AO2
14837KMSN MSN20031216030509512/16/03 03:05:31  5-MIN KMSN 160905Z 15011KT 7SM OVC019 03/01 A2944 1310 85 200 150/11 RMK AO2
14837KMSN MSN20031216031009512/16/03 03:10:31  5-MIN KMSN 160910Z 15011KT 7SM OVC019 03/01 A2944 1310 85 200 150/11 RMK AO2
14837KMSN MSN20031216031509512/16/03 03:15:31  5-MIN KMSN 160915Z 15010KT 7SM OVC019 02/01 A2944 1310 89 100 150/10 RMK AO2
14837KMSN MSN20031216032009512/16/03 03:20:31  5-MIN KMSN 160920Z 15010KT 7SM OVC019 02/01 A2943 1320 89 100 150/10 RMK AO2
14837KMSN MSN20031216032509512/16/03 03:25:31  5-MIN KMSN 160925Z 15011KT 7SM OVC019 03/01 A2944 1320 85 200 150/11 RMK AO2
14837KMSN MSN20031216033009512/16/03 03:30:31  5-MIN KMSN 160930Z 15011KT 7SM OVC019 02/01 A2943 1320 89 100 150/11 RMK AO2
14837KMSN MSN20031216033509512/16/03 03:35:31  5-MIN KMSN 160935Z 15011KT 7SM OVC019 03/01 A2943 1320 85 200 150/11 RMK AO2
14837KMSN MSN20031216034009512/16/03 03:40:31  5-MIN KMSN 160940Z 15013KT 7SM OVC019 03/01 A2942 1330 85 200 140/13 RMK AO2
14837KMSN MSN20031216034509512/16/03 03:45:31  5-MIN KMSN 160945Z 15012KT 7SM OVC019 03/01 A2942 1330 85 200 150/12 RMK AO2
14837KMSN MSN20031216035011212/16/03 03:50:31  5-MIN KMSN 160950Z 15010KT 7SM OVC019 03/01 A2942 1330 85 200 150/10 RMK AO2 SLP969 T00280006
14837KMSN MSN20031216035509512/16/03 03:55:31  5-MIN KMSN 160955Z 16011KT 7SM OVC019 03/01 A2941 1340 85 200 160/11 RMK AO2
14837KMSN MSN20031216040009512/16/03 04:00:31  5-MIN KMSN 161000Z 16010KT 7SM OVC021 03/01 A2941 1340 85 200 160/10 RMK AO2
14837KMSN MSN20031216040509512/16/03 04:05:31  5-MIN KMSN 161005Z 16008KT 7SM OVC021 03/01 A2941 1340 85 200 160/08 RMK AO2
14837KMSN MSN20031216041009512/16/03 04:10:31  5-MIN KMSN 161010Z 17008KT 7SM OVC021 03/01 A2941 1340 85 200 170/08 RMK AO2
14837KMSN MSN20031216041509512/16/03 04:15:31  5-MIN KMSN 161015Z 17008KT 8SM OVC021 03/01 A2941 1340 85 200 170/08 RMK AO2
14837KMSN MSN20031216042009512/16/03 04:20:31  5-MIN KMSN 161020Z 18008KT 8SM OVC021 03/01 A2941 1340 85 200 180/08 RMK AO2
14837KMSN MSN20031216042509512/16/03 04:25:31  5-MIN KMSN 161025Z 16008KT 8SM OVC021 03/01 A2941 1340 85 200 160/08 RMK AO2
14837KMSN MSN20031216043010212/16/03 04:30:31  5-MIN KMSN 161030Z 17008KT 8SM BKN017 OVC023 03/01 A2941 1340 85 200 170/08 RMK AO2
14837KMSN MSN20031216043510212/16/03 04:35:31  5-MIN KMSN 161035Z 17007KT 8SM BKN017 OVC023 03/01 A2941 1340 85 200 170/07 RMK AO2
14837KMSN MSN20031216044009512/16/03 04:40:31  5-MIN KMSN 161040Z 17008KT 8SM OVC017 03/01 A2941 1340 85 200 170/08 RMK AO2
14837KMSN MSN20031216044509512/16/03 04:45:31  5-MIN KMSN 161045Z 16008KT 7SM OVC017 03/01 A2941 1340 85 200 160/08 RMK AO2
14837KMSN MSN20031216045011212/16/03 04:50:31  5-MIN KMSN 161050Z 16009KT 7SM OVC015 03/01 A2941 1340 85 200 150/09 RMK AO2 SLP965 T00280006
14837KMSN MSN20031216045509512/16/03 04:55:31  5-MIN KMSN 161055Z 16009KT 7SM OVC015 03/01 A2941 1340 89 200 150/09 RMK AO2
14837KMSN MSN20031216050011412/16/03 05:00:31  5-MIN KMSN 161100Z 16009KT 6SM -RA BR OVC015 03/01 A2940 1340 89 200 160/09 RMK AO2 RAB00 P0000
14837KMSN MSN20031216050511412/16/03 05:05:31  5-MIN KMSN 161105Z 16010KT 5SM -RA BR OVC015 03/01 A2940 1340 89 200 160/10 RMK AO2 RAB00 P0000
14837KMSN MSN20031216051011412/16/03 05:10:31  5-MIN KMSN 161110Z 16008KT 6SM -RA BR OVC015 03/01 A2940 1350 89 200 160/08 RMK AO2 RAB00 P0000
14837KMSN MSN20031216051511812/16/03 05:15:31  5-MIN KMSN 161115Z 16009KT 7SM UP OVC015 03/01 A2940 1350 89 200 160/09 RMK AO2 RAB00E14UPB14 P0000
14837KMSN MSN20031216052011812/16/03 05:20:31  5-MIN KMSN 161120Z 16009KT 7SM UP OVC013 03/01 A2940 1350 89 200 160/09 RMK AO2 RAB00E14UPB14 P0001
14837KMSN MSN20031216052511412/16/03 05:25:31  5-MIN KMSN 161125Z 16008KT 6SM -RA BR OVC013 03/01 A2940 1350 89 200 160/08 RMK AO2 RAB00 P0001
14837KMSN MSN20031216053011112/16/03 05:30:31  5-MIN KMSN 161130Z 16010KT 7SM -RA OVC013 03/01 A2940 1350 89 200 160/10 RMK AO2 RAB00 P0001
14837KMSN MSN20031216053511112/16/03 05:35:31  5-MIN KMSN 161135Z 16010KT 7SM -RA OVC013 03/01 A2940 1350 89 200 160/10 RMK AO2 RAB00 P0001
14837KMSN MSN20031216054011412/16/03 05:40:31  5-MIN KMSN 161140Z 16009KT 6SM -RA BR OVC013 03/01 A2940 1350 89 200 160/09 RMK AO2 RAB00 P0001
14837KMSN MSN20031216054511412/16/03 05:45:31  5-MIN KMSN 161145Z 17010KT 6SM -RA BR OVC013 03/01 A2940 1350 89 200 170/10 RMK AO2 RAB00 P0001
14837KMSN MSN20031216055016712/16/03 05:50:31  5-MIN KMSN 161150Z 17010KT 6SM -RA BR OVC011 03/01 A2940 1350 89 200 160/10 RMK AO2 SLP963 RAB00 4/001 P0001 60001 70001 T00280011 10028 20022 56024
14837KMSN MSN20031216055510812/16/03 05:55:31  5-MIN KMSN 161155Z 17009KT 6SM -RA BR OVC011 03/01 A2940 1350 89 200 170/09 RMK AO2 P0000
14837KMSN MSN20031216060010812/16/03 06:00:31  5-MIN KMSN 161200Z 17008KT 6SM -RA BR OVC011 03/02 A2940 1350 92 200 170/08 RMK AO2 P0000
14837KMSN MSN20031216060510812/16/03 06:05:31  5-MIN KMSN 161205Z 17008KT 5SM -RA BR OVC011 03/02 A2940 1350 92 200 170/08 RMK AO2 P0000
14837KMSN MSN20031216061010812/16/03 06:10:31  5-MIN KMSN 161210Z 17008KT 4SM -RA BR OVC011 03/02 A2940 1350 92 200 170/08 RMK AO2 P0000
14837KMSN MSN20031216061512012/16/03 06:15:31  5-MIN KMSN 161215Z 18007KT 3SM -RA BR OVC009 03/02 A2940 1350 92 200 180/07 RMK AO2 CIG 007V012 P0000
14837KMSN MSN20031216062012012/16/03 06:20:31  5-MIN KMSN 161220Z 19007KT 3SM -RA BR OVC009 03/02 A2940 1350 92 200 190/07 RMK AO2 CIG 006V011 P0000
14837KMSN MSN20031216062512012/16/03 06:25:31  5-MIN KMSN 161225Z 20008KT 3SM -RA BR OVC009 03/02 A2940 1350 96 200 200/08 RMK AO2 CIG 006V010 P0000
14837KMSN MSN20031216063012012/16/03 06:30:31  5-MIN KMSN 161230Z 20008KT 3SM -RA BR OVC007 03/02 A2940 1350 92 300 200/08 RMK AO2 CIG 006V010 P0000
14837KMSN MSN20031216063513112/16/03 06:35:31  5-MIN KMSN 161235Z 21009KT 4SM -DZ BR OVC007 03/02 A2941 1340 92 300 210/09 RMK AO2 RAE34DZB34 CIG 006V010 P0000
14837KMSN MSN20031216064011912/16/03 06:40:31  5-MIN KMSN 161240Z 21008KT 3SM -DZ BR OVC007 03/02 A2941 1340 92 300 210/08 RMK AO2 RAE34DZB34 P0000
14837KMSN MSN20031216064513112/16/03 06:45:31  5-MIN KMSN 161245Z 20009KT 3SM -DZ BR OVC007 03/02 A2941 1340 92 300 200/09 RMK AO2 RAE34DZB34 CIG 006V010 P0000
14837KMSN MSN20031216065015612/16/03 06:50:31  5-MIN KMSN 161250Z 21008KT 3SM -RA BR OVC007 03/02 A2941 1340 92 300 210/08 RMK AO2 SFC VIS 4 DZB34E46 CIG 006V010 SLP965 P0000 T00330022
14837KMSN MSN20031216065513012/16/03 06:55:31  5-MIN KMSN 161255Z 22009KT 3SM -RA BR OVC007 03/02 A2941 1340 92 300 220/09 RMK AO2 SFC VIS 4 CIG 006V010 P0000
14837KMSN MSN20031216070014612/16/03 07:00:31  5-MIN KMSN 161300Z 21008KT 170V240 3SM -RA BR OVC007 03/02 A2941 1340 92 300 210/08 170V240 RMK AO2 SFC VIS 4 CIG 006V011 P0000
14837KMSN MSN20031216070513012/16/03 07:05:31  5-MIN KMSN 161305Z 21009KT 3SM -RA BR OVC007 03/02 A2941 1340 96 200 210/09 RMK AO2 SFC VIS 5 CIG 006V011 P0000
14837KMSN MSN20031216071013012/16/03 07:10:31  5-MIN KMSN 161310Z 22008KT 3SM -RA BR OVC007 03/02 A2942 1330 96 200 220/08 RMK AO2 SFC VIS 4 CIG 006V012 P0001
14837KMSN MSN20031216071513012/16/03 07:15:31  5-MIN KMSN 161315Z 23008KT 3SM -RA BR OVC007 03/02 A2942 1330 92 200 230/08 RMK AO2 SFC VIS 4 CIG 006V010 P0001
14837KMSN MSN20031216072013012/16/03 07:20:31  5-MIN KMSN 161320Z 23009KT 3SM -RA BR OVC007 03/02 A2942 1330 92 200 220/09 RMK AO2 SFC VIS 4 CIG 006V012 P0001
14837KMSN MSN20031216072513012/16/03 07:25:31  5-MIN KMSN 161325Z 23007KT 3SM -RA BR OVC007 03/02 A2942 1330 92 200 230/07 RMK AO2 SFC VIS 4 CIG 006V012 P0001
14837KMSN MSN20031216073013012/16/03 07:30:31  5-MIN KMSN 161330Z 23008KT 3SM -RA BR OVC007 03/02 A2943 1320 92 200 230/08 RMK AO2 SFC VIS 4 CIG 006V012 P0001
14837KMSN MSN20031216073512012/16/03 07:35:31  5-MIN KMSN 161335Z 24007KT 3SM -RA BR OVC007 03/02 A2943 1320 92 200 240/07 RMK AO2 CIG 006V012 P0001
14837KMSN MSN20031216074012012/16/03 07:40:31  5-MIN KMSN 161340Z 24006KT 3SM -RA BR OVC007 02/01 A2943 1320 92 100 240/06 RMK AO2 CIG 006V011 P0001
14837KMSN MSN20031216074512012/16/03 07:45:31  5-MIN KMSN 161345Z 26008KT 3SM -RA BR OVC007 02/01 A2944 1310 92 100 260/08 RMK AO2 CIG 006V011 P0002
14837KMSN MSN20031216075013712/16/03 07:50:31  5-MIN KMSN 161350Z 27008KT 3SM -RA BR OVC007 02/01 A2944 1310 92 100 260/08 RMK AO2 CIG 006V011 SLP977 P0002 T00220011
14837KMSN MSN20031216075512012/16/03 07:55:31  5-MIN KMSN 161355Z 28009KT 3SM -RA BR OVC007 02/01 A2945 1310 92 100 280/09 RMK AO2 CIG 006V011 P0000
14837KMSN MSN20031216080011812/16/03 08:00:31  5-MIN KMSN 161400Z 28008KT 3SM -RA BR OVC007 02/01 A2945 1300 92 0 280/08 RMK AO2 CIG 006V011 P0000
14837KMSN MSN20031216080511812/16/03 08:05:31  5-MIN KMSN 161405Z 29008KT 3SM -RA BR OVC007 02/01 A2945 1300 92 0 290/08 RMK AO2 CIG 006V010 P0000
14837KMSN MSN20031216081012912/16/03 08:10:31  5-MIN KMSN 161410Z 31011G16KT 3SM -RA BR BKN007 OVC012 02/00 A2946 1290 89 0 310/11G16 RMK AO2 SFC VIS 4 P0000
14837KMSN MSN20031216081512212/16/03 08:15:31  5-MIN KMSN 161415Z 30009G16KT 3SM -RA BR OVC011 02/00 A2946 1290 89 0 300/09G16 RMK AO2 SFC VIS 4 P0000
14837KMSN MSN20031216082012312/16/03 08:20:31  5-MIN KMSN 161420Z 31007KT 3SM -RA BR SCT008 OVC013 01/00 A2947 1290 92 0 310/07 RMK AO2 SFC VIS 5 P0000
14837KMSN MSN20031216082510212/16/03 08:25:31  5-MIN KMSN 161425Z 31009KT 5SM BR OVC011 01/00 A2947 1280 92 0 310/09 RMK AO2 P0000
14837KMSN MSN20031216083012012/16/03 08:30:31  5-MIN KMSN 161430Z 28009KT 6SM BR OVC011 01/00 A2947 1280 92 0 280/09 RMK AO2 RAE22UPB1356E1357 P0000
14837KMSN MSN20031216083512012/16/03 08:35:31  5-MIN KMSN 161435Z 29007KT 6SM BR OVC013 01/00 A2948 1280 92 0 290/07 RMK AO2 RAE22UPB1356E1357 P0000
14837KMSN MSN20031216084012712/16/03 08:40:31  5-MIN KMSN 161440Z 29010G15KT 6SM BR OVC013 01/M01 A2948 1270 89 0 290/10G15 RMK AO2 RAE22UPB1356E1357 P0000
14837KMSN MSN20031216084514312/16/03 08:45:31  5-MIN KMSN 161445Z 29008G15KT 240V310 5SM BR OVC013 01/M01 A2949 1270 89 0 290/08G15 240V310 RMK AO2 RAE22UPB1356E1357 P0000
14837KMSN MSN20031216085015312/16/03 08:50:31  5-MIN KMSN 161450Z 28010KT 5SM BR OVC013 01/M01 A2949 1270 92 -100 280/10 RMK AO2 RAE22UPB1356E1357 SLP992 P0000 60002 T00061006 56019
14837KMSN MSN20031216085512012/16/03 08:55:31  5-MIN KMSN 161455Z 28012G17KT 3SM -SN BKN013 OVC017 01/M01 A2949 1260 89 -100 280/12G17 RMK AO2 P0000
14837KMSN MSN20031216090011312/16/03 09:00:31  5-MIN KMSN 161500Z 28010G17KT 3SM -SN OVC013 01/M01 A2950 1260 89 -100 280/10G17 RMK AO2 P0000
14837KMSN MSN20031216090511312/16/03 09:05:31  5-MIN KMSN 161505Z 29011G18KT 4SM -SN OVC013 01/M01 A2950 1260 89 -100 290/11G18 RMK AO2 P0000
14837KMSN MSN20031216091011312/16/03 09:10:31  5-MIN KMSN 161510Z 29012G20KT 5SM -SN OVC013 01/M01 A2951 1250 89 -100 280/12G20 RMK AO2 P0000
14837KMSN MSN20031216091511312/16/03 09:15:31  5-MIN KMSN 161515Z 29009G20KT 5SM -SN OVC013 00/M02 A2951 1250 88 -200 290/09G20 RMK AO2 P0000
14837KMSN MSN20031216092011312/16/03 09:20:31  5-MIN KMSN 161520Z 29013G17KT 5SM -SN OVC013 00/M02 A2951 1240 88 -200 290/13G17 RMK AO2 P0000
14837KMSN MSN20031216092512012/16/03 09:25:31  5-MIN KMSN 161525Z 29015G20KT 5SM -SN BKN013 OVC018 00/M02 A2952 1240 85 -200 290/15G20 RMK AO2 P0000
14837KMSN MSN20031216093012012/16/03 09:30:31  5-MIN KMSN 161530Z 29014G20KT 5SM -SN SCT013 OVC020 00/M02 A2952 1240 85 -200 290/14G20 RMK AO2 P0000
14837KMSN MSN20031216093512712/16/03 09:35:31  5-MIN KMSN 161535Z 29010G20KT 4SM -SN BKN013 BKN022 OVC036 00/M03 A2953 1230 81 -200 290/10G20 RMK AO2 P0000
14837KMSN MSN20031216094012012/16/03 09:40:31  5-MIN KMSN 161540Z 29012G19KT 4SM -SN BKN013 OVC022 00/M03 A2953 1230 81 -200 290/12G19 RMK AO2 P0000
14837KMSN MSN20031216094512712/16/03 09:45:31  5-MIN KMSN 161545Z 29012G20KT 4SM -SN BKN017 BKN022 OVC036 00/M03 A2953 1220 81 -200 290/12G20 RMK AO2 P0000
14837KMSN MSN20031216095014412/16/03 09:50:31  5-MIN KMSN 161550Z 30010G20KT 4SM -SN SCT017 BKN022 OVC038 00/M03 A2954 1220 81 -200 290/10G20 RMK AO2 SLP010 P0000 T00001028
14837KMSN MSN20031216095512212/16/03 09:55:31  5-MIN KMSN 161555Z 29010KT 4SM -SN BKN015 BKN022 OVC038 M01/M03 A2954 1220 85 -300 290/10 RMK AO2 P0000
14837KMSN MSN20031216100012812/16/03 10:00:31  5-MIN KMSN 161600Z 29012G18KT 4SM -SN BKN015 BKN022 OVC038 M01/M03 A2954 1210 81 -300 290/12G18 RMK AO2 P0000
14837KMSN MSN20031216100511412/16/03 10:05:31  5-MIN KMSN 161605Z 29013G20KT 4SM -SN OVC018 M01/M03 A2955 1210 81 -300 290/13G20 RMK AO2 P0000
14837KMSN MSN20031216101012112/16/03 10:10:31  5-MIN KMSN 161610Z 29012G20KT 4SM -SN BKN018 OVC022 M01/M03 A2955 1210 81 -300 280/12G20 RMK AO2 P0000
14837KMSN MSN20031216101511412/16/03 10:15:31  5-MIN KMSN 161615Z 29011G17KT 4SM -SN OVC018 M01/M03 A2956 1200 81 -300 290/11G17 RMK AO2 P0000
14837KMSN MSN20031216102010812/16/03 10:20:31  5-MIN KMSN 161620Z 28009KT 5SM -SN OVC018 M01/M03 A2956 1200 81 -300 280/09 RMK AO2 P0000
14837KMSN MSN20031216102511412/16/03 10:25:31  5-MIN KMSN 161625Z 28012G19KT 8SM -SN OVC018 M01/M04 A2956 1190 78 -300 280/12G19 RMK AO2 P0000
14837KMSN MSN20031216103011412/16/03 10:30:31  5-MIN KMSN 161630Z 28012G22KT 9SM -SN OVC018 M01/M04 A2957 1190 75 -300 280/12G22 RMK AO2 P0000
14837KMSN MSN20031216103511412/16/03 10:35:31  5-MIN KMSN 161635Z 28009G22KT 8SM -SN OVC018 M01/M04 A2957 1190 75 -300 280/09G22 RMK AO2 P0000
14837KMSN MSN20031216104013712/16/03 10:40:31  5-MIN KMSN 161640Z 28010G19KT 250V310 8SM -SN BKN018 OVC022 M01/M04 A2957 1190 78 -300 280/10G19 250V310 RMK AO2 P0000
14837KMSN MSN20031216104511412/16/03 10:45:31  5-MIN KMSN 161645Z 29011G17KT 9SM -SN OVC018 M01/M04 A2957 1190 78 -400 290/11G17 RMK AO2 P0000
14837KMSN MSN20031216105014712/16/03 10:50:31  5-MIN KMSN 161650Z 29012G21KT 250V310 9SM -SN OVC018 M01/M04 A2958 1180 78 -400 290/12G21 250V310 RMK AO2 SLP024 P0000 T10111044
14837KMSN MSN20031216105511412/16/03 10:55:31  5-MIN KMSN 161655Z 29013G21KT 9SM -SN OVC020 M01/M05 A2958 1180 75 -400 290/13G21 RMK AO2 P0000
14837KMSN MSN20031216110011412/16/03 11:00:31  5-MIN KMSN 161700Z 29009G20KT 8SM -SN OVC020 M01/M05 A2958 1180 75 -400 290/09G20 RMK AO2 P0000
14837KMSN MSN20031216110511412/16/03 11:05:31  5-MIN KMSN 161705Z 29009G18KT 8SM -SN OVC020 M01/M05 A2958 1180 75 -400 290/09G18 RMK AO2 P0000
14837KMSN MSN20031216111011412/16/03 11:10:31  5-MIN KMSN 161710Z 28016G20KT 8SM -SN OVC020 M01/M05 A2958 1180 75 -400 280/16G20 RMK AO2 P0000
14837KMSN MSN20031216111511412/16/03 11:15:31  5-MIN KMSN 161715Z 28011G21KT 7SM -SN OVC020 M01/M05 A2958 1180 75 -400 280/11G21 RMK AO2 P0000
14837KMSN MSN20031216112011412/16/03 11:20:31  5-MIN KMSN 161720Z 29009G21KT 8SM -SN OVC020 M01/M05 A2959 1170 75 -400 290/09G21 RMK AO2 P0000
14837KMSN MSN20031216112511412/16/03 11:25:31  5-MIN KMSN 161725Z 29011G15KT 8SM -SN OVC020 M01/M05 A2959 1170 75 -400 290/11G15 RMK AO2 P0000
14837KMSN MSN20031216113011012/16/03 11:30:31  5-MIN KMSN 161730Z 29011KT 9SM OVC020 M01/M05 A2959 1170 75 -400 290/11 RMK AO2 SNE29 P0000
14837KMSN MSN20031216113511712/16/03 11:35:31  5-MIN KMSN 161735Z 29011G18KT 10SM OVC020 M01/M06 A2960 1160 72 -400 290/11G18 RMK AO2 SNE29 P0000
14837KMSN MSN20031216114011712/16/03 11:40:31  5-MIN KMSN 161740Z 28012G21KT 10SM OVC020 M01/M06 A2960 1160 72 -400 280/12G21 RMK AO2 SNE29 P0000
14837KMSN MSN20031216114511712/16/03 11:45:31  5-MIN KMSN 161745Z 29017G23KT 10SM OVC020 M01/M06 A2960 1160 69 -400 290/17G23 RMK AO2 SNE29 P0000
14837KMSN MSN20031216115015812/16/03 11:50:31  5-MIN KMSN 161750Z 29014G23KT 10SM OVC022 M01/M06 A2960 1160 69 -400 290/14G23 RMK AO2 SNE29 SLP033 P0000 60002 T10111061 10033 21011 53030
14837KMSN MSN20031216115510512/16/03 11:55:31  5-MIN KMSN 161755Z 29010G17KT 10SM OVC022 M01/M06 A2961 1160 72 -400 290/10G17 RMK AO2
14837KMSN MSN20031216120010512/16/03 12:00:31  5-MIN KMSN 161800Z 29014G21KT 10SM OVC022 M01/M06 A2961 1160 72 -400 290/14G21 RMK AO2
14837KMSN MSN20031216120512112/16/03 12:05:31  5-MIN KMSN 161805Z 28009G21KT 250V310 10SM OVC022 M01/M06 A2961 1160 69 -400 280/09G21 250V310 RMK AO2
14837KMSN MSN20031216121010512/16/03 12:10:31  5-MIN KMSN 161810Z 29015G20KT 10SM OVC022 M01/M06 A2961 1150 72 -400 290/15G20 RMK AO2
14837KMSN MSN20031216121510512/16/03 12:15:31  5-MIN KMSN 161815Z 30011G20KT 10SM OVC022 M01/M06 A2962 1150 72 -500 290/11G20 RMK AO2
14837KMSN MSN20031216122010512/16/03 12:20:31  5-MIN KMSN 161820Z 30014G24KT 10SM OVC022 M01/M06 A2962 1140 72 -500 300/14G24 RMK AO2
14837KMSN MSN20031216122510512/16/03 12:25:31  5-MIN KMSN 161825Z 29011G24KT 10SM OVC022 M01/M06 A2962 1140 72 -500 290/11G24 RMK AO2
14837KMSN MSN20031216123010512/16/03 12:30:31  5-MIN KMSN 161830Z 29010G17KT 10SM OVC022 M01/M06 A2962 1140 72 -500 290/10G17 RMK AO2
14837KMSN MSN20031216123510512/16/03 12:35:31  5-MIN KMSN 161835Z 29015G18KT 10SM OVC022 M01/M06 A2962 1140 72 -500 290/15G18 RMK AO2
14837KMSN MSN20031216124010512/16/03 12:40:31  5-MIN KMSN 161840Z 29013G18KT 10SM OVC022 M01/M06 A2962 1140 72 -500 290/13G18 RMK AO2
14837KMSN MSN20031216124510512/16/03 12:45:31  5-MIN KMSN 161845Z 29010G20KT 10SM OVC022 M01/M06 A2962 1140 72 -500 290/10G20 RMK AO2
14837KMSN MSN20031216125012212/16/03 12:50:31  5-MIN KMSN 161850Z 29010G20KT 10SM OVC022 M01/M06 A2963 1140 72 -500 290/10G20 RMK AO2 SLP041 T10111056
14837KMSN MSN20031216125510512/16/03 12:55:31  5-MIN KMSN 161855Z 29010G17KT 10SM OVC022 M01/M06 A2963 1140 72 -500 290/10G17 RMK AO2
14837KMSN MSN20031216130010512/16/03 13:00:31  5-MIN KMSN 161900Z 28011G19KT 10SM OVC022 M01/M06 A2963 1130 72 -500 280/11G19 RMK AO2
14837KMSN MSN20031216130510512/16/03 13:05:31  5-MIN KMSN 161905Z 29012G19KT 10SM OVC022 M01/M05 A2963 1130 75 -500 290/12G19 RMK AO2
14837KMSN MSN20031216131010512/16/03 13:10:31  5-MIN KMSN 161910Z 29012G17KT 10SM OVC022 M01/M05 A2963 1130 75 -500 280/12G17 RMK AO2
14837KMSN MSN20031216131510512/16/03 13:15:31  5-MIN KMSN 161915Z 29010G17KT 10SM OVC022 M01/M05 A2964 1130 75 -500 280/10G17 RMK AO2
14837KMSN MSN20031216132009912/16/03 13:20:31  5-MIN KMSN 161920Z 29010KT 10SM OVC022 M01/M05 A2964 1130 75 -500 280/10 RMK AO2
14837KMSN MSN20031216132510412/16/03 13:25:31  5-MIN KMSN 161925Z 28009G15KT 9SM OVC022 M01/M05 A2964 1120 75 -500 280/09G15 RMK AO2
14837KMSN MSN20031216133009912/16/03 13:30:31  5-MIN KMSN 161930Z 29009KT 10SM OVC022 M01/M05 A2965 1120 75 -500 280/09 RMK AO2
14837KMSN MSN20031216133510512/16/03 13:35:31  5-MIN KMSN 161935Z 28011G17KT 10SM OVC022 M01/M05 A2965 1120 75 -500 280/11G17 RMK AO2
14837KMSN MSN20031216134010512/16/03 13:40:31  5-MIN KMSN 161940Z 28009G17KT 10SM OVC022 M01/M06 A2965 1120 72 -500 280/09G17 RMK AO2
14837KMSN MSN20031216134509912/16/03 13:45:31  5-MIN KMSN 161945Z 29012KT 10SM OVC022 M01/M06 A2965 1120 72 -500 290/12 RMK AO2
14837KMSN MSN20031216135015412/16/03 13:50:31  5-MIN KMSN 161950Z 28008G16KT 250V320 10SM -SN OVC022 M01/M05 A2965 1120 75 -500 270/08G16 250V320 RMK AO2 SNB46 SLP049 P0000 T10111050
14837KMSN MSN20031216135511412/16/03 13:55:31  5-MIN KMSN 161955Z 29013G16KT 9SM -SN OVC022 M01/M05 A2965 1110 75 -500 280/13G16 RMK AO2 P0000
14837KMSN MSN20031216140011412/16/03 14:00:31  5-MIN KMSN 162000Z 29012G17KT 9SM -SN OVC020 M01/M06 A2966 1110 72 -500 290/12G17 RMK AO2 P0000
14837KMSN MSN20031216140513012/16/03 14:05:31  5-MIN KMSN 162005Z 29011G20KT 260V330 9SM -SN OVC022 M01/M06 A2966 1110 72 -500 290/11G20 260V330 RMK AO2 P0000
14837KMSN MSN20031216141011612/16/03 14:10:31  5-MIN KMSN 162010Z 28011G20KT 9SM OVC022 M01/M06 A2966 1100 72 -500 280/11G20 RMK AO2 SNE07 P0000
14837KMSN MSN20031216141511712/16/03 14:15:31  5-MIN KMSN 162015Z 29009G16KT 10SM OVC022 M01/M06 A2967 1100 72 -500 290/09G16 RMK AO2 SNE07 P0000
14837KMSN MSN20031216142011712/16/03 14:20:31  5-MIN KMSN 162020Z 29010G19KT 10SM OVC022 M01/M06 A2967 1100 69 -500 290/10G19 RMK AO2 SNE07 P0000
14837KMSN MSN20031216142512412/16/03 14:25:31  5-MIN KMSN 162025Z 30009G19KT 10SM -SN OVC022 M01/M06 A2967 1090 69 -500 300/09G19 RMK AO2 SNE07B24 P0000
14837KMSN MSN20031216143011712/16/03 14:30:31  5-MIN KMSN 162030Z 29010KT 9SM -SN OVC022 M01/M06 A2967 1090 72 -500 280/10 RMK AO2 SNE07B24 P0000
14837KMSN MSN20031216143512312/16/03 14:35:31  5-MIN KMSN 162035Z 29010G16KT 9SM -SN OVC022 M01/M06 A2968 1090 72 -500 290/10G16 RMK AO2 SNE07B24 P0000
14837KMSN MSN20031216144012312/16/03 14:40:31  5-MIN KMSN 162040Z 29011G17KT 9SM -SN OVC022 M02/M06 A2968 1090 75 -600 290/11G17 RMK AO2 SNE07B24 P0000
14837KMSN MSN20031216144512312/16/03 14:45:31  5-MIN KMSN 162045Z 29012G17KT 9SM -SN OVC022 M02/M06 A2968 1080 72 -600 290/12G17 RMK AO2 SNE07B24 P0000
14837KMSN MSN20031216145015112/16/03 14:50:31  5-MIN KMSN 162050Z 29011G17KT 9SM OVC022 M02/M06 A2969 1080 72 -600 290/11G17 RMK AO2 SNE07B24E50 SLP063 P0000 60000 T10171061 51038
14837KMSN MSN20031216145510412/16/03 14:55:31  5-MIN KMSN 162055Z 29012G16KT 9SM OVC022 M02/M06 A2969 1070 72 -600 290/12G16 RMK AO2
14837KMSN MSN20031216150010512/16/03 15:00:31  5-MIN KMSN 162100Z 28008G16KT 10SM OVC022 M02/M06 A2970 1070 72 -600 280/08G16 RMK AO2
14837KMSN MSN20031216150509912/16/03 15:05:31  5-MIN KMSN 162105Z 28010KT 10SM OVC022 M02/M06 A2970 1070 72 -600 280/10 RMK AO2
14837KMSN MSN20031216151010512/16/03 15:10:31  5-MIN KMSN 162110Z 29009G16KT 10SM OVC024 M02/M06 A2970 1070 72 -600 290/09G16 RMK AO2
14837KMSN MSN20031216151512812/16/03 15:15:31  5-MIN KMSN 162115Z 28011G16KT 10SM -SN BKN020 OVC025 M02/M06 A2971 1060 72 -600 280/11G16 RMK AO2 SNB15 P0000
14837KMSN MSN20031216152012712/16/03 15:20:31  5-MIN KMSN 162120Z 27014G20KT 6SM -SN BKN020 OVC025 M02/M06 A2971 1060 75 -600 270/14G20 RMK AO2 SNB15 P0000
14837KMSN MSN20031216152512712/16/03 15:25:31  5-MIN KMSN 162125Z 27011G20KT 6SM -SN BKN018 OVC025 M02/M06 A2971 1060 78 -700 270/11G20 RMK AO2 SNB15 P0000
14837KMSN MSN20031216153014312/16/03 15:30:31  5-MIN KMSN 162130Z 27008G18KT 220V290 6SM -SN BKN018 OVC025 M02/M06 A2972 1050 78 -700 270/08G18 220V290 RMK AO2 SNB15 P0000
14837KMSN MSN20031216153512012/16/03 15:35:31  5-MIN KMSN 162135Z 27010G17KT 7SM -SN OVC018 M02/M06 A2972 1050 78 -700 270/10G17 RMK AO2 SNB15 P0000
14837KMSN MSN20031216154012012/16/03 15:40:31  5-MIN KMSN 162140Z 28012G20KT 8SM -SN OVC018 M02/M06 A2972 1050 75 -700 280/12G20 RMK AO2 SNB15 P0000
14837KMSN MSN20031216154512012/16/03 15:45:31  5-MIN KMSN 162145Z 28010G20KT 8SM -SN OVC018 M02/M06 A2973 1040 75 -700 280/10G20 RMK AO2 SNB15 P0000
14837KMSN MSN20031216155013712/16/03 15:50:31  5-MIN KMSN 162150Z 28011G16KT 8SM -SN OVC018 M02/M06 A2973 1040 75 -700 280/11G16 RMK AO2 SNB15 SLP076 P0000 T10221061
14837KMSN MSN20031216155511412/16/03 15:55:31  5-MIN KMSN 162155Z 28011G16KT 9SM -SN OVC018 M02/M06 A2973 1040 75 -700 280/11G16 RMK AO2 P0000
14837KMSN MSN20031216160011412/16/03 16:00:31  5-MIN KMSN 162200Z 26008G16KT 9SM -SN OVC018 M02/M06 A2974 1040 75 -700 260/08G16 RMK AO2 P0000
14837KMSN MSN20031216160511412/16/03 16:05:31  5-MIN KMSN 162205Z 28011G18KT 8SM -SN OVC018 M03/M06 A2974 1030 78 -800 280/11G18 RMK AO2 P0000
14837KMSN MSN20031216161011412/16/03 16:10:31  5-MIN KMSN 162210Z 29010G18KT 8SM -SN OVC018 M03/M06 A2974 1030 78 -800 290/10G18 RMK AO2 P0000
14837KMSN MSN20031216161511412/16/03 16:15:31  5-MIN KMSN 162215Z 29013G20KT 8SM -SN OVC018 M03/M06 A2974 1030 78 -800 290/13G20 RMK AO2 P0000
14837KMSN MSN20031216162011612/16/03 16:20:31  5-MIN KMSN 162220Z 28011G20KT 9SM OVC018 M03/M06 A2974 1030 78 -800 280/11G20 RMK AO2 SNE16 P0000
14837KMSN MSN20031216162511612/16/03 16:25:31  5-MIN KMSN 162225Z 27012G17KT 8SM OVC018 M03/M06 A2975 1030 78 -800 270/12G17 RMK AO2 SNE16 P0000
14837KMSN MSN20031216163011612/16/03 16:30:31  5-MIN KMSN 162230Z 27010G20KT 8SM OVC018 M03/M06 A2975 1020 78 -800 270/10G20 RMK AO2 SNE16 P0000
14837KMSN MSN20031216163511612/16/03 16:35:31  5-MIN KMSN 162235Z 28009G20KT 8SM OVC018 M03/M06 A2975 1020 78 -800 280/09G20 RMK AO2 SNE16 P0000
14837KMSN MSN20031216164011612/16/03 16:40:31  5-MIN KMSN 162240Z 28013G16KT 7SM OVC018 M03/M07 A2975 1020 75 -800 280/13G16 RMK AO2 SNE16 P0000
14837KMSN MSN20031216164511712/16/03 16:45:31  5-MIN KMSN 162245Z 29008G16KT 10SM OVC018 M03/M07 A2975 1020 75 -800 290/08G16 RMK AO2 SNE16 P0000
14837KMSN MSN20031216165013412/16/03 16:50:31  5-MIN KMSN 162250Z 29012G17KT 10SM OVC020 M03/M07 A2975 1020 75 -800 290/12G17 RMK AO2 SNE16 SLP084 P0000 T10281067
14837KMSN MSN20031216165510512/16/03 16:55:31  5-MIN KMSN 162255Z 28010G17KT 10SM OVC018 M03/M07 A2976 1020 75 -800 280/10G17 RMK AO2
14837KMSN MSN20031216170010512/16/03 17:00:31  5-MIN KMSN 162300Z 28007G17KT 10SM OVC018 M03/M07 A2976 1010 75 -800 280/07G17 RMK AO2
14837KMSN MSN20031216170512112/16/03 17:05:31  5-MIN KMSN 162305Z 29009G15KT 250V310 10SM OVC018 M03/M07 A2976 1010 75 -800 290/09G15 250V310 RMK AO2
14837KMSN MSN20031216171010512/16/03 17:10:31  5-MIN KMSN 162310Z 29012G18KT 10SM OVC018 M03/M07 A2977 1010 78 -900 280/12G18 RMK AO2
14837KMSN MSN20031216171510512/16/03 17:15:31  5-MIN KMSN 162315Z 28015G19KT 10SM OVC018 M03/M07 A2977 1000 74 -900 280/15G19 RMK AO2
14837KMSN MSN20031216172010512/16/03 17:20:31  5-MIN KMSN 162320Z 28014G20KT 10SM OVC018 M03/M07 A2977 1000 78 -900 280/14G20 RMK AO2
14837KMSN MSN20031216172510512/16/03 17:25:31  5-MIN KMSN 162325Z 29012G20KT 10SM OVC018 M03/M07 A2977 1000 78 -900 280/12G20 RMK AO2
14837KMSN MSN20031216173010412/16/03 17:30:31  5-MIN KMSN 162330Z 28013G18KT 9SM OVC018 M03/M07 A2977 1000 74 -900 280/13G18 RMK AO2
14837KMSN MSN20031216173510412/16/03 17:35:31  5-MIN KMSN 162335Z 29012G18KT 9SM OVC018 M03/M07 A2978 1000 78 -900 280/12G18 RMK AO2
14837KMSN MSN20031216174012012/16/03 17:40:31  5-MIN KMSN 162340Z 27010G19KT 9SM -SN OVC018 M03/M08 A2978 1000 71 -900 270/10G19 RMK AO2 SNB40 P0000
14837KMSN MSN20031216174513512/16/03 17:45:31  5-MIN KMSN 162345Z 28012G19KT 240V300 9SM -SN OVC018 M03/M07 A2978 990 74 -900 280/12G19 240V300 RMK AO2 SNB40 P0000
14837KMSN MSN20031216175016012/16/03 17:50:31  5-MIN KMSN 162350Z 28011G18KT 9SM -SN OVC018 M03/M07 A2978 990 74 -900 280/11G18 RMK AO2 SNB40 SLP095 P0000 60000 T10331072 11011 21033 53029
14837KMSN MSN20031216175511312/16/03 17:55:31  5-MIN KMSN 162355Z 28010G16KT 9SM -SN OVC018 M03/M07 A2979 990 74 -900 280/10G16 RMK AO2 P0000
14837KMSN MSN20031216180011312/16/03 18:00:31  5-MIN KMSN 170000Z 28009G16KT 9SM -SN OVC018 M03/M07 A2979 980 74 -900 280/09G16 RMK AO2 P0000
14837KMSN MSN20031216180512412/16/03 18:05:31  5-MIN KMSN 170005Z 29011KT 250V330 9SM -SN OVC018 M04/M07 A2979 980 78 -1000 290/11 250V330 RMK AO2 P0000
14837KMSN MSN20031216181011412/16/03 18:10:31  5-MIN KMSN 170010Z 29011G18KT 9SM -SN OVC018 M04/M07 A2979 980 78 -1000 290/11G18 RMK AO2 P0000
14837KMSN MSN20031216181513012/16/03 18:15:31  5-MIN KMSN 170015Z 30011G18KT 260V330 9SM -SN OVC018 M04/M07 A2979 980 78 -1000 300/11G18 260V330 RMK AO2 P0000
14837KMSN MSN20031216182011412/16/03 18:20:31  5-MIN KMSN 170020Z 29013G18KT 9SM -SN OVC018 M04/M08 A2980 980 74 -1000 290/13G18 RMK AO2 P0000
14837KMSN MSN20031216182511412/16/03 18:25:31  5-MIN KMSN 170025Z 29012G19KT 9SM -SN OVC018 M04/M07 A2980 980 78 -1000 290/12G19 RMK AO2 P0000
14837KMSN MSN20031216183011412/16/03 18:30:31  5-MIN KMSN 170030Z 30008G19KT 9SM -SN OVC018 M04/M08 A2980 980 74 -1000 300/08G19 RMK AO2 P0000
14837KMSN MSN20031216183511412/16/03 18:35:31  5-MIN KMSN 170035Z 29012G21KT 9SM -SN OVC018 M04/M07 A2980 980 78 -1000 290/12G21 RMK AO2 P0000
14837KMSN MSN20031216184011412/16/03 18:40:31  5-MIN KMSN 170040Z 29015G23KT 9SM -SN OVC018 M04/M08 A2980 980 74 -1000 290/15G23 RMK AO2 P0000
14837KMSN MSN20031216184511412/16/03 18:45:31  5-MIN KMSN 170045Z 29012G23KT 9SM -SN OVC018 M04/M08 A2980 980 74 -1000 290/12G23 RMK AO2 P0000
14837KMSN MSN20031216185013112/16/03 18:50:31  5-MIN KMSN 170050Z 29012G19KT 9SM -SN OVC018 M04/M08 A2980 980 74 -1000 290/12G19 RMK AO2 SLP100 P0000 T10391078
14837KMSN MSN20031216185511412/16/03 18:55:31  5-MIN KMSN 170055Z 30010G18KT 9SM -SN OVC018 M04/M08 A2980 980 74 -1000 300/10G18 RMK AO2 P0000
14837KMSN MSN20031216190011412/16/03 19:00:31  5-MIN KMSN 170100Z 30012G19KT 9SM -SN OVC020 M04/M07 A2980 980 78 -1000 300/12G19 RMK AO2 P0000
14837KMSN MSN20031216190511412/16/03 19:05:31  5-MIN KMSN 170105Z 30009G19KT 9SM -SN OVC020 M04/M07 A2980 970 78 -1000 300/09G19 RMK AO2 P0000
14837KMSN MSN20031216191011412/16/03 19:10:31  5-MIN KMSN 170110Z 29011G17KT 9SM -SN OVC020 M04/M07 A2980 970 78 -1000 290/11G17 RMK AO2 P0000
14837KMSN MSN20031216191511412/16/03 19:15:31  5-MIN KMSN 170115Z 30009G17KT 9SM -SN OVC020 M04/M08 A2980 970 74 -1000 300/09G17 RMK AO2 P0000
14837KMSN MSN20031216192011412/16/03 19:20:31  5-MIN KMSN 170120Z 29005G14KT 9SM -SN OVC020 M04/M08 A2980 970 74 -1000 290/05G14 RMK AO2 P0000
14837KMSN MSN20031216192510812/16/03 19:25:31  5-MIN KMSN 170125Z 29008KT 9SM -SN OVC020 M04/M07 A2980 980 78 -1000 290/08 RMK AO2 P0000
14837KMSN MSN20031216193011412/16/03 19:30:31  5-MIN KMSN 170130Z 30010G15KT 9SM -SN OVC018 M04/M08 A2980 970 74 -1000 300/10G15 RMK AO2 P0000
14837KMSN MSN20031216193511412/16/03 19:35:31  5-MIN KMSN 170135Z 29009G15KT 9SM -SN OVC018 M04/M07 A2980 970 78 -1000 290/09G15 RMK AO2 P0000
14837KMSN MSN20031216194011412/16/03 19:40:31  5-MIN KMSN 170140Z 30012G18KT 9SM -SN OVC018 M04/M08 A2980 970 74 -1000 300/12G18 RMK AO2 P0000
14837KMSN MSN20031216194511412/16/03 19:45:31  5-MIN KMSN 170145Z 30011G18KT 9SM -SN OVC018 M04/M07 A2981 970 78 -1000 300/11G18 RMK AO2 P0000
14837KMSN MSN20031216195012512/16/03 19:50:31  5-MIN KMSN 170150Z 30009KT 9SM -SN OVC018 M04/M07 A2981 970 78 -1000 300/09 RMK AO2 SLP104 P0000 T10391072
14837KMSN MSN20031216195510812/16/03 19:55:31  5-MIN KMSN 170155Z 29009KT 9SM -SN OVC018 M04/M07 A2981 970 78 -1000 290/09 RMK AO2 P0000
14837KMSN MSN20031216200010812/16/03 20:00:31  5-MIN KMSN 170200Z 29010KT 9SM -SN OVC018 M04/M07 A2981 970 78 -1000 290/10 RMK AO2 P0000
14837KMSN MSN20031216200510812/16/03 20:05:31  5-MIN KMSN 170205Z 29008KT 9SM -SN OVC018 M04/M07 A2981 970 78 -1000 290/08 RMK AO2 P0000
14837KMSN MSN20031216201010812/16/03 20:10:31  5-MIN KMSN 170210Z 28008KT 9SM -SN OVC018 M04/M07 A2981 970 78 -1000 280/08 RMK AO2 P0000
14837KMSN MSN20031216201511412/16/03 20:15:31  5-MIN KMSN 170215Z 28010G19KT 9SM -SN OVC018 M04/M07 A2980 970 78 -1000 280/10G19 RMK AO2 P0000
14837KMSN MSN20031216202011412/16/03 20:20:31  5-MIN KMSN 170220Z 28013G22KT 9SM -SN OVC018 M04/M08 A2980 970 74 -1000 280/13G22 RMK AO2 P0000
14837KMSN MSN20031216202511412/16/03 20:25:31  5-MIN KMSN 170225Z 28011G22KT 9SM -SN OVC018 M04/M07 A2980 970 78 -1000 280/11G22 RMK AO2 P0000
14837KMSN MSN20031216203011412/16/03 20:30:31  5-MIN KMSN 170230Z 29009G16KT 9SM -SN OVC018 M04/M08 A2980 970 74 -1000 290/09G16 RMK AO2 P0000
14837KMSN MSN20031216203511412/16/03 20:35:31  5-MIN KMSN 170235Z 28010G17KT 9SM -SN OVC018 M04/M08 A2980 970 74 -1000 280/10G17 RMK AO2 P0000
14837KMSN MSN20031216204011412/16/03 20:40:31  5-MIN KMSN 170240Z 29006G17KT 9SM -SN OVC018 M04/M08 A2980 970 74 -1000 290/06G17 RMK AO2 P0000
14837KMSN MSN20031216204511412/16/03 20:45:31  5-MIN KMSN 170245Z 29012G16KT 9SM -SN OVC018 M04/M08 A2980 970 74 -1000 280/12G16 RMK AO2 P0000
14837KMSN MSN20031216205015312/16/03 20:50:31  5-MIN KMSN 170250Z 28011KT 240V300 9SM -SN OVC018 M04/M08 A2980 970 74 -1000 280/11 240V300 RMK AO2 SLP102 P0000 60000 T10391078 51031
14837KMSN MSN20031216205511412/16/03 20:55:31  5-MIN KMSN 170255Z 29011G16KT 9SM -SN OVC018 M04/M07 A2980 970 78 -1000 290/11G16 RMK AO2 P0000
14837KMSN MSN20031216210010812/16/03 21:00:31  5-MIN KMSN 170300Z 29008KT 9SM -SN OVC018 M04/M08 A2980 970 74 -1000 290/08 RMK AO2 P0000
14837KMSN MSN20031216210511412/16/03 21:05:31  5-MIN KMSN 170305Z 29012G16KT 9SM -SN OVC018 M04/M08 A2980 970 74 -1000 290/12G16 RMK AO2 P0000
14837KMSN MSN20031216211010812/16/03 21:10:31  5-MIN KMSN 170310Z 29011KT 9SM -SN OVC018 M04/M07 A2980 970 78 -1000 290/11 RMK AO2 P0000
14837KMSN MSN20031216211510812/16/03 21:15:31  5-MIN KMSN 170315Z 29010KT 9SM -SN OVC018 M04/M08 A2980 970 74 -1000 290/10 RMK AO2 P0000
14837KMSN MSN20031216212011412/16/03 21:20:31  5-MIN KMSN 170320Z 29013G17KT 9SM -SN OVC018 M04/M08 A2980 970 74 -1000 280/13G17 RMK AO2 P0000
14837KMSN MSN20031216212511412/16/03 21:25:31  5-MIN KMSN 170325Z 29013G17KT 9SM -SN OVC018 M04/M08 A2981 970 74 -1000 290/13G17 RMK AO2 P0000
14837KMSN MSN20031216213010812/16/03 21:30:31  5-MIN KMSN 170330Z 29014KT 9SM -SN OVC018 M04/M08 A2981 970 74 -1000 290/14 RMK AO2 P0000
14837KMSN MSN20031216213511412/16/03 21:35:31  5-MIN KMSN 170335Z 29010G18KT 9SM -SN OVC018 M04/M08 A2981 970 74 -1000 290/10G18 RMK AO2 P0000
14837KMSN MSN20031216214011412/16/03 21:40:31  5-MIN KMSN 170340Z 29014G19KT 9SM -SN OVC018 M04/M08 A2981 970 78 -1100 290/14G19 RMK AO2 P0000
14837KMSN MSN20031216214511612/16/03 21:45:31  5-MIN KMSN 170345Z 30010G19KT 9SM OVC018 M04/M08 A2981 970 78 -1100 300/10G19 RMK AO2 SNE41 P0000
14837KMSN MSN20031216215012812/16/03 21:50:31  5-MIN KMSN 170350Z 29014KT 10SM OVC018 M04/M08 A2981 970 78 -1100 290/14 RMK AO2 SNE41 SLP104 P0000 T10441078
14837KMSN MSN20031216215510512/16/03 21:55:31  5-MIN KMSN 170355Z 29013G18KT 10SM OVC018 M04/M08 A2981 970 78 -1100 280/13G18 RMK AO2
14837KMSN MSN20031216220012112/16/03 22:00:31  5-MIN KMSN 170400Z 30011G18KT 260V320 10SM OVC018 M04/M08 A2981 970 78 -1100 290/11G18 260V320 RMK AO2
14837KMSN MSN20031216220510512/16/03 22:05:31  5-MIN KMSN 170405Z 30012G18KT 10SM OVC018 M04/M08 A2981 970 78 -1100 300/12G18 RMK AO2
14837KMSN MSN20031216221009912/16/03 22:10:31  5-MIN KMSN 170410Z 30015KT 10SM OVC018 M04/M08 A2981 960 78 -1100 300/15 RMK AO2
14837KMSN MSN20031216221509912/16/03 22:15:31  5-MIN KMSN 170415Z 29011KT 10SM OVC018 M04/M08 A2982 960 78 -1100 290/11 RMK AO2
14837KMSN MSN20031216222010512/16/03 22:20:31  5-MIN KMSN 170420Z 30012G19KT 10SM OVC018 M04/M08 A2982 960 74 -1100 290/12G19 RMK AO2
14837KMSN MSN20031216222510512/16/03 22:25:31  5-MIN KMSN 170425Z 29010G19KT 10SM OVC018 M04/M08 A2982 960 78 -1100 290/10G19 RMK AO2
14837KMSN MSN20031216223010512/16/03 22:30:31  5-MIN KMSN 170430Z 30011G16KT 10SM OVC018 M04/M08 A2982 960 78 -1100 300/11G16 RMK AO2
14837KMSN MSN20031216223510512/16/03 22:35:31  5-MIN KMSN 170435Z 29012G16KT 10SM OVC018 M04/M08 A2982 950 78 -1100 290/12G16 RMK AO2
14837KMSN MSN20031216224010512/16/03 22:40:31  5-MIN KMSN 170440Z 29009G15KT 10SM OVC018 M04/M08 A2982 960 78 -1100 280/09G15 RMK AO2
14837KMSN MSN20031216224509912/16/03 22:45:31  5-MIN KMSN 170445Z 28010KT 10SM OVC018 M04/M08 A2982 950 78 -1100 280/10 RMK AO2
14837KMSN MSN20031216225011612/16/03 22:50:31  5-MIN KMSN 170450Z 28010KT 10SM OVC018 M04/M08 A2982 950 78 -1100 280/10 RMK AO2 SLP111 T10441078
14837KMSN MSN20031216225510512/16/03 22:55:31  5-MIN KMSN 170455Z 28011G17KT 10SM OVC018 M04/M07 A2982 950 81 -1100 280/11G17 RMK AO2
14837KMSN MSN20031216230010512/16/03 23:00:31  5-MIN KMSN 170500Z 28010G17KT 10SM OVC018 M04/M07 A2983 950 81 -1100 280/10G17 RMK AO2
14837KMSN MSN20031216230509912/16/03 23:05:31  5-MIN KMSN 170505Z 29010KT 10SM OVC018 M04/M07 A2983 950 81 -1100 290/10 RMK AO2
14837KMSN MSN20031216231009912/16/03 23:10:31  5-MIN KMSN 170510Z 29012KT 10SM OVC018 M04/M09 A2983 950 71 -1100 290/12 RMK AO2
14837KMSN MSN20031216231510512/16/03 23:15:31  5-MIN KMSN 170515Z 29010G16KT 10SM OVC018 M04/M09 A2983 950 71 -1100 290/10G16 RMK AO2
14837KMSN MSN20031216232010512/16/03 23:20:31  5-MIN KMSN 170520Z 28012G16KT 10SM OVC018 M04/M09 A2983 950 71 -1100 280/12G16 RMK AO2
14837KMSN MSN20031216232510512/16/03 23:25:31  5-MIN KMSN 170525Z 28012G17KT 10SM OVC018 M04/M09 A2983 950 71 -1100 280/12G17 RMK AO2
14837KMSN MSN20031216233010512/16/03 23:30:31  5-MIN KMSN 170530Z 28010G18KT 10SM OVC018 M04/M08 A2983 950 74 -1100 280/10G18 RMK AO2
14837KMSN MSN20031216233510512/16/03 23:35:31  5-MIN KMSN 170535Z 28014G18KT 10SM OVC018 M04/M08 A2983 950 74 -1100 280/14G18 RMK AO2
14837KMSN MSN20031216234010512/16/03 23:40:31  5-MIN KMSN 170540Z 28013G18KT 10SM OVC018 M04/M08 A2983 950 74 -1100 280/13G18 RMK AO2
14837KMSN MSN20031216234509912/16/03 23:45:31  5-MIN KMSN 170545Z 29013KT 10SM OVC018 M04/M08 A2982 950 74 -1100 290/13 RMK AO2
14837KMSN MSN20031216235017212/16/03 23:50:31  5-MIN KMSN 170550Z 29010G17KT 10SM -SN OVC018 M04/M08 A2983 950 74 -1100 290/10G17 RMK AO2 SNB47 SLP111 P0000 60000 T10441083 11033 21044 400331044 50006
14837KMSN MSN20031216235511412/16/03 23:55:31  5-MIN KMSN 170555Z 29015G22KT 9SM -SN OVC018 M04/M08 A2983 950 74 -1100 290/15G22 RMK AO2 P0000
14837KMSN MSN20031217000011412/17/03 00:00:31  5-MIN KMSN 170600Z 29014G22KT 9SM -SN OVC018 M04/M08 A2983 950 74 -1100 290/14G22 RMK AO2 P0000
14837KMSN MSN20031217000511412/17/03 00:05:31  5-MIN KMSN 170605Z 30011G19KT 9SM -SN OVC018 M05/M08 A2983 950 77 -1200 300/11G19 RMK AO2 P0000
14837KMSN MSN20031217001010812/17/03 00:10:31  5-MIN KMSN 170610Z 30011KT 9SM -SN OVC018 M05/M08 A2983 950 77 -1200 300/11 RMK AO2 P0000
14837KMSN MSN20031217001510812/17/03 00:15:31  5-MIN KMSN 170615Z 29011KT 9SM -SN OVC018 M05/M08 A2983 950 77 -1200 290/11 RMK AO2 P0000
14837KMSN MSN20031217002010812/17/03 00:20:31  5-MIN KMSN 170620Z 30010KT 9SM -SN OVC018 M05/M08 A2983 950 77 -1200 300/10 RMK AO2 P0000
14837KMSN MSN20031217002511412/17/03 00:25:31  5-MIN KMSN 170625Z 29012G16KT 9SM -SN OVC018 M05/M08 A2983 950 77 -1200 290/12G16 RMK AO2 P0000
14837KMSN MSN20031217003011412/17/03 00:30:31  5-MIN KMSN 170630Z 30009G16KT 9SM -SN OVC018 M05/M08 A2983 950 77 -1200 300/09G16 RMK AO2 P0000
14837KMSN MSN20031217003510812/17/03 00:35:31  5-MIN KMSN 170635Z 29011KT 9SM -SN OVC018 M05/M08 A2984 940 77 -1200 290/11 RMK AO2 P0000
14837KMSN MSN20031217004010812/17/03 00:40:31  5-MIN KMSN 170640Z 29011KT 9SM -SN OVC018 M05/M08 A2984 940 77 -1200 290/11 RMK AO2 P0000
14837KMSN MSN20031217004510812/17/03 00:45:31  5-MIN KMSN 170645Z 30008KT 9SM -SN OVC016 M05/M08 A2984 940 77 -1200 300/08 RMK AO2 P0000
14837KMSN MSN20031217005012712/17/03 00:50:31  5-MIN KMSN 170650Z 31011KT 9SM OVC016 M05/M08 A2983 950 77 -1200 300/11 RMK AO2 SNE49 SLP113 P0000 T10501083
14837KMSN MSN20031217005509912/17/03 00:55:31  5-MIN KMSN 170655Z 31009KT 10SM OVC016 M05/M08 A2983 940 77 -1200 300/09 RMK AO2
14837KMSN MSN20031217010009912/17/03 01:00:31  5-MIN KMSN 170700Z 29008KT 10SM OVC016 M05/M08 A2983 940 77 -1200 290/08 RMK AO2
14837KMSN MSN20031217010510512/17/03 01:05:31  5-MIN KMSN 170705Z 30010G16KT 10SM OVC016 M05/M08 A2984 940 77 -1200 300/10G16 RMK AO2
14837KMSN MSN20031217011010512/17/03 01:10:31  5-MIN KMSN 170710Z 30009G16KT 10SM OVC016 M05/M08 A2984 940 77 -1200 300/09G16 RMK AO2
14837KMSN MSN20031217011510512/17/03 01:15:31  5-MIN KMSN 170715Z 30011G18KT 10SM OVC016 M05/M08 A2984 940 77 -1200 300/11G18 RMK AO2
14837KMSN MSN20031217012010512/17/03 01:20:31  5-MIN KMSN 170720Z 30009G18KT 10SM OVC016 M05/M08 A2984 940 77 -1200 300/09G18 RMK AO2
14837KMSN MSN20031217012509912/17/03 01:25:31  5-MIN KMSN 170725Z 30012KT 10SM OVC016 M05/M08 A2985 930 77 -1200 300/12 RMK AO2
14837KMSN MSN20031217013009912/17/03 01:30:31  5-MIN KMSN 170730Z 30011KT 10SM OVC016 M05/M08 A2985 930 77 -1200 300/11 RMK AO2
14837KMSN MSN20031217013509912/17/03 01:35:31  5-MIN KMSN 170735Z 31011KT 10SM OVC016 M05/M08 A2985 930 77 -1200 300/11 RMK AO2
14837KMSN MSN20031217014012112/17/03 01:40:31  5-MIN KMSN 170740Z 30012G18KT 270V340 10SM OVC016 M05/M08 A2986 920 77 -1200 300/12G18 270V340 RMK AO2
14837KMSN MSN20031217014510512/17/03 01:45:31  5-MIN KMSN 170745Z 30012G18KT 10SM OVC016 M05/M08 A2986 920 77 -1200 300/12G18 RMK AO2
14837KMSN MSN20031217015012212/17/03 01:50:31  5-MIN KMSN 170750Z 31013G17KT 10SM OVC016 M05/M08 A2986 920 77 -1200 310/13G17 RMK AO2 SLP124 T10501083
14837KMSN MSN20031217015510512/17/03 01:55:31  5-MIN KMSN 170755Z 31010G17KT 10SM OVC016 M05/M08 A2987 910 77 -1200 310/10G17 RMK AO2
14837KMSN MSN20031217020009912/17/03 02:00:31  5-MIN KMSN 170800Z 30011KT 10SM OVC016 M05/M08 A2987 910 77 -1200 300/11 RMK AO2
14837KMSN MSN20031217020510512/17/03 02:05:31  5-MIN KMSN 170805Z 32007G16KT 10SM OVC016 M05/M08 A2987 910 77 -1200 320/07G16 RMK AO2
14837KMSN MSN20031217021010512/17/03 02:10:31  5-MIN KMSN 170810Z 31012G16KT 10SM OVC016 M05/M08 A2988 900 77 -1300 310/12G16 RMK AO2
14837KMSN MSN20031217021510512/17/03 02:15:31  5-MIN KMSN 170815Z 30008G16KT 10SM OVC016 M05/M08 A2988 900 77 -1300 300/08G16 RMK AO2
14837KMSN MSN20031217022010512/17/03 02:20:31  5-MIN KMSN 170820Z 31011G17KT 10SM OVC016 M05/M08 A2988 900 77 -1300 310/11G17 RMK AO2
14837KMSN MSN20031217022510512/17/03 02:25:31  5-MIN KMSN 170825Z 30008G17KT 10SM OVC016 M05/M08 A2988 900 77 -1300 300/08G17 RMK AO2
14837KMSN MSN20031217023009912/17/03 02:30:31  5-MIN KMSN 170830Z 30008KT 10SM OVC016 M05/M08 A2989 900 77 -1300 290/08 RMK AO2
14837KMSN MSN20031217023510512/17/03 02:35:31  5-MIN KMSN 170835Z 31010G20KT 10SM OVC016 M06/M08 A2988 900 81 -1300 310/10G20 RMK AO2
14837KMSN MSN20031217024010512/17/03 02:40:31  5-MIN KMSN 170840Z 31008G20KT 10SM OVC016 M06/M08 A2988 900 81 -1300 310/08G20 RMK AO2
14837KMSN MSN20031217024510512/17/03 02:45:31  5-MIN KMSN 170845Z 31009G15KT 10SM OVC016 M06/M08 A2988 900 81 -1300 300/09G15 RMK AO2
14837KMSN MSN20031217025013412/17/03 02:50:31  5-MIN KMSN 170850Z 30012G16KT 10SM OVC016 M06/M08 A2988 900 81 -1300 300/12G16 RMK AO2 SLP132 60000 T10561083 53007
14837KMSN MSN20031217025510512/17/03 02:55:31  5-MIN KMSN 170855Z 30010G16KT 10SM OVC016 M06/M08 A2989 900 81 -1300 300/10G16 RMK AO2
14837KMSN MSN20031217030010512/17/03 03:00:31  5-MIN KMSN 170900Z 30010G16KT 10SM OVC016 M06/M08 A2989 900 81 -1300 300/10G16 RMK AO2
14837KMSN MSN20031217030510512/17/03 03:05:31  5-MIN KMSN 170905Z 30010G16KT 10SM OVC016 M06/M08 A2989 900 81 -1300 300/10G16 RMK AO2
14837KMSN MSN20031217031010512/17/03 03:10:31  5-MIN KMSN 170910Z 30010G16KT 10SM OVC016 M06/M08 A2988 900 81 -1300 300/10G16 RMK AO2
14837KMSN MSN20031217031512012/17/03 03:15:31  5-MIN KMSN 170915Z 30011G17KT 9SM -SN OVC016 M06/M08 A2988 900 81 -1300 300/11G17 RMK AO2 SNB11 P0000
14837KMSN MSN20031217032012012/17/03 03:20:31  5-MIN KMSN 170920Z 31010G17KT 9SM -SN OVC016 M06/M08 A2988 900 81 -1300 310/10G17 RMK AO2 SNB11 P0000
14837KMSN MSN20031217032511412/17/03 03:25:31  5-MIN KMSN 170925Z 30008KT 9SM -SN OVC016 M06/M08 A2988 900 81 -1300 300/08 RMK AO2 SNB11 P0000
14837KMSN MSN20031217033012012/17/03 03:30:31  5-MIN KMSN 170930Z 31010G15KT 9SM -SN OVC016 M06/M08 A2988 900 81 -1300 300/10G15 RMK AO2 SNB11 P0000
14837KMSN MSN20031217033511412/17/03 03:35:31  5-MIN KMSN 170935Z 31011KT 9SM -SN OVC016 M06/M08 A2988 900 81 -1300 300/11 RMK AO2 SNB11 P0000
14837KMSN MSN20031217034011412/17/03 03:40:31  5-MIN KMSN 170940Z 31009KT 9SM -SN OVC016 M06/M08 A2988 900 81 -1300 310/09 RMK AO2 SNB11 P0000
14837KMSN MSN20031217034511412/17/03 03:45:31  5-MIN KMSN 170945Z 31009KT 9SM -SN OVC016 M06/M08 A2988 900 81 -1300 310/09 RMK AO2 SNB11 P0000
14837KMSN MSN20031217035013112/17/03 03:50:31  5-MIN KMSN 170950Z 31009KT 9SM -SN OVC016 M06/M08 A2989 900 81 -1300 310/09 RMK AO2 SNB11 SLP133 P0000 T10561083
14837KMSN MSN20031217035510812/17/03 03:55:31  5-MIN KMSN 170955Z 31010KT 9SM -SN OVC016 M06/M08 A2989 900 81 -1300 310/10 RMK AO2 P0000
14837KMSN MSN20031217040010812/17/03 04:00:31  5-MIN KMSN 171000Z 32008KT 9SM -SN OVC016 M06/M08 A2988 900 81 -1300 320/08 RMK AO2 P0000
14837KMSN MSN20031217040510812/17/03 04:05:31  5-MIN KMSN 171005Z 31010KT 9SM -SN OVC016 M06/M08 A2988 900 81 -1300 310/10 RMK AO2 P0000
14837KMSN MSN20031217041012412/17/03 04:10:31  5-MIN KMSN 171010Z 31009KT 270V340 9SM -SN OVC016 M06/M08 A2988 900 81 -1300 310/09 270V340 RMK AO2 P0000
14837KMSN MSN20031217041510812/17/03 04:15:31  5-MIN KMSN 171015Z 31009KT 9SM -SN OVC016 M06/M08 A2988 900 81 -1300 310/09 RMK AO2 P0000
14837KMSN MSN20031217042010812/17/03 04:20:31  5-MIN KMSN 171020Z 31008KT 9SM -SN OVC016 M06/M08 A2988 900 81 -1300 310/08 RMK AO2 P0000
14837KMSN MSN20031217042510812/17/03 04:25:31  5-MIN KMSN 171025Z 29007KT 9SM -SN OVC016 M06/M08 A2988 900 81 -1300 280/07 RMK AO2 P0000
14837KMSN MSN20031217043010812/17/03 04:30:31  5-MIN KMSN 171030Z 30005KT 9SM -SN OVC016 M06/M08 A2988 900 81 -1300 300/05 RMK AO2 P0000
14837KMSN MSN20031217043510812/17/03 04:35:31  5-MIN KMSN 171035Z 31006KT 9SM -SN OVC016 M06/M08 A2988 900 81 -1300 310/06 RMK AO2 P0000
14837KMSN MSN20031217044010812/17/03 04:40:31  5-MIN KMSN 171040Z 30007KT 9SM -SN OVC016 M06/M08 A2988 900 81 -1300 300/07 RMK AO2 P0000
14837KMSN MSN20031217044510812/17/03 04:45:31  5-MIN KMSN 171045Z 30009KT 9SM -SN OVC016 M06/M08 A2988 900 81 -1300 300/09 RMK AO2 P0000
14837KMSN MSN20031217045012512/17/03 04:50:31  5-MIN KMSN 171050Z 30008KT 9SM -SN OVC016 M06/M08 A2988 900 81 -1300 300/08 RMK AO2 SLP130 P0000 T10561083
14837KMSN MSN20031217045510812/17/03 04:55:31  5-MIN KMSN 171055Z 31010KT 9SM -SN OVC016 M06/M08 A2988 900 81 -1300 310/10 RMK AO2 P0000
14837KMSN MSN20031217050010812/17/03 05:00:31  5-MIN KMSN 171100Z 30009KT 9SM -SN OVC016 M06/M08 A2988 900 81 -1300 300/09 RMK AO2 P0000
14837KMSN MSN20031217050510812/17/03 05:05:31  5-MIN KMSN 171105Z 31010KT 9SM -SN OVC016 M06/M09 A2988 900 77 -1300 310/10 RMK AO2 P0000
14837KMSN MSN20031217051010812/17/03 05:10:31  5-MIN KMSN 171110Z 30010KT 9SM -SN OVC016 M06/M08 A2988 900 81 -1300 300/10 RMK AO2 P0000
14837KMSN MSN20031217051510812/17/03 05:15:31  5-MIN KMSN 171115Z 31010KT 9SM -SN OVC016 M06/M08 A2989 890 81 -1300 310/10 RMK AO2 P0000
14837KMSN MSN20031217052010812/17/03 05:20:31  5-MIN KMSN 171120Z 30010KT 9SM -SN OVC016 M06/M09 A2989 890 77 -1300 300/10 RMK AO2 P0000
14837KMSN MSN20031217052512412/17/03 05:25:31  5-MIN KMSN 171125Z 30009KT 260V320 9SM -SN OVC016 M06/M08 A2989 890 81 -1300 300/09 260V320 RMK AO2 P0000
14837KMSN MSN20031217053010812/17/03 05:30:31  5-MIN KMSN 171130Z 30010KT 9SM -SN OVC016 M06/M08 A2990 890 81 -1300 300/10 RMK AO2 P0000
14837KMSN MSN20031217053510812/17/03 05:35:31  5-MIN KMSN 171135Z 31009KT 9SM -SN OVC016 M06/M09 A2990 890 77 -1300 310/09 RMK AO2 P0000
14837KMSN MSN20031217054010812/17/03 05:40:31  5-MIN KMSN 171140Z 29008KT 9SM -SN OVC016 M06/M09 A2990 880 77 -1400 290/08 RMK AO2 P0000
14837KMSN MSN20031217054510812/17/03 05:45:31  5-MIN KMSN 171145Z VRB06KT 9SM -SN OVC016 M06/M09 A2990 880 77 -1400 VRB/06 RMK AO2 P0000
14837KMSN MSN20031217055016312/17/03 05:50:31  5-MIN KMSN 171150Z 30010G15KT 9SM OVC016 M06/M09 A2991 880 77 -1400 300/10G15 RMK AO2 SNE50 SLP140 P0000 60000 70002 T10561089 11044 21056 53019
14837KMSN MSN20031217055510412/17/03 05:55:31  5-MIN KMSN 171155Z 30006G15KT 9SM OVC016 M06/M08 A2991 870 81 -1400 290/06G15 RMK AO2
14837KMSN MSN20031217060010512/17/03 06:00:31  5-MIN KMSN 171200Z 30010G14KT 10SM OVC016 M06/M09 A2991 870 77 -1400 300/10G14 RMK AO2
14837KMSN MSN20031217060509912/17/03 06:05:31  5-MIN KMSN 171205Z 32010KT 10SM OVC016 M06/M09 A2992 870 77 -1400 310/10 RMK AO2
14837KMSN MSN20031217061009912/17/03 06:10:31  5-MIN KMSN 171210Z 31009KT 10SM OVC016 M06/M09 A2992 870 77 -1400 310/09 RMK AO2
14837KMSN MSN20031217061510512/17/03 06:15:31  5-MIN KMSN 171215Z 31012G15KT 10SM OVC016 M06/M09 A2992 860 77 -1400 310/12G15 RMK AO2
14837KMSN MSN20031217062009912/17/03 06:20:31  5-MIN KMSN 171220Z 32009KT 10SM OVC016 M06/M09 A2992 860 77 -1400 320/09 RMK AO2
14837KMSN MSN20031217062509912/17/03 06:25:31  5-MIN KMSN 171225Z 31011KT 10SM OVC016 M06/M09 A2992 860 77 -1400 310/11 RMK AO2
14837KMSN MSN20031217063009912/17/03 06:30:31  5-MIN KMSN 171230Z 32009KT 10SM OVC016 M06/M09 A2993 860 77 -1400 320/09 RMK AO2
14837KMSN MSN20031217063509912/17/03 06:35:31  5-MIN KMSN 171235Z 32008KT 10SM OVC016 M06/M08 A2992 860 81 -1400 320/08 RMK AO2
14837KMSN MSN20031217064009912/17/03 06:40:31  5-MIN KMSN 171240Z 31006KT 10SM OVC016 M06/M09 A2992 860 77 -1400 310/06 RMK AO2
14837KMSN MSN20031217064509912/17/03 06:45:31  5-MIN KMSN 171245Z 32008KT 10SM OVC016 M06/M08 A2992 860 81 -1400 320/08 RMK AO2
14837KMSN MSN20031217065013212/17/03 06:50:31  5-MIN KMSN 171250Z 31008KT 270V340 10SM OVC016 M06/M08 A2993 860 81 -1400 310/08 270V340 RMK AO2 SLP147 T10561083
14837KMSN MSN20031217065509912/17/03 06:55:31  5-MIN KMSN 171255Z 30008KT 10SM OVC016 M06/M08 A2992 860 81 -1400 300/08 RMK AO2
14837KMSN MSN20031217070009912/17/03 07:00:31  5-MIN KMSN 171300Z 30009KT 10SM OVC016 M06/M08 A2992 860 81 -1400 300/09 RMK AO2
14837KMSN MSN20031217070510512/17/03 07:05:31  5-MIN KMSN 171305Z 31010G15KT 10SM OVC016 M06/M09 A2992 860 77 -1400 310/10G15 RMK AO2
14837KMSN MSN20031217071010512/17/03 07:10:31  5-MIN KMSN 171310Z 30007G15KT 10SM OVC016 M06/M09 A2992 860 77 -1400 290/07G15 RMK AO2
14837KMSN MSN20031217071509912/17/03 07:15:31  5-MIN KMSN 171315Z 32006KT 10SM OVC016 M06/M09 A2992 860 77 -1400 320/06 RMK AO2
14837KMSN MSN20031217072009912/17/03 07:20:31  5-MIN KMSN 171320Z 31006KT 10SM OVC016 M06/M09 A2992 860 77 -1400 310/06 RMK AO2
14837KMSN MSN20031217072509912/17/03 07:25:31  5-MIN KMSN 171325Z 31008KT 10SM OVC016 M06/M09 A2993 860 77 -1400 300/08 RMK AO2
14837KMSN MSN20031217073010512/17/03 07:30:31  5-MIN KMSN 171330Z 30008G14KT 10SM OVC016 M06/M09 A2992 860 77 -1400 300/08G14 RMK AO2
14837KMSN MSN20031217073509912/17/03 07:35:31  5-MIN KMSN 171335Z 31008KT 10SM OVC016 M06/M09 A2992 860 77 -1400 310/08 RMK AO2
14837KMSN MSN20031217074009912/17/03 07:40:31  5-MIN KMSN 171340Z 32007KT 10SM OVC016 M06/M09 A2992 860 77 -1400 320/07 RMK AO2
14837KMSN MSN20031217074509912/17/03 07:45:31  5-MIN KMSN 171345Z 31007KT 10SM OVC016 M06/M09 A2992 860 77 -1400 310/07 RMK AO2
14837KMSN MSN20031217075011612/17/03 07:50:31  5-MIN KMSN 171350Z 33010KT 10SM OVC016 M06/M09 A2992 860 77 -1400 330/10 RMK AO2 SLP145 T10561089
14837KMSN MSN20031217075509912/17/03 07:55:31  5-MIN KMSN 171355Z 32010KT 10SM OVC016 M06/M09 A2992 860 77 -1400 320/10 RMK AO2
14837KMSN MSN20031217080009912/17/03 08:00:31  5-MIN KMSN 171400Z 32007KT 10SM OVC016 M06/M09 A2992 860 77 -1400 320/07 RMK AO2
14837KMSN MSN20031217080509912/17/03 08:05:31  5-MIN KMSN 171405Z 33007KT 10SM OVC016 M06/M09 A2992 860 77 -1400 330/07 RMK AO2
14837KMSN MSN20031217081009912/17/03 08:10:31  5-MIN KMSN 171410Z 32008KT 10SM OVC016 M06/M09 A2992 860 77 -1400 320/08 RMK AO2
14837KMSN MSN20031217081509912/17/03 08:15:31  5-MIN KMSN 171415Z 33006KT 10SM OVC016 M06/M09 A2992 860 77 -1400 320/06 RMK AO2
14837KMSN MSN20031217082009912/17/03 08:20:31  5-MIN KMSN 171420Z 31006KT 10SM OVC016 M06/M09 A2992 860 77 -1400 310/06 RMK AO2
14837KMSN MSN20031217082509912/17/03 08:25:31  5-MIN KMSN 171425Z VRB06KT 10SM OVC016 M06/M09 A2992 860 77 -1400 VRB/06 RMK AO2
14837KMSN MSN20031217083009912/17/03 08:30:31  5-MIN KMSN 171430Z 29008KT 10SM OVC014 M06/M09 A2992 860 77 -1400 290/08 RMK AO2
14837KMSN MSN20031217083509912/17/03 08:35:31  5-MIN KMSN 171435Z 29007KT 10SM OVC014 M06/M09 A2993 860 77 -1400 290/07 RMK AO2
14837KMSN MSN20031217084009912/17/03 08:40:31  5-MIN KMSN 171440Z 28008KT 10SM OVC014 M06/M09 A2993 860 77 -1400 280/08 RMK AO2
14837KMSN MSN20031217084509912/17/03 08:45:31  5-MIN KMSN 171445Z 29008KT 10SM OVC014 M06/M09 A2993 860 77 -1400 290/08 RMK AO2
14837KMSN MSN20031217085012212/17/03 08:50:31  5-MIN KMSN 171450Z 29008KT 10SM OVC014 M06/M09 A2993 850 77 -1400 290/08 RMK AO2 SLP149 T10561089 53007
14837KMSN MSN20031217085509912/17/03 08:55:31  5-MIN KMSN 171455Z VRB05KT 10SM OVC014 M06/M08 A2993 860 81 -1400 VRB/05 RMK AO2
14837KMSN MSN20031217090009912/17/03 09:00:31  5-MIN KMSN 171500Z 29006KT 10SM OVC014 M06/M08 A2993 850 81 -1400 290/06 RMK AO2
14837KMSN MSN20031217090509912/17/03 09:05:31  5-MIN KMSN 171505Z 30007KT 10SM OVC014 M06/M08 A2993 860 81 -1400 300/07 RMK AO2
14837KMSN MSN20031217091009912/17/03 09:10:31  5-MIN KMSN 171510Z 28009KT 10SM OVC014 M06/M08 A2993 860 81 -1400 280/09 RMK AO2
14837KMSN MSN20031217091509912/17/03 09:15:31  5-MIN KMSN 171515Z 31008KT 10SM OVC014 M06/M08 A2993 860 81 -1400 310/08 RMK AO2
14837KMSN MSN20031217092009912/17/03 09:20:31  5-MIN KMSN 171520Z 31008KT 10SM OVC014 M06/M08 A2993 850 81 -1400 310/08 RMK AO2
14837KMSN MSN20031217092509912/17/03 09:25:31  5-MIN KMSN 171525Z 32005KT 10SM OVC014 M06/M08 A2993 850 81 -1400 310/05 RMK AO2
14837KMSN MSN20031217093009912/17/03 09:30:31  5-MIN KMSN 171530Z 30004KT 10SM OVC014 M06/M09 A2993 850 77 -1400 290/04 RMK AO2
14837KMSN MSN20031217093509912/17/03 09:35:31  5-MIN KMSN 171535Z 30007KT 10SM OVC014 M06/M08 A2994 850 81 -1400 300/07 RMK AO2
14837KMSN MSN20031217094009912/17/03 09:40:31  5-MIN KMSN 171540Z 30008KT 10SM OVC014 M06/M08 A2994 850 81 -1400 300/08 RMK AO2
14837KMSN MSN20031217094509912/17/03 09:45:31  5-MIN KMSN 171545Z 29006KT 10SM OVC014 M06/M08 A2994 850 81 -1400 290/06 RMK AO2
14837KMSN MSN20031217095011612/17/03 09:50:31  5-MIN KMSN 171550Z 30009KT 10SM OVC014 M06/M08 A2994 850 81 -1400 300/09 RMK AO2 SLP152 T10561083
14837KMSN MSN20031217095509912/17/03 09:55:31  5-MIN KMSN 171555Z 31007KT 10SM OVC014 M06/M09 A2994 840 77 -1400 310/07 RMK AO2
14837KMSN MSN20031217100009912/17/03 10:00:31  5-MIN KMSN 171600Z 32007KT 10SM OVC014 M06/M09 A2994 850 77 -1400 320/07 RMK AO2
14837KMSN MSN20031217100509912/17/03 10:05:31  5-MIN KMSN 171605Z 31006KT 10SM OVC014 M06/M08 A2994 850 81 -1400 300/06 RMK AO2
14837KMSN MSN20031217101009912/17/03 10:10:31  5-MIN KMSN 171610Z 32006KT 10SM OVC014 M06/M08 A2994 850 81 -1400 320/06 RMK AO2
14837KMSN MSN20031217101509912/17/03 10:15:31  5-MIN KMSN 171615Z 28006KT 10SM OVC014 M06/M08 A2994 850 81 -1400 280/06 RMK AO2
14837KMSN MSN20031217102009912/17/03 10:20:31  5-MIN KMSN 171620Z 30007KT 10SM OVC014 M05/M08 A2994 850 77 -1300 300/07 RMK AO2
14837KMSN MSN20031217102509912/17/03 10:25:31  5-MIN KMSN 171625Z 31007KT 10SM OVC014 M06/M08 A2993 850 81 -1400 310/07 RMK AO2
14837KMSN MSN20031217103009912/17/03 10:30:31  5-MIN KMSN 171630Z 27007KT 10SM OVC014 M05/M08 A2993 860 77 -1300 270/07 RMK AO2
14837KMSN MSN20031217103509912/17/03 10:35:31  5-MIN KMSN 171635Z 26005KT 10SM OVC014 M06/M08 A2993 860 81 -1400 260/05 RMK AO2
14837KMSN MSN20031217104009912/17/03 10:40:31  5-MIN KMSN 171640Z 26006KT 10SM OVC014 M06/M08 A2992 860 81 -1400 260/06 RMK AO2
14837KMSN MSN20031217104509912/17/03 10:45:31  5-MIN KMSN 171645Z 26006KT 10SM OVC014 M06/M08 A2992 860 81 -1400 260/06 RMK AO2
14837KMSN MSN20031217105011612/17/03 10:50:31  5-MIN KMSN 171650Z 29006KT 10SM OVC014 M06/M08 A2992 870 81 -1400 290/06 RMK AO2 SLP143 T10561083
14837KMSN MSN20031217105509912/17/03 10:55:31  5-MIN KMSN 171655Z 27006KT 10SM OVC014 M05/M08 A2991 870 77 -1300 270/06 RMK AO2
14837KMSN MSN20031217110009912/17/03 11:00:31  5-MIN KMSN 171700Z VRB04KT 10SM OVC014 M06/M08 A2991 870 81 -1400 VRB/04 RMK AO2
14837KMSN MSN20031217110509912/17/03 11:05:31  5-MIN KMSN 171705Z 30007KT 10SM OVC014 M05/M08 A2991 870 77 -1300 290/07 RMK AO2
14837KMSN MSN20031217111009912/17/03 11:10:31  5-MIN KMSN 171710Z 26007KT 10SM OVC014 M06/M08 A2991 880 81 -1400 260/07 RMK AO2
14837KMSN MSN20031217111509912/17/03 11:15:31  5-MIN KMSN 171715Z 32006KT 10SM OVC014 M05/M08 A2990 880 77 -1300 320/06 RMK AO2
14837KMSN MSN20031217112009912/17/03 11:20:31  5-MIN KMSN 171720Z 32008KT 10SM OVC014 M05/M08 A2990 880 77 -1300 320/08 RMK AO2
14837KMSN MSN20031217112509912/17/03 11:25:31  5-MIN KMSN 171725Z 32005KT 10SM OVC014 M05/M08 A2990 880 77 -1300 310/05 RMK AO2
14837KMSN MSN20031217113009912/17/03 11:30:31  5-MIN KMSN 171730Z 31005KT 10SM OVC014 M05/M08 A2990 880 77 -1300 310/05 RMK AO2
14837KMSN MSN20031217113509912/17/03 11:35:31  5-MIN KMSN 171735Z 31006KT 10SM OVC014 M05/M08 A2990 880 77 -1300 310/06 RMK AO2
14837KMSN MSN20031217114009912/17/03 11:40:31  5-MIN KMSN 171740Z 31004KT 10SM OVC014 M05/M08 A2990 880 77 -1300 300/04 RMK AO2
14837KMSN MSN20031217114509912/17/03 11:45:31  5-MIN KMSN 171745Z VRB06KT 10SM OVC014 M05/M08 A2990 880 81 -1300 VRB/06 RMK AO2
14837KMSN MSN20031217115015012/17/03 11:50:31  5-MIN KMSN 171750Z 26007KT 230V290 10SM OVC014 M05/M08 A2990 880 81 -1300 260/07 230V290 RMK AO2 SLP139 T10501078 11050 21056 51007
14837KMSN MSN20031217115511712/17/03 11:55:31  5-MIN KMSN 171755Z 30007KT 260V320 10SM OVC014 M05/M08 A2990 890 81 -1300 300/07 260V320 RMK AO2 $
14837KMSN MSN20031217120010112/17/03 12:00:31  5-MIN KMSN 171800Z VRB06KT 10SM OVC015 M05/M08 A2990 890 77 -1300 VRB/06 RMK AO2 $
14837KMSN MSN20031217120510112/17/03 12:05:31  5-MIN KMSN 171805Z VRB06KT 10SM OVC015 M05/M08 A2989 890 77 -1300 VRB/06 RMK AO2 $
14837KMSN MSN20031217121010112/17/03 12:10:31  5-MIN KMSN 171810Z 27007KT 10SM OVC015 M05/M08 A2989 890 77 -1300 270/07 RMK AO2 $
14837KMSN MSN20031217121510112/17/03 12:15:31  5-MIN KMSN 171815Z 25007KT 10SM OVC015 M05/M08 A2989 890 77 -1300 250/07 RMK AO2 $
14837KMSN MSN20031217122011712/17/03 12:20:31  5-MIN KMSN 171820Z 27007KT 240V300 10SM OVC015 M05/M08 A2989 890 77 -1300 270/07 240V300 RMK AO2 $
14837KMSN MSN20031217122510112/17/03 12:25:31  5-MIN KMSN 171825Z VRB05KT 10SM OVC015 M04/M08 A2989 890 78 -1200 VRB/05 RMK AO2 $
14837KMSN MSN20031217123010112/17/03 12:30:31  5-MIN KMSN 171830Z VRB05KT 10SM OVC015 M05/M08 A2989 890 81 -1300 VRB/05 RMK AO2 $
14837KMSN MSN20031217123511712/17/03 12:35:31  5-MIN KMSN 171835Z 30007KT 270V340 10SM OVC015 M05/M08 A2989 900 81 -1300 300/07 270V340 RMK AO2 $
14837KMSN MSN20031217124010112/17/03 12:40:31  5-MIN KMSN 171840Z 32006KT 10SM OVC015 M05/M08 A2988 900 81 -1300 310/06 RMK AO2 $
14837KMSN MSN20031217124510112/17/03 12:45:31  5-MIN KMSN 171845Z 29004KT 10SM OVC015 M05/M08 A2988 900 81 -1300 290/04 RMK AO2 $
14837KMSN MSN20031217151009812/17/03 15:10:31  5-MIN KMSN 172110Z 26006KT 8SM OVC012 M05/M08 A2987 910 77 -1200 260/06 RMK AO2
14837KMSN MSN20031217151509812/17/03 15:15:31  5-MIN KMSN 172115Z 25004KT 7SM OVC012 M06/M08 A2987 910 81 -1300 250/04 RMK AO2
14837KMSN MSN20031217152009812/17/03 15:20:31  5-MIN KMSN 172120Z VRB06KT 7SM OVC012 M06/M08 A2987 910 81 -1300 VRB/06 RMK AO2
14837KMSN MSN20031217152509812/17/03 15:25:31  5-MIN KMSN 172125Z VRB04KT 8SM OVC012 M06/M08 A2987 910 81 -1300 VRB/04 RMK AO2
14837KMSN MSN20031217153009812/17/03 15:30:31  5-MIN KMSN 172130Z 23006KT 7SM OVC012 M05/M08 A2987 910 81 -1200 230/06 RMK AO2
14837KMSN MSN20031217153509812/17/03 15:35:31  5-MIN KMSN 172135Z VRB05KT 7SM OVC012 M06/M08 A2987 910 81 -1300 VRB/05 RMK AO2
14837KMSN MSN20031217154009812/17/03 15:40:31  5-MIN KMSN 172140Z 26006KT 8SM OVC012 M06/M08 A2987 910 81 -1300 260/06 RMK AO2
14837KMSN MSN20031217154509812/17/03 15:45:31  5-MIN KMSN 172145Z 28004KT 7SM BKN012 M06/M08 A2988 910 81 -1300 280/04 RMK AO2
14837KMSN MSN20031217155011512/17/03 15:50:31  5-MIN KMSN 172150Z 28005KT 7SM SCT012 M06/M08 A2988 900 81 -1300 280/05 RMK AO2 SLP130 T10561083
14837KMSN MSN20031217155509812/17/03 15:55:31  5-MIN KMSN 172155Z 28005KT 7SM SCT012 M06/M08 A2988 900 84 -1400 280/05 RMK AO2
14837KMSN MSN20031217160009812/17/03 16:00:31  5-MIN KMSN 172200Z 29004KT 7SM FEW012 M06/M08 A2988 900 84 -1400 290/04 RMK AO2
14837KMSN MSN20031217160509812/17/03 16:05:31  5-MIN KMSN 172205Z VRB04KT 7SM FEW012 M06/M08 A2988 900 84 -1400 VRB/04 RMK AO2
14837KMSN MSN20031217161009812/17/03 16:10:31  5-MIN KMSN 172210Z 29004KT 7SM SCT012 M06/M08 A2988 900 84 -1400 290/04 RMK AO2
14837KMSN MSN20031217161509812/17/03 16:15:31  5-MIN KMSN 172215Z 28005KT 7SM SCT012 M06/M09 A2988 900 81 -1400 280/05 RMK AO2
14837KMSN MSN20031217162010112/17/03 16:20:31  5-MIN KMSN 172220Z 28003KT 6SM BR SCT012 M06/M08 A2988 900 84 -1400 280/03 RMK AO2
14837KMSN MSN20031217162510112/17/03 16:25:31  5-MIN KMSN 172225Z 28003KT 5SM BR FEW012 M06/M08 A2988 900 84 -1400 280/03 RMK AO2
14837KMSN MSN20031217163010112/17/03 16:30:31  5-MIN KMSN 172230Z 28003KT 5SM BR FEW012 M06/M08 A2988 900 84 -1400 280/03 RMK AO2
14837KMSN MSN20031217163510112/17/03 16:35:31  5-MIN KMSN 172235Z 00000KT 5SM BR FEW012 M06/M08 A2988 900 84 -1400 000/00 RMK AO2
14837KMSN MSN20031217164010112/17/03 16:40:31  5-MIN KMSN 172240Z 00000KT 5SM BR FEW012 M06/M08 A2988 900 84 -1400 000/00 RMK AO2
14837KMSN MSN20031217164510112/17/03 16:45:31  5-MIN KMSN 172245Z 00000KT 4SM BR FEW012 M07/M08 A2989 900 88 -1500 000/00 RMK AO2
14837KMSN MSN20031217165011812/17/03 16:50:31  5-MIN KMSN 172250Z 30003KT 4SM BR FEW012 M07/M09 A2989 890 84 -1500 300/03 RMK AO2 SLP135 T10671089
14837KMSN MSN20031217165510112/17/03 16:55:31  5-MIN KMSN 172255Z 32003KT 5SM BR FEW012 M07/M08 A2989 900 88 -1500 320/03 RMK AO2
14837KMSN MSN20031217170010112/17/03 17:00:31  5-MIN KMSN 172300Z 32003KT 5SM BR FEW012 M07/M09 A2989 890 88 -1600 320/03 RMK AO2
14837KMSN MSN20031217170510112/17/03 17:05:31  5-MIN KMSN 172305Z 32003KT 5SM BR FEW012 M07/M09 A2989 900 88 -1500 320/03 RMK AO2
14837KMSN MSN20031217171010112/17/03 17:10:31  5-MIN KMSN 172310Z 33003KT 5SM BR FEW012 M07/M08 A2989 900 92 -1600 330/03 RMK AO2
14837KMSN MSN20031217171509512/17/03 17:15:31  5-MIN KMSN 172315Z 35003KT 7SM CLR M07/M08 A2989 890 88 -1500 350/03 RMK AO2
14837KMSN MSN20031217172009512/17/03 17:20:31  5-MIN KMSN 172320Z 36004KT 8SM CLR M07/M09 A2989 890 84 -1500 360/04 RMK AO2
14837KMSN MSN20031217172509512/17/03 17:25:31  5-MIN KMSN 172325Z 35004KT 8SM CLR M07/M09 A2989 890 84 -1500 350/04 RMK AO2
14837KMSN MSN20031217173009512/17/03 17:30:31  5-MIN KMSN 172330Z 34003KT 8SM CLR M07/M09 A2989 890 88 -1600 340/03 RMK AO2
14837KMSN MSN20031217173509512/17/03 17:35:31  5-MIN KMSN 172335Z 00000KT 7SM CLR M08/M09 A2989 890 88 -1600 000/00 RMK AO2
14837KMSN MSN20031217174009512/17/03 17:40:31  5-MIN KMSN 172340Z 00000KT 7SM CLR M08/M08 A2989 890 96 -1600 000/00 RMK AO2
14837KMSN MSN20031217174509512/17/03 17:45:31  5-MIN KMSN 172345Z 00000KT 7SM CLR M08/M09 A2989 890 88 -1600 000/00 RMK AO2
14837KMSN MSN20031217175013312/17/03 17:50:31  5-MIN KMSN 172350Z 00000KT 6SM BR CLR M08/M09 A2989 890 92 -1600 000/00 RMK AO2 SLP135 T10781089 11044 21078 55009
14837KMSN MSN20031217175509812/17/03 17:55:31  5-MIN KMSN 172355Z 00000KT 6SM BR CLR M07/M09 A2989 890 88 -1600 000/00 RMK AO2
14837KMSN MSN20031217180009812/17/03 18:00:31  5-MIN KMSN 180000Z 00000KT 6SM BR CLR M08/M09 A2989 900 92 -1600 000/00 RMK AO2
14837KMSN MSN20031217180509812/17/03 18:05:31  5-MIN KMSN 180005Z 00000KT 6SM BR CLR M08/M09 A2988 900 92 -1600 000/00 RMK AO2
14837KMSN MSN20031217181009812/17/03 18:10:31  5-MIN KMSN 180010Z 00000KT 6SM BR CLR M08/M08 A2988 900 96 -1600 000/00 RMK AO2
14837KMSN MSN20031217181509812/17/03 18:15:31  5-MIN KMSN 180015Z 00000KT 6SM BR CLR M08/M09 A2988 900 96 -1700 000/00 RMK AO2
14837KMSN MSN20031217182009812/17/03 18:20:31  5-MIN KMSN 180020Z 00000KT 6SM BR CLR M08/M09 A2988 900 92 -1700 000/00 RMK AO2
14837KMSN MSN20031217182509812/17/03 18:25:31  5-MIN KMSN 180025Z 00000KT 6SM BR CLR M08/M09 A2988 900 92 -1700 000/00 RMK AO2
14837KMSN MSN20031217183009812/17/03 18:30:31  5-MIN KMSN 180030Z 00000KT 6SM BR CLR M08/M09 A2988 900 92 -1700 000/00 RMK AO2
14837KMSN MSN20031217183509812/17/03 18:35:31  5-MIN KMSN 180035Z 00000KT 6SM BR CLR M08/M09 A2988 900 92 -1700 000/00 RMK AO2
14837KMSN MSN20031217184009812/17/03 18:40:31  5-MIN KMSN 180040Z 00000KT 6SM BR CLR M09/M09 A2988 900 96 -1800 000/00 RMK AO2
14837KMSN MSN20031217184509812/17/03 18:45:31  5-MIN KMSN 180045Z 00000KT 6SM BR CLR M09/M10 A2988 900 92 -1800 000/00 RMK AO2
14837KMSN MSN20031217185011512/17/03 18:50:31  5-MIN KMSN 180050Z 00000KT 6SM BR CLR M08/M09 A2988 900 92 -1700 000/00 RMK AO2 SLP132 T10831094
14837KMSN MSN20031217185509812/17/03 18:55:31  5-MIN KMSN 180055Z 00000KT 6SM BR CLR M08/M09 A2988 910 92 -1700 000/00 RMK AO2
14837KMSN MSN20031217190009812/17/03 19:00:31  5-MIN KMSN 180100Z 00000KT 6SM BR CLR M09/M10 A2988 910 92 -1800 000/00 RMK AO2
14837KMSN MSN20031217190509812/17/03 19:05:31  5-MIN KMSN 180105Z 00000KT 6SM BR CLR M09/M10 A2987 910 92 -1800 000/00 RMK AO2
14837KMSN MSN20031217191009812/17/03 19:10:31  5-MIN KMSN 180110Z 00000KT 6SM BR CLR M09/M09 A2987 910 96 -1700 000/00 RMK AO2
14837KMSN MSN20031217191509812/17/03 19:15:31  5-MIN KMSN 180115Z 00000KT 6SM BR CLR M09/M10 A2987 910 92 -1700 000/00 RMK AO2
14837KMSN MSN20031217192009812/17/03 19:20:31  5-MIN KMSN 180120Z 00000KT 6SM BR CLR M09/M10 A2987 910 92 -1700 000/00 RMK AO2
14837KMSN MSN20031217192509812/17/03 19:25:31  5-MIN KMSN 180125Z 00000KT 6SM BR CLR M09/M10 A2987 910 92 -1700 000/00 RMK AO2
14837KMSN MSN20031217193009812/17/03 19:30:31  5-MIN KMSN 180130Z 00000KT 5SM BR CLR M09/M10 A2987 910 92 -1700 000/00 RMK AO2
14837KMSN MSN20031217193509812/17/03 19:35:31  5-MIN KMSN 180135Z 00000KT 5SM BR CLR M09/M10 A2987 910 92 -1700 000/00 RMK AO2
14837KMSN MSN20031217194009812/17/03 19:40:31  5-MIN KMSN 180140Z 00000KT 6SM BR CLR M09/M10 A2987 910 96 -1800 000/00 RMK AO2
14837KMSN MSN20031217194509812/17/03 19:45:31  5-MIN KMSN 180145Z 00000KT 6SM BR CLR M09/M11 A2987 910 88 -1700 000/00 RMK AO2
14837KMSN MSN20031217195011512/17/03 19:50:31  5-MIN KMSN 180150Z 00000KT 6SM BR CLR M09/M11 A2986 920 92 -1800 000/00 RMK AO2 SLP127 T10941106
14837KMSN MSN20031217195509812/17/03 19:55:31  5-MIN KMSN 180155Z 00000KT 5SM BR CLR M09/M11 A2986 920 92 -1800 000/00 RMK AO2
14837KMSN MSN20031217200009812/17/03 20:00:31  5-MIN KMSN 180200Z 00000KT 5SM BR CLR M09/M10 A2986 920 92 -1700 000/00 RMK AO2
14837KMSN MSN20031217200509812/17/03 20:05:31  5-MIN KMSN 180205Z 00000KT 5SM BR CLR M09/M10 A2986 920 96 -1800 000/00 RMK AO2
14837KMSN MSN20031217201009812/17/03 20:10:31  5-MIN KMSN 180210Z 00000KT 5SM BR CLR M09/M11 A2986 920 92 -1800 000/00 RMK AO2
14837KMSN MSN20031217201509812/17/03 20:15:31  5-MIN KMSN 180215Z 00000KT 5SM BR CLR M10/M11 A2986 920 92 -1900 000/00 RMK AO2
14837KMSN MSN20031217202009812/17/03 20:20:31  5-MIN KMSN 180220Z 00000KT 5SM BR CLR M09/M11 A2986 920 92 -1800 000/00 RMK AO2
14837KMSN MSN20031217202509812/17/03 20:25:31  5-MIN KMSN 180225Z 00000KT 5SM BR CLR M09/M10 A2986 920 92 -1700 000/00 RMK AO2
14837KMSN MSN20031217203009812/17/03 20:30:31  5-MIN KMSN 180230Z 00000KT 5SM BR CLR M09/M11 A2986 920 92 -1800 000/00 RMK AO2
14837KMSN MSN20031217203509812/17/03 20:35:31  5-MIN KMSN 180235Z 00000KT 5SM BR CLR M09/M11 A2986 920 92 -1800 000/00 RMK AO2
14837KMSN MSN20031217204009812/17/03 20:40:31  5-MIN KMSN 180240Z 32003KT 5SM BR CLR M09/M11 A2986 920 92 -1800 320/03 RMK AO2
14837KMSN MSN20031217204509812/17/03 20:45:31  5-MIN KMSN 180245Z 31003KT 5SM BR CLR M10/M11 A2986 920 92 -1900 310/03 RMK AO2
14837KMSN MSN20031217205012112/17/03 20:50:31  5-MIN KMSN 180250Z 00000KT 5SM BR CLR M09/M11 A2987 910 88 -1800 000/00 RMK AO2 SLP128 T10941111 51007
14837KMSN MSN20031217205509812/17/03 20:55:31  5-MIN KMSN 180255Z 00000KT 5SM BR CLR M10/M11 A2987 910 92 -1900 000/00 RMK AO2
14837KMSN MSN20031217210009812/17/03 21:00:31  5-MIN KMSN 180300Z 00000KT 5SM BR CLR M10/M11 A2987 910 92 -1900 000/00 RMK AO2
14837KMSN MSN20031217210509812/17/03 21:05:31  5-MIN KMSN 180305Z 00000KT 5SM BR CLR M09/M11 A2987 910 92 -1800 000/00 RMK AO2
14837KMSN MSN20031217211009812/17/03 21:10:31  5-MIN KMSN 180310Z 00000KT 5SM BR CLR M09/M11 A2987 910 92 -1800 000/00 RMK AO2
14837KMSN MSN20031217211509812/17/03 21:15:31  5-MIN KMSN 180315Z 00000KT 5SM BR CLR M09/M11 A2987 910 92 -1800 000/00 RMK AO2
14837KMSN MSN20031217212009812/17/03 21:20:31  5-MIN KMSN 180320Z 00000KT 5SM BR CLR M09/M11 A2987 920 88 -1800 000/00 RMK AO2
14837KMSN MSN20031217212509812/17/03 21:25:31  5-MIN KMSN 180325Z 00000KT 5SM BR CLR M09/M11 A2986 920 88 -1800 000/00 RMK AO2
14837KMSN MSN20031217213009812/17/03 21:30:31  5-MIN KMSN 180330Z 00000KT 5SM BR CLR M09/M11 A2987 920 92 -1800 000/00 RMK AO2
14837KMSN MSN20031217213509812/17/03 21:35:31  5-MIN KMSN 180335Z 00000KT 5SM BR CLR M09/M11 A2987 910 92 -1800 000/00 RMK AO2
14837KMSN MSN20031217214010112/17/03 21:40:31  5-MIN KMSN 180340Z 00000KT 5SM BR FEW015 M09/M11 A2987 910 92 -1800 000/00 RMK AO2
14837KMSN MSN20031217214510112/17/03 21:45:31  5-MIN KMSN 180345Z 00000KT 5SM BR SCT013 M09/M11 A2987 910 92 -1800 000/00 RMK AO2
14837KMSN MSN20031217215011812/17/03 21:50:31  5-MIN KMSN 180350Z 00000KT 5SM BR BKN013 M09/M11 A2987 910 92 -1800 000/00 RMK AO2 SLP129 T10941106
14837KMSN MSN20031217215510112/17/03 21:55:31  5-MIN KMSN 180355Z 00000KT 5SM BR BKN013 M09/M10 A2987 910 92 -1700 000/00 RMK AO2
14837KMSN MSN20031217220010112/17/03 22:00:31  5-MIN KMSN 180400Z 00000KT 4SM BR OVC013 M09/M10 A2987 920 92 -1700 000/00 RMK AO2
14837KMSN MSN20031217220510112/17/03 22:05:31  5-MIN KMSN 180405Z 00000KT 4SM BR OVC013 M08/M10 A2986 920 88 -1700 000/00 RMK AO2
14837KMSN MSN20031217221010112/17/03 22:10:31  5-MIN KMSN 180410Z 00000KT 5SM BR OVC011 M08/M09 A2986 920 92 -1700 000/00 RMK AO2
14837KMSN MSN20031217221510112/17/03 22:15:31  5-MIN KMSN 180415Z 00000KT 6SM BR OVC011 M08/M09 A2986 920 92 -1700 000/00 RMK AO2
14837KMSN MSN20031217222010112/17/03 22:20:31  5-MIN KMSN 180420Z 00000KT 6SM BR OVC011 M08/M09 A2986 920 92 -1700 000/00 RMK AO2
14837KMSN MSN20031217222510112/17/03 22:25:31  5-MIN KMSN 180425Z 00000KT 5SM BR OVC011 M08/M09 A2986 920 92 -1600 000/00 RMK AO2
14837KMSN MSN20031217223010112/17/03 22:30:31  5-MIN KMSN 180430Z 00000KT 5SM BR OVC011 M08/M09 A2986 920 88 -1600 000/00 RMK AO2
14837KMSN MSN20031217223510112/17/03 22:35:31  5-MIN KMSN 180435Z 00000KT 6SM BR OVC011 M08/M09 A2986 920 88 -1600 000/00 RMK AO2
14837KMSN MSN20031217224010112/17/03 22:40:31  5-MIN KMSN 180440Z 35003KT 6SM BR OVC011 M08/M09 A2986 920 92 -1600 350/03 RMK AO2
14837KMSN MSN20031217224510112/17/03 22:45:31  5-MIN KMSN 180445Z 36004KT 6SM BR OVC011 M07/M09 A2986 920 88 -1500 360/04 RMK AO2
14837KMSN MSN20031217225011812/17/03 22:50:31  5-MIN KMSN 180450Z 36003KT 6SM BR OVC011 M07/M09 A2986 920 88 -1500 360/03 RMK AO2 SLP124 T10721089
14837KMSN MSN20031217225510112/17/03 22:55:31  5-MIN KMSN 180455Z 33003KT 4SM BR OVC011 M07/M08 A2986 920 92 -1500 320/03 RMK AO2
14837KMSN MSN20031217230010112/17/03 23:00:31  5-MIN KMSN 180500Z 00000KT 4SM BR OVC011 M07/M08 A2986 920 92 -1500 000/00 RMK AO2
14837KMSN MSN20031217230510112/17/03 23:05:31  5-MIN KMSN 180505Z 00000KT 4SM HZ OVC011 M07/M10 A2985 930 81 -1500 000/00 RMK AO2
14837KMSN MSN20031217231010112/17/03 23:10:31  5-MIN KMSN 180510Z 33003KT 4SM HZ OVC011 M07/M10 A2985 930 81 -1500 330/03 RMK AO2
14837KMSN MSN20031217231510112/17/03 23:15:31  5-MIN KMSN 180515Z 34003KT 4SM BR OVC011 M07/M09 A2985 930 84 -1500 340/03 RMK AO2
14837KMSN MSN20031217232010112/17/03 23:20:31  5-MIN KMSN 180520Z 36005KT 4SM BR OVC011 M07/M09 A2985 930 88 -1500 360/05 RMK AO2
14837KMSN MSN20031217232510112/17/03 23:25:31  5-MIN KMSN 180525Z 36005KT 4SM BR OVC011 M07/M09 A2984 930 88 -1500 360/05 RMK AO2
14837KMSN MSN20031217233010112/17/03 23:30:31  5-MIN KMSN 180530Z 01004KT 4SM BR OVC011 M07/M09 A2985 930 88 -1500 010/04 RMK AO2
14837KMSN MSN20031217233510112/17/03 23:35:31  5-MIN KMSN 180535Z 36004KT 4SM BR OVC009 M07/M08 A2985 930 88 -1400 360/04 RMK AO2
14837KMSN MSN20031217234010112/17/03 23:40:31  5-MIN KMSN 180540Z 36005KT 4SM BR OVC009 M07/M09 A2984 940 84 -1400 360/05 RMK AO2
14837KMSN MSN20031217234510112/17/03 23:45:31  5-MIN KMSN 180545Z 36005KT 4SM BR OVC009 M07/M09 A2984 940 88 -1500 360/05 RMK AO2
14837KMSN MSN20031217235014612/17/03 23:50:31  5-MIN KMSN 180550Z 01005KT 4SM BR OVC009 M07/M09 A2984 940 88 -1500 360/05 RMK AO2 SLP119 T10721089 11067 21100 410441100 55007
14837KMSN MSN20031217235510112/17/03 23:55:31  5-MIN KMSN 180555Z 02006KT 6SM BR OVC009 M07/M09 A2984 940 84 -1400 020/06 RMK AO2
14837KMSN MSN20031218000010112/18/03 00:00:31  5-MIN KMSN 180600Z 01006KT 6SM BR OVC009 M07/M09 A2984 940 88 -1500 010/06 RMK AO2
14837KMSN MSN20031218000510112/18/03 00:05:31  5-MIN KMSN 180605Z 01006KT 6SM BR OVC009 M07/M09 A2984 940 88 -1500 010/06 RMK AO2
14837KMSN MSN20031218001010112/18/03 00:10:31  5-MIN KMSN 180610Z 03006KT 6SM BR OVC009 M07/M09 A2984 940 88 -1500 030/06 RMK AO2
14837KMSN MSN20031218001510112/18/03 00:15:31  5-MIN KMSN 180615Z 02006KT 5SM BR OVC009 M07/M09 A2984 940 88 -1500 020/06 RMK AO2
14837KMSN MSN20031218002010512/18/03 00:20:31  5-MIN KMSN 180620Z 02006KT 2 1/2SM BR OVC009 M07/M09 A2983 940 88 -1500 020/06 RMK AO2
14837KMSN MSN20031218002512912/18/03 00:25:31  5-MIN KMSN 180625Z 01007KT 3SM -SN BR OVC009 M07/M09 A2983 950 88 -1500 010/07 RMK AO2 SNB23 CIG 008V012 P0000
14837KMSN MSN20031218003012912/18/03 00:30:31  5-MIN KMSN 180630Z 01006KT 3SM -SN BR OVC009 M07/M09 A2983 950 88 -1500 010/06 RMK AO2 SNB23 CIG 008V012 P0000
14837KMSN MSN20031218003511712/18/03 00:35:31  5-MIN KMSN 180635Z 36005KT 3SM -SN BR OVC009 M07/M09 A2984 940 88 -1500 360/05 RMK AO2 SNB23 P0000
14837KMSN MSN20031218004012812/18/03 00:40:31  5-MIN KMSN 180640Z 02007KT 5SM BR OVC009 M07/M09 A2983 940 88 -1500 020/07 RMK AO2 SNB23E38 CIG 008V012 P0000
14837KMSN MSN20031218004512812/18/03 00:45:31  5-MIN KMSN 180645Z 01006KT 6SM BR OVC009 M07/M09 A2983 940 88 -1500 010/06 RMK AO2 SNB23E38 CIG 008V012 P0000
14837KMSN MSN20031218005014512/18/03 00:50:31  5-MIN KMSN 180650Z 02006KT 6SM BR OVC009 M07/M09 A2984 940 88 -1500 020/06 RMK AO2 SNB23E38 CIG 008V012 SLP117 P0000 T10721089
14837KMSN MSN20031218005511312/18/03 00:55:31  5-MIN KMSN 180655Z 36005KT 6SM BR OVC009 M07/M09 A2984 940 88 -1500 360/05 RMK AO2 CIG 007V011
14837KMSN MSN20031218010011312/18/03 01:00:31  5-MIN KMSN 180700Z 34005KT 6SM BR OVC009 M07/M09 A2984 940 84 -1500 340/05 RMK AO2 CIG 007V011
14837KMSN MSN20031218010510112/18/03 01:05:31  5-MIN KMSN 180705Z 34005KT 6SM BR OVC009 M07/M09 A2983 940 88 -1500 340/05 RMK AO2
14837KMSN MSN20031218011010112/18/03 01:10:31  5-MIN KMSN 180710Z 35005KT 6SM BR OVC009 M07/M09 A2984 940 88 -1500 350/05 RMK AO2
14837KMSN MSN20031218011510112/18/03 01:15:31  5-MIN KMSN 180715Z 02004KT 6SM BR OVC009 M07/M09 A2984 940 88 -1500 010/04 RMK AO2
14837KMSN MSN20031218012010112/18/03 01:20:31  5-MIN KMSN 180720Z 36003KT 6SM BR OVC009 M07/M09 A2983 940 88 -1500 360/03 RMK AO2
14837KMSN MSN20031218012510112/18/03 01:25:31  5-MIN KMSN 180725Z 35003KT 6SM BR OVC009 M07/M09 A2984 940 88 -1500 340/03 RMK AO2
14837KMSN MSN20031218013010112/18/03 01:30:31  5-MIN KMSN 180730Z 36005KT 6SM BR OVC007 M07/M09 A2984 940 88 -1500 360/05 RMK AO2
14837KMSN MSN20031218013510112/18/03 01:35:31  5-MIN KMSN 180735Z 02007KT 6SM BR OVC007 M07/M09 A2984 940 88 -1500 010/07 RMK AO2
14837KMSN MSN20031218014010112/18/03 01:40:31  5-MIN KMSN 180740Z 02007KT 6SM BR OVC007 M07/M09 A2984 940 88 -1500 020/07 RMK AO2
14837KMSN MSN20031218014510112/18/03 01:45:31  5-MIN KMSN 180745Z 02007KT 6SM BR OVC007 M07/M09 A2984 940 88 -1500 020/07 RMK AO2
14837KMSN MSN20031218015011812/18/03 01:50:31  5-MIN KMSN 180750Z 01006KT 6SM BR OVC007 M07/M09 A2984 940 88 -1500 010/06 RMK AO2 SLP118 T10721089
14837KMSN MSN20031218015510112/18/03 01:55:31  5-MIN KMSN 180755Z 35005KT 6SM BR OVC007 M07/M09 A2984 940 88 -1500 350/05 RMK AO2
14837KMSN MSN20031218020010112/18/03 02:00:31  5-MIN KMSN 180800Z 01005KT 6SM BR OVC007 M07/M09 A2984 940 88 -1500 010/05 RMK AO2
14837KMSN MSN20031218020510112/18/03 02:05:31  5-MIN KMSN 180805Z 36008KT 6SM BR OVC007 M07/M09 A2984 930 88 -1500 360/08 RMK AO2
14837KMSN MSN20031218021010112/18/03 02:10:31  5-MIN KMSN 180810Z 02007KT 6SM BR OVC007 M07/M09 A2984 940 88 -1500 020/07 RMK AO2
14837KMSN MSN20031218021510112/18/03 02:15:31  5-MIN KMSN 180815Z 01006KT 6SM BR OVC007 M07/M09 A2985 930 88 -1500 360/06 RMK AO2
14837KMSN MSN20031218022010112/18/03 02:20:31  5-MIN KMSN 180820Z 01007KT 6SM BR OVC007 M07/M09 A2985 930 88 -1500 010/07 RMK AO2
14837KMSN MSN20031218022510112/18/03 02:25:31  5-MIN KMSN 180825Z 02007KT 6SM BR OVC007 M07/M09 A2984 930 88 -1500 020/07 RMK AO2
14837KMSN MSN20031218023010112/18/03 02:30:31  5-MIN KMSN 180830Z 01007KT 6SM BR OVC007 M07/M09 A2985 930 88 -1500 010/07 RMK AO2
14837KMSN MSN20031218023510112/18/03 02:35:31  5-MIN KMSN 180835Z 36006KT 6SM BR OVC007 M07/M09 A2985 930 88 -1500 360/06 RMK AO2
14837KMSN MSN20031218024010112/18/03 02:40:31  5-MIN KMSN 180840Z 35006KT 6SM BR OVC007 M07/M09 A2985 930 88 -1500 350/06 RMK AO2
14837KMSN MSN20031218024510112/18/03 02:45:31  5-MIN KMSN 180845Z 35005KT 6SM BR OVC007 M07/M09 A2985 930 88 -1500 350/05 RMK AO2
14837KMSN MSN20031218025012712/18/03 02:50:31  5-MIN KMSN 180850Z 34007KT 7SM OVC007 M07/M09 A2985 930 88 -1500 340/07 RMK AO2 SLP122 60000 T10721089 58008
14837KMSN MSN20031218025509812/18/03 02:55:31  5-MIN KMSN 180855Z 36006KT 7SM OVC007 M07/M09 A2985 930 84 -1500 360/06 RMK AO2
14837KMSN MSN20031218030009812/18/03 03:00:31  5-MIN KMSN 180900Z 34003KT 7SM OVC007 M07/M09 A2985 930 84 -1500 330/03 RMK AO2
14837KMSN MSN20031218030509812/18/03 03:05:31  5-MIN KMSN 180905Z 34004KT 7SM OVC009 M07/M09 A2985 930 84 -1500 340/04 RMK AO2
14837KMSN MSN20031218031009812/18/03 03:10:31  5-MIN KMSN 180910Z 35004KT 7SM OVC009 M07/M09 A2985 930 88 -1500 350/04 RMK AO2
14837KMSN MSN20031218031509812/18/03 03:15:31  5-MIN KMSN 180915Z 36004KT 7SM OVC009 M07/M09 A2985 930 88 -1500 360/04 RMK AO2
14837KMSN MSN20031218032011012/18/03 03:20:31  5-MIN KMSN 180920Z 01008KT 7SM OVC009 M07/M08 A2985 930 92 -1500 360/08 RMK AO2 CIG 006V010
14837KMSN MSN20031218032511012/18/03 03:25:31  5-MIN KMSN 180925Z 02009KT 7SM OVC007 M07/M09 A2985 930 88 -1500 020/09 RMK AO2 CIG 006V009
14837KMSN MSN20031218033009812/18/03 03:30:31  5-MIN KMSN 180930Z 01006KT 7SM OVC007 M07/M09 A2985 930 88 -1500 010/06 RMK AO2
14837KMSN MSN20031218033509812/18/03 03:35:31  5-MIN KMSN 180935Z 36007KT 7SM OVC007 M07/M09 A2985 930 88 -1500 360/07 RMK AO2
14837KMSN MSN20031218034009812/18/03 03:40:31  5-MIN KMSN 180940Z 03007KT 7SM OVC007 M07/M09 A2985 930 88 -1500 030/07 RMK AO2
14837KMSN MSN20031218034510112/18/03 03:45:31  5-MIN KMSN 180945Z 03008KT 6SM BR OVC007 M07/M08 A2985 930 92 -1500 020/08 RMK AO2
14837KMSN MSN20031218035011812/18/03 03:50:31  5-MIN KMSN 180950Z 36008KT 6SM BR OVC007 M07/M09 A2985 930 88 -1500 360/08 RMK AO2 SLP121 T10721089
14837KMSN MSN20031218035509812/18/03 03:55:31  5-MIN KMSN 180955Z 01007KT 7SM OVC007 M07/M09 A2985 930 88 -1500 010/07 RMK AO2
14837KMSN MSN20031218040010112/18/03 04:00:31  5-MIN KMSN 181000Z 36007KT 6SM BR OVC005 M07/M08 A2985 930 92 -1500 360/07 RMK AO2
14837KMSN MSN20031218040510112/18/03 04:05:31  5-MIN KMSN 181005Z 01009KT 6SM BR OVC005 M07/M08 A2985 930 92 -1500 010/09 RMK AO2
14837KMSN MSN20031218041010112/18/03 04:10:31  5-MIN KMSN 181010Z 03008KT 6SM BR OVC005 M07/M08 A2985 930 92 -1500 030/08 RMK AO2
14837KMSN MSN20031218041510112/18/03 04:15:31  5-MIN KMSN 181015Z 03008KT 6SM BR OVC005 M08/M08 A2985 930 96 -1600 030/08 RMK AO2
14837KMSN MSN20031218042010112/18/03 04:20:31  5-MIN KMSN 181020Z 02008KT 6SM BR OVC005 M08/M09 A2985 930 92 -1600 020/08 RMK AO2
14837KMSN MSN20031218042510112/18/03 04:25:31  5-MIN KMSN 181025Z 03006KT 6SM BR OVC005 M08/M09 A2986 920 92 -1600 030/06 RMK AO2
14837KMSN MSN20031218043009812/18/03 04:30:31  5-MIN KMSN 181030Z 02007KT 7SM OVC005 M08/M09 A2986 920 92 -1600 010/07 RMK AO2
14837KMSN MSN20031218043509812/18/03 04:35:31  5-MIN KMSN 181035Z 36008KT 7SM OVC005 M08/M09 A2986 920 92 -1600 360/08 RMK AO2
14837KMSN MSN20031218044009812/18/03 04:40:31  5-MIN KMSN 181040Z 01008KT 7SM OVC005 M08/M09 A2986 920 92 -1600 010/08 RMK AO2
14837KMSN MSN20031218044509812/18/03 04:45:31  5-MIN KMSN 181045Z 02006KT 7SM OVC005 M08/M09 A2986 920 92 -1600 020/06 RMK AO2
14837KMSN MSN20031218045011512/18/03 04:50:31  5-MIN KMSN 181050Z 02008KT 7SM OVC005 M07/M09 A2986 920 88 -1500 020/08 RMK AO2 SLP125 T10721089
14837KMSN MSN20031218045509812/18/03 04:55:31  5-MIN KMSN 181055Z 01009KT 7SM OVC005 M07/M09 A2986 920 88 -1500 010/09 RMK AO2
14837KMSN MSN20031218050009812/18/03 05:00:31  5-MIN KMSN 181100Z 36006KT 7SM OVC005 M08/M08 A2986 920 96 -1600 360/06 RMK AO2
14837KMSN MSN20031218050509812/18/03 05:05:31  5-MIN KMSN 181105Z 01005KT 7SM OVC005 M08/M09 A2986 920 92 -1600 010/05 RMK AO2
14837KMSN MSN20031218051009812/18/03 05:10:31  5-MIN KMSN 181110Z 01006KT 7SM OVC005 M07/M08 A2986 920 92 -1500 010/06 RMK AO2
14837KMSN MSN20031218051509812/18/03 05:15:31  5-MIN KMSN 181115Z 02007KT 7SM OVC005 M07/M09 A2986 920 88 -1500 020/07 RMK AO2
14837KMSN MSN20031218052009812/18/03 05:20:31  5-MIN KMSN 181120Z 02009KT 8SM OVC005 M07/M09 A2986 920 88 -1500 020/09 RMK AO2
14837KMSN MSN20031218052509812/18/03 05:25:31  5-MIN KMSN 181125Z 01008KT 8SM OVC005 M07/M08 A2986 920 92 -1500 010/08 RMK AO2
14837KMSN MSN20031218053009812/18/03 05:30:31  5-MIN KMSN 181130Z 01009KT 7SM OVC005 M07/M09 A2986 920 88 -1500 010/09 RMK AO2
14837KMSN MSN20031218053509812/18/03 05:35:31  5-MIN KMSN 181135Z 36006KT 7SM OVC005 M07/M08 A2986 920 92 -1500 360/06 RMK AO2
14837KMSN MSN20031218054009812/18/03 05:40:31  5-MIN KMSN 181140Z 34007KT 7SM OVC005 M07/M09 A2986 920 88 -1500 340/07 RMK AO2
14837KMSN MSN20031218054509812/18/03 05:45:31  5-MIN KMSN 181145Z 01008KT 7SM OVC005 M07/M09 A2986 920 88 -1500 010/08 RMK AO2
14837KMSN MSN20031218055013912/18/03 05:50:31  5-MIN KMSN 181150Z 01008KT 7SM OVC005 M07/M08 A2986 920 92 -1500 010/08 RMK AO2 SLP127 60000 T10721083 11067 21078 53003
14837KMSN MSN20031218055509812/18/03 05:55:31  5-MIN KMSN 181155Z 34005KT 7SM OVC005 M07/M09 A2986 920 88 -1500 340/05 RMK AO2
14837KMSN MSN20031218060009812/18/03 06:00:31  5-MIN KMSN 181200Z 34006KT 7SM OVC005 M08/M08 A2986 920 96 -1600 340/06 RMK AO2
14837KMSN MSN20031218060509812/18/03 06:05:31  5-MIN KMSN 181205Z 33007KT 7SM OVC005 M08/M08 A2987 910 96 -1600 330/07 RMK AO2
14837KMSN MSN20031218061010112/18/03 06:10:31  5-MIN KMSN 181210Z 35006KT 6SM BR OVC005 M07/M09 A2987 910 88 -1500 350/06 RMK AO2
14837KMSN MSN20031218061510112/18/03 06:15:31  5-MIN KMSN 181215Z VRB05KT 6SM BR OVC005 M08/M09 A2987 910 92 -1600 VRB/05 RMK AO2
14837KMSN MSN20031218062010112/18/03 06:20:31  5-MIN KMSN 181220Z 33006KT 6SM BR OVC005 M08/M09 A2987 910 92 -1600 330/06 RMK AO2
14837KMSN MSN20031218062510112/18/03 06:25:31  5-MIN KMSN 181225Z 33007KT 6SM BR OVC005 M08/M08 A2987 910 96 -1600 330/07 RMK AO2
14837KMSN MSN20031218063010112/18/03 06:30:31  5-MIN KMSN 181230Z 33005KT 6SM BR OVC005 M08/M09 A2987 910 92 -1600 330/05 RMK AO2
14837KMSN MSN20031218063510112/18/03 06:35:31  5-MIN KMSN 181235Z 34006KT 6SM BR OVC005 M08/M09 A2988 910 92 -1600 340/06 RMK AO2
14837KMSN MSN20031218064010112/18/03 06:40:31  5-MIN KMSN 181240Z 32005KT 6SM BR OVC005 M08/M09 A2988 900 92 -1600 310/05 RMK AO2
14837KMSN MSN20031218064510112/18/03 06:45:31  5-MIN KMSN 181245Z VRB05KT 6SM BR OVC005 M08/M09 A2988 900 92 -1600 VRB/05 RMK AO2
14837KMSN MSN20031218065011512/18/03 06:50:31  5-MIN KMSN 181250Z 33004KT 7SM OVC005 M08/M09 A2988 900 92 -1600 330/04 RMK AO2 SLP133 T10781089
14837KMSN MSN20031218065509812/18/03 06:55:31  5-MIN KMSN 181255Z 32005KT 7SM OVC005 M08/M09 A2988 900 92 -1600 320/05 RMK AO2
14837KMSN MSN20031218070009812/18/03 07:00:31  5-MIN KMSN 181300Z 30006KT 7SM OVC005 M08/M09 A2988 900 92 -1600 300/06 RMK AO2
14837KMSN MSN20031218070509812/18/03 07:05:31  5-MIN KMSN 181305Z 31005KT 7SM OVC005 M08/M09 A2988 900 92 -1600 300/05 RMK AO2
14837KMSN MSN20031218071009812/18/03 07:10:31  5-MIN KMSN 181310Z 31005KT 7SM OVC005 M08/M09 A2988 900 92 -1600 310/05 RMK AO2
14837KMSN MSN20031218071509812/18/03 07:15:31  5-MIN KMSN 181315Z 33006KT 7SM OVC005 M08/M09 A2988 900 92 -1600 330/06 RMK AO2
14837KMSN MSN20031218072009812/18/03 07:20:31  5-MIN KMSN 181320Z 31006KT 7SM OVC005 M08/M09 A2988 900 92 -1600 310/06 RMK AO2
14837KMSN MSN20031218072509812/18/03 07:25:31  5-MIN KMSN 181325Z 32005KT 7SM OVC005 M08/M09 A2989 900 88 -1600 310/05 RMK AO2
14837KMSN MSN20031218073009812/18/03 07:30:31  5-MIN KMSN 181330Z 31006KT 7SM OVC005 M08/M09 A2989 900 88 -1600 310/06 RMK AO2
14837KMSN MSN20031218073510112/18/03 07:35:31  5-MIN KMSN 181335Z 30006KT 6SM BR OVC005 M08/M09 A2989 890 92 -1600 300/06 RMK AO2
14837KMSN MSN20031218074010112/18/03 07:40:31  5-MIN KMSN 181340Z 30005KT 6SM BR OVC005 M08/M09 A2989 890 88 -1600 300/05 RMK AO2
14837KMSN MSN20031218074510112/18/03 07:45:31  5-MIN KMSN 181345Z 32005KT 3SM BR OVC005 M08/M09 A2989 890 88 -1600 320/05 RMK AO2
14837KMSN MSN20031218075011812/18/03 07:50:31  5-MIN KMSN 181350Z 31005KT 3SM BR OVC005 M08/M09 A2989 890 92 -1600 300/05 RMK AO2 SLP138 T10781089
14837KMSN MSN20031218075510112/18/03 07:55:31  5-MIN KMSN 181355Z 32007KT 5SM BR OVC005 M08/M09 A2989 890 92 -1600 320/07 RMK AO2
14837KMSN MSN20031218080010112/18/03 08:00:31  5-MIN KMSN 181400Z 30006KT 5SM BR OVC005 M08/M09 A2989 890 88 -1600 300/06 RMK AO2
14837KMSN MSN20031218080510112/18/03 08:05:31  5-MIN KMSN 181405Z 30006KT 5SM BR OVC005 M08/M09 A2989 890 88 -1600 300/06 RMK AO2
14837KMSN MSN20031218081010112/18/03 08:10:31  5-MIN KMSN 181410Z 31006KT 5SM BR OVC005 M08/M09 A2989 890 88 -1600 310/06 RMK AO2
14837KMSN MSN20031218081510112/18/03 08:15:31  5-MIN KMSN 181415Z 31005KT 5SM BR OVC005 M08/M09 A2990 890 88 -1600 310/05 RMK AO2
14837KMSN MSN20031218082010112/18/03 08:20:31  5-MIN KMSN 181420Z 32006KT 5SM BR OVC005 M08/M09 A2990 890 88 -1600 310/06 RMK AO2
14837KMSN MSN20031218082510112/18/03 08:25:31  5-MIN KMSN 181425Z 31005KT 5SM BR OVC005 M08/M09 A2990 890 88 -1600 310/05 RMK AO2
14837KMSN MSN20031218083010112/18/03 08:30:31  5-MIN KMSN 181430Z 30005KT 5SM BR OVC007 M08/M09 A2990 890 88 -1600 300/05 RMK AO2
14837KMSN MSN20031218083510112/18/03 08:35:31  5-MIN KMSN 181435Z 32005KT 4SM BR OVC007 M08/M09 A2990 890 92 -1600 320/05 RMK AO2
14837KMSN MSN20031218084010112/18/03 08:40:31  5-MIN KMSN 181440Z 31006KT 4SM BR OVC007 M08/M09 A2990 880 88 -1600 310/06 RMK AO2
14837KMSN MSN20031218084511312/18/03 08:45:31  5-MIN KMSN 181445Z 31004KT 4SM BR OVC007 M08/M09 A2990 890 88 -1600 310/04 RMK AO2 CIG 006V010
14837KMSN MSN20031218085015812/18/03 08:50:31  5-MIN KMSN 181450Z 32005KT 4SM -SN BR OVC007 M08/M09 A2990 880 88 -1600 320/05 RMK AO2 SNB50 CIG 006V011 SLP142 P0000 60000 T10781094 53004
14837KMSN MSN20031218085512312/18/03 08:55:31  5-MIN KMSN 181455Z 30006KT 4SM -SN BR OVC009 M08/M09 A2991 880 88 -1600 300/06 RMK AO2 CIG 007V011 P0000
14837KMSN MSN20031218090012312/18/03 09:00:31  5-MIN KMSN 181500Z 30007KT 4SM -SN BR OVC009 M08/M10 A2991 880 84 -1600 300/07 RMK AO2 CIG 007V011 P0000
14837KMSN MSN20031218090511112/18/03 09:05:31  5-MIN KMSN 181505Z 32006KT 5SM -SN BR OVC009 M08/M10 A2991 870 84 -1600 320/06 RMK AO2 P0000
14837KMSN MSN20031218091011112/18/03 09:10:31  5-MIN KMSN 181510Z 32006KT 4SM -SN BR OVC009 M08/M09 A2991 870 88 -1600 320/06 RMK AO2 P0000
14837KMSN MSN20031218091511312/18/03 09:15:31  5-MIN KMSN 181515Z 31006KT 5SM BR OVC011 M08/M10 A2991 870 84 -1700 310/06 RMK AO2 SNE11 P0000
14837KMSN MSN20031218092011312/18/03 09:20:31  5-MIN KMSN 181520Z 33007KT 5SM BR OVC011 M08/M09 A2991 870 88 -1700 330/07 RMK AO2 SNE11 P0000
14837KMSN MSN20031218092511312/18/03 09:25:31  5-MIN KMSN 181525Z 31007KT 6SM BR OVC009 M08/M09 A2992 870 88 -1700 310/07 RMK AO2 SNE11 P0000
14837KMSN MSN20031218093011312/18/03 09:30:31  5-MIN KMSN 181530Z 30006KT 5SM BR OVC009 M08/M09 A2992 870 88 -1700 300/06 RMK AO2 SNE11 P0000
14837KMSN MSN20031218093511312/18/03 09:35:31  5-MIN KMSN 181535Z 31008KT 5SM BR OVC009 M08/M09 A2992 870 88 -1700 310/08 RMK AO2 SNE11 P0000
14837KMSN MSN20031218094011312/18/03 09:40:31  5-MIN KMSN 181540Z 32009KT 6SM BR OVC009 M08/M09 A2992 870 88 -1700 320/09 RMK AO2 SNE11 P0000
14837KMSN MSN20031218094511312/18/03 09:45:31  5-MIN KMSN 181545Z 31008KT 6SM BR OVC009 M08/M10 A2992 870 84 -1700 310/08 RMK AO2 SNE11 P0000
14837KMSN MSN20031218095013012/18/03 09:50:31  5-MIN KMSN 181550Z 34008KT 6SM BR OVC009 M08/M09 A2992 870 88 -1700 340/08 RMK AO2 SNE11 SLP147 P0000 T10781094
14837KMSN MSN20031218095510112/18/03 09:55:31  5-MIN KMSN 181555Z 34007KT 6SM BR OVC009 M08/M09 A2992 870 88 -1700 340/07 RMK AO2
14837KMSN MSN20031218100010112/18/03 10:00:31  5-MIN KMSN 181600Z 31006KT 6SM BR OVC009 M07/M09 A2992 870 84 -1600 300/06 RMK AO2
14837KMSN MSN20031218100510112/18/03 10:05:31  5-MIN KMSN 181605Z VRB06KT 5SM BR OVC009 M07/M09 A2992 870 84 -1600 VRB/06 RMK AO2
14837KMSN MSN20031218101010112/18/03 10:10:31  5-MIN KMSN 181610Z 31006KT 5SM BR OVC009 M07/M09 A2991 870 84 -1600 310/06 RMK AO2
14837KMSN MSN20031218101510112/18/03 10:15:31  5-MIN KMSN 181615Z 34005KT 5SM BR OVC009 M07/M09 A2991 870 84 -1600 330/05 RMK AO2
14837KMSN MSN20031218102010112/18/03 10:20:31  5-MIN KMSN 181620Z 32004KT 5SM BR OVC009 M07/M09 A2991 870 84 -1600 320/04 RMK AO2
14837KMSN MSN20031218102510112/18/03 10:25:31  5-MIN KMSN 181625Z VRB05KT 6SM BR OVC009 M07/M09 A2991 880 88 -1600 VRB/05 RMK AO2
14837KMSN MSN20031218103010112/18/03 10:30:31  5-MIN KMSN 181630Z 32007KT 6SM BR OVC009 M07/M09 A2991 880 88 -1600 320/07 RMK AO2
14837KMSN MSN20031218103510112/18/03 10:35:31  5-MIN KMSN 181635Z 30006KT 6SM BR OVC009 M07/M09 A2991 870 84 -1600 290/06 RMK AO2
14837KMSN MSN20031218104010112/18/03 10:40:31  5-MIN KMSN 181640Z 30005KT 6SM HZ OVC009 M07/M09 A2991 870 81 -1500 300/05 RMK AO2
14837KMSN MSN20031218104510112/18/03 10:45:31  5-MIN KMSN 181645Z 31005KT 5SM BR OVC009 M07/M09 A2991 880 84 -1500 310/05 RMK AO2
14837KMSN MSN20031218105011812/18/03 10:50:31  5-MIN KMSN 181650Z 31005KT 5SM BR OVC009 M07/M09 A2991 880 88 -1600 300/05 RMK AO2 SLP142 T10721089
14837KMSN MSN20031218105510112/18/03 10:55:31  5-MIN KMSN 181655Z 30006KT 5SM BR OVC009 M07/M09 A2990 880 84 -1500 300/06 RMK AO2
14837KMSN MSN20031218110010112/18/03 11:00:31  5-MIN KMSN 181700Z 30005KT 4SM BR OVC009 M07/M09 A2990 880 84 -1500 300/05 RMK AO2
14837KMSN MSN20031218110510112/18/03 11:05:31  5-MIN KMSN 181705Z 29006KT 4SM BR OVC009 M07/M09 A2991 880 84 -1500 290/06 RMK AO2
14837KMSN MSN20031218111011312/18/03 11:10:31  5-MIN KMSN 181710Z 31007KT 4SM BR OVC009 M07/M09 A2990 880 84 -1500 310/07 RMK AO2 CIG 009V012
14837KMSN MSN20031218111511312/18/03 11:15:31  5-MIN KMSN 181715Z 30007KT 5SM BR OVC009 M07/M09 A2990 880 84 -1500 300/07 RMK AO2 CIG 009V013
14837KMSN MSN20031218112010112/18/03 11:20:31  5-MIN KMSN 181720Z 30005KT 5SM BR OVC011 M07/M09 A2990 890 84 -1500 300/05 RMK AO2
14837KMSN MSN20031218112511312/18/03 11:25:31  5-MIN KMSN 181725Z 32006KT 5SM HZ OVC011 M06/M09 A2989 890 81 -1400 320/06 RMK AO2 CIG 009V014
14837KMSN MSN20031218113010112/18/03 11:30:31  5-MIN KMSN 181730Z 30006KT 6SM BR OVC011 M07/M08 A2989 890 88 -1500 300/06 RMK AO2
14837KMSN MSN20031218113510112/18/03 11:35:31  5-MIN KMSN 181735Z 26005KT 6SM BR OVC011 M07/M09 A2989 890 84 -1500 260/05 RMK AO2
14837KMSN MSN20031218114010112/18/03 11:40:31  5-MIN KMSN 181740Z 29006KT 6SM HZ OVC011 M06/M09 A2989 890 81 -1400 290/06 RMK AO2
14837KMSN MSN20031218114510112/18/03 11:45:31  5-MIN KMSN 181745Z VRB06KT 6SM HZ OVC011 M06/M09 A2989 900 81 -1400 VRB/06 RMK AO2
14837KMSN MSN20031218115014212/18/03 11:50:31  5-MIN KMSN 181750Z 30004KT 6SM HZ OVC011 M06/M09 A2988 900 77 -1400 290/04 RMK AO2 SLP134 60000 T10611094 11061 21078 51014
14837KMSN MSN20031218115509812/18/03 11:55:31  5-MIN KMSN 181755Z VRB06KT 7SM OVC011 M06/M09 A2989 900 81 -1400 VRB/06 RMK AO2
14837KMSN MSN20031218120009812/18/03 12:00:31  5-MIN KMSN 181800Z 28006KT 7SM OVC011 M06/M09 A2988 900 81 -1400 280/06 RMK AO2
14837KMSN MSN20031218120509812/18/03 12:05:31  5-MIN KMSN 181805Z 31008KT 7SM OVC011 M06/M09 A2988 900 81 -1400 300/08 RMK AO2
14837KMSN MSN20031218121009812/18/03 12:10:31  5-MIN KMSN 181810Z 30005KT 7SM OVC011 M06/M08 A2988 900 81 -1300 300/05 RMK AO2
14837KMSN MSN20031218121509812/18/03 12:15:31  5-MIN KMSN 181815Z 28004KT 7SM OVC011 M06/M09 A2988 900 81 -1400 280/04 RMK AO2
14837KMSN MSN20031218122009812/18/03 12:20:31  5-MIN KMSN 181820Z 31008KT 7SM OVC011 M06/M08 A2988 900 84 -1400 300/08 RMK AO2
14837KMSN MSN20031218122509812/18/03 12:25:31  5-MIN KMSN 181825Z 29008KT 8SM OVC011 M06/M08 A2988 900 84 -1400 290/08 RMK AO2
14837KMSN MSN20031218123009812/18/03 12:30:31  5-MIN KMSN 181830Z 30007KT 8SM OVC011 M06/M09 A2988 900 77 -1300 300/07 RMK AO2
14837KMSN MSN20031218123509812/18/03 12:35:31  5-MIN KMSN 181835Z 28009KT 9SM OVC011 M06/M08 A2988 900 81 -1300 280/09 RMK AO2
14837KMSN MSN20031218124009812/18/03 12:40:31  5-MIN KMSN 181840Z 27008KT 8SM OVC011 M06/M09 A2988 900 77 -1300 270/08 RMK AO2
14837KMSN MSN20031218124509812/18/03 12:45:31  5-MIN KMSN 181845Z 29006KT 8SM OVC011 M06/M09 A2988 900 77 -1300 290/06 RMK AO2
14837KMSN MSN20031218125013112/18/03 12:50:31  5-MIN KMSN 181850Z 29007KT 250V320 8SM OVC013 M06/M09 A2988 910 77 -1300 290/07 250V320 RMK AO2 SLP131 T10561089
14837KMSN MSN20031218125509812/18/03 12:55:31  5-MIN KMSN 181855Z 30009KT 9SM BKN013 M06/M09 A2987 910 77 -1300 300/09 RMK AO2
14837KMSN MSN20031218130009812/18/03 13:00:31  5-MIN KMSN 181900Z 29008KT 9SM BKN013 M06/M09 A2987 910 77 -1300 290/08 RMK AO2
14837KMSN MSN20031218130509812/18/03 13:05:31  5-MIN KMSN 181905Z 30010KT 9SM BKN013 M06/M09 A2987 910 77 -1300 300/10 RMK AO2
14837KMSN MSN20031218131009812/18/03 13:10:31  5-MIN KMSN 181910Z VRB06KT 8SM BKN013 M06/M09 A2987 910 77 -1300 VRB/06 RMK AO2
14837KMSN MSN20031218131509812/18/03 13:15:31  5-MIN KMSN 181915Z 29008KT 8SM OVC013 M06/M08 A2988 910 81 -1300 290/08 RMK AO2
14837KMSN MSN20031218132009812/18/03 13:20:31  5-MIN KMSN 181920Z 28007KT 8SM BKN013 M05/M08 A2988 900 77 -1300 280/07 RMK AO2
14837KMSN MSN20031218132509812/18/03 13:25:31  5-MIN KMSN 181925Z 29008KT 8SM OVC013 M05/M08 A2988 900 77 -1300 290/08 RMK AO2
14837KMSN MSN20031218133009812/18/03 13:30:31  5-MIN KMSN 181930Z 29006KT 8SM BKN013 M05/M08 A2988 900 77 -1300 290/06 RMK AO2
14837KMSN MSN20031218133509812/18/03 13:35:31  5-MIN KMSN 181935Z 29007KT 8SM BKN015 M05/M08 A2988 910 77 -1300 290/07 RMK AO2
14837KMSN MSN20031218134009812/18/03 13:40:31  5-MIN KMSN 181940Z 30009KT 8SM BKN015 M04/M08 A2987 910 78 -1200 300/09 RMK AO2
14837KMSN MSN20031218134509812/18/03 13:45:31  5-MIN KMSN 181945Z 29008KT 9SM BKN015 M05/M08 A2987 910 77 -1200 290/08 RMK AO2
14837KMSN MSN20031218135012212/18/03 13:50:31  5-MIN KMSN 181950Z 28008KT 9SM SCT015 SCT050 M05/M08 A2987 910 77 -1200 280/08 RMK AO2 SLP130 T10501083
14837KMSN MSN20031218135512112/18/03 13:55:31  5-MIN KMSN 181955Z 28008KT 240V310 9SM FEW015 BKN050 M05/M09 A2988 910 74 -1200 280/08 240V310 RMK AO2
14837KMSN MSN20031218140010512/18/03 14:00:31  5-MIN KMSN 182000Z 28007KT 9SM SCT015 BKN050 M04/M08 A2988 910 74 -1200 280/07 RMK AO2
14837KMSN MSN20031218140510512/18/03 14:05:31  5-MIN KMSN 182005Z 28010KT 9SM FEW015 BKN050 M04/M08 A2988 900 74 -1200 280/10 RMK AO2
14837KMSN MSN20031218141009812/18/03 14:10:31  5-MIN KMSN 182010Z 28008KT 9SM BKN050 M04/M08 A2988 900 74 -1200 280/08 RMK AO2
14837KMSN MSN20031218141509812/18/03 14:15:31  5-MIN KMSN 182015Z 29007KT 9SM OVC050 M04/M09 A2988 910 71 -1200 290/07 RMK AO2
14837KMSN MSN20031218142009812/18/03 14:20:31  5-MIN KMSN 182020Z 29008KT 9SM OVC050 M04/M08 A2987 910 74 -1200 290/08 RMK AO2
14837KMSN MSN20031218142509812/18/03 14:25:31  5-MIN KMSN 182025Z 28009KT 9SM BKN050 M04/M08 A2987 910 74 -1200 280/09 RMK AO2
14837KMSN MSN20031218143009812/18/03 14:30:31  5-MIN KMSN 182030Z 26006KT 9SM BKN050 M04/M08 A2987 910 74 -1200 260/06 RMK AO2
14837KMSN MSN20031218143510512/18/03 14:35:31  5-MIN KMSN 182035Z 27007KT 9SM BKN047 BKN055 M04/M08 A2987 910 74 -1200 270/07 RMK AO2
14837KMSN MSN20031218144010512/18/03 14:40:31  5-MIN KMSN 182040Z 27007KT 8SM BKN045 OVC055 M04/M08 A2987 910 74 -1200 270/07 RMK AO2
14837KMSN MSN20031218144510512/18/03 14:45:31  5-MIN KMSN 182045Z 28009KT 8SM BKN043 OVC055 M04/M08 A2988 910 74 -1200 280/09 RMK AO2
14837KMSN MSN20031218145012812/18/03 14:50:31  5-MIN KMSN 182050Z 27007KT 8SM BKN041 OVC050 M04/M08 A2988 910 78 -1200 270/07 RMK AO2 SLP130 T10441078 58006
14837KMSN MSN20031218145510512/18/03 14:55:31  5-MIN KMSN 182055Z 27007KT 8SM BKN041 OVC055 M04/M08 A2987 910 74 -1200 270/07 RMK AO2
14837KMSN MSN20031218150009812/18/03 15:00:31  5-MIN KMSN 182100Z 28009KT 7SM OVC041 M04/M09 A2988 900 71 -1200 280/09 RMK AO2
14837KMSN MSN20031218150510512/18/03 15:05:31  5-MIN KMSN 182105Z 28008KT 7SM BKN041 BKN050 M04/M08 A2988 900 74 -1200 280/08 RMK AO2
14837KMSN MSN20031218151010512/18/03 15:10:31  5-MIN KMSN 182110Z 29008KT 7SM BKN041 BKN050 M04/M08 A2988 900 74 -1200 280/08 RMK AO2
14837KMSN MSN20031218151509812/18/03 15:15:31  5-MIN KMSN 182115Z 28008KT 7SM SCT041 M04/M08 A2988 900 74 -1200 280/08 RMK AO2
14837KMSN MSN20031218152010112/18/03 15:20:31  5-MIN KMSN 182120Z 28010KT 6SM HZ SCT039 M04/M08 A2988 900 74 -1200 280/10 RMK AO2
14837KMSN MSN20031218152510812/18/03 15:25:31  5-MIN KMSN 182125Z 28008KT 6SM HZ FEW035 SCT042 M04/M08 A2988 900 74 -1200 280/08 RMK AO2
14837KMSN MSN20031218153010812/18/03 15:30:31  5-MIN KMSN 182130Z 28008KT 5SM HZ SCT046 SCT065 M04/M08 A2988 900 78 -1200 280/08 RMK AO2
14837KMSN MSN20031218153511512/18/03 15:35:31  5-MIN KMSN 182135Z 28007KT 5SM HZ FEW038 SCT055 BKN065 M04/M08 A2988 900 78 -1200 280/07 RMK AO2
14837KMSN MSN20031218154011512/18/03 15:40:31  5-MIN KMSN 182140Z 28005KT 6SM HZ SCT036 BKN050 BKN065 M04/M08 A2988 900 74 -1100 280/05 RMK AO2
14837KMSN MSN20031218154511212/18/03 15:45:31  5-MIN KMSN 182145Z 28006KT 7SM BKN036 BKN048 BKN065 M04/M08 A2988 900 74 -1100 280/06 RMK AO2
14837KMSN MSN20031218155012912/18/03 15:50:31  5-MIN KMSN 182150Z 27005KT 7SM BKN036 BKN055 OVC065 M04/M08 A2988 900 74 -1100 270/05 RMK AO2 SLP132 T10391078
14837KMSN MSN20031218155510512/18/03 15:55:31  5-MIN KMSN 182155Z 28007KT 7SM BKN034 OVC065 M04/M08 A2988 900 71 -1100 280/07 RMK AO2
14837KMSN MSN20031218160009812/18/03 16:00:31  5-MIN KMSN 182200Z 26006KT 7SM OVC034 M04/M08 A2988 900 74 -1100 260/06 RMK AO2
14837KMSN MSN20031218160510512/18/03 16:05:31  5-MIN KMSN 182205Z 27006KT 7SM BKN034 OVC070 M04/M08 A2988 900 74 -1100 270/06 RMK AO2
14837KMSN MSN20031218161010812/18/03 16:10:31  5-MIN KMSN 182210Z VRB05KT 6SM HZ BKN034 OVC070 M04/M08 A2988 900 74 -1100 VRB/05 RMK AO2
14837KMSN MSN20031218161510812/18/03 16:15:31  5-MIN KMSN 182215Z 26007KT 6SM HZ SCT032 OVC070 M04/M08 A2988 900 74 -1200 250/07 RMK AO2
14837KMSN MSN20031218162011512/18/03 16:20:31  5-MIN KMSN 182220Z 27005KT 6SM HZ SCT032 SCT055 OVC070 M04/M08 A2988 900 78 -1200 270/05 RMK AO2
14837KMSN MSN20031218162511512/18/03 16:25:31  5-MIN KMSN 182225Z 27009KT 6SM HZ FEW032 SCT055 OVC070 M04/M08 A2989 900 78 -1200 270/09 RMK AO2
14837KMSN MSN20031218163010812/18/03 16:30:31  5-MIN KMSN 182230Z 27007KT 6SM HZ FEW025 OVC070 M04/M08 A2989 890 78 -1200 270/07 RMK AO2
14837KMSN MSN20031218163511512/18/03 16:35:31  5-MIN KMSN 182235Z 26007KT 6SM HZ SCT025 SCT055 OVC070 M04/M08 A2989 890 74 -1100 260/07 RMK AO2
14837KMSN MSN20031218164011512/18/03 16:40:31  5-MIN KMSN 182240Z 26007KT 6SM HZ SCT025 SCT050 OVC070 M04/M08 A2990 890 74 -1100 250/07 RMK AO2
14837KMSN MSN20031218164512812/18/03 16:45:31  5-MIN KMSN 182245Z 28007KT 5SM -SN SCT023 BKN070 OVC080 M04/M08 A2990 880 78 -1200 280/07 RMK AO2 SNB43 P0000
14837KMSN MSN20031218165016112/18/03 16:50:31  5-MIN KMSN 182250Z 28007KT 250V310 4SM -SN BKN021 BKN050 OVC075 M04/M08 A2990 890 78 -1200 280/07 250V310 RMK AO2 SNB43 SLP137 P0000 T10441078
14837KMSN MSN20031218165514312/18/03 16:55:31  5-MIN KMSN 182255Z 28008KT 240V300 5SM HZ BKN019 BKN024 OVC070 M04/M08 A2990 890 78 -1200 280/08 240V300 RMK AO2 SNE55 P0000
14837KMSN MSN20031218170012212/18/03 17:00:31  5-MIN KMSN 182300Z VRB06KT 5SM -SN BKN019 BKN024 OVC070 M04/M08 A2990 890 78 -1200 VRB/06 RMK AO2 P0000
14837KMSN MSN20031218170511712/18/03 17:05:31  5-MIN KMSN 182305Z 27007KT 7SM BKN019 OVC070 M04/M07 A2990 880 81 -1200 270/07 RMK AO2 SNE03 P0000
14837KMSN MSN20031218171011012/18/03 17:10:31  5-MIN KMSN 182310Z 28008KT 7SM OVC017 M04/M07 A2990 880 81 -1100 280/08 RMK AO2 SNE03 P0000
14837KMSN MSN20031218171511012/18/03 17:15:31  5-MIN KMSN 182315Z VRB05KT 7SM OVC017 M04/M07 A2990 890 78 -1100 VRB/05 RMK AO2 SNE03 P0000
14837KMSN MSN20031218172011012/18/03 17:20:31  5-MIN KMSN 182320Z 28009KT 8SM OVC017 M04/M07 A2990 890 78 -1100 280/09 RMK AO2 SNE03 P0000
14837KMSN MSN20031218172512612/18/03 17:25:31  5-MIN KMSN 182325Z 27007KT 230V300 8SM OVC017 M04/M07 A2990 890 78 -1100 270/07 230V300 RMK AO2 SNE03 P0000
14837KMSN MSN20031218173011012/18/03 17:30:31  5-MIN KMSN 182330Z 28006KT 8SM OVC017 M04/M07 A2990 890 78 -1100 280/06 RMK AO2 SNE03 P0000
14837KMSN MSN20031218173511012/18/03 17:35:31  5-MIN KMSN 182335Z 28007KT 8SM OVC017 M04/M07 A2990 890 78 -1100 280/07 RMK AO2 SNE03 P0000
14837KMSN MSN20031218174011012/18/03 17:40:31  5-MIN KMSN 182340Z 28006KT 8SM OVC017 M04/M07 A2990 880 78 -1100 280/06 RMK AO2 SNE03 P0000
14837KMSN MSN20031218174511012/18/03 17:45:31  5-MIN KMSN 182345Z 29009KT 7SM OVC017 M04/M07 A2990 880 81 -1100 290/09 RMK AO2 SNE03 P0000
14837KMSN MSN20031218175015112/18/03 17:50:31  5-MIN KMSN 182350Z 28008KT 7SM OVC017 M04/M07 A2990 880 78 -1100 280/08 RMK AO2 SNE03 SLP138 P0000 60000 T10391072 11039 21061 56003
14837KMSN MSN20031218175509812/18/03 17:55:31  5-MIN KMSN 182355Z 29009KT 7SM OVC017 M04/M07 A2990 880 78 -1100 290/09 RMK AO2
14837KMSN MSN20031218180011412/18/03 18:00:31  5-MIN KMSN 190000Z 28007KT 260V330 7SM OVC017 M04/M07 A2990 880 78 -1100 280/07 260V330 RMK AO2
14837KMSN MSN20031218180510412/18/03 18:05:31  5-MIN KMSN 190005Z 28011G17KT 7SM OVC015 M04/M07 A2990 880 81 -1100 280/11G17 RMK AO2
14837KMSN MSN20031218181010412/18/03 18:10:31  5-MIN KMSN 190010Z 28009G17KT 7SM OVC015 M04/M07 A2990 880 78 -1100 280/09G17 RMK AO2
14837KMSN MSN20031218181509812/18/03 18:15:31  5-MIN KMSN 190015Z 28008KT 7SM OVC015 M04/M07 A2990 880 81 -1100 280/08 RMK AO2
14837KMSN MSN20031218182011412/18/03 18:20:31  5-MIN KMSN 190020Z 29008KT 260V320 7SM OVC015 M04/M07 A2990 880 81 -1100 290/08 260V320 RMK AO2
14837KMSN MSN20031218182509812/18/03 18:25:31  5-MIN KMSN 190025Z 28007KT 7SM OVC015 M04/M07 A2990 880 81 -1100 280/07 RMK AO2
14837KMSN MSN20031218183009812/18/03 18:30:31  5-MIN KMSN 190030Z 29009KT 7SM OVC015 M03/M07 A2990 880 78 -1100 290/09 RMK AO2
14837KMSN MSN20031218183509812/18/03 18:35:31  5-MIN KMSN 190035Z 29008KT 7SM OVC015 M03/M07 A2990 880 78 -1100 290/08 RMK AO2
14837KMSN MSN20031218184009812/18/03 18:40:31  5-MIN KMSN 190040Z 30008KT 7SM OVC015 M03/M07 A2991 880 78 -1100 300/08 RMK AO2
14837KMSN MSN20031218184509812/18/03 18:45:31  5-MIN KMSN 190045Z 30007KT 7SM OVC015 M03/M07 A2991 880 78 -1100 300/07 RMK AO2
14837KMSN MSN20031218185011512/18/03 18:50:31  5-MIN KMSN 190050Z 30009KT 7SM OVC015 M03/M07 A2990 880 78 -1100 300/09 RMK AO2 SLP140 T10331067
14837KMSN MSN20031218185509812/18/03 18:55:31  5-MIN KMSN 190055Z 30008KT 7SM OVC015 M03/M07 A2991 880 78 -1100 300/08 RMK AO2
14837KMSN MSN20031218190009812/18/03 19:00:31  5-MIN KMSN 190100Z 30010KT 7SM OVC015 M03/M07 A2990 880 78 -1100 300/10 RMK AO2
14837KMSN MSN20031218190509812/18/03 19:05:31  5-MIN KMSN 190105Z 29009KT 7SM OVC017 M03/M07 A2990 880 78 -1100 290/09 RMK AO2
14837KMSN MSN20031218191009812/18/03 19:10:31  5-MIN KMSN 190110Z 29010KT 7SM OVC017 M03/M06 A2990 880 81 -1100 290/10 RMK AO2
14837KMSN MSN20031218191509812/18/03 19:15:31  5-MIN KMSN 190115Z 30011KT 7SM OVC017 M03/M07 A2990 890 78 -1100 300/11 RMK AO2
14837KMSN MSN20031218192011412/18/03 19:20:31  5-MIN KMSN 190120Z 29007KT 260V340 7SM OVC017 M03/M07 A2990 880 78 -1100 290/07 260V340 RMK AO2
14837KMSN MSN20031218192509812/18/03 19:25:31  5-MIN KMSN 190125Z 29009KT 7SM OVC017 M03/M07 A2990 890 78 -1100 290/09 RMK AO2
14837KMSN MSN20031218193009812/18/03 19:30:31  5-MIN KMSN 190130Z 28009KT 7SM OVC019 M03/M06 A2990 890 78 -1000 280/09 RMK AO2
14837KMSN MSN20031218193509812/18/03 19:35:31  5-MIN KMSN 190135Z 29008KT 7SM OVC019 M03/M06 A2989 890 78 -1000 290/08 RMK AO2
14837KMSN MSN20031218194009812/18/03 19:40:31  5-MIN KMSN 190140Z 29007KT 7SM OVC019 M03/M06 A2989 890 78 -1000 290/07 RMK AO2
14837KMSN MSN20031218194509812/18/03 19:45:31  5-MIN KMSN 190145Z 28008KT 7SM OVC019 M03/M07 A2989 890 75 -1000 280/08 RMK AO2
14837KMSN MSN20031218195011512/18/03 19:50:31  5-MIN KMSN 190150Z 27007KT 7SM OVC021 M03/M07 A2989 890 75 -1000 270/07 RMK AO2 SLP136 T10281067
14837KMSN MSN20031218195509812/18/03 19:55:31  5-MIN KMSN 190155Z 27007KT 7SM OVC021 M03/M06 A2989 890 78 -1000 270/07 RMK AO2
14837KMSN MSN20031218200009812/18/03 20:00:31  5-MIN KMSN 190200Z 28006KT 7SM OVC021 M03/M06 A2989 890 78 -1000 280/06 RMK AO2
14837KMSN MSN20031218200509812/18/03 20:05:31  5-MIN KMSN 190205Z 27006KT 7SM OVC021 M03/M06 A2989 890 78 -1000 270/06 RMK AO2
14837KMSN MSN20031218201009812/18/03 20:10:31  5-MIN KMSN 190210Z 27008KT 7SM OVC021 M03/M06 A2989 890 78 -1000 270/08 RMK AO2
14837KMSN MSN20031218201509812/18/03 20:15:31  5-MIN KMSN 190215Z 27007KT 7SM OVC021 M03/M06 A2989 890 78 -1000 270/07 RMK AO2
14837KMSN MSN20031218202009812/18/03 20:20:31  5-MIN KMSN 190220Z 28005KT 7SM OVC021 M03/M06 A2989 890 78 -1000 280/05 RMK AO2
14837KMSN MSN20031218202509812/18/03 20:25:31  5-MIN KMSN 190225Z 27006KT 7SM OVC021 M03/M06 A2989 890 78 -1000 270/06 RMK AO2
14837KMSN MSN20031218203009812/18/03 20:30:31  5-MIN KMSN 190230Z 27008KT 7SM OVC021 M03/M06 A2989 890 78 -1000 270/08 RMK AO2
14837KMSN MSN20031218203509812/18/03 20:35:31  5-MIN KMSN 190235Z 28007KT 7SM OVC023 M03/M06 A2989 890 78 -1000 280/07 RMK AO2
14837KMSN MSN20031218204009812/18/03 20:40:31  5-MIN KMSN 190240Z VRB06KT 7SM OVC025 M03/M06 A2989 900 78 -1000 VRB/06 RMK AO2
14837KMSN MSN20031218204509812/18/03 20:45:31  5-MIN KMSN 190245Z 28007KT 7SM OVC025 M03/M06 A2988 900 78 -1000 280/07 RMK AO2
14837KMSN MSN20031218205012112/18/03 20:50:31  5-MIN KMSN 190250Z 28007KT 7SM OVC025 M03/M06 A2988 900 78 -1000 280/07 RMK AO2 SLP132 T10281061 51008
14837KMSN MSN20031218205509812/18/03 20:55:31  5-MIN KMSN 190255Z 28005KT 7SM OVC025 M03/M06 A2988 900 78 -1000 280/05 RMK AO2
14837KMSN MSN20031218210009812/18/03 21:00:31  5-MIN KMSN 190300Z VRB05KT 7SM OVC027 M03/M06 A2988 900 78 -1000 VRB/05 RMK AO2
14837KMSN MSN20031218210509812/18/03 21:05:31  5-MIN KMSN 190305Z 29007KT 7SM OVC027 M03/M06 A2988 900 81 -1000 290/07 RMK AO2
14837KMSN MSN20031218211009812/18/03 21:10:31  5-MIN KMSN 190310Z 28007KT 7SM OVC027 M03/M06 A2988 900 81 -1000 280/07 RMK AO2
14837KMSN MSN20031218211509812/18/03 21:15:31  5-MIN KMSN 190315Z 28007KT 7SM OVC027 M03/M06 A2988 900 81 -1000 280/07 RMK AO2
14837KMSN MSN20031218212009712/18/03 21:20:31  5-MIN KMSN 190320Z 28007KT 7SM OVC029 M02/M06 A2988 900 75 -900 280/07 RMK AO2
14837KMSN MSN20031218212509712/18/03 21:25:31  5-MIN KMSN 190325Z 28007KT 7SM OVC029 M02/M06 A2988 900 75 -900 270/07 RMK AO2
14837KMSN MSN20031218213009712/18/03 21:30:31  5-MIN KMSN 190330Z 29007KT 7SM OVC029 M02/M06 A2988 900 78 -900 280/07 RMK AO2
14837KMSN MSN20031218213509712/18/03 21:35:31  5-MIN KMSN 190335Z 28006KT 7SM OVC029 M02/M06 A2988 900 78 -900 280/06 RMK AO2
14837KMSN MSN20031218214010412/18/03 21:40:31  5-MIN KMSN 190340Z 28007KT 7SM FEW024 OVC029 M02/M06 A2988 900 78 -900 280/07 RMK AO2
14837KMSN MSN20031218214510412/18/03 21:45:31  5-MIN KMSN 190345Z 28006KT 7SM FEW024 OVC029 M02/M06 A2988 910 78 -900 280/06 RMK AO2
14837KMSN MSN20031218215012112/18/03 21:50:31  5-MIN KMSN 190350Z 28005KT 7SM SCT024 OVC029 M02/M06 A2988 900 78 -900 280/05 RMK AO2 SLP131 T10221056
14837KMSN MSN20031218215510412/18/03 21:55:31  5-MIN KMSN 190355Z 28005KT 7SM BKN024 OVC029 M02/M06 A2988 910 78 -900 280/05 RMK AO2
14837KMSN MSN20031218220010412/18/03 22:00:31  5-MIN KMSN 190400Z 28006KT 7SM BKN024 OVC029 M02/M06 A2988 910 78 -900 280/06 RMK AO2
14837KMSN MSN20031218220510412/18/03 22:05:31  5-MIN KMSN 190405Z 28006KT 7SM BKN024 OVC031 M02/M06 A2988 910 78 -900 280/06 RMK AO2
14837KMSN MSN20031218221010412/18/03 22:10:31  5-MIN KMSN 190410Z 28006KT 7SM BKN022 OVC031 M02/M06 A2988 900 78 -900 280/06 RMK AO2
14837KMSN MSN20031218221509712/18/03 22:15:31  5-MIN KMSN 190415Z 27006KT 7SM OVC022 M02/M06 A2988 900 78 -900 260/06 RMK AO2
14837KMSN MSN20031218222009712/18/03 22:20:31  5-MIN KMSN 190420Z 28006KT 7SM OVC022 M02/M06 A2988 900 78 -900 280/06 RMK AO2
14837KMSN MSN20031218222509712/18/03 22:25:31  5-MIN KMSN 190425Z 27007KT 8SM OVC022 M02/M06 A2988 900 78 -900 270/07 RMK AO2
14837KMSN MSN20031218223009712/18/03 22:30:31  5-MIN KMSN 190430Z 28007KT 8SM OVC022 M02/M06 A2988 900 78 -900 280/07 RMK AO2
14837KMSN MSN20031218223509712/18/03 22:35:31  5-MIN KMSN 190435Z 28006KT 8SM OVC020 M02/M06 A2988 900 78 -900 280/06 RMK AO2
14837KMSN MSN20031218224009712/18/03 22:40:31  5-MIN KMSN 190440Z 29007KT 8SM OVC020 M02/M06 A2988 900 78 -900 290/07 RMK AO2
14837KMSN MSN20031218224509712/18/03 22:45:31  5-MIN KMSN 190445Z 29009KT 8SM OVC020 M02/M06 A2988 900 78 -900 290/09 RMK AO2
14837KMSN MSN20031218225013012/18/03 22:50:31  5-MIN KMSN 190450Z 31006KT 8SM -SN OVC020 M02/M06 A2988 900 78 -900 310/06 RMK AO2 SNB49 SLP132 P0000 T10221056
14837KMSN MSN20031218225511412/18/03 22:55:31  5-MIN KMSN 190455Z 30008KT 9SM -SN BKN020 OVC025 M02/M06 A2988 900 78 -900 300/08 RMK AO2 P0000
14837KMSN MSN20031218230012012/18/03 23:00:31  5-MIN KMSN 190500Z 31012G15KT 9SM -SN BKN020 OVC025 M02/M06 A2988 900 75 -800 310/12G15 RMK AO2 P0000
14837KMSN MSN20031218230512712/18/03 23:05:31  5-MIN KMSN 190505Z 31014G17KT 9SM -SN SCT020 BKN025 OVC033 M02/M08 A2988 900 66 -900 310/14G17 RMK AO2 P0000
14837KMSN MSN20031218231012912/18/03 23:10:31  5-MIN KMSN 190510Z 31015G20KT 9SM FEW020 BKN025 OVC033 M02/M08 A2988 900 63 -900 310/15G20 RMK AO2 SNE09 P0000
14837KMSN MSN20031218231513012/18/03 23:15:31  5-MIN KMSN 190515Z 31014G20KT 10SM FEW020 BKN033 OVC060 M02/M09 A2988 900 58 -900 310/14G20 RMK AO2 SNE09 P0000
14837KMSN MSN20031218232013012/18/03 23:20:31  5-MIN KMSN 190520Z 32015G20KT 10SM SCT023 BKN033 OVC060 M02/M09 A2988 900 58 -900 320/15G20 RMK AO2 SNE09 P0000
14837KMSN MSN20031218232513012/18/03 23:25:31  5-MIN KMSN 190525Z 32009G20KT 10SM FEW025 BKN033 OVC060 M02/M09 A2988 900 58 -900 320/09G20 RMK AO2 SNE09 P0000
14837KMSN MSN20031218233012312/18/03 23:30:31  5-MIN KMSN 190530Z 31011G19KT 10SM BKN033 OVC060 M02/M09 A2988 900 58 -900 310/11G19 RMK AO2 SNE09 P0000
14837KMSN MSN20031218233513912/18/03 23:35:31  5-MIN KMSN 190535Z 31012G19KT 280V350 10SM BKN033 OVC060 M02/M09 A2988 900 60 -900 310/12G19 280V350 RMK AO2 SNE09 P0000
14837KMSN MSN20031218234012312/18/03 23:40:31  5-MIN KMSN 190540Z 33011G16KT 10SM BKN033 BKN060 M02/M09 A2988 900 60 -900 320/11G16 RMK AO2 SNE09 P0000
14837KMSN MSN20031218234512412/18/03 23:45:31  5-MIN KMSN 190545Z 32009G16KT 10SM BKN033 BKN060 M03/M09 A2988 900 63 -1000 320/09G16 RMK AO2 SNE09 P0000
14837KMSN MSN20031218235016912/18/03 23:50:31  5-MIN KMSN 190550Z 32011KT 10SM SCT033 BKN060 M03/M09 A2988 900 63 -1000 320/11 RMK AO2 SNE09 SLP131 P0000 60000 T10281089 11017 21039 410171078 58005
14837KMSN MSN20031218235511212/18/03 23:55:31  5-MIN KMSN 190555Z 32010G16KT 10SM FEW033 OVC060 M03/M09 A2988 900 63 -1000 320/10G16 RMK AO2
14837KMSN MSN20031219000010612/19/03 00:00:31  5-MIN KMSN 190600Z 32010KT 10SM FEW033 BKN060 M03/M09 A2988 900 63 -1000 320/10 RMK AO2
14837KMSN MSN20031219000510612/19/03 00:05:31  5-MIN KMSN 190605Z 32012KT 10SM FEW033 BKN060 M03/M09 A2988 900 60 -1000 320/12 RMK AO2
14837KMSN MSN20031219001011212/19/03 00:10:31  5-MIN KMSN 190610Z 32009G16KT 10SM FEW033 BKN060 M03/M09 A2988 900 60 -1000 310/09G16 RMK AO2
14837KMSN MSN20031219001511212/19/03 00:15:31  5-MIN KMSN 190615Z 32009G16KT 10SM FEW033 BKN060 M03/M09 A2989 900 63 -1000 320/09G16 RMK AO2
14837KMSN MSN20031219002011212/19/03 00:20:31  5-MIN KMSN 190620Z 32007G14KT 10SM FEW033 BKN060 M03/M09 A2989 900 63 -1000 320/07G14 RMK AO2
14837KMSN MSN20031219002511212/19/03 00:25:31  5-MIN KMSN 190625Z 32011G20KT 10SM FEW033 BKN060 M03/M09 A2988 900 63 -1000 320/11G20 RMK AO2
14837KMSN MSN20031219003010512/19/03 00:30:31  5-MIN KMSN 190630Z 32012G22KT 10SM OVC050 M03/M09 A2989 900 60 -1000 320/12G22 RMK AO2
14837KMSN MSN20031219003510512/19/03 00:35:31  5-MIN KMSN 190635Z 32009G22KT 10SM OVC050 M03/M09 A2988 900 60 -1000 320/09G22 RMK AO2
14837KMSN MSN20031219004010512/19/03 00:40:31  5-MIN KMSN 190640Z 32011G19KT 10SM OVC050 M03/M10 A2989 900 58 -1000 320/11G19 RMK AO2
14837KMSN MSN20031219004510512/19/03 00:45:31  5-MIN KMSN 190645Z 32012G21KT 10SM BKN050 M03/M10 A2989 900 58 -1000 320/12G21 RMK AO2
14837KMSN MSN20031219005012212/19/03 00:50:31  5-MIN KMSN 190650Z 32012G21KT 10SM BKN050 M03/M10 A2989 900 60 -1000 320/12G21 RMK AO2 SLP133 T10331100
14837KMSN MSN20031219005510512/19/03 00:55:31  5-MIN KMSN 190655Z 32013G22KT 10SM SCT050 M03/M10 A2989 890 60 -1100 320/13G22 RMK AO2
14837KMSN MSN20031219010010512/19/03 01:00:31  5-MIN KMSN 190700Z 32012G22KT 10SM SCT050 M04/M10 A2989 890 63 -1100 320/12G22 RMK AO2
14837KMSN MSN20031219010509912/19/03 01:05:31  5-MIN KMSN 190705Z 32010KT 10SM FEW050 M04/M10 A2989 890 63 -1100 320/10 RMK AO2
14837KMSN MSN20031219011010212/19/03 01:10:31  5-MIN KMSN 190710Z 31012G19KT 10SM CLR M04/M10 A2989 890 63 -1100 310/12G19 RMK AO2
14837KMSN MSN20031219011510212/19/03 01:15:31  5-MIN KMSN 190715Z 32013G21KT 10SM CLR M04/M10 A2990 890 63 -1100 320/13G21 RMK AO2
14837KMSN MSN20031219012010212/19/03 01:20:31  5-MIN KMSN 190720Z 32011G21KT 10SM CLR M04/M11 A2990 890 60 -1100 320/11G21 RMK AO2
14837KMSN MSN20031219012510212/19/03 01:25:31  5-MIN KMSN 190725Z 32010G17KT 10SM CLR M04/M11 A2990 890 62 -1200 320/10G17 RMK AO2
14837KMSN MSN20031219013012112/19/03 01:30:31  5-MIN KMSN 190730Z 32008G16KT 300V010 10SM FEW043 M04/M11 A2990 880 62 -1200 320/08G16 300V010 RMK AO2
14837KMSN MSN20031219013510512/19/03 01:35:31  5-MIN KMSN 190735Z 32012G17KT 10SM FEW043 M04/M11 A2990 880 62 -1200 320/12G17 RMK AO2
14837KMSN MSN20031219014010512/19/03 01:40:31  5-MIN KMSN 190740Z 33012G18KT 10SM SCT045 M04/M11 A2990 880 62 -1200 330/12G18 RMK AO2
14837KMSN MSN20031219014510512/19/03 01:45:31  5-MIN KMSN 190745Z 32013G18KT 10SM BKN045 M04/M11 A2990 880 62 -1200 320/13G18 RMK AO2
14837KMSN MSN20031219015011612/19/03 01:50:31  5-MIN KMSN 190750Z 33011KT 10SM BKN045 M04/M10 A2991 880 65 -1200 330/11 RMK AO2 SLP141 T10441100
14837KMSN MSN20031219015509912/19/03 01:55:31  5-MIN KMSN 190755Z 33011KT 10SM BKN045 M04/M11 A2991 870 62 -1200 320/11 RMK AO2
14837KMSN MSN20031219020009912/19/03 02:00:31  5-MIN KMSN 190800Z 32010KT 10SM OVC045 M04/M10 A2991 870 65 -1200 320/10 RMK AO2
14837KMSN MSN20031219020509912/19/03 02:05:31  5-MIN KMSN 190805Z 32010KT 10SM OVC047 M04/M10 A2991 870 65 -1200 320/10 RMK AO2
14837KMSN MSN20031219021009912/19/03 02:10:31  5-MIN KMSN 190810Z 33008KT 10SM OVC047 M04/M10 A2992 870 65 -1200 330/08 RMK AO2
14837KMSN MSN20031219021511512/19/03 02:15:31  5-MIN KMSN 190815Z 31009KT 280V350 10SM OVC049 M04/M10 A2992 870 65 -1200 310/09 280V350 RMK AO2
14837KMSN MSN20031219022009912/19/03 02:20:31  5-MIN KMSN 190820Z 33008KT 10SM OVC049 M04/M11 A2992 860 60 -1200 320/08 RMK AO2
14837KMSN MSN20031219022509912/19/03 02:25:31  5-MIN KMSN 190825Z 32007KT 10SM OVC049 M04/M10 A2992 860 65 -1200 320/07 RMK AO2
14837KMSN MSN20031219023009912/19/03 02:30:31  5-MIN KMSN 190830Z 32008KT 10SM OVC049 M04/M10 A2992 860 65 -1200 320/08 RMK AO2
14837KMSN MSN20031219023509912/19/03 02:35:31  5-MIN KMSN 190835Z 33010KT 10SM BKN049 M04/M10 A2992 860 65 -1200 320/10 RMK AO2
14837KMSN MSN20031219024009912/19/03 02:40:31  5-MIN KMSN 190840Z 33008KT 10SM BKN049 M04/M10 A2992 860 65 -1200 320/08 RMK AO2
14837KMSN MSN20031219024509912/19/03 02:45:31  5-MIN KMSN 190845Z 33007KT 10SM OVC049 M04/M10 A2992 860 65 -1200 330/07 RMK AO2
14837KMSN MSN20031219025012212/19/03 02:50:31  5-MIN KMSN 190850Z 33007KT 10SM OVC049 M04/M10 A2992 860 65 -1200 330/07 RMK AO2 SLP147 T10441100 56001
14837KMSN MSN20031219025509912/19/03 02:55:31  5-MIN KMSN 190855Z 33007KT 10SM OVC049 M04/M10 A2993 860 65 -1200 330/07 RMK AO2
14837KMSN MSN20031219030009912/19/03 03:00:31  5-MIN KMSN 190900Z 33007KT 10SM OVC049 M04/M10 A2993 860 65 -1200 320/07 RMK AO2
14837KMSN MSN20031219030509912/19/03 03:05:31  5-MIN KMSN 190905Z 33007KT 10SM OVC049 M04/M10 A2993 860 65 -1200 320/07 RMK AO2
14837KMSN MSN20031219031009912/19/03 03:10:31  5-MIN KMSN 190910Z 32007KT 10SM OVC049 M04/M09 A2993 860 68 -1200 320/07 RMK AO2
14837KMSN MSN20031219031509912/19/03 03:15:31  5-MIN KMSN 190915Z VRB06KT 10SM OVC049 M04/M09 A2993 860 68 -1200 VRB/06 RMK AO2
14837KMSN MSN20031219032009912/19/03 03:20:31  5-MIN KMSN 190920Z 32005KT 10SM OVC049 M04/M09 A2993 860 68 -1200 320/05 RMK AO2
14837KMSN MSN20031219032509912/19/03 03:25:31  5-MIN KMSN 190925Z 33009KT 10SM OVC049 M04/M09 A2993 860 65 -1200 330/09 RMK AO2
14837KMSN MSN20031219033009912/19/03 03:30:31  5-MIN KMSN 190930Z 33007KT 10SM OVC049 M04/M09 A2993 860 65 -1200 330/07 RMK AO2
14837KMSN MSN20031219033509912/19/03 03:35:31  5-MIN KMSN 190935Z 32010KT 10SM OVC049 M04/M09 A2993 860 65 -1200 320/10 RMK AO2
14837KMSN MSN20031219034009912/19/03 03:40:31  5-MIN KMSN 190940Z 32009KT 10SM OVC049 M04/M09 A2993 860 65 -1200 320/09 RMK AO2
14837KMSN MSN20031219034509912/19/03 03:45:31  5-MIN KMSN 190945Z 33010KT 10SM OVC049 M04/M09 A2993 860 65 -1200 320/10 RMK AO2
14837KMSN MSN20031219035011612/19/03 03:50:31  5-MIN KMSN 190950Z 32008KT 10SM OVC049 M04/M09 A2993 860 65 -1200 320/08 RMK AO2 SLP147 T10391094
14837KMSN MSN20031219035509912/19/03 03:55:31  5-MIN KMSN 190955Z 32007KT 10SM OVC049 M04/M09 A2993 850 65 -1200 320/07 RMK AO2
14837KMSN MSN20031219040010612/19/03 04:00:31  5-MIN KMSN 191000Z 32008KT 10SM FEW045 OVC055 M04/M09 A2993 850 65 -1200 320/08 RMK AO2
14837KMSN MSN20031219040509912/19/03 04:05:31  5-MIN KMSN 191005Z 31007KT 10SM OVC055 M04/M09 A2993 850 68 -1200 310/07 RMK AO2
14837KMSN MSN20031219041010612/19/03 04:10:31  5-MIN KMSN 191010Z 31008KT 10SM FEW039 OVC055 M04/M09 A2993 850 68 -1200 310/08 RMK AO2
14837KMSN MSN20031219041510612/19/03 04:15:31  5-MIN KMSN 191015Z 32009KT 10SM SCT040 OVC055 M04/M09 A2993 850 68 -1200 320/09 RMK AO2
14837KMSN MSN20031219042010612/19/03 04:20:31  5-MIN KMSN 191020Z 31008KT 10SM SCT040 OVC055 M04/M09 A2993 850 68 -1200 310/08 RMK AO2
14837KMSN MSN20031219042510612/19/03 04:25:31  5-MIN KMSN 191025Z 31008KT 10SM BKN040 OVC055 M04/M09 A2994 850 68 -1200 310/08 RMK AO2
14837KMSN MSN20031219043011212/19/03 04:30:31  5-MIN KMSN 191030Z 31009G16KT 10SM BKN042 OVC055 M04/M08 A2994 850 71 -1200 310/09G16 RMK AO2
14837KMSN MSN20031219043511212/19/03 04:35:31  5-MIN KMSN 191035Z 30010G16KT 10SM BKN042 OVC055 M04/M08 A2994 850 71 -1200 300/10G16 RMK AO2
14837KMSN MSN20031219044012812/19/03 04:40:31  5-MIN KMSN 191040Z 31008G16KT 270V340 10SM BKN042 OVC055 M04/M08 A2994 850 71 -1200 310/08G16 270V340 RMK AO2
14837KMSN MSN20031219044510612/19/03 04:45:31  5-MIN KMSN 191045Z 31010KT 10SM BKN042 OVC055 M04/M08 A2994 850 71 -1200 310/10 RMK AO2
14837KMSN MSN20031219045013012/19/03 04:50:31  5-MIN KMSN 191050Z 31009KT 10SM BKN042 BKN055 OVC080 M04/M08 A2994 850 71 -1200 310/09 RMK AO2 SLP150 T10391083
14837KMSN MSN20031219045511312/19/03 04:55:31  5-MIN KMSN 191055Z 31011KT 10SM SCT044 BKN055 OVC080 M04/M09 A2994 850 68 -1200 310/11 RMK AO2
14837KMSN MSN20031219050011312/19/03 05:00:31  5-MIN KMSN 191100Z 32009KT 10SM FEW040 SCT047 BKN055 M04/M09 A2994 840 68 -1200 320/09 RMK AO2
14837KMSN MSN20031219050511312/19/03 05:05:31  5-MIN KMSN 191105Z 32010KT 10SM FEW040 BKN055 BKN080 M04/M09 A2994 840 71 -1300 310/10 RMK AO2
14837KMSN MSN20031219051011912/19/03 05:10:31  5-MIN KMSN 191110Z 32009G15KT 10SM FEW040 BKN055 OVC080 M04/M08 A2995 840 74 -1300 320/09G15 RMK AO2
14837KMSN MSN20031219051511212/19/03 05:15:31  5-MIN KMSN 191115Z 31011G16KT 10SM BKN055 BKN080 M04/M08 A2995 840 74 -1300 310/11G16 RMK AO2
14837KMSN MSN20031219052011212/19/03 05:20:31  5-MIN KMSN 191120Z 32008G16KT 10SM BKN050 OVC085 M04/M08 A2995 840 74 -1300 320/08G16 RMK AO2
14837KMSN MSN20031219052509912/19/03 05:25:31  5-MIN KMSN 191125Z 31009KT 10SM OVC050 M04/M09 A2995 840 71 -1300 310/09 RMK AO2
14837KMSN MSN20031219053009912/19/03 05:30:31  5-MIN KMSN 191130Z 31010KT 10SM OVC050 M04/M08 A2995 840 74 -1300 310/10 RMK AO2
14837KMSN MSN20031219053509912/19/03 05:35:31  5-MIN KMSN 191135Z 31009KT 10SM OVC050 M04/M08 A2995 830 74 -1300 310/09 RMK AO2
14837KMSN MSN20031219054010612/19/03 05:40:31  5-MIN KMSN 191140Z 31011KT 10SM FEW026 OVC050 M04/M08 A2995 830 74 -1300 310/11 RMK AO2
14837KMSN MSN20031219054510612/19/03 05:45:31  5-MIN KMSN 191145Z 31009KT 10SM SCT026 OVC050 M04/M08 A2996 830 71 -1200 310/09 RMK AO2
14837KMSN MSN20031219055014112/19/03 05:50:31  5-MIN KMSN 191150Z 31011KT 10SM SCT026 OVC050 M04/M08 A2996 830 71 -1200 310/11 RMK AO2 SLP157 T10391083 11028 21044 53015
14837KMSN MSN20031219055511912/19/03 05:55:31  5-MIN KMSN 191155Z 32012G24KT 10SM SCT028 BKN035 OVC050 M04/M09 A2996 830 68 -1200 320/12G24 RMK AO2
14837KMSN MSN20031219060011912/19/03 06:00:31  5-MIN KMSN 191200Z 32010G24KT 10SM BKN028 BKN035 OVC050 M04/M09 A2996 830 68 -1200 320/10G24 RMK AO2
14837KMSN MSN20031219060511212/19/03 06:05:31  5-MIN KMSN 191205Z 33011G17KT 10SM BKN028 OVC050 M04/M09 A2996 830 68 -1200 330/11G17 RMK AO2
14837KMSN MSN20031219061011212/19/03 06:10:31  5-MIN KMSN 191210Z 33010G17KT 10SM SCT028 OVC050 M04/M09 A2996 830 68 -1200 330/10G17 RMK AO2
14837KMSN MSN20031219061511212/19/03 06:15:31  5-MIN KMSN 191215Z 33009G17KT 10SM SCT028 OVC050 M04/M09 A2996 830 68 -1200 320/09G17 RMK AO2
14837KMSN MSN20031219062010612/19/03 06:20:31  5-MIN KMSN 191220Z 32010KT 10SM FEW028 OVC050 M04/M09 A2996 820 68 -1200 320/10 RMK AO2
14837KMSN MSN20031219062511212/19/03 06:25:31  5-MIN KMSN 191225Z 33011G16KT 10SM FEW028 OVC050 M04/M09 A2996 820 65 -1200 330/11G16 RMK AO2
14837KMSN MSN20031219063010512/19/03 06:30:31  5-MIN KMSN 191230Z 33010G16KT 10SM OVC050 M04/M09 A2997 820 68 -1200 330/10G16 RMK AO2
14837KMSN MSN20031219063510512/19/03 06:35:31  5-MIN KMSN 191235Z 33009G16KT 10SM OVC050 M04/M09 A2997 820 68 -1200 330/09G16 RMK AO2
14837KMSN MSN20031219064010512/19/03 06:40:31  5-MIN KMSN 191240Z 33009G15KT 10SM OVC050 M04/M09 A2997 820 68 -1200 330/09G15 RMK AO2
14837KMSN MSN20031219064510512/19/03 06:45:31  5-MIN KMSN 191245Z 32008G15KT 10SM OVC050 M04/M09 A2997 820 65 -1200 320/08G15 RMK AO2
14837KMSN MSN20031219065012212/19/03 06:50:31  5-MIN KMSN 191250Z 32011G16KT 10SM OVC050 M04/M09 A2997 820 65 -1200 320/11G16 RMK AO2 SLP162 T10391094
14837KMSN MSN20031219065510512/19/03 06:55:31  5-MIN KMSN 191255Z 32006G16KT 10SM OVC050 M04/M09 A2997 820 71 -1300 320/06G16 RMK AO2
14837KMSN MSN20031219070010512/19/03 07:00:31  5-MIN KMSN 191300Z 31010G14KT 10SM OVC050 M04/M09 A2997 820 68 -1200 310/10G14 RMK AO2
14837KMSN MSN20031219070509912/19/03 07:05:31  5-MIN KMSN 191305Z 32008KT 10SM OVC050 M04/M09 A2997 820 68 -1200 320/08 RMK AO2
14837KMSN MSN20031219071009912/19/03 07:10:31  5-MIN KMSN 191310Z 32009KT 10SM OVC050 M04/M08 A2998 810 74 -1300 320/09 RMK AO2
14837KMSN MSN20031219071509912/19/03 07:15:31  5-MIN KMSN 191315Z 31008KT 10SM OVC050 M04/M08 A2998 810 74 -1300 310/08 RMK AO2
14837KMSN MSN20031219072009912/19/03 07:20:31  5-MIN KMSN 191320Z 32009KT 10SM OVC050 M04/M08 A2998 810 78 -1300 310/09 RMK AO2
14837KMSN MSN20031219072512212/19/03 07:25:31  5-MIN KMSN 191325Z 31010KT 10SM -SN FEW034 OVC050 M04/M08 A2998 810 78 -1300 310/10 RMK AO2 SNB22 P0000
14837KMSN MSN20031219073012012/19/03 07:30:31  5-MIN KMSN 191330Z 31011KT 9SM FEW034 OVC050 M04/M08 A2998 810 78 -1300 310/11 RMK AO2 SNB22E30 P0000
14837KMSN MSN20031219073511412/19/03 07:35:31  5-MIN KMSN 191335Z 31008KT 6SM -SN OVC050 M04/M08 A2998 810 78 -1300 310/08 RMK AO2 SNB22 P0000
14837KMSN MSN20031219074012112/19/03 07:40:31  5-MIN KMSN 191340Z 31007KT 5SM -SN FEW037 OVC050 M04/M08 A2998 810 78 -1300 310/07 RMK AO2 SNB22 P0000
14837KMSN MSN20031219074512112/19/03 07:45:31  5-MIN KMSN 191345Z 30007KT 7SM -SN FEW037 OVC050 M04/M08 A2998 810 78 -1300 300/07 RMK AO2 SNB22 P0000
14837KMSN MSN20031219075013112/19/03 07:50:31  5-MIN KMSN 191350Z 30007KT 8SM -SN OVC050 M04/M08 A2999 800 78 -1300 300/07 RMK AO2 SNB22 SLP166 P0000 T10441078
14837KMSN MSN20031219075511412/19/03 07:55:31  5-MIN KMSN 191355Z 30010G16KT 9SM -SN OVC050 M04/M08 A2999 800 78 -1300 300/10G16 RMK AO2 P0000
14837KMSN MSN20031219080011412/19/03 08:00:31  5-MIN KMSN 191400Z 31010G16KT 9SM -SN OVC050 M04/M08 A2999 800 74 -1200 310/10G16 RMK AO2 P0000
14837KMSN MSN20031219080510812/19/03 08:05:31  5-MIN KMSN 191405Z 31009KT 9SM -SN OVC050 M04/M08 A2999 800 71 -1200 310/09 RMK AO2 P0000
14837KMSN MSN20031219081010812/19/03 08:10:31  5-MIN KMSN 191410Z 32010KT 9SM -SN OVC050 M04/M08 A2999 800 71 -1200 310/10 RMK AO2 P0000
14837KMSN MSN20031219081511612/19/03 08:15:31  5-MIN KMSN 191415Z 32010G15KT 9SM OVC050 M04/M08 A2999 800 71 -1200 310/10G15 RMK AO2 SNE11 P0000
14837KMSN MSN20031219082011712/19/03 08:20:31  5-MIN KMSN 191420Z 31006G15KT 10SM OVC050 M04/M08 A3000 790 71 -1200 310/06G15 RMK AO2 SNE11 P0000
14837KMSN MSN20031219082511812/19/03 08:25:31  5-MIN KMSN 191425Z 32010KT 10SM FEW015 BKN050 M04/M09 A3000 790 68 -1300 320/10 RMK AO2 SNE11 P0000
14837KMSN MSN20031219083011812/19/03 08:30:31  5-MIN KMSN 191430Z 32009KT 10SM FEW015 BKN050 M04/M09 A3000 790 68 -1300 320/09 RMK AO2 SNE11 P0000
14837KMSN MSN20031219083511812/19/03 08:35:31  5-MIN KMSN 191435Z 31008KT 10SM FEW015 BKN050 M04/M09 A3000 790 68 -1300 310/08 RMK AO2 SNE11 P0000
14837KMSN MSN20031219084011812/19/03 08:40:31  5-MIN KMSN 191440Z 32008KT 10SM FEW015 BKN050 M04/M09 A3000 790 68 -1300 320/08 RMK AO2 SNE11 P0000
14837KMSN MSN20031219084511812/19/03 08:45:31  5-MIN KMSN 191445Z 31008KT 10SM FEW015 BKN050 M04/M09 A3000 790 68 -1300 310/08 RMK AO2 SNE11 P0000
14837KMSN MSN20031219085014712/19/03 08:50:31  5-MIN KMSN 191450Z 31007KT 10SM FEW015 BKN050 M04/M09 A3001 790 68 -1300 310/07 RMK AO2 SNE11 SLP173 P0000 60000 T10391089 53012
14837KMSN MSN20031219085512812/19/03 08:55:31  5-MIN KMSN 191455Z 31011G16KT 280V350 10SM SCT016 BKN044 M04/M09 A3001 780 68 -1300 310/11G16 280V350 RMK AO2
14837KMSN MSN20031219090011212/19/03 09:00:31  5-MIN KMSN 191500Z 32012G16KT 10SM SCT016 BKN044 M03/M09 A3001 780 63 -1200 320/12G16 RMK AO2
14837KMSN MSN20031219090511212/19/03 09:05:31  5-MIN KMSN 191505Z 32011G16KT 10SM BKN044 BKN050 M03/M09 A3001 780 63 -1200 320/11G16 RMK AO2
14837KMSN MSN20031219091010512/19/03 09:10:31  5-MIN KMSN 191510Z 32011G17KT 10SM SCT044 M03/M09 A3002 780 63 -1200 320/11G17 RMK AO2
14837KMSN MSN20031219091511212/19/03 09:15:31  5-MIN KMSN 191515Z 32013G20KT 10SM FEW020 SCT044 M03/M10 A3002 780 60 -1200 320/13G20 RMK AO2
14837KMSN MSN20031219092011212/19/03 09:20:31  5-MIN KMSN 191520Z 32014G20KT 10SM FEW020 SCT044 M03/M11 A3002 780 57 -1200 320/14G20 RMK AO2
14837KMSN MSN20031219092511212/19/03 09:25:31  5-MIN KMSN 191525Z 32012G19KT 10SM FEW020 SCT044 M03/M10 A3002 770 60 -1200 320/12G19 RMK AO2
14837KMSN MSN20031219093010612/19/03 09:30:31  5-MIN KMSN 191530Z 32010KT 10SM FEW020 SCT044 M03/M10 A3002 770 60 -1200 320/10 RMK AO2
14837KMSN MSN20031219093510512/19/03 09:35:31  5-MIN KMSN 191535Z 33008G16KT 10SM FEW020 M03/M11 A3002 770 57 -1200 320/08G16 RMK AO2
14837KMSN MSN20031219094010512/19/03 09:40:31  5-MIN KMSN 191540Z 33009G16KT 10SM FEW020 M03/M11 A3003 770 55 -1200 330/09G16 RMK AO2
14837KMSN MSN20031219094510512/19/03 09:45:31  5-MIN KMSN 191545Z 32012G20KT 10SM FEW020 M03/M11 A3003 760 55 -1200 320/12G20 RMK AO2
14837KMSN MSN20031219095012212/19/03 09:50:31  5-MIN KMSN 191550Z 32012G20KT 10SM FEW020 M03/M11 A3003 760 55 -1200 320/12G20 RMK AO2 SLP181 T10331111
14837KMSN MSN20031219095510512/19/03 09:55:31  5-MIN KMSN 191555Z 33015G20KT 10SM SCT022 M03/M11 A3003 760 55 -1200 330/15G20 RMK AO2
14837KMSN MSN20031219100010512/19/03 10:00:31  5-MIN KMSN 191600Z 33014G20KT 10SM SCT022 M03/M11 A3003 760 55 -1200 330/14G20 RMK AO2
14837KMSN MSN20031219100510512/19/03 10:05:31  5-MIN KMSN 191605Z 33013G19KT 10SM SCT022 M04/M11 A3004 760 57 -1300 330/13G19 RMK AO2
14837KMSN MSN20031219101010512/19/03 10:10:31  5-MIN KMSN 191610Z 33013G19KT 10SM SCT022 M03/M11 A3004 760 55 -1200 330/13G19 RMK AO2
14837KMSN MSN20031219101510512/19/03 10:15:31  5-MIN KMSN 191615Z 33010G19KT 10SM SCT022 M03/M11 A3004 760 57 -1200 330/10G19 RMK AO2
14837KMSN MSN20031219102010512/19/03 10:20:31  5-MIN KMSN 191620Z 31014G19KT 10SM SCT027 M03/M11 A3004 760 57 -1200 310/14G19 RMK AO2
14837KMSN MSN20031219102510512/19/03 10:25:31  5-MIN KMSN 191625Z 34011G19KT 10SM SCT027 M03/M11 A3003 760 57 -1200 340/11G19 RMK AO2
14837KMSN MSN20031219103010512/19/03 10:30:31  5-MIN KMSN 191630Z 34013G16KT 10SM BKN028 M03/M11 A3004 760 57 -1200 340/13G16 RMK AO2
14837KMSN MSN20031219103509912/19/03 10:35:31  5-MIN KMSN 191635Z 31011KT 10SM BKN028 M04/M11 A3004 760 57 -1300 310/11 RMK AO2
14837KMSN MSN20031219104010512/19/03 10:40:31  5-MIN KMSN 191640Z 32012G17KT 10SM BKN028 M03/M11 A3004 760 57 -1200 320/12G17 RMK AO2
14837KMSN MSN20031219104509912/19/03 10:45:31  5-MIN KMSN 191645Z 32012KT 10SM BKN028 M04/M11 A3004 760 57 -1300 320/12 RMK AO2
14837KMSN MSN20031219105012212/19/03 10:50:31  5-MIN KMSN 191650Z 33016G20KT 10SM BKN028 M03/M11 A3004 760 57 -1200 330/16G20 RMK AO2 SLP182 T10331106
14837KMSN MSN20031219105510512/19/03 10:55:31  5-MIN KMSN 191655Z 33014G20KT 10SM BKN028 M04/M11 A3004 760 57 -1300 330/14G20 RMK AO2
14837KMSN MSN20031219110010512/19/03 11:00:31  5-MIN KMSN 191700Z 33014G18KT 10SM BKN028 M04/M12 A3004 760 55 -1300 330/14G18 RMK AO2
14837KMSN MSN20031219110510512/19/03 11:05:31  5-MIN KMSN 191705Z 31009G18KT 10SM BKN028 M04/M11 A3004 760 60 -1400 310/09G18 RMK AO2
14837KMSN MSN20031219111010612/19/03 11:10:31  5-MIN KMSN 191710Z 33012KT 10SM FEW022 BKN028 M03/M11 A3004 760 55 -1200 320/12 RMK AO2
14837KMSN MSN20031219111509912/19/03 11:15:31  5-MIN KMSN 191715Z 32012KT 10SM BKN028 M04/M11 A3003 760 57 -1300 320/12 RMK AO2
14837KMSN MSN20031219112009912/19/03 11:20:31  5-MIN KMSN 191720Z 30010KT 10SM BKN028 M04/M11 A3003 760 60 -1400 300/10 RMK AO2
14837KMSN MSN20031219112510512/19/03 11:25:31  5-MIN KMSN 191725Z 30011G16KT 10SM BKN028 M04/M11 A3003 760 60 -1300 300/11G16 RMK AO2
14837KMSN MSN20031219113010512/19/03 11:30:31  5-MIN KMSN 191730Z 31013G16KT 10SM BKN028 M04/M11 A3003 760 60 -1400 310/13G16 RMK AO2
14837KMSN MSN20031219113510512/19/03 11:35:31  5-MIN KMSN 191735Z 32013G20KT 10SM BKN028 M04/M11 A3003 760 60 -1400 320/13G20 RMK AO2
14837KMSN MSN20031219114010512/19/03 11:40:31  5-MIN KMSN 191740Z 31012G20KT 10SM BKN028 M04/M12 A3003 760 57 -1400 310/12G20 RMK AO2
14837KMSN MSN20031219114510512/19/03 11:45:31  5-MIN KMSN 191745Z 31016G20KT 10SM BKN028 M04/M12 A3003 760 57 -1400 310/16G20 RMK AO2
14837KMSN MSN20031219115014612/19/03 11:50:31  5-MIN KMSN 191750Z 29011G20KT 10SM BKN028 M04/M11 A3003 760 60 -1400 290/11G20 RMK AO2 SLP182 60000 T10441111 11033 21044 53016
14837KMSN MSN20031219115510512/19/03 11:55:31  5-MIN KMSN 191755Z 31009G20KT 10SM BKN028 M04/M11 A3003 760 60 -1300 310/09G20 RMK AO2
14837KMSN MSN20031219120010512/19/03 12:00:31  5-MIN KMSN 191800Z 30013G17KT 10SM BKN028 M04/M12 A3003 760 55 -1300 300/13G17 RMK AO2
14837KMSN MSN20031219120509912/19/03 12:05:31  5-MIN KMSN 191805Z 31011KT 10SM SCT028 M04/M12 A3003 770 55 -1300 310/11 RMK AO2
14837KMSN MSN20031219121010512/19/03 12:10:31  5-MIN KMSN 191810Z 30011G19KT 10SM SCT030 M04/M12 A3003 770 55 -1300 300/11G19 RMK AO2
14837KMSN MSN20031219121510512/19/03 12:15:31  5-MIN KMSN 191815Z 32012G19KT 10SM BKN030 M04/M12 A3003 770 55 -1300 320/12G19 RMK AO2
14837KMSN MSN20031219122010512/19/03 12:20:31  5-MIN KMSN 191820Z 30014G19KT 10SM BKN030 M04/M12 A3003 770 55 -1300 300/14G19 RMK AO2
14837KMSN MSN20031219122510512/19/03 12:25:31  5-MIN KMSN 191825Z 30012G19KT 10SM BKN030 M04/M12 A3003 770 55 -1300 300/12G19 RMK AO2
14837KMSN MSN20031219123010512/19/03 12:30:31  5-MIN KMSN 191830Z 31011G19KT 10SM SCT030 M04/M12 A3002 770 55 -1300 310/11G19 RMK AO2
14837KMSN MSN20031219123510512/19/03 12:35:31  5-MIN KMSN 191835Z 31010G16KT 10SM SCT030 M04/M12 A3002 770 55 -1300 310/10G16 RMK AO2
14837KMSN MSN20031219124009912/19/03 12:40:31  5-MIN KMSN 191840Z 32008KT 10SM SCT030 M04/M12 A3002 770 55 -1300 320/08 RMK AO2
14837KMSN MSN20031219124510512/19/03 12:45:31  5-MIN KMSN 191845Z 31012G16KT 10SM SCT030 M03/M11 A3003 770 55 -1200 310/12G16 RMK AO2
14837KMSN MSN20031219125012212/19/03 12:50:31  5-MIN KMSN 191850Z 32012G16KT 10SM SCT030 M04/M12 A3002 770 55 -1300 310/12G16 RMK AO2 SLP180 T10391117
14837KMSN MSN20031219125511512/19/03 12:55:31  5-MIN KMSN 191855Z 31011KT 280V340 10SM BKN030 M04/M12 A3002 770 55 -1300 310/11 280V340 RMK AO2
14837KMSN MSN20031219130010512/19/03 13:00:31  5-MIN KMSN 191900Z 32011G20KT 10SM SCT030 M04/M12 A3003 770 55 -1300 320/11G20 RMK AO2
14837KMSN MSN20031219130510512/19/03 13:05:31  5-MIN KMSN 191905Z 29012G20KT 10SM SCT030 M04/M12 A3002 770 55 -1300 290/12G20 RMK AO2
14837KMSN MSN20031219131010512/19/03 13:10:31  5-MIN KMSN 191910Z 33011G17KT 10SM SCT030 M04/M12 A3002 770 55 -1300 330/11G17 RMK AO2
14837KMSN MSN20031219131510512/19/03 13:15:31  5-MIN KMSN 191915Z 32010G17KT 10SM FEW030 M04/M12 A3002 770 55 -1300 320/10G17 RMK AO2
14837KMSN MSN20031219132009912/19/03 13:20:31  5-MIN KMSN 191920Z 32013KT 10SM FEW030 M04/M12 A3003 770 55 -1300 320/13 RMK AO2
14837KMSN MSN20031219132509912/19/03 13:25:31  5-MIN KMSN 191925Z 32012KT 10SM SCT030 M04/M12 A3003 760 55 -1400 320/12 RMK AO2
14837KMSN MSN20031219133009912/19/03 13:30:31  5-MIN KMSN 191930Z 32011KT 10SM SCT030 M04/M12 A3003 760 57 -1400 320/11 RMK AO2
14837KMSN MSN20031219133512112/19/03 13:35:31  5-MIN KMSN 191935Z 31011G17KT 280V340 10SM SCT030 M04/M12 A3003 760 55 -1300 310/11G17 280V340 RMK AO2
14837KMSN MSN20031219134012112/19/03 13:40:31  5-MIN KMSN 191940Z 32011G17KT 290V350 10SM SCT030 M04/M12 A3003 760 52 -1300 310/11G17 290V350 RMK AO2
14837KMSN MSN20031219134509912/19/03 13:45:31  5-MIN KMSN 191945Z 31010KT 10SM SCT030 M04/M12 A3003 760 52 -1300 310/10 RMK AO2
14837KMSN MSN20031219135012212/19/03 13:50:31  5-MIN KMSN 191950Z 32012G15KT 10SM SCT030 M04/M12 A3003 760 52 -1300 320/12G15 RMK AO2 SLP182 T10391122
14837KMSN MSN20031219135510512/19/03 13:55:31  5-MIN KMSN 191955Z 31009G15KT 10SM FEW030 M04/M12 A3004 760 52 -1300 310/09G15 RMK AO2
14837KMSN MSN20031219140009912/19/03 14:00:31  5-MIN KMSN 192000Z 31009KT 10SM FEW030 M04/M12 A3003 760 52 -1300 310/09 RMK AO2
14837KMSN MSN20031219140509912/19/03 14:05:31  5-MIN KMSN 192005Z 32008KT 10SM FEW030 M04/M12 A3003 760 52 -1300 320/08 RMK AO2
14837KMSN MSN20031219141009912/19/03 14:10:31  5-MIN KMSN 192010Z 31011KT 10SM FEW030 M04/M12 A3004 760 55 -1300 310/11 RMK AO2
14837KMSN MSN20031219141509912/19/03 14:15:31  5-MIN KMSN 192015Z 30009KT 10SM FEW030 M04/M12 A3004 760 52 -1300 300/09 RMK AO2
14837KMSN MSN20031219142009912/19/03 14:20:31  5-MIN KMSN 192020Z 30010KT 10SM FEW030 M04/M12 A3004 760 55 -1300 290/10 RMK AO2
14837KMSN MSN20031219142509912/19/03 14:25:31  5-MIN KMSN 192025Z 32009KT 10SM FEW030 M04/M12 A3004 760 55 -1300 320/09 RMK AO2
14837KMSN MSN20031219143009912/19/03 14:30:31  5-MIN KMSN 192030Z 30010KT 10SM FEW030 M04/M12 A3004 750 55 -1300 300/10 RMK AO2
14837KMSN MSN20031219143510512/19/03 14:35:31  5-MIN KMSN 192035Z 31011G18KT 10SM FEW030 M04/M12 A3004 750 52 -1300 310/11G18 RMK AO2
14837KMSN MSN20031219144010512/19/03 14:40:31  5-MIN KMSN 192040Z 32011G18KT 10SM FEW030 M04/M12 A3005 750 52 -1300 320/11G18 RMK AO2
14837KMSN MSN20031219144509912/19/03 14:45:31  5-MIN KMSN 192045Z 33012KT 10SM FEW030 M04/M12 A3005 750 52 -1300 330/12 RMK AO2
14837KMSN MSN20031219145012212/19/03 14:50:31  5-MIN KMSN 192050Z 32011KT 10SM FEW030 M04/M13 A3005 740 52 -1400 320/11 RMK AO2 SLP189 T10441128 50008
14837KMSN MSN20031219145509912/19/03 14:55:31  5-MIN KMSN 192055Z 32009KT 10SM FEW032 M04/M12 A3005 740 52 -1300 310/09 RMK AO2
14837KMSN MSN20031219150009912/19/03 15:00:31  5-MIN KMSN 192100Z 31009KT 10SM FEW032 M04/M12 A3006 740 55 -1400 310/09 RMK AO2
14837KMSN MSN20031219150510512/19/03 15:05:31  5-MIN KMSN 192105Z 32012G17KT 10SM FEW032 M04/M13 A3006 740 52 -1400 320/12G17 RMK AO2
14837KMSN MSN20031219151009912/19/03 15:10:31  5-MIN KMSN 192110Z 32012KT 10SM FEW032 M04/M13 A3006 740 52 -1400 320/12 RMK AO2
14837KMSN MSN20031219151510512/19/03 15:15:31  5-MIN KMSN 192115Z 31012G17KT 10SM FEW032 M04/M13 A3006 730 52 -1400 310/12G17 RMK AO2
14837KMSN MSN20031219152010512/19/03 15:20:31  5-MIN KMSN 192120Z 32009G17KT 10SM FEW032 M04/M13 A3006 730 50 -1400 320/09G17 RMK AO2
14837KMSN MSN20031219152510512/19/03 15:25:31  5-MIN KMSN 192125Z 33011G17KT 10SM FEW032 M04/M13 A3007 730 50 -1400 330/11G17 RMK AO2
14837KMSN MSN20031219153009912/19/03 15:30:31  5-MIN KMSN 192130Z 32010KT 10SM FEW032 M04/M13 A3007 730 52 -1400 320/10 RMK AO2
14837KMSN MSN20031219153509912/19/03 15:35:31  5-MIN KMSN 192135Z 32009KT 10SM FEW032 M05/M13 A3007 730 55 -1500 320/09 RMK AO2
14837KMSN MSN20031219154010512/19/03 15:40:31  5-MIN KMSN 192140Z 31011G15KT 10SM FEW032 M05/M13 A3007 730 52 -1500 310/11G15 RMK AO2
14837KMSN MSN20031219154510512/19/03 15:45:31  5-MIN KMSN 192145Z 31010G15KT 10SM FEW032 M05/M13 A3007 720 52 -1500 310/10G15 RMK AO2
14837KMSN MSN20031219155012212/19/03 15:50:31  5-MIN KMSN 192150Z 31012G15KT 10SM FEW032 M05/M13 A3007 720 52 -1500 310/12G15 RMK AO2 SLP197 T10501133
14837KMSN MSN20031219155509912/19/03 15:55:31  5-MIN KMSN 192155Z 32011KT 10SM FEW032 M06/M13 A3008 720 54 -1600 320/11 RMK AO2
14837KMSN MSN20031219160009912/19/03 16:00:31  5-MIN KMSN 192200Z 32009KT 10SM FEW032 M06/M13 A3008 720 54 -1600 320/09 RMK AO2
14837KMSN MSN20031219160509912/19/03 16:05:31  5-MIN KMSN 192205Z 31007KT 10SM FEW032 M06/M13 A3008 720 54 -1600 310/07 RMK AO2
14837KMSN MSN20031219161009912/19/03 16:10:31  5-MIN KMSN 192210Z 31009KT 10SM FEW032 M06/M13 A3008 710 54 -1600 310/09 RMK AO2
14837KMSN MSN20031219161509912/19/03 16:15:31  5-MIN KMSN 192215Z 31007KT 10SM FEW032 M06/M13 A3009 710 57 -1600 310/07 RMK AO2
14837KMSN MSN20031219162009912/19/03 16:20:31  5-MIN KMSN 192220Z 31008KT 10SM FEW032 M06/M13 A3009 710 57 -1600 310/08 RMK AO2
14837KMSN MSN20031219162509912/19/03 16:25:31  5-MIN KMSN 192225Z 31007KT 10SM FEW032 M06/M13 A3009 710 57 -1600 310/07 RMK AO2
14837KMSN MSN20031219163009912/19/03 16:30:31  5-MIN KMSN 192230Z 32009KT 10SM FEW032 M06/M13 A3009 710 57 -1600 320/09 RMK AO2
14837KMSN MSN20031219163509912/19/03 16:35:31  5-MIN KMSN 192235Z 32009KT 10SM FEW032 M06/M13 A3009 700 57 -1600 320/09 RMK AO2
14837KMSN MSN20031219164009612/19/03 16:40:31  5-MIN KMSN 192240Z 32009KT 10SM CLR M06/M13 A3009 700 57 -1600 320/09 RMK AO2
14837KMSN MSN20031219164509612/19/03 16:45:31  5-MIN KMSN 192245Z 32008KT 10SM CLR M07/M14 A3010 700 57 -1700 320/08 RMK AO2
14837KMSN MSN20031219165011312/19/03 16:50:31  5-MIN KMSN 192250Z 31008KT 10SM CLR M07/M14 A3010 700 57 -1700 310/08 RMK AO2 SLP206 T10671139
14837KMSN MSN20031219165509612/19/03 16:55:31  5-MIN KMSN 192255Z 31009KT 10SM CLR M07/M14 A3010 700 57 -1700 310/09 RMK AO2
14837KMSN MSN20031219170009612/19/03 17:00:31  5-MIN KMSN 192300Z 31007KT 10SM CLR M07/M14 A3010 700 57 -1700 300/07 RMK AO2
14837KMSN MSN20031219170509612/19/03 17:05:31  5-MIN KMSN 192305Z 31006KT 10SM CLR M07/M14 A3010 700 57 -1700 310/06 RMK AO2
14837KMSN MSN20031219171009612/19/03 17:10:31  5-MIN KMSN 192310Z 32006KT 10SM CLR M07/M14 A3010 700 57 -1700 320/06 RMK AO2
14837KMSN MSN20031219171509612/19/03 17:15:31  5-MIN KMSN 192315Z 30006KT 10SM CLR M07/M14 A3010 700 57 -1700 300/06 RMK AO2
14837KMSN MSN20031219172009612/19/03 17:20:31  5-MIN KMSN 192320Z 31005KT 10SM CLR M07/M13 A3010 690 62 -1800 310/05 RMK AO2
14837KMSN MSN20031219172509612/19/03 17:25:31  5-MIN KMSN 192325Z 31006KT 10SM CLR M07/M13 A3011 690 62 -1800 310/06 RMK AO2
14837KMSN MSN20031219173009612/19/03 17:30:31  5-MIN KMSN 192330Z 30007KT 10SM CLR M07/M14 A3011 690 59 -1800 300/07 RMK AO2
14837KMSN MSN20031219173509612/19/03 17:35:31  5-MIN KMSN 192335Z 31007KT 10SM CLR M07/M14 A3011 690 59 -1800 310/07 RMK AO2
14837KMSN MSN20031219174009612/19/03 17:40:31  5-MIN KMSN 192340Z 30007KT 10SM CLR M07/M14 A3011 690 59 -1800 300/07 RMK AO2
14837KMSN MSN20031219174509612/19/03 17:45:31  5-MIN KMSN 192345Z 30006KT 10SM CLR M07/M14 A3011 690 59 -1800 300/06 RMK AO2
14837KMSN MSN20031219175013112/19/03 17:50:31  5-MIN KMSN 192350Z 30008KT 10SM CLR M07/M14 A3012 680 59 -1800 300/08 RMK AO2 SLP213 T10721139 11033 21072 53007
14837KMSN MSN20031219175509612/19/03 17:55:31  5-MIN KMSN 192355Z 31006KT 10SM CLR M07/M14 A3012 680 59 -1800 300/06 RMK AO2
14837KMSN MSN20031219180009612/19/03 18:00:31  5-MIN KMSN 200000Z 30006KT 10SM CLR M07/M14 A3012 680 59 -1800 300/06 RMK AO2
14837KMSN MSN20031219180509612/19/03 18:05:31  5-MIN KMSN 200005Z 31006KT 10SM CLR M07/M14 A3012 680 59 -1800 310/06 RMK AO2
14837KMSN MSN20031219181009612/19/03 18:10:31  5-MIN KMSN 200010Z 31006KT 10SM CLR M07/M14 A3012 680 59 -1800 310/06 RMK AO2
14837KMSN MSN20031219181509612/19/03 18:15:31  5-MIN KMSN 200015Z 31007KT 10SM CLR M08/M14 A3012 680 62 -1900 310/07 RMK AO2
14837KMSN MSN20031219182009612/19/03 18:20:31  5-MIN KMSN 200020Z 31007KT 10SM CLR M07/M14 A3012 680 56 -1800 310/07 RMK AO2
14837KMSN MSN20031219182509612/19/03 18:25:31  5-MIN KMSN 200025Z 31006KT 10SM CLR M08/M14 A3012 680 59 -1900 310/06 RMK AO2
14837KMSN MSN20031219183009612/19/03 18:30:31  5-MIN KMSN 200030Z 31007KT 10SM CLR M08/M14 A3012 680 59 -1900 310/07 RMK AO2
14837KMSN MSN20031219183509612/19/03 18:35:31  5-MIN KMSN 200035Z 31006KT 10SM CLR M08/M14 A3012 680 59 -1900 310/06 RMK AO2
14837KMSN MSN20031219184009612/19/03 18:40:31  5-MIN KMSN 200040Z 31006KT 10SM CLR M08/M14 A3012 680 59 -1900 310/06 RMK AO2
14837KMSN MSN20031219184509612/19/03 18:45:31  5-MIN KMSN 200045Z 31006KT 10SM CLR M08/M14 A3013 680 59 -1900 310/06 RMK AO2
14837KMSN MSN20031219185011312/19/03 18:50:31  5-MIN KMSN 200050Z 30007KT 10SM CLR M08/M14 A3013 670 62 -2000 300/07 RMK AO2 SLP218 T10831144
14837KMSN MSN20031219185509612/19/03 18:55:31  5-MIN KMSN 200055Z 31008KT 10SM CLR M08/M14 A3013 670 62 -1900 310/08 RMK AO2
14837KMSN MSN20031219190009612/19/03 19:00:31  5-MIN KMSN 200100Z 31007KT 10SM CLR M08/M14 A3013 670 59 -1900 310/07 RMK AO2
14837KMSN MSN20031219190509612/19/03 19:05:31  5-MIN KMSN 200105Z 31006KT 10SM CLR M08/M14 A3014 660 59 -1900 310/06 RMK AO2
14837KMSN MSN20031219191009612/19/03 19:10:31  5-MIN KMSN 200110Z 31008KT 10SM CLR M08/M15 A3014 660 56 -1900 310/08 RMK AO2
14837KMSN MSN20031219191509612/19/03 19:15:31  5-MIN KMSN 200115Z 31007KT 10SM CLR M08/M14 A3014 660 59 -1900 310/07 RMK AO2
14837KMSN MSN20031219192009612/19/03 19:20:31  5-MIN KMSN 200120Z 31008KT 10SM CLR M08/M14 A3014 660 59 -1900 310/08 RMK AO2
14837KMSN MSN20031219192509612/19/03 19:25:31  5-MIN KMSN 200125Z 31006KT 10SM CLR M08/M15 A3014 660 59 -2000 310/06 RMK AO2
14837KMSN MSN20031219193009612/19/03 19:30:31  5-MIN KMSN 200130Z 31008KT 10SM CLR M08/M15 A3014 660 56 -1900 310/08 RMK AO2
14837KMSN MSN20031219193509612/19/03 19:35:31  5-MIN KMSN 200135Z 31008KT 10SM CLR M08/M15 A3015 660 59 -2000 310/08 RMK AO2
14837KMSN MSN20031219194009612/19/03 19:40:31  5-MIN KMSN 200140Z 31008KT 10SM CLR M08/M14 A3015 660 59 -1900 310/08 RMK AO2
14837KMSN MSN20031219194509612/19/03 19:45:31  5-MIN KMSN 200145Z 31009KT 10SM CLR M08/M15 A3015 650 59 -2000 310/09 RMK AO2
14837KMSN MSN20031219195011312/19/03 19:50:31  5-MIN KMSN 200150Z 31008KT 10SM CLR M08/M15 A3015 660 56 -1900 310/08 RMK AO2 SLP223 T10781150
14837KMSN MSN20031219195509612/19/03 19:55:31  5-MIN KMSN 200155Z 31010KT 10SM CLR M08/M16 A3015 650 54 -1900 310/10 RMK AO2
14837KMSN MSN20031219200009612/19/03 20:00:31  5-MIN KMSN 200200Z 32009KT 10SM CLR M08/M15 A3015 650 56 -1900 320/09 RMK AO2
14837KMSN MSN20031219200509612/19/03 20:05:31  5-MIN KMSN 200205Z 32008KT 10SM CLR M08/M16 A3015 650 56 -2000 320/08 RMK AO2
14837KMSN MSN20031219201009612/19/03 20:10:31  5-MIN KMSN 200210Z 32008KT 10SM CLR M08/M16 A3015 650 56 -2000 320/08 RMK AO2
14837KMSN MSN20031219201509612/19/03 20:15:31  5-MIN KMSN 200215Z 32008KT 10SM CLR M08/M16 A3015 650 56 -2000 320/08 RMK AO2
14837KMSN MSN20031219202009612/19/03 20:20:31  5-MIN KMSN 200220Z 32009KT 10SM CLR M08/M15 A3016 650 59 -2000 320/09 RMK AO2
14837KMSN MSN20031219202509612/19/03 20:25:31  5-MIN KMSN 200225Z 32008KT 10SM CLR M08/M16 A3015 650 56 -2000 320/08 RMK AO2
14837KMSN MSN20031219203009612/19/03 20:30:31  5-MIN KMSN 200230Z 32008KT 10SM CLR M08/M16 A3016 650 54 -2000 310/08 RMK AO2
14837KMSN MSN20031219203509612/19/03 20:35:31  5-MIN KMSN 200235Z 32006KT 10SM CLR M08/M16 A3016 650 56 -2000 320/06 RMK AO2
14837KMSN MSN20031219204009612/19/03 20:40:31  5-MIN KMSN 200240Z 32009KT 10SM CLR M08/M16 A3015 650 54 -2000 320/09 RMK AO2
14837KMSN MSN20031219204509612/19/03 20:45:31  5-MIN KMSN 200245Z 32008KT 10SM CLR M08/M16 A3015 650 54 -2000 320/08 RMK AO2
14837KMSN MSN20031219205011912/19/03 20:50:31  5-MIN KMSN 200250Z 32008KT 10SM CLR M08/M16 A3016 650 54 -2000 320/08 RMK AO2 SLP227 T10831161 51023
14837KMSN MSN20031219205509612/19/03 20:55:31  5-MIN KMSN 200255Z 33009KT 10SM CLR M08/M16 A3016 650 54 -2000 330/09 RMK AO2
14837KMSN MSN20031219210010212/19/03 21:00:31  5-MIN KMSN 200300Z 32008G15KT 10SM CLR M08/M16 A3015 650 54 -2000 320/08G15 RMK AO2
14837KMSN MSN20031219210510212/19/03 21:05:31  5-MIN KMSN 200305Z 32009G16KT 10SM CLR M08/M16 A3015 650 56 -2000 320/09G16 RMK AO2
14837KMSN MSN20031219211010212/19/03 21:10:31  5-MIN KMSN 200310Z 32010G16KT 10SM CLR M08/M16 A3015 650 54 -2000 320/10G16 RMK AO2
14837KMSN MSN20031219211510212/19/03 21:15:31  5-MIN KMSN 200315Z 32009G15KT 10SM CLR M08/M16 A3016 650 54 -2000 320/09G15 RMK AO2
14837KMSN MSN20031219212009612/19/03 21:20:31  5-MIN KMSN 200320Z 32010KT 10SM CLR M08/M17 A3016 650 51 -2000 320/10 RMK AO2
14837KMSN MSN20031219212509612/19/03 21:25:31  5-MIN KMSN 200325Z 33007KT 10SM CLR M08/M16 A3016 650 54 -2000 330/07 RMK AO2
14837KMSN MSN20031219213009612/19/03 21:30:31  5-MIN KMSN 200330Z 33009KT 10SM CLR M08/M16 A3016 650 54 -2000 330/09 RMK AO2
14837KMSN MSN20031219213509612/19/03 21:35:31  5-MIN KMSN 200335Z 32009KT 10SM CLR M08/M16 A3016 640 54 -2000 320/09 RMK AO2
14837KMSN MSN20031219214009612/19/03 21:40:31  5-MIN KMSN 200340Z 32009KT 10SM CLR M08/M16 A3016 640 54 -2000 320/09 RMK AO2
14837KMSN MSN20031219214509612/19/03 21:45:31  5-MIN KMSN 200345Z 31008KT 10SM CLR M08/M16 A3017 640 54 -2000 310/08 RMK AO2
14837KMSN MSN20031219215011312/19/03 21:50:31  5-MIN KMSN 200350Z 31007KT 10SM CLR M08/M16 A3017 630 54 -2000 310/07 RMK AO2 SLP230 T10831161
14837KMSN MSN20031219215509612/19/03 21:55:31  5-MIN KMSN 200355Z 31008KT 10SM CLR M09/M17 A3017 630 54 -2100 310/08 RMK AO2
14837KMSN MSN20031219220009612/19/03 22:00:31  5-MIN KMSN 200400Z 31008KT 10SM CLR M09/M16 A3017 640 56 -2100 310/08 RMK AO2
14837KMSN MSN20031219220509612/19/03 22:05:31  5-MIN KMSN 200405Z 32007KT 10SM CLR M09/M17 A3017 640 54 -2100 320/07 RMK AO2
14837KMSN MSN20031219221009612/19/03 22:10:31  5-MIN KMSN 200410Z 32006KT 10SM CLR M09/M17 A3017 630 54 -2100 320/06 RMK AO2
14837KMSN MSN20031219221509612/19/03 22:15:31  5-MIN KMSN 200415Z 32007KT 10SM CLR M09/M16 A3017 630 56 -2100 320/07 RMK AO2
14837KMSN MSN20031219222009612/19/03 22:20:31  5-MIN KMSN 200420Z 33005KT 10SM CLR M09/M17 A3018 630 54 -2100 330/05 RMK AO2
14837KMSN MSN20031219222509612/19/03 22:25:31  5-MIN KMSN 200425Z 34007KT 10SM CLR M09/M17 A3018 630 54 -2100 330/07 RMK AO2
14837KMSN MSN20031219223009612/19/03 22:30:31  5-MIN KMSN 200430Z 33006KT 10SM CLR M09/M17 A3018 630 54 -2100 330/06 RMK AO2
14837KMSN MSN20031219223509612/19/03 22:35:31  5-MIN KMSN 200435Z 32006KT 10SM CLR M09/M16 A3018 630 56 -2100 320/06 RMK AO2
14837KMSN MSN20031219224009612/19/03 22:40:31  5-MIN KMSN 200440Z 32007KT 10SM CLR M09/M17 A3018 630 54 -2100 320/07 RMK AO2
14837KMSN MSN20031219224509612/19/03 22:45:31  5-MIN KMSN 200445Z 31005KT 10SM CLR M09/M17 A3018 630 54 -2100 310/05 RMK AO2
14837KMSN MSN20031219225011312/19/03 22:50:31  5-MIN KMSN 200450Z 31004KT 10SM CLR M09/M17 A3018 620 54 -2100 310/04 RMK AO2 SLP235 T10891167
14837KMSN MSN20031219225509612/19/03 22:55:31  5-MIN KMSN 200455Z 32005KT 10SM CLR M09/M16 A3018 620 61 -2200 320/05 RMK AO2
14837KMSN MSN20031219230009612/19/03 23:00:31  5-MIN KMSN 200500Z 31005KT 10SM CLR M09/M16 A3018 620 59 -2100 310/05 RMK AO2
14837KMSN MSN20031219230509612/19/03 23:05:31  5-MIN KMSN 200505Z VRB04KT 10SM CLR M09/M19 A3019 620 44 -2100 VRB/04 RMK AO2
14837KMSN MSN20031219231009612/19/03 23:10:31  5-MIN KMSN 200510Z 31003KT 10SM CLR M09/M18 A3019 620 49 -2200 310/03 RMK AO2
14837KMSN MSN20031219231509612/19/03 23:15:31  5-MIN KMSN 200515Z VRB03KT 10SM CLR M09/M18 A3019 620 51 -2200 VRB/03 RMK AO2
14837KMSN MSN20031219232009612/19/03 23:20:31  5-MIN KMSN 200520Z 32003KT 10SM CLR M09/M17 A3019 620 53 -2200 320/03 RMK AO2
14837KMSN MSN20031219232509612/19/03 23:25:31  5-MIN KMSN 200525Z VRB03KT 10SM CLR M09/M17 A3019 620 53 -2200 VRB/03 RMK AO2
14837KMSN MSN20031219233009612/19/03 23:30:31  5-MIN KMSN 200530Z 31004KT 10SM CLR M09/M17 A3019 620 53 -2200 310/04 RMK AO2
14837KMSN MSN20031219233509612/19/03 23:35:31  5-MIN KMSN 200535Z 31004KT 10SM CLR M09/M17 A3019 610 53 -2200 310/04 RMK AO2
14837KMSN MSN20031219234009612/19/03 23:40:31  5-MIN KMSN 200540Z 31004KT 10SM CLR M10/M17 A3019 610 56 -2300 310/04 RMK AO2
14837KMSN MSN20031219234509612/19/03 23:45:31  5-MIN KMSN 200545Z 31004KT 10SM CLR M09/M17 A3019 620 53 -2200 310/04 RMK AO2
14837KMSN MSN20031219235014112/19/03 23:50:31  5-MIN KMSN 200550Z 31003KT 10SM CLR M10/M17 A3019 620 58 -2300 310/03 RMK AO2 SLP239 T11001167 11072 21100 410281100 51012
14837KMSN MSN20031219235509612/19/03 23:55:31  5-MIN KMSN 200555Z VRB04KT 10SM CLR M10/M17 A3019 610 58 -2300 VRB/04 RMK AO2
14837KMSN MSN20031220000009612/20/03 00:00:31  5-MIN KMSN 200600Z 30003KT 10SM CLR M10/M17 A3019 610 56 -2300 300/03 RMK AO2
14837KMSN MSN20031220000509612/20/03 00:05:31  5-MIN KMSN 200605Z 30005KT 10SM CLR M10/M17 A3019 620 58 -2300 300/05 RMK AO2
14837KMSN MSN20031220001009612/20/03 00:10:31  5-MIN KMSN 200610Z 31005KT 10SM CLR M10/M17 A3019 620 58 -2300 310/05 RMK AO2
14837KMSN MSN20031220001509612/20/03 00:15:31  5-MIN KMSN 200615Z 31004KT 10SM CLR M10/M17 A3019 610 56 -2300 310/04 RMK AO2
14837KMSN MSN20031220002009612/20/03 00:20:31  5-MIN KMSN 200620Z 31004KT 10SM CLR M10/M17 A3019 610 58 -2300 300/04 RMK AO2
14837KMSN MSN20031220002509612/20/03 00:25:31  5-MIN KMSN 200625Z 31003KT 10SM CLR M10/M17 A3019 610 58 -2300 310/03 RMK AO2
14837KMSN MSN20031220003009612/20/03 00:30:31  5-MIN KMSN 200630Z VRB03KT 10SM CLR M10/M17 A3019 610 56 -2300 VRB/03 RMK AO2
14837KMSN MSN20031220003509612/20/03 00:35:31  5-MIN KMSN 200635Z 00000KT 10SM CLR M10/M17 A3019 610 58 -2300 000/00 RMK AO2
14837KMSN MSN20031220004009612/20/03 00:40:31  5-MIN KMSN 200640Z 00000KT 10SM CLR M10/M17 A3019 610 58 -2300 000/00 RMK AO2
14837KMSN MSN20031220004509612/20/03 00:45:31  5-MIN KMSN 200645Z 00000KT 10SM CLR M09/M17 A3019 610 56 -2200 000/00 RMK AO2
14837KMSN MSN20031220005011312/20/03 00:50:31  5-MIN KMSN 200650Z 00000KT 10SM CLR M09/M17 A3019 610 56 -2200 000/00 RMK AO2 SLP239 T10941167
14837KMSN MSN20031220005509612/20/03 00:55:31  5-MIN KMSN 200655Z 00000KT 10SM CLR M10/M17 A3019 610 58 -2300 000/00 RMK AO2
14837KMSN MSN20031220010009612/20/03 01:00:31  5-MIN KMSN 200700Z 00000KT 10SM CLR M11/M16 A3019 610 64 -2300 000/00 RMK AO2
14837KMSN MSN20031220010509612/20/03 01:05:31  5-MIN KMSN 200705Z 00000KT 10SM CLR M11/M16 A3019 610 70 -2400 000/00 RMK AO2
14837KMSN MSN20031220011009612/20/03 01:10:31  5-MIN KMSN 200710Z 00000KT 10SM CLR M11/M16 A3019 620 67 -2400 000/00 RMK AO2
14837KMSN MSN20031220011509612/20/03 01:15:31  5-MIN KMSN 200715Z 00000KT 10SM CLR M11/M17 A3019 620 61 -2300 000/00 RMK AO2
14837KMSN MSN20031220012009612/20/03 01:20:31  5-MIN KMSN 200720Z 00000KT 10SM CLR M11/M16 A3019 620 64 -2300 000/00 RMK AO2
14837KMSN MSN20031220012509612/20/03 01:25:31  5-MIN KMSN 200725Z 00000KT 10SM CLR M11/M16 A3019 620 70 -2400 000/00 RMK AO2
14837KMSN MSN20031220013009612/20/03 01:30:31  5-MIN KMSN 200730Z 23003KT 10SM CLR M11/M16 A3019 620 67 -2400 220/03 RMK AO2
14837KMSN MSN20031220013509612/20/03 01:35:31  5-MIN KMSN 200735Z 00000KT 10SM CLR M11/M16 A3019 610 67 -2400 000/00 RMK AO2
14837KMSN MSN20031220014009612/20/03 01:40:31  5-MIN KMSN 200740Z 00000KT 10SM CLR M11/M16 A3020 610 67 -2400 000/00 RMK AO2
14837KMSN MSN20031220014509612/20/03 01:45:31  5-MIN KMSN 200745Z 00000KT 10SM CLR M11/M16 A3020 610 70 -2400 000/00 RMK AO2
14837KMSN MSN20031220015011312/20/03 01:50:31  5-MIN KMSN 200750Z 25003KT 10SM CLR M11/M16 A3020 600 70 -2400 250/03 RMK AO2 SLP243 T11111156
14837KMSN MSN20031220015509612/20/03 01:55:31  5-MIN KMSN 200755Z VRB03KT 10SM CLR M11/M15 A3020 600 73 -2400 VRB/03 RMK AO2
14837KMSN MSN20031220020009612/20/03 02:00:31  5-MIN KMSN 200800Z 00000KT 10SM CLR M11/M16 A3021 600 70 -2400 000/00 RMK AO2
14837KMSN MSN20031220020509612/20/03 02:05:31  5-MIN KMSN 200805Z VRB03KT 10SM CLR M11/M16 A3021 600 67 -2400 VRB/03 RMK AO2
14837KMSN MSN20031220021009612/20/03 02:10:31  5-MIN KMSN 200810Z VRB03KT 10SM CLR M11/M17 A3021 600 61 -2400 VRB/03 RMK AO2
14837KMSN MSN20031220021509612/20/03 02:15:31  5-MIN KMSN 200815Z 26003KT 10SM CLR M11/M17 A3021 600 61 -2400 260/03 RMK AO2
14837KMSN MSN20031220022009612/20/03 02:20:31  5-MIN KMSN 200820Z VRB03KT 10SM CLR M11/M17 A3021 600 61 -2400 VRB/03 RMK AO2
14837KMSN MSN20031220022509612/20/03 02:25:31  5-MIN KMSN 200825Z 00000KT 10SM CLR M11/M17 A3020 600 61 -2400 000/00 RMK AO2
14837KMSN MSN20031220023009612/20/03 02:30:31  5-MIN KMSN 200830Z 29005KT 10SM CLR M11/M17 A3020 600 58 -2400 290/05 RMK AO2
14837KMSN MSN20031220023509612/20/03 02:35:31  5-MIN KMSN 200835Z 29005KT 10SM CLR M11/M17 A3020 610 58 -2400 290/05 RMK AO2
14837KMSN MSN20031220024009612/20/03 02:40:31  5-MIN KMSN 200840Z 30004KT 10SM CLR M11/M17 A3020 610 61 -2400 300/04 RMK AO2
14837KMSN MSN20031220024509612/20/03 02:45:31  5-MIN KMSN 200845Z 30003KT 10SM CLR M11/M17 A3020 610 58 -2400 290/03 RMK AO2
14837KMSN MSN20031220025011912/20/03 02:50:31  5-MIN KMSN 200850Z 31003KT 10SM CLR M11/M17 A3020 610 61 -2300 310/03 RMK AO2 SLP242 T11061167 51011
14837KMSN MSN20031220025509612/20/03 02:55:31  5-MIN KMSN 200855Z 31003KT 10SM CLR M11/M17 A3020 610 61 -2400 310/03 RMK AO2
14837KMSN MSN20031220030009612/20/03 03:00:31  5-MIN KMSN 200900Z 32003KT 10SM CLR M11/M16 A3020 610 64 -2300 320/03 RMK AO2
14837KMSN MSN20031220030509612/20/03 03:05:31  5-MIN KMSN 200905Z 00000KT 10SM CLR M11/M16 A3020 610 64 -2300 000/00 RMK AO2
14837KMSN MSN20031220031009612/20/03 03:10:31  5-MIN KMSN 200910Z 00000KT 10SM CLR M10/M16 A3020 610 64 -2300 000/00 RMK AO2
14837KMSN MSN20031220031509612/20/03 03:15:31  5-MIN KMSN 200915Z 00000KT 10SM CLR M10/M16 A3020 610 61 -2300 000/00 RMK AO2
14837KMSN MSN20031220032009612/20/03 03:20:31  5-MIN KMSN 200920Z 27004KT 10SM CLR M10/M16 A3020 610 61 -2300 270/04 RMK AO2
14837KMSN MSN20031220032509612/20/03 03:25:31  5-MIN KMSN 200925Z 28004KT 10SM CLR M10/M16 A3020 610 61 -2300 280/04 RMK AO2
14837KMSN MSN20031220033009612/20/03 03:30:31  5-MIN KMSN 200930Z 28004KT 10SM CLR M10/M16 A3020 610 64 -2300 280/04 RMK AO2
14837KMSN MSN20031220033509612/20/03 03:35:31  5-MIN KMSN 200935Z 29005KT 10SM CLR M10/M16 A3020 610 61 -2300 290/05 RMK AO2
14837KMSN MSN20031220034009612/20/03 03:40:31  5-MIN KMSN 200940Z 30004KT 10SM CLR M10/M16 A3019 610 61 -2300 300/04 RMK AO2
14837KMSN MSN20031220034509612/20/03 03:45:31  5-MIN KMSN 200945Z 31004KT 10SM CLR M10/M16 A3019 610 64 -2300 310/04 RMK AO2
14837KMSN MSN20031220035011312/20/03 03:50:31  5-MIN KMSN 200950Z 31005KT 10SM CLR M10/M16 A3019 610 64 -2300 310/05 RMK AO2 SLP240 T11001156
14837KMSN MSN20031220035509612/20/03 03:55:31  5-MIN KMSN 200955Z 31006KT 10SM CLR M10/M16 A3019 610 64 -2300 310/06 RMK AO2
14837KMSN MSN20031220040009612/20/03 04:00:31  5-MIN KMSN 201000Z 32004KT 10SM CLR M10/M16 A3019 610 64 -2300 320/04 RMK AO2
14837KMSN MSN20031220040509612/20/03 04:05:31  5-MIN KMSN 201005Z 29004KT 10SM CLR M10/M16 A3019 610 64 -2300 290/04 RMK AO2
14837KMSN MSN20031220041009612/20/03 04:10:31  5-MIN KMSN 201010Z 29004KT 10SM CLR M09/M16 A3019 610 61 -2200 290/04 RMK AO2
14837KMSN MSN20031220041509612/20/03 04:15:31  5-MIN KMSN 201015Z 26004KT 10SM CLR M09/M15 A3019 620 64 -2200 260/04 RMK AO2
14837KMSN MSN20031220042009612/20/03 04:20:31  5-MIN KMSN 201020Z 28004KT 10SM CLR M09/M15 A3019 610 64 -2200 280/04 RMK AO2
14837KMSN MSN20031220042509612/20/03 04:25:31  5-MIN KMSN 201025Z 29004KT 10SM CLR M09/M16 A3019 620 61 -2200 290/04 RMK AO2
14837KMSN MSN20031220043009612/20/03 04:30:31  5-MIN KMSN 201030Z 28004KT 10SM CLR M09/M16 A3019 610 61 -2200 280/04 RMK AO2
14837KMSN MSN20031220043509612/20/03 04:35:31  5-MIN KMSN 201035Z 28003KT 10SM CLR M09/M15 A3019 620 64 -2200 270/03 RMK AO2
14837KMSN MSN20031220044009612/20/03 04:40:31  5-MIN KMSN 201040Z 00000KT 10SM CLR M09/M16 A3019 620 59 -2100 000/00 RMK AO2
14837KMSN MSN20031220044509612/20/03 04:45:31  5-MIN KMSN 201045Z 00000KT 10SM CLR M09/M16 A3018 620 59 -2100 000/00 RMK AO2
14837KMSN MSN20031220045011312/20/03 04:50:31  5-MIN KMSN 201050Z 00000KT 10SM CLR M09/M16 A3018 620 59 -2100 000/00 RMK AO2 SLP237 T10891156
14837KMSN MSN20031220045509612/20/03 04:55:31  5-MIN KMSN 201055Z 00000KT 10SM CLR M09/M15 A3019 620 61 -2100 000/00 RMK AO2
14837KMSN MSN20031220050009612/20/03 05:00:31  5-MIN KMSN 201100Z 00000KT 10SM CLR M09/M15 A3019 610 61 -2100 000/00 RMK AO2
14837KMSN MSN20031220050509612/20/03 05:05:31  5-MIN KMSN 201105Z 00000KT 10SM CLR M09/M16 A3019 610 59 -2100 000/00 RMK AO2
14837KMSN MSN20031220051009612/20/03 05:10:31  5-MIN KMSN 201110Z 00000KT 10SM CLR M09/M16 A3019 610 59 -2100 000/00 RMK AO2
14837KMSN MSN20031220051509612/20/03 05:15:31  5-MIN KMSN 201115Z 00000KT 10SM CLR M09/M16 A3019 610 59 -2100 000/00 RMK AO2
14837KMSN MSN20031220052009612/20/03 05:20:31  5-MIN KMSN 201120Z 00000KT 10SM CLR M09/M16 A3019 610 59 -2100 000/00 RMK AO2
14837KMSN MSN20031220052509612/20/03 05:25:31  5-MIN KMSN 201125Z 00000KT 10SM CLR M09/M16 A3019 610 59 -2100 000/00 RMK AO2
14837KMSN MSN20031220053009612/20/03 05:30:31  5-MIN KMSN 201130Z 00000KT 10SM CLR M09/M16 A3019 610 59 -2100 000/00 RMK AO2
14837KMSN MSN20031220053509612/20/03 05:35:31  5-MIN KMSN 201135Z 00000KT 10SM CLR M09/M15 A3019 610 61 -2100 000/00 RMK AO2
14837KMSN MSN20031220054009612/20/03 05:40:31  5-MIN KMSN 201140Z 00000KT 10SM CLR M09/M14 A3020 610 64 -2100 000/00 RMK AO2
14837KMSN MSN20031220054509612/20/03 05:45:31  5-MIN KMSN 201145Z 00000KT 10SM CLR M09/M14 A3020 600 64 -2100 000/00 RMK AO2
14837KMSN MSN20031220055013112/20/03 05:50:31  5-MIN KMSN 201150Z 00000KT 10SM CLR M09/M14 A3020 600 64 -2100 000/00 RMK AO2 SLP243 T10891144 11089 21111 50003
14837KMSN MSN20031220055509612/20/03 05:55:31  5-MIN KMSN 201155Z 00000KT 10SM CLR M09/M15 A3020 600 61 -2100 000/00 RMK AO2
14837KMSN MSN20031220060009612/20/03 06:00:31  5-MIN KMSN 201200Z 00000KT 10SM CLR M09/M15 A3020 600 61 -2100 000/00 RMK AO2
14837KMSN MSN20031220060509612/20/03 06:05:31  5-MIN KMSN 201205Z 27003KT 10SM CLR M09/M15 A3020 600 64 -2200 270/03 RMK AO2
14837KMSN MSN20031220061009612/20/03 06:10:31  5-MIN KMSN 201210Z 26003KT 10SM CLR M09/M16 A3020 600 61 -2200 260/03 RMK AO2
14837KMSN MSN20031220061509612/20/03 06:15:31  5-MIN KMSN 201215Z 25003KT 10SM CLR M09/M16 A3020 610 61 -2200 250/03 RMK AO2
14837KMSN MSN20031220062009612/20/03 06:20:31  5-MIN KMSN 201220Z 25003KT 10SM CLR M09/M15 A3020 610 64 -2200 250/03 RMK AO2
14837KMSN MSN20031220062509612/20/03 06:25:31  5-MIN KMSN 201225Z 26003KT 10SM CLR M09/M16 A3020 600 61 -2200 260/03 RMK AO2
14837KMSN MSN20031220063009612/20/03 06:30:31  5-MIN KMSN 201230Z 26003KT 10SM CLR M10/M16 A3021 600 64 -2300 260/03 RMK AO2
14837KMSN MSN20031220063509612/20/03 06:35:31  5-MIN KMSN 201235Z 27003KT 10SM CLR M10/M16 A3021 600 64 -2300 270/03 RMK AO2
14837KMSN MSN20031220064009612/20/03 06:40:31  5-MIN KMSN 201240Z VRB04KT 10SM CLR M10/M16 A3021 600 64 -2300 VRB/04 RMK AO2
14837KMSN MSN20031220064509612/20/03 06:45:31  5-MIN KMSN 201245Z 26004KT 10SM CLR M10/M16 A3020 600 64 -2300 260/04 RMK AO2
14837KMSN MSN20031220065011312/20/03 06:50:31  5-MIN KMSN 201250Z 25004KT 10SM CLR M09/M16 A3020 600 61 -2200 250/04 RMK AO2 SLP245 T10941156
14837KMSN MSN20031220065509612/20/03 06:55:31  5-MIN KMSN 201255Z VRB04KT 10SM CLR M09/M16 A3020 600 61 -2200 VRB/04 RMK AO2
14837KMSN MSN20031220070009612/20/03 07:00:31  5-MIN KMSN 201300Z VRB03KT 10SM CLR M10/M16 A3020 610 64 -2300 VRB/03 RMK AO2
14837KMSN MSN20031220070509612/20/03 07:05:31  5-MIN KMSN 201305Z 23003KT 10SM CLR M10/M16 A3020 610 61 -2300 230/03 RMK AO2
14837KMSN MSN20031220071009612/20/03 07:10:31  5-MIN KMSN 201310Z 00000KT 10SM CLR M09/M16 A3020 600 59 -2200 000/00 RMK AO2
14837KMSN MSN20031220071509612/20/03 07:15:31  5-MIN KMSN 201315Z 00000KT 10SM CLR M09/M16 A3020 610 59 -2200 000/00 RMK AO2
14837KMSN MSN20031220072009612/20/03 07:20:31  5-MIN KMSN 201320Z 00000KT 10SM CLR M10/M17 A3020 610 58 -2300 000/00 RMK AO2
14837KMSN MSN20031220072509612/20/03 07:25:31  5-MIN KMSN 201325Z 00000KT 10SM CLR M10/M17 A3020 610 58 -2300 000/00 RMK AO2
14837KMSN MSN20031220073009612/20/03 07:30:31  5-MIN KMSN 201330Z 00000KT 10SM CLR M10/M17 A3020 610 58 -2300 000/00 RMK AO2
14837KMSN MSN20031220073509612/20/03 07:35:31  5-MIN KMSN 201335Z 00000KT 10SM CLR M10/M16 A3021 600 61 -2300 000/00 RMK AO2
14837KMSN MSN20031220074009612/20/03 07:40:31  5-MIN KMSN 201340Z 00000KT 10SM CLR M11/M16 A3021 600 67 -2400 000/00 RMK AO2
14837KMSN MSN20031220074509612/20/03 07:45:31  5-MIN KMSN 201345Z 00000KT 10SM CLR M11/M16 A3021 600 67 -2400 000/00 RMK AO2
14837KMSN MSN20031220075011312/20/03 07:50:31  5-MIN KMSN 201350Z 00000KT 10SM CLR M10/M16 A3021 600 64 -2300 000/00 RMK AO2 SLP245 T11001156
14837KMSN MSN20031220075509612/20/03 07:55:31  5-MIN KMSN 201355Z 00000KT 10SM CLR M11/M14 A3021 600 73 -2400 000/00 RMK AO2
14837KMSN MSN20031220080009612/20/03 08:00:31  5-MIN KMSN 201400Z 00000KT 10SM CLR M10/M15 A3021 600 67 -2300 000/00 RMK AO2
14837KMSN MSN20031220080509612/20/03 08:05:31  5-MIN KMSN 201405Z 00000KT 10SM CLR M10/M15 A3021 600 67 -2300 000/00 RMK AO2
14837KMSN MSN20031220081009612/20/03 08:10:31  5-MIN KMSN 201410Z 00000KT 10SM CLR M10/M15 A3021 600 67 -2300 000/00 RMK AO2
14837KMSN MSN20031220081509612/20/03 08:15:31  5-MIN KMSN 201415Z 00000KT 10SM CLR M10/M14 A3021 600 70 -2300 000/00 RMK AO2
14837KMSN MSN20031220082009612/20/03 08:20:31  5-MIN KMSN 201420Z 00000KT 10SM CLR M11/M14 A3021 600 77 -2400 000/00 RMK AO2
14837KMSN MSN20031220082509612/20/03 08:25:31  5-MIN KMSN 201425Z 25003KT 10SM CLR M11/M14 A3021 600 77 -2400 250/03 RMK AO2
14837KMSN MSN20031220083009612/20/03 08:30:31  5-MIN KMSN 201430Z 22003KT 10SM CLR M10/M14 A3021 600 70 -2300 220/03 RMK AO2
14837KMSN MSN20031220083509612/20/03 08:35:31  5-MIN KMSN 201435Z 00000KT 10SM CLR M10/M14 A3021 600 70 -2300 000/00 RMK AO2
14837KMSN MSN20031220084009612/20/03 08:40:31  5-MIN KMSN 201440Z 00000KT 10SM CLR M10/M14 A3021 600 73 -2300 000/00 RMK AO2
14837KMSN MSN20031220084509612/20/03 08:45:31  5-MIN KMSN 201445Z 00000KT 10SM CLR M09/M13 A3021 600 70 -2100 000/00 RMK AO2
14837KMSN MSN20031220085011912/20/03 08:50:31  5-MIN KMSN 201450Z 23003KT 10SM CLR M08/M13 A3021 600 64 -2000 230/03 RMK AO2 SLP246 T10781133 53000
14837KMSN MSN20031220085509612/20/03 08:55:31  5-MIN KMSN 201455Z VRB04KT 10SM CLR M07/M14 A3021 600 59 -1900 VRB/04 RMK AO2
14837KMSN MSN20031220090009612/20/03 09:00:31  5-MIN KMSN 201500Z 23005KT 10SM CLR M07/M14 A3021 590 59 -1900 230/05 RMK AO2
14837KMSN MSN20031220090509612/20/03 09:05:31  5-MIN KMSN 201505Z VRB05KT 10SM CLR M07/M14 A3022 590 57 -1900 VRB/05 RMK AO2
14837KMSN MSN20031220091009612/20/03 09:10:31  5-MIN KMSN 201510Z VRB05KT 10SM CLR M07/M14 A3022 590 54 -1900 VRB/05 RMK AO2
14837KMSN MSN20031220091509612/20/03 09:15:31  5-MIN KMSN 201515Z VRB04KT 10SM CLR M07/M14 A3022 590 54 -1900 VRB/04 RMK AO2
14837KMSN MSN20031220092009612/20/03 09:20:31  5-MIN KMSN 201520Z VRB06KT 10SM CLR M07/M14 A3022 590 54 -1900 VRB/06 RMK AO2
14837KMSN MSN20031220092509612/20/03 09:25:31  5-MIN KMSN 201525Z 22008KT 10SM CLR M07/M15 A3022 590 52 -1900 220/08 RMK AO2
14837KMSN MSN20031220093009612/20/03 09:30:31  5-MIN KMSN 201530Z 23005KT 10SM CLR M07/M15 A3022 590 52 -1900 220/05 RMK AO2
14837KMSN MSN20031220093511212/20/03 09:35:31  5-MIN KMSN 201535Z 21007KT 190V250 10SM CLR M06/M16 A3022 590 47 -1800 210/07 190V250 RMK AO2
14837KMSN MSN20031220094009612/20/03 09:40:31  5-MIN KMSN 201540Z 22007KT 10SM CLR M06/M16 A3022 590 47 -1800 220/07 RMK AO2
14837KMSN MSN20031220094509612/20/03 09:45:31  5-MIN KMSN 201545Z 23006KT 10SM CLR M06/M15 A3022 590 50 -1800 220/06 RMK AO2
14837KMSN MSN20031220095011312/20/03 09:50:31  5-MIN KMSN 201550Z 21009KT 10SM CLR M06/M15 A3022 590 48 -1700 210/09 RMK AO2 SLP247 T10561150
14837KMSN MSN20031220095509612/20/03 09:55:31  5-MIN KMSN 201555Z 22008KT 10SM CLR M06/M16 A3022 590 45 -1700 220/08 RMK AO2
14837KMSN MSN20031220100009612/20/03 10:00:31  5-MIN KMSN 201600Z 23007KT 10SM CLR M06/M16 A3021 590 45 -1700 230/07 RMK AO2
14837KMSN MSN20031220100509612/20/03 10:05:31  5-MIN KMSN 201605Z 21006KT 10SM CLR M05/M16 A3021 590 44 -1600 210/06 RMK AO2
14837KMSN MSN20031220101009612/20/03 10:10:31  5-MIN KMSN 201610Z 19009KT 10SM CLR M05/M16 A3021 600 42 -1600 190/09 RMK AO2
14837KMSN MSN20031220101509612/20/03 10:15:31  5-MIN KMSN 201615Z 19007KT 10SM CLR M05/M16 A3021 600 42 -1600 190/07 RMK AO2
14837KMSN MSN20031220102009612/20/03 10:20:31  5-MIN KMSN 201620Z 19006KT 10SM CLR M04/M16 A3021 600 42 -1600 190/06 RMK AO2
14837KMSN MSN20031220102509612/20/03 10:25:31  5-MIN KMSN 201625Z 19008KT 10SM CLR M05/M16 A3021 600 44 -1600 190/08 RMK AO2
14837KMSN MSN20031220103009612/20/03 10:30:31  5-MIN KMSN 201630Z 20007KT 10SM CLR M04/M16 A3020 600 40 -1600 200/07 RMK AO2
14837KMSN MSN20031220103509612/20/03 10:35:31  5-MIN KMSN 201635Z 20006KT 10SM CLR M04/M16 A3020 610 40 -1600 200/06 RMK AO2
14837KMSN MSN20031220104009612/20/03 10:40:31  5-MIN KMSN 201640Z 20008KT 10SM CLR M04/M17 A3020 610 36 -1600 200/08 RMK AO2
14837KMSN MSN20031220104509612/20/03 10:45:31  5-MIN KMSN 201645Z 19010KT 10SM CLR M04/M16 A3020 610 38 -1500 180/10 RMK AO2
14837KMSN MSN20031220105011312/20/03 10:50:31  5-MIN KMSN 201650Z 19009KT 10SM CLR M04/M17 A3019 610 37 -1500 190/09 RMK AO2 SLP239 T10391167
14837KMSN MSN20031220105509612/20/03 10:55:31  5-MIN KMSN 201655Z 19009KT 10SM CLR M04/M17 A3019 620 38 -1500 190/09 RMK AO2
14837KMSN MSN20031220110009612/20/03 11:00:31  5-MIN KMSN 201700Z 19008KT 10SM CLR M04/M17 A3019 620 37 -1500 190/08 RMK AO2
14837KMSN MSN20031220110509612/20/03 11:05:31  5-MIN KMSN 201705Z 19007KT 10SM CLR M04/M17 A3019 620 37 -1500 190/07 RMK AO2
14837KMSN MSN20031220111011212/20/03 11:10:31  5-MIN KMSN 201710Z 20008KT 170V240 10SM CLR M03/M16 A3019 620 37 -1400 200/08 170V240 RMK AO2
14837KMSN MSN20031220111509612/20/03 11:15:31  5-MIN KMSN 201715Z 20009KT 10SM CLR M03/M17 A3018 620 35 -1400 200/09 RMK AO2
14837KMSN MSN20031220112009612/20/03 11:20:31  5-MIN KMSN 201720Z 19009KT 10SM CLR M03/M17 A3018 630 33 -1400 190/09 RMK AO2
14837KMSN MSN20031220112509612/20/03 11:25:31  5-MIN KMSN 201725Z 20008KT 10SM CLR M03/M17 A3017 630 34 -1300 190/08 RMK AO2
14837KMSN MSN20031220113009612/20/03 11:30:31  5-MIN KMSN 201730Z 21008KT 10SM CLR M03/M17 A3017 630 34 -1300 210/08 RMK AO2
14837KMSN MSN20031220113511212/20/03 11:35:31  5-MIN KMSN 201735Z 21008KT 180V240 10SM CLR M03/M17 A3017 630 34 -1300 210/08 180V240 RMK AO2
14837KMSN MSN20031220114009612/20/03 11:40:31  5-MIN KMSN 201740Z 20008KT 10SM CLR M03/M17 A3017 630 34 -1300 200/08 RMK AO2
14837KMSN MSN20031220114509612/20/03 11:45:31  5-MIN KMSN 201745Z 21009KT 10SM CLR M03/M17 A3017 630 35 -1400 210/09 RMK AO2
14837KMSN MSN20031220115013112/20/03 11:50:31  5-MIN KMSN 201750Z 21008KT 10SM CLR M03/M17 A3017 630 35 -1400 210/08 RMK AO2 SLP233 T10331167 11028 21106 53003
14837KMSN MSN20031220115509612/20/03 11:55:31  5-MIN KMSN 201755Z 22007KT 10SM CLR M03/M16 A3018 630 37 -1400 220/07 RMK AO2
14837KMSN MSN20031220120009612/20/03 12:00:31  5-MIN KMSN 201800Z 20006KT 10SM CLR M03/M16 A3017 630 37 -1300 200/06 RMK AO2
14837KMSN MSN20031220120509612/20/03 12:05:31  5-MIN KMSN 201805Z 20007KT 10SM CLR M03/M16 A3017 630 38 -1400 200/07 RMK AO2
14837KMSN MSN20031220121009612/20/03 12:10:31  5-MIN KMSN 201810Z 19009KT 10SM CLR M03/M16 A3016 640 37 -1400 190/09 RMK AO2
14837KMSN MSN20031220121510312/20/03 12:15:31  5-MIN KMSN 201815Z 20009KT 10SM CLR M03/M16 A3015 650 37 -1400 200/09 RMK AO2 PRESFR
14837KMSN MSN20031220122010312/20/03 12:20:31  5-MIN KMSN 201820Z 17011KT 10SM CLR M03/M16 A3014 660 37 -1300 170/11 RMK AO2 PRESFR
14837KMSN MSN20031220122509612/20/03 12:25:31  5-MIN KMSN 201825Z 19008KT 10SM CLR M03/M16 A3015 660 38 -1300 190/08 RMK AO2
14837KMSN MSN20031220123009612/20/03 12:30:31  5-MIN KMSN 201830Z 19009KT 10SM CLR M03/M16 A3015 650 37 -1300 190/09 RMK AO2
14837KMSN MSN20031220123509612/20/03 12:35:31  5-MIN KMSN 201835Z 18008KT 10SM CLR M02/M15 A3014 660 37 -1200 180/08 RMK AO2
14837KMSN MSN20031220124009612/20/03 12:40:31  5-MIN KMSN 201840Z 19008KT 10SM CLR M02/M14 A3014 660 39 -1200 190/08 RMK AO2
14837KMSN MSN20031220124509612/20/03 12:45:31  5-MIN KMSN 201845Z 18012KT 10SM CLR M02/M15 A3014 660 37 -1200 180/12 RMK AO2
14837KMSN MSN20031220125011312/20/03 12:50:31  5-MIN KMSN 201850Z 18009KT 10SM CLR M02/M15 A3014 660 37 -1200 180/09 RMK AO2 SLP220 T10221150
14837KMSN MSN20031220125509612/20/03 12:55:31  5-MIN KMSN 201855Z 20010KT 10SM CLR M02/M14 A3014 660 39 -1200 200/10 RMK AO2
14837KMSN MSN20031220130009612/20/03 13:00:31  5-MIN KMSN 201900Z 19012KT 10SM CLR M02/M15 A3013 670 37 -1200 190/12 RMK AO2
14837KMSN MSN20031220130509612/20/03 13:05:31  5-MIN KMSN 201905Z 19008KT 10SM CLR M02/M14 A3013 670 39 -1200 190/08 RMK AO2
14837KMSN MSN20031220131009612/20/03 13:10:31  5-MIN KMSN 201910Z 21011KT 10SM CLR M02/M14 A3013 670 39 -1200 200/11 RMK AO2
14837KMSN MSN20031220131509612/20/03 13:15:31  5-MIN KMSN 201915Z 19011KT 10SM CLR M03/M15 A3013 670 39 -1300 190/11 RMK AO2
14837KMSN MSN20031220132009612/20/03 13:20:31  5-MIN KMSN 201920Z 19009KT 10SM CLR M02/M14 A3013 670 39 -1200 190/09 RMK AO2
14837KMSN MSN20031220132509612/20/03 13:25:31  5-MIN KMSN 201925Z 18012KT 10SM CLR M03/M14 A3013 670 40 -1300 180/12 RMK AO2
14837KMSN MSN20031220133009612/20/03 13:30:31  5-MIN KMSN 201930Z 19011KT 10SM CLR M03/M14 A3013 670 40 -1300 190/11 RMK AO2
14837KMSN MSN20031220133509612/20/03 13:35:31  5-MIN KMSN 201935Z 19009KT 10SM CLR M02/M14 A3013 670 39 -1200 190/09 RMK AO2
14837KMSN MSN20031220134010212/20/03 13:40:31  5-MIN KMSN 201940Z 18011G15KT 10SM CLR M02/M14 A3013 670 39 -1200 180/11G15 RMK AO2
14837KMSN MSN20031220134510212/20/03 13:45:31  5-MIN KMSN 201945Z 19010G15KT 10SM CLR M03/M15 A3013 670 39 -1300 190/10G15 RMK AO2
14837KMSN MSN20031220135011312/20/03 13:50:31  5-MIN KMSN 201950Z 19012KT 10SM CLR M03/M15 A3013 670 39 -1300 190/12 RMK AO2 SLP217 T10281150
14837KMSN MSN20031220135509612/20/03 13:55:31  5-MIN KMSN 201955Z 18010KT 10SM CLR M03/M14 A3012 680 40 -1300 180/10 RMK AO2
14837KMSN MSN20031220140009612/20/03 14:00:31  5-MIN KMSN 202000Z 19008KT 10SM CLR M03/M14 A3012 680 40 -1300 190/08 RMK AO2
14837KMSN MSN20031220140509612/20/03 14:05:31  5-MIN KMSN 202005Z 18011KT 10SM CLR M03/M14 A3011 690 42 -1200 180/11 RMK AO2
14837KMSN MSN20031220141009612/20/03 14:10:31  5-MIN KMSN 202010Z 18012KT 10SM CLR M03/M14 A3011 690 42 -1200 180/12 RMK AO2
14837KMSN MSN20031220141509612/20/03 14:15:31  5-MIN KMSN 202015Z 19009KT 10SM CLR M03/M14 A3011 690 42 -1200 190/09 RMK AO2
14837KMSN MSN20031220142009612/20/03 14:20:31  5-MIN KMSN 202020Z 19010KT 10SM CLR M03/M13 A3010 690 44 -1200 190/10 RMK AO2
14837KMSN MSN20031220142509612/20/03 14:25:31  5-MIN KMSN 202025Z 19010KT 10SM CLR M03/M13 A3011 690 44 -1200 190/10 RMK AO2
14837KMSN MSN20031220143009612/20/03 14:30:31  5-MIN KMSN 202030Z 18011KT 10SM CLR M03/M13 A3011 690 44 -1200 180/11 RMK AO2
14837KMSN MSN20031220143509612/20/03 14:35:31  5-MIN KMSN 202035Z 18012KT 10SM CLR M03/M13 A3011 690 44 -1200 180/12 RMK AO2
14837KMSN MSN20031220144009912/20/03 14:40:31  5-MIN KMSN 202040Z 18011KT 10SM FEW080 M03/M13 A3011 690 44 -1200 180/11 RMK AO2
14837KMSN MSN20031220144509912/20/03 14:45:31  5-MIN KMSN 202045Z 19011KT 10SM SCT080 M03/M13 A3011 690 46 -1200 190/11 RMK AO2
14837KMSN MSN20031220145012212/20/03 14:50:31  5-MIN KMSN 202050Z 19010KT 10SM FEW080 M03/M13 A3011 690 44 -1200 180/10 RMK AO2 SLP209 T10281133 58012
14837KMSN MSN20031220145509912/20/03 14:55:31  5-MIN KMSN 202055Z 19011KT 10SM FEW080 M03/M13 A3010 700 46 -1200 190/11 RMK AO2
14837KMSN MSN20031220150009912/20/03 15:00:31  5-MIN KMSN 202100Z 19009KT 10SM FEW080 M03/M13 A3010 700 46 -1200 190/09 RMK AO2
14837KMSN MSN20031220150509912/20/03 15:05:31  5-MIN KMSN 202105Z 19009KT 10SM FEW080 M03/M13 A3010 700 46 -1200 190/09 RMK AO2
14837KMSN MSN20031220151009912/20/03 15:10:31  5-MIN KMSN 202110Z 19013KT 10SM FEW080 M03/M13 A3010 700 46 -1200 190/13 RMK AO2
14837KMSN MSN20031220151509612/20/03 15:15:31  5-MIN KMSN 202115Z 19011KT 10SM CLR M03/M13 A3010 700 46 -1200 190/11 RMK AO2
14837KMSN MSN20031220152009612/20/03 15:20:31  5-MIN KMSN 202120Z 19013KT 10SM CLR M03/M13 A3009 710 46 -1200 190/13 RMK AO2
14837KMSN MSN20031220152509612/20/03 15:25:31  5-MIN KMSN 202125Z 19012KT 10SM CLR M03/M13 A3009 710 46 -1200 190/12 RMK AO2
14837KMSN MSN20031220153009612/20/03 15:30:31  5-MIN KMSN 202130Z 19014KT 10SM CLR M03/M13 A3009 710 46 -1200 190/14 RMK AO2
14837KMSN MSN20031220153509612/20/03 15:35:31  5-MIN KMSN 202135Z 19010KT 10SM CLR M03/M12 A3009 700 48 -1200 190/10 RMK AO2
14837KMSN MSN20031220154009612/20/03 15:40:31  5-MIN KMSN 202140Z 19008KT 10SM CLR M03/M13 A3009 710 46 -1200 190/08 RMK AO2
14837KMSN MSN20031220154509612/20/03 15:45:31  5-MIN KMSN 202145Z 19011KT 10SM CLR M02/M13 A3009 710 44 -1100 190/11 RMK AO2
14837KMSN MSN20031220155011312/20/03 15:50:31  5-MIN KMSN 202150Z 19008KT 10SM CLR M02/M12 A3009 710 46 -1100 190/08 RMK AO2 SLP205 T10221122
14837KMSN MSN20031220155509612/20/03 15:55:31  5-MIN KMSN 202155Z 20007KT 10SM CLR M02/M12 A3010 700 46 -1200 200/07 RMK AO2
14837KMSN MSN20031220160009612/20/03 16:00:31  5-MIN KMSN 202200Z 19008KT 10SM CLR M02/M12 A3010 700 46 -1200 190/08 RMK AO2
14837KMSN MSN20031220160509612/20/03 16:05:31  5-MIN KMSN 202205Z 19008KT 10SM CLR M03/M12 A3011 690 48 -1200 190/08 RMK AO2
14837KMSN MSN20031220161009612/20/03 16:10:31  5-MIN KMSN 202210Z 18007KT 10SM CLR M02/M12 A3011 690 46 -1200 180/07 RMK AO2
14837KMSN MSN20031220161509612/20/03 16:15:31  5-MIN KMSN 202215Z 18008KT 10SM CLR M03/M12 A3011 690 50 -1200 180/08 RMK AO2
14837KMSN MSN20031220162009612/20/03 16:20:31  5-MIN KMSN 202220Z 17008KT 10SM CLR M03/M12 A3011 690 50 -1200 170/08 RMK AO2
14837KMSN MSN20031220162509612/20/03 16:25:31  5-MIN KMSN 202225Z 18008KT 10SM CLR M03/M12 A3011 690 50 -1200 180/08 RMK AO2
14837KMSN MSN20031220163009612/20/03 16:30:31  5-MIN KMSN 202230Z 17009KT 10SM CLR M03/M12 A3011 690 50 -1200 170/09 RMK AO2
14837KMSN MSN20031220163509612/20/03 16:35:31  5-MIN KMSN 202235Z 18009KT 10SM CLR M03/M12 A3010 700 50 -1200 180/09 RMK AO2
14837KMSN MSN20031220164009612/20/03 16:40:31  5-MIN KMSN 202240Z 18009KT 10SM CLR M03/M12 A3010 700 48 -1200 180/09 RMK AO2
14837KMSN MSN20031220164509612/20/03 16:45:31  5-MIN KMSN 202245Z 18009KT 10SM CLR M03/M12 A3009 700 48 -1200 180/09 RMK AO2
14837KMSN MSN20031220165011312/20/03 16:50:31  5-MIN KMSN 202250Z 17007KT 10SM CLR M03/M12 A3009 710 53 -1300 170/07 RMK AO2 SLP203 T10331117
14837KMSN MSN20031220165509612/20/03 16:55:31  5-MIN KMSN 202255Z 17007KT 10SM CLR M03/M12 A3008 710 53 -1300 170/07 RMK AO2
14837KMSN MSN20031220170009612/20/03 17:00:31  5-MIN KMSN 202300Z 17010KT 10SM CLR M03/M12 A3008 720 53 -1300 170/10 RMK AO2
14837KMSN MSN20031220170509612/20/03 17:05:31  5-MIN KMSN 202305Z 18010KT 10SM CLR M03/M12 A3008 720 53 -1300 180/10 RMK AO2
14837KMSN MSN20031220171009612/20/03 17:10:31  5-MIN KMSN 202310Z 18011KT 10SM CLR M03/M12 A3007 720 50 -1200 180/11 RMK AO2
14837KMSN MSN20031220171509612/20/03 17:15:31  5-MIN KMSN 202315Z 18012KT 10SM CLR M03/M12 A3007 720 50 -1200 180/12 RMK AO2
14837KMSN MSN20031220172009612/20/03 17:20:31  5-MIN KMSN 202320Z 18010KT 10SM CLR M03/M12 A3007 730 50 -1200 180/10 RMK AO2
14837KMSN MSN20031220172509612/20/03 17:25:31  5-MIN KMSN 202325Z 18011KT 10SM CLR M03/M12 A3007 730 53 -1300 180/11 RMK AO2
14837KMSN MSN20031220173009612/20/03 17:30:31  5-MIN KMSN 202330Z 18010KT 10SM CLR M03/M12 A3007 730 53 -1300 180/10 RMK AO2
14837KMSN MSN20031220173509612/20/03 17:35:31  5-MIN KMSN 202335Z 18012KT 10SM CLR M03/M12 A3007 730 53 -1300 170/12 RMK AO2
14837KMSN MSN20031220174009612/20/03 17:40:31  5-MIN KMSN 202340Z 18010KT 10SM CLR M03/M11 A3006 730 55 -1300 180/10 RMK AO2
14837KMSN MSN20031220174509612/20/03 17:45:31  5-MIN KMSN 202345Z 18009KT 10SM CLR M03/M11 A3006 730 55 -1300 180/09 RMK AO2
14837KMSN MSN20031220175013112/20/03 17:50:31  5-MIN KMSN 202350Z 18013KT 10SM CLR M03/M11 A3006 730 55 -1300 180/13 RMK AO2 SLP194 T10331111 11022 21033 56024
14837KMSN MSN20031220175509612/20/03 17:55:31  5-MIN KMSN 202355Z 18013KT 10SM CLR M03/M12 A3006 740 53 -1200 180/13 RMK AO2
14837KMSN MSN20031220180009612/20/03 18:00:31  5-MIN KMSN 210000Z 17012KT 10SM CLR M03/M11 A3006 740 55 -1200 170/12 RMK AO2
14837KMSN MSN20031220180509612/20/03 18:05:31  5-MIN KMSN 210005Z 18010KT 10SM CLR M03/M11 A3005 740 55 -1200 170/10 RMK AO2
14837KMSN MSN20031220181009612/20/03 18:10:31  5-MIN KMSN 210010Z 17011KT 10SM CLR M04/M11 A3005 740 57 -1300 170/11 RMK AO2
14837KMSN MSN20031220181509612/20/03 18:15:31  5-MIN KMSN 210015Z 17011KT 10SM CLR M04/M11 A3005 750 57 -1300 170/11 RMK AO2
14837KMSN MSN20031220182009612/20/03 18:20:31  5-MIN KMSN 210020Z 18012KT 10SM CLR M04/M11 A3004 750 57 -1300 180/12 RMK AO2
14837KMSN MSN20031220182509612/20/03 18:25:31  5-MIN KMSN 210025Z 18013KT 10SM CLR M04/M11 A3004 760 57 -1300 170/13 RMK AO2
14837KMSN MSN20031220183009612/20/03 18:30:31  5-MIN KMSN 210030Z 18013KT 10SM CLR M04/M11 A3003 760 60 -1300 170/13 RMK AO2
14837KMSN MSN20031220183509612/20/03 18:35:31  5-MIN KMSN 210035Z 17012KT 10SM CLR M04/M11 A3003 770 60 -1300 170/12 RMK AO2
14837KMSN MSN20031220184009612/20/03 18:40:31  5-MIN KMSN 210040Z 18014KT 10SM CLR M03/M11 A3003 770 57 -1200 180/14 RMK AO2
14837KMSN MSN20031220184509612/20/03 18:45:31  5-MIN KMSN 210045Z 17013KT 10SM CLR M03/M11 A3003 770 57 -1200 170/13 RMK AO2
14837KMSN MSN20031220185011312/20/03 18:50:31  5-MIN KMSN 210050Z 18013KT 10SM CLR M03/M11 A3002 770 55 -1200 180/13 RMK AO2 SLP182 T10331111
14837KMSN MSN20031220185509612/20/03 18:55:31  5-MIN KMSN 210055Z 18012KT 10SM CLR M03/M11 A3003 770 55 -1200 180/12 RMK AO2
14837KMSN MSN20031220190009612/20/03 19:00:31  5-MIN KMSN 210100Z 18013KT 10SM CLR M04/M11 A3002 770 60 -1300 180/13 RMK AO2
14837KMSN MSN20031220190509612/20/03 19:05:31  5-MIN KMSN 210105Z 18012KT 10SM CLR M04/M11 A3002 770 60 -1300 180/12 RMK AO2
14837KMSN MSN20031220191009612/20/03 19:10:31  5-MIN KMSN 210110Z 18012KT 10SM CLR M04/M11 A3002 770 60 -1300 180/12 RMK AO2
14837KMSN MSN20031220191509612/20/03 19:15:31  5-MIN KMSN 210115Z 19014KT 10SM CLR M04/M11 A3001 780 60 -1300 180/14 RMK AO2
14837KMSN MSN20031220192010212/20/03 19:20:31  5-MIN KMSN 210120Z 19012G20KT 10SM CLR M04/M11 A3001 780 60 -1300 190/12G20 RMK AO2
14837KMSN MSN20031220192509612/20/03 19:25:31  5-MIN KMSN 210125Z 18011KT 10SM CLR M04/M11 A3001 780 60 -1300 180/11 RMK AO2
14837KMSN MSN20031220193009612/20/03 19:30:31  5-MIN KMSN 210130Z 19013KT 10SM CLR M04/M11 A3001 780 60 -1300 190/13 RMK AO2
14837KMSN MSN20031220193510212/20/03 19:35:31  5-MIN KMSN 210135Z 18013G18KT 10SM CLR M04/M11 A3000 790 60 -1300 180/13G18 RMK AO2
14837KMSN MSN20031220194009612/20/03 19:40:31  5-MIN KMSN 210140Z 18013KT 10SM CLR M04/M11 A3000 790 57 -1300 180/13 RMK AO2
14837KMSN MSN20031220194509612/20/03 19:45:31  5-MIN KMSN 210145Z 18013KT 10SM CLR M04/M11 A3000 790 57 -1200 180/13 RMK AO2
14837KMSN MSN20031220195011912/20/03 19:50:31  5-MIN KMSN 210150Z 18016G20KT 10SM CLR M04/M11 A3000 790 60 -1200 180/16G20 RMK AO2 SLP172 T10391106
14837KMSN MSN20031220195510212/20/03 19:55:31  5-MIN KMSN 210155Z 18013G20KT 10SM CLR M04/M11 A3000 790 57 -1200 180/13G20 RMK AO2
14837KMSN MSN20031220200009612/20/03 20:00:31  5-MIN KMSN 210200Z 18014KT 10SM CLR M04/M11 A2999 800 57 -1200 180/14 RMK AO2
14837KMSN MSN20031220200510212/20/03 20:05:31  5-MIN KMSN 210205Z 18015G21KT 10SM CLR M04/M11 A2999 800 57 -1200 180/15G21 RMK AO2
14837KMSN MSN20031220201010212/20/03 20:10:31  5-MIN KMSN 210210Z 18013G21KT 10SM CLR M04/M11 A2999 800 60 -1200 180/13G21 RMK AO2
14837KMSN MSN20031220201510212/20/03 20:15:31  5-MIN KMSN 210215Z 19014G20KT 10SM CLR M04/M11 A2999 800 60 -1200 190/14G20 RMK AO2
14837KMSN MSN20031220202010212/20/03 20:20:31  5-MIN KMSN 210220Z 19015G20KT 10SM CLR M04/M11 A2999 800 60 -1200 180/15G20 RMK AO2
14837KMSN MSN20031220202509612/20/03 20:25:31  5-MIN KMSN 210225Z 19015KT 10SM CLR M04/M11 A2999 800 60 -1200 180/15 RMK AO2
14837KMSN MSN20031220203009612/20/03 20:30:31  5-MIN KMSN 210230Z 19014KT 10SM CLR M04/M11 A2998 810 60 -1200 190/14 RMK AO2
14837KMSN MSN20031220203509612/20/03 20:35:31  5-MIN KMSN 210235Z 19014KT 10SM CLR M04/M11 A2998 810 60 -1200 190/14 RMK AO2
14837KMSN MSN20031220204009612/20/03 20:40:31  5-MIN KMSN 210240Z 19011KT 10SM CLR M04/M11 A2998 810 60 -1200 190/11 RMK AO2
14837KMSN MSN20031220204510212/20/03 20:45:31  5-MIN KMSN 210245Z 19013G17KT 10SM CLR M04/M11 A2998 810 60 -1200 190/13G17 RMK AO2
14837KMSN MSN20031220205012512/20/03 20:50:31  5-MIN KMSN 210250Z 19015G18KT 10SM CLR M04/M11 A2998 810 60 -1200 190/15G18 RMK AO2 SLP166 T10391106 58015
14837KMSN MSN20031220205510212/20/03 20:55:31  5-MIN KMSN 210255Z 20013G19KT 10SM CLR M04/M11 A2998 810 60 -1200 200/13G19 RMK AO2
14837KMSN MSN20031220210010212/20/03 21:00:31  5-MIN KMSN 210300Z 19015G20KT 10SM CLR M03/M11 A2998 810 57 -1200 190/15G20 RMK AO2
14837KMSN MSN20031220210510212/20/03 21:05:31  5-MIN KMSN 210305Z 19015G20KT 10SM CLR M03/M11 A2998 810 57 -1200 190/15G20 RMK AO2
14837KMSN MSN20031220211010212/20/03 21:10:31  5-MIN KMSN 210310Z 19015G20KT 10SM CLR M03/M11 A2998 810 57 -1200 190/15G20 RMK AO2
14837KMSN MSN20031220211510212/20/03 21:15:31  5-MIN KMSN 210315Z 19015G20KT 10SM CLR M04/M11 A2998 810 60 -1200 190/15G20 RMK AO2
14837KMSN MSN20031220212010212/20/03 21:20:31  5-MIN KMSN 210320Z 20015G21KT 10SM CLR M03/M11 A2998 810 57 -1200 200/15G21 RMK AO2
14837KMSN MSN20031220212510212/20/03 21:25:31  5-MIN KMSN 210325Z 20015G21KT 10SM CLR M03/M10 A2998 810 60 -1200 190/15G21 RMK AO2
14837KMSN MSN20031220213010212/20/03 21:30:31  5-MIN KMSN 210330Z 19016G20KT 10SM CLR M03/M10 A2998 810 60 -1200 190/16G20 RMK AO2
14837KMSN MSN20031220213510212/20/03 21:35:31  5-MIN KMSN 210335Z 19014G22KT 10SM CLR M03/M10 A2998 810 60 -1200 190/14G22 RMK AO2
14837KMSN MSN20031220214010212/20/03 21:40:31  5-MIN KMSN 210340Z 20015G24KT 10SM CLR M03/M10 A2998 810 60 -1200 200/15G24 RMK AO2
14837KMSN MSN20031220214510212/20/03 21:45:31  5-MIN KMSN 210345Z 20012G24KT 10SM CLR M04/M10 A2998 810 63 -1200 200/12G24 RMK AO2
14837KMSN MSN20031220215011912/20/03 21:50:31  5-MIN KMSN 210350Z 19015G19KT 10SM CLR M04/M10 A2998 810 63 -1200 190/15G19 RMK AO2 SLP165 T10391100
14837KMSN MSN20031220215510212/20/03 21:55:31  5-MIN KMSN 210355Z 19016G19KT 10SM CLR M04/M10 A2998 810 63 -1200 190/16G19 RMK AO2
14837KMSN MSN20031220220010212/20/03 22:00:31  5-MIN KMSN 210400Z 19015G20KT 10SM CLR M04/M10 A2998 810 63 -1200 190/15G20 RMK AO2
14837KMSN MSN20031220220510212/20/03 22:05:31  5-MIN KMSN 210405Z 19015G20KT 10SM CLR M04/M10 A2997 820 63 -1200 190/15G20 RMK AO2
14837KMSN MSN20031220221010212/20/03 22:10:31  5-MIN KMSN 210410Z 18015G21KT 10SM CLR M04/M10 A2997 820 63 -1200 180/15G21 RMK AO2
14837KMSN MSN20031220221510212/20/03 22:15:31  5-MIN KMSN 210415Z 19009G21KT 10SM CLR M04/M09 A2997 820 65 -1200 190/09G21 RMK AO2
14837KMSN MSN20031220222010212/20/03 22:20:31  5-MIN KMSN 210420Z 20012G17KT 10SM CLR M04/M09 A2997 820 65 -1200 190/12G17 RMK AO2
14837KMSN MSN20031220222510212/20/03 22:25:31  5-MIN KMSN 210425Z 19013G17KT 10SM CLR M03/M09 A2997 820 63 -1100 190/13G17 RMK AO2
14837KMSN MSN20031220223010212/20/03 22:30:31  5-MIN KMSN 210430Z 19012G20KT 10SM CLR M03/M09 A2997 820 63 -1100 190/12G20 RMK AO2
14837KMSN MSN20031220223510212/20/03 22:35:31  5-MIN KMSN 210435Z 19010G20KT 10SM CLR M04/M09 A2997 820 65 -1200 190/10G20 RMK AO2
14837KMSN MSN20031220224010212/20/03 22:40:31  5-MIN KMSN 210440Z 20012G16KT 10SM CLR M03/M09 A2996 820 63 -1100 190/12G16 RMK AO2
14837KMSN MSN20031220224510212/20/03 22:45:31  5-MIN KMSN 210445Z 19011G20KT 10SM CLR M03/M09 A2996 820 63 -1100 190/11G20 RMK AO2
14837KMSN MSN20031220225011912/20/03 22:50:31  5-MIN KMSN 210450Z 19013G20KT 10SM CLR M04/M09 A2996 830 65 -1200 190/13G20 RMK AO2 SLP156 T10391094
14837KMSN MSN20031220225510212/20/03 22:55:31  5-MIN KMSN 210455Z 19014G21KT 10SM CLR M03/M09 A2995 830 63 -1100 190/14G21 RMK AO2
14837KMSN MSN20031220230010212/20/03 23:00:31  5-MIN KMSN 210500Z 19014G21KT 10SM CLR M03/M09 A2995 830 63 -1100 190/14G21 RMK AO2
14837KMSN MSN20031220230509612/20/03 23:05:31  5-MIN KMSN 210505Z 19012KT 10SM CLR M03/M11 A2995 840 55 -1100 190/12 RMK AO2
14837KMSN MSN20031220231010212/20/03 23:10:31  5-MIN KMSN 210510Z 19012G16KT 10SM CLR M03/M11 A2995 840 57 -1100 190/12G16 RMK AO2
14837KMSN MSN20031220231510212/20/03 23:15:31  5-MIN KMSN 210515Z 19012G18KT 10SM CLR M03/M11 A2995 840 55 -1100 190/12G18 RMK AO2
14837KMSN MSN20031220232010212/20/03 23:20:31  5-MIN KMSN 210520Z 19011G18KT 10SM CLR M03/M11 A2995 840 57 -1100 190/11G18 RMK AO2
14837KMSN MSN20031220232510212/20/03 23:25:31  5-MIN KMSN 210525Z 19011G17KT 10SM CLR M03/M11 A2995 840 57 -1100 190/11G17 RMK AO2
14837KMSN MSN20031220233010212/20/03 23:30:31  5-MIN KMSN 210530Z 19010G17KT 10SM CLR M03/M11 A2994 840 57 -1100 190/10G17 RMK AO2
14837KMSN MSN20031220233509612/20/03 23:35:31  5-MIN KMSN 210535Z 19013KT 10SM CLR M03/M11 A2994 850 57 -1100 190/13 RMK AO2
14837KMSN MSN20031220234009612/20/03 23:40:31  5-MIN KMSN 210540Z 20010KT 10SM CLR M03/M11 A2994 850 57 -1100 190/10 RMK AO2
14837KMSN MSN20031220234510212/20/03 23:45:31  5-MIN KMSN 210545Z 19012G17KT 10SM CLR M03/M11 A2994 850 55 -1000 190/12G17 RMK AO2
14837KMSN MSN20031220235014712/20/03 23:50:31  5-MIN KMSN 210550Z 19009G17KT 10SM CLR M03/M10 A2994 850 60 -1100 190/09G17 RMK AO2 SLP150 T10331100 11028 21039 410221111 56025
14837KMSN MSN20031220235509612/20/03 23:55:31  5-MIN KMSN 210555Z 19012KT 10SM CLR M03/M10 A2993 850 58 -1000 190/12 RMK AO2
14837KMSN MSN20031221000009612/21/03 00:00:31  5-MIN KMSN 210600Z 19012KT 10SM CLR M03/M10 A2993 850 58 -1000 190/12 RMK AO2
14837KMSN MSN20031221000509612/21/03 00:05:31  5-MIN KMSN 210605Z 19015KT 10SM CLR M03/M10 A2993 850 58 -1000 190/15 RMK AO2
14837KMSN MSN20031221001009612/21/03 00:10:31  5-MIN KMSN 210610Z 19011KT 10SM CLR M03/M09 A2993 860 60 -1000 190/11 RMK AO2
14837KMSN MSN20031221001510212/21/03 00:15:31  5-MIN KMSN 210615Z 19012G17KT 10SM CLR M03/M09 A2993 860 60 -1000 190/12G17 RMK AO2
14837KMSN MSN20031221002010212/21/03 00:20:31  5-MIN KMSN 210620Z 19012G18KT 10SM CLR M03/M09 A2993 860 60 -1000 190/12G18 RMK AO2
14837KMSN MSN20031221002510212/21/03 00:25:31  5-MIN KMSN 210625Z 19010G18KT 10SM CLR M03/M09 A2992 860 60 -1000 190/10G18 RMK AO2
14837KMSN MSN20031221003010212/21/03 00:30:31  5-MIN KMSN 210630Z 19010G18KT 10SM CLR M03/M09 A2992 860 60 -1000 190/10G18 RMK AO2
14837KMSN MSN20031221003510212/21/03 00:35:31  5-MIN KMSN 210635Z 19010G20KT 10SM CLR M03/M09 A2992 860 60 -1000 190/10G20 RMK AO2
14837KMSN MSN20031221004010212/21/03 00:40:31  5-MIN KMSN 210640Z 19010G20KT 10SM CLR M03/M09 A2992 860 63 -1000 190/10G20 RMK AO2
14837KMSN MSN20031221004509612/21/03 00:45:31  5-MIN KMSN 210645Z 19011KT 10SM CLR M03/M09 A2992 860 60 -1000 190/11 RMK AO2
14837KMSN MSN20031221005011812/21/03 00:50:31  5-MIN KMSN 210650Z 19009G16KT 10SM CLR M02/M09 A2992 870 60 -900 190/09G16 RMK AO2 SLP141 T10221089
14837KMSN MSN20031221005509512/21/03 00:55:31  5-MIN KMSN 210655Z 19011KT 10SM CLR M02/M09 A2991 870 60 -900 190/11 RMK AO2
14837KMSN MSN20031221010009512/21/03 01:00:31  5-MIN KMSN 210700Z 20009KT 10SM CLR M02/M09 A2991 880 60 -900 200/09 RMK AO2
14837KMSN MSN20031221010509512/21/03 01:05:31  5-MIN KMSN 210705Z 19010KT 10SM CLR M02/M09 A2990 880 60 -900 190/10 RMK AO2
14837KMSN MSN20031221011010112/21/03 01:10:31  5-MIN KMSN 210710Z 19009G15KT 10SM CLR M02/M09 A2990 880 60 -900 190/09G15 RMK AO2
14837KMSN MSN20031221011510112/21/03 01:15:31  5-MIN KMSN 210715Z 20010G15KT 10SM CLR M02/M09 A2990 890 60 -900 200/10G15 RMK AO2
14837KMSN MSN20031221012009512/21/03 01:20:31  5-MIN KMSN 210720Z 19012KT 10SM CLR M02/M08 A2989 890 63 -900 190/12 RMK AO2
14837KMSN MSN20031221012510112/21/03 01:25:31  5-MIN KMSN 210725Z 20011G18KT 10SM CLR M02/M08 A2989 890 63 -900 190/11G18 RMK AO2
14837KMSN MSN20031221013010112/21/03 01:30:31  5-MIN KMSN 210730Z 19009G18KT 10SM CLR M02/M08 A2989 890 63 -900 190/09G18 RMK AO2
14837KMSN MSN20031221013509512/21/03 01:35:31  5-MIN KMSN 210735Z 20010KT 10SM CLR M02/M08 A2989 890 63 -900 200/10 RMK AO2
14837KMSN MSN20031221014009512/21/03 01:40:31  5-MIN KMSN 210740Z 19012KT 10SM CLR M02/M08 A2989 900 63 -900 190/12 RMK AO2
14837KMSN MSN20031221014509512/21/03 01:45:31  5-MIN KMSN 210745Z 19012KT 10SM CLR M02/M08 A2989 890 63 -900 190/12 RMK AO2
14837KMSN MSN20031221015011812/21/03 01:50:31  5-MIN KMSN 210750Z 19013G20KT 10SM CLR M02/M08 A2988 900 60 -800 190/13G20 RMK AO2 SLP131 T10171083
14837KMSN MSN20031221015510112/21/03 01:55:31  5-MIN KMSN 210755Z 19013G23KT 10SM CLR M02/M08 A2988 900 60 -800 190/13G23 RMK AO2
14837KMSN MSN20031221020010112/21/03 02:00:31  5-MIN KMSN 210800Z 19013G23KT 10SM CLR M02/M08 A2988 900 60 -800 190/13G23 RMK AO2
14837KMSN MSN20031221020510112/21/03 02:05:31  5-MIN KMSN 210805Z 19013G18KT 10SM CLR M02/M08 A2988 900 60 -800 190/13G18 RMK AO2
14837KMSN MSN20031221021010112/21/03 02:10:31  5-MIN KMSN 210810Z 19011G18KT 10SM CLR M02/M08 A2988 900 60 -800 190/11G18 RMK AO2
14837KMSN MSN20031221021509512/21/03 02:15:31  5-MIN KMSN 210815Z 20012KT 10SM CLR M02/M08 A2988 900 63 -900 200/12 RMK AO2
14837KMSN MSN20031221022009512/21/03 02:20:31  5-MIN KMSN 210820Z 20011KT 10SM CLR M02/M08 A2988 900 60 -800 190/11 RMK AO2
14837KMSN MSN20031221022509512/21/03 02:25:31  5-MIN KMSN 210825Z 19012KT 10SM CLR M02/M08 A2988 900 60 -800 190/12 RMK AO2
14837KMSN MSN20031221023010112/21/03 02:30:31  5-MIN KMSN 210830Z 19009G17KT 10SM CLR M02/M08 A2988 910 60 -800 190/09G17 RMK AO2
14837KMSN MSN20031221023510112/21/03 02:35:31  5-MIN KMSN 210835Z 20009G17KT 10SM CLR M02/M08 A2987 910 63 -800 200/09G17 RMK AO2
14837KMSN MSN20031221024009512/21/03 02:40:31  5-MIN KMSN 210840Z 20011KT 10SM CLR M02/M08 A2987 910 63 -800 200/11 RMK AO2
14837KMSN MSN20031221024509512/21/03 02:45:31  5-MIN KMSN 210845Z 20011KT 10SM CLR M02/M08 A2987 910 63 -800 200/11 RMK AO2
14837KMSN MSN20031221025011812/21/03 02:50:31  5-MIN KMSN 210850Z 20010KT 10SM CLR M02/M08 A2986 920 63 -800 200/10 RMK AO2 SLP123 T10171078 58015
14837KMSN MSN20031221025509512/21/03 02:55:31  5-MIN KMSN 210855Z 20010KT 10SM CLR M02/M08 A2986 920 63 -800 200/10 RMK AO2
14837KMSN MSN20031221030009512/21/03 03:00:31  5-MIN KMSN 210900Z 20010KT 10SM CLR M02/M08 A2986 920 63 -800 200/10 RMK AO2
14837KMSN MSN20031221030509512/21/03 03:05:31  5-MIN KMSN 210905Z 21009KT 10SM CLR M02/M08 A2986 920 63 -800 210/09 RMK AO2
14837KMSN MSN20031221031009512/21/03 03:10:31  5-MIN KMSN 210910Z 21009KT 10SM CLR M02/M08 A2986 920 63 -800 210/09 RMK AO2
14837KMSN MSN20031221031509512/21/03 03:15:31  5-MIN KMSN 210915Z 21010KT 10SM CLR M02/M08 A2986 920 63 -800 210/10 RMK AO2
14837KMSN MSN20031221032009512/21/03 03:20:31  5-MIN KMSN 210920Z 19010KT 10SM CLR M02/M08 A2985 930 63 -800 190/10 RMK AO2
14837KMSN MSN20031221032510112/21/03 03:25:31  5-MIN KMSN 210925Z 20012G18KT 10SM CLR M02/M08 A2985 930 63 -800 200/12G18 RMK AO2
14837KMSN MSN20031221033010112/21/03 03:30:31  5-MIN KMSN 210930Z 21011G18KT 10SM CLR M01/M08 A2985 930 60 -700 210/11G18 RMK AO2
14837KMSN MSN20031221033509512/21/03 03:35:31  5-MIN KMSN 210935Z 19009KT 10SM CLR M02/M08 A2984 940 63 -800 190/09 RMK AO2
14837KMSN MSN20031221034010112/21/03 03:40:31  5-MIN KMSN 210940Z 20011G18KT 10SM CLR M02/M08 A2984 940 63 -800 200/11G18 RMK AO2
14837KMSN MSN20031221034510112/21/03 03:45:31  5-MIN KMSN 210945Z 20012G18KT 10SM CLR M02/M08 A2983 940 63 -800 200/12G18 RMK AO2
14837KMSN MSN20031221035011212/21/03 03:50:31  5-MIN KMSN 210950Z 20009KT 10SM CLR M02/M07 A2983 950 66 -800 200/09 RMK AO2 SLP112 T10171072
14837KMSN MSN20031221035511112/21/03 03:55:31  5-MIN KMSN 210955Z 20011KT 170V230 10SM CLR M02/M07 A2984 940 66 -800 200/11 170V230 RMK AO2
14837KMSN MSN20031221040009512/21/03 04:00:31  5-MIN KMSN 211000Z 20011KT 10SM CLR M02/M07 A2983 950 66 -800 190/11 RMK AO2
14837KMSN MSN20031221040509512/21/03 04:05:31  5-MIN KMSN 211005Z 19010KT 10SM CLR M02/M07 A2983 950 66 -800 190/10 RMK AO2
14837KMSN MSN20031221041009512/21/03 04:10:31  5-MIN KMSN 211010Z 20011KT 10SM CLR M02/M07 A2983 950 66 -800 200/11 RMK AO2
14837KMSN MSN20031221041509512/21/03 04:15:31  5-MIN KMSN 211015Z 20009KT 10SM CLR M02/M07 A2983 950 66 -800 200/09 RMK AO2
14837KMSN MSN20031221042009512/21/03 04:20:31  5-MIN KMSN 211020Z 20010KT 10SM CLR M02/M07 A2983 950 66 -800 200/10 RMK AO2
14837KMSN MSN20031221042510112/21/03 04:25:31  5-MIN KMSN 211025Z 20009G17KT 10SM CLR M02/M07 A2983 950 66 -800 200/09G17 RMK AO2
14837KMSN MSN20031221043010112/21/03 04:30:31  5-MIN KMSN 211030Z 20007G17KT 10SM CLR M02/M07 A2982 950 66 -800 200/07G17 RMK AO2
14837KMSN MSN20031221043509512/21/03 04:35:31  5-MIN KMSN 211035Z 21008KT 10SM CLR M02/M07 A2982 960 69 -800 200/08 RMK AO2
14837KMSN MSN20031221044009512/21/03 04:40:31  5-MIN KMSN 211040Z 21009KT 10SM CLR M02/M07 A2983 950 66 -800 210/09 RMK AO2
14837KMSN MSN20031221044509512/21/03 04:45:31  5-MIN KMSN 211045Z 20008KT 10SM CLR M02/M07 A2982 960 66 -800 200/08 RMK AO2
14837KMSN MSN20031221045011212/21/03 04:50:31  5-MIN KMSN 211050Z 20008KT 10SM CLR M02/M07 A2982 950 66 -800 200/08 RMK AO2 SLP110 T10171072
14837KMSN MSN20031221045509512/21/03 04:55:31  5-MIN KMSN 211055Z 20007KT 10SM CLR M02/M07 A2982 960 69 -800 200/07 RMK AO2
14837KMSN MSN20031221050009512/21/03 05:00:31  5-MIN KMSN 211100Z 19009KT 10SM CLR M02/M07 A2982 950 69 -800 190/09 RMK AO2
14837KMSN MSN20031221050509512/21/03 05:05:31  5-MIN KMSN 211105Z 19008KT 10SM CLR M02/M07 A2982 950 69 -800 190/08 RMK AO2
14837KMSN MSN20031221051009512/21/03 05:10:31  5-MIN KMSN 211110Z 19009KT 10SM CLR M02/M07 A2982 960 69 -800 190/09 RMK AO2
14837KMSN MSN20031221051509512/21/03 05:15:31  5-MIN KMSN 211115Z 19009KT 10SM CLR M02/M07 A2982 960 69 -800 190/09 RMK AO2
14837KMSN MSN20031221052009512/21/03 05:20:31  5-MIN KMSN 211120Z 19008KT 10SM CLR M02/M07 A2982 950 69 -800 190/08 RMK AO2
14837KMSN MSN20031221052509512/21/03 05:25:31  5-MIN KMSN 211125Z 19010KT 10SM CLR M02/M07 A2982 960 69 -800 190/10 RMK AO2
14837KMSN MSN20031221053009512/21/03 05:30:31  5-MIN KMSN 211130Z 19010KT 10SM CLR M02/M07 A2982 950 69 -800 190/10 RMK AO2
14837KMSN MSN20031221053509512/21/03 05:35:31  5-MIN KMSN 211135Z 19010KT 10SM CLR M02/M07 A2982 960 69 -800 190/10 RMK AO2
14837KMSN MSN20031221054009512/21/03 05:40:31  5-MIN KMSN 211140Z 19009KT 10SM CLR M02/M07 A2982 960 69 -800 190/09 RMK AO2
14837KMSN MSN20031221054510112/21/03 05:45:31  5-MIN KMSN 211145Z 19011G15KT 10SM CLR M01/M07 A2982 960 66 -700 190/11G15 RMK AO2
14837KMSN MSN20031221055013012/21/03 05:50:31  5-MIN KMSN 211150Z 20009KT 10SM CLR M01/M07 A2982 960 66 -700 200/09 RMK AO2 SLP108 T10111067 11011 21028 58024
14837KMSN MSN20031221055509512/21/03 05:55:31  5-MIN KMSN 211155Z 19011KT 10SM CLR M01/M07 A2982 960 66 -700 190/11 RMK AO2
14837KMSN MSN20031221060009512/21/03 06:00:31  5-MIN KMSN 211200Z 19010KT 10SM CLR M01/M06 A2982 960 69 -700 190/10 RMK AO2
14837KMSN MSN20031221060509512/21/03 06:05:31  5-MIN KMSN 211205Z 19009KT 10SM CLR M01/M06 A2982 960 69 -700 190/09 RMK AO2
14837KMSN MSN20031221061009512/21/03 06:10:31  5-MIN KMSN 211210Z 19009KT 10SM CLR M01/M06 A2982 960 69 -700 190/09 RMK AO2
14837KMSN MSN20031221061509512/21/03 06:15:31  5-MIN KMSN 211215Z 19009KT 10SM CLR M01/M06 A2982 960 69 -700 190/09 RMK AO2
14837KMSN MSN20031221062009512/21/03 06:20:31  5-MIN KMSN 211220Z 19008KT 10SM CLR M01/M06 A2982 960 69 -700 190/08 RMK AO2
14837KMSN MSN20031221062509512/21/03 06:25:31  5-MIN KMSN 211225Z 20010KT 10SM CLR M01/M06 A2982 960 69 -700 200/10 RMK AO2
14837KMSN MSN20031221063009512/21/03 06:30:31  5-MIN KMSN 211230Z 20008KT 10SM CLR M01/M06 A2981 960 69 -700 200/08 RMK AO2
14837KMSN MSN20031221063509512/21/03 06:35:31  5-MIN KMSN 211235Z 20009KT 10SM CLR M01/M06 A2981 960 69 -700 200/09 RMK AO2
14837KMSN MSN20031221064010112/21/03 06:40:31  5-MIN KMSN 211240Z 20010G15KT 10SM CLR M01/M06 A2981 960 72 -700 200/10G15 RMK AO2
14837KMSN MSN20031221064509512/21/03 06:45:31  5-MIN KMSN 211245Z 20009KT 10SM CLR M01/M06 A2981 960 69 -600 200/09 RMK AO2
14837KMSN MSN20031221065011212/21/03 06:50:31  5-MIN KMSN 211250Z 20009KT 10SM CLR M01/M06 A2981 970 69 -600 200/09 RMK AO2 SLP105 T10061056
14837KMSN MSN20031221065509512/21/03 06:55:31  5-MIN KMSN 211255Z 20009KT 10SM CLR M01/M06 A2981 970 69 -600 200/09 RMK AO2
14837KMSN MSN20031221070009512/21/03 07:00:31  5-MIN KMSN 211300Z 20008KT 10SM CLR M01/M06 A2981 970 69 -600 200/08 RMK AO2
14837KMSN MSN20031221070509512/21/03 07:05:31  5-MIN KMSN 211305Z 20009KT 10SM CLR M01/M06 A2981 970 69 -600 200/09 RMK AO2
14837KMSN MSN20031221071009512/21/03 07:10:31  5-MIN KMSN 211310Z 20008KT 10SM CLR M01/M06 A2981 970 69 -600 200/08 RMK AO2
14837KMSN MSN20031221071509512/21/03 07:15:31  5-MIN KMSN 211315Z 20007KT 10SM CLR M01/M06 A2981 970 69 -600 200/07 RMK AO2
14837KMSN MSN20031221072009412/21/03 07:20:31  5-MIN KMSN 211320Z 20009KT 10SM CLR 00/M06 A2981 970 66 -500 200/09 RMK AO2
14837KMSN MSN20031221072509412/21/03 07:25:31  5-MIN KMSN 211325Z 20009KT 10SM CLR 00/M06 A2981 970 66 -500 200/09 RMK AO2
14837KMSN MSN20031221073009412/21/03 07:30:31  5-MIN KMSN 211330Z 20010KT 10SM CLR 00/M05 A2981 970 69 -500 190/10 RMK AO2
14837KMSN MSN20031221073509412/21/03 07:35:31  5-MIN KMSN 211335Z 20010KT 10SM CLR 00/M06 A2981 970 66 -500 190/10 RMK AO2
14837KMSN MSN20031221074009412/21/03 07:40:31  5-MIN KMSN 211340Z 20008KT 10SM CLR 00/M05 A2981 970 69 -500 190/08 RMK AO2
14837KMSN MSN20031221074509412/21/03 07:45:31  5-MIN KMSN 211345Z 20008KT 10SM CLR 00/M05 A2981 970 69 -500 200/08 RMK AO2
14837KMSN MSN20031221075011112/21/03 07:50:31  5-MIN KMSN 211350Z 20010KT 10SM CLR 00/M05 A2981 970 69 -500 200/10 RMK AO2 SLP105 T00001050
14837KMSN MSN20031221075509412/21/03 07:55:31  5-MIN KMSN 211355Z 20009KT 10SM CLR 01/M05 A2981 970 66 -500 200/09 RMK AO2
14837KMSN MSN20031221080009412/21/03 08:00:31  5-MIN KMSN 211400Z 20010KT 10SM CLR 01/M05 A2981 970 66 -500 200/10 RMK AO2
14837KMSN MSN20031221080509412/21/03 08:05:31  5-MIN KMSN 211405Z 20009KT 10SM CLR 01/M05 A2981 970 66 -500 200/09 RMK AO2
14837KMSN MSN20031221081009412/21/03 08:10:31  5-MIN KMSN 211410Z 20010KT 10SM CLR 01/M04 A2981 970 66 -400 200/10 RMK AO2
14837KMSN MSN20031221081509412/21/03 08:15:31  5-MIN KMSN 211415Z 20009KT 10SM CLR 01/M04 A2981 970 66 -400 200/09 RMK AO2
14837KMSN MSN20031221082009412/21/03 08:20:31  5-MIN KMSN 211420Z 20009KT 10SM CLR 01/M04 A2981 970 66 -400 200/09 RMK AO2
14837KMSN MSN20031221082509412/21/03 08:25:31  5-MIN KMSN 211425Z 20011KT 10SM CLR 02/M04 A2980 970 64 -300 200/11 RMK AO2
14837KMSN MSN20031221083009412/21/03 08:30:31  5-MIN KMSN 211430Z 20011KT 10SM CLR 02/M04 A2980 970 64 -300 200/11 RMK AO2
14837KMSN MSN20031221083510012/21/03 08:35:31  5-MIN KMSN 211435Z 21011G16KT 10SM CLR 02/M04 A2980 980 64 -300 210/11G16 RMK AO2
14837KMSN MSN20031221084010012/21/03 08:40:31  5-MIN KMSN 211440Z 20009G18KT 10SM CLR 02/M04 A2980 980 61 -200 200/09G18 RMK AO2
14837KMSN MSN20031221084510012/21/03 08:45:31  5-MIN KMSN 211445Z 20008G18KT 10SM CLR 02/M04 A2980 980 61 -300 200/08G18 RMK AO2
14837KMSN MSN20031221085011712/21/03 08:50:31  5-MIN KMSN 211450Z 20010KT 10SM CLR 02/M04 A2980 980 61 -200 200/10 RMK AO2 SLP101 T00221044 56014
14837KMSN MSN20031221085509412/21/03 08:55:31  5-MIN KMSN 211455Z 20012KT 10SM CLR 02/M04 A2980 970 61 -300 200/12 RMK AO2
14837KMSN MSN20031221090009412/21/03 09:00:31  5-MIN KMSN 211500Z 21008KT 10SM CLR 02/M04 A2980 970 61 -300 210/08 RMK AO2
14837KMSN MSN20031221090511012/21/03 09:05:31  5-MIN KMSN 211505Z 20009KT 180V240 10SM CLR 02/M04 A2981 970 61 -300 200/09 180V240 RMK AO2
14837KMSN MSN20031221091009412/21/03 09:10:31  5-MIN KMSN 211510Z 21010KT 10SM CLR 03/M04 A2981 970 59 -200 210/10 RMK AO2
14837KMSN MSN20031221091509412/21/03 09:15:31  5-MIN KMSN 211515Z 21010KT 10SM CLR 03/M04 A2981 970 59 -200 210/10 RMK AO2
14837KMSN MSN20031221092009412/21/03 09:20:31  5-MIN KMSN 211520Z 21009KT 10SM CLR 03/M04 A2981 970 59 -200 210/09 RMK AO2
14837KMSN MSN20031221092510012/21/03 09:25:31  5-MIN KMSN 211525Z 20008G14KT 10SM CLR 03/M04 A2981 970 61 -200 200/08G14 RMK AO2
14837KMSN MSN20031221093010012/21/03 09:30:31  5-MIN KMSN 211530Z 21011G16KT 10SM CLR 03/M04 A2981 970 59 -100 210/11G16 RMK AO2
14837KMSN MSN20031221093510012/21/03 09:35:31  5-MIN KMSN 211535Z 22011G16KT 10SM CLR 03/M04 A2981 970 59 -100 220/11G16 RMK AO2
14837KMSN MSN20031221094010012/21/03 09:40:31  5-MIN KMSN 211540Z 20011G15KT 10SM CLR 04/M04 A2981 970 57 -100 200/11G15 RMK AO2
14837KMSN MSN20031221094510012/21/03 09:45:31  5-MIN KMSN 211545Z 22011G17KT 10SM CLR 04/M04 A2981 970 57 -100 210/11G17 RMK AO2
14837KMSN MSN20031221095011712/21/03 09:50:31  5-MIN KMSN 211550Z 20010G17KT 10SM CLR 04/M04 A2981 970 57 -100 200/10G17 RMK AO2 SLP103 T00391039
14837KMSN MSN20031221095509712/21/03 09:55:31  5-MIN KMSN 211555Z 21011G16KT 10SM CLR 04/M04 A2980 970 57 0 210/11G16 RMK AO2
14837KMSN MSN20031221100009712/21/03 10:00:31  5-MIN KMSN 211600Z 21012G16KT 10SM CLR 04/M04 A2980 970 55 0 210/12G16 RMK AO2
14837KMSN MSN20031221100509712/21/03 10:05:31  5-MIN KMSN 211605Z 20012G16KT 10SM CLR 04/M04 A2980 980 55 0 200/12G16 RMK AO2
14837KMSN MSN20031221101009112/21/03 10:10:31  5-MIN KMSN 211610Z 21013KT 10SM CLR 04/M04 A2980 980 55 0 210/13 RMK AO2
14837KMSN MSN20031221101509712/21/03 10:15:31  5-MIN KMSN 211615Z 21011G17KT 10SM CLR 04/M04 A2979 980 55 0 210/11G17 RMK AO2
14837KMSN MSN20031221102011512/21/03 10:20:31  5-MIN KMSN 211620Z 20008G18KT 170V250 10SM CLR 05/M04 A2979 980 52 100 200/08G18 170V250 RMK AO2
14837KMSN MSN20031221102509912/21/03 10:25:31  5-MIN KMSN 211625Z 20010G18KT 10SM CLR 05/M03 A2979 990 55 100 190/10G18 RMK AO2
14837KMSN MSN20031221103011512/21/03 10:30:31  5-MIN KMSN 211630Z 21010G18KT 160V230 10SM CLR 05/M03 A2979 990 55 100 200/10G18 160V230 RMK AO2
14837KMSN MSN20031221103509912/21/03 10:35:31  5-MIN KMSN 211635Z 21012G18KT 10SM CLR 05/M03 A2979 990 55 100 210/12G18 RMK AO2
14837KMSN MSN20031221104009312/21/03 10:40:31  5-MIN KMSN 211640Z 21012KT 10SM CLR 05/M04 A2978 990 52 100 210/12 RMK AO2
14837KMSN MSN20031221104509412/21/03 10:45:31  5-MIN KMSN 211645Z 20009KT 10SM CLR 06/M03 A2978 1000 53 100 200/09 RMK AO2
14837KMSN MSN20031221105011112/21/03 10:50:31  5-MIN KMSN 211650Z 20011KT 10SM CLR 06/M03 A2978 1000 53 100 200/11 RMK AO2 SLP091 T00561033
14837KMSN MSN20031221105510012/21/03 10:55:31  5-MIN KMSN 211655Z 20010G15KT 10SM CLR 06/M03 A2977 1000 53 100 200/10G15 RMK AO2
14837KMSN MSN20031221110010012/21/03 11:00:31  5-MIN KMSN 211700Z 21009G16KT 10SM CLR 06/M03 A2977 1000 53 100 210/09G16 RMK AO2
14837KMSN MSN20031221110510012/21/03 11:05:31  5-MIN KMSN 211705Z 21009G16KT 10SM CLR 06/M03 A2977 1010 53 100 210/09G16 RMK AO2
14837KMSN MSN20031221111010012/21/03 11:10:31  5-MIN KMSN 211710Z 21012G17KT 10SM CLR 06/M03 A2977 1000 53 100 210/12G17 RMK AO2
14837KMSN MSN20031221111510012/21/03 11:15:31  5-MIN KMSN 211715Z 21010G17KT 10SM CLR 06/M03 A2977 1010 53 200 210/10G17 RMK AO2
14837KMSN MSN20031221112010012/21/03 11:20:31  5-MIN KMSN 211720Z 21013G18KT 10SM CLR 06/M03 A2977 1010 51 200 210/13G18 RMK AO2
14837KMSN MSN20031221112510012/21/03 11:25:31  5-MIN KMSN 211725Z 21012G18KT 10SM CLR 06/M03 A2976 1010 51 200 210/12G18 RMK AO2
14837KMSN MSN20031221113010012/21/03 11:30:31  5-MIN KMSN 211730Z 22012G18KT 10SM CLR 06/M03 A2976 1010 51 200 220/12G18 RMK AO2
14837KMSN MSN20031221113510012/21/03 11:35:31  5-MIN KMSN 211735Z 20008G18KT 10SM CLR 07/M03 A2976 1010 51 300 200/08G18 RMK AO2
14837KMSN MSN20031221114010012/21/03 11:40:31  5-MIN KMSN 211740Z 21012G17KT 10SM CLR 06/M03 A2976 1010 51 200 210/12G17 RMK AO2
14837KMSN MSN20031221114509412/21/03 11:45:31  5-MIN KMSN 211745Z 22014KT 10SM CLR 06/M03 A2975 1020 51 200 220/14 RMK AO2
14837KMSN MSN20031221115013512/21/03 11:50:31  5-MIN KMSN 211750Z 21015G21KT 10SM CLR 06/M03 A2975 1020 51 200 210/15G21 RMK AO2 SLP083 T00611033 10067 21011 58005
14837KMSN MSN20031221115510012/21/03 11:55:31  5-MIN KMSN 211755Z 21014G21KT 10SM CLR 06/M03 A2975 1020 51 200 210/14G21 RMK AO2
14837KMSN MSN20031221120010012/21/03 12:00:31  5-MIN KMSN 211800Z 21011G20KT 10SM CLR 07/M03 A2975 1030 51 300 210/11G20 RMK AO2
14837KMSN MSN20031221120510012/21/03 12:05:31  5-MIN KMSN 211805Z 21011G19KT 10SM CLR 07/M03 A2974 1030 51 300 210/11G19 RMK AO2
14837KMSN MSN20031221121010012/21/03 12:10:31  5-MIN KMSN 211810Z 21013G18KT 10SM CLR 07/M03 A2974 1030 51 300 210/13G18 RMK AO2
14837KMSN MSN20031221121510012/21/03 12:15:31  5-MIN KMSN 211815Z 21011G19KT 10SM CLR 07/M03 A2974 1040 51 300 210/11G19 RMK AO2
14837KMSN MSN20031221122010012/21/03 12:20:31  5-MIN KMSN 211820Z 21014G19KT 10SM CLR 07/M03 A2973 1040 51 300 210/14G19 RMK AO2
14837KMSN MSN20031221122510012/21/03 12:25:31  5-MIN KMSN 211825Z 21013G21KT 10SM CLR 07/M03 A2973 1040 51 300 210/13G21 RMK AO2
14837KMSN MSN20031221123010012/21/03 12:30:31  5-MIN KMSN 211830Z 21012G21KT 10SM CLR 07/M03 A2973 1040 51 300 210/12G21 RMK AO2
14837KMSN MSN20031221123510012/21/03 12:35:31  5-MIN KMSN 211835Z 21010G17KT 10SM CLR 07/M03 A2973 1050 51 300 200/10G17 RMK AO2
14837KMSN MSN20031221124010012/21/03 12:40:31  5-MIN KMSN 211840Z 20011G17KT 10SM CLR 07/M03 A2972 1050 51 300 200/11G17 RMK AO2
14837KMSN MSN20031221124510012/21/03 12:45:31  5-MIN KMSN 211845Z 20012G17KT 10SM CLR 07/M03 A2971 1060 51 400 200/12G17 RMK AO2
14837KMSN MSN20031221125013312/21/03 12:50:31  5-MIN KMSN 211850Z 21011G18KT 180V250 10SM CLR 07/M02 A2971 1060 53 400 210/11G18 180V250 RMK AO2 SLP068 T00671022
14837KMSN MSN20031221125510012/21/03 12:55:31  5-MIN KMSN 211855Z 22011G18KT 10SM CLR 07/M03 A2971 1060 51 300 220/11G18 RMK AO2
14837KMSN MSN20031221130011012/21/03 13:00:31  5-MIN KMSN 211900Z 21010KT 180V240 10SM CLR 07/M03 A2971 1060 49 400 210/10 180V240 RMK AO2
14837KMSN MSN20031221130509412/21/03 13:05:31  5-MIN KMSN 211905Z 22009KT 10SM CLR 07/M03 A2972 1050 49 400 220/09 RMK AO2
14837KMSN MSN20031221131010012/21/03 13:10:31  5-MIN KMSN 211910Z 22011G17KT 10SM CLR 07/M03 A2971 1060 51 300 210/11G17 RMK AO2
14837KMSN MSN20031221131510012/21/03 13:15:31  5-MIN KMSN 211915Z 22013G17KT 10SM CLR 07/M03 A2972 1050 51 300 220/13G17 RMK AO2
14837KMSN MSN20031221132011612/21/03 13:20:31  5-MIN KMSN 211920Z 22010G17KT 190V250 10SM CLR 07/M02 A2972 1050 51 400 220/10G17 190V250 RMK AO2
14837KMSN MSN20031221132510012/21/03 13:25:31  5-MIN KMSN 211925Z 22011G15KT 10SM CLR 07/M03 A2972 1050 51 300 220/11G15 RMK AO2
14837KMSN MSN20031221133011612/21/03 13:30:31  5-MIN KMSN 211930Z 22012G16KT 190V270 10SM CLR 07/M03 A2972 1050 51 300 220/12G16 190V270 RMK AO2
14837KMSN MSN20031221133511612/21/03 13:35:31  5-MIN KMSN 211935Z 23010G16KT 190V260 10SM CLR 07/M03 A2972 1050 51 300 230/10G16 190V260 RMK AO2
14837KMSN MSN20031221134010012/21/03 13:40:31  5-MIN KMSN 211940Z 22013G19KT 10SM CLR 07/M03 A2972 1050 51 300 220/13G19 RMK AO2
14837KMSN MSN20031221134510012/21/03 13:45:31  5-MIN KMSN 211945Z 22012G19KT 10SM CLR 06/M03 A2972 1050 53 300 220/12G19 RMK AO2
14837KMSN MSN20031221135011712/21/03 13:50:31  5-MIN KMSN 211950Z 23011G19KT 10SM CLR 06/M03 A2972 1050 53 300 230/11G19 RMK AO2 SLP072 T00611028
14837KMSN MSN20031221135510012/21/03 13:55:31  5-MIN KMSN 211955Z 22008G18KT 10SM CLR 06/M02 A2971 1060 55 300 220/08G18 RMK AO2
14837KMSN MSN20031221140010012/21/03 14:00:31  5-MIN KMSN 212000Z 21012G19KT 10SM CLR 07/M03 A2971 1060 51 400 210/12G19 RMK AO2
14837KMSN MSN20031221140511612/21/03 14:05:31  5-MIN KMSN 212005Z 22012G19KT 200V260 10SM CLR 07/M03 A2971 1060 51 300 220/12G19 200V260 RMK AO2
14837KMSN MSN20031221141010012/21/03 14:10:31  5-MIN KMSN 212010Z 21013G19KT 10SM CLR 07/M03 A2971 1060 51 400 210/13G19 RMK AO2
14837KMSN MSN20031221141510012/21/03 14:15:31  5-MIN KMSN 212015Z 22010G18KT 10SM CLR 07/M03 A2971 1060 51 300 220/10G18 RMK AO2
14837KMSN MSN20031221142010012/21/03 14:20:31  5-MIN KMSN 212020Z 21008G18KT 10SM CLR 07/M03 A2971 1060 51 300 210/08G18 RMK AO2
14837KMSN MSN20031221142510012/21/03 14:25:31  5-MIN KMSN 212025Z 21009G18KT 10SM CLR 07/M02 A2971 1060 53 300 210/09G18 RMK AO2
14837KMSN MSN20031221143010012/21/03 14:30:31  5-MIN KMSN 212030Z 23010G16KT 10SM CLR 07/M02 A2971 1060 53 300 220/10G16 RMK AO2
14837KMSN MSN20031221143510012/21/03 14:35:31  5-MIN KMSN 212035Z 21013G19KT 10SM CLR 07/M02 A2972 1050 53 300 210/13G19 RMK AO2
14837KMSN MSN20031221144010012/21/03 14:40:31  5-MIN KMSN 212040Z 21012G21KT 10SM CLR 07/M02 A2971 1060 53 300 210/12G21 RMK AO2
14837KMSN MSN20031221144511612/21/03 14:45:31  5-MIN KMSN 212045Z 22012G21KT 190V250 10SM CLR 06/M02 A2971 1060 55 300 210/12G21 190V250 RMK AO2
14837KMSN MSN20031221145012312/21/03 14:50:31  5-MIN KMSN 212050Z 22011G18KT 10SM CLR 06/M02 A2971 1060 55 300 220/11G18 RMK AO2 SLP070 T00611022 58017
14837KMSN MSN20031221145510012/21/03 14:55:31  5-MIN KMSN 212055Z 22012G18KT 10SM CLR 06/M02 A2972 1050 55 300 220/12G18 RMK AO2
14837KMSN MSN20031221150010012/21/03 15:00:31  5-MIN KMSN 212100Z 23011G18KT 10SM CLR 06/M02 A2972 1050 55 300 230/11G18 RMK AO2
14837KMSN MSN20031221150509412/21/03 15:05:31  5-MIN KMSN 212105Z 22008KT 10SM CLR 06/M02 A2972 1050 55 300 220/08 RMK AO2
14837KMSN MSN20031221151011012/21/03 15:10:31  5-MIN KMSN 212110Z 23007KT 170V260 10SM CLR 06/M02 A2973 1040 55 300 220/07 170V260 RMK AO2
14837KMSN MSN20031221151509412/21/03 15:15:31  5-MIN KMSN 212115Z 22007KT 10SM CLR 06/M02 A2973 1040 55 300 210/07 RMK AO2
14837KMSN MSN20031221152010012/21/03 15:20:31  5-MIN KMSN 212120Z 22010G16KT 10SM CLR 06/M02 A2973 1040 55 300 220/10G16 RMK AO2
14837KMSN MSN20031221152510012/21/03 15:25:31  5-MIN KMSN 212125Z 22009G16KT 10SM CLR 06/M02 A2973 1040 55 300 220/09G16 RMK AO2
14837KMSN MSN20031221153009412/21/03 15:30:31  5-MIN KMSN 212130Z 22008KT 10SM CLR 06/M02 A2973 1040 57 200 220/08 RMK AO2
14837KMSN MSN20031221153509412/21/03 15:35:31  5-MIN KMSN 212135Z 22009KT 10SM CLR 06/M02 A2973 1040 55 300 220/09 RMK AO2
14837KMSN MSN20031221154009412/21/03 15:40:31  5-MIN KMSN 212140Z 23006KT 10SM CLR 06/M02 A2974 1030 57 200 230/06 RMK AO2
14837KMSN MSN20031221154509412/21/03 15:45:31  5-MIN KMSN 212145Z 22009KT 10SM CLR 06/M02 A2974 1030 57 200 220/09 RMK AO2
14837KMSN MSN20031221155011112/21/03 15:50:31  5-MIN KMSN 212150Z 22008KT 10SM CLR 06/M02 A2974 1030 57 200 220/08 RMK AO2 SLP079 T00561022
14837KMSN MSN20031221155509412/21/03 15:55:31  5-MIN KMSN 212155Z 22010KT 10SM CLR 05/M02 A2974 1040 59 100 220/10 RMK AO2
14837KMSN MSN20031221160009412/21/03 16:00:31  5-MIN KMSN 212200Z 22008KT 10SM CLR 06/M02 A2974 1030 57 200 220/08 RMK AO2
14837KMSN MSN20031221160509412/21/03 16:05:31  5-MIN KMSN 212205Z 22008KT 10SM CLR 05/M02 A2973 1040 59 100 220/08 RMK AO2
14837KMSN MSN20031221161009412/21/03 16:10:31  5-MIN KMSN 212210Z 22010KT 10SM CLR 05/M02 A2973 1040 59 100 220/10 RMK AO2
14837KMSN MSN20031221161509412/21/03 16:15:31  5-MIN KMSN 212215Z 21008KT 10SM CLR 05/M02 A2973 1040 59 100 210/08 RMK AO2
14837KMSN MSN20031221162009412/21/03 16:20:31  5-MIN KMSN 212220Z 22008KT 10SM CLR 05/M02 A2973 1040 59 100 220/08 RMK AO2
14837KMSN MSN20031221162509412/21/03 16:25:31  5-MIN KMSN 212225Z 22007KT 10SM CLR 05/M02 A2974 1030 59 100 220/07 RMK AO2
14837KMSN MSN20031221163009412/21/03 16:30:31  5-MIN KMSN 212230Z 22008KT 10SM CLR 05/M02 A2974 1030 59 100 210/08 RMK AO2
14837KMSN MSN20031221163509412/21/03 16:35:31  5-MIN KMSN 212235Z 21009KT 10SM CLR 05/M02 A2974 1030 62 100 210/09 RMK AO2
14837KMSN MSN20031221164009412/21/03 16:40:31  5-MIN KMSN 212240Z 21008KT 10SM CLR 05/M02 A2974 1040 62 100 210/08 RMK AO2
14837KMSN MSN20031221164509412/21/03 16:45:31  5-MIN KMSN 212245Z 21010KT 10SM CLR 05/M02 A2973 1040 62 100 210/10 RMK AO2
14837KMSN MSN20031221165011112/21/03 16:50:31  5-MIN KMSN 212250Z 21008KT 10SM CLR 05/M02 A2973 1040 62 100 200/08 RMK AO2 SLP076 T00501017
14837KMSN MSN20031221165509412/21/03 16:55:31  5-MIN KMSN 212255Z 22009KT 10SM CLR 05/M02 A2974 1030 62 100 220/09 RMK AO2
14837KMSN MSN20031221170009412/21/03 17:00:31  5-MIN KMSN 212300Z 21007KT 10SM CLR 05/M02 A2974 1030 62 100 210/07 RMK AO2
14837KMSN MSN20031221170509412/21/03 17:05:31  5-MIN KMSN 212305Z 21010KT 10SM CLR 05/M02 A2974 1040 62 100 210/10 RMK AO2
14837KMSN MSN20031221171009412/21/03 17:10:31  5-MIN KMSN 212310Z 21009KT 10SM CLR 05/M02 A2974 1030 62 100 210/09 RMK AO2
14837KMSN MSN20031222034509412/22/03 03:45:31  5-MIN KMSN 220945Z 00000KT 10SM CLR 01/M01 A2984 930 85 -400 000/00 RMK AO2
14837KMSN MSN20031222035011112/22/03 03:50:31  5-MIN KMSN 220950Z 00000KT 10SM CLR 01/M02 A2985 930 82 -400 000/00 RMK AO2 SLP116 T00111017
14837KMSN MSN20031222035509412/22/03 03:55:31  5-MIN KMSN 220955Z 00000KT 10SM CLR 01/M02 A2986 920 82 -500 000/00 RMK AO2
14837KMSN MSN20031222040009412/22/03 04:00:31  5-MIN KMSN 221000Z 00000KT 10SM CLR 01/M02 A2986 920 82 -500 000/00 RMK AO2
14837KMSN MSN20031222040509412/22/03 04:05:31  5-MIN KMSN 221005Z VRB03KT 10SM CLR 01/M02 A2986 920 85 -500 VRB/03 RMK AO2
14837KMSN MSN20031222041009412/22/03 04:10:31  5-MIN KMSN 221010Z VRB03KT 10SM CLR 01/M02 A2986 920 85 -500 VRB/03 RMK AO2
14837KMSN MSN20031222041509412/22/03 04:15:31  5-MIN KMSN 221015Z VRB03KT 10SM CLR 01/M02 A2986 920 82 -500 VRB/03 RMK AO2
14837KMSN MSN20031222042009412/22/03 04:20:31  5-MIN KMSN 221020Z 27005KT 10SM CLR 01/M02 A2986 920 85 -500 270/05 RMK AO2
14837KMSN MSN20031222042509412/22/03 04:25:31  5-MIN KMSN 221025Z 28005KT 10SM CLR 01/M02 A2986 920 82 -500 280/05 RMK AO2
14837KMSN MSN20031222043009412/22/03 04:30:31  5-MIN KMSN 221030Z 28006KT 10SM CLR 01/M01 A2985 930 85 -500 270/06 RMK AO2
14837KMSN MSN20031222043509412/22/03 04:35:31  5-MIN KMSN 221035Z 30006KT 10SM CLR 01/M01 A2985 930 85 -400 300/06 RMK AO2
14837KMSN MSN20031222044009412/22/03 04:40:31  5-MIN KMSN 221040Z 31004KT 10SM CLR 01/M01 A2985 930 85 -400 310/04 RMK AO2
14837KMSN MSN20031222044509412/22/03 04:45:31  5-MIN KMSN 221045Z VRB03KT 10SM CLR 01/M01 A2985 930 85 -400 VRB/03 RMK AO2
14837KMSN MSN20031222045011112/22/03 04:50:31  5-MIN KMSN 221050Z 00000KT 10SM CLR 01/M02 A2985 930 82 -500 000/00 RMK AO2 SLP117 T00111017
14837KMSN MSN20031222045509412/22/03 04:55:31  5-MIN KMSN 221055Z VRB03KT 10SM CLR 01/M02 A2986 920 82 -500 VRB/03 RMK AO2
14837KMSN MSN20031222050009412/22/03 05:00:31  5-MIN KMSN 221100Z 00000KT 10SM CLR 01/M02 A2987 910 85 -500 000/00 RMK AO2
14837KMSN MSN20031222050509412/22/03 05:05:31  5-MIN KMSN 221105Z VRB03KT 10SM CLR 01/M02 A2987 910 85 -500 VRB/03 RMK AO2
14837KMSN MSN20031222051009412/22/03 05:10:31  5-MIN KMSN 221110Z VRB04KT 10SM CLR 01/M02 A2987 910 85 -500 VRB/04 RMK AO2
14837KMSN MSN20031222051509412/22/03 05:15:31  5-MIN KMSN 221115Z VRB04KT 10SM CLR 01/M02 A2987 910 85 -500 VRB/04 RMK AO2
14837KMSN MSN20031222052009412/22/03 05:20:31  5-MIN KMSN 221120Z 00000KT 10SM CLR 01/M02 A2987 910 85 -500 000/00 RMK AO2
14837KMSN MSN20031222052509712/22/03 05:25:31  5-MIN KMSN 221125Z VRB03KT 10SM FEW120 01/M02 A2987 910 85 -500 VRB/03 RMK AO2
14837KMSN MSN20031222053009712/22/03 05:30:31  5-MIN KMSN 221130Z 00000KT 10SM FEW120 01/M02 A2988 900 85 -500 000/00 RMK AO2
14837KMSN MSN20031222053509712/22/03 05:35:31  5-MIN KMSN 221135Z VRB03KT 10SM SCT120 01/M02 A2988 900 85 -500 VRB/03 RMK AO2
14837KMSN MSN20031222054009712/22/03 05:40:31  5-MIN KMSN 221140Z 00000KT 10SM BKN120 01/M02 A2988 900 85 -600 000/00 RMK AO2
14837KMSN MSN20031222054509712/22/03 05:45:31  5-MIN KMSN 221145Z VRB03KT 10SM BKN120 01/M02 A2989 890 85 -600 VRB/03 RMK AO2
14837KMSN MSN20031222055013212/22/03 05:50:31  5-MIN KMSN 221150Z VRB03KT 10SM BKN120 01/M02 A2989 890 85 -600 VRB/03 RMK AO2 SLP130 T00061017 10022 20006 51009
14837KMSN MSN20031222055509712/22/03 05:55:31  5-MIN KMSN 221155Z 00000KT 10SM BKN120 01/M02 A2989 890 85 -600 000/00 RMK AO2
14837KMSN MSN20031222060009712/22/03 06:00:31  5-MIN KMSN 221200Z 00000KT 10SM BKN120 01/M02 A2989 900 85 -600 000/00 RMK AO2
14837KMSN MSN20031222060509712/22/03 06:05:31  5-MIN KMSN 221205Z 00000KT 10SM BKN120 01/M02 A2989 890 85 -600 000/00 RMK AO2
14837KMSN MSN20031222061009712/22/03 06:10:31  5-MIN KMSN 221210Z 27003KT 10SM BKN120 01/M02 A2989 890 82 -500 270/03 RMK AO2
14837KMSN MSN20031222061509712/22/03 06:15:31  5-MIN KMSN 221215Z 28004KT 10SM BKN120 01/M02 A2989 890 85 -600 280/04 RMK AO2
14837KMSN MSN20031222062009712/22/03 06:20:31  5-MIN KMSN 221220Z VRB03KT 10SM BKN120 01/M02 A2989 890 85 -600 VRB/03 RMK AO2
14837KMSN MSN20031222062509712/22/03 06:25:31  5-MIN KMSN 221225Z 00000KT 10SM OVC120 01/M02 A2989 890 85 -600 000/00 RMK AO2
14837KMSN MSN20031222063009412/22/03 06:30:31  5-MIN KMSN 221230Z 00000KT 10SM CLR 01/M02 A2990 890 85 -600 000/00 RMK AO2
14837KMSN MSN20031222063509712/22/03 06:35:31  5-MIN KMSN 221235Z 00000KT 10SM BKN120 01/M02 A2990 890 85 -600 000/00 RMK AO2
14837KMSN MSN20031222064009712/22/03 06:40:31  5-MIN KMSN 221240Z 00000KT 10SM BKN120 01/M02 A2990 880 85 -600 000/00 RMK AO2
14837KMSN MSN20031222064509712/22/03 06:45:31  5-MIN KMSN 221245Z 00000KT 10SM BKN120 01/M02 A2989 890 85 -600 000/00 RMK AO2
14837KMSN MSN20031222065011412/22/03 06:50:31  5-MIN KMSN 221250Z 00000KT 10SM BKN120 01/M02 A2989 890 82 -500 000/00 RMK AO2 SLP130 T00111017
14837KMSN MSN20031222065509712/22/03 06:55:31  5-MIN KMSN 221255Z 29003KT 10SM BKN120 01/M02 A2989 890 82 -500 280/03 RMK AO2
14837KMSN MSN20031222070009712/22/03 07:00:31  5-MIN KMSN 221300Z 28003KT 10SM SCT120 01/M02 A2989 890 85 -600 280/03 RMK AO2
14837KMSN MSN20031222070509712/22/03 07:05:31  5-MIN KMSN 221305Z 00000KT 10SM SCT120 01/M02 A2989 890 85 -600 000/00 RMK AO2
14837KMSN MSN20031222071009712/22/03 07:10:31  5-MIN KMSN 221310Z VRB03KT 10SM FEW120 01/M02 A2989 890 85 -600 VRB/03 RMK AO2
14837KMSN MSN20031222071509712/22/03 07:15:31  5-MIN KMSN 221315Z 00000KT 10SM FEW120 01/M02 A2989 890 85 -600 000/00 RMK AO2
14837KMSN MSN20031222072009412/22/03 07:20:31  5-MIN KMSN 221320Z 00000KT 10SM CLR 01/M02 A2989 890 85 -600 000/00 RMK AO2
14837KMSN MSN20031222072509412/22/03 07:25:31  5-MIN KMSN 221325Z 00000KT 10SM CLR 01/M02 A2990 890 85 -600 000/00 RMK AO2
14837KMSN MSN20031222073009412/22/03 07:30:31  5-MIN KMSN 221330Z 00000KT 10SM CLR 01/M02 A2990 880 85 -600 000/00 RMK AO2
14837KMSN MSN20031222073509412/22/03 07:35:31  5-MIN KMSN 221335Z 00000KT 10SM CLR 01/M02 A2990 880 85 -600 000/00 RMK AO2
14837KMSN MSN20031222074009312/22/03 07:40:31  5-MIN KMSN 221340Z 00000KT 9SM CLR 01/M02 A2990 880 85 -600 000/00 RMK AO2
14837KMSN MSN20031222074509312/22/03 07:45:31  5-MIN KMSN 221345Z 00000KT 9SM CLR 01/M02 A2990 880 85 -600 000/00 RMK AO2
14837KMSN MSN20031222075011012/22/03 07:50:31  5-MIN KMSN 221350Z 00000KT 9SM CLR 01/M02 A2991 880 85 -600 000/00 RMK AO2 SLP135 T00061017
14837KMSN MSN20031222075509312/22/03 07:55:31  5-MIN KMSN 221355Z 00000KT 9SM CLR 01/M02 A2991 880 85 -600 000/00 RMK AO2
14837KMSN MSN20031222080009312/22/03 08:00:31  5-MIN KMSN 221400Z 00000KT 9SM CLR 01/M02 A2990 880 85 -600 000/00 RMK AO2
14837KMSN MSN20031222080509312/22/03 08:05:31  5-MIN KMSN 221405Z 00000KT 9SM CLR 01/M02 A2991 880 85 -600 000/00 RMK AO2
14837KMSN MSN20031222081009312/22/03 08:10:31  5-MIN KMSN 221410Z VRB03KT 8SM CLR 01/M02 A2991 880 85 -600 VRB/03 RMK AO2
14837KMSN MSN20031222081509312/22/03 08:15:31  5-MIN KMSN 221415Z 27003KT 8SM CLR 01/M02 A2991 880 85 -600 270/03 RMK AO2
14837KMSN MSN20031222082009312/22/03 08:20:31  5-MIN KMSN 221420Z 00000KT 8SM CLR 01/M02 A2991 880 85 -600 000/00 RMK AO2
14837KMSN MSN20031222082509312/22/03 08:25:31  5-MIN KMSN 221425Z 00000KT 9SM CLR 01/M02 A2991 870 85 -600 000/00 RMK AO2
14837KMSN MSN20031222083009312/22/03 08:30:31  5-MIN KMSN 221430Z 25003KT 9SM CLR 01/M02 A2991 870 85 -600 250/03 RMK AO2
14837KMSN MSN20031222083509312/22/03 08:35:31  5-MIN KMSN 221435Z 00000KT 9SM CLR 01/M02 A2991 870 85 -600 000/00 RMK AO2
14837KMSN MSN20031222084009312/22/03 08:40:31  5-MIN KMSN 221440Z 24003KT 9SM CLR 01/M02 A2991 870 85 -600 240/03 RMK AO2
14837KMSN MSN20031222084509312/22/03 08:45:31  5-MIN KMSN 221445Z 23004KT 9SM CLR 01/M02 A2991 870 85 -600 230/04 RMK AO2
14837KMSN MSN20031222085011612/22/03 08:50:31  5-MIN KMSN 221450Z 23003KT 8SM CLR 01/M02 A2991 870 85 -600 230/03 RMK AO2 SLP138 T00061017 53017
14837KMSN MSN20031222085509612/22/03 08:55:31  5-MIN KMSN 221455Z 23004KT 8SM FEW120 01/M02 A2992 870 85 -600 220/04 RMK AO2
14837KMSN MSN20031222090009612/22/03 09:00:31  5-MIN KMSN 221500Z 23003KT 8SM FEW120 01/M02 A2992 870 85 -600 230/03 RMK AO2
14837KMSN MSN20031222090509612/22/03 09:05:31  5-MIN KMSN 221505Z 24003KT 8SM FEW120 01/M01 A2992 860 85 -500 240/03 RMK AO2
14837KMSN MSN20031222091009612/22/03 09:10:31  5-MIN KMSN 221510Z 22003KT 9SM FEW120 01/M01 A2993 860 85 -500 220/03 RMK AO2
14837KMSN MSN20031222091509612/22/03 09:15:31  5-MIN KMSN 221515Z 00000KT 9SM FEW120 01/M01 A2992 860 85 -500 000/00 RMK AO2
14837KMSN MSN20031222092009612/22/03 09:20:31  5-MIN KMSN 221520Z 23003KT 9SM FEW120 01/M01 A2992 860 85 -500 230/03 RMK AO2
14837KMSN MSN20031222092509612/22/03 09:25:31  5-MIN KMSN 221525Z VRB04KT 9SM FEW120 01/M01 A2992 860 85 -500 VRB/04 RMK AO2
14837KMSN MSN20031222093009612/22/03 09:30:31  5-MIN KMSN 221530Z 24004KT 9SM FEW120 01/M01 A2993 860 85 -500 240/04 RMK AO2
14837KMSN MSN20031222093509612/22/03 09:35:31  5-MIN KMSN 221535Z 23005KT 9SM FEW120 02/M01 A2993 860 82 -500 230/05 RMK AO2
14837KMSN MSN20031222094009612/22/03 09:40:31  5-MIN KMSN 221540Z 23004KT 9SM FEW120 02/M01 A2993 860 82 -500 230/04 RMK AO2
14837KMSN MSN20031222094509712/22/03 09:45:31  5-MIN KMSN 221545Z VRB03KT 10SM FEW120 02/M01 A2993 850 82 -500 VRB/03 RMK AO2
14837KMSN MSN20031222095011412/22/03 09:50:31  5-MIN KMSN 221550Z VRB04KT 10SM FEW120 02/M01 A2993 850 82 -500 VRB/04 RMK AO2 SLP143 T00171011
14837KMSN MSN20031222095509412/22/03 09:55:31  5-MIN KMSN 221555Z 24005KT 10SM CLR 02/M01 A2993 850 82 -500 240/05 RMK AO2
14837KMSN MSN20031222100009412/22/03 10:00:31  5-MIN KMSN 221600Z VRB04KT 10SM CLR 02/M01 A2993 860 82 -500 VRB/04 RMK AO2
14837KMSN MSN20031222100509412/22/03 10:05:31  5-MIN KMSN 221605Z VRB03KT 10SM CLR 02/M01 A2993 860 78 -400 VRB/03 RMK AO2
14837KMSN MSN20031222101009412/22/03 10:10:31  5-MIN KMSN 221610Z 24003KT 10SM CLR 02/M01 A2993 860 78 -400 240/03 RMK AO2
14837KMSN MSN20031222101509412/22/03 10:15:31  5-MIN KMSN 221615Z 23004KT 10SM CLR 02/M01 A2993 860 78 -400 230/04 RMK AO2
14837KMSN MSN20031222102009412/22/03 10:20:31  5-MIN KMSN 221620Z 26005KT 10SM CLR 02/M01 A2993 860 78 -400 250/05 RMK AO2
14837KMSN MSN20031222102509412/22/03 10:25:31  5-MIN KMSN 221625Z 27004KT 10SM CLR 02/M01 A2992 860 78 -400 270/04 RMK AO2
14837KMSN MSN20031222103009412/22/03 10:30:31  5-MIN KMSN 221630Z VRB05KT 10SM CLR 02/M01 A2992 860 78 -400 VRB/05 RMK AO2
14837KMSN MSN20031222103509412/22/03 10:35:31  5-MIN KMSN 221635Z 23004KT 10SM CLR 02/M02 A2992 870 75 -400 230/04 RMK AO2
14837KMSN MSN20031222104009412/22/03 10:40:31  5-MIN KMSN 221640Z 24005KT 10SM CLR 03/M02 A2992 870 72 -300 240/05 RMK AO2
14837KMSN MSN20031222104509412/22/03 10:45:31  5-MIN KMSN 221645Z 22006KT 10SM CLR 03/M02 A2991 870 72 -300 210/06 RMK AO2
14837KMSN MSN20031222105011112/22/03 10:50:31  5-MIN KMSN 221650Z 25005KT 10SM CLR 03/M02 A2991 870 72 -300 250/05 RMK AO2 SLP137 T00281017
14837KMSN MSN20031222105509412/22/03 10:55:31  5-MIN KMSN 221655Z 24006KT 10SM CLR 03/M02 A2991 870 72 -300 230/06 RMK AO2
14837KMSN MSN20031222110009412/22/03 11:00:31  5-MIN KMSN 221700Z 24005KT 10SM CLR 03/M02 A2991 880 72 -300 230/05 RMK AO2
14837KMSN MSN20031222110509412/22/03 11:05:31  5-MIN KMSN 221705Z 25005KT 10SM CLR 03/M02 A2991 880 70 -200 250/05 RMK AO2
14837KMSN MSN20031222111009412/22/03 11:10:31  5-MIN KMSN 221710Z 26006KT 10SM CLR 03/M02 A2991 880 70 -200 260/06 RMK AO2
14837KMSN MSN20031222111509412/22/03 11:15:31  5-MIN KMSN 221715Z 23005KT 10SM CLR 03/M02 A2991 880 70 -200 230/05 RMK AO2
14837KMSN MSN20031222112009412/22/03 11:20:31  5-MIN KMSN 221720Z 26005KT 10SM CLR 03/M01 A2990 880 72 -200 260/05 RMK AO2
14837KMSN MSN20031222112509412/22/03 11:25:31  5-MIN KMSN 221725Z VRB06KT 10SM CLR 04/M02 A2990 880 67 -200 VRB/06 RMK AO2
14837KMSN MSN20031222113009412/22/03 11:30:31  5-MIN KMSN 221730Z 23006KT 10SM CLR 04/M02 A2990 880 67 -200 230/06 RMK AO2
14837KMSN MSN20031222113509412/22/03 11:35:31  5-MIN KMSN 221735Z 27004KT 10SM CLR 04/M01 A2990 880 70 -200 260/04 RMK AO2
14837KMSN MSN20031222114009412/22/03 11:40:31  5-MIN KMSN 221740Z 23005KT 10SM CLR 04/M01 A2990 880 67 -100 230/05 RMK AO2
14837KMSN MSN20031222114509412/22/03 11:45:31  5-MIN KMSN 221745Z VRB05KT 10SM CLR 04/M01 A2990 890 67 -100 VRB/05 RMK AO2
14837KMSN MSN20031222115012912/22/03 11:50:31  5-MIN KMSN 221750Z 26007KT 10SM CLR 04/M02 A2990 890 64 -100 250/07 RMK AO2 SLP131 T00441017 10044 20000 53008
14837KMSN MSN20031222115509412/22/03 11:55:31  5-MIN KMSN 221755Z 25005KT 10SM CLR 04/M02 A2990 890 64 -100 250/05 RMK AO2
14837KMSN MSN20031222120009412/22/03 12:00:31  5-MIN KMSN 221800Z VRB06KT 10SM CLR 04/M02 A2990 890 64 -100 VRB/06 RMK AO2
14837KMSN MSN20031222120509112/22/03 12:05:31  5-MIN KMSN 221805Z 26006KT 10SM CLR 05/M02 A2990 880 62 0 260/06 RMK AO2
14837KMSN MSN20031222121009112/22/03 12:10:31  5-MIN KMSN 221810Z VRB04KT 10SM CLR 05/M01 A2990 880 64 0 VRB/04 RMK AO2
14837KMSN MSN20031222121509112/22/03 12:15:31  5-MIN KMSN 221815Z VRB04KT 10SM CLR 06/M01 A2990 890 62 0 VRB/04 RMK AO2
14837KMSN MSN20031222122009112/22/03 12:20:31  5-MIN KMSN 221820Z VRB04KT 10SM CLR 06/M01 A2990 890 62 0 VRB/04 RMK AO2
14837KMSN MSN20031222122509112/22/03 12:25:31  5-MIN KMSN 221825Z VRB06KT 10SM CLR 05/M02 A2989 890 62 0 VRB/06 RMK AO2
14837KMSN MSN20031222123009112/22/03 12:30:31  5-MIN KMSN 221830Z 26005KT 10SM CLR 06/M02 A2989 890 59 0 260/05 RMK AO2
14837KMSN MSN20031222123509112/22/03 12:35:31  5-MIN KMSN 221835Z 26006KT 10SM CLR 06/M02 A2989 890 59 0 260/06 RMK AO2
14837KMSN MSN20031222124009112/22/03 12:40:31  5-MIN KMSN 221840Z 27006KT 10SM CLR 06/M02 A2989 890 59 0 270/06 RMK AO2
14837KMSN MSN20031222124509112/22/03 12:45:31  5-MIN KMSN 221845Z 25007KT 10SM CLR 06/M02 A2989 890 59 0 250/07 RMK AO2
14837KMSN MSN20031222125011012/22/03 12:50:31  5-MIN KMSN 221850Z VRB06KT 10SM CLR 06/M02 A2990 890 57 100 VRB/06 RMK AO2 SLP131 T00611017
14837KMSN MSN20031222125509312/22/03 12:55:31  5-MIN KMSN 221855Z 23006KT 10SM CLR 06/M02 A2989 890 57 100 230/06 RMK AO2
14837KMSN MSN20031222130009312/22/03 13:00:31  5-MIN KMSN 221900Z VRB06KT 10SM CLR 06/M02 A2989 900 57 100 VRB/06 RMK AO2
14837KMSN MSN20031222130509312/22/03 13:05:31  5-MIN KMSN 221905Z VRB05KT 10SM CLR 06/M02 A2989 900 57 100 VRB/05 RMK AO2
14837KMSN MSN20031222131009312/22/03 13:10:31  5-MIN KMSN 221910Z VRB04KT 10SM CLR 06/M02 A2989 900 57 100 VRB/04 RMK AO2
14837KMSN MSN20031222131509312/22/03 13:15:31  5-MIN KMSN 221915Z 24005KT 10SM CLR 06/M02 A2988 900 57 100 240/05 RMK AO2
14837KMSN MSN20031222132009312/22/03 13:20:31  5-MIN KMSN 221920Z 26005KT 10SM CLR 06/M02 A2988 900 57 100 260/05 RMK AO2
14837KMSN MSN20031222132509312/22/03 13:25:31  5-MIN KMSN 221925Z 26005KT 10SM CLR 06/M02 A2988 900 57 100 260/05 RMK AO2
14837KMSN MSN20031222133009312/22/03 13:30:31  5-MIN KMSN 221930Z 27006KT 10SM CLR 06/M02 A2988 900 57 100 270/06 RMK AO2
14837KMSN MSN20031222133509312/22/03 13:35:31  5-MIN KMSN 221935Z 28006KT 10SM CLR 07/M02 A2988 900 55 200 280/06 RMK AO2
14837KMSN MSN20031222134009312/22/03 13:40:31  5-MIN KMSN 221940Z 28004KT 10SM CLR 07/M02 A2988 900 53 200 280/04 RMK AO2
14837KMSN MSN20031222134509312/22/03 13:45:31  5-MIN KMSN 221945Z VRB03KT 10SM CLR 07/M02 A2988 900 53 200 VRB/03 RMK AO2
14837KMSN MSN20031222135011012/22/03 13:50:31  5-MIN KMSN 221950Z VRB05KT 10SM CLR 06/M02 A2988 900 55 100 VRB/05 RMK AO2 SLP125 T00611022
14837KMSN MSN20031222135509312/22/03 13:55:31  5-MIN KMSN 221955Z VRB03KT 10SM CLR 06/M02 A2988 900 55 100 VRB/03 RMK AO2
14837KMSN MSN20031222140009312/22/03 14:00:31  5-MIN KMSN 222000Z 26004KT 10SM CLR 06/M02 A2988 900 55 100 260/04 RMK AO2
14837KMSN MSN20031222140509312/22/03 14:05:31  5-MIN KMSN 222005Z 27004KT 10SM CLR 06/M02 A2988 900 55 100 270/04 RMK AO2
14837KMSN MSN20031222141009312/22/03 14:10:31  5-MIN KMSN 222010Z 27003KT 10SM CLR 06/M02 A2988 900 55 100 270/03 RMK AO2
14837KMSN MSN20031222141509312/22/03 14:15:31  5-MIN KMSN 222015Z 27003KT 10SM CLR 07/M02 A2988 900 53 200 260/03 RMK AO2
14837KMSN MSN20031222142009612/22/03 14:20:31  5-MIN KMSN 222020Z 27005KT 10SM FEW100 07/M02 A2988 900 53 200 270/05 RMK AO2
14837KMSN MSN20031222142509612/22/03 14:25:31  5-MIN KMSN 222025Z 27005KT 10SM SCT100 07/M02 A2988 900 53 200 270/05 RMK AO2
14837KMSN MSN20031222143009612/22/03 14:30:31  5-MIN KMSN 222030Z 25004KT 10SM SCT100 07/M02 A2988 900 53 100 250/04 RMK AO2
14837KMSN MSN20031222143509612/22/03 14:35:31  5-MIN KMSN 222035Z 27004KT 10SM FEW100 07/M02 A2988 900 53 100 270/04 RMK AO2
14837KMSN MSN20031222144009612/22/03 14:40:31  5-MIN KMSN 222040Z 27006KT 10SM FEW100 07/M03 A2989 900 51 100 270/06 RMK AO2
14837KMSN MSN20031222144509612/22/03 14:45:31  5-MIN KMSN 222045Z 27004KT 10SM FEW100 07/M03 A2989 890 51 100 270/04 RMK AO2
14837KMSN MSN20031222145011912/22/03 14:50:31  5-MIN KMSN 222050Z 26004KT 10SM FEW100 06/M03 A2989 890 53 100 250/04 RMK AO2 SLP130 T00611028 58006
14837KMSN MSN20031222145509612/22/03 14:55:31  5-MIN KMSN 222055Z 27005KT 10SM SCT110 06/M02 A2989 890 55 100 270/05 RMK AO2
14837KMSN MSN20031222150009612/22/03 15:00:31  5-MIN KMSN 222100Z VRB04KT 10SM SCT110 06/M02 A2989 890 55 100 VRB/04 RMK AO2
14837KMSN MSN20031222150509612/22/03 15:05:31  5-MIN KMSN 222105Z 29004KT 10SM SCT110 06/M02 A2989 890 55 100 290/04 RMK AO2
14837KMSN MSN20031222151009412/22/03 15:10:31  5-MIN KMSN 222110Z 28004KT 10SM SCT110 06/M02 A2989 890 57 0 280/04 RMK AO2
14837KMSN MSN20031222151509412/22/03 15:15:31  5-MIN KMSN 222115Z 27003KT 10SM SCT110 06/M02 A2989 890 57 0 270/03 RMK AO2
14837KMSN MSN20031222152009412/22/03 15:20:31  5-MIN KMSN 222120Z VRB03KT 10SM SCT110 06/M03 A2989 890 55 0 VRB/03 RMK AO2
14837KMSN MSN20031222152509412/22/03 15:25:31  5-MIN KMSN 222125Z 29003KT 10SM SCT110 06/M02 A2989 890 57 0 290/03 RMK AO2
14837KMSN MSN20031222153009412/22/03 15:30:31  5-MIN KMSN 222130Z VRB03KT 10SM SCT120 06/M02 A2990 890 57 0 VRB/03 RMK AO2
14837KMSN MSN20031222153509412/22/03 15:35:31  5-MIN KMSN 222135Z 27003KT 10SM SCT120 06/M02 A2990 880 57 0 270/03 RMK AO2
14837KMSN MSN20031222154009412/22/03 15:40:31  5-MIN KMSN 222140Z 00000KT 10SM SCT120 06/M02 A2990 880 57 0 000/00 RMK AO2
14837KMSN MSN20031222154509412/22/03 15:45:31  5-MIN KMSN 222145Z VRB03KT 10SM FEW120 05/M02 A2990 880 59 0 VRB/03 RMK AO2
14837KMSN MSN20031222155011112/22/03 15:50:31  5-MIN KMSN 222150Z 00000KT 10SM FEW120 05/M02 A2990 880 59 0 000/00 RMK AO2 SLP133 T00501022
14837KMSN MSN20031222155509412/22/03 15:55:31  5-MIN KMSN 222155Z 00000KT 10SM SCT110 05/M02 A2990 880 59 0 000/00 RMK AO2
14837KMSN MSN20031222160009412/22/03 16:00:31  5-MIN KMSN 222200Z 00000KT 10SM SCT110 05/M02 A2990 880 59 0 000/00 RMK AO2
14837KMSN MSN20031222160509412/22/03 16:05:31  5-MIN KMSN 222205Z 00000KT 10SM SCT100 05/M02 A2990 880 59 0 000/00 RMK AO2
14837KMSN MSN20031222161009712/22/03 16:10:31  5-MIN KMSN 222210Z 00000KT 10SM SCT110 04/M02 A2990 880 64 -100 000/00 RMK AO2
14837KMSN MSN20031222161509712/22/03 16:15:31  5-MIN KMSN 222215Z 00000KT 10SM BKN110 04/M01 A2990 880 67 -100 000/00 RMK AO2
14837KMSN MSN20031222162009712/22/03 16:20:31  5-MIN KMSN 222220Z 00000KT 10SM BKN110 04/M01 A2990 880 67 -100 000/00 RMK AO2
14837KMSN MSN20031222162509712/22/03 16:25:31  5-MIN KMSN 222225Z VRB03KT 10SM BKN120 04/M01 A2990 880 67 -100 VRB/03 RMK AO2
14837KMSN MSN20031222163009712/22/03 16:30:31  5-MIN KMSN 222230Z 21003KT 10SM BKN120 04/M01 A2990 880 70 -200 210/03 RMK AO2
14837KMSN MSN20031222163509712/22/03 16:35:31  5-MIN KMSN 222235Z 22005KT 10SM OVC120 04/M01 A2990 880 70 -200 220/05 RMK AO2
14837KMSN MSN20031222164009712/22/03 16:40:31  5-MIN KMSN 222240Z 21005KT 10SM BKN120 04/M01 A2990 880 70 -200 210/05 RMK AO2
14837KMSN MSN20031222164509712/22/03 16:45:31  5-MIN KMSN 222245Z 21005KT 10SM BKN120 04/M01 A2990 880 70 -200 210/05 RMK AO2
14837KMSN MSN20031222165011412/22/03 16:50:31  5-MIN KMSN 222250Z 21006KT 10SM BKN120 04/M01 A2990 880 70 -200 210/06 RMK AO2 SLP132 T00391011
14837KMSN MSN20031222165509712/22/03 16:55:31  5-MIN KMSN 222255Z VRB06KT 10SM BKN110 04/M01 A2990 880 70 -200 VRB/06 RMK AO2
14837KMSN MSN20031222170009712/22/03 17:00:31  5-MIN KMSN 222300Z 23004KT 10SM BKN110 04/M01 A2990 880 70 -200 220/04 RMK AO2
14837KMSN MSN20031222170509712/22/03 17:05:31  5-MIN KMSN 222305Z VRB05KT 10SM BKN110 04/M01 A2990 890 70 -200 VRB/05 RMK AO2
14837KMSN MSN20031222171009712/22/03 17:10:31  5-MIN KMSN 222310Z 23004KT 10SM BKN110 04/M01 A2990 890 70 -200 230/04 RMK AO2
14837KMSN MSN20031222171509712/22/03 17:15:31  5-MIN KMSN 222315Z VRB04KT 10SM BKN110 03/M01 A2989 890 72 -200 VRB/04 RMK AO2
14837KMSN MSN20031222172009712/22/03 17:20:31  5-MIN KMSN 222320Z VRB04KT 10SM BKN110 03/M01 A2989 890 72 -200 VRB/04 RMK AO2
14837KMSN MSN20031222172509712/22/03 17:25:31  5-MIN KMSN 222325Z VRB05KT 10SM SCT100 03/M01 A2989 890 72 -200 VRB/05 RMK AO2
14837KMSN MSN20031222173009712/22/03 17:30:31  5-MIN KMSN 222330Z 23005KT 10SM SCT100 03/M01 A2989 900 72 -200 230/05 RMK AO2
14837KMSN MSN20031222173509712/22/03 17:35:31  5-MIN KMSN 222335Z 23005KT 10SM SCT100 03/M01 A2988 900 72 -200 230/05 RMK AO2
14837KMSN MSN20031222174009712/22/03 17:40:31  5-MIN KMSN 222340Z 22004KT 10SM SCT100 03/M01 A2988 900 72 -200 220/04 RMK AO2
14837KMSN MSN20031222174509712/22/03 17:45:31  5-MIN KMSN 222345Z 22004KT 10SM SCT100 03/M01 A2988 900 75 -300 220/04 RMK AO2
14837KMSN MSN20031222175013212/22/03 17:50:31  5-MIN KMSN 222350Z 21004KT 10SM SCT100 03/M01 A2988 900 72 -200 210/04 RMK AO2 SLP126 T00331011 10067 20028 55001
14837KMSN MSN20031222175509412/22/03 17:55:31  5-MIN KMSN 222355Z 21004KT 10SM CLR 03/M01 A2988 910 72 -200 210/04 RMK AO2
14837KMSN MSN20031222180009712/22/03 18:00:31  5-MIN KMSN 230000Z 22003KT 10SM FEW100 03/M01 A2987 910 72 -200 210/03 RMK AO2
14837KMSN MSN20031222180509712/22/03 18:05:31  5-MIN KMSN 230005Z 00000KT 10SM FEW100 03/M01 A2987 910 75 -300 000/00 RMK AO2
14837KMSN MSN20031222181009712/22/03 18:10:31  5-MIN KMSN 230010Z 22003KT 10SM FEW100 03/M01 A2987 910 75 -300 220/03 RMK AO2
14837KMSN MSN20031222181509712/22/03 18:15:31  5-MIN KMSN 230015Z 22003KT 10SM FEW100 03/M01 A2986 920 75 -300 220/03 RMK AO2
14837KMSN MSN20031222182009712/22/03 18:20:31  5-MIN KMSN 230020Z 22004KT 10SM FEW100 03/M01 A2986 920 72 -200 210/04 RMK AO2
14837KMSN MSN20031222182509712/22/03 18:25:31  5-MIN KMSN 230025Z 21005KT 10SM FEW100 03/M01 A2986 920 72 -200 210/05 RMK AO2
14837KMSN MSN20031222183009712/22/03 18:30:31  5-MIN KMSN 230030Z 22005KT 10SM FEW100 03/M01 A2986 920 72 -200 210/05 RMK AO2
14837KMSN MSN20031222183509712/22/03 18:35:31  5-MIN KMSN 230035Z 22005KT 10SM OVC100 03/M01 A2986 920 72 -200 220/05 RMK AO2
14837KMSN MSN20031222184009712/22/03 18:40:31  5-MIN KMSN 230040Z 22005KT 10SM OVC100 03/M01 A2986 920 72 -200 210/05 RMK AO2
14837KMSN MSN20031222184509712/22/03 18:45:31  5-MIN KMSN 230045Z 22006KT 10SM OVC100 03/M01 A2986 920 72 -200 220/06 RMK AO2
14837KMSN MSN20031222185011412/22/03 18:50:31  5-MIN KMSN 230050Z 22004KT 10SM OVC100 03/M01 A2986 920 72 -200 220/04 RMK AO2 SLP118 T00331011
14837KMSN MSN20031222185510412/22/03 18:55:31  5-MIN KMSN 230055Z 22006KT 10SM BKN100 OVC110 03/M01 A2986 920 72 -200 220/06 RMK AO2
14837KMSN MSN20031222190010412/22/03 19:00:31  5-MIN KMSN 230100Z 22006KT 10SM BKN095 OVC110 03/M01 A2986 920 72 -200 220/06 RMK AO2
14837KMSN MSN20031222190510412/22/03 19:05:31  5-MIN KMSN 230105Z 22005KT 10SM BKN095 OVC110 03/M01 A2986 920 72 -200 220/05 RMK AO2
14837KMSN MSN20031222191009712/22/03 19:10:31  5-MIN KMSN 230110Z 22004KT 10SM OVC100 03/M01 A2986 920 75 -200 220/04 RMK AO2
14837KMSN MSN20031222191509712/22/03 19:15:31  5-MIN KMSN 230115Z 21005KT 10SM OVC100 03/M01 A2985 930 72 -200 210/05 RMK AO2
14837KMSN MSN20031222192010412/22/03 19:20:31  5-MIN KMSN 230120Z 22006KT 10SM BKN090 OVC110 03/M01 A2985 930 72 -200 220/06 RMK AO2
14837KMSN MSN20031222192510412/22/03 19:25:31  5-MIN KMSN 230125Z 22005KT 10SM BKN090 OVC110 03/M01 A2985 930 72 -200 220/05 RMK AO2
14837KMSN MSN20031222193010412/22/03 19:30:31  5-MIN KMSN 230130Z 21004KT 10SM BKN090 OVC110 03/M01 A2985 930 72 -200 210/04 RMK AO2
14837KMSN MSN20031222193509712/22/03 19:35:31  5-MIN KMSN 230135Z 20005KT 10SM OVC090 03/M01 A2985 930 72 -200 200/05 RMK AO2
14837KMSN MSN20031222194009712/22/03 19:40:31  5-MIN KMSN 230140Z 20006KT 10SM OVC090 03/M01 A2984 940 72 -200 200/06 RMK AO2
14837KMSN MSN20031222194509712/22/03 19:45:31  5-MIN KMSN 230145Z 20005KT 10SM OVC090 03/M01 A2984 940 72 -200 200/05 RMK AO2
14837KMSN MSN20031222195011412/22/03 19:50:31  5-MIN KMSN 230150Z 21005KT 10SM OVC085 03/M01 A2984 930 72 -200 210/05 RMK AO2 SLP114 T00331011
14837KMSN MSN20031222195510412/22/03 19:55:31  5-MIN KMSN 230155Z 24006KT 10SM SCT070 OVC090 03/M01 A2985 930 72 -200 240/06 RMK AO2
14837KMSN MSN20031222200010412/22/03 20:00:31  5-MIN KMSN 230200Z 23005KT 10SM BKN065 OVC090 03/M01 A2985 930 72 -200 230/05 RMK AO2
14837KMSN MSN20031222200510412/22/03 20:05:31  5-MIN KMSN 230205Z 22005KT 10SM BKN070 OVC090 03/M01 A2985 930 72 -200 220/05 RMK AO2
14837KMSN MSN20031222201010412/22/03 20:10:31  5-MIN KMSN 230210Z 23006KT 10SM BKN070 OVC090 03/M01 A2985 930 72 -200 230/06 RMK AO2
14837KMSN MSN20031222201510412/22/03 20:15:31  5-MIN KMSN 230215Z 23005KT 10SM BKN070 OVC090 03/M01 A2985 930 72 -200 230/05 RMK AO2
14837KMSN MSN20031222202010412/22/03 20:20:31  5-MIN KMSN 230220Z 22006KT 10SM BKN070 OVC095 03/M01 A2985 930 72 -200 220/06 RMK AO2
14837KMSN MSN20031222202510412/22/03 20:25:31  5-MIN KMSN 230225Z 23006KT 10SM BKN075 OVC095 03/M01 A2986 920 75 -200 230/06 RMK AO2
14837KMSN MSN20031222203009712/22/03 20:30:31  5-MIN KMSN 230230Z 23005KT 10SM OVC090 03/M01 A2986 920 75 -200 230/05 RMK AO2
14837KMSN MSN20031222203509712/22/03 20:35:31  5-MIN KMSN 230235Z 21005KT 10SM OVC090 03/M01 A2986 920 75 -200 210/05 RMK AO2
14837KMSN MSN20031222204009712/22/03 20:40:31  5-MIN KMSN 230240Z 22005KT 10SM OVC090 03/M01 A2986 920 75 -200 220/05 RMK AO2
14837KMSN MSN20031222204509712/22/03 20:45:31  5-MIN KMSN 230245Z 21006KT 10SM OVC085 03/M01 A2986 920 75 -200 210/06 RMK AO2
14837KMSN MSN20031222205012012/22/03 20:50:31  5-MIN KMSN 230250Z 22004KT 10SM OVC085 03/M01 A2985 930 75 -200 220/04 RMK AO2 SLP118 T00281011 58005
14837KMSN MSN20031222205509712/22/03 20:55:31  5-MIN KMSN 230255Z 22005KT 10SM OVC080 03/M01 A2986 920 75 -200 220/05 RMK AO2
14837KMSN MSN20031222210009712/22/03 21:00:31  5-MIN KMSN 230300Z 20004KT 10SM OVC080 03/M01 A2985 930 75 -200 200/04 RMK AO2
14837KMSN MSN20031222210509712/22/03 21:05:31  5-MIN KMSN 230305Z 21004KT 10SM OVC080 03/M01 A2985 930 75 -200 210/04 RMK AO2
14837KMSN MSN20031222211009712/22/03 21:10:31  5-MIN KMSN 230310Z 22004KT 10SM OVC085 03/M01 A2986 920 75 -200 220/04 RMK AO2
14837KMSN MSN20031222211509712/22/03 21:15:31  5-MIN KMSN 230315Z 22005KT 10SM OVC085 03/M01 A2986 920 75 -200 220/05 RMK AO2
14837KMSN MSN20031222212010412/22/03 21:20:31  5-MIN KMSN 230320Z 22003KT 10SM BKN090 OVC110 02/M01 A2986 920 78 -300 220/03 RMK AO2
14837KMSN MSN20031222212510412/22/03 21:25:31  5-MIN KMSN 230325Z 23004KT 10SM BKN090 OVC110 03/M01 A2986 920 75 -200 230/04 RMK AO2
14837KMSN MSN20031222213010412/22/03 21:30:31  5-MIN KMSN 230330Z 22003KT 10SM BKN100 OVC110 02/M01 A2986 920 78 -300 220/03 RMK AO2
14837KMSN MSN20031222213509712/22/03 21:35:31  5-MIN KMSN 230335Z VRB04KT 10SM OVC100 02/M01 A2986 920 78 -300 VRB/04 RMK AO2
14837KMSN MSN20031222214009712/22/03 21:40:31  5-MIN KMSN 230340Z 00000KT 10SM BKN100 02/M01 A2986 920 78 -300 000/00 RMK AO2
14837KMSN MSN20031222214509712/22/03 21:45:31  5-MIN KMSN 230345Z 00000KT 10SM BKN100 02/M01 A2986 920 78 -300 000/00 RMK AO2
14837KMSN MSN20031222215011412/22/03 21:50:31  5-MIN KMSN 230350Z 00000KT 10SM SCT110 02/M01 A2986 920 78 -300 000/00 RMK AO2 SLP119 T00221011
14837KMSN MSN20031222215509712/22/03 21:55:31  5-MIN KMSN 230355Z 00000KT 10SM SCT110 02/M01 A2986 920 78 -300 000/00 RMK AO2
14837KMSN MSN20031222220009712/22/03 22:00:31  5-MIN KMSN 230400Z 00000KT 10SM SCT110 02/M01 A2986 920 78 -300 000/00 RMK AO2
14837KMSN MSN20031222220509712/22/03 22:05:31  5-MIN KMSN 230405Z 00000KT 10SM FEW120 02/M01 A2986 920 82 -400 000/00 RMK AO2
14837KMSN MSN20031222221009712/22/03 22:10:31  5-MIN KMSN 230410Z 00000KT 10SM FEW120 02/M02 A2986 920 78 -400 000/00 RMK AO2
14837KMSN MSN20031222221509712/22/03 22:15:31  5-MIN KMSN 230415Z 00000KT 10SM FEW120 01/M02 A2986 920 82 -500 000/00 RMK AO2
14837KMSN MSN20031222222009712/22/03 22:20:31  5-MIN KMSN 230420Z 00000KT 10SM FEW120 01/M02 A2986 920 85 -500 000/00 RMK AO2
14837KMSN MSN20031222222509412/22/03 22:25:31  5-MIN KMSN 230425Z 00000KT 10SM CLR 01/M02 A2985 930 85 -500 000/00 RMK AO2
14837KMSN MSN20031222223009412/22/03 22:30:31  5-MIN KMSN 230430Z 00000KT 10SM CLR 00/M02 A2985 930 85 -600 000/00 RMK AO2
14837KMSN MSN20031222223509412/22/03 22:35:31  5-MIN KMSN 230435Z 00000KT 10SM CLR 00/M02 A2985 930 85 -600 000/00 RMK AO2
14837KMSN MSN20031222224009512/22/03 22:40:31  5-MIN KMSN 230440Z VRB03KT 10SM CLR M01/M02 A2985 930 88 -700 VRB/03 RMK AO2
14837KMSN MSN20031222224509412/22/03 22:45:31  5-MIN KMSN 230445Z VRB03KT 10SM CLR 00/M02 A2985 930 85 -600 VRB/03 RMK AO2
14837KMSN MSN20031222225011112/22/03 22:50:31  5-MIN KMSN 230450Z 29003KT 10SM CLR 00/M02 A2985 930 85 -600 290/03 RMK AO2 SLP115 T00001022
14837KMSN MSN20031222225509512/22/03 22:55:31  5-MIN KMSN 230455Z 27003KT 10SM CLR M01/M02 A2984 930 88 -600 270/03 RMK AO2
14837KMSN MSN20031222230009412/22/03 23:00:31  5-MIN KMSN 230500Z 28004KT 10SM CLR 00/M02 A2984 940 85 -600 280/04 RMK AO2
14837KMSN MSN20031222230509412/22/03 23:05:31  5-MIN KMSN 230505Z 28004KT 10SM CLR 00/M03 A2984 940 81 -600 280/04 RMK AO2
14837KMSN MSN20031222231009512/22/03 23:10:31  5-MIN KMSN 230510Z 27003KT 10SM CLR M01/M03 A2984 940 85 -600 270/03 RMK AO2
14837KMSN MSN20031222231509512/22/03 23:15:31  5-MIN KMSN 230515Z 28003KT 10SM CLR M01/M03 A2984 940 85 -600 280/03 RMK AO2
14837KMSN MSN20031222232009512/22/03 23:20:31  5-MIN KMSN 230520Z 27004KT 10SM CLR M01/M03 A2984 940 88 -700 270/04 RMK AO2
14837KMSN MSN20031222232509512/22/03 23:25:31  5-MIN KMSN 230525Z 27003KT 10SM CLR M01/M03 A2984 940 88 -700 260/03 RMK AO2
14837KMSN MSN20031222233009512/22/03 23:30:31  5-MIN KMSN 230530Z 00000KT 10SM CLR M01/M03 A2984 940 85 -600 000/00 RMK AO2
14837KMSN MSN20031222233509512/22/03 23:35:31  5-MIN KMSN 230535Z 28003KT 10SM CLR M01/M03 A2984 940 85 -700 280/03 RMK AO2
14837KMSN MSN20031222234009512/22/03 23:40:31  5-MIN KMSN 230540Z VRB04KT 10SM CLR M02/M03 A2983 940 88 -800 VRB/04 RMK AO2
14837KMSN MSN20031222234509512/22/03 23:45:31  5-MIN KMSN 230545Z 28003KT 10SM CLR M02/M03 A2984 940 88 -800 280/03 RMK AO2
14837KMSN MSN20031222235014012/22/03 23:50:31  5-MIN KMSN 230550Z 28003KT 10SM CLR M02/M04 A2984 940 88 -800 280/03 RMK AO2 SLP111 T10221039 10033 21022 400671022 55007
14837KMSN MSN20031222235509812/22/03 23:55:31  5-MIN KMSN 230555Z 29003KT 10SM FEW022 M02/M03 A2984 940 88 -800 290/03 RMK AO2
14837KMSN MSN20031223000009812/23/03 00:00:31  5-MIN KMSN 230600Z 28004KT 10SM SCT022 M01/M03 A2983 940 85 -700 280/04 RMK AO2
14837KMSN MSN20031223000509812/23/03 00:05:31  5-MIN KMSN 230605Z 29004KT 10SM BKN022 M01/M03 A2983 950 85 -700 290/04 RMK AO2
14837KMSN MSN20031223001009812/23/03 00:10:31  5-MIN KMSN 230610Z 30004KT 10SM BKN022 M01/M03 A2983 950 88 -700 300/04 RMK AO2
14837KMSN MSN20031223001509812/23/03 00:15:31  5-MIN KMSN 230615Z 29004KT 10SM BKN020 M01/M03 A2983 950 85 -600 290/04 RMK AO2
14837KMSN MSN20031223002009712/23/03 00:20:31  5-MIN KMSN 230620Z 30004KT 10SM OVC020 00/M03 A2983 950 81 -600 300/04 RMK AO2
14837KMSN MSN20031223002509712/23/03 00:25:31  5-MIN KMSN 230625Z 30004KT 10SM OVC020 00/M03 A2983 950 81 -600 300/04 RMK AO2
14837KMSN MSN20031223003009712/23/03 00:30:31  5-MIN KMSN 230630Z 31004KT 10SM OVC020 00/M03 A2983 950 81 -600 310/04 RMK AO2
14837KMSN MSN20031223003509712/23/03 00:35:31  5-MIN KMSN 230635Z 31004KT 10SM OVC020 00/M03 A2983 950 81 -600 310/04 RMK AO2
14837KMSN MSN20031223004009712/23/03 00:40:31  5-MIN KMSN 230640Z VRB03KT 10SM OVC020 00/M03 A2983 950 81 -600 VRB/03 RMK AO2
14837KMSN MSN20031223004509712/23/03 00:45:31  5-MIN KMSN 230645Z 33004KT 10SM OVC020 00/M03 A2983 950 81 -600 330/04 RMK AO2
14837KMSN MSN20031223005011412/23/03 00:50:31  5-MIN KMSN 230650Z 33003KT 10SM OVC018 00/M03 A2983 950 81 -600 330/03 RMK AO2 SLP109 T00001028
14837KMSN MSN20031223005509712/23/03 00:55:31  5-MIN KMSN 230655Z VRB04KT 10SM OVC018 00/M03 A2983 940 81 -600 VRB/04 RMK AO2
14837KMSN MSN20031223010009712/23/03 01:00:31  5-MIN KMSN 230700Z 31007KT 10SM OVC018 00/M03 A2984 940 81 -600 310/07 RMK AO2
14837KMSN MSN20031223010509712/23/03 01:05:31  5-MIN KMSN 230705Z 30007KT 10SM OVC018 00/M03 A2984 940 81 -600 300/07 RMK AO2
14837KMSN MSN20031223011009712/23/03 01:10:31  5-MIN KMSN 230710Z 31008KT 10SM OVC018 00/M03 A2984 940 81 -600 300/08 RMK AO2
14837KMSN MSN20031223011509712/23/03 01:15:31  5-MIN KMSN 230715Z 31007KT 10SM OVC018 00/M03 A2984 940 78 -600 310/07 RMK AO2
14837KMSN MSN20031223012010312/23/03 01:20:31  5-MIN KMSN 230720Z 31008G14KT 10SM OVC018 01/M03 A2984 940 75 -500 310/08G14 RMK AO2
14837KMSN MSN20031223012510312/23/03 01:25:31  5-MIN KMSN 230725Z 31006G14KT 10SM OVC018 00/M03 A2984 940 78 -600 310/06G14 RMK AO2
14837KMSN MSN20031223013009712/23/03 01:30:31  5-MIN KMSN 230730Z 32006KT 10SM OVC018 00/M03 A2984 940 78 -600 310/06 RMK AO2
14837KMSN MSN20031223013509712/23/03 01:35:31  5-MIN KMSN 230735Z 31008KT 10SM OVC018 00/M03 A2984 940 78 -600 310/08 RMK AO2
14837KMSN MSN20031223014009712/23/03 01:40:31  5-MIN KMSN 230740Z 31006KT 10SM OVC018 00/M03 A2984 940 78 -600 310/06 RMK AO2
14837KMSN MSN20031223014509612/23/03 01:45:31  5-MIN KMSN 230745Z 34008KT 9SM OVC018 01/M03 A2984 940 75 -500 340/08 RMK AO2
14837KMSN MSN20031223015011312/23/03 01:50:31  5-MIN KMSN 230750Z VRB06KT 9SM OVC018 01/M03 A2984 940 75 -500 VRB/06 RMK AO2 SLP112 T00061033
14837KMSN MSN20031223015509612/23/03 01:55:31  5-MIN KMSN 230755Z 31004KT 9SM OVC018 00/M03 A2984 940 78 -600 310/04 RMK AO2
14837KMSN MSN20031223020009612/23/03 02:00:31  5-MIN KMSN 230800Z 31006KT 9SM OVC018 01/M03 A2984 940 75 -500 310/06 RMK AO2
14837KMSN MSN20031223020509612/23/03 02:05:31  5-MIN KMSN 230805Z 31005KT 8SM OVC018 00/M03 A2984 940 78 -600 310/05 RMK AO2
14837KMSN MSN20031223021011212/23/03 02:10:31  5-MIN KMSN 230810Z 32007KT 290V350 8SM OVC018 00/M03 A2983 940 78 -600 320/07 290V350 RMK AO2
14837KMSN MSN20031223021510212/23/03 02:15:31  5-MIN KMSN 230815Z 31012G15KT 9SM OVC020 00/M04 A2983 940 75 -600 310/12G15 RMK AO2
14837KMSN MSN20031223022009712/23/03 02:20:31  5-MIN KMSN 230820Z 31010KT 10SM OVC020 00/M04 A2983 950 72 -600 310/10 RMK AO2
14837KMSN MSN20031223022509712/23/03 02:25:31  5-MIN KMSN 230825Z 31008KT 10SM OVC022 00/M04 A2983 940 72 -600 310/08 RMK AO2
14837KMSN MSN20031223023009712/23/03 02:30:31  5-MIN KMSN 230830Z 31008KT 10SM OVC022 00/M04 A2983 950 72 -600 310/08 RMK AO2
14837KMSN MSN20031223023509712/23/03 02:35:31  5-MIN KMSN 230835Z 32007KT 10SM OVC022 00/M04 A2983 950 72 -600 320/07 RMK AO2
14837KMSN MSN20031223024009712/23/03 02:40:31  5-MIN KMSN 230840Z 31008KT 10SM OVC022 00/M04 A2983 950 72 -600 310/08 RMK AO2
14837KMSN MSN20031223024509712/23/03 02:45:31  5-MIN KMSN 230845Z 31007KT 10SM OVC024 00/M04 A2983 950 72 -600 310/07 RMK AO2
14837KMSN MSN20031223025012012/23/03 02:50:31  5-MIN KMSN 230850Z 31006KT 10SM BKN024 00/M04 A2983 950 72 -600 310/06 RMK AO2 SLP108 T00001044 58006
14837KMSN MSN20031223025509712/23/03 02:55:31  5-MIN KMSN 230855Z 31006KT 10SM BKN024 00/M04 A2983 950 72 -600 310/06 RMK AO2
14837KMSN MSN20031223030009812/23/03 03:00:31  5-MIN KMSN 230900Z 30005KT 10SM SCT024 M01/M04 A2983 950 75 -600 300/05 RMK AO2
14837KMSN MSN20031223030509812/23/03 03:05:31  5-MIN KMSN 230905Z 29004KT 10SM SCT024 M01/M05 A2982 950 72 -600 290/04 RMK AO2
14837KMSN MSN20031223031009812/23/03 03:10:31  5-MIN KMSN 230910Z 28003KT 10SM FEW024 M01/M05 A2982 960 72 -600 280/03 RMK AO2
14837KMSN MSN20031223031509512/23/03 03:15:31  5-MIN KMSN 230915Z 27003KT 10SM CLR M01/M05 A2982 950 72 -600 270/03 RMK AO2
14837KMSN MSN20031223032009512/23/03 03:20:31  5-MIN KMSN 230920Z VRB03KT 10SM CLR M01/M04 A2983 950 78 -700 VRB/03 RMK AO2
14837KMSN MSN20031223032509512/23/03 03:25:31  5-MIN KMSN 230925Z 28003KT 10SM CLR M01/M04 A2983 950 78 -700 280/03 RMK AO2
14837KMSN MSN20031223033009512/23/03 03:30:31  5-MIN KMSN 230930Z 00000KT 10SM CLR M01/M05 A2983 950 75 -700 000/00 RMK AO2
14837KMSN MSN20031223033509812/23/03 03:35:31  5-MIN KMSN 230935Z 30005KT 10SM FEW022 M01/M05 A2983 950 75 -700 300/05 RMK AO2
14837KMSN MSN20031223034009812/23/03 03:40:31  5-MIN KMSN 230940Z 30005KT 10SM SCT022 M01/M04 A2983 950 78 -700 300/05 RMK AO2
14837KMSN MSN20031223034509812/23/03 03:45:31  5-MIN KMSN 230945Z 29005KT 10SM BKN022 M01/M04 A2983 950 75 -600 290/05 RMK AO2
14837KMSN MSN20031223035011512/23/03 03:50:31  5-MIN KMSN 230950Z 29004KT 10SM BKN020 M01/M04 A2983 950 75 -600 290/04 RMK AO2 SLP109 T10061044
14837KMSN MSN20031223035509812/23/03 03:55:31  5-MIN KMSN 230955Z 30003KT 10SM BKN020 M01/M04 A2983 950 75 -600 300/03 RMK AO2
14837KMSN MSN20031223040009812/23/03 04:00:31  5-MIN KMSN 231000Z 29004KT 10SM OVC020 M01/M04 A2983 950 75 -600 290/04 RMK AO2
14837KMSN MSN20031223040509812/23/03 04:05:31  5-MIN KMSN 231005Z 29007KT 10SM OVC020 M01/M04 A2983 950 75 -600 290/07 RMK AO2
14837KMSN MSN20031223041009812/23/03 04:10:31  5-MIN KMSN 231010Z 30007KT 10SM OVC020 M01/M04 A2982 950 75 -600 300/07 RMK AO2
14837KMSN MSN20031223041509812/23/03 04:15:31  5-MIN KMSN 231015Z 30007KT 10SM OVC018 M01/M04 A2982 950 75 -600 300/07 RMK AO2
14837KMSN MSN20031223042009812/23/03 04:20:31  5-MIN KMSN 231020Z 31007KT 10SM OVC018 M01/M04 A2982 950 75 -600 310/07 RMK AO2
14837KMSN MSN20031223042509812/23/03 04:25:31  5-MIN KMSN 231025Z 31008KT 10SM OVC018 M01/M04 A2983 950 78 -600 310/08 RMK AO2
14837KMSN MSN20031223043011412/23/03 04:30:31  5-MIN KMSN 231030Z 31008KT 280V350 10SM OVC018 M01/M04 A2983 950 78 -600 310/08 280V350 RMK AO2
14837KMSN MSN20031223043509812/23/03 04:35:31  5-MIN KMSN 231035Z VRB06KT 10SM OVC018 M01/M04 A2983 950 78 -600 VRB/06 RMK AO2
14837KMSN MSN20031223044009812/23/03 04:40:31  5-MIN KMSN 231040Z VRB06KT 10SM OVC018 M01/M04 A2983 950 78 -600 VRB/06 RMK AO2
14837KMSN MSN20031223044509712/23/03 04:45:31  5-MIN KMSN 231045Z 28005KT 9SM OVC018 M01/M04 A2984 940 78 -600 280/05 RMK AO2
14837KMSN MSN20031223045011412/23/03 04:50:31  5-MIN KMSN 231050Z 26004KT 9SM OVC018 M01/M04 A2984 940 78 -600 260/04 RMK AO2 SLP112 T10061039
14837KMSN MSN20031223045509712/23/03 04:55:31  5-MIN KMSN 231055Z VRB04KT 9SM OVC018 M01/M04 A2984 940 78 -600 VRB/04 RMK AO2
14837KMSN MSN20031223050009812/23/03 05:00:31  5-MIN KMSN 231100Z VRB03KT 10SM OVC018 M01/M04 A2984 940 78 -600 VRB/03 RMK AO2
14837KMSN MSN20031223050509812/23/03 05:05:31  5-MIN KMSN 231105Z VRB04KT 10SM OVC018 M01/M04 A2984 940 78 -600 VRB/04 RMK AO2
14837KMSN MSN20031223051009812/23/03 05:10:31  5-MIN KMSN 231110Z VRB04KT 10SM OVC018 M01/M04 A2984 940 78 -600 VRB/04 RMK AO2
14837KMSN MSN20031223051509812/23/03 05:15:31  5-MIN KMSN 231115Z 00000KT 10SM OVC018 M01/M04 A2984 940 78 -600 000/00 RMK AO2
14837KMSN MSN20031223052009812/23/03 05:20:31  5-MIN KMSN 231120Z VRB03KT 10SM OVC018 M01/M04 A2984 940 78 -600 VRB/03 RMK AO2
14837KMSN MSN20031223052509812/23/03 05:25:31  5-MIN KMSN 231125Z 30003KT 10SM OVC018 M01/M04 A2984 940 78 -600 290/03 RMK AO2
14837KMSN MSN20031223053009812/23/03 05:30:31  5-MIN KMSN 231130Z VRB04KT 10SM OVC018 M01/M04 A2984 940 78 -600 VRB/04 RMK AO2
14837KMSN MSN20031223053509812/23/03 05:35:31  5-MIN KMSN 231135Z 31004KT 10SM OVC018 M01/M04 A2984 940 78 -600 310/04 RMK AO2
14837KMSN MSN20031223054009812/23/03 05:40:31  5-MIN KMSN 231140Z 30005KT 10SM OVC018 M01/M04 A2984 930 78 -600 300/05 RMK AO2
14837KMSN MSN20031223054509712/23/03 05:45:31  5-MIN KMSN 231145Z 31004KT 10SM OVC018 00/M04 A2985 930 75 -600 310/04 RMK AO2
14837KMSN MSN20031223055013312/23/03 05:50:31  5-MIN KMSN 231150Z 31005KT 10SM OVC018 M01/M04 A2985 930 78 -700 310/05 RMK AO2 SLP115 T10061039 10006 21017 58003
14837KMSN MSN20031223055509812/23/03 05:55:31  5-MIN KMSN 231155Z 31004KT 10SM OVC018 M01/M04 A2985 930 78 -700 310/04 RMK AO2
14837KMSN MSN20031223060009812/23/03 06:00:31  5-MIN KMSN 231200Z 31005KT 10SM OVC018 M01/M04 A2985 930 78 -700 310/05 RMK AO2
14837KMSN MSN20031223060509812/23/03 06:05:31  5-MIN KMSN 231205Z 31004KT 10SM OVC018 M01/M04 A2985 930 78 -700 310/04 RMK AO2
14837KMSN MSN20031223061009812/23/03 06:10:31  5-MIN KMSN 231210Z 31006KT 10SM OVC018 M01/M04 A2985 930 78 -700 310/06 RMK AO2
14837KMSN MSN20031223061509712/23/03 06:15:31  5-MIN KMSN 231215Z 32005KT 10SM OVC016 00/M04 A2985 930 75 -600 320/05 RMK AO2
14837KMSN MSN20031223062009612/23/03 06:20:31  5-MIN KMSN 231220Z 31007KT 9SM OVC016 00/M04 A2985 930 75 -600 310/07 RMK AO2
14837KMSN MSN20031223062509612/23/03 06:25:31  5-MIN KMSN 231225Z 31006KT 9SM OVC016 00/M04 A2985 930 75 -600 310/06 RMK AO2
14837KMSN MSN20031223063009612/23/03 06:30:31  5-MIN KMSN 231230Z 31005KT 9SM OVC016 00/M04 A2985 930 75 -600 310/05 RMK AO2
14837KMSN MSN20031223063509612/23/03 06:35:31  5-MIN KMSN 231235Z 30006KT 9SM OVC016 00/M04 A2985 930 75 -600 300/06 RMK AO2
14837KMSN MSN20031223064009712/23/03 06:40:31  5-MIN KMSN 231240Z 30004KT 9SM OVC016 M01/M04 A2985 930 78 -700 300/04 RMK AO2
14837KMSN MSN20031223064509612/23/03 06:45:31  5-MIN KMSN 231245Z 30006KT 9SM OVC018 00/M04 A2985 930 75 -600 300/06 RMK AO2
14837KMSN MSN20031223065011312/23/03 06:50:31  5-MIN KMSN 231250Z 30006KT 9SM OVC018 00/M04 A2985 930 75 -600 300/06 RMK AO2 SLP116 T00001039
14837KMSN MSN20031223065509612/23/03 06:55:31  5-MIN KMSN 231255Z 30006KT 9SM OVC018 00/M04 A2985 930 75 -600 300/06 RMK AO2
14837KMSN MSN20031223070011212/23/03 07:00:31  5-MIN KMSN 231300Z 30007KT 270V340 9SM OVC018 00/M04 A2985 930 75 -600 300/07 270V340 RMK AO2
14837KMSN MSN20031223070509712/23/03 07:05:31  5-MIN KMSN 231305Z 30007KT 10SM OVC018 00/M03 A2985 930 78 -600 300/07 RMK AO2
14837KMSN MSN20031223071009712/23/03 07:10:31  5-MIN KMSN 231310Z 31006KT 10SM OVC020 00/M03 A2985 930 78 -600 310/06 RMK AO2
14837KMSN MSN20031223071509712/23/03 07:15:31  5-MIN KMSN 231315Z 31005KT 10SM OVC020 00/M03 A2985 930 78 -600 310/05 RMK AO2
14837KMSN MSN20031223072009712/23/03 07:20:31  5-MIN KMSN 231320Z 31006KT 10SM OVC020 00/M03 A2985 930 78 -600 310/06 RMK AO2
14837KMSN MSN20031223072509712/23/03 07:25:31  5-MIN KMSN 231325Z 31007KT 10SM OVC020 00/M03 A2985 930 78 -600 310/07 RMK AO2
14837KMSN MSN20031223073009712/23/03 07:30:31  5-MIN KMSN 231330Z 31007KT 10SM OVC022 00/M04 A2985 930 75 -600 310/07 RMK AO2
14837KMSN MSN20031223073509712/23/03 07:35:31  5-MIN KMSN 231335Z 31008KT 10SM OVC022 00/M04 A2985 930 75 -600 310/08 RMK AO2
14837KMSN MSN20031223074009712/23/03 07:40:31  5-MIN KMSN 231340Z 31009KT 10SM OVC022 00/M04 A2985 930 75 -600 310/09 RMK AO2
14837KMSN MSN20031223074509712/23/03 07:45:31  5-MIN KMSN 231345Z 31009KT 10SM OVC022 00/M04 A2985 930 75 -600 310/09 RMK AO2
14837KMSN MSN20031223075013012/23/03 07:50:31  5-MIN KMSN 231350Z 31009KT 10SM -SN OVC022 00/M04 A2985 930 75 -600 310/09 RMK AO2 SNB46 SLP117 P0000 T00001039
14837KMSN MSN20031223075510612/23/03 07:55:31  5-MIN KMSN 231355Z 31009KT 9SM -SN OVC022 00/M04 A2985 930 75 -600 310/09 RMK AO2 P0000
14837KMSN MSN20031223080010612/23/03 08:00:31  5-MIN KMSN 231400Z 31008KT 9SM -SN OVC022 00/M04 A2985 930 75 -600 310/08 RMK AO2 P0000
14837KMSN MSN20031223080510612/23/03 08:05:31  5-MIN KMSN 231405Z 31006KT 9SM -SN OVC022 00/M04 A2985 920 75 -600 310/06 RMK AO2 P0000
14837KMSN MSN20031223081010612/23/03 08:10:31  5-MIN KMSN 231410Z 31008KT 9SM -SN OVC022 00/M04 A2986 920 75 -600 310/08 RMK AO2 P0000
14837KMSN MSN20031223081511212/23/03 08:15:31  5-MIN KMSN 231415Z 32009G14KT 9SM -SN OVC022 00/M04 A2986 920 75 -600 310/09G14 RMK AO2 P0000
14837KMSN MSN20031223082011412/23/03 08:20:31  5-MIN KMSN 231420Z 31009G14KT 9SM OVC022 00/M04 A2986 920 75 -600 310/09G14 RMK AO2 SNE17 P0000
14837KMSN MSN20031223082510912/23/03 08:25:31  5-MIN KMSN 231425Z 31008KT 10SM OVC022 00/M04 A2986 920 75 -600 310/08 RMK AO2 SNE17 P0000
14837KMSN MSN20031223083010912/23/03 08:30:31  5-MIN KMSN 231430Z 31007KT 10SM OVC022 00/M04 A2986 920 75 -600 310/07 RMK AO2 SNE17 P0000
14837KMSN MSN20031223083510912/23/03 08:35:31  5-MIN KMSN 231435Z 31009KT 10SM OVC022 00/M04 A2986 920 75 -600 310/09 RMK AO2 SNE17 P0000
14837KMSN MSN20031223084011612/23/03 08:40:31  5-MIN KMSN 231440Z 31007KT 10SM -SN OVC022 00/M04 A2986 920 75 -600 310/07 RMK AO2 SNE17B40 P0000
14837KMSN MSN20031223084511512/23/03 08:45:31  5-MIN KMSN 231445Z 31008KT 9SM -SN OVC022 00/M04 A2986 920 72 -600 310/08 RMK AO2 SNE17B40 P0000
14837KMSN MSN20031223085014412/23/03 08:50:31  5-MIN KMSN 231450Z 31007KT 9SM -SN OVC022 00/M04 A2986 920 75 -600 310/07 RMK AO2 SNE17B40 SLP121 P0000 60000 T00001039 53006
14837KMSN MSN20031223085510612/23/03 08:55:31  5-MIN KMSN 231455Z 31007KT 9SM -SN OVC020 00/M04 A2986 920 72 -600 310/07 RMK AO2 P0000
14837KMSN MSN20031223090010612/23/03 09:00:31  5-MIN KMSN 231500Z 31009KT 9SM -SN OVC020 00/M04 A2986 920 72 -600 310/09 RMK AO2 P0000
14837KMSN MSN20031223090510612/23/03 09:05:31  5-MIN KMSN 231505Z 31009KT 9SM -SN OVC020 00/M04 A2986 920 72 -600 310/09 RMK AO2 P0000
14837KMSN MSN20031223091010612/23/03 09:10:31  5-MIN KMSN 231510Z 32010KT 9SM -SN OVC020 00/M04 A2986 920 72 -600 320/10 RMK AO2 P0000
14837KMSN MSN20031223091511212/23/03 09:15:31  5-MIN KMSN 231515Z 31010G15KT 9SM -SN OVC020 00/M04 A2986 920 72 -600 310/10G15 RMK AO2 P0000
14837KMSN MSN20031223092011212/23/03 09:20:31  5-MIN KMSN 231520Z 31012G15KT 9SM -SN OVC018 00/M04 A2986 920 72 -600 310/12G15 RMK AO2 P0000
14837KMSN MSN20031223092511212/23/03 09:25:31  5-MIN KMSN 231525Z 31010G17KT 9SM -SN OVC018 00/M04 A2987 920 72 -600 310/10G17 RMK AO2 P0000
14837KMSN MSN20031223093012012/23/03 09:30:31  5-MIN KMSN 231530Z 31009G17KT 9SM -SN BKN018 OVC034 M01/M04 A2986 920 78 -700 310/09G17 RMK AO2 P0000
14837KMSN MSN20031223093511412/23/03 09:35:31  5-MIN KMSN 231535Z 31010KT 9SM -SN BKN018 OVC034 M01/M04 A2986 920 78 -700 310/10 RMK AO2 P0000
14837KMSN MSN20031223094012012/23/03 09:40:31  5-MIN KMSN 231540Z 32009KT 9SM -SN SCT018 BKN029 OVC034 00/M04 A2986 920 75 -600 320/09 RMK AO2 P0000
14837KMSN MSN20031223094512612/23/03 09:45:31  5-MIN KMSN 231545Z 31013G17KT 8SM -SN SCT018 BKN029 OVC036 00/M04 A2986 920 75 -600 310/13G17 RMK AO2 P0000
14837KMSN MSN20031223095013612/23/03 09:50:31  5-MIN KMSN 231550Z 31007G17KT 7SM -SN FEW018 OVC033 00/M04 A2986 920 75 -600 310/07G17 RMK AO2 SLP120 P0000 T00001039
14837KMSN MSN20031223095511312/23/03 09:55:31  5-MIN KMSN 231555Z 31010KT 6SM -SN SCT020 OVC033 00/M04 A2986 920 75 -600 310/10 RMK AO2 P0000
14837KMSN MSN20031223100011912/23/03 10:00:31  5-MIN KMSN 231600Z 31011G15KT 6SM -SN FEW020 OVC033 00/M04 A2986 920 75 -600 300/11G15 RMK AO2 P0000
14837KMSN MSN20031223100511912/23/03 10:05:31  5-MIN KMSN 231605Z 32011G19KT 7SM -SN FEW020 OVC033 00/M04 A2986 920 75 -600 320/11G19 RMK AO2 P0000
14837KMSN MSN20031223101011912/23/03 10:10:31  5-MIN KMSN 231610Z 31011G19KT 7SM -SN FEW020 OVC033 00/M04 A2986 920 75 -600 310/11G19 RMK AO2 P0000
14837KMSN MSN20031223101512012/23/03 10:15:31  5-MIN KMSN 231615Z 32012KT 7SM -SN FEW020 BKN035 OVC047 00/M04 A2986 920 75 -600 310/12 RMK AO2 P0000
14837KMSN MSN20031223102012012/23/03 10:20:31  5-MIN KMSN 231620Z 31009KT 8SM -SN FEW020 BKN035 OVC055 00/M04 A2986 920 75 -600 310/09 RMK AO2 P0000
14837KMSN MSN20031223102512012/23/03 10:25:31  5-MIN KMSN 231625Z 30010KT 9SM -SN FEW022 BKN037 OVC055 00/M04 A2986 920 75 -600 300/10 RMK AO2 P0000
14837KMSN MSN20031223103012012/23/03 10:30:31  5-MIN KMSN 231630Z 31013KT 9SM -SN SCT022 BKN037 OVC055 00/M04 A2986 920 75 -600 310/13 RMK AO2 P0000
14837KMSN MSN20031223103512012/23/03 10:35:31  5-MIN KMSN 231635Z 31012KT 9SM -SN BKN022 BKN037 OVC048 00/M04 A2986 920 75 -600 310/12 RMK AO2 P0000
14837KMSN MSN20031223104012012/23/03 10:40:31  5-MIN KMSN 231640Z 31011KT 8SM -SN BKN022 BKN048 OVC055 00/M04 A2986 920 75 -600 310/11 RMK AO2 P0000
14837KMSN MSN20031223104512912/23/03 10:45:31  5-MIN KMSN 231645Z 31009KT 290V350 8SM -SN BKN022 OVC048 00/M04 A2986 920 75 -600 310/09 290V350 RMK AO2 P0000
14837KMSN MSN20031223105012412/23/03 10:50:31  5-MIN KMSN 231650Z 32009KT 8SM -SN OVC022 M01/M04 A2986 920 78 -700 320/09 RMK AO2 SLP121 P0000 T10061039
14837KMSN MSN20031223105510712/23/03 10:55:31  5-MIN KMSN 231655Z 31009KT 8SM -SN OVC020 M01/M04 A2986 920 78 -700 310/09 RMK AO2 P0000
14837KMSN MSN20031223110011412/23/03 11:00:31  5-MIN KMSN 231700Z 30012KT 8SM -SN BKN017 OVC022 M01/M04 A2986 920 78 -700 300/12 RMK AO2 P0000
14837KMSN MSN20031223110510712/23/03 11:05:31  5-MIN KMSN 231705Z 31008KT 8SM -SN OVC019 M01/M04 A2986 920 78 -700 310/08 RMK AO2 P0000
14837KMSN MSN20031223111010712/23/03 11:10:31  5-MIN KMSN 231710Z 32010KT 8SM -SN OVC019 M01/M04 A2986 920 78 -700 320/10 RMK AO2 P0000
14837KMSN MSN20031223111512112/23/03 11:15:31  5-MIN KMSN 231715Z 34009KT 9SM -SN BKN017 BKN023 OVC029 M01/M05 A2986 920 72 -700 340/09 RMK AO2 P0000
14837KMSN MSN20031223112012712/23/03 11:20:31  5-MIN KMSN 231720Z 34011G16KT 9SM -SN SCT017 BKN021 OVC031 M01/M05 A2986 920 72 -700 340/11G16 RMK AO2 P0000
14837KMSN MSN20031223112512012/23/03 11:25:31  5-MIN KMSN 231725Z 33010G16KT 9SM -SN SCT017 OVC029 M01/M06 A2986 920 69 -700 330/10G16 RMK AO2 P0000
14837KMSN MSN20031223113012112/23/03 11:30:31  5-MIN KMSN 231730Z 34010KT 9SM -SN FEW015 SCT021 OVC029 M01/M06 A2986 920 69 -700 340/10 RMK AO2 P0000
14837KMSN MSN20031223113513612/23/03 11:35:31  5-MIN KMSN 231735Z 33010KT 300V360 9SM -SN FEW016 BKN029 OVC033 00/M06 A2986 920 66 -600 330/10 300V360 RMK AO2 P0000
14837KMSN MSN20031223114012612/23/03 11:40:31  5-MIN KMSN 231740Z 34013G20KT 9SM -SN SCT022 BKN029 OVC033 00/M06 A2986 920 66 -600 330/13G20 RMK AO2 P0000
14837KMSN MSN20031223114512712/23/03 11:45:31  5-MIN KMSN 231745Z 32010G20KT 9SM -SN SCT022 BKN029 OVC033 M01/M06 A2986 920 69 -700 320/10G20 RMK AO2 P0000
14837KMSN MSN20031223115017812/23/03 11:50:31  5-MIN KMSN 231750Z 32009KT 290V350 9SM -SN SCT022 BKN029 OVC033 M01/M05 A2986 920 72 -700 320/09 290V350 RMK AO2 SLP122 P0000 60000 T10061050 10000 21006 53006
14837KMSN MSN20031223115511412/23/03 11:55:31  5-MIN KMSN 231755Z 33010KT 9SM -SN BKN022 OVC031 M01/M06 A2986 920 69 -700 330/10 RMK AO2 P0000
14837KMSN MSN20031223120011412/23/03 12:00:31  5-MIN KMSN 231800Z 35010KT 9SM -SN BKN022 OVC029 M01/M06 A2986 920 66 -700 350/10 RMK AO2 P0000
14837KMSN MSN20031223120512712/23/03 12:05:31  5-MIN KMSN 231805Z 33009G16KT 9SM -SN BKN022 BKN027 OVC033 M01/M06 A2987 910 66 -700 330/09G16 RMK AO2 P0000
14837KMSN MSN20031223121012012/23/03 12:10:31  5-MIN KMSN 231810Z 33009G16KT 9SM -SN BKN024 OVC031 M01/M06 A2987 920 66 -700 330/09G16 RMK AO2 P0000
14837KMSN MSN20031223121513612/23/03 12:15:31  5-MIN KMSN 231815Z 32010G16KT 280V340 9SM -SN BKN022 OVC029 M01/M06 A2987 910 66 -700 320/10G16 280V340 RMK AO2 P0000
14837KMSN MSN20031223122011312/23/03 12:20:31  5-MIN KMSN 231820Z 31009G16KT 9SM -SN OVC022 M01/M06 A2987 910 66 -700 310/09G16 RMK AO2 P0000
14837KMSN MSN20031223122511412/23/03 12:25:31  5-MIN KMSN 231825Z 30010KT 9SM -SN BKN020 OVC025 M01/M06 A2987 910 69 -700 300/10 RMK AO2 P0000
14837KMSN MSN20031223123011412/23/03 12:30:31  5-MIN KMSN 231830Z 31008KT 9SM -SN BKN020 OVC025 M01/M06 A2987 910 69 -800 310/08 RMK AO2 P0000
14837KMSN MSN20031223123512012/23/03 12:35:31  5-MIN KMSN 231835Z 31011G16KT 9SM -SN BKN020 OVC025 M01/M07 A2987 910 66 -800 310/11G16 RMK AO2 P0000
14837KMSN MSN20031223124011312/23/03 12:40:31  5-MIN KMSN 231840Z 32010G16KT 9SM -SN OVC022 M01/M07 A2987 910 66 -800 320/10G16 RMK AO2 P0000
14837KMSN MSN20031223124511512/23/03 12:45:31  5-MIN KMSN 231845Z 31012G15KT 9SM OVC022 M01/M07 A2987 910 66 -800 310/12G15 RMK AO2 SNE42 P0000
14837KMSN MSN20031223125012712/23/03 12:50:31  5-MIN KMSN 231850Z 32010KT 10SM OVC022 M01/M07 A2987 910 66 -800 320/10 RMK AO2 SNE42 SLP126 P0000 T10111067
14837KMSN MSN20031223125509812/23/03 12:55:31  5-MIN KMSN 231855Z 32010KT 10SM OVC022 M01/M07 A2987 910 66 -800 320/10 RMK AO2
14837KMSN MSN20031223130009812/23/03 13:00:31  5-MIN KMSN 231900Z 32009KT 10SM OVC022 M01/M07 A2988 910 66 -800 310/09 RMK AO2
14837KMSN MSN20031223130509812/23/03 13:05:31  5-MIN KMSN 231905Z 33011KT 10SM OVC024 M01/M07 A2988 900 66 -800 330/11 RMK AO2
14837KMSN MSN20031223131010412/23/03 13:10:31  5-MIN KMSN 231910Z 32012G17KT 10SM OVC024 M01/M07 A2988 900 63 -800 320/12G17 RMK AO2
14837KMSN MSN20031223131510412/23/03 13:15:31  5-MIN KMSN 231915Z 32012G17KT 10SM OVC024 M01/M07 A2988 900 63 -800 320/12G17 RMK AO2
14837KMSN MSN20031223132012012/23/03 13:20:31  5-MIN KMSN 231920Z 31010G17KT 290V350 10SM OVC024 M01/M08 A2988 900 60 -800 310/10G17 290V350 RMK AO2
14837KMSN MSN20031223132509812/23/03 13:25:31  5-MIN KMSN 231925Z 33011KT 10SM OVC026 M01/M08 A2988 900 60 -800 330/11 RMK AO2
14837KMSN MSN20031223133009812/23/03 13:30:31  5-MIN KMSN 231930Z 33011KT 10SM OVC026 M01/M08 A2988 900 60 -800 330/11 RMK AO2
14837KMSN MSN20031223133509812/23/03 13:35:31  5-MIN KMSN 231935Z 34009KT 10SM OVC026 M01/M08 A2988 900 60 -800 340/09 RMK AO2
14837KMSN MSN20031223134009812/23/03 13:40:31  5-MIN KMSN 231940Z 33008KT 10SM OVC026 M01/M08 A2988 900 60 -800 330/08 RMK AO2
14837KMSN MSN20031223134509812/23/03 13:45:31  5-MIN KMSN 231945Z 32009KT 10SM OVC026 M01/M08 A2989 900 60 -800 320/09 RMK AO2
14837KMSN MSN20031223135011512/23/03 13:50:31  5-MIN KMSN 231950Z 32008KT 10SM OVC028 M01/M08 A2989 900 60 -800 320/08 RMK AO2 SLP130 T10111078
14837KMSN MSN20031223135509812/23/03 13:55:31  5-MIN KMSN 231955Z 33009KT 10SM OVC028 M01/M08 A2989 900 60 -800 330/09 RMK AO2
14837KMSN MSN20031223140009812/23/03 14:00:31  5-MIN KMSN 232000Z 32008KT 10SM OVC028 M01/M08 A2989 890 60 -800 320/08 RMK AO2
14837KMSN MSN20031223140509812/23/03 14:05:31  5-MIN KMSN 232005Z 31009KT 10SM OVC028 M01/M08 A2989 890 60 -800 310/09 RMK AO2
14837KMSN MSN20031223141009812/23/03 14:10:31  5-MIN KMSN 232010Z 32008KT 10SM OVC028 M01/M08 A2989 890 60 -800 320/08 RMK AO2
14837KMSN MSN20031223141509812/23/03 14:15:31  5-MIN KMSN 232015Z 32007KT 10SM OVC030 M01/M08 A2990 890 60 -800 320/07 RMK AO2
14837KMSN MSN20031223142011412/23/03 14:20:31  5-MIN KMSN 232020Z 32007KT 10SM -SN OVC028 M01/M08 A2990 880 60 -800 320/07 RMK AO2 SNB19 P0000
14837KMSN MSN20031223142511312/23/03 14:25:31  5-MIN KMSN 232025Z 32007KT 9SM -SN OVC028 M02/M08 A2990 880 63 -900 320/07 RMK AO2 SNB19 P0000
14837KMSN MSN20031223143012912/23/03 14:30:31  5-MIN KMSN 232030Z 31007KT 290V350 9SM -SN OVC028 M02/M08 A2990 880 63 -900 310/07 290V350 RMK AO2 SNB19 P0000
14837KMSN MSN20031223143511312/23/03 14:35:31  5-MIN KMSN 232035Z 33010KT 9SM -SN OVC028 M02/M08 A2991 880 63 -900 320/10 RMK AO2 SNB19 P0000
14837KMSN MSN20031223144011912/23/03 14:40:31  5-MIN KMSN 232040Z 32010G17KT 9SM -SN OVC028 M02/M08 A2991 870 60 -900 310/10G17 RMK AO2 SNB19 P0000
14837KMSN MSN20031223144511912/23/03 14:45:31  5-MIN KMSN 232045Z 32011G17KT 9SM -SN OVC028 M02/M08 A2991 870 60 -900 320/11G17 RMK AO2 SNB19 P0000
14837KMSN MSN20031223145014212/23/03 14:50:31  5-MIN KMSN 232050Z 32011KT 9SM -SN OVC028 M02/M08 A2991 870 60 -900 320/11 RMK AO2 SNB19 SLP140 P0000 60000 T10171083 55000
14837KMSN MSN20031223145510712/23/03 14:55:31  5-MIN KMSN 232055Z 31011KT 9SM -SN OVC030 M02/M08 A2991 870 66 -900 310/11 RMK AO2 P0000
14837KMSN MSN20031223150010712/23/03 15:00:31  5-MIN KMSN 232100Z 30010KT 9SM -SN OVC030 M02/M08 A2992 870 63 -900 300/10 RMK AO2 P0000
14837KMSN MSN20031223150511312/23/03 15:05:31  5-MIN KMSN 232105Z 32011G16KT 9SM -SN OVC032 M02/M09 A2992 870 60 -900 320/11G16 RMK AO2 P0000
14837KMSN MSN20031223151011312/23/03 15:10:31  5-MIN KMSN 232110Z 32011G17KT 9SM -SN OVC034 M02/M08 A2992 860 63 -900 320/11G17 RMK AO2 P0000
14837KMSN MSN20031223151511412/23/03 15:15:31  5-MIN KMSN 232115Z 31012G17KT 9SM -SN OVC034 M02/M08 A2992 860 63 -1000 310/12G17 RMK AO2 P0000
14837KMSN MSN20031223152010812/23/03 15:20:31  5-MIN KMSN 232120Z 32007KT 9SM -SN OVC036 M02/M08 A2993 860 63 -1000 320/07 RMK AO2 P0000
14837KMSN MSN20031223152510812/23/03 15:25:31  5-MIN KMSN 232125Z 32009KT 9SM -SN OVC038 M02/M08 A2993 860 63 -1000 320/09 RMK AO2 P0000
14837KMSN MSN20031223153010812/23/03 15:30:31  5-MIN KMSN 232130Z 32010KT 7SM -SN OVC038 M02/M08 A2993 850 63 -1000 320/10 RMK AO2 P0000
14837KMSN MSN20031223153510812/23/03 15:35:31  5-MIN KMSN 232135Z 31012KT 5SM -SN OVC038 M03/M08 A2993 850 66 -1000 310/12 RMK AO2 P0000
14837KMSN MSN20031223154010812/23/03 15:40:31  5-MIN KMSN 232140Z 31009KT 4SM -SN OVC040 M03/M08 A2993 850 66 -1000 310/09 RMK AO2 P0000
14837KMSN MSN20031223154510812/23/03 15:45:31  5-MIN KMSN 232145Z 32010KT 4SM -SN OVC040 M03/M08 A2993 850 68 -1000 320/10 RMK AO2 P0000
14837KMSN MSN20031223155013912/23/03 15:50:31  5-MIN KMSN 232150Z 32009KT 2 1/2SM -SN OVC042 M03/M08 A2994 850 68 -1000 320/09 RMK AO2 TWR VIS 3 SLP147 P0000 T10281078
14837KMSN MSN20031223155512912/23/03 15:55:31  5-MIN KMSN 232155Z 33007KT 2SM -SN FEW023 OVC043 M03/M08 A2994 850 68 -1000 330/07 RMK AO2 TWR VIS 2 1/2 P0000
14837KMSN MSN20031223160012212/23/03 16:00:31  5-MIN KMSN 232200Z 32008KT 1SM -SN OVC023 M03/M07 A2994 850 71 -1000 320/08 RMK AO2 TWR VIS 1 1/2 P0000
14837KMSN MSN20031223160513112/23/03 16:05:31  5-MIN KMSN 232205Z 32007KT 1SM -SN BKN023 OVC041 M03/M07 A2994 850 78 -1100 320/07 RMK AO2 TWR VIS 1 1/2 P0000 $
14837KMSN MSN20031223161013112/23/03 16:10:31  5-MIN KMSN 232210Z 33008KT 1SM -SN BKN020 OVC044 M03/M06 A2994 840 81 -1100 330/08 RMK AO2 TWR VIS 1 1/2 P0000 $
14837KMSN MSN20031223161513812/23/03 16:15:31  5-MIN KMSN 232215Z 33007KT 1SM -SN BKN018 BKN023 OVC044 M03/M06 A2995 840 81 -1100 320/07 RMK AO2 TWR VIS 1 1/2 P0000 $
14837KMSN MSN20031223162013112/23/03 16:20:31  5-MIN KMSN 232220Z 31006KT 1 1/2SM -SN BR BKN018 BKN023 OVC031 M03/M06 A2995 840 85 -1100 310/06 RMK AO2 P0000 $
14837KMSN MSN20031223162513112/23/03 16:25:31  5-MIN KMSN 232225Z 32009KT 1 1/2SM -SN BR BKN018 BKN023 OVC042 M03/M06 A2995 840 85 -1100 320/09 RMK AO2 P0000 $
14837KMSN MSN20031223163012812/23/03 16:30:31  5-MIN KMSN 232230Z 33009KT 1 1/2SM -SN SCT018 BKN023 OVC055 M04/M07 A2995 840 81 -1200 330/09 RMK AO2 P0000 $
14837KMSN MSN20031223163512812/23/03 16:35:31  5-MIN KMSN 232235Z 32009KT 1 1/2SM -SN SCT018 SCT023 OVC038 M04/M07 A2995 840 81 -1200 320/09 RMK AO2 P0000 $
14837KMSN MSN20031223164012812/23/03 16:40:31  5-MIN KMSN 232240Z 32008KT 1 1/2SM -SN SCT018 BKN023 OVC038 M04/M07 A2995 840 81 -1200 320/08 RMK AO2 P0000 $
14837KMSN MSN20031223164512812/23/03 16:45:31  5-MIN KMSN 232245Z 32008KT 1 1/2SM -SN SCT018 BKN023 OVC038 M04/M07 A2995 840 81 -1200 320/08 RMK AO2 P0000 $
14837KMSN MSN20031223165015512/23/03 16:50:31  5-MIN KMSN 232250Z 32008KT 2SM -SN FEW023 SCT035 OVC043 M04/M07 A2995 840 81 -1200 320/08 RMK AO2 SFC VIS 2 1/2 SLP153 P0001 T10391067 $
14837KMSN MSN20031223165513812/23/03 16:55:31  5-MIN KMSN 232255Z 32008KT 2 1/2SM -SN FEW023 BKN040 OVC055 M04/M07 A2995 840 81 -1200 320/08 RMK AO2 TWR VIS 3 P0000 $
14837KMSN MSN20031223170013812/23/03 17:00:31  5-MIN KMSN 232300Z 32008KT 2 1/2SM -SN FEW023 BKN040 OVC055 M04/M07 A2995 830 81 -1200 320/08 RMK AO2 TWR VIS 3 P0000 $
14837KMSN MSN20031223170513812/23/03 17:05:31  5-MIN KMSN 232305Z 32009KT 2 1/2SM -SN FEW023 BKN040 OVC055 M04/M07 A2995 830 81 -1200 320/09 RMK AO2 TWR VIS 3 P0000 $
14837KMSN MSN20031223171012412/23/03 17:10:31  5-MIN KMSN 232310Z 32009KT 3SM -SN FEW023 SCT040 OVC055 M04/M07 A2995 830 81 -1200 320/09 RMK AO2 P0000 $
14837KMSN MSN20031223171513412/23/03 17:15:31  5-MIN KMSN 232315Z 32008KT 3SM -SN FEW023 SCT042 OVC055 M04/M07 A2995 830 81 -1200 320/08 RMK AO2 SFC VIS 4 P0000 $
14837KMSN MSN20031223172012712/23/03 17:20:31  5-MIN KMSN 232320Z 33007KT 3SM -SN FEW041 OVC055 M04/M07 A2996 830 81 -1200 330/07 RMK AO2 SFC VIS 4 P0000 $
14837KMSN MSN20031223172512012/23/03 17:25:31  5-MIN KMSN 232325Z 34006KT 3SM -SN BKN055 M04/M07 A2996 830 81 -1200 340/06 RMK AO2 SFC VIS 4 P0000 $
14837KMSN MSN20031223173011712/23/03 17:30:31  5-MIN KMSN 232330Z 33004KT 5SM -SN FEW018 OVC055 M04/M07 A2996 830 81 -1200 330/04 RMK AO2 P0000 $
14837KMSN MSN20031223173511712/23/03 17:35:31  5-MIN KMSN 232335Z 33006KT 5SM -SN FEW016 OVC055 M04/M07 A2996 830 81 -1200 330/06 RMK AO2 P0000 $
14837KMSN MSN20031223174012012/23/03 17:40:31  5-MIN KMSN 232340Z 34006KT 5SM -SN BR FEW016 OVC055 M04/M07 A2996 830 84 -1300 340/06 RMK AO2 P0000 $
14837KMSN MSN20031223174512712/23/03 17:45:31  5-MIN KMSN 232345Z 33005KT 5SM -SN BR FEW028 BKN055 OVC080 M04/M07 A2996 830 84 -1300 330/05 RMK AO2 P0000 $
14837KMSN MSN20031223175016612/23/03 17:50:31  5-MIN KMSN 232350Z 33007KT 5SM -SN BR FEW031 BKN041 OVC055 M04/M07 A2996 830 84 -1300 330/07 RMK AO2 SLP157 P0001 60002 T10441067 11006 21044 53017
14837KMSN MSN20031223175512512/23/03 17:55:31  5-MIN KMSN 232355Z 31007KT 5SM -SN BR FEW015 BKN039 OVC055 M04/M07 A2996 820 84 -1300 310/07 RMK AO2 P0000
14837KMSN MSN20031223180012512/23/03 18:00:31  5-MIN KMSN 240000Z 32008KT 5SM -SN BR FEW015 BKN037 OVC055 M04/M07 A2996 820 84 -1300 320/08 RMK AO2 P0000
14837KMSN MSN20031223180512512/23/03 18:05:31  5-MIN KMSN 240005Z 32010KT 6SM -SN BR FEW015 BKN037 OVC055 M04/M07 A2996 830 84 -1300 320/10 RMK AO2 P0000
14837KMSN MSN20031223181012212/23/03 18:10:31  5-MIN KMSN 240010Z 33008KT 8SM -SN FEW015 BKN039 OVC055 M04/M07 A2996 820 81 -1300 330/08 RMK AO2 P0000
14837KMSN MSN20031223181512212/23/03 18:15:31  5-MIN KMSN 240015Z 33008KT 9SM -SN FEW015 BKN039 OVC055 M04/M07 A2997 820 81 -1300 330/08 RMK AO2 P0000
14837KMSN MSN20031223182012212/23/03 18:20:31  5-MIN KMSN 240020Z 33007KT 9SM -SN FEW015 BKN039 OVC055 M04/M07 A2997 820 81 -1300 330/07 RMK AO2 P0000
14837KMSN MSN20031223182512212/23/03 18:25:31  5-MIN KMSN 240025Z 32009KT 9SM -SN BKN039 BKN047 OVC055 M04/M07 A2997 820 81 -1300 320/09 RMK AO2 P0000
14837KMSN MSN20031223183012212/23/03 18:30:31  5-MIN KMSN 240030Z 32010KT 9SM -SN BKN039 BKN049 OVC055 M04/M07 A2997 820 81 -1300 320/10 RMK AO2 P0000
14837KMSN MSN20031223183512212/23/03 18:35:31  5-MIN KMSN 240035Z 32007KT 8SM -SN BKN039 BKN047 OVC055 M04/M07 A2997 810 81 -1300 320/07 RMK AO2 P0000
14837KMSN MSN20031223184012212/23/03 18:40:31  5-MIN KMSN 240040Z VRB06KT 8SM -SN BKN039 BKN046 OVC055 M04/M08 A2997 810 78 -1300 VRB/06 RMK AO2 P0000
14837KMSN MSN20031223184511512/23/03 18:45:31  5-MIN KMSN 240045Z 32009KT 8SM -SN SCT039 OVC050 M04/M08 A2998 810 78 -1300 320/09 RMK AO2 P0000
14837KMSN MSN20031223185013912/23/03 18:50:31  5-MIN KMSN 240050Z 33009KT 5SM -SN FEW015 SCT039 OVC050 M04/M08 A2998 810 78 -1300 330/09 RMK AO2 SLP162 P0000 T10441078
14837KMSN MSN20031223185511512/23/03 18:55:31  5-MIN KMSN 240055Z 32007KT 6SM -SN FEW039 OVC050 M04/M08 A2998 810 78 -1300 320/07 RMK AO2 P0000
14837KMSN MSN20031223190011512/23/03 19:00:31  5-MIN KMSN 240100Z 33007KT 5SM -SN FEW039 OVC050 M04/M08 A2998 810 78 -1300 320/07 RMK AO2 P0000
14837KMSN MSN20031223190510812/23/03 19:05:31  5-MIN KMSN 240105Z 33007KT 5SM -SN OVC050 M04/M08 A2998 810 78 -1300 330/07 RMK AO2 P0000
14837KMSN MSN20031223191010812/23/03 19:10:31  5-MIN KMSN 240110Z 33009KT 7SM -SN OVC050 M04/M08 A2999 800 78 -1300 320/09 RMK AO2 P0000
14837KMSN MSN20031223191510812/23/03 19:15:31  5-MIN KMSN 240115Z 32006KT 8SM -SN OVC055 M04/M08 A2999 800 74 -1300 320/06 RMK AO2 P0000
14837KMSN MSN20031223192010812/23/03 19:20:31  5-MIN KMSN 240120Z 32008KT 8SM -SN OVC055 M04/M08 A2998 800 74 -1300 320/08 RMK AO2 P0000
14837KMSN MSN20031223192511512/23/03 19:25:31  5-MIN KMSN 240125Z 33008KT 8SM -SN SCT050 OVC060 M04/M09 A2999 800 71 -1300 330/08 RMK AO2 P0000
14837KMSN MSN20031223193012212/23/03 19:30:31  5-MIN KMSN 240130Z 32008KT 9SM -SN SCT050 BKN060 OVC080 M05/M09 A2999 800 74 -1400 320/08 RMK AO2 P0000
14837KMSN MSN20031223193512212/23/03 19:35:31  5-MIN KMSN 240135Z 32008KT 9SM -SN SCT050 BKN060 OVC080 M05/M09 A2999 800 71 -1400 310/08 RMK AO2 P0000
14837KMSN MSN20031223194012412/23/03 19:40:31  5-MIN KMSN 240140Z 32008KT 9SM SCT050 BKN060 BKN080 M05/M09 A2999 800 71 -1400 320/08 RMK AO2 SNE36 P0000
14837KMSN MSN20031223194512512/23/03 19:45:31  5-MIN KMSN 240145Z 32007KT 10SM SCT050 BKN060 BKN080 M05/M09 A2999 800 71 -1400 310/07 RMK AO2 SNE36 P0000
14837KMSN MSN20031223195014212/23/03 19:50:31  5-MIN KMSN 240150Z 32007KT 10SM FEW050 BKN060 BKN080 M05/M09 A2999 800 71 -1400 320/07 RMK AO2 SNE36 SLP169 P0000 T10501094
14837KMSN MSN20031223195511312/23/03 19:55:31  5-MIN KMSN 240155Z 31009KT 10SM SCT048 BKN055 OVC080 M05/M09 A3000 790 71 -1400 300/09 RMK AO2
14837KMSN MSN20031223200011312/23/03 20:00:31  5-MIN KMSN 240200Z 31009KT 10SM BKN048 BKN055 BKN080 M05/M09 A3000 790 71 -1400 310/09 RMK AO2
14837KMSN MSN20031223200511312/23/03 20:05:31  5-MIN KMSN 240205Z 32010KT 10SM BKN048 BKN055 BKN080 M05/M10 A3000 790 68 -1400 320/10 RMK AO2
14837KMSN MSN20031223201011312/23/03 20:10:31  5-MIN KMSN 240210Z 31009KT 10SM BKN048 BKN055 BKN080 M06/M10 A3000 790 71 -1500 310/09 RMK AO2
14837KMSN MSN20031223201511312/23/03 20:15:31  5-MIN KMSN 240215Z 31010KT 10SM BKN048 BKN055 BKN080 M06/M10 A3000 790 71 -1500 310/10 RMK AO2
14837KMSN MSN20031223202011312/23/03 20:20:31  5-MIN KMSN 240220Z 31009KT 10SM BKN048 BKN055 BKN080 M06/M10 A3000 790 71 -1500 310/09 RMK AO2
14837KMSN MSN20031223202511312/23/03 20:25:31  5-MIN KMSN 240225Z 32009KT 10SM BKN048 BKN055 BKN080 M06/M10 A3000 790 71 -1500 320/09 RMK AO2
14837KMSN MSN20031223203011312/23/03 20:30:31  5-MIN KMSN 240230Z 31010KT 10SM BKN048 BKN055 BKN080 M06/M10 A3000 790 71 -1500 310/10 RMK AO2
14837KMSN MSN20031223203510612/23/03 20:35:31  5-MIN KMSN 240235Z 31010KT 10SM BKN041 BKN055 M06/M10 A3001 790 71 -1500 310/10 RMK AO2
14837KMSN MSN20031223204010612/23/03 20:40:31  5-MIN KMSN 240240Z 32007KT 10SM BKN041 BKN055 M06/M11 A3001 780 68 -1500 320/07 RMK AO2
14837KMSN MSN20031223204510612/23/03 20:45:31  5-MIN KMSN 240245Z 31008KT 10SM FEW041 SCT050 M06/M11 A3001 780 71 -1500 310/08 RMK AO2
14837KMSN MSN20031223205013512/23/03 20:50:31  5-MIN KMSN 240250Z 31006KT 10SM FEW041 SCT050 M06/M11 A3001 780 71 -1600 310/06 RMK AO2 SLP174 60000 T10611106 51016
14837KMSN MSN20031223205509912/23/03 20:55:31  5-MIN KMSN 240255Z 32008KT 10SM SCT045 M06/M11 A3001 780 71 -1600 320/08 RMK AO2
14837KMSN MSN20031223210009912/23/03 21:00:31  5-MIN KMSN 240300Z 32008KT 10SM SCT045 M07/M11 A3001 780 74 -1600 320/08 RMK AO2
14837KMSN MSN20031223210509912/23/03 21:05:31  5-MIN KMSN 240305Z 31006KT 10SM SCT045 M07/M11 A3001 780 71 -1600 310/06 RMK AO2
14837KMSN MSN20031223211009912/23/03 21:10:31  5-MIN KMSN 240310Z 31006KT 10SM SCT045 M07/M11 A3001 780 71 -1600 310/06 RMK AO2
14837KMSN MSN20031223211509612/23/03 21:15:31  5-MIN KMSN 240315Z 32007KT 10SM CLR M07/M11 A3001 780 74 -1600 320/07 RMK AO2
14837KMSN MSN20031223212009612/23/03 21:20:31  5-MIN KMSN 240320Z 32007KT 10SM CLR M07/M11 A3001 780 71 -1600 320/07 RMK AO2
14837KMSN MSN20031223212509612/23/03 21:25:31  5-MIN KMSN 240325Z 31007KT 10SM CLR M07/M11 A3001 780 71 -1600 310/07 RMK AO2
14837KMSN MSN20031223213009612/23/03 21:30:31  5-MIN KMSN 240330Z 32007KT 10SM CLR M07/M12 A3002 780 68 -1600 320/07 RMK AO2
14837KMSN MSN20031223213509612/23/03 21:35:31  5-MIN KMSN 240335Z 32006KT 10SM CLR M07/M12 A3002 780 68 -1600 320/06 RMK AO2
14837KMSN MSN20031223214009612/23/03 21:40:31  5-MIN KMSN 240340Z 32006KT 10SM CLR M07/M11 A3002 780 71 -1600 320/06 RMK AO2
14837KMSN MSN20031223214509612/23/03 21:45:31  5-MIN KMSN 240345Z 32007KT 10SM CLR M07/M11 A3002 780 71 -1600 320/07 RMK AO2
14837KMSN MSN20031223215011312/23/03 21:50:31  5-MIN KMSN 240350Z 31007KT 10SM CLR M07/M11 A3002 770 74 -1700 310/07 RMK AO2 SLP177 T10721111
14837KMSN MSN20031223215509612/23/03 21:55:31  5-MIN KMSN 240355Z 32006KT 10SM CLR M07/M11 A3002 770 74 -1700 320/06 RMK AO2
14837KMSN MSN20031223220009612/23/03 22:00:31  5-MIN KMSN 240400Z 32006KT 10SM CLR M07/M12 A3002 770 71 -1700 320/06 RMK AO2
14837KMSN MSN20031223220509612/23/03 22:05:31  5-MIN KMSN 240405Z 32007KT 10SM CLR M07/M11 A3002 770 74 -1700 310/07 RMK AO2
14837KMSN MSN20031223221009612/23/03 22:10:31  5-MIN KMSN 240410Z 32008KT 10SM CLR M07/M11 A3002 770 74 -1700 310/08 RMK AO2
14837KMSN MSN20031223221509612/23/03 22:15:31  5-MIN KMSN 240415Z 31008KT 10SM CLR M07/M12 A3002 770 71 -1700 310/08 RMK AO2
14837KMSN MSN20031223222009612/23/03 22:20:31  5-MIN KMSN 240420Z 32007KT 10SM CLR M07/M12 A3002 770 71 -1700 310/07 RMK AO2
14837KMSN MSN20031223222509612/23/03 22:25:31  5-MIN KMSN 240425Z 32007KT 10SM CLR M07/M12 A3002 770 71 -1700 320/07 RMK AO2
14837KMSN MSN20031223223009612/23/03 22:30:31  5-MIN KMSN 240430Z 32008KT 10SM CLR M07/M12 A3002 770 71 -1700 320/08 RMK AO2
14837KMSN MSN20031223223509612/23/03 22:35:31  5-MIN KMSN 240435Z 31008KT 10SM CLR M07/M12 A3002 770 71 -1700 310/08 RMK AO2
14837KMSN MSN20031223224009612/23/03 22:40:31  5-MIN KMSN 240440Z 31007KT 10SM CLR M07/M12 A3002 770 71 -1700 310/07 RMK AO2
14837KMSN MSN20031223224509612/23/03 22:45:31  5-MIN KMSN 240445Z 31007KT 10SM CLR M07/M12 A3002 770 71 -1700 310/07 RMK AO2
14837KMSN MSN20031223225011312/23/03 22:50:31  5-MIN KMSN 240450Z 31006KT 10SM CLR M07/M11 A3002 770 74 -1700 310/06 RMK AO2 SLP178 T10721111
14837KMSN MSN20031223225509612/23/03 22:55:31  5-MIN KMSN 240455Z 31006KT 10SM CLR M08/M12 A3002 770 74 -1800 310/06 RMK AO2
14837KMSN MSN20031223230009612/23/03 23:00:31  5-MIN KMSN 240500Z 31007KT 10SM CLR M08/M12 A3002 770 74 -1800 310/07 RMK AO2
14837KMSN MSN20031223230509612/23/03 23:05:31  5-MIN KMSN 240505Z 32006KT 10SM CLR M08/M13 A3002 770 64 -1800 320/06 RMK AO2
14837KMSN MSN20031223231009612/23/03 23:10:31  5-MIN KMSN 240510Z 32008KT 10SM CLR M08/M13 A3002 770 64 -1800 320/08 RMK AO2
14837KMSN MSN20031223231509612/23/03 23:15:31  5-MIN KMSN 240515Z 32006KT 10SM CLR M08/M13 A3002 780 64 -1800 320/06 RMK AO2
14837KMSN MSN20031223232009612/23/03 23:20:31  5-MIN KMSN 240520Z 32007KT 10SM CLR M08/M13 A3002 780 64 -1800 320/07 RMK AO2
14837KMSN MSN20031223232509612/23/03 23:25:31  5-MIN KMSN 240525Z 33007KT 10SM CLR M08/M13 A3001 780 67 -1800 330/07 RMK AO2
14837KMSN MSN20031223233009612/23/03 23:30:31  5-MIN KMSN 240530Z 33007KT 10SM CLR M08/M12 A3001 780 71 -1800 330/07 RMK AO2
14837KMSN MSN20031223233509612/23/03 23:35:31  5-MIN KMSN 240535Z 32006KT 10SM CLR M08/M12 A3001 780 71 -1800 320/06 RMK AO2
14837KMSN MSN20031223234009612/23/03 23:40:31  5-MIN KMSN 240540Z 33007KT 10SM CLR M08/M12 A3001 780 74 -1800 320/07 RMK AO2
14837KMSN MSN20031223234509612/23/03 23:45:31  5-MIN KMSN 240545Z 33007KT 10SM CLR M08/M12 A3001 780 71 -1800 330/07 RMK AO2
14837KMSN MSN20031223235014712/23/03 23:50:31  5-MIN KMSN 240550Z 33007KT 10SM CLR M08/M12 A3001 780 71 -1800 330/07 RMK AO2 SLP176 60000 T10781122 11044 21078 400061078 52016
14837KMSN MSN20031223235509612/23/03 23:55:31  5-MIN KMSN 240555Z 32006KT 10SM CLR M08/M12 A3002 780 74 -1800 320/06 RMK AO2
14837KMSN MSN20031224000009612/24/03 00:00:31  5-MIN KMSN 240600Z 32006KT 10SM CLR M08/M12 A3002 780 74 -1800 320/06 RMK AO2
14837KMSN MSN20031224000509612/24/03 00:05:31  5-MIN KMSN 240605Z 33007KT 10SM CLR M08/M12 A3002 780 74 -1800 330/07 RMK AO2
14837KMSN MSN20031224001009612/24/03 00:10:31  5-MIN KMSN 240610Z 32005KT 10SM CLR M08/M12 A3002 770 74 -1800 320/05 RMK AO2
14837KMSN MSN20031224001509612/24/03 00:15:31  5-MIN KMSN 240615Z 32006KT 10SM CLR M08/M12 A3002 770 74 -1800 310/06 RMK AO2
14837KMSN MSN20031224002009612/24/03 00:20:31  5-MIN KMSN 240620Z 32007KT 10SM CLR M08/M12 A3002 770 74 -1900 320/07 RMK AO2
14837KMSN MSN20031224002509612/24/03 00:25:31  5-MIN KMSN 240625Z 32007KT 10SM CLR M08/M12 A3002 770 74 -1800 310/07 RMK AO2
14837KMSN MSN20031224003009612/24/03 00:30:31  5-MIN KMSN 240630Z 32007KT 10SM CLR M08/M12 A3003 770 74 -1900 320/07 RMK AO2
14837KMSN MSN20031224003509612/24/03 00:35:31  5-MIN KMSN 240635Z 31007KT 10SM CLR M08/M12 A3003 770 74 -1900 310/07 RMK AO2
14837KMSN MSN20031224004009612/24/03 00:40:31  5-MIN KMSN 240640Z 33006KT 10SM CLR M08/M12 A3003 760 74 -1900 330/06 RMK AO2
14837KMSN MSN20031224004509612/24/03 00:45:31  5-MIN KMSN 240645Z 33008KT 10SM CLR M08/M12 A3003 760 74 -1900 330/08 RMK AO2
14837KMSN MSN20031224005011312/24/03 00:50:31  5-MIN KMSN 240650Z 32007KT 10SM CLR M08/M12 A3003 760 74 -1900 320/07 RMK AO2 SLP184 T10831122
14837KMSN MSN20031224005509612/24/03 00:55:31  5-MIN KMSN 240655Z 33008KT 10SM CLR M08/M12 A3003 760 74 -1900 330/08 RMK AO2
14837KMSN MSN20031224010009612/24/03 01:00:31  5-MIN KMSN 240700Z 32009KT 10SM CLR M08/M12 A3003 760 74 -1900 320/09 RMK AO2
14837KMSN MSN20031224010509612/24/03 01:05:31  5-MIN KMSN 240705Z 33008KT 10SM CLR M08/M12 A3003 760 74 -1900 330/08 RMK AO2
14837KMSN MSN20031224011009612/24/03 01:10:31  5-MIN KMSN 240710Z 33007KT 10SM CLR M08/M12 A3004 760 74 -1900 330/07 RMK AO2
14837KMSN MSN20031224011509612/24/03 01:15:31  5-MIN KMSN 240715Z 32008KT 10SM CLR M08/M12 A3004 760 74 -1900 320/08 RMK AO2
14837KMSN MSN20031224012009612/24/03 01:20:31  5-MIN KMSN 240720Z 32006KT 10SM CLR M08/M12 A3004 760 74 -1900 320/06 RMK AO2
14837KMSN MSN20031224012509612/24/03 01:25:31  5-MIN KMSN 240725Z 32008KT 10SM CLR M08/M13 A3004 760 70 -1900 320/08 RMK AO2
14837KMSN MSN20031224013009612/24/03 01:30:31  5-MIN KMSN 240730Z 33007KT 10SM CLR M08/M12 A3004 750 74 -1900 330/07 RMK AO2
14837KMSN MSN20031224013509612/24/03 01:35:31  5-MIN KMSN 240735Z 33006KT 10SM CLR M08/M12 A3004 750 74 -1900 330/06 RMK AO2
14837KMSN MSN20031224014009612/24/03 01:40:31  5-MIN KMSN 240740Z 32008KT 10SM CLR M09/M12 A3004 750 77 -1900 320/08 RMK AO2
14837KMSN MSN20031224014509612/24/03 01:45:31  5-MIN KMSN 240745Z 32007KT 10SM CLR M09/M12 A3005 750 77 -2000 320/07 RMK AO2
14837KMSN MSN20031224015011312/24/03 01:50:31  5-MIN KMSN 240750Z 32006KT 10SM CLR M09/M12 A3005 750 77 -2000 320/06 RMK AO2 SLP188 T10891122
14837KMSN MSN20031224015509612/24/03 01:55:31  5-MIN KMSN 240755Z 32007KT 10SM CLR M09/M12 A3005 750 77 -2000 320/07 RMK AO2
14837KMSN MSN20031224020009612/24/03 02:00:31  5-MIN KMSN 240800Z 32007KT 10SM CLR M09/M13 A3005 740 74 -2000 310/07 RMK AO2
14837KMSN MSN20031224020509612/24/03 02:05:31  5-MIN KMSN 240805Z 32007KT 10SM CLR M09/M12 A3005 740 77 -2000 320/07 RMK AO2
14837KMSN MSN20031224021009612/24/03 02:10:31  5-MIN KMSN 240810Z 32006KT 10SM CLR M09/M13 A3005 740 74 -2000 320/06 RMK AO2
14837KMSN MSN20031224021509612/24/03 02:15:31  5-MIN KMSN 240815Z 32006KT 10SM CLR M09/M13 A3005 740 74 -2000 320/06 RMK AO2
14837KMSN MSN20031224022009612/24/03 02:20:31  5-MIN KMSN 240820Z 32007KT 10SM CLR M09/M13 A3006 740 74 -2000 320/07 RMK AO2
14837KMSN MSN20031224022509612/24/03 02:25:31  5-MIN KMSN 240825Z 32007KT 10SM CLR M09/M13 A3006 740 74 -2000 320/07 RMK AO2
14837KMSN MSN20031224023009612/24/03 02:30:31  5-MIN KMSN 240830Z 33007KT 10SM CLR M09/M13 A3006 740 77 -2000 320/07 RMK AO2
14837KMSN MSN20031224023509612/24/03 02:35:31  5-MIN KMSN 240835Z 33008KT 10SM CLR M09/M13 A3006 740 74 -2000 330/08 RMK AO2
14837KMSN MSN20031224024009612/24/03 02:40:31  5-MIN KMSN 240840Z 34006KT 10SM CLR M09/M13 A3006 740 77 -2000 340/06 RMK AO2
14837KMSN MSN20031224024509612/24/03 02:45:31  5-MIN KMSN 240845Z 32005KT 10SM CLR M09/M13 A3005 740 77 -2000 320/05 RMK AO2
14837KMSN MSN20031224025011912/24/03 02:50:31  5-MIN KMSN 240850Z 33005KT 10SM CLR M09/M13 A3005 740 77 -2000 320/05 RMK AO2 SLP191 T10941128 50001
14837KMSN MSN20031224025509612/24/03 02:55:31  5-MIN KMSN 240855Z 33007KT 10SM CLR M09/M13 A3006 740 77 -2000 320/07 RMK AO2
14837KMSN MSN20031224030009612/24/03 03:00:31  5-MIN KMSN 240900Z 33006KT 10SM CLR M09/M13 A3006 740 77 -2000 330/06 RMK AO2
14837KMSN MSN20031224030509612/24/03 03:05:31  5-MIN KMSN 240905Z 33006KT 10SM CLR M09/M13 A3006 740 77 -2000 320/06 RMK AO2
14837KMSN MSN20031224031009612/24/03 03:10:31  5-MIN KMSN 240910Z 33006KT 10SM CLR M09/M13 A3006 740 77 -2000 330/06 RMK AO2
14837KMSN MSN20031224031509612/24/03 03:15:31  5-MIN KMSN 240915Z 32004KT 10SM CLR M09/M13 A3006 740 77 -2000 320/04 RMK AO2
14837KMSN MSN20031224032009612/24/03 03:20:31  5-MIN KMSN 240920Z 32005KT 10SM CLR M09/M13 A3006 740 77 -2000 320/05 RMK AO2
14837KMSN MSN20031224032509612/24/03 03:25:31  5-MIN KMSN 240925Z 33004KT 10SM CLR M09/M13 A3006 740 77 -2000 330/04 RMK AO2
14837KMSN MSN20031224033009612/24/03 03:30:31  5-MIN KMSN 240930Z 33005KT 10SM CLR M09/M13 A3006 740 77 -2000 330/05 RMK AO2
14837KMSN MSN20031224033509612/24/03 03:35:31  5-MIN KMSN 240935Z 33004KT 10SM CLR M10/M13 A3006 740 80 -2100 330/04 RMK AO2
14837KMSN MSN20031224034009612/24/03 03:40:31  5-MIN KMSN 240940Z 32005KT 10SM CLR M10/M13 A3006 740 80 -2100 320/05 RMK AO2
14837KMSN MSN20031224034509612/24/03 03:45:31  5-MIN KMSN 240945Z 32006KT 10SM CLR M09/M13 A3006 740 77 -2000 320/06 RMK AO2
14837KMSN MSN20031224035011312/24/03 03:50:31  5-MIN KMSN 240950Z 31005KT 10SM CLR M10/M13 A3006 740 80 -2100 310/05 RMK AO2 SLP193 T11001128
14837KMSN MSN20031224035509612/24/03 03:55:31  5-MIN KMSN 240955Z 32004KT 10SM CLR M10/M13 A3006 740 80 -2100 320/04 RMK AO2
14837KMSN MSN20031224040009612/24/03 04:00:31  5-MIN KMSN 241000Z 32005KT 10SM CLR M10/M13 A3005 740 80 -2100 320/05 RMK AO2
14837KMSN MSN20031224040509612/24/03 04:05:31  5-MIN KMSN 241005Z 32005KT 10SM CLR M10/M13 A3006 740 80 -2100 310/05 RMK AO2
14837KMSN MSN20031224041009612/24/03 04:10:31  5-MIN KMSN 241010Z 31006KT 10SM CLR M10/M13 A3006 740 77 -2100 310/06 RMK AO2
14837KMSN MSN20031224041509612/24/03 04:15:31  5-MIN KMSN 241015Z 32006KT 10SM CLR M10/M13 A3006 740 80 -2100 320/06 RMK AO2
14837KMSN MSN20031224042009612/24/03 04:20:31  5-MIN KMSN 241020Z 31006KT 10SM CLR M10/M13 A3006 740 80 -2100 310/06 RMK AO2
14837KMSN MSN20031224042509612/24/03 04:25:31  5-MIN KMSN 241025Z 32006KT 10SM CLR M10/M13 A3006 740 80 -2100 320/06 RMK AO2
14837KMSN MSN20031224043009612/24/03 04:30:31  5-MIN KMSN 241030Z 32006KT 10SM CLR M10/M13 A3006 740 80 -2100 320/06 RMK AO2
14837KMSN MSN20031224043509612/24/03 04:35:31  5-MIN KMSN 241035Z 32005KT 10SM CLR M10/M13 A3006 740 80 -2100 320/05 RMK AO2
14837KMSN MSN20031224044009612/24/03 04:40:31  5-MIN KMSN 241040Z 32005KT 10SM CLR M10/M13 A3006 740 80 -2100 320/05 RMK AO2
14837KMSN MSN20031224044509612/24/03 04:45:31  5-MIN KMSN 241045Z 32005KT 10SM CLR M10/M13 A3005 740 80 -2100 320/05 RMK AO2
14837KMSN MSN20031224045011312/24/03 04:50:31  5-MIN KMSN 241050Z 31006KT 10SM CLR M10/M13 A3006 740 80 -2100 310/06 RMK AO2 SLP192 T11001128
14837KMSN MSN20031224045509612/24/03 04:55:31  5-MIN KMSN 241055Z 31005KT 10SM CLR M10/M13 A3006 740 80 -2100 310/05 RMK AO2
14837KMSN MSN20031224050009612/24/03 05:00:31  5-MIN KMSN 241100Z 31005KT 10SM CLR M10/M13 A3006 740 80 -2100 310/05 RMK AO2
14837KMSN MSN20031224050509612/24/03 05:05:31  5-MIN KMSN 241105Z 30005KT 10SM CLR M10/M13 A3006 740 80 -2100 300/05 RMK AO2
14837KMSN MSN20031224051009612/24/03 05:10:31  5-MIN KMSN 241110Z 31004KT 10SM CLR M10/M13 A3006 740 80 -2100 310/04 RMK AO2
14837KMSN MSN20031224051509612/24/03 05:15:31  5-MIN KMSN 241115Z 31005KT 10SM CLR M10/M13 A3006 740 80 -2100 310/05 RMK AO2
14837KMSN MSN20031224052009612/24/03 05:20:31  5-MIN KMSN 241120Z 31004KT 10SM CLR M10/M13 A3006 730 80 -2100 310/04 RMK AO2
14837KMSN MSN20031224052509612/24/03 05:25:31  5-MIN KMSN 241125Z 31005KT 10SM CLR M10/M13 A3006 730 80 -2100 310/05 RMK AO2
14837KMSN MSN20031224053009612/24/03 05:30:31  5-MIN KMSN 241130Z 32004KT 10SM CLR M10/M13 A3006 730 80 -2100 320/04 RMK AO2
14837KMSN MSN20031224053509612/24/03 05:35:31  5-MIN KMSN 241135Z 32003KT 10SM CLR M10/M13 A3007 730 80 -2100 320/03 RMK AO2
14837KMSN MSN20031224054009612/24/03 05:40:31  5-MIN KMSN 241140Z 31004KT 10SM CLR M10/M12 A3007 730 84 -2100 310/04 RMK AO2
14837KMSN MSN20031224054509612/24/03 05:45:31  5-MIN KMSN 241145Z 31003KT 10SM CLR M10/M13 A3007 730 80 -2100 310/03 RMK AO2
14837KMSN MSN20031224055013712/24/03 05:50:31  5-MIN KMSN 241150Z 30004KT 10SM CLR M11/M13 A3007 730 84 -2200 300/04 RMK AO2 SLP197 70002 T11061128 11078 21106 51013
14837KMSN MSN20031224055509612/24/03 05:55:31  5-MIN KMSN 241155Z 30003KT 10SM CLR M11/M13 A3007 730 84 -2200 300/03 RMK AO2
14837KMSN MSN20031224060009612/24/03 06:00:31  5-MIN KMSN 241200Z 31004KT 10SM CLR M11/M13 A3007 730 84 -2200 310/04 RMK AO2
14837KMSN MSN20031224060509612/24/03 06:05:31  5-MIN KMSN 241205Z 30004KT 10SM CLR M11/M13 A3007 730 84 -2200 300/04 RMK AO2
14837KMSN MSN20031224061009612/24/03 06:10:31  5-MIN KMSN 241210Z 30004KT 10SM CLR M11/M13 A3007 730 84 -2200 300/04 RMK AO2
14837KMSN MSN20031224061509612/24/03 06:15:31  5-MIN KMSN 241215Z 30003KT 10SM CLR M11/M13 A3007 720 84 -2200 300/03 RMK AO2
14837KMSN MSN20031224062009612/24/03 06:20:31  5-MIN KMSN 241220Z 30004KT 10SM CLR M11/M13 A3007 720 84 -2200 300/04 RMK AO2
14837KMSN MSN20031224062509612/24/03 06:25:31  5-MIN KMSN 241225Z 30004KT 10SM CLR M11/M13 A3008 720 84 -2200 300/04 RMK AO2
14837KMSN MSN20031224063009612/24/03 06:30:31  5-MIN KMSN 241230Z 31004KT 10SM CLR M11/M13 A3008 720 84 -2200 310/04 RMK AO2
14837KMSN MSN20031224063509612/24/03 06:35:31  5-MIN KMSN 241235Z 31004KT 10SM CLR M11/M13 A3008 720 84 -2200 310/04 RMK AO2
14837KMSN MSN20031224064009612/24/03 06:40:31  5-MIN KMSN 241240Z 31005KT 10SM CLR M11/M13 A3008 720 80 -2200 310/05 RMK AO2
14837KMSN MSN20031224064509612/24/03 06:45:31  5-MIN KMSN 241245Z 31006KT 10SM CLR M11/M13 A3008 720 84 -2200 310/06 RMK AO2
14837KMSN MSN20031224065011312/24/03 06:50:31  5-MIN KMSN 241250Z 31006KT 10SM CLR M11/M13 A3008 720 84 -2200 310/06 RMK AO2 SLP201 T11061128
14837KMSN MSN20031224065509612/24/03 06:55:31  5-MIN KMSN 241255Z 31005KT 10SM CLR M11/M13 A3008 720 84 -2200 310/05 RMK AO2
14837KMSN MSN20031224070009612/24/03 07:00:31  5-MIN KMSN 241300Z 32006KT 10SM CLR M11/M13 A3008 720 84 -2200 320/06 RMK AO2
14837KMSN MSN20031224070509612/24/03 07:05:31  5-MIN KMSN 241305Z 31006KT 10SM CLR M10/M13 A3008 720 80 -2100 310/06 RMK AO2
14837KMSN MSN20031224071009612/24/03 07:10:31  5-MIN KMSN 241310Z 31005KT 10SM CLR M11/M12 A3008 720 88 -2200 310/05 RMK AO2
14837KMSN MSN20031224071509612/24/03 07:15:31  5-MIN KMSN 241315Z 31005KT 10SM CLR M11/M13 A3008 720 84 -2200 310/05 RMK AO2
14837KMSN MSN20031224072009612/24/03 07:20:31  5-MIN KMSN 241320Z 31006KT 10SM CLR M11/M13 A3008 720 84 -2200 310/06 RMK AO2
14837KMSN MSN20031224072509612/24/03 07:25:31  5-MIN KMSN 241325Z 30007KT 10SM CLR M11/M13 A3008 720 80 -2200 300/07 RMK AO2
14837KMSN MSN20031224073009612/24/03 07:30:31  5-MIN KMSN 241330Z 30005KT 10SM CLR M11/M13 A3008 720 84 -2200 300/05 RMK AO2
14837KMSN MSN20031224073509612/24/03 07:35:31  5-MIN KMSN 241335Z 30006KT 10SM CLR M10/M13 A3008 720 80 -2100 300/06 RMK AO2
14837KMSN MSN20031224074009612/24/03 07:40:31  5-MIN KMSN 241340Z 30006KT 10SM CLR M10/M13 A3008 710 80 -2100 300/06 RMK AO2
14837KMSN MSN20031224074509612/24/03 07:45:31  5-MIN KMSN 241345Z 31007KT 10SM CLR M10/M13 A3008 710 80 -2100 310/07 RMK AO2
14837KMSN MSN20031224075011312/24/03 07:50:31  5-MIN KMSN 241350Z 31007KT 10SM CLR M10/M13 A3009 710 80 -2100 310/07 RMK AO2 SLP203 T11001128
14837KMSN MSN20031224075509612/24/03 07:55:31  5-MIN KMSN 241355Z 31006KT 10SM CLR M10/M12 A3009 710 88 -2100 310/06 RMK AO2
14837KMSN MSN20031224080009612/24/03 08:00:31  5-MIN KMSN 241400Z 31005KT 10SM CLR M10/M13 A3009 710 80 -2100 310/05 RMK AO2
14837KMSN MSN20031224080509612/24/03 08:05:31  5-MIN KMSN 241405Z 31006KT 10SM CLR M10/M13 A3009 710 80 -2100 310/06 RMK AO2
14837KMSN MSN20031224081009612/24/03 08:10:31  5-MIN KMSN 241410Z 31005KT 10SM CLR M10/M13 A3009 710 80 -2100 310/05 RMK AO2
14837KMSN MSN20031224081509612/24/03 08:15:31  5-MIN KMSN 241415Z 31006KT 10SM CLR M10/M13 A3009 710 80 -2100 310/06 RMK AO2
14837KMSN MSN20031224082009612/24/03 08:20:31  5-MIN KMSN 241420Z 31006KT 10SM CLR M09/M12 A3009 710 80 -2100 310/06 RMK AO2
14837KMSN MSN20031224082509612/24/03 08:25:31  5-MIN KMSN 241425Z 32006KT 10SM CLR M09/M12 A3008 710 80 -2100 320/06 RMK AO2
14837KMSN MSN20031224083009612/24/03 08:30:31  5-MIN KMSN 241430Z VRB05KT 10SM CLR M09/M12 A3009 710 80 -2100 VRB/05 RMK AO2
14837KMSN MSN20031224083509612/24/03 08:35:31  5-MIN KMSN 241435Z 32005KT 10SM CLR M09/M12 A3009 710 80 -2100 320/05 RMK AO2
14837KMSN MSN20031224084009612/24/03 08:40:31  5-MIN KMSN 241440Z 32007KT 10SM CLR M09/M12 A3009 710 77 -2000 320/07 RMK AO2
14837KMSN MSN20031224084509612/24/03 08:45:31  5-MIN KMSN 241445Z 33007KT 10SM CLR M09/M12 A3008 710 80 -2000 330/07 RMK AO2
14837KMSN MSN20031224085012212/24/03 08:50:31  5-MIN KMSN 241450Z 33007KT 10SM FEW020 M09/M12 A3008 710 77 -2000 330/07 RMK AO2 SLP203 T10891122 53004
14837KMSN MSN20031224085509912/24/03 08:55:31  5-MIN KMSN 241455Z 33006KT 10SM FEW020 M08/M12 A3009 710 77 -1900 320/06 RMK AO2
14837KMSN MSN20031224090009912/24/03 09:00:31  5-MIN KMSN 241500Z 32007KT 10SM FEW020 M08/M12 A3009 710 77 -1900 320/07 RMK AO2
14837KMSN MSN20031224090509912/24/03 09:05:31  5-MIN KMSN 241505Z 33007KT 10SM FEW020 M08/M12 A3008 710 77 -1900 330/07 RMK AO2
14837KMSN MSN20031224091009612/24/03 09:10:31  5-MIN KMSN 241510Z 33006KT 10SM CLR M08/M12 A3009 710 77 -1900 330/06 RMK AO2
14837KMSN MSN20031224091509612/24/03 09:15:31  5-MIN KMSN 241515Z 34007KT 10SM CLR M08/M11 A3009 710 77 -1900 340/07 RMK AO2
14837KMSN MSN20031224092009612/24/03 09:20:31  5-MIN KMSN 241520Z 33009KT 10SM CLR M08/M12 A3009 710 77 -1900 330/09 RMK AO2
14837KMSN MSN20031224092509612/24/03 09:25:31  5-MIN KMSN 241525Z 33006KT 10SM CLR M08/M12 A3009 710 74 -1900 320/06 RMK AO2
14837KMSN MSN20031224093009612/24/03 09:30:31  5-MIN KMSN 241530Z 32007KT 10SM CLR M08/M12 A3009 710 74 -1900 320/07 RMK AO2
14837KMSN MSN20031224093509612/24/03 09:35:31  5-MIN KMSN 241535Z 33010KT 10SM CLR M08/M11 A3009 710 77 -1900 330/10 RMK AO2
14837KMSN MSN20031224094009612/24/03 09:40:31  5-MIN KMSN 241540Z 33009KT 10SM CLR M08/M12 A3009 710 74 -1900 330/09 RMK AO2
14837KMSN MSN20031224094509612/24/03 09:45:31  5-MIN KMSN 241545Z 35007KT 10SM CLR M07/M12 A3009 710 71 -1800 350/07 RMK AO2
14837KMSN MSN20031224095011912/24/03 09:50:31  5-MIN KMSN 241550Z 33010G15KT 10SM CLR M07/M12 A3009 710 71 -1800 330/10G15 RMK AO2 SLP205 T10721117
14837KMSN MSN20031224095509912/24/03 09:55:31  5-MIN KMSN 241555Z 35008KT 10SM FEW022 M07/M12 A3009 710 71 -1800 350/08 RMK AO2
14837KMSN MSN20031224100009912/24/03 10:00:31  5-MIN KMSN 241600Z 32010KT 10SM FEW022 M07/M12 A3009 710 71 -1800 320/10 RMK AO2
14837KMSN MSN20031224100509912/24/03 10:05:31  5-MIN KMSN 241605Z 33007KT 10SM FEW022 M07/M12 A3009 710 68 -1700 330/07 RMK AO2
14837KMSN MSN20031224101009912/24/03 10:10:31  5-MIN KMSN 241610Z 35011KT 10SM FEW025 M07/M11 A3009 710 71 -1700 350/11 RMK AO2
14837KMSN MSN20031224101509912/24/03 10:15:31  5-MIN KMSN 241615Z 35012KT 10SM FEW025 M07/M12 A3009 710 68 -1700 350/12 RMK AO2
14837KMSN MSN20031224102009912/24/03 10:20:31  5-MIN KMSN 241620Z 32011KT 10SM FEW025 M07/M12 A3009 710 68 -1700 320/11 RMK AO2
14837KMSN MSN20031224102511512/24/03 10:25:31  5-MIN KMSN 241625Z 33010KT 310V010 10SM FEW025 M07/M12 A3008 710 68 -1700 330/10 310V010 RMK AO2
14837KMSN MSN20031224103010612/24/03 10:30:31  5-MIN KMSN 241630Z 33010KT 10SM FEW022 SCT030 M07/M12 A3008 720 68 -1700 330/10 RMK AO2
14837KMSN MSN20031224103510612/24/03 10:35:31  5-MIN KMSN 241635Z 35008KT 10SM FEW022 SCT030 M06/M11 A3008 720 71 -1600 350/08 RMK AO2
14837KMSN MSN20031224104009912/24/03 10:40:31  5-MIN KMSN 241640Z 32009KT 10SM SCT020 M06/M11 A3008 720 68 -1600 320/09 RMK AO2
14837KMSN MSN20031224104510512/24/03 10:45:31  5-MIN KMSN 241645Z 33010G16KT 10SM SCT020 M06/M11 A3008 720 68 -1600 320/10G16 RMK AO2
14837KMSN MSN20031224105012212/24/03 10:50:31  5-MIN KMSN 241650Z 33010G16KT 10SM SCT022 M06/M12 A3007 720 65 -1600 330/10G16 RMK AO2 SLP199 T10611117
14837KMSN MSN20031224105509912/24/03 10:55:31  5-MIN KMSN 241655Z 34011KT 10SM SCT020 M06/M11 A3007 730 68 -1600 340/11 RMK AO2
14837KMSN MSN20031224110009912/24/03 11:00:31  5-MIN KMSN 241700Z 33009KT 10SM SCT020 M06/M11 A3007 730 68 -1600 330/09 RMK AO2
14837KMSN MSN20031224110510512/24/03 11:05:31  5-MIN KMSN 241705Z 34009G15KT 10SM SCT022 M06/M11 A3007 730 65 -1500 340/09G15 RMK AO2
14837KMSN MSN20031224111010512/24/03 11:10:31  5-MIN KMSN 241710Z 34008G15KT 10SM SCT022 M06/M11 A3006 730 68 -1500 340/08G15 RMK AO2
14837KMSN MSN20031224111509912/24/03 11:15:31  5-MIN KMSN 241715Z 35010KT 10SM SCT022 M06/M11 A3006 730 68 -1600 350/10 RMK AO2
14837KMSN MSN20031224112009912/24/03 11:20:31  5-MIN KMSN 241720Z 34011KT 10SM SCT022 M06/M11 A3006 740 65 -1500 340/11 RMK AO2
14837KMSN MSN20031224112509912/24/03 11:25:31  5-MIN KMSN 241725Z 33011KT 10SM SCT022 M06/M12 A3006 740 65 -1600 330/11 RMK AO2
14837KMSN MSN20031224113011512/24/03 11:30:31  5-MIN KMSN 241730Z 32008KT 290V350 10SM SCT022 M06/M12 A3006 740 65 -1600 310/08 290V350 RMK AO2
14837KMSN MSN20031224113509912/24/03 11:35:31  5-MIN KMSN 241735Z 31009KT 10SM SCT022 M06/M11 A3006 740 65 -1500 310/09 RMK AO2
14837KMSN MSN20031224114009912/24/03 11:40:31  5-MIN KMSN 241740Z 33008KT 10SM SCT022 M06/M11 A3006 740 65 -1500 330/08 RMK AO2
14837KMSN MSN20031224114511512/24/03 11:45:31  5-MIN KMSN 241745Z 33009KT 300V010 10SM SCT022 M06/M11 A3006 740 68 -1500 330/09 300V010 RMK AO2
14837KMSN MSN20031224115013412/24/03 11:50:31  5-MIN KMSN 241750Z 33009KT 10SM SCT022 M06/M12 A3005 740 62 -1500 330/09 RMK AO2 SLP192 T10561117 11050 21106 50005
14837KMSN MSN20031224115509912/24/03 11:55:31  5-MIN KMSN 241755Z 33008KT 10SM SCT025 M05/M11 A3005 740 62 -1500 320/08 RMK AO2
14837KMSN MSN20031224120011512/24/03 12:00:31  5-MIN KMSN 241800Z 32007KT 290V360 10SM SCT025 M06/M11 A3005 750 65 -1500 320/07 290V360 RMK AO2
14837KMSN MSN20031224120509912/24/03 12:05:31  5-MIN KMSN 241805Z 33009KT 10SM SCT025 M05/M11 A3005 750 62 -1400 320/09 RMK AO2
14837KMSN MSN20031224121009912/24/03 12:10:31  5-MIN KMSN 241810Z 36009KT 10SM SCT025 M05/M11 A3005 750 62 -1400 360/09 RMK AO2
14837KMSN MSN20031224121509912/24/03 12:15:31  5-MIN KMSN 241815Z 31010KT 10SM SCT025 M05/M11 A3005 750 62 -1400 310/10 RMK AO2
14837KMSN MSN20031224122009912/24/03 12:20:31  5-MIN KMSN 241820Z 34007KT 10SM SCT025 M06/M12 A3004 750 62 -1500 340/07 RMK AO2
14837KMSN MSN20031224122509912/24/03 12:25:31  5-MIN KMSN 241825Z 30009KT 10SM SCT025 M05/M11 A3004 750 62 -1400 300/09 RMK AO2
14837KMSN MSN20031224123009912/24/03 12:30:31  5-MIN KMSN 241830Z 33009KT 10SM SCT025 M05/M11 A3005 750 62 -1400 320/09 RMK AO2
14837KMSN MSN20031224123509912/24/03 12:35:31  5-MIN KMSN 241835Z 32009KT 10SM SCT025 M04/M11 A3005 750 60 -1400 310/09 RMK AO2
14837KMSN MSN20031224124011512/24/03 12:40:31  5-MIN KMSN 241840Z 32009KT 280V340 10SM SCT025 M05/M11 A3004 750 62 -1400 320/09 280V340 RMK AO2
14837KMSN MSN20031224124509912/24/03 12:45:31  5-MIN KMSN 241845Z 32011KT 10SM SCT025 M05/M11 A3004 750 62 -1400 310/11 RMK AO2
14837KMSN MSN20031224125011612/24/03 12:50:31  5-MIN KMSN 241850Z 32008KT 10SM SCT025 M05/M12 A3004 750 60 -1400 320/08 RMK AO2 SLP188 T10501117
14837KMSN MSN20031224125509912/24/03 12:55:31  5-MIN KMSN 241855Z 33009KT 10SM SCT026 M04/M11 A3004 750 60 -1400 330/09 RMK AO2
14837KMSN MSN20031224130009912/24/03 13:00:31  5-MIN KMSN 241900Z 31010KT 10SM BKN026 M05/M12 A3004 750 60 -1400 310/10 RMK AO2
14837KMSN MSN20031224130509912/24/03 13:05:31  5-MIN KMSN 241905Z 34008KT 10SM SCT026 M05/M12 A3004 750 60 -1400 340/08 RMK AO2
14837KMSN MSN20031224131009912/24/03 13:10:31  5-MIN KMSN 241910Z 33006KT 10SM SCT026 M04/M11 A3004 750 60 -1400 330/06 RMK AO2
14837KMSN MSN20031224131509912/24/03 13:15:31  5-MIN KMSN 241915Z 35008KT 10SM SCT026 M05/M12 A3004 750 60 -1400 350/08 RMK AO2
14837KMSN MSN20031224132011512/24/03 13:20:31  5-MIN KMSN 241920Z 32008KT 290V350 10SM SCT026 M06/M12 A3005 750 62 -1500 320/08 290V350 RMK AO2
14837KMSN MSN20031224132509912/24/03 13:25:31  5-MIN KMSN 241925Z 32007KT 10SM SCT026 M04/M11 A3005 750 60 -1400 320/07 RMK AO2
14837KMSN MSN20031224133009912/24/03 13:30:31  5-MIN KMSN 241930Z 34009KT 10SM SCT026 M04/M11 A3005 750 60 -1400 340/09 RMK AO2
14837KMSN MSN20031224133509912/24/03 13:35:31  5-MIN KMSN 241935Z 36009KT 10SM SCT026 M04/M12 A3005 750 57 -1400 360/09 RMK AO2
14837KMSN MSN20031224134009912/24/03 13:40:31  5-MIN KMSN 241940Z 34007KT 10SM SCT026 M04/M12 A3005 750 57 -1400 340/07 RMK AO2
14837KMSN MSN20031224134509912/24/03 13:45:31  5-MIN KMSN 241945Z 33007KT 10SM SCT026 M04/M12 A3005 750 57 -1400 330/07 RMK AO2
14837KMSN MSN20031224135011612/24/03 13:50:31  5-MIN KMSN 241950Z 33009KT 10SM SCT026 M04/M12 A3005 750 57 -1400 330/09 RMK AO2 SLP190 T10441117
14837KMSN MSN20031224135509912/24/03 13:55:31  5-MIN KMSN 241955Z 31009KT 10SM SCT028 M04/M12 A3005 750 57 -1400 310/09 RMK AO2
14837KMSN MSN20031224140009912/24/03 14:00:31  5-MIN KMSN 242000Z 31008KT 10SM SCT028 M04/M12 A3005 740 57 -1400 310/08 RMK AO2
14837KMSN MSN20031224140509912/24/03 14:05:31  5-MIN KMSN 242005Z 32008KT 10SM SCT028 M04/M11 A3005 740 57 -1300 320/08 RMK AO2
14837KMSN MSN20031224141009912/24/03 14:10:31  5-MIN KMSN 242010Z 32009KT 10SM SCT028 M05/M12 A3005 740 60 -1500 320/09 RMK AO2
14837KMSN MSN20031224141509912/24/03 14:15:31  5-MIN KMSN 242015Z 31008KT 10SM BKN030 M04/M12 A3005 740 57 -1400 300/08 RMK AO2
14837KMSN MSN20031224142009912/24/03 14:20:31  5-MIN KMSN 242020Z 30006KT 10SM BKN030 M04/M12 A3006 740 57 -1400 300/06 RMK AO2
14837KMSN MSN20031224142509912/24/03 14:25:31  5-MIN KMSN 242025Z 30007KT 10SM BKN030 M04/M12 A3006 740 57 -1400 300/07 RMK AO2
14837KMSN MSN20031224143009912/24/03 14:30:31  5-MIN KMSN 242030Z 31006KT 10SM BKN030 M05/M11 A3006 740 62 -1500 310/06 RMK AO2
14837KMSN MSN20031224143511512/24/03 14:35:31  5-MIN KMSN 242035Z 31008KT 270V340 10SM BKN030 M04/M11 A3006 740 60 -1400 310/08 270V340 RMK AO2
14837KMSN MSN20031224144009912/24/03 14:40:31  5-MIN KMSN 242040Z 30009KT 10SM BKN030 M04/M11 A3006 730 60 -1400 300/09 RMK AO2
14837KMSN MSN20031224144509912/24/03 14:45:31  5-MIN KMSN 242045Z 30008KT 10SM OVC030 M04/M12 A3006 730 57 -1400 300/08 RMK AO2
14837KMSN MSN20031224145012212/24/03 14:50:31  5-MIN KMSN 242050Z 33006KT 10SM BKN030 M04/M11 A3006 740 60 -1400 330/06 RMK AO2 SLP194 T10441111 58011
14837KMSN MSN20031224145509912/24/03 14:55:31  5-MIN KMSN 242055Z 31008KT 10SM BKN030 M04/M11 A3006 740 60 -1400 300/08 RMK AO2
14837KMSN MSN20031224150009912/24/03 15:00:31  5-MIN KMSN 242100Z 34007KT 10SM BKN030 M04/M11 A3006 730 60 -1400 340/07 RMK AO2
14837KMSN MSN20031224150511512/24/03 15:05:31  5-MIN KMSN 242105Z 34008KT 310V020 10SM BKN030 M04/M11 A3006 730 60 -1400 340/08 310V020 RMK AO2
14837KMSN MSN20031224151009912/24/03 15:10:31  5-MIN KMSN 242110Z 35008KT 10SM BKN030 M04/M11 A3006 730 57 -1300 350/08 RMK AO2
14837KMSN MSN20031224151509912/24/03 15:15:31  5-MIN KMSN 242115Z 35007KT 10SM SCT030 M04/M11 A3006 730 57 -1300 350/07 RMK AO2
14837KMSN MSN20031224152009912/24/03 15:20:31  5-MIN KMSN 242120Z 34007KT 10SM BKN030 M04/M11 A3006 730 60 -1400 340/07 RMK AO2
14837KMSN MSN20031224152509912/24/03 15:25:31  5-MIN KMSN 242125Z 35007KT 10SM BKN030 M04/M11 A3007 730 60 -1400 350/07 RMK AO2
14837KMSN MSN20031224153009912/24/03 15:30:31  5-MIN KMSN 242130Z 35006KT 10SM BKN030 M04/M11 A3007 730 60 -1300 350/06 RMK AO2
14837KMSN MSN20031224153509912/24/03 15:35:31  5-MIN KMSN 242135Z 34007KT 10SM BKN030 M04/M11 A3007 730 57 -1300 340/07 RMK AO2
14837KMSN MSN20031224154009912/24/03 15:40:31  5-MIN KMSN 242140Z 35008KT 10SM BKN030 M04/M11 A3007 720 60 -1300 350/08 RMK AO2
14837KMSN MSN20031224154509912/24/03 15:45:31  5-MIN KMSN 242145Z 34006KT 10SM BKN030 M04/M11 A3007 720 60 -1400 340/06 RMK AO2
14837KMSN MSN20031224155011612/24/03 15:50:31  5-MIN KMSN 242150Z 35005KT 10SM BKN030 M04/M11 A3007 720 62 -1400 340/05 RMK AO2 SLP199 T10441106
14837KMSN MSN20031224155509912/24/03 15:55:31  5-MIN KMSN 242155Z 34006KT 10SM OVC030 M04/M11 A3007 730 62 -1400 340/06 RMK AO2
14837KMSN MSN20031224160009912/24/03 16:00:31  5-MIN KMSN 242200Z VRB06KT 10SM BKN030 M04/M11 A3007 730 60 -1400 VRB/06 RMK AO2
14837KMSN MSN20031224160509912/24/03 16:05:31  5-MIN KMSN 242205Z 33005KT 10SM BKN030 M05/M11 A3007 730 62 -1500 330/05 RMK AO2
14837KMSN MSN20031224161009912/24/03 16:10:31  5-MIN KMSN 242210Z 30006KT 10SM BKN030 M05/M11 A3007 730 62 -1500 300/06 RMK AO2
14837KMSN MSN20031224161509912/24/03 16:15:31  5-MIN KMSN 242215Z 31006KT 10SM BKN030 M05/M11 A3007 730 62 -1500 310/06 RMK AO2
14837KMSN MSN20031224162009912/24/03 16:20:31  5-MIN KMSN 242220Z 31007KT 10SM BKN030 M05/M11 A3007 720 62 -1500 310/07 RMK AO2
14837KMSN MSN20031224162509912/24/03 16:25:31  5-MIN KMSN 242225Z 31006KT 10SM FEW030 M05/M12 A3007 730 60 -1500 310/06 RMK AO2
14837KMSN MSN20031224163009912/24/03 16:30:31  5-MIN KMSN 242230Z VRB06KT 10SM FEW030 M05/M11 A3007 730 62 -1500 VRB/06 RMK AO2
14837KMSN MSN20031224163509912/24/03 16:35:31  5-MIN KMSN 242235Z 34006KT 10SM FEW030 M06/M11 A3007 730 65 -1500 340/06 RMK AO2
14837KMSN MSN20031224164009912/24/03 16:40:31  5-MIN KMSN 242240Z 33005KT 10SM FEW030 M06/M11 A3007 730 65 -1500 330/05 RMK AO2
14837KMSN MSN20031224164509912/24/03 16:45:31  5-MIN KMSN 242245Z 32005KT 10SM FEW030 M06/M11 A3007 720 65 -1500 320/05 RMK AO2
14837KMSN MSN20031224165011612/24/03 16:50:31  5-MIN KMSN 242250Z 31004KT 10SM FEW030 M06/M11 A3007 720 65 -1600 310/04 RMK AO2 SLP200 T10561111
14837KMSN MSN20031224165509612/24/03 16:55:31  5-MIN KMSN 242255Z 32003KT 10SM CLR M06/M11 A3008 720 65 -1600 320/03 RMK AO2
14837KMSN MSN20031224170009912/24/03 17:00:31  5-MIN KMSN 242300Z 32004KT 10SM FEW030 M06/M12 A3008 720 62 -1600 320/04 RMK AO2
14837KMSN MSN20031224170509912/24/03 17:05:31  5-MIN KMSN 242305Z 32004KT 10SM FEW030 M06/M11 A3008 720 65 -1600 320/04 RMK AO2
14837KMSN MSN20031224171009912/24/03 17:10:31  5-MIN KMSN 242310Z 32003KT 10SM FEW030 M06/M11 A3008 720 68 -1600 320/03 RMK AO2
14837KMSN MSN20031224171509912/24/03 17:15:31  5-MIN KMSN 242315Z 30003KT 10SM FEW030 M06/M11 A3008 720 68 -1600 300/03 RMK AO2
14837KMSN MSN20031224172009912/24/03 17:20:31  5-MIN KMSN 242320Z 28003KT 10SM FEW030 M06/M11 A3008 720 68 -1600 280/03 RMK AO2
14837KMSN MSN20031224172509912/24/03 17:25:31  5-MIN KMSN 242325Z 30004KT 10SM FEW030 M07/M11 A3008 720 71 -1700 300/04 RMK AO2
14837KMSN MSN20031224173009912/24/03 17:30:31  5-MIN KMSN 242330Z 31004KT 10SM FEW030 M06/M11 A3008 710 68 -1600 310/04 RMK AO2
14837KMSN MSN20031224173509912/24/03 17:35:31  5-MIN KMSN 242335Z 29003KT 10SM FEW030 M07/M11 A3008 710 71 -1700 290/03 RMK AO2
14837KMSN MSN20031224174009912/24/03 17:40:31  5-MIN KMSN 242340Z 00000KT 10SM FEW030 M07/M11 A3009 710 71 -1700 000/00 RMK AO2
14837KMSN MSN20031224174509912/24/03 17:45:31  5-MIN KMSN 242345Z 00000KT 10SM FEW030 M07/M11 A3009 710 74 -1800 000/00 RMK AO2
14837KMSN MSN20031224175013412/24/03 17:50:31  5-MIN KMSN 242350Z 00000KT 10SM FEW030 M07/M11 A3009 710 77 -1800 000/00 RMK AO2 SLP205 T10721106 11039 21072 53003
14837KMSN MSN20031224175509612/24/03 17:55:31  5-MIN KMSN 242355Z VRB03KT 10SM CLR M07/M11 A3009 710 77 -1800 VRB/03 RMK AO2
14837KMSN MSN20031224180009612/24/03 18:00:31  5-MIN KMSN 250000Z 30003KT 10SM CLR M07/M11 A3009 710 77 -1800 300/03 RMK AO2
14837KMSN MSN20031224180509612/24/03 18:05:31  5-MIN KMSN 250005Z 31004KT 10SM CLR M07/M11 A3009 710 71 -1700 310/04 RMK AO2
14837KMSN MSN20031224181009612/24/03 18:10:31  5-MIN KMSN 250010Z 30004KT 10SM CLR M07/M11 A3009 710 71 -1700 300/04 RMK AO2
14837KMSN MSN20031224181509612/24/03 18:15:31  5-MIN KMSN 250015Z 29003KT 10SM CLR M07/M11 A3009 710 71 -1700 290/03 RMK AO2
14837KMSN MSN20031224182009612/24/03 18:20:31  5-MIN KMSN 250020Z 29003KT 10SM CLR M07/M11 A3009 710 74 -1800 290/03 RMK AO2
14837KMSN MSN20031224182509612/24/03 18:25:31  5-MIN KMSN 250025Z 00000KT 10SM CLR M07/M11 A3009 710 74 -1700 000/00 RMK AO2
14837KMSN MSN20031224183009612/24/03 18:30:31  5-MIN KMSN 250030Z 00000KT 10SM CLR M07/M11 A3009 710 77 -1800 000/00 RMK AO2
14837KMSN MSN20031224183509612/24/03 18:35:31  5-MIN KMSN 250035Z 31003KT 10SM CLR M07/M11 A3009 710 77 -1800 310/03 RMK AO2
14837KMSN MSN20031224184009612/24/03 18:40:31  5-MIN KMSN 250040Z 32003KT 10SM CLR M07/M11 A3009 710 77 -1800 320/03 RMK AO2
14837KMSN MSN20031224184509612/24/03 18:45:31  5-MIN KMSN 250045Z 00000KT 10SM CLR M07/M11 A3008 710 74 -1800 000/00 RMK AO2
14837KMSN MSN20031224185011312/24/03 18:50:31  5-MIN KMSN 250050Z 00000KT 10SM CLR M07/M11 A3008 710 74 -1800 000/00 RMK AO2 SLP203 T10721111
14837KMSN MSN20031224185509612/24/03 18:55:31  5-MIN KMSN 250055Z 00000KT 10SM CLR M08/M11 A3008 720 77 -1800 000/00 RMK AO2
14837KMSN MSN20031224190009612/24/03 19:00:31  5-MIN KMSN 250100Z 00000KT 10SM CLR M08/M11 A3008 720 77 -1800 000/00 RMK AO2
14837KMSN MSN20031224190509612/24/03 19:05:31  5-MIN KMSN 250105Z 00000KT 10SM CLR M08/M12 A3009 710 74 -1900 000/00 RMK AO2
14837KMSN MSN20031224191009612/24/03 19:10:31  5-MIN KMSN 250110Z 26003KT 10SM CLR M08/M11 A3009 710 80 -1900 260/03 RMK AO2
14837KMSN MSN20031224191509612/24/03 19:15:31  5-MIN KMSN 250115Z 27003KT 10SM CLR M09/M12 A3009 710 84 -2100 270/03 RMK AO2
14837KMSN MSN20031224192009612/24/03 19:20:31  5-MIN KMSN 250120Z 29004KT 10SM CLR M09/M12 A3008 710 80 -2000 290/04 RMK AO2
14837KMSN MSN20031224192509612/24/03 19:25:31  5-MIN KMSN 250125Z 29003KT 10SM CLR M09/M12 A3008 720 84 -2100 290/03 RMK AO2
14837KMSN MSN20031224193009612/24/03 19:30:31  5-MIN KMSN 250130Z 00000KT 10SM CLR M09/M12 A3008 720 84 -2100 000/00 RMK AO2
14837KMSN MSN20031224193509612/24/03 19:35:31  5-MIN KMSN 250135Z 00000KT 10SM CLR M09/M11 A3008 720 84 -2000 000/00 RMK AO2
14837KMSN MSN20031224194009612/24/03 19:40:31  5-MIN KMSN 250140Z 30003KT 10SM CLR M09/M11 A3008 710 84 -2000 300/03 RMK AO2
14837KMSN MSN20031224194509612/24/03 19:45:31  5-MIN KMSN 250145Z 30003KT 10SM CLR M09/M11 A3008 710 84 -2000 300/03 RMK AO2
14837KMSN MSN20031224195011312/24/03 19:50:31  5-MIN KMSN 250150Z 29003KT 10SM CLR M09/M11 A3008 710 84 -2000 290/03 RMK AO2 SLP203 T10891111
14837KMSN MSN20031224195509612/24/03 19:55:31  5-MIN KMSN 250155Z 30003KT 10SM CLR M09/M12 A3008 720 80 -2000 290/03 RMK AO2
14837KMSN MSN20031224200009612/24/03 20:00:31  5-MIN KMSN 250200Z 00000KT 10SM CLR M08/M11 A3008 710 80 -1900 000/00 RMK AO2
14837KMSN MSN20031224200509612/24/03 20:05:31  5-MIN KMSN 250205Z 00000KT 10SM CLR M09/M12 A3008 710 84 -2100 000/00 RMK AO2
14837KMSN MSN20031224201009612/24/03 20:10:31  5-MIN KMSN 250210Z 00000KT 10SM CLR M09/M12 A3008 710 84 -2100 000/00 RMK AO2
14837KMSN MSN20031224201509612/24/03 20:15:31  5-MIN KMSN 250215Z 00000KT 10SM CLR M09/M11 A3008 710 84 -2000 000/00 RMK AO2
14837KMSN MSN20031224202009612/24/03 20:20:31  5-MIN KMSN 250220Z 00000KT 10SM CLR M09/M11 A3008 710 88 -2100 000/00 RMK AO2
14837KMSN MSN20031224202509612/24/03 20:25:31  5-MIN KMSN 250225Z 00000KT 10SM CLR M09/M11 A3008 710 88 -2100 000/00 RMK AO2
14837KMSN MSN20031224203009612/24/03 20:30:31  5-MIN KMSN 250230Z 00000KT 10SM CLR M09/M11 A3008 710 88 -2100 000/00 RMK AO2
14837KMSN MSN20031224203509612/24/03 20:35:31  5-MIN KMSN 250235Z 00000KT 10SM CLR M09/M11 A3008 710 88 -2100 000/00 RMK AO2
14837KMSN MSN20031224204009612/24/03 20:40:31  5-MIN KMSN 250240Z 00000KT 10SM CLR M09/M11 A3008 710 88 -2100 000/00 RMK AO2
14837KMSN MSN20031224204509612/24/03 20:45:31  5-MIN KMSN 250245Z 00000KT 10SM CLR M09/M12 A3008 710 80 -2000 000/00 RMK AO2
14837KMSN MSN20031224205011912/24/03 20:50:31  5-MIN KMSN 250250Z 00000KT 10SM CLR M09/M11 A3008 710 88 -2100 000/00 RMK AO2 SLP204 T10941111 53009
14837KMSN MSN20031224205509612/24/03 20:55:31  5-MIN KMSN 250255Z 00000KT 10SM CLR M09/M12 A3008 720 84 -2100 000/00 RMK AO2
14837KMSN MSN20031224210009612/24/03 21:00:31  5-MIN KMSN 250300Z 00000KT 10SM CLR M09/M12 A3008 720 84 -2100 000/00 RMK AO2
14837KMSN MSN20031224210509612/24/03 21:05:31  5-MIN KMSN 250305Z 00000KT 10SM CLR M09/M12 A3008 710 84 -2100 000/00 RMK AO2
14837KMSN MSN20031224211009612/24/03 21:10:31  5-MIN KMSN 250310Z 00000KT 10SM CLR M09/M11 A3008 720 88 -2100 000/00 RMK AO2
14837KMSN MSN20031224211509612/24/03 21:15:31  5-MIN KMSN 250315Z 00000KT 10SM CLR M09/M12 A3008 720 84 -2100 000/00 RMK AO2
14837KMSN MSN20031224212009612/24/03 21:20:31  5-MIN KMSN 250320Z 00000KT 10SM CLR M10/M12 A3008 720 84 -2100 000/00 RMK AO2
14837KMSN MSN20031224212509612/24/03 21:25:31  5-MIN KMSN 250325Z 00000KT 10SM CLR M11/M13 A3008 720 84 -2200 000/00 RMK AO2
14837KMSN MSN20031224213009612/24/03 21:30:31  5-MIN KMSN 250330Z 00000KT 10SM CLR M10/M13 A3007 720 80 -2100 000/00 RMK AO2
14837KMSN MSN20031224213509612/24/03 21:35:31  5-MIN KMSN 250335Z 00000KT 10SM CLR M10/M12 A3007 720 84 -2100 000/00 RMK AO2
14837KMSN MSN20031224214009612/24/03 21:40:31  5-MIN KMSN 250340Z 00000KT 10SM CLR M10/M13 A3007 730 80 -2100 000/00 RMK AO2
14837KMSN MSN20031224214509612/24/03 21:45:31  5-MIN KMSN 250345Z 00000KT 10SM CLR M10/M13 A3007 730 80 -2100 000/00 RMK AO2
14837KMSN MSN20031224215011312/24/03 21:50:31  5-MIN KMSN 250350Z 00000KT 10SM CLR M10/M12 A3007 730 88 -2100 000/00 RMK AO2 SLP199 T11001117
14837KMSN MSN20031224215509612/24/03 21:55:31  5-MIN KMSN 250355Z 00000KT 10SM CLR M10/M12 A3007 730 88 -2100 000/00 RMK AO2
14837KMSN MSN20031224220009612/24/03 22:00:31  5-MIN KMSN 250400Z 00000KT 10SM CLR M10/M12 A3007 730 84 -2100 000/00 RMK AO2
14837KMSN MSN20031224220509612/24/03 22:05:31  5-MIN KMSN 250405Z 00000KT 10SM CLR M10/M12 A3007 730 88 -2100 000/00 RMK AO2
14837KMSN MSN20031224221009612/24/03 22:10:31  5-MIN KMSN 250410Z 00000KT 10SM CLR M10/M12 A3007 730 88 -2100 000/00 RMK AO2
14837KMSN MSN20031224221509612/24/03 22:15:31  5-MIN KMSN 250415Z 00000KT 10SM CLR M10/M12 A3007 730 84 -2100 000/00 RMK AO2
14837KMSN MSN20031224222009612/24/03 22:20:31  5-MIN KMSN 250420Z 00000KT 10SM CLR M11/M12 A3007 730 92 -2200 000/00 RMK AO2
14837KMSN MSN20031224222509612/24/03 22:25:31  5-MIN KMSN 250425Z 00000KT 10SM CLR M11/M12 A3007 730 92 -2200 000/00 RMK AO2
14837KMSN MSN20031224223009612/24/03 22:30:31  5-MIN KMSN 250430Z 00000KT 10SM CLR M11/M12 A3007 730 92 -2300 000/00 RMK AO2
14837KMSN MSN20031224223509612/24/03 22:35:31  5-MIN KMSN 250435Z 00000KT 10SM CLR M11/M12 A3007 720 92 -2300 000/00 RMK AO2
14837KMSN MSN20031224224009612/24/03 22:40:31  5-MIN KMSN 250440Z 28003KT 10SM CLR M11/M12 A3007 730 92 -2300 280/03 RMK AO2
14837KMSN MSN20031224224509612/24/03 22:45:31  5-MIN KMSN 250445Z 27003KT 10SM CLR M11/M12 A3007 730 88 -2200 270/03 RMK AO2
14837KMSN MSN20031224225011312/24/03 22:50:31  5-MIN KMSN 250450Z 00000KT 10SM CLR M11/M12 A3007 730 92 -2200 000/00 RMK AO2 SLP199 T11061117
14837KMSN MSN20031224225509612/24/03 22:55:31  5-MIN KMSN 250455Z 00000KT 10SM CLR M11/M11 A3007 730 96 -2200 000/00 RMK AO2
14837KMSN MSN20031224230009612/24/03 23:00:31  5-MIN KMSN 250500Z 00000KT 10SM CLR M10/M11 A3006 730 92 -2100 000/00 RMK AO2
14837KMSN MSN20031224230509612/24/03 23:05:31  5-MIN KMSN 250505Z 00000KT 10SM CLR M11/M14 A3006 730 77 -2200 000/00 RMK AO2
14837KMSN MSN20031224231009612/24/03 23:10:31  5-MIN KMSN 250510Z 00000KT 10SM CLR M11/M14 A3006 740 77 -2200 000/00 RMK AO2
14837KMSN MSN20031224231509612/24/03 23:15:31  5-MIN KMSN 250515Z 00000KT 10SM CLR M11/M14 A3006 740 77 -2200 000/00 RMK AO2
14837KMSN MSN20031224232009612/24/03 23:20:31  5-MIN KMSN 250520Z 00000KT 10SM CLR M11/M13 A3006 740 80 -2200 000/00 RMK AO2
14837KMSN MSN20031224232509612/24/03 23:25:31  5-MIN KMSN 250525Z 00000KT 10SM CLR M11/M13 A3006 740 84 -2200 000/00 RMK AO2
14837KMSN MSN20031224233009612/24/03 23:30:31  5-MIN KMSN 250530Z 00000KT 10SM CLR M11/M13 A3006 740 84 -2200 000/00 RMK AO2
14837KMSN MSN20031224233509612/24/03 23:35:31  5-MIN KMSN 250535Z 00000KT 10SM CLR M11/M12 A3006 740 88 -2200 000/00 RMK AO2
14837KMSN MSN20031224234009612/24/03 23:40:31  5-MIN KMSN 250540Z 27003KT 10SM CLR M11/M12 A3006 740 88 -2200 270/03 RMK AO2
14837KMSN MSN20031224234509612/24/03 23:45:31  5-MIN KMSN 250545Z 27003KT 10SM CLR M10/M12 A3006 740 84 -2100 260/03 RMK AO2
14837KMSN MSN20031224235014112/24/03 23:50:31  5-MIN KMSN 250550Z 00000KT 10SM CLR M09/M11 A3006 740 84 -2000 000/00 RMK AO2 SLP193 T10891111 11067 21111 410391111 56002
14837KMSN MSN20031224235509612/24/03 23:55:31  5-MIN KMSN 250555Z 00000KT 10SM CLR M09/M12 A3006 740 84 -2000 000/00 RMK AO2
14837KMSN MSN20031225000009612/25/03 00:00:31  5-MIN KMSN 250600Z 00000KT 10SM CLR M09/M11 A3006 740 84 -2000 000/00 RMK AO2
14837KMSN MSN20031225000509612/25/03 00:05:31  5-MIN KMSN 250605Z 00000KT 10SM CLR M09/M12 A3006 740 84 -2000 000/00 RMK AO2
14837KMSN MSN20031225001009612/25/03 00:10:31  5-MIN KMSN 250610Z 00000KT 10SM CLR M10/M12 A3006 740 84 -2100 000/00 RMK AO2
14837KMSN MSN20031225001509612/25/03 00:15:31  5-MIN KMSN 250615Z 00000KT 10SM CLR M09/M12 A3005 740 80 -2000 000/00 RMK AO2
14837KMSN MSN20031225002009612/25/03 00:20:31  5-MIN KMSN 250620Z 00000KT 10SM CLR M09/M12 A3005 740 80 -2000 000/00 RMK AO2
14837KMSN MSN20031225002509612/25/03 00:25:31  5-MIN KMSN 250625Z 00000KT 10SM CLR M08/M12 A3005 740 77 -1900 000/00 RMK AO2
14837KMSN MSN20031225003009612/25/03 00:30:31  5-MIN KMSN 250630Z 00000KT 10SM CLR M09/M12 A3005 740 80 -2000 000/00 RMK AO2
14837KMSN MSN20031225003509612/25/03 00:35:31  5-MIN KMSN 250635Z 00000KT 10SM CLR M09/M12 A3005 740 84 -2000 000/00 RMK AO2
14837KMSN MSN20031225004009612/25/03 00:40:31  5-MIN KMSN 250640Z 00000KT 10SM CLR M09/M12 A3005 740 80 -2000 000/00 RMK AO2
14837KMSN MSN20031225004509612/25/03 00:45:31  5-MIN KMSN 250645Z 00000KT 10SM CLR M08/M12 A3006 740 77 -1900 000/00 RMK AO2
14837KMSN MSN20031225005011312/25/03 00:50:31  5-MIN KMSN 250650Z 00000KT 10SM CLR M09/M12 A3006 740 80 -2000 000/00 RMK AO2 SLP193 T10941122
14837KMSN MSN20031225005509612/25/03 00:55:31  5-MIN KMSN 250655Z 00000KT 10SM CLR M09/M12 A3006 740 77 -2000 000/00 RMK AO2
14837KMSN MSN20031225010009612/25/03 01:00:31  5-MIN KMSN 250700Z 00000KT 10SM CLR M08/M12 A3006 740 77 -1900 000/00 RMK AO2
14837KMSN MSN20031225010509612/25/03 01:05:31  5-MIN KMSN 250705Z 28003KT 10SM CLR M08/M12 A3006 740 77 -1900 280/03 RMK AO2
14837KMSN MSN20031225011009612/25/03 01:10:31  5-MIN KMSN 250710Z 29003KT 10SM CLR M08/M12 A3006 740 77 -1900 290/03 RMK AO2
14837KMSN MSN20031225011509612/25/03 01:15:31  5-MIN KMSN 250715Z 00000KT 10SM CLR M09/M12 A3006 730 77 -2000 000/00 RMK AO2
14837KMSN MSN20031225012009612/25/03 01:20:31  5-MIN KMSN 250720Z 00000KT 10SM CLR M09/M12 A3006 730 80 -2000 000/00 RMK AO2
14837KMSN MSN20031225012509612/25/03 01:25:31  5-MIN KMSN 250725Z 29003KT 10SM CLR M08/M12 A3006 730 77 -1900 290/03 RMK AO2
14837KMSN MSN20031225013009612/25/03 01:30:31  5-MIN KMSN 250730Z 00000KT 10SM CLR M10/M13 A3007 730 80 -2100 000/00 RMK AO2
14837KMSN MSN20031225013509612/25/03 01:35:31  5-MIN KMSN 250735Z 00000KT 10SM CLR M11/M13 A3007 730 80 -2200 000/00 RMK AO2
14837KMSN MSN20031225014009612/25/03 01:40:31  5-MIN KMSN 250740Z 00000KT 10SM CLR M11/M13 A3007 730 80 -2200 000/00 RMK AO2
14837KMSN MSN20031225014509612/25/03 01:45:31  5-MIN KMSN 250745Z 00000KT 10SM CLR M11/M13 A3007 730 84 -2200 000/00 RMK AO2
14837KMSN MSN20031225015011312/25/03 01:50:31  5-MIN KMSN 250750Z 00000KT 10SM CLR M11/M13 A3007 720 84 -2200 000/00 RMK AO2 SLP199 T11061128
14837KMSN MSN20031225015509612/25/03 01:55:31  5-MIN KMSN 250755Z 00000KT 10SM CLR M11/M13 A3008 720 84 -2200 000/00 RMK AO2
14837KMSN MSN20031225020009612/25/03 02:00:31  5-MIN KMSN 250800Z 00000KT 10SM CLR M10/M12 A3008 720 84 -2100 000/00 RMK AO2
14837KMSN MSN20031225020509612/25/03 02:05:31  5-MIN KMSN 250805Z 28004KT 10SM CLR M10/M12 A3008 720 84 -2100 280/04 RMK AO2
14837KMSN MSN20031225021009612/25/03 02:10:31  5-MIN KMSN 250810Z 28003KT 10SM CLR M09/M12 A3008 720 84 -2100 280/03 RMK AO2
14837KMSN MSN20031225021509612/25/03 02:15:31  5-MIN KMSN 250815Z 28004KT 10SM CLR M09/M12 A3008 720 80 -2000 280/04 RMK AO2
14837KMSN MSN20031225022009612/25/03 02:20:31  5-MIN KMSN 250820Z 29004KT 10SM CLR M09/M12 A3008 720 80 -2000 290/04 RMK AO2
14837KMSN MSN20031225022509612/25/03 02:25:31  5-MIN KMSN 250825Z 28005KT 10SM CLR M09/M12 A3008 710 80 -2000 280/05 RMK AO2
14837KMSN MSN20031225023009612/25/03 02:30:31  5-MIN KMSN 250830Z 28004KT 10SM CLR M09/M12 A3008 710 80 -2000 280/04 RMK AO2
14837KMSN MSN20031225023509612/25/03 02:35:31  5-MIN KMSN 250835Z 28005KT 10SM CLR M09/M12 A3008 720 80 -2000 280/05 RMK AO2
14837KMSN MSN20031225024009612/25/03 02:40:31  5-MIN KMSN 250840Z 28005KT 10SM CLR M08/M11 A3008 720 80 -1900 280/05 RMK AO2
14837KMSN MSN20031225024509612/25/03 02:45:31  5-MIN KMSN 250845Z 28005KT 10SM CLR M08/M11 A3008 720 80 -1900 280/05 RMK AO2
14837KMSN MSN20031225025011912/25/03 02:50:31  5-MIN KMSN 250850Z VRB05KT 10SM CLR M08/M11 A3008 710 80 -1900 VRB/05 RMK AO2 SLP202 T10831111 56009
14837KMSN MSN20031225025509612/25/03 02:55:31  5-MIN KMSN 250855Z 28005KT 10SM CLR M08/M11 A3009 710 80 -1900 280/05 RMK AO2
14837KMSN MSN20031225030009612/25/03 03:00:31  5-MIN KMSN 250900Z 28005KT 10SM CLR M08/M11 A3009 710 80 -1900 280/05 RMK AO2
14837KMSN MSN20031225030509612/25/03 03:05:31  5-MIN KMSN 250905Z 28004KT 10SM CLR M08/M11 A3009 710 80 -1900 280/04 RMK AO2
14837KMSN MSN20031225031009612/25/03 03:10:31  5-MIN KMSN 250910Z VRB05KT 10SM CLR M08/M11 A3008 720 80 -1900 VRB/05 RMK AO2
14837KMSN MSN20031225031509612/25/03 03:15:31  5-MIN KMSN 250915Z 28005KT 10SM CLR M08/M11 A3008 720 80 -1900 280/05 RMK AO2
14837KMSN MSN20031225032009612/25/03 03:20:31  5-MIN KMSN 250920Z 28004KT 10SM CLR M08/M12 A3008 710 77 -1900 280/04 RMK AO2
14837KMSN MSN20031225032509612/25/03 03:25:31  5-MIN KMSN 250925Z 28004KT 10SM CLR M08/M11 A3008 710 80 -1900 280/04 RMK AO2
14837KMSN MSN20031225033009612/25/03 03:30:31  5-MIN KMSN 250930Z 28004KT 10SM CLR M08/M11 A3008 710 80 -1900 280/04 RMK AO2
14837KMSN MSN20031225033509612/25/03 03:35:31  5-MIN KMSN 250935Z VRB03KT 10SM CLR M08/M11 A3009 710 80 -1900 VRB/03 RMK AO2
14837KMSN MSN20031225034009612/25/03 03:40:31  5-MIN KMSN 250940Z VRB03KT 10SM CLR M08/M11 A3009 710 80 -1900 VRB/03 RMK AO2
14837KMSN MSN20031225034509612/25/03 03:45:31  5-MIN KMSN 250945Z 28003KT 10SM CLR M08/M11 A3009 710 80 -1900 280/03 RMK AO2
14837KMSN MSN20031225035011312/25/03 03:50:31  5-MIN KMSN 250950Z 27003KT 10SM CLR M09/M11 A3009 710 84 -2000 270/03 RMK AO2 SLP204 T10891111
14837KMSN MSN20031225035509612/25/03 03:55:31  5-MIN KMSN 250955Z VRB03KT 10SM CLR M08/M11 A3009 710 80 -1900 VRB/03 RMK AO2
14837KMSN MSN20031225040009612/25/03 04:00:31  5-MIN KMSN 251000Z VRB03KT 10SM CLR M09/M11 A3009 710 84 -2000 VRB/03 RMK AO2
14837KMSN MSN20031225040509612/25/03 04:05:31  5-MIN KMSN 251005Z VRB04KT 10SM CLR M09/M11 A3009 710 84 -2000 VRB/04 RMK AO2
14837KMSN MSN20031225041009612/25/03 04:10:31  5-MIN KMSN 251010Z 29003KT 10SM CLR M09/M11 A3009 710 84 -2000 290/03 RMK AO2
14837KMSN MSN20031225041509612/25/03 04:15:31  5-MIN KMSN 251015Z 30003KT 10SM CLR M09/M12 A3009 710 80 -2000 290/03 RMK AO2
14837KMSN MSN20031225042009612/25/03 04:20:31  5-MIN KMSN 251020Z 29005KT 10SM CLR M09/M11 A3009 710 84 -2000 280/05 RMK AO2
14837KMSN MSN20031225042509612/25/03 04:25:31  5-MIN KMSN 251025Z 28003KT 10SM CLR M09/M12 A3009 710 80 -2000 280/03 RMK AO2
14837KMSN MSN20031225043009612/25/03 04:30:31  5-MIN KMSN 251030Z 29005KT 10SM CLR M09/M11 A3009 710 84 -2000 290/05 RMK AO2
14837KMSN MSN20031225043509612/25/03 04:35:31  5-MIN KMSN 251035Z 28005KT 10SM CLR M08/M11 A3009 710 80 -1900 280/05 RMK AO2
14837KMSN MSN20031225044009612/25/03 04:40:31  5-MIN KMSN 251040Z 29003KT 10SM CLR M09/M11 A3009 710 84 -2000 290/03 RMK AO2
14837KMSN MSN20031225044509612/25/03 04:45:31  5-MIN KMSN 251045Z 00000KT 10SM CLR M09/M12 A3009 710 80 -2000 000/00 RMK AO2
14837KMSN MSN20031225045011312/25/03 04:50:31  5-MIN KMSN 251050Z 00000KT 10SM CLR M09/M12 A3009 700 84 -2100 000/00 RMK AO2 SLP207 T10941117
14837KMSN MSN20031225045509612/25/03 04:55:31  5-MIN KMSN 251055Z 00000KT 10SM CLR M11/M13 A3010 700 80 -2200 000/00 RMK AO2
14837KMSN MSN20031225050009612/25/03 05:00:31  5-MIN KMSN 251100Z 00000KT 10SM CLR M11/M13 A3010 700 84 -2200 000/00 RMK AO2
14837KMSN MSN20031225050509612/25/03 05:05:31  5-MIN KMSN 251105Z 00000KT 10SM CLR M11/M13 A3009 700 84 -2200 000/00 RMK AO2
14837KMSN MSN20031225051009612/25/03 05:10:31  5-MIN KMSN 251110Z 28003KT 10SM CLR M11/M13 A3009 710 84 -2200 270/03 RMK AO2
14837KMSN MSN20031225051509612/25/03 05:15:31  5-MIN KMSN 251115Z 26003KT 10SM CLR M10/M12 A3009 710 84 -2100 260/03 RMK AO2
14837KMSN MSN20031225052009612/25/03 05:20:31  5-MIN KMSN 251120Z 27004KT 10SM CLR M10/M12 A3009 710 84 -2100 270/04 RMK AO2
14837KMSN MSN20031225052509612/25/03 05:25:31  5-MIN KMSN 251125Z 28004KT 10SM CLR M09/M12 A3009 710 84 -2100 270/04 RMK AO2
14837KMSN MSN20031225053009612/25/03 05:30:31  5-MIN KMSN 251130Z 27005KT 10SM CLR M09/M12 A3008 710 84 -2100 270/05 RMK AO2
14837KMSN MSN20031225053509612/25/03 05:35:31  5-MIN KMSN 251135Z 27005KT 10SM CLR M09/M12 A3008 720 84 -2100 270/05 RMK AO2
14837KMSN MSN20031225054009512/25/03 05:40:31  5-MIN KMSN 251140Z 27004KT 9SM CLR M09/M11 A3008 720 84 -2000 270/04 RMK AO2
14837KMSN MSN20031225054509512/25/03 05:45:31  5-MIN KMSN 251145Z VRB03KT 9SM CLR M09/M12 A3008 710 80 -2000 VRB/03 RMK AO2
14837KMSN MSN20031225055013012/25/03 05:50:31  5-MIN KMSN 251150Z VRB04KT 9SM CLR M08/M11 A3008 710 80 -1900 VRB/04 RMK AO2 SLP203 T10831111 11083 21106 53010
14837KMSN MSN20031225055509512/25/03 05:55:31  5-MIN KMSN 251155Z VRB05KT 9SM CLR M08/M12 A3009 710 77 -1900 VRB/05 RMK AO2
14837KMSN MSN20031225060009512/25/03 06:00:31  5-MIN KMSN 251200Z 28004KT 9SM CLR M08/M11 A3009 710 80 -1900 280/04 RMK AO2
14837KMSN MSN20031225060509512/25/03 06:05:31  5-MIN KMSN 251205Z 27004KT 9SM CLR M08/M11 A3009 710 80 -1900 260/04 RMK AO2
14837KMSN MSN20031225061009512/25/03 06:10:31  5-MIN KMSN 251210Z 27004KT 9SM CLR M09/M11 A3009 710 84 -2000 270/04 RMK AO2
14837KMSN MSN20031225061509512/25/03 06:15:31  5-MIN KMSN 251215Z 28005KT 9SM CLR M09/M11 A3009 710 84 -2000 280/05 RMK AO2
14837KMSN MSN20031225062009512/25/03 06:20:31  5-MIN KMSN 251220Z 29005KT 9SM CLR M08/M11 A3009 710 80 -1900 280/05 RMK AO2
14837KMSN MSN20031225062509512/25/03 06:25:31  5-MIN KMSN 251225Z 29005KT 9SM CLR M09/M11 A3009 710 84 -2000 290/05 RMK AO2
14837KMSN MSN20031225063009512/25/03 06:30:31  5-MIN KMSN 251230Z VRB03KT 9SM CLR M09/M11 A3010 700 84 -2000 VRB/03 RMK AO2
14837KMSN MSN20031225063509512/25/03 06:35:31  5-MIN KMSN 251235Z 00000KT 9SM CLR M09/M12 A3010 700 84 -2100 000/00 RMK AO2
14837KMSN MSN20031225064009512/25/03 06:40:31  5-MIN KMSN 251240Z 01003KT 8SM CLR M10/M13 A3010 700 80 -2200 010/03 RMK AO2
14837KMSN MSN20031225064509512/25/03 06:45:31  5-MIN KMSN 251245Z 00000KT 8SM CLR M11/M13 A3010 700 84 -2200 000/00 RMK AO2
14837KMSN MSN20031225065011212/25/03 06:50:31  5-MIN KMSN 251250Z 29003KT 8SM CLR M10/M12 A3010 700 84 -2200 290/03 RMK AO2 SLP208 T11001122
14837KMSN MSN20031225065509512/25/03 06:55:31  5-MIN KMSN 251255Z 00000KT 8SM CLR M10/M12 A3010 700 88 -2200 000/00 RMK AO2
14837KMSN MSN20031225070009512/25/03 07:00:31  5-MIN KMSN 251300Z 30003KT 7SM CLR M11/M12 A3010 700 92 -2200 300/03 RMK AO2
14837KMSN MSN20031225070509512/25/03 07:05:31  5-MIN KMSN 251305Z 29003KT 7SM CLR M11/M12 A3010 700 88 -2200 290/03 RMK AO2
14837KMSN MSN20031225071009512/25/03 07:10:31  5-MIN KMSN 251310Z 29003KT 7SM CLR M11/M12 A3010 700 88 -2200 280/03 RMK AO2
14837KMSN MSN20031225071509512/25/03 07:15:31  5-MIN KMSN 251315Z 00000KT 7SM CLR M11/M13 A3011 690 88 -2300 000/00 RMK AO2
14837KMSN MSN20031225072009512/25/03 07:20:31  5-MIN KMSN 251320Z 27004KT 7SM CLR M11/M12 A3011 690 92 -2300 270/04 RMK AO2
14837KMSN MSN20031225072509812/25/03 07:25:31  5-MIN KMSN 251325Z 28006KT 6SM BR CLR M11/M12 A3012 680 92 -2300 280/06 RMK AO2
14837KMSN MSN20031225073009812/25/03 07:30:31  5-MIN KMSN 251330Z 28004KT 6SM BR CLR M10/M12 A3011 690 88 -2200 280/04 RMK AO2
14837KMSN MSN20031225073509812/25/03 07:35:31  5-MIN KMSN 251335Z 28005KT 6SM BR CLR M10/M12 A3012 680 88 -2200 280/05 RMK AO2
14837KMSN MSN20031225074009812/25/03 07:40:31  5-MIN KMSN 251340Z VRB04KT 6SM BR CLR M10/M12 A3012 680 84 -2200 VRB/04 RMK AO2
14837KMSN MSN20031225074509812/25/03 07:45:31  5-MIN KMSN 251345Z VRB05KT 6SM BR CLR M09/M11 A3012 680 84 -2000 VRB/05 RMK AO2
14837KMSN MSN20031225075011212/25/03 07:50:31  5-MIN KMSN 251350Z 29005KT 7SM CLR M09/M11 A3012 680 84 -2000 290/05 RMK AO2 SLP216 T10891111
14837KMSN MSN20031225075509512/25/03 07:55:31  5-MIN KMSN 251355Z 28004KT 7SM CLR M09/M11 A3012 680 84 -2000 280/04 RMK AO2
14837KMSN MSN20031225080009512/25/03 08:00:31  5-MIN KMSN 251400Z 28004KT 7SM CLR M08/M11 A3012 680 80 -2000 280/04 RMK AO2
14837KMSN MSN20031225080509512/25/03 08:05:31  5-MIN KMSN 251405Z 27004KT 7SM CLR M08/M11 A3012 680 80 -2000 270/04 RMK AO2
14837KMSN MSN20031225081009512/25/03 08:10:31  5-MIN KMSN 251410Z 27003KT 7SM CLR M08/M11 A3012 680 84 -2000 270/03 RMK AO2
14837KMSN MSN20031225081509512/25/03 08:15:31  5-MIN KMSN 251415Z 28003KT 7SM CLR M08/M11 A3013 670 84 -2000 280/03 RMK AO2
14837KMSN MSN20031225082009512/25/03 08:20:31  5-MIN KMSN 251420Z 27004KT 7SM CLR M08/M11 A3013 670 80 -2000 270/04 RMK AO2
14837KMSN MSN20031225082509512/25/03 08:25:31  5-MIN KMSN 251425Z 27005KT 7SM CLR M08/M11 A3013 680 80 -2000 270/05 RMK AO2
14837KMSN MSN20031225083009812/25/03 08:30:31  5-MIN KMSN 251430Z 28004KT 6SM HZ CLR M08/M11 A3012 680 80 -1900 280/04 RMK AO2
14837KMSN MSN20031225083509812/25/03 08:35:31  5-MIN KMSN 251435Z 27005KT 6SM HZ CLR M08/M11 A3012 680 80 -1900 270/05 RMK AO2
14837KMSN MSN20031225084009512/25/03 08:40:31  5-MIN KMSN 251440Z 28005KT 7SM CLR M08/M11 A3013 670 80 -1900 280/05 RMK AO2
14837KMSN MSN20031225084509812/25/03 08:45:31  5-MIN KMSN 251445Z VRB03KT 6SM HZ CLR M07/M10 A3013 670 81 -1800 VRB/03 RMK AO2
14837KMSN MSN20031225085012112/25/03 08:50:31  5-MIN KMSN 251450Z VRB04KT 6SM HZ CLR M07/M10 A3013 670 81 -1800 VRB/04 RMK AO2 SLP219 T10721100 58001
14837KMSN MSN20031225085509512/25/03 08:55:31  5-MIN KMSN 251455Z 28003KT 7SM CLR M07/M10 A3013 670 81 -1800 280/03 RMK AO2
14837KMSN MSN20031225090009512/25/03 09:00:31  5-MIN KMSN 251500Z 30004KT 7SM CLR M07/M09 A3013 670 81 -1800 300/04 RMK AO2
14837KMSN MSN20031225090509512/25/03 09:05:31  5-MIN KMSN 251505Z VRB04KT 8SM CLR M07/M09 A3014 670 81 -1800 VRB/04 RMK AO2
14837KMSN MSN20031225091009512/25/03 09:10:31  5-MIN KMSN 251510Z 31006KT 8SM CLR M07/M09 A3014 670 81 -1800 310/06 RMK AO2
14837KMSN MSN20031225091509512/25/03 09:15:31  5-MIN KMSN 251515Z 31004KT 8SM CLR M07/M09 A3014 660 81 -1800 310/04 RMK AO2
14837KMSN MSN20031225092009512/25/03 09:20:31  5-MIN KMSN 251520Z 29005KT 8SM CLR M07/M09 A3014 660 81 -1800 290/05 RMK AO2
14837KMSN MSN20031225092509512/25/03 09:25:31  5-MIN KMSN 251525Z VRB03KT 8SM CLR M06/M09 A3014 660 77 -1700 VRB/03 RMK AO2
14837KMSN MSN20031225093009512/25/03 09:30:31  5-MIN KMSN 251530Z 29005KT 8SM CLR M06/M09 A3014 660 77 -1600 290/05 RMK AO2
14837KMSN MSN20031225093509512/25/03 09:35:31  5-MIN KMSN 251535Z 30005KT 9SM CLR M06/M08 A3014 660 81 -1600 300/05 RMK AO2
14837KMSN MSN20031225094009512/25/03 09:40:31  5-MIN KMSN 251540Z 29005KT 9SM CLR M06/M08 A3014 660 81 -1600 290/05 RMK AO2
14837KMSN MSN20031225094509512/25/03 09:45:31  5-MIN KMSN 251545Z 27004KT 9SM CLR M05/M08 A3014 660 77 -1600 270/04 RMK AO2
14837KMSN MSN20031225095011212/25/03 09:50:31  5-MIN KMSN 251550Z 32003KT 9SM CLR M05/M08 A3014 660 77 -1600 320/03 RMK AO2 SLP222 T10501083
14837KMSN MSN20031225095509512/25/03 09:55:31  5-MIN KMSN 251555Z 31004KT 9SM CLR M04/M08 A3014 660 74 -1500 310/04 RMK AO2
14837KMSN MSN20031225100009512/25/03 10:00:31  5-MIN KMSN 251600Z 28003KT 9SM CLR M04/M08 A3014 660 74 -1500 280/03 RMK AO2
14837KMSN MSN20031225100509512/25/03 10:05:31  5-MIN KMSN 251605Z VRB04KT 9SM CLR M04/M08 A3014 660 74 -1400 VRB/04 RMK AO2
14837KMSN MSN20031225101009512/25/03 10:10:31  5-MIN KMSN 251610Z VRB04KT 9SM CLR M04/M08 A3014 660 78 -1500 VRB/04 RMK AO2
14837KMSN MSN20031225101509512/25/03 10:15:31  5-MIN KMSN 251615Z 28005KT 9SM CLR M04/M08 A3014 660 71 -1400 280/05 RMK AO2
14837KMSN MSN20031225102009512/25/03 10:20:31  5-MIN KMSN 251620Z VRB03KT 9SM CLR M04/M08 A3014 660 71 -1400 VRB/03 RMK AO2
14837KMSN MSN20031225102509512/25/03 10:25:31  5-MIN KMSN 251625Z 30004KT 9SM CLR M04/M08 A3014 660 74 -1400 300/04 RMK AO2
14837KMSN MSN20031225103009512/25/03 10:30:31  5-MIN KMSN 251630Z VRB03KT 9SM CLR M03/M07 A3014 660 71 -1300 VRB/03 RMK AO2
14837KMSN MSN20031225103509512/25/03 10:35:31  5-MIN KMSN 251635Z VRB04KT 9SM CLR M03/M08 A3014 660 68 -1300 VRB/04 RMK AO2
14837KMSN MSN20031225104009512/25/03 10:40:31  5-MIN KMSN 251640Z 29005KT 9SM CLR M03/M08 A3013 670 71 -1300 290/05 RMK AO2
14837KMSN MSN20031225104509512/25/03 10:45:31  5-MIN KMSN 251645Z VRB04KT 9SM CLR M03/M08 A3013 670 71 -1300 VRB/04 RMK AO2
14837KMSN MSN20031225105011312/25/03 10:50:31  5-MIN KMSN 251650Z 30006KT 10SM CLR M03/M08 A3013 670 68 -1300 290/06 RMK AO2 SLP218 T10281078
14837KMSN MSN20031225105509612/25/03 10:55:31  5-MIN KMSN 251655Z 28004KT 10SM CLR M03/M08 A3013 670 68 -1300 280/04 RMK AO2
14837KMSN MSN20031225110009612/25/03 11:00:31  5-MIN KMSN 251700Z 27005KT 10SM CLR M02/M08 A3013 670 66 -1200 270/05 RMK AO2
14837KMSN MSN20031225110509612/25/03 11:05:31  5-MIN KMSN 251705Z 25004KT 10SM CLR M03/M08 A3012 680 68 -1300 250/04 RMK AO2
14837KMSN MSN20031225111009612/25/03 11:10:31  5-MIN KMSN 251710Z 29004KT 10SM CLR M02/M07 A3012 680 69 -1200 290/04 RMK AO2
14837KMSN MSN20031225111509612/25/03 11:15:31  5-MIN KMSN 251715Z 30004KT 10SM CLR M02/M07 A3012 680 66 -1100 300/04 RMK AO2
14837KMSN MSN20031225112009612/25/03 11:20:31  5-MIN KMSN 251720Z 28006KT 10SM CLR M02/M07 A3012 680 66 -1100 280/06 RMK AO2
14837KMSN MSN20031225112509612/25/03 11:25:31  5-MIN KMSN 251725Z 30005KT 10SM CLR M02/M08 A3012 680 63 -1100 300/05 RMK AO2
14837KMSN MSN20031225113009612/25/03 11:30:31  5-MIN KMSN 251730Z 30005KT 10SM CLR M02/M08 A3012 680 63 -1100 300/05 RMK AO2
14837KMSN MSN20031225113509612/25/03 11:35:31  5-MIN KMSN 251735Z 29006KT 10SM CLR M01/M08 A3012 680 58 -1000 290/06 RMK AO2
14837KMSN MSN20031225114009612/25/03 11:40:31  5-MIN KMSN 251740Z 29004KT 10SM CLR M01/M08 A3012 680 60 -1000 290/04 RMK AO2
14837KMSN MSN20031225114509612/25/03 11:45:31  5-MIN KMSN 251745Z 29007KT 10SM CLR M01/M08 A3012 680 56 -1000 290/07 RMK AO2
14837KMSN MSN20031225115013112/25/03 11:50:31  5-MIN KMSN 251750Z 29006KT 10SM CLR M01/M08 A3012 680 56 -1000 290/06 RMK AO2 SLP212 T10061083 11006 21111 51015
14837KMSN MSN20031225115509612/25/03 11:55:31  5-MIN KMSN 251755Z 28006KT 10SM CLR M01/M08 A3011 690 56 -1000 280/06 RMK AO2
14837KMSN MSN20031225120009412/25/03 12:00:31  5-MIN KMSN 251800Z VRB06KT 10SM CLR 00/M08 A3011 690 53 -900 VRB/06 RMK AO2
14837KMSN MSN20031225120509612/25/03 12:05:31  5-MIN KMSN 251805Z 31007KT 10SM CLR M01/M08 A3011 690 56 -1000 310/07 RMK AO2
14837KMSN MSN20031225121009412/25/03 12:10:31  5-MIN KMSN 251810Z 31006KT 10SM CLR 00/M08 A3011 690 53 -900 310/06 RMK AO2
14837KMSN MSN20031225121509412/25/03 12:15:31  5-MIN KMSN 251815Z 31006KT 10SM CLR 00/M08 A3011 690 53 -900 310/06 RMK AO2
14837KMSN MSN20031225122009412/25/03 12:20:31  5-MIN KMSN 251820Z 27005KT 10SM CLR 00/M08 A3011 690 53 -900 270/05 RMK AO2
14837KMSN MSN20031225122509412/25/03 12:25:31  5-MIN KMSN 251825Z 29007KT 10SM CLR 01/M08 A3011 690 51 -800 290/07 RMK AO2
14837KMSN MSN20031225123009412/25/03 12:30:31  5-MIN KMSN 251830Z 31006KT 10SM CLR 01/M08 A3011 690 51 -800 310/06 RMK AO2
14837KMSN MSN20031225123509412/25/03 12:35:31  5-MIN KMSN 251835Z 29005KT 10SM CLR 01/M08 A3011 690 51 -800 290/05 RMK AO2
14837KMSN MSN20031225124009412/25/03 12:40:31  5-MIN KMSN 251840Z 28006KT 10SM CLR 01/M08 A3011 690 51 -800 280/06 RMK AO2
14837KMSN MSN20031225124509412/25/03 12:45:31  5-MIN KMSN 251845Z 29006KT 10SM CLR 01/M08 A3011 690 51 -800 290/06 RMK AO2
14837KMSN MSN20031225125011112/25/03 12:50:31  5-MIN KMSN 251850Z 29004KT 10SM CLR 01/M08 A3010 690 49 -700 290/04 RMK AO2 SLP207 T00111083
14837KMSN MSN20031225125509412/25/03 12:55:31  5-MIN KMSN 251855Z 29005KT 10SM CLR 01/M08 A3010 690 49 -700 280/05 RMK AO2
14837KMSN MSN20031225130009412/25/03 13:00:31  5-MIN KMSN 251900Z VRB03KT 10SM CLR 01/M08 A3011 690 49 -700 VRB/03 RMK AO2
14837KMSN MSN20031225130509412/25/03 13:05:31  5-MIN KMSN 251905Z VRB06KT 10SM CLR 01/M08 A3011 690 49 -700 VRB/06 RMK AO2
14837KMSN MSN20031225131009412/25/03 13:10:31  5-MIN KMSN 251910Z VRB04KT 10SM CLR 01/M08 A3011 690 49 -700 VRB/04 RMK AO2
14837KMSN MSN20031225131509412/25/03 13:15:31  5-MIN KMSN 251915Z VRB06KT 10SM CLR 01/M09 A3011 690 47 -700 VRB/06 RMK AO2
14837KMSN MSN20031225132009412/25/03 13:20:31  5-MIN KMSN 251920Z 31006KT 10SM CLR 02/M09 A3011 690 45 -700 310/06 RMK AO2
14837KMSN MSN20031225132509412/25/03 13:25:31  5-MIN KMSN 251925Z VRB05KT 10SM CLR 02/M08 A3011 690 47 -700 VRB/05 RMK AO2
14837KMSN MSN20031225133009412/25/03 13:30:31  5-MIN KMSN 251930Z VRB06KT 10SM CLR 02/M08 A3011 690 45 -600 VRB/06 RMK AO2
14837KMSN MSN20031225133509412/25/03 13:35:31  5-MIN KMSN 251935Z VRB03KT 10SM CLR 02/M08 A3011 690 47 -700 VRB/03 RMK AO2
14837KMSN MSN20031225134009412/25/03 13:40:31  5-MIN KMSN 251940Z 33004KT 10SM CLR 02/M08 A3011 690 47 -700 330/04 RMK AO2
14837KMSN MSN20031225134509412/25/03 13:45:31  5-MIN KMSN 251945Z VRB05KT 10SM CLR 02/M08 A3011 690 47 -600 VRB/05 RMK AO2
14837KMSN MSN20031225135011112/25/03 13:50:31  5-MIN KMSN 251950Z VRB04KT 10SM CLR 02/M08 A3011 690 47 -600 VRB/04 RMK AO2 SLP209 T00221078
14837KMSN MSN20031225135509412/25/03 13:55:31  5-MIN KMSN 251955Z 29005KT 10SM CLR 02/M08 A3011 690 47 -600 290/05 RMK AO2
14837KMSN MSN20031225140009412/25/03 14:00:31  5-MIN KMSN 252000Z 26004KT 10SM CLR 02/M08 A3011 690 47 -700 260/04 RMK AO2
14837KMSN MSN20031225140509412/25/03 14:05:31  5-MIN KMSN 252005Z 26005KT 10SM CLR 02/M08 A3012 680 47 -700 260/05 RMK AO2
14837KMSN MSN20031225141009412/25/03 14:10:31  5-MIN KMSN 252010Z VRB05KT 10SM CLR 02/M08 A3012 680 47 -700 VRB/05 RMK AO2
14837KMSN MSN20031225141509412/25/03 14:15:31  5-MIN KMSN 252015Z 27003KT 10SM CLR 02/M08 A3012 680 47 -700 270/03 RMK AO2
14837KMSN MSN20031225142009412/25/03 14:20:31  5-MIN KMSN 252020Z 30005KT 10SM CLR 02/M08 A3012 680 45 -600 300/05 RMK AO2
14837KMSN MSN20031225142509412/25/03 14:25:31  5-MIN KMSN 252025Z VRB04KT 10SM CLR 02/M08 A3012 680 45 -600 VRB/04 RMK AO2
14837KMSN MSN20031225143009412/25/03 14:30:31  5-MIN KMSN 252030Z 33005KT 10SM CLR 02/M08 A3012 680 45 -600 330/05 RMK AO2
14837KMSN MSN20031225143509412/25/03 14:35:31  5-MIN KMSN 252035Z 31006KT 10SM CLR 02/M08 A3013 680 45 -600 310/06 RMK AO2
14837KMSN MSN20031225144009412/25/03 14:40:31  5-MIN KMSN 252040Z 30005KT 10SM CLR 02/M09 A3013 670 42 -600 300/05 RMK AO2
14837KMSN MSN20031225144509412/25/03 14:45:31  5-MIN KMSN 252045Z VRB03KT 10SM CLR 02/M09 A3013 670 44 -600 VRB/03 RMK AO2
14837KMSN MSN20031225145011712/25/03 14:50:31  5-MIN KMSN 252050Z VRB03KT 10SM CLR 02/M08 A3013 670 45 -600 VRB/03 RMK AO2 SLP215 T00221083 58005
14837KMSN MSN20031225145509412/25/03 14:55:31  5-MIN KMSN 252055Z 00000KT 10SM CLR 02/M08 A3013 670 45 -600 000/00 RMK AO2
14837KMSN MSN20031225150009412/25/03 15:00:31  5-MIN KMSN 252100Z VRB03KT 10SM CLR 02/M08 A3013 670 47 -600 VRB/03 RMK AO2
14837KMSN MSN20031225150509412/25/03 15:05:31  5-MIN KMSN 252105Z 26003KT 10SM CLR 02/M08 A3013 670 49 -700 260/03 RMK AO2
14837KMSN MSN20031225151009412/25/03 15:10:31  5-MIN KMSN 252110Z VRB04KT 10SM CLR 02/M08 A3013 670 45 -600 VRB/04 RMK AO2
14837KMSN MSN20031225151509412/25/03 15:15:31  5-MIN KMSN 252115Z VRB03KT 10SM CLR 02/M08 A3013 670 47 -600 VRB/03 RMK AO2
14837KMSN MSN20031225152009412/25/03 15:20:31  5-MIN KMSN 252120Z 00000KT 10SM CLR 02/M08 A3013 670 49 -700 000/00 RMK AO2
14837KMSN MSN20031225152509412/25/03 15:25:31  5-MIN KMSN 252125Z 00000KT 10SM CLR 02/M08 A3014 670 49 -700 000/00 RMK AO2
14837KMSN MSN20031225153009412/25/03 15:30:31  5-MIN KMSN 252130Z 23003KT 10SM CLR 02/M08 A3014 660 49 -700 230/03 RMK AO2
14837KMSN MSN20031225153509412/25/03 15:35:31  5-MIN KMSN 252135Z 23003KT 10SM CLR 02/M08 A3014 660 49 -700 230/03 RMK AO2
14837KMSN MSN20031225154009412/25/03 15:40:31  5-MIN KMSN 252140Z 00000KT 10SM CLR 02/M08 A3014 660 49 -700 000/00 RMK AO2
14837KMSN MSN20031225154509412/25/03 15:45:31  5-MIN KMSN 252145Z 24003KT 10SM CLR 02/M08 A3014 660 49 -700 230/03 RMK AO2
14837KMSN MSN20031225155011112/25/03 15:50:31  5-MIN KMSN 252150Z 00000KT 10SM CLR 02/M08 A3014 660 49 -700 000/00 RMK AO2 SLP219 T00171078
14837KMSN MSN20031225155509412/25/03 15:55:31  5-MIN KMSN 252155Z 00000KT 10SM CLR 01/M08 A3014 660 51 -800 000/00 RMK AO2
14837KMSN MSN20031225160009412/25/03 16:00:31  5-MIN KMSN 252200Z 00000KT 10SM CLR 02/M08 A3014 660 49 -700 000/00 RMK AO2
14837KMSN MSN20031225160509412/25/03 16:05:31  5-MIN KMSN 252205Z 00000KT 10SM CLR 01/M08 A3014 660 51 -800 000/00 RMK AO2
14837KMSN MSN20031225161009412/25/03 16:10:31  5-MIN KMSN 252210Z 00000KT 10SM CLR 01/M08 A3014 660 51 -800 000/00 RMK AO2
14837KMSN MSN20031225161509412/25/03 16:15:31  5-MIN KMSN 252215Z 00000KT 10SM CLR 01/M08 A3014 660 49 -800 000/00 RMK AO2
14837KMSN MSN20031225162009612/25/03 16:20:31  5-MIN KMSN 252220Z 00000KT 10SM CLR M01/M08 A3014 660 58 -1000 000/00 RMK AO2
14837KMSN MSN20031225162509612/25/03 16:25:31  5-MIN KMSN 252225Z 00000KT 10SM CLR M01/M08 A3014 660 60 -1100 000/00 RMK AO2
14837KMSN MSN20031225163009612/25/03 16:30:31  5-MIN KMSN 252230Z 00000KT 10SM CLR M01/M08 A3015 650 58 -1000 000/00 RMK AO2
14837KMSN MSN20031225163509612/25/03 16:35:31  5-MIN KMSN 252235Z 00000KT 10SM CLR M01/M08 A3015 650 58 -1100 000/00 RMK AO2
14837KMSN MSN20031225164009612/25/03 16:40:31  5-MIN KMSN 252240Z 00000KT 10SM CLR M01/M08 A3015 650 58 -1100 000/00 RMK AO2
14837KMSN MSN20031225164509612/25/03 16:45:31  5-MIN KMSN 252245Z 00000KT 10SM CLR M02/M08 A3015 650 63 -1100 000/00 RMK AO2
14837KMSN MSN20031225165011312/25/03 16:50:31  5-MIN KMSN 252250Z 00000KT 10SM CLR M02/M07 A3015 650 69 -1200 000/00 RMK AO2 SLP224 T10221072
14837KMSN MSN20031225165509612/25/03 16:55:31  5-MIN KMSN 252255Z 00000KT 10SM CLR M03/M08 A3015 650 68 -1300 000/00 RMK AO2
14837KMSN MSN20031225170009612/25/03 17:00:31  5-MIN KMSN 252300Z 00000KT 10SM CLR M03/M08 A3016 650 66 -1300 000/00 RMK AO2
14837KMSN MSN20031225170509612/25/03 17:05:31  5-MIN KMSN 252305Z 00000KT 10SM CLR M04/M08 A3016 650 74 -1400 000/00 RMK AO2
14837KMSN MSN20031225171009612/25/03 17:10:31  5-MIN KMSN 252310Z 00000KT 10SM CLR M04/M08 A3016 650 71 -1400 000/00 RMK AO2
14837KMSN MSN20031225171509612/25/03 17:15:31  5-MIN KMSN 252315Z 00000KT 10SM CLR M03/M08 A3016 650 68 -1300 000/00 RMK AO2
14837KMSN MSN20031225172009612/25/03 17:20:31  5-MIN KMSN 252320Z 00000KT 10SM CLR M02/M08 A3016 640 66 -1200 000/00 RMK AO2
14837KMSN MSN20031225172509612/25/03 17:25:31  5-MIN KMSN 252325Z 00000KT 10SM CLR M03/M08 A3016 640 68 -1300 000/00 RMK AO2
14837KMSN MSN20031225173009612/25/03 17:30:31  5-MIN KMSN 252330Z 00000KT 10SM CLR M03/M08 A3016 640 71 -1400 000/00 RMK AO2
14837KMSN MSN20031225173509612/25/03 17:35:31  5-MIN KMSN 252335Z 00000KT 10SM CLR M04/M08 A3016 640 74 -1400 000/00 RMK AO2
14837KMSN MSN20031225174009612/25/03 17:40:31  5-MIN KMSN 252340Z 00000KT 10SM CLR M04/M08 A3016 640 74 -1400 000/00 RMK AO2
14837KMSN MSN20031225174509612/25/03 17:45:31  5-MIN KMSN 252345Z 00000KT 10SM CLR M04/M08 A3016 640 71 -1400 000/00 RMK AO2
14837KMSN MSN20031225175013112/25/03 17:50:31  5-MIN KMSN 252350Z 00000KT 10SM CLR M04/M08 A3016 640 78 -1500 000/00 RMK AO2 SLP229 T10441078 10022 21044 53006
14837KMSN MSN20031225175509612/25/03 17:55:31  5-MIN KMSN 252355Z 00000KT 10SM CLR M04/M08 A3016 640 74 -1400 000/00 RMK AO2
14837KMSN MSN20031225180009612/25/03 18:00:31  5-MIN KMSN 260000Z 00000KT 10SM CLR M04/M08 A3016 640 78 -1500 000/00 RMK AO2
14837KMSN MSN20031225180509612/25/03 18:05:31  5-MIN KMSN 260005Z 00000KT 10SM CLR M05/M08 A3016 640 77 -1600 000/00 RMK AO2
14837KMSN MSN20031225181009612/25/03 18:10:31  5-MIN KMSN 260010Z 00000KT 10SM CLR M04/M08 A3016 640 74 -1500 000/00 RMK AO2
14837KMSN MSN20031225181509612/25/03 18:15:31  5-MIN KMSN 260015Z 00000KT 10SM CLR M05/M09 A3016 640 74 -1600 000/00 RMK AO2
14837KMSN MSN20031225182009612/25/03 18:20:31  5-MIN KMSN 260020Z 00000KT 10SM CLR M05/M09 A3016 640 74 -1600 000/00 RMK AO2
14837KMSN MSN20031225182509612/25/03 18:25:31  5-MIN KMSN 260025Z 00000KT 10SM CLR M05/M08 A3016 640 77 -1600 000/00 RMK AO2
14837KMSN MSN20031225183009612/25/03 18:30:31  5-MIN KMSN 260030Z 00000KT 10SM CLR M05/M08 A3016 640 77 -1600 000/00 RMK AO2
14837KMSN MSN20031225183509612/25/03 18:35:31  5-MIN KMSN 260035Z 00000KT 10SM CLR M04/M08 A3016 640 74 -1500 000/00 RMK AO2
14837KMSN MSN20031225184009612/25/03 18:40:31  5-MIN KMSN 260040Z 00000KT 10SM CLR M06/M09 A3016 640 74 -1700 000/00 RMK AO2
14837KMSN MSN20031225184509612/25/03 18:45:31  5-MIN KMSN 260045Z 00000KT 10SM CLR M06/M09 A3017 640 77 -1700 000/00 RMK AO2
14837KMSN MSN20031225185011312/25/03 18:50:31  5-MIN KMSN 260050Z 00000KT 10SM CLR M06/M09 A3017 640 77 -1700 000/00 RMK AO2 SLP231 T10611094
14837KMSN MSN20031225185509612/25/03 18:55:31  5-MIN KMSN 260055Z 00000KT 10SM CLR M06/M08 A3017 630 81 -1700 000/00 RMK AO2
14837KMSN MSN20031225190009612/25/03 19:00:31  5-MIN KMSN 260100Z 00000KT 10SM CLR M06/M08 A3017 640 81 -1700 000/00 RMK AO2
14837KMSN MSN20031225190509612/25/03 19:05:31  5-MIN KMSN 260105Z 00000KT 10SM CLR M06/M08 A3017 640 81 -1700 000/00 RMK AO2
14837KMSN MSN20031225191009612/25/03 19:10:31  5-MIN KMSN 260110Z 00000KT 10SM CLR M06/M08 A3017 640 81 -1700 000/00 RMK AO2
14837KMSN MSN20031225191509612/25/03 19:15:31  5-MIN KMSN 260115Z 00000KT 10SM CLR M06/M08 A3017 640 81 -1700 000/00 RMK AO2
14837KMSN MSN20031225192009612/25/03 19:20:31  5-MIN KMSN 260120Z 00000KT 10SM CLR M06/M08 A3017 640 81 -1700 000/00 RMK AO2
14837KMSN MSN20031225192509612/25/03 19:25:31  5-MIN KMSN 260125Z 00000KT 10SM CLR M06/M08 A3017 630 81 -1700 000/00 RMK AO2
14837KMSN MSN20031225193009612/25/03 19:30:31  5-MIN KMSN 260130Z 00000KT 10SM CLR M06/M08 A3017 630 81 -1700 000/00 RMK AO2
14837KMSN MSN20031225193509612/25/03 19:35:31  5-MIN KMSN 260135Z 00000KT 10SM CLR M06/M08 A3017 630 81 -1700 000/00 RMK AO2
14837KMSN MSN20031225194009612/25/03 19:40:31  5-MIN KMSN 260140Z 00000KT 10SM CLR M06/M09 A3017 630 77 -1700 000/00 RMK AO2
14837KMSN MSN20031225194509612/25/03 19:45:31  5-MIN KMSN 260145Z 00000KT 10SM CLR M06/M09 A3017 630 81 -1700 000/00 RMK AO2
14837KMSN MSN20031225195011312/25/03 19:50:31  5-MIN KMSN 260150Z 00000KT 10SM CLR M06/M09 A3017 630 77 -1700 000/00 RMK AO2 SLP234 T10611094
14837KMSN MSN20031225195509612/25/03 19:55:31  5-MIN KMSN 260155Z 00000KT 10SM CLR M06/M09 A3017 630 81 -1700 000/00 RMK AO2
14837KMSN MSN20031225200009612/25/03 20:00:31  5-MIN KMSN 260200Z 00000KT 10SM CLR M06/M09 A3017 630 81 -1700 000/00 RMK AO2
14837KMSN MSN20031225200509612/25/03 20:05:31  5-MIN KMSN 260205Z 00000KT 10SM CLR M06/M09 A3018 630 81 -1700 000/00 RMK AO2
14837KMSN MSN20031225201009612/25/03 20:10:31  5-MIN KMSN 260210Z 00000KT 10SM CLR M06/M09 A3018 630 81 -1700 000/00 RMK AO2
14837KMSN MSN20031225201509612/25/03 20:15:31  5-MIN KMSN 260215Z 00000KT 10SM CLR M06/M08 A3018 620 84 -1700 000/00 RMK AO2
14837KMSN MSN20031225202009612/25/03 20:20:31  5-MIN KMSN 260220Z 00000KT 10SM CLR M06/M09 A3018 620 81 -1700 000/00 RMK AO2
14837KMSN MSN20031225202509612/25/03 20:25:31  5-MIN KMSN 260225Z 00000KT 10SM CLR M06/M09 A3018 620 81 -1700 000/00 RMK AO2
14837KMSN MSN20031225203009612/25/03 20:30:31  5-MIN KMSN 260230Z 00000KT 10SM CLR M06/M09 A3018 620 81 -1800 000/00 RMK AO2
14837KMSN MSN20031225203509612/25/03 20:35:31  5-MIN KMSN 260235Z 00000KT 10SM CLR M06/M09 A3019 620 81 -1800 000/00 RMK AO2
14837KMSN MSN20031225204009612/25/03 20:40:31  5-MIN KMSN 260240Z 00000KT 10SM CLR M07/M09 A3019 620 84 -1800 000/00 RMK AO2
14837KMSN MSN20031225204509512/25/03 20:45:31  5-MIN KMSN 260245Z 00000KT 9SM CLR M07/M08 A3019 620 88 -1800 000/00 RMK AO2
14837KMSN MSN20031225205011912/25/03 20:50:31  5-MIN KMSN 260250Z 00000KT 10SM CLR M07/M09 A3019 620 88 -1900 000/00 RMK AO2 SLP238 T10721089 53010
14837KMSN MSN20031225205509512/25/03 20:55:31  5-MIN KMSN 260255Z 00000KT 9SM CLR M07/M09 A3019 620 84 -1800 000/00 RMK AO2
14837KMSN MSN20031225210009512/25/03 21:00:31  5-MIN KMSN 260300Z 00000KT 9SM CLR M07/M09 A3019 620 84 -1800 000/00 RMK AO2
14837KMSN MSN20031225210509512/25/03 21:05:31  5-MIN KMSN 260305Z 00000KT 9SM CLR M07/M09 A3019 610 84 -1800 000/00 RMK AO2
14837KMSN MSN20031225211009512/25/03 21:10:31  5-MIN KMSN 260310Z 00000KT 9SM CLR M07/M09 A3019 610 84 -1900 000/00 RMK AO2
14837KMSN MSN20031225211509512/25/03 21:15:31  5-MIN KMSN 260315Z 00000KT 9SM CLR M07/M09 A3019 610 84 -1900 000/00 RMK AO2
14837KMSN MSN20031225212009512/25/03 21:20:31  5-MIN KMSN 260320Z 00000KT 9SM CLR M08/M09 A3019 610 88 -2000 000/00 RMK AO2
14837KMSN MSN20031225212509512/25/03 21:25:31  5-MIN KMSN 260325Z 00000KT 9SM CLR M08/M09 A3019 610 88 -2000 000/00 RMK AO2
14837KMSN MSN20031225213009512/25/03 21:30:31  5-MIN KMSN 260330Z 00000KT 9SM CLR M08/M09 A3020 610 88 -2000 000/00 RMK AO2
14837KMSN MSN20031225213509512/25/03 21:35:31  5-MIN KMSN 260335Z 00000KT 9SM CLR M07/M09 A3020 610 88 -1900 000/00 RMK AO2
14837KMSN MSN20031225214009512/25/03 21:40:31  5-MIN KMSN 260340Z 00000KT 9SM CLR M07/M08 A3020 610 88 -1800 000/00 RMK AO2
14837KMSN MSN20031225214509512/25/03 21:45:31  5-MIN KMSN 260345Z 00000KT 8SM CLR M07/M09 A3020 610 84 -1800 000/00 RMK AO2
14837KMSN MSN20031225215011212/25/03 21:50:31  5-MIN KMSN 260350Z 00000KT 8SM CLR M08/M09 A3020 610 88 -2000 000/00 RMK AO2 SLP242 T10781094
14837KMSN MSN20031225215509512/25/03 21:55:31  5-MIN KMSN 260355Z 00000KT 8SM CLR M08/M09 A3020 610 88 -2000 000/00 RMK AO2
14837KMSN MSN20031225220009512/25/03 22:00:31  5-MIN KMSN 260400Z 00000KT 8SM CLR M08/M09 A3020 600 88 -2000 000/00 RMK AO2
14837KMSN MSN20031225220509512/25/03 22:05:31  5-MIN KMSN 260405Z 00000KT 8SM CLR M08/M09 A3020 610 88 -2000 000/00 RMK AO2
14837KMSN MSN20031225221009512/25/03 22:10:31  5-MIN KMSN 260410Z 00000KT 8SM CLR M08/M09 A3020 610 88 -2000 000/00 RMK AO2
14837KMSN MSN20031225221509512/25/03 22:15:31  5-MIN KMSN 260415Z 00000KT 7SM CLR M07/M08 A3020 610 92 -1900 000/00 RMK AO2
14837KMSN MSN20031225222009512/25/03 22:20:31  5-MIN KMSN 260420Z 00000KT 8SM CLR M08/M09 A3020 600 88 -2000 000/00 RMK AO2
14837KMSN MSN20031225222509512/25/03 22:25:31  5-MIN KMSN 260425Z 00000KT 8SM CLR M08/M10 A3020 600 84 -2000 000/00 RMK AO2
14837KMSN MSN20031225223009512/25/03 22:30:31  5-MIN KMSN 260430Z 00000KT 8SM CLR M08/M09 A3021 600 88 -2000 000/00 RMK AO2
14837KMSN MSN20031225223509512/25/03 22:35:31  5-MIN KMSN 260435Z 00000KT 8SM CLR M08/M09 A3021 600 88 -2000 000/00 RMK AO2
14837KMSN MSN20031225224009512/25/03 22:40:31  5-MIN KMSN 260440Z 00000KT 8SM CLR M08/M10 A3021 600 88 -2100 000/00 RMK AO2
14837KMSN MSN20031225224509512/25/03 22:45:31  5-MIN KMSN 260445Z 00000KT 9SM CLR M08/M10 A3021 600 88 -2100 000/00 RMK AO2
14837KMSN MSN20031225225011212/25/03 22:50:31  5-MIN KMSN 260450Z 00000KT 9SM CLR M08/M10 A3021 600 84 -2000 000/00 RMK AO2 SLP244 T10781100
14837KMSN MSN20031225225509512/25/03 22:55:31  5-MIN KMSN 260455Z 00000KT 8SM CLR M08/M10 A3021 600 84 -2000 000/00 RMK AO2
14837KMSN MSN20031225230009512/25/03 23:00:31  5-MIN KMSN 260500Z 00000KT 8SM CLR M08/M10 A3021 590 84 -2000 000/00 RMK AO2
14837KMSN MSN20031225230509512/25/03 23:05:31  5-MIN KMSN 260505Z 00000KT 8SM CLR M08/M11 A3021 590 77 -2000 000/00 RMK AO2
14837KMSN MSN20031225231009512/25/03 23:10:31  5-MIN KMSN 260510Z 00000KT 8SM CLR M08/M11 A3021 600 80 -2100 000/00 RMK AO2
14837KMSN MSN20031225231509512/25/03 23:15:31  5-MIN KMSN 260515Z 00000KT 7SM CLR M09/M11 A3021 600 84 -2100 000/00 RMK AO2
14837KMSN MSN20031225232009512/25/03 23:20:31  5-MIN KMSN 260520Z 00000KT 7SM CLR M09/M11 A3021 600 84 -2100 000/00 RMK AO2
14837KMSN MSN20031225232509512/25/03 23:25:31  5-MIN KMSN 260525Z 00000KT 7SM CLR M08/M11 A3021 600 84 -2100 000/00 RMK AO2
14837KMSN MSN20031225233009512/25/03 23:30:31  5-MIN KMSN 260530Z 00000KT 7SM CLR M08/M09 A3021 600 88 -2000 000/00 RMK AO2
14837KMSN MSN20031225233509512/25/03 23:35:31  5-MIN KMSN 260535Z 00000KT 7SM CLR M08/M10 A3021 600 88 -2100 000/00 RMK AO2
14837KMSN MSN20031225234009512/25/03 23:40:31  5-MIN KMSN 260540Z 00000KT 8SM CLR M08/M11 A3020 600 84 -2100 000/00 RMK AO2
14837KMSN MSN20031225234509512/25/03 23:45:31  5-MIN KMSN 260545Z 00000KT 8SM CLR M08/M11 A3021 600 84 -2100 000/00 RMK AO2
14837KMSN MSN20031225235014012/25/03 23:50:31  5-MIN KMSN 260550Z 00000KT 8SM CLR M09/M12 A3021 600 84 -2200 000/00 RMK AO2 SLP243 T10941117 11039 21094 400221111 53007
14837KMSN MSN20031225235509512/25/03 23:55:31  5-MIN KMSN 260555Z 00000KT 8SM CLR M09/M11 A3021 600 84 -2100 000/00 RMK AO2
14837KMSN MSN20031226000009512/26/03 00:00:31  5-MIN KMSN 260600Z 00000KT 7SM CLR M09/M11 A3021 600 84 -2100 000/00 RMK AO2
14837KMSN MSN20031226000509512/26/03 00:05:31  5-MIN KMSN 260605Z 00000KT 7SM CLR M09/M11 A3021 600 88 -2100 000/00 RMK AO2
14837KMSN MSN20031226001009512/26/03 00:10:31  5-MIN KMSN 260610Z 00000KT 7SM CLR M09/M10 A3021 600 92 -2100 000/00 RMK AO2
14837KMSN MSN20031226001509512/26/03 00:15:31  5-MIN KMSN 260615Z 00000KT 7SM CLR M09/M11 A3021 600 88 -2100 000/00 RMK AO2
14837KMSN MSN20031226002009812/26/03 00:20:31  5-MIN KMSN 260620Z 00000KT 6SM BR CLR M09/M10 A3021 590 92 -2100 000/00 RMK AO2
14837KMSN MSN20031226002509512/26/03 00:25:31  5-MIN KMSN 260625Z 00000KT 7SM CLR M09/M10 A3021 590 92 -2100 000/00 RMK AO2
14837KMSN MSN20031226003009512/26/03 00:30:31  5-MIN KMSN 260630Z 00000KT 7SM CLR M09/M10 A3022 590 92 -2200 000/00 RMK AO2
14837KMSN MSN20031226003509812/26/03 00:35:31  5-MIN KMSN 260635Z 00000KT 6SM BR CLR M09/M10 A3022 590 92 -2200 000/00 RMK AO2
14837KMSN MSN20031226004009812/26/03 00:40:31  5-MIN KMSN 260640Z 00000KT 6SM BR CLR M09/M10 A3022 590 92 -2200 000/00 RMK AO2
14837KMSN MSN20031226004509512/26/03 00:45:31  5-MIN KMSN 260645Z 00000KT 7SM CLR M09/M11 A3022 580 84 -2200 000/00 RMK AO2
14837KMSN MSN20031226005011212/26/03 00:50:31  5-MIN KMSN 260650Z 00000KT 8SM CLR M09/M11 A3023 580 88 -2200 000/00 RMK AO2 SLP249 T10891106
14837KMSN MSN20031226005509512/26/03 00:55:31  5-MIN KMSN 260655Z 00000KT 7SM CLR M09/M11 A3023 580 88 -2200 000/00 RMK AO2
14837KMSN MSN20031226010009512/26/03 01:00:31  5-MIN KMSN 260700Z 00000KT 7SM CLR M09/M11 A3023 580 88 -2200 000/00 RMK AO2
14837KMSN MSN20031226010509812/26/03 01:05:31  5-MIN KMSN 260705Z 00000KT 6SM BR CLR M09/M11 A3023 580 88 -2200 000/00 RMK AO2
14837KMSN MSN20031226011009812/26/03 01:10:31  5-MIN KMSN 260710Z 00000KT 6SM BR CLR M09/M10 A3023 580 92 -2200 000/00 RMK AO2
14837KMSN MSN20031226011509812/26/03 01:15:31  5-MIN KMSN 260715Z 00000KT 6SM BR CLR M09/M11 A3023 580 88 -2200 000/00 RMK AO2
14837KMSN MSN20031226012009512/26/03 01:20:31  5-MIN KMSN 260720Z 00000KT 7SM CLR M09/M11 A3023 580 84 -2200 000/00 RMK AO2
14837KMSN MSN20031226012509512/26/03 01:25:31  5-MIN KMSN 260725Z 00000KT 8SM CLR M09/M11 A3024 570 84 -2200 000/00 RMK AO2
14837KMSN MSN20031226013009512/26/03 01:30:31  5-MIN KMSN 260730Z 00000KT 7SM CLR M09/M11 A3024 570 84 -2200 000/00 RMK AO2
14837KMSN MSN20031226013509812/26/03 01:35:31  5-MIN KMSN 260735Z 00000KT 6SM BR CLR M09/M11 A3024 570 92 -2200 000/00 RMK AO2
14837KMSN MSN20031226014009812/26/03 01:40:31  5-MIN KMSN 260740Z 00000KT 6SM BR CLR M09/M11 A3024 570 92 -2200 000/00 RMK AO2
14837KMSN MSN20031226014509812/26/03 01:45:31  5-MIN KMSN 260745Z 00000KT 6SM BR CLR M09/M11 A3024 570 92 -2300 000/00 RMK AO2
14837KMSN MSN20031226015011512/26/03 01:50:31  5-MIN KMSN 260750Z 00000KT 6SM BR CLR M09/M10 A3024 570 92 -2200 000/00 RMK AO2 SLP254 T10891100
14837KMSN MSN20031226015509812/26/03 01:55:31  5-MIN KMSN 260755Z 00000KT 6SM BR CLR M09/M11 A3025 570 92 -2300 000/00 RMK AO2
14837KMSN MSN20031226020009812/26/03 02:00:31  5-MIN KMSN 260800Z 00000KT 6SM BR CLR M09/M11 A3025 560 92 -2300 000/00 RMK AO2
14837KMSN MSN20031226020509812/26/03 02:05:31  5-MIN KMSN 260805Z 00000KT 5SM BR CLR M09/M11 A3025 560 92 -2300 000/00 RMK AO2
14837KMSN MSN20031226021009812/26/03 02:10:31  5-MIN KMSN 260810Z 00000KT 6SM BR CLR M09/M10 A3025 560 92 -2200 000/00 RMK AO2
14837KMSN MSN20031226021509812/26/03 02:15:31  5-MIN KMSN 260815Z 00000KT 6SM BR CLR M09/M11 A3025 560 92 -2300 000/00 RMK AO2
14837KMSN MSN20031226022009812/26/03 02:20:31  5-MIN KMSN 260820Z 00000KT 5SM BR CLR M09/M11 A3025 560 92 -2300 000/00 RMK AO2
14837KMSN MSN20031226022509812/26/03 02:25:31  5-MIN KMSN 260825Z 00000KT 6SM BR CLR M09/M11 A3025 560 92 -2300 000/00 RMK AO2
14837KMSN MSN20031226023009812/26/03 02:30:31  5-MIN KMSN 260830Z 00000KT 6SM BR CLR M09/M11 A3025 560 92 -2300 000/00 RMK AO2
14837KMSN MSN20031226023509812/26/03 02:35:31  5-MIN KMSN 260835Z 00000KT 5SM BR CLR M09/M11 A3025 560 88 -2200 000/00 RMK AO2
14837KMSN MSN20031226024009812/26/03 02:40:31  5-MIN KMSN 260840Z 00000KT 5SM BR CLR M09/M10 A3025 560 92 -2200 000/00 RMK AO2
14837KMSN MSN20031226024509812/26/03 02:45:31  5-MIN KMSN 260845Z 00000KT 5SM BR CLR M09/M11 A3025 560 92 -2300 000/00 RMK AO2
14837KMSN MSN20031226025012112/26/03 02:50:31  5-MIN KMSN 260850Z 00000KT 5SM BR CLR M09/M10 A3025 560 92 -2200 000/00 RMK AO2 SLP255 T10891100 50007
14837KMSN MSN20031226025509812/26/03 02:55:31  5-MIN KMSN 260855Z 00000KT 6SM BR CLR M09/M10 A3025 570 92 -2200 000/00 RMK AO2
14837KMSN MSN20031226030009812/26/03 03:00:31  5-MIN KMSN 260900Z 00000KT 6SM BR CLR M09/M11 A3025 560 92 -2300 000/00 RMK AO2
14837KMSN MSN20031226030509812/26/03 03:05:31  5-MIN KMSN 260905Z 00000KT 6SM BR CLR M09/M11 A3024 570 88 -2300 000/00 RMK AO2
14837KMSN MSN20031226031009812/26/03 03:10:31  5-MIN KMSN 260910Z 00000KT 6SM BR CLR M09/M11 A3024 570 92 -2300 000/00 RMK AO2
14837KMSN MSN20031226031509812/26/03 03:15:31  5-MIN KMSN 260915Z 00000KT 6SM BR CLR M09/M11 A3024 570 92 -2300 000/00 RMK AO2
14837KMSN MSN20031226032009812/26/03 03:20:31  5-MIN KMSN 260920Z 00000KT 6SM BR CLR M09/M11 A3024 570 92 -2300 000/00 RMK AO2
14837KMSN MSN20031226032509812/26/03 03:25:31  5-MIN KMSN 260925Z 00000KT 6SM BR CLR M09/M11 A3024 570 92 -2300 000/00 RMK AO2
14837KMSN MSN20031226033009512/26/03 03:30:31  5-MIN KMSN 260930Z 00000KT 7SM CLR M09/M11 A3024 570 92 -2300 000/00 RMK AO2
14837KMSN MSN20031226033509512/26/03 03:35:31  5-MIN KMSN 260935Z 00000KT 8SM CLR M09/M11 A3024 570 88 -2300 000/00 RMK AO2
14837KMSN MSN20031226034009512/26/03 03:40:31  5-MIN KMSN 260940Z 00000KT 8SM CLR M09/M11 A3024 570 88 -2300 000/00 RMK AO2
14837KMSN MSN20031226034509512/26/03 03:45:31  5-MIN KMSN 260945Z 00000KT 8SM CLR M09/M11 A3024 570 88 -2300 000/00 RMK AO2
14837KMSN MSN20031226035011212/26/03 03:50:31  5-MIN KMSN 260950Z 00000KT 8SM CLR M09/M11 A3025 570 88 -2300 000/00 RMK AO2 SLP255 T10941111
14837KMSN MSN20031226035509512/26/03 03:55:31  5-MIN KMSN 260955Z 00000KT 7SM CLR M09/M11 A3024 570 88 -2300 000/00 RMK AO2
14837KMSN MSN20031226040009812/26/03 04:00:31  5-MIN KMSN 261000Z 00000KT 6SM BR CLR M09/M11 A3024 570 88 -2300 000/00 RMK AO2
14837KMSN MSN20031226040509512/26/03 04:05:31  5-MIN KMSN 261005Z 00000KT 7SM CLR M09/M11 A3024 570 88 -2300 000/00 RMK AO2
14837KMSN MSN20031226041009512/26/03 04:10:31  5-MIN KMSN 261010Z 00000KT 8SM CLR M10/M12 A3024 570 88 -2300 000/00 RMK AO2
14837KMSN MSN20031226041509512/26/03 04:15:31  5-MIN KMSN 261015Z 00000KT 9SM CLR M09/M12 A3024 570 84 -2300 000/00 RMK AO2
14837KMSN MSN20031226042009512/26/03 04:20:31  5-MIN KMSN 261020Z 00000KT 9SM CLR M09/M12 A3024 570 84 -2200 000/00 RMK AO2
14837KMSN MSN20031226042509512/26/03 04:25:31  5-MIN KMSN 261025Z 00000KT 8SM CLR M09/M11 A3024 570 88 -2200 000/00 RMK AO2
14837KMSN MSN20031226043009512/26/03 04:30:31  5-MIN KMSN 261030Z 00000KT 8SM CLR M09/M12 A3024 570 84 -2200 000/00 RMK AO2
14837KMSN MSN20031226043509512/26/03 04:35:31  5-MIN KMSN 261035Z 00000KT 9SM CLR M09/M11 A3024 570 88 -2300 000/00 RMK AO2
14837KMSN MSN20031226044009512/26/03 04:40:31  5-MIN KMSN 261040Z 00000KT 9SM CLR M09/M11 A3024 570 84 -2200 000/00 RMK AO2
14837KMSN MSN20031226044509512/26/03 04:45:31  5-MIN KMSN 261045Z 00000KT 9SM CLR M09/M11 A3024 570 84 -2200 000/00 RMK AO2
14837KMSN MSN20031226045011212/26/03 04:50:31  5-MIN KMSN 261050Z 00000KT 8SM CLR M10/M11 A3024 570 92 -2300 000/00 RMK AO2 SLP256 T11001111
14837KMSN MSN20031226045509512/26/03 04:55:31  5-MIN KMSN 261055Z 00000KT 8SM CLR M10/M11 A3024 570 92 -2300 000/00 RMK AO2
14837KMSN MSN20031226050009512/26/03 05:00:31  5-MIN KMSN 261100Z 00000KT 7SM CLR M10/M11 A3024 570 92 -2300 000/00 RMK AO2
14837KMSN MSN20031226050509512/26/03 05:05:31  5-MIN KMSN 261105Z 00000KT 7SM CLR M09/M11 A3024 570 88 -2300 000/00 RMK AO2
14837KMSN MSN20031226051009512/26/03 05:10:31  5-MIN KMSN 261110Z 00000KT 8SM CLR M09/M11 A3024 570 88 -2300 000/00 RMK AO2
14837KMSN MSN20031226051509512/26/03 05:15:31  5-MIN KMSN 261115Z 00000KT 8SM CLR M09/M11 A3024 570 92 -2300 000/00 RMK AO2
14837KMSN MSN20031226052009512/26/03 05:20:31  5-MIN KMSN 261120Z 00000KT 8SM CLR M09/M11 A3024 570 88 -2300 000/00 RMK AO2
14837KMSN MSN20031226052509512/26/03 05:25:31  5-MIN KMSN 261125Z 00000KT 8SM CLR M09/M11 A3024 570 88 -2300 000/00 RMK AO2
14837KMSN MSN20031226053009512/26/03 05:30:31  5-MIN KMSN 261130Z 00000KT 8SM CLR M09/M11 A3024 570 84 -2200 000/00 RMK AO2
14837KMSN MSN20031226053509512/26/03 05:35:31  5-MIN KMSN 261135Z 00000KT 8SM CLR M09/M11 A3024 570 92 -2300 000/00 RMK AO2
14837KMSN MSN20031226054009512/26/03 05:40:31  5-MIN KMSN 261140Z 00000KT 8SM CLR M09/M11 A3024 570 92 -2300 000/00 RMK AO2
14837KMSN MSN20031226054509512/26/03 05:45:31  5-MIN KMSN 261145Z 00000KT 8SM CLR M09/M11 A3024 570 88 -2200 000/00 RMK AO2
14837KMSN MSN20031226055013012/26/03 05:50:31  5-MIN KMSN 261150Z 00000KT 7SM CLR M09/M10 A3024 570 92 -2200 000/00 RMK AO2 SLP256 T10891100 11089 21100 51013
14837KMSN MSN20031226055509512/26/03 05:55:31  5-MIN KMSN 261155Z 00000KT 8SM CLR M08/M10 A3024 570 88 -2100 000/00 RMK AO2
14837KMSN MSN20031226060009512/26/03 06:00:31  5-MIN KMSN 261200Z 00000KT 8SM CLR M09/M11 A3024 570 88 -2200 000/00 RMK AO2
14837KMSN MSN20031226060509512/26/03 06:05:31  5-MIN KMSN 261205Z 00000KT 9SM CLR M09/M11 A3025 560 84 -2200 000/00 RMK AO2
14837KMSN MSN20031226061009512/26/03 06:10:31  5-MIN KMSN 261210Z 00000KT 9SM CLR M09/M12 A3025 560 80 -2200 000/00 RMK AO2
14837KMSN MSN20031226061509512/26/03 06:15:31  5-MIN KMSN 261215Z 00000KT 9SM CLR M09/M12 A3025 560 80 -2200 000/00 RMK AO2
14837KMSN MSN20031226062009512/26/03 06:20:31  5-MIN KMSN 261220Z 00000KT 8SM CLR M09/M11 A3025 560 84 -2200 000/00 RMK AO2
14837KMSN MSN20031226062509512/26/03 06:25:31  5-MIN KMSN 261225Z 00000KT 8SM CLR M09/M11 A3025 560 84 -2200 000/00 RMK AO2
14837KMSN MSN20031226063009512/26/03 06:30:31  5-MIN KMSN 261230Z 00000KT 8SM CLR M08/M11 A3025 560 84 -2100 000/00 RMK AO2
14837KMSN MSN20031226063509512/26/03 06:35:31  5-MIN KMSN 261235Z 00000KT 8SM CLR M08/M11 A3025 560 80 -2100 000/00 RMK AO2
14837KMSN MSN20031226064009512/26/03 06:40:31  5-MIN KMSN 261240Z 00000KT 9SM CLR M09/M11 A3025 560 84 -2200 000/00 RMK AO2
14837KMSN MSN20031226064509512/26/03 06:45:31  5-MIN KMSN 261245Z 00000KT 9SM CLR M09/M12 A3025 560 80 -2200 000/00 RMK AO2
14837KMSN MSN20031226065011212/26/03 06:50:31  5-MIN KMSN 261250Z 00000KT 9SM CLR M09/M11 A3026 560 84 -2200 000/00 RMK AO2 SLP261 T10891111
14837KMSN MSN20031226065509612/26/03 06:55:31  5-MIN KMSN 261255Z 00000KT 10SM CLR M08/M11 A3026 560 80 -2100 000/00 RMK AO2
14837KMSN MSN20031226070009612/26/03 07:00:31  5-MIN KMSN 261300Z 00000KT 10SM CLR M08/M11 A3026 560 80 -2100 000/00 RMK AO2
14837KMSN MSN20031226070509612/26/03 07:05:31  5-MIN KMSN 261305Z 00000KT 10SM CLR M08/M11 A3025 560 80 -2100 000/00 RMK AO2
14837KMSN MSN20031226071009612/26/03 07:10:31  5-MIN KMSN 261310Z 00000KT 10SM CLR M08/M10 A3026 550 88 -2100 000/00 RMK AO2
14837KMSN MSN20031226071509512/26/03 07:15:31  5-MIN KMSN 261315Z 00000KT 9SM CLR M08/M10 A3026 560 88 -2100 000/00 RMK AO2
14837KMSN MSN20031226072009512/26/03 07:20:31  5-MIN KMSN 261320Z 00000KT 9SM CLR M09/M11 A3026 550 88 -2200 000/00 RMK AO2
14837KMSN MSN20031226072509512/26/03 07:25:31  5-MIN KMSN 261325Z 00000KT 9SM CLR M09/M11 A3026 550 88 -2200 000/00 RMK AO2
14837KMSN MSN20031226073009512/26/03 07:30:31  5-MIN KMSN 261330Z 00000KT 9SM CLR M07/M10 A3026 550 81 -2000 000/00 RMK AO2
14837KMSN MSN20031226073509512/26/03 07:35:31  5-MIN KMSN 261335Z 00000KT 9SM CLR M07/M10 A3026 550 81 -2000 000/00 RMK AO2
14837KMSN MSN20031226074009612/26/03 07:40:31  5-MIN KMSN 261340Z 00000KT 10SM CLR M08/M10 A3026 550 88 -2100 000/00 RMK AO2
14837KMSN MSN20031226074509512/26/03 07:45:31  5-MIN KMSN 261345Z 00000KT 9SM CLR M08/M10 A3026 550 88 -2100 000/00 RMK AO2
14837KMSN MSN20031226075011212/26/03 07:50:31  5-MIN KMSN 261350Z 00000KT 9SM CLR M08/M10 A3026 550 88 -2100 000/00 RMK AO2 SLP263 T10831100
14837KMSN MSN20031226075509512/26/03 07:55:31  5-MIN KMSN 261355Z 00000KT 9SM CLR M08/M10 A3026 550 84 -2100 000/00 RMK AO2
14837KMSN MSN20031226080009512/26/03 08:00:31  5-MIN KMSN 261400Z 00000KT 9SM CLR M08/M09 A3026 550 88 -2100 000/00 RMK AO2
14837KMSN MSN20031226080509512/26/03 08:05:31  5-MIN KMSN 261405Z 00000KT 9SM CLR M07/M09 A3026 550 84 -2000 000/00 RMK AO2
14837KMSN MSN20031226081009512/26/03 08:10:31  5-MIN KMSN 261410Z 00000KT 9SM CLR M07/M09 A3026 550 88 -2000 000/00 RMK AO2
14837KMSN MSN20031226081509512/26/03 08:15:31  5-MIN KMSN 261415Z 00000KT 9SM CLR M06/M08 A3026 550 84 -1800 000/00 RMK AO2
14837KMSN MSN20031226082009512/26/03 08:20:31  5-MIN KMSN 261420Z 00000KT 9SM CLR M06/M08 A3026 550 84 -1800 000/00 RMK AO2
14837KMSN MSN20031226082509612/26/03 08:25:31  5-MIN KMSN 261425Z 00000KT 10SM CLR M06/M08 A3027 550 84 -1800 000/00 RMK AO2
14837KMSN MSN20031226083009612/26/03 08:30:31  5-MIN KMSN 261430Z 17003KT 10SM CLR M05/M07 A3027 550 84 -1700 170/03 RMK AO2
14837KMSN MSN20031226083509612/26/03 08:35:31  5-MIN KMSN 261435Z 17005KT 10SM CLR M04/M07 A3027 550 81 -1600 160/05 RMK AO2
14837KMSN MSN20031226084009612/26/03 08:40:31  5-MIN KMSN 261440Z 17005KT 10SM CLR M03/M07 A3027 540 74 -1500 170/05 RMK AO2
14837KMSN MSN20031226084509612/26/03 08:45:31  5-MIN KMSN 261445Z 17004KT 10SM CLR M03/M07 A3027 550 78 -1500 170/04 RMK AO2
14837KMSN MSN20031226085011912/26/03 08:50:31  5-MIN KMSN 261450Z 17005KT 10SM CLR M03/M07 A3027 540 74 -1500 160/05 RMK AO2 SLP264 T10331072 55000
14837KMSN MSN20031226085509612/26/03 08:55:31  5-MIN KMSN 261455Z 16004KT 10SM CLR M03/M07 A3027 540 74 -1500 160/04 RMK AO2
14837KMSN MSN20031226090009612/26/03 09:00:31  5-MIN KMSN 261500Z 16004KT 10SM CLR M03/M07 A3027 550 71 -1400 160/04 RMK AO2
14837KMSN MSN20031226090509612/26/03 09:05:31  5-MIN KMSN 261505Z 16004KT 10SM CLR M03/M06 A3026 550 78 -1400 160/04 RMK AO2
14837KMSN MSN20031226091009612/26/03 09:10:31  5-MIN KMSN 261510Z 17003KT 10SM CLR M03/M06 A3027 550 78 -1400 160/03 RMK AO2
14837KMSN MSN20031226091509612/26/03 09:15:31  5-MIN KMSN 261515Z 17003KT 10SM CLR M02/M06 A3027 550 75 -1300 170/03 RMK AO2
14837KMSN MSN20031226092009612/26/03 09:20:31  5-MIN KMSN 261520Z 15003KT 10SM CLR M02/M06 A3026 550 72 -1300 150/03 RMK AO2
14837KMSN MSN20031226092509612/26/03 09:25:31  5-MIN KMSN 261525Z 16004KT 10SM CLR M02/M05 A3027 550 78 -1300 160/04 RMK AO2
14837KMSN MSN20031226093009612/26/03 09:30:31  5-MIN KMSN 261530Z 17005KT 10SM CLR M02/M06 A3026 550 72 -1300 170/05 RMK AO2
14837KMSN MSN20031226093509612/26/03 09:35:31  5-MIN KMSN 261535Z 18005KT 10SM CLR M01/M06 A3027 540 72 -1200 170/05 RMK AO2
14837KMSN MSN20031226094009612/26/03 09:40:31  5-MIN KMSN 261540Z 18004KT 10SM CLR M01/M06 A3027 550 72 -1200 180/04 RMK AO2
14837KMSN MSN20031226094509612/26/03 09:45:31  5-MIN KMSN 261545Z 17005KT 10SM CLR M01/M06 A3027 540 69 -1200 170/05 RMK AO2
14837KMSN MSN20031226095011312/26/03 09:50:31  5-MIN KMSN 261550Z 17007KT 10SM CLR M01/M06 A3027 540 72 -1200 170/07 RMK AO2 SLP264 T10111056
14837KMSN MSN20031226095509612/26/03 09:55:31  5-MIN KMSN 261555Z 18006KT 10SM CLR M01/M06 A3027 540 69 -1100 180/06 RMK AO2
14837KMSN MSN20031226100009612/26/03 10:00:31  5-MIN KMSN 261600Z 17006KT 10SM CLR M01/M06 A3027 540 66 -1100 170/06 RMK AO2
14837KMSN MSN20031226100509612/26/03 10:05:31  5-MIN KMSN 261605Z 17008KT 10SM CLR M01/M06 A3027 540 69 -1100 170/08 RMK AO2
14837KMSN MSN20031226101009512/26/03 10:10:31  5-MIN KMSN 261610Z 18007KT 10SM CLR 00/M06 A3027 540 66 -1100 180/07 RMK AO2
14837KMSN MSN20031226101509512/26/03 10:15:31  5-MIN KMSN 261615Z 17008KT 10SM CLR 00/M06 A3027 540 66 -1100 170/08 RMK AO2
14837KMSN MSN20031226102009512/26/03 10:20:31  5-MIN KMSN 261620Z 17008KT 10SM CLR 01/M05 A3027 540 66 -1000 170/08 RMK AO2
14837KMSN MSN20031226102509512/26/03 10:25:31  5-MIN KMSN 261625Z 16007KT 10SM CLR 01/M05 A3027 540 66 -1000 160/07 RMK AO2
14837KMSN MSN20031226103009412/26/03 10:30:31  5-MIN KMSN 261630Z 16007KT 10SM CLR 01/M05 A3027 550 64 -900 160/07 RMK AO2
14837KMSN MSN20031226103509512/26/03 10:35:31  5-MIN KMSN 261635Z 16009KT 10SM CLR 01/M06 A3026 550 63 -1000 160/09 RMK AO2
14837KMSN MSN20031226104009512/26/03 10:40:31  5-MIN KMSN 261640Z 16009KT 10SM CLR 01/M06 A3026 550 63 -1000 160/09 RMK AO2
14837KMSN MSN20031226104509412/26/03 10:45:31  5-MIN KMSN 261645Z 17008KT 10SM CLR 01/M06 A3026 550 61 -900 170/08 RMK AO2
14837KMSN MSN20031226105011112/26/03 10:50:31  5-MIN KMSN 261650Z 17008KT 10SM CLR 02/M05 A3026 550 61 -800 170/08 RMK AO2 SLP258 T00171050
14837KMSN MSN20031226105509412/26/03 10:55:31  5-MIN KMSN 261655Z 17009KT 10SM CLR 02/M06 A3026 550 59 -800 170/09 RMK AO2
14837KMSN MSN20031226110009412/26/03 11:00:31  5-MIN KMSN 261700Z 18009KT 10SM CLR 02/M06 A3026 550 56 -800 180/09 RMK AO2
14837KMSN MSN20031226110509412/26/03 11:05:31  5-MIN KMSN 261705Z 17010KT 10SM CLR 02/M06 A3026 550 56 -800 170/10 RMK AO2
14837KMSN MSN20031226111009412/26/03 11:10:31  5-MIN KMSN 261710Z 17010KT 10SM CLR 02/M06 A3026 550 54 -800 170/10 RMK AO2
14837KMSN MSN20031226111509412/26/03 11:15:31  5-MIN KMSN 261715Z 17009KT 10SM CLR 02/M06 A3025 560 56 -800 170/09 RMK AO2
14837KMSN MSN20031226112009412/26/03 11:20:31  5-MIN KMSN 261720Z 17008KT 10SM CLR 03/M06 A3025 560 54 -700 160/08 RMK AO2
14837KMSN MSN20031226112509412/26/03 11:25:31  5-MIN KMSN 261725Z 16010KT 10SM CLR 03/M06 A3025 560 54 -700 160/10 RMK AO2
14837KMSN MSN20031226113009412/26/03 11:30:31  5-MIN KMSN 261730Z 16010KT 10SM CLR 03/M06 A3024 570 54 -700 160/10 RMK AO2
14837KMSN MSN20031226113509412/26/03 11:35:31  5-MIN KMSN 261735Z 16011KT 10SM CLR 03/M06 A3024 570 52 -700 160/11 RMK AO2
14837KMSN MSN20031226114009412/26/03 11:40:31  5-MIN KMSN 261740Z 17011KT 10SM CLR 03/M06 A3024 570 52 -700 160/11 RMK AO2
14837KMSN MSN20031226114509412/26/03 11:45:31  5-MIN KMSN 261745Z 17009KT 10SM CLR 03/M06 A3024 570 52 -700 170/09 RMK AO2
14837KMSN MSN20031226115012912/26/03 11:50:31  5-MIN KMSN 261750Z 17011KT 10SM CLR 03/M06 A3024 570 52 -700 170/11 RMK AO2 SLP253 T00281061 10028 21089 51008
14837KMSN MSN20031226115509412/26/03 11:55:31  5-MIN KMSN 261755Z 18008KT 10SM CLR 03/M06 A3024 570 50 -600 180/08 RMK AO2
14837KMSN MSN20031226120009412/26/03 12:00:31  5-MIN KMSN 261800Z 17007KT 10SM CLR 03/M06 A3024 570 50 -600 170/07 RMK AO2
14837KMSN MSN20031226120509412/26/03 12:05:31  5-MIN KMSN 261805Z 16010KT 10SM CLR 03/M06 A3024 570 50 -600 160/10 RMK AO2
14837KMSN MSN20031226121009412/26/03 12:10:31  5-MIN KMSN 261810Z 17012KT 10SM CLR 03/M06 A3024 570 50 -600 170/12 RMK AO2
14837KMSN MSN20031226121509412/26/03 12:15:31  5-MIN KMSN 261815Z 17009KT 10SM CLR 03/M06 A3024 570 52 -600 170/09 RMK AO2
14837KMSN MSN20031226122009412/26/03 12:20:31  5-MIN KMSN 261820Z 17009KT 10SM CLR 04/M06 A3024 570 50 -500 170/09 RMK AO2
14837KMSN MSN20031226122509412/26/03 12:25:31  5-MIN KMSN 261825Z 17009KT 10SM CLR 04/M06 A3024 570 50 -500 160/09 RMK AO2
14837KMSN MSN20031226123009412/26/03 12:30:31  5-MIN KMSN 261830Z 17010KT 10SM CLR 04/M06 A3024 570 50 -500 170/10 RMK AO2
14837KMSN MSN20031226123509412/26/03 12:35:31  5-MIN KMSN 261835Z 17010KT 10SM CLR 04/M06 A3023 580 50 -500 170/10 RMK AO2
14837KMSN MSN20031226124009412/26/03 12:40:31  5-MIN KMSN 261840Z 16010KT 10SM CLR 04/M05 A3023 580 50 -500 160/10 RMK AO2
14837KMSN MSN20031226124509412/26/03 12:45:31  5-MIN KMSN 261845Z 16010KT 10SM CLR 04/M05 A3023 580 50 -500 160/10 RMK AO2
14837KMSN MSN20031226125011112/26/03 12:50:31  5-MIN KMSN 261850Z 16009KT 10SM CLR 05/M05 A3023 580 48 -400 150/09 RMK AO2 SLP247 T00501050
14837KMSN MSN20031226125509412/26/03 12:55:31  5-MIN KMSN 261855Z 16012KT 10SM CLR 05/M05 A3023 580 48 -400 160/12 RMK AO2
14837KMSN MSN20031226130009412/26/03 13:00:31  5-MIN KMSN 261900Z 17010KT 10SM CLR 05/M05 A3022 580 48 -400 160/10 RMK AO2
14837KMSN MSN20031226130509412/26/03 13:05:31  5-MIN KMSN 261905Z 17009KT 10SM CLR 06/M04 A3022 590 48 -300 170/09 RMK AO2
14837KMSN MSN20031226131009412/26/03 13:10:31  5-MIN KMSN 261910Z 16011KT 10SM CLR 06/M04 A3022 590 48 -300 160/11 RMK AO2
14837KMSN MSN20031226131509412/26/03 13:15:31  5-MIN KMSN 261915Z 14009KT 10SM CLR 06/M05 A3022 590 46 -300 140/09 RMK AO2
14837KMSN MSN20031226132009412/26/03 13:20:31  5-MIN KMSN 261920Z 15009KT 10SM CLR 06/M04 A3022 580 48 -300 150/09 RMK AO2
14837KMSN MSN20031226132509412/26/03 13:25:31  5-MIN KMSN 261925Z 14011KT 10SM CLR 06/M04 A3022 590 46 -300 140/11 RMK AO2
14837KMSN MSN20031226133009412/26/03 13:30:31  5-MIN KMSN 261930Z 16011KT 10SM CLR 06/M04 A3022 590 46 -300 160/11 RMK AO2
14837KMSN MSN20031226133509412/26/03 13:35:31  5-MIN KMSN 261935Z 16011KT 10SM CLR 06/M04 A3022 590 46 -300 160/11 RMK AO2
14837KMSN MSN20031226134009412/26/03 13:40:31  5-MIN KMSN 261940Z 16013KT 10SM CLR 06/M04 A3022 590 46 -300 160/13 RMK AO2
14837KMSN MSN20031226134509412/26/03 13:45:31  5-MIN KMSN 261945Z 17012KT 10SM CLR 06/M04 A3022 590 48 -300 170/12 RMK AO2
14837KMSN MSN20031226135011112/26/03 13:50:31  5-MIN KMSN 261950Z 17010KT 10SM CLR 06/M04 A3022 590 48 -300 160/10 RMK AO2 SLP245 T00561044
14837KMSN MSN20031226135509412/26/03 13:55:31  5-MIN KMSN 261955Z 16009KT 10SM CLR 06/M04 A3022 590 48 -300 160/09 RMK AO2
14837KMSN MSN20031226140009412/26/03 14:00:31  5-MIN KMSN 262000Z 16009KT 10SM CLR 06/M04 A3023 580 48 -300 160/09 RMK AO2
14837KMSN MSN20031226140509412/26/03 14:05:31  5-MIN KMSN 262005Z 14010KT 10SM CLR 06/M04 A3022 590 48 -300 140/10 RMK AO2
14837KMSN MSN20031226141009412/26/03 14:10:31  5-MIN KMSN 262010Z 14009KT 10SM CLR 06/M04 A3023 580 48 -300 140/09 RMK AO2
14837KMSN MSN20031226141509412/26/03 14:15:31  5-MIN KMSN 262015Z 15010KT 10SM CLR 06/M04 A3023 580 48 -300 150/10 RMK AO2
14837KMSN MSN20031226142009412/26/03 14:20:31  5-MIN KMSN 262020Z 15011KT 10SM CLR 06/M04 A3022 580 48 -300 150/11 RMK AO2
14837KMSN MSN20031226142509412/26/03 14:25:31  5-MIN KMSN 262025Z 15011KT 10SM CLR 05/M04 A3022 590 50 -400 150/11 RMK AO2
14837KMSN MSN20031226143009412/26/03 14:30:31  5-MIN KMSN 262030Z 15013KT 10SM CLR 05/M04 A3022 590 50 -400 150/13 RMK AO2
14837KMSN MSN20031226143509412/26/03 14:35:31  5-MIN KMSN 262035Z 15010KT 10SM CLR 05/M04 A3022 590 50 -400 150/10 RMK AO2
14837KMSN MSN20031226144009412/26/03 14:40:31  5-MIN KMSN 262040Z 15010KT 10SM CLR 06/M04 A3022 590 48 -300 150/10 RMK AO2
14837KMSN MSN20031226144509412/26/03 14:45:31  5-MIN KMSN 262045Z 14012KT 10SM CLR 06/M04 A3022 590 48 -300 140/12 RMK AO2
14837KMSN MSN20031226145011712/26/03 14:50:31  5-MIN KMSN 262050Z 15011KT 10SM CLR 06/M04 A3022 590 48 -300 150/11 RMK AO2 SLP244 T00561044 58009
14837KMSN MSN20031226145509412/26/03 14:55:31  5-MIN KMSN 262055Z 15009KT 10SM CLR 05/M04 A3022 590 50 -400 150/09 RMK AO2
14837KMSN MSN20031226150009412/26/03 15:00:31  5-MIN KMSN 262100Z 15009KT 10SM CLR 05/M04 A3021 590 50 -400 140/09 RMK AO2
14837KMSN MSN20031226150509412/26/03 15:05:31  5-MIN KMSN 262105Z 16009KT 10SM CLR 05/M04 A3021 590 50 -400 150/09 RMK AO2
14837KMSN MSN20031226151009412/26/03 15:10:31  5-MIN KMSN 262110Z 15009KT 10SM CLR 05/M04 A3021 590 50 -400 150/09 RMK AO2
14837KMSN MSN20031226151509412/26/03 15:15:31  5-MIN KMSN 262115Z 15009KT 10SM CLR 05/M04 A3021 590 50 -400 150/09 RMK AO2
14837KMSN MSN20031226152009412/26/03 15:20:31  5-MIN KMSN 262120Z 15009KT 10SM CLR 05/M04 A3021 590 52 -400 150/09 RMK AO2
14837KMSN MSN20031226152509412/26/03 15:25:31  5-MIN KMSN 262125Z 16010KT 10SM CLR 05/M04 A3021 590 52 -400 150/10 RMK AO2
14837KMSN MSN20031226153009412/26/03 15:30:31  5-MIN KMSN 262130Z 15010KT 10SM CLR 05/M04 A3021 600 52 -400 150/10 RMK AO2
14837KMSN MSN20031226153509412/26/03 15:35:31  5-MIN KMSN 262135Z 15009KT 10SM CLR 05/M04 A3021 600 52 -400 150/09 RMK AO2
14837KMSN MSN20031226154009412/26/03 15:40:31  5-MIN KMSN 262140Z 15009KT 10SM CLR 05/M04 A3021 590 52 -400 150/09 RMK AO2
14837KMSN MSN20031226154509412/26/03 15:45:31  5-MIN KMSN 262145Z 16010KT 10SM CLR 05/M04 A3021 590 52 -400 160/10 RMK AO2
14837KMSN MSN20031226155011112/26/03 15:50:31  5-MIN KMSN 262150Z 15010KT 10SM CLR 05/M04 A3021 590 52 -400 150/10 RMK AO2 SLP243 T00501039
14837KMSN MSN20031226155509412/26/03 15:55:31  5-MIN KMSN 262155Z 15009KT 10SM CLR 04/M04 A3021 590 52 -400 150/09 RMK AO2
14837KMSN MSN20031226160009412/26/03 16:00:31  5-MIN KMSN 262200Z 15010KT 10SM CLR 04/M04 A3021 590 52 -400 150/10 RMK AO2
14837KMSN MSN20031226160509412/26/03 16:05:31  5-MIN KMSN 262205Z 15010KT 10SM CLR 04/M04 A3021 600 52 -400 150/10 RMK AO2
14837KMSN MSN20031226161009412/26/03 16:10:31  5-MIN KMSN 262210Z 15009KT 10SM CLR 04/M04 A3021 590 54 -500 150/09 RMK AO2
14837KMSN MSN20031226161509412/26/03 16:15:31  5-MIN KMSN 262215Z 15009KT 10SM CLR 04/M04 A3021 590 54 -500 150/09 RMK AO2
14837KMSN MSN20031226162009412/26/03 16:20:31  5-MIN KMSN 262220Z 15008KT 10SM CLR 04/M04 A3021 600 54 -500 150/08 RMK AO2
14837KMSN MSN20031226162509412/26/03 16:25:31  5-MIN KMSN 262225Z 15009KT 10SM CLR 03/M04 A3021 600 57 -600 150/09 RMK AO2
14837KMSN MSN20031226163009412/26/03 16:30:31  5-MIN KMSN 262230Z 15009KT 10SM CLR 03/M04 A3021 600 57 -600 150/09 RMK AO2
14837KMSN MSN20031226163509412/26/03 16:35:31  5-MIN KMSN 262235Z 15008KT 10SM CLR 03/M04 A3021 600 57 -600 150/08 RMK AO2
14837KMSN MSN20031226164009412/26/03 16:40:31  5-MIN KMSN 262240Z 15008KT 10SM CLR 03/M04 A3021 600 57 -600 150/08 RMK AO2
14837KMSN MSN20031226164509412/26/03 16:45:31  5-MIN KMSN 262245Z 15008KT 10SM CLR 03/M04 A3021 600 59 -600 150/08 RMK AO2
14837KMSN MSN20031226165011112/26/03 16:50:31  5-MIN KMSN 262250Z 15009KT 10SM CLR 03/M04 A3021 590 59 -600 150/09 RMK AO2 SLP244 T00331039
14837KMSN MSN20031226165509412/26/03 16:55:31  5-MIN KMSN 262255Z 15010KT 10SM CLR 03/M04 A3021 590 61 -700 150/10 RMK AO2
14837KMSN MSN20031226170009412/26/03 17:00:31  5-MIN KMSN 262300Z 15010KT 10SM CLR 03/M04 A3022 590 59 -600 150/10 RMK AO2
14837KMSN MSN20031226170509412/26/03 17:05:31  5-MIN KMSN 262305Z 15010KT 10SM CLR 03/M04 A3022 590 61 -700 150/10 RMK AO2
14837KMSN MSN20031226171009412/26/03 17:10:31  5-MIN KMSN 262310Z 15008KT 10SM CLR 03/M04 A3022 590 61 -700 150/08 RMK AO2
14837KMSN MSN20031226171509412/26/03 17:15:31  5-MIN KMSN 262315Z 15009KT 10SM CLR 03/M04 A3022 590 61 -700 150/09 RMK AO2
14837KMSN MSN20031226172009412/26/03 17:20:31  5-MIN KMSN 262320Z 15009KT 10SM CLR 03/M04 A3022 590 61 -700 150/09 RMK AO2
14837KMSN MSN20031226172509412/26/03 17:25:31  5-MIN KMSN 262325Z 15009KT 10SM CLR 02/M04 A3022 590 64 -700 150/09 RMK AO2
14837KMSN MSN20031226173009412/26/03 17:30:31  5-MIN KMSN 262330Z 15009KT 10SM CLR 02/M04 A3022 590 64 -700 150/09 RMK AO2
14837KMSN MSN20031226173509412/26/03 17:35:31  5-MIN KMSN 262335Z 14008KT 10SM CLR 02/M04 A3022 590 66 -800 140/08 RMK AO2
14837KMSN MSN20031226174009412/26/03 17:40:31  5-MIN KMSN 262340Z 14008KT 10SM CLR 02/M04 A3021 590 64 -700 140/08 RMK AO2
14837KMSN MSN20031226174509412/26/03 17:45:31  5-MIN KMSN 262345Z 14008KT 10SM CLR 02/M04 A3021 590 64 -700 140/08 RMK AO2
