14837KMSN MSN20041101000009311/01/04 00:00:32  5-MIN KMSN 010600Z VRB03KT 10SM CLR 06/03 A3005 740 85 -100 VRB/03 RMK AO2
14837KMSN MSN20041101000509311/01/04 00:05:31  5-MIN KMSN 010605Z 00000KT 10SM CLR 06/03 A3005 740 85 -100 000/00 RMK AO2
14837KMSN MSN20041101001009311/01/04 00:10:31  5-MIN KMSN 010610Z 00000KT 10SM CLR 06/03 A3005 740 85 -100 000/00 RMK AO2
14837KMSN MSN20041101001509311/01/04 00:15:31  5-MIN KMSN 010615Z 00000KT 10SM CLR 06/03 A3005 740 85 -100 000/00 RMK AO2
14837KMSN MSN20041101002009311/01/04 00:20:31  5-MIN KMSN 010620Z 00000KT 10SM CLR 04/03 A3005 740 92 -300 000/00 RMK AO2
14837KMSN MSN20041101002509311/01/04 00:25:31  5-MIN KMSN 010625Z 02003KT 10SM CLR 05/03 A3005 740 89 -200 020/03 RMK AO2
14837KMSN MSN20041101003009311/01/04 00:30:31  5-MIN KMSN 010630Z 02003KT 10SM CLR 05/04 A3005 750 92 -200 020/03 RMK AO2
14837KMSN MSN20041101003509311/01/04 00:35:31  5-MIN KMSN 010635Z 02004KT 10SM CLR 06/04 A3005 740 89 -100 020/04 RMK AO2
14837KMSN MSN20041101004009311/01/04 00:40:31  5-MIN KMSN 010640Z 00000KT 10SM CLR 06/04 A3006 740 89 -100 000/00 RMK AO2
14837KMSN MSN20041101004509311/01/04 00:45:31  5-MIN KMSN 010645Z 00000KT 10SM CLR 06/04 A3006 740 86 -100 000/00 RMK AO2
14837KMSN MSN20041101005011011/01/04 00:50:31  5-MIN KMSN 010650Z 00000KT 10SM CLR 06/04 A3006 740 89 -100 000/00 RMK AO2 SLP183 T00560039
14837KMSN MSN20041101005509311/01/04 00:55:31  5-MIN KMSN 010655Z 00000KT 10SM CLR 06/03 A3006 740 85 -100 000/00 RMK AO2
14837KMSN MSN20041101010009311/01/04 01:00:31  5-MIN KMSN 010700Z 00000KT 10SM CLR 06/04 A3006 740 89 -100 000/00 RMK AO2
14837KMSN MSN20041101010509311/01/04 01:05:31  5-MIN KMSN 010705Z 04003KT 10SM CLR 06/04 A3005 740 89 -100 040/03 RMK AO2
14837KMSN MSN20041101011009311/01/04 01:10:31  5-MIN KMSN 010710Z 00000KT 10SM CLR 06/04 A3005 740 89 -100 000/00 RMK AO2
14837KMSN MSN20041101011509311/01/04 01:15:31  5-MIN KMSN 010715Z 00000KT 10SM CLR 06/04 A3005 740 89 -100 000/00 RMK AO2
14837KMSN MSN20041101012009311/01/04 01:20:31  5-MIN KMSN 010720Z 03003KT 10SM CLR 06/04 A3005 750 89 -100 030/03 RMK AO2
14837KMSN MSN20041101012509311/01/04 01:25:31  5-MIN KMSN 010725Z 00000KT 10SM CLR 06/04 A3005 740 89 -100 000/00 RMK AO2
14837KMSN MSN20041101013009311/01/04 01:30:31  5-MIN KMSN 010730Z 00000KT 10SM CLR 06/04 A3005 740 89 -100 000/00 RMK AO2
14837KMSN MSN20041101013509211/01/04 01:35:31  5-MIN KMSN 010735Z 00000KT 9SM CLR 06/04 A3005 740 89 -100 000/00 RMK AO2
14837KMSN MSN20041101014009211/01/04 01:40:31  5-MIN KMSN 010740Z 00000KT 9SM CLR 06/04 A3006 740 89 -100 000/00 RMK AO2
14837KMSN MSN20041101014509311/01/04 01:45:31  5-MIN KMSN 010745Z 05003KT 10SM CLR 06/04 A3005 740 86 -100 050/03 RMK AO2
14837KMSN MSN20041101015011011/01/04 01:50:31  5-MIN KMSN 010750Z 05004KT 10SM CLR 06/04 A3005 750 89 -100 050/04 RMK AO2 SLP179 T00560039
14837KMSN MSN20041101015509311/01/04 01:55:31  5-MIN KMSN 010755Z 05004KT 10SM CLR 06/04 A3005 750 86 -100 050/04 RMK AO2
14837KMSN MSN20041101020009311/01/04 02:00:31  5-MIN KMSN 010800Z 04003KT 10SM CLR 06/04 A3005 740 86 -100 040/03 RMK AO2
14837KMSN MSN20041101020509311/01/04 02:05:31  5-MIN KMSN 010805Z 05003KT 10SM CLR 06/04 A3006 740 86 -100 050/03 RMK AO2
14837KMSN MSN20041101021009311/01/04 02:10:31  5-MIN KMSN 010810Z 05004KT 10SM CLR 06/04 A3006 740 86 -100 050/04 RMK AO2
14837KMSN MSN20041101021509311/01/04 02:15:31  5-MIN KMSN 010815Z 06003KT 10SM CLR 06/04 A3007 730 86 -100 060/03 RMK AO2
14837KMSN MSN20041101022009311/01/04 02:20:31  5-MIN KMSN 010820Z 06003KT 10SM CLR 06/04 A3007 730 86 -100 060/03 RMK AO2
14837KMSN MSN20041101022509311/01/04 02:25:31  5-MIN KMSN 010825Z 00000KT 10SM CLR 06/04 A3007 720 86 -100 000/00 RMK AO2
14837KMSN MSN20041101023009311/01/04 02:30:31  5-MIN KMSN 010830Z 00000KT 10SM CLR 06/04 A3008 720 86 -100 000/00 RMK AO2
14837KMSN MSN20041101023509311/01/04 02:35:31  5-MIN KMSN 010835Z 08003KT 10SM CLR 06/04 A3007 720 86 -100 080/03 RMK AO2
14837KMSN MSN20041101024009311/01/04 02:40:31  5-MIN KMSN 010840Z 00000KT 10SM CLR 06/04 A3007 730 86 -100 000/00 RMK AO2
14837KMSN MSN20041101024509311/01/04 02:45:31  5-MIN KMSN 010845Z 06003KT 10SM CLR 06/04 A3007 730 86 -100 060/03 RMK AO2
14837KMSN MSN20041101025011611/01/04 02:50:31  5-MIN KMSN 010850Z 06004KT 10SM CLR 06/04 A3007 730 86 -100 060/04 RMK AO2 SLP187 T00610039 53001
14837KMSN MSN20041101025509311/01/04 02:55:31  5-MIN KMSN 010855Z 06004KT 10SM CLR 06/04 A3007 730 86 -100 060/04 RMK AO2
14837KMSN MSN20041101030009311/01/04 03:00:31  5-MIN KMSN 010900Z 07003KT 10SM CLR 06/04 A3007 730 86 -100 070/03 RMK AO2
14837KMSN MSN20041101030509311/01/04 03:05:31  5-MIN KMSN 010905Z 08003KT 10SM CLR 06/04 A3007 730 86 -100 080/03 RMK AO2
14837KMSN MSN20041101031009311/01/04 03:10:31  5-MIN KMSN 010910Z 06003KT 10SM CLR 06/04 A3007 730 86 -100 060/03 RMK AO2
14837KMSN MSN20041101031509311/01/04 03:15:31  5-MIN KMSN 010915Z 05003KT 10SM CLR 06/04 A3007 730 86 -100 050/03 RMK AO2
14837KMSN MSN20041101032009311/01/04 03:20:31  5-MIN KMSN 010920Z 05004KT 10SM CLR 06/04 A3007 730 89 -100 050/04 RMK AO2
14837KMSN MSN20041101032509211/01/04 03:25:31  5-MIN KMSN 010925Z 05004KT 9SM CLR 06/04 A3008 720 89 -100 050/04 RMK AO2
14837KMSN MSN20041101033009211/01/04 03:30:31  5-MIN KMSN 010930Z 06004KT 9SM CLR 06/04 A3007 720 89 -100 060/04 RMK AO2
14837KMSN MSN20041101033509211/01/04 03:35:31  5-MIN KMSN 010935Z 07003KT 9SM CLR 06/04 A3008 720 89 -100 070/03 RMK AO2
14837KMSN MSN20041101034009211/01/04 03:40:31  5-MIN KMSN 010940Z 07003KT 9SM CLR 06/04 A3008 720 86 -100 070/03 RMK AO2
14837KMSN MSN20041101034509211/01/04 03:45:31  5-MIN KMSN 010945Z 06003KT 9SM CLR 06/04 A3008 720 86 -100 060/03 RMK AO2
14837KMSN MSN20041101035010911/01/04 03:50:31  5-MIN KMSN 010950Z 07004KT 9SM CLR 06/04 A3007 720 86 -100 060/04 RMK AO2 SLP188 T00610039
14837KMSN MSN20041101035509211/01/04 03:55:31  5-MIN KMSN 010955Z 07004KT 9SM CLR 06/04 A3007 720 89 -100 070/04 RMK AO2
14837KMSN MSN20041101040009211/01/04 04:00:31  5-MIN KMSN 011000Z 08004KT 9SM CLR 06/04 A3007 720 89 -100 080/04 RMK AO2
14837KMSN MSN20041101040509211/01/04 04:05:31  5-MIN KMSN 011005Z 08005KT 9SM CLR 06/04 A3007 720 89 -100 080/05 RMK AO2
14837KMSN MSN20041101041009211/01/04 04:10:31  5-MIN KMSN 011010Z 08005KT 9SM CLR 06/04 A3007 730 89 -100 080/05 RMK AO2
14837KMSN MSN20041101041509211/01/04 04:15:31  5-MIN KMSN 011015Z 07005KT 9SM CLR 06/04 A3007 730 89 -100 070/05 RMK AO2
14837KMSN MSN20041101042009211/01/04 04:20:31  5-MIN KMSN 011020Z 06006KT 8SM CLR 06/04 A3006 730 89 -100 060/06 RMK AO2
14837KMSN MSN20041101042509211/01/04 04:25:31  5-MIN KMSN 011025Z 06006KT 8SM CLR 06/04 A3006 740 89 -100 060/06 RMK AO2
14837KMSN MSN20041101043009211/01/04 04:30:31  5-MIN KMSN 011030Z 07007KT 8SM CLR 06/04 A3006 740 89 -100 060/07 RMK AO2
14837KMSN MSN20041101043509211/01/04 04:35:31  5-MIN KMSN 011035Z 06005KT 8SM CLR 06/04 A3005 740 89 -100 060/05 RMK AO2
14837KMSN MSN20041101044009211/01/04 04:40:31  5-MIN KMSN 011040Z 06006KT 8SM CLR 06/04 A3006 740 89 -100 060/06 RMK AO2
14837KMSN MSN20041101044509211/01/04 04:45:31  5-MIN KMSN 011045Z 06006KT 8SM CLR 06/04 A3006 740 89 -100 060/06 RMK AO2
14837KMSN MSN20041101045010611/01/04 04:50:31  5-MIN KMSN 011050Z 07006KT 8SM CLR 07/04 A3006 740 86 0 070/06 RMK AO2 SLP183 T00670044
14837KMSN MSN20041101045508911/01/04 04:55:31  5-MIN KMSN 011055Z 08006KT 9SM CLR 07/04 A3006 740 86 0 080/06 RMK AO2
14837KMSN MSN20041101050008911/01/04 05:00:31  5-MIN KMSN 011100Z 07005KT 9SM CLR 07/04 A3006 740 86 0 070/05 RMK AO2
14837KMSN MSN20041101050508911/01/04 05:05:31  5-MIN KMSN 011105Z 07005KT 9SM CLR 07/04 A3006 740 86 0 070/05 RMK AO2
14837KMSN MSN20041101051008911/01/04 05:10:31  5-MIN KMSN 011110Z 07005KT 9SM CLR 07/04 A3006 740 86 0 070/05 RMK AO2
14837KMSN MSN20041101051508911/01/04 05:15:31  5-MIN KMSN 011115Z 07006KT 9SM CLR 07/04 A3005 750 86 0 070/06 RMK AO2
14837KMSN MSN20041101052009211/01/04 05:20:31  5-MIN KMSN 011120Z 07005KT 9SM FEW120 07/04 A3005 750 86 0 070/05 RMK AO2
14837KMSN MSN20041101052509211/01/04 05:25:31  5-MIN KMSN 011125Z 07005KT 9SM FEW110 07/04 A3006 740 86 0 070/05 RMK AO2
14837KMSN MSN20041101053009311/01/04 05:30:31  5-MIN KMSN 011130Z 07005KT 10SM FEW110 07/04 A3005 740 86 0 070/05 RMK AO2
14837KMSN MSN20041101053509311/01/04 05:35:31  5-MIN KMSN 011135Z 07006KT 10SM FEW110 07/04 A3005 750 86 0 070/06 RMK AO2
14837KMSN MSN20041101054009311/01/04 05:40:31  5-MIN KMSN 011140Z 07006KT 10SM FEW110 07/04 A3005 740 86 0 070/06 RMK AO2
14837KMSN MSN20041101054509311/01/04 05:45:31  5-MIN KMSN 011145Z 07006KT 10SM FEW110 07/04 A3005 740 86 0 070/06 RMK AO2
14837KMSN MSN20041101055012511/01/04 05:50:31  5-MIN KMSN 011150Z 07006KT 10SM CLR 07/04 A3005 740 86 0 070/06 RMK AO2 SLP181 T00670044 10067 20044 53004
14837KMSN MSN20041101055509011/01/04 05:55:31  5-MIN KMSN 011155Z 07005KT 10SM CLR 07/04 A3006 740 86 0 070/05 RMK AO2
14837KMSN MSN20041101060009011/01/04 06:00:31  5-MIN KMSN 011200Z 07005KT 10SM CLR 07/04 A3006 740 86 0 070/05 RMK AO2
14837KMSN MSN20041101060509011/01/04 06:05:31  5-MIN KMSN 011205Z 07005KT 10SM CLR 07/04 A3006 730 86 0 070/05 RMK AO2
14837KMSN MSN20041101061009011/01/04 06:10:31  5-MIN KMSN 011210Z 07006KT 10SM CLR 07/04 A3007 730 86 0 070/06 RMK AO2
14837KMSN MSN20041101061509011/01/04 06:15:31  5-MIN KMSN 011215Z 06005KT 10SM CLR 07/05 A3007 730 89 0 060/05 RMK AO2
14837KMSN MSN20041101062009311/01/04 06:20:31  5-MIN KMSN 011220Z 06005KT 10SM FEW018 07/05 A3006 730 89 0 060/05 RMK AO2
14837KMSN MSN20041101062509311/01/04 06:25:31  5-MIN KMSN 011225Z 06005KT 10SM SCT018 07/05 A3006 730 89 0 060/05 RMK AO2
14837KMSN MSN20041101063009311/01/04 06:30:31  5-MIN KMSN 011230Z 06005KT 10SM BKN018 07/05 A3006 740 86 0 060/05 RMK AO2
14837KMSN MSN20041101063509311/01/04 06:35:31  5-MIN KMSN 011235Z 06006KT 10SM BKN018 07/05 A3006 740 86 0 060/06 RMK AO2
14837KMSN MSN20041101064009311/01/04 06:40:31  5-MIN KMSN 011240Z 06005KT 10SM BKN018 07/05 A3006 740 86 0 060/05 RMK AO2
14837KMSN MSN20041101064509311/01/04 06:45:31  5-MIN KMSN 011245Z 06006KT 10SM OVC018 07/05 A3006 740 86 0 060/06 RMK AO2
14837KMSN MSN20041101065011011/01/04 06:50:31  5-MIN KMSN 011250Z 05004KT 10SM OVC016 07/05 A3007 730 86 0 050/04 RMK AO2 SLP187 T00720050
14837KMSN MSN20041101065509311/01/04 06:55:31  5-MIN KMSN 011255Z 06005KT 10SM OVC016 07/05 A3007 720 86 0 060/05 RMK AO2
14837KMSN MSN20041101070010011/01/04 07:00:31  5-MIN KMSN 011300Z 05006KT 10SM OVC016 07/05 A3008 720 86 0 050/06 RMK AO2 PRESRR
14837KMSN MSN20041101070509311/01/04 07:05:31  5-MIN KMSN 011305Z 05005KT 10SM OVC016 07/05 A3009 710 86 0 050/05 RMK AO2
14837KMSN MSN20041101071009311/01/04 07:10:31  5-MIN KMSN 011310Z 05005KT 10SM OVC016 07/05 A3009 710 86 0 050/05 RMK AO2
14837KMSN MSN20041101071509311/01/04 07:15:31  5-MIN KMSN 011315Z 05005KT 10SM OVC016 07/05 A3009 710 86 0 050/05 RMK AO2
14837KMSN MSN20041101072009311/01/04 07:20:31  5-MIN KMSN 011320Z 06005KT 10SM OVC016 07/05 A3009 710 86 0 050/05 RMK AO2
14837KMSN MSN20041101072509311/01/04 07:25:31  5-MIN KMSN 011325Z 05007KT 10SM BKN016 07/05 A3008 710 86 0 050/07 RMK AO2
14837KMSN MSN20041101073010011/01/04 07:30:31  5-MIN KMSN 011330Z 05006KT 10SM BKN016 BKN090 07/05 A3008 710 86 0 050/06 RMK AO2
14837KMSN MSN20041101073510211/01/04 07:35:31  5-MIN KMSN 011335Z 05006KT 10SM SCT016 BKN085 08/05 A3009 710 82 100 050/06 RMK AO2
14837KMSN MSN20041101074010211/01/04 07:40:31  5-MIN KMSN 011340Z 05006KT 10SM FEW016 BKN080 08/05 A3009 710 82 100 050/06 RMK AO2
14837KMSN MSN20041101074510211/01/04 07:45:31  5-MIN KMSN 011345Z 06006KT 10SM FEW016 BKN080 08/05 A3009 710 82 100 060/06 RMK AO2
14837KMSN MSN20041101075012811/01/04 07:50:31  5-MIN KMSN 011350Z 06007KT 10SM -RA BKN080 08/05 A3008 720 82 100 060/07 RMK AO2 RAB50 SLP191 P0000 T00780050
14837KMSN MSN20041101075510511/01/04 07:55:31  5-MIN KMSN 011355Z 06007KT 10SM -RA BKN080 08/06 A3008 720 86 100 060/07 RMK AO2 P0000
14837KMSN MSN20041101080010511/01/04 08:00:31  5-MIN KMSN 011400Z 06007KT 10SM -RA SCT075 08/05 A3008 720 82 100 060/07 RMK AO2 P0000
14837KMSN MSN20041101080510511/01/04 08:05:31  5-MIN KMSN 011405Z 07008KT 10SM -RA SCT075 08/06 A3008 710 86 100 060/08 RMK AO2 P0000
14837KMSN MSN20041101081010711/01/04 08:10:31  5-MIN KMSN 011410Z 06008KT 10SM SCT075 08/05 A3008 710 82 100 060/08 RMK AO2 RAE10 P0000
14837KMSN MSN20041101081510711/01/04 08:15:31  5-MIN KMSN 011415Z 07007KT 10SM SCT075 08/06 A3008 710 86 100 070/07 RMK AO2 RAE10 P0000
14837KMSN MSN20041101082010711/01/04 08:20:31  5-MIN KMSN 011420Z 07008KT 10SM SCT075 08/06 A3009 710 86 100 070/08 RMK AO2 RAE10 P0000
14837KMSN MSN20041101082510711/01/04 08:25:31  5-MIN KMSN 011425Z 07007KT 10SM SCT075 08/06 A3009 710 86 100 070/07 RMK AO2 RAE10 P0000
14837KMSN MSN20041101083011411/01/04 08:30:31  5-MIN KMSN 011430Z 07009KT 10SM -RA SCT075 08/06 A3008 710 86 100 070/09 RMK AO2 RAE10B26 P0000
14837KMSN MSN20041101083511411/01/04 08:35:31  5-MIN KMSN 011435Z 07008KT 10SM -RA SCT070 08/06 A3009 710 86 100 070/08 RMK AO2 RAE10B26 P0000
14837KMSN MSN20041101084012111/01/04 08:40:31  5-MIN KMSN 011440Z 06006KT 10SM -RA FEW041 SCT070 08/06 A3009 710 86 100 060/06 RMK AO2 RAE10B26 P0000
14837KMSN MSN20041101084512511/01/04 08:45:31  5-MIN KMSN 011445Z 07007KT 9SM -RA FEW041 BKN060 BKN080 08/06 A3009 710 86 0 070/07 RMK AO2 RAE10B26 P0000
14837KMSN MSN20041101085015411/01/04 08:50:31  5-MIN KMSN 011450Z 07007KT 9SM -RA FEW041 BKN055 BKN070 08/06 A3009 710 86 0 060/07 RMK AO2 RAE10B26 SLP195 P0000 60000 T00780056 58005
14837KMSN MSN20041101085511611/01/04 08:55:31  5-MIN KMSN 011455Z 08006KT 8SM -RA FEW041 BKN055 BKN075 08/06 A3009 710 89 0 080/06 RMK AO2 P0000
14837KMSN MSN20041101090011811/01/04 09:00:31  5-MIN KMSN 011500Z 09007KT 7SM -RA FEW043 BKN055 OVC070 08/06 A3009 710 86 100 090/07 RMK AO2 P0000
14837KMSN MSN20041101090512111/01/04 09:05:31  5-MIN KMSN 011505Z 09008KT 6SM -RA BR FEW043 BKN050 OVC070 08/06 A3009 710 86 100 090/08 RMK AO2 P0000
14837KMSN MSN20041101091012111/01/04 09:10:31  5-MIN KMSN 011510Z 09008KT 6SM -RA BR FEW018 BKN047 OVC070 08/06 A3009 710 86 100 090/08 RMK AO2 P0000
14837KMSN MSN20041101091512111/01/04 09:15:31  5-MIN KMSN 011515Z 09007KT 5SM -RA BR SCT018 BKN042 OVC055 08/06 A3009 710 86 100 090/07 RMK AO2 P0001
14837KMSN MSN20041101092012111/01/04 09:20:31  5-MIN KMSN 011520Z 10009KT 4SM -RA BR FEW018 BKN040 OVC055 08/06 A3009 710 86 100 100/09 RMK AO2 P0001
14837KMSN MSN20041101092512111/01/04 09:25:31  5-MIN KMSN 011525Z 09009KT 4SM -RA BR FEW018 BKN034 OVC060 08/07 A3009 710 89 100 090/09 RMK AO2 P0001
14837KMSN MSN20041101093012111/01/04 09:30:31  5-MIN KMSN 011530Z 10009KT 4SM -RA BR FEW018 BKN032 OVC060 08/07 A3008 710 89 100 100/09 RMK AO2 P0002
14837KMSN MSN20041101093512111/01/04 09:35:31  5-MIN KMSN 011535Z 10009KT 5SM -RA BR FEW018 BKN030 OVC055 08/07 A3008 720 89 100 100/09 RMK AO2 P0002
14837KMSN MSN20041101094012111/01/04 09:40:31  5-MIN KMSN 011540Z 10010KT 5SM -RA BR FEW010 BKN033 OVC055 08/07 A3008 720 89 100 100/10 RMK AO2 P0003
14837KMSN MSN20041101094512111/01/04 09:45:31  5-MIN KMSN 011545Z 10009KT 5SM -RA BR FEW010 BKN035 BKN055 08/07 A3007 720 89 100 100/09 RMK AO2 P0003
14837KMSN MSN20041101095013811/01/04 09:50:31  5-MIN KMSN 011550Z 09010KT 5SM -RA BR FEW010 BKN033 BKN055 08/07 A3007 720 89 100 090/10 RMK AO2 SLP188 P0003 T00830067
14837KMSN MSN20041101095512111/01/04 09:55:31  5-MIN KMSN 011555Z 09012KT 5SM -RA BR SCT012 BKN033 BKN055 08/07 A3007 730 89 100 090/12 RMK AO2 P0000
14837KMSN MSN20041101100012111/01/04 10:00:31  5-MIN KMSN 011600Z 09012KT 5SM -RA BR FEW009 BKN014 BKN033 08/07 A3006 730 89 100 090/12 RMK AO2 P0001
14837KMSN MSN20041101100511411/01/04 10:05:31  5-MIN KMSN 011605Z 09013KT 5SM -RA BR BKN012 BKN035 08/07 A3006 730 89 100 090/13 RMK AO2 P0001
14837KMSN MSN20041101101012111/01/04 10:10:31  5-MIN KMSN 011610Z 09014KT 5SM -RA BR BKN012 BKN029 BKN065 08/07 A3007 730 89 100 090/14 RMK AO2 P0002
14837KMSN MSN20041101101512711/01/04 10:15:31  5-MIN KMSN 011615Z 07009G18KT 5SM -RA BR BKN012 BKN027 OVC065 08/07 A3007 730 89 100 070/09G18 RMK AO2 P0002
14837KMSN MSN20041101102011411/01/04 10:20:31  5-MIN KMSN 011620Z 08011KT 5SM -RA BR BKN012 OVC065 08/07 A3007 730 89 100 080/11 RMK AO2 P0002
14837KMSN MSN20041101102511411/01/04 10:25:31  5-MIN KMSN 011625Z 07009KT 5SM -RA BR BKN012 OVC065 08/07 A3007 730 89 100 070/09 RMK AO2 P0003
14837KMSN MSN20041101103012111/01/04 10:30:31  5-MIN KMSN 011630Z 07014KT 5SM -RA BR FEW009 BKN012 OVC065 08/07 A3007 730 89 100 070/14 RMK AO2 P0003
14837KMSN MSN20041101103510711/01/04 10:35:31  5-MIN KMSN 011635Z 08012KT 5SM -RA BR OVC014 08/07 A3006 730 89 100 080/12 RMK AO2 P0004
14837KMSN MSN20041101104011411/01/04 10:40:31  5-MIN KMSN 011640Z 08011KT 5SM -RA BR FEW009 OVC014 08/07 A3006 730 89 100 080/11 RMK AO2 P0004
14837KMSN MSN20041101104511311/01/04 10:45:31  5-MIN KMSN 011645Z 08009G16KT 5SM -RA BR OVC014 08/07 A3006 730 89 100 080/09G16 RMK AO2 P0004
14837KMSN MSN20041101105012411/01/04 10:50:31  5-MIN KMSN 011650Z 09010KT 5SM -RA BR OVC012 08/07 A3006 740 89 200 090/10 RMK AO2 SLP184 P0005 T00830067
14837KMSN MSN20041101105510711/01/04 10:55:31  5-MIN KMSN 011655Z 08011KT 5SM -RA BR OVC012 08/07 A3006 730 89 100 080/11 RMK AO2 P0000
14837KMSN MSN20041101110010711/01/04 11:00:31  5-MIN KMSN 011700Z 09011KT 5SM -RA BR OVC012 08/07 A3006 730 89 100 090/11 RMK AO2 P0000
14837KMSN MSN20041101110510711/01/04 11:05:31  5-MIN KMSN 011705Z 08011KT 5SM -RA BR OVC012 08/07 A3006 730 89 100 080/11 RMK AO2 P0000
14837KMSN MSN20041101111010711/01/04 11:10:31  5-MIN KMSN 011710Z 08010KT 5SM -RA BR OVC012 08/07 A3006 730 89 100 080/10 RMK AO2 P0001
14837KMSN MSN20041101111510711/01/04 11:15:31  5-MIN KMSN 011715Z 08011KT 6SM -RA BR OVC012 08/07 A3006 740 89 200 080/11 RMK AO2 P0001
14837KMSN MSN20041101112010711/01/04 11:20:31  5-MIN KMSN 011720Z 09013KT 6SM -RA BR OVC012 08/07 A3006 740 89 200 090/13 RMK AO2 P0001
14837KMSN MSN20041101112511311/01/04 11:25:31  5-MIN KMSN 011725Z 08014G20KT 6SM -RA BR OVC012 08/06 A3006 740 86 200 080/14G20 RMK AO2 P0001
14837KMSN MSN20041101113011311/01/04 11:30:31  5-MIN KMSN 011730Z 08011G20KT 6SM -RA BR OVC014 08/07 A3005 740 89 200 080/11G20 RMK AO2 P0001
14837KMSN MSN20041101113511311/01/04 11:35:31  5-MIN KMSN 011735Z 08009G18KT 6SM -RA BR OVC014 08/07 A3005 740 89 200 080/09G18 RMK AO2 P0002
14837KMSN MSN20041101114011411/01/04 11:40:31  5-MIN KMSN 011740Z 07009KT 6SM -RA BR SCT009 OVC014 08/07 A3005 740 89 200 070/09 RMK AO2 P0002
14837KMSN MSN20041101114510711/01/04 11:45:31  5-MIN KMSN 011745Z 08010KT 5SM -RA BR OVC014 08/07 A3005 750 89 200 070/10 RMK AO2 P0002
14837KMSN MSN20041101115014811/01/04 11:50:31  5-MIN KMSN 011750Z 07011KT 5SM -RA BR OVC014 08/07 A3005 750 89 200 070/11 RMK AO2 SLP180 P0002 60010 T00830067 10083 20067 51013
14837KMSN MSN20041101115510711/01/04 11:55:31  5-MIN KMSN 011755Z 07012KT 5SM -RA BR OVC014 08/07 A3004 750 89 200 070/12 RMK AO2 P0000
14837KMSN MSN20041101120010711/01/04 12:00:31  5-MIN KMSN 011800Z 07011KT 4SM -RA BR OVC014 08/07 A3004 760 93 100 070/11 RMK AO2 P0000
14837KMSN MSN20041101120510711/01/04 12:05:31  5-MIN KMSN 011805Z 07011KT 4SM -RA BR OVC014 08/07 A3004 760 93 100 060/11 RMK AO2 P0000
14837KMSN MSN20041101121010711/01/04 12:10:31  5-MIN KMSN 011810Z 07013KT 5SM -RA BR OVC012 08/07 A3003 760 93 100 070/13 RMK AO2 P0001
14837KMSN MSN20041101121510711/01/04 12:15:31  5-MIN KMSN 011815Z 07012KT 5SM -RA BR OVC014 08/07 A3003 760 93 100 070/12 RMK AO2 P0001
14837KMSN MSN20041101122011211/01/04 12:20:31  5-MIN KMSN 011820Z AUTO 06011KT 5SM -RA BR OVC014 08/07 A3003 770 93 100 060/11 RMK AO2 P0001
14837KMSN MSN20041101122511711/01/04 12:25:31  5-MIN KMSN 011825Z AUTO 06012KT 5SM -RA BR OVC014 08/07 A3002 770 93 100 060/12 RMK AO2 P0001 TSNO
14837KMSN MSN20041101123011411/01/04 12:30:31  5-MIN KMSN 011830Z 06013KT 5SM -RA BR BKN011 OVC016 08/07 A3002 770 93 100 060/13 RMK AO2 P0002
14837KMSN MSN20041101123512611/01/04 12:35:31  5-MIN KMSN 011835Z 05010KT 5SM -RA BR BKN011 OVC016 08/07 A3002 770 93 100 050/10 RMK AO2 CIG 007V013 P0002
14837KMSN MSN20041101124011411/01/04 12:40:31  5-MIN KMSN 011840Z 06012KT 5SM -RA BR BKN011 OVC016 08/07 A3003 770 93 100 060/12 RMK AO2 P0002
14837KMSN MSN20041101124512611/01/04 12:45:31  5-MIN KMSN 011845Z 06011KT 6SM -RA BR BKN011 OVC016 08/06 A3003 770 89 100 050/11 RMK AO2 CIG 007V013 P0002
14837KMSN MSN20041101125012411/01/04 12:50:31  5-MIN KMSN 011850Z 05012KT 6SM -RA BR OVC011 08/07 A3002 770 93 100 050/12 RMK AO2 SLP172 P0002 T00780067
14837KMSN MSN20041101125510711/01/04 12:55:31  5-MIN KMSN 011855Z 06012KT 6SM -RA BR OVC011 08/06 A3002 770 89 100 060/12 RMK AO2 P0000
14837KMSN MSN20041101130011611/01/04 13:00:31  5-MIN KMSN 011900Z 05013KT 7SM -RA OVC011 08/06 A3002 780 89 100 050/13 RMK AO2 CIG 007V013 P0000
14837KMSN MSN20041101130512211/01/04 13:05:31  5-MIN KMSN 011905Z 06014G18KT 7SM -RA OVC009 08/06 A3001 780 89 100 050/14G18 RMK AO2 CIG 008V013 P0000
14837KMSN MSN20041101131011611/01/04 13:10:31  5-MIN KMSN 011910Z 05014KT 7SM -RA OVC009 08/06 A3001 780 89 100 050/14 RMK AO2 CIG 008V013 P0000
14837KMSN MSN20041101131511011/01/04 13:15:31  5-MIN KMSN 011915Z 06012G18KT 7SM -RA OVC011 08/06 A3001 780 89 100 060/12G18 RMK AO2 P0000
14837KMSN MSN20041101132011011/01/04 13:20:31  5-MIN KMSN 011920Z 06012G18KT 7SM -RA OVC011 08/06 A3002 780 89 100 060/12G18 RMK AO2 P0001
14837KMSN MSN20041101132512911/01/04 13:25:31  5-MIN KMSN 011925Z 06015G20KT 7SM -RA BKN011 OVC014 08/06 A3002 770 89 100 060/15G20 RMK AO2 CIG 008V012 P0001
14837KMSN MSN20041101133011011/01/04 13:30:31  5-MIN KMSN 011930Z 06013G20KT 7SM -RA OVC011 08/06 A3002 780 86 100 060/13G20 RMK AO2 P0001
14837KMSN MSN20041101133510411/01/04 13:35:31  5-MIN KMSN 011935Z 06013KT 7SM -RA OVC011 08/06 A3001 780 89 100 060/13 RMK AO2 P0001
14837KMSN MSN20041101134010711/01/04 13:40:31  5-MIN KMSN 011940Z 06013KT 6SM -RA BR OVC011 08/06 A3001 780 89 100 060/13 RMK AO2 P0001
14837KMSN MSN20041101134510711/01/04 13:45:31  5-MIN KMSN 011945Z 05012KT 5SM -RA BR OVC013 08/06 A3001 780 89 100 050/12 RMK AO2 P0001
14837KMSN MSN20041101135013011/01/04 13:50:31  5-MIN KMSN 011950Z 06015G19KT 5SM -RA BR OVC013 08/06 A3001 780 89 100 060/15G19 RMK AO2 SLP167 P0001 T00780061
14837KMSN MSN20041101135510711/01/04 13:55:31  5-MIN KMSN 011955Z 06013KT 5SM -RA BR OVC013 08/06 A3001 780 89 100 060/13 RMK AO2 P0000
14837KMSN MSN20041101140010711/01/04 14:00:31  5-MIN KMSN 012000Z 05012KT 5SM -RA BR OVC016 08/06 A3001 780 89 100 050/12 RMK AO2 P0000
14837KMSN MSN20041101140510711/01/04 14:05:31  5-MIN KMSN 012005Z 05012KT 5SM -RA BR OVC016 08/06 A3001 780 89 100 050/12 RMK AO2 P0000
14837KMSN MSN20041101141011411/01/04 14:10:31  5-MIN KMSN 012010Z 05010KT 5SM -RA BR SCT010 OVC016 08/06 A3001 780 89 100 050/10 RMK AO2 P0000
14837KMSN MSN20041101141511411/01/04 14:15:31  5-MIN KMSN 012015Z 05011KT 5SM -RA BR FEW010 OVC016 07/06 A3002 780 93 100 050/11 RMK AO2 P0001
14837KMSN MSN20041101142011411/01/04 14:20:31  5-MIN KMSN 012020Z 05012KT 5SM -RA BR FEW010 OVC016 07/06 A3002 780 93 100 050/12 RMK AO2 P0001
14837KMSN MSN20041101142511411/01/04 14:25:31  5-MIN KMSN 012025Z 04013KT 6SM -RA BR FEW010 OVC016 07/06 A3001 780 93 100 040/13 RMK AO2 P0001
14837KMSN MSN20041101143010711/01/04 14:30:31  5-MIN KMSN 012030Z 04013KT 6SM -RA BR OVC014 07/06 A3001 780 93 100 040/13 RMK AO2 P0001
14837KMSN MSN20041101143510711/01/04 14:35:31  5-MIN KMSN 012035Z 04013KT 6SM -RA BR OVC012 07/06 A3001 780 89 100 040/13 RMK AO2 P0001
14837KMSN MSN20041101144011411/01/04 14:40:31  5-MIN KMSN 012040Z 04012KT 6SM -RA BR BKN014 OVC020 07/06 A3001 780 89 100 040/12 RMK AO2 P0001
14837KMSN MSN20041101144511411/01/04 14:45:31  5-MIN KMSN 012045Z 03014KT 6SM -RA BR BKN014 OVC039 07/06 A3002 780 89 100 030/14 RMK AO2 P0001
14837KMSN MSN20041101145015011/01/04 14:50:31  5-MIN KMSN 012050Z 04014KT 6SM -RA BR BKN012 BKN019 OVC037 07/06 A3001 780 89 100 040/14 RMK AO2 SLP169 P0001 60005 T00720056 56016
14837KMSN MSN20041101145512111/01/04 14:55:31  5-MIN KMSN 012055Z 04014KT 6SM -RA BR BKN012 BKN019 OVC037 07/06 A3001 780 89 100 040/14 RMK AO2 P0000
14837KMSN MSN20041101150012111/01/04 15:00:31  5-MIN KMSN 012100Z 03013KT 6SM -RA BR SCT012 BKN017 OVC035 07/06 A3001 780 89 100 030/13 RMK AO2 P0001
14837KMSN MSN20041101150512111/01/04 15:05:31  5-MIN KMSN 012105Z 03012KT 5SM -RA BR BKN012 BKN017 OVC035 07/06 A3000 790 89 100 030/12 RMK AO2 P0001
14837KMSN MSN20041101151012111/01/04 15:10:31  5-MIN KMSN 012110Z 04012KT 5SM -RA BR BKN012 BKN017 OVC035 07/06 A3001 790 89 100 040/12 RMK AO2 P0001
14837KMSN MSN20041101151511411/01/04 15:15:31  5-MIN KMSN 012115Z 04014KT 5SM -RA BR BKN014 OVC035 07/06 A3000 790 89 100 040/14 RMK AO2 P0001
14837KMSN MSN20041101152012111/01/04 15:20:31  5-MIN KMSN 012120Z 04012KT 4SM -RA BR BKN014 BKN018 OVC033 07/06 A3000 790 89 100 040/12 RMK AO2 P0001
14837KMSN MSN20041101152511211/01/04 15:25:31  5-MIN KMSN 012125Z 04013KT 4SM -RA BR SCT014 OVC031 07/06 A3000 790 93 0 040/13 RMK AO2 P0001
14837KMSN MSN20041101153011211/01/04 15:30:31  5-MIN KMSN 012130Z 04016KT 3SM -RA BR SCT014 OVC031 07/06 A3000 790 93 0 040/16 RMK AO2 P0001
14837KMSN MSN20041101153511411/01/04 15:35:31  5-MIN KMSN 012135Z 05013KT 3SM BR FEW014 OVC031 07/06 A3001 780 93 0 040/13 RMK AO2 RAE31 P0001
14837KMSN MSN20041101154011211/01/04 15:40:31  5-MIN KMSN 012140Z 05013KT 3SM -RA BR FEW014 OVC031 07/06 A3001 790 93 0 040/13 RMK AO2 P0001
14837KMSN MSN20041101154511211/01/04 15:45:31  5-MIN KMSN 012145Z 04013KT 3SM -RA BR FEW014 OVC031 07/06 A3001 780 93 0 040/13 RMK AO2 P0001
14837KMSN MSN20041101155013911/01/04 15:50:31  5-MIN KMSN 012150Z 04010KT 3SM -RA BR FEW014 OVC031 07/06 A3001 780 93 0 040/10 RMK AO2 SFC VIS 4 SLP168 P0001 T00670056
14837KMSN MSN20041101155512211/01/04 15:55:31  5-MIN KMSN 012155Z 04011KT 3SM -RA BR SCT014 OVC031 07/06 A3001 780 93 0 040/11 RMK AO2 SFC VIS 4 P0000
14837KMSN MSN20041101160011911/01/04 16:00:31  5-MIN KMSN 012200Z 05013KT 3SM -RA BR FEW011 SCT017 OVC031 07/06 A3000 790 93 0 050/13 RMK AO2 P0001
14837KMSN MSN20041101160511911/01/04 16:05:31  5-MIN KMSN 012205Z 05015KT 3SM -RA BR FEW013 SCT018 OVC031 07/06 A2999 800 93 0 050/15 RMK AO2 P0001
14837KMSN MSN20041101161011211/01/04 16:10:31  5-MIN KMSN 012210Z 04014KT 3SM -RA BR SCT016 OVC031 07/06 A3001 780 93 0 040/14 RMK AO2 P0001
14837KMSN MSN20041101161511911/01/04 16:15:31  5-MIN KMSN 012215Z 03014KT 3SM -RA BR FEW012 SCT016 OVC031 07/05 A3002 770 89 0 020/14 RMK AO2 P0001
14837KMSN MSN20041101162011911/01/04 16:20:31  5-MIN KMSN 012220Z 02014KT 3SM -RA BR SCT012 SCT016 OVC031 07/05 A3003 770 89 0 020/14 RMK AO2 P0001
14837KMSN MSN20041101162511911/01/04 16:25:31  5-MIN KMSN 012225Z 02012KT 3SM -RA BR SCT012 SCT016 OVC031 07/05 A3002 770 89 0 020/12 RMK AO2 P0002
14837KMSN MSN20041101163011211/01/04 16:30:31  5-MIN KMSN 012230Z 02014KT 3SM -RA BR FEW012 OVC029 07/05 A3002 770 89 0 020/14 RMK AO2 P0002
14837KMSN MSN20041101163511211/01/04 16:35:31  5-MIN KMSN 012235Z 02013KT 3SM -RA BR FEW012 OVC029 07/05 A3001 780 89 0 020/13 RMK AO2 P0003
14837KMSN MSN20041101164012511/01/04 16:40:31  5-MIN KMSN 012240Z 03013G20KT 3SM -RA BR SCT012 OVC029 07/05 A2999 800 89 0 030/13G20 RMK AO2 PRESFR P0003
14837KMSN MSN20041101164511811/01/04 16:45:31  5-MIN KMSN 012245Z 03014G20KT 3SM -RA BR SCT012 OVC029 07/05 A2999 800 89 0 030/14G20 RMK AO2 P0003
14837KMSN MSN20041101165012911/01/04 16:50:31  5-MIN KMSN 012250Z 03013KT 3SM -RA BR SCT012 OVC029 07/05 A3000 790 89 0 030/13 RMK AO2 SLP166 P0004 T00670050
14837KMSN MSN20041101165511211/01/04 16:55:31  5-MIN KMSN 012255Z 02013KT 3SM -RA BR SCT012 OVC027 07/06 A3001 780 93 0 020/13 RMK AO2 P0000
14837KMSN MSN20041101170011211/01/04 17:00:31  5-MIN KMSN 012300Z 03011KT 3SM -RA BR SCT012 OVC027 07/05 A3001 780 89 0 020/11 RMK AO2 P0000
14837KMSN MSN20041101170511211/01/04 17:05:31  5-MIN KMSN 012305Z 03012KT 3SM -RA BR SCT012 OVC029 07/05 A3001 780 89 0 030/12 RMK AO2 P0000
14837KMSN MSN20041101171011911/01/04 17:10:31  5-MIN KMSN 012310Z 02013KT 3SM -RA BR FEW010 SCT014 OVC029 07/05 A3000 790 89 0 020/13 RMK AO2 P0000
14837KMSN MSN20041101171511911/01/04 17:15:31  5-MIN KMSN 012315Z 02011KT 3SM -RA BR SCT010 SCT014 OVC029 07/05 A3002 780 89 0 010/11 RMK AO2 P0000
14837KMSN MSN20041101172013111/01/04 17:20:31  5-MIN KMSN 012320Z 01013KT 3SM -RA BR BKN010 OVC029 07/05 A3004 760 89 0 010/13 RMK AO2 CIG 008V012 PRESRR P0000
14837KMSN MSN20041101172512411/01/04 17:25:31  5-MIN KMSN 012325Z 02012KT 3SM -RA BR BKN010 OVC029 07/05 A3004 750 89 0 020/12 RMK AO2 CIG 008V014 P0000
14837KMSN MSN20041101173012411/01/04 17:30:31  5-MIN KMSN 012330Z 02013KT 3SM -RA BR BKN010 OVC031 06/05 A3004 750 93 0 020/13 RMK AO2 CIG 008V013 P0001
14837KMSN MSN20041101173511211/01/04 17:35:31  5-MIN KMSN 012335Z 02012KT 3SM -RA BR BKN010 OVC031 06/05 A3003 760 93 0 020/12 RMK AO2 P0001
14837KMSN MSN20041101174011911/01/04 17:40:31  5-MIN KMSN 012340Z 02012KT 3SM -RA BR BKN010 BKN021 OVC033 06/05 A3003 760 93 0 020/12 RMK AO2 P0001
14837KMSN MSN20041101174511911/01/04 17:45:31  5-MIN KMSN 012345Z 02011KT 3SM -RA BR FEW006 BKN010 OVC033 06/05 A3004 760 93 0 020/11 RMK AO2 P0001
14837KMSN MSN20041101175016011/01/04 17:50:31  5-MIN KMSN 012350Z 02013KT 3SM -RA BR BKN010 BKN014 OVC033 06/05 A3004 760 93 0 020/13 RMK AO2 SLP177 P0002 60012 T00610050 10083 20061 55011
14837KMSN MSN20041101175511911/01/04 17:55:31  5-MIN KMSN 012355Z 03014KT 3SM -RA BR BKN010 BKN015 OVC033 06/05 A3003 760 93 0 030/14 RMK AO2 P0000
14837KMSN MSN20041101180013311/01/04 18:00:31  5-MIN KMSN 020000Z 03012KT 2 1/2SM -RA BR BKN010 BKN015 OVC041 06/05 A3002 770 93 0 030/12 RMK AO2 TWR VIS 3 P0001
14837KMSN MSN20041101180513311/01/04 18:05:31  5-MIN KMSN 020005Z 02013KT 2 1/2SM -RA BR BKN008 BKN013 OVC041 06/05 A3004 760 93 0 020/13 RMK AO2 TWR VIS 3 P0001
14837KMSN MSN20041101181011911/01/04 18:10:31  5-MIN KMSN 020010Z 02013KT 3SM -RA BR BKN008 BKN013 OVC041 06/05 A3004 760 93 0 020/13 RMK AO2 P0001
14837KMSN MSN20041101181511911/01/04 18:15:31  5-MIN KMSN 020015Z 03015KT 3SM -RA BR BKN008 BKN013 OVC041 06/05 A3002 770 93 0 030/15 RMK AO2 P0001
14837KMSN MSN20041101182011911/01/04 18:20:31  5-MIN KMSN 020020Z 04014KT 3SM -RA BR BKN008 BKN021 OVC041 06/05 A3002 770 93 0 040/14 RMK AO2 P0001
14837KMSN MSN20041101182513111/01/04 18:25:31  5-MIN KMSN 020025Z 04015KT 3SM BR BKN008 BKN021 OVC041 06/05 A3001 780 93 0 040/15 RMK AO2 SFC VIS 4 RAE25 P0001
14837KMSN MSN20041101183012911/01/04 18:30:31  5-MIN KMSN 020030Z 04014KT 3SM -RA BR BKN008 BKN021 OVC041 06/05 A3002 770 93 0 040/14 RMK AO2 SFC VIS 4 P0001
14837KMSN MSN20041101183512911/01/04 18:35:31  5-MIN KMSN 020035Z 04015KT 3SM -RA BR BKN008 BKN021 OVC041 06/05 A3002 770 93 0 040/15 RMK AO2 SFC VIS 4 P0002
14837KMSN MSN20041101184012911/01/04 18:40:31  5-MIN KMSN 020040Z 04015KT 3SM -RA BR BKN008 BKN021 OVC041 06/05 A3003 760 93 0 040/15 RMK AO2 SFC VIS 4 P0002
14837KMSN MSN20041101184512911/01/04 18:45:31  5-MIN KMSN 020045Z 04013KT 3SM -RA BR BKN008 BKN021 OVC041 06/05 A3003 760 93 0 040/13 RMK AO2 SFC VIS 4 P0002
14837KMSN MSN20041101185014611/01/04 18:50:31  5-MIN KMSN 020050Z 04013KT 3SM -RA BR BKN011 BKN032 OVC047 06/05 A3003 760 93 0 040/13 RMK AO2 SFC VIS 4 SLP176 P0002 T00610050
14837KMSN MSN20041101185511911/01/04 18:55:31  5-MIN KMSN 020055Z 04012KT 4SM -RA BR BKN011 BKN034 OVC047 06/05 A3003 760 93 0 040/12 RMK AO2 P0000
14837KMSN MSN20041101190012311/01/04 19:00:31  5-MIN KMSN 020100Z 04013KT 4SM BR BKN011 BKN034 OVC047 06/05 A3003 770 93 0 040/13 RMK AO2 RAE0057 P0000
14837KMSN MSN20041101190512311/01/04 19:05:31  5-MIN KMSN 020105Z 04013KT 5SM BR SCT011 BKN014 OVC047 06/05 A3003 760 93 0 040/13 RMK AO2 RAE0057 P0000
14837KMSN MSN20041101191011911/01/04 19:10:31  5-MIN KMSN 020110Z 04013KT 5SM -RA BR SCT011 BKN014 OVC034 06/05 A3002 770 93 0 040/13 RMK AO2 P0000
14837KMSN MSN20041101191511211/01/04 19:15:31  5-MIN KMSN 020115Z 04012KT 4SM -RA BR BKN011 OVC034 06/05 A3002 770 93 0 040/12 RMK AO2 P0000
14837KMSN MSN20041101192011811/01/04 19:20:31  5-MIN KMSN 020120Z 05014G20KT 4SM -RA BR BKN011 OVC036 06/05 A3002 780 93 0 040/14G20 RMK AO2 P0000
14837KMSN MSN20041101192511811/01/04 19:25:31  5-MIN KMSN 020125Z 04013G20KT 4SM -RA BR BKN011 OVC034 06/05 A3002 780 93 0 040/13G20 RMK AO2 P0001
14837KMSN MSN20041101193011211/01/04 19:30:31  5-MIN KMSN 020130Z 04011KT 4SM -RA BR BKN011 OVC034 06/05 A3002 770 93 0 040/11 RMK AO2 P0001
14837KMSN MSN20041101193510511/01/04 19:35:31  5-MIN KMSN 020135Z 04013KT 4SM -RA BR OVC011 06/05 A3001 780 93 0 040/13 RMK AO2 P0001
14837KMSN MSN20041101194011611/01/04 19:40:31  5-MIN KMSN 020140Z 03012KT 5SM -DZ BR OVC011 06/05 A3001 780 93 0 030/12 RMK AO2 RAE40DZB40 P0001
14837KMSN MSN20041101194512811/01/04 19:45:31  5-MIN KMSN 020145Z 04011KT 5SM -DZ BR OVC009 06/05 A3001 780 93 0 040/11 RMK AO2 RAE40DZB40 CIG 007V014 P0001
14837KMSN MSN20041101195014511/01/04 19:50:31  5-MIN KMSN 020150Z 04011KT 5SM -DZ BR OVC009 06/05 A3002 780 93 0 040/11 RMK AO2 RAE40DZB40 CIG 007V013 SLP169 P0001 T00610050
14837KMSN MSN20041101195512411/01/04 19:55:31  5-MIN KMSN 020155Z 03011KT 5SM -DZ BR BKN009 OVC013 06/05 A3002 770 93 0 030/11 RMK AO2 CIG 007V011 P0000
14837KMSN MSN20041101200011711/01/04 20:00:31  5-MIN KMSN 020200Z 03010KT 5SM -DZ BR OVC009 07/05 A3002 770 89 0 030/10 RMK AO2 CIG 007V013 P0000
14837KMSN MSN20041101200511711/01/04 20:05:31  5-MIN KMSN 020205Z 03011KT 5SM -DZ BR OVC009 07/05 A3003 770 89 0 030/11 RMK AO2 CIG 007V012 P0000
14837KMSN MSN20041101201011611/01/04 20:10:31  5-MIN KMSN 020210Z 04012KT 8SM OVC009 07/05 A3001 780 89 0 040/12 RMK AO2 DZE08 CIG 007V012 P0000
14837KMSN MSN20041101201511611/01/04 20:15:31  5-MIN KMSN 020215Z 04013KT 8SM OVC009 07/05 A3001 780 89 0 040/13 RMK AO2 DZE08 CIG 008V012 P0000
14837KMSN MSN20041101202011611/01/04 20:20:31  5-MIN KMSN 020220Z 04011KT 8SM OVC009 07/05 A3001 780 89 0 040/11 RMK AO2 DZE08 CIG 008V012 P0000
14837KMSN MSN20041101202511611/01/04 20:25:31  5-MIN KMSN 020225Z 04014KT 8SM OVC009 07/05 A3001 780 89 0 040/14 RMK AO2 DZE08 CIG 008V014 P0000
14837KMSN MSN20041101203010411/01/04 20:30:31  5-MIN KMSN 020230Z 04014KT 8SM OVC011 07/05 A3001 790 89 0 040/14 RMK AO2 DZE08 P0000
14837KMSN MSN20041101203512411/01/04 20:35:31  5-MIN KMSN 020235Z 04012KT 10SM BKN011 OVC016 07/05 A3001 780 89 0 040/12 RMK AO2 DZE08 CIG 008V012 P0000
14837KMSN MSN20041101204010511/01/04 20:40:31  5-MIN KMSN 020240Z 04013KT 10SM OVC011 07/05 A3000 790 89 0 030/13 RMK AO2 DZE08 P0000
14837KMSN MSN20041101204510511/01/04 20:45:31  5-MIN KMSN 020245Z 03011KT 10SM OVC011 07/05 A3000 790 89 0 030/11 RMK AO2 DZE08 P0000
14837KMSN MSN20041101205015311/01/04 20:50:31  5-MIN KMSN 020250Z 03012KT 10SM BKN011 OVC016 07/05 A3001 790 89 0 030/12 RMK AO2 DZE08 CIG 008V012 SLP166 P0000 60003 T00670050 53006
14837KMSN MSN20041101205511611/01/04 20:55:31  5-MIN KMSN 020255Z 04013G17KT 10SM -DZ BKN011 OVC017 07/05 A3001 790 89 0 040/13G17 RMK AO2 P0000
14837KMSN MSN20041101210012211/01/04 21:00:31  5-MIN KMSN 020300Z 04010G17KT 9SM -DZ SCT011 BKN015 OVC033 07/05 A3001 780 89 0 040/10G17 RMK AO2 P0000
14837KMSN MSN20041101210511611/01/04 21:05:31  5-MIN KMSN 020305Z 04011KT 8SM -DZ SCT011 BKN015 OVC033 07/05 A3001 790 89 0 040/11 RMK AO2 P0000
14837KMSN MSN20041101211013011/01/04 21:10:31  5-MIN KMSN 020310Z 05012KT 6SM -RA BR BKN011 BKN017 OVC033 07/05 A3000 790 89 0 050/12 RMK AO2 DZE08RAB08 P0000
14837KMSN MSN20041101211513011/01/04 21:15:31  5-MIN KMSN 020315Z 04012KT 6SM -RA BR FEW009 SCT013 OVC033 07/05 A3000 790 89 0 040/12 RMK AO2 DZE08RAB08 P0000
14837KMSN MSN20041101212012311/01/04 21:20:31  5-MIN KMSN 020320Z 04012KT 6SM -RA BR SCT012 OVC033 07/05 A3000 790 89 0 040/12 RMK AO2 DZE08RAB08 P0000
14837KMSN MSN20041101212512311/01/04 21:25:31  5-MIN KMSN 020325Z 03011KT 6SM -RA BR SCT012 OVC033 07/05 A3000 790 89 0 030/11 RMK AO2 DZE08RAB08 P0000
14837KMSN MSN20041101213012311/01/04 21:30:31  5-MIN KMSN 020330Z 03013KT 6SM -RA BR FEW012 OVC033 07/05 A2999 800 89 0 030/13 RMK AO2 DZE08RAB08 P0000
14837KMSN MSN20041101213512311/01/04 21:35:31  5-MIN KMSN 020335Z 03012KT 6SM -RA BR FEW010 OVC035 07/05 A3000 800 89 0 030/12 RMK AO2 DZE08RAB08 P0000
14837KMSN MSN20041101214012311/01/04 21:40:31  5-MIN KMSN 020340Z 03012KT 6SM -RA BR FEW010 OVC035 07/05 A2999 800 89 0 030/12 RMK AO2 DZE08RAB08 P0000
14837KMSN MSN20041101214512311/01/04 21:45:31  5-MIN KMSN 020345Z 03012KT 6SM -RA BR FEW010 OVC035 07/05 A3000 800 89 0 030/12 RMK AO2 DZE08RAB08 P0000
14837KMSN MSN20041101215013711/01/04 21:50:31  5-MIN KMSN 020350Z 03012KT 7SM -RA FEW010 OVC037 07/05 A2999 800 89 0 030/12 RMK AO2 DZE08RAB08 SLP160 P0000 T00670050
14837KMSN MSN20041101215510911/01/04 21:55:31  5-MIN KMSN 020355Z 02011KT 7SM -RA SCT010 OVC037 07/05 A2999 800 89 0 020/11 RMK AO2 P0000
14837KMSN MSN20041101220011211/01/04 22:00:31  5-MIN KMSN 020400Z 02010KT 6SM -RA BR SCT012 OVC037 07/05 A2999 800 89 0 020/10 RMK AO2 P0000
14837KMSN MSN20041101220511911/01/04 22:05:31  5-MIN KMSN 020405Z 01010KT 4SM -RA BR SCT010 BKN014 OVC037 07/05 A2999 800 89 0 010/10 RMK AO2 P0000
14837KMSN MSN20041101221011911/01/04 22:10:31  5-MIN KMSN 020410Z 02011KT 4SM -RA BR FEW010 BKN014 OVC037 07/05 A2999 800 89 0 020/11 RMK AO2 P0001
14837KMSN MSN20041101221511911/01/04 22:15:31  5-MIN KMSN 020415Z 02011KT 4SM -RA BR SCT010 BKN014 OVC037 07/05 A2999 800 89 0 020/11 RMK AO2 P0001
14837KMSN MSN20041101222011211/01/04 22:20:31  5-MIN KMSN 020420Z 02011KT 4SM -RA BR BKN012 OVC018 06/05 A2999 800 93 0 020/11 RMK AO2 P0001
14837KMSN MSN20041101222511211/01/04 22:25:31  5-MIN KMSN 020425Z 02011KT 4SM -RA BR BKN012 OVC018 06/05 A2998 810 93 0 020/11 RMK AO2 P0001
14837KMSN MSN20041101223011911/01/04 22:30:31  5-MIN KMSN 020430Z 02010KT 4SM -RA BR FEW008 BKN012 OVC018 06/05 A2998 810 93 0 020/10 RMK AO2 P0002
14837KMSN MSN20041101223512411/01/04 22:35:31  5-MIN KMSN 020435Z 02010KT 4SM -RA BR BKN010 OVC015 06/05 A2998 810 93 0 020/10 RMK AO2 CIG 007V013 P0002
14837KMSN MSN20041101224012411/01/04 22:40:31  5-MIN KMSN 020440Z 02010KT 4SM -RA BR BKN010 OVC015 06/05 A2998 810 93 0 020/10 RMK AO2 CIG 007V014 P0002
14837KMSN MSN20041101224512411/01/04 22:45:31  5-MIN KMSN 020445Z 02009KT 4SM -RA BR BKN008 OVC015 06/05 A2998 810 93 0 020/09 RMK AO2 CIG 007V012 P0002
14837KMSN MSN20041101225014111/01/04 22:50:31  5-MIN KMSN 020450Z 01010KT 4SM -RA BR BKN010 OVC014 07/05 A2998 810 89 0 010/10 RMK AO2 CIG 006V011 SLP157 P0002 T00670050
14837KMSN MSN20041101225512411/01/04 22:55:31  5-MIN KMSN 020455Z 01010KT 4SM -RA BR BKN010 OVC014 07/06 A2998 810 93 0 010/10 RMK AO2 CIG 006V011 P0000
14837KMSN MSN20041101230012411/01/04 23:00:31  5-MIN KMSN 020500Z 36007KT 4SM -RA BR BKN010 OVC014 07/06 A2999 800 93 0 360/07 RMK AO2 CIG 006V011 P0000
14837KMSN MSN20041101230512411/01/04 23:05:31  5-MIN KMSN 020505Z 36009KT 4SM -RA BR BKN010 OVC013 07/06 A2999 800 93 0 360/09 RMK AO2 CIG 006V011 P0000
14837KMSN MSN20041101231010511/01/04 23:10:31  5-MIN KMSN 020510Z 36010KT 4SM -RA BR OVC010 07/06 A2999 800 93 0 360/10 RMK AO2 P0001
14837KMSN MSN20041101231510511/01/04 23:15:31  5-MIN KMSN 020515Z 36009KT 4SM -RA BR OVC010 07/06 A3000 790 93 0 360/09 RMK AO2 P0001
14837KMSN MSN20041101232010511/01/04 23:20:31  5-MIN KMSN 020520Z 35008KT 4SM -RA BR OVC012 07/06 A3000 790 93 0 350/08 RMK AO2 P0001
14837KMSN MSN20041101232510511/01/04 23:25:31  5-MIN KMSN 020525Z 36008KT 4SM -RA BR OVC009 07/06 A3001 790 93 0 360/08 RMK AO2 P0001
14837KMSN MSN20041101233010511/01/04 23:30:31  5-MIN KMSN 020530Z 01010KT 3SM -RA BR OVC009 07/06 A3000 790 93 0 010/10 RMK AO2 P0001
14837KMSN MSN20041101233511211/01/04 23:35:31  5-MIN KMSN 020535Z 01008KT 3SM -RA BR BKN009 OVC014 07/06 A3000 790 93 0 010/08 RMK AO2 P0001
14837KMSN MSN20041101234012411/01/04 23:40:31  5-MIN KMSN 020540Z 01010KT 3SM -RA BR BKN009 OVC014 07/06 A3000 790 93 0 010/10 RMK AO2 CIG 006V013 P0001
14837KMSN MSN20041101234511711/01/04 23:45:31  5-MIN KMSN 020545Z 36008KT 3SM -RA BR OVC014 07/06 A3001 780 93 0 360/08 RMK AO2 CIG 006V018 P0002
14837KMSN MSN20041101235016311/01/04 23:50:31  5-MIN KMSN 020550Z 01011KT 4SM -RA BR BKN012 OVC017 07/06 A3001 780 93 0 360/11 RMK AO2 SLP168 P0002 60007 T00670056 10067 20061 400830044 58007
14837KMSN MSN20041101235511211/01/04 23:55:31  5-MIN KMSN 020555Z 36011KT 3SM -RA BR FEW010 OVC017 07/06 A3001 780 93 0 360/11 RMK AO2 P0000
14837KMSN MSN20041102000011211/02/04 00:00:31  5-MIN KMSN 020600Z 36010KT 3SM -RA BR FEW010 OVC017 07/06 A3002 780 93 0 360/10 RMK AO2 P0000
14837KMSN MSN20041102000511211/02/04 00:05:31  5-MIN KMSN 020605Z 36011KT 3SM -RA BR BKN017 OVC022 07/06 A3002 770 93 0 360/11 RMK AO2 P0000
14837KMSN MSN20041102001011211/02/04 00:10:31  5-MIN KMSN 020610Z 01012KT 4SM -RA BR SCT017 OVC022 07/05 A3001 780 89 0 010/12 RMK AO2 P0001
14837KMSN MSN20041102001511211/02/04 00:15:31  5-MIN KMSN 020615Z 02012KT 3SM -RA BR BKN020 OVC024 07/05 A3002 780 89 0 020/12 RMK AO2 P0001
14837KMSN MSN20041102002011911/02/04 00:20:31  5-MIN KMSN 020620Z 01010KT 3SM -RA BR SCT020 BKN026 OVC033 07/06 A3002 770 93 0 010/10 RMK AO2 P0002
14837KMSN MSN20041102002511111/02/04 00:25:31  5-MIN KMSN 020625Z 01010KT 3SM RA BR BKN023 OVC033 07/06 A3002 770 93 0 010/10 RMK AO2 P0002
14837KMSN MSN20041102003011911/02/04 00:30:31  5-MIN KMSN 020630Z 36009KT 3SM -RA BR FEW006 BKN025 OVC033 07/06 A3001 780 93 0 360/09 RMK AO2 P0002
14837KMSN MSN20041102003511911/02/04 00:35:31  5-MIN KMSN 020635Z 35007KT 4SM -RA BR FEW006 BKN025 OVC033 07/06 A3002 770 93 0 350/07 RMK AO2 P0003
14837KMSN MSN20041102004011911/02/04 00:40:31  5-MIN KMSN 020640Z 35008KT 5SM -RA BR SCT006 BKN027 OVC035 07/06 A3002 780 93 0 350/08 RMK AO2 P0003
14837KMSN MSN20041102004512111/02/04 00:45:31  5-MIN KMSN 020645Z 35008KT 6SM BR SCT006 SCT012 OVC035 07/06 A3002 780 93 0 350/08 RMK AO2 RAE45 P0003
14837KMSN MSN20041102005014711/02/04 00:50:31  5-MIN KMSN 020650Z 35008KT 6SM -DZ BR FEW006 SCT010 OVC035 07/06 A3002 770 93 0 350/08 RMK AO2 RAE49DZB49 SLP169 P0003 T00670056
14837KMSN MSN20041102005511911/02/04 00:55:31  5-MIN KMSN 020655Z 35008KT 6SM -DZ BR SCT006 BKN010 OVC035 07/06 A3002 780 93 0 350/08 RMK AO2 P0000
14837KMSN MSN20041102010013511/02/04 01:00:31  5-MIN KMSN 020700Z 35007KT 6SM -RA BR BKN008 OVC035 07/06 A3001 780 93 0 350/07 RMK AO2 DZE00RAB00 CIG 005V012 P0000
14837KMSN MSN20041102010513011/02/04 01:05:31  5-MIN KMSN 020705Z 34007KT 6SM -RA BR SCT008 BKN021 OVC037 07/06 A3001 780 93 0 340/07 RMK AO2 DZE00RAB00 P0000
14837KMSN MSN20041102011012711/02/04 01:10:31  5-MIN KMSN 020710Z 35007KT 7SM -RA SCT006 BKN014 OVC037 07/06 A3002 770 93 0 350/07 RMK AO2 DZE00RAB00 P0000
14837KMSN MSN20041102011512711/02/04 01:15:31  5-MIN KMSN 020715Z 35007KT 7SM -RA SCT006 BKN012 OVC037 07/06 A3002 770 93 0 350/07 RMK AO2 DZE00RAB00 P0000
14837KMSN MSN20041102012013811/02/04 01:20:31  5-MIN KMSN 020720Z 35009KT 7SM SCT006 BKN010 OVC037 07/06 A3001 780 93 0 350/09 RMK AO2 DZE00RAB00E19 CIG 008V012 P0000
14837KMSN MSN20041102012513311/02/04 01:25:31  5-MIN KMSN 020725Z 36012KT 7SM -DZ BKN006 BKN010 OVC037 07/06 A3001 780 93 0 360/12 RMK AO2 DZE00B22RAB00E19 P0000
14837KMSN MSN20041102013013311/02/04 01:30:31  5-MIN KMSN 020730Z 36011KT 8SM -DZ FEW006 BKN011 OVC037 07/06 A3001 780 93 0 360/11 RMK AO2 DZE00B22RAB00E19 P0000
14837KMSN MSN20041102013513311/02/04 01:35:31  5-MIN KMSN 020735Z 36012KT 9SM -DZ SCT006 BKN011 OVC037 07/06 A3001 780 93 0 360/12 RMK AO2 DZE00B22RAB00E19 P0000
14837KMSN MSN20041102014013311/02/04 01:40:31  5-MIN KMSN 020740Z 36011KT 8SM -DZ SCT008 BKN015 OVC037 07/06 A3001 780 93 0 360/11 RMK AO2 DZE00B22RAB00E19 P0000
14837KMSN MSN20041102014513311/02/04 01:45:31  5-MIN KMSN 020745Z 35010KT 7SM -DZ FEW008 BKN013 OVC037 07/06 A3002 770 93 0 350/10 RMK AO2 DZE00B22RAB00E19 P0000
14837KMSN MSN20041102015015011/02/04 01:50:31  5-MIN KMSN 020750Z 36012KT 7SM -DZ SCT009 BKN013 OVC037 07/06 A3002 770 93 0 360/12 RMK AO2 DZE00B22RAB00E19 SLP170 P0000 T00670056
14837KMSN MSN20041102015511611/02/04 01:55:31  5-MIN KMSN 020755Z 35008KT 7SM -DZ SCT009 BKN013 OVC037 07/06 A3002 770 93 0 350/08 RMK AO2 P0000
14837KMSN MSN20041102020013111/02/04 02:00:31  5-MIN KMSN 020800Z 35007KT 6SM -DZ BR BKN009 BKN013 OVC019 07/06 A3002 770 93 0 350/07 RMK AO2 CIG 006V011 P0000
14837KMSN MSN20041102020513011/02/04 02:05:31  5-MIN KMSN 020805Z 35009G14KT 5SM -DZ BR BKN009 OVC013 07/06 A3002 770 93 0 350/09G14 RMK AO2 CIG 006V010 P0000
14837KMSN MSN20041102021012411/02/04 02:10:31  5-MIN KMSN 020810Z 36011KT 5SM -DZ BR BKN007 OVC013 06/05 A3002 780 93 0 360/11 RMK AO2 CIG 005V011 P0000
14837KMSN MSN20041102021512411/02/04 02:15:31  5-MIN KMSN 020815Z 35010KT 5SM -DZ BR BKN009 OVC013 06/05 A3002 770 93 0 350/10 RMK AO2 CIG 005V012 P0000
14837KMSN MSN20041102022012411/02/04 02:20:31  5-MIN KMSN 020820Z 35008KT 5SM -DZ BR BKN009 OVC013 06/05 A3002 780 93 0 350/08 RMK AO2 CIG 005V011 P0000
14837KMSN MSN20041102022512411/02/04 02:25:31  5-MIN KMSN 020825Z 35010KT 6SM -DZ BR BKN009 OVC013 06/05 A3001 780 93 0 350/10 RMK AO2 CIG 005V011 P0000
14837KMSN MSN20041102023012111/02/04 02:30:31  5-MIN KMSN 020830Z 35010KT 7SM -DZ BKN009 OVC015 06/05 A3002 780 93 0 350/10 RMK AO2 CIG 005V012 P0000
14837KMSN MSN20041102023511411/02/04 02:35:31  5-MIN KMSN 020835Z 35011KT 7SM -DZ OVC009 06/05 A3001 780 93 0 350/11 RMK AO2 CIG 005V013 P0000
14837KMSN MSN20041102024012111/02/04 02:40:31  5-MIN KMSN 020840Z 36013KT 7SM -DZ BKN009 OVC014 06/05 A3002 780 93 0 360/13 RMK AO2 CIG 006V011 P0000
14837KMSN MSN20041102024510511/02/04 02:45:31  5-MIN KMSN 020845Z 36014KT 6SM -DZ BR OVC011 06/05 A3002 770 93 0 360/14 RMK AO2 P0000
14837KMSN MSN20041102025013411/02/04 02:50:31  5-MIN KMSN 020850Z 36011KT 6SM -DZ BR OVC011 06/05 A3002 770 93 0 350/11 RMK AO2 SLP171 P0000 60003 T00610050 53001
14837KMSN MSN20041102025510511/02/04 02:55:31  5-MIN KMSN 020855Z 36013KT 6SM -DZ BR OVC011 06/05 A3003 770 93 0 360/13 RMK AO2 P0000
14837KMSN MSN20041102030010211/02/04 03:00:31  5-MIN KMSN 020900Z 36014KT 7SM -DZ OVC011 06/05 A3003 770 93 0 360/14 RMK AO2 P0000
14837KMSN MSN20041102030511411/02/04 03:05:31  5-MIN KMSN 020905Z 35011KT 7SM -DZ OVC011 06/05 A3003 770 93 0 350/11 RMK AO2 CIG 007V015 P0000
14837KMSN MSN20041102031011411/02/04 03:10:31  5-MIN KMSN 020910Z 36013KT 7SM -DZ OVC011 06/05 A3003 770 93 0 360/13 RMK AO2 CIG 008V015 P0000
14837KMSN MSN20041102031512011/02/04 03:15:31  5-MIN KMSN 020915Z 36012G17KT 7SM -DZ OVC011 06/05 A3003 770 93 0 360/12G17 RMK AO2 CIG 008V015 P0000
14837KMSN MSN20041102032011711/02/04 03:20:31  5-MIN KMSN 020920Z 36013KT 6SM -DZ BR OVC011 06/04 A3003 760 89 0 360/13 RMK AO2 CIG 008V015 P0000
14837KMSN MSN20041102032511711/02/04 03:25:31  5-MIN KMSN 020925Z 36011KT 6SM -DZ BR OVC009 06/04 A3003 760 89 0 360/11 RMK AO2 CIG 008V015 P0000
14837KMSN MSN20041102033012511/02/04 03:30:31  5-MIN KMSN 020930Z 36013KT 7SM -RA OVC011 06/04 A3003 760 89 0 360/13 RMK AO2 DZE28RAB28 CIG 008V015 P0000
14837KMSN MSN20041102033511311/02/04 03:35:31  5-MIN KMSN 020935Z 36013KT 7SM -RA OVC011 06/04 A3003 760 89 0 360/13 RMK AO2 DZE28RAB28 P0000
14837KMSN MSN20041102034011311/02/04 03:40:31  5-MIN KMSN 020940Z 36011KT 7SM -RA OVC011 06/04 A3003 760 89 0 360/11 RMK AO2 DZE28RAB28 P0000
14837KMSN MSN20041102034511311/02/04 03:45:31  5-MIN KMSN 020945Z 36012KT 8SM -RA OVC011 06/04 A3004 760 89 0 360/12 RMK AO2 DZE28RAB28 P0000
14837KMSN MSN20041102035013511/02/04 03:50:31  5-MIN KMSN 020950Z 36014G18KT 8SM OVC011 06/04 A3004 760 89 0 360/14G18 RMK AO2 DZE28RAB28E48 SLP177 P0000 T00610044
14837KMSN MSN20041102035510111/02/04 03:55:31  5-MIN KMSN 020955Z 36012G18KT 8SM OVC011 06/04 A3004 760 92 -100 360/12G18 RMK AO2
14837KMSN MSN20041102040010211/02/04 04:00:31  5-MIN KMSN 021000Z 36013KT 9SM BKN013 OVC025 06/04 A3005 750 92 -100 360/13 RMK AO2
14837KMSN MSN20041102040510311/02/04 04:05:31  5-MIN KMSN 021005Z 36014KT 10SM BKN013 OVC025 06/04 A3005 750 92 -100 360/14 RMK AO2
14837KMSN MSN20041102041011011/02/04 04:10:31  5-MIN KMSN 021010Z 36013KT 10SM BKN013 BKN025 OVC034 06/04 A3005 750 92 -100 360/13 RMK AO2
14837KMSN MSN20041102041511611/02/04 04:15:31  5-MIN KMSN 021015Z 36013G18KT 10SM BKN013 BKN025 OVC034 06/04 A3005 740 92 -100 350/13G18 RMK AO2
14837KMSN MSN20041102042011611/02/04 04:20:31  5-MIN KMSN 021020Z 36012G18KT 10SM SCT013 SCT025 OVC034 06/04 A3005 740 92 -100 360/12G18 RMK AO2
14837KMSN MSN20041102042511011/02/04 04:25:31  5-MIN KMSN 021025Z 36012KT 10SM FEW013 SCT025 OVC034 06/04 A3006 740 89 -100 360/12 RMK AO2
14837KMSN MSN20041102043010311/02/04 04:30:31  5-MIN KMSN 021030Z 36012KT 10SM FEW013 OVC036 06/04 A3006 740 89 -100 360/12 RMK AO2
14837KMSN MSN20041102043510311/02/04 04:35:31  5-MIN KMSN 021035Z 36010KT 10SM FEW013 OVC036 06/04 A3006 740 89 -100 360/10 RMK AO2
14837KMSN MSN20041102044009611/02/04 04:40:31  5-MIN KMSN 021040Z 36012KT 10SM OVC036 06/04 A3006 730 89 -100 360/12 RMK AO2
14837KMSN MSN20041102044509611/02/04 04:45:31  5-MIN KMSN 021045Z 36012KT 10SM OVC038 06/04 A3006 740 89 -100 360/12 RMK AO2
14837KMSN MSN20041102045011311/02/04 04:50:31  5-MIN KMSN 021050Z 36011KT 10SM OVC038 06/04 A3006 730 89 -100 360/11 RMK AO2 SLP186 T00560039
14837KMSN MSN20041102045511011/02/04 04:55:31  5-MIN KMSN 021055Z 34008KT 10SM BKN038 BKN050 OVC075 06/04 A3006 730 89 -100 340/08 RMK AO2
14837KMSN MSN20041102050011011/02/04 05:00:31  5-MIN KMSN 021100Z 35009KT 10SM FEW012 BKN038 OVC075 06/04 A3006 740 89 -100 350/09 RMK AO2
14837KMSN MSN20041102050511011/02/04 05:05:31  5-MIN KMSN 021105Z 36012KT 10SM FEW012 BKN040 OVC075 06/04 A3006 740 89 -100 360/12 RMK AO2
14837KMSN MSN20041102051011011/02/04 05:10:31  5-MIN KMSN 021110Z 36010KT 10SM FEW012 SCT040 OVC075 05/04 A3005 740 92 -200 360/10 RMK AO2
14837KMSN MSN20041102051511011/02/04 05:15:31  5-MIN KMSN 021115Z 36010KT 10SM FEW012 SCT040 OVC075 05/04 A3006 740 92 -200 360/10 RMK AO2
14837KMSN MSN20041102052010311/02/04 05:20:31  5-MIN KMSN 021120Z 35009KT 10SM FEW012 OVC075 05/04 A3006 740 92 -200 350/09 RMK AO2
14837KMSN MSN20041102052510311/02/04 05:25:31  5-MIN KMSN 021125Z 35009KT 10SM FEW012 OVC075 05/04 A3006 740 92 -200 350/09 RMK AO2
14837KMSN MSN20041102053010311/02/04 05:30:31  5-MIN KMSN 021130Z 35009KT 10SM FEW012 OVC075 05/04 A3005 740 92 -200 350/09 RMK AO2
14837KMSN MSN20041102053510311/02/04 05:35:31  5-MIN KMSN 021135Z 35009KT 10SM FEW012 OVC075 05/04 A3005 740 92 -200 350/09 RMK AO2
14837KMSN MSN20041102054010311/02/04 05:40:31  5-MIN KMSN 021140Z 36010KT 10SM SCT012 OVC075 05/04 A3005 740 92 -200 360/10 RMK AO2
14837KMSN MSN20041102054511011/02/04 05:45:31  5-MIN KMSN 021145Z 36011KT 10SM BKN012 BKN043 OVC075 05/04 A3005 740 92 -200 360/11 RMK AO2
14837KMSN MSN20041102055015011/02/04 05:50:31  5-MIN KMSN 021150Z 35010KT 10SM BKN012 OVC075 05/04 A3006 740 92 -200 350/10 RMK AO2 SLP183 60003 70033 T00500039 10067 20050 51005
14837KMSN MSN20041102055511511/02/04 05:55:31  5-MIN KMSN 021155Z 36011KT 10SM BKN010 OVC080 05/04 A3005 740 92 -200 350/11 RMK AO2 CIG 008V013
14837KMSN MSN20041102060010811/02/04 06:00:31  5-MIN KMSN 021200Z 35010KT 10SM OVC010 05/04 A3005 740 92 -200 350/10 RMK AO2 CIG 008V013
14837KMSN MSN20041102060509611/02/04 06:05:31  5-MIN KMSN 021205Z 35010KT 10SM OVC010 05/04 A3006 740 92 -200 350/10 RMK AO2
14837KMSN MSN20041102061009611/02/04 06:10:31  5-MIN KMSN 021210Z 35009KT 10SM OVC010 05/04 A3006 740 92 -200 350/09 RMK AO2
14837KMSN MSN20041102061509611/02/04 06:15:31  5-MIN KMSN 021215Z 36010KT 10SM OVC010 05/04 A3006 740 92 -200 360/10 RMK AO2
14837KMSN MSN20041102062010811/02/04 06:20:31  5-MIN KMSN 021220Z 36007KT 10SM OVC010 05/04 A3006 740 92 -200 350/07 RMK AO2 CIG 008V012
14837KMSN MSN20041102062509611/02/04 06:25:31  5-MIN KMSN 021225Z VRB06KT 10SM OVC010 05/04 A3006 730 92 -200 VRB/06 RMK AO2
14837KMSN MSN20041102063010811/02/04 06:30:31  5-MIN KMSN 021230Z VRB05KT 10SM OVC010 05/04 A3006 730 92 -200 VRB/05 RMK AO2 CIG 008V013
14837KMSN MSN20041102063512411/02/04 06:35:31  5-MIN KMSN 021235Z 05008KT 340V100 10SM OVC010 05/04 A3006 730 92 -200 040/08 340V100 RMK AO2 CIG 008V012
14837KMSN MSN20041102064012411/02/04 06:40:31  5-MIN KMSN 021240Z 04007KT 330V240 10SM OVC010 05/04 A3006 730 92 -200 040/07 330V240 RMK AO2 CIG 008V012
14837KMSN MSN20041102064510811/02/04 06:45:31  5-MIN KMSN 021245Z 35010KT 10SM OVC010 05/03 A3007 730 89 -200 340/10 RMK AO2 CIG 008V015
14837KMSN MSN20041102065012511/02/04 06:50:31  5-MIN KMSN 021250Z 36009KT 10SM OVC010 05/03 A3006 730 89 -200 360/09 RMK AO2 CIG 008V015 SLP186 T00500033
14837KMSN MSN20041102065510811/02/04 06:55:31  5-MIN KMSN 021255Z 35008KT 10SM OVC010 05/03 A3007 730 89 -200 350/08 RMK AO2 CIG 008V015
14837KMSN MSN20041102070010811/02/04 07:00:31  5-MIN KMSN 021300Z 34008KT 10SM OVC010 05/03 A3008 720 89 -200 340/08 RMK AO2 CIG 008V012
14837KMSN MSN20041102070510811/02/04 07:05:31  5-MIN KMSN 021305Z 34008KT 10SM OVC010 05/03 A3008 710 89 -200 340/08 RMK AO2 CIG 008V013
14837KMSN MSN20041102071010811/02/04 07:10:31  5-MIN KMSN 021310Z 34007KT 10SM OVC010 05/03 A3009 710 89 -200 340/07 RMK AO2 CIG 008V013
14837KMSN MSN20041102071510811/02/04 07:15:31  5-MIN KMSN 021315Z 33007KT 10SM OVC010 05/03 A3009 710 89 -200 330/07 RMK AO2 CIG 008V012
14837KMSN MSN20041102072010811/02/04 07:20:31  5-MIN KMSN 021320Z 33008KT 10SM OVC010 05/03 A3009 710 89 -200 330/08 RMK AO2 CIG 008V012
14837KMSN MSN20041102072509611/02/04 07:25:31  5-MIN KMSN 021325Z 34007KT 10SM OVC010 05/03 A3009 710 89 -200 340/07 RMK AO2
14837KMSN MSN20041102073010811/02/04 07:30:31  5-MIN KMSN 021330Z 34007KT 10SM OVC010 05/03 A3008 710 89 -200 340/07 RMK AO2 CIG 008V013
14837KMSN MSN20041102073510811/02/04 07:35:31  5-MIN KMSN 021335Z 34007KT 10SM OVC010 05/03 A3009 710 89 -200 340/07 RMK AO2 CIG 008V013
14837KMSN MSN20041102074009611/02/04 07:40:31  5-MIN KMSN 021340Z 33008KT 10SM OVC010 05/03 A3009 710 89 -200 330/08 RMK AO2
14837KMSN MSN20041102074509611/02/04 07:45:31  5-MIN KMSN 021345Z 33007KT 10SM OVC010 05/03 A3010 700 89 -200 330/07 RMK AO2
14837KMSN MSN20041102075011311/02/04 07:50:31  5-MIN KMSN 021350Z 33009KT 10SM OVC010 05/03 A3010 700 89 -300 330/09 RMK AO2 SLP199 T00500033
14837KMSN MSN20041102075509611/02/04 07:55:31  5-MIN KMSN 021355Z 34008KT 10SM OVC010 05/03 A3010 700 89 -300 340/08 RMK AO2
14837KMSN MSN20041102080009611/02/04 08:00:31  5-MIN KMSN 021400Z 34007KT 10SM OVC010 05/03 A3011 690 89 -300 340/07 RMK AO2
14837KMSN MSN20041102080509611/02/04 08:05:31  5-MIN KMSN 021405Z 33009KT 10SM OVC010 05/03 A3011 690 89 -300 330/09 RMK AO2
14837KMSN MSN20041102081009611/02/04 08:10:31  5-MIN KMSN 021410Z 35009KT 10SM OVC010 05/03 A3011 690 89 -300 340/09 RMK AO2
14837KMSN MSN20041102081509611/02/04 08:15:31  5-MIN KMSN 021415Z 34008KT 10SM OVC010 05/03 A3011 690 89 -300 340/08 RMK AO2
14837KMSN MSN20041102082009611/02/04 08:20:31  5-MIN KMSN 021420Z 33007KT 10SM OVC010 05/03 A3012 680 89 -300 330/07 RMK AO2
14837KMSN MSN20041102082509611/02/04 08:25:31  5-MIN KMSN 021425Z 34008KT 10SM OVC010 05/03 A3012 680 89 -300 330/08 RMK AO2
14837KMSN MSN20041102083009611/02/04 08:30:31  5-MIN KMSN 021430Z 33009KT 10SM OVC010 05/03 A3012 680 89 -300 330/09 RMK AO2
14837KMSN MSN20041102083509611/02/04 08:35:31  5-MIN KMSN 021435Z 34005KT 10SM OVC010 05/03 A3012 680 89 -300 340/05 RMK AO2
14837KMSN MSN20041102084010211/02/04 08:40:31  5-MIN KMSN 021440Z 34008G14KT 10SM OVC010 05/03 A3012 680 85 -300 330/08G14 RMK AO2
14837KMSN MSN20041102084510211/02/04 08:45:31  5-MIN KMSN 021445Z 35010G14KT 10SM OVC010 05/03 A3013 670 85 -300 350/10G14 RMK AO2
14837KMSN MSN20041102085011911/02/04 08:50:31  5-MIN KMSN 021450Z 35009KT 10SM OVC010 05/03 A3013 670 85 -300 350/09 RMK AO2 SLP208 T00500028 50010
14837KMSN MSN20041102085510811/02/04 08:55:31  5-MIN KMSN 021455Z 35008KT 10SM OVC010 05/03 A3013 670 85 -300 350/08 RMK AO2 CIG 009V014
14837KMSN MSN20041102090010811/02/04 09:00:31  5-MIN KMSN 021500Z 34008KT 10SM OVC010 06/03 A3013 670 85 -200 340/08 RMK AO2 CIG 009V014
14837KMSN MSN20041102090509611/02/04 09:05:31  5-MIN KMSN 021505Z 35007KT 10SM OVC012 06/03 A3014 670 82 -200 350/07 RMK AO2
14837KMSN MSN20041102091009611/02/04 09:10:31  5-MIN KMSN 021510Z 36010KT 10SM BKN012 06/03 A3014 660 85 -200 360/10 RMK AO2
14837KMSN MSN20041102091509611/02/04 09:15:31  5-MIN KMSN 021515Z 36011KT 10SM BKN012 06/03 A3014 660 82 -200 360/11 RMK AO2
14837KMSN MSN20041102092009611/02/04 09:20:31  5-MIN KMSN 021520Z 36010KT 10SM BKN012 06/03 A3014 660 82 -200 360/10 RMK AO2
14837KMSN MSN20041102092509611/02/04 09:25:31  5-MIN KMSN 021525Z 35008KT 10SM BKN012 06/03 A3014 660 82 -200 350/08 RMK AO2
14837KMSN MSN20041102093009611/02/04 09:30:31  5-MIN KMSN 021530Z 36010KT 10SM BKN016 06/03 A3014 660 82 -200 360/10 RMK AO2
14837KMSN MSN20041102093509611/02/04 09:35:31  5-MIN KMSN 021535Z 35009KT 10SM BKN016 07/03 A3014 660 79 -100 350/09 RMK AO2
14837KMSN MSN20041102094009611/02/04 09:40:31  5-MIN KMSN 021540Z 35008KT 10SM BKN016 07/04 A3014 660 82 -100 350/08 RMK AO2
14837KMSN MSN20041102094509611/02/04 09:45:31  5-MIN KMSN 021545Z 36008KT 10SM OVC016 06/03 A3014 670 82 -200 360/08 RMK AO2
14837KMSN MSN20041102095012011/02/04 09:50:31  5-MIN KMSN 021550Z 36007KT 10SM BKN016 OVC022 07/04 A3014 670 82 -100 360/07 RMK AO2 SLP211 T00670039
14837KMSN MSN20041102095510311/02/04 09:55:31  5-MIN KMSN 021555Z 35009KT 10SM BKN016 OVC022 07/03 A3013 670 79 -100 350/09 RMK AO2
14837KMSN MSN20041102100010311/02/04 10:00:31  5-MIN KMSN 021600Z 34007KT 10SM SCT016 OVC022 07/03 A3013 670 79 -100 340/07 RMK AO2
14837KMSN MSN20041102100510011/02/04 10:05:31  5-MIN KMSN 021605Z 35009KT 10SM SCT016 OVC022 07/04 A3013 670 79 0 350/09 RMK AO2
14837KMSN MSN20041102101010011/02/04 10:10:31  5-MIN KMSN 021610Z 35009KT 10SM SCT016 OVC022 07/04 A3013 670 79 0 350/09 RMK AO2
14837KMSN MSN20041102101510011/02/04 10:15:31  5-MIN KMSN 021615Z 36010KT 10SM SCT016 OVC022 07/03 A3013 670 76 0 360/10 RMK AO2
14837KMSN MSN20041102102009311/02/04 10:20:31  5-MIN KMSN 021620Z 35008KT 10SM OVC020 07/04 A3013 670 79 0 350/08 RMK AO2
14837KMSN MSN20041102102510011/02/04 10:25:31  5-MIN KMSN 021625Z 35009KT 10SM BKN018 OVC023 07/04 A3013 670 79 0 350/09 RMK AO2
14837KMSN MSN20041102103009311/02/04 10:30:31  5-MIN KMSN 021630Z 35010KT 10SM OVC020 07/03 A3012 680 76 0 350/10 RMK AO2
14837KMSN MSN20041102103509311/02/04 10:35:31  5-MIN KMSN 021635Z 34007KT 10SM OVC020 07/03 A3012 680 76 0 340/07 RMK AO2
14837KMSN MSN20041102104009311/02/04 10:40:31  5-MIN KMSN 021640Z 34009KT 10SM OVC020 07/03 A3013 670 76 0 340/09 RMK AO2
14837KMSN MSN20041102104509311/02/04 10:45:31  5-MIN KMSN 021645Z 33008KT 10SM OVC020 07/03 A3013 670 76 0 330/08 RMK AO2
14837KMSN MSN20041102105011311/02/04 10:50:31  5-MIN KMSN 021650Z 32010KT 10SM OVC020 07/03 A3013 670 76 -100 320/10 RMK AO2 SLP208 T00670028
14837KMSN MSN20041102105509611/02/04 10:55:31  5-MIN KMSN 021655Z 33009KT 10SM OVC020 07/03 A3013 670 76 -100 330/09 RMK AO2
14837KMSN MSN20041102110009611/02/04 11:00:31  5-MIN KMSN 021700Z 34008KT 10SM OVC020 07/03 A3013 670 76 -100 340/08 RMK AO2
14837KMSN MSN20041102110509611/02/04 11:05:31  5-MIN KMSN 021705Z 34008KT 10SM OVC020 07/03 A3013 670 76 -100 340/08 RMK AO2
14837KMSN MSN20041102111009311/02/04 11:10:31  5-MIN KMSN 021710Z 34008KT 10SM OVC020 07/03 A3013 670 73 0 340/08 RMK AO2
14837KMSN MSN20041102111509311/02/04 11:15:31  5-MIN KMSN 021715Z 35011KT 10SM OVC022 07/03 A3013 670 76 0 350/11 RMK AO2
14837KMSN MSN20041102112009311/02/04 11:20:31  5-MIN KMSN 021720Z 35009KT 10SM OVC022 08/03 A3014 670 73 0 350/09 RMK AO2
14837KMSN MSN20041102112509311/02/04 11:25:31  5-MIN KMSN 021725Z 35009KT 10SM OVC022 08/03 A3014 660 70 0 350/09 RMK AO2
14837KMSN MSN20041102113009311/02/04 11:30:31  5-MIN KMSN 021730Z 34010KT 10SM OVC022 08/03 A3014 660 70 0 340/10 RMK AO2
14837KMSN MSN20041102113509311/02/04 11:35:31  5-MIN KMSN 021735Z 35009KT 10SM OVC022 07/03 A3014 660 73 0 350/09 RMK AO2
14837KMSN MSN20041102114010011/02/04 11:40:31  5-MIN KMSN 021740Z 35008KT 10SM BKN020 OVC025 07/03 A3014 660 73 0 350/08 RMK AO2
14837KMSN MSN20041102114509311/02/04 11:45:31  5-MIN KMSN 021745Z 32006KT 10SM OVC020 07/03 A3014 660 73 0 320/06 RMK AO2
14837KMSN MSN20041102115012811/02/04 11:50:31  5-MIN KMSN 021750Z 32006KT 10SM OVC020 07/03 A3014 660 73 0 320/06 RMK AO2 SLP211 T00720028 10078 20050 53025
14837KMSN MSN20041102115509311/02/04 11:55:31  5-MIN KMSN 021755Z 32009KT 10SM OVC022 07/02 A3014 660 70 0 320/09 RMK AO2
14837KMSN MSN20041102120009311/02/04 12:00:31  5-MIN KMSN 021800Z 33007KT 10SM OVC022 07/02 A3014 660 70 0 330/07 RMK AO2
14837KMSN MSN20041102120509311/02/04 12:05:31  5-MIN KMSN 021805Z 35007KT 10SM OVC022 07/03 A3014 660 73 0 350/07 RMK AO2
14837KMSN MSN20041102121009311/02/04 12:10:31  5-MIN KMSN 021810Z 34007KT 10SM OVC022 07/03 A3015 660 73 0 330/07 RMK AO2
14837KMSN MSN20041102121509311/02/04 12:15:31  5-MIN KMSN 021815Z 33007KT 10SM OVC022 07/03 A3014 660 73 0 330/07 RMK AO2
14837KMSN MSN20041102122009311/02/04 12:20:31  5-MIN KMSN 021820Z 34007KT 10SM OVC022 07/03 A3015 650 73 0 340/07 RMK AO2
14837KMSN MSN20041102134509311/02/04 13:45:31  5-MIN KMSN 021945Z 33007KT 10SM OVC024 08/03 A3016 650 70 0 330/07 RMK AO2
14837KMSN MSN20041102135011011/02/04 13:50:31  5-MIN KMSN 021950Z 33007KT 10SM OVC024 08/03 A3016 640 70 0 330/07 RMK AO2 SLP218 T00780028
14837KMSN MSN20041102135509311/02/04 13:55:31  5-MIN KMSN 021955Z 31009KT 10SM OVC024 08/02 A3016 640 65 0 310/09 RMK AO2
14837KMSN MSN20041102140009311/02/04 14:00:31  5-MIN KMSN 022000Z 34010KT 10SM OVC024 08/02 A3016 640 65 0 340/10 RMK AO2
14837KMSN MSN20041102140509311/02/04 14:05:31  5-MIN KMSN 022005Z 34008KT 10SM OVC024 08/02 A3016 640 68 0 340/08 RMK AO2
14837KMSN MSN20041102141009311/02/04 14:10:31  5-MIN KMSN 022010Z 34011KT 10SM BKN024 08/02 A3016 640 63 0 340/11 RMK AO2
14837KMSN MSN20041102141509911/02/04 14:15:31  5-MIN KMSN 022015Z 33006G15KT 10SM BKN026 08/02 A3016 640 65 0 330/06G15 RMK AO2
14837KMSN MSN20041102142009311/02/04 14:20:31  5-MIN KMSN 022020Z 32009KT 10SM BKN026 08/02 A3016 640 65 0 320/09 RMK AO2
14837KMSN MSN20041102142509311/02/04 14:25:31  5-MIN KMSN 022025Z 34011KT 10SM BKN026 08/02 A3016 650 65 0 340/11 RMK AO2
14837KMSN MSN20041102143009311/02/04 14:30:31  5-MIN KMSN 022030Z 34010KT 10SM BKN026 08/02 A3016 640 65 0 340/10 RMK AO2
14837KMSN MSN20041102143509311/02/04 14:35:31  5-MIN KMSN 022035Z 34008KT 10SM BKN026 08/02 A3016 640 65 0 340/08 RMK AO2
14837KMSN MSN20041102144009311/02/04 14:40:31  5-MIN KMSN 022040Z 35009KT 10SM BKN030 08/02 A3016 640 63 0 350/09 RMK AO2
14837KMSN MSN20041102144509311/02/04 14:45:31  5-MIN KMSN 022045Z 33009KT 10SM OVC030 08/02 A3016 640 65 0 330/09 RMK AO2
14837KMSN MSN20041102145011611/02/04 14:50:31  5-MIN KMSN 022050Z 34007KT 10SM OVC030 08/02 A3016 640 65 0 340/07 RMK AO2 SLP220 T00830022 53003
14837KMSN MSN20041102145509311/02/04 14:55:31  5-MIN KMSN 022055Z 34006KT 10SM OVC030 08/02 A3017 640 65 0 340/06 RMK AO2
14837KMSN MSN20041102150009311/02/04 15:00:31  5-MIN KMSN 022100Z 35007KT 10SM OVC030 08/02 A3017 640 65 0 350/07 RMK AO2
14837KMSN MSN20041102150509311/02/04 15:05:31  5-MIN KMSN 022105Z 33005KT 10SM OVC032 08/02 A3017 630 65 0 330/05 RMK AO2
14837KMSN MSN20041102151009311/02/04 15:10:31  5-MIN KMSN 022110Z 00000KT 10SM OVC034 08/03 A3017 630 68 0 000/00 RMK AO2
14837KMSN MSN20041102151509511/02/04 15:15:31  5-MIN KMSN 022115Z 35004KT 10SM OVC034 09/03 A3017 630 65 100 340/04 RMK AO2
14837KMSN MSN20041102152009311/02/04 15:20:31  5-MIN KMSN 022120Z 34006KT 10SM OVC034 08/03 A3017 630 68 0 340/06 RMK AO2
14837KMSN MSN20041102152509311/02/04 15:25:31  5-MIN KMSN 022125Z 35004KT 10SM OVC034 08/03 A3017 630 68 0 350/04 RMK AO2
14837KMSN MSN20041102153009311/02/04 15:30:31  5-MIN KMSN 022130Z 33004KT 10SM OVC036 08/03 A3017 630 68 0 330/04 RMK AO2
14837KMSN MSN20041102153509311/02/04 15:35:31  5-MIN KMSN 022135Z 35004KT 10SM OVC036 08/03 A3017 630 68 0 350/04 RMK AO2
14837KMSN MSN20041102154009311/02/04 15:40:31  5-MIN KMSN 022140Z 34005KT 10SM OVC036 08/03 A3017 630 68 0 340/05 RMK AO2
14837KMSN MSN20041102154509311/02/04 15:45:31  5-MIN KMSN 022145Z 35005KT 10SM OVC036 08/03 A3017 630 68 0 350/05 RMK AO2
14837KMSN MSN20041102155011011/02/04 15:50:31  5-MIN KMSN 022150Z 36005KT 10SM OVC036 08/03 A3017 630 68 0 360/05 RMK AO2 SLP223 T00830028
14837KMSN MSN20041102155509311/02/04 15:55:31  5-MIN KMSN 022155Z 35005KT 10SM OVC038 08/03 A3018 630 68 0 350/05 RMK AO2
14837KMSN MSN20041102160009311/02/04 16:00:31  5-MIN KMSN 022200Z VRB04KT 10SM BKN038 08/03 A3018 630 68 0 VRB/04 RMK AO2
14837KMSN MSN20041102160509311/02/04 16:05:31  5-MIN KMSN 022205Z 35004KT 10SM BKN038 08/03 A3018 630 68 0 350/04 RMK AO2
14837KMSN MSN20041102161009311/02/04 16:10:31  5-MIN KMSN 022210Z 34004KT 10SM BKN038 08/03 A3018 620 68 0 340/04 RMK AO2
14837KMSN MSN20041102161509311/02/04 16:15:31  5-MIN KMSN 022215Z VRB03KT 10SM BKN038 08/03 A3019 620 70 0 VRB/03 RMK AO2
14837KMSN MSN20041102162009311/02/04 16:20:31  5-MIN KMSN 022220Z 00000KT 10SM BKN038 08/03 A3019 620 70 0 000/00 RMK AO2
14837KMSN MSN20041102162509311/02/04 16:25:31  5-MIN KMSN 022225Z 00000KT 10SM BKN040 08/03 A3019 620 68 0 000/00 RMK AO2
14837KMSN MSN20041102163009311/02/04 16:30:31  5-MIN KMSN 022230Z 00000KT 10SM BKN040 08/03 A3019 620 70 0 000/00 RMK AO2
14837KMSN MSN20041102163509311/02/04 16:35:31  5-MIN KMSN 022235Z 32003KT 10SM BKN040 08/03 A3019 610 70 0 320/03 RMK AO2
14837KMSN MSN20041102164009311/02/04 16:40:31  5-MIN KMSN 022240Z 00000KT 10SM BKN040 08/03 A3019 610 70 0 000/00 RMK AO2
14837KMSN MSN20041102164509311/02/04 16:45:31  5-MIN KMSN 022245Z 00000KT 10SM BKN040 08/03 A3019 610 70 0 000/00 RMK AO2
14837KMSN MSN20041102165011011/02/04 16:50:31  5-MIN KMSN 022250Z 00000KT 10SM OVC038 08/03 A3019 610 70 0 000/00 RMK AO2 SLP230 T00780028
14837KMSN MSN20041102165509311/02/04 16:55:31  5-MIN KMSN 022255Z 00000KT 10SM OVC038 08/03 A3019 610 70 0 000/00 RMK AO2
14837KMSN MSN20041102170009311/02/04 17:00:31  5-MIN KMSN 022300Z 00000KT 10SM OVC036 08/03 A3020 610 70 0 000/00 RMK AO2
14837KMSN MSN20041102170509311/02/04 17:05:31  5-MIN KMSN 022305Z 00000KT 10SM OVC036 08/03 A3020 610 73 0 000/00 RMK AO2
14837KMSN MSN20041102171009611/02/04 17:10:31  5-MIN KMSN 022310Z 00000KT 10SM OVC036 07/04 A3020 610 79 -100 000/00 RMK AO2
14837KMSN MSN20041102171509311/02/04 17:15:31  5-MIN KMSN 022315Z 00000KT 10SM OVC036 08/04 A3020 600 76 0 000/00 RMK AO2
14837KMSN MSN20041102172009311/02/04 17:20:31  5-MIN KMSN 022320Z 00000KT 10SM OVC038 08/04 A3021 600 76 0 000/00 RMK AO2
14837KMSN MSN20041102172509311/02/04 17:25:31  5-MIN KMSN 022325Z 00000KT 10SM OVC038 08/03 A3021 600 73 0 000/00 RMK AO2
14837KMSN MSN20041102173009311/02/04 17:30:31  5-MIN KMSN 022330Z 00000KT 10SM OVC038 08/03 A3021 600 70 0 000/00 RMK AO2
14837KMSN MSN20041102173509611/02/04 17:35:31  5-MIN KMSN 022335Z 00000KT 10SM OVC038 07/04 A3021 600 79 -100 000/00 RMK AO2
14837KMSN MSN20041102174009611/02/04 17:40:31  5-MIN KMSN 022340Z 00000KT 10SM OVC038 07/04 A3022 590 79 -100 000/00 RMK AO2
14837KMSN MSN20041102174509611/02/04 17:45:31  5-MIN KMSN 022345Z 00000KT 10SM OVC038 07/03 A3022 590 76 -100 000/00 RMK AO2
14837KMSN MSN20041102175013111/02/04 17:50:31  5-MIN KMSN 022350Z 00000KT 10SM OVC038 07/03 A3022 590 76 -100 000/00 RMK AO2 SLP239 T00720033 10089 20067 51009
14837KMSN MSN20041102175509611/02/04 17:55:31  5-MIN KMSN 022355Z 00000KT 10SM OVC038 07/03 A3022 590 76 -100 000/00 RMK AO2
14837KMSN MSN20041102180009611/02/04 18:00:31  5-MIN KMSN 030000Z 00000KT 10SM OVC038 07/04 A3022 590 79 -100 000/00 RMK AO2
14837KMSN MSN20041102180509611/02/04 18:05:31  5-MIN KMSN 030005Z 00000KT 10SM OVC038 07/04 A3022 580 79 -100 000/00 RMK AO2
14837KMSN MSN20041102181009611/02/04 18:10:31  5-MIN KMSN 030010Z 00000KT 10SM OVC038 07/04 A3023 580 82 -100 000/00 RMK AO2
14837KMSN MSN20041102181509611/02/04 18:15:31  5-MIN KMSN 030015Z 00000KT 10SM OVC040 07/04 A3023 580 82 -100 000/00 RMK AO2
14837KMSN MSN20041102182009611/02/04 18:20:31  5-MIN KMSN 030020Z 00000KT 10SM OVC040 07/04 A3023 580 79 -100 000/00 RMK AO2
14837KMSN MSN20041102182509611/02/04 18:25:31  5-MIN KMSN 030025Z 00000KT 10SM OVC040 07/04 A3023 580 79 -100 000/00 RMK AO2
14837KMSN MSN20041102183009611/02/04 18:30:31  5-MIN KMSN 030030Z 00000KT 10SM OVC040 07/04 A3023 570 79 -100 000/00 RMK AO2
14837KMSN MSN20041102183509611/02/04 18:35:31  5-MIN KMSN 030035Z 00000KT 10SM OVC040 07/04 A3024 570 82 -100 000/00 RMK AO2
14837KMSN MSN20041102184009611/02/04 18:40:31  5-MIN KMSN 030040Z 00000KT 10SM OVC040 07/04 A3024 570 82 -100 000/00 RMK AO2
14837KMSN MSN20041102184509611/02/04 18:45:31  5-MIN KMSN 030045Z 00000KT 10SM OVC040 07/04 A3024 570 82 -100 000/00 RMK AO2
14837KMSN MSN20041102185011311/02/04 18:50:31  5-MIN KMSN 030050Z 00000KT 10SM OVC040 07/04 A3024 570 79 -100 000/00 RMK AO2 SLP246 T00720039
14837KMSN MSN20041102185509611/02/04 18:55:31  5-MIN KMSN 030055Z 00000KT 10SM OVC040 08/04 A3024 570 76 -100 000/00 RMK AO2
14837KMSN MSN20041102190009611/02/04 19:00:31  5-MIN KMSN 030100Z 00000KT 10SM OVC040 08/04 A3024 570 76 -100 000/00 RMK AO2
14837KMSN MSN20041102190509611/02/04 19:05:31  5-MIN KMSN 030105Z 00000KT 10SM OVC040 07/04 A3024 570 79 -100 000/00 RMK AO2
14837KMSN MSN20041102191009611/02/04 19:10:31  5-MIN KMSN 030110Z 00000KT 10SM OVC040 07/04 A3024 570 79 -100 000/00 RMK AO2
14837KMSN MSN20041102191509611/02/04 19:15:31  5-MIN KMSN 030115Z 00000KT 10SM OVC040 07/04 A3025 560 82 -100 000/00 RMK AO2
14837KMSN MSN20041102192009611/02/04 19:20:31  5-MIN KMSN 030120Z 00000KT 10SM OVC040 07/04 A3025 560 82 -100 000/00 RMK AO2
14837KMSN MSN20041102192509611/02/04 19:25:31  5-MIN KMSN 030125Z 00000KT 10SM OVC040 07/04 A3024 570 79 -100 000/00 RMK AO2
14837KMSN MSN20041102193009611/02/04 19:30:31  5-MIN KMSN 030130Z 00000KT 10SM OVC040 07/04 A3025 560 82 -100 000/00 RMK AO2
14837KMSN MSN20041102193509611/02/04 19:35:31  5-MIN KMSN 030135Z 00000KT 10SM OVC040 07/04 A3025 560 82 -100 000/00 RMK AO2
14837KMSN MSN20041102194009611/02/04 19:40:31  5-MIN KMSN 030140Z 00000KT 10SM OVC040 07/04 A3025 560 82 -100 000/00 RMK AO2
14837KMSN MSN20041102194509611/02/04 19:45:31  5-MIN KMSN 030145Z 00000KT 10SM OVC040 07/04 A3025 560 86 -200 000/00 RMK AO2
14837KMSN MSN20041102195011311/02/04 19:50:31  5-MIN KMSN 030150Z 00000KT 10SM OVC040 07/04 A3025 560 82 -100 000/00 RMK AO2 SLP248 T00720044
14837KMSN MSN20041102195509611/02/04 19:55:31  5-MIN KMSN 030155Z 00000KT 10SM OVC040 07/04 A3025 560 79 -100 000/00 RMK AO2
14837KMSN MSN20041102200009611/02/04 20:00:31  5-MIN KMSN 030200Z 00000KT 10SM OVC040 07/04 A3025 560 82 -200 000/00 RMK AO2
14837KMSN MSN20041102200509611/02/04 20:05:31  5-MIN KMSN 030205Z 00000KT 10SM OVC040 07/05 A3025 560 89 -200 000/00 RMK AO2
14837KMSN MSN20041102201009611/02/04 20:10:31  5-MIN KMSN 030210Z 00000KT 10SM OVC040 07/04 A3025 560 86 -200 000/00 RMK AO2
14837KMSN MSN20041102201509611/02/04 20:15:31  5-MIN KMSN 030215Z 33003KT 10SM OVC040 07/04 A3026 550 82 -200 330/03 RMK AO2
14837KMSN MSN20041102202009611/02/04 20:20:31  5-MIN KMSN 030220Z 00000KT 10SM OVC040 07/04 A3026 560 79 -200 000/00 RMK AO2
14837KMSN MSN20041102202509611/02/04 20:25:31  5-MIN KMSN 030225Z 32003KT 10SM OVC040 07/04 A3026 550 79 -200 320/03 RMK AO2
14837KMSN MSN20041102203009611/02/04 20:30:31  5-MIN KMSN 030230Z 34003KT 10SM OVC040 07/04 A3026 550 79 -200 330/03 RMK AO2
14837KMSN MSN20041102203509611/02/04 20:35:31  5-MIN KMSN 030235Z 32003KT 10SM OVC040 08/04 A3026 550 76 -100 320/03 RMK AO2
14837KMSN MSN20041102204009611/02/04 20:40:31  5-MIN KMSN 030240Z 00000KT 10SM OVC040 07/04 A3026 550 79 -200 000/00 RMK AO2
14837KMSN MSN20041102204509611/02/04 20:45:31  5-MIN KMSN 030245Z 00000KT 10SM OVC040 07/04 A3026 550 79 -200 000/00 RMK AO2
14837KMSN MSN20041102205011911/02/04 20:50:31  5-MIN KMSN 030250Z 31003KT 10SM OVC040 07/04 A3026 550 82 -200 310/03 RMK AO2 SLP254 T00720044 53018
14837KMSN MSN20041102205509611/02/04 20:55:31  5-MIN KMSN 030255Z 30003KT 10SM OVC040 07/04 A3026 550 79 -200 300/03 RMK AO2
14837KMSN MSN20041102210009611/02/04 21:00:31  5-MIN KMSN 030300Z 31003KT 10SM OVC040 07/04 A3027 550 79 -200 310/03 RMK AO2
14837KMSN MSN20041102210509611/02/04 21:05:31  5-MIN KMSN 030305Z 32003KT 10SM OVC040 08/03 A3026 550 73 -100 320/03 RMK AO2
14837KMSN MSN20041102211009611/02/04 21:10:31  5-MIN KMSN 030310Z 31003KT 10SM OVC040 08/03 A3026 550 73 -100 310/03 RMK AO2
14837KMSN MSN20041102211509611/02/04 21:15:31  5-MIN KMSN 030315Z 32004KT 10SM OVC040 08/03 A3026 550 73 -100 320/04 RMK AO2
14837KMSN MSN20041102212009611/02/04 21:20:31  5-MIN KMSN 030320Z 31003KT 10SM OVC040 07/04 A3026 550 79 -200 310/03 RMK AO2
14837KMSN MSN20041102212509611/02/04 21:25:31  5-MIN KMSN 030325Z 32003KT 10SM OVC040 07/04 A3026 550 79 -200 320/03 RMK AO2
14837KMSN MSN20041102213009611/02/04 21:30:31  5-MIN KMSN 030330Z 30004KT 10SM OVC040 07/04 A3026 550 79 -200 300/04 RMK AO2
14837KMSN MSN20041102213509611/02/04 21:35:31  5-MIN KMSN 030335Z 31004KT 10SM OVC040 07/05 A3027 540 86 -200 310/04 RMK AO2
14837KMSN MSN20041102214009611/02/04 21:40:31  5-MIN KMSN 030340Z 31003KT 10SM OVC040 07/05 A3027 540 86 -200 310/03 RMK AO2
14837KMSN MSN20041102214509611/02/04 21:45:31  5-MIN KMSN 030345Z 31003KT 10SM OVC042 07/03 A3027 540 76 -200 310/03 RMK AO2
14837KMSN MSN20041102215011311/02/04 21:50:31  5-MIN KMSN 030350Z 30003KT 10SM OVC042 07/03 A3027 540 76 -200 300/03 RMK AO2 SLP256 T00720033
14837KMSN MSN20041102215509611/02/04 21:55:31  5-MIN KMSN 030355Z 31003KT 10SM OVC042 07/04 A3027 540 79 -200 310/03 RMK AO2
14837KMSN MSN20041102220009611/02/04 22:00:31  5-MIN KMSN 030400Z 31003KT 10SM OVC042 07/03 A3027 540 76 -200 310/03 RMK AO2
14837KMSN MSN20041102220509611/02/04 22:05:31  5-MIN KMSN 030405Z 31003KT 10SM OVC042 07/03 A3027 540 76 -200 310/03 RMK AO2
14837KMSN MSN20041102221009611/02/04 22:10:31  5-MIN KMSN 030410Z 31003KT 10SM OVC042 07/03 A3027 540 76 -200 310/03 RMK AO2
14837KMSN MSN20041102221509611/02/04 22:15:31  5-MIN KMSN 030415Z 32004KT 10SM OVC042 07/03 A3027 540 76 -200 320/04 RMK AO2
14837KMSN MSN20041102222009611/02/04 22:20:31  5-MIN KMSN 030420Z 31003KT 10SM OVC042 07/03 A3027 540 76 -200 310/03 RMK AO2
14837KMSN MSN20041102222509611/02/04 22:25:31  5-MIN KMSN 030425Z 31003KT 10SM OVC042 07/04 A3027 540 79 -200 310/03 RMK AO2
14837KMSN MSN20041102223009611/02/04 22:30:31  5-MIN KMSN 030430Z 30003KT 10SM OVC042 07/03 A3027 540 76 -200 300/03 RMK AO2
14837KMSN MSN20041102223509611/02/04 22:35:31  5-MIN KMSN 030435Z 31003KT 10SM OVC042 07/03 A3027 540 76 -200 310/03 RMK AO2
14837KMSN MSN20041102224009611/02/04 22:40:31  5-MIN KMSN 030440Z 00000KT 10SM OVC042 07/03 A3028 540 76 -200 000/00 RMK AO2
14837KMSN MSN20041102224509611/02/04 22:45:31  5-MIN KMSN 030445Z 00000KT 10SM OVC042 07/03 A3027 540 76 -200 000/00 RMK AO2
14837KMSN MSN20041102225011311/02/04 22:50:31  5-MIN KMSN 030450Z 00000KT 10SM OVC042 07/03 A3028 540 76 -200 000/00 RMK AO2 SLP257 T00720033
14837KMSN MSN20041102225509611/02/04 22:55:31  5-MIN KMSN 030455Z 00000KT 10SM OVC042 07/04 A3027 540 79 -200 000/00 RMK AO2
14837KMSN MSN20041102230009611/02/04 23:00:31  5-MIN KMSN 030500Z 00000KT 10SM OVC042 07/03 A3027 540 76 -200 000/00 RMK AO2
14837KMSN MSN20041102230509611/02/04 23:05:31  5-MIN KMSN 030505Z 00000KT 10SM OVC042 07/03 A3027 540 76 -200 000/00 RMK AO2
14837KMSN MSN20041102231009611/02/04 23:10:31  5-MIN KMSN 030510Z 00000KT 10SM OVC042 07/04 A3028 530 86 -300 000/00 RMK AO2
14837KMSN MSN20041102231509611/02/04 23:15:31  5-MIN KMSN 030515Z 00000KT 10SM OVC042 07/04 A3028 530 82 -300 000/00 RMK AO2
14837KMSN MSN20041102232009611/02/04 23:20:31  5-MIN KMSN 030520Z 00000KT 10SM OVC042 07/04 A3028 530 82 -300 000/00 RMK AO2
14837KMSN MSN20041102232509611/02/04 23:25:31  5-MIN KMSN 030525Z 00000KT 10SM OVC042 07/04 A3028 540 79 -200 000/00 RMK AO2
14837KMSN MSN20041102233009611/02/04 23:30:31  5-MIN KMSN 030530Z 00000KT 10SM OVC042 07/04 A3028 540 79 -200 000/00 RMK AO2
14837KMSN MSN20041102233509611/02/04 23:35:31  5-MIN KMSN 030535Z 30003KT 10SM OVC042 07/04 A3028 540 79 -200 300/03 RMK AO2
14837KMSN MSN20041102234009611/02/04 23:40:31  5-MIN KMSN 030540Z 00000KT 10SM OVC042 07/04 A3028 540 82 -200 000/00 RMK AO2
14837KMSN MSN20041102234509611/02/04 23:45:31  5-MIN KMSN 030545Z 00000KT 10SM OVC042 07/04 A3028 540 79 -200 000/00 RMK AO2
14837KMSN MSN20041102235014111/02/04 23:50:31  5-MIN KMSN 030550Z 32003KT 10SM OVC042 07/04 A3028 530 79 -200 320/03 RMK AO2 SLP259 T00720039 10078 20067 400890050 51014
14837KMSN MSN20041102235509611/02/04 23:55:31  5-MIN KMSN 030555Z 00000KT 10SM OVC042 07/04 A3028 530 82 -300 000/00 RMK AO2
14837KMSN MSN20041103000009611/03/04 00:00:31  5-MIN KMSN 030600Z 00000KT 10SM OVC042 07/04 A3028 530 79 -200 000/00 RMK AO2
14837KMSN MSN20041103000509611/03/04 00:05:31  5-MIN KMSN 030605Z 00000KT 10SM OVC042 07/04 A3028 530 79 -200 000/00 RMK AO2
14837KMSN MSN20041103001009611/03/04 00:10:31  5-MIN KMSN 030610Z 00000KT 10SM OVC042 07/04 A3029 530 82 -300 000/00 RMK AO2
14837KMSN MSN20041103001509611/03/04 00:15:31  5-MIN KMSN 030615Z 00000KT 10SM OVC042 07/04 A3029 530 79 -200 000/00 RMK AO2
14837KMSN MSN20041103002009611/03/04 00:20:31  5-MIN KMSN 030620Z 00000KT 10SM OVC042 07/03 A3029 520 76 -200 000/00 RMK AO2
14837KMSN MSN20041103002509611/03/04 00:25:31  5-MIN KMSN 030625Z 00000KT 10SM OVC042 07/03 A3029 530 76 -200 000/00 RMK AO2
14837KMSN MSN20041103003009611/03/04 00:30:31  5-MIN KMSN 030630Z 00000KT 10SM OVC042 07/04 A3029 530 82 -300 000/00 RMK AO2
14837KMSN MSN20041103003509611/03/04 00:35:31  5-MIN KMSN 030635Z 00000KT 10SM OVC042 07/04 A3029 530 82 -300 000/00 RMK AO2
14837KMSN MSN20041103004009611/03/04 00:40:31  5-MIN KMSN 030640Z 34003KT 10SM OVC042 07/04 A3029 530 82 -300 340/03 RMK AO2
14837KMSN MSN20041103004509611/03/04 00:45:31  5-MIN KMSN 030645Z 00000KT 10SM OVC042 07/03 A3028 530 76 -200 000/00 RMK AO2
14837KMSN MSN20041103005011311/03/04 00:50:31  5-MIN KMSN 030650Z 00000KT 10SM OVC042 07/04 A3028 530 82 -300 000/00 RMK AO2 SLP260 T00670039
14837KMSN MSN20041103005509611/03/04 00:55:31  5-MIN KMSN 030655Z 00000KT 10SM OVC042 07/04 A3028 530 82 -300 000/00 RMK AO2
14837KMSN MSN20041103010009611/03/04 01:00:31  5-MIN KMSN 030700Z 31003KT 10SM OVC042 07/04 A3029 530 82 -300 310/03 RMK AO2
14837KMSN MSN20041103010509611/03/04 01:05:31  5-MIN KMSN 030705Z 00000KT 10SM OVC042 06/04 A3029 530 86 -300 000/00 RMK AO2
14837KMSN MSN20041103011009611/03/04 01:10:31  5-MIN KMSN 030710Z 00000KT 10SM OVC042 07/04 A3028 530 82 -300 000/00 RMK AO2
14837KMSN MSN20041103011509611/03/04 01:15:31  5-MIN KMSN 030715Z 00000KT 10SM OVC042 07/04 A3028 530 86 -300 000/00 RMK AO2
14837KMSN MSN20041103012009611/03/04 01:20:31  5-MIN KMSN 030720Z 00000KT 10SM OVC042 07/04 A3028 530 82 -300 000/00 RMK AO2
14837KMSN MSN20041103012509611/03/04 01:25:31  5-MIN KMSN 030725Z 00000KT 10SM OVC042 07/04 A3028 530 79 -200 000/00 RMK AO2
14837KMSN MSN20041103013009611/03/04 01:30:31  5-MIN KMSN 030730Z 00000KT 10SM OVC042 07/04 A3028 530 82 -300 000/00 RMK AO2
14837KMSN MSN20041103013509611/03/04 01:35:31  5-MIN KMSN 030735Z 00000KT 10SM OVC042 07/04 A3028 530 82 -300 000/00 RMK AO2
14837KMSN MSN20041103014009611/03/04 01:40:31  5-MIN KMSN 030740Z 00000KT 10SM OVC040 07/04 A3028 530 82 -300 000/00 RMK AO2
14837KMSN MSN20041103014509611/03/04 01:45:31  5-MIN KMSN 030745Z 00000KT 10SM OVC040 07/04 A3029 530 82 -300 000/00 RMK AO2
14837KMSN MSN20041103015011311/03/04 01:50:31  5-MIN KMSN 030750Z 00000KT 10SM OVC040 07/04 A3028 530 82 -300 000/00 RMK AO2 SLP260 T00670039
14837KMSN MSN20041103015509611/03/04 01:55:31  5-MIN KMSN 030755Z 00000KT 10SM OVC040 07/04 A3028 530 82 -300 000/00 RMK AO2
14837KMSN MSN20041103020009611/03/04 02:00:31  5-MIN KMSN 030800Z 00000KT 10SM OVC040 07/04 A3029 530 82 -300 000/00 RMK AO2
14837KMSN MSN20041103020509611/03/04 02:05:31  5-MIN KMSN 030805Z 00000KT 10SM OVC040 06/04 A3029 530 86 -300 000/00 RMK AO2
14837KMSN MSN20041103021009611/03/04 02:10:31  5-MIN KMSN 030810Z 00000KT 10SM OVC040 07/04 A3029 520 82 -300 000/00 RMK AO2
14837KMSN MSN20041103021509611/03/04 02:15:31  5-MIN KMSN 030815Z 00000KT 10SM OVC040 07/04 A3029 520 82 -300 000/00 RMK AO2
14837KMSN MSN20041103022009611/03/04 02:20:31  5-MIN KMSN 030820Z 00000KT 10SM OVC040 07/03 A3029 520 79 -300 000/00 RMK AO2
14837KMSN MSN20041103022509611/03/04 02:25:31  5-MIN KMSN 030825Z 00000KT 10SM OVC040 07/03 A3029 520 79 -300 000/00 RMK AO2
14837KMSN MSN20041103023009611/03/04 02:30:31  5-MIN KMSN 030830Z 00000KT 10SM OVC040 06/04 A3029 520 86 -300 000/00 RMK AO2
14837KMSN MSN20041103023509611/03/04 02:35:31  5-MIN KMSN 030835Z 00000KT 10SM OVC040 06/04 A3029 520 86 -300 000/00 RMK AO2
14837KMSN MSN20041103024009611/03/04 02:40:31  5-MIN KMSN 030840Z 00000KT 10SM OVC040 06/04 A3030 520 86 -300 000/00 RMK AO2
14837KMSN MSN20041103024509611/03/04 02:45:31  5-MIN KMSN 030845Z 34003KT 10SM OVC040 06/04 A3030 520 86 -300 340/03 RMK AO2
14837KMSN MSN20041103025011911/03/04 02:50:31  5-MIN KMSN 030850Z 35003KT 10SM OVC040 07/04 A3030 520 82 -300 340/03 RMK AO2 SLP265 T00670039 51006
14837KMSN MSN20041103025509611/03/04 02:55:31  5-MIN KMSN 030855Z 33003KT 10SM OVC040 07/04 A3030 520 82 -300 330/03 RMK AO2
14837KMSN MSN20041103030009611/03/04 03:00:31  5-MIN KMSN 030900Z 34003KT 10SM OVC040 07/03 A3030 520 79 -300 340/03 RMK AO2
14837KMSN MSN20041103030509611/03/04 03:05:31  5-MIN KMSN 030905Z 00000KT 10SM OVC040 07/04 A3030 520 82 -300 000/00 RMK AO2
14837KMSN MSN20041103031009611/03/04 03:10:31  5-MIN KMSN 030910Z 00000KT 10SM OVC040 06/04 A3030 520 89 -300 000/00 RMK AO2
14837KMSN MSN20041103031509611/03/04 03:15:31  5-MIN KMSN 030915Z 00000KT 10SM OVC040 06/04 A3030 510 89 -300 000/00 RMK AO2
14837KMSN MSN20041103032009611/03/04 03:20:31  5-MIN KMSN 030920Z 00000KT 10SM OVC040 06/04 A3030 520 89 -300 000/00 RMK AO2
14837KMSN MSN20041103032509611/03/04 03:25:31  5-MIN KMSN 030925Z 00000KT 10SM OVC040 06/04 A3030 510 89 -300 000/00 RMK AO2
14837KMSN MSN20041103033009611/03/04 03:30:31  5-MIN KMSN 030930Z 36003KT 10SM OVC040 06/04 A3030 510 86 -300 360/03 RMK AO2
14837KMSN MSN20041103033509611/03/04 03:35:31  5-MIN KMSN 030935Z 00000KT 10SM OVC040 06/04 A3030 520 86 -300 000/00 RMK AO2
14837KMSN MSN20041103034009611/03/04 03:40:31  5-MIN KMSN 030940Z 01003KT 10SM OVC040 06/04 A3030 520 86 -300 360/03 RMK AO2
14837KMSN MSN20041103034509611/03/04 03:45:31  5-MIN KMSN 030945Z 00000KT 10SM OVC040 06/04 A3030 510 86 -300 000/00 RMK AO2
14837KMSN MSN20041103035011311/03/04 03:50:31  5-MIN KMSN 030950Z 00000KT 10SM OVC040 07/04 A3030 520 82 -300 000/00 RMK AO2 SLP266 T00670039
14837KMSN MSN20041103035509611/03/04 03:55:31  5-MIN KMSN 030955Z 00000KT 10SM OVC040 07/04 A3030 510 82 -300 000/00 RMK AO2
14837KMSN MSN20041103040009611/03/04 04:00:31  5-MIN KMSN 031000Z 00000KT 10SM OVC040 07/03 A3030 510 79 -300 000/00 RMK AO2
14837KMSN MSN20041103040509611/03/04 04:05:31  5-MIN KMSN 031005Z 00000KT 10SM OVC040 07/04 A3030 520 82 -300 000/00 RMK AO2
14837KMSN MSN20041103041009611/03/04 04:10:31  5-MIN KMSN 031010Z 00000KT 10SM OVC040 07/04 A3030 520 82 -300 000/00 RMK AO2
14837KMSN MSN20041103041509611/03/04 04:15:31  5-MIN KMSN 031015Z 00000KT 10SM OVC040 06/04 A3030 520 86 -300 000/00 RMK AO2
14837KMSN MSN20041103042009611/03/04 04:20:31  5-MIN KMSN 031020Z 00000KT 10SM OVC040 06/04 A3030 510 86 -300 000/00 RMK AO2
14837KMSN MSN20041103042509611/03/04 04:25:31  5-MIN KMSN 031025Z 00000KT 10SM OVC040 06/04 A3030 510 86 -300 000/00 RMK AO2
14837KMSN MSN20041103043009611/03/04 04:30:31  5-MIN KMSN 031030Z 00000KT 10SM OVC040 07/04 A3030 510 82 -300 000/00 RMK AO2
14837KMSN MSN20041103043509611/03/04 04:35:31  5-MIN KMSN 031035Z 00000KT 10SM OVC040 06/04 A3030 510 86 -300 000/00 RMK AO2
14837KMSN MSN20041103044009611/03/04 04:40:31  5-MIN KMSN 031040Z 00000KT 10SM OVC040 06/04 A3031 510 86 -400 000/00 RMK AO2
14837KMSN MSN20041103044509611/03/04 04:45:31  5-MIN KMSN 031045Z 33003KT 10SM OVC040 06/04 A3031 510 86 -400 330/03 RMK AO2
14837KMSN MSN20041103045011311/03/04 04:50:31  5-MIN KMSN 031050Z 34003KT 10SM OVC040 06/04 A3031 510 86 -400 340/03 RMK AO2 SLP269 T00610039
14837KMSN MSN20041103045509611/03/04 04:55:31  5-MIN KMSN 031055Z 00000KT 10SM OVC040 06/04 A3031 500 86 -400 000/00 RMK AO2
14837KMSN MSN20041103050009611/03/04 05:00:31  5-MIN KMSN 031100Z 00000KT 10SM OVC040 06/04 A3031 500 86 -400 000/00 RMK AO2
14837KMSN MSN20041103050509611/03/04 05:05:31  5-MIN KMSN 031105Z 00000KT 10SM OVC040 06/04 A3031 500 86 -400 000/00 RMK AO2
14837KMSN MSN20041103051009611/03/04 05:10:31  5-MIN KMSN 031110Z 00000KT 10SM OVC040 06/04 A3032 500 86 -400 000/00 RMK AO2
14837KMSN MSN20041103051509611/03/04 05:15:31  5-MIN KMSN 031115Z 00000KT 10SM OVC040 07/04 A3032 500 82 -300 000/00 RMK AO2
14837KMSN MSN20041103052009611/03/04 05:20:31  5-MIN KMSN 031120Z 00000KT 10SM OVC040 07/04 A3032 500 82 -300 000/00 RMK AO2
14837KMSN MSN20041103052509611/03/04 05:25:31  5-MIN KMSN 031125Z 00000KT 10SM OVC040 06/04 A3032 500 86 -400 000/00 RMK AO2
14837KMSN MSN20041103053009611/03/04 05:30:31  5-MIN KMSN 031130Z 00000KT 10SM OVC040 07/04 A3031 500 82 -300 000/00 RMK AO2
14837KMSN MSN20041103053509611/03/04 05:35:31  5-MIN KMSN 031135Z 00000KT 10SM OVC040 06/04 A3031 500 89 -400 000/00 RMK AO2
14837KMSN MSN20041103054009611/03/04 05:40:31  5-MIN KMSN 031140Z 00000KT 10SM OVC040 06/04 A3031 500 89 -400 000/00 RMK AO2
14837KMSN MSN20041103054509611/03/04 05:45:31  5-MIN KMSN 031145Z 00000KT 10SM OVC040 06/04 A3031 510 89 -400 000/00 RMK AO2
14837KMSN MSN20041103055013111/03/04 05:50:31  5-MIN KMSN 031150Z 00000KT 10SM OVC040 06/04 A3031 500 86 -400 000/00 RMK AO2 SLP271 T00610039 10072 20056 53006
14837KMSN MSN20041103055509611/03/04 05:55:31  5-MIN KMSN 031155Z 00000KT 10SM OVC040 06/04 A3031 510 86 -400 000/00 RMK AO2
14837KMSN MSN20041103060009611/03/04 06:00:31  5-MIN KMSN 031200Z 00000KT 10SM OVC040 06/03 A3031 510 82 -400 000/00 RMK AO2
14837KMSN MSN20041103060509611/03/04 06:05:31  5-MIN KMSN 031205Z 00000KT 10SM OVC040 06/04 A3031 510 86 -400 000/00 RMK AO2
14837KMSN MSN20041103061009611/03/04 06:10:31  5-MIN KMSN 031210Z 00000KT 10SM OVC040 06/04 A3031 510 86 -400 000/00 RMK AO2
14837KMSN MSN20041103061509611/03/04 06:15:31  5-MIN KMSN 031215Z 00000KT 10SM OVC040 06/04 A3031 510 89 -400 000/00 RMK AO2
14837KMSN MSN20041103062009611/03/04 06:20:31  5-MIN KMSN 031220Z 00000KT 10SM OVC040 06/04 A3031 510 89 -400 000/00 RMK AO2
14837KMSN MSN20041103062509611/03/04 06:25:31  5-MIN KMSN 031225Z 00000KT 10SM OVC040 06/04 A3031 510 86 -400 000/00 RMK AO2
14837KMSN MSN20041103063009611/03/04 06:30:31  5-MIN KMSN 031230Z 00000KT 10SM OVC040 06/04 A3031 510 86 -400 000/00 RMK AO2
14837KMSN MSN20041103063509611/03/04 06:35:31  5-MIN KMSN 031235Z 02003KT 10SM OVC040 06/04 A3031 510 86 -400 020/03 RMK AO2
14837KMSN MSN20041103064009611/03/04 06:40:31  5-MIN KMSN 031240Z 00000KT 10SM OVC040 06/04 A3031 500 89 -400 000/00 RMK AO2
14837KMSN MSN20041103064509611/03/04 06:45:31  5-MIN KMSN 031245Z 00000KT 10SM OVC040 06/04 A3031 500 89 -400 000/00 RMK AO2
14837KMSN MSN20041103065011311/03/04 06:50:31  5-MIN KMSN 031250Z 00000KT 10SM OVC040 06/04 A3031 500 86 -400 000/00 RMK AO2 SLP271 T00610039
14837KMSN MSN20041103065509611/03/04 06:55:31  5-MIN KMSN 031255Z 04003KT 10SM OVC040 06/04 A3031 510 86 -400 030/03 RMK AO2
14837KMSN MSN20041103070009611/03/04 07:00:31  5-MIN KMSN 031300Z 03004KT 10SM OVC040 06/04 A3031 510 89 -400 030/04 RMK AO2
14837KMSN MSN20041103070509611/03/04 07:05:31  5-MIN KMSN 031305Z 04005KT 10SM OVC040 06/04 A3031 500 89 -400 040/05 RMK AO2
14837KMSN MSN20041103071009611/03/04 07:10:31  5-MIN KMSN 031310Z 06003KT 10SM OVC040 06/04 A3032 500 86 -400 060/03 RMK AO2
14837KMSN MSN20041103071509611/03/04 07:15:31  5-MIN KMSN 031315Z 04003KT 10SM OVC040 06/04 A3032 500 86 -400 040/03 RMK AO2
14837KMSN MSN20041103072009611/03/04 07:20:31  5-MIN KMSN 031320Z 00000KT 10SM OVC040 06/04 A3032 500 89 -400 000/00 RMK AO2
14837KMSN MSN20041103072509611/03/04 07:25:31  5-MIN KMSN 031325Z 00000KT 10SM OVC040 06/04 A3032 500 89 -400 000/00 RMK AO2
14837KMSN MSN20041103073009611/03/04 07:30:31  5-MIN KMSN 031330Z 00000KT 10SM OVC040 06/04 A3031 500 86 -400 000/00 RMK AO2
14837KMSN MSN20041103073509611/03/04 07:35:31  5-MIN KMSN 031335Z 00000KT 10SM OVC040 07/04 A3031 500 82 -300 000/00 RMK AO2
14837KMSN MSN20041103074009611/03/04 07:40:31  5-MIN KMSN 031340Z 00000KT 10SM OVC040 07/04 A3031 500 86 -300 000/00 RMK AO2
14837KMSN MSN20041103074509611/03/04 07:45:31  5-MIN KMSN 031345Z 00000KT 10SM OVC040 07/04 A3031 510 86 -300 000/00 RMK AO2
14837KMSN MSN20041103075011311/03/04 07:50:31  5-MIN KMSN 031350Z 00000KT 10SM BKN040 07/04 A3031 510 86 -300 000/00 RMK AO2 SLP269 T00670044
14837KMSN MSN20041103075509611/03/04 07:55:31  5-MIN KMSN 031355Z 00000KT 10SM OVC039 07/04 A3031 510 86 -300 000/00 RMK AO2
14837KMSN MSN20041103080009611/03/04 08:00:31  5-MIN KMSN 031400Z 03004KT 10SM BKN039 07/04 A3030 510 82 -300 030/04 RMK AO2
14837KMSN MSN20041103080509611/03/04 08:05:31  5-MIN KMSN 031405Z 03004KT 10SM BKN039 07/04 A3030 510 82 -300 030/04 RMK AO2
14837KMSN MSN20041103081009611/03/04 08:10:31  5-MIN KMSN 031410Z 03004KT 10SM BKN039 07/04 A3030 510 82 -200 030/04 RMK AO2
14837KMSN MSN20041103081509611/03/04 08:15:31  5-MIN KMSN 031415Z VRB04KT 10SM BKN039 07/04 A3030 520 82 -200 VRB/04 RMK AO2
14837KMSN MSN20041103082009611/03/04 08:20:31  5-MIN KMSN 031420Z 06005KT 10SM BKN039 08/04 A3030 510 79 -100 050/05 RMK AO2
14837KMSN MSN20041103082509611/03/04 08:25:31  5-MIN KMSN 031425Z 05004KT 10SM BKN039 08/04 A3030 510 79 -100 050/04 RMK AO2
14837KMSN MSN20041103083009611/03/04 08:30:31  5-MIN KMSN 031430Z 06004KT 10SM BKN039 08/04 A3030 510 76 -100 060/04 RMK AO2
14837KMSN MSN20041103083509611/03/04 08:35:31  5-MIN KMSN 031435Z 08005KT 10SM BKN039 08/04 A3030 510 76 -100 080/05 RMK AO2
14837KMSN MSN20041103084009611/03/04 08:40:31  5-MIN KMSN 031440Z 09007KT 10SM BKN039 08/04 A3030 510 76 -100 090/07 RMK AO2
14837KMSN MSN20041103084509611/03/04 08:45:31  5-MIN KMSN 031445Z 08005KT 10SM BKN039 08/04 A3030 510 76 -100 080/05 RMK AO2
14837KMSN MSN20041103085011911/03/04 08:50:31  5-MIN KMSN 031450Z 07005KT 10SM BKN039 07/04 A3030 510 79 -200 070/05 RMK AO2 SLP266 T00720039 51004
14837KMSN MSN20041103085509611/03/04 08:55:31  5-MIN KMSN 031455Z 08003KT 10SM BKN039 07/04 A3030 510 79 -200 080/03 RMK AO2
14837KMSN MSN20041103090009611/03/04 09:00:31  5-MIN KMSN 031500Z 07003KT 10SM BKN039 07/04 A3030 520 79 -200 070/03 RMK AO2
14837KMSN MSN20041103090509611/03/04 09:05:31  5-MIN KMSN 031505Z 06004KT 10SM BKN039 07/04 A3030 520 79 -200 060/04 RMK AO2
14837KMSN MSN20041103091009611/03/04 09:10:31  5-MIN KMSN 031510Z 08003KT 10SM BKN039 08/04 A3030 520 76 -100 080/03 RMK AO2
14837KMSN MSN20041103091509611/03/04 09:15:31  5-MIN KMSN 031515Z 08003KT 10SM BKN039 08/04 A3030 520 76 -100 080/03 RMK AO2
14837KMSN MSN20041103092009611/03/04 09:20:31  5-MIN KMSN 031520Z 08005KT 10SM BKN039 08/04 A3029 520 76 -100 080/05 RMK AO2
14837KMSN MSN20041103092509611/03/04 09:25:31  5-MIN KMSN 031525Z 00000KT 10SM BKN037 08/04 A3029 520 73 -100 000/00 RMK AO2
14837KMSN MSN20041103093009311/03/04 09:30:31  5-MIN KMSN 031530Z 11006KT 10SM BKN037 09/03 A3029 520 68 0 100/06 RMK AO2
14837KMSN MSN20041103093509311/03/04 09:35:31  5-MIN KMSN 031535Z 12007KT 10SM BKN037 09/03 A3029 530 65 0 110/07 RMK AO2
14837KMSN MSN20041103094009611/03/04 09:40:31  5-MIN KMSN 031540Z 11006KT 10SM BKN037 08/02 A3029 530 65 -100 110/06 RMK AO2
14837KMSN MSN20041103094509611/03/04 09:45:31  5-MIN KMSN 031545Z 12005KT 10SM BKN037 08/02 A3028 530 63 -100 120/05 RMK AO2
14837KMSN MSN20041103095011011/03/04 09:50:31  5-MIN KMSN 031550Z 11008KT 10SM BKN037 09/02 A3028 530 63 0 110/08 RMK AO2 SLP259 T00890022
14837KMSN MSN20041103095509311/03/04 09:55:31  5-MIN KMSN 031555Z 12005KT 10SM BKN035 08/01 A3028 530 60 0 120/05 RMK AO2
14837KMSN MSN20041103100009311/03/04 10:00:31  5-MIN KMSN 031600Z 13006KT 10SM BKN035 09/02 A3028 530 60 0 120/06 RMK AO2
14837KMSN MSN20041103100509311/03/04 10:05:31  5-MIN KMSN 031605Z 11005KT 10SM BKN035 09/01 A3028 540 58 0 110/05 RMK AO2
14837KMSN MSN20041103101009311/03/04 10:10:31  5-MIN KMSN 031610Z VRB05KT 10SM BKN035 09/02 A3028 540 58 0 VRB/05 RMK AO2
14837KMSN MSN20041103101509311/03/04 10:15:31  5-MIN KMSN 031615Z 09004KT 10SM BKN035 09/01 A3028 540 58 0 090/04 RMK AO2
14837KMSN MSN20041103102009511/03/04 10:20:31  5-MIN KMSN 031620Z VRB06KT 10SM BKN035 10/02 A3027 540 56 100 VRB/06 RMK AO2
14837KMSN MSN20041103102509311/03/04 10:25:31  5-MIN KMSN 031625Z 14006KT 10SM BKN035 09/01 A3027 540 56 0 140/06 RMK AO2
14837KMSN MSN20041103103009511/03/04 10:30:31  5-MIN KMSN 031630Z 12008KT 10SM BKN035 10/01 A3027 540 54 100 120/08 RMK AO2
14837KMSN MSN20041103103509311/03/04 10:35:31  5-MIN KMSN 031635Z 13008KT 10SM BKN035 09/01 A3027 540 56 0 130/08 RMK AO2
14837KMSN MSN20041103104009511/03/04 10:40:31  5-MIN KMSN 031640Z 11007KT 10SM BKN035 09/01 A3027 550 56 100 110/07 RMK AO2
14837KMSN MSN20041103104509311/03/04 10:45:31  5-MIN KMSN 031645Z 11008KT 10SM BKN035 09/01 A3026 550 58 0 100/08 RMK AO2
14837KMSN MSN20041103105011011/03/04 10:50:31  5-MIN KMSN 031650Z 10006KT 10SM BKN035 09/01 A3026 550 58 0 100/06 RMK AO2 SLP252 T00890011
14837KMSN MSN20041103105509311/03/04 10:55:31  5-MIN KMSN 031655Z 10005KT 10SM BKN035 09/01 A3026 560 58 0 090/05 RMK AO2
14837KMSN MSN20041103110009511/03/04 11:00:31  5-MIN KMSN 031700Z 13006KT 10SM BKN035 10/02 A3025 560 56 100 130/06 RMK AO2
14837KMSN MSN20041103110511111/03/04 11:05:31  5-MIN KMSN 031705Z 13008KT 090V180 10SM BKN035 11/02 A3025 560 54 200 120/08 090V180 RMK AO2
14837KMSN MSN20041103111009511/03/04 11:10:31  5-MIN KMSN 031710Z 14009KT 10SM BKN035 11/02 A3025 560 56 200 140/09 RMK AO2
14837KMSN MSN20041103111509511/03/04 11:15:31  5-MIN KMSN 031715Z 13009KT 10SM BKN035 11/02 A3025 560 56 200 130/09 RMK AO2
14837KMSN MSN20041103112009511/03/04 11:20:31  5-MIN KMSN 031720Z 14008KT 10SM BKN035 09/02 A3025 560 58 100 140/08 RMK AO2
14837KMSN MSN20041103112509311/03/04 11:25:31  5-MIN KMSN 031725Z 12005KT 10SM BKN035 09/01 A3025 560 58 0 120/05 RMK AO2
14837KMSN MSN20041103113009311/03/04 11:30:31  5-MIN KMSN 031730Z 11006KT 10SM BKN035 09/02 A3024 570 60 0 110/06 RMK AO2
14837KMSN MSN20041103113509511/03/04 11:35:31  5-MIN KMSN 031735Z 10005KT 10SM BKN035 09/02 A3024 570 58 100 100/05 RMK AO2
14837KMSN MSN20041103114009511/03/04 11:40:31  5-MIN KMSN 031740Z 09007KT 10SM BKN035 09/02 A3024 570 58 100 090/07 RMK AO2
14837KMSN MSN20041103114509511/03/04 11:45:31  5-MIN KMSN 031745Z 08008KT 10SM BKN035 09/02 A3023 580 58 100 080/08 RMK AO2
14837KMSN MSN20041103115013011/03/04 11:50:31  5-MIN KMSN 031750Z 09005KT 10SM BKN035 09/02 A3023 580 58 100 090/05 RMK AO2 SLP242 T00940017 10111 20056 58003
14837KMSN MSN20041103115509511/03/04 11:55:31  5-MIN KMSN 031755Z VRB05KT 10SM OVC035 09/02 A3023 580 58 100 VRB/05 RMK AO2
14837KMSN MSN20041103120009511/03/04 12:00:31  5-MIN KMSN 031800Z 11007KT 10SM OVC035 10/02 A3023 580 56 200 110/07 RMK AO2
14837KMSN MSN20041103120509511/03/04 12:05:31  5-MIN KMSN 031805Z 10004KT 10SM BKN035 10/02 A3022 580 56 200 100/04 RMK AO2
14837KMSN MSN20041103121009511/03/04 12:10:31  5-MIN KMSN 031810Z VRB03KT 10SM BKN035 09/02 A3022 590 58 100 VRB/03 RMK AO2
14837KMSN MSN20041103121509511/03/04 12:15:31  5-MIN KMSN 031815Z 12006KT 10SM BKN035 10/02 A3022 590 58 200 120/06 RMK AO2
14837KMSN MSN20041103122009511/03/04 12:20:31  5-MIN KMSN 031820Z 16007KT 10SM BKN035 10/02 A3021 590 56 200 160/07 RMK AO2
14837KMSN MSN20041103122509511/03/04 12:25:31  5-MIN KMSN 031825Z 12006KT 10SM BKN035 10/02 A3021 600 56 200 120/06 RMK AO2
14837KMSN MSN20041103123009511/03/04 12:30:31  5-MIN KMSN 031830Z 12004KT 10SM BKN035 10/02 A3021 600 56 200 120/04 RMK AO2
14837KMSN MSN20041103123509511/03/04 12:35:31  5-MIN KMSN 031835Z 14004KT 10SM BKN035 10/02 A3021 600 56 200 140/04 RMK AO2
14837KMSN MSN20041103124009511/03/04 12:40:31  5-MIN KMSN 031840Z 11008KT 10SM BKN035 10/02 A3021 600 58 200 110/08 RMK AO2
14837KMSN MSN20041103124509511/03/04 12:45:31  5-MIN KMSN 031845Z 11006KT 10SM BKN035 10/02 A3021 600 58 200 110/06 RMK AO2
14837KMSN MSN20041103125011211/03/04 12:50:31  5-MIN KMSN 031850Z 11009KT 10SM OVC035 10/02 A3020 600 58 200 110/09 RMK AO2 SLP233 T01000022
14837KMSN MSN20041103125509511/03/04 12:55:31  5-MIN KMSN 031855Z 09007KT 10SM OVC035 09/02 A3020 600 58 100 090/07 RMK AO2
14837KMSN MSN20041103130009511/03/04 13:00:31  5-MIN KMSN 031900Z 13008KT 10SM OVC035 09/02 A3020 600 60 100 130/08 RMK AO2
14837KMSN MSN20041103130509511/03/04 13:05:31  5-MIN KMSN 031905Z 15009KT 10SM OVC035 09/02 A3020 600 58 100 150/09 RMK AO2
14837KMSN MSN20041103131009511/03/04 13:10:31  5-MIN KMSN 031910Z 16008KT 10SM OVC035 09/02 A3020 600 60 100 160/08 RMK AO2
14837KMSN MSN20041103131509511/03/04 13:15:31  5-MIN KMSN 031915Z 14009KT 10SM OVC035 09/02 A3020 600 60 100 140/09 RMK AO2
14837KMSN MSN20041103132009511/03/04 13:20:31  5-MIN KMSN 031920Z 14009KT 10SM OVC035 09/02 A3020 610 60 100 140/09 RMK AO2
14837KMSN MSN20041103132509511/03/04 13:25:31  5-MIN KMSN 031925Z 16006KT 10SM OVC035 09/02 A3020 610 58 100 150/06 RMK AO2
14837KMSN MSN20041103133009511/03/04 13:30:31  5-MIN KMSN 031930Z 13005KT 10SM OVC035 09/02 A3020 610 60 100 130/05 RMK AO2
14837KMSN MSN20041103133509511/03/04 13:35:31  5-MIN KMSN 031935Z 17008KT 10SM OVC035 10/02 A3020 610 56 200 170/08 RMK AO2
14837KMSN MSN20041103134009511/03/04 13:40:31  5-MIN KMSN 031940Z 16007KT 10SM OVC035 10/02 A3020 610 56 200 160/07 RMK AO2
14837KMSN MSN20041103134509511/03/04 13:45:31  5-MIN KMSN 031945Z 15007KT 10SM OVC035 09/02 A3020 610 58 100 150/07 RMK AO2
14837KMSN MSN20041103135011211/03/04 13:50:31  5-MIN KMSN 031950Z 14006KT 10SM OVC035 09/02 A3019 610 58 100 140/06 RMK AO2 SLP229 T00940017
14837KMSN MSN20041103135509511/03/04 13:55:31  5-MIN KMSN 031955Z 19007KT 10SM OVC035 10/02 A3019 620 56 200 190/07 RMK AO2
14837KMSN MSN20041103140009511/03/04 14:00:31  5-MIN KMSN 032000Z 19005KT 10SM OVC037 10/02 A3018 620 56 200 190/05 RMK AO2
14837KMSN MSN20041103140509511/03/04 14:05:31  5-MIN KMSN 032005Z 16006KT 10SM OVC037 10/02 A3018 620 56 200 160/06 RMK AO2
14837KMSN MSN20041103141009511/03/04 14:10:31  5-MIN KMSN 032010Z VRB05KT 10SM OVC037 10/02 A3018 630 58 200 VRB/05 RMK AO2
14837KMSN MSN20041103141509511/03/04 14:15:31  5-MIN KMSN 032015Z 19006KT 10SM OVC039 11/02 A3018 630 54 300 190/06 RMK AO2
14837KMSN MSN20041103142009511/03/04 14:20:31  5-MIN KMSN 032020Z 17007KT 10SM OVC039 10/02 A3017 630 56 200 170/07 RMK AO2
14837KMSN MSN20041103142509511/03/04 14:25:31  5-MIN KMSN 032025Z 16005KT 10SM OVC039 10/02 A3017 630 56 200 160/05 RMK AO2
14837KMSN MSN20041103143009511/03/04 14:30:31  5-MIN KMSN 032030Z 18005KT 10SM OVC039 10/02 A3017 640 56 200 180/05 RMK AO2
14837KMSN MSN20041103143509511/03/04 14:35:31  5-MIN KMSN 032035Z 16005KT 10SM OVC041 10/02 A3017 640 56 200 160/05 RMK AO2
14837KMSN MSN20041103144009511/03/04 14:40:31  5-MIN KMSN 032040Z 18005KT 10SM OVC041 10/02 A3016 640 56 200 180/05 RMK AO2
14837KMSN MSN20041103144509511/03/04 14:45:31  5-MIN KMSN 032045Z 18006KT 10SM OVC041 10/02 A3016 640 56 200 170/06 RMK AO2
14837KMSN MSN20041103145011811/03/04 14:50:31  5-MIN KMSN 032050Z 18006KT 10SM OVC041 10/02 A3016 640 56 200 180/06 RMK AO2 SLP219 T01000017 58024
14837KMSN MSN20041103145509511/03/04 14:55:31  5-MIN KMSN 032055Z 17005KT 10SM OVC041 10/02 A3016 640 56 200 170/05 RMK AO2
14837KMSN MSN20041103150009511/03/04 15:00:31  5-MIN KMSN 032100Z 17006KT 10SM OVC041 10/02 A3016 640 58 200 170/06 RMK AO2
14837KMSN MSN20041103150509511/03/04 15:05:31  5-MIN KMSN 032105Z 17005KT 10SM OVC041 10/02 A3016 640 58 200 170/05 RMK AO2
14837KMSN MSN20041103151009511/03/04 15:10:31  5-MIN KMSN 032110Z 18005KT 10SM OVC041 10/02 A3016 640 56 200 180/05 RMK AO2
14837KMSN MSN20041103151509511/03/04 15:15:31  5-MIN KMSN 032115Z 15005KT 10SM OVC041 10/02 A3016 650 56 200 150/05 RMK AO2
14837KMSN MSN20041103152009511/03/04 15:20:31  5-MIN KMSN 032120Z 18004KT 10SM OVC041 10/02 A3015 650 56 200 180/04 RMK AO2
14837KMSN MSN20041103152509511/03/04 15:25:31  5-MIN KMSN 032125Z 10004KT 10SM OVC041 10/02 A3015 650 58 300 100/04 RMK AO2
14837KMSN MSN20041103153009511/03/04 15:30:31  5-MIN KMSN 032130Z 00000KT 10SM OVC039 10/02 A3015 660 58 300 000/00 RMK AO2
14837KMSN MSN20041103153509511/03/04 15:35:31  5-MIN KMSN 032135Z 11006KT 10SM OVC039 10/02 A3014 660 58 300 110/06 RMK AO2
14837KMSN MSN20041103154009511/03/04 15:40:31  5-MIN KMSN 032140Z 04004KT 10SM OVC039 10/03 A3014 660 60 300 040/04 RMK AO2
14837KMSN MSN20041103154509511/03/04 15:45:31  5-MIN KMSN 032145Z 02004KT 10SM OVC039 10/03 A3014 660 60 300 020/04 RMK AO2
14837KMSN MSN20041103155011211/03/04 15:50:31  5-MIN KMSN 032150Z 03003KT 10SM OVC039 10/03 A3014 660 60 300 030/03 RMK AO2 SLP211 T01000028
14837KMSN MSN20041103155509511/03/04 15:55:31  5-MIN KMSN 032155Z 06004KT 10SM OVC039 10/03 A3014 660 60 300 050/04 RMK AO2
14837KMSN MSN20041103160009511/03/04 16:00:31  5-MIN KMSN 032200Z 04005KT 10SM OVC039 09/02 A3014 660 60 200 040/05 RMK AO2
14837KMSN MSN20041103160509511/03/04 16:05:31  5-MIN KMSN 032205Z 05004KT 10SM OVC039 09/03 A3014 660 63 200 050/04 RMK AO2
14837KMSN MSN20041103161009511/03/04 16:10:31  5-MIN KMSN 032210Z 04003KT 10SM OVC039 09/03 A3014 660 63 200 040/03 RMK AO2
14837KMSN MSN20041103161509511/03/04 16:15:31  5-MIN KMSN 032215Z 04005KT 10SM OVC039 09/03 A3014 660 68 100 040/05 RMK AO2
14837KMSN MSN20041103162009511/03/04 16:20:31  5-MIN KMSN 032220Z 04006KT 10SM OVC039 09/03 A3014 670 68 100 040/06 RMK AO2
14837KMSN MSN20041103162509511/03/04 16:25:31  5-MIN KMSN 032225Z 04005KT 10SM OVC039 09/03 A3014 670 68 100 040/05 RMK AO2
14837KMSN MSN20041103163009511/03/04 16:30:31  5-MIN KMSN 032230Z 03004KT 10SM OVC039 09/03 A3014 670 68 100 030/04 RMK AO2
14837KMSN MSN20041103163509511/03/04 16:35:31  5-MIN KMSN 032235Z 03004KT 10SM OVC039 09/03 A3014 670 68 100 030/04 RMK AO2
14837KMSN MSN20041103164009511/03/04 16:40:31  5-MIN KMSN 032240Z 02004KT 10SM OVC037 09/03 A3013 670 68 100 020/04 RMK AO2
14837KMSN MSN20041103164509511/03/04 16:45:31  5-MIN KMSN 032245Z 03004KT 10SM OVC037 09/03 A3012 680 65 100 030/04 RMK AO2
14837KMSN MSN20041103165011211/03/04 16:50:31  5-MIN KMSN 032250Z 03004KT 10SM OVC037 09/03 A3012 680 68 100 030/04 RMK AO2 SLP205 T00890033
14837KMSN MSN20041103165509511/03/04 16:55:31  5-MIN KMSN 032255Z 04004KT 10SM OVC037 08/03 A3012 680 70 100 040/04 RMK AO2
14837KMSN MSN20041103170009511/03/04 17:00:31  5-MIN KMSN 032300Z 05005KT 10SM OVC037 08/03 A3012 680 70 100 050/05 RMK AO2
14837KMSN MSN20041103170509511/03/04 17:05:31  5-MIN KMSN 032305Z 06005KT 10SM OVC037 08/03 A3012 680 70 100 060/05 RMK AO2
14837KMSN MSN20041103171009511/03/04 17:10:31  5-MIN KMSN 032310Z 07004KT 10SM OVC037 09/03 A3012 680 65 100 070/04 RMK AO2
14837KMSN MSN20041103171509511/03/04 17:15:31  5-MIN KMSN 032315Z 07004KT 10SM OVC037 09/03 A3012 680 65 200 070/04 RMK AO2
14837KMSN MSN20041103172009511/03/04 17:20:31  5-MIN KMSN 032320Z 10005KT 10SM OVC037 09/03 A3012 680 65 100 100/05 RMK AO2
14837KMSN MSN20041103172509511/03/04 17:25:31  5-MIN KMSN 032325Z 13007KT 10SM OVC037 09/02 A3012 680 63 200 130/07 RMK AO2
14837KMSN MSN20041103173009511/03/04 17:30:31  5-MIN KMSN 032330Z 12006KT 10SM OVC037 09/02 A3012 680 63 100 120/06 RMK AO2
14837KMSN MSN20041103173509511/03/04 17:35:31  5-MIN KMSN 032335Z 12006KT 10SM BKN037 09/02 A3012 680 63 200 110/06 RMK AO2
14837KMSN MSN20041103174009511/03/04 17:40:31  5-MIN KMSN 032340Z 11006KT 10SM BKN037 08/02 A3011 690 65 100 110/06 RMK AO2
14837KMSN MSN20041103174509311/03/04 17:45:31  5-MIN KMSN 032345Z 10007KT 10SM SCT037 08/02 A3011 690 68 0 100/07 RMK AO2
14837KMSN MSN20041103175012811/03/04 17:50:31  5-MIN KMSN 032350Z 09007KT 10SM FEW037 08/02 A3011 690 68 0 090/07 RMK AO2 SLP200 T00780022 10106 20078 57022
14837KMSN MSN20041103175509311/03/04 17:55:31  5-MIN KMSN 032355Z 10007KT 10SM FEW037 07/02 A3011 690 70 0 100/07 RMK AO2
14837KMSN MSN20041103180009311/03/04 18:00:31  5-MIN KMSN 040000Z 11007KT 10SM FEW037 07/02 A3011 690 70 0 110/07 RMK AO2
14837KMSN MSN20041103180509011/03/04 18:05:31  5-MIN KMSN 040005Z 11006KT 10SM CLR 07/02 A3010 700 70 0 110/06 RMK AO2
14837KMSN MSN20041103181009011/03/04 18:10:31  5-MIN KMSN 040010Z 10008KT 10SM CLR 07/02 A3010 700 70 0 100/08 RMK AO2
14837KMSN MSN20041103181509211/03/04 18:15:31  5-MIN KMSN 040015Z 10007KT 10SM CLR 08/03 A3009 710 73 100 100/07 RMK AO2
14837KMSN MSN20041103182009011/03/04 18:20:31  5-MIN KMSN 040020Z 10006KT 10SM CLR 07/03 A3009 710 76 0 100/06 RMK AO2
14837KMSN MSN20041103182509011/03/04 18:25:31  5-MIN KMSN 040025Z 10005KT 10SM CLR 07/03 A3009 710 76 0 100/05 RMK AO2
14837KMSN MSN20041103183009311/03/04 18:30:31  5-MIN KMSN 040030Z 10006KT 10SM FEW037 07/03 A3009 710 76 0 100/06 RMK AO2
14837KMSN MSN20041103183509311/03/04 18:35:31  5-MIN KMSN 040035Z 10007KT 10SM FEW037 07/03 A3009 710 76 0 100/07 RMK AO2
14837KMSN MSN20041103184009311/03/04 18:40:31  5-MIN KMSN 040040Z 11008KT 10SM FEW037 07/04 A3009 710 79 0 110/08 RMK AO2
14837KMSN MSN20041103184509311/03/04 18:45:31  5-MIN KMSN 040045Z 10008KT 10SM FEW037 07/04 A3009 710 82 0 100/08 RMK AO2
14837KMSN MSN20041103185011011/03/04 18:50:31  5-MIN KMSN 040050Z 10007KT 10SM FEW037 07/04 A3009 710 82 0 100/07 RMK AO2 SLP194 T00670039
14837KMSN MSN20041103185509311/03/04 18:55:31  5-MIN KMSN 040055Z 11007KT 10SM FEW037 07/04 A3009 710 82 0 110/07 RMK AO2
14837KMSN MSN20041103190009311/03/04 19:00:31  5-MIN KMSN 040100Z 11007KT 10SM FEW037 07/04 A3008 710 82 0 110/07 RMK AO2
14837KMSN MSN20041103190509311/03/04 19:05:31  5-MIN KMSN 040105Z 10007KT 10SM FEW037 07/03 A3008 720 79 0 100/07 RMK AO2
14837KMSN MSN20041103191009311/03/04 19:10:31  5-MIN KMSN 040110Z 11006KT 10SM FEW037 07/03 A3008 710 79 0 110/06 RMK AO2
14837KMSN MSN20041103191509611/03/04 19:15:31  5-MIN KMSN 040115Z 10007KT 10SM FEW037 06/03 A3008 720 82 -100 100/07 RMK AO2
14837KMSN MSN20041103192009311/03/04 19:20:31  5-MIN KMSN 040120Z 09006KT 10SM FEW037 07/03 A3007 720 79 0 090/06 RMK AO2
14837KMSN MSN20041103192509311/03/04 19:25:31  5-MIN KMSN 040125Z 09006KT 10SM FEW037 07/03 A3007 730 79 0 090/06 RMK AO2
14837KMSN MSN20041103193009311/03/04 19:30:31  5-MIN KMSN 040130Z 07006KT 10SM FEW037 07/03 A3006 730 79 0 070/06 RMK AO2
14837KMSN MSN20041103193509611/03/04 19:35:31  5-MIN KMSN 040135Z 08006KT 10SM FEW037 06/03 A3007 730 82 -100 080/06 RMK AO2
14837KMSN MSN20041103194009511/03/04 19:40:31  5-MIN KMSN 040140Z 09006KT 9SM FEW037 06/03 A3007 730 82 -100 080/06 RMK AO2
14837KMSN MSN20041103194509611/03/04 19:45:31  5-MIN KMSN 040145Z 09006KT 10SM FEW037 06/04 A3007 720 86 -100 090/06 RMK AO2
14837KMSN MSN20041103195011011/03/04 19:50:31  5-MIN KMSN 040150Z 10006KT 10SM FEW037 07/04 A3008 720 82 0 100/06 RMK AO2 SLP191 T00670039
14837KMSN MSN20041103195509211/03/04 19:55:31  5-MIN KMSN 040155Z 12005KT 9SM CLR 06/04 A3008 720 86 -100 120/05 RMK AO2
14837KMSN MSN20041103200009211/03/04 20:00:31  5-MIN KMSN 040200Z 09007KT 9SM FEW037 07/04 A3007 730 82 0 090/07 RMK AO2
14837KMSN MSN20041103200509211/03/04 20:05:31  5-MIN KMSN 040205Z 10006KT 9SM FEW037 07/04 A3007 730 82 0 100/06 RMK AO2
14837KMSN MSN20041103201009211/03/04 20:10:31  5-MIN KMSN 040210Z 09005KT 9SM FEW037 07/04 A3007 730 82 0 090/05 RMK AO2
14837KMSN MSN20041103201509211/03/04 20:15:31  5-MIN KMSN 040215Z 09007KT 9SM FEW037 07/04 A3006 740 82 0 090/07 RMK AO2
14837KMSN MSN20041103202010011/03/04 20:20:31  5-MIN KMSN 040220Z 07008KT 10SM FEW037 07/04 A3005 750 82 0 070/08 RMK AO2 PRESFR
14837KMSN MSN20041103202509311/03/04 20:25:31  5-MIN KMSN 040225Z 07007KT 10SM FEW037 07/04 A3004 750 86 0 070/07 RMK AO2
14837KMSN MSN20041103203009211/03/04 20:30:31  5-MIN KMSN 040230Z 08006KT 9SM FEW037 07/04 A3005 740 86 0 080/06 RMK AO2
14837KMSN MSN20041103203509211/03/04 20:35:31  5-MIN KMSN 040235Z 09005KT 9SM FEW037 07/04 A3006 740 82 0 090/05 RMK AO2
14837KMSN MSN20041103204009211/03/04 20:40:31  5-MIN KMSN 040240Z 11004KT 9SM FEW037 07/04 A3006 740 82 0 110/04 RMK AO2
14837KMSN MSN20041103204509211/03/04 20:45:31  5-MIN KMSN 040245Z 10006KT 9SM FEW037 07/04 A3005 740 86 0 100/06 RMK AO2
14837KMSN MSN20041103205011511/03/04 20:50:31  5-MIN KMSN 040250Z 08005KT 9SM SCT040 07/04 A3005 750 82 0 080/05 RMK AO2 SLP180 T00720044 56019
14837KMSN MSN20041103205509211/03/04 20:55:31  5-MIN KMSN 040255Z 07005KT 9SM SCT040 07/04 A3004 750 79 0 070/05 RMK AO2
14837KMSN MSN20041103210009211/03/04 21:00:31  5-MIN KMSN 040300Z 07004KT 9SM SCT040 07/04 A3005 750 79 0 070/04 RMK AO2
14837KMSN MSN20041103210509211/03/04 21:05:31  5-MIN KMSN 040305Z 10005KT 9SM FEW120 07/04 A3005 750 79 0 100/05 RMK AO2
14837KMSN MSN20041103211009311/03/04 21:10:31  5-MIN KMSN 040310Z 09005KT 10SM SCT120 07/04 A3005 750 79 0 090/05 RMK AO2
14837KMSN MSN20041103211509311/03/04 21:15:31  5-MIN KMSN 040315Z 00000KT 10SM BKN110 07/04 A3004 750 79 0 000/00 RMK AO2
14837KMSN MSN20041103212009211/03/04 21:20:31  5-MIN KMSN 040320Z 00000KT 9SM BKN110 07/04 A3005 750 79 0 000/00 RMK AO2
14837KMSN MSN20041103212509211/03/04 21:25:31  5-MIN KMSN 040325Z 00000KT 9SM BKN110 07/04 A3004 750 86 0 000/00 RMK AO2
14837KMSN MSN20041103213009211/03/04 21:30:31  5-MIN KMSN 040330Z 00000KT 9SM BKN110 07/04 A3004 760 79 0 000/00 RMK AO2
14837KMSN MSN20041103213509911/03/04 21:35:31  5-MIN KMSN 040335Z 00000KT 9SM FEW027 BKN110 07/04 A3003 760 82 0 000/00 RMK AO2
14837KMSN MSN20041103214010611/03/04 21:40:31  5-MIN KMSN 040340Z 03003KT 9SM FEW027 BKN110 07/04 A3002 770 82 0 030/03 RMK AO2 PRESFR
14837KMSN MSN20041103214509911/03/04 21:45:31  5-MIN KMSN 040345Z 36003KT 9SM FEW027 BKN110 07/04 A3002 770 82 0 360/03 RMK AO2
14837KMSN MSN20041103215011611/03/04 21:50:31  5-MIN KMSN 040350Z 00000KT 9SM FEW027 BKN110 07/04 A3002 770 82 0 000/00 RMK AO2 SLP171 T00670039
14837KMSN MSN20041103215510011/03/04 21:55:31  5-MIN KMSN 040355Z 05003KT 10SM FEW027 OVC110 07/04 A3002 780 82 0 050/03 RMK AO2
14837KMSN MSN20041103220010211/03/04 22:00:31  5-MIN KMSN 040400Z VRB03KT 10SM FEW027 OVC110 07/04 A3002 780 79 100 VRB/03 RMK AO2
14837KMSN MSN20041103220509311/03/04 22:05:31  5-MIN KMSN 040405Z 00000KT 10SM BKN110 07/04 A3001 780 82 0 000/00 RMK AO2
14837KMSN MSN20041103221009311/03/04 22:10:31  5-MIN KMSN 040410Z 00000KT 10SM OVC110 07/04 A3001 780 82 0 000/00 RMK AO2
14837KMSN MSN20041103221511111/03/04 22:15:31  5-MIN KMSN 040415Z 00000KT 10SM -RA OVC110 07/04 A3001 780 79 100 000/00 RMK AO2 RAB15 P0000
14837KMSN MSN20041103222011111/03/04 22:20:31  5-MIN KMSN 040420Z 00000KT 10SM -RA BKN110 07/04 A3000 790 79 100 000/00 RMK AO2 RAB15 P0000
14837KMSN MSN20041103222511111/03/04 22:25:31  5-MIN KMSN 040425Z 00000KT 10SM -RA BKN110 07/04 A3000 790 79 100 000/00 RMK AO2 RAB15 P0000
14837KMSN MSN20041103223011111/03/04 22:30:31  5-MIN KMSN 040430Z 06003KT 10SM -RA BKN110 07/04 A2999 800 79 100 060/03 RMK AO2 RAB15 P0000
14837KMSN MSN20041103223510911/03/04 22:35:31  5-MIN KMSN 040435Z 04005KT 10SM -RA BKN110 07/04 A2999 800 82 0 040/05 RMK AO2 RAB15 P0000
14837KMSN MSN20041103224010811/03/04 22:40:31  5-MIN KMSN 040440Z 05006KT 10SM SCT110 07/04 A2998 810 82 0 050/06 RMK AO2 RAB15E40 P0000
14837KMSN MSN20041103224511511/03/04 22:45:31  5-MIN KMSN 040445Z 06006KT 10SM FEW110 07/04 A2998 810 82 0 060/06 RMK AO2 RAB15E40 PRESFR P0000
14837KMSN MSN20041103225013211/03/04 22:50:31  5-MIN KMSN 040450Z 07007KT 10SM FEW110 07/04 A2997 820 82 0 060/07 RMK AO2 RAB15E40 PRESFR SLP154 P0000 T00670039
14837KMSN MSN20041103225509411/03/04 22:55:31  5-MIN KMSN 040455Z 07007KT 9SM FEW110 07/04 A2997 820 82 100 070/07 RMK AO2
14837KMSN MSN20041103230009411/03/04 23:00:31  5-MIN KMSN 040500Z 07007KT 9SM FEW110 07/04 A2996 820 79 100 070/07 RMK AO2
14837KMSN MSN20041103230509411/03/04 23:05:31  5-MIN KMSN 040505Z 06006KT 9SM FEW110 07/04 A2996 820 82 100 060/06 RMK AO2
14837KMSN MSN20041103231009411/03/04 23:10:31  5-MIN KMSN 040510Z 05005KT 9SM FEW110 07/04 A2996 830 82 100 050/05 RMK AO2
14837KMSN MSN20041103231510111/03/04 23:15:31  5-MIN KMSN 040515Z 06006KT 8SM FEW024 SCT110 07/04 A2996 830 82 100 060/06 RMK AO2
14837KMSN MSN20041103232010111/03/04 23:20:31  5-MIN KMSN 040520Z 07007KT 9SM FEW024 BKN100 07/04 A2996 830 82 100 070/07 RMK AO2
14837KMSN MSN20041103232510111/03/04 23:25:31  5-MIN KMSN 040525Z 07007KT 8SM FEW024 BKN110 07/04 A2996 830 82 100 070/07 RMK AO2
14837KMSN MSN20041103233010111/03/04 23:30:31  5-MIN KMSN 040530Z 06007KT 8SM FEW024 BKN110 07/04 A2995 840 82 100 060/07 RMK AO2
14837KMSN MSN20041103233510111/03/04 23:35:31  5-MIN KMSN 040535Z 07006KT 8SM FEW024 OVC110 07/04 A2995 840 82 100 070/06 RMK AO2
14837KMSN MSN20041103234010111/03/04 23:40:31  5-MIN KMSN 040540Z 08005KT 8SM FEW024 OVC110 07/04 A2995 840 82 100 080/05 RMK AO2
14837KMSN MSN20041103234509411/03/04 23:45:31  5-MIN KMSN 040545Z 09006KT 8SM OVC110 07/04 A2995 830 82 100 090/06 RMK AO2
14837KMSN MSN20041103235014511/03/04 23:50:31  5-MIN KMSN 040550Z 10004KT 8SM OVC110 07/04 A2995 830 82 100 100/04 RMK AO2 SLP148 60000 T00720044 10078 20061 401110056 58021
14837KMSN MSN20041103235509411/03/04 23:55:31  5-MIN KMSN 040555Z 07003KT 8SM OVC100 07/04 A2995 840 82 100 070/03 RMK AO2
14837KMSN MSN20041104000009411/04/04 00:00:31  5-MIN KMSN 040600Z 03003KT 8SM OVC100 07/04 A2994 840 82 100 030/03 RMK AO2
14837KMSN MSN20041104000509411/04/04 00:05:31  5-MIN KMSN 040605Z 04004KT 8SM OVC100 07/04 A2994 840 82 200 040/04 RMK AO2
14837KMSN MSN20041104001009411/04/04 00:10:31  5-MIN KMSN 040610Z 04004KT 8SM OVC100 07/04 A2994 850 82 200 040/04 RMK AO2
14837KMSN MSN20041104001509411/04/04 00:15:31  5-MIN KMSN 040615Z 04004KT 8SM OVC100 07/04 A2993 850 82 200 030/04 RMK AO2
14837KMSN MSN20041104002009411/04/04 00:20:31  5-MIN KMSN 040620Z 04004KT 7SM OVC100 07/04 A2993 860 82 200 040/04 RMK AO2
14837KMSN MSN20041104002509411/04/04 00:25:31  5-MIN KMSN 040625Z 05003KT 7SM OVC100 07/04 A2993 860 82 200 050/03 RMK AO2
14837KMSN MSN20041104003009411/04/04 00:30:31  5-MIN KMSN 040630Z 04003KT 7SM OVC100 07/04 A2992 860 82 200 030/03 RMK AO2
14837KMSN MSN20041104003509411/04/04 00:35:31  5-MIN KMSN 040635Z 36003KT 7SM OVC100 07/04 A2992 860 82 200 360/03 RMK AO2
14837KMSN MSN20041104004010111/04/04 00:40:31  5-MIN KMSN 040640Z 34003KT 7SM FEW020 OVC100 07/04 A2992 860 86 100 340/03 RMK AO2
14837KMSN MSN20041104004510111/04/04 00:45:31  5-MIN KMSN 040645Z 36003KT 7SM FEW020 OVC100 07/04 A2992 860 82 200 360/03 RMK AO2
14837KMSN MSN20041104005013411/04/04 00:50:31  5-MIN KMSN 040650Z 00000KT 7SM -RA FEW020 OVC100 07/04 A2993 860 82 200 000/00 RMK AO2 RAB49 SLP137 P0000 T00720044
14837KMSN MSN20041104005511111/04/04 00:55:31  5-MIN KMSN 040655Z 00000KT 8SM -RA SCT020 OVC095 07/04 A2993 850 82 200 000/00 RMK AO2 P0000
14837KMSN MSN20041104010011111/04/04 01:00:31  5-MIN KMSN 040700Z 00000KT 7SM -RA SCT020 OVC090 07/04 A2993 860 82 200 000/00 RMK AO2 P0000
14837KMSN MSN20041104010511811/04/04 01:05:31  5-MIN KMSN 040705Z 12003KT 7SM -RA SCT020 BKN075 OVC100 07/04 A2993 860 82 200 120/03 RMK AO2 P0000
14837KMSN MSN20041104011012111/04/04 01:10:31  5-MIN KMSN 040710Z 12003KT 6SM -RA BR FEW020 BKN070 OVC095 07/05 A2993 860 89 100 120/03 RMK AO2 P0001
14837KMSN MSN20041104011511411/04/04 01:15:31  5-MIN KMSN 040715Z 10003KT 5SM -RA BR FEW020 OVC075 07/05 A2992 870 89 100 100/03 RMK AO2 P0001
14837KMSN MSN20041104012011411/04/04 01:20:31  5-MIN KMSN 040720Z 08004KT 5SM -RA BR FEW020 OVC070 07/05 A2991 870 86 200 070/04 RMK AO2 P0001
14837KMSN MSN20041104012512811/04/04 01:25:31  5-MIN KMSN 040725Z 05004KT 5SM -RA BR FEW020 BKN060 OVC075 07/06 A2990 880 93 100 050/04 RMK AO2 PRESFR P0002
14837KMSN MSN20041104013011411/04/04 01:30:31  5-MIN KMSN 040730Z 04003KT 5SM -RA BR BKN065 OVC080 07/06 A2990 880 93 100 030/03 RMK AO2 P0002
14837KMSN MSN20041104013511411/04/04 01:35:31  5-MIN KMSN 040735Z 00000KT 4SM -RA BR BKN060 OVC075 07/06 A2990 880 93 100 000/00 RMK AO2 P0003
14837KMSN MSN20041104014011411/04/04 01:40:31  5-MIN KMSN 040740Z 00000KT 4SM -RA BR BKN060 OVC070 07/06 A2990 880 93 100 000/00 RMK AO2 P0003
14837KMSN MSN20041104014511411/04/04 01:45:31  5-MIN KMSN 040745Z 00000KT 3SM -RA BR BKN055 OVC070 07/06 A2989 890 93 100 000/00 RMK AO2 P0004
14837KMSN MSN20041104015013111/04/04 01:50:31  5-MIN KMSN 040750Z 00000KT 3SM -RA BR BKN060 OVC070 07/06 A2989 890 93 100 000/00 RMK AO2 SLP126 P0004 T00670056
14837KMSN MSN20041104015511411/04/04 01:55:31  5-MIN KMSN 040755Z 33003KT 3SM -RA BR BKN060 OVC070 06/06 A2988 900 96 100 330/03 RMK AO2 P0000
14837KMSN MSN20041104020011311/04/04 02:00:31  5-MIN KMSN 040800Z 33006KT 3SM RA BR BKN055 OVC070 06/06 A2988 900 96 100 330/06 RMK AO2 P0001
14837KMSN MSN20041104020512011/04/04 02:05:31  5-MIN KMSN 040805Z 34006KT 3SM RA BR BKN050 OVC070 06/06 A2987 910 96 100 340/06 RMK AO2 PRESFR P0002
14837KMSN MSN20041104021012111/04/04 02:10:31  5-MIN KMSN 040810Z 35005KT 3SM -RA BR BKN055 OVC070 06/06 A2987 910 96 100 340/05 RMK AO2 PRESFR P0003
14837KMSN MSN20041104021511411/04/04 02:15:31  5-MIN KMSN 040815Z 34005KT 3SM -RA BR BKN055 OVC070 06/06 A2986 920 96 100 340/05 RMK AO2 P0004
14837KMSN MSN20041104022011411/04/04 02:20:31  5-MIN KMSN 040820Z 33005KT 3SM -RA BR BKN055 OVC070 06/06 A2986 920 96 100 330/05 RMK AO2 P0004
14837KMSN MSN20041104022510711/04/04 02:25:31  5-MIN KMSN 040825Z 32005KT 3SM -RA BR OVC055 06/06 A2986 920 96 100 320/05 RMK AO2 P0005
14837KMSN MSN20041104023010711/04/04 02:30:31  5-MIN KMSN 040830Z 33006KT 3SM -RA BR OVC060 06/06 A2986 920 96 100 330/06 RMK AO2 P0005
14837KMSN MSN20041104023510711/04/04 02:35:31  5-MIN KMSN 040835Z 34006KT 4SM -RA BR OVC060 06/06 A2985 930 96 100 340/06 RMK AO2 P0005
14837KMSN MSN20041104024010711/04/04 02:40:31  5-MIN KMSN 040840Z 35006KT 3SM -RA BR OVC055 06/05 A2985 930 93 100 350/06 RMK AO2 P0006
14837KMSN MSN20041104024510711/04/04 02:45:31  5-MIN KMSN 040845Z 34006KT 3SM -RA BR OVC055 06/05 A2985 930 93 100 340/06 RMK AO2 P0006
14837KMSN MSN20041104025013611/04/04 02:50:31  5-MIN KMSN 040850Z 35006KT 3SM -RA BR OVC060 06/06 A2985 930 96 100 350/06 RMK AO2 SLP112 P0007 60012 T00610056 56031
14837KMSN MSN20041104025511411/04/04 02:55:31  5-MIN KMSN 040855Z 35005KT 4SM -RA BR BKN060 OVC080 06/06 A2985 930 96 100 350/05 RMK AO2 P0000
14837KMSN MSN20041104030011411/04/04 03:00:31  5-MIN KMSN 040900Z 03003KT 4SM -RA BR BKN060 OVC080 06/06 A2987 910 96 100 030/03 RMK AO2 P0000
14837KMSN MSN20041104030512111/04/04 03:05:31  5-MIN KMSN 040905Z 10004KT 4SM -RA BR SCT055 OVC075 06/06 A2988 900 96 100 100/04 RMK AO2 PRESRR P0000
14837KMSN MSN20041104031012111/04/04 03:10:31  5-MIN KMSN 040910Z 11003KT 4SM -RA BR FEW015 BKN060 OVC080 07/06 A2988 900 93 200 110/03 RMK AO2 P0000
14837KMSN MSN20041104031512111/04/04 03:15:31  5-MIN KMSN 040915Z 00000KT 4SM -RA BR SCT015 BKN065 OVC080 07/06 A2988 900 93 200 000/00 RMK AO2 P0001
14837KMSN MSN20041104032012111/04/04 03:20:31  5-MIN KMSN 040920Z 00000KT 3SM -RA BR FEW015 BKN047 OVC080 07/06 A2986 920 93 200 000/00 RMK AO2 P0002
14837KMSN MSN20041104032512511/04/04 03:25:31  5-MIN KMSN 040925Z 32004KT 2 1/2SM -RA BR FEW015 BKN045 OVC080 06/06 A2986 920 96 100 310/04 RMK AO2 P0002
14837KMSN MSN20041104033012511/04/04 03:30:31  5-MIN KMSN 040930Z 32003KT 2 1/2SM -RA BR FEW015 BKN049 OVC070 06/06 A2986 920 96 100 320/03 RMK AO2 P0002
14837KMSN MSN20041104033511411/04/04 03:35:31  5-MIN KMSN 040935Z 35004KT 3SM -RA BR FEW015 OVC060 06/06 A2987 910 96 100 350/04 RMK AO2 P0002
14837KMSN MSN20041104034011411/04/04 03:40:31  5-MIN KMSN 040940Z 36004KT 4SM -RA BR FEW013 OVC060 06/06 A2987 910 96 100 360/04 RMK AO2 P0002
14837KMSN MSN20041104034511611/04/04 03:45:31  5-MIN KMSN 040945Z 36005KT 4SM BR FEW013 OVC060 06/06 A2987 910 96 100 360/05 RMK AO2 RAE42 P0002
14837KMSN MSN20041104035013111/04/04 03:50:31  5-MIN KMSN 040950Z 36007KT 4SM -RA BR FEW013 OVC060 06/06 A2985 930 96 100 360/07 RMK AO2 SLP114 P0002 T00610056
14837KMSN MSN20041104035512811/04/04 03:55:31  5-MIN KMSN 040955Z 34007KT 4SM -RA BR FEW013 BKN060 OVC080 06/06 A2984 940 96 100 330/07 RMK AO2 PRESFR P0000
14837KMSN MSN20041104040012111/04/04 04:00:31  5-MIN KMSN 041000Z 34006KT 4SM -RA BR FEW013 BKN060 OVC080 06/05 A2984 940 93 100 340/06 RMK AO2 P0000
14837KMSN MSN20041104040512111/04/04 04:05:31  5-MIN KMSN 041005Z 35006KT 4SM -RA BR FEW016 BKN060 OVC080 06/05 A2983 950 93 100 340/06 RMK AO2 P0000
14837KMSN MSN20041104041012111/04/04 04:10:31  5-MIN KMSN 041010Z 35008KT 4SM -RA BR FEW013 BKN060 OVC080 06/05 A2983 950 93 100 350/08 RMK AO2 P0000
14837KMSN MSN20041104041512111/04/04 04:15:31  5-MIN KMSN 041015Z 35006KT 4SM -RA BR SCT014 SCT022 BKN048 06/05 A2984 940 93 100 350/06 RMK AO2 P0000
14837KMSN MSN20041104042012311/04/04 04:20:31  5-MIN KMSN 041020Z 35005KT 5SM BR SCT014 BKN022 OVC080 06/05 A2984 940 93 100 350/05 RMK AO2 RAE18 P0000
14837KMSN MSN20041104042512311/04/04 04:25:31  5-MIN KMSN 041025Z 35004KT 4SM BR SCT014 BKN022 OVC080 06/05 A2984 940 93 100 340/04 RMK AO2 RAE18 P0000
14837KMSN MSN20041104043012311/04/04 04:30:31  5-MIN KMSN 041030Z 34004KT 4SM BR SCT014 BKN022 OVC048 06/05 A2984 940 93 100 340/04 RMK AO2 RAE18 P0000
14837KMSN MSN20041104043511611/04/04 04:35:31  5-MIN KMSN 041035Z 35006KT 4SM BR SCT014 OVC022 06/05 A2983 940 93 100 350/06 RMK AO2 RAE18 P0000
14837KMSN MSN20041104044011611/04/04 04:40:31  5-MIN KMSN 041040Z 34007KT 5SM BR SCT014 OVC022 06/05 A2983 950 93 100 340/07 RMK AO2 RAE18 P0000
14837KMSN MSN20041104044511611/04/04 04:45:31  5-MIN KMSN 041045Z 33006KT 5SM BR SCT017 OVC022 06/05 A2983 950 93 100 330/06 RMK AO2 RAE18 P0000
14837KMSN MSN20041104045014711/04/04 04:50:31  5-MIN KMSN 041050Z 34006KT 4SM -RA BR BKN017 BKN022 OVC070 06/05 A2983 950 93 100 330/06 RMK AO2 RAE18B48 SLP104 P0000 T00610050
14837KMSN MSN20041104045512111/04/04 04:55:31  5-MIN KMSN 041055Z 34006KT 4SM -RA BR SCT017 BKN022 OVC075 06/05 A2982 950 93 200 340/06 RMK AO2 P0000
14837KMSN MSN20041104050012111/04/04 05:00:31  5-MIN KMSN 041100Z 34007KT 5SM -RA BR SCT017 BKN024 OVC075 06/05 A2982 960 93 200 340/07 RMK AO2 P0000
14837KMSN MSN20041104050512111/04/04 05:05:31  5-MIN KMSN 041105Z 35006KT 5SM -RA BR BKN018 BKN026 OVC075 06/05 A2982 960 93 200 350/06 RMK AO2 P0000
14837KMSN MSN20041104051011411/04/04 05:10:31  5-MIN KMSN 041110Z 35005KT 5SM -RA BR BKN018 OVC026 06/05 A2983 950 93 100 350/05 RMK AO2 P0000
14837KMSN MSN20041104051511411/04/04 05:15:31  5-MIN KMSN 041115Z 33004KT 5SM -RA BR BKN018 OVC026 06/05 A2983 950 93 100 330/04 RMK AO2 P0000
14837KMSN MSN20041104052011411/04/04 05:20:31  5-MIN KMSN 041120Z VRB03KT 5SM -RA BR BKN020 OVC026 06/05 A2983 950 93 100 VRB/03 RMK AO2 P0000
14837KMSN MSN20041104052511411/04/04 05:25:31  5-MIN KMSN 041125Z 33004KT 5SM -RA BR BKN020 OVC028 06/05 A2983 950 93 100 330/04 RMK AO2 P0000
14837KMSN MSN20041104053011411/04/04 05:30:31  5-MIN KMSN 041130Z 34004KT 5SM -RA BR BKN020 OVC028 06/05 A2982 950 93 200 340/04 RMK AO2 P0000
14837KMSN MSN20041104053511611/04/04 05:35:31  5-MIN KMSN 041135Z 34006KT 5SM BR BKN020 OVC028 06/05 A2982 960 93 200 340/06 RMK AO2 RAE31 P0000
14837KMSN MSN20041104054011611/04/04 05:40:31  5-MIN KMSN 041140Z 33004KT 4SM BR SCT020 OVC028 06/05 A2982 960 93 200 330/04 RMK AO2 RAE31 P0000
14837KMSN MSN20041104054511611/04/04 05:45:31  5-MIN KMSN 041145Z 32004KT 4SM BR BKN024 OVC028 06/05 A2982 960 93 200 320/04 RMK AO2 RAE31 P0000
14837KMSN MSN20041104055016311/04/04 05:50:31  5-MIN KMSN 041150Z 32005KT 4SM BR BKN024 OVC028 06/05 A2982 960 93 200 320/05 RMK AO2 RAE31 SLP101 P0000 60014 70014 T00610050 10072 20061 58033
14837KMSN MSN20041104055510411/04/04 05:55:31  5-MIN KMSN 041155Z 33005KT 4SM BR BKN024 OVC028 06/05 A2982 960 93 200 330/05 RMK AO2
14837KMSN MSN20041104060009711/04/04 06:00:31  5-MIN KMSN 041200Z 32005KT 4SM BR OVC024 06/05 A2982 960 93 200 320/05 RMK AO2
14837KMSN MSN20041104060510411/04/04 06:05:31  5-MIN KMSN 041205Z 31005KT 4SM BR BKN024 OVC070 06/05 A2982 960 93 200 310/05 RMK AO2
14837KMSN MSN20041104061010411/04/04 06:10:31  5-MIN KMSN 041210Z 32005KT 4SM BR BKN024 OVC070 06/05 A2982 960 93 200 320/05 RMK AO2
14837KMSN MSN20041104061511111/04/04 06:15:31  5-MIN KMSN 041215Z 34004KT 4SM BR BKN024 BKN031 OVC070 06/05 A2982 960 93 200 330/04 RMK AO2
14837KMSN MSN20041104062011111/04/04 06:20:31  5-MIN KMSN 041220Z 34006KT 4SM BR SCT024 BKN060 OVC070 06/04 A2982 960 89 200 340/06 RMK AO2
14837KMSN MSN20041104062511111/04/04 06:25:31  5-MIN KMSN 041225Z 33004KT 4SM BR FEW018 BKN060 OVC070 06/04 A2982 950 89 200 330/04 RMK AO2
14837KMSN MSN20041104063012711/04/04 06:30:31  5-MIN KMSN 041230Z 33005KT 3SM -RA BR SCT018 BKN060 OVC070 06/04 A2982 950 89 200 330/05 RMK AO2 RAB27 P0001
14837KMSN MSN20041104063513911/04/04 06:35:31  5-MIN KMSN 041235Z 32005KT 3SM -RA BR FEW009 BKN029 OVC060 06/04 A2983 950 89 100 320/05 RMK AO2 RAB27 CIG 024V037 P0001
14837KMSN MSN20041104064012711/04/04 06:40:31  5-MIN KMSN 041240Z 32004KT 3SM -RA BR SCT009 BKN017 OVC060 06/05 A2983 950 93 100 320/04 RMK AO2 RAB27 P0001
14837KMSN MSN20041104064512711/04/04 06:45:31  5-MIN KMSN 041245Z 31005KT 3SM -RA BR SCT009 BKN017 OVC060 06/05 A2983 950 93 100 310/05 RMK AO2 RAB27 P0001
14837KMSN MSN20041104065014411/04/04 06:50:31  5-MIN KMSN 041250Z 34005KT 3SM -RA BR BKN009 BKN017 OVC040 06/05 A2983 950 93 100 340/05 RMK AO2 RAB27 SLP105 P0001 T00610050
14837KMSN MSN20041104065512111/04/04 06:55:31  5-MIN KMSN 041255Z 33005KT 3SM -RA BR BKN009 BKN017 OVC060 06/05 A2983 950 93 100 330/05 RMK AO2 P0000
14837KMSN MSN20041104070012111/04/04 07:00:31  5-MIN KMSN 041300Z 33005KT 3SM -RA BR SCT009 BKN018 OVC060 06/05 A2982 960 93 200 320/05 RMK AO2 P0001
14837KMSN MSN20041104070512111/04/04 07:05:31  5-MIN KMSN 041305Z 32005KT 3SM -RA BR SCT009 BKN020 OVC035 06/05 A2982 960 93 200 320/05 RMK AO2 P0001
14837KMSN MSN20041104071012111/04/04 07:10:31  5-MIN KMSN 041310Z 33004KT 3SM -RA BR FEW009 BKN033 OVC060 06/04 A2982 960 89 200 330/04 RMK AO2 P0001
14837KMSN MSN20041104071513511/04/04 07:15:31  5-MIN KMSN 041315Z 33005KT 2 1/2SM -RA BR FEW009 SCT021 OVC033 06/04 A2982 960 89 200 330/05 RMK AO2 TWR VIS 3 P0001
14837KMSN MSN20041104072013511/04/04 07:20:31  5-MIN KMSN 041320Z 32004KT 2 1/2SM -RA BR SCT022 BKN028 OVC033 06/05 A2982 960 93 200 320/04 RMK AO2 TWR VIS 3 P0002
14837KMSN MSN20041104072513111/04/04 07:25:31  5-MIN KMSN 041325Z 32005KT 2SM -RA BR BKN022 BKN028 OVC033 06/05 A2982 950 96 100 320/05 RMK AO2 TWR VIS 3 P0002
14837KMSN MSN20041104073012811/04/04 07:30:31  5-MIN KMSN 041330Z 32005KT 2 1/2SM -RA BR BKN023 OVC033 06/05 A2983 950 96 100 320/05 RMK AO2 TWR VIS 3 P0002
14837KMSN MSN20041104073512811/04/04 07:35:31  5-MIN KMSN 041335Z 32005KT 2 1/2SM -RA BR BKN025 OVC033 06/05 A2983 950 96 100 310/05 RMK AO2 TWR VIS 3 P0002
14837KMSN MSN20041104074013511/04/04 07:40:31  5-MIN KMSN 041340Z 31006KT 2 1/2SM -RA BR FEW013 BKN023 OVC030 06/05 A2983 950 96 100 310/06 RMK AO2 TWR VIS 3 P0003
14837KMSN MSN20041104074513511/04/04 07:45:31  5-MIN KMSN 041345Z 32004KT 2 1/2SM -RA BR FEW013 BKN023 OVC033 06/05 A2983 950 93 100 310/04 RMK AO2 TWR VIS 3 P0003
14837KMSN MSN20041104075013811/04/04 07:50:31  5-MIN KMSN 041350Z 32004KT 3SM -RA BR FEW013 SCT023 OVC033 06/05 A2983 950 93 100 320/04 RMK AO2 SLP107 P0003 T00610050
14837KMSN MSN20041104075513111/04/04 07:55:31  5-MIN KMSN 041355Z 31005KT 3SM -RA BR FEW013 SCT023 OVC033 06/05 A2983 950 93 100 310/05 RMK AO2 SFC VIS 3 P0000
14837KMSN MSN20041104080012811/04/04 08:00:31  5-MIN KMSN 041400Z 32004KT 3SM BR FEW013 OVC033 06/04 A2983 950 89 100 320/04 RMK AO2 SFC VIS 4 RAE1358 P0000
14837KMSN MSN20041104080511411/04/04 08:05:31  5-MIN KMSN 041405Z 31003KT 4SM -RA BR FEW013 OVC035 06/04 A2983 950 89 100 310/03 RMK AO2 P0000
14837KMSN MSN20041104081010711/04/04 08:10:31  5-MIN KMSN 041410Z 00000KT 4SM -RA BR OVC035 06/04 A2982 950 89 200 000/00 RMK AO2 P0000
14837KMSN MSN20041104081510711/04/04 08:15:31  5-MIN KMSN 041415Z 31003KT 4SM -RA BR OVC035 06/05 A2983 950 93 100 310/03 RMK AO2 P0000
14837KMSN MSN20041104082010711/04/04 08:20:31  5-MIN KMSN 041420Z 31004KT 4SM -RA BR OVC035 06/05 A2983 950 93 100 310/04 RMK AO2 P0000
14837KMSN MSN20041104082510911/04/04 08:25:31  5-MIN KMSN 041425Z 31005KT 4SM BR OVC035 06/05 A2983 950 93 100 310/05 RMK AO2 RAE23 P0000
14837KMSN MSN20041104083010911/04/04 08:30:31  5-MIN KMSN 041430Z 31005KT 4SM BR OVC035 06/05 A2982 950 93 200 310/05 RMK AO2 RAE23 P0000
14837KMSN MSN20041104083510911/04/04 08:35:31  5-MIN KMSN 041435Z 30005KT 4SM BR OVC035 07/05 A2982 960 89 200 300/05 RMK AO2 RAE23 P0000
14837KMSN MSN20041104084010911/04/04 08:40:31  5-MIN KMSN 041440Z 30004KT 4SM BR OVC035 07/05 A2982 960 89 200 300/04 RMK AO2 RAE23 P0000
14837KMSN MSN20041104084511611/04/04 08:45:31  5-MIN KMSN 041445Z 30005KT 4SM BR BKN035 OVC060 07/05 A2982 960 89 200 300/05 RMK AO2 RAE23 P0000
14837KMSN MSN20041104085014511/04/04 08:50:31  5-MIN KMSN 041450Z 29005KT 4SM BR BKN033 BKN060 07/06 A2982 960 93 200 290/05 RMK AO2 RAE23 SLP101 P0000 60004 T00670056 56011
14837KMSN MSN20041104085510411/04/04 08:55:31  5-MIN KMSN 041455Z 30006KT 4SM BR SCT033 BKN060 07/05 A2982 960 89 200 300/06 RMK AO2
14837KMSN MSN20041108023009611/08/04 02:30:31  5-MIN KMSN 080830Z 00000KT 10SM CLR M01/M09 A3036 460 51 -1200 000/00 RMK AO2
14837KMSN MSN20041108023509611/08/04 02:35:31  5-MIN KMSN 080835Z VRB03KT 10SM CLR M01/M09 A3037 450 53 -1300 VRB/03 RMK AO2
14837KMSN MSN20041108024009611/08/04 02:40:31  5-MIN KMSN 080840Z 00000KT 10SM CLR M01/M09 A3037 450 55 -1300 000/00 RMK AO2
14837KMSN MSN20041108024509611/08/04 02:45:31  5-MIN KMSN 080845Z 00000KT 10SM CLR M01/M09 A3037 450 53 -1300 000/00 RMK AO2
14837KMSN MSN20041108025011911/08/04 02:50:31  5-MIN KMSN 080850Z 29003KT 10SM CLR M01/M09 A3037 450 55 -1300 290/03 RMK AO2 SLP293 T10111089 53014
14837KMSN MSN20041108025509611/08/04 02:55:31  5-MIN KMSN 080855Z 29003KT 10SM CLR M01/M09 A3037 450 53 -1300 290/03 RMK AO2
14837KMSN MSN20041108030009611/08/04 03:00:31  5-MIN KMSN 080900Z 31003KT 10SM CLR M01/M09 A3037 450 53 -1300 310/03 RMK AO2
14837KMSN MSN20041108030509611/08/04 03:05:31  5-MIN KMSN 080905Z 32004KT 10SM CLR M01/M09 A3037 450 55 -1300 320/04 RMK AO2
14837KMSN MSN20041108031009611/08/04 03:10:31  5-MIN KMSN 080910Z 33003KT 10SM CLR M01/M09 A3037 450 55 -1300 330/03 RMK AO2
14837KMSN MSN20041108031509611/08/04 03:15:31  5-MIN KMSN 080915Z 34003KT 10SM CLR M01/M09 A3038 450 55 -1300 340/03 RMK AO2
14837KMSN MSN20041108032009611/08/04 03:20:31  5-MIN KMSN 080920Z 32003KT 10SM CLR M01/M09 A3038 440 55 -1300 310/03 RMK AO2
14837KMSN MSN20041108032509611/08/04 03:25:31  5-MIN KMSN 080925Z 30003KT 10SM CLR M01/M09 A3039 440 55 -1300 300/03 RMK AO2
14837KMSN MSN20041108033009611/08/04 03:30:31  5-MIN KMSN 080930Z 30003KT 10SM CLR M01/M09 A3039 430 53 -1300 300/03 RMK AO2
14837KMSN MSN20041108033509611/08/04 03:35:31  5-MIN KMSN 080935Z 31003KT 10SM CLR M01/M09 A3039 440 51 -1300 310/03 RMK AO2
14837KMSN MSN20041108034009611/08/04 03:40:31  5-MIN KMSN 080940Z 30003KT 10SM CLR M01/M09 A3039 440 53 -1300 300/03 RMK AO2
14837KMSN MSN20041108034509611/08/04 03:45:31  5-MIN KMSN 080945Z 31004KT 10SM CLR M01/M09 A3038 440 55 -1300 300/04 RMK AO2
14837KMSN MSN20041108035011311/08/04 03:50:31  5-MIN KMSN 080950Z 32003KT 10SM CLR M01/M09 A3038 440 55 -1300 320/03 RMK AO2 SLP297 T10111089
14837KMSN MSN20041108035509611/08/04 03:55:31  5-MIN KMSN 080955Z 00000KT 10SM CLR M02/M09 A3038 440 58 -1400 000/00 RMK AO2
14837KMSN MSN20041108040009611/08/04 04:00:31  5-MIN KMSN 081000Z 00000KT 10SM CLR M02/M09 A3039 430 58 -1400 000/00 RMK AO2
14837KMSN MSN20041108040509611/08/04 04:05:31  5-MIN KMSN 081005Z 00000KT 10SM CLR M02/M08 A3039 430 60 -1400 000/00 RMK AO2
14837KMSN MSN20041108041009611/08/04 04:10:31  5-MIN KMSN 081010Z 28003KT 10SM CLR M02/M08 A3040 430 63 -1400 280/03 RMK AO2
14837KMSN MSN20041108041509611/08/04 04:15:31  5-MIN KMSN 081015Z 29003KT 10SM CLR M02/M07 A3040 420 72 -1500 290/03 RMK AO2
14837KMSN MSN20041108042009611/08/04 04:20:31  5-MIN KMSN 081020Z 29003KT 10SM CLR M02/M08 A3040 420 66 -1500 290/03 RMK AO2
14837KMSN MSN20041108042509611/08/04 04:25:31  5-MIN KMSN 081025Z 30004KT 10SM CLR M02/M09 A3041 420 58 -1400 290/04 RMK AO2
14837KMSN MSN20041108043009611/08/04 04:30:31  5-MIN KMSN 081030Z 30004KT 10SM CLR M01/M09 A3041 420 55 -1400 290/04 RMK AO2
14837KMSN MSN20041108043509611/08/04 04:35:31  5-MIN KMSN 081035Z 29003KT 10SM CLR M02/M09 A3041 410 58 -1400 290/03 RMK AO2
14837KMSN MSN20041108044009611/08/04 04:40:31  5-MIN KMSN 081040Z 28004KT 10SM CLR M01/M08 A3042 410 58 -1400 270/04 RMK AO2
14837KMSN MSN20041108044509611/08/04 04:45:31  5-MIN KMSN 081045Z 28006KT 10SM CLR M01/M09 A3042 410 55 -1400 280/06 RMK AO2
14837KMSN MSN20041108045011311/08/04 04:50:31  5-MIN KMSN 081050Z 28005KT 10SM CLR M01/M09 A3041 410 55 -1400 280/05 RMK AO2 SLP307 T10111089
14837KMSN MSN20041108045509611/08/04 04:55:31  5-MIN KMSN 081055Z 28006KT 10SM CLR M01/M09 A3041 410 53 -1300 280/06 RMK AO2
14837KMSN MSN20041108050009611/08/04 05:00:31  5-MIN KMSN 081100Z 28005KT 10SM CLR M01/M09 A3042 410 53 -1300 280/05 RMK AO2
14837KMSN MSN20041108050509611/08/04 05:05:31  5-MIN KMSN 081105Z 28006KT 10SM CLR M01/M08 A3042 410 56 -1300 280/06 RMK AO2
14837KMSN MSN20041108051009611/08/04 05:10:31  5-MIN KMSN 081110Z 30006KT 10SM CLR M01/M08 A3042 400 56 -1300 300/06 RMK AO2
14837KMSN MSN20041108051509611/08/04 05:15:31  5-MIN KMSN 081115Z 29006KT 10SM CLR M01/M08 A3043 400 56 -1300 290/06 RMK AO2
14837KMSN MSN20041108052009611/08/04 05:20:31  5-MIN KMSN 081120Z 29006KT 10SM CLR M01/M08 A3042 400 58 -1300 290/06 RMK AO2
14837KMSN MSN20041108052509611/08/04 05:25:31  5-MIN KMSN 081125Z 28005KT 10SM CLR M01/M08 A3043 400 58 -1300 280/05 RMK AO2
14837KMSN MSN20041108053009611/08/04 05:30:31  5-MIN KMSN 081130Z 27004KT 10SM CLR M01/M08 A3042 400 58 -1300 270/04 RMK AO2
14837KMSN MSN20041108053509611/08/04 05:35:31  5-MIN KMSN 081135Z 27005KT 10SM CLR M01/M08 A3042 400 58 -1300 270/05 RMK AO2
14837KMSN MSN20041108054009611/08/04 05:40:31  5-MIN KMSN 081140Z 27005KT 10SM CLR M01/M08 A3042 400 58 -1300 270/05 RMK AO2
14837KMSN MSN20041108054509911/08/04 05:45:31  5-MIN KMSN 081145Z 28006KT 10SM SCT120 M01/M08 A3043 390 58 -1300 280/06 RMK AO2
14837KMSN MSN20041108055013411/08/04 05:50:31  5-MIN KMSN 081150Z 27006KT 10SM SCT110 M01/M08 A3043 400 58 -1300 270/06 RMK AO2 SLP311 T10061078 10006 21028 53008
14837KMSN MSN20041108055509911/08/04 05:55:31  5-MIN KMSN 081155Z 28005KT 10SM SCT120 M01/M08 A3043 400 58 -1300 280/05 RMK AO2
14837KMSN MSN20041108060009911/08/04 06:00:31  5-MIN KMSN 081200Z 28006KT 10SM BKN120 M01/M08 A3043 400 58 -1300 280/06 RMK AO2
14837KMSN MSN20041108060509911/08/04 06:05:31  5-MIN KMSN 081205Z 28006KT 10SM BKN120 M01/M08 A3043 400 58 -1300 280/06 RMK AO2
14837KMSN MSN20041108061009911/08/04 06:10:31  5-MIN KMSN 081210Z 28005KT 10SM BKN120 M01/M08 A3043 400 58 -1300 280/05 RMK AO2
14837KMSN MSN20041108061509911/08/04 06:15:31  5-MIN KMSN 081215Z 28005KT 10SM BKN120 M01/M08 A3042 400 58 -1300 280/05 RMK AO2
14837KMSN MSN20041108062009911/08/04 06:20:31  5-MIN KMSN 081220Z 29004KT 10SM SCT120 M01/M07 A3042 400 61 -1300 290/04 RMK AO2
14837KMSN MSN20041108062509911/08/04 06:25:31  5-MIN KMSN 081225Z 29004KT 10SM BKN120 M01/M07 A3042 400 61 -1300 290/04 RMK AO2
14837KMSN MSN20041108063009911/08/04 06:30:31  5-MIN KMSN 081230Z 29004KT 10SM BKN120 M01/M07 A3043 400 61 -1300 280/04 RMK AO2
14837KMSN MSN20041108063509911/08/04 06:35:31  5-MIN KMSN 081235Z 31003KT 10SM BKN110 M01/M07 A3043 400 61 -1300 310/03 RMK AO2
14837KMSN MSN20041108064009911/08/04 06:40:31  5-MIN KMSN 081240Z 32004KT 10SM BKN120 M01/M07 A3043 400 63 -1300 310/04 RMK AO2
14837KMSN MSN20041108064509811/08/04 06:45:31  5-MIN KMSN 081245Z 30004KT 10SM OVC120 00/M07 A3043 390 61 -1300 300/04 RMK AO2
14837KMSN MSN20041108065011511/08/04 06:50:31  5-MIN KMSN 081250Z 30003KT 10SM OVC110 00/M07 A3043 390 58 -1300 300/03 RMK AO2 SLP315 T00001072
14837KMSN MSN20041108065509811/08/04 06:55:31  5-MIN KMSN 081255Z 00000KT 10SM BKN110 00/M07 A3043 390 58 -1300 000/00 RMK AO2
14837KMSN MSN20041108070009811/08/04 07:00:31  5-MIN KMSN 081300Z 30004KT 10SM BKN110 00/M07 A3044 390 61 -1300 300/04 RMK AO2
14837KMSN MSN20041108070509811/08/04 07:05:31  5-MIN KMSN 081305Z 30004KT 10SM BKN120 00/M07 A3044 390 58 -1300 300/04 RMK AO2
14837KMSN MSN20041108071009811/08/04 07:10:31  5-MIN KMSN 081310Z 30005KT 10SM BKN120 00/M07 A3044 380 58 -1300 300/05 RMK AO2
14837KMSN MSN20041108071509811/08/04 07:15:31  5-MIN KMSN 081315Z 29004KT 10SM BKN120 00/M07 A3044 390 61 -1300 290/04 RMK AO2
14837KMSN MSN20041108072009811/08/04 07:20:31  5-MIN KMSN 081320Z 30003KT 10SM BKN120 00/M07 A3044 380 58 -1300 300/03 RMK AO2
14837KMSN MSN20041108072509811/08/04 07:25:31  5-MIN KMSN 081325Z 30003KT 10SM BKN120 00/M07 A3045 380 61 -1300 300/03 RMK AO2
14837KMSN MSN20041108073009811/08/04 07:30:31  5-MIN KMSN 081330Z 31003KT 10SM BKN120 00/M06 A3045 380 63 -1300 310/03 RMK AO2
14837KMSN MSN20041108073509811/08/04 07:35:31  5-MIN KMSN 081335Z 32004KT 10SM BKN120 01/M06 A3045 380 61 -1200 320/04 RMK AO2
14837KMSN MSN20041108074009811/08/04 07:40:31  5-MIN KMSN 081340Z 00000KT 10SM BKN120 01/M07 A3044 380 58 -1200 000/00 RMK AO2
14837KMSN MSN20041108074509811/08/04 07:45:31  5-MIN KMSN 081345Z 32003KT 10SM BKN110 01/M07 A3045 380 58 -1200 320/03 RMK AO2
14837KMSN MSN20041108075011511/08/04 07:50:31  5-MIN KMSN 081350Z 00000KT 10SM BKN110 01/M06 A3045 380 61 -1200 000/00 RMK AO2 SLP321 T00061061
14837KMSN MSN20041108075509811/08/04 07:55:31  5-MIN KMSN 081355Z 00000KT 10SM BKN110 01/M05 A3045 380 66 -1200 000/00 RMK AO2
14837KMSN MSN20041108080009811/08/04 08:00:31  5-MIN KMSN 081400Z 00000KT 10SM OVC110 01/M06 A3045 380 61 -1100 000/00 RMK AO2
14837KMSN MSN20041108080509811/08/04 08:05:31  5-MIN KMSN 081405Z 00000KT 10SM OVC110 01/M05 A3045 370 64 -1100 000/00 RMK AO2
14837KMSN MSN20041108081009811/08/04 08:10:31  5-MIN KMSN 081410Z 00000KT 10SM OVC100 01/M04 A3046 370 66 -1100 000/00 RMK AO2
14837KMSN MSN20041108081509811/08/04 08:15:31  5-MIN KMSN 081415Z 00000KT 10SM OVC100 01/M05 A3045 370 64 -1100 000/00 RMK AO2
14837KMSN MSN20041108082009811/08/04 08:20:31  5-MIN KMSN 081420Z 00000KT 10SM OVC100 02/M05 A3046 370 61 -1100 000/00 RMK AO2
14837KMSN MSN20041108082509811/08/04 08:25:31  5-MIN KMSN 081425Z 00000KT 10SM OVC100 02/M06 A3046 370 59 -1100 000/00 RMK AO2
14837KMSN MSN20041108083009811/08/04 08:30:31  5-MIN KMSN 081430Z 00000KT 10SM OVC100 02/M06 A3045 380 56 -1000 000/00 RMK AO2
14837KMSN MSN20041108083510511/08/04 08:35:31  5-MIN KMSN 081435Z 00000KT 10SM BKN100 OVC110 02/M06 A3045 380 56 -1000 000/00 RMK AO2
14837KMSN MSN20041108084009811/08/04 08:40:31  5-MIN KMSN 081440Z VRB03KT 10SM BKN100 02/M06 A3046 370 56 -1000 VRB/03 RMK AO2
14837KMSN MSN20041108084509711/08/04 08:45:31  5-MIN KMSN 081445Z VRB03KT 10SM BKN100 03/M06 A3046 370 54 -900 VRB/03 RMK AO2
14837KMSN MSN20041108085012011/08/04 08:50:31  5-MIN KMSN 081450Z VRB04KT 10SM BKN100 03/M06 A3046 370 54 -900 VRB/04 RMK AO2 SLP324 T00281056 53018
14837KMSN MSN20041108085510411/08/04 08:55:31  5-MIN KMSN 081455Z 34003KT 10SM SCT100 BKN110 03/M05 A3046 370 56 -900 340/03 RMK AO2
14837KMSN MSN20041108090009711/08/04 09:00:31  5-MIN KMSN 081500Z 36003KT 10SM BKN110 03/M06 A3046 370 52 -900 350/03 RMK AO2
14837KMSN MSN20041108090509711/08/04 09:05:31  5-MIN KMSN 081505Z 00000KT 10SM BKN110 03/M06 A3046 370 54 -900 000/00 RMK AO2
14837KMSN MSN20041108091009711/08/04 09:10:31  5-MIN KMSN 081510Z 36005KT 10SM BKN110 03/M05 A3046 370 54 -900 360/05 RMK AO2
14837KMSN MSN20041108091509711/08/04 09:15:31  5-MIN KMSN 081515Z 34004KT 10SM OVC110 03/M06 A3047 360 52 -900 340/04 RMK AO2
14837KMSN MSN20041108092009711/08/04 09:20:31  5-MIN KMSN 081520Z 35005KT 10SM BKN110 03/M06 A3047 360 50 -900 350/05 RMK AO2
14837KMSN MSN20041108092509711/08/04 09:25:31  5-MIN KMSN 081525Z 34005KT 10SM BKN110 03/M07 A3047 360 46 -900 340/05 RMK AO2
14837KMSN MSN20041108093009711/08/04 09:30:31  5-MIN KMSN 081530Z 34004KT 10SM BKN110 03/M07 A3047 360 46 -900 340/04 RMK AO2
14837KMSN MSN20041108093509711/08/04 09:35:31  5-MIN KMSN 081535Z 30006KT 10SM BKN110 03/M07 A3047 360 48 -900 300/06 RMK AO2
14837KMSN MSN20041108094009711/08/04 09:40:31  5-MIN KMSN 081540Z 29005KT 10SM BKN110 03/M08 A3047 360 44 -900 290/05 RMK AO2
14837KMSN MSN20041108094509711/08/04 09:45:31  5-MIN KMSN 081545Z 32005KT 10SM BKN110 03/M08 A3047 360 44 -900 320/05 RMK AO2
14837KMSN MSN20041108095011411/08/04 09:50:31  5-MIN KMSN 081550Z 32004KT 10SM BKN100 03/M08 A3048 350 44 -900 320/04 RMK AO2 SLP330 T00331078
14837KMSN MSN20041108095509711/08/04 09:55:31  5-MIN KMSN 081555Z 29006KT 10SM OVC100 04/M08 A3048 350 42 -800 290/06 RMK AO2
14837KMSN MSN20041108100009711/08/04 10:00:31  5-MIN KMSN 081600Z 30005KT 10SM BKN100 03/M08 A3047 360 44 -900 300/05 RMK AO2
14837KMSN MSN20041108100509711/08/04 10:05:31  5-MIN KMSN 081605Z 27005KT 10SM BKN100 04/M08 A3048 350 42 -800 270/05 RMK AO2
14837KMSN MSN20041108101009711/08/04 10:10:31  5-MIN KMSN 081610Z 28006KT 10SM BKN100 04/M07 A3048 350 44 -800 280/06 RMK AO2
14837KMSN MSN20041108101509711/08/04 10:15:31  5-MIN KMSN 081615Z 30006KT 10SM BKN100 04/M08 A3048 350 42 -800 300/06 RMK AO2
14837KMSN MSN20041108102009711/08/04 10:20:31  5-MIN KMSN 081620Z 30005KT 10SM BKN100 04/M08 A3048 350 42 -800 300/05 RMK AO2
14837KMSN MSN20041108102509711/08/04 10:25:31  5-MIN KMSN 081625Z 29006KT 10SM BKN100 04/M07 A3049 350 44 -800 290/06 RMK AO2
14837KMSN MSN20041108103009711/08/04 10:30:31  5-MIN KMSN 081630Z 30005KT 10SM BKN100 04/M08 A3048 350 42 -800 290/05 RMK AO2
14837KMSN MSN20041108103509711/08/04 10:35:31  5-MIN KMSN 081635Z 24004KT 10SM BKN090 04/M07 A3048 350 44 -800 240/04 RMK AO2
14837KMSN MSN20041108104009711/08/04 10:40:31  5-MIN KMSN 081640Z 27006KT 10SM BKN090 04/M07 A3048 350 44 -800 270/06 RMK AO2
14837KMSN MSN20041108104509711/08/04 10:45:31  5-MIN KMSN 081645Z 28005KT 10SM BKN090 04/M07 A3048 350 44 -800 280/05 RMK AO2
14837KMSN MSN20041108105011411/08/04 10:50:31  5-MIN KMSN 081650Z 28006KT 10SM BKN085 04/M07 A3048 350 44 -800 280/06 RMK AO2 SLP332 T00391072
14837KMSN MSN20041108105509711/08/04 10:55:31  5-MIN KMSN 081655Z VRB05KT 10SM OVC080 04/M08 A3048 350 42 -800 VRB/05 RMK AO2
14837KMSN MSN20041108110009711/08/04 11:00:31  5-MIN KMSN 081700Z 29005KT 10SM OVC080 04/M07 A3048 350 44 -800 280/05 RMK AO2
14837KMSN MSN20041108110509711/08/04 11:05:31  5-MIN KMSN 081705Z VRB05KT 10SM OVC080 04/M07 A3048 350 44 -800 VRB/05 RMK AO2
14837KMSN MSN20041108111009711/08/04 11:10:31  5-MIN KMSN 081710Z 29008KT 10SM BKN080 04/M08 A3048 350 42 -800 290/08 RMK AO2
14837KMSN MSN20041108111509711/08/04 11:15:31  5-MIN KMSN 081715Z 28004KT 10SM BKN080 04/M08 A3048 350 42 -800 280/04 RMK AO2
14837KMSN MSN20041108112009711/08/04 11:20:31  5-MIN KMSN 081720Z VRB04KT 10SM BKN080 04/M08 A3047 360 42 -800 VRB/04 RMK AO2
14837KMSN MSN20041108112509711/08/04 11:25:31  5-MIN KMSN 081725Z VRB05KT 10SM BKN080 04/M07 A3047 360 42 -700 VRB/05 RMK AO2
14837KMSN MSN20041108113009711/08/04 11:30:31  5-MIN KMSN 081730Z 28005KT 10SM BKN080 04/M07 A3047 360 42 -700 280/05 RMK AO2
14837KMSN MSN20041108113509711/08/04 11:35:31  5-MIN KMSN 081735Z 28005KT 10SM OVC080 04/M07 A3047 360 42 -700 280/05 RMK AO2
14837KMSN MSN20041108114009711/08/04 11:40:31  5-MIN KMSN 081740Z 29005KT 10SM OVC080 04/M07 A3047 360 42 -700 290/05 RMK AO2
14837KMSN MSN20041108114509711/08/04 11:45:31  5-MIN KMSN 081745Z 30006KT 10SM OVC080 04/M07 A3047 360 42 -700 300/06 RMK AO2
14837KMSN MSN20041108115013211/08/04 11:50:31  5-MIN KMSN 081750Z 28007KT 10SM OVC080 04/M07 A3047 360 42 -700 270/07 RMK AO2 SLP328 T00441072 10044 21006 51010
14837KMSN MSN20041108115509711/08/04 11:55:31  5-MIN KMSN 081755Z 29006KT 10SM OVC080 04/M07 A3047 360 42 -700 290/06 RMK AO2
14837KMSN MSN20041108120009711/08/04 12:00:31  5-MIN KMSN 081800Z 26006KT 10SM OVC080 04/M07 A3047 360 42 -700 260/06 RMK AO2
14837KMSN MSN20041108120509711/08/04 12:05:31  5-MIN KMSN 081805Z 29007KT 10SM OVC080 04/M07 A3047 360 42 -700 280/07 RMK AO2
14837KMSN MSN20041108121009711/08/04 12:10:31  5-MIN KMSN 081810Z 28005KT 10SM OVC080 04/M08 A3047 360 41 -700 280/05 RMK AO2
14837KMSN MSN20041108121509711/08/04 12:15:31  5-MIN KMSN 081815Z 27006KT 10SM OVC080 04/M08 A3047 360 41 -700 270/06 RMK AO2
14837KMSN MSN20041108122009711/08/04 12:20:31  5-MIN KMSN 081820Z 27006KT 10SM OVC080 04/M08 A3047 360 41 -700 270/06 RMK AO2
14837KMSN MSN20041108122509711/08/04 12:25:31  5-MIN KMSN 081825Z VRB06KT 10SM OVC075 04/M08 A3047 360 41 -700 VRB/06 RMK AO2
14837KMSN MSN20041108123009711/08/04 12:30:31  5-MIN KMSN 081830Z 33006KT 10SM OVC075 04/M08 A3046 370 41 -700 330/06 RMK AO2
14837KMSN MSN20041108123509711/08/04 12:35:31  5-MIN KMSN 081835Z 32006KT 10SM OVC075 04/M08 A3046 370 41 -700 320/06 RMK AO2
14837KMSN MSN20041108124009711/08/04 12:40:31  5-MIN KMSN 081840Z 31006KT 10SM OVC075 04/M08 A3045 370 41 -700 310/06 RMK AO2
14837KMSN MSN20041108124509711/08/04 12:45:31  5-MIN KMSN 081845Z 30007KT 10SM OVC075 04/M08 A3045 370 41 -700 300/07 RMK AO2
14837KMSN MSN20041108125011411/08/04 12:50:31  5-MIN KMSN 081850Z 31006KT 10SM OVC075 04/M08 A3046 370 41 -700 310/06 RMK AO2 SLP323 T00441078
14837KMSN MSN20041108125509711/08/04 12:55:31  5-MIN KMSN 081855Z 31006KT 10SM OVC070 04/M08 A3045 380 41 -700 310/06 RMK AO2
14837KMSN MSN20041108130009711/08/04 13:00:31  5-MIN KMSN 081900Z VRB04KT 10SM OVC070 04/M08 A3045 380 41 -700 VRB/04 RMK AO2
14837KMSN MSN20041108130509711/08/04 13:05:31  5-MIN KMSN 081905Z VRB05KT 10SM OVC070 04/M07 A3045 380 42 -700 VRB/05 RMK AO2
14837KMSN MSN20041108131009711/08/04 13:10:31  5-MIN KMSN 081910Z 27006KT 10SM OVC070 04/M07 A3045 380 42 -700 270/06 RMK AO2
14837KMSN MSN20041108131509711/08/04 13:15:31  5-MIN KMSN 081915Z 27005KT 10SM OVC070 05/M07 A3045 380 41 -600 270/05 RMK AO2
14837KMSN MSN20041108132009711/08/04 13:20:31  5-MIN KMSN 081920Z 28008KT 10SM OVC070 05/M08 A3045 380 39 -700 280/08 RMK AO2
14837KMSN MSN20041108132509711/08/04 13:25:31  5-MIN KMSN 081925Z 30007KT 10SM OVC065 05/M08 A3044 380 39 -600 300/07 RMK AO2
14837KMSN MSN20041108133009711/08/04 13:30:31  5-MIN KMSN 081930Z 31006KT 10SM OVC065 05/M08 A3044 380 39 -600 310/06 RMK AO2
14837KMSN MSN20041108133509711/08/04 13:35:31  5-MIN KMSN 081935Z 30006KT 10SM OVC065 05/M08 A3044 380 39 -600 290/06 RMK AO2
14837KMSN MSN20041108134009711/08/04 13:40:31  5-MIN KMSN 081940Z 30006KT 10SM OVC065 05/M08 A3044 390 39 -600 300/06 RMK AO2
14837KMSN MSN20041108134510411/08/04 13:45:31  5-MIN KMSN 081945Z 31006KT 10SM BKN065 OVC095 05/M08 A3044 390 39 -600 310/06 RMK AO2
14837KMSN MSN20041108135012111/08/04 13:50:31  5-MIN KMSN 081950Z 29007KT 10SM BKN065 BKN095 05/M08 A3044 390 39 -600 290/07 RMK AO2 SLP316 T00501078
14837KMSN MSN20041108135511111/08/04 13:55:31  5-MIN KMSN 081955Z 31007KT 10SM SCT065 BKN090 BKN120 05/M08 A3043 390 37 -600 310/07 RMK AO2
14837KMSN MSN20041108140011111/08/04 14:00:31  5-MIN KMSN 082000Z 31006KT 10SM SCT065 BKN090 BKN120 05/M08 A3043 390 39 -600 300/06 RMK AO2
14837KMSN MSN20041108140511111/08/04 14:05:31  5-MIN KMSN 082005Z 30005KT 10SM FEW065 BKN090 BKN120 05/M08 A3044 390 39 -600 300/05 RMK AO2
14837KMSN MSN20041108141010411/08/04 14:10:31  5-MIN KMSN 082010Z VRB04KT 10SM BKN090 BKN120 05/M08 A3044 390 39 -600 VRB/04 RMK AO2
14837KMSN MSN20041108141510411/08/04 14:15:31  5-MIN KMSN 082015Z 31006KT 10SM BKN085 OVC120 05/M08 A3044 390 39 -600 300/06 RMK AO2
14837KMSN MSN20041108142009711/08/04 14:20:31  5-MIN KMSN 082020Z 29005KT 10SM OVC085 05/M08 A3044 390 39 -600 290/05 RMK AO2
14837KMSN MSN20041108142509711/08/04 14:25:31  5-MIN KMSN 082025Z 31008KT 10SM OVC080 05/M08 A3044 390 39 -600 300/08 RMK AO2
14837KMSN MSN20041108143009711/08/04 14:30:31  5-MIN KMSN 082030Z 30007KT 10SM BKN080 05/M08 A3043 390 39 -600 300/07 RMK AO2
14837KMSN MSN20041108143509711/08/04 14:35:31  5-MIN KMSN 082035Z 29005KT 10SM BKN080 05/M08 A3043 400 39 -600 290/05 RMK AO2
14837KMSN MSN20041108144009711/08/04 14:40:31  5-MIN KMSN 082040Z 27005KT 10SM BKN080 05/M08 A3043 400 37 -600 270/05 RMK AO2
14837KMSN MSN20041108144509711/08/04 14:45:31  5-MIN KMSN 082045Z VRB04KT 10SM BKN080 05/M08 A3043 400 39 -600 VRB/04 RMK AO2
14837KMSN MSN20041108145012011/08/04 14:50:31  5-MIN KMSN 082050Z 28006KT 10SM BKN080 05/M08 A3043 400 39 -600 280/06 RMK AO2 SLP314 T00501078 50004
14837KMSN MSN20041108145509711/08/04 14:55:31  5-MIN KMSN 082055Z 29007KT 10SM BKN075 05/M09 A3043 400 36 -600 290/07 RMK AO2
14837KMSN MSN20041108150009711/08/04 15:00:31  5-MIN KMSN 082100Z 29006KT 10SM BKN075 05/M09 A3043 400 36 -600 290/06 RMK AO2
14837KMSN MSN20041108150509711/08/04 15:05:31  5-MIN KMSN 082105Z 30006KT 10SM BKN075 05/M09 A3043 400 36 -600 300/06 RMK AO2
14837KMSN MSN20041108151009711/08/04 15:10:31  5-MIN KMSN 082110Z 29004KT 10SM BKN075 05/M09 A3043 400 36 -600 290/04 RMK AO2
14837KMSN MSN20041108151509711/08/04 15:15:31  5-MIN KMSN 082115Z 00000KT 10SM BKN075 05/M08 A3043 400 37 -600 000/00 RMK AO2
14837KMSN MSN20041108152009711/08/04 15:20:31  5-MIN KMSN 082120Z 00000KT 10SM BKN075 05/M08 A3043 400 39 -600 000/00 RMK AO2
14837KMSN MSN20041108152509711/08/04 15:25:31  5-MIN KMSN 082125Z 31005KT 10SM BKN075 05/M08 A3042 400 39 -600 310/05 RMK AO2
14837KMSN MSN20041108153010411/08/04 15:30:31  5-MIN KMSN 082130Z 30004KT 10SM BKN070 OVC090 05/M08 A3042 400 37 -600 300/04 RMK AO2
14837KMSN MSN20041108153510411/08/04 15:35:31  5-MIN KMSN 082135Z 30003KT 10SM BKN070 OVC090 05/M08 A3043 400 39 -600 300/03 RMK AO2
14837KMSN MSN20041108154011111/08/04 15:40:31  5-MIN KMSN 082140Z 31004KT 10SM SCT070 BKN090 OVC120 05/M08 A3042 400 39 -600 310/04 RMK AO2
14837KMSN MSN20041108154511111/08/04 15:45:31  5-MIN KMSN 082145Z 00000KT 10SM SCT070 BKN090 OVC120 05/M08 A3042 400 39 -600 000/00 RMK AO2
14837KMSN MSN20041108155012811/08/04 15:50:31  5-MIN KMSN 082150Z 31004KT 10SM FEW070 BKN090 OVC120 05/M08 A3042 400 39 -600 300/04 RMK AO2 SLP312 T00501078
14837KMSN MSN20041108155510411/08/04 15:55:31  5-MIN KMSN 082155Z 31003KT 10SM BKN090 OVC120 05/M08 A3042 400 39 -600 310/03 RMK AO2
14837KMSN MSN20041108160010411/08/04 16:00:31  5-MIN KMSN 082200Z 31004KT 10SM SCT090 OVC120 05/M08 A3042 400 39 -600 310/04 RMK AO2
14837KMSN MSN20041108160510411/08/04 16:05:31  5-MIN KMSN 082205Z 31003KT 10SM SCT090 OVC120 04/M07 A3042 400 42 -700 310/03 RMK AO2
14837KMSN MSN20041108161010411/08/04 16:10:31  5-MIN KMSN 082210Z 00000KT 10SM FEW090 OVC120 04/M07 A3042 400 42 -700 000/00 RMK AO2
14837KMSN MSN20041108161510411/08/04 16:15:31  5-MIN KMSN 082215Z 32003KT 10SM SCT085 OVC120 04/M07 A3042 400 42 -700 320/03 RMK AO2
14837KMSN MSN20041108162010411/08/04 16:20:31  5-MIN KMSN 082220Z 33003KT 10SM SCT085 OVC120 04/M08 A3042 400 41 -700 330/03 RMK AO2
14837KMSN MSN20041108162510411/08/04 16:25:31  5-MIN KMSN 082225Z 00000KT 10SM BKN085 OVC120 04/M08 A3042 400 41 -700 000/00 RMK AO2
14837KMSN MSN20041108163010411/08/04 16:30:31  5-MIN KMSN 082230Z 32003KT 10SM BKN085 OVC120 04/M07 A3042 410 42 -700 320/03 RMK AO2
14837KMSN MSN20041108163510411/08/04 16:35:31  5-MIN KMSN 082235Z 00000KT 10SM BKN080 OVC120 04/M07 A3042 400 42 -700 000/00 RMK AO2
14837KMSN MSN20041108164010411/08/04 16:40:31  5-MIN KMSN 082240Z 00000KT 10SM BKN080 OVC120 04/M07 A3042 400 42 -700 000/00 RMK AO2
14837KMSN MSN20041108164510411/08/04 16:45:31  5-MIN KMSN 082245Z 00000KT 10SM BKN080 OVC120 04/M07 A3042 410 42 -700 000/00 RMK AO2
14837KMSN MSN20041108165012111/08/04 16:50:31  5-MIN KMSN 082250Z 31003KT 10SM BKN085 OVC120 04/M07 A3043 400 42 -700 310/03 RMK AO2 SLP314 T00441072
14837KMSN MSN20041108165510411/08/04 16:55:31  5-MIN KMSN 082255Z 31003KT 10SM BKN085 OVC120 04/M07 A3043 400 42 -700 310/03 RMK AO2
14837KMSN MSN20041108170010411/08/04 17:00:31  5-MIN KMSN 082300Z 00000KT 10SM BKN085 OVC120 04/M07 A3043 400 44 -700 000/00 RMK AO2
14837KMSN MSN20041108170510411/08/04 17:05:31  5-MIN KMSN 082305Z 00000KT 10SM BKN085 OVC120 04/M07 A3042 400 42 -700 000/00 RMK AO2
14837KMSN MSN20041108171010411/08/04 17:10:31  5-MIN KMSN 082310Z 00000KT 10SM BKN085 OVC120 04/M07 A3042 400 42 -700 000/00 RMK AO2
14837KMSN MSN20041108171509711/08/04 17:15:31  5-MIN KMSN 082315Z 00000KT 10SM OVC085 04/M07 A3043 400 44 -700 000/00 RMK AO2
14837KMSN MSN20041108172009711/08/04 17:20:31  5-MIN KMSN 082320Z 00000KT 10SM OVC085 04/M07 A3043 400 42 -700 000/00 RMK AO2
14837KMSN MSN20041108172509711/08/04 17:25:31  5-MIN KMSN 082325Z 00000KT 10SM OVC085 04/M07 A3042 400 44 -700 000/00 RMK AO2
14837KMSN MSN20041108173009711/08/04 17:30:31  5-MIN KMSN 082330Z 00000KT 10SM OVC090 04/M07 A3042 400 44 -700 000/00 RMK AO2
14837KMSN MSN20041108173509711/08/04 17:35:31  5-MIN KMSN 082335Z 00000KT 10SM OVC085 04/M07 A3042 400 42 -700 000/00 RMK AO2
14837KMSN MSN20041108174009711/08/04 17:40:31  5-MIN KMSN 082340Z 00000KT 10SM OVC085 04/M06 A3042 400 46 -700 000/00 RMK AO2
14837KMSN MSN20041108174509711/08/04 17:45:31  5-MIN KMSN 082345Z 00000KT 10SM OVC090 04/M07 A3043 400 44 -700 000/00 RMK AO2
14837KMSN MSN20041108175013211/08/04 17:50:31  5-MIN KMSN 082350Z 00000KT 10SM OVC090 04/M06 A3043 400 46 -700 000/00 RMK AO2 SLP314 T00441061 10050 20044 56014
14837KMSN MSN20041108175509711/08/04 17:55:31  5-MIN KMSN 082355Z 00000KT 10SM OVC090 04/M06 A3043 400 50 -800 000/00 RMK AO2
14837KMSN MSN20041108180009711/08/04 18:00:31  5-MIN KMSN 090000Z 00000KT 10SM OVC090 04/M06 A3043 400 48 -800 000/00 RMK AO2
14837KMSN MSN20041108180509711/08/04 18:05:31  5-MIN KMSN 090005Z 00000KT 10SM OVC090 04/M07 A3043 390 44 -700 000/00 RMK AO2
14837KMSN MSN20041108181009711/08/04 18:10:31  5-MIN KMSN 090010Z 00000KT 10SM OVC090 04/M06 A3043 390 46 -700 000/00 RMK AO2
14837KMSN MSN20041108181510411/08/04 18:15:31  5-MIN KMSN 090015Z 00000KT 10SM BKN085 OVC110 04/M06 A3043 390 50 -800 000/00 RMK AO2
14837KMSN MSN20041108182010411/08/04 18:20:31  5-MIN KMSN 090020Z 33003KT 10SM BKN085 OVC110 04/M06 A3044 390 48 -800 330/03 RMK AO2
14837KMSN MSN20041108182510411/08/04 18:25:31  5-MIN KMSN 090025Z 33003KT 10SM SCT085 OVC110 04/M06 A3044 390 50 -800 330/03 RMK AO2
14837KMSN MSN20041108183010411/08/04 18:30:31  5-MIN KMSN 090030Z 33003KT 10SM SCT085 OVC110 04/M06 A3044 390 50 -800 330/03 RMK AO2
14837KMSN MSN20041108183510411/08/04 18:35:31  5-MIN KMSN 090035Z 33003KT 10SM FEW085 OVC110 04/M07 A3044 390 44 -800 330/03 RMK AO2
14837KMSN MSN20041108184009711/08/04 18:40:31  5-MIN KMSN 090040Z 34003KT 10SM OVC110 04/M07 A3044 390 46 -800 340/03 RMK AO2
14837KMSN MSN20041108184510411/08/04 18:45:31  5-MIN KMSN 090045Z 34003KT 10SM FEW070 OVC110 04/M06 A3044 380 48 -800 340/03 RMK AO2
14837KMSN MSN20041108185012111/08/04 18:50:31  5-MIN KMSN 090050Z 00000KT 10SM SCT070 OVC110 04/M06 A3044 380 48 -800 000/00 RMK AO2 SLP319 T00391061
14837KMSN MSN20041108185510411/08/04 18:55:31  5-MIN KMSN 090055Z 36003KT 10SM BKN070 OVC110 04/M05 A3044 380 52 -800 360/03 RMK AO2
14837KMSN MSN20041108190010411/08/04 19:00:31  5-MIN KMSN 090100Z 01004KT 10SM BKN070 OVC110 03/M04 A3045 380 59 -900 010/04 RMK AO2
14837KMSN MSN20041108190510411/08/04 19:05:31  5-MIN KMSN 090105Z 01004KT 10SM BKN070 OVC110 03/M04 A3045 380 59 -900 010/04 RMK AO2
14837KMSN MSN20041108191010411/08/04 19:10:31  5-MIN KMSN 090110Z 00000KT 10SM BKN070 OVC110 03/M04 A3044 380 59 -800 000/00 RMK AO2
14837KMSN MSN20041108191510411/08/04 19:15:31  5-MIN KMSN 090115Z 00000KT 10SM BKN070 OVC110 04/M04 A3044 390 54 -800 000/00 RMK AO2
14837KMSN MSN20041108192011111/08/04 19:20:31  5-MIN KMSN 090120Z 00000KT 10SM BKN070 BKN085 OVC110 04/M05 A3044 380 52 -800 000/00 RMK AO2
14837KMSN MSN20041108192511111/08/04 19:25:31  5-MIN KMSN 090125Z 00000KT 10SM SCT070 BKN085 OVC110 04/M06 A3044 390 50 -800 000/00 RMK AO2
14837KMSN MSN20041108193011111/08/04 19:30:31  5-MIN KMSN 090130Z 00000KT 10SM FEW070 SCT085 OVC110 04/M05 A3044 390 52 -800 000/00 RMK AO2
14837KMSN MSN20041108193510411/08/04 19:35:31  5-MIN KMSN 090135Z 00000KT 10SM FEW070 OVC110 03/M03 A3044 390 61 -800 000/00 RMK AO2
14837KMSN MSN20041108194010411/08/04 19:40:31  5-MIN KMSN 090140Z 00000KT 10SM FEW080 OVC110 04/M06 A3044 380 50 -800 000/00 RMK AO2
14837KMSN MSN20041108194510411/08/04 19:45:31  5-MIN KMSN 090145Z 00000KT 10SM FEW080 OVC110 04/M05 A3044 390 52 -800 000/00 RMK AO2
14837KMSN MSN20041108195012111/08/04 19:50:31  5-MIN KMSN 090150Z 00000KT 10SM FEW080 OVC110 03/M03 A3044 380 64 -800 000/00 RMK AO2 SLP318 T00331028
14837KMSN MSN20041108195510411/08/04 19:55:31  5-MIN KMSN 090155Z 00000KT 10SM FEW085 OVC110 03/M03 A3044 390 61 -800 000/00 RMK AO2
14837KMSN MSN20041108200010411/08/04 20:00:31  5-MIN KMSN 090200Z 00000KT 10SM FEW085 OVC110 03/M04 A3044 390 59 -800 000/00 RMK AO2
14837KMSN MSN20041108200510411/08/04 20:05:31  5-MIN KMSN 090205Z 00000KT 10SM FEW085 OVC110 04/M04 A3044 390 57 -800 000/00 RMK AO2
14837KMSN MSN20041108201010411/08/04 20:10:31  5-MIN KMSN 090210Z 00000KT 10SM SCT085 OVC110 03/M04 A3044 390 59 -800 000/00 RMK AO2
14837KMSN MSN20041108201510411/08/04 20:15:31  5-MIN KMSN 090215Z 00000KT 10SM FEW085 OVC110 03/M04 A3044 390 59 -800 000/00 RMK AO2
14837KMSN MSN20041108202010411/08/04 20:20:31  5-MIN KMSN 090220Z 09003KT 10SM FEW085 OVC110 03/M04 A3043 390 57 -800 090/03 RMK AO2
14837KMSN MSN20041108202510411/08/04 20:25:31  5-MIN KMSN 090225Z 08003KT 10SM FEW085 OVC110 04/M04 A3043 390 54 -800 080/03 RMK AO2
14837KMSN MSN20041108203010411/08/04 20:30:31  5-MIN KMSN 090230Z 07003KT 10SM FEW085 OVC110 03/M04 A3043 390 57 -800 070/03 RMK AO2
14837KMSN MSN20041108203509711/08/04 20:35:31  5-MIN KMSN 090235Z 00000KT 10SM OVC110 03/M04 A3043 390 57 -800 000/00 RMK AO2
14837KMSN MSN20041108204009711/08/04 20:40:31  5-MIN KMSN 090240Z 07003KT 10SM OVC110 03/M04 A3043 390 57 -800 070/03 RMK AO2
14837KMSN MSN20041108204509711/08/04 20:45:31  5-MIN KMSN 090245Z 08003KT 10SM OVC110 03/M04 A3043 390 57 -800 080/03 RMK AO2
14837KMSN MSN20041108205012011/08/04 20:50:31  5-MIN KMSN 090250Z 07003KT 10SM OVC110 03/M05 A3043 390 54 -800 070/03 RMK AO2 SLP315 T00331050 53001
14837KMSN MSN20041108205509711/08/04 20:55:31  5-MIN KMSN 090255Z 00000KT 10SM OVC110 03/M03 A3044 390 61 -800 000/00 RMK AO2
14837KMSN MSN20041108210009711/08/04 21:00:31  5-MIN KMSN 090300Z 00000KT 10SM OVC110 03/M03 A3044 390 64 -800 000/00 RMK AO2
14837KMSN MSN20041108210509711/08/04 21:05:31  5-MIN KMSN 090305Z 00000KT 10SM OVC110 03/M03 A3044 390 67 -900 000/00 RMK AO2
14837KMSN MSN20041108211009711/08/04 21:10:31  5-MIN KMSN 090310Z 00000KT 10SM OVC110 03/M03 A3044 390 61 -800 000/00 RMK AO2
14837KMSN MSN20041108211509711/08/04 21:15:31  5-MIN KMSN 090315Z 00000KT 10SM OVC110 03/M03 A3044 390 67 -900 000/00 RMK AO2
14837KMSN MSN20041108212009711/08/04 21:20:31  5-MIN KMSN 090320Z 00000KT 10SM OVC110 03/M04 A3044 390 57 -800 000/00 RMK AO2
14837KMSN MSN20041108212509711/08/04 21:25:31  5-MIN KMSN 090325Z 00000KT 10SM OVC110 03/M05 A3044 390 54 -800 000/00 RMK AO2
14837KMSN MSN20041108213009711/08/04 21:30:31  5-MIN KMSN 090330Z 00000KT 10SM OVC110 03/M06 A3044 380 52 -800 000/00 RMK AO2
14837KMSN MSN20041108213509711/08/04 21:35:31  5-MIN KMSN 090335Z 00000KT 10SM OVC110 03/M04 A3044 380 59 -800 000/00 RMK AO2
14837KMSN MSN20041108214009711/08/04 21:40:31  5-MIN KMSN 090340Z 00000KT 10SM OVC110 03/M04 A3044 390 59 -800 000/00 RMK AO2
14837KMSN MSN20041108214510411/08/04 21:45:31  5-MIN KMSN 090345Z 00000KT 10SM SCT085 OVC110 03/M06 A3044 390 52 -800 000/00 RMK AO2
14837KMSN MSN20041108215012111/08/04 21:50:31  5-MIN KMSN 090350Z 00000KT 10SM BKN080 OVC110 03/M05 A3044 390 54 -800 000/00 RMK AO2 SLP316 T00331050
14837KMSN MSN20041108215510411/08/04 21:55:31  5-MIN KMSN 090355Z 00000KT 10SM BKN080 OVC110 03/M05 A3044 390 56 -900 000/00 RMK AO2
14837KMSN MSN20041108220010411/08/04 22:00:31  5-MIN KMSN 090400Z 00000KT 10SM BKN080 OVC110 03/M05 A3044 390 54 -800 000/00 RMK AO2
14837KMSN MSN20041108220509711/08/04 22:05:31  5-MIN KMSN 090405Z 01003KT 10SM OVC080 03/M05 A3044 390 54 -800 010/03 RMK AO2
14837KMSN MSN20041108221009711/08/04 22:10:31  5-MIN KMSN 090410Z 00000KT 10SM OVC080 03/M04 A3044 390 59 -900 000/00 RMK AO2
14837KMSN MSN20041108221509711/08/04 22:15:31  5-MIN KMSN 090415Z 02003KT 10SM OVC080 03/M04 A3044 390 59 -900 020/03 RMK AO2
14837KMSN MSN20041108222009711/08/04 22:20:31  5-MIN KMSN 090420Z 00000KT 10SM OVC080 03/M04 A3044 390 59 -900 000/00 RMK AO2
14837KMSN MSN20041108222509711/08/04 22:25:31  5-MIN KMSN 090425Z 00000KT 10SM OVC080 03/M03 A3044 390 64 -900 000/00 RMK AO2
14837KMSN MSN20041108223009711/08/04 22:30:31  5-MIN KMSN 090430Z 00000KT 10SM OVC080 03/M05 A3044 390 54 -800 000/00 RMK AO2
14837KMSN MSN20041108223509711/08/04 22:35:31  5-MIN KMSN 090435Z 00000KT 10SM OVC080 03/M04 A3044 390 59 -900 000/00 RMK AO2
14837KMSN MSN20041108224009711/08/04 22:40:31  5-MIN KMSN 090440Z 00000KT 10SM OVC080 03/M04 A3043 390 59 -900 000/00 RMK AO2
14837KMSN MSN20041108224509711/08/04 22:45:31  5-MIN KMSN 090445Z 00000KT 10SM OVC080 03/M04 A3044 390 59 -800 000/00 RMK AO2
14837KMSN MSN20041108225011411/08/04 22:50:31  5-MIN KMSN 090450Z 00000KT 10SM OVC080 03/M03 A3043 390 64 -900 000/00 RMK AO2 SLP314 T00281033
14837KMSN MSN20041108225509711/08/04 22:55:31  5-MIN KMSN 090455Z 00000KT 10SM OVC080 03/M03 A3043 390 64 -900 000/00 RMK AO2
14837KMSN MSN20041108230009711/08/04 23:00:31  5-MIN KMSN 090500Z 00000KT 10SM OVC080 03/M03 A3043 390 64 -900 000/00 RMK AO2
14837KMSN MSN20041108230509711/08/04 23:05:31  5-MIN KMSN 090505Z 00000KT 10SM OVC080 03/M04 A3043 390 59 -900 000/00 RMK AO2
14837KMSN MSN20041108231009711/08/04 23:10:31  5-MIN KMSN 090510Z 00000KT 10SM OVC080 03/M04 A3044 390 61 -900 000/00 RMK AO2
14837KMSN MSN20041108231509711/08/04 23:15:31  5-MIN KMSN 090515Z 00000KT 10SM OVC080 03/M05 A3044 390 54 -800 000/00 RMK AO2
14837KMSN MSN20041108232009711/08/04 23:20:31  5-MIN KMSN 090520Z 00000KT 10SM OVC080 03/M04 A3044 390 57 -800 000/00 RMK AO2
14837KMSN MSN20041108232509711/08/04 23:25:31  5-MIN KMSN 090525Z 00000KT 10SM OVC080 03/M03 A3044 390 64 -900 000/00 RMK AO2
14837KMSN MSN20041108233009711/08/04 23:30:31  5-MIN KMSN 090530Z 00000KT 10SM OVC080 03/M05 A3044 390 54 -800 000/00 RMK AO2
14837KMSN MSN20041108233509711/08/04 23:35:31  5-MIN KMSN 090535Z 00000KT 10SM OVC080 03/M05 A3044 390 54 -800 000/00 RMK AO2
14837KMSN MSN20041108234009711/08/04 23:40:31  5-MIN KMSN 090540Z 00000KT 10SM OVC075 03/M04 A3044 390 59 -800 000/00 RMK AO2
14837KMSN MSN20041108234509711/08/04 23:45:31  5-MIN KMSN 090545Z 00000KT 10SM OVC075 03/M04 A3044 390 59 -800 000/00 RMK AO2
14837KMSN MSN20041108235014211/08/04 23:50:31  5-MIN KMSN 090550Z 03003KT 10SM OVC070 03/M05 A3044 380 54 -800 030/03 RMK AO2 SLP317 T00331050 10044 20028 400501028 50002
14837KMSN MSN20041108235509711/08/04 23:55:31  5-MIN KMSN 090555Z 00000KT 10SM OVC075 03/M04 A3045 380 61 -900 000/00 RMK AO2
14837KMSN MSN20041109000009711/09/04 00:00:31  5-MIN KMSN 090600Z 00000KT 10SM OVC075 03/M04 A3045 380 61 -900 000/00 RMK AO2
14837KMSN MSN20041109000509711/09/04 00:05:31  5-MIN KMSN 090605Z 00000KT 10SM OVC075 03/M04 A3045 380 59 -900 000/00 RMK AO2
14837KMSN MSN20041109001009711/09/04 00:10:31  5-MIN KMSN 090610Z 00000KT 10SM OVC075 03/M04 A3044 380 59 -900 000/00 RMK AO2
14837KMSN MSN20041109001509711/09/04 00:15:31  5-MIN KMSN 090615Z 11003KT 10SM OVC075 03/M04 A3044 390 57 -800 110/03 RMK AO2
14837KMSN MSN20041109002009711/09/04 00:20:31  5-MIN KMSN 090620Z 11003KT 10SM OVC080 03/M05 A3044 390 54 -800 110/03 RMK AO2
14837KMSN MSN20041109002509711/09/04 00:25:31  5-MIN KMSN 090625Z 11003KT 10SM OVC080 03/M05 A3044 380 54 -800 110/03 RMK AO2
14837KMSN MSN20041109003009711/09/04 00:30:31  5-MIN KMSN 090630Z 00000KT 10SM OVC080 03/M06 A3044 380 52 -800 000/00 RMK AO2
14837KMSN MSN20041109003509711/09/04 00:35:31  5-MIN KMSN 090635Z 00000KT 10SM OVC080 03/M06 A3044 380 52 -800 000/00 RMK AO2
14837KMSN MSN20041109004009711/09/04 00:40:31  5-MIN KMSN 090640Z 11003KT 10SM OVC080 03/M06 A3044 390 52 -800 110/03 RMK AO2
14837KMSN MSN20041109004509711/09/04 00:45:31  5-MIN KMSN 090645Z 12004KT 10SM OVC080 03/M05 A3043 390 56 -900 120/04 RMK AO2
14837KMSN MSN20041109005011411/09/04 00:50:31  5-MIN KMSN 090650Z 13004KT 10SM OVC080 03/M06 A3044 390 54 -900 120/04 RMK AO2 SLP315 T00281056
14837KMSN MSN20041109005509711/09/04 00:55:31  5-MIN KMSN 090655Z 12003KT 10SM OVC080 03/M06 A3043 390 54 -900 120/03 RMK AO2
14837KMSN MSN20041109010009711/09/04 01:00:31  5-MIN KMSN 090700Z 13004KT 10SM OVC080 03/M06 A3043 400 52 -900 130/04 RMK AO2
14837KMSN MSN20041109010509711/09/04 01:05:31  5-MIN KMSN 090705Z 13004KT 10SM OVC080 03/M06 A3042 400 52 -900 130/04 RMK AO2
14837KMSN MSN20041109011009711/09/04 01:10:31  5-MIN KMSN 090710Z 14005KT 10SM OVC080 03/M06 A3042 400 52 -900 140/05 RMK AO2
14837KMSN MSN20041109011509711/09/04 01:15:31  5-MIN KMSN 090715Z 13004KT 10SM OVC080 03/M07 A3043 400 50 -900 130/04 RMK AO2
14837KMSN MSN20041109012009711/09/04 01:20:31  5-MIN KMSN 090720Z 12003KT 10SM OVC080 03/M07 A3043 390 48 -900 110/03 RMK AO2
14837KMSN MSN20041109012509711/09/04 01:25:31  5-MIN KMSN 090725Z 12003KT 10SM OVC080 03/M07 A3043 390 50 -900 120/03 RMK AO2
14837KMSN MSN20041109013009711/09/04 01:30:31  5-MIN KMSN 090730Z 13003KT 10SM OVC080 03/M06 A3043 390 52 -900 130/03 RMK AO2
14837KMSN MSN20041109013509711/09/04 01:35:31  5-MIN KMSN 090735Z 12003KT 10SM OVC080 03/M06 A3044 390 52 -900 120/03 RMK AO2
14837KMSN MSN20041109014009711/09/04 01:40:31  5-MIN KMSN 090740Z 00000KT 10SM OVC080 03/M06 A3044 390 52 -900 000/00 RMK AO2
14837KMSN MSN20041109014509711/09/04 01:45:31  5-MIN KMSN 090745Z 10003KT 10SM OVC080 03/M06 A3044 390 52 -900 100/03 RMK AO2
14837KMSN MSN20041109015011411/09/04 01:50:31  5-MIN KMSN 090750Z 10004KT 10SM OVC080 03/M06 A3044 390 54 -900 100/04 RMK AO2 SLP316 T00281056
14837KMSN MSN20041109015509711/09/04 01:55:31  5-MIN KMSN 090755Z 12005KT 10SM OVC080 03/M05 A3044 390 56 -900 110/05 RMK AO2
14837KMSN MSN20041109020009711/09/04 02:00:31  5-MIN KMSN 090800Z 11003KT 10SM OVC080 03/M06 A3044 390 52 -900 110/03 RMK AO2
14837KMSN MSN20041109020509711/09/04 02:05:31  5-MIN KMSN 090805Z 10004KT 10SM OVC075 03/M05 A3044 390 56 -900 100/04 RMK AO2
14837KMSN MSN20041109021009711/09/04 02:10:31  5-MIN KMSN 090810Z 00000KT 10SM OVC075 03/M05 A3044 390 56 -900 000/00 RMK AO2
14837KMSN MSN20041109021509711/09/04 02:15:31  5-MIN KMSN 090815Z 14003KT 10SM OVC080 03/M06 A3044 390 54 -900 130/03 RMK AO2
14837KMSN MSN20041109022009711/09/04 02:20:31  5-MIN KMSN 090820Z 12004KT 10SM OVC075 03/M06 A3044 390 54 -900 120/04 RMK AO2
14837KMSN MSN20041109022509711/09/04 02:25:31  5-MIN KMSN 090825Z 11003KT 10SM OVC075 03/M06 A3044 390 52 -900 110/03 RMK AO2
14837KMSN MSN20041109023009711/09/04 02:30:31  5-MIN KMSN 090830Z 12003KT 10SM OVC075 03/M06 A3044 390 52 -900 120/03 RMK AO2
14837KMSN MSN20041109023509711/09/04 02:35:31  5-MIN KMSN 090835Z 12003KT 10SM OVC075 03/M06 A3044 390 52 -900 120/03 RMK AO2
14837KMSN MSN20041109024009711/09/04 02:40:31  5-MIN KMSN 090840Z 11003KT 10SM OVC075 03/M06 A3044 390 54 -900 110/03 RMK AO2
14837KMSN MSN20041109024509711/09/04 02:45:31  5-MIN KMSN 090845Z 11003KT 10SM OVC075 03/M06 A3044 390 54 -900 110/03 RMK AO2
14837KMSN MSN20041109025012011/09/04 02:50:31  5-MIN KMSN 090850Z 10004KT 10SM OVC075 03/M05 A3044 390 54 -800 100/04 RMK AO2 SLP315 T00331050 53002
14837KMSN MSN20041109025509711/09/04 02:55:31  5-MIN KMSN 090855Z 10004KT 10SM OVC075 03/M05 A3044 390 56 -900 100/04 RMK AO2
14837KMSN MSN20041109030009711/09/04 03:00:31  5-MIN KMSN 090900Z 12003KT 10SM OVC075 03/M05 A3044 390 56 -900 110/03 RMK AO2
14837KMSN MSN20041109030509711/09/04 03:05:31  5-MIN KMSN 090905Z 11003KT 10SM OVC075 03/M05 A3043 390 56 -900 110/03 RMK AO2
14837KMSN MSN20041109031009711/09/04 03:10:31  5-MIN KMSN 090910Z 12003KT 10SM OVC075 03/M05 A3043 390 56 -900 120/03 RMK AO2
14837KMSN MSN20041109031509711/09/04 03:15:31  5-MIN KMSN 090915Z 11004KT 10SM OVC075 03/M05 A3043 390 56 -900 110/04 RMK AO2
14837KMSN MSN20041109032009711/09/04 03:20:31  5-MIN KMSN 090920Z 11004KT 10SM OVC070 03/M06 A3044 390 54 -900 110/04 RMK AO2
14837KMSN MSN20041109032509711/09/04 03:25:31  5-MIN KMSN 090925Z 11004KT 10SM OVC075 03/M05 A3044 390 56 -900 110/04 RMK AO2
14837KMSN MSN20041109033009811/09/04 03:30:31  5-MIN KMSN 090930Z 11004KT 10SM OVC075 02/M06 A3044 390 56 -1000 110/04 RMK AO2
14837KMSN MSN20041109033509811/09/04 03:35:31  5-MIN KMSN 090935Z 10004KT 10SM BKN075 02/M06 A3043 390 56 -1000 100/04 RMK AO2
14837KMSN MSN20041109034009811/09/04 03:40:31  5-MIN KMSN 090940Z 11004KT 10SM BKN075 02/M06 A3043 390 56 -1000 110/04 RMK AO2
14837KMSN MSN20041109034509811/09/04 03:45:31  5-MIN KMSN 090945Z 12004KT 10SM SCT075 02/M06 A3044 390 59 -1000 110/04 RMK AO2
14837KMSN MSN20041109035011511/09/04 03:50:31  5-MIN KMSN 090950Z 11004KT 10SM SCT075 02/M06 A3044 390 59 -1100 110/04 RMK AO2 SLP316 T00171056
14837KMSN MSN20041109035509811/09/04 03:55:31  5-MIN KMSN 090955Z 11004KT 10SM FEW075 01/M06 A3043 390 61 -1100 100/04 RMK AO2
14837KMSN MSN20041109040009511/09/04 04:00:31  5-MIN KMSN 091000Z 12004KT 10SM CLR 01/M06 A3043 390 61 -1100 120/04 RMK AO2
14837KMSN MSN20041109040509511/09/04 04:05:31  5-MIN KMSN 091005Z 13003KT 10SM CLR 01/M06 A3044 390 63 -1200 130/03 RMK AO2
14837KMSN MSN20041109041009511/09/04 04:10:31  5-MIN KMSN 091010Z 14003KT 10SM CLR 01/M06 A3044 390 58 -1100 130/03 RMK AO2
14837KMSN MSN20041109041509511/09/04 04:15:31  5-MIN KMSN 091015Z 14004KT 10SM CLR 02/M06 A3044 390 56 -1000 140/04 RMK AO2
14837KMSN MSN20041109042009511/09/04 04:20:31  5-MIN KMSN 091020Z 14005KT 10SM CLR 02/M06 A3044 390 56 -1000 140/05 RMK AO2
14837KMSN MSN20041109042509511/09/04 04:25:31  5-MIN KMSN 091025Z 15004KT 10SM CLR 01/M06 A3044 390 58 -1100 150/04 RMK AO2
14837KMSN MSN20041109043009511/09/04 04:30:31  5-MIN KMSN 091030Z 15003KT 10SM CLR 02/M06 A3044 390 56 -1000 150/03 RMK AO2
14837KMSN MSN20041109043509511/09/04 04:35:31  5-MIN KMSN 091035Z 14003KT 10SM CLR 02/M06 A3044 390 56 -1000 140/03 RMK AO2
14837KMSN MSN20041109044009511/09/04 04:40:31  5-MIN KMSN 091040Z 14004KT 10SM CLR 01/M06 A3043 390 58 -1100 140/04 RMK AO2
14837KMSN MSN20041109044509511/09/04 04:45:31  5-MIN KMSN 091045Z 14005KT 10SM CLR 01/M06 A3043 390 58 -1100 140/05 RMK AO2
14837KMSN MSN20041109045011211/09/04 04:50:31  5-MIN KMSN 091050Z 14004KT 10SM CLR 01/M06 A3043 390 58 -1100 140/04 RMK AO2 SLP314 T00111061
14837KMSN MSN20041109045509511/09/04 04:55:31  5-MIN KMSN 091055Z 12004KT 10SM CLR 01/M06 A3043 390 58 -1100 120/04 RMK AO2
14837KMSN MSN20041109050009511/09/04 05:00:31  5-MIN KMSN 091100Z 11004KT 10SM CLR 01/M06 A3043 390 58 -1100 110/04 RMK AO2
14837KMSN MSN20041109050509511/09/04 05:05:31  5-MIN KMSN 091105Z 11003KT 10SM CLR 01/M06 A3043 390 61 -1200 110/03 RMK AO2
14837KMSN MSN20041109051009511/09/04 05:10:31  5-MIN KMSN 091110Z 00000KT 10SM CLR 00/M06 A3043 390 66 -1300 000/00 RMK AO2
14837KMSN MSN20041109051509511/09/04 05:15:31  5-MIN KMSN 091115Z 00000KT 10SM CLR 00/M06 A3043 400 66 -1300 000/00 RMK AO2
14837KMSN MSN20041109052009511/09/04 05:20:31  5-MIN KMSN 091120Z 00000KT 10SM CLR 00/M06 A3043 400 66 -1300 000/00 RMK AO2
14837KMSN MSN20041109052509511/09/04 05:25:31  5-MIN KMSN 091125Z 00000KT 10SM CLR 00/M06 A3043 400 66 -1200 000/00 RMK AO2
14837KMSN MSN20041109053009611/09/04 05:30:31  5-MIN KMSN 091130Z 00000KT 10SM CLR M01/M05 A3043 400 72 -1300 000/00 RMK AO2
14837KMSN MSN20041109053509511/09/04 05:35:31  5-MIN KMSN 091135Z 00000KT 10SM CLR 00/M06 A3043 400 66 -1200 000/00 RMK AO2
14837KMSN MSN20041109054009511/09/04 05:40:31  5-MIN KMSN 091140Z 00000KT 10SM CLR 00/M06 A3043 400 66 -1200 000/00 RMK AO2
14837KMSN MSN20041109054509611/09/04 05:45:31  5-MIN KMSN 091145Z 00000KT 10SM CLR M01/M05 A3043 400 72 -1300 000/00 RMK AO2
14837KMSN MSN20041109055013111/09/04 05:50:31  5-MIN KMSN 091150Z 00000KT 10SM CLR M01/M05 A3043 390 72 -1300 000/00 RMK AO2 SLP314 T10061050 10033 21006 56002
14837KMSN MSN20041109055509611/09/04 05:55:31  5-MIN KMSN 091155Z 00000KT 10SM CLR M01/M05 A3043 390 72 -1300 000/00 RMK AO2
14837KMSN MSN20041109060009511/09/04 06:00:31  5-MIN KMSN 091200Z 00000KT 10SM CLR 00/M06 A3043 390 66 -1300 000/00 RMK AO2
14837KMSN MSN20041109060509511/09/04 06:05:31  5-MIN KMSN 091205Z 11004KT 10SM CLR 00/M06 A3044 390 66 -1300 110/04 RMK AO2
14837KMSN MSN20041109061009511/09/04 06:10:31  5-MIN KMSN 091210Z 10004KT 10SM CLR 00/M06 A3044 390 66 -1300 100/04 RMK AO2
14837KMSN MSN20041109061509511/09/04 06:15:31  5-MIN KMSN 091215Z 10005KT 10SM CLR 01/M06 A3044 390 63 -1200 100/05 RMK AO2
14837KMSN MSN20041109062009511/09/04 06:20:31  5-MIN KMSN 091220Z 11005KT 10SM CLR 01/M06 A3044 390 63 -1200 110/05 RMK AO2
14837KMSN MSN20041109062509511/09/04 06:25:31  5-MIN KMSN 091225Z 11004KT 10SM CLR 01/M06 A3044 390 63 -1200 110/04 RMK AO2
14837KMSN MSN20041109063009511/09/04 06:30:31  5-MIN KMSN 091230Z 11004KT 10SM CLR 00/M06 A3044 390 66 -1300 110/04 RMK AO2
14837KMSN MSN20041109063509511/09/04 06:35:31  5-MIN KMSN 091235Z 11004KT 10SM CLR 00/M06 A3044 390 66 -1300 110/04 RMK AO2
14837KMSN MSN20041109064009511/09/04 06:40:31  5-MIN KMSN 091240Z 11004KT 10SM CLR 00/M06 A3044 390 66 -1300 110/04 RMK AO2
14837KMSN MSN20041109064509511/09/04 06:45:31  5-MIN KMSN 091245Z 12004KT 10SM CLR 01/M06 A3044 390 61 -1200 120/04 RMK AO2
14837KMSN MSN20041109065011211/09/04 06:50:31  5-MIN KMSN 091250Z 12004KT 10SM CLR 01/M06 A3044 390 61 -1200 120/04 RMK AO2 SLP316 T00061061
14837KMSN MSN20041109065509511/09/04 06:55:31  5-MIN KMSN 091255Z 12003KT 10SM CLR 01/M06 A3044 390 63 -1200 120/03 RMK AO2
14837KMSN MSN20041109070009511/09/04 07:00:31  5-MIN KMSN 091300Z 11003KT 10SM CLR 01/M06 A3044 390 63 -1200 110/03 RMK AO2
14837KMSN MSN20041109070509511/09/04 07:05:31  5-MIN KMSN 091305Z 11003KT 10SM CLR 01/M06 A3044 390 63 -1200 110/03 RMK AO2
14837KMSN MSN20041109071009511/09/04 07:10:31  5-MIN KMSN 091310Z 13003KT 10SM CLR 01/M06 A3044 390 63 -1200 130/03 RMK AO2
14837KMSN MSN20041109071509511/09/04 07:15:31  5-MIN KMSN 091315Z 00000KT 10SM CLR 01/M06 A3044 390 58 -1100 000/00 RMK AO2
14837KMSN MSN20041109072009511/09/04 07:20:31  5-MIN KMSN 091320Z 14005KT 10SM CLR 01/M06 A3044 390 61 -1100 140/05 RMK AO2
14837KMSN MSN20041109072509511/09/04 07:25:31  5-MIN KMSN 091325Z 14006KT 10SM CLR 01/M05 A3044 390 64 -1100 130/06 RMK AO2
14837KMSN MSN20041109073009511/09/04 07:30:31  5-MIN KMSN 091330Z 14006KT 10SM CLR 02/M05 A3044 390 61 -1000 140/06 RMK AO2
14837KMSN MSN20041109073509511/09/04 07:35:31  5-MIN KMSN 091335Z 14007KT 10SM CLR 02/M04 A3044 390 64 -1000 140/07 RMK AO2
14837KMSN MSN20041109074009511/09/04 07:40:31  5-MIN KMSN 091340Z 13007KT 10SM CLR 02/M04 A3043 390 64 -1000 130/07 RMK AO2
14837KMSN MSN20041109074509511/09/04 07:45:31  5-MIN KMSN 091345Z 13006KT 10SM CLR 02/M04 A3043 390 64 -1000 130/06 RMK AO2
14837KMSN MSN20041109075011211/09/04 07:50:31  5-MIN KMSN 091350Z 12006KT 10SM CLR 02/M04 A3043 390 61 -1000 120/06 RMK AO2 SLP313 T00221044
14837KMSN MSN20041109075509511/09/04 07:55:31  5-MIN KMSN 091355Z 12005KT 10SM CLR 02/M04 A3043 400 64 -1000 110/05 RMK AO2
14837KMSN MSN20041109080009511/09/04 08:00:31  5-MIN KMSN 091400Z 12006KT 10SM CLR 02/M04 A3043 400 64 -1000 120/06 RMK AO2
14837KMSN MSN20041109080509411/09/04 08:05:31  5-MIN KMSN 091405Z 12006KT 10SM CLR 03/M04 A3043 400 61 -900 120/06 RMK AO2
14837KMSN MSN20041109081009411/09/04 08:10:31  5-MIN KMSN 091410Z 12006KT 10SM CLR 03/M04 A3043 400 61 -900 120/06 RMK AO2
14837KMSN MSN20041109081509411/09/04 08:15:31  5-MIN KMSN 091415Z 12008KT 10SM CLR 03/M04 A3043 400 57 -800 120/08 RMK AO2
14837KMSN MSN20041109082009411/09/04 08:20:31  5-MIN KMSN 091420Z 13008KT 10SM CLR 03/M04 A3042 400 57 -800 130/08 RMK AO2
14837KMSN MSN20041109082509411/09/04 08:25:31  5-MIN KMSN 091425Z 14008KT 10SM CLR 03/M04 A3042 400 57 -800 140/08 RMK AO2
14837KMSN MSN20041109083009411/09/04 08:30:31  5-MIN KMSN 091430Z 14007KT 10SM CLR 03/M04 A3042 410 57 -800 140/07 RMK AO2
14837KMSN MSN20041109083509411/09/04 08:35:31  5-MIN KMSN 091435Z 14008KT 10SM CLR 03/M04 A3041 410 57 -800 140/08 RMK AO2
14837KMSN MSN20041109084009411/09/04 08:40:31  5-MIN KMSN 091440Z 16009KT 10SM CLR 04/M04 A3041 420 54 -700 150/09 RMK AO2
14837KMSN MSN20041109084509411/09/04 08:45:31  5-MIN KMSN 091445Z 15009KT 10SM CLR 04/M04 A3041 420 52 -700 150/09 RMK AO2
14837KMSN MSN20041109085011711/09/04 08:50:31  5-MIN KMSN 091450Z 16010KT 10SM CLR 04/M05 A3040 420 50 -700 160/10 RMK AO2 SLP304 T00441050 56002
14837KMSN MSN20041109085509411/09/04 08:55:31  5-MIN KMSN 091455Z 17010KT 10SM CLR 05/M04 A3040 420 50 -600 170/10 RMK AO2
14837KMSN MSN20041109090009411/09/04 09:00:31  5-MIN KMSN 091500Z 16011KT 10SM CLR 06/M04 A3040 420 48 -500 160/11 RMK AO2
14837KMSN MSN20041109090509411/09/04 09:05:31  5-MIN KMSN 091505Z 16010KT 10SM CLR 06/M05 A3040 420 46 -500 160/10 RMK AO2
14837KMSN MSN20041109091009411/09/04 09:10:31  5-MIN KMSN 091510Z 16010KT 10SM CLR 06/M05 A3040 430 46 -500 160/10 RMK AO2
14837KMSN MSN20041109091509411/09/04 09:15:31  5-MIN KMSN 091515Z 16011KT 10SM CLR 06/M04 A3040 430 46 -500 160/11 RMK AO2
14837KMSN MSN20041109092009411/09/04 09:20:31  5-MIN KMSN 091520Z 17010KT 10SM CLR 06/M05 A3039 430 45 -400 160/10 RMK AO2
14837KMSN MSN20041109092509411/09/04 09:25:31  5-MIN KMSN 091525Z 17013KT 10SM CLR 06/M05 A3040 430 45 -500 170/13 RMK AO2
14837KMSN MSN20041109093009411/09/04 09:30:31  5-MIN KMSN 091530Z 17010KT 10SM CLR 06/M05 A3040 430 45 -500 170/10 RMK AO2
14837KMSN MSN20041109093509411/09/04 09:35:31  5-MIN KMSN 091535Z 18009KT 10SM CLR 07/M04 A3039 430 45 -400 180/09 RMK AO2
14837KMSN MSN20041109094009411/09/04 09:40:31  5-MIN KMSN 091540Z 16011KT 10SM CLR 07/M04 A3039 430 47 -400 160/11 RMK AO2
14837KMSN MSN20041109094509411/09/04 09:45:31  5-MIN KMSN 091545Z 18012KT 10SM CLR 07/M04 A3039 430 45 -400 180/12 RMK AO2
14837KMSN MSN20041109095011111/09/04 09:50:31  5-MIN KMSN 091550Z 16012KT 10SM CLR 07/M04 A3039 430 45 -300 160/12 RMK AO2 SLP297 T00721039
14837KMSN MSN20041109095509411/09/04 09:55:31  5-MIN KMSN 091555Z 17011KT 10SM CLR 07/M04 A3039 440 43 -300 170/11 RMK AO2
14837KMSN MSN20041109100009411/09/04 10:00:31  5-MIN KMSN 091600Z 18011KT 10SM CLR 07/M04 A3038 440 43 -300 180/11 RMK AO2
14837KMSN MSN20041109100509411/09/04 10:05:31  5-MIN KMSN 091605Z 16011KT 10SM CLR 08/M04 A3038 440 41 -200 160/11 RMK AO2
14837KMSN MSN20041109101009411/09/04 10:10:31  5-MIN KMSN 091610Z 16013KT 10SM CLR 08/M04 A3038 440 40 -200 160/13 RMK AO2
14837KMSN MSN20041109101509411/09/04 10:15:31  5-MIN KMSN 091615Z 17014KT 10SM CLR 08/M06 A3038 440 37 -200 170/14 RMK AO2
14837KMSN MSN20041109102009411/09/04 10:20:31  5-MIN KMSN 091620Z 17012KT 10SM CLR 08/M06 A3038 440 37 -200 170/12 RMK AO2
14837KMSN MSN20041109102510011/09/04 10:25:31  5-MIN KMSN 091625Z 16015G19KT 10SM CLR 08/M05 A3038 440 38 -200 160/15G19 RMK AO2
14837KMSN MSN20041109103010011/09/04 10:30:31  5-MIN KMSN 091630Z 16014G19KT 10SM CLR 08/M06 A3038 440 37 -200 160/14G19 RMK AO2
14837KMSN MSN20041109103509411/09/04 10:35:31  5-MIN KMSN 091635Z 18013KT 10SM CLR 08/M06 A3038 450 37 -200 180/13 RMK AO2
14837KMSN MSN20041109104009411/09/04 10:40:31  5-MIN KMSN 091640Z 17011KT 10SM CLR 08/M06 A3037 450 37 -200 170/11 RMK AO2
14837KMSN MSN20041109104510011/09/04 10:45:31  5-MIN KMSN 091645Z 17013G20KT 10SM CLR 09/M06 A3037 450 35 -100 170/13G20 RMK AO2
14837KMSN MSN20041109105011411/09/04 10:50:31  5-MIN KMSN 091650Z 16017G20KT 10SM CLR 09/M06 A3037 450 34 0 160/17G20 RMK AO2 SLP290 T00941056
14837KMSN MSN20041109105509111/09/04 10:55:31  5-MIN KMSN 091655Z 16015KT 10SM CLR 09/M06 A3036 460 34 0 160/15 RMK AO2
14837KMSN MSN20041109110009111/09/04 11:00:31  5-MIN KMSN 091700Z 16014KT 10SM CLR 09/M06 A3036 460 34 0 160/14 RMK AO2
14837KMSN MSN20041109110509111/09/04 11:05:31  5-MIN KMSN 091705Z 17015KT 10SM CLR 09/M06 A3035 470 34 0 170/15 RMK AO2
14837KMSN MSN20041109111009711/09/04 11:10:31  5-MIN KMSN 091710Z 17016G20KT 10SM CLR 09/M06 A3035 470 33 0 170/16G20 RMK AO2
14837KMSN MSN20041109111509711/09/04 11:15:31  5-MIN KMSN 091715Z 17016G21KT 10SM CLR 10/M06 A3035 470 31 0 170/16G21 RMK AO2
14837KMSN MSN20041109112009711/09/04 11:20:31  5-MIN KMSN 091720Z 19014G21KT 10SM CLR 10/M06 A3034 470 31 0 190/14G21 RMK AO2
14837KMSN MSN20041109112509711/09/04 11:25:31  5-MIN KMSN 091725Z 17015G20KT 10SM CLR 10/M06 A3034 480 33 0 170/15G20 RMK AO2
14837KMSN MSN20041109113009111/09/04 11:30:31  5-MIN KMSN 091730Z 18015KT 10SM CLR 10/M06 A3034 480 33 0 180/15 RMK AO2
14837KMSN MSN20041109113509111/09/04 11:35:31  5-MIN KMSN 091735Z 18014KT 10SM CLR 10/M06 A3034 480 33 0 170/14 RMK AO2
14837KMSN MSN20041109114009111/09/04 11:40:31  5-MIN KMSN 091740Z 17013KT 10SM CLR 10/M06 A3033 490 33 0 170/13 RMK AO2
14837KMSN MSN20041109114509911/09/04 11:45:31  5-MIN KMSN 091745Z 17016G23KT 10SM CLR 11/M05 A3033 490 33 100 170/16G23 RMK AO2
14837KMSN MSN20041109115013411/09/04 11:50:31  5-MIN KMSN 091750Z 18013G23KT 10SM CLR 11/M06 A3032 490 31 100 180/13G23 RMK AO2 SLP274 T01061056 10106 21006 58010
14837KMSN MSN20041109115509311/09/04 11:55:31  5-MIN KMSN 091755Z 16018KT 10SM CLR 11/M05 A3032 500 33 100 160/18 RMK AO2
14837KMSN MSN20041109120009911/09/04 12:00:31  5-MIN KMSN 091800Z 17016G21KT 10SM CLR 11/M06 A3032 500 31 100 170/16G21 RMK AO2
14837KMSN MSN20041109120509911/09/04 12:05:31  5-MIN KMSN 091805Z 17015G21KT 10SM CLR 11/M05 A3031 500 33 100 170/15G21 RMK AO2
14837KMSN MSN20041109121009311/09/04 12:10:31  5-MIN KMSN 091810Z 18014KT 10SM CLR 11/M05 A3031 510 32 200 180/14 RMK AO2
14837KMSN MSN20041109121509311/09/04 12:15:31  5-MIN KMSN 091815Z 18012KT 10SM CLR 11/M05 A3031 510 33 100 170/12 RMK AO2
14837KMSN MSN20041109122009311/09/04 12:20:31  5-MIN KMSN 091820Z 16014KT 10SM CLR 11/M04 A3031 510 33 200 160/14 RMK AO2
14837KMSN MSN20041109122509311/09/04 12:25:31  5-MIN KMSN 091825Z 17013KT 10SM CLR 11/M05 A3031 510 32 200 170/13 RMK AO2
14837KMSN MSN20041109123009911/09/04 12:30:31  5-MIN KMSN 091830Z 17015G19KT 10SM CLR 11/M05 A3030 510 32 200 170/15G19 RMK AO2
14837KMSN MSN20041109123509311/09/04 12:35:31  5-MIN KMSN 091835Z 17012KT 10SM CLR 11/M05 A3030 520 32 200 170/12 RMK AO2
14837KMSN MSN20041109124009311/09/04 12:40:31  5-MIN KMSN 091840Z 17013KT 10SM CLR 11/M04 A3030 520 33 200 170/13 RMK AO2
14837KMSN MSN20041109124509311/09/04 12:45:31  5-MIN KMSN 091845Z 17014KT 10SM CLR 11/M05 A3030 520 32 200 160/14 RMK AO2
14837KMSN MSN20041109125011011/09/04 12:50:31  5-MIN KMSN 091850Z 17014KT 10SM CLR 12/M04 A3029 520 32 300 170/14 RMK AO2 SLP263 T01171044
14837KMSN MSN20041109125509311/09/04 12:55:31  5-MIN KMSN 091855Z 18013KT 10SM CLR 12/M04 A3029 530 32 300 180/13 RMK AO2
14837KMSN MSN20041109130009311/09/04 13:00:31  5-MIN KMSN 091900Z 18014KT 10SM CLR 12/M05 A3028 530 30 300 170/14 RMK AO2
14837KMSN MSN20041109130509911/09/04 13:05:31  5-MIN KMSN 091905Z 17015G20KT 10SM CLR 12/M04 A3028 540 32 300 160/15G20 RMK AO2
14837KMSN MSN20041109131009911/09/04 13:10:31  5-MIN KMSN 091910Z 18013G20KT 10SM CLR 12/M04 A3027 540 31 400 180/13G20 RMK AO2
14837KMSN MSN20041109131509911/09/04 13:15:31  5-MIN KMSN 091915Z 18013G20KT 10SM CLR 12/M04 A3027 540 31 400 180/13G20 RMK AO2
14837KMSN MSN20041109132009911/09/04 13:20:31  5-MIN KMSN 091920Z 17018G22KT 10SM CLR 12/M04 A3026 550 32 300 160/18G22 RMK AO2
14837KMSN MSN20041109132509911/09/04 13:25:31  5-MIN KMSN 091925Z 17017G22KT 10SM CLR 12/M04 A3026 550 31 400 170/17G22 RMK AO2
14837KMSN MSN20041109133009311/09/04 13:30:31  5-MIN KMSN 091930Z 16016KT 10SM CLR 12/M04 A3026 560 32 400 160/16 RMK AO2
14837KMSN MSN20041109133509311/09/04 13:35:31  5-MIN KMSN 091935Z 17014KT 10SM CLR 12/M04 A3025 560 32 400 170/14 RMK AO2
14837KMSN MSN20041109134009311/09/04 13:40:31  5-MIN KMSN 091940Z 16017KT 10SM CLR 12/M04 A3025 560 32 400 160/17 RMK AO2
14837KMSN MSN20041109134509911/09/04 13:45:31  5-MIN KMSN 091945Z 17018G21KT 10SM CLR 12/M04 A3025 560 32 400 160/18G21 RMK AO2
14837KMSN MSN20041109135011011/09/04 13:50:31  5-MIN KMSN 091950Z 16017KT 10SM CLR 12/M04 A3024 570 32 400 160/17 RMK AO2 SLP247 T01221039
14837KMSN MSN20041109135509311/09/04 13:55:31  5-MIN KMSN 091955Z 18017KT 10SM CLR 12/M04 A3024 570 31 400 180/17 RMK AO2
14837KMSN MSN20041109140009311/09/04 14:00:31  5-MIN KMSN 092000Z 17015KT 10SM CLR 12/M04 A3024 570 32 400 170/15 RMK AO2
14837KMSN MSN20041109140509911/09/04 14:05:31  5-MIN KMSN 092005Z 17018G21KT 10SM CLR 12/M04 A3024 570 32 400 170/18G21 RMK AO2
14837KMSN MSN20041109141009311/09/04 14:10:31  5-MIN KMSN 092010Z 17016KT 10SM CLR 12/M04 A3024 570 32 400 170/16 RMK AO2
14837KMSN MSN20041109141509311/09/04 14:15:31  5-MIN KMSN 092015Z 17016KT 10SM CLR 12/M03 A3023 580 33 400 170/16 RMK AO2
14837KMSN MSN20041109142009311/09/04 14:20:31  5-MIN KMSN 092020Z 17012KT 10SM CLR 12/M03 A3023 580 35 400 170/12 RMK AO2
14837KMSN MSN20041109142509311/09/04 14:25:31  5-MIN KMSN 092025Z 17015KT 10SM CLR 12/M03 A3023 580 33 400 170/15 RMK AO2
14837KMSN MSN20041109143009311/09/04 14:30:31  5-MIN KMSN 092030Z 17013KT 10SM CLR 12/M03 A3023 580 33 400 170/13 RMK AO2
14837KMSN MSN20041109143509311/09/04 14:35:31  5-MIN KMSN 092035Z 17013KT 10SM CLR 12/M03 A3023 580 35 400 170/13 RMK AO2
14837KMSN MSN20041109144009311/09/04 14:40:31  5-MIN KMSN 092040Z 17014KT 10SM CLR 12/M03 A3022 580 33 400 170/14 RMK AO2
14837KMSN MSN20041109144509311/09/04 14:45:31  5-MIN KMSN 092045Z 18013KT 10SM CLR 12/M03 A3023 580 33 400 180/13 RMK AO2
14837KMSN MSN20041109145011611/09/04 14:50:31  5-MIN KMSN 092050Z 17016KT 10SM CLR 12/M03 A3022 580 33 400 170/16 RMK AO2 SLP240 T01221033 58026
14837KMSN MSN20041109145509311/09/04 14:55:31  5-MIN KMSN 092055Z 18015KT 10SM CLR 12/M03 A3022 590 33 400 180/15 RMK AO2
14837KMSN MSN20041109150009311/09/04 15:00:31  5-MIN KMSN 092100Z 17012KT 10SM CLR 12/M03 A3022 590 36 400 170/12 RMK AO2
14837KMSN MSN20041109150509911/09/04 15:05:31  5-MIN KMSN 092105Z 17014G19KT 10SM CLR 12/M03 A3022 590 36 400 170/14G19 RMK AO2
14837KMSN MSN20041109151009911/09/04 15:10:31  5-MIN KMSN 092110Z 17015G19KT 10SM CLR 12/M03 A3022 590 36 400 170/15G19 RMK AO2
14837KMSN MSN20041109151509911/09/04 15:15:31  5-MIN KMSN 092115Z 17014G19KT 10SM CLR 12/M03 A3022 590 35 400 170/14G19 RMK AO2
14837KMSN MSN20041109152009311/09/04 15:20:31  5-MIN KMSN 092120Z 17014KT 10SM CLR 12/M03 A3021 590 35 400 170/14 RMK AO2
14837KMSN MSN20041109152509311/09/04 15:25:31  5-MIN KMSN 092125Z 17011KT 10SM CLR 12/M02 A3021 590 36 400 170/11 RMK AO2
14837KMSN MSN20041109153009311/09/04 15:30:31  5-MIN KMSN 092130Z 17010KT 10SM CLR 12/M02 A3021 600 36 400 170/10 RMK AO2
14837KMSN MSN20041109153509311/09/04 15:35:31  5-MIN KMSN 092135Z 17013KT 10SM CLR 12/M02 A3021 600 36 400 170/13 RMK AO2
14837KMSN MSN20041109154009311/09/04 15:40:31  5-MIN KMSN 092140Z 17014KT 10SM CLR 12/M03 A3021 600 36 400 170/14 RMK AO2
14837KMSN MSN20041109154509311/09/04 15:45:31  5-MIN KMSN 092145Z 18011KT 10SM CLR 12/M02 A3021 600 38 400 170/11 RMK AO2
14837KMSN MSN20041109155011011/09/04 15:50:31  5-MIN KMSN 092150Z 18014KT 10SM CLR 12/M02 A3021 600 38 400 180/14 RMK AO2 SLP236 T01171022
14837KMSN MSN20041109155509311/09/04 15:55:31  5-MIN KMSN 092155Z 17015KT 10SM CLR 12/M03 A3021 600 36 400 170/15 RMK AO2
14837KMSN MSN20041109160009311/09/04 16:00:31  5-MIN KMSN 092200Z 17012KT 10SM CLR 12/M03 A3021 600 36 400 170/12 RMK AO2
14837KMSN MSN20041109160509311/09/04 16:05:31  5-MIN KMSN 092205Z 18013KT 10SM CLR 11/M02 A3020 600 39 300 180/13 RMK AO2
14837KMSN MSN20041109161009311/09/04 16:10:31  5-MIN KMSN 092210Z 18014KT 10SM CLR 11/M03 A3020 600 37 300 180/14 RMK AO2
14837KMSN MSN20041109161509911/09/04 16:15:31  5-MIN KMSN 092215Z 18014G20KT 10SM CLR 11/M03 A3020 600 37 300 180/14G20 RMK AO2
14837KMSN MSN20041109162009911/09/04 16:20:31  5-MIN KMSN 092220Z 17012G20KT 10SM CLR 11/M03 A3020 610 37 300 170/12G20 RMK AO2
14837KMSN MSN20041109162509311/09/04 16:25:31  5-MIN KMSN 092225Z 18011KT 10SM CLR 11/M02 A3020 610 39 300 180/11 RMK AO2
14837KMSN MSN20041109163009311/09/04 16:30:31  5-MIN KMSN 092230Z 17011KT 10SM CLR 11/M02 A3020 610 40 300 170/11 RMK AO2
14837KMSN MSN20041109163509311/09/04 16:35:31  5-MIN KMSN 092235Z 17009KT 10SM CLR 11/M02 A3020 610 40 300 170/09 RMK AO2
14837KMSN MSN20041109164009311/09/04 16:40:31  5-MIN KMSN 092240Z 18011KT 10SM CLR 11/M02 A3020 610 40 300 180/11 RMK AO2
14837KMSN MSN20041109164509311/09/04 16:45:31  5-MIN KMSN 092245Z 17010KT 10SM CLR 11/M02 A3020 610 40 300 170/10 RMK AO2
14837KMSN MSN20041109165011311/09/04 16:50:31  5-MIN KMSN 092250Z 18010KT 10SM FEW080 11/M02 A3020 610 40 300 170/10 RMK AO2 SLP231 T01061022
14837KMSN MSN20041109165509611/09/04 16:55:31  5-MIN KMSN 092255Z 18010KT 10SM FEW080 11/M02 A3019 610 40 300 180/10 RMK AO2
14837KMSN MSN20041109170009611/09/04 17:00:31  5-MIN KMSN 092300Z 17009KT 10SM FEW080 11/M02 A3019 610 40 300 170/09 RMK AO2
14837KMSN MSN20041109170509611/09/04 17:05:31  5-MIN KMSN 092305Z 17009KT 10SM FEW080 11/M02 A3019 610 40 300 170/09 RMK AO2
14837KMSN MSN20041109171009611/09/04 17:10:31  5-MIN KMSN 092310Z 17009KT 10SM FEW080 10/M02 A3019 610 42 200 170/09 RMK AO2
14837KMSN MSN20041109171509611/09/04 17:15:31  5-MIN KMSN 092315Z 17010KT 10SM FEW080 10/M02 A3019 610 44 200 170/10 RMK AO2
14837KMSN MSN20041109172009611/09/04 17:20:31  5-MIN KMSN 092320Z 17009KT 10SM FEW080 10/M02 A3019 610 44 200 170/09 RMK AO2
14837KMSN MSN20041109172509611/09/04 17:25:31  5-MIN KMSN 092325Z 17010KT 10SM FEW080 10/M02 A3019 610 44 200 170/10 RMK AO2
14837KMSN MSN20041109173009611/09/04 17:30:31  5-MIN KMSN 092330Z 17009KT 10SM FEW080 10/M02 A3019 620 44 200 170/09 RMK AO2
14837KMSN MSN20041109173509311/09/04 17:35:31  5-MIN KMSN 092335Z 17010KT 10SM CLR 09/M02 A3019 620 45 100 170/10 RMK AO2
14837KMSN MSN20041109174009311/09/04 17:40:31  5-MIN KMSN 092340Z 17011KT 10SM CLR 09/M02 A3019 620 45 100 170/11 RMK AO2
14837KMSN MSN20041109174509311/09/04 17:45:31  5-MIN KMSN 092345Z 17013KT 10SM CLR 10/M02 A3018 620 44 200 170/13 RMK AO2
14837KMSN MSN20041109175013411/09/04 17:50:31  5-MIN KMSN 092350Z 17012G18KT 10SM CLR 09/M02 A3018 620 45 100 160/12G18 RMK AO2 SLP228 T00941017 10122 20094 56033
14837KMSN MSN20041109175509911/09/04 17:55:31  5-MIN KMSN 092355Z 16014G18KT 10SM CLR 09/M02 A3018 620 45 100 160/14G18 RMK AO2
14837KMSN MSN20041109180009311/09/04 18:00:31  5-MIN KMSN 100000Z 16013KT 10SM CLR 09/M02 A3018 620 45 100 160/13 RMK AO2
14837KMSN MSN20041109180509311/09/04 18:05:31  5-MIN KMSN 100005Z 16014KT 10SM CLR 09/M02 A3018 620 45 100 160/14 RMK AO2
14837KMSN MSN20041109181009311/09/04 18:10:31  5-MIN KMSN 100010Z 17013KT 10SM CLR 09/M02 A3018 620 45 100 160/13 RMK AO2
14837KMSN MSN20041109181509311/09/04 18:15:31  5-MIN KMSN 100015Z 17012KT 10SM CLR 09/M02 A3018 620 45 100 170/12 RMK AO2
14837KMSN MSN20041109182009311/09/04 18:20:31  5-MIN KMSN 100020Z 17011KT 10SM CLR 09/M02 A3018 620 45 100 160/11 RMK AO2
14837KMSN MSN20041109182509311/09/04 18:25:31  5-MIN KMSN 100025Z 17011KT 10SM CLR 09/M02 A3018 620 45 100 170/11 RMK AO2
14837KMSN MSN20041109183009311/09/04 18:30:31  5-MIN KMSN 100030Z 17010KT 10SM CLR 09/M02 A3018 620 45 100 170/10 RMK AO2
14837KMSN MSN20041109183509311/09/04 18:35:31  5-MIN KMSN 100035Z 17011KT 10SM CLR 09/M02 A3018 620 47 100 170/11 RMK AO2
14837KMSN MSN20041109184009311/09/04 18:40:31  5-MIN KMSN 100040Z 17010KT 10SM CLR 09/M02 A3018 620 47 100 170/10 RMK AO2
14837KMSN MSN20041109184509311/09/04 18:45:31  5-MIN KMSN 100045Z 17009KT 10SM CLR 09/M02 A3018 630 47 100 170/09 RMK AO2
14837KMSN MSN20041109185011011/09/04 18:50:31  5-MIN KMSN 100050Z 17009KT 10SM CLR 09/M01 A3018 630 49 100 170/09 RMK AO2 SLP226 T00891011
14837KMSN MSN20041109185509311/09/04 18:55:31  5-MIN KMSN 100055Z 17010KT 10SM CLR 09/M01 A3018 630 49 100 170/10 RMK AO2
14837KMSN MSN20041109190009311/09/04 19:00:31  5-MIN KMSN 100100Z 17010KT 10SM CLR 09/M01 A3018 630 49 100 170/10 RMK AO2
14837KMSN MSN20041109190509311/09/04 19:05:31  5-MIN KMSN 100105Z 17011KT 10SM CLR 09/M01 A3018 630 49 100 170/11 RMK AO2
14837KMSN MSN20041109191009311/09/04 19:10:31  5-MIN KMSN 100110Z 18010KT 10SM CLR 09/M01 A3018 630 49 100 180/10 RMK AO2
14837KMSN MSN20041109191509311/09/04 19:15:31  5-MIN KMSN 100115Z 17012KT 10SM CLR 09/M01 A3018 630 47 200 170/12 RMK AO2
14837KMSN MSN20041109192009311/09/04 19:20:31  5-MIN KMSN 100120Z 17012KT 10SM CLR 09/M01 A3017 630 49 100 170/12 RMK AO2
14837KMSN MSN20041109192509311/09/04 19:25:31  5-MIN KMSN 100125Z 17013KT 10SM CLR 09/M01 A3017 630 49 100 170/13 RMK AO2
14837KMSN MSN20041109193009311/09/04 19:30:31  5-MIN KMSN 100130Z 18012KT 10SM CLR 09/M01 A3017 630 49 100 180/12 RMK AO2
14837KMSN MSN20041109193509311/09/04 19:35:31  5-MIN KMSN 100135Z 18012KT 10SM CLR 09/M02 A3017 630 45 200 180/12 RMK AO2
14837KMSN MSN20041109194009311/09/04 19:40:31  5-MIN KMSN 100140Z 18014KT 10SM CLR 09/M02 A3017 630 45 200 180/14 RMK AO2
14837KMSN MSN20041109194509311/09/04 19:45:31  5-MIN KMSN 100145Z 18013KT 10SM CLR 09/M01 A3017 630 47 200 180/13 RMK AO2
14837KMSN MSN20041109195011011/09/04 19:50:31  5-MIN KMSN 100150Z 18014KT 10SM CLR 09/M01 A3017 630 49 100 180/14 RMK AO2 SLP222 T00891011
14837KMSN MSN20041109195509911/09/04 19:55:31  5-MIN KMSN 100155Z 18014G22KT 10SM CLR 09/M01 A3017 640 47 200 180/14G22 RMK AO2
14837KMSN MSN20041109200009911/09/04 20:00:31  5-MIN KMSN 100200Z 18014G22KT 10SM CLR 09/M01 A3017 640 47 200 180/14G22 RMK AO2
14837KMSN MSN20041109200509311/09/04 20:05:31  5-MIN KMSN 100205Z 18014KT 10SM CLR 09/M01 A3017 640 47 200 180/14 RMK AO2
14837KMSN MSN20041109201009311/09/04 20:10:31  5-MIN KMSN 100210Z 18013KT 10SM CLR 09/M01 A3016 640 47 200 180/13 RMK AO2
14837KMSN MSN20041109201509911/09/04 20:15:31  5-MIN KMSN 100215Z 18017G22KT 10SM CLR 09/M01 A3016 640 47 200 180/17G22 RMK AO2
14837KMSN MSN20041109202009911/09/04 20:20:31  5-MIN KMSN 100220Z 18017G22KT 10SM CLR 09/M01 A3016 640 47 200 180/17G22 RMK AO2
14837KMSN MSN20041109202509911/09/04 20:25:31  5-MIN KMSN 100225Z 18016G22KT 10SM CLR 09/M01 A3016 640 47 200 180/16G22 RMK AO2
14837KMSN MSN20041109203009311/09/04 20:30:31  5-MIN KMSN 100230Z 18013KT 10SM CLR 09/M01 A3016 640 47 200 180/13 RMK AO2
14837KMSN MSN20041109203509311/09/04 20:35:31  5-MIN KMSN 100235Z 18016KT 10SM CLR 09/M01 A3016 640 47 200 180/16 RMK AO2
14837KMSN MSN20041109204009311/09/04 20:40:31  5-MIN KMSN 100240Z 18014KT 10SM CLR 09/M01 A3016 640 49 100 170/14 RMK AO2
14837KMSN MSN20041109204509911/09/04 20:45:31  5-MIN KMSN 100245Z 18015G21KT 10SM CLR 09/M01 A3016 640 49 100 180/15G21 RMK AO2
14837KMSN MSN20041109205012211/09/04 20:50:31  5-MIN KMSN 100250Z 18012G21KT 10SM CLR 09/M01 A3016 640 49 100 180/12G21 RMK AO2 SLP219 T00891011 56013
14837KMSN MSN20041109205509911/09/04 20:55:31  5-MIN KMSN 100255Z 18012G19KT 10SM CLR 09/M01 A3016 640 51 100 180/12G19 RMK AO2
14837KMSN MSN20041109210009311/09/04 21:00:31  5-MIN KMSN 100300Z 17014KT 10SM CLR 09/M01 A3016 650 51 100 170/14 RMK AO2
14837KMSN MSN20041109210509911/09/04 21:05:31  5-MIN KMSN 100305Z 18015G19KT 10SM CLR 09/M01 A3016 650 51 100 180/15G19 RMK AO2
14837KMSN MSN20041109211009911/09/04 21:10:31  5-MIN KMSN 100310Z 18014G19KT 10SM CLR 09/M01 A3016 650 51 100 180/14G19 RMK AO2
14837KMSN MSN20041109211509311/09/04 21:15:31  5-MIN KMSN 100315Z 18013KT 10SM CLR 09/M01 A3016 650 51 100 180/13 RMK AO2
14837KMSN MSN20041109212009911/09/04 21:20:31  5-MIN KMSN 100320Z 18014G19KT 10SM CLR 09/M01 A3016 650 51 100 180/14G19 RMK AO2
14837KMSN MSN20041109212509311/09/04 21:25:31  5-MIN KMSN 100325Z 18014KT 10SM CLR 09/M01 A3015 650 51 100 180/14 RMK AO2
14837KMSN MSN20041109213009811/09/04 21:30:31  5-MIN KMSN 100330Z 18015G20KT 10SM CLR 09/00 A3015 650 53 100 180/15G20 RMK AO2
14837KMSN MSN20041109213509811/09/04 21:35:31  5-MIN KMSN 100335Z 18014G20KT 10SM CLR 09/00 A3015 660 53 100 180/14G20 RMK AO2
14837KMSN MSN20041109214009811/09/04 21:40:31  5-MIN KMSN 100340Z 18014G20KT 10SM CLR 09/00 A3014 660 53 100 180/14G20 RMK AO2
14837KMSN MSN20041109214509911/09/04 21:45:31  5-MIN KMSN 100345Z 18014G20KT 10SM CLR 09/M01 A3014 660 51 100 180/14G20 RMK AO2
14837KMSN MSN20041109215011611/09/04 21:50:31  5-MIN KMSN 100350Z 19014G19KT 10SM CLR 09/M01 A3014 660 51 100 190/14G19 RMK AO2 SLP212 T00891006
14837KMSN MSN20041109215509211/09/04 21:55:31  5-MIN KMSN 100355Z 18013KT 10SM CLR 09/00 A3014 660 53 100 180/13 RMK AO2
14837KMSN MSN20041109220009211/09/04 22:00:31  5-MIN KMSN 100400Z 18013KT 10SM CLR 09/00 A3014 660 53 100 180/13 RMK AO2
14837KMSN MSN20041109220509211/09/04 22:05:31  5-MIN KMSN 100405Z 18013KT 10SM CLR 08/00 A3014 660 55 100 180/13 RMK AO2
14837KMSN MSN20041109221009211/09/04 22:10:31  5-MIN KMSN 100410Z 18012KT 10SM CLR 08/00 A3014 660 55 100 180/12 RMK AO2
14837KMSN MSN20041109221509811/09/04 22:15:31  5-MIN KMSN 100415Z 18014G20KT 10SM CLR 09/00 A3014 660 53 100 180/14G20 RMK AO2
14837KMSN MSN20041109222009811/09/04 22:20:31  5-MIN KMSN 100420Z 18012G20KT 10SM CLR 09/00 A3014 670 53 100 180/12G20 RMK AO2
14837KMSN MSN20041109222509211/09/04 22:25:31  5-MIN KMSN 100425Z 18015KT 10SM CLR 09/00 A3013 670 53 100 180/15 RMK AO2
14837KMSN MSN20041109223009211/09/04 22:30:31  5-MIN KMSN 100430Z 18013KT 10SM CLR 09/00 A3013 670 53 100 180/13 RMK AO2
14837KMSN MSN20041109223509811/09/04 22:35:31  5-MIN KMSN 100435Z 18010G17KT 10SM CLR 08/00 A3013 670 55 100 180/10G17 RMK AO2
14837KMSN MSN20041109224009211/09/04 22:40:31  5-MIN KMSN 100440Z 18012KT 10SM CLR 09/00 A3013 670 53 100 180/12 RMK AO2
14837KMSN MSN20041109224509811/09/04 22:45:31  5-MIN KMSN 100445Z 18012G18KT 10SM CLR 09/00 A3013 670 53 100 180/12G18 RMK AO2
14837KMSN MSN20041109225011511/09/04 22:50:31  5-MIN KMSN 100450Z 18013G18KT 10SM CLR 09/00 A3013 670 53 100 180/13G18 RMK AO2 SLP206 T00890000
14837KMSN MSN20041109225509211/09/04 22:55:31  5-MIN KMSN 100455Z 18011KT 10SM CLR 08/01 A3013 670 58 100 180/11 RMK AO2
14837KMSN MSN20041109230009211/09/04 23:00:31  5-MIN KMSN 100500Z 18010KT 10SM CLR 09/01 A3013 680 56 100 180/10 RMK AO2
14837KMSN MSN20041109230509211/09/04 23:05:31  5-MIN KMSN 100505Z 18011KT 10SM CLR 09/01 A3012 680 56 100 180/11 RMK AO2
14837KMSN MSN20041109231009211/09/04 23:10:31  5-MIN KMSN 100510Z 18012KT 10SM CLR 09/01 A3012 680 56 100 180/12 RMK AO2
14837KMSN MSN20041109231509211/09/04 23:15:31  5-MIN KMSN 100515Z 19011KT 10SM CLR 09/01 A3013 670 56 100 190/11 RMK AO2
14837KMSN MSN20041109232009211/09/04 23:20:31  5-MIN KMSN 100520Z 19009KT 10SM CLR 09/01 A3013 670 56 100 190/09 RMK AO2
14837KMSN MSN20041109232509211/09/04 23:25:31  5-MIN KMSN 100525Z 19008KT 10SM CLR 09/01 A3013 670 56 100 190/08 RMK AO2
14837KMSN MSN20041109233009211/09/04 23:30:31  5-MIN KMSN 100530Z 19008KT 10SM CLR 09/01 A3013 670 56 100 190/08 RMK AO2
14837KMSN MSN20041109233509211/09/04 23:35:31  5-MIN KMSN 100535Z 20007KT 10SM CLR 09/01 A3013 670 56 100 200/07 RMK AO2
14837KMSN MSN20041109234009211/09/04 23:40:31  5-MIN KMSN 100540Z 19008KT 10SM CLR 09/01 A3013 670 56 100 190/08 RMK AO2
14837KMSN MSN20041109234509211/09/04 23:45:31  5-MIN KMSN 100545Z 19010KT 10SM CLR 09/01 A3013 670 56 100 190/10 RMK AO2
14837KMSN MSN20041109235013711/09/04 23:50:31  5-MIN KMSN 100550Z 19013KT 10SM CLR 09/01 A3013 670 56 100 190/13 RMK AO2 SLP206 T00890006 10094 20083 401221006 58008
14837KMSN MSN20041109235509211/09/04 23:55:31  5-MIN KMSN 100555Z 19011KT 10SM CLR 09/01 A3013 670 53 200 190/11 RMK AO2
14837KMSN MSN20041110000009211/10/04 00:00:31  5-MIN KMSN 100600Z 19013KT 10SM CLR 09/01 A3013 670 53 200 190/13 RMK AO2
14837KMSN MSN20041110000509211/10/04 00:05:31  5-MIN KMSN 100605Z 19012KT 10SM CLR 09/01 A3013 670 53 200 190/12 RMK AO2
14837KMSN MSN20041110001009211/10/04 00:10:31  5-MIN KMSN 100610Z 19012KT 10SM CLR 09/01 A3013 670 53 200 190/12 RMK AO2
14837KMSN MSN20041110001509211/10/04 00:15:31  5-MIN KMSN 100615Z 20010KT 10SM CLR 09/01 A3013 680 53 200 200/10 RMK AO2
14837KMSN MSN20041110002009211/10/04 00:20:31  5-MIN KMSN 100620Z 20009KT 10SM CLR 09/01 A3012 680 53 200 200/09 RMK AO2
14837KMSN MSN20041110002509211/10/04 00:25:31  5-MIN KMSN 100625Z 20008KT 10SM CLR 09/01 A3012 680 53 200 200/08 RMK AO2
14837KMSN MSN20041110003009211/10/04 00:30:31  5-MIN KMSN 100630Z 19008KT 10SM CLR 09/01 A3012 680 53 200 190/08 RMK AO2
14837KMSN MSN20041110003509211/10/04 00:35:31  5-MIN KMSN 100635Z 20008KT 10SM CLR 09/01 A3012 680 53 200 200/08 RMK AO2
14837KMSN MSN20041110004009211/10/04 00:40:31  5-MIN KMSN 100640Z 20008KT 10SM CLR 09/01 A3012 680 53 200 200/08 RMK AO2
14837KMSN MSN20041110004509211/10/04 00:45:31  5-MIN KMSN 100645Z 19009KT 10SM CLR 09/01 A3012 680 53 200 190/09 RMK AO2
14837KMSN MSN20041110005012511/10/04 00:50:31  5-MIN KMSN 100650Z 19009KT 160V220 10SM CLR 09/01 A3011 690 53 200 190/09 160V220 RMK AO2 SLP200 T00940006
14837KMSN MSN20041110005509211/10/04 00:55:31  5-MIN KMSN 100655Z 20009KT 10SM CLR 09/01 A3012 680 53 200 190/09 RMK AO2
14837KMSN MSN20041110010009211/10/04 01:00:31  5-MIN KMSN 100700Z 19010KT 10SM CLR 09/01 A3011 690 53 200 190/10 RMK AO2
14837KMSN MSN20041110010509811/10/04 01:05:31  5-MIN KMSN 100705Z 20012G15KT 10SM CLR 09/01 A3011 690 53 200 190/12G15 RMK AO2
14837KMSN MSN20041110011009811/10/04 01:10:31  5-MIN KMSN 100710Z 19012G16KT 10SM CLR 09/01 A3011 690 53 200 190/12G16 RMK AO2
14837KMSN MSN20041110011509811/10/04 01:15:31  5-MIN KMSN 100715Z 20011G19KT 10SM CLR 09/01 A3011 690 53 200 190/11G19 RMK AO2
14837KMSN MSN20041110012009811/10/04 01:20:31  5-MIN KMSN 100720Z 19012G19KT 10SM CLR 09/01 A3011 690 53 200 190/12G19 RMK AO2
14837KMSN MSN20041110012509811/10/04 01:25:31  5-MIN KMSN 100725Z 20010G17KT 10SM CLR 09/01 A3011 690 53 200 200/10G17 RMK AO2
14837KMSN MSN20041110013009811/10/04 01:30:31  5-MIN KMSN 100730Z 20011G21KT 10SM CLR 09/01 A3011 690 53 200 200/11G21 RMK AO2
14837KMSN MSN20041110013509811/10/04 01:35:31  5-MIN KMSN 100735Z 20011G21KT 10SM CLR 09/01 A3011 690 53 200 190/11G21 RMK AO2
14837KMSN MSN20041110014009811/10/04 01:40:31  5-MIN KMSN 100740Z 20012G18KT 10SM CLR 09/01 A3011 690 53 200 190/12G18 RMK AO2
14837KMSN MSN20041110014509811/10/04 01:45:31  5-MIN KMSN 100745Z 20011G18KT 10SM CLR 09/01 A3011 690 53 200 200/11G18 RMK AO2
14837KMSN MSN20041110015010911/10/04 01:50:31  5-MIN KMSN 100750Z 19010KT 10SM CLR 09/01 A3011 690 53 200 190/10 RMK AO2 SLP198 T00940006
14837KMSN MSN20041110015509211/10/04 01:55:31  5-MIN KMSN 100755Z 20011KT 10SM CLR 09/01 A3011 690 53 200 200/11 RMK AO2
14837KMSN MSN20041110020009211/10/04 02:00:31  5-MIN KMSN 100800Z 19013KT 10SM CLR 09/01 A3010 700 53 200 190/13 RMK AO2
14837KMSN MSN20041110020509211/10/04 02:05:31  5-MIN KMSN 100805Z 19012KT 10SM CLR 09/01 A3010 700 53 200 190/12 RMK AO2
14837KMSN MSN20041110021009211/10/04 02:10:31  5-MIN KMSN 100810Z 19009KT 10SM CLR 09/01 A3010 700 53 200 190/09 RMK AO2
14837KMSN MSN20041110021509211/10/04 02:15:31  5-MIN KMSN 100815Z 19010KT 10SM CLR 09/01 A3010 700 53 200 190/10 RMK AO2
14837KMSN MSN20041110022009211/10/04 02:20:31  5-MIN KMSN 100820Z 19011KT 10SM CLR 09/01 A3010 700 56 200 190/11 RMK AO2
14837KMSN MSN20041110022509211/10/04 02:25:31  5-MIN KMSN 100825Z 19010KT 10SM CLR 09/01 A3010 700 56 200 190/10 RMK AO2
14837KMSN MSN20041110023009211/10/04 02:30:31  5-MIN KMSN 100830Z 19010KT 10SM CLR 09/01 A3010 700 56 200 190/10 RMK AO2
14837KMSN MSN20041110023509211/10/04 02:35:31  5-MIN KMSN 100835Z 19008KT 10SM CLR 09/01 A3010 700 56 200 190/08 RMK AO2
14837KMSN MSN20041110024009811/10/04 02:40:31  5-MIN KMSN 100840Z 20009G15KT 10SM CLR 09/01 A3010 700 53 200 200/09G15 RMK AO2
14837KMSN MSN20041110024509811/10/04 02:45:31  5-MIN KMSN 100845Z 19008G15KT 10SM CLR 09/01 A3009 700 56 200 190/08G15 RMK AO2
14837KMSN MSN20041110025011511/10/04 02:50:31  5-MIN KMSN 100850Z 19008KT 10SM CLR 09/01 A3009 710 56 200 190/08 RMK AO2 SLP192 T00890006 55009
14837KMSN MSN20041110025509211/10/04 02:55:31  5-MIN KMSN 100855Z 19009KT 10SM CLR 09/01 A3009 710 56 200 190/09 RMK AO2
14837KMSN MSN20041110030009211/10/04 03:00:31  5-MIN KMSN 100900Z 20008KT 10SM CLR 09/01 A3009 710 56 200 200/08 RMK AO2
14837KMSN MSN20041110030509211/10/04 03:05:31  5-MIN KMSN 100905Z 20010KT 10SM CLR 09/01 A3009 710 56 200 200/10 RMK AO2
14837KMSN MSN20041110031009211/10/04 03:10:31  5-MIN KMSN 100910Z 20008KT 10SM CLR 09/01 A3009 710 56 200 200/08 RMK AO2
14837KMSN MSN20041110031509211/10/04 03:15:31  5-MIN KMSN 100915Z 20008KT 10SM CLR 09/01 A3009 710 56 200 200/08 RMK AO2
14837KMSN MSN20041110032009211/10/04 03:20:31  5-MIN KMSN 100920Z 18008KT 10SM CLR 09/01 A3008 710 56 200 180/08 RMK AO2
14837KMSN MSN20041110032509811/10/04 03:25:31  5-MIN KMSN 100925Z 18009G17KT 10SM CLR 09/01 A3008 710 58 200 180/09G17 RMK AO2
14837KMSN MSN20041110033009811/10/04 03:30:31  5-MIN KMSN 100930Z 18009G17KT 10SM CLR 09/01 A3008 720 58 200 180/09G17 RMK AO2
14837KMSN MSN20041110033509211/10/04 03:35:31  5-MIN KMSN 100935Z 18009KT 10SM CLR 08/01 A3008 720 60 100 180/09 RMK AO2
14837KMSN MSN20041110034009211/10/04 03:40:31  5-MIN KMSN 100940Z 19008KT 10SM CLR 08/01 A3008 710 60 100 190/08 RMK AO2
14837KMSN MSN20041110034509211/10/04 03:45:31  5-MIN KMSN 100945Z 18007KT 10SM CLR 08/01 A3008 710 60 100 180/07 RMK AO2
14837KMSN MSN20041110035010911/10/04 03:50:31  5-MIN KMSN 100950Z 18007KT 10SM CLR 08/01 A3008 710 60 100 180/07 RMK AO2 SLP190 T00830011
14837KMSN MSN20041110035509211/10/04 03:55:31  5-MIN KMSN 100955Z 18007KT 10SM CLR 08/01 A3008 720 60 100 180/07 RMK AO2
14837KMSN MSN20041110040009211/10/04 04:00:31  5-MIN KMSN 101000Z 18008KT 10SM CLR 08/01 A3008 720 60 100 180/08 RMK AO2
14837KMSN MSN20041110040509211/10/04 04:05:31  5-MIN KMSN 101005Z 19009KT 10SM CLR 09/01 A3008 720 58 200 190/09 RMK AO2
14837KMSN MSN20041110041009211/10/04 04:10:31  5-MIN KMSN 101010Z 18009KT 10SM CLR 08/01 A3008 720 60 100 180/09 RMK AO2
14837KMSN MSN20041110041509211/10/04 04:15:31  5-MIN KMSN 101015Z 18011KT 10SM CLR 08/01 A3008 720 60 100 180/11 RMK AO2
14837KMSN MSN20041110042009211/10/04 04:20:31  5-MIN KMSN 101020Z 18010KT 10SM CLR 08/01 A3007 720 60 100 180/10 RMK AO2
14837KMSN MSN20041110042509211/10/04 04:25:31  5-MIN KMSN 101025Z 19010KT 10SM CLR 09/01 A3007 720 58 200 190/10 RMK AO2
14837KMSN MSN20041110043009211/10/04 04:30:31  5-MIN KMSN 101030Z 19010KT 10SM CLR 09/01 A3007 730 58 200 190/10 RMK AO2
14837KMSN MSN20041110043509211/10/04 04:35:31  5-MIN KMSN 101035Z 19010KT 10SM CLR 09/01 A3007 730 58 200 190/10 RMK AO2
14837KMSN MSN20041110044009811/10/04 04:40:31  5-MIN KMSN 101040Z 19011G19KT 10SM CLR 09/01 A3007 730 56 200 190/11G19 RMK AO2
14837KMSN MSN20041110044509811/10/04 04:45:31  5-MIN KMSN 101045Z 19014G19KT 10SM CLR 09/01 A3007 720 56 200 190/14G19 RMK AO2
14837KMSN MSN20041110045010911/10/04 04:50:31  5-MIN KMSN 101050Z 19011KT 10SM CLR 09/01 A3007 730 56 200 190/11 RMK AO2 SLP185 T00890006
14837KMSN MSN20041110045509211/10/04 04:55:31  5-MIN KMSN 101055Z 19011KT 10SM CLR 09/01 A3007 730 56 200 190/11 RMK AO2
14837KMSN MSN20041110050009211/10/04 05:00:31  5-MIN KMSN 101100Z 19013KT 10SM CLR 09/01 A3007 730 56 200 190/13 RMK AO2
14837KMSN MSN20041110050509211/10/04 05:05:31  5-MIN KMSN 101105Z 19011KT 10SM CLR 09/01 A3007 730 58 200 190/11 RMK AO2
14837KMSN MSN20041110051009211/10/04 05:10:31  5-MIN KMSN 101110Z 19011KT 10SM CLR 09/01 A3007 730 56 200 190/11 RMK AO2
14837KMSN MSN20041110051509211/10/04 05:15:31  5-MIN KMSN 101115Z 19011KT 10SM CLR 09/01 A3007 730 58 200 190/11 RMK AO2
14837KMSN MSN20041110052009211/10/04 05:20:31  5-MIN KMSN 101120Z 19010KT 10SM CLR 09/01 A3007 730 58 200 190/10 RMK AO2
14837KMSN MSN20041110052509211/10/04 05:25:31  5-MIN KMSN 101125Z 19011KT 10SM CLR 09/01 A3006 730 58 200 190/11 RMK AO2
14837KMSN MSN20041110053009211/10/04 05:30:31  5-MIN KMSN 101130Z 19010KT 10SM CLR 09/01 A3006 730 58 200 190/10 RMK AO2
14837KMSN MSN20041110053509211/10/04 05:35:31  5-MIN KMSN 101135Z 19011KT 10SM CLR 09/01 A3006 740 58 200 190/11 RMK AO2
14837KMSN MSN20041110054009211/10/04 05:40:31  5-MIN KMSN 101140Z 19012KT 10SM CLR 09/01 A3006 740 58 200 190/12 RMK AO2
14837KMSN MSN20041110054509211/10/04 05:45:31  5-MIN KMSN 101145Z 19012KT 10SM CLR 09/01 A3006 740 58 200 190/12 RMK AO2
14837KMSN MSN20041110055012711/10/04 05:50:31  5-MIN KMSN 101150Z 19011KT 10SM CLR 09/01 A3006 740 58 200 190/11 RMK AO2 SLP182 T00890011 10094 20083 57014
14837KMSN MSN20041110055509211/10/04 05:55:31  5-MIN KMSN 101155Z 19011KT 10SM CLR 09/01 A3006 740 58 200 190/11 RMK AO2
14837KMSN MSN20041110060009211/10/04 06:00:31  5-MIN KMSN 101200Z 19011KT 10SM CLR 09/01 A3006 740 58 200 190/11 RMK AO2
14837KMSN MSN20041110060509211/10/04 06:05:31  5-MIN KMSN 101205Z 19013KT 10SM CLR 09/01 A3005 740 58 200 190/13 RMK AO2
14837KMSN MSN20041110061009811/10/04 06:10:31  5-MIN KMSN 101210Z 19013G18KT 10SM CLR 09/01 A3005 740 58 200 190/13G18 RMK AO2
14837KMSN MSN20041110061509811/10/04 06:15:31  5-MIN KMSN 101215Z 20010G18KT 10SM CLR 09/01 A3005 740 58 200 200/10G18 RMK AO2
14837KMSN MSN20041110062009811/10/04 06:20:31  5-MIN KMSN 101220Z 19012G17KT 10SM CLR 09/01 A3005 740 58 200 190/12G17 RMK AO2
14837KMSN MSN20041110062509211/10/04 06:25:31  5-MIN KMSN 101225Z 19011KT 10SM CLR 09/01 A3005 740 58 200 190/11 RMK AO2
14837KMSN MSN20041110063009211/10/04 06:30:31  5-MIN KMSN 101230Z 20011KT 10SM CLR 09/01 A3005 740 58 200 200/11 RMK AO2
14837KMSN MSN20041110063509211/10/04 06:35:31  5-MIN KMSN 101235Z 20008KT 10SM CLR 09/01 A3006 740 58 200 200/08 RMK AO2
14837KMSN MSN20041110064009211/10/04 06:40:31  5-MIN KMSN 101240Z 20010KT 10SM CLR 09/01 A3006 740 58 200 200/10 RMK AO2
14837KMSN MSN20041110064509211/10/04 06:45:31  5-MIN KMSN 101245Z 20010KT 10SM CLR 09/01 A3006 740 58 200 200/10 RMK AO2
14837KMSN MSN20041110065010911/10/04 06:50:31  5-MIN KMSN 101250Z 20009KT 10SM CLR 09/01 A3006 740 58 200 200/09 RMK AO2 SLP183 T00890011
14837KMSN MSN20041110065509211/10/04 06:55:31  5-MIN KMSN 101255Z 20011KT 10SM CLR 09/01 A3006 730 58 200 200/11 RMK AO2
14837KMSN MSN20041110070009211/10/04 07:00:31  5-MIN KMSN 101300Z 20009KT 10SM CLR 09/01 A3006 730 58 200 200/09 RMK AO2
14837KMSN MSN20041110070509211/10/04 07:05:31  5-MIN KMSN 101305Z 21011KT 10SM CLR 09/01 A3006 730 58 200 210/11 RMK AO2
14837KMSN MSN20041110071009211/10/04 07:10:31  5-MIN KMSN 101310Z 19011KT 10SM CLR 09/01 A3006 740 58 200 190/11 RMK AO2
14837KMSN MSN20041110071509211/10/04 07:15:31  5-MIN KMSN 101315Z 20011KT 10SM CLR 09/01 A3006 730 58 200 200/11 RMK AO2
14837KMSN MSN20041110072009211/10/04 07:20:31  5-MIN KMSN 101320Z 20012KT 10SM CLR 09/01 A3006 740 58 200 200/12 RMK AO2
14837KMSN MSN20041110072509811/10/04 07:25:31  5-MIN KMSN 101325Z 21009G17KT 10SM CLR 09/01 A3006 730 58 200 210/09G17 RMK AO2
14837KMSN MSN20041110073009811/10/04 07:30:31  5-MIN KMSN 101330Z 20009G17KT 10SM CLR 09/01 A3006 730 58 200 200/09G17 RMK AO2
14837KMSN MSN20041110073509211/10/04 07:35:31  5-MIN KMSN 101335Z 21010KT 10SM CLR 09/01 A3006 730 58 200 210/10 RMK AO2
14837KMSN MSN20041110074009811/10/04 07:40:31  5-MIN KMSN 101340Z 21009G15KT 10SM CLR 09/01 A3007 730 58 200 210/09G15 RMK AO2
14837KMSN MSN20041110074509811/10/04 07:45:31  5-MIN KMSN 101345Z 21009G15KT 10SM CLR 09/01 A3007 730 58 200 210/09G15 RMK AO2
14837KMSN MSN20041110075011511/10/04 07:50:31  5-MIN KMSN 101350Z 20010G15KT 10SM CLR 09/01 A3007 730 58 200 200/10G15 RMK AO2 SLP185 T00890011
14837KMSN MSN20041110075511411/10/04 07:55:31  5-MIN KMSN 101355Z 21008G15KT 180V240 10SM CLR 09/01 A3007 730 58 200 210/08G15 180V240 RMK AO2
14837KMSN MSN20041110080009211/10/04 08:00:31  5-MIN KMSN 101400Z VRB06KT 10SM CLR 09/01 A3007 730 58 200 VRB/06 RMK AO2
14837KMSN MSN20041110080509211/10/04 08:05:31  5-MIN KMSN 101405Z 21011KT 10SM CLR 09/01 A3007 730 56 300 210/11 RMK AO2
14837KMSN MSN20041110081009211/10/04 08:10:31  5-MIN KMSN 101410Z 21008KT 10SM CLR 09/01 A3007 730 56 300 200/08 RMK AO2
14837KMSN MSN20041110081509211/10/04 08:15:31  5-MIN KMSN 101415Z 21010KT 10SM CLR 09/01 A3007 730 56 300 210/10 RMK AO2
14837KMSN MSN20041110082009811/10/04 08:20:31  5-MIN KMSN 101420Z 21011G14KT 10SM CLR 09/01 A3007 730 56 300 210/11G14 RMK AO2
14837KMSN MSN20041110082509211/10/04 08:25:31  5-MIN KMSN 101425Z 21008KT 10SM CLR 09/01 A3007 730 56 300 200/08 RMK AO2
14837KMSN MSN20041110083009211/10/04 08:30:31  5-MIN KMSN 101430Z 21008KT 10SM CLR 10/01 A3007 730 54 300 210/08 RMK AO2
14837KMSN MSN20041110083509211/10/04 08:35:31  5-MIN KMSN 101435Z 21010KT 10SM CLR 10/01 A3007 720 54 300 210/10 RMK AO2
14837KMSN MSN20041110084010811/10/04 08:40:31  5-MIN KMSN 101440Z 20009KT 170V240 10SM CLR 10/01 A3007 730 54 300 200/09 170V240 RMK AO2
14837KMSN MSN20041110084509211/10/04 08:45:31  5-MIN KMSN 101445Z 21010KT 10SM CLR 10/01 A3007 730 54 300 210/10 RMK AO2
14837KMSN MSN20041110085011511/10/04 08:50:31  5-MIN KMSN 101450Z 21009KT 10SM CLR 11/02 A3007 730 54 400 210/09 RMK AO2 SLP185 T01060017 58010
14837KMSN MSN20041110085509511/10/04 08:55:31  5-MIN KMSN 101455Z 21009KT 10SM FEW120 11/01 A3007 730 52 400 210/09 RMK AO2
14837KMSN MSN20041110090009511/10/04 09:00:31  5-MIN KMSN 101500Z 22010KT 10SM FEW120 11/01 A3007 730 52 400 210/10 RMK AO2
14837KMSN MSN20041110090509511/10/04 09:05:31  5-MIN KMSN 101505Z 21011KT 10SM FEW120 11/01 A3006 730 52 400 210/11 RMK AO2
14837KMSN MSN20041110091011111/10/04 09:10:31  5-MIN KMSN 101510Z 22007KT 180V250 10SM FEW120 11/01 A3006 730 52 400 210/07 180V250 RMK AO2
14837KMSN MSN20041110091510111/10/04 09:15:31  5-MIN KMSN 101515Z 22008G15KT 10SM FEW120 11/01 A3006 730 50 500 210/08G15 RMK AO2
14837KMSN MSN20041110092010111/10/04 09:20:31  5-MIN KMSN 101520Z 21008G15KT 10SM FEW120 11/01 A3006 730 50 500 210/08G15 RMK AO2
14837KMSN MSN20041110092509511/10/04 09:25:31  5-MIN KMSN 101525Z 21008KT 10SM FEW120 11/01 A3006 730 50 500 210/08 RMK AO2
14837KMSN MSN20041110093009511/10/04 09:30:31  5-MIN KMSN 101530Z 22009KT 10SM FEW120 11/01 A3006 730 50 500 220/09 RMK AO2
14837KMSN MSN20041110093509511/10/04 09:35:31  5-MIN KMSN 101535Z 22009KT 10SM FEW120 12/01 A3006 730 48 600 220/09 RMK AO2
14837KMSN MSN20041110094009511/10/04 09:40:31  5-MIN KMSN 101540Z 22006KT 10SM FEW120 12/02 A3006 730 50 600 220/06 RMK AO2
14837KMSN MSN20041110094511111/10/04 09:45:31  5-MIN KMSN 101545Z 22008KT 200V260 10SM FEW120 12/02 A3006 740 50 600 220/08 200V260 RMK AO2
14837KMSN MSN20041110095011811/10/04 09:50:31  5-MIN KMSN 101550Z 23009G16KT 10SM FEW120 12/02 A3006 740 48 600 230/09G16 RMK AO2 SLP182 T01220017
14837KMSN MSN20041110095510111/10/04 09:55:31  5-MIN KMSN 101555Z 22012G16KT 10SM SCT120 13/02 A3006 740 48 700 220/12G16 RMK AO2
14837KMSN MSN20041110100010111/10/04 10:00:31  5-MIN KMSN 101600Z 21010G15KT 10SM SCT120 13/02 A3006 740 46 700 210/10G15 RMK AO2
14837KMSN MSN20041110100510111/10/04 10:05:31  5-MIN KMSN 101605Z 22014G18KT 10SM SCT120 13/02 A3006 740 46 700 220/14G18 RMK AO2
14837KMSN MSN20041110101010111/10/04 10:10:31  5-MIN KMSN 101610Z 22010G18KT 10SM SCT120 13/02 A3006 740 46 700 220/10G18 RMK AO2
14837KMSN MSN20041110101510111/10/04 10:15:31  5-MIN KMSN 101615Z 21008G16KT 10SM SCT120 12/02 A3006 740 48 600 210/08G16 RMK AO2
14837KMSN MSN20041110102010111/10/04 10:20:31  5-MIN KMSN 101620Z 22012G16KT 10SM SCT120 12/01 A3006 740 46 600 210/12G16 RMK AO2
14837KMSN MSN20041110102510111/10/04 10:25:31  5-MIN KMSN 101625Z 22007G16KT 10SM SCT120 12/01 A3006 740 46 600 210/07G16 RMK AO2
14837KMSN MSN20041110103010111/10/04 10:30:31  5-MIN KMSN 101630Z 21008G14KT 10SM SCT120 12/02 A3006 740 48 600 210/08G14 RMK AO2
14837KMSN MSN20041110103510111/10/04 10:35:31  5-MIN KMSN 101635Z 22007G14KT 10SM SCT120 12/02 A3006 740 48 600 220/07G14 RMK AO2
14837KMSN MSN20041110104009511/10/04 10:40:31  5-MIN KMSN 101640Z 20007KT 10SM SCT120 12/02 A3006 740 48 600 200/07 RMK AO2
14837KMSN MSN20041110104511111/10/04 10:45:31  5-MIN KMSN 101645Z 21009KT 160V230 10SM SCT120 13/02 A3005 740 46 700 210/09 160V230 RMK AO2
14837KMSN MSN20041110105011211/10/04 10:50:31  5-MIN KMSN 101650Z 21008KT 10SM SCT120 13/02 A3005 740 48 700 210/08 RMK AO2 SLP179 T01280022
14837KMSN MSN20041110105509511/10/04 10:55:31  5-MIN KMSN 101655Z 21006KT 10SM SCT120 13/02 A3005 740 48 700 210/06 RMK AO2
14837KMSN MSN20041110110009511/10/04 11:00:31  5-MIN KMSN 101700Z 21008KT 10SM SCT120 13/02 A3005 750 46 800 210/08 RMK AO2
14837KMSN MSN20041110110509511/10/04 11:05:31  5-MIN KMSN 101705Z 20008KT 10SM SCT120 13/02 A3004 750 46 800 200/08 RMK AO2
14837KMSN MSN20041110111009511/10/04 11:10:31  5-MIN KMSN 101710Z 20007KT 10SM SCT120 13/02 A3004 750 46 800 200/07 RMK AO2
14837KMSN MSN20041110111511711/10/04 11:15:31  5-MIN KMSN 101715Z 22010G15KT 170V240 10SM SCT120 14/02 A3004 750 45 800 210/10G15 170V240 RMK AO2
14837KMSN MSN20041110112010111/10/04 11:20:31  5-MIN KMSN 101720Z 22010G15KT 10SM SCT120 14/02 A3004 760 45 800 220/10G15 RMK AO2
14837KMSN MSN20041110112509511/10/04 11:25:31  5-MIN KMSN 101725Z 21008KT 10SM SCT120 14/02 A3004 760 43 800 210/08 RMK AO2
14837KMSN MSN20041110113011111/10/04 11:30:31  5-MIN KMSN 101730Z 21009KT 180V240 10SM SCT120 14/02 A3004 760 45 800 210/09 180V240 RMK AO2
14837KMSN MSN20041110113509511/10/04 11:35:31  5-MIN KMSN 101735Z 21010KT 10SM SCT120 14/02 A3003 760 43 800 210/10 RMK AO2
14837KMSN MSN20041110114009511/10/04 11:40:31  5-MIN KMSN 101740Z 21009KT 10SM SCT120 14/02 A3003 760 43 800 210/09 RMK AO2
14837KMSN MSN20041110114509511/10/04 11:45:31  5-MIN KMSN 101745Z 21011KT 10SM SCT120 14/02 A3003 760 45 900 210/11 RMK AO2
14837KMSN MSN20041110115013011/10/04 11:50:31  5-MIN KMSN 101750Z 22008KT 10SM SCT120 14/02 A3003 760 43 900 220/08 RMK AO2 SLP170 T01440022 10144 20089 52003
14837KMSN MSN20041110115510811/10/04 11:55:31  5-MIN KMSN 101755Z 22011G15KT 10SM FEW095 SCT120 14/02 A3002 770 43 900 220/11G15 RMK AO2
14837KMSN MSN20041110120010811/10/04 12:00:31  5-MIN KMSN 101800Z 21009G15KT 10SM FEW095 SCT120 14/02 A3002 770 43 900 210/09G15 RMK AO2
14837KMSN MSN20041110120510211/10/04 12:05:31  5-MIN KMSN 101805Z 22007KT 10SM FEW095 SCT120 14/02 A3002 770 43 900 220/07 RMK AO2
14837KMSN MSN20041110121010211/10/04 12:10:31  5-MIN KMSN 101810Z 21008KT 10SM FEW095 SCT120 14/02 A3002 770 43 900 210/08 RMK AO2
14837KMSN MSN20041110121511911/10/04 12:15:31  5-MIN KMSN 101815Z 23009KT 200V270 10SM FEW095 SCT120 15/02 A3002 770 42 1000 230/09 200V270 RMK AO2
14837KMSN MSN20041110122010311/10/04 12:20:31  5-MIN KMSN 101820Z 22007KT 10SM FEW095 SCT120 15/02 A3002 770 42 1000 220/07 RMK AO2
14837KMSN MSN20041110122510311/10/04 12:25:31  5-MIN KMSN 101825Z 23008KT 10SM FEW095 SCT120 15/02 A3002 770 42 1000 220/08 RMK AO2
14837KMSN MSN20041110123010311/10/04 12:30:31  5-MIN KMSN 101830Z 22007KT 10SM FEW095 SCT120 15/03 A3002 780 43 1000 220/07 RMK AO2
14837KMSN MSN20041110123511911/10/04 12:35:31  5-MIN KMSN 101835Z 24009KT 210V270 10SM FEW095 SCT120 15/03 A3001 780 43 1000 240/09 210V270 RMK AO2
14837KMSN MSN20041110124010311/10/04 12:40:31  5-MIN KMSN 101840Z 23008KT 10SM FEW095 SCT120 15/03 A3001 780 43 1000 230/08 RMK AO2
14837KMSN MSN20041110124510311/10/04 12:45:31  5-MIN KMSN 101845Z 23007KT 10SM FEW095 SCT120 16/03 A3001 780 42 1100 230/07 RMK AO2
14837KMSN MSN20041110125012011/10/04 12:50:31  5-MIN KMSN 101850Z 23007KT 10SM FEW095 SCT120 16/03 A3001 780 42 1100 230/07 RMK AO2 SLP163 T01560028
14837KMSN MSN20041110125509611/10/04 12:55:31  5-MIN KMSN 101855Z 23008KT 10SM FEW120 16/02 A3000 790 40 1100 220/08 RMK AO2
14837KMSN MSN20041110130009611/10/04 13:00:31  5-MIN KMSN 101900Z VRB06KT 10SM FEW120 16/03 A3000 790 42 1100 VRB/06 RMK AO2
14837KMSN MSN20041110130511211/10/04 13:05:31  5-MIN KMSN 101905Z 22007KT 210V270 10SM FEW120 16/03 A3000 790 40 1100 220/07 210V270 RMK AO2
14837KMSN MSN20041110131009611/10/04 13:10:31  5-MIN KMSN 101910Z VRB05KT 10SM FEW120 16/03 A3000 790 40 1100 VRB/05 RMK AO2
14837KMSN MSN20041110131509611/10/04 13:15:31  5-MIN KMSN 101915Z VRB06KT 10SM FEW120 16/02 A2999 800 39 1200 VRB/06 RMK AO2
14837KMSN MSN20041110132009611/10/04 13:20:31  5-MIN KMSN 101920Z 23009KT 10SM FEW120 16/02 A2999 800 39 1200 230/09 RMK AO2
14837KMSN MSN20041110132509611/10/04 13:25:31  5-MIN KMSN 101925Z 22011KT 10SM FEW120 16/02 A2999 800 37 1200 220/11 RMK AO2
14837KMSN MSN20041110133009611/10/04 13:30:31  5-MIN KMSN 101930Z 21008KT 10SM FEW120 17/02 A2999 800 37 1200 210/08 RMK AO2
14837KMSN MSN20041110133509611/10/04 13:35:31  5-MIN KMSN 101935Z 23007KT 10SM FEW120 17/02 A2998 810 37 1200 220/07 RMK AO2
14837KMSN MSN20041110134011211/10/04 13:40:31  5-MIN KMSN 101940Z 23007KT 200V270 10SM FEW120 16/02 A2998 810 39 1200 230/07 200V270 RMK AO2
14837KMSN MSN20041110134509611/10/04 13:45:31  5-MIN KMSN 101945Z 24005KT 10SM FEW120 17/03 A2998 810 39 1200 240/05 RMK AO2
14837KMSN MSN20041110135012911/10/04 13:50:31  5-MIN KMSN 101950Z 24007KT 210V280 10SM FEW120 17/03 A2999 800 39 1200 240/07 210V280 RMK AO2 SLP155 T01670028
14837KMSN MSN20041110135509611/10/04 13:55:31  5-MIN KMSN 101955Z 24008KT 10SM FEW120 16/03 A2998 800 40 1200 240/08 RMK AO2
14837KMSN MSN20041110140011211/10/04 14:00:31  5-MIN KMSN 102000Z 23007KT 190V250 10SM FEW120 17/03 A2999 800 39 1200 230/07 190V250 RMK AO2
14837KMSN MSN20041110140509611/10/04 14:05:31  5-MIN KMSN 102005Z 24009KT 10SM FEW120 16/03 A2998 810 40 1200 240/09 RMK AO2
14837KMSN MSN20041110141009611/10/04 14:10:31  5-MIN KMSN 102010Z VRB06KT 10SM FEW120 16/03 A2998 810 40 1200 VRB/06 RMK AO2
14837KMSN MSN20041110141511211/10/04 14:15:31  5-MIN KMSN 102015Z 23007KT 200V260 10SM FEW120 17/03 A2998 800 40 1200 230/07 200V260 RMK AO2
14837KMSN MSN20041110142011211/10/04 14:20:31  5-MIN KMSN 102020Z 24007KT 200V280 10SM FEW120 16/03 A2998 800 42 1200 240/07 200V280 RMK AO2
14837KMSN MSN20041110142509611/10/04 14:25:31  5-MIN KMSN 102025Z 22009KT 10SM FEW120 16/03 A2999 800 40 1200 210/09 RMK AO2
14837KMSN MSN20041110143011211/10/04 14:30:31  5-MIN KMSN 102030Z 23007KT 180V250 10SM FEW120 16/02 A2999 800 39 1200 220/07 180V250 RMK AO2
14837KMSN MSN20041110143509611/10/04 14:35:31  5-MIN KMSN 102035Z 22009KT 10SM FEW120 16/02 A2999 800 39 1200 220/09 RMK AO2
14837KMSN MSN20041110144009611/10/04 14:40:31  5-MIN KMSN 102040Z 24007KT 10SM FEW120 16/03 A2999 800 40 1200 240/07 RMK AO2
14837KMSN MSN20041110144509611/10/04 14:45:31  5-MIN KMSN 102045Z 23006KT 10SM FEW120 16/03 A2999 800 43 1100 230/06 RMK AO2
14837KMSN MSN20041110145011911/10/04 14:50:31  5-MIN KMSN 102050Z 24005KT 10SM FEW120 16/04 A2999 800 45 1100 240/05 RMK AO2 SLP159 T01560039 58014
14837KMSN MSN20041110145509311/10/04 14:55:31  5-MIN KMSN 102055Z 24008KT 10SM CLR 16/03 A3000 790 43 1100 240/08 RMK AO2
14837KMSN MSN20041110150009311/10/04 15:00:31  5-MIN KMSN 102100Z VRB05KT 10SM CLR 16/03 A2999 800 43 1100 VRB/05 RMK AO2
14837KMSN MSN20041110150509311/10/04 15:05:31  5-MIN KMSN 102105Z 23006KT 10SM CLR 16/03 A2999 800 43 1100 230/06 RMK AO2
14837KMSN MSN20041110151009311/10/04 15:10:31  5-MIN KMSN 102110Z 23006KT 10SM CLR 15/03 A3000 790 45 1000 230/06 RMK AO2
14837KMSN MSN20041110151509311/10/04 15:15:31  5-MIN KMSN 102115Z 24007KT 10SM CLR 15/03 A3000 790 45 1000 230/07 RMK AO2
14837KMSN MSN20041110152009311/10/04 15:20:31  5-MIN KMSN 102120Z 24006KT 10SM CLR 15/03 A3000 790 45 1000 230/06 RMK AO2
14837KMSN MSN20041110152509311/10/04 15:25:31  5-MIN KMSN 102125Z 23006KT 10SM CLR 15/03 A3000 790 45 1000 230/06 RMK AO2
14837KMSN MSN20041110153009311/10/04 15:30:31  5-MIN KMSN 102130Z 22005KT 10SM CLR 15/04 A3000 790 47 1000 220/05 RMK AO2
14837KMSN MSN20041110153509211/10/04 15:35:31  5-MIN KMSN 102135Z 22006KT 10SM CLR 14/04 A3000 790 49 900 220/06 RMK AO2
14837KMSN MSN20041110154009211/10/04 15:40:31  5-MIN KMSN 102140Z 22008KT 10SM CLR 14/04 A3000 790 49 900 220/08 RMK AO2
14837KMSN MSN20041110154509211/10/04 15:45:31  5-MIN KMSN 102145Z 22006KT 10SM CLR 14/04 A3000 790 49 900 220/06 RMK AO2
14837KMSN MSN20041110155010911/10/04 15:50:31  5-MIN KMSN 102150Z 22007KT 10SM CLR 14/04 A3000 790 49 900 220/07 RMK AO2 SLP161 T01440039
14837KMSN MSN20041110155509211/10/04 15:55:31  5-MIN KMSN 102155Z 22007KT 10SM CLR 14/03 A3000 790 47 900 220/07 RMK AO2
14837KMSN MSN20041110160009211/10/04 16:00:31  5-MIN KMSN 102200Z 22007KT 10SM CLR 14/03 A3000 790 47 900 220/07 RMK AO2
14837KMSN MSN20041110160509211/10/04 16:05:31  5-MIN KMSN 102205Z 21006KT 10SM CLR 14/03 A3000 790 47 900 210/06 RMK AO2
14837KMSN MSN20041110161009311/10/04 16:10:31  5-MIN KMSN 102210Z 21006KT 10SM CLR 15/03 A3000 790 45 1000 210/06 RMK AO2
14837KMSN MSN20041110161509311/10/04 16:15:31  5-MIN KMSN 102215Z 21007KT 10SM CLR 14/03 A3000 790 47 1000 210/07 RMK AO2
14837KMSN MSN20041110162009311/10/04 16:20:31  5-MIN KMSN 102220Z 21008KT 10SM CLR 15/03 A3000 790 45 1000 210/08 RMK AO2
14837KMSN MSN20041110162509211/10/04 16:25:31  5-MIN KMSN 102225Z 20007KT 10SM CLR 14/03 A3000 790 47 900 200/07 RMK AO2
14837KMSN MSN20041110163009211/10/04 16:30:31  5-MIN KMSN 102230Z 21006KT 10SM CLR 14/03 A3000 790 47 900 210/06 RMK AO2
14837KMSN MSN20041110163509211/10/04 16:35:31  5-MIN KMSN 102235Z 21009KT 10SM CLR 14/03 A3000 790 47 900 210/09 RMK AO2
14837KMSN MSN20041110164009211/10/04 16:40:31  5-MIN KMSN 102240Z 21007KT 10SM CLR 14/03 A3000 790 47 900 200/07 RMK AO2
14837KMSN MSN20041110164509211/10/04 16:45:31  5-MIN KMSN 102245Z 21006KT 10SM CLR 14/03 A3001 790 47 900 210/06 RMK AO2
14837KMSN MSN20041110165010911/10/04 16:50:31  5-MIN KMSN 102250Z 21006KT 10SM CLR 14/03 A3001 780 48 900 200/06 RMK AO2 SLP163 T01390033
14837KMSN MSN20041110165509211/10/04 16:55:31  5-MIN KMSN 102255Z 22006KT 10SM CLR 14/03 A3001 780 47 900 220/06 RMK AO2
14837KMSN MSN20041110170009211/10/04 17:00:31  5-MIN KMSN 102300Z 22005KT 10SM CLR 14/03 A3001 780 47 900 220/05 RMK AO2
14837KMSN MSN20041110170509211/10/04 17:05:31  5-MIN KMSN 102305Z 23006KT 10SM CLR 14/03 A3002 780 47 900 230/06 RMK AO2
14837KMSN MSN20041110171009211/10/04 17:10:31  5-MIN KMSN 102310Z VRB04KT 10SM CLR 14/03 A3002 770 48 900 VRB/04 RMK AO2
14837KMSN MSN20041110171509211/10/04 17:15:31  5-MIN KMSN 102315Z 23005KT 10SM CLR 14/04 A3002 770 50 900 230/05 RMK AO2
14837KMSN MSN20041110172009511/10/04 17:20:31  5-MIN KMSN 102320Z VRB03KT 10SM FEW038 14/04 A3003 760 50 900 VRB/03 RMK AO2
14837KMSN MSN20041110172509511/10/04 17:25:31  5-MIN KMSN 102325Z VRB05KT 10SM SCT038 14/04 A3003 760 50 800 VRB/05 RMK AO2
14837KMSN MSN20041110173009511/10/04 17:30:31  5-MIN KMSN 102330Z 23006KT 10SM BKN040 14/04 A3003 760 50 800 230/06 RMK AO2
14837KMSN MSN20041110173509511/10/04 17:35:31  5-MIN KMSN 102335Z VRB05KT 10SM BKN040 14/04 A3004 760 50 800 VRB/05 RMK AO2
14837KMSN MSN20041110174009511/10/04 17:40:31  5-MIN KMSN 102340Z VRB05KT 10SM BKN040 14/04 A3004 760 50 800 VRB/05 RMK AO2
14837KMSN MSN20041110174509511/10/04 17:45:31  5-MIN KMSN 102345Z VRB05KT 10SM OVC040 14/04 A3004 760 49 900 VRB/05 RMK AO2
14837KMSN MSN20041110175013011/10/04 17:50:31  5-MIN KMSN 102350Z 24006KT 10SM OVC040 14/04 A3004 750 50 800 240/06 RMK AO2 SLP174 T01390039 10167 20139 55010
14837KMSN MSN20041110175509511/10/04 17:55:31  5-MIN KMSN 102355Z 22007KT 10SM OVC040 14/04 A3004 750 49 900 220/07 RMK AO2
14837KMSN MSN20041110180009511/10/04 18:00:31  5-MIN KMSN 110000Z VRB04KT 10SM OVC040 14/04 A3004 750 50 800 VRB/04 RMK AO2
14837KMSN MSN20041110180509511/10/04 18:05:31  5-MIN KMSN 110005Z VRB06KT 10SM OVC040 14/04 A3005 750 50 800 VRB/06 RMK AO2
14837KMSN MSN20041110181009511/10/04 18:10:31  5-MIN KMSN 110010Z VRB04KT 10SM OVC040 14/04 A3005 740 50 800 VRB/04 RMK AO2
14837KMSN MSN20041110181509511/10/04 18:15:31  5-MIN KMSN 110015Z 26004KT 10SM OVC042 14/04 A3006 740 50 800 260/04 RMK AO2
14837KMSN MSN20041110182009511/10/04 18:20:31  5-MIN KMSN 110020Z VRB04KT 10SM OVC042 14/04 A3006 740 50 800 VRB/04 RMK AO2
14837KMSN MSN20041110182509511/10/04 18:25:31  5-MIN KMSN 110025Z 28006KT 10SM OVC044 14/04 A3006 730 50 800 270/06 RMK AO2
14837KMSN MSN20041110183009511/10/04 18:30:31  5-MIN KMSN 110030Z VRB05KT 10SM OVC046 14/04 A3006 730 50 800 VRB/05 RMK AO2
14837KMSN MSN20041110183509511/10/04 18:35:31  5-MIN KMSN 110035Z VRB05KT 10SM OVC048 14/04 A3007 730 50 800 VRB/05 RMK AO2
14837KMSN MSN20041110184009511/10/04 18:40:31  5-MIN KMSN 110040Z 24004KT 10SM OVC048 14/04 A3007 730 50 800 240/04 RMK AO2
14837KMSN MSN20041110184509511/10/04 18:45:31  5-MIN KMSN 110045Z VRB03KT 10SM OVC048 14/04 A3007 730 50 800 VRB/03 RMK AO2
14837KMSN MSN20041110185011211/10/04 18:50:31  5-MIN KMSN 110050Z VRB04KT 10SM OVC048 14/04 A3006 730 50 800 VRB/04 RMK AO2 SLP183 T01390039
14837KMSN MSN20041110185509511/10/04 18:55:31  5-MIN KMSN 110055Z 25005KT 10SM OVC048 14/04 A3007 730 50 800 250/05 RMK AO2
14837KMSN MSN20041110190009511/10/04 19:00:31  5-MIN KMSN 110100Z VRB03KT 10SM OVC048 14/04 A3007 730 50 800 VRB/03 RMK AO2
14837KMSN MSN20041110190509511/10/04 19:05:31  5-MIN KMSN 110105Z VRB03KT 10SM OVC048 14/04 A3007 730 50 800 VRB/03 RMK AO2
14837KMSN MSN20041110191009511/10/04 19:10:31  5-MIN KMSN 110110Z VRB04KT 10SM OVC048 14/04 A3007 730 50 800 VRB/04 RMK AO2
14837KMSN MSN20041110191509511/10/04 19:15:31  5-MIN KMSN 110115Z VRB04KT 10SM OVC048 14/04 A3007 730 50 800 VRB/04 RMK AO2
14837KMSN MSN20041110192009511/10/04 19:20:31  5-MIN KMSN 110120Z VRB04KT 10SM OVC048 14/04 A3007 720 52 800 VRB/04 RMK AO2
14837KMSN MSN20041110192509511/10/04 19:25:31  5-MIN KMSN 110125Z 26005KT 10SM OVC048 14/04 A3008 720 50 800 260/05 RMK AO2
14837KMSN MSN20041110193009511/10/04 19:30:31  5-MIN KMSN 110130Z VRB04KT 10SM OVC048 14/04 A3008 720 52 800 VRB/04 RMK AO2
14837KMSN MSN20041110193509511/10/04 19:35:31  5-MIN KMSN 110135Z 27005KT 10SM OVC050 14/04 A3008 720 52 800 270/05 RMK AO2
14837KMSN MSN20041110194009511/10/04 19:40:31  5-MIN KMSN 110140Z VRB05KT 10SM OVC050 14/04 A3008 710 52 800 VRB/05 RMK AO2
14837KMSN MSN20041110194509511/10/04 19:45:31  5-MIN KMSN 110145Z 30007KT 10SM OVC050 13/04 A3009 710 54 700 300/07 RMK AO2
14837KMSN MSN20041110195011811/10/04 19:50:31  5-MIN KMSN 110150Z 32011G15KT 10SM OVC050 13/05 A3010 700 57 700 320/11G15 RMK AO2 SLP194 T01330050
14837KMSN MSN20041110195510111/10/04 19:55:31  5-MIN KMSN 110155Z 34007G15KT 10SM OVC048 13/06 A3010 700 59 700 340/07G15 RMK AO2
14837KMSN MSN20041110200009511/10/04 20:00:31  5-MIN KMSN 110200Z 33009KT 10SM OVC048 13/06 A3010 700 63 600 330/09 RMK AO2
14837KMSN MSN20041110200509411/10/04 20:05:31  5-MIN KMSN 110205Z 33009KT 8SM OVC048 12/07 A3010 700 71 600 330/09 RMK AO2
14837KMSN MSN20041110201011011/10/04 20:10:31  5-MIN KMSN 110210Z 34008KT 7SM -RA OVC048 12/08 A3011 690 74 600 340/08 RMK AO2 RAB06 P0000
14837KMSN MSN20041110201510911/10/04 20:15:31  5-MIN KMSN 110215Z 34009KT 7SM OVC046 12/08 A3011 690 80 500 330/09 RMK AO2 RAB06E15 P0000
14837KMSN MSN20041110202011711/10/04 20:20:31  5-MIN KMSN 110220Z 32010KT 6SM -RA FEW030 OVC046 12/09 A3011 690 83 500 320/10 RMK AO2 RAB06 P0000
14837KMSN MSN20041110202512711/10/04 20:25:31  5-MIN KMSN 110225Z 32008KT 6SM -RA BR SCT015 SCT029 OVC044 11/09 A3012 680 86 400 320/08 RMK AO2 RAB06 P0000
14837KMSN MSN20041110203012711/10/04 20:30:31  5-MIN KMSN 110230Z 32006KT 4SM -RA BR SCT015 BKN023 OVC044 11/09 A3012 680 89 400 320/06 RMK AO2 RAB06 P0000
14837KMSN MSN20041110203512711/10/04 20:35:31  5-MIN KMSN 110235Z 31007KT 4SM -RA BR SCT015 BKN023 OVC044 11/09 A3012 680 93 300 310/07 RMK AO2 RAB06 P0000
14837KMSN MSN20041110204012711/10/04 20:40:31  5-MIN KMSN 110240Z 32005KT 4SM -RA BR FEW010 BKN015 OVC044 11/09 A3012 680 93 300 320/05 RMK AO2 RAB06 P0000
14837KMSN MSN20041110204512711/10/04 20:45:31  5-MIN KMSN 110245Z 32007KT 4SM -RA BR SCT010 BKN015 OVC022 11/09 A3013 670 93 300 320/07 RMK AO2 RAB06 P0000
14837KMSN MSN20041110205015611/10/04 20:50:31  5-MIN KMSN 110250Z 33008KT 3SM -RA BR SCT010 BKN015 OVC022 11/09 A3013 670 93 300 320/08 RMK AO2 RAB06 SLP206 P0000 60000 T01060094 53015
14837KMSN MSN20041110205512111/10/04 20:55:31  5-MIN KMSN 110255Z 32006KT 3SM -RA BR SCT010 BKN015 OVC022 11/09 A3013 670 93 300 320/06 RMK AO2 P0001
14837KMSN MSN20041110210012111/10/04 21:00:31  5-MIN KMSN 110300Z 32008KT 3SM -RA BR SCT010 BKN015 OVC023 10/09 A3013 670 96 300 320/08 RMK AO2 P0001
14837KMSN MSN20041110210513911/10/04 21:05:31  5-MIN KMSN 110305Z 34010G18KT 3SM -RA BR BKN010 BKN015 OVC023 10/09 A3014 660 93 300 340/10G18 RMK AO2 CIG 006V012 P0001
14837KMSN MSN20041110211013911/10/04 21:10:31  5-MIN KMSN 110310Z 33012G18KT 3SM -RA BR BKN008 BKN013 OVC023 09/08 A3014 660 93 200 330/12G18 RMK AO2 CIG 006V011 P0002
14837KMSN MSN20041110211513211/10/04 21:15:31  5-MIN KMSN 110315Z 34010G18KT 3SM -RA BR BKN008 OVC023 09/08 A3015 650 93 100 340/10G18 RMK AO2 CIG 006V016 P0002
14837KMSN MSN20041110212013711/10/04 21:20:31  5-MIN KMSN 110320Z 35017G20KT 3SM -RA BR BKN008 BKN014 OVC033 08/07 A3015 650 93 0 350/17G20 RMK AO2 CIG 006V012 P0002
14837KMSN MSN20041110212513711/10/04 21:25:31  5-MIN KMSN 110325Z 34013G23KT 3SM -RA BR BKN008 BKN014 OVC033 08/06 A3016 640 89 0 340/13G23 RMK AO2 CIG 006V013 P0003
14837KMSN MSN20041110213013511/10/04 21:30:31  5-MIN KMSN 110330Z 35015G20KT 3SM -RA BR SCT008 BKN035 OVC045 08/06 A3016 640 86 0 350/15G20 RMK AO2 SFC VIS 4 P0003
14837KMSN MSN20041110213514511/10/04 21:35:31  5-MIN KMSN 110335Z 35013G23KT 3SM -RA BR FEW008 BKN035 OVC045 07/06 A3017 630 89 -100 350/13G23 RMK AO2 SFC VIS 4 PRESRR P0003
14837KMSN MSN20041110214013711/10/04 21:40:31  5-MIN KMSN 110340Z 35012G23KT 3SM RA BR FEW010 BKN019 OVC045 07/06 A3018 630 89 -100 340/12G23 RMK AO2 SFC VIS 4 P0004
14837KMSN MSN20041110214512111/10/04 21:45:31  5-MIN KMSN 110345Z 34013KT 3SM RA BR FEW010 BKN019 OVC045 07/06 A3018 630 89 -100 340/13 RMK AO2 P0005
14837KMSN MSN20041110215014511/10/04 21:50:31  5-MIN KMSN 110350Z 34011G19KT 3SM -RA BR SCT020 BKN034 OVC045 07/06 A3018 620 93 -100 340/11G19 RMK AO2 SLP224 P0005 T00670056
14837KMSN MSN20041110215513811/10/04 21:55:31  5-MIN KMSN 110355Z 35011G19KT 3SM -RA BR FEW011 BKN020 OVC045 07/06 A3018 620 93 -100 350/11G19 RMK AO2 SFC VIS 5 P0000
14837KMSN MSN20041110220011811/10/04 22:00:31  5-MIN KMSN 110400Z 35013G17KT 7SM -RA BKN022 OVC045 07/04 A3019 620 86 -100 350/13G17 RMK AO2 P0000
14837KMSN MSN20041110220512811/10/04 22:05:31  5-MIN KMSN 110405Z 34011G17KT 10SM SCT022 BKN027 OVC045 07/03 A3019 620 76 -100 340/11G17 RMK AO2 RAE05 P0000
14837KMSN MSN20041110221012811/10/04 22:10:31  5-MIN KMSN 110410Z 35011G16KT 10SM SCT022 BKN027 OVC045 06/03 A3019 620 79 -200 350/11G16 RMK AO2 RAE05 P0000
14837KMSN MSN20041110221512111/10/04 22:15:31  5-MIN KMSN 110415Z 36016G20KT 10SM FEW022 OVC027 06/03 A3019 620 79 -200 360/16G20 RMK AO2 RAE05 P0000
14837KMSN MSN20041110222012111/10/04 22:20:31  5-MIN KMSN 110420Z 35014G20KT 10SM FEW022 OVC029 06/02 A3019 620 76 -200 350/14G20 RMK AO2 RAE05 P0000
14837KMSN MSN20041110222511411/10/04 22:25:31  5-MIN KMSN 110425Z 35010G18KT 10SM OVC029 06/02 A3019 610 76 -200 350/10G18 RMK AO2 RAE05 P0000
14837KMSN MSN20041110223010811/10/04 22:30:31  5-MIN KMSN 110430Z 35009KT 10SM OVC029 06/03 A3019 610 79 -200 350/09 RMK AO2 RAE05 P0000
14837KMSN MSN20041110223510811/10/04 22:35:31  5-MIN KMSN 110435Z 35011KT 10SM OVC031 06/03 A3020 610 79 -200 350/11 RMK AO2 RAE05 P0000
14837KMSN MSN20041110224010811/10/04 22:40:31  5-MIN KMSN 110440Z 35009KT 10SM OVC033 06/03 A3019 610 79 -200 350/09 RMK AO2 RAE05 P0000
14837KMSN MSN20041110224510811/10/04 22:45:31  5-MIN KMSN 110445Z 35009KT 10SM OVC035 06/03 A3020 610 82 -200 350/09 RMK AO2 RAE05 P0000
14837KMSN MSN20041110225012511/10/04 22:50:31  5-MIN KMSN 110450Z 34007KT 10SM OVC037 06/03 A3021 600 82 -200 340/07 RMK AO2 RAE05 SLP233 P0000 T00610033
14837KMSN MSN20041110225510211/10/04 22:55:31  5-MIN KMSN 110455Z 34009G15KT 10SM OVC037 06/03 A3021 600 82 -200 340/09G15 RMK AO2
14837KMSN MSN20041110230010211/10/04 23:00:31  5-MIN KMSN 110500Z 34010G15KT 10SM OVC039 06/03 A3021 600 79 -200 340/10G15 RMK AO2
14837KMSN MSN20041110230509611/10/04 23:05:31  5-MIN KMSN 110505Z 35011KT 10SM OVC039 06/03 A3021 600 79 -200 350/11 RMK AO2
14837KMSN MSN20041110231009611/10/04 23:10:31  5-MIN KMSN 110510Z 35009KT 10SM OVC039 06/03 A3022 590 79 -200 350/09 RMK AO2
14837KMSN MSN20041110231510311/10/04 23:15:31  5-MIN KMSN 110515Z 35009KT 10SM FEW030 OVC041 06/03 A3022 580 79 -300 340/09 RMK AO2
14837KMSN MSN20041110232010911/10/04 23:20:31  5-MIN KMSN 110520Z 34008G18KT 10SM SCT032 OVC043 06/02 A3023 580 76 -300 340/08G18 RMK AO2
14837KMSN MSN20041110232510911/10/04 23:25:31  5-MIN KMSN 110525Z 35013G18KT 10SM SCT032 OVC043 06/01 A3023 580 70 -300 350/13G18 RMK AO2
14837KMSN MSN20041110233010311/10/04 23:30:31  5-MIN KMSN 110530Z 36011KT 10SM FEW032 OVC045 06/01 A3023 580 73 -300 360/11 RMK AO2
14837KMSN MSN20041110233510311/10/04 23:35:31  5-MIN KMSN 110535Z 35013KT 10SM FEW032 OVC047 06/00 A3023 580 67 -300 350/13 RMK AO2
14837KMSN MSN20041110234010911/10/04 23:40:31  5-MIN KMSN 110540Z 36013G18KT 10SM FEW032 OVC047 06/00 A3023 580 67 -300 360/13G18 RMK AO2
14837KMSN MSN20041110234511011/10/04 23:45:31  5-MIN KMSN 110545Z 35012G19KT 10SM FEW032 OVC049 06/M01 A3024 570 65 -300 350/12G19 RMK AO2
14837KMSN MSN20041110235015411/10/04 23:50:31  5-MIN KMSN 110550Z 35014G19KT 10SM OVC049 06/M01 A3024 570 65 -300 350/14G19 RMK AO2 SLP244 60006 T00561006 10144 20056 401670056 53029
14837KMSN MSN20041110235510311/10/04 23:55:31  5-MIN KMSN 110555Z 36015G20KT 10SM OVC049 05/M01 A3024 570 64 -400 360/15G20 RMK AO2
14837KMSN MSN20041111000011011/11/04 00:00:31  5-MIN KMSN 110600Z 36014G20KT 10SM FEW032 OVC049 05/M01 A3024 570 64 -400 360/14G20 RMK AO2
14837KMSN MSN20041111000511011/11/04 00:05:31  5-MIN KMSN 110605Z 35013G18KT 10SM FEW032 OVC049 05/M01 A3025 560 64 -400 350/13G18 RMK AO2
14837KMSN MSN20041111001010311/11/04 00:10:31  5-MIN KMSN 110610Z 35011G18KT 10SM OVC049 05/M01 A3025 560 67 -400 350/11G18 RMK AO2
14837KMSN MSN20041111001509711/11/04 00:15:31  5-MIN KMSN 110615Z 35012KT 10SM OVC049 05/M01 A3026 560 67 -400 350/12 RMK AO2
14837KMSN MSN20041111002010311/11/04 00:20:31  5-MIN KMSN 110620Z 35010G17KT 10SM OVC049 05/M01 A3026 560 67 -400 350/10G17 RMK AO2
14837KMSN MSN20041111002509711/11/04 00:25:31  5-MIN KMSN 110625Z 35010KT 10SM OVC049 05/M01 A3026 560 67 -400 350/10 RMK AO2
14837KMSN MSN20041111003009711/11/04 00:30:31  5-MIN KMSN 110630Z 35010KT 10SM OVC049 05/M01 A3026 550 67 -400 350/10 RMK AO2
14837KMSN MSN20041111003510311/11/04 00:35:31  5-MIN KMSN 110635Z 35011G17KT 10SM OVC049 05/M01 A3026 550 67 -400 350/11G17 RMK AO2
14837KMSN MSN20041111004009711/11/04 00:40:31  5-MIN KMSN 110640Z 35011KT 10SM OVC049 05/M01 A3026 550 67 -400 350/11 RMK AO2
14837KMSN MSN20041111004509711/11/04 00:45:31  5-MIN KMSN 110645Z 36012KT 10SM OVC049 05/M01 A3026 550 67 -400 360/12 RMK AO2
14837KMSN MSN20041111005011411/11/04 00:50:31  5-MIN KMSN 110650Z 36015KT 10SM OVC049 05/M01 A3027 540 67 -400 360/15 RMK AO2 SLP253 T00501006
14837KMSN MSN20041111005510311/11/04 00:55:31  5-MIN KMSN 110655Z 36015G20KT 10SM OVC055 05/M01 A3027 540 67 -400 360/15G20 RMK AO2
14837KMSN MSN20041111010010311/11/04 01:00:31  5-MIN KMSN 110700Z 36018G24KT 10SM OVC055 05/M02 A3028 540 62 -500 360/18G24 RMK AO2
14837KMSN MSN20041111010510311/11/04 01:05:31  5-MIN KMSN 110705Z 36017G24KT 10SM OVC055 05/M02 A3028 540 59 -500 360/17G24 RMK AO2
14837KMSN MSN20041111011010311/11/04 01:10:31  5-MIN KMSN 110710Z 36016G23KT 10SM OVC060 04/M02 A3028 530 62 -500 360/16G23 RMK AO2
14837KMSN MSN20041111011510311/11/04 01:15:31  5-MIN KMSN 110715Z 36015G21KT 10SM OVC060 04/M02 A3028 530 62 -500 360/15G21 RMK AO2
14837KMSN MSN20041111012009711/11/04 01:20:31  5-MIN KMSN 110720Z 36014KT 10SM OVC060 04/M02 A3029 530 62 -500 360/14 RMK AO2
14837KMSN MSN20041111012509711/11/04 01:25:31  5-MIN KMSN 110725Z 36015KT 10SM BKN060 04/M02 A3029 530 62 -500 360/15 RMK AO2
14837KMSN MSN20041111013009711/11/04 01:30:31  5-MIN KMSN 110730Z 01014KT 10SM BKN065 04/M02 A3029 520 62 -500 010/14 RMK AO2
14837KMSN MSN20041111013509711/11/04 01:35:31  5-MIN KMSN 110735Z 01014KT 10SM BKN065 04/M02 A3029 520 62 -500 360/14 RMK AO2
14837KMSN MSN20041111014009711/11/04 01:40:31  5-MIN KMSN 110740Z 01015KT 10SM BKN070 04/M02 A3029 520 62 -500 360/15 RMK AO2
14837KMSN MSN20041111014509711/11/04 01:45:31  5-MIN KMSN 110745Z 01013KT 10SM BKN070 04/M02 A3030 520 64 -600 010/13 RMK AO2
14837KMSN MSN20041111015011411/11/04 01:50:31  5-MIN KMSN 110750Z 01013KT 10SM BKN070 04/M02 A3030 520 64 -600 360/13 RMK AO2 SLP262 T00391022
14837KMSN MSN20041111015509711/11/04 01:55:31  5-MIN KMSN 110755Z 36013KT 10SM BKN070 04/M02 A3030 520 64 -600 360/13 RMK AO2
14837KMSN MSN20041111020009711/11/04 02:00:31  5-MIN KMSN 110800Z 36012KT 10SM BKN070 04/M02 A3030 510 64 -600 360/12 RMK AO2
14837KMSN MSN20041111020509711/11/04 02:05:31  5-MIN KMSN 110805Z 36012KT 10SM SCT070 04/M02 A3030 510 64 -600 360/12 RMK AO2
14837KMSN MSN20041111021009711/11/04 02:10:31  5-MIN KMSN 110810Z 36012KT 10SM SCT070 04/M02 A3031 510 64 -600 360/12 RMK AO2
14837KMSN MSN20041111021510311/11/04 02:15:31  5-MIN KMSN 110815Z 01016G20KT 10SM FEW070 04/M03 A3031 510 62 -600 360/16G20 RMK AO2
14837KMSN MSN20041111022010011/11/04 02:20:31  5-MIN KMSN 110820Z 36013G20KT 10SM CLR 04/M03 A3031 510 62 -600 360/13G20 RMK AO2
14837KMSN MSN20041111022510011/11/04 02:25:31  5-MIN KMSN 110825Z 36014G19KT 10SM CLR 04/M03 A3031 510 62 -600 360/14G19 RMK AO2
14837KMSN MSN20041111023010011/11/04 02:30:31  5-MIN KMSN 110830Z 36012G19KT 10SM CLR 03/M03 A3031 510 64 -700 360/12G19 RMK AO2
14837KMSN MSN20041111023509411/11/04 02:35:31  5-MIN KMSN 110835Z 36009KT 10SM CLR 03/M02 A3031 510 67 -700 360/09 RMK AO2
14837KMSN MSN20041111024009411/11/04 02:40:31  5-MIN KMSN 110840Z 36008KT 10SM CLR 03/M02 A3031 510 72 -800 360/08 RMK AO2
14837KMSN MSN20041111024509411/11/04 02:45:31  5-MIN KMSN 110845Z 36008KT 10SM CLR 03/M02 A3031 510 72 -800 360/08 RMK AO2
14837KMSN MSN20041111025011711/11/04 02:50:31  5-MIN KMSN 110850Z 36009KT 10SM CLR 03/M02 A3031 500 72 -800 360/09 RMK AO2 SLP269 T00281017 51037
14837KMSN MSN20041111025509411/11/04 02:55:31  5-MIN KMSN 110855Z 36007KT 10SM CLR 03/M02 A3032 500 72 -800 360/07 RMK AO2
14837KMSN MSN20041111030009411/11/04 03:00:31  5-MIN KMSN 110900Z 36008KT 10SM CLR 02/M02 A3032 500 75 -800 360/08 RMK AO2
14837KMSN MSN20041111030509411/11/04 03:05:31  5-MIN KMSN 110905Z 36009KT 10SM CLR 02/M02 A3032 500 75 -800 360/09 RMK AO2
14837KMSN MSN20041111031009411/11/04 03:10:31  5-MIN KMSN 110910Z 36009KT 10SM CLR 02/M02 A3032 500 75 -800 360/09 RMK AO2
14837KMSN MSN20041111031509411/11/04 03:15:31  5-MIN KMSN 110915Z 36009KT 10SM CLR 02/M02 A3032 500 75 -800 360/09 RMK AO2
14837KMSN MSN20041111032009411/11/04 03:20:31  5-MIN KMSN 110920Z 36009KT 10SM CLR 02/M02 A3032 500 75 -800 350/09 RMK AO2
14837KMSN MSN20041111032509411/11/04 03:25:31  5-MIN KMSN 110925Z 35008KT 10SM CLR 02/M02 A3032 500 72 -800 350/08 RMK AO2
14837KMSN MSN20041111033009411/11/04 03:30:31  5-MIN KMSN 110930Z 36010KT 10SM CLR 02/M02 A3032 490 72 -900 360/10 RMK AO2
14837KMSN MSN20041111033509411/11/04 03:35:31  5-MIN KMSN 110935Z 36011KT 10SM CLR 02/M02 A3033 490 72 -900 360/11 RMK AO2
14837KMSN MSN20041111034009411/11/04 03:40:31  5-MIN KMSN 110940Z 36010KT 10SM CLR 02/M02 A3033 490 72 -900 360/10 RMK AO2
14837KMSN MSN20041111034509411/11/04 03:45:31  5-MIN KMSN 110945Z 36010KT 10SM CLR 02/M02 A3033 490 72 -900 360/10 RMK AO2
14837KMSN MSN20041111035011111/11/04 03:50:31  5-MIN KMSN 110950Z 36011KT 10SM CLR 02/M02 A3033 490 72 -900 360/11 RMK AO2 SLP276 T00221022
14837KMSN MSN20041111035509411/11/04 03:55:31  5-MIN KMSN 110955Z 36007KT 10SM CLR 02/M02 A3033 480 75 -900 360/07 RMK AO2
14837KMSN MSN20041111040009411/11/04 04:00:31  5-MIN KMSN 111000Z 36009KT 10SM CLR 02/M02 A3033 480 75 -900 350/09 RMK AO2
14837KMSN MSN20041111040509411/11/04 04:05:31  5-MIN KMSN 111005Z 36011KT 10SM CLR 02/M02 A3033 490 75 -900 360/11 RMK AO2
14837KMSN MSN20041111041009411/11/04 04:10:31  5-MIN KMSN 111010Z 36009KT 10SM CLR 02/M02 A3034 480 75 -900 360/09 RMK AO2
14837KMSN MSN20041111041509411/11/04 04:15:31  5-MIN KMSN 111015Z 36010KT 10SM CLR 02/M02 A3033 480 75 -900 360/10 RMK AO2
14837KMSN MSN20041111042009411/11/04 04:20:31  5-MIN KMSN 111020Z 36010KT 10SM CLR 02/M02 A3033 480 75 -900 360/10 RMK AO2
14837KMSN MSN20041111042509511/11/04 04:25:31  5-MIN KMSN 111025Z 36010KT 10SM CLR 01/M02 A3034 480 78 -1000 360/10 RMK AO2
14837KMSN MSN20041111043009411/11/04 04:30:31  5-MIN KMSN 111030Z 36010KT 10SM CLR 02/M02 A3034 480 75 -900 360/10 RMK AO2
14837KMSN MSN20041111043509511/11/04 04:35:31  5-MIN KMSN 111035Z 36010KT 10SM CLR 01/M03 A3034 480 75 -1000 360/10 RMK AO2
14837KMSN MSN20041111044009511/11/04 04:40:31  5-MIN KMSN 111040Z 36009KT 10SM CLR 01/M03 A3034 470 75 -1000 360/09 RMK AO2
14837KMSN MSN20041111044509511/11/04 04:45:31  5-MIN KMSN 111045Z 36009KT 10SM CLR 01/M03 A3035 470 75 -1000 360/09 RMK AO2
14837KMSN MSN20041111045011211/11/04 04:50:31  5-MIN KMSN 111050Z 36010KT 10SM CLR 01/M03 A3035 470 75 -1000 360/10 RMK AO2 SLP281 T00111028
14837KMSN MSN20041111045509511/11/04 04:55:31  5-MIN KMSN 111055Z 36010KT 10SM CLR 01/M03 A3035 470 75 -1000 360/10 RMK AO2
14837KMSN MSN20041111050009511/11/04 05:00:31  5-MIN KMSN 111100Z 36010KT 10SM CLR 01/M03 A3035 470 75 -1000 360/10 RMK AO2
14837KMSN MSN20041111050509511/11/04 05:05:31  5-MIN KMSN 111105Z 36009KT 10SM CLR 01/M03 A3035 470 75 -1000 360/09 RMK AO2
14837KMSN MSN20041111051009511/11/04 05:10:31  5-MIN KMSN 111110Z 36009KT 10SM CLR 01/M03 A3036 460 78 -1100 360/09 RMK AO2
14837KMSN MSN20041111051509511/11/04 05:15:31  5-MIN KMSN 111115Z 36009KT 10SM CLR 01/M03 A3036 460 78 -1100 360/09 RMK AO2
14837KMSN MSN20041111052009511/11/04 05:20:31  5-MIN KMSN 111120Z 36010KT 10SM CLR 01/M03 A3036 460 78 -1100 360/10 RMK AO2
14837KMSN MSN20041111052509511/11/04 05:25:31  5-MIN KMSN 111125Z 01011KT 10SM CLR 01/M03 A3036 460 72 -1000 360/11 RMK AO2
14837KMSN MSN20041111053009511/11/04 05:30:31  5-MIN KMSN 111130Z 36011KT 10SM CLR 01/M03 A3037 450 75 -1100 360/11 RMK AO2
14837KMSN MSN20041111053509511/11/04 05:35:31  5-MIN KMSN 111135Z 36010KT 10SM CLR 01/M03 A3037 450 75 -1100 360/10 RMK AO2
14837KMSN MSN20041111054009511/11/04 05:40:31  5-MIN KMSN 111140Z 36009KT 10SM CLR 01/M03 A3037 450 75 -1100 360/09 RMK AO2
14837KMSN MSN20041111054509511/11/04 05:45:31  5-MIN KMSN 111145Z 36009KT 10SM CLR 01/M03 A3037 450 75 -1100 360/09 RMK AO2
14837KMSN MSN20041111055013611/11/04 05:50:31  5-MIN KMSN 111150Z 36008KT 10SM CLR 00/M03 A3037 450 78 -1200 360/08 RMK AO2 SLP291 70006 T00001033 10056 20000 51023
14837KMSN MSN20041111055509511/11/04 05:55:31  5-MIN KMSN 111155Z 36010KT 10SM CLR 00/M03 A3037 450 78 -1200 360/10 RMK AO2
14837KMSN MSN20041111060009511/11/04 06:00:31  5-MIN KMSN 111200Z 01009KT 10SM CLR 01/M03 A3038 440 75 -1100 010/09 RMK AO2
14837KMSN MSN20041111060509511/11/04 06:05:31  5-MIN KMSN 111205Z 01009KT 10SM CLR 01/M03 A3038 440 75 -1100 010/09 RMK AO2
14837KMSN MSN20041111061009511/11/04 06:10:31  5-MIN KMSN 111210Z 01010KT 10SM CLR 01/M04 A3039 430 72 -1100 010/10 RMK AO2
14837KMSN MSN20041111061509511/11/04 06:15:31  5-MIN KMSN 111215Z 01011KT 10SM CLR 01/M04 A3039 430 72 -1100 010/11 RMK AO2
14837KMSN MSN20041111062009511/11/04 06:20:31  5-MIN KMSN 111220Z 01009KT 10SM CLR 01/M04 A3040 430 72 -1100 010/09 RMK AO2
14837KMSN MSN20041111062509511/11/04 06:25:31  5-MIN KMSN 111225Z 01009KT 10SM CLR 01/M04 A3040 420 72 -1100 010/09 RMK AO2
14837KMSN MSN20041111063009511/11/04 06:30:31  5-MIN KMSN 111230Z 36008KT 10SM CLR 00/M04 A3040 420 75 -1200 360/08 RMK AO2
14837KMSN MSN20041111063509511/11/04 06:35:31  5-MIN KMSN 111235Z 36007KT 10SM CLR 00/M04 A3040 420 75 -1200 360/07 RMK AO2
14837KMSN MSN20041111064009611/11/04 06:40:31  5-MIN KMSN 111240Z 36007KT 10SM CLR M01/M04 A3041 420 78 -1300 360/07 RMK AO2
14837KMSN MSN20041111064509611/11/04 06:45:31  5-MIN KMSN 111245Z 36007KT 10SM CLR M01/M04 A3041 410 78 -1300 360/07 RMK AO2
14837KMSN MSN20041111065011611/11/04 06:50:31  5-MIN KMSN 111250Z 36007KT 10SM FEW032 M01/M04 A3042 410 78 -1300 350/07 RMK AO2 SLP306 T10061039
14837KMSN MSN20041111065509911/11/04 06:55:31  5-MIN KMSN 111255Z 36007KT 10SM FEW032 M01/M04 A3042 410 78 -1300 360/07 RMK AO2
14837KMSN MSN20041111070009911/11/04 07:00:31  5-MIN KMSN 111300Z 36006KT 10SM FEW032 M01/M04 A3042 400 78 -1300 360/06 RMK AO2
14837KMSN MSN20041111070509911/11/04 07:05:31  5-MIN KMSN 111305Z 36007KT 10SM SCT032 M01/M04 A3042 400 78 -1300 360/07 RMK AO2
14837KMSN MSN20041111071009811/11/04 07:10:31  5-MIN KMSN 111310Z 36007KT 10SM SCT032 00/M04 A3042 410 75 -1200 360/07 RMK AO2
14837KMSN MSN20041111071509811/11/04 07:15:31  5-MIN KMSN 111315Z 01007KT 10SM BKN032 00/M03 A3042 410 78 -1200 010/07 RMK AO2
14837KMSN MSN20041111072009811/11/04 07:20:31  5-MIN KMSN 111320Z 01008KT 10SM BKN030 00/M03 A3042 400 78 -1200 010/08 RMK AO2
14837KMSN MSN20041111072509811/11/04 07:25:31  5-MIN KMSN 111325Z 01008KT 10SM BKN030 00/M04 A3042 400 75 -1200 010/08 RMK AO2
14837KMSN MSN20041111073009811/11/04 07:30:31  5-MIN KMSN 111330Z 02011KT 10SM SCT030 01/M04 A3042 400 72 -1200 020/11 RMK AO2
14837KMSN MSN20041111073509811/11/04 07:35:31  5-MIN KMSN 111335Z 03011KT 10SM SCT030 01/M04 A3042 400 69 -1200 030/11 RMK AO2
14837KMSN MSN20041111074009811/11/04 07:40:31  5-MIN KMSN 111340Z 03010KT 10SM SCT030 01/M04 A3042 400 69 -1200 030/10 RMK AO2
14837KMSN MSN20041111074509811/11/04 07:45:31  5-MIN KMSN 111345Z 02011KT 10SM FEW030 01/M04 A3042 410 69 -1200 020/11 RMK AO2
14837KMSN MSN20041111075011211/11/04 07:50:31  5-MIN KMSN 111350Z 02009KT 10SM CLR 01/M04 A3042 400 69 -1200 020/09 RMK AO2 SLP308 T00061044
14837KMSN MSN20041111075509511/11/04 07:55:31  5-MIN KMSN 111355Z 03009KT 10SM CLR 01/M04 A3043 400 69 -1200 030/09 RMK AO2
14837KMSN MSN20041111080009511/11/04 08:00:31  5-MIN KMSN 111400Z 03010KT 10SM CLR 01/M05 A3043 400 66 -1200 030/10 RMK AO2
14837KMSN MSN20041111080509511/11/04 08:05:31  5-MIN KMSN 111405Z 03011KT 10SM CLR 01/M06 A3043 400 63 -1200 030/11 RMK AO2
14837KMSN MSN20041111081009511/11/04 08:10:31  5-MIN KMSN 111410Z 04010KT 10SM CLR 01/M06 A3043 390 63 -1200 040/10 RMK AO2
14837KMSN MSN20041111081509511/11/04 08:15:31  5-MIN KMSN 111415Z 04008KT 10SM CLR 01/M06 A3044 390 63 -1200 040/08 RMK AO2
14837KMSN MSN20041111082009511/11/04 08:20:31  5-MIN KMSN 111420Z 04009KT 10SM CLR 01/M06 A3044 390 61 -1200 040/09 RMK AO2
14837KMSN MSN20041111082509511/11/04 08:25:31  5-MIN KMSN 111425Z 04011KT 10SM CLR 01/M06 A3044 390 63 -1200 040/11 RMK AO2
14837KMSN MSN20041111083009511/11/04 08:30:31  5-MIN KMSN 111430Z 04009KT 10SM CLR 01/M06 A3044 390 63 -1200 040/09 RMK AO2
14837KMSN MSN20041111083509511/11/04 08:35:31  5-MIN KMSN 111435Z 04009KT 10SM CLR 01/M06 A3044 390 63 -1200 040/09 RMK AO2
14837KMSN MSN20041111084009511/11/04 08:40:31  5-MIN KMSN 111440Z 03008KT 10SM CLR 01/M06 A3044 390 63 -1200 030/08 RMK AO2
14837KMSN MSN20041111084509511/11/04 08:45:31  5-MIN KMSN 111445Z 02009KT 10SM CLR 01/M06 A3044 390 63 -1200 020/09 RMK AO2
14837KMSN MSN20041111085011811/11/04 08:50:31  5-MIN KMSN 111450Z 02010KT 10SM CLR 01/M05 A3044 390 66 -1200 020/10 RMK AO2 SLP313 T00061050 53020
14837KMSN MSN20041111085509511/11/04 08:55:31  5-MIN KMSN 111455Z 02011KT 10SM CLR 01/M06 A3044 390 63 -1200 020/11 RMK AO2
14837KMSN MSN20041111090009511/11/04 09:00:31  5-MIN KMSN 111500Z 04016KT 10SM CLR 01/M06 A3044 390 61 -1200 040/16 RMK AO2
14837KMSN MSN20041111090509511/11/04 09:05:31  5-MIN KMSN 111505Z 04016KT 10SM CLR 01/M06 A3044 390 58 -1100 030/16 RMK AO2
14837KMSN MSN20041111091009511/11/04 09:10:31  5-MIN KMSN 111510Z 03014KT 10SM CLR 01/M06 A3044 390 58 -1100 030/14 RMK AO2
14837KMSN MSN20041111091510111/11/04 09:15:31  5-MIN KMSN 111515Z 03013G20KT 10SM CLR 01/M06 A3044 390 58 -1100 030/13G20 RMK AO2
14837KMSN MSN20041111092010111/11/04 09:20:31  5-MIN KMSN 111520Z 03013G20KT 10SM CLR 01/M06 A3044 390 61 -1100 030/13G20 RMK AO2
14837KMSN MSN20041111092509511/11/04 09:25:31  5-MIN KMSN 111525Z 03014KT 10SM CLR 01/M06 A3044 390 61 -1100 030/14 RMK AO2
14837KMSN MSN20041111093009511/11/04 09:30:31  5-MIN KMSN 111530Z 03015KT 10SM CLR 02/M05 A3044 380 61 -1100 030/15 RMK AO2
14837KMSN MSN20041111093509511/11/04 09:35:31  5-MIN KMSN 111535Z 03015KT 10SM CLR 02/M06 A3044 390 59 -1100 030/15 RMK AO2
14837KMSN MSN20041111094009511/11/04 09:40:31  5-MIN KMSN 111540Z 04012KT 10SM CLR 02/M05 A3044 380 61 -1100 030/12 RMK AO2
14837KMSN MSN20041111094509511/11/04 09:45:31  5-MIN KMSN 111545Z 03014KT 10SM CLR 02/M05 A3044 380 59 -1000 030/14 RMK AO2
14837KMSN MSN20041111095011211/11/04 09:50:31  5-MIN KMSN 111550Z 03013KT 10SM CLR 02/M05 A3045 380 59 -1000 030/13 RMK AO2 SLP317 T00221050
14837KMSN MSN20041111095509511/11/04 09:55:31  5-MIN KMSN 111555Z 02015KT 10SM CLR 02/M05 A3044 380 59 -1000 020/15 RMK AO2
14837KMSN MSN20041111100009411/11/04 10:00:31  5-MIN KMSN 111600Z 02014KT 10SM CLR 03/M05 A3044 380 56 -900 020/14 RMK AO2
14837KMSN MSN20041111100509411/11/04 10:05:31  5-MIN KMSN 111605Z 02017KT 10SM CLR 03/M05 A3044 380 56 -900 020/17 RMK AO2
14837KMSN MSN20041111101009411/11/04 10:10:31  5-MIN KMSN 111610Z 02018KT 10SM CLR 03/M06 A3044 390 54 -900 020/18 RMK AO2
14837KMSN MSN20041111101509411/11/04 10:15:31  5-MIN KMSN 111615Z 02017KT 10SM CLR 03/M06 A3044 390 54 -900 020/17 RMK AO2
14837KMSN MSN20041111102009411/11/04 10:20:31  5-MIN KMSN 111620Z 02017KT 10SM CLR 03/M06 A3044 390 54 -900 020/17 RMK AO2
14837KMSN MSN20041111102510011/11/04 10:25:31  5-MIN KMSN 111625Z 01017G23KT 10SM CLR 03/M05 A3044 390 56 -900 010/17G23 RMK AO2
14837KMSN MSN20041111103010011/11/04 10:30:31  5-MIN KMSN 111630Z 02017G24KT 10SM CLR 03/M06 A3043 390 54 -900 020/17G24 RMK AO2
14837KMSN MSN20041111103510011/11/04 10:35:31  5-MIN KMSN 111635Z 02018G22KT 10SM CLR 03/M06 A3043 390 52 -800 010/18G22 RMK AO2
14837KMSN MSN20041111104010011/11/04 10:40:31  5-MIN KMSN 111640Z 01014G22KT 10SM CLR 03/M05 A3043 400 54 -800 010/14G22 RMK AO2
14837KMSN MSN20041111104510011/11/04 10:45:31  5-MIN KMSN 111645Z 02014G20KT 10SM CLR 03/M05 A3043 400 54 -800 020/14G20 RMK AO2
14837KMSN MSN20041111105011711/11/04 10:50:31  5-MIN KMSN 111650Z 02014G20KT 10SM CLR 04/M04 A3043 400 54 -800 020/14G20 RMK AO2 SLP312 T00391044
14837KMSN MSN20041111105509411/11/04 10:55:31  5-MIN KMSN 111655Z 02013KT 10SM CLR 03/M05 A3043 400 54 -800 020/13 RMK AO2
14837KMSN MSN20041111110009411/11/04 11:00:31  5-MIN KMSN 111700Z 02013KT 10SM CLR 03/M04 A3043 400 57 -800 020/13 RMK AO2
14837KMSN MSN20041111110510011/11/04 11:05:31  5-MIN KMSN 111705Z 02012G18KT 10SM CLR 03/M04 A3042 400 57 -800 020/12G18 RMK AO2
14837KMSN MSN20041111111009411/11/04 11:10:31  5-MIN KMSN 111710Z 03011KT 10SM CLR 03/M04 A3042 400 57 -800 030/11 RMK AO2
14837KMSN MSN20041111111509411/11/04 11:15:31  5-MIN KMSN 111715Z 03011KT 10SM CLR 04/M04 A3042 400 54 -800 030/11 RMK AO2
14837KMSN MSN20041111112009411/11/04 11:20:31  5-MIN KMSN 111720Z 03011KT 10SM CLR 04/M04 A3042 410 54 -800 030/11 RMK AO2
14837KMSN MSN20041111112509411/11/04 11:25:31  5-MIN KMSN 111725Z 03015KT 10SM CLR 04/M04 A3042 410 54 -800 030/15 RMK AO2
14837KMSN MSN20041111113009411/11/04 11:30:31  5-MIN KMSN 111730Z 04014KT 10SM CLR 04/M04 A3042 410 54 -800 030/14 RMK AO2
14837KMSN MSN20041111113509411/11/04 11:35:31  5-MIN KMSN 111735Z 03013KT 10SM CLR 04/M04 A3042 400 54 -800 030/13 RMK AO2
14837KMSN MSN20041111114009411/11/04 11:40:31  5-MIN KMSN 111740Z 05014KT 10SM CLR 04/M04 A3042 400 54 -800 040/14 RMK AO2
14837KMSN MSN20041111114509411/11/04 11:45:31  5-MIN KMSN 111745Z 02012KT 10SM CLR 04/M04 A3043 400 55 -700 020/12 RMK AO2
14837KMSN MSN20041111115013511/11/04 11:50:31  5-MIN KMSN 111750Z 04015G19KT 10SM CLR 04/M04 A3042 400 52 -700 040/15G19 RMK AO2 SLP310 T00441044 10044 21006 51021
14837KMSN MSN20041111115510011/11/04 11:55:31  5-MIN KMSN 111755Z 02013G19KT 10SM CLR 04/M04 A3042 400 52 -700 020/13G19 RMK AO2
14837KMSN MSN20041111120009411/11/04 12:00:31  5-MIN KMSN 111800Z 03010KT 10SM CLR 04/M04 A3042 400 55 -700 030/10 RMK AO2
14837KMSN MSN20041111120509411/11/04 12:05:31  5-MIN KMSN 111805Z 05011KT 10SM CLR 05/M04 A3042 400 50 -600 040/11 RMK AO2
14837KMSN MSN20041111121009411/11/04 12:10:31  5-MIN KMSN 111810Z 05013KT 10SM CLR 04/M05 A3042 410 50 -700 050/13 RMK AO2
14837KMSN MSN20041111121509411/11/04 12:15:31  5-MIN KMSN 111815Z 05011KT 10SM CLR 04/M05 A3042 410 50 -700 050/11 RMK AO2
14837KMSN MSN20041111122009411/11/04 12:20:31  5-MIN KMSN 111820Z 03010KT 10SM CLR 04/M04 A3042 410 52 -700 030/10 RMK AO2
14837KMSN MSN20041111122509411/11/04 12:25:31  5-MIN KMSN 111825Z 04009KT 10SM CLR 05/M04 A3042 410 52 -600 040/09 RMK AO2
14837KMSN MSN20041111123009411/11/04 12:30:31  5-MIN KMSN 111830Z 01013KT 10SM CLR 04/M05 A3042 410 50 -700 010/13 RMK AO2
14837KMSN MSN20041111123509411/11/04 12:35:31  5-MIN KMSN 111835Z 04010KT 10SM CLR 05/M05 A3042 410 48 -600 040/10 RMK AO2
14837KMSN MSN20041111124009411/11/04 12:40:31  5-MIN KMSN 111840Z 03012KT 10SM CLR 05/M06 A3042 410 46 -600 030/12 RMK AO2
14837KMSN MSN20041111124509411/11/04 12:45:31  5-MIN KMSN 111845Z 03010KT 10SM CLR 05/M06 A3042 410 46 -600 030/10 RMK AO2
14837KMSN MSN20041111125011111/11/04 12:50:31  5-MIN KMSN 111850Z 05010KT 10SM CLR 05/M05 A3042 410 48 -600 050/10 RMK AO2 SLP307 T00501050
14837KMSN MSN20041111125509411/11/04 12:55:31  5-MIN KMSN 111855Z 05012KT 10SM CLR 05/M06 A3041 410 46 -600 050/12 RMK AO2
14837KMSN MSN20041111130009411/11/04 13:00:31  5-MIN KMSN 111900Z 06007KT 10SM CLR 05/M05 A3041 410 48 -600 060/07 RMK AO2
14837KMSN MSN20041111130509411/11/04 13:05:31  5-MIN KMSN 111905Z 03013KT 10SM CLR 06/M05 A3041 420 46 -500 030/13 RMK AO2
14837KMSN MSN20041111131009411/11/04 13:10:31  5-MIN KMSN 111910Z 03010KT 10SM CLR 05/M06 A3041 420 46 -600 030/10 RMK AO2
14837KMSN MSN20041111131509411/11/04 13:15:31  5-MIN KMSN 111915Z 04012KT 10SM CLR 05/M05 A3041 420 48 -600 040/12 RMK AO2
14837KMSN MSN20041111132009411/11/04 13:20:31  5-MIN KMSN 111920Z 03013KT 10SM CLR 05/M06 A3040 420 46 -600 030/13 RMK AO2
14837KMSN MSN20041111132509411/11/04 13:25:31  5-MIN KMSN 111925Z 03009KT 10SM CLR 05/M06 A3040 420 46 -600 030/09 RMK AO2
14837KMSN MSN20041111133009411/11/04 13:30:31  5-MIN KMSN 111930Z 04011KT 10SM CLR 06/M06 A3040 420 44 -500 040/11 RMK AO2
14837KMSN MSN20041111133509411/11/04 13:35:31  5-MIN KMSN 111935Z 03011KT 10SM CLR 05/M06 A3040 420 46 -600 030/11 RMK AO2
14837KMSN MSN20041111134009411/11/04 13:40:31  5-MIN KMSN 111940Z 04011KT 10SM CLR 06/M06 A3040 420 44 -500 040/11 RMK AO2
14837KMSN MSN20041111134509411/11/04 13:45:31  5-MIN KMSN 111945Z 03009KT 10SM CLR 06/M06 A3040 420 44 -500 030/09 RMK AO2
14837KMSN MSN20041111135011111/11/04 13:50:31  5-MIN KMSN 111950Z 05012KT 10SM CLR 06/M05 A3040 420 46 -500 050/12 RMK AO2 SLP302 T00561050
14837KMSN MSN20041111135509411/11/04 13:55:31  5-MIN KMSN 111955Z 05007KT 10SM CLR 05/M06 A3040 430 46 -600 050/07 RMK AO2
14837KMSN MSN20041111140009411/11/04 14:00:31  5-MIN KMSN 112000Z 01009KT 10SM CLR 06/M05 A3040 430 46 -500 010/09 RMK AO2
14837KMSN MSN20041111140509411/11/04 14:05:31  5-MIN KMSN 112005Z 04011KT 10SM CLR 06/M05 A3039 430 46 -500 040/11 RMK AO2
14837KMSN MSN20041111141009411/11/04 14:10:31  5-MIN KMSN 112010Z 01010KT 10SM CLR 06/M05 A3039 430 46 -500 010/10 RMK AO2
14837KMSN MSN20041111141509411/11/04 14:15:31  5-MIN KMSN 112015Z 01011KT 10SM CLR 06/M05 A3039 430 46 -500 010/11 RMK AO2
14837KMSN MSN20041111142009411/11/04 14:20:31  5-MIN KMSN 112020Z 04007KT 10SM CLR 05/M06 A3039 430 46 -600 040/07 RMK AO2
14837KMSN MSN20041111142509411/11/04 14:25:31  5-MIN KMSN 112025Z 03014KT 10SM CLR 06/M04 A3039 430 48 -500 030/14 RMK AO2
14837KMSN MSN20041111143009411/11/04 14:30:31  5-MIN KMSN 112030Z 03009KT 10SM CLR 05/M05 A3039 430 48 -600 030/09 RMK AO2
14837KMSN MSN20041111143509411/11/04 14:35:31  5-MIN KMSN 112035Z 05009KT 10SM CLR 05/M05 A3039 430 48 -600 050/09 RMK AO2
14837KMSN MSN20041111144009411/11/04 14:40:31  5-MIN KMSN 112040Z 04009KT 10SM CLR 05/M05 A3039 430 48 -600 040/09 RMK AO2
14837KMSN MSN20041111144509411/11/04 14:45:31  5-MIN KMSN 112045Z 02008KT 10SM CLR 05/M04 A3039 430 50 -600 020/08 RMK AO2
14837KMSN MSN20041111145011711/11/04 14:50:31  5-MIN KMSN 112050Z 02011KT 10SM CLR 06/M04 A3039 430 48 -500 020/11 RMK AO2 SLP298 T00561044 58005
14837KMSN MSN20041111145509411/11/04 14:55:31  5-MIN KMSN 112055Z 03010KT 10SM CLR 05/M04 A3039 430 50 -600 030/10 RMK AO2
14837KMSN MSN20041111150010011/11/04 15:00:31  5-MIN KMSN 112100Z 03010G15KT 10SM CLR 05/M04 A3039 430 50 -600 030/10G15 RMK AO2
14837KMSN MSN20041111150510011/11/04 15:05:31  5-MIN KMSN 112105Z 02009G15KT 10SM CLR 05/M04 A3039 430 50 -600 020/09G15 RMK AO2
14837KMSN MSN20041111151009411/11/04 15:10:31  5-MIN KMSN 112110Z 01010KT 10SM CLR 05/M05 A3039 430 48 -600 360/10 RMK AO2
14837KMSN MSN20041111151509411/11/04 15:15:31  5-MIN KMSN 112115Z 04011KT 10SM CLR 05/M04 A3039 430 50 -600 040/11 RMK AO2
14837KMSN MSN20041111152009411/11/04 15:20:31  5-MIN KMSN 112120Z 01010KT 10SM CLR 05/M04 A3040 430 50 -600 360/10 RMK AO2
14837KMSN MSN20041111152509411/11/04 15:25:31  5-MIN KMSN 112125Z 01009KT 10SM CLR 05/M05 A3040 430 48 -600 360/09 RMK AO2
14837KMSN MSN20041111153009411/11/04 15:30:31  5-MIN KMSN 112130Z 01009KT 10SM CLR 04/M05 A3040 420 50 -700 010/09 RMK AO2
14837KMSN MSN20041111153509411/11/04 15:35:31  5-MIN KMSN 112135Z 03009KT 10SM CLR 04/M04 A3040 430 52 -700 030/09 RMK AO2
14837KMSN MSN20041111154009411/11/04 15:40:31  5-MIN KMSN 112140Z 03010KT 10SM CLR 04/M05 A3040 430 50 -700 020/10 RMK AO2
14837KMSN MSN20041111154509411/11/04 15:45:31  5-MIN KMSN 112145Z 02010KT 10SM CLR 04/M05 A3040 420 50 -700 020/10 RMK AO2
14837KMSN MSN20041111155011111/11/04 15:50:31  5-MIN KMSN 112150Z 02009KT 10SM CLR 04/M05 A3040 420 52 -700 020/09 RMK AO2 SLP303 T00391050
14837KMSN MSN20041111155509411/11/04 15:55:31  5-MIN KMSN 112155Z 01009KT 10SM CLR 04/M05 A3040 420 52 -700 010/09 RMK AO2
14837KMSN MSN20041111160009411/11/04 16:00:31  5-MIN KMSN 112200Z 01009KT 10SM CLR 04/M04 A3040 420 54 -700 010/09 RMK AO2
14837KMSN MSN20041111160509411/11/04 16:05:31  5-MIN KMSN 112205Z 02010KT 10SM CLR 04/M05 A3040 420 52 -700 010/10 RMK AO2
14837KMSN MSN20041111161009411/11/04 16:10:31  5-MIN KMSN 112210Z 01008KT 10SM CLR 03/M05 A3040 420 54 -800 010/08 RMK AO2
14837KMSN MSN20041111161509411/11/04 16:15:31  5-MIN KMSN 112215Z 01007KT 10SM CLR 03/M05 A3040 420 56 -900 360/07 RMK AO2
14837KMSN MSN20041111162009411/11/04 16:20:31  5-MIN KMSN 112220Z 02007KT 10SM CLR 02/M05 A3040 420 59 -900 020/07 RMK AO2
14837KMSN MSN20041111162509511/11/04 16:25:31  5-MIN KMSN 112225Z 02007KT 10SM CLR 02/M04 A3040 430 64 -1000 020/07 RMK AO2
14837KMSN MSN20041111163009411/11/04 16:30:31  5-MIN KMSN 112230Z 01007KT 10SM CLR 02/M04 A3040 420 61 -900 010/07 RMK AO2
14837KMSN MSN20041111163509511/11/04 16:35:31  5-MIN KMSN 112235Z 01005KT 10SM CLR 01/M05 A3040 420 64 -1100 010/05 RMK AO2
14837KMSN MSN20041111164009511/11/04 16:40:31  5-MIN KMSN 112240Z 02007KT 10SM CLR 02/M05 A3040 430 61 -1000 020/07 RMK AO2
14837KMSN MSN20041111164509511/11/04 16:45:31  5-MIN KMSN 112245Z 02007KT 10SM CLR 02/M05 A3040 430 61 -1000 020/07 RMK AO2
14837KMSN MSN20041111165011211/11/04 16:50:31  5-MIN KMSN 112250Z 01006KT 10SM CLR 01/M05 A3040 420 64 -1100 360/06 RMK AO2 SLP303 T00111050
14837KMSN MSN20041111165509511/11/04 16:55:31  5-MIN KMSN 112255Z 36006KT 10SM CLR 01/M05 A3040 420 64 -1100 360/06 RMK AO2
14837KMSN MSN20041111170009511/11/04 17:00:31  5-MIN KMSN 112300Z 36006KT 10SM CLR 01/M05 A3040 420 64 -1100 360/06 RMK AO2
14837KMSN MSN20041111170509511/11/04 17:05:31  5-MIN KMSN 112305Z 36005KT 10SM CLR 01/M05 A3040 420 64 -1100 360/05 RMK AO2
14837KMSN MSN20041111171009511/11/04 17:10:31  5-MIN KMSN 112310Z 35005KT 10SM CLR 01/M05 A3041 420 64 -1100 350/05 RMK AO2
14837KMSN MSN20041111171509511/11/04 17:15:31  5-MIN KMSN 112315Z 35005KT 10SM CLR 02/M05 A3040 420 61 -1000 350/05 RMK AO2
14837KMSN MSN20041111172009511/11/04 17:20:31  5-MIN KMSN 112320Z 35005KT 10SM CLR 02/M05 A3041 420 61 -1000 350/05 RMK AO2
14837KMSN MSN20041111172509511/11/04 17:25:31  5-MIN KMSN 112325Z 36005KT 10SM CLR 01/M05 A3040 420 64 -1100 360/05 RMK AO2
14837KMSN MSN20041111173009511/11/04 17:30:31  5-MIN KMSN 112330Z 36005KT 10SM CLR 01/M05 A3041 420 64 -1100 360/05 RMK AO2
14837KMSN MSN20041111173509511/11/04 17:35:31  5-MIN KMSN 112335Z 36006KT 10SM CLR 01/M05 A3040 420 64 -1100 360/06 RMK AO2
14837KMSN MSN20041111174009511/11/04 17:40:31  5-MIN KMSN 112340Z 36005KT 10SM CLR 01/M05 A3040 420 64 -1100 360/05 RMK AO2
14837KMSN MSN20041111174509511/11/04 17:45:31  5-MIN KMSN 112345Z 35004KT 10SM CLR 01/M05 A3040 420 64 -1100 350/04 RMK AO2
14837KMSN MSN20041111175013011/11/04 17:50:31  5-MIN KMSN 112350Z 35004KT 10SM CLR 01/M05 A3040 420 64 -1100 350/04 RMK AO2 SLP306 T00111050 10056 20011 56011
14837KMSN MSN20041111175509511/11/04 17:55:31  5-MIN KMSN 112355Z 35004KT 10SM CLR 01/M05 A3040 420 64 -1100 350/04 RMK AO2
14837KMSN MSN20041111180009511/11/04 18:00:31  5-MIN KMSN 120000Z 36004KT 10SM CLR 01/M05 A3040 420 64 -1100 360/04 RMK AO2
14837KMSN MSN20041111180509511/11/04 18:05:31  5-MIN KMSN 120005Z 36003KT 10SM CLR 01/M05 A3040 420 66 -1100 360/03 RMK AO2
14837KMSN MSN20041111181009511/11/04 18:10:31  5-MIN KMSN 120010Z 35003KT 10SM CLR 01/M05 A3040 420 66 -1200 350/03 RMK AO2
14837KMSN MSN20041111181509511/11/04 18:15:31  5-MIN KMSN 120015Z 35003KT 10SM CLR 01/M05 A3040 420 66 -1100 350/03 RMK AO2
14837KMSN MSN20041111182009511/11/04 18:20:31  5-MIN KMSN 120020Z 01003KT 10SM CLR 00/M05 A3040 420 69 -1200 010/03 RMK AO2
14837KMSN MSN20041111182509511/11/04 18:25:31  5-MIN KMSN 120025Z 35003KT 10SM CLR 01/M05 A3040 420 66 -1100 350/03 RMK AO2
14837KMSN MSN20041111183009511/11/04 18:30:31  5-MIN KMSN 120030Z 36003KT 10SM CLR 00/M05 A3040 420 69 -1200 360/03 RMK AO2
14837KMSN MSN20041111183509511/11/04 18:35:31  5-MIN KMSN 120035Z 36003KT 10SM CLR 00/M05 A3040 420 69 -1200 350/03 RMK AO2
14837KMSN MSN20041111184009511/11/04 18:40:31  5-MIN KMSN 120040Z 35003KT 10SM CLR 00/M05 A3040 420 69 -1200 350/03 RMK AO2
14837KMSN MSN20041111184509611/11/04 18:45:31  5-MIN KMSN 120045Z 36004KT 10SM CLR M01/M05 A3040 420 72 -1300 350/04 RMK AO2
14837KMSN MSN20041111185011311/11/04 18:50:31  5-MIN KMSN 120050Z 35004KT 10SM CLR M01/M05 A3040 420 72 -1300 350/04 RMK AO2 SLP307 T10061050
14837KMSN MSN20041111185509611/11/04 18:55:31  5-MIN KMSN 120055Z 35005KT 10SM CLR M01/M06 A3040 420 69 -1300 340/05 RMK AO2
14837KMSN MSN20041111190009511/11/04 19:00:31  5-MIN KMSN 120100Z 35005KT 10SM CLR 00/M06 A3040 420 66 -1200 340/05 RMK AO2
14837KMSN MSN20041111190509511/11/04 19:05:31  5-MIN KMSN 120105Z 34005KT 10SM CLR 00/M06 A3040 420 66 -1200 340/05 RMK AO2
14837KMSN MSN20041111191009511/11/04 19:10:31  5-MIN KMSN 120110Z 35006KT 10SM CLR 00/M06 A3040 420 66 -1200 350/06 RMK AO2
14837KMSN MSN20041111191509511/11/04 19:15:31  5-MIN KMSN 120115Z 35006KT 10SM CLR 00/M05 A3040 420 69 -1200 350/06 RMK AO2
14837KMSN MSN20041111192009611/11/04 19:20:31  5-MIN KMSN 120120Z 34006KT 10SM CLR M01/M05 A3040 420 72 -1300 340/06 RMK AO2
14837KMSN MSN20041111192509611/11/04 19:25:31  5-MIN KMSN 120125Z 35006KT 10SM CLR M01/M05 A3040 420 72 -1300 350/06 RMK AO2
14837KMSN MSN20041111193009611/11/04 19:30:31  5-MIN KMSN 120130Z 35006KT 10SM CLR M01/M05 A3040 420 72 -1300 350/06 RMK AO2
14837KMSN MSN20041111193509611/11/04 19:35:31  5-MIN KMSN 120135Z 35007KT 10SM CLR M01/M05 A3040 420 72 -1300 340/07 RMK AO2
14837KMSN MSN20041111194009611/11/04 19:40:31  5-MIN KMSN 120140Z 35006KT 10SM CLR M01/M06 A3040 420 69 -1300 350/06 RMK AO2
14837KMSN MSN20041111194509611/11/04 19:45:31  5-MIN KMSN 120145Z 35005KT 10SM CLR M01/M06 A3041 420 69 -1300 340/05 RMK AO2
14837KMSN MSN20041111195011311/11/04 19:50:31  5-MIN KMSN 120150Z 35006KT 10SM CLR M01/M06 A3041 420 69 -1300 350/06 RMK AO2 SLP307 T10061056
14837KMSN MSN20041111195509611/11/04 19:55:31  5-MIN KMSN 120155Z 34005KT 10SM CLR M01/M06 A3041 420 69 -1300 340/05 RMK AO2
14837KMSN MSN20041111200009611/11/04 20:00:31  5-MIN KMSN 120200Z 35006KT 10SM CLR M01/M06 A3040 420 69 -1300 350/06 RMK AO2
14837KMSN MSN20041111200509611/11/04 20:05:31  5-MIN KMSN 120205Z 35005KT 10SM CLR M01/M06 A3041 420 69 -1300 340/05 RMK AO2
14837KMSN MSN20041111201009611/11/04 20:10:31  5-MIN KMSN 120210Z 36004KT 10SM CLR M01/M06 A3041 420 69 -1300 350/04 RMK AO2
14837KMSN MSN20041111201509611/11/04 20:15:31  5-MIN KMSN 120215Z 35003KT 10SM CLR M01/M06 A3041 420 72 -1400 350/03 RMK AO2
14837KMSN MSN20041111202009611/11/04 20:20:31  5-MIN KMSN 120220Z 34003KT 10SM CLR M02/M06 A3041 420 75 -1400 340/03 RMK AO2
14837KMSN MSN20041111202509611/11/04 20:25:31  5-MIN KMSN 120225Z 00000KT 10SM CLR M02/M06 A3041 420 75 -1500 000/00 RMK AO2
14837KMSN MSN20041111203009611/11/04 20:30:31  5-MIN KMSN 120230Z 34003KT 10SM CLR M02/M06 A3041 420 75 -1500 330/03 RMK AO2
14837KMSN MSN20041111203509611/11/04 20:35:31  5-MIN KMSN 120235Z VRB03KT 10SM CLR M02/M06 A3041 420 75 -1400 VRB/03 RMK AO2
14837KMSN MSN20041111204009611/11/04 20:40:31  5-MIN KMSN 120240Z 36003KT 10SM CLR M02/M06 A3041 420 75 -1400 360/03 RMK AO2
14837KMSN MSN20041111204509611/11/04 20:45:31  5-MIN KMSN 120245Z 00000KT 10SM CLR M02/M06 A3041 410 72 -1400 000/00 RMK AO2
14837KMSN MSN20041111205011911/11/04 20:50:31  5-MIN KMSN 120250Z 00000KT 10SM CLR M02/M06 A3041 410 75 -1400 000/00 RMK AO2 SLP310 T10171056 51004
14837KMSN MSN20041111205509611/11/04 20:55:31  5-MIN KMSN 120255Z 35003KT 10SM CLR M01/M06 A3041 410 72 -1400 350/03 RMK AO2
14837KMSN MSN20041111210009611/11/04 21:00:31  5-MIN KMSN 120300Z 00000KT 10SM CLR M02/M06 A3041 410 72 -1400 000/00 RMK AO2
14837KMSN MSN20041111210509611/11/04 21:05:31  5-MIN KMSN 120305Z 00000KT 10SM CLR M02/M06 A3041 410 78 -1500 000/00 RMK AO2
14837KMSN MSN20041111211009611/11/04 21:10:31  5-MIN KMSN 120310Z 00000KT 10SM CLR M02/M06 A3041 410 75 -1400 000/00 RMK AO2
14837KMSN MSN20041111211509611/11/04 21:15:31  5-MIN KMSN 120315Z 00000KT 10SM CLR M02/M06 A3041 410 75 -1500 000/00 RMK AO2
14837KMSN MSN20041111212009611/11/04 21:20:31  5-MIN KMSN 120320Z 00000KT 10SM CLR M02/M06 A3041 410 78 -1500 000/00 RMK AO2
14837KMSN MSN20041111212509611/11/04 21:25:31  5-MIN KMSN 120325Z 00000KT 10SM CLR M02/M06 A3041 410 78 -1500 000/00 RMK AO2
14837KMSN MSN20041111213009611/11/04 21:30:31  5-MIN KMSN 120330Z 00000KT 10SM CLR M02/M06 A3041 410 78 -1500 000/00 RMK AO2
14837KMSN MSN20041111213509611/11/04 21:35:31  5-MIN KMSN 120335Z 00000KT 10SM CLR M03/M06 A3041 410 81 -1600 000/00 RMK AO2
14837KMSN MSN20041111214009611/11/04 21:40:31  5-MIN KMSN 120340Z 00000KT 10SM CLR M03/M06 A3041 420 85 -1700 000/00 RMK AO2
14837KMSN MSN20041111214509611/11/04 21:45:31  5-MIN KMSN 120345Z 00000KT 10SM CLR M03/M06 A3041 420 81 -1700 000/00 RMK AO2
14837KMSN MSN20041111215011311/11/04 21:50:31  5-MIN KMSN 120350Z 00000KT 10SM CLR M03/M06 A3041 410 81 -1700 000/00 RMK AO2 SLP310 T10331061
14837KMSN MSN20041111215509611/11/04 21:55:31  5-MIN KMSN 120355Z 00000KT 10SM CLR M03/M06 A3041 410 81 -1700 000/00 RMK AO2
14837KMSN MSN20041111220009611/11/04 22:00:31  5-MIN KMSN 120400Z 32003KT 10SM CLR M03/M06 A3041 410 81 -1700 320/03 RMK AO2
14837KMSN MSN20041111220509611/11/04 22:05:31  5-MIN KMSN 120405Z 33003KT 10SM CLR M03/M06 A3041 410 81 -1700 320/03 RMK AO2
14837KMSN MSN20041111221009611/11/04 22:10:31  5-MIN KMSN 120410Z 00000KT 10SM CLR M03/M06 A3041 410 78 -1600 000/00 RMK AO2
14837KMSN MSN20041111221509611/11/04 22:15:31  5-MIN KMSN 120415Z 00000KT 10SM CLR M03/M06 A3041 410 78 -1600 000/00 RMK AO2
14837KMSN MSN20041111222009611/11/04 22:20:31  5-MIN KMSN 120420Z 00000KT 10SM CLR M03/M06 A3041 410 78 -1600 000/00 RMK AO2
14837KMSN MSN20041111222509611/11/04 22:25:31  5-MIN KMSN 120425Z 34003KT 10SM CLR M03/M06 A3041 410 81 -1600 340/03 RMK AO2
14837KMSN MSN20041111223009611/11/04 22:30:31  5-MIN KMSN 120430Z 33003KT 10SM CLR M03/M06 A3041 410 81 -1700 330/03 RMK AO2
14837KMSN MSN20041111223509611/11/04 22:35:31  5-MIN KMSN 120435Z 00000KT 10SM CLR M03/M06 A3041 420 81 -1600 000/00 RMK AO2
14837KMSN MSN20041111224009611/11/04 22:40:31  5-MIN KMSN 120440Z 00000KT 10SM CLR M03/M06 A3040 420 81 -1600 000/00 RMK AO2
14837KMSN MSN20041111224509611/11/04 22:45:31  5-MIN KMSN 120445Z 00000KT 10SM CLR M03/M06 A3040 420 81 -1600 000/00 RMK AO2
14837KMSN MSN20041111225011311/11/04 22:50:31  5-MIN KMSN 120450Z 00000KT 10SM CLR M03/M06 A3040 430 81 -1600 000/00 RMK AO2 SLP304 T10331061
14837KMSN MSN20041111225509611/11/04 22:55:31  5-MIN KMSN 120455Z 00000KT 10SM CLR M04/M06 A3040 420 85 -1700 000/00 RMK AO2
14837KMSN MSN20041111230009611/11/04 23:00:31  5-MIN KMSN 120500Z 00000KT 10SM CLR M04/M06 A3040 420 85 -1700 000/00 RMK AO2
14837KMSN MSN20041111230509611/11/04 23:05:31  5-MIN KMSN 120505Z 00000KT 10SM CLR M04/M06 A3040 430 88 -1800 000/00 RMK AO2
14837KMSN MSN20041111231009611/11/04 23:10:31  5-MIN KMSN 120510Z 00000KT 10SM CLR M04/M06 A3040 430 85 -1700 000/00 RMK AO2
14837KMSN MSN20041111231509611/11/04 23:15:31  5-MIN KMSN 120515Z 00000KT 10SM CLR M04/M06 A3040 420 85 -1700 000/00 RMK AO2
14837KMSN MSN20041111232009611/11/04 23:20:31  5-MIN KMSN 120520Z 00000KT 10SM CLR M04/M07 A3040 420 84 -1800 000/00 RMK AO2
14837KMSN MSN20041111232509611/11/04 23:25:31  5-MIN KMSN 120525Z 00000KT 10SM CLR M04/M06 A3040 420 88 -1800 000/00 RMK AO2
14837KMSN MSN20041111233009611/11/04 23:30:31  5-MIN KMSN 120530Z 00000KT 10SM CLR M04/M07 A3040 420 84 -1800 000/00 RMK AO2
14837KMSN MSN20041111233509611/11/04 23:35:31  5-MIN KMSN 120535Z 00000KT 10SM CLR M04/M06 A3040 430 85 -1700 000/00 RMK AO2
14837KMSN MSN20041111234009611/11/04 23:40:31  5-MIN KMSN 120540Z 00000KT 10SM CLR M04/M07 A3040 430 84 -1800 000/00 RMK AO2
14837KMSN MSN20041111234509611/11/04 23:45:31  5-MIN KMSN 120545Z 00000KT 10SM CLR M04/M07 A3040 430 84 -1800 000/00 RMK AO2
14837KMSN MSN20041111235014111/11/04 23:50:31  5-MIN KMSN 120550Z 00000KT 10SM CLR M04/M06 A3039 430 85 -1700 000/00 RMK AO2 SLP303 T10391061 10011 21044 400561044 53004
14837KMSN MSN20041111235509611/11/04 23:55:31  5-MIN KMSN 120555Z 00000KT 10SM CLR M04/M07 A3039 430 84 -1800 000/00 RMK AO2
14837KMSN MSN20041112000009611/12/04 00:00:31  5-MIN KMSN 120600Z 00000KT 10SM CLR M04/M07 A3040 430 84 -1800 000/00 RMK AO2
14837KMSN MSN20041112000509611/12/04 00:05:31  5-MIN KMSN 120605Z 00000KT 10SM CLR M04/M07 A3040 430 84 -1800 000/00 RMK AO2
14837KMSN MSN20041112001009611/12/04 00:10:31  5-MIN KMSN 120610Z 00000KT 10SM CLR M04/M07 A3040 430 84 -1800 000/00 RMK AO2
14837KMSN MSN20041112001509611/12/04 00:15:31  5-MIN KMSN 120615Z 00000KT 10SM CLR M05/M07 A3040 430 88 -1900 000/00 RMK AO2
14837KMSN MSN20041112002009611/12/04 00:20:31  5-MIN KMSN 120620Z 00000KT 10SM CLR M05/M07 A3040 430 84 -1900 000/00 RMK AO2
14837KMSN MSN20041112002509611/12/04 00:25:31  5-MIN KMSN 120625Z 00000KT 10SM CLR M05/M07 A3039 430 88 -1800 000/00 RMK AO2
14837KMSN MSN20041112003009611/12/04 00:30:31  5-MIN KMSN 120630Z 00000KT 10SM CLR M05/M07 A3040 430 88 -1900 000/00 RMK AO2
14837KMSN MSN20041112003509611/12/04 00:35:31  5-MIN KMSN 120635Z 00000KT 10SM CLR M05/M07 A3040 430 88 -1900 000/00 RMK AO2
14837KMSN MSN20041112004009611/12/04 00:40:31  5-MIN KMSN 120640Z 00000KT 10SM CLR M05/M07 A3040 430 88 -1800 000/00 RMK AO2
14837KMSN MSN20041112004509611/12/04 00:45:31  5-MIN KMSN 120645Z 00000KT 10SM CLR M05/M07 A3039 430 88 -1800 000/00 RMK AO2
14837KMSN MSN20041112005011311/12/04 00:50:31  5-MIN KMSN 120650Z 00000KT 10SM CLR M05/M07 A3040 430 84 -1800 000/00 RMK AO2 SLP303 T10501072
14837KMSN MSN20041112005509611/12/04 00:55:31  5-MIN KMSN 120655Z 00000KT 10SM CLR M05/M07 A3039 430 88 -1800 000/00 RMK AO2
14837KMSN MSN20041112010009611/12/04 01:00:31  5-MIN KMSN 120700Z 00000KT 10SM CLR M05/M07 A3039 430 88 -1800 000/00 RMK AO2
14837KMSN MSN20041112010509611/12/04 01:05:31  5-MIN KMSN 120705Z 32003KT 10SM CLR M05/M07 A3040 430 84 -1900 320/03 RMK AO2
14837KMSN MSN20041112011009611/12/04 01:10:31  5-MIN KMSN 120710Z 00000KT 10SM CLR M05/M07 A3040 430 84 -1900 000/00 RMK AO2
14837KMSN MSN20041112011509611/12/04 01:15:31  5-MIN KMSN 120715Z 32003KT 10SM CLR M05/M07 A3040 430 84 -1900 320/03 RMK AO2
14837KMSN MSN20041112012009611/12/04 01:20:31  5-MIN KMSN 120720Z 32004KT 10SM CLR M05/M07 A3040 420 84 -1900 320/04 RMK AO2
14837KMSN MSN20041112012509611/12/04 01:25:31  5-MIN KMSN 120725Z 00000KT 10SM CLR M05/M07 A3040 420 84 -1900 000/00 RMK AO2
14837KMSN MSN20041112013009611/12/04 01:30:31  5-MIN KMSN 120730Z 00000KT 10SM CLR M04/M07 A3040 420 84 -1800 000/00 RMK AO2
14837KMSN MSN20041112013509611/12/04 01:35:31  5-MIN KMSN 120735Z 32003KT 10SM CLR M04/M07 A3040 420 84 -1800 320/03 RMK AO2
14837KMSN MSN20041112014009611/12/04 01:40:31  5-MIN KMSN 120740Z 00000KT 10SM CLR M04/M07 A3040 420 84 -1800 000/00 RMK AO2
14837KMSN MSN20041112014509611/12/04 01:45:31  5-MIN KMSN 120745Z 32003KT 10SM CLR M05/M07 A3041 420 84 -1900 320/03 RMK AO2
14837KMSN MSN20041112015011311/12/04 01:50:31  5-MIN KMSN 120750Z 32003KT 10SM CLR M05/M07 A3041 420 84 -1900 320/03 RMK AO2 SLP306 T10501072
14837KMSN MSN20041112015509611/12/04 01:55:31  5-MIN KMSN 120755Z 32003KT 10SM CLR M05/M07 A3041 420 84 -1900 320/03 RMK AO2
14837KMSN MSN20041112020009511/12/04 02:00:31  5-MIN KMSN 120800Z 31003KT 9SM CLR M06/M08 A3041 420 84 -1900 300/03 RMK AO2
14837KMSN MSN20041112020509611/12/04 02:05:31  5-MIN KMSN 120805Z 31003KT 10SM CLR M06/M08 A3041 410 84 -1900 310/03 RMK AO2
14837KMSN MSN20041112021009611/12/04 02:10:31  5-MIN KMSN 120810Z 00000KT 10SM CLR M05/M08 A3041 410 81 -1900 000/00 RMK AO2
14837KMSN MSN20041112021509611/12/04 02:15:31  5-MIN KMSN 120815Z 00000KT 10SM CLR M06/M08 A3041 410 84 -1900 000/00 RMK AO2
14837KMSN MSN20041112022009611/12/04 02:20:31  5-MIN KMSN 120820Z 33004KT 10SM CLR M06/M08 A3041 410 84 -2000 330/04 RMK AO2
14837KMSN MSN20041112022509611/12/04 02:25:31  5-MIN KMSN 120825Z 33004KT 10SM CLR M06/M08 A3041 410 84 -1900 330/04 RMK AO2
14837KMSN MSN20041112023009611/12/04 02:30:31  5-MIN KMSN 120830Z 32003KT 10SM CLR M06/M08 A3041 410 84 -1900 320/03 RMK AO2
14837KMSN MSN20041112023509611/12/04 02:35:31  5-MIN KMSN 120835Z 00000KT 10SM CLR M05/M08 A3041 410 81 -1900 000/00 RMK AO2
14837KMSN MSN20041112024009611/12/04 02:40:31  5-MIN KMSN 120840Z 00000KT 10SM CLR M05/M07 A3041 410 84 -1900 000/00 RMK AO2
14837KMSN MSN20041112024509611/12/04 02:45:31  5-MIN KMSN 120845Z 33003KT 10SM CLR M06/M07 A3041 410 88 -1900 330/03 RMK AO2
14837KMSN MSN20041112025011911/12/04 02:50:31  5-MIN KMSN 120850Z 33004KT 10SM CLR M06/M08 A3041 410 84 -1900 330/04 RMK AO2 SLP308 T10561078 58006
14837KMSN MSN20041112025509611/12/04 02:55:31  5-MIN KMSN 120855Z 33004KT 10SM CLR M06/M07 A3041 410 88 -1900 330/04 RMK AO2
14837KMSN MSN20041112030009611/12/04 03:00:31  5-MIN KMSN 120900Z 34003KT 10SM CLR M06/M07 A3041 420 92 -1900 340/03 RMK AO2
14837KMSN MSN20041112030509611/12/04 03:05:31  5-MIN KMSN 120905Z 00000KT 10SM CLR M06/M07 A3041 420 92 -1900 000/00 RMK AO2
14837KMSN MSN20041112031009611/12/04 03:10:31  5-MIN KMSN 120910Z 34003KT 10SM CLR M06/M07 A3041 420 88 -1900 340/03 RMK AO2
14837KMSN MSN20041112031509611/12/04 03:15:31  5-MIN KMSN 120915Z 34004KT 10SM CLR M06/M08 A3040 420 88 -2000 340/04 RMK AO2
14837KMSN MSN20041112032009611/12/04 03:20:31  5-MIN KMSN 120920Z 34003KT 10SM CLR M06/M07 A3040 420 92 -2000 340/03 RMK AO2
14837KMSN MSN20041112032509611/12/04 03:25:31  5-MIN KMSN 120925Z 34004KT 10SM CLR M06/M07 A3040 420 88 -1900 340/04 RMK AO2
14837KMSN MSN20041112033009611/12/04 03:30:31  5-MIN KMSN 120930Z 34004KT 10SM CLR M06/M07 A3040 420 88 -1900 340/04 RMK AO2
14837KMSN MSN20041112033509611/12/04 03:35:31  5-MIN KMSN 120935Z 34003KT 10SM CLR M06/M07 A3040 420 88 -1900 340/03 RMK AO2
14837KMSN MSN20041112034009611/12/04 03:40:31  5-MIN KMSN 120940Z 00000KT 10SM CLR M06/M07 A3040 420 88 -1900 000/00 RMK AO2
14837KMSN MSN20041112034509611/12/04 03:45:31  5-MIN KMSN 120945Z 34004KT 10SM CLR M05/M07 A3041 420 88 -1900 340/04 RMK AO2
14837KMSN MSN20041112035011311/12/04 03:50:31  5-MIN KMSN 120950Z 34004KT 10SM CLR M06/M07 A3041 420 88 -1900 340/04 RMK AO2 SLP308 T10561072
14837KMSN MSN20041112035509611/12/04 03:55:31  5-MIN KMSN 120955Z 34004KT 10SM CLR M05/M07 A3041 420 84 -1900 340/04 RMK AO2
14837KMSN MSN20041112040009611/12/04 04:00:31  5-MIN KMSN 121000Z 34004KT 10SM CLR M04/M07 A3041 420 84 -1800 340/04 RMK AO2
14837KMSN MSN20041112040509611/12/04 04:05:31  5-MIN KMSN 121005Z 34005KT 10SM CLR M04/M07 A3041 410 81 -1800 330/05 RMK AO2
14837KMSN MSN20041112041009611/12/04 04:10:31  5-MIN KMSN 121010Z 33004KT 10SM CLR M04/M07 A3042 410 81 -1800 330/04 RMK AO2
14837KMSN MSN20041112041509611/12/04 04:15:31  5-MIN KMSN 121015Z 32005KT 10SM CLR M05/M07 A3042 410 84 -1900 320/05 RMK AO2
14837KMSN MSN20041112042009611/12/04 04:20:31  5-MIN KMSN 121020Z 32005KT 10SM CLR M05/M07 A3042 410 84 -1900 320/05 RMK AO2
14837KMSN MSN20041112042509611/12/04 04:25:31  5-MIN KMSN 121025Z 31004KT 10SM CLR M05/M07 A3042 400 84 -1900 310/04 RMK AO2
14837KMSN MSN20041112043009611/12/04 04:30:31  5-MIN KMSN 121030Z 32004KT 10SM CLR M06/M07 A3042 400 88 -2000 320/04 RMK AO2
14837KMSN MSN20041112043509611/12/04 04:35:31  5-MIN KMSN 121035Z 32003KT 10SM CLR M05/M07 A3042 400 84 -1900 320/03 RMK AO2
14837KMSN MSN20041112044009611/12/04 04:40:31  5-MIN KMSN 121040Z 33003KT 10SM CLR M05/M07 A3042 400 84 -1900 330/03 RMK AO2
14837KMSN MSN20041112044509611/12/04 04:45:31  5-MIN KMSN 121045Z 33003KT 10SM CLR M05/M07 A3042 400 84 -1900 330/03 RMK AO2
14837KMSN MSN20041112045011311/12/04 04:50:31  5-MIN KMSN 121050Z 32004KT 10SM CLR M06/M07 A3042 400 88 -2000 320/04 RMK AO2 SLP315 T10561072
14837KMSN MSN20041112045509611/12/04 04:55:31  5-MIN KMSN 121055Z 32003KT 10SM CLR M06/M07 A3043 400 88 -2000 320/03 RMK AO2
14837KMSN MSN20041112050009511/12/04 05:00:31  5-MIN KMSN 121100Z 31003KT 9SM CLR M06/M08 A3042 400 88 -2000 310/03 RMK AO2
14837KMSN MSN20041112050509511/12/04 05:05:31  5-MIN KMSN 121105Z 00000KT 9SM CLR M06/M07 A3042 400 88 -2000 000/00 RMK AO2
14837KMSN MSN20041112051009511/12/04 05:10:31  5-MIN KMSN 121110Z 00000KT 9SM CLR M06/M07 A3042 400 88 -2000 000/00 RMK AO2
14837KMSN MSN20041112051509511/12/04 05:15:31  5-MIN KMSN 121115Z 00000KT 9SM CLR M06/M07 A3042 400 88 -2000 000/00 RMK AO2
14837KMSN MSN20041112052009511/12/04 05:20:31  5-MIN KMSN 121120Z 00000KT 9SM CLR M05/M07 A3042 400 84 -1900 000/00 RMK AO2
14837KMSN MSN20041112052509511/12/04 05:25:31  5-MIN KMSN 121125Z 33003KT 9SM CLR M06/M07 A3042 400 88 -2000 330/03 RMK AO2
14837KMSN MSN20041112053009511/12/04 05:30:31  5-MIN KMSN 121130Z 34004KT 9SM CLR M06/M07 A3042 400 88 -2000 340/04 RMK AO2
14837KMSN MSN20041112053509511/12/04 05:35:31  5-MIN KMSN 121135Z 34003KT 9SM CLR M06/M07 A3042 410 88 -1900 340/03 RMK AO2
14837KMSN MSN20041112054009511/12/04 05:40:31  5-MIN KMSN 121140Z 00000KT 9SM CLR M07/M08 A3042 410 88 -2100 000/00 RMK AO2
14837KMSN MSN20041112054509511/12/04 05:45:31  5-MIN KMSN 121145Z 00000KT 9SM CLR M06/M08 A3042 400 88 -2000 000/00 RMK AO2
14837KMSN MSN20041112055013011/12/04 05:50:31  5-MIN KMSN 121150Z 00000KT 9SM CLR M06/M07 A3042 400 92 -2000 000/00 RMK AO2 SLP314 T10611072 11044 21067 53005
14837KMSN MSN20041112055509511/12/04 05:55:31  5-MIN KMSN 121155Z 00000KT 9SM CLR M06/M07 A3042 400 92 -2000 000/00 RMK AO2
14837KMSN MSN20041112060009511/12/04 06:00:31  5-MIN KMSN 121200Z 00000KT 9SM CLR M06/M08 A3043 400 88 -2000 000/00 RMK AO2
14837KMSN MSN20041112060509511/12/04 06:05:31  5-MIN KMSN 121205Z 00000KT 8SM CLR M06/M08 A3043 400 88 -2000 000/00 RMK AO2
14837KMSN MSN20041112061009511/12/04 06:10:31  5-MIN KMSN 121210Z 00000KT 9SM CLR M06/M07 A3043 400 92 -2000 000/00 RMK AO2
14837KMSN MSN20041112061509511/12/04 06:15:31  5-MIN KMSN 121215Z 00000KT 9SM CLR M07/M08 A3043 400 92 -2100 000/00 RMK AO2
14837KMSN MSN20041112062009511/12/04 06:20:31  5-MIN KMSN 121220Z 00000KT 8SM CLR M06/M08 A3043 400 88 -2000 000/00 RMK AO2
14837KMSN MSN20041112062509511/12/04 06:25:31  5-MIN KMSN 121225Z 00000KT 8SM CLR M06/M08 A3043 390 88 -2000 000/00 RMK AO2
14837KMSN MSN20041112063009511/12/04 06:30:31  5-MIN KMSN 121230Z 00000KT 8SM CLR M07/M08 A3043 390 92 -2100 000/00 RMK AO2
14837KMSN MSN20041112063509511/12/04 06:35:31  5-MIN KMSN 121235Z 00000KT 8SM CLR M07/M08 A3044 390 92 -2100 000/00 RMK AO2
14837KMSN MSN20041112064009511/12/04 06:40:31  5-MIN KMSN 121240Z 00000KT 8SM CLR M07/M08 A3044 390 92 -2100 000/00 RMK AO2
14837KMSN MSN20041112064509511/12/04 06:45:31  5-MIN KMSN 121245Z 00000KT 7SM CLR M07/M08 A3044 390 92 -2100 000/00 RMK AO2
14837KMSN MSN20041112065011511/12/04 06:50:31  5-MIN KMSN 121250Z 00000KT 6SM BR CLR M07/M08 A3044 390 92 -2100 000/00 RMK AO2 SLP322 T10671078
14837KMSN MSN20041112065509811/12/04 06:55:31  5-MIN KMSN 121255Z 00000KT 6SM BR CLR M07/M08 A3044 380 92 -2100 000/00 RMK AO2
14837KMSN MSN20041112070009511/12/04 07:00:31  5-MIN KMSN 121300Z 00000KT 7SM CLR M07/M08 A3044 380 92 -2100 000/00 RMK AO2
14837KMSN MSN20041112070509511/12/04 07:05:31  5-MIN KMSN 121305Z 00000KT 7SM CLR M07/M08 A3045 380 92 -2100 000/00 RMK AO2
14837KMSN MSN20041112071009511/12/04 07:10:31  5-MIN KMSN 121310Z 00000KT 7SM CLR M07/M08 A3045 380 92 -2100 000/00 RMK AO2
14837KMSN MSN20041112071509511/12/04 07:15:31  5-MIN KMSN 121315Z 02004KT 7SM CLR M07/M08 A3045 370 88 -2100 010/04 RMK AO2
14837KMSN MSN20041112072009511/12/04 07:20:31  5-MIN KMSN 121320Z 36005KT 8SM CLR M07/M08 A3045 370 88 -2100 360/05 RMK AO2
14837KMSN MSN20041112072509511/12/04 07:25:31  5-MIN KMSN 121325Z 35003KT 8SM CLR M06/M07 A3046 370 88 -2000 350/03 RMK AO2
14837KMSN MSN20041112073009511/12/04 07:30:31  5-MIN KMSN 121330Z 00000KT 8SM CLR M06/M07 A3046 370 92 -2100 000/00 RMK AO2
14837KMSN MSN20041112073509511/12/04 07:35:31  5-MIN KMSN 121335Z 00000KT 8SM CLR M06/M07 A3046 370 92 -2000 000/00 RMK AO2
14837KMSN MSN20041112074009511/12/04 07:40:31  5-MIN KMSN 121340Z 00000KT 8SM CLR M05/M06 A3046 370 92 -1900 000/00 RMK AO2
14837KMSN MSN20041112074509511/12/04 07:45:31  5-MIN KMSN 121345Z 00000KT 8SM CLR M04/M06 A3047 360 88 -1900 000/00 RMK AO2
14837KMSN MSN20041112075011211/12/04 07:50:31  5-MIN KMSN 121350Z 34003KT 8SM CLR M04/M06 A3047 360 85 -1800 340/03 RMK AO2 SLP330 T10391061
14837KMSN MSN20041112075509511/12/04 07:55:31  5-MIN KMSN 121355Z 34004KT 8SM CLR M03/M06 A3047 360 81 -1700 340/04 RMK AO2
14837KMSN MSN20041112080009511/12/04 08:00:31  5-MIN KMSN 121400Z 35005KT 9SM CLR M03/M06 A3047 360 81 -1700 350/05 RMK AO2
14837KMSN MSN20041112080509511/12/04 08:05:31  5-MIN KMSN 121405Z 35004KT 9SM CLR M03/M06 A3047 360 81 -1700 350/04 RMK AO2
14837KMSN MSN20041112081009611/12/04 08:10:31  5-MIN KMSN 121410Z 36004KT 10SM CLR M03/M06 A3047 360 78 -1700 360/04 RMK AO2
14837KMSN MSN20041112081509611/12/04 08:15:31  5-MIN KMSN 121415Z 35003KT 10SM CLR M03/M06 A3047 360 81 -1700 350/03 RMK AO2
14837KMSN MSN20041112082009611/12/04 08:20:31  5-MIN KMSN 121420Z 35003KT 10SM CLR M02/M06 A3047 360 78 -1600 350/03 RMK AO2
14837KMSN MSN20041112082509611/12/04 08:25:31  5-MIN KMSN 121425Z 34004KT 10SM CLR M02/M06 A3048 350 78 -1600 330/04 RMK AO2
14837KMSN MSN20041112083009611/12/04 08:30:31  5-MIN KMSN 121430Z 34004KT 10SM CLR M02/M05 A3048 350 78 -1500 340/04 RMK AO2
14837KMSN MSN20041112083509611/12/04 08:35:31  5-MIN KMSN 121435Z 36003KT 10SM CLR M02/M05 A3048 350 78 -1500 360/03 RMK AO2
14837KMSN MSN20041112084009611/12/04 08:40:31  5-MIN KMSN 121440Z 36004KT 10SM CLR M02/M05 A3048 350 78 -1500 360/04 RMK AO2
14837KMSN MSN20041112084509611/12/04 08:45:31  5-MIN KMSN 121445Z 01004KT 10SM CLR M01/M04 A3048 350 78 -1400 010/04 RMK AO2
14837KMSN MSN20041112085011911/12/04 08:50:31  5-MIN KMSN 121450Z 01003KT 10SM CLR M01/M05 A3048 350 72 -1400 010/03 RMK AO2 SLP333 T10061050 50004
14837KMSN MSN20041112085509611/12/04 08:55:31  5-MIN KMSN 121455Z 36004KT 10SM CLR M01/M05 A3048 350 72 -1400 360/04 RMK AO2
14837KMSN MSN20041112090009611/12/04 09:00:31  5-MIN KMSN 121500Z 35003KT 10SM CLR M01/M05 A3048 350 72 -1400 350/03 RMK AO2
14837KMSN MSN20041112090509511/12/04 09:05:31  5-MIN KMSN 121505Z 36004KT 10SM CLR 00/M04 A3049 340 72 -1300 360/04 RMK AO2
14837KMSN MSN20041112091009511/12/04 09:10:31  5-MIN KMSN 121510Z 34004KT 10SM CLR 00/M04 A3049 340 72 -1300 340/04 RMK AO2
14837KMSN MSN20041112091509511/12/04 09:15:31  5-MIN KMSN 121515Z 34004KT 10SM CLR 00/M04 A3049 340 72 -1300 340/04 RMK AO2
14837KMSN MSN20041112092009511/12/04 09:20:31  5-MIN KMSN 121520Z 35004KT 10SM CLR 00/M04 A3049 340 72 -1300 350/04 RMK AO2
14837KMSN MSN20041112092509511/12/04 09:25:31  5-MIN KMSN 121525Z 35004KT 10SM CLR 01/M04 A3049 340 69 -1300 350/04 RMK AO2
14837KMSN MSN20041112093009511/12/04 09:30:31  5-MIN KMSN 121530Z VRB03KT 10SM CLR 01/M04 A3049 340 72 -1300 VRB/03 RMK AO2
14837KMSN MSN20041112093509511/12/04 09:35:31  5-MIN KMSN 121535Z 01005KT 10SM CLR 01/M04 A3049 340 69 -1200 010/05 RMK AO2
14837KMSN MSN20041112094009511/12/04 09:40:31  5-MIN KMSN 121540Z 01005KT 10SM CLR 01/M04 A3049 340 66 -1200 010/05 RMK AO2
14837KMSN MSN20041112094509511/12/04 09:45:31  5-MIN KMSN 121545Z 36005KT 10SM CLR 01/M04 A3049 340 66 -1200 360/05 RMK AO2
14837KMSN MSN20041112095011211/12/04 09:50:31  5-MIN KMSN 121550Z 36005KT 10SM CLR 02/M04 A3049 340 64 -1100 360/05 RMK AO2 SLP338 T00171044
14837KMSN MSN20041112095509511/12/04 09:55:31  5-MIN KMSN 121555Z 01004KT 10SM CLR 02/M05 A3050 340 61 -1100 010/04 RMK AO2
14837KMSN MSN20041112100009511/12/04 10:00:31  5-MIN KMSN 121600Z 36004KT 10SM CLR 02/M04 A3050 330 61 -1100 360/04 RMK AO2
14837KMSN MSN20041112100509511/12/04 10:05:31  5-MIN KMSN 121605Z 01005KT 10SM CLR 02/M04 A3050 330 61 -1100 010/05 RMK AO2
14837KMSN MSN20041112101009511/12/04 10:10:31  5-MIN KMSN 121610Z 36005KT 10SM CLR 02/M05 A3050 330 59 -1100 360/05 RMK AO2
14837KMSN MSN20041112101509511/12/04 10:15:31  5-MIN KMSN 121615Z 01006KT 10SM CLR 02/M06 A3050 330 56 -1100 010/06 RMK AO2
14837KMSN MSN20041112102009511/12/04 10:20:31  5-MIN KMSN 121620Z 36003KT 10SM CLR 02/M07 A3050 330 52 -1100 360/03 RMK AO2
14837KMSN MSN20041112102509511/12/04 10:25:31  5-MIN KMSN 121625Z VRB04KT 10SM CLR 03/M06 A3051 330 54 -1000 VRB/04 RMK AO2
14837KMSN MSN20041112103009511/12/04 10:30:31  5-MIN KMSN 121630Z 36004KT 10SM CLR 03/M06 A3051 330 52 -1000 360/04 RMK AO2
14837KMSN MSN20041112103509511/12/04 10:35:31  5-MIN KMSN 121635Z 36005KT 10SM CLR 03/M07 A3051 330 50 -1000 360/05 RMK AO2
14837KMSN MSN20041112104009411/12/04 10:40:31  5-MIN KMSN 121640Z 01005KT 10SM CLR 03/M07 A3051 320 46 -900 010/05 RMK AO2
14837KMSN MSN20041112104509411/12/04 10:45:31  5-MIN KMSN 121645Z 36004KT 10SM CLR 03/M07 A3051 330 46 -900 360/04 RMK AO2
14837KMSN MSN20041112105011111/12/04 10:50:31  5-MIN KMSN 121650Z 01005KT 10SM CLR 03/M07 A3051 320 48 -900 010/05 RMK AO2 SLP342 T00331067
14837KMSN MSN20041112105509511/12/04 10:55:31  5-MIN KMSN 121655Z VRB03KT 10SM CLR 03/M07 A3051 330 50 -1000 VRB/03 RMK AO2
14837KMSN MSN20041112110009411/12/04 11:00:31  5-MIN KMSN 121700Z VRB03KT 10SM CLR 04/M07 A3050 330 44 -800 VRB/03 RMK AO2
14837KMSN MSN20041112110509411/12/04 11:05:31  5-MIN KMSN 121705Z VRB04KT 10SM CLR 04/M08 A3050 330 42 -800 VRB/04 RMK AO2
14837KMSN MSN20041112111009411/12/04 11:10:31  5-MIN KMSN 121710Z 00000KT 10SM CLR 03/M08 A3050 330 42 -900 000/00 RMK AO2
14837KMSN MSN20041112111509411/12/04 11:15:31  5-MIN KMSN 121715Z 00000KT 10SM CLR 04/M08 A3050 330 42 -800 000/00 RMK AO2
14837KMSN MSN20041112112009411/12/04 11:20:31  5-MIN KMSN 121720Z 02003KT 10SM CLR 03/M08 A3050 330 42 -900 020/03 RMK AO2
14837KMSN MSN20041112112509411/12/04 11:25:31  5-MIN KMSN 121725Z 02004KT 10SM CLR 04/M08 A3050 340 40 -800 020/04 RMK AO2
14837KMSN MSN20041112113009411/12/04 11:30:31  5-MIN KMSN 121730Z 01006KT 10SM CLR 04/M08 A3050 330 40 -800 010/06 RMK AO2
14837KMSN MSN20041112113509411/12/04 11:35:31  5-MIN KMSN 121735Z 36005KT 10SM CLR 04/M08 A3050 340 40 -800 360/05 RMK AO2
14837KMSN MSN20041112114009411/12/04 11:40:31  5-MIN KMSN 121740Z 01004KT 10SM CLR 04/M08 A3049 340 40 -800 010/04 RMK AO2
14837KMSN MSN20041112114509411/12/04 11:45:31  5-MIN KMSN 121745Z VRB05KT 10SM CLR 04/M09 A3049 340 39 -800 VRB/05 RMK AO2
14837KMSN MSN20041112115012911/12/04 11:50:31  5-MIN KMSN 121750Z VRB05KT 10SM CLR 04/M08 A3049 340 39 -800 VRB/05 RMK AO2 SLP337 T00441083 10044 21067 51019
14837KMSN MSN20041112115509411/12/04 11:55:31  5-MIN KMSN 121755Z 01005KT 10SM CLR 04/M08 A3049 340 39 -800 010/05 RMK AO2
14837KMSN MSN20041112120009411/12/04 12:00:31  5-MIN KMSN 121800Z 01006KT 10SM CLR 04/M08 A3049 340 40 -800 010/06 RMK AO2
14837KMSN MSN20041112120509411/12/04 12:05:31  5-MIN KMSN 121805Z 36007KT 10SM CLR 04/M08 A3049 340 39 -800 360/07 RMK AO2
14837KMSN MSN20041112121009411/12/04 12:10:31  5-MIN KMSN 121810Z 01005KT 10SM CLR 04/M08 A3049 340 39 -800 010/05 RMK AO2
14837KMSN MSN20041112121509411/12/04 12:15:31  5-MIN KMSN 121815Z 02006KT 10SM CLR 04/M08 A3049 340 39 -800 020/06 RMK AO2
14837KMSN MSN20041112122009411/12/04 12:20:31  5-MIN KMSN 121820Z 03003KT 10SM CLR 04/M08 A3049 340 39 -800 030/03 RMK AO2
14837KMSN MSN20041112122509411/12/04 12:25:31  5-MIN KMSN 121825Z 36008KT 10SM CLR 04/M09 A3049 340 36 -800 360/08 RMK AO2
14837KMSN MSN20041112123009411/12/04 12:30:31  5-MIN KMSN 121830Z 01006KT 10SM CLR 04/M09 A3049 340 37 -800 010/06 RMK AO2
14837KMSN MSN20041112123509411/12/04 12:35:31  5-MIN KMSN 121835Z 36007KT 10SM CLR 04/M09 A3049 340 36 -800 360/07 RMK AO2
14837KMSN MSN20041112124009411/12/04 12:40:31  5-MIN KMSN 121840Z 36005KT 10SM CLR 05/M09 A3049 350 36 -700 360/05 RMK AO2
14837KMSN MSN20041112124509411/12/04 12:45:31  5-MIN KMSN 121845Z 01005KT 10SM CLR 05/M09 A3049 340 34 -700 010/05 RMK AO2
14837KMSN MSN20041112125011111/12/04 12:50:31  5-MIN KMSN 121850Z 36006KT 10SM CLR 05/M09 A3049 340 34 -700 360/06 RMK AO2 SLP334 T00501094
14837KMSN MSN20041112125509411/12/04 12:55:31  5-MIN KMSN 121855Z 36006KT 10SM CLR 04/M09 A3048 350 37 -800 360/06 RMK AO2
14837KMSN MSN20041112130009411/12/04 13:00:31  5-MIN KMSN 121900Z 36005KT 10SM CLR 05/M09 A3049 350 36 -700 360/05 RMK AO2
14837KMSN MSN20041112130509411/12/04 13:05:31  5-MIN KMSN 121905Z 03005KT 10SM CLR 05/M09 A3049 350 34 -700 030/05 RMK AO2
14837KMSN MSN20041112131009411/12/04 13:10:31  5-MIN KMSN 121910Z 01006KT 10SM CLR 05/M09 A3049 350 34 -700 010/06 RMK AO2
14837KMSN MSN20041112131509411/12/04 13:15:31  5-MIN KMSN 121915Z VRB03KT 10SM CLR 05/M09 A3049 340 36 -700 VRB/03 RMK AO2
14837KMSN MSN20041112132009411/12/04 13:20:31  5-MIN KMSN 121920Z 36008KT 10SM CLR 06/M09 A3049 340 34 -600 360/08 RMK AO2
14837KMSN MSN20041112132509411/12/04 13:25:31  5-MIN KMSN 121925Z 03007KT 10SM CLR 05/M09 A3048 350 34 -700 030/07 RMK AO2
14837KMSN MSN20041112133009411/12/04 13:30:31  5-MIN KMSN 121930Z 02005KT 10SM CLR 05/M09 A3048 350 34 -700 010/05 RMK AO2
14837KMSN MSN20041112133509411/12/04 13:35:31  5-MIN KMSN 121935Z 02007KT 10SM CLR 06/M09 A3048 350 33 -600 020/07 RMK AO2
14837KMSN MSN20041112134009411/12/04 13:40:31  5-MIN KMSN 121940Z 35006KT 10SM CLR 06/M09 A3048 350 33 -500 340/06 RMK AO2
14837KMSN MSN20041112134511011/12/04 13:45:31  5-MIN KMSN 121945Z 36007KT 330V030 10SM CLR 06/M09 A3048 350 33 -600 360/07 330V030 RMK AO2
14837KMSN MSN20041112135011111/12/04 13:50:31  5-MIN KMSN 121950Z 02008KT 10SM CLR 06/M09 A3048 350 33 -600 020/08 RMK AO2 SLP333 T00561094
14837KMSN MSN20041112135509411/12/04 13:55:31  5-MIN KMSN 121955Z 35005KT 10SM CLR 06/M09 A3048 350 34 -600 350/05 RMK AO2
14837KMSN MSN20041112140009411/12/04 14:00:31  5-MIN KMSN 122000Z 01007KT 10SM CLR 06/M09 A3048 350 34 -600 010/07 RMK AO2
14837KMSN MSN20041112140509411/12/04 14:05:31  5-MIN KMSN 122005Z 35007KT 10SM CLR 06/M09 A3048 350 34 -600 350/07 RMK AO2
14837KMSN MSN20041112141009411/12/04 14:10:31  5-MIN KMSN 122010Z 01008KT 10SM CLR 06/M09 A3048 350 33 -600 010/08 RMK AO2
14837KMSN MSN20041112141509411/12/04 14:15:31  5-MIN KMSN 122015Z 36005KT 10SM CLR 06/M09 A3048 350 33 -600 360/05 RMK AO2
14837KMSN MSN20041112142009411/12/04 14:20:31  5-MIN KMSN 122020Z 36006KT 10SM CLR 06/M09 A3048 350 33 -600 350/06 RMK AO2
14837KMSN MSN20041112142509411/12/04 14:25:31  5-MIN KMSN 122025Z 02007KT 10SM CLR 06/M09 A3048 350 33 -600 010/07 RMK AO2
14837KMSN MSN20041112143009411/12/04 14:30:31  5-MIN KMSN 122030Z 36007KT 10SM CLR 06/M09 A3048 350 33 -600 360/07 RMK AO2
14837KMSN MSN20041112143509411/12/04 14:35:31  5-MIN KMSN 122035Z 36007KT 10SM CLR 05/M09 A3048 350 34 -700 360/07 RMK AO2
14837KMSN MSN20041112144009411/12/04 14:40:31  5-MIN KMSN 122040Z 03008KT 10SM CLR 05/M09 A3048 350 34 -700 030/08 RMK AO2
14837KMSN MSN20041112144509411/12/04 14:45:31  5-MIN KMSN 122045Z 01005KT 10SM CLR 05/M09 A3048 350 36 -700 010/05 RMK AO2
14837KMSN MSN20041112145011711/12/04 14:50:31  5-MIN KMSN 122050Z 36007KT 10SM CLR 05/M09 A3049 340 34 -700 360/07 RMK AO2 SLP334 T00501094 50005
14837KMSN MSN20041112145509411/12/04 14:55:31  5-MIN KMSN 122055Z 36004KT 10SM CLR 05/M09 A3048 350 34 -700 360/04 RMK AO2
14837KMSN MSN20041112150009411/12/04 15:00:31  5-MIN KMSN 122100Z 35007KT 10SM CLR 06/M09 A3048 350 33 -600 350/07 RMK AO2
14837KMSN MSN20041112150509411/12/04 15:05:31  5-MIN KMSN 122105Z 01007KT 10SM CLR 05/M10 A3048 350 33 -700 010/07 RMK AO2
14837KMSN MSN20041112151009411/12/04 15:10:31  5-MIN KMSN 122110Z 36007KT 10SM CLR 05/M09 A3048 350 34 -700 360/07 RMK AO2
14837KMSN MSN20041112151509411/12/04 15:15:31  5-MIN KMSN 122115Z 01006KT 10SM CLR 05/M09 A3048 350 34 -700 010/06 RMK AO2
14837KMSN MSN20041112152009411/12/04 15:20:31  5-MIN KMSN 122120Z 35006KT 10SM CLR 05/M09 A3048 350 34 -700 350/06 RMK AO2
14837KMSN MSN20041112152509411/12/04 15:25:31  5-MIN KMSN 122125Z 35006KT 10SM CLR 05/M09 A3048 350 34 -700 350/06 RMK AO2
14837KMSN MSN20041112153009411/12/04 15:30:31  5-MIN KMSN 122130Z 01008KT 10SM CLR 04/M09 A3048 350 36 -800 010/08 RMK AO2
14837KMSN MSN20041112153509411/12/04 15:35:31  5-MIN KMSN 122135Z 02006KT 10SM CLR 04/M10 A3048 350 34 -800 020/06 RMK AO2
14837KMSN MSN20041112154009411/12/04 15:40:31  5-MIN KMSN 122140Z 01006KT 10SM CLR 04/M09 A3048 350 36 -800 010/06 RMK AO2
14837KMSN MSN20041112154509411/12/04 15:45:31  5-MIN KMSN 122145Z 04006KT 10SM CLR 04/M09 A3048 350 37 -800 030/06 RMK AO2
14837KMSN MSN20041112155011111/12/04 15:50:31  5-MIN KMSN 122150Z 03006KT 10SM CLR 03/M09 A3048 350 39 -900 030/06 RMK AO2 SLP335 T00331094
14837KMSN MSN20041112155509511/12/04 15:55:31  5-MIN KMSN 122155Z 04006KT 10SM CLR 03/M09 A3048 350 40 -1000 030/06 RMK AO2
14837KMSN MSN20041112160009511/12/04 16:00:31  5-MIN KMSN 122200Z 04006KT 10SM CLR 03/M09 A3049 340 40 -1000 030/06 RMK AO2
14837KMSN MSN20041112160509511/12/04 16:05:31  5-MIN KMSN 122205Z 03006KT 10SM CLR 02/M09 A3049 340 42 -1000 030/06 RMK AO2
14837KMSN MSN20041112161009511/12/04 16:10:31  5-MIN KMSN 122210Z 03006KT 10SM CLR 02/M09 A3049 340 42 -1000 020/06 RMK AO2
14837KMSN MSN20041112161509511/12/04 16:15:31  5-MIN KMSN 122215Z 02006KT 10SM CLR 02/M10 A3049 340 40 -1000 020/06 RMK AO2
14837KMSN MSN20041112162009511/12/04 16:20:31  5-MIN KMSN 122220Z 02005KT 10SM CLR 02/M09 A3049 340 43 -1100 020/05 RMK AO2
14837KMSN MSN20041112162509511/12/04 16:25:31  5-MIN KMSN 122225Z 02004KT 10SM CLR 02/M09 A3049 340 43 -1100 020/04 RMK AO2
14837KMSN MSN20041112163009511/12/04 16:30:31  5-MIN KMSN 122230Z 02005KT 10SM CLR 02/M09 A3049 340 42 -1000 020/05 RMK AO2
14837KMSN MSN20041112163509511/12/04 16:35:31  5-MIN KMSN 122235Z 02005KT 10SM CLR 02/M09 A3049 340 43 -1100 020/05 RMK AO2
14837KMSN MSN20041112164009511/12/04 16:40:31  5-MIN KMSN 122240Z 02006KT 10SM CLR 01/M09 A3049 340 45 -1200 020/06 RMK AO2
14837KMSN MSN20041112164509511/12/04 16:45:31  5-MIN KMSN 122245Z 02006KT 10SM CLR 01/M09 A3049 340 47 -1300 020/06 RMK AO2
14837KMSN MSN20041112165011211/12/04 16:50:31  5-MIN KMSN 122250Z 03006KT 10SM CLR 01/M09 A3050 340 47 -1300 030/06 RMK AO2 SLP339 T00061094
14837KMSN MSN20041112165509511/12/04 16:55:31  5-MIN KMSN 122255Z 03005KT 10SM CLR 00/M09 A3050 340 51 -1300 020/05 RMK AO2
14837KMSN MSN20041112170009511/12/04 17:00:31  5-MIN KMSN 122300Z 02005KT 10SM CLR 01/M09 A3050 330 49 -1300 020/05 RMK AO2
14837KMSN MSN20041112170509511/12/04 17:05:31  5-MIN KMSN 122305Z 01005KT 10SM CLR 01/M09 A3050 330 49 -1300 010/05 RMK AO2
14837KMSN MSN20041112171009511/12/04 17:10:31  5-MIN KMSN 122310Z 01005KT 10SM CLR 01/M09 A3050 330 47 -1300 010/05 RMK AO2
14837KMSN MSN20041112171509511/12/04 17:15:31  5-MIN KMSN 122315Z 02005KT 10SM CLR 01/M09 A3050 330 45 -1200 020/05 RMK AO2
14837KMSN MSN20041112172009511/12/04 17:20:31  5-MIN KMSN 122320Z 02003KT 10SM CLR 01/M09 A3050 330 47 -1300 020/03 RMK AO2
14837KMSN MSN20041112172509511/12/04 17:25:31  5-MIN KMSN 122325Z 02003KT 10SM CLR 00/M09 A3051 330 51 -1300 020/03 RMK AO2
14837KMSN MSN20041112173009511/12/04 17:30:31  5-MIN KMSN 122330Z 03003KT 10SM CLR 00/M09 A3051 330 51 -1300 020/03 RMK AO2
14837KMSN MSN20041112173509511/12/04 17:35:31  5-MIN KMSN 122335Z 00000KT 10SM CLR 00/M09 A3051 330 51 -1300 000/00 RMK AO2
14837KMSN MSN20041112174009511/12/04 17:40:31  5-MIN KMSN 122340Z 00000KT 10SM CLR 00/M08 A3051 330 53 -1300 000/00 RMK AO2
14837KMSN MSN20041112174509611/12/04 17:45:31  5-MIN KMSN 122345Z 00000KT 10SM CLR M01/M08 A3051 320 60 -1500 000/00 RMK AO2
14837KMSN MSN20041112175013111/12/04 17:50:31  5-MIN KMSN 122350Z 36003KT 10SM CLR M01/M09 A3051 320 53 -1400 360/03 RMK AO2 SLP345 T10061089 10061 21011 55003
14837KMSN MSN20041112175509611/12/04 17:55:31  5-MIN KMSN 122355Z 36003KT 10SM CLR M01/M09 A3051 320 55 -1500 360/03 RMK AO2
14837KMSN MSN20041112180009511/12/04 18:00:31  5-MIN KMSN 130000Z 01003KT 10SM CLR 00/M09 A3051 320 49 -1300 360/03 RMK AO2
14837KMSN MSN20041112180509611/12/04 18:05:31  5-MIN KMSN 130005Z 36003KT 10SM CLR M01/M09 A3051 320 51 -1400 360/03 RMK AO2
14837KMSN MSN20041112181009611/12/04 18:10:31  5-MIN KMSN 130010Z 35003KT 10SM CLR M01/M09 A3052 320 51 -1400 350/03 RMK AO2
14837KMSN MSN20041112181509611/12/04 18:15:31  5-MIN KMSN 130015Z 00000KT 10SM CLR M02/M09 A3052 320 55 -1600 000/00 RMK AO2
14837KMSN MSN20041112182009611/12/04 18:20:31  5-MIN KMSN 130020Z 00000KT 10SM CLR M02/M09 A3052 310 60 -1600 000/00 RMK AO2
14837KMSN MSN20041112182509611/12/04 18:25:31  5-MIN KMSN 130025Z 35004KT 10SM CLR M02/M09 A3052 310 58 -1600 350/04 RMK AO2
14837KMSN MSN20041112183009611/12/04 18:30:31  5-MIN KMSN 130030Z 35004KT 10SM CLR M01/M09 A3052 310 53 -1400 350/04 RMK AO2
14837KMSN MSN20041112183509611/12/04 18:35:31  5-MIN KMSN 130035Z 35005KT 10SM CLR M01/M08 A3053 310 58 -1500 350/05 RMK AO2
14837KMSN MSN20041112184009611/12/04 18:40:31  5-MIN KMSN 130040Z 35004KT 10SM CLR M01/M09 A3053 310 53 -1400 340/04 RMK AO2
14837KMSN MSN20041112184509511/12/04 18:45:31  5-MIN KMSN 130045Z 35005KT 10SM CLR 00/M09 A3053 310 51 -1400 350/05 RMK AO2
14837KMSN MSN20041112185011311/12/04 18:50:31  5-MIN KMSN 130050Z 34003KT 10SM CLR M01/M09 A3053 310 53 -1400 340/03 RMK AO2 SLP351 T10061089
14837KMSN MSN20041112185509611/12/04 18:55:31  5-MIN KMSN 130055Z 34003KT 10SM CLR M02/M08 A3053 310 60 -1600 340/03 RMK AO2
14837KMSN MSN20041112190009611/12/04 19:00:31  5-MIN KMSN 130100Z 00000KT 10SM CLR M02/M08 A3053 310 63 -1600 000/00 RMK AO2
14837KMSN MSN20041112190509611/12/04 19:05:31  5-MIN KMSN 130105Z 00000KT 10SM CLR M02/M07 A3053 300 69 -1600 000/00 RMK AO2
14837KMSN MSN20041112191009611/12/04 19:10:31  5-MIN KMSN 130110Z 00000KT 10SM CLR M02/M07 A3053 300 69 -1700 000/00 RMK AO2
14837KMSN MSN20041112191509611/12/04 19:15:31  5-MIN KMSN 130115Z 00000KT 10SM CLR M03/M07 A3054 300 71 -1700 000/00 RMK AO2
14837KMSN MSN20041112192009611/12/04 19:20:31  5-MIN KMSN 130120Z 00000KT 10SM CLR M02/M08 A3054 300 66 -1700 000/00 RMK AO2
14837KMSN MSN20041112192509611/12/04 19:25:31  5-MIN KMSN 130125Z 00000KT 10SM CLR M02/M08 A3054 300 63 -1700 000/00 RMK AO2
14837KMSN MSN20041112193009611/12/04 19:30:31  5-MIN KMSN 130130Z 00000KT 10SM CLR M02/M09 A3054 290 58 -1600 000/00 RMK AO2
14837KMSN MSN20041112193509611/12/04 19:35:31  5-MIN KMSN 130135Z 00000KT 10SM CLR M02/M09 A3054 290 60 -1700 000/00 RMK AO2
14837KMSN MSN20041112194009611/12/04 19:40:31  5-MIN KMSN 130140Z 34003KT 10SM CLR M02/M09 A3054 290 60 -1700 340/03 RMK AO2
14837KMSN MSN20041112194509611/12/04 19:45:31  5-MIN KMSN 130145Z 00000KT 10SM CLR M02/M08 A3054 290 63 -1700 000/00 RMK AO2
14837KMSN MSN20041112195011311/12/04 19:50:31  5-MIN KMSN 130150Z 00000KT 10SM CLR M04/M09 A3054 290 68 -1900 000/00 RMK AO2 SLP357 T10391089
14837KMSN MSN20041112195509611/12/04 19:55:31  5-MIN KMSN 130155Z 00000KT 10SM CLR M03/M08 A3054 290 71 -1800 000/00 RMK AO2
14837KMSN MSN20041112200009611/12/04 20:00:31  5-MIN KMSN 130200Z 00000KT 10SM CLR M03/M08 A3055 290 68 -1700 000/00 RMK AO2
14837KMSN MSN20041112200509611/12/04 20:05:31  5-MIN KMSN 130205Z 00000KT 10SM CLR M03/M08 A3055 290 68 -1800 000/00 RMK AO2
14837KMSN MSN20041112201009611/12/04 20:10:31  5-MIN KMSN 130210Z 00000KT 10SM CLR M03/M08 A3055 290 68 -1800 000/00 RMK AO2
14837KMSN MSN20041112201509611/12/04 20:15:31  5-MIN KMSN 130215Z 00000KT 10SM CLR M03/M08 A3055 290 71 -1800 000/00 RMK AO2
14837KMSN MSN20041112202009611/12/04 20:20:31  5-MIN KMSN 130220Z 00000KT 10SM CLR M04/M07 A3055 290 78 -1900 000/00 RMK AO2
14837KMSN MSN20041112202509611/12/04 20:25:31  5-MIN KMSN 130225Z 00000KT 10SM CLR M03/M08 A3055 290 71 -1800 000/00 RMK AO2
14837KMSN MSN20041112203009611/12/04 20:30:31  5-MIN KMSN 130230Z 00000KT 10SM CLR M03/M08 A3055 290 71 -1800 000/00 RMK AO2
14837KMSN MSN20041112203509611/12/04 20:35:31  5-MIN KMSN 130235Z 00000KT 10SM CLR M03/M08 A3055 290 68 -1800 000/00 RMK AO2
14837KMSN MSN20041112204009611/12/04 20:40:31  5-MIN KMSN 130240Z 00000KT 10SM CLR M03/M08 A3055 280 68 -1800 000/00 RMK AO2
14837KMSN MSN20041112204509611/12/04 20:45:31  5-MIN KMSN 130245Z 00000KT 10SM CLR M04/M08 A3056 280 74 -1900 000/00 RMK AO2
14837KMSN MSN20041112205011911/12/04 20:50:31  5-MIN KMSN 130250Z 00000KT 10SM CLR M04/M08 A3056 280 78 -2000 000/00 RMK AO2 SLP360 T10441078 53009
14837KMSN MSN20041112205509611/12/04 20:55:31  5-MIN KMSN 130255Z 00000KT 10SM CLR M04/M08 A3056 280 78 -2000 000/00 RMK AO2
14837KMSN MSN20041112210009611/12/04 21:00:31  5-MIN KMSN 130300Z 00000KT 10SM CLR M04/M08 A3056 280 74 -1900 000/00 RMK AO2
14837KMSN MSN20041112210509611/12/04 21:05:31  5-MIN KMSN 130305Z 00000KT 10SM CLR M03/M08 A3056 280 71 -1800 000/00 RMK AO2
14837KMSN MSN20041112211009611/12/04 21:10:31  5-MIN KMSN 130310Z 00000KT 10SM CLR M04/M07 A3056 280 78 -1900 000/00 RMK AO2
14837KMSN MSN20041112211509611/12/04 21:15:31  5-MIN KMSN 130315Z 00000KT 10SM CLR M04/M08 A3056 280 74 -1900 000/00 RMK AO2
14837KMSN MSN20041112212009611/12/04 21:20:31  5-MIN KMSN 130320Z 00000KT 10SM CLR M04/M08 A3056 280 74 -1900 000/00 RMK AO2
14837KMSN MSN20041112212509611/12/04 21:25:31  5-MIN KMSN 130325Z 36003KT 10SM CLR M04/M07 A3056 280 84 -2000 360/03 RMK AO2
14837KMSN MSN20041112213009611/12/04 21:30:31  5-MIN KMSN 130330Z 35003KT 10SM CLR M03/M08 A3056 280 71 -1800 350/03 RMK AO2
14837KMSN MSN20041112213509611/12/04 21:35:31  5-MIN KMSN 130335Z 00000KT 10SM CLR M05/M08 A3056 270 81 -2000 000/00 RMK AO2
14837KMSN MSN20041112214009611/12/04 21:40:31  5-MIN KMSN 130340Z 00000KT 10SM CLR M04/M08 A3056 270 78 -2000 000/00 RMK AO2
14837KMSN MSN20041112214509611/12/04 21:45:31  5-MIN KMSN 130345Z 00000KT 10SM CLR M04/M08 A3056 270 74 -2000 000/00 RMK AO2
14837KMSN MSN20041112215011311/12/04 21:50:31  5-MIN KMSN 130350Z 00000KT 10SM CLR M04/M09 A3057 270 68 -2000 000/00 RMK AO2 SLP362 T10441094
14837KMSN MSN20041112215509611/12/04 21:55:31  5-MIN KMSN 130355Z 00000KT 10SM CLR M04/M09 A3056 270 71 -2000 000/00 RMK AO2
14837KMSN MSN20041112220009611/12/04 22:00:31  5-MIN KMSN 130400Z 00000KT 10SM CLR M04/M09 A3057 270 71 -2000 000/00 RMK AO2
14837KMSN MSN20041112220509611/12/04 22:05:31  5-MIN KMSN 130405Z 00000KT 10SM CLR M04/M08 A3057 270 74 -2000 000/00 RMK AO2
14837KMSN MSN20041112221009611/12/04 22:10:31  5-MIN KMSN 130410Z 00000KT 10SM CLR M04/M08 A3056 270 74 -2000 000/00 RMK AO2
14837KMSN MSN20041112221509611/12/04 22:15:31  5-MIN KMSN 130415Z 35003KT 10SM CLR M04/M08 A3057 270 74 -2000 350/03 RMK AO2
14837KMSN MSN20041112222009611/12/04 22:20:31  5-MIN KMSN 130420Z 35003KT 10SM CLR M05/M08 A3057 270 81 -2000 350/03 RMK AO2
14837KMSN MSN20041112222509611/12/04 22:25:31  5-MIN KMSN 130425Z 34003KT 10SM CLR M05/M08 A3057 270 81 -2100 340/03 RMK AO2
14837KMSN MSN20041112223009611/12/04 22:30:31  5-MIN KMSN 130430Z 34003KT 10SM CLR M05/M08 A3057 270 81 -2100 340/03 RMK AO2
14837KMSN MSN20041112223509611/12/04 22:35:31  5-MIN KMSN 130435Z 34003KT 10SM CLR M05/M08 A3057 270 81 -2100 340/03 RMK AO2
14837KMSN MSN20041112224009611/12/04 22:40:31  5-MIN KMSN 130440Z 33003KT 10SM CLR M05/M08 A3057 260 81 -2100 330/03 RMK AO2
14837KMSN MSN20041112224509611/12/04 22:45:31  5-MIN KMSN 130445Z 00000KT 10SM CLR M06/M08 A3057 260 81 -2100 000/00 RMK AO2
14837KMSN MSN20041112225011311/12/04 22:50:31  5-MIN KMSN 130450Z 00000KT 10SM CLR M06/M08 A3057 260 84 -2100 000/00 RMK AO2 SLP365 T10561078
14837KMSN MSN20041112225509611/12/04 22:55:31  5-MIN KMSN 130455Z 00000KT 10SM CLR M05/M08 A3057 260 81 -2100 000/00 RMK AO2
14837KMSN MSN20041112230009611/12/04 23:00:31  5-MIN KMSN 130500Z 31003KT 10SM CLR M05/M08 A3058 260 81 -2100 300/03 RMK AO2
14837KMSN MSN20041112230509611/12/04 23:05:31  5-MIN KMSN 130505Z 00000KT 10SM CLR M05/M08 A3058 260 81 -2100 000/00 RMK AO2
14837KMSN MSN20041112231009611/12/04 23:10:31  5-MIN KMSN 130510Z 00000KT 10SM CLR M05/M08 A3058 260 81 -2100 000/00 RMK AO2
14837KMSN MSN20041112231509611/12/04 23:15:31  5-MIN KMSN 130515Z 00000KT 10SM CLR M05/M08 A3058 260 81 -2100 000/00 RMK AO2
14837KMSN MSN20041112232009611/12/04 23:20:31  5-MIN KMSN 130520Z 00000KT 10SM CLR M05/M08 A3058 260 81 -2100 000/00 RMK AO2
14837KMSN MSN20041112232509611/12/04 23:25:31  5-MIN KMSN 130525Z 00000KT 10SM CLR M06/M08 A3058 260 84 -2100 000/00 RMK AO2
14837KMSN MSN20041112233009611/12/04 23:30:31  5-MIN KMSN 130530Z 00000KT 10SM CLR M06/M08 A3058 260 84 -2100 000/00 RMK AO2
14837KMSN MSN20041112233509611/12/04 23:35:31  5-MIN KMSN 130535Z 00000KT 10SM CLR M06/M08 A3058 260 84 -2100 000/00 RMK AO2
14837KMSN MSN20041112234009611/12/04 23:40:31  5-MIN KMSN 130540Z 00000KT 10SM CLR M05/M08 A3058 260 81 -2100 000/00 RMK AO2
14837KMSN MSN20041112234509611/12/04 23:45:31  5-MIN KMSN 130545Z 00000KT 10SM CLR M05/M08 A3058 260 81 -2100 000/00 RMK AO2
14837KMSN MSN20041112235014111/12/04 23:50:31  5-MIN KMSN 130550Z 00000KT 10SM CLR M05/M08 A3058 260 81 -2100 000/00 RMK AO2 SLP367 T10501078 10000 21056 400611067 51015
14837KMSN MSN20041112235509611/12/04 23:55:31  5-MIN KMSN 130555Z 00000KT 10SM CLR M06/M08 A3058 260 84 -2100 000/00 RMK AO2
14837KMSN MSN20041113000009611/13/04 00:00:31  5-MIN KMSN 130600Z 00000KT 10SM CLR M05/M08 A3058 260 81 -2100 000/00 RMK AO2
14837KMSN MSN20041113000509611/13/04 00:05:31  5-MIN KMSN 130605Z 00000KT 10SM CLR M06/M08 A3058 260 84 -2100 000/00 RMK AO2
14837KMSN MSN20041113001009611/13/04 00:10:31  5-MIN KMSN 130610Z 00000KT 10SM CLR M06/M07 A3059 250 88 -2100 000/00 RMK AO2
14837KMSN MSN20041113001509611/13/04 00:15:31  5-MIN KMSN 130615Z 00000KT 10SM CLR M06/M08 A3059 250 84 -2100 000/00 RMK AO2
14837KMSN MSN20041113002009611/13/04 00:20:31  5-MIN KMSN 130620Z 00000KT 10SM CLR M06/M08 A3059 250 84 -2100 000/00 RMK AO2
14837KMSN MSN20041113002509611/13/04 00:25:31  5-MIN KMSN 130625Z 00000KT 10SM CLR M06/M08 A3059 250 84 -2100 000/00 RMK AO2
14837KMSN MSN20041113003009611/13/04 00:30:31  5-MIN KMSN 130630Z 00000KT 10SM CLR M06/M08 A3059 250 84 -2100 000/00 RMK AO2
14837KMSN MSN20041113003509611/13/04 00:35:31  5-MIN KMSN 130635Z 00000KT 10SM CLR M06/M08 A3059 250 84 -2100 000/00 RMK AO2
14837KMSN MSN20041113004009611/13/04 00:40:31  5-MIN KMSN 130640Z 00000KT 10SM CLR M06/M08 A3059 250 84 -2100 000/00 RMK AO2
14837KMSN MSN20041113004509611/13/04 00:45:31  5-MIN KMSN 130645Z 00000KT 10SM CLR M06/M08 A3059 250 84 -2100 000/00 RMK AO2
14837KMSN MSN20041113005011311/13/04 00:50:31  5-MIN KMSN 130650Z 00000KT 10SM CLR M06/M08 A3059 250 84 -2100 000/00 RMK AO2 SLP369 T10561078
14837KMSN MSN20041113005509611/13/04 00:55:31  5-MIN KMSN 130655Z 00000KT 10SM CLR M06/M08 A3059 250 84 -2100 000/00 RMK AO2
14837KMSN MSN20041113010009611/13/04 01:00:31  5-MIN KMSN 130700Z 00000KT 10SM CLR M06/M08 A3059 250 84 -2100 000/00 RMK AO2
14837KMSN MSN20041113010509611/13/04 01:05:31  5-MIN KMSN 130705Z 00000KT 10SM CLR M06/M08 A3059 250 84 -2100 000/00 RMK AO2
14837KMSN MSN20041113011009611/13/04 01:10:31  5-MIN KMSN 130710Z 00000KT 10SM CLR M06/M07 A3059 250 88 -2100 000/00 RMK AO2
14837KMSN MSN20041113011509611/13/04 01:15:31  5-MIN KMSN 130715Z 00000KT 10SM CLR M06/M07 A3059 250 88 -2100 000/00 RMK AO2
14837KMSN MSN20041113012009611/13/04 01:20:31  5-MIN KMSN 130720Z 00000KT 10SM CLR M06/M07 A3059 250 92 -2200 000/00 RMK AO2
14837KMSN MSN20041113012509611/13/04 01:25:31  5-MIN KMSN 130725Z 00000KT 10SM CLR M06/M08 A3059 250 88 -2200 000/00 RMK AO2
14837KMSN MSN20041113013009611/13/04 01:30:31  5-MIN KMSN 130730Z 00000KT 10SM CLR M06/M07 A3059 250 88 -2100 000/00 RMK AO2
14837KMSN MSN20041113013509611/13/04 01:35:31  5-MIN KMSN 130735Z 36003KT 10SM CLR M06/M08 A3059 250 84 -2100 360/03 RMK AO2
14837KMSN MSN20041113014009611/13/04 01:40:31  5-MIN KMSN 130740Z 00000KT 10SM CLR M06/M08 A3059 250 84 -2200 000/00 RMK AO2
14837KMSN MSN20041113014509611/13/04 01:45:31  5-MIN KMSN 130745Z 36003KT 10SM CLR M06/M08 A3060 250 88 -2200 360/03 RMK AO2
14837KMSN MSN20041113015011311/13/04 01:50:31  5-MIN KMSN 130750Z 00000KT 10SM CLR M06/M08 A3060 250 84 -2100 000/00 RMK AO2 SLP371 T10561078
14837KMSN MSN20041113015509611/13/04 01:55:31  5-MIN KMSN 130755Z 00000KT 10SM CLR M06/M07 A3059 250 88 -2100 000/00 RMK AO2
14837KMSN MSN20041113020009611/13/04 02:00:31  5-MIN KMSN 130800Z 00000KT 10SM CLR M06/M07 A3060 250 88 -2100 000/00 RMK AO2
14837KMSN MSN20041113020509611/13/04 02:05:31  5-MIN KMSN 130805Z 00000KT 10SM CLR M06/M08 A3060 240 88 -2200 000/00 RMK AO2
14837KMSN MSN20041113021009611/13/04 02:10:31  5-MIN KMSN 130810Z 00000KT 10SM CLR M06/M08 A3060 240 88 -2200 000/00 RMK AO2
14837KMSN MSN20041113021509611/13/04 02:15:31  5-MIN KMSN 130815Z 00000KT 10SM CLR M06/M08 A3060 240 88 -2200 000/00 RMK AO2
14837KMSN MSN20041113022009611/13/04 02:20:31  5-MIN KMSN 130820Z 00000KT 10SM CLR M06/M08 A3060 240 88 -2200 000/00 RMK AO2
14837KMSN MSN20041113022509611/13/04 02:25:31  5-MIN KMSN 130825Z 00000KT 10SM CLR M07/M08 A3060 240 92 -2300 000/00 RMK AO2
14837KMSN MSN20041113023009611/13/04 02:30:31  5-MIN KMSN 130830Z 00000KT 10SM CLR M06/M08 A3060 240 88 -2200 000/00 RMK AO2
14837KMSN MSN20041113023509611/13/04 02:35:31  5-MIN KMSN 130835Z 00000KT 10SM CLR M06/M08 A3060 240 88 -2200 000/00 RMK AO2
14837KMSN MSN20041113024009611/13/04 02:40:31  5-MIN KMSN 130840Z 00000KT 10SM CLR M06/M08 A3061 240 88 -2200 000/00 RMK AO2
14837KMSN MSN20041113024509611/13/04 02:45:31  5-MIN KMSN 130845Z 00000KT 10SM CLR M06/M08 A3061 240 88 -2200 000/00 RMK AO2
14837KMSN MSN20041113025011911/13/04 02:50:31  5-MIN KMSN 130850Z 00000KT 10SM CLR M06/M08 A3061 230 88 -2200 000/00 RMK AO2 SLP377 T10611078 52009
14837KMSN MSN20041113025509611/13/04 02:55:31  5-MIN KMSN 130855Z 00000KT 10SM CLR M06/M08 A3061 240 88 -2200 000/00 RMK AO2
14837KMSN MSN20041113030009611/13/04 03:00:31  5-MIN KMSN 130900Z 00000KT 10SM CLR M06/M08 A3060 240 88 -2200 000/00 RMK AO2
14837KMSN MSN20041113030509611/13/04 03:05:31  5-MIN KMSN 130905Z 00000KT 10SM CLR M06/M08 A3061 240 88 -2200 000/00 RMK AO2
14837KMSN MSN20041113031009611/13/04 03:10:31  5-MIN KMSN 130910Z 00000KT 10SM CLR M06/M07 A3060 240 92 -2200 000/00 RMK AO2
14837KMSN MSN20041113031509611/13/04 03:15:31  5-MIN KMSN 130915Z 00000KT 10SM CLR M06/M07 A3060 240 88 -2200 000/00 RMK AO2
14837KMSN MSN20041113032009611/13/04 03:20:31  5-MIN KMSN 130920Z 00000KT 10SM CLR M06/M07 A3061 240 88 -2200 000/00 RMK AO2
14837KMSN MSN20041113032509611/13/04 03:25:31  5-MIN KMSN 130925Z 00000KT 10SM CLR M06/M08 A3061 230 88 -2200 000/00 RMK AO2
14837KMSN MSN20041113033009611/13/04 03:30:31  5-MIN KMSN 130930Z 00000KT 10SM CLR M06/M08 A3061 230 88 -2200 000/00 RMK AO2
14837KMSN MSN20041113033509611/13/04 03:35:31  5-MIN KMSN 130935Z 00000KT 10SM CLR M06/M08 A3061 230 88 -2200 000/00 RMK AO2
14837KMSN MSN20041113034009611/13/04 03:40:31  5-MIN KMSN 130940Z 00000KT 10SM CLR M06/M08 A3061 230 88 -2200 000/00 RMK AO2
14837KMSN MSN20041113034509611/13/04 03:45:31  5-MIN KMSN 130945Z 30003KT 10SM CLR M06/M08 A3061 230 88 -2200 300/03 RMK AO2
14837KMSN MSN20041113035011311/13/04 03:50:31  5-MIN KMSN 130950Z 31003KT 10SM CLR M06/M07 A3061 230 92 -2200 310/03 RMK AO2 SLP378 T10611072
14837KMSN MSN20041113035509611/13/04 03:55:31  5-MIN KMSN 130955Z 30003KT 10SM CLR M06/M07 A3061 230 92 -2200 300/03 RMK AO2
14837KMSN MSN20041113040009611/13/04 04:00:31  5-MIN KMSN 131000Z 31003KT 10SM CLR M06/M07 A3061 230 92 -2200 310/03 RMK AO2
14837KMSN MSN20041113040509611/13/04 04:05:31  5-MIN KMSN 131005Z 00000KT 10SM CLR M06/M07 A3061 230 92 -2200 000/00 RMK AO2
14837KMSN MSN20041113041009611/13/04 04:10:31  5-MIN KMSN 131010Z 00000KT 10SM CLR M07/M08 A3061 230 92 -2300 000/00 RMK AO2
14837KMSN MSN20041113041509611/13/04 04:15:31  5-MIN KMSN 131015Z 00000KT 10SM CLR M07/M08 A3062 230 92 -2300 000/00 RMK AO2
14837KMSN MSN20041113042009611/13/04 04:20:31  5-MIN KMSN 131020Z 00000KT 10SM CLR M07/M08 A3062 230 92 -2300 000/00 RMK AO2
14837KMSN MSN20041113042509611/13/04 04:25:31  5-MIN KMSN 131025Z 00000KT 10SM CLR M06/M07 A3062 230 96 -2200 000/00 RMK AO2
14837KMSN MSN20041113043009611/13/04 04:30:31  5-MIN KMSN 131030Z 00000KT 10SM CLR M06/M07 A3062 220 96 -2200 000/00 RMK AO2
14837KMSN MSN20041113043509611/13/04 04:35:31  5-MIN KMSN 131035Z 00000KT 10SM CLR M06/M07 A3062 220 92 -2200 000/00 RMK AO2
14837KMSN MSN20041113044009611/13/04 04:40:31  5-MIN KMSN 131040Z 00000KT 10SM CLR M06/M07 A3062 220 92 -2200 000/00 RMK AO2
14837KMSN MSN20041113044509611/13/04 04:45:31  5-MIN KMSN 131045Z 00000KT 10SM CLR M07/M08 A3062 220 92 -2300 000/00 RMK AO2
14837KMSN MSN20041113045011311/13/04 04:50:31  5-MIN KMSN 131050Z 00000KT 10SM CLR M07/M08 A3062 220 92 -2300 000/00 RMK AO2 SLP382 T10671078
14837KMSN MSN20041113045509611/13/04 04:55:31  5-MIN KMSN 131055Z 00000KT 10SM CLR M06/M07 A3062 220 92 -2300 000/00 RMK AO2
14837KMSN MSN20041113050009611/13/04 05:00:31  5-MIN KMSN 131100Z 00000KT 10SM CLR M07/M07 A3062 220 96 -2300 000/00 RMK AO2
14837KMSN MSN20041113050509611/13/04 05:05:31  5-MIN KMSN 131105Z 00000KT 10SM CLR M06/M07 A3062 220 92 -2300 000/00 RMK AO2
14837KMSN MSN20041113051009611/13/04 05:10:31  5-MIN KMSN 131110Z 00000KT 10SM CLR M07/M08 A3062 220 92 -2300 000/00 RMK AO2
14837KMSN MSN20041113051509611/13/04 05:15:31  5-MIN KMSN 131115Z 00000KT 10SM CLR M07/M07 A3063 220 96 -2300 000/00 RMK AO2
14837KMSN MSN20041113052009611/13/04 05:20:31  5-MIN KMSN 131120Z 00000KT 10SM CLR M07/M08 A3063 220 92 -2300 000/00 RMK AO2
14837KMSN MSN20041113052509611/13/04 05:25:31  5-MIN KMSN 131125Z 00000KT 10SM CLR M07/M08 A3063 210 92 -2300 000/00 RMK AO2
14837KMSN MSN20041113053009611/13/04 05:30:31  5-MIN KMSN 131130Z 00000KT 10SM CLR M07/M08 A3063 210 92 -2300 000/00 RMK AO2
14837KMSN MSN20041113053509611/13/04 05:35:31  5-MIN KMSN 131135Z 00000KT 10SM CLR M07/M08 A3063 210 92 -2300 000/00 RMK AO2
14837KMSN MSN20041113054009611/13/04 05:40:31  5-MIN KMSN 131140Z 00000KT 10SM CLR M07/M07 A3063 210 96 -2300 000/00 RMK AO2
14837KMSN MSN20041113054509611/13/04 05:45:31  5-MIN KMSN 131145Z 00000KT 10SM CLR M07/M07 A3063 210 96 -2300 000/00 RMK AO2
14837KMSN MSN20041113055013111/13/04 05:50:31  5-MIN KMSN 131150Z 00000KT 10SM CLR M07/M07 A3063 210 96 -2300 000/00 RMK AO2 SLP387 T10671072 11050 21067 53007
14837KMSN MSN20041113055509611/13/04 05:55:31  5-MIN KMSN 131155Z 00000KT 10SM CLR M07/M07 A3063 210 96 -2300 000/00 RMK AO2
14837KMSN MSN20041113060009611/13/04 06:00:31  5-MIN KMSN 131200Z 00000KT 10SM CLR M07/M07 A3064 210 96 -2300 000/00 RMK AO2
14837KMSN MSN20041113060509611/13/04 06:05:31  5-MIN KMSN 131205Z 00000KT 10SM CLR M06/M07 A3064 210 92 -2300 000/00 RMK AO2
14837KMSN MSN20041113061009611/13/04 06:10:31  5-MIN KMSN 131210Z 00000KT 10SM CLR M07/M07 A3064 210 96 -2300 000/00 RMK AO2
14837KMSN MSN20041113061509611/13/04 06:15:31  5-MIN KMSN 131215Z 00000KT 10SM CLR M07/M07 A3064 200 96 -2300 000/00 RMK AO2
14837KMSN MSN20041113062009611/13/04 06:20:31  5-MIN KMSN 131220Z 00000KT 10SM CLR M06/M07 A3064 200 92 -2300 000/00 RMK AO2
14837KMSN MSN20041113062509611/13/04 06:25:31  5-MIN KMSN 131225Z 01003KT 10SM CLR M07/M07 A3064 200 96 -2300 010/03 RMK AO2
14837KMSN MSN20041113063009611/13/04 06:30:31  5-MIN KMSN 131230Z 00000KT 10SM CLR M07/M08 A3065 200 92 -2400 000/00 RMK AO2
14837KMSN MSN20041113063509611/13/04 06:35:31  5-MIN KMSN 131235Z 00000KT 10SM CLR M07/M07 A3065 200 96 -2400 000/00 RMK AO2
14837KMSN MSN20041113064009611/13/04 06:40:31  5-MIN KMSN 131240Z 00000KT 10SM CLR M07/M07 A3065 200 96 -2400 000/00 RMK AO2
14837KMSN MSN20041113064509611/13/04 06:45:31  5-MIN KMSN 131245Z 00000KT 10SM CLR M07/M07 A3065 200 96 -2400 000/00 RMK AO2
14837KMSN MSN20041113065011311/13/04 06:50:31  5-MIN KMSN 131250Z 04003KT 10SM CLR M06/M07 A3065 200 92 -2300 040/03 RMK AO2 SLP393 T10611072
14837KMSN MSN20041113065509511/13/04 06:55:31  5-MIN KMSN 131255Z 00000KT 9SM CLR M07/M08 A3065 200 92 -2400 000/00 RMK AO2
14837KMSN MSN20041113070009511/13/04 07:00:31  5-MIN KMSN 131300Z 00000KT 9SM CLR M06/M07 A3065 190 92 -2300 000/00 RMK AO2
14837KMSN MSN20041113070509511/13/04 07:05:31  5-MIN KMSN 131305Z 00000KT 9SM CLR M06/M07 A3065 190 92 -2300 000/00 RMK AO2
14837KMSN MSN20041113071009511/13/04 07:10:31  5-MIN KMSN 131310Z 00000KT 8SM CLR M07/M07 A3065 190 96 -2400 000/00 RMK AO2
14837KMSN MSN20041113071509511/13/04 07:15:31  5-MIN KMSN 131315Z 00000KT 8SM CLR M07/M07 A3066 190 96 -2400 000/00 RMK AO2
14837KMSN MSN20041113072009511/13/04 07:20:31  5-MIN KMSN 131320Z 00000KT 8SM CLR M06/M07 A3066 190 96 -2300 000/00 RMK AO2
14837KMSN MSN20041113072509511/13/04 07:25:31  5-MIN KMSN 131325Z 00000KT 8SM CLR M06/M07 A3066 190 96 -2300 000/00 RMK AO2
14837KMSN MSN20041113073009511/13/04 07:30:31  5-MIN KMSN 131330Z 00000KT 8SM CLR M06/M07 A3066 180 96 -2300 000/00 RMK AO2
14837KMSN MSN20041113073509511/13/04 07:35:31  5-MIN KMSN 131335Z 00000KT 8SM CLR M06/M07 A3067 180 92 -2200 000/00 RMK AO2
14837KMSN MSN20041113074009511/13/04 07:40:31  5-MIN KMSN 131340Z 00000KT 8SM CLR M06/M07 A3067 180 92 -2200 000/00 RMK AO2
14837KMSN MSN20041113074509511/13/04 07:45:31  5-MIN KMSN 131345Z 32003KT 9SM CLR M04/M06 A3067 180 92 -2100 320/03 RMK AO2
14837KMSN MSN20041113075011311/13/04 07:50:31  5-MIN KMSN 131350Z 00000KT 10SM CLR M04/M06 A3067 180 88 -2000 000/00 RMK AO2 SLP399 T10391056
14837KMSN MSN20041113075509611/13/04 07:55:31  5-MIN KMSN 131355Z 00000KT 10SM CLR M04/M06 A3067 180 88 -2000 000/00 RMK AO2
14837KMSN MSN20041113080009611/13/04 08:00:31  5-MIN KMSN 131400Z 00000KT 10SM CLR M03/M05 A3067 180 88 -1900 000/00 RMK AO2
14837KMSN MSN20041113080509611/13/04 08:05:31  5-MIN KMSN 131405Z 00000KT 10SM CLR M03/M05 A3067 180 85 -1900 000/00 RMK AO2
14837KMSN MSN20041113081009511/13/04 08:10:31  5-MIN KMSN 131410Z 00000KT 9SM CLR M02/M04 A3067 180 85 -1800 000/00 RMK AO2
14837KMSN MSN20041113081509511/13/04 08:15:31  5-MIN KMSN 131415Z 00000KT 9SM CLR M02/M04 A3067 180 81 -1700 000/00 RMK AO2
14837KMSN MSN20041113082009511/13/04 08:20:31  5-MIN KMSN 131420Z 00000KT 9SM CLR M02/M04 A3067 180 81 -1700 000/00 RMK AO2
14837KMSN MSN20041113082509511/13/04 08:25:31  5-MIN KMSN 131425Z 00000KT 9SM CLR M01/M04 A3067 170 81 -1700 000/00 RMK AO2
14837KMSN MSN20041113083009511/13/04 08:30:31  5-MIN KMSN 131430Z 00000KT 9SM CLR M01/M03 A3068 170 85 -1700 000/00 RMK AO2
14837KMSN MSN20041113083509511/13/04 08:35:31  5-MIN KMSN 131435Z 00000KT 9SM CLR M01/M03 A3068 170 81 -1600 000/00 RMK AO2
14837KMSN MSN20041113084009611/13/04 08:40:31  5-MIN KMSN 131440Z 00000KT 10SM CLR M01/M03 A3068 170 81 -1600 000/00 RMK AO2
14837KMSN MSN20041113084509511/13/04 08:45:31  5-MIN KMSN 131445Z 00000KT 10SM CLR 00/M03 A3068 170 81 -1500 000/00 RMK AO2
14837KMSN MSN20041113085011711/13/04 08:50:31  5-MIN KMSN 131450Z 00000KT 9SM CLR 00/M03 A3068 170 81 -1500 000/00 RMK AO2 SLP402 T00001028 53009
14837KMSN MSN20041113085509511/13/04 08:55:31  5-MIN KMSN 131455Z 00000KT 10SM CLR 01/M03 A3068 170 78 -1500 000/00 RMK AO2
14837KMSN MSN20041113090009511/13/04 09:00:31  5-MIN KMSN 131500Z 00000KT 10SM CLR 01/M03 A3068 160 75 -1400 000/00 RMK AO2
14837KMSN MSN20041113090509511/13/04 09:05:31  5-MIN KMSN 131505Z 00000KT 10SM CLR 01/M03 A3068 160 75 -1400 000/00 RMK AO2
14837KMSN MSN20041113091009511/13/04 09:10:31  5-MIN KMSN 131510Z 00000KT 10SM CLR 01/M03 A3069 160 75 -1400 000/00 RMK AO2
14837KMSN MSN20041113091509511/13/04 09:15:31  5-MIN KMSN 131515Z 00000KT 10SM CLR 02/M02 A3069 160 75 -1300 000/00 RMK AO2
14837KMSN MSN20041113092009511/13/04 09:20:31  5-MIN KMSN 131520Z 00000KT 10SM CLR 02/M02 A3069 160 78 -1300 000/00 RMK AO2
14837KMSN MSN20041113092509511/13/04 09:25:31  5-MIN KMSN 131525Z 00000KT 10SM CLR 02/M02 A3069 160 75 -1300 000/00 RMK AO2
14837KMSN MSN20041113093009511/13/04 09:30:31  5-MIN KMSN 131530Z 00000KT 10SM CLR 03/M01 A3069 160 75 -1200 000/00 RMK AO2
14837KMSN MSN20041113093509511/13/04 09:35:31  5-MIN KMSN 131535Z 00000KT 10SM CLR 03/M01 A3069 160 75 -1200 000/00 RMK AO2
14837KMSN MSN20041113094009511/13/04 09:40:31  5-MIN KMSN 131540Z 00000KT 10SM CLR 03/M01 A3069 160 72 -1100 000/00 RMK AO2
14837KMSN MSN20041113094509511/13/04 09:45:31  5-MIN KMSN 131545Z 00000KT 10SM CLR 04/M01 A3069 160 73 -1100 000/00 RMK AO2
14837KMSN MSN20041113095011211/13/04 09:50:31  5-MIN KMSN 131550Z 00000KT 10SM CLR 04/M01 A3070 150 73 -1100 000/00 RMK AO2 SLP406 T00391006
14837KMSN MSN20041113095509511/13/04 09:55:31  5-MIN KMSN 131555Z 00000KT 10SM CLR 04/M01 A3070 150 70 -1000 000/00 RMK AO2
14837KMSN MSN20041113100009511/13/04 10:00:31  5-MIN KMSN 131600Z 00000KT 10SM CLR 04/M01 A3070 150 70 -1000 000/00 RMK AO2
14837KMSN MSN20041113100509411/13/04 10:05:31  5-MIN KMSN 131605Z 00000KT 10SM CLR 05/M01 A3070 150 67 -900 000/00 RMK AO2
14837KMSN MSN20041113101009411/13/04 10:10:31  5-MIN KMSN 131610Z 00000KT 10SM CLR 05/M01 A3070 150 67 -900 000/00 RMK AO2
14837KMSN MSN20041113101509311/13/04 10:15:31  5-MIN KMSN 131615Z 00000KT 10SM CLR 05/00 A3070 150 70 -900 000/00 RMK AO2
14837KMSN MSN20041113102009411/13/04 10:20:31  5-MIN KMSN 131620Z 12004KT 10SM CLR 06/M01 A3069 160 65 -900 120/04 RMK AO2
14837KMSN MSN20041113102509411/13/04 10:25:31  5-MIN KMSN 131625Z 00000KT 10SM CLR 06/M01 A3069 160 62 -900 000/00 RMK AO2
14837KMSN MSN20041113103009411/13/04 10:30:31  5-MIN KMSN 131630Z 14005KT 10SM CLR 06/M01 A3069 160 60 -800 140/05 RMK AO2
14837KMSN MSN20041113103509411/13/04 10:35:31  5-MIN KMSN 131635Z 12005KT 10SM CLR 06/M01 A3069 160 60 -800 120/05 RMK AO2
14837KMSN MSN20041113104009411/13/04 10:40:31  5-MIN KMSN 131640Z 13006KT 10SM CLR 07/M01 A3069 160 57 -700 130/06 RMK AO2
14837KMSN MSN20041113104509411/13/04 10:45:31  5-MIN KMSN 131645Z 13007KT 10SM CLR 07/M02 A3069 160 55 -700 130/07 RMK AO2
14837KMSN MSN20041113105011111/13/04 10:50:31  5-MIN KMSN 131650Z 12005KT 10SM CLR 06/M02 A3069 160 57 -800 120/05 RMK AO2 SLP404 T00611017
14837KMSN MSN20041113105509411/13/04 10:55:31  5-MIN KMSN 131655Z 16007KT 10SM CLR 07/M02 A3069 160 55 -700 160/07 RMK AO2
14837KMSN MSN20041113110009411/13/04 11:00:31  5-MIN KMSN 131700Z 17007KT 10SM CLR 07/M02 A3069 160 55 -700 170/07 RMK AO2
14837KMSN MSN20041113110509711/13/04 11:05:31  5-MIN KMSN 131705Z 15007KT 10SM FEW040 07/M02 A3068 160 55 -700 150/07 RMK AO2
14837KMSN MSN20041113111009711/13/04 11:10:31  5-MIN KMSN 131710Z 15007KT 10SM FEW040 07/M02 A3068 170 55 -700 150/07 RMK AO2
14837KMSN MSN20041113111509711/13/04 11:15:31  5-MIN KMSN 131715Z 12005KT 10SM FEW040 07/M02 A3068 170 53 -600 120/05 RMK AO2
14837KMSN MSN20041113112009711/13/04 11:20:31  5-MIN KMSN 131720Z 16007KT 10SM FEW040 07/M02 A3068 170 55 -700 160/07 RMK AO2
14837KMSN MSN20041113112509711/13/04 11:25:31  5-MIN KMSN 131725Z 16008KT 10SM FEW040 07/M02 A3068 170 55 -700 160/08 RMK AO2
14837KMSN MSN20041113113009711/13/04 11:30:31  5-MIN KMSN 131730Z 17005KT 10SM FEW040 07/M02 A3068 170 55 -700 170/05 RMK AO2
14837KMSN MSN20041113113509711/13/04 11:35:31  5-MIN KMSN 131735Z 19006KT 10SM FEW040 07/M01 A3068 170 57 -700 190/06 RMK AO2
14837KMSN MSN20041113114009711/13/04 11:40:31  5-MIN KMSN 131740Z 19005KT 10SM FEW040 07/M01 A3068 170 55 -600 190/05 RMK AO2
14837KMSN MSN20041113114509711/13/04 11:45:31  5-MIN KMSN 131745Z 20007KT 10SM FEW040 07/M01 A3068 170 57 -700 190/07 RMK AO2
14837KMSN MSN20041113115013211/13/04 11:50:31  5-MIN KMSN 131750Z 20006KT 10SM FEW040 07/M01 A3068 170 57 -700 200/06 RMK AO2 SLP398 T00671011 10072 21067 51016
14837KMSN MSN20041113115509711/13/04 11:55:31  5-MIN KMSN 131755Z 19005KT 10SM FEW035 07/M01 A3067 170 57 -700 190/05 RMK AO2
14837KMSN MSN20041113120009711/13/04 12:00:31  5-MIN KMSN 131800Z 18008KT 10SM FEW035 07/M02 A3067 170 53 -600 180/08 RMK AO2
14837KMSN MSN20041113120509711/13/04 12:05:31  5-MIN KMSN 131805Z 18007KT 10SM FEW035 07/M02 A3067 180 53 -600 180/07 RMK AO2
14837KMSN MSN20041113121009711/13/04 12:10:31  5-MIN KMSN 131810Z 17008KT 10SM FEW035 07/M02 A3067 180 53 -600 170/08 RMK AO2
14837KMSN MSN20041113121509711/13/04 12:15:31  5-MIN KMSN 131815Z 17006KT 10SM FEW035 07/M02 A3067 180 53 -600 170/06 RMK AO2
14837KMSN MSN20041113122009711/13/04 12:20:31  5-MIN KMSN 131820Z 18005KT 10SM FEW035 07/M02 A3067 180 53 -600 180/05 RMK AO2
14837KMSN MSN20041113122509711/13/04 12:25:31  5-MIN KMSN 131825Z 18006KT 10SM FEW035 07/M02 A3067 180 53 -600 180/06 RMK AO2
14837KMSN MSN20041113123009711/13/04 12:30:31  5-MIN KMSN 131830Z 17007KT 10SM FEW035 08/M02 A3067 180 51 -600 170/07 RMK AO2
14837KMSN MSN20041113123509711/13/04 12:35:31  5-MIN KMSN 131835Z 18006KT 10SM FEW035 07/M02 A3066 180 53 -600 180/06 RMK AO2
14837KMSN MSN20041113124009711/13/04 12:40:31  5-MIN KMSN 131840Z VRB04KT 10SM FEW035 07/M02 A3066 180 51 -600 VRB/04 RMK AO2
14837KMSN MSN20041113124509711/13/04 12:45:31  5-MIN KMSN 131845Z 17006KT 10SM FEW035 07/M02 A3066 190 51 -600 170/06 RMK AO2
14837KMSN MSN20041113125011411/13/04 12:50:31  5-MIN KMSN 131850Z 17006KT 10SM FEW035 07/M02 A3066 190 51 -600 170/06 RMK AO2 SLP393 T00721022
14837KMSN MSN20041113125509411/13/04 12:55:31  5-MIN KMSN 131855Z 15004KT 10SM CLR 08/M02 A3066 190 51 -500 150/04 RMK AO2
14837KMSN MSN20041113130009411/13/04 13:00:31  5-MIN KMSN 131900Z VRB05KT 10SM CLR 07/M02 A3066 190 51 -600 VRB/05 RMK AO2
14837KMSN MSN20041113130509411/13/04 13:05:31  5-MIN KMSN 131905Z 17004KT 10SM CLR 07/M03 A3066 190 49 -600 170/04 RMK AO2
14837KMSN MSN20041113131009411/13/04 13:10:31  5-MIN KMSN 131910Z 18007KT 10SM CLR 08/M02 A3066 190 49 -500 180/07 RMK AO2
14837KMSN MSN20041113131509411/13/04 13:15:31  5-MIN KMSN 131915Z 17006KT 10SM CLR 07/M02 A3066 190 51 -600 170/06 RMK AO2
14837KMSN MSN20041113132009411/13/04 13:20:31  5-MIN KMSN 131920Z 15006KT 10SM CLR 08/M03 A3065 190 47 -500 150/06 RMK AO2
14837KMSN MSN20041113132509411/13/04 13:25:31  5-MIN KMSN 131925Z 15006KT 10SM CLR 08/M03 A3065 190 47 -500 150/06 RMK AO2
14837KMSN MSN20041113133009411/13/04 13:30:31  5-MIN KMSN 131930Z 17005KT 10SM CLR 08/M03 A3065 190 47 -500 170/05 RMK AO2
14837KMSN MSN20041113135011111/13/04 13:50:31  5-MIN KMSN 131950Z 12005KT 10SM CLR 08/M02 A3064 200 49 -500 120/05 RMK AO2 SLP387 T00781022
14837KMSN MSN20041113135509411/13/04 13:55:31  5-MIN KMSN 131955Z 15004KT 10SM CLR 08/M02 A3064 200 49 -500 150/04 RMK AO2
14837KMSN MSN20041113140009411/13/04 14:00:31  5-MIN KMSN 132000Z 18005KT 10SM CLR 08/M02 A3064 200 49 -500 180/05 RMK AO2
14837KMSN MSN20041113140509411/13/04 14:05:31  5-MIN KMSN 132005Z 17005KT 10SM CLR 08/M02 A3064 200 49 -500 170/05 RMK AO2
14837KMSN MSN20041113141009411/13/04 14:10:31  5-MIN KMSN 132010Z VRB03KT 10SM CLR 08/M02 A3064 200 49 -500 VRB/03 RMK AO2
14837KMSN MSN20041113141509411/13/04 14:15:31  5-MIN KMSN 132015Z 00000KT 10SM CLR 08/M02 A3065 200 49 -500 000/00 RMK AO2
14837KMSN MSN20041113142009411/13/04 14:20:31  5-MIN KMSN 132020Z 16004KT 10SM CLR 08/M02 A3065 200 47 -500 160/04 RMK AO2
14837KMSN MSN20041113142509411/13/04 14:25:31  5-MIN KMSN 132025Z 20004KT 10SM CLR 08/M02 A3065 200 47 -500 200/04 RMK AO2
14837KMSN MSN20041113143009411/13/04 14:30:31  5-MIN KMSN 132030Z 16005KT 10SM CLR 08/M03 A3064 200 47 -500 160/05 RMK AO2
14837KMSN MSN20041113143509411/13/04 14:35:31  5-MIN KMSN 132035Z VRB03KT 10SM CLR 08/M03 A3064 200 47 -500 VRB/03 RMK AO2
14837KMSN MSN20041113144009411/13/04 14:40:31  5-MIN KMSN 132040Z 16007KT 10SM CLR 08/M02 A3064 200 49 -500 160/07 RMK AO2
14837KMSN MSN20041113144509411/13/04 14:45:31  5-MIN KMSN 132045Z 15004KT 10SM CLR 08/M02 A3064 200 49 -500 150/04 RMK AO2
14837KMSN MSN20041113145011711/13/04 14:50:31  5-MIN KMSN 132050Z 15003KT 10SM CLR 08/M02 A3064 200 49 -500 150/03 RMK AO2 SLP386 T00781022 58001
14837KMSN MSN20041113145509411/13/04 14:55:31  5-MIN KMSN 132055Z 15004KT 10SM CLR 08/M02 A3064 200 49 -500 150/04 RMK AO2
14837KMSN MSN20041113150009411/13/04 15:00:31  5-MIN KMSN 132100Z 14004KT 10SM CLR 08/M02 A3064 200 49 -500 140/04 RMK AO2
14837KMSN MSN20041113150509411/13/04 15:05:31  5-MIN KMSN 132105Z 17005KT 10SM CLR 08/M02 A3064 200 49 -500 170/05 RMK AO2
14837KMSN MSN20041113151009411/13/04 15:10:31  5-MIN KMSN 132110Z 17007KT 10SM CLR 08/M03 A3064 200 47 -500 160/07 RMK AO2
14837KMSN MSN20041113151509411/13/04 15:15:31  5-MIN KMSN 132115Z 17005KT 10SM CLR 08/M02 A3064 200 49 -500 170/05 RMK AO2
14837KMSN MSN20041113152009411/13/04 15:20:31  5-MIN KMSN 132120Z 16004KT 10SM CLR 08/M02 A3064 200 49 -500 160/04 RMK AO2
14837KMSN MSN20041113152509411/13/04 15:25:31  5-MIN KMSN 132125Z 16004KT 10SM CLR 08/M03 A3064 200 47 -500 160/04 RMK AO2
14837KMSN MSN20041113153009411/13/04 15:30:31  5-MIN KMSN 132130Z 17005KT 10SM CLR 07/M02 A3064 200 51 -600 170/05 RMK AO2
14837KMSN MSN20041113153509411/13/04 15:35:31  5-MIN KMSN 132135Z 17005KT 10SM CLR 07/M02 A3064 200 51 -600 170/05 RMK AO2
14837KMSN MSN20041113154009411/13/04 15:40:31  5-MIN KMSN 132140Z 18005KT 10SM CLR 07/M02 A3064 200 51 -600 170/05 RMK AO2
14837KMSN MSN20041113154509411/13/04 15:45:31  5-MIN KMSN 132145Z 16005KT 10SM CLR 07/M02 A3064 200 51 -600 160/05 RMK AO2
14837KMSN MSN20041113155011111/13/04 15:50:31  5-MIN KMSN 132150Z 16005KT 10SM CLR 07/M02 A3064 200 53 -700 160/05 RMK AO2 SLP387 T00671022
14837KMSN MSN20041113155509411/13/04 15:55:31  5-MIN KMSN 132155Z 17005KT 10SM CLR 07/M02 A3064 200 53 -700 170/05 RMK AO2
14837KMSN MSN20041113160009411/13/04 16:00:31  5-MIN KMSN 132200Z 17005KT 10SM CLR 07/M02 A3064 200 51 -600 170/05 RMK AO2
14837KMSN MSN20041113160509411/13/04 16:05:31  5-MIN KMSN 132205Z 16004KT 10SM CLR 07/M02 A3064 200 53 -700 160/04 RMK AO2
14837KMSN MSN20041113161009411/13/04 16:10:31  5-MIN KMSN 132210Z 17003KT 10SM CLR 06/M02 A3064 200 55 -700 170/03 RMK AO2
14837KMSN MSN20041113161509411/13/04 16:15:31  5-MIN KMSN 132215Z 17004KT 10SM CLR 06/M02 A3064 200 55 -700 170/04 RMK AO2
14837KMSN MSN20041113162009411/13/04 16:20:31  5-MIN KMSN 132220Z 18003KT 10SM CLR 07/M02 A3065 200 53 -700 180/03 RMK AO2
14837KMSN MSN20041113162509411/13/04 16:25:31  5-MIN KMSN 132225Z 17003KT 10SM CLR 06/M02 A3065 200 55 -700 170/03 RMK AO2
14837KMSN MSN20041113163009411/13/04 16:30:31  5-MIN KMSN 132230Z 18003KT 10SM CLR 06/M02 A3065 200 57 -800 180/03 RMK AO2
14837KMSN MSN20041113163509411/13/04 16:35:31  5-MIN KMSN 132235Z 16003KT 10SM CLR 06/M02 A3065 200 57 -800 160/03 RMK AO2
14837KMSN MSN20041113164009411/13/04 16:40:31  5-MIN KMSN 132240Z 00000KT 10SM CLR 06/M02 A3065 200 57 -800 000/00 RMK AO2
14837KMSN MSN20041113164509411/13/04 16:45:31  5-MIN KMSN 132245Z 00000KT 10SM CLR 06/M02 A3065 200 57 -800 000/00 RMK AO2
14837KMSN MSN20041113165011111/13/04 16:50:31  5-MIN KMSN 132250Z 18003KT 10SM CLR 06/M02 A3065 200 57 -800 180/03 RMK AO2 SLP391 T00561022
14837KMSN MSN20041113165509411/13/04 16:55:31  5-MIN KMSN 132255Z 00000KT 10SM CLR 04/M03 A3065 200 59 -900 000/00 RMK AO2
14837KMSN MSN20041113170009411/13/04 17:00:31  5-MIN KMSN 132300Z 00000KT 10SM CLR 05/M03 A3065 200 57 -900 000/00 RMK AO2
14837KMSN MSN20041113170509411/13/04 17:05:31  5-MIN KMSN 132305Z 00000KT 10SM CLR 05/M03 A3065 200 57 -900 000/00 RMK AO2
14837KMSN MSN20041113171009511/13/04 17:10:31  5-MIN KMSN 132310Z 00000KT 10SM CLR 03/M03 A3065 190 64 -1100 000/00 RMK AO2
14837KMSN MSN20041113171509511/13/04 17:15:31  5-MIN KMSN 132315Z 00000KT 10SM CLR 02/M03 A3065 190 69 -1300 000/00 RMK AO2
14837KMSN MSN20041113172009511/13/04 17:20:31  5-MIN KMSN 132320Z 00000KT 10SM CLR 03/M03 A3065 190 67 -1200 000/00 RMK AO2
14837KMSN MSN20041113172509511/13/04 17:25:31  5-MIN KMSN 132325Z 00000KT 10SM CLR 03/M03 A3065 190 67 -1200 000/00 RMK AO2
14837KMSN MSN20041113173009511/13/04 17:30:31  5-MIN KMSN 132330Z 00000KT 10SM CLR 03/M03 A3065 190 67 -1200 000/00 RMK AO2
14837KMSN MSN20041113173509511/13/04 17:35:31  5-MIN KMSN 132335Z 00000KT 10SM CLR 03/M03 A3066 190 64 -1100 000/00 RMK AO2
14837KMSN MSN20041113174009511/13/04 17:40:31  5-MIN KMSN 132340Z 00000KT 10SM CLR 03/M03 A3065 190 67 -1200 000/00 RMK AO2
14837KMSN MSN20041113174509511/13/04 17:45:31  5-MIN KMSN 132345Z 00000KT 10SM CLR 02/M03 A3066 190 69 -1200 000/00 RMK AO2
14837KMSN MSN20041113175013011/13/04 17:50:31  5-MIN KMSN 132350Z 07003KT 10SM CLR 02/M03 A3066 190 72 -1300 070/03 RMK AO2 SLP394 T00171028 10083 20017 56011
14837KMSN MSN20041113175509511/13/04 17:55:31  5-MIN KMSN 132355Z 05003KT 10SM CLR 02/M03 A3065 190 69 -1300 050/03 RMK AO2
14837KMSN MSN20041113180009511/13/04 18:00:31  5-MIN KMSN 140000Z 05003KT 10SM CLR 02/M03 A3066 190 72 -1300 050/03 RMK AO2
14837KMSN MSN20041113180509511/13/04 18:05:31  5-MIN KMSN 140005Z 05003KT 10SM CLR 02/M03 A3066 190 72 -1300 050/03 RMK AO2
14837KMSN MSN20041113181009511/13/04 18:10:31  5-MIN KMSN 140010Z 05004KT 10SM CLR 02/M03 A3066 190 72 -1300 050/04 RMK AO2
14837KMSN MSN20041113181509511/13/04 18:15:31  5-MIN KMSN 140015Z 05003KT 10SM CLR 01/M03 A3065 190 72 -1400 050/03 RMK AO2
14837KMSN MSN20041113182009411/13/04 18:20:31  5-MIN KMSN 140020Z 00000KT 9SM CLR 01/M03 A3065 190 75 -1400 000/00 RMK AO2
14837KMSN MSN20041113182509411/13/04 18:25:31  5-MIN KMSN 140025Z 00000KT 9SM CLR 01/M03 A3065 190 72 -1400 000/00 RMK AO2
14837KMSN MSN20041113183009411/13/04 18:30:31  5-MIN KMSN 140030Z 00000KT 9SM CLR 01/M03 A3066 190 78 -1400 000/00 RMK AO2
14837KMSN MSN20041113183509611/13/04 18:35:31  5-MIN KMSN 140035Z 00000KT 10SM CLR M01/M04 A3066 190 78 -1600 000/00 RMK AO2
14837KMSN MSN20041113184009611/13/04 18:40:31  5-MIN KMSN 140040Z 00000KT 10SM CLR M01/M04 A3066 190 78 -1600 000/00 RMK AO2
14837KMSN MSN20041113184509511/13/04 18:45:31  5-MIN KMSN 140045Z 00000KT 10SM CLR 00/M03 A3066 190 78 -1500 000/00 RMK AO2
14837KMSN MSN20041113185011311/13/04 18:50:31  5-MIN KMSN 140050Z 00000KT 10SM CLR M01/M03 A3066 190 85 -1700 000/00 RMK AO2 SLP397 T10111033
14837KMSN MSN20041113185509611/13/04 18:55:31  5-MIN KMSN 140055Z 00000KT 10SM CLR M01/M03 A3066 190 85 -1700 000/00 RMK AO2
14837KMSN MSN20041113190009611/13/04 19:00:31  5-MIN KMSN 140100Z 00000KT 10SM CLR M01/M03 A3066 180 81 -1600 000/00 RMK AO2
14837KMSN MSN20041113190509611/13/04 19:05:31  5-MIN KMSN 140105Z 00000KT 10SM CLR M01/M03 A3066 180 85 -1600 000/00 RMK AO2
14837KMSN MSN20041113191009611/13/04 19:10:31  5-MIN KMSN 140110Z 00000KT 10SM CLR M01/M03 A3066 180 85 -1700 000/00 RMK AO2
14837KMSN MSN20041113191509611/13/04 19:15:31  5-MIN KMSN 140115Z 00000KT 10SM CLR M01/M03 A3067 180 81 -1600 000/00 RMK AO2
14837KMSN MSN20041113192009611/13/04 19:20:31  5-MIN KMSN 140120Z 00000KT 10SM CLR M01/M03 A3067 180 81 -1600 000/00 RMK AO2
14837KMSN MSN20041113192509511/13/04 19:25:31  5-MIN KMSN 140125Z 00000KT 10SM CLR 00/M03 A3067 180 78 -1500 000/00 RMK AO2
14837KMSN MSN20041113193009611/13/04 19:30:31  5-MIN KMSN 140130Z 00000KT 10SM CLR M01/M03 A3067 180 81 -1600 000/00 RMK AO2
14837KMSN MSN20041113193509611/13/04 19:35:31  5-MIN KMSN 140135Z 00000KT 10SM CLR M01/M04 A3067 180 78 -1600 000/00 RMK AO2
14837KMSN MSN20041113194009511/13/04 19:40:31  5-MIN KMSN 140140Z 00000KT 9SM CLR M01/M03 A3067 180 85 -1700 000/00 RMK AO2
14837KMSN MSN20041113194509511/13/04 19:45:31  5-MIN KMSN 140145Z 00000KT 9SM CLR M01/M04 A3067 180 81 -1700 000/00 RMK AO2
14837KMSN MSN20041113195011211/13/04 19:50:31  5-MIN KMSN 140150Z 00000KT 9SM CLR M01/M04 A3067 180 81 -1700 000/00 RMK AO2 SLP398 T10111039
14837KMSN MSN20041113195509511/13/04 19:55:31  5-MIN KMSN 140155Z 00000KT 9SM CLR M01/M03 A3067 180 85 -1700 000/00 RMK AO2
14837KMSN MSN20041113200009511/13/04 20:00:31  5-MIN KMSN 140200Z 00000KT 9SM CLR M01/M04 A3067 180 81 -1700 000/00 RMK AO2
14837KMSN MSN20041113200509511/13/04 20:05:31  5-MIN KMSN 140205Z 00000KT 9SM CLR M02/M04 A3067 180 85 -1700 000/00 RMK AO2
14837KMSN MSN20041113201009511/13/04 20:10:31  5-MIN KMSN 140210Z 00000KT 8SM CLR M02/M04 A3067 180 85 -1700 000/00 RMK AO2
14837KMSN MSN20041113201509511/13/04 20:15:31  5-MIN KMSN 140215Z 00000KT 8SM CLR M02/M04 A3067 180 85 -1700 000/00 RMK AO2
14837KMSN MSN20041113202009511/13/04 20:20:31  5-MIN KMSN 140220Z 00000KT 8SM CLR M02/M04 A3067 180 88 -1800 000/00 RMK AO2
14837KMSN MSN20041113202509511/13/04 20:25:31  5-MIN KMSN 140225Z 00000KT 8SM CLR M02/M04 A3067 170 85 -1700 000/00 RMK AO2
14837KMSN MSN20041113203009511/13/04 20:30:31  5-MIN KMSN 140230Z 00000KT 8SM CLR M02/M04 A3067 170 85 -1700 000/00 RMK AO2
14837KMSN MSN20041113203509511/13/04 20:35:31  5-MIN KMSN 140235Z 00000KT 8SM CLR M02/M04 A3067 170 85 -1700 000/00 RMK AO2
14837KMSN MSN20041113204009511/13/04 20:40:31  5-MIN KMSN 140240Z 00000KT 8SM CLR M02/M04 A3068 170 85 -1700 000/00 RMK AO2
14837KMSN MSN20041113204509511/13/04 20:45:31  5-MIN KMSN 140245Z 00000KT 8SM CLR M02/M04 A3068 170 85 -1700 000/00 RMK AO2
14837KMSN MSN20041113205011811/13/04 20:50:31  5-MIN KMSN 140250Z 00000KT 8SM CLR M02/M04 A3068 170 88 -1800 000/00 RMK AO2 SLP400 T10221039 53004
14837KMSN MSN20041113205509511/13/04 20:55:31  5-MIN KMSN 140255Z 00000KT 7SM CLR M02/M04 A3068 170 88 -1800 000/00 RMK AO2
14837KMSN MSN20041113210009511/13/04 21:00:31  5-MIN KMSN 140300Z 00000KT 7SM CLR M02/M04 A3068 170 85 -1700 000/00 RMK AO2
14837KMSN MSN20041113210509511/13/04 21:05:31  5-MIN KMSN 140305Z 00000KT 8SM CLR M02/M04 A3068 170 85 -1700 000/00 RMK AO2
14837KMSN MSN20041113211009511/13/04 21:10:31  5-MIN KMSN 140310Z 00000KT 8SM CLR M02/M04 A3068 170 81 -1700 000/00 RMK AO2
14837KMSN MSN20041113211509511/13/04 21:15:31  5-MIN KMSN 140315Z 04003KT 8SM CLR M03/M05 A3068 170 85 -1900 030/03 RMK AO2
14837KMSN MSN20041113212009511/13/04 21:20:31  5-MIN KMSN 140320Z 00000KT 8SM CLR M04/M06 A3068 170 85 -2000 000/00 RMK AO2
14837KMSN MSN20041113212509511/13/04 21:25:31  5-MIN KMSN 140325Z 00000KT 8SM CLR M03/M05 A3069 160 85 -1900 000/00 RMK AO2
14837KMSN MSN20041113213009511/13/04 21:30:31  5-MIN KMSN 140330Z 00000KT 8SM CLR M03/M05 A3069 160 85 -1900 000/00 RMK AO2
14837KMSN MSN20041113213509511/13/04 21:35:31  5-MIN KMSN 140335Z 00000KT 8SM CLR M03/M05 A3069 160 88 -2000 000/00 RMK AO2
14837KMSN MSN20041113214009511/13/04 21:40:31  5-MIN KMSN 140340Z 00000KT 8SM CLR M03/M05 A3069 160 85 -1900 000/00 RMK AO2
14837KMSN MSN20041113214509511/13/04 21:45:31  5-MIN KMSN 140345Z 00000KT 8SM CLR M03/M05 A3069 160 85 -1900 000/00 RMK AO2
14837KMSN MSN20041113215011211/13/04 21:50:31  5-MIN KMSN 140350Z 00000KT 8SM CLR M03/M04 A3069 160 88 -1900 000/00 RMK AO2 SLP405 T10281044
14837KMSN MSN20041113215509511/13/04 21:55:31  5-MIN KMSN 140355Z 00000KT 7SM CLR M02/M04 A3070 150 85 -1800 000/00 RMK AO2
14837KMSN MSN20041113220009511/13/04 22:00:31  5-MIN KMSN 140400Z 00000KT 7SM CLR M02/M04 A3070 150 88 -1800 000/00 RMK AO2
14837KMSN MSN20041113220509511/13/04 22:05:31  5-MIN KMSN 140405Z 00000KT 7SM CLR M02/M04 A3070 150 85 -1800 000/00 RMK AO2
14837KMSN MSN20041113221009511/13/04 22:10:31  5-MIN KMSN 140410Z 00000KT 7SM CLR M02/M04 A3070 150 85 -1800 000/00 RMK AO2
14837KMSN MSN20041113221509511/13/04 22:15:31  5-MIN KMSN 140415Z 00000KT 7SM CLR M02/M04 A3070 150 85 -1800 000/00 RMK AO2
14837KMSN MSN20041113222009511/13/04 22:20:31  5-MIN KMSN 140420Z 00000KT 7SM CLR M02/M04 A3070 150 85 -1800 000/00 RMK AO2
14837KMSN MSN20041113222509511/13/04 22:25:31  5-MIN KMSN 140425Z 00000KT 7SM CLR M02/M04 A3070 150 88 -1800 000/00 RMK AO2
14837KMSN MSN20041113223009511/13/04 22:30:31  5-MIN KMSN 140430Z 00000KT 7SM CLR M02/M04 A3070 150 88 -1800 000/00 RMK AO2
14837KMSN MSN20041113223509511/13/04 22:35:31  5-MIN KMSN 140435Z 00000KT 7SM CLR M02/M04 A3070 150 85 -1800 000/00 RMK AO2
14837KMSN MSN20041113224009511/13/04 22:40:31  5-MIN KMSN 140440Z 00000KT 8SM CLR M02/M05 A3070 150 81 -1800 000/00 RMK AO2
14837KMSN MSN20041113224509511/13/04 22:45:31  5-MIN KMSN 140445Z 00000KT 8SM CLR M02/M05 A3070 150 81 -1800 000/00 RMK AO2
14837KMSN MSN20041113225011211/13/04 22:50:31  5-MIN KMSN 140450Z 00000KT 8SM CLR M03/M06 A3070 150 81 -1900 000/00 RMK AO2 SLP406 T10281056
14837KMSN MSN20041113225509511/13/04 22:55:31  5-MIN KMSN 140455Z 00000KT 8SM CLR M03/M06 A3070 150 81 -1900 000/00 RMK AO2
14837KMSN MSN20041113230009511/13/04 23:00:31  5-MIN KMSN 140500Z 00000KT 7SM CLR M02/M05 A3070 150 81 -1800 000/00 RMK AO2
14837KMSN MSN20041113230509511/13/04 23:05:31  5-MIN KMSN 140505Z 00000KT 7SM CLR M03/M05 A3070 150 85 -1900 000/00 RMK AO2
14837KMSN MSN20041113231009511/13/04 23:10:31  5-MIN KMSN 140510Z 00000KT 7SM CLR M03/M05 A3070 150 88 -2000 000/00 RMK AO2
14837KMSN MSN20041113231509511/13/04 23:15:31  5-MIN KMSN 140515Z 00000KT 7SM CLR M03/M04 A3070 150 88 -1900 000/00 RMK AO2
14837KMSN MSN20041113232009511/13/04 23:20:31  5-MIN KMSN 140520Z 00000KT 7SM CLR M03/M04 A3071 150 88 -1900 000/00 RMK AO2
14837KMSN MSN20041113232509511/13/04 23:25:31  5-MIN KMSN 140525Z 00000KT 7SM CLR M03/M04 A3071 140 88 -1900 000/00 RMK AO2
14837KMSN MSN20041113233009511/13/04 23:30:31  5-MIN KMSN 140530Z 00000KT 7SM CLR M03/M04 A3071 140 88 -1900 000/00 RMK AO2
14837KMSN MSN20041113233509511/13/04 23:35:31  5-MIN KMSN 140535Z 00000KT 7SM CLR M03/M04 A3071 140 88 -1900 000/00 RMK AO2
14837KMSN MSN20041113234009511/13/04 23:40:31  5-MIN KMSN 140540Z 00000KT 7SM CLR M02/M04 A3071 140 88 -1800 000/00 RMK AO2
14837KMSN MSN20041113234509511/13/04 23:45:31  5-MIN KMSN 140545Z 00000KT 7SM CLR M02/M04 A3071 140 88 -1800 000/00 RMK AO2
14837KMSN MSN20041113235014311/13/04 23:50:31  5-MIN KMSN 140550Z 00000KT 6SM BR CLR M03/M04 A3071 150 92 -2000 000/00 RMK AO2 SLP408 T10331044 10017 21039 400831067 53007
14837KMSN MSN20041113235509811/13/04 23:55:31  5-MIN KMSN 140555Z 00000KT 6SM BR CLR M03/M05 A3071 150 85 -1900 000/00 RMK AO2
14837KMSN MSN20041114000009511/14/04 00:00:31  5-MIN KMSN 140600Z 00000KT 7SM CLR M03/M05 A3071 150 88 -2000 000/00 RMK AO2
14837KMSN MSN20041114000509511/14/04 00:05:31  5-MIN KMSN 140605Z 00000KT 8SM CLR M03/M05 A3070 150 85 -1900 000/00 RMK AO2
14837KMSN MSN20041114001009511/14/04 00:10:31  5-MIN KMSN 140610Z 00000KT 7SM CLR M04/M06 A3070 150 88 -2100 000/00 RMK AO2
14837KMSN MSN20041114001509511/14/04 00:15:31  5-MIN KMSN 140615Z 00000KT 7SM CLR M03/M05 A3070 150 88 -2000 000/00 RMK AO2
14837KMSN MSN20041114002009511/14/04 00:20:31  5-MIN KMSN 140620Z 00000KT 7SM CLR M04/M05 A3071 140 92 -2100 000/00 RMK AO2
14837KMSN MSN20041114002509811/14/04 00:25:31  5-MIN KMSN 140625Z 00000KT 6SM BR CLR M04/M06 A3071 140 88 -2100 000/00 RMK AO2
14837KMSN MSN20041114003009811/14/04 00:30:31  5-MIN KMSN 140630Z 00000KT 5SM BR CLR M04/M06 A3071 140 88 -2100 000/00 RMK AO2
14837KMSN MSN20041114003509811/14/04 00:35:31  5-MIN KMSN 140635Z 00000KT 5SM BR CLR M04/M05 A3071 140 92 -2100 000/00 RMK AO2
14837KMSN MSN20041114004009811/14/04 00:40:31  5-MIN KMSN 140640Z 00000KT 5SM BR CLR M04/M05 A3071 140 92 -2100 000/00 RMK AO2
14837KMSN MSN20041114004509811/14/04 00:45:31  5-MIN KMSN 140645Z 00000KT 5SM BR CLR M04/M05 A3071 140 92 -2100 000/00 RMK AO2
14837KMSN MSN20041114005011511/14/04 00:50:31  5-MIN KMSN 140650Z 00000KT 5SM BR CLR M04/M06 A3071 140 88 -2100 000/00 RMK AO2 SLP411 T10391056
14837KMSN MSN20041114005509811/14/04 00:55:31  5-MIN KMSN 140655Z 00000KT 5SM BR CLR M04/M06 A3072 140 92 -2100 000/00 RMK AO2
14837KMSN MSN20041114010009811/14/04 01:00:31  5-MIN KMSN 140700Z 00000KT 5SM BR CLR M04/M06 A3072 130 92 -2100 000/00 RMK AO2
14837KMSN MSN20041114010509811/14/04 01:05:31  5-MIN KMSN 140705Z 00000KT 5SM BR CLR M04/M06 A3072 130 88 -2100 000/00 RMK AO2
14837KMSN MSN20041114011009811/14/04 01:10:31  5-MIN KMSN 140710Z 00000KT 5SM BR CLR M04/M05 A3072 130 92 -2100 000/00 RMK AO2
14837KMSN MSN20041114011509811/14/04 01:15:31  5-MIN KMSN 140715Z 00000KT 6SM BR CLR M04/M06 A3072 130 88 -2100 000/00 RMK AO2
14837KMSN MSN20041114012009811/14/04 01:20:31  5-MIN KMSN 140720Z 00000KT 5SM BR CLR M04/M06 A3072 130 92 -2200 000/00 RMK AO2
14837KMSN MSN20041114012509811/14/04 01:25:31  5-MIN KMSN 140725Z 00000KT 5SM BR CLR M04/M06 A3072 130 88 -2100 000/00 RMK AO2
14837KMSN MSN20041114013009811/14/04 01:30:31  5-MIN KMSN 140730Z 00000KT 5SM BR CLR M04/M06 A3072 130 85 -2100 000/00 RMK AO2
14837KMSN MSN20041114013509811/14/04 01:35:31  5-MIN KMSN 140735Z 00000KT 6SM BR CLR M04/M06 A3072 130 88 -2100 000/00 RMK AO2
14837KMSN MSN20041114014009811/14/04 01:40:31  5-MIN KMSN 140740Z 00000KT 5SM BR CLR M05/M06 A3072 130 92 -2200 000/00 RMK AO2
14837KMSN MSN20041114014509811/14/04 01:45:31  5-MIN KMSN 140745Z 00000KT 5SM BR CLR M05/M06 A3072 130 92 -2200 000/00 RMK AO2
14837KMSN MSN20041114015011511/14/04 01:50:31  5-MIN KMSN 140750Z 00000KT 5SM BR CLR M04/M06 A3072 130 88 -2100 000/00 RMK AO2 SLP413 T10441061
14837KMSN MSN20041114015509811/14/04 01:55:31  5-MIN KMSN 140755Z 00000KT 6SM BR CLR M04/M06 A3072 130 92 -2200 000/00 RMK AO2
14837KMSN MSN20041114020009811/14/04 02:00:31  5-MIN KMSN 140800Z 00000KT 5SM BR CLR M04/M06 A3072 130 92 -2200 000/00 RMK AO2
14837KMSN MSN20041114020509811/14/04 02:05:31  5-MIN KMSN 140805Z 00000KT 4SM BR CLR M04/M06 A3072 130 92 -2200 000/00 RMK AO2
14837KMSN MSN20041114021009811/14/04 02:10:31  5-MIN KMSN 140810Z 00000KT 4SM BR CLR M04/M05 A3072 130 96 -2200 000/00 RMK AO2
14837KMSN MSN20041114021509811/14/04 02:15:31  5-MIN KMSN 140815Z 00000KT 4SM BR CLR M04/M06 A3073 130 92 -2200 000/00 RMK AO2
14837KMSN MSN20041114022009811/14/04 02:20:31  5-MIN KMSN 140820Z 00000KT 4SM BR CLR M04/M05 A3072 130 96 -2200 000/00 RMK AO2
14837KMSN MSN20041114022509811/14/04 02:25:31  5-MIN KMSN 140825Z 00000KT 4SM BR CLR M04/M05 A3072 130 96 -2200 000/00 RMK AO2
14837KMSN MSN20041114023009811/14/04 02:30:31  5-MIN KMSN 140830Z 00000KT 4SM BR CLR M05/M06 A3072 130 96 -2200 000/00 RMK AO2
14837KMSN MSN20041114023509811/14/04 02:35:31  5-MIN KMSN 140835Z 00000KT 4SM BR CLR M05/M06 A3072 130 96 -2200 000/00 RMK AO2
14837KMSN MSN20041114024009811/14/04 02:40:31  5-MIN KMSN 140840Z 00000KT 5SM BR CLR M05/M06 A3072 130 96 -2200 000/00 RMK AO2
14837KMSN MSN20041114024509911/14/04 02:45:31  5-MIN KMSN 140845Z 00000KT 5SM BR CLR M04/M04 A3072 130 100 -2100 000/00 RMK AO2
14837KMSN MSN20041114025012111/14/04 02:50:31  5-MIN KMSN 140850Z 00000KT 5SM BR CLR M05/M06 A3072 130 96 -2200 000/00 RMK AO2 SLP413 T10501056 51009
14837KMSN MSN20041114025509811/14/04 02:55:31  5-MIN KMSN 140855Z 00000KT 4SM BR CLR M05/M06 A3072 130 96 -2200 000/00 RMK AO2
14837KMSN MSN20041114030009811/14/04 03:00:31  5-MIN KMSN 140900Z 00000KT 4SM BR CLR M05/M06 A3072 130 96 -2200 000/00 RMK AO2
14837KMSN MSN20041114030509811/14/04 03:05:31  5-MIN KMSN 140905Z 00000KT 4SM BR CLR M05/M06 A3072 140 96 -2200 000/00 RMK AO2
14837KMSN MSN20041114031009811/14/04 03:10:31  5-MIN KMSN 140910Z 00000KT 5SM BR CLR M05/M06 A3071 140 96 -2200 000/00 RMK AO2
14837KMSN MSN20041114031509811/14/04 03:15:31  5-MIN KMSN 140915Z 00000KT 5SM BR CLR M05/M06 A3071 140 96 -2200 000/00 RMK AO2
14837KMSN MSN20041114032009811/14/04 03:20:31  5-MIN KMSN 140920Z 00000KT 4SM BR CLR M05/M06 A3071 140 96 -2200 000/00 RMK AO2
14837KMSN MSN20041114032509811/14/04 03:25:31  5-MIN KMSN 140925Z 00000KT 4SM BR CLR M05/M06 A3071 140 96 -2200 000/00 RMK AO2
14837KMSN MSN20041114033009811/14/04 03:30:31  5-MIN KMSN 140930Z 00000KT 4SM BR CLR M04/M05 A3071 140 96 -2100 000/00 RMK AO2
14837KMSN MSN20041114033509811/14/04 03:35:31  5-MIN KMSN 140935Z 00000KT 4SM BR CLR M05/M06 A3071 140 96 -2200 000/00 RMK AO2
14837KMSN MSN20041114034009811/14/04 03:40:31  5-MIN KMSN 140940Z 00000KT 4SM BR CLR M05/M06 A3070 150 96 -2200 000/00 RMK AO2
14837KMSN MSN20041114034509811/14/04 03:45:31  5-MIN KMSN 140945Z 00000KT 4SM BR CLR M05/M06 A3071 140 96 -2200 000/00 RMK AO2
14837KMSN MSN20041114035011511/14/04 03:50:31  5-MIN KMSN 140950Z 00000KT 4SM BR CLR M05/M06 A3071 140 96 -2200 000/00 RMK AO2 SLP409 T10501056
14837KMSN MSN20041114035509811/14/04 03:55:31  5-MIN KMSN 140955Z 00000KT 4SM BR CLR M05/M06 A3071 140 96 -2200 000/00 RMK AO2
14837KMSN MSN20041114040009811/14/04 04:00:31  5-MIN KMSN 141000Z 00000KT 4SM BR CLR M05/M06 A3071 140 96 -2200 000/00 RMK AO2
14837KMSN MSN20041114040509811/14/04 04:05:31  5-MIN KMSN 141005Z 00000KT 4SM BR CLR M05/M06 A3071 140 96 -2200 000/00 RMK AO2
14837KMSN MSN20041114041009811/14/04 04:10:31  5-MIN KMSN 141010Z 00000KT 4SM BR CLR M05/M06 A3071 140 96 -2200 000/00 RMK AO2
14837KMSN MSN20041114041509811/14/04 04:15:31  5-MIN KMSN 141015Z 00000KT 4SM BR CLR M04/M05 A3072 140 96 -2100 000/00 RMK AO2
14837KMSN MSN20041114042009811/14/04 04:20:31  5-MIN KMSN 141020Z 00000KT 5SM BR CLR M05/M06 A3072 140 92 -2200 000/00 RMK AO2
14837KMSN MSN20041114042509811/14/04 04:25:31  5-MIN KMSN 141025Z 00000KT 6SM BR CLR M05/M06 A3072 130 92 -2200 000/00 RMK AO2
14837KMSN MSN20041114043009811/14/04 04:30:31  5-MIN KMSN 141030Z 00000KT 6SM BR CLR M05/M06 A3072 130 92 -2200 000/00 RMK AO2
14837KMSN MSN20041114043509811/14/04 04:35:31  5-MIN KMSN 141035Z 00000KT 6SM BR CLR M05/M06 A3072 130 92 -2200 000/00 RMK AO2
14837KMSN MSN20041114044009511/14/04 04:40:31  5-MIN KMSN 141040Z 00000KT 7SM CLR M05/M06 A3072 130 92 -2200 000/00 RMK AO2
14837KMSN MSN20041114044509511/14/04 04:45:31  5-MIN KMSN 141045Z 00000KT 8SM CLR M05/M06 A3072 130 92 -2200 000/00 RMK AO2
14837KMSN MSN20041114045011211/14/04 04:50:31  5-MIN KMSN 141050Z 00000KT 8SM CLR M05/M06 A3072 130 92 -2200 000/00 RMK AO2 SLP414 T10501061
14837KMSN MSN20041114045509511/14/04 04:55:31  5-MIN KMSN 141055Z 00000KT 8SM CLR M05/M06 A3072 130 92 -2200 000/00 RMK AO2
14837KMSN MSN20041114050009511/14/04 05:00:31  5-MIN KMSN 141100Z 00000KT 7SM CLR M05/M06 A3072 130 96 -2200 000/00 RMK AO2
14837KMSN MSN20041114050509511/14/04 05:05:31  5-MIN KMSN 141105Z 00000KT 7SM CLR M05/M06 A3072 130 96 -2200 000/00 RMK AO2
14837KMSN MSN20041114051009511/14/04 05:10:31  5-MIN KMSN 141110Z 00000KT 7SM CLR M05/M06 A3072 130 96 -2200 000/00 RMK AO2
14837KMSN MSN20041114051509511/14/04 05:15:31  5-MIN KMSN 141115Z 00000KT 7SM CLR M05/M06 A3072 130 96 -2200 000/00 RMK AO2
14837KMSN MSN20041114052009511/14/04 05:20:31  5-MIN KMSN 141120Z 00000KT 7SM CLR M05/M06 A3073 130 96 -2200 000/00 RMK AO2
14837KMSN MSN20041114052509511/14/04 05:25:31  5-MIN KMSN 141125Z 00000KT 7SM CLR M05/M06 A3073 130 96 -2200 000/00 RMK AO2
14837KMSN MSN20041114053009811/14/04 05:30:31  5-MIN KMSN 141130Z 00000KT 6SM BR CLR M06/M06 A3073 130 96 -2300 000/00 RMK AO2
14837KMSN MSN20041114053509811/14/04 05:35:31  5-MIN KMSN 141135Z 00000KT 5SM BR CLR M06/M06 A3073 130 96 -2300 000/00 RMK AO2
14837KMSN MSN20041114054009811/14/04 05:40:31  5-MIN KMSN 141140Z 00000KT 5SM BR CLR M06/M06 A3073 130 96 -2300 000/00 RMK AO2
14837KMSN MSN20041114054509811/14/04 05:45:31  5-MIN KMSN 141145Z 00000KT 4SM BR CLR M06/M06 A3073 130 96 -2300 000/00 RMK AO2
14837KMSN MSN20041114055013411/14/04 05:50:31  5-MIN KMSN 141150Z 00000KT 5SM BR CLR M06/M06 A3073 130 100 -2400 000/00 RMK AO2 SLP418 T10611061 11028 21061 50005
14837KMSN MSN20041114055509811/14/04 05:55:31  5-MIN KMSN 141155Z 00000KT 5SM BR CLR M06/M06 A3073 130 96 -2300 000/00 RMK AO2
14837KMSN MSN20041114060009811/14/04 06:00:31  5-MIN KMSN 141200Z 00000KT 5SM BR CLR M06/M06 A3073 120 96 -2300 000/00 RMK AO2
14837KMSN MSN20041114060509811/14/04 06:05:31  5-MIN KMSN 141205Z 00000KT 5SM BR CLR M06/M06 A3073 120 96 -2300 000/00 RMK AO2
14837KMSN MSN20041114061009811/14/04 06:10:31  5-MIN KMSN 141210Z 00000KT 5SM BR CLR M06/M06 A3073 120 96 -2300 000/00 RMK AO2
14837KMSN MSN20041114061509811/14/04 06:15:31  5-MIN KMSN 141215Z 00000KT 5SM BR CLR M06/M06 A3073 120 96 -2300 000/00 RMK AO2
14837KMSN MSN20041114062009811/14/04 06:20:31  5-MIN KMSN 141220Z 00000KT 5SM BR CLR M06/M06 A3074 120 96 -2300 000/00 RMK AO2
14837KMSN MSN20041114062509811/14/04 06:25:31  5-MIN KMSN 141225Z 00000KT 5SM BR CLR M06/M06 A3074 120 96 -2300 000/00 RMK AO2
14837KMSN MSN20041114063009811/14/04 06:30:31  5-MIN KMSN 141230Z 00000KT 5SM BR CLR M06/M06 A3074 110 96 -2300 000/00 RMK AO2
14837KMSN MSN20041114063509811/14/04 06:35:31  5-MIN KMSN 141235Z 00000KT 5SM BR CLR M06/M06 A3074 110 96 -2300 000/00 RMK AO2
14837KMSN MSN20041114064009811/14/04 06:40:31  5-MIN KMSN 141240Z 00000KT 5SM BR CLR M06/M06 A3074 110 96 -2300 000/00 RMK AO2
14837KMSN MSN20041114064509811/14/04 06:45:31  5-MIN KMSN 141245Z 00000KT 4SM BR CLR M06/M06 A3074 110 96 -2300 000/00 RMK AO2
14837KMSN MSN20041114065011511/14/04 06:50:31  5-MIN KMSN 141250Z 00000KT 4SM BR CLR M06/M07 A3074 110 96 -2400 000/00 RMK AO2 SLP425 T10611067
14837KMSN MSN20041114065509811/14/04 06:55:31  5-MIN KMSN 141255Z 00000KT 3SM BR CLR M06/M07 A3075 110 96 -2400 000/00 RMK AO2
14837KMSN MSN20041114070009811/14/04 07:00:31  5-MIN KMSN 141300Z 00000KT 3SM BR CLR M06/M07 A3075 110 92 -2300 000/00 RMK AO2
14837KMSN MSN20041114070509811/14/04 07:05:31  5-MIN KMSN 141305Z 00000KT 3SM BR CLR M06/M06 A3075 110 96 -2300 000/00 RMK AO2
14837KMSN MSN20041114071009811/14/04 07:10:31  5-MIN KMSN 141310Z 00000KT 4SM BR CLR M05/M07 A3075 100 88 -2300 000/00 RMK AO2
14837KMSN MSN20041114071509811/14/04 07:15:31  5-MIN KMSN 141315Z 00000KT 5SM BR CLR M06/M06 A3075 100 96 -2300 000/00 RMK AO2
14837KMSN MSN20041114072009811/14/04 07:20:31  5-MIN KMSN 141320Z 00000KT 5SM BR CLR M06/M07 A3075 100 92 -2300 000/00 RMK AO2
14837KMSN MSN20041114072509811/14/04 07:25:31  5-MIN KMSN 141325Z 00000KT 5SM BR CLR M05/M06 A3076 100 96 -2300 000/00 RMK AO2
14837KMSN MSN20041114073009811/14/04 07:30:31  5-MIN KMSN 141330Z 00000KT 5SM BR CLR M05/M06 A3076 100 96 -2300 000/00 RMK AO2
14837KMSN MSN20041114073509811/14/04 07:35:31  5-MIN KMSN 141335Z 00000KT 5SM BR CLR M04/M06 A3076 100 92 -2200 000/00 RMK AO2
14837KMSN MSN20041114074009811/14/04 07:40:31  5-MIN KMSN 141340Z 00000KT 5SM BR CLR M04/M06 A3076 100 88 -2100 000/00 RMK AO2
14837KMSN MSN20041114074509811/14/04 07:45:31  5-MIN KMSN 141345Z 00000KT 5SM BR CLR M04/M05 A3076 100 92 -2100 000/00 RMK AO2
14837KMSN MSN20041114075011511/14/04 07:50:31  5-MIN KMSN 141350Z 00000KT 5SM BR CLR M04/M05 A3076 100 92 -2100 000/00 RMK AO2 SLP429 T10391050
14837KMSN MSN20041114075509811/14/04 07:55:31  5-MIN KMSN 141355Z 00000KT 5SM BR CLR M04/M05 A3076 100 92 -2100 000/00 RMK AO2
14837KMSN MSN20041114080009811/14/04 08:00:31  5-MIN KMSN 141400Z 00000KT 5SM BR CLR M03/M04 A3076 100 92 -2000 000/00 RMK AO2
14837KMSN MSN20041114080509811/14/04 08:05:31  5-MIN KMSN 141405Z 00000KT 5SM BR CLR M03/M04 A3076 100 92 -2000 000/00 RMK AO2
14837KMSN MSN20041114081009811/14/04 08:10:31  5-MIN KMSN 141410Z 00000KT 5SM BR CLR M02/M03 A3076 100 92 -1900 000/00 RMK AO2
14837KMSN MSN20041114081509811/14/04 08:15:31  5-MIN KMSN 141415Z 00000KT 5SM BR CLR M02/M03 A3075 100 96 -1900 000/00 RMK AO2
14837KMSN MSN20041114082009811/14/04 08:20:31  5-MIN KMSN 141420Z 00000KT 4SM BR CLR M01/M02 A3075 100 92 -1800 000/00 RMK AO2
14837KMSN MSN20041114082509811/14/04 08:25:31  5-MIN KMSN 141425Z 00000KT 4SM BR CLR M01/M02 A3075 110 92 -1800 000/00 RMK AO2
14837KMSN MSN20041114083009811/14/04 08:30:31  5-MIN KMSN 141430Z 00000KT 4SM BR CLR M01/M02 A3075 100 92 -1700 000/00 RMK AO2
14837KMSN MSN20041114083509711/14/04 08:35:31  5-MIN KMSN 141435Z 00000KT 5SM BR CLR 00/M02 A3075 100 85 -1600 000/00 RMK AO2
14837KMSN MSN20041114084009711/14/04 08:40:31  5-MIN KMSN 141440Z 00000KT 5SM BR CLR 00/M02 A3075 100 88 -1600 000/00 RMK AO2
14837KMSN MSN20041114084509711/14/04 08:45:31  5-MIN KMSN 141445Z 00000KT 5SM BR CLR 01/M02 A3075 110 85 -1500 000/00 RMK AO2
14837KMSN MSN20041114085012011/14/04 08:50:31  5-MIN KMSN 141450Z 16003KT 6SM BR CLR 01/M01 A3075 110 85 -1500 160/03 RMK AO2 SLP425 T00111011 53002
14837KMSN MSN20041114085509711/14/04 08:55:31  5-MIN KMSN 141455Z 16004KT 6SM HZ CLR 02/M01 A3075 110 82 -1400 160/04 RMK AO2
14837KMSN MSN20041114090009411/14/04 09:00:31  5-MIN KMSN 141500Z 16004KT 7SM CLR 02/M01 A3074 110 78 -1300 150/04 RMK AO2
14837KMSN MSN20041114090509411/14/04 09:05:31  5-MIN KMSN 141505Z 16004KT 7SM CLR 02/M01 A3074 110 78 -1300 160/04 RMK AO2
14837KMSN MSN20041114091009411/14/04 09:10:31  5-MIN KMSN 141510Z 16005KT 8SM CLR 03/M01 A3074 110 75 -1300 160/05 RMK AO2
14837KMSN MSN20041114091509411/14/04 09:15:31  5-MIN KMSN 141515Z 15004KT 8SM CLR 03/M02 A3074 120 72 -1300 150/04 RMK AO2
14837KMSN MSN20041114092009411/14/04 09:20:31  5-MIN KMSN 141520Z 16004KT 9SM CLR 03/M02 A3074 120 70 -1200 150/04 RMK AO2
14837KMSN MSN20041114092509411/14/04 09:25:31  5-MIN KMSN 141525Z 18006KT 9SM CLR 03/M02 A3074 110 70 -1200 180/06 RMK AO2
14837KMSN MSN20041114093009411/14/04 09:30:31  5-MIN KMSN 141530Z 17004KT 9SM CLR 03/M02 A3074 110 70 -1200 170/04 RMK AO2
14837KMSN MSN20041114093509511/14/04 09:35:31  5-MIN KMSN 141535Z 17005KT 10SM CLR 04/M02 A3074 120 64 -1100 170/05 RMK AO2
14837KMSN MSN20041114094009511/14/04 09:40:31  5-MIN KMSN 141540Z 17006KT 10SM CLR 04/M02 A3074 110 64 -1100 170/06 RMK AO2
14837KMSN MSN20041114094509511/14/04 09:45:31  5-MIN KMSN 141545Z 17007KT 10SM CLR 04/M02 A3074 120 64 -1100 170/07 RMK AO2
14837KMSN MSN20041114095011211/14/04 09:50:31  5-MIN KMSN 141550Z 16008KT 10SM CLR 04/M03 A3074 120 59 -1000 160/08 RMK AO2 SLP419 T00441028
14837KMSN MSN20041114095509511/14/04 09:55:31  5-MIN KMSN 141555Z 16007KT 10SM CLR 04/M02 A3074 120 62 -1000 160/07 RMK AO2
14837KMSN MSN20041114100009511/14/04 10:00:31  5-MIN KMSN 141600Z 16007KT 10SM CLR 05/M02 A3073 120 62 -1000 150/07 RMK AO2
14837KMSN MSN20041114100509511/14/04 10:05:31  5-MIN KMSN 141605Z 15006KT 10SM CLR 05/M02 A3073 120 59 -1000 150/06 RMK AO2
14837KMSN MSN20041114101009511/14/04 10:10:31  5-MIN KMSN 141610Z 15005KT 10SM CLR 05/M02 A3073 120 59 -1000 150/05 RMK AO2
14837KMSN MSN20041114101509511/14/04 10:15:31  5-MIN KMSN 141615Z 15005KT 10SM CLR 05/M03 A3073 120 57 -1000 150/05 RMK AO2
14837KMSN MSN20041114102009411/14/04 10:20:31  5-MIN KMSN 141620Z 16005KT 10SM CLR 06/M02 A3073 120 57 -900 160/05 RMK AO2
14837KMSN MSN20041114102509411/14/04 10:25:31  5-MIN KMSN 141625Z 17006KT 10SM CLR 06/M02 A3073 120 55 -800 170/06 RMK AO2
14837KMSN MSN20041114103009411/14/04 10:30:31  5-MIN KMSN 141630Z 17007KT 10SM CLR 06/M03 A3073 120 53 -800 170/07 RMK AO2
14837KMSN MSN20041114103509411/14/04 10:35:31  5-MIN KMSN 141635Z 18008KT 10SM CLR 06/M03 A3073 120 51 -800 170/08 RMK AO2
14837KMSN MSN20041114104009411/14/04 10:40:31  5-MIN KMSN 141640Z 18008KT 10SM CLR 06/M03 A3073 120 51 -800 170/08 RMK AO2
14837KMSN MSN20041114104509411/14/04 10:45:31  5-MIN KMSN 141645Z 18007KT 10SM CLR 06/M04 A3073 130 48 -800 170/07 RMK AO2
14837KMSN MSN20041114105011111/14/04 10:50:31  5-MIN KMSN 141650Z 18006KT 10SM CLR 07/M03 A3073 130 49 -800 180/06 RMK AO2 SLP415 T00671033
14837KMSN MSN20041114105511011/14/04 10:55:31  5-MIN KMSN 141655Z 16007KT 130V190 10SM CLR 07/M03 A3072 130 49 -800 160/07 130V190 RMK AO2
14837KMSN MSN20041114110009411/14/04 11:00:31  5-MIN KMSN 141700Z 18007KT 10SM CLR 07/M04 A3072 130 47 -800 180/07 RMK AO2
14837KMSN MSN20041114110509411/14/04 11:05:31  5-MIN KMSN 141705Z 17008KT 10SM CLR 07/M04 A3072 140 47 -700 170/08 RMK AO2
14837KMSN MSN20041114111009411/14/04 11:10:31  5-MIN KMSN 141710Z 16007KT 10SM CLR 07/M04 A3071 140 43 -700 160/07 RMK AO2
14837KMSN MSN20041114111509411/14/04 11:15:31  5-MIN KMSN 141715Z 19008KT 10SM CLR 07/M04 A3071 140 45 -700 190/08 RMK AO2
14837KMSN MSN20041114112009411/14/04 11:20:31  5-MIN KMSN 141720Z 17007KT 10SM CLR 07/M04 A3071 140 43 -700 170/07 RMK AO2
14837KMSN MSN20041114112509411/14/04 11:25:31  5-MIN KMSN 141725Z 18006KT 10SM CLR 07/M04 A3071 140 43 -700 180/06 RMK AO2
14837KMSN MSN20041114113009411/14/04 11:30:31  5-MIN KMSN 141730Z 17007KT 10SM CLR 08/M04 A3071 140 43 -600 170/07 RMK AO2
14837KMSN MSN20041114113509411/14/04 11:35:31  5-MIN KMSN 141735Z 17005KT 10SM CLR 07/M04 A3071 140 43 -700 170/05 RMK AO2
14837KMSN MSN20041114114009411/14/04 11:40:31  5-MIN KMSN 141740Z VRB06KT 10SM CLR 08/M04 A3071 150 41 -600 VRB/06 RMK AO2
14837KMSN MSN20041114114509411/14/04 11:45:31  5-MIN KMSN 141745Z 17006KT 10SM CLR 08/M04 A3070 150 41 -600 170/06 RMK AO2
14837KMSN MSN20041114115012911/14/04 11:50:31  5-MIN KMSN 141750Z 17006KT 10SM CLR 08/M04 A3070 150 41 -600 170/06 RMK AO2 SLP406 T00781044 10078 21061 50008
14837KMSN MSN20041114115509411/14/04 11:55:31  5-MIN KMSN 141755Z 18005KT 10SM CLR 08/M04 A3070 150 40 -500 180/05 RMK AO2
14837KMSN MSN20041114120009411/14/04 12:00:31  5-MIN KMSN 141800Z 17006KT 10SM CLR 08/M04 A3070 150 41 -600 170/06 RMK AO2
14837KMSN MSN20041114120509411/14/04 12:05:31  5-MIN KMSN 141805Z 14006KT 10SM CLR 08/M04 A3069 160 40 -500 140/06 RMK AO2
14837KMSN MSN20041114121009411/14/04 12:10:31  5-MIN KMSN 141810Z 16007KT 10SM CLR 08/M06 A3069 160 37 -500 160/07 RMK AO2
14837KMSN MSN20041114121509411/14/04 12:15:31  5-MIN KMSN 141815Z 12006KT 10SM CLR 08/M06 A3069 160 37 -500 120/06 RMK AO2
14837KMSN MSN20041114122009411/14/04 12:20:31  5-MIN KMSN 141820Z 14007KT 10SM CLR 08/M06 A3068 170 37 -500 140/07 RMK AO2
14837KMSN MSN20041114122509411/14/04 12:25:31  5-MIN KMSN 141825Z 15007KT 10SM CLR 09/M06 A3068 170 35 -400 150/07 RMK AO2
14837KMSN MSN20041114123009411/14/04 12:30:31  5-MIN KMSN 141830Z 14006KT 10SM CLR 09/M06 A3068 170 34 -400 140/06 RMK AO2
14837KMSN MSN20041114123509411/14/04 12:35:31  5-MIN KMSN 141835Z 15008KT 10SM CLR 09/M06 A3068 170 34 -400 150/08 RMK AO2
14837KMSN MSN20041114124009411/14/04 12:40:31  5-MIN KMSN 141840Z 14007KT 10SM CLR 09/M07 A3068 170 32 -400 140/07 RMK AO2
14837KMSN MSN20041114124509411/14/04 12:45:31  5-MIN KMSN 141845Z 15008KT 10SM CLR 09/M07 A3068 170 31 -400 150/08 RMK AO2
14837KMSN MSN20041114125011111/14/04 12:50:31  5-MIN KMSN 141850Z 16008KT 10SM CLR 09/M07 A3067 170 31 -400 160/08 RMK AO2 SLP396 T00941067
14837KMSN MSN20041114125509411/14/04 12:55:31  5-MIN KMSN 141855Z 14006KT 10SM CLR 09/M07 A3067 180 30 -400 140/06 RMK AO2
14837KMSN MSN20041114130009411/14/04 13:00:31  5-MIN KMSN 141900Z 17007KT 10SM CLR 09/M07 A3067 180 31 -400 170/07 RMK AO2
14837KMSN MSN20041114130509411/14/04 13:05:31  5-MIN KMSN 141905Z 17007KT 10SM CLR 09/M07 A3067 180 31 -400 160/07 RMK AO2
14837KMSN MSN20041114131009411/14/04 13:10:31  5-MIN KMSN 141910Z 15007KT 10SM CLR 09/M07 A3067 180 32 -400 150/07 RMK AO2
14837KMSN MSN20041114131509411/14/04 13:15:31  5-MIN KMSN 141915Z 17005KT 10SM CLR 09/M06 A3067 180 34 -400 170/05 RMK AO2
14837KMSN MSN20041114132009411/14/04 13:20:31  5-MIN KMSN 141920Z 18006KT 10SM CLR 09/M06 A3067 180 34 -400 180/06 RMK AO2
14837KMSN MSN20041114132509411/14/04 13:25:31  5-MIN KMSN 141925Z 18006KT 10SM CLR 09/M06 A3067 180 33 -400 180/06 RMK AO2
14837KMSN MSN20041114133009411/14/04 13:30:31  5-MIN KMSN 141930Z 17005KT 10SM CLR 09/M06 A3067 180 34 -400 170/05 RMK AO2
14837KMSN MSN20041114133509411/14/04 13:35:31  5-MIN KMSN 141935Z 17006KT 10SM CLR 09/M06 A3067 180 34 -400 160/06 RMK AO2
14837KMSN MSN20041114134009411/14/04 13:40:31  5-MIN KMSN 141940Z 16005KT 10SM CLR 09/M06 A3066 180 34 -300 150/05 RMK AO2
14837KMSN MSN20041114134509411/14/04 13:45:31  5-MIN KMSN 141945Z 14004KT 10SM CLR 09/M06 A3066 180 34 -300 140/04 RMK AO2
14837KMSN MSN20041114135011111/14/04 13:50:31  5-MIN KMSN 141950Z 16007KT 10SM CLR 09/M05 A3066 190 35 -300 160/07 RMK AO2 SLP392 T00941050
14837KMSN MSN20041114135509411/14/04 13:55:31  5-MIN KMSN 141955Z 14006KT 10SM CLR 09/M06 A3066 190 33 -300 140/06 RMK AO2
14837KMSN MSN20041114140009411/14/04 14:00:31  5-MIN KMSN 142000Z 16005KT 10SM CLR 10/M06 A3066 190 31 -300 160/05 RMK AO2
14837KMSN MSN20041114140509411/14/04 14:05:31  5-MIN KMSN 142005Z 15005KT 10SM CLR 10/M06 A3066 190 31 -300 150/05 RMK AO2
14837KMSN MSN20041114141009411/14/04 14:10:31  5-MIN KMSN 142010Z 16006KT 10SM CLR 09/M06 A3066 190 33 -300 160/06 RMK AO2
14837KMSN MSN20041114141509411/14/04 14:15:31  5-MIN KMSN 142015Z 16006KT 10SM CLR 10/M06 A3066 190 31 -300 160/06 RMK AO2
14837KMSN MSN20041114142009411/14/04 14:20:31  5-MIN KMSN 142020Z 16008KT 10SM CLR 10/M06 A3065 190 33 -300 160/08 RMK AO2
14837KMSN MSN20041114142509411/14/04 14:25:31  5-MIN KMSN 142025Z 16006KT 10SM CLR 10/M06 A3065 190 33 -300 160/06 RMK AO2
14837KMSN MSN20041114143009411/14/04 14:30:31  5-MIN KMSN 142030Z 15007KT 10SM CLR 10/M06 A3065 200 33 -300 150/07 RMK AO2
14837KMSN MSN20041114143509411/14/04 14:35:31  5-MIN KMSN 142035Z 16006KT 10SM CLR 10/M06 A3065 200 31 -300 160/06 RMK AO2
14837KMSN MSN20041114144009411/14/04 14:40:31  5-MIN KMSN 142040Z 15007KT 10SM CLR 10/M06 A3065 200 33 -300 150/07 RMK AO2
14837KMSN MSN20041114144509411/14/04 14:45:31  5-MIN KMSN 142045Z 15007KT 10SM CLR 10/M06 A3065 200 33 -300 150/07 RMK AO2
14837KMSN MSN20041114145011711/14/04 14:50:31  5-MIN KMSN 142050Z 16007KT 10SM CLR 09/M06 A3065 200 34 -300 160/07 RMK AO2 SLP388 T00941056 58017
14837KMSN MSN20041114145509411/14/04 14:55:31  5-MIN KMSN 142055Z 14006KT 10SM CLR 09/M06 A3065 200 34 -300 140/06 RMK AO2
14837KMSN MSN20041114150009411/14/04 15:00:31  5-MIN KMSN 142100Z 15006KT 10SM CLR 09/M05 A3065 200 35 -300 150/06 RMK AO2
14837KMSN MSN20041114150509411/14/04 15:05:31  5-MIN KMSN 142105Z 16005KT 10SM CLR 09/M04 A3065 200 38 -400 160/05 RMK AO2
14837KMSN MSN20041114151009411/14/04 15:10:31  5-MIN KMSN 142110Z 15005KT 10SM CLR 09/M04 A3064 200 38 -400 150/05 RMK AO2
14837KMSN MSN20041114151509411/14/04 15:15:31  5-MIN KMSN 142115Z 13004KT 10SM CLR 09/M04 A3064 200 38 -400 130/04 RMK AO2
14837KMSN MSN20041114152009411/14/04 15:20:31  5-MIN KMSN 142120Z 14004KT 10SM CLR 09/M04 A3064 200 38 -400 140/04 RMK AO2
14837KMSN MSN20041114152509411/14/04 15:25:31  5-MIN KMSN 142125Z 13004KT 10SM CLR 09/M04 A3064 200 38 -400 130/04 RMK AO2
14837KMSN MSN20041114153009411/14/04 15:30:31  5-MIN KMSN 142130Z 13003KT 10SM CLR 09/M04 A3064 200 38 -400 130/03 RMK AO2
14837KMSN MSN20041114153509411/14/04 15:35:31  5-MIN KMSN 142135Z 11004KT 10SM CLR 09/M04 A3064 210 38 -400 110/04 RMK AO2
14837KMSN MSN20041114154009411/14/04 15:40:31  5-MIN KMSN 142140Z 12003KT 10SM CLR 08/M04 A3064 210 40 -500 110/03 RMK AO2
14837KMSN MSN20041114154509411/14/04 15:45:31  5-MIN KMSN 142145Z 11004KT 10SM CLR 08/M04 A3064 210 42 -500 110/04 RMK AO2
14837KMSN MSN20041114155011111/14/04 15:50:31  5-MIN KMSN 142150Z 12003KT 10SM CLR 08/M04 A3064 210 43 -500 120/03 RMK AO2 SLP385 T00781039
14837KMSN MSN20041114155509411/14/04 15:55:31  5-MIN KMSN 142155Z 12004KT 10SM CLR 08/M04 A3064 210 43 -500 120/04 RMK AO2
14837KMSN MSN20041114160009411/14/04 16:00:31  5-MIN KMSN 142200Z 12004KT 10SM CLR 08/M04 A3064 210 43 -500 120/04 RMK AO2
14837KMSN MSN20041114160509411/14/04 16:05:31  5-MIN KMSN 142205Z 12005KT 10SM CLR 08/M04 A3064 210 40 -500 120/05 RMK AO2
14837KMSN MSN20041114161009411/14/04 16:10:31  5-MIN KMSN 142210Z 12005KT 10SM CLR 08/M04 A3064 200 43 -500 120/05 RMK AO2
14837KMSN MSN20041114161509411/14/04 16:15:31  5-MIN KMSN 142215Z 13004KT 10SM CLR 08/M04 A3064 200 43 -500 120/04 RMK AO2
14837KMSN MSN20041114162009411/14/04 16:20:31  5-MIN KMSN 142220Z 13004KT 10SM CLR 08/M04 A3064 200 43 -500 120/04 RMK AO2
14837KMSN MSN20041114162509411/14/04 16:25:31  5-MIN KMSN 142225Z 13004KT 10SM CLR 08/M04 A3065 200 43 -500 130/04 RMK AO2
14837KMSN MSN20041114163009411/14/04 16:30:31  5-MIN KMSN 142230Z 14004KT 10SM CLR 07/M03 A3065 200 47 -600 130/04 RMK AO2
14837KMSN MSN20041114163509411/14/04 16:35:31  5-MIN KMSN 142235Z 12004KT 10SM CLR 07/M03 A3064 200 47 -600 120/04 RMK AO2
14837KMSN MSN20041114164009411/14/04 16:40:31  5-MIN KMSN 142240Z 00000KT 10SM CLR 07/M03 A3064 200 49 -700 000/00 RMK AO2
14837KMSN MSN20041114164509411/14/04 16:45:31  5-MIN KMSN 142245Z 00000KT 10SM CLR 07/M03 A3064 200 49 -700 000/00 RMK AO2
14837KMSN MSN20041114165011111/14/04 16:50:31  5-MIN KMSN 142250Z 11003KT 10SM CLR 07/M03 A3064 200 49 -700 110/03 RMK AO2 SLP386 T00671033
14837KMSN MSN20041114165509411/14/04 16:55:31  5-MIN KMSN 142255Z 10004KT 10SM CLR 06/M03 A3064 210 53 -700 100/04 RMK AO2
14837KMSN MSN20041114170009411/14/04 17:00:31  5-MIN KMSN 142300Z 09003KT 10SM CLR 06/M03 A3064 210 55 -800 090/03 RMK AO2
14837KMSN MSN20041114170509411/14/04 17:05:31  5-MIN KMSN 142305Z 00000KT 10SM CLR 05/M03 A3064 210 57 -900 000/00 RMK AO2
14837KMSN MSN20041114171009411/14/04 17:10:31  5-MIN KMSN 142310Z 00000KT 10SM CLR 06/M03 A3064 210 55 -800 000/00 RMK AO2
14837KMSN MSN20041114171509411/14/04 17:15:31  5-MIN KMSN 142315Z 00000KT 10SM CLR 06/M03 A3064 210 55 -800 000/00 RMK AO2
14837KMSN MSN20041114172009411/14/04 17:20:31  5-MIN KMSN 142320Z 00000KT 10SM CLR 06/M03 A3064 210 55 -800 000/00 RMK AO2
14837KMSN MSN20041114172509411/14/04 17:25:31  5-MIN KMSN 142325Z 00000KT 10SM CLR 06/M03 A3064 210 55 -800 000/00 RMK AO2
14837KMSN MSN20041114173009411/14/04 17:30:31  5-MIN KMSN 142330Z 00000KT 10SM CLR 06/M03 A3064 210 55 -800 000/00 RMK AO2
14837KMSN MSN20041114173509411/14/04 17:35:31  5-MIN KMSN 142335Z 00000KT 10SM CLR 06/M03 A3063 210 53 -800 000/00 RMK AO2
14837KMSN MSN20041114174009411/14/04 17:40:31  5-MIN KMSN 142340Z 13004KT 10SM CLR 06/M03 A3063 210 51 -700 130/04 RMK AO2
14837KMSN MSN20041114174509411/14/04 17:45:31  5-MIN KMSN 142345Z 12004KT 10SM CLR 06/M03 A3063 210 55 -800 120/04 RMK AO2
14837KMSN MSN20041114175012911/14/04 17:50:31  5-MIN KMSN 142350Z 12005KT 10SM CLR 06/M03 A3063 220 55 -800 120/05 RMK AO2 SLP383 T00561028 10100 20050 56017
14837KMSN MSN20041114175509411/14/04 17:55:31  5-MIN KMSN 142355Z 12005KT 10SM CLR 06/M03 A3063 210 55 -800 120/05 RMK AO2
14837KMSN MSN20041114180009411/14/04 18:00:31  5-MIN KMSN 150000Z 14004KT 10SM CLR 06/M03 A3063 210 55 -800 130/04 RMK AO2
14837KMSN MSN20041114180509411/14/04 18:05:31  5-MIN KMSN 150005Z 14004KT 10SM CLR 04/M02 A3063 210 62 -900 140/04 RMK AO2
14837KMSN MSN20041114181009411/14/04 18:10:31  5-MIN KMSN 150010Z 00000KT 10SM CLR 04/M02 A3063 210 62 -900 000/00 RMK AO2
14837KMSN MSN20041114181509411/14/04 18:15:31  5-MIN KMSN 150015Z 00000KT 10SM CLR 04/M03 A3063 210 59 -900 000/00 RMK AO2
14837KMSN MSN20041114182009411/14/04 18:20:31  5-MIN KMSN 150020Z 15004KT 10SM CLR 06/M03 A3063 220 53 -800 150/04 RMK AO2
14837KMSN MSN20041114182509411/14/04 18:25:31  5-MIN KMSN 150025Z 14005KT 10SM CLR 06/M03 A3063 220 51 -700 140/05 RMK AO2
14837KMSN MSN20041114183009411/14/04 18:30:31  5-MIN KMSN 150030Z 14004KT 10SM CLR 06/M03 A3063 220 53 -700 140/04 RMK AO2
14837KMSN MSN20041114183509411/14/04 18:35:31  5-MIN KMSN 150035Z 14004KT 10SM CLR 06/M03 A3063 220 53 -700 140/04 RMK AO2
14837KMSN MSN20041114184009411/14/04 18:40:31  5-MIN KMSN 150040Z 14004KT 10SM CLR 06/M03 A3063 220 55 -800 140/04 RMK AO2
14837KMSN MSN20041114184509411/14/04 18:45:31  5-MIN KMSN 150045Z 14003KT 10SM CLR 06/M03 A3063 220 53 -700 140/03 RMK AO2
14837KMSN MSN20041114185011111/14/04 18:50:31  5-MIN KMSN 150050Z 15004KT 10SM CLR 06/M03 A3063 210 53 -700 150/04 RMK AO2 SLP383 T00611028
14837KMSN MSN20041114185509411/14/04 18:55:31  5-MIN KMSN 150055Z 15004KT 10SM CLR 06/M03 A3063 210 53 -700 150/04 RMK AO2
14837KMSN MSN20041114190009411/14/04 19:00:31  5-MIN KMSN 150100Z 15003KT 10SM CLR 06/M03 A3063 220 53 -700 150/03 RMK AO2
14837KMSN MSN20041114190509411/14/04 19:05:31  5-MIN KMSN 150105Z 14003KT 10SM CLR 07/M03 A3063 220 51 -600 140/03 RMK AO2
14837KMSN MSN20041114191009411/14/04 19:10:31  5-MIN KMSN 150110Z 14004KT 10SM CLR 06/M03 A3063 220 53 -700 140/04 RMK AO2
14837KMSN MSN20041114191509411/14/04 19:15:31  5-MIN KMSN 150115Z 14004KT 10SM CLR 06/M03 A3063 220 53 -700 140/04 RMK AO2
14837KMSN MSN20041114192009411/14/04 19:20:31  5-MIN KMSN 150120Z 14004KT 10SM CLR 06/M03 A3063 220 53 -700 140/04 RMK AO2
14837KMSN MSN20041114192509411/14/04 19:25:31  5-MIN KMSN 150125Z 13004KT 10SM CLR 06/M03 A3062 220 53 -700 130/04 RMK AO2
14837KMSN MSN20041114193009411/14/04 19:30:31  5-MIN KMSN 150130Z 14005KT 10SM CLR 06/M03 A3062 220 55 -800 140/05 RMK AO2
14837KMSN MSN20041114193509411/14/04 19:35:31  5-MIN KMSN 150135Z 16005KT 10SM CLR 06/M03 A3063 220 53 -700 160/05 RMK AO2
14837KMSN MSN20041114194009411/14/04 19:40:31  5-MIN KMSN 150140Z 16005KT 10SM CLR 06/M03 A3063 220 53 -700 160/05 RMK AO2
14837KMSN MSN20041114194509411/14/04 19:45:31  5-MIN KMSN 150145Z 19004KT 10SM CLR 06/M03 A3064 210 53 -700 190/04 RMK AO2
14837KMSN MSN20041114195011111/14/04 19:50:31  5-MIN KMSN 150150Z 17004KT 10SM CLR 06/M03 A3064 210 53 -700 170/04 RMK AO2 SLP385 T00611028
14837KMSN MSN20041114195509411/14/04 19:55:31  5-MIN KMSN 150155Z 16004KT 10SM CLR 06/M03 A3063 210 51 -700 160/04 RMK AO2
14837KMSN MSN20041114200009411/14/04 20:00:31  5-MIN KMSN 150200Z 15004KT 10SM CLR 06/M03 A3063 210 51 -700 150/04 RMK AO2
14837KMSN MSN20041114200509411/14/04 20:05:31  5-MIN KMSN 150205Z 15004KT 10SM CLR 06/M03 A3063 220 53 -800 150/04 RMK AO2
14837KMSN MSN20041114201009411/14/04 20:10:31  5-MIN KMSN 150210Z 14003KT 10SM CLR 06/M03 A3063 220 53 -800 130/03 RMK AO2
14837KMSN MSN20041114201509411/14/04 20:15:31  5-MIN KMSN 150215Z 14004KT 10SM CLR 06/M03 A3063 220 53 -800 140/04 RMK AO2
14837KMSN MSN20041114202009411/14/04 20:20:31  5-MIN KMSN 150220Z 15005KT 10SM CLR 05/M03 A3063 220 55 -900 150/05 RMK AO2
14837KMSN MSN20041114202509411/14/04 20:25:31  5-MIN KMSN 150225Z 14005KT 10SM CLR 05/M03 A3062 220 55 -800 140/05 RMK AO2
14837KMSN MSN20041114203009511/14/04 20:30:31  5-MIN KMSN 150230Z 14005KT 10SM CLR 04/M03 A3062 220 59 -1000 140/05 RMK AO2
14837KMSN MSN20041114203509511/14/04 20:35:31  5-MIN KMSN 150235Z 15005KT 10SM CLR 03/M03 A3062 220 61 -1100 140/05 RMK AO2
14837KMSN MSN20041114204009511/14/04 20:40:31  5-MIN KMSN 150240Z 15006KT 10SM CLR 04/M03 A3062 220 59 -1000 150/06 RMK AO2
14837KMSN MSN20041114204509511/14/04 20:45:31  5-MIN KMSN 150245Z 16006KT 10SM CLR 03/M03 A3063 220 61 -1100 160/06 RMK AO2
14837KMSN MSN20041114205011811/14/04 20:50:31  5-MIN KMSN 150250Z 16005KT 10SM CLR 04/M03 A3063 220 59 -1000 160/05 RMK AO2 SLP380 T00391033 58006
14837KMSN MSN20041114205509311/14/04 20:55:31  5-MIN KMSN 150255Z 17005KT 9SM CLR 04/M03 A3063 220 59 -900 170/05 RMK AO2
14837KMSN MSN20041114210009311/14/04 21:00:31  5-MIN KMSN 150300Z 17006KT 9SM CLR 05/M03 A3063 220 57 -900 170/06 RMK AO2
14837KMSN MSN20041114210509311/14/04 21:05:31  5-MIN KMSN 150305Z 17006KT 9SM CLR 05/M03 A3063 210 57 -900 170/06 RMK AO2
14837KMSN MSN20041114211009311/14/04 21:10:31  5-MIN KMSN 150310Z 17006KT 9SM CLR 05/M03 A3063 210 57 -900 170/06 RMK AO2
14837KMSN MSN20041114211509311/14/04 21:15:31  5-MIN KMSN 150315Z 16006KT 9SM CLR 05/M03 A3062 220 57 -800 160/06 RMK AO2
14837KMSN MSN20041114212009411/14/04 21:20:31  5-MIN KMSN 150320Z 14007KT 9SM CLR 02/M03 A3062 220 67 -1200 140/07 RMK AO2
14837KMSN MSN20041114212509411/14/04 21:25:31  5-MIN KMSN 150325Z 14006KT 9SM CLR 02/M03 A3062 220 69 -1300 140/06 RMK AO2
14837KMSN MSN20041114213009411/14/04 21:30:31  5-MIN KMSN 150330Z 15005KT 9SM CLR 03/M03 A3062 220 67 -1100 150/05 RMK AO2
14837KMSN MSN20041114213509411/14/04 21:35:31  5-MIN KMSN 150335Z 14003KT 9SM CLR 03/M03 A3062 230 64 -1000 140/03 RMK AO2
14837KMSN MSN20041114214009411/14/04 21:40:31  5-MIN KMSN 150340Z 15004KT 9SM CLR 03/M03 A3062 220 64 -1100 140/04 RMK AO2
14837KMSN MSN20041114214509411/14/04 21:45:31  5-MIN KMSN 150345Z 15003KT 9SM CLR 03/M03 A3062 220 64 -1100 150/03 RMK AO2
14837KMSN MSN20041114215011111/14/04 21:50:31  5-MIN KMSN 150350Z 00000KT 9SM CLR 03/M03 A3062 220 64 -1100 000/00 RMK AO2 SLP378 T00281033
14837KMSN MSN20041114215509411/14/04 21:55:31  5-MIN KMSN 150355Z 00000KT 9SM CLR 03/M03 A3062 220 64 -1100 000/00 RMK AO2
14837KMSN MSN20041114220009411/14/04 22:00:31  5-MIN KMSN 150400Z 19003KT 9SM CLR 02/M03 A3062 220 67 -1200 190/03 RMK AO2
14837KMSN MSN20041114220509411/14/04 22:05:31  5-MIN KMSN 150405Z 17004KT 9SM CLR 02/M03 A3062 220 67 -1200 170/04 RMK AO2
14837KMSN MSN20041114221009411/14/04 22:10:31  5-MIN KMSN 150410Z 16004KT 9SM CLR 03/M03 A3062 220 64 -1100 160/04 RMK AO2
14837KMSN MSN20041114221509411/14/04 22:15:31  5-MIN KMSN 150415Z 15005KT 9SM CLR 03/M03 A3062 230 64 -1000 150/05 RMK AO2
14837KMSN MSN20041114222009411/14/04 22:20:31  5-MIN KMSN 150420Z 16004KT 9SM CLR 02/M03 A3062 220 67 -1200 160/04 RMK AO2
14837KMSN MSN20041114222509411/14/04 22:25:31  5-MIN KMSN 150425Z 17003KT 9SM CLR 03/M03 A3062 220 67 -1100 170/03 RMK AO2
14837KMSN MSN20041114223009411/14/04 22:30:31  5-MIN KMSN 150430Z 18003KT 8SM CLR 02/M03 A3062 220 67 -1200 180/03 RMK AO2
14837KMSN MSN20041114223509411/14/04 22:35:31  5-MIN KMSN 150435Z 18003KT 8SM CLR 02/M03 A3062 220 69 -1300 180/03 RMK AO2
14837KMSN MSN20041114224009411/14/04 22:40:31  5-MIN KMSN 150440Z 00000KT 8SM CLR 02/M03 A3062 220 69 -1300 000/00 RMK AO2
14837KMSN MSN20041114224509411/14/04 22:45:31  5-MIN KMSN 150445Z 15004KT 8SM CLR 03/M03 A3062 220 67 -1100 150/04 RMK AO2
14837KMSN MSN20041114225011111/14/04 22:50:31  5-MIN KMSN 150450Z 14005KT 8SM CLR 03/M03 A3062 220 67 -1100 140/05 RMK AO2 SLP376 T00281028
14837KMSN MSN20041114225509411/14/04 22:55:31  5-MIN KMSN 150455Z 15004KT 8SM CLR 02/M03 A3062 220 67 -1200 150/04 RMK AO2
14837KMSN MSN20041114230009411/14/04 23:00:31  5-MIN KMSN 150500Z 15004KT 8SM CLR 03/M03 A3063 220 67 -1100 150/04 RMK AO2
14837KMSN MSN20041114230509411/14/04 23:05:31  5-MIN KMSN 150505Z 15004KT 8SM CLR 02/M03 A3063 220 69 -1300 150/04 RMK AO2
14837KMSN MSN20041114231009411/14/04 23:10:31  5-MIN KMSN 150510Z 15005KT 8SM CLR 02/M03 A3063 220 69 -1300 150/05 RMK AO2
14837KMSN MSN20041114231509411/14/04 23:15:31  5-MIN KMSN 150515Z 15005KT 8SM CLR 03/M03 A3063 220 67 -1100 150/05 RMK AO2
14837KMSN MSN20041114232009411/14/04 23:20:31  5-MIN KMSN 150520Z 16005KT 8SM CLR 03/M03 A3062 220 67 -1100 160/05 RMK AO2
14837KMSN MSN20041114232509411/14/04 23:25:31  5-MIN KMSN 150525Z 16005KT 8SM CLR 03/M03 A3062 220 67 -1100 150/05 RMK AO2
14837KMSN MSN20041114233009411/14/04 23:30:31  5-MIN KMSN 150530Z 15005KT 8SM CLR 03/M03 A3062 220 67 -1100 150/05 RMK AO2
14837KMSN MSN20041114233509411/14/04 23:35:31  5-MIN KMSN 150535Z 16004KT 8SM CLR 02/M03 A3062 220 69 -1200 160/04 RMK AO2
14837KMSN MSN20041114234009411/14/04 23:40:31  5-MIN KMSN 150540Z 00000KT 8SM CLR 01/M03 A3063 220 72 -1300 000/00 RMK AO2
14837KMSN MSN20041114234509511/14/04 23:45:31  5-MIN KMSN 150545Z 00000KT 8SM CLR M01/M03 A3063 220 81 -1500 000/00 RMK AO2
14837KMSN MSN20041114235014011/14/04 23:50:31  5-MIN KMSN 150550Z 00000KT 8SM CLR M01/M03 A3063 210 81 -1600 000/00 RMK AO2 SLP381 T10061033 10067 21006 401001061 58000
14837KMSN MSN20041114235509411/14/04 23:55:31  5-MIN KMSN 150555Z 00000KT 8SM CLR 01/M04 A3063 210 72 -1400 000/00 RMK AO2
14837KMSN MSN20041115000009411/15/04 00:00:31  5-MIN KMSN 150600Z 00000KT 8SM CLR 01/M03 A3063 210 72 -1300 000/00 RMK AO2
14837KMSN MSN20041115000509411/15/04 00:05:31  5-MIN KMSN 150605Z 00000KT 8SM CLR 01/M03 A3062 220 75 -1400 000/00 RMK AO2
14837KMSN MSN20041115001009411/15/04 00:10:31  5-MIN KMSN 150610Z 00000KT 8SM CLR 01/M03 A3062 220 75 -1400 000/00 RMK AO2
14837KMSN MSN20041115001509411/15/04 00:15:31  5-MIN KMSN 150615Z 00000KT 8SM CLR 00/M04 A3062 230 75 -1500 000/00 RMK AO2
14837KMSN MSN20041115002009511/15/04 00:20:31  5-MIN KMSN 150620Z 00000KT 7SM CLR M01/M03 A3061 230 85 -1500 000/00 RMK AO2
14837KMSN MSN20041115002509511/15/04 00:25:31  5-MIN KMSN 150625Z 00000KT 7SM CLR M01/M03 A3061 230 81 -1500 000/00 RMK AO2
14837KMSN MSN20041115003009511/15/04 00:30:31  5-MIN KMSN 150630Z 00000KT 7SM CLR M01/M03 A3061 230 81 -1500 000/00 RMK AO2
14837KMSN MSN20041115003509511/15/04 00:35:31  5-MIN KMSN 150635Z 00000KT 7SM CLR M01/M03 A3061 230 81 -1500 000/00 RMK AO2
14837KMSN MSN20041115004009511/15/04 00:40:31  5-MIN KMSN 150640Z 00000KT 7SM CLR M01/M03 A3061 230 85 -1500 000/00 RMK AO2
14837KMSN MSN20041115004509411/15/04 00:45:31  5-MIN KMSN 150645Z 00000KT 7SM CLR 00/M03 A3061 230 78 -1500 000/00 RMK AO2
14837KMSN MSN20041115005011211/15/04 00:50:31  5-MIN KMSN 150650Z 00000KT 7SM CLR M01/M03 A3061 230 81 -1500 000/00 RMK AO2 SLP374 T10061033
14837KMSN MSN20041115005509511/15/04 00:55:31  5-MIN KMSN 150655Z 00000KT 7SM CLR M01/M04 A3061 230 78 -1500 000/00 RMK AO2
14837KMSN MSN20041115010009411/15/04 01:00:31  5-MIN KMSN 150700Z 00000KT 7SM CLR 00/M03 A3061 230 78 -1500 000/00 RMK AO2
14837KMSN MSN20041115010509411/15/04 01:05:31  5-MIN KMSN 150705Z 00000KT 7SM CLR 00/M04 A3061 240 75 -1500 000/00 RMK AO2
14837KMSN MSN20041115011009511/15/04 01:10:31  5-MIN KMSN 150710Z 00000KT 7SM CLR M01/M04 A3061 240 78 -1500 000/00 RMK AO2
14837KMSN MSN20041115011509511/15/04 01:15:31  5-MIN KMSN 150715Z 00000KT 7SM CLR M01/M04 A3061 230 81 -1600 000/00 RMK AO2
14837KMSN MSN20041115012009511/15/04 01:20:31  5-MIN KMSN 150720Z 00000KT 7SM CLR M01/M03 A3061 240 81 -1500 000/00 RMK AO2
14837KMSN MSN20041115012509811/15/04 01:25:31  5-MIN KMSN 150725Z 00000KT 7SM FEW047 M01/M03 A3061 240 81 -1500 000/00 RMK AO2
14837KMSN MSN20041115013009711/15/04 01:30:31  5-MIN KMSN 150730Z 11003KT 7SM FEW047 00/M03 A3060 240 78 -1400 110/03 RMK AO2
14837KMSN MSN20041115013509411/15/04 01:35:31  5-MIN KMSN 150735Z 12003KT 7SM CLR 00/M03 A3060 240 78 -1500 120/03 RMK AO2
14837KMSN MSN20041115014009411/15/04 01:40:31  5-MIN KMSN 150740Z 10004KT 7SM CLR 00/M03 A3060 240 78 -1400 100/04 RMK AO2
14837KMSN MSN20041115014509411/15/04 01:45:31  5-MIN KMSN 150745Z 10003KT 7SM CLR 01/M03 A3060 240 75 -1400 100/03 RMK AO2
14837KMSN MSN20041115015011111/15/04 01:50:31  5-MIN KMSN 150750Z 09003KT 8SM CLR 01/M03 A3060 240 75 -1400 090/03 RMK AO2 SLP370 T00061033
14837KMSN MSN20041115015509411/15/04 01:55:31  5-MIN KMSN 150755Z 00000KT 7SM CLR 00/M03 A3060 240 78 -1400 000/00 RMK AO2
14837KMSN MSN20041115020009411/15/04 02:00:31  5-MIN KMSN 150800Z 00000KT 7SM CLR 01/M03 A3060 240 78 -1400 000/00 RMK AO2
14837KMSN MSN20041115020509711/15/04 02:05:31  5-MIN KMSN 150805Z 00000KT 7SM FEW047 01/M03 A3060 240 75 -1400 000/00 RMK AO2
14837KMSN MSN20041115021009711/15/04 02:10:31  5-MIN KMSN 150810Z 00000KT 7SM FEW047 00/M03 A3060 240 78 -1400 000/00 RMK AO2
14837KMSN MSN20041115021509711/15/04 02:15:31  5-MIN KMSN 150815Z 00000KT 8SM FEW047 00/M03 A3059 250 78 -1400 000/00 RMK AO2
14837KMSN MSN20041115022009711/15/04 02:20:31  5-MIN KMSN 150820Z 09003KT 8SM FEW047 00/M03 A3059 250 78 -1400 080/03 RMK AO2
14837KMSN MSN20041115022509711/15/04 02:25:31  5-MIN KMSN 150825Z 09003KT 8SM FEW047 00/M03 A3058 260 81 -1400 090/03 RMK AO2
14837KMSN MSN20041115023009711/15/04 02:30:31  5-MIN KMSN 150830Z 00000KT 7SM FEW047 01/M03 A3058 260 75 -1400 000/00 RMK AO2
14837KMSN MSN20041115023509411/15/04 02:35:31  5-MIN KMSN 150835Z 00000KT 7SM CLR 00/M03 A3058 260 81 -1400 000/00 RMK AO2
14837KMSN MSN20041115024009411/15/04 02:40:31  5-MIN KMSN 150840Z 00000KT 7SM CLR 01/M03 A3058 260 78 -1400 000/00 RMK AO2
14837KMSN MSN20041115024509711/15/04 02:45:31  5-MIN KMSN 150845Z 00000KT 8SM FEW047 01/M03 A3058 260 78 -1400 000/00 RMK AO2
14837KMSN MSN20041115025012111/15/04 02:50:31  5-MIN KMSN 150850Z 00000KT 8SM SCT047 M01/M03 A3058 260 85 -1500 000/00 RMK AO2 SLP363 T10061028 53001
14837KMSN MSN20041115025509811/15/04 02:55:31  5-MIN KMSN 150855Z 00000KT 7SM BKN047 M01/M03 A3058 260 85 -1500 000/00 RMK AO2
14837KMSN MSN20041115030009711/15/04 03:00:31  5-MIN KMSN 150900Z 00000KT 8SM BKN047 01/M03 A3058 260 78 -1300 000/00 RMK AO2
14837KMSN MSN20041115030509711/15/04 03:05:31  5-MIN KMSN 150905Z 00000KT 8SM BKN047 01/M03 A3057 270 78 -1300 000/00 RMK AO2
14837KMSN MSN20041115031009711/15/04 03:10:31  5-MIN KMSN 150910Z 00000KT 8SM BKN049 01/M03 A3057 270 78 -1300 000/00 RMK AO2
14837KMSN MSN20041115031509711/15/04 03:15:31  5-MIN KMSN 150915Z 00000KT 8SM OVC049 00/M02 A3058 260 85 -1400 000/00 RMK AO2
14837KMSN MSN20041115032009711/15/04 03:20:31  5-MIN KMSN 150920Z 00000KT 8SM OVC049 00/M02 A3057 270 85 -1400 000/00 RMK AO2
14837KMSN MSN20041115032509711/15/04 03:25:31  5-MIN KMSN 150925Z 00000KT 8SM BKN049 01/M03 A3057 270 78 -1300 000/00 RMK AO2
14837KMSN MSN20041115033010411/15/04 03:30:31  5-MIN KMSN 150930Z 00000KT 8SM BKN049 BKN085 01/M03 A3057 270 78 -1300 000/00 RMK AO2
14837KMSN MSN20041115033510411/15/04 03:35:31  5-MIN KMSN 150935Z 00000KT 8SM SCT049 BKN085 01/M03 A3057 270 75 -1300 000/00 RMK AO2
14837KMSN MSN20041115034010411/15/04 03:40:31  5-MIN KMSN 150940Z 00000KT 8SM SCT049 BKN085 02/M03 A3057 270 72 -1200 000/00 RMK AO2
14837KMSN MSN20041115034510411/15/04 03:45:31  5-MIN KMSN 150945Z 00000KT 8SM FEW049 BKN085 02/M03 A3057 270 72 -1200 000/00 RMK AO2
14837KMSN MSN20041115035011411/15/04 03:50:31  5-MIN KMSN 150950Z 13003KT 8SM BKN085 01/M02 A3057 270 82 -1300 130/03 RMK AO2 SLP358 T00061022
14837KMSN MSN20041115035509711/15/04 03:55:31  5-MIN KMSN 150955Z 00000KT 8SM BKN085 01/M02 A3056 270 85 -1300 000/00 RMK AO2
14837KMSN MSN20041115040010411/15/04 04:00:31  5-MIN KMSN 151000Z 00000KT 7SM FEW045 BKN085 01/M02 A3057 270 82 -1300 000/00 RMK AO2
14837KMSN MSN20041115040510411/15/04 04:05:31  5-MIN KMSN 151005Z 00000KT 8SM FEW045 BKN085 02/M02 A3057 270 78 -1200 000/00 RMK AO2
14837KMSN MSN20041115041010411/15/04 04:10:31  5-MIN KMSN 151010Z 00000KT 8SM FEW045 BKN085 02/M02 A3057 270 75 -1200 000/00 RMK AO2
14837KMSN MSN20041115041510411/15/04 04:15:31  5-MIN KMSN 151015Z 15003KT 8SM FEW045 BKN085 01/M02 A3057 270 82 -1300 150/03 RMK AO2
14837KMSN MSN20041115042010411/15/04 04:20:31  5-MIN KMSN 151020Z 00000KT 8SM FEW045 BKN085 02/M01 A3057 270 82 -1200 000/00 RMK AO2
14837KMSN MSN20041115042511111/15/04 04:25:31  5-MIN KMSN 151025Z 00000KT 8SM FEW045 SCT060 OVC085 02/M02 A3057 270 78 -1200 000/00 RMK AO2
14837KMSN MSN20041115043010411/15/04 04:30:31  5-MIN KMSN 151030Z 00000KT 8SM SCT060 OVC085 02/M02 A3057 270 78 -1200 000/00 RMK AO2
14837KMSN MSN20041115043510411/15/04 04:35:31  5-MIN KMSN 151035Z 16003KT 8SM SCT060 OVC085 02/M01 A3057 270 78 -1100 160/03 RMK AO2
14837KMSN MSN20041115044010411/15/04 04:40:31  5-MIN KMSN 151040Z 16004KT 8SM SCT060 OVC085 02/M02 A3056 280 75 -1100 150/04 RMK AO2
14837KMSN MSN20041115044510411/15/04 04:45:31  5-MIN KMSN 151045Z 16004KT 8SM SCT060 BKN085 02/M01 A3056 280 78 -1100 150/04 RMK AO2
14837KMSN MSN20041115045012111/15/04 04:50:31  5-MIN KMSN 151050Z 16004KT 8SM SCT060 BKN085 03/M02 A3056 280 72 -1100 160/04 RMK AO2 SLP356 T00281017
14837KMSN MSN20041115045510411/15/04 04:55:31  5-MIN KMSN 151055Z 16004KT 8SM FEW060 SCT085 03/M02 A3056 280 72 -1100 160/04 RMK AO2
14837KMSN MSN20041115050011111/15/04 05:00:31  5-MIN KMSN 151100Z 15004KT 8SM FEW042 SCT060 SCT085 03/M01 A3055 280 75 -1000 150/04 RMK AO2
14837KMSN MSN20041115050509711/15/04 05:05:31  5-MIN KMSN 151105Z 17003KT 8SM FEW042 03/M01 A3056 280 75 -1000 160/03 RMK AO2
14837KMSN MSN20041115051009711/15/04 05:10:31  5-MIN KMSN 151110Z 16003KT 8SM FEW042 03/M01 A3055 280 72 -1000 160/03 RMK AO2
14837KMSN MSN20041115051510411/15/04 05:15:31  5-MIN KMSN 151115Z 16004KT 8SM FEW042 SCT055 03/M01 A3055 280 72 -1000 160/04 RMK AO2
14837KMSN MSN20041115052010411/15/04 05:20:31  5-MIN KMSN 151120Z 15003KT 8SM SCT042 BKN055 03/M02 A3055 290 70 -1000 150/03 RMK AO2
14837KMSN MSN20041115052510411/15/04 05:25:31  5-MIN KMSN 151125Z 16004KT 8SM BKN042 BKN055 03/M01 A3055 290 75 -1000 160/04 RMK AO2
14837KMSN MSN20041115053010411/15/04 05:30:31  5-MIN KMSN 151130Z 16004KT 8SM BKN042 BKN055 03/M01 A3055 290 72 -1000 160/04 RMK AO2
14837KMSN MSN20041115053510411/15/04 05:35:31  5-MIN KMSN 151135Z 15004KT 8SM BKN042 OVC055 03/M01 A3055 290 72 -1000 150/04 RMK AO2
14837KMSN MSN20041115054009711/15/04 05:40:31  5-MIN KMSN 151140Z 15003KT 8SM OVC042 03/M01 A3054 290 72 -1000 150/03 RMK AO2
14837KMSN MSN20041115054509711/15/04 05:45:31  5-MIN KMSN 151145Z 15003KT 8SM OVC042 03/M01 A3055 290 72 -1000 150/03 RMK AO2
14837KMSN MSN20041115055013211/15/04 05:50:31  5-MIN KMSN 151150Z 15003KT 8SM OVC042 03/M01 A3054 290 76 -1000 150/03 RMK AO2 SLP351 T00331006 10033 21011 58017
14837KMSN MSN20041115055509711/15/04 05:55:31  5-MIN KMSN 151155Z 15003KT 8SM OVC042 03/M01 A3055 290 76 -1000 150/03 RMK AO2
14837KMSN MSN20041115060009711/15/04 06:00:31  5-MIN KMSN 151200Z 16003KT 8SM OVC042 03/M01 A3055 290 72 -1000 160/03 RMK AO2
14837KMSN MSN20041115060509711/15/04 06:05:31  5-MIN KMSN 151205Z 17004KT 8SM OVC042 03/M01 A3055 290 76 -1000 170/04 RMK AO2
14837KMSN MSN20041115061009611/15/04 06:10:31  5-MIN KMSN 151210Z 17005KT 8SM OVC042 04/M01 A3055 290 73 -900 170/05 RMK AO2
14837KMSN MSN20041115061509611/15/04 06:15:31  5-MIN KMSN 151215Z 17006KT 8SM OVC042 04/M01 A3055 290 70 -900 170/06 RMK AO2
14837KMSN MSN20041115062009611/15/04 06:20:31  5-MIN KMSN 151220Z 16005KT 8SM OVC042 04/M01 A3055 290 70 -900 160/05 RMK AO2
14837KMSN MSN20041115062509611/15/04 06:25:31  5-MIN KMSN 151225Z 17006KT 8SM OVC044 04/M01 A3055 280 70 -900 170/06 RMK AO2
14837KMSN MSN20041115063009611/15/04 06:30:31  5-MIN KMSN 151230Z 17004KT 8SM OVC044 04/M01 A3055 280 73 -900 170/04 RMK AO2
14837KMSN MSN20041115063509611/15/04 06:35:31  5-MIN KMSN 151235Z 18004KT 8SM OVC044 04/M01 A3056 280 73 -900 170/04 RMK AO2
14837KMSN MSN20041115064009611/15/04 06:40:31  5-MIN KMSN 151240Z 19003KT 8SM OVC046 04/M01 A3056 280 70 -900 190/03 RMK AO2
14837KMSN MSN20041115064509611/15/04 06:45:31  5-MIN KMSN 151245Z 17003KT 8SM OVC046 04/M01 A3056 280 73 -900 170/03 RMK AO2
14837KMSN MSN20041115065011311/15/04 06:50:31  5-MIN KMSN 151250Z 16003KT 8SM OVC046 04/M01 A3056 280 73 -900 160/03 RMK AO2 SLP355 T00391006
14837KMSN MSN20041115065509511/15/04 06:55:31  5-MIN KMSN 151255Z 18004KT 8SM OVC046 04/00 A3056 280 76 -900 180/04 RMK AO2
14837KMSN MSN20041115070009611/15/04 07:00:31  5-MIN KMSN 151300Z 18005KT 8SM OVC046 04/M01 A3056 280 70 -800 180/05 RMK AO2
14837KMSN MSN20041115070509611/15/04 07:05:31  5-MIN KMSN 151305Z 18005KT 8SM OVC046 04/M01 A3056 280 70 -800 180/05 RMK AO2
14837KMSN MSN20041115071009511/15/04 07:10:31  5-MIN KMSN 151310Z 17004KT 8SM OVC046 04/00 A3056 280 73 -800 170/04 RMK AO2
14837KMSN MSN20041115071509611/15/04 07:15:31  5-MIN KMSN 151315Z 16005KT 8SM OVC046 04/M01 A3056 280 70 -800 160/05 RMK AO2
14837KMSN MSN20041115072009511/15/04 07:20:31  5-MIN KMSN 151320Z 18004KT 8SM OVC046 04/00 A3056 280 73 -800 180/04 RMK AO2
14837KMSN MSN20041115072509511/15/04 07:25:31  5-MIN KMSN 151325Z 16005KT 8SM OVC046 04/00 A3056 280 73 -800 160/05 RMK AO2
14837KMSN MSN20041115073009511/15/04 07:30:31  5-MIN KMSN 151330Z 16005KT 8SM OVC046 04/00 A3056 280 73 -800 160/05 RMK AO2
14837KMSN MSN20041115073509511/15/04 07:35:31  5-MIN KMSN 151335Z 16006KT 7SM OVC046 04/00 A3056 280 73 -800 160/06 RMK AO2
14837KMSN MSN20041115074009511/15/04 07:40:31  5-MIN KMSN 151340Z 16005KT 7SM OVC046 05/00 A3056 270 70 -800 160/05 RMK AO2
14837KMSN MSN20041115074509511/15/04 07:45:31  5-MIN KMSN 151345Z 16005KT 7SM OVC046 04/00 A3056 270 73 -800 160/05 RMK AO2
14837KMSN MSN20041115075011211/15/04 07:50:31  5-MIN KMSN 151350Z 16005KT 7SM OVC046 04/00 A3056 280 73 -800 160/05 RMK AO2 SLP356 T00440000
14837KMSN MSN20041115075509511/15/04 07:55:31  5-MIN KMSN 151355Z 15004KT 7SM OVC046 04/00 A3056 280 73 -800 150/04 RMK AO2
14837KMSN MSN20041115080009511/15/04 08:00:31  5-MIN KMSN 151400Z 15005KT 7SM OVC046 05/01 A3056 280 73 -800 150/05 RMK AO2
14837KMSN MSN20041115080509511/15/04 08:05:31  5-MIN KMSN 151405Z 16003KT 7SM OVC046 05/01 A3056 280 73 -800 160/03 RMK AO2
14837KMSN MSN20041115081009511/15/04 08:10:31  5-MIN KMSN 151410Z 16005KT 7SM OVC046 05/00 A3056 280 70 -800 160/05 RMK AO2
14837KMSN MSN20041115081509511/15/04 08:15:31  5-MIN KMSN 151415Z 17006KT 7SM OVC046 06/00 A3055 280 67 -700 170/06 RMK AO2
14837KMSN MSN20041115082009511/15/04 08:20:31  5-MIN KMSN 151420Z 17006KT 7SM OVC046 06/00 A3055 280 67 -700 170/06 RMK AO2
14837KMSN MSN20041115082509611/15/04 08:25:31  5-MIN KMSN 151425Z 17005KT 7SM BKN048 06/M01 A3055 280 65 -700 170/05 RMK AO2
14837KMSN MSN20041115083009511/15/04 08:30:31  5-MIN KMSN 151430Z 17005KT 7SM BKN048 06/00 A3055 290 67 -700 170/05 RMK AO2
14837KMSN MSN20041115083509611/15/04 08:35:31  5-MIN KMSN 151435Z 17005KT 7SM BKN048 06/M01 A3055 290 62 -600 170/05 RMK AO2
14837KMSN MSN20041115084009511/15/04 08:40:31  5-MIN KMSN 151440Z 17005KT 7SM BKN048 06/00 A3055 290 65 -600 170/05 RMK AO2
14837KMSN MSN20041115084509611/15/04 08:45:31  5-MIN KMSN 151445Z 18006KT 8SM BKN048 06/M01 A3055 280 62 -600 180/06 RMK AO2
14837KMSN MSN20041115085011911/15/04 08:50:31  5-MIN KMSN 151450Z 19005KT 7SM BKN048 06/M01 A3056 280 62 -600 190/05 RMK AO2 SLP355 T00611006 58011
14837KMSN MSN20041115085510511/15/04 08:55:31  5-MIN KMSN 151455Z 18006KT 7SM -RA BKN048 06/00 A3055 280 65 -600 180/06 RMK AO2 P0000
14837KMSN MSN20041115090011211/15/04 09:00:31  5-MIN KMSN 151500Z 18005KT 7SM -RA BKN048 BKN085 06/00 A3055 290 65 -600 180/05 RMK AO2 P0000
14837KMSN MSN20041115090511211/15/04 09:05:31  5-MIN KMSN 151505Z 17006KT 7SM -RA SCT048 BKN075 06/00 A3055 290 65 -600 170/06 RMK AO2 P0000
14837KMSN MSN20041115091011211/15/04 09:10:31  5-MIN KMSN 151510Z 20004KT 7SM -RA SCT048 BKN075 06/00 A3055 280 65 -600 200/04 RMK AO2 P0000
14837KMSN MSN20041115091511211/15/04 09:15:31  5-MIN KMSN 151515Z 20005KT 7SM -RA FEW048 BKN075 06/00 A3056 280 65 -600 200/05 RMK AO2 P0000
14837KMSN MSN20041115092011211/15/04 09:20:31  5-MIN KMSN 151520Z 19007KT 8SM -RA FEW046 BKN075 06/01 A3055 280 67 -600 190/07 RMK AO2 P0000
14837KMSN MSN20041115092510511/15/04 09:25:31  5-MIN KMSN 151525Z 19005KT 7SM -RA BKN070 06/01 A3055 280 67 -600 190/05 RMK AO2 P0000
14837KMSN MSN20041115093010511/15/04 09:30:31  5-MIN KMSN 151530Z 18006KT 7SM -RA OVC070 06/01 A3056 280 67 -600 180/06 RMK AO2 P0000
14837KMSN MSN20041115093510511/15/04 09:35:31  5-MIN KMSN 151535Z 18006KT 7SM -RA OVC070 06/01 A3055 290 67 -600 180/06 RMK AO2 P0000
14837KMSN MSN20041115094010511/15/04 09:40:31  5-MIN KMSN 151540Z 19006KT 7SM -RA OVC070 06/01 A3055 280 70 -600 190/06 RMK AO2 P0000
14837KMSN MSN20041115094510511/15/04 09:45:31  5-MIN KMSN 151545Z 19006KT 6SM -RA OVC070 06/01 A3055 280 70 -600 190/06 RMK AO2 P0000
14837KMSN MSN20041115095012911/15/04 09:50:31  5-MIN KMSN 151550Z 18006KT 6SM -RA FEW044 OVC070 06/01 A3055 280 70 -600 180/06 RMK AO2 SLP354 P0000 T00610011
14837KMSN MSN20041115095511811/15/04 09:55:31  5-MIN KMSN 151555Z 17006KT 5SM -RA SCT042 OVC070 06/02 A3055 290 73 -600 170/06 RMK AO2 RAB54 P0000
14837KMSN MSN20041115100012711/15/04 10:00:31  5-MIN KMSN 151600Z 17006KT 5SM -RA FEW032 BKN041 OVC065 06/02 A3055 290 73 -600 160/06 RMK AO2 RAB1554 P0000
14837KMSN MSN20041115100512711/15/04 10:05:31  5-MIN KMSN 151605Z 18006KT 4SM -RA SCT030 BKN041 BKN065 06/02 A3055 290 76 -600 180/06 RMK AO2 RAB1554 P0000
14837KMSN MSN20041115101012711/15/04 10:10:31  5-MIN KMSN 151610Z 18006KT 5SM -RA FEW030 BKN043 BKN065 06/02 A3055 290 76 -600 180/06 RMK AO2 RAB1554 P0000
14837KMSN MSN20041115101512711/15/04 10:15:31  5-MIN KMSN 151615Z 19006KT 4SM -RA FEW030 BKN043 OVC065 06/02 A3055 280 76 -600 190/06 RMK AO2 RAB1554 P0000
14837KMSN MSN20041115102012711/15/04 10:20:31  5-MIN KMSN 151620Z 20004KT 3SM -RA FEW028 BKN043 OVC065 06/02 A3055 280 76 -600 200/04 RMK AO2 RAB1554 P0001
14837KMSN MSN20041115102512711/15/04 10:25:31  5-MIN KMSN 151625Z 20003KT 3SM -RA FEW028 BKN041 OVC065 06/03 A3055 280 79 -600 200/03 RMK AO2 RAB1554 P0001
14837KMSN MSN20041115103012711/15/04 10:30:31  5-MIN KMSN 151630Z 22003KT 4SM -RA FEW024 BKN041 OVC065 06/03 A3055 280 79 -600 210/03 RMK AO2 RAB1554 P0001
14837KMSN MSN20041115103512011/15/04 10:35:31  5-MIN KMSN 151635Z 18003KT 3SM -RA BKN036 OVC043 06/03 A3055 290 79 -600 180/03 RMK AO2 RAB1554 P0001
14837KMSN MSN20041115104011311/15/04 10:40:31  5-MIN KMSN 151640Z 19004KT 4SM -RA OVC038 06/03 A3055 290 79 -600 190/04 RMK AO2 RAB1554 P0001
14837KMSN MSN20041115104512011/15/04 10:45:31  5-MIN KMSN 151645Z 23003KT 4SM -RA FEW029 OVC038 06/03 A3055 280 82 -700 230/03 RMK AO2 RAB1554 P0001
14837KMSN MSN20041115105014011/15/04 10:50:31  5-MIN KMSN 151650Z 00000KT 4SM -RA BR SCT029 OVC038 06/03 A3055 280 85 -700 000/00 RMK AO2 RAB1554 SLP354 P0001 T00560033
14837KMSN MSN20041115105511211/15/04 10:55:31  5-MIN KMSN 151655Z 19003KT 4SM -RA BKN030 OVC036 06/03 A3055 290 82 -600 180/03 RMK AO2 P0000
14837KMSN MSN20041115110011211/15/04 11:00:31  5-MIN KMSN 151700Z 19003KT 4SM -RA BKN030 OVC036 06/03 A3055 290 82 -600 190/03 RMK AO2 P0000
14837KMSN MSN20041115110511211/15/04 11:05:31  5-MIN KMSN 151705Z 00000KT 4SM -RA BKN030 OVC036 06/03 A3055 280 82 -600 000/00 RMK AO2 P0000
14837KMSN MSN20041115111010811/15/04 11:10:31  5-MIN KMSN 151710Z VRB03KT 4SM -RA BR OVC030 06/04 A3055 290 86 -600 VRB/03 RMK AO2 P0000
14837KMSN MSN20041115111510811/15/04 11:15:31  5-MIN KMSN 151715Z 00000KT 4SM -RA BR OVC030 06/04 A3055 290 86 -600 000/00 RMK AO2 P0000
14837KMSN MSN20041115112010511/15/04 11:20:31  5-MIN KMSN 151720Z 00000KT 4SM -RA OVC030 06/03 A3054 290 82 -600 000/00 RMK AO2 P0000
14837KMSN MSN20041115112510811/15/04 11:25:31  5-MIN KMSN 151725Z 00000KT 4SM -RA BR OVC028 06/04 A3054 290 86 -600 000/00 RMK AO2 P0000
14837KMSN MSN20041115113010811/15/04 11:30:31  5-MIN KMSN 151730Z 00000KT 4SM -RA BR OVC028 06/04 A3054 300 86 -600 000/00 RMK AO2 P0000
14837KMSN MSN20041115113510811/15/04 11:35:31  5-MIN KMSN 151735Z 18003KT 3SM -RA BR OVC028 06/04 A3053 300 86 -600 180/03 RMK AO2 P0001
14837KMSN MSN20041115114010811/15/04 11:40:31  5-MIN KMSN 151740Z 19004KT 3SM -RA BR OVC028 06/04 A3053 310 86 -600 180/04 RMK AO2 P0001
14837KMSN MSN20041115114510811/15/04 11:45:31  5-MIN KMSN 151745Z 18004KT 3SM -RA BR OVC028 06/04 A3053 310 86 -600 180/04 RMK AO2 P0001
14837KMSN MSN20041115115014911/15/04 11:50:31  5-MIN KMSN 151750Z 18004KT 3SM -RA BR OVC028 06/04 A3052 310 89 -600 180/04 RMK AO2 SLP345 P0001 60002 T00610044 10061 20033 50003
14837KMSN MSN20041115115510811/15/04 11:55:31  5-MIN KMSN 151755Z 19005KT 3SM -RA BR OVC028 06/04 A3052 310 89 -600 190/05 RMK AO2 P0000
14837KMSN MSN20041115120010811/15/04 12:00:31  5-MIN KMSN 151800Z 19006KT 3SM -RA BR OVC028 06/04 A3052 310 89 -600 180/06 RMK AO2 P0000
14837KMSN MSN20041115120510811/15/04 12:05:31  5-MIN KMSN 151805Z 18006KT 3SM -RA BR OVC028 06/04 A3051 320 89 -600 180/06 RMK AO2 P0000
14837KMSN MSN20041115121010811/15/04 12:10:31  5-MIN KMSN 151810Z 19004KT 3SM -RA BR OVC028 06/04 A3051 320 89 -600 190/04 RMK AO2 P0000
14837KMSN MSN20041115121510811/15/04 12:15:31  5-MIN KMSN 151815Z 19005KT 3SM -RA BR OVC028 07/04 A3051 320 86 -500 180/05 RMK AO2 P0000
14837KMSN MSN20041115122010811/15/04 12:20:31  5-MIN KMSN 151820Z 19005KT 3SM -RA BR OVC028 07/04 A3051 320 86 -500 190/05 RMK AO2 P0000
14837KMSN MSN20041115122510811/15/04 12:25:31  5-MIN KMSN 151825Z 18004KT 3SM -RA BR OVC028 07/04 A3051 320 86 -500 180/04 RMK AO2 P0000
14837KMSN MSN20041115123011511/15/04 12:30:31  5-MIN KMSN 151830Z 18005KT 3SM -RA BR BKN028 OVC035 07/05 A3051 330 89 -500 180/05 RMK AO2 P0000
14837KMSN MSN20041115123511511/15/04 12:35:31  5-MIN KMSN 151835Z 19004KT 3SM -RA BR BKN028 OVC035 07/05 A3050 330 89 -500 190/04 RMK AO2 P0000
14837KMSN MSN20041115124010811/15/04 12:40:31  5-MIN KMSN 151840Z 19005KT 3SM -RA BR OVC030 07/05 A3050 330 89 -500 180/05 RMK AO2 P0000
14837KMSN MSN20041115124512211/15/04 12:45:31  5-MIN KMSN 151845Z 17006KT 3SM -RA BR BKN030 BKN036 OVC055 07/05 A3049 340 89 -500 170/06 RMK AO2 P0000
14837KMSN MSN20041115125013911/15/04 12:50:31  5-MIN KMSN 151850Z 18005KT 3SM -RA BR SCT030 BKN036 OVC055 07/05 A3049 340 89 -500 180/05 RMK AO2 SLP334 P0000 T00670050
14837KMSN MSN20041115125512211/15/04 12:55:31  5-MIN KMSN 151855Z 18005KT 3SM -RA BR SCT030 BKN055 OVC075 07/05 A3049 340 89 -500 180/05 RMK AO2 P0000
14837KMSN MSN20041115130012211/15/04 13:00:31  5-MIN KMSN 151900Z 18005KT 3SM -RA BR FEW030 BKN055 BKN075 07/05 A3049 340 89 -500 180/05 RMK AO2 P0000
14837KMSN MSN20041115130513611/15/04 13:05:31  5-MIN KMSN 151905Z 18004KT 2 1/2SM -RA BR FEW030 SCT055 BKN070 07/05 A3049 340 89 -500 180/04 RMK AO2 SFC VIS 3 P0000
14837KMSN MSN20041115131013611/15/04 13:10:31  5-MIN KMSN 151910Z 17005KT 2 1/2SM -RA BR FEW041 SCT060 BKN075 07/05 A3049 340 89 -500 170/05 RMK AO2 SFC VIS 3 P0000
14837KMSN MSN20041115131513611/15/04 13:15:31  5-MIN KMSN 151915Z 16005KT 2 1/2SM -RA BR FEW041 BKN060 BKN075 07/06 A3048 350 93 -500 160/05 RMK AO2 SFC VIS 3 P0000
14837KMSN MSN20041115132013611/15/04 13:20:31  5-MIN KMSN 151920Z 18006KT 2 1/2SM -RA BR FEW039 BKN060 BKN075 07/06 A3048 350 93 -500 170/06 RMK AO2 SFC VIS 3 P0001
14837KMSN MSN20041115132512611/15/04 13:25:31  5-MIN KMSN 151925Z 18006KT 2 1/2SM -RA BR SCT032 BKN060 BKN070 07/05 A3048 350 89 -500 180/06 RMK AO2 P0001
14837KMSN MSN20041115133011911/15/04 13:30:31  5-MIN KMSN 151930Z 18005KT 2 1/2SM -RA BR SCT032 OVC065 07/06 A3048 350 93 -500 180/05 RMK AO2 P0001
14837KMSN MSN20041115133512911/15/04 13:35:31  5-MIN KMSN 151935Z 17005KT 1 3/4SM -RA BR BKN032 OVC065 07/06 A3048 350 93 -500 170/05 RMK AO2 TWR VIS 2 P0002
14837KMSN MSN20041115134011911/15/04 13:40:31  5-MIN KMSN 151940Z 18005KT 1 3/4SM -RA BR SCT032 OVC060 07/06 A3048 360 93 -500 180/05 RMK AO2 P0002
14837KMSN MSN20041115134513311/15/04 13:45:31  5-MIN KMSN 151945Z 16006KT 1 3/4SM -RA BR SCT032 OVC060 07/06 A3047 360 93 -500 160/06 RMK AO2 SFC VIS 2 1/2 P0002
14837KMSN MSN20041115135015311/15/04 13:50:31  5-MIN KMSN 151950Z 17005KT 2SM -RA BR FEW030 SCT042 OVC055 07/06 A3047 360 93 -500 170/05 RMK AO2 SFC VIS 2 1/2 SLP327 P0002 T00670056
14837KMSN MSN20041115135512211/15/04 13:55:31  5-MIN KMSN 151955Z 18005KT 2SM -RA BR FEW032 BKN042 OVC055 07/06 A3047 360 93 -500 180/05 RMK AO2 P0000
14837KMSN MSN20041115140013611/15/04 14:00:31  5-MIN KMSN 152000Z 17005KT 1 3/4SM -RA BR SCT029 BKN042 OVC055 07/06 A3047 360 93 -500 160/05 RMK AO2 TWR VIS 2 P0000
14837KMSN MSN20041115140512211/15/04 14:05:31  5-MIN KMSN 152005Z 15006KT 2SM -RA BR SCT027 BKN042 OVC055 07/06 A3046 370 93 -500 150/06 RMK AO2 P0000
14837KMSN MSN20041115141012211/15/04 14:10:31  5-MIN KMSN 152010Z 15006KT 2SM -RA BR SCT025 BKN042 OVC055 07/06 A3046 370 96 -500 150/06 RMK AO2 P0000
14837KMSN MSN20041115141512211/15/04 14:15:31  5-MIN KMSN 152015Z 17006KT 2SM -RA BR SCT025 BKN044 OVC055 07/06 A3046 370 96 -500 170/06 RMK AO2 P0000
14837KMSN MSN20041115142012211/15/04 14:20:31  5-MIN KMSN 152020Z 16006KT 2SM -RA BR BKN025 BKN048 OVC060 07/06 A3046 370 93 -500 160/06 RMK AO2 P0001
14837KMSN MSN20041115142512211/15/04 14:25:31  5-MIN KMSN 152025Z 17006KT 2SM -RA BR BKN025 BKN048 OVC060 07/06 A3046 370 93 -500 170/06 RMK AO2 P0001
14837KMSN MSN20041115143012211/15/04 14:30:31  5-MIN KMSN 152030Z 16005KT 2SM -RA BR BKN025 BKN048 OVC060 07/06 A3046 370 93 -500 160/05 RMK AO2 P0001
14837KMSN MSN20041115143512211/15/04 14:35:31  5-MIN KMSN 152035Z 15005KT 2SM -RA BR SCT006 BKN025 OVC048 07/06 A3045 370 93 -400 150/05 RMK AO2 P0001
14837KMSN MSN20041115144012211/15/04 14:40:31  5-MIN KMSN 152040Z 15005KT 2SM -RA BR SCT006 BKN025 OVC048 07/06 A3045 380 93 -400 150/05 RMK AO2 P0001
14837KMSN MSN20041115144512211/15/04 14:45:31  5-MIN KMSN 152045Z 16005KT 2SM -RA BR FEW006 BKN027 OVC045 07/06 A3045 380 93 -400 160/05 RMK AO2 P0001
14837KMSN MSN20041115145014611/15/04 14:50:31  5-MIN KMSN 152050Z 16005KT 2SM BR FEW006 OVC027 07/06 A3044 380 93 -400 160/05 RMK AO2 RAE50 SLP318 P0001 60004 T00670056 58011
14837KMSN MSN20041115145512611/15/04 14:55:31  5-MIN KMSN 152055Z 16005KT 2SM -RA BR FEW006 OVC027 07/06 A3044 380 93 -400 160/05 RMK AO2 DZE54RAB54 P0000
14837KMSN MSN20041115150011511/15/04 15:00:31  5-MIN KMSN 152100Z 15006KT 2SM -RA BR SCT006 OVC030 07/06 A3044 390 96 -400 150/06 RMK AO2 P0000
14837KMSN MSN20041115150512911/15/04 15:05:31  5-MIN KMSN 152105Z 15006KT 1 3/4SM -RA BR FEW006 OVC030 07/06 A3044 390 96 -400 150/06 RMK AO2 TWR VIS 2 P0000
14837KMSN MSN20041115151011511/15/04 15:10:31  5-MIN KMSN 152110Z 15007KT 2SM -RA BR FEW006 OVC030 07/06 A3044 390 96 -400 150/07 RMK AO2 P0000
14837KMSN MSN20041115151511911/15/04 15:15:31  5-MIN KMSN 152115Z 15007KT 1 1/2SM -RA BR FEW006 OVC030 07/06 A3043 390 93 -400 150/07 RMK AO2 P0000
14837KMSN MSN20041115152011911/15/04 15:20:31  5-MIN KMSN 152120Z 15007KT 1 1/2SM -RA BR FEW006 OVC030 07/06 A3043 390 96 -400 150/07 RMK AO2 P0000
14837KMSN MSN20041115152513311/15/04 15:25:31  5-MIN KMSN 152125Z 15006KT 1 1/4SM -RA BR SCT006 OVC032 07/06 A3044 390 96 -400 140/06 RMK AO2 TWR VIS 1 1/2 P0000
14837KMSN MSN20041115153014011/15/04 15:30:31  5-MIN KMSN 152130Z 15006KT 1 1/4SM -RA BR SCT006 SCT026 OVC032 07/06 A3044 390 96 -400 150/06 RMK AO2 TWR VIS 1 1/2 P0000
14837KMSN MSN20041115153514011/15/04 15:35:31  5-MIN KMSN 152135Z 16007KT 1 1/4SM -RA BR FEW006 BKN024 OVC032 07/06 A3043 390 96 -400 160/07 RMK AO2 TWR VIS 1 1/2 P0000
14837KMSN MSN20041115154013711/15/04 15:40:31  5-MIN KMSN 152140Z 16006KT 1 1/2SM -DZ BR SCT006 BKN024 OVC032 07/06 A3043 390 96 -400 160/06 RMK AO2 RAE35DZB35 P0000
14837KMSN MSN20041115154514711/15/04 15:45:31  5-MIN KMSN 152145Z 17004KT 1SM -DZ BR SCT006 BKN016 OVC034 07/06 A3044 390 96 -400 170/04 RMK AO2 TWR VIS 1 1/2 RAE35DZB35 P0000
14837KMSN MSN20041115155016411/15/04 15:50:31  5-MIN KMSN 152150Z 16005KT 1SM -DZ BR BKN006 BKN016 OVC024 07/06 A3044 390 96 -400 160/05 RMK AO2 TWR VIS 1 1/2 SLP315 RAE35DZB35 P0001 T00670061
14837KMSN MSN20041115155512211/15/04 15:55:31  5-MIN KMSN 152155Z 16006KT 1SM -DZ BR BKN006 BKN016 OVC024 07/06 A3043 390 96 -400 160/06 RMK AO2 P0000
14837KMSN MSN20041115160012211/15/04 16:00:31  5-MIN KMSN 152200Z 15006KT 1SM -DZ BR BKN006 BKN016 OVC022 07/06 A3043 400 96 -400 150/06 RMK AO2 P0000
14837KMSN MSN20041115160511511/15/04 16:05:31  5-MIN KMSN 152205Z 16007KT 1SM -DZ BR BKN006 OVC018 07/06 A3043 400 96 -400 160/07 RMK AO2 P0000
14837KMSN MSN20041115161010811/15/04 16:10:31  5-MIN KMSN 152210Z 17006KT 1SM -DZ BR OVC006 07/06 A3042 400 96 -400 170/06 RMK AO2 P0000
14837KMSN MSN20041115161510811/15/04 16:15:31  5-MIN KMSN 152215Z 16007KT 1SM -DZ BR OVC006 07/06 A3042 400 96 -400 160/07 RMK AO2 P0000
14837KMSN MSN20041115162010811/15/04 16:20:31  5-MIN KMSN 152220Z 17006KT 1SM -DZ BR OVC006 07/06 A3042 400 96 -400 170/06 RMK AO2 P0000
14837KMSN MSN20041115162510811/15/04 16:25:31  5-MIN KMSN 152225Z 16006KT 1SM -DZ BR OVC006 07/06 A3042 400 96 -400 160/06 RMK AO2 P0000
14837KMSN MSN20041115163010811/15/04 16:30:31  5-MIN KMSN 152230Z 16005KT 1SM -DZ BR OVC006 07/06 A3042 400 96 -400 160/05 RMK AO2 P0000
14837KMSN MSN20041115163510811/15/04 16:35:31  5-MIN KMSN 152235Z 16006KT 1SM -DZ BR OVC006 07/06 A3042 410 96 -400 160/06 RMK AO2 P0000
14837KMSN MSN20041115164010811/15/04 16:40:31  5-MIN KMSN 152240Z 16006KT 2SM -DZ BR OVC006 07/06 A3042 410 96 -400 150/06 RMK AO2 P0000
14837KMSN MSN20041115164510811/15/04 16:45:31  5-MIN KMSN 152245Z 16006KT 2SM -DZ BR OVC006 07/06 A3042 410 96 -400 160/06 RMK AO2 P0000
14837KMSN MSN20041115165012511/15/04 16:50:31  5-MIN KMSN 152250Z 16007KT 2SM -DZ BR OVC006 07/06 A3041 410 96 -400 150/07 RMK AO2 SLP306 P0000 T00670061
14837KMSN MSN20041115165511211/15/04 16:55:31  5-MIN KMSN 152255Z 16008KT 2SM BR OVC006 07/06 A3041 410 96 -400 160/08 RMK AO2 SFC VIS 2 1/2
14837KMSN MSN20041115170011211/15/04 17:00:31  5-MIN KMSN 152300Z 16007KT 2SM BR OVC006 07/06 A3041 410 96 -400 160/07 RMK AO2 SFC VIS 2 1/2
14837KMSN MSN20041115170511211/15/04 17:05:31  5-MIN KMSN 152305Z 16008KT 2SM BR OVC006 07/06 A3041 410 96 -400 160/08 RMK AO2 SFC VIS 2 1/2
14837KMSN MSN20041115171011911/15/04 17:10:31  5-MIN KMSN 152310Z 16009KT 2SM BR BKN006 OVC032 07/06 A3041 410 96 -400 160/09 RMK AO2 SFC VIS 2 1/2
14837KMSN MSN20041115171512611/15/04 17:15:31  5-MIN KMSN 152315Z 18008KT 2SM BR BKN006 BKN017 OVC032 07/06 A3041 410 96 -400 180/08 RMK AO2 SFC VIS 2 1/2
14837KMSN MSN20041115172011911/15/04 17:20:31  5-MIN KMSN 152320Z 18008KT 2SM BR SCT006 OVC017 07/06 A3041 410 96 -400 180/08 RMK AO2 SFC VIS 2 1/2
14837KMSN MSN20041115172511911/15/04 17:25:31  5-MIN KMSN 152325Z 18008KT 2SM BR SCT006 OVC017 07/06 A3041 420 96 -400 180/08 RMK AO2 SFC VIS 2 1/2
14837KMSN MSN20041115173012611/15/04 17:30:31  5-MIN KMSN 152330Z 18009KT 2SM BR SCT006 BKN017 OVC032 07/06 A3041 420 93 -400 180/09 RMK AO2 SFC VIS 2 1/2
14837KMSN MSN20041115173512611/15/04 17:35:31  5-MIN KMSN 152335Z 18010KT 2SM BR FEW006 BKN017 OVC032 07/06 A3041 410 93 -400 180/10 RMK AO2 SFC VIS 2 1/2
14837KMSN MSN20041115174012611/15/04 17:40:31  5-MIN KMSN 152340Z 18009KT 2SM BR FEW006 BKN017 OVC032 07/06 A3041 410 93 -400 180/09 RMK AO2 SFC VIS 2 1/2
14837KMSN MSN20041115174511911/15/04 17:45:31  5-MIN KMSN 152345Z 18009KT 2SM BR FEW006 OVC017 07/06 A3041 410 93 -400 180/09 RMK AO2 SFC VIS 2 1/2
14837KMSN MSN20041115175016011/15/04 17:50:31  5-MIN KMSN 152350Z 18008KT 2SM BR SCT006 OVC017 07/06 A3041 410 93 -400 180/08 RMK AO2 SFC VIS 2 1/2 SLP307 60005 T00670056 10072 20061 56026
14837KMSN MSN20041115175511811/15/04 17:55:31  5-MIN KMSN 152355Z 18006KT 2 1/2SM DZ BR SCT006 OVC017 07/06 A3042 410 93 -400 180/06 RMK AO2 P0000
14837KMSN MSN20041115180011811/15/04 18:00:31  5-MIN KMSN 160000Z 19006KT 2 1/2SM DZ BR BKN006 OVC017 07/06 A3042 410 93 -400 190/06 RMK AO2 P0000
14837KMSN MSN20041115180511811/15/04 18:05:31  5-MIN KMSN 160005Z 18007KT 2 1/2SM DZ BR BKN006 OVC017 07/06 A3042 410 93 -400 180/07 RMK AO2 P0000
14837KMSN MSN20041115181011811/15/04 18:10:31  5-MIN KMSN 160010Z 18006KT 2 1/2SM DZ BR BKN006 OVC017 07/06 A3042 410 93 -400 180/06 RMK AO2 P0000
14837KMSN MSN20041115181512311/15/04 18:15:31  5-MIN KMSN 160015Z 18008KT 2 1/2SM DZ BR OVC006 06/06 A3042 410 96 -500 180/08 RMK AO2 CIG 005V009 P0000
14837KMSN MSN20041115182012311/15/04 18:20:31  5-MIN KMSN 160020Z 18009KT 2 1/2SM DZ BR OVC006 06/06 A3042 410 96 -500 180/09 RMK AO2 CIG 005V009 P0000
14837KMSN MSN20041115182512311/15/04 18:25:31  5-MIN KMSN 160025Z 18007KT 2 1/2SM DZ BR OVC006 06/06 A3042 410 96 -500 170/07 RMK AO2 CIG 005V009 P0000
14837KMSN MSN20041115183012311/15/04 18:30:31  5-MIN KMSN 160030Z 18007KT 2 1/2SM DZ BR OVC006 06/06 A3041 410 96 -500 180/07 RMK AO2 CIG 005V009 P0000
14837KMSN MSN20041115183512311/15/04 18:35:31  5-MIN KMSN 160035Z 18008KT 2 1/2SM DZ BR OVC006 06/06 A3041 410 96 -500 180/08 RMK AO2 CIG 005V009 P0000
14837KMSN MSN20041115184013311/15/04 18:40:31  5-MIN KMSN 160040Z 17009KT 2SM DZ BR OVC006 06/06 A3041 410 96 -500 170/09 RMK AO2 TWR VIS 2 1/2 CIG 005V009 P0000
14837KMSN MSN20041115184512111/15/04 18:45:31  5-MIN KMSN 160045Z 17007KT 2SM DZ BR OVC006 06/06 A3041 410 96 -500 170/07 RMK AO2 TWR VIS 2 1/2 P0000
14837KMSN MSN20041115185015011/15/04 18:50:31  5-MIN KMSN 160050Z 18008KT 2SM DZ BR OVC006 06/06 A3041 410 96 -500 180/08 RMK AO2 TWR VIS 2 1/2 CIG 005V009 SLP307 P0000 T00610056
14837KMSN MSN20041115185513311/15/04 18:55:31  5-MIN KMSN 160055Z 18007KT 2SM DZ BR OVC006 06/06 A3042 410 96 -500 180/07 RMK AO2 TWR VIS 2 1/2 CIG 003V009 P0000
14837KMSN MSN20041115190013311/15/04 19:00:31  5-MIN KMSN 160100Z 18007KT 2SM DZ BR OVC006 06/06 A3041 410 96 -500 180/07 RMK AO2 TWR VIS 2 1/2 CIG 003V009 P0000
14837KMSN MSN20041115190513311/15/04 19:05:31  5-MIN KMSN 160105Z 18008KT 2SM DZ BR OVC006 06/06 A3042 410 96 -500 180/08 RMK AO2 TWR VIS 2 1/2 CIG 003V009 P0000
14837KMSN MSN20041115191013711/15/04 19:10:31  5-MIN KMSN 160110Z 18008KT 1 3/4SM DZ BR OVC006 06/06 A3042 410 96 -500 180/08 RMK AO2 TWR VIS 2 1/2 CIG 003V009 P0000
14837KMSN MSN20041115191512111/15/04 19:15:31  5-MIN KMSN 160115Z 19008KT 2SM DZ BR OVC006 06/06 A3042 410 96 -500 190/08 RMK AO2 TWR VIS 2 1/2 P0000
14837KMSN MSN20041115192013311/15/04 19:20:31  5-MIN KMSN 160120Z 19007KT 2SM DZ BR OVC006 06/06 A3042 410 96 -500 190/07 RMK AO2 TWR VIS 2 1/2 CIG 003V009 P0000
14837KMSN MSN20041115192513711/15/04 19:25:31  5-MIN KMSN 160125Z 19008KT 1 3/4SM DZ BR OVC006 07/06 A3042 410 93 -400 190/08 RMK AO2 TWR VIS 2 1/2 CIG 004V009 P0000
14837KMSN MSN20041115193013711/15/04 19:30:31  5-MIN KMSN 160130Z 18008KT 1 3/4SM DZ BR OVC006 07/06 A3042 410 93 -400 180/08 RMK AO2 TWR VIS 2 1/2 CIG 004V009 P0000
14837KMSN MSN20041115193512511/15/04 19:35:31  5-MIN KMSN 160135Z 18009KT 1 3/4SM DZ BR OVC006 07/06 A3041 410 93 -400 180/09 RMK AO2 TWR VIS 2 1/2 P0001
14837KMSN MSN20041115194012511/15/04 19:40:31  5-MIN KMSN 160140Z 19008KT 1 3/4SM DZ BR OVC006 07/06 A3042 410 93 -400 190/08 RMK AO2 TWR VIS 2 1/2 P0001
14837KMSN MSN20041115194512511/15/04 19:45:31  5-MIN KMSN 160145Z 19008KT 1 3/4SM DZ BR OVC006 07/06 A3041 410 93 -400 190/08 RMK AO2 TWR VIS 2 1/2 P0001
14837KMSN MSN20041115195014911/15/04 19:50:31  5-MIN KMSN 160150Z 19007KT 1 3/4SM DZ BR BKN008 OVC016 07/06 A3041 410 93 -400 180/07 RMK AO2 TWR VIS 2 1/2 SLP306 P0001 T00670056
14837KMSN MSN20041115195513311/15/04 19:55:31  5-MIN KMSN 160155Z 18007KT 1 3/4SM -RA BR BKN008 OVC016 07/06 A3041 410 93 -400 180/07 RMK AO2 TWR VIS 2 1/2 P0000
14837KMSN MSN20041115200012911/15/04 20:00:31  5-MIN KMSN 160200Z 18007KT 2SM -RA BR BKN008 OVC016 07/06 A3041 410 93 -400 180/07 RMK AO2 TWR VIS 2 1/2 P0000
14837KMSN MSN20041115200514211/15/04 20:05:31  5-MIN KMSN 160205Z 19007KT 1 3/4SM BR BKN005 BKN008 OVC016 07/06 A3041 410 93 -400 180/07 RMK AO2 TWR VIS 2 1/2 RAE01 P0000
14837KMSN MSN20041115201014011/15/04 20:10:31  5-MIN KMSN 160210Z 18007KT 1 3/4SM -RA BR BKN005 BKN009 OVC016 07/06 A3041 420 93 -400 180/07 RMK AO2 TWR VIS 2 1/2 P0000
14837KMSN MSN20041115201514511/15/04 20:15:31  5-MIN KMSN 160215Z 18008KT 1 3/4SM -RA BR BKN005 OVC016 07/06 A3041 420 93 -400 180/08 RMK AO2 TWR VIS 2 1/2 CIG 004V010 P0000
14837KMSN MSN20041115202014511/15/04 20:20:31  5-MIN KMSN 160220Z 17007KT 1 3/4SM -RA BR BKN007 OVC016 06/06 A3041 420 96 -500 170/07 RMK AO2 TWR VIS 2 1/2 CIG 004V010 P0000
14837KMSN MSN20041115202514511/15/04 20:25:31  5-MIN KMSN 160225Z 17007KT 1 3/4SM -RA BR BKN007 OVC016 06/06 A3041 420 96 -500 170/07 RMK AO2 TWR VIS 2 1/2 CIG 004V011 P0000
14837KMSN MSN20041115203014111/15/04 20:30:31  5-MIN KMSN 160230Z 17007KT 2SM -RA BR BKN007 OVC014 06/06 A3041 420 96 -500 170/07 RMK AO2 TWR VIS 2 1/2 CIG 004V009 P0000
14837KMSN MSN20041115203514411/15/04 20:35:31  5-MIN KMSN 160235Z 17007KT 2SM DZ BR OVC007 06/06 A3041 420 96 -500 170/07 RMK AO2 TWR VIS 2 1/2 RAE33DZB33 CIG 004V011 P0000
14837KMSN MSN20041115204014811/15/04 20:40:31  5-MIN KMSN 160240Z 17007KT 1 3/4SM DZ BR OVC007 06/06 A3040 420 96 -500 170/07 RMK AO2 TWR VIS 2 1/2 RAE33DZB33 CIG 004V011 P0001
14837KMSN MSN20041115204515511/15/04 20:45:31  5-MIN KMSN 160245Z 17007KT 1 3/4SM DZ BR BKN007 OVC016 06/06 A3040 420 96 -500 170/07 RMK AO2 TWR VIS 2 1/2 RAE33DZB33 CIG 005V011 P0001
14837KMSN MSN20041115205018011/15/04 20:50:31  5-MIN KMSN 160250Z 17007KT 2SM DZ BR BKN007 OVC018 07/06 A3040 420 93 -400 170/07 RMK AO2 TWR VIS 2 1/2 RAE33DZB33 CIG 005V011 SLP302 P0001 60002 T00670056 55009
14837KMSN MSN20041115205513011/15/04 20:55:31  5-MIN KMSN 160255Z 18007KT 2 1/2SM DZ BR BKN007 OVC018 07/06 A3040 420 93 -400 180/07 RMK AO2 CIG 005V010 P0000
14837KMSN MSN20041115210013011/15/04 21:00:31  5-MIN KMSN 160300Z 18008KT 2 1/2SM DZ BR BKN007 OVC018 07/06 A3040 430 93 -400 180/08 RMK AO2 CIG 005V010 P0000
14837KMSN MSN20041115210513111/15/04 21:05:31  5-MIN KMSN 160305Z 18008KT 2 1/2SM BR SCT007 OVC018 07/06 A3039 430 93 -400 180/08 RMK AO2 SFC VIS 3 DZE05 P0000
14837KMSN MSN20041115211013111/15/04 21:10:31  5-MIN KMSN 160310Z 18007KT 2 1/2SM BR SCT007 OVC018 07/06 A3039 430 93 -400 180/07 RMK AO2 SFC VIS 3 DZE05 P0000
14837KMSN MSN20041115211513111/15/04 21:15:31  5-MIN KMSN 160315Z 18008KT 2 1/2SM BR SCT007 OVC018 07/06 A3039 430 93 -400 180/08 RMK AO2 SFC VIS 3 DZE05 P0000
14837KMSN MSN20041115212014311/15/04 21:20:31  5-MIN KMSN 160320Z 18008KT 2 1/2SM BR BKN009 OVC018 07/06 A3039 430 93 -400 180/08 RMK AO2 SFC VIS 3 DZE05 CIG 005V011 P0000
14837KMSN MSN20041115212514311/15/04 21:25:31  5-MIN KMSN 160325Z 18007KT 2 1/2SM BR BKN007 OVC018 07/06 A3040 430 93 -400 180/07 RMK AO2 SFC VIS 3 DZE05 CIG 006V011 P0000
14837KMSN MSN20041115213014311/15/04 21:30:31  5-MIN KMSN 160330Z 18007KT 2 1/2SM BR BKN007 OVC018 07/06 A3039 430 93 -400 180/07 RMK AO2 SFC VIS 3 DZE05 CIG 006V011 P0000
14837KMSN MSN20041115213513111/15/04 21:35:31  5-MIN KMSN 160335Z 18007KT 2 1/2SM BR BKN007 OVC010 07/06 A3039 430 93 -400 180/07 RMK AO2 SFC VIS 3 DZE05 P0000
14837KMSN MSN20041115214013111/15/04 21:40:31  5-MIN KMSN 160340Z 18008KT 2 1/2SM BR BKN007 OVC010 07/06 A3039 440 93 -400 180/08 RMK AO2 SFC VIS 3 DZE05 P0000
14837KMSN MSN20041115214512411/15/04 21:45:31  5-MIN KMSN 160345Z 18008KT 2 1/2SM BR OVC007 07/06 A3038 440 93 -400 180/08 RMK AO2 SFC VIS 3 DZE05 P0000
14837KMSN MSN20041115215013111/15/04 21:50:31  5-MIN KMSN 160350Z 18008KT 2 1/2SM BR OVC007 07/06 A3038 440 93 -400 180/08 RMK AO2 DZE05 SLP295 P0000 T00670056
14837KMSN MSN20041115215510211/15/04 21:55:31  5-MIN KMSN 160355Z 19008KT 2 1/2SM BR OVC007 07/06 A3038 440 93 -400 180/08 RMK AO2
14837KMSN MSN20041115220010211/15/04 22:00:31  5-MIN KMSN 160400Z 18008KT 2 1/2SM BR OVC007 07/06 A3038 440 93 -400 180/08 RMK AO2
14837KMSN MSN20041115220510211/15/04 22:05:31  5-MIN KMSN 160405Z 19007KT 2 1/2SM BR OVC007 07/06 A3038 450 96 -400 190/07 RMK AO2
14837KMSN MSN20041115221010211/15/04 22:10:31  5-MIN KMSN 160410Z 19006KT 2 1/2SM BR OVC005 07/06 A3038 440 96 -400 190/06 RMK AO2
14837KMSN MSN20041115221510211/15/04 22:15:31  5-MIN KMSN 160415Z 18007KT 2 1/2SM BR OVC005 07/06 A3037 450 96 -400 180/07 RMK AO2
14837KMSN MSN20041115222010211/15/04 22:20:31  5-MIN KMSN 160420Z 18007KT 2 1/2SM BR OVC005 07/06 A3037 450 96 -400 180/07 RMK AO2
14837KMSN MSN20041115222510211/15/04 22:25:31  5-MIN KMSN 160425Z 17005KT 2 1/2SM BR OVC005 07/06 A3037 450 96 -400 170/05 RMK AO2
14837KMSN MSN20041115223010211/15/04 22:30:31  5-MIN KMSN 160430Z 17005KT 2 1/2SM BR OVC005 07/06 A3037 450 96 -400 170/05 RMK AO2
14837KMSN MSN20041115223510211/15/04 22:35:31  5-MIN KMSN 160435Z 18004KT 2 1/2SM BR OVC005 07/06 A3037 450 96 -400 170/04 RMK AO2
14837KMSN MSN20041115224010211/15/04 22:40:31  5-MIN KMSN 160440Z 18004KT 2 1/2SM BR OVC005 07/06 A3036 460 96 -300 180/04 RMK AO2
14837KMSN MSN20041115224510211/15/04 22:45:31  5-MIN KMSN 160445Z 18005KT 2 1/2SM BR OVC005 07/06 A3037 460 96 -300 180/05 RMK AO2
14837KMSN MSN20041115225011911/15/04 22:50:31  5-MIN KMSN 160450Z 17005KT 2 1/2SM BR OVC005 07/06 A3036 460 96 -300 170/05 RMK AO2 SLP288 T00670061
14837KMSN MSN20041115225510211/15/04 22:55:31  5-MIN KMSN 160455Z 17005KT 2 1/2SM BR OVC005 07/06 A3036 460 96 -300 170/05 RMK AO2
14837KMSN MSN20041115230010211/15/04 23:00:31  5-MIN KMSN 160500Z 19005KT 2 1/2SM BR OVC005 07/06 A3036 460 96 -300 180/05 RMK AO2
14837KMSN MSN20041115230510211/15/04 23:05:31  5-MIN KMSN 160505Z 18005KT 2 1/2SM BR OVC005 07/06 A3036 460 96 -300 180/05 RMK AO2
14837KMSN MSN20041115231010211/15/04 23:10:31  5-MIN KMSN 160510Z 18006KT 2 1/2SM BR OVC005 07/06 A3036 460 93 -300 180/06 RMK AO2
14837KMSN MSN20041115231510211/15/04 23:15:31  5-MIN KMSN 160515Z 18006KT 2 1/2SM BR OVC005 07/06 A3036 460 93 -300 180/06 RMK AO2
14837KMSN MSN20041115232010211/15/04 23:20:31  5-MIN KMSN 160520Z 19006KT 2 1/2SM BR OVC005 07/06 A3036 460 93 -300 190/06 RMK AO2
14837KMSN MSN20041115232510211/15/04 23:25:31  5-MIN KMSN 160525Z 20005KT 2 1/2SM BR OVC005 07/06 A3035 460 93 -300 200/05 RMK AO2
14837KMSN MSN20041115233010211/15/04 23:30:31  5-MIN KMSN 160530Z 19006KT 2 1/2SM BR OVC005 07/06 A3035 470 93 -300 190/06 RMK AO2
14837KMSN MSN20041115233510211/15/04 23:35:31  5-MIN KMSN 160535Z 19005KT 2 1/2SM BR OVC005 07/06 A3035 470 93 -300 190/05 RMK AO2
14837KMSN MSN20041115234010211/15/04 23:40:31  5-MIN KMSN 160540Z 19006KT 2 1/2SM BR OVC005 07/06 A3035 470 93 -300 190/06 RMK AO2
14837KMSN MSN20041115234511211/15/04 23:45:31  5-MIN KMSN 160545Z 19005KT 2SM BR OVC005 07/07 A3035 470 96 -300 190/05 RMK AO2 TWR VIS 2 1/2
14837KMSN MSN20041115235016311/15/04 23:50:31  5-MIN KMSN 160550Z 20006KT 2SM BR OVC005 07/07 A3035 470 96 -300 200/06 RMK AO2 TWR VIS 2 1/2 SLP285 60002 T00720067 10072 20061 400721011 58005
14837KMSN MSN20041115235509811/15/04 23:55:31  5-MIN KMSN 160555Z 19006KT 2SM BR OVC005 07/07 A3035 470 96 -300 190/06 RMK AO2
14837KMSN MSN20041116000010211/16/04 00:00:31  5-MIN KMSN 160600Z 19006KT 2 1/2SM BR OVC005 07/07 A3035 470 96 -300 190/06 RMK AO2
14837KMSN MSN20041116000510211/16/04 00:05:31  5-MIN KMSN 160605Z 19006KT 2 1/2SM BR OVC005 07/07 A3035 470 96 -300 190/06 RMK AO2
14837KMSN MSN20041116001010211/16/04 00:10:31  5-MIN KMSN 160610Z 19006KT 2 1/2SM BR OVC005 07/07 A3035 470 96 -300 190/06 RMK AO2
14837KMSN MSN20041116001510211/16/04 00:15:31  5-MIN KMSN 160615Z 19005KT 2 1/2SM BR OVC005 07/07 A3035 470 96 -300 190/05 RMK AO2
14837KMSN MSN20041116002010211/16/04 00:20:31  5-MIN KMSN 160620Z 19006KT 2 1/2SM BR OVC005 07/07 A3035 470 96 -300 190/06 RMK AO2
14837KMSN MSN20041116002510211/16/04 00:25:31  5-MIN KMSN 160625Z 19006KT 2 1/2SM BR OVC005 07/07 A3035 470 96 -300 190/06 RMK AO2
14837KMSN MSN20041116003010211/16/04 00:30:31  5-MIN KMSN 160630Z 19005KT 2 1/2SM BR OVC005 07/07 A3035 470 96 -300 190/05 RMK AO2
14837KMSN MSN20041116003510211/16/04 00:35:31  5-MIN KMSN 160635Z 19006KT 2 1/2SM BR OVC005 07/07 A3035 470 96 -300 190/06 RMK AO2
14837KMSN MSN20041116004010211/16/04 00:40:31  5-MIN KMSN 160640Z 19005KT 2 1/2SM BR OVC005 07/07 A3034 470 96 -300 190/05 RMK AO2
14837KMSN MSN20041116004510211/16/04 00:45:31  5-MIN KMSN 160645Z 19006KT 2 1/2SM BR OVC005 07/07 A3034 480 96 -300 190/06 RMK AO2
14837KMSN MSN20041116005011911/16/04 00:50:31  5-MIN KMSN 160650Z 18004KT 2 1/2SM BR OVC005 07/07 A3034 480 96 -300 180/04 RMK AO2 SLP280 T00720067
14837KMSN MSN20041116005509811/16/04 00:55:31  5-MIN KMSN 160655Z 19004KT 2SM BR OVC005 07/07 A3034 480 96 -300 190/04 RMK AO2
14837KMSN MSN20041116010009811/16/04 01:00:31  5-MIN KMSN 160700Z 18004KT 2SM BR OVC005 07/07 A3034 480 96 -300 180/04 RMK AO2
14837KMSN MSN20041116010509811/16/04 01:05:31  5-MIN KMSN 160705Z 19005KT 2SM BR OVC005 07/07 A3034 480 96 -300 190/05 RMK AO2
14837KMSN MSN20041116011009811/16/04 01:10:31  5-MIN KMSN 160710Z 18005KT 2SM BR OVC005 07/07 A3034 480 96 -300 180/05 RMK AO2
14837KMSN MSN20041116011509811/16/04 01:15:31  5-MIN KMSN 160715Z 19005KT 2SM BR OVC005 07/07 A3034 480 96 -300 180/05 RMK AO2
14837KMSN MSN20041116012009811/16/04 01:20:31  5-MIN KMSN 160720Z 19005KT 2SM BR OVC005 07/07 A3034 480 96 -200 190/05 RMK AO2
14837KMSN MSN20041116012509811/16/04 01:25:31  5-MIN KMSN 160725Z 19006KT 2SM BR OVC005 07/07 A3034 480 96 -300 180/06 RMK AO2
14837KMSN MSN20041116013009811/16/04 01:30:31  5-MIN KMSN 160730Z 18005KT 2SM BR OVC005 08/07 A3034 480 93 -200 180/05 RMK AO2
14837KMSN MSN20041116013509811/16/04 01:35:31  5-MIN KMSN 160735Z 19006KT 2SM BR OVC005 08/07 A3034 480 93 -200 180/06 RMK AO2
14837KMSN MSN20041116014009811/16/04 01:40:31  5-MIN KMSN 160740Z 19007KT 2SM BR OVC005 08/07 A3034 480 93 -200 190/07 RMK AO2
14837KMSN MSN20041116014509811/16/04 01:45:31  5-MIN KMSN 160745Z 19007KT 2SM BR OVC005 08/07 A3034 480 93 -200 190/07 RMK AO2
14837KMSN MSN20041116015011511/16/04 01:50:31  5-MIN KMSN 160750Z 19007KT 2SM BR OVC005 08/07 A3033 480 93 -200 190/07 RMK AO2 SLP277 T00780067
14837KMSN MSN20041116015509811/16/04 01:55:31  5-MIN KMSN 160755Z 19007KT 2SM BR OVC005 08/07 A3033 490 93 -200 190/07 RMK AO2
14837KMSN MSN20041116020009811/16/04 02:00:31  5-MIN KMSN 160800Z 19008KT 2SM BR OVC005 08/07 A3033 490 93 -200 180/08 RMK AO2
14837KMSN MSN20041116020509811/16/04 02:05:31  5-MIN KMSN 160805Z 19008KT 2SM BR OVC005 08/07 A3033 490 93 -200 190/08 RMK AO2
14837KMSN MSN20041116021009811/16/04 02:10:31  5-MIN KMSN 160810Z 19008KT 2SM BR OVC005 08/07 A3033 490 93 -200 190/08 RMK AO2
14837KMSN MSN20041116021509811/16/04 02:15:31  5-MIN KMSN 160815Z 19008KT 2SM BR OVC005 08/07 A3033 490 96 -200 190/08 RMK AO2
14837KMSN MSN20041116022009811/16/04 02:20:31  5-MIN KMSN 160820Z 19007KT 2SM BR OVC005 08/07 A3033 490 96 -200 190/07 RMK AO2
14837KMSN MSN20041116022509811/16/04 02:25:31  5-MIN KMSN 160825Z 19005KT 2SM BR OVC005 08/07 A3032 490 96 -200 190/05 RMK AO2
14837KMSN MSN20041116023009811/16/04 02:30:31  5-MIN KMSN 160830Z 19005KT 2SM BR OVC005 08/07 A3033 490 96 -200 190/05 RMK AO2
14837KMSN MSN20041116023509811/16/04 02:35:31  5-MIN KMSN 160835Z 19006KT 2SM BR OVC005 08/07 A3032 490 96 -200 190/06 RMK AO2
14837KMSN MSN20041116024009811/16/04 02:40:31  5-MIN KMSN 160840Z 19006KT 2SM BR OVC005 08/07 A3032 490 96 -200 190/06 RMK AO2
14837KMSN MSN20041116024509811/16/04 02:45:31  5-MIN KMSN 160845Z 20005KT 2SM BR OVC005 08/07 A3032 490 96 -200 200/05 RMK AO2
14837KMSN MSN20041116025012111/16/04 02:50:31  5-MIN KMSN 160850Z 19004KT 2SM BR OVC005 08/07 A3032 490 96 -200 190/04 RMK AO2 SLP273 T00780072 56016
14837KMSN MSN20041116025509811/16/04 02:55:31  5-MIN KMSN 160855Z 19004KT 2SM BR OVC005 08/07 A3032 490 93 -100 190/04 RMK AO2
14837KMSN MSN20041116030009811/16/04 03:00:31  5-MIN KMSN 160900Z 19005KT 2SM BR OVC005 08/07 A3032 490 93 -100 190/05 RMK AO2
14837KMSN MSN20041116030509811/16/04 03:05:31  5-MIN KMSN 160905Z 20005KT 2SM BR OVC005 08/07 A3032 490 93 -100 200/05 RMK AO2
14837KMSN MSN20041116031010211/16/04 03:10:31  5-MIN KMSN 160910Z 20004KT 2 1/2SM BR OVC005 08/07 A3032 500 93 -100 200/04 RMK AO2
14837KMSN MSN20041116031510211/16/04 03:15:31  5-MIN KMSN 160915Z 22004KT 2 1/2SM BR OVC005 08/07 A3032 500 93 -100 210/04 RMK AO2
14837KMSN MSN20041116032010211/16/04 03:20:31  5-MIN KMSN 160920Z 21005KT 2 1/2SM BR OVC005 08/07 A3032 490 93 -100 210/05 RMK AO2
14837KMSN MSN20041116032510211/16/04 03:25:31  5-MIN KMSN 160925Z 21004KT 2 1/2SM BR OVC005 08/07 A3032 500 93 -100 210/04 RMK AO2
14837KMSN MSN20041116033010211/16/04 03:30:31  5-MIN KMSN 160930Z 21004KT 2 1/2SM BR OVC007 08/07 A3032 500 93 -100 210/04 RMK AO2
14837KMSN MSN20041116033510211/16/04 03:35:31  5-MIN KMSN 160935Z 22004KT 2 1/2SM BR OVC007 08/07 A3032 500 93 -100 220/04 RMK AO2
14837KMSN MSN20041116034010211/16/04 03:40:31  5-MIN KMSN 160940Z 21005KT 2 1/2SM BR OVC007 08/07 A3032 500 93 -100 210/05 RMK AO2
14837KMSN MSN20041116034510211/16/04 03:45:31  5-MIN KMSN 160945Z VRB03KT 2 1/2SM BR OVC007 08/07 A3032 500 93 -100 VRB/03 RMK AO2
14837KMSN MSN20041116035011911/16/04 03:50:31  5-MIN KMSN 160950Z 22004KT 2 1/2SM BR OVC007 08/07 A3032 500 93 -100 220/04 RMK AO2 SLP272 T00830072
14837KMSN MSN20041116035510211/16/04 03:55:31  5-MIN KMSN 160955Z VRB04KT 2 1/2SM BR OVC007 08/07 A3032 500 93 -100 VRB/04 RMK AO2
14837KMSN MSN20041116040010211/16/04 04:00:31  5-MIN KMSN 161000Z 21003KT 2 1/2SM BR OVC007 08/07 A3032 500 93 -100 210/03 RMK AO2
14837KMSN MSN20041116040510211/16/04 04:05:31  5-MIN KMSN 161005Z 21004KT 2 1/2SM BR OVC007 08/07 A3032 500 93 -100 210/04 RMK AO2
14837KMSN MSN20041116041009811/16/04 04:10:31  5-MIN KMSN 161010Z 21003KT 3SM BR OVC007 08/07 A3032 500 93 -100 210/03 RMK AO2
14837KMSN MSN20041116041510211/16/04 04:15:31  5-MIN KMSN 161015Z 19003KT 2 1/2SM BR OVC007 08/07 A3032 500 93 -100 190/03 RMK AO2
14837KMSN MSN20041116042010211/16/04 04:20:31  5-MIN KMSN 161020Z 20003KT 2 1/2SM BR OVC007 08/07 A3032 500 93 -100 200/03 RMK AO2
14837KMSN MSN20041116042510211/16/04 04:25:31  5-MIN KMSN 161025Z 21003KT 2 1/2SM BR OVC007 08/07 A3032 500 93 -100 210/03 RMK AO2
14837KMSN MSN20041116043010211/16/04 04:30:31  5-MIN KMSN 161030Z 00000KT 2 1/2SM BR OVC007 08/07 A3032 500 93 -100 000/00 RMK AO2
14837KMSN MSN20041116043510211/16/04 04:35:31  5-MIN KMSN 161035Z 21004KT 2 1/2SM BR OVC007 08/07 A3032 500 93 -100 200/04 RMK AO2
14837KMSN MSN20041116044010211/16/04 04:40:31  5-MIN KMSN 161040Z 20004KT 2 1/2SM BR OVC007 08/07 A3032 500 93 -100 200/04 RMK AO2
14837KMSN MSN20041116044510211/16/04 04:45:31  5-MIN KMSN 161045Z 20004KT 2 1/2SM BR OVC007 08/07 A3032 500 93 -100 200/04 RMK AO2
14837KMSN MSN20041116045011911/16/04 04:50:31  5-MIN KMSN 161050Z 19004KT 2 1/2SM BR OVC007 08/07 A3032 500 93 -100 190/04 RMK AO2 SLP271 T00830072
14837KMSN MSN20041116045510211/16/04 04:55:31  5-MIN KMSN 161055Z 19003KT 2 1/2SM BR OVC007 08/07 A3032 500 93 -100 190/03 RMK AO2
14837KMSN MSN20041116050010211/16/04 05:00:31  5-MIN KMSN 161100Z 21003KT 2 1/2SM BR OVC007 08/07 A3032 500 93 -100 210/03 RMK AO2
14837KMSN MSN20041116050510211/16/04 05:05:31  5-MIN KMSN 161105Z 00000KT 2 1/2SM BR OVC007 08/07 A3032 500 93 -100 000/00 RMK AO2
14837KMSN MSN20041116051010211/16/04 05:10:31  5-MIN KMSN 161110Z 20003KT 2 1/2SM BR OVC007 08/07 A3032 500 93 -100 200/03 RMK AO2
14837KMSN MSN20041116051510211/16/04 05:15:31  5-MIN KMSN 161115Z 00000KT 2 1/2SM BR OVC007 08/07 A3032 500 93 -100 000/00 RMK AO2
14837KMSN MSN20041116052010211/16/04 05:20:31  5-MIN KMSN 161120Z 19003KT 2 1/2SM BR OVC007 08/07 A3032 500 93 -100 190/03 RMK AO2
14837KMSN MSN20041116052510211/16/04 05:25:31  5-MIN KMSN 161125Z 19003KT 2 1/2SM BR OVC007 08/07 A3032 500 93 -100 190/03 RMK AO2
14837KMSN MSN20041116053010211/16/04 05:30:31  5-MIN KMSN 161130Z 18003KT 2 1/2SM BR OVC007 08/07 A3032 500 93 -100 180/03 RMK AO2
14837KMSN MSN20041116053510211/16/04 05:35:31  5-MIN KMSN 161135Z 19004KT 2 1/2SM BR OVC007 08/07 A3032 500 93 -100 180/04 RMK AO2
14837KMSN MSN20041116054010211/16/04 05:40:31  5-MIN KMSN 161140Z 19004KT 2 1/2SM BR OVC007 08/07 A3032 500 93 -100 190/04 RMK AO2
14837KMSN MSN20041116054510211/16/04 05:45:31  5-MIN KMSN 161145Z 19004KT 2 1/2SM BR OVC007 08/07 A3032 500 93 -100 180/04 RMK AO2
14837KMSN MSN20041116055014311/16/04 05:50:31  5-MIN KMSN 161150Z 18004KT 2 1/2SM BR OVC007 08/07 A3032 500 93 -100 180/04 RMK AO2 SLP271 70010 T00830072 10083 20072 56010
14837KMSN MSN20041116055510211/16/04 05:55:31  5-MIN KMSN 161155Z 19004KT 2 1/2SM BR OVC007 08/07 A3032 500 93 -100 190/04 RMK AO2
14837KMSN MSN20041116060010211/16/04 06:00:31  5-MIN KMSN 161200Z 19003KT 2 1/2SM BR OVC007 08/07 A3032 500 93 -100 190/03 RMK AO2
14837KMSN MSN20041116060510211/16/04 06:05:31  5-MIN KMSN 161205Z 00000KT 2 1/2SM BR OVC007 08/07 A3032 500 93 -100 000/00 RMK AO2
14837KMSN MSN20041116061010211/16/04 06:10:31  5-MIN KMSN 161210Z 19003KT 2 1/2SM BR OVC007 08/07 A3032 500 93 -100 190/03 RMK AO2
14837KMSN MSN20041116061510211/16/04 06:15:31  5-MIN KMSN 161215Z 19004KT 2 1/2SM BR OVC007 08/07 A3032 500 93 -100 180/04 RMK AO2
14837KMSN MSN20041116062010211/16/04 06:20:31  5-MIN KMSN 161220Z 18004KT 2 1/2SM BR OVC007 08/07 A3031 500 93 -100 180/04 RMK AO2
14837KMSN MSN20041116062510211/16/04 06:25:31  5-MIN KMSN 161225Z 19004KT 2 1/2SM BR OVC007 08/08 A3031 500 96 -100 190/04 RMK AO2
14837KMSN MSN20041116063010211/16/04 06:30:31  5-MIN KMSN 161230Z 19005KT 2 1/2SM BR OVC007 08/08 A3031 500 96 -100 190/05 RMK AO2
14837KMSN MSN20041116063511611/16/04 06:35:31  5-MIN KMSN 161235Z 19004KT 1 1/2SM BR OVC007 08/08 A3031 510 96 -100 190/04 RMK AO2 TWR VIS 2 1/2
14837KMSN MSN20041116064011611/16/04 06:40:31  5-MIN KMSN 161240Z 19004KT 1 1/2SM BR OVC007 08/08 A3031 510 96 -100 190/04 RMK AO2 TWR VIS 2 1/2
14837KMSN MSN20041116064511211/16/04 06:45:31  5-MIN KMSN 161245Z 20003KT 1 1/2SM BR OVC007 08/08 A3031 510 96 -100 190/03 RMK AO2 TWR VIS 2
14837KMSN MSN20041116065012911/16/04 06:50:31  5-MIN KMSN 161250Z 19004KT 1 1/2SM BR OVC007 08/08 A3031 510 96 -100 190/04 RMK AO2 TWR VIS 2 SLP269 T00830078
14837KMSN MSN20041116065511211/16/04 06:55:31  5-MIN KMSN 161255Z 19003KT 1 1/2SM BR OVC007 08/08 A3031 510 96 -100 190/03 RMK AO2 TWR VIS 2
14837KMSN MSN20041116070011211/16/04 07:00:31  5-MIN KMSN 161300Z 19004KT 1 1/2SM BR OVC007 08/08 A3031 510 96 -100 190/04 RMK AO2 TWR VIS 2
14837KMSN MSN20041116070511211/16/04 07:05:31  5-MIN KMSN 161305Z 19004KT 1 1/2SM BR OVC005 08/08 A3031 510 96 -100 190/04 RMK AO2 TWR VIS 2
14837KMSN MSN20041116071011211/16/04 07:10:31  5-MIN KMSN 161310Z 18004KT 1 1/2SM BR OVC005 08/08 A3030 510 96 -100 180/04 RMK AO2 TWR VIS 2
14837KMSN MSN20041116071511211/16/04 07:15:31  5-MIN KMSN 161315Z 19005KT 1 1/2SM BR OVC005 08/08 A3031 510 96 -100 190/05 RMK AO2 TWR VIS 2
14837KMSN MSN20041116072011211/16/04 07:20:31  5-MIN KMSN 161320Z 17004KT 1 1/2SM BR OVC005 08/08 A3031 510 96 -100 170/04 RMK AO2 TWR VIS 2
14837KMSN MSN20041116072511211/16/04 07:25:31  5-MIN KMSN 161325Z 17004KT 1 1/2SM BR OVC005 08/08 A3030 510 96 -100 170/04 RMK AO2 TWR VIS 2
14837KMSN MSN20041116073011611/16/04 07:30:31  5-MIN KMSN 161330Z 18005KT 1 1/4SM BR OVC005 08/08 A3030 510 96 -100 180/05 RMK AO2 SFC VIS 1 1/2
14837KMSN MSN20041116073511211/16/04 07:35:31  5-MIN KMSN 161335Z 17004KT 1SM BR OVC005 08/08 A3030 510 96 -100 170/04 RMK AO2 TWR VIS 1 1/4
14837KMSN MSN20041116074011211/16/04 07:40:31  5-MIN KMSN 161340Z 16004KT 1SM BR OVC005 08/08 A3030 510 96 -100 160/04 RMK AO2 TWR VIS 1 1/4
14837KMSN MSN20041116074511211/16/04 07:45:31  5-MIN KMSN 161345Z 17004KT 1SM BR OVC005 08/08 A3030 510 96 -100 170/04 RMK AO2 TWR VIS 1 1/4
14837KMSN MSN20041116075011911/16/04 07:50:31  5-MIN KMSN 161350Z 16005KT 1 1/4SM BR OVC005 08/08 A3030 510 96 -100 160/05 RMK AO2 SLP267 T00830078
14837KMSN MSN20041116075511211/16/04 07:55:31  5-MIN KMSN 161355Z 18005KT 1SM BR OVC005 08/08 A3031 510 96 -100 180/05 RMK AO2 TWR VIS 1 1/4
14837KMSN MSN20041116080011211/16/04 08:00:31  5-MIN KMSN 161400Z 16005KT 1SM BR OVC005 08/08 A3031 510 96 -100 160/05 RMK AO2 TWR VIS 1 1/4
14837KMSN MSN20041116080511211/16/04 08:05:31  5-MIN KMSN 161405Z 16005KT 1SM BR OVC005 08/08 A3030 510 96 -100 150/05 RMK AO2 TWR VIS 1 1/4
14837KMSN MSN20041116081011211/16/04 08:10:31  5-MIN KMSN 161410Z 16005KT 1SM BR OVC005 08/08 A3030 510 96 -100 160/05 RMK AO2 TWR VIS 1 1/4
14837KMSN MSN20041116081511211/16/04 08:15:31  5-MIN KMSN 161415Z 17005KT 1SM BR OVC005 08/08 A3030 510 96 -100 170/05 RMK AO2 TWR VIS 1 1/4
14837KMSN MSN20041116082011211/16/04 08:20:31  5-MIN KMSN 161420Z 17005KT 1SM BR OVC005 08/08 A3030 510 96 -100 170/05 RMK AO2 TWR VIS 1 1/4
14837KMSN MSN20041116082511211/16/04 08:25:31  5-MIN KMSN 161425Z 17005KT 1SM BR OVC005 08/08 A3030 510 96 -100 170/05 RMK AO2 TWR VIS 1 1/4
14837KMSN MSN20041116083011211/16/04 08:30:31  5-MIN KMSN 161430Z 16004KT 1SM BR OVC005 08/08 A3030 510 96 -100 160/04 RMK AO2 TWR VIS 1 1/4
14837KMSN MSN20041116083510911/16/04 08:35:31  5-MIN KMSN 161435Z 16005KT 1SM BR OVC005 09/08 A3030 510 93 0 160/05 RMK AO2 TWR VIS 1 1/4
14837KMSN MSN20041116084011311/16/04 08:40:31  5-MIN KMSN 161440Z 16005KT 1 1/4SM BR OVC005 09/08 A3030 510 93 0 160/05 RMK AO2 SFC VIS 1 1/2
14837KMSN MSN20041116084511311/16/04 08:45:31  5-MIN KMSN 161445Z 16005KT 1 1/4SM BR OVC005 09/08 A3030 520 93 0 160/05 RMK AO2 SFC VIS 1 1/2
14837KMSN MSN20041116085013611/16/04 08:50:31  5-MIN KMSN 161450Z 15005KT 1 1/4SM BR OVC005 09/08 A3030 520 96 0 150/05 RMK AO2 SFC VIS 1 1/2 SLP265 T00890083 56003
14837KMSN MSN20041116085511311/16/04 08:55:31  5-MIN KMSN 161455Z 15005KT 1 1/4SM BR OVC005 09/08 A3029 520 96 0 150/05 RMK AO2 SFC VIS 1 1/2
14837KMSN MSN20041116090011311/16/04 09:00:31  5-MIN KMSN 161500Z 15005KT 1 1/4SM BR OVC005 09/08 A3029 520 96 0 150/05 RMK AO2 SFC VIS 1 1/2
14837KMSN MSN20041116090510911/16/04 09:05:31  5-MIN KMSN 161505Z 16005KT 1 3/4SM BR OVC005 09/08 A3029 520 93 0 160/05 RMK AO2 TWR VIS 2
14837KMSN MSN20041116091010911/16/04 09:10:31  5-MIN KMSN 161510Z 16005KT 1 3/4SM BR OVC005 09/08 A3029 520 93 0 150/05 RMK AO2 TWR VIS 2
14837KMSN MSN20041116091509511/16/04 09:15:31  5-MIN KMSN 161515Z 17005KT 2SM BR OVC005 09/08 A3029 520 93 0 170/05 RMK AO2
14837KMSN MSN20041116092009511/16/04 09:20:31  5-MIN KMSN 161520Z 18006KT 2SM BR OVC005 09/08 A3029 520 93 0 180/06 RMK AO2
14837KMSN MSN20041116092509511/16/04 09:25:31  5-MIN KMSN 161525Z 18006KT 2SM BR OVC005 09/08 A3029 520 93 0 180/06 RMK AO2
14837KMSN MSN20041116093010711/16/04 09:30:31  5-MIN KMSN 161530Z 18007KT 2SM BR OVC005 09/08 A3030 520 93 0 180/07 RMK AO2 CIG 004V008
14837KMSN MSN20041116093509511/16/04 09:35:31  5-MIN KMSN 161535Z 17006KT 2SM BR OVC005 09/08 A3029 520 93 0 170/06 RMK AO2
14837KMSN MSN20041116094010911/16/04 09:40:31  5-MIN KMSN 161540Z 16006KT 1 3/4SM BR OVC005 09/09 A3029 520 96 0 160/06 RMK AO2 TWR VIS 2
14837KMSN MSN20041116094511111/16/04 09:45:31  5-MIN KMSN 161545Z 16006KT 1 3/4SM BR OVC005 10/09 A3029 530 93 100 150/06 RMK AO2 TWR VIS 2
14837KMSN MSN20041116095012811/16/04 09:50:31  5-MIN KMSN 161550Z 16006KT 1 3/4SM BR OVC005 10/09 A3029 530 93 100 160/06 RMK AO2 TWR VIS 2 SLP262 T01000089
14837KMSN MSN20041116095509711/16/04 09:55:31  5-MIN KMSN 161555Z 18007KT 2SM BR OVC005 10/09 A3029 520 93 100 180/07 RMK AO2
14837KMSN MSN20041116100009711/16/04 10:00:31  5-MIN KMSN 161600Z 18007KT 2SM BR OVC005 10/09 A3029 520 93 100 180/07 RMK AO2
14837KMSN MSN20041116100509711/16/04 10:05:31  5-MIN KMSN 161605Z 19006KT 2SM BR OVC005 10/09 A3029 520 93 100 190/06 RMK AO2
14837KMSN MSN20041116101009711/16/04 10:10:31  5-MIN KMSN 161610Z 18007KT 2SM BR OVC005 10/09 A3029 520 93 100 180/07 RMK AO2
14837KMSN MSN20041116101509711/16/04 10:15:31  5-MIN KMSN 161615Z 19008KT 2SM BR OVC005 11/09 A3029 520 89 200 190/08 RMK AO2
14837KMSN MSN20041116102009711/16/04 10:20:31  5-MIN KMSN 161620Z 20006KT 2SM BR OVC007 11/09 A3029 520 89 200 200/06 RMK AO2
14837KMSN MSN20041116102509711/16/04 10:25:31  5-MIN KMSN 161625Z 19007KT 2SM BR OVC007 11/09 A3029 520 89 200 180/07 RMK AO2
14837KMSN MSN20041116103009711/16/04 10:30:31  5-MIN KMSN 161630Z 19007KT 2SM BR OVC007 11/09 A3029 520 89 200 190/07 RMK AO2
14837KMSN MSN20041116103509711/16/04 10:35:31  5-MIN KMSN 161635Z 18006KT 2SM BR OVC007 11/09 A3029 520 89 200 180/06 RMK AO2
14837KMSN MSN20041116104009711/16/04 10:40:31  5-MIN KMSN 161640Z 19006KT 2SM BR OVC007 11/09 A3029 530 89 200 190/06 RMK AO2
14837KMSN MSN20041116104509711/16/04 10:45:31  5-MIN KMSN 161645Z 19008KT 2SM BR OVC007 11/09 A3028 530 89 200 190/08 RMK AO2
14837KMSN MSN20041116105011411/16/04 10:50:31  5-MIN KMSN 161650Z 19008KT 2SM BR OVC007 11/09 A3028 530 89 200 190/08 RMK AO2 SLP259 T01060089
14837KMSN MSN20041116105509711/16/04 10:55:31  5-MIN KMSN 161655Z 19008KT 2SM BR OVC007 11/09 A3029 530 93 200 190/08 RMK AO2
14837KMSN MSN20041116110009711/16/04 11:00:31  5-MIN KMSN 161700Z 19006KT 2SM BR OVC007 11/09 A3028 530 93 200 190/06 RMK AO2
14837KMSN MSN20041116110509711/16/04 11:05:31  5-MIN KMSN 161705Z 21006KT 2SM BR OVC007 11/09 A3028 530 93 200 200/06 RMK AO2
14837KMSN MSN20041116111009711/16/04 11:10:31  5-MIN KMSN 161710Z 20006KT 2SM BR OVC007 11/09 A3028 540 89 200 200/06 RMK AO2
14837KMSN MSN20041116111509711/16/04 11:15:31  5-MIN KMSN 161715Z 20005KT 2SM BR OVC007 11/09 A3028 540 93 200 200/05 RMK AO2
14837KMSN MSN20041116112009711/16/04 11:20:31  5-MIN KMSN 161720Z 19007KT 2SM BR OVC007 11/09 A3027 540 89 200 190/07 RMK AO2
14837KMSN MSN20041116112509711/16/04 11:25:31  5-MIN KMSN 161725Z 20006KT 2SM BR OVC007 11/09 A3027 540 89 200 200/06 RMK AO2
14837KMSN MSN20041116113009711/16/04 11:30:31  5-MIN KMSN 161730Z 20006KT 2SM BR OVC007 11/09 A3027 540 89 200 200/06 RMK AO2
14837KMSN MSN20041116113509711/16/04 11:35:31  5-MIN KMSN 161735Z 20005KT 2SM BR OVC007 11/09 A3027 540 89 200 200/05 RMK AO2
14837KMSN MSN20041116114009711/16/04 11:40:31  5-MIN KMSN 161740Z VRB05KT 2SM BR OVC007 11/09 A3027 540 89 200 VRB/05 RMK AO2
14837KMSN MSN20041116114511111/16/04 11:45:31  5-MIN KMSN 161745Z 20006KT 2SM BR OVC007 11/09 A3027 540 89 200 200/06 RMK AO2 SFC VIS 2 1/2
14837KMSN MSN20041116115015811/16/04 11:50:31  5-MIN KMSN 161750Z 20006KT 2SM BR OVC009 11/09 A3027 550 89 300 190/06 RMK AO2 SFC VIS 2 1/2 CIG 007V012 SLP253 T01110094 10111 20083 58007
14837KMSN MSN20041116115512311/16/04 11:55:31  5-MIN KMSN 161755Z 20007KT 2SM BR OVC009 11/09 A3027 550 89 300 200/07 RMK AO2 SFC VIS 2 1/2 CIG 007V014
14837KMSN MSN20041116120012311/16/04 12:00:31  5-MIN KMSN 161800Z VRB06KT 2SM BR OVC009 12/09 A3027 550 86 300 VRB/06 RMK AO2 SFC VIS 2 1/2 CIG 008V014
14837KMSN MSN20041116120512311/16/04 12:05:31  5-MIN KMSN 161805Z 20006KT 2SM BR OVC009 12/09 A3027 550 86 300 200/06 RMK AO2 SFC VIS 2 1/2 CIG 008V014
14837KMSN MSN20041116121012311/16/04 12:10:31  5-MIN KMSN 161810Z 19006KT 2SM BR OVC009 12/09 A3027 550 86 300 190/06 RMK AO2 SFC VIS 2 1/2 CIG 008V014
14837KMSN MSN20041116121511111/16/04 12:15:31  5-MIN KMSN 161815Z 20005KT 2SM BR OVC009 12/09 A3026 550 86 300 200/05 RMK AO2 SFC VIS 2 1/2
14837KMSN MSN20041116122011111/16/04 12:20:31  5-MIN KMSN 161820Z 20006KT 2SM BR OVC009 12/09 A3026 550 86 300 200/06 RMK AO2 SFC VIS 2 1/2
14837KMSN MSN20041116122511111/16/04 12:25:31  5-MIN KMSN 161825Z 20005KT 2SM BR OVC009 12/09 A3026 550 86 300 200/05 RMK AO2 SFC VIS 2 1/2
14837KMSN MSN20041116123011111/16/04 12:30:31  5-MIN KMSN 161830Z 19005KT 2SM BR OVC009 12/09 A3026 550 86 300 190/05 RMK AO2 SFC VIS 2 1/2
14837KMSN MSN20041116123511111/16/04 12:35:31  5-MIN KMSN 161835Z 20006KT 2SM BR OVC009 12/10 A3026 550 89 300 200/06 RMK AO2 SFC VIS 2 1/2
14837KMSN MSN20041116124011111/16/04 12:40:31  5-MIN KMSN 161840Z 21005KT 2SM BR OVC009 12/10 A3026 550 89 300 210/05 RMK AO2 SFC VIS 2 1/2
14837KMSN MSN20041116124511111/16/04 12:45:31  5-MIN KMSN 161845Z 21006KT 2SM BR OVC009 12/10 A3026 550 89 300 210/06 RMK AO2 SFC VIS 2 1/2
14837KMSN MSN20041116125012811/16/04 12:50:31  5-MIN KMSN 161850Z 20005KT 2SM BR OVC009 12/10 A3026 550 89 300 200/05 RMK AO2 SFC VIS 2 1/2 SLP251 T01170100
14837KMSN MSN20041116125509711/16/04 12:55:31  5-MIN KMSN 161855Z 21005KT 2SM BR OVC009 12/10 A3026 560 89 300 200/05 RMK AO2
14837KMSN MSN20041116130009711/16/04 13:00:31  5-MIN KMSN 161900Z 20006KT 2SM BR OVC009 12/10 A3025 560 89 300 200/06 RMK AO2
14837KMSN MSN20041116130509711/16/04 13:05:31  5-MIN KMSN 161905Z 21006KT 2SM BR OVC009 12/10 A3025 560 89 300 210/06 RMK AO2
14837KMSN MSN20041116131009711/16/04 13:10:31  5-MIN KMSN 161910Z 20006KT 2SM BR OVC009 12/10 A3025 560 89 300 200/06 RMK AO2
14837KMSN MSN20041116131509711/16/04 13:15:31  5-MIN KMSN 161915Z 19006KT 2SM BR OVC009 12/10 A3025 560 89 300 190/06 RMK AO2
14837KMSN MSN20041116132009711/16/04 13:20:31  5-MIN KMSN 161920Z 20006KT 2SM BR OVC007 12/10 A3025 560 89 300 200/06 RMK AO2
14837KMSN MSN20041116132509711/16/04 13:25:31  5-MIN KMSN 161925Z 19008KT 2SM BR OVC007 12/10 A3025 560 89 300 190/08 RMK AO2
14837KMSN MSN20041116133011111/16/04 13:30:31  5-MIN KMSN 161930Z 20007KT 1 3/4SM BR OVC007 12/10 A3025 560 89 300 200/07 RMK AO2 TWR VIS 2
14837KMSN MSN20041116133512711/16/04 13:35:31  5-MIN KMSN 161935Z 19006KT 1 3/4SM -DZ BR OVC007 12/10 A3025 570 89 300 190/06 RMK AO2 TWR VIS 2 DZB32 P0000
14837KMSN MSN20041116134012711/16/04 13:40:31  5-MIN KMSN 161940Z 19007KT 1 3/4SM -DZ BR OVC007 12/10 A3024 570 89 300 190/07 RMK AO2 TWR VIS 2 DZB32 P0000
14837KMSN MSN20041116134512711/16/04 13:45:31  5-MIN KMSN 161945Z 19006KT 1 1/2SM -DZ BR OVC007 12/10 A3024 570 89 300 190/06 RMK AO2 TWR VIS 2 DZB32 P0000
14837KMSN MSN20041116135013411/16/04 13:50:31  5-MIN KMSN 161950Z 19006KT 1 1/4SM -DZ BR OVC007 12/11 A3024 570 93 300 190/06 RMK AO2 DZB32 SLP243 P0000 T01170106
14837KMSN MSN20041116135511111/16/04 13:55:31  5-MIN KMSN 161955Z 20004KT 1 1/4SM -DZ BR OVC007 12/11 A3024 570 93 300 200/04 RMK AO2 P0000
14837KMSN MSN20041116140011111/16/04 14:00:31  5-MIN KMSN 162000Z 19005KT 1 1/4SM -DZ BR OVC007 12/11 A3024 570 93 300 190/05 RMK AO2 P0000
14837KMSN MSN20041116140511111/16/04 14:05:31  5-MIN KMSN 162005Z 18005KT 1 1/4SM -DZ BR OVC007 12/11 A3024 570 93 400 180/05 RMK AO2 P0000
14837KMSN MSN20041116141011111/16/04 14:10:31  5-MIN KMSN 162010Z 17006KT 1 1/4SM -DZ BR OVC005 12/11 A3023 580 93 400 170/06 RMK AO2 P0000
14837KMSN MSN20041116141511111/16/04 14:15:31  5-MIN KMSN 162015Z 18005KT 1 1/4SM -DZ BR OVC005 12/11 A3023 580 93 400 180/05 RMK AO2 P0000
14837KMSN MSN20041116142011111/16/04 14:20:31  5-MIN KMSN 162020Z 18007KT 1 1/4SM -DZ BR OVC005 12/11 A3023 580 93 400 180/07 RMK AO2 P0000
14837KMSN MSN20041116142511111/16/04 14:25:31  5-MIN KMSN 162025Z 18007KT 1 1/4SM -DZ BR OVC005 12/11 A3023 580 93 400 180/07 RMK AO2 P0000
14837KMSN MSN20041116143012511/16/04 14:30:31  5-MIN KMSN 162030Z 18006KT 1 1/4SM -DZ BR OVC005 12/11 A3023 580 93 400 180/06 RMK AO2 SFC VIS 1 1/2 P0000
14837KMSN MSN20041116143512511/16/04 14:35:31  5-MIN KMSN 162035Z 18006KT 1 1/4SM -DZ BR OVC005 12/11 A3022 580 93 400 180/06 RMK AO2 SFC VIS 1 1/2 P0000
14837KMSN MSN20041116144011111/16/04 14:40:31  5-MIN KMSN 162040Z 18008KT 1 1/4SM -DZ BR OVC005 12/11 A3022 580 93 400 180/08 RMK AO2 P0000
14837KMSN MSN20041116144511111/16/04 14:45:31  5-MIN KMSN 162045Z 18007KT 1 1/4SM -DZ BR OVC005 12/11 A3023 580 93 400 180/07 RMK AO2 P0000
14837KMSN MSN20041116145014011/16/04 14:50:31  5-MIN KMSN 162050Z 18007KT 1 1/4SM -DZ BR OVC005 12/11 A3022 580 93 400 180/07 RMK AO2 SLP238 P0000 60000 T01170106 58010
14837KMSN MSN20041116145511111/16/04 14:55:31  5-MIN KMSN 162055Z 18006KT 1 1/4SM -DZ BR OVC005 12/11 A3022 590 93 400 180/06 RMK AO2 P0000
14837KMSN MSN20041116150011111/16/04 15:00:31  5-MIN KMSN 162100Z 18005KT 1 1/4SM -DZ BR OVC005 12/11 A3022 590 93 400 180/05 RMK AO2 P0000
14837KMSN MSN20041116150512111/16/04 15:05:31  5-MIN KMSN 162105Z 19005KT 1SM -DZ BR OVC005 12/11 A3022 590 93 400 180/05 RMK AO2 TWR VIS 1 1/4 P0000
14837KMSN MSN20041116151012111/16/04 15:10:31  5-MIN KMSN 162110Z 17007KT 1SM -DZ BR OVC005 12/11 A3022 590 93 400 170/07 RMK AO2 TWR VIS 1 1/4 P0000
14837KMSN MSN20041116151512111/16/04 15:15:31  5-MIN KMSN 162115Z 18005KT 1SM -DZ BR OVC005 12/11 A3022 590 96 400 180/05 RMK AO2 TWR VIS 1 1/4 P0000
14837KMSN MSN20041116152012111/16/04 15:20:31  5-MIN KMSN 162120Z 17006KT 1SM -DZ BR OVC005 12/11 A3022 590 96 400 170/06 RMK AO2 TWR VIS 1 1/4 P0000
14837KMSN MSN20041116152512111/16/04 15:25:31  5-MIN KMSN 162125Z 18007KT 1SM -DZ BR OVC005 12/11 A3022 590 96 400 180/07 RMK AO2 TWR VIS 1 1/4 P0000
14837KMSN MSN20041116153011111/16/04 15:30:31  5-MIN KMSN 162130Z 17007KT 1 1/4SM -DZ BR OVC005 12/11 A3022 590 96 400 170/07 RMK AO2 P0000
14837KMSN MSN20041116153511311/16/04 15:35:31  5-MIN KMSN 162135Z 18007KT 1 1/4SM BR OVC005 12/11 A3022 590 96 400 180/07 RMK AO2 DZE35 P0000
14837KMSN MSN20041116154011311/16/04 15:40:31  5-MIN KMSN 162140Z 18006KT 1 1/4SM BR OVC005 12/11 A3022 590 96 400 180/06 RMK AO2 DZE35 P0000
14837KMSN MSN20041116154512711/16/04 15:45:31  5-MIN KMSN 162145Z 18006KT 1 1/4SM BR OVC005 12/11 A3022 590 96 400 180/06 RMK AO2 SFC VIS 1 1/2 DZE35 P0000
14837KMSN MSN20041116155014411/16/04 15:50:31  5-MIN KMSN 162150Z 17008KT 1 1/4SM BR OVC005 12/11 A3022 590 96 400 170/08 RMK AO2 SFC VIS 1 1/2 DZE35 SLP235 P0000 T01170111
14837KMSN MSN20041116155511511/16/04 15:55:31  5-MIN KMSN 162155Z 19007KT 1 1/4SM BR OVC005 12/11 A3022 590 96 400 190/07 RMK AO2 SFC VIS 1 1/2
14837KMSN MSN20041116160010111/16/04 16:00:31  5-MIN KMSN 162200Z 19005KT 1 1/4SM BR OVC005 12/11 A3022 590 96 400 180/05 RMK AO2
14837KMSN MSN20041116160511111/16/04 16:05:31  5-MIN KMSN 162205Z 19005KT 1SM BR OVC003 12/11 A3022 590 96 400 190/05 RMK AO2 TWR VIS 1 1/4
14837KMSN MSN20041116161011111/16/04 16:10:31  5-MIN KMSN 162210Z 18006KT 1SM BR OVC003 12/11 A3022 590 96 400 180/06 RMK AO2 TWR VIS 1 1/4
14837KMSN MSN20041116161511111/16/04 16:15:31  5-MIN KMSN 162215Z 18007KT 1SM BR OVC003 12/11 A3022 590 96 400 180/07 RMK AO2 TWR VIS 1 1/4
14837KMSN MSN20041116162011111/16/04 16:20:31  5-MIN KMSN 162220Z 18005KT 1SM BR OVC003 12/11 A3022 590 96 400 180/05 RMK AO2 TWR VIS 1 1/4
14837KMSN MSN20041116162511111/16/04 16:25:31  5-MIN KMSN 162225Z 19006KT 1SM BR OVC003 12/11 A3022 590 96 400 190/06 RMK AO2 TWR VIS 1 1/4
14837KMSN MSN20041116163011111/16/04 16:30:31  5-MIN KMSN 162230Z 18005KT 1SM BR OVC003 12/11 A3022 590 96 400 180/05 RMK AO2 TWR VIS 1 1/4
14837KMSN MSN20041116163511111/16/04 16:35:31  5-MIN KMSN 162235Z 18006KT 1SM BR OVC003 12/11 A3022 590 96 400 180/06 RMK AO2 TWR VIS 1 1/4
14837KMSN MSN20041116164011111/16/04 16:40:31  5-MIN KMSN 162240Z 19007KT 1SM BR OVC003 12/11 A3022 590 96 400 190/07 RMK AO2 TWR VIS 1 1/4
14837KMSN MSN20041116164511111/16/04 16:45:31  5-MIN KMSN 162245Z 19007KT 1SM BR OVC003 12/11 A3022 590 96 400 190/07 RMK AO2 TWR VIS 1 1/4
14837KMSN MSN20041116165011411/16/04 16:50:31  5-MIN KMSN 162250Z 19007KT 1SM BR OVC003 12/11 A3022 590 96 400 190/07 RMK AO2 SLP236 T01170111
14837KMSN MSN20041116165509711/16/04 16:55:31  5-MIN KMSN 162255Z 19006KT 1SM BR OVC003 12/11 A3022 590 96 400 190/06 RMK AO2
14837KMSN MSN20041116170009711/16/04 17:00:31  5-MIN KMSN 162300Z 20004KT 1SM BR OVC003 12/11 A3022 590 96 400 200/04 RMK AO2
14837KMSN MSN20041116170509711/16/04 17:05:31  5-MIN KMSN 162305Z VRB04KT 1SM BR OVC003 12/11 A3022 590 96 400 VRB/04 RMK AO2
14837KMSN MSN20041116171009711/16/04 17:10:31  5-MIN KMSN 162310Z VRB05KT 1SM BR OVC003 12/11 A3022 590 96 400 VRB/05 RMK AO2
14837KMSN MSN20041116171509711/16/04 17:15:31  5-MIN KMSN 162315Z 20005KT 1SM BR OVC003 12/11 A3022 590 96 400 200/05 RMK AO2
14837KMSN MSN20041116172009711/16/04 17:20:31  5-MIN KMSN 162320Z VRB03KT 1SM BR OVC003 12/11 A3022 590 96 400 VRB/03 RMK AO2
14837KMSN MSN20041116172509711/16/04 17:25:31  5-MIN KMSN 162325Z 20004KT 1SM BR OVC003 12/11 A3022 590 96 400 200/04 RMK AO2
14837KMSN MSN20041116173009711/16/04 17:30:31  5-MIN KMSN 162330Z 18005KT 1SM BR OVC003 12/11 A3022 590 96 400 180/05 RMK AO2
14837KMSN MSN20041116173509711/16/04 17:35:31  5-MIN KMSN 162335Z 20006KT 1SM BR OVC003 12/11 A3021 590 96 400 190/06 RMK AO2
14837KMSN MSN20041116174009711/16/04 17:40:31  5-MIN KMSN 162340Z 20005KT 1SM BR OVC003 12/11 A3022 590 96 400 200/05 RMK AO2
14837KMSN MSN20041116174509711/16/04 17:45:31  5-MIN KMSN 162345Z 19005KT 1SM BR OVC003 12/11 A3022 590 96 400 190/05 RMK AO2
14837KMSN MSN20041116175013811/16/04 17:50:31  5-MIN KMSN 162350Z 19005KT 1SM BR OVC003 12/11 A3022 590 96 400 180/05 RMK AO2 SLP236 60000 T01170111 10122 20111 58014
14837KMSN MSN20041116175509711/16/04 17:55:31  5-MIN KMSN 162355Z 19006KT 1SM BR OVC003 12/11 A3022 590 96 400 190/06 RMK AO2
14837KMSN MSN20041116180009711/16/04 18:00:31  5-MIN KMSN 170000Z 20004KT 1SM BR OVC003 12/11 A3022 590 96 400 200/04 RMK AO2
14837KMSN MSN20041116180509711/16/04 18:05:31  5-MIN KMSN 170005Z 19005KT 1SM BR OVC003 12/11 A3022 590 96 400 190/05 RMK AO2
14837KMSN MSN20041116181009711/16/04 18:10:31  5-MIN KMSN 170010Z 19006KT 1SM BR OVC003 12/11 A3022 590 96 400 180/06 RMK AO2
14837KMSN MSN20041116181509711/16/04 18:15:31  5-MIN KMSN 170015Z 19006KT 1SM BR OVC003 12/11 A3021 590 93 400 190/06 RMK AO2
14837KMSN MSN20041116182009711/16/04 18:20:31  5-MIN KMSN 170020Z 19006KT 1SM BR OVC005 12/11 A3021 590 93 400 190/06 RMK AO2
14837KMSN MSN20041116182509711/16/04 18:25:31  5-MIN KMSN 170025Z 19006KT 1SM BR OVC005 12/11 A3021 600 93 400 190/06 RMK AO2
14837KMSN MSN20041116183010411/16/04 18:30:31  5-MIN KMSN 170030Z 20005KT 1SM BR BKN005 OVC015 12/11 A3021 600 93 400 200/05 RMK AO2
14837KMSN MSN20041116183510411/16/04 18:35:31  5-MIN KMSN 170035Z 20004KT 1SM BR BKN005 OVC015 12/11 A3021 600 93 400 200/04 RMK AO2
14837KMSN MSN20041116184010411/16/04 18:40:31  5-MIN KMSN 170040Z 20005KT 1SM BR SCT005 OVC015 12/11 A3020 600 93 500 200/05 RMK AO2
14837KMSN MSN20041116184510411/16/04 18:45:31  5-MIN KMSN 170045Z 20006KT 2SM BR SCT005 OVC015 12/11 A3020 600 93 500 200/06 RMK AO2
14837KMSN MSN20041116185012111/16/04 18:50:31  5-MIN KMSN 170050Z 19005KT 2SM BR FEW005 OVC015 12/11 A3021 600 93 500 190/05 RMK AO2 SLP231 T01220111
14837KMSN MSN20041116185509711/16/04 18:55:31  5-MIN KMSN 170055Z 18006KT 2SM BR OVC015 13/11 A3021 600 89 500 180/06 RMK AO2
14837KMSN MSN20041116190009711/16/04 19:00:31  5-MIN KMSN 170100Z 17006KT 2SM BR OVC015 12/11 A3020 600 93 500 170/06 RMK AO2
14837KMSN MSN20041116190509711/16/04 19:05:31  5-MIN KMSN 170105Z 17007KT 2SM BR OVC015 12/11 A3020 610 93 500 170/07 RMK AO2
14837KMSN MSN20041116191010711/16/04 19:10:31  5-MIN KMSN 170110Z 17006KT 2SM BR OVC015 12/11 A3020 610 89 500 170/06 RMK AO2 SFC VIS 3
14837KMSN MSN20041116191509711/16/04 19:15:31  5-MIN KMSN 170115Z 17007KT 3SM BR OVC015 12/11 A3020 610 89 500 170/07 RMK AO2
14837KMSN MSN20041116192009711/16/04 19:20:31  5-MIN KMSN 170120Z 17005KT 3SM BR OVC015 12/11 A3020 610 89 500 170/05 RMK AO2
14837KMSN MSN20041116192509711/16/04 19:25:31  5-MIN KMSN 170125Z 17006KT 3SM BR OVC015 12/11 A3020 610 89 500 170/06 RMK AO2
14837KMSN MSN20041116193009711/16/04 19:30:31  5-MIN KMSN 170130Z 16006KT 3SM BR OVC015 12/11 A3019 610 89 500 160/06 RMK AO2
14837KMSN MSN20041116193509711/16/04 19:35:31  5-MIN KMSN 170135Z 16006KT 3SM BR OVC015 12/11 A3019 610 93 400 160/06 RMK AO2
14837KMSN MSN20041116194009711/16/04 19:40:31  5-MIN KMSN 170140Z 17006KT 3SM BR OVC017 12/11 A3020 610 93 400 170/06 RMK AO2
14837KMSN MSN20041116194509711/16/04 19:45:31  5-MIN KMSN 170145Z 18005KT 3SM BR OVC017 12/11 A3020 610 89 500 180/05 RMK AO2
14837KMSN MSN20041116195011411/16/04 19:50:31  5-MIN KMSN 170150Z 18005KT 3SM BR OVC017 12/11 A3019 610 89 500 180/05 RMK AO2 SLP228 T01220106
14837KMSN MSN20041116195510711/16/04 19:55:31  5-MIN KMSN 170155Z 18006KT 3SM BR OVC017 12/11 A3019 610 89 500 180/06 RMK AO2 TWR VIS 4
14837KMSN MSN20041116200010711/16/04 20:00:31  5-MIN KMSN 170200Z 18005KT 3SM BR OVC017 12/11 A3019 610 89 500 180/05 RMK AO2 TWR VIS 4
14837KMSN MSN20041116200510711/16/04 20:05:31  5-MIN KMSN 170205Z 18006KT 3SM BR OVC017 12/11 A3019 620 89 500 180/06 RMK AO2 TWR VIS 4
14837KMSN MSN20041116201010711/16/04 20:10:31  5-MIN KMSN 170210Z 17005KT 3SM BR OVC017 12/11 A3019 620 89 500 170/05 RMK AO2 TWR VIS 4
14837KMSN MSN20041116201510711/16/04 20:15:31  5-MIN KMSN 170215Z 17006KT 3SM BR OVC017 12/11 A3018 620 89 500 170/06 RMK AO2 TWR VIS 4
14837KMSN MSN20041116202010711/16/04 20:20:31  5-MIN KMSN 170220Z 17007KT 3SM BR OVC017 12/11 A3018 620 93 400 170/07 RMK AO2 TWR VIS 4
14837KMSN MSN20041116202510711/16/04 20:25:31  5-MIN KMSN 170225Z 18006KT 3SM BR OVC019 12/11 A3018 620 89 500 180/06 RMK AO2 TWR VIS 4
14837KMSN MSN20041116203010411/16/04 20:30:31  5-MIN KMSN 170230Z 17007KT 4SM BR BKN019 OVC065 12/11 A3018 620 89 500 170/07 RMK AO2
14837KMSN MSN20041116203510411/16/04 20:35:31  5-MIN KMSN 170235Z 18007KT 4SM BR BKN019 OVC065 12/11 A3018 620 89 500 180/07 RMK AO2
14837KMSN MSN20041116204010411/16/04 20:40:31  5-MIN KMSN 170240Z 18006KT 4SM BR SCT019 OVC060 12/11 A3018 620 89 500 180/06 RMK AO2
14837KMSN MSN20041116204510411/16/04 20:45:31  5-MIN KMSN 170245Z 18006KT 4SM BR SCT019 OVC060 12/11 A3018 620 89 500 180/06 RMK AO2
14837KMSN MSN20041116205012711/16/04 20:50:31  5-MIN KMSN 170250Z 18006KT 4SM BR FEW019 OVC060 12/11 A3018 620 89 500 180/06 RMK AO2 SLP223 T01220106 55002
14837KMSN MSN20041116205509711/16/04 20:55:31  5-MIN KMSN 170255Z 20005KT 4SM BR OVC060 12/11 A3019 620 89 500 200/05 RMK AO2
14837KMSN MSN20041116210009711/16/04 21:00:31  5-MIN KMSN 170300Z 19006KT 4SM BR OVC060 12/11 A3019 620 89 500 190/06 RMK AO2
14837KMSN MSN20041116210510411/16/04 21:05:31  5-MIN KMSN 170305Z 19007KT 4SM BR FEW021 OVC060 12/11 A3019 610 89 500 190/07 RMK AO2
14837KMSN MSN20041116211010411/16/04 21:10:31  5-MIN KMSN 170310Z 20005KT 4SM BR SCT021 OVC060 12/11 A3020 610 89 500 200/05 RMK AO2
14837KMSN MSN20041116211511111/16/04 21:15:31  5-MIN KMSN 170315Z 19004KT 4SM BR FEW015 BKN021 OVC060 12/11 A3020 610 89 500 190/04 RMK AO2
14837KMSN MSN20041116212011111/16/04 21:20:31  5-MIN KMSN 170320Z 20004KT 4SM BR SCT013 BKN021 OVC060 12/11 A3019 610 89 500 200/04 RMK AO2
14837KMSN MSN20041116212512711/16/04 21:25:31  5-MIN KMSN 170325Z VRB04KT 4SM -RA BR SCT013 BKN021 OVC055 12/11 A3020 610 89 500 VRB/04 RMK AO2 RAB23 P0000
14837KMSN MSN20041116213012011/16/04 21:30:31  5-MIN KMSN 170330Z 19005KT 4SM -RA BR BKN013 OVC021 12/11 A3019 610 89 500 180/05 RMK AO2 RAB23 P0000
14837KMSN MSN20041116213512711/16/04 21:35:31  5-MIN KMSN 170335Z VRB04KT 4SM -RA BR BKN013 BKN021 OVC045 12/11 A3019 620 89 500 VRB/04 RMK AO2 RAB23 P0000
14837KMSN MSN20041116214012711/16/04 21:40:31  5-MIN KMSN 170340Z 21003KT 3SM -RA BR BKN011 BKN021 OVC043 12/11 A3020 610 89 500 210/03 RMK AO2 RAB23 P0001
14837KMSN MSN20041116214512711/16/04 21:45:31  5-MIN KMSN 170345Z 18004KT 3SM -RA BR BKN011 BKN021 OVC043 12/11 A3019 620 93 400 180/04 RMK AO2 RAB23 P0001
14837KMSN MSN20041116215013711/16/04 21:50:31  5-MIN KMSN 170350Z 18005KT 3SM -RA BR BKN011 OVC019 12/11 A3019 610 93 400 180/05 RMK AO2 RAB23 SLP227 P0001 T01170106
14837KMSN MSN20041116215510711/16/04 21:55:31  5-MIN KMSN 170355Z 19005KT 3SM -RA BR OVC013 12/11 A3019 620 93 400 190/05 RMK AO2 P0000
14837KMSN MSN20041116220011411/16/04 22:00:31  5-MIN KMSN 170400Z 19005KT 3SM -RA BR BKN013 OVC043 12/11 A3019 610 93 400 190/05 RMK AO2 P0000
14837KMSN MSN20041116220511611/16/04 22:05:31  5-MIN KMSN 170405Z 19004KT 3SM BR BKN011 OVC016 12/11 A3019 610 93 400 190/04 RMK AO2 RAE04 P0000
14837KMSN MSN20041116221011611/16/04 22:10:31  5-MIN KMSN 170410Z VRB04KT 3SM BR BKN011 OVC016 12/11 A3019 620 93 400 VRB/04 RMK AO2 RAE04 P0000
14837KMSN MSN20041116221512111/16/04 22:15:31  5-MIN KMSN 170415Z 18003KT 3SM BR OVC011 12/11 A3019 620 93 400 180/03 RMK AO2 RAE04 CIG 009V014 P0000
14837KMSN MSN20041116222012111/16/04 22:20:31  5-MIN KMSN 170420Z 18004KT 3SM BR OVC011 12/11 A3018 620 93 400 180/04 RMK AO2 RAE04 CIG 009V015 P0000
14837KMSN MSN20041116222512111/16/04 22:25:31  5-MIN KMSN 170425Z 17004KT 3SM BR OVC011 12/11 A3018 620 93 400 170/04 RMK AO2 RAE04 CIG 009V013 P0000
14837KMSN MSN20041116223012111/16/04 22:30:31  5-MIN KMSN 170430Z 17005KT 3SM BR OVC011 12/11 A3018 620 93 400 170/05 RMK AO2 RAE04 CIG 008V013 P0000
14837KMSN MSN20041116223512111/16/04 22:35:31  5-MIN KMSN 170435Z 17004KT 3SM BR OVC011 12/11 A3018 630 93 400 170/04 RMK AO2 RAE04 CIG 008V013 P0000
14837KMSN MSN20041116224012111/16/04 22:40:31  5-MIN KMSN 170440Z 19006KT 3SM BR OVC009 12/11 A3018 630 93 400 180/06 RMK AO2 RAE04 CIG 008V013 P0000
14837KMSN MSN20041116224512111/16/04 22:45:31  5-MIN KMSN 170445Z 19007KT 3SM BR OVC009 12/11 A3018 630 93 400 190/07 RMK AO2 RAE04 CIG 008V013 P0000
14837KMSN MSN20041116225013811/16/04 22:50:31  5-MIN KMSN 170450Z 18007KT 3SM BR OVC009 12/11 A3017 630 93 400 180/07 RMK AO2 RAE04 CIG 008V012 SLP221 P0000 T01170106
14837KMSN MSN20041116225510911/16/04 22:55:31  5-MIN KMSN 170455Z 18005KT 3SM BR OVC009 12/11 A3017 630 93 400 180/05 RMK AO2 CIG 008V012
14837KMSN MSN20041116230010911/16/04 23:00:31  5-MIN KMSN 170500Z 19007KT 3SM BR OVC009 12/11 A3017 630 93 400 190/07 RMK AO2 CIG 008V012
14837KMSN MSN20041116230510911/16/04 23:05:31  5-MIN KMSN 170505Z 20005KT 3SM BR OVC009 12/11 A3018 630 93 400 190/05 RMK AO2 CIG 008V012
14837KMSN MSN20041116231010911/16/04 23:10:31  5-MIN KMSN 170510Z VRB04KT 3SM BR OVC009 12/11 A3017 630 93 400 VRB/04 RMK AO2 CIG 008V012
14837KMSN MSN20041116231510911/16/04 23:15:31  5-MIN KMSN 170515Z VRB04KT 3SM BR OVC009 12/11 A3018 630 93 400 VRB/04 RMK AO2 CIG 008V012
14837KMSN MSN20041116232011611/16/04 23:20:31  5-MIN KMSN 170520Z 21006KT 3SM BR BKN009 OVC047 12/11 A3018 630 89 500 210/06 RMK AO2 CIG 008V012
14837KMSN MSN20041116232511611/16/04 23:25:31  5-MIN KMSN 170525Z 20005KT 3SM BR BKN009 OVC047 12/11 A3018 630 93 500 200/05 RMK AO2 CIG 008V013
14837KMSN MSN20041116233010411/16/04 23:30:31  5-MIN KMSN 170530Z 21003KT 3SM BR BKN011 OVC047 12/11 A3018 630 89 500 210/03 RMK AO2
14837KMSN MSN20041116233511611/16/04 23:35:31  5-MIN KMSN 170535Z 21004KT 3SM BR BKN011 OVC049 12/11 A3018 630 93 500 210/04 RMK AO2 CIG 008V013
14837KMSN MSN20041116234011611/16/04 23:40:31  5-MIN KMSN 170540Z 21004KT 3SM BR BKN011 OVC049 12/11 A3017 630 93 500 210/04 RMK AO2 CIG 008V013
14837KMSN MSN20041116234511611/16/04 23:45:31  5-MIN KMSN 170545Z 20004KT 3SM BR BKN011 OVC049 12/11 A3017 630 93 500 200/04 RMK AO2 CIG 008V013
14837KMSN MSN20041116235017411/16/04 23:50:31  5-MIN KMSN 170550Z 21005KT 3SM BR BKN011 BKN033 OVC049 12/11 A3017 630 93 500 210/05 RMK AO2 CIG 008V013 SLP218 60002 T01220111 10128 20117 401280072 56011
14837KMSN MSN20041116235511111/16/04 23:55:31  5-MIN KMSN 170555Z 21005KT 3SM BR BKN011 BKN033 OVC055 12/11 A3017 640 93 500 210/05 RMK AO2
14837KMSN MSN20041117000011111/17/04 00:00:31  5-MIN KMSN 170600Z 21005KT 3SM BR SCT011 BKN033 OVC050 12/11 A3017 640 93 500 210/05 RMK AO2
14837KMSN MSN20041117000511111/17/04 00:05:31  5-MIN KMSN 170605Z 21006KT 3SM BR FEW011 SCT035 OVC050 12/11 A3016 640 93 500 210/06 RMK AO2
14837KMSN MSN20041117001011111/17/04 00:10:31  5-MIN KMSN 170610Z 21006KT 3SM BR FEW011 SCT035 OVC048 12/11 A3016 640 93 500 210/06 RMK AO2
14837KMSN MSN20041117001510411/17/04 00:15:31  5-MIN KMSN 170615Z 20005KT 3SM BR FEW011 OVC048 12/11 A3016 640 93 500 200/05 RMK AO2
14837KMSN MSN20041117002011111/17/04 00:20:31  5-MIN KMSN 170620Z 21005KT 3SM BR FEW026 SCT036 OVC048 12/11 A3016 640 96 400 210/05 RMK AO2
14837KMSN MSN20041117002511111/17/04 00:25:31  5-MIN KMSN 170625Z 21004KT 3SM BR SCT026 BKN036 OVC048 12/11 A3016 640 93 500 210/04 RMK AO2
14837KMSN MSN20041117003011111/17/04 00:30:31  5-MIN KMSN 170630Z 21004KT 3SM BR SCT026 BKN035 OVC046 12/11 A3016 640 93 500 210/04 RMK AO2
14837KMSN MSN20041117003511111/17/04 00:35:31  5-MIN KMSN 170635Z 20003KT 3SM BR SCT026 BKN035 OVC046 12/11 A3016 640 93 500 200/03 RMK AO2
14837KMSN MSN20041117004011111/17/04 00:40:31  5-MIN KMSN 170640Z 21003KT 3SM BR BKN029 BKN037 OVC046 12/11 A3016 640 93 500 210/03 RMK AO2
14837KMSN MSN20041117004511111/17/04 00:45:31  5-MIN KMSN 170645Z 20004KT 3SM BR FEW009 BKN029 OVC037 12/11 A3016 650 96 400 200/04 RMK AO2
14837KMSN MSN20041117005012811/17/04 00:50:31  5-MIN KMSN 170650Z 20005KT 3SM BR SCT009 BKN029 OVC037 12/11 A3016 650 96 400 200/05 RMK AO2 SLP214 T01170111
14837KMSN MSN20041117005511111/17/04 00:55:31  5-MIN KMSN 170655Z 20005KT 3SM BR BKN009 BKN029 OVC037 12/11 A3016 650 96 400 190/05 RMK AO2
14837KMSN MSN20041117010010411/17/04 01:00:31  5-MIN KMSN 170700Z 20005KT 3SM BR BKN009 OVC027 12/11 A3016 650 93 500 200/05 RMK AO2
14837KMSN MSN20041117010510411/17/04 01:05:31  5-MIN KMSN 170705Z 21005KT 3SM BR BKN009 OVC027 12/11 A3016 650 93 500 210/05 RMK AO2
14837KMSN MSN20041117011009711/17/04 01:10:31  5-MIN KMSN 170710Z 19005KT 3SM BR OVC009 12/11 A3016 650 93 500 190/05 RMK AO2
14837KMSN MSN20041117011509711/17/04 01:15:31  5-MIN KMSN 170715Z 19005KT 3SM BR OVC009 12/11 A3015 650 93 500 190/05 RMK AO2
14837KMSN MSN20041117012009711/17/04 01:20:31  5-MIN KMSN 170720Z 20005KT 3SM BR OVC009 12/11 A3016 650 93 500 200/05 RMK AO2
14837KMSN MSN20041117012509711/17/04 01:25:31  5-MIN KMSN 170725Z 19006KT 3SM BR OVC009 12/11 A3015 650 93 500 190/06 RMK AO2
14837KMSN MSN20041117013009711/17/04 01:30:31  5-MIN KMSN 170730Z 19005KT 3SM BR OVC009 12/11 A3016 650 93 500 190/05 RMK AO2
14837KMSN MSN20041117013509711/17/04 01:35:31  5-MIN KMSN 170735Z 20005KT 3SM BR OVC009 12/11 A3016 650 93 500 200/05 RMK AO2
14837KMSN MSN20041117014009711/17/04 01:40:31  5-MIN KMSN 170740Z 19005KT 3SM BR OVC007 12/11 A3016 650 93 500 190/05 RMK AO2
14837KMSN MSN20041117014509711/17/04 01:45:31  5-MIN KMSN 170745Z 19005KT 3SM BR OVC007 12/11 A3016 640 93 500 190/05 RMK AO2
14837KMSN MSN20041117015011411/17/04 01:50:31  5-MIN KMSN 170750Z 19004KT 3SM BR OVC007 12/11 A3016 640 93 500 190/04 RMK AO2 SLP215 T01220111
14837KMSN MSN20041117015509711/17/04 01:55:31  5-MIN KMSN 170755Z 19003KT 3SM BR OVC007 12/11 A3016 640 93 500 190/03 RMK AO2
14837KMSN MSN20041117020009711/17/04 02:00:31  5-MIN KMSN 170800Z 20004KT 3SM BR OVC007 12/11 A3016 640 93 500 200/04 RMK AO2
14837KMSN MSN20041117020509711/17/04 02:05:31  5-MIN KMSN 170805Z 20004KT 3SM BR OVC007 12/11 A3016 640 93 500 200/04 RMK AO2
14837KMSN MSN20041117021009711/17/04 02:10:31  5-MIN KMSN 170810Z 20004KT 3SM BR OVC007 12/11 A3016 640 93 500 200/04 RMK AO2
14837KMSN MSN20041117021509711/17/04 02:15:31  5-MIN KMSN 170815Z 21004KT 3SM BR OVC007 12/11 A3016 640 93 500 200/04 RMK AO2
14837KMSN MSN20041117022009711/17/04 02:20:31  5-MIN KMSN 170820Z 00000KT 3SM BR OVC007 12/11 A3016 640 93 500 000/00 RMK AO2
14837KMSN MSN20041117022509711/17/04 02:25:31  5-MIN KMSN 170825Z 20003KT 3SM BR OVC007 12/11 A3016 640 93 500 200/03 RMK AO2
14837KMSN MSN20041117023010111/17/04 02:30:31  5-MIN KMSN 170830Z 20005KT 2 1/2SM BR OVC007 12/11 A3016 640 93 500 190/05 RMK AO2
14837KMSN MSN20041117023510111/17/04 02:35:31  5-MIN KMSN 170835Z 19004KT 2 1/2SM BR OVC007 12/11 A3016 650 93 500 190/04 RMK AO2
14837KMSN MSN20041117024010111/17/04 02:40:31  5-MIN KMSN 170840Z 20004KT 2 1/2SM BR OVC007 12/11 A3016 650 93 500 190/04 RMK AO2
14837KMSN MSN20041117024510111/17/04 02:45:31  5-MIN KMSN 170845Z 20004KT 2 1/2SM BR OVC007 12/12 A3016 650 96 500 200/04 RMK AO2
14837KMSN MSN20041117025012411/17/04 02:50:31  5-MIN KMSN 170850Z VRB04KT 2 1/2SM BR OVC007 12/12 A3015 650 96 500 VRB/04 RMK AO2 SLP213 T01220117 58005
14837KMSN MSN20041117025510111/17/04 02:55:31  5-MIN KMSN 170855Z 19003KT 2 1/2SM BR OVC007 12/12 A3015 650 96 500 190/03 RMK AO2
14837KMSN MSN20041117030010111/17/04 03:00:31  5-MIN KMSN 170900Z 18005KT 2 1/2SM BR OVC005 12/12 A3015 650 96 500 180/05 RMK AO2
14837KMSN MSN20041117030510111/17/04 03:05:31  5-MIN KMSN 170905Z 19004KT 2 1/2SM BR OVC005 12/12 A3015 650 96 500 190/04 RMK AO2
14837KMSN MSN20041117031010111/17/04 03:10:31  5-MIN KMSN 170910Z 00000KT 2 1/2SM BR OVC005 12/12 A3015 650 96 500 000/00 RMK AO2
14837KMSN MSN20041117031510111/17/04 03:15:31  5-MIN KMSN 170915Z 19003KT 2 1/2SM BR OVC005 12/12 A3015 650 96 500 190/03 RMK AO2
14837KMSN MSN20041117032010111/17/04 03:20:31  5-MIN KMSN 170920Z 19003KT 2 1/2SM BR OVC005 12/12 A3015 650 96 500 190/03 RMK AO2
14837KMSN MSN20041117032510111/17/04 03:25:31  5-MIN KMSN 170925Z 19003KT 2 1/2SM BR OVC005 12/12 A3015 650 96 500 190/03 RMK AO2
14837KMSN MSN20041117033010111/17/04 03:30:31  5-MIN KMSN 170930Z 20003KT 2 1/2SM BR OVC005 12/12 A3015 650 96 500 200/03 RMK AO2
14837KMSN MSN20041117033510111/17/04 03:35:31  5-MIN KMSN 170935Z 20003KT 2 1/2SM BR OVC005 12/12 A3015 650 96 500 190/03 RMK AO2
14837KMSN MSN20041117034010111/17/04 03:40:31  5-MIN KMSN 170940Z 20004KT 2 1/2SM BR OVC005 12/12 A3015 650 96 500 200/04 RMK AO2
14837KMSN MSN20041117034510111/17/04 03:45:31  5-MIN KMSN 170945Z 20003KT 2 1/2SM BR OVC005 12/12 A3015 660 96 500 200/03 RMK AO2
14837KMSN MSN20041117035011811/17/04 03:50:31  5-MIN KMSN 170950Z 20004KT 2 1/2SM BR OVC005 12/12 A3015 650 96 500 200/04 RMK AO2 SLP211 T01220117
14837KMSN MSN20041117035510111/17/04 03:55:31  5-MIN KMSN 170955Z 20004KT 2 1/2SM BR OVC005 12/12 A3015 650 96 500 200/04 RMK AO2
14837KMSN MSN20041117040009711/17/04 04:00:31  5-MIN KMSN 171000Z 21004KT 2SM BR OVC005 12/12 A3015 650 96 500 200/04 RMK AO2
14837KMSN MSN20041117040509711/17/04 04:05:31  5-MIN KMSN 171005Z 20004KT 2SM BR OVC005 12/12 A3015 650 96 500 200/04 RMK AO2
14837KMSN MSN20041117041009711/17/04 04:10:31  5-MIN KMSN 171010Z VRB04KT 2SM BR OVC005 13/12 A3015 650 93 600 VRB/04 RMK AO2
14837KMSN MSN20041117041509711/17/04 04:15:31  5-MIN KMSN 171015Z 21003KT 2SM BR OVC005 13/12 A3015 650 93 600 200/03 RMK AO2
14837KMSN MSN20041117042009711/17/04 04:20:31  5-MIN KMSN 171020Z 20004KT 2SM BR OVC005 13/12 A3015 650 93 600 200/04 RMK AO2
14837KMSN MSN20041117042509711/17/04 04:25:31  5-MIN KMSN 171025Z 21004KT 2SM BR OVC005 13/12 A3015 650 93 600 210/04 RMK AO2
14837KMSN MSN20041117043009711/17/04 04:30:31  5-MIN KMSN 171030Z 20004KT 2SM BR OVC005 13/12 A3015 650 93 600 200/04 RMK AO2
14837KMSN MSN20041117043509711/17/04 04:35:31  5-MIN KMSN 171035Z 20004KT 2SM BR OVC005 13/12 A3015 650 93 600 200/04 RMK AO2
14837KMSN MSN20041117044009711/17/04 04:40:31  5-MIN KMSN 171040Z 20004KT 2SM BR OVC005 13/12 A3016 650 93 600 200/04 RMK AO2
14837KMSN MSN20041117044509711/17/04 04:45:31  5-MIN KMSN 171045Z 19005KT 2SM BR OVC005 13/12 A3016 650 96 600 190/05 RMK AO2
14837KMSN MSN20041117045011411/17/04 04:50:31  5-MIN KMSN 171050Z 19005KT 2SM BR OVC005 13/12 A3016 650 93 600 190/05 RMK AO2 SLP214 T01280117
14837KMSN MSN20041117045509711/17/04 04:55:31  5-MIN KMSN 171055Z 20005KT 2SM BR OVC005 13/12 A3016 640 96 600 200/05 RMK AO2
14837KMSN MSN20041117050009711/17/04 05:00:31  5-MIN KMSN 171100Z 21003KT 2SM BR OVC005 13/12 A3016 640 96 600 200/03 RMK AO2
14837KMSN MSN20041117050509711/17/04 05:05:31  5-MIN KMSN 171105Z 20005KT 2SM BR OVC005 13/12 A3016 640 96 600 200/05 RMK AO2
14837KMSN MSN20041117051009711/17/04 05:10:31  5-MIN KMSN 171110Z 20005KT 2SM BR OVC005 13/12 A3016 640 96 600 200/05 RMK AO2
14837KMSN MSN20041117051509711/17/04 05:15:31  5-MIN KMSN 171115Z VRB04KT 2SM BR OVC005 13/12 A3016 640 96 600 VRB/04 RMK AO2
14837KMSN MSN20041117052009711/17/04 05:20:31  5-MIN KMSN 171120Z 21005KT 2SM BR OVC005 13/12 A3016 650 93 600 210/05 RMK AO2
14837KMSN MSN20041117052509711/17/04 05:25:31  5-MIN KMSN 171125Z VRB04KT 2SM BR OVC005 13/12 A3016 650 93 600 VRB/04 RMK AO2
14837KMSN MSN20041117053009711/17/04 05:30:31  5-MIN KMSN 171130Z 21004KT 2SM BR OVC005 13/12 A3016 650 93 600 210/04 RMK AO2
14837KMSN MSN20041117053509711/17/04 05:35:31  5-MIN KMSN 171135Z 20003KT 2SM BR OVC005 13/12 A3016 650 93 600 200/03 RMK AO2
14837KMSN MSN20041117054009711/17/04 05:40:31  5-MIN KMSN 171140Z VRB04KT 2SM BR OVC005 13/12 A3016 640 93 600 VRB/04 RMK AO2
14837KMSN MSN20041117054509711/17/04 05:45:31  5-MIN KMSN 171145Z 21004KT 2SM BR OVC005 13/12 A3016 640 93 600 210/04 RMK AO2
14837KMSN MSN20041117055014211/17/04 05:50:31  5-MIN KMSN 171150Z VRB04KT 1 3/4SM BR OVC005 13/12 A3016 640 93 600 VRB/04 RMK AO2 SLP215 70002 T01330122 10133 20117 56005
14837KMSN MSN20041117055510111/17/04 05:55:31  5-MIN KMSN 171155Z 20004KT 1 3/4SM BR OVC005 13/12 A3016 640 93 600 200/04 RMK AO2
14837KMSN MSN20041117060010111/17/04 06:00:31  5-MIN KMSN 171200Z 20004KT 1 3/4SM BR OVC005 13/12 A3016 640 93 600 200/04 RMK AO2
14837KMSN MSN20041117060510111/17/04 06:05:31  5-MIN KMSN 171205Z 20004KT 1 3/4SM BR OVC005 13/12 A3016 640 96 600 200/04 RMK AO2
14837KMSN MSN20041117061010111/17/04 06:10:31  5-MIN KMSN 171210Z 21005KT 1 3/4SM BR OVC005 13/12 A3016 640 93 600 210/05 RMK AO2
14837KMSN MSN20041117061510811/17/04 06:15:31  5-MIN KMSN 171215Z VRB05KT 1 3/4SM BR BKN005 OVC009 13/12 A3016 640 93 600 VRB/05 RMK AO2
14837KMSN MSN20041117062010811/17/04 06:20:31  5-MIN KMSN 171220Z 22005KT 1 3/4SM BR BKN005 OVC008 13/12 A3016 640 93 600 220/05 RMK AO2
14837KMSN MSN20041117062512711/17/04 06:25:31  5-MIN KMSN 171225Z 22005KT 1 3/4SM BR BKN005 BKN009 OVC013 13/12 A3016 640 93 600 220/05 RMK AO2 CIG 004V007
14837KMSN MSN20041117063012711/17/04 06:30:31  5-MIN KMSN 171230Z 21006KT 1 3/4SM BR BKN005 BKN009 OVC015 13/12 A3017 640 93 600 210/06 RMK AO2 CIG 004V007
14837KMSN MSN20041117063512511/17/04 06:35:31  5-MIN KMSN 171235Z 23004KT 1 3/4SM BR SCT005 BKN012 OVC018 13/12 A3017 640 93 600 230/04 RMK AO2 TWR VIS 2
14837KMSN MSN20041117064012511/17/04 06:40:31  5-MIN KMSN 171240Z 23004KT 1 3/4SM BR FEW005 SCT010 OVC018 13/12 A3017 640 93 600 220/04 RMK AO2 TWR VIS 2
14837KMSN MSN20041117064511811/17/04 06:45:31  5-MIN KMSN 171245Z 21004KT 1 1/4SM BR FEW007 OVC016 13/12 A3016 640 93 600 210/04 RMK AO2 TWR VIS 2
14837KMSN MSN20041117065013511/17/04 06:50:31  5-MIN KMSN 171250Z VRB06KT 1 1/4SM BR FEW007 OVC016 13/12 A3016 640 93 600 VRB/06 RMK AO2 TWR VIS 2 SLP217 T01330122
14837KMSN MSN20041117065511111/17/04 06:55:31  5-MIN KMSN 171255Z 22005KT 1 1/2SM BR OVC016 13/12 A3017 640 93 600 220/05 RMK AO2 TWR VIS 2
14837KMSN MSN20041117070011111/17/04 07:00:31  5-MIN KMSN 171300Z 23005KT 1 1/2SM BR OVC016 13/12 A3017 640 93 600 220/05 RMK AO2 TWR VIS 2
14837KMSN MSN20041117070511111/17/04 07:05:31  5-MIN KMSN 171305Z 22005KT 1 3/4SM BR OVC016 13/12 A3016 640 93 600 220/05 RMK AO2 TWR VIS 2
14837KMSN MSN20041117071011111/17/04 07:10:31  5-MIN KMSN 171310Z 23005KT 1 3/4SM BR OVC016 14/13 A3016 640 93 700 230/05 RMK AO2 TWR VIS 2
14837KMSN MSN20041117071510111/17/04 07:15:31  5-MIN KMSN 171315Z VRB04KT 1 3/4SM BR OVC014 14/13 A3017 640 93 700 VRB/04 RMK AO2
14837KMSN MSN20041117072010111/17/04 07:20:31  5-MIN KMSN 171320Z 22006KT 1 3/4SM BR OVC014 14/13 A3017 640 93 700 220/06 RMK AO2
14837KMSN MSN20041117072510111/17/04 07:25:31  5-MIN KMSN 171325Z 22005KT 1 3/4SM BR OVC014 14/13 A3017 640 93 700 210/05 RMK AO2
14837KMSN MSN20041117073010111/17/04 07:30:31  5-MIN KMSN 171330Z 22004KT 1 3/4SM BR OVC014 14/13 A3017 640 93 700 220/04 RMK AO2
14837KMSN MSN20041117073510111/17/04 07:35:31  5-MIN KMSN 171335Z VRB04KT 1 3/4SM BR OVC014 14/13 A3017 640 93 700 VRB/04 RMK AO2
14837KMSN MSN20041117074010111/17/04 07:40:31  5-MIN KMSN 171340Z VRB04KT 1 3/4SM BR OVC014 14/13 A3017 640 93 700 VRB/04 RMK AO2
14837KMSN MSN20041117074511111/17/04 07:45:31  5-MIN KMSN 171345Z VRB03KT 1 3/4SM BR OVC014 14/13 A3017 640 93 700 VRB/03 RMK AO2 SFC VIS 2
14837KMSN MSN20041117075011411/17/04 07:50:31  5-MIN KMSN 171350Z 23004KT 2SM BR OVC014 14/13 A3017 630 93 700 230/04 RMK AO2 SLP217 T01390128
14837KMSN MSN20041117075509711/17/04 07:55:31  5-MIN KMSN 171355Z 23004KT 2SM BR OVC014 14/13 A3017 630 93 700 220/04 RMK AO2
14837KMSN MSN20041117080009711/17/04 08:00:31  5-MIN KMSN 171400Z 22004KT 2SM BR OVC014 14/12 A3017 640 90 700 220/04 RMK AO2
14837KMSN MSN20041117080511111/17/04 08:05:31  5-MIN KMSN 171405Z 21005KT 2SM BR OVC016 14/13 A3017 630 93 700 210/05 RMK AO2 SFC VIS 2 1/2
14837KMSN MSN20041117081011111/17/04 08:10:31  5-MIN KMSN 171410Z 21003KT 2SM BR OVC016 14/13 A3017 630 93 700 210/03 RMK AO2 SFC VIS 2 1/2
14837KMSN MSN20041117081511111/17/04 08:15:31  5-MIN KMSN 171415Z 22005KT 2 1/2SM BR OVC016 14/13 A3017 630 93 700 210/05 RMK AO2 SFC VIS 3
14837KMSN MSN20041117082011011/17/04 08:20:31  5-MIN KMSN 171420Z 22004KT 3SM BR OVC016 14/13 A3017 630 90 800 220/04 RMK AO2 OVC016 V BKN
14837KMSN MSN20041117082509711/17/04 08:25:31  5-MIN KMSN 171425Z 21004KT 3SM BR OVC016 14/13 A3017 630 90 800 210/04 RMK AO2
14837KMSN MSN20041117083009711/17/04 08:30:31  5-MIN KMSN 171430Z 21003KT 3SM BR OVC016 14/13 A3017 630 90 800 210/03 RMK AO2
14837KMSN MSN20041117083509711/17/04 08:35:31  5-MIN KMSN 171435Z VRB03KT 3SM BR OVC016 14/13 A3017 630 90 800 VRB/03 RMK AO2
14837KMSN MSN20041117084009711/17/04 08:40:31  5-MIN KMSN 171440Z 18003KT 3SM BR OVC016 14/13 A3017 630 90 800 180/03 RMK AO2
14837KMSN MSN20041117084509711/17/04 08:45:31  5-MIN KMSN 171445Z 19004KT 3SM BR OVC016 14/13 A3017 630 90 800 190/04 RMK AO2
14837KMSN MSN20041117085012011/17/04 08:50:31  5-MIN KMSN 171450Z VRB03KT 3SM BR BKN016 15/13 A3017 640 86 800 VRB/03 RMK AO2 SLP217 T01500128 53002
14837KMSN MSN20041117085510411/17/04 08:55:31  5-MIN KMSN 171455Z 20003KT 3SM BR BKN016 OVC034 15/13 A3017 640 86 800 200/03 RMK AO2
14837KMSN MSN20041117090010411/17/04 09:00:31  5-MIN KMSN 171500Z 20004KT 3SM BR BKN016 OVC034 15/13 A3017 630 90 800 200/04 RMK AO2
14837KMSN MSN20041117090511411/17/04 09:05:31  5-MIN KMSN 171505Z 22005KT 3SM BR BKN011 OVC016 15/13 A3017 640 86 800 220/05 RMK AO2 SFC VIS 3
14837KMSN MSN20041117091013011/17/04 09:10:31  5-MIN KMSN 171510Z 22005KT 2 1/2SM BR BKN011 OVC016 15/13 A3017 630 86 800 220/05 RMK AO2 SFC VIS 3 CIG 009V014
14837KMSN MSN20041117091513011/17/04 09:15:31  5-MIN KMSN 171515Z VRB03KT 2 1/2SM BR BKN011 OVC016 15/13 A3017 630 90 800 VRB/03 RMK AO2 SFC VIS 3 CIG 009V014
14837KMSN MSN20041117092013011/17/04 09:20:31  5-MIN KMSN 171520Z 21006KT 2 1/2SM BR BKN011 OVC016 15/13 A3017 630 90 800 210/06 RMK AO2 SFC VIS 3 CIG 009V014
14837KMSN MSN20041117092512311/17/04 09:25:31  5-MIN KMSN 171525Z 21007KT 2 1/2SM BR OVC009 15/13 A3017 630 90 800 210/07 RMK AO2 SFC VIS 3 CIG 009V014
14837KMSN MSN20041117093012311/17/04 09:30:31  5-MIN KMSN 171530Z 21006KT 2 1/2SM BR OVC009 15/13 A3017 630 90 800 210/06 RMK AO2 SFC VIS 3 CIG 009V013
14837KMSN MSN20041117093511811/17/04 09:35:31  5-MIN KMSN 171535Z 20005KT 2 1/2SM BR BKN009 OVC014 15/13 A3017 630 90 800 200/05 RMK AO2 SFC VIS 3
14837KMSN MSN20041117094010811/17/04 09:40:31  5-MIN KMSN 171540Z 20006KT 2 1/2SM BR BKN009 OVC030 15/13 A3017 630 90 800 200/06 RMK AO2
14837KMSN MSN20041117094512011/17/04 09:45:31  5-MIN KMSN 171545Z 20006KT 2 1/2SM BR BKN009 OVC030 15/13 A3017 630 90 800 200/06 RMK AO2 CIG 009V014
14837KMSN MSN20041117095013711/17/04 09:50:31  5-MIN KMSN 171550Z 21006KT 2 1/2SM BR BKN009 OVC028 15/13 A3017 630 90 800 210/06 RMK AO2 CIG 009V014 SLP219 T01500133
14837KMSN MSN20041117095512011/17/04 09:55:31  5-MIN KMSN 171555Z 20005KT 2 1/2SM BR BKN009 OVC028 15/13 A3017 630 90 800 200/05 RMK AO2 CIG 009V014
14837KMSN MSN20041117100010811/17/04 10:00:31  5-MIN KMSN 171600Z 21005KT 2 1/2SM BR BKN009 OVC028 15/13 A3017 630 90 800 210/05 RMK AO2
14837KMSN MSN20041117100512011/17/04 10:05:31  5-MIN KMSN 171605Z 21005KT 2 1/2SM BR BKN009 OVC028 15/13 A3017 630 90 800 210/05 RMK AO2 CIG 009V013
14837KMSN MSN20041117101012011/17/04 10:10:31  5-MIN KMSN 171610Z VRB05KT 2 1/2SM BR BKN009 OVC028 15/13 A3018 630 90 800 VRB/05 RMK AO2 CIG 009V013
14837KMSN MSN20041117101511811/17/04 10:15:31  5-MIN KMSN 171615Z 21005KT 2 1/2SM BR BKN011 OVC028 15/13 A3017 630 90 800 210/05 RMK AO2 SFC VIS 3
14837KMSN MSN20041117102011811/17/04 10:20:31  5-MIN KMSN 171620Z 21006KT 2 1/2SM BR BKN011 OVC026 15/13 A3018 630 90 800 210/06 RMK AO2 SFC VIS 3
14837KMSN MSN20041117102510811/17/04 10:25:31  5-MIN KMSN 171625Z 22006KT 2 1/2SM BR BKN011 OVC026 15/13 A3018 630 90 800 220/06 RMK AO2
14837KMSN MSN20041117103010811/17/04 10:30:31  5-MIN KMSN 171630Z 21004KT 2 1/2SM BR BKN011 OVC025 15/13 A3018 630 90 800 210/04 RMK AO2
14837KMSN MSN20041117103510811/17/04 10:35:31  5-MIN KMSN 171635Z VRB06KT 2 1/2SM BR BKN011 OVC023 15/13 A3017 630 90 800 VRB/06 RMK AO2
14837KMSN MSN20041117104010811/17/04 10:40:31  5-MIN KMSN 171640Z 21005KT 2 1/2SM BR BKN011 OVC023 15/13 A3017 630 90 800 200/05 RMK AO2
14837KMSN MSN20041117104510811/17/04 10:45:31  5-MIN KMSN 171645Z 21005KT 2 1/2SM BR BKN011 OVC023 16/13 A3017 630 86 900 210/05 RMK AO2
14837KMSN MSN20041117105012511/17/04 10:50:31  5-MIN KMSN 171650Z 20005KT 2 1/2SM BR SCT011 OVC023 16/13 A3017 630 86 900 200/05 RMK AO2 SLP217 T01560133
14837KMSN MSN20041117105510811/17/04 10:55:31  5-MIN KMSN 171655Z 20003KT 2 1/2SM BR FEW011 OVC023 16/13 A3017 630 86 900 200/03 RMK AO2
14837KMSN MSN20041117110010811/17/04 11:00:31  5-MIN KMSN 171700Z 22005KT 2 1/2SM BR SCT011 OVC023 16/13 A3017 630 86 900 220/05 RMK AO2
14837KMSN MSN20041117110510811/17/04 11:05:31  5-MIN KMSN 171705Z VRB04KT 2 1/2SM BR SCT011 OVC023 16/13 A3017 640 86 900 VRB/04 RMK AO2
14837KMSN MSN20041117111010811/17/04 11:10:31  5-MIN KMSN 171710Z 19004KT 2 1/2SM BR BKN011 OVC023 16/13 A3017 640 86 900 190/04 RMK AO2
14837KMSN MSN20041117111510811/17/04 11:15:31  5-MIN KMSN 171715Z 19004KT 2 1/2SM BR BKN011 OVC023 16/13 A3017 640 86 900 190/04 RMK AO2
14837KMSN MSN20041117112010811/17/04 11:20:31  5-MIN KMSN 171720Z 20004KT 2 1/2SM BR BKN011 OVC023 15/13 A3017 640 90 800 200/04 RMK AO2
14837KMSN MSN20041117112511511/17/04 11:25:31  5-MIN KMSN 171725Z VRB03KT 2 1/2SM BR BKN011 BKN018 OVC023 16/13 A3016 640 86 900 VRB/03 RMK AO2
14837KMSN MSN20041117113011511/17/04 11:30:31  5-MIN KMSN 171730Z 19004KT 2 1/2SM BR BKN011 BKN018 OVC023 16/13 A3016 640 86 900 190/04 RMK AO2
14837KMSN MSN20041117113511511/17/04 11:35:31  5-MIN KMSN 171735Z 23005KT 2 1/2SM BR BKN011 BKN018 OVC023 16/13 A3016 640 86 900 230/05 RMK AO2
14837KMSN MSN20041117114012511/17/04 11:40:31  5-MIN KMSN 171740Z 21006KT 2 1/2SM BR BKN011 BKN018 OVC023 16/13 A3016 650 86 900 210/06 RMK AO2 SFC VIS 3
14837KMSN MSN20041117114512511/17/04 11:45:31  5-MIN KMSN 171745Z VRB06KT 2 1/2SM BR BKN011 BKN018 OVC023 16/13 A3016 640 86 900 VRB/06 RMK AO2 SFC VIS 3
14837KMSN MSN20041117115015311/17/04 11:50:31  5-MIN KMSN 171750Z 23004KT 2 1/2SM BR BKN014 OVC023 16/13 A3016 640 86 900 230/04 RMK AO2 SFC VIS 3 SLP214 T01560133 10156 20128 50003
14837KMSN MSN20041117115511811/17/04 11:55:31  5-MIN KMSN 171755Z 22006KT 2 1/2SM BR BKN014 OVC023 16/13 A3016 650 86 900 220/06 RMK AO2 SFC VIS 3
14837KMSN MSN20041117120011811/17/04 12:00:31  5-MIN KMSN 171800Z 23005KT 2 1/2SM BR BKN014 OVC023 16/13 A3016 650 86 900 230/05 RMK AO2 SFC VIS 3
14837KMSN MSN20041117120511111/17/04 12:05:31  5-MIN KMSN 171805Z VRB05KT 2 1/2SM BR OVC014 16/13 A3016 650 86 900 VRB/05 RMK AO2 SFC VIS 3
14837KMSN MSN20041117121011111/17/04 12:10:31  5-MIN KMSN 171810Z 23006KT 2 1/2SM BR OVC016 16/13 A3016 650 86 900 220/06 RMK AO2 SFC VIS 3
14837KMSN MSN20041117121511811/17/04 12:15:31  5-MIN KMSN 171815Z 23006KT 2 1/2SM BR BKN016 OVC023 16/13 A3015 650 86 900 230/06 RMK AO2 SFC VIS 3
14837KMSN MSN20041117122011811/17/04 12:20:31  5-MIN KMSN 171820Z 23005KT 2 1/2SM BR BKN016 OVC023 16/13 A3015 650 86 900 230/05 RMK AO2 SFC VIS 3
14837KMSN MSN20041117122511811/17/04 12:25:31  5-MIN KMSN 171825Z 23005KT 2 1/2SM BR BKN016 OVC023 16/13 A3015 650 86 900 230/05 RMK AO2 SFC VIS 3
14837KMSN MSN20041117123011111/17/04 12:30:31  5-MIN KMSN 171830Z VRB04KT 2 1/2SM BR OVC018 16/13 A3015 650 86 900 VRB/04 RMK AO2 SFC VIS 3
14837KMSN MSN20041117123511111/17/04 12:35:31  5-MIN KMSN 171835Z VRB04KT 2 1/2SM BR OVC018 16/13 A3015 650 86 900 VRB/04 RMK AO2 SFC VIS 4
14837KMSN MSN20041117124010711/17/04 12:40:31  5-MIN KMSN 171840Z 24004KT 3SM BR OVC018 16/13 A3015 650 86 900 240/04 RMK AO2 SFC VIS 4
14837KMSN MSN20041117124509711/17/04 12:45:31  5-MIN KMSN 171845Z VRB04KT 3SM BR OVC018 16/13 A3015 650 86 900 VRB/04 RMK AO2
14837KMSN MSN20041117125011411/17/04 12:50:31  5-MIN KMSN 171850Z 22005KT 3SM BR OVC016 16/13 A3015 660 86 900 220/05 RMK AO2 SLP210 T01560133
14837KMSN MSN20041117125510711/17/04 12:55:31  5-MIN KMSN 171855Z 23004KT 3SM BR OVC016 16/13 A3015 660 86 900 230/04 RMK AO2 SFC VIS 4
14837KMSN MSN20041117130011411/17/04 13:00:31  5-MIN KMSN 171900Z 23005KT 3SM BR BKN016 OVC021 16/13 A3015 660 86 900 230/05 RMK AO2 SFC VIS 3
14837KMSN MSN20041117130511511/17/04 13:05:31  5-MIN KMSN 171905Z 23004KT 3SM HZ BKN016 OVC023 16/13 A3014 660 83 1000 230/04 RMK AO2 SFC VIS 3
14837KMSN MSN20041117131011511/17/04 13:10:31  5-MIN KMSN 171910Z 24005KT 3SM HZ SCT016 OVC026 16/13 A3014 660 83 1000 230/05 RMK AO2 SFC VIS 3
14837KMSN MSN20041117131511511/17/04 13:15:31  5-MIN KMSN 171915Z 24005KT 3SM HZ SCT016 OVC026 16/13 A3014 660 83 1000 240/05 RMK AO2 SFC VIS 3
14837KMSN MSN20041117132011511/17/04 13:20:31  5-MIN KMSN 171920Z 22005KT 3SM HZ FEW016 OVC026 16/13 A3014 660 83 1000 220/05 RMK AO2 SFC VIS 4
14837KMSN MSN20041117132511511/17/04 13:25:31  5-MIN KMSN 171925Z 23005KT 3SM HZ FEW021 OVC026 16/13 A3014 660 83 1000 230/05 RMK AO2 SFC VIS 4
14837KMSN MSN20041117133011511/17/04 13:30:31  5-MIN KMSN 171930Z 23005KT 3SM HZ SCT020 OVC027 16/13 A3013 670 83 1000 230/05 RMK AO2 SFC VIS 4
14837KMSN MSN20041117133510511/17/04 13:35:31  5-MIN KMSN 171935Z 23004KT 4SM HZ SCT020 OVC027 16/13 A3013 670 83 1000 230/04 RMK AO2
14837KMSN MSN20041117134010511/17/04 13:40:31  5-MIN KMSN 171940Z 23005KT 5SM HZ SCT020 OVC027 17/13 A3013 670 80 1100 230/05 RMK AO2
14837KMSN MSN20041117134510511/17/04 13:45:31  5-MIN KMSN 171945Z 24004KT 5SM HZ BKN021 OVC026 17/13 A3013 670 80 1100 240/04 RMK AO2
14837KMSN MSN20041117135011511/17/04 13:50:31  5-MIN KMSN 171950Z 23006KT 5SM HZ OVC023 17/13 A3013 670 80 1100 230/06 RMK AO2 SLP204 T01670133
14837KMSN MSN20041117135509811/17/04 13:55:31  5-MIN KMSN 171955Z 22007KT 5SM HZ BKN023 17/13 A3013 670 78 1100 220/07 RMK AO2
14837KMSN MSN20041117140009811/17/04 14:00:31  5-MIN KMSN 172000Z 23008KT 6SM HZ BKN023 17/13 A3013 670 78 1100 230/08 RMK AO2
14837KMSN MSN20041117140509811/17/04 14:05:31  5-MIN KMSN 172005Z 24008KT 6SM HZ BKN023 17/13 A3013 670 78 1100 240/08 RMK AO2
14837KMSN MSN20041117141009811/17/04 14:10:31  5-MIN KMSN 172010Z 23007KT 6SM HZ BKN023 17/13 A3013 670 78 1100 230/07 RMK AO2
14837KMSN MSN20041117141509811/17/04 14:15:31  5-MIN KMSN 172015Z 24006KT 6SM HZ BKN023 17/13 A3013 680 78 1100 240/06 RMK AO2
14837KMSN MSN20041117142010511/17/04 14:20:31  5-MIN KMSN 172020Z 23005KT 6SM HZ SCT023 SCT027 17/13 A3013 680 77 1100 230/05 RMK AO2
14837KMSN MSN20041117142510511/17/04 14:25:31  5-MIN KMSN 172025Z 23006KT 6SM HZ FEW023 SCT027 17/13 A3013 670 80 1100 230/06 RMK AO2
14837KMSN MSN20041117143009811/17/04 14:30:31  5-MIN KMSN 172030Z VRB06KT 6SM HZ SCT023 17/13 A3013 670 78 1100 VRB/06 RMK AO2
14837KMSN MSN20041117143509811/17/04 14:35:31  5-MIN KMSN 172035Z 25006KT 6SM HZ SCT023 17/13 A3013 670 78 1100 240/06 RMK AO2
14837KMSN MSN20041117144009811/17/04 14:40:31  5-MIN KMSN 172040Z 22006KT 6SM HZ SCT023 17/13 A3013 670 78 1100 220/06 RMK AO2
14837KMSN MSN20041117144509811/17/04 14:45:31  5-MIN KMSN 172045Z 23006KT 6SM HZ SCT023 17/13 A3013 670 78 1100 230/06 RMK AO2
14837KMSN MSN20041117145012111/17/04 14:50:31  5-MIN KMSN 172050Z 24004KT 6SM HZ SCT023 17/13 A3013 670 80 1100 240/04 RMK AO2 SLP202 T01670133 58003
14837KMSN MSN20041117145509811/17/04 14:55:31  5-MIN KMSN 172055Z 23005KT 6SM HZ SCT027 17/13 A3013 680 80 1100 230/05 RMK AO2
14837KMSN MSN20041117150009811/17/04 15:00:31  5-MIN KMSN 172100Z 22006KT 6SM HZ SCT027 17/13 A3013 670 80 1100 220/06 RMK AO2
14837KMSN MSN20041117150509811/17/04 15:05:31  5-MIN KMSN 172105Z 23004KT 6SM HZ SCT027 17/13 A3013 670 80 1100 230/04 RMK AO2
14837KMSN MSN20041117151009811/17/04 15:10:31  5-MIN KMSN 172110Z VRB04KT 6SM HZ SCT027 17/13 A3013 680 80 1100 VRB/04 RMK AO2
14837KMSN MSN20041117151509811/17/04 15:15:31  5-MIN KMSN 172115Z 23004KT 6SM HZ SCT027 17/13 A3013 670 80 1100 230/04 RMK AO2
14837KMSN MSN20041117152009811/17/04 15:20:31  5-MIN KMSN 172120Z 24004KT 6SM HZ SCT027 17/13 A3013 670 80 1100 240/04 RMK AO2
14837KMSN MSN20041117152509811/17/04 15:25:31  5-MIN KMSN 172125Z VRB05KT 6SM HZ SCT025 17/13 A3013 670 80 1100 VRB/05 RMK AO2
14837KMSN MSN20041117153009811/17/04 15:30:31  5-MIN KMSN 172130Z VRB03KT 6SM HZ SCT025 17/13 A3013 670 80 1100 VRB/03 RMK AO2
14837KMSN MSN20041117153509811/17/04 15:35:31  5-MIN KMSN 172135Z 22004KT 6SM HZ SCT025 17/13 A3013 670 78 1100 220/04 RMK AO2
14837KMSN MSN20041117154009811/17/04 15:40:31  5-MIN KMSN 172140Z 21004KT 6SM HZ SCT025 17/13 A3013 670 78 1100 210/04 RMK AO2
14837KMSN MSN20041117154509811/17/04 15:45:31  5-MIN KMSN 172145Z 21005KT 6SM HZ SCT025 17/13 A3013 670 80 1100 210/05 RMK AO2
14837KMSN MSN20041117155011511/17/04 15:50:31  5-MIN KMSN 172150Z 20005KT 6SM HZ SCT025 17/13 A3013 670 80 1100 190/05 RMK AO2 SLP204 T01670133
14837KMSN MSN20041117155509811/17/04 15:55:31  5-MIN KMSN 172155Z 21003KT 6SM HZ SCT025 17/13 A3013 670 80 1100 210/03 RMK AO2
14837KMSN MSN20041117160009811/17/04 16:00:31  5-MIN KMSN 172200Z 21004KT 6SM HZ SCT025 17/13 A3013 670 80 1100 210/04 RMK AO2
14837KMSN MSN20041117160509811/17/04 16:05:31  5-MIN KMSN 172205Z 22003KT 6SM HZ SCT025 17/13 A3013 670 80 1100 210/03 RMK AO2
14837KMSN MSN20041117161009811/17/04 16:10:31  5-MIN KMSN 172210Z 22004KT 6SM HZ SCT025 17/13 A3013 670 80 1100 220/04 RMK AO2
14837KMSN MSN20041117161509811/17/04 16:15:31  5-MIN KMSN 172215Z VRB03KT 6SM HZ SCT025 17/13 A3013 670 80 1100 VRB/03 RMK AO2
14837KMSN MSN20041117162009811/17/04 16:20:31  5-MIN KMSN 172220Z 21003KT 6SM HZ SCT025 16/13 A3013 670 83 1000 210/03 RMK AO2
14837KMSN MSN20041117162509811/17/04 16:25:31  5-MIN KMSN 172225Z 00000KT 6SM HZ SCT025 16/13 A3013 670 83 1000 000/00 RMK AO2
14837KMSN MSN20041117163009811/17/04 16:30:31  5-MIN KMSN 172230Z 00000KT 5SM HZ FEW025 16/13 A3013 670 83 1000 000/00 RMK AO2
14837KMSN MSN20041117163509711/17/04 16:35:31  5-MIN KMSN 172235Z 00000KT 5SM BR FEW025 16/13 A3013 670 86 900 000/00 RMK AO2
14837KMSN MSN20041117164009711/17/04 16:40:31  5-MIN KMSN 172240Z 22003KT 5SM BR FEW025 15/13 A3013 670 90 900 220/03 RMK AO2
14837KMSN MSN20041117164509711/17/04 16:45:31  5-MIN KMSN 172245Z 23003KT 6SM BR FEW025 15/13 A3013 670 90 900 230/03 RMK AO2
14837KMSN MSN20041117165011411/17/04 16:50:31  5-MIN KMSN 172250Z 22003KT 6SM BR FEW025 14/13 A3013 670 90 800 220/03 RMK AO2 SLP205 T01440128
14837KMSN MSN20041117165509711/17/04 16:55:31  5-MIN KMSN 172255Z 22003KT 6SM BR SCT031 14/13 A3013 670 90 800 220/03 RMK AO2
14837KMSN MSN20041117170009711/17/04 17:00:31  5-MIN KMSN 172300Z 22003KT 6SM BR BKN031 14/13 A3013 670 93 700 220/03 RMK AO2
14837KMSN MSN20041117170509711/17/04 17:05:31  5-MIN KMSN 172305Z 00000KT 6SM BR BKN031 14/13 A3013 670 90 800 000/00 RMK AO2
14837KMSN MSN20041117171009411/17/04 17:10:31  5-MIN KMSN 172310Z 00000KT 7SM BKN031 15/13 A3013 670 86 900 000/00 RMK AO2
14837KMSN MSN20041117171509411/17/04 17:15:31  5-MIN KMSN 172315Z 20003KT 7SM SCT031 14/13 A3014 670 90 800 200/03 RMK AO2
14837KMSN MSN20041117172009411/17/04 17:20:31  5-MIN KMSN 172320Z 20004KT 7SM SCT031 16/13 A3014 670 86 900 200/04 RMK AO2
14837KMSN MSN20041117172509411/17/04 17:25:31  5-MIN KMSN 172325Z 21004KT 7SM SCT031 15/13 A3014 660 86 900 210/04 RMK AO2
14837KMSN MSN20041117173009411/17/04 17:30:31  5-MIN KMSN 172330Z 21004KT 7SM SCT031 15/13 A3014 660 90 900 210/04 RMK AO2
14837KMSN MSN20041117173509411/17/04 17:35:31  5-MIN KMSN 172335Z 21005KT 7SM FEW023 15/13 A3014 660 90 900 210/05 RMK AO2
14837KMSN MSN20041117174009411/17/04 17:40:31  5-MIN KMSN 172340Z 20004KT 7SM FEW023 16/13 A3014 660 86 900 200/04 RMK AO2
14837KMSN MSN20041117174509411/17/04 17:45:31  5-MIN KMSN 172345Z 20004KT 7SM FEW023 16/13 A3014 660 86 900 200/04 RMK AO2
14837KMSN MSN20041117175012911/17/04 17:50:31  5-MIN KMSN 172350Z 20004KT 7SM FEW024 16/13 A3014 660 86 900 200/04 RMK AO2 SLP208 T01560133 10172 20139 56011
14837KMSN MSN20041117175509411/17/04 17:55:31  5-MIN KMSN 172355Z 20004KT 7SM FEW024 16/13 A3014 660 86 900 200/04 RMK AO2
14837KMSN MSN20041117180009411/17/04 18:00:31  5-MIN KMSN 180000Z 20004KT 7SM FEW024 15/13 A3014 660 90 900 200/04 RMK AO2
14837KMSN MSN20041117180509111/17/04 18:05:31  5-MIN KMSN 180005Z 19004KT 7SM CLR 15/13 A3014 660 90 900 190/04 RMK AO2
14837KMSN MSN20041117181009411/17/04 18:10:31  5-MIN KMSN 180010Z 19005KT 6SM BR CLR 15/13 A3014 660 86 900 190/05 RMK AO2
14837KMSN MSN20041117181509411/17/04 18:15:31  5-MIN KMSN 180015Z 20005KT 6SM BR CLR 15/13 A3014 660 90 900 190/05 RMK AO2
14837KMSN MSN20041117182009411/17/04 18:20:31  5-MIN KMSN 180020Z 19004KT 6SM BR CLR 15/13 A3014 660 90 900 190/04 RMK AO2
14837KMSN MSN20041117182509411/17/04 18:25:31  5-MIN KMSN 180025Z 19004KT 6SM BR CLR 15/13 A3014 660 90 900 190/04 RMK AO2
14837KMSN MSN20041117183009411/17/04 18:30:31  5-MIN KMSN 180030Z 20004KT 6SM BR CLR 15/13 A3014 660 90 900 200/04 RMK AO2
14837KMSN MSN20041117183509411/17/04 18:35:31  5-MIN KMSN 180035Z 19003KT 6SM BR CLR 15/13 A3014 660 90 900 190/03 RMK AO2
14837KMSN MSN20041117184009411/17/04 18:40:31  5-MIN KMSN 180040Z 20004KT 5SM BR CLR 14/13 A3014 660 90 800 190/04 RMK AO2
14837KMSN MSN20041117184509411/17/04 18:45:31  5-MIN KMSN 180045Z 20003KT 5SM BR CLR 14/13 A3014 660 93 700 200/03 RMK AO2
14837KMSN MSN20041117185011111/17/04 18:50:31  5-MIN KMSN 180050Z 00000KT 5SM BR CLR 13/12 A3014 660 96 600 000/00 RMK AO2 SLP208 T01280122
14837KMSN MSN20041117185509411/17/04 18:55:31  5-MIN KMSN 180055Z 00000KT 4SM BR CLR 13/12 A3014 660 96 600 000/00 RMK AO2
14837KMSN MSN20041117190009411/17/04 19:00:31  5-MIN KMSN 180100Z 00000KT 3SM BR CLR 13/12 A3015 660 96 600 000/00 RMK AO2
14837KMSN MSN20041117190509411/17/04 19:05:31  5-MIN KMSN 180105Z 00000KT 4SM BR CLR 13/12 A3015 660 96 600 000/00 RMK AO2
14837KMSN MSN20041117191010611/17/04 19:10:31  5-MIN KMSN 180110Z 00000KT 2 1/2SM BR BCFG FEW001 12/12 A3014 660 96 500 000/00 RMK AO2
14837KMSN MSN20041117191510611/17/04 19:15:31  5-MIN KMSN 180115Z 00000KT 2 1/2SM BR BCFG FEW001 12/11 A3014 660 96 500 000/00 RMK AO2
14837KMSN MSN20041117192010211/17/04 19:20:31  5-MIN KMSN 180120Z 00000KT 3SM BR BCFG FEW001 12/12 A3014 660 96 500 000/00 RMK AO2
14837KMSN MSN20041117192510211/17/04 19:25:31  5-MIN KMSN 180125Z 00000KT 4SM BR BCFG FEW001 12/11 A3014 660 96 500 000/00 RMK AO2
14837KMSN MSN20041117193010411/17/04 19:30:31  5-MIN KMSN 180130Z 00000KT 2 1/2SM BR BCFG CLR 11/11 A3014 660 100 400 000/00 RMK AO2
14837KMSN MSN20041117193510711/17/04 19:35:31  5-MIN KMSN 180135Z 00000KT 2 1/2SM BR BCFG FEW001 11/11 A3014 660 100 300 000/00 RMK AO2
14837KMSN MSN20041117194010611/17/04 19:40:31  5-MIN KMSN 180140Z 00000KT 2 1/2SM BR BCFG FEW001 12/11 A3014 660 96 500 000/00 RMK AO2
14837KMSN MSN20041117194509911/17/04 19:45:31  5-MIN KMSN 180145Z 00000KT 4SM BR BCFG CLR 11/11 A3014 660 96 400 000/00 RMK AO2
14837KMSN MSN20041117195012111/17/04 19:50:31  5-MIN KMSN 180150Z 00000KT 2 1/2SM BR BCFG CLR 11/11 A3014 660 100 400 000/00 RMK AO2 SLP210 T01110111
14837KMSN MSN20041117195510711/17/04 19:55:31  5-MIN KMSN 180155Z 00000KT 1 1/2SM BR BCFG FEW001 11/11 A3015 660 100 300 000/00 RMK AO2
14837KMSN MSN20041117200010611/17/04 20:00:31  5-MIN KMSN 180200Z 00000KT 1 1/2SM BR BCFG FEW001 11/11 A3015 660 96 400 000/00 RMK AO2
14837KMSN MSN20041117200510411/17/04 20:05:31  5-MIN KMSN 180205Z 00000KT 1 1/2SM BR BCFG CLR 11/11 A3014 660 100 300 000/00 RMK AO2
14837KMSN MSN20041117201010111/17/04 20:10:31  5-MIN KMSN 180210Z 00000KT 1SM BR BCFG VV001 10/09 A3015 660 96 300 000/00 RMK AO2
14837KMSN MSN20041117201510311/17/04 20:15:31  5-MIN KMSN 180215Z 00000KT 2SM BR BCFG FEW001 10/10 A3015 660 100 300 000/00 RMK AO2
14837KMSN MSN20041117202010011/17/04 20:20:31  5-MIN KMSN 180220Z 00000KT 2SM BR BCFG CLR 11/11 A3014 660 100 300 000/00 RMK AO2
14837KMSN MSN20041117202510311/17/04 20:25:31  5-MIN KMSN 180225Z 00000KT 2SM BR BCFG FEW007 10/10 A3015 660 100 300 000/00 RMK AO2
14837KMSN MSN20041117203010311/17/04 20:30:31  5-MIN KMSN 180230Z 00000KT 2SM BR BCFG SCT007 11/11 A3015 660 100 300 000/00 RMK AO2
14837KMSN MSN20041117203510211/17/04 20:35:31  5-MIN KMSN 180235Z 22004KT 3SM BR BCFG BKN007 11/11 A3015 650 96 400 220/04 RMK AO2
14837KMSN MSN20041117204009711/17/04 20:40:31  5-MIN KMSN 180240Z 22004KT 3SM BR BKN005 13/12 A3015 650 96 600 220/04 RMK AO2
14837KMSN MSN20041117204509811/17/04 20:45:31  5-MIN KMSN 180245Z 23005KT 3SM BR BKN005 13/13 A3015 650 100 600 230/05 RMK AO2
14837KMSN MSN20041117205012111/17/04 20:50:31  5-MIN KMSN 180250Z 23005KT 3SM BR OVC005 14/14 A3015 650 100 700 230/05 RMK AO2 SLP210 T01390139 53006
14837KMSN MSN20041117205509811/17/04 20:55:31  5-MIN KMSN 180255Z 23006KT 3SM BR BKN005 14/14 A3015 650 100 700 230/06 RMK AO2
14837KMSN MSN20041117210009811/17/04 21:00:31  5-MIN KMSN 180300Z 22006KT 3SM BR BKN005 14/14 A3015 650 100 700 220/06 RMK AO2
14837KMSN MSN20041117210509711/17/04 21:05:31  5-MIN KMSN 180305Z 22005KT 3SM BR BKN005 14/13 A3015 650 96 700 220/05 RMK AO2
14837KMSN MSN20041117211009711/17/04 21:10:31  5-MIN KMSN 180310Z VRB04KT 3SM BR SCT005 14/13 A3015 650 96 700 VRB/04 RMK AO2
14837KMSN MSN20041117211509711/17/04 21:15:31  5-MIN KMSN 180315Z 23004KT 3SM BR FEW005 14/13 A3015 650 96 700 230/04 RMK AO2
14837KMSN MSN20041117212009711/17/04 21:20:31  5-MIN KMSN 180320Z 23004KT 3SM BR FEW005 14/13 A3015 650 96 700 230/04 RMK AO2
14837KMSN MSN20041117212509511/17/04 21:25:31  5-MIN KMSN 180325Z 22005KT 3SM BR CLR 14/14 A3015 650 100 700 220/05 RMK AO2
14837KMSN MSN20041117213009511/17/04 21:30:31  5-MIN KMSN 180330Z VRB05KT 3SM BR CLR 14/14 A3015 650 100 700 VRB/05 RMK AO2
14837KMSN MSN20041117213509511/17/04 21:35:31  5-MIN KMSN 180335Z 22005KT 3SM BR CLR 14/14 A3015 650 100 700 220/05 RMK AO2
14837KMSN MSN20041117214009411/17/04 21:40:31  5-MIN KMSN 180340Z 23004KT 3SM BR CLR 14/13 A3015 650 96 700 230/04 RMK AO2
14837KMSN MSN20041117214509411/17/04 21:45:31  5-MIN KMSN 180345Z VRB04KT 3SM BR CLR 14/13 A3015 650 96 700 VRB/04 RMK AO2
14837KMSN MSN20041117215011411/17/04 21:50:31  5-MIN KMSN 180350Z 23003KT 3SM BR FEW065 14/13 A3015 650 96 700 230/03 RMK AO2 SLP211 T01390133
14837KMSN MSN20041117215510111/17/04 21:55:31  5-MIN KMSN 180355Z VRB04KT 2 1/2SM BR FEW065 14/13 A3015 650 96 700 VRB/04 RMK AO2
14837KMSN MSN20041117220010111/17/04 22:00:31  5-MIN KMSN 180400Z 23004KT 2 1/2SM BR FEW065 14/13 A3015 650 96 700 230/04 RMK AO2
14837KMSN MSN20041117220510111/17/04 22:05:31  5-MIN KMSN 180405Z 23004KT 2 1/2SM BR FEW065 14/13 A3015 650 96 700 220/04 RMK AO2
14837KMSN MSN20041117221010111/17/04 22:10:31  5-MIN KMSN 180410Z 24004KT 2 1/2SM BR FEW065 14/13 A3015 650 96 700 240/04 RMK AO2
14837KMSN MSN20041117221509711/17/04 22:15:31  5-MIN KMSN 180415Z VRB03KT 2SM BR FEW065 14/13 A3015 650 96 700 VRB/03 RMK AO2
14837KMSN MSN20041117222009711/17/04 22:20:31  5-MIN KMSN 180420Z 00000KT 2SM BR FEW065 14/13 A3015 650 96 700 000/00 RMK AO2
14837KMSN MSN20041117222509411/17/04 22:25:31  5-MIN KMSN 180425Z 00000KT 2SM BR CLR 14/13 A3015 650 96 700 000/00 RMK AO2
14837KMSN MSN20041117223009411/17/04 22:30:31  5-MIN KMSN 180430Z 00000KT 2SM BR CLR 14/13 A3015 650 96 700 000/00 RMK AO2
14837KMSN MSN20041117223509711/17/04 22:35:31  5-MIN KMSN 180435Z 00000KT 2SM BR FEW095 14/13 A3015 650 96 700 000/00 RMK AO2
14837KMSN MSN20041117224009411/17/04 22:40:31  5-MIN KMSN 180440Z 00000KT 2SM BR CLR 14/13 A3015 650 96 700 000/00 RMK AO2
14837KMSN MSN20041117224509411/17/04 22:45:31  5-MIN KMSN 180445Z 00000KT 2SM BR CLR 14/13 A3015 650 96 700 000/00 RMK AO2
14837KMSN MSN20041117225012011/17/04 22:50:31  5-MIN KMSN 180450Z 00000KT 1 1/2SM BR BCFG CLR 14/13 A3016 650 96 700 000/00 RMK AO2 SLP211 T01390133
14837KMSN MSN20041117225509911/17/04 22:55:31  5-MIN KMSN 180455Z 00000KT 1SM BR BCFG CLR 13/13 A3016 650 96 600 000/00 RMK AO2
14837KMSN MSN20041117230010111/17/04 23:00:31  5-MIN KMSN 180500Z 00000KT 3/4SM BR BCFG CLR 13/13 A3016 650 96 600 000/00 RMK AO2
14837KMSN MSN20041117230509911/17/04 23:05:31  5-MIN KMSN 180505Z 00000KT 1/2SM FG FEW029 13/13 A3016 640 96 600 000/00 RMK AO2
14837KMSN MSN20041117231010011/17/04 23:10:31  5-MIN KMSN 180510Z 00000KT 1/2SM FG SCT029 13/13 A3016 640 100 600 000/00 RMK AO2
14837KMSN MSN20041117231510611/17/04 23:15:31  5-MIN KMSN 180515Z 00000KT 1/4SM FG SCT029 SCT095 13/12 A3016 640 96 600 000/00 RMK AO2
14837KMSN MSN20041117232011411/17/04 23:20:31  5-MIN KMSN 180520Z 00000KT 1/4SM FG FEW001 SCT029 BKN095 13/13 A3016 640 100 600 000/00 RMK AO2
14837KMSN MSN20041117232511311/17/04 23:25:31  5-MIN KMSN 180525Z 00000KT 1/4SM FG FEW001 SCT029 SCT095 13/12 A3016 640 96 600 000/00 RMK AO2
14837KMSN MSN20041117233011311/17/04 23:30:31  5-MIN KMSN 180530Z 00000KT 1/4SM FG FEW001 SCT029 BKN095 12/11 A3016 640 96 400 000/00 RMK AO2
14837KMSN MSN20041117233511311/17/04 23:35:31  5-MIN KMSN 180535Z 00000KT 1/4SM FG FEW001 BKN031 BKN095 11/11 A3016 640 96 400 000/00 RMK AO2
14837KMSN MSN20041117234010611/17/04 23:40:31  5-MIN KMSN 180540Z 00000KT 1/4SM FG BKN031 BKN095 11/11 A3016 640 96 400 000/00 RMK AO2
14837KMSN MSN20041117234510611/17/04 23:45:31  5-MIN KMSN 180545Z 00000KT 1/4SM FG BKN031 BKN095 11/11 A3016 640 96 400 000/00 RMK AO2
14837KMSN MSN20041117235015211/17/04 23:50:31  5-MIN KMSN 180550Z 00000KT 1/4SM FG BKN031 OVC095 11/11 A3016 640 100 300 000/00 RMK AO2 SLP214 T01060106 10156 20100 401720100 53002
14837KMSN MSN20041117235510011/17/04 23:55:31  5-MIN KMSN 180555Z 00000KT 1/4SM FG OVC031 11/11 A3016 640 100 300 000/00 RMK AO2
14837KMSN MSN20041118000010011/18/04 00:00:31  5-MIN KMSN 180600Z 00000KT 1/4SM FG OVC031 11/11 A3016 640 100 300 000/00 RMK AO2
14837KMSN MSN20041118000509911/18/04 00:05:31  5-MIN KMSN 180605Z 00000KT 1/4SM FG OVC031 11/11 A3016 640 96 400 000/00 RMK AO2
14837KMSN MSN20041118001009911/18/04 00:10:31  5-MIN KMSN 180610Z 00000KT 1/4SM FG OVC031 11/11 A3016 640 96 400 000/00 RMK AO2
14837KMSN MSN20041118001510611/18/04 00:15:31  5-MIN KMSN 180615Z 00000KT 1/4SM FG BKN031 OVC050 11/11 A3016 640 96 400 000/00 RMK AO2
14837KMSN MSN20041118002009911/18/04 00:20:31  5-MIN KMSN 180620Z 00000KT 1/4SM FG OVC031 11/11 A3016 640 96 400 000/00 RMK AO2
14837KMSN MSN20041118002511411/18/04 00:25:31  5-MIN KMSN 180625Z 00000KT 1/4SM FG BKN031 BKN050 OVC090 11/11 A3016 640 100 400 000/00 RMK AO2
14837KMSN MSN20041118003011411/18/04 00:30:31  5-MIN KMSN 180630Z 00000KT 1/4SM FG BKN031 BKN050 OVC090 11/11 A3016 640 100 400 000/00 RMK AO2
14837KMSN MSN20041118003511411/18/04 00:35:31  5-MIN KMSN 180635Z 00000KT 1/4SM FG SCT031 SCT050 OVC090 11/11 A3016 640 100 400 000/00 RMK AO2
14837KMSN MSN20041118004010611/18/04 00:40:31  5-MIN KMSN 180640Z 00000KT 1/4SM FG FEW031 OVC095 11/11 A3016 640 96 400 000/00 RMK AO2
14837KMSN MSN20041118004510611/18/04 00:45:31  5-MIN KMSN 180645Z 00000KT 1/4SM FG FEW031 OVC095 11/11 A3016 640 96 400 000/00 RMK AO2
14837KMSN MSN20041118005011611/18/04 00:50:31  5-MIN KMSN 180650Z 00000KT 1/4SM FG OVC095 11/11 A3016 640 96 400 000/00 RMK AO2 SLP215 T01110106
14837KMSN MSN20041118005510611/18/04 00:55:31  5-MIN KMSN 180655Z 00000KT 1/4SM FG FEW070 OVC100 11/11 A3016 640 96 400 000/00 RMK AO2
14837KMSN MSN20041118010010711/18/04 01:00:31  5-MIN KMSN 180700Z 00000KT 1/4SM FG SCT070 OVC100 11/11 A3016 640 100 400 000/00 RMK AO2
14837KMSN MSN20041118010510711/18/04 01:05:31  5-MIN KMSN 180705Z 00000KT 1/2SM FG SCT070 OVC100 11/11 A3016 640 100 400 000/00 RMK AO2
14837KMSN MSN20041118011010611/18/04 01:10:31  5-MIN KMSN 180710Z 00000KT 1/2SM FG SCT070 OVC100 12/11 A3016 640 96 400 000/00 RMK AO2
14837KMSN MSN20041118011510611/18/04 01:15:31  5-MIN KMSN 180715Z 00000KT 1/2SM FG BKN070 OVC100 12/11 A3016 650 96 400 000/00 RMK AO2
14837KMSN MSN20041118012011411/18/04 01:20:31  5-MIN KMSN 180720Z 00000KT 3/4SM BR FEW047 BKN070 OVC100 11/11 A3016 640 100 400 000/00 RMK AO2
14837KMSN MSN20041118012510611/18/04 01:25:31  5-MIN KMSN 180725Z 00000KT 3/4SM BR SCT047 OVC070 11/11 A3016 640 96 400 000/00 RMK AO2
14837KMSN MSN20041118013010611/18/04 01:30:31  5-MIN KMSN 180730Z 00000KT 3/4SM BR BKN047 OVC070 11/11 A3016 640 96 400 000/00 RMK AO2
14837KMSN MSN20041118013510611/18/04 01:35:31  5-MIN KMSN 180735Z 00000KT 3/4SM BR BKN047 OVC070 11/11 A3016 640 96 400 000/00 RMK AO2
14837KMSN MSN20041118014010611/18/04 01:40:31  5-MIN KMSN 180740Z 00000KT 3/4SM BR BKN047 OVC070 11/11 A3016 640 96 400 000/00 RMK AO2
14837KMSN MSN20041118014509911/18/04 01:45:31  5-MIN KMSN 180745Z 00000KT 3/4SM BR OVC045 11/11 A3016 640 96 400 000/00 RMK AO2
14837KMSN MSN20041118015011411/18/04 01:50:31  5-MIN KMSN 180750Z 00000KT 1SM BR OVC045 11/11 A3016 640 96 400 000/00 RMK AO2 SLP216 T01110106
14837KMSN MSN20041118015509711/18/04 01:55:31  5-MIN KMSN 180755Z 00000KT 1SM BR OVC043 11/11 A3016 640 96 400 000/00 RMK AO2
14837KMSN MSN20041118020009711/18/04 02:00:31  5-MIN KMSN 180800Z 00000KT 1SM BR OVC043 11/11 A3017 640 96 400 000/00 RMK AO2
14837KMSN MSN20041118020509811/18/04 02:05:31  5-MIN KMSN 180805Z 00000KT 1SM BR OVC043 11/11 A3017 640 100 400 000/00 RMK AO2
14837KMSN MSN20041118021009811/18/04 02:10:31  5-MIN KMSN 180810Z 00000KT 1SM BR OVC043 11/11 A3017 630 100 400 000/00 RMK AO2
14837KMSN MSN20041118021509811/18/04 02:15:31  5-MIN KMSN 180815Z 00000KT 1SM BR OVC041 11/11 A3017 630 100 400 000/00 RMK AO2
14837KMSN MSN20041118022009711/18/04 02:20:31  5-MIN KMSN 180820Z 00000KT 1SM BR OVC041 12/11 A3017 630 96 400 000/00 RMK AO2
14837KMSN MSN20041118022509711/18/04 02:25:31  5-MIN KMSN 180825Z 00000KT 1SM BR OVC039 12/12 A3017 630 96 500 000/00 RMK AO2
14837KMSN MSN20041118023009711/18/04 02:30:31  5-MIN KMSN 180830Z 00000KT 3SM BR OVC039 13/12 A3017 630 96 600 000/00 RMK AO2
14837KMSN MSN20041118023511311/18/04 02:35:31  5-MIN KMSN 180835Z 27004KT 3SM -RA BR OVC039 13/13 A3018 630 96 600 270/04 RMK AO2 RAB33 P0000
14837KMSN MSN20041118024011311/18/04 02:40:31  5-MIN KMSN 180840Z 00000KT 4SM -RA BR OVC039 14/13 A3017 630 93 700 000/00 RMK AO2 RAB33 P0000
14837KMSN MSN20041118024512011/18/04 02:45:31  5-MIN KMSN 180845Z 29005KT 4SM -RA BR BKN039 OVC046 14/13 A3018 630 93 700 290/05 RMK AO2 RAB33 P0001
14837KMSN MSN20041118025014911/18/04 02:50:31  5-MIN KMSN 180850Z 28005KT 6SM -RA BR BKN039 OVC046 14/12 A3017 630 86 700 280/05 RMK AO2 RAB33 SLP218 P0001 60001 T01390117 53004
14837KMSN MSN20041118025511011/18/04 02:55:31  5-MIN KMSN 180855Z 27005KT 7SM -RA OVC041 14/11 A3018 630 80 700 270/05 RMK AO2 RAB54 P0000
14837KMSN MSN20041118030011211/18/04 03:00:31  5-MIN KMSN 180900Z 27004KT 7SM -RA OVC041 13/11 A3018 630 83 600 270/04 RMK AO2 RAB0854 P0000
14837KMSN MSN20041118030511111/18/04 03:05:31  5-MIN KMSN 180905Z 25003KT 8SM OVC043 13/11 A3018 630 86 600 250/03 RMK AO2 RAB0854E04 P0000
14837KMSN MSN20041118031011211/18/04 03:10:31  5-MIN KMSN 180910Z VRB03KT 7SM -RA OVC043 14/11 A3018 630 83 700 VRB/03 RMK AO2 RAB0854 P0000
14837KMSN MSN20041118031511511/18/04 03:15:31  5-MIN KMSN 180915Z VRB04KT 5SM -RA BR OVC043 13/11 A3017 630 86 600 VRB/04 RMK AO2 RAB0854 P0000
14837KMSN MSN20041118032011511/18/04 03:20:31  5-MIN KMSN 180920Z VRB04KT 4SM -RA BR OVC043 13/12 A3017 630 89 600 VRB/04 RMK AO2 RAB0854 P0001
14837KMSN MSN20041118032511511/18/04 03:25:31  5-MIN KMSN 180925Z VRB03KT 5SM -RA BR OVC043 13/12 A3017 630 89 600 VRB/03 RMK AO2 RAB0854 P0001
14837KMSN MSN20041118033012111/18/04 03:30:31  5-MIN KMSN 180930Z VRB04KT 6SM BR BKN043 OVC049 13/11 A3017 630 86 600 VRB/04 RMK AO2 RAB0854E30 P0001
14837KMSN MSN20041118033511111/18/04 03:35:31  5-MIN KMSN 180935Z 23004KT 7SM OVC047 13/11 A3017 630 89 600 230/04 RMK AO2 RAB0854E30 P0001
14837KMSN MSN20041118034011111/18/04 03:40:31  5-MIN KMSN 180940Z VRB03KT 7SM OVC047 13/11 A3018 630 86 600 VRB/03 RMK AO2 RAB0854E30 P0001
14837KMSN MSN20041118034511511/18/04 03:45:31  5-MIN KMSN 180945Z VRB03KT 6SM -RA BR OVC047 13/11 A3018 630 86 500 VRB/03 RMK AO2 RAB0854 P0001
14837KMSN MSN20041118035012911/18/04 03:50:31  5-MIN KMSN 180950Z 00000KT 6SM -RA OVC049 13/10 A3018 630 83 600 000/00 RMK AO2 RAB0854 SLP219 P0001 T01280100
14837KMSN MSN20041118035510411/18/04 03:55:31  5-MIN KMSN 180955Z 00000KT 8SM -RA OVC049 13/10 A3018 630 83 500 000/00 RMK AO2 P0000
14837KMSN MSN20041118040010411/18/04 04:00:31  5-MIN KMSN 181000Z VRB03KT 9SM -RA OVC049 13/10 A3018 620 83 500 VRB/03 RMK AO2 P0000
14837KMSN MSN20041118040510411/18/04 04:05:31  5-MIN KMSN 181005Z 25004KT 9SM -RA OVC049 13/10 A3018 630 83 500 250/04 RMK AO2 P0000
14837KMSN MSN20041118041010611/18/04 04:10:31  5-MIN KMSN 181010Z 29003KT 9SM OVC049 12/10 A3017 630 86 500 280/03 RMK AO2 RAE10 P0000
14837KMSN MSN20041118041511311/18/04 04:15:31  5-MIN KMSN 181015Z 00000KT 9SM BKN049 OVC090 13/10 A3017 640 83 600 000/00 RMK AO2 RAE10 P0000
14837KMSN MSN20041118042012011/18/04 04:20:31  5-MIN KMSN 181020Z 00000KT 8SM SCT050 BKN070 OVC095 12/10 A3016 640 86 500 000/00 RMK AO2 RAE10 P0000
14837KMSN MSN20041118042512011/18/04 04:25:31  5-MIN KMSN 181025Z 21003KT 8SM SCT055 BKN070 OVC110 12/10 A3017 630 86 500 210/03 RMK AO2 RAE10 P0000
14837KMSN MSN20041118043012011/18/04 04:30:31  5-MIN KMSN 181030Z 00000KT 7SM FEW055 SCT075 BKN090 12/10 A3017 630 89 400 000/00 RMK AO2 RAE10 P0000
14837KMSN MSN20041118043512011/18/04 04:35:31  5-MIN KMSN 181035Z 00000KT 7SM FEW055 SCT090 BKN110 12/10 A3017 630 89 400 000/00 RMK AO2 RAE10 P0000
14837KMSN MSN20041118044012011/18/04 04:40:31  5-MIN KMSN 181040Z 00000KT 7SM FEW060 SCT090 BKN110 12/09 A3017 630 86 400 000/00 RMK AO2 RAE10 P0000
14837KMSN MSN20041118044512011/18/04 04:45:31  5-MIN KMSN 181045Z 00000KT 7SM FEW060 SCT080 BKN110 11/09 A3017 630 89 400 000/00 RMK AO2 RAE10 P0000
14837KMSN MSN20041118045013011/18/04 04:50:31  5-MIN KMSN 181050Z 00000KT 7SM SCT085 BKN110 12/09 A3017 640 86 400 000/00 RMK AO2 RAE10 SLP217 P0000 T01170094
14837KMSN MSN20041118045509411/18/04 04:55:31  5-MIN KMSN 181055Z 00000KT 7SM BKN090 11/09 A3017 640 89 400 000/00 RMK AO2
14837KMSN MSN20041118050009411/18/04 05:00:31  5-MIN KMSN 181100Z 00000KT 7SM BKN090 11/09 A3018 630 89 400 000/00 RMK AO2
14837KMSN MSN20041118050509411/18/04 05:05:31  5-MIN KMSN 181105Z 00000KT 7SM BKN095 12/09 A3018 630 86 400 000/00 RMK AO2
14837KMSN MSN20041118051009411/18/04 05:10:31  5-MIN KMSN 181110Z 00000KT 8SM OVC100 12/09 A3017 630 86 400 000/00 RMK AO2
14837KMSN MSN20041118051509411/18/04 05:15:31  5-MIN KMSN 181115Z 00000KT 8SM OVC095 12/09 A3018 630 86 400 000/00 RMK AO2
14837KMSN MSN20041118052010111/18/04 05:20:31  5-MIN KMSN 181120Z 00000KT 8SM BKN090 OVC100 12/09 A3018 630 86 400 000/00 RMK AO2
14837KMSN MSN20041118052510111/18/04 05:25:31  5-MIN KMSN 181125Z 00000KT 8SM SCT080 OVC100 12/09 A3018 630 86 400 000/00 RMK AO2
14837KMSN MSN20041118053010111/18/04 05:30:31  5-MIN KMSN 181130Z 00000KT 8SM BKN080 OVC100 12/09 A3018 630 86 400 000/00 RMK AO2
14837KMSN MSN20041118053510111/18/04 05:35:31  5-MIN KMSN 181135Z 00000KT 8SM BKN085 OVC100 12/09 A3018 630 86 400 000/00 RMK AO2
14837KMSN MSN20041118054009411/18/04 05:40:31  5-MIN KMSN 181140Z 24003KT 8SM OVC085 12/09 A3017 630 86 400 240/03 RMK AO2
14837KMSN MSN20041118054509411/18/04 05:45:31  5-MIN KMSN 181145Z 23003KT 8SM OVC085 12/09 A3018 630 86 400 230/03 RMK AO2
14837KMSN MSN20041118055014111/18/04 05:50:31  5-MIN KMSN 181150Z 00000KT 8SM OVC085 12/09 A3018 630 86 400 000/00 RMK AO2 SLP220 60002 70002 T01170094 10139 20106 53006
14837KMSN MSN20041118055509411/18/04 05:55:31  5-MIN KMSN 181155Z 00000KT 8SM OVC085 12/09 A3018 630 86 400 000/00 RMK AO2
14837KMSN MSN20041118060010111/18/04 06:00:31  5-MIN KMSN 181200Z 00000KT 8SM BKN075 OVC090 12/09 A3018 630 86 400 000/00 RMK AO2
14837KMSN MSN20041118060510111/18/04 06:05:31  5-MIN KMSN 181205Z 00000KT 8SM BKN075 OVC090 12/09 A3018 630 86 400 000/00 RMK AO2
14837KMSN MSN20041118061010111/18/04 06:10:31  5-MIN KMSN 181210Z 00000KT 8SM BKN070 OVC090 12/09 A3018 630 86 400 000/00 RMK AO2
14837KMSN MSN20041118061510111/18/04 06:15:31  5-MIN KMSN 181215Z 27003KT 8SM BKN070 OVC085 12/09 A3018 620 86 400 270/03 RMK AO2
14837KMSN MSN20041118062009411/18/04 06:20:31  5-MIN KMSN 181220Z 28003KT 8SM OVC070 11/09 A3018 620 89 300 280/03 RMK AO2
14837KMSN MSN20041118062509411/18/04 06:25:31  5-MIN KMSN 181225Z 27003KT 8SM OVC070 11/09 A3018 620 89 300 270/03 RMK AO2
14837KMSN MSN20041118063009411/18/04 06:30:31  5-MIN KMSN 181230Z 00000KT 8SM OVC070 12/09 A3018 630 86 400 000/00 RMK AO2
14837KMSN MSN20041118063509411/18/04 06:35:31  5-MIN KMSN 181235Z 00000KT 8SM OVC070 12/09 A3018 630 86 400 000/00 RMK AO2
14837KMSN MSN20041118064009411/18/04 06:40:31  5-MIN KMSN 181240Z 25003KT 8SM OVC070 12/09 A3019 620 86 400 250/03 RMK AO2
14837KMSN MSN20041118064509411/18/04 06:45:31  5-MIN KMSN 181245Z VRB03KT 8SM OVC070 12/09 A3019 610 86 400 VRB/03 RMK AO2
14837KMSN MSN20041118065011111/18/04 06:50:31  5-MIN KMSN 181250Z VRB03KT 8SM OVC070 12/09 A3019 610 86 400 VRB/03 RMK AO2 SLP226 T01170094
14837KMSN MSN20041118065509411/18/04 06:55:31  5-MIN KMSN 181255Z VRB03KT 7SM OVC070 12/09 A3019 610 86 400 VRB/03 RMK AO2
14837KMSN MSN20041118070009411/18/04 07:00:31  5-MIN KMSN 181300Z 00000KT 7SM OVC070 12/09 A3019 620 86 400 000/00 RMK AO2
14837KMSN MSN20041118070509411/18/04 07:05:31  5-MIN KMSN 181305Z 30003KT 7SM OVC070 12/09 A3019 620 86 400 290/03 RMK AO2
14837KMSN MSN20041118071009411/18/04 07:10:31  5-MIN KMSN 181310Z 28003KT 7SM OVC070 12/09 A3019 620 86 400 280/03 RMK AO2
14837KMSN MSN20041118071509711/18/04 07:15:31  5-MIN KMSN 181315Z VRB03KT 6SM BR OVC070 12/09 A3019 620 86 400 VRB/03 RMK AO2
14837KMSN MSN20041118072009711/18/04 07:20:31  5-MIN KMSN 181320Z 00000KT 6SM BR OVC070 12/09 A3019 610 86 400 000/00 RMK AO2
14837KMSN MSN20041118072510411/18/04 07:25:31  5-MIN KMSN 181325Z 00000KT 6SM BR FEW055 OVC075 12/09 A3019 620 86 400 000/00 RMK AO2
14837KMSN MSN20041118073011111/18/04 07:30:31  5-MIN KMSN 181330Z 30004KT 6SM BR FEW055 BKN075 OVC090 12/09 A3019 620 86 400 300/04 RMK AO2
14837KMSN MSN20041118073510411/18/04 07:35:31  5-MIN KMSN 181335Z 28004KT 6SM BR BKN075 BKN090 11/09 A3019 610 89 300 280/04 RMK AO2
14837KMSN MSN20041118074010411/18/04 07:40:31  5-MIN KMSN 181340Z 28003KT 6SM BR SCT075 BKN095 11/09 A3019 610 89 300 280/03 RMK AO2
14837KMSN MSN20041118074510411/18/04 07:45:31  5-MIN KMSN 181345Z 30003KT 6SM BR FEW080 BKN095 11/09 A3019 610 89 300 300/03 RMK AO2
14837KMSN MSN20041118075011411/18/04 07:50:31  5-MIN KMSN 181350Z 29003KT 6SM BR BKN095 11/09 A3020 610 89 300 290/03 RMK AO2 SLP228 T01110094
14837KMSN MSN20041118075509711/18/04 07:55:31  5-MIN KMSN 181355Z 28003KT 6SM BR BKN090 12/09 A3020 610 86 400 280/03 RMK AO2
14837KMSN MSN20041118080009711/18/04 08:00:31  5-MIN KMSN 181400Z 00000KT 6SM BR BKN090 12/09 A3020 610 86 400 000/00 RMK AO2
14837KMSN MSN20041118080509711/18/04 08:05:31  5-MIN KMSN 181405Z 32003KT 6SM BR OVC095 12/09 A3019 610 86 400 320/03 RMK AO2
14837KMSN MSN20041118081009711/18/04 08:10:31  5-MIN KMSN 181410Z 32004KT 6SM BR BKN090 12/09 A3020 610 86 400 310/04 RMK AO2
14837KMSN MSN20041118081509711/18/04 08:15:31  5-MIN KMSN 181415Z 32004KT 6SM BR BKN090 12/09 A3019 610 86 400 320/04 RMK AO2
14837KMSN MSN20041118082009711/18/04 08:20:31  5-MIN KMSN 181420Z 32006KT 6SM HZ BKN090 12/09 A3019 620 83 500 310/06 RMK AO2
14837KMSN MSN20041118082509711/18/04 08:25:31  5-MIN KMSN 181425Z 32004KT 6SM HZ BKN090 12/09 A3019 610 83 500 320/04 RMK AO2
14837KMSN MSN20041118083010111/18/04 08:30:31  5-MIN KMSN 181430Z 32005KT 7SM SCT090 BKN120 12/09 A3020 610 83 500 320/05 RMK AO2
14837KMSN MSN20041118083510111/18/04 08:35:31  5-MIN KMSN 181435Z 31006KT 7SM FEW085 SCT120 13/09 A3020 610 80 500 300/06 RMK AO2
14837KMSN MSN20041118084009411/18/04 08:40:31  5-MIN KMSN 181440Z 32006KT 7SM FEW085 12/09 A3020 600 80 500 320/06 RMK AO2
14837KMSN MSN20041118084509411/18/04 08:45:31  5-MIN KMSN 181445Z 32006KT 7SM FEW085 13/09 A3020 600 80 500 310/06 RMK AO2
14837KMSN MSN20041118085011711/18/04 08:50:31  5-MIN KMSN 181450Z 33005KT 7SM FEW090 13/09 A3020 600 80 500 330/05 RMK AO2 SLP228 T01280094 53000
14837KMSN MSN20041118085510111/18/04 08:55:31  5-MIN KMSN 181455Z 32005KT 7SM SCT090 BKN120 13/09 A3020 600 80 500 320/05 RMK AO2
14837KMSN MSN20041118090010111/18/04 09:00:31  5-MIN KMSN 181500Z 32005KT 7SM SCT090 BKN120 12/09 A3021 600 80 500 320/05 RMK AO2
14837KMSN MSN20041118090510111/18/04 09:05:31  5-MIN KMSN 181505Z 33004KT 7SM SCT090 BKN120 12/09 A3021 600 80 500 330/04 RMK AO2
14837KMSN MSN20041118091010111/18/04 09:10:31  5-MIN KMSN 181510Z 33004KT 7SM SCT090 BKN120 13/09 A3021 600 80 500 330/04 RMK AO2
14837KMSN MSN20041118091509411/18/04 09:15:31  5-MIN KMSN 181515Z 32005KT 7SM SCT090 12/09 A3021 600 83 400 320/05 RMK AO2
14837KMSN MSN20041118092009411/18/04 09:20:31  5-MIN KMSN 181520Z 34004KT 7SM SCT090 13/09 A3021 600 80 500 340/04 RMK AO2
14837KMSN MSN20041118092509411/18/04 09:25:31  5-MIN KMSN 181525Z 36005KT 7SM BKN095 13/09 A3021 600 80 500 360/05 RMK AO2
14837KMSN MSN20041118093009411/18/04 09:30:31  5-MIN KMSN 181530Z 00000KT 7SM BKN100 13/09 A3021 600 80 500 000/00 RMK AO2
14837KMSN MSN20041118093509411/18/04 09:35:31  5-MIN KMSN 181535Z 31005KT 7SM BKN100 13/09 A3021 600 80 500 310/05 RMK AO2
14837KMSN MSN20041118094009411/18/04 09:40:31  5-MIN KMSN 181540Z VRB04KT 7SM BKN100 13/09 A3021 600 80 500 VRB/04 RMK AO2
14837KMSN MSN20041118094509411/18/04 09:45:31  5-MIN KMSN 181545Z 31005KT 7SM BKN100 13/09 A3021 600 80 500 310/05 RMK AO2
14837KMSN MSN20041118095011111/18/04 09:50:31  5-MIN KMSN 181550Z 33006KT 7SM BKN100 13/09 A3021 600 80 500 330/06 RMK AO2 SLP232 T01280094
14837KMSN MSN20041118095509411/18/04 09:55:31  5-MIN KMSN 181555Z 33005KT 7SM BKN100 13/09 A3022 590 80 500 330/05 RMK AO2
14837KMSN MSN20041118100009711/18/04 10:00:31  5-MIN KMSN 181600Z 31006KT 6SM HZ BKN100 13/09 A3022 590 77 500 310/06 RMK AO2
14837KMSN MSN20041118100509711/18/04 10:05:31  5-MIN KMSN 181605Z 33007KT 6SM HZ BKN100 13/08 A3022 590 74 500 330/07 RMK AO2
14837KMSN MSN20041118101009711/18/04 10:10:31  5-MIN KMSN 181610Z 33007KT 6SM HZ FEW110 13/08 A3022 580 74 500 320/07 RMK AO2
14837KMSN MSN20041118101509711/18/04 10:15:31  5-MIN KMSN 181615Z 34005KT 6SM HZ FEW110 13/09 A3022 590 77 500 340/05 RMK AO2
14837KMSN MSN20041118102009711/18/04 10:20:31  5-MIN KMSN 181620Z 33005KT 6SM HZ FEW110 13/08 A3022 590 74 500 330/05 RMK AO2
14837KMSN MSN20041118102509711/18/04 10:25:31  5-MIN KMSN 181625Z 33006KT 6SM HZ SCT110 13/08 A3022 590 74 500 330/06 RMK AO2
14837KMSN MSN20041118103009711/18/04 10:30:31  5-MIN KMSN 181630Z 31004KT 6SM HZ SCT100 13/09 A3022 590 77 500 310/04 RMK AO2
14837KMSN MSN20041118103509711/18/04 10:35:31  5-MIN KMSN 181635Z 32005KT 6SM HZ FEW100 13/09 A3022 590 77 500 320/05 RMK AO2
14837KMSN MSN20041118104009711/18/04 10:40:31  5-MIN KMSN 181640Z 32005KT 6SM HZ FEW100 13/09 A3022 590 77 500 310/05 RMK AO2
14837KMSN MSN20041118104509711/18/04 10:45:31  5-MIN KMSN 181645Z 32006KT 6SM HZ FEW110 13/09 A3022 590 77 500 320/06 RMK AO2
14837KMSN MSN20041118105011411/18/04 10:50:31  5-MIN KMSN 181650Z 34005KT 6SM HZ FEW110 13/09 A3022 590 74 600 330/05 RMK AO2 SLP233 T01330089
14837KMSN MSN20041118105509711/18/04 10:55:31  5-MIN KMSN 181655Z 29006KT 5SM HZ BKN100 13/09 A3022 590 74 600 290/06 RMK AO2
14837KMSN MSN20041118110009711/18/04 11:00:31  5-MIN KMSN 181700Z 29006KT 5SM HZ BKN100 13/09 A3022 590 77 500 290/06 RMK AO2
14837KMSN MSN20041118110509711/18/04 11:05:31  5-MIN KMSN 181705Z 31006KT 5SM HZ BKN100 13/09 A3022 590 77 500 310/06 RMK AO2
14837KMSN MSN20041118111009711/18/04 11:10:31  5-MIN KMSN 181710Z 30005KT 5SM HZ BKN100 13/09 A3021 590 77 500 300/05 RMK AO2
14837KMSN MSN20041118111509711/18/04 11:15:31  5-MIN KMSN 181715Z VRB04KT 5SM HZ BKN100 13/09 A3021 590 77 500 VRB/04 RMK AO2
14837KMSN MSN20041118112009711/18/04 11:20:31  5-MIN KMSN 181720Z 31006KT 5SM HZ BKN100 13/08 A3021 600 74 500 310/06 RMK AO2
14837KMSN MSN20041118112509711/18/04 11:25:31  5-MIN KMSN 181725Z VRB04KT 5SM HZ FEW100 13/08 A3021 600 74 500 VRB/04 RMK AO2
14837KMSN MSN20041118113009711/18/04 11:30:31  5-MIN KMSN 181730Z 32005KT 5SM HZ FEW100 13/09 A3021 600 77 500 320/05 RMK AO2
14837KMSN MSN20041118113511011/18/04 11:35:31  5-MIN KMSN 181735Z 36006KT 5SM -RA FEW100 13/09 A3021 600 77 500 360/06 RMK AO2 RAB33 P0000
14837KMSN MSN20041118114011011/18/04 11:40:31  5-MIN KMSN 181740Z 33005KT 5SM -RA FEW100 13/09 A3021 600 77 500 330/05 RMK AO2 RAB33 P0000
14837KMSN MSN20041118114511011/18/04 11:45:31  5-MIN KMSN 181745Z 33005KT 6SM -RA FEW100 13/09 A3021 600 77 500 330/05 RMK AO2 RAB33 P0000
14837KMSN MSN20041118115015811/18/04 11:50:31  5-MIN KMSN 181750Z VRB04KT 5SM -RA FEW025 BKN100 13/09 A3021 600 77 500 VRB/04 RMK AO2 RAB33 SLP231 P0000 60000 T01280089 10133 20111 51008
14837KMSN MSN20041118115511111/18/04 11:55:31  5-MIN KMSN 181755Z VRB05KT 5SM -RA FEW025 BKN100 13/09 A3020 600 80 500 VRB/05 RMK AO2 P0000
14837KMSN MSN20041118120011111/18/04 12:00:31  5-MIN KMSN 181800Z 33006KT 5SM -RA FEW025 BKN100 13/09 A3020 600 80 500 330/06 RMK AO2 P0000
14837KMSN MSN20041118120511111/18/04 12:05:31  5-MIN KMSN 181805Z 33004KT 5SM -RA FEW025 BKN100 13/09 A3020 600 77 500 330/04 RMK AO2 P0000
14837KMSN MSN20041118121011111/18/04 12:10:31  5-MIN KMSN 181810Z 33006KT 5SM -RA FEW025 BKN100 13/09 A3020 600 77 500 330/06 RMK AO2 P0000
14837KMSN MSN20041118121511111/18/04 12:15:31  5-MIN KMSN 181815Z 34004KT 5SM -RA FEW060 SCT080 12/09 A3020 600 80 500 340/04 RMK AO2 P0000
14837KMSN MSN20041118122011111/18/04 12:20:31  5-MIN KMSN 181820Z 34006KT 4SM -RA SCT042 SCT080 12/09 A3020 610 80 500 340/06 RMK AO2 P0000
14837KMSN MSN20041118122511111/18/04 12:25:31  5-MIN KMSN 181825Z 34006KT 4SM -RA SCT038 SCT080 12/09 A3020 610 83 500 340/06 RMK AO2 P0000
14837KMSN MSN20041118123011111/18/04 12:30:31  5-MIN KMSN 181830Z 33005KT 4SM -RA BKN038 BKN080 12/09 A3020 610 83 400 330/05 RMK AO2 P0001
14837KMSN MSN20041118123511111/18/04 12:35:31  5-MIN KMSN 181835Z 33004KT 3SM -RA BKN032 BKN075 12/09 A3020 610 83 400 330/04 RMK AO2 P0001
14837KMSN MSN20041118124010711/18/04 12:40:31  5-MIN KMSN 181840Z 35004KT 3SM -RA BR BKN030 12/09 A3019 610 86 400 340/04 RMK AO2 P0001
14837KMSN MSN20041118124510711/18/04 12:45:31  5-MIN KMSN 181845Z VRB03KT 3SM -RA BR SCT031 12/09 A3020 610 86 400 VRB/03 RMK AO2 P0002
14837KMSN MSN20041118125012411/18/04 12:50:31  5-MIN KMSN 181850Z 32005KT 3SM -RA BR SCT033 12/09 A3020 610 86 400 320/05 RMK AO2 SLP227 P0002 T01170094
14837KMSN MSN20041118125512111/18/04 12:55:31  5-MIN KMSN 181855Z 34005KT 3SM -RA BR SCT033 BKN080 OVC120 12/09 A3019 610 86 400 340/05 RMK AO2 P0000
14837KMSN MSN20041118130012111/18/04 13:00:31  5-MIN KMSN 181900Z 33003KT 3SM -RA BR SCT033 BKN080 OVC120 12/09 A3019 610 86 400 330/03 RMK AO2 P0000
14837KMSN MSN20041118130510711/18/04 13:05:31  5-MIN KMSN 181905Z 34004KT 4SM -RA BR FEW055 12/09 A3019 610 86 400 340/04 RMK AO2 P0000
14837KMSN MSN20041118131011611/18/04 13:10:31  5-MIN KMSN 181910Z 34003KT 4SM BR FEW065 SCT095 12/09 A3019 620 86 400 340/03 RMK AO2 RAE10 P0000
14837KMSN MSN20041118131511111/18/04 13:15:31  5-MIN KMSN 181915Z 33004KT 4SM -RA FEW060 SCT095 12/09 A3019 620 86 400 330/04 RMK AO2 P0000
14837KMSN MSN20041118132011111/18/04 13:20:31  5-MIN KMSN 181920Z 33003KT 4SM -RA FEW060 SCT095 11/09 A3019 620 89 300 330/03 RMK AO2 P0000
14837KMSN MSN20041118132510411/18/04 13:25:31  5-MIN KMSN 181925Z 33004KT 4SM -RA FEW060 12/09 A3019 620 86 400 330/04 RMK AO2 P0000
14837KMSN MSN20041118133010711/18/04 13:30:31  5-MIN KMSN 181930Z 33004KT 4SM -RA BR FEW060 11/09 A3019 620 86 300 330/04 RMK AO2 P0000
14837KMSN MSN20041118133511411/18/04 13:35:31  5-MIN KMSN 181935Z 34003KT 4SM -RA BR FEW070 SCT090 11/09 A3019 620 89 300 340/03 RMK AO2 P0000
14837KMSN MSN20041118134011611/18/04 13:40:31  5-MIN KMSN 181940Z 34003KT 4SM BR FEW070 BKN090 11/09 A3019 620 89 300 340/03 RMK AO2 RAE38 P0000
14837KMSN MSN20041118134511111/18/04 13:45:31  5-MIN KMSN 181945Z 34003KT 4SM -RA FEW075 BKN090 11/09 A3019 620 89 300 340/03 RMK AO2 P0000
14837KMSN MSN20041118135012111/18/04 13:50:31  5-MIN KMSN 181950Z 34004KT 4SM -RA SCT090 11/09 A3019 620 89 300 330/04 RMK AO2 SLP225 P0000 T01110094
14837KMSN MSN20041118135511111/18/04 13:55:31  5-MIN KMSN 181955Z 35004KT 4SM -RA FEW012 BKN090 11/09 A3018 620 89 300 350/04 RMK AO2 P0000
14837KMSN MSN20041118140011111/18/04 14:00:31  5-MIN KMSN 182000Z 35005KT 4SM -RA FEW012 BKN090 11/09 A3018 620 89 300 350/05 RMK AO2 P0000
14837KMSN MSN20041118140511111/18/04 14:05:31  5-MIN KMSN 182005Z 35005KT 4SM -RA FEW012 BKN090 11/09 A3018 620 89 300 350/05 RMK AO2 P0000
14837KMSN MSN20041118141011111/18/04 14:10:31  5-MIN KMSN 182010Z 34003KT 4SM -RA FEW012 SCT090 11/09 A3018 620 86 300 340/03 RMK AO2 P0001
14837KMSN MSN20041118141512111/18/04 14:15:31  5-MIN KMSN 182015Z 34004KT 4SM -RA BR FEW012 SCT055 SCT090 11/09 A3018 620 89 300 340/04 RMK AO2 P0001
14837KMSN MSN20041118142012111/18/04 14:20:31  5-MIN KMSN 182020Z 34003KT 4SM -RA BR FEW012 SCT065 BKN090 11/09 A3018 630 89 300 330/03 RMK AO2 P0001
14837KMSN MSN20041118142511411/18/04 14:25:31  5-MIN KMSN 182025Z 33003KT 3SM -RA BR FEW048 BKN085 11/09 A3018 630 89 400 330/03 RMK AO2 P0001
14837KMSN MSN20041118143011411/18/04 14:30:31  5-MIN KMSN 182030Z 00000KT 3SM -RA BR FEW050 BKN085 11/09 A3018 630 86 300 000/00 RMK AO2 P0001
14837KMSN MSN20041118143511411/18/04 14:35:31  5-MIN KMSN 182035Z 33003KT 4SM -RA BR FEW060 BKN080 11/09 A3018 630 86 400 330/03 RMK AO2 P0001
14837KMSN MSN20041118144011611/18/04 14:40:31  5-MIN KMSN 182040Z 00000KT 4SM BR FEW050 BKN080 11/09 A3018 630 86 400 000/00 RMK AO2 RAE37 P0001
14837KMSN MSN20041118144511611/18/04 14:45:31  5-MIN KMSN 182045Z 32003KT 3SM BR FEW050 BKN085 11/09 A3018 630 89 400 320/03 RMK AO2 RAE37 P0001
14837KMSN MSN20041118145014011/18/04 14:50:31  5-MIN KMSN 182050Z 33003KT 3SM -RA FEW070 SCT080 11/09 A3018 630 86 400 330/03 RMK AO2 SLP220 P0002 60004 T01110089 50000
14837KMSN MSN20041118145512111/18/04 14:55:31  5-MIN KMSN 182055Z 33003KT 4SM -RA BR FEW020 BKN070 OVC120 11/09 A3017 630 86 400 320/03 RMK AO2 P0000
14837KMSN MSN20041118150012111/18/04 15:00:31  5-MIN KMSN 182100Z 32003KT 4SM -RA BR FEW020 BKN070 OVC120 11/09 A3018 630 86 400 320/03 RMK AO2 P0000
14837KMSN MSN20041118150512311/18/04 15:05:31  5-MIN KMSN 182105Z 00000KT 4SM BR FEW020 BKN070 OVC120 11/09 A3018 630 86 400 000/00 RMK AO2 RAE01 P0000
14837KMSN MSN20041118151010911/18/04 15:10:31  5-MIN KMSN 182110Z 31003KT 4SM BR BKN080 11/09 A3018 630 86 300 310/03 RMK AO2 RAE01 P0000
14837KMSN MSN20041118151510411/18/04 15:15:31  5-MIN KMSN 182115Z 00000KT 4SM -RA BKN080 11/09 A3018 630 86 400 000/00 RMK AO2 P0000
14837KMSN MSN20041118152010411/18/04 15:20:31  5-MIN KMSN 182120Z 34003KT 4SM -RA BKN080 11/09 A3018 630 86 400 340/03 RMK AO2 P0000
14837KMSN MSN20041118152510911/18/04 15:25:31  5-MIN KMSN 182125Z 33003KT 4SM BR BKN080 11/09 A3018 630 86 400 330/03 RMK AO2 RAE25 P0000
14837KMSN MSN20041118153010911/18/04 15:30:31  5-MIN KMSN 182130Z 33004KT 4SM BR BKN085 11/09 A3018 630 86 400 320/04 RMK AO2 RAE25 P0000
14837KMSN MSN20041118153510911/18/04 15:35:31  5-MIN KMSN 182135Z 34004KT 4SM BR SCT080 11/09 A3018 630 86 400 330/04 RMK AO2 RAE25 P0000
14837KMSN MSN20041118154010911/18/04 15:40:31  5-MIN KMSN 182140Z 33004KT 4SM BR SCT085 11/09 A3018 630 86 300 320/04 RMK AO2 RAE25 P0000
14837KMSN MSN20041118154511311/18/04 15:45:31  5-MIN KMSN 182145Z 33004KT 4SM -RA FEW080 11/09 A3018 630 86 300 330/04 RMK AO2 RAE25B41 P0000
14837KMSN MSN20041118155013011/18/04 15:50:31  5-MIN KMSN 182150Z 33004KT 4SM -RA FEW080 11/08 A3018 630 83 400 330/04 RMK AO2 RAE25B41 SLP221 P0000 T01110083
14837KMSN MSN20041118155511411/18/04 15:55:31  5-MIN KMSN 182155Z VRB03KT 4SM -RA BR FEW070 SCT090 11/09 A3018 630 86 400 VRB/03 RMK AO2 P0000
14837KMSN MSN20041118160011411/18/04 16:00:31  5-MIN KMSN 182200Z 34004KT 4SM -RA BR FEW070 SCT090 11/08 A3018 630 86 300 340/04 RMK AO2 P0000
14837KMSN MSN20041118160511411/18/04 16:05:31  5-MIN KMSN 182205Z 34003KT 4SM -RA BR FEW070 BKN090 11/08 A3018 630 86 300 340/03 RMK AO2 P0000
14837KMSN MSN20041118161010911/18/04 16:10:31  5-MIN KMSN 182210Z 33003KT 4SM BR BKN090 11/09 A3018 630 89 300 330/03 RMK AO2 RAE06 P0000
14837KMSN MSN20041118161510911/18/04 16:15:31  5-MIN KMSN 182215Z 34003KT 4SM BR BKN085 11/08 A3018 630 86 300 330/03 RMK AO2 RAE06 P0000
14837KMSN MSN20041118162010911/18/04 16:20:31  5-MIN KMSN 182220Z 32003KT 4SM BR OVC085 11/08 A3018 620 86 300 320/03 RMK AO2 RAE06 P0000
14837KMSN MSN20041118162510911/18/04 16:25:31  5-MIN KMSN 182225Z 00000KT 4SM BR OVC085 11/08 A3018 630 86 300 000/00 RMK AO2 RAE06 P0000
14837KMSN MSN20041118163010911/18/04 16:30:31  5-MIN KMSN 182230Z 34003KT 4SM BR OVC085 11/08 A3018 630 86 300 340/03 RMK AO2 RAE06 P0000
14837KMSN MSN20041118163510911/18/04 16:35:31  5-MIN KMSN 182235Z 00000KT 4SM BR OVC080 11/08 A3018 630 86 300 000/00 RMK AO2 RAE06 P0000
14837KMSN MSN20041118164010911/18/04 16:40:31  5-MIN KMSN 182240Z 00000KT 4SM BR OVC080 11/08 A3018 630 86 300 000/00 RMK AO2 RAE06 P0000
14837KMSN MSN20041118164510911/18/04 16:45:31  5-MIN KMSN 182245Z 36003KT 4SM BR OVC080 10/09 A3018 620 93 200 360/03 RMK AO2 RAE06 P0000
14837KMSN MSN20041118165012611/18/04 16:50:31  5-MIN KMSN 182250Z 36003KT 4SM BR OVC080 10/09 A3018 620 93 200 360/03 RMK AO2 RAE06 SLP223 P0000 T01000089
14837KMSN MSN20041118165509711/18/04 16:55:31  5-MIN KMSN 182255Z 36003KT 4SM BR OVC080 10/08 A3018 620 89 200 360/03 RMK AO2
14837KMSN MSN20041118170009711/18/04 17:00:31  5-MIN KMSN 182300Z 36004KT 4SM BR OVC080 10/08 A3018 620 89 200 360/04 RMK AO2
14837KMSN MSN20041118170509711/18/04 17:05:31  5-MIN KMSN 182305Z 01004KT 4SM BR OVC080 10/08 A3018 620 89 200 010/04 RMK AO2
14837KMSN MSN20041118171009711/18/04 17:10:31  5-MIN KMSN 182310Z 01005KT 4SM BR OVC085 10/08 A3018 620 89 200 010/05 RMK AO2
14837KMSN MSN20041118171509711/18/04 17:15:31  5-MIN KMSN 182315Z 02004KT 4SM BR OVC085 10/08 A3018 620 89 200 010/04 RMK AO2
14837KMSN MSN20041118172009711/18/04 17:20:31  5-MIN KMSN 182320Z 02005KT 4SM BR OVC085 09/08 A3018 620 93 100 020/05 RMK AO2
14837KMSN MSN20041118172509711/18/04 17:25:31  5-MIN KMSN 182325Z 01005KT 4SM BR OVC090 09/08 A3018 620 93 100 010/05 RMK AO2
14837KMSN MSN20041118173009711/18/04 17:30:31  5-MIN KMSN 182330Z 02004KT 4SM BR OVC090 09/08 A3018 620 89 100 020/04 RMK AO2
14837KMSN MSN20041118173509711/18/04 17:35:31  5-MIN KMSN 182335Z 02004KT 4SM BR OVC090 10/08 A3018 620 86 200 010/04 RMK AO2
14837KMSN MSN20041118174009711/18/04 17:40:31  5-MIN KMSN 182340Z 02004KT 4SM BR OVC085 10/08 A3018 620 86 200 010/04 RMK AO2
14837KMSN MSN20041118174509711/18/04 17:45:31  5-MIN KMSN 182345Z 00000KT 4SM BR OVC085 09/08 A3018 620 89 100 000/00 RMK AO2
14837KMSN MSN20041118175013811/18/04 17:50:31  5-MIN KMSN 182350Z 00000KT 4SM BR OVC085 09/08 A3018 620 89 100 000/00 RMK AO2 SLP224 60004 T00940078 10128 20094 58010
14837KMSN MSN20041118175509711/18/04 17:55:31  5-MIN KMSN 182355Z 00000KT 4SM BR OVC085 10/08 A3018 620 86 200 000/00 RMK AO2
14837KMSN MSN20041118180009711/18/04 18:00:31  5-MIN KMSN 190000Z 02003KT 4SM BR OVC085 10/08 A3018 620 86 200 020/03 RMK AO2
14837KMSN MSN20041118180509711/18/04 18:05:31  5-MIN KMSN 190005Z 04003KT 4SM BR OVC085 10/08 A3018 620 86 200 040/03 RMK AO2
14837KMSN MSN20041118181009711/18/04 18:10:31  5-MIN KMSN 190010Z 00000KT 4SM BR OVC085 10/08 A3018 620 86 200 000/00 RMK AO2
14837KMSN MSN20041118181509711/18/04 18:15:31  5-MIN KMSN 190015Z 05003KT 4SM BR OVC085 10/08 A3018 620 86 200 050/03 RMK AO2
14837KMSN MSN20041118182009711/18/04 18:20:31  5-MIN KMSN 190020Z 05003KT 4SM BR OVC085 10/08 A3018 620 86 200 040/03 RMK AO2
14837KMSN MSN20041118182509711/18/04 18:25:31  5-MIN KMSN 190025Z 05003KT 4SM BR OVC085 10/08 A3018 620 86 200 050/03 RMK AO2
14837KMSN MSN20041118183009711/18/04 18:30:31  5-MIN KMSN 190030Z 04003KT 4SM BR OVC085 10/08 A3018 620 86 200 040/03 RMK AO2
14837KMSN MSN20041118183509711/18/04 18:35:31  5-MIN KMSN 190035Z 00000KT 4SM BR OVC080 10/08 A3018 620 86 200 000/00 RMK AO2
14837KMSN MSN20041118184009711/18/04 18:40:31  5-MIN KMSN 190040Z 00000KT 4SM BR OVC080 10/08 A3019 620 86 200 000/00 RMK AO2
14837KMSN MSN20041118184509711/18/04 18:45:31  5-MIN KMSN 190045Z 00000KT 4SM BR BKN080 10/08 A3018 620 86 200 000/00 RMK AO2
14837KMSN MSN20041118185011411/18/04 18:50:31  5-MIN KMSN 190050Z 00000KT 4SM BR BKN080 10/08 A3018 620 86 200 000/00 RMK AO2 SLP224 T01000078
14837KMSN MSN20041118185509711/18/04 18:55:31  5-MIN KMSN 190055Z 00000KT 4SM BR BKN080 10/08 A3018 620 86 200 000/00 RMK AO2
14837KMSN MSN20041118190009711/18/04 19:00:31  5-MIN KMSN 190100Z 00000KT 4SM BR BKN080 10/08 A3018 620 86 200 000/00 RMK AO2
14837KMSN MSN20041118190510411/18/04 19:05:31  5-MIN KMSN 190105Z 04003KT 4SM BR FEW070 BKN085 10/08 A3018 620 86 200 040/03 RMK AO2
14837KMSN MSN20041118191010411/18/04 19:10:31  5-MIN KMSN 190110Z 00000KT 4SM BR FEW070 BKN085 10/08 A3018 620 86 200 000/00 RMK AO2
14837KMSN MSN20041118191509711/18/04 19:15:31  5-MIN KMSN 190115Z 04003KT 4SM BR BKN085 10/08 A3018 620 86 200 040/03 RMK AO2
14837KMSN MSN20041118192009711/18/04 19:20:31  5-MIN KMSN 190120Z 00000KT 4SM BR BKN085 10/08 A3018 630 86 200 000/00 RMK AO2
14837KMSN MSN20041118192509711/18/04 19:25:31  5-MIN KMSN 190125Z 04003KT 4SM BR BKN085 10/08 A3018 630 86 200 040/03 RMK AO2
14837KMSN MSN20041118193009711/18/04 19:30:31  5-MIN KMSN 190130Z 04003KT 4SM BR BKN085 10/08 A3018 630 86 200 040/03 RMK AO2
14837KMSN MSN20041118193509711/18/04 19:35:31  5-MIN KMSN 190135Z 04003KT 4SM BR BKN085 09/08 A3018 630 89 200 030/03 RMK AO2
14837KMSN MSN20041118194009711/18/04 19:40:31  5-MIN KMSN 190140Z 04004KT 4SM BR BKN085 09/08 A3018 630 89 200 040/04 RMK AO2
14837KMSN MSN20041118194509711/18/04 19:45:31  5-MIN KMSN 190145Z 03003KT 4SM BR OVC085 10/08 A3018 630 86 200 030/03 RMK AO2
14837KMSN MSN20041118195011411/18/04 19:50:31  5-MIN KMSN 190150Z 03003KT 4SM BR OVC085 09/08 A3017 630 89 200 030/03 RMK AO2 SLP221 T00940078
14837KMSN MSN20041118195509711/18/04 19:55:31  5-MIN KMSN 190155Z 02003KT 4SM BR OVC080 09/08 A3017 630 89 200 020/03 RMK AO2
14837KMSN MSN20041118200009711/18/04 20:00:31  5-MIN KMSN 190200Z 02003KT 4SM BR OVC080 09/08 A3017 630 89 200 020/03 RMK AO2
14837KMSN MSN20041118200510411/18/04 20:05:31  5-MIN KMSN 190205Z 02003KT 4SM BR BKN075 OVC090 09/08 A3017 630 89 200 020/03 RMK AO2
14837KMSN MSN20041118201009711/18/04 20:10:31  5-MIN KMSN 190210Z 02003KT 4SM BR OVC075 09/08 A3017 630 89 200 020/03 RMK AO2
14837KMSN MSN20041118201509711/18/04 20:15:31  5-MIN KMSN 190215Z 02003KT 4SM BR OVC075 09/08 A3017 630 89 200 020/03 RMK AO2
14837KMSN MSN20041118202009711/18/04 20:20:31  5-MIN KMSN 190220Z 03004KT 4SM BR OVC075 09/08 A3017 630 89 200 030/04 RMK AO2
14837KMSN MSN20041118202509711/18/04 20:25:31  5-MIN KMSN 190225Z 03004KT 4SM BR OVC075 09/08 A3017 630 89 200 030/04 RMK AO2
14837KMSN MSN20041118203009711/18/04 20:30:31  5-MIN KMSN 190230Z 03003KT 4SM BR OVC075 09/08 A3017 630 89 200 030/03 RMK AO2
14837KMSN MSN20041118203509711/18/04 20:35:31  5-MIN KMSN 190235Z 03003KT 4SM BR OVC070 09/08 A3017 630 89 200 030/03 RMK AO2
14837KMSN MSN20041118204009711/18/04 20:40:31  5-MIN KMSN 190240Z 03003KT 4SM BR OVC070 09/08 A3017 630 89 200 030/03 RMK AO2
14837KMSN MSN20041118204509711/18/04 20:45:31  5-MIN KMSN 190245Z 03003KT 4SM BR OVC070 09/08 A3018 630 89 200 030/03 RMK AO2
14837KMSN MSN20041118205014211/18/04 20:50:31  5-MIN KMSN 190250Z 00000KT 4SM -RA BR OVC070 09/08 A3018 630 89 200 000/00 RMK AO2 RAB47 SLP222 P0000 60000 T00940078 52003
14837KMSN MSN20041118205510711/18/04 20:55:31  5-MIN KMSN 190255Z 00000KT 4SM -RA BR OVC070 09/08 A3018 630 89 100 000/00 RMK AO2 P0000
14837KMSN MSN20041118210010711/18/04 21:00:31  5-MIN KMSN 190300Z 00000KT 4SM -RA BR OVC070 09/08 A3018 630 89 200 000/00 RMK AO2 P0000
14837KMSN MSN20041118210510711/18/04 21:05:31  5-MIN KMSN 190305Z 00000KT 4SM -RA BR OVC070 09/08 A3018 630 89 200 000/00 RMK AO2 P0000
14837KMSN MSN20041118211010711/18/04 21:10:31  5-MIN KMSN 190310Z 00000KT 4SM -RA BR OVC070 09/08 A3017 630 93 200 000/00 RMK AO2 P0001
14837KMSN MSN20041118211510711/18/04 21:15:31  5-MIN KMSN 190315Z 00000KT 4SM -RA BR OVC070 09/08 A3017 630 96 100 000/00 RMK AO2 P0001
14837KMSN MSN20041118212010711/18/04 21:20:31  5-MIN KMSN 190320Z 00000KT 3SM -RA BR OVC070 09/08 A3017 630 96 100 000/00 RMK AO2 P0001
14837KMSN MSN20041118212510711/18/04 21:25:31  5-MIN KMSN 190325Z 00000KT 4SM -RA BR OVC070 09/08 A3018 630 96 100 000/00 RMK AO2 P0001
14837KMSN MSN20041118213010711/18/04 21:30:31  5-MIN KMSN 190330Z 00000KT 4SM -RA BR OVC070 09/08 A3017 630 96 100 000/00 RMK AO2 P0001
14837KMSN MSN20041118213510711/18/04 21:35:31  5-MIN KMSN 190335Z 00000KT 4SM -RA BR OVC075 09/08 A3017 630 96 100 000/00 RMK AO2 P0002
14837KMSN MSN20041118214010711/18/04 21:40:31  5-MIN KMSN 190340Z 00000KT 4SM -RA BR OVC075 09/08 A3017 630 93 100 000/00 RMK AO2 P0002
14837KMSN MSN20041118214510711/18/04 21:45:31  5-MIN KMSN 190345Z 36003KT 4SM -RA BR OVC075 09/08 A3017 630 93 200 360/03 RMK AO2 P0002
14837KMSN MSN20041118215012411/18/04 21:50:31  5-MIN KMSN 190350Z 35003KT 4SM -RA BR OVC075 09/08 A3017 630 96 100 350/03 RMK AO2 SLP220 P0002 T00890083
14837KMSN MSN20041118215510711/18/04 21:55:31  5-MIN KMSN 190355Z 36004KT 4SM -RA BR OVC075 09/08 A3017 630 93 100 360/04 RMK AO2 P0000
14837KMSN MSN20041118220010711/18/04 22:00:31  5-MIN KMSN 190400Z 36004KT 4SM -RA BR OVC080 09/08 A3017 630 89 200 360/04 RMK AO2 P0000
14837KMSN MSN20041118220510711/18/04 22:05:31  5-MIN KMSN 190405Z 36003KT 4SM -RA BR OVC075 09/08 A3017 630 89 200 360/03 RMK AO2 P0000
14837KMSN MSN20041118221010711/18/04 22:10:31  5-MIN KMSN 190410Z 36003KT 4SM -RA BR OVC070 09/08 A3017 630 89 200 350/03 RMK AO2 P0000
14837KMSN MSN20041118221510711/18/04 22:15:31  5-MIN KMSN 190415Z 00000KT 4SM -RA BR OVC070 09/08 A3017 630 89 200 000/00 RMK AO2 P0000
14837KMSN MSN20041118222011411/18/04 22:20:31  5-MIN KMSN 190420Z 00000KT 4SM -RA BR BKN070 OVC080 09/08 A3017 640 93 100 000/00 RMK AO2 P0000
14837KMSN MSN20041118222510711/18/04 22:25:31  5-MIN KMSN 190425Z 00000KT 4SM -RA BR OVC070 09/08 A3017 640 93 100 000/00 RMK AO2 P0000
14837KMSN MSN20041118223010711/18/04 22:30:31  5-MIN KMSN 190430Z 00000KT 4SM -RA BR OVC070 09/08 A3017 640 93 100 000/00 RMK AO2 P0000
14837KMSN MSN20041118223510711/18/04 22:35:31  5-MIN KMSN 190435Z 00000KT 4SM -RA BR OVC070 09/08 A3017 630 89 200 000/00 RMK AO2 P0000
14837KMSN MSN20041118224010711/18/04 22:40:31  5-MIN KMSN 190440Z 03003KT 4SM -RA BR OVC070 09/08 A3017 640 93 100 030/03 RMK AO2 P0000
14837KMSN MSN20041118224510711/18/04 22:45:31  5-MIN KMSN 190445Z 04003KT 4SM -RA BR OVC070 09/08 A3017 640 93 100 040/03 RMK AO2 P0000
14837KMSN MSN20041118225012411/18/04 22:50:31  5-MIN KMSN 190450Z 04003KT 4SM -RA BR OVC065 09/08 A3017 640 93 100 040/03 RMK AO2 SLP219 P0000 T00890078
14837KMSN MSN20041118225510711/18/04 22:55:31  5-MIN KMSN 190455Z 04004KT 3SM -RA BR OVC070 09/08 A3017 640 93 100 040/04 RMK AO2 P0000
14837KMSN MSN20041118230010711/18/04 23:00:31  5-MIN KMSN 190500Z 05004KT 3SM -RA BR OVC070 09/08 A3017 640 93 100 050/04 RMK AO2 P0000
14837KMSN MSN20041118230510711/18/04 23:05:31  5-MIN KMSN 190505Z 05004KT 3SM -RA BR OVC070 09/08 A3017 640 93 100 050/04 RMK AO2 P0000
14837KMSN MSN20041118231011411/18/04 23:10:31  5-MIN KMSN 190510Z 05004KT 3SM -RA BR BKN065 OVC075 09/08 A3016 640 93 100 040/04 RMK AO2 P0000
14837KMSN MSN20041118231511411/18/04 23:15:31  5-MIN KMSN 190515Z 05005KT 3SM -RA BR BKN065 OVC075 09/08 A3016 640 93 100 050/05 RMK AO2 P0000
14837KMSN MSN20041118232011411/18/04 23:20:31  5-MIN KMSN 190520Z 04005KT 3SM -RA BR BKN065 OVC075 09/08 A3016 640 93 100 040/05 RMK AO2 P0001
14837KMSN MSN20041118232510711/18/04 23:25:31  5-MIN KMSN 190525Z 05005KT 3SM -RA BR OVC065 09/08 A3016 640 93 100 050/05 RMK AO2 P0001
14837KMSN MSN20041118233010711/18/04 23:30:31  5-MIN KMSN 190530Z 05005KT 3SM -RA BR OVC065 09/08 A3016 640 93 100 050/05 RMK AO2 P0001
14837KMSN MSN20041118233510711/18/04 23:35:31  5-MIN KMSN 190535Z 05006KT 3SM -RA BR OVC060 09/08 A3016 650 93 100 050/06 RMK AO2 P0001
14837KMSN MSN20041118234010711/18/04 23:40:31  5-MIN KMSN 190540Z 05006KT 3SM -RA BR OVC060 09/08 A3015 650 93 100 050/06 RMK AO2 P0001
14837KMSN MSN20041118234510711/18/04 23:45:31  5-MIN KMSN 190545Z 05007KT 3SM -RA BR OVC065 09/08 A3015 650 93 100 050/07 RMK AO2 P0001
14837KMSN MSN20041118235015811/18/04 23:50:31  5-MIN KMSN 190550Z 05006KT 3SM -RA BR OVC060 09/08 A3015 650 93 100 050/06 RMK AO2 SLP214 P0001 60003 T00890078 10100 20089 401390089 55002
14837KMSN MSN20041118235510711/18/04 23:55:31  5-MIN KMSN 190555Z 05007KT 3SM -RA BR OVC060 09/08 A3015 650 93 100 050/07 RMK AO2 P0000
14837KMSN MSN20041119000011411/19/04 00:00:31  5-MIN KMSN 190600Z 06008KT 3SM -RA BR BKN060 OVC090 09/08 A3015 660 93 100 050/08 RMK AO2 P0000
14837KMSN MSN20041119000511411/19/04 00:05:31  5-MIN KMSN 190605Z 05006KT 3SM -RA BR BKN060 OVC090 09/08 A3015 660 93 100 050/06 RMK AO2 P0000
14837KMSN MSN20041119001011411/19/04 00:10:31  5-MIN KMSN 190610Z 05007KT 3SM -RA BR BKN060 OVC090 09/08 A3014 660 93 100 050/07 RMK AO2 P0000
14837KMSN MSN20041119001511411/19/04 00:15:31  5-MIN KMSN 190615Z 05006KT 3SM -RA BR BKN065 OVC090 09/08 A3014 660 93 100 050/06 RMK AO2 P0000
14837KMSN MSN20041119002011411/19/04 00:20:31  5-MIN KMSN 190620Z 05007KT 3SM -RA BR BKN065 OVC090 09/08 A3014 660 93 100 050/07 RMK AO2 P0000
14837KMSN MSN20041119002511411/19/04 00:25:31  5-MIN KMSN 190625Z 05006KT 3SM -RA BR BKN065 OVC090 09/08 A3014 660 93 100 050/06 RMK AO2 P0000
14837KMSN MSN20041119003012111/19/04 00:30:31  5-MIN KMSN 190630Z 05006KT 3SM -RA BR FEW060 BKN070 OVC090 09/08 A3014 670 93 100 050/06 RMK AO2 P0000
14837KMSN MSN20041119003512111/19/04 00:35:31  5-MIN KMSN 190635Z 05006KT 3SM -RA BR FEW060 BKN070 OVC085 09/08 A3013 670 93 100 050/06 RMK AO2 P0000
14837KMSN MSN20041119004012111/19/04 00:40:31  5-MIN KMSN 190640Z 05006KT 3SM -RA BR FEW055 BKN070 OVC085 09/08 A3013 670 93 100 050/06 RMK AO2 P0000
14837KMSN MSN20041119004511411/19/04 00:45:31  5-MIN KMSN 190645Z 04007KT 3SM -RA BR FEW055 OVC080 09/08 A3013 670 93 100 040/07 RMK AO2 P0000
14837KMSN MSN20041119005013111/19/04 00:50:31  5-MIN KMSN 190650Z 05006KT 3SM -RA BR SCT055 OVC080 09/08 A3013 670 93 100 050/06 RMK AO2 SLP205 P0000 T00890078
14837KMSN MSN20041119005511411/19/04 00:55:31  5-MIN KMSN 190655Z 05008KT 3SM -RA BR BKN055 OVC080 09/08 A3013 670 93 100 050/08 RMK AO2 P0000
14837KMSN MSN20041119010011411/19/04 01:00:31  5-MIN KMSN 190700Z 05006KT 3SM -RA BR BKN055 OVC085 09/08 A3012 680 93 100 050/06 RMK AO2 P0000
14837KMSN MSN20041119010511411/19/04 01:05:31  5-MIN KMSN 190705Z 05007KT 3SM -RA BR BKN055 OVC085 09/08 A3012 680 93 100 050/07 RMK AO2 P0000
14837KMSN MSN20041119011011411/19/04 01:10:31  5-MIN KMSN 190710Z 05007KT 3SM -RA BR BKN055 OVC080 09/08 A3012 680 93 200 050/07 RMK AO2 P0000
14837KMSN MSN20041119011510911/19/04 01:15:31  5-MIN KMSN 190715Z 05006KT 3SM BR OVC050 09/08 A3012 680 93 200 050/06 RMK AO2 RAE11 P0000
14837KMSN MSN20041119012010911/19/04 01:20:31  5-MIN KMSN 190720Z 06006KT 3SM BR OVC050 09/08 A3012 680 93 200 050/06 RMK AO2 RAE11 P0000
14837KMSN MSN20041119012510911/19/04 01:25:31  5-MIN KMSN 190725Z 05009KT 3SM BR OVC050 09/08 A3012 680 93 200 050/09 RMK AO2 RAE11 P0000
14837KMSN MSN20041119013010911/19/04 01:30:31  5-MIN KMSN 190730Z 06007KT 4SM BR OVC050 09/08 A3012 680 93 200 060/07 RMK AO2 RAE11 P0000
14837KMSN MSN20041119013510911/19/04 01:35:31  5-MIN KMSN 190735Z 06008KT 4SM BR OVC050 09/08 A3012 680 93 200 060/08 RMK AO2 RAE11 P0000
14837KMSN MSN20041119014010911/19/04 01:40:31  5-MIN KMSN 190740Z 06008KT 3SM BR OVC050 09/08 A3012 680 93 200 050/08 RMK AO2 RAE11 P0000
14837KMSN MSN20041119014511611/19/04 01:45:31  5-MIN KMSN 190745Z 06009KT 3SM BR FEW009 OVC050 09/08 A3012 680 93 200 060/09 RMK AO2 RAE11 P0000
14837KMSN MSN20041119015013311/19/04 01:50:31  5-MIN KMSN 190750Z 06010KT 3SM BR FEW009 OVC050 09/08 A3012 680 93 200 060/10 RMK AO2 RAE11 SLP202 P0000 T00890078
14837KMSN MSN20041119015510411/19/04 01:55:31  5-MIN KMSN 190755Z 06010KT 3SM BR SCT009 OVC050 09/08 A3012 680 93 200 060/10 RMK AO2
14837KMSN MSN20041119020010411/19/04 02:00:31  5-MIN KMSN 190800Z 06011KT 3SM BR SCT009 OVC050 09/08 A3012 680 93 200 060/11 RMK AO2
14837KMSN MSN20041119020510411/19/04 02:05:31  5-MIN KMSN 190805Z 06009KT 3SM BR FEW009 OVC050 09/08 A3012 680 93 200 060/09 RMK AO2
14837KMSN MSN20041119021010411/19/04 02:10:31  5-MIN KMSN 190810Z 06010KT 3SM BR FEW009 OVC050 09/08 A3012 680 93 200 060/10 RMK AO2
14837KMSN MSN20041119021510411/19/04 02:15:31  5-MIN KMSN 190815Z 06008KT 3SM BR FEW009 OVC050 09/08 A3012 680 93 200 060/08 RMK AO2
14837KMSN MSN20041119022012011/19/04 02:20:31  5-MIN KMSN 190820Z 06007KT 3SM -RA BR SCT009 OVC050 09/08 A3012 680 93 200 060/07 RMK AO2 RAB20 P0000
14837KMSN MSN20041119022512011/19/04 02:25:31  5-MIN KMSN 190825Z 06007KT 3SM -RA BR FEW009 OVC050 08/08 A3012 680 96 100 060/07 RMK AO2 RAB20 P0001
14837KMSN MSN20041119023012011/19/04 02:30:31  5-MIN KMSN 190830Z 06008KT 3SM -RA BR FEW009 OVC050 08/08 A3012 680 96 100 060/08 RMK AO2 RAB20 P0001
14837KMSN MSN20041119023512011/19/04 02:35:31  5-MIN KMSN 190835Z 07009KT 3SM -RA BR FEW009 OVC050 08/08 A3011 690 96 100 070/09 RMK AO2 RAB20 P0001
14837KMSN MSN20041119024012011/19/04 02:40:31  5-MIN KMSN 190840Z 06007KT 3SM -RA BR FEW009 OVC050 08/08 A3011 680 96 100 060/07 RMK AO2 RAB20 P0001
14837KMSN MSN20041119024512011/19/04 02:45:31  5-MIN KMSN 190845Z 06008KT 3SM -RA BR FEW009 OVC050 08/08 A3011 690 96 100 060/08 RMK AO2 RAB20 P0001
14837KMSN MSN20041119025014911/19/04 02:50:31  5-MIN KMSN 190850Z 06008KT 3SM -RA BR FEW009 OVC050 08/08 A3011 690 96 100 060/08 RMK AO2 RAB20 SLP200 P0001 60001 T00830078 58009
14837KMSN MSN20041119025511411/19/04 02:55:31  5-MIN KMSN 190855Z 06007KT 3SM -RA BR FEW009 OVC050 08/08 A3011 690 96 100 060/07 RMK AO2 P0000
14837KMSN MSN20041119030011411/19/04 03:00:31  5-MIN KMSN 190900Z 06007KT 3SM -RA BR FEW009 OVC050 08/08 A3011 690 96 100 060/07 RMK AO2 P0000
14837KMSN MSN20041119030512111/19/04 03:05:31  5-MIN KMSN 190905Z 06007KT 3SM -RA BR FEW007 SCT011 OVC050 08/08 A3011 690 96 100 060/07 RMK AO2 P0000
14837KMSN MSN20041119031012611/19/04 03:10:31  5-MIN KMSN 190910Z 06006KT 3SM -RA BR BKN009 OVC050 08/08 A3011 690 96 100 060/06 RMK AO2 CIG 006V012 P0000
14837KMSN MSN20041119031512611/19/04 03:15:31  5-MIN KMSN 190915Z 06007KT 3SM -RA BR BKN009 OVC050 08/07 A3010 690 93 100 060/07 RMK AO2 CIG 006V012 P0001
14837KMSN MSN20041119032012611/19/04 03:20:31  5-MIN KMSN 190920Z 06007KT 3SM -RA BR BKN009 OVC050 08/07 A3010 700 93 100 060/07 RMK AO2 CIG 006V012 P0001
14837KMSN MSN20041119032511911/19/04 03:25:31  5-MIN KMSN 190925Z 06009KT 3SM -RA BR OVC009 08/07 A3010 700 93 100 060/09 RMK AO2 CIG 006V012 P0001
14837KMSN MSN20041119033011911/19/04 03:30:31  5-MIN KMSN 190930Z 06007KT 3SM -RA BR OVC009 08/07 A3010 700 93 100 060/07 RMK AO2 CIG 006V012 P0001
14837KMSN MSN20041119033511911/19/04 03:35:31  5-MIN KMSN 190935Z 06008KT 3SM -RA BR OVC009 08/07 A3010 700 93 100 060/08 RMK AO2 CIG 006V012 P0001
14837KMSN MSN20041119034011911/19/04 03:40:31  5-MIN KMSN 190940Z 06008KT 3SM -RA BR OVC009 08/07 A3010 700 93 100 060/08 RMK AO2 CIG 007V011 P0001
14837KMSN MSN20041119034512111/19/04 03:45:31  5-MIN KMSN 190945Z 06009KT 3SM BR OVC009 08/07 A3010 700 93 100 060/09 RMK AO2 RAE41 CIG 007V011 P0001
14837KMSN MSN20041119035014511/19/04 03:50:31  5-MIN KMSN 190950Z 06008KT 4SM BR BKN009 OVC015 08/07 A3010 700 93 100 060/08 RMK AO2 RAE41 CIG 007V012 SLP194 P0001 T00830072
14837KMSN MSN20041119035511611/19/04 03:55:31  5-MIN KMSN 190955Z 06009KT 3SM BR BKN009 OVC015 08/07 A3010 700 93 100 060/09 RMK AO2 CIG 007V012
14837KMSN MSN20041119040010411/19/04 04:00:31  5-MIN KMSN 191000Z 06009KT 4SM BR SCT009 OVC015 08/07 A3010 700 93 100 060/09 RMK AO2
14837KMSN MSN20041119040510411/19/04 04:05:31  5-MIN KMSN 191005Z 06008KT 4SM BR FEW009 OVC017 08/07 A3009 700 93 100 060/08 RMK AO2
14837KMSN MSN20041119041010411/19/04 04:10:31  5-MIN KMSN 191010Z 06009KT 4SM BR FEW011 OVC017 08/07 A3009 710 89 100 060/09 RMK AO2
14837KMSN MSN20041119041509711/19/04 04:15:31  5-MIN KMSN 191015Z 07010KT 5SM BR OVC017 08/06 A3009 710 86 100 070/10 RMK AO2
14837KMSN MSN20041119042010411/19/04 04:20:31  5-MIN KMSN 191020Z 06010KT 5SM BR BKN017 OVC030 08/06 A3009 710 86 100 060/10 RMK AO2
14837KMSN MSN20041119042510411/19/04 04:25:31  5-MIN KMSN 191025Z 07009KT 6SM BR BKN017 OVC030 08/06 A3009 700 86 100 070/09 RMK AO2
14837KMSN MSN20041119043010211/19/04 04:30:31  5-MIN KMSN 191030Z 07013KT 6SM BR BKN017 OVC030 08/06 A3009 710 86 0 070/13 RMK AO2
14837KMSN MSN20041119043511511/19/04 04:35:31  5-MIN KMSN 191035Z 07011KT 7SM -RA BKN019 OVC029 08/06 A3009 710 86 0 070/11 RMK AO2 RAB32 P0000
14837KMSN MSN20041119044011411/19/04 04:40:31  5-MIN KMSN 191040Z 07011KT 8SM BKN019 OVC029 08/05 A3009 710 82 0 070/11 RMK AO2 RAB32E40 P0000
14837KMSN MSN20041119044511411/19/04 04:45:31  5-MIN KMSN 191045Z 07009KT 8SM SCT019 OVC027 08/04 A3009 710 79 0 070/09 RMK AO2 RAB32E40 P0000
14837KMSN MSN20041119045013111/19/04 04:50:31  5-MIN KMSN 191050Z 07010KT 8SM SCT019 OVC027 08/05 A3009 710 82 0 070/10 RMK AO2 RAB32E40 SLP194 P0000 T00780050
14837KMSN MSN20041119045509911/19/04 04:55:31  5-MIN KMSN 191055Z 07010KT 8SM BKN023 OVC029 08/05 A3009 710 82 0 070/10 RMK AO2
14837KMSN MSN20041119050009911/19/04 05:00:31  5-MIN KMSN 191100Z 07009KT 8SM BKN023 OVC029 08/04 A3009 710 79 0 070/09 RMK AO2
14837KMSN MSN20041119050511011/19/04 05:05:31  5-MIN KMSN 191105Z 07007KT 7SM -RA OVC023 08/05 A3009 710 82 100 070/07 RMK AO2 RAB05 P0000
14837KMSN MSN20041119051010811/19/04 05:10:31  5-MIN KMSN 191110Z 07007KT 7SM -RA OVC020 07/05 A3009 710 86 0 070/07 RMK AO2 RAB05 P0000
14837KMSN MSN20041119051511511/19/04 05:15:31  5-MIN KMSN 191115Z 06008KT 7SM -RA BKN018 OVC024 07/05 A3009 710 86 0 060/08 RMK AO2 RAB05 P0000
14837KMSN MSN20041119052011411/19/04 05:20:31  5-MIN KMSN 191120Z 06008KT 7SM BKN018 OVC024 07/05 A3008 710 86 0 050/08 RMK AO2 RAB05E19 P0000
14837KMSN MSN20041119052510811/19/04 05:25:31  5-MIN KMSN 191125Z 06008KT 7SM -RA OVC018 07/05 A3008 710 86 0 060/08 RMK AO2 RAB05 P0000
14837KMSN MSN20041119053011111/19/04 05:30:31  5-MIN KMSN 191130Z 06007KT 6SM -RA BR OVC018 07/05 A3008 710 86 0 060/07 RMK AO2 RAB05 P0000
14837KMSN MSN20041119053511111/19/04 05:35:31  5-MIN KMSN 191135Z 06007KT 6SM -RA BR OVC016 07/05 A3009 710 86 0 060/07 RMK AO2 RAB05 P0000
14837KMSN MSN20041119054011111/19/04 05:40:31  5-MIN KMSN 191140Z 06006KT 6SM -RA BR OVC016 07/05 A3008 710 86 0 060/06 RMK AO2 RAB05 P0000
14837KMSN MSN20041119054511111/19/04 05:45:31  5-MIN KMSN 191145Z 06007KT 6SM -RA BR OVC016 07/05 A3008 710 86 0 060/07 RMK AO2 RAB05 P0000
14837KMSN MSN20041119055015811/19/04 05:50:31  5-MIN KMSN 191150Z 06007KT 5SM -RA BR OVC016 07/05 A3008 720 86 0 060/07 RMK AO2 RAB05 SLP191 P0001 60003 70010 T00720050 10089 20072 56014
14837KMSN MSN20041119055510511/19/04 05:55:31  5-MIN KMSN 191155Z 06007KT 5SM -RA BR OVC016 07/05 A3008 720 86 0 060/07 RMK AO2 P0000
14837KMSN MSN20041119060010511/19/04 06:00:31  5-MIN KMSN 191200Z 06007KT 6SM -RA BR OVC016 07/05 A3008 720 86 0 060/07 RMK AO2 P0000
14837KMSN MSN20041119060510411/19/04 06:05:31  5-MIN KMSN 191205Z 06007KT 7SM OVC016 07/05 A3008 720 86 0 060/07 RMK AO2 RAE03 P0000
14837KMSN MSN20041119061010411/19/04 06:10:31  5-MIN KMSN 191210Z 06008KT 8SM OVC016 07/05 A3008 720 86 0 060/08 RMK AO2 RAE03 P0000
14837KMSN MSN20041119061510411/19/04 06:15:31  5-MIN KMSN 191215Z 06007KT 8SM OVC016 07/05 A3007 720 86 0 060/07 RMK AO2 RAE03 P0000
14837KMSN MSN20041119062011311/19/04 06:20:31  5-MIN KMSN 191220Z 06007KT 8SM -DZ OVC016 07/05 A3008 720 86 0 060/07 RMK AO2 RAE03DZB16 P0000
14837KMSN MSN20041119062511211/19/04 06:25:31  5-MIN KMSN 191225Z 06007KT 8SM OVC014 07/05 A3007 720 86 0 060/07 RMK AO2 RAE03DZB16E25 P0000
14837KMSN MSN20041119063011211/19/04 06:30:31  5-MIN KMSN 191230Z 06008KT 8SM OVC014 07/05 A3007 720 86 0 060/08 RMK AO2 RAE03DZB16E25 P0000
14837KMSN MSN20041119063511211/19/04 06:35:31  5-MIN KMSN 191235Z 06009KT 8SM OVC014 07/05 A3007 720 86 0 060/09 RMK AO2 RAE03DZB16E25 P0000
14837KMSN MSN20041119064011211/19/04 06:40:31  5-MIN KMSN 191240Z 06007KT 8SM OVC014 07/05 A3007 720 86 0 060/07 RMK AO2 RAE03DZB16E25 P0000
14837KMSN MSN20041119064511211/19/04 06:45:31  5-MIN KMSN 191245Z 06007KT 8SM OVC014 07/05 A3007 730 86 0 060/07 RMK AO2 RAE03DZB16E25 P0000
14837KMSN MSN20041119065013211/19/04 06:50:31  5-MIN KMSN 191250Z 06008KT 7SM BR OVC014 07/05 A3007 730 86 0 060/08 RMK AO2 RAE03DZB16E25 SLP187 P0000 T00720050
14837KMSN MSN20041119065510511/19/04 06:55:31  5-MIN KMSN 191255Z 06008KT 6SM -RA BR OVC014 07/05 A3007 730 86 0 060/08 RMK AO2 P0000
14837KMSN MSN20041119070010511/19/04 07:00:31  5-MIN KMSN 191300Z 06008KT 7SM -RA BR OVC014 07/06 A3007 730 89 0 050/08 RMK AO2 P0000
14837KMSN MSN20041119070510511/19/04 07:05:31  5-MIN KMSN 191305Z 05007KT 7SM -RA BR OVC012 07/06 A3007 730 89 0 050/07 RMK AO2 P0000
14837KMSN MSN20041119071010511/19/04 07:10:31  5-MIN KMSN 191310Z 06008KT 7SM -RA BR OVC012 07/06 A3007 730 89 0 060/08 RMK AO2 P0000
14837KMSN MSN20041119071510511/19/04 07:15:31  5-MIN KMSN 191315Z 06010KT 5SM -RA BR OVC012 07/06 A3007 730 89 0 050/10 RMK AO2 P0000
14837KMSN MSN20041119072010511/19/04 07:20:31  5-MIN KMSN 191320Z 05008KT 4SM -RA BR OVC012 07/06 A3007 730 89 0 050/08 RMK AO2 P0000
14837KMSN MSN20041119072510511/19/04 07:25:31  5-MIN KMSN 191325Z 05009KT 4SM -RA BR OVC012 07/06 A3006 730 89 0 050/09 RMK AO2 P0000
14837KMSN MSN20041119073010511/19/04 07:30:31  5-MIN KMSN 191330Z 06009KT 3SM -RA BR OVC012 07/06 A3006 730 93 0 060/09 RMK AO2 P0000
14837KMSN MSN20041119073510511/19/04 07:35:31  5-MIN KMSN 191335Z 06008KT 3SM -RA BR OVC010 07/06 A3006 730 93 0 060/08 RMK AO2 P0000
14837KMSN MSN20041119074010511/19/04 07:40:31  5-MIN KMSN 191340Z 05007KT 3SM -RA BR OVC010 07/06 A3006 730 93 0 050/07 RMK AO2 P0000
14837KMSN MSN20041119074511511/19/04 07:45:31  5-MIN KMSN 191345Z 05007KT 3SM -RA BR OVC010 07/06 A3007 730 93 0 050/07 RMK AO2 SFC VIS 4 P0000
14837KMSN MSN20041119075013211/19/04 07:50:31  5-MIN KMSN 191350Z 05007KT 3SM -RA BR OVC010 07/06 A3006 730 93 0 050/07 RMK AO2 SFC VIS 4 SLP185 P0000 T00720061
14837KMSN MSN20041119075511511/19/04 07:55:31  5-MIN KMSN 191355Z 05009KT 3SM -RA BR OVC010 07/06 A3006 730 93 0 050/09 RMK AO2 SFC VIS 4 P0000
14837KMSN MSN20041119080010511/19/04 08:00:31  5-MIN KMSN 191400Z 06007KT 3SM -RA BR OVC010 07/06 A3006 730 93 0 060/07 RMK AO2 P0000
14837KMSN MSN20041119080510511/19/04 08:05:31  5-MIN KMSN 191405Z 05008KT 3SM -RA BR OVC008 07/06 A3006 740 93 0 050/08 RMK AO2 P0001
14837KMSN MSN20041119081010511/19/04 08:10:31  5-MIN KMSN 191410Z 06009KT 3SM -RA BR OVC008 07/06 A3006 740 93 0 060/09 RMK AO2 P0001
14837KMSN MSN20041119081510511/19/04 08:15:31  5-MIN KMSN 191415Z 06009KT 3SM -RA BR OVC008 07/06 A3006 740 93 0 060/09 RMK AO2 P0001
14837KMSN MSN20041119082010511/19/04 08:20:31  5-MIN KMSN 191420Z 06009KT 3SM -RA BR OVC008 07/07 A3005 740 96 0 060/09 RMK AO2 P0001
14837KMSN MSN20041119082510711/19/04 08:25:31  5-MIN KMSN 191425Z 06009KT 3SM -RA BR OVC008 08/07 A3005 740 93 100 060/09 RMK AO2 P0001
14837KMSN MSN20041119083010711/19/04 08:30:31  5-MIN KMSN 191430Z 06011KT 3SM -RA BR OVC008 08/07 A3005 740 93 100 060/11 RMK AO2 P0001
14837KMSN MSN20041119083511911/19/04 08:35:31  5-MIN KMSN 191435Z 07010KT 3SM -RA BR OVC008 08/07 A3005 740 93 100 060/10 RMK AO2 CIG 006V011 P0001
14837KMSN MSN20041119084011911/19/04 08:40:31  5-MIN KMSN 191440Z 06009KT 3SM -RA BR OVC008 08/07 A3005 740 93 100 060/09 RMK AO2 CIG 006V011 P0001
14837KMSN MSN20041119084511911/19/04 08:45:31  5-MIN KMSN 191445Z 07009KT 3SM -RA BR OVC008 08/07 A3005 740 93 100 060/09 RMK AO2 CIG 006V011 P0002
14837KMSN MSN20041119085015811/19/04 08:50:31  5-MIN KMSN 191450Z 06010KT 2SM -RA BR OVC008 08/07 A3005 750 93 100 060/10 RMK AO2 TWR VIS 3 CIG 006V011 SLP179 P0002 60002 T00780067 56010
14837KMSN MSN20041119085512911/19/04 08:55:31  5-MIN KMSN 191455Z 06009KT 2SM -RA BR OVC008 08/07 A3005 750 93 100 060/09 RMK AO2 TWR VIS 3 CIG 006V011 P0000
14837KMSN MSN20041119090013311/19/04 09:00:31  5-MIN KMSN 191500Z 06010KT 1 3/4SM -RA BR OVC006 08/07 A3005 750 93 100 060/10 RMK AO2 TWR VIS 3 CIG 005V009 P0000
14837KMSN MSN20041119090512911/19/04 09:05:31  5-MIN KMSN 191505Z 06009KT 2SM -RA BR OVC006 08/07 A3005 750 93 100 060/09 RMK AO2 TWR VIS 3 CIG 005V010 P0001
14837KMSN MSN20041119091013311/19/04 09:10:31  5-MIN KMSN 191510Z 07010KT 2 1/2SM -RA BR OVC006 08/07 A3005 750 93 100 060/10 RMK AO2 TWR VIS 3 CIG 005V010 P0001
14837KMSN MSN20041119091511411/19/04 09:15:31  5-MIN KMSN 191515Z 06010KT 3SM -RA BR BKN006 OVC011 08/07 A3004 750 93 100 060/10 RMK AO2 P0001
14837KMSN MSN20041119092010711/19/04 09:20:31  5-MIN KMSN 191520Z 07010KT 4SM -RA BR OVC006 08/07 A3004 750 93 100 070/10 RMK AO2 P0001
14837KMSN MSN20041119092510711/19/04 09:25:31  5-MIN KMSN 191525Z 07010KT 4SM -RA BR OVC006 08/07 A3004 750 93 100 060/10 RMK AO2 P0001
14837KMSN MSN20041119093010711/19/04 09:30:31  5-MIN KMSN 191530Z 07009KT 4SM -RA BR OVC006 08/07 A3004 750 93 100 060/09 RMK AO2 P0001
14837KMSN MSN20041119093510711/19/04 09:35:31  5-MIN KMSN 191535Z 07010KT 4SM -RA BR OVC006 08/07 A3004 760 93 100 070/10 RMK AO2 P0002
14837KMSN MSN20041119094011711/19/04 09:40:31  5-MIN KMSN 191540Z 07010KT 3SM -RA BR OVC006 08/07 A3003 760 93 100 070/10 RMK AO2 TWR VIS 4 P0002
14837KMSN MSN20041119094511711/19/04 09:45:31  5-MIN KMSN 191545Z 06008KT 3SM -RA BR OVC006 08/07 A3003 760 93 100 060/08 RMK AO2 TWR VIS 4 P0002
14837KMSN MSN20041119095013811/19/04 09:50:31  5-MIN KMSN 191550Z 06009KT 2 1/2SM -RA BR OVC006 08/07 A3003 760 93 100 060/09 RMK AO2 TWR VIS 4 SLP174 P0002 T00780067
14837KMSN MSN20041119095511711/19/04 09:55:31  5-MIN KMSN 191555Z 07011KT 3SM -RA BR OVC006 08/07 A3003 760 93 100 070/11 RMK AO2 TWR VIS 4 P0000
14837KMSN MSN20041119100011711/19/04 10:00:31  5-MIN KMSN 191600Z 06010KT 3SM -RA BR OVC006 08/07 A3003 770 93 100 060/10 RMK AO2 TWR VIS 4 P0000
14837KMSN MSN20041119100510711/19/04 10:05:31  5-MIN KMSN 191605Z 06008KT 4SM -RA BR OVC006 08/07 A3003 770 93 100 060/08 RMK AO2 P0000
14837KMSN MSN20041119101010911/19/04 10:10:31  5-MIN KMSN 191610Z 06008KT 4SM BR OVC006 08/07 A3002 770 96 100 060/08 RMK AO2 RAE10 P0000
14837KMSN MSN20041119101510711/19/04 10:15:31  5-MIN KMSN 191615Z 06008KT 4SM -RA BR OVC006 08/07 A3002 770 96 100 060/08 RMK AO2 P0001
14837KMSN MSN20041119102010711/19/04 10:20:31  5-MIN KMSN 191620Z 06008KT 4SM -RA BR OVC006 08/07 A3002 770 96 100 060/08 RMK AO2 P0001
14837KMSN MSN20041119102510711/19/04 10:25:31  5-MIN KMSN 191625Z 06010KT 4SM -RA BR OVC006 08/07 A3002 770 96 100 060/10 RMK AO2 P0001
14837KMSN MSN20041119103011711/19/04 10:30:31  5-MIN KMSN 191630Z 07011KT 3SM -RA BR OVC006 08/07 A3002 770 96 100 070/11 RMK AO2 TWR VIS 4 P0001
14837KMSN MSN20041119103510711/19/04 10:35:31  5-MIN KMSN 191635Z 06009KT 2SM -RA BR OVC006 08/07 A3002 770 96 100 060/09 RMK AO2 P0001
14837KMSN MSN20041119104010711/19/04 10:40:31  5-MIN KMSN 191640Z 06010KT 2SM -RA BR OVC006 08/07 A3002 780 96 100 060/10 RMK AO2 P0001
14837KMSN MSN20041119104510711/19/04 10:45:31  5-MIN KMSN 191645Z 06008KT 2SM -RA BR OVC006 08/07 A3001 780 93 200 060/08 RMK AO2 P0001
14837KMSN MSN20041119105012411/19/04 10:50:31  5-MIN KMSN 191650Z 06010KT 2SM -RA BR OVC006 08/07 A3001 780 93 200 060/10 RMK AO2 SLP166 P0002 T00830072
14837KMSN MSN20041119105511711/19/04 10:55:31  5-MIN KMSN 191655Z 07009KT 2SM -RA BR OVC006 08/07 A3001 780 93 200 070/09 RMK AO2 SFC VIS 3 P0000
14837KMSN MSN20041119110011711/19/04 11:00:31  5-MIN KMSN 191700Z 06011KT 2SM -RA BR OVC006 08/07 A3001 780 93 200 060/11 RMK AO2 SFC VIS 3 P0000
14837KMSN MSN20041119110511711/19/04 11:05:31  5-MIN KMSN 191705Z 06010KT 2SM -RA BR OVC006 08/07 A3000 790 93 200 060/10 RMK AO2 SFC VIS 3 P0000
14837KMSN MSN20041119111011711/19/04 11:10:31  5-MIN KMSN 191710Z 07009KT 2SM -RA BR OVC006 08/07 A3000 790 93 200 060/09 RMK AO2 SFC VIS 3 P0000
14837KMSN MSN20041119111511911/19/04 11:15:31  5-MIN KMSN 191715Z 06008KT 2SM BR OVC006 08/07 A3000 790 93 200 060/08 RMK AO2 SFC VIS 3 RAE15 P0000
14837KMSN MSN20041119112011711/19/04 11:20:31  5-MIN KMSN 191720Z 06009KT 2SM -RA BR OVC006 08/07 A3000 790 93 200 060/09 RMK AO2 SFC VIS 4 P0000
14837KMSN MSN20041119112511711/19/04 11:25:31  5-MIN KMSN 191725Z 07009KT 2SM -RA BR OVC006 08/07 A2999 800 93 200 070/09 RMK AO2 SFC VIS 4 P0000
14837KMSN MSN20041119113011711/19/04 11:30:31  5-MIN KMSN 191730Z 07009KT 2SM -RA BR OVC006 08/07 A2999 800 93 200 070/09 RMK AO2 SFC VIS 4 P0000
14837KMSN MSN20041119113511711/19/04 11:35:31  5-MIN KMSN 191735Z 07007KT 2SM -RA BR OVC006 08/08 A2999 800 96 200 070/07 RMK AO2 SFC VIS 3 P0000
14837KMSN MSN20041119114011711/19/04 11:40:31  5-MIN KMSN 191740Z 07008KT 2SM -RA BR OVC006 08/08 A2999 800 96 200 070/08 RMK AO2 SFC VIS 3 P0000
14837KMSN MSN20041119114511711/19/04 11:45:31  5-MIN KMSN 191745Z 07008KT 2SM -RA BR OVC006 08/07 A2998 810 93 200 070/08 RMK AO2 SFC VIS 4 P0000
14837KMSN MSN20041119115015811/19/04 11:50:31  5-MIN KMSN 191750Z 06007KT 3SM -RA BR OVC006 08/08 A2998 810 96 200 060/07 RMK AO2 SFC VIS 3 SLP155 P0000 60006 T00830078 10083 20072 58010
14837KMSN MSN20041119115512111/19/04 11:55:31  5-MIN KMSN 191755Z 07009KT 2 1/2SM -RA BR OVC006 08/08 A2998 810 96 200 070/09 RMK AO2 TWR VIS 3 P0000
14837KMSN MSN20041119120011711/19/04 12:00:31  5-MIN KMSN 191800Z 06009KT 2SM -RA BR OVC006 08/08 A2997 820 96 300 060/09 RMK AO2 TWR VIS 3 P0000
14837KMSN MSN20041119120510711/19/04 12:05:31  5-MIN KMSN 191805Z 06008KT 2SM -RA BR OVC006 08/08 A2997 820 96 300 060/08 RMK AO2 P0000
14837KMSN MSN20041119121010711/19/04 12:10:31  5-MIN KMSN 191810Z 06009KT 2SM -RA BR OVC006 08/08 A2997 820 96 300 060/09 RMK AO2 P0000
14837KMSN MSN20041119121510711/19/04 12:15:31  5-MIN KMSN 191815Z 06009KT 2SM -RA BR OVC006 08/08 A2996 830 96 300 060/09 RMK AO2 P0000
14837KMSN MSN20041119122010711/19/04 12:20:31  5-MIN KMSN 191820Z 06009KT 2SM -RA BR OVC006 08/08 A2996 830 96 300 060/09 RMK AO2 P0000
14837KMSN MSN20041119122510711/19/04 12:25:31  5-MIN KMSN 191825Z 06008KT 2SM -RA BR OVC006 08/08 A2996 830 96 300 060/08 RMK AO2 P0000
14837KMSN MSN20041119123010711/19/04 12:30:31  5-MIN KMSN 191830Z 06009KT 2SM -RA BR OVC006 09/08 A2995 830 93 300 060/09 RMK AO2 P0000
14837KMSN MSN20041119123511711/19/04 12:35:31  5-MIN KMSN 191835Z 06008KT 2SM -RA BR OVC006 09/08 A2995 840 93 300 060/08 RMK AO2 SFC VIS 3 P0000
14837KMSN MSN20041119124011711/19/04 12:40:31  5-MIN KMSN 191840Z 06009KT 2SM -RA BR OVC004 09/08 A2995 840 93 300 060/09 RMK AO2 SFC VIS 3 P0000
14837KMSN MSN20041119124511711/19/04 12:45:31  5-MIN KMSN 191845Z 06007KT 2SM -RA BR OVC004 09/08 A2995 840 96 300 060/07 RMK AO2 SFC VIS 3 P0000
14837KMSN MSN20041119125013411/19/04 12:50:31  5-MIN KMSN 191850Z 06008KT 2SM -RA BR OVC004 09/08 A2994 840 96 400 060/08 RMK AO2 SFC VIS 3 SLP143 P0000 T00890083
14837KMSN MSN20041119125511711/19/04 12:55:31  5-MIN KMSN 191855Z 06008KT 2SM -RA BR OVC004 09/08 A2994 840 96 400 060/08 RMK AO2 SFC VIS 3 P0000
14837KMSN MSN20041119130011711/19/04 13:00:31  5-MIN KMSN 191900Z 06007KT 2SM -RA BR OVC004 09/08 A2994 850 96 400 060/07 RMK AO2 SFC VIS 3 P0000
14837KMSN MSN20041119130512111/19/04 13:05:31  5-MIN KMSN 191905Z 07007KT 2SM -RA BR OVC004 09/08 A2994 850 96 400 070/07 RMK AO2 SFC VIS 2 1/2 P0000
14837KMSN MSN20041119131012111/19/04 13:10:31  5-MIN KMSN 191910Z 07006KT 2SM -RA BR OVC004 09/08 A2994 850 96 400 070/06 RMK AO2 SFC VIS 2 1/2 P0000
14837KMSN MSN20041119131512111/19/04 13:15:31  5-MIN KMSN 191915Z 07006KT 2SM -RA BR OVC004 09/08 A2994 850 93 400 070/06 RMK AO2 SFC VIS 2 1/2 P0000
14837KMSN MSN20041119132012111/19/04 13:20:31  5-MIN KMSN 191920Z 08007KT 2SM -RA BR OVC004 09/08 A2993 850 93 400 070/07 RMK AO2 SFC VIS 2 1/2 P0000
14837KMSN MSN20041119132511711/19/04 13:25:31  5-MIN KMSN 191925Z 08008KT 2SM -RA BR OVC004 09/08 A2993 850 93 400 070/08 RMK AO2 SFC VIS 4 P0000
14837KMSN MSN20041119133013111/19/04 13:30:31  5-MIN KMSN 191930Z 09008KT 2SM BR OVC005 09/08 A2993 860 93 400 090/08 RMK AO2 SFC VIS 5 RAE30 CIG 003V008 P0000
14837KMSN MSN20041119133512911/19/04 13:35:31  5-MIN KMSN 191935Z 09007KT 2SM -RA BR OVC005 09/08 A2993 860 93 400 090/07 RMK AO2 SFC VIS 4 CIG 004V009 P0000
14837KMSN MSN20041119134012911/19/04 13:40:31  5-MIN KMSN 191940Z 09008KT 2SM -RA BR OVC005 09/08 A2993 860 93 400 090/08 RMK AO2 SFC VIS 3 CIG 004V009 P0001
14837KMSN MSN20041119134512911/19/04 13:45:31  5-MIN KMSN 191945Z 08007KT 2SM -RA BR OVC005 09/08 A2993 860 93 400 080/07 RMK AO2 SFC VIS 3 CIG 004V010 P0001
14837KMSN MSN20041119135014611/19/04 13:50:31  5-MIN KMSN 191950Z 10009KT 2SM -RA BR OVC007 09/08 A2992 860 93 400 100/09 RMK AO2 SFC VIS 3 CIG 004V010 SLP137 P0001 T00940083
14837KMSN MSN20041119135512911/19/04 13:55:31  5-MIN KMSN 191955Z 08007KT 2SM -DZ BR OVC007 09/08 A2992 860 93 400 080/07 RMK AO2 SFC VIS 4 CIG 005V010 P0000
14837KMSN MSN20041119140012911/19/04 14:00:31  5-MIN KMSN 192000Z 08007KT 2SM -DZ BR OVC007 09/08 A2992 860 93 400 080/07 RMK AO2 SFC VIS 4 CIG 005V010 P0000
14837KMSN MSN20041119140512911/19/04 14:05:31  5-MIN KMSN 192005Z 09009KT 2SM -DZ BR OVC007 09/08 A2992 860 93 400 090/09 RMK AO2 SFC VIS 3 CIG 005V010 P0000
14837KMSN MSN20041119141014411/19/04 14:10:31  5-MIN KMSN 192010Z 09008KT 1 3/4SM -RA BR OVC007 09/08 A2992 860 93 400 090/08 RMK AO2 TWR VIS 2 DZE10RAB10 CIG 005V010 P0000
14837KMSN MSN20041119141513411/19/04 14:15:31  5-MIN KMSN 192015Z 09008KT 1 1/2SM -RA BR OVC007 09/08 A2992 860 93 400 090/08 RMK AO2 DZE10RAB10 CIG 005V009 P0000
14837KMSN MSN20041119142013211/19/04 14:20:31  5-MIN KMSN 192020Z 09008KT 1SM -RA BR OVC007 09/08 A2992 870 93 400 090/08 RMK AO2 TWR VIS 1 1/2 DZE10RAB10 P0000
14837KMSN MSN20041119142513211/19/04 14:25:31  5-MIN KMSN 192025Z 09008KT 1SM -RA BR OVC007 09/08 A2992 870 93 400 090/08 RMK AO2 TWR VIS 1 1/2 DZE10RAB10 P0000
14837KMSN MSN20041119143014411/19/04 14:30:31  5-MIN KMSN 192030Z 09008KT 1SM -RA BR OVC007 09/08 A2992 870 93 400 090/08 RMK AO2 TWR VIS 1 1/2 DZE10RAB10 CIG 005V009 P0001
14837KMSN MSN20041119143513411/19/04 14:35:31  5-MIN KMSN 192035Z 09008KT 1 1/2SM -RA BR OVC007 09/08 A2992 870 93 400 090/08 RMK AO2 DZE10RAB10 CIG 005V011 P0001
14837KMSN MSN20041119144014711/19/04 14:40:31  5-MIN KMSN 192040Z 08005KT 1 1/2SM BR OVC007 09/08 A2992 870 93 500 080/05 RMK AO2 SFC VIS 1 3/4 DZE10RAB10E39 CIG 005V011 P0001
14837KMSN MSN20041119144514811/19/04 14:45:31  5-MIN KMSN 192045Z 07006KT 1 1/2SM -RA BR OVC007 09/08 A2991 870 93 500 070/06 RMK AO2 SFC VIS 1 3/4 DZE10RAB10 CIG 004V011 P0001
14837KMSN MSN20041119145016311/19/04 14:50:31  5-MIN KMSN 192050Z 08007KT 1 1/2SM -RA BR OVC007 09/08 A2991 870 93 500 080/07 RMK AO2 DZE10RAB10 CIG 004V011 SLP133 P0001 60002 T00940083 58024
14837KMSN MSN20041119145513711/19/04 14:55:31  5-MIN KMSN 192055Z 08007KT 1 1/2SM -RA BR OVC007 09/08 A2991 870 93 500 070/07 RMK AO2 SFC VIS 1 3/4 CIG 004V011 P0000
14837KMSN MSN20041119150013311/19/04 15:00:31  5-MIN KMSN 192100Z 08006KT 1 1/2SM -RA BR OVC007 09/08 A2991 870 93 500 070/06 RMK AO2 SFC VIS 2 CIG 004V011 P0000
14837KMSN MSN20041119150513311/19/04 15:05:31  5-MIN KMSN 192105Z 07006KT 1 1/2SM -RA BR OVC007 09/08 A2991 870 93 500 070/06 RMK AO2 SFC VIS 2 CIG 004V010 P0000
14837KMSN MSN20041119151013711/19/04 15:10:31  5-MIN KMSN 192110Z 08006KT 1 1/2SM -RA BR OVC007 09/08 A2991 870 93 500 070/06 RMK AO2 SFC VIS 2 1/2 CIG 004V008 P0000
14837KMSN MSN20041119151513311/19/04 15:15:31  5-MIN KMSN 192115Z 08007KT 1 1/2SM -RA BR OVC007 09/08 A2991 870 93 500 080/07 RMK AO2 SFC VIS 3 CIG 004V008 P0000
14837KMSN MSN20041119152013311/19/04 15:20:31  5-MIN KMSN 192120Z 07008KT 1 1/2SM -RA BR OVC007 09/08 A2991 870 93 500 070/08 RMK AO2 SFC VIS 3 CIG 004V010 P0000
14837KMSN MSN20041119152513311/19/04 15:25:31  5-MIN KMSN 192125Z 08007KT 1 1/2SM -RA BR OVC007 09/08 A2991 880 93 500 070/07 RMK AO2 SFC VIS 4 CIG 004V009 P0000
14837KMSN MSN20041119153013311/19/04 15:30:31  5-MIN KMSN 192130Z 07007KT 1 1/2SM -RA BR OVC007 09/08 A2991 880 93 500 070/07 RMK AO2 SFC VIS 4 CIG 004V009 P0000
14837KMSN MSN20041119153513311/19/04 15:35:31  5-MIN KMSN 192135Z 08007KT 1 1/2SM -RA BR OVC007 09/08 A2991 880 93 500 080/07 RMK AO2 SFC VIS 5 CIG 004V009 P0000
14837KMSN MSN20041119154013311/19/04 15:40:31  5-MIN KMSN 192140Z 08006KT 1 1/2SM -RA BR OVC007 09/08 A2991 880 93 500 080/06 RMK AO2 SFC VIS 5 CIG 004V009 P0000
14837KMSN MSN20041119154513311/19/04 15:45:31  5-MIN KMSN 192145Z 08006KT 1 1/2SM -RA BR OVC005 09/08 A2991 880 93 500 080/06 RMK AO2 SFC VIS 5 CIG 004V009 P0000
14837KMSN MSN20041119155015011/19/04 15:50:31  5-MIN KMSN 192150Z 07006KT 1 1/2SM -RA BR OVC005 09/08 A2990 880 93 500 070/06 RMK AO2 SFC VIS 5 CIG 004V009 SLP130 P0000 T00940083
14837KMSN MSN20041119155512111/19/04 15:55:31  5-MIN KMSN 192155Z 08008KT 1 1/2SM -RA BR OVC005 09/08 A2990 880 93 500 080/08 RMK AO2 SFC VIS 5 P0000
14837KMSN MSN20041119160012111/19/04 16:00:31  5-MIN KMSN 192200Z 08005KT 1 1/2SM -RA BR OVC005 09/08 A2990 880 93 500 080/05 RMK AO2 SFC VIS 3 P0001
14837KMSN MSN20041119160512111/19/04 16:05:31  5-MIN KMSN 192205Z 09007KT 1 1/2SM -RA BR OVC005 09/08 A2990 880 93 500 090/07 RMK AO2 SFC VIS 3 P0001
14837KMSN MSN20041119161012111/19/04 16:10:31  5-MIN KMSN 192210Z 08007KT 1 1/2SM -RA BR OVC005 09/08 A2990 880 93 500 080/07 RMK AO2 SFC VIS 3 P0001
14837KMSN MSN20041119161512111/19/04 16:15:31  5-MIN KMSN 192215Z 09007KT 1 1/2SM -RA BR OVC005 09/08 A2990 880 93 500 090/07 RMK AO2 SFC VIS 3 P0001
14837KMSN MSN20041119162012111/19/04 16:20:31  5-MIN KMSN 192220Z 09005KT 1 1/2SM -RA BR OVC005 09/08 A2990 880 96 400 090/05 RMK AO2 SFC VIS 3 P0001
14837KMSN MSN20041119162512111/19/04 16:25:31  5-MIN KMSN 192225Z 08004KT 1 1/2SM -RA BR OVC005 09/08 A2990 880 93 500 070/04 RMK AO2 SFC VIS 3 P0001
14837KMSN MSN20041119163012111/19/04 16:30:31  5-MIN KMSN 192230Z 07004KT 1 1/2SM -RA BR OVC005 09/08 A2990 880 96 400 070/04 RMK AO2 SFC VIS 3 P0002
14837KMSN MSN20041119163512111/19/04 16:35:31  5-MIN KMSN 192235Z 08006KT 1 1/2SM -RA BR OVC005 09/08 A2990 880 96 400 080/06 RMK AO2 SFC VIS 3 P0002
14837KMSN MSN20041119164012111/19/04 16:40:31  5-MIN KMSN 192240Z 08004KT 1 1/2SM -RA BR OVC005 09/08 A2990 890 96 400 070/04 RMK AO2 SFC VIS 3 P0002
14837KMSN MSN20041119164512111/19/04 16:45:31  5-MIN KMSN 192245Z 08005KT 1 1/2SM -RA BR OVC005 09/08 A2990 890 96 400 080/05 RMK AO2 SFC VIS 3 P0002
14837KMSN MSN20041119165013811/19/04 16:50:31  5-MIN KMSN 192250Z 08005KT 1 1/2SM -RA BR OVC005 09/08 A2990 890 96 400 080/05 RMK AO2 SFC VIS 3 SLP129 P0003 T00890083
14837KMSN MSN20041119165512111/19/04 16:55:31  5-MIN KMSN 192255Z 08005KT 1 1/2SM -RA BR OVC005 09/08 A2990 890 96 400 070/05 RMK AO2 SFC VIS 3 P0000
14837KMSN MSN20041119170012111/19/04 17:00:31  5-MIN KMSN 192300Z 08005KT 1 1/2SM -RA BR OVC005 09/08 A2990 890 96 400 080/05 RMK AO2 SFC VIS 3 P0001
14837KMSN MSN20041119170512111/19/04 17:05:31  5-MIN KMSN 192305Z 08005KT 1 1/2SM -RA BR OVC005 09/08 A2989 890 96 400 080/05 RMK AO2 SFC VIS 3 P0001
14837KMSN MSN20041119171012111/19/04 17:10:31  5-MIN KMSN 192310Z 08005KT 1 1/2SM -RA BR OVC005 09/08 A2989 890 96 400 080/05 RMK AO2 SFC VIS 3 P0001
14837KMSN MSN20041119171512111/19/04 17:15:31  5-MIN KMSN 192315Z 08005KT 1 1/2SM -RA BR OVC005 09/08 A2989 890 96 400 080/05 RMK AO2 SFC VIS 3 P0001
14837KMSN MSN20041119172012111/19/04 17:20:31  5-MIN KMSN 192320Z 08005KT 1 1/2SM -RA BR OVC005 09/08 A2989 890 96 400 080/05 RMK AO2 SFC VIS 3 P0002
14837KMSN MSN20041119172512111/19/04 17:25:31  5-MIN KMSN 192325Z 08004KT 1 1/2SM -RA BR OVC005 09/08 A2989 890 96 400 080/04 RMK AO2 SFC VIS 3 P0002
14837KMSN MSN20041119173012111/19/04 17:30:31  5-MIN KMSN 192330Z 08004KT 1 1/2SM -RA BR OVC005 09/08 A2989 890 96 400 080/04 RMK AO2 SFC VIS 3 P0002
14837KMSN MSN20041119173513211/19/04 17:35:31  5-MIN KMSN 192335Z 08004KT 1 1/2SM -DZ BR OVC005 09/08 A2989 890 96 400 080/04 RMK AO2 SFC VIS 3 RAE35DZB35 P0002
14837KMSN MSN20041119174011811/19/04 17:40:31  5-MIN KMSN 192340Z 08004KT 3SM -DZ BR OVC005 09/08 A2989 890 96 400 080/04 RMK AO2 RAE35DZB35 P0002
14837KMSN MSN20041119174511811/19/04 17:45:31  5-MIN KMSN 192345Z 08005KT 3SM -DZ BR OVC005 09/08 A2989 900 96 400 070/05 RMK AO2 RAE35DZB35 P0002
14837KMSN MSN20041119175015911/19/04 17:50:31  5-MIN KMSN 192350Z 09005KT 3SM -DZ BR OVC005 09/08 A2988 900 96 400 090/05 RMK AO2 RAE35DZB35 SLP124 P0002 60007 T00890083 10094 20083 56021
14837KMSN MSN20041119175510711/19/04 17:55:31  5-MIN KMSN 192355Z 08006KT 3SM -DZ BR OVC005 09/08 A2988 900 96 400 080/06 RMK AO2 P0000
14837KMSN MSN20041119180010711/19/04 18:00:31  5-MIN KMSN 200000Z 07005KT 3SM -DZ BR OVC005 09/08 A2988 900 96 400 070/05 RMK AO2 P0000
14837KMSN MSN20041119180510711/19/04 18:05:31  5-MIN KMSN 200005Z 08005KT 3SM -DZ BR OVC005 09/08 A2988 900 96 400 080/05 RMK AO2 P0000
14837KMSN MSN20041119181010711/19/04 18:10:31  5-MIN KMSN 200010Z 09004KT 3SM -DZ BR OVC005 09/08 A2988 900 96 400 090/04 RMK AO2 P0000
14837KMSN MSN20041119181510711/19/04 18:15:31  5-MIN KMSN 200015Z 09003KT 3SM -DZ BR OVC005 09/08 A2988 900 96 400 080/03 RMK AO2 P0000
14837KMSN MSN20041119182010711/19/04 18:20:31  5-MIN KMSN 200020Z 08004KT 3SM -DZ BR OVC005 09/08 A2988 900 96 400 080/04 RMK AO2 P0000
14837KMSN MSN20041119182510711/19/04 18:25:31  5-MIN KMSN 200025Z 09004KT 3SM -DZ BR OVC005 09/08 A2988 900 96 400 090/04 RMK AO2 P0000
14837KMSN MSN20041119183010711/19/04 18:30:31  5-MIN KMSN 200030Z 09004KT 3SM -DZ BR OVC005 09/08 A2988 900 93 500 090/04 RMK AO2 P0000
14837KMSN MSN20041119183510711/19/04 18:35:31  5-MIN KMSN 200035Z 07003KT 3SM -DZ BR OVC005 09/08 A2988 900 96 400 070/03 RMK AO2 P0000
14837KMSN MSN20041119184010711/19/04 18:40:31  5-MIN KMSN 200040Z 09003KT 3SM -DZ BR OVC005 09/08 A2988 900 96 400 090/03 RMK AO2 P0000
14837KMSN MSN20041119184510711/19/04 18:45:31  5-MIN KMSN 200045Z 08003KT 3SM -DZ BR OVC005 09/08 A2988 900 93 500 080/03 RMK AO2 P0000
14837KMSN MSN20041119185012611/19/04 18:50:31  5-MIN KMSN 200050Z 09003KT 3SM BR OVC005 09/08 A2987 910 93 500 080/03 RMK AO2 DZE48 SLP121 P0000 T00940083
14837KMSN MSN20041119185509711/19/04 18:55:31  5-MIN KMSN 200055Z 08003KT 3SM BR OVC005 09/08 A2987 910 93 500 080/03 RMK AO2
14837KMSN MSN20041119190009711/19/04 19:00:31  5-MIN KMSN 200100Z 08003KT 3SM BR OVC005 09/08 A2987 910 93 500 080/03 RMK AO2
14837KMSN MSN20041119190509711/19/04 19:05:31  5-MIN KMSN 200105Z 00000KT 3SM BR OVC005 09/08 A2987 910 93 500 000/00 RMK AO2
14837KMSN MSN20041119191009711/19/04 19:10:31  5-MIN KMSN 200110Z 10003KT 3SM BR OVC003 09/08 A2987 910 93 500 090/03 RMK AO2
14837KMSN MSN20041119191509711/19/04 19:15:31  5-MIN KMSN 200115Z 08003KT 3SM BR OVC003 09/08 A2987 910 93 500 080/03 RMK AO2
14837KMSN MSN20041119192009711/19/04 19:20:31  5-MIN KMSN 200120Z 08003KT 3SM BR OVC003 09/08 A2987 910 93 500 080/03 RMK AO2
14837KMSN MSN20041119192509711/19/04 19:25:31  5-MIN KMSN 200125Z 10003KT 3SM BR OVC003 09/08 A2987 910 93 500 100/03 RMK AO2
14837KMSN MSN20041119193009711/19/04 19:30:31  5-MIN KMSN 200130Z 10004KT 3SM BR OVC003 09/08 A2987 910 93 500 090/04 RMK AO2
14837KMSN MSN20041119193509711/19/04 19:35:31  5-MIN KMSN 200135Z 10004KT 3SM BR OVC003 09/08 A2987 910 96 400 100/04 RMK AO2
14837KMSN MSN20041119194009711/19/04 19:40:31  5-MIN KMSN 200140Z 10004KT 3SM BR OVC003 09/08 A2987 910 96 400 100/04 RMK AO2
14837KMSN MSN20041119194509711/19/04 19:45:31  5-MIN KMSN 200145Z 11006KT 3SM BR OVC003 09/09 A2987 910 96 500 100/06 RMK AO2
14837KMSN MSN20041119195014011/19/04 19:50:31  5-MIN KMSN 200150Z 10005KT 2SM -RA BR OVC003 09/09 A2987 920 96 500 100/05 RMK AO2 TWR VIS 3 RAB50 SLP118 P0000 T00940089
14837KMSN MSN20041119195510811/19/04 19:55:31  5-MIN KMSN 200155Z 10004KT 2SM -RA BR OVC003 09/09 A2987 920 100 400 100/04 RMK AO2 P0001
14837KMSN MSN20041119200010811/19/04 20:00:31  5-MIN KMSN 200200Z 10004KT 2SM -RA BR OVC003 09/09 A2986 920 100 400 100/04 RMK AO2 P0001
14837KMSN MSN20041119200512111/19/04 20:05:31  5-MIN KMSN 200205Z 10004KT 2SM -RA BR OVC003 09/09 A2986 920 96 500 100/04 RMK AO2 SFC VIS 2 1/2 P0001
14837KMSN MSN20041119201012111/19/04 20:10:31  5-MIN KMSN 200210Z 09004KT 2SM -RA BR OVC003 09/09 A2986 920 96 500 090/04 RMK AO2 SFC VIS 2 1/2 P0001
14837KMSN MSN20041119201512111/19/04 20:15:31  5-MIN KMSN 200215Z 10003KT 2SM -RA BR OVC003 09/09 A2986 920 96 500 100/03 RMK AO2 SFC VIS 2 1/2 P0001
14837KMSN MSN20041119202012111/19/04 20:20:31  5-MIN KMSN 200220Z 10004KT 2SM -RA BR OVC003 09/09 A2986 920 96 500 100/04 RMK AO2 SFC VIS 2 1/2 P0001
14837KMSN MSN20041119202512111/19/04 20:25:31  5-MIN KMSN 200225Z 11003KT 2SM -RA BR OVC003 09/09 A2986 920 96 500 100/03 RMK AO2 SFC VIS 2 1/2 P0001
14837KMSN MSN20041119203013211/19/04 20:30:31  5-MIN KMSN 200230Z 11005KT 2SM -DZ BR OVC003 09/09 A2985 930 96 500 110/05 RMK AO2 SFC VIS 2 1/2 RAE27DZB27 P0001
14837KMSN MSN20041119203513211/19/04 20:35:31  5-MIN KMSN 200235Z 11004KT 2SM -DZ BR OVC003 09/09 A2985 930 96 500 110/04 RMK AO2 SFC VIS 2 1/2 RAE27DZB27 P0001
14837KMSN MSN20041119204013211/19/04 20:40:31  5-MIN KMSN 200240Z 12003KT 2SM -DZ BR OVC003 09/09 A2985 930 96 500 120/03 RMK AO2 SFC VIS 2 1/2 RAE27DZB27 P0001
14837KMSN MSN20041119204513211/19/04 20:45:31  5-MIN KMSN 200245Z 13003KT 2SM -DZ BR OVC003 09/09 A2985 930 96 500 130/03 RMK AO2 SFC VIS 2 1/2 RAE27DZB27 P0001
14837KMSN MSN20041119205016711/19/04 20:50:31  5-MIN KMSN 200250Z 12004KT 2SM -RA BR OVC003 09/09 A2985 930 96 500 120/04 RMK AO2 SFC VIS 2 1/2 RAE27B48DZB27E48 SLP112 P0001 60001 T00940089 58010
14837KMSN MSN20041119205511711/19/04 20:55:31  5-MIN KMSN 200255Z 13003KT 2SM -RA BR OVC003 09/09 A2985 930 96 500 130/03 RMK AO2 SFC VIS 4 P0000
14837KMSN MSN20041119210012111/19/04 21:00:31  5-MIN KMSN 200300Z 12004KT 2SM -RA BR OVC003 09/09 A2985 930 96 500 120/04 RMK AO2 SFC VIS 2 1/2 P0000
14837KMSN MSN20041119210512111/19/04 21:05:31  5-MIN KMSN 200305Z 13004KT 2SM -RA BR OVC003 09/09 A2985 930 96 500 130/04 RMK AO2 SFC VIS 2 1/2 P0000
14837KMSN MSN20041119211012111/19/04 21:10:31  5-MIN KMSN 200310Z 12003KT 2SM -RA BR OVC003 09/09 A2985 930 96 500 120/03 RMK AO2 SFC VIS 2 1/2 P0001
14837KMSN MSN20041119211512111/19/04 21:15:31  5-MIN KMSN 200315Z 13003KT 2SM -RA BR OVC003 09/09 A2984 930 96 500 130/03 RMK AO2 SFC VIS 2 1/2 P0001
14837KMSN MSN20041119212012111/19/04 21:20:31  5-MIN KMSN 200320Z 12004KT 2SM -RA BR OVC003 09/09 A2984 940 96 500 120/04 RMK AO2 SFC VIS 2 1/2 P0001
14837KMSN MSN20041119212512111/19/04 21:25:31  5-MIN KMSN 200325Z 14003KT 2SM -RA BR OVC003 09/09 A2984 930 96 500 140/03 RMK AO2 SFC VIS 2 1/2 P0001
14837KMSN MSN20041119213012111/19/04 21:30:31  5-MIN KMSN 200330Z 14004KT 2SM -RA BR OVC003 09/09 A2984 940 96 500 140/04 RMK AO2 SFC VIS 2 1/2 P0001
14837KMSN MSN20041119213512111/19/04 21:35:31  5-MIN KMSN 200335Z 14003KT 2SM -RA BR OVC003 09/09 A2984 940 96 500 140/03 RMK AO2 SFC VIS 2 1/2 P0001
14837KMSN MSN20041119214012111/19/04 21:40:31  5-MIN KMSN 200340Z 15003KT 2SM -RA BR OVC003 09/09 A2984 940 96 500 140/03 RMK AO2 SFC VIS 2 1/2 P0001
14837KMSN MSN20041119214512811/19/04 21:45:31  5-MIN KMSN 200345Z 15003KT 2SM -DZ BR OVC003 09/09 A2984 940 96 500 150/03 RMK AO2 SFC VIS 3 RAE44DZB44 P0001
14837KMSN MSN20041119215014511/19/04 21:50:31  5-MIN KMSN 200350Z 00000KT 2SM -DZ BR OVC003 10/09 A2984 940 96 600 000/00 RMK AO2 SFC VIS 3 RAE44DZB44 SLP107 P0001 T01000094
14837KMSN MSN20041119215511711/19/04 21:55:31  5-MIN KMSN 200355Z 16003KT 2SM -DZ BR OVC003 10/09 A2984 940 96 600 160/03 RMK AO2 SFC VIS 3 P0000
14837KMSN MSN20041119220011711/19/04 22:00:31  5-MIN KMSN 200400Z 17004KT 2SM -DZ BR OVC003 10/09 A2984 940 96 600 160/04 RMK AO2 SFC VIS 3 P0000
14837KMSN MSN20041119220511711/19/04 22:05:31  5-MIN KMSN 200405Z 16004KT 2SM -DZ BR OVC003 10/09 A2983 940 96 600 160/04 RMK AO2 SFC VIS 3 P0000
14837KMSN MSN20041119221011711/19/04 22:10:31  5-MIN KMSN 200410Z 16004KT 2SM -DZ BR OVC003 10/09 A2983 940 96 600 150/04 RMK AO2 SFC VIS 3 P0000
14837KMSN MSN20041119221511711/19/04 22:15:31  5-MIN KMSN 200415Z 16004KT 2SM -DZ BR OVC003 10/09 A2983 950 96 600 150/04 RMK AO2 SFC VIS 3 P0000
14837KMSN MSN20041119222011711/19/04 22:20:31  5-MIN KMSN 200420Z 15003KT 2SM -DZ BR OVC003 10/09 A2983 950 96 600 150/03 RMK AO2 SFC VIS 3 P0000
14837KMSN MSN20041119222511711/19/04 22:25:31  5-MIN KMSN 200425Z 15003KT 2SM -DZ BR OVC003 10/09 A2983 950 96 600 150/03 RMK AO2 SFC VIS 3 P0000
14837KMSN MSN20041119223011811/19/04 22:30:31  5-MIN KMSN 200430Z 17004KT 2SM -DZ BR OVC003 10/10 A2983 950 100 600 170/04 RMK AO2 SFC VIS 3 P0000
14837KMSN MSN20041119223510811/19/04 22:35:31  5-MIN KMSN 200435Z 16003KT 2SM -DZ BR OVC003 10/10 A2983 950 100 600 160/03 RMK AO2 P0000
14837KMSN MSN20041119224012411/19/04 22:40:31  5-MIN KMSN 200440Z 16004KT 2SM BR OVC003 10/10 A2983 950 100 600 160/04 RMK AO2 SFC VIS 2 1/2 DZE40 P0000
14837KMSN MSN20041119224512411/19/04 22:45:31  5-MIN KMSN 200445Z 17004KT 2SM BR OVC003 10/10 A2983 950 100 600 170/04 RMK AO2 SFC VIS 2 1/2 DZE40 P0000
14837KMSN MSN20041119225012611/19/04 22:50:31  5-MIN KMSN 200450Z 17005KT 2SM BR OVC003 11/10 A2983 950 96 700 170/05 RMK AO2 DZE40 SLP104 P0000 T01060100
14837KMSN MSN20041119225510111/19/04 22:55:31  5-MIN KMSN 200455Z 17004KT 1 1/2SM BR OVC003 11/10 A2983 950 96 700 170/04 RMK AO2
14837KMSN MSN20041119230010111/19/04 23:00:31  5-MIN KMSN 200500Z 17004KT 1 1/2SM BR OVC003 11/10 A2983 950 96 700 170/04 RMK AO2
14837KMSN MSN20041119230510111/19/04 23:05:31  5-MIN KMSN 200505Z 18005KT 1 1/2SM BR OVC001 11/10 A2983 950 96 700 180/05 RMK AO2
14837KMSN MSN20041119231009711/19/04 23:10:31  5-MIN KMSN 200510Z 18006KT 1SM BR OVC001 11/10 A2983 950 96 700 180/06 RMK AO2
14837KMSN MSN20041119231509711/19/04 23:15:31  5-MIN KMSN 200515Z 18004KT 1SM BR OVC001 11/10 A2983 950 96 700 180/04 RMK AO2
14837KMSN MSN20041119232009711/19/04 23:20:31  5-MIN KMSN 200520Z 17005KT 1SM BR OVC001 11/10 A2982 950 96 700 170/05 RMK AO2
14837KMSN MSN20041119232509711/19/04 23:25:31  5-MIN KMSN 200525Z 17005KT 1SM BR OVC001 11/10 A2982 960 96 700 170/05 RMK AO2
14837KMSN MSN20041119233009711/19/04 23:30:31  5-MIN KMSN 200530Z 17005KT 1SM BR OVC001 11/10 A2982 960 96 700 170/05 RMK AO2
14837KMSN MSN20041119233511011/19/04 23:35:31  5-MIN KMSN 200535Z 18005KT 1SM BR OVC001 11/11 A2982 960 100 700 180/05 RMK AO2 CIG 001V005
14837KMSN MSN20041119234010911/19/04 23:40:31  5-MIN KMSN 200540Z 19004KT 2 1/2SM BR BKN001 OVC006 11/11 A2982 960 100 700 190/04 RMK AO2
14837KMSN MSN20041119234510811/19/04 23:45:31  5-MIN KMSN 200545Z 18004KT 2 1/2SM BR BKN001 OVC007 11/11 A2982 960 96 800 180/04 RMK AO2
14837KMSN MSN20041119235015911/19/04 23:50:31  5-MIN KMSN 200550Z 18005KT 2 1/2SM BR BKN001 OVC007 11/11 A2982 960 96 800 180/05 RMK AO2 SLP100 60002 T01110106 10111 20089 401110072 58010
14837KMSN MSN20041119235512011/19/04 23:55:31  5-MIN KMSN 200555Z 18004KT 2 1/2SM BR SCT001 OVC007 11/11 A2982 960 96 800 180/04 RMK AO2 CIG 005V010
14837KMSN MSN20041120000012011/20/04 00:00:31  5-MIN KMSN 200600Z 17006KT 2 1/2SM BR FEW003 OVC007 11/11 A2982 960 96 800 170/06 RMK AO2 CIG 005V010
14837KMSN MSN20041120000512711/20/04 00:05:31  5-MIN KMSN 200605Z 17006KT 2 1/2SM BR FEW003 BKN007 OVC013 11/11 A2982 960 96 800 170/06 RMK AO2 CIG 005V010
14837KMSN MSN20041120001012711/20/04 00:10:31  5-MIN KMSN 200610Z 17006KT 2 1/2SM BR FEW003 BKN007 OVC012 11/11 A2982 960 96 800 170/06 RMK AO2 CIG 005V010
14837KMSN MSN20041120001511511/20/04 00:15:31  5-MIN KMSN 200615Z 18006KT 2 1/2SM BR SCT007 BKN012 OVC029 11/11 A2982 960 96 800 170/06 RMK AO2
14837KMSN MSN20041120002012711/20/04 00:20:31  5-MIN KMSN 200620Z 18005KT 2 1/2SM BR BKN009 BKN014 OVC029 11/11 A2982 960 96 800 180/05 RMK AO2 CIG 005V012
14837KMSN MSN20041120002510811/20/04 00:25:31  5-MIN KMSN 200625Z 18005KT 2 1/2SM BR SCT009 OVC014 11/11 A2981 960 96 800 180/05 RMK AO2
14837KMSN MSN20041120003010811/20/04 00:30:31  5-MIN KMSN 200630Z 19006KT 2 1/2SM BR SCT009 OVC014 12/11 A2981 960 93 800 190/06 RMK AO2
14837KMSN MSN20041120003510811/20/04 00:35:31  5-MIN KMSN 200635Z 19007KT 2 1/2SM BR SCT009 OVC014 12/11 A2981 970 93 800 190/07 RMK AO2
14837KMSN MSN20041120004012011/20/04 00:40:31  5-MIN KMSN 200640Z 18006KT 2 1/2SM BR BKN011 OVC014 12/11 A2981 970 93 800 180/06 RMK AO2 CIG 007V012
14837KMSN MSN20041120004512011/20/04 00:45:31  5-MIN KMSN 200645Z 18006KT 2 1/2SM BR BKN011 OVC014 12/11 A2981 970 93 800 180/06 RMK AO2 CIG 007V012
14837KMSN MSN20041120005011811/20/04 00:50:31  5-MIN KMSN 200650Z 18006KT 2 1/2SM BR OVC012 12/11 A2981 970 93 800 180/06 RMK AO2 SLP095 T01170106
14837KMSN MSN20041120005512611/20/04 00:55:31  5-MIN KMSN 200655Z 18006KT 2SM -RA BR BKN010 OVC013 12/11 A2980 970 93 800 180/06 RMK AO2 CIG 006V012 P0000
14837KMSN MSN20041120010012611/20/04 01:00:31  5-MIN KMSN 200700Z 18006KT 2SM -RA BR BKN010 OVC013 12/11 A2980 970 93 800 180/06 RMK AO2 CIG 006V012 P0000
14837KMSN MSN20041120010513011/20/04 01:05:31  5-MIN KMSN 200705Z 18004KT 2 1/2SM -RA BR BKN008 OVC013 12/11 A2980 970 93 800 180/04 RMK AO2 CIG 006V012 P0000
14837KMSN MSN20041120011012611/20/04 01:10:31  5-MIN KMSN 200710Z 17005KT 3SM -RA BR BKN008 OVC013 12/11 A2980 980 93 800 170/05 RMK AO2 CIG 005V012 P0000
14837KMSN MSN20041120011512611/20/04 01:15:31  5-MIN KMSN 200715Z 18006KT 3SM -RA BR BKN008 OVC013 12/11 A2980 980 93 800 180/06 RMK AO2 CIG 005V011 P0000
14837KMSN MSN20041120012011911/20/04 01:20:31  5-MIN KMSN 200720Z 18005KT 4SM -RA BR OVC008 12/11 A2980 980 93 900 180/05 RMK AO2 CIG 005V011 P0000
14837KMSN MSN20041120012512111/20/04 01:25:31  5-MIN KMSN 200725Z 18007KT 4SM BR OVC008 12/11 A2980 980 93 800 180/07 RMK AO2 RAE21 CIG 005V011 P0000
14837KMSN MSN20041120013012111/20/04 01:30:31  5-MIN KMSN 200730Z 18006KT 3SM BR OVC008 12/11 A2980 980 93 800 180/06 RMK AO2 RAE21 CIG 005V011 P0000
14837KMSN MSN20041120013512111/20/04 01:35:31  5-MIN KMSN 200735Z 18007KT 3SM BR OVC008 12/11 A2980 980 93 800 180/07 RMK AO2 RAE21 CIG 005V011 P0000
14837KMSN MSN20041120014012111/20/04 01:40:31  5-MIN KMSN 200740Z 18006KT 3SM BR OVC006 12/11 A2980 980 93 800 180/06 RMK AO2 RAE21 CIG 005V011 P0000
14837KMSN MSN20041120014512111/20/04 01:45:31  5-MIN KMSN 200745Z 18006KT 4SM BR OVC006 12/11 A2980 980 93 800 180/06 RMK AO2 RAE21 CIG 005V011 P0000
14837KMSN MSN20041120015013811/20/04 01:50:31  5-MIN KMSN 200750Z 19007KT 4SM BR OVC006 12/11 A2980 980 93 800 180/07 RMK AO2 RAE21 CIG 005V010 SLP093 P0000 T01170106
14837KMSN MSN20041120015509711/20/04 01:55:31  5-MIN KMSN 200755Z 19005KT 4SM BR OVC006 12/11 A2980 980 93 800 190/05 RMK AO2
14837KMSN MSN20041120020009711/20/04 02:00:31  5-MIN KMSN 200800Z 19007KT 3SM BR OVC006 12/11 A2980 980 93 800 180/07 RMK AO2
14837KMSN MSN20041120020509711/20/04 02:05:31  5-MIN KMSN 200805Z 19007KT 3SM BR OVC006 12/11 A2980 970 93 800 190/07 RMK AO2
14837KMSN MSN20041120021010311/20/04 02:10:31  5-MIN KMSN 200810Z 19006KT 3SM BR OVC006 12/11 A2980 970 93 800 190/06 RMK AO2 P0001
14837KMSN MSN20041120021510311/20/04 02:15:31  5-MIN KMSN 200815Z 20006KT 4SM BR OVC006 12/11 A2980 970 93 800 200/06 RMK AO2 P0001
14837KMSN MSN20041120022011711/20/04 02:20:31  5-MIN KMSN 200820Z 19005KT 2 1/2SM -RA BR OVC006 12/11 A2980 970 93 800 190/05 RMK AO2 RAB19 P0001
14837KMSN MSN20041120022511711/20/04 02:25:31  5-MIN KMSN 200825Z 19006KT 2 1/2SM -RA BR OVC006 12/11 A2980 980 93 800 190/06 RMK AO2 RAB19 P0001
14837KMSN MSN20041120023012411/20/04 02:30:31  5-MIN KMSN 200830Z 19006KT 4SM BR OVC006 12/11 A2980 980 93 800 190/06 RMK AO2 RAB19E30 CIG 005V010 P0001
14837KMSN MSN20041120023511211/20/04 02:35:31  5-MIN KMSN 200835Z 19006KT 4SM BR OVC006 12/11 A2980 980 93 900 190/06 RMK AO2 RAB19E30 P0001
14837KMSN MSN20041120024012411/20/04 02:40:31  5-MIN KMSN 200840Z 19006KT 4SM BR OVC006 12/11 A2980 980 93 900 190/06 RMK AO2 RAB19E30 CIG 005V010 P0001
14837KMSN MSN20041120024512411/20/04 02:45:31  5-MIN KMSN 200845Z VRB05KT 4SM BR OVC006 12/11 A2980 980 93 900 VRB/05 RMK AO2 RAB19E30 CIG 005V010 P0001
14837KMSN MSN20041120025015311/20/04 02:50:31  5-MIN KMSN 200850Z 19006KT 4SM BR OVC006 12/11 A2980 980 93 900 190/06 RMK AO2 RAB19E30 CIG 005V009 SLP092 P0001 60002 T01170106 56010
14837KMSN MSN20041120025510911/20/04 02:55:31  5-MIN KMSN 200855Z 19005KT 4SM BR OVC006 12/11 A2979 980 93 900 190/05 RMK AO2 CIG 005V009
14837KMSN MSN20041120030009711/20/04 03:00:31  5-MIN KMSN 200900Z 20005KT 4SM BR OVC006 12/11 A2979 980 93 900 200/05 RMK AO2
14837KMSN MSN20041120030509711/20/04 03:05:31  5-MIN KMSN 200905Z 20005KT 4SM BR OVC006 12/11 A2979 980 93 900 200/05 RMK AO2
14837KMSN MSN20041120031010911/20/04 03:10:31  5-MIN KMSN 200910Z 19006KT 4SM BR OVC006 12/11 A2979 980 93 900 190/06 RMK AO2 CIG 005V009
14837KMSN MSN20041120031510911/20/04 03:15:31  5-MIN KMSN 200915Z 19007KT 4SM BR OVC006 12/11 A2979 990 93 900 190/07 RMK AO2 CIG 005V010
14837KMSN MSN20041120032010911/20/04 03:20:31  5-MIN KMSN 200920Z 20006KT 4SM BR OVC008 12/11 A2979 990 93 900 200/06 RMK AO2 CIG 005V012
14837KMSN MSN20041120032511611/20/04 03:25:31  5-MIN KMSN 200925Z 20008KT 4SM BR BKN008 OVC012 12/11 A2979 990 93 900 200/08 RMK AO2 CIG 005V010
14837KMSN MSN20041120033011611/20/04 03:30:31  5-MIN KMSN 200930Z 21006KT 5SM BR BKN008 OVC012 12/11 A2979 980 93 900 210/06 RMK AO2 CIG 005V011
14837KMSN MSN20041120033510411/20/04 03:35:31  5-MIN KMSN 200935Z 20005KT 5SM BR SCT008 OVC012 12/11 A2979 980 93 900 200/05 RMK AO2
14837KMSN MSN20041120034010411/20/04 03:40:31  5-MIN KMSN 200940Z 20005KT 5SM BR SCT008 OVC012 12/11 A2979 980 93 900 200/05 RMK AO2
14837KMSN MSN20041120034511611/20/04 03:45:31  5-MIN KMSN 200945Z 21006KT 6SM BR BKN010 OVC017 12/11 A2979 980 93 900 210/06 RMK AO2 CIG 005V012
14837KMSN MSN20041120035011811/20/04 03:50:31  5-MIN KMSN 200950Z 22006KT 7SM BKN012 OVC020 12/11 A2979 980 93 900 220/06 RMK AO2 SLP091 T01170106
14837KMSN MSN20041120035509411/20/04 03:55:31  5-MIN KMSN 200955Z 22006KT 8SM OVC012 12/11 A2979 980 93 900 220/06 RMK AO2
14837KMSN MSN20041120040011911/20/04 04:00:31  5-MIN KMSN 201000Z 24011G15KT 8SM BKN010 OVC015 12/10 A2980 980 89 900 240/11G15 RMK AO2 CIG 007V013
14837KMSN MSN20041120040511911/20/04 04:05:31  5-MIN KMSN 201005Z 25012G20KT 7SM BKN010 OVC015 11/09 A2980 980 89 800 250/12G20 RMK AO2 CIG 007V014
14837KMSN MSN20041120041011911/20/04 04:10:31  5-MIN KMSN 201010Z 24009G20KT 7SM BKN008 OVC013 11/09 A2980 970 93 700 230/09G20 RMK AO2 CIG 007V012
14837KMSN MSN20041120041512911/20/04 04:15:31  5-MIN KMSN 201015Z 24007KT 210V270 7SM BKN008 OVC013 11/09 A2980 970 93 700 240/07 210V270 RMK AO2 CIG 007V012
14837KMSN MSN20041120042011311/20/04 04:20:31  5-MIN KMSN 201020Z 23007KT 7SM BKN008 OVC015 11/09 A2980 970 93 700 230/07 RMK AO2 CIG 007V011
14837KMSN MSN20041120042512911/20/04 04:25:31  5-MIN KMSN 201025Z 23007KT 200V270 7SM BKN008 OVC015 11/09 A2980 970 93 700 230/07 200V270 RMK AO2 CIG 007V011
14837KMSN MSN20041120043011311/20/04 04:30:31  5-MIN KMSN 201030Z 22009KT 8SM BKN008 OVC015 11/09 A2981 970 89 700 220/09 RMK AO2 CIG 007V011
14837KMSN MSN20041120043511911/20/04 04:35:31  5-MIN KMSN 201035Z VRB06G14KT 8SM SCT010 OVC016 11/09 A2981 970 89 700 VRB/06G14 RMK AO2 CIG 011V021
14837KMSN MSN20041120044011311/20/04 04:40:31  5-MIN KMSN 201040Z VRB04KT 8SM BKN010 OVC016 11/09 A2981 970 89 700 VRB/04 RMK AO2 CIG 007V013
14837KMSN MSN20041120044511311/20/04 04:45:31  5-MIN KMSN 201045Z VRB04KT 8SM BKN010 OVC016 11/09 A2981 970 89 700 VRB/04 RMK AO2 CIG 007V012
14837KMSN MSN20041120045013011/20/04 04:50:31  5-MIN KMSN 201050Z 23006KT 8SM BKN010 OVC016 11/09 A2981 960 89 700 230/06 RMK AO2 CIG 007V012 SLP098 T01060089
14837KMSN MSN20041120045511311/20/04 04:55:31  5-MIN KMSN 201055Z VRB06KT 8SM BKN010 OVC016 11/09 A2982 960 89 700 VRB/06 RMK AO2 CIG 007V013
14837KMSN MSN20041120050012011/20/04 05:00:31  5-MIN KMSN 201100Z 23009KT 8SM BKN010 BKN016 OVC065 11/09 A2982 960 89 700 230/09 RMK AO2 CIG 007V013
14837KMSN MSN20041120050510811/20/04 05:05:31  5-MIN KMSN 201105Z 23005KT 9SM SCT010 BKN014 OVC065 10/08 A2982 960 89 600 230/05 RMK AO2
14837KMSN MSN20041120051010211/20/04 05:10:31  5-MIN KMSN 201110Z 22005KT 10SM SCT010 OVC014 10/08 A2982 960 89 600 220/05 RMK AO2
14837KMSN MSN20041120051510211/20/04 05:15:31  5-MIN KMSN 201115Z 23007KT 10SM FEW009 OVC014 10/08 A2982 960 89 600 230/07 RMK AO2
14837KMSN MSN20041120052009511/20/04 05:20:31  5-MIN KMSN 201120Z 23007KT 10SM OVC014 10/08 A2983 950 86 600 230/07 RMK AO2
14837KMSN MSN20041120052509511/20/04 05:25:31  5-MIN KMSN 201125Z 22007KT 10SM OVC014 10/08 A2983 950 86 600 220/07 RMK AO2
14837KMSN MSN20041120053009511/20/04 05:30:31  5-MIN KMSN 201130Z 23007KT 10SM OVC014 10/08 A2983 950 86 600 230/07 RMK AO2
14837KMSN MSN20041120053509511/20/04 05:35:31  5-MIN KMSN 201135Z 22006KT 10SM OVC014 10/08 A2983 950 86 600 220/06 RMK AO2
14837KMSN MSN20041120054009511/20/04 05:40:31  5-MIN KMSN 201140Z 23008KT 10SM OVC012 10/08 A2983 940 86 600 230/08 RMK AO2
14837KMSN MSN20041120054509511/20/04 05:45:31  5-MIN KMSN 201145Z 23008KT 10SM OVC012 10/08 A2983 940 86 600 230/08 RMK AO2
14837KMSN MSN20041120055014811/20/04 05:50:31  5-MIN KMSN 201150Z 22010G14KT 10SM OVC012 10/08 A2984 940 86 600 220/10G14 RMK AO2 SLP107 60002 70018 T01000078 10117 20100 56008
14837KMSN MSN20041120055510111/20/04 05:55:31  5-MIN KMSN 201155Z 23008G14KT 10SM OVC012 10/08 A2984 940 86 600 230/08G14 RMK AO2
14837KMSN MSN20041120060011111/20/04 06:00:31  5-MIN KMSN 201200Z 22007KT 190V250 10SM OVC010 09/08 A2984 940 89 500 220/07 190V250 RMK AO2
14837KMSN MSN20041120060509511/20/04 06:05:31  5-MIN KMSN 201205Z VRB06KT 10SM OVC010 09/08 A2984 940 89 500 VRB/06 RMK AO2
14837KMSN MSN20041120061011411/20/04 06:10:31  5-MIN KMSN 201210Z VRB05KT 10SM BKN010 OVC014 09/08 A2984 940 89 500 VRB/05 RMK AO2 CIG 009V013
14837KMSN MSN20041120061511411/20/04 06:15:31  5-MIN KMSN 201215Z VRB05KT 10SM BKN010 OVC014 09/08 A2984 940 89 500 VRB/05 RMK AO2 CIG 009V013
14837KMSN MSN20041120062010211/20/04 06:20:31  5-MIN KMSN 201220Z 24006KT 10SM BKN010 OVC013 09/08 A2985 930 89 500 240/06 RMK AO2
14837KMSN MSN20041120062510111/20/04 06:25:31  5-MIN KMSN 201225Z VRB06KT 9SM BKN010 OVC013 09/08 A2985 930 89 500 VRB/06 RMK AO2
14837KMSN MSN20041120063011311/20/04 06:30:31  5-MIN KMSN 201230Z 22007KT 9SM BKN010 OVC014 09/08 A2985 930 89 500 220/07 RMK AO2 CIG 008V012
14837KMSN MSN20041120063510611/20/04 06:35:31  5-MIN KMSN 201235Z 23010KT 9SM OVC010 09/08 A2985 930 89 500 230/10 RMK AO2 CIG 008V012
14837KMSN MSN20041120064010611/20/04 06:40:31  5-MIN KMSN 201240Z 23007KT 9SM OVC010 09/08 A2985 930 89 500 230/07 RMK AO2 CIG 008V013
14837KMSN MSN20041120064511011/20/04 06:45:31  5-MIN KMSN 201245Z 24007KT 210V270 9SM OVC010 09/08 A2985 930 89 500 240/07 210V270 RMK AO2
14837KMSN MSN20041120065011111/20/04 06:50:31  5-MIN KMSN 201250Z 23009KT 9SM OVC010 09/07 A2985 930 86 500 230/09 RMK AO2 SLP113 T00940072
14837KMSN MSN20041120065509511/20/04 06:55:31  5-MIN KMSN 201255Z 23007KT 10SM OVC010 09/07 A2986 920 89 400 230/07 RMK AO2
14837KMSN MSN20041120070010111/20/04 07:00:31  5-MIN KMSN 201300Z 23010G14KT 10SM OVC010 09/07 A2986 920 89 500 230/10G14 RMK AO2
14837KMSN MSN20041120070510111/20/04 07:05:31  5-MIN KMSN 201305Z 23010G14KT 10SM OVC010 09/07 A2986 920 89 400 230/10G14 RMK AO2
14837KMSN MSN20041120071011111/20/04 07:10:31  5-MIN KMSN 201310Z 24007KT 210V270 10SM OVC010 09/07 A2986 920 89 400 240/07 210V270 RMK AO2
14837KMSN MSN20041120071510111/20/04 07:15:31  5-MIN KMSN 201315Z 24009G15KT 10SM OVC010 09/07 A2987 910 86 400 240/09G15 RMK AO2
14837KMSN MSN20041120072011711/20/04 07:20:31  5-MIN KMSN 201320Z 25009G15KT 230V290 10SM OVC010 09/07 A2987 910 86 400 250/09G15 230V290 RMK AO2
14837KMSN MSN20041120072511711/20/04 07:25:31  5-MIN KMSN 201325Z 24008G15KT 200V270 10SM OVC010 09/07 A2987 910 86 400 240/08G15 200V270 RMK AO2
14837KMSN MSN20041120073010111/20/04 07:30:31  5-MIN KMSN 201330Z 25009G15KT 10SM OVC010 09/07 A2987 910 86 400 250/09G15 RMK AO2
14837KMSN MSN20041120073511711/20/04 07:35:31  5-MIN KMSN 201335Z 24007G15KT 210V280 10SM OVC010 08/07 A2987 910 89 400 240/07G15 210V280 RMK AO2
14837KMSN MSN20041120074010111/20/04 07:40:31  5-MIN KMSN 201340Z 25008G14KT 10SM OVC010 08/07 A2988 910 89 400 240/08G14 RMK AO2
14837KMSN MSN20041120074509511/20/04 07:45:31  5-MIN KMSN 201345Z 25007KT 10SM OVC010 08/07 A2988 910 89 400 250/07 RMK AO2
14837KMSN MSN20041120075011211/20/04 07:50:31  5-MIN KMSN 201350Z 24007KT 10SM OVC010 08/07 A2988 900 89 400 240/07 RMK AO2 SLP121 T00830067
14837KMSN MSN20041120075511111/20/04 07:55:31  5-MIN KMSN 201355Z 25007KT 220V310 10SM OVC010 08/07 A2988 900 89 400 250/07 220V310 RMK AO2
14837KMSN MSN20041120080011111/20/04 08:00:31  5-MIN KMSN 201400Z 25007KT 220V280 10SM OVC010 08/07 A2988 900 89 400 250/07 220V280 RMK AO2
14837KMSN MSN20041120080509511/20/04 08:05:31  5-MIN KMSN 201405Z 25007KT 10SM OVC010 08/07 A2989 900 89 300 250/07 RMK AO2
14837KMSN MSN20041120081009511/20/04 08:10:31  5-MIN KMSN 201410Z VRB06KT 10SM OVC010 08/07 A2989 890 89 300 VRB/06 RMK AO2
14837KMSN MSN20041120081510111/20/04 08:15:31  5-MIN KMSN 201415Z 26009G15KT 10SM OVC010 08/07 A2989 890 89 300 260/09G15 RMK AO2
14837KMSN MSN20041120082011711/20/04 08:20:31  5-MIN KMSN 201420Z 24008G15KT 210V270 10SM OVC010 08/07 A2989 890 89 300 240/08G15 210V270 RMK AO2
14837KMSN MSN20041120082510111/20/04 08:25:31  5-MIN KMSN 201425Z 26008G14KT 10SM OVC010 08/07 A2989 890 89 300 260/08G14 RMK AO2
14837KMSN MSN20041120083010111/20/04 08:30:31  5-MIN KMSN 201430Z 26007G14KT 10SM OVC010 08/07 A2990 890 89 300 260/07G14 RMK AO2
14837KMSN MSN20041120083511711/20/04 08:35:31  5-MIN KMSN 201435Z 26009G14KT 230V290 10SM OVC010 08/07 A2990 890 89 300 260/09G14 230V290 RMK AO2
14837KMSN MSN20041120084011311/20/04 08:40:31  5-MIN KMSN 201440Z 27010G15KT 10SM OVC010 08/06 A2990 890 86 300 270/10G15 RMK AO2 CIG 009V013
14837KMSN MSN20041120084511311/20/04 08:45:31  5-MIN KMSN 201445Z 26007G15KT 10SM OVC010 08/07 A2990 880 89 300 260/07G15 RMK AO2 CIG 009V013
14837KMSN MSN20041120085013411/20/04 08:50:31  5-MIN KMSN 201450Z 26008KT 220V280 10SM OVC010 08/07 A2990 880 89 300 260/08 220V280 RMK AO2 SLP129 T00830067 53013
14837KMSN MSN20041120085509511/20/04 08:55:31  5-MIN KMSN 201455Z VRB06KT 10SM OVC010 08/07 A2991 880 89 300 VRB/06 RMK AO2
14837KMSN MSN20041120090009411/20/04 09:00:31  5-MIN KMSN 201500Z 26009KT 9SM OVC010 08/06 A2991 880 86 300 260/09 RMK AO2
14837KMSN MSN20041120090511111/20/04 09:05:31  5-MIN KMSN 201505Z 26007KT 230V290 10SM OVC010 08/06 A2991 870 86 300 260/07 230V290 RMK AO2
14837KMSN MSN20041120091011111/20/04 09:10:31  5-MIN KMSN 201510Z 26008KT 220V300 10SM OVC010 08/06 A2991 870 86 300 260/08 220V300 RMK AO2
14837KMSN MSN20041120091509511/20/04 09:15:31  5-MIN KMSN 201515Z VRB06KT 10SM OVC010 08/06 A2991 870 86 300 VRB/06 RMK AO2
14837KMSN MSN20041120092011711/20/04 09:20:31  5-MIN KMSN 201520Z 25012G18KT 220V280 10SM OVC010 08/06 A2992 870 86 300 250/12G18 220V280 RMK AO2
14837KMSN MSN20041120092510111/20/04 09:25:31  5-MIN KMSN 201525Z 27010G18KT 10SM OVC010 08/06 A2992 870 86 300 270/10G18 RMK AO2
14837KMSN MSN20041120093010111/20/04 09:30:31  5-MIN KMSN 201530Z 26009G15KT 10SM OVC010 08/06 A2992 870 86 300 260/09G15 RMK AO2
14837KMSN MSN20041120093511711/20/04 09:35:31  5-MIN KMSN 201535Z 26010G17KT 200V290 10SM OVC010 08/06 A2992 860 86 300 260/10G17 200V290 RMK AO2
14837KMSN MSN20041120094010111/20/04 09:40:31  5-MIN KMSN 201540Z 26008G17KT 10SM OVC010 08/06 A2992 860 86 300 260/08G17 RMK AO2
14837KMSN MSN20041120094509511/20/04 09:45:31  5-MIN KMSN 201545Z 26010KT 10SM OVC010 08/06 A2993 860 86 300 260/10 RMK AO2
14837KMSN MSN20041120095011811/20/04 09:50:31  5-MIN KMSN 201550Z 27010G14KT 10SM OVC012 08/06 A2993 860 86 300 270/10G14 RMK AO2 SLP138 T00830061
14837KMSN MSN20041120095510111/20/04 09:55:31  5-MIN KMSN 201555Z 26010G16KT 10SM OVC012 08/06 A2993 850 82 300 260/10G16 RMK AO2
14837KMSN MSN20041120100010111/20/04 10:00:31  5-MIN KMSN 201600Z 27010G17KT 10SM OVC012 08/06 A2993 850 82 300 270/10G17 RMK AO2
14837KMSN MSN20041120100510111/20/04 10:05:31  5-MIN KMSN 201605Z 27009G17KT 10SM OVC014 08/06 A2994 850 82 300 270/09G17 RMK AO2
14837KMSN MSN20041120101012411/20/04 10:10:31  5-MIN KMSN 201610Z 26010G15KT 220V280 10SM BKN012 OVC018 08/06 A2994 850 82 300 260/10G15 220V280 RMK AO2
14837KMSN MSN20041120101510111/20/04 10:15:31  5-MIN KMSN 201615Z 27012G17KT 10SM OVC016 08/06 A2994 840 82 300 270/12G17 RMK AO2
14837KMSN MSN20041120102010111/20/04 10:20:31  5-MIN KMSN 201620Z 27011G17KT 10SM OVC015 08/06 A2995 840 82 300 270/11G17 RMK AO2
14837KMSN MSN20041120102511711/20/04 10:25:31  5-MIN KMSN 201625Z 26010G16KT 210V290 10SM OVC015 08/06 A2995 840 82 300 260/10G16 210V290 RMK AO2
14837KMSN MSN20041120103011711/20/04 10:30:31  5-MIN KMSN 201630Z 28009G20KT 240V310 10SM OVC015 08/06 A2995 830 82 300 270/09G20 240V310 RMK AO2
14837KMSN MSN20041120103510111/20/04 10:35:31  5-MIN KMSN 201635Z 28009G20KT 10SM OVC015 08/05 A2995 830 79 300 280/09G20 RMK AO2
14837KMSN MSN20041120104010111/20/04 10:40:31  5-MIN KMSN 201640Z VRB06G17KT 10SM OVC015 08/05 A2996 830 79 300 VRB/06G17 RMK AO2
14837KMSN MSN20041120104510111/20/04 10:45:31  5-MIN KMSN 201645Z 28012G19KT 10SM OVC015 08/05 A2996 830 79 300 280/12G19 RMK AO2
14837KMSN MSN20041120105011811/20/04 10:50:31  5-MIN KMSN 201650Z 28012G19KT 10SM OVC015 08/05 A2995 830 82 200 280/12G19 RMK AO2 SLP147 T00780050
14837KMSN MSN20041120105510111/20/04 10:55:31  5-MIN KMSN 201655Z 28010G18KT 10SM OVC015 08/05 A2996 830 82 200 280/10G18 RMK AO2
14837KMSN MSN20041120110009511/20/04 11:00:31  5-MIN KMSN 201700Z 29010KT 10SM OVC015 08/05 A2996 830 82 200 290/10 RMK AO2
14837KMSN MSN20041120110511711/20/04 11:05:31  5-MIN KMSN 201705Z 28008G17KT 240V310 10SM OVC015 08/05 A2996 820 82 200 280/08G17 240V310 RMK AO2
14837KMSN MSN20041120111010111/20/04 11:10:31  5-MIN KMSN 201710Z 27009G17KT 10SM OVC015 08/05 A2997 820 82 200 270/09G17 RMK AO2
14837KMSN MSN20041120111509411/20/04 11:15:31  5-MIN KMSN 201715Z 26008KT 9SM OVC015 08/05 A2997 820 82 200 260/08 RMK AO2
14837KMSN MSN20041120112011611/20/04 11:20:31  5-MIN KMSN 201720Z 26010G16KT 240V310 8SM OVC015 08/05 A2997 820 82 200 260/10G16 240V310 RMK AO2
14837KMSN MSN20041120112510011/20/04 11:25:31  5-MIN KMSN 201725Z 27008G16KT 8SM OVC015 07/05 A2997 820 86 100 270/08G16 RMK AO2
14837KMSN MSN20041120113009411/20/04 11:30:31  5-MIN KMSN 201730Z 27009KT 7SM OVC015 07/05 A2997 820 86 100 270/09 RMK AO2
14837KMSN MSN20041120113510011/20/04 11:35:31  5-MIN KMSN 201735Z 26011G16KT 7SM OVC013 07/05 A2997 820 86 100 260/11G16 RMK AO2
14837KMSN MSN20041120114011011/20/04 11:40:31  5-MIN KMSN 201740Z 27010KT 8SM -DZ OVC013 07/05 A2997 820 86 100 270/10 RMK AO2 DZB36 P0000
14837KMSN MSN20041120114511611/20/04 11:45:31  5-MIN KMSN 201745Z 27012G17KT 8SM -DZ OVC011 07/05 A2998 810 86 100 270/12G17 RMK AO2 DZB36 P0000
14837KMSN MSN20041120115015711/20/04 11:50:31  5-MIN KMSN 201750Z 28009G17KT 8SM -DZ OVC011 07/04 A2998 810 82 100 280/09G17 RMK AO2 DZB36 SLP155 P0000 60000 T00720044 10100 20072 53023
14837KMSN MSN20041120115511011/20/04 11:55:31  5-MIN KMSN 201755Z 28013G18KT 8SM -DZ OVC013 07/04 A2998 810 82 100 280/13G18 RMK AO2 P0000
14837KMSN MSN20041120120011711/20/04 12:00:31  5-MIN KMSN 201800Z 28009G18KT 9SM -DZ BKN013 OVC019 07/04 A2998 810 82 100 280/09G18 RMK AO2 P0000
14837KMSN MSN20041120120511111/20/04 12:05:31  5-MIN KMSN 201805Z 28012KT 9SM -DZ BKN013 OVC019 07/04 A2998 810 79 100 280/12 RMK AO2 P0000
14837KMSN MSN20041120121012311/20/04 12:10:31  5-MIN KMSN 201810Z 29008KT 250V310 10SM OVC015 07/04 A2999 800 79 100 290/08 250V310 RMK AO2 DZE06 P0000
14837KMSN MSN20041120121510611/20/04 12:15:31  5-MIN KMSN 201815Z 28009KT 9SM OVC015 07/04 A2998 810 82 100 280/09 RMK AO2 DZE06 P0000
14837KMSN MSN20041120122010611/20/04 12:20:31  5-MIN KMSN 201820Z 28008KT 9SM OVC015 07/04 A2999 800 79 100 280/08 RMK AO2 DZE06 P0000
14837KMSN MSN20041120122510711/20/04 12:25:31  5-MIN KMSN 201825Z 27008KT 10SM OVC015 07/04 A2999 800 79 100 270/08 RMK AO2 DZE06 P0000
14837KMSN MSN20041120123011211/20/04 12:30:31  5-MIN KMSN 201830Z 28012G16KT 9SM OVC015 07/04 A2999 800 79 100 280/12G16 RMK AO2 DZE06 P0000
14837KMSN MSN20041120123511211/20/04 12:35:31  5-MIN KMSN 201835Z 27008G16KT 9SM OVC015 07/04 A2999 800 79 100 270/08G16 RMK AO2 DZE06 P0000
14837KMSN MSN20041120124011211/20/04 12:40:31  5-MIN KMSN 201840Z 28011G15KT 9SM OVC015 07/04 A2999 800 79 100 280/11G15 RMK AO2 DZE06 P0000
14837KMSN MSN20041120124510611/20/04 12:45:31  5-MIN KMSN 201845Z 28012KT 9SM OVC015 07/04 A3000 800 79 100 280/12 RMK AO2 DZE06 P0000
14837KMSN MSN20041120125013011/20/04 12:50:31  5-MIN KMSN 201850Z 29009G16KT 10SM OVC017 07/04 A3000 790 79 100 290/09G16 RMK AO2 DZE06 SLP162 P0000 T00720039
14837KMSN MSN20041120125510111/20/04 12:55:31  5-MIN KMSN 201855Z 28010G16KT 10SM OVC017 07/04 A3000 790 79 100 280/10G16 RMK AO2
14837KMSN MSN20041120130010111/20/04 13:00:31  5-MIN KMSN 201900Z 28014G17KT 10SM OVC017 07/04 A3000 790 79 100 280/14G17 RMK AO2
14837KMSN MSN20041120130510811/20/04 13:05:31  5-MIN KMSN 201905Z 29010G17KT 10SM BKN019 OVC025 07/04 A3000 790 79 100 290/10G17 RMK AO2
14837KMSN MSN20041120131010811/20/04 13:10:31  5-MIN KMSN 201910Z 29009G16KT 10SM BKN019 OVC025 07/03 A3000 790 76 100 290/09G16 RMK AO2
14837KMSN MSN20041120131510211/20/04 13:15:31  5-MIN KMSN 201915Z 29008KT 10SM BKN019 OVC025 08/03 A3000 790 73 100 290/08 RMK AO2
14837KMSN MSN20041120132010811/20/04 13:20:31  5-MIN KMSN 201920Z 28009G15KT 10SM BKN019 OVC025 08/04 A3000 790 76 100 280/09G15 RMK AO2
14837KMSN MSN20041120132510811/20/04 13:25:31  5-MIN KMSN 201925Z 28009G15KT 10SM BKN019 OVC025 07/04 A3000 790 79 100 280/09G15 RMK AO2
14837KMSN MSN20041120133010811/20/04 13:30:31  5-MIN KMSN 201930Z 28012G17KT 10SM BKN017 OVC025 07/03 A3001 780 76 100 280/12G17 RMK AO2
14837KMSN MSN20041120133510111/20/04 13:35:31  5-MIN KMSN 201935Z 29012G17KT 10SM OVC019 07/03 A3001 780 76 100 290/12G17 RMK AO2
14837KMSN MSN20041120134010111/20/04 13:40:31  5-MIN KMSN 201940Z 28011G17KT 10SM OVC019 07/03 A3001 780 76 100 280/11G17 RMK AO2
14837KMSN MSN20041120134510111/20/04 13:45:31  5-MIN KMSN 201945Z 28009G17KT 10SM OVC019 07/03 A3001 780 76 100 280/09G17 RMK AO2
14837KMSN MSN20041120135011811/20/04 13:50:31  5-MIN KMSN 201950Z 28009G17KT 10SM OVC019 07/03 A3001 780 76 100 280/09G17 RMK AO2 SLP166 T00720033
14837KMSN MSN20041120135509511/20/04 13:55:31  5-MIN KMSN 201955Z 29009KT 10SM OVC021 07/03 A3001 780 73 100 290/09 RMK AO2
14837KMSN MSN20041120140009511/20/04 14:00:31  5-MIN KMSN 202000Z 29008KT 10SM OVC021 07/03 A3001 780 73 100 290/08 RMK AO2
14837KMSN MSN20041120140510111/20/04 14:05:31  5-MIN KMSN 202005Z 29008G18KT 10SM OVC023 07/03 A3001 780 73 100 290/08G18 RMK AO2
14837KMSN MSN20041120141010111/20/04 14:10:31  5-MIN KMSN 202010Z 29011G18KT 10SM OVC023 07/03 A3002 770 73 100 290/11G18 RMK AO2
14837KMSN MSN20041120141509511/20/04 14:15:31  5-MIN KMSN 202015Z 29011KT 10SM OVC023 07/03 A3002 770 73 100 290/11 RMK AO2
14837KMSN MSN20041120142010111/20/04 14:20:31  5-MIN KMSN 202020Z 28008G16KT 10SM OVC023 07/03 A3002 770 73 100 280/08G16 RMK AO2
14837KMSN MSN20041120142510111/20/04 14:25:31  5-MIN KMSN 202025Z 29011G16KT 10SM OVC023 07/03 A3003 760 73 100 290/11G16 RMK AO2
14837KMSN MSN20041120143009911/20/04 14:30:31  5-MIN KMSN 202030Z 28009G17KT 10SM OVC023 07/03 A3003 760 73 0 270/09G17 RMK AO2
14837KMSN MSN20041120143509911/20/04 14:35:31  5-MIN KMSN 202035Z 27009G17KT 10SM OVC023 07/03 A3003 760 73 0 270/09G17 RMK AO2
14837KMSN MSN20041120144010911/20/04 14:40:31  5-MIN KMSN 202040Z 28007KT 250V310 10SM OVC023 07/03 A3004 760 73 0 280/07 250V310 RMK AO2
14837KMSN MSN20041120144511511/20/04 14:45:31  5-MIN KMSN 202045Z 29009G14KT 250V310 10SM OVC023 07/03 A3004 760 73 0 290/09G14 250V310 RMK AO2
14837KMSN MSN20041120145013811/20/04 14:50:31  5-MIN KMSN 202050Z 28008KT 250V310 10SM OVC023 07/03 A3004 750 73 0 280/08 250V310 RMK AO2 SLP177 60000 T00720028 51025
14837KMSN MSN20041120145509311/20/04 14:55:31  5-MIN KMSN 202055Z 28010KT 10SM OVC023 07/03 A3005 750 73 0 280/10 RMK AO2
14837KMSN MSN20041120150009311/20/04 15:00:31  5-MIN KMSN 202100Z 28010KT 10SM OVC023 07/03 A3005 750 73 0 280/10 RMK AO2
14837KMSN MSN20041120150509911/20/04 15:05:31  5-MIN KMSN 202105Z 29011G16KT 10SM OVC023 07/03 A3005 750 73 0 280/11G16 RMK AO2
14837KMSN MSN20041120151009911/20/04 15:10:31  5-MIN KMSN 202110Z 30009G16KT 10SM OVC023 07/03 A3005 740 73 0 300/09G16 RMK AO2
14837KMSN MSN20041120151509311/20/04 15:15:31  5-MIN KMSN 202115Z 29009KT 10SM OVC023 07/03 A3005 740 73 0 290/09 RMK AO2
14837KMSN MSN20041120152009311/20/04 15:20:31  5-MIN KMSN 202120Z 29009KT 10SM OVC023 07/03 A3006 740 73 0 290/09 RMK AO2
14837KMSN MSN20041120152509311/20/04 15:25:31  5-MIN KMSN 202125Z 31007KT 10SM OVC023 07/03 A3006 730 73 0 310/07 RMK AO2
14837KMSN MSN20041120153009911/20/04 15:30:31  5-MIN KMSN 202130Z 30008G15KT 10SM OVC023 07/02 A3006 730 70 0 300/08G15 RMK AO2
14837KMSN MSN20041120153509311/20/04 15:35:31  5-MIN KMSN 202135Z 31010KT 10SM OVC023 07/03 A3006 730 76 0 310/10 RMK AO2
14837KMSN MSN20041120154009311/20/04 15:40:31  5-MIN KMSN 202140Z 32007KT 10SM OVC025 07/02 A3006 730 73 0 310/07 RMK AO2
14837KMSN MSN20041120154509311/20/04 15:45:31  5-MIN KMSN 202145Z 31007KT 10SM OVC027 07/03 A3007 730 76 0 300/07 RMK AO2
14837KMSN MSN20041120155011011/20/04 15:50:31  5-MIN KMSN 202150Z 30007KT 10SM OVC027 07/03 A3007 730 76 0 300/07 RMK AO2 SLP186 T00670028
14837KMSN MSN20041120155509911/20/04 15:55:31  5-MIN KMSN 202155Z 30008G17KT 10SM OVC027 07/03 A3007 720 76 0 300/08G17 RMK AO2
14837KMSN MSN20041120160009911/20/04 16:00:31  5-MIN KMSN 202200Z 30008G17KT 10SM OVC027 07/03 A3007 720 76 0 300/08G17 RMK AO2
14837KMSN MSN20041120160509311/20/04 16:05:31  5-MIN KMSN 202205Z 29009KT 10SM OVC027 07/03 A3008 720 76 0 290/09 RMK AO2
14837KMSN MSN20041120161009311/20/04 16:10:31  5-MIN KMSN 202210Z 30008KT 10SM OVC027 07/02 A3007 720 73 0 300/08 RMK AO2
14837KMSN MSN20041120161509311/20/04 16:15:31  5-MIN KMSN 202215Z 30010KT 10SM OVC027 07/02 A3008 720 73 0 300/10 RMK AO2
14837KMSN MSN20041120162009311/20/04 16:20:31  5-MIN KMSN 202220Z 29007KT 10SM OVC027 07/02 A3008 720 73 0 290/07 RMK AO2
14837KMSN MSN20041120162509311/20/04 16:25:31  5-MIN KMSN 202225Z 28010KT 10SM OVC027 07/02 A3008 720 73 0 280/10 RMK AO2
14837KMSN MSN20041120163009311/20/04 16:30:31  5-MIN KMSN 202230Z 29008KT 10SM OVC027 07/02 A3008 720 73 0 290/08 RMK AO2
14837KMSN MSN20041120163509311/20/04 16:35:31  5-MIN KMSN 202235Z VRB06KT 10SM OVC027 07/02 A3008 710 73 0 VRB/06 RMK AO2
14837KMSN MSN20041120164009311/20/04 16:40:31  5-MIN KMSN 202240Z 30008KT 10SM OVC027 07/02 A3009 710 73 0 300/08 RMK AO2
14837KMSN MSN20041120164509311/20/04 16:45:31  5-MIN KMSN 202245Z 30008KT 10SM OVC027 07/02 A3009 710 73 0 300/08 RMK AO2
14837KMSN MSN20041120165011011/20/04 16:50:31  5-MIN KMSN 202250Z 29008KT 10SM OVC027 07/02 A3010 700 73 0 280/08 RMK AO2 SLP195 T00670022
14837KMSN MSN20041120165509311/20/04 16:55:31  5-MIN KMSN 202255Z VRB06KT 10SM OVC029 07/02 A3010 700 73 0 VRB/06 RMK AO2
14837KMSN MSN20041120170009311/20/04 17:00:31  5-MIN KMSN 202300Z 29007KT 10SM OVC029 07/02 A3010 700 73 0 290/07 RMK AO2
14837KMSN MSN20041120170509311/20/04 17:05:31  5-MIN KMSN 202305Z 30006KT 10SM OVC029 07/02 A3010 700 73 0 290/06 RMK AO2
14837KMSN MSN20041120171009311/20/04 17:10:31  5-MIN KMSN 202310Z 29006KT 10SM OVC029 07/02 A3010 700 73 0 290/06 RMK AO2
14837KMSN MSN20041120171509611/20/04 17:15:31  5-MIN KMSN 202315Z VRB06KT 10SM OVC029 07/02 A3010 700 73 -100 VRB/06 RMK AO2
14837KMSN MSN20041120172009611/20/04 17:20:31  5-MIN KMSN 202320Z 28006KT 10SM OVC029 07/02 A3010 690 73 -100 280/06 RMK AO2
14837KMSN MSN20041120172509611/20/04 17:25:31  5-MIN KMSN 202325Z 29007KT 10SM OVC029 06/02 A3011 690 76 -100 290/07 RMK AO2
14837KMSN MSN20041120173009611/20/04 17:30:31  5-MIN KMSN 202330Z 30008KT 10SM OVC029 07/02 A3011 690 70 -100 300/08 RMK AO2
14837KMSN MSN20041120173509611/20/04 17:35:31  5-MIN KMSN 202335Z 30006KT 10SM OVC029 07/02 A3012 680 70 -100 290/06 RMK AO2
14837KMSN MSN20041120174009611/20/04 17:40:31  5-MIN KMSN 202340Z VRB05KT 10SM OVC029 07/02 A3012 680 70 -100 VRB/05 RMK AO2
14837KMSN MSN20041120174509611/20/04 17:45:31  5-MIN KMSN 202345Z 29006KT 10SM OVC029 07/02 A3012 680 70 -100 280/06 RMK AO2
14837KMSN MSN20041120175013711/20/04 17:50:31  5-MIN KMSN 202350Z 28006KT 10SM OVC029 07/02 A3013 680 73 -100 280/06 RMK AO2 SLP206 60000 T00670022 10078 20061 53021
14837KMSN MSN20041120175509611/20/04 17:55:31  5-MIN KMSN 202355Z 28005KT 10SM OVC029 07/02 A3013 670 73 -100 280/05 RMK AO2
14837KMSN MSN20041120180009611/20/04 18:00:31  5-MIN KMSN 210000Z 29007KT 10SM OVC029 07/02 A3013 670 73 -100 290/07 RMK AO2
14837KMSN MSN20041120180509611/20/04 18:05:31  5-MIN KMSN 210005Z 27006KT 10SM OVC029 07/02 A3014 670 73 -100 270/06 RMK AO2
14837KMSN MSN20041120181009611/20/04 18:10:31  5-MIN KMSN 210010Z 29007KT 10SM OVC027 07/02 A3014 660 73 -100 290/07 RMK AO2
14837KMSN MSN20041120181509611/20/04 18:15:31  5-MIN KMSN 210015Z 29006KT 10SM OVC027 06/02 A3014 660 76 -200 290/06 RMK AO2
14837KMSN MSN20041120182009611/20/04 18:20:31  5-MIN KMSN 210020Z 29006KT 10SM OVC027 06/02 A3014 660 73 -200 290/06 RMK AO2
14837KMSN MSN20041120182509611/20/04 18:25:31  5-MIN KMSN 210025Z 29005KT 10SM BKN027 06/02 A3014 660 73 -200 290/05 RMK AO2
14837KMSN MSN20041120183009611/20/04 18:30:31  5-MIN KMSN 210030Z 30010KT 10SM BKN027 06/02 A3014 660 73 -200 290/10 RMK AO2
14837KMSN MSN20041120183509611/20/04 18:35:31  5-MIN KMSN 210035Z 30008KT 10SM BKN027 06/01 A3014 660 70 -200 300/08 RMK AO2
14837KMSN MSN20041120184009611/20/04 18:40:31  5-MIN KMSN 210040Z 29006KT 10SM BKN027 06/01 A3014 660 70 -200 290/06 RMK AO2
14837KMSN MSN20041120184509611/20/04 18:45:31  5-MIN KMSN 210045Z 28005KT 10SM BKN023 06/01 A3015 660 70 -200 280/05 RMK AO2
14837KMSN MSN20041120185011311/20/04 18:50:31  5-MIN KMSN 210050Z 29008KT 10SM BKN023 06/01 A3015 660 70 -200 280/08 RMK AO2 SLP213 T00610011
14837KMSN MSN20041120185509611/20/04 18:55:31  5-MIN KMSN 210055Z 29007KT 10SM OVC023 06/01 A3015 650 70 -200 290/07 RMK AO2
14837KMSN MSN20041120190009611/20/04 19:00:31  5-MIN KMSN 210100Z 29008KT 10SM OVC025 06/01 A3015 650 70 -200 290/08 RMK AO2
14837KMSN MSN20041120190511211/20/04 19:05:31  5-MIN KMSN 210105Z 29007KT 250V310 10SM OVC025 06/01 A3016 650 70 -200 290/07 250V310 RMK AO2
14837KMSN MSN20041120191009611/20/04 19:10:31  5-MIN KMSN 210110Z 28007KT 10SM OVC025 06/01 A3016 640 73 -300 280/07 RMK AO2
14837KMSN MSN20041120191509611/20/04 19:15:31  5-MIN KMSN 210115Z 28009KT 10SM OVC025 06/01 A3016 640 73 -300 280/09 RMK AO2
14837KMSN MSN20041120192009611/20/04 19:20:31  5-MIN KMSN 210120Z 29008KT 10SM OVC025 06/01 A3016 640 70 -300 290/08 RMK AO2
14837KMSN MSN20041120192509611/20/04 19:25:31  5-MIN KMSN 210125Z 28008KT 10SM OVC025 06/01 A3017 640 70 -300 280/08 RMK AO2
14837KMSN MSN20041120193011211/20/04 19:30:31  5-MIN KMSN 210130Z 29009KT 260V320 10SM OVC025 06/01 A3017 630 70 -300 290/09 260V320 RMK AO2
14837KMSN MSN20041120193510211/20/04 19:35:31  5-MIN KMSN 210135Z 29009G14KT 10SM OVC025 06/00 A3018 630 67 -300 290/09G14 RMK AO2
14837KMSN MSN20041120194009611/20/04 19:40:31  5-MIN KMSN 210140Z 28008KT 10SM OVC025 06/00 A3018 630 67 -300 280/08 RMK AO2
14837KMSN MSN20041120194509611/20/04 19:45:31  5-MIN KMSN 210145Z 29007KT 10SM OVC027 05/00 A3018 630 70 -300 290/07 RMK AO2
14837KMSN MSN20041120195011311/20/04 19:50:31  5-MIN KMSN 210150Z 29007KT 10SM OVC027 05/00 A3018 620 70 -300 290/07 RMK AO2 SLP226 T00500000
14837KMSN MSN20041120195509611/20/04 19:55:31  5-MIN KMSN 210155Z 28007KT 10SM OVC027 05/00 A3018 620 70 -300 280/07 RMK AO2
14837KMSN MSN20041120200009611/20/04 20:00:31  5-MIN KMSN 210200Z 29009KT 10SM OVC027 05/00 A3018 620 70 -300 290/09 RMK AO2
14837KMSN MSN20041120200509611/20/04 20:05:31  5-MIN KMSN 210205Z 30008KT 10SM OVC027 05/00 A3018 620 70 -300 300/08 RMK AO2
14837KMSN MSN20041120201009611/20/04 20:10:31  5-MIN KMSN 210210Z 30009KT 10SM OVC027 05/00 A3019 620 70 -400 300/09 RMK AO2
14837KMSN MSN20041120201509611/20/04 20:15:31  5-MIN KMSN 210215Z 31009KT 10SM OVC027 05/00 A3019 610 70 -400 310/09 RMK AO2
14837KMSN MSN20041120202009611/20/04 20:20:31  5-MIN KMSN 210220Z 31008KT 10SM OVC029 05/00 A3020 610 70 -400 310/08 RMK AO2
14837KMSN MSN20041120202509711/20/04 20:25:31  5-MIN KMSN 210225Z 30007KT 10SM OVC029 05/M01 A3020 610 67 -400 300/07 RMK AO2
14837KMSN MSN20041120203010311/20/04 20:30:31  5-MIN KMSN 210230Z 30012G17KT 10SM OVC029 05/M01 A3020 600 64 -400 300/12G17 RMK AO2
14837KMSN MSN20041120203510311/20/04 20:35:31  5-MIN KMSN 210235Z 28011G17KT 10SM OVC029 05/M01 A3021 600 64 -400 280/11G17 RMK AO2
14837KMSN MSN20041120204009711/20/04 20:40:31  5-MIN KMSN 210240Z 29009KT 10SM OVC029 05/M01 A3021 590 64 -400 290/09 RMK AO2
14837KMSN MSN20041120204509711/20/04 20:45:31  5-MIN KMSN 210245Z 29010KT 10SM OVC029 05/M01 A3021 600 64 -400 290/10 RMK AO2
14837KMSN MSN20041120205012011/20/04 20:50:31  5-MIN KMSN 210250Z 29008KT 10SM OVC029 05/M01 A3022 590 64 -400 290/08 RMK AO2 SLP238 T00501011 53027
14837KMSN MSN20041120205509711/20/04 20:55:31  5-MIN KMSN 210255Z 29008KT 10SM OVC029 05/M01 A3022 590 64 -400 290/08 RMK AO2
14837KMSN MSN20041120210010311/20/04 21:00:31  5-MIN KMSN 210300Z 30011G15KT 10SM OVC029 05/M01 A3022 590 64 -400 300/11G15 RMK AO2
14837KMSN MSN20041120210510311/20/04 21:05:31  5-MIN KMSN 210305Z 30010G15KT 10SM OVC029 05/M01 A3022 590 64 -400 300/10G15 RMK AO2
14837KMSN MSN20041120211010311/20/04 21:10:31  5-MIN KMSN 210310Z 29010G15KT 10SM OVC029 05/M01 A3022 590 64 -400 290/10G15 RMK AO2
14837KMSN MSN20041120211510311/20/04 21:15:31  5-MIN KMSN 210315Z 30009G15KT 10SM OVC029 05/M01 A3022 590 64 -400 300/09G15 RMK AO2
14837KMSN MSN20041120212011311/20/04 21:20:31  5-MIN KMSN 210320Z 30007KT 280V340 10SM OVC029 05/M01 A3022 590 64 -400 300/07 280V340 RMK AO2
14837KMSN MSN20041120212509711/20/04 21:25:31  5-MIN KMSN 210325Z 33005KT 10SM OVC029 05/M01 A3023 580 64 -400 330/05 RMK AO2
14837KMSN MSN20041120213009711/20/04 21:30:31  5-MIN KMSN 210330Z 33007KT 10SM OVC027 04/M01 A3023 580 70 -500 330/07 RMK AO2
14837KMSN MSN20041120213509611/20/04 21:35:31  5-MIN KMSN 210335Z 33007KT 9SM OVC027 04/M01 A3023 580 70 -500 330/07 RMK AO2
14837KMSN MSN20041120214009611/20/04 21:40:31  5-MIN KMSN 210340Z 33006KT 9SM OVC027 04/M01 A3023 580 70 -500 330/06 RMK AO2
14837KMSN MSN20041120214509611/20/04 21:45:31  5-MIN KMSN 210345Z 32007KT 9SM OVC027 04/M01 A3023 580 70 -500 320/07 RMK AO2
14837KMSN MSN20041120215011911/20/04 21:50:31  5-MIN KMSN 210350Z 32009G16KT 9SM OVC027 04/M01 A3023 580 67 -500 310/09G16 RMK AO2 SLP244 T00441011
14837KMSN MSN20041120215510211/20/04 21:55:31  5-MIN KMSN 210355Z 30009G16KT 9SM OVC027 04/M01 A3024 570 70 -500 300/09G16 RMK AO2
14837KMSN MSN20041120220009711/20/04 22:00:31  5-MIN KMSN 210400Z 31009KT 10SM OVC027 04/M02 A3024 570 67 -500 310/09 RMK AO2
14837KMSN MSN20041120220509711/20/04 22:05:31  5-MIN KMSN 210405Z 30010KT 10SM OVC029 04/M02 A3024 570 67 -600 300/10 RMK AO2
14837KMSN MSN20041120221009711/20/04 22:10:31  5-MIN KMSN 210410Z 31010KT 10SM OVC029 04/M02 A3024 570 64 -600 310/10 RMK AO2
14837KMSN MSN20041120221509711/20/04 22:15:31  5-MIN KMSN 210415Z 30009KT 10SM BKN029 03/M03 A3024 570 64 -600 300/09 RMK AO2
14837KMSN MSN20041120222009711/20/04 22:20:31  5-MIN KMSN 210420Z 30006KT 10SM BKN029 03/M03 A3025 560 64 -600 300/06 RMK AO2
14837KMSN MSN20041120222509711/20/04 22:25:31  5-MIN KMSN 210425Z 31006KT 10SM BKN029 03/M03 A3025 560 67 -700 310/06 RMK AO2
14837KMSN MSN20041120223009711/20/04 22:30:31  5-MIN KMSN 210430Z 30006KT 10SM BKN029 03/M03 A3025 560 64 -600 300/06 RMK AO2
14837KMSN MSN20041120223509711/20/04 22:35:31  5-MIN KMSN 210435Z 31006KT 10SM BKN031 03/M03 A3025 560 64 -600 310/06 RMK AO2
14837KMSN MSN20041120224009711/20/04 22:40:31  5-MIN KMSN 210440Z 30006KT 10SM BKN031 03/M03 A3025 560 64 -600 300/06 RMK AO2
14837KMSN MSN20041120224509711/20/04 22:45:31  5-MIN KMSN 210445Z 31005KT 10SM OVC031 03/M03 A3025 560 64 -600 310/05 RMK AO2
14837KMSN MSN20041120225011411/20/04 22:50:31  5-MIN KMSN 210450Z 32005KT 10SM BKN031 03/M03 A3025 560 64 -600 320/05 RMK AO2 SLP251 T00331028
14837KMSN MSN20041120225509711/20/04 22:55:31  5-MIN KMSN 210455Z 31006KT 10SM OVC031 03/M03 A3026 550 67 -700 310/06 RMK AO2
14837KMSN MSN20041120230009711/20/04 23:00:31  5-MIN KMSN 210500Z 31006KT 10SM BKN031 03/M03 A3026 550 67 -700 310/06 RMK AO2
14837KMSN MSN20041120230509711/20/04 23:05:31  5-MIN KMSN 210505Z 32005KT 10SM BKN031 03/M03 A3026 550 67 -700 320/05 RMK AO2
14837KMSN MSN20041120231009711/20/04 23:10:31  5-MIN KMSN 210510Z 32005KT 10SM SCT031 03/M03 A3026 550 67 -700 320/05 RMK AO2
14837KMSN MSN20041120231509711/20/04 23:15:31  5-MIN KMSN 210515Z 30004KT 10SM BKN031 02/M03 A3027 550 69 -800 300/04 RMK AO2
14837KMSN MSN20041120232009711/20/04 23:20:31  5-MIN KMSN 210520Z 31003KT 10SM BKN031 02/M03 A3027 540 69 -800 300/03 RMK AO2
14837KMSN MSN20041120232509711/20/04 23:25:31  5-MIN KMSN 210525Z 32003KT 10SM BKN031 02/M03 A3027 540 69 -800 320/03 RMK AO2
14837KMSN MSN20041120233009711/20/04 23:30:31  5-MIN KMSN 210530Z 00000KT 10SM BKN031 02/M03 A3027 540 69 -800 000/00 RMK AO2
14837KMSN MSN20041120233509711/20/04 23:35:31  5-MIN KMSN 210535Z 00000KT 10SM BKN031 02/M02 A3028 540 72 -800 000/00 RMK AO2
14837KMSN MSN20041120234009711/20/04 23:40:31  5-MIN KMSN 210540Z 00000KT 10SM FEW031 02/M02 A3028 540 72 -800 000/00 RMK AO2
14837KMSN MSN20041120234509711/20/04 23:45:31  5-MIN KMSN 210545Z 00000KT 10SM FEW031 02/M02 A3028 540 72 -800 000/00 RMK AO2
14837KMSN MSN20041120235014211/20/04 23:50:31  5-MIN KMSN 210550Z 00000KT 10SM FEW031 02/M02 A3028 530 78 -900 000/00 RMK AO2 SLP260 T00171017 10067 20017 401170017 53029
14837KMSN MSN20041120235509411/20/04 23:55:31  5-MIN KMSN 210555Z 00000KT 10SM CLR 02/M02 A3028 540 78 -900 000/00 RMK AO2
14837KMSN MSN20041121000009411/21/04 00:00:31  5-MIN KMSN 210600Z 00000KT 10SM CLR 01/M01 A3028 540 85 -900 000/00 RMK AO2
14837KMSN MSN20041121000509311/21/04 00:05:31  5-MIN KMSN 210605Z 00000KT 9SM CLR 01/M02 A3028 530 82 -900 000/00 RMK AO2
14837KMSN MSN20041121001009411/21/04 00:10:31  5-MIN KMSN 210610Z 00000KT 10SM CLR 01/M02 A3028 530 82 -900 000/00 RMK AO2
14837KMSN MSN20041121001509611/21/04 00:15:31  5-MIN KMSN 210615Z 00000KT 9SM FEW031 01/M02 A3028 530 78 -900 000/00 RMK AO2
14837KMSN MSN20041121002009611/21/04 00:20:31  5-MIN KMSN 210620Z 00000KT 9SM FEW031 01/M02 A3028 530 78 -900 000/00 RMK AO2
14837KMSN MSN20041121002509711/21/04 00:25:31  5-MIN KMSN 210625Z 00000KT 10SM FEW031 01/M02 A3028 530 78 -900 000/00 RMK AO2
14837KMSN MSN20041121003009511/21/04 00:30:31  5-MIN KMSN 210630Z 00000KT 10SM CLR 01/M02 A3028 530 82 -1000 000/00 RMK AO2
14837KMSN MSN20041121003509411/21/04 00:35:31  5-MIN KMSN 210635Z 00000KT 9SM CLR 01/M02 A3028 530 82 -1000 000/00 RMK AO2
14837KMSN MSN20041121004009411/21/04 00:40:31  5-MIN KMSN 210640Z 00000KT 9SM CLR 01/M02 A3028 530 82 -1000 000/00 RMK AO2
14837KMSN MSN20041121004509411/21/04 00:45:31  5-MIN KMSN 210645Z 00000KT 9SM CLR 01/M02 A3028 530 82 -1000 000/00 RMK AO2
14837KMSN MSN20041121005011211/21/04 00:50:31  5-MIN KMSN 210650Z 23003KT 10SM CLR 00/M02 A3028 540 85 -1100 230/03 RMK AO2 SLP261 T00001022
14837KMSN MSN20041121005509411/21/04 00:55:31  5-MIN KMSN 210655Z 22003KT 9SM CLR 00/M02 A3028 530 85 -1100 220/03 RMK AO2
14837KMSN MSN20041121010009411/21/04 01:00:31  5-MIN KMSN 210700Z 00000KT 9SM CLR 00/M03 A3028 530 81 -1100 000/00 RMK AO2
14837KMSN MSN20041121010509411/21/04 01:05:31  5-MIN KMSN 210705Z 25003KT 9SM CLR 00/M02 A3028 540 85 -1100 250/03 RMK AO2
14837KMSN MSN20041121011009511/21/04 01:10:31  5-MIN KMSN 210710Z 27003KT 9SM CLR M01/M03 A3027 540 85 -1100 270/03 RMK AO2
14837KMSN MSN20041121011509511/21/04 01:15:31  5-MIN KMSN 210715Z 26003KT 8SM CLR M01/M02 A3028 540 88 -1100 260/03 RMK AO2
14837KMSN MSN20041121012009511/21/04 01:20:31  5-MIN KMSN 210720Z 27003KT 8SM CLR M01/M02 A3028 540 88 -1100 270/03 RMK AO2
14837KMSN MSN20041121012509411/21/04 01:25:31  5-MIN KMSN 210725Z VRB03KT 9SM CLR 00/M02 A3028 540 85 -1100 VRB/03 RMK AO2
14837KMSN MSN20041121013009411/21/04 01:30:31  5-MIN KMSN 210730Z 26003KT 9SM CLR 00/M02 A3028 540 85 -1100 260/03 RMK AO2
14837KMSN MSN20041121013509411/21/04 01:35:31  5-MIN KMSN 210735Z 00000KT 9SM CLR 00/M02 A3028 530 85 -1100 000/00 RMK AO2
14837KMSN MSN20041121014009411/21/04 01:40:31  5-MIN KMSN 210740Z 00000KT 9SM CLR 01/M02 A3028 530 82 -1000 000/00 RMK AO2
14837KMSN MSN20041121014509511/21/04 01:45:31  5-MIN KMSN 210745Z 00000KT 10SM CLR 00/M03 A3028 530 81 -1100 000/00 RMK AO2
14837KMSN MSN20041121015011111/21/04 01:50:31  5-MIN KMSN 210750Z 00000KT 9SM CLR 00/M03 A3028 530 81 -1100 000/00 RMK AO2 SLP264 T00001028
14837KMSN MSN20041121015509511/21/04 01:55:31  5-MIN KMSN 210755Z 00000KT 9SM CLR M01/M03 A3028 530 85 -1200 000/00 RMK AO2
14837KMSN MSN20041121020009511/21/04 02:00:31  5-MIN KMSN 210800Z 00000KT 10SM CLR 00/M03 A3029 530 81 -1100 000/00 RMK AO2
14837KMSN MSN20041121020509511/21/04 02:05:31  5-MIN KMSN 210805Z 00000KT 10SM CLR 00/M03 A3029 530 78 -1100 000/00 RMK AO2
14837KMSN MSN20041121021009511/21/04 02:10:31  5-MIN KMSN 210810Z 00000KT 10SM CLR 00/M03 A3029 520 78 -1100 000/00 RMK AO2
14837KMSN MSN20041121021509511/21/04 02:15:31  5-MIN KMSN 210815Z 00000KT 10SM CLR 00/M03 A3030 520 81 -1100 000/00 RMK AO2
14837KMSN MSN20041121022009511/21/04 02:20:31  5-MIN KMSN 210820Z VRB03KT 10SM CLR 01/M03 A3030 520 72 -1000 VRB/03 RMK AO2
14837KMSN MSN20041121022509511/21/04 02:25:31  5-MIN KMSN 210825Z 26004KT 10SM CLR 01/M03 A3030 520 75 -1000 260/04 RMK AO2
14837KMSN MSN20041121023009511/21/04 02:30:31  5-MIN KMSN 210830Z 25004KT 10SM CLR 01/M03 A3030 510 78 -1000 250/04 RMK AO2
14837KMSN MSN20041121023509511/21/04 02:35:31  5-MIN KMSN 210835Z 26004KT 10SM CLR 00/M03 A3030 510 81 -1100 260/04 RMK AO2
14837KMSN MSN20041121024009511/21/04 02:40:31  5-MIN KMSN 210840Z VRB03KT 10SM CLR 01/M03 A3030 510 78 -1000 VRB/03 RMK AO2
14837KMSN MSN20041121024509511/21/04 02:45:31  5-MIN KMSN 210845Z 00000KT 10SM CLR 01/M03 A3031 510 78 -1000 000/00 RMK AO2
14837KMSN MSN20041121025011811/21/04 02:50:31  5-MIN KMSN 210850Z 27003KT 10SM CLR 01/M03 A3030 510 78 -1000 270/03 RMK AO2 SLP270 T00061028 52021
14837KMSN MSN20041121025509411/21/04 02:55:31  5-MIN KMSN 210855Z VRB03KT 9SM CLR 01/M03 A3030 510 78 -1000 VRB/03 RMK AO2
14837KMSN MSN20041121030009411/21/04 03:00:31  5-MIN KMSN 210900Z 25003KT 9SM CLR 01/M03 A3030 510 78 -1000 250/03 RMK AO2
14837KMSN MSN20041121030509411/21/04 03:05:31  5-MIN KMSN 210905Z VRB03KT 9SM CLR 01/M03 A3030 510 78 -1000 VRB/03 RMK AO2
14837KMSN MSN20041121031009411/21/04 03:10:31  5-MIN KMSN 210910Z VRB03KT 9SM CLR 01/M03 A3030 510 78 -1000 VRB/03 RMK AO2
14837KMSN MSN20041121031509411/21/04 03:15:31  5-MIN KMSN 210915Z VRB03KT 9SM CLR 01/M03 A3030 520 75 -1000 VRB/03 RMK AO2
14837KMSN MSN20041121032009411/21/04 03:20:31  5-MIN KMSN 210920Z VRB03KT 9SM CLR 01/M03 A3030 520 75 -1000 VRB/03 RMK AO2
14837KMSN MSN20041121032509411/21/04 03:25:31  5-MIN KMSN 210925Z VRB04KT 9SM CLR 01/M03 A3030 520 75 -1000 VRB/04 RMK AO2
14837KMSN MSN20041121033009411/21/04 03:30:31  5-MIN KMSN 210930Z 27004KT 9SM CLR 01/M03 A3029 520 75 -1000 270/04 RMK AO2
14837KMSN MSN20041121033509411/21/04 03:35:31  5-MIN KMSN 210935Z VRB03KT 9SM CLR 01/M03 A3029 520 75 -1000 VRB/03 RMK AO2
14837KMSN MSN20041121034009411/21/04 03:40:31  5-MIN KMSN 210940Z VRB03KT 9SM CLR 00/M03 A3030 520 78 -1100 VRB/03 RMK AO2
14837KMSN MSN20041121034509411/21/04 03:45:31  5-MIN KMSN 210945Z 00000KT 9SM CLR 00/M03 A3030 520 78 -1100 000/00 RMK AO2
14837KMSN MSN20041121035011111/21/04 03:50:31  5-MIN KMSN 210950Z 00000KT 9SM CLR 00/M03 A3030 520 78 -1100 000/00 RMK AO2 SLP268 T00001033
14837KMSN MSN20041121035509411/21/04 03:55:31  5-MIN KMSN 210955Z 00000KT 9SM CLR 00/M03 A3030 510 78 -1100 000/00 RMK AO2
14837KMSN MSN20041121040009411/21/04 04:00:31  5-MIN KMSN 211000Z VRB03KT 9SM CLR 00/M03 A3030 510 78 -1100 VRB/03 RMK AO2
14837KMSN MSN20041121040509411/21/04 04:05:31  5-MIN KMSN 211005Z VRB03KT 9SM CLR 00/M03 A3030 510 78 -1100 VRB/03 RMK AO2
14837KMSN MSN20041121041009411/21/04 04:10:31  5-MIN KMSN 211010Z 00000KT 9SM CLR 00/M03 A3030 510 78 -1100 000/00 RMK AO2
14837KMSN MSN20041121041509411/21/04 04:15:31  5-MIN KMSN 211015Z 00000KT 9SM CLR 00/M03 A3030 510 78 -1100 000/00 RMK AO2
14837KMSN MSN20041121042009411/21/04 04:20:31  5-MIN KMSN 211020Z VRB03KT 8SM CLR 00/M03 A3030 520 78 -1100 VRB/03 RMK AO2
14837KMSN MSN20041121042509411/21/04 04:25:31  5-MIN KMSN 211025Z 29003KT 9SM CLR 00/M03 A3030 510 78 -1100 280/03 RMK AO2
14837KMSN MSN20041121043009411/21/04 04:30:31  5-MIN KMSN 211030Z 28003KT 9SM CLR 00/M03 A3030 510 78 -1100 280/03 RMK AO2
14837KMSN MSN20041121043509511/21/04 04:35:31  5-MIN KMSN 211035Z VRB03KT 8SM CLR M01/M03 A3031 510 81 -1200 VRB/03 RMK AO2
14837KMSN MSN20041121044009411/21/04 04:40:31  5-MIN KMSN 211040Z VRB03KT 8SM CLR 00/M03 A3031 510 78 -1100 VRB/03 RMK AO2
14837KMSN MSN20041121044509411/21/04 04:45:31  5-MIN KMSN 211045Z 29003KT 8SM CLR 00/M03 A3031 500 78 -1100 280/03 RMK AO2
14837KMSN MSN20041121045011111/21/04 04:50:31  5-MIN KMSN 211050Z 28003KT 8SM CLR 00/M03 A3031 500 78 -1100 280/03 RMK AO2 SLP273 T00001033
14837KMSN MSN20041121045509411/21/04 04:55:31  5-MIN KMSN 211055Z VRB03KT 8SM CLR 00/M03 A3032 500 78 -1100 VRB/03 RMK AO2
14837KMSN MSN20041121050009411/21/04 05:00:31  5-MIN KMSN 211100Z 29003KT 8SM CLR 00/M03 A3032 500 78 -1100 290/03 RMK AO2
14837KMSN MSN20041121050509411/21/04 05:05:31  5-MIN KMSN 211105Z 28003KT 8SM CLR 00/M03 A3032 500 78 -1100 280/03 RMK AO2
14837KMSN MSN20041121051009511/21/04 05:10:31  5-MIN KMSN 211110Z 28004KT 8SM CLR M01/M03 A3031 500 81 -1200 280/04 RMK AO2
14837KMSN MSN20041121051509511/21/04 05:15:31  5-MIN KMSN 211115Z 28004KT 8SM CLR M01/M03 A3032 500 81 -1200 280/04 RMK AO2
14837KMSN MSN20041121052009511/21/04 05:20:31  5-MIN KMSN 211120Z 29003KT 8SM CLR M01/M03 A3032 500 81 -1200 280/03 RMK AO2
14837KMSN MSN20041121052509511/21/04 05:25:31  5-MIN KMSN 211125Z 28003KT 8SM CLR M01/M03 A3032 490 81 -1200 280/03 RMK AO2
14837KMSN MSN20041121053009511/21/04 05:30:31  5-MIN KMSN 211130Z VRB03KT 8SM CLR M01/M03 A3032 500 81 -1200 VRB/03 RMK AO2
14837KMSN MSN20041121053509511/21/04 05:35:31  5-MIN KMSN 211135Z 27003KT 8SM CLR M01/M03 A3032 500 81 -1200 270/03 RMK AO2
14837KMSN MSN20041121054009511/21/04 05:40:31  5-MIN KMSN 211140Z 00000KT 8SM CLR M01/M03 A3032 500 81 -1200 000/00 RMK AO2
14837KMSN MSN20041121054509411/21/04 05:45:31  5-MIN KMSN 211145Z 00000KT 8SM CLR 00/M03 A3032 500 81 -1100 000/00 RMK AO2
14837KMSN MSN20041121055013011/21/04 05:50:31  5-MIN KMSN 211150Z 00000KT 8SM CLR M01/M03 A3032 490 85 -1200 000/00 RMK AO2 SLP277 T10061028 10017 21006 53008
14837KMSN MSN20041121055509511/21/04 05:55:31  5-MIN KMSN 211155Z 00000KT 8SM CLR M01/M03 A3032 490 81 -1200 000/00 RMK AO2
14837KMSN MSN20041121060009511/21/04 06:00:31  5-MIN KMSN 211200Z 00000KT 8SM CLR M01/M03 A3033 490 81 -1200 000/00 RMK AO2
14837KMSN MSN20041121060509511/21/04 06:05:31  5-MIN KMSN 211205Z 28003KT 8SM CLR M01/M03 A3033 490 81 -1200 280/03 RMK AO2
14837KMSN MSN20041121061009511/21/04 06:10:31  5-MIN KMSN 211210Z 00000KT 8SM CLR M01/M03 A3033 490 85 -1300 000/00 RMK AO2
14837KMSN MSN20041121061509511/21/04 06:15:31  5-MIN KMSN 211215Z 29003KT 8SM CLR M01/M03 A3033 490 85 -1300 290/03 RMK AO2
14837KMSN MSN20041121062009511/21/04 06:20:31  5-MIN KMSN 211220Z 29003KT 8SM CLR M01/M03 A3033 490 81 -1200 290/03 RMK AO2
14837KMSN MSN20041121062509511/21/04 06:25:31  5-MIN KMSN 211225Z 28004KT 8SM CLR M01/M03 A3033 480 81 -1200 280/04 RMK AO2
14837KMSN MSN20041121063009511/21/04 06:30:31  5-MIN KMSN 211230Z 29004KT 8SM CLR M01/M03 A3033 490 81 -1200 290/04 RMK AO2
14837KMSN MSN20041121063509511/21/04 06:35:31  5-MIN KMSN 211235Z 28004KT 8SM CLR M01/M03 A3033 480 81 -1200 280/04 RMK AO2
14837KMSN MSN20041121064009511/21/04 06:40:31  5-MIN KMSN 211240Z 28003KT 8SM CLR M01/M03 A3034 480 81 -1200 280/03 RMK AO2
14837KMSN MSN20041121064509511/21/04 06:45:31  5-MIN KMSN 211245Z 28004KT 8SM CLR M01/M03 A3034 480 81 -1200 280/04 RMK AO2
14837KMSN MSN20041121065011211/21/04 06:50:31  5-MIN KMSN 211250Z 28005KT 8SM CLR M01/M03 A3034 480 81 -1200 280/05 RMK AO2 SLP282 T10061033
14837KMSN MSN20041121065509811/21/04 06:55:31  5-MIN KMSN 211255Z 28005KT 7SM FEW120 M01/M03 A3034 480 81 -1200 280/05 RMK AO2
14837KMSN MSN20041121070009811/21/04 07:00:31  5-MIN KMSN 211300Z 28005KT 7SM SCT120 M01/M03 A3034 480 81 -1200 270/05 RMK AO2
14837KMSN MSN20041121070510111/21/04 07:05:31  5-MIN KMSN 211305Z 29005KT 6SM HZ BKN120 M01/M03 A3034 480 81 -1200 290/05 RMK AO2
14837KMSN MSN20041121071010111/21/04 07:10:31  5-MIN KMSN 211310Z 28005KT 6SM HZ BKN120 M01/M03 A3034 480 81 -1200 280/05 RMK AO2
14837KMSN MSN20041121071509811/21/04 07:15:31  5-MIN KMSN 211315Z 28004KT 7SM BKN120 M01/M03 A3035 470 85 -1200 270/04 RMK AO2
14837KMSN MSN20041121072009811/21/04 07:20:31  5-MIN KMSN 211320Z 28005KT 7SM OVC120 M01/M03 A3035 470 85 -1200 280/05 RMK AO2
14837KMSN MSN20041121072509711/21/04 07:25:31  5-MIN KMSN 211325Z 28006KT 7SM OVC120 00/M03 A3035 470 81 -1200 280/06 RMK AO2
14837KMSN MSN20041121073009711/21/04 07:30:31  5-MIN KMSN 211330Z 28005KT 7SM OVC120 00/M03 A3035 470 81 -1200 280/05 RMK AO2
14837KMSN MSN20041121073509711/21/04 07:35:31  5-MIN KMSN 211335Z 28005KT 7SM OVC120 00/M03 A3035 470 81 -1200 280/05 RMK AO2
14837KMSN MSN20041121074009711/21/04 07:40:31  5-MIN KMSN 211340Z 29005KT 7SM OVC120 00/M03 A3035 470 81 -1200 280/05 RMK AO2
14837KMSN MSN20041121074509711/21/04 07:45:31  5-MIN KMSN 211345Z 29005KT 7SM OVC120 00/M03 A3035 470 81 -1200 290/05 RMK AO2
14837KMSN MSN20041121075011411/21/04 07:50:31  5-MIN KMSN 211350Z 28005KT 7SM BKN120 00/M03 A3035 470 81 -1200 280/05 RMK AO2 SLP286 T00001028
14837KMSN MSN20041121075509711/21/04 07:55:31  5-MIN KMSN 211355Z 28004KT 7SM OVC120 00/M03 A3035 470 81 -1200 280/04 RMK AO2
14837KMSN MSN20041121080010011/21/04 08:00:31  5-MIN KMSN 211400Z 29004KT 6SM HZ OVC110 00/M03 A3035 470 81 -1200 290/04 RMK AO2
14837KMSN MSN20041121080509711/21/04 08:05:31  5-MIN KMSN 211405Z 28005KT 8SM BKN110 00/M03 A3035 470 81 -1200 280/05 RMK AO2
14837KMSN MSN20041121081009711/21/04 08:10:31  5-MIN KMSN 211410Z 27005KT 8SM BKN110 00/M03 A3035 470 81 -1200 270/05 RMK AO2
14837KMSN MSN20041121081509711/21/04 08:15:31  5-MIN KMSN 211415Z 29005KT 8SM BKN110 00/M02 A3035 470 85 -1200 290/05 RMK AO2
14837KMSN MSN20041121082009711/21/04 08:20:31  5-MIN KMSN 211420Z 28005KT 8SM BKN120 01/M02 A3035 470 82 -1100 280/05 RMK AO2
14837KMSN MSN20041121082509711/21/04 08:25:31  5-MIN KMSN 211425Z 27005KT 8SM BKN120 01/M02 A3035 470 82 -1100 270/05 RMK AO2
14837KMSN MSN20041121083009711/21/04 08:30:31  5-MIN KMSN 211430Z 27007KT 8SM BKN120 01/M02 A3035 460 78 -1000 270/07 RMK AO2
14837KMSN MSN20041121083509711/21/04 08:35:31  5-MIN KMSN 211435Z 28006KT 8SM BKN120 01/M02 A3036 460 78 -1000 280/06 RMK AO2
14837KMSN MSN20041121084009711/21/04 08:40:31  5-MIN KMSN 211440Z 28005KT 8SM BKN120 01/M02 A3035 470 78 -1000 280/05 RMK AO2
14837KMSN MSN20041121084509711/21/04 08:45:31  5-MIN KMSN 211445Z 29005KT 8SM BKN120 01/M02 A3035 470 78 -1000 290/05 RMK AO2
14837KMSN MSN20041121085012011/21/04 08:50:31  5-MIN KMSN 211450Z 27003KT 8SM BKN120 01/M02 A3035 470 82 -1000 270/03 RMK AO2 SLP286 T00111017 53007
14837KMSN MSN20041121085509711/21/04 08:55:31  5-MIN KMSN 211455Z 26003KT 7SM BKN120 01/M02 A3035 470 78 -1000 260/03 RMK AO2
14837KMSN MSN20041121090009711/21/04 09:00:31  5-MIN KMSN 211500Z 27004KT 8SM BKN120 01/M02 A3035 470 78 -1000 270/04 RMK AO2
14837KMSN MSN20041121090509711/21/04 09:05:31  5-MIN KMSN 211505Z 27004KT 8SM BKN120 01/M02 A3035 470 78 -1000 270/04 RMK AO2
14837KMSN MSN20041121091009711/21/04 09:10:31  5-MIN KMSN 211510Z 29004KT 8SM SCT120 01/M02 A3035 470 78 -1000 290/04 RMK AO2
14837KMSN MSN20041121091509711/21/04 09:15:31  5-MIN KMSN 211515Z 00000KT 8SM SCT120 01/M02 A3035 470 82 -1000 000/00 RMK AO2
14837KMSN MSN20041121092009711/21/04 09:20:31  5-MIN KMSN 211520Z 29004KT 8SM FEW120 02/M02 A3035 470 78 -1000 290/04 RMK AO2
14837KMSN MSN20041121092509711/21/04 09:25:31  5-MIN KMSN 211525Z 28003KT 8SM FEW110 02/M02 A3036 460 78 -1000 280/03 RMK AO2
14837KMSN MSN20041121093009711/21/04 09:30:31  5-MIN KMSN 211530Z 30004KT 8SM FEW120 02/M02 A3035 470 78 -1000 300/04 RMK AO2
14837KMSN MSN20041121093509711/21/04 09:35:31  5-MIN KMSN 211535Z 27004KT 8SM SCT110 02/M02 A3035 470 78 -1000 270/04 RMK AO2
14837KMSN MSN20041121094009711/21/04 09:40:31  5-MIN KMSN 211540Z 28004KT 8SM SCT110 02/M02 A3035 460 78 -1000 280/04 RMK AO2
14837KMSN MSN20041121094509611/21/04 09:45:31  5-MIN KMSN 211545Z 27003KT 8SM BKN110 02/M02 A3036 460 75 -900 270/03 RMK AO2
14837KMSN MSN20041121095011311/21/04 09:50:31  5-MIN KMSN 211550Z 29004KT 8SM SCT110 02/M02 A3036 460 75 -900 290/04 RMK AO2 SLP288 T00221017
14837KMSN MSN20041121095509611/21/04 09:55:31  5-MIN KMSN 211555Z 27005KT 8SM SCT110 02/M01 A3036 460 78 -900 260/05 RMK AO2
14837KMSN MSN20041121100009611/21/04 10:00:31  5-MIN KMSN 211600Z 28004KT 8SM BKN110 02/M01 A3036 460 78 -900 270/04 RMK AO2
14837KMSN MSN20041121100509611/21/04 10:05:31  5-MIN KMSN 211605Z 29004KT 8SM BKN110 02/M01 A3037 450 78 -900 280/04 RMK AO2
14837KMSN MSN20041121101009611/21/04 10:10:31  5-MIN KMSN 211610Z 29005KT 8SM BKN110 02/M02 A3037 450 75 -900 290/05 RMK AO2
14837KMSN MSN20041121101509611/21/04 10:15:31  5-MIN KMSN 211615Z 27005KT 8SM BKN110 03/M01 A3037 450 75 -800 270/05 RMK AO2
14837KMSN MSN20041121102009611/21/04 10:20:31  5-MIN KMSN 211620Z 28005KT 8SM BKN110 02/M01 A3037 450 78 -900 280/05 RMK AO2
14837KMSN MSN20041121102509611/21/04 10:25:31  5-MIN KMSN 211625Z 25004KT 8SM BKN120 02/M02 A3037 450 75 -900 250/04 RMK AO2
14837KMSN MSN20041121103009611/21/04 10:30:31  5-MIN KMSN 211630Z 26005KT 8SM BKN110 03/M02 A3037 450 72 -800 260/05 RMK AO2
14837KMSN MSN20041121103510311/21/04 10:35:31  5-MIN KMSN 211635Z 28005KT 9SM SCT100 BKN110 03/M02 A3038 450 72 -800 280/05 RMK AO2
14837KMSN MSN20041121104010311/21/04 10:40:31  5-MIN KMSN 211640Z 28005KT 9SM BKN090 BKN120 03/M02 A3037 450 72 -800 270/05 RMK AO2
14837KMSN MSN20041121104510311/21/04 10:45:31  5-MIN KMSN 211645Z 28005KT 9SM BKN090 BKN120 03/M02 A3038 440 72 -800 280/05 RMK AO2
14837KMSN MSN20041121105011311/21/04 10:50:31  5-MIN KMSN 211650Z VRB06KT 9SM BKN095 03/M02 A3038 450 72 -800 VRB/06 RMK AO2 SLP294 T00281017
14837KMSN MSN20041121105509611/21/04 10:55:31  5-MIN KMSN 211655Z 24005KT 9SM SCT090 03/M02 A3037 450 69 -800 240/05 RMK AO2
14837KMSN MSN20041121110009611/21/04 11:00:31  5-MIN KMSN 211700Z 23004KT 8SM SCT090 03/M02 A3037 450 72 -800 230/04 RMK AO2
14837KMSN MSN20041121110509611/21/04 11:05:31  5-MIN KMSN 211705Z 24005KT 8SM FEW090 03/M02 A3037 450 70 -800 240/05 RMK AO2
14837KMSN MSN20041121111010311/21/04 11:10:31  5-MIN KMSN 211710Z 26005KT 9SM FEW090 SCT110 03/M03 A3037 450 64 -800 260/05 RMK AO2
14837KMSN MSN20041121111510411/21/04 11:15:31  5-MIN KMSN 211715Z VRB04KT 10SM FEW090 SCT110 03/M02 A3037 450 67 -800 VRB/04 RMK AO2
14837KMSN MSN20041121112010411/21/04 11:20:31  5-MIN KMSN 211720Z VRB05KT 10SM FEW090 SCT110 03/M02 A3037 450 67 -800 VRB/05 RMK AO2
14837KMSN MSN20041121112510411/21/04 11:25:31  5-MIN KMSN 211725Z 24007KT 10SM FEW090 SCT110 03/M03 A3037 450 64 -800 240/07 RMK AO2
14837KMSN MSN20041121113010411/21/04 11:30:31  5-MIN KMSN 211730Z 27005KT 10SM FEW090 SCT110 03/M03 A3037 450 64 -800 270/05 RMK AO2
14837KMSN MSN20041121113510411/21/04 11:35:31  5-MIN KMSN 211735Z 27008KT 10SM FEW090 SCT110 03/M03 A3036 460 64 -800 270/08 RMK AO2
14837KMSN MSN20041121114010411/21/04 11:40:31  5-MIN KMSN 211740Z VRB04KT 10SM FEW090 SCT110 03/M03 A3036 460 64 -800 VRB/04 RMK AO2
14837KMSN MSN20041121114510411/21/04 11:45:31  5-MIN KMSN 211745Z VRB06KT 10SM FEW090 SCT110 03/M03 A3036 460 64 -800 VRB/06 RMK AO2
14837KMSN MSN20041121115013911/21/04 11:50:31  5-MIN KMSN 211750Z 27007KT 10SM FEW090 SCT110 03/M03 A3036 460 64 -700 270/07 RMK AO2 SLP288 T00331028 10033 21011 51008
14837KMSN MSN20041121115509711/21/04 11:55:31  5-MIN KMSN 211755Z 29007KT 10SM BKN100 03/M03 A3035 470 61 -700 290/07 RMK AO2
14837KMSN MSN20041121120009711/21/04 12:00:31  5-MIN KMSN 211800Z 28005KT 10SM BKN100 04/M03 A3035 470 62 -700 270/05 RMK AO2
14837KMSN MSN20041121120509711/21/04 12:05:31  5-MIN KMSN 211805Z 28005KT 10SM OVC100 04/M03 A3035 470 59 -600 280/05 RMK AO2
14837KMSN MSN20041121121009711/21/04 12:10:31  5-MIN KMSN 211810Z 29009KT 10SM BKN100 04/M03 A3034 480 59 -600 290/09 RMK AO2
14837KMSN MSN20041121121509711/21/04 12:15:31  5-MIN KMSN 211815Z 28007KT 10SM BKN100 04/M03 A3034 480 59 -700 280/07 RMK AO2
14837KMSN MSN20041121122009711/21/04 12:20:31  5-MIN KMSN 211820Z VRB06KT 10SM BKN100 04/M03 A3034 480 59 -700 VRB/06 RMK AO2
14837KMSN MSN20041121122509711/21/04 12:25:31  5-MIN KMSN 211825Z 28006KT 10SM BKN100 04/M03 A3034 480 59 -700 270/06 RMK AO2
14837KMSN MSN20041121123009711/21/04 12:30:31  5-MIN KMSN 211830Z VRB06KT 10SM SCT100 04/M03 A3034 480 59 -700 VRB/06 RMK AO2
14837KMSN MSN20041121123511311/21/04 12:35:31  5-MIN KMSN 211835Z 28007KT 230V310 10SM FEW100 04/M03 A3034 480 57 -600 280/07 230V310 RMK AO2
14837KMSN MSN20041121124009711/21/04 12:40:31  5-MIN KMSN 211840Z 27007KT 10SM FEW100 04/M03 A3034 480 57 -600 260/07 RMK AO2
14837KMSN MSN20041121124509411/21/04 12:45:31  5-MIN KMSN 211845Z 26008KT 10SM CLR 04/M03 A3033 490 59 -700 260/08 RMK AO2
14837KMSN MSN20041121125011111/21/04 12:50:31  5-MIN KMSN 211850Z 27007KT 10SM CLR 04/M03 A3033 490 59 -700 270/07 RMK AO2 SLP280 T00391033
14837KMSN MSN20041121125509711/21/04 12:55:31  5-MIN KMSN 211855Z 26007KT 10SM FEW100 04/M03 A3033 490 59 -600 260/07 RMK AO2
14837KMSN MSN20041121130009711/21/04 13:00:31  5-MIN KMSN 211900Z 28007KT 10SM FEW100 04/M03 A3033 490 59 -600 280/07 RMK AO2
14837KMSN MSN20041121130509711/21/04 13:05:31  5-MIN KMSN 211905Z VRB06KT 10SM SCT100 04/M02 A3033 490 62 -600 VRB/06 RMK AO2
14837KMSN MSN20041121131009711/21/04 13:10:31  5-MIN KMSN 211910Z 27006KT 10SM BKN100 04/M03 A3033 490 59 -600 260/06 RMK AO2
14837KMSN MSN20041121131509711/21/04 13:15:31  5-MIN KMSN 211915Z 25007KT 10SM BKN100 04/M03 A3032 490 59 -600 250/07 RMK AO2
14837KMSN MSN20041121132009711/21/04 13:20:31  5-MIN KMSN 211920Z 28005KT 10SM BKN100 04/M03 A3032 500 59 -600 280/05 RMK AO2
14837KMSN MSN20041121132509711/21/04 13:25:31  5-MIN KMSN 211925Z 26006KT 10SM BKN100 04/M03 A3032 500 57 -600 260/06 RMK AO2
14837KMSN MSN20041121133009711/21/04 13:30:31  5-MIN KMSN 211930Z 24008KT 10SM BKN095 04/M03 A3032 500 57 -600 240/08 RMK AO2
14837KMSN MSN20041121133509711/21/04 13:35:31  5-MIN KMSN 211935Z VRB06KT 10SM BKN095 04/M03 A3032 500 57 -600 VRB/06 RMK AO2
14837KMSN MSN20041121134009711/21/04 13:40:31  5-MIN KMSN 211940Z 27007KT 10SM BKN095 04/M04 A3032 500 55 -600 270/07 RMK AO2
14837KMSN MSN20041121134509711/21/04 13:45:31  5-MIN KMSN 211945Z VRB06KT 10SM SCT095 04/M03 A3031 500 57 -600 VRB/06 RMK AO2
14837KMSN MSN20041121135013011/21/04 13:50:31  5-MIN KMSN 211950Z 25007KT 210V280 10SM BKN095 04/M04 A3031 500 55 -600 250/07 210V280 RMK AO2 SLP274 T00441039
14837KMSN MSN20041121135509711/21/04 13:55:31  5-MIN KMSN 211955Z VRB06KT 10SM BKN095 04/M04 A3031 500 55 -600 VRB/06 RMK AO2
14837KMSN MSN20041121140009711/21/04 14:00:31  5-MIN KMSN 212000Z VRB06KT 10SM BKN095 04/M04 A3031 510 55 -600 VRB/06 RMK AO2
14837KMSN MSN20041121140509711/21/04 14:05:31  5-MIN KMSN 212005Z 28007KT 10SM BKN090 04/M04 A3031 510 55 -600 280/07 RMK AO2
14837KMSN MSN20041121141009711/21/04 14:10:31  5-MIN KMSN 212010Z 28008KT 10SM BKN095 05/M04 A3030 510 52 -500 280/08 RMK AO2
14837KMSN MSN20041121141509711/21/04 14:15:31  5-MIN KMSN 212015Z VRB04KT 10SM BKN095 05/M03 A3030 510 55 -500 VRB/04 RMK AO2
14837KMSN MSN20041121142009711/21/04 14:20:31  5-MIN KMSN 212020Z 27009KT 10SM BKN095 04/M04 A3030 510 55 -500 270/09 RMK AO2
14837KMSN MSN20041121142509711/21/04 14:25:31  5-MIN KMSN 212025Z 27008KT 10SM SCT095 04/M04 A3030 510 52 -600 270/08 RMK AO2
14837KMSN MSN20041121143009711/21/04 14:30:31  5-MIN KMSN 212030Z 27008KT 10SM SCT095 04/M04 A3030 520 52 -500 270/08 RMK AO2
14837KMSN MSN20041121143509711/21/04 14:35:31  5-MIN KMSN 212035Z 29009KT 10SM FEW095 05/M04 A3030 520 50 -500 290/09 RMK AO2
14837KMSN MSN20041121144009711/21/04 14:40:31  5-MIN KMSN 212040Z 28007KT 10SM FEW095 04/M04 A3029 520 55 -500 280/07 RMK AO2
14837KMSN MSN20041121144509411/21/04 14:45:31  5-MIN KMSN 212045Z 28005KT 10SM CLR 04/M04 A3029 520 55 -500 280/05 RMK AO2
14837KMSN MSN20041121145011711/21/04 14:50:31  5-MIN KMSN 212050Z 29006KT 10SM CLR 04/M04 A3029 530 55 -500 290/06 RMK AO2 SLP264 T00441039 50001
14837KMSN MSN20041121145511311/21/04 14:55:31  5-MIN KMSN 212055Z 29007KT 260V350 10SM FEW095 05/M03 A3029 530 55 -500 290/07 260V350 RMK AO2
14837KMSN MSN20041121150011311/21/04 15:00:31  5-MIN KMSN 212100Z 29007KT 260V320 10SM FEW095 05/M04 A3029 530 52 -500 290/07 260V320 RMK AO2
14837KMSN MSN20041121150509711/21/04 15:05:31  5-MIN KMSN 212105Z 28007KT 10SM FEW095 05/M04 A3029 530 52 -500 270/07 RMK AO2
14837KMSN MSN20041121151009711/21/04 15:10:31  5-MIN KMSN 212110Z 27006KT 10SM FEW095 05/M04 A3029 530 52 -500 270/06 RMK AO2
14837KMSN MSN20041121151509711/21/04 15:15:31  5-MIN KMSN 212115Z VRB06KT 10SM FEW095 04/M04 A3029 530 55 -500 VRB/06 RMK AO2
14837KMSN MSN20041121152009711/21/04 15:20:31  5-MIN KMSN 212120Z 27006KT 10SM FEW095 04/M04 A3029 530 55 -500 270/06 RMK AO2
14837KMSN MSN20041121152509711/21/04 15:25:31  5-MIN KMSN 212125Z 27006KT 10SM FEW095 04/M04 A3029 530 52 -500 270/06 RMK AO2
14837KMSN MSN20041121153009711/21/04 15:30:31  5-MIN KMSN 212130Z 27006KT 10SM FEW095 04/M04 A3029 530 55 -500 270/06 RMK AO2
14837KMSN MSN20041121153509711/21/04 15:35:31  5-MIN KMSN 212135Z VRB03KT 10SM FEW095 04/M04 A3029 530 55 -500 VRB/03 RMK AO2
14837KMSN MSN20041121154009711/21/04 15:40:31  5-MIN KMSN 212140Z VRB05KT 10SM FEW095 04/M04 A3029 520 55 -500 VRB/05 RMK AO2
14837KMSN MSN20041121154509711/21/04 15:45:31  5-MIN KMSN 212145Z VRB06KT 10SM FEW095 04/M04 A3029 530 55 -500 VRB/06 RMK AO2
14837KMSN MSN20041121155011411/21/04 15:50:31  5-MIN KMSN 212150Z VRB06KT 10SM FEW095 04/M04 A3029 530 52 -500 VRB/06 RMK AO2 SLP265 T00441044
14837KMSN MSN20041121155509711/21/04 15:55:31  5-MIN KMSN 212155Z VRB05KT 10SM OVC110 04/M04 A3028 530 55 -500 VRB/05 RMK AO2
14837KMSN MSN20041121160009711/21/04 16:00:31  5-MIN KMSN 212200Z 27003KT 10SM OVC110 04/M04 A3028 530 55 -500 270/03 RMK AO2
14837KMSN MSN20041121160509711/21/04 16:05:31  5-MIN KMSN 212205Z 26005KT 10SM BKN120 04/M04 A3028 530 55 -500 260/05 RMK AO2
14837KMSN MSN20041121161009711/21/04 16:10:31  5-MIN KMSN 212210Z 00000KT 10SM BKN120 04/M04 A3028 530 55 -500 000/00 RMK AO2
14837KMSN MSN20041121161509711/21/04 16:15:31  5-MIN KMSN 212215Z 26004KT 10SM BKN120 04/M04 A3028 530 57 -600 260/04 RMK AO2
14837KMSN MSN20041121162009711/21/04 16:20:31  5-MIN KMSN 212220Z VRB03KT 10SM SCT120 04/M04 A3028 530 57 -600 VRB/03 RMK AO2
14837KMSN MSN20041121162509711/21/04 16:25:31  5-MIN KMSN 212225Z VRB03KT 10SM SCT120 04/M04 A3028 530 54 -600 VRB/03 RMK AO2
14837KMSN MSN20041121163009711/21/04 16:30:31  5-MIN KMSN 212230Z 00000KT 10SM FEW120 04/M04 A3028 530 54 -600 000/00 RMK AO2
14837KMSN MSN20041121163509711/21/04 16:35:31  5-MIN KMSN 212235Z 00000KT 10SM FEW120 04/M04 A3028 530 54 -600 000/00 RMK AO2
14837KMSN MSN20041121164009711/21/04 16:40:31  5-MIN KMSN 212240Z 00000KT 10SM SCT120 03/M04 A3028 530 59 -700 000/00 RMK AO2
14837KMSN MSN20041121164509711/21/04 16:45:31  5-MIN KMSN 212245Z 00000KT 10SM SCT120 03/M04 A3028 530 59 -700 000/00 RMK AO2
14837KMSN MSN20041121165011411/21/04 16:50:31  5-MIN KMSN 212250Z 00000KT 10SM BKN120 03/M04 A3028 540 59 -700 000/00 RMK AO2 SLP262 T00331039
14837KMSN MSN20041121165509711/21/04 16:55:31  5-MIN KMSN 212255Z 00000KT 10SM BKN120 03/M03 A3028 540 64 -700 000/00 RMK AO2
14837KMSN MSN20041121170009711/21/04 17:00:31  5-MIN KMSN 212300Z 00000KT 10SM BKN120 03/M03 A3028 540 64 -700 000/00 RMK AO2
14837KMSN MSN20041121170509711/21/04 17:05:31  5-MIN KMSN 212305Z 00000KT 10SM BKN120 03/M03 A3028 540 64 -700 000/00 RMK AO2
14837KMSN MSN20041121171009711/21/04 17:10:31  5-MIN KMSN 212310Z 00000KT 10SM BKN120 03/M03 A3028 540 64 -700 000/00 RMK AO2
14837KMSN MSN20041121171509711/21/04 17:15:31  5-MIN KMSN 212315Z 00000KT 10SM BKN120 02/M03 A3028 530 67 -800 000/00 RMK AO2
14837KMSN MSN20041121172009711/21/04 17:20:31  5-MIN KMSN 212320Z 00000KT 10SM BKN120 02/M03 A3028 530 67 -800 000/00 RMK AO2
14837KMSN MSN20041121172509711/21/04 17:25:31  5-MIN KMSN 212325Z 28003KT 10SM BKN120 02/M04 A3028 530 64 -800 280/03 RMK AO2
14837KMSN MSN20041121173009711/21/04 17:30:31  5-MIN KMSN 212330Z 00000KT 10SM BKN120 02/M03 A3028 530 69 -900 000/00 RMK AO2
14837KMSN MSN20041121173509711/21/04 17:35:31  5-MIN KMSN 212335Z 00000KT 10SM BKN120 02/M03 A3028 530 67 -800 000/00 RMK AO2
14837KMSN MSN20041121174009711/21/04 17:40:31  5-MIN KMSN 212340Z 00000KT 10SM BKN120 02/M03 A3028 530 67 -800 000/00 RMK AO2
14837KMSN MSN20041121174509711/21/04 17:45:31  5-MIN KMSN 212345Z 27003KT 10SM BKN120 02/M03 A3028 530 67 -800 270/03 RMK AO2
14837KMSN MSN20041121175013211/21/04 17:50:31  5-MIN KMSN 212350Z 26003KT 10SM BKN120 02/M03 A3028 530 67 -800 260/03 RMK AO2 SLP264 T00221033 10050 20017 58022
14837KMSN MSN20041121175509711/21/04 17:55:31  5-MIN KMSN 212355Z 27003KT 10SM SCT120 03/M04 A3028 530 61 -700 270/03 RMK AO2
14837KMSN MSN20041121180009711/21/04 18:00:31  5-MIN KMSN 220000Z 27004KT 10SM SCT120 02/M04 A3028 530 64 -800 270/04 RMK AO2
14837KMSN MSN20041121180509711/21/04 18:05:31  5-MIN KMSN 220005Z 26004KT 10SM FEW120 02/M04 A3028 530 64 -800 260/04 RMK AO2
14837KMSN MSN20041121181009411/21/04 18:10:31  5-MIN KMSN 220010Z 28003KT 10SM CLR 02/M03 A3028 530 69 -900 270/03 RMK AO2
14837KMSN MSN20041121181509411/21/04 18:15:31  5-MIN KMSN 220015Z 28005KT 10SM CLR 02/M04 A3028 530 66 -900 280/05 RMK AO2
14837KMSN MSN20041121182009411/21/04 18:20:31  5-MIN KMSN 220020Z 27005KT 10SM CLR 02/M04 A3028 530 66 -900 270/05 RMK AO2
14837KMSN MSN20041121182509411/21/04 18:25:31  5-MIN KMSN 220025Z 27003KT 10SM CLR 02/M04 A3028 530 64 -800 270/03 RMK AO2
14837KMSN MSN20041121183009411/21/04 18:30:31  5-MIN KMSN 220030Z 28004KT 10SM CLR 01/M03 A3028 530 72 -900 280/04 RMK AO2
14837KMSN MSN20041121183509411/21/04 18:35:31  5-MIN KMSN 220035Z 26004KT 10SM CLR 01/M03 A3028 530 72 -900 260/04 RMK AO2
14837KMSN MSN20041121184009411/21/04 18:40:31  5-MIN KMSN 220040Z 00000KT 10SM CLR 02/M04 A3028 530 64 -800 000/00 RMK AO2
14837KMSN MSN20041121184509411/21/04 18:45:31  5-MIN KMSN 220045Z 00000KT 10SM CLR 02/M04 A3028 540 64 -800 000/00 RMK AO2
14837KMSN MSN20041121185011111/21/04 18:50:31  5-MIN KMSN 220050Z 27003KT 10SM CLR 01/M03 A3028 530 72 -900 270/03 RMK AO2 SLP264 T00111033
14837KMSN MSN20041121185509411/21/04 18:55:31  5-MIN KMSN 220055Z 00000KT 10SM CLR 01/M03 A3028 540 72 -900 000/00 RMK AO2
14837KMSN MSN20041121190009411/21/04 19:00:31  5-MIN KMSN 220100Z 00000KT 10SM CLR 02/M04 A3028 540 66 -900 000/00 RMK AO2
14837KMSN MSN20041121190509411/21/04 19:05:31  5-MIN KMSN 220105Z 00000KT 10SM CLR 02/M03 A3027 540 69 -900 000/00 RMK AO2
14837KMSN MSN20041121191009411/21/04 19:10:31  5-MIN KMSN 220110Z 00000KT 10SM CLR 01/M03 A3028 540 72 -900 000/00 RMK AO2
14837KMSN MSN20041121191509411/21/04 19:15:31  5-MIN KMSN 220115Z 00000KT 10SM CLR 01/M03 A3028 540 72 -900 000/00 RMK AO2
14837KMSN MSN20041121192009411/21/04 19:20:31  5-MIN KMSN 220120Z 00000KT 10SM CLR 01/M03 A3028 540 72 -900 000/00 RMK AO2
14837KMSN MSN20041121192509411/21/04 19:25:31  5-MIN KMSN 220125Z 27003KT 10SM CLR 01/M03 A3028 540 72 -900 270/03 RMK AO2
14837KMSN MSN20041121193009411/21/04 19:30:31  5-MIN KMSN 220130Z 00000KT 10SM CLR 01/M04 A3027 540 69 -900 000/00 RMK AO2
14837KMSN MSN20041121193509411/21/04 19:35:31  5-MIN KMSN 220135Z 00000KT 10SM CLR 02/M04 A3027 540 66 -900 000/00 RMK AO2
14837KMSN MSN20041121194009411/21/04 19:40:31  5-MIN KMSN 220140Z 00000KT 10SM CLR 01/M04 A3027 540 69 -900 000/00 RMK AO2
14837KMSN MSN20041121194509511/21/04 19:45:31  5-MIN KMSN 220145Z 00000KT 10SM CLR 01/M03 A3027 540 75 -1000 000/00 RMK AO2
14837KMSN MSN20041121195011211/21/04 19:50:31  5-MIN KMSN 220150Z 00000KT 10SM CLR 01/M03 A3027 540 75 -1000 000/00 RMK AO2 SLP260 T00061033
14837KMSN MSN20041121195509511/21/04 19:55:31  5-MIN KMSN 220155Z 00000KT 10SM CLR 01/M04 A3027 540 72 -1000 000/00 RMK AO2
14837KMSN MSN20041121200009511/21/04 20:00:31  5-MIN KMSN 220200Z 00000KT 10SM CLR 01/M04 A3027 540 72 -1000 000/00 RMK AO2
14837KMSN MSN20041121200509411/21/04 20:05:31  5-MIN KMSN 220205Z 00000KT 10SM CLR 01/M04 A3027 540 69 -900 000/00 RMK AO2
14837KMSN MSN20041121201009511/21/04 20:10:31  5-MIN KMSN 220210Z 00000KT 10SM CLR 01/M04 A3027 540 72 -1000 000/00 RMK AO2
14837KMSN MSN20041121201509511/21/04 20:15:31  5-MIN KMSN 220215Z 00000KT 10SM CLR 01/M04 A3027 540 72 -1000 000/00 RMK AO2
14837KMSN MSN20041121202009511/21/04 20:20:31  5-MIN KMSN 220220Z 00000KT 10SM CLR 01/M04 A3027 540 72 -1000 000/00 RMK AO2
14837KMSN MSN20041121202509511/21/04 20:25:31  5-MIN KMSN 220225Z 00000KT 10SM CLR 00/M04 A3027 540 75 -1100 000/00 RMK AO2
14837KMSN MSN20041121203009511/21/04 20:30:31  5-MIN KMSN 220230Z 00000KT 10SM CLR 00/M04 A3027 540 75 -1100 000/00 RMK AO2
14837KMSN MSN20041121203509611/21/04 20:35:31  5-MIN KMSN 220235Z 00000KT 10SM CLR M01/M04 A3027 540 78 -1100 000/00 RMK AO2
14837KMSN MSN20041121204009611/21/04 20:40:31  5-MIN KMSN 220240Z 00000KT 10SM CLR M01/M03 A3027 540 81 -1100 000/00 RMK AO2
14837KMSN MSN20041121204509611/21/04 20:45:31  5-MIN KMSN 220245Z 00000KT 10SM CLR M01/M04 A3027 540 78 -1100 000/00 RMK AO2
14837KMSN MSN20041121205011911/21/04 20:50:31  5-MIN KMSN 220250Z 00000KT 10SM CLR M01/M03 A3027 550 81 -1100 000/00 RMK AO2 SLP259 T10061033 55001
14837KMSN MSN20041121205509611/21/04 20:55:31  5-MIN KMSN 220255Z 00000KT 10SM CLR M01/M03 A3027 540 88 -1200 000/00 RMK AO2
14837KMSN MSN20041121210009611/21/04 21:00:31  5-MIN KMSN 220300Z 00000KT 10SM CLR M01/M03 A3027 550 88 -1200 000/00 RMK AO2
14837KMSN MSN20041121210509611/21/04 21:05:31  5-MIN KMSN 220305Z 00000KT 10SM CLR M01/M03 A3026 550 81 -1100 000/00 RMK AO2
14837KMSN MSN20041121211009611/21/04 21:10:31  5-MIN KMSN 220310Z 00000KT 10SM CLR M01/M04 A3026 550 78 -1100 000/00 RMK AO2
14837KMSN MSN20041121211509511/21/04 21:15:31  5-MIN KMSN 220315Z 00000KT 10SM CLR 00/M04 A3026 550 75 -1100 000/00 RMK AO2
14837KMSN MSN20041121212009511/21/04 21:20:31  5-MIN KMSN 220320Z 00000KT 10SM CLR 00/M04 A3026 550 75 -1100 000/00 RMK AO2
14837KMSN MSN20041121212509911/21/04 21:25:31  5-MIN KMSN 220325Z 00000KT 10SM FEW120 M01/M04 A3026 550 78 -1100 000/00 RMK AO2
14837KMSN MSN20041121213009911/21/04 21:30:31  5-MIN KMSN 220330Z 00000KT 10SM FEW120 M01/M04 A3026 550 78 -1100 000/00 RMK AO2
14837KMSN MSN20041121213509511/21/04 21:35:31  5-MIN KMSN 220335Z 00000KT 10SM CLR 00/M04 A3026 550 75 -1100 000/00 RMK AO2
14837KMSN MSN20041121214009511/21/04 21:40:31  5-MIN KMSN 220340Z 00000KT 10SM CLR 00/M04 A3025 560 75 -1100 000/00 RMK AO2
14837KMSN MSN20041121214509611/21/04 21:45:31  5-MIN KMSN 220345Z 00000KT 10SM CLR M01/M04 A3025 560 78 -1200 000/00 RMK AO2
14837KMSN MSN20041121215011611/21/04 21:50:31  5-MIN KMSN 220350Z 00000KT 10SM FEW110 M01/M04 A3025 560 81 -1200 000/00 RMK AO2 SLP253 T10111039
14837KMSN MSN20041121215509911/21/04 21:55:31  5-MIN KMSN 220355Z 00000KT 10SM SCT100 M01/M03 A3025 560 85 -1200 000/00 RMK AO2
14837KMSN MSN20041121220009911/21/04 22:00:31  5-MIN KMSN 220400Z 00000KT 10SM BKN110 M01/M04 A3025 560 78 -1100 000/00 RMK AO2
14837KMSN MSN20041121220509911/21/04 22:05:31  5-MIN KMSN 220405Z 00000KT 10SM BKN110 M01/M04 A3025 560 81 -1200 000/00 RMK AO2
14837KMSN MSN20041121221009911/21/04 22:10:31  5-MIN KMSN 220410Z 00000KT 10SM BKN100 M01/M04 A3025 560 78 -1200 000/00 RMK AO2
14837KMSN MSN20041121221509911/21/04 22:15:31  5-MIN KMSN 220415Z 00000KT 10SM OVC100 M01/M04 A3025 560 78 -1100 000/00 RMK AO2
14837KMSN MSN20041121222009911/21/04 22:20:31  5-MIN KMSN 220420Z 00000KT 10SM BKN100 M01/M04 A3025 560 81 -1200 000/00 RMK AO2
14837KMSN MSN20041121222509911/21/04 22:25:31  5-MIN KMSN 220425Z 00000KT 10SM BKN100 M01/M04 A3025 560 78 -1100 000/00 RMK AO2
14837KMSN MSN20041121223009911/21/04 22:30:31  5-MIN KMSN 220430Z 00000KT 10SM BKN100 M01/M04 A3025 560 78 -1100 000/00 RMK AO2
14837KMSN MSN20041121223509811/21/04 22:35:31  5-MIN KMSN 220435Z 00000KT 10SM BKN100 00/M03 A3025 560 78 -1000 000/00 RMK AO2
14837KMSN MSN20041121224009811/21/04 22:40:31  5-MIN KMSN 220440Z 00000KT 10SM BKN100 00/M03 A3024 570 78 -1000 000/00 RMK AO2
14837KMSN MSN20041121224509811/21/04 22:45:31  5-MIN KMSN 220445Z 00000KT 10SM BKN100 00/M03 A3024 570 78 -1000 000/00 RMK AO2
14837KMSN MSN20041121225011511/21/04 22:50:31  5-MIN KMSN 220450Z 00000KT 10SM BKN100 00/M03 A3024 570 78 -1000 000/00 RMK AO2 SLP250 T00001033
14837KMSN MSN20041121225509811/21/04 22:55:31  5-MIN KMSN 220455Z 00000KT 10SM BKN100 00/M03 A3024 570 81 -1000 000/00 RMK AO2
14837KMSN MSN20041121230009811/21/04 23:00:31  5-MIN KMSN 220500Z 00000KT 10SM BKN100 00/M03 A3024 570 81 -1000 000/00 RMK AO2
14837KMSN MSN20041121230509711/21/04 23:05:31  5-MIN KMSN 220505Z 00000KT 10SM BKN100 02/M03 A3024 570 69 -800 000/00 RMK AO2
14837KMSN MSN20041121231009711/21/04 23:10:31  5-MIN KMSN 220510Z 00000KT 10SM BKN100 02/M03 A3024 570 72 -800 000/00 RMK AO2
14837KMSN MSN20041121231509711/21/04 23:15:31  5-MIN KMSN 220515Z 00000KT 10SM BKN100 01/M03 A3024 570 75 -900 000/00 RMK AO2
14837KMSN MSN20041121232009711/21/04 23:20:31  5-MIN KMSN 220520Z 00000KT 10SM BKN100 01/M03 A3024 570 75 -900 000/00 RMK AO2
14837KMSN MSN20041121232509711/21/04 23:25:31  5-MIN KMSN 220525Z 00000KT 10SM BKN100 01/M03 A3024 570 75 -900 000/00 RMK AO2
14837KMSN MSN20041121233009811/21/04 23:30:31  5-MIN KMSN 220530Z 00000KT 10SM BKN100 01/M03 A3023 580 78 -1000 000/00 RMK AO2
14837KMSN MSN20041121233509711/21/04 23:35:31  5-MIN KMSN 220535Z 00000KT 10SM BKN100 01/M03 A3023 580 75 -900 000/00 RMK AO2
14837KMSN MSN20041121234009711/21/04 23:40:31  5-MIN KMSN 220540Z 00000KT 10SM BKN100 01/M03 A3023 580 75 -900 000/00 RMK AO2
14837KMSN MSN20041121234509711/21/04 23:45:31  5-MIN KMSN 220545Z 00000KT 10SM BKN100 02/M03 A3023 580 72 -800 000/00 RMK AO2
14837KMSN MSN20041121235014211/21/04 23:50:31  5-MIN KMSN 220550Z 00000KT 10SM BKN100 01/M03 A3023 580 75 -900 000/00 RMK AO2 SLP245 T00111028 10028 21017 400501017 56005
14837KMSN MSN20041121235509711/21/04 23:55:31  5-MIN KMSN 220555Z 00000KT 10SM BKN100 01/M03 A3022 580 75 -900 000/00 RMK AO2
14837KMSN MSN20041122000009711/22/04 00:00:31  5-MIN KMSN 220600Z 00000KT 10SM BKN100 01/M03 A3022 590 75 -900 000/00 RMK AO2
14837KMSN MSN20041122000509711/22/04 00:05:31  5-MIN KMSN 220605Z VRB03KT 10SM BKN100 01/M03 A3022 590 75 -900 VRB/03 RMK AO2
14837KMSN MSN20041122001009711/22/04 00:10:31  5-MIN KMSN 220610Z 00000KT 10SM BKN100 01/M03 A3022 590 78 -900 000/00 RMK AO2
14837KMSN MSN20041122001509711/22/04 00:15:31  5-MIN KMSN 220615Z 00000KT 10SM BKN100 01/M03 A3021 590 78 -900 000/00 RMK AO2
14837KMSN MSN20041122002009711/22/04 00:20:31  5-MIN KMSN 220620Z 29003KT 10SM BKN100 01/M03 A3021 600 78 -900 290/03 RMK AO2
14837KMSN MSN20041122002509711/22/04 00:25:31  5-MIN KMSN 220625Z 30003KT 10SM OVC100 01/M03 A3021 600 75 -900 300/03 RMK AO2
14837KMSN MSN20041122003009711/22/04 00:30:31  5-MIN KMSN 220630Z 00000KT 10SM OVC100 01/M03 A3021 600 78 -900 000/00 RMK AO2
14837KMSN MSN20041122003509711/22/04 00:35:31  5-MIN KMSN 220635Z 00000KT 10SM OVC100 01/M03 A3021 600 75 -900 000/00 RMK AO2
14837KMSN MSN20041122004009711/22/04 00:40:31  5-MIN KMSN 220640Z 00000KT 10SM OVC100 01/M03 A3021 600 75 -900 000/00 RMK AO2
14837KMSN MSN20041122004509711/22/04 00:45:31  5-MIN KMSN 220645Z 00000KT 10SM OVC100 01/M03 A3020 600 75 -900 000/00 RMK AO2
14837KMSN MSN20041122005011411/22/04 00:50:31  5-MIN KMSN 220650Z 00000KT 10SM OVC100 01/M03 A3020 600 75 -900 000/00 RMK AO2 SLP235 T00111028
14837KMSN MSN20041122005509711/22/04 00:55:31  5-MIN KMSN 220655Z 00000KT 10SM OVC100 01/M03 A3020 610 75 -900 000/00 RMK AO2
14837KMSN MSN20041122010009711/22/04 01:00:31  5-MIN KMSN 220700Z 00000KT 10SM OVC100 02/M03 A3020 610 72 -800 000/00 RMK AO2
14837KMSN MSN20041122010509711/22/04 01:05:31  5-MIN KMSN 220705Z 00000KT 10SM OVC100 02/M03 A3020 610 72 -800 000/00 RMK AO2
14837KMSN MSN20041122011009711/22/04 01:10:31  5-MIN KMSN 220710Z 00000KT 10SM OVC100 01/M02 A3020 610 78 -800 000/00 RMK AO2
14837KMSN MSN20041122011509711/22/04 01:15:31  5-MIN KMSN 220715Z VRB03KT 10SM OVC100 02/M03 A3020 610 72 -800 VRB/03 RMK AO2
14837KMSN MSN20041122012009711/22/04 01:20:31  5-MIN KMSN 220720Z 25003KT 10SM BKN100 02/M03 A3019 610 72 -800 250/03 RMK AO2
14837KMSN MSN20041122012509711/22/04 01:25:31  5-MIN KMSN 220725Z 00000KT 10SM BKN100 02/M03 A3019 610 72 -800 000/00 RMK AO2
14837KMSN MSN20041122013009711/22/04 01:30:31  5-MIN KMSN 220730Z 00000KT 10SM BKN095 01/M03 A3020 610 75 -800 000/00 RMK AO2
14837KMSN MSN20041122013509711/22/04 01:35:31  5-MIN KMSN 220735Z 28003KT 10SM BKN095 01/M02 A3020 610 85 -900 280/03 RMK AO2
14837KMSN MSN20041122014009711/22/04 01:40:31  5-MIN KMSN 220740Z 00000KT 10SM BKN095 01/M02 A3019 610 82 -900 000/00 RMK AO2
14837KMSN MSN20041122014509711/22/04 01:45:31  5-MIN KMSN 220745Z 00000KT 10SM BKN090 02/M03 A3020 610 72 -800 000/00 RMK AO2
14837KMSN MSN20041122015011411/22/04 01:50:31  5-MIN KMSN 220750Z 00000KT 10SM BKN090 02/M03 A3020 610 72 -800 000/00 RMK AO2 SLP234 T00171028
14837KMSN MSN20041122015509711/22/04 01:55:31  5-MIN KMSN 220755Z 00000KT 10SM OVC090 02/M02 A3020 610 75 -800 000/00 RMK AO2
14837KMSN MSN20041122020009711/22/04 02:00:31  5-MIN KMSN 220800Z 00000KT 10SM OVC090 02/M02 A3020 610 75 -800 000/00 RMK AO2
14837KMSN MSN20041122020509711/22/04 02:05:31  5-MIN KMSN 220805Z 00000KT 10SM OVC095 01/M02 A3020 610 78 -900 000/00 RMK AO2
14837KMSN MSN20041122021009711/22/04 02:10:31  5-MIN KMSN 220810Z 00000KT 10SM OVC090 02/M03 A3020 610 72 -800 000/00 RMK AO2
14837KMSN MSN20041122021509711/22/04 02:15:31  5-MIN KMSN 220815Z 00000KT 10SM OVC090 02/M03 A3020 600 72 -800 000/00 RMK AO2
14837KMSN MSN20041122022009711/22/04 02:20:31  5-MIN KMSN 220820Z 00000KT 10SM OVC090 02/M02 A3020 600 75 -800 000/00 RMK AO2
14837KMSN MSN20041122022509711/22/04 02:25:31  5-MIN KMSN 220825Z 00000KT 10SM OVC090 02/M02 A3020 610 75 -800 000/00 RMK AO2
14837KMSN MSN20041122023009711/22/04 02:30:31  5-MIN KMSN 220830Z 00000KT 10SM OVC090 02/M03 A3020 610 72 -800 000/00 RMK AO2
14837KMSN MSN20041122023509711/22/04 02:35:31  5-MIN KMSN 220835Z 00000KT 10SM OVC090 02/M03 A3020 610 72 -800 000/00 RMK AO2
14837KMSN MSN20041122024009711/22/04 02:40:31  5-MIN KMSN 220840Z 00000KT 10SM OVC085 02/M02 A3020 610 75 -800 000/00 RMK AO2
14837KMSN MSN20041122024509711/22/04 02:45:31  5-MIN KMSN 220845Z 00000KT 10SM OVC090 01/M02 A3020 610 82 -800 000/00 RMK AO2
14837KMSN MSN20041122025012711/22/04 02:50:31  5-MIN KMSN 220850Z 00000KT 10SM BKN080 OVC095 02/M03 A3020 610 72 -800 000/00 RMK AO2 SLP233 T00171028 56014
14837KMSN MSN20041122025510411/22/04 02:55:31  5-MIN KMSN 220855Z 00000KT 10SM BKN080 OVC095 01/M02 A3020 610 78 -800 000/00 RMK AO2
14837KMSN MSN20041122030010411/22/04 03:00:31  5-MIN KMSN 220900Z 00000KT 10SM BKN075 OVC095 01/M03 A3019 610 75 -800 000/00 RMK AO2
14837KMSN MSN20041122030510411/22/04 03:05:31  5-MIN KMSN 220905Z 00000KT 10SM BKN075 BKN095 01/M02 A3019 610 82 -800 000/00 RMK AO2
14837KMSN MSN20041122031010411/22/04 03:10:31  5-MIN KMSN 220910Z 00000KT 10SM BKN080 BKN100 01/M02 A3019 610 78 -800 000/00 RMK AO2
14837KMSN MSN20041122031510411/22/04 03:15:31  5-MIN KMSN 220915Z 00000KT 10SM BKN080 BKN100 01/M02 A3019 620 82 -800 000/00 RMK AO2
14837KMSN MSN20041122032009711/22/04 03:20:31  5-MIN KMSN 220920Z 00000KT 10SM BKN080 01/M02 A3019 620 78 -800 000/00 RMK AO2
14837KMSN MSN20041122032510411/22/04 03:25:31  5-MIN KMSN 220925Z 00000KT 10SM BKN080 BKN100 01/M02 A3018 620 82 -900 000/00 RMK AO2
14837KMSN MSN20041122033010411/22/04 03:30:31  5-MIN KMSN 220930Z 00000KT 10SM BKN085 BKN100 01/M02 A3018 620 85 -900 000/00 RMK AO2
14837KMSN MSN20041122033510411/22/04 03:35:31  5-MIN KMSN 220935Z 00000KT 10SM BKN090 BKN100 01/M03 A3018 620 78 -900 000/00 RMK AO2
14837KMSN MSN20041122034009711/22/04 03:40:31  5-MIN KMSN 220940Z 00000KT 10SM BKN085 01/M02 A3018 620 82 -900 000/00 RMK AO2
14837KMSN MSN20041122034510411/22/04 03:45:31  5-MIN KMSN 220945Z 00000KT 10SM SCT085 BKN110 01/M03 A3018 630 78 -900 000/00 RMK AO2
14837KMSN MSN20041122035012111/22/04 03:50:31  5-MIN KMSN 220950Z 00000KT 10SM SCT090 BKN110 01/M03 A3018 630 78 -900 000/00 RMK AO2 SLP226 T00061028
14837KMSN MSN20041122035510411/22/04 03:55:31  5-MIN KMSN 220955Z 00000KT 10SM SCT090 BKN110 01/M02 A3017 630 82 -900 000/00 RMK AO2
14837KMSN MSN20041122040010411/22/04 04:00:31  5-MIN KMSN 221000Z 00000KT 10SM SCT090 BKN110 01/M02 A3018 630 82 -900 000/00 RMK AO2
14837KMSN MSN20041122040510411/22/04 04:05:31  5-MIN KMSN 221005Z 00000KT 10SM SCT090 BKN110 01/M02 A3017 630 85 -900 000/00 RMK AO2
14837KMSN MSN20041122041010411/22/04 04:10:31  5-MIN KMSN 221010Z 00000KT 10SM SCT095 BKN110 01/M02 A3017 630 82 -900 000/00 RMK AO2
14837KMSN MSN20041122041510411/22/04 04:15:31  5-MIN KMSN 221015Z 00000KT 10SM FEW095 BKN110 01/M02 A3017 630 78 -800 000/00 RMK AO2
14837KMSN MSN20041122042010411/22/04 04:20:31  5-MIN KMSN 221020Z 00000KT 10SM FEW095 BKN110 01/M02 A3017 630 82 -900 000/00 RMK AO2
14837KMSN MSN20041122042509711/22/04 04:25:31  5-MIN KMSN 221025Z 00000KT 10SM OVC110 01/M02 A3017 630 82 -900 000/00 RMK AO2
14837KMSN MSN20041122043009711/22/04 04:30:31  5-MIN KMSN 221030Z 00000KT 10SM OVC110 01/M02 A3017 630 82 -900 000/00 RMK AO2
14837KMSN MSN20041122043509811/22/04 04:35:31  5-MIN KMSN 221035Z 00000KT 10SM OVC110 00/M02 A3017 640 85 -1000 000/00 RMK AO2
14837KMSN MSN20041122044009911/22/04 04:40:31  5-MIN KMSN 221040Z 00000KT 10SM OVC110 M01/M03 A3017 630 85 -1000 000/00 RMK AO2
14837KMSN MSN20041122044509811/22/04 04:45:31  5-MIN KMSN 221045Z 00000KT 10SM OVC110 00/M03 A3017 640 81 -1000 000/00 RMK AO2
14837KMSN MSN20041122045011511/22/04 04:50:31  5-MIN KMSN 221050Z 00000KT 10SM OVC110 00/M03 A3017 640 81 -1000 000/00 RMK AO2 SLP225 T00001028
14837KMSN MSN20041122045510511/22/04 04:55:31  5-MIN KMSN 221055Z 00000KT 10SM FEW075 OVC110 00/M03 A3017 640 81 -1000 000/00 RMK AO2
14837KMSN MSN20041122050010411/22/04 05:00:31  5-MIN KMSN 221100Z 00000KT 10SM FEW075 OVC110 00/M02 A3017 640 85 -900 000/00 RMK AO2
14837KMSN MSN20041122050509811/22/04 05:05:31  5-MIN KMSN 221105Z 00000KT 10SM OVC110 00/M02 A3017 630 85 -1000 000/00 RMK AO2
14837KMSN MSN20041122051009911/22/04 05:10:31  5-MIN KMSN 221110Z 00000KT 10SM OVC110 M01/M02 A3017 630 88 -1000 000/00 RMK AO2
14837KMSN MSN20041122051509911/22/04 05:15:31  5-MIN KMSN 221115Z 00000KT 10SM OVC110 M01/M02 A3017 630 88 -1000 000/00 RMK AO2
14837KMSN MSN20041122052009911/22/04 05:20:31  5-MIN KMSN 221120Z 00000KT 10SM OVC110 M01/M02 A3017 640 88 -1000 000/00 RMK AO2
14837KMSN MSN20041122052509911/22/04 05:25:31  5-MIN KMSN 221125Z 00000KT 10SM OVC110 M01/M02 A3017 640 88 -1000 000/00 RMK AO2
14837KMSN MSN20041122053009711/22/04 05:30:31  5-MIN KMSN 221130Z 00000KT 10SM OVC110 00/M02 A3017 640 85 -900 000/00 RMK AO2
14837KMSN MSN20041122053509711/22/04 05:35:31  5-MIN KMSN 221135Z 00000KT 10SM OVC110 00/M02 A3016 640 85 -900 000/00 RMK AO2
14837KMSN MSN20041122054009711/22/04 05:40:31  5-MIN KMSN 221140Z 00000KT 10SM OVC110 00/M02 A3016 640 85 -900 000/00 RMK AO2
14837KMSN MSN20041122054509711/22/04 05:45:31  5-MIN KMSN 221145Z 00000KT 10SM OVC110 00/M02 A3016 640 85 -900 000/00 RMK AO2
14837KMSN MSN20041122060509911/22/04 06:05:31  5-MIN KMSN 221205Z 22003KT 10SM OVC110 M01/M02 A3017 640 88 -1000 220/03 RMK AO2
14837KMSN MSN20041122061009911/22/04 06:10:31  5-MIN KMSN 221210Z 00000KT 10SM OVC110 M01/M02 A3017 640 88 -1000 000/00 RMK AO2
14837KMSN MSN20041122061509711/22/04 06:15:31  5-MIN KMSN 221215Z 00000KT 10SM OVC110 01/M02 A3016 640 82 -900 000/00 RMK AO2
14837KMSN MSN20041122062009911/22/04 06:20:31  5-MIN KMSN 221220Z 00000KT 10SM OVC110 M01/M03 A3016 640 85 -1000 000/00 RMK AO2
14837KMSN MSN20041122062509711/22/04 06:25:31  5-MIN KMSN 221225Z 00000KT 10SM BKN110 00/M02 A3016 640 85 -900 000/00 RMK AO2
14837KMSN MSN20041122063009711/22/04 06:30:31  5-MIN KMSN 221230Z 00000KT 10SM BKN110 01/M02 A3016 650 82 -900 000/00 RMK AO2
14837KMSN MSN20041122063509711/22/04 06:35:31  5-MIN KMSN 221235Z 16003KT 10SM BKN110 01/M02 A3015 650 82 -900 160/03 RMK AO2
14837KMSN MSN20041122064009711/22/04 06:40:31  5-MIN KMSN 221240Z 18004KT 10SM BKN110 01/M02 A3015 650 82 -900 180/04 RMK AO2
14837KMSN MSN20041122064509711/22/04 06:45:31  5-MIN KMSN 221245Z 19003KT 10SM BKN110 01/M02 A3015 650 82 -800 190/03 RMK AO2
14837KMSN MSN20041122065011411/22/04 06:50:31  5-MIN KMSN 221250Z 18004KT 10SM BKN110 01/M02 A3015 650 78 -800 180/04 RMK AO2 SLP219 T00111022
14837KMSN MSN20041122065509711/22/04 06:55:31  5-MIN KMSN 221255Z 20003KT 10SM OVC110 02/M03 A3015 650 72 -700 200/03 RMK AO2
14837KMSN MSN20041122070010411/22/04 07:00:31  5-MIN KMSN 221300Z 19004KT 10SM FEW070 OVC110 02/M03 A3015 650 72 -700 190/04 RMK AO2
14837KMSN MSN20041122070510311/22/04 07:05:31  5-MIN KMSN 221305Z 19004KT 9SM FEW070 OVC110 02/M03 A3015 650 72 -700 190/04 RMK AO2
14837KMSN MSN20041122071009611/22/04 07:10:31  5-MIN KMSN 221310Z 18006KT 8SM OVC110 02/M03 A3015 660 72 -700 180/06 RMK AO2
14837KMSN MSN20041122071509611/22/04 07:15:31  5-MIN KMSN 221315Z 18005KT 8SM SCT110 02/M02 A3015 650 75 -700 180/05 RMK AO2
14837KMSN MSN20041122072009611/22/04 07:20:31  5-MIN KMSN 221320Z 00000KT 7SM SCT110 02/M02 A3015 650 75 -700 000/00 RMK AO2
14837KMSN MSN20041122072509611/22/04 07:25:31  5-MIN KMSN 221325Z VRB03KT 8SM SCT110 02/M02 A3015 650 75 -700 VRB/03 RMK AO2
14837KMSN MSN20041122073009611/22/04 07:30:31  5-MIN KMSN 221330Z 18003KT 8SM SCT110 02/M02 A3014 660 75 -700 170/03 RMK AO2
14837KMSN MSN20041122073510311/22/04 07:35:31  5-MIN KMSN 221335Z 18005KT 8SM BKN100 BKN110 02/M02 A3015 660 78 -700 180/05 RMK AO2
14837KMSN MSN20041122074010311/22/04 07:40:31  5-MIN KMSN 221340Z 18005KT 8SM BKN095 BKN110 02/M02 A3015 660 78 -700 180/05 RMK AO2
14837KMSN MSN20041122074510311/22/04 07:45:31  5-MIN KMSN 221345Z 19004KT 7SM BKN095 BKN110 02/M02 A3014 660 72 -600 190/04 RMK AO2
14837KMSN MSN20041122075012011/22/04 07:50:31  5-MIN KMSN 221350Z 18006KT 7SM BKN090 BKN110 02/M02 A3014 660 72 -600 180/06 RMK AO2 SLP216 T00221022
14837KMSN MSN20041122075510311/22/04 07:55:31  5-MIN KMSN 221355Z 19004KT 7SM BKN090 OVC110 02/M02 A3014 660 75 -600 190/04 RMK AO2
14837KMSN MSN20041122080010311/22/04 08:00:31  5-MIN KMSN 221400Z 18005KT 8SM BKN085 OVC110 02/M02 A3014 660 72 -600 180/05 RMK AO2
14837KMSN MSN20041122080510311/22/04 08:05:31  5-MIN KMSN 221405Z 18006KT 8SM BKN085 OVC110 03/M02 A3014 660 72 -600 180/06 RMK AO2
14837KMSN MSN20041122081010311/22/04 08:10:31  5-MIN KMSN 221410Z 18007KT 7SM BKN085 OVC110 03/M02 A3014 670 72 -600 180/07 RMK AO2
14837KMSN MSN20041122081510311/22/04 08:15:31  5-MIN KMSN 221415Z 19007KT 7SM BKN085 BKN110 03/M02 A3014 670 72 -600 190/07 RMK AO2
14837KMSN MSN20041122082010311/22/04 08:20:31  5-MIN KMSN 221420Z 19008KT 7SM BKN085 BKN110 03/M02 A3013 670 72 -600 190/08 RMK AO2
14837KMSN MSN20041122082510611/22/04 08:25:31  5-MIN KMSN 221425Z 19008KT 6SM HZ BKN085 OVC110 03/M01 A3013 670 75 -600 190/08 RMK AO2
14837KMSN MSN20041122083010611/22/04 08:30:31  5-MIN KMSN 221430Z 19008KT 6SM HZ SCT085 OVC110 03/M02 A3013 670 72 -600 180/08 RMK AO2
14837KMSN MSN20041122083510611/22/04 08:35:31  5-MIN KMSN 221435Z 19008KT 6SM HZ FEW080 OVC100 03/M01 A3013 670 75 -600 190/08 RMK AO2
14837KMSN MSN20041122084009911/22/04 08:40:31  5-MIN KMSN 221440Z 19009KT 6SM HZ OVC110 03/M01 A3013 670 75 -600 190/09 RMK AO2
14837KMSN MSN20041122084509911/22/04 08:45:31  5-MIN KMSN 221445Z 19010KT 6SM HZ OVC100 03/M01 A3013 670 75 -600 190/10 RMK AO2
14837KMSN MSN20041122085012211/22/04 08:50:31  5-MIN KMSN 221450Z 19007KT 6SM HZ OVC100 03/M01 A3013 670 72 -500 190/07 RMK AO2 SLP211 T00331011 56012
14837KMSN MSN20041122085509911/22/04 08:55:31  5-MIN KMSN 221455Z 20007KT 6SM HZ OVC110 03/M02 A3012 680 70 -500 200/07 RMK AO2
14837KMSN MSN20041122090009611/22/04 09:00:31  5-MIN KMSN 221500Z 19007KT 7SM OVC100 03/M01 A3012 680 72 -500 190/07 RMK AO2
14837KMSN MSN20041122090509611/22/04 09:05:31  5-MIN KMSN 221505Z 18008KT 7SM OVC100 03/M01 A3012 680 72 -500 180/08 RMK AO2
14837KMSN MSN20041122091009611/22/04 09:10:31  5-MIN KMSN 221510Z 18007KT 7SM OVC110 03/M01 A3011 690 72 -500 180/07 RMK AO2
14837KMSN MSN20041122091509611/22/04 09:15:31  5-MIN KMSN 221515Z 19008KT 7SM OVC110 03/M01 A3011 690 72 -500 190/08 RMK AO2
14837KMSN MSN20041122092009611/22/04 09:20:31  5-MIN KMSN 221520Z 19008KT 7SM OVC110 03/M01 A3011 690 72 -500 190/08 RMK AO2
14837KMSN MSN20041122092509611/22/04 09:25:31  5-MIN KMSN 221525Z 19007KT 7SM OVC110 04/M01 A3011 690 70 -400 190/07 RMK AO2
14837KMSN MSN20041122093009611/22/04 09:30:31  5-MIN KMSN 221530Z 19007KT 7SM OVC110 04/M01 A3011 690 73 -400 190/07 RMK AO2
14837KMSN MSN20041122093509611/22/04 09:35:31  5-MIN KMSN 221535Z 19008KT 7SM OVC110 04/M01 A3011 690 67 -300 190/08 RMK AO2
14837KMSN MSN20041122094009611/22/04 09:40:31  5-MIN KMSN 221540Z 21006KT 7SM OVC110 04/M01 A3011 690 67 -300 210/06 RMK AO2
14837KMSN MSN20041122094509611/22/04 09:45:31  5-MIN KMSN 221545Z VRB06KT 7SM OVC110 04/M01 A3011 690 67 -300 VRB/06 RMK AO2
14837KMSN MSN20041122095011311/22/04 09:50:31  5-MIN KMSN 221550Z 19007KT 8SM OVC110 04/M01 A3011 690 70 -300 190/07 RMK AO2 SLP203 T00441006
14837KMSN MSN20041122095509611/22/04 09:55:31  5-MIN KMSN 221555Z 18006KT 7SM BKN110 04/M01 A3011 690 67 -300 180/06 RMK AO2
14837KMSN MSN20041122100009611/22/04 10:00:31  5-MIN KMSN 221600Z 18009KT 7SM BKN110 04/M01 A3010 690 70 -300 180/09 RMK AO2
14837KMSN MSN20041122100509611/22/04 10:05:31  5-MIN KMSN 221605Z 19006KT 7SM BKN110 04/M01 A3011 690 67 -300 180/06 RMK AO2
14837KMSN MSN20041122101009611/22/04 10:10:31  5-MIN KMSN 221610Z 19008KT 7SM BKN110 04/M01 A3010 700 67 -300 180/08 RMK AO2
14837KMSN MSN20041122101509611/22/04 10:15:31  5-MIN KMSN 221615Z 19008KT 7SM BKN110 04/M01 A3010 700 67 -300 180/08 RMK AO2
14837KMSN MSN20041122102009611/22/04 10:20:31  5-MIN KMSN 221620Z 19009KT 8SM BKN110 05/M01 A3010 700 64 -200 190/09 RMK AO2
14837KMSN MSN20041122102509611/22/04 10:25:31  5-MIN KMSN 221625Z 19009KT 8SM BKN110 06/M01 A3009 700 65 -200 190/09 RMK AO2
14837KMSN MSN20041122103009611/22/04 10:30:31  5-MIN KMSN 221630Z 18010KT 8SM BKN110 05/M01 A3010 700 64 -200 180/10 RMK AO2
14837KMSN MSN20041122103509611/22/04 10:35:31  5-MIN KMSN 221635Z 20009KT 9SM BKN110 05/M01 A3010 700 64 -200 200/09 RMK AO2
14837KMSN MSN20041122104011211/22/04 10:40:31  5-MIN KMSN 221640Z 21009KT 180V240 9SM BKN110 05/M01 A3010 700 64 -300 210/09 180V240 RMK AO2
14837KMSN MSN20041122104509611/22/04 10:45:31  5-MIN KMSN 221645Z 20009KT 9SM BKN100 05/M02 A3010 700 62 -200 190/09 RMK AO2
14837KMSN MSN20041122105012011/22/04 10:50:31  5-MIN KMSN 221650Z 20009KT 9SM FEW060 OVC100 06/M02 A3010 700 59 -200 200/09 RMK AO2 SLP199 T00561017
14837KMSN MSN20041122105510411/22/04 10:55:31  5-MIN KMSN 221655Z 19011KT 10SM FEW060 BKN100 06/M02 A3009 700 59 -200 190/11 RMK AO2
14837KMSN MSN20041122110010411/22/04 11:00:31  5-MIN KMSN 221700Z 18008KT 10SM FEW060 BKN100 06/M02 A3009 710 57 -200 180/08 RMK AO2
14837KMSN MSN20041122110510411/22/04 11:05:31  5-MIN KMSN 221705Z 18008KT 10SM FEW060 BKN100 06/M02 A3008 710 57 -200 180/08 RMK AO2
14837KMSN MSN20041122111010411/22/04 11:10:31  5-MIN KMSN 221710Z 19009KT 10SM BKN065 OVC100 06/M02 A3008 720 59 -200 190/09 RMK AO2
14837KMSN MSN20041122111510411/22/04 11:15:31  5-MIN KMSN 221715Z 18008KT 10SM BKN065 OVC100 06/M02 A3008 720 57 -200 180/08 RMK AO2
14837KMSN MSN20041122112009711/22/04 11:20:31  5-MIN KMSN 221720Z 19008KT 10SM OVC065 06/M03 A3008 720 55 -200 190/08 RMK AO2
14837KMSN MSN20041122112509711/22/04 11:25:31  5-MIN KMSN 221725Z 19009KT 10SM OVC065 06/M03 A3007 720 55 -200 190/09 RMK AO2
14837KMSN MSN20041122113009711/22/04 11:30:31  5-MIN KMSN 221730Z 20008KT 10SM OVC065 06/M03 A3007 720 55 -200 200/08 RMK AO2
14837KMSN MSN20041122113509711/22/04 11:35:31  5-MIN KMSN 221735Z 20007KT 10SM OVC065 06/M03 A3007 730 53 -100 200/07 RMK AO2
14837KMSN MSN20041122114009711/22/04 11:40:31  5-MIN KMSN 221740Z 20006KT 10SM OVC065 06/M02 A3007 730 55 -100 200/06 RMK AO2
14837KMSN MSN20041122114509711/22/04 11:45:31  5-MIN KMSN 221745Z 19008KT 10SM OVC065 06/M02 A3007 730 57 -100 190/08 RMK AO2
14837KMSN MSN20041122115013211/22/04 11:50:31  5-MIN KMSN 221750Z 19007KT 10SM OVC065 06/M02 A3006 730 55 -100 190/07 RMK AO2 SLP188 T00611022 10061 21006 58011
14837KMSN MSN20041122115509711/22/04 11:55:31  5-MIN KMSN 221755Z 19008KT 10SM OVC065 06/M02 A3006 740 59 -100 190/08 RMK AO2
14837KMSN MSN20041122120009711/22/04 12:00:31  5-MIN KMSN 221800Z 20007KT 10SM OVC065 06/M02 A3005 740 57 -100 190/07 RMK AO2
14837KMSN MSN20041122120509711/22/04 12:05:31  5-MIN KMSN 221805Z 17010KT 10SM OVC065 06/M02 A3005 740 57 -100 170/10 RMK AO2
14837KMSN MSN20041122121009711/22/04 12:10:31  5-MIN KMSN 221810Z 18008KT 10SM OVC065 06/M02 A3005 750 57 -100 180/08 RMK AO2
14837KMSN MSN20041122121509711/22/04 12:15:31  5-MIN KMSN 221815Z 17010KT 10SM OVC065 06/M02 A3004 750 57 -100 170/10 RMK AO2
14837KMSN MSN20041122122009411/22/04 12:20:31  5-MIN KMSN 221820Z 18008KT 10SM OVC065 06/M02 A3004 750 57 0 180/08 RMK AO2
14837KMSN MSN20041122122509411/22/04 12:25:31  5-MIN KMSN 221825Z 18008KT 10SM OVC065 07/M01 A3004 760 57 0 180/08 RMK AO2
14837KMSN MSN20041122123010111/22/04 12:30:31  5-MIN KMSN 221830Z 17010KT 10SM BKN065 OVC095 07/M02 A3003 760 55 0 170/10 RMK AO2
14837KMSN MSN20041122123510111/22/04 12:35:31  5-MIN KMSN 221835Z 18010KT 10SM BKN065 OVC095 06/M02 A3003 760 55 0 180/10 RMK AO2
14837KMSN MSN20041122124010111/22/04 12:40:31  5-MIN KMSN 221840Z 18009KT 10SM BKN065 OVC095 06/M02 A3003 770 55 0 170/09 RMK AO2
14837KMSN MSN20041122124510111/22/04 12:45:31  5-MIN KMSN 221845Z 18009KT 10SM BKN065 OVC095 06/M02 A3003 760 57 0 180/09 RMK AO2
14837KMSN MSN20041122125011811/22/04 12:50:31  5-MIN KMSN 221850Z 17009KT 10SM BKN065 OVC095 07/M02 A3003 770 55 0 170/09 RMK AO2 SLP175 T00671017
14837KMSN MSN20041122125510111/22/04 12:55:31  5-MIN KMSN 221855Z 19010KT 10SM BKN060 OVC095 07/M02 A3002 770 55 0 180/10 RMK AO2
14837KMSN MSN20041122130010111/22/04 13:00:31  5-MIN KMSN 221900Z 18009KT 10SM BKN065 OVC095 07/M01 A3002 770 57 0 180/09 RMK AO2
14837KMSN MSN20041122130509411/22/04 13:05:31  5-MIN KMSN 221905Z 18011KT 10SM OVC065 07/M01 A3001 780 57 0 180/11 RMK AO2
14837KMSN MSN20041122131009411/22/04 13:10:31  5-MIN KMSN 221910Z 17010KT 10SM OVC060 07/M01 A3001 780 60 0 170/10 RMK AO2
14837KMSN MSN20041122131510111/22/04 13:15:31  5-MIN KMSN 221915Z 18008KT 10SM BKN060 OVC090 07/M01 A3001 780 60 0 180/08 RMK AO2
14837KMSN MSN20041122132010011/22/04 13:20:31  5-MIN KMSN 221920Z 19010KT 9SM BKN060 OVC090 07/M01 A3001 790 60 0 190/10 RMK AO2
14837KMSN MSN20041122132510011/22/04 13:25:31  5-MIN KMSN 221925Z 18010KT 9SM BKN065 OVC090 07/M01 A3000 790 60 0 180/10 RMK AO2
14837KMSN MSN20041122133010011/22/04 13:30:31  5-MIN KMSN 221930Z 20008KT 8SM BKN060 OVC090 07/M01 A3000 790 60 0 200/08 RMK AO2
14837KMSN MSN20041122133510011/22/04 13:35:31  5-MIN KMSN 221935Z 19009KT 8SM BKN060 OVC090 07/M01 A3000 790 60 0 190/09 RMK AO2
14837KMSN MSN20041122134009911/22/04 13:40:31  5-MIN KMSN 221940Z 18010KT 8SM BKN060 OVC090 07/00 A2999 800 62 0 170/10 RMK AO2
14837KMSN MSN20041122134509911/22/04 13:45:31  5-MIN KMSN 221945Z 19011KT 8SM BKN060 OVC090 07/00 A3000 790 62 0 190/11 RMK AO2
14837KMSN MSN20041122135011611/22/04 13:50:31  5-MIN KMSN 221950Z 18009KT 8SM BKN060 OVC080 07/00 A2999 800 62 0 180/09 RMK AO2 SLP163 T00670000
14837KMSN MSN20041122135509911/22/04 13:55:31  5-MIN KMSN 221955Z 19008KT 8SM BKN060 OVC080 07/00 A2999 800 62 0 190/08 RMK AO2
14837KMSN MSN20041122140009911/22/04 14:00:31  5-MIN KMSN 222000Z 19009KT 8SM BKN060 OVC080 07/00 A2999 800 62 0 190/09 RMK AO2
14837KMSN MSN20041122140509911/22/04 14:05:31  5-MIN KMSN 222005Z 18008KT 7SM BKN060 OVC080 07/00 A2999 800 62 0 180/08 RMK AO2
14837KMSN MSN20041122141009911/22/04 14:10:31  5-MIN KMSN 222010Z 18009KT 7SM BKN060 OVC080 07/00 A2999 800 62 0 180/09 RMK AO2
14837KMSN MSN20041122141509911/22/04 14:15:31  5-MIN KMSN 222015Z 19008KT 7SM BKN060 OVC080 07/01 A2998 800 65 0 180/08 RMK AO2
14837KMSN MSN20041122142009911/22/04 14:20:31  5-MIN KMSN 222020Z 18008KT 7SM SCT060 OVC080 07/01 A2998 810 65 0 180/08 RMK AO2
14837KMSN MSN20041122142509911/22/04 14:25:31  5-MIN KMSN 222025Z 18009KT 7SM SCT060 OVC075 07/01 A2998 810 65 0 180/09 RMK AO2
14837KMSN MSN20041122143009911/22/04 14:30:31  5-MIN KMSN 222030Z 19008KT 7SM SCT060 OVC075 07/01 A2998 810 65 0 190/08 RMK AO2
14837KMSN MSN20041122143509911/22/04 14:35:31  5-MIN KMSN 222035Z 18010KT 7SM FEW060 OVC075 07/01 A2998 810 65 0 180/10 RMK AO2
14837KMSN MSN20041122144009911/22/04 14:40:31  5-MIN KMSN 222040Z 18011KT 7SM FEW060 OVC075 07/00 A2998 810 62 0 180/11 RMK AO2
14837KMSN MSN20041122144509911/22/04 14:45:31  5-MIN KMSN 222045Z 19010KT 7SM FEW060 OVC075 07/00 A2998 810 62 0 190/10 RMK AO2
14837KMSN MSN20041122145012511/22/04 14:50:31  5-MIN KMSN 222050Z 19008KT 6SM HZ FEW055 OVC080 07/00 A2998 810 62 0 190/08 RMK AO2 SLP158 T00670000 58021
14837KMSN MSN20041122145510211/22/04 14:55:31  5-MIN KMSN 222055Z 18010KT 6SM HZ SCT055 OVC080 07/01 A2998 810 65 0 180/10 RMK AO2
14837KMSN MSN20041122150010211/22/04 15:00:31  5-MIN KMSN 222100Z 19011KT 6SM HZ BKN055 OVC080 07/01 A2998 810 65 0 190/11 RMK AO2
14837KMSN MSN20041122150510211/22/04 15:05:31  5-MIN KMSN 222105Z 19010KT 6SM HZ BKN055 OVC080 07/01 A2998 810 65 0 180/10 RMK AO2
14837KMSN MSN20041122151010211/22/04 15:10:31  5-MIN KMSN 222110Z 18010KT 6SM HZ BKN055 OVC080 07/01 A2998 810 65 0 180/10 RMK AO2
14837KMSN MSN20041122151510211/22/04 15:15:31  5-MIN KMSN 222115Z 20010KT 6SM HZ SCT060 OVC080 07/01 A2998 810 65 0 200/10 RMK AO2
14837KMSN MSN20041122152010211/22/04 15:20:31  5-MIN KMSN 222120Z 20008KT 6SM HZ BKN060 OVC080 07/01 A2997 820 65 0 200/08 RMK AO2
14837KMSN MSN20041122152510211/22/04 15:25:31  5-MIN KMSN 222125Z 19010KT 6SM HZ SCT060 OVC080 07/01 A2997 820 65 0 190/10 RMK AO2
14837KMSN MSN20041122153010211/22/04 15:30:31  5-MIN KMSN 222130Z 19008KT 6SM HZ SCT060 OVC080 07/01 A2997 820 65 0 190/08 RMK AO2
14837KMSN MSN20041122153510211/22/04 15:35:31  5-MIN KMSN 222135Z 19008KT 6SM HZ FEW060 OVC075 07/01 A2997 820 65 0 190/08 RMK AO2
14837KMSN MSN20041122154010411/22/04 15:40:31  5-MIN KMSN 222140Z 20006KT 6SM HZ FEW060 OVC075 07/01 A2997 820 65 100 200/06 RMK AO2
14837KMSN MSN20041122154510411/22/04 15:45:31  5-MIN KMSN 222145Z 18010KT 5SM HZ FEW055 OVC075 07/01 A2997 820 67 100 180/10 RMK AO2
14837KMSN MSN20041122155012111/22/04 15:50:31  5-MIN KMSN 222150Z 19007KT 5SM HZ FEW055 OVC075 07/01 A2997 820 67 100 190/07 RMK AO2 SLP155 T00670011
14837KMSN MSN20041122155510411/22/04 15:55:31  5-MIN KMSN 222155Z 18012KT 5SM HZ FEW055 BKN075 07/01 A2997 820 67 100 180/12 RMK AO2
14837KMSN MSN20041122160010411/22/04 16:00:31  5-MIN KMSN 222200Z 19011KT 5SM HZ FEW055 BKN075 07/01 A2996 820 67 100 190/11 RMK AO2
14837KMSN MSN20041122160510211/22/04 16:05:31  5-MIN KMSN 222205Z 20010KT 5SM HZ FEW025 BKN075 06/01 A2997 820 70 0 190/10 RMK AO2
14837KMSN MSN20041122161010211/22/04 16:10:31  5-MIN KMSN 222210Z 18010KT 5SM HZ SCT025 BKN075 06/01 A2996 820 70 0 180/10 RMK AO2
14837KMSN MSN20041122161510211/22/04 16:15:31  5-MIN KMSN 222215Z 19008KT 5SM HZ SCT025 BKN075 06/01 A2996 830 70 0 190/08 RMK AO2
14837KMSN MSN20041122162010911/22/04 16:20:31  5-MIN KMSN 222220Z 19009KT 5SM HZ SCT025 SCT060 OVC075 06/01 A2996 830 70 0 180/09 RMK AO2
14837KMSN MSN20041122162510911/22/04 16:25:31  5-MIN KMSN 222225Z 18010KT 5SM HZ SCT025 BKN060 OVC075 06/01 A2996 830 70 0 180/10 RMK AO2
14837KMSN MSN20041122163010911/22/04 16:30:31  5-MIN KMSN 222230Z 18011KT 5SM HZ SCT025 BKN060 OVC070 06/01 A2996 830 70 0 180/11 RMK AO2
14837KMSN MSN20041122163510911/22/04 16:35:31  5-MIN KMSN 222235Z 19010KT 5SM HZ BKN025 BKN060 OVC070 06/01 A2996 830 70 0 190/10 RMK AO2
14837KMSN MSN20041122164010911/22/04 16:40:31  5-MIN KMSN 222240Z 19010KT 6SM HZ BKN025 BKN060 OVC070 06/01 A2996 830 70 0 190/10 RMK AO2
14837KMSN MSN20041122164510211/22/04 16:45:31  5-MIN KMSN 222245Z 18008KT 6SM HZ BKN025 OVC060 06/01 A2995 840 70 0 180/08 RMK AO2
14837KMSN MSN20041122165011911/22/04 16:50:31  5-MIN KMSN 222250Z 18010KT 5SM HZ BKN025 OVC060 06/01 A2995 840 70 0 180/10 RMK AO2 SLP149 T00610011
14837KMSN MSN20041122165509511/22/04 16:55:31  5-MIN KMSN 222255Z 18011KT 5SM HZ OVC025 06/01 A2995 840 70 0 180/11 RMK AO2
14837KMSN MSN20041122170009511/22/04 17:00:31  5-MIN KMSN 222300Z 19010KT 5SM HZ OVC025 06/02 A2995 840 73 0 180/10 RMK AO2
14837KMSN MSN20041122170509511/22/04 17:05:31  5-MIN KMSN 222305Z 18010KT 5SM HZ OVC025 06/02 A2995 840 73 0 180/10 RMK AO2
14837KMSN MSN20041122171009511/22/04 17:10:31  5-MIN KMSN 222310Z 18010KT 6SM HZ OVC025 06/02 A2995 840 73 0 180/10 RMK AO2
14837KMSN MSN20041122171509511/22/04 17:15:31  5-MIN KMSN 222315Z 18008KT 6SM HZ OVC025 06/02 A2995 840 73 0 180/08 RMK AO2
14837KMSN MSN20041122172009511/22/04 17:20:31  5-MIN KMSN 222320Z 18009KT 6SM HZ OVC023 06/02 A2994 840 73 0 180/09 RMK AO2
14837KMSN MSN20041122172509511/22/04 17:25:31  5-MIN KMSN 222325Z 18008KT 6SM HZ OVC023 06/02 A2994 840 73 0 180/08 RMK AO2
14837KMSN MSN20041122173009511/22/04 17:30:31  5-MIN KMSN 222330Z 19009KT 6SM HZ OVC023 06/02 A2994 850 73 0 190/09 RMK AO2
14837KMSN MSN20041122173509511/22/04 17:35:31  5-MIN KMSN 222335Z 18008KT 6SM HZ OVC023 06/02 A2994 850 73 0 180/08 RMK AO2
14837KMSN MSN20041122174009511/22/04 17:40:31  5-MIN KMSN 222340Z 19010KT 6SM HZ OVC023 06/02 A2994 840 73 0 190/10 RMK AO2
14837KMSN MSN20041122174509511/22/04 17:45:31  5-MIN KMSN 222345Z 18010KT 6SM HZ OVC023 06/02 A2994 840 73 0 180/10 RMK AO2
14837KMSN MSN20041122175013011/22/04 17:50:31  5-MIN KMSN 222350Z 18007KT 6SM HZ OVC021 06/02 A2994 840 73 0 180/07 RMK AO2 SLP146 T00610017 10072 20056 56027
14837KMSN MSN20041122175509511/22/04 17:55:31  5-MIN KMSN 222355Z 19009KT 6SM HZ OVC021 06/02 A2994 850 73 0 190/09 RMK AO2
14837KMSN MSN20041122180009511/22/04 18:00:31  5-MIN KMSN 230000Z 19009KT 6SM HZ OVC021 06/02 A2994 850 76 0 190/09 RMK AO2
14837KMSN MSN20041122180509511/22/04 18:05:31  5-MIN KMSN 230005Z 19007KT 6SM HZ OVC021 06/02 A2994 850 76 0 190/07 RMK AO2
14837KMSN MSN20041122181009511/22/04 18:10:31  5-MIN KMSN 230010Z 19006KT 5SM HZ OVC021 06/02 A2994 850 76 0 190/06 RMK AO2
14837KMSN MSN20041122181509511/22/04 18:15:31  5-MIN KMSN 230015Z 19009KT 5SM HZ OVC021 06/02 A2993 850 76 0 180/09 RMK AO2
14837KMSN MSN20041122182009511/22/04 18:20:31  5-MIN KMSN 230020Z 18010KT 5SM HZ OVC021 06/02 A2993 850 76 0 180/10 RMK AO2
14837KMSN MSN20041122182509511/22/04 18:25:31  5-MIN KMSN 230025Z 19007KT 5SM HZ OVC019 06/02 A2993 850 76 0 190/07 RMK AO2
14837KMSN MSN20041122183009511/22/04 18:30:31  5-MIN KMSN 230030Z 19008KT 5SM HZ OVC019 06/02 A2993 860 76 0 190/08 RMK AO2
14837KMSN MSN20041122183509511/22/04 18:35:31  5-MIN KMSN 230035Z 19007KT 5SM HZ OVC019 06/02 A2993 860 76 0 180/07 RMK AO2
14837KMSN MSN20041122184009511/22/04 18:40:31  5-MIN KMSN 230040Z 19009KT 5SM HZ OVC019 06/02 A2993 860 76 0 190/09 RMK AO2
14837KMSN MSN20041122184509511/22/04 18:45:31  5-MIN KMSN 230045Z 19008KT 5SM HZ OVC019 06/02 A2993 860 76 0 190/08 RMK AO2
14837KMSN MSN20041122185011211/22/04 18:50:31  5-MIN KMSN 230050Z 18009KT 5SM HZ OVC019 06/02 A2993 860 76 0 180/09 RMK AO2 SLP141 T00610022
14837KMSN MSN20041122185509511/22/04 18:55:31  5-MIN KMSN 230055Z 19012KT 5SM HZ OVC017 06/02 A2992 860 76 0 190/12 RMK AO2
14837KMSN MSN20041122190009511/22/04 19:00:31  5-MIN KMSN 230100Z 18010KT 5SM HZ OVC017 06/02 A2992 860 76 0 180/10 RMK AO2
14837KMSN MSN20041122190509511/22/04 19:05:31  5-MIN KMSN 230105Z 19008KT 4SM HZ OVC017 06/02 A2992 870 76 0 180/08 RMK AO2
14837KMSN MSN20041122191009511/22/04 19:10:31  5-MIN KMSN 230110Z 19014KT 5SM HZ OVC017 06/02 A2992 870 76 0 190/14 RMK AO2
14837KMSN MSN20041122191509511/22/04 19:15:31  5-MIN KMSN 230115Z 18009KT 5SM HZ OVC017 06/02 A2991 870 76 0 180/09 RMK AO2
14837KMSN MSN20041122192010111/22/04 19:20:31  5-MIN KMSN 230120Z 19013G16KT 5SM HZ OVC015 06/02 A2991 870 76 0 190/13G16 RMK AO2
14837KMSN MSN20041122192509711/22/04 19:25:31  5-MIN KMSN 230125Z 19011KT 5SM HZ OVC015 06/03 A2991 870 79 100 180/11 RMK AO2
14837KMSN MSN20041122193009711/22/04 19:30:31  5-MIN KMSN 230130Z 19009KT 5SM HZ OVC015 06/03 A2991 880 79 100 190/09 RMK AO2
14837KMSN MSN20041122193509711/22/04 19:35:31  5-MIN KMSN 230135Z 19012KT 4SM HZ OVC015 06/03 A2991 880 79 100 190/12 RMK AO2
14837KMSN MSN20041122194009511/22/04 19:40:31  5-MIN KMSN 230140Z 19014KT 4SM HZ OVC015 06/03 A2991 880 82 0 190/14 RMK AO2
14837KMSN MSN20041122194509511/22/04 19:45:31  5-MIN KMSN 230145Z 20009KT 4SM HZ OVC013 06/03 A2990 880 82 0 200/09 RMK AO2
14837KMSN MSN20041122195011211/22/04 19:50:31  5-MIN KMSN 230150Z 19011KT 4SM HZ OVC013 06/03 A2991 880 82 0 190/11 RMK AO2 SLP134 T00560028
14837KMSN MSN20041122195509511/22/04 19:55:31  5-MIN KMSN 230155Z 19008KT 4SM HZ OVC013 06/03 A2990 880 82 0 190/08 RMK AO2
14837KMSN MSN20041122200010211/22/04 20:00:31  5-MIN KMSN 230200Z 19010KT 4SM HZ BKN013 OVC023 06/03 A2990 880 82 0 190/10 RMK AO2
14837KMSN MSN20041122200510211/22/04 20:05:31  5-MIN KMSN 230205Z 19008KT 4SM HZ BKN013 OVC023 06/03 A2991 880 82 0 190/08 RMK AO2
14837KMSN MSN20041122201009511/22/04 20:10:31  5-MIN KMSN 230210Z 18012KT 4SM HZ OVC013 06/03 A2990 880 82 0 180/12 RMK AO2
14837KMSN MSN20041122201509511/22/04 20:15:31  5-MIN KMSN 230215Z 18010KT 4SM HZ OVC013 06/03 A2990 880 82 0 180/10 RMK AO2
14837KMSN MSN20041122202009511/22/04 20:20:31  5-MIN KMSN 230220Z 18009KT 4SM BR OVC013 06/03 A2990 880 85 0 180/09 RMK AO2
14837KMSN MSN20041122202509511/22/04 20:25:31  5-MIN KMSN 230225Z 18010KT 4SM BR OVC013 06/03 A2990 880 85 0 180/10 RMK AO2
14837KMSN MSN20041122203009511/22/04 20:30:31  5-MIN KMSN 230230Z 18010KT 4SM BR OVC013 06/03 A2990 890 85 0 180/10 RMK AO2
14837KMSN MSN20041122203509511/22/04 20:35:31  5-MIN KMSN 230235Z 19008KT 4SM BR OVC013 06/03 A2990 880 85 0 180/08 RMK AO2
14837KMSN MSN20041122204009511/22/04 20:40:31  5-MIN KMSN 230240Z 18009KT 4SM BR OVC013 06/03 A2990 890 85 0 180/09 RMK AO2
14837KMSN MSN20041122204509511/22/04 20:45:31  5-MIN KMSN 230245Z 19008KT 4SM BR OVC013 06/03 A2990 890 85 0 190/08 RMK AO2
14837KMSN MSN20041122205011811/22/04 20:50:31  5-MIN KMSN 230250Z 19011KT 4SM BR OVC013 06/03 A2989 890 85 0 190/11 RMK AO2 SLP129 T00560033 56012
14837KMSN MSN20041122205509511/22/04 20:55:31  5-MIN KMSN 230255Z 18009KT 4SM BR OVC013 06/03 A2989 890 85 0 180/09 RMK AO2
14837KMSN MSN20041122210009511/22/04 21:00:31  5-MIN KMSN 230300Z 18010KT 4SM BR OVC013 06/03 A2989 890 85 0 180/10 RMK AO2
14837KMSN MSN20041122210510211/22/04 21:05:31  5-MIN KMSN 230305Z 18010KT 4SM BR BKN013 OVC024 06/03 A2989 890 85 0 180/10 RMK AO2
14837KMSN MSN20041122211009511/22/04 21:10:31  5-MIN KMSN 230310Z 19008KT 4SM BR OVC013 06/03 A2989 890 85 0 190/08 RMK AO2
14837KMSN MSN20041122211510911/22/04 21:15:31  5-MIN KMSN 230315Z 19009KT 4SM BR BKN013 BKN017 OVC024 06/03 A2989 890 85 0 190/09 RMK AO2
14837KMSN MSN20041122212010411/22/04 21:20:31  5-MIN KMSN 230320Z 19010KT 4SM HZ BKN013 OVC017 06/03 A2989 900 82 100 190/10 RMK AO2
14837KMSN MSN20041122212510411/22/04 21:25:31  5-MIN KMSN 230325Z 19011KT 4SM BR BKN011 OVC045 06/04 A2989 900 86 100 190/11 RMK AO2
14837KMSN MSN20041122213010411/22/04 21:30:31  5-MIN KMSN 230330Z 19011KT 4SM BR BKN011 OVC045 06/04 A2989 900 89 100 190/11 RMK AO2
14837KMSN MSN20041122213510911/22/04 21:35:31  5-MIN KMSN 230335Z 19011KT 4SM BR OVC011 06/04 A2988 900 89 100 180/11 RMK AO2 CIG 009V015
14837KMSN MSN20041122214011611/22/04 21:40:31  5-MIN KMSN 230340Z 19008KT 4SM HZ BKN011 OVC043 06/03 A2988 900 82 100 190/08 RMK AO2 CIG 008V014
14837KMSN MSN20041122214510911/22/04 21:45:31  5-MIN KMSN 230345Z 19009KT 4SM BR OVC011 06/04 A2988 900 86 100 180/09 RMK AO2 CIG 008V014
14837KMSN MSN20041122215014011/22/04 21:50:31  5-MIN KMSN 230350Z 19008KT 4SM BR BKN011 BKN021 OVC042 06/04 A2988 900 86 100 190/08 RMK AO2 CIG 008V013 SLP124 T00610039
14837KMSN MSN20041122215511611/22/04 21:55:31  5-MIN KMSN 230355Z 20008KT 4SM BR BKN011 OVC021 06/04 A2988 900 86 100 190/08 RMK AO2 CIG 008V013
14837KMSN MSN20041122220011611/22/04 22:00:31  5-MIN KMSN 230400Z 19009KT 4SM BR BKN011 OVC021 06/04 A2988 900 86 100 190/09 RMK AO2 CIG 008V013
14837KMSN MSN20041122220511611/22/04 22:05:31  5-MIN KMSN 230405Z 19010KT 3SM BR BKN011 OVC040 06/04 A2988 900 86 100 190/10 RMK AO2 CIG 008V013
14837KMSN MSN20041122221011611/22/04 22:10:31  5-MIN KMSN 230410Z 19008KT 3SM BR BKN011 OVC040 06/04 A2988 910 86 100 180/08 RMK AO2 CIG 008V014
14837KMSN MSN20041122221511611/22/04 22:15:31  5-MIN KMSN 230415Z 19009KT 3SM BR BKN009 OVC039 06/04 A2988 910 86 100 180/09 RMK AO2 CIG 008V013
14837KMSN MSN20041122222009711/22/04 22:20:31  5-MIN KMSN 230420Z 19009KT 3SM BR OVC009 06/04 A2987 910 86 100 190/09 RMK AO2
14837KMSN MSN20041122222510911/22/04 22:25:31  5-MIN KMSN 230425Z 19008KT 3SM BR OVC009 06/04 A2987 910 86 100 190/08 RMK AO2 CIG 007V013
14837KMSN MSN20041122223010911/22/04 22:30:31  5-MIN KMSN 230430Z 19007KT 3SM BR OVC009 06/04 A2987 910 89 100 190/07 RMK AO2 CIG 007V012
14837KMSN MSN20041122223510911/22/04 22:35:31  5-MIN KMSN 230435Z 19008KT 3SM BR OVC009 06/04 A2987 910 89 100 190/08 RMK AO2 CIG 007V011
14837KMSN MSN20041122224009711/22/04 22:40:31  5-MIN KMSN 230440Z 20008KT 3SM BR OVC007 06/04 A2987 910 89 100 200/08 RMK AO2
14837KMSN MSN20041122224509711/22/04 22:45:31  5-MIN KMSN 230445Z 20007KT 3SM BR OVC007 06/04 A2987 910 89 100 200/07 RMK AO2
14837KMSN MSN20041122225011411/22/04 22:50:31  5-MIN KMSN 230450Z 20006KT 3SM BR OVC007 06/04 A2987 910 89 100 190/06 RMK AO2 SLP121 T00610044
14837KMSN MSN20041122225509711/22/04 22:55:31  5-MIN KMSN 230455Z 20005KT 3SM BR OVC007 07/04 A2987 910 86 200 200/05 RMK AO2
14837KMSN MSN20041122230010911/22/04 23:00:31  5-MIN KMSN 230500Z 21007KT 3SM BR OVC007 07/04 A2988 910 86 200 210/07 RMK AO2 CIG 006V011
14837KMSN MSN20041122230510411/22/04 23:05:31  5-MIN KMSN 230505Z 21007KT 3SM BR BKN007 OVC011 07/04 A2987 910 86 200 210/07 RMK AO2
14837KMSN MSN20041122231011611/22/04 23:10:31  5-MIN KMSN 230510Z 20005KT 3SM BR BKN007 OVC012 07/04 A2987 910 86 200 200/05 RMK AO2 CIG 006V010
14837KMSN MSN20041122231510911/22/04 23:15:31  5-MIN KMSN 230515Z 20006KT 3SM BR OVC009 07/04 A2987 910 86 200 200/06 RMK AO2 CIG 006V012
14837KMSN MSN20041122232010911/22/04 23:20:31  5-MIN KMSN 230520Z 22007KT 3SM BR OVC009 07/05 A2987 910 89 200 220/07 RMK AO2 CIG 006V013
14837KMSN MSN20041122232511611/22/04 23:25:31  5-MIN KMSN 230525Z 22005KT 3SM BR BKN009 OVC017 07/05 A2987 910 89 200 210/05 RMK AO2 CIG 007V013
14837KMSN MSN20041122233011611/22/04 23:30:31  5-MIN KMSN 230530Z 21007KT 3SM BR BKN009 OVC017 07/05 A2987 910 89 200 210/07 RMK AO2 CIG 007V013
14837KMSN MSN20041122233511611/22/04 23:35:31  5-MIN KMSN 230535Z 20005KT 3SM BR BKN009 OVC017 07/05 A2987 910 89 200 200/05 RMK AO2 CIG 007V014
14837KMSN MSN20041122234012311/22/04 23:40:31  5-MIN KMSN 230540Z 20006KT 3SM BR BKN009 BKN017 OVC030 07/05 A2987 910 89 200 200/06 RMK AO2 CIG 007V013
14837KMSN MSN20041122234511111/22/04 23:45:31  5-MIN KMSN 230545Z 22007KT 3SM BR BKN011 BKN015 OVC030 07/05 A2987 910 89 200 210/07 RMK AO2
14837KMSN MSN20041122235015611/22/04 23:50:31  5-MIN KMSN 230550Z 20006KT 3SM BR BKN011 BKN015 OVC030 07/05 A2987 910 89 200 200/06 RMK AO2 SLP119 T00670050 10067 20056 400721006 56016
14837KMSN MSN20041122235511111/22/04 23:55:31  5-MIN KMSN 230555Z VRB05KT 3SM BR BKN011 BKN017 OVC030 07/05 A2986 920 89 200 VRB/05 RMK AO2
14837KMSN MSN20041123000011111/23/04 00:00:31  5-MIN KMSN 230600Z 20006KT 3SM BR SCT011 BKN017 OVC032 07/05 A2986 920 89 200 200/06 RMK AO2
14837KMSN MSN20041123000510411/23/04 00:05:31  5-MIN KMSN 230605Z 21007KT 4SM BR SCT011 OVC032 07/05 A2986 920 89 200 210/07 RMK AO2
14837KMSN MSN20041123001010411/23/04 00:10:31  5-MIN KMSN 230610Z 20004KT 4SM BR SCT011 OVC032 07/05 A2986 920 89 200 200/04 RMK AO2
14837KMSN MSN20041123001510411/23/04 00:15:31  5-MIN KMSN 230615Z VRB05KT 4SM BR SCT011 OVC032 07/05 A2986 920 86 200 VRB/05 RMK AO2
14837KMSN MSN20041123002010411/23/04 00:20:31  5-MIN KMSN 230620Z 21005KT 4SM BR SCT011 OVC032 07/05 A2985 930 89 200 210/05 RMK AO2
14837KMSN MSN20041123002510411/23/04 00:25:31  5-MIN KMSN 230625Z 22006KT 4SM BR FEW011 OVC032 07/05 A2985 930 86 300 220/06 RMK AO2
14837KMSN MSN20041123003010411/23/04 00:30:31  5-MIN KMSN 230630Z 22006KT 4SM BR FEW011 OVC032 07/05 A2985 930 86 300 220/06 RMK AO2
14837KMSN MSN20041123003510411/23/04 00:35:31  5-MIN KMSN 230635Z 20006KT 4SM BR FEW011 OVC032 07/05 A2985 930 86 300 200/06 RMK AO2
14837KMSN MSN20041123004010411/23/04 00:40:31  5-MIN KMSN 230640Z 21007KT 4SM BR FEW011 OVC034 07/05 A2985 930 86 300 210/07 RMK AO2
14837KMSN MSN20041123004510411/23/04 00:45:31  5-MIN KMSN 230645Z 21007KT 4SM BR FEW013 OVC034 07/05 A2985 930 86 300 210/07 RMK AO2
14837KMSN MSN20041123005012111/23/04 00:50:31  5-MIN KMSN 230650Z 21007KT 4SM BR FEW012 OVC034 07/05 A2985 930 86 300 210/07 RMK AO2 SLP112 T00720050
14837KMSN MSN20041123005510411/23/04 00:55:31  5-MIN KMSN 230655Z VRB06KT 4SM BR FEW012 OVC034 07/05 A2985 930 86 300 VRB/06 RMK AO2
14837KMSN MSN20041123010009711/23/04 01:00:31  5-MIN KMSN 230700Z 21008KT 4SM BR OVC034 07/05 A2985 930 86 300 210/08 RMK AO2
14837KMSN MSN20041123010509711/23/04 01:05:31  5-MIN KMSN 230705Z 21006KT 4SM BR OVC034 07/05 A2985 930 86 300 210/06 RMK AO2
14837KMSN MSN20041123011010411/23/04 01:10:31  5-MIN KMSN 230710Z 21006KT 4SM BR FEW013 OVC036 07/05 A2984 930 86 300 210/06 RMK AO2
14837KMSN MSN20041123011510411/23/04 01:15:31  5-MIN KMSN 230715Z 21007KT 4SM BR FEW013 OVC036 07/05 A2985 930 86 300 210/07 RMK AO2
14837KMSN MSN20041123012009711/23/04 01:20:31  5-MIN KMSN 230720Z 21006KT 4SM BR OVC036 07/05 A2984 940 86 300 210/06 RMK AO2
14837KMSN MSN20041123012509711/23/04 01:25:31  5-MIN KMSN 230725Z 21007KT 4SM BR OVC038 07/05 A2984 940 86 300 210/07 RMK AO2
14837KMSN MSN20041123013009711/23/04 01:30:31  5-MIN KMSN 230730Z 21007KT 4SM BR OVC040 07/05 A2984 940 86 300 210/07 RMK AO2
14837KMSN MSN20041123013509711/23/04 01:35:31  5-MIN KMSN 230735Z 21007KT 4SM BR OVC040 07/05 A2984 940 86 300 210/07 RMK AO2
14837KMSN MSN20041123014009711/23/04 01:40:31  5-MIN KMSN 230740Z 22009KT 4SM BR OVC040 07/05 A2984 940 86 300 220/09 RMK AO2
14837KMSN MSN20041123014509711/23/04 01:45:31  5-MIN KMSN 230745Z VRB06KT 4SM BR OVC040 07/05 A2984 940 86 300 VRB/06 RMK AO2
14837KMSN MSN20041123015011411/23/04 01:50:31  5-MIN KMSN 230750Z 21008KT 4SM BR OVC040 07/05 A2984 940 86 300 210/08 RMK AO2 SLP109 T00720050
14837KMSN MSN20041123015509711/23/04 01:55:31  5-MIN KMSN 230755Z 22006KT 4SM BR OVC040 07/05 A2984 940 86 300 220/06 RMK AO2
14837KMSN MSN20041123020009711/23/04 02:00:31  5-MIN KMSN 230800Z 22006KT 4SM BR OVC040 07/05 A2984 940 86 300 220/06 RMK AO2
14837KMSN MSN20041123020509711/23/04 02:05:31  5-MIN KMSN 230805Z 22007KT 4SM BR OVC040 07/05 A2984 940 86 300 220/07 RMK AO2
14837KMSN MSN20041123021009711/23/04 02:10:31  5-MIN KMSN 230810Z 23007KT 4SM BR OVC040 07/05 A2984 940 86 300 220/07 RMK AO2
14837KMSN MSN20041123021509711/23/04 02:15:31  5-MIN KMSN 230815Z 22006KT 4SM BR OVC040 07/05 A2984 940 86 300 220/06 RMK AO2
14837KMSN MSN20041123022009711/23/04 02:20:31  5-MIN KMSN 230820Z VRB05KT 4SM BR OVC040 07/05 A2984 940 86 300 VRB/05 RMK AO2
14837KMSN MSN20041123022509711/23/04 02:25:31  5-MIN KMSN 230825Z VRB04KT 4SM BR OVC040 07/05 A2984 940 86 300 VRB/04 RMK AO2
14837KMSN MSN20041123023009711/23/04 02:30:31  5-MIN KMSN 230830Z 22005KT 4SM BR OVC038 07/05 A2984 940 86 300 220/05 RMK AO2
14837KMSN MSN20041123023509711/23/04 02:35:31  5-MIN KMSN 230835Z 22005KT 5SM HZ OVC038 07/04 A2984 940 82 300 220/05 RMK AO2
14837KMSN MSN20041123024009711/23/04 02:40:31  5-MIN KMSN 230840Z 22006KT 5SM HZ OVC038 07/04 A2984 940 82 300 210/06 RMK AO2
14837KMSN MSN20041123024509711/23/04 02:45:31  5-MIN KMSN 230845Z 21006KT 5SM HZ OVC038 07/04 A2984 940 82 300 210/06 RMK AO2
14837KMSN MSN20041123025012011/23/04 02:50:31  5-MIN KMSN 230850Z 19005KT 5SM HZ OVC036 07/04 A2983 950 82 300 190/05 RMK AO2 SLP106 T00720044 56009
14837KMSN MSN20041123025509711/23/04 02:55:31  5-MIN KMSN 230855Z 20005KT 5SM BR OVC036 07/05 A2983 950 86 300 190/05 RMK AO2
14837KMSN MSN20041123030009711/23/04 03:00:31  5-MIN KMSN 230900Z VRB05KT 5SM BR OVC036 07/05 A2983 950 86 300 VRB/05 RMK AO2
14837KMSN MSN20041123030509711/23/04 03:05:31  5-MIN KMSN 230905Z 22006KT 5SM BR OVC038 07/05 A2983 950 86 300 210/06 RMK AO2
14837KMSN MSN20041123031009711/23/04 03:10:31  5-MIN KMSN 230910Z 20004KT 5SM BR OVC038 07/05 A2983 950 86 300 190/04 RMK AO2
14837KMSN MSN20041123031509711/23/04 03:15:31  5-MIN KMSN 230915Z 20005KT 5SM BR OVC038 07/05 A2983 950 86 300 200/05 RMK AO2
14837KMSN MSN20041123032009711/23/04 03:20:31  5-MIN KMSN 230920Z 20007KT 5SM BR OVC040 07/05 A2982 950 86 300 200/07 RMK AO2
14837KMSN MSN20041123032509711/23/04 03:25:31  5-MIN KMSN 230925Z 19007KT 4SM HZ OVC040 07/04 A2982 960 82 300 190/07 RMK AO2
14837KMSN MSN20041123033009711/23/04 03:30:31  5-MIN KMSN 230930Z 20005KT 4SM BR OVC040 07/05 A2982 960 86 300 190/05 RMK AO2
14837KMSN MSN20041123033509711/23/04 03:35:31  5-MIN KMSN 230935Z 21006KT 5SM HZ OVC042 07/04 A2982 960 82 300 210/06 RMK AO2
14837KMSN MSN20041123034010411/23/04 03:40:31  5-MIN KMSN 230940Z 20008KT 5SM HZ FEW028 OVC042 07/04 A2982 960 82 300 200/08 RMK AO2
14837KMSN MSN20041123043010411/23/04 04:30:31  5-MIN KMSN 231030Z 21005KT 5SM HZ SCT016 BKN040 07/04 A2982 960 82 300 210/05 RMK AO2
14837KMSN MSN20041123043510411/23/04 04:35:31  5-MIN KMSN 231035Z 21006KT 5SM BR SCT016 BKN040 07/05 A2982 960 86 300 210/06 RMK AO2
14837KMSN MSN20041123044010411/23/04 04:40:31  5-MIN KMSN 231040Z 22007KT 5SM BR BKN016 BKN038 07/05 A2982 960 86 300 220/07 RMK AO2
14837KMSN MSN20041123044510411/23/04 04:45:31  5-MIN KMSN 231045Z 22007KT 5SM BR BKN016 BKN021 07/05 A2982 960 86 300 220/07 RMK AO2
14837KMSN MSN20041123045012111/23/04 04:50:31  5-MIN KMSN 231050Z 22009KT 5SM BR FEW014 BKN018 07/05 A2982 960 86 300 220/09 RMK AO2 SLP102 T00720050
14837KMSN MSN20041123045510411/23/04 04:55:31  5-MIN KMSN 231055Z VRB05KT 5SM BR BKN015 OVC020 07/05 A2982 960 86 300 VRB/05 RMK AO2
14837KMSN MSN20041123050010411/23/04 05:00:31  5-MIN KMSN 231100Z 22005KT 5SM BR BKN015 OVC020 07/05 A2982 960 86 300 220/05 RMK AO2
14837KMSN MSN20041123050511111/23/04 05:05:31  5-MIN KMSN 231105Z VRB05KT 5SM BR SCT015 BKN020 OVC033 07/05 A2982 960 86 300 VRB/05 RMK AO2
14837KMSN MSN20041123051010411/23/04 05:10:31  5-MIN KMSN 231110Z 23005KT 5SM BR SCT017 OVC033 07/05 A2982 960 86 300 230/05 RMK AO2
14837KMSN MSN20041123051510411/23/04 05:15:31  5-MIN KMSN 231115Z 23006KT 5SM BR SCT017 OVC031 07/05 A2982 960 86 300 230/06 RMK AO2
14837KMSN MSN20041123052010411/23/04 05:20:31  5-MIN KMSN 231120Z 23006KT 5SM HZ FEW015 OVC031 08/05 A2982 960 82 400 230/06 RMK AO2
14837KMSN MSN20041123052510411/23/04 05:25:31  5-MIN KMSN 231125Z 23007KT 5SM HZ FEW015 OVC031 08/05 A2981 970 82 400 230/07 RMK AO2
14837KMSN MSN20041123053009711/23/04 05:30:31  5-MIN KMSN 231130Z VRB04KT 5SM BR OVC029 07/05 A2981 960 86 300 VRB/04 RMK AO2
14837KMSN MSN20041123053510411/23/04 05:35:31  5-MIN KMSN 231135Z 23006KT 5SM BR FEW014 OVC029 07/05 A2981 960 86 300 230/06 RMK AO2
14837KMSN MSN20041123054010411/23/04 05:40:31  5-MIN KMSN 231140Z 22005KT 5SM BR FEW014 OVC027 07/05 A2982 960 86 300 220/05 RMK AO2
14837KMSN MSN20041123054510411/23/04 05:45:31  5-MIN KMSN 231145Z 21006KT 5SM BR FEW014 OVC027 07/05 A2981 960 86 300 210/06 RMK AO2
14837KMSN MSN20041123055013911/23/04 05:50:31  5-MIN KMSN 231150Z 22006KT 5SM BR FEW014 OVC027 07/05 A2982 960 86 300 220/06 RMK AO2 SLP102 T00720050 10078 20067 56011
14837KMSN MSN20041123055510411/23/04 05:55:31  5-MIN KMSN 231155Z 22005KT 5SM BR FEW014 OVC027 07/05 A2982 960 86 300 220/05 RMK AO2
14837KMSN MSN20041123060011111/23/04 06:00:31  5-MIN KMSN 231200Z VRB05KT 5SM BR FEW014 SCT021 OVC027 07/05 A2981 960 86 300 VRB/05 RMK AO2
14837KMSN MSN20041123060510411/23/04 06:05:31  5-MIN KMSN 231205Z 21006KT 5SM BR FEW014 OVC025 07/05 A2982 960 86 300 210/06 RMK AO2
14837KMSN MSN20041123061010411/23/04 06:10:31  5-MIN KMSN 231210Z 21008KT 5SM BR FEW014 OVC025 07/05 A2981 960 86 300 210/08 RMK AO2
14837KMSN MSN20041123061510411/23/04 06:15:31  5-MIN KMSN 231215Z VRB04KT 5SM BR FEW014 OVC025 07/05 A2981 960 86 300 VRB/04 RMK AO2
14837KMSN MSN20041123062009711/23/04 06:20:31  5-MIN KMSN 231220Z VRB04KT 5SM BR OVC023 07/05 A2981 960 86 300 VRB/04 RMK AO2
14837KMSN MSN20041123062511311/23/04 06:25:31  5-MIN KMSN 231225Z 23007KT 200V270 5SM HZ OVC023 07/04 A2981 960 82 300 230/07 200V270 RMK AO2
14837KMSN MSN20041123063011911/23/04 06:30:31  5-MIN KMSN 231230Z 23007G14KT 200V260 5SM HZ BKN023 07/04 A2981 970 82 300 230/07G14 200V260 RMK AO2
14837KMSN MSN20041123063510311/23/04 06:35:31  5-MIN KMSN 231235Z VRB05G14KT 6SM HZ BKN023 07/04 A2981 970 82 300 VRB/05G14 RMK AO2
14837KMSN MSN20041123064009711/23/04 06:40:31  5-MIN KMSN 231240Z VRB06KT 6SM HZ BKN021 07/04 A2981 960 82 300 VRB/06 RMK AO2
14837KMSN MSN20041123064509711/23/04 06:45:31  5-MIN KMSN 231245Z VRB06KT 4SM HZ BKN021 07/04 A2982 960 82 300 VRB/06 RMK AO2
14837KMSN MSN20041123065011411/23/04 06:50:31  5-MIN KMSN 231250Z VRB05KT 4SM HZ BKN021 07/04 A2982 960 82 300 VRB/05 RMK AO2 SLP103 T00720044
14837KMSN MSN20041123065511311/23/04 06:55:31  5-MIN KMSN 231255Z 24007KT 200V260 5SM HZ BKN021 07/04 A2981 960 82 300 230/07 200V260 RMK AO2
14837KMSN MSN20041123070011311/23/04 07:00:31  5-MIN KMSN 231300Z 25007KT 220V280 6SM HZ BKN021 07/04 A2982 960 82 300 250/07 220V280 RMK AO2
14837KMSN MSN20041123070509711/23/04 07:05:31  5-MIN KMSN 231305Z VRB06KT 6SM HZ BKN021 07/04 A2982 960 79 300 VRB/06 RMK AO2
14837KMSN MSN20041123071009711/23/04 07:10:31  5-MIN KMSN 231310Z VRB05KT 5SM HZ BKN021 07/04 A2982 960 79 300 VRB/05 RMK AO2
14837KMSN MSN20041123071509711/23/04 07:15:31  5-MIN KMSN 231315Z 24008KT 4SM HZ BKN021 07/04 A2983 950 79 300 240/08 RMK AO2
14837KMSN MSN20041123072009711/23/04 07:20:31  5-MIN KMSN 231320Z 26006KT 4SM HZ BKN021 07/04 A2983 950 79 300 260/06 RMK AO2
14837KMSN MSN20041123072509711/23/04 07:25:31  5-MIN KMSN 231325Z 26007KT 4SM HZ BKN021 07/04 A2983 950 79 300 260/07 RMK AO2
14837KMSN MSN20041123073009711/23/04 07:30:31  5-MIN KMSN 231330Z VRB05KT 4SM HZ BKN021 07/04 A2983 950 79 300 VRB/05 RMK AO2
14837KMSN MSN20041123073509711/23/04 07:35:31  5-MIN KMSN 231335Z VRB05KT 4SM HZ BKN021 07/04 A2983 940 79 300 VRB/05 RMK AO2
14837KMSN MSN20041123074009711/23/04 07:40:31  5-MIN KMSN 231340Z VRB05KT 4SM HZ OVC019 07/04 A2984 940 79 300 VRB/05 RMK AO2
14837KMSN MSN20041123074509711/23/04 07:45:31  5-MIN KMSN 231345Z VRB05KT 4SM HZ OVC019 07/03 A2984 940 76 300 VRB/05 RMK AO2
14837KMSN MSN20041123075011411/23/04 07:50:31  5-MIN KMSN 231350Z 27004KT 4SM HZ OVC019 07/03 A2984 940 76 300 270/04 RMK AO2 SLP111 T00720033
14837KMSN MSN20041123075509711/23/04 07:55:31  5-MIN KMSN 231355Z 28005KT 4SM HZ OVC019 07/03 A2984 930 76 300 280/05 RMK AO2
14837KMSN MSN20041123080009711/23/04 08:00:31  5-MIN KMSN 231400Z 27006KT 5SM HZ OVC019 07/03 A2984 930 76 300 270/06 RMK AO2
14837KMSN MSN20041123080509711/23/04 08:05:31  5-MIN KMSN 231405Z VRB05KT 5SM HZ OVC019 07/03 A2985 930 76 300 VRB/05 RMK AO2
14837KMSN MSN20041123081009711/23/04 08:10:31  5-MIN KMSN 231410Z VRB05KT 5SM HZ OVC019 07/03 A2985 930 76 300 VRB/05 RMK AO2
14837KMSN MSN20041123081509711/23/04 08:15:31  5-MIN KMSN 231415Z 27005KT 5SM HZ OVC019 07/03 A2986 920 76 300 270/05 RMK AO2
14837KMSN MSN20041123082010311/23/04 08:20:31  5-MIN KMSN 231420Z 28010G14KT 5SM HZ OVC019 07/03 A2986 920 76 200 280/10G14 RMK AO2
14837KMSN MSN20041123082509711/23/04 08:25:31  5-MIN KMSN 231425Z 28007KT 5SM HZ OVC019 07/03 A2986 920 73 200 280/07 RMK AO2
14837KMSN MSN20041123083011311/23/04 08:30:31  5-MIN KMSN 231430Z 27008KT 250V310 5SM HZ OVC019 07/03 A2986 920 73 200 270/08 250V310 RMK AO2
14837KMSN MSN20041123083509711/23/04 08:35:31  5-MIN KMSN 231435Z VRB05KT 5SM HZ OVC019 07/03 A2986 920 73 200 VRB/05 RMK AO2
14837KMSN MSN20041123084009711/23/04 08:40:31  5-MIN KMSN 231440Z 27007KT 5SM HZ OVC019 07/03 A2987 910 76 200 270/07 RMK AO2
14837KMSN MSN20041123084509711/23/04 08:45:31  5-MIN KMSN 231445Z 28006KT 5SM HZ OVC019 07/03 A2987 910 76 200 280/06 RMK AO2
14837KMSN MSN20041123085012011/23/04 08:50:31  5-MIN KMSN 231450Z 29009KT 5SM HZ OVC019 07/03 A2987 910 76 200 290/09 RMK AO2 SLP120 T00670028 55005
14837KMSN MSN20041123085509711/23/04 08:55:31  5-MIN KMSN 231455Z 30007KT 5SM HZ OVC019 07/02 A2987 910 73 200 300/07 RMK AO2
14837KMSN MSN20041123090010311/23/04 09:00:31  5-MIN KMSN 231500Z 29009G14KT 5SM HZ OVC019 07/02 A2988 900 73 200 290/09G14 RMK AO2
14837KMSN MSN20041123090509711/23/04 09:05:31  5-MIN KMSN 231505Z 28008KT 5SM HZ OVC019 07/02 A2988 900 70 200 280/08 RMK AO2
14837KMSN MSN20041123091009711/23/04 09:10:31  5-MIN KMSN 231510Z 28010KT 5SM HZ OVC019 07/02 A2988 900 70 200 280/10 RMK AO2
14837KMSN MSN20041123091509711/23/04 09:15:31  5-MIN KMSN 231515Z 30007KT 5SM HZ OVC019 06/02 A2989 900 73 100 300/07 RMK AO2
14837KMSN MSN20041123092009711/23/04 09:20:31  5-MIN KMSN 231520Z 31009KT 5SM HZ OVC019 06/02 A2989 890 73 100 310/09 RMK AO2
14837KMSN MSN20041123092509711/23/04 09:25:31  5-MIN KMSN 231525Z 31009KT 5SM HZ OVC019 06/02 A2989 890 73 100 310/09 RMK AO2
14837KMSN MSN20041123093009711/23/04 09:30:31  5-MIN KMSN 231530Z 28007KT 5SM HZ OVC019 06/02 A2990 890 73 100 280/07 RMK AO2
14837KMSN MSN20041123093509711/23/04 09:35:31  5-MIN KMSN 231535Z 28008KT 5SM HZ OVC019 06/02 A2990 890 73 100 280/08 RMK AO2
14837KMSN MSN20041123094009711/23/04 09:40:31  5-MIN KMSN 231540Z 30007KT 5SM HZ OVC019 06/02 A2990 890 73 100 300/07 RMK AO2
14837KMSN MSN20041123094509711/23/04 09:45:31  5-MIN KMSN 231545Z 31007KT 5SM HZ OVC019 06/02 A2990 880 73 100 310/07 RMK AO2
14837KMSN MSN20041123095011411/23/04 09:50:31  5-MIN KMSN 231550Z 32010KT 6SM HZ OVC019 06/01 A2990 880 70 100 320/10 RMK AO2 SLP132 T00610011
14837KMSN MSN20041123095509511/23/04 09:55:31  5-MIN KMSN 231555Z 29007KT 6SM HZ OVC019 06/01 A2991 880 73 0 290/07 RMK AO2
14837KMSN MSN20041123100009511/23/04 10:00:31  5-MIN KMSN 231600Z 28007KT 6SM HZ OVC019 06/01 A2991 880 73 0 280/07 RMK AO2
14837KMSN MSN20041123100509511/23/04 10:05:31  5-MIN KMSN 231605Z 29008KT 6SM HZ OVC019 06/01 A2991 870 73 0 290/08 RMK AO2
14837KMSN MSN20041123101009511/23/04 10:10:31  5-MIN KMSN 231610Z 31008KT 6SM HZ OVC019 06/01 A2991 870 73 0 310/08 RMK AO2
14837KMSN MSN20041123101511111/23/04 10:15:31  5-MIN KMSN 231615Z 30009KT 270V340 6SM HZ OVC019 06/01 A2991 870 70 0 300/09 270V340 RMK AO2
14837KMSN MSN20041123102009511/23/04 10:20:31  5-MIN KMSN 231620Z 29009KT 6SM HZ OVC019 06/01 A2991 870 70 0 290/09 RMK AO2
14837KMSN MSN20041123102510811/23/04 10:25:31  5-MIN KMSN 231625Z 30008KT 260V320 7SM OVC019 06/01 A2991 870 70 0 300/08 260V320 RMK AO2
14837KMSN MSN20041123103009811/23/04 10:30:31  5-MIN KMSN 231630Z 28008G15KT 7SM OVC019 06/01 A2991 870 70 0 280/08G15 RMK AO2
14837KMSN MSN20041123103509811/23/04 10:35:31  5-MIN KMSN 231635Z 32008G15KT 7SM OVC019 06/01 A2991 870 67 0 320/08G15 RMK AO2
14837KMSN MSN20041123104009411/23/04 10:40:31  5-MIN KMSN 231640Z 30007KT 7SM OVC021 06/01 A2991 870 67 100 300/07 RMK AO2
14837KMSN MSN20041123104509211/23/04 10:45:31  5-MIN KMSN 231645Z 31007KT 7SM OVC021 06/01 A2991 870 67 0 310/07 RMK AO2
14837KMSN MSN20041123105010911/23/04 10:50:31  5-MIN KMSN 231650Z 29007KT 7SM BKN021 06/01 A2992 870 67 0 290/07 RMK AO2 SLP136 T00610006
14837KMSN MSN20041123105509211/23/04 10:55:31  5-MIN KMSN 231655Z 33008KT 7SM BKN021 06/01 A2991 870 70 0 330/08 RMK AO2
14837KMSN MSN20041123110009211/23/04 11:00:31  5-MIN KMSN 231700Z 32006KT 7SM BKN021 06/01 A2991 870 70 0 320/06 RMK AO2
14837KMSN MSN20041123110509211/23/04 11:05:31  5-MIN KMSN 231705Z 29007KT 8SM BKN021 06/01 A2992 870 67 0 290/07 RMK AO2
14837KMSN MSN20041123111009211/23/04 11:10:31  5-MIN KMSN 231710Z 30008KT 8SM BKN021 06/00 A2992 870 65 0 300/08 RMK AO2
14837KMSN MSN20041123111509911/23/04 11:15:31  5-MIN KMSN 231715Z 29008KT 9SM BKN024 BKN028 06/00 A2992 870 67 0 290/08 RMK AO2
14837KMSN MSN20041123112009311/23/04 11:20:31  5-MIN KMSN 231720Z 30006KT 10SM BKN024 06/00 A2992 870 65 0 300/06 RMK AO2
14837KMSN MSN20041123112509311/23/04 11:25:31  5-MIN KMSN 231725Z VRB04KT 10SM BKN026 06/00 A2991 870 65 0 VRB/04 RMK AO2
14837KMSN MSN20041123113009511/23/04 11:30:31  5-MIN KMSN 231730Z 31007KT 10SM BKN026 07/00 A2991 870 62 100 310/07 RMK AO2
14837KMSN MSN20041123113509511/23/04 11:35:31  5-MIN KMSN 231735Z 31008KT 10SM BKN026 06/00 A2991 870 65 100 300/08 RMK AO2
14837KMSN MSN20041123114009611/23/04 11:40:31  5-MIN KMSN 231740Z 30010KT 10SM BKN026 06/M01 A2991 870 62 100 300/10 RMK AO2
14837KMSN MSN20041123114509511/23/04 11:45:31  5-MIN KMSN 231745Z 30006KT 10SM BKN026 06/00 A2991 880 65 100 300/06 RMK AO2
14837KMSN MSN20041123115013011/23/04 11:50:31  5-MIN KMSN 231750Z 31010KT 10SM BKN028 08/00 A2991 880 58 300 300/10 RMK AO2 SLP132 T00780000 10078 20056 53018
14837KMSN MSN20041123115509511/23/04 11:55:31  5-MIN KMSN 231755Z 33008KT 10SM BKN028 08/00 A2991 870 58 300 330/08 RMK AO2
14837KMSN MSN20041123120009511/23/04 12:00:31  5-MIN KMSN 231800Z 34008KT 10SM BKN028 08/00 A2991 870 58 300 330/08 RMK AO2
14837KMSN MSN20041123120509511/23/04 12:05:31  5-MIN KMSN 231805Z 33008KT 10SM BKN028 07/00 A2991 870 60 200 330/08 RMK AO2
14837KMSN MSN20041123121009511/23/04 12:10:31  5-MIN KMSN 231810Z 31008KT 10SM BKN028 07/00 A2991 870 60 200 310/08 RMK AO2
14837KMSN MSN20041123121509611/23/04 12:15:31  5-MIN KMSN 231815Z 32009KT 10SM BKN028 07/M01 A2991 880 57 200 320/09 RMK AO2
14837KMSN MSN20041123122009511/23/04 12:20:31  5-MIN KMSN 231820Z 31006KT 10SM SCT028 07/00 A2991 870 60 200 310/06 RMK AO2
14837KMSN MSN20041123122509611/23/04 12:25:31  5-MIN KMSN 231825Z 30007KT 10SM SCT028 07/M01 A2991 880 60 100 300/07 RMK AO2
14837KMSN MSN20041123123009611/23/04 12:30:31  5-MIN KMSN 231830Z 28008KT 10SM SCT028 07/M01 A2991 880 57 200 280/08 RMK AO2
14837KMSN MSN20041123123509511/23/04 12:35:31  5-MIN KMSN 231835Z 30008KT 10SM FEW028 08/00 A2990 880 58 300 290/08 RMK AO2
14837KMSN MSN20041123124009611/23/04 12:40:31  5-MIN KMSN 231840Z 32008KT 10SM FEW028 08/M01 A2990 880 55 300 320/08 RMK AO2
14837KMSN MSN20041123124509611/23/04 12:45:31  5-MIN KMSN 231845Z 31008KT 10SM FEW028 08/M01 A2990 880 53 300 310/08 RMK AO2
14837KMSN MSN20041123125011311/23/04 12:50:31  5-MIN KMSN 231850Z 32010KT 10SM FEW028 08/M01 A2990 880 55 300 320/10 RMK AO2 SLP129 T00781006
14837KMSN MSN20041123125509611/23/04 12:55:31  5-MIN KMSN 231855Z 31008KT 10SM FEW028 08/M01 A2990 890 55 300 310/08 RMK AO2
14837KMSN MSN20041123130009611/23/04 13:00:31  5-MIN KMSN 231900Z 32008KT 10SM FEW028 08/M02 A2990 890 51 300 320/08 RMK AO2
14837KMSN MSN20041123130511211/23/04 13:05:31  5-MIN KMSN 231905Z 31008KT 280V340 10SM FEW028 08/M02 A2990 890 51 300 310/08 280V340 RMK AO2
14837KMSN MSN20041123131009611/23/04 13:10:31  5-MIN KMSN 231910Z VRB05KT 10SM FEW028 08/M01 A2990 890 53 300 VRB/05 RMK AO2
14837KMSN MSN20041123131509611/23/04 13:15:31  5-MIN KMSN 231915Z 30009KT 10SM FEW028 08/M02 A2990 880 51 300 290/09 RMK AO2
14837KMSN MSN20041123132009611/23/04 13:20:31  5-MIN KMSN 231920Z 32009KT 10SM FEW028 08/M02 A2990 880 51 300 320/09 RMK AO2
14837KMSN MSN20041123132509311/23/04 13:25:31  5-MIN KMSN 231925Z 31007KT 10SM CLR 08/M02 A2990 880 51 300 310/07 RMK AO2
14837KMSN MSN20041123133009311/23/04 13:30:31  5-MIN KMSN 231930Z 28009KT 10SM CLR 08/M02 A2990 880 49 300 280/09 RMK AO2
14837KMSN MSN20041123133509311/23/04 13:35:31  5-MIN KMSN 231935Z VRB05KT 10SM CLR 08/M02 A2990 880 49 300 VRB/05 RMK AO2
14837KMSN MSN20041123134010911/23/04 13:40:31  5-MIN KMSN 231940Z 30009KT 260V330 10SM CLR 08/M02 A2990 880 49 300 300/09 260V330 RMK AO2
14837KMSN MSN20041123134509311/23/04 13:45:31  5-MIN KMSN 231945Z VRB05KT 10SM CLR 08/M02 A2990 880 49 300 VRB/05 RMK AO2
14837KMSN MSN20041123135011011/23/04 13:50:31  5-MIN KMSN 231950Z 29006KT 10SM CLR 08/M02 A2990 880 49 300 290/06 RMK AO2 SLP130 T00781022
14837KMSN MSN20041123135509311/23/04 13:55:31  5-MIN KMSN 231955Z 30009KT 10SM CLR 08/M02 A2991 880 49 300 290/09 RMK AO2
14837KMSN MSN20041123140009311/23/04 14:00:31  5-MIN KMSN 232000Z 29008KT 10SM CLR 08/M02 A2991 870 49 300 290/08 RMK AO2
14837KMSN MSN20041123140509311/23/04 14:05:31  5-MIN KMSN 232005Z 30004KT 10SM CLR 08/M02 A2991 870 49 300 300/04 RMK AO2
14837KMSN MSN20041123141009311/23/04 14:10:31  5-MIN KMSN 232010Z 31009KT 10SM CLR 08/M02 A2991 880 49 300 310/09 RMK AO2
14837KMSN MSN20041123141509311/23/04 14:15:31  5-MIN KMSN 232015Z 30009KT 10SM CLR 08/M02 A2991 880 49 300 300/09 RMK AO2
14837KMSN MSN20041123142009311/23/04 14:20:31  5-MIN KMSN 232020Z 31008KT 10SM CLR 08/M03 A2991 880 47 300 310/08 RMK AO2
14837KMSN MSN20041123142509311/23/04 14:25:31  5-MIN KMSN 232025Z 31006KT 10SM CLR 08/M03 A2991 880 47 300 300/06 RMK AO2
14837KMSN MSN20041123143009311/23/04 14:30:31  5-MIN KMSN 232030Z 31008KT 10SM CLR 08/M03 A2991 870 45 300 310/08 RMK AO2
14837KMSN MSN20041123143509911/23/04 14:35:31  5-MIN KMSN 232035Z 31010G14KT 10SM CLR 07/M03 A2991 870 47 200 310/10G14 RMK AO2
14837KMSN MSN20041123144009911/23/04 14:40:31  5-MIN KMSN 232040Z 31008G14KT 10SM CLR 07/M04 A2991 870 45 200 310/08G14 RMK AO2
14837KMSN MSN20041123144509911/23/04 14:45:31  5-MIN KMSN 232045Z 30010G14KT 10SM CLR 07/M03 A2991 870 47 200 300/10G14 RMK AO2
14837KMSN MSN20041123145011611/23/04 14:50:31  5-MIN KMSN 232050Z 31008KT 10SM CLR 08/M04 A2991 870 43 300 310/08 RMK AO2 SLP134 T00781039 50013
14837KMSN MSN20041123145509311/23/04 14:55:31  5-MIN KMSN 232055Z 31006KT 10SM CLR 08/M03 A2991 870 45 200 310/06 RMK AO2
14837KMSN MSN20041123150009311/23/04 15:00:31  5-MIN KMSN 232100Z 28005KT 10SM CLR 08/M03 A2992 870 45 200 280/05 RMK AO2
14837KMSN MSN20041123150509311/23/04 15:05:31  5-MIN KMSN 232105Z 30008KT 10SM CLR 07/M04 A2992 870 45 200 300/08 RMK AO2
14837KMSN MSN20041123151009311/23/04 15:10:31  5-MIN KMSN 232110Z 31008KT 10SM CLR 07/M04 A2992 870 45 200 310/08 RMK AO2
14837KMSN MSN20041123151509311/23/04 15:15:31  5-MIN KMSN 232115Z 32006KT 10SM CLR 07/M04 A2992 870 45 200 310/06 RMK AO2
14837KMSN MSN20041123152009311/23/04 15:20:31  5-MIN KMSN 232120Z 31006KT 10SM CLR 07/M04 A2992 870 45 200 310/06 RMK AO2
14837KMSN MSN20041123152509311/23/04 15:25:31  5-MIN KMSN 232125Z 32008KT 10SM CLR 07/M04 A2992 860 45 200 320/08 RMK AO2
14837KMSN MSN20041123153009311/23/04 15:30:31  5-MIN KMSN 232130Z VRB06KT 10SM CLR 07/M04 A2993 860 43 200 VRB/06 RMK AO2
14837KMSN MSN20041123153509311/23/04 15:35:31  5-MIN KMSN 232135Z 31006KT 10SM CLR 07/M04 A2993 860 43 200 310/06 RMK AO2
14837KMSN MSN20041123154009311/23/04 15:40:31  5-MIN KMSN 232140Z 30006KT 10SM CLR 07/M04 A2993 860 43 200 300/06 RMK AO2
14837KMSN MSN20041123154509311/23/04 15:45:31  5-MIN KMSN 232145Z 31005KT 10SM CLR 07/M04 A2992 860 45 100 300/05 RMK AO2
14837KMSN MSN20041123155011011/23/04 15:50:31  5-MIN KMSN 232150Z 32005KT 10SM CLR 07/M04 A2992 860 47 100 310/05 RMK AO2 SLP137 T00671039
14837KMSN MSN20041123155509111/23/04 15:55:31  5-MIN KMSN 232155Z 31005KT 10SM CLR 06/M04 A2992 860 46 0 310/05 RMK AO2
14837KMSN MSN20041123160009111/23/04 16:00:31  5-MIN KMSN 232200Z 31006KT 10SM CLR 06/M04 A2992 860 46 0 310/06 RMK AO2
14837KMSN MSN20041123160509111/23/04 16:05:31  5-MIN KMSN 232205Z 31005KT 10SM CLR 06/M04 A2993 860 48 0 310/05 RMK AO2
14837KMSN MSN20041123161009111/23/04 16:10:31  5-MIN KMSN 232210Z 30005KT 10SM CLR 06/M04 A2993 860 48 0 300/05 RMK AO2
14837KMSN MSN20041123161509111/23/04 16:15:31  5-MIN KMSN 232215Z 30003KT 10SM CLR 06/M04 A2993 860 48 0 300/03 RMK AO2
14837KMSN MSN20041123162009411/23/04 16:20:31  5-MIN KMSN 232220Z 30003KT 10SM CLR 05/M04 A2993 860 50 -100 300/03 RMK AO2
14837KMSN MSN20041123162509111/23/04 16:25:31  5-MIN KMSN 232225Z 31003KT 10SM CLR 06/M04 A2993 860 48 0 310/03 RMK AO2
14837KMSN MSN20041123163009411/23/04 16:30:31  5-MIN KMSN 232230Z 31003KT 10SM CLR 05/M04 A2993 860 50 -100 310/03 RMK AO2
14837KMSN MSN20041123163509411/23/04 16:35:31  5-MIN KMSN 232235Z 30003KT 10SM CLR 05/M04 A2993 850 50 -100 300/03 RMK AO2
14837KMSN MSN20041123164009411/23/04 16:40:31  5-MIN KMSN 232240Z 30003KT 10SM CLR 04/M04 A2993 850 52 -100 290/03 RMK AO2
14837KMSN MSN20041123164509411/23/04 16:45:31  5-MIN KMSN 232245Z 00000KT 10SM CLR 04/M04 A2993 850 57 -200 000/00 RMK AO2
14837KMSN MSN20041123165011111/23/04 16:50:31  5-MIN KMSN 232250Z 00000KT 10SM CLR 03/M04 A2994 850 59 -300 000/00 RMK AO2 SLP143 T00331039
14837KMSN MSN20041123165509411/23/04 16:55:31  5-MIN KMSN 232255Z 00000KT 10SM CLR 04/M04 A2994 850 57 -200 000/00 RMK AO2
14837KMSN MSN20041123170009411/23/04 17:00:31  5-MIN KMSN 232300Z 00000KT 10SM CLR 04/M03 A2994 850 59 -200 000/00 RMK AO2
14837KMSN MSN20041123170509411/23/04 17:05:31  5-MIN KMSN 232305Z 00000KT 10SM CLR 03/M03 A2994 840 67 -300 000/00 RMK AO2
14837KMSN MSN20041123171009411/23/04 17:10:31  5-MIN KMSN 232310Z 30003KT 10SM CLR 02/M03 A2994 840 67 -400 300/03 RMK AO2
14837KMSN MSN20041123171509411/23/04 17:15:31  5-MIN KMSN 232315Z 30003KT 10SM CLR 03/M04 A2994 840 59 -300 300/03 RMK AO2
14837KMSN MSN20041123172009411/23/04 17:20:31  5-MIN KMSN 232320Z 32003KT 10SM CLR 03/M04 A2995 840 59 -300 320/03 RMK AO2
14837KMSN MSN20041123172509411/23/04 17:25:31  5-MIN KMSN 232325Z 34003KT 10SM CLR 02/M04 A2995 840 61 -400 340/03 RMK AO2
14837KMSN MSN20041123173009411/23/04 17:30:31  5-MIN KMSN 232330Z 00000KT 10SM CLR 02/M04 A2995 840 61 -400 000/00 RMK AO2
14837KMSN MSN20041123173509411/23/04 17:35:31  5-MIN KMSN 232335Z 00000KT 10SM CLR 02/M04 A2995 830 64 -400 000/00 RMK AO2
14837KMSN MSN20041123174009411/23/04 17:40:31  5-MIN KMSN 232340Z 00000KT 10SM CLR 02/M04 A2995 840 64 -400 000/00 RMK AO2
14837KMSN MSN20041123174509411/23/04 17:45:31  5-MIN KMSN 232345Z 00000KT 10SM CLR 02/M04 A2995 830 64 -400 000/00 RMK AO2
14837KMSN MSN20041123175012911/23/04 17:50:31  5-MIN KMSN 232350Z 00000KT 10SM CLR 01/M03 A2995 840 72 -600 000/00 RMK AO2 SLP148 T00111033 10083 20011 53001
14837KMSN MSN20041123175509411/23/04 17:55:31  5-MIN KMSN 232355Z 32003KT 10SM CLR 02/M04 A2995 840 64 -500 320/03 RMK AO2
14837KMSN MSN20041123180009411/23/04 18:00:31  5-MIN KMSN 240000Z 32004KT 10SM CLR 01/M04 A2995 830 69 -600 320/04 RMK AO2
14837KMSN MSN20041123180509411/23/04 18:05:31  5-MIN KMSN 240005Z 32004KT 10SM CLR 01/M04 A2996 830 69 -600 320/04 RMK AO2
14837KMSN MSN20041123181009411/23/04 18:10:31  5-MIN KMSN 240010Z 33004KT 10SM CLR 02/M04 A2996 830 64 -500 330/04 RMK AO2
14837KMSN MSN20041123181509411/23/04 18:15:31  5-MIN KMSN 240015Z 32003KT 10SM CLR 01/M04 A2996 830 69 -600 320/03 RMK AO2
14837KMSN MSN20041123182009411/23/04 18:20:31  5-MIN KMSN 240020Z 33003KT 10SM CLR 01/M04 A2996 830 69 -600 330/03 RMK AO2
14837KMSN MSN20041123182509411/23/04 18:25:31  5-MIN KMSN 240025Z 33004KT 10SM CLR 02/M04 A2996 830 64 -500 330/04 RMK AO2
14837KMSN MSN20041123183009411/23/04 18:30:31  5-MIN KMSN 240030Z 32004KT 10SM CLR 02/M05 A2996 830 61 -500 320/04 RMK AO2
14837KMSN MSN20041123183509411/23/04 18:35:31  5-MIN KMSN 240035Z 32004KT 10SM CLR 02/M05 A2996 820 59 -400 320/04 RMK AO2
14837KMSN MSN20041123184009411/23/04 18:40:31  5-MIN KMSN 240040Z 32004KT 10SM CLR 03/M06 A2996 820 54 -400 320/04 RMK AO2
14837KMSN MSN20041123184509411/23/04 18:45:31  5-MIN KMSN 240045Z 33004KT 10SM CLR 02/M06 A2997 820 56 -400 330/04 RMK AO2
14837KMSN MSN20041123185011111/23/04 18:50:31  5-MIN KMSN 240050Z 33004KT 10SM CLR 02/M05 A2996 820 61 -500 330/04 RMK AO2 SLP153 T00171050
14837KMSN MSN20041123185509411/23/04 18:55:31  5-MIN KMSN 240055Z 33004KT 10SM CLR 02/M05 A2997 820 61 -500 330/04 RMK AO2
14837KMSN MSN20041123190009411/23/04 19:00:31  5-MIN KMSN 240100Z 35005KT 10SM CLR 01/M05 A2997 820 64 -600 350/05 RMK AO2
14837KMSN MSN20041123190509411/23/04 19:05:31  5-MIN KMSN 240105Z 34003KT 10SM CLR 01/M05 A2997 820 66 -600 340/03 RMK AO2
14837KMSN MSN20041123191009411/23/04 19:10:31  5-MIN KMSN 240110Z 34003KT 10SM CLR 01/M05 A2997 820 66 -600 340/03 RMK AO2
14837KMSN MSN20041123191509411/23/04 19:15:31  5-MIN KMSN 240115Z 34003KT 10SM CLR 01/M05 A2997 820 66 -700 340/03 RMK AO2
14837KMSN MSN20041123192009411/23/04 19:20:31  5-MIN KMSN 240120Z 34003KT 10SM CLR 01/M05 A2997 820 64 -600 330/03 RMK AO2
14837KMSN MSN20041123192509411/23/04 19:25:31  5-MIN KMSN 240125Z 34003KT 10SM CLR 01/M05 A2997 820 64 -600 330/03 RMK AO2
14837KMSN MSN20041123193009411/23/04 19:30:31  5-MIN KMSN 240130Z 34003KT 10SM CLR 01/M05 A2997 820 66 -700 340/03 RMK AO2
14837KMSN MSN20041123193509411/23/04 19:35:31  5-MIN KMSN 240135Z 34005KT 10SM CLR 02/M06 A2996 830 59 -500 340/05 RMK AO2
14837KMSN MSN20041123194009411/23/04 19:40:31  5-MIN KMSN 240140Z 34004KT 10SM CLR 02/M06 A2996 820 59 -500 340/04 RMK AO2
14837KMSN MSN20041123194509411/23/04 19:45:31  5-MIN KMSN 240145Z 34004KT 10SM CLR 02/M06 A2996 820 59 -500 340/04 RMK AO2
14837KMSN MSN20041123195011111/23/04 19:50:31  5-MIN KMSN 240150Z 33004KT 10SM CLR 02/M06 A2997 820 59 -500 330/04 RMK AO2 SLP154 T00171056
14837KMSN MSN20041123195509411/23/04 19:55:31  5-MIN KMSN 240155Z 34005KT 10SM CLR 02/M06 A2997 820 59 -500 340/05 RMK AO2
14837KMSN MSN20041123200009411/23/04 20:00:31  5-MIN KMSN 240200Z 33005KT 10SM CLR 02/M06 A2997 820 59 -500 330/05 RMK AO2
14837KMSN MSN20041123200509411/23/04 20:05:31  5-MIN KMSN 240205Z 33005KT 10SM CLR 02/M06 A2998 810 56 -500 330/05 RMK AO2
14837KMSN MSN20041123201009411/23/04 20:10:31  5-MIN KMSN 240210Z 33005KT 10SM CLR 02/M06 A2998 810 56 -500 330/05 RMK AO2
14837KMSN MSN20041123201509411/23/04 20:15:31  5-MIN KMSN 240215Z 33006KT 10SM CLR 01/M06 A2998 810 58 -600 330/06 RMK AO2
14837KMSN MSN20041123202009411/23/04 20:20:31  5-MIN KMSN 240220Z 33006KT 10SM CLR 01/M06 A2998 810 58 -600 330/06 RMK AO2
14837KMSN MSN20041123202509411/23/04 20:25:31  5-MIN KMSN 240225Z 33006KT 10SM CLR 01/M07 A2998 810 56 -600 330/06 RMK AO2
14837KMSN MSN20041123203009411/23/04 20:30:31  5-MIN KMSN 240230Z 33007KT 10SM CLR 01/M07 A2998 800 56 -600 330/07 RMK AO2
14837KMSN MSN20041123203509411/23/04 20:35:31  5-MIN KMSN 240235Z 34006KT 10SM CLR 01/M07 A2999 800 56 -600 330/06 RMK AO2
14837KMSN MSN20041123204009411/23/04 20:40:31  5-MIN KMSN 240240Z 34005KT 10SM CLR 01/M07 A2999 800 56 -600 340/05 RMK AO2
14837KMSN MSN20041123204509411/23/04 20:45:31  5-MIN KMSN 240245Z 34006KT 10SM CLR 01/M06 A2999 800 61 -700 340/06 RMK AO2
14837KMSN MSN20041123205011711/23/04 20:50:31  5-MIN KMSN 240250Z 35005KT 10SM CLR 01/M06 A3000 790 61 -700 350/05 RMK AO2 SLP165 T00061061 53012
14837KMSN MSN20041123205509411/23/04 20:55:31  5-MIN KMSN 240255Z 34005KT 10SM CLR 01/M06 A3000 790 61 -700 340/05 RMK AO2
14837KMSN MSN20041123210009411/23/04 21:00:31  5-MIN KMSN 240300Z 33006KT 10SM CLR 01/M06 A3000 790 61 -700 330/06 RMK AO2
14837KMSN MSN20041123210509411/23/04 21:05:31  5-MIN KMSN 240305Z 33005KT 10SM CLR 01/M06 A3000 790 61 -700 330/05 RMK AO2
14837KMSN MSN20041123211009411/23/04 21:10:31  5-MIN KMSN 240310Z 34006KT 10SM CLR 01/M06 A3000 790 61 -700 330/06 RMK AO2
14837KMSN MSN20041123211509411/23/04 21:15:31  5-MIN KMSN 240315Z 33007KT 10SM CLR 01/M06 A3000 790 61 -700 330/07 RMK AO2
14837KMSN MSN20041123212009411/23/04 21:20:31  5-MIN KMSN 240320Z 34007KT 10SM CLR 01/M06 A3000 790 61 -700 330/07 RMK AO2
14837KMSN MSN20041123212509411/23/04 21:25:31  5-MIN KMSN 240325Z 34006KT 10SM CLR 01/M06 A3000 790 61 -700 340/06 RMK AO2
14837KMSN MSN20041123213009411/23/04 21:30:31  5-MIN KMSN 240330Z 34005KT 10SM CLR 01/M06 A3001 780 61 -700 340/05 RMK AO2
14837KMSN MSN20041123213509411/23/04 21:35:31  5-MIN KMSN 240335Z 34005KT 10SM CLR 01/M06 A3001 780 61 -700 340/05 RMK AO2
14837KMSN MSN20041123214009411/23/04 21:40:31  5-MIN KMSN 240340Z 34005KT 10SM CLR 01/M07 A3001 780 58 -700 330/05 RMK AO2
14837KMSN MSN20041123214509411/23/04 21:45:31  5-MIN KMSN 240345Z 33007KT 10SM CLR 01/M07 A3001 780 58 -700 330/07 RMK AO2
14837KMSN MSN20041123215011111/23/04 21:50:31  5-MIN KMSN 240350Z 34006KT 10SM CLR 01/M07 A3001 780 58 -700 340/06 RMK AO2 SLP170 T00061067
14837KMSN MSN20041123215509411/23/04 21:55:31  5-MIN KMSN 240355Z 33006KT 10SM CLR 00/M06 A3001 780 63 -800 330/06 RMK AO2
14837KMSN MSN20041123220009411/23/04 22:00:31  5-MIN KMSN 240400Z 33006KT 10SM CLR 00/M06 A3001 780 63 -800 330/06 RMK AO2
14837KMSN MSN20041123220509411/23/04 22:05:31  5-MIN KMSN 240405Z 33006KT 10SM CLR 01/M07 A3001 780 58 -700 330/06 RMK AO2
14837KMSN MSN20041123221009411/23/04 22:10:31  5-MIN KMSN 240410Z 33006KT 10SM CLR 00/M07 A3001 780 61 -800 330/06 RMK AO2
14837KMSN MSN20041123221509411/23/04 22:15:31  5-MIN KMSN 240415Z 34006KT 10SM CLR 00/M07 A3001 780 61 -800 340/06 RMK AO2
14837KMSN MSN20041123222009411/23/04 22:20:31  5-MIN KMSN 240420Z 34006KT 10SM CLR 00/M07 A3001 780 61 -800 340/06 RMK AO2
14837KMSN MSN20041123222509411/23/04 22:25:31  5-MIN KMSN 240425Z 34006KT 10SM CLR 00/M07 A3001 780 61 -800 340/06 RMK AO2
14837KMSN MSN20041123223009411/23/04 22:30:31  5-MIN KMSN 240430Z 34005KT 10SM CLR 00/M07 A3001 780 61 -800 340/05 RMK AO2
14837KMSN MSN20041123223509411/23/04 22:35:31  5-MIN KMSN 240435Z 34006KT 10SM CLR 00/M07 A3001 780 61 -800 330/06 RMK AO2
14837KMSN MSN20041123224009511/23/04 22:40:31  5-MIN KMSN 240440Z 35006KT 10SM CLR M01/M07 A3001 780 63 -800 350/06 RMK AO2
14837KMSN MSN20041123224509511/23/04 22:45:31  5-MIN KMSN 240445Z 35007KT 10SM CLR M01/M07 A3001 780 63 -800 350/07 RMK AO2
14837KMSN MSN20041123225011211/23/04 22:50:31  5-MIN KMSN 240450Z 35006KT 10SM CLR M01/M07 A3002 780 66 -900 350/06 RMK AO2 SLP172 T10111067
14837KMSN MSN20041123225509511/23/04 22:55:31  5-MIN KMSN 240455Z 35005KT 10SM CLR M01/M07 A3002 770 61 -800 350/05 RMK AO2
14837KMSN MSN20041123230009511/23/04 23:00:31  5-MIN KMSN 240500Z 35005KT 10SM CLR M01/M07 A3002 770 61 -900 350/05 RMK AO2
14837KMSN MSN20041123230509511/23/04 23:05:31  5-MIN KMSN 240505Z 35004KT 10SM CLR M01/M07 A3002 770 61 -900 350/04 RMK AO2
14837KMSN MSN20041123231009511/23/04 23:10:31  5-MIN KMSN 240510Z 36005KT 10SM CLR M01/M07 A3002 770 61 -900 360/05 RMK AO2
14837KMSN MSN20041123231509511/23/04 23:15:31  5-MIN KMSN 240515Z 36006KT 10SM CLR M01/M07 A3002 770 66 -900 360/06 RMK AO2
14837KMSN MSN20041123232009511/23/04 23:20:31  5-MIN KMSN 240520Z 36006KT 10SM CLR M01/M07 A3002 770 66 -900 360/06 RMK AO2
14837KMSN MSN20041123232509611/23/04 23:25:31  5-MIN KMSN 240525Z 36005KT 10SM CLR M02/M07 A3002 770 69 -1000 360/05 RMK AO2
14837KMSN MSN20041123233009511/23/04 23:30:31  5-MIN KMSN 240530Z 36007KT 10SM CLR M01/M07 A3002 780 66 -900 360/07 RMK AO2
14837KMSN MSN20041123233509511/23/04 23:35:31  5-MIN KMSN 240535Z 36007KT 10SM CLR M01/M07 A3002 780 66 -900 360/07 RMK AO2
14837KMSN MSN20041123234009511/23/04 23:40:31  5-MIN KMSN 240540Z 36007KT 10SM CLR M01/M07 A3002 780 66 -900 360/07 RMK AO2
14837KMSN MSN20041123234509611/23/04 23:45:31  5-MIN KMSN 240545Z 36007KT 10SM CLR M02/M07 A3001 780 69 -1000 360/07 RMK AO2
14837KMSN MSN20041123235014411/23/04 23:50:31  5-MIN KMSN 240550Z 36006KT 10SM FEW120 M02/M07 A3001 780 69 -1000 360/06 RMK AO2 SLP170 T10171067 10028 21017 400831017 53016
14837KMSN MSN20041123235509911/23/04 23:55:31  5-MIN KMSN 240555Z 36006KT 10SM FEW120 M02/M07 A3001 780 69 -1000 360/06 RMK AO2
14837KMSN MSN20041124000009911/24/04 00:00:31  5-MIN KMSN 240600Z 36007KT 10SM SCT120 M02/M07 A3001 780 72 -1000 360/07 RMK AO2
14837KMSN MSN20041124000509911/24/04 00:05:31  5-MIN KMSN 240605Z 36006KT 10SM SCT120 M02/M07 A3001 780 72 -1000 360/06 RMK AO2
14837KMSN MSN20041124001009911/24/04 00:10:31  5-MIN KMSN 240610Z 01005KT 10SM SCT120 M02/M07 A3001 780 72 -1100 010/05 RMK AO2
14837KMSN MSN20041124001509911/24/04 00:15:31  5-MIN KMSN 240615Z 01006KT 10SM SCT120 M02/M07 A3002 780 69 -1000 010/06 RMK AO2
14837KMSN MSN20041124002009911/24/04 00:20:31  5-MIN KMSN 240620Z 01005KT 10SM FEW120 M02/M07 A3002 780 72 -1100 010/05 RMK AO2
14837KMSN MSN20041124002509911/24/04 00:25:31  5-MIN KMSN 240625Z 01005KT 10SM FEW120 M02/M07 A3001 780 72 -1100 010/05 RMK AO2
14837KMSN MSN20041124003009911/24/04 00:30:31  5-MIN KMSN 240630Z 36006KT 10SM FEW120 M02/M07 A3001 780 72 -1100 360/06 RMK AO2
14837KMSN MSN20041124003509911/24/04 00:35:31  5-MIN KMSN 240635Z 34006KT 10SM FEW120 M02/M07 A3001 780 69 -1000 340/06 RMK AO2
14837KMSN MSN20041124004009611/24/04 00:40:31  5-MIN KMSN 240640Z 34006KT 10SM CLR M02/M07 A3001 780 69 -1000 340/06 RMK AO2
14837KMSN MSN20041124004509511/24/04 00:45:31  5-MIN KMSN 240645Z 34007KT 10SM CLR M01/M07 A3001 780 66 -900 340/07 RMK AO2
14837KMSN MSN20041124005011211/24/04 00:50:31  5-MIN KMSN 240650Z 35007KT 10SM CLR M01/M07 A3000 790 66 -900 340/07 RMK AO2 SLP168 T10111067
14837KMSN MSN20041124005509511/24/04 00:55:31  5-MIN KMSN 240655Z 35006KT 10SM CLR M01/M07 A3001 790 63 -900 350/06 RMK AO2
14837KMSN MSN20041124010009511/24/04 01:00:31  5-MIN KMSN 240700Z 34006KT 10SM CLR M01/M07 A3000 790 63 -900 340/06 RMK AO2
14837KMSN MSN20041124010509911/24/04 01:05:31  5-MIN KMSN 240705Z 35006KT 10SM FEW120 M02/M07 A3000 790 69 -1000 350/06 RMK AO2
14837KMSN MSN20041124011009811/24/04 01:10:31  5-MIN KMSN 240710Z 35007KT 10SM SCT120 M01/M07 A2999 800 66 -900 350/07 RMK AO2
14837KMSN MSN20041124011509811/24/04 01:15:31  5-MIN KMSN 240715Z 35007KT 10SM BKN120 M01/M07 A2999 800 66 -900 350/07 RMK AO2
14837KMSN MSN20041124012009811/24/04 01:20:31  5-MIN KMSN 240720Z 36007KT 10SM BKN110 M01/M07 A2999 800 66 -900 360/07 RMK AO2
14837KMSN MSN20041124012509811/24/04 01:25:31  5-MIN KMSN 240725Z 36007KT 10SM BKN110 M01/M07 A2999 800 66 -900 350/07 RMK AO2
14837KMSN MSN20041124013009811/24/04 01:30:31  5-MIN KMSN 240730Z 35007KT 10SM SCT110 M01/M07 A2999 800 66 -900 350/07 RMK AO2
14837KMSN MSN20041124013509811/24/04 01:35:31  5-MIN KMSN 240735Z 35007KT 10SM SCT110 M01/M07 A2998 800 63 -900 350/07 RMK AO2
14837KMSN MSN20041124014009811/24/04 01:40:31  5-MIN KMSN 240740Z 36006KT 10SM FEW110 M01/M07 A2998 810 63 -900 360/06 RMK AO2
14837KMSN MSN20041124014509811/24/04 01:45:31  5-MIN KMSN 240745Z 36007KT 10SM FEW110 M01/M07 A2998 810 66 -900 360/07 RMK AO2
14837KMSN MSN20041124015011211/24/04 01:50:31  5-MIN KMSN 240750Z 36009KT 10SM CLR M01/M07 A2998 810 66 -900 360/09 RMK AO2 SLP160 T10111067
14837KMSN MSN20041124015509511/24/04 01:55:31  5-MIN KMSN 240755Z 35009KT 10SM CLR M01/M07 A2998 810 66 -900 350/09 RMK AO2
14837KMSN MSN20041124020009511/24/04 02:00:31  5-MIN KMSN 240800Z 36008KT 10SM CLR M01/M07 A2999 800 63 -900 360/08 RMK AO2
14837KMSN MSN20041124020509811/24/04 02:05:31  5-MIN KMSN 240805Z 36008KT 10SM FEW120 M01/M07 A2999 800 63 -900 360/08 RMK AO2
14837KMSN MSN20041124021009811/24/04 02:10:31  5-MIN KMSN 240810Z 36009KT 10SM SCT110 M01/M07 A2999 800 63 -900 360/09 RMK AO2
14837KMSN MSN20041124021509811/24/04 02:15:31  5-MIN KMSN 240815Z 01009KT 10SM FEW110 M01/M07 A2999 800 66 -900 360/09 RMK AO2
14837KMSN MSN20041124022009811/24/04 02:20:31  5-MIN KMSN 240820Z 36007KT 10SM FEW110 M01/M07 A2999 800 66 -900 360/07 RMK AO2
14837KMSN MSN20041124043509811/24/04 04:35:31  5-MIN KMSN 241035Z 01011KT 10SM BKN100 M01/M08 A2997 810 58 -800 010/11 RMK AO2
14837KMSN MSN20041124044009811/24/04 04:40:31  5-MIN KMSN 241040Z 02010KT 10SM SCT100 M01/M08 A2998 810 56 -800 020/10 RMK AO2
14837KMSN MSN20041124044509811/24/04 04:45:31  5-MIN KMSN 241045Z 01011KT 10SM SCT110 M01/M08 A2998 810 56 -800 010/11 RMK AO2
14837KMSN MSN20041124045011511/24/04 04:50:31  5-MIN KMSN 241050Z 02011KT 10SM SCT100 M01/M08 A2997 820 56 -800 020/11 RMK AO2 SLP158 T10061083
14837KMSN MSN20041124045509811/24/04 04:55:31  5-MIN KMSN 241055Z 01011KT 10SM FEW100 M01/M08 A2997 820 56 -800 010/11 RMK AO2
14837KMSN MSN20041124050009811/24/04 05:00:31  5-MIN KMSN 241100Z 01009KT 10SM FEW100 M01/M08 A2998 810 56 -800 010/09 RMK AO2
14837KMSN MSN20041124050509811/24/04 05:05:31  5-MIN KMSN 241105Z 01009KT 10SM FEW100 M01/M08 A2998 810 56 -800 010/09 RMK AO2
14837KMSN MSN20041124051009811/24/04 05:10:31  5-MIN KMSN 241110Z 01008KT 10SM FEW100 M01/M08 A2998 810 60 -900 010/08 RMK AO2
14837KMSN MSN20041124051509811/24/04 05:15:31  5-MIN KMSN 241115Z 02008KT 10SM FEW100 M01/M08 A2997 810 56 -800 010/08 RMK AO2
14837KMSN MSN20041124052009511/24/04 05:20:31  5-MIN KMSN 241120Z 03010KT 10SM CLR M01/M08 A2997 820 56 -800 030/10 RMK AO2
14837KMSN MSN20041124052509511/24/04 05:25:31  5-MIN KMSN 241125Z 02011KT 10SM CLR M01/M08 A2998 810 56 -800 020/11 RMK AO2
14837KMSN MSN20041124053009811/24/04 05:30:31  5-MIN KMSN 241130Z 01011KT 10SM FEW110 M01/M08 A2998 810 56 -800 010/11 RMK AO2
14837KMSN MSN20041124053509811/24/04 05:35:31  5-MIN KMSN 241135Z 01011KT 10SM SCT100 M01/M08 A2998 810 58 -800 010/11 RMK AO2
14837KMSN MSN20041124054009811/24/04 05:40:31  5-MIN KMSN 241140Z 01010KT 10SM BKN100 M01/M08 A2998 810 60 -900 360/10 RMK AO2
14837KMSN MSN20041124054509811/24/04 05:45:31  5-MIN KMSN 241145Z 36009KT 10SM BKN100 M01/M08 A2998 810 60 -900 360/09 RMK AO2
14837KMSN MSN20041124055013311/24/04 05:50:31  5-MIN KMSN 241150Z 01011KT 10SM BKN100 M01/M08 A2998 810 58 -900 010/11 RMK AO2 SLP160 T10111083 11006 21022 55006
14837KMSN MSN20041124055509811/24/04 05:55:31  5-MIN KMSN 241155Z 01013KT 10SM BKN100 M01/M08 A2997 820 58 -900 010/13 RMK AO2
14837KMSN MSN20041124060009811/24/04 06:00:31  5-MIN KMSN 241200Z 02012KT 10SM SCT100 M01/M08 A2996 830 60 -900 020/12 RMK AO2
14837KMSN MSN20041124060509811/24/04 06:05:31  5-MIN KMSN 241205Z 02011KT 10SM SCT100 M01/M08 A2995 830 60 -800 010/11 RMK AO2
14837KMSN MSN20041124061009811/24/04 06:10:31  5-MIN KMSN 241210Z 01011KT 10SM SCT110 M01/M08 A2996 830 60 -900 010/11 RMK AO2
14837KMSN MSN20041124061509811/24/04 06:15:31  5-MIN KMSN 241215Z 01009KT 10SM SCT110 M01/M08 A2996 830 60 -900 010/09 RMK AO2
14837KMSN MSN20041124062009811/24/04 06:20:31  5-MIN KMSN 241220Z 01012KT 10SM BKN110 M01/M08 A2996 820 60 -900 360/12 RMK AO2
14837KMSN MSN20041124062509811/24/04 06:25:31  5-MIN KMSN 241225Z 36011KT 10SM BKN110 M01/M08 A2996 820 60 -900 360/11 RMK AO2
14837KMSN MSN20041124063009811/24/04 06:30:31  5-MIN KMSN 241230Z 01012KT 10SM BKN110 M01/M08 A2996 820 60 -900 010/12 RMK AO2
14837KMSN MSN20041124063509811/24/04 06:35:31  5-MIN KMSN 241235Z 01011KT 10SM BKN110 M01/M08 A2996 830 60 -900 360/11 RMK AO2
14837KMSN MSN20041124064009811/24/04 06:40:31  5-MIN KMSN 241240Z 01010KT 10SM BKN110 M01/M07 A2996 830 63 -900 360/10 RMK AO2
14837KMSN MSN20041124064509811/24/04 06:45:31  5-MIN KMSN 241245Z 36011KT 10SM BKN110 M01/M08 A2996 830 60 -900 360/11 RMK AO2
14837KMSN MSN20041124065011511/24/04 06:50:31  5-MIN KMSN 241250Z 01011KT 10SM BKN110 M01/M08 A2996 830 60 -800 010/11 RMK AO2 SLP154 T10111078
14837KMSN MSN20041124065509811/24/04 06:55:31  5-MIN KMSN 241255Z 01011KT 10SM BKN110 M01/M08 A2995 830 58 -800 010/11 RMK AO2
14837KMSN MSN20041124070009811/24/04 07:00:31  5-MIN KMSN 241300Z 02011KT 10SM BKN110 M01/M08 A2995 840 60 -800 010/11 RMK AO2
14837KMSN MSN20041124070509811/24/04 07:05:31  5-MIN KMSN 241305Z 02012KT 10SM BKN110 M01/M08 A2995 840 60 -800 020/12 RMK AO2
14837KMSN MSN20041124071009811/24/04 07:10:31  5-MIN KMSN 241310Z 02014KT 10SM BKN110 M01/M08 A2994 840 60 -800 010/14 RMK AO2
14837KMSN MSN20041124071509811/24/04 07:15:31  5-MIN KMSN 241315Z 01014KT 10SM BKN110 M01/M08 A2994 850 60 -800 010/14 RMK AO2
14837KMSN MSN20041124072009811/24/04 07:20:31  5-MIN KMSN 241320Z 02012KT 10SM BKN110 M01/M08 A2993 850 60 -800 020/12 RMK AO2
14837KMSN MSN20041124072510411/24/04 07:25:31  5-MIN KMSN 241325Z 01013G19KT 10SM BKN110 M01/M08 A2994 850 60 -800 010/13G19 RMK AO2
14837KMSN MSN20041124073009811/24/04 07:30:31  5-MIN KMSN 241330Z 01013KT 10SM SCT110 M01/M08 A2994 850 60 -800 010/13 RMK AO2
14837KMSN MSN20041124073509811/24/04 07:35:31  5-MIN KMSN 241335Z 01016KT 10SM SCT110 M01/M08 A2993 850 60 -800 010/16 RMK AO2
14837KMSN MSN20041124074009811/24/04 07:40:31  5-MIN KMSN 241340Z 01014KT 10SM FEW110 M01/M08 A2993 850 60 -800 010/14 RMK AO2
14837KMSN MSN20041124074509811/24/04 07:45:31  5-MIN KMSN 241345Z 02015KT 10SM FEW110 M01/M08 A2993 860 58 -800 020/15 RMK AO2
14837KMSN MSN20041124075011211/24/04 07:50:31  5-MIN KMSN 241350Z 01016KT 10SM CLR M01/M08 A2993 860 58 -800 010/16 RMK AO2 SLP143 T10111083
14837KMSN MSN20041124075510111/24/04 07:55:31  5-MIN KMSN 241355Z 01012G20KT 10SM CLR M01/M08 A2993 850 58 -800 010/12G20 RMK AO2
14837KMSN MSN20041124080009511/24/04 08:00:31  5-MIN KMSN 241400Z 01014KT 10SM CLR M01/M08 A2993 850 60 -800 010/14 RMK AO2
14837KMSN MSN20041124080509511/24/04 08:05:31  5-MIN KMSN 241405Z 01013KT 10SM CLR M01/M08 A2993 850 60 -800 010/13 RMK AO2
14837KMSN MSN20041124081009511/24/04 08:10:31  5-MIN KMSN 241410Z 01013KT 10SM CLR M01/M08 A2994 850 60 -800 010/13 RMK AO2
14837KMSN MSN20041124081510111/24/04 08:15:31  5-MIN KMSN 241415Z 01014G22KT 10SM CLR M01/M08 A2994 850 60 -800 010/14G22 RMK AO2
14837KMSN MSN20041124082010111/24/04 08:20:31  5-MIN KMSN 241420Z 01013G22KT 10SM CLR M01/M08 A2993 850 60 -800 010/13G22 RMK AO2
14837KMSN MSN20041124082509511/24/04 08:25:31  5-MIN KMSN 241425Z 01014KT 10SM CLR M01/M08 A2993 860 60 -800 010/14 RMK AO2
14837KMSN MSN20041124083009511/24/04 08:30:31  5-MIN KMSN 241430Z 02015KT 10SM CLR M01/M08 A2993 860 60 -800 020/15 RMK AO2
14837KMSN MSN20041124083509511/24/04 08:35:31  5-MIN KMSN 241435Z 02014KT 10SM CLR M01/M08 A2992 860 60 -800 010/14 RMK AO2
14837KMSN MSN20041124084009511/24/04 08:40:31  5-MIN KMSN 241440Z 02014KT 10SM CLR M01/M08 A2992 860 58 -800 020/14 RMK AO2
14837KMSN MSN20041124084509511/24/04 08:45:31  5-MIN KMSN 241445Z 02013KT 10SM CLR M01/M08 A2992 860 60 -800 020/13 RMK AO2
14837KMSN MSN20041124085012711/24/04 08:50:31  5-MIN KMSN 241450Z 02017G20KT 10SM BKN120 M01/M08 A2992 870 60 -800 020/17G20 RMK AO2 SLP141 T10111078 58008
14837KMSN MSN20041124085510411/24/04 08:55:31  5-MIN KMSN 241455Z 02014G20KT 10SM BKN110 M01/M08 A2992 870 58 -700 020/14G20 RMK AO2
14837KMSN MSN20041124090009811/24/04 09:00:31  5-MIN KMSN 241500Z 02014KT 10SM BKN110 M01/M08 A2992 870 58 -700 020/14 RMK AO2
14837KMSN MSN20041124090510411/24/04 09:05:31  5-MIN KMSN 241505Z 02016G22KT 10SM BKN110 M01/M08 A2992 870 58 -700 020/16G22 RMK AO2
14837KMSN MSN20041124091010411/24/04 09:10:31  5-MIN KMSN 241510Z 03015G22KT 10SM BKN110 M01/M08 A2992 870 58 -700 030/15G22 RMK AO2
14837KMSN MSN20041124091511311/24/04 09:15:31  5-MIN KMSN 241515Z 02014KT 10SM BKN110 M01/M08 A2992 870 58 -700 020/14 RMK AO2 SNB11E13 P0000
14837KMSN MSN20041124092011211/24/04 09:20:31  5-MIN KMSN 241520Z 02015KT 9SM BKN110 M01/M08 A2991 870 58 -700 020/15 RMK AO2 SNB11E13 P0000
14837KMSN MSN20041124092511811/24/04 09:25:31  5-MIN KMSN 241525Z 02013G20KT 9SM BKN120 M01/M07 A2991 880 61 -700 020/13G20 RMK AO2 SNB11E13 P0000
14837KMSN MSN20041124093011911/24/04 09:30:31  5-MIN KMSN 241530Z 02016G22KT 10SM BKN120 M01/M07 A2991 880 63 -700 020/16G22 RMK AO2 SNB11E13 P0000
14837KMSN MSN20041124093511911/24/04 09:35:31  5-MIN KMSN 241535Z 02015G22KT 10SM BKN120 M01/M07 A2991 880 61 -700 020/15G22 RMK AO2 SNB11E13 P0000
14837KMSN MSN20041124094011311/24/04 09:40:31  5-MIN KMSN 241540Z 02013KT 10SM BKN120 M01/M07 A2991 880 61 -700 020/13 RMK AO2 SNB11E13 P0000
14837KMSN MSN20041124094511311/24/04 09:45:31  5-MIN KMSN 241545Z 02015KT 10SM BKN120 M01/M07 A2991 880 61 -700 020/15 RMK AO2 SNB11E13 P0000
14837KMSN MSN20041124095013611/24/04 09:50:31  5-MIN KMSN 241550Z 01018G22KT 10SM SCT120 M01/M07 A2991 880 61 -700 010/18G22 RMK AO2 SNB11E13 SLP136 P0000 T10061072
14837KMSN MSN20041124095510411/24/04 09:55:31  5-MIN KMSN 241555Z 01015G22KT 10SM BKN120 M01/M07 A2991 880 61 -700 010/15G22 RMK AO2
14837KMSN MSN20041124100009811/24/04 10:00:31  5-MIN KMSN 241600Z 02012KT 10SM BKN120 M01/M07 A2990 880 61 -700 020/12 RMK AO2
14837KMSN MSN20041124100509811/24/04 10:05:31  5-MIN KMSN 241605Z 02014KT 10SM BKN120 M01/M07 A2990 880 63 -700 010/14 RMK AO2
14837KMSN MSN20041124101009811/24/04 10:10:31  5-MIN KMSN 241610Z 02013KT 10SM BKN120 M01/M07 A2990 880 61 -700 020/13 RMK AO2
14837KMSN MSN20041124101509711/24/04 10:15:31  5-MIN KMSN 241615Z 02014KT 10SM BKN120 00/M07 A2990 890 61 -600 010/14 RMK AO2
14837KMSN MSN20041124102009811/24/04 10:20:31  5-MIN KMSN 241620Z 01016KT 10SM BKN120 M01/M07 A2990 890 63 -700 010/16 RMK AO2
14837KMSN MSN20041124102509811/24/04 10:25:31  5-MIN KMSN 241625Z 02013KT 10SM SCT120 M01/M07 A2989 890 63 -700 020/13 RMK AO2
14837KMSN MSN20041124103009811/24/04 10:30:31  5-MIN KMSN 241630Z 02014KT 10SM SCT120 M01/M07 A2989 890 61 -700 020/14 RMK AO2
14837KMSN MSN20041124103509811/24/04 10:35:31  5-MIN KMSN 241635Z 03015KT 10SM SCT120 M01/M07 A2989 900 63 -700 020/15 RMK AO2
14837KMSN MSN20041124104009811/24/04 10:40:31  5-MIN KMSN 241640Z 01013KT 10SM SCT120 M01/M06 A2988 900 66 -700 010/13 RMK AO2
14837KMSN MSN20041124104509811/24/04 10:45:31  5-MIN KMSN 241645Z 01016KT 10SM SCT120 M01/M07 A2988 900 61 -700 010/16 RMK AO2
14837KMSN MSN20041124105011511/24/04 10:50:31  5-MIN KMSN 241650Z 01014KT 10SM SCT120 M01/M07 A2988 900 63 -700 010/14 RMK AO2 SLP129 T10061067
14837KMSN MSN20041124105509711/24/04 10:55:31  5-MIN KMSN 241655Z 01014KT 10SM BKN120 00/M06 A2987 910 63 -600 010/14 RMK AO2
14837KMSN MSN20041124110009811/24/04 11:00:31  5-MIN KMSN 241700Z 02015KT 10SM BKN120 M01/M07 A2987 910 63 -700 020/15 RMK AO2
14837KMSN MSN20041124110510511/24/04 11:05:31  5-MIN KMSN 241705Z 01018KT 10SM BKN120 M01/M07 A2986 920 63 -700 010/18 RMK AO2 PRESFR
14837KMSN MSN20041124111010511/24/04 11:10:31  5-MIN KMSN 241710Z 01019KT 10SM BKN120 M01/M07 A2985 930 63 -700 010/19 RMK AO2 PRESFR
14837KMSN MSN20041124111509811/24/04 11:15:31  5-MIN KMSN 241715Z 01013KT 10SM BKN120 M01/M07 A2985 930 63 -700 010/13 RMK AO2
14837KMSN MSN20041124112009811/24/04 11:20:31  5-MIN KMSN 241720Z 01016KT 10SM BKN120 M01/M06 A2984 940 66 -600 010/16 RMK AO2
14837KMSN MSN20041124112510511/24/04 11:25:31  5-MIN KMSN 241725Z 02015KT 10SM BKN120 M01/M07 A2984 940 63 -600 020/15 RMK AO2 PRESFR
14837KMSN MSN20041124113010411/24/04 11:30:31  5-MIN KMSN 241730Z 02015KT 10SM BKN120 00/M06 A2983 950 63 -600 020/15 RMK AO2 PRESFR
14837KMSN MSN20041124113510311/24/04 11:35:31  5-MIN KMSN 241735Z 01018G23KT 10SM BKN120 00/M06 A2983 950 63 -600 010/18G23 RMK AO2
14837KMSN MSN20041124114010411/24/04 11:40:31  5-MIN KMSN 241740Z 02016G23KT 10SM BKN120 M01/M06 A2982 960 66 -600 020/16G23 RMK AO2
14837KMSN MSN20041124114509711/24/04 11:45:31  5-MIN KMSN 241745Z 01015KT 10SM BKN120 00/M06 A2982 960 63 -500 010/15 RMK AO2
14837KMSN MSN20041124115013211/24/04 11:50:31  5-MIN KMSN 241750Z 02017KT 10SM BKN120 00/M07 A2981 970 61 -500 020/17 RMK AO2 SLP105 T00001067 10000 21011 56016
14837KMSN MSN20041124115510311/24/04 11:55:31  5-MIN KMSN 241755Z 01017G22KT 10SM SCT120 00/M06 A2981 970 63 -500 010/17G22 RMK AO2
14837KMSN MSN20041124120010311/24/04 12:00:31  5-MIN KMSN 241800Z 02017G22KT 10SM SCT120 00/M06 A2981 970 63 -500 020/17G22 RMK AO2
14837KMSN MSN20041124120509711/24/04 12:05:31  5-MIN KMSN 241805Z 01015KT 10SM SCT120 00/M06 A2980 970 63 -500 010/15 RMK AO2
14837KMSN MSN20041124121009711/24/04 12:10:31  5-MIN KMSN 241810Z 02015KT 10SM SCT120 00/M06 A2980 980 63 -500 010/15 RMK AO2
14837KMSN MSN20041124121510311/24/04 12:15:31  5-MIN KMSN 241815Z 01018G23KT 10SM SCT120 00/M06 A2980 980 63 -500 010/18G23 RMK AO2
14837KMSN MSN20041124122010311/24/04 12:20:31  5-MIN KMSN 241820Z 01019G23KT 10SM SCT120 00/M06 A2979 980 63 -500 010/19G23 RMK AO2
14837KMSN MSN20041124122510311/24/04 12:25:31  5-MIN KMSN 241825Z 01018G24KT 10SM SCT120 00/M07 A2979 990 61 -500 010/18G24 RMK AO2
14837KMSN MSN20041124123010311/24/04 12:30:31  5-MIN KMSN 241830Z 01017G24KT 10SM SCT120 00/M06 A2979 990 63 -500 010/17G24 RMK AO2
14837KMSN MSN20041124123510311/24/04 12:35:31  5-MIN KMSN 241835Z 01014G23KT 10SM SCT120 00/M07 A2978 990 61 -500 010/14G23 RMK AO2
14837KMSN MSN20041124124010311/24/04 12:40:31  5-MIN KMSN 241840Z 01014G20KT 10SM SCT120 00/M06 A2978 990 63 -500 010/14G20 RMK AO2
14837KMSN MSN20041124124510311/24/04 12:45:31  5-MIN KMSN 241845Z 02018G21KT 10SM SCT120 00/M07 A2978 990 58 -500 010/18G21 RMK AO2
14837KMSN MSN20041124125011511/24/04 12:50:31  5-MIN KMSN 241850Z 02017KT 10SM SCT120 00/M07 A2978 1000 61 -500 020/17 RMK AO2 SLP093 T00001067
14837KMSN MSN20041124125511111/24/04 12:55:31  5-MIN KMSN 241855Z 01018G22KT 10SM FEW035 BKN120 00/M07 A2978 1000 61 -500 010/18G22 RMK AO2
14837KMSN MSN20041124130011111/24/04 13:00:31  5-MIN KMSN 241900Z 01018G22KT 10SM FEW035 BKN120 00/M07 A2977 1000 61 -500 010/18G22 RMK AO2
14837KMSN MSN20041124130511111/24/04 13:05:31  5-MIN KMSN 241905Z 01016G21KT 10SM FEW035 BKN120 00/M07 A2977 1000 58 -500 010/16G21 RMK AO2
14837KMSN MSN20041124131009811/24/04 13:10:31  5-MIN KMSN 241910Z 01017KT 10SM BKN120 00/M07 A2977 1010 58 -500 010/17 RMK AO2
14837KMSN MSN20041124131510411/24/04 13:15:31  5-MIN KMSN 241915Z 01017G24KT 10SM BKN120 00/M07 A2977 1010 58 -500 010/17G24 RMK AO2
14837KMSN MSN20041124132010511/24/04 13:20:31  5-MIN KMSN 241920Z 01018G24KT 10SM BKN120 M01/M08 A2976 1010 58 -600 010/18G24 RMK AO2
14837KMSN MSN20041124132509811/24/04 13:25:31  5-MIN KMSN 241925Z 02019KT 10SM BKN120 00/M07 A2977 1010 58 -500 020/19 RMK AO2
14837KMSN MSN20041124133009811/24/04 13:30:31  5-MIN KMSN 241930Z 01019KT 10SM BKN120 00/M07 A2976 1010 58 -500 010/19 RMK AO2
14837KMSN MSN20041124133509811/24/04 13:35:31  5-MIN KMSN 241935Z 01015KT 10SM BKN120 00/M07 A2976 1010 58 -500 010/15 RMK AO2
14837KMSN MSN20041124134010411/24/04 13:40:31  5-MIN KMSN 241940Z 01014G21KT 10SM BKN120 00/M07 A2976 1010 58 -500 010/14G21 RMK AO2
14837KMSN MSN20041124134510411/24/04 13:45:31  5-MIN KMSN 241945Z 01017G21KT 10SM BKN120 00/M07 A2976 1010 58 -500 010/17G21 RMK AO2
14837KMSN MSN20041124135012111/24/04 13:50:31  5-MIN KMSN 241950Z 36017G21KT 10SM SCT120 00/M08 A2976 1010 56 -500 360/17G21 RMK AO2 SLP087 T00001078
14837KMSN MSN20041124135509811/24/04 13:55:31  5-MIN KMSN 241955Z 36016KT 10SM BKN120 00/M07 A2976 1010 58 -500 360/16 RMK AO2
14837KMSN MSN20041124140009811/24/04 14:00:31  5-MIN KMSN 242000Z 01017KT 10SM BKN120 00/M08 A2976 1010 56 -500 010/17 RMK AO2
14837KMSN MSN20041124140509811/24/04 14:05:31  5-MIN KMSN 242005Z 01017KT 10SM BKN120 00/M08 A2976 1010 56 -500 360/17 RMK AO2
14837KMSN MSN20041124141009811/24/04 14:10:31  5-MIN KMSN 242010Z 01018KT 10SM BKN120 00/M08 A2976 1020 56 -500 010/18 RMK AO2
14837KMSN MSN20041124141509811/24/04 14:15:31  5-MIN KMSN 242015Z 36016KT 10SM BKN120 00/M08 A2976 1020 56 -500 360/16 RMK AO2
14837KMSN MSN20041124142009811/24/04 14:20:31  5-MIN KMSN 242020Z 36016KT 10SM BKN120 00/M08 A2975 1020 56 -500 360/16 RMK AO2
14837KMSN MSN20041124142509811/24/04 14:25:31  5-MIN KMSN 242025Z 01014KT 10SM BKN120 00/M08 A2975 1020 56 -500 360/14 RMK AO2
14837KMSN MSN20041124143010411/24/04 14:30:31  5-MIN KMSN 242030Z 36015G19KT 10SM BKN120 00/M08 A2975 1020 56 -500 360/15G19 RMK AO2
14837KMSN MSN20041124143510411/24/04 14:35:31  5-MIN KMSN 242035Z 35013G19KT 10SM BKN120 00/M08 A2975 1030 56 -500 350/13G19 RMK AO2
14837KMSN MSN20041124144009811/24/04 14:40:31  5-MIN KMSN 242040Z 36014KT 10SM BKN120 00/M08 A2974 1030 56 -500 350/14 RMK AO2
14837KMSN MSN20041124144509811/24/04 14:45:31  5-MIN KMSN 242045Z 36016KT 10SM BKN120 00/M08 A2974 1030 56 -500 360/16 RMK AO2
14837KMSN MSN20041124145012711/24/04 14:50:31  5-MIN KMSN 242050Z 36014G22KT 10SM SCT120 00/M08 A2974 1030 56 -500 360/14G22 RMK AO2 SLP080 T00001078 58036
14837KMSN MSN20041124145510511/24/04 14:55:31  5-MIN KMSN 242055Z 36018G22KT 10SM SCT120 M01/M08 A2974 1030 58 -500 360/18G22 RMK AO2
14837KMSN MSN20041124150010511/24/04 15:00:31  5-MIN KMSN 242100Z 36019G22KT 10SM SCT120 M01/M08 A2974 1030 58 -500 360/19G22 RMK AO2
14837KMSN MSN20041124150510411/24/04 15:05:31  5-MIN KMSN 242105Z 36017G22KT 10SM SCT120 00/M08 A2974 1030 56 -500 360/17G22 RMK AO2
14837KMSN MSN20041124151010411/24/04 15:10:31  5-MIN KMSN 242110Z 36015G22KT 10SM SCT120 00/M08 A2975 1030 56 -500 360/15G22 RMK AO2
14837KMSN MSN20041124151510511/24/04 15:15:31  5-MIN KMSN 242115Z 36014G21KT 10SM SCT120 M01/M08 A2975 1020 58 -500 360/14G21 RMK AO2
14837KMSN MSN20041124152010511/24/04 15:20:31  5-MIN KMSN 242120Z 36012G19KT 10SM SCT120 M01/M08 A2975 1020 56 -500 360/12G19 RMK AO2
14837KMSN MSN20041124152509911/24/04 15:25:31  5-MIN KMSN 242125Z 36012KT 10SM FEW120 M01/M08 A2975 1020 56 -500 360/12 RMK AO2
14837KMSN MSN20041124153010511/24/04 15:30:31  5-MIN KMSN 242130Z 36013G18KT 10SM FEW120 M01/M08 A2976 1010 56 -500 350/13G18 RMK AO2
14837KMSN MSN20041124153510511/24/04 15:35:31  5-MIN KMSN 242135Z 36010G18KT 10SM FEW120 M01/M08 A2976 1010 56 -600 360/10G18 RMK AO2
14837KMSN MSN20041124154010511/24/04 15:40:31  5-MIN KMSN 242140Z 36013G17KT 10SM FEW120 M01/M08 A2977 1010 58 -600 360/13G17 RMK AO2
14837KMSN MSN20041124154510511/24/04 15:45:31  5-MIN KMSN 242145Z 35010G17KT 10SM FEW120 M01/M08 A2977 1000 56 -600 350/10G17 RMK AO2
14837KMSN MSN20041124155011611/24/04 15:50:31  5-MIN KMSN 242150Z 35011KT 10SM FEW120 M01/M08 A2978 1000 56 -600 350/11 RMK AO2 SLP094 T10061083
14837KMSN MSN20041124155509511/24/04 15:55:31  5-MIN KMSN 242155Z 35009KT 10SM CLR M01/M09 A2978 990 53 -600 350/09 RMK AO2
14837KMSN MSN20041124160009511/24/04 16:00:31  5-MIN KMSN 242200Z 35011KT 10SM CLR M01/M08 A2979 990 56 -600 350/11 RMK AO2
14837KMSN MSN20041124160509511/24/04 16:05:31  5-MIN KMSN 242205Z 35011KT 10SM CLR M01/M09 A2979 990 53 -600 350/11 RMK AO2
14837KMSN MSN20041124161009511/24/04 16:10:31  5-MIN KMSN 242210Z 35010KT 10SM CLR M01/M09 A2979 980 51 -600 350/10 RMK AO2
14837KMSN MSN20041124161509511/24/04 16:15:31  5-MIN KMSN 242215Z 36011KT 10SM CLR M01/M09 A2980 980 53 -600 360/11 RMK AO2
14837KMSN MSN20041124162009511/24/04 16:20:31  5-MIN KMSN 242220Z 35009KT 10SM CLR M01/M09 A2980 980 53 -600 340/09 RMK AO2
14837KMSN MSN20041124162509511/24/04 16:25:31  5-MIN KMSN 242225Z 35011KT 10SM CLR M01/M10 A2980 980 49 -600 350/11 RMK AO2
14837KMSN MSN20041124163009511/24/04 16:30:31  5-MIN KMSN 242230Z 35010KT 10SM CLR M01/M09 A2980 980 51 -600 350/10 RMK AO2
14837KMSN MSN20041124163509511/24/04 16:35:31  5-MIN KMSN 242235Z 35010KT 10SM CLR M01/M09 A2980 980 51 -600 350/10 RMK AO2
14837KMSN MSN20041124164009511/24/04 16:40:31  5-MIN KMSN 242240Z 35008KT 10SM CLR M01/M09 A2980 980 51 -600 350/08 RMK AO2
14837KMSN MSN20041124164509511/24/04 16:45:31  5-MIN KMSN 242245Z 35009KT 10SM CLR M01/M09 A2980 980 51 -600 350/09 RMK AO2
14837KMSN MSN20041124165011211/24/04 16:50:31  5-MIN KMSN 242250Z 35011KT 10SM CLR M01/M09 A2980 980 51 -600 350/11 RMK AO2 SLP101 T10061094
14837KMSN MSN20041124165509511/24/04 16:55:31  5-MIN KMSN 242255Z 35008KT 10SM CLR M01/M09 A2980 970 51 -600 350/08 RMK AO2
14837KMSN MSN20041124170009511/24/04 17:00:31  5-MIN KMSN 242300Z 34009KT 10SM CLR M01/M09 A2980 970 51 -600 340/09 RMK AO2
14837KMSN MSN20041124170509511/24/04 17:05:31  5-MIN KMSN 242305Z 35009KT 10SM CLR M01/M09 A2980 970 51 -600 350/09 RMK AO2
14837KMSN MSN20041124171009511/24/04 17:10:31  5-MIN KMSN 242310Z 35009KT 10SM CLR M01/M09 A2980 970 53 -700 350/09 RMK AO2
14837KMSN MSN20041124171509511/24/04 17:15:31  5-MIN KMSN 242315Z 34007KT 10SM CLR M01/M09 A2980 970 53 -700 340/07 RMK AO2
14837KMSN MSN20041124172009511/24/04 17:20:31  5-MIN KMSN 242320Z 35009KT 10SM CLR M01/M09 A2980 970 53 -700 350/09 RMK AO2
14837KMSN MSN20041124172509511/24/04 17:25:31  5-MIN KMSN 242325Z 35009KT 10SM CLR M01/M09 A2981 970 53 -700 350/09 RMK AO2
14837KMSN MSN20041124173009511/24/04 17:30:31  5-MIN KMSN 242330Z 35007KT 10SM CLR M01/M10 A2981 970 51 -700 340/07 RMK AO2
14837KMSN MSN20041124173509511/24/04 17:35:31  5-MIN KMSN 242335Z 34007KT 10SM CLR M01/M11 A2980 970 49 -700 340/07 RMK AO2
14837KMSN MSN20041124174009511/24/04 17:40:31  5-MIN KMSN 242340Z 34008KT 10SM CLR M01/M10 A2980 970 51 -700 340/08 RMK AO2
14837KMSN MSN20041124174509511/24/04 17:45:31  5-MIN KMSN 242345Z 34007KT 10SM CLR M01/M10 A2980 970 51 -700 340/07 RMK AO2
14837KMSN MSN20041124175013011/24/04 17:50:31  5-MIN KMSN 242350Z 33007KT 10SM CLR M01/M09 A2980 970 53 -700 330/07 RMK AO2 SLP102 T10111094 10000 21011 56023
14837KMSN MSN20041124175509511/24/04 17:55:31  5-MIN KMSN 242355Z 33007KT 10SM CLR M01/M10 A2980 970 51 -700 330/07 RMK AO2
14837KMSN MSN20041124180009511/24/04 18:00:31  5-MIN KMSN 250000Z 33006KT 10SM CLR M01/M09 A2980 970 53 -700 330/06 RMK AO2
14837KMSN MSN20041124180509511/24/04 18:05:31  5-MIN KMSN 250005Z 33006KT 10SM CLR M01/M10 A2980 970 51 -700 330/06 RMK AO2
14837KMSN MSN20041124181009511/24/04 18:10:31  5-MIN KMSN 250010Z 34007KT 10SM CLR M02/M09 A2980 970 55 -700 340/07 RMK AO2
14837KMSN MSN20041124181509511/24/04 18:15:31  5-MIN KMSN 250015Z 33007KT 10SM CLR M01/M09 A2980 970 53 -700 330/07 RMK AO2
14837KMSN MSN20041124182009511/24/04 18:20:31  5-MIN KMSN 250020Z 34008KT 10SM CLR M01/M09 A2980 970 53 -700 330/08 RMK AO2
14837KMSN MSN20041124182509511/24/04 18:25:31  5-MIN KMSN 250025Z 33008KT 10SM CLR M01/M10 A2980 970 51 -700 330/08 RMK AO2
14837KMSN MSN20041124183009511/24/04 18:30:31  5-MIN KMSN 250030Z 34006KT 10SM CLR M02/M10 A2980 970 53 -700 340/06 RMK AO2
14837KMSN MSN20041124183509511/24/04 18:35:31  5-MIN KMSN 250035Z 34007KT 10SM CLR M02/M09 A2980 970 55 -700 340/07 RMK AO2
14837KMSN MSN20041124184009511/24/04 18:40:31  5-MIN KMSN 250040Z 35007KT 10SM CLR M02/M11 A2980 970 51 -700 340/07 RMK AO2
14837KMSN MSN20041124184509511/24/04 18:45:31  5-MIN KMSN 250045Z 34007KT 10SM CLR M02/M10 A2980 970 53 -700 340/07 RMK AO2
14837KMSN MSN20041124185011211/24/04 18:50:31  5-MIN KMSN 250050Z 34007KT 10SM CLR M02/M10 A2981 970 53 -700 340/07 RMK AO2 SLP103 T10171100
14837KMSN MSN20041124185509511/24/04 18:55:31  5-MIN KMSN 250055Z 35007KT 10SM CLR M02/M10 A2981 970 53 -700 340/07 RMK AO2
14837KMSN MSN20041124190011111/24/04 19:00:31  5-MIN KMSN 250100Z 34007KT 300V360 10SM CLR M02/M10 A2981 970 53 -700 340/07 300V360 RMK AO2
14837KMSN MSN20041124190509511/24/04 19:05:31  5-MIN KMSN 250105Z 34007KT 10SM CLR M02/M10 A2981 970 53 -700 340/07 RMK AO2
14837KMSN MSN20041124191009511/24/04 19:10:31  5-MIN KMSN 250110Z 33006KT 10SM CLR M02/M10 A2981 970 53 -700 330/06 RMK AO2
14837KMSN MSN20041124191509511/24/04 19:15:31  5-MIN KMSN 250115Z 33006KT 10SM CLR M02/M10 A2981 970 53 -700 330/06 RMK AO2
14837KMSN MSN20041124192009511/24/04 19:20:31  5-MIN KMSN 250120Z 34007KT 10SM CLR M02/M11 A2981 970 51 -700 340/07 RMK AO2
14837KMSN MSN20041124192509511/24/04 19:25:31  5-MIN KMSN 250125Z 33007KT 10SM CLR M02/M11 A2981 970 53 -800 330/07 RMK AO2
14837KMSN MSN20041124193009511/24/04 19:30:31  5-MIN KMSN 250130Z 33006KT 10SM CLR M02/M10 A2981 970 55 -800 330/06 RMK AO2
14837KMSN MSN20041124193509511/24/04 19:35:31  5-MIN KMSN 250135Z 33006KT 10SM CLR M02/M11 A2981 960 53 -800 330/06 RMK AO2
14837KMSN MSN20041124194009511/24/04 19:40:31  5-MIN KMSN 250140Z 33007KT 10SM CLR M02/M11 A2981 960 53 -800 330/07 RMK AO2
14837KMSN MSN20041124194509511/24/04 19:45:31  5-MIN KMSN 250145Z 33005KT 10SM CLR M02/M11 A2981 970 53 -800 330/05 RMK AO2
14837KMSN MSN20041124195011211/24/04 19:50:31  5-MIN KMSN 250150Z 34006KT 10SM CLR M02/M10 A2981 960 55 -800 340/06 RMK AO2 SLP106 T10221100
14837KMSN MSN20041124195509511/24/04 19:55:31  5-MIN KMSN 250155Z 33006KT 10SM CLR M02/M10 A2981 960 55 -800 330/06 RMK AO2
14837KMSN MSN20041124200009511/24/04 20:00:31  5-MIN KMSN 250200Z 33007KT 10SM CLR M02/M10 A2982 960 55 -800 330/07 RMK AO2
14837KMSN MSN20041124200509511/24/04 20:05:31  5-MIN KMSN 250205Z 34006KT 10SM CLR M02/M10 A2982 960 55 -800 340/06 RMK AO2
14837KMSN MSN20041124201009511/24/04 20:10:31  5-MIN KMSN 250210Z 33006KT 10SM CLR M02/M10 A2982 960 55 -800 330/06 RMK AO2
14837KMSN MSN20041124201509511/24/04 20:15:31  5-MIN KMSN 250215Z 33007KT 10SM CLR M02/M10 A2982 960 55 -800 330/07 RMK AO2
14837KMSN MSN20041124202009511/24/04 20:20:31  5-MIN KMSN 250220Z 33007KT 10SM CLR M02/M10 A2982 960 55 -800 330/07 RMK AO2
14837KMSN MSN20041124202509511/24/04 20:25:31  5-MIN KMSN 250225Z 33005KT 10SM CLR M02/M10 A2982 950 55 -800 330/05 RMK AO2
14837KMSN MSN20041124203009511/24/04 20:30:31  5-MIN KMSN 250230Z 33005KT 10SM CLR M03/M10 A2982 950 58 -900 330/05 RMK AO2
14837KMSN MSN20041124203509511/24/04 20:35:31  5-MIN KMSN 250235Z 33005KT 10SM CLR M03/M09 A2982 950 60 -900 330/05 RMK AO2
14837KMSN MSN20041124204009511/24/04 20:40:31  5-MIN KMSN 250240Z 33004KT 10SM CLR M03/M10 A2983 950 58 -900 330/04 RMK AO2
14837KMSN MSN20041124204509511/24/04 20:45:31  5-MIN KMSN 250245Z 33004KT 10SM CLR M03/M10 A2983 950 58 -900 330/04 RMK AO2
14837KMSN MSN20041124205011811/24/04 20:50:31  5-MIN KMSN 250250Z 33005KT 10SM CLR M03/M09 A2983 950 60 -900 330/05 RMK AO2 SLP110 T10281094 51021
14837KMSN MSN20041124205509511/24/04 20:55:31  5-MIN KMSN 250255Z 33004KT 10SM CLR M03/M10 A2983 950 58 -900 330/04 RMK AO2
14837KMSN MSN20041124210009511/24/04 21:00:31  5-MIN KMSN 250300Z 33005KT 10SM CLR M03/M09 A2983 950 60 -900 330/05 RMK AO2
14837KMSN MSN20041124210509511/24/04 21:05:31  5-MIN KMSN 250305Z 33004KT 10SM CLR M03/M09 A2983 950 60 -900 330/04 RMK AO2
14837KMSN MSN20041124211009511/24/04 21:10:31  5-MIN KMSN 250310Z 32005KT 10SM CLR M03/M09 A2983 950 60 -900 320/05 RMK AO2
14837KMSN MSN20041124211509511/24/04 21:15:31  5-MIN KMSN 250315Z 33004KT 10SM CLR M03/M09 A2983 950 60 -900 320/04 RMK AO2
14837KMSN MSN20041124212009511/24/04 21:20:31  5-MIN KMSN 250320Z 34004KT 10SM CLR M03/M09 A2983 950 60 -900 340/04 RMK AO2
14837KMSN MSN20041124212509511/24/04 21:25:31  5-MIN KMSN 250325Z 33004KT 10SM CLR M03/M09 A2983 950 60 -900 320/04 RMK AO2
14837KMSN MSN20041124213009511/24/04 21:30:31  5-MIN KMSN 250330Z 32003KT 10SM CLR M03/M09 A2983 950 60 -900 320/03 RMK AO2
14837KMSN MSN20041124213509511/24/04 21:35:31  5-MIN KMSN 250335Z 33004KT 10SM CLR M03/M09 A2984 940 60 -900 330/04 RMK AO2
14837KMSN MSN20041124214009611/24/04 21:40:31  5-MIN KMSN 250340Z 32003KT 10SM CLR M03/M09 A2984 940 63 -1000 320/03 RMK AO2
14837KMSN MSN20041124214509611/24/04 21:45:31  5-MIN KMSN 250345Z 32003KT 10SM CLR M03/M09 A2984 940 63 -1000 320/03 RMK AO2
14837KMSN MSN20041124215011311/24/04 21:50:31  5-MIN KMSN 250350Z 32003KT 10SM CLR M03/M09 A2984 940 63 -1000 320/03 RMK AO2 SLP114 T10331094
14837KMSN MSN20041124215509611/24/04 21:55:31  5-MIN KMSN 250355Z 00000KT 10SM CLR M03/M09 A2984 940 63 -1000 000/00 RMK AO2
14837KMSN MSN20041124220009611/24/04 22:00:31  5-MIN KMSN 250400Z 00000KT 10SM CLR M03/M09 A2984 940 63 -1000 000/00 RMK AO2
14837KMSN MSN20041124220509611/24/04 22:05:31  5-MIN KMSN 250405Z 00000KT 10SM CLR M04/M09 A2984 940 68 -1100 000/00 RMK AO2
14837KMSN MSN20041124221009611/24/04 22:10:31  5-MIN KMSN 250410Z 00000KT 10SM CLR M04/M08 A2984 940 74 -1100 000/00 RMK AO2
14837KMSN MSN20041124221509611/24/04 22:15:31  5-MIN KMSN 250415Z 00000KT 10SM CLR M05/M08 A2984 940 77 -1200 000/00 RMK AO2
14837KMSN MSN20041124222009611/24/04 22:20:31  5-MIN KMSN 250420Z 00000KT 10SM CLR M05/M09 A2984 940 74 -1200 000/00 RMK AO2
14837KMSN MSN20041124222509611/24/04 22:25:31  5-MIN KMSN 250425Z 00000KT 10SM CLR M04/M08 A2983 940 74 -1100 000/00 RMK AO2
14837KMSN MSN20041124223009611/24/04 22:30:31  5-MIN KMSN 250430Z 00000KT 10SM CLR M04/M08 A2984 940 74 -1100 000/00 RMK AO2
14837KMSN MSN20041124223509611/24/04 22:35:31  5-MIN KMSN 250435Z 00000KT 10SM CLR M04/M08 A2984 940 74 -1100 000/00 RMK AO2
14837KMSN MSN20041124224009611/24/04 22:40:31  5-MIN KMSN 250440Z 26003KT 10SM CLR M05/M08 A2984 940 77 -1200 260/03 RMK AO2
14837KMSN MSN20041124224509611/24/04 22:45:31  5-MIN KMSN 250445Z 26003KT 10SM CLR M05/M08 A2984 940 77 -1200 260/03 RMK AO2
14837KMSN MSN20041124225011311/24/04 22:50:31  5-MIN KMSN 250450Z 00000KT 10SM CLR M05/M08 A2983 940 81 -1200 000/00 RMK AO2 SLP114 T10501078
14837KMSN MSN20041124225509611/24/04 22:55:31  5-MIN KMSN 250455Z 00000KT 10SM CLR M05/M08 A2983 940 81 -1200 000/00 RMK AO2
14837KMSN MSN20041124230009611/24/04 23:00:31  5-MIN KMSN 250500Z 00000KT 10SM CLR M05/M08 A2983 940 81 -1200 000/00 RMK AO2
14837KMSN MSN20041124230509611/24/04 23:05:31  5-MIN KMSN 250505Z 00000KT 10SM CLR M05/M08 A2983 940 81 -1200 000/00 RMK AO2
14837KMSN MSN20041124231009611/24/04 23:10:31  5-MIN KMSN 250510Z 00000KT 10SM CLR M06/M08 A2984 940 81 -1300 000/00 RMK AO2
14837KMSN MSN20041124231509611/24/04 23:15:31  5-MIN KMSN 250515Z 00000KT 10SM CLR M06/M09 A2984 940 74 -1300 000/00 RMK AO2
14837KMSN MSN20041124232009611/24/04 23:20:31  5-MIN KMSN 250520Z 00000KT 10SM CLR M05/M10 A2984 940 68 -1200 000/00 RMK AO2
14837KMSN MSN20041124232509611/24/04 23:25:31  5-MIN KMSN 250525Z 00000KT 10SM CLR M06/M09 A2983 940 74 -1300 000/00 RMK AO2
14837KMSN MSN20041124233009611/24/04 23:30:31  5-MIN KMSN 250530Z 00000KT 10SM CLR M06/M09 A2983 940 74 -1300 000/00 RMK AO2
14837KMSN MSN20041124233509611/24/04 23:35:31  5-MIN KMSN 250535Z 29003KT 10SM CLR M06/M09 A2984 940 74 -1300 290/03 RMK AO2
14837KMSN MSN20041124234009611/24/04 23:40:31  5-MIN KMSN 250540Z 29003KT 10SM CLR M06/M09 A2983 940 74 -1300 280/03 RMK AO2
14837KMSN MSN20041124234509611/24/04 23:45:31  5-MIN KMSN 250545Z 29003KT 10SM CLR M06/M09 A2984 940 74 -1300 280/03 RMK AO2
14837KMSN MSN20041124235014111/24/04 23:50:31  5-MIN KMSN 250550Z 30003KT 10SM CLR M05/M09 A2983 940 71 -1200 300/03 RMK AO2 SLP114 T10501094 11011 21056 400001056 53007
14837KMSN MSN20041124235509611/24/04 23:55:31  5-MIN KMSN 250555Z 30003KT 10SM CLR M06/M09 A2983 940 74 -1300 300/03 RMK AO2
14837KMSN MSN20041125000009611/25/04 00:00:31  5-MIN KMSN 250600Z 30004KT 10SM CLR M06/M09 A2983 950 74 -1300 300/04 RMK AO2
14837KMSN MSN20041125000509611/25/04 00:05:31  5-MIN KMSN 250605Z 30004KT 10SM CLR M05/M09 A2983 950 71 -1200 300/04 RMK AO2
14837KMSN MSN20041125001009611/25/04 00:10:31  5-MIN KMSN 250610Z 30005KT 10SM CLR M05/M09 A2983 950 71 -1200 300/05 RMK AO2
14837KMSN MSN20041125001509611/25/04 00:15:31  5-MIN KMSN 250615Z 30005KT 10SM CLR M05/M09 A2983 950 71 -1200 300/05 RMK AO2
14837KMSN MSN20041125002009611/25/04 00:20:31  5-MIN KMSN 250620Z 30004KT 10SM CLR M05/M09 A2983 950 71 -1200 300/04 RMK AO2
14837KMSN MSN20041125002509611/25/04 00:25:31  5-MIN KMSN 250625Z 31004KT 10SM CLR M04/M09 A2983 950 68 -1100 300/04 RMK AO2
14837KMSN MSN20041125003009611/25/04 00:30:31  5-MIN KMSN 250630Z 31004KT 10SM CLR M04/M09 A2983 950 68 -1100 310/04 RMK AO2
14837KMSN MSN20041125003509611/25/04 00:35:31  5-MIN KMSN 250635Z 31004KT 10SM CLR M05/M09 A2983 950 71 -1200 300/04 RMK AO2
14837KMSN MSN20041125004009611/25/04 00:40:31  5-MIN KMSN 250640Z 30004KT 10SM CLR M06/M09 A2983 950 74 -1300 300/04 RMK AO2
14837KMSN MSN20041125004509611/25/04 00:45:31  5-MIN KMSN 250645Z 30004KT 10SM CLR M06/M09 A2983 950 74 -1300 300/04 RMK AO2
14837KMSN MSN20041125005011311/25/04 00:50:31  5-MIN KMSN 250650Z 30004KT 10SM CLR M06/M09 A2983 950 74 -1300 300/04 RMK AO2 SLP113 T10561094
14837KMSN MSN20041125005509611/25/04 00:55:31  5-MIN KMSN 250655Z 31003KT 10SM CLR M06/M09 A2983 950 74 -1300 310/03 RMK AO2
14837KMSN MSN20041125010009611/25/04 01:00:31  5-MIN KMSN 250700Z 32003KT 10SM CLR M05/M09 A2983 950 71 -1200 310/03 RMK AO2
14837KMSN MSN20041125010509611/25/04 01:05:31  5-MIN KMSN 250705Z 32004KT 10SM CLR M04/M10 A2983 950 65 -1100 320/04 RMK AO2
14837KMSN MSN20041125011009611/25/04 01:10:31  5-MIN KMSN 250710Z 31005KT 10SM CLR M04/M10 A2983 950 65 -1100 310/05 RMK AO2
14837KMSN MSN20041125011509611/25/04 01:15:31  5-MIN KMSN 250715Z 31005KT 10SM CLR M04/M10 A2983 940 65 -1100 310/05 RMK AO2
14837KMSN MSN20041125012009611/25/04 01:20:31  5-MIN KMSN 250720Z 31004KT 10SM CLR M04/M10 A2983 940 65 -1100 310/04 RMK AO2
14837KMSN MSN20041125012509611/25/04 01:25:31  5-MIN KMSN 250725Z 32003KT 10SM CLR M04/M10 A2983 940 65 -1100 320/03 RMK AO2
14837KMSN MSN20041125013009611/25/04 01:30:31  5-MIN KMSN 250730Z 32005KT 10SM CLR M04/M10 A2983 940 65 -1100 320/05 RMK AO2
14837KMSN MSN20041125013509611/25/04 01:35:31  5-MIN KMSN 250735Z 32005KT 10SM CLR M04/M09 A2983 940 68 -1100 320/05 RMK AO2
14837KMSN MSN20041125014009611/25/04 01:40:31  5-MIN KMSN 250740Z 33005KT 10SM CLR M04/M10 A2983 940 65 -1100 330/05 RMK AO2
14837KMSN MSN20041125014509611/25/04 01:45:31  5-MIN KMSN 250745Z 32004KT 10SM CLR M04/M10 A2983 940 65 -1100 320/04 RMK AO2
14837KMSN MSN20041125015011311/25/04 01:50:31  5-MIN KMSN 250750Z 32004KT 10SM CLR M04/M10 A2984 940 65 -1100 320/04 RMK AO2 SLP115 T10441100
14837KMSN MSN20041125015509611/25/04 01:55:31  5-MIN KMSN 250755Z 32003KT 10SM CLR M04/M10 A2984 940 65 -1100 320/03 RMK AO2
14837KMSN MSN20041125020009611/25/04 02:00:31  5-MIN KMSN 250800Z 32003KT 10SM CLR M04/M10 A2984 940 65 -1100 320/03 RMK AO2
14837KMSN MSN20041125020509611/25/04 02:05:31  5-MIN KMSN 250805Z 32003KT 10SM CLR M04/M09 A2984 940 68 -1100 310/03 RMK AO2
14837KMSN MSN20041125021009611/25/04 02:10:31  5-MIN KMSN 250810Z 31003KT 10SM CLR M05/M09 A2984 940 71 -1200 310/03 RMK AO2
14837KMSN MSN20041125021509611/25/04 02:15:31  5-MIN KMSN 250815Z 31003KT 10SM CLR M06/M09 A2984 940 74 -1300 310/03 RMK AO2
14837KMSN MSN20041125022009611/25/04 02:20:31  5-MIN KMSN 250820Z 00000KT 10SM CLR M06/M09 A2984 940 74 -1300 000/00 RMK AO2
14837KMSN MSN20041125022509611/25/04 02:25:31  5-MIN KMSN 250825Z 00000KT 10SM CLR M06/M09 A2984 940 77 -1400 000/00 RMK AO2
14837KMSN MSN20041125023009611/25/04 02:30:31  5-MIN KMSN 250830Z 00000KT 10SM CLR M06/M09 A2985 930 77 -1400 000/00 RMK AO2
14837KMSN MSN20041125023509611/25/04 02:35:31  5-MIN KMSN 250835Z 28003KT 10SM CLR M06/M09 A2985 930 77 -1400 280/03 RMK AO2
14837KMSN MSN20041125024009611/25/04 02:40:31  5-MIN KMSN 250840Z 00000KT 10SM CLR M07/M09 A2985 930 81 -1400 000/00 RMK AO2
14837KMSN MSN20041125024509611/25/04 02:45:31  5-MIN KMSN 250845Z 28003KT 10SM CLR M07/M09 A2985 930 81 -1400 280/03 RMK AO2
14837KMSN MSN20041125025011911/25/04 02:50:31  5-MIN KMSN 250850Z 00000KT 10SM CLR M06/M09 A2985 930 77 -1400 000/00 RMK AO2 SLP118 T10611094 51003
14837KMSN MSN20041125025509611/25/04 02:55:31  5-MIN KMSN 250855Z 00000KT 10SM CLR M06/M09 A2985 930 77 -1400 000/00 RMK AO2
14837KMSN MSN20041125030009611/25/04 03:00:31  5-MIN KMSN 250900Z 00000KT 10SM CLR M06/M09 A2985 930 74 -1300 000/00 RMK AO2
14837KMSN MSN20041125030509611/25/04 03:05:31  5-MIN KMSN 250905Z 00000KT 10SM CLR M07/M10 A2985 930 77 -1400 000/00 RMK AO2
14837KMSN MSN20041125031009611/25/04 03:10:31  5-MIN KMSN 250910Z 00000KT 10SM CLR M07/M09 A2985 930 81 -1400 000/00 RMK AO2
14837KMSN MSN20041125031509611/25/04 03:15:31  5-MIN KMSN 250915Z 00000KT 10SM CLR M07/M09 A2985 930 81 -1400 000/00 RMK AO2
14837KMSN MSN20041125032009611/25/04 03:20:31  5-MIN KMSN 250920Z 27003KT 10SM CLR M07/M09 A2985 930 81 -1400 270/03 RMK AO2
14837KMSN MSN20041125032509611/25/04 03:25:31  5-MIN KMSN 250925Z 27004KT 10SM CLR M07/M09 A2985 930 81 -1400 270/04 RMK AO2
14837KMSN MSN20041125033009611/25/04 03:30:31  5-MIN KMSN 250930Z 28004KT 10SM CLR M07/M09 A2985 930 81 -1400 270/04 RMK AO2
14837KMSN MSN20041125033509611/25/04 03:35:31  5-MIN KMSN 250935Z 27003KT 10SM CLR M06/M09 A2985 930 77 -1400 270/03 RMK AO2
14837KMSN MSN20041125034009611/25/04 03:40:31  5-MIN KMSN 250940Z 27003KT 10SM CLR M06/M10 A2985 930 74 -1400 270/03 RMK AO2
14837KMSN MSN20041125034509611/25/04 03:45:31  5-MIN KMSN 250945Z 00000KT 10SM CLR M06/M09 A2985 930 77 -1400 000/00 RMK AO2
14837KMSN MSN20041125035011311/25/04 03:50:31  5-MIN KMSN 250950Z 00000KT 10SM CLR M06/M09 A2985 930 77 -1400 000/00 RMK AO2 SLP121 T10611094
14837KMSN MSN20041125035509611/25/04 03:55:31  5-MIN KMSN 250955Z 00000KT 10SM CLR M06/M09 A2985 930 77 -1400 000/00 RMK AO2
14837KMSN MSN20041125040009611/25/04 04:00:31  5-MIN KMSN 251000Z 00000KT 10SM CLR M07/M09 A2985 930 81 -1400 000/00 RMK AO2
14837KMSN MSN20041125040509611/25/04 04:05:31  5-MIN KMSN 251005Z 00000KT 10SM CLR M06/M09 A2985 930 77 -1400 000/00 RMK AO2
14837KMSN MSN20041125041009611/25/04 04:10:31  5-MIN KMSN 251010Z 00000KT 10SM CLR M07/M10 A2985 930 77 -1400 000/00 RMK AO2
14837KMSN MSN20041125041509611/25/04 04:15:31  5-MIN KMSN 251015Z 00000KT 10SM CLR M07/M11 A2985 930 77 -1500 000/00 RMK AO2
14837KMSN MSN20041125042009611/25/04 04:20:31  5-MIN KMSN 251020Z 00000KT 10SM CLR M07/M10 A2986 920 77 -1400 000/00 RMK AO2
14837KMSN MSN20041125042509611/25/04 04:25:31  5-MIN KMSN 251025Z 00000KT 10SM CLR M07/M10 A2986 920 77 -1400 000/00 RMK AO2
14837KMSN MSN20041125043009611/25/04 04:30:31  5-MIN KMSN 251030Z 00000KT 10SM CLR M07/M10 A2986 920 77 -1400 000/00 RMK AO2
14837KMSN MSN20041125043509611/25/04 04:35:31  5-MIN KMSN 251035Z 00000KT 10SM CLR M07/M11 A2986 920 77 -1500 000/00 RMK AO2
14837KMSN MSN20041125044009611/25/04 04:40:31  5-MIN KMSN 251040Z 00000KT 10SM CLR M08/M11 A2986 920 80 -1700 000/00 RMK AO2
14837KMSN MSN20041125044509611/25/04 04:45:31  5-MIN KMSN 251045Z 00000KT 10SM CLR M08/M11 A2986 920 84 -1700 000/00 RMK AO2
14837KMSN MSN20041125045011311/25/04 04:50:31  5-MIN KMSN 251050Z 00000KT 10SM CLR M08/M11 A2987 910 80 -1600 000/00 RMK AO2 SLP126 T10781106
14837KMSN MSN20041125045509611/25/04 04:55:31  5-MIN KMSN 251055Z 00000KT 10SM CLR M08/M11 A2987 910 80 -1600 000/00 RMK AO2
14837KMSN MSN20041125050009611/25/04 05:00:31  5-MIN KMSN 251100Z 00000KT 10SM CLR M08/M11 A2987 920 80 -1600 000/00 RMK AO2
14837KMSN MSN20041125050509611/25/04 05:05:31  5-MIN KMSN 251105Z 00000KT 10SM CLR M08/M11 A2987 920 80 -1600 000/00 RMK AO2
14837KMSN MSN20041125051009611/25/04 05:10:31  5-MIN KMSN 251110Z 00000KT 10SM CLR M08/M11 A2987 910 80 -1600 000/00 RMK AO2
14837KMSN MSN20041125051509611/25/04 05:15:31  5-MIN KMSN 251115Z 00000KT 10SM CLR M08/M10 A2987 910 84 -1600 000/00 RMK AO2
14837KMSN MSN20041125052009611/25/04 05:20:31  5-MIN KMSN 251120Z 27003KT 10SM CLR M08/M10 A2987 910 84 -1600 270/03 RMK AO2
14837KMSN MSN20041125052509611/25/04 05:25:31  5-MIN KMSN 251125Z 27003KT 10SM CLR M08/M11 A2987 910 80 -1600 270/03 RMK AO2
14837KMSN MSN20041125053009611/25/04 05:30:31  5-MIN KMSN 251130Z 27003KT 10SM CLR M08/M10 A2987 910 84 -1600 270/03 RMK AO2
14837KMSN MSN20041125053509611/25/04 05:35:31  5-MIN KMSN 251135Z 28003KT 10SM CLR M07/M10 A2987 910 77 -1500 280/03 RMK AO2
14837KMSN MSN20041125054009611/25/04 05:40:31  5-MIN KMSN 251140Z 28003KT 10SM CLR M07/M10 A2987 910 77 -1500 280/03 RMK AO2
14837KMSN MSN20041125054509611/25/04 05:45:31  5-MIN KMSN 251145Z 00000KT 10SM CLR M07/M10 A2987 910 81 -1500 000/00 RMK AO2
14837KMSN MSN20041125055013111/25/04 05:50:31  5-MIN KMSN 251150Z 00000KT 10SM CLR M07/M09 A2987 910 84 -1500 000/00 RMK AO2 SLP128 T10721094 11044 21083 53004
14837KMSN MSN20041125055509611/25/04 05:55:31  5-MIN KMSN 251155Z 00000KT 10SM CLR M06/M09 A2987 910 77 -1400 000/00 RMK AO2
14837KMSN MSN20041125060009611/25/04 06:00:31  5-MIN KMSN 251200Z 00000KT 10SM CLR M07/M10 A2987 910 77 -1500 000/00 RMK AO2
14837KMSN MSN20041125060509611/25/04 06:05:31  5-MIN KMSN 251205Z 00000KT 10SM CLR M07/M10 A2987 910 81 -1500 000/00 RMK AO2
14837KMSN MSN20041125061009611/25/04 06:10:31  5-MIN KMSN 251210Z 00000KT 10SM CLR M07/M11 A2987 910 77 -1500 000/00 RMK AO2
14837KMSN MSN20041125061509611/25/04 06:15:31  5-MIN KMSN 251215Z 00000KT 10SM CLR M07/M10 A2988 910 81 -1500 000/00 RMK AO2
14837KMSN MSN20041125062009611/25/04 06:20:31  5-MIN KMSN 251220Z 00000KT 10SM CLR M07/M10 A2988 910 77 -1500 000/00 RMK AO2
14837KMSN MSN20041125062509611/25/04 06:25:31  5-MIN KMSN 251225Z 00000KT 10SM CLR M07/M11 A2988 910 77 -1500 000/00 RMK AO2
14837KMSN MSN20041125063009611/25/04 06:30:31  5-MIN KMSN 251230Z 00000KT 10SM CLR M08/M11 A2988 900 77 -1600 000/00 RMK AO2
14837KMSN MSN20041125063509611/25/04 06:35:31  5-MIN KMSN 251235Z 00000KT 10SM CLR M07/M10 A2988 900 81 -1500 000/00 RMK AO2
14837KMSN MSN20041125064009611/25/04 06:40:31  5-MIN KMSN 251240Z 00000KT 10SM CLR M08/M11 A2988 900 80 -1600 000/00 RMK AO2
14837KMSN MSN20041125064509611/25/04 06:45:31  5-MIN KMSN 251245Z 00000KT 10SM CLR M08/M11 A2988 900 80 -1600 000/00 RMK AO2
14837KMSN MSN20041125065011311/25/04 06:50:31  5-MIN KMSN 251250Z 00000KT 10SM CLR M08/M11 A2988 900 80 -1700 000/00 RMK AO2 SLP131 T10831111
14837KMSN MSN20041125065509611/25/04 06:55:31  5-MIN KMSN 251255Z 00000KT 10SM CLR M08/M11 A2988 900 80 -1700 000/00 RMK AO2
14837KMSN MSN20041125070009611/25/04 07:00:31  5-MIN KMSN 251300Z 00000KT 10SM CLR M08/M11 A2988 900 80 -1700 000/00 RMK AO2
14837KMSN MSN20041125070509611/25/04 07:05:31  5-MIN KMSN 251305Z 00000KT 10SM CLR M08/M11 A2988 900 80 -1700 000/00 RMK AO2
14837KMSN MSN20041125071009611/25/04 07:10:31  5-MIN KMSN 251310Z 00000KT 10SM CLR M08/M11 A2988 900 84 -1700 000/00 RMK AO2
14837KMSN MSN20041125071509611/25/04 07:15:31  5-MIN KMSN 251315Z 00000KT 10SM CLR M08/M11 A2988 900 80 -1600 000/00 RMK AO2
14837KMSN MSN20041125072009611/25/04 07:20:31  5-MIN KMSN 251320Z 00000KT 10SM CLR M08/M11 A2988 900 80 -1700 000/00 RMK AO2
14837KMSN MSN20041125072509611/25/04 07:25:31  5-MIN KMSN 251325Z 00000KT 10SM CLR M08/M11 A2988 900 84 -1700 000/00 RMK AO2
14837KMSN MSN20041125073009611/25/04 07:30:31  5-MIN KMSN 251330Z 00000KT 10SM CLR M08/M10 A2988 900 84 -1600 000/00 RMK AO2
14837KMSN MSN20041125073509611/25/04 07:35:31  5-MIN KMSN 251335Z 00000KT 10SM CLR M07/M10 A2988 900 81 -1500 000/00 RMK AO2
14837KMSN MSN20041125074009611/25/04 07:40:31  5-MIN KMSN 251340Z 00000KT 10SM CLR M07/M09 A2989 900 81 -1500 000/00 RMK AO2
14837KMSN MSN20041125074509611/25/04 07:45:31  5-MIN KMSN 251345Z 00000KT 10SM CLR M07/M09 A2989 900 84 -1500 000/00 RMK AO2
14837KMSN MSN20041125075011311/25/04 07:50:31  5-MIN KMSN 251350Z 00000KT 10SM CLR M06/M09 A2989 900 77 -1300 000/00 RMK AO2 SLP133 T10561089
14837KMSN MSN20041125075509611/25/04 07:55:31  5-MIN KMSN 251355Z 00000KT 10SM CLR M06/M08 A2989 890 81 -1300 000/00 RMK AO2
14837KMSN MSN20041125080009611/25/04 08:00:31  5-MIN KMSN 251400Z 00000KT 10SM CLR M05/M08 A2989 890 77 -1300 000/00 RMK AO2
14837KMSN MSN20041125080509611/25/04 08:05:31  5-MIN KMSN 251405Z 00000KT 10SM CLR M04/M08 A2989 890 78 -1200 000/00 RMK AO2
14837KMSN MSN20041125081009611/25/04 08:10:31  5-MIN KMSN 251410Z 00000KT 10SM CLR M04/M08 A2989 890 78 -1200 000/00 RMK AO2
14837KMSN MSN20041125081509611/25/04 08:15:31  5-MIN KMSN 251415Z 00000KT 10SM CLR M04/M08 A2989 890 74 -1100 000/00 RMK AO2
14837KMSN MSN20041125082009611/25/04 08:20:31  5-MIN KMSN 251420Z 00000KT 10SM CLR M03/M08 A2989 890 71 -1100 000/00 RMK AO2
14837KMSN MSN20041125082509611/25/04 08:25:31  5-MIN KMSN 251425Z 23003KT 10SM CLR M03/M07 A2990 890 71 -1000 230/03 RMK AO2
14837KMSN MSN20041125083009511/25/04 08:30:31  5-MIN KMSN 251430Z 23004KT 10SM CLR M02/M08 A2990 890 66 -900 230/04 RMK AO2
14837KMSN MSN20041125083509511/25/04 08:35:31  5-MIN KMSN 251435Z VRB04KT 10SM CLR M02/M08 A2990 890 66 -900 VRB/04 RMK AO2
14837KMSN MSN20041125084009511/25/04 08:40:31  5-MIN KMSN 251440Z 22005KT 10SM CLR M02/M08 A2990 880 63 -900 220/05 RMK AO2
14837KMSN MSN20041125084509511/25/04 08:45:31  5-MIN KMSN 251445Z 22004KT 10SM CLR M02/M08 A2990 880 63 -900 220/04 RMK AO2
14837KMSN MSN20041125085011811/25/04 08:50:31  5-MIN KMSN 251450Z 25004KT 10SM CLR M01/M08 A2990 890 60 -800 250/04 RMK AO2 SLP135 T10111078 53009
14837KMSN MSN20041125085509511/25/04 08:55:31  5-MIN KMSN 251455Z 22006KT 10SM CLR M01/M08 A2990 880 60 -800 220/06 RMK AO2
14837KMSN MSN20041125090009511/25/04 09:00:31  5-MIN KMSN 251500Z 23005KT 10SM CLR M01/M08 A2990 890 60 -800 220/05 RMK AO2
14837KMSN MSN20041125090509511/25/04 09:05:31  5-MIN KMSN 251505Z 22006KT 10SM CLR M01/M08 A2990 890 60 -800 220/06 RMK AO2
14837KMSN MSN20041125091009511/25/04 09:10:31  5-MIN KMSN 251510Z VRB05KT 10SM CLR M01/M08 A2990 890 60 -800 VRB/05 RMK AO2
14837KMSN MSN20041125091509511/25/04 09:15:31  5-MIN KMSN 251515Z VRB06KT 10SM CLR M01/M07 A2990 880 61 -700 VRB/06 RMK AO2
14837KMSN MSN20041125092009511/25/04 09:20:31  5-MIN KMSN 251520Z 21009KT 10SM CLR M01/M08 A2990 880 58 -700 210/09 RMK AO2
14837KMSN MSN20041125092509511/25/04 09:25:31  5-MIN KMSN 251525Z 22010KT 10SM CLR M01/M08 A2990 880 56 -700 220/10 RMK AO2
14837KMSN MSN20041125093009511/25/04 09:30:31  5-MIN KMSN 251530Z 23008KT 10SM CLR M01/M08 A2990 880 56 -700 220/08 RMK AO2
14837KMSN MSN20041125093509411/25/04 09:35:31  5-MIN KMSN 251535Z 21006KT 10SM CLR 00/M08 A2990 880 53 -600 210/06 RMK AO2
14837KMSN MSN20041125094009411/25/04 09:40:31  5-MIN KMSN 251540Z 20008KT 10SM CLR 00/M08 A2990 880 53 -600 200/08 RMK AO2
14837KMSN MSN20041125094509411/25/04 09:45:31  5-MIN KMSN 251545Z 20008KT 10SM CLR 00/M08 A2990 880 53 -600 200/08 RMK AO2
14837KMSN MSN20041125095011111/25/04 09:50:31  5-MIN KMSN 251550Z 20010KT 10SM CLR 00/M08 A2991 880 53 -600 200/10 RMK AO2 SLP137 T00001083
14837KMSN MSN20041125095511011/25/04 09:55:31  5-MIN KMSN 251555Z 21010KT 180V250 10SM CLR 00/M09 A2990 880 51 -600 210/10 180V250 RMK AO2
14837KMSN MSN20041125100009411/25/04 10:00:31  5-MIN KMSN 251600Z 21011KT 10SM CLR 00/M09 A2990 880 51 -600 210/11 RMK AO2
14837KMSN MSN20041125100509411/25/04 10:05:31  5-MIN KMSN 251605Z 22010KT 10SM CLR 01/M09 A2990 880 49 -600 220/10 RMK AO2
14837KMSN MSN20041125101009411/25/04 10:10:31  5-MIN KMSN 251610Z 21010KT 10SM CLR 01/M09 A2990 880 49 -600 210/10 RMK AO2
14837KMSN MSN20041125101509411/25/04 10:15:31  5-MIN KMSN 251615Z 21006KT 10SM CLR 01/M09 A2990 880 49 -600 200/06 RMK AO2
14837KMSN MSN20041125102009411/25/04 10:20:31  5-MIN KMSN 251620Z VRB06KT 10SM CLR 01/M08 A2990 880 49 -500 VRB/06 RMK AO2
14837KMSN MSN20041125102509411/25/04 10:25:31  5-MIN KMSN 251625Z 22008KT 10SM CLR 01/M08 A2990 880 49 -500 220/08 RMK AO2
14837KMSN MSN20041125103011011/25/04 10:30:31  5-MIN KMSN 251630Z 22010KT 200V260 10SM CLR 02/M08 A2990 880 47 -400 220/10 200V260 RMK AO2
14837KMSN MSN20041125103511011/25/04 10:35:31  5-MIN KMSN 251635Z 22008KT 180V250 10SM CLR 01/M09 A2990 880 47 -500 220/08 180V250 RMK AO2
14837KMSN MSN20041125104009411/25/04 10:40:31  5-MIN KMSN 251640Z 24011KT 10SM CLR 01/M09 A2990 880 47 -500 230/11 RMK AO2
14837KMSN MSN20041125104509411/25/04 10:45:31  5-MIN KMSN 251645Z 22009KT 10SM CLR 01/M09 A2990 880 47 -500 220/09 RMK AO2
14837KMSN MSN20041125105011111/25/04 10:50:31  5-MIN KMSN 251650Z 23008KT 10SM CLR 02/M09 A2990 880 45 -400 230/08 RMK AO2 SLP136 T00171089
14837KMSN MSN20041125105510011/25/04 10:55:31  5-MIN KMSN 251655Z 22012G16KT 10SM CLR 01/M09 A2990 890 45 -500 220/12G16 RMK AO2
14837KMSN MSN20041125110010011/25/04 11:00:31  5-MIN KMSN 251700Z 23009G16KT 10SM CLR 01/M09 A2990 890 45 -500 230/09G16 RMK AO2
14837KMSN MSN20041125110510011/25/04 11:05:31  5-MIN KMSN 251705Z 23009G15KT 10SM CLR 02/M09 A2989 890 43 -400 220/09G15 RMK AO2
14837KMSN MSN20041125111010011/25/04 11:10:31  5-MIN KMSN 251710Z 24010G15KT 10SM CLR 02/M09 A2989 890 43 -400 240/10G15 RMK AO2
14837KMSN MSN20041125111509411/25/04 11:15:31  5-MIN KMSN 251715Z 23012KT 10SM CLR 02/M09 A2989 890 43 -400 230/12 RMK AO2
14837KMSN MSN20041125112009411/25/04 11:20:31  5-MIN KMSN 251720Z 22009KT 10SM CLR 02/M09 A2988 900 43 -400 210/09 RMK AO2
14837KMSN MSN20041125112510011/25/04 11:25:31  5-MIN KMSN 251725Z 23010G14KT 10SM CLR 02/M09 A2988 900 43 -400 230/10G14 RMK AO2
14837KMSN MSN20041125113011611/25/04 11:30:31  5-MIN KMSN 251730Z 24008G14KT 200V300 10SM CLR 02/M09 A2988 900 43 -400 240/08G14 200V300 RMK AO2
14837KMSN MSN20041125113510011/25/04 11:35:31  5-MIN KMSN 251735Z 23010G16KT 10SM CLR 02/M09 A2988 900 44 -300 230/10G16 RMK AO2
14837KMSN MSN20041125114011611/25/04 11:40:31  5-MIN KMSN 251740Z 24011G16KT 210V280 10SM CLR 02/M09 A2988 900 44 -300 240/11G16 210V280 RMK AO2
14837KMSN MSN20041125114510011/25/04 11:45:31  5-MIN KMSN 251745Z 22007G16KT 10SM CLR 02/M09 A2988 900 42 -300 220/07G16 RMK AO2
14837KMSN MSN20041125115013511/25/04 11:50:31  5-MIN KMSN 251750Z 24012G16KT 10SM CLR 02/M09 A2988 910 43 -400 240/12G16 RMK AO2 SLP127 T00171094 10022 21083 53008
14837KMSN MSN20041125115510011/25/04 11:55:31  5-MIN KMSN 251755Z 22009G16KT 10SM CLR 02/M09 A2987 910 44 -300 220/09G16 RMK AO2
14837KMSN MSN20041125120011611/25/04 12:00:31  5-MIN KMSN 251800Z 22011G15KT 190V270 10SM CLR 02/M09 A2987 910 44 -300 220/11G15 190V270 RMK AO2
14837KMSN MSN20041125120511611/25/04 12:05:31  5-MIN KMSN 251805Z 23008G16KT 200V260 10SM CLR 02/M09 A2987 910 44 -300 230/08G16 200V260 RMK AO2
14837KMSN MSN20041125121010011/25/04 12:10:31  5-MIN KMSN 251810Z 24011G16KT 10SM CLR 02/M09 A2987 910 44 -300 240/11G16 RMK AO2
14837KMSN MSN20041125121511611/25/04 12:15:31  5-MIN KMSN 251815Z 23010G16KT 190V270 10SM CLR 02/M09 A2986 920 44 -300 230/10G16 190V270 RMK AO2
14837KMSN MSN20041125122010011/25/04 12:20:31  5-MIN KMSN 251820Z 24011G16KT 10SM CLR 02/M09 A2986 920 44 -300 240/11G16 RMK AO2
14837KMSN MSN20041125122511011/25/04 12:25:31  5-MIN KMSN 251825Z 24007KT 200V260 10SM CLR 02/M08 A2986 920 45 -300 240/07 200V260 RMK AO2
14837KMSN MSN20041125123009411/25/04 12:30:31  5-MIN KMSN 251830Z 23008KT 10SM CLR 03/M08 A2986 920 44 -200 230/08 RMK AO2
14837KMSN MSN20041125123509411/25/04 12:35:31  5-MIN KMSN 251835Z 22010KT 10SM CLR 03/M08 A2985 930 44 -200 220/10 RMK AO2
14837KMSN MSN20041125124010011/25/04 12:40:31  5-MIN KMSN 251840Z 23011G15KT 10SM CLR 02/M08 A2985 930 45 -300 230/11G15 RMK AO2
14837KMSN MSN20041125124511611/25/04 12:45:31  5-MIN KMSN 251845Z 24007G15KT 200V270 10SM CLR 03/M08 A2985 930 44 -200 230/07G15 200V270 RMK AO2
14837KMSN MSN20041125125011111/25/04 12:50:31  5-MIN KMSN 251850Z 21010KT 10SM CLR 03/M08 A2985 930 44 -200 210/10 RMK AO2 SLP119 T00281083
14837KMSN MSN20041125125509411/25/04 12:55:31  5-MIN KMSN 251855Z 22009KT 10SM CLR 03/M08 A2985 930 44 -200 220/09 RMK AO2
14837KMSN MSN20041125130011011/25/04 13:00:31  5-MIN KMSN 251900Z 23010KT 200V260 10SM CLR 03/M08 A2985 930 44 -200 230/10 200V260 RMK AO2
14837KMSN MSN20041125130510011/25/04 13:05:31  5-MIN KMSN 251905Z 25008G15KT 10SM CLR 03/M08 A2985 930 44 -200 250/08G15 RMK AO2
14837KMSN MSN20041125131011011/25/04 13:10:31  5-MIN KMSN 251910Z 24009KT 180V280 10SM CLR 03/M08 A2985 930 44 -200 240/09 180V280 RMK AO2
14837KMSN MSN20041125131509411/25/04 13:15:31  5-MIN KMSN 251915Z 25009KT 10SM CLR 03/M09 A2985 930 42 -200 250/09 RMK AO2
14837KMSN MSN20041125132009411/25/04 13:20:31  5-MIN KMSN 251920Z 22010KT 10SM CLR 03/M08 A2984 930 44 -200 220/10 RMK AO2
14837KMSN MSN20041125132511011/25/04 13:25:31  5-MIN KMSN 251925Z 23009KT 180V260 10SM CLR 03/M08 A2984 940 44 -200 230/09 180V260 RMK AO2
14837KMSN MSN20041125133009411/25/04 13:30:31  5-MIN KMSN 251930Z 24009KT 10SM CLR 03/M08 A2985 930 42 -200 240/09 RMK AO2
14837KMSN MSN20041125133511011/25/04 13:35:31  5-MIN KMSN 251935Z 23007KT 210V280 10SM CLR 03/M08 A2984 940 44 -200 230/07 210V280 RMK AO2
14837KMSN MSN20041125134010011/25/04 13:40:31  5-MIN KMSN 251940Z 24010G15KT 10SM CLR 03/M09 A2984 930 40 -200 230/10G15 RMK AO2
14837KMSN MSN20041125134510011/25/04 13:45:31  5-MIN KMSN 251945Z 22008G15KT 10SM CLR 03/M09 A2984 940 40 -200 220/08G15 RMK AO2
14837KMSN MSN20041125135011111/25/04 13:50:31  5-MIN KMSN 251950Z 23009KT 10SM CLR 03/M09 A2984 940 40 -200 230/09 RMK AO2 SLP116 T00331089
14837KMSN MSN20041125135510011/25/04 13:55:31  5-MIN KMSN 251955Z 26007G16KT 10SM CLR 03/M09 A2984 940 40 -200 260/07G16 RMK AO2
14837KMSN MSN20041125140010011/25/04 14:00:31  5-MIN KMSN 252000Z 23008G16KT 10SM CLR 04/M08 A2984 940 40 -100 230/08G16 RMK AO2
14837KMSN MSN20041125140509411/25/04 14:05:31  5-MIN KMSN 252005Z 23007KT 10SM CLR 03/M09 A2984 940 40 -200 230/07 RMK AO2
14837KMSN MSN20041125141011011/25/04 14:10:31  5-MIN KMSN 252010Z 24007KT 190V270 10SM CLR 03/M09 A2984 940 40 -200 240/07 190V270 RMK AO2
14837KMSN MSN20041125141509411/25/04 14:15:31  5-MIN KMSN 252015Z 23007KT 10SM CLR 03/M09 A2984 930 42 -200 220/07 RMK AO2
14837KMSN MSN20041125142011011/25/04 14:20:31  5-MIN KMSN 252020Z 25007KT 210V270 10SM CLR 03/M09 A2984 940 40 -200 250/07 210V270 RMK AO2
14837KMSN MSN20041125142509411/25/04 14:25:31  5-MIN KMSN 252025Z VRB04KT 10SM CLR 03/M09 A2984 940 40 -200 VRB/04 RMK AO2
14837KMSN MSN20041125143011011/25/04 14:30:31  5-MIN KMSN 252030Z 23008KT 210V280 10SM CLR 03/M09 A2984 940 40 -200 230/08 210V280 RMK AO2
14837KMSN MSN20041125143509411/25/04 14:35:31  5-MIN KMSN 252035Z 25007KT 10SM CLR 03/M09 A2984 940 40 -200 240/07 RMK AO2
14837KMSN MSN20041125144009411/25/04 14:40:31  5-MIN KMSN 252040Z 25008KT 10SM CLR 03/M09 A2984 940 40 -200 250/08 RMK AO2
14837KMSN MSN20041125144509411/25/04 14:45:31  5-MIN KMSN 252045Z 24007KT 10SM CLR 03/M09 A2984 940 39 -200 240/07 RMK AO2
14837KMSN MSN20041125145013311/25/04 14:50:31  5-MIN KMSN 252050Z 21008KT 190V260 10SM CLR 03/M09 A2984 940 40 -200 210/08 190V260 RMK AO2 SLP115 T00331089 58008
14837KMSN MSN20041125145509411/25/04 14:55:31  5-MIN KMSN 252055Z 22007KT 10SM CLR 03/M09 A2984 940 39 -200 220/07 RMK AO2
14837KMSN MSN20041125150011011/25/04 15:00:31  5-MIN KMSN 252100Z 25007KT 220V290 10SM CLR 03/M09 A2984 940 39 -200 250/07 220V290 RMK AO2
14837KMSN MSN20041125150509411/25/04 15:05:31  5-MIN KMSN 252105Z 22007KT 10SM CLR 03/M09 A2984 940 40 -200 220/07 RMK AO2
14837KMSN MSN20041125151011011/25/04 15:10:31  5-MIN KMSN 252110Z 21007KT 180V240 10SM CLR 03/M09 A2985 930 40 -200 210/07 180V240 RMK AO2
14837KMSN MSN20041125151509411/25/04 15:15:31  5-MIN KMSN 252115Z 23005KT 10SM CLR 03/M09 A2984 930 40 -200 230/05 RMK AO2
14837KMSN MSN20041125152009411/25/04 15:20:31  5-MIN KMSN 252120Z 22008KT 10SM CLR 03/M09 A2985 930 40 -200 220/08 RMK AO2
14837KMSN MSN20041125152510011/25/04 15:25:31  5-MIN KMSN 252125Z 25006G14KT 10SM CLR 03/M09 A2985 930 40 -200 250/06G14 RMK AO2
14837KMSN MSN20041125153011011/25/04 15:30:31  5-MIN KMSN 252130Z 25007KT 210V290 10SM CLR 03/M09 A2985 930 40 -200 240/07 210V290 RMK AO2
14837KMSN MSN20041125153509411/25/04 15:35:31  5-MIN KMSN 252135Z 23006KT 10SM CLR 03/M09 A2985 930 40 -200 230/06 RMK AO2
14837KMSN MSN20041125154009411/25/04 15:40:31  5-MIN KMSN 252140Z 23005KT 10SM CLR 03/M09 A2984 930 40 -200 230/05 RMK AO2
14837KMSN MSN20041125154509411/25/04 15:45:31  5-MIN KMSN 252145Z 25007KT 10SM CLR 03/M09 A2985 930 40 -200 250/07 RMK AO2
14837KMSN MSN20041125155011111/25/04 15:50:31  5-MIN KMSN 252150Z VRB04KT 10SM CLR 03/M09 A2984 930 40 -200 VRB/04 RMK AO2 SLP116 T00281094
14837KMSN MSN20041125155509411/25/04 15:55:31  5-MIN KMSN 252155Z 22007KT 10SM CLR 03/M09 A2985 930 40 -200 220/07 RMK AO2
14837KMSN MSN20041125160009411/25/04 16:00:31  5-MIN KMSN 252200Z 22006KT 10SM CLR 03/M09 A2985 930 40 -200 220/06 RMK AO2
14837KMSN MSN20041125160509411/25/04 16:05:31  5-MIN KMSN 252205Z 23006KT 10SM CLR 02/M09 A2985 930 42 -300 230/06 RMK AO2
14837KMSN MSN20041125161009411/25/04 16:10:31  5-MIN KMSN 252210Z VRB04KT 10SM CLR 03/M09 A2985 930 40 -200 VRB/04 RMK AO2
14837KMSN MSN20041125161509411/25/04 16:15:31  5-MIN KMSN 252215Z VRB06KT 10SM CLR 02/M09 A2985 930 42 -300 VRB/06 RMK AO2
14837KMSN MSN20041125162009411/25/04 16:20:31  5-MIN KMSN 252220Z VRB05KT 10SM CLR 02/M09 A2984 930 42 -300 VRB/05 RMK AO2
14837KMSN MSN20041125162509411/25/04 16:25:31  5-MIN KMSN 252225Z 22004KT 10SM CLR 02/M09 A2984 930 42 -300 220/04 RMK AO2
14837KMSN MSN20041125163009411/25/04 16:30:31  5-MIN KMSN 252230Z 23005KT 10SM CLR 02/M09 A2985 930 44 -300 230/05 RMK AO2
14837KMSN MSN20041125163509411/25/04 16:35:31  5-MIN KMSN 252235Z 21007KT 10SM CLR 02/M09 A2985 930 44 -300 210/07 RMK AO2
14837KMSN MSN20041125164009411/25/04 16:40:31  5-MIN KMSN 252240Z 22005KT 10SM CLR 02/M09 A2985 930 44 -300 220/05 RMK AO2
14837KMSN MSN20041125164509411/25/04 16:45:31  5-MIN KMSN 252245Z 21007KT 10SM CLR 02/M09 A2985 930 42 -300 210/07 RMK AO2
14837KMSN MSN20041125165011411/25/04 16:50:31  5-MIN KMSN 252250Z 21006KT 10SM FEW110 03/M09 A2985 930 40 -200 210/06 RMK AO2 SLP118 T00281094
14837KMSN MSN20041125165509711/25/04 16:55:31  5-MIN KMSN 252255Z 22005KT 10SM BKN110 02/M09 A2985 930 44 -300 220/05 RMK AO2
14837KMSN MSN20041125170009711/25/04 17:00:31  5-MIN KMSN 252300Z VRB03KT 10SM BKN110 02/M09 A2985 930 44 -300 VRB/03 RMK AO2
14837KMSN MSN20041125170509711/25/04 17:05:31  5-MIN KMSN 252305Z 22007KT 10SM BKN110 02/M09 A2985 930 44 -300 210/07 RMK AO2
14837KMSN MSN20041125171009711/25/04 17:10:31  5-MIN KMSN 252310Z 22005KT 10SM BKN110 02/M09 A2985 930 42 -300 220/05 RMK AO2
14837KMSN MSN20041125171509711/25/04 17:15:31  5-MIN KMSN 252315Z 21005KT 10SM SCT110 02/M09 A2985 930 44 -300 210/05 RMK AO2
14837KMSN MSN20041125172009711/25/04 17:20:31  5-MIN KMSN 252320Z 21005KT 10SM SCT110 02/M09 A2985 930 44 -300 210/05 RMK AO2
14837KMSN MSN20041125172509711/25/04 17:25:31  5-MIN KMSN 252325Z VRB05KT 10SM SCT110 02/M09 A2985 930 44 -300 VRB/05 RMK AO2
14837KMSN MSN20041125173009711/25/04 17:30:31  5-MIN KMSN 252330Z 21004KT 10SM SCT110 02/M09 A2985 930 44 -300 210/04 RMK AO2
14837KMSN MSN20041125173509711/25/04 17:35:31  5-MIN KMSN 252335Z 22005KT 10SM SCT110 02/M09 A2985 930 44 -300 220/05 RMK AO2
14837KMSN MSN20041125174009711/25/04 17:40:31  5-MIN KMSN 252340Z 22005KT 10SM SCT110 02/M09 A2985 930 44 -300 220/05 RMK AO2
14837KMSN MSN20041125174509711/25/04 17:45:31  5-MIN KMSN 252345Z 23005KT 10SM BKN110 02/M09 A2985 930 44 -300 230/05 RMK AO2
14837KMSN MSN20041125175013211/25/04 17:50:31  5-MIN KMSN 252350Z 21004KT 10SM BKN110 02/M08 A2985 930 45 -300 210/04 RMK AO2 SLP120 T00221083 10039 20017 56010
14837KMSN MSN20041125175509711/25/04 17:55:31  5-MIN KMSN 252355Z VRB04KT 10SM BKN110 02/M09 A2985 930 44 -300 VRB/04 RMK AO2
14837KMSN MSN20041125180009711/25/04 18:00:31  5-MIN KMSN 260000Z 22005KT 10SM OVC110 02/M08 A2985 930 45 -300 220/05 RMK AO2
14837KMSN MSN20041125180509711/25/04 18:05:31  5-MIN KMSN 260005Z 22003KT 10SM BKN110 02/M08 A2985 930 45 -300 220/03 RMK AO2
14837KMSN MSN20041125181009711/25/04 18:10:31  5-MIN KMSN 260010Z 21003KT 10SM BKN120 02/M08 A2985 930 47 -400 210/03 RMK AO2
14837KMSN MSN20041125181510411/25/04 18:15:31  5-MIN KMSN 260015Z 21003KT 10SM FEW090 BKN120 02/M08 A2985 930 47 -400 210/03 RMK AO2
14837KMSN MSN20041125182010411/25/04 18:20:31  5-MIN KMSN 260020Z 21003KT 10SM SCT090 BKN120 02/M08 A2985 930 47 -400 210/03 RMK AO2
14837KMSN MSN20041125182510411/25/04 18:25:31  5-MIN KMSN 260025Z 21004KT 10SM BKN090 BKN110 02/M08 A2986 920 47 -400 210/04 RMK AO2
14837KMSN MSN20041125183010411/25/04 18:30:31  5-MIN KMSN 260030Z 21005KT 10SM BKN090 BKN110 02/M08 A2985 930 45 -300 210/05 RMK AO2
14837KMSN MSN20041125183509711/25/04 18:35:31  5-MIN KMSN 260035Z 19005KT 10SM BKN090 02/M08 A2986 920 45 -300 190/05 RMK AO2
14837KMSN MSN20041125184009711/25/04 18:40:31  5-MIN KMSN 260040Z 19005KT 10SM OVC090 02/M08 A2986 920 47 -400 190/05 RMK AO2
14837KMSN MSN20041125184509711/25/04 18:45:31  5-MIN KMSN 260045Z 18005KT 10SM OVC090 02/M08 A2985 930 47 -400 180/05 RMK AO2
14837KMSN MSN20041125185011411/25/04 18:50:31  5-MIN KMSN 260050Z 18005KT 10SM BKN090 02/M08 A2985 930 47 -400 180/05 RMK AO2 SLP121 T00171083
14837KMSN MSN20041125185509711/25/04 18:55:31  5-MIN KMSN 260055Z 17005KT 10SM OVC090 02/M08 A2985 930 47 -400 170/05 RMK AO2
14837KMSN MSN20041125190009711/25/04 19:00:31  5-MIN KMSN 260100Z 17006KT 10SM OVC085 01/M08 A2985 930 51 -400 170/06 RMK AO2
14837KMSN MSN20041125190509711/25/04 19:05:31  5-MIN KMSN 260105Z 18006KT 10SM OVC085 01/M08 A2985 930 51 -400 180/06 RMK AO2
14837KMSN MSN20041125191009711/25/04 19:10:31  5-MIN KMSN 260110Z 19004KT 10SM OVC085 02/M08 A2985 930 49 -400 190/04 RMK AO2
14837KMSN MSN20041125191509711/25/04 19:15:31  5-MIN KMSN 260115Z 19004KT 10SM OVC085 02/M08 A2985 930 49 -400 190/04 RMK AO2
14837KMSN MSN20041125192009711/25/04 19:20:31  5-MIN KMSN 260120Z 19005KT 10SM OVC085 02/M08 A2985 930 49 -400 190/05 RMK AO2
14837KMSN MSN20041125192509711/25/04 19:25:31  5-MIN KMSN 260125Z 18006KT 10SM OVC085 02/M08 A2985 930 47 -300 170/06 RMK AO2
14837KMSN MSN20041125193009711/25/04 19:30:31  5-MIN KMSN 260130Z 18008KT 10SM OVC085 02/M08 A2985 930 49 -400 180/08 RMK AO2
14837KMSN MSN20041125193509711/25/04 19:35:31  5-MIN KMSN 260135Z 17006KT 10SM OVC080 02/M08 A2985 930 49 -400 170/06 RMK AO2
14837KMSN MSN20041125194009711/25/04 19:40:31  5-MIN KMSN 260140Z 17006KT 10SM OVC080 02/M07 A2985 930 52 -400 170/06 RMK AO2
14837KMSN MSN20041125194509711/25/04 19:45:31  5-MIN KMSN 260145Z 18005KT 10SM OVC080 02/M07 A2986 920 52 -400 180/05 RMK AO2
14837KMSN MSN20041125195011411/25/04 19:50:31  5-MIN KMSN 260150Z 17005KT 10SM OVC080 02/M07 A2986 920 52 -400 170/05 RMK AO2 SLP121 T00171072
14837KMSN MSN20041125195509711/25/04 19:55:31  5-MIN KMSN 260155Z 17005KT 10SM OVC080 01/M07 A2986 920 54 -500 170/05 RMK AO2
14837KMSN MSN20041125200009711/25/04 20:00:31  5-MIN KMSN 260200Z 16006KT 10SM OVC080 01/M07 A2986 920 56 -500 160/06 RMK AO2
14837KMSN MSN20041125200509711/25/04 20:05:31  5-MIN KMSN 260205Z 16007KT 10SM OVC080 01/M07 A2986 920 56 -500 160/07 RMK AO2
14837KMSN MSN20041125201009711/25/04 20:10:31  5-MIN KMSN 260210Z 17006KT 10SM OVC080 01/M07 A2986 920 56 -500 170/06 RMK AO2
14837KMSN MSN20041125201509711/25/04 20:15:31  5-MIN KMSN 260215Z 18008KT 10SM OVC080 01/M07 A2986 920 56 -500 180/08 RMK AO2
14837KMSN MSN20041125202009711/25/04 20:20:31  5-MIN KMSN 260220Z 17009KT 10SM OVC075 01/M06 A2986 920 58 -500 170/09 RMK AO2
14837KMSN MSN20041125202509711/25/04 20:25:31  5-MIN KMSN 260225Z 18009KT 10SM OVC075 01/M06 A2986 920 58 -500 170/09 RMK AO2
14837KMSN MSN20041125203009711/25/04 20:30:31  5-MIN KMSN 260230Z 17008KT 10SM OVC075 01/M06 A2987 910 58 -500 170/08 RMK AO2
14837KMSN MSN20041125203509711/25/04 20:35:31  5-MIN KMSN 260235Z 17006KT 10SM OVC075 01/M06 A2986 920 61 -500 170/06 RMK AO2
14837KMSN MSN20041125204009711/25/04 20:40:31  5-MIN KMSN 260240Z 17007KT 10SM OVC075 01/M06 A2986 920 61 -500 170/07 RMK AO2
14837KMSN MSN20041125204509711/25/04 20:45:31  5-MIN KMSN 260245Z 18007KT 10SM OVC075 01/M06 A2987 910 61 -500 180/07 RMK AO2
14837KMSN MSN20041125205012011/25/04 20:50:31  5-MIN KMSN 260250Z 19007KT 10SM OVC075 01/M06 A2987 910 61 -500 190/07 RMK AO2 SLP123 T00061061 52004
14837KMSN MSN20041125205509711/25/04 20:55:31  5-MIN KMSN 260255Z 19008KT 10SM OVC080 01/M06 A2987 910 61 -500 190/08 RMK AO2
14837KMSN MSN20041125210009711/25/04 21:00:31  5-MIN KMSN 260300Z 21006KT 10SM OVC075 01/M06 A2987 910 61 -500 210/06 RMK AO2
14837KMSN MSN20041125210509711/25/04 21:05:31  5-MIN KMSN 260305Z 21005KT 10SM OVC075 01/M06 A2987 910 61 -500 210/05 RMK AO2
14837KMSN MSN20041125211009711/25/04 21:10:31  5-MIN KMSN 260310Z 19007KT 10SM OVC075 01/M06 A2987 910 61 -500 190/07 RMK AO2
14837KMSN MSN20041125211509711/25/04 21:15:31  5-MIN KMSN 260315Z 18007KT 10SM OVC080 01/M06 A2987 910 61 -500 180/07 RMK AO2
14837KMSN MSN20041125212009711/25/04 21:20:31  5-MIN KMSN 260320Z 19007KT 10SM OVC080 01/M06 A2987 910 61 -500 190/07 RMK AO2
14837KMSN MSN20041125212509711/25/04 21:25:31  5-MIN KMSN 260325Z 21004KT 10SM OVC075 01/M06 A2987 910 61 -500 210/04 RMK AO2
14837KMSN MSN20041125213009711/25/04 21:30:31  5-MIN KMSN 260330Z 18006KT 10SM OVC080 01/M05 A2987 910 66 -500 180/06 RMK AO2
14837KMSN MSN20041125213509711/25/04 21:35:31  5-MIN KMSN 260335Z 18007KT 10SM OVC080 01/M05 A2987 920 66 -500 180/07 RMK AO2
14837KMSN MSN20041125214009711/25/04 21:40:31  5-MIN KMSN 260340Z 19007KT 10SM OVC080 01/M06 A2986 920 61 -500 190/07 RMK AO2
14837KMSN MSN20041125214509711/25/04 21:45:31  5-MIN KMSN 260345Z 19006KT 10SM OVC080 01/M06 A2987 910 61 -500 190/06 RMK AO2
14837KMSN MSN20041125215011411/25/04 21:50:31  5-MIN KMSN 260350Z 19008KT 10SM OVC080 01/M06 A2986 920 61 -500 190/08 RMK AO2 SLP122 T00061061
14837KMSN MSN20041125215509711/25/04 21:55:31  5-MIN KMSN 260355Z 17007KT 10SM OVC080 01/M06 A2986 920 61 -500 170/07 RMK AO2
14837KMSN MSN20041125220009711/25/04 22:00:31  5-MIN KMSN 260400Z 18006KT 10SM OVC080 01/M06 A2986 920 61 -500 180/06 RMK AO2
14837KMSN MSN20041125220509711/25/04 22:05:31  5-MIN KMSN 260405Z 18008KT 10SM OVC080 01/M06 A2986 920 61 -500 180/08 RMK AO2
14837KMSN MSN20041125221009711/25/04 22:10:31  5-MIN KMSN 260410Z 18009KT 10SM OVC080 01/M06 A2986 920 61 -500 180/09 RMK AO2
14837KMSN MSN20041125221509711/25/04 22:15:31  5-MIN KMSN 260415Z 17010KT 10SM OVC080 01/M06 A2986 920 61 -500 170/10 RMK AO2
14837KMSN MSN20041125222009711/25/04 22:20:31  5-MIN KMSN 260420Z 17009KT 10SM OVC080 00/M06 A2985 920 63 -600 170/09 RMK AO2
14837KMSN MSN20041125222509711/25/04 22:25:31  5-MIN KMSN 260425Z 18008KT 10SM OVC080 00/M06 A2986 920 63 -600 170/08 RMK AO2
14837KMSN MSN20041125223009711/25/04 22:30:31  5-MIN KMSN 260430Z 17008KT 10SM OVC080 00/M06 A2986 920 63 -600 170/08 RMK AO2
14837KMSN MSN20041125223509711/25/04 22:35:31  5-MIN KMSN 260435Z 18007KT 10SM OVC080 00/M06 A2985 930 63 -600 170/07 RMK AO2
14837KMSN MSN20041125224009711/25/04 22:40:31  5-MIN KMSN 260440Z 17007KT 10SM OVC085 00/M06 A2985 930 63 -600 170/07 RMK AO2
14837KMSN MSN20041125224509711/25/04 22:45:31  5-MIN KMSN 260445Z 16008KT 10SM OVC085 00/M07 A2985 930 61 -600 160/08 RMK AO2
14837KMSN MSN20041125225011411/25/04 22:50:31  5-MIN KMSN 260450Z 17007KT 10SM OVC085 00/M06 A2985 930 63 -600 170/07 RMK AO2 SLP117 T00001061
14837KMSN MSN20041125225509711/25/04 22:55:31  5-MIN KMSN 260455Z 16008KT 10SM OVC085 00/M07 A2985 930 61 -600 160/08 RMK AO2
14837KMSN MSN20041125230009711/25/04 23:00:31  5-MIN KMSN 260500Z 17006KT 10SM OVC085 00/M07 A2986 920 61 -600 170/06 RMK AO2
14837KMSN MSN20041125230509711/25/04 23:05:31  5-MIN KMSN 260505Z 17008KT 10SM OVC085 00/M07 A2986 920 61 -600 170/08 RMK AO2
14837KMSN MSN20041125231009711/25/04 23:10:31  5-MIN KMSN 260510Z 17007KT 10SM OVC085 00/M07 A2986 920 61 -600 170/07 RMK AO2
14837KMSN MSN20041125231509711/25/04 23:15:31  5-MIN KMSN 260515Z 17008KT 10SM OVC085 00/M07 A2986 920 61 -600 170/08 RMK AO2
14837KMSN MSN20041125232009711/25/04 23:20:31  5-MIN KMSN 260520Z 16007KT 10SM OVC085 00/M06 A2985 920 63 -600 160/07 RMK AO2
14837KMSN MSN20041125232509711/25/04 23:25:31  5-MIN KMSN 260525Z 16007KT 10SM OVC080 00/M06 A2985 930 63 -600 160/07 RMK AO2
14837KMSN MSN20041125233009711/25/04 23:30:31  5-MIN KMSN 260530Z 16008KT 10SM OVC080 00/M06 A2985 930 63 -600 160/08 RMK AO2
14837KMSN MSN20041125233509711/25/04 23:35:31  5-MIN KMSN 260535Z 17007KT 10SM OVC080 00/M06 A2985 930 63 -600 170/07 RMK AO2
14837KMSN MSN20041125234009711/25/04 23:40:31  5-MIN KMSN 260540Z 16007KT 10SM OVC080 00/M06 A2985 930 63 -600 160/07 RMK AO2
14837KMSN MSN20041125234509711/25/04 23:45:31  5-MIN KMSN 260545Z 17008KT 10SM OVC080 00/M06 A2985 920 63 -600 170/08 RMK AO2
14837KMSN MSN20041125235014211/25/04 23:50:31  5-MIN KMSN 260550Z 16008KT 10SM OVC080 00/M06 A2985 930 63 -600 160/08 RMK AO2 SLP117 T00001061 10022 20000 400391083 53005
14837KMSN MSN20041125235509711/25/04 23:55:31  5-MIN KMSN 260555Z 17010KT 10SM OVC080 00/M06 A2985 930 63 -600 160/10 RMK AO2
14837KMSN MSN20041126000009711/26/04 00:00:31  5-MIN KMSN 260600Z 17009KT 10SM OVC080 00/M06 A2985 930 63 -600 170/09 RMK AO2
14837KMSN MSN20041126000509711/26/04 00:05:31  5-MIN KMSN 260605Z 16006KT 10SM OVC080 00/M06 A2985 930 63 -600 160/06 RMK AO2
14837KMSN MSN20041126001009711/26/04 00:10:31  5-MIN KMSN 260610Z 16007KT 10SM OVC080 00/M06 A2985 930 63 -600 160/07 RMK AO2
14837KMSN MSN20041126001509711/26/04 00:15:31  5-MIN KMSN 260615Z 16007KT 10SM OVC080 00/M06 A2984 930 63 -600 150/07 RMK AO2
14837KMSN MSN20041126002009811/26/04 00:20:31  5-MIN KMSN 260620Z 15007KT 10SM OVC085 M01/M06 A2984 930 66 -600 150/07 RMK AO2
14837KMSN MSN20041126002509811/26/04 00:25:31  5-MIN KMSN 260625Z 15006KT 10SM OVC085 M01/M06 A2984 940 66 -600 150/06 RMK AO2
14837KMSN MSN20041126003009811/26/04 00:30:31  5-MIN KMSN 260630Z 15009KT 10SM OVC085 M01/M06 A2984 940 66 -600 140/09 RMK AO2
14837KMSN MSN20041126003509811/26/04 00:35:31  5-MIN KMSN 260635Z 14008KT 10SM OVC080 M01/M06 A2983 940 66 -600 140/08 RMK AO2
14837KMSN MSN20041126004009811/26/04 00:40:31  5-MIN KMSN 260640Z 13008KT 10SM OVC085 M01/M06 A2983 950 66 -600 130/08 RMK AO2
14837KMSN MSN20041126004509811/26/04 00:45:31  5-MIN KMSN 260645Z 15007KT 10SM OVC085 M01/M06 A2983 950 66 -600 150/07 RMK AO2
14837KMSN MSN20041126005011511/26/04 00:50:31  5-MIN KMSN 260650Z 15009KT 10SM OVC085 M01/M07 A2983 950 63 -600 150/09 RMK AO2 SLP108 T10061067
14837KMSN MSN20041126005509811/26/04 00:55:31  5-MIN KMSN 260655Z 14007KT 10SM OVC085 M01/M06 A2982 950 66 -600 140/07 RMK AO2
14837KMSN MSN20041126010009711/26/04 01:00:31  5-MIN KMSN 260700Z 15007KT 10SM OVC085 00/M06 A2982 960 63 -600 140/07 RMK AO2
14837KMSN MSN20041126010509811/26/04 01:05:31  5-MIN KMSN 260705Z 15008KT 10SM OVC085 M01/M06 A2982 960 66 -600 150/08 RMK AO2
14837KMSN MSN20041126011009811/26/04 01:10:31  5-MIN KMSN 260710Z 15007KT 10SM OVC090 M01/M06 A2982 950 66 -600 150/07 RMK AO2
14837KMSN MSN20041126011509811/26/04 01:15:31  5-MIN KMSN 260715Z 15007KT 10SM OVC085 M01/M06 A2982 960 66 -600 150/07 RMK AO2
14837KMSN MSN20041126012010511/26/04 01:20:31  5-MIN KMSN 260720Z 14007KT 10SM BKN080 OVC100 M01/M06 A2982 960 66 -600 140/07 RMK AO2
14837KMSN MSN20041126012510511/26/04 01:25:31  5-MIN KMSN 260725Z 14007KT 10SM BKN080 OVC100 M01/M06 A2982 960 66 -600 140/07 RMK AO2
14837KMSN MSN20041126013011211/26/04 01:30:31  5-MIN KMSN 260730Z 14007KT 10SM FEW032 SCT080 OVC100 M01/M06 A2982 950 66 -600 140/07 RMK AO2
14837KMSN MSN20041126013511211/26/04 01:35:31  5-MIN KMSN 260735Z 15006KT 10SM SCT032 BKN080 OVC100 M01/M06 A2983 950 66 -600 140/06 RMK AO2
14837KMSN MSN20041126014011211/26/04 01:40:31  5-MIN KMSN 260740Z 14007KT 10SM BKN032 BKN080 OVC100 M01/M06 A2982 960 66 -600 140/07 RMK AO2
14837KMSN MSN20041126014511211/26/04 01:45:31  5-MIN KMSN 260745Z 14008KT 10SM BKN032 BKN080 OVC100 M01/M06 A2982 960 66 -600 140/08 RMK AO2
14837KMSN MSN20041126015012211/26/04 01:50:31  5-MIN KMSN 260750Z 14008KT 10SM BKN032 OVC100 M01/M06 A2982 950 66 -600 140/08 RMK AO2 SLP107 T10061061
14837KMSN MSN20041126015509711/26/04 01:55:31  5-MIN KMSN 260755Z 14008KT 10SM OVC032 00/M06 A2983 950 63 -600 140/08 RMK AO2
14837KMSN MSN20041126020009711/26/04 02:00:31  5-MIN KMSN 260800Z 13007KT 10SM OVC032 00/M06 A2982 960 63 -600 130/07 RMK AO2
14837KMSN MSN20041126020509711/26/04 02:05:31  5-MIN KMSN 260805Z 14006KT 10SM OVC032 00/M06 A2983 950 63 -600 140/06 RMK AO2
14837KMSN MSN20041126021009711/26/04 02:10:31  5-MIN KMSN 260810Z 14008KT 10SM OVC034 00/M06 A2982 950 63 -600 140/08 RMK AO2
14837KMSN MSN20041126021509711/26/04 02:15:31  5-MIN KMSN 260815Z 14007KT 10SM OVC034 00/M06 A2982 950 63 -600 140/07 RMK AO2
14837KMSN MSN20041126022009711/26/04 02:20:31  5-MIN KMSN 260820Z 15008KT 10SM OVC034 00/M06 A2982 960 63 -600 150/08 RMK AO2
14837KMSN MSN20041126022509711/26/04 02:25:31  5-MIN KMSN 260825Z 15008KT 10SM OVC036 00/M06 A2982 960 63 -600 150/08 RMK AO2
14837KMSN MSN20041126023009711/26/04 02:30:31  5-MIN KMSN 260830Z 14006KT 10SM OVC036 00/M06 A2982 950 63 -600 140/06 RMK AO2
14837KMSN MSN20041126023509711/26/04 02:35:31  5-MIN KMSN 260835Z 13006KT 10SM OVC036 00/M06 A2982 960 63 -600 130/06 RMK AO2
14837KMSN MSN20041126024009711/26/04 02:40:31  5-MIN KMSN 260840Z 13004KT 10SM OVC036 00/M06 A2983 950 63 -600 130/04 RMK AO2
14837KMSN MSN20041126024509711/26/04 02:45:31  5-MIN KMSN 260845Z 13006KT 10SM OVC036 00/M06 A2982 950 63 -600 130/06 RMK AO2
14837KMSN MSN20041126025012011/26/04 02:50:31  5-MIN KMSN 260850Z 14006KT 10SM OVC036 00/M06 A2982 960 63 -600 130/06 RMK AO2 SLP106 T00001061 57006
14837KMSN MSN20041126025509711/26/04 02:55:31  5-MIN KMSN 260855Z 13007KT 10SM OVC036 00/M06 A2982 960 63 -600 130/07 RMK AO2
14837KMSN MSN20041126030009711/26/04 03:00:31  5-MIN KMSN 260900Z 13006KT 10SM OVC036 00/M06 A2982 960 63 -500 120/06 RMK AO2
14837KMSN MSN20041126030509711/26/04 03:05:31  5-MIN KMSN 260905Z 13005KT 10SM OVC036 00/M06 A2981 960 63 -500 130/05 RMK AO2
14837KMSN MSN20041126031009811/26/04 03:10:31  5-MIN KMSN 260910Z 13005KT 10SM OVC036 M01/M06 A2981 960 66 -600 120/05 RMK AO2
14837KMSN MSN20041126031510511/26/04 03:15:31  5-MIN KMSN 260915Z 13006KT 10SM BKN036 OVC075 M01/M06 A2981 970 66 -600 130/06 RMK AO2
14837KMSN MSN20041126032010511/26/04 03:20:31  5-MIN KMSN 260920Z 14007KT 10SM BKN036 OVC075 M01/M06 A2981 970 66 -600 140/07 RMK AO2
14837KMSN MSN20041126032509811/26/04 03:25:31  5-MIN KMSN 260925Z 13006KT 10SM OVC034 M01/M06 A2981 960 66 -600 130/06 RMK AO2
14837KMSN MSN20041126033009811/26/04 03:30:31  5-MIN KMSN 260930Z 14007KT 10SM OVC034 M01/M06 A2981 960 69 -600 140/07 RMK AO2
14837KMSN MSN20041126033509711/26/04 03:35:31  5-MIN KMSN 260935Z 14007KT 10SM OVC034 00/M06 A2981 970 66 -500 130/07 RMK AO2
14837KMSN MSN20041126034009711/26/04 03:40:31  5-MIN KMSN 260940Z 13006KT 10SM OVC034 00/M06 A2981 970 66 -500 130/06 RMK AO2
14837KMSN MSN20041126034509711/26/04 03:45:31  5-MIN KMSN 260945Z 14007KT 10SM OVC034 00/M06 A2981 970 66 -500 140/07 RMK AO2
14837KMSN MSN20041126035012111/26/04 03:50:31  5-MIN KMSN 260950Z 14005KT 10SM BKN034 OVC075 00/M06 A2981 960 66 -500 140/05 RMK AO2 SLP104 T00001056
14837KMSN MSN20041126035509711/26/04 03:55:31  5-MIN KMSN 260955Z 15004KT 10SM OVC032 00/M06 A2982 960 66 -500 150/04 RMK AO2
14837KMSN MSN20041126040009711/26/04 04:00:31  5-MIN KMSN 261000Z 16004KT 10SM OVC032 00/M06 A2982 960 66 -500 160/04 RMK AO2
14837KMSN MSN20041126040509711/26/04 04:05:31  5-MIN KMSN 261005Z 15004KT 10SM OVC032 00/M06 A2982 960 66 -600 150/04 RMK AO2
14837KMSN MSN20041126041009711/26/04 04:10:31  5-MIN KMSN 261010Z 15004KT 10SM OVC032 00/M06 A2982 950 66 -600 150/04 RMK AO2
14837KMSN MSN20041126041509711/26/04 04:15:31  5-MIN KMSN 261015Z 12003KT 10SM OVC032 00/M06 A2982 950 66 -600 120/03 RMK AO2
14837KMSN MSN20041126042009611/26/04 04:20:31  5-MIN KMSN 261020Z 00000KT 9SM OVC032 00/M05 A2983 950 69 -600 000/00 RMK AO2
14837KMSN MSN20041126042509611/26/04 04:25:31  5-MIN KMSN 261025Z 10004KT 9SM OVC032 00/M05 A2982 950 69 -600 100/04 RMK AO2
14837KMSN MSN20041126043009611/26/04 04:30:31  5-MIN KMSN 261030Z 10004KT 9SM OVC032 00/M05 A2982 950 69 -600 100/04 RMK AO2
14837KMSN MSN20041126043509611/26/04 04:35:31  5-MIN KMSN 261035Z 11004KT 9SM OVC030 00/M05 A2982 960 69 -600 110/04 RMK AO2
14837KMSN MSN20041126044009611/26/04 04:40:31  5-MIN KMSN 261040Z 10004KT 9SM OVC030 00/M05 A2982 960 69 -600 100/04 RMK AO2
14837KMSN MSN20041126044509611/26/04 04:45:31  5-MIN KMSN 261045Z 10005KT 9SM OVC030 00/M05 A2982 960 69 -600 090/05 RMK AO2
14837KMSN MSN20041126045011311/26/04 04:50:31  5-MIN KMSN 261050Z 09004KT 9SM OVC030 00/M05 A2982 960 69 -600 090/04 RMK AO2 SLP106 T00001050
14837KMSN MSN20041126045509611/26/04 04:55:31  5-MIN KMSN 261055Z 09005KT 9SM OVC030 00/M05 A2982 960 69 -600 090/05 RMK AO2
14837KMSN MSN20041126050009611/26/04 05:00:31  5-MIN KMSN 261100Z 10005KT 9SM OVC030 00/M05 A2982 960 69 -600 100/05 RMK AO2
14837KMSN MSN20041126050509611/26/04 05:05:31  5-MIN KMSN 261105Z 09005KT 9SM OVC030 00/M05 A2982 960 69 -600 090/05 RMK AO2
14837KMSN MSN20041126051009611/26/04 05:10:31  5-MIN KMSN 261110Z 09004KT 9SM OVC030 00/M05 A2982 960 69 -500 090/04 RMK AO2
14837KMSN MSN20041126051509711/26/04 05:15:31  5-MIN KMSN 261115Z 10004KT 9SM OVC030 M01/M05 A2982 960 72 -600 100/04 RMK AO2
14837KMSN MSN20041126052009611/26/04 05:20:31  5-MIN KMSN 261120Z 09005KT 9SM OVC030 00/M05 A2982 960 69 -500 090/05 RMK AO2
14837KMSN MSN20041126052509711/26/04 05:25:31  5-MIN KMSN 261125Z 10004KT 9SM OVC030 M01/M05 A2982 960 72 -600 100/04 RMK AO2
14837KMSN MSN20041126053009711/26/04 05:30:31  5-MIN KMSN 261130Z 11005KT 9SM OVC030 M01/M05 A2982 960 72 -600 100/05 RMK AO2
14837KMSN MSN20041126053509711/26/04 05:35:31  5-MIN KMSN 261135Z 10006KT 9SM OVC030 M01/M05 A2982 960 72 -600 100/06 RMK AO2
14837KMSN MSN20041126054009611/26/04 05:40:31  5-MIN KMSN 261140Z 11006KT 9SM OVC030 00/M05 A2981 960 69 -500 110/06 RMK AO2
14837KMSN MSN20041126054509711/26/04 05:45:31  5-MIN KMSN 261145Z 11006KT 9SM OVC030 M01/M04 A2981 970 75 -600 100/06 RMK AO2
14837KMSN MSN20041126055013211/26/04 05:50:31  5-MIN KMSN 261150Z 10006KT 9SM OVC030 M01/M04 A2981 970 75 -600 100/06 RMK AO2 SLP103 T10061044 10000 21006 56009
14837KMSN MSN20041126055509711/26/04 05:55:31  5-MIN KMSN 261155Z 10005KT 8SM OVC030 M01/M04 A2981 960 75 -600 100/05 RMK AO2
14837KMSN MSN20041126060009711/26/04 06:00:31  5-MIN KMSN 261200Z 10005KT 8SM OVC028 M01/M04 A2981 970 75 -600 090/05 RMK AO2
14837KMSN MSN20041126060509711/26/04 06:05:31  5-MIN KMSN 261205Z 10005KT 8SM BKN028 M01/M04 A2981 960 75 -600 100/05 RMK AO2
14837KMSN MSN20041126061009711/26/04 06:10:31  5-MIN KMSN 261210Z 11004KT 8SM BKN028 M01/M04 A2982 960 75 -600 110/04 RMK AO2
14837KMSN MSN20041126061509711/26/04 06:15:31  5-MIN KMSN 261215Z 12004KT 8SM SCT028 M01/M04 A2982 960 75 -600 120/04 RMK AO2
14837KMSN MSN20041126062009711/26/04 06:20:31  5-MIN KMSN 261220Z 13005KT 8SM BKN028 M01/M04 A2982 960 75 -600 130/05 RMK AO2
14837KMSN MSN20041126062509711/26/04 06:25:31  5-MIN KMSN 261225Z 13004KT 8SM BKN028 M01/M04 A2982 960 75 -600 130/04 RMK AO2
14837KMSN MSN20041126063009711/26/04 06:30:31  5-MIN KMSN 261230Z 12004KT 8SM BKN028 M01/M05 A2982 960 72 -600 110/04 RMK AO2
14837KMSN MSN20041126063509711/26/04 06:35:31  5-MIN KMSN 261235Z 12004KT 8SM BKN028 M01/M04 A2981 960 75 -600 120/04 RMK AO2
14837KMSN MSN20041126064009711/26/04 06:40:31  5-MIN KMSN 261240Z 11003KT 8SM BKN028 M01/M04 A2982 960 75 -600 110/03 RMK AO2
14837KMSN MSN20041126064509711/26/04 06:45:31  5-MIN KMSN 261245Z 11003KT 8SM BKN028 M01/M04 A2981 960 75 -600 110/03 RMK AO2
14837KMSN MSN20041126065011411/26/04 06:50:31  5-MIN KMSN 261250Z 12003KT 8SM BKN028 M01/M04 A2981 960 75 -600 120/03 RMK AO2 SLP105 T10061044
14837KMSN MSN20041126065509411/26/04 06:55:31  5-MIN KMSN 261255Z 13004KT 8SM CLR M01/M04 A2981 960 75 -600 130/04 RMK AO2
14837KMSN MSN20041126070009711/26/04 07:00:31  5-MIN KMSN 261300Z 13006KT 8SM BKN028 M01/M04 A2981 970 75 -600 130/06 RMK AO2
14837KMSN MSN20041126070509711/26/04 07:05:31  5-MIN KMSN 261305Z 12004KT 8SM BKN028 M01/M04 A2981 970 75 -600 120/04 RMK AO2
14837KMSN MSN20041126071009711/26/04 07:10:31  5-MIN KMSN 261310Z 13003KT 8SM BKN028 M01/M04 A2980 970 75 -600 130/03 RMK AO2
14837KMSN MSN20041126071509711/26/04 07:15:31  5-MIN KMSN 261315Z 12004KT 7SM BKN028 M01/M04 A2980 970 75 -600 120/04 RMK AO2
14837KMSN MSN20041126072009711/26/04 07:20:31  5-MIN KMSN 261320Z 12004KT 7SM BKN028 M01/M04 A2981 970 75 -600 120/04 RMK AO2
14837KMSN MSN20041126072509711/26/04 07:25:31  5-MIN KMSN 261325Z 13004KT 7SM BKN028 M01/M04 A2981 970 75 -600 130/04 RMK AO2
14837KMSN MSN20041126073009711/26/04 07:30:31  5-MIN KMSN 261330Z 13005KT 7SM BKN028 M01/M04 A2981 970 75 -600 130/05 RMK AO2
14837KMSN MSN20041126073509611/26/04 07:35:31  5-MIN KMSN 261335Z 13006KT 7SM BKN028 00/M04 A2981 970 72 -500 130/06 RMK AO2
14837KMSN MSN20041126074009611/26/04 07:40:31  5-MIN KMSN 261340Z 14006KT 7SM BKN028 00/M04 A2981 970 72 -500 140/06 RMK AO2
14837KMSN MSN20041126074509611/26/04 07:45:31  5-MIN KMSN 261345Z 14007KT 7SM BKN028 00/M04 A2981 970 75 -500 140/07 RMK AO2
14837KMSN MSN20041126075011611/26/04 07:50:31  5-MIN KMSN 261350Z 13006KT 6SM HZ BKN028 00/M04 A2981 970 75 -500 130/06 RMK AO2 SLP101 T00001039
14837KMSN MSN20041126075509911/26/04 07:55:31  5-MIN KMSN 261355Z 14005KT 6SM HZ BKN028 00/M04 A2981 970 75 -500 130/05 RMK AO2
14837KMSN MSN20041126080009911/26/04 08:00:31  5-MIN KMSN 261400Z 14005KT 6SM HZ BKN100 00/M04 A2981 970 75 -500 140/05 RMK AO2
14837KMSN MSN20041126080509911/26/04 08:05:31  5-MIN KMSN 261405Z 16007KT 6SM HZ BKN100 00/M04 A2981 970 75 -500 150/07 RMK AO2
14837KMSN MSN20041126081009911/26/04 08:10:31  5-MIN KMSN 261410Z 14007KT 6SM HZ BKN100 00/M04 A2981 970 75 -500 140/07 RMK AO2
14837KMSN MSN20041126081509911/26/04 08:15:31  5-MIN KMSN 261415Z 14007KT 6SM HZ BKN100 00/M03 A2980 970 78 -500 140/07 RMK AO2
14837KMSN MSN20041126082009911/26/04 08:20:31  5-MIN KMSN 261420Z 13008KT 6SM HZ BKN100 01/M03 A2980 980 75 -500 130/08 RMK AO2
14837KMSN MSN20041126082509911/26/04 08:25:31  5-MIN KMSN 261425Z 12006KT 6SM HZ BKN100 01/M03 A2980 970 75 -500 120/06 RMK AO2
14837KMSN MSN20041126083009911/26/04 08:30:31  5-MIN KMSN 261430Z 12007KT 6SM HZ BKN100 01/M03 A2980 970 75 -500 120/07 RMK AO2
14837KMSN MSN20041126083509911/26/04 08:35:31  5-MIN KMSN 261435Z 11007KT 6SM HZ BKN100 01/M03 A2980 980 75 -500 110/07 RMK AO2
14837KMSN MSN20041126084009911/26/04 08:40:31  5-MIN KMSN 261440Z 11006KT 6SM HZ BKN100 01/M03 A2980 980 78 -500 110/06 RMK AO2
14837KMSN MSN20041126084509911/26/04 08:45:31  5-MIN KMSN 261445Z 11006KT 6SM HZ BKN100 01/M03 A2980 980 78 -500 110/06 RMK AO2
14837KMSN MSN20041126085012211/26/04 08:50:31  5-MIN KMSN 261450Z 13007KT 6SM HZ BKN100 01/M03 A2980 970 75 -500 120/07 RMK AO2 SLP102 T00061033 58003
14837KMSN MSN20041126085509911/26/04 08:55:31  5-MIN KMSN 261455Z 13006KT 6SM HZ BKN120 01/M03 A2981 970 78 -500 130/06 RMK AO2
14837KMSN MSN20041126090009911/26/04 09:00:31  5-MIN KMSN 261500Z 13005KT 6SM HZ BKN120 01/M03 A2981 960 75 -400 120/05 RMK AO2
14837KMSN MSN20041126090509911/26/04 09:05:31  5-MIN KMSN 261505Z 15005KT 6SM HZ BKN120 01/M03 A2982 960 75 -400 140/05 RMK AO2
14837KMSN MSN20041126091009911/26/04 09:10:31  5-MIN KMSN 261510Z 15007KT 6SM HZ BKN120 01/M03 A2982 960 75 -400 150/07 RMK AO2
14837KMSN MSN20041126091509611/26/04 09:15:31  5-MIN KMSN 261515Z 15007KT 7SM BKN120 01/M03 A2982 960 75 -400 150/07 RMK AO2
14837KMSN MSN20041126092009611/26/04 09:20:31  5-MIN KMSN 261520Z 15009KT 7SM BKN120 01/M03 A2981 960 75 -400 150/09 RMK AO2
14837KMSN MSN20041126092509611/26/04 09:25:31  5-MIN KMSN 261525Z 14007KT 7SM BKN120 02/M02 A2981 960 75 -300 140/07 RMK AO2
14837KMSN MSN20041126093009611/26/04 09:30:31  5-MIN KMSN 261530Z 15006KT 7SM BKN120 02/M02 A2981 970 75 -300 150/06 RMK AO2
14837KMSN MSN20041126093509611/26/04 09:35:31  5-MIN KMSN 261535Z 13007KT 7SM BKN120 02/M02 A2981 970 75 -300 130/07 RMK AO2
14837KMSN MSN20041126094009611/26/04 09:40:31  5-MIN KMSN 261540Z 15008KT 7SM BKN120 02/M02 A2981 960 75 -300 150/08 RMK AO2
14837KMSN MSN20041126094509611/26/04 09:45:31  5-MIN KMSN 261545Z 14007KT 7SM BKN120 02/M02 A2981 960 75 -300 140/07 RMK AO2
14837KMSN MSN20041126095011311/26/04 09:50:31  5-MIN KMSN 261550Z 15008KT 7SM BKN120 02/M02 A2981 960 75 -300 150/08 RMK AO2 SLP104 T00171022
14837KMSN MSN20041126095509611/26/04 09:55:31  5-MIN KMSN 261555Z 16008KT 7SM BKN120 02/M02 A2981 970 75 -300 160/08 RMK AO2
14837KMSN MSN20041126100009611/26/04 10:00:31  5-MIN KMSN 261600Z 15008KT 7SM BKN120 02/M02 A2981 960 75 -300 150/08 RMK AO2
14837KMSN MSN20041126100509611/26/04 10:05:31  5-MIN KMSN 261605Z 15008KT 7SM BKN120 02/M02 A2981 960 72 -300 150/08 RMK AO2
14837KMSN MSN20041126101009611/26/04 10:10:31  5-MIN KMSN 261610Z 15008KT 7SM BKN120 02/M02 A2982 960 72 -300 150/08 RMK AO2
14837KMSN MSN20041126101509611/26/04 10:15:31  5-MIN KMSN 261615Z 16007KT 7SM BKN120 02/M02 A2982 960 72 -300 160/07 RMK AO2
14837KMSN MSN20041126102009611/26/04 10:20:31  5-MIN KMSN 261620Z 15007KT 7SM BKN120 02/M02 A2982 960 72 -300 150/07 RMK AO2
14837KMSN MSN20041126102509611/26/04 10:25:31  5-MIN KMSN 261625Z 15006KT 7SM BKN120 02/M02 A2981 970 72 -300 150/06 RMK AO2
14837KMSN MSN20041126103009611/26/04 10:30:31  5-MIN KMSN 261630Z 15007KT 7SM BKN120 02/M02 A2981 970 72 -300 150/07 RMK AO2
14837KMSN MSN20041126103509611/26/04 10:35:31  5-MIN KMSN 261635Z 15006KT 7SM BKN120 02/M02 A2981 970 72 -300 150/06 RMK AO2
14837KMSN MSN20041126104009611/26/04 10:40:31  5-MIN KMSN 261640Z 15008KT 7SM BKN120 02/M02 A2981 970 72 -300 150/08 RMK AO2
14837KMSN MSN20041126104509611/26/04 10:45:31  5-MIN KMSN 261645Z 15007KT 7SM BKN120 02/M02 A2981 970 72 -300 150/07 RMK AO2
14837KMSN MSN20041126105011311/26/04 10:50:31  5-MIN KMSN 261650Z 15007KT 7SM SCT060 02/M02 A2981 970 72 -300 150/07 RMK AO2 SLP102 T00221022
14837KMSN MSN20041126105509611/26/04 10:55:31  5-MIN KMSN 261655Z 15006KT 7SM BKN060 03/M02 A2981 970 72 -200 140/06 RMK AO2
14837KMSN MSN20041126110009611/26/04 11:00:31  5-MIN KMSN 261700Z 16008KT 7SM BKN060 03/M02 A2981 970 72 -200 160/08 RMK AO2
14837KMSN MSN20041126110509611/26/04 11:05:31  5-MIN KMSN 261705Z 15008KT 7SM SCT060 03/M02 A2980 970 72 -200 150/08 RMK AO2
14837KMSN MSN20041126111009611/26/04 11:10:31  5-MIN KMSN 261710Z 14008KT 7SM BKN060 03/M02 A2980 980 72 -200 140/08 RMK AO2
14837KMSN MSN20041126111509611/26/04 11:15:31  5-MIN KMSN 261715Z 13008KT 7SM BKN060 03/M02 A2979 980 72 -200 130/08 RMK AO2
14837KMSN MSN20041126112009611/26/04 11:20:31  5-MIN KMSN 261720Z 13007KT 7SM SCT060 03/M02 A2979 980 72 -200 130/07 RMK AO2
14837KMSN MSN20041126112510311/26/04 11:25:31  5-MIN KMSN 261725Z 14009KT 7SM SCT060 SCT085 03/M01 A2979 980 72 -100 140/09 RMK AO2
14837KMSN MSN20041126113011911/26/04 11:30:31  5-MIN KMSN 261730Z 15008KT 7SM -RA SCT060 BKN080 03/M01 A2979 980 75 -200 150/08 RMK AO2 RAB26 P0000
14837KMSN MSN20041126113511911/26/04 11:35:31  5-MIN KMSN 261735Z 14009KT 7SM -RA SCT060 BKN080 03/M01 A2979 990 72 -100 140/09 RMK AO2 RAB26 P0000
14837KMSN MSN20041126114011811/26/04 11:40:31  5-MIN KMSN 261740Z 16009KT 7SM BKN065 BKN080 03/M01 A2979 990 72 -100 150/09 RMK AO2 RAB26E39 P0000
14837KMSN MSN20041126114511811/26/04 11:45:31  5-MIN KMSN 261745Z 14009KT 7SM BKN075 BKN090 03/M01 A2978 990 72 -100 140/09 RMK AO2 RAB26E39 P0000
14837KMSN MSN20041126115015311/26/04 11:50:31  5-MIN KMSN 261750Z 15008KT 7SM BKN080 03/M01 A2978 1000 72 -100 150/08 RMK AO2 RAB26E39 SLP092 P0000 60000 T00331011 10033 21011 58001
14837KMSN MSN20041126115509711/26/04 11:55:31  5-MIN KMSN 261755Z 15007KT 7SM BKN075 03/M01 A2978 1000 72 -100 150/07 RMK AO2
14837KMSN MSN20041126120009411/26/04 12:00:31  5-MIN KMSN 261800Z 14008KT 7SM SCT075 04/M01 A2978 1000 73 0 140/08 RMK AO2
14837KMSN MSN20041126120509411/26/04 12:05:31  5-MIN KMSN 261805Z 15007KT 7SM SCT080 04/M01 A2978 1000 70 0 150/07 RMK AO2
14837KMSN MSN20041126121009411/26/04 12:10:31  5-MIN KMSN 261810Z 15008KT 7SM SCT080 04/M01 A2977 1000 70 0 150/08 RMK AO2
14837KMSN MSN20041126121509411/26/04 12:15:31  5-MIN KMSN 261815Z 15007KT 7SM SCT080 04/M01 A2977 1000 70 0 150/07 RMK AO2
14837KMSN MSN20041126122010111/26/04 12:20:31  5-MIN KMSN 261820Z 16008KT 7SM SCT070 SCT080 04/M01 A2977 1000 70 0 160/08 RMK AO2
14837KMSN MSN20041126122510111/26/04 12:25:31  5-MIN KMSN 261825Z 14008KT 8SM SCT070 BKN080 04/M01 A2977 1000 70 0 140/08 RMK AO2
14837KMSN MSN20041126123009411/26/04 12:30:31  5-MIN KMSN 261830Z 14009KT 8SM SCT070 04/M01 A2977 1010 70 0 140/09 RMK AO2
14837KMSN MSN20041126123509411/26/04 12:35:31  5-MIN KMSN 261835Z 13007KT 8SM BKN070 04/M01 A2976 1010 70 0 130/07 RMK AO2
14837KMSN MSN20041126124009411/26/04 12:40:31  5-MIN KMSN 261840Z 12008KT 7SM BKN070 04/M01 A2976 1010 70 0 120/08 RMK AO2
14837KMSN MSN20041126124511011/26/04 12:45:31  5-MIN KMSN 261845Z 13007KT 7SM -RA BKN065 04/M01 A2976 1010 70 0 130/07 RMK AO2 RAB43 P0000
14837KMSN MSN20041126125014311/26/04 12:50:31  5-MIN KMSN 261850Z 14008KT 3SM -RA BKN060 BKN075 04/00 A2976 1020 73 0 140/08 RMK AO2 SFC VIS 7 RAB43 SLP085 P0000 T00440000
14837KMSN MSN20041126125512011/26/04 12:55:31  5-MIN KMSN 261855Z 15009KT 3SM -RA BKN050 BKN070 04/00 A2976 1010 73 0 150/09 RMK AO2 SFC VIS 6 P0000
14837KMSN MSN20041126130012011/26/04 13:00:31  5-MIN KMSN 261900Z 14010KT 3SM -RA BKN047 OVC070 04/01 A2976 1010 79 0 140/10 RMK AO2 SFC VIS 5 P0000
14837KMSN MSN20041126130512711/26/04 13:05:31  5-MIN KMSN 261905Z 15009KT 3SM -RA BKN043 BKN050 OVC065 04/01 A2976 1010 79 0 150/09 RMK AO2 SFC VIS 5 P0000
14837KMSN MSN20041126131012011/26/04 13:10:31  5-MIN KMSN 261910Z 15008KT 3SM -RA BKN043 BKN055 04/01 A2976 1010 79 0 150/08 RMK AO2 SFC VIS 5 P0000
14837KMSN MSN20041126131512011/26/04 13:15:31  5-MIN KMSN 261915Z 15007KT 3SM -RA BKN041 BKN050 04/01 A2976 1010 79 0 150/07 RMK AO2 SFC VIS 5 P0000
14837KMSN MSN20041126132012011/26/04 13:20:31  5-MIN KMSN 261920Z 16006KT 3SM -RA SCT037 OVC050 04/01 A2976 1010 82 0 160/06 RMK AO2 SFC VIS 6 P0000
14837KMSN MSN20041126132511011/26/04 13:25:31  5-MIN KMSN 261925Z 16007KT 5SM -RA FEW037 OVC050 04/01 A2976 1010 82 0 150/07 RMK AO2 P0000
14837KMSN MSN20041126133011011/26/04 13:30:31  5-MIN KMSN 261930Z 16007KT 5SM -RA FEW039 OVC050 04/01 A2976 1010 82 0 160/07 RMK AO2 P0000
14837KMSN MSN20041126133511011/26/04 13:35:31  5-MIN KMSN 261935Z 15007KT 4SM -RA SCT035 OVC050 04/01 A2976 1010 82 0 150/07 RMK AO2 P0000
14837KMSN MSN20041126134011711/26/04 13:40:31  5-MIN KMSN 261940Z 15008KT 4SM -RA SCT035 BKN050 OVC060 04/01 A2976 1020 82 0 150/08 RMK AO2 P0001
14837KMSN MSN20041126134511711/26/04 13:45:31  5-MIN KMSN 261945Z 15007KT 4SM -RA FEW035 BKN048 OVC060 04/01 A2976 1020 82 0 150/07 RMK AO2 P0001
14837KMSN MSN20041126135013411/26/04 13:50:31  5-MIN KMSN 261950Z 14007KT 4SM -RA SCT033 BKN048 OVC060 04/01 A2975 1020 82 0 140/07 RMK AO2 SLP083 P0001 T00390011
14837KMSN MSN20041126135511711/26/04 13:55:31  5-MIN KMSN 261955Z 15007KT 4SM -RA BKN031 BKN048 OVC060 04/01 A2975 1020 82 0 150/07 RMK AO2 P0000
14837KMSN MSN20041126140012011/26/04 14:00:31  5-MIN KMSN 262000Z 13009KT 4SM -RA BR SCT031 BKN050 OVC060 04/02 A2975 1020 85 0 130/09 RMK AO2 P0000
14837KMSN MSN20041126140511711/26/04 14:05:31  5-MIN KMSN 262005Z 13006KT 5SM -RA FEW011 BKN050 OVC060 04/01 A2975 1020 82 0 130/06 RMK AO2 P0000
14837KMSN MSN20041126141012011/26/04 14:10:31  5-MIN KMSN 262010Z 13007KT 5SM -RA BR FEW011 SCT041 OVC050 04/02 A2974 1030 85 0 130/07 RMK AO2 P0001
14837KMSN MSN20041126141511711/26/04 14:15:31  5-MIN KMSN 262015Z 13007KT 5SM -RA SCT040 BKN055 OVC065 04/01 A2974 1030 82 0 130/07 RMK AO2 P0001
14837KMSN MSN20041126142011711/26/04 14:20:31  5-MIN KMSN 262020Z 13007KT 5SM -RA FEW042 SCT055 OVC065 03/02 A2974 1030 89 0 130/07 RMK AO2 P0001
14837KMSN MSN20041126142511011/26/04 14:25:31  5-MIN KMSN 262025Z 12010KT 5SM -RA SCT050 OVC065 03/02 A2973 1040 89 0 120/10 RMK AO2 P0001
14837KMSN MSN20041126143011011/26/04 14:30:31  5-MIN KMSN 262030Z 11009KT 5SM -RA SCT041 OVC065 03/02 A2973 1040 89 0 110/09 RMK AO2 P0001
14837KMSN MSN20041126143511011/26/04 14:35:31  5-MIN KMSN 262035Z 13008KT 4SM -RA SCT035 OVC065 04/02 A2973 1040 85 0 120/08 RMK AO2 P0001
14837KMSN MSN20041126144011011/26/04 14:40:31  5-MIN KMSN 262040Z 14007KT 4SM -RA FEW033 OVC065 04/02 A2973 1040 85 0 140/07 RMK AO2 P0001
14837KMSN MSN20041126144511511/26/04 14:45:31  5-MIN KMSN 262045Z 13008KT 5SM BR FEW033 OVC065 04/02 A2974 1040 85 0 130/08 RMK AO2 RAE45 P0001
14837KMSN MSN20041126145014211/26/04 14:50:31  5-MIN KMSN 262050Z 13007KT 5SM -RA BR FEW036 OVC065 04/02 A2974 1030 85 0 130/07 RMK AO2 SLP078 P0001 60002 T00390017 58010
14837KMSN MSN20041126145512011/26/04 14:55:31  5-MIN KMSN 262055Z 13005KT 5SM -RA BR FEW036 BKN065 OVC085 04/02 A2974 1030 85 0 130/05 RMK AO2 P0000
14837KMSN MSN20041126150011311/26/04 15:00:31  5-MIN KMSN 262100Z 13007KT 5SM -RA BR FEW012 OVC060 04/02 A2974 1040 85 0 130/07 RMK AO2 P0000
14837KMSN MSN20041126150511311/26/04 15:05:31  5-MIN KMSN 262105Z 13007KT 5SM -RA BR FEW012 OVC060 04/02 A2973 1040 85 0 130/07 RMK AO2 P0000
14837KMSN MSN20041126151011311/26/04 15:10:31  5-MIN KMSN 262110Z 12005KT 5SM -RA BR FEW012 OVC060 04/02 A2974 1040 85 0 120/05 RMK AO2 P0000
14837KMSN MSN20041126151511311/26/04 15:15:31  5-MIN KMSN 262115Z 11005KT 5SM -RA BR SCT012 OVC060 04/02 A2974 1040 89 0 110/05 RMK AO2 P0000
14837KMSN MSN20041126152011311/26/04 15:20:31  5-MIN KMSN 262120Z 12006KT 4SM -RA BR BKN010 OVC060 04/02 A2974 1030 89 0 110/06 RMK AO2 P0000
14837KMSN MSN20041126152511311/26/04 15:25:31  5-MIN KMSN 262125Z 12007KT 4SM -RA BR BKN010 OVC055 04/02 A2974 1040 89 0 120/07 RMK AO2 P0000
14837KMSN MSN20041126153012011/26/04 15:30:31  5-MIN KMSN 262130Z 12006KT 4SM -RA BR BKN010 BKN031 OVC055 04/02 A2974 1030 89 0 120/06 RMK AO2 P0001
14837KMSN MSN20041126153512011/26/04 15:35:31  5-MIN KMSN 262135Z 11007KT 4SM -RA BR BKN010 BKN031 OVC060 03/02 A2974 1040 92 0 110/07 RMK AO2 P0001
14837KMSN MSN20041126154012011/26/04 15:40:31  5-MIN KMSN 262140Z 11008KT 4SM -RA BR BKN010 BKN028 OVC060 03/02 A2973 1040 92 0 110/08 RMK AO2 P0001
14837KMSN MSN20041126154512011/26/04 15:45:31  5-MIN KMSN 262145Z 12006KT 3SM -RA BR BKN010 BKN028 OVC060 03/02 A2973 1040 92 0 110/06 RMK AO2 P0001
14837KMSN MSN20041126155014711/26/04 15:50:31  5-MIN KMSN 262150Z 12008KT 3SM -RA BR BKN010 BKN030 OVC060 03/02 A2973 1040 92 0 110/08 RMK AO2 TWR VIS 4 SLP076 P0001 T00330022
14837KMSN MSN20041126155512011/26/04 15:55:31  5-MIN KMSN 262155Z 11006KT 4SM -RA BR BKN010 BKN030 OVC060 03/02 A2974 1040 92 0 110/06 RMK AO2 P0000
14837KMSN MSN20041126160012411/26/04 16:00:31  5-MIN KMSN 262200Z 12006KT 4SM BR BKN010 BKN028 OVC060 03/02 A2973 1040 92 0 120/06 RMK AO2 RAE2159 P0000
14837KMSN MSN20041126160512011/26/04 16:05:31  5-MIN KMSN 262205Z 12006KT 4SM -RA BR BKN010 BKN035 OVC060 03/02 A2974 1040 92 0 120/06 RMK AO2 P0000
14837KMSN MSN20041126161012011/26/04 16:10:31  5-MIN KMSN 262210Z 12006KT 4SM -RA BR BKN010 BKN040 OVC060 03/02 A2974 1040 92 0 120/06 RMK AO2 P0000
14837KMSN MSN20041126161511311/26/04 16:15:31  5-MIN KMSN 262215Z 12006KT 4SM -RA BR BKN010 OVC045 03/02 A2974 1030 92 0 120/06 RMK AO2 P0000
14837KMSN MSN20041126162011311/26/04 16:20:31  5-MIN KMSN 262220Z 12009KT 4SM -RA BR BKN010 OVC049 03/02 A2973 1040 92 0 120/09 RMK AO2 P0000
14837KMSN MSN20041126162510611/26/04 16:25:31  5-MIN KMSN 262225Z 12007KT 4SM -RA BR OVC010 03/02 A2973 1040 92 0 120/07 RMK AO2 P0000
14837KMSN MSN20041126163010611/26/04 16:30:31  5-MIN KMSN 262230Z 12006KT 4SM -RA BR OVC010 03/02 A2973 1040 92 0 120/06 RMK AO2 P0000
14837KMSN MSN20041126163510811/26/04 16:35:31  5-MIN KMSN 262235Z 11007KT 5SM BR OVC008 03/02 A2973 1040 92 0 110/07 RMK AO2 RAE32 P0000
14837KMSN MSN20041126164010811/26/04 16:40:31  5-MIN KMSN 262240Z 12007KT 5SM BR OVC008 03/02 A2973 1040 92 0 120/07 RMK AO2 RAE32 P0000
14837KMSN MSN20041126164512011/26/04 16:45:31  5-MIN KMSN 262245Z 12007KT 5SM BR OVC008 03/02 A2974 1040 92 0 120/07 RMK AO2 RAE32 CIG 007V011 P0000
14837KMSN MSN20041126165013711/26/04 16:50:31  5-MIN KMSN 262250Z 11006KT 5SM BR OVC008 03/02 A2973 1040 92 0 110/06 RMK AO2 RAE32 CIG 007V011 SLP076 P0000 T00330022
14837KMSN MSN20041126165510811/26/04 16:55:31  5-MIN KMSN 262255Z 12006KT 5SM BR OVC008 03/02 A2974 1040 89 0 120/06 RMK AO2 CIG 007V010
14837KMSN MSN20041126170010811/26/04 17:00:31  5-MIN KMSN 262300Z 13007KT 5SM BR OVC008 03/02 A2974 1030 89 0 130/07 RMK AO2 CIG 007V011
14837KMSN MSN20041126170510811/26/04 17:05:31  5-MIN KMSN 262305Z 13006KT 5SM BR OVC008 03/02 A2974 1030 89 0 130/06 RMK AO2 CIG 007V011
14837KMSN MSN20041126171009611/26/04 17:10:31  5-MIN KMSN 262310Z 12006KT 5SM BR OVC008 03/02 A2973 1040 89 0 120/06 RMK AO2
14837KMSN MSN20041126171509611/26/04 17:15:31  5-MIN KMSN 262315Z 13006KT 5SM BR OVC008 03/02 A2974 1030 89 0 130/06 RMK AO2
14837KMSN MSN20041126172009611/26/04 17:20:31  5-MIN KMSN 262320Z 12007KT 5SM BR OVC008 03/02 A2973 1040 89 0 120/07 RMK AO2
14837KMSN MSN20041126172510811/26/04 17:25:31  5-MIN KMSN 262325Z 13007KT 6SM BR OVC008 03/02 A2973 1040 89 0 120/07 RMK AO2 CIG 007V012
14837KMSN MSN20041126173010311/26/04 17:30:31  5-MIN KMSN 262330Z 12006KT 6SM BR BKN008 OVC013 03/02 A2973 1040 89 0 120/06 RMK AO2
14837KMSN MSN20041126173510311/26/04 17:35:31  5-MIN KMSN 262335Z 13007KT 6SM BR BKN008 OVC013 03/02 A2974 1030 89 0 120/07 RMK AO2
14837KMSN MSN20041126174010311/26/04 17:40:31  5-MIN KMSN 262340Z 12006KT 6SM BR BKN008 OVC013 03/02 A2974 1030 89 0 120/06 RMK AO2
14837KMSN MSN20041126174510311/26/04 17:45:31  5-MIN KMSN 262345Z 13008KT 6SM BR BKN008 BKN013 03/02 A2974 1040 89 0 120/08 RMK AO2
14837KMSN MSN20041126175014411/26/04 17:50:31  5-MIN KMSN 262350Z 12006KT 6SM BR BKN008 BKN013 03/02 A2973 1040 89 0 120/06 RMK AO2 SLP077 60003 T00330017 10044 20033 56013
14837KMSN MSN20041126175509911/26/04 17:55:31  5-MIN KMSN 262355Z 12006KT 6SM BR BKN008 03/02 A2974 1040 92 -100 120/06 RMK AO2
14837KMSN MSN20041126180010311/26/04 18:00:31  5-MIN KMSN 270000Z 13006KT 6SM BR SCT008 BKN095 03/02 A2974 1030 89 0 130/06 RMK AO2
14837KMSN MSN20041126180510611/26/04 18:05:31  5-MIN KMSN 270005Z 13007KT 6SM BR SCT008 BKN095 03/02 A2974 1030 92 -100 130/07 RMK AO2
14837KMSN MSN20041126181010311/26/04 18:10:31  5-MIN KMSN 270010Z 12006KT 6SM BR SCT008 BKN090 03/02 A2973 1040 89 0 120/06 RMK AO2
14837KMSN MSN20041126181510611/26/04 18:15:31  5-MIN KMSN 270015Z 12006KT 6SM BR SCT008 BKN090 03/02 A2974 1030 92 -100 120/06 RMK AO2
14837KMSN MSN20041126182010311/26/04 18:20:31  5-MIN KMSN 270020Z 12005KT 7SM FEW008 SCT090 03/02 A2974 1040 92 -100 120/05 RMK AO2
14837KMSN MSN20041126182510611/26/04 18:25:31  5-MIN KMSN 270025Z 12005KT 6SM BR FEW008 SCT090 03/02 A2974 1040 92 -100 120/05 RMK AO2
14837KMSN MSN20041126183010611/26/04 18:30:31  5-MIN KMSN 270030Z 12006KT 6SM BR FEW008 SCT090 03/02 A2973 1040 92 -100 120/06 RMK AO2
14837KMSN MSN20041126183509611/26/04 18:35:31  5-MIN KMSN 270035Z 12006KT 7SM FEW008 03/02 A2973 1040 92 -100 120/06 RMK AO2
14837KMSN MSN20041126184009611/26/04 18:40:31  5-MIN KMSN 270040Z 12006KT 7SM FEW008 03/02 A2973 1040 92 -100 110/06 RMK AO2
14837KMSN MSN20041126184509911/26/04 18:45:31  5-MIN KMSN 270045Z 12005KT 6SM BR FEW095 03/02 A2973 1040 92 -100 120/05 RMK AO2
14837KMSN MSN20041126185011611/26/04 18:50:31  5-MIN KMSN 270050Z 12005KT 6SM BR FEW090 03/01 A2973 1040 89 -100 120/05 RMK AO2 SLP076 T00280011
14837KMSN MSN20041126185509911/26/04 18:55:31  5-MIN KMSN 270055Z 13006KT 6SM BR SCT095 03/01 A2973 1040 89 -100 130/06 RMK AO2
14837KMSN MSN20041126190009911/26/04 19:00:31  5-MIN KMSN 270100Z 13006KT 6SM BR SCT100 03/01 A2973 1040 89 -100 130/06 RMK AO2
14837KMSN MSN20041126190509911/26/04 19:05:31  5-MIN KMSN 270105Z 12005KT 5SM BR BKN100 03/01 A2973 1040 89 -100 120/05 RMK AO2
14837KMSN MSN20041126191009911/26/04 19:10:31  5-MIN KMSN 270110Z 13006KT 5SM BR BKN100 03/01 A2973 1040 89 -100 130/06 RMK AO2
14837KMSN MSN20041126191509911/26/04 19:15:31  5-MIN KMSN 270115Z 12007KT 5SM BR BKN100 03/01 A2973 1040 89 -100 120/07 RMK AO2
14837KMSN MSN20041126192009911/26/04 19:20:31  5-MIN KMSN 270120Z 12005KT 5SM BR BKN100 03/02 A2973 1040 92 -100 120/05 RMK AO2
14837KMSN MSN20041126192509911/26/04 19:25:31  5-MIN KMSN 270125Z 12004KT 5SM BR BKN100 03/02 A2973 1040 92 -100 120/04 RMK AO2
14837KMSN MSN20041126193009911/26/04 19:30:31  5-MIN KMSN 270130Z 13005KT 5SM BR BKN100 03/02 A2972 1050 92 -100 130/05 RMK AO2
14837KMSN MSN20041126193510611/26/04 19:35:31  5-MIN KMSN 270135Z 13006KT 5SM BR FEW013 BKN095 03/02 A2973 1040 92 -100 130/06 RMK AO2
14837KMSN MSN20041126194010311/26/04 19:40:31  5-MIN KMSN 270140Z 14006KT 5SM BR FEW013 BKN095 03/02 A2973 1040 89 0 140/06 RMK AO2
14837KMSN MSN20041126194510311/26/04 19:45:31  5-MIN KMSN 270145Z 15007KT 5SM BR FEW013 BKN095 03/02 A2973 1040 89 0 150/07 RMK AO2
14837KMSN MSN20041126195012011/26/04 19:50:31  5-MIN KMSN 270150Z 15007KT 5SM BR FEW013 BKN095 03/02 A2973 1040 89 0 150/07 RMK AO2 SLP074 T00330017
14837KMSN MSN20041126195511711/26/04 19:55:31  5-MIN KMSN 270155Z 14008KT 7SM -DZ FEW013 BKN060 OVC085 03/02 A2973 1040 89 0 140/08 RMK AO2 P0000
14837KMSN MSN20041126200012011/26/04 20:00:31  5-MIN KMSN 270200Z 15008KT 6SM -DZ BR BKN060 BKN070 OVC080 03/02 A2972 1050 89 0 150/08 RMK AO2 P0000
14837KMSN MSN20041126200510611/26/04 20:05:31  5-MIN KMSN 270205Z 14006KT 6SM -DZ BR OVC060 03/02 A2972 1050 89 0 140/06 RMK AO2 P0000
14837KMSN MSN20041126201011311/26/04 20:10:31  5-MIN KMSN 270210Z 15005KT 6SM -DZ BR SCT050 OVC060 03/02 A2972 1050 89 0 150/05 RMK AO2 P0000
14837KMSN MSN20041126201512011/26/04 20:15:31  5-MIN KMSN 270215Z 15006KT 6SM -DZ BR SCT050 BKN060 OVC080 03/02 A2972 1050 89 0 150/06 RMK AO2 P0000
14837KMSN MSN20041126202011311/26/04 20:20:31  5-MIN KMSN 270220Z 15007KT 6SM -DZ BR BKN050 OVC070 03/02 A2972 1050 89 0 150/07 RMK AO2 P0000
14837KMSN MSN20041126202511711/26/04 20:25:31  5-MIN KMSN 270225Z 15007KT 7SM -DZ BKN055 BKN070 OVC080 03/02 A2972 1050 92 0 150/07 RMK AO2 P0000
14837KMSN MSN20041126203011911/26/04 20:30:31  5-MIN KMSN 270230Z 16007KT 7SM FEW049 BKN060 OVC075 04/02 A2972 1050 89 0 160/07 RMK AO2 DZE27 P0000
14837KMSN MSN20041126203511211/26/04 20:35:31  5-MIN KMSN 270235Z 17006KT 7SM BKN055 OVC070 04/02 A2972 1050 89 0 170/06 RMK AO2 DZE27 P0000
14837KMSN MSN20041126204011211/26/04 20:40:31  5-MIN KMSN 270240Z 16006KT 8SM BKN055 OVC075 04/02 A2972 1050 89 0 160/06 RMK AO2 DZE27 P0000
14837KMSN MSN20041126204511911/26/04 20:45:31  5-MIN KMSN 270245Z 16006KT 7SM SCT050 BKN070 OVC085 04/02 A2972 1050 89 0 160/06 RMK AO2 DZE27 P0000
14837KMSN MSN20041126205014811/26/04 20:50:31  5-MIN KMSN 270250Z 16007KT 7SM SCT055 BKN070 OVC085 04/02 A2972 1050 89 0 150/07 RMK AO2 DZE27 SLP071 P0000 60000 T00390022 55001
14837KMSN MSN20041126205510011/26/04 20:55:31  5-MIN KMSN 270255Z 16006KT 7SM SCT055 OVC080 04/02 A2972 1050 89 0 150/06 RMK AO2
14837KMSN MSN20041126210010711/26/04 21:00:31  5-MIN KMSN 270300Z 15007KT 7SM FEW050 BKN075 OVC085 04/02 A2971 1060 89 0 150/07 RMK AO2
14837KMSN MSN20041126210510011/26/04 21:05:31  5-MIN KMSN 270305Z 15007KT 7SM FEW050 OVC085 04/02 A2971 1060 89 0 150/07 RMK AO2
14837KMSN MSN20041126211010711/26/04 21:10:31  5-MIN KMSN 270310Z 15004KT 7SM FEW060 BKN080 OVC090 04/02 A2971 1060 89 0 150/04 RMK AO2
14837KMSN MSN20041126211510711/26/04 21:15:31  5-MIN KMSN 270315Z 15005KT 7SM SCT065 BKN080 OVC095 04/02 A2971 1060 89 0 140/05 RMK AO2
14837KMSN MSN20041126212010011/26/04 21:20:31  5-MIN KMSN 270320Z 15006KT 7SM BKN070 OVC090 04/02 A2971 1060 89 0 150/06 RMK AO2
14837KMSN MSN20041126212510311/26/04 21:25:31  5-MIN KMSN 270325Z 15005KT 6SM BR BKN070 OVC090 04/02 A2971 1060 89 0 150/05 RMK AO2
14837KMSN MSN20041126213010311/26/04 21:30:31  5-MIN KMSN 270330Z 16005KT 6SM BR BKN070 OVC090 04/02 A2971 1060 89 0 160/05 RMK AO2
14837KMSN MSN20041126213510311/26/04 21:35:31  5-MIN KMSN 270335Z 16006KT 5SM BR BKN070 OVC090 04/02 A2971 1060 89 0 160/06 RMK AO2
14837KMSN MSN20041126214011911/26/04 21:40:31  5-MIN KMSN 270340Z 15005KT 5SM -SN BR BKN070 OVC085 04/02 A2971 1060 89 0 150/05 RMK AO2 SNB38 P0000
14837KMSN MSN20041126214512611/26/04 21:45:31  5-MIN KMSN 270345Z 15007KT 5SM -SN BR BKN070 BKN085 BKN100 04/02 A2971 1060 89 0 150/07 RMK AO2 SNB38 P0000
14837KMSN MSN20041126215014211/26/04 21:50:31  5-MIN KMSN 270350Z 15004KT 6SM BR FEW060 SCT070 BKN085 04/02 A2971 1060 89 0 150/04 RMK AO2 SNB38E46 SLP066 P0000 T00390022
14837KMSN MSN20041126215511011/26/04 21:55:31  5-MIN KMSN 270355Z 15004KT 6SM BR FEW060 SCT070 BKN095 04/02 A2971 1060 89 0 150/04 RMK AO2
14837KMSN MSN20041126220011011/26/04 22:00:31  5-MIN KMSN 270400Z 15004KT 6SM BR FEW065 SCT075 BKN090 04/02 A2970 1070 89 0 150/04 RMK AO2
14837KMSN MSN20041126220511011/26/04 22:05:31  5-MIN KMSN 270405Z 15005KT 6SM BR FEW060 BKN080 BKN110 04/02 A2970 1070 89 0 150/05 RMK AO2
14837KMSN MSN20041126221010311/26/04 22:10:31  5-MIN KMSN 270410Z 15005KT 6SM BR BKN080 OVC110 04/02 A2970 1070 89 0 150/05 RMK AO2
14837KMSN MSN20041126221511911/26/04 22:15:31  5-MIN KMSN 270415Z 15006KT 5SM -RA BR BKN080 OVC110 04/02 A2970 1070 89 0 150/06 RMK AO2 RAB14 P0000
14837KMSN MSN20041126222011911/26/04 22:20:31  5-MIN KMSN 270420Z 16005KT 5SM -RA BR FEW055 OVC070 04/03 A2970 1070 92 0 160/05 RMK AO2 RAB14 P0000
14837KMSN MSN20041126222511911/26/04 22:25:31  5-MIN KMSN 270425Z 16005KT 5SM -RA BR BKN060 OVC080 04/03 A2970 1070 92 0 160/05 RMK AO2 RAB14 P0000
14837KMSN MSN20041126223011811/26/04 22:30:31  5-MIN KMSN 270430Z 15005KT 5SM BR BKN060 OVC075 04/03 A2969 1070 92 0 150/05 RMK AO2 RAB14E29 P0000
14837KMSN MSN20041126223511811/26/04 22:35:31  5-MIN KMSN 270435Z 15005KT 5SM BR BKN060 OVC075 04/03 A2969 1070 92 0 150/05 RMK AO2 RAB14E29 P0000
14837KMSN MSN20041126224011111/26/04 22:40:31  5-MIN KMSN 270440Z 14004KT 5SM BR OVC060 04/03 A2969 1070 92 0 140/04 RMK AO2 RAB14E29 P0000
14837KMSN MSN20041126224512511/26/04 22:45:31  5-MIN KMSN 270445Z 14004KT 5SM -RA BR FEW032 OVC060 04/03 A2969 1070 92 0 140/04 RMK AO2 RAB14E29B45 P0000
14837KMSN MSN20041126225014211/26/04 22:50:31  5-MIN KMSN 270450Z 14003KT 5SM -RA BR SCT032 OVC060 04/03 A2969 1080 92 0 140/03 RMK AO2 RAB14E29B45 SLP062 P0000 T00390028
14837KMSN MSN20041126225511311/26/04 22:55:31  5-MIN KMSN 270455Z 15003KT 6SM -RA BR SCT032 OVC060 04/03 A2969 1080 92 0 150/03 RMK AO2 P0000
14837KMSN MSN20041126230011511/26/04 23:00:31  5-MIN KMSN 270500Z 18003KT 6SM -RA BR BKN032 OVC060 04/03 A2969 1080 89 100 180/03 RMK AO2 P0000
14837KMSN MSN20041126230511511/26/04 23:05:31  5-MIN KMSN 270505Z 00000KT 5SM -RA BR BKN032 OVC060 04/03 A2969 1080 89 100 000/00 RMK AO2 P0000
14837KMSN MSN20041126231011511/26/04 23:10:31  5-MIN KMSN 270510Z 00000KT 5SM -RA BR BKN032 OVC060 04/03 A2969 1080 89 100 000/00 RMK AO2 P0000
14837KMSN MSN20041126231510811/26/04 23:15:31  5-MIN KMSN 270515Z 15003KT 5SM -RA BR OVC032 04/03 A2969 1080 89 100 150/03 RMK AO2 P0000
14837KMSN MSN20041126232010811/26/04 23:20:31  5-MIN KMSN 270520Z 00000KT 5SM -RA BR OVC032 04/03 A2969 1080 89 100 000/00 RMK AO2 P0000
14837KMSN MSN20041126232510811/26/04 23:25:31  5-MIN KMSN 270525Z 00000KT 5SM -RA BR OVC030 04/03 A2968 1080 89 100 000/00 RMK AO2 P0000
14837KMSN MSN20041126233010811/26/04 23:30:31  5-MIN KMSN 270530Z 00000KT 5SM -RA BR OVC030 04/03 A2968 1080 89 100 000/00 RMK AO2 P0000
14837KMSN MSN20041126233510811/26/04 23:35:31  5-MIN KMSN 270535Z 00000KT 5SM -RA BR OVC030 04/03 A2968 1090 92 100 000/00 RMK AO2 P0000
14837KMSN MSN20041126234010811/26/04 23:40:31  5-MIN KMSN 270540Z 00000KT 5SM -RA BR OVC030 04/03 A2968 1090 89 100 000/00 RMK AO2 P0001
14837KMSN MSN20041126234510811/26/04 23:45:31  5-MIN KMSN 270545Z 00000KT 5SM -RA BR OVC030 04/03 A2968 1090 92 100 000/00 RMK AO2 P0001
14837KMSN MSN20041126235015911/26/04 23:50:31  5-MIN KMSN 270550Z 00000KT 5SM -RA BR OVC030 04/03 A2967 1090 92 100 000/00 RMK AO2 SLP055 P0001 60001 T00440033 10044 20028 400441011 58006
14837KMSN MSN20041126235510811/26/04 23:55:31  5-MIN KMSN 270555Z 00000KT 5SM -RA BR OVC030 04/03 A2967 1100 92 100 000/00 RMK AO2 P0000
14837KMSN MSN20041127000010811/27/04 00:00:31  5-MIN KMSN 270600Z 11003KT 4SM -RA BR OVC030 04/03 A2967 1100 92 100 110/03 RMK AO2 P0000
14837KMSN MSN20041127000510811/27/04 00:05:31  5-MIN KMSN 270605Z 11003KT 4SM -RA BR OVC030 04/03 A2967 1100 92 100 110/03 RMK AO2 P0000
14837KMSN MSN20041127001010811/27/04 00:10:31  5-MIN KMSN 270610Z 10003KT 4SM -RA BR OVC028 04/03 A2967 1100 92 100 100/03 RMK AO2 P0000
14837KMSN MSN20041127001510811/27/04 00:15:31  5-MIN KMSN 270615Z 10003KT 4SM -RA BR OVC028 04/03 A2966 1100 92 100 100/03 RMK AO2 P0000
14837KMSN MSN20041127002010811/27/04 00:20:31  5-MIN KMSN 270620Z 11003KT 4SM -RA BR OVC026 04/03 A2966 1110 92 100 100/03 RMK AO2 P0000
14837KMSN MSN20041127002510811/27/04 00:25:31  5-MIN KMSN 270625Z 11003KT 4SM -RA BR OVC026 04/03 A2966 1110 92 100 110/03 RMK AO2 P0000
14837KMSN MSN20041127003010811/27/04 00:30:31  5-MIN KMSN 270630Z 11003KT 3SM -RA BR OVC026 04/03 A2966 1110 92 100 110/03 RMK AO2 P0000
14837KMSN MSN20041127003510811/27/04 00:35:31  5-MIN KMSN 270635Z 10003KT 3SM -RA BR OVC026 04/03 A2965 1110 92 100 100/03 RMK AO2 P0000
14837KMSN MSN20041127004010811/27/04 00:40:31  5-MIN KMSN 270640Z 10003KT 3SM -RA BR OVC026 04/03 A2965 1110 92 100 100/03 RMK AO2 P0000
14837KMSN MSN20041127004510811/27/04 00:45:31  5-MIN KMSN 270645Z 11003KT 3SM -RA BR OVC026 04/03 A2965 1120 92 100 110/03 RMK AO2 P0000
14837KMSN MSN20041127005012511/27/04 00:50:31  5-MIN KMSN 270650Z 10003KT 3SM -RA BR OVC026 04/03 A2965 1120 92 200 100/03 RMK AO2 SLP045 P0001 T00440033
14837KMSN MSN20041127005510811/27/04 00:55:31  5-MIN KMSN 270655Z 00000KT 3SM -RA BR OVC026 04/03 A2965 1120 92 200 000/00 RMK AO2 P0000
14837KMSN MSN20041127010010811/27/04 01:00:31  5-MIN KMSN 270700Z 10003KT 3SM -RA BR OVC026 04/03 A2964 1120 92 200 100/03 RMK AO2 P0000
14837KMSN MSN20041127010510811/27/04 01:05:31  5-MIN KMSN 270705Z 11003KT 3SM -RA BR OVC026 04/03 A2964 1120 92 200 110/03 RMK AO2 P0000
14837KMSN MSN20041127011010811/27/04 01:10:31  5-MIN KMSN 270710Z 11003KT 3SM -RA BR OVC026 04/03 A2964 1130 92 200 100/03 RMK AO2 P0000
14837KMSN MSN20041127011510811/27/04 01:15:31  5-MIN KMSN 270715Z 11003KT 3SM -RA BR OVC026 04/03 A2964 1130 92 200 110/03 RMK AO2 P0000
14837KMSN MSN20041127012010811/27/04 01:20:31  5-MIN KMSN 270720Z 00000KT 3SM -RA BR OVC026 04/03 A2964 1130 92 200 000/00 RMK AO2 P0000
14837KMSN MSN20041127012510811/27/04 01:25:31  5-MIN KMSN 270725Z 00000KT 3SM -RA BR OVC026 04/04 A2963 1130 96 200 000/00 RMK AO2 P0001
14837KMSN MSN20041127013010811/27/04 01:30:31  5-MIN KMSN 270730Z 10003KT 3SM -RA BR OVC026 04/04 A2963 1130 96 200 100/03 RMK AO2 P0001
14837KMSN MSN20041127013510811/27/04 01:35:31  5-MIN KMSN 270735Z 11003KT 3SM -RA BR OVC026 04/04 A2963 1130 96 200 110/03 RMK AO2 P0001
14837KMSN MSN20041127014010811/27/04 01:40:31  5-MIN KMSN 270740Z 11003KT 3SM -RA BR OVC026 04/04 A2963 1130 96 200 110/03 RMK AO2 P0001
14837KMSN MSN20041127014510811/27/04 01:45:31  5-MIN KMSN 270745Z 12003KT 4SM -RA BR OVC026 04/04 A2963 1130 96 200 120/03 RMK AO2 P0001
14837KMSN MSN20041127015012511/27/04 01:50:31  5-MIN KMSN 270750Z 12004KT 4SM -RA BR OVC026 05/04 A2963 1140 92 200 120/04 RMK AO2 SLP039 P0001 T00500039
14837KMSN MSN20041127015510811/27/04 01:55:31  5-MIN KMSN 270755Z 12004KT 4SM -RA BR OVC026 05/04 A2963 1140 92 200 120/04 RMK AO2 P0000
14837KMSN MSN20041127020010811/27/04 02:00:31  5-MIN KMSN 270800Z 13005KT 4SM -RA BR OVC026 05/04 A2963 1140 92 200 130/05 RMK AO2 P0000
14837KMSN MSN20041127020510811/27/04 02:05:31  5-MIN KMSN 270805Z 13005KT 5SM -RA BR OVC026 05/04 A2963 1140 92 200 130/05 RMK AO2 P0000
14837KMSN MSN20041127021011011/27/04 02:10:31  5-MIN KMSN 270810Z 13005KT 5SM BR OVC026 05/04 A2963 1130 92 200 130/05 RMK AO2 RAE10 P0000
14837KMSN MSN20041127021511011/27/04 02:15:31  5-MIN KMSN 270815Z 13005KT 5SM BR OVC026 05/04 A2963 1140 92 200 130/05 RMK AO2 RAE10 P0000
14837KMSN MSN20041127022011711/27/04 02:20:31  5-MIN KMSN 270820Z 13004KT 5SM BR FEW018 OVC026 05/04 A2963 1140 92 200 130/04 RMK AO2 RAE10 P0000
14837KMSN MSN20041127022511711/27/04 02:25:31  5-MIN KMSN 270825Z 12004KT 5SM BR SCT018 OVC026 05/04 A2963 1140 92 200 120/04 RMK AO2 RAE10 P0000
14837KMSN MSN20041127023011711/27/04 02:30:31  5-MIN KMSN 270830Z 13005KT 4SM BR BKN016 OVC024 05/04 A2962 1140 92 200 130/05 RMK AO2 RAE10 P0000
14837KMSN MSN20041127023512411/27/04 02:35:31  5-MIN KMSN 270835Z 13004KT 4SM BR BKN014 BKN019 OVC024 05/04 A2962 1140 92 200 120/04 RMK AO2 RAE10 P0000
14837KMSN MSN20041127024013111/27/04 02:40:31  5-MIN KMSN 270840Z 13004KT 4SM -RA BR BKN014 BKN019 OVC024 05/04 A2962 1140 92 300 130/04 RMK AO2 RAE10B38 P0000
14837KMSN MSN20041127024511711/27/04 02:45:31  5-MIN KMSN 270845Z 13004KT 4SM -RA BR OVC014 05/04 A2962 1150 92 300 130/04 RMK AO2 RAE10B38 P0000
14837KMSN MSN20041127025014611/27/04 02:50:31  5-MIN KMSN 270850Z 14004KT 4SM -RA BR OVC012 05/04 A2961 1150 92 300 140/04 RMK AO2 RAE10B38 SLP034 P0000 60002 T00500039 58015
14837KMSN MSN20041127025510811/27/04 02:55:31  5-MIN KMSN 270855Z 14005KT 3SM -RA BR OVC012 05/04 A2961 1150 92 300 140/05 RMK AO2 P0000
14837KMSN MSN20041127030011511/27/04 03:00:31  5-MIN KMSN 270900Z 14005KT 3SM -RA BR FEW007 OVC012 06/04 A2961 1150 92 300 140/05 RMK AO2 P0001
14837KMSN MSN20041127030512011/27/04 03:05:31  5-MIN KMSN 270905Z 14005KT 3SM -RA BR OVC010 06/04 A2961 1160 92 300 140/05 RMK AO2 CIG 006V013 P0001
14837KMSN MSN20041127031012011/27/04 03:10:31  5-MIN KMSN 270910Z 15006KT 3SM -RA BR OVC010 06/04 A2960 1160 92 300 150/06 RMK AO2 CIG 005V013 P0001
14837KMSN MSN20041127031512011/27/04 03:15:31  5-MIN KMSN 270915Z 15005KT 3SM -RA BR OVC010 06/04 A2960 1160 92 300 150/05 RMK AO2 CIG 005V013 P0002
14837KMSN MSN20041127032012711/27/04 03:20:31  5-MIN KMSN 270920Z 14005KT 3SM -RA BR BKN008 OVC012 06/04 A2960 1160 92 300 140/05 RMK AO2 CIG 005V010 P0002
14837KMSN MSN20041127032512011/27/04 03:25:31  5-MIN KMSN 270925Z 15006KT 3SM -RA BR OVC008 06/04 A2960 1160 92 300 150/06 RMK AO2 CIG 005V010 P0002
14837KMSN MSN20041127033012011/27/04 03:30:31  5-MIN KMSN 270930Z 15006KT 3SM -RA BR OVC008 06/04 A2960 1170 92 300 150/06 RMK AO2 CIG 005V012 P0002
14837KMSN MSN20041127033512011/27/04 03:35:31  5-MIN KMSN 270935Z 15005KT 3SM -RA BR OVC006 06/04 A2959 1170 92 400 150/05 RMK AO2 CIG 004V010 P0003
14837KMSN MSN20041127034012011/27/04 03:40:31  5-MIN KMSN 270940Z 14005KT 3SM -RA BR OVC006 06/04 A2959 1170 92 400 140/05 RMK AO2 CIG 004V009 P0003
14837KMSN MSN20041127034512011/27/04 03:45:31  5-MIN KMSN 270945Z 15005KT 3SM -RA BR OVC006 06/04 A2959 1170 92 400 150/05 RMK AO2 CIG 004V008 P0003
14837KMSN MSN20041127035012511/27/04 03:50:31  5-MIN KMSN 270950Z 15007KT 3SM -RA BR OVC006 06/04 A2958 1180 92 400 150/07 RMK AO2 SLP024 P0003 T00560044
14837KMSN MSN20041127035510811/27/04 03:55:31  5-MIN KMSN 270955Z 15006KT 3SM -RA BR OVC006 06/04 A2958 1180 92 400 150/06 RMK AO2 P0000
14837KMSN MSN20041127040010811/27/04 04:00:31  5-MIN KMSN 271000Z 15005KT 3SM -RA BR OVC006 06/04 A2958 1180 92 400 150/05 RMK AO2 P0001
14837KMSN MSN20041127040510811/27/04 04:05:31  5-MIN KMSN 271005Z 15006KT 3SM -RA BR OVC006 06/04 A2958 1180 92 400 150/06 RMK AO2 P0001
14837KMSN MSN20041127041010811/27/04 04:10:31  5-MIN KMSN 271010Z 15006KT 3SM -RA BR OVC006 06/04 A2957 1190 92 400 150/06 RMK AO2 P0001
14837KMSN MSN20041127041510811/27/04 04:15:31  5-MIN KMSN 271015Z 15006KT 3SM -RA BR OVC006 06/04 A2957 1190 92 400 150/06 RMK AO2 P0001
14837KMSN MSN20041127042010811/27/04 04:20:31  5-MIN KMSN 271020Z 16005KT 3SM -RA BR OVC006 06/04 A2957 1190 92 400 150/05 RMK AO2 P0001
14837KMSN MSN20041127042510811/27/04 04:25:31  5-MIN KMSN 271025Z 15005KT 3SM -RA BR OVC004 06/04 A2957 1190 92 400 150/05 RMK AO2 P0001
14837KMSN MSN20041127043010811/27/04 04:30:31  5-MIN KMSN 271030Z 15005KT 4SM -RA BR OVC004 06/04 A2957 1190 92 400 150/05 RMK AO2 P0001
14837KMSN MSN20041127043510811/27/04 04:35:31  5-MIN KMSN 271035Z 15006KT 4SM -RA BR OVC004 06/04 A2957 1190 92 400 150/06 RMK AO2 P0001
14837KMSN MSN20041127044010811/27/04 04:40:31  5-MIN KMSN 271040Z 15005KT 4SM -RA BR OVC004 06/04 A2957 1190 92 400 150/05 RMK AO2 P0002
14837KMSN MSN20041127044510811/27/04 04:45:31  5-MIN KMSN 271045Z 15005KT 4SM -RA BR OVC004 06/04 A2957 1190 92 400 150/05 RMK AO2 P0002
14837KMSN MSN20041127045012511/27/04 04:50:31  5-MIN KMSN 271050Z 15005KT 4SM -RA BR OVC004 06/04 A2956 1200 92 400 150/05 RMK AO2 SLP017 P0002 T00560044
14837KMSN MSN20041127045510811/27/04 04:55:31  5-MIN KMSN 271055Z 15006KT 4SM -RA BR OVC004 06/04 A2956 1200 92 400 150/06 RMK AO2 P0000
14837KMSN MSN20041127050011211/27/04 05:00:31  5-MIN KMSN 271100Z 15006KT 4SM BR OVC004 06/04 A2956 1200 92 400 150/06 RMK AO2 RAE1059 P0000
14837KMSN MSN20041127050510811/27/04 05:05:31  5-MIN KMSN 271105Z 15006KT 3SM -RA BR OVC004 06/04 A2956 1200 92 400 150/06 RMK AO2 P0000
14837KMSN MSN20041127051010811/27/04 05:10:31  5-MIN KMSN 271110Z 15006KT 3SM -RA BR OVC004 06/04 A2956 1200 92 400 150/06 RMK AO2 P0000
14837KMSN MSN20041127051510811/27/04 05:15:31  5-MIN KMSN 271115Z 15005KT 4SM -RA BR OVC004 06/04 A2956 1200 92 400 150/05 RMK AO2 P0000
14837KMSN MSN20041127052010811/27/04 05:20:31  5-MIN KMSN 271120Z 15007KT 4SM -RA BR OVC004 06/04 A2955 1210 92 400 150/07 RMK AO2 P0000
14837KMSN MSN20041127052510811/27/04 05:25:31  5-MIN KMSN 271125Z 15006KT 4SM -RA BR OVC004 06/04 A2955 1210 92 400 150/06 RMK AO2 P0000
14837KMSN MSN20041127053010811/27/04 05:30:31  5-MIN KMSN 271130Z 15007KT 4SM -RA BR OVC004 06/04 A2955 1210 92 400 150/07 RMK AO2 P0000
14837KMSN MSN20041127053510811/27/04 05:35:31  5-MIN KMSN 271135Z 15006KT 4SM -RA BR OVC004 06/04 A2955 1210 92 400 150/06 RMK AO2 P0000
14837KMSN MSN20041127054010811/27/04 05:40:31  5-MIN KMSN 271140Z 15007KT 4SM -RA BR OVC004 06/04 A2955 1210 92 400 150/07 RMK AO2 P0000
14837KMSN MSN20041127054510811/27/04 05:45:31  5-MIN KMSN 271145Z 16006KT 4SM -RA BR OVC004 06/04 A2955 1210 92 400 150/06 RMK AO2 P0000
14837KMSN MSN20041127055015511/27/04 05:50:31  5-MIN KMSN 271150Z 15008KT 4SM -RA BR OVC004 06/04 A2955 1210 92 400 150/08 RMK AO2 SLP011 P0000 60007 70011 T00560044 10056 20044 56019
14837KMSN MSN20041127055510811/27/04 05:55:31  5-MIN KMSN 271155Z 15008KT 4SM -RA BR OVC004 06/04 A2954 1220 92 400 150/08 RMK AO2 P0000
14837KMSN MSN20041127060010811/27/04 06:00:31  5-MIN KMSN 271200Z 16007KT 5SM -RA BR OVC004 06/04 A2954 1220 92 400 160/07 RMK AO2 P0000
14837KMSN MSN20041127060511011/27/04 06:05:31  5-MIN KMSN 271205Z 15009KT 5SM BR OVC004 06/04 A2954 1220 92 400 150/09 RMK AO2 RAE02 P0000
14837KMSN MSN20041127061011011/27/04 06:10:31  5-MIN KMSN 271210Z 15009KT 5SM BR OVC004 06/05 A2954 1220 96 400 150/09 RMK AO2 RAE02 P0000
14837KMSN MSN20041127061511011/27/04 06:15:31  5-MIN KMSN 271215Z 16008KT 5SM BR OVC004 06/05 A2954 1220 93 500 150/08 RMK AO2 RAE02 P0000
14837KMSN MSN20041127062011011/27/04 06:20:31  5-MIN KMSN 271220Z 16007KT 5SM BR OVC004 06/04 A2954 1220 92 400 160/07 RMK AO2 RAE02 P0000
14837KMSN MSN20041127062511011/27/04 06:25:31  5-MIN KMSN 271225Z 16008KT 4SM BR OVC004 06/04 A2953 1220 92 400 150/08 RMK AO2 RAE02 P0000
14837KMSN MSN20041127063011011/27/04 06:30:31  5-MIN KMSN 271230Z 15007KT 4SM BR OVC004 06/04 A2953 1230 92 400 150/07 RMK AO2 RAE02 P0000
14837KMSN MSN20041127063511011/27/04 06:35:31  5-MIN KMSN 271235Z 16007KT 4SM BR OVC004 06/04 A2953 1230 92 400 160/07 RMK AO2 RAE02 P0000
14837KMSN MSN20041127064011011/27/04 06:40:31  5-MIN KMSN 271240Z 15008KT 4SM BR OVC004 06/04 A2953 1230 92 400 150/08 RMK AO2 RAE02 P0000
14837KMSN MSN20041127064511711/27/04 06:45:31  5-MIN KMSN 271245Z 16009KT 4SM -RA BR OVC004 06/04 A2953 1230 92 400 160/09 RMK AO2 RAE02B43 P0000
14837KMSN MSN20041127065013411/27/04 06:50:31  5-MIN KMSN 271250Z 15007KT 4SM -RA BR OVC004 06/04 A2953 1230 92 400 150/07 RMK AO2 RAE02B43 SLP004 P0000 T00560044
14837KMSN MSN20041127065510811/27/04 06:55:31  5-MIN KMSN 271255Z 16008KT 4SM -RA BR OVC004 06/04 A2953 1230 92 400 150/08 RMK AO2 P0001
14837KMSN MSN20041127070010811/27/04 07:00:31  5-MIN KMSN 271300Z 15008KT 4SM -RA BR OVC004 06/05 A2952 1230 96 400 150/08 RMK AO2 P0001
14837KMSN MSN20041127070510811/27/04 07:05:31  5-MIN KMSN 271305Z 16008KT 5SM -RA BR OVC004 06/04 A2952 1230 92 400 160/08 RMK AO2 P0001
14837KMSN MSN20041127071010811/27/04 07:10:31  5-MIN KMSN 271310Z 16008KT 5SM -RA BR OVC004 06/04 A2952 1230 92 400 160/08 RMK AO2 P0001
14837KMSN MSN20041127071510811/27/04 07:15:31  5-MIN KMSN 271315Z 16008KT 5SM -RA BR OVC004 06/05 A2952 1240 96 400 160/08 RMK AO2 P0001
14837KMSN MSN20041127072010811/27/04 07:20:31  5-MIN KMSN 271320Z 16007KT 4SM -RA BR OVC004 06/05 A2952 1240 96 400 160/07 RMK AO2 P0001
14837KMSN MSN20041127072510811/27/04 07:25:31  5-MIN KMSN 271325Z 15008KT 4SM -RA BR OVC004 06/05 A2952 1240 96 400 150/08 RMK AO2 P0001
14837KMSN MSN20041127073010811/27/04 07:30:31  5-MIN KMSN 271330Z 16008KT 4SM -RA BR OVC004 06/05 A2952 1240 96 400 160/08 RMK AO2 P0001
14837KMSN MSN20041127073510811/27/04 07:35:31  5-MIN KMSN 271335Z 16008KT 4SM -RA BR OVC004 06/05 A2952 1240 96 400 160/08 RMK AO2 P0001
14837KMSN MSN20041127074010811/27/04 07:40:31  5-MIN KMSN 271340Z 16007KT 4SM -RA BR OVC004 06/05 A2952 1240 96 400 160/07 RMK AO2 P0001
14837KMSN MSN20041127074510811/27/04 07:45:31  5-MIN KMSN 271345Z 16007KT 3SM -RA BR OVC004 06/05 A2952 1240 96 400 160/07 RMK AO2 P0001
14837KMSN MSN20041127075012911/27/04 07:50:31  5-MIN KMSN 271350Z 16007KT 2 1/2SM -RA BR OVC004 06/05 A2952 1240 96 400 160/07 RMK AO2 SLP000 P0001 T00560050
14837KMSN MSN20041127075511211/27/04 07:55:31  5-MIN KMSN 271355Z 16008KT 2 1/2SM -RA BR OVC004 06/05 A2951 1240 96 400 160/08 RMK AO2 P0000
14837KMSN MSN20041127080010811/27/04 08:00:31  5-MIN KMSN 271400Z 16007KT 3SM -RA BR OVC006 06/05 A2951 1240 93 500 160/07 RMK AO2 P0000
14837KMSN MSN20041127080512011/27/04 08:05:31  5-MIN KMSN 271405Z 16007KT 3SM -RA BR OVC006 06/05 A2951 1240 93 500 160/07 RMK AO2 CIG 004V009 P0000
14837KMSN MSN20041127081012011/27/04 08:10:31  5-MIN KMSN 271410Z 16007KT 3SM -RA BR OVC006 06/05 A2951 1250 93 500 160/07 RMK AO2 CIG 004V009 P0000
14837KMSN MSN20041127081512011/27/04 08:15:31  5-MIN KMSN 271415Z 16008KT 3SM -RA BR OVC006 06/05 A2951 1250 93 500 160/08 RMK AO2 CIG 004V009 P0000
14837KMSN MSN20041127082010811/27/04 08:20:31  5-MIN KMSN 271420Z 16007KT 3SM -RA BR OVC006 06/05 A2951 1250 93 500 160/07 RMK AO2 P0000
14837KMSN MSN20041127082510811/27/04 08:25:31  5-MIN KMSN 271425Z 16007KT 3SM -RA BR OVC006 06/05 A2950 1250 93 500 160/07 RMK AO2 P0000
14837KMSN MSN20041127083010811/27/04 08:30:31  5-MIN KMSN 271430Z 16008KT 3SM -RA BR OVC006 06/05 A2950 1250 93 500 160/08 RMK AO2 P0000
14837KMSN MSN20041127083512011/27/04 08:35:31  5-MIN KMSN 271435Z 17007KT 3SM -RA BR OVC006 06/05 A2950 1250 93 500 160/07 RMK AO2 CIG 004V009 P0001
14837KMSN MSN20041127084012011/27/04 08:40:31  5-MIN KMSN 271440Z 17007KT 3SM -RA BR OVC006 06/05 A2950 1260 93 500 170/07 RMK AO2 CIG 004V009 P0001
14837KMSN MSN20041127084510811/27/04 08:45:31  5-MIN KMSN 271445Z 17007KT 3SM -RA BR OVC006 06/05 A2950 1260 93 500 160/07 RMK AO2 P0001
14837KMSN MSN20041127085014911/27/04 08:50:31  5-MIN KMSN 271450Z 17007KT 3SM -RA BR OVC006 06/05 A2950 1260 93 500 170/07 RMK AO2 CIG 004V009 SLP994 P0001 60003 T00610050 56023
14837KMSN MSN20041127085512011/27/04 08:55:31  5-MIN KMSN 271455Z 16007KT 3SM -RA BR OVC006 06/05 A2949 1260 93 500 160/07 RMK AO2 CIG 004V009 P0000
14837KMSN MSN20041127090012011/27/04 09:00:31  5-MIN KMSN 271500Z 16007KT 3SM -RA BR OVC006 06/05 A2949 1260 93 500 160/07 RMK AO2 CIG 004V009 P0000
14837KMSN MSN20041127090512011/27/04 09:05:31  5-MIN KMSN 271505Z 16007KT 3SM -RA BR OVC006 06/05 A2949 1260 93 500 160/07 RMK AO2 CIG 004V008 P0000
14837KMSN MSN20041127091012011/27/04 09:10:31  5-MIN KMSN 271510Z 16007KT 3SM -RA BR OVC006 06/05 A2949 1270 93 500 160/07 RMK AO2 CIG 004V009 P0001
14837KMSN MSN20041127091512011/27/04 09:15:31  5-MIN KMSN 271515Z 16009KT 3SM -RA BR OVC006 06/05 A2949 1270 93 500 160/09 RMK AO2 CIG 004V009 P0001
14837KMSN MSN20041127092013011/27/04 09:20:31  5-MIN KMSN 271520Z 16009KT 3SM -RA BR OVC006 06/05 A2948 1270 93 500 160/09 RMK AO2 SFC VIS 3 CIG 004V009 P0001
14837KMSN MSN20041127092513011/27/04 09:25:31  5-MIN KMSN 271525Z 16010KT 3SM -RA BR OVC006 06/05 A2948 1270 93 500 160/10 RMK AO2 SFC VIS 4 CIG 004V009 P0002
14837KMSN MSN20041127093013011/27/04 09:30:31  5-MIN KMSN 271530Z 17008KT 3SM -RA BR OVC006 06/05 A2948 1270 93 500 160/08 RMK AO2 SFC VIS 4 CIG 004V009 P0002
14837KMSN MSN20041127093513011/27/04 09:35:31  5-MIN KMSN 271535Z 16009KT 3SM -RA BR OVC006 07/05 A2948 1270 89 600 160/09 RMK AO2 SFC VIS 4 CIG 004V009 P0002
14837KMSN MSN20041127094013011/27/04 09:40:31  5-MIN KMSN 271540Z 16008KT 3SM -RA BR OVC006 07/05 A2948 1280 89 600 160/08 RMK AO2 SFC VIS 4 CIG 005V009 P0003
14837KMSN MSN20041127094513011/27/04 09:45:31  5-MIN KMSN 271545Z 16009KT 3SM -RA BR OVC006 06/06 A2948 1280 96 600 160/09 RMK AO2 SFC VIS 4 CIG 005V009 P0003
14837KMSN MSN20041127095014711/27/04 09:50:31  5-MIN KMSN 271550Z 16008KT 3SM -RA BR OVC006 07/05 A2948 1280 89 600 160/08 RMK AO2 SFC VIS 4 CIG 005V009 SLP986 P0003 T00670050
14837KMSN MSN20041127095513011/27/04 09:55:31  5-MIN KMSN 271555Z 17007KT 3SM -RA BR OVC006 07/06 A2947 1280 93 600 160/07 RMK AO2 SFC VIS 4 CIG 005V009 P0000
14837KMSN MSN20041127100013011/27/04 10:00:31  5-MIN KMSN 271600Z 16007KT 3SM -RA BR OVC006 07/06 A2947 1280 93 600 160/07 RMK AO2 SFC VIS 4 CIG 005V009 P0001
14837KMSN MSN20041127100513011/27/04 10:05:31  5-MIN KMSN 271605Z 16009KT 3SM -RA BR OVC006 07/06 A2947 1280 93 600 160/09 RMK AO2 SFC VIS 4 CIG 005V010 P0001
14837KMSN MSN20041127101013011/27/04 10:10:31  5-MIN KMSN 271610Z 17008KT 3SM -RA BR OVC006 07/06 A2947 1280 93 600 170/08 RMK AO2 SFC VIS 4 CIG 005V008 P0001
14837KMSN MSN20041127101513011/27/04 10:15:31  5-MIN KMSN 271615Z 17008KT 3SM -RA BR OVC006 07/06 A2947 1280 93 600 170/08 RMK AO2 SFC VIS 4 CIG 005V010 P0002
14837KMSN MSN20041127102011811/27/04 10:20:31  5-MIN KMSN 271620Z 16007KT 3SM -RA BR OVC006 07/06 A2947 1290 93 600 160/07 RMK AO2 SFC VIS 3 P0002
14837KMSN MSN20041127102511811/27/04 10:25:31  5-MIN KMSN 271625Z 16007KT 3SM -RA BR OVC006 07/06 A2946 1290 93 600 160/07 RMK AO2 SFC VIS 3 P0003
14837KMSN MSN20041127103013011/27/04 10:30:31  5-MIN KMSN 271630Z 17007KT 3SM -RA BR OVC006 07/06 A2946 1290 93 600 170/07 RMK AO2 SFC VIS 4 CIG 004V008 P0003
14837KMSN MSN20041127103513011/27/04 10:35:31  5-MIN KMSN 271635Z 17007KT 3SM -RA BR OVC006 07/06 A2946 1290 93 600 170/07 RMK AO2 SFC VIS 4 CIG 004V008 P0003
14837KMSN MSN20041127104012011/27/04 10:40:31  5-MIN KMSN 271640Z 17007KT 3SM -RA BR OVC006 07/06 A2946 1300 93 600 170/07 RMK AO2 CIG 004V008 P0004
14837KMSN MSN20041127104512011/27/04 10:45:31  5-MIN KMSN 271645Z 17007KT 3SM -RA BR OVC006 07/06 A2945 1300 93 600 170/07 RMK AO2 CIG 004V008 P0004
14837KMSN MSN20041127105014411/27/04 10:50:31  5-MIN KMSN 271650Z 17006KT 3SM -RA BR BKN006 OVC010 07/06 A2945 1300 93 700 170/06 RMK AO2 CIG 004V008 SLP977 P0005 T00670056
14837KMSN MSN20041127105513011/27/04 10:55:31  5-MIN KMSN 271655Z 17005KT 3SM -RA BR OVC006 07/06 A2945 1310 93 700 170/05 RMK AO2 SFC VIS 3 CIG 004V009 P0000
14837KMSN MSN20041127110012011/27/04 11:00:31  5-MIN KMSN 271700Z 17005KT 3SM -RA BR OVC006 07/06 A2944 1310 93 700 170/05 RMK AO2 CIG 004V009 P0001
14837KMSN MSN20041127110512011/27/04 11:05:31  5-MIN KMSN 271705Z 17006KT 3SM -RA BR OVC006 07/06 A2944 1310 93 700 170/06 RMK AO2 CIG 004V009 P0001
14837KMSN MSN20041127111013011/27/04 11:10:31  5-MIN KMSN 271710Z 17006KT 3SM -RA BR OVC006 07/06 A2944 1310 93 700 170/06 RMK AO2 SFC VIS 3 CIG 004V011 P0001
14837KMSN MSN20041127111513011/27/04 11:15:31  5-MIN KMSN 271715Z 17005KT 3SM -RA BR OVC006 07/06 A2944 1320 93 700 170/05 RMK AO2 SFC VIS 4 CIG 005V011 P0002
14837KMSN MSN20041127112012011/27/04 11:20:31  5-MIN KMSN 271720Z 17005KT 3SM -RA BR OVC006 07/06 A2943 1320 93 700 170/05 RMK AO2 CIG 005V011 P0003
14837KMSN MSN20041127112512011/27/04 11:25:31  5-MIN KMSN 271725Z 17006KT 3SM -RA BR OVC006 07/06 A2943 1320 93 700 170/06 RMK AO2 CIG 005V011 P0004
14837KMSN MSN20041127113011911/27/04 11:30:31  5-MIN KMSN 271730Z 17006KT 3SM RA BR OVC006 07/06 A2943 1320 93 700 170/06 RMK AO2 CIG 005V009 P0004
14837KMSN MSN20041127113511911/27/04 11:35:31  5-MIN KMSN 271735Z 17005KT 3SM RA BR OVC006 07/06 A2943 1320 93 700 170/05 RMK AO2 CIG 005V012 P0005
14837KMSN MSN20041127114011911/27/04 11:40:31  5-MIN KMSN 271740Z 17006KT 3SM RA BR OVC006 07/06 A2942 1330 93 700 170/06 RMK AO2 CIG 004V012 P0006
14837KMSN MSN20041127114511911/27/04 11:45:31  5-MIN KMSN 271745Z 18005KT 3SM RA BR OVC006 07/06 A2942 1330 93 700 180/05 RMK AO2 CIG 004V012 P0007
14837KMSN MSN20041127115016011/27/04 11:50:31  5-MIN KMSN 271750Z 18005KT 3SM RA BR OVC008 07/06 A2942 1330 93 800 180/05 RMK AO2 CIG 004V012 SLP966 P0008 60020 T00720061 10072 20056 58016
14837KMSN MSN20041127115512011/27/04 11:55:31  5-MIN KMSN 271755Z 19006KT 3SM -RA BR OVC008 07/06 A2942 1330 93 800 190/06 RMK AO2 CIG 004V012 P0001
14837KMSN MSN20041127120012011/27/04 12:00:31  5-MIN KMSN 271800Z 18004KT 3SM -RA BR OVC008 07/06 A2941 1340 93 800 170/04 RMK AO2 CIG 004V011 P0001
14837KMSN MSN20041127120512011/27/04 12:05:31  5-MIN KMSN 271805Z 19006KT 3SM -RA BR OVC008 07/06 A2941 1340 93 800 190/06 RMK AO2 CIG 004V011 P0002
14837KMSN MSN20041127121012711/27/04 12:10:31  5-MIN KMSN 271810Z 19004KT 3SM -RA BR BKN006 OVC010 07/06 A2941 1340 93 800 190/04 RMK AO2 CIG 004V008 P0002
14837KMSN MSN20041127121512011/27/04 12:15:31  5-MIN KMSN 271815Z 19005KT 3SM -RA BR OVC008 07/06 A2941 1340 93 800 190/05 RMK AO2 CIG 004V011 P0003
14837KMSN MSN20041127122012711/27/04 12:20:31  5-MIN KMSN 271820Z 19005KT 3SM -RA BR BKN008 OVC011 07/06 A2940 1340 93 800 190/05 RMK AO2 CIG 004V009 P0003
14837KMSN MSN20041127122512711/27/04 12:25:31  5-MIN KMSN 271825Z 19005KT 3SM -RA BR BKN008 OVC011 07/06 A2940 1350 93 800 190/05 RMK AO2 CIG 004V010 P0004
14837KMSN MSN20041127123012711/27/04 12:30:31  5-MIN KMSN 271830Z 19004KT 3SM -RA BR BKN008 OVC011 07/06 A2940 1350 89 800 190/04 RMK AO2 CIG 004V010 P0004
14837KMSN MSN20041127123512011/27/04 12:35:31  5-MIN KMSN 271835Z 19004KT 3SM -RA BR OVC008 07/06 A2940 1350 93 800 190/04 RMK AO2 CIG 004V012 P0005
14837KMSN MSN20041127124012711/27/04 12:40:31  5-MIN KMSN 271840Z 20004KT 3SM -RA BR BKN008 OVC011 07/06 A2940 1350 93 800 190/04 RMK AO2 CIG 005V009 P0005
14837KMSN MSN20041127124512011/27/04 12:45:31  5-MIN KMSN 271845Z 19003KT 3SM -RA BR OVC008 07/06 A2939 1350 93 800 190/03 RMK AO2 CIG 005V014 P0006
14837KMSN MSN20041127125013711/27/04 12:50:31  5-MIN KMSN 271850Z VRB03KT 3SM -RA BR OVC008 07/06 A2939 1350 93 800 VRB/03 RMK AO2 CIG 005V014 SLP958 P0007 T00720061
14837KMSN MSN20041127125512011/27/04 12:55:31  5-MIN KMSN 271855Z 20004KT 3SM -RA BR OVC008 07/06 A2939 1360 93 800 200/04 RMK AO2 CIG 005V014 P0000
14837KMSN MSN20041127130012011/27/04 13:00:31  5-MIN KMSN 271900Z 20003KT 3SM -RA BR OVC008 07/06 A2939 1360 93 800 200/03 RMK AO2 CIG 004V010 P0001
14837KMSN MSN20041127130512711/27/04 13:05:31  5-MIN KMSN 271905Z 00000KT 3SM -RA BR BKN006 OVC010 07/06 A2939 1360 93 800 000/00 RMK AO2 CIG 004V008 P0001
14837KMSN MSN20041127131012711/27/04 13:10:31  5-MIN KMSN 271910Z 00000KT 3SM -RA BR BKN006 OVC012 07/06 A2939 1360 93 800 000/00 RMK AO2 CIG 004V009 P0002
14837KMSN MSN20041127131512711/27/04 13:15:31  5-MIN KMSN 271915Z 23003KT 3SM -RA BR BKN006 OVC012 07/06 A2939 1360 93 800 230/03 RMK AO2 CIG 004V011 P0002
14837KMSN MSN20041127132012711/27/04 13:20:31  5-MIN KMSN 271920Z 24004KT 3SM -RA BR BKN006 OVC012 07/06 A2939 1360 93 800 240/04 RMK AO2 CIG 004V011 P0003
14837KMSN MSN20041127132513311/27/04 13:25:31  5-MIN KMSN 271925Z VRB03KT 3SM RA BR BKN006 BKN010 OVC020 07/06 A2938 1360 93 800 VRB/03 RMK AO2 CIG 004V008 P0004
14837KMSN MSN20041127133013411/27/04 13:30:31  5-MIN KMSN 271930Z 00000KT 3SM -RA BR SCT006 BKN010 OVC020 07/06 A2938 1360 93 800 000/00 RMK AO2 CIG 007V013 P0005
14837KMSN MSN20041127133512211/27/04 13:35:31  5-MIN KMSN 271935Z 26004KT 3SM -RA BR SCT006 BKN010 OVC032 07/06 A2938 1370 93 800 260/04 RMK AO2 P0005
14837KMSN MSN20041127134012211/27/04 13:40:31  5-MIN KMSN 271940Z 27004KT 3SM -RA BR SCT006 BKN010 OVC032 07/06 A2938 1370 93 800 270/04 RMK AO2 P0006
14837KMSN MSN20041127134512211/27/04 13:45:31  5-MIN KMSN 271945Z VRB03KT 3SM -RA BR SCT006 BKN021 OVC032 07/06 A2938 1370 93 800 VRB/03 RMK AO2 P0006
14837KMSN MSN20041127135013911/27/04 13:50:31  5-MIN KMSN 271950Z 26004KT 3SM -RA BR SCT006 BKN027 OVC032 07/06 A2938 1370 93 800 260/04 RMK AO2 SLP952 P0007 T00720061
14837KMSN MSN20041127135513211/27/04 13:55:31  5-MIN KMSN 271955Z VRB03KT 3SM -RA BR SCT006 BKN027 OVC032 07/06 A2938 1370 93 800 VRB/03 RMK AO2 SFC VIS 3 P0000
14837KMSN MSN20041127140014811/27/04 14:00:31  5-MIN KMSN 272000Z 27008KT 170V320 3SM -RA BR SCT006 BKN027 OVC032 07/06 A2938 1370 93 800 270/08 170V320 RMK AO2 SFC VIS 3 P0001
14837KMSN MSN20041127140513811/27/04 14:05:31  5-MIN KMSN 272005Z 30009G18KT 3SM -RA BR SCT006 BKN016 OVC032 06/04 A2939 1360 89 700 300/09G18 RMK AO2 SFC VIS 4 P0001
14837KMSN MSN20041127141012811/27/04 14:10:31  5-MIN KMSN 272010Z 30011G18KT 5SM -RA BR SCT006 BKN014 OVC025 05/04 A2939 1360 92 500 300/11G18 RMK AO2 P0002
14837KMSN MSN20041127141513411/27/04 14:15:31  5-MIN KMSN 272015Z 30009KT 6SM -RA BR BKN006 BKN016 OVC025 05/03 A2939 1360 89 500 300/09 RMK AO2 CIG 004V010 P0002
14837KMSN MSN20041127142013111/27/04 14:20:31  5-MIN KMSN 272020Z 30010KT 7SM -RA BKN006 BKN025 OVC030 05/03 A2939 1360 89 500 300/10 RMK AO2 CIG 004V010 P0002
14837KMSN MSN20041127142513111/27/04 14:25:31  5-MIN KMSN 272025Z 30010KT 7SM -RA BKN006 BKN012 OVC032 04/03 A2939 1360 92 500 300/10 RMK AO2 CIG 004V008 P0003
14837KMSN MSN20041127143013111/27/04 14:30:31  5-MIN KMSN 272030Z 30009KT 8SM -RA BKN008 BKN014 OVC032 04/03 A2939 1360 89 400 300/09 RMK AO2 CIG 005V010 P0003
14837KMSN MSN20041127143511911/27/04 14:35:31  5-MIN KMSN 272035Z 30009KT 8SM -RA SCT008 BKN024 OVC032 04/03 A2939 1360 89 400 300/09 RMK AO2 P0003
14837KMSN MSN20041127144011211/27/04 14:40:31  5-MIN KMSN 272040Z 30008KT 7SM -RA SCT008 OVC032 04/03 A2940 1350 89 400 300/08 RMK AO2 P0004
14837KMSN MSN20041127144512711/27/04 14:45:31  5-MIN KMSN 272045Z 30010KT 6SM -RA BR BKN008 OVC032 04/03 A2940 1350 89 400 300/10 RMK AO2 CIG 007V011 P0004
14837KMSN MSN20041127145014411/27/04 14:50:31  5-MIN KMSN 272050Z 29008KT 6SM -RA BR SCT008 OVC032 04/03 A2940 1350 92 400 290/08 RMK AO2 SLP960 P0004 60018 T00390028 58026
14837KMSN MSN20041127145511511/27/04 14:55:31  5-MIN KMSN 272055Z 29011KT 6SM -RA BR SCT008 OVC032 04/02 A2940 1350 89 400 290/11 RMK AO2 P0000
14837KMSN MSN20041127150012211/27/04 15:00:31  5-MIN KMSN 272100Z 30008KT 6SM -RA BR FEW008 SCT012 OVC032 04/02 A2940 1350 89 400 300/08 RMK AO2 P0000
14837KMSN MSN20041127150512811/27/04 15:05:31  5-MIN KMSN 272105Z 28007G15KT 6SM -RA BR SCT008 BKN012 OVC032 04/02 A2941 1340 89 400 280/07G15 RMK AO2 P0000
14837KMSN MSN20041127151014011/27/04 15:10:31  5-MIN KMSN 272110Z 29011G17KT 6SM -RA BR BKN008 BKN012 OVC032 03/02 A2941 1340 89 300 290/11G17 RMK AO2 CIG 006V011 P0000
14837KMSN MSN20041127151513711/27/04 15:15:31  5-MIN KMSN 272115Z 28013G19KT 7SM -RA BKN008 BKN012 OVC032 03/02 A2941 1340 92 200 280/13G19 RMK AO2 CIG 006V010 P0000
14837KMSN MSN20041127152013011/27/04 15:20:31  5-MIN KMSN 272120Z 28012G19KT 7SM -RA BKN008 OVC012 03/01 A2942 1330 89 200 280/12G19 RMK AO2 CIG 006V011 P0001
14837KMSN MSN20041127152511811/27/04 15:25:31  5-MIN KMSN 272125Z 29009G18KT 7SM -RA BKN008 OVC012 02/01 A2942 1330 92 100 290/09G18 RMK AO2 P0001
14837KMSN MSN20041127153012411/27/04 15:30:31  5-MIN KMSN 272130Z 29010KT 7SM -RA BKN008 OVC011 02/01 A2942 1330 92 100 290/10 RMK AO2 CIG 006V010 P0001
14837KMSN MSN20041127153513311/27/04 15:35:31  5-MIN KMSN 272135Z 28010KT 7SM -RA BKN008 OVC011 02/01 A2943 1320 92 100 280/10 RMK AO2 UPB31E32 CIG 006V010 P0001
14837KMSN MSN20041127154012611/27/04 15:40:31  5-MIN KMSN 272140Z 28008KT 7SM -RA OVC008 02/01 A2943 1320 89 100 280/08 RMK AO2 UPB31E32 CIG 006V011 P0001
14837KMSN MSN20041127154513611/27/04 15:45:31  5-MIN KMSN 272145Z 29010KT 6SM -RA BR BKN008 OVC012 02/01 A2943 1320 89 100 290/10 RMK AO2 UPB31E32 CIG 006V010 P0001
14837KMSN MSN20041127155015311/27/04 15:50:31  5-MIN KMSN 272150Z 29010KT 5SM -RA BR BKN008 OVC012 02/01 A2943 1320 92 100 290/10 RMK AO2 UPB31E32 CIG 006V011 SLP973 P0001 T00170006
14837KMSN MSN20041127155512911/27/04 15:55:31  5-MIN KMSN 272155Z 28010KT 5SM -SNRA BR BKN008 OVC015 02/01 A2944 1320 92 100 280/10 RMK AO2 CIG 006V012 P0000
14837KMSN MSN20041127160012711/27/04 16:00:31  5-MIN KMSN 272200Z 28008KT 5SM -SNRA BR BKN008 OVC012 02/01 A2944 1310 92 0 280/08 RMK AO2 CIG 005V010 P0000
14837KMSN MSN20041127160513311/27/04 16:05:31  5-MIN KMSN 272205Z 28011G16KT 5SM -SNRA BR BKN008 OVC014 02/01 A2944 1310 92 0 280/11G16 RMK AO2 CIG 005V012 P0000
14837KMSN MSN20041127161013311/27/04 16:10:31  5-MIN KMSN 272210Z 28009G16KT 6SM -SNRA BR BKN008 OVC012 02/01 A2944 1310 92 0 280/09G16 RMK AO2 CIG 005V009 P0000
14837KMSN MSN20041127161513311/27/04 16:15:31  5-MIN KMSN 272215Z 29012G16KT 6SM -SNRA BR BKN008 OVC012 02/00 A2944 1310 89 0 280/12G16 RMK AO2 CIG 005V010 P0000
14837KMSN MSN20041127162011811/27/04 16:20:31  5-MIN KMSN 272220Z 28010G16KT 7SM -SNRA BKN008 OVC014 02/00 A2945 1310 89 0 280/10G16 RMK AO2 P0000
14837KMSN MSN20041127162511811/27/04 16:25:31  5-MIN KMSN 272225Z 28010G15KT 7SM -SNRA BKN008 OVC012 02/00 A2945 1300 89 0 280/10G15 RMK AO2 P0000
14837KMSN MSN20041127163012511/27/04 16:30:31  5-MIN KMSN 272230Z 28008G15KT 6SM -SN BR BKN008 OVC014 02/00 A2945 1300 89 0 280/08G15 RMK AO2 RAE27 P0000
14837KMSN MSN20041127163511611/27/04 16:35:31  5-MIN KMSN 272235Z 27009KT 7SM -SN BKN008 OVC014 02/00 A2945 1300 89 0 270/09 RMK AO2 RAE27 P0000
14837KMSN MSN20041127164011611/27/04 16:40:31  5-MIN KMSN 272240Z 28008KT 7SM -SN BKN010 OVC014 02/00 A2945 1300 89 0 280/08 RMK AO2 RAE27 P0000
14837KMSN MSN20041127164511911/27/04 16:45:31  5-MIN KMSN 272245Z 27008KT 6SM -SN BR BKN010 OVC014 02/00 A2945 1300 89 0 270/08 RMK AO2 RAE27 P0000
14837KMSN MSN20041127165013311/27/04 16:50:31  5-MIN KMSN 272250Z 27008KT 9SM -SN SCT008 OVC014 02/00 A2945 1300 89 0 270/08 RMK AO2 RAE27 SLP981 P0000 T00170000
14837KMSN MSN20041127165512611/27/04 16:55:31  5-MIN KMSN 272255Z 28008KT 250V320 9SM -SN BKN010 OVC014 02/00 A2946 1300 89 0 280/08 250V320 RMK AO2 P0000
14837KMSN MSN20041127170010311/27/04 17:00:31  5-MIN KMSN 272300Z 28008KT 9SM -SN OVC014 02/00 A2946 1290 89 0 280/08 RMK AO2 P0000
14837KMSN MSN20041127170510311/27/04 17:05:31  5-MIN KMSN 272305Z 29008KT 9SM -SN OVC014 02/00 A2946 1290 89 0 290/08 RMK AO2 P0000
14837KMSN MSN20041127171012211/27/04 17:10:31  5-MIN KMSN 272310Z 28010KT 9SM -SN BKN010 OVC016 02/00 A2946 1290 89 0 280/10 RMK AO2 CIG 008V013 P0000
14837KMSN MSN20041127171511011/27/04 17:15:31  5-MIN KMSN 272315Z 28011KT 8SM -SN SCT010 OVC016 02/00 A2946 1290 89 0 280/11 RMK AO2 P0000
14837KMSN MSN20041127172011611/27/04 17:20:31  5-MIN KMSN 272320Z 28009G15KT 8SM -SN SCT010 OVC015 02/00 A2946 1290 89 0 280/09G15 RMK AO2 P0000
14837KMSN MSN20041127172511611/27/04 17:25:31  5-MIN KMSN 272325Z 28008G16KT 8SM -SN SCT010 OVC015 02/00 A2946 1290 89 0 280/08G16 RMK AO2 P0000
14837KMSN MSN20041127173011611/27/04 17:30:31  5-MIN KMSN 272330Z 28008G16KT 8SM -SN FEW008 OVC015 02/00 A2946 1290 89 0 280/08G16 RMK AO2 P0000
14837KMSN MSN20041127173511011/27/04 17:35:31  5-MIN KMSN 272335Z 28009KT 7SM -SN SCT012 OVC018 02/00 A2946 1290 89 0 280/09 RMK AO2 P0000
14837KMSN MSN20041127174011011/27/04 17:40:31  5-MIN KMSN 272340Z 28008KT 7SM -SN BKN012 OVC018 02/00 A2946 1290 89 0 280/08 RMK AO2 P0000
14837KMSN MSN20041127174511611/27/04 17:45:31  5-MIN KMSN 272345Z 27009G16KT 7SM -SN BKN012 OVC018 02/00 A2947 1280 89 0 270/09G16 RMK AO2 P0000
14837KMSN MSN20041127175017311/27/04 17:50:31  5-MIN KMSN 272350Z 27008G16KT 240V310 8SM -SN BKN012 OVC018 02/00 A2947 1280 89 0 270/08G16 240V310 RMK AO2 SLP986 P0000 60021 T00170000 10072 20017 55005
14837KMSN MSN20041127175510311/27/04 17:55:31  5-MIN KMSN 272355Z 27008KT 8SM -SN OVC014 02/00 A2948 1280 89 0 270/08 RMK AO2 P0000
14837KMSN MSN20041127180010311/27/04 18:00:31  5-MIN KMSN 280000Z 28011KT 9SM -SN OVC014 02/00 A2948 1280 89 0 280/11 RMK AO2 P0000
14837KMSN MSN20041127180510911/27/04 18:05:31  5-MIN KMSN 280005Z 28009G15KT 9SM -SN OVC014 02/00 A2947 1280 89 0 280/09G15 RMK AO2 P0000
14837KMSN MSN20041127181010311/27/04 18:10:31  5-MIN KMSN 280010Z 28010KT 9SM -SN OVC014 02/00 A2948 1280 89 0 280/10 RMK AO2 P0000
14837KMSN MSN20041127181511011/27/04 18:15:31  5-MIN KMSN 280015Z 28011KT 9SM -SN BKN014 OVC019 02/00 A2947 1280 89 0 280/11 RMK AO2 P0000
14837KMSN MSN20041127182010911/27/04 18:20:31  5-MIN KMSN 280020Z 28011G15KT 9SM -SN OVC016 02/00 A2947 1280 89 0 280/11G15 RMK AO2 P0000
14837KMSN MSN20041127182510911/27/04 18:25:31  5-MIN KMSN 280025Z 28010G15KT 9SM -SN OVC015 02/00 A2948 1270 89 0 280/10G15 RMK AO2 P0000
14837KMSN MSN20041127183010911/27/04 18:30:31  5-MIN KMSN 280030Z 29012G16KT 9SM -SN OVC015 02/00 A2948 1270 89 0 280/12G16 RMK AO2 P0000
14837KMSN MSN20041127183510911/27/04 18:35:31  5-MIN KMSN 280035Z 28009G16KT 9SM -SN OVC015 02/00 A2948 1270 89 0 280/09G16 RMK AO2 P0000
14837KMSN MSN20041127184010911/27/04 18:40:31  5-MIN KMSN 280040Z 28011G17KT 9SM -SN OVC015 02/00 A2948 1270 89 0 280/11G17 RMK AO2 P0000
14837KMSN MSN20041127184511111/27/04 18:45:31  5-MIN KMSN 280045Z 28011G17KT 9SM -SN OVC015 02/00 A2948 1270 85 100 280/11G17 RMK AO2 P0000
14837KMSN MSN20041127185012211/27/04 18:50:31  5-MIN KMSN 280050Z 28010KT 9SM -SN OVC015 02/00 A2949 1270 85 100 280/10 RMK AO2 SLP992 P0000 T00220000
14837KMSN MSN20041127185510511/27/04 18:55:31  5-MIN KMSN 280055Z 29010KT 9SM -SN OVC015 02/00 A2949 1260 85 100 290/10 RMK AO2 P0000
14837KMSN MSN20041127190011811/27/04 19:00:31  5-MIN KMSN 280100Z 28008G15KT 9SM -SN FEW010 OVC015 02/00 A2949 1260 85 100 280/08G15 RMK AO2 P0000
14837KMSN MSN20041127190511111/27/04 19:05:31  5-MIN KMSN 280105Z 28010G15KT 9SM -SN OVC015 02/00 A2950 1260 85 100 280/10G15 RMK AO2 P0000
14837KMSN MSN20041127191010311/27/04 19:10:31  5-MIN KMSN 280110Z 28010KT 9SM -SN OVC015 02/00 A2950 1260 85 0 280/10 RMK AO2 P0000
14837KMSN MSN20041127191511011/27/04 19:15:31  5-MIN KMSN 280115Z 28009KT 9SM -SN BKN015 OVC020 02/01 A2950 1250 89 0 280/09 RMK AO2 P0000
14837KMSN MSN20041127192011011/27/04 19:20:31  5-MIN KMSN 280120Z 28009KT 8SM -SN FEW012 OVC018 02/01 A2950 1250 89 0 280/09 RMK AO2 P0000
14837KMSN MSN20041127192511011/27/04 19:25:31  5-MIN KMSN 280125Z 28009KT 8SM -SN BKN015 OVC020 02/01 A2951 1250 89 0 270/09 RMK AO2 P0000
14837KMSN MSN20041127193011711/27/04 19:30:31  5-MIN KMSN 280130Z 28009KT 9SM -SN SCT012 BKN018 OVC025 02/01 A2951 1250 89 0 280/09 RMK AO2 P0000
14837KMSN MSN20041127193511611/27/04 19:35:31  5-MIN KMSN 280135Z 28011G18KT 9SM -SN FEW012 OVC020 02/01 A2951 1250 89 0 280/11G18 RMK AO2 P0000
14837KMSN MSN20041127194012311/27/04 19:40:31  5-MIN KMSN 280140Z 28011G18KT 9SM -SN FEW012 BKN020 OVC025 02/01 A2951 1250 89 0 280/11G18 RMK AO2 P0000
14837KMSN MSN20041127194511611/27/04 19:45:31  5-MIN KMSN 280145Z 28009G16KT 9SM -SN FEW012 OVC020 02/01 A2951 1240 89 0 280/09G16 RMK AO2 P0000
14837KMSN MSN20041127195015611/27/04 19:50:31  5-MIN KMSN 280150Z 28009G16KT 260V320 9SM -SN SCT012 BKN020 OVC025 02/01 A2951 1240 89 0 280/09G16 260V320 RMK AO2 SLP000 P0000 T00220006
14837KMSN MSN20041127195511711/27/04 19:55:31  5-MIN KMSN 280155Z 28008KT 8SM -SN SCT012 BKN020 OVC025 02/01 A2952 1240 89 0 280/08 RMK AO2 P0000
14837KMSN MSN20041127200011711/27/04 20:00:31  5-MIN KMSN 280200Z 29011KT 9SM -SN FEW012 BKN018 OVC023 02/01 A2952 1240 89 0 280/11 RMK AO2 P0000
14837KMSN MSN20041127200513911/27/04 20:05:31  5-MIN KMSN 280205Z 28012G16KT 260V320 9SM -SN SCT014 BKN021 OVC030 02/01 A2952 1240 89 0 280/12G16 260V320 RMK AO2 P0000
14837KMSN MSN20041127201012311/27/04 20:10:31  5-MIN KMSN 280210Z 29012G19KT 9SM -SN FEW012 BKN018 OVC030 02/00 A2952 1240 85 0 280/12G19 RMK AO2 P0000
14837KMSN MSN20041127201512511/27/04 20:15:31  5-MIN KMSN 280215Z 29012G20KT 9SM -SN FEW012 BKN019 OVC032 03/00 A2952 1240 82 100 290/12G20 RMK AO2 P0000
14837KMSN MSN20041127202011811/27/04 20:20:31  5-MIN KMSN 280220Z 29012G20KT 9SM -SN BKN019 OVC032 03/00 A2952 1230 82 100 290/12G20 RMK AO2 P0000
14837KMSN MSN20041127202511811/27/04 20:25:31  5-MIN KMSN 280225Z 29010G20KT 9SM -SN BKN019 OVC032 03/00 A2953 1230 82 100 290/10G20 RMK AO2 P0000
14837KMSN MSN20041127203012511/27/04 20:30:31  5-MIN KMSN 280230Z 30013G20KT 9SM -SN BKN020 BKN025 OVC032 03/00 A2953 1230 82 100 300/13G20 RMK AO2 P0000
14837KMSN MSN20041127203512511/27/04 20:35:31  5-MIN KMSN 280235Z 30015G20KT 9SM -SN BKN020 BKN024 OVC032 03/00 A2953 1230 82 100 300/15G20 RMK AO2 P0000
14837KMSN MSN20041127204011811/27/04 20:40:31  5-MIN KMSN 280240Z 28011G20KT 9SM -SN BKN018 OVC024 03/00 A2954 1220 82 100 280/11G20 RMK AO2 P0000
14837KMSN MSN20041127204511811/27/04 20:45:31  5-MIN KMSN 280245Z 29013G20KT 9SM -SN BKN018 OVC024 03/00 A2954 1220 82 100 290/13G20 RMK AO2 P0000
14837KMSN MSN20041127205014711/27/04 20:50:31  5-MIN KMSN 280250Z 28010G20KT 9SM -SN BKN018 OVC024 03/00 A2954 1220 82 100 280/10G20 RMK AO2 SLP009 P0000 60000 T00280000 51025
14837KMSN MSN20041127205511111/27/04 20:55:31  5-MIN KMSN 280255Z 28012G19KT 9SM -SN OVC018 03/00 A2954 1210 82 100 280/12G19 RMK AO2 P0000
14837KMSN MSN20041127210011811/27/04 21:00:31  5-MIN KMSN 280300Z 29011G19KT 9SM -SN SCT018 OVC024 03/00 A2955 1210 82 100 290/11G19 RMK AO2 P0000
14837KMSN MSN20041127210511811/27/04 21:05:31  5-MIN KMSN 280305Z 29012G18KT 9SM -SN SCT018 OVC022 03/00 A2956 1200 82 100 290/12G18 RMK AO2 P0000
14837KMSN MSN20041127211011611/27/04 21:10:31  5-MIN KMSN 280310Z 29012G22KT 9SM -SN BKN018 OVC023 03/00 A2956 1200 82 0 290/12G22 RMK AO2 P0000
14837KMSN MSN20041127211510911/27/04 21:15:31  5-MIN KMSN 280315Z 29012G22KT 9SM -SN OVC020 03/00 A2956 1200 82 0 290/12G22 RMK AO2 P0000
14837KMSN MSN20041127212011211/27/04 21:20:31  5-MIN KMSN 280320Z 30012G20KT 10SM OVC020 03/00 A2957 1190 82 0 300/12G20 RMK AO2 SNE17 P0000
14837KMSN MSN20041127212511911/27/04 21:25:31  5-MIN KMSN 280325Z 29010G19KT 10SM BKN020 OVC026 03/00 A2957 1190 82 0 290/10G19 RMK AO2 SNE17 P0000
14837KMSN MSN20041127213011911/27/04 21:30:31  5-MIN KMSN 280330Z 29014G20KT 10SM BKN021 OVC026 03/00 A2957 1190 82 0 290/14G20 RMK AO2 SNE17 P0000
14837KMSN MSN20041127213511211/27/04 21:35:31  5-MIN KMSN 280335Z 29012G20KT 10SM OVC023 03/00 A2957 1190 82 0 290/12G20 RMK AO2 SNE17 P0000
14837KMSN MSN20041127214011311/27/04 21:40:31  5-MIN KMSN 280340Z 29012G20KT 10SM OVC023 03/M01 A2958 1180 79 0 290/12G20 RMK AO2 SNE17 P0000
14837KMSN MSN20041127214511311/27/04 21:45:31  5-MIN KMSN 280345Z 30011G20KT 10SM OVC023 03/M01 A2958 1180 79 0 300/11G20 RMK AO2 SNE17 P0000
14837KMSN MSN20041127215013011/27/04 21:50:31  5-MIN KMSN 280350Z 29011G18KT 10SM OVC023 03/M01 A2958 1180 79 0 290/11G18 RMK AO2 SNE17 SLP024 P0000 T00281006
14837KMSN MSN20041127215510811/27/04 21:55:31  5-MIN KMSN 280355Z 29013G17KT 10SM BKN023 OVC027 03/M01 A2959 1170 79 0 290/13G17 RMK AO2
14837KMSN MSN20041127220010111/27/04 22:00:31  5-MIN KMSN 280400Z 29011G20KT 10SM OVC023 03/M01 A2959 1170 79 0 280/11G20 RMK AO2
14837KMSN MSN20041127220510811/27/04 22:05:31  5-MIN KMSN 280405Z 29010G20KT 10SM BKN023 OVC030 03/M01 A2960 1170 79 0 290/10G20 RMK AO2
14837KMSN MSN20041127221010111/27/04 22:10:31  5-MIN KMSN 280410Z 29009G16KT 10SM OVC025 03/M01 A2960 1160 79 0 290/09G16 RMK AO2
14837KMSN MSN20041127221510111/27/04 22:15:31  5-MIN KMSN 280415Z 29012G19KT 10SM OVC024 03/M01 A2960 1160 79 0 290/12G19 RMK AO2
14837KMSN MSN20041127222010811/27/04 22:20:31  5-MIN KMSN 280420Z 29013G19KT 10SM FEW020 OVC026 03/M01 A2961 1160 79 0 290/13G19 RMK AO2
14837KMSN MSN20041127222510811/27/04 22:25:31  5-MIN KMSN 280425Z 30012G19KT 10SM BKN024 OVC028 03/M01 A2961 1150 79 0 300/12G19 RMK AO2
14837KMSN MSN20041127223010211/27/04 22:30:31  5-MIN KMSN 280430Z 29013KT 10SM BKN024 OVC029 03/M01 A2962 1150 79 0 280/13 RMK AO2
14837KMSN MSN20041127223510811/27/04 22:35:31  5-MIN KMSN 280435Z 29010G16KT 10SM BKN023 OVC029 03/M01 A2962 1140 79 0 290/10G16 RMK AO2
14837KMSN MSN20041127224010111/27/04 22:40:31  5-MIN KMSN 280440Z 29011G20KT 10SM OVC025 03/M01 A2962 1140 79 0 290/11G20 RMK AO2
14837KMSN MSN20041127224510811/27/04 22:45:31  5-MIN KMSN 280445Z 30012G20KT 10SM BKN023 OVC028 03/M01 A2963 1140 79 0 300/12G20 RMK AO2
14837KMSN MSN20041127225013511/27/04 22:50:31  5-MIN KMSN 280450Z 29009KT 10SM -SN BKN023 OVC028 03/M01 A2963 1130 79 0 290/09 RMK AO2 SNB50 SLP039 P0000 T00281006
14837KMSN MSN20041127225511711/27/04 22:55:31  5-MIN KMSN 280455Z 28013G19KT 9SM -SN BKN023 OVC028 03/M01 A2963 1130 79 0 280/13G19 RMK AO2 P0000
14837KMSN MSN20041127230011011/27/04 23:00:31  5-MIN KMSN 280500Z 28013G19KT 9SM -SN OVC023 03/M01 A2964 1130 79 0 280/13G19 RMK AO2 P0000
14837KMSN MSN20041127230511711/27/04 23:05:31  5-MIN KMSN 280505Z 28014G19KT 9SM -SN BKN023 OVC027 03/M01 A2964 1120 79 0 280/14G19 RMK AO2 P0000
14837KMSN MSN20041127231011011/27/04 23:10:31  5-MIN KMSN 280510Z 29011G19KT 9SM -SN OVC025 03/M01 A2965 1120 79 0 290/11G19 RMK AO2 P0000
14837KMSN MSN20041127231511711/27/04 23:15:31  5-MIN KMSN 280515Z 29011G18KT 9SM -SN BKN023 OVC028 03/M01 A2965 1120 79 0 290/11G18 RMK AO2 P0000
14837KMSN MSN20041127232011711/27/04 23:20:31  5-MIN KMSN 280520Z 29014G19KT 9SM -SN BKN023 OVC028 03/M01 A2965 1110 79 0 290/14G19 RMK AO2 P0000
14837KMSN MSN20041127232511311/27/04 23:25:31  5-MIN KMSN 280525Z 30010G19KT 9SM -SN OVC025 02/M01 A2965 1110 82 -100 290/10G19 RMK AO2 P0000
14837KMSN MSN20041127233012011/27/04 23:30:31  5-MIN KMSN 280530Z 29011G17KT 9SM -SN SCT022 OVC027 02/M01 A2966 1110 82 -100 290/11G17 RMK AO2 P0000
14837KMSN MSN20041127233514311/27/04 23:35:31  5-MIN KMSN 280535Z 29010G17KT 260V320 9SM -SN FEW020 BKN027 OVC031 02/M01 A2966 1110 82 -100 290/10G17 260V320 RMK AO2 P0000
14837KMSN MSN20041127234014311/27/04 23:40:31  5-MIN KMSN 280540Z 29012G17KT 260V320 9SM -SN SCT021 BKN025 OVC031 02/M01 A2966 1110 82 -100 290/12G17 260V320 RMK AO2 P0000
14837KMSN MSN20041127234512711/27/04 23:45:31  5-MIN KMSN 280545Z 29012G17KT 9SM -SN FEW019 BKN026 OVC031 02/M01 A2966 1100 82 -100 290/12G17 RMK AO2 P0000
14837KMSN MSN20041127235017211/27/04 23:50:31  5-MIN KMSN 280550Z 28013G17KT 10SM -SN FEW019 OVC028 02/M01 A2967 1100 82 -100 280/13G17 RMK AO2 SLP052 P0000 60000 T00221006 10028 20017 400720017 53023
14837KMSN MSN20041127235512711/27/04 23:55:31  5-MIN KMSN 280555Z 29013G18KT 9SM -SN FEW019 BKN026 OVC031 02/M01 A2967 1100 82 -100 290/13G18 RMK AO2 P0000
14837KMSN MSN20041128000012011/28/04 00:00:31  5-MIN KMSN 280600Z 29011G18KT 9SM -SN FEW021 OVC029 02/M01 A2967 1100 78 -100 290/11G18 RMK AO2 P0000
14837KMSN MSN20041128000512411/28/04 00:05:31  5-MIN KMSN 280605Z 29011G18KT 9SM -SN FEW019 BKN026 OVC031 03/M01 A2967 1090 75 0 290/11G18 RMK AO2 P0000
14837KMSN MSN20041128001012011/28/04 00:10:31  5-MIN KMSN 280610Z 29013G17KT 9SM -SN SCT023 OVC031 02/M01 A2967 1090 78 -100 290/13G17 RMK AO2 P0000
14837KMSN MSN20041128001511811/28/04 00:15:31  5-MIN KMSN 280615Z 29013G19KT 10SM -SN FEW023 OVC029 03/M01 A2967 1090 75 0 290/13G19 RMK AO2 P0000
14837KMSN MSN20041128002011811/28/04 00:20:31  5-MIN KMSN 280620Z 30011G19KT 10SM -SN FEW023 OVC029 03/M01 A2968 1090 75 0 290/11G19 RMK AO2 P0000
14837KMSN MSN20041128002511811/28/04 00:25:31  5-MIN KMSN 280625Z 29013G20KT 10SM -SN BKN026 OVC032 03/M01 A2968 1090 75 0 290/13G20 RMK AO2 P0000
14837KMSN MSN20041128003011811/28/04 00:30:31  5-MIN KMSN 280630Z 29013G20KT 10SM -SN BKN026 OVC032 03/M01 A2968 1090 75 0 290/13G20 RMK AO2 P0000
14837KMSN MSN20041128003512111/28/04 00:35:31  5-MIN KMSN 280635Z 30011G20KT 10SM -SN FEW022 OVC028 02/M01 A2968 1090 78 -100 300/11G20 RMK AO2 P0000
14837KMSN MSN20041128004011811/28/04 00:40:31  5-MIN KMSN 280640Z 29012G20KT 10SM -SN FEW022 OVC028 03/M01 A2968 1090 75 0 290/12G20 RMK AO2 P0000
14837KMSN MSN20041128004511411/28/04 00:45:31  5-MIN KMSN 280645Z 30011G19KT 10SM -SN OVC028 03/M02 A2969 1080 72 -100 300/11G19 RMK AO2 P0000
14837KMSN MSN20041128005013111/28/04 00:50:31  5-MIN KMSN 280650Z 30013G19KT 10SM -SN OVC028 02/M02 A2969 1080 75 -100 300/13G19 RMK AO2 SLP059 P0000 T00221017
14837KMSN MSN20041128005511311/28/04 00:55:31  5-MIN KMSN 280655Z 30014G21KT 9SM -SN OVC028 03/M02 A2969 1080 72 -100 300/14G21 RMK AO2 P0000
14837KMSN MSN20041128010011311/28/04 01:00:31  5-MIN KMSN 280700Z 29014G21KT 9SM -SN OVC028 03/M02 A2970 1070 72 -100 290/14G21 RMK AO2 P0000
14837KMSN MSN20041128010511311/28/04 01:05:31  5-MIN KMSN 280705Z 29011G19KT 9SM -SN OVC028 03/M02 A2970 1070 69 -100 290/11G19 RMK AO2 P0000
14837KMSN MSN20041128011011311/28/04 01:10:31  5-MIN KMSN 280710Z 29013G20KT 9SM -SN OVC028 02/M02 A2970 1060 75 -100 290/13G20 RMK AO2 P0000
14837KMSN MSN20041128011511311/28/04 01:15:31  5-MIN KMSN 280715Z 30013G20KT 9SM -SN OVC028 02/M02 A2971 1060 72 -100 300/13G20 RMK AO2 P0000
14837KMSN MSN20041128012011311/28/04 01:20:31  5-MIN KMSN 280720Z 30013G21KT 9SM -SN OVC028 02/M02 A2971 1060 72 -100 300/13G21 RMK AO2 P0000
14837KMSN MSN20041128012511411/28/04 01:25:31  5-MIN KMSN 280725Z 29015G21KT 10SM -SN OVC030 02/M02 A2971 1060 72 -200 290/15G21 RMK AO2 P0000
14837KMSN MSN20041128013011411/28/04 01:30:31  5-MIN KMSN 280730Z 31015G20KT 10SM -SN OVC030 02/M02 A2972 1050 72 -200 310/15G20 RMK AO2 P0000
14837KMSN MSN20041128013511411/28/04 01:35:31  5-MIN KMSN 280735Z 31012G20KT 10SM -SN OVC028 02/M02 A2972 1050 72 -200 310/12G20 RMK AO2 P0000
14837KMSN MSN20041128014011411/28/04 01:40:31  5-MIN KMSN 280740Z 30013G20KT 10SM -SN OVC028 02/M02 A2973 1040 72 -200 300/13G20 RMK AO2 P0000
14837KMSN MSN20041128014511411/28/04 01:45:31  5-MIN KMSN 280745Z 30016G22KT 10SM -SN OVC026 02/M03 A2973 1040 69 -200 300/16G22 RMK AO2 P0000
14837KMSN MSN20041128015013111/28/04 01:50:31  5-MIN KMSN 280750Z 30011G22KT 10SM -SN BKN026 02/M03 A2973 1040 69 -200 300/11G22 RMK AO2 SLP074 P0000 T00221028
14837KMSN MSN20041128015511311/28/04 01:55:31  5-MIN KMSN 280755Z 30009G19KT 9SM -SN OVC026 02/M02 A2974 1030 75 -200 300/09G19 RMK AO2 P0000
14837KMSN MSN20041128020011311/28/04 02:00:31  5-MIN KMSN 280800Z 30014G19KT 9SM -SN OVC026 02/M02 A2975 1030 75 -300 300/14G19 RMK AO2 P0000
14837KMSN MSN20041128020511311/28/04 02:05:31  5-MIN KMSN 280805Z 30014G21KT 9SM -SN OVC026 02/M03 A2975 1020 72 -300 300/14G21 RMK AO2 P0000
14837KMSN MSN20041128021012211/28/04 02:10:31  5-MIN KMSN 280810Z 30012G21KT 9SM OVC026 02/M03 A2976 1020 72 -300 300/12G21 RMK AO2 SNE09 PRESRR P0000
14837KMSN MSN20041128021511611/28/04 02:15:31  5-MIN KMSN 280815Z 30011G18KT 10SM OVC024 02/M03 A2976 1010 72 -300 300/11G18 RMK AO2 SNE09 P0000
14837KMSN MSN20041128022011011/28/04 02:20:31  5-MIN KMSN 280820Z 30009KT 10SM OVC024 02/M02 A2976 1010 75 -300 300/09 RMK AO2 SNE09 P0000
14837KMSN MSN20041128022511611/28/04 02:25:31  5-MIN KMSN 280825Z 30013G16KT 10SM OVC024 02/M02 A2976 1010 75 -300 300/13G16 RMK AO2 SNE09 P0000
14837KMSN MSN20041128023011611/28/04 02:30:31  5-MIN KMSN 280830Z 30011G19KT 10SM OVC024 02/M03 A2977 1000 72 -300 300/11G19 RMK AO2 SNE09 P0000
14837KMSN MSN20041128023511611/28/04 02:35:31  5-MIN KMSN 280835Z 30011G19KT 10SM OVC024 02/M03 A2977 1000 72 -300 300/11G19 RMK AO2 SNE09 P0000
14837KMSN MSN20041128024011611/28/04 02:40:31  5-MIN KMSN 280840Z 28009G19KT 10SM OVC024 02/M03 A2978 1000 72 -300 280/09G19 RMK AO2 SNE09 P0000
14837KMSN MSN20041128024511511/28/04 02:45:31  5-MIN KMSN 280845Z 29012G17KT 10SM OVC024 02/M03 A2978 990 72 -300 290/12G17 RMK AO2 SNE09 P0000
14837KMSN MSN20041128025014411/28/04 02:50:31  5-MIN KMSN 280850Z 30010G17KT 10SM BKN024 02/M03 A2979 990 72 -300 290/10G17 RMK AO2 SNE09 SLP094 P0000 60000 T00171028 51041
14837KMSN MSN20041128025511011/28/04 02:55:31  5-MIN KMSN 280855Z 29011G17KT 10SM OVC024 02/M03 A2980 980 72 -300 280/11G17 RMK AO2 PRESRR
14837KMSN MSN20041128030011011/28/04 03:00:31  5-MIN KMSN 280900Z 29009G17KT 10SM OVC024 02/M03 A2980 970 72 -300 290/09G17 RMK AO2 PRESRR
14837KMSN MSN20041128030509711/28/04 03:05:31  5-MIN KMSN 280905Z 28014KT 10SM OVC022 01/M03 A2981 970 75 -400 280/14 RMK AO2
14837KMSN MSN20041128031010311/28/04 03:10:31  5-MIN KMSN 280910Z 29008G16KT 10SM OVC022 01/M03 A2981 970 75 -400 290/08G16 RMK AO2
14837KMSN MSN20041128031510311/28/04 03:15:31  5-MIN KMSN 280915Z 30014G18KT 10SM OVC022 01/M03 A2981 960 72 -400 300/14G18 RMK AO2
14837KMSN MSN20041128032010311/28/04 03:20:31  5-MIN KMSN 280920Z 30014G19KT 10SM OVC022 01/M03 A2981 960 72 -400 300/14G19 RMK AO2
14837KMSN MSN20041128032510311/28/04 03:25:31  5-MIN KMSN 280925Z 30009G19KT 10SM OVC024 01/M03 A2982 960 72 -400 300/09G19 RMK AO2
14837KMSN MSN20041128033009711/28/04 03:30:31  5-MIN KMSN 280930Z 30010KT 10SM OVC024 01/M03 A2982 960 72 -400 300/10 RMK AO2
14837KMSN MSN20041128033509711/28/04 03:35:31  5-MIN KMSN 280935Z 29008KT 10SM OVC024 01/M03 A2982 960 72 -400 290/08 RMK AO2
14837KMSN MSN20041128034009711/28/04 03:40:31  5-MIN KMSN 280940Z 29006KT 10SM OVC024 01/M03 A2983 950 72 -400 280/06 RMK AO2
14837KMSN MSN20041128034511011/28/04 03:45:31  5-MIN KMSN 280945Z 28011G16KT 10SM BKN021 OVC026 01/M03 A2983 950 75 -400 280/11G16 RMK AO2
14837KMSN MSN20041128035012711/28/04 03:50:31  5-MIN KMSN 280950Z 29009G17KT 10SM BKN021 BKN026 01/M03 A2984 940 72 -400 290/09G17 RMK AO2 SLP112 T00111033
14837KMSN MSN20041128035510311/28/04 03:55:31  5-MIN KMSN 280955Z 29009G17KT 10SM OVC021 01/M03 A2984 940 72 -400 290/09G17 RMK AO2
14837KMSN MSN20041128040011711/28/04 04:00:31  5-MIN KMSN 281000Z 29009G17KT 10SM BKN023 OVC027 01/M04 A2985 930 72 -500 280/09G17 RMK AO2 PRESRR
14837KMSN MSN20041128040511011/28/04 04:05:31  5-MIN KMSN 281005Z 28010G17KT 10SM OVC023 01/M04 A2986 920 69 -500 280/10G17 RMK AO2 PRESRR
14837KMSN MSN20041128041009711/28/04 04:10:31  5-MIN KMSN 281010Z 28010KT 10SM BKN023 01/M04 A2986 920 72 -500 280/10 RMK AO2
14837KMSN MSN20041128041510411/28/04 04:15:31  5-MIN KMSN 281015Z 29006KT 10SM BKN021 BKN026 01/M04 A2986 920 72 -500 290/06 RMK AO2
14837KMSN MSN20041128042012011/28/04 04:20:31  5-MIN KMSN 281020Z 29009KT 250V320 10SM BKN021 OVC026 01/M03 A2986 920 75 -500 290/09 250V320 RMK AO2
14837KMSN MSN20041128042509711/28/04 04:25:31  5-MIN KMSN 281025Z 28009KT 10SM OVC023 01/M03 A2986 920 75 -500 280/09 RMK AO2
14837KMSN MSN20041128043010311/28/04 04:30:31  5-MIN KMSN 281030Z 29010G17KT 10SM BKN023 01/M03 A2986 920 75 -500 290/10G17 RMK AO2
14837KMSN MSN20041128043510311/28/04 04:35:31  5-MIN KMSN 281035Z 28010G17KT 10SM BKN023 01/M04 A2987 910 72 -500 280/10G17 RMK AO2
14837KMSN MSN20041128044010311/28/04 04:40:31  5-MIN KMSN 281040Z 29009G15KT 10SM BKN023 01/M04 A2987 910 72 -500 290/09G15 RMK AO2
14837KMSN MSN20041128044510311/28/04 04:45:31  5-MIN KMSN 281045Z 29012G16KT 10SM BKN023 00/M04 A2987 910 75 -600 290/12G16 RMK AO2
14837KMSN MSN20041128045012011/28/04 04:50:31  5-MIN KMSN 281050Z 29013G19KT 10SM BKN023 00/M04 A2987 910 72 -600 290/13G19 RMK AO2 SLP124 T00001044
14837KMSN MSN20041128045510311/28/04 04:55:31  5-MIN KMSN 281055Z 29010G19KT 10SM SCT023 00/M04 A2988 900 72 -600 290/10G19 RMK AO2
14837KMSN MSN20041128050010311/28/04 05:00:31  5-MIN KMSN 281100Z 29013G18KT 10SM SCT023 00/M04 A2988 900 72 -600 290/13G18 RMK AO2
14837KMSN MSN20041128050510311/28/04 05:05:31  5-MIN KMSN 281105Z 29012G18KT 10SM FEW023 00/M04 A2988 900 72 -600 290/12G18 RMK AO2
14837KMSN MSN20041128051010311/28/04 05:10:31  5-MIN KMSN 281110Z 29011G16KT 10SM FEW023 00/M05 A2989 890 69 -600 290/11G16 RMK AO2
14837KMSN MSN20041128051510311/28/04 05:15:31  5-MIN KMSN 281115Z 29010G16KT 10SM FEW023 00/M05 A2989 890 69 -600 290/10G16 RMK AO2
14837KMSN MSN20041128052010111/28/04 05:20:31  5-MIN KMSN 281120Z 29009G16KT 10SM CLR M01/M05 A2989 890 72 -700 290/09G16 RMK AO2
14837KMSN MSN20041128052510111/28/04 05:25:31  5-MIN KMSN 281125Z 29010G16KT 10SM CLR M01/M05 A2990 890 72 -700 280/10G16 RMK AO2
14837KMSN MSN20041128053010111/28/04 05:30:31  5-MIN KMSN 281130Z 29011G16KT 10SM CLR M01/M06 A2990 880 69 -700 290/11G16 RMK AO2
14837KMSN MSN20041128053510111/28/04 05:35:31  5-MIN KMSN 281135Z 29009G16KT 10SM CLR M01/M06 A2990 880 69 -700 290/09G16 RMK AO2
14837KMSN MSN20041128054009511/28/04 05:40:31  5-MIN KMSN 281140Z 29009KT 10SM CLR M01/M06 A2991 880 69 -700 290/09 RMK AO2
14837KMSN MSN20041128054511111/28/04 05:45:31  5-MIN KMSN 281145Z 29008KT 260V330 10SM CLR M01/M06 A2991 880 69 -700 290/08 260V330 RMK AO2
14837KMSN MSN20041128055014511/28/04 05:50:31  5-MIN KMSN 281150Z 29008KT 10SM FEW023 M01/M06 A2991 870 69 -700 290/08 RMK AO2 SLP139 60000 70041 T10061056 10028 21006 53041
14837KMSN MSN20041128055511711/28/04 05:55:31  5-MIN KMSN 281155Z 29008G14KT 260V320 10SM CLR M01/M06 A2992 870 72 -800 290/08G14 260V320 RMK AO2
14837KMSN MSN20041128060009511/28/04 06:00:31  5-MIN KMSN 281200Z 30007KT 10SM CLR M01/M06 A2992 860 72 -800 300/07 RMK AO2
14837KMSN MSN20041128060509511/28/04 06:05:31  5-MIN KMSN 281205Z 30008KT 10SM CLR M01/M06 A2992 860 72 -800 300/08 RMK AO2
14837KMSN MSN20041128061009511/28/04 06:10:31  5-MIN KMSN 281210Z 30007KT 10SM CLR M01/M06 A2992 860 72 -800 300/07 RMK AO2
14837KMSN MSN20041128061509511/28/04 06:15:31  5-MIN KMSN 281215Z 30007KT 10SM CLR M01/M06 A2993 860 72 -800 300/07 RMK AO2
14837KMSN MSN20041128062009511/28/04 06:20:31  5-MIN KMSN 281220Z 30008KT 10SM CLR M01/M06 A2993 860 72 -800 300/08 RMK AO2
14837KMSN MSN20041128062509511/28/04 06:25:31  5-MIN KMSN 281225Z 30010KT 10SM CLR M01/M06 A2993 850 72 -800 300/10 RMK AO2
14837KMSN MSN20041128063010111/28/04 06:30:31  5-MIN KMSN 281230Z 30006G14KT 10SM CLR M01/M06 A2994 850 72 -800 300/06G14 RMK AO2
14837KMSN MSN20041128063509511/28/04 06:35:31  5-MIN KMSN 281235Z 29008KT 10SM CLR M01/M06 A2994 840 69 -800 290/08 RMK AO2
14837KMSN MSN20041128064011111/28/04 06:40:31  5-MIN KMSN 281240Z 29007KT 250V330 10SM CLR M01/M06 A2995 840 69 -800 290/07 250V330 RMK AO2
14837KMSN MSN20041128064509511/28/04 06:45:31  5-MIN KMSN 281245Z 28006KT 10SM CLR M01/M06 A2995 830 72 -800 280/06 RMK AO2
14837KMSN MSN20041128065011811/28/04 06:50:31  5-MIN KMSN 281250Z 29007G15KT 10SM CLR M01/M06 A2996 830 72 -900 290/07G15 RMK AO2 SLP155 T10111056
14837KMSN MSN20041128065510111/28/04 06:55:31  5-MIN KMSN 281255Z 28005G15KT 10SM CLR M01/M06 A2996 830 72 -900 280/05G15 RMK AO2
14837KMSN MSN20041128070010111/28/04 07:00:31  5-MIN KMSN 281300Z 29007G14KT 10SM CLR M02/M06 A2997 820 75 -900 290/07G14 RMK AO2
14837KMSN MSN20041128070509511/28/04 07:05:31  5-MIN KMSN 281305Z 27007KT 10SM CLR M02/M06 A2997 820 75 -900 270/07 RMK AO2
14837KMSN MSN20041128071009511/28/04 07:10:31  5-MIN KMSN 281310Z 28006KT 10SM CLR M02/M06 A2997 820 75 -900 270/06 RMK AO2
14837KMSN MSN20041128071509511/28/04 07:15:31  5-MIN KMSN 281315Z 28006KT 10SM CLR M02/M06 A2998 810 75 -900 280/06 RMK AO2
14837KMSN MSN20041128072009611/28/04 07:20:31  5-MIN KMSN 281320Z 27006KT 10SM CLR M02/M06 A2998 810 72 -1000 270/06 RMK AO2
14837KMSN MSN20041128072509611/28/04 07:25:31  5-MIN KMSN 281325Z 27007KT 10SM CLR M02/M06 A2999 800 75 -1000 270/07 RMK AO2
14837KMSN MSN20041128073009611/28/04 07:30:31  5-MIN KMSN 281330Z 27006KT 10SM CLR M02/M06 A2999 800 72 -1000 270/06 RMK AO2
14837KMSN MSN20041128073509611/28/04 07:35:31  5-MIN KMSN 281335Z 27005KT 10SM CLR M02/M06 A2999 800 72 -1000 270/05 RMK AO2
14837KMSN MSN20041128074009611/28/04 07:40:31  5-MIN KMSN 281340Z VRB04KT 10SM CLR M02/M06 A2999 800 75 -1000 VRB/04 RMK AO2
14837KMSN MSN20041128074509611/28/04 07:45:31  5-MIN KMSN 281345Z 27005KT 10SM CLR M02/M06 A2999 800 75 -1000 270/05 RMK AO2
14837KMSN MSN20041128075011311/28/04 07:50:31  5-MIN KMSN 281350Z 29004KT 10SM CLR M02/M06 A2999 800 75 -1000 290/04 RMK AO2 SLP167 T10171056
14837KMSN MSN20041128075509611/28/04 07:55:31  5-MIN KMSN 281355Z 29006KT 10SM CLR M02/M06 A3000 790 75 -1000 290/06 RMK AO2
14837KMSN MSN20041128080009511/28/04 08:00:31  5-MIN KMSN 281400Z 29006KT 10SM CLR M01/M06 A3000 790 72 -900 290/06 RMK AO2
14837KMSN MSN20041128080509511/28/04 08:05:31  5-MIN KMSN 281405Z 29007KT 10SM CLR M01/M06 A3000 790 69 -900 290/07 RMK AO2
14837KMSN MSN20041128081009511/28/04 08:10:31  5-MIN KMSN 281410Z 29007KT 10SM CLR M01/M06 A3000 790 69 -900 290/07 RMK AO2
14837KMSN MSN20041128081509511/28/04 08:15:31  5-MIN KMSN 281415Z 29007KT 10SM CLR M01/M06 A3000 790 72 -900 290/07 RMK AO2
14837KMSN MSN20041128082009511/28/04 08:20:31  5-MIN KMSN 281420Z 29009KT 10SM CLR M01/M06 A3000 790 72 -900 290/09 RMK AO2
14837KMSN MSN20041128082509511/28/04 08:25:31  5-MIN KMSN 281425Z 30009KT 10SM CLR M01/M06 A3000 790 72 -900 300/09 RMK AO2
14837KMSN MSN20041128083009511/28/04 08:30:31  5-MIN KMSN 281430Z 30008KT 10SM CLR M01/M06 A3000 790 69 -900 300/08 RMK AO2
14837KMSN MSN20041128083509511/28/04 08:35:31  5-MIN KMSN 281435Z 30009KT 10SM CLR M01/M06 A3001 790 66 -800 300/09 RMK AO2
14837KMSN MSN20041128084009511/28/04 08:40:31  5-MIN KMSN 281440Z 30010KT 10SM CLR M01/M06 A3001 780 66 -800 300/10 RMK AO2
14837KMSN MSN20041128084509511/28/04 08:45:31  5-MIN KMSN 281445Z 29010KT 10SM CLR M01/M06 A3001 780 66 -800 290/10 RMK AO2
14837KMSN MSN20041128085013411/28/04 08:50:31  5-MIN KMSN 281450Z 28009KT 260V320 10SM CLR M01/M06 A3001 780 66 -800 280/09 260V320 RMK AO2 SLP172 T10061061 51041
14837KMSN MSN20041128085509511/28/04 08:55:31  5-MIN KMSN 281455Z 29008KT 10SM CLR M01/M06 A3002 780 69 -800 290/08 RMK AO2
14837KMSN MSN20041128090009511/28/04 09:00:31  5-MIN KMSN 281500Z 29009KT 10SM CLR M01/M06 A3002 770 69 -900 290/09 RMK AO2
14837KMSN MSN20041128090509511/28/04 09:05:31  5-MIN KMSN 281505Z 30009KT 10SM CLR M01/M06 A3002 770 66 -900 300/09 RMK AO2
14837KMSN MSN20041128091009411/28/04 09:10:31  5-MIN KMSN 281510Z 29010KT 10SM CLR 00/M06 A3002 770 63 -800 290/10 RMK AO2
14837KMSN MSN20041128091509411/28/04 09:15:31  5-MIN KMSN 281515Z 29007KT 10SM CLR 00/M06 A3002 770 63 -800 290/07 RMK AO2
14837KMSN MSN20041128092009411/28/04 09:20:31  5-MIN KMSN 281520Z 29008KT 10SM CLR 00/M06 A3003 770 63 -800 290/08 RMK AO2
14837KMSN MSN20041128092509411/28/04 09:25:31  5-MIN KMSN 281525Z 30009KT 10SM CLR 00/M06 A3003 760 63 -800 300/09 RMK AO2
14837KMSN MSN20041128093009411/28/04 09:30:31  5-MIN KMSN 281530Z 30010KT 10SM CLR 00/M06 A3004 760 63 -800 300/10 RMK AO2
14837KMSN MSN20041128093509411/28/04 09:35:31  5-MIN KMSN 281535Z 30008KT 10SM CLR 01/M06 A3004 750 61 -700 300/08 RMK AO2
14837KMSN MSN20041128094009411/28/04 09:40:31  5-MIN KMSN 281540Z 31009KT 10SM CLR 01/M06 A3004 750 61 -700 310/09 RMK AO2
14837KMSN MSN20041128094509411/28/04 09:45:31  5-MIN KMSN 281545Z 32006KT 10SM CLR 01/M06 A3004 750 61 -700 320/06 RMK AO2
14837KMSN MSN20041128095011111/28/04 09:50:31  5-MIN KMSN 281550Z 31007KT 10SM CLR 01/M06 A3005 750 61 -700 310/07 RMK AO2 SLP184 T00111056
14837KMSN MSN20041128095509411/28/04 09:55:31  5-MIN KMSN 281555Z 30008KT 10SM CLR 01/M06 A3005 740 61 -700 300/08 RMK AO2
14837KMSN MSN20041128100009411/28/04 10:00:31  5-MIN KMSN 281600Z 31009KT 10SM CLR 01/M06 A3005 740 61 -700 300/09 RMK AO2
14837KMSN MSN20041128100509411/28/04 10:05:31  5-MIN KMSN 281605Z 30009KT 10SM CLR 01/M06 A3005 750 61 -700 300/09 RMK AO2
14837KMSN MSN20041128101009411/28/04 10:10:31  5-MIN KMSN 281610Z 30010KT 10SM CLR 01/M06 A3005 740 58 -700 300/10 RMK AO2
14837KMSN MSN20041128101509411/28/04 10:15:31  5-MIN KMSN 281615Z 30009KT 10SM CLR 01/M06 A3005 740 58 -700 300/09 RMK AO2
14837KMSN MSN20041128102009411/28/04 10:20:31  5-MIN KMSN 281620Z 30011KT 10SM CLR 01/M06 A3005 740 58 -700 300/11 RMK AO2
14837KMSN MSN20041128102509411/28/04 10:25:31  5-MIN KMSN 281625Z 30009KT 10SM CLR 01/M06 A3006 740 58 -700 300/09 RMK AO2
14837KMSN MSN20041128103009411/28/04 10:30:31  5-MIN KMSN 281630Z 31007KT 10SM CLR 01/M06 A3006 730 58 -700 310/07 RMK AO2
14837KMSN MSN20041128103509411/28/04 10:35:31  5-MIN KMSN 281635Z 30007KT 10SM CLR 02/M06 A3007 730 59 -600 290/07 RMK AO2
14837KMSN MSN20041128104009411/28/04 10:40:31  5-MIN KMSN 281640Z 29007KT 10SM CLR 02/M06 A3007 730 59 -600 280/07 RMK AO2
14837KMSN MSN20041128104509411/28/04 10:45:31  5-MIN KMSN 281645Z 29009KT 10SM CLR 02/M06 A3007 730 59 -600 290/09 RMK AO2
14837KMSN MSN20041128105011111/28/04 10:50:31  5-MIN KMSN 281650Z 30008KT 10SM CLR 02/M06 A3007 730 59 -600 300/08 RMK AO2 SLP190 T00171056
14837KMSN MSN20041128105509411/28/04 10:55:31  5-MIN KMSN 281655Z 30007KT 10SM CLR 02/M06 A3007 730 56 -600 300/07 RMK AO2
14837KMSN MSN20041128110009411/28/04 11:00:31  5-MIN KMSN 281700Z 30008KT 10SM CLR 02/M06 A3007 730 56 -600 300/08 RMK AO2
14837KMSN MSN20041128110509411/28/04 11:05:31  5-MIN KMSN 281705Z 28009KT 10SM CLR 02/M06 A3007 730 56 -600 280/09 RMK AO2
14837KMSN MSN20041128111009411/28/04 11:10:31  5-MIN KMSN 281710Z 30009KT 10SM CLR 02/M06 A3007 730 56 -600 300/09 RMK AO2
14837KMSN MSN20041128111509411/28/04 11:15:31  5-MIN KMSN 281715Z 31008KT 10SM CLR 03/M05 A3007 730 56 -500 310/08 RMK AO2
14837KMSN MSN20041128112009411/28/04 11:20:31  5-MIN KMSN 281720Z 31008KT 10SM CLR 03/M05 A3007 730 56 -500 310/08 RMK AO2
14837KMSN MSN20041128112509411/28/04 11:25:31  5-MIN KMSN 281725Z 30008KT 10SM CLR 03/M06 A3007 730 52 -500 300/08 RMK AO2
14837KMSN MSN20041128113009411/28/04 11:30:31  5-MIN KMSN 281730Z 29006KT 10SM CLR 03/M05 A3007 730 56 -500 290/06 RMK AO2
14837KMSN MSN20041128113509411/28/04 11:35:31  5-MIN KMSN 281735Z 29009KT 10SM CLR 03/M05 A3007 730 54 -400 290/09 RMK AO2
14837KMSN MSN20041128114009411/28/04 11:40:31  5-MIN KMSN 281740Z 28007KT 10SM CLR 03/M06 A3007 720 52 -400 280/07 RMK AO2
14837KMSN MSN20041128114509411/28/04 11:45:31  5-MIN KMSN 281745Z 29009KT 10SM CLR 03/M05 A3008 720 54 -400 290/09 RMK AO2
14837KMSN MSN20041128115013511/28/04 11:50:31  5-MIN KMSN 281750Z 30005G14KT 10SM CLR 03/M06 A3008 720 50 -400 300/05G14 RMK AO2 SLP193 T00331061 10033 21017 51032
14837KMSN MSN20041128115509411/28/04 11:55:31  5-MIN KMSN 281755Z 27007KT 10SM CLR 03/M04 A3008 720 57 -400 270/07 RMK AO2
14837KMSN MSN20041128120009411/28/04 12:00:31  5-MIN KMSN 281800Z 31007KT 10SM CLR 04/M05 A3008 720 52 -400 310/07 RMK AO2
14837KMSN MSN20041128120509411/28/04 12:05:31  5-MIN KMSN 281805Z 28007KT 10SM CLR 04/M06 A3008 720 50 -400 280/07 RMK AO2
14837KMSN MSN20041128121009411/28/04 12:10:31  5-MIN KMSN 281810Z 28008KT 10SM CLR 04/M06 A3008 710 50 -400 280/08 RMK AO2
14837KMSN MSN20041128121509411/28/04 12:15:31  5-MIN KMSN 281815Z 28008KT 10SM CLR 04/M06 A3008 710 48 -400 280/08 RMK AO2
14837KMSN MSN20041128122009411/28/04 12:20:31  5-MIN KMSN 281820Z 30008KT 10SM CLR 04/M06 A3009 710 50 -400 300/08 RMK AO2
14837KMSN MSN20041128122509411/28/04 12:25:31  5-MIN KMSN 281825Z 26007KT 10SM CLR 04/M06 A3009 700 50 -400 260/07 RMK AO2
14837KMSN MSN20041128123011011/28/04 12:30:31  5-MIN KMSN 281830Z 29009KT 240V320 10SM CLR 04/M06 A3009 700 50 -400 290/09 240V320 RMK AO2
14837KMSN MSN20041128123509411/28/04 12:35:31  5-MIN KMSN 281835Z 29008KT 10SM CLR 04/M06 A3009 710 50 -400 290/08 RMK AO2
14837KMSN MSN20041128124009411/28/04 12:40:31  5-MIN KMSN 281840Z 30008KT 10SM CLR 04/M06 A3009 700 48 -400 300/08 RMK AO2
14837KMSN MSN20041128124509411/28/04 12:45:31  5-MIN KMSN 281845Z 29008KT 10SM CLR 04/M05 A3010 700 52 -400 280/08 RMK AO2
14837KMSN MSN20041128125011111/28/04 12:50:31  5-MIN KMSN 281850Z 29008KT 10SM CLR 04/M06 A3010 700 50 -400 290/08 RMK AO2 SLP200 T00391056
14837KMSN MSN20041128125511011/28/04 12:55:31  5-MIN KMSN 281855Z 31007KT 270V340 10SM CLR 04/M06 A3010 700 50 -400 300/07 270V340 RMK AO2
14837KMSN MSN20041128130009411/28/04 13:00:31  5-MIN KMSN 281900Z 29008KT 10SM CLR 04/M06 A3010 700 50 -400 290/08 RMK AO2
14837KMSN MSN20041128130509411/28/04 13:05:31  5-MIN KMSN 281905Z 29009KT 10SM CLR 04/M06 A3010 700 50 -400 290/09 RMK AO2
14837KMSN MSN20041128131009411/28/04 13:10:31  5-MIN KMSN 281910Z 28007KT 10SM CLR 04/M06 A3010 700 50 -400 280/07 RMK AO2
14837KMSN MSN20041128131509411/28/04 13:15:31  5-MIN KMSN 281915Z 29007KT 10SM CLR 04/M06 A3011 690 50 -400 290/07 RMK AO2
14837KMSN MSN20041128132009411/28/04 13:20:31  5-MIN KMSN 281920Z VRB06KT 10SM CLR 04/M04 A3011 690 52 -300 VRB/06 RMK AO2
14837KMSN MSN20041128132509411/28/04 13:25:31  5-MIN KMSN 281925Z 30007KT 10SM CLR 05/M05 A3010 700 48 -300 300/07 RMK AO2
14837KMSN MSN20041128133009411/28/04 13:30:31  5-MIN KMSN 281930Z 31007KT 10SM CLR 05/M05 A3010 700 48 -300 310/07 RMK AO2
14837KMSN MSN20041128133509411/28/04 13:35:31  5-MIN KMSN 281935Z 32009KT 10SM CLR 05/M06 A3010 690 46 -300 320/09 RMK AO2
14837KMSN MSN20041128134009411/28/04 13:40:31  5-MIN KMSN 281940Z 32008KT 10SM CLR 04/M06 A3011 690 48 -300 320/08 RMK AO2
14837KMSN MSN20041128134509411/28/04 13:45:31  5-MIN KMSN 281945Z VRB06KT 10SM CLR 04/M06 A3011 690 48 -300 VRB/06 RMK AO2
14837KMSN MSN20041128135011111/28/04 13:50:31  5-MIN KMSN 281950Z 28007KT 10SM CLR 04/M05 A3011 680 52 -400 280/07 RMK AO2 SLP206 T00391050
14837KMSN MSN20041128135509411/28/04 13:55:31  5-MIN KMSN 281955Z 28007KT 10SM CLR 04/M06 A3012 680 48 -400 280/07 RMK AO2
14837KMSN MSN20041128140009411/28/04 14:00:31  5-MIN KMSN 282000Z 28007KT 10SM CLR 04/M06 A3012 680 50 -400 280/07 RMK AO2
14837KMSN MSN20041128140511011/28/04 14:05:31  5-MIN KMSN 282005Z 28007KT 220V320 10SM CLR 04/M06 A3012 680 50 -400 270/07 220V320 RMK AO2
14837KMSN MSN20041128141011011/28/04 14:10:31  5-MIN KMSN 282010Z 30007KT 260V320 10SM CLR 04/M06 A3013 670 48 -400 300/07 260V320 RMK AO2
14837KMSN MSN20041128141509411/28/04 14:15:31  5-MIN KMSN 282015Z 31007KT 10SM CLR 04/M06 A3012 680 46 -300 310/07 RMK AO2
14837KMSN MSN20041128142009411/28/04 14:20:31  5-MIN KMSN 282020Z 31009KT 10SM CLR 04/M06 A3013 680 46 -300 310/09 RMK AO2
14837KMSN MSN20041128142509411/28/04 14:25:31  5-MIN KMSN 282025Z 30007KT 10SM CLR 05/M07 A3013 670 42 -300 300/07 RMK AO2
14837KMSN MSN20041128143009411/28/04 14:30:31  5-MIN KMSN 282030Z 26008KT 10SM CLR 04/M06 A3013 670 46 -400 260/08 RMK AO2
14837KMSN MSN20041128143509411/28/04 14:35:31  5-MIN KMSN 282035Z VRB04KT 10SM CLR 04/M06 A3013 670 48 -400 VRB/04 RMK AO2
14837KMSN MSN20041128144009411/28/04 14:40:31  5-MIN KMSN 282040Z 27007KT 10SM CLR 04/M06 A3013 670 46 -400 270/07 RMK AO2
14837KMSN MSN20041128144509411/28/04 14:45:31  5-MIN KMSN 282045Z 29007KT 10SM CLR 04/M06 A3013 670 46 -400 290/07 RMK AO2
14837KMSN MSN20041128145011711/28/04 14:50:31  5-MIN KMSN 282050Z 29006KT 10SM CLR 05/M06 A3013 670 44 -300 290/06 RMK AO2 SLP212 T00501061 51021
14837KMSN MSN20041128145509411/28/04 14:55:31  5-MIN KMSN 282055Z 31006KT 10SM CLR 05/M06 A3013 670 44 -300 310/06 RMK AO2
14837KMSN MSN20041128150009411/28/04 15:00:31  5-MIN KMSN 282100Z 28008KT 10SM CLR 05/M05 A3014 660 48 -300 280/08 RMK AO2
14837KMSN MSN20041128150509411/28/04 15:05:31  5-MIN KMSN 282105Z 30005KT 10SM CLR 04/M06 A3014 670 46 -400 300/05 RMK AO2
14837KMSN MSN20041128151009411/28/04 15:10:31  5-MIN KMSN 282110Z 30005KT 10SM CLR 04/M06 A3014 660 48 -400 300/05 RMK AO2
14837KMSN MSN20041128151509411/28/04 15:15:31  5-MIN KMSN 282115Z 29007KT 10SM CLR 04/M06 A3014 660 48 -400 280/07 RMK AO2
14837KMSN MSN20041128152009411/28/04 15:20:31  5-MIN KMSN 282120Z 30006KT 10SM CLR 04/M07 A3014 660 46 -400 300/06 RMK AO2
14837KMSN MSN20041128152509411/28/04 15:25:31  5-MIN KMSN 282125Z 29004KT 10SM CLR 04/M06 A3014 660 48 -400 290/04 RMK AO2
14837KMSN MSN20041128153009411/28/04 15:30:31  5-MIN KMSN 282130Z 30004KT 10SM CLR 03/M07 A3014 660 48 -500 300/04 RMK AO2
14837KMSN MSN20041128153509411/28/04 15:35:31  5-MIN KMSN 282135Z VRB04KT 10SM CLR 03/M06 A3014 660 50 -500 VRB/04 RMK AO2
14837KMSN MSN20041128154009411/28/04 15:40:31  5-MIN KMSN 282140Z 31003KT 10SM CLR 03/M06 A3015 660 50 -500 310/03 RMK AO2
14837KMSN MSN20041128154509411/28/04 15:45:31  5-MIN KMSN 282145Z 00000KT 10SM CLR 03/M07 A3014 660 48 -500 000/00 RMK AO2
14837KMSN MSN20041128155011111/28/04 15:50:31  5-MIN KMSN 282150Z 31003KT 10SM CLR 03/M06 A3015 660 50 -500 310/03 RMK AO2 SLP217 T00331061
14837KMSN MSN20041128155509411/28/04 15:55:31  5-MIN KMSN 282155Z 31003KT 10SM CLR 03/M06 A3015 660 50 -500 310/03 RMK AO2
14837KMSN MSN20041128160009411/28/04 16:00:31  5-MIN KMSN 282200Z 34003KT 10SM CLR 03/M06 A3015 660 50 -500 340/03 RMK AO2
14837KMSN MSN20041128160509411/28/04 16:05:31  5-MIN KMSN 282205Z 33003KT 10SM CLR 03/M06 A3015 660 50 -500 330/03 RMK AO2
14837KMSN MSN20041128161009411/28/04 16:10:31  5-MIN KMSN 282210Z 31003KT 10SM CLR 03/M06 A3015 650 52 -600 310/03 RMK AO2
14837KMSN MSN20041128161509411/28/04 16:15:31  5-MIN KMSN 282215Z 32004KT 10SM CLR 03/M06 A3015 660 54 -600 310/04 RMK AO2
14837KMSN MSN20041128162009411/28/04 16:20:31  5-MIN KMSN 282220Z 31003KT 10SM CLR 02/M06 A3015 650 56 -700 310/03 RMK AO2
14837KMSN MSN20041128162509411/28/04 16:25:31  5-MIN KMSN 282225Z 00000KT 10SM CLR 03/M06 A3015 650 54 -600 000/00 RMK AO2
14837KMSN MSN20041128163009411/28/04 16:30:31  5-MIN KMSN 282230Z 00000KT 10SM CLR 03/M06 A3015 650 52 -600 000/00 RMK AO2
14837KMSN MSN20041128163509411/28/04 16:35:31  5-MIN KMSN 282235Z 00000KT 10SM CLR 02/M06 A3016 650 56 -700 000/00 RMK AO2
14837KMSN MSN20041128164009411/28/04 16:40:31  5-MIN KMSN 282240Z 00000KT 10SM CLR 02/M05 A3016 640 59 -700 000/00 RMK AO2
14837KMSN MSN20041128164509411/28/04 16:45:31  5-MIN KMSN 282245Z 00000KT 10SM CLR 02/M05 A3016 640 59 -700 000/00 RMK AO2
14837KMSN MSN20041128165011111/28/04 16:50:31  5-MIN KMSN 282250Z 00000KT 10SM CLR 02/M04 A3016 640 66 -700 000/00 RMK AO2 SLP222 T00171039
14837KMSN MSN20041128165509411/28/04 16:55:31  5-MIN KMSN 282255Z 00000KT 10SM CLR 01/M04 A3016 640 66 -800 000/00 RMK AO2
14837KMSN MSN20041128170009411/28/04 17:00:31  5-MIN KMSN 282300Z 00000KT 10SM CLR 01/M04 A3016 640 69 -800 000/00 RMK AO2
14837KMSN MSN20041128170509411/28/04 17:05:31  5-MIN KMSN 282305Z 31003KT 10SM CLR 01/M04 A3016 640 72 -900 310/03 RMK AO2
14837KMSN MSN20041128171009411/28/04 17:10:31  5-MIN KMSN 282310Z 00000KT 10SM CLR 01/M04 A3016 640 66 -800 000/00 RMK AO2
14837KMSN MSN20041128171509411/28/04 17:15:31  5-MIN KMSN 282315Z 00000KT 10SM CLR 01/M04 A3016 640 69 -800 000/00 RMK AO2
14837KMSN MSN20041128172009411/28/04 17:20:31  5-MIN KMSN 282320Z 00000KT 10SM CLR 01/M04 A3016 640 69 -800 000/00 RMK AO2
14837KMSN MSN20041128172509411/28/04 17:25:31  5-MIN KMSN 282325Z 00000KT 10SM CLR 01/M04 A3017 640 72 -900 000/00 RMK AO2
14837KMSN MSN20041128173009411/28/04 17:30:31  5-MIN KMSN 282330Z 00000KT 10SM CLR 01/M04 A3017 640 72 -900 000/00 RMK AO2
14837KMSN MSN20041128173509411/28/04 17:35:31  5-MIN KMSN 282335Z 00000KT 10SM CLR 01/M04 A3017 640 69 -800 000/00 RMK AO2
14837KMSN MSN20041128174009411/28/04 17:40:31  5-MIN KMSN 282340Z 00000KT 10SM CLR 01/M04 A3017 630 69 -900 000/00 RMK AO2
14837KMSN MSN20041128174509411/28/04 17:45:31  5-MIN KMSN 282345Z 00000KT 10SM CLR 01/M05 A3017 630 66 -900 000/00 RMK AO2
14837KMSN MSN20041128175013011/28/04 17:50:31  5-MIN KMSN 282350Z 00000KT 10SM CLR 00/M04 A3018 630 75 -1000 000/00 RMK AO2 SLP228 T00001039 10050 20000 51018
14837KMSN MSN20041128175509611/28/04 17:55:31  5-MIN KMSN 282355Z 00000KT 10SM CLR M01/M04 A3018 630 75 -1000 000/00 RMK AO2
14837KMSN MSN20041128180009511/28/04 18:00:31  5-MIN KMSN 290000Z 00000KT 10SM CLR 00/M03 A3018 620 78 -1000 000/00 RMK AO2
14837KMSN MSN20041128180509511/28/04 18:05:31  5-MIN KMSN 290005Z 00000KT 10SM CLR 00/M04 A3018 620 75 -1000 000/00 RMK AO2
14837KMSN MSN20041128181009511/28/04 18:10:31  5-MIN KMSN 290010Z 00000KT 10SM CLR 00/M03 A3019 620 78 -1000 000/00 RMK AO2
14837KMSN MSN20041128181509611/28/04 18:15:31  5-MIN KMSN 290015Z 00000KT 10SM CLR M01/M03 A3019 620 81 -1000 000/00 RMK AO2
14837KMSN MSN20041128182009511/28/04 18:20:31  5-MIN KMSN 290020Z 00000KT 10SM CLR 00/M04 A3019 620 72 -1000 000/00 RMK AO2
14837KMSN MSN20041128182509511/28/04 18:25:31  5-MIN KMSN 290025Z 00000KT 10SM CLR 00/M04 A3019 620 72 -1000 000/00 RMK AO2
14837KMSN MSN20041128183009511/28/04 18:30:31  5-MIN KMSN 290030Z 01003KT 10SM CLR 00/M04 A3019 610 75 -1000 010/03 RMK AO2
14837KMSN MSN20041128183509511/28/04 18:35:31  5-MIN KMSN 290035Z 01003KT 10SM CLR 00/M04 A3019 610 75 -1000 010/03 RMK AO2
14837KMSN MSN20041128184009511/28/04 18:40:31  5-MIN KMSN 290040Z 00000KT 10SM CLR 00/M04 A3019 610 72 -1000 000/00 RMK AO2
14837KMSN MSN20041128184509611/28/04 18:45:31  5-MIN KMSN 290045Z 00000KT 10SM CLR M01/M04 A3019 610 78 -1100 000/00 RMK AO2
14837KMSN MSN20041128185011311/28/04 18:50:31  5-MIN KMSN 290050Z 00000KT 10SM CLR M01/M03 A3019 620 81 -1000 000/00 RMK AO2 SLP234 T10061033
14837KMSN MSN20041128185509511/28/04 18:55:31  5-MIN KMSN 290055Z 00000KT 10SM CLR 00/M04 A3019 620 75 -1000 000/00 RMK AO2
14837KMSN MSN20041128190009611/28/04 19:00:31  5-MIN KMSN 290100Z 00000KT 10SM CLR M01/M04 A3019 620 78 -1000 000/00 RMK AO2
14837KMSN MSN20041128190509611/28/04 19:05:31  5-MIN KMSN 290105Z 36003KT 10SM CLR M01/M04 A3019 620 81 -1100 360/03 RMK AO2
14837KMSN MSN20041128191009611/28/04 19:10:31  5-MIN KMSN 290110Z 00000KT 10SM CLR M01/M03 A3019 610 81 -1000 000/00 RMK AO2
14837KMSN MSN20041128191509611/28/04 19:15:31  5-MIN KMSN 290115Z 00000KT 10SM CLR M01/M03 A3019 610 85 -1100 000/00 RMK AO2
14837KMSN MSN20041128192009611/28/04 19:20:31  5-MIN KMSN 290120Z 00000KT 10SM CLR M01/M03 A3019 610 85 -1100 000/00 RMK AO2
14837KMSN MSN20041128192509611/28/04 19:25:31  5-MIN KMSN 290125Z 00000KT 10SM CLR M01/M03 A3019 610 81 -1100 000/00 RMK AO2
14837KMSN MSN20041128193009511/28/04 19:30:31  5-MIN KMSN 290130Z 00000KT 10SM CLR 00/M04 A3019 610 72 -1000 000/00 RMK AO2
14837KMSN MSN20041128193509611/28/04 19:35:31  5-MIN KMSN 290135Z 00000KT 10SM CLR M01/M03 A3019 610 81 -1100 000/00 RMK AO2
14837KMSN MSN20041128194009611/28/04 19:40:31  5-MIN KMSN 290140Z 00000KT 10SM CLR M01/M04 A3019 610 78 -1100 000/00 RMK AO2
14837KMSN MSN20041128194509511/28/04 19:45:31  5-MIN KMSN 290145Z 00000KT 10SM CLR 00/M04 A3019 610 75 -1000 000/00 RMK AO2
14837KMSN MSN20041128195011211/28/04 19:50:31  5-MIN KMSN 290150Z 00000KT 10SM CLR 00/M04 A3019 620 72 -1000 000/00 RMK AO2 SLP234 T00001044
14837KMSN MSN20041128195509511/28/04 19:55:31  5-MIN KMSN 290155Z 00000KT 10SM CLR 00/M04 A3019 610 75 -1000 000/00 RMK AO2
14837KMSN MSN20041128200009611/28/04 20:00:31  5-MIN KMSN 290200Z 00000KT 10SM CLR M01/M05 A3019 610 72 -1100 000/00 RMK AO2
14837KMSN MSN20041128200509611/28/04 20:05:31  5-MIN KMSN 290205Z 00000KT 10SM CLR M01/M03 A3019 610 88 -1100 000/00 RMK AO2
14837KMSN MSN20041128201009611/28/04 20:10:31  5-MIN KMSN 290210Z 00000KT 10SM CLR M01/M03 A3019 620 81 -1000 000/00 RMK AO2
14837KMSN MSN20041128201509611/28/04 20:15:31  5-MIN KMSN 290215Z 00000KT 10SM CLR M01/M04 A3019 610 75 -1100 000/00 RMK AO2
14837KMSN MSN20041128202009611/28/04 20:20:31  5-MIN KMSN 290220Z 00000KT 10SM CLR M01/M04 A3019 610 78 -1100 000/00 RMK AO2
14837KMSN MSN20041128202509611/28/04 20:25:31  5-MIN KMSN 290225Z 00000KT 10SM CLR M01/M04 A3020 610 78 -1100 000/00 RMK AO2
14837KMSN MSN20041128203009611/28/04 20:30:31  5-MIN KMSN 290230Z 00000KT 10SM CLR M01/M03 A3020 610 85 -1100 000/00 RMK AO2
14837KMSN MSN20041128203509611/28/04 20:35:31  5-MIN KMSN 290235Z 00000KT 10SM CLR M01/M03 A3020 610 85 -1100 000/00 RMK AO2
14837KMSN MSN20041128204009611/28/04 20:40:31  5-MIN KMSN 290240Z 00000KT 10SM CLR M01/M03 A3020 600 85 -1100 000/00 RMK AO2
14837KMSN MSN20041128204509611/28/04 20:45:31  5-MIN KMSN 290245Z 00000KT 10SM CLR M01/M03 A3020 600 85 -1100 000/00 RMK AO2
14837KMSN MSN20041128205011911/28/04 20:50:31  5-MIN KMSN 290250Z 00000KT 10SM CLR M01/M03 A3020 600 81 -1100 000/00 RMK AO2 SLP238 T10061033 53014
14837KMSN MSN20041128205509611/28/04 20:55:31  5-MIN KMSN 290255Z 00000KT 10SM CLR M01/M04 A3020 600 78 -1100 000/00 RMK AO2
14837KMSN MSN20041128210009611/28/04 21:00:31  5-MIN KMSN 290300Z 00000KT 10SM CLR M01/M04 A3021 600 78 -1100 000/00 RMK AO2
14837KMSN MSN20041128210509911/28/04 21:05:31  5-MIN KMSN 290305Z 00000KT 10SM FEW110 M01/M04 A3021 600 78 -1100 000/00 RMK AO2
14837KMSN MSN20041128211009911/28/04 21:10:31  5-MIN KMSN 290310Z 00000KT 10SM FEW110 M01/M03 A3021 600 85 -1100 000/00 RMK AO2
14837KMSN MSN20041128211509911/28/04 21:15:31  5-MIN KMSN 290315Z 00000KT 10SM SCT110 M01/M03 A3021 600 85 -1100 000/00 RMK AO2
14837KMSN MSN20041128212009911/28/04 21:20:31  5-MIN KMSN 290320Z 00000KT 10SM SCT110 M01/M03 A3021 600 85 -1100 000/00 RMK AO2
14837KMSN MSN20041128212509911/28/04 21:25:31  5-MIN KMSN 290325Z 00000KT 10SM SCT110 M01/M03 A3021 590 81 -1100 000/00 RMK AO2
14837KMSN MSN20041128213009911/28/04 21:30:31  5-MIN KMSN 290330Z 00000KT 10SM FEW110 M01/M03 A3021 600 85 -1100 000/00 RMK AO2
14837KMSN MSN20041128213509911/28/04 21:35:31  5-MIN KMSN 290335Z 00000KT 10SM FEW110 M01/M03 A3021 590 85 -1100 000/00 RMK AO2
14837KMSN MSN20041128214009911/28/04 21:40:31  5-MIN KMSN 290340Z 00000KT 10SM SCT110 M01/M04 A3022 590 78 -1100 000/00 RMK AO2
14837KMSN MSN20041128214509911/28/04 21:45:31  5-MIN KMSN 290345Z 00000KT 10SM SCT120 M01/M04 A3022 590 75 -1100 000/00 RMK AO2
14837KMSN MSN20041128215011611/28/04 21:50:31  5-MIN KMSN 290350Z 00000KT 10SM SCT120 M01/M04 A3022 590 81 -1200 000/00 RMK AO2 SLP244 T10111039
14837KMSN MSN20041128215509911/28/04 21:55:31  5-MIN KMSN 290355Z 00000KT 10SM BKN120 M01/M04 A3022 580 81 -1200 000/00 RMK AO2
14837KMSN MSN20041128220009911/28/04 22:00:31  5-MIN KMSN 290400Z 00000KT 10SM BKN110 M01/M04 A3022 580 81 -1200 000/00 RMK AO2
14837KMSN MSN20041128220509911/28/04 22:05:31  5-MIN KMSN 290405Z 00000KT 10SM SCT120 M01/M04 A3023 580 81 -1200 000/00 RMK AO2
14837KMSN MSN20041128221009911/28/04 22:10:31  5-MIN KMSN 290410Z 00000KT 10SM BKN120 M01/M03 A3023 580 81 -1100 000/00 RMK AO2
14837KMSN MSN20041128221509911/28/04 22:15:31  5-MIN KMSN 290415Z 00000KT 10SM BKN120 M01/M03 A3023 580 81 -1100 000/00 RMK AO2
14837KMSN MSN20041128222009911/28/04 22:20:31  5-MIN KMSN 290420Z 00000KT 10SM BKN120 M01/M03 A3023 580 88 -1200 000/00 RMK AO2
14837KMSN MSN20041128222509911/28/04 22:25:31  5-MIN KMSN 290425Z 00000KT 10SM SCT120 M01/M03 A3023 580 85 -1200 000/00 RMK AO2
14837KMSN MSN20041128223009911/28/04 22:30:31  5-MIN KMSN 290430Z 00000KT 10SM SCT120 M01/M04 A3023 580 78 -1100 000/00 RMK AO2
14837KMSN MSN20041128223509911/28/04 22:35:31  5-MIN KMSN 290435Z 00000KT 10SM SCT110 M01/M04 A3023 580 78 -1100 000/00 RMK AO2
14837KMSN MSN20041128224009911/28/04 22:40:31  5-MIN KMSN 290440Z 00000KT 10SM SCT110 M01/M03 A3023 580 81 -1100 000/00 RMK AO2
14837KMSN MSN20041128224510611/28/04 22:45:31  5-MIN KMSN 290445Z 00000KT 10SM SCT095 BKN120 M01/M03 A3023 580 85 -1200 000/00 RMK AO2
14837KMSN MSN20041128225011611/28/04 22:50:31  5-MIN KMSN 290450Z 00000KT 10SM BKN090 M01/M03 A3023 580 81 -1100 000/00 RMK AO2 SLP247 T10061033
14837KMSN MSN20041128225509911/28/04 22:55:31  5-MIN KMSN 290455Z 00000KT 10SM BKN090 M01/M04 A3023 580 81 -1200 000/00 RMK AO2
14837KMSN MSN20041128230009911/28/04 23:00:31  5-MIN KMSN 290500Z 00000KT 10SM BKN090 M01/M03 A3023 580 85 -1200 000/00 RMK AO2
14837KMSN MSN20041128230509911/28/04 23:05:31  5-MIN KMSN 290505Z 00000KT 10SM BKN090 M01/M03 A3023 580 85 -1200 000/00 RMK AO2
14837KMSN MSN20041128231009911/28/04 23:10:31  5-MIN KMSN 290510Z 00000KT 10SM BKN090 M01/M03 A3023 580 85 -1200 000/00 RMK AO2
14837KMSN MSN20041128231509911/28/04 23:15:31  5-MIN KMSN 290515Z 00000KT 10SM SCT090 M01/M03 A3023 580 85 -1200 000/00 RMK AO2
14837KMSN MSN20041128232009911/28/04 23:20:31  5-MIN KMSN 290520Z 00000KT 10SM SCT100 M01/M03 A3023 570 85 -1200 000/00 RMK AO2
14837KMSN MSN20041128232509911/28/04 23:25:31  5-MIN KMSN 290525Z 00000KT 10SM BKN100 M01/M04 A3024 570 78 -1100 000/00 RMK AO2
14837KMSN MSN20041128233009911/28/04 23:30:31  5-MIN KMSN 290530Z 00000KT 10SM BKN110 M01/M04 A3024 570 78 -1100 000/00 RMK AO2
14837KMSN MSN20041128233509911/28/04 23:35:31  5-MIN KMSN 290535Z 30003KT 10SM BKN100 M01/M03 A3024 570 85 -1200 300/03 RMK AO2
14837KMSN MSN20041128234009911/28/04 23:40:31  5-MIN KMSN 290540Z 30003KT 10SM BKN100 M01/M03 A3024 570 85 -1200 300/03 RMK AO2
14837KMSN MSN20041128234509911/28/04 23:45:31  5-MIN KMSN 290545Z 00000KT 10SM BKN100 M01/M03 A3024 570 85 -1200 000/00 RMK AO2
14837KMSN MSN20041128235014411/28/04 23:50:31  5-MIN KMSN 290550Z 00000KT 10SM BKN100 M01/M03 A3024 570 81 -1100 000/00 RMK AO2 SLP250 T10061033 10006 21011 400501017 51009
14837KMSN MSN20041128235509911/28/04 23:55:31  5-MIN KMSN 290555Z 00000KT 10SM BKN095 M01/M03 A3024 570 81 -1100 000/00 RMK AO2
14837KMSN MSN20041129000010611/29/04 00:00:31  5-MIN KMSN 290600Z 00000KT 10SM BKN090 BKN110 M01/M03 A3024 570 81 -1100 000/00 RMK AO2
14837KMSN MSN20041129000509911/29/04 00:05:31  5-MIN KMSN 290605Z 00000KT 10SM BKN100 M01/M03 A3025 560 81 -1100 000/00 RMK AO2
14837KMSN MSN20041129001009911/29/04 00:10:31  5-MIN KMSN 290610Z 00000KT 10SM BKN100 M01/M03 A3025 560 81 -1100 000/00 RMK AO2
14837KMSN MSN20041129001509911/29/04 00:15:31  5-MIN KMSN 290615Z 00000KT 10SM BKN100 M01/M03 A3025 560 81 -1100 000/00 RMK AO2
14837KMSN MSN20041129002009911/29/04 00:20:31  5-MIN KMSN 290620Z 00000KT 10SM BKN100 M01/M03 A3025 560 85 -1100 000/00 RMK AO2
14837KMSN MSN20041129002509911/29/04 00:25:31  5-MIN KMSN 290625Z 00000KT 10SM SCT100 M01/M03 A3025 560 81 -1100 000/00 RMK AO2
14837KMSN MSN20041129003009911/29/04 00:30:31  5-MIN KMSN 290630Z 00000KT 10SM SCT100 M01/M04 A3025 560 78 -1100 000/00 RMK AO2
14837KMSN MSN20041129003509911/29/04 00:35:31  5-MIN KMSN 290635Z 00000KT 10SM SCT100 M01/M04 A3025 560 78 -1100 000/00 RMK AO2
14837KMSN MSN20041129004009911/29/04 00:40:31  5-MIN KMSN 290640Z 00000KT 10SM SCT100 M01/M03 A3025 560 85 -1100 000/00 RMK AO2
14837KMSN MSN20041129004509911/29/04 00:45:31  5-MIN KMSN 290645Z 00000KT 10SM BKN100 M01/M03 A3024 570 81 -1100 000/00 RMK AO2
14837KMSN MSN20041129005011611/29/04 00:50:31  5-MIN KMSN 290650Z 00000KT 10SM BKN095 M01/M04 A3024 570 78 -1100 000/00 RMK AO2 SLP251 T10061039
14837KMSN MSN20041129005509911/29/04 00:55:31  5-MIN KMSN 290655Z 00000KT 10SM BKN095 M01/M03 A3024 570 85 -1200 000/00 RMK AO2
14837KMSN MSN20041129010009911/29/04 01:00:31  5-MIN KMSN 290700Z 00000KT 10SM BKN095 M01/M03 A3025 560 85 -1200 000/00 RMK AO2
14837KMSN MSN20041129010509911/29/04 01:05:31  5-MIN KMSN 290705Z 00000KT 10SM SCT095 M01/M03 A3024 570 85 -1200 000/00 RMK AO2
14837KMSN MSN20041129011009911/29/04 01:10:31  5-MIN KMSN 290710Z 00000KT 10SM SCT095 M01/M03 A3024 570 85 -1200 000/00 RMK AO2
14837KMSN MSN20041129011509911/29/04 01:15:31  5-MIN KMSN 290715Z 00000KT 10SM FEW095 M01/M03 A3024 570 81 -1100 000/00 RMK AO2
14837KMSN MSN20041129012009911/29/04 01:20:31  5-MIN KMSN 290720Z 00000KT 10SM FEW095 M01/M03 A3024 570 85 -1100 000/00 RMK AO2
14837KMSN MSN20041129012509611/29/04 01:25:31  5-MIN KMSN 290725Z 00000KT 10SM CLR M01/M03 A3024 570 85 -1200 000/00 RMK AO2
14837KMSN MSN20041129013009611/29/04 01:30:31  5-MIN KMSN 290730Z 00000KT 10SM CLR M01/M03 A3024 570 81 -1100 000/00 RMK AO2
14837KMSN MSN20041129013509911/29/04 01:35:31  5-MIN KMSN 290735Z 00000KT 10SM FEW090 M01/M03 A3024 570 81 -1100 000/00 RMK AO2
14837KMSN MSN20041129014009911/29/04 01:40:31  5-MIN KMSN 290740Z 00000KT 10SM SCT090 M01/M03 A3024 570 81 -1100 000/00 RMK AO2
14837KMSN MSN20041129014510611/29/04 01:45:31  5-MIN KMSN 290745Z 00000KT 10SM BKN090 BKN110 M01/M03 A3024 570 88 -1200 000/00 RMK AO2
14837KMSN MSN20041129015012311/29/04 01:50:31  5-MIN KMSN 290750Z 00000KT 10SM BKN090 BKN110 M01/M03 A3024 570 85 -1100 000/00 RMK AO2 SLP250 T10061028
14837KMSN MSN20041129015509911/29/04 01:55:31  5-MIN KMSN 290755Z 00000KT 10SM BKN090 M01/M03 A3024 570 85 -1100 000/00 RMK AO2
14837KMSN MSN20041129020009911/29/04 02:00:31  5-MIN KMSN 290800Z 00000KT 10SM OVC090 M01/M03 A3024 570 85 -1100 000/00 RMK AO2
14837KMSN MSN20041129020509911/29/04 02:05:31  5-MIN KMSN 290805Z 00000KT 10SM OVC085 M01/M03 A3024 570 88 -1200 000/00 RMK AO2
14837KMSN MSN20041129021010611/29/04 02:10:31  5-MIN KMSN 290810Z 00000KT 10SM BKN080 OVC090 M01/M03 A3024 570 88 -1200 000/00 RMK AO2
14837KMSN MSN20041129021510611/29/04 02:15:31  5-MIN KMSN 290815Z 00000KT 10SM BKN080 OVC090 M01/M03 A3024 570 88 -1200 000/00 RMK AO2
14837KMSN MSN20041129022009911/29/04 02:20:31  5-MIN KMSN 290820Z 00000KT 10SM OVC080 M01/M03 A3024 570 88 -1200 000/00 RMK AO2
14837KMSN MSN20041129022509911/29/04 02:25:31  5-MIN KMSN 290825Z 00000KT 10SM OVC080 M01/M03 A3025 560 88 -1200 000/00 RMK AO2
14837KMSN MSN20041129023009911/29/04 02:30:31  5-MIN KMSN 290830Z 00000KT 10SM OVC075 M01/M03 A3024 570 85 -1100 000/00 RMK AO2
14837KMSN MSN20041129023509911/29/04 02:35:31  5-MIN KMSN 290835Z 00000KT 10SM OVC075 M01/M03 A3024 570 85 -1100 000/00 RMK AO2
14837KMSN MSN20041129024010611/29/04 02:40:31  5-MIN KMSN 290840Z 00000KT 10SM BKN075 OVC090 M01/M03 A3025 570 85 -1100 000/00 RMK AO2
14837KMSN MSN20041129024510611/29/04 02:45:31  5-MIN KMSN 290845Z 00000KT 10SM BKN075 OVC090 M01/M03 A3024 570 85 -1100 000/00 RMK AO2
14837KMSN MSN20041129025012911/29/04 02:50:31  5-MIN KMSN 290850Z 00000KT 10SM SCT075 OVC090 M01/M03 A3025 560 85 -1100 000/00 RMK AO2 SLP251 T10061028 51013
14837KMSN MSN20041129025510611/29/04 02:55:31  5-MIN KMSN 290855Z 00000KT 10SM SCT075 OVC090 M01/M03 A3024 570 85 -1100 000/00 RMK AO2
14837KMSN MSN20041129030009911/29/04 03:00:31  5-MIN KMSN 290900Z 00000KT 10SM OVC085 M01/M03 A3024 570 85 -1100 000/00 RMK AO2
14837KMSN MSN20041129030509911/29/04 03:05:31  5-MIN KMSN 290905Z 00000KT 10SM OVC090 M01/M03 A3024 570 85 -1100 000/00 RMK AO2
14837KMSN MSN20041129031009911/29/04 03:10:31  5-MIN KMSN 290910Z 00000KT 10SM OVC085 M01/M03 A3025 570 81 -1100 000/00 RMK AO2
14837KMSN MSN20041129031509911/29/04 03:15:31  5-MIN KMSN 290915Z 00000KT 10SM OVC085 M01/M03 A3024 570 88 -1200 000/00 RMK AO2
14837KMSN MSN20041129032009911/29/04 03:20:31  5-MIN KMSN 290920Z 00000KT 10SM OVC085 M01/M03 A3025 570 85 -1100 000/00 RMK AO2
14837KMSN MSN20041129032509911/29/04 03:25:31  5-MIN KMSN 290925Z 00000KT 10SM OVC085 M01/M03 A3024 570 88 -1200 000/00 RMK AO2
14837KMSN MSN20041129033009911/29/04 03:30:31  5-MIN KMSN 290930Z 00000KT 10SM OVC085 M01/M03 A3024 570 88 -1200 000/00 RMK AO2
14837KMSN MSN20041129033509911/29/04 03:35:31  5-MIN KMSN 290935Z 00000KT 10SM OVC085 M01/M03 A3024 570 88 -1200 000/00 RMK AO2
14837KMSN MSN20041129034009911/29/04 03:40:31  5-MIN KMSN 290940Z 00000KT 10SM OVC090 M01/M03 A3024 570 81 -1100 000/00 RMK AO2
14837KMSN MSN20041129034509911/29/04 03:45:31  5-MIN KMSN 290945Z 00000KT 10SM OVC090 M01/M03 A3024 570 85 -1100 000/00 RMK AO2
14837KMSN MSN20041129035011611/29/04 03:50:31  5-MIN KMSN 290950Z 00000KT 10SM OVC090 M01/M03 A3024 570 85 -1100 000/00 RMK AO2 SLP249 T10061028
14837KMSN MSN20041129035509911/29/04 03:55:31  5-MIN KMSN 290955Z 00000KT 10SM OVC090 M01/M03 A3024 570 88 -1200 000/00 RMK AO2
14837KMSN MSN20041129040009911/29/04 04:00:31  5-MIN KMSN 291000Z 00000KT 10SM OVC085 M01/M03 A3024 570 85 -1100 000/00 RMK AO2
14837KMSN MSN20041129040509911/29/04 04:05:31  5-MIN KMSN 291005Z 00000KT 10SM OVC085 M01/M03 A3024 570 85 -1100 000/00 RMK AO2
14837KMSN MSN20041129041010611/29/04 04:10:31  5-MIN KMSN 291010Z 29003KT 10SM BKN080 OVC095 M01/M03 A3024 570 88 -1200 290/03 RMK AO2
14837KMSN MSN20041129041509911/29/04 04:15:31  5-MIN KMSN 291015Z 00000KT 10SM OVC085 M01/M03 A3024 570 88 -1200 000/00 RMK AO2
14837KMSN MSN20041129042009911/29/04 04:20:31  5-MIN KMSN 291020Z 00000KT 10SM OVC085 M01/M03 A3024 570 85 -1200 000/00 RMK AO2
14837KMSN MSN20041129042509911/29/04 04:25:31  5-MIN KMSN 291025Z 00000KT 10SM OVC090 M01/M03 A3024 570 88 -1200 000/00 RMK AO2
14837KMSN MSN20041129043009911/29/04 04:30:31  5-MIN KMSN 291030Z 00000KT 10SM OVC090 M01/M03 A3024 570 81 -1100 000/00 RMK AO2
14837KMSN MSN20041129043509911/29/04 04:35:31  5-MIN KMSN 291035Z 00000KT 10SM OVC090 M01/M03 A3024 570 81 -1100 000/00 RMK AO2
14837KMSN MSN20041129044009911/29/04 04:40:31  5-MIN KMSN 291040Z 00000KT 10SM OVC090 M01/M03 A3024 570 81 -1100 000/00 RMK AO2
14837KMSN MSN20041129044509911/29/04 04:45:31  5-MIN KMSN 291045Z 08003KT 10SM OVC085 M01/M03 A3024 570 85 -1200 080/03 RMK AO2
14837KMSN MSN20041129045011611/29/04 04:50:31  5-MIN KMSN 291050Z 00000KT 10SM OVC085 M01/M03 A3024 570 88 -1200 000/00 RMK AO2 SLP251 T10111028
14837KMSN MSN20041129045510611/29/04 04:55:31  5-MIN KMSN 291055Z 00000KT 10SM BKN080 OVC100 M01/M03 A3024 570 88 -1200 000/00 RMK AO2
14837KMSN MSN20041129050009911/29/04 05:00:31  5-MIN KMSN 291100Z 00000KT 10SM OVC080 M01/M03 A3024 570 88 -1200 000/00 RMK AO2
14837KMSN MSN20041129050509911/29/04 05:05:31  5-MIN KMSN 291105Z 00000KT 10SM OVC080 M01/M03 A3024 570 88 -1200 000/00 RMK AO2
14837KMSN MSN20041129051010611/29/04 05:10:31  5-MIN KMSN 291110Z 00000KT 10SM BKN075 OVC090 M01/M03 A3024 570 88 -1200 000/00 RMK AO2
14837KMSN MSN20041129051509911/29/04 05:15:31  5-MIN KMSN 291115Z 00000KT 10SM OVC075 M01/M03 A3024 570 88 -1200 000/00 RMK AO2
14837KMSN MSN20041129052009911/29/04 05:20:31  5-MIN KMSN 291120Z 00000KT 10SM OVC070 M01/M03 A3024 570 85 -1100 000/00 RMK AO2
14837KMSN MSN20041129052509911/29/04 05:25:31  5-MIN KMSN 291125Z 00000KT 10SM OVC070 M01/M02 A3024 570 92 -1200 000/00 RMK AO2
14837KMSN MSN20041129053009911/29/04 05:30:31  5-MIN KMSN 291130Z 00000KT 10SM OVC070 M01/M02 A3024 570 92 -1200 000/00 RMK AO2
14837KMSN MSN20041129053509911/29/04 05:35:31  5-MIN KMSN 291135Z 00000KT 10SM OVC070 M01/M02 A3024 570 92 -1200 000/00 RMK AO2
14837KMSN MSN20041129054009911/29/04 05:40:31  5-MIN KMSN 291140Z 00000KT 10SM OVC065 M01/M03 A3024 570 85 -1100 000/00 RMK AO2
14837KMSN MSN20041129054510611/29/04 05:45:31  5-MIN KMSN 291145Z 00000KT 10SM BKN060 OVC075 M01/M03 A3024 570 88 -1200 000/00 RMK AO2
14837KMSN MSN20041129055013411/29/04 05:50:31  5-MIN KMSN 291150Z 00000KT 10SM BKN065 M01/M03 A3024 570 85 -1100 000/00 RMK AO2 SLP249 T10061028 11006 21017 53001
14837KMSN MSN20041129055509911/29/04 05:55:31  5-MIN KMSN 291155Z 00000KT 10SM OVC065 M01/M03 A3024 570 85 -1100 000/00 RMK AO2
14837KMSN MSN20041129060011311/29/04 06:00:31  5-MIN KMSN 291200Z 00000KT 10SM BKN060 BKN070 OVC110 M01/M03 A3024 570 81 -1100 000/00 RMK AO2
14837KMSN MSN20041129060510511/29/04 06:05:31  5-MIN KMSN 291205Z 00000KT 10SM BKN060 OVC110 00/M03 A3023 580 81 -1000 000/00 RMK AO2
14837KMSN MSN20041129061010611/29/04 06:10:31  5-MIN KMSN 291210Z 32004KT 10SM BKN060 OVC110 M01/M04 A3023 580 81 -1200 320/04 RMK AO2
14837KMSN MSN20041129061510611/29/04 06:15:31  5-MIN KMSN 291215Z 32003KT 10SM BKN060 OVC110 M02/M03 A3023 580 92 -1200 320/03 RMK AO2
14837KMSN MSN20041129062010611/29/04 06:20:31  5-MIN KMSN 291220Z 00000KT 10SM BKN060 OVC110 M01/M03 A3023 580 88 -1200 000/00 RMK AO2
14837KMSN MSN20041129062509911/29/04 06:25:31  5-MIN KMSN 291225Z 00000KT 10SM OVC060 M01/M03 A3023 570 85 -1100 000/00 RMK AO2
14837KMSN MSN20041129063009911/29/04 06:30:31  5-MIN KMSN 291230Z 30003KT 10SM OVC060 M01/M03 A3023 580 85 -1200 300/03 RMK AO2
14837KMSN MSN20041129063509911/29/04 06:35:31  5-MIN KMSN 291235Z 00000KT 10SM OVC060 M01/M03 A3024 570 88 -1200 000/00 RMK AO2
14837KMSN MSN20041129064009911/29/04 06:40:31  5-MIN KMSN 291240Z 30003KT 10SM OVC055 M01/M03 A3024 570 85 -1200 300/03 RMK AO2
14837KMSN MSN20041129064509911/29/04 06:45:31  5-MIN KMSN 291245Z 31004KT 10SM OVC055 M01/M03 A3024 570 88 -1200 310/04 RMK AO2
14837KMSN MSN20041129065011611/29/04 06:50:31  5-MIN KMSN 291250Z 30003KT 10SM BKN055 M01/M03 A3024 570 85 -1100 300/03 RMK AO2 SLP251 T10061028
14837KMSN MSN20041129065509911/29/04 06:55:31  5-MIN KMSN 291255Z 31003KT 10SM OVC055 M01/M03 A3024 570 85 -1100 310/03 RMK AO2
14837KMSN MSN20041129070009911/29/04 07:00:31  5-MIN KMSN 291300Z 31004KT 10SM OVC055 M01/M03 A3024 570 85 -1100 310/04 RMK AO2
14837KMSN MSN20041129070509911/29/04 07:05:31  5-MIN KMSN 291305Z 31004KT 10SM OVC055 M01/M03 A3024 570 85 -1100 310/04 RMK AO2
14837KMSN MSN20041129071009911/29/04 07:10:31  5-MIN KMSN 291310Z 31003KT 10SM OVC055 M01/M03 A3025 560 85 -1100 310/03 RMK AO2
14837KMSN MSN20041129071509911/29/04 07:15:31  5-MIN KMSN 291315Z 31003KT 10SM OVC055 M01/M03 A3025 560 85 -1100 310/03 RMK AO2
14837KMSN MSN20041129072009911/29/04 07:20:31  5-MIN KMSN 291320Z 00000KT 10SM OVC055 M01/M03 A3025 570 85 -1100 000/00 RMK AO2
14837KMSN MSN20041129072509911/29/04 07:25:31  5-MIN KMSN 291325Z 00000KT 10SM OVC055 M01/M03 A3024 570 85 -1100 000/00 RMK AO2
14837KMSN MSN20041129073009911/29/04 07:30:31  5-MIN KMSN 291330Z 00000KT 10SM OVC055 M01/M03 A3025 560 85 -1100 000/00 RMK AO2
14837KMSN MSN20041129073509911/29/04 07:35:31  5-MIN KMSN 291335Z 00000KT 10SM OVC055 M01/M02 A3025 560 88 -1100 000/00 RMK AO2
14837KMSN MSN20041129074009911/29/04 07:40:31  5-MIN KMSN 291340Z 00000KT 10SM OVC050 M01/M03 A3025 560 85 -1100 000/00 RMK AO2
14837KMSN MSN20041129074509911/29/04 07:45:31  5-MIN KMSN 291345Z 00000KT 10SM OVC050 M01/M03 A3025 560 85 -1100 000/00 RMK AO2
14837KMSN MSN20041129075011611/29/04 07:50:31  5-MIN KMSN 291350Z 00000KT 10SM OVC050 M01/M03 A3025 560 85 -1100 000/00 RMK AO2 SLP252 T10061028
14837KMSN MSN20041129075509911/29/04 07:55:31  5-MIN KMSN 291355Z 00000KT 10SM OVC050 M01/M03 A3025 560 85 -1100 000/00 RMK AO2
14837KMSN MSN20041129080009911/29/04 08:00:31  5-MIN KMSN 291400Z 00000KT 10SM OVC050 M01/M03 A3024 570 85 -1100 000/00 RMK AO2
14837KMSN MSN20041129080509911/29/04 08:05:31  5-MIN KMSN 291405Z 00000KT 10SM OVC050 M01/M03 A3024 570 81 -1100 000/00 RMK AO2
14837KMSN MSN20041129081009811/29/04 08:10:31  5-MIN KMSN 291410Z 00000KT 10SM OVC050 00/M03 A3025 560 81 -1000 000/00 RMK AO2
14837KMSN MSN20041129081509811/29/04 08:15:31  5-MIN KMSN 291415Z 00000KT 10SM OVC050 00/M03 A3025 560 81 -1000 000/00 RMK AO2
14837KMSN MSN20041129082009811/29/04 08:20:31  5-MIN KMSN 291420Z 00000KT 10SM OVC048 00/M03 A3024 570 81 -1000 000/00 RMK AO2
14837KMSN MSN20041129082509811/29/04 08:25:31  5-MIN KMSN 291425Z 00000KT 10SM OVC048 00/M02 A3025 560 85 -1000 000/00 RMK AO2
14837KMSN MSN20041129083009811/29/04 08:30:31  5-MIN KMSN 291430Z 00000KT 10SM OVC048 01/M02 A3025 560 82 -1000 000/00 RMK AO2
14837KMSN MSN20041129083509811/29/04 08:35:31  5-MIN KMSN 291435Z 00000KT 10SM OVC046 01/M02 A3025 560 82 -1000 000/00 RMK AO2
14837KMSN MSN20041129084009811/29/04 08:40:31  5-MIN KMSN 291440Z 00000KT 10SM OVC046 01/M02 A3025 560 82 -1000 000/00 RMK AO2
14837KMSN MSN20041129084509811/29/04 08:45:31  5-MIN KMSN 291445Z 00000KT 10SM OVC046 01/M02 A3025 560 85 -1000 000/00 RMK AO2
14837KMSN MSN20041129085012011/29/04 08:50:31  5-MIN KMSN 291450Z 00000KT 10SM OVC046 01/M02 A3025 560 78 -900 000/00 RMK AO2 SLP252 T00111022 56002
14837KMSN MSN20041129085509711/29/04 08:55:31  5-MIN KMSN 291455Z 16003KT 10SM OVC046 01/M03 A3025 560 75 -900 160/03 RMK AO2
14837KMSN MSN20041129090009711/29/04 09:00:31  5-MIN KMSN 291500Z 15003KT 10SM OVC046 01/M03 A3025 560 75 -900 150/03 RMK AO2
14837KMSN MSN20041129090509711/29/04 09:05:31  5-MIN KMSN 291505Z 16004KT 10SM OVC046 01/M02 A3025 560 78 -900 160/04 RMK AO2
14837KMSN MSN20041129091009711/29/04 09:10:31  5-MIN KMSN 291510Z 17003KT 10SM OVC046 01/M02 A3025 560 78 -900 170/03 RMK AO2
14837KMSN MSN20041129091509711/29/04 09:15:31  5-MIN KMSN 291515Z 18004KT 10SM OVC044 02/M03 A3025 560 72 -800 180/04 RMK AO2
14837KMSN MSN20041129092009711/29/04 09:20:31  5-MIN KMSN 291520Z 18003KT 10SM OVC044 02/M02 A3025 560 75 -800 180/03 RMK AO2
14837KMSN MSN20041129092509711/29/04 09:25:31  5-MIN KMSN 291525Z 18003KT 10SM OVC044 02/M02 A3025 560 75 -800 180/03 RMK AO2
14837KMSN MSN20041129093009711/29/04 09:30:31  5-MIN KMSN 291530Z 18003KT 10SM OVC044 02/M02 A3025 560 75 -800 180/03 RMK AO2
14837KMSN MSN20041129093509711/29/04 09:35:31  5-MIN KMSN 291535Z VRB03KT 10SM OVC044 02/M02 A3025 560 72 -800 VRB/03 RMK AO2
14837KMSN MSN20041129094009711/29/04 09:40:31  5-MIN KMSN 291540Z 22003KT 10SM OVC044 02/M02 A3026 550 72 -800 220/03 RMK AO2
14837KMSN MSN20041129094509711/29/04 09:45:31  5-MIN KMSN 291545Z 24003KT 10SM OVC044 02/M02 A3026 550 72 -800 230/03 RMK AO2
14837KMSN MSN20041129095011411/29/04 09:50:31  5-MIN KMSN 291550Z 21004KT 10SM OVC044 02/M02 A3026 550 72 -800 210/04 RMK AO2 SLP257 T00221022
14837KMSN MSN20041129095509711/29/04 09:55:31  5-MIN KMSN 291555Z 19004KT 10SM OVC044 02/M02 A3026 550 72 -800 190/04 RMK AO2
14837KMSN MSN20041129100009711/29/04 10:00:31  5-MIN KMSN 291600Z 21004KT 10SM OVC042 02/M02 A3026 550 72 -800 210/04 RMK AO2
14837KMSN MSN20041129100509711/29/04 10:05:31  5-MIN KMSN 291605Z 21004KT 10SM OVC042 02/M02 A3027 550 72 -800 210/04 RMK AO2
14837KMSN MSN20041129101009711/29/04 10:10:31  5-MIN KMSN 291610Z 22004KT 10SM OVC042 02/M02 A3026 550 72 -800 220/04 RMK AO2
14837KMSN MSN20041129101509711/29/04 10:15:31  5-MIN KMSN 291615Z 22004KT 10SM OVC042 02/M02 A3026 550 72 -800 220/04 RMK AO2
14837KMSN MSN20041129102009711/29/04 10:20:31  5-MIN KMSN 291620Z 21004KT 10SM OVC042 02/M02 A3026 550 72 -800 210/04 RMK AO2
14837KMSN MSN20041129102509711/29/04 10:25:31  5-MIN KMSN 291625Z VRB03KT 10SM OVC042 02/M02 A3026 550 72 -800 VRB/03 RMK AO2
14837KMSN MSN20041129103009711/29/04 10:30:31  5-MIN KMSN 291630Z 25004KT 10SM OVC042 02/M03 A3026 550 69 -800 250/04 RMK AO2
14837KMSN MSN20041129103509711/29/04 10:35:31  5-MIN KMSN 291635Z 20004KT 10SM OVC040 02/M02 A3026 550 72 -800 200/04 RMK AO2
14837KMSN MSN20041129104009711/29/04 10:40:31  5-MIN KMSN 291640Z 22004KT 10SM OVC040 02/M03 A3026 550 69 -800 210/04 RMK AO2
14837KMSN MSN20041129104509711/29/04 10:45:31  5-MIN KMSN 291645Z 21003KT 10SM OVC040 03/M02 A3026 550 69 -700 210/03 RMK AO2
14837KMSN MSN20041129105011411/29/04 10:50:31  5-MIN KMSN 291650Z VRB03KT 10SM BKN040 02/M02 A3025 560 72 -800 VRB/03 RMK AO2 SLP254 T00221022
14837KMSN MSN20041129105509711/29/04 10:55:31  5-MIN KMSN 291655Z 25003KT 10SM OVC042 03/M02 A3025 560 69 -700 250/03 RMK AO2
14837KMSN MSN20041129110009711/29/04 11:00:31  5-MIN KMSN 291700Z 25004KT 10SM OVC042 03/M02 A3025 560 69 -700 250/04 RMK AO2
14837KMSN MSN20041129110509711/29/04 11:05:31  5-MIN KMSN 291705Z 23004KT 10SM OVC042 02/M03 A3025 560 69 -800 230/04 RMK AO2
14837KMSN MSN20041129111009711/29/04 11:10:31  5-MIN KMSN 291710Z 23004KT 10SM OVC044 03/M02 A3025 560 69 -700 230/04 RMK AO2
14837KMSN MSN20041129111509711/29/04 11:15:31  5-MIN KMSN 291715Z VRB03KT 10SM OVC045 03/M03 A3025 560 67 -700 VRB/03 RMK AO2
14837KMSN MSN20041129112009711/29/04 11:20:31  5-MIN KMSN 291720Z 24005KT 10SM OVC045 03/M02 A3025 560 69 -700 240/05 RMK AO2
14837KMSN MSN20041129112509711/29/04 11:25:31  5-MIN KMSN 291725Z 25003KT 10SM BKN047 03/M03 A3024 570 67 -700 250/03 RMK AO2
14837KMSN MSN20041129113009711/29/04 11:30:31  5-MIN KMSN 291730Z VRB03KT 10SM BKN047 03/M03 A3025 560 67 -700 VRB/03 RMK AO2
14837KMSN MSN20041129113509711/29/04 11:35:31  5-MIN KMSN 291735Z VRB03KT 10SM SCT047 03/M02 A3024 570 67 -600 VRB/03 RMK AO2
14837KMSN MSN20041129114009711/29/04 11:40:31  5-MIN KMSN 291740Z 25004KT 10SM FEW049 03/M03 A3024 570 67 -700 250/04 RMK AO2
14837KMSN MSN20041129114509711/29/04 11:45:31  5-MIN KMSN 291745Z VRB05KT 10SM FEW049 03/M03 A3024 570 67 -700 VRB/05 RMK AO2
14837KMSN MSN20041129115012911/29/04 11:50:31  5-MIN KMSN 291750Z 24005KT 10SM CLR 03/M03 A3025 570 67 -700 240/05 RMK AO2 SLP251 T00281028 10033 21017 51003
14837KMSN MSN20041129115509711/29/04 11:55:31  5-MIN KMSN 291755Z VRB05KT 10SM SCT048 03/M02 A3024 570 67 -600 VRB/05 RMK AO2
14837KMSN MSN20041129120009711/29/04 12:00:31  5-MIN KMSN 291800Z 28006KT 10SM SCT048 03/M03 A3024 570 64 -600 280/06 RMK AO2
14837KMSN MSN20041129120509711/29/04 12:05:31  5-MIN KMSN 291805Z 00000KT 10SM SCT048 03/M03 A3024 570 64 -600 000/00 RMK AO2
14837KMSN MSN20041129121009711/29/04 12:10:31  5-MIN KMSN 291810Z 23005KT 10SM SCT048 03/M03 A3024 570 64 -600 230/05 RMK AO2
14837KMSN MSN20041129121509711/29/04 12:15:31  5-MIN KMSN 291815Z VRB03KT 10SM SCT048 03/M03 A3024 570 64 -600 VRB/03 RMK AO2
14837KMSN MSN20041129122009711/29/04 12:20:31  5-MIN KMSN 291820Z VRB04KT 10SM SCT048 03/M03 A3023 580 64 -600 VRB/04 RMK AO2
14837KMSN MSN20041129122509711/29/04 12:25:31  5-MIN KMSN 291825Z 30004KT 10SM SCT048 03/M03 A3023 580 64 -600 300/04 RMK AO2
14837KMSN MSN20041129123009711/29/04 12:30:31  5-MIN KMSN 291830Z 31005KT 10SM SCT048 04/M03 A3023 580 62 -500 310/05 RMK AO2
14837KMSN MSN20041129123509711/29/04 12:35:31  5-MIN KMSN 291835Z 28004KT 10SM SCT048 03/M03 A3023 580 61 -600 280/04 RMK AO2
14837KMSN MSN20041129124010411/29/04 12:40:31  5-MIN KMSN 291840Z VRB04KT 10SM FEW030 SCT055 03/M03 A3023 580 64 -600 VRB/04 RMK AO2
14837KMSN MSN20041129124510411/29/04 12:45:31  5-MIN KMSN 291845Z 30004KT 10SM FEW030 SCT055 04/M03 A3023 580 62 -500 300/04 RMK AO2
14837KMSN MSN20041129125012111/29/04 12:50:31  5-MIN KMSN 291850Z 31006KT 10SM FEW030 SCT055 04/M03 A3023 580 62 -500 310/06 RMK AO2 SLP245 T00391028
14837KMSN MSN20041129125510411/29/04 12:55:31  5-MIN KMSN 291855Z 32004KT 10SM SCT032 BKN120 04/M03 A3023 580 62 -500 310/04 RMK AO2
14837KMSN MSN20041129130010411/29/04 13:00:31  5-MIN KMSN 291900Z 27005KT 10SM SCT032 BKN120 04/M03 A3022 590 62 -500 270/05 RMK AO2
14837KMSN MSN20041129130510411/29/04 13:05:31  5-MIN KMSN 291905Z 30004KT 10SM SCT032 BKN120 03/M03 A3022 590 64 -600 300/04 RMK AO2
14837KMSN MSN20041129131010411/29/04 13:10:31  5-MIN KMSN 291910Z 32005KT 10SM SCT032 BKN120 04/M03 A3022 590 59 -500 320/05 RMK AO2
14837KMSN MSN20041129131510411/29/04 13:15:31  5-MIN KMSN 291915Z VRB04KT 10SM SCT032 BKN120 04/M04 A3022 590 57 -500 VRB/04 RMK AO2
14837KMSN MSN20041129132010411/29/04 13:20:31  5-MIN KMSN 291920Z 29004KT 10SM SCT032 BKN120 04/M03 A3022 590 59 -500 290/04 RMK AO2
14837KMSN MSN20041129132510411/29/04 13:25:31  5-MIN KMSN 291925Z 00000KT 10SM SCT032 BKN120 04/M03 A3021 590 59 -500 000/00 RMK AO2
14837KMSN MSN20041129133010411/29/04 13:30:31  5-MIN KMSN 291930Z 00000KT 10SM SCT032 BKN120 04/M03 A3021 600 62 -500 000/00 RMK AO2
14837KMSN MSN20041129133510411/29/04 13:35:31  5-MIN KMSN 291935Z VRB04KT 10SM SCT032 BKN120 04/M03 A3022 590 62 -500 VRB/04 RMK AO2
14837KMSN MSN20041129134010411/29/04 13:40:31  5-MIN KMSN 291940Z VRB03KT 10SM SCT032 BKN120 03/M03 A3022 590 64 -600 VRB/03 RMK AO2
14837KMSN MSN20041129134510411/29/04 13:45:31  5-MIN KMSN 291945Z 34004KT 10SM SCT032 BKN120 04/M03 A3022 590 59 -500 340/04 RMK AO2
14837KMSN MSN20041129140509711/29/04 14:05:31  5-MIN KMSN 292005Z VRB04KT 10SM FEW027 04/M03 A3021 590 57 -500 VRB/04 RMK AO2
14837KMSN MSN20041129141009711/29/04 14:10:31  5-MIN KMSN 292010Z VRB04KT 10SM FEW027 04/M04 A3021 600 54 -500 VRB/04 RMK AO2
14837KMSN MSN20041129141509711/29/04 14:15:31  5-MIN KMSN 292015Z 31004KT 10SM FEW027 04/M03 A3021 600 59 -500 310/04 RMK AO2
14837KMSN MSN20041129142009711/29/04 14:20:31  5-MIN KMSN 292020Z 30004KT 10SM FEW027 04/M03 A3021 600 59 -500 290/04 RMK AO2
14837KMSN MSN20041129142509711/29/04 14:25:31  5-MIN KMSN 292025Z 00000KT 10SM FEW027 04/M03 A3020 600 57 -400 000/00 RMK AO2
14837KMSN MSN20041129143009711/29/04 14:30:31  5-MIN KMSN 292030Z VRB03KT 10SM FEW027 04/M03 A3020 600 57 -400 VRB/03 RMK AO2
14837KMSN MSN20041129143509711/29/04 14:35:31  5-MIN KMSN 292035Z 00000KT 10SM FEW027 04/M04 A3020 610 55 -400 000/00 RMK AO2
14837KMSN MSN20041129144009711/29/04 14:40:31  5-MIN KMSN 292040Z VRB03KT 10SM FEW027 04/M04 A3020 600 55 -400 VRB/03 RMK AO2
14837KMSN MSN20041129144509711/29/04 14:45:31  5-MIN KMSN 292045Z 34004KT 10SM FEW027 04/M04 A3020 600 52 -400 340/04 RMK AO2
14837KMSN MSN20041129145012011/29/04 14:50:31  5-MIN KMSN 292050Z 33003KT 10SM FEW027 04/M04 A3020 600 52 -400 330/03 RMK AO2 SLP237 T00441044 50000
14837KMSN MSN20041129145509711/29/04 14:55:31  5-MIN KMSN 292055Z 33004KT 10SM FEW035 04/M04 A3020 600 52 -400 330/04 RMK AO2
14837KMSN MSN20041129150009711/29/04 15:00:31  5-MIN KMSN 292100Z 35004KT 10SM FEW035 04/M04 A3020 610 52 -400 350/04 RMK AO2
14837KMSN MSN20041129150509711/29/04 15:05:31  5-MIN KMSN 292105Z 29005KT 10SM FEW035 04/M04 A3020 610 52 -400 290/05 RMK AO2
14837KMSN MSN20041129151009711/29/04 15:10:31  5-MIN KMSN 292110Z 00000KT 10SM FEW035 04/M06 A3020 610 50 -500 000/00 RMK AO2
14837KMSN MSN20041129151509711/29/04 15:15:31  5-MIN KMSN 292115Z 28004KT 10SM FEW035 04/M05 A3020 610 52 -500 280/04 RMK AO2
14837KMSN MSN20041129152009711/29/04 15:20:31  5-MIN KMSN 292120Z 00000KT 10SM FEW035 04/M04 A3020 610 54 -500 000/00 RMK AO2
14837KMSN MSN20041129152509711/29/04 15:25:31  5-MIN KMSN 292125Z 00000KT 10SM FEW035 04/M04 A3020 610 54 -500 000/00 RMK AO2
14837KMSN MSN20041129153009711/29/04 15:30:31  5-MIN KMSN 292130Z 00000KT 10SM FEW035 04/M04 A3020 610 54 -500 000/00 RMK AO2
14837KMSN MSN20041129153509711/29/04 15:35:31  5-MIN KMSN 292135Z 00000KT 10SM FEW035 04/M04 A3019 610 54 -500 000/00 RMK AO2
14837KMSN MSN20041129154009711/29/04 15:40:31  5-MIN KMSN 292140Z 00000KT 10SM FEW035 04/M04 A3019 610 54 -500 000/00 RMK AO2
14837KMSN MSN20041129154509411/29/04 15:45:31  5-MIN KMSN 292145Z 00000KT 10SM CLR 04/M04 A3019 610 57 -500 000/00 RMK AO2
14837KMSN MSN20041129155011111/29/04 15:50:31  5-MIN KMSN 292150Z 00000KT 10SM CLR 04/M06 A3019 610 50 -500 000/00 RMK AO2 SLP234 T00391056
14837KMSN MSN20041129155509411/29/04 15:55:31  5-MIN KMSN 292155Z 00000KT 10SM CLR 03/M06 A3020 610 52 -600 000/00 RMK AO2
14837KMSN MSN20041129160009411/29/04 16:00:31  5-MIN KMSN 292200Z 00000KT 10SM CLR 03/M05 A3020 610 54 -600 000/00 RMK AO2
14837KMSN MSN20041129160509411/29/04 16:05:31  5-MIN KMSN 292205Z 00000KT 10SM CLR 03/M06 A3020 610 52 -600 000/00 RMK AO2
14837KMSN MSN20041129161009411/29/04 16:10:31  5-MIN KMSN 292210Z 00000KT 10SM CLR 03/M06 A3020 610 52 -600 000/00 RMK AO2
14837KMSN MSN20041129161509411/29/04 16:15:31  5-MIN KMSN 292215Z 00000KT 10SM CLR 03/M06 A3020 610 52 -600 000/00 RMK AO2
14837KMSN MSN20041129162009411/29/04 16:20:31  5-MIN KMSN 292220Z 00000KT 10SM CLR 03/M06 A3020 610 52 -600 000/00 RMK AO2
14837KMSN MSN20041129162509411/29/04 16:25:31  5-MIN KMSN 292225Z 00000KT 10SM CLR 02/M06 A3020 610 56 -700 000/00 RMK AO2
14837KMSN MSN20041129163009411/29/04 16:30:31  5-MIN KMSN 292230Z 00000KT 10SM CLR 02/M05 A3020 610 61 -800 000/00 RMK AO2
14837KMSN MSN20041129163509411/29/04 16:35:31  5-MIN KMSN 292235Z 00000KT 10SM CLR 01/M04 A3020 610 69 -900 000/00 RMK AO2
14837KMSN MSN20041129164009411/29/04 16:40:31  5-MIN KMSN 292240Z 00000KT 10SM CLR 01/M03 A3020 610 75 -900 000/00 RMK AO2
14837KMSN MSN20041129164509511/29/04 16:45:31  5-MIN KMSN 292245Z 00000KT 10SM CLR 00/M04 A3020 600 72 -1000 000/00 RMK AO2
14837KMSN MSN20041129165011111/29/04 16:50:31  5-MIN KMSN 292250Z 00000KT 10SM CLR 01/M05 A3020 610 66 -900 000/00 RMK AO2 SLP237 T00061050
14837KMSN MSN20041129165509411/29/04 16:55:31  5-MIN KMSN 292255Z 31003KT 10SM CLR 01/M05 A3020 600 66 -900 310/03 RMK AO2
14837KMSN MSN20041129170009511/29/04 17:00:31  5-MIN KMSN 292300Z 31003KT 10SM CLR 00/M06 A3021 600 66 -1000 310/03 RMK AO2
14837KMSN MSN20041129170509611/29/04 17:05:31  5-MIN KMSN 292305Z 00000KT 10SM CLR M01/M05 A3021 600 72 -1100 000/00 RMK AO2
14837KMSN MSN20041129171009611/29/04 17:10:31  5-MIN KMSN 292310Z 00000KT 10SM CLR M01/M04 A3021 600 75 -1100 000/00 RMK AO2
14837KMSN MSN20041129171509611/29/04 17:15:31  5-MIN KMSN 292315Z 00000KT 10SM CLR M01/M04 A3021 600 75 -1100 000/00 RMK AO2
14837KMSN MSN20041129172009511/29/04 17:20:31  5-MIN KMSN 292320Z 00000KT 10SM CLR 00/M04 A3021 600 72 -1000 000/00 RMK AO2
14837KMSN MSN20041129172509611/29/04 17:25:31  5-MIN KMSN 292325Z 00000KT 10SM CLR M01/M05 A3021 600 72 -1100 000/00 RMK AO2
14837KMSN MSN20041129173009611/29/04 17:30:31  5-MIN KMSN 292330Z 00000KT 10SM CLR M01/M04 A3021 600 75 -1100 000/00 RMK AO2
14837KMSN MSN20041129173509611/29/04 17:35:31  5-MIN KMSN 292335Z 00000KT 10SM CLR M01/M04 A3021 600 75 -1100 000/00 RMK AO2
14837KMSN MSN20041129174009611/29/04 17:40:31  5-MIN KMSN 292340Z 00000KT 10SM CLR M01/M04 A3021 590 78 -1100 000/00 RMK AO2
14837KMSN MSN20041129174509611/29/04 17:45:31  5-MIN KMSN 292345Z 00000KT 10SM CLR M01/M04 A3022 590 75 -1100 000/00 RMK AO2
14837KMSN MSN20041129175013011/29/04 17:50:31  5-MIN KMSN 292350Z 00000KT 10SM CLR 00/M05 A3022 590 69 -1000 000/00 RMK AO2 SLP242 T00001050 10044 21011 56014
14837KMSN MSN20041129175509611/29/04 17:55:31  5-MIN KMSN 292355Z 00000KT 10SM CLR M01/M06 A3022 590 72 -1100 000/00 RMK AO2
14837KMSN MSN20041129180009611/29/04 18:00:31  5-MIN KMSN 300000Z 00000KT 10SM CLR M01/M05 A3022 590 75 -1100 000/00 RMK AO2
14837KMSN MSN20041129180509611/29/04 18:05:31  5-MIN KMSN 300005Z 00000KT 10SM CLR M01/M05 A3022 590 75 -1200 000/00 RMK AO2
14837KMSN MSN20041129181009611/29/04 18:10:31  5-MIN KMSN 300010Z 00000KT 10SM CLR M02/M05 A3022 590 78 -1200 000/00 RMK AO2
14837KMSN MSN20041129181509611/29/04 18:15:31  5-MIN KMSN 300015Z 00000KT 10SM CLR M02/M04 A3022 590 81 -1200 000/00 RMK AO2
14837KMSN MSN20041129182009611/29/04 18:20:31  5-MIN KMSN 300020Z 00000KT 10SM CLR M02/M04 A3022 580 81 -1200 000/00 RMK AO2
14837KMSN MSN20041129182509611/29/04 18:25:31  5-MIN KMSN 300025Z 00000KT 10SM CLR M02/M04 A3023 580 81 -1200 000/00 RMK AO2
14837KMSN MSN20041129183009611/29/04 18:30:31  5-MIN KMSN 300030Z 00000KT 10SM CLR M02/M04 A3023 580 81 -1200 000/00 RMK AO2
14837KMSN MSN20041129183509611/29/04 18:35:31  5-MIN KMSN 300035Z 00000KT 10SM CLR M01/M04 A3023 580 78 -1200 000/00 RMK AO2
14837KMSN MSN20041129184009611/29/04 18:40:31  5-MIN KMSN 300040Z 00000KT 10SM CLR M02/M05 A3023 580 78 -1200 000/00 RMK AO2
14837KMSN MSN20041129184509611/29/04 18:45:31  5-MIN KMSN 300045Z 00000KT 10SM CLR M02/M06 A3023 580 78 -1300 000/00 RMK AO2
14837KMSN MSN20041129185011311/29/04 18:50:31  5-MIN KMSN 300050Z 33003KT 10SM CLR M02/M05 A3023 580 78 -1200 330/03 RMK AO2 SLP247 T10171050
14837KMSN MSN20041129185509611/29/04 18:55:31  5-MIN KMSN 300055Z 32003KT 10SM CLR M02/M04 A3023 580 81 -1200 320/03 RMK AO2
14837KMSN MSN20041129190009611/29/04 19:00:31  5-MIN KMSN 300100Z 00000KT 10SM CLR M02/M04 A3023 580 85 -1300 000/00 RMK AO2
14837KMSN MSN20041129190509611/29/04 19:05:31  5-MIN KMSN 300105Z 00000KT 10SM CLR M02/M05 A3023 580 81 -1300 000/00 RMK AO2
14837KMSN MSN20041129191009611/29/04 19:10:31  5-MIN KMSN 300110Z 00000KT 10SM CLR M03/M05 A3023 580 85 -1400 000/00 RMK AO2
14837KMSN MSN20041129191509611/29/04 19:15:31  5-MIN KMSN 300115Z 00000KT 10SM CLR M03/M04 A3023 580 88 -1400 000/00 RMK AO2
14837KMSN MSN20041129192009511/29/04 19:20:31  5-MIN KMSN 300120Z 00000KT 9SM CLR M02/M05 A3023 580 81 -1300 000/00 RMK AO2
14837KMSN MSN20041129192509511/29/04 19:25:31  5-MIN KMSN 300125Z 32003KT 9SM CLR M02/M04 A3024 570 85 -1300 320/03 RMK AO2
14837KMSN MSN20041129193009611/29/04 19:30:31  5-MIN KMSN 300130Z 32003KT 10SM CLR M03/M05 A3024 570 88 -1500 320/03 RMK AO2
14837KMSN MSN20041129193509611/29/04 19:35:31  5-MIN KMSN 300135Z 32003KT 10SM CLR M03/M04 A3024 570 92 -1500 320/03 RMK AO2
14837KMSN MSN20041129194009611/29/04 19:40:31  5-MIN KMSN 300140Z 33003KT 10SM CLR M03/M04 A3024 570 88 -1400 320/03 RMK AO2
14837KMSN MSN20041129194509611/29/04 19:45:31  5-MIN KMSN 300145Z 33003KT 10SM CLR M02/M04 A3024 570 85 -1300 330/03 RMK AO2
14837KMSN MSN20041129195011311/29/04 19:50:31  5-MIN KMSN 300150Z 34003KT 10SM CLR M02/M04 A3024 570 85 -1300 340/03 RMK AO2 SLP250 T10221044
14837KMSN MSN20041129195509611/29/04 19:55:31  5-MIN KMSN 300155Z 00000KT 10SM CLR M02/M05 A3024 570 81 -1300 000/00 RMK AO2
14837KMSN MSN20041129200009611/29/04 20:00:31  5-MIN KMSN 300200Z 00000KT 10SM CLR M02/M04 A3024 570 85 -1300 000/00 RMK AO2
14837KMSN MSN20041129200509611/29/04 20:05:31  5-MIN KMSN 300205Z 00000KT 10SM CLR M02/M04 A3023 580 85 -1300 000/00 RMK AO2
14837KMSN MSN20041129201009611/29/04 20:10:31  5-MIN KMSN 300210Z 00000KT 10SM CLR M03/M05 A3023 580 88 -1400 000/00 RMK AO2
14837KMSN MSN20041129201509611/29/04 20:15:31  5-MIN KMSN 300215Z 00000KT 10SM CLR M03/M05 A3023 580 88 -1400 000/00 RMK AO2
14837KMSN MSN20041129202009611/29/04 20:20:31  5-MIN KMSN 300220Z 00000KT 10SM CLR M02/M05 A3023 580 81 -1300 000/00 RMK AO2
14837KMSN MSN20041129202509611/29/04 20:25:31  5-MIN KMSN 300225Z 00000KT 10SM CLR M03/M06 A3023 580 85 -1400 000/00 RMK AO2
14837KMSN MSN20041129203009611/29/04 20:30:31  5-MIN KMSN 300230Z 00000KT 10SM CLR M03/M05 A3024 570 85 -1400 000/00 RMK AO2
14837KMSN MSN20041129203509611/29/04 20:35:31  5-MIN KMSN 300235Z 00000KT 10SM CLR M03/M05 A3023 580 85 -1400 000/00 RMK AO2
14837KMSN MSN20041129204009611/29/04 20:40:31  5-MIN KMSN 300240Z 00000KT 10SM CLR M03/M04 A3023 580 88 -1400 000/00 RMK AO2
14837KMSN MSN20041129204509511/29/04 20:45:31  5-MIN KMSN 300245Z 00000KT 9SM CLR M03/M04 A3024 570 88 -1400 000/00 RMK AO2
14837KMSN MSN20041129205011911/29/04 20:50:31  5-MIN KMSN 300250Z 00000KT 10SM CLR M03/M04 A3024 570 88 -1400 000/00 RMK AO2 SLP250 T10281044 53004
14837KMSN MSN20041129205509511/29/04 20:55:31  5-MIN KMSN 300255Z 00000KT 9SM CLR M03/M05 A3024 570 85 -1400 000/00 RMK AO2
14837KMSN MSN20041129210009511/29/04 21:00:31  5-MIN KMSN 300300Z 00000KT 8SM CLR M03/M04 A3023 580 88 -1400 000/00 RMK AO2
14837KMSN MSN20041129210509511/29/04 21:05:31  5-MIN KMSN 300305Z 00000KT 8SM CLR M04/M05 A3023 580 92 -1500 000/00 RMK AO2
14837KMSN MSN20041129211009511/29/04 21:10:31  5-MIN KMSN 300310Z 00000KT 7SM CLR M03/M05 A3023 580 88 -1400 000/00 RMK AO2
14837KMSN MSN20041129211509511/29/04 21:15:31  5-MIN KMSN 300315Z 00000KT 7SM CLR M03/M04 A3023 580 92 -1400 000/00 RMK AO2
14837KMSN MSN20041129212009811/29/04 21:20:31  5-MIN KMSN 300320Z 00000KT 6SM BR CLR M04/M05 A3023 580 92 -1500 000/00 RMK AO2
14837KMSN MSN20041129212509811/29/04 21:25:31  5-MIN KMSN 300325Z 00000KT 6SM BR CLR M04/M04 A3023 580 96 -1500 000/00 RMK AO2
14837KMSN MSN20041129213009811/29/04 21:30:31  5-MIN KMSN 300330Z 00000KT 6SM BR CLR M04/M04 A3023 580 96 -1500 000/00 RMK AO2
14837KMSN MSN20041129213509811/29/04 21:35:31  5-MIN KMSN 300335Z 00000KT 6SM BR CLR M04/M06 A3023 580 88 -1500 000/00 RMK AO2
14837KMSN MSN20041129214009811/29/04 21:40:31  5-MIN KMSN 300340Z 00000KT 6SM BR CLR M04/M06 A3023 580 88 -1500 000/00 RMK AO2
14837KMSN MSN20041129214509811/29/04 21:45:31  5-MIN KMSN 300345Z 00000KT 6SM BR CLR M04/M05 A3022 580 92 -1500 000/00 RMK AO2
14837KMSN MSN20041129215011511/29/04 21:50:31  5-MIN KMSN 300350Z 00000KT 6SM BR CLR M04/M05 A3022 590 92 -1500 000/00 RMK AO2 SLP245 T10391050
14837KMSN MSN20041129215509811/29/04 21:55:31  5-MIN KMSN 300355Z 00000KT 6SM BR CLR M04/M05 A3022 590 92 -1500 000/00 RMK AO2
14837KMSN MSN20041129220009811/29/04 22:00:31  5-MIN KMSN 300400Z 00000KT 5SM BR CLR M04/M05 A3022 590 92 -1500 000/00 RMK AO2
14837KMSN MSN20041129220509811/29/04 22:05:31  5-MIN KMSN 300405Z 00000KT 5SM BR CLR M04/M05 A3022 590 92 -1500 000/00 RMK AO2
14837KMSN MSN20041129221009811/29/04 22:10:31  5-MIN KMSN 300410Z 00000KT 5SM BR CLR M04/M05 A3021 600 92 -1500 000/00 RMK AO2
14837KMSN MSN20041129221509811/29/04 22:15:31  5-MIN KMSN 300415Z 00000KT 5SM BR CLR M04/M05 A3021 600 92 -1500 000/00 RMK AO2
14837KMSN MSN20041129222009811/29/04 22:20:31  5-MIN KMSN 300420Z 00000KT 5SM BR CLR M04/M05 A3021 600 92 -1500 000/00 RMK AO2
14837KMSN MSN20041129222509811/29/04 22:25:31  5-MIN KMSN 300425Z 00000KT 4SM BR CLR M04/M05 A3021 600 96 -1600 000/00 RMK AO2
14837KMSN MSN20041129223009811/29/04 22:30:31  5-MIN KMSN 300430Z 00000KT 4SM BR CLR M05/M06 A3021 600 96 -1600 000/00 RMK AO2
14837KMSN MSN20041129223509811/29/04 22:35:31  5-MIN KMSN 300435Z 00000KT 5SM BR CLR M04/M06 A3021 600 88 -1600 000/00 RMK AO2
14837KMSN MSN20041129224009811/29/04 22:40:31  5-MIN KMSN 300440Z 00000KT 6SM BR CLR M04/M06 A3021 600 92 -1600 000/00 RMK AO2
14837KMSN MSN20041129224509811/29/04 22:45:31  5-MIN KMSN 300445Z 00000KT 6SM BR CLR M04/M06 A3021 600 92 -1600 000/00 RMK AO2
14837KMSN MSN20041129225011511/29/04 22:50:31  5-MIN KMSN 300450Z 00000KT 6SM BR CLR M04/M06 A3021 590 92 -1600 000/00 RMK AO2 SLP242 T10441056
14837KMSN MSN20041129225509811/29/04 22:55:31  5-MIN KMSN 300455Z 00000KT 5SM BR CLR M04/M06 A3021 590 92 -1600 000/00 RMK AO2
14837KMSN MSN20041129230009811/29/04 23:00:31  5-MIN KMSN 300500Z 00000KT 5SM BR CLR M04/M06 A3021 600 92 -1600 000/00 RMK AO2
14837KMSN MSN20041129230509811/29/04 23:05:31  5-MIN KMSN 300505Z 00000KT 5SM BR CLR M04/M06 A3021 600 92 -1600 000/00 RMK AO2
14837KMSN MSN20041129231009811/29/04 23:10:31  5-MIN KMSN 300510Z 00000KT 4SM BR CLR M04/M06 A3021 600 92 -1600 000/00 RMK AO2
14837KMSN MSN20041129231509811/29/04 23:15:31  5-MIN KMSN 300515Z 00000KT 4SM BR CLR M05/M06 A3021 600 96 -1600 000/00 RMK AO2
14837KMSN MSN20041129232009811/29/04 23:20:31  5-MIN KMSN 300520Z 00000KT 4SM BR CLR M04/M06 A3021 600 92 -1600 000/00 RMK AO2
14837KMSN MSN20041129232509811/29/04 23:25:31  5-MIN KMSN 300525Z 00000KT 5SM BR CLR M06/M07 A3021 600 92 -1700 000/00 RMK AO2
14837KMSN MSN20041129233009811/29/04 23:30:31  5-MIN KMSN 300530Z 00000KT 5SM BR CLR M05/M06 A3021 600 92 -1600 000/00 RMK AO2
14837KMSN MSN20041129233509811/29/04 23:35:31  5-MIN KMSN 300535Z 00000KT 5SM BR CLR M04/M06 A3021 600 92 -1600 000/00 RMK AO2
14837KMSN MSN20041129234009811/29/04 23:40:31  5-MIN KMSN 300540Z 16003KT 6SM BR CLR M04/M06 A3021 600 92 -1600 160/03 RMK AO2
14837KMSN MSN20041129234509811/29/04 23:45:31  5-MIN KMSN 300545Z 00000KT 6SM BR CLR M04/M06 A3020 600 88 -1600 000/00 RMK AO2
14837KMSN MSN20041129235014311/29/04 23:50:31  5-MIN KMSN 300550Z 00000KT 6SM BR CLR M04/M06 A3020 600 88 -1600 000/00 RMK AO2 SLP239 T10441061 11006 21056 400441056 50006
14837KMSN MSN20041129235509811/29/04 23:55:31  5-MIN KMSN 300555Z 00000KT 6SM BR CLR M04/M06 A3020 600 92 -1600 000/00 RMK AO2
14837KMSN MSN20041130000009811/30/04 00:00:31  5-MIN KMSN 300600Z 00000KT 6SM BR CLR M05/M07 A3020 600 88 -1600 000/00 RMK AO2
14837KMSN MSN20041130000509811/30/04 00:05:31  5-MIN KMSN 300605Z 00000KT 6SM BR CLR M05/M07 A3020 600 88 -1600 000/00 RMK AO2
14837KMSN MSN20041130001009811/30/04 00:10:31  5-MIN KMSN 300610Z 00000KT 6SM BR CLR M05/M07 A3020 610 88 -1600 000/00 RMK AO2
14837KMSN MSN20041130001509811/30/04 00:15:31  5-MIN KMSN 300615Z 00000KT 5SM BR CLR M05/M07 A3020 610 84 -1600 000/00 RMK AO2
14837KMSN MSN20041130002009811/30/04 00:20:31  5-MIN KMSN 300620Z 00000KT 5SM BR CLR M06/M07 A3020 610 92 -1700 000/00 RMK AO2
14837KMSN MSN20041130002509811/30/04 00:25:31  5-MIN KMSN 300625Z 00000KT 5SM BR CLR M06/M07 A3020 610 92 -1700 000/00 RMK AO2
14837KMSN MSN20041130003009811/30/04 00:30:31  5-MIN KMSN 300630Z 00000KT 5SM BR CLR M06/M07 A3019 610 92 -1700 000/00 RMK AO2
14837KMSN MSN20041130003509811/30/04 00:35:31  5-MIN KMSN 300635Z 00000KT 5SM BR CLR M06/M07 A3020 610 92 -1700 000/00 RMK AO2
14837KMSN MSN20041130004009811/30/04 00:40:31  5-MIN KMSN 300640Z 00000KT 5SM BR CLR M06/M07 A3020 610 92 -1700 000/00 RMK AO2
14837KMSN MSN20041130004509811/30/04 00:45:31  5-MIN KMSN 300645Z 00000KT 5SM BR CLR M06/M07 A3020 610 92 -1700 000/00 RMK AO2
14837KMSN MSN20041130005011511/30/04 00:50:31  5-MIN KMSN 300650Z 00000KT 5SM BR CLR M06/M07 A3020 610 92 -1700 000/00 RMK AO2 SLP236 T10561067
14837KMSN MSN20041130005509811/30/04 00:55:31  5-MIN KMSN 300655Z 00000KT 5SM BR CLR M06/M07 A3020 610 92 -1700 000/00 RMK AO2
14837KMSN MSN20041130010009811/30/04 01:00:31  5-MIN KMSN 300700Z 00000KT 3SM BR CLR M06/M07 A3019 610 92 -1700 000/00 RMK AO2
14837KMSN MSN20041130010511011/30/04 01:05:31  5-MIN KMSN 300705Z 00000KT 2 1/2SM BR CLR M06/M07 A3019 610 92 -1800 000/00 RMK AO2 VIS 1V5
14837KMSN MSN20041130011009811/30/04 01:10:31  5-MIN KMSN 300710Z 00000KT 3SM BR CLR M06/M07 A3020 610 92 -1800 000/00 RMK AO2
14837KMSN MSN20041130011509811/30/04 01:15:31  5-MIN KMSN 300715Z 00000KT 4SM BR CLR M06/M07 A3019 610 96 -1800 000/00 RMK AO2
14837KMSN MSN20041130012009811/30/04 01:20:31  5-MIN KMSN 300720Z 00000KT 5SM BR CLR M06/M07 A3020 610 92 -1800 000/00 RMK AO2
14837KMSN MSN20041130012509811/30/04 01:25:31  5-MIN KMSN 300725Z 00000KT 5SM BR CLR M06/M07 A3020 610 92 -1800 000/00 RMK AO2
14837KMSN MSN20041130013009811/30/04 01:30:31  5-MIN KMSN 300730Z 00000KT 5SM BR CLR M06/M07 A3020 610 92 -1800 000/00 RMK AO2
14837KMSN MSN20041130013509811/30/04 01:35:31  5-MIN KMSN 300735Z 00000KT 6SM BR CLR M06/M07 A3020 610 92 -1800 000/00 RMK AO2
14837KMSN MSN20041130014009811/30/04 01:40:31  5-MIN KMSN 300740Z 00000KT 6SM BR CLR M06/M07 A3020 610 92 -1800 000/00 RMK AO2
14837KMSN MSN20041130014509811/30/04 01:45:31  5-MIN KMSN 300745Z 00000KT 5SM BR CLR M06/M07 A3020 610 92 -1700 000/00 RMK AO2
14837KMSN MSN20041130015011511/30/04 01:50:31  5-MIN KMSN 300750Z 00000KT 5SM BR CLR M06/M07 A3020 610 92 -1700 000/00 RMK AO2 SLP236 T10561067
14837KMSN MSN20041130015509811/30/04 01:55:31  5-MIN KMSN 300755Z 00000KT 6SM BR CLR M05/M07 A3020 610 88 -1600 000/00 RMK AO2
14837KMSN MSN20041130020009811/30/04 02:00:31  5-MIN KMSN 300800Z 00000KT 6SM BR CLR M06/M07 A3020 610 88 -1700 000/00 RMK AO2
14837KMSN MSN20041130020509811/30/04 02:05:31  5-MIN KMSN 300805Z 00000KT 5SM BR CLR M06/M07 A3020 610 88 -1700 000/00 RMK AO2
14837KMSN MSN20041130021009811/30/04 02:10:31  5-MIN KMSN 300810Z 00000KT 5SM BR CLR M06/M07 A3020 610 92 -1800 000/00 RMK AO2
14837KMSN MSN20041130021509811/30/04 02:15:31  5-MIN KMSN 300815Z 00000KT 5SM BR CLR M06/M07 A3020 610 92 -1700 000/00 RMK AO2
14837KMSN MSN20041130022009811/30/04 02:20:31  5-MIN KMSN 300820Z 00000KT 5SM BR CLR M06/M08 A3020 610 88 -1800 000/00 RMK AO2
14837KMSN MSN20041130022509811/30/04 02:25:31  5-MIN KMSN 300825Z 00000KT 5SM BR CLR M06/M08 A3020 610 88 -1800 000/00 RMK AO2
14837KMSN MSN20041130023009811/30/04 02:30:31  5-MIN KMSN 300830Z 00000KT 5SM BR CLR M06/M07 A3020 610 92 -1800 000/00 RMK AO2
14837KMSN MSN20041130023509811/30/04 02:35:31  5-MIN KMSN 300835Z 00000KT 6SM BR CLR M06/M07 A3020 610 92 -1800 000/00 RMK AO2
14837KMSN MSN20041130024009811/30/04 02:40:31  5-MIN KMSN 300840Z 00000KT 6SM BR CLR M06/M07 A3020 610 92 -1800 000/00 RMK AO2
14837KMSN MSN20041130024509811/30/04 02:45:31  5-MIN KMSN 300845Z 00000KT 5SM BR CLR M06/M07 A3020 610 92 -1700 000/00 RMK AO2
14837KMSN MSN20041130025012111/30/04 02:50:31  5-MIN KMSN 300850Z 00000KT 5SM BR CLR M06/M07 A3019 610 88 -1700 000/00 RMK AO2 SLP236 T10561072 56011
14837KMSN MSN20041130025509811/30/04 02:55:31  5-MIN KMSN 300855Z 00000KT 5SM BR CLR M06/M07 A3020 610 88 -1700 000/00 RMK AO2
14837KMSN MSN20041130030009811/30/04 03:00:31  5-MIN KMSN 300900Z 00000KT 5SM BR CLR M06/M07 A3019 610 92 -1800 000/00 RMK AO2
14837KMSN MSN20041130030509811/30/04 03:05:31  5-MIN KMSN 300905Z 00000KT 2SM BR CLR M06/M07 A3019 610 92 -1800 000/00 RMK AO2
14837KMSN MSN20041130031009811/30/04 03:10:31  5-MIN KMSN 300910Z 00000KT 2SM BR CLR M06/M08 A3019 610 88 -1800 000/00 RMK AO2
14837KMSN MSN20041130031509811/30/04 03:15:31  5-MIN KMSN 300915Z 00000KT 2SM BR CLR M06/M07 A3019 620 92 -1800 000/00 RMK AO2
14837KMSN MSN20041130032009811/30/04 03:20:31  5-MIN KMSN 300920Z 00000KT 2SM BR CLR M06/M07 A3019 620 92 -1800 000/00 RMK AO2
14837KMSN MSN20041130032509811/30/04 03:25:31  5-MIN KMSN 300925Z 00000KT 2SM BR CLR M06/M07 A3019 620 92 -1800 000/00 RMK AO2
14837KMSN MSN20041130033009811/30/04 03:30:31  5-MIN KMSN 300930Z 00000KT 2SM BR CLR M06/M07 A3018 620 92 -1700 000/00 RMK AO2
14837KMSN MSN20041130033509811/30/04 03:35:31  5-MIN KMSN 300935Z 00000KT 4SM BR CLR M06/M07 A3018 620 92 -1700 000/00 RMK AO2
14837KMSN MSN20041130034009811/30/04 03:40:31  5-MIN KMSN 300940Z 00000KT 4SM BR CLR M07/M07 A3018 620 96 -1800 000/00 RMK AO2
14837KMSN MSN20041130034509811/30/04 03:45:31  5-MIN KMSN 300945Z 33003KT 4SM BR CLR M07/M07 A3018 630 96 -1800 330/03 RMK AO2
14837KMSN MSN20041130035011511/30/04 03:50:31  5-MIN KMSN 300950Z 00000KT 4SM BR CLR M06/M08 A3018 630 88 -1700 000/00 RMK AO2 SLP230 T10611078
14837KMSN MSN20041130035509811/30/04 03:55:31  5-MIN KMSN 300955Z 33003KT 3SM BR CLR M07/M08 A3018 630 96 -1900 330/03 RMK AO2
14837KMSN MSN20041130040009811/30/04 04:00:31  5-MIN KMSN 301000Z 34004KT 3SM BR CLR M07/M08 A3018 630 92 -1800 340/04 RMK AO2
14837KMSN MSN20041130040509811/30/04 04:05:31  5-MIN KMSN 301005Z 35004KT 3SM BR CLR M06/M07 A3017 630 92 -1700 350/04 RMK AO2
14837KMSN MSN20041130041009811/30/04 04:10:31  5-MIN KMSN 301010Z 34004KT 3SM BR CLR M06/M07 A3017 640 92 -1700 340/04 RMK AO2
14837KMSN MSN20041130041509811/30/04 04:15:31  5-MIN KMSN 301015Z 00000KT 4SM BR CLR M07/M08 A3017 640 92 -1800 000/00 RMK AO2
14837KMSN MSN20041130042009811/30/04 04:20:31  5-MIN KMSN 301020Z 00000KT 4SM BR CLR M07/M08 A3017 630 92 -1800 000/00 RMK AO2
14837KMSN MSN20041130042509811/30/04 04:25:31  5-MIN KMSN 301025Z 00000KT 5SM BR CLR M07/M08 A3017 630 92 -1800 000/00 RMK AO2
14837KMSN MSN20041130043009811/30/04 04:30:31  5-MIN KMSN 301030Z 00000KT 5SM BR CLR M07/M08 A3017 630 92 -1800 000/00 RMK AO2
14837KMSN MSN20041130043509811/30/04 04:35:31  5-MIN KMSN 301035Z 00000KT 5SM BR CLR M06/M07 A3017 640 92 -1700 000/00 RMK AO2
14837KMSN MSN20041130044009811/30/04 04:40:31  5-MIN KMSN 301040Z 00000KT 4SM BR CLR M06/M07 A3016 640 92 -1700 000/00 RMK AO2
14837KMSN MSN20041130044509811/30/04 04:45:31  5-MIN KMSN 301045Z 00000KT 4SM BR CLR M06/M07 A3016 640 92 -1700 000/00 RMK AO2
14837KMSN MSN20041130045011511/30/04 04:50:31  5-MIN KMSN 301050Z 00000KT 4SM BR CLR M07/M07 A3016 640 96 -1800 000/00 RMK AO2 SLP225 T10671072
14837KMSN MSN20041130045509811/30/04 04:55:31  5-MIN KMSN 301055Z 00000KT 4SM BR CLR M07/M08 A3016 650 92 -1900 000/00 RMK AO2
14837KMSN MSN20041130050009811/30/04 05:00:31  5-MIN KMSN 301100Z 00000KT 4SM BR CLR M07/M08 A3016 650 96 -1900 000/00 RMK AO2
14837KMSN MSN20041130050509811/30/04 05:05:31  5-MIN KMSN 301105Z 00000KT 4SM BR CLR M07/M08 A3015 650 92 -1800 000/00 RMK AO2
14837KMSN MSN20041130051009811/30/04 05:10:31  5-MIN KMSN 301110Z 00000KT 4SM BR CLR M07/M08 A3015 660 92 -1800 000/00 RMK AO2
14837KMSN MSN20041130051509811/30/04 05:15:31  5-MIN KMSN 301115Z 00000KT 4SM BR CLR M07/M08 A3014 660 92 -1800 000/00 RMK AO2
14837KMSN MSN20041130052009811/30/04 05:20:31  5-MIN KMSN 301120Z 00000KT 5SM BR CLR M07/M08 A3014 660 92 -1800 000/00 RMK AO2
14837KMSN MSN20041130052509811/30/04 05:25:31  5-MIN KMSN 301125Z 00000KT 5SM BR CLR M07/M08 A3014 660 92 -1800 000/00 RMK AO2
14837KMSN MSN20041130053009811/30/04 05:30:31  5-MIN KMSN 301130Z 00000KT 4SM BR CLR M07/M08 A3014 660 92 -1800 000/00 RMK AO2
14837KMSN MSN20041130053509811/30/04 05:35:31  5-MIN KMSN 301135Z 00000KT 4SM BR CLR M07/M08 A3013 670 92 -1800 000/00 RMK AO2
14837KMSN MSN20041130054009811/30/04 05:40:31  5-MIN KMSN 301140Z 00000KT 4SM BR CLR M07/M08 A3013 670 92 -1800 000/00 RMK AO2
14837KMSN MSN20041130054509811/30/04 05:45:31  5-MIN KMSN 301145Z 00000KT 4SM BR CLR M07/M08 A3013 670 88 -1800 000/00 RMK AO2
14837KMSN MSN20041130055013311/30/04 05:50:31  5-MIN KMSN 301150Z 00000KT 5SM BR CLR M07/M08 A3012 680 88 -1800 000/00 RMK AO2 SLP213 T10671083 11044 21072 56002
14837KMSN MSN20041130055509811/30/04 05:55:31  5-MIN KMSN 301155Z 00000KT 5SM BR CLR M07/M08 A3012 680 92 -1800 000/00 RMK AO2
14837KMSN MSN20041130060009811/30/04 06:00:31  5-MIN KMSN 301200Z 00000KT 5SM BR CLR M07/M08 A3013 670 92 -1800 000/00 RMK AO2
14837KMSN MSN20041130060509811/30/04 06:05:31  5-MIN KMSN 301205Z 00000KT 5SM BR CLR M07/M08 A3013 680 92 -1800 000/00 RMK AO2
14837KMSN MSN20041130061009811/30/04 06:10:31  5-MIN KMSN 301210Z 00000KT 5SM BR CLR M06/M07 A3012 680 92 -1700 000/00 RMK AO2
14837KMSN MSN20041130061510111/30/04 06:15:31  5-MIN KMSN 301215Z 00000KT 5SM BR FEW004 M06/M08 A3012 680 88 -1700 000/00 RMK AO2
14837KMSN MSN20041130062010111/30/04 06:20:31  5-MIN KMSN 301220Z 00000KT 4SM BR FEW004 M07/M08 A3011 690 92 -1700 000/00 RMK AO2
14837KMSN MSN20041130062510111/30/04 06:25:31  5-MIN KMSN 301225Z 00000KT 4SM BR SCT004 M07/M08 A3010 690 92 -1700 000/00 RMK AO2
14837KMSN MSN20041130063010111/30/04 06:30:31  5-MIN KMSN 301230Z 00000KT 4SM BR BKN004 M07/M08 A3010 700 92 -1800 000/00 RMK AO2
14837KMSN MSN20041130063511511/30/04 06:35:31  5-MIN KMSN 301235Z 00000KT 2 1/2SM BR BKN004 M07/M08 A3010 700 92 -1800 000/00 RMK AO2 TWR VIS 3
14837KMSN MSN20041130064011511/30/04 06:40:31  5-MIN KMSN 301240Z 00000KT 2 1/2SM BR BKN004 M07/M08 A3010 700 92 -1700 000/00 RMK AO2 TWR VIS 3
14837KMSN MSN20041130064511511/30/04 06:45:31  5-MIN KMSN 301245Z 35003KT 1SM BR OVC002 M07/M08 A3010 700 92 -1700 350/03 RMK AO2 SFC VIS 1 1/2
14837KMSN MSN20041130065011811/30/04 06:50:31  5-MIN KMSN 301250Z 33003KT 1SM BR OVC002 M07/M08 A3011 690 92 -1700 330/03 RMK AO2 SLP208 T10671078
14837KMSN MSN20041130065511311/30/04 06:55:31  5-MIN KMSN 301255Z 00000KT 3/4SM BR OVC002 M06/M07 A3012 680 92 -1700 000/00 RMK AO2 SFC VIS 1
14837KMSN MSN20041130070010311/30/04 07:00:31  5-MIN KMSN 301300Z 00000KT 3/4SM BR OVC002 M06/M07 A3012 680 88 -1600 000/00 RMK AO2
14837KMSN MSN20041130070510311/30/04 07:05:31  5-MIN KMSN 301305Z 00000KT 3/4SM BR OVC002 M06/M07 A3013 670 92 -1600 000/00 RMK AO2
14837KMSN MSN20041130071010311/30/04 07:10:31  5-MIN KMSN 301310Z 00000KT 3/4SM BR OVC002 M06/M07 A3013 670 92 -1600 000/00 RMK AO2
14837KMSN MSN20041130071510311/30/04 07:15:31  5-MIN KMSN 301315Z 00000KT 3/4SM BR OVC002 M06/M07 A3013 670 92 -1600 000/00 RMK AO2
14837KMSN MSN20041130072011511/30/04 07:20:31  5-MIN KMSN 301320Z 29003KT 1SM BR OVC002 M06/M07 A3014 660 92 -1600 280/03 RMK AO2 SFC VIS 1 1/2
14837KMSN MSN20041130072511511/30/04 07:25:31  5-MIN KMSN 301325Z 29003KT 1SM BR OVC002 M06/M07 A3015 660 92 -1600 290/03 RMK AO2 SFC VIS 1 1/2
14837KMSN MSN20041130073011511/30/04 07:30:31  5-MIN KMSN 301330Z 30004KT 1SM BR OVC002 M06/M07 A3015 650 92 -1600 290/04 RMK AO2 SFC VIS 1 1/2
14837KMSN MSN20041130073511511/30/04 07:35:31  5-MIN KMSN 301335Z 30004KT 1SM BR OVC002 M06/M07 A3015 650 92 -1600 300/04 RMK AO2 SFC VIS 1 1/2
14837KMSN MSN20041130074010111/30/04 07:40:31  5-MIN KMSN 301340Z 32005KT 1SM BR OVC002 M06/M07 A3015 650 92 -1600 320/05 RMK AO2
14837KMSN MSN20041130074511511/30/04 07:45:31  5-MIN KMSN 301345Z 31004KT 1/2SM BR OVC002 M06/M07 A3015 650 92 -1600 310/04 RMK AO2 SFC VIS 3/4
14837KMSN MSN20041130075013411/30/04 07:50:31  5-MIN KMSN 301350Z 33004KT 1/4SM FZFG OVC002 M06/M06 A3015 650 96 -1600 330/04 RMK AO2 SFC VIS 1/2 SLP222 T10561061
14837KMSN MSN20041130075510511/30/04 07:55:31  5-MIN KMSN 301355Z VRB03KT 1/4SM FZFG OVC002 M06/M07 A3015 650 92 -1600 VRB/03 RMK AO2
14837KMSN MSN20041130080010511/30/04 08:00:31  5-MIN KMSN 301400Z 31003KT 1/4SM FZFG OVC002 M06/M06 A3015 650 96 -1600 310/03 RMK AO2
14837KMSN MSN20041130080511711/30/04 08:05:31  5-MIN KMSN 301405Z 00000KT 1/4SM FZFG OVC002 M06/M06 A3015 650 96 -1600 000/00 RMK AO2 TWR VIS 1/4
14837KMSN MSN20041130081010411/30/04 08:10:31  5-MIN KMSN 301410Z 31003KT 1/4SM FZFG VV001 M06/M06 A3015 660 96 -1600 310/03 RMK AO2
14837KMSN MSN20041130081510411/30/04 08:15:31  5-MIN KMSN 301415Z 00000KT 1/4SM FZFG VV001 M06/M07 A3015 650 92 -1600 000/00 RMK AO2
14837KMSN MSN20041130082011611/30/04 08:20:31  5-MIN KMSN 301420Z 00000KT 1/4SM FZFG VV001 M06/M06 A3015 650 96 -1600 000/00 RMK AO2 SFC VIS 1/2
14837KMSN MSN20041130082511611/30/04 08:25:31  5-MIN KMSN 301425Z 00000KT 1/4SM FZFG VV001 M06/M06 A3016 650 96 -1600 000/00 RMK AO2 SFC VIS 1/2
14837KMSN MSN20041130083010411/30/04 08:30:31  5-MIN KMSN 301430Z 00000KT 1/4SM FZFG VV001 M06/M06 A3016 650 96 -1600 000/00 RMK AO2
14837KMSN MSN20041130083510411/30/04 08:35:31  5-MIN KMSN 301435Z 28003KT 1/4SM FZFG VV001 M06/M06 A3015 650 96 -1600 280/03 RMK AO2
14837KMSN MSN20041130084011611/30/04 08:40:31  5-MIN KMSN 301440Z 32003KT 1/4SM FZFG VV001 M06/M07 A3014 660 92 -1600 320/03 RMK AO2 SFC VIS 1/2
14837KMSN MSN20041130084511611/30/04 08:45:31  5-MIN KMSN 301445Z 31003KT 1/4SM FZFG VV002 M06/M06 A3014 660 96 -1600 310/03 RMK AO2 SFC VIS 1/2
14837KMSN MSN20041130085013911/30/04 08:50:31  5-MIN KMSN 301450Z 00000KT 1/4SM FZFG VV001 M05/M06 A3014 660 92 -1600 000/00 RMK AO2 SFC VIS 1/2 SLP220 T10501061 58025
14837KMSN MSN20041130085510411/30/04 08:55:31  5-MIN KMSN 301455Z 00000KT 1/4SM FZFG VV001 M05/M06 A3015 660 92 -1600 000/00 RMK AO2
14837KMSN MSN20041130090010411/30/04 09:00:31  5-MIN KMSN 301500Z 00000KT 1/4SM FZFG VV001 M05/M06 A3014 660 92 -1600 000/00 RMK AO2
14837KMSN MSN20041130090510411/30/04 09:05:31  5-MIN KMSN 301505Z 00000KT 1/4SM FZFG VV001 M05/M06 A3015 660 92 -1600 000/00 RMK AO2
14837KMSN MSN20041130091010411/30/04 09:10:31  5-MIN KMSN 301510Z 00000KT 1/4SM FZFG VV001 M05/M06 A3015 650 92 -1600 000/00 RMK AO2
14837KMSN MSN20041130091511611/30/04 09:15:31  5-MIN KMSN 301515Z 00000KT 1/4SM FZFG VV001 M05/M06 A3015 650 92 -1600 000/00 RMK AO2 SFC VIS 1/2
14837KMSN MSN20041130092013211/30/04 09:20:31  5-MIN KMSN 301520Z 00000KT 1/4SM -SN FZFG VV001 M05/M06 A3015 650 92 -1600 000/00 RMK AO2 SFC VIS 1/2 SNB20 P0000
14837KMSN MSN20041130092513211/30/04 09:25:31  5-MIN KMSN 301525Z 00000KT 1/4SM -SN FZFG VV001 M05/M06 A3015 660 96 -1600 000/00 RMK AO2 SFC VIS 1/2 SNB20 P0000
14837KMSN MSN20041130093013311/30/04 09:30:31  5-MIN KMSN 301530Z 00000KT 1/4SM -SN FZFG BKN003 M04/M05 A3015 650 96 -1500 000/00 RMK AO2 SFC VIS 1/2 SNB20 P0000
14837KMSN MSN20041130093513311/30/04 09:35:31  5-MIN KMSN 301535Z 00000KT 1/4SM -SN FZFG BKN003 M04/M05 A3015 660 96 -1500 000/00 RMK AO2 SFC VIS 1/2 SNB20 P0000
14837KMSN MSN20041130094013411/30/04 09:40:31  5-MIN KMSN 301540Z 00000KT 1/4SM -SN FZFG OVC003 M04/M04 A3014 670 100 -1500 000/00 RMK AO2 SFC VIS 1/2 SNB20 P0000
14837KMSN MSN20041130094511711/30/04 09:45:31  5-MIN KMSN 301545Z 00000KT 1SM -SN BR BKN003 M04/M04 A3014 670 96 -1400 000/00 RMK AO2 SNB20 P0000
14837KMSN MSN20041130095013311/30/04 09:50:31  5-MIN KMSN 301550Z 00000KT 1SM BR BKN003 M04/M04 A3013 670 96 -1400 000/00 RMK AO2 SNB20E46 SLP216 P0000 T10391044
14837KMSN MSN20041130095513311/30/04 09:55:31  5-MIN KMSN 301555Z 00000KT 1SM -SN BR BKN003 BKN110 M04/M04 A3013 670 100 -1400 000/00 RMK AO2 SFC VIS 1 1/4 P0000
14837KMSN MSN20041130100013311/30/04 10:00:31  5-MIN KMSN 301600Z 00000KT 1SM -SN BR BKN003 BKN110 M04/M04 A3013 670 100 -1400 000/00 RMK AO2 SFC VIS 1 1/4 P0000
14837KMSN MSN20041130100512711/30/04 10:05:31  5-MIN KMSN 301605Z 00000KT 1SM BR BKN003 M04/M04 A3013 670 96 -1400 000/00 RMK AO2 SFC VIS 1 1/2 SNE02 P0000
14837KMSN MSN20041130101011711/30/04 10:10:31  5-MIN KMSN 301610Z 00000KT 1 1/2SM BR SCT003 M04/M05 A3013 680 92 -1400 000/00 RMK AO2 SNE02 P0000
14837KMSN MSN20041130101513811/30/04 10:15:31  5-MIN KMSN 301615Z 00000KT 1 1/2SM BR SCT003 BKN110 M04/M04 A3012 680 96 -1400 000/00 RMK AO2 SFC VIS 1 3/4 SNE02 P0000
14837KMSN MSN20041130102013811/30/04 10:20:31  5-MIN KMSN 301620Z 00000KT 1 1/2SM BR FEW003 SCT100 M04/M05 A3012 680 92 -1400 000/00 RMK AO2 SFC VIS 1 3/4 SNE02 P0000
14837KMSN MSN20041130102513811/30/04 10:25:31  5-MIN KMSN 301625Z 00000KT 1 1/2SM BR FEW003 BKN110 M04/M04 A3012 680 96 -1400 000/00 RMK AO2 SFC VIS 1 3/4 SNE02 P0000
14837KMSN MSN20041130103013411/30/04 10:30:31  5-MIN KMSN 301630Z 00000KT 1 1/2SM BR FEW003 BKN110 M03/M04 A3012 680 92 -1300 000/00 RMK AO2 SFC VIS 2 SNE02 P0000
14837KMSN MSN20041130103512711/30/04 10:35:31  5-MIN KMSN 301635Z 00000KT 1 1/2SM BR BKN110 M03/M04 A3012 680 92 -1300 000/00 RMK AO2 SFC VIS 2 SNE02 P0000
14837KMSN MSN20041130104012711/30/04 10:40:31  5-MIN KMSN 301640Z 00000KT 1 1/2SM BR BKN110 M03/M04 A3013 670 92 -1300 000/00 RMK AO2 SFC VIS 2 SNE02 P0000
14837KMSN MSN20041130104512711/30/04 10:45:31  5-MIN KMSN 301645Z 18004KT 1 1/2SM BR OVC110 M03/M04 A3013 670 92 -1300 180/04 RMK AO2 SFC VIS 2 SNE02 P0000
14837KMSN MSN20041130105014411/30/04 10:50:31  5-MIN KMSN 301650Z 00000KT 1 1/2SM BR OVC110 M03/M04 A3012 680 92 -1300 000/00 RMK AO2 SFC VIS 2 SNE02 SLP213 P0000 T10331044
14837KMSN MSN20041130105511911/30/04 10:55:31  5-MIN KMSN 301655Z 00000KT 1 1/2SM BR OVC110 M03/M04 A3012 680 92 -1300 000/00 RMK AO2 SFC VIS 1 3/4
14837KMSN MSN20041130110011911/30/04 11:00:31  5-MIN KMSN 301700Z 00000KT 1 1/2SM BR OVC100 M03/M04 A3012 680 92 -1200 000/00 RMK AO2 SFC VIS 1 3/4
14837KMSN MSN20041130110512611/30/04 11:05:31  5-MIN KMSN 301705Z 00000KT 1 1/2SM BR FEW004 OVC100 M03/M04 A3012 680 92 -1200 000/00 RMK AO2 SFC VIS 1 3/4
14837KMSN MSN20041130111012611/30/04 11:10:31  5-MIN KMSN 301710Z 00000KT 1 1/2SM BR FEW004 BKN100 M03/M04 A3011 690 92 -1200 000/00 RMK AO2 SFC VIS 1 3/4
14837KMSN MSN20041130111511211/30/04 11:15:31  5-MIN KMSN 301715Z 00000KT 1 1/2SM BR FEW004 BKN100 M02/M03 A3011 690 92 -1200 000/00 RMK AO2
14837KMSN MSN20041130112011211/30/04 11:20:31  5-MIN KMSN 301720Z 00000KT 1 1/2SM BR FEW004 BKN095 M02/M03 A3011 690 92 -1200 000/00 RMK AO2
14837KMSN MSN20041130112511211/30/04 11:25:31  5-MIN KMSN 301725Z 00000KT 1 1/2SM BR FEW004 BKN090 M03/M04 A3011 690 92 -1200 000/00 RMK AO2
14837KMSN MSN20041130113011211/30/04 11:30:31  5-MIN KMSN 301730Z 00000KT 1 1/2SM BR FEW004 BKN090 M02/M03 A3010 700 92 -1200 000/00 RMK AO2
14837KMSN MSN20041130113511911/30/04 11:35:31  5-MIN KMSN 301735Z 00000KT 1 1/2SM BR SCT090 M02/M03 A3009 710 92 -1100 000/00 RMK AO2 SFC VIS 1 3/4
14837KMSN MSN20041130114012611/30/04 11:40:31  5-MIN KMSN 301740Z 35004KT 1 1/2SM BR BKN090 M02/M03 A3008 720 92 -1100 350/04 RMK AO2 SFC VIS 1 3/4 PRESFR
14837KMSN MSN20041130114512611/30/04 11:45:31  5-MIN KMSN 301745Z 35004KT 1 1/2SM BR BKN095 M02/M03 A3007 720 96 -1100 350/04 RMK AO2 SFC VIS 1 3/4 PRESFR
14837KMSN MSN20041130115015311/30/04 11:50:31  5-MIN KMSN 301750Z 34004KT 1 1/2SM BR BKN095 M02/M03 A3006 730 92 -1000 340/04 RMK AO2 PRESFR SLP192 60000 T10171028 11017 21072 52008
14837KMSN MSN20041130115511511/30/04 11:55:31  5-MIN KMSN 301755Z 36006KT 1 1/2SM BR BKN095 M02/M03 A3007 730 92 -1000 360/06 RMK AO2 SFC VIS 2
14837KMSN MSN20041130120011511/30/04 12:00:31  5-MIN KMSN 301800Z 36006KT 1 1/2SM BR BKN095 M02/M03 A3007 730 92 -1000 360/06 RMK AO2 SFC VIS 2
14837KMSN MSN20041130120510111/30/04 12:05:31  5-MIN KMSN 301805Z 36004KT 3SM BR BKN095 M02/M03 A3007 730 92 -1000 360/04 RMK AO2
14837KMSN MSN20041130121011111/30/04 12:10:31  5-MIN KMSN 301810Z 00000KT 2SM BR BKN095 M02/M03 A3008 720 88 -1100 000/00 RMK AO2 SFC VIS 3
14837KMSN MSN20041130121511111/30/04 12:15:31  5-MIN KMSN 301815Z 00000KT 2SM BR BKN090 M02/M04 A3006 740 88 -1100 000/00 RMK AO2 SFC VIS 3
14837KMSN MSN20041130122011111/30/04 12:20:31  5-MIN KMSN 301820Z 00000KT 2SM BR BKN090 M02/M03 A3005 740 88 -1000 000/00 RMK AO2 SFC VIS 3
14837KMSN MSN20041130122511111/30/04 12:25:31  5-MIN KMSN 301825Z 00000KT 2SM BR SCT090 M02/M03 A3005 750 88 -1000 000/00 RMK AO2 SFC VIS 3
14837KMSN MSN20041130123011111/30/04 12:30:31  5-MIN KMSN 301830Z 00000KT 2SM BR BKN085 M02/M03 A3005 740 88 -1000 000/00 RMK AO2 SFC VIS 3
14837KMSN MSN20041130123511111/30/04 12:35:31  5-MIN KMSN 301835Z 00000KT 2SM BR BKN085 M01/M03 A3005 750 85 -1000 000/00 RMK AO2 SFC VIS 3
14837KMSN MSN20041130124011111/30/04 12:40:31  5-MIN KMSN 301840Z 00000KT 2SM BR SCT085 M02/M04 A3004 750 85 -1000 000/00 RMK AO2 SFC VIS 3
14837KMSN MSN20041130124510011/30/04 12:45:31  5-MIN KMSN 301845Z 00000KT 3SM HZ BKN080 M01/M04 A3003 760 81 -900 000/00 RMK AO2
14837KMSN MSN20041130125011811/30/04 12:50:31  5-MIN KMSN 301850Z 00000KT 3SM HZ BKN080 M01/M04 A3005 750 81 -1000 000/00 RMK AO2 SLP187 T10111039
14837KMSN MSN20041130125511011/30/04 12:55:31  5-MIN KMSN 301855Z 00000KT 3SM HZ BKN080 M01/M04 A3003 760 81 -900 000/00 RMK AO2 SFC VIS 4
14837KMSN MSN20041130130011011/30/04 13:00:31  5-MIN KMSN 301900Z 00000KT 3SM HZ BKN080 M01/M04 A3003 760 81 -900 000/00 RMK AO2 SFC VIS 4
14837KMSN MSN20041130130511011/30/04 13:05:31  5-MIN KMSN 301905Z 00000KT 3SM HZ BKN080 M01/M03 A3003 760 81 -900 000/00 RMK AO2 SFC VIS 4
14837KMSN MSN20041130131011011/30/04 13:10:31  5-MIN KMSN 301910Z 36004KT 3SM HZ BKN080 M01/M04 A3002 770 78 -900 360/04 RMK AO2 SFC VIS 4
14837KMSN MSN20041130131511011/30/04 13:15:31  5-MIN KMSN 301915Z 36003KT 3SM HZ BKN080 M01/M03 A3002 780 81 -800 360/03 RMK AO2 SFC VIS 4
14837KMSN MSN20041130132010911/30/04 13:20:31  5-MIN KMSN 301920Z 35004KT 3SM HZ BKN080 00/M03 A3001 780 78 -800 350/04 RMK AO2 SFC VIS 4
14837KMSN MSN20041130132512311/30/04 13:25:31  5-MIN KMSN 301925Z 34004KT 3SM HZ BKN080 BKN100 00/M03 A3000 790 81 -800 340/04 RMK AO2 SFC VIS 4 PRESFR
14837KMSN MSN20041130133012311/30/04 13:30:31  5-MIN KMSN 301930Z 01003KT 3SM HZ SCT080 BKN100 BKN110 00/M03 A3000 790 78 -800 010/03 RMK AO2 SFC VIS 4
14837KMSN MSN20041130133510611/30/04 13:35:31  5-MIN KMSN 301935Z 01005KT 4SM HZ SCT080 BKN110 00/M03 A2999 800 78 -800 010/05 RMK AO2
14837KMSN MSN20041130134011311/30/04 13:40:31  5-MIN KMSN 301940Z 36006KT 5SM HZ FEW080 BKN110 00/M04 A2998 810 72 -700 360/06 RMK AO2 PRESFR
14837KMSN MSN20041130134510611/30/04 13:45:31  5-MIN KMSN 301945Z 34004KT 5SM HZ FEW080 BKN110 00/M04 A3001 790 72 -800 340/04 RMK AO2
14837KMSN MSN20041130135011611/30/04 13:50:31  5-MIN KMSN 301950Z 36004KT 5SM HZ BKN110 00/M04 A3000 790 75 -800 360/04 RMK AO2 SLP169 T00001039
14837KMSN MSN20041130135509911/30/04 13:55:31  5-MIN KMSN 301955Z 33004KT 5SM HZ BKN110 00/M04 A3000 790 72 -800 330/04 RMK AO2
14837KMSN MSN20041130140009911/30/04 14:00:31  5-MIN KMSN 302000Z 36004KT 5SM HZ OVC100 00/M04 A2998 810 72 -700 360/04 RMK AO2
14837KMSN MSN20041130140509911/30/04 14:05:31  5-MIN KMSN 302005Z 35005KT 5SM HZ OVC100 00/M04 A2997 810 75 -700 350/05 RMK AO2
14837KMSN MSN20041130141009911/30/04 14:10:31  5-MIN KMSN 302010Z 35003KT 5SM HZ BKN100 00/M04 A2997 810 75 -700 350/03 RMK AO2
14837KMSN MSN20041130141509911/30/04 14:15:31  5-MIN KMSN 302015Z 03003KT 5SM HZ BKN110 00/M04 A2998 810 72 -700 030/03 RMK AO2
14837KMSN MSN20041130142009911/30/04 14:20:31  5-MIN KMSN 302020Z 02004KT 6SM HZ BKN110 00/M04 A2997 820 72 -700 020/04 RMK AO2
14837KMSN MSN20041130142509911/30/04 14:25:31  5-MIN KMSN 302025Z 02003KT 6SM HZ OVC100 00/M04 A2997 820 72 -700 020/03 RMK AO2
14837KMSN MSN20041130143009911/30/04 14:30:31  5-MIN KMSN 302030Z 01003KT 6SM HZ OVC100 01/M05 A2997 820 66 -700 010/03 RMK AO2
14837KMSN MSN20041130143509911/30/04 14:35:31  5-MIN KMSN 302035Z 04005KT 6SM HZ BKN100 00/M05 A2996 830 69 -700 040/05 RMK AO2
14837KMSN MSN20041130144009911/30/04 14:40:31  5-MIN KMSN 302040Z 03003KT 6SM HZ OVC100 00/M06 A2997 820 66 -700 030/03 RMK AO2
14837KMSN MSN20041130144509611/30/04 14:45:31  5-MIN KMSN 302045Z 07004KT 7SM OVC100 00/M05 A2996 830 69 -700 070/04 RMK AO2
14837KMSN MSN20041130145012611/30/04 14:50:31  5-MIN KMSN 302050Z 00000KT 7SM FEW070 OVC100 00/M06 A2996 830 63 -700 000/00 RMK AO2 SLP157 T00001061 58026
14837KMSN MSN20041130145510311/30/04 14:55:31  5-MIN KMSN 302055Z 04003KT 7SM FEW070 OVC110 00/M06 A2995 830 63 -700 040/03 RMK AO2
14837KMSN MSN20041130150009611/30/04 15:00:31  5-MIN KMSN 302100Z 04004KT 8SM OVC110 01/M06 A2995 840 61 -600 040/04 RMK AO2
14837KMSN MSN20041130150509611/30/04 15:05:31  5-MIN KMSN 302105Z 04003KT 8SM OVC110 00/M06 A2995 830 63 -700 040/03 RMK AO2
14837KMSN MSN20041130151009611/30/04 15:10:31  5-MIN KMSN 302110Z 02003KT 8SM OVC110 00/M06 A2994 850 66 -700 020/03 RMK AO2
14837KMSN MSN20041130151510311/30/04 15:15:31  5-MIN KMSN 302115Z 03004KT 7SM OVC110 00/M05 A2993 850 69 -700 020/04 RMK AO2 PRESFR
14837KMSN MSN20041130152009611/30/04 15:20:31  5-MIN KMSN 302120Z 03004KT 7SM OVC110 01/M05 A2994 850 66 -600 030/04 RMK AO2
14837KMSN MSN20041130152509611/30/04 15:25:31  5-MIN KMSN 302125Z 05003KT 7SM OVC110 01/M06 A2994 850 63 -600 050/03 RMK AO2
14837KMSN MSN20041130153009611/30/04 15:30:31  5-MIN KMSN 302130Z 00000KT 7SM OVC100 01/M05 A2994 840 66 -600 000/00 RMK AO2
14837KMSN MSN20041130153509611/30/04 15:35:31  5-MIN KMSN 302135Z 00000KT 7SM OVC100 00/M05 A2994 840 69 -700 000/00 RMK AO2
14837KMSN MSN20041130154009611/30/04 15:40:31  5-MIN KMSN 302140Z 00000KT 7SM OVC100 01/M05 A2994 850 66 -600 000/00 RMK AO2
14837KMSN MSN20041130154509611/30/04 15:45:31  5-MIN KMSN 302145Z 00000KT 7SM OVC100 01/M04 A2994 850 69 -600 000/00 RMK AO2
14837KMSN MSN20041130155011311/30/04 15:50:31  5-MIN KMSN 302150Z 00000KT 7SM OVC100 01/M04 A2994 850 69 -600 000/00 RMK AO2 SLP150 T00061044
14837KMSN MSN20041130155509611/30/04 15:55:31  5-MIN KMSN 302155Z 00000KT 7SM OVC110 00/M04 A2994 850 72 -700 000/00 RMK AO2
14837KMSN MSN20041130160009611/30/04 16:00:31  5-MIN KMSN 302200Z 36003KT 7SM OVC110 00/M04 A2993 860 72 -700 360/03 RMK AO2
14837KMSN MSN20041130160509611/30/04 16:05:31  5-MIN KMSN 302205Z 36003KT 7SM OVC110 00/M04 A2993 860 72 -700 360/03 RMK AO2
14837KMSN MSN20041130161010411/30/04 16:10:31  5-MIN KMSN 302210Z 35003KT 7SM OVC110 M01/M04 A2992 870 75 -700 350/03 RMK AO2 PRESFR
14837KMSN MSN20041130161509611/30/04 16:15:31  5-MIN KMSN 302215Z 00000KT 7SM BKN110 00/M04 A2993 860 72 -700 000/00 RMK AO2
14837KMSN MSN20041130162009611/30/04 16:20:31  5-MIN KMSN 302220Z 00000KT 7SM BKN110 00/M04 A2992 860 72 -700 000/00 RMK AO2
14837KMSN MSN20041130162509611/30/04 16:25:31  5-MIN KMSN 302225Z 00000KT 7SM BKN110 00/M04 A2993 860 72 -700 000/00 RMK AO2
14837KMSN MSN20041130163009611/30/04 16:30:31  5-MIN KMSN 302230Z 00000KT 7SM BKN110 00/M04 A2992 860 72 -700 000/00 RMK AO2
14837KMSN MSN20041130163509711/30/04 16:35:31  5-MIN KMSN 302235Z 34003KT 7SM BKN110 M01/M04 A2991 870 75 -700 340/03 RMK AO2
14837KMSN MSN20041130164009711/30/04 16:40:31  5-MIN KMSN 302240Z 00000KT 8SM BKN110 M01/M04 A2992 860 75 -700 000/00 RMK AO2
14837KMSN MSN20041130164509711/30/04 16:45:31  5-MIN KMSN 302245Z 00000KT 8SM BKN110 M01/M04 A2992 870 75 -700 000/00 RMK AO2
14837KMSN MSN20041130165011311/30/04 16:50:31  5-MIN KMSN 302250Z 00000KT 8SM BKN110 00/M04 A2992 860 72 -700 000/00 RMK AO2 SLP145 T00001044
14837KMSN MSN20041130165510311/30/04 16:55:31  5-MIN KMSN 302255Z 00000KT 8SM FEW070 OVC110 00/M04 A2993 860 72 -700 000/00 RMK AO2
14837KMSN MSN20041130170010311/30/04 17:00:31  5-MIN KMSN 302300Z 00000KT 8SM FEW070 OVC110 00/M04 A2992 870 72 -700 000/00 RMK AO2
14837KMSN MSN20041130170510411/30/04 17:05:31  5-MIN KMSN 302305Z 00000KT 8SM FEW070 OVC110 M01/M04 A2991 880 75 -700 000/00 RMK AO2
14837KMSN MSN20041130171010411/30/04 17:10:31  5-MIN KMSN 302310Z 33003KT 8SM FEW070 OVC110 M01/M04 A2991 880 78 -700 330/03 RMK AO2
14837KMSN MSN20041130171510411/30/04 17:15:31  5-MIN KMSN 302315Z 00000KT 8SM FEW070 OVC110 M01/M04 A2992 870 78 -700 000/00 RMK AO2
14837KMSN MSN20041130172010411/30/04 17:20:31  5-MIN KMSN 302320Z 00000KT 8SM FEW070 OVC110 M01/M04 A2991 880 78 -700 000/00 RMK AO2
14837KMSN MSN20041130172510411/30/04 17:25:31  5-MIN KMSN 302325Z 00000KT 8SM FEW070 OVC110 M01/M04 A2991 880 78 -700 000/00 RMK AO2
14837KMSN MSN20041130173010411/30/04 17:30:31  5-MIN KMSN 302330Z 00000KT 8SM FEW070 OVC110 M01/M04 A2991 880 78 -700 000/00 RMK AO2
14837KMSN MSN20041130173510411/30/04 17:35:31  5-MIN KMSN 302335Z 00000KT 8SM FEW070 OVC110 M01/M04 A2991 880 81 -800 000/00 RMK AO2
14837KMSN MSN20041130174010411/30/04 17:40:31  5-MIN KMSN 302340Z 00000KT 8SM FEW070 OVC100 M01/M04 A2991 870 78 -700 000/00 RMK AO2
14837KMSN MSN20041130174510311/30/04 17:45:31  5-MIN KMSN 302345Z 00000KT 8SM FEW070 OVC095 00/M04 A2990 880 72 -600 000/00 RMK AO2
14837KMSN MSN20041130175013211/30/04 17:50:31  5-MIN KMSN 302350Z 00000KT 8SM OVC095 M01/M04 A2991 880 78 -700 000/00 RMK AO2 SLP139 T10061039 10006 21022 58037
14837KMSN MSN20041130175510411/30/04 17:55:31  5-MIN KMSN 302355Z 00000KT 8SM BKN080 OVC100 M01/M04 A2991 880 78 -700 000/00 RMK AO2
14837KMSN MSN20041130180010411/30/04 18:00:31  5-MIN KMSN 010000Z 00000KT 8SM SCT075 OVC100 M01/M04 A2991 870 78 -700 000/00 RMK AO2
14837KMSN MSN20041130180511011/30/04 18:05:31  5-MIN KMSN 010005Z 00000KT 8SM FEW070 BKN090 OVC100 00/M04 A2992 870 75 -700 000/00 RMK AO2
14837KMSN MSN20041130181010311/30/04 18:10:31  5-MIN KMSN 010010Z 00000KT 8SM FEW070 OVC100 00/M04 A2992 870 75 -700 000/00 RMK AO2
14837KMSN MSN20041130181509611/30/04 18:15:31  5-MIN KMSN 010015Z 00000KT 8SM OVC100 00/M04 A2992 870 75 -700 000/00 RMK AO2
14837KMSN MSN20041130182009611/30/04 18:20:31  5-MIN KMSN 010020Z 00000KT 8SM OVC100 00/M04 A2992 870 75 -700 000/00 RMK AO2
14837KMSN MSN20041130182509611/30/04 18:25:31  5-MIN KMSN 010025Z 00000KT 8SM OVC110 00/M04 A2991 870 75 -700 000/00 RMK AO2
14837KMSN MSN20041130183009611/30/04 18:30:31  5-MIN KMSN 010030Z 00000KT 8SM OVC100 00/M04 A2991 870 72 -700 000/00 RMK AO2
14837KMSN MSN20041130183509611/30/04 18:35:31  5-MIN KMSN 010035Z 00000KT 8SM OVC100 00/M04 A2991 880 72 -700 000/00 RMK AO2
14837KMSN MSN20041130184009611/30/04 18:40:31  5-MIN KMSN 010040Z 00000KT 8SM OVC100 00/M04 A2991 880 75 -700 000/00 RMK AO2
14837KMSN MSN20041130184510411/30/04 18:45:31  5-MIN KMSN 010045Z 00000KT 8SM BKN090 OVC100 M01/M04 A2990 880 78 -700 000/00 RMK AO2
14837KMSN MSN20041130185012011/30/04 18:50:31  5-MIN KMSN 010050Z 00000KT 7SM BKN080 OVC100 00/M04 A2990 880 72 -600 000/00 RMK AO2 SLP137 T00001044
14837KMSN MSN20041130185510411/30/04 18:55:31  5-MIN KMSN 010055Z 00000KT 7SM BKN075 OVC100 M01/M03 A2990 890 81 -700 000/00 RMK AO2
14837KMSN MSN20041130190009711/30/04 19:00:31  5-MIN KMSN 010100Z 00000KT 7SM OVC070 M01/M03 A2990 890 85 -700 000/00 RMK AO2
14837KMSN MSN20041130190509711/30/04 19:05:31  5-MIN KMSN 010105Z 00000KT 7SM OVC070 M01/M04 A2989 890 78 -700 000/00 RMK AO2
14837KMSN MSN20041130191009711/30/04 19:10:31  5-MIN KMSN 010110Z 00000KT 7SM OVC070 M01/M04 A2989 890 78 -700 000/00 RMK AO2
14837KMSN MSN20041130191509711/30/04 19:15:31  5-MIN KMSN 010115Z 00000KT 7SM OVC070 M01/M04 A2989 890 78 -700 000/00 RMK AO2
14837KMSN MSN20041130192009711/30/04 19:20:31  5-MIN KMSN 010120Z 00000KT 7SM OVC070 M01/M03 A2989 890 81 -700 000/00 RMK AO2
14837KMSN MSN20041130192509611/30/04 19:25:31  5-MIN KMSN 010125Z 00000KT 7SM OVC070 00/M04 A2989 890 75 -600 000/00 RMK AO2
14837KMSN MSN20041130193009611/30/04 19:30:31  5-MIN KMSN 010130Z 00000KT 7SM OVC070 00/M04 A2988 900 75 -600 000/00 RMK AO2
14837KMSN MSN20041130193509711/30/04 19:35:31  5-MIN KMSN 010135Z 00000KT 7SM OVC070 M01/M04 A2988 900 78 -700 000/00 RMK AO2
14837KMSN MSN20041130194009711/30/04 19:40:31  5-MIN KMSN 010140Z 00000KT 7SM OVC070 M01/M03 A2987 910 81 -700 000/00 RMK AO2
14837KMSN MSN20041130194509711/30/04 19:45:31  5-MIN KMSN 010145Z 00000KT 7SM OVC070 M01/M04 A2987 910 78 -700 000/00 RMK AO2
14837KMSN MSN20041130195011411/30/04 19:50:31  5-MIN KMSN 010150Z 00000KT 7SM OVC070 M01/M04 A2987 910 78 -700 000/00 RMK AO2 SLP127 T10061039
14837KMSN MSN20041130195509711/30/04 19:55:31  5-MIN KMSN 010155Z 00000KT 7SM OVC070 M01/M03 A2988 900 81 -700 000/00 RMK AO2
14837KMSN MSN20041130200009711/30/04 20:00:31  5-MIN KMSN 010200Z 00000KT 7SM OVC070 M01/M04 A2987 910 78 -700 000/00 RMK AO2
14837KMSN MSN20041130200509711/30/04 20:05:31  5-MIN KMSN 010205Z 00000KT 7SM OVC070 M01/M04 A2987 910 78 -700 000/00 RMK AO2
14837KMSN MSN20041130201009711/30/04 20:10:31  5-MIN KMSN 010210Z 00000KT 7SM OVC070 M01/M04 A2987 920 78 -700 000/00 RMK AO2
14837KMSN MSN20041130201509711/30/04 20:15:31  5-MIN KMSN 010215Z 00000KT 7SM OVC070 M01/M03 A2987 910 81 -700 000/00 RMK AO2
14837KMSN MSN20041130202009711/30/04 20:20:31  5-MIN KMSN 010220Z 00000KT 7SM OVC070 M01/M03 A2987 910 81 -700 000/00 RMK AO2
14837KMSN MSN20041130202509711/30/04 20:25:31  5-MIN KMSN 010225Z 00000KT 7SM OVC070 M01/M03 A2986 920 81 -700 000/00 RMK AO2
14837KMSN MSN20041130203009711/30/04 20:30:31  5-MIN KMSN 010230Z 00000KT 7SM OVC070 M01/M03 A2986 920 81 -700 000/00 RMK AO2
14837KMSN MSN20041130203509711/30/04 20:35:31  5-MIN KMSN 010235Z 00000KT 7SM OVC075 M01/M03 A2986 920 81 -700 000/00 RMK AO2
14837KMSN MSN20041130204009711/30/04 20:40:31  5-MIN KMSN 010240Z 00000KT 7SM OVC075 M01/M03 A2986 920 81 -700 000/00 RMK AO2
14837KMSN MSN20041130204509711/30/04 20:45:31  5-MIN KMSN 010245Z 00000KT 7SM OVC080 M01/M03 A2986 920 81 -700 000/00 RMK AO2
14837KMSN MSN20041130205012011/30/04 20:50:31  5-MIN KMSN 010250Z 00000KT 7SM OVC080 M01/M03 A2986 920 81 -700 000/00 RMK AO2 SLP123 T10061033 58017
14837KMSN MSN20041130205509711/30/04 20:55:31  5-MIN KMSN 010255Z 00000KT 7SM OVC085 M01/M03 A2986 920 81 -700 000/00 RMK AO2
14837KMSN MSN20041130210009711/30/04 21:00:31  5-MIN KMSN 010300Z 00000KT 7SM OVC085 M01/M03 A2985 930 85 -700 000/00 RMK AO2
14837KMSN MSN20041130210509711/30/04 21:05:31  5-MIN KMSN 010305Z 00000KT 7SM OVC085 M01/M04 A2985 930 78 -700 000/00 RMK AO2
14837KMSN MSN20041130211009711/30/04 21:10:31  5-MIN KMSN 010310Z 29003KT 7SM OVC085 M01/M04 A2985 930 78 -700 290/03 RMK AO2
14837KMSN MSN20041130211509711/30/04 21:15:31  5-MIN KMSN 010315Z 30004KT 7SM OVC085 M01/M04 A2985 930 78 -700 300/04 RMK AO2
14837KMSN MSN20041130212009711/30/04 21:20:31  5-MIN KMSN 010320Z 30003KT 8SM OVC085 M01/M04 A2985 930 75 -700 300/03 RMK AO2
14837KMSN MSN20041130212509711/30/04 21:25:31  5-MIN KMSN 010325Z 30003KT 8SM OVC085 M01/M04 A2985 930 78 -700 300/03 RMK AO2
14837KMSN MSN20041130213009711/30/04 21:30:31  5-MIN KMSN 010330Z 00000KT 8SM OVC090 M01/M04 A2985 930 78 -700 000/00 RMK AO2
14837KMSN MSN20041130213510411/30/04 21:35:31  5-MIN KMSN 010335Z 00000KT 8SM SCT080 OVC095 M01/M04 A2985 930 75 -700 000/00 RMK AO2
14837KMSN MSN20041130214009711/30/04 21:40:31  5-MIN KMSN 010340Z 30003KT 8SM OVC090 M01/M04 A2985 930 75 -700 300/03 RMK AO2
14837KMSN MSN20041130214509711/30/04 21:45:31  5-MIN KMSN 010345Z 00000KT 8SM OVC090 M01/M04 A2985 930 75 -700 000/00 RMK AO2
14837KMSN MSN20041130215011311/30/04 21:50:31  5-MIN KMSN 010350Z 00000KT 8SM OVC090 00/M05 A2985 930 69 -600 000/00 RMK AO2 SLP119 T00001050
14837KMSN MSN20041130215509711/30/04 21:55:31  5-MIN KMSN 010355Z 29003KT 8SM OVC090 M01/M05 A2985 930 72 -700 290/03 RMK AO2
14837KMSN MSN20041130220010411/30/04 22:00:31  5-MIN KMSN 010400Z 00000KT 9SM BKN080 OVC095 M01/M05 A2985 930 72 -600 000/00 RMK AO2
14837KMSN MSN20041130220510411/30/04 22:05:31  5-MIN KMSN 010405Z 30005KT 9SM BKN080 OVC095 M01/M06 A2984 940 69 -600 300/05 RMK AO2
14837KMSN MSN20041130221009611/30/04 22:10:31  5-MIN KMSN 010410Z 30006KT 9SM OVC080 00/M06 A2984 940 66 -600 300/06 RMK AO2
14837KMSN MSN20041130221509611/30/04 22:15:31  5-MIN KMSN 010415Z 30005KT 9SM OVC080 00/M06 A2984 940 66 -600 300/05 RMK AO2
14837KMSN MSN20041130222009611/30/04 22:20:31  5-MIN KMSN 010420Z 29003KT 9SM OVC080 00/M06 A2984 940 63 -600 290/03 RMK AO2
14837KMSN MSN20041130222509611/30/04 22:25:31  5-MIN KMSN 010425Z VRB04KT 9SM OVC085 00/M06 A2984 940 63 -600 VRB/04 RMK AO2
14837KMSN MSN20041130223010311/30/04 22:30:31  5-MIN KMSN 010430Z 29003KT 9SM BKN090 OVC100 00/M07 A2984 940 61 -600 280/03 RMK AO2
14837KMSN MSN20041130223509711/30/04 22:35:31  5-MIN KMSN 010435Z 29004KT 10SM OVC090 00/M07 A2984 940 61 -600 290/04 RMK AO2
14837KMSN MSN20041130224009711/30/04 22:40:31  5-MIN KMSN 010440Z 28003KT 9SM BKN095 M01/M07 A2984 940 63 -600 280/03 RMK AO2
14837KMSN MSN20041130224509711/30/04 22:45:31  5-MIN KMSN 010445Z 28003KT 9SM BKN095 M01/M07 A2984 940 63 -600 280/03 RMK AO2
14837KMSN MSN20041130225011411/30/04 22:50:31  5-MIN KMSN 010450Z 28004KT 9SM SCT100 M01/M07 A2984 940 63 -600 280/04 RMK AO2 SLP114 T10061067
14837KMSN MSN20041130225509711/30/04 22:55:31  5-MIN KMSN 010455Z 29006KT 9SM FEW100 M01/M07 A2984 940 66 -700 280/06 RMK AO2
14837KMSN MSN20041130230009811/30/04 23:00:31  5-MIN KMSN 010500Z 29005KT 10SM FEW100 M01/M07 A2984 940 66 -700 280/05 RMK AO2
14837KMSN MSN20041130230509811/30/04 23:05:31  5-MIN KMSN 010505Z 28006KT 10SM FEW100 M01/M07 A2983 940 63 -700 280/06 RMK AO2
14837KMSN MSN20041130231009811/30/04 23:10:31  5-MIN KMSN 010510Z 28006KT 10SM FEW100 M01/M07 A2984 940 63 -700 280/06 RMK AO2
14837KMSN MSN20041130231509811/30/04 23:15:31  5-MIN KMSN 010515Z 28006KT 10SM FEW100 M01/M07 A2984 940 63 -700 280/06 RMK AO2
14837KMSN MSN20041130232009811/30/04 23:20:31  5-MIN KMSN 010520Z 28006KT 10SM FEW100 M01/M07 A2984 940 63 -700 280/06 RMK AO2
14837KMSN MSN20041130232509811/30/04 23:25:31  5-MIN KMSN 010525Z 29005KT 10SM FEW100 M02/M07 A2984 940 66 -800 290/05 RMK AO2
14837KMSN MSN20041130233009811/30/04 23:30:31  5-MIN KMSN 010530Z 29005KT 10SM FEW100 M02/M07 A2984 940 66 -800 290/05 RMK AO2
14837KMSN MSN20041130233509811/30/04 23:35:31  5-MIN KMSN 010535Z 29005KT 10SM FEW100 M02/M07 A2983 940 66 -800 290/05 RMK AO2
14837KMSN MSN20041130234009511/30/04 23:40:31  5-MIN KMSN 010540Z 28004KT 10SM CLR M02/M08 A2984 940 63 -800 280/04 RMK AO2
14837KMSN MSN20041130234509511/30/04 23:45:31  5-MIN KMSN 010545Z 29004KT 10SM CLR M02/M08 A2984 940 66 -800 290/04 RMK AO2
14837KMSN MSN20041130235014311/30/04 23:50:31  5-MIN KMSN 010550Z 29004KT 10SM FEW100 M02/M08 A2984 940 66 -900 290/04 RMK AO2 SLP114 T10221078 10000 21022 400061072 58015
14837KMSN MSN20041130235509511/30/04 23:55:31  5-MIN KMSN 010555Z 29005KT 10SM CLR M02/M08 A2984 940 66 -900 290/05 RMK AO2
