14837KMSN MSN20010701000009207/01/01 00:00:31  5-MIN KMSN 010600Z VRB04KT 8SM CLR 22/19 A2994 840 87 1900 VRB/04 RMK AO2
14837KMSN MSN20010701000509207/01/01 00:05:31  5-MIN KMSN 010605Z 26003KT 8SM CLR 22/19 A2995 840 87 1800 260/03 RMK AO2
14837KMSN MSN20010701001009207/01/01 00:10:31  5-MIN KMSN 010610Z 26003KT 8SM CLR 22/19 A2995 840 87 1800 250/03 RMK AO2
14837KMSN MSN20010701001509207/01/01 00:15:31  5-MIN KMSN 010615Z VRB03KT 8SM CLR 22/19 A2995 840 87 1800 VRB/03 RMK AO2
14837KMSN MSN20010701002009207/01/01 00:20:31  5-MIN KMSN 010620Z VRB03KT 8SM CLR 21/19 A2995 840 87 1800 VRB/03 RMK AO2
14837KMSN MSN20010701002509207/01/01 00:25:31  5-MIN KMSN 010625Z VRB03KT 8SM CLR 21/19 A2995 840 87 1800 VRB/03 RMK AO2
14837KMSN MSN20010701003009207/01/01 00:30:31  5-MIN KMSN 010630Z 00000KT 8SM CLR 21/19 A2995 840 87 1800 000/00 RMK AO2
14837KMSN MSN20010701003509207/01/01 00:35:31  5-MIN KMSN 010635Z VRB03KT 8SM CLR 21/19 A2995 840 87 1800 VRB/03 RMK AO2
14837KMSN MSN20010701004009207/01/01 00:40:31  5-MIN KMSN 010640Z 00000KT 8SM CLR 21/19 A2995 840 87 1800 000/00 RMK AO2
14837KMSN MSN20010701004509207/01/01 00:45:31  5-MIN KMSN 010645Z 00000KT 8SM CLR 21/19 A2995 840 87 1800 000/00 RMK AO2
14837KMSN MSN20010701005010907/01/01 00:50:31  5-MIN KMSN 010650Z 21003KT 8SM CLR 21/19 A2994 840 87 1800 210/03 RMK AO2 SLP134 T02110189
14837KMSN MSN20010701005509207/01/01 00:55:31  5-MIN KMSN 010655Z 22003KT 9SM CLR 22/19 A2994 840 84 1900 220/03 RMK AO2
14837KMSN MSN20010701010009207/01/01 01:00:31  5-MIN KMSN 010700Z 00000KT 8SM CLR 21/19 A2995 840 87 1800 000/00 RMK AO2
14837KMSN MSN20010701010509507/01/01 01:05:31  5-MIN KMSN 010705Z 25004KT 9SM FEW100 22/19 A2995 840 87 1800 250/04 RMK AO2
14837KMSN MSN20010701011009507/01/01 01:10:31  5-MIN KMSN 010710Z 23004KT 9SM SCT100 22/19 A2995 840 87 1800 230/04 RMK AO2
14837KMSN MSN20010701011509607/01/01 01:15:31  5-MIN KMSN 010715Z VRB04KT 10SM FEW100 22/19 A2995 840 87 1800 VRB/04 RMK AO2
14837KMSN MSN20010701012009607/01/01 01:20:31  5-MIN KMSN 010720Z VRB04KT 10SM FEW100 22/19 A2995 840 87 1800 VRB/04 RMK AO2
14837KMSN MSN20010701012509607/01/01 01:25:31  5-MIN KMSN 010725Z 00000KT 10SM FEW100 22/19 A2995 840 84 1800 000/00 RMK AO2
14837KMSN MSN20010701013009607/01/01 01:30:31  5-MIN KMSN 010730Z VRB03KT 10SM FEW100 22/19 A2995 840 84 1800 VRB/03 RMK AO2
14837KMSN MSN20010701013509307/01/01 01:35:31  5-MIN KMSN 010735Z VRB03KT 10SM CLR 22/19 A2995 830 84 1800 VRB/03 RMK AO2
14837KMSN MSN20010701014009307/01/01 01:40:31  5-MIN KMSN 010740Z VRB04KT 10SM CLR 22/19 A2996 830 84 1800 VRB/04 RMK AO2
14837KMSN MSN20010701014509307/01/01 01:45:31  5-MIN KMSN 010745Z VRB04KT 10SM CLR 22/18 A2996 830 81 1800 VRB/04 RMK AO2
14837KMSN MSN20010701015011007/01/01 01:50:31  5-MIN KMSN 010750Z VRB04KT 10SM CLR 22/18 A2996 830 81 1800 VRB/04 RMK AO2 SLP139 T02170183
14837KMSN MSN20010701015509307/01/01 01:55:31  5-MIN KMSN 010755Z VRB04KT 10SM CLR 21/18 A2996 830 84 1800 VRB/04 RMK AO2
14837KMSN MSN20010701020009307/01/01 02:00:31  5-MIN KMSN 010800Z 28004KT 10SM CLR 21/18 A2996 820 84 1800 280/04 RMK AO2
14837KMSN MSN20010701020509307/01/01 02:05:31  5-MIN KMSN 010805Z VRB04KT 10SM CLR 21/18 A2997 820 87 1700 VRB/04 RMK AO2
14837KMSN MSN20010701021009307/01/01 02:10:31  5-MIN KMSN 010810Z 29005KT 10SM CLR 21/18 A2997 820 87 1700 290/05 RMK AO2
14837KMSN MSN20010701021509307/01/01 02:15:31  5-MIN KMSN 010815Z VRB04KT 10SM CLR 21/18 A2997 820 84 1800 VRB/04 RMK AO2
14837KMSN MSN20010701022009307/01/01 02:20:31  5-MIN KMSN 010820Z 28004KT 10SM CLR 21/18 A2997 820 84 1800 280/04 RMK AO2
14837KMSN MSN20010701022509607/01/01 02:25:31  5-MIN KMSN 010825Z VRB04KT 10SM FEW110 21/18 A2997 820 81 1800 VRB/04 RMK AO2
14837KMSN MSN20010701023009607/01/01 02:30:31  5-MIN KMSN 010830Z 28004KT 10SM BKN110 21/18 A2997 820 81 1800 280/04 RMK AO2
14837KMSN MSN20010701023509607/01/01 02:35:31  5-MIN KMSN 010835Z VRB03KT 10SM BKN110 21/18 A2997 820 81 1800 VRB/03 RMK AO2
14837KMSN MSN20010701024009607/01/01 02:40:31  5-MIN KMSN 010840Z 30004KT 10SM BKN110 21/18 A2997 820 81 1800 290/04 RMK AO2
14837KMSN MSN20010701024509607/01/01 02:45:31  5-MIN KMSN 010845Z 30003KT 10SM OVC110 21/18 A2997 820 84 1700 290/03 RMK AO2
14837KMSN MSN20010701025011907/01/01 02:50:31  5-MIN KMSN 010850Z 31003KT 10SM OVC110 21/17 A2997 820 78 1800 310/03 RMK AO2 SLP143 T02110172 51005
14837KMSN MSN20010701025509607/01/01 02:55:31  5-MIN KMSN 010855Z 31004KT 10SM BKN100 21/17 A2997 820 81 1700 310/04 RMK AO2
14837KMSN MSN20010701030009607/01/01 03:00:31  5-MIN KMSN 010900Z 32003KT 10SM BKN100 21/17 A2997 810 78 1700 320/03 RMK AO2
14837KMSN MSN20010701030509607/01/01 03:05:31  5-MIN KMSN 010905Z 33005KT 10SM BKN100 21/17 A2998 810 78 1700 320/05 RMK AO2
14837KMSN MSN20010701031009607/01/01 03:10:31  5-MIN KMSN 010910Z 32004KT 10SM BKN100 21/17 A2998 810 78 1700 320/04 RMK AO2
14837KMSN MSN20010701031509607/01/01 03:15:31  5-MIN KMSN 010915Z 33005KT 10SM BKN100 21/17 A2999 800 78 1700 330/05 RMK AO2
14837KMSN MSN20010701032009607/01/01 03:20:31  5-MIN KMSN 010920Z 33005KT 10SM BKN100 21/16 A2999 800 75 1700 330/05 RMK AO2
14837KMSN MSN20010701032509607/01/01 03:25:31  5-MIN KMSN 010925Z 33004KT 10SM BKN100 21/16 A3000 790 73 1700 330/04 RMK AO2
14837KMSN MSN20010701033009607/01/01 03:30:31  5-MIN KMSN 010930Z 31004KT 10SM OVC100 21/16 A3000 790 73 1700 310/04 RMK AO2
14837KMSN MSN20010701033509607/01/01 03:35:31  5-MIN KMSN 010935Z 33004KT 10SM OVC100 21/16 A3000 790 73 1700 330/04 RMK AO2
14837KMSN MSN20010701034009607/01/01 03:40:31  5-MIN KMSN 010940Z 33007KT 10SM OVC100 21/16 A3000 790 73 1700 330/07 RMK AO2
14837KMSN MSN20010701034511907/01/01 03:45:31  5-MIN KMSN 010945Z 35006KT 10SM -RA FEW065 OVC100 21/16 A3000 790 73 1700 350/06 RMK AO2 RAB44 P0000
14837KMSN MSN20010701035013607/01/01 03:50:31  5-MIN KMSN 010950Z 36007KT 10SM -RA SCT065 OVC100 20/16 A3000 790 75 1600 360/07 RMK AO2 RAB44 SLP151 P0000 T02000156
14837KMSN MSN20010701035511907/01/01 03:55:31  5-MIN KMSN 010955Z 35008KT 8SM -RA SCT055 BKN100 OVC110 19/16 A3001 780 81 1500 350/08 RMK AO2 P0000
14837KMSN MSN20010701040011207/01/01 04:00:31  5-MIN KMSN 011000Z 34007KT 8SM -RA BKN065 OVC100 19/16 A3001 780 84 1500 340/07 RMK AO2 P0000
14837KMSN MSN20010701040512007/01/01 04:05:31  5-MIN KMSN 011005Z 35010KT 10SM -RA FEW050 BKN065 OVC095 19/16 A3001 780 81 1500 350/10 RMK AO2 P0000
14837KMSN MSN20010701041012607/01/01 04:10:31  5-MIN KMSN 011010Z 36009G16KT 10SM -RA FEW050 BKN065 OVC110 18/16 A3001 780 84 1400 360/09G16 RMK AO2 P0000
14837KMSN MSN20010701041512607/01/01 04:15:31  5-MIN KMSN 011015Z 35008G16KT 10SM -RA FEW050 BKN090 OVC110 18/16 A3002 770 84 1400 350/08G16 RMK AO2 P0000
14837KMSN MSN20010701042012207/01/01 04:20:31  5-MIN KMSN 011020Z 35006KT 10SM FEW050 SCT065 OVC110 18/16 A3002 770 84 1400 340/06 RMK AO2 RAE19 P0000
14837KMSN MSN20010701042511307/01/01 04:25:31  5-MIN KMSN 011025Z 34007KT 10SM -RA FEW050 OVC110 18/16 A3003 760 84 1400 340/07 RMK AO2 P0000
14837KMSN MSN20010701043012007/01/01 04:30:31  5-MIN KMSN 011030Z 35006KT 10SM -RA FEW027 SCT070 OVC110 18/16 A3003 760 84 1400 350/06 RMK AO2 P0000
14837KMSN MSN20010701043511307/01/01 04:35:31  5-MIN KMSN 011035Z 01009KT 10SM -RA SCT027 OVC110 18/16 A3003 760 84 1400 010/09 RMK AO2 P0000
14837KMSN MSN20010701044011307/01/01 04:40:31  5-MIN KMSN 011040Z 01010KT 10SM -RA BKN027 BKN110 18/14 A3003 760 78 1400 010/10 RMK AO2 P0000
14837KMSN MSN20010701044511507/01/01 04:45:31  5-MIN KMSN 011045Z 01009KT 10SM BKN027 OVC110 18/14 A3003 760 78 1300 010/09 RMK AO2 RAE43 P0000
14837KMSN MSN20010701045013207/01/01 04:50:31  5-MIN KMSN 011050Z 03010KT 10SM BKN027 OVC110 18/14 A3003 760 78 1300 020/10 RMK AO2 RAE43 SLP164 P0000 T01780139
14837KMSN MSN20010701045509607/01/01 04:55:31  5-MIN KMSN 011055Z 03010KT 10SM OVC029 18/13 A3003 760 75 1300 030/10 RMK AO2
14837KMSN MSN20010701050009607/01/01 05:00:31  5-MIN KMSN 011100Z 36007KT 10SM OVC029 18/13 A3005 750 75 1300 360/07 RMK AO2
14837KMSN MSN20010701050510307/01/01 05:05:31  5-MIN KMSN 011105Z 35006KT 10SM OVC031 17/13 A3005 740 78 1200 350/06 RMK AO2 PRESRR
14837KMSN MSN20010701051010307/01/01 05:10:31  5-MIN KMSN 011110Z 01006KT 10SM BKN031 OVC100 17/13 A3005 750 78 1200 010/06 RMK AO2
14837KMSN MSN20010701051510307/01/01 05:15:31  5-MIN KMSN 011115Z 36006KT 10SM BKN031 OVC100 17/13 A3005 740 78 1200 360/06 RMK AO2
14837KMSN MSN20010701052010307/01/01 05:20:31  5-MIN KMSN 011120Z 36007KT 10SM SCT031 OVC100 17/13 A3006 740 75 1200 360/07 RMK AO2
14837KMSN MSN20010701052510307/01/01 05:25:31  5-MIN KMSN 011125Z 36010KT 10SM SCT033 OVC100 17/12 A3006 730 75 1100 360/10 RMK AO2
14837KMSN MSN20010701053010307/01/01 05:30:31  5-MIN KMSN 011130Z 36010KT 10SM FEW033 OVC100 17/12 A3006 730 72 1100 360/10 RMK AO2
14837KMSN MSN20010701053509607/01/01 05:35:31  5-MIN KMSN 011135Z 36010KT 10SM OVC100 17/11 A3007 730 67 1100 360/10 RMK AO2
14837KMSN MSN20010701054009607/01/01 05:40:31  5-MIN KMSN 011140Z 35009KT 10SM OVC100 17/10 A3007 730 64 1100 350/09 RMK AO2
14837KMSN MSN20010701054509607/01/01 05:45:31  5-MIN KMSN 011145Z 36009KT 10SM OVC100 17/10 A3007 730 64 1100 360/09 RMK AO2
14837KMSN MSN20010701055015007/01/01 05:50:31  5-MIN KMSN 011150Z 36010KT 10SM FEW050 OVC100 17/09 A3007 730 62 1100 360/10 RMK AO2 SLP177 60001 70001 T01670094 10217 20167 53008
14837KMSN MSN20010701055510307/01/01 05:55:31  5-MIN KMSN 011155Z 36009KT 10SM SCT050 OVC100 17/10 A3007 730 64 1100 360/09 RMK AO2
14837KMSN MSN20010701060010307/01/01 06:00:31  5-MIN KMSN 011200Z 36009KT 10SM SCT050 OVC100 16/09 A3007 730 64 1100 360/09 RMK AO2
14837KMSN MSN20010701060510307/01/01 06:05:31  5-MIN KMSN 011205Z 36009KT 10SM FEW050 OVC100 17/09 A3007 730 62 1100 360/09 RMK AO2
14837KMSN MSN20010701061010307/01/01 06:10:31  5-MIN KMSN 011210Z 35009KT 10SM FEW050 OVC100 17/09 A3008 720 62 1100 350/09 RMK AO2
14837KMSN MSN20010701061510307/01/01 06:15:31  5-MIN KMSN 011215Z 35006KT 10SM FEW050 OVC100 17/09 A3008 720 62 1100 340/06 RMK AO2
14837KMSN MSN20010701062010307/01/01 06:20:31  5-MIN KMSN 011220Z 35009KT 10SM FEW050 BKN100 17/09 A3008 710 60 1100 350/09 RMK AO2
14837KMSN MSN20010701062509607/01/01 06:25:31  5-MIN KMSN 011225Z 36010KT 10SM BKN110 17/09 A3008 710 60 1100 360/10 RMK AO2
14837KMSN MSN20010701063010307/01/01 06:30:31  5-MIN KMSN 011230Z 35010KT 10SM SCT100 BKN120 17/09 A3009 710 60 1100 350/10 RMK AO2
14837KMSN MSN20010701063509607/01/01 06:35:31  5-MIN KMSN 011235Z 36011KT 10SM BKN110 17/09 A3009 710 57 1200 360/11 RMK AO2
14837KMSN MSN20010701064009607/01/01 06:40:31  5-MIN KMSN 011240Z 35010KT 10SM BKN110 17/08 A3009 710 57 1100 350/10 RMK AO2
14837KMSN MSN20010701064509607/01/01 06:45:31  5-MIN KMSN 011245Z 35011KT 10SM BKN110 17/08 A3009 700 57 1100 350/11 RMK AO2
14837KMSN MSN20010701065011307/01/01 06:50:31  5-MIN KMSN 011250Z 35009KT 10SM BKN110 17/09 A3009 700 57 1200 350/09 RMK AO2 SLP187 T01720089
14837KMSN MSN20010701065509607/01/01 06:55:31  5-MIN KMSN 011255Z 35011KT 10SM BKN100 17/09 A3009 700 57 1200 350/11 RMK AO2
14837KMSN MSN20010701070010307/01/01 07:00:31  5-MIN KMSN 011300Z 35011KT 10SM BKN100 BKN120 17/09 A3010 700 57 1200 350/11 RMK AO2
14837KMSN MSN20010701070509607/01/01 07:05:31  5-MIN KMSN 011305Z 36010KT 10SM BKN100 17/09 A3010 700 60 1100 350/10 RMK AO2
14837KMSN MSN20010701071009607/01/01 07:10:31  5-MIN KMSN 011310Z 35010KT 10SM BKN100 17/09 A3010 700 57 1200 350/10 RMK AO2
14837KMSN MSN20010701071510207/01/01 07:15:31  5-MIN KMSN 011315Z 35011G18KT 10SM BKN095 17/09 A3011 690 57 1200 350/11G18 RMK AO2
14837KMSN MSN20010701072010907/01/01 07:20:31  5-MIN KMSN 011320Z 34009G18KT 10SM BKN090 BKN100 17/09 A3011 690 60 1100 340/09G18 RMK AO2
14837KMSN MSN20010701072510307/01/01 07:25:31  5-MIN KMSN 011325Z 35009KT 10SM BKN090 BKN100 17/09 A3011 690 60 1100 350/09 RMK AO2
14837KMSN MSN20010701073009607/01/01 07:30:31  5-MIN KMSN 011330Z 35008KT 10SM BKN090 17/09 A3011 690 60 1100 350/08 RMK AO2
14837KMSN MSN20010701073509607/01/01 07:35:31  5-MIN KMSN 011335Z 36010KT 10SM OVC085 18/09 A3011 690 58 1200 360/10 RMK AO2
14837KMSN MSN20010701074009607/01/01 07:40:31  5-MIN KMSN 011340Z 01013KT 10SM BKN085 18/09 A3012 680 55 1200 010/13 RMK AO2
14837KMSN MSN20010701074510207/01/01 07:45:31  5-MIN KMSN 011345Z 36013G19KT 10SM BKN085 17/09 A3012 680 57 1100 360/13G19 RMK AO2
14837KMSN MSN20010701075011907/01/01 07:50:31  5-MIN KMSN 011350Z 35011G19KT 10SM SCT085 17/08 A3012 680 55 1100 350/11G19 RMK AO2 SLP196 T01720083
14837KMSN MSN20010701075509607/01/01 07:55:31  5-MIN KMSN 011355Z 35012KT 10SM SCT085 18/09 A3012 680 58 1200 350/12 RMK AO2
14837KMSN MSN20010701080010207/01/01 08:00:31  5-MIN KMSN 011400Z 36008G16KT 10SM FEW085 17/08 A3012 680 55 1100 350/08G16 RMK AO2
14837KMSN MSN20010701080509907/01/01 08:05:31  5-MIN KMSN 011405Z 36013G20KT 10SM CLR 18/08 A3013 670 53 1200 360/13G20 RMK AO2
14837KMSN MSN20010701081009907/01/01 08:10:31  5-MIN KMSN 011410Z 35011G20KT 10SM CLR 17/08 A3013 670 53 1100 350/11G20 RMK AO2
14837KMSN MSN20010701081509907/01/01 08:15:31  5-MIN KMSN 011415Z 01012G18KT 10SM CLR 18/08 A3013 670 51 1200 010/12G18 RMK AO2
14837KMSN MSN20010701082009307/01/01 08:20:31  5-MIN KMSN 011420Z 01013KT 10SM CLR 17/08 A3013 670 53 1100 010/13 RMK AO2
14837KMSN MSN20010701082509307/01/01 08:25:31  5-MIN KMSN 011425Z 36009KT 10SM CLR 18/08 A3013 670 51 1200 360/09 RMK AO2
14837KMSN MSN20010701083009907/01/01 08:30:31  5-MIN KMSN 011430Z 36011G16KT 10SM CLR 18/08 A3013 670 53 1200 360/11G16 RMK AO2
14837KMSN MSN20010701083509907/01/01 08:35:31  5-MIN KMSN 011435Z 35010G16KT 10SM CLR 18/08 A3013 670 51 1200 350/10G16 RMK AO2
14837KMSN MSN20010701084009907/01/01 08:40:31  5-MIN KMSN 011440Z 36012G16KT 10SM CLR 18/08 A3013 670 51 1200 360/12G16 RMK AO2
14837KMSN MSN20010701084509907/01/01 08:45:31  5-MIN KMSN 011445Z 36014G17KT 10SM CLR 18/08 A3012 680 51 1200 360/14G17 RMK AO2
14837KMSN MSN20010701085011607/01/01 08:50:31  5-MIN KMSN 011450Z 35012KT 10SM CLR 18/07 A3013 670 49 1200 350/12 RMK AO2 SLP199 T01780072 51031
14837KMSN MSN20010701085509307/01/01 08:55:31  5-MIN KMSN 011455Z 35011KT 10SM CLR 18/07 A3013 670 48 1200 340/11 RMK AO2
14837KMSN MSN20010701090009307/01/01 09:00:31  5-MIN KMSN 011500Z 35009KT 10SM CLR 18/06 A3014 670 46 1200 340/09 RMK AO2
14837KMSN MSN20010701090509907/01/01 09:05:31  5-MIN KMSN 011505Z 36012G16KT 10SM CLR 18/06 A3014 660 44 1200 360/12G16 RMK AO2
14837KMSN MSN20010701091009907/01/01 09:10:31  5-MIN KMSN 011510Z 35012G16KT 10SM CLR 18/06 A3014 660 46 1200 350/12G16 RMK AO2
14837KMSN MSN20010701091509307/01/01 09:15:31  5-MIN KMSN 011515Z 34011KT 10SM CLR 18/07 A3014 660 46 1200 340/11 RMK AO2
14837KMSN MSN20010701092009307/01/01 09:20:31  5-MIN KMSN 011520Z 35011KT 10SM CLR 18/05 A3014 660 42 1200 350/11 RMK AO2
14837KMSN MSN20010701092511507/01/01 09:25:31  5-MIN KMSN 011525Z 34010G18KT 310V010 10SM CLR 18/05 A3014 660 42 1200 340/10G18 310V010 RMK AO2
14837KMSN MSN20010701093009907/01/01 09:30:31  5-MIN KMSN 011530Z 33008G18KT 10SM CLR 18/04 A3014 660 41 1200 330/08G18 RMK AO2
14837KMSN MSN20010701093509907/01/01 09:35:31  5-MIN KMSN 011535Z 34009G18KT 10SM CLR 18/04 A3014 660 41 1200 340/09G18 RMK AO2
14837KMSN MSN20010701094009307/01/01 09:40:31  5-MIN KMSN 011540Z 34011KT 10SM CLR 18/04 A3015 650 41 1200 330/11 RMK AO2
14837KMSN MSN20010701094509307/01/01 09:45:31  5-MIN KMSN 011545Z 35009KT 10SM CLR 18/04 A3015 650 41 1200 350/09 RMK AO2
14837KMSN MSN20010701095011007/01/01 09:50:31  5-MIN KMSN 011550Z 35009KT 10SM CLR 18/06 A3015 650 42 1200 350/09 RMK AO2 SLP207 T01830056
14837KMSN MSN20010701095509307/01/01 09:55:31  5-MIN KMSN 011555Z 36016KT 10SM CLR 18/04 A3015 650 39 1200 360/16 RMK AO2
14837KMSN MSN20010701100009307/01/01 10:00:31  5-MIN KMSN 011600Z 35010KT 10SM CLR 18/04 A3015 650 41 1200 350/10 RMK AO2
14837KMSN MSN20010701100509307/01/01 10:05:31  5-MIN KMSN 011605Z 36011KT 10SM CLR 18/05 A3015 650 41 1200 360/11 RMK AO2
14837KMSN MSN20010701101009307/01/01 10:10:31  5-MIN KMSN 011610Z 01012KT 10SM CLR 18/05 A3015 650 41 1200 010/12 RMK AO2
14837KMSN MSN20010701101509907/01/01 10:15:31  5-MIN KMSN 011615Z 36012G18KT 10SM CLR 18/06 A3016 650 42 1200 350/12G18 RMK AO2
14837KMSN MSN20010701102009907/01/01 10:20:31  5-MIN KMSN 011620Z 34009G18KT 10SM CLR 18/06 A3016 640 44 1200 340/09G18 RMK AO2
14837KMSN MSN20010701102509907/01/01 10:25:31  5-MIN KMSN 011625Z 36011G17KT 10SM CLR 18/07 A3016 640 46 1200 360/11G17 RMK AO2
14837KMSN MSN20010701103009907/01/01 10:30:31  5-MIN KMSN 011630Z 35009G17KT 10SM CLR 18/07 A3016 640 46 1200 350/09G17 RMK AO2
14837KMSN MSN20010701103509307/01/01 10:35:31  5-MIN KMSN 011635Z 35010KT 10SM CLR 18/07 A3017 640 46 1200 350/10 RMK AO2
14837KMSN MSN20010701104009907/01/01 10:40:31  5-MIN KMSN 011640Z 01010G15KT 10SM CLR 19/07 A3017 640 46 1300 010/10G15 RMK AO2
14837KMSN MSN20010701104509907/01/01 10:45:31  5-MIN KMSN 011645Z VRB06G14KT 10SM CLR 19/08 A3017 630 48 1300 VRB/06G14 RMK AO2
14837KMSN MSN20010701105011607/01/01 10:50:31  5-MIN KMSN 011650Z 33009G14KT 10SM CLR 19/07 A3017 630 46 1300 330/09G14 RMK AO2 SLP213 T01890072
14837KMSN MSN20010701105509307/01/01 10:55:31  5-MIN KMSN 011655Z 33011KT 10SM CLR 19/07 A3017 630 46 1300 330/11 RMK AO2
14837KMSN MSN20010701110009307/01/01 11:00:31  5-MIN KMSN 011700Z 34010KT 10SM CLR 19/07 A3017 640 44 1300 340/10 RMK AO2
14837KMSN MSN20010701110509307/01/01 11:05:31  5-MIN KMSN 011705Z 34013KT 10SM CLR 19/06 A3017 640 43 1300 330/13 RMK AO2
14837KMSN MSN20010701111009307/01/01 11:10:31  5-MIN KMSN 011710Z 32008KT 10SM CLR 19/06 A3017 630 43 1300 320/08 RMK AO2
14837KMSN MSN20010701111509307/01/01 11:15:31  5-MIN KMSN 011715Z 34009KT 10SM CLR 19/06 A3017 630 43 1300 340/09 RMK AO2
14837KMSN MSN20010701112009907/01/01 11:20:31  5-MIN KMSN 011720Z 01011G17KT 10SM CLR 19/06 A3017 640 43 1300 010/11G17 RMK AO2
14837KMSN MSN20010701112509907/01/01 11:25:31  5-MIN KMSN 011725Z 36011G17KT 10SM CLR 19/07 A3017 640 43 1300 360/11G17 RMK AO2
14837KMSN MSN20010701113009307/01/01 11:30:31  5-MIN KMSN 011730Z 31009KT 10SM CLR 19/06 A3017 640 43 1300 310/09 RMK AO2
14837KMSN MSN20010701113509307/01/01 11:35:31  5-MIN KMSN 011735Z 34012KT 10SM CLR 19/06 A3017 630 41 1300 340/12 RMK AO2
14837KMSN MSN20010701114009907/01/01 11:40:31  5-MIN KMSN 011740Z 32007G15KT 10SM CLR 19/06 A3017 630 41 1300 320/07G15 RMK AO2
14837KMSN MSN20010701114509907/01/01 11:45:31  5-MIN KMSN 011745Z 34009G15KT 10SM CLR 19/06 A3017 640 41 1300 340/09G15 RMK AO2
14837KMSN MSN20010701115013407/01/01 11:50:31  5-MIN KMSN 011750Z 36011G16KT 10SM CLR 19/06 A3017 640 43 1300 360/11G16 RMK AO2 SLP213 T01890061 10194 20161 51022
14837KMSN MSN20010701115509907/01/01 11:55:31  5-MIN KMSN 011755Z VRB06G16KT 10SM CLR 19/06 A3017 630 43 1300 VRB/06G16 RMK AO2
14837KMSN MSN20010701120009907/01/01 12:00:31  5-MIN KMSN 011800Z 36010G14KT 10SM CLR 19/06 A3017 630 41 1300 360/10G14 RMK AO2
14837KMSN MSN20010701120509907/01/01 12:05:31  5-MIN KMSN 011805Z 35009G14KT 10SM CLR 19/06 A3018 630 40 1300 350/09G14 RMK AO2
14837KMSN MSN20010701121009307/01/01 12:10:31  5-MIN KMSN 011810Z 01010KT 10SM CLR 19/05 A3017 630 39 1300 010/10 RMK AO2
14837KMSN MSN20010701121509907/01/01 12:15:31  5-MIN KMSN 011815Z 02011G16KT 10SM CLR 19/06 A3018 630 41 1300 020/11G16 RMK AO2
14837KMSN MSN20010701122009307/01/01 12:20:31  5-MIN KMSN 011820Z 32009KT 10SM CLR 19/06 A3017 630 40 1300 320/09 RMK AO2
14837KMSN MSN20010701122510907/01/01 12:25:31  5-MIN KMSN 011825Z 33012KT 300V360 10SM CLR 19/06 A3018 630 40 1300 330/12 300V360 RMK AO2
14837KMSN MSN20010701123009907/01/01 12:30:31  5-MIN KMSN 011830Z 35007G15KT 10SM CLR 19/06 A3017 630 40 1300 350/07G15 RMK AO2
14837KMSN MSN20010701123509307/01/01 12:35:31  5-MIN KMSN 011835Z 33009KT 10SM CLR 19/06 A3017 640 40 1300 330/09 RMK AO2
14837KMSN MSN20010701124009907/01/01 12:40:31  5-MIN KMSN 011840Z 36014G17KT 10SM CLR 20/06 A3017 640 40 1400 360/14G17 RMK AO2
14837KMSN MSN20010701124509907/01/01 12:45:31  5-MIN KMSN 011845Z 35009G17KT 10SM CLR 20/06 A3017 640 40 1400 350/09G17 RMK AO2
14837KMSN MSN20010701125011607/01/01 12:50:31  5-MIN KMSN 011850Z 36015G18KT 10SM CLR 20/06 A3017 640 40 1400 360/15G18 RMK AO2 SLP213 T02000061
14837KMSN MSN20010701125509907/01/01 12:55:31  5-MIN KMSN 011855Z 01015G18KT 10SM CLR 20/06 A3017 640 40 1400 010/15G18 RMK AO2
14837KMSN MSN20010701130009307/01/01 13:00:31  5-MIN KMSN 011900Z 34010KT 10SM CLR 19/06 A3017 630 40 1300 340/10 RMK AO2
14837KMSN MSN20010701130509907/01/01 13:05:31  5-MIN KMSN 011905Z 36013G18KT 10SM CLR 19/06 A3017 630 40 1300 360/13G18 RMK AO2
14837KMSN MSN20010701131009907/01/01 13:10:31  5-MIN KMSN 011910Z 34010G18KT 10SM CLR 19/05 A3017 640 38 1300 330/10G18 RMK AO2
14837KMSN MSN20010701131509907/01/01 13:15:31  5-MIN KMSN 011915Z 36014G18KT 10SM CLR 20/06 A3017 630 38 1400 360/14G18 RMK AO2
14837KMSN MSN20010701132009907/01/01 13:20:31  5-MIN KMSN 011920Z 36015G22KT 10SM CLR 19/05 A3017 640 38 1300 360/15G22 RMK AO2
14837KMSN MSN20010701132509907/01/01 13:25:31  5-MIN KMSN 011925Z 35010G22KT 10SM CLR 19/05 A3016 640 38 1300 350/10G22 RMK AO2
14837KMSN MSN20010701133009307/01/01 13:30:31  5-MIN KMSN 011930Z 35011KT 10SM CLR 19/05 A3017 640 38 1300 350/11 RMK AO2
14837KMSN MSN20010701133509307/01/01 13:35:31  5-MIN KMSN 011935Z 01010KT 10SM CLR 20/06 A3017 640 38 1400 010/10 RMK AO2
14837KMSN MSN20010701134009907/01/01 13:40:31  5-MIN KMSN 011940Z 36015G19KT 10SM CLR 20/06 A3016 640 38 1400 360/15G19 RMK AO2
14837KMSN MSN20010701134509907/01/01 13:45:31  5-MIN KMSN 011945Z 01014G19KT 10SM CLR 20/06 A3017 630 38 1400 360/14G19 RMK AO2
14837KMSN MSN20010701135011007/01/01 13:50:31  5-MIN KMSN 011950Z 36013KT 10SM CLR 19/06 A3017 630 40 1300 360/13 RMK AO2 SLP214 T01940056
14837KMSN MSN20010701135509307/01/01 13:55:31  5-MIN KMSN 011955Z 03014KT 10SM CLR 20/06 A3017 640 40 1400 020/14 RMK AO2
14837KMSN MSN20010701140009907/01/01 14:00:31  5-MIN KMSN 012000Z 35010G17KT 10SM CLR 20/06 A3017 640 38 1400 350/10G17 RMK AO2
14837KMSN MSN20010701140509307/01/01 14:05:31  5-MIN KMSN 012005Z 35009KT 10SM CLR 19/06 A3017 640 41 1300 350/09 RMK AO2
14837KMSN MSN20010701141009907/01/01 14:10:31  5-MIN KMSN 012010Z 34011G16KT 10SM CLR 19/06 A3017 640 41 1300 340/11G16 RMK AO2
14837KMSN MSN20010701141509907/01/01 14:15:31  5-MIN KMSN 012015Z 35010G17KT 10SM CLR 20/06 A3017 640 40 1400 350/10G17 RMK AO2
14837KMSN MSN20010701142009907/01/01 14:20:31  5-MIN KMSN 012020Z 01009G17KT 10SM CLR 20/06 A3017 630 40 1400 010/09G17 RMK AO2
14837KMSN MSN20010701142509307/01/01 14:25:31  5-MIN KMSN 012025Z 03011KT 10SM CLR 20/06 A3017 640 40 1400 030/11 RMK AO2
14837KMSN MSN20010701143009307/01/01 14:30:31  5-MIN KMSN 012030Z 35011KT 10SM CLR 19/06 A3017 630 41 1300 350/11 RMK AO2
14837KMSN MSN20010701143510907/01/01 14:35:31  5-MIN KMSN 012035Z 35009KT 320V030 10SM CLR 20/06 A3017 630 40 1400 350/09 320V030 RMK AO2
14837KMSN MSN20010701144010907/01/01 14:40:31  5-MIN KMSN 012040Z 33010KT 300V010 10SM CLR 19/06 A3017 640 40 1300 330/10 300V010 RMK AO2
14837KMSN MSN20010701144509907/01/01 14:45:31  5-MIN KMSN 012045Z 01013G18KT 10SM CLR 20/06 A3016 640 40 1400 010/13G18 RMK AO2
14837KMSN MSN20010701145012207/01/01 14:50:31  5-MIN KMSN 012050Z 01009G18KT 10SM CLR 20/05 A3016 640 37 1400 010/09G18 RMK AO2 SLP211 T02000050 50012
14837KMSN MSN20010701145509307/01/01 14:55:31  5-MIN KMSN 012055Z 34011KT 10SM CLR 20/05 A3016 640 37 1400 340/11 RMK AO2
14837KMSN MSN20010701150009307/01/01 15:00:31  5-MIN KMSN 012100Z 01010KT 10SM CLR 20/06 A3017 640 38 1400 360/10 RMK AO2
14837KMSN MSN20010701150509307/01/01 15:05:31  5-MIN KMSN 012105Z 36010KT 10SM CLR 20/06 A3016 640 38 1400 360/10 RMK AO2
14837KMSN MSN20010701151009307/01/01 15:10:31  5-MIN KMSN 012110Z 01013KT 10SM CLR 20/06 A3016 640 38 1400 360/13 RMK AO2
14837KMSN MSN20010701151510907/01/01 15:15:31  5-MIN KMSN 012115Z 35009KT 310V020 10SM CLR 20/06 A3017 640 38 1400 350/09 310V020 RMK AO2
14837KMSN MSN20010701152009907/01/01 15:20:31  5-MIN KMSN 012120Z 36014G18KT 10SM CLR 21/06 A3016 640 37 1500 360/14G18 RMK AO2
14837KMSN MSN20010701152509907/01/01 15:25:31  5-MIN KMSN 012125Z 36011G18KT 10SM CLR 21/06 A3016 640 37 1500 360/11G18 RMK AO2
14837KMSN MSN20010701153009307/01/01 15:30:31  5-MIN KMSN 012130Z 03010KT 10SM CLR 20/05 A3016 640 37 1400 020/10 RMK AO2
14837KMSN MSN20010701153509307/01/01 15:35:31  5-MIN KMSN 012135Z 36015KT 10SM CLR 21/06 A3016 640 38 1500 360/15 RMK AO2
14837KMSN MSN20010701154009307/01/01 15:40:31  5-MIN KMSN 012140Z 01015KT 10SM CLR 20/05 A3017 640 37 1400 010/15 RMK AO2
14837KMSN MSN20010701154509307/01/01 15:45:31  5-MIN KMSN 012145Z 01013KT 10SM CLR 21/06 A3017 640 37 1500 360/13 RMK AO2
14837KMSN MSN20010701155011607/01/01 15:50:31  5-MIN KMSN 012150Z 35010G17KT 10SM CLR 20/05 A3016 640 37 1400 350/10G17 RMK AO2 SLP212 T02000050
14837KMSN MSN20010701155509907/01/01 15:55:31  5-MIN KMSN 012155Z 01011G17KT 10SM CLR 21/06 A3016 640 37 1500 010/11G17 RMK AO2
14837KMSN MSN20010701160009907/01/01 16:00:31  5-MIN KMSN 012200Z 01014G18KT 10SM CLR 21/06 A3016 640 37 1500 360/14G18 RMK AO2
14837KMSN MSN20010701160509307/01/01 16:05:31  5-MIN KMSN 012205Z 36010KT 10SM CLR 20/06 A3016 640 38 1400 360/10 RMK AO2
14837KMSN MSN20010701161009907/01/01 16:10:31  5-MIN KMSN 012210Z 01012G16KT 10SM CLR 21/06 A3016 640 38 1500 010/12G16 RMK AO2
14837KMSN MSN20010701161509907/01/01 16:15:31  5-MIN KMSN 012215Z 03012G18KT 10SM CLR 21/06 A3016 640 37 1500 030/12G18 RMK AO2
14837KMSN MSN20010701162009907/01/01 16:20:31  5-MIN KMSN 012220Z 36010G18KT 10SM CLR 20/05 A3016 640 37 1400 360/10G18 RMK AO2
14837KMSN MSN20010701162509907/01/01 16:25:31  5-MIN KMSN 012225Z 02011G15KT 10SM CLR 21/06 A3016 640 37 1500 020/11G15 RMK AO2
14837KMSN MSN20010701163009907/01/01 16:30:31  5-MIN KMSN 012230Z 03013G16KT 10SM CLR 21/06 A3016 640 37 1500 030/13G16 RMK AO2
14837KMSN MSN20010701163509907/01/01 16:35:31  5-MIN KMSN 012235Z 01013G16KT 10SM CLR 20/06 A3016 640 38 1400 360/13G16 RMK AO2
14837KMSN MSN20010701164009307/01/01 16:40:31  5-MIN KMSN 012240Z 03009KT 10SM CLR 20/06 A3016 650 38 1400 030/09 RMK AO2
14837KMSN MSN20010701164509307/01/01 16:45:31  5-MIN KMSN 012245Z 03012KT 10SM CLR 20/06 A3016 650 40 1400 030/12 RMK AO2
14837KMSN MSN20010701165011007/01/01 16:50:31  5-MIN KMSN 012250Z 01012KT 10SM CLR 20/06 A3016 650 40 1400 010/12 RMK AO2 SLP210 T02000061
14837KMSN MSN20010701165509307/01/01 16:55:31  5-MIN KMSN 012255Z 36012KT 10SM CLR 19/06 A3016 650 40 1400 360/12 RMK AO2
14837KMSN MSN20010701170009307/01/01 17:00:31  5-MIN KMSN 012300Z 01013KT 10SM CLR 20/06 A3016 640 40 1400 010/13 RMK AO2
14837KMSN MSN20010701170509307/01/01 17:05:31  5-MIN KMSN 012305Z 04013KT 10SM CLR 19/06 A3016 640 40 1400 040/13 RMK AO2
14837KMSN MSN20010701171009307/01/01 17:10:31  5-MIN KMSN 012310Z 04013KT 10SM CLR 19/06 A3016 640 41 1300 040/13 RMK AO2
14837KMSN MSN20010701171509307/01/01 17:15:31  5-MIN KMSN 012315Z 04014KT 10SM CLR 19/06 A3016 640 40 1300 040/14 RMK AO2
14837KMSN MSN20010701172009307/01/01 17:20:31  5-MIN KMSN 012320Z 03012KT 10SM CLR 19/06 A3016 640 40 1400 030/12 RMK AO2
14837KMSN MSN20010701172509307/01/01 17:25:31  5-MIN KMSN 012325Z 04012KT 10SM CLR 19/06 A3016 640 40 1300 040/12 RMK AO2
14837KMSN MSN20010701173009307/01/01 17:30:31  5-MIN KMSN 012330Z 04011KT 10SM CLR 19/06 A3017 640 40 1300 030/11 RMK AO2
14837KMSN MSN20010701173509307/01/01 17:35:31  5-MIN KMSN 012335Z 36010KT 10SM CLR 19/06 A3017 640 41 1300 360/10 RMK AO2
14837KMSN MSN20010701174009307/01/01 17:40:31  5-MIN KMSN 012340Z 02010KT 10SM CLR 19/06 A3017 630 41 1300 020/10 RMK AO2
14837KMSN MSN20010701174509307/01/01 17:45:31  5-MIN KMSN 012345Z 02013KT 10SM CLR 19/06 A3017 630 41 1300 020/13 RMK AO2
14837KMSN MSN20010701175012807/01/01 17:50:31  5-MIN KMSN 012350Z 04011KT 10SM CLR 19/06 A3017 630 41 1300 040/11 RMK AO2 SLP216 T01890056 10206 20189 58002
14837KMSN MSN20010701175509307/01/01 17:55:31  5-MIN KMSN 012355Z 04009KT 10SM CLR 18/06 A3018 630 42 1200 040/09 RMK AO2
14837KMSN MSN20010701180009307/01/01 18:00:31  5-MIN KMSN 020000Z 02009KT 10SM CLR 18/06 A3018 620 42 1200 010/09 RMK AO2
14837KMSN MSN20010701180509307/01/01 18:05:31  5-MIN KMSN 020005Z 02009KT 10SM CLR 18/06 A3018 620 44 1200 020/09 RMK AO2
14837KMSN MSN20010701181009307/01/01 18:10:31  5-MIN KMSN 020010Z 03009KT 10SM CLR 18/06 A3019 620 42 1200 020/09 RMK AO2
14837KMSN MSN20010701181509307/01/01 18:15:31  5-MIN KMSN 020015Z 02011KT 10SM CLR 18/06 A3019 620 42 1200 020/11 RMK AO2
14837KMSN MSN20010701182009307/01/01 18:20:31  5-MIN KMSN 020020Z 36011KT 10SM CLR 18/05 A3019 620 42 1100 360/11 RMK AO2
14837KMSN MSN20010701182509307/01/01 18:25:31  5-MIN KMSN 020025Z 02008KT 10SM CLR 17/06 A3019 620 46 1100 020/08 RMK AO2
14837KMSN MSN20010701183009307/01/01 18:30:31  5-MIN KMSN 020030Z 04007KT 10SM CLR 17/06 A3019 610 46 1100 040/07 RMK AO2
14837KMSN MSN20010701183509307/01/01 18:35:31  5-MIN KMSN 020035Z 03005KT 10SM CLR 17/06 A3020 610 47 1100 030/05 RMK AO2
14837KMSN MSN20010701184009307/01/01 18:40:31  5-MIN KMSN 020040Z 01004KT 10SM CLR 17/07 A3020 610 51 1000 010/04 RMK AO2
14837KMSN MSN20010701184509207/01/01 18:45:31  5-MIN KMSN 020045Z 02004KT 10SM CLR 16/07 A3020 610 55 900 020/04 RMK AO2
14837KMSN MSN20010701185010907/01/01 18:50:31  5-MIN KMSN 020050Z 36004KT 10SM CLR 16/07 A3020 610 55 900 360/04 RMK AO2 SLP226 T01610072
14837KMSN MSN20010701185509207/01/01 18:55:31  5-MIN KMSN 020055Z 01004KT 10SM CLR 16/07 A3020 600 53 900 010/04 RMK AO2
14837KMSN MSN20010701190009207/01/01 19:00:31  5-MIN KMSN 020100Z 04006KT 10SM CLR 16/07 A3020 600 53 900 030/06 RMK AO2
14837KMSN MSN20010701190509307/01/01 19:05:31  5-MIN KMSN 020105Z 04006KT 10SM CLR 17/06 A3020 600 49 1000 040/06 RMK AO2
14837KMSN MSN20010701191009207/01/01 19:10:31  5-MIN KMSN 020110Z 04006KT 10SM CLR 16/07 A3020 600 53 900 040/06 RMK AO2
14837KMSN MSN20010701191509207/01/01 19:15:31  5-MIN KMSN 020115Z 04006KT 10SM CLR 16/07 A3020 600 55 900 040/06 RMK AO2
14837KMSN MSN20010701192009207/01/01 19:20:31  5-MIN KMSN 020120Z 04006KT 10SM CLR 16/06 A3020 600 53 900 040/06 RMK AO2
14837KMSN MSN20010701192509207/01/01 19:25:31  5-MIN KMSN 020125Z 04006KT 10SM CLR 16/07 A3020 610 55 900 040/06 RMK AO2
14837KMSN MSN20010701193009207/01/01 19:30:31  5-MIN KMSN 020130Z 04006KT 10SM CLR 15/07 A3020 600 57 800 040/06 RMK AO2
14837KMSN MSN20010701193509207/01/01 19:35:31  5-MIN KMSN 020135Z 04006KT 10SM CLR 15/07 A3021 600 57 800 040/06 RMK AO2
14837KMSN MSN20010701194009207/01/01 19:40:31  5-MIN KMSN 020140Z 05006KT 10SM CLR 14/07 A3021 600 59 700 050/06 RMK AO2
14837KMSN MSN20010701194509207/01/01 19:45:31  5-MIN KMSN 020145Z 05006KT 10SM CLR 14/07 A3021 600 59 700 050/06 RMK AO2
14837KMSN MSN20010701195010907/01/01 19:50:31  5-MIN KMSN 020150Z 04006KT 10SM CLR 14/07 A3021 590 61 600 040/06 RMK AO2 SLP231 T01390067
14837KMSN MSN20010701195509207/01/01 19:55:31  5-MIN KMSN 020155Z 04006KT 10SM CLR 14/07 A3021 590 61 600 040/06 RMK AO2
14837KMSN MSN20010701200009107/01/01 20:00:31  5-MIN KMSN 020200Z 04006KT 9SM CLR 14/06 A3022 590 59 600 040/06 RMK AO2
14837KMSN MSN20010701200509107/01/01 20:05:31  5-MIN KMSN 020205Z 05005KT 9SM CLR 13/06 A3022 590 61 600 050/05 RMK AO2
14837KMSN MSN20010701201009207/01/01 20:10:31  5-MIN KMSN 020210Z 05005KT 10SM CLR 13/06 A3022 590 61 600 050/05 RMK AO2
14837KMSN MSN20010701201509207/01/01 20:15:31  5-MIN KMSN 020215Z 06004KT 10SM CLR 13/06 A3022 590 61 600 060/04 RMK AO2
14837KMSN MSN20010701202009207/01/01 20:20:31  5-MIN KMSN 020220Z 06004KT 10SM CLR 13/06 A3022 590 61 600 050/04 RMK AO2
14837KMSN MSN20010701202509207/01/01 20:25:31  5-MIN KMSN 020225Z 05004KT 10SM CLR 13/06 A3022 580 61 600 050/04 RMK AO2
14837KMSN MSN20010701203009207/01/01 20:30:31  5-MIN KMSN 020230Z 05004KT 10SM CLR 13/06 A3023 580 59 600 050/04 RMK AO2
14837KMSN MSN20010701203509207/01/01 20:35:31  5-MIN KMSN 020235Z 04004KT 10SM CLR 13/06 A3023 580 59 600 040/04 RMK AO2
14837KMSN MSN20010701204009207/01/01 20:40:31  5-MIN KMSN 020240Z 05004KT 10SM CLR 13/06 A3023 580 59 600 050/04 RMK AO2
14837KMSN MSN20010701204509207/01/01 20:45:31  5-MIN KMSN 020245Z 05004KT 10SM CLR 13/06 A3024 570 59 600 040/04 RMK AO2
14837KMSN MSN20010701205011507/01/01 20:50:31  5-MIN KMSN 020250Z 05004KT 10SM CLR 13/06 A3024 570 59 600 050/04 RMK AO2 SLP239 T01330056 53004
14837KMSN MSN20010701205509207/01/01 20:55:31  5-MIN KMSN 020255Z 06004KT 10SM CLR 13/06 A3024 570 59 500 060/04 RMK AO2
14837KMSN MSN20010701210009207/01/01 21:00:31  5-MIN KMSN 020300Z 09007KT 10SM CLR 13/06 A3024 570 63 500 080/07 RMK AO2
14837KMSN MSN20010701210509207/01/01 21:05:31  5-MIN KMSN 020305Z 09007KT 10SM CLR 13/06 A3025 560 61 500 090/07 RMK AO2
14837KMSN MSN20010701211009207/01/01 21:10:31  5-MIN KMSN 020310Z 10007KT 10SM CLR 13/06 A3025 560 61 500 090/07 RMK AO2
14837KMSN MSN20010701211509207/01/01 21:15:31  5-MIN KMSN 020315Z 11007KT 10SM CLR 13/07 A3025 560 64 500 110/07 RMK AO2
14837KMSN MSN20010701212009207/01/01 21:20:31  5-MIN KMSN 020320Z 12007KT 10SM CLR 13/07 A3025 560 66 500 120/07 RMK AO2
14837KMSN MSN20010701212509207/01/01 21:25:31  5-MIN KMSN 020325Z 13007KT 10SM CLR 13/07 A3025 560 66 500 130/07 RMK AO2
14837KMSN MSN20010701213009207/01/01 21:30:31  5-MIN KMSN 020330Z 13007KT 10SM CLR 13/07 A3025 560 66 500 120/07 RMK AO2
14837KMSN MSN20010701213509207/01/01 21:35:31  5-MIN KMSN 020335Z 13008KT 10SM CLR 13/07 A3025 560 66 500 130/08 RMK AO2
14837KMSN MSN20010701214009207/01/01 21:40:31  5-MIN KMSN 020340Z 12008KT 10SM CLR 13/08 A3025 560 69 500 120/08 RMK AO2
14837KMSN MSN20010701214509207/01/01 21:45:31  5-MIN KMSN 020345Z 12008KT 10SM CLR 13/08 A3025 560 71 500 120/08 RMK AO2
14837KMSN MSN20010701215010907/01/01 21:50:31  5-MIN KMSN 020350Z 13009KT 10SM CLR 13/08 A3026 560 71 500 130/09 RMK AO2 SLP246 T01280078
14837KMSN MSN20010701215509207/01/01 21:55:31  5-MIN KMSN 020355Z 13009KT 10SM CLR 13/08 A3026 550 71 500 130/09 RMK AO2
14837KMSN MSN20010701220009207/01/01 22:00:31  5-MIN KMSN 020400Z 13008KT 10SM CLR 13/08 A3026 550 71 500 130/08 RMK AO2
14837KMSN MSN20010701220509207/01/01 22:05:31  5-MIN KMSN 020405Z 13009KT 10SM CLR 13/08 A3026 550 71 500 130/09 RMK AO2
14837KMSN MSN20010701221009207/01/01 22:10:31  5-MIN KMSN 020410Z 14008KT 10SM CLR 13/08 A3026 550 71 500 140/08 RMK AO2
14837KMSN MSN20010701221509207/01/01 22:15:31  5-MIN KMSN 020415Z 14007KT 10SM CLR 12/08 A3026 550 74 400 130/07 RMK AO2
14837KMSN MSN20010701222009207/01/01 22:20:31  5-MIN KMSN 020420Z 13008KT 10SM CLR 12/08 A3027 550 74 400 130/08 RMK AO2
14837KMSN MSN20010701222509207/01/01 22:25:31  5-MIN KMSN 020425Z 13008KT 10SM CLR 12/08 A3027 540 74 400 130/08 RMK AO2
14837KMSN MSN20010701223009207/01/01 22:30:31  5-MIN KMSN 020430Z 13008KT 10SM CLR 12/08 A3027 540 74 400 130/08 RMK AO2
14837KMSN MSN20010701223509207/01/01 22:35:31  5-MIN KMSN 020435Z 13006KT 10SM CLR 12/08 A3027 540 74 400 130/06 RMK AO2
14837KMSN MSN20010701224009207/01/01 22:40:31  5-MIN KMSN 020440Z 12007KT 10SM CLR 12/08 A3027 540 77 300 120/07 RMK AO2
14837KMSN MSN20010701224509207/01/01 22:45:31  5-MIN KMSN 020445Z 12007KT 10SM CLR 12/08 A3027 540 77 300 120/07 RMK AO2
14837KMSN MSN20010701225010907/01/01 22:50:31  5-MIN KMSN 020450Z 13007KT 10SM CLR 12/08 A3027 540 77 300 130/07 RMK AO2 SLP251 T01170078
14837KMSN MSN20010701225509207/01/01 22:55:31  5-MIN KMSN 020455Z 13007KT 10SM CLR 12/08 A3027 540 77 300 130/07 RMK AO2
14837KMSN MSN20010701230009207/01/01 23:00:31  5-MIN KMSN 020500Z 13007KT 10SM CLR 12/08 A3027 540 77 300 130/07 RMK AO2
14837KMSN MSN20010701230509207/01/01 23:05:31  5-MIN KMSN 020505Z 13008KT 10SM CLR 12/08 A3028 540 77 300 130/08 RMK AO2
14837KMSN MSN20010701231009207/01/01 23:10:31  5-MIN KMSN 020510Z 13008KT 10SM CLR 11/08 A3028 530 80 200 130/08 RMK AO2
14837KMSN MSN20010701231509207/01/01 23:15:31  5-MIN KMSN 020515Z 13006KT 10SM CLR 11/08 A3028 530 80 200 130/06 RMK AO2
14837KMSN MSN20010701232009207/01/01 23:20:31  5-MIN KMSN 020520Z 13006KT 10SM CLR 11/08 A3028 530 80 200 130/06 RMK AO2
14837KMSN MSN20010701232509207/01/01 23:25:31  5-MIN KMSN 020525Z 13005KT 10SM CLR 11/08 A3028 530 80 200 130/05 RMK AO2
14837KMSN MSN20010701233009207/01/01 23:30:31  5-MIN KMSN 020530Z 14004KT 10SM CLR 11/07 A3028 530 77 200 130/04 RMK AO2
14837KMSN MSN20010701233509207/01/01 23:35:31  5-MIN KMSN 020535Z 13004KT 10SM CLR 11/07 A3028 530 77 200 130/04 RMK AO2
14837KMSN MSN20010701234009207/01/01 23:40:31  5-MIN KMSN 020540Z 13006KT 10SM CLR 11/07 A3029 530 80 200 130/06 RMK AO2
14837KMSN MSN20010701234509207/01/01 23:45:31  5-MIN KMSN 020545Z 13006KT 10SM CLR 11/07 A3029 530 77 200 130/06 RMK AO2
14837KMSN MSN20010701235013707/01/01 23:50:31  5-MIN KMSN 020550Z 13006KT 10SM CLR 11/07 A3029 520 80 200 130/06 RMK AO2 SLP258 T01060072 10183 20106 402170106 51020
14837KMSN MSN20010701235509207/01/01 23:55:31  5-MIN KMSN 020555Z 14005KT 10SM CLR 11/07 A3029 520 80 200 140/05 RMK AO2
14837KMSN MSN20010702000009207/02/01 00:00:31  5-MIN KMSN 020600Z 13005KT 10SM CLR 11/07 A3030 520 80 100 130/05 RMK AO2
14837KMSN MSN20010702000509207/02/01 00:05:31  5-MIN KMSN 020605Z 14004KT 10SM CLR 11/07 A3030 520 80 200 140/04 RMK AO2
14837KMSN MSN20010702001009207/02/01 00:10:31  5-MIN KMSN 020610Z 15004KT 10SM CLR 11/07 A3030 520 80 100 150/04 RMK AO2
14837KMSN MSN20010702001509207/02/01 00:15:31  5-MIN KMSN 020615Z 16005KT 10SM CLR 11/07 A3030 520 80 100 150/05 RMK AO2
14837KMSN MSN20010702002009207/02/01 00:20:31  5-MIN KMSN 020620Z 15006KT 10SM CLR 11/07 A3030 520 80 100 150/06 RMK AO2
14837KMSN MSN20010702002509207/02/01 00:25:31  5-MIN KMSN 020625Z 16005KT 10SM CLR 11/07 A3030 520 80 100 160/05 RMK AO2
14837KMSN MSN20010702003009207/02/01 00:30:31  5-MIN KMSN 020630Z 17006KT 10SM CLR 11/07 A3030 520 80 100 170/06 RMK AO2
14837KMSN MSN20010702003509207/02/01 00:35:31  5-MIN KMSN 020635Z 19005KT 10SM CLR 11/07 A3030 510 77 200 190/05 RMK AO2
14837KMSN MSN20010702004009207/02/01 00:40:31  5-MIN KMSN 020640Z 19004KT 10SM CLR 11/07 A3030 510 77 200 190/04 RMK AO2
14837KMSN MSN20010702004509207/02/01 00:45:31  5-MIN KMSN 020645Z 18004KT 10SM CLR 11/07 A3031 510 80 100 180/04 RMK AO2
14837KMSN MSN20010702005010907/02/01 00:50:31  5-MIN KMSN 020650Z 18003KT 10SM CLR 11/07 A3031 510 80 100 180/03 RMK AO2 SLP263 T01060072
14837KMSN MSN20010702005509207/02/01 00:55:31  5-MIN KMSN 020655Z 16003KT 10SM CLR 11/07 A3031 510 80 100 160/03 RMK AO2
14837KMSN MSN20010702010009207/02/01 01:00:31  5-MIN KMSN 020700Z 17004KT 10SM CLR 10/07 A3031 510 83 100 160/04 RMK AO2
14837KMSN MSN20010702010509207/02/01 01:05:31  5-MIN KMSN 020705Z 16004KT 10SM CLR 10/07 A3031 510 83 100 160/04 RMK AO2
14837KMSN MSN20010702011009207/02/01 01:10:31  5-MIN KMSN 020710Z 15005KT 10SM CLR 11/07 A3031 510 80 100 150/05 RMK AO2
14837KMSN MSN20010702011509207/02/01 01:15:31  5-MIN KMSN 020715Z 15004KT 10SM CLR 11/07 A3031 510 77 100 150/04 RMK AO2
14837KMSN MSN20010702012009207/02/01 01:20:31  5-MIN KMSN 020720Z 14004KT 10SM CLR 10/07 A3030 510 80 100 140/04 RMK AO2
14837KMSN MSN20010702012509207/02/01 01:25:31  5-MIN KMSN 020725Z 14005KT 10SM CLR 10/07 A3030 510 80 100 140/05 RMK AO2
14837KMSN MSN20010702013009007/02/01 01:30:31  5-MIN KMSN 020730Z 00000KT 10SM CLR 09/07 A3030 510 83 0 000/00 RMK AO2
14837KMSN MSN20010702013509207/02/01 01:35:31  5-MIN KMSN 020735Z 14003KT 10SM CLR 10/07 A3030 510 80 100 140/03 RMK AO2
14837KMSN MSN20010702014009007/02/01 01:40:31  5-MIN KMSN 020740Z 14003KT 10SM CLR 09/07 A3030 510 83 0 140/03 RMK AO2
14837KMSN MSN20010702014509007/02/01 01:45:31  5-MIN KMSN 020745Z 15004KT 10SM CLR 09/07 A3031 510 83 0 150/04 RMK AO2
14837KMSN MSN20010702015010707/02/01 01:50:31  5-MIN KMSN 020750Z 17003KT 10SM CLR 09/06 A3030 510 79 0 160/03 RMK AO2 SLP263 T00940061
14837KMSN MSN20010702015509007/02/01 01:55:31  5-MIN KMSN 020755Z 15004KT 10SM CLR 09/07 A3031 510 83 0 150/04 RMK AO2
14837KMSN MSN20010702020009207/02/01 02:00:31  5-MIN KMSN 020800Z 15006KT 10SM CLR 10/06 A3031 510 77 100 150/06 RMK AO2
14837KMSN MSN20010702020509207/02/01 02:05:31  5-MIN KMSN 020805Z 15005KT 10SM CLR 10/07 A3031 510 80 100 150/05 RMK AO2
14837KMSN MSN20010702021009207/02/01 02:10:31  5-MIN KMSN 020810Z 15005KT 10SM CLR 10/06 A3031 510 77 100 150/05 RMK AO2
14837KMSN MSN20010702021509207/02/01 02:15:31  5-MIN KMSN 020815Z 14004KT 10SM CLR 10/07 A3031 510 80 100 140/04 RMK AO2
14837KMSN MSN20010702022009207/02/01 02:20:31  5-MIN KMSN 020820Z 14005KT 10SM CLR 10/06 A3031 510 77 100 140/05 RMK AO2
14837KMSN MSN20010702022509007/02/01 02:25:31  5-MIN KMSN 020825Z 15005KT 10SM CLR 09/06 A3031 500 79 0 150/05 RMK AO2
14837KMSN MSN20010702023009007/02/01 02:30:31  5-MIN KMSN 020830Z 00000KT 10SM CLR 09/06 A3031 500 83 0 000/00 RMK AO2
14837KMSN MSN20010702023509007/02/01 02:35:31  5-MIN KMSN 020835Z 00000KT 10SM CLR 09/06 A3031 500 83 0 000/00 RMK AO2
14837KMSN MSN20010702024009307/02/01 02:40:31  5-MIN KMSN 020840Z 00000KT 10SM CLR 08/06 A3031 510 89 -100 000/00 RMK AO2
14837KMSN MSN20010702024509007/02/01 02:45:31  5-MIN KMSN 020845Z 00000KT 10SM CLR 09/06 A3031 510 83 0 000/00 RMK AO2
14837KMSN MSN20010702025011307/02/01 02:50:31  5-MIN KMSN 020850Z 00000KT 10SM CLR 09/06 A3031 510 79 0 000/00 RMK AO2 SLP263 T00940061 51018
14837KMSN MSN20010702025509307/02/01 02:55:31  5-MIN KMSN 020855Z 00000KT 10SM CLR 08/06 A3031 510 86 -100 000/00 RMK AO2
14837KMSN MSN20010702030009307/02/01 03:00:31  5-MIN KMSN 020900Z 00000KT 10SM CLR 08/06 A3031 510 89 -100 000/00 RMK AO2
14837KMSN MSN20010702030509307/02/01 03:05:31  5-MIN KMSN 020905Z 00000KT 10SM CLR 08/06 A3031 510 89 -100 000/00 RMK AO2
14837KMSN MSN20010702031009307/02/01 03:10:31  5-MIN KMSN 020910Z 00000KT 10SM CLR 08/06 A3031 510 89 -200 000/00 RMK AO2
14837KMSN MSN20010702031509307/02/01 03:15:31  5-MIN KMSN 020915Z 00000KT 10SM CLR 08/06 A3031 500 89 -200 000/00 RMK AO2
14837KMSN MSN20010702032009307/02/01 03:20:31  5-MIN KMSN 020920Z 00000KT 10SM CLR 08/06 A3031 500 89 -200 000/00 RMK AO2
14837KMSN MSN20010702032509307/02/01 03:25:31  5-MIN KMSN 020925Z 00000KT 10SM CLR 07/06 A3031 500 93 -200 000/00 RMK AO2
14837KMSN MSN20010702033009307/02/01 03:30:31  5-MIN KMSN 020930Z 00000KT 10SM CLR 08/06 A3031 500 89 -200 000/00 RMK AO2
14837KMSN MSN20010702033509307/02/01 03:35:31  5-MIN KMSN 020935Z 00000KT 10SM CLR 07/06 A3031 500 96 -300 000/00 RMK AO2
14837KMSN MSN20010702034009307/02/01 03:40:31  5-MIN KMSN 020940Z 00000KT 10SM CLR 07/06 A3032 500 96 -300 000/00 RMK AO2
14837KMSN MSN20010702034509307/02/01 03:45:31  5-MIN KMSN 020945Z 00000KT 10SM CLR 07/06 A3031 500 96 -300 000/00 RMK AO2
14837KMSN MSN20010702035011007/02/01 03:50:31  5-MIN KMSN 020950Z 00000KT 10SM CLR 07/06 A3031 510 96 -300 000/00 RMK AO2 SLP265 T00670061
14837KMSN MSN20010702035509307/02/01 03:55:31  5-MIN KMSN 020955Z 00000KT 10SM CLR 07/06 A3031 510 96 -300 000/00 RMK AO2
14837KMSN MSN20010702040009307/02/01 04:00:31  5-MIN KMSN 021000Z 01003KT 10SM CLR 07/06 A3031 510 96 -300 010/03 RMK AO2
14837KMSN MSN20010702040509307/02/01 04:05:31  5-MIN KMSN 021005Z 00000KT 10SM CLR 07/06 A3031 510 96 -300 000/00 RMK AO2
14837KMSN MSN20010702041009307/02/01 04:10:31  5-MIN KMSN 021010Z 00000KT 10SM CLR 07/06 A3030 510 96 -300 000/00 RMK AO2
14837KMSN MSN20010702041509307/02/01 04:15:31  5-MIN KMSN 021015Z 03003KT 10SM CLR 07/06 A3030 510 96 -300 020/03 RMK AO2
14837KMSN MSN20010702042009307/02/01 04:20:31  5-MIN KMSN 021020Z 00000KT 10SM CLR 07/06 A3030 520 96 -300 000/00 RMK AO2
14837KMSN MSN20010702042509307/02/01 04:25:31  5-MIN KMSN 021025Z 00000KT 10SM CLR 07/06 A3030 520 96 -300 000/00 RMK AO2
14837KMSN MSN20010702043009307/02/01 04:30:31  5-MIN KMSN 021030Z 00000KT 10SM CLR 07/06 A3029 520 93 -200 000/00 RMK AO2
14837KMSN MSN20010702043509307/02/01 04:35:31  5-MIN KMSN 021035Z 00000KT 10SM CLR 07/06 A3029 520 93 -300 000/00 RMK AO2
14837KMSN MSN20010702044009307/02/01 04:40:31  5-MIN KMSN 021040Z 00000KT 10SM CLR 06/06 A3030 520 96 -300 000/00 RMK AO2
14837KMSN MSN20010702044509307/02/01 04:45:31  5-MIN KMSN 021045Z 00000KT 10SM CLR 06/06 A3030 520 96 -300 000/00 RMK AO2
14837KMSN MSN20010702045011007/02/01 04:50:31  5-MIN KMSN 021050Z 00000KT 10SM CLR 07/06 A3030 520 96 -300 000/00 RMK AO2 SLP261 T00670061
14837KMSN MSN20010702045509307/02/01 04:55:31  5-MIN KMSN 021055Z 00000KT 10SM CLR 06/06 A3030 520 96 -300 000/00 RMK AO2
14837KMSN MSN20010702050009307/02/01 05:00:31  5-MIN KMSN 021100Z 00000KT 10SM CLR 06/06 A3030 520 96 -300 000/00 RMK AO2
14837KMSN MSN20010702050509307/02/01 05:05:31  5-MIN KMSN 021105Z 00000KT 10SM CLR 07/06 A3030 520 96 -300 000/00 RMK AO2
14837KMSN MSN20010702051009307/02/01 05:10:31  5-MIN KMSN 021110Z 00000KT 10SM CLR 07/06 A3029 520 93 -200 000/00 RMK AO2
14837KMSN MSN20010702051509307/02/01 05:15:31  5-MIN KMSN 021115Z 01004KT 10SM CLR 07/07 A3029 520 96 -200 010/04 RMK AO2
14837KMSN MSN20010702052009307/02/01 05:20:31  5-MIN KMSN 021120Z 00000KT 10SM CLR 08/07 A3029 520 93 -100 000/00 RMK AO2
14837KMSN MSN20010702052509307/02/01 05:25:31  5-MIN KMSN 021125Z 03003KT 10SM CLR 08/07 A3029 530 96 -100 030/03 RMK AO2
14837KMSN MSN20010702053009307/02/01 05:30:31  5-MIN KMSN 021130Z 00000KT 10SM CLR 08/07 A3029 520 93 -100 000/00 RMK AO2
14837KMSN MSN20010702053509007/02/01 05:35:31  5-MIN KMSN 021135Z 00000KT 10SM CLR 09/07 A3029 530 89 0 000/00 RMK AO2
14837KMSN MSN20010702054009007/02/01 05:40:31  5-MIN KMSN 021140Z 00000KT 10SM CLR 09/07 A3029 530 89 0 000/00 RMK AO2
14837KMSN MSN20010702054509007/02/01 05:45:31  5-MIN KMSN 021145Z 00000KT 10SM CLR 09/07 A3028 530 86 0 000/00 RMK AO2
14837KMSN MSN20010702055012707/02/01 05:50:31  5-MIN KMSN 021150Z 06003KT 10SM CLR 10/08 A3028 530 86 100 050/03 RMK AO2 SLP257 T01000078 10111 20061 51005
14837KMSN MSN20010702055509207/02/01 05:55:31  5-MIN KMSN 021155Z 05003KT 10SM CLR 11/08 A3028 530 83 200 050/03 RMK AO2
14837KMSN MSN20010702060009207/02/01 06:00:31  5-MIN KMSN 021200Z 00000KT 10SM CLR 11/08 A3028 530 86 200 000/00 RMK AO2
14837KMSN MSN20010702060509207/02/01 06:05:31  5-MIN KMSN 021205Z 07003KT 10SM CLR 11/08 A3028 530 86 200 060/03 RMK AO2
14837KMSN MSN20010702061009207/02/01 06:10:31  5-MIN KMSN 021210Z 08004KT 10SM CLR 11/08 A3028 530 83 200 080/04 RMK AO2
14837KMSN MSN20010702061509207/02/01 06:15:31  5-MIN KMSN 021215Z 08005KT 10SM CLR 12/08 A3028 530 80 300 080/05 RMK AO2
14837KMSN MSN20010702062009207/02/01 06:20:31  5-MIN KMSN 021220Z 09006KT 10SM CLR 12/08 A3028 530 74 400 090/06 RMK AO2
14837KMSN MSN20010702062509207/02/01 06:25:31  5-MIN KMSN 021225Z 11006KT 10SM CLR 12/07 A3029 530 71 400 110/06 RMK AO2
14837KMSN MSN20010702063009207/02/01 06:30:31  5-MIN KMSN 021230Z 11006KT 10SM CLR 12/07 A3029 530 68 400 110/06 RMK AO2
14837KMSN MSN20010702063509207/02/01 06:35:31  5-MIN KMSN 021235Z 13004KT 10SM CLR 13/07 A3029 520 66 400 130/04 RMK AO2
14837KMSN MSN20010702064009207/02/01 06:40:31  5-MIN KMSN 021240Z 13007KT 10SM CLR 13/07 A3029 530 64 500 130/07 RMK AO2
14837KMSN MSN20010702064509207/02/01 06:45:31  5-MIN KMSN 021245Z 12007KT 10SM CLR 13/06 A3028 530 61 500 120/07 RMK AO2
14837KMSN MSN20010702065010907/02/01 06:50:31  5-MIN KMSN 021250Z 13007KT 10SM CLR 13/07 A3029 530 64 500 130/07 RMK AO2 SLP256 T01330067
14837KMSN MSN20010702065509207/02/01 06:55:31  5-MIN KMSN 021255Z 13009KT 10SM CLR 13/06 A3028 530 61 500 130/09 RMK AO2
14837KMSN MSN20010702070009207/02/01 07:00:31  5-MIN KMSN 021300Z 13009KT 10SM CLR 13/07 A3029 530 64 500 120/09 RMK AO2
14837KMSN MSN20010702070509207/02/01 07:05:31  5-MIN KMSN 021305Z 13008KT 10SM CLR 14/07 A3029 530 61 600 130/08 RMK AO2
14837KMSN MSN20010702071009207/02/01 07:10:31  5-MIN KMSN 021310Z 14007KT 10SM CLR 14/07 A3029 530 61 600 140/07 RMK AO2
14837KMSN MSN20010702071509207/02/01 07:15:31  5-MIN KMSN 021315Z 14010KT 10SM CLR 14/06 A3029 520 59 600 140/10 RMK AO2
14837KMSN MSN20010702072009207/02/01 07:20:31  5-MIN KMSN 021320Z 13010KT 10SM CLR 14/06 A3029 520 57 600 130/10 RMK AO2
14837KMSN MSN20010702072509207/02/01 07:25:31  5-MIN KMSN 021325Z 14008KT 10SM CLR 14/07 A3029 520 61 600 140/08 RMK AO2
14837KMSN MSN20010702073009207/02/01 07:30:31  5-MIN KMSN 021330Z 15008KT 10SM CLR 14/06 A3029 520 59 600 150/08 RMK AO2
14837KMSN MSN20010702073509207/02/01 07:35:31  5-MIN KMSN 021335Z 14006KT 10SM CLR 14/07 A3030 520 59 600 140/06 RMK AO2
14837KMSN MSN20010702074009207/02/01 07:40:31  5-MIN KMSN 021340Z 17009KT 10SM CLR 15/06 A3030 520 55 700 160/09 RMK AO2
14837KMSN MSN20010702074509207/02/01 07:45:31  5-MIN KMSN 021345Z 15008KT 10SM CLR 15/06 A3030 520 53 700 150/08 RMK AO2
14837KMSN MSN20010702075010907/02/01 07:50:31  5-MIN KMSN 021350Z 12007KT 10SM CLR 15/06 A3030 510 55 700 120/07 RMK AO2 SLP262 T01500061
14837KMSN MSN20010702075509207/02/01 07:55:31  5-MIN KMSN 021355Z 16008KT 10SM CLR 15/06 A3030 510 55 700 150/08 RMK AO2
14837KMSN MSN20010702080009207/02/01 08:00:31  5-MIN KMSN 021400Z 16009KT 10SM CLR 16/06 A3030 520 53 700 160/09 RMK AO2
14837KMSN MSN20010702080509207/02/01 08:05:31  5-MIN KMSN 021405Z 14007KT 10SM CLR 16/06 A3030 520 53 700 140/07 RMK AO2
14837KMSN MSN20010702081009207/02/01 08:10:31  5-MIN KMSN 021410Z 16007KT 10SM CLR 16/06 A3030 520 53 700 160/07 RMK AO2
14837KMSN MSN20010702081509207/02/01 08:15:31  5-MIN KMSN 021415Z 17009KT 10SM CLR 16/06 A3030 520 51 700 170/09 RMK AO2
14837KMSN MSN20010702082009207/02/01 08:20:31  5-MIN KMSN 021420Z 13007KT 10SM CLR 16/06 A3030 520 51 800 120/07 RMK AO2
14837KMSN MSN20010702082509207/02/01 08:25:31  5-MIN KMSN 021425Z 16010KT 10SM CLR 16/06 A3030 510 51 800 160/10 RMK AO2
14837KMSN MSN20010702083009207/02/01 08:30:31  5-MIN KMSN 021430Z 16007KT 10SM CLR 16/06 A3030 510 49 800 160/07 RMK AO2
14837KMSN MSN20010702083509207/02/01 08:35:31  5-MIN KMSN 021435Z 17009KT 10SM CLR 16/06 A3030 510 49 800 170/09 RMK AO2
14837KMSN MSN20010702084009207/02/01 08:40:31  5-MIN KMSN 021440Z 15009KT 10SM CLR 17/06 A3030 510 49 900 150/09 RMK AO2
14837KMSN MSN20010702084509207/02/01 08:45:31  5-MIN KMSN 021445Z 12008KT 10SM CLR 17/06 A3030 510 49 900 120/08 RMK AO2
14837KMSN MSN20010702085011507/02/01 08:50:31  5-MIN KMSN 021450Z 15008KT 10SM CLR 17/06 A3030 520 49 900 150/08 RMK AO2 SLP260 T01670061 58008
14837KMSN MSN20010702085509207/02/01 08:55:31  5-MIN KMSN 021455Z 15009KT 10SM CLR 17/06 A3029 520 47 900 150/09 RMK AO2
14837KMSN MSN20010702090009207/02/01 09:00:31  5-MIN KMSN 021500Z 16008KT 10SM CLR 17/06 A3029 520 47 900 160/08 RMK AO2
14837KMSN MSN20010702090510807/02/01 09:05:31  5-MIN KMSN 021505Z 13007KT 100V160 10SM CLR 17/06 A3029 520 49 900 130/07 100V160 RMK AO2
14837KMSN MSN20010702091009807/02/01 09:10:31  5-MIN KMSN 021510Z 13009G14KT 10SM CLR 17/06 A3029 520 47 900 130/09G14 RMK AO2
14837KMSN MSN20010702091509207/02/01 09:15:31  5-MIN KMSN 021515Z 17010KT 10SM CLR 17/06 A3029 530 46 900 170/10 RMK AO2
14837KMSN MSN20010702092009307/02/01 09:20:31  5-MIN KMSN 021520Z 16007KT 10SM CLR 17/06 A3029 530 47 1000 160/07 RMK AO2
14837KMSN MSN20010702092509307/02/01 09:25:31  5-MIN KMSN 021525Z 18007KT 10SM CLR 17/06 A3028 530 46 1000 170/07 RMK AO2
14837KMSN MSN20010702093010907/02/01 09:30:31  5-MIN KMSN 021530Z 16007KT 120V190 10SM CLR 17/05 A3029 530 44 1000 160/07 120V190 RMK AO2
14837KMSN MSN20010702093509307/02/01 09:35:31  5-MIN KMSN 021535Z 15007KT 10SM CLR 18/06 A3029 520 44 1000 150/07 RMK AO2
14837KMSN MSN20010702094010907/02/01 09:40:31  5-MIN KMSN 021540Z 14009KT 100V180 10SM CLR 18/06 A3030 520 46 1000 140/09 100V180 RMK AO2
14837KMSN MSN20010702094509307/02/01 09:45:31  5-MIN KMSN 021545Z 17009KT 10SM CLR 18/06 A3029 520 42 1100 170/09 RMK AO2
14837KMSN MSN20010702095011007/02/01 09:50:31  5-MIN KMSN 021550Z 18011KT 10SM CLR 18/05 A3029 520 42 1000 180/11 RMK AO2 SLP259 T01780050
14837KMSN MSN20010702095509307/02/01 09:55:31  5-MIN KMSN 021555Z 19009KT 10SM CLR 18/06 A3030 520 42 1100 190/09 RMK AO2
14837KMSN MSN20010702100009307/02/01 10:00:31  5-MIN KMSN 021600Z 18008KT 10SM CLR 18/06 A3030 520 44 1000 180/08 RMK AO2
14837KMSN MSN20010702100509307/02/01 10:05:31  5-MIN KMSN 021605Z 15007KT 10SM CLR 18/06 A3029 530 46 1000 140/07 RMK AO2
14837KMSN MSN20010702101009307/02/01 10:10:31  5-MIN KMSN 021610Z 16010KT 10SM CLR 18/06 A3029 520 44 1100 160/10 RMK AO2
14837KMSN MSN20010702101509307/02/01 10:15:31  5-MIN KMSN 021615Z 19010KT 10SM CLR 18/06 A3029 530 42 1100 180/10 RMK AO2
14837KMSN MSN20010702102009307/02/01 10:20:31  5-MIN KMSN 021620Z 18012KT 10SM CLR 18/04 A3029 530 39 1100 170/12 RMK AO2
14837KMSN MSN20010702102509307/02/01 10:25:31  5-MIN KMSN 021625Z 18007KT 10SM CLR 18/04 A3028 530 39 1100 180/07 RMK AO2
14837KMSN MSN20010702103009307/02/01 10:30:31  5-MIN KMSN 021630Z 19009KT 10SM CLR 19/06 A3028 540 41 1200 190/09 RMK AO2
14837KMSN MSN20010702103510907/02/01 10:35:31  5-MIN KMSN 021635Z 18008KT 160V230 10SM CLR 18/05 A3027 540 41 1100 180/08 160V230 RMK AO2
14837KMSN MSN20010702104009907/02/01 10:40:31  5-MIN KMSN 021640Z 16010G14KT 10SM CLR 19/06 A3027 540 41 1200 160/10G14 RMK AO2
14837KMSN MSN20010702104511507/02/01 10:45:31  5-MIN KMSN 021645Z 19007G14KT 150V210 10SM CLR 18/06 A3028 540 42 1100 190/07G14 150V210 RMK AO2
14837KMSN MSN20010702105011007/02/01 10:50:31  5-MIN KMSN 021650Z 19008KT 10SM CLR 18/05 A3027 540 41 1100 190/08 RMK AO2 SLP252 T01830050
14837KMSN MSN20010702105509307/02/01 10:55:31  5-MIN KMSN 021655Z 19009KT 10SM CLR 18/05 A3027 540 41 1100 190/09 RMK AO2
14837KMSN MSN20010702110009307/02/01 11:00:31  5-MIN KMSN 021700Z 17007KT 10SM CLR 18/06 A3027 540 42 1100 170/07 RMK AO2
14837KMSN MSN20010702110509307/02/01 11:05:31  5-MIN KMSN 021705Z 15010KT 10SM CLR 18/06 A3026 550 44 1100 150/10 RMK AO2
14837KMSN MSN20010702111009307/02/01 11:10:31  5-MIN KMSN 021710Z 16010KT 10SM CLR 18/06 A3026 550 44 1100 160/10 RMK AO2
14837KMSN MSN20010702111509307/02/01 11:15:31  5-MIN KMSN 021715Z 18009KT 10SM CLR 18/06 A3026 550 42 1100 170/09 RMK AO2
14837KMSN MSN20010702112009307/02/01 11:20:31  5-MIN KMSN 021720Z 16008KT 10SM CLR 19/06 A3026 550 43 1200 160/08 RMK AO2
14837KMSN MSN20010702112509307/02/01 11:25:31  5-MIN KMSN 021725Z VRB04KT 10SM CLR 19/06 A3025 560 41 1200 VRB/04 RMK AO2
14837KMSN MSN20010702113009307/02/01 11:30:31  5-MIN KMSN 021730Z 17009KT 10SM CLR 19/05 A3025 560 39 1200 170/09 RMK AO2
14837KMSN MSN20010702113509307/02/01 11:35:31  5-MIN KMSN 021735Z 14008KT 10SM CLR 20/07 A3025 560 41 1300 140/08 RMK AO2
14837KMSN MSN20010702114009307/02/01 11:40:31  5-MIN KMSN 021740Z 18008KT 10SM CLR 19/06 A3025 560 41 1300 170/08 RMK AO2
14837KMSN MSN20010702114509907/02/01 11:45:31  5-MIN KMSN 021745Z VRB06G15KT 10SM CLR 19/06 A3024 570 40 1300 VRB/06G15 RMK AO2
14837KMSN MSN20010702115012807/02/01 11:50:31  5-MIN KMSN 021750Z 16008KT 10SM CLR 19/06 A3024 570 40 1300 160/08 RMK AO2 SLP241 T01940056 10200 20106 50004
14837KMSN MSN20010702115509907/02/01 11:55:31  5-MIN KMSN 021755Z 16009G14KT 10SM CLR 20/06 A3024 570 38 1300 160/09G14 RMK AO2
14837KMSN MSN20010702120009907/02/01 12:00:31  5-MIN KMSN 021800Z VRB06G14KT 10SM CLR 19/06 A3024 570 41 1300 VRB/06G14 RMK AO2
14837KMSN MSN20010702120509307/02/01 12:05:31  5-MIN KMSN 021805Z 20007KT 10SM CLR 21/06 A3023 580 37 1400 190/07 RMK AO2
14837KMSN MSN20010702121009907/02/01 12:10:31  5-MIN KMSN 021810Z 16012G15KT 10SM CLR 20/06 A3023 580 38 1300 160/12G15 RMK AO2
14837KMSN MSN20010702121509307/02/01 12:15:31  5-MIN KMSN 021815Z 18008KT 10SM CLR 20/05 A3023 580 37 1300 180/08 RMK AO2
14837KMSN MSN20010702122009307/02/01 12:20:31  5-MIN KMSN 021820Z VRB06KT 10SM CLR 20/05 A3023 580 37 1300 VRB/06 RMK AO2
14837KMSN MSN20010702122509307/02/01 12:25:31  5-MIN KMSN 021825Z 16010KT 10SM CLR 21/07 A3022 590 40 1400 160/10 RMK AO2
14837KMSN MSN20010702123009307/02/01 12:30:31  5-MIN KMSN 021830Z 17008KT 10SM CLR 20/06 A3022 590 38 1300 160/08 RMK AO2
14837KMSN MSN20010702123509307/02/01 12:35:31  5-MIN KMSN 021835Z 21008KT 10SM CLR 20/05 A3023 580 37 1300 200/08 RMK AO2
14837KMSN MSN20010702124009307/02/01 12:40:31  5-MIN KMSN 021840Z 18010KT 10SM CLR 19/05 A3023 580 38 1300 180/10 RMK AO2
14837KMSN MSN20010702124509307/02/01 12:45:31  5-MIN KMSN 021845Z 19007KT 10SM CLR 20/06 A3023 580 38 1300 180/07 RMK AO2
14837KMSN MSN20010702125011007/02/01 12:50:31  5-MIN KMSN 021850Z 18005KT 10SM CLR 19/05 A3022 590 38 1300 180/05 RMK AO2 SLP234 T01940050
14837KMSN MSN20010702125509307/02/01 12:55:31  5-MIN KMSN 021855Z 17006KT 10SM CLR 19/05 A3022 590 38 1300 170/06 RMK AO2
14837KMSN MSN20010702130009307/02/01 13:00:31  5-MIN KMSN 021900Z 16009KT 10SM CLR 20/06 A3021 590 40 1400 150/09 RMK AO2
14837KMSN MSN20010702130509307/02/01 13:05:31  5-MIN KMSN 021905Z 17006KT 10SM CLR 20/06 A3021 600 40 1400 170/06 RMK AO2
14837KMSN MSN20010702131009307/02/01 13:10:31  5-MIN KMSN 021910Z 17007KT 10SM CLR 20/06 A3021 600 38 1400 170/07 RMK AO2
14837KMSN MSN20010702131509907/02/01 13:15:31  5-MIN KMSN 021915Z 16010G15KT 10SM CLR 21/07 A3020 600 40 1400 160/10G15 RMK AO2
14837KMSN MSN20010702132009907/02/01 13:20:31  5-MIN KMSN 021920Z 16010G16KT 10SM CLR 21/07 A3021 600 38 1500 150/10G16 RMK AO2
14837KMSN MSN20010702132509307/02/01 13:25:31  5-MIN KMSN 021925Z 15007KT 10SM CLR 21/07 A3020 610 40 1500 150/07 RMK AO2
14837KMSN MSN20010702133009307/02/01 13:30:31  5-MIN KMSN 021930Z 15009KT 10SM CLR 21/06 A3020 610 37 1500 150/09 RMK AO2
14837KMSN MSN20010702133509307/02/01 13:35:31  5-MIN KMSN 021935Z 14010KT 10SM CLR 21/07 A3020 610 40 1500 140/10 RMK AO2
14837KMSN MSN20010702134009307/02/01 13:40:31  5-MIN KMSN 021940Z 16009KT 10SM CLR 21/07 A3020 610 38 1500 150/09 RMK AO2
14837KMSN MSN20010702134509307/02/01 13:45:31  5-MIN KMSN 021945Z 19006KT 10SM CLR 21/07 A3019 620 38 1500 190/06 RMK AO2
14837KMSN MSN20010702135011007/02/01 13:50:31  5-MIN KMSN 021950Z 15007KT 10SM CLR 21/07 A3019 620 38 1500 150/07 RMK AO2 SLP222 T02110067
14837KMSN MSN20010702135510907/02/01 13:55:31  5-MIN KMSN 021955Z 16007KT 130V200 10SM CLR 21/07 A3018 630 38 1500 160/07 130V200 RMK AO2
14837KMSN MSN20010702140010007/02/01 14:00:31  5-MIN KMSN 022000Z 16009KT 10SM CLR 21/07 A3017 630 40 1500 160/09 RMK AO2 PRESFR
14837KMSN MSN20010702140509307/02/01 14:05:31  5-MIN KMSN 022005Z 16005KT 10SM CLR 21/07 A3017 640 38 1500 160/05 RMK AO2
14837KMSN MSN20010702141010907/02/01 14:10:31  5-MIN KMSN 022010Z 17008KT 130V200 10SM CLR 21/08 A3017 640 42 1500 170/08 130V200 RMK AO2
14837KMSN MSN20010702141509307/02/01 14:15:31  5-MIN KMSN 022015Z 18006KT 10SM CLR 21/07 A3016 640 40 1500 170/06 RMK AO2
14837KMSN MSN20010702142009907/02/01 14:20:31  5-MIN KMSN 022020Z 15012G15KT 10SM CLR 21/07 A3016 640 40 1500 150/12G15 RMK AO2
14837KMSN MSN20010702142509907/02/01 14:25:31  5-MIN KMSN 022025Z 17012G16KT 10SM CLR 21/07 A3017 640 40 1500 170/12G16 RMK AO2
14837KMSN MSN20010702143009907/02/01 14:30:31  5-MIN KMSN 022030Z 20008G16KT 10SM CLR 21/06 A3017 630 37 1500 190/08G16 RMK AO2
14837KMSN MSN20010702143510907/02/01 14:35:31  5-MIN KMSN 022035Z 19008KT 150V230 10SM CLR 21/06 A3016 640 37 1500 190/08 150V230 RMK AO2
14837KMSN MSN20010702144009907/02/01 14:40:31  5-MIN KMSN 022040Z 19010G16KT 10SM CLR 21/06 A3017 630 37 1500 190/10G16 RMK AO2
14837KMSN MSN20010702144509307/02/01 14:45:31  5-MIN KMSN 022045Z 17010KT 10SM CLR 22/07 A3017 640 37 1600 170/10 RMK AO2
14837KMSN MSN20010702145013207/02/01 14:50:31  5-MIN KMSN 022050Z 20008KT 180V240 10SM CLR 22/07 A3017 640 37 1700 200/08 180V240 RMK AO2 SLP214 T02220072 58019
14837KMSN MSN20010702145509307/02/01 14:55:31  5-MIN KMSN 022055Z 19011KT 10SM CLR 22/07 A3016 640 36 1700 190/11 RMK AO2
14837KMSN MSN20010702150009307/02/01 15:00:31  5-MIN KMSN 022100Z 19011KT 10SM CLR 22/07 A3016 640 37 1600 190/11 RMK AO2
14837KMSN MSN20010702150509307/02/01 15:05:31  5-MIN KMSN 022105Z 17011KT 10SM CLR 22/07 A3016 640 39 1600 170/11 RMK AO2
14837KMSN MSN20010702151009307/02/01 15:10:31  5-MIN KMSN 022110Z 17009KT 10SM CLR 21/07 A3016 640 38 1500 170/09 RMK AO2
14837KMSN MSN20010702151509307/02/01 15:15:31  5-MIN KMSN 022115Z 17013KT 10SM CLR 21/07 A3016 650 38 1500 170/13 RMK AO2
14837KMSN MSN20010702152009307/02/01 15:20:31  5-MIN KMSN 022120Z 18010KT 10SM CLR 22/06 A3015 650 34 1600 180/10 RMK AO2
14837KMSN MSN20010702152509307/02/01 15:25:31  5-MIN KMSN 022125Z 16010KT 10SM CLR 22/07 A3015 650 37 1600 160/10 RMK AO2
14837KMSN MSN20010702153009307/02/01 15:30:31  5-MIN KMSN 022130Z 18010KT 10SM CLR 22/07 A3015 650 37 1600 180/10 RMK AO2
14837KMSN MSN20010702153509307/02/01 15:35:31  5-MIN KMSN 022135Z 18009KT 10SM CLR 22/07 A3015 650 37 1700 180/09 RMK AO2
14837KMSN MSN20010702154009307/02/01 15:40:31  5-MIN KMSN 022140Z 21008KT 10SM CLR 22/07 A3015 650 37 1600 210/08 RMK AO2
14837KMSN MSN20010702154509907/02/01 15:45:31  5-MIN KMSN 022145Z 17013G16KT 10SM CLR 22/06 A3015 650 36 1600 170/13G16 RMK AO2
14837KMSN MSN20010702155011307/02/01 15:50:31  5-MIN KMSN 022150Z 19010KT 10SM FEW060 22/06 A3014 660 34 1600 190/10 RMK AO2 SLP209 T02170056
14837KMSN MSN20010702155509607/02/01 15:55:31  5-MIN KMSN 022155Z 18010KT 10SM FEW060 21/06 A3014 660 36 1600 170/10 RMK AO2
14837KMSN MSN20010702160009607/02/01 16:00:31  5-MIN KMSN 022200Z 20007KT 10SM FEW060 21/06 A3014 660 37 1600 200/07 RMK AO2
14837KMSN MSN20010702160509607/02/01 16:05:31  5-MIN KMSN 022205Z 18009KT 10SM FEW060 21/06 A3015 660 36 1600 180/09 RMK AO2
14837KMSN MSN20010702161009607/02/01 16:10:31  5-MIN KMSN 022210Z 17008KT 10SM FEW060 21/06 A3014 660 37 1600 170/08 RMK AO2
14837KMSN MSN20010702161509607/02/01 16:15:31  5-MIN KMSN 022215Z 17012KT 10SM FEW060 22/06 A3014 670 36 1600 170/12 RMK AO2
14837KMSN MSN20010702162009607/02/01 16:20:31  5-MIN KMSN 022220Z 18010KT 10SM FEW060 21/06 A3014 670 36 1600 180/10 RMK AO2
14837KMSN MSN20010702162509307/02/01 16:25:31  5-MIN KMSN 022225Z 17011KT 10SM CLR 21/06 A3014 660 36 1600 170/11 RMK AO2
14837KMSN MSN20010702163009307/02/01 16:30:31  5-MIN KMSN 022230Z 18008KT 10SM CLR 21/06 A3014 660 36 1600 170/08 RMK AO2
14837KMSN MSN20010702163509607/02/01 16:35:31  5-MIN KMSN 022235Z 19008KT 10SM FEW120 21/06 A3014 660 36 1600 190/08 RMK AO2
14837KMSN MSN20010702164009607/02/01 16:40:31  5-MIN KMSN 022240Z 17007KT 10SM FEW110 21/06 A3013 670 36 1600 170/07 RMK AO2
14837KMSN MSN20010702164509607/02/01 16:45:31  5-MIN KMSN 022245Z 16008KT 10SM SCT110 21/06 A3013 670 37 1600 160/08 RMK AO2
14837KMSN MSN20010702165011307/02/01 16:50:31  5-MIN KMSN 022250Z 16008KT 10SM BKN110 21/06 A3012 680 37 1600 160/08 RMK AO2 SLP201 T02110061
14837KMSN MSN20010702165509607/02/01 16:55:31  5-MIN KMSN 022255Z 17010KT 10SM BKN110 21/06 A3012 680 37 1600 170/10 RMK AO2
14837KMSN MSN20010702170009607/02/01 17:00:31  5-MIN KMSN 022300Z 17009KT 10SM BKN110 22/07 A3011 690 37 1700 170/09 RMK AO2
14837KMSN MSN20010702170510307/02/01 17:05:31  5-MIN KMSN 022305Z 16013KT 10SM BKN110 22/07 A3011 690 37 1700 160/13 RMK AO2 PRESFR
14837KMSN MSN20010702171010307/02/01 17:10:31  5-MIN KMSN 022310Z 16011KT 10SM BKN110 22/07 A3010 700 39 1700 160/11 RMK AO2 PRESFR
14837KMSN MSN20010702171509607/02/01 17:15:31  5-MIN KMSN 022315Z 18011KT 10SM BKN110 22/07 A3010 700 36 1700 180/11 RMK AO2
14837KMSN MSN20010702172009607/02/01 17:20:31  5-MIN KMSN 022320Z 17013KT 10SM SCT110 22/07 A3010 700 37 1700 170/13 RMK AO2
14837KMSN MSN20010702172509607/02/01 17:25:31  5-MIN KMSN 022325Z 18012KT 10SM SCT110 21/06 A3010 700 37 1600 180/12 RMK AO2
14837KMSN MSN20010702173009607/02/01 17:30:31  5-MIN KMSN 022330Z 19009KT 10SM BKN110 22/06 A3010 700 36 1700 190/09 RMK AO2
14837KMSN MSN20010702173509607/02/01 17:35:31  5-MIN KMSN 022335Z 17012KT 10SM BKN100 22/06 A3010 700 36 1700 170/12 RMK AO2
14837KMSN MSN20010702174009607/02/01 17:40:31  5-MIN KMSN 022340Z 17013KT 10SM BKN100 22/06 A3009 710 36 1700 170/13 RMK AO2
14837KMSN MSN20010702174509607/02/01 17:45:31  5-MIN KMSN 022345Z 18013KT 10SM BKN100 21/06 A3009 710 37 1600 180/13 RMK AO2
14837KMSN MSN20010702175013107/02/01 17:50:31  5-MIN KMSN 022350Z 18011KT 10SM BKN110 21/06 A3009 710 37 1600 180/11 RMK AO2 SLP190 T02110061 10222 20189 56025
14837KMSN MSN20010702175509607/02/01 17:55:31  5-MIN KMSN 022355Z 18011KT 10SM BKN100 21/07 A3009 710 38 1600 180/11 RMK AO2
14837KMSN MSN20010702180009607/02/01 18:00:31  5-MIN KMSN 030000Z 18012KT 10SM BKN100 21/07 A3009 710 38 1600 180/12 RMK AO2
14837KMSN MSN20010702180509607/02/01 18:05:31  5-MIN KMSN 030005Z 18013KT 10SM BKN110 21/07 A3009 710 38 1600 180/13 RMK AO2
14837KMSN MSN20010702181009607/02/01 18:10:31  5-MIN KMSN 030010Z 19011KT 10SM BKN110 21/07 A3009 710 38 1600 190/11 RMK AO2
14837KMSN MSN20010702181509607/02/01 18:15:31  5-MIN KMSN 030015Z 18014KT 10SM OVC110 22/07 A3009 710 37 1700 170/14 RMK AO2
14837KMSN MSN20010702182009607/02/01 18:20:31  5-MIN KMSN 030020Z 18013KT 10SM BKN110 22/07 A3008 710 37 1700 180/13 RMK AO2
14837KMSN MSN20010702182509607/02/01 18:25:31  5-MIN KMSN 030025Z 18013KT 10SM BKN110 22/07 A3008 720 37 1700 180/13 RMK AO2
14837KMSN MSN20010702183009607/02/01 18:30:31  5-MIN KMSN 030030Z 19012KT 10SM BKN110 22/07 A3008 720 37 1700 180/12 RMK AO2
14837KMSN MSN20010702183509607/02/01 18:35:31  5-MIN KMSN 030035Z 18014KT 10SM BKN110 21/07 A3007 730 38 1600 180/14 RMK AO2
14837KMSN MSN20010702184009607/02/01 18:40:31  5-MIN KMSN 030040Z 18011KT 10SM BKN110 21/07 A3007 730 38 1600 180/11 RMK AO2
14837KMSN MSN20010702184509607/02/01 18:45:31  5-MIN KMSN 030045Z 18014KT 10SM BKN110 21/07 A3007 730 38 1700 180/14 RMK AO2
14837KMSN MSN20010702185011307/02/01 18:50:31  5-MIN KMSN 030050Z 18012KT 10SM BKN100 21/07 A3007 720 38 1600 180/12 RMK AO2 SLP182 T02110067
14837KMSN MSN20010702185509607/02/01 18:55:31  5-MIN KMSN 030055Z 19009KT 10SM BKN100 21/07 A3007 720 38 1600 190/09 RMK AO2
14837KMSN MSN20010702190009607/02/01 19:00:31  5-MIN KMSN 030100Z 19014KT 10SM BKN100 21/06 A3007 720 37 1600 190/14 RMK AO2
14837KMSN MSN20010702190510907/02/01 19:05:31  5-MIN KMSN 030105Z 20010G15KT 10SM BKN095 OVC110 21/06 A3008 720 37 1600 200/10G15 RMK AO2
14837KMSN MSN20010702191010207/02/01 19:10:31  5-MIN KMSN 030110Z 20012G15KT 10SM OVC095 21/06 A3008 720 36 1600 200/12G15 RMK AO2
14837KMSN MSN20010702191509607/02/01 19:15:31  5-MIN KMSN 030115Z 19011KT 10SM BKN095 21/05 A3007 720 34 1600 190/11 RMK AO2
14837KMSN MSN20010702192009607/02/01 19:20:31  5-MIN KMSN 030120Z 19012KT 10SM BKN095 21/05 A3007 730 34 1600 190/12 RMK AO2
14837KMSN MSN20010702192510207/02/01 19:25:31  5-MIN KMSN 030125Z 19014G18KT 10SM BKN095 21/05 A3007 730 34 1600 190/14G18 RMK AO2
14837KMSN MSN20010702193010207/02/01 19:30:31  5-MIN KMSN 030130Z 20011G18KT 10SM BKN095 21/05 A3007 730 35 1600 200/11G18 RMK AO2
14837KMSN MSN20010702193509607/02/01 19:35:31  5-MIN KMSN 030135Z 19010KT 10SM BKN095 21/05 A3007 720 35 1600 190/10 RMK AO2
14837KMSN MSN20010702194009607/02/01 19:40:31  5-MIN KMSN 030140Z 21009KT 10SM BKN095 21/05 A3008 720 35 1600 210/09 RMK AO2
14837KMSN MSN20010702194509607/02/01 19:45:31  5-MIN KMSN 030145Z 19008KT 10SM BKN080 21/05 A3008 720 35 1600 190/08 RMK AO2
14837KMSN MSN20010702195012707/02/01 19:50:31  5-MIN KMSN 030150Z 19009KT 10SM FEW046 BKN080 OVC090 21/06 A3007 730 37 1600 190/09 RMK AO2 SLP181 T02060056
14837KMSN MSN20010702195511007/02/01 19:55:31  5-MIN KMSN 030155Z 19010KT 10SM SCT046 BKN060 OVC080 21/06 A3007 730 37 1600 190/10 RMK AO2
14837KMSN MSN20010702200011007/02/01 20:00:31  5-MIN KMSN 030200Z 18010KT 10SM BKN046 BKN060 OVC080 21/06 A3007 730 37 1600 180/10 RMK AO2
14837KMSN MSN20010702200511007/02/01 20:05:31  5-MIN KMSN 030205Z 18009KT 10SM BKN046 BKN060 OVC075 21/06 A3006 730 37 1600 180/09 RMK AO2
14837KMSN MSN20010702201011007/02/01 20:10:31  5-MIN KMSN 030210Z 19009KT 10SM BKN046 BKN060 OVC075 21/06 A3006 740 38 1600 180/09 RMK AO2
14837KMSN MSN20010702201510307/02/01 20:15:31  5-MIN KMSN 030215Z 19010KT 10SM BKN048 OVC060 21/06 A3006 740 38 1600 190/10 RMK AO2
14837KMSN MSN20010702202010307/02/01 20:20:31  5-MIN KMSN 030220Z 18007KT 10SM BKN048 OVC060 21/06 A3006 730 38 1600 180/07 RMK AO2
14837KMSN MSN20010702202510307/02/01 20:25:31  5-MIN KMSN 030225Z 19006KT 10SM BKN048 OVC070 21/07 A3007 730 40 1600 190/06 RMK AO2
14837KMSN MSN20010702203009607/02/01 20:30:31  5-MIN KMSN 030230Z 18009KT 10SM OVC048 20/07 A3007 730 41 1500 180/09 RMK AO2
14837KMSN MSN20010702203509607/02/01 20:35:31  5-MIN KMSN 030235Z 18008KT 10SM OVC046 21/07 A3007 730 40 1600 180/08 RMK AO2
14837KMSN MSN20010702204009607/02/01 20:40:31  5-MIN KMSN 030240Z 19009KT 10SM OVC046 20/07 A3007 730 41 1500 190/09 RMK AO2
14837KMSN MSN20010702204509607/02/01 20:45:31  5-MIN KMSN 030245Z 19006KT 10SM OVC044 20/07 A3007 730 41 1500 180/06 RMK AO2
14837KMSN MSN20010702205011907/02/01 20:50:31  5-MIN KMSN 030250Z 19007KT 10SM OVC042 20/07 A3007 730 43 1500 190/07 RMK AO2 SLP181 T02000072 58023
14837KMSN MSN20010702205509607/02/01 20:55:31  5-MIN KMSN 030255Z 18008KT 10SM OVC042 20/07 A3007 730 43 1500 180/08 RMK AO2
14837KMSN MSN20010702210009607/02/01 21:00:31  5-MIN KMSN 030300Z 18007KT 10SM OVC042 20/07 A3007 730 43 1500 180/07 RMK AO2
14837KMSN MSN20010702210509607/02/01 21:05:31  5-MIN KMSN 030305Z 18006KT 10SM OVC040 20/07 A3007 730 43 1500 170/06 RMK AO2
14837KMSN MSN20010702211009607/02/01 21:10:31  5-MIN KMSN 030310Z 18006KT 10SM OVC038 20/08 A3007 730 45 1500 180/06 RMK AO2
14837KMSN MSN20010702211509607/02/01 21:15:31  5-MIN KMSN 030315Z 18005KT 10SM OVC038 20/08 A3006 730 45 1500 180/05 RMK AO2
14837KMSN MSN20010702212009607/02/01 21:20:31  5-MIN KMSN 030320Z 16006KT 10SM OVC038 19/08 A3006 740 46 1500 160/06 RMK AO2
14837KMSN MSN20010702212509607/02/01 21:25:31  5-MIN KMSN 030325Z 17006KT 10SM OVC038 19/08 A3006 730 48 1500 170/06 RMK AO2
14837KMSN MSN20010702213009607/02/01 21:30:31  5-MIN KMSN 030330Z VRB03KT 10SM OVC038 20/08 A3008 720 45 1500 VRB/03 RMK AO2
14837KMSN MSN20010702213511207/02/01 21:35:31  5-MIN KMSN 030335Z 17005KT 10SM -RA OVC038 19/08 A3006 730 48 1500 170/05 RMK AO2 RAB33 P0000
14837KMSN MSN20010702214011207/02/01 21:40:31  5-MIN KMSN 030340Z 26004KT 10SM -RA OVC038 19/08 A3007 720 48 1400 260/04 RMK AO2 RAB33 P0000
14837KMSN MSN20010702214511107/02/01 21:45:31  5-MIN KMSN 030345Z 19004KT 10SM OVC038 19/08 A3007 730 48 1500 190/04 RMK AO2 RAB33E44 P0000
14837KMSN MSN20010702215012807/02/01 21:50:31  5-MIN KMSN 030350Z VRB04KT 10SM OVC038 19/08 A3007 720 48 1500 VRB/04 RMK AO2 RAB33E44 SLP181 P0000 T01940083
14837KMSN MSN20010702215509607/02/01 21:55:31  5-MIN KMSN 030355Z 23003KT 10SM OVC038 19/08 A3008 720 48 1400 230/03 RMK AO2
14837KMSN MSN20010702220009607/02/01 22:00:31  5-MIN KMSN 030400Z 21004KT 10SM OVC038 19/09 A3007 720 50 1400 210/04 RMK AO2
14837KMSN MSN20010702220509607/02/01 22:05:31  5-MIN KMSN 030405Z 20005KT 10SM OVC038 19/08 A3007 730 48 1500 200/05 RMK AO2
14837KMSN MSN20010702221009607/02/01 22:10:31  5-MIN KMSN 030410Z VRB05KT 10SM OVC038 20/08 A3007 730 46 1500 VRB/05 RMK AO2
14837KMSN MSN20010702221509607/02/01 22:15:31  5-MIN KMSN 030415Z 19005KT 10SM OVC038 20/09 A3006 730 48 1500 190/05 RMK AO2
14837KMSN MSN20010702222009607/02/01 22:20:31  5-MIN KMSN 030420Z 18008KT 10SM OVC038 20/09 A3006 740 48 1500 180/08 RMK AO2
14837KMSN MSN20010702222509607/02/01 22:25:31  5-MIN KMSN 030425Z 18008KT 10SM OVC038 20/09 A3005 740 48 1500 180/08 RMK AO2
14837KMSN MSN20010702223009607/02/01 22:30:31  5-MIN KMSN 030430Z 18006KT 10SM OVC036 20/09 A3005 750 48 1500 180/06 RMK AO2
14837KMSN MSN20010702223509607/02/01 22:35:31  5-MIN KMSN 030435Z 19004KT 10SM OVC036 19/09 A3005 740 52 1500 190/04 RMK AO2
14837KMSN MSN20010702224009607/02/01 22:40:31  5-MIN KMSN 030440Z VRB04KT 10SM OVC036 19/09 A3005 740 50 1500 VRB/04 RMK AO2
14837KMSN MSN20010702224509607/02/01 22:45:31  5-MIN KMSN 030445Z VRB04KT 10SM OVC036 19/09 A3005 740 50 1500 VRB/04 RMK AO2
14837KMSN MSN20010702225011307/02/01 22:50:31  5-MIN KMSN 030450Z 19005KT 10SM OVC036 19/09 A3005 750 50 1500 190/05 RMK AO2 SLP172 T01940089
14837KMSN MSN20010702225509607/02/01 22:55:31  5-MIN KMSN 030455Z 18007KT 10SM BKN036 20/09 A3004 750 48 1500 180/07 RMK AO2
14837KMSN MSN20010702230009607/02/01 23:00:31  5-MIN KMSN 030500Z 19006KT 10SM BKN038 19/09 A3005 750 50 1500 190/06 RMK AO2
14837KMSN MSN20010702230509607/02/01 23:05:31  5-MIN KMSN 030505Z 21004KT 10SM BKN038 19/09 A3005 740 50 1500 210/04 RMK AO2
14837KMSN MSN20010702231009607/02/01 23:10:31  5-MIN KMSN 030510Z VRB03KT 10SM BKN038 19/09 A3005 740 52 1500 VRB/03 RMK AO2
14837KMSN MSN20010702231509607/02/01 23:15:31  5-MIN KMSN 030515Z 21005KT 10SM BKN038 19/09 A3005 740 52 1500 210/05 RMK AO2
14837KMSN MSN20010702232009607/02/01 23:20:31  5-MIN KMSN 030520Z 20004KT 10SM BKN038 19/09 A3005 740 52 1500 200/04 RMK AO2
14837KMSN MSN20010702232509607/02/01 23:25:31  5-MIN KMSN 030525Z 22004KT 10SM BKN038 19/09 A3006 740 52 1500 220/04 RMK AO2
14837KMSN MSN20010702233009607/02/01 23:30:31  5-MIN KMSN 030530Z 19004KT 10SM OVC038 19/09 A3006 740 52 1500 180/04 RMK AO2
14837KMSN MSN20010702233509607/02/01 23:35:31  5-MIN KMSN 030535Z 22003KT 10SM OVC038 19/10 A3006 740 54 1500 220/03 RMK AO2
14837KMSN MSN20010702234009607/02/01 23:40:31  5-MIN KMSN 030540Z 00000KT 10SM OVC038 19/10 A3006 740 54 1500 000/00 RMK AO2
14837KMSN MSN20010702234509607/02/01 23:45:31  5-MIN KMSN 030545Z 19004KT 10SM OVC038 19/10 A3005 740 54 1500 190/04 RMK AO2
14837KMSN MSN20010702235014707/02/01 23:50:31  5-MIN KMSN 030550Z VRB03KT 10SM OVC038 19/10 A3005 740 54 1500 VRB/03 RMK AO2 SLP173 60000 T01940100 10217 20194 402220061 56008
14837KMSN MSN20010702235509607/02/01 23:55:31  5-MIN KMSN 030555Z 19005KT 10SM OVC038 19/10 A3005 740 54 1500 190/05 RMK AO2
14837KMSN MSN20010703000009607/03/01 00:00:31  5-MIN KMSN 030600Z 21004KT 10SM OVC038 19/10 A3005 740 54 1500 210/04 RMK AO2
14837KMSN MSN20010703000509607/03/01 00:05:31  5-MIN KMSN 030605Z 21003KT 10SM OVC036 19/10 A3005 750 54 1500 210/03 RMK AO2
14837KMSN MSN20010703001009607/03/01 00:10:31  5-MIN KMSN 030610Z 20004KT 10SM OVC036 19/10 A3005 750 54 1500 200/04 RMK AO2
14837KMSN MSN20010703001509607/03/01 00:15:31  5-MIN KMSN 030615Z 21003KT 10SM OVC036 19/11 A3005 750 56 1500 210/03 RMK AO2
14837KMSN MSN20010703002009607/03/01 00:20:31  5-MIN KMSN 030620Z 20003KT 10SM OVC036 19/11 A3004 750 56 1500 190/03 RMK AO2
14837KMSN MSN20010703002511007/03/01 00:25:31  5-MIN KMSN 030625Z 18005KT 10SM BKN034 BKN050 OVC060 19/11 A3004 750 56 1500 180/05 RMK AO2
14837KMSN MSN20010703003011007/03/01 00:30:31  5-MIN KMSN 030630Z 20005KT 10SM BKN034 BKN050 OVC075 19/11 A3004 750 56 1500 200/05 RMK AO2
14837KMSN MSN20010703003511007/03/01 00:35:31  5-MIN KMSN 030635Z 20005KT 10SM SCT030 BKN036 OVC075 19/11 A3004 750 56 1500 200/05 RMK AO2
14837KMSN MSN20010703004011007/03/01 00:40:31  5-MIN KMSN 030640Z 20005KT 10SM SCT030 BKN049 OVC075 19/11 A3004 750 56 1500 200/05 RMK AO2
14837KMSN MSN20010703004511007/03/01 00:45:31  5-MIN KMSN 030645Z 20005KT 10SM SCT030 BKN049 OVC075 19/11 A3004 750 56 1500 200/05 RMK AO2
14837KMSN MSN20010703005012707/03/01 00:50:31  5-MIN KMSN 030650Z 20006KT 10SM BKN028 BKN049 OVC060 19/11 A3005 750 56 1500 200/06 RMK AO2 SLP172 T01940106
14837KMSN MSN20010703005511007/03/01 00:55:31  5-MIN KMSN 030655Z 20005KT 10SM BKN028 BKN049 OVC075 19/11 A3004 750 56 1500 200/05 RMK AO2
14837KMSN MSN20010703010011007/03/01 01:00:31  5-MIN KMSN 030700Z 21006KT 10SM BKN028 BKN049 OVC075 19/11 A3005 750 58 1500 210/06 RMK AO2
14837KMSN MSN20010703010511007/03/01 01:05:31  5-MIN KMSN 030705Z VRB04KT 10SM BKN028 BKN049 OVC075 19/12 A3004 750 60 1500 VRB/04 RMK AO2
14837KMSN MSN20010703011010307/03/01 01:10:31  5-MIN KMSN 030710Z VRB05KT 10SM BKN028 OVC070 19/12 A3004 750 60 1500 VRB/05 RMK AO2
14837KMSN MSN20010703011509607/03/01 01:15:31  5-MIN KMSN 030715Z VRB04KT 10SM OVC028 19/11 A3004 760 60 1400 VRB/04 RMK AO2
14837KMSN MSN20010703012010307/03/01 01:20:31  5-MIN KMSN 030720Z 20005KT 10SM BKN028 BKN075 19/11 A3003 760 60 1400 200/05 RMK AO2
14837KMSN MSN20010703012510307/03/01 01:25:31  5-MIN KMSN 030725Z 21005KT 10SM BKN028 BKN075 19/11 A3004 760 60 1400 210/05 RMK AO2
14837KMSN MSN20010703013010307/03/01 01:30:31  5-MIN KMSN 030730Z 20003KT 10SM SCT026 BKN041 19/11 A3004 760 60 1400 200/03 RMK AO2
14837KMSN MSN20010703013510307/03/01 01:35:31  5-MIN KMSN 030735Z 21004KT 10SM SCT026 BKN041 19/12 A3004 760 62 1400 210/04 RMK AO2
14837KMSN MSN20010703014010307/03/01 01:40:31  5-MIN KMSN 030740Z 22005KT 10SM FEW026 BKN041 19/12 A3004 760 62 1400 220/05 RMK AO2
14837KMSN MSN20010703014510307/03/01 01:45:31  5-MIN KMSN 030745Z VRB04KT 10SM FEW026 SCT042 18/12 A3004 760 65 1400 VRB/04 RMK AO2
14837KMSN MSN20010703015012007/03/01 01:50:31  5-MIN KMSN 030750Z 22005KT 10SM FEW026 SCT042 19/12 A3003 760 62 1400 220/05 RMK AO2 SLP167 T01890117
14837KMSN MSN20010703015509607/03/01 01:55:31  5-MIN KMSN 030755Z 20004KT 10SM SCT042 18/12 A3003 760 67 1400 200/04 RMK AO2
14837KMSN MSN20010703020009607/03/01 02:00:31  5-MIN KMSN 030800Z 22005KT 10SM SCT042 18/12 A3003 760 67 1400 210/05 RMK AO2
14837KMSN MSN20010703020509607/03/01 02:05:31  5-MIN KMSN 030805Z 22004KT 10SM FEW040 18/12 A3003 760 67 1400 220/04 RMK AO2
14837KMSN MSN20010703021009607/03/01 02:10:31  5-MIN KMSN 030810Z 21004KT 10SM FEW040 18/12 A3003 760 67 1400 210/04 RMK AO2
14837KMSN MSN20010703021509607/03/01 02:15:31  5-MIN KMSN 030815Z VRB04KT 10SM FEW040 18/12 A3003 770 67 1400 VRB/04 RMK AO2
14837KMSN MSN20010703022009607/03/01 02:20:31  5-MIN KMSN 030820Z 22004KT 10SM FEW040 18/12 A3003 760 67 1400 220/04 RMK AO2
14837KMSN MSN20010703022509307/03/01 02:25:31  5-MIN KMSN 030825Z 21005KT 10SM CLR 18/12 A3003 770 67 1400 210/05 RMK AO2
14837KMSN MSN20010703023009307/03/01 02:30:31  5-MIN KMSN 030830Z 21005KT 10SM CLR 18/12 A3002 770 67 1400 210/05 RMK AO2
14837KMSN MSN20010703023509607/03/01 02:35:31  5-MIN KMSN 030835Z 21006KT 10SM SCT036 18/13 A3002 770 70 1400 210/06 RMK AO2
14837KMSN MSN20010703024010307/03/01 02:40:31  5-MIN KMSN 030840Z 21006KT 10SM FEW033 SCT041 18/13 A3002 770 70 1400 210/06 RMK AO2
14837KMSN MSN20010703024510307/03/01 02:45:31  5-MIN KMSN 030845Z 21005KT 10SM FEW037 SCT048 18/13 A3001 780 70 1400 210/05 RMK AO2
14837KMSN MSN20010703025012607/03/01 02:50:31  5-MIN KMSN 030850Z 22004KT 10SM FEW037 SCT048 18/13 A3001 780 70 1400 220/04 RMK AO2 SLP158 T01830128 58005
14837KMSN MSN20010703025510307/03/01 02:55:31  5-MIN KMSN 030855Z 21006KT 10SM FEW037 SCT048 18/13 A3000 790 70 1400 210/06 RMK AO2
14837KMSN MSN20010703030010307/03/01 03:00:31  5-MIN KMSN 030900Z 22005KT 10SM FEW037 SCT048 18/13 A3000 790 70 1400 220/05 RMK AO2
14837KMSN MSN20010703030509607/03/01 03:05:31  5-MIN KMSN 030905Z 21004KT 10SM FEW039 18/13 A3000 790 70 1400 210/04 RMK AO2
14837KMSN MSN20010703031009607/03/01 03:10:31  5-MIN KMSN 030910Z 22004KT 10SM FEW048 18/13 A3000 790 72 1300 210/04 RMK AO2
14837KMSN MSN20010703031509307/03/01 03:15:31  5-MIN KMSN 030915Z VRB04KT 10SM CLR 18/13 A3000 790 70 1400 VRB/04 RMK AO2
14837KMSN MSN20010703032009307/03/01 03:20:31  5-MIN KMSN 030920Z 22005KT 10SM CLR 18/13 A3000 790 70 1400 220/05 RMK AO2
14837KMSN MSN20010703032509607/03/01 03:25:31  5-MIN KMSN 030925Z 22005KT 10SM FEW032 18/13 A3000 790 75 1300 220/05 RMK AO2
14837KMSN MSN20010703033009607/03/01 03:30:31  5-MIN KMSN 030930Z 22004KT 10SM SCT034 18/13 A3000 790 72 1400 210/04 RMK AO2
14837KMSN MSN20010703033509607/03/01 03:35:31  5-MIN KMSN 030935Z 22005KT 10SM BKN034 18/13 A3000 790 72 1400 220/05 RMK AO2
14837KMSN MSN20010703034009607/03/01 03:40:31  5-MIN KMSN 030940Z 22005KT 10SM BKN034 18/13 A3001 790 72 1400 220/05 RMK AO2
14837KMSN MSN20010703034510307/03/01 03:45:31  5-MIN KMSN 030945Z 21006KT 10SM BKN034 BKN041 18/13 A3000 790 72 1400 210/06 RMK AO2
14837KMSN MSN20010703035012007/03/01 03:50:31  5-MIN KMSN 030950Z 21005KT 10SM BKN034 BKN041 18/13 A3000 790 72 1400 210/05 RMK AO2 SLP155 T01830133
14837KMSN MSN20010703035510307/03/01 03:55:31  5-MIN KMSN 030955Z 21006KT 10SM BKN032 BKN039 18/13 A3000 790 72 1400 210/06 RMK AO2
14837KMSN MSN20010703040010307/03/01 04:00:31  5-MIN KMSN 031000Z 22005KT 10SM BKN032 BKN039 18/13 A3001 790 72 1400 220/05 RMK AO2
14837KMSN MSN20010703040509607/03/01 04:05:31  5-MIN KMSN 031005Z 21006KT 10SM BKN034 18/13 A3001 790 72 1400 210/06 RMK AO2
14837KMSN MSN20010703041011007/03/01 04:10:31  5-MIN KMSN 031010Z 22007KT 10SM FEW026 BKN032 BKN044 18/13 A3001 780 72 1400 220/07 RMK AO2
14837KMSN MSN20010703041510307/03/01 04:15:31  5-MIN KMSN 031015Z 21004KT 10SM FEW028 BKN034 18/13 A3001 790 72 1400 210/04 RMK AO2
14837KMSN MSN20010703042010307/03/01 04:20:31  5-MIN KMSN 031020Z 22005KT 10SM FEW026 BKN032 18/14 A3001 780 75 1400 220/05 RMK AO2
14837KMSN MSN20010703042511007/03/01 04:25:31  5-MIN KMSN 031025Z 21004KT 10SM SCT026 BKN037 BKN044 18/14 A3000 790 75 1400 210/04 RMK AO2
14837KMSN MSN20010703043011007/03/01 04:30:31  5-MIN KMSN 031030Z 23005KT 10SM SCT028 BKN037 BKN044 18/14 A3000 790 75 1400 230/05 RMK AO2
14837KMSN MSN20010703043510307/03/01 04:35:31  5-MIN KMSN 031035Z 22004KT 10SM FEW028 SCT039 18/14 A3000 790 75 1400 220/04 RMK AO2
14837KMSN MSN20010703044010307/03/01 04:40:31  5-MIN KMSN 031040Z 24003KT 10SM FEW028 SCT039 18/14 A3000 790 75 1400 240/03 RMK AO2
14837KMSN MSN20010703044510307/03/01 04:45:31  5-MIN KMSN 031045Z 00000KT 10SM FEW028 SCT039 18/14 A3000 790 78 1300 000/00 RMK AO2
14837KMSN MSN20010703045012007/03/01 04:50:31  5-MIN KMSN 031050Z VRB03KT 10SM FEW028 SCT036 18/14 A3000 790 75 1400 VRB/03 RMK AO2 SLP154 T01830139
14837KMSN MSN20010703045509307/03/01 04:55:31  5-MIN KMSN 031055Z 00000KT 10SM CLR 18/14 A3000 790 75 1400 000/00 RMK AO2
14837KMSN MSN20010703050009607/03/01 05:00:31  5-MIN KMSN 031100Z 00000KT 10SM FEW027 18/14 A3000 790 75 1400 000/00 RMK AO2
14837KMSN MSN20010703050509607/03/01 05:05:31  5-MIN KMSN 031105Z 00000KT 10SM FEW027 18/14 A3000 790 75 1400 000/00 RMK AO2
14837KMSN MSN20010703051009607/03/01 05:10:31  5-MIN KMSN 031110Z VRB03KT 10SM SCT027 18/14 A3000 790 75 1400 VRB/03 RMK AO2
14837KMSN MSN20010703051510307/03/01 05:15:31  5-MIN KMSN 031115Z VRB03KT 10SM SCT027 BKN035 18/14 A3001 780 75 1400 VRB/03 RMK AO2
14837KMSN MSN20010703052010307/03/01 05:20:31  5-MIN KMSN 031120Z VRB03KT 10SM BKN027 BKN033 18/14 A3001 780 75 1400 VRB/03 RMK AO2
14837KMSN MSN20010703052510307/03/01 05:25:31  5-MIN KMSN 031125Z 00000KT 10SM BKN025 BKN033 18/14 A3001 790 78 1400 000/00 RMK AO2
14837KMSN MSN20010703053010307/03/01 05:30:31  5-MIN KMSN 031130Z 27003KT 10SM BKN025 OVC033 18/14 A3000 790 78 1400 270/03 RMK AO2
14837KMSN MSN20010703053510307/03/01 05:35:31  5-MIN KMSN 031135Z 00000KT 10SM BKN025 BKN033 18/14 A3000 790 78 1400 000/00 RMK AO2
14837KMSN MSN20010703054010307/03/01 05:40:31  5-MIN KMSN 031140Z 00000KT 10SM BKN025 BKN033 18/14 A3000 790 78 1400 000/00 RMK AO2
14837KMSN MSN20010703054510307/03/01 05:45:31  5-MIN KMSN 031145Z 00000KT 10SM SCT025 BKN035 18/14 A3000 790 78 1400 000/00 RMK AO2
14837KMSN MSN20010703055013807/03/01 05:50:31  5-MIN KMSN 031150Z VRB03KT 10SM SCT027 BKN035 18/14 A3000 790 78 1400 VRB/03 RMK AO2 SLP157 T01830144 10194 20178 58015
14837KMSN MSN20010703055510307/03/01 05:55:31  5-MIN KMSN 031155Z 22003KT 10SM FEW027 SCT035 18/14 A3001 780 78 1400 220/03 RMK AO2
14837KMSN MSN20010703060010307/03/01 06:00:31  5-MIN KMSN 031200Z 00000KT 10SM FEW027 SCT035 18/14 A3001 780 78 1400 000/00 RMK AO2
14837KMSN MSN20010703060509607/03/01 06:05:31  5-MIN KMSN 031205Z 00000KT 10SM FEW035 18/14 A3002 780 78 1400 000/00 RMK AO2
14837KMSN MSN20010703061009607/03/01 06:10:31  5-MIN KMSN 031210Z 00000KT 10SM FEW035 18/14 A3002 770 78 1400 000/00 RMK AO2
14837KMSN MSN20010703061510307/03/01 06:15:31  5-MIN KMSN 031215Z 23003KT 10SM SCT033 18/14 A3003 760 78 1400 230/03 RMK AO2 PRESRR
14837KMSN MSN20010703062009607/03/01 06:20:31  5-MIN KMSN 031220Z 22004KT 10SM BKN033 18/14 A3004 760 78 1400 220/04 RMK AO2
14837KMSN MSN20010703062509607/03/01 06:25:31  5-MIN KMSN 031225Z 23006KT 10SM BKN033 18/14 A3004 760 78 1400 220/06 RMK AO2
14837KMSN MSN20010703063009607/03/01 06:30:31  5-MIN KMSN 031230Z 23006KT 10SM BKN033 19/15 A3004 760 78 1400 220/06 RMK AO2
14837KMSN MSN20010703063509607/03/01 06:35:31  5-MIN KMSN 031235Z VRB05KT 10SM BKN033 19/15 A3003 760 78 1400 VRB/05 RMK AO2
14837KMSN MSN20010703064009607/03/01 06:40:31  5-MIN KMSN 031240Z 22006KT 10SM BKN031 19/15 A3003 760 78 1400 220/06 RMK AO2
14837KMSN MSN20010703064509607/03/01 06:45:31  5-MIN KMSN 031245Z VRB06KT 10SM BKN031 19/15 A3003 760 78 1400 VRB/06 RMK AO2
14837KMSN MSN20010703065011307/03/01 06:50:31  5-MIN KMSN 031250Z 23004KT 10SM SCT031 19/15 A3003 760 78 1400 230/04 RMK AO2 SLP165 T01890150
14837KMSN MSN20010703065509607/03/01 06:55:31  5-MIN KMSN 031255Z 23005KT 10SM SCT031 19/15 A3003 760 75 1500 230/05 RMK AO2
14837KMSN MSN20010703070009607/03/01 07:00:31  5-MIN KMSN 031300Z VRB06KT 10SM FEW031 19/15 A3003 760 75 1500 VRB/06 RMK AO2
14837KMSN MSN20010703070509607/03/01 07:05:31  5-MIN KMSN 031305Z VRB05KT 10SM FEW031 19/15 A3003 770 75 1500 VRB/05 RMK AO2
14837KMSN MSN20010703071009307/03/01 07:10:31  5-MIN KMSN 031310Z VRB05KT 10SM CLR 19/15 A3003 770 75 1500 VRB/05 RMK AO2
14837KMSN MSN20010703071509307/03/01 07:15:31  5-MIN KMSN 031315Z 25005KT 10SM CLR 19/15 A3003 770 75 1500 250/05 RMK AO2
14837KMSN MSN20010703072009307/03/01 07:20:31  5-MIN KMSN 031320Z 25005KT 10SM CLR 19/15 A3003 770 75 1500 250/05 RMK AO2
14837KMSN MSN20010703072509307/03/01 07:25:31  5-MIN KMSN 031325Z 23005KT 10SM CLR 19/15 A3003 760 75 1500 230/05 RMK AO2
14837KMSN MSN20010703073009307/03/01 07:30:31  5-MIN KMSN 031330Z 23005KT 10SM CLR 19/15 A3003 760 75 1500 230/05 RMK AO2
14837KMSN MSN20010703073509307/03/01 07:35:31  5-MIN KMSN 031335Z VRB04KT 10SM CLR 19/15 A3003 770 75 1500 VRB/04 RMK AO2
14837KMSN MSN20010703074009307/03/01 07:40:31  5-MIN KMSN 031340Z 23005KT 10SM CLR 19/15 A3003 770 75 1500 230/05 RMK AO2
14837KMSN MSN20010703074509307/03/01 07:45:31  5-MIN KMSN 031345Z 25005KT 10SM CLR 19/16 A3003 770 78 1500 250/05 RMK AO2
14837KMSN MSN20010703075011007/03/01 07:50:31  5-MIN KMSN 031350Z VRB04KT 10SM CLR 19/16 A3003 760 78 1500 VRB/04 RMK AO2 SLP166 T01940156
14837KMSN MSN20010703075509307/03/01 07:55:31  5-MIN KMSN 031355Z VRB05KT 10SM CLR 19/16 A3003 760 78 1500 VRB/05 RMK AO2
14837KMSN MSN20010703080009307/03/01 08:00:31  5-MIN KMSN 031400Z 26007KT 10SM CLR 19/16 A3003 760 78 1500 260/07 RMK AO2
14837KMSN MSN20010703080509307/03/01 08:05:31  5-MIN KMSN 031405Z 27006KT 10SM CLR 19/16 A3003 760 78 1500 270/06 RMK AO2
14837KMSN MSN20010703081009307/03/01 08:10:31  5-MIN KMSN 031410Z 27006KT 10SM CLR 20/16 A3003 760 75 1600 270/06 RMK AO2
14837KMSN MSN20010703081509307/03/01 08:15:31  5-MIN KMSN 031415Z VRB06KT 10SM CLR 20/16 A3003 760 75 1600 VRB/06 RMK AO2
14837KMSN MSN20010703082009307/03/01 08:20:31  5-MIN KMSN 031420Z VRB06KT 10SM CLR 20/16 A3003 760 75 1600 VRB/06 RMK AO2
14837KMSN MSN20010703082509307/03/01 08:25:31  5-MIN KMSN 031425Z 25005KT 10SM CLR 20/16 A3003 760 75 1600 250/05 RMK AO2
14837KMSN MSN20010703083009307/03/01 08:30:31  5-MIN KMSN 031430Z 27006KT 10SM CLR 20/16 A3003 760 75 1600 270/06 RMK AO2
14837KMSN MSN20010703083509307/03/01 08:35:31  5-MIN KMSN 031435Z VRB05KT 10SM CLR 20/16 A3003 760 75 1600 VRB/05 RMK AO2
14837KMSN MSN20010703084009307/03/01 08:40:31  5-MIN KMSN 031440Z 27006KT 10SM CLR 20/16 A3004 760 75 1600 270/06 RMK AO2
14837KMSN MSN20010703084509307/03/01 08:45:31  5-MIN KMSN 031445Z VRB04KT 10SM CLR 20/16 A3003 760 75 1600 VRB/04 RMK AO2
14837KMSN MSN20010703085011607/03/01 08:50:31  5-MIN KMSN 031450Z VRB03KT 10SM CLR 21/16 A3003 760 75 1600 VRB/03 RMK AO2 SLP166 T02060161 55001
14837KMSN MSN20010703085509307/03/01 08:55:31  5-MIN KMSN 031455Z VRB03KT 10SM CLR 21/16 A3003 760 75 1600 VRB/03 RMK AO2
14837KMSN MSN20010703090009307/03/01 09:00:31  5-MIN KMSN 031500Z VRB04KT 10SM CLR 21/16 A3003 770 75 1600 VRB/04 RMK AO2
14837KMSN MSN20010703090509307/03/01 09:05:31  5-MIN KMSN 031505Z 00000KT 10SM CLR 21/16 A3002 770 75 1600 000/00 RMK AO2
14837KMSN MSN20010703091009307/03/01 09:10:31  5-MIN KMSN 031510Z 32003KT 10SM CLR 21/16 A3002 770 75 1600 320/03 RMK AO2
14837KMSN MSN20010703091509307/03/01 09:15:31  5-MIN KMSN 031515Z 35003KT 10SM CLR 21/16 A3002 770 73 1700 350/03 RMK AO2
14837KMSN MSN20010703092009307/03/01 09:20:31  5-MIN KMSN 031520Z 00000KT 10SM CLR 21/16 A3002 780 73 1700 000/00 RMK AO2
14837KMSN MSN20010703092509307/03/01 09:25:31  5-MIN KMSN 031525Z VRB03KT 10SM CLR 21/16 A3002 780 73 1700 VRB/03 RMK AO2
14837KMSN MSN20010703093009307/03/01 09:30:31  5-MIN KMSN 031530Z 00000KT 10SM CLR 21/16 A3001 780 73 1700 000/00 RMK AO2
14837KMSN MSN20010703093509307/03/01 09:35:31  5-MIN KMSN 031535Z 00000KT 10SM CLR 21/16 A3001 780 73 1700 000/00 RMK AO2
14837KMSN MSN20010703094009607/03/01 09:40:31  5-MIN KMSN 031540Z 35003KT 10SM FEW025 22/17 A3001 780 73 1800 350/03 RMK AO2
14837KMSN MSN20010703094509607/03/01 09:45:31  5-MIN KMSN 031545Z 00000KT 10SM FEW025 22/17 A3001 780 73 1800 000/00 RMK AO2
14837KMSN MSN20010703095011307/03/01 09:50:31  5-MIN KMSN 031550Z 00000KT 10SM FEW025 22/16 A3001 780 70 1800 000/00 RMK AO2 SLP160 T02170161
14837KMSN MSN20010703095509307/03/01 09:55:31  5-MIN KMSN 031555Z VRB04KT 10SM CLR 22/17 A3001 780 70 1800 VRB/04 RMK AO2
14837KMSN MSN20010703100009307/03/01 10:00:31  5-MIN KMSN 031600Z 02003KT 10SM CLR 22/16 A3001 780 68 1800 020/03 RMK AO2
14837KMSN MSN20010703100509307/03/01 10:05:31  5-MIN KMSN 031605Z 05004KT 10SM CLR 22/17 A3001 780 70 1800 050/04 RMK AO2
14837KMSN MSN20010703101009307/03/01 10:10:31  5-MIN KMSN 031610Z 06005KT 10SM CLR 22/16 A3001 790 68 1800 060/05 RMK AO2
14837KMSN MSN20010703101509307/03/01 10:15:31  5-MIN KMSN 031615Z 04005KT 10SM CLR 23/17 A3000 790 68 1900 040/05 RMK AO2
14837KMSN MSN20010703102009307/03/01 10:20:31  5-MIN KMSN 031620Z VRB04KT 10SM CLR 23/17 A3000 790 68 1900 VRB/04 RMK AO2
14837KMSN MSN20010703102509607/03/01 10:25:31  5-MIN KMSN 031625Z 00000KT 10SM FEW030 23/17 A3001 780 68 1900 000/00 RMK AO2
14837KMSN MSN20010703103009607/03/01 10:30:31  5-MIN KMSN 031630Z 32004KT 10SM FEW030 23/17 A3001 780 66 2000 320/04 RMK AO2
14837KMSN MSN20010703103509607/03/01 10:35:31  5-MIN KMSN 031635Z 00000KT 10SM FEW030 23/17 A3001 780 66 2000 000/00 RMK AO2
14837KMSN MSN20010703104009607/03/01 10:40:31  5-MIN KMSN 031640Z 00000KT 10SM FEW030 23/16 A3002 770 63 2000 000/00 RMK AO2
14837KMSN MSN20010703104509607/03/01 10:45:31  5-MIN KMSN 031645Z 10004KT 10SM FEW030 23/17 A3001 780 66 2000 090/04 RMK AO2
14837KMSN MSN20010703105011307/03/01 10:50:31  5-MIN KMSN 031650Z 09003KT 10SM FEW030 23/17 A3001 780 66 2000 090/03 RMK AO2 SLP159 T02330167
14837KMSN MSN20010703105509607/03/01 10:55:31  5-MIN KMSN 031655Z VRB03KT 10SM FEW030 24/17 A3001 780 63 2000 VRB/03 RMK AO2
14837KMSN MSN20010703110009607/03/01 11:00:31  5-MIN KMSN 031700Z 00000KT 10SM FEW030 23/17 A3001 780 66 2000 000/00 RMK AO2
14837KMSN MSN20010703110509607/03/01 11:05:31  5-MIN KMSN 031705Z VRB03KT 10SM FEW030 23/17 A3001 780 66 2000 VRB/03 RMK AO2
14837KMSN MSN20010703111009607/03/01 11:10:31  5-MIN KMSN 031710Z 00000KT 10SM FEW030 24/17 A3001 780 63 2000 000/00 RMK AO2
14837KMSN MSN20010703111509607/03/01 11:15:31  5-MIN KMSN 031715Z VRB03KT 10SM FEW030 24/17 A3001 780 61 2100 VRB/03 RMK AO2
14837KMSN MSN20010703112009607/03/01 11:20:31  5-MIN KMSN 031720Z 16004KT 10SM FEW030 24/17 A3001 780 61 2100 160/04 RMK AO2
14837KMSN MSN20010703112509607/03/01 11:25:31  5-MIN KMSN 031725Z 00000KT 10SM FEW030 24/16 A3001 780 59 2100 000/00 RMK AO2
14837KMSN MSN20010703113009607/03/01 11:30:31  5-MIN KMSN 031730Z 00000KT 10SM FEW030 24/16 A3001 780 57 2100 000/00 RMK AO2
14837KMSN MSN20010703113509607/03/01 11:35:31  5-MIN KMSN 031735Z VRB06KT 10SM FEW030 25/17 A3002 770 59 2100 VRB/06 RMK AO2
14837KMSN MSN20010703114011207/03/01 11:40:31  5-MIN KMSN 031740Z 21007KT 160V250 10SM FEW030 25/17 A3002 780 61 2100 210/07 160V250 RMK AO2
14837KMSN MSN20010703114509607/03/01 11:45:31  5-MIN KMSN 031745Z 21007KT 10SM FEW030 25/17 A3002 770 59 2100 210/07 RMK AO2
14837KMSN MSN20010703115012807/03/01 11:50:31  5-MIN KMSN 031750Z VRB05KT 10SM CLR 25/17 A3002 780 59 2100 VRB/05 RMK AO2 SLP160 T02500167 10250 20183 50008
14837KMSN MSN20010703115509307/03/01 11:55:31  5-MIN KMSN 031755Z 22007KT 10SM CLR 25/17 A3002 780 59 2100 220/07 RMK AO2
14837KMSN MSN20010703120009307/03/01 12:00:31  5-MIN KMSN 031800Z 24005KT 10SM CLR 25/16 A3002 780 57 2100 240/05 RMK AO2
14837KMSN MSN20010703120510907/03/01 12:05:31  5-MIN KMSN 031805Z 21007KT 160V260 10SM CLR 25/16 A3002 780 55 2100 210/07 160V260 RMK AO2
14837KMSN MSN20010703121009307/03/01 12:10:31  5-MIN KMSN 031810Z 20007KT 10SM CLR 26/16 A3001 780 53 2200 200/07 RMK AO2
14837KMSN MSN20010703121509607/03/01 12:15:31  5-MIN KMSN 031815Z 26006KT 10SM FEW040 26/16 A3001 780 53 2300 260/06 RMK AO2
14837KMSN MSN20010703122011207/03/01 12:20:31  5-MIN KMSN 031820Z 23008KT 180V270 10SM FEW040 26/17 A3001 780 57 2200 230/08 180V270 RMK AO2
14837KMSN MSN20010703122509607/03/01 12:25:31  5-MIN KMSN 031825Z VRB06KT 10SM FEW040 26/17 A3001 780 55 2300 VRB/06 RMK AO2
14837KMSN MSN20010703123009607/03/01 12:30:31  5-MIN KMSN 031830Z VRB06KT 10SM FEW040 26/17 A3001 780 57 2200 VRB/06 RMK AO2
14837KMSN MSN20010703123509607/03/01 12:35:31  5-MIN KMSN 031835Z VRB05KT 10SM FEW040 26/17 A3001 780 55 2300 VRB/05 RMK AO2
14837KMSN MSN20010703124009607/03/01 12:40:31  5-MIN KMSN 031840Z 20007KT 10SM FEW040 26/17 A3001 780 55 2300 200/07 RMK AO2
14837KMSN MSN20010703124509607/03/01 12:45:31  5-MIN KMSN 031845Z 22007KT 10SM FEW040 26/17 A3001 780 55 2300 220/07 RMK AO2
14837KMSN MSN20010703125011307/03/01 12:50:31  5-MIN KMSN 031850Z 24008KT 10SM FEW040 26/17 A3001 780 55 2300 240/08 RMK AO2 SLP157 T02610167
14837KMSN MSN20010703125509307/03/01 12:55:31  5-MIN KMSN 031855Z 22007KT 10SM CLR 26/17 A3001 780 57 2300 210/07 RMK AO2
14837KMSN MSN20010703130010907/03/01 13:00:31  5-MIN KMSN 031900Z 24008KT 210V270 10SM CLR 26/17 A3001 780 57 2300 240/08 210V270 RMK AO2
14837KMSN MSN20010703130509607/03/01 13:05:31  5-MIN KMSN 031905Z 26007KT 10SM FEW045 26/17 A3001 780 57 2300 250/07 RMK AO2
14837KMSN MSN20010703131009607/03/01 13:10:31  5-MIN KMSN 031910Z VRB06KT 10SM FEW045 26/17 A3001 780 57 2200 VRB/06 RMK AO2
14837KMSN MSN20010703131509607/03/01 13:15:31  5-MIN KMSN 031915Z 22006KT 10SM FEW045 27/17 A3001 790 55 2300 220/06 RMK AO2
14837KMSN MSN20010703132009607/03/01 13:20:31  5-MIN KMSN 031920Z 21008KT 10SM FEW045 27/17 A3000 790 53 2300 210/08 RMK AO2
14837KMSN MSN20010703132511207/03/01 13:25:31  5-MIN KMSN 031925Z 23007KT 200V260 10SM FEW045 27/17 A3000 790 55 2300 230/07 200V260 RMK AO2
14837KMSN MSN20010703133011207/03/01 13:30:31  5-MIN KMSN 031930Z 24008KT 210V280 10SM FEW045 27/17 A3001 780 55 2300 240/08 210V280 RMK AO2
14837KMSN MSN20010703133509607/03/01 13:35:31  5-MIN KMSN 031935Z 23008KT 10SM FEW045 27/17 A3000 790 53 2400 230/08 RMK AO2
14837KMSN MSN20010703134011207/03/01 13:40:31  5-MIN KMSN 031940Z 23007KT 200V320 10SM FEW045 27/17 A3000 790 53 2400 230/07 200V320 RMK AO2
14837KMSN MSN20010703134509607/03/01 13:45:31  5-MIN KMSN 031945Z 25007KT 10SM FEW045 27/17 A3000 790 52 2400 250/07 RMK AO2
14837KMSN MSN20010703135011307/03/01 13:50:31  5-MIN KMSN 031950Z 22009KT 10SM FEW045 27/17 A3000 790 53 2400 220/09 RMK AO2 SLP154 T02670167
14837KMSN MSN20010703135509307/03/01 13:55:31  5-MIN KMSN 031955Z 22009KT 10SM CLR 27/17 A3000 790 53 2400 220/09 RMK AO2
14837KMSN MSN20010703140009607/03/01 14:00:31  5-MIN KMSN 032000Z 22010KT 10SM FEW045 27/17 A3000 790 55 2400 220/10 RMK AO2
14837KMSN MSN20010703140510207/03/01 14:05:31  5-MIN KMSN 032005Z 23010G15KT 10SM FEW045 27/17 A3000 800 55 2400 230/10G15 RMK AO2
14837KMSN MSN20010703141009607/03/01 14:10:31  5-MIN KMSN 032010Z 21010KT 10SM FEW045 27/17 A3000 800 55 2400 210/10 RMK AO2
14837KMSN MSN20010703141509607/03/01 14:15:31  5-MIN KMSN 032015Z 22009KT 10SM FEW045 27/17 A3000 790 55 2400 220/09 RMK AO2
14837KMSN MSN20010703142011207/03/01 14:20:31  5-MIN KMSN 032020Z 23010KT 200V260 10SM FEW045 27/17 A2999 800 53 2400 230/10 200V260 RMK AO2
14837KMSN MSN20010703142511207/03/01 14:25:31  5-MIN KMSN 032025Z 24007KT 190V270 10SM FEW045 27/17 A2999 800 55 2400 230/07 190V270 RMK AO2
14837KMSN MSN20010703143011207/03/01 14:30:31  5-MIN KMSN 032030Z 24008KT 200V270 10SM FEW045 27/18 A2999 800 56 2400 240/08 200V270 RMK AO2
14837KMSN MSN20010703143511207/03/01 14:35:31  5-MIN KMSN 032035Z 24009KT 210V270 10SM FEW045 27/18 A2999 800 56 2400 240/09 210V270 RMK AO2
14837KMSN MSN20010703144010207/03/01 14:40:31  5-MIN KMSN 032040Z 23009G14KT 10SM FEW045 27/17 A2999 800 55 2400 230/09G14 RMK AO2
14837KMSN MSN20010703144511807/03/01 14:45:31  5-MIN KMSN 032045Z 25009G14KT 220V280 10SM FEW045 27/17 A2999 800 55 2400 240/09G14 220V280 RMK AO2
14837KMSN MSN20010703145014107/03/01 14:50:31  5-MIN KMSN 032050Z 22007G14KT 180V260 10SM FEW045 27/17 A2999 800 54 2400 220/07G14 180V260 RMK AO2 SLP150 T02720172 55004
14837KMSN MSN20010703145509607/03/01 14:55:31  5-MIN KMSN 032055Z VRB06KT 10SM FEW045 27/17 A2999 800 55 2400 VRB/06 RMK AO2
14837KMSN MSN20010703150009607/03/01 15:00:31  5-MIN KMSN 032100Z 22007KT 10SM FEW045 26/18 A2999 800 59 2300 220/07 RMK AO2
14837KMSN MSN20010703150509607/03/01 15:05:31  5-MIN KMSN 032105Z 23009KT 10SM SCT045 27/18 A2999 800 57 2400 230/09 RMK AO2
14837KMSN MSN20010703151011207/03/01 15:10:31  5-MIN KMSN 032110Z 23008KT 190V260 10SM SCT045 27/18 A2999 800 57 2400 230/08 190V260 RMK AO2
14837KMSN MSN20010703151509607/03/01 15:15:31  5-MIN KMSN 032115Z 24008KT 10SM SCT045 27/18 A2999 800 58 2400 240/08 RMK AO2
14837KMSN MSN20010703152011207/03/01 15:20:31  5-MIN KMSN 032120Z 23007KT 210V280 10SM SCT045 27/18 A2999 800 60 2400 230/07 210V280 RMK AO2
14837KMSN MSN20010703152509607/03/01 15:25:31  5-MIN KMSN 032125Z 23009KT 10SM SCT045 26/18 A2999 800 62 2300 230/09 RMK AO2
14837KMSN MSN20010703153010207/03/01 15:30:31  5-MIN KMSN 032130Z 23007G14KT 10SM SCT045 26/18 A3000 800 61 2200 230/07G14 RMK AO2
14837KMSN MSN20010703153511807/03/01 15:35:31  5-MIN KMSN 032135Z 22008G14KT 180V250 10SM SCT045 27/18 A2999 800 57 2400 220/08G14 180V250 RMK AO2
14837KMSN MSN20010703154009607/03/01 15:40:31  5-MIN KMSN 032140Z 22009KT 10SM SCT045 26/18 A2999 800 59 2300 220/09 RMK AO2
14837KMSN MSN20010703154509607/03/01 15:45:31  5-MIN KMSN 032145Z 23009KT 10SM SCT045 27/18 A2999 800 57 2400 230/09 RMK AO2
14837KMSN MSN20010703155011307/03/01 15:50:31  5-MIN KMSN 032150Z 23010KT 10SM FEW042 27/18 A2999 800 57 2400 230/10 RMK AO2 SLP150 T02670178
14837KMSN MSN20010703155509607/03/01 15:55:31  5-MIN KMSN 032155Z 22008KT 10SM FEW044 27/18 A2999 800 57 2400 220/08 RMK AO2
14837KMSN MSN20010703160011207/03/01 16:00:31  5-MIN KMSN 032200Z 23007KT 190V280 10SM FEW042 27/18 A2998 810 57 2400 230/07 190V280 RMK AO2
14837KMSN MSN20010703160509607/03/01 16:05:31  5-MIN KMSN 032205Z 22009KT 10SM FEW044 27/18 A2998 810 57 2400 220/09 RMK AO2
14837KMSN MSN20010703161011207/03/01 16:10:31  5-MIN KMSN 032210Z 22008KT 200V260 10SM FEW044 27/17 A2998 810 55 2400 220/08 200V260 RMK AO2
14837KMSN MSN20010703161509607/03/01 16:15:31  5-MIN KMSN 032215Z 22009KT 10SM FEW044 27/18 A2998 810 57 2400 220/09 RMK AO2
14837KMSN MSN20010703162009607/03/01 16:20:31  5-MIN KMSN 032220Z 22007KT 10SM FEW044 27/18 A2998 810 60 2400 220/07 RMK AO2
14837KMSN MSN20010703162509607/03/01 16:25:31  5-MIN KMSN 032225Z 23010KT 10SM FEW044 27/18 A2997 810 57 2400 230/10 RMK AO2
14837KMSN MSN20010703163009607/03/01 16:30:31  5-MIN KMSN 032230Z 22008KT 10SM FEW044 27/18 A2997 820 57 2400 220/08 RMK AO2
14837KMSN MSN20010703163509607/03/01 16:35:31  5-MIN KMSN 032235Z 22009KT 10SM FEW044 26/18 A2997 820 59 2300 220/09 RMK AO2
14837KMSN MSN20010703164009607/03/01 16:40:31  5-MIN KMSN 032240Z 22007KT 10SM FEW044 27/18 A2997 820 60 2400 220/07 RMK AO2
14837KMSN MSN20010703164510207/03/01 16:45:31  5-MIN KMSN 032245Z 22008G14KT 10SM FEW044 27/18 A2997 820 57 2400 220/08G14 RMK AO2
14837KMSN MSN20010703165011907/03/01 16:50:31  5-MIN KMSN 032250Z 22007G14KT 10SM FEW044 27/18 A2996 820 57 2400 210/07G14 RMK AO2 SLP141 T02670178
14837KMSN MSN20010703165509607/03/01 16:55:31  5-MIN KMSN 032255Z 21009KT 10SM FEW040 27/18 A2996 830 57 2400 210/09 RMK AO2
14837KMSN MSN20010703170011207/03/01 17:00:31  5-MIN KMSN 032300Z 23007KT 180V290 10SM FEW040 27/17 A2996 830 55 2400 230/07 180V290 RMK AO2
14837KMSN MSN20010703170509607/03/01 17:05:31  5-MIN KMSN 032305Z 22009KT 10SM FEW040 27/18 A2996 830 57 2400 220/09 RMK AO2
14837KMSN MSN20010703171009607/03/01 17:10:31  5-MIN KMSN 032310Z 22008KT 10SM FEW040 27/18 A2996 830 57 2400 220/08 RMK AO2
14837KMSN MSN20010703171509607/03/01 17:15:31  5-MIN KMSN 032315Z 23006KT 10SM FEW040 27/17 A2996 830 55 2400 230/06 RMK AO2
14837KMSN MSN20010703172009607/03/01 17:20:31  5-MIN KMSN 032320Z 23008KT 10SM FEW040 27/17 A2996 830 55 2400 230/08 RMK AO2
14837KMSN MSN20010703172509607/03/01 17:25:31  5-MIN KMSN 032325Z 25008KT 10SM FEW040 27/17 A2996 830 55 2400 250/08 RMK AO2
14837KMSN MSN20010703173009607/03/01 17:30:31  5-MIN KMSN 032330Z 22007KT 10SM FEW040 27/17 A2996 830 55 2400 220/07 RMK AO2
14837KMSN MSN20010703173509607/03/01 17:35:31  5-MIN KMSN 032335Z VRB06KT 10SM FEW040 27/17 A2996 830 55 2400 VRB/06 RMK AO2
14837KMSN MSN20010703174009607/03/01 17:40:31  5-MIN KMSN 032340Z VRB06KT 10SM FEW040 27/17 A2995 840 55 2400 VRB/06 RMK AO2
14837KMSN MSN20010703174509607/03/01 17:45:31  5-MIN KMSN 032345Z 24007KT 10SM FEW040 27/17 A2995 840 55 2400 230/07 RMK AO2
14837KMSN MSN20010703175013107/03/01 17:50:31  5-MIN KMSN 032350Z 21006KT 10SM FEW050 27/18 A2995 840 57 2400 210/06 RMK AO2 SLP137 T02670178 10272 20250 56009
14837KMSN MSN20010703175511207/03/01 17:55:31  5-MIN KMSN 032355Z 23007KT 190V260 10SM FEW050 27/18 A2995 840 57 2400 230/07 190V260 RMK AO2
14837KMSN MSN20010703180009607/03/01 18:00:31  5-MIN KMSN 040000Z 24007KT 10SM FEW050 27/18 A2995 840 57 2400 230/07 RMK AO2
14837KMSN MSN20010703180509607/03/01 18:05:31  5-MIN KMSN 040005Z 23006KT 10SM FEW050 26/18 A2995 830 59 2300 230/06 RMK AO2
14837KMSN MSN20010703181009607/03/01 18:10:31  5-MIN KMSN 040010Z 23007KT 10SM FEW050 27/18 A2995 830 60 2400 230/07 RMK AO2
14837KMSN MSN20010703181509607/03/01 18:15:31  5-MIN KMSN 040015Z VRB06KT 10SM FEW050 26/18 A2996 830 62 2300 VRB/06 RMK AO2
14837KMSN MSN20010703182009607/03/01 18:20:31  5-MIN KMSN 040020Z 22008KT 10SM FEW050 26/18 A2996 830 62 2300 220/08 RMK AO2
14837KMSN MSN20010703182509607/03/01 18:25:31  5-MIN KMSN 040025Z 22008KT 10SM FEW050 26/18 A2996 830 62 2300 220/08 RMK AO2
14837KMSN MSN20010703183009607/03/01 18:30:31  5-MIN KMSN 040030Z 23008KT 10SM FEW050 26/18 A2996 830 62 2300 220/08 RMK AO2
14837KMSN MSN20010703183509607/03/01 18:35:31  5-MIN KMSN 040035Z 23009KT 10SM FEW050 26/18 A2996 830 62 2300 220/09 RMK AO2
14837KMSN MSN20010703184009307/03/01 18:40:31  5-MIN KMSN 040040Z 23008KT 10SM CLR 26/19 A2996 830 66 2300 220/08 RMK AO2
14837KMSN MSN20010703184509607/03/01 18:45:31  5-MIN KMSN 040045Z 22007KT 10SM FEW030 26/19 A2996 830 66 2300 220/07 RMK AO2
14837KMSN MSN20010703185011307/03/01 18:50:31  5-MIN KMSN 040050Z 23006KT 10SM FEW030 26/19 A2995 830 68 2300 230/06 RMK AO2 SLP139 T02560194
14837KMSN MSN20010703185509307/03/01 18:55:31  5-MIN KMSN 040055Z 23006KT 10SM CLR 26/19 A2996 830 68 2300 230/06 RMK AO2
14837KMSN MSN20010703190009607/03/01 19:00:31  5-MIN KMSN 040100Z 23006KT 10SM FEW030 26/19 A2996 830 68 2300 220/06 RMK AO2
14837KMSN MSN20010703190509607/03/01 19:05:31  5-MIN KMSN 040105Z 22007KT 10SM FEW030 26/19 A2995 830 68 2300 220/07 RMK AO2
14837KMSN MSN20010703191009607/03/01 19:10:31  5-MIN KMSN 040110Z 22006KT 10SM FEW030 25/19 A2995 830 71 2200 220/06 RMK AO2
14837KMSN MSN20010703191509607/03/01 19:15:31  5-MIN KMSN 040115Z 22006KT 10SM FEW030 25/19 A2995 840 71 2200 220/06 RMK AO2
14837KMSN MSN20010703192009607/03/01 19:20:31  5-MIN KMSN 040120Z 22005KT 10SM FEW030 25/19 A2995 840 71 2200 220/05 RMK AO2
14837KMSN MSN20010703192509607/03/01 19:25:31  5-MIN KMSN 040125Z 22007KT 10SM FEW030 25/19 A2995 840 71 2200 210/07 RMK AO2
14837KMSN MSN20010703193009607/03/01 19:30:31  5-MIN KMSN 040130Z 22008KT 10SM FEW030 25/19 A2995 840 71 2200 220/08 RMK AO2
14837KMSN MSN20010703193509607/03/01 19:35:31  5-MIN KMSN 040135Z VRB04KT 10SM FEW030 25/19 A2995 840 71 2200 VRB/04 RMK AO2
14837KMSN MSN20010703194009607/03/01 19:40:31  5-MIN KMSN 040140Z 22007KT 10SM FEW030 25/19 A2995 840 71 2200 220/07 RMK AO2
14837KMSN MSN20010703194509607/03/01 19:45:31  5-MIN KMSN 040145Z 21007KT 10SM SCT070 25/19 A2995 840 71 2200 210/07 RMK AO2
14837KMSN MSN20010703195011307/03/01 19:50:31  5-MIN KMSN 040150Z 21004KT 10SM SCT070 25/19 A2995 830 71 2200 210/04 RMK AO2 SLP139 T02500194
14837KMSN MSN20010703195509907/03/01 19:55:31  5-MIN KMSN 040155Z 20005KT 10SM TS SCT070 24/19 A2995 840 73 2200 200/05 RMK AO2
14837KMSN MSN20010703200009907/03/01 20:00:31  5-MIN KMSN 040200Z 21006KT 10SM TS SCT070 24/20 A2995 840 76 2200 210/06 RMK AO2
14837KMSN MSN20010703200509907/03/01 20:05:31  5-MIN KMSN 040205Z 20006KT 10SM TS SCT070 24/20 A2995 830 76 2200 200/06 RMK AO2
14837KMSN MSN20010703201012907/03/01 20:10:31  5-MIN KMSN 040210Z 21006KT 10SM TS SCT070 24/20 A2995 840 76 2200 210/06 RMK AO2 OCNL LTGCAIC OHD TS OHD MOV S
14837KMSN MSN20010703201512907/03/01 20:15:31  5-MIN KMSN 040215Z 20005KT 10SM TS SCT070 24/19 A2995 840 73 2200 200/05 RMK AO2 OCNL LTGCAIC OHD TS OHD MOV S
14837KMSN MSN20010703202012907/03/01 20:20:31  5-MIN KMSN 040220Z 21006KT 10SM TS SCT070 24/20 A2995 840 76 2200 210/06 RMK AO2 OCNL LTGCAIC OHD TS OHD MOV S
14837KMSN MSN20010703202512907/03/01 20:25:31  5-MIN KMSN 040225Z 21005KT 10SM TS SCT070 24/20 A2996 830 76 2200 210/05 RMK AO2 OCNL LTGCAIC OHD TS OHD MOV S
14837KMSN MSN20010703203012707/03/01 20:30:31  5-MIN KMSN 040230Z VRB06KT 10SM SCT050 24/20 A2996 830 78 2100 VRB/06 RMK AO2 TSE30 LTG DSNT NE CB OHD MOV S
14837KMSN MSN20010703203512707/03/01 20:35:31  5-MIN KMSN 040235Z VRB06KT 10SM SCT050 24/20 A2996 830 78 2100 VRB/06 RMK AO2 TSE30 LTG DSNT NE CB OHD MOV S
14837KMSN MSN20010703204012707/03/01 20:40:31  5-MIN KMSN 040240Z 22006KT 10SM SCT050 24/20 A2996 830 78 2100 220/06 RMK AO2 TSE30 LTG DSNT NE CB OHD MOV S
14837KMSN MSN20010703204511307/03/01 20:45:31  5-MIN KMSN 040245Z 22007KT 10SM FEW050 24/20 A2996 830 78 2100 220/07 RMK AO2 TSE30 LTG DSNT E
14837KMSN MSN20010703205013607/03/01 20:50:31  5-MIN KMSN 040250Z 22007KT 10SM FEW050 24/20 A2996 830 78 2100 220/07 RMK AO2 TSE30 SLP141 LTG DSNT E T02390200 58014
14837KMSN MSN20010703205509507/03/01 20:55:31  5-MIN KMSN 040255Z 22008KT 10SM CLR 23/19 A2996 830 78 2000 220/08 RMK AO2 $
14837KMSN MSN20010703210009507/03/01 21:00:31  5-MIN KMSN 040300Z 23009KT 10SM CLR 23/19 A2996 830 76 2000 220/09 RMK AO2 $
14837KMSN MSN20010703210511607/03/01 21:05:31  5-MIN KMSN 040305Z 22007KT 10SM FEW050 23/19 A2996 830 76 2000 220/07 RMK AO2 CONS LTG DSNT N-E $
14837KMSN MSN20010703211011607/03/01 21:10:31  5-MIN KMSN 040310Z 22006KT 10SM FEW050 23/18 A2996 830 73 2000 220/06 RMK AO2 CONS LTG DSNT N-E $
14837KMSN MSN20010703211511607/03/01 21:15:31  5-MIN KMSN 040315Z 22007KT 10SM FEW050 23/18 A2996 830 76 2000 220/07 RMK AO2 CONS LTG DSNT N-E $
14837KMSN MSN20010703212011607/03/01 21:20:31  5-MIN KMSN 040320Z 22007KT 10SM FEW050 23/18 A2995 830 76 2000 220/07 RMK AO2 CONS LTG DSNT N-E $
14837KMSN MSN20010703215014707/03/01 21:50:31  5-MIN KMSN 040350Z 27004KT 10SM FEW050 22/18 A2995 830 75 1900 270/04 RMK AO2 SLP139 CONS LTG DSNT NE-E CB DSNT NE-E T02220178 $
14837KMSN MSN20010703215509507/03/01 21:55:31  5-MIN KMSN 040355Z 26004KT 10SM CLR 22/17 A2996 830 73 1900 260/04 RMK AO2 $
14837KMSN MSN20010703220010907/03/01 22:00:31  5-MIN KMSN 040400Z VRB03KT 10SM FEW050 22/17 A2996 830 73 1900 VRB/03 RMK AO2 LTG DSNT E $
14837KMSN MSN20010703220509807/03/01 22:05:31  5-MIN KMSN 040405Z 00000KT 10SM FEW050 22/17 A2995 830 73 1900 000/00 RMK AO2 $
14837KMSN MSN20010703221009807/03/01 22:10:31  5-MIN KMSN 040410Z VRB03KT 10SM FEW050 22/17 A2995 830 73 1900 VRB/03 RMK AO2 $
14837KMSN MSN20010703221509807/03/01 22:15:31  5-MIN KMSN 040415Z 00000KT 10SM FEW050 22/17 A2995 840 75 1800 000/00 RMK AO2 $
14837KMSN MSN20010703222009807/03/01 22:20:31  5-MIN KMSN 040420Z VRB03KT 10SM FEW055 22/17 A2995 830 75 1800 VRB/03 RMK AO2 $
14837KMSN MSN20010703222509807/03/01 22:25:31  5-MIN KMSN 040425Z 00000KT 10SM SCT055 22/17 A2995 830 75 1800 000/00 RMK AO2 $
14837KMSN MSN20010703223009807/03/01 22:30:31  5-MIN KMSN 040430Z 30003KT 10SM SCT055 22/17 A2995 830 75 1800 300/03 RMK AO2 $
14837KMSN MSN20010703223509807/03/01 22:35:31  5-MIN KMSN 040435Z 00000KT 10SM SCT055 21/17 A2995 830 78 1800 000/00 RMK AO2 $
14837KMSN MSN20010703224009807/03/01 22:40:31  5-MIN KMSN 040440Z 32003KT 10SM SCT055 21/17 A2996 830 78 1800 320/03 RMK AO2 $
14837KMSN MSN20010703224509807/03/01 22:45:31  5-MIN KMSN 040445Z 32003KT 10SM SCT055 20/17 A2996 830 84 1600 320/03 RMK AO2 $
14837KMSN MSN20010703225011507/03/01 22:50:31  5-MIN KMSN 040450Z 33005KT 10SM SCT055 20/17 A2996 830 84 1600 330/05 RMK AO2 SLP140 T02000172 $
14837KMSN MSN20010703225510507/03/01 22:55:31  5-MIN KMSN 040455Z 35005KT 10SM FEW050 BKN060 21/17 A2995 830 81 1700 350/05 RMK AO2 $
14837KMSN MSN20010703230010507/03/01 23:00:31  5-MIN KMSN 040500Z 35004KT 10SM FEW050 BKN060 21/17 A2995 830 81 1700 350/04 RMK AO2 $
14837KMSN MSN20010703230510507/03/01 23:05:31  5-MIN KMSN 040505Z VRB03KT 10SM FEW048 BKN060 21/17 A2996 830 81 1700 VRB/03 RMK AO2 $
14837KMSN MSN20010703231009807/03/01 23:10:31  5-MIN KMSN 040510Z 00000KT 10SM SCT055 20/17 A2996 830 84 1600 000/00 RMK AO2 $
14837KMSN MSN20010703231510507/03/01 23:15:31  5-MIN KMSN 040515Z 00000KT 10SM FEW048 SCT060 21/17 A2996 830 81 1700 000/00 RMK AO2 $
14837KMSN MSN20010703232009807/03/01 23:20:31  5-MIN KMSN 040520Z 00000KT 10SM FEW048 21/17 A2996 830 81 1700 000/00 RMK AO2 $
14837KMSN MSN20010703232509807/03/01 23:25:31  5-MIN KMSN 040525Z 00000KT 10SM FEW065 19/17 A2996 830 87 1600 000/00 RMK AO2 $
14837KMSN MSN20010703233009507/03/01 23:30:31  5-MIN KMSN 040530Z 00000KT 10SM CLR 19/17 A2997 820 87 1600 000/00 RMK AO2 $
14837KMSN MSN20010703233509807/03/01 23:35:31  5-MIN KMSN 040535Z 00000KT 10SM FEW038 19/17 A2997 820 87 1600 000/00 RMK AO2 $
14837KMSN MSN20010703234009807/03/01 23:40:31  5-MIN KMSN 040540Z 00000KT 10SM SCT040 19/17 A2997 820 90 1500 000/00 RMK AO2 $
14837KMSN MSN20010703234509807/03/01 23:45:31  5-MIN KMSN 040545Z 00000KT 10SM SCT040 19/17 A2997 820 90 1500 000/00 RMK AO2 $
14837KMSN MSN20010703235014307/03/01 23:50:31  5-MIN KMSN 040550Z 00000KT 10SM SCT040 19/17 A2997 820 90 1500 000/00 RMK AO2 SLP144 T01890172 10267 20189 402720178 53003 $
14837KMSN MSN20010703235509807/03/01 23:55:31  5-MIN KMSN 040555Z 00000KT 10SM SCT040 19/17 A2997 820 90 1500 000/00 RMK AO2 $
14837KMSN MSN20010704000009807/04/01 00:00:31  5-MIN KMSN 040600Z 00000KT 10SM SCT040 19/17 A2997 820 87 1600 000/00 RMK AO2 $
14837KMSN MSN20010704000509807/04/01 00:05:31  5-MIN KMSN 040605Z 30003KT 10SM FEW040 19/17 A2997 820 87 1600 300/03 RMK AO2 $
14837KMSN MSN20010704001009807/04/01 00:10:31  5-MIN KMSN 040610Z 00000KT 10SM FEW037 19/17 A2996 820 87 1600 000/00 RMK AO2 $
14837KMSN MSN20010704001509807/04/01 00:15:31  5-MIN KMSN 040615Z 00000KT 10SM FEW037 19/17 A2997 820 87 1600 000/00 RMK AO2 $
14837KMSN MSN20010704002009507/04/01 00:20:31  5-MIN KMSN 040620Z 00000KT 10SM CLR 19/17 A2996 820 90 1500 000/00 RMK AO2 $
14837KMSN MSN20010704002509507/04/01 00:25:31  5-MIN KMSN 040625Z 00000KT 10SM CLR 19/17 A2996 830 87 1600 000/00 RMK AO2 $
14837KMSN MSN20010704003009507/04/01 00:30:31  5-MIN KMSN 040630Z 00000KT 10SM CLR 19/17 A2996 820 90 1500 000/00 RMK AO2 $
14837KMSN MSN20010704003509507/04/01 00:35:31  5-MIN KMSN 040635Z 00000KT 10SM CLR 19/17 A2996 830 90 1500 000/00 RMK AO2 $
14837KMSN MSN20010704004009507/04/01 00:40:31  5-MIN KMSN 040640Z 20003KT 10SM CLR 19/17 A2996 830 87 1600 200/03 RMK AO2 $
14837KMSN MSN20010704004509507/04/01 00:45:31  5-MIN KMSN 040645Z 21004KT 10SM CLR 20/17 A2996 830 84 1600 210/04 RMK AO2 $
14837KMSN MSN20010704005011207/04/01 00:50:31  5-MIN KMSN 040650Z 00000KT 10SM CLR 20/17 A2996 830 84 1600 000/00 RMK AO2 SLP140 T02000172 $
14837KMSN MSN20010704005509507/04/01 00:55:31  5-MIN KMSN 040655Z 00000KT 10SM CLR 20/17 A2996 830 84 1600 000/00 RMK AO2 $
14837KMSN MSN20010704010009507/04/01 01:00:31  5-MIN KMSN 040700Z 00000KT 10SM CLR 19/17 A2996 830 87 1600 000/00 RMK AO2 $
14837KMSN MSN20010704010509507/04/01 01:05:31  5-MIN KMSN 040705Z VRB03KT 10SM CLR 20/17 A2996 830 84 1600 VRB/03 RMK AO2 $
14837KMSN MSN20010704011009507/04/01 01:10:31  5-MIN KMSN 040710Z 00000KT 10SM CLR 21/17 A2996 830 78 1800 000/00 RMK AO2 $
14837KMSN MSN20010704011509507/04/01 01:15:31  5-MIN KMSN 040715Z 22004KT 10SM CLR 20/18 A2995 830 87 1700 220/04 RMK AO2 $
14837KMSN MSN20010704012009507/04/01 01:20:31  5-MIN KMSN 040720Z 22004KT 10SM CLR 20/18 A2995 840 87 1700 220/04 RMK AO2 $
14837KMSN MSN20010704012509507/04/01 01:25:31  5-MIN KMSN 040725Z 00000KT 10SM CLR 19/18 A2995 840 90 1600 000/00 RMK AO2 $
14837KMSN MSN20010704013009507/04/01 01:30:31  5-MIN KMSN 040730Z VRB03KT 10SM CLR 20/18 A2995 840 87 1700 VRB/03 RMK AO2 $
14837KMSN MSN20010704013509507/04/01 01:35:31  5-MIN KMSN 040735Z 00000KT 10SM CLR 20/18 A2995 840 87 1700 000/00 RMK AO2 $
14837KMSN MSN20010704014009507/04/01 01:40:31  5-MIN KMSN 040740Z 00000KT 10SM CLR 20/18 A2995 840 87 1700 000/00 RMK AO2 $
14837KMSN MSN20010704014509507/04/01 01:45:31  5-MIN KMSN 040745Z 00000KT 10SM CLR 19/18 A2994 840 90 1600 000/00 RMK AO2 $
14837KMSN MSN20010704015011207/04/01 01:50:31  5-MIN KMSN 040750Z 00000KT 10SM CLR 19/18 A2994 840 90 1600 000/00 RMK AO2 SLP134 T01940178 $
14837KMSN MSN20010704015509507/04/01 01:55:31  5-MIN KMSN 040755Z 00000KT 10SM CLR 19/18 A2994 850 90 1600 000/00 RMK AO2 $
14837KMSN MSN20010704020009507/04/01 02:00:31  5-MIN KMSN 040800Z VRB03KT 10SM CLR 20/18 A2994 850 87 1700 VRB/03 RMK AO2 $
14837KMSN MSN20010704020509507/04/01 02:05:31  5-MIN KMSN 040805Z 24003KT 10SM CLR 20/18 A2994 850 87 1700 240/03 RMK AO2 $
14837KMSN MSN20010704021009507/04/01 02:10:31  5-MIN KMSN 040810Z VRB03KT 10SM CLR 20/18 A2994 850 87 1700 VRB/03 RMK AO2 $
14837KMSN MSN20010704021509507/04/01 02:15:31  5-MIN KMSN 040815Z 26004KT 10SM CLR 20/18 A2993 850 87 1700 260/04 RMK AO2 $
14837KMSN MSN20010704022009507/04/01 02:20:31  5-MIN KMSN 040820Z 25005KT 10SM CLR 20/18 A2993 850 87 1700 250/05 RMK AO2 $
14837KMSN MSN20010704022509507/04/01 02:25:31  5-MIN KMSN 040825Z VRB03KT 10SM CLR 20/18 A2993 850 87 1700 VRB/03 RMK AO2 $
14837KMSN MSN20010704023009507/04/01 02:30:31  5-MIN KMSN 040830Z VRB03KT 10SM CLR 20/18 A2993 860 87 1700 VRB/03 RMK AO2 $
14837KMSN MSN20010704023509507/04/01 02:35:31  5-MIN KMSN 040835Z VRB04KT 10SM CLR 20/18 A2993 860 87 1700 VRB/04 RMK AO2 $
14837KMSN MSN20010704024009507/04/01 02:40:31  5-MIN KMSN 040840Z VRB03KT 10SM CLR 20/18 A2993 860 87 1700 VRB/03 RMK AO2 $
14837KMSN MSN20010704024509507/04/01 02:45:31  5-MIN KMSN 040845Z VRB04KT 10SM CLR 20/18 A2993 860 87 1700 VRB/04 RMK AO2 $
14837KMSN MSN20010704025011807/04/01 02:50:31  5-MIN KMSN 040850Z VRB04KT 10SM CLR 20/18 A2992 860 87 1700 VRB/04 RMK AO2 SLP127 T02000178 53002 $
14837KMSN MSN20010704025509507/04/01 02:55:31  5-MIN KMSN 040855Z VRB04KT 10SM CLR 20/18 A2992 860 87 1700 VRB/04 RMK AO2 $
14837KMSN MSN20010704030009507/04/01 03:00:31  5-MIN KMSN 040900Z VRB03KT 10SM CLR 20/18 A2992 870 87 1700 VRB/03 RMK AO2 $
14837KMSN MSN20010704030509507/04/01 03:05:31  5-MIN KMSN 040905Z VRB03KT 10SM CLR 19/18 A2992 870 90 1600 VRB/03 RMK AO2 $
14837KMSN MSN20010704031009507/04/01 03:10:31  5-MIN KMSN 040910Z VRB03KT 10SM CLR 19/18 A2992 870 90 1600 VRB/03 RMK AO2 $
14837KMSN MSN20010704031509507/04/01 03:15:31  5-MIN KMSN 040915Z VRB03KT 10SM CLR 19/18 A2992 870 90 1600 VRB/03 RMK AO2 $
14837KMSN MSN20010704032009507/04/01 03:20:31  5-MIN KMSN 040920Z 00000KT 10SM CLR 19/18 A2992 870 90 1600 000/00 RMK AO2 $
14837KMSN MSN20010704032509507/04/01 03:25:31  5-MIN KMSN 040925Z 00000KT 10SM CLR 19/18 A2992 870 90 1600 000/00 RMK AO2 $
14837KMSN MSN20010704033009507/04/01 03:30:31  5-MIN KMSN 040930Z VRB03KT 10SM CLR 19/18 A2992 860 90 1600 VRB/03 RMK AO2 $
14837KMSN MSN20010704033509507/04/01 03:35:31  5-MIN KMSN 040935Z 27004KT 10SM CLR 19/17 A2992 860 90 1600 270/04 RMK AO2 $
14837KMSN MSN20010704034009507/04/01 03:40:31  5-MIN KMSN 040940Z VRB03KT 10SM CLR 19/17 A2993 860 87 1600 VRB/03 RMK AO2 $
14837KMSN MSN20010704034509507/04/01 03:45:31  5-MIN KMSN 040945Z 29005KT 10SM CLR 19/17 A2993 860 90 1600 290/05 RMK AO2 $
14837KMSN MSN20010704035011207/04/01 03:50:31  5-MIN KMSN 040950Z 30003KT 10SM CLR 19/17 A2993 860 90 1600 300/03 RMK AO2 SLP129 T01890172 $
14837KMSN MSN20010704035509507/04/01 03:55:31  5-MIN KMSN 040955Z 29005KT 10SM CLR 19/17 A2993 860 90 1600 290/05 RMK AO2 $
14837KMSN MSN20010704040009507/04/01 04:00:31  5-MIN KMSN 041000Z VRB04KT 10SM CLR 19/17 A2993 860 90 1500 VRB/04 RMK AO2 $
14837KMSN MSN20010704040509507/04/01 04:05:31  5-MIN KMSN 041005Z 29005KT 10SM CLR 19/17 A2993 860 90 1500 290/05 RMK AO2 $
14837KMSN MSN20010704041009507/04/01 04:10:31  5-MIN KMSN 041010Z 29005KT 10SM CLR 19/17 A2993 860 90 1500 290/05 RMK AO2 $
14837KMSN MSN20010704041509507/04/01 04:15:31  5-MIN KMSN 041015Z VRB04KT 10SM CLR 19/17 A2993 860 90 1500 VRB/04 RMK AO2 $
14837KMSN MSN20010704042009507/04/01 04:20:31  5-MIN KMSN 041020Z 30005KT 10SM CLR 19/17 A2993 860 90 1500 300/05 RMK AO2 $
14837KMSN MSN20010704042509507/04/01 04:25:31  5-MIN KMSN 041025Z VRB04KT 10SM CLR 19/17 A2993 860 90 1500 VRB/04 RMK AO2 $
14837KMSN MSN20010704043009507/04/01 04:30:31  5-MIN KMSN 041030Z 29005KT 10SM CLR 19/17 A2993 860 90 1500 290/05 RMK AO2 $
14837KMSN MSN20010704043509507/04/01 04:35:31  5-MIN KMSN 041035Z VRB04KT 10SM CLR 19/17 A2993 860 87 1500 VRB/04 RMK AO2 $
14837KMSN MSN20010704044009507/04/01 04:40:31  5-MIN KMSN 041040Z VRB05KT 10SM CLR 19/17 A2993 850 87 1500 VRB/05 RMK AO2 $
14837KMSN MSN20010704044509507/04/01 04:45:31  5-MIN KMSN 041045Z VRB05KT 10SM CLR 19/17 A2993 850 84 1600 VRB/05 RMK AO2 $
14837KMSN MSN20010704045011207/04/01 04:50:31  5-MIN KMSN 041050Z VRB06KT 10SM CLR 19/16 A2994 850 81 1600 VRB/06 RMK AO2 SLP132 T01940161 $
14837KMSN MSN20010704045509507/04/01 04:55:31  5-MIN KMSN 041055Z VRB05KT 10SM CLR 19/16 A2993 850 81 1600 VRB/05 RMK AO2 $
14837KMSN MSN20010704050009507/04/01 05:00:31  5-MIN KMSN 041100Z 28005KT 10SM CLR 20/16 A2994 850 78 1700 270/05 RMK AO2 $
14837KMSN MSN20010704050509507/04/01 05:05:31  5-MIN KMSN 041105Z 28005KT 10SM CLR 19/16 A2994 850 81 1600 280/05 RMK AO2 $
14837KMSN MSN20010704051009507/04/01 05:10:31  5-MIN KMSN 041110Z VRB06KT 10SM CLR 19/16 A2993 850 81 1600 VRB/06 RMK AO2 $
14837KMSN MSN20010704051509507/04/01 05:15:31  5-MIN KMSN 041115Z VRB06KT 10SM CLR 20/16 A2994 850 78 1700 VRB/06 RMK AO2 $
14837KMSN MSN20010704052009507/04/01 05:20:31  5-MIN KMSN 041120Z VRB05KT 10SM CLR 20/16 A2994 850 75 1700 VRB/05 RMK AO2 $
14837KMSN MSN20010704052509507/04/01 05:25:31  5-MIN KMSN 041125Z 27007KT 10SM CLR 20/16 A2994 850 75 1700 270/07 RMK AO2 $
14837KMSN MSN20010704053009507/04/01 05:30:31  5-MIN KMSN 041130Z 27006KT 10SM CLR 21/16 A2994 850 73 1700 270/06 RMK AO2 $
14837KMSN MSN20010704053509507/04/01 05:35:31  5-MIN KMSN 041135Z 27005KT 10SM CLR 21/16 A2994 850 73 1700 270/05 RMK AO2 $
14837KMSN MSN20010704054009507/04/01 05:40:31  5-MIN KMSN 041140Z 28005KT 10SM CLR 20/16 A2994 840 75 1700 280/05 RMK AO2 $
14837KMSN MSN20010704054509507/04/01 05:45:31  5-MIN KMSN 041145Z 28006KT 10SM CLR 21/16 A2994 840 73 1700 270/06 RMK AO2 $
14837KMSN MSN20010704055013007/04/01 05:50:31  5-MIN KMSN 041150Z VRB06KT 10SM CLR 21/16 A2994 840 73 1700 VRB/06 RMK AO2 SLP134 T02060156 10211 20189 58015 $
14837KMSN MSN20010704055509507/04/01 05:55:31  5-MIN KMSN 041155Z 28007KT 10SM CLR 21/16 A2994 840 73 1700 280/07 RMK AO2 $
14837KMSN MSN20010704060009507/04/01 06:00:31  5-MIN KMSN 041200Z 28007KT 10SM CLR 21/15 A2994 840 68 1800 280/07 RMK AO2 $
14837KMSN MSN20010704060509507/04/01 06:05:31  5-MIN KMSN 041205Z 28008KT 10SM CLR 21/15 A2995 840 68 1800 280/08 RMK AO2 $
14837KMSN MSN20010704061011107/04/01 06:10:31  5-MIN KMSN 041210Z 29007KT 260V330 10SM CLR 21/15 A2995 840 68 1800 280/07 260V330 RMK AO2 $
14837KMSN MSN20010704061509507/04/01 06:15:31  5-MIN KMSN 041215Z 29008KT 10SM CLR 21/15 A2995 840 68 1800 280/08 RMK AO2 $
14837KMSN MSN20010704062009507/04/01 06:20:31  5-MIN KMSN 041220Z 28007KT 10SM CLR 22/15 A2995 840 65 1800 280/07 RMK AO2 $
14837KMSN MSN20010704062509507/04/01 06:25:31  5-MIN KMSN 041225Z 27008KT 10SM CLR 22/15 A2995 840 65 1800 270/08 RMK AO2 $
14837KMSN MSN20010704063011107/04/01 06:30:31  5-MIN KMSN 041230Z 28007KT 250V310 10SM CLR 22/15 A2995 840 65 1800 280/07 250V310 RMK AO2 $
14837KMSN MSN20010704063509507/04/01 06:35:31  5-MIN KMSN 041235Z 29007KT 10SM CLR 22/15 A2995 840 65 1800 280/07 RMK AO2 $
14837KMSN MSN20010704064009507/04/01 06:40:31  5-MIN KMSN 041240Z VRB06KT 10SM CLR 22/15 A2995 840 65 1800 VRB/06 RMK AO2 $
14837KMSN MSN20010704064509507/04/01 06:45:31  5-MIN KMSN 041245Z 29007KT 10SM CLR 22/15 A2995 840 65 1800 290/07 RMK AO2 $
14837KMSN MSN20010704065011207/04/01 06:50:31  5-MIN KMSN 041250Z 29008KT 10SM CLR 22/15 A2995 830 63 1900 280/08 RMK AO2 SLP138 T02220150 $
14837KMSN MSN20010704065509507/04/01 06:55:31  5-MIN KMSN 041255Z 29006KT 10SM CLR 22/15 A2995 830 63 1900 290/06 RMK AO2 $
14837KMSN MSN20010704070009507/04/01 07:00:31  5-MIN KMSN 041300Z 29007KT 10SM CLR 22/15 A2996 830 63 1900 290/07 RMK AO2 $
14837KMSN MSN20010704070509507/04/01 07:05:31  5-MIN KMSN 041305Z 30008KT 10SM CLR 23/14 A2996 830 59 2000 290/08 RMK AO2 $
14837KMSN MSN20010704071011107/04/01 07:10:31  5-MIN KMSN 041310Z 29008KT 250V330 10SM CLR 23/14 A2996 830 59 2000 290/08 250V330 RMK AO2 $
14837KMSN MSN20010704071509507/04/01 07:15:31  5-MIN KMSN 041315Z 31007KT 10SM CLR 23/14 A2996 830 59 2000 310/07 RMK AO2 $
14837KMSN MSN20010704072009507/04/01 07:20:31  5-MIN KMSN 041320Z 31008KT 10SM CLR 23/14 A2996 830 59 2000 310/08 RMK AO2 $
14837KMSN MSN20010704072509507/04/01 07:25:31  5-MIN KMSN 041325Z VRB06KT 10SM CLR 23/14 A2996 820 59 2000 VRB/06 RMK AO2 $
14837KMSN MSN20010704073009507/04/01 07:30:31  5-MIN KMSN 041330Z 33009KT 10SM CLR 23/14 A2996 820 57 2000 330/09 RMK AO2 $
14837KMSN MSN20010704073509507/04/01 07:35:31  5-MIN KMSN 041335Z 32011KT 10SM CLR 23/14 A2996 820 57 2000 320/11 RMK AO2 $
14837KMSN MSN20010704074009507/04/01 07:40:31  5-MIN KMSN 041340Z 32009KT 10SM CLR 23/14 A2996 820 57 2000 320/09 RMK AO2 $
14837KMSN MSN20010704074509507/04/01 07:45:31  5-MIN KMSN 041345Z 32010KT 10SM CLR 23/14 A2997 820 57 2000 320/10 RMK AO2 $
14837KMSN MSN20010704075011207/04/01 07:50:31  5-MIN KMSN 041350Z 31008KT 10SM CLR 24/14 A2997 820 55 2100 310/08 RMK AO2 SLP142 T02390144 $
14837KMSN MSN20010704075510107/04/01 07:55:31  5-MIN KMSN 041355Z 33009G17KT 10SM CLR 24/14 A2997 820 53 2100 330/09G17 RMK AO2 $
14837KMSN MSN20010704080010107/04/01 08:00:31  5-MIN KMSN 041400Z 32010G17KT 10SM CLR 24/14 A2997 820 53 2100 320/10G17 RMK AO2 $
14837KMSN MSN20010704080509507/04/01 08:05:31  5-MIN KMSN 041405Z 30009KT 10SM CLR 24/14 A2997 820 53 2100 300/09 RMK AO2 $
14837KMSN MSN20010704081011107/04/01 08:10:31  5-MIN KMSN 041410Z 31009KT 270V350 10SM CLR 24/13 A2997 820 51 2100 310/09 270V350 RMK AO2 $
14837KMSN MSN20010704081509507/04/01 08:15:31  5-MIN KMSN 041415Z 31008KT 10SM CLR 24/12 A2997 820 47 2100 310/08 RMK AO2 $
14837KMSN MSN20010704082009507/04/01 08:20:31  5-MIN KMSN 041420Z 32009KT 10SM CLR 24/13 A2997 820 49 2100 320/09 RMK AO2 $
14837KMSN MSN20010704082509507/04/01 08:25:31  5-MIN KMSN 041425Z 30010KT 10SM CLR 24/14 A2997 820 51 2100 300/10 RMK AO2 $
14837KMSN MSN20010704083009507/04/01 08:30:31  5-MIN KMSN 041430Z 32009KT 10SM CLR 24/13 A2997 820 47 2100 320/09 RMK AO2 $
14837KMSN MSN20010704083509507/04/01 08:35:31  5-MIN KMSN 041435Z 31008KT 10SM CLR 24/13 A2997 820 47 2100 310/08 RMK AO2 $
14837KMSN MSN20010704084009507/04/01 08:40:31  5-MIN KMSN 041440Z 32011KT 10SM CLR 24/13 A2997 820 47 2100 320/11 RMK AO2 $
14837KMSN MSN20010704084509507/04/01 08:45:31  5-MIN KMSN 041445Z 31009KT 10SM CLR 25/13 A2997 820 48 2200 310/09 RMK AO2 $
14837KMSN MSN20010704085011807/04/01 08:50:31  5-MIN KMSN 041450Z 31009KT 10SM CLR 25/13 A2997 820 46 2200 310/09 RMK AO2 SLP143 T02500128 51006 $
14837KMSN MSN20010704085509507/04/01 08:55:31  5-MIN KMSN 041455Z 32010KT 10SM CLR 25/13 A2997 820 48 2200 320/10 RMK AO2 $
14837KMSN MSN20010704090011107/04/01 09:00:31  5-MIN KMSN 041500Z 31007KT 270V330 10SM CLR 25/13 A2997 820 48 2200 310/07 270V330 RMK AO2 $
14837KMSN MSN20010704090510107/04/01 09:05:31  5-MIN KMSN 041505Z 32012G15KT 10SM CLR 25/13 A2997 820 46 2200 310/12G15 RMK AO2 $
14837KMSN MSN20010704091009507/04/01 09:10:31  5-MIN KMSN 041510Z 31010KT 10SM CLR 25/13 A2997 820 46 2200 310/10 RMK AO2 $
14837KMSN MSN20010704091509507/04/01 09:15:31  5-MIN KMSN 041515Z 31011KT 10SM CLR 25/13 A2997 820 46 2200 310/11 RMK AO2 $
14837KMSN MSN20010704092009507/04/01 09:20:31  5-MIN KMSN 041520Z 31011KT 10SM CLR 26/13 A2997 820 44 2300 310/11 RMK AO2 $
14837KMSN MSN20010704092511107/04/01 09:25:31  5-MIN KMSN 041525Z 31007KT 280V350 10SM CLR 25/13 A2997 820 48 2200 310/07 280V350 RMK AO2 $
14837KMSN MSN20010704093009507/04/01 09:30:31  5-MIN KMSN 041530Z 34009KT 10SM CLR 26/13 A2997 820 44 2300 340/09 RMK AO2 $
14837KMSN MSN20010704093510107/04/01 09:35:31  5-MIN KMSN 041535Z 33012G16KT 10SM CLR 26/13 A2997 820 43 2300 330/12G16 RMK AO2 $
14837KMSN MSN20010704094010107/04/01 09:40:31  5-MIN KMSN 041540Z 31011G16KT 10SM CLR 26/12 A2997 810 43 2300 310/11G16 RMK AO2 $
14837KMSN MSN20010704094509507/04/01 09:45:31  5-MIN KMSN 041545Z 31010KT 10SM CLR 26/12 A2998 810 43 2300 310/10 RMK AO2 $
14837KMSN MSN20010704095011807/04/01 09:50:31  5-MIN KMSN 041550Z 33009G17KT 10SM CLR 26/12 A2998 810 43 2300 320/09G17 RMK AO2 SLP146 T02560122 $
14837KMSN MSN20010704095510107/04/01 09:55:31  5-MIN KMSN 041555Z 33009G17KT 10SM CLR 26/12 A2998 810 41 2300 330/09G17 RMK AO2 $
14837KMSN MSN20010704100010107/04/01 10:00:31  5-MIN KMSN 041600Z 32010G16KT 10SM CLR 26/12 A2998 810 41 2300 320/10G16 RMK AO2 $
14837KMSN MSN20010704100509507/04/01 10:05:31  5-MIN KMSN 041605Z 33009KT 10SM CLR 26/12 A2998 810 41 2300 330/09 RMK AO2 $
14837KMSN MSN20010704101009507/04/01 10:10:31  5-MIN KMSN 041610Z 32012KT 10SM CLR 26/12 A2998 810 41 2300 320/12 RMK AO2 $
14837KMSN MSN20010704101509507/04/01 10:15:31  5-MIN KMSN 041615Z 32010KT 10SM CLR 27/13 A2998 810 41 2400 320/10 RMK AO2 $
14837KMSN MSN20010704102010107/04/01 10:20:31  5-MIN KMSN 041620Z 31013G16KT 10SM CLR 26/11 A2998 810 38 2300 310/13G16 RMK AO2 $
14837KMSN MSN20010704102510107/04/01 10:25:31  5-MIN KMSN 041625Z 32012G19KT 10SM CLR 26/11 A2998 810 38 2300 320/12G19 RMK AO2 $
14837KMSN MSN20010704103010107/04/01 10:30:31  5-MIN KMSN 041630Z 31012G19KT 10SM CLR 26/11 A2998 810 38 2300 310/12G19 RMK AO2 $
14837KMSN MSN20010704103510107/04/01 10:35:31  5-MIN KMSN 041635Z 31012G18KT 10SM CLR 26/11 A2998 810 38 2300 310/12G18 RMK AO2 $
14837KMSN MSN20010704104010407/04/01 10:40:31  5-MIN KMSN 041640Z 31008G18KT 10SM FEW055 27/12 A2998 810 38 2400 310/08G18 RMK AO2 $
14837KMSN MSN20010704104510407/04/01 10:45:31  5-MIN KMSN 041645Z 30013G18KT 10SM FEW055 27/11 A2999 800 37 2400 300/13G18 RMK AO2 $
14837KMSN MSN20010704105013707/04/01 10:50:31  5-MIN KMSN 041650Z 30011G18KT 260V340 10SM FEW055 27/11 A2998 810 37 2400 300/11G18 260V340 RMK AO2 SLP148 T02670111 $
14837KMSN MSN20010704105510107/04/01 10:55:31  5-MIN KMSN 041655Z 31009G18KT 10SM CLR 27/11 A2998 810 37 2400 310/09G18 RMK AO2 $
14837KMSN MSN20010704110011707/04/01 11:00:31  5-MIN KMSN 041700Z 31011G16KT 280V350 10SM CLR 27/11 A2998 800 37 2400 310/11G16 280V350 RMK AO2 $
14837KMSN MSN20010704110510107/04/01 11:05:31  5-MIN KMSN 041705Z 33013G20KT 10SM CLR 27/11 A2999 800 36 2400 330/13G20 RMK AO2 $
14837KMSN MSN20010704111010107/04/01 11:10:31  5-MIN KMSN 041710Z 32012G20KT 10SM CLR 27/12 A2998 810 38 2400 320/12G20 RMK AO2 $
14837KMSN MSN20010704111510407/04/01 11:15:31  5-MIN KMSN 041715Z 32011G17KT 10SM FEW050 27/11 A2998 810 37 2400 310/11G17 RMK AO2 $
14837KMSN MSN20010704112009807/04/01 11:20:31  5-MIN KMSN 041720Z 32009KT 10SM FEW050 27/12 A2998 810 38 2400 310/09 RMK AO2 $
14837KMSN MSN20010704112509807/04/01 11:25:31  5-MIN KMSN 041725Z 30009KT 10SM FEW050 27/12 A2998 810 38 2400 300/09 RMK AO2 $
14837KMSN MSN20010704113010407/04/01 11:30:31  5-MIN KMSN 041730Z 28008G17KT 10SM FEW050 27/12 A2998 810 38 2400 280/08G17 RMK AO2 $
14837KMSN MSN20010704113512007/04/01 11:35:31  5-MIN KMSN 041735Z 31009G17KT 270V350 10SM FEW050 27/11 A2998 810 36 2400 310/09G17 270V350 RMK AO2 $
14837KMSN MSN20010704114012007/04/01 11:40:31  5-MIN KMSN 041740Z 31009G16KT 270V350 10SM FEW050 27/12 A2998 810 37 2400 310/09G16 270V350 RMK AO2 $
14837KMSN MSN20010704114510407/04/01 11:45:31  5-MIN KMSN 041745Z 33010G16KT 10SM FEW050 27/11 A2998 810 36 2400 330/10G16 RMK AO2 $
14837KMSN MSN20010704115013907/04/01 11:50:31  5-MIN KMSN 041750Z 30015G20KT 10SM FEW050 27/11 A2998 810 34 2400 300/15G20 RMK AO2 SLP146 T02720106 10272 20206 51009 $
14837KMSN MSN20010704115510407/04/01 11:55:31  5-MIN KMSN 041755Z 31012G20KT 10SM FEW055 27/10 A2998 810 34 2400 310/12G20 RMK AO2 $
14837KMSN MSN20010704120012007/04/01 12:00:31  5-MIN KMSN 041800Z 29011G17KT 260V330 10SM FEW055 27/10 A2998 810 34 2400 290/11G17 260V330 RMK AO2 $
14837KMSN MSN20010704120510407/04/01 12:05:31  5-MIN KMSN 041805Z 35009G17KT 10SM FEW055 27/10 A2997 810 33 2400 340/09G17 RMK AO2 $
14837KMSN MSN20010704121009807/04/01 12:10:31  5-MIN KMSN 041810Z 32011KT 10SM FEW055 27/11 A2998 810 36 2400 320/11 RMK AO2 $
14837KMSN MSN20010704121511407/04/01 12:15:31  5-MIN KMSN 041815Z 31010KT 260V330 10SM FEW055 27/11 A2997 820 36 2400 310/10 260V330 RMK AO2 $
14837KMSN MSN20010704122009807/04/01 12:20:31  5-MIN KMSN 041820Z 30008KT 10SM FEW055 27/12 A2998 810 37 2400 300/08 RMK AO2 $
14837KMSN MSN20010704122510407/04/01 12:25:31  5-MIN KMSN 041825Z 31010G19KT 10SM FEW055 27/11 A2997 810 36 2400 310/10G19 RMK AO2 $
14837KMSN MSN20010704123010407/04/01 12:30:31  5-MIN KMSN 041830Z 31010G21KT 10SM FEW055 27/11 A2997 810 36 2400 310/10G21 RMK AO2 $
14837KMSN MSN20010704123510407/04/01 12:35:31  5-MIN KMSN 041835Z 29013G21KT 10SM FEW055 27/11 A2997 810 34 2400 290/13G21 RMK AO2 $
14837KMSN MSN20010704124010407/04/01 12:40:31  5-MIN KMSN 041840Z 31010G19KT 10SM FEW055 27/11 A2997 820 34 2400 310/10G19 RMK AO2 $
14837KMSN MSN20010704124510407/04/01 12:45:31  5-MIN KMSN 041845Z 31014G22KT 10SM FEW055 28/11 A2997 820 35 2500 310/14G22 RMK AO2 $
14837KMSN MSN20010704125012107/04/01 12:50:31  5-MIN KMSN 041850Z 29010G22KT 10SM FEW055 27/11 A2997 820 34 2400 290/10G22 RMK AO2 SLP144 T02720106 $
14837KMSN MSN20010704125511707/04/01 12:55:31  5-MIN KMSN 041855Z 29011G18KT 260V320 10SM CLR 27/10 A2997 820 33 2500 280/11G18 260V320 RMK AO2 $
14837KMSN MSN20010704130010407/04/01 13:00:31  5-MIN KMSN 041900Z 32008G16KT 10SM FEW070 28/11 A2997 820 33 2500 320/08G16 RMK AO2 $
14837KMSN MSN20010704130512007/04/01 13:05:31  5-MIN KMSN 041905Z 31011G17KT 280V350 10SM FEW070 27/11 A2997 820 34 2500 310/11G17 280V350 RMK AO2 $
14837KMSN MSN20010704131010407/04/01 13:10:31  5-MIN KMSN 041910Z 32011G17KT 10SM FEW070 28/11 A2996 820 35 2500 320/11G17 RMK AO2 $
14837KMSN MSN20010704131510407/04/01 13:15:31  5-MIN KMSN 041915Z 32012G17KT 10SM FEW070 27/11 A2996 820 34 2500 320/12G17 RMK AO2 $
14837KMSN MSN20010704132012007/04/01 13:20:31  5-MIN KMSN 041920Z 33007G16KT 280V050 10SM FEW070 28/11 A2996 830 35 2500 330/07G16 280V050 RMK AO2 $
14837KMSN MSN20010704132510407/04/01 13:25:31  5-MIN KMSN 041925Z 28013G21KT 10SM FEW070 28/12 A2996 830 36 2500 280/13G21 RMK AO2 $
14837KMSN MSN20010704133010407/04/01 13:30:31  5-MIN KMSN 041930Z 30012G21KT 10SM FEW070 28/11 A2996 830 35 2500 300/12G21 RMK AO2 $
14837KMSN MSN20010704133510407/04/01 13:35:31  5-MIN KMSN 041935Z 30010G18KT 10SM FEW070 27/09 A2996 830 32 2500 300/10G18 RMK AO2 $
14837KMSN MSN20010704134010407/04/01 13:40:31  5-MIN KMSN 041940Z 31013G18KT 10SM FEW070 28/11 A2996 830 33 2500 310/13G18 RMK AO2 $
14837KMSN MSN20010704134510407/04/01 13:45:31  5-MIN KMSN 041945Z 31008G17KT 10SM FEW070 28/10 A2996 830 32 2500 310/08G17 RMK AO2 $
14837KMSN MSN20010704135012107/04/01 13:50:31  5-MIN KMSN 041950Z 31014G17KT 10SM FEW070 28/10 A2996 830 32 2500 310/14G17 RMK AO2 SLP139 T02780100 $
14837KMSN MSN20010704135512007/04/01 13:55:31  5-MIN KMSN 041955Z 30011G18KT 280V340 10SM FEW065 27/09 A2995 830 32 2500 300/11G18 280V340 RMK AO2 $
14837KMSN MSN20010704140009807/04/01 14:00:31  5-MIN KMSN 042000Z 31010KT 10SM FEW065 28/11 A2996 830 33 2500 310/10 RMK AO2 $
14837KMSN MSN20010704140510407/04/01 14:05:31  5-MIN KMSN 042005Z 31015G20KT 10SM FEW065 27/10 A2995 840 33 2500 310/15G20 RMK AO2 $
14837KMSN MSN20010704141010407/04/01 14:10:31  5-MIN KMSN 042010Z 30010G20KT 10SM FEW065 28/11 A2995 840 33 2500 300/10G20 RMK AO2 $
14837KMSN MSN20010704141510407/04/01 14:15:31  5-MIN KMSN 042015Z 29011G18KT 10SM FEW065 27/11 A2995 840 34 2500 290/11G18 RMK AO2 $
14837KMSN MSN20010704142011407/04/01 14:20:31  5-MIN KMSN 042020Z 29009KT 270V330 10SM FEW065 28/11 A2995 840 35 2500 290/09 270V330 RMK AO2 $
14837KMSN MSN20010704142510407/04/01 14:25:31  5-MIN KMSN 042025Z 30011G16KT 10SM SCT070 27/11 A2995 840 34 2500 300/11G16 RMK AO2 $
14837KMSN MSN20010704143012007/04/01 14:30:31  5-MIN KMSN 042030Z 29012G16KT 250V340 10SM SCT070 28/11 A2994 840 35 2500 290/12G16 250V340 RMK AO2 $
14837KMSN MSN20010704143510407/04/01 14:35:31  5-MIN KMSN 042035Z 32012G17KT 10SM SCT070 27/11 A2994 840 34 2500 310/12G17 RMK AO2 $
14837KMSN MSN20010704144010407/04/01 14:40:31  5-MIN KMSN 042040Z 32012G20KT 10SM SCT070 27/11 A2994 840 34 2500 320/12G20 RMK AO2 $
14837KMSN MSN20010704144510407/04/01 14:45:31  5-MIN KMSN 042045Z 31009G20KT 10SM SCT070 28/11 A2994 840 35 2500 310/09G20 RMK AO2 $
14837KMSN MSN20010704145012707/04/01 14:50:31  5-MIN KMSN 042050Z 30011G16KT 10SM SCT070 28/11 A2994 850 35 2500 300/11G16 RMK AO2 SLP134 T02780111 50003 $
14837KMSN MSN20010704145510407/04/01 14:55:31  5-MIN KMSN 042055Z 31011G17KT 10SM SCT070 28/11 A2994 850 35 2500 310/11G17 RMK AO2 $
14837KMSN MSN20010704150010407/04/01 15:00:31  5-MIN KMSN 042100Z 32011G17KT 10SM SCT070 27/11 A2994 850 37 2400 320/11G17 RMK AO2 $
14837KMSN MSN20010704150509807/04/01 15:05:31  5-MIN KMSN 042105Z 31011KT 10SM SCT070 27/11 A2994 850 36 2500 300/11 RMK AO2 $
14837KMSN MSN20010704151009807/04/01 15:10:31  5-MIN KMSN 042110Z 29010KT 10SM SCT070 27/11 A2994 850 37 2400 290/10 RMK AO2 $
14837KMSN MSN20010704151509807/04/01 15:15:31  5-MIN KMSN 042115Z 31010KT 10SM FEW080 27/12 A2994 850 37 2500 310/10 RMK AO2 $
14837KMSN MSN20010704152009807/04/01 15:20:31  5-MIN KMSN 042120Z 31010KT 10SM FEW075 27/11 A2994 850 37 2400 300/10 RMK AO2 $
14837KMSN MSN20010704152510407/04/01 15:25:31  5-MIN KMSN 042125Z 28012G16KT 10SM SCT075 28/11 A2993 850 35 2600 280/12G16 RMK AO2 $
14837KMSN MSN20010704153010407/04/01 15:30:31  5-MIN KMSN 042130Z 27014G20KT 10SM SCT080 27/11 A2993 850 34 2500 270/14G20 RMK AO2 $
14837KMSN MSN20010704153511107/04/01 15:35:31  5-MIN KMSN 042135Z 31010G20KT 10SM SCT075 BKN090 27/11 A2993 850 34 2500 310/10G20 RMK AO2 $
14837KMSN MSN20010704154010507/04/01 15:40:31  5-MIN KMSN 042140Z 30007KT 10SM SCT075 BKN090 27/11 A2993 850 37 2400 300/07 RMK AO2 $
14837KMSN MSN20010704154512107/04/01 15:45:31  5-MIN KMSN 042145Z 29007KT 260V330 10SM SCT075 SCT090 26/11 A2993 860 38 2400 290/07 260V330 RMK AO2 $
14837KMSN MSN20010704155013807/04/01 15:50:31  5-MIN KMSN 042150Z 30007KT 190V340 10SM SCT075 SCT090 27/11 A2993 860 36 2500 300/07 190V340 RMK AO2 SLP129 T02720111 $
14837KMSN MSN20010704155512107/04/01 15:55:31  5-MIN KMSN 042155Z 30009KT 260V320 10SM SCT075 SCT090 27/11 A2993 860 36 2500 300/09 260V320 RMK AO2 $
14837KMSN MSN20010704160010407/04/01 16:00:31  5-MIN KMSN 042200Z 30010G16KT 10SM FEW075 27/12 A2993 860 39 2500 300/10G16 RMK AO2 $
14837KMSN MSN20010704160510407/04/01 16:05:31  5-MIN KMSN 042205Z 31012G20KT 10SM FEW080 27/12 A2993 860 37 2500 310/12G20 RMK AO2 $
14837KMSN MSN20010704161010407/04/01 16:10:31  5-MIN KMSN 042210Z 31010G20KT 10SM SCT080 27/12 A2993 860 37 2500 310/10G20 RMK AO2 $
14837KMSN MSN20010704161509807/04/01 16:15:31  5-MIN KMSN 042215Z 30011KT 10SM SCT080 27/12 A2993 860 37 2500 300/11 RMK AO2 $
14837KMSN MSN20010704162009807/04/01 16:20:31  5-MIN KMSN 042220Z 31009KT 10SM SCT080 27/12 A2993 860 38 2400 310/09 RMK AO2 $
14837KMSN MSN20010704162510407/04/01 16:25:31  5-MIN KMSN 042225Z 30011G15KT 10SM SCT080 26/11 A2993 850 40 2300 300/11G15 RMK AO2 $
14837KMSN MSN20010704163010407/04/01 16:30:31  5-MIN KMSN 042230Z 32008G15KT 10SM SCT080 26/11 A2993 860 40 2300 320/08G15 RMK AO2 $
14837KMSN MSN20010704163511407/04/01 16:35:31  5-MIN KMSN 042235Z 30008KT 280V350 10SM SCT080 26/11 A2993 860 40 2300 300/08 280V350 RMK AO2 $
14837KMSN MSN20010704164009807/04/01 16:40:31  5-MIN KMSN 042240Z 29008KT 10SM SCT080 27/12 A2993 860 38 2400 290/08 RMK AO2 $
14837KMSN MSN20010704164510407/04/01 16:45:31  5-MIN KMSN 042245Z 31011G15KT 10SM SCT080 27/11 A2993 860 37 2400 310/11G15 RMK AO2 $
14837KMSN MSN20010704165012107/04/01 16:50:31  5-MIN KMSN 042250Z 31011G16KT 10SM SCT075 27/11 A2993 860 37 2400 310/11G16 RMK AO2 SLP129 T02670111 $
14837KMSN MSN20010704165511107/04/01 16:55:31  5-MIN KMSN 042255Z 30007G16KT 10SM SCT070 SCT080 26/11 A2993 860 38 2400 300/07G16 RMK AO2 $
14837KMSN MSN20010704170009807/04/01 17:00:31  5-MIN KMSN 042300Z 29009KT 10SM FEW075 27/12 A2992 860 38 2400 290/09 RMK AO2 $
14837KMSN MSN20010704170511407/04/01 17:05:31  5-MIN KMSN 042305Z 30009KT 260V330 10SM FEW075 27/12 A2992 860 38 2400 300/09 260V330 RMK AO2 $
14837KMSN MSN20010704171012007/04/01 17:10:31  5-MIN KMSN 042310Z 31007G14KT 280V340 10SM FEW075 27/12 A2992 860 38 2400 300/07G14 280V340 RMK AO2 $
14837KMSN MSN20010704171509807/04/01 17:15:31  5-MIN KMSN 042315Z 30008KT 10SM FEW075 27/12 A2992 860 40 2400 290/08 RMK AO2 $
14837KMSN MSN20010704172009807/04/01 17:20:31  5-MIN KMSN 042320Z 30009KT 10SM FEW085 27/12 A2992 860 38 2400 300/09 RMK AO2 $
14837KMSN MSN20010704172509807/04/01 17:25:31  5-MIN KMSN 042325Z 30006KT 10SM FEW085 26/12 A2992 860 40 2400 300/06 RMK AO2 $
14837KMSN MSN20010704173009807/04/01 17:30:31  5-MIN KMSN 042330Z 31007KT 10SM FEW085 26/12 A2992 860 41 2400 310/07 RMK AO2 $
14837KMSN MSN20010704173509807/04/01 17:35:31  5-MIN KMSN 042335Z 31008KT 10SM FEW085 26/12 A2992 860 43 2300 310/08 RMK AO2 $
14837KMSN MSN20010704174009807/04/01 17:40:31  5-MIN KMSN 042340Z 32005KT 10SM SCT075 26/12 A2992 860 43 2300 320/05 RMK AO2 $
14837KMSN MSN20010704174509807/04/01 17:45:31  5-MIN KMSN 042345Z 31006KT 10SM SCT075 26/12 A2992 860 41 2400 310/06 RMK AO2 $
14837KMSN MSN20010704175013307/04/01 17:50:31  5-MIN KMSN 042350Z 31007KT 10SM SCT075 26/13 A2992 860 43 2400 310/07 RMK AO2 SLP127 T02610128 10278 20256 58013 $
14837KMSN MSN20010704175509807/04/01 17:55:31  5-MIN KMSN 042355Z 32008KT 10SM FEW075 26/12 A2992 860 43 2300 310/08 RMK AO2 $
14837KMSN MSN20010704180009807/04/01 18:00:31  5-MIN KMSN 050000Z 31008KT 10SM FEW080 26/12 A2992 860 43 2300 310/08 RMK AO2 $
14837KMSN MSN20010704180511407/04/01 18:05:31  5-MIN KMSN 050005Z 32008KT 290V350 10SM FEW080 26/12 A2992 870 43 2300 320/08 290V350 RMK AO2 $
14837KMSN MSN20010704181009807/04/01 18:10:31  5-MIN KMSN 050010Z 31007KT 10SM FEW075 25/12 A2992 870 44 2300 310/07 RMK AO2 $
14837KMSN MSN20010704181509507/04/01 18:15:31  5-MIN KMSN 050015Z 33006KT 10SM CLR 25/12 A2992 860 44 2300 330/06 RMK AO2 $
14837KMSN MSN20010704182009807/04/01 18:20:31  5-MIN KMSN 050020Z 33005KT 10SM FEW075 25/12 A2992 860 44 2300 330/05 RMK AO2 $
14837KMSN MSN20010704182509807/04/01 18:25:31  5-MIN KMSN 050025Z 32006KT 10SM FEW075 25/13 A2992 860 46 2300 320/06 RMK AO2 $
14837KMSN MSN20010704183009807/04/01 18:30:31  5-MIN KMSN 050030Z 32007KT 10SM FEW075 25/12 A2992 860 44 2300 320/07 RMK AO2 $
14837KMSN MSN20010704183509807/04/01 18:35:31  5-MIN KMSN 050035Z 31005KT 10SM FEW075 25/12 A2992 860 44 2300 310/05 RMK AO2 $
14837KMSN MSN20010704184009507/04/01 18:40:31  5-MIN KMSN 050040Z 32008KT 10SM CLR 24/12 A2992 860 46 2200 320/08 RMK AO2 $
14837KMSN MSN20010704184509807/04/01 18:45:31  5-MIN KMSN 050045Z 31008KT 10SM FEW080 24/12 A2992 860 46 2200 310/08 RMK AO2 $
14837KMSN MSN20010704185011507/04/01 18:50:31  5-MIN KMSN 050050Z 32007KT 10SM FEW080 24/12 A2992 860 46 2200 320/07 RMK AO2 SLP127 T02440122 $
14837KMSN MSN20010704185509807/04/01 18:55:31  5-MIN KMSN 050055Z 32010KT 10SM FEW080 24/12 A2992 860 47 2100 310/10 RMK AO2 $
14837KMSN MSN20010704190009807/04/01 19:00:31  5-MIN KMSN 050100Z 31008KT 10SM FEW080 24/12 A2992 860 47 2100 310/08 RMK AO2 $
14837KMSN MSN20010704190511407/04/01 19:05:31  5-MIN KMSN 050105Z 32008KT 290V350 10SM FEW080 24/12 A2992 860 46 2100 310/08 290V350 RMK AO2 $
14837KMSN MSN20010704191009807/04/01 19:10:31  5-MIN KMSN 050110Z VRB06KT 10SM FEW080 24/12 A2992 860 47 2100 VRB/06 RMK AO2 $
14837KMSN MSN20010704191509807/04/01 19:15:31  5-MIN KMSN 050115Z 31007KT 10SM FEW080 24/12 A2992 860 47 2100 310/07 RMK AO2 $
14837KMSN MSN20010704192009807/04/01 19:20:31  5-MIN KMSN 050120Z 32007KT 10SM FEW080 23/12 A2992 860 49 2100 320/07 RMK AO2 $
14837KMSN MSN20010704192509807/04/01 19:25:31  5-MIN KMSN 050125Z 32006KT 10SM FEW080 23/12 A2993 860 49 2100 320/06 RMK AO2 $
14837KMSN MSN20010704193009807/04/01 19:30:31  5-MIN KMSN 050130Z 32005KT 10SM FEW080 23/12 A2993 860 51 2000 320/05 RMK AO2 $
14837KMSN MSN20010704193509807/04/01 19:35:31  5-MIN KMSN 050135Z 32006KT 10SM FEW080 23/12 A2993 860 51 2000 320/06 RMK AO2 $
14837KMSN MSN20010704194009807/04/01 19:40:31  5-MIN KMSN 050140Z 32006KT 10SM FEW080 23/12 A2993 860 49 2000 320/06 RMK AO2 $
14837KMSN MSN20010704194509807/04/01 19:45:31  5-MIN KMSN 050145Z 32006KT 10SM FEW080 22/12 A2993 860 51 1900 320/06 RMK AO2 $
14837KMSN MSN20010704195011507/04/01 19:50:31  5-MIN KMSN 050150Z 32004KT 10SM FEW060 22/12 A2993 860 51 1900 320/04 RMK AO2 SLP129 T02220117 $
14837KMSN MSN20010704195509507/04/01 19:55:31  5-MIN KMSN 050155Z 32005KT 10SM CLR 22/12 A2993 860 51 1900 320/05 RMK AO2 $
14837KMSN MSN20010704200009507/04/01 20:00:31  5-MIN KMSN 050200Z 31005KT 10SM CLR 22/12 A2993 860 52 1900 310/05 RMK AO2 $
14837KMSN MSN20010704200509507/04/01 20:05:31  5-MIN KMSN 050205Z 31006KT 10SM CLR 22/12 A2993 850 52 1900 310/06 RMK AO2 $
14837KMSN MSN20010704201009507/04/01 20:10:31  5-MIN KMSN 050210Z 31005KT 10SM CLR 22/12 A2993 850 52 1900 310/05 RMK AO2 $
14837KMSN MSN20010704201509507/04/01 20:15:31  5-MIN KMSN 050215Z 32006KT 10SM CLR 22/11 A2994 850 50 1900 320/06 RMK AO2 $
14837KMSN MSN20010704202009507/04/01 20:20:31  5-MIN KMSN 050220Z 32005KT 10SM CLR 22/11 A2994 850 50 1900 320/05 RMK AO2 $
14837KMSN MSN20010704202509507/04/01 20:25:31  5-MIN KMSN 050225Z 31006KT 10SM CLR 22/11 A2994 850 50 1900 310/06 RMK AO2 $
14837KMSN MSN20010704203009507/04/01 20:30:31  5-MIN KMSN 050230Z VRB04KT 10SM CLR 21/11 A2994 850 52 1800 VRB/04 RMK AO2 $
14837KMSN MSN20010704203509507/04/01 20:35:31  5-MIN KMSN 050235Z 30005KT 10SM CLR 21/11 A2994 840 52 1800 300/05 RMK AO2 $
14837KMSN MSN20010704204009507/04/01 20:40:31  5-MIN KMSN 050240Z 32006KT 10SM CLR 21/11 A2995 840 52 1800 320/06 RMK AO2 $
14837KMSN MSN20010704204509507/04/01 20:45:31  5-MIN KMSN 050245Z 32005KT 10SM CLR 21/11 A2995 840 52 1700 320/05 RMK AO2 $
14837KMSN MSN20010704205011807/04/01 20:50:31  5-MIN KMSN 050250Z 32005KT 10SM CLR 21/11 A2995 840 52 1700 320/05 RMK AO2 SLP137 T02060106 56006 $
14837KMSN MSN20010704205509507/04/01 20:55:31  5-MIN KMSN 050255Z 31005KT 10SM CLR 21/11 A2995 830 52 1700 310/05 RMK AO2 $
14837KMSN MSN20010704210009507/04/01 21:00:31  5-MIN KMSN 050300Z 32005KT 10SM CLR 21/11 A2996 830 52 1700 320/05 RMK AO2 $
14837KMSN MSN20010704210509507/04/01 21:05:31  5-MIN KMSN 050305Z 31005KT 10SM CLR 21/11 A2996 830 52 1700 310/05 RMK AO2 $
14837KMSN MSN20010704211009507/04/01 21:10:31  5-MIN KMSN 050310Z 31005KT 10SM CLR 21/10 A2996 830 50 1700 310/05 RMK AO2 $
14837KMSN MSN20010704211509507/04/01 21:15:31  5-MIN KMSN 050315Z 31004KT 10SM CLR 20/10 A2996 830 52 1600 310/04 RMK AO2 $
14837KMSN MSN20010704212009507/04/01 21:20:31  5-MIN KMSN 050320Z 31004KT 10SM CLR 20/10 A2996 830 52 1600 310/04 RMK AO2 $
14837KMSN MSN20010704212509507/04/01 21:25:31  5-MIN KMSN 050325Z 31004KT 10SM CLR 20/10 A2996 830 52 1600 310/04 RMK AO2 $
14837KMSN MSN20010704213009507/04/01 21:30:31  5-MIN KMSN 050330Z 31004KT 10SM CLR 19/10 A2996 830 54 1600 310/04 RMK AO2 $
14837KMSN MSN20010704213509507/04/01 21:35:31  5-MIN KMSN 050335Z 31005KT 10SM CLR 19/11 A2996 830 56 1600 310/05 RMK AO2 $
14837KMSN MSN20010704214009507/04/01 21:40:31  5-MIN KMSN 050340Z 32007KT 10SM CLR 19/10 A2996 830 54 1600 320/07 RMK AO2 $
14837KMSN MSN20010704214509507/04/01 21:45:31  5-MIN KMSN 050345Z 32007KT 10SM CLR 19/10 A2996 830 54 1600 320/07 RMK AO2 $
14837KMSN MSN20010704215011207/04/01 21:50:31  5-MIN KMSN 050350Z 32006KT 10SM CLR 19/09 A2996 830 52 1600 320/06 RMK AO2 SLP141 T01940094 $
14837KMSN MSN20010704215509507/04/01 21:55:31  5-MIN KMSN 050355Z 32007KT 10SM CLR 19/09 A2996 820 52 1600 320/07 RMK AO2 $
14837KMSN MSN20010704220009507/04/01 22:00:31  5-MIN KMSN 050400Z 32007KT 10SM CLR 19/09 A2996 820 52 1600 320/07 RMK AO2 $
14837KMSN MSN20010704220509507/04/01 22:05:31  5-MIN KMSN 050405Z 33007KT 10SM CLR 19/09 A2996 820 50 1600 330/07 RMK AO2 $
14837KMSN MSN20010704221009507/04/01 22:10:31  5-MIN KMSN 050410Z 33008KT 10SM CLR 19/08 A2996 820 48 1600 330/08 RMK AO2 $
14837KMSN MSN20010704221509507/04/01 22:15:31  5-MIN KMSN 050415Z 33007KT 10SM CLR 19/08 A2997 820 48 1600 330/07 RMK AO2 $
14837KMSN MSN20010704222009507/04/01 22:20:31  5-MIN KMSN 050420Z 33006KT 10SM CLR 19/08 A2997 820 48 1600 330/06 RMK AO2 $
14837KMSN MSN20010704222509507/04/01 22:25:31  5-MIN KMSN 050425Z 33007KT 10SM CLR 19/08 A2997 820 48 1600 330/07 RMK AO2 $
14837KMSN MSN20010704223009507/04/01 22:30:31  5-MIN KMSN 050430Z 35006KT 10SM CLR 19/08 A2997 820 48 1600 350/06 RMK AO2 $
14837KMSN MSN20010704223509507/04/01 22:35:31  5-MIN KMSN 050435Z 36006KT 10SM CLR 18/09 A2997 820 55 1400 360/06 RMK AO2 $
14837KMSN MSN20010704224009507/04/01 22:40:31  5-MIN KMSN 050440Z 36006KT 10SM CLR 17/09 A2997 820 60 1200 360/06 RMK AO2 $
14837KMSN MSN20010704224509507/04/01 22:45:31  5-MIN KMSN 050445Z 35006KT 10SM CLR 17/09 A2997 810 60 1200 350/06 RMK AO2 $
14837KMSN MSN20010704225011207/04/01 22:50:31  5-MIN KMSN 050450Z 35005KT 10SM CLR 17/09 A2998 810 60 1200 350/05 RMK AO2 SLP147 T01670089 $
14837KMSN MSN20010704225509507/04/01 22:55:31  5-MIN KMSN 050455Z 35005KT 10SM CLR 17/09 A2998 810 60 1200 350/05 RMK AO2 $
14837KMSN MSN20010704230009507/04/01 23:00:31  5-MIN KMSN 050500Z 36005KT 10SM CLR 16/09 A2998 810 62 1200 360/05 RMK AO2 $
14837KMSN MSN20010704230509507/04/01 23:05:31  5-MIN KMSN 050505Z 35004KT 10SM CLR 16/09 A2998 810 62 1200 350/04 RMK AO2 $
14837KMSN MSN20010704231009507/04/01 23:10:31  5-MIN KMSN 050510Z 35003KT 10SM CLR 16/09 A2998 810 62 1200 340/03 RMK AO2 $
14837KMSN MSN20010704231509507/04/01 23:15:31  5-MIN KMSN 050515Z 34003KT 10SM CLR 17/08 A2998 810 57 1200 340/03 RMK AO2 $
14837KMSN MSN20010704232009507/04/01 23:20:31  5-MIN KMSN 050520Z VRB03KT 10SM CLR 16/09 A2998 810 62 1200 VRB/03 RMK AO2 $
14837KMSN MSN20010704232509507/04/01 23:25:31  5-MIN KMSN 050525Z 34003KT 10SM CLR 16/08 A2998 810 59 1200 330/03 RMK AO2 $
14837KMSN MSN20010704233009507/04/01 23:30:31  5-MIN KMSN 050530Z 33003KT 10SM CLR 16/08 A2998 810 59 1200 330/03 RMK AO2 $
14837KMSN MSN20010704233509507/04/01 23:35:31  5-MIN KMSN 050535Z 00000KT 10SM CLR 16/08 A2998 810 59 1200 000/00 RMK AO2 $
14837KMSN MSN20010704234009507/04/01 23:40:31  5-MIN KMSN 050540Z 00000KT 10SM CLR 16/08 A2998 810 62 1100 000/00 RMK AO2 $
14837KMSN MSN20010704234509507/04/01 23:45:31  5-MIN KMSN 050545Z 31003KT 10SM CLR 16/08 A2998 810 59 1200 310/03 RMK AO2 $
14837KMSN MSN20010704235014007/04/01 23:50:31  5-MIN KMSN 050550Z 32004KT 10SM CLR 16/08 A2998 810 59 1200 320/04 RMK AO2 SLP149 T01610083 10261 20156 402780156 53010 $
14837KMSN MSN20010704235509507/04/01 23:55:31  5-MIN KMSN 050555Z 32004KT 10SM CLR 16/08 A2998 810 57 1200 320/04 RMK AO2 $
14837KMSN MSN20010705000009507/05/01 00:00:31  5-MIN KMSN 050600Z 31003KT 10SM CLR 16/08 A2998 810 57 1200 310/03 RMK AO2 $
14837KMSN MSN20010705000509507/05/01 00:05:31  5-MIN KMSN 050605Z 31004KT 10SM CLR 16/08 A2998 810 57 1200 310/04 RMK AO2 $
14837KMSN MSN20010705001009507/05/01 00:10:31  5-MIN KMSN 050610Z 31004KT 10SM CLR 17/08 A2999 800 55 1200 310/04 RMK AO2 $
14837KMSN MSN20010705001509507/05/01 00:15:31  5-MIN KMSN 050615Z 31003KT 10SM CLR 16/08 A2999 800 57 1200 310/03 RMK AO2 $
14837KMSN MSN20010705002009507/05/01 00:20:31  5-MIN KMSN 050620Z 31004KT 10SM CLR 16/08 A2999 800 59 1100 310/04 RMK AO2 $
14837KMSN MSN20010705002509507/05/01 00:25:31  5-MIN KMSN 050625Z 32004KT 10SM CLR 16/08 A2999 800 59 1100 310/04 RMK AO2 $
14837KMSN MSN20010705003009507/05/01 00:30:31  5-MIN KMSN 050630Z 31004KT 10SM CLR 16/08 A2999 800 57 1200 310/04 RMK AO2 $
14837KMSN MSN20010705003509507/05/01 00:35:31  5-MIN KMSN 050635Z 31005KT 10SM CLR 16/08 A2999 800 59 1100 310/05 RMK AO2 $
14837KMSN MSN20010705004009507/05/01 00:40:31  5-MIN KMSN 050640Z 30004KT 10SM CLR 16/08 A2999 800 59 1100 300/04 RMK AO2 $
14837KMSN MSN20010705004509507/05/01 00:45:31  5-MIN KMSN 050645Z 31004KT 10SM CLR 16/08 A2999 800 59 1100 310/04 RMK AO2 $
14837KMSN MSN20010705005011207/05/01 00:50:31  5-MIN KMSN 050650Z 32004KT 10SM CLR 16/08 A2999 800 59 1100 320/04 RMK AO2 SLP152 T01560078 $
14837KMSN MSN20010705005509507/05/01 00:55:31  5-MIN KMSN 050655Z 31005KT 10SM CLR 15/08 A2999 800 62 1000 310/05 RMK AO2 $
14837KMSN MSN20010705010009507/05/01 01:00:31  5-MIN KMSN 050700Z 31004KT 10SM CLR 16/08 A2999 800 59 1100 310/04 RMK AO2 $
14837KMSN MSN20010705010509507/05/01 01:05:31  5-MIN KMSN 050705Z 31004KT 10SM CLR 16/08 A2999 800 59 1100 310/04 RMK AO2 $
14837KMSN MSN20010705011009507/05/01 01:10:31  5-MIN KMSN 050710Z 32004KT 10SM CLR 16/08 A2999 800 59 1100 320/04 RMK AO2 $
14837KMSN MSN20010705011509507/05/01 01:15:31  5-MIN KMSN 050715Z 32004KT 10SM CLR 15/08 A2999 800 62 1000 320/04 RMK AO2 $
14837KMSN MSN20010705012009507/05/01 01:20:31  5-MIN KMSN 050720Z 32005KT 10SM CLR 15/08 A2999 800 62 1000 320/05 RMK AO2 $
14837KMSN MSN20010705012509507/05/01 01:25:31  5-MIN KMSN 050725Z 32005KT 10SM CLR 15/08 A2999 800 62 1000 320/05 RMK AO2 $
14837KMSN MSN20010705013009507/05/01 01:30:31  5-MIN KMSN 050730Z 31005KT 10SM CLR 15/08 A2999 800 62 1000 310/05 RMK AO2 $
14837KMSN MSN20010705013509507/05/01 01:35:31  5-MIN KMSN 050735Z 31005KT 10SM CLR 15/08 A3000 800 62 1000 310/05 RMK AO2 $
14837KMSN MSN20010705014009507/05/01 01:40:31  5-MIN KMSN 050740Z 32006KT 10SM CLR 15/08 A2999 800 62 1000 320/06 RMK AO2 $
14837KMSN MSN20010705014509507/05/01 01:45:31  5-MIN KMSN 050745Z 32006KT 10SM CLR 15/08 A2999 800 62 1000 320/06 RMK AO2 $
14837KMSN MSN20010705015011207/05/01 01:50:31  5-MIN KMSN 050750Z 33006KT 10SM CLR 15/07 A2999 800 59 1000 320/06 RMK AO2 SLP152 T01500072 $
14837KMSN MSN20010705015509507/05/01 01:55:31  5-MIN KMSN 050755Z 32005KT 10SM CLR 15/07 A2999 800 59 1000 320/05 RMK AO2 $
14837KMSN MSN20010705020009507/05/01 02:00:31  5-MIN KMSN 050800Z 33004KT 10SM CLR 14/08 A2999 800 64 1000 330/04 RMK AO2 $
14837KMSN MSN20010705020509507/05/01 02:05:31  5-MIN KMSN 050805Z 33006KT 10SM CLR 15/07 A2999 800 59 1000 330/06 RMK AO2 $
14837KMSN MSN20010705021009507/05/01 02:10:31  5-MIN KMSN 050810Z 32005KT 10SM CLR 14/07 A2999 800 61 1000 320/05 RMK AO2 $
14837KMSN MSN20010705021509407/05/01 02:15:31  5-MIN KMSN 050815Z 32005KT 10SM CLR 14/07 A2999 800 64 900 320/05 RMK AO2 $
14837KMSN MSN20010705022009507/05/01 02:20:31  5-MIN KMSN 050820Z 32005KT 10SM CLR 14/07 A2999 800 61 1000 320/05 RMK AO2 $
14837KMSN MSN20010705022509507/05/01 02:25:31  5-MIN KMSN 050825Z 32005KT 10SM CLR 14/07 A3000 800 61 1000 320/05 RMK AO2 $
14837KMSN MSN20010705023009507/05/01 02:30:31  5-MIN KMSN 050830Z 32005KT 10SM CLR 14/07 A3000 800 61 1000 320/05 RMK AO2 $
14837KMSN MSN20010705023509507/05/01 02:35:31  5-MIN KMSN 050835Z 32005KT 10SM CLR 14/07 A3000 790 61 1000 320/05 RMK AO2 $
14837KMSN MSN20010705024009407/05/01 02:40:31  5-MIN KMSN 050840Z 33005KT 10SM CLR 14/07 A3000 790 64 900 330/05 RMK AO2 $
14837KMSN MSN20010705024509407/05/01 02:45:31  5-MIN KMSN 050845Z 33004KT 10SM CLR 14/07 A3000 790 64 900 330/04 RMK AO2 $
14837KMSN MSN20010705025011707/05/01 02:50:31  5-MIN KMSN 050850Z 34006KT 10SM CLR 13/07 A3000 790 69 800 340/06 RMK AO2 SLP156 T01280072 51010 $
14837KMSN MSN20010705025509407/05/01 02:55:31  5-MIN KMSN 050855Z 33007KT 10SM CLR 14/07 A3000 790 64 900 330/07 RMK AO2 $
14837KMSN MSN20010705030009407/05/01 03:00:31  5-MIN KMSN 050900Z 34006KT 10SM CLR 14/07 A3001 790 61 900 340/06 RMK AO2 $
14837KMSN MSN20010705030509407/05/01 03:05:31  5-MIN KMSN 050905Z 34006KT 10SM CLR 14/07 A3001 780 61 900 340/06 RMK AO2 $
14837KMSN MSN20010705031009407/05/01 03:10:31  5-MIN KMSN 050910Z 34006KT 10SM CLR 14/07 A3001 780 61 900 340/06 RMK AO2 $
14837KMSN MSN20010705031509407/05/01 03:15:31  5-MIN KMSN 050915Z 34005KT 10SM CLR 14/07 A3001 780 64 900 340/05 RMK AO2 $
14837KMSN MSN20010705032009407/05/01 03:20:31  5-MIN KMSN 050920Z 34006KT 10SM CLR 14/07 A3001 780 64 900 340/06 RMK AO2 $
14837KMSN MSN20010705032509407/05/01 03:25:31  5-MIN KMSN 050925Z 35007KT 10SM CLR 14/07 A3002 780 64 900 350/07 RMK AO2 $
14837KMSN MSN20010705033009407/05/01 03:30:31  5-MIN KMSN 050930Z 35006KT 10SM CLR 14/07 A3002 770 64 900 350/06 RMK AO2 $
14837KMSN MSN20010705033509407/05/01 03:35:31  5-MIN KMSN 050935Z 35006KT 10SM CLR 13/07 A3002 770 66 800 350/06 RMK AO2 $
14837KMSN MSN20010705034009407/05/01 03:40:31  5-MIN KMSN 050940Z 35006KT 10SM CLR 13/08 A3002 770 71 700 350/06 RMK AO2 $
14837KMSN MSN20010705034509407/05/01 03:45:31  5-MIN KMSN 050945Z 35006KT 10SM CLR 13/08 A3003 770 71 700 350/06 RMK AO2 $
14837KMSN MSN20010705035011107/05/01 03:50:31  5-MIN KMSN 050950Z 35007KT 10SM CLR 13/08 A3003 770 71 700 350/07 RMK AO2 SLP165 T01280078 $
14837KMSN MSN20010705035509407/05/01 03:55:31  5-MIN KMSN 050955Z 35006KT 10SM CLR 13/08 A3003 760 71 700 350/06 RMK AO2 $
14837KMSN MSN20010705040009407/05/01 04:00:31  5-MIN KMSN 051000Z 35007KT 10SM CLR 12/08 A3003 760 74 600 350/07 RMK AO2 $
14837KMSN MSN20010705040509407/05/01 04:05:31  5-MIN KMSN 051005Z 36007KT 10SM CLR 13/08 A3003 760 71 700 360/07 RMK AO2 $
14837KMSN MSN20010705041009407/05/01 04:10:31  5-MIN KMSN 051010Z 35008KT 10SM CLR 13/08 A3003 760 71 700 350/08 RMK AO2 $
14837KMSN MSN20010705041509407/05/01 04:15:31  5-MIN KMSN 051015Z 35008KT 10SM CLR 13/08 A3004 760 71 700 350/08 RMK AO2 $
14837KMSN MSN20010705042009407/05/01 04:20:31  5-MIN KMSN 051020Z 35007KT 10SM CLR 13/08 A3004 760 71 700 350/07 RMK AO2 $
14837KMSN MSN20010705042509407/05/01 04:25:31  5-MIN KMSN 051025Z 35006KT 10SM CLR 13/08 A3004 760 71 700 340/06 RMK AO2 $
14837KMSN MSN20010705043009407/05/01 04:30:31  5-MIN KMSN 051030Z 35006KT 10SM CLR 13/08 A3004 760 71 700 350/06 RMK AO2 $
14837KMSN MSN20010705043509407/05/01 04:35:31  5-MIN KMSN 051035Z 35006KT 10SM CLR 13/08 A3004 750 74 700 350/06 RMK AO2 $
14837KMSN MSN20010705044009407/05/01 04:40:31  5-MIN KMSN 051040Z 35006KT 10SM CLR 13/08 A3004 750 74 700 350/06 RMK AO2 $
14837KMSN MSN20010705044509407/05/01 04:45:31  5-MIN KMSN 051045Z 34006KT 10SM CLR 13/08 A3004 750 74 700 340/06 RMK AO2 $
14837KMSN MSN20010705045011107/05/01 04:50:31  5-MIN KMSN 051050Z 35005KT 10SM CLR 12/08 A3005 750 77 600 340/05 RMK AO2 SLP171 T01220083 $
14837KMSN MSN20010705045509407/05/01 04:55:31  5-MIN KMSN 051055Z 34006KT 10SM CLR 12/08 A3005 750 77 600 340/06 RMK AO2 $
14837KMSN MSN20010705050009407/05/01 05:00:31  5-MIN KMSN 051100Z 34005KT 10SM CLR 12/08 A3005 740 77 600 340/05 RMK AO2 $
14837KMSN MSN20010705050509407/05/01 05:05:31  5-MIN KMSN 051105Z 34005KT 10SM CLR 12/08 A3006 740 77 600 340/05 RMK AO2 $
14837KMSN MSN20010705051009407/05/01 05:10:31  5-MIN KMSN 051110Z 35006KT 10SM CLR 13/08 A3006 740 74 700 350/06 RMK AO2 $
14837KMSN MSN20010705051509407/05/01 05:15:31  5-MIN KMSN 051115Z 35006KT 10SM CLR 13/08 A3006 740 74 700 350/06 RMK AO2 $
14837KMSN MSN20010705052009407/05/01 05:20:31  5-MIN KMSN 051120Z 36006KT 10SM CLR 13/08 A3006 730 71 700 360/06 RMK AO2 $
14837KMSN MSN20010705052509407/05/01 05:25:31  5-MIN KMSN 051125Z 36005KT 10SM CLR 13/08 A3006 730 71 700 350/05 RMK AO2 $
14837KMSN MSN20010705053009407/05/01 05:30:31  5-MIN KMSN 051130Z 36005KT 10SM CLR 13/08 A3006 730 74 700 360/05 RMK AO2 $
14837KMSN MSN20010705053509407/05/01 05:35:31  5-MIN KMSN 051135Z 36007KT 10SM CLR 13/08 A3006 730 71 700 360/07 RMK AO2 $
14837KMSN MSN20010705054009407/05/01 05:40:31  5-MIN KMSN 051140Z 36007KT 10SM CLR 13/08 A3007 730 71 700 360/07 RMK AO2 $
14837KMSN MSN20010705054509407/05/01 05:45:31  5-MIN KMSN 051145Z 36007KT 10SM CLR 13/08 A3007 730 71 700 360/07 RMK AO2 $
14837KMSN MSN20010705055012907/05/01 05:50:31  5-MIN KMSN 051150Z 35006KT 10SM CLR 13/08 A3007 730 71 700 350/06 RMK AO2 SLP179 T01330083 10167 20122 53006 $
14837KMSN MSN20010705055509407/05/01 05:55:31  5-MIN KMSN 051155Z 35006KT 10SM CLR 14/08 A3007 730 69 800 350/06 RMK AO2 $
14837KMSN MSN20010705060009407/05/01 06:00:31  5-MIN KMSN 051200Z 35006KT 10SM CLR 14/08 A3007 720 69 800 350/06 RMK AO2 $
14837KMSN MSN20010705060509407/05/01 06:05:31  5-MIN KMSN 051205Z 35007KT 10SM CLR 14/08 A3007 720 69 800 350/07 RMK AO2 $
14837KMSN MSN20010705061009407/05/01 06:10:31  5-MIN KMSN 051210Z 36007KT 10SM CLR 14/09 A3008 720 69 900 360/07 RMK AO2 $
14837KMSN MSN20010705061509407/05/01 06:15:31  5-MIN KMSN 051215Z 36007KT 10SM CLR 14/09 A3008 720 69 900 360/07 RMK AO2 $
14837KMSN MSN20010705062009407/05/01 06:20:31  5-MIN KMSN 051220Z 01010KT 10SM CLR 14/08 A3008 720 66 900 010/10 RMK AO2 $
14837KMSN MSN20010705062509407/05/01 06:25:31  5-MIN KMSN 051225Z 01008KT 10SM CLR 14/08 A3008 720 66 900 010/08 RMK AO2 $
14837KMSN MSN20010705063009407/05/01 06:30:31  5-MIN KMSN 051230Z 01009KT 10SM CLR 15/08 A3008 720 64 900 010/09 RMK AO2 $
14837KMSN MSN20010705063509407/05/01 06:35:31  5-MIN KMSN 051235Z 01009KT 10SM CLR 15/08 A3008 720 64 900 010/09 RMK AO2 $
14837KMSN MSN20010705064009407/05/01 06:40:31  5-MIN KMSN 051240Z 36010KT 10SM CLR 15/08 A3008 710 62 900 360/10 RMK AO2 $
14837KMSN MSN20010705064509407/05/01 06:45:31  5-MIN KMSN 051245Z 01012KT 10SM CLR 15/08 A3008 710 62 900 010/12 RMK AO2 $
14837KMSN MSN20010705065011107/05/01 06:50:31  5-MIN KMSN 051250Z 02011KT 10SM CLR 15/08 A3008 720 62 900 020/11 RMK AO2 SLP183 T01500078 $
14837KMSN MSN20010705065509407/05/01 06:55:31  5-MIN KMSN 051255Z 01009KT 10SM CLR 15/08 A3009 710 62 900 010/09 RMK AO2 $
14837KMSN MSN20010705070009407/05/01 07:00:31  5-MIN KMSN 051300Z 03008KT 10SM CLR 15/08 A3009 710 62 900 030/08 RMK AO2 $
14837KMSN MSN20010705070509507/05/01 07:05:31  5-MIN KMSN 051305Z 03009KT 10SM CLR 16/08 A3009 710 62 1000 030/09 RMK AO2 $
14837KMSN MSN20010705071009507/05/01 07:10:31  5-MIN KMSN 051310Z 01008KT 10SM CLR 16/08 A3009 710 59 1000 360/08 RMK AO2 $
14837KMSN MSN20010705071509507/05/01 07:15:31  5-MIN KMSN 051315Z 02010KT 10SM CLR 16/08 A3009 710 62 1000 020/10 RMK AO2 $
14837KMSN MSN20010705072009507/05/01 07:20:31  5-MIN KMSN 051320Z 01009KT 10SM CLR 16/08 A3009 710 59 1000 010/09 RMK AO2 $
14837KMSN MSN20010705072509507/05/01 07:25:31  5-MIN KMSN 051325Z 01009KT 10SM CLR 16/08 A3009 700 62 1000 010/09 RMK AO2 $
14837KMSN MSN20010705073009307/05/01 07:30:31  5-MIN KMSN 051330Z 01010KT 10SM CLR 16/08 A3010 700 62 1000 010/10 RMK AO2
14837KMSN MSN20010705073509307/05/01 07:35:31  5-MIN KMSN 051335Z 03008KT 10SM CLR 16/08 A3010 700 59 1000 030/08 RMK AO2
14837KMSN MSN20010705074009307/05/01 07:40:31  5-MIN KMSN 051340Z 02007KT 10SM CLR 16/08 A3010 700 59 1000 020/07 RMK AO2
14837KMSN MSN20010705074509907/05/01 07:45:31  5-MIN KMSN 051345Z 02011G14KT 10SM CLR 16/08 A3010 700 59 1000 020/11G14 RMK AO2
14837KMSN MSN20010705075011607/05/01 07:50:31  5-MIN KMSN 051350Z 03009G14KT 10SM CLR 16/08 A3010 700 57 1000 030/09G14 RMK AO2 SLP189 T01610078
14837KMSN MSN20010705075509307/05/01 07:55:31  5-MIN KMSN 051355Z 04010KT 10SM CLR 16/07 A3010 700 53 1000 040/10 RMK AO2
14837KMSN MSN20010705080009307/05/01 08:00:31  5-MIN KMSN 051400Z 01010KT 10SM CLR 16/07 A3010 700 55 1000 010/10 RMK AO2
14837KMSN MSN20010705080509307/05/01 08:05:31  5-MIN KMSN 051405Z 01008KT 10SM CLR 16/07 A3010 700 55 1000 360/08 RMK AO2
14837KMSN MSN20010705081009307/05/01 08:10:31  5-MIN KMSN 051410Z 03009KT 10SM CLR 16/07 A3010 700 53 1000 030/09 RMK AO2
14837KMSN MSN20010705081509307/05/01 08:15:31  5-MIN KMSN 051415Z 36008KT 10SM CLR 17/07 A3010 700 51 1100 360/08 RMK AO2
14837KMSN MSN20010705082009307/05/01 08:20:31  5-MIN KMSN 051420Z 36007KT 10SM CLR 17/06 A3010 700 49 1100 360/07 RMK AO2
14837KMSN MSN20010705082509307/05/01 08:25:31  5-MIN KMSN 051425Z 35006KT 10SM CLR 17/06 A3010 700 49 1100 350/06 RMK AO2
14837KMSN MSN20010705083009307/05/01 08:30:31  5-MIN KMSN 051430Z 01006KT 10SM CLR 17/06 A3010 700 46 1200 010/06 RMK AO2
14837KMSN MSN20010705083509307/05/01 08:35:31  5-MIN KMSN 051435Z 34006KT 10SM CLR 17/06 A3010 700 47 1200 340/06 RMK AO2
14837KMSN MSN20010705084009307/05/01 08:40:31  5-MIN KMSN 051440Z VRB04KT 10SM CLR 17/06 A3010 700 47 1200 VRB/04 RMK AO2
14837KMSN MSN20010705084509307/05/01 08:45:31  5-MIN KMSN 051445Z 34007KT 10SM CLR 17/06 A3010 700 47 1200 340/07 RMK AO2
14837KMSN MSN20010705085011607/05/01 08:50:31  5-MIN KMSN 051450Z 01008KT 10SM CLR 17/06 A3010 700 46 1200 010/08 RMK AO2 SLP192 T01720056 51023
14837KMSN MSN20010705085509307/05/01 08:55:31  5-MIN KMSN 051455Z VRB05KT 10SM CLR 17/06 A3010 690 46 1200 VRB/05 RMK AO2
14837KMSN MSN20010705090009307/05/01 09:00:31  5-MIN KMSN 051500Z 34007KT 10SM CLR 18/06 A3011 690 44 1200 340/07 RMK AO2
14837KMSN MSN20010705090509307/05/01 09:05:31  5-MIN KMSN 051505Z 02007KT 10SM CLR 18/06 A3011 690 46 1200 020/07 RMK AO2
14837KMSN MSN20010705091009307/05/01 09:10:31  5-MIN KMSN 051510Z 36007KT 10SM CLR 18/06 A3011 690 46 1200 360/07 RMK AO2
14837KMSN MSN20010705091509307/05/01 09:15:31  5-MIN KMSN 051515Z 33007KT 10SM CLR 18/06 A3012 680 44 1200 330/07 RMK AO2
14837KMSN MSN20010705092009307/05/01 09:20:31  5-MIN KMSN 051520Z 02009KT 10SM CLR 18/06 A3012 680 44 1200 020/09 RMK AO2
14837KMSN MSN20010705092509307/05/01 09:25:31  5-MIN KMSN 051525Z 34005KT 10SM CLR 18/06 A3012 680 44 1300 340/05 RMK AO2
14837KMSN MSN20010705093009307/05/01 09:30:31  5-MIN KMSN 051530Z 02005KT 10SM CLR 18/06 A3011 690 44 1300 020/05 RMK AO2
14837KMSN MSN20010705093509307/05/01 09:35:31  5-MIN KMSN 051535Z 36008KT 10SM CLR 18/06 A3011 690 44 1300 360/08 RMK AO2
14837KMSN MSN20010705094009307/05/01 09:40:31  5-MIN KMSN 051540Z 01008KT 10SM CLR 18/06 A3011 690 44 1300 010/08 RMK AO2
14837KMSN MSN20010705094509307/05/01 09:45:31  5-MIN KMSN 051545Z VRB06KT 10SM CLR 18/07 A3011 690 46 1300 VRB/06 RMK AO2
14837KMSN MSN20010705095011007/05/01 09:50:31  5-MIN KMSN 051550Z 03006KT 10SM CLR 18/07 A3011 690 46 1300 030/06 RMK AO2 SLP195 T01830067
14837KMSN MSN20010705095509307/05/01 09:55:31  5-MIN KMSN 051555Z VRB06KT 10SM CLR 18/06 A3011 690 44 1300 VRB/06 RMK AO2
14837KMSN MSN20010705100009307/05/01 10:00:31  5-MIN KMSN 051600Z 33007KT 10SM CLR 19/06 A3012 680 43 1300 330/07 RMK AO2
14837KMSN MSN20010705100509307/05/01 10:05:31  5-MIN KMSN 051605Z 34008KT 10SM CLR 19/05 A3012 680 39 1300 340/08 RMK AO2
14837KMSN MSN20010705101009307/05/01 10:10:31  5-MIN KMSN 051610Z 35006KT 10SM CLR 19/05 A3012 680 39 1300 350/06 RMK AO2
14837KMSN MSN20010705101509307/05/01 10:15:31  5-MIN KMSN 051615Z 34006KT 10SM CLR 19/05 A3012 680 39 1300 340/06 RMK AO2
14837KMSN MSN20010705102009307/05/01 10:20:31  5-MIN KMSN 051620Z 34005KT 10SM CLR 19/05 A3012 680 39 1300 340/05 RMK AO2
14837KMSN MSN20010705102509307/05/01 10:25:31  5-MIN KMSN 051625Z 02009KT 10SM CLR 19/06 A3012 680 40 1400 020/09 RMK AO2
14837KMSN MSN20010705103009307/05/01 10:30:31  5-MIN KMSN 051630Z 34006KT 10SM CLR 19/06 A3013 670 40 1400 340/06 RMK AO2
14837KMSN MSN20010705103509307/05/01 10:35:31  5-MIN KMSN 051635Z 35007KT 10SM CLR 19/06 A3013 670 40 1400 350/07 RMK AO2
14837KMSN MSN20010705104009307/05/01 10:40:31  5-MIN KMSN 051640Z 02010KT 10SM CLR 19/06 A3013 670 40 1400 020/10 RMK AO2
14837KMSN MSN20010705104509307/05/01 10:45:31  5-MIN KMSN 051645Z 02010KT 10SM CLR 20/06 A3013 680 38 1500 020/10 RMK AO2
14837KMSN MSN20010705105011007/05/01 10:50:31  5-MIN KMSN 051650Z 36009KT 10SM CLR 20/06 A3013 670 40 1500 350/09 RMK AO2 SLP200 T02000061
14837KMSN MSN20010705105509307/05/01 10:55:31  5-MIN KMSN 051655Z 01008KT 10SM CLR 20/06 A3013 680 38 1500 010/08 RMK AO2
14837KMSN MSN20010705110009307/05/01 11:00:31  5-MIN KMSN 051700Z VRB05KT 10SM CLR 19/04 A3013 670 37 1400 VRB/05 RMK AO2
14837KMSN MSN20010705110509307/05/01 11:05:31  5-MIN KMSN 051705Z 01011KT 10SM CLR 20/05 A3012 680 37 1500 010/11 RMK AO2
14837KMSN MSN20010705111010907/05/01 11:10:31  5-MIN KMSN 051710Z 36007KT 330V030 10SM CLR 19/05 A3012 680 38 1400 360/07 330V030 RMK AO2
14837KMSN MSN20010705111509307/05/01 11:15:31  5-MIN KMSN 051715Z 01008KT 10SM CLR 20/05 A3012 680 37 1500 010/08 RMK AO2
14837KMSN MSN20010705112009307/05/01 11:20:31  5-MIN KMSN 051720Z 36008KT 10SM CLR 20/05 A3013 680 37 1500 360/08 RMK AO2
14837KMSN MSN20010705112509307/05/01 11:25:31  5-MIN KMSN 051725Z 36005KT 10SM CLR 20/04 A3012 680 35 1500 360/05 RMK AO2
14837KMSN MSN20010705113009307/05/01 11:30:31  5-MIN KMSN 051730Z 01006KT 10SM CLR 20/05 A3012 680 37 1500 010/06 RMK AO2
14837KMSN MSN20010705113509307/05/01 11:35:31  5-MIN KMSN 051735Z VRB04KT 10SM CLR 20/04 A3013 670 35 1500 VRB/04 RMK AO2
14837KMSN MSN20010705114010907/05/01 11:40:31  5-MIN KMSN 051740Z 01008KT 330V040 10SM CLR 20/04 A3013 680 35 1500 010/08 330V040 RMK AO2
14837KMSN MSN20010705114509307/05/01 11:45:31  5-MIN KMSN 051745Z 28007KT 10SM CLR 20/05 A3012 680 37 1500 280/07 RMK AO2
14837KMSN MSN20010705115012807/05/01 11:50:31  5-MIN KMSN 051750Z 20005KT 10SM CLR 19/04 A3012 680 35 1400 200/05 RMK AO2 SLP198 T01940039 10206 20139 51011
14837KMSN MSN20010705115509307/05/01 11:55:31  5-MIN KMSN 051755Z VRB06KT 10SM CLR 20/04 A3012 680 35 1500 VRB/06 RMK AO2
14837KMSN MSN20010705120009307/05/01 12:00:31  5-MIN KMSN 051800Z VRB05KT 10SM CLR 20/04 A3012 680 35 1500 VRB/05 RMK AO2
14837KMSN MSN20010705120509307/05/01 12:05:31  5-MIN KMSN 051805Z VRB03KT 10SM CLR 21/04 A3012 680 34 1500 VRB/03 RMK AO2
14837KMSN MSN20010705121009307/05/01 12:10:31  5-MIN KMSN 051810Z VRB05KT 10SM CLR 21/05 A3012 680 35 1500 VRB/05 RMK AO2
14837KMSN MSN20010705121509307/05/01 12:15:31  5-MIN KMSN 051815Z VRB05KT 10SM CLR 21/06 A3012 680 37 1500 VRB/05 RMK AO2
14837KMSN MSN20010705122009307/05/01 12:20:31  5-MIN KMSN 051820Z VRB04KT 10SM CLR 21/06 A3011 690 37 1600 VRB/04 RMK AO2
14837KMSN MSN20010705122509307/05/01 12:25:31  5-MIN KMSN 051825Z VRB06KT 10SM CLR 21/06 A3012 680 36 1600 VRB/06 RMK AO2
14837KMSN MSN20010705123009307/05/01 12:30:31  5-MIN KMSN 051830Z 30006KT 10SM CLR 21/06 A3012 680 36 1600 300/06 RMK AO2
14837KMSN MSN20010705123509307/05/01 12:35:31  5-MIN KMSN 051835Z VRB05KT 10SM CLR 21/05 A3012 680 35 1500 VRB/05 RMK AO2
14837KMSN MSN20010705124009307/05/01 12:40:31  5-MIN KMSN 051840Z 33008KT 10SM CLR 21/05 A3012 680 35 1500 330/08 RMK AO2
14837KMSN MSN20010705124509307/05/01 12:45:31  5-MIN KMSN 051845Z VRB06KT 10SM CLR 21/05 A3012 680 35 1500 VRB/06 RMK AO2
14837KMSN MSN20010705125011007/05/01 12:50:31  5-MIN KMSN 051850Z VRB06KT 10SM CLR 21/06 A3011 690 36 1600 VRB/06 RMK AO2 SLP194 T02110056
14837KMSN MSN20010705125509307/05/01 12:55:31  5-MIN KMSN 051855Z VRB05KT 10SM CLR 22/06 A3011 690 34 1700 VRB/05 RMK AO2
14837KMSN MSN20010705130010907/05/01 13:00:31  5-MIN KMSN 051900Z 33007KT 290V360 10SM CLR 22/05 A3011 690 33 1700 330/07 290V360 RMK AO2
14837KMSN MSN20010705130510907/05/01 13:05:31  5-MIN KMSN 051905Z 34007KT 300V010 10SM CLR 21/04 A3011 690 32 1600 340/07 300V010 RMK AO2
14837KMSN MSN20010705131009307/05/01 13:10:31  5-MIN KMSN 051910Z VRB05KT 10SM CLR 21/03 A3011 690 30 1600 VRB/05 RMK AO2
14837KMSN MSN20010705131509307/05/01 13:15:31  5-MIN KMSN 051915Z VRB06KT 10SM CLR 22/06 A3011 690 34 1700 VRB/06 RMK AO2
14837KMSN MSN20010705132009307/05/01 13:20:31  5-MIN KMSN 051920Z VRB06KT 10SM CLR 21/04 A3011 690 32 1600 VRB/06 RMK AO2
14837KMSN MSN20010705132509307/05/01 13:25:31  5-MIN KMSN 051925Z VRB04KT 10SM CLR 22/04 A3011 690 31 1700 VRB/04 RMK AO2
14837KMSN MSN20010705133009307/05/01 13:30:31  5-MIN KMSN 051930Z VRB05KT 10SM CLR 22/04 A3010 690 31 1700 VRB/05 RMK AO2
14837KMSN MSN20010705133509307/05/01 13:35:31  5-MIN KMSN 051935Z VRB06KT 10SM CLR 22/04 A3010 700 31 1700 VRB/06 RMK AO2
14837KMSN MSN20010705134009307/05/01 13:40:31  5-MIN KMSN 051940Z 24003KT 10SM CLR 21/03 A3010 700 30 1600 240/03 RMK AO2
14837KMSN MSN20010705134509307/05/01 13:45:31  5-MIN KMSN 051945Z 01006KT 10SM CLR 22/04 A3010 700 31 1700 010/06 RMK AO2
14837KMSN MSN20010705135012607/05/01 13:50:31  5-MIN KMSN 051950Z 01007KT 320V030 10SM CLR 22/04 A3010 700 31 1700 360/07 320V030 RMK AO2 SLP189 T02170039
14837KMSN MSN20010705135509307/05/01 13:55:31  5-MIN KMSN 051955Z VRB06KT 10SM CLR 22/04 A3009 710 31 1700 VRB/06 RMK AO2
14837KMSN MSN20010705140009307/05/01 14:00:31  5-MIN KMSN 052000Z VRB06KT 10SM CLR 22/04 A3009 710 32 1700 VRB/06 RMK AO2
14837KMSN MSN20010705140509307/05/01 14:05:31  5-MIN KMSN 052005Z 35005KT 10SM CLR 22/04 A3009 710 32 1700 350/05 RMK AO2
14837KMSN MSN20010705141009307/05/01 14:10:31  5-MIN KMSN 052010Z VRB03KT 10SM CLR 22/05 A3008 710 33 1700 VRB/03 RMK AO2
14837KMSN MSN20010705141509307/05/01 14:15:31  5-MIN KMSN 052015Z VRB04KT 10SM CLR 22/04 A3008 720 32 1700 VRB/04 RMK AO2
14837KMSN MSN20010705142009307/05/01 14:20:31  5-MIN KMSN 052020Z VRB04KT 10SM CLR 22/05 A3008 720 33 1700 VRB/04 RMK AO2
14837KMSN MSN20010705142509307/05/01 14:25:31  5-MIN KMSN 052025Z VRB03KT 10SM CLR 22/05 A3008 720 32 1800 VRB/03 RMK AO2
14837KMSN MSN20010705143009307/05/01 14:30:31  5-MIN KMSN 052030Z VRB05KT 10SM CLR 23/06 A3008 720 33 1800 VRB/05 RMK AO2
14837KMSN MSN20010705143509307/05/01 14:35:31  5-MIN KMSN 052035Z VRB03KT 10SM CLR 22/05 A3008 720 33 1700 VRB/03 RMK AO2
14837KMSN MSN20010705144009307/05/01 14:40:31  5-MIN KMSN 052040Z 01005KT 10SM CLR 22/06 A3008 720 33 1800 010/05 RMK AO2
14837KMSN MSN20010705144509307/05/01 14:45:31  5-MIN KMSN 052045Z 36005KT 10SM CLR 22/06 A3008 720 33 1800 360/05 RMK AO2
14837KMSN MSN20010705145011607/05/01 14:50:31  5-MIN KMSN 052050Z VRB05KT 10SM CLR 22/06 A3008 720 33 1800 VRB/05 RMK AO2 SLP184 T02220056 50006
14837KMSN MSN20010705145509307/05/01 14:55:31  5-MIN KMSN 052055Z VRB03KT 10SM CLR 22/06 A3008 720 33 1800 VRB/03 RMK AO2
14837KMSN MSN20010705150009307/05/01 15:00:31  5-MIN KMSN 052100Z 36005KT 10SM CLR 22/06 A3008 720 35 1800 360/05 RMK AO2
14837KMSN MSN20010705150509307/05/01 15:05:31  5-MIN KMSN 052105Z VRB05KT 10SM CLR 22/06 A3008 720 33 1800 VRB/05 RMK AO2
14837KMSN MSN20010705151009307/05/01 15:10:31  5-MIN KMSN 052110Z VRB05KT 10SM CLR 22/06 A3008 720 35 1800 VRB/05 RMK AO2
14837KMSN MSN20010705151509307/05/01 15:15:31  5-MIN KMSN 052115Z VRB05KT 10SM CLR 23/06 A3008 720 32 1800 VRB/05 RMK AO2
14837KMSN MSN20010705152009307/05/01 15:20:31  5-MIN KMSN 052120Z VRB03KT 10SM CLR 23/06 A3008 720 33 1800 VRB/03 RMK AO2
14837KMSN MSN20010705152509307/05/01 15:25:31  5-MIN KMSN 052125Z 31006KT 10SM CLR 23/05 A3008 720 31 1800 310/06 RMK AO2
14837KMSN MSN20010705153009307/05/01 15:30:31  5-MIN KMSN 052130Z 28005KT 10SM CLR 22/05 A3008 720 32 1800 280/05 RMK AO2
14837KMSN MSN20010705153509307/05/01 15:35:31  5-MIN KMSN 052135Z VRB04KT 10SM CLR 22/04 A3008 720 31 1800 VRB/04 RMK AO2
14837KMSN MSN20010705154009307/05/01 15:40:31  5-MIN KMSN 052140Z 34004KT 10SM CLR 22/04 A3008 720 30 1800 340/04 RMK AO2
14837KMSN MSN20010705154509307/05/01 15:45:31  5-MIN KMSN 052145Z 00000KT 10SM CLR 22/04 A3007 720 31 1800 000/00 RMK AO2
14837KMSN MSN20010705155011007/05/01 15:50:31  5-MIN KMSN 052150Z VRB06KT 10SM CLR 23/04 A3007 720 30 1800 VRB/06 RMK AO2 SLP182 T02280044
14837KMSN MSN20010705155509307/05/01 15:55:31  5-MIN KMSN 052155Z 33004KT 10SM CLR 22/04 A3007 730 31 1800 330/04 RMK AO2
14837KMSN MSN20010705160009307/05/01 16:00:31  5-MIN KMSN 052200Z VRB06KT 10SM CLR 23/06 A3007 730 32 1800 VRB/06 RMK AO2
14837KMSN MSN20010705160509307/05/01 16:05:31  5-MIN KMSN 052205Z 29005KT 10SM CLR 22/05 A3007 730 32 1800 290/05 RMK AO2
14837KMSN MSN20010705161009307/05/01 16:10:31  5-MIN KMSN 052210Z VRB04KT 10SM CLR 22/05 A3007 730 32 1800 VRB/04 RMK AO2
14837KMSN MSN20010705161509307/05/01 16:15:31  5-MIN KMSN 052215Z VRB03KT 10SM CLR 22/05 A3007 730 32 1800 VRB/03 RMK AO2
14837KMSN MSN20010705162009307/05/01 16:20:31  5-MIN KMSN 052220Z VRB04KT 10SM CLR 22/05 A3007 730 32 1800 VRB/04 RMK AO2
14837KMSN MSN20010705162509307/05/01 16:25:31  5-MIN KMSN 052225Z 31007KT 10SM CLR 23/06 A3007 730 32 1800 310/07 RMK AO2
14837KMSN MSN20010705163009307/05/01 16:30:31  5-MIN KMSN 052230Z VRB06KT 10SM CLR 23/06 A3007 730 33 1800 VRB/06 RMK AO2
14837KMSN MSN20010705163509307/05/01 16:35:31  5-MIN KMSN 052235Z 34005KT 10SM CLR 23/06 A3007 730 33 1800 330/05 RMK AO2
14837KMSN MSN20010705164009307/05/01 16:40:31  5-MIN KMSN 052240Z 31005KT 10SM CLR 22/06 A3007 730 33 1800 310/05 RMK AO2
14837KMSN MSN20010705164509307/05/01 16:45:31  5-MIN KMSN 052245Z VRB04KT 10SM CLR 22/06 A3006 730 35 1800 VRB/04 RMK AO2
14837KMSN MSN20010705165011007/05/01 16:50:31  5-MIN KMSN 052250Z 29005KT 10SM CLR 22/06 A3006 730 35 1800 290/05 RMK AO2 SLP179 T02220061
14837KMSN MSN20010705165509307/05/01 16:55:31  5-MIN KMSN 052255Z 34005KT 10SM CLR 22/06 A3006 730 35 1800 340/05 RMK AO2
14837KMSN MSN20010705170009307/05/01 17:00:31  5-MIN KMSN 052300Z VRB03KT 10SM CLR 22/06 A3006 740 35 1800 VRB/03 RMK AO2
14837KMSN MSN20010705170509307/05/01 17:05:31  5-MIN KMSN 052305Z VRB03KT 10SM CLR 22/05 A3006 740 32 1800 VRB/03 RMK AO2
14837KMSN MSN20010705171009307/05/01 17:10:31  5-MIN KMSN 052310Z 30006KT 10SM CLR 22/05 A3006 730 32 1800 300/06 RMK AO2
14837KMSN MSN20010705171509307/05/01 17:15:31  5-MIN KMSN 052315Z 32006KT 10SM CLR 22/05 A3006 740 32 1800 320/06 RMK AO2
14837KMSN MSN20010705172009307/05/01 17:20:31  5-MIN KMSN 052320Z 32005KT 10SM CLR 22/05 A3006 740 32 1800 320/05 RMK AO2
14837KMSN MSN20010705172509307/05/01 17:25:31  5-MIN KMSN 052325Z VRB04KT 10SM CLR 22/06 A3006 740 33 1800 VRB/04 RMK AO2
14837KMSN MSN20010705173009307/05/01 17:30:31  5-MIN KMSN 052330Z 33006KT 10SM CLR 22/05 A3006 740 32 1800 330/06 RMK AO2
14837KMSN MSN20010705173509307/05/01 17:35:31  5-MIN KMSN 052335Z VRB04KT 10SM CLR 22/06 A3006 740 33 1800 VRB/04 RMK AO2
14837KMSN MSN20010705174009307/05/01 17:40:31  5-MIN KMSN 052340Z 32004KT 10SM CLR 22/06 A3006 740 35 1800 320/04 RMK AO2
14837KMSN MSN20010705174509307/05/01 17:45:31  5-MIN KMSN 052345Z 32004KT 10SM CLR 22/06 A3006 740 33 1800 310/04 RMK AO2
14837KMSN MSN20010705175012807/05/01 17:50:31  5-MIN KMSN 052350Z VRB05KT 10SM CLR 22/06 A3006 740 34 1700 VRB/05 RMK AO2 SLP176 T02170056 10228 20200 58014
14837KMSN MSN20010705175509307/05/01 17:55:31  5-MIN KMSN 052355Z 28005KT 10SM CLR 22/06 A3006 740 34 1700 280/05 RMK AO2
14837KMSN MSN20010705180009307/05/01 18:00:31  5-MIN KMSN 060000Z 30005KT 10SM CLR 22/06 A3005 740 34 1700 300/05 RMK AO2
14837KMSN MSN20010705180509307/05/01 18:05:31  5-MIN KMSN 060005Z 32004KT 10SM CLR 21/06 A3005 740 36 1700 320/04 RMK AO2
14837KMSN MSN20010705181009307/05/01 18:10:31  5-MIN KMSN 060010Z 32003KT 10SM CLR 21/06 A3006 740 37 1700 320/03 RMK AO2
14837KMSN MSN20010705181509307/05/01 18:15:31  5-MIN KMSN 060015Z 32007KT 10SM CLR 21/06 A3006 740 37 1700 320/07 RMK AO2
14837KMSN MSN20010705182009307/05/01 18:20:31  5-MIN KMSN 060020Z 33004KT 10SM CLR 21/06 A3006 740 37 1700 330/04 RMK AO2
14837KMSN MSN20010705182509307/05/01 18:25:31  5-MIN KMSN 060025Z 31005KT 10SM CLR 21/06 A3006 740 37 1700 310/05 RMK AO2
14837KMSN MSN20010705183009307/05/01 18:30:31  5-MIN KMSN 060030Z 33003KT 10SM CLR 21/06 A3006 740 38 1600 330/03 RMK AO2
14837KMSN MSN20010705183509307/05/01 18:35:31  5-MIN KMSN 060035Z 33004KT 10SM CLR 21/07 A3006 740 38 1700 330/04 RMK AO2
14837KMSN MSN20010705184009307/05/01 18:40:31  5-MIN KMSN 060040Z 33005KT 10SM CLR 21/07 A3006 740 40 1600 330/05 RMK AO2
14837KMSN MSN20010705184509307/05/01 18:45:31  5-MIN KMSN 060045Z 34005KT 10SM CLR 20/06 A3006 740 40 1500 340/05 RMK AO2
14837KMSN MSN20010705185011007/05/01 18:50:31  5-MIN KMSN 060050Z 33004KT 10SM CLR 20/07 A3006 740 41 1500 330/04 RMK AO2 SLP176 T02000067
14837KMSN MSN20010705185509307/05/01 18:55:31  5-MIN KMSN 060055Z 33003KT 10SM CLR 19/07 A3005 740 44 1500 330/03 RMK AO2
14837KMSN MSN20010705190009307/05/01 19:00:31  5-MIN KMSN 060100Z 34004KT 10SM CLR 19/08 A3005 740 48 1400 340/04 RMK AO2
14837KMSN MSN20010705190509307/05/01 19:05:31  5-MIN KMSN 060105Z 34003KT 10SM CLR 18/08 A3005 740 52 1300 340/03 RMK AO2
14837KMSN MSN20010705191009307/05/01 19:10:31  5-MIN KMSN 060110Z 34003KT 10SM CLR 18/08 A3005 740 53 1300 340/03 RMK AO2
14837KMSN MSN20010705191509307/05/01 19:15:31  5-MIN KMSN 060115Z 00000KT 10SM CLR 17/08 A3005 740 55 1200 000/00 RMK AO2
14837KMSN MSN20010705192009307/05/01 19:20:31  5-MIN KMSN 060120Z 34003KT 10SM CLR 17/08 A3005 740 55 1200 340/03 RMK AO2
14837KMSN MSN20010705192509307/05/01 19:25:31  5-MIN KMSN 060125Z 00000KT 10SM CLR 17/08 A3005 740 55 1200 000/00 RMK AO2
14837KMSN MSN20010705193009307/05/01 19:30:31  5-MIN KMSN 060130Z 33003KT 10SM CLR 16/08 A3005 740 57 1100 330/03 RMK AO2
14837KMSN MSN20010705193509307/05/01 19:35:31  5-MIN KMSN 060135Z 00000KT 10SM CLR 16/08 A3005 750 59 1000 000/00 RMK AO2
14837KMSN MSN20010705194009307/05/01 19:40:31  5-MIN KMSN 060140Z 00000KT 10SM CLR 16/08 A3005 750 59 1000 000/00 RMK AO2
14837KMSN MSN20010705194509307/05/01 19:45:31  5-MIN KMSN 060145Z 00000KT 10SM CLR 16/08 A3005 750 59 1000 000/00 RMK AO2
14837KMSN MSN20010705195011007/05/01 19:50:31  5-MIN KMSN 060150Z 00000KT 10SM CLR 15/08 A3005 750 64 1000 000/00 RMK AO2 SLP175 T01500083
14837KMSN MSN20010705195509307/05/01 19:55:31  5-MIN KMSN 060155Z 00000KT 10SM CLR 15/08 A3005 750 62 1000 000/00 RMK AO2
14837KMSN MSN20010705200009207/05/01 20:00:31  5-MIN KMSN 060200Z 00000KT 10SM CLR 14/08 A3005 740 64 900 000/00 RMK AO2
14837KMSN MSN20010705200509207/05/01 20:05:31  5-MIN KMSN 060205Z 00000KT 10SM CLR 14/08 A3005 740 66 900 000/00 RMK AO2
14837KMSN MSN20010705201009207/05/01 20:10:31  5-MIN KMSN 060210Z 00000KT 10SM CLR 14/08 A3005 740 69 800 000/00 RMK AO2
14837KMSN MSN20010705201509207/05/01 20:15:31  5-MIN KMSN 060215Z 00000KT 10SM CLR 14/08 A3005 740 66 800 000/00 RMK AO2
14837KMSN MSN20010705202009207/05/01 20:20:31  5-MIN KMSN 060220Z 00000KT 10SM CLR 14/08 A3006 740 69 800 000/00 RMK AO2
14837KMSN MSN20010705202509207/05/01 20:25:31  5-MIN KMSN 060225Z 00000KT 10SM CLR 13/08 A3006 740 71 800 000/00 RMK AO2
14837KMSN MSN20010705203009207/05/01 20:30:31  5-MIN KMSN 060230Z 00000KT 10SM CLR 13/09 A3006 730 74 700 000/00 RMK AO2
14837KMSN MSN20010705203509207/05/01 20:35:31  5-MIN KMSN 060235Z 00000KT 10SM CLR 13/09 A3006 730 74 700 000/00 RMK AO2
14837KMSN MSN20010705204009207/05/01 20:40:31  5-MIN KMSN 060240Z 00000KT 10SM CLR 13/09 A3006 730 74 700 000/00 RMK AO2
14837KMSN MSN20010705204509207/05/01 20:45:31  5-MIN KMSN 060245Z 00000KT 10SM CLR 13/08 A3007 730 71 700 000/00 RMK AO2
14837KMSN MSN20010705205011507/05/01 20:50:31  5-MIN KMSN 060250Z 00000KT 10SM CLR 13/08 A3007 730 74 700 000/00 RMK AO2 SLP182 T01280083 56007
14837KMSN MSN20010705205509207/05/01 20:55:31  5-MIN KMSN 060255Z 00000KT 10SM CLR 13/08 A3007 720 74 700 000/00 RMK AO2
14837KMSN MSN20010705210009207/05/01 21:00:31  5-MIN KMSN 060300Z 00000KT 10SM CLR 13/08 A3008 720 74 700 000/00 RMK AO2
14837KMSN MSN20010705210509207/05/01 21:05:31  5-MIN KMSN 060305Z 00000KT 10SM CLR 13/08 A3008 720 74 700 000/00 RMK AO2
14837KMSN MSN20010705211009207/05/01 21:10:31  5-MIN KMSN 060310Z 00000KT 10SM CLR 13/08 A3008 720 71 700 000/00 RMK AO2
14837KMSN MSN20010705211509207/05/01 21:15:31  5-MIN KMSN 060315Z 00000KT 10SM CLR 12/08 A3008 720 77 600 000/00 RMK AO2
14837KMSN MSN20010705212009207/05/01 21:20:31  5-MIN KMSN 060320Z 00000KT 10SM CLR 12/08 A3008 720 77 600 000/00 RMK AO2
14837KMSN MSN20010705212509207/05/01 21:25:31  5-MIN KMSN 060325Z 00000KT 10SM CLR 13/07 A3008 720 69 700 000/00 RMK AO2
14837KMSN MSN20010705213009207/05/01 21:30:31  5-MIN KMSN 060330Z 00000KT 10SM CLR 13/07 A3008 720 69 700 000/00 RMK AO2
14837KMSN MSN20010705213509207/05/01 21:35:31  5-MIN KMSN 060335Z 00000KT 10SM CLR 13/07 A3008 720 69 700 000/00 RMK AO2
14837KMSN MSN20010705214009207/05/01 21:40:31  5-MIN KMSN 060340Z 00000KT 10SM CLR 12/08 A3008 710 74 600 000/00 RMK AO2
14837KMSN MSN20010705214509207/05/01 21:45:31  5-MIN KMSN 060345Z 00000KT 10SM CLR 13/07 A3008 710 69 700 000/00 RMK AO2
14837KMSN MSN20010705215010907/05/01 21:50:31  5-MIN KMSN 060350Z 00000KT 10SM CLR 12/07 A3008 710 71 600 000/00 RMK AO2 SLP187 T01220072
14837KMSN MSN20010705215509207/05/01 21:55:31  5-MIN KMSN 060355Z 00000KT 10SM CLR 12/07 A3008 710 74 500 000/00 RMK AO2
14837KMSN MSN20010705220009207/05/01 22:00:31  5-MIN KMSN 060400Z 00000KT 10SM CLR 12/07 A3009 710 71 500 000/00 RMK AO2
14837KMSN MSN20010705220509207/05/01 22:05:31  5-MIN KMSN 060405Z 00000KT 10SM CLR 11/07 A3009 710 77 500 000/00 RMK AO2
14837KMSN MSN20010705221009207/05/01 22:10:31  5-MIN KMSN 060410Z 00000KT 10SM CLR 12/08 A3009 710 77 500 000/00 RMK AO2
14837KMSN MSN20010705221509207/05/01 22:15:31  5-MIN KMSN 060415Z 00000KT 10SM CLR 12/08 A3009 710 77 500 000/00 RMK AO2
14837KMSN MSN20010705222009207/05/01 22:20:31  5-MIN KMSN 060420Z 00000KT 10SM CLR 11/08 A3009 710 80 500 000/00 RMK AO2
14837KMSN MSN20010705222509207/05/01 22:25:31  5-MIN KMSN 060425Z 00000KT 10SM CLR 11/08 A3009 710 80 500 000/00 RMK AO2
14837KMSN MSN20010705223009207/05/01 22:30:31  5-MIN KMSN 060430Z 00000KT 10SM CLR 11/08 A3009 710 83 400 000/00 RMK AO2
14837KMSN MSN20010705223509207/05/01 22:35:31  5-MIN KMSN 060435Z 00000KT 10SM CLR 11/08 A3009 700 83 400 000/00 RMK AO2
14837KMSN MSN20010705224009207/05/01 22:40:31  5-MIN KMSN 060440Z 00000KT 10SM CLR 11/08 A3009 700 83 400 000/00 RMK AO2
14837KMSN MSN20010705224509207/05/01 22:45:31  5-MIN KMSN 060445Z 00000KT 10SM CLR 11/08 A3010 700 80 400 000/00 RMK AO2
14837KMSN MSN20010705225010907/05/01 22:50:31  5-MIN KMSN 060450Z 00000KT 10SM CLR 11/08 A3010 700 83 400 000/00 RMK AO2 SLP192 T01110083
14837KMSN MSN20010705225509207/05/01 22:55:31  5-MIN KMSN 060455Z 00000KT 10SM CLR 11/08 A3010 700 80 400 000/00 RMK AO2
14837KMSN MSN20010705230009207/05/01 23:00:31  5-MIN KMSN 060500Z 00000KT 10SM CLR 11/08 A3010 700 80 400 000/00 RMK AO2
14837KMSN MSN20010705230509207/05/01 23:05:31  5-MIN KMSN 060505Z 00000KT 10SM CLR 11/08 A3010 700 83 400 000/00 RMK AO2
14837KMSN MSN20010705231009207/05/01 23:10:31  5-MIN KMSN 060510Z 00000KT 10SM CLR 11/07 A3009 700 77 400 000/00 RMK AO2
14837KMSN MSN20010705231509207/05/01 23:15:31  5-MIN KMSN 060515Z 00000KT 10SM CLR 11/07 A3009 700 77 400 000/00 RMK AO2
14837KMSN MSN20010705232009207/05/01 23:20:31  5-MIN KMSN 060520Z 00000KT 10SM CLR 12/07 A3009 710 74 500 000/00 RMK AO2
14837KMSN MSN20010705232509207/05/01 23:25:31  5-MIN KMSN 060525Z 00000KT 10SM CLR 11/08 A3009 710 80 500 000/00 RMK AO2
14837KMSN MSN20010705233009207/05/01 23:30:31  5-MIN KMSN 060530Z 00000KT 10SM CLR 11/08 A3009 710 83 400 000/00 RMK AO2
14837KMSN MSN20010705233509207/05/01 23:35:31  5-MIN KMSN 060535Z 00000KT 10SM CLR 11/07 A3009 710 80 400 000/00 RMK AO2
14837KMSN MSN20010705234009207/05/01 23:40:31  5-MIN KMSN 060540Z 00000KT 10SM CLR 11/07 A3009 710 80 400 000/00 RMK AO2
14837KMSN MSN20010705234509207/05/01 23:45:31  5-MIN KMSN 060545Z 00000KT 10SM CLR 10/07 A3009 710 83 300 000/00 RMK AO2
14837KMSN MSN20010705235013707/05/01 23:50:31  5-MIN KMSN 060550Z 00000KT 10SM CLR 10/08 A3010 700 86 300 000/00 RMK AO2 SLP191 T01000078 10217 20100 402280100 53004
14837KMSN MSN20010705235509207/05/01 23:55:31  5-MIN KMSN 060555Z 00000KT 10SM CLR 10/08 A3009 700 86 300 000/00 RMK AO2
14837KMSN MSN20010706000009207/06/01 00:00:31  5-MIN KMSN 060600Z 00000KT 10SM CLR 10/07 A3009 710 83 300 000/00 RMK AO2
14837KMSN MSN20010706000509207/06/01 00:05:31  5-MIN KMSN 060605Z 00000KT 10SM CLR 10/07 A3009 700 83 300 000/00 RMK AO2
14837KMSN MSN20010706001009207/06/01 00:10:31  5-MIN KMSN 060610Z 00000KT 10SM CLR 10/07 A3009 710 83 300 000/00 RMK AO2
14837KMSN MSN20010706001509207/06/01 00:15:31  5-MIN KMSN 060615Z 00000KT 10SM CLR 10/07 A3009 710 83 300 000/00 RMK AO2
14837KMSN MSN20010706002009207/06/01 00:20:31  5-MIN KMSN 060620Z 00000KT 10SM CLR 10/07 A3009 710 83 300 000/00 RMK AO2
14837KMSN MSN20010706002509207/06/01 00:25:31  5-MIN KMSN 060625Z 00000KT 10SM CLR 11/07 A3009 710 80 400 000/00 RMK AO2
14837KMSN MSN20010706003009207/06/01 00:30:31  5-MIN KMSN 060630Z 00000KT 10SM CLR 10/08 A3008 710 86 300 000/00 RMK AO2
14837KMSN MSN20010706003509207/06/01 00:35:31  5-MIN KMSN 060635Z 00000KT 10SM CLR 10/08 A3009 710 86 300 000/00 RMK AO2
14837KMSN MSN20010706004009207/06/01 00:40:31  5-MIN KMSN 060640Z 00000KT 10SM CLR 10/07 A3008 710 83 300 000/00 RMK AO2
14837KMSN MSN20010706004509207/06/01 00:45:31  5-MIN KMSN 060645Z 00000KT 10SM CLR 10/07 A3009 710 83 300 000/00 RMK AO2
14837KMSN MSN20010706005010907/06/01 00:50:31  5-MIN KMSN 060650Z 00000KT 10SM CLR 09/07 A3009 710 86 300 000/00 RMK AO2 SLP188 T00940072
14837KMSN MSN20010706005509207/06/01 00:55:31  5-MIN KMSN 060655Z 00000KT 10SM CLR 09/08 A3008 710 89 300 000/00 RMK AO2
14837KMSN MSN20010706010009207/06/01 01:00:31  5-MIN KMSN 060700Z 00000KT 10SM CLR 09/08 A3008 710 89 300 000/00 RMK AO2
14837KMSN MSN20010706010509207/06/01 01:05:31  5-MIN KMSN 060705Z 00000KT 10SM CLR 09/07 A3009 710 89 200 000/00 RMK AO2
14837KMSN MSN20010706011009207/06/01 01:10:31  5-MIN KMSN 060710Z 00000KT 10SM CLR 09/07 A3008 710 89 200 000/00 RMK AO2
14837KMSN MSN20010706011509207/06/01 01:15:31  5-MIN KMSN 060715Z 00000KT 10SM CLR 09/07 A3008 710 89 200 000/00 RMK AO2
14837KMSN MSN20010706012009207/06/01 01:20:31  5-MIN KMSN 060720Z 00000KT 10SM CLR 09/08 A3008 710 89 300 000/00 RMK AO2
14837KMSN MSN20010706012509207/06/01 01:25:31  5-MIN KMSN 060725Z 00000KT 10SM CLR 09/08 A3008 710 89 300 000/00 RMK AO2
14837KMSN MSN20010706013009207/06/01 01:30:31  5-MIN KMSN 060730Z 00000KT 10SM CLR 09/08 A3008 720 89 300 000/00 RMK AO2
14837KMSN MSN20010706013509207/06/01 01:35:31  5-MIN KMSN 060735Z 00000KT 10SM CLR 09/08 A3008 720 93 200 000/00 RMK AO2
14837KMSN MSN20010706014009207/06/01 01:40:31  5-MIN KMSN 060740Z 00000KT 10SM CLR 09/07 A3008 720 89 200 000/00 RMK AO2
14837KMSN MSN20010706014509207/06/01 01:45:31  5-MIN KMSN 060745Z 00000KT 10SM CLR 09/08 A3008 720 89 300 000/00 RMK AO2
14837KMSN MSN20010706015010907/06/01 01:50:31  5-MIN KMSN 060750Z 00000KT 10SM CLR 09/07 A3008 720 89 200 000/00 RMK AO2 SLP186 T00890072
14837KMSN MSN20010706015509207/06/01 01:55:31  5-MIN KMSN 060755Z 00000KT 10SM CLR 09/07 A3008 720 89 200 000/00 RMK AO2
14837KMSN MSN20010706020009207/06/01 02:00:31  5-MIN KMSN 060800Z 00000KT 10SM CLR 09/07 A3008 720 89 200 000/00 RMK AO2
14837KMSN MSN20010706020509207/06/01 02:05:31  5-MIN KMSN 060805Z 00000KT 10SM CLR 09/07 A3008 720 89 200 000/00 RMK AO2
14837KMSN MSN20010706021009207/06/01 02:10:31  5-MIN KMSN 060810Z 00000KT 10SM CLR 08/07 A3008 720 93 100 000/00 RMK AO2
14837KMSN MSN20010706021509207/06/01 02:15:31  5-MIN KMSN 060815Z 00000KT 10SM CLR 09/07 A3008 720 89 200 000/00 RMK AO2
14837KMSN MSN20010706022009207/06/01 02:20:31  5-MIN KMSN 060820Z 00000KT 10SM CLR 08/07 A3008 720 93 100 000/00 RMK AO2
14837KMSN MSN20010706022509207/06/01 02:25:31  5-MIN KMSN 060825Z 00000KT 10SM CLR 08/07 A3008 720 93 100 000/00 RMK AO2
14837KMSN MSN20010706023009207/06/01 02:30:31  5-MIN KMSN 060830Z 00000KT 10SM CLR 08/07 A3008 720 93 100 000/00 RMK AO2
14837KMSN MSN20010706023509207/06/01 02:35:31  5-MIN KMSN 060835Z 00000KT 10SM CLR 08/07 A3008 720 93 100 000/00 RMK AO2
14837KMSN MSN20010706024009207/06/01 02:40:31  5-MIN KMSN 060840Z 00000KT 10SM CLR 09/08 A3008 720 93 200 000/00 RMK AO2
14837KMSN MSN20010706024509207/06/01 02:45:31  5-MIN KMSN 060845Z 00000KT 10SM CLR 08/07 A3008 720 93 100 000/00 RMK AO2
14837KMSN MSN20010706025011507/06/01 02:50:31  5-MIN KMSN 060850Z 00000KT 10SM CLR 09/08 A3009 710 93 200 000/00 RMK AO2 SLP188 T00890078 50008
14837KMSN MSN20010706025509207/06/01 02:55:31  5-MIN KMSN 060855Z 00000KT 10SM CLR 09/08 A3008 710 93 200 000/00 RMK AO2
14837KMSN MSN20010706030009207/06/01 03:00:31  5-MIN KMSN 060900Z 00000KT 10SM CLR 09/08 A3008 710 93 200 000/00 RMK AO2
14837KMSN MSN20010706030509207/06/01 03:05:31  5-MIN KMSN 060905Z 00000KT 10SM CLR 08/07 A3009 710 93 100 000/00 RMK AO2
14837KMSN MSN20010706031009207/06/01 03:10:31  5-MIN KMSN 060910Z 00000KT 10SM CLR 08/07 A3009 710 93 100 000/00 RMK AO2
14837KMSN MSN20010706031509207/06/01 03:15:31  5-MIN KMSN 060915Z 00000KT 10SM CLR 08/07 A3009 710 93 100 000/00 RMK AO2
14837KMSN MSN20010706032009207/06/01 03:20:31  5-MIN KMSN 060920Z 00000KT 10SM CLR 08/07 A3009 710 93 100 000/00 RMK AO2
14837KMSN MSN20010706032509207/06/01 03:25:31  5-MIN KMSN 060925Z 00000KT 10SM CLR 09/08 A3009 710 93 200 000/00 RMK AO2
14837KMSN MSN20010706033009207/06/01 03:30:31  5-MIN KMSN 060930Z 00000KT 10SM CLR 09/08 A3009 710 93 200 000/00 RMK AO2
14837KMSN MSN20010706033509207/06/01 03:35:31  5-MIN KMSN 060935Z 00000KT 10SM CLR 09/08 A3009 710 93 200 000/00 RMK AO2
14837KMSN MSN20010706034009207/06/01 03:40:31  5-MIN KMSN 060940Z 00000KT 10SM CLR 08/07 A3009 710 93 100 000/00 RMK AO2
14837KMSN MSN20010706034509207/06/01 03:45:31  5-MIN KMSN 060945Z 00000KT 10SM CLR 08/08 A3009 710 96 100 000/00 RMK AO2
14837KMSN MSN20010706035010907/06/01 03:50:31  5-MIN KMSN 060950Z 00000KT 10SM CLR 09/08 A3009 710 93 200 000/00 RMK AO2 SLP188 T00890078
14837KMSN MSN20010706035509207/06/01 03:55:31  5-MIN KMSN 060955Z 00000KT 10SM CLR 09/08 A3009 710 89 200 000/00 RMK AO2
14837KMSN MSN20010706040009207/06/01 04:00:31  5-MIN KMSN 061000Z 00000KT 10SM CLR 09/08 A3009 700 93 200 000/00 RMK AO2
14837KMSN MSN20010706040509007/06/01 04:05:31  5-MIN KMSN 061005Z 00000KT 10SM CLR 08/07 A3009 710 96 0 000/00 RMK AO2
14837KMSN MSN20010706041009207/06/01 04:10:31  5-MIN KMSN 061010Z 00000KT 10SM CLR 08/07 A3009 710 93 100 000/00 RMK AO2
14837KMSN MSN20010706041509207/06/01 04:15:31  5-MIN KMSN 061015Z 00000KT 10SM CLR 08/07 A3009 710 93 100 000/00 RMK AO2
14837KMSN MSN20010706042009207/06/01 04:20:31  5-MIN KMSN 061020Z 00000KT 10SM CLR 08/08 A3009 710 96 100 000/00 RMK AO2
14837KMSN MSN20010706042509207/06/01 04:25:31  5-MIN KMSN 061025Z 00000KT 10SM CLR 08/07 A3009 710 93 100 000/00 RMK AO2
14837KMSN MSN20010706043009207/06/01 04:30:31  5-MIN KMSN 061030Z 00000KT 10SM CLR 08/08 A3009 710 96 100 000/00 RMK AO2
14837KMSN MSN20010706043509207/06/01 04:35:31  5-MIN KMSN 061035Z 00000KT 10SM CLR 08/08 A3009 710 96 100 000/00 RMK AO2
14837KMSN MSN20010706044009207/06/01 04:40:31  5-MIN KMSN 061040Z 00000KT 10SM CLR 08/08 A3009 710 96 100 000/00 RMK AO2
14837KMSN MSN20010706044509207/06/01 04:45:31  5-MIN KMSN 061045Z 00000KT 10SM CLR 09/08 A3009 700 93 200 000/00 RMK AO2
14837KMSN MSN20010706045010907/06/01 04:50:31  5-MIN KMSN 061050Z 00000KT 10SM CLR 09/08 A3010 700 89 200 000/00 RMK AO2 SLP190 T00940078
14837KMSN MSN20010706045509207/06/01 04:55:31  5-MIN KMSN 061055Z 00000KT 10SM CLR 09/08 A3010 700 93 200 000/00 RMK AO2
14837KMSN MSN20010706050009207/06/01 05:00:31  5-MIN KMSN 061100Z 00000KT 10SM CLR 09/08 A3010 700 93 200 000/00 RMK AO2
14837KMSN MSN20010706050509207/06/01 05:05:31  5-MIN KMSN 061105Z 13003KT 10SM CLR 10/08 A3010 700 86 300 130/03 RMK AO2
14837KMSN MSN20010706051009207/06/01 05:10:31  5-MIN KMSN 061110Z 00000KT 10SM CLR 09/08 A3010 700 89 200 000/00 RMK AO2
14837KMSN MSN20010706051509207/06/01 05:15:31  5-MIN KMSN 061115Z 00000KT 10SM CLR 10/08 A3010 700 86 300 000/00 RMK AO2
14837KMSN MSN20010706052009207/06/01 05:20:31  5-MIN KMSN 061120Z 13003KT 10SM CLR 10/08 A3010 690 86 300 130/03 RMK AO2
14837KMSN MSN20010706052509207/06/01 05:25:31  5-MIN KMSN 061125Z 00000KT 10SM CLR 10/08 A3011 690 89 300 000/00 RMK AO2
14837KMSN MSN20010706053009207/06/01 05:30:31  5-MIN KMSN 061130Z 00000KT 10SM CLR 11/09 A3011 690 89 400 000/00 RMK AO2
14837KMSN MSN20010706053509207/06/01 05:35:31  5-MIN KMSN 061135Z 17004KT 10SM CLR 11/09 A3011 690 89 400 170/04 RMK AO2
14837KMSN MSN20010706054009207/06/01 05:40:31  5-MIN KMSN 061140Z 16007KT 10SM CLR 13/10 A3010 690 80 700 160/07 RMK AO2
14837KMSN MSN20010706054509207/06/01 05:45:31  5-MIN KMSN 061145Z 17006KT 10SM CLR 13/11 A3010 700 83 700 170/06 RMK AO2
14837KMSN MSN20010706055012707/06/01 05:50:31  5-MIN KMSN 061150Z 18006KT 10SM CLR 13/11 A3011 690 83 700 180/06 RMK AO2 SLP193 T01330106 10133 20078 55004
14837KMSN MSN20010706055509207/06/01 05:55:31  5-MIN KMSN 061155Z 18006KT 10SM CLR 14/10 A3011 690 77 800 180/06 RMK AO2
14837KMSN MSN20010706060009207/06/01 06:00:31  5-MIN KMSN 061200Z 18005KT 10SM CLR 14/11 A3011 690 77 800 180/05 RMK AO2
14837KMSN MSN20010706060509207/06/01 06:05:31  5-MIN KMSN 061205Z 16006KT 10SM CLR 14/11 A3011 690 77 800 160/06 RMK AO2
14837KMSN MSN20010706061009207/06/01 06:10:31  5-MIN KMSN 061210Z 16006KT 10SM CLR 14/11 A3011 690 77 800 160/06 RMK AO2
14837KMSN MSN20010706061509207/06/01 06:15:31  5-MIN KMSN 061215Z 16007KT 10SM CLR 14/11 A3011 690 80 800 160/07 RMK AO2
14837KMSN MSN20010706062009207/06/01 06:20:31  5-MIN KMSN 061220Z 16006KT 10SM CLR 15/11 A3011 690 77 900 160/06 RMK AO2
14837KMSN MSN20010706062509207/06/01 06:25:31  5-MIN KMSN 061225Z 16006KT 10SM CLR 15/11 A3011 690 77 900 160/06 RMK AO2
14837KMSN MSN20010706063009307/06/01 06:30:31  5-MIN KMSN 061230Z 18007KT 10SM CLR 16/11 A3011 690 74 1000 180/07 RMK AO2
14837KMSN MSN20010706063509307/06/01 06:35:31  5-MIN KMSN 061235Z 18006KT 10SM CLR 16/11 A3011 690 69 1000 180/06 RMK AO2
14837KMSN MSN20010706064009307/06/01 06:40:31  5-MIN KMSN 061240Z 19006KT 10SM CLR 16/11 A3011 690 69 1000 180/06 RMK AO2
14837KMSN MSN20010706064509307/06/01 06:45:31  5-MIN KMSN 061245Z 16006KT 10SM CLR 16/11 A3011 690 72 1000 160/06 RMK AO2
14837KMSN MSN20010706065011007/06/01 06:50:31  5-MIN KMSN 061250Z 19005KT 10SM CLR 17/11 A3011 690 69 1100 190/05 RMK AO2 SLP194 T01670111
14837KMSN MSN20010706065509307/06/01 06:55:31  5-MIN KMSN 061255Z 18005KT 10SM CLR 17/11 A3011 690 67 1200 180/05 RMK AO2
14837KMSN MSN20010706070009307/06/01 07:00:31  5-MIN KMSN 061300Z 19005KT 10SM CLR 17/11 A3012 680 64 1100 190/05 RMK AO2
14837KMSN MSN20010706070509307/06/01 07:05:31  5-MIN KMSN 061305Z 21004KT 10SM CLR 18/11 A3011 690 64 1200 210/04 RMK AO2
14837KMSN MSN20010706071009307/06/01 07:10:31  5-MIN KMSN 061310Z 18005KT 10SM CLR 18/11 A3011 690 62 1200 180/05 RMK AO2
14837KMSN MSN20010706071509307/06/01 07:15:31  5-MIN KMSN 061315Z 18005KT 10SM CLR 18/11 A3010 690 60 1300 180/05 RMK AO2
14837KMSN MSN20010706072009307/06/01 07:20:31  5-MIN KMSN 061320Z 16006KT 10SM CLR 18/11 A3010 690 62 1300 160/06 RMK AO2
14837KMSN MSN20010706072509307/06/01 07:25:31  5-MIN KMSN 061325Z 16006KT 10SM CLR 18/11 A3010 700 62 1300 160/06 RMK AO2
14837KMSN MSN20010706073009307/06/01 07:30:31  5-MIN KMSN 061330Z 16006KT 10SM CLR 18/11 A3010 700 62 1300 160/06 RMK AO2
14837KMSN MSN20010706073509307/06/01 07:35:31  5-MIN KMSN 061335Z 16006KT 10SM CLR 19/11 A3010 700 60 1400 160/06 RMK AO2
14837KMSN MSN20010706074009307/06/01 07:40:31  5-MIN KMSN 061340Z VRB04KT 10SM CLR 19/11 A3010 700 60 1400 VRB/04 RMK AO2
14837KMSN MSN20010706074509307/06/01 07:45:31  5-MIN KMSN 061345Z 17005KT 10SM CLR 19/11 A3010 700 60 1400 160/05 RMK AO2
14837KMSN MSN20010706075011007/06/01 07:50:31  5-MIN KMSN 061350Z 19007KT 10SM CLR 20/11 A3010 700 56 1500 190/07 RMK AO2 SLP189 T02000111
14837KMSN MSN20010706075509307/06/01 07:55:31  5-MIN KMSN 061355Z 17006KT 10SM CLR 20/11 A3010 700 56 1500 170/06 RMK AO2
14837KMSN MSN20010706080009307/06/01 08:00:31  5-MIN KMSN 061400Z VRB03KT 10SM CLR 21/12 A3010 700 56 1600 VRB/03 RMK AO2
14837KMSN MSN20010706080509307/06/01 08:05:31  5-MIN KMSN 061405Z VRB06KT 10SM CLR 21/12 A3010 700 56 1600 VRB/06 RMK AO2
14837KMSN MSN20010706081010907/06/01 08:10:31  5-MIN KMSN 061410Z 20007KT 160V230 10SM CLR 21/11 A3010 700 52 1600 200/07 160V230 RMK AO2
14837KMSN MSN20010706081509307/06/01 08:15:31  5-MIN KMSN 061415Z 19008KT 10SM CLR 21/11 A3010 700 52 1600 190/08 RMK AO2
14837KMSN MSN20010706082010907/06/01 08:20:31  5-MIN KMSN 061420Z 21008KT 180V240 10SM CLR 21/11 A3009 700 52 1600 210/08 180V240 RMK AO2
14837KMSN MSN20010706082509307/06/01 08:25:31  5-MIN KMSN 061425Z 22008KT 10SM CLR 21/11 A3009 710 52 1600 220/08 RMK AO2
14837KMSN MSN20010706083009307/06/01 08:30:31  5-MIN KMSN 061430Z 22007KT 10SM CLR 21/11 A3009 710 52 1600 210/07 RMK AO2
14837KMSN MSN20010706083509307/06/01 08:35:31  5-MIN KMSN 061435Z 22008KT 10SM CLR 21/11 A3009 710 52 1600 220/08 RMK AO2
14837KMSN MSN20010706084009307/06/01 08:40:31  5-MIN KMSN 061440Z 22009KT 10SM CLR 21/11 A3009 710 52 1600 220/09 RMK AO2
14837KMSN MSN20010706084509307/06/01 08:45:31  5-MIN KMSN 061445Z 22008KT 10SM CLR 21/11 A3009 710 50 1600 220/08 RMK AO2
14837KMSN MSN20010706085011607/06/01 08:50:31  5-MIN KMSN 061450Z 22007KT 10SM CLR 21/11 A3009 710 50 1600 220/07 RMK AO2 SLP187 T02110106 53008
14837KMSN MSN20010706085509307/06/01 08:55:31  5-MIN KMSN 061455Z 20009KT 10SM CLR 22/11 A3009 710 50 1700 200/09 RMK AO2
14837KMSN MSN20010706090009307/06/01 09:00:31  5-MIN KMSN 061500Z 21008KT 10SM CLR 21/11 A3009 710 52 1600 210/08 RMK AO2
14837KMSN MSN20010706090509307/06/01 09:05:31  5-MIN KMSN 061505Z 21009KT 10SM CLR 22/11 A3009 710 50 1700 210/09 RMK AO2
14837KMSN MSN20010706091009307/06/01 09:10:31  5-MIN KMSN 061510Z 20007KT 10SM CLR 22/12 A3009 710 52 1700 200/07 RMK AO2
14837KMSN MSN20010706091510907/06/01 09:15:31  5-MIN KMSN 061515Z 21008KT 180V250 10SM CLR 22/12 A3010 700 51 1700 210/08 180V250 RMK AO2
14837KMSN MSN20010706092009307/06/01 09:20:31  5-MIN KMSN 061520Z 21007KT 10SM CLR 22/12 A3010 700 52 1700 210/07 RMK AO2
14837KMSN MSN20010706092509307/06/01 09:25:31  5-MIN KMSN 061525Z VRB06KT 10SM CLR 22/12 A3010 700 52 1700 VRB/06 RMK AO2
14837KMSN MSN20010706093010907/06/01 09:30:31  5-MIN KMSN 061530Z 23007KT 200V270 10SM CLR 22/12 A3009 710 51 1700 230/07 200V270 RMK AO2
14837KMSN MSN20010706093509307/06/01 09:35:31  5-MIN KMSN 061535Z 22010KT 10SM CLR 22/12 A3010 700 51 1700 220/10 RMK AO2
14837KMSN MSN20010706094009307/06/01 09:40:31  5-MIN KMSN 061540Z 21009KT 10SM CLR 22/12 A3010 700 51 1700 210/09 RMK AO2
14837KMSN MSN20010706094509307/06/01 09:45:31  5-MIN KMSN 061545Z 21007KT 10SM CLR 22/12 A3010 700 52 1700 210/07 RMK AO2
14837KMSN MSN20010706095011007/06/01 09:50:31  5-MIN KMSN 061550Z 21008KT 10SM CLR 23/12 A3009 700 49 1900 210/08 RMK AO2 SLP189 T02330122
14837KMSN MSN20010706095509907/06/01 09:55:31  5-MIN KMSN 061555Z 21010G16KT 10SM CLR 23/12 A3009 700 49 1900 210/10G16 RMK AO2
14837KMSN MSN20010706100009907/06/01 10:00:31  5-MIN KMSN 061600Z 23006G16KT 10SM CLR 23/13 A3010 700 51 1900 230/06G16 RMK AO2
14837KMSN MSN20010706100509307/06/01 10:05:31  5-MIN KMSN 061605Z 20009KT 10SM CLR 23/12 A3010 700 49 1900 200/09 RMK AO2
14837KMSN MSN20010706101010907/06/01 10:10:31  5-MIN KMSN 061610Z 21008KT 170V240 10SM CLR 23/12 A3009 700 49 1900 210/08 170V240 RMK AO2
14837KMSN MSN20010706101509307/06/01 10:15:31  5-MIN KMSN 061615Z 23008KT 10SM CLR 24/12 A3009 710 47 1900 230/08 RMK AO2
14837KMSN MSN20010706102010907/06/01 10:20:31  5-MIN KMSN 061620Z 24007KT 210V280 10SM CLR 23/12 A3009 700 49 1900 240/07 210V280 RMK AO2
14837KMSN MSN20010706102510907/06/01 10:25:31  5-MIN KMSN 061625Z 24007KT 210V270 10SM CLR 24/12 A3010 700 47 1900 240/07 210V270 RMK AO2
14837KMSN MSN20010706103010907/06/01 10:30:31  5-MIN KMSN 061630Z 23007KT 180V260 10SM CLR 24/12 A3009 700 47 1900 220/07 180V260 RMK AO2
14837KMSN MSN20010706103509307/06/01 10:35:31  5-MIN KMSN 061635Z 23009KT 10SM CLR 24/12 A3009 710 47 1900 230/09 RMK AO2
14837KMSN MSN20010706104009307/06/01 10:40:31  5-MIN KMSN 061640Z 22008KT 10SM CLR 24/12 A3009 710 46 1900 210/08 RMK AO2
14837KMSN MSN20010706104509307/06/01 10:45:31  5-MIN KMSN 061645Z 22007KT 10SM CLR 24/13 A3008 710 49 1900 220/07 RMK AO2
14837KMSN MSN20010706105011307/06/01 10:50:31  5-MIN KMSN 061650Z 22008KT 10SM FEW050 23/12 A3008 710 49 1900 220/08 RMK AO2 SLP186 T02330122
14837KMSN MSN20010706105509307/06/01 10:55:31  5-MIN KMSN 061655Z 23007KT 10SM CLR 24/12 A3008 720 47 1900 230/07 RMK AO2
14837KMSN MSN20010706110009307/06/01 11:00:31  5-MIN KMSN 061700Z 23007KT 10SM CLR 23/12 A3008 720 47 1900 230/07 RMK AO2
14837KMSN MSN20010706110509307/06/01 11:05:31  5-MIN KMSN 061705Z 22008KT 10SM CLR 24/12 A3007 720 47 2000 220/08 RMK AO2
14837KMSN MSN20010706111009307/06/01 11:10:31  5-MIN KMSN 061710Z 22009KT 10SM CLR 24/12 A3007 730 46 2000 220/09 RMK AO2
14837KMSN MSN20010706111509307/06/01 11:15:31  5-MIN KMSN 061715Z 23009KT 10SM CLR 23/12 A3006 730 49 1900 230/09 RMK AO2
14837KMSN MSN20010706112009307/06/01 11:20:31  5-MIN KMSN 061720Z 20008KT 10SM CLR 24/12 A3006 730 47 2000 200/08 RMK AO2
14837KMSN MSN20010706112510907/06/01 11:25:31  5-MIN KMSN 061725Z 20008KT 170V240 10SM CLR 24/12 A3006 740 47 2000 200/08 170V240 RMK AO2
14837KMSN MSN20010706113009307/06/01 11:30:31  5-MIN KMSN 061730Z 21009KT 10SM CLR 24/11 A3006 740 44 2000 200/09 RMK AO2
14837KMSN MSN20010706113509307/06/01 11:35:31  5-MIN KMSN 061735Z 21008KT 10SM CLR 24/12 A3006 730 46 2000 210/08 RMK AO2
14837KMSN MSN20010706114009307/06/01 11:40:31  5-MIN KMSN 061740Z 22010KT 10SM CLR 24/12 A3006 730 46 2000 220/10 RMK AO2
14837KMSN MSN20010706114509307/06/01 11:45:31  5-MIN KMSN 061745Z 21006KT 10SM CLR 24/12 A3007 730 46 2000 210/06 RMK AO2
14837KMSN MSN20010706115012807/06/01 11:50:31  5-MIN KMSN 061750Z 19009KT 10SM CLR 24/12 A3007 730 46 2000 190/09 RMK AO2 SLP180 T02390117 10239 20139 58007
14837KMSN MSN20010706115509307/06/01 11:55:31  5-MIN KMSN 061755Z VRB06KT 10SM CLR 24/12 A3006 730 46 2000 VRB/06 RMK AO2
14837KMSN MSN20010706120009307/06/01 12:00:31  5-MIN KMSN 061800Z 19011KT 10SM CLR 24/12 A3006 730 44 2000 190/11 RMK AO2
14837KMSN MSN20010706120509307/06/01 12:05:31  5-MIN KMSN 061805Z 20011KT 10SM CLR 24/12 A3006 740 44 2000 200/11 RMK AO2
14837KMSN MSN20010706121009307/06/01 12:10:31  5-MIN KMSN 061810Z 19009KT 10SM CLR 24/12 A3005 740 44 2000 190/09 RMK AO2
14837KMSN MSN20010706121509307/06/01 12:15:31  5-MIN KMSN 061815Z 21009KT 10SM CLR 24/11 A3005 750 42 2000 200/09 RMK AO2
14837KMSN MSN20010706122009307/06/01 12:20:31  5-MIN KMSN 061820Z 21010KT 10SM CLR 24/12 A3005 750 44 2000 200/10 RMK AO2
14837KMSN MSN20010706122509307/06/01 12:25:31  5-MIN KMSN 061825Z 21008KT 10SM CLR 24/12 A3005 750 44 2000 210/08 RMK AO2
14837KMSN MSN20010706123009307/06/01 12:30:31  5-MIN KMSN 061830Z 22009KT 10SM CLR 24/12 A3004 750 46 2000 220/09 RMK AO2
14837KMSN MSN20010706123509307/06/01 12:35:31  5-MIN KMSN 061835Z 21007KT 10SM CLR 24/12 A3003 760 44 2100 210/07 RMK AO2
14837KMSN MSN20010706124010007/06/01 12:40:31  5-MIN KMSN 061840Z 21008KT 10SM CLR 24/12 A3002 770 46 2000 210/08 RMK AO2 PRESFR
14837KMSN MSN20010706124509307/06/01 12:45:31  5-MIN KMSN 061845Z 18011KT 10SM CLR 24/12 A3003 770 46 2100 180/11 RMK AO2
14837KMSN MSN20010706125011607/06/01 12:50:31  5-MIN KMSN 061850Z 19011G16KT 10SM CLR 24/12 A3002 770 44 2100 190/11G16 RMK AO2 SLP165 T02440117
14837KMSN MSN20010706125509307/06/01 12:55:31  5-MIN KMSN 061855Z 18011KT 10SM CLR 24/12 A3002 770 44 2100 180/11 RMK AO2
14837KMSN MSN20010706130009307/06/01 13:00:31  5-MIN KMSN 061900Z 19013KT 10SM CLR 24/11 A3002 770 42 2100 190/13 RMK AO2
14837KMSN MSN20010706130509307/06/01 13:05:31  5-MIN KMSN 061905Z VRB06KT 10SM CLR 24/12 A3003 770 44 2100 VRB/06 RMK AO2
14837KMSN MSN20010706131009307/06/01 13:10:31  5-MIN KMSN 061910Z 19008KT 10SM CLR 24/12 A3002 770 44 2100 190/08 RMK AO2
14837KMSN MSN20010706131509907/06/01 13:15:31  5-MIN KMSN 061915Z 19010G15KT 10SM CLR 24/12 A3002 770 44 2100 180/10G15 RMK AO2
14837KMSN MSN20010706132009907/06/01 13:20:31  5-MIN KMSN 061920Z 18011G17KT 10SM CLR 25/12 A3001 780 43 2200 180/11G17 RMK AO2
14837KMSN MSN20010706132509907/06/01 13:25:31  5-MIN KMSN 061925Z 19011G17KT 10SM CLR 26/12 A3001 780 41 2200 190/11G17 RMK AO2
14837KMSN MSN20010706133009307/06/01 13:30:31  5-MIN KMSN 061930Z 21010KT 10SM CLR 25/11 A3002 780 41 2100 210/10 RMK AO2
14837KMSN MSN20010706133509907/06/01 13:35:31  5-MIN KMSN 061935Z 19013G17KT 10SM CLR 24/11 A3002 770 42 2100 190/13G17 RMK AO2
14837KMSN MSN20010706134009907/06/01 13:40:31  5-MIN KMSN 061940Z 20010G17KT 10SM CLR 24/11 A3002 780 42 2100 200/10G17 RMK AO2
14837KMSN MSN20010706134509307/06/01 13:45:31  5-MIN KMSN 061945Z 19011KT 10SM CLR 24/12 A3001 780 44 2100 190/11 RMK AO2
14837KMSN MSN20010706135011607/06/01 13:50:31  5-MIN KMSN 061950Z 19013G17KT 10SM CLR 25/12 A3001 780 43 2200 180/13G17 RMK AO2 SLP160 T02500117
14837KMSN MSN20010706135509907/06/01 13:55:31  5-MIN KMSN 061955Z 19009G17KT 10SM CLR 25/12 A3001 780 44 2200 190/09G17 RMK AO2
14837KMSN MSN20010706140009307/06/01 14:00:31  5-MIN KMSN 062000Z 19010KT 10SM CLR 25/12 A3001 780 44 2200 190/10 RMK AO2
14837KMSN MSN20010706140509907/06/01 14:05:31  5-MIN KMSN 062005Z 19013G16KT 10SM CLR 25/12 A3000 790 44 2200 190/13G16 RMK AO2
14837KMSN MSN20010706141009307/06/01 14:10:31  5-MIN KMSN 062010Z 19010KT 10SM CLR 25/12 A3000 790 43 2200 180/10 RMK AO2
14837KMSN MSN20010706141509907/06/01 14:15:31  5-MIN KMSN 062015Z 19013G17KT 10SM CLR 24/12 A3001 780 44 2100 190/13G17 RMK AO2
14837KMSN MSN20010706142009907/06/01 14:20:31  5-MIN KMSN 062020Z 20008G17KT 10SM CLR 24/12 A3000 790 46 2100 200/08G17 RMK AO2
14837KMSN MSN20010706142509907/06/01 14:25:31  5-MIN KMSN 062025Z 18014G19KT 10SM CLR 24/12 A2999 800 44 2100 180/14G19 RMK AO2
14837KMSN MSN20010706143009907/06/01 14:30:31  5-MIN KMSN 062030Z 17014G19KT 10SM CLR 25/12 A2999 800 44 2200 170/14G19 RMK AO2
14837KMSN MSN20010706143509307/06/01 14:35:31  5-MIN KMSN 062035Z 18014KT 10SM CLR 25/12 A2999 800 44 2200 180/14 RMK AO2
14837KMSN MSN20010706144009907/06/01 14:40:31  5-MIN KMSN 062040Z 17015G19KT 10SM CLR 24/12 A2998 810 46 2100 170/15G19 RMK AO2
14837KMSN MSN20010706144509907/06/01 14:45:31  5-MIN KMSN 062045Z 19014G19KT 10SM CLR 24/12 A2999 800 44 2100 190/14G19 RMK AO2
14837KMSN MSN20010706145011607/06/01 14:50:31  5-MIN KMSN 062050Z 21010KT 10SM CLR 24/12 A3001 780 44 2100 210/10 RMK AO2 SLP160 T02440117 58007
14837KMSN MSN20010706145509307/06/01 14:55:31  5-MIN KMSN 062055Z 20009KT 10SM CLR 24/12 A3000 790 46 2100 200/09 RMK AO2
14837KMSN MSN20010706150009307/06/01 15:00:31  5-MIN KMSN 062100Z 19012KT 10SM CLR 24/12 A2999 800 46 2100 190/12 RMK AO2
14837KMSN MSN20010706150509307/06/01 15:05:31  5-MIN KMSN 062105Z 18008KT 10SM CLR 24/12 A2999 800 46 2100 180/08 RMK AO2
14837KMSN MSN20010706151009907/06/01 15:10:31  5-MIN KMSN 062110Z 19011G16KT 10SM CLR 24/12 A2999 800 46 2100 180/11G16 RMK AO2
14837KMSN MSN20010706151509307/06/01 15:15:31  5-MIN KMSN 062115Z 19013KT 10SM CLR 24/12 A2999 800 47 2000 190/13 RMK AO2
14837KMSN MSN20010706152009307/06/01 15:20:31  5-MIN KMSN 062120Z 18010KT 10SM CLR 24/12 A2999 800 46 2100 180/10 RMK AO2
14837KMSN MSN20010706152509307/06/01 15:25:31  5-MIN KMSN 062125Z 17012KT 10SM CLR 24/12 A2999 800 47 2100 170/12 RMK AO2
14837KMSN MSN20010706153009307/06/01 15:30:31  5-MIN KMSN 062130Z 18013KT 10SM CLR 24/12 A2997 820 47 2100 180/13 RMK AO2
14837KMSN MSN20010706153509307/06/01 15:35:31  5-MIN KMSN 062135Z 18012KT 10SM CLR 23/12 A2997 810 49 2000 180/12 RMK AO2
14837KMSN MSN20010706154009307/06/01 15:40:31  5-MIN KMSN 062140Z 19009KT 10SM CLR 23/12 A2999 800 47 2000 190/09 RMK AO2
14837KMSN MSN20010706154509307/06/01 15:45:31  5-MIN KMSN 062145Z 18012KT 10SM CLR 23/12 A2999 800 47 2000 180/12 RMK AO2
14837KMSN MSN20010706155012607/06/01 15:50:31  5-MIN KMSN 062150Z 18010KT 10SM -RA CLR 23/12 A2999 800 49 2000 180/10 RMK AO2 RAB46 SLP153 P0000 T02330122
14837KMSN MSN20010706155510607/06/01 15:55:31  5-MIN KMSN 062155Z 19011KT 10SM -RA FEW041 23/13 A2998 810 53 1900 190/11 RMK AO2 P0000
14837KMSN MSN20010706160010607/06/01 16:00:31  5-MIN KMSN 062200Z 18012KT 10SM -RA FEW030 23/13 A2997 810 55 1900 180/12 RMK AO2 P0000
14837KMSN MSN20010706160510607/06/01 16:05:31  5-MIN KMSN 062205Z 18010KT 10SM -RA FEW029 22/13 A2997 810 56 1900 180/10 RMK AO2 P0000
14837KMSN MSN20010706161011307/06/01 16:10:31  5-MIN KMSN 062210Z 18009KT 10SM -RA FEW034 SCT060 22/13 A2997 820 56 1900 180/09 RMK AO2 P0000
14837KMSN MSN20010706161511307/06/01 16:15:31  5-MIN KMSN 062215Z 18010KT 10SM -RA FEW034 SCT065 22/13 A2997 820 56 1900 180/10 RMK AO2 P0000
14837KMSN MSN20010706162011307/06/01 16:20:31  5-MIN KMSN 062220Z 18010KT 10SM -RA SCT042 SCT065 22/14 A2997 820 59 1900 180/10 RMK AO2 P0000
14837KMSN MSN20010706162511307/06/01 16:25:31  5-MIN KMSN 062225Z 18010KT 10SM -RA SCT048 SCT070 22/13 A2998 810 56 1900 180/10 RMK AO2 P0000
14837KMSN MSN20010706163011507/06/01 16:30:31  5-MIN KMSN 062230Z 19009KT 10SM FEW060 SCT075 22/13 A2997 820 56 1900 180/09 RMK AO2 RAE26 P0000
14837KMSN MSN20010706163510807/06/01 16:35:31  5-MIN KMSN 062235Z 18009KT 10SM FEW060 23/13 A2997 820 55 2000 180/09 RMK AO2 RAE26 P0000
14837KMSN MSN20010706164010807/06/01 16:40:31  5-MIN KMSN 062240Z 17012KT 10SM FEW060 23/13 A2996 830 55 2000 170/12 RMK AO2 RAE26 P0000
14837KMSN MSN20010706164510807/06/01 16:45:31  5-MIN KMSN 062245Z 18011KT 10SM FEW060 23/13 A2996 830 55 2000 180/11 RMK AO2 RAE26 P0000
14837KMSN MSN20010706165012507/06/01 16:50:31  5-MIN KMSN 062250Z 18010KT 10SM FEW070 23/13 A2996 830 55 2000 180/10 RMK AO2 RAE26 SLP144 P0000 T02280133
14837KMSN MSN20010706165509307/06/01 16:55:31  5-MIN KMSN 062255Z 17009KT 10SM CLR 23/13 A2996 830 53 2000 170/09 RMK AO2
14837KMSN MSN20010706170009307/06/01 17:00:31  5-MIN KMSN 062300Z 17014KT 10SM CLR 23/13 A2996 830 53 2000 160/14 RMK AO2
14837KMSN MSN20010706170509307/06/01 17:05:31  5-MIN KMSN 062305Z 17013KT 10SM CLR 23/13 A2995 830 53 2000 170/13 RMK AO2
14837KMSN MSN20010706171009307/06/01 17:10:31  5-MIN KMSN 062310Z 17012KT 10SM CLR 23/13 A2995 830 53 2000 170/12 RMK AO2
14837KMSN MSN20010706171509307/06/01 17:15:31  5-MIN KMSN 062315Z 17013KT 10SM CLR 23/13 A2995 840 55 2000 170/13 RMK AO2
14837KMSN MSN20010706172009307/06/01 17:20:31  5-MIN KMSN 062320Z 17013KT 10SM CLR 23/13 A2995 840 55 2000 170/13 RMK AO2
14837KMSN MSN20010706172509307/06/01 17:25:31  5-MIN KMSN 062325Z 17014KT 10SM CLR 23/13 A2995 840 55 2000 170/14 RMK AO2
14837KMSN MSN20010706173009307/06/01 17:30:31  5-MIN KMSN 062330Z 18012KT 10SM CLR 23/13 A2995 840 55 2000 180/12 RMK AO2
14837KMSN MSN20010706173509307/06/01 17:35:31  5-MIN KMSN 062335Z 19013KT 10SM CLR 23/13 A2995 840 55 2000 180/13 RMK AO2
14837KMSN MSN20010706174009307/06/01 17:40:31  5-MIN KMSN 062340Z 18011KT 10SM CLR 23/13 A2995 840 53 2000 180/11 RMK AO2
14837KMSN MSN20010706174509307/06/01 17:45:31  5-MIN KMSN 062345Z 18013KT 10SM CLR 23/13 A2995 840 53 2000 180/13 RMK AO2
14837KMSN MSN20010706175013407/06/01 17:50:31  5-MIN KMSN 062350Z 18013KT 10SM CLR 23/13 A2995 840 53 2000 170/13 RMK AO2 SLP139 60000 T02280128 10256 20222 56019
14837KMSN MSN20010706175509307/06/01 17:55:31  5-MIN KMSN 062355Z 18010KT 10SM CLR 23/13 A2994 840 53 2000 180/10 RMK AO2
14837KMSN MSN20010706180009307/06/01 18:00:31  5-MIN KMSN 070000Z 18013KT 10SM CLR 23/13 A2994 840 53 2000 180/13 RMK AO2
14837KMSN MSN20010706180509307/06/01 18:05:31  5-MIN KMSN 070005Z 18013KT 10SM CLR 23/13 A2994 840 53 2000 180/13 RMK AO2
14837KMSN MSN20010706181009307/06/01 18:10:31  5-MIN KMSN 070010Z 18013KT 10SM CLR 23/13 A2994 840 53 2000 180/13 RMK AO2
14837KMSN MSN20010706181509607/06/01 18:15:31  5-MIN KMSN 070015Z 19013KT 10SM FEW120 23/13 A2994 840 53 2000 190/13 RMK AO2
14837KMSN MSN20010706182009607/06/01 18:20:31  5-MIN KMSN 070020Z 18010KT 10SM FEW120 23/13 A2994 850 55 2000 180/10 RMK AO2
14837KMSN MSN20010706182509607/06/01 18:25:31  5-MIN KMSN 070025Z 17013KT 10SM FEW120 23/13 A2994 850 53 2000 170/13 RMK AO2
14837KMSN MSN20010706183009607/06/01 18:30:31  5-MIN KMSN 070030Z 17012KT 10SM FEW120 23/13 A2994 850 53 2100 170/12 RMK AO2
14837KMSN MSN20010706183510207/06/01 18:35:31  5-MIN KMSN 070035Z 18011G18KT 10SM FEW120 23/13 A2993 850 55 2000 170/11G18 RMK AO2
14837KMSN MSN20010706184010207/06/01 18:40:31  5-MIN KMSN 070040Z 17012G18KT 10SM FEW120 23/14 A2994 850 57 2000 170/12G18 RMK AO2
14837KMSN MSN20010706184509907/06/01 18:45:31  5-MIN KMSN 070045Z 17011G17KT 10SM CLR 22/14 A2993 850 59 1900 170/11G17 RMK AO2
14837KMSN MSN20010706185011307/06/01 18:50:31  5-MIN KMSN 070050Z 18010KT 10SM FEW120 22/14 A2993 850 59 1900 180/10 RMK AO2 SLP133 T02220139
14837KMSN MSN20010706185509307/06/01 18:55:31  5-MIN KMSN 070055Z 17012KT 10SM CLR 22/14 A2993 860 59 1900 170/12 RMK AO2
14837KMSN MSN20010706190009307/06/01 19:00:31  5-MIN KMSN 070100Z 17014KT 10SM CLR 22/14 A2993 860 59 1900 170/14 RMK AO2
14837KMSN MSN20010706190509307/06/01 19:05:31  5-MIN KMSN 070105Z 17011KT 10SM CLR 22/13 A2992 860 56 1900 170/11 RMK AO2
14837KMSN MSN20010706191009307/06/01 19:10:31  5-MIN KMSN 070110Z 18013KT 10SM CLR 22/13 A2993 860 56 1900 170/13 RMK AO2
14837KMSN MSN20010706191509307/06/01 19:15:31  5-MIN KMSN 070115Z 18011KT 10SM CLR 22/13 A2992 860 56 1900 180/11 RMK AO2
14837KMSN MSN20010706192009307/06/01 19:20:31  5-MIN KMSN 070120Z 18011KT 10SM CLR 22/14 A2992 860 61 1900 180/11 RMK AO2
14837KMSN MSN20010706192509307/06/01 19:25:31  5-MIN KMSN 070125Z 18013KT 10SM CLR 22/13 A2992 860 58 1900 170/13 RMK AO2
14837KMSN MSN20010706193009307/06/01 19:30:31  5-MIN KMSN 070130Z 17011KT 10SM CLR 22/13 A2992 870 58 1900 170/11 RMK AO2
14837KMSN MSN20010706193509307/06/01 19:35:31  5-MIN KMSN 070135Z 18010KT 10SM CLR 22/14 A2992 870 61 1900 170/10 RMK AO2
14837KMSN MSN20010706194009307/06/01 19:40:31  5-MIN KMSN 070140Z 17012KT 10SM CLR 22/14 A2992 870 61 1900 170/12 RMK AO2
14837KMSN MSN20010706194509307/06/01 19:45:31  5-MIN KMSN 070145Z 18012KT 10SM CLR 22/14 A2992 870 61 1900 180/12 RMK AO2
14837KMSN MSN20010706195011007/06/01 19:50:31  5-MIN KMSN 070150Z 18010KT 10SM CLR 22/14 A2992 870 61 1900 180/10 RMK AO2 SLP127 T02170139
14837KMSN MSN20010706195509307/06/01 19:55:31  5-MIN KMSN 070155Z 18009KT 10SM CLR 22/14 A2992 860 61 1900 170/09 RMK AO2
14837KMSN MSN20010706200009307/06/01 20:00:31  5-MIN KMSN 070200Z 18009KT 10SM CLR 21/14 A2992 860 63 1800 180/09 RMK AO2
14837KMSN MSN20010706200509307/06/01 20:05:31  5-MIN KMSN 070205Z 18010KT 10SM CLR 21/14 A2993 860 63 1800 180/10 RMK AO2
14837KMSN MSN20010706201009307/06/01 20:10:31  5-MIN KMSN 070210Z 18008KT 10SM CLR 21/14 A2993 860 63 1800 180/08 RMK AO2
14837KMSN MSN20010706201509307/06/01 20:15:31  5-MIN KMSN 070215Z 18009KT 10SM CLR 21/14 A2993 860 63 1800 180/09 RMK AO2
14837KMSN MSN20010706202009307/06/01 20:20:31  5-MIN KMSN 070220Z 19010KT 10SM CLR 21/14 A2993 850 63 1800 190/10 RMK AO2
14837KMSN MSN20010706202509307/06/01 20:25:31  5-MIN KMSN 070225Z 18010KT 10SM CLR 21/14 A2993 860 63 1800 180/10 RMK AO2
14837KMSN MSN20010706203009307/06/01 20:30:31  5-MIN KMSN 070230Z 18009KT 10SM CLR 21/14 A2993 860 63 1800 180/09 RMK AO2
14837KMSN MSN20010706203509307/06/01 20:35:31  5-MIN KMSN 070235Z 18010KT 10SM CLR 21/14 A2993 850 63 1800 180/10 RMK AO2
14837KMSN MSN20010706204009307/06/01 20:40:31  5-MIN KMSN 070240Z 18010KT 10SM CLR 21/14 A2994 850 63 1800 180/10 RMK AO2
14837KMSN MSN20010706204509307/06/01 20:45:31  5-MIN KMSN 070245Z 19011KT 10SM CLR 21/14 A2994 850 63 1800 190/11 RMK AO2
14837KMSN MSN20010706205011607/06/01 20:50:31  5-MIN KMSN 070250Z 19011KT 10SM CLR 21/14 A2994 850 63 1800 190/11 RMK AO2 SLP134 T02110139 56021
14837KMSN MSN20010706205509307/06/01 20:55:31  5-MIN KMSN 070255Z 18011KT 10SM CLR 21/14 A2994 850 63 1800 180/11 RMK AO2
14837KMSN MSN20010706210009307/06/01 21:00:31  5-MIN KMSN 070300Z 18011KT 10SM CLR 21/14 A2994 850 63 1800 180/11 RMK AO2
14837KMSN MSN20010706210509307/06/01 21:05:31  5-MIN KMSN 070305Z 19012KT 10SM CLR 21/14 A2994 850 63 1800 190/12 RMK AO2
14837KMSN MSN20010706211009307/06/01 21:10:31  5-MIN KMSN 070310Z 19012KT 10SM CLR 21/14 A2994 850 63 1800 190/12 RMK AO2
14837KMSN MSN20010706211509307/06/01 21:15:31  5-MIN KMSN 070315Z 19010KT 10SM CLR 21/14 A2993 850 63 1800 190/10 RMK AO2
14837KMSN MSN20010706212009307/06/01 21:20:31  5-MIN KMSN 070320Z 19011KT 10SM CLR 21/14 A2994 850 63 1800 190/11 RMK AO2
14837KMSN MSN20010706212509307/06/01 21:25:31  5-MIN KMSN 070325Z 19010KT 10SM CLR 21/14 A2993 850 63 1800 190/10 RMK AO2
14837KMSN MSN20010706213009307/06/01 21:30:31  5-MIN KMSN 070330Z 19011KT 10SM CLR 21/14 A2993 850 65 1800 190/11 RMK AO2
14837KMSN MSN20010706213509307/06/01 21:35:31  5-MIN KMSN 070335Z 19011KT 10SM CLR 21/14 A2993 850 65 1800 180/11 RMK AO2
14837KMSN MSN20010706214009307/06/01 21:40:31  5-MIN KMSN 070340Z 18010KT 10SM CLR 21/14 A2993 860 65 1800 180/10 RMK AO2
14837KMSN MSN20010706214509307/06/01 21:45:31  5-MIN KMSN 070345Z 19010KT 10SM CLR 21/14 A2993 860 65 1800 190/10 RMK AO2
14837KMSN MSN20010706215011007/06/01 21:50:31  5-MIN KMSN 070350Z 19012KT 10SM CLR 21/14 A2993 860 65 1800 190/12 RMK AO2 SLP130 T02110144
14837KMSN MSN20010706215509607/06/01 21:55:31  5-MIN KMSN 070355Z 18012KT 10SM FEW055 21/14 A2993 860 65 1800 180/12 RMK AO2
14837KMSN MSN20010706220009607/06/01 22:00:31  5-MIN KMSN 070400Z 18011KT 10SM SCT055 22/14 A2993 860 63 1900 180/11 RMK AO2
14837KMSN MSN20010706220509607/06/01 22:05:31  5-MIN KMSN 070405Z 19011KT 10SM BKN055 22/14 A2993 860 63 1900 190/11 RMK AO2
14837KMSN MSN20010706221010307/06/01 22:10:31  5-MIN KMSN 070410Z 19011KT 10SM BKN050 BKN060 22/14 A2993 860 63 1900 190/11 RMK AO2
14837KMSN MSN20010706221510307/06/01 22:15:31  5-MIN KMSN 070415Z 18011KT 10SM BKN050 BKN060 22/14 A2992 860 63 1900 180/11 RMK AO2
14837KMSN MSN20010706222010307/06/01 22:20:31  5-MIN KMSN 070420Z 19012KT 10SM BKN047 OVC060 22/14 A2992 860 63 1900 190/12 RMK AO2
14837KMSN MSN20010706222510307/06/01 22:25:31  5-MIN KMSN 070425Z 18011KT 10SM BKN047 OVC060 22/14 A2992 870 63 1900 180/11 RMK AO2
14837KMSN MSN20010706223010307/06/01 22:30:31  5-MIN KMSN 070430Z 18011KT 10SM SCT047 OVC060 22/14 A2992 870 63 1900 180/11 RMK AO2
14837KMSN MSN20010706223510307/06/01 22:35:31  5-MIN KMSN 070435Z 18013KT 10SM SCT047 OVC065 22/14 A2991 870 63 1900 180/13 RMK AO2
14837KMSN MSN20010706224010307/06/01 22:40:31  5-MIN KMSN 070440Z 18010KT 10SM FEW047 OVC065 21/14 A2991 880 65 1800 180/10 RMK AO2
14837KMSN MSN20010706224510307/06/01 22:45:31  5-MIN KMSN 070445Z 19011KT 10SM FEW045 OVC065 21/14 A2991 870 65 1800 190/11 RMK AO2
14837KMSN MSN20010706225012007/06/01 22:50:31  5-MIN KMSN 070450Z 18012KT 10SM FEW045 BKN065 21/14 A2991 870 65 1800 180/12 RMK AO2 SLP124 T02110144
14837KMSN MSN20010706225510907/06/01 22:55:31  5-MIN KMSN 070455Z 18009G16KT 10SM FEW045 OVC065 21/14 A2991 880 65 1800 180/09G16 RMK AO2
14837KMSN MSN20010706230010307/06/01 23:00:31  5-MIN KMSN 070500Z 18009KT 10SM FEW045 BKN065 21/14 A2991 880 65 1800 180/09 RMK AO2
14837KMSN MSN20010706230510307/06/01 23:05:31  5-MIN KMSN 070505Z 18010KT 10SM FEW045 BKN065 21/14 A2990 880 65 1800 180/10 RMK AO2
14837KMSN MSN20010706231009607/06/01 23:10:31  5-MIN KMSN 070510Z 18010KT 10SM BKN065 21/14 A2990 880 65 1800 180/10 RMK AO2
14837KMSN MSN20010706231509607/06/01 23:15:31  5-MIN KMSN 070515Z 18011KT 10SM BKN070 21/14 A2990 890 65 1800 180/11 RMK AO2
14837KMSN MSN20010706232009607/06/01 23:20:31  5-MIN KMSN 070520Z 18010KT 10SM BKN070 21/14 A2989 890 65 1800 180/10 RMK AO2
14837KMSN MSN20010706232509607/06/01 23:25:31  5-MIN KMSN 070525Z 18011KT 10SM BKN070 21/14 A2989 890 65 1800 180/11 RMK AO2
14837KMSN MSN20010706233009607/06/01 23:30:31  5-MIN KMSN 070530Z 18010KT 10SM SCT070 21/14 A2989 890 65 1900 180/10 RMK AO2
14837KMSN MSN20010706233509607/06/01 23:35:31  5-MIN KMSN 070535Z 19011KT 10SM SCT070 21/14 A2989 900 65 1900 180/11 RMK AO2
14837KMSN MSN20010706234009607/06/01 23:40:31  5-MIN KMSN 070540Z 18008KT 10SM SCT070 21/14 A2989 900 65 1900 180/08 RMK AO2
14837KMSN MSN20010706234510307/06/01 23:45:31  5-MIN KMSN 070545Z 18012KT 10SM FEW043 SCT070 21/14 A2988 900 65 1900 180/12 RMK AO2
14837KMSN MSN20010706235014807/06/01 23:50:31  5-MIN KMSN 070550Z 19011KT 10SM FEW043 SCT075 21/14 A2989 900 65 1900 190/11 RMK AO2 SLP115 T02110144 10233 20211 402560078 55003
14837KMSN MSN20010706235511007/06/01 23:55:31  5-MIN KMSN 070555Z 19013KT 10SM SCT039 SCT060 BKN075 21/14 A2988 900 65 1900 190/13 RMK AO2
14837KMSN MSN20010707000011007/07/01 00:00:31  5-MIN KMSN 070600Z 19013KT 10SM SCT039 SCT050 BKN080 21/14 A2988 900 65 1900 190/13 RMK AO2
14837KMSN MSN20010707000511007/07/01 00:05:31  5-MIN KMSN 070605Z 19011KT 10SM SCT039 BKN055 BKN080 21/14 A2988 900 65 1900 190/11 RMK AO2
14837KMSN MSN20010707001011007/07/01 00:10:31  5-MIN KMSN 070610Z 18010KT 10SM SCT039 BKN050 BKN060 21/14 A2988 900 65 1900 180/10 RMK AO2
14837KMSN MSN20010707001511007/07/01 00:15:31  5-MIN KMSN 070615Z 18012KT 10SM SCT037 BKN050 BKN060 21/14 A2988 900 65 1900 180/12 RMK AO2
14837KMSN MSN20010707002011007/07/01 00:20:31  5-MIN KMSN 070620Z 18010KT 10SM BKN037 BKN055 OVC080 21/14 A2988 900 65 1900 180/10 RMK AO2
14837KMSN MSN20010707002511007/07/01 00:25:31  5-MIN KMSN 070625Z 19010KT 10SM BKN037 BKN055 OVC080 21/14 A2988 900 65 1900 190/10 RMK AO2
14837KMSN MSN20010707003011007/07/01 00:30:31  5-MIN KMSN 070630Z 19009KT 10SM BKN037 BKN055 OVC080 21/14 A2988 900 65 1900 190/09 RMK AO2
14837KMSN MSN20010707003511007/07/01 00:35:31  5-MIN KMSN 070635Z 18008KT 10SM BKN037 BKN050 OVC080 21/14 A2988 910 65 1900 180/08 RMK AO2
14837KMSN MSN20010707004010307/07/01 00:40:31  5-MIN KMSN 070640Z 18006KT 10SM BKN037 OVC047 21/14 A2988 900 65 1900 180/06 RMK AO2
14837KMSN MSN20010707004510207/07/01 00:45:31  5-MIN KMSN 070645Z VRB04KT 9SM BKN037 OVC047 22/14 A2987 910 63 1900 VRB/04 RMK AO2
14837KMSN MSN20010707005013507/07/01 00:50:31  5-MIN KMSN 070650Z VRB05KT 7SM -RA SCT029 OVC037 21/15 A2989 900 68 1900 VRB/05 RMK AO2 RAB47 SLP115 P0000 T02110150
14837KMSN MSN20010707005511207/07/01 00:55:31  5-MIN KMSN 070655Z 00000KT 8SM -RA BKN029 OVC037 21/16 A2988 900 73 1800 000/00 RMK AO2 P0000
14837KMSN MSN20010707010011307/07/01 01:00:31  5-MIN KMSN 070700Z 19007KT 10SM -RA BKN029 OVC039 21/15 A2988 910 70 1800 190/07 RMK AO2 P0000
14837KMSN MSN20010707010511907/07/01 01:05:31  5-MIN KMSN 070705Z 19010G14KT 10SM -RA BKN029 OVC041 21/16 A2987 910 73 1800 190/10G14 RMK AO2 P0001
14837KMSN MSN20010707011011507/07/01 01:10:31  5-MIN KMSN 070710Z 19009KT 10SM BKN029 OVC041 21/16 A2987 910 73 1800 190/09 RMK AO2 RAE09 P0001
14837KMSN MSN20010707011512207/07/01 01:15:31  5-MIN KMSN 070715Z 19009KT 10SM BKN029 BKN035 OVC090 21/15 A2987 920 68 1900 190/09 RMK AO2 RAE09 P0001
14837KMSN MSN20010707012012207/07/01 01:20:31  5-MIN KMSN 070720Z 20009KT 10SM BKN029 BKN035 OVC090 21/16 A2986 920 70 1900 200/09 RMK AO2 RAE09 P0001
14837KMSN MSN20010707012512007/07/01 01:25:31  5-MIN KMSN 070725Z 21007KT 10SM -RA BKN029 BKN035 OVC090 21/16 A2987 910 73 1800 210/07 RMK AO2 P0001
14837KMSN MSN20010707013012007/07/01 01:30:31  5-MIN KMSN 070730Z 19007KT 10SM -RA BKN029 BKN039 OVC090 21/16 A2986 920 73 1800 190/07 RMK AO2 P0001
14837KMSN MSN20010707013512007/07/01 01:35:31  5-MIN KMSN 070735Z 20007KT 10SM -RA BKN029 BKN039 OVC090 21/16 A2986 920 70 1900 190/07 RMK AO2 P0001
14837KMSN MSN20010707014012207/07/01 01:40:31  5-MIN KMSN 070740Z 19008KT 10SM BKN029 BKN042 OVC080 21/16 A2986 920 70 1900 190/08 RMK AO2 RAE39 P0001
14837KMSN MSN20010707014512207/07/01 01:45:31  5-MIN KMSN 070745Z 19008KT 10SM BKN029 BKN039 OVC080 21/16 A2985 930 70 1900 180/08 RMK AO2 RAE39 P0001
14837KMSN MSN20010707015013907/07/01 01:50:31  5-MIN KMSN 070750Z 19008KT 10SM BKN031 BKN045 OVC080 21/15 A2985 930 68 1900 190/08 RMK AO2 RAE39 SLP102 P0001 T02110150
14837KMSN MSN20010707015511007/07/01 01:55:31  5-MIN KMSN 070755Z 19009KT 10SM SCT028 BKN033 OVC075 21/16 A2985 930 70 1900 190/09 RMK AO2
14837KMSN MSN20010707020011007/07/01 02:00:31  5-MIN KMSN 070800Z 19007KT 10SM SCT028 BKN032 OVC080 21/16 A2985 930 70 1900 190/07 RMK AO2
14837KMSN MSN20010707020511007/07/01 02:05:31  5-MIN KMSN 070805Z 21006KT 10SM SCT028 BKN034 OVC080 21/15 A2985 930 68 1900 210/06 RMK AO2
14837KMSN MSN20010707021011007/07/01 02:10:31  5-MIN KMSN 070810Z 19006KT 10SM SCT028 BKN034 OVC080 21/15 A2985 930 68 1900 190/06 RMK AO2
14837KMSN MSN20010707021511007/07/01 02:15:31  5-MIN KMSN 070815Z 20006KT 10SM SCT028 BKN034 OVC080 21/16 A2985 930 70 1900 200/06 RMK AO2
14837KMSN MSN20010707022011007/07/01 02:20:31  5-MIN KMSN 070820Z 20007KT 10SM SCT028 BKN034 OVC080 21/16 A2985 930 70 1900 200/07 RMK AO2
14837KMSN MSN20010707022511007/07/01 02:25:31  5-MIN KMSN 070825Z 20007KT 10SM SCT028 BKN034 OVC080 21/16 A2985 930 70 1900 200/07 RMK AO2
14837KMSN MSN20010707023011007/07/01 02:30:31  5-MIN KMSN 070830Z 21007KT 10SM SCT028 BKN034 OVC080 21/16 A2985 930 70 1900 210/07 RMK AO2
14837KMSN MSN20010707023509607/07/01 02:35:31  5-MIN KMSN 070835Z 20006KT 10SM OVC025 21/16 A2984 940 70 1900 200/06 RMK AO2
14837KMSN MSN20010707024009607/07/01 02:40:31  5-MIN KMSN 070840Z 20006KT 10SM OVC025 21/16 A2984 940 70 1900 200/06 RMK AO2
14837KMSN MSN20010707024509607/07/01 02:45:31  5-MIN KMSN 070845Z 20005KT 10SM OVC025 21/16 A2984 940 70 1900 200/05 RMK AO2
14837KMSN MSN20010707025012507/07/01 02:50:31  5-MIN KMSN 070850Z 20007KT 10SM OVC025 21/16 A2983 940 70 1900 200/07 RMK AO2 SLP097 60001 T02110156 58018
14837KMSN MSN20010707025509607/07/01 02:55:31  5-MIN KMSN 070855Z 21007KT 10SM OVC025 22/16 A2983 950 68 2000 200/07 RMK AO2
14837KMSN MSN20010707030009607/07/01 03:00:31  5-MIN KMSN 070900Z 20007KT 10SM OVC023 22/16 A2983 950 68 2000 200/07 RMK AO2
14837KMSN MSN20010707030509607/07/01 03:05:31  5-MIN KMSN 070905Z 20008KT 10SM OVC023 22/16 A2983 950 68 2000 200/08 RMK AO2
14837KMSN MSN20010707105012007/07/01 10:50:31  5-MIN KMSN 071650Z 23006KT 10SM FEW020 28/22 A2984 940 71 2700 230/06 RMK AO2 PRESRR SLP099 T02780222
14837KMSN MSN20010707105510307/07/01 10:55:31  5-MIN KMSN 071655Z 23005KT 10SM FEW028 27/22 A2985 930 74 2600 230/05 RMK AO2 PRESRR
14837KMSN MSN20010707110010207/07/01 11:00:31  5-MIN KMSN 071700Z VRB05KT 9SM FEW028 SCT034 27/22 A2985 930 76 2500 VRB/05 RMK AO2
14837KMSN MSN20010707110510907/07/01 11:05:31  5-MIN KMSN 071705Z 22005KT 9SM SCT028 SCT034 SCT045 27/22 A2985 930 76 2500 220/05 RMK AO2
14837KMSN MSN20010707111010907/07/01 11:10:31  5-MIN KMSN 071710Z 18004KT 9SM FEW028 SCT034 SCT045 26/22 A2983 950 76 2500 180/04 RMK AO2
14837KMSN MSN20010707111511807/07/01 11:15:31  5-MIN KMSN 071715Z 00000KT 9SM -RA FEW028 SCT040 26/22 A2983 950 76 2500 000/00 RMK AO2 RAB15 P0000
14837KMSN MSN20010707112011807/07/01 11:20:31  5-MIN KMSN 071720Z 00000KT 7SM -RA FEW028 SCT040 27/22 A2984 940 76 2500 000/00 RMK AO2 RAB15 P0000
14837KMSN MSN20010707112511807/07/01 11:25:31  5-MIN KMSN 071725Z 19004KT 5SM -RA FEW018 SCT030 26/23 A2984 940 84 2400 190/04 RMK AO2 RAB15 P0000
14837KMSN MSN20010707113011107/07/01 11:30:31  5-MIN KMSN 071730Z 00000KT 4SM -RA SCT016 26/23 A2984 940 81 2500 000/00 RMK AO2 RAB15 P0001
14837KMSN MSN20010707113511407/07/01 11:35:31  5-MIN KMSN 071735Z 25003KT 5SM -RA BR FEW016 26/23 A2985 930 87 2400 240/03 RMK AO2 RAB15 P0001
14837KMSN MSN20010707114012107/07/01 11:40:31  5-MIN KMSN 071740Z 27004KT 6SM -RA BR FEW016 26/23 A2986 920 87 2400 270/04 RMK AO2 RAB15 PRESRR P0001
14837KMSN MSN20010707114511807/07/01 11:45:31  5-MIN KMSN 071745Z 29004KT 6SM -RA FEW016 SCT036 26/23 A2987 910 84 2400 290/04 RMK AO2 RAB15 P0001
14837KMSN MSN20010707115015907/07/01 11:50:31  5-MIN KMSN 071750Z VRB04KT 7SM -RA SCT016 SCT036 26/24 A2987 910 87 2400 VRB/04 RMK AO2 RAB15 SLP109 P0001 60001 T02610239 10283 20211 50002
14837KMSN MSN20010707115510507/07/01 11:55:31  5-MIN KMSN 071755Z 28006KT 7SM -RA FEW036 27/24 A2987 910 84 2500 270/06 RMK AO2 P0000
14837KMSN MSN20010707120010907/07/01 12:00:31  5-MIN KMSN 071800Z 27006KT 8SM FEW036 27/24 A2987 910 82 2600 270/06 RMK AO2 RAE1757 P0000
14837KMSN MSN20010707120510907/07/01 12:05:31  5-MIN KMSN 071805Z 27009KT 7SM FEW036 27/24 A2988 900 82 2600 270/09 RMK AO2 RAE1757 P0000
14837KMSN MSN20010707121011807/07/01 12:10:31  5-MIN KMSN 071810Z 28010G14KT 7SM -RA FEW022 SCT037 27/23 A2989 900 82 2500 280/10G14 RMK AO2 P0000
14837KMSN MSN20010707121511107/07/01 12:15:31  5-MIN KMSN 071815Z VRB05G14KT 8SM -RA SCT022 26/23 A2988 900 84 2400 VRB/05G14 RMK AO2 P0000
14837KMSN MSN20010707122010707/07/01 12:20:31  5-MIN KMSN 071820Z 29006KT 8SM FEW022 26/23 A2986 920 81 2400 290/06 RMK AO2 RAE17 P0000
14837KMSN MSN20010707122511407/07/01 12:25:31  5-MIN KMSN 071825Z 29005KT 8SM FEW020 26/23 A2985 930 81 2500 290/05 RMK AO2 RAE17 PRESFR P0000
14837KMSN MSN20010707123011407/07/01 12:30:31  5-MIN KMSN 071830Z VRB03KT 8SM FEW020 26/23 A2983 940 81 2500 VRB/03 RMK AO2 RAE17 PRESFR P0000
14837KMSN MSN20010707123510707/07/01 12:35:31  5-MIN KMSN 071835Z 32003KT 8SM FEW020 27/23 A2983 940 79 2500 320/03 RMK AO2 RAE17 P0000
14837KMSN MSN20010707124010407/07/01 12:40:31  5-MIN KMSN 071840Z 00000KT 8SM CLR 26/23 A2983 940 81 2500 000/00 RMK AO2 RAE17 P0000
14837KMSN MSN20010707124511407/07/01 12:45:31  5-MIN KMSN 071845Z 00000KT 8SM -RA SCT035 27/23 A2982 960 79 2600 000/00 RMK AO2 RAE17B45 P0000
14837KMSN MSN20010707125013107/07/01 12:50:31  5-MIN KMSN 071850Z 20004KT 8SM -RA SCT035 27/23 A2982 950 79 2600 200/04 RMK AO2 RAE17B45 SLP094 P0000 T02670228
14837KMSN MSN20010707125510207/07/01 12:55:31  5-MIN KMSN 071855Z 00000KT 8SM -RA CLR 27/23 A2982 960 79 2600 000/00 RMK AO2 P0000
14837KMSN MSN20010707130010207/07/01 13:00:31  5-MIN KMSN 071900Z VRB03KT 9SM -RA CLR 27/23 A2983 950 79 2500 VRB/03 RMK AO2 P0000
14837KMSN MSN20010707130510207/07/01 13:05:31  5-MIN KMSN 071905Z 26007KT 9SM -RA CLR 27/23 A2984 940 76 2600 260/07 RMK AO2 P0000
14837KMSN MSN20010707131010307/07/01 13:10:31  5-MIN KMSN 071910Z VRB05KT 10SM -RA CLR 27/23 A2984 940 79 2600 VRB/05 RMK AO2 P0000
14837KMSN MSN20010707131510307/07/01 13:15:31  5-MIN KMSN 071915Z VRB06KT 10SM -RA CLR 28/23 A2984 940 76 2700 VRB/06 RMK AO2 P0000
14837KMSN MSN20010707132010307/07/01 13:20:31  5-MIN KMSN 071920Z 24008KT 10SM -RA CLR 27/23 A2985 930 76 2600 240/08 RMK AO2 P0000
14837KMSN MSN20010707132510507/07/01 13:25:31  5-MIN KMSN 071925Z VRB05KT 10SM CLR 28/23 A2984 930 74 2700 VRB/05 RMK AO2 RAE22 P0000
14837KMSN MSN20010707133010407/07/01 13:30:31  5-MIN KMSN 071930Z 22006KT 9SM CLR 28/23 A2984 940 76 2700 220/06 RMK AO2 RAE22 P0000
14837KMSN MSN20010707133512007/07/01 13:35:31  5-MIN KMSN 071935Z 25008KT 210V300 9SM CLR 28/23 A2985 930 74 2700 250/08 210V300 RMK AO2 RAE22 P0000
14837KMSN MSN20010707134010407/07/01 13:40:31  5-MIN KMSN 071940Z 24007KT 9SM CLR 28/23 A2984 940 74 2700 240/07 RMK AO2 RAE22 P0000
14837KMSN MSN20010707134510407/07/01 13:45:31  5-MIN KMSN 071945Z VRB03KT 9SM CLR 28/23 A2983 940 76 2700 VRB/03 RMK AO2 RAE22 P0000
14837KMSN MSN20010707135012407/07/01 13:50:31  5-MIN KMSN 071950Z 21007KT 9SM FEW040 28/23 A2983 950 71 2700 210/07 RMK AO2 RAE22 SLP095 P0000 T02830228
14837KMSN MSN20010707135509307/07/01 13:55:31  5-MIN KMSN 071955Z 20004KT 10SM CLR 28/23 A2983 950 74 2700 200/04 RMK AO2
14837KMSN MSN20010707140009307/07/01 14:00:31  5-MIN KMSN 072000Z 22005KT 10SM CLR 28/23 A2982 960 71 2700 220/05 RMK AO2
14837KMSN MSN20010707140509307/07/01 14:05:31  5-MIN KMSN 072005Z 19008KT 10SM CLR 28/23 A2982 960 71 2700 190/08 RMK AO2
14837KMSN MSN20010707141009307/07/01 14:10:31  5-MIN KMSN 072010Z 22007KT 10SM CLR 28/22 A2982 960 71 2700 220/07 RMK AO2
14837KMSN MSN20010707141509307/07/01 14:15:31  5-MIN KMSN 072015Z 20006KT 10SM CLR 28/22 A2981 960 71 2700 200/06 RMK AO2
14837KMSN MSN20010707142009307/07/01 14:20:31  5-MIN KMSN 072020Z 20007KT 10SM CLR 28/22 A2981 970 71 2700 200/07 RMK AO2
14837KMSN MSN20010707142509307/07/01 14:25:31  5-MIN KMSN 072025Z 21007KT 10SM CLR 28/22 A2981 970 71 2700 210/07 RMK AO2
14837KMSN MSN20010707143010007/07/01 14:30:31  5-MIN KMSN 072030Z 20007KT 10SM CLR 28/23 A2980 980 74 2700 200/07 RMK AO2 PRESFR
14837KMSN MSN20010707143510107/07/01 14:35:31  5-MIN KMSN 072035Z 17006KT 10SM CLR 28/23 A2977 1010 74 2700 170/06 RMK AO2 PRESFR
14837KMSN MSN20010707144010107/07/01 14:40:31  5-MIN KMSN 072040Z 16008KT 10SM CLR 28/23 A2975 1020 71 2800 160/08 RMK AO2 PRESFR
14837KMSN MSN20010707144509407/07/01 14:45:31  5-MIN KMSN 072045Z 15008KT 10SM CLR 28/23 A2975 1020 71 2800 150/08 RMK AO2
14837KMSN MSN20010707145012307/07/01 14:50:31  5-MIN KMSN 072050Z 17005KT 10SM CLR 28/23 A2976 1020 71 2800 170/05 RMK AO2 SLP069 60000 T02830228 53017
14837KMSN MSN20010707145509407/07/01 14:55:31  5-MIN KMSN 072055Z 17007KT 10SM CLR 28/23 A2975 1020 71 2800 170/07 RMK AO2
14837KMSN MSN20010707150009407/07/01 15:00:31  5-MIN KMSN 072100Z 17005KT 10SM CLR 28/23 A2975 1030 71 2800 170/05 RMK AO2
14837KMSN MSN20010707150509407/07/01 15:05:31  5-MIN KMSN 072105Z 16006KT 10SM CLR 28/23 A2974 1030 74 2800 160/06 RMK AO2
14837KMSN MSN20010707151009407/07/01 15:10:31  5-MIN KMSN 072110Z 18007KT 10SM CLR 28/23 A2975 1020 71 2800 180/07 RMK AO2
14837KMSN MSN20010707151509407/07/01 15:15:31  5-MIN KMSN 072115Z 19004KT 10SM CLR 28/23 A2975 1020 71 2800 190/04 RMK AO2
14837KMSN MSN20010707152009407/07/01 15:20:31  5-MIN KMSN 072120Z 18004KT 10SM CLR 28/23 A2975 1020 71 2800 180/04 RMK AO2
14837KMSN MSN20010707152509407/07/01 15:25:31  5-MIN KMSN 072125Z VRB03KT 10SM CLR 28/23 A2976 1020 74 2800 VRB/03 RMK AO2
14837KMSN MSN20010707153009407/07/01 15:30:31  5-MIN KMSN 072130Z 24003KT 10SM CLR 28/23 A2976 1010 71 2800 240/03 RMK AO2
14837KMSN MSN20010707153509407/07/01 15:35:31  5-MIN KMSN 072135Z 24004KT 10SM CLR 28/23 A2977 1010 74 2800 240/04 RMK AO2
14837KMSN MSN20010707154009407/07/01 15:40:31  5-MIN KMSN 072140Z 24005KT 10SM CLR 28/23 A2977 1000 74 2800 230/05 RMK AO2
14837KMSN MSN20010707154509307/07/01 15:45:31  5-MIN KMSN 072145Z 25004KT 10SM CLR 28/23 A2978 990 76 2700 250/04 RMK AO2
14837KMSN MSN20010707155011607/07/01 15:50:31  5-MIN KMSN 072150Z VRB04KT 9SM CLR 28/23 A2979 990 74 2800 VRB/04 RMK AO2 PRESRR SLP080 T02830233
14837KMSN MSN20010707155509907/07/01 15:55:31  5-MIN KMSN 072155Z 27003KT 9SM CLR 28/23 A2980 980 74 2800 270/03 RMK AO2 PRESRR
14837KMSN MSN20010707160009907/07/01 16:00:31  5-MIN KMSN 072200Z 28006KT 9SM CLR 28/23 A2980 970 74 2800 280/06 RMK AO2 PRESRR
14837KMSN MSN20010707160509207/07/01 16:05:31  5-MIN KMSN 072205Z 28005KT 9SM CLR 28/23 A2981 970 74 2800 280/05 RMK AO2
14837KMSN MSN20010707161009307/07/01 16:10:31  5-MIN KMSN 072210Z 27005KT 10SM CLR 28/23 A2981 970 74 2800 270/05 RMK AO2
14837KMSN MSN20010707161509307/07/01 16:15:31  5-MIN KMSN 072215Z VRB04KT 10SM CLR 29/23 A2981 970 71 2800 VRB/04 RMK AO2
14837KMSN MSN20010707162009307/07/01 16:20:31  5-MIN KMSN 072220Z VRB06KT 10SM CLR 29/23 A2981 970 71 2800 VRB/06 RMK AO2
14837KMSN MSN20010707162509607/07/01 16:25:31  5-MIN KMSN 072225Z 30006KT 10SM FEW024 29/24 A2981 960 71 2900 300/06 RMK AO2
14837KMSN MSN20010707163011207/07/01 16:30:31  5-MIN KMSN 072230Z 27009KT 230V310 10SM FEW024 29/24 A2981 960 71 2900 270/09 230V310 RMK AO2
14837KMSN MSN20010707163511207/07/01 16:35:31  5-MIN KMSN 072235Z 27007KT 240V300 10SM FEW024 29/23 A2981 960 71 2800 270/07 240V300 RMK AO2
14837KMSN MSN20010707164009607/07/01 16:40:31  5-MIN KMSN 072240Z 29007KT 10SM FEW024 29/23 A2982 960 71 2800 280/07 RMK AO2
14837KMSN MSN20010707164509607/07/01 16:45:31  5-MIN KMSN 072245Z 30007KT 10SM FEW024 29/23 A2982 960 71 2800 290/07 RMK AO2
14837KMSN MSN20010707165011307/07/01 16:50:31  5-MIN KMSN 072250Z 29008KT 10SM FEW024 29/23 A2982 960 69 2800 290/08 RMK AO2 SLP092 T02890228
14837KMSN MSN20010707165509607/07/01 16:55:31  5-MIN KMSN 072255Z 29008KT 10SM FEW024 29/23 A2982 950 69 2800 290/08 RMK AO2
14837KMSN MSN20010707170009307/07/01 17:00:31  5-MIN KMSN 072300Z 27007KT 10SM CLR 29/23 A2982 950 71 2800 270/07 RMK AO2
14837KMSN MSN20010707170509607/07/01 17:05:31  5-MIN KMSN 072305Z VRB06KT 10SM FEW024 29/23 A2983 950 71 2800 VRB/06 RMK AO2
14837KMSN MSN20010707171009607/07/01 17:10:31  5-MIN KMSN 072310Z 27007KT 10SM FEW024 29/23 A2983 950 71 2800 270/07 RMK AO2
14837KMSN MSN20010707171509607/07/01 17:15:31  5-MIN KMSN 072315Z 27007KT 10SM FEW024 29/23 A2983 950 71 2800 270/07 RMK AO2
14837KMSN MSN20010707172009607/07/01 17:20:31  5-MIN KMSN 072320Z 26007KT 10SM FEW024 29/23 A2983 940 71 2800 260/07 RMK AO2
14837KMSN MSN20010707172509607/07/01 17:25:31  5-MIN KMSN 072325Z 27008KT 10SM FEW024 29/23 A2984 940 71 2800 260/08 RMK AO2
14837KMSN MSN20010707173009607/07/01 17:30:31  5-MIN KMSN 072330Z 27005KT 10SM SCT024 29/23 A2984 940 69 2800 270/05 RMK AO2
14837KMSN MSN20010707173509607/07/01 17:35:31  5-MIN KMSN 072335Z 29008KT 10SM SCT024 29/23 A2984 940 71 2800 280/08 RMK AO2
14837KMSN MSN20010707174009607/07/01 17:40:31  5-MIN KMSN 072340Z 28007KT 10SM SCT028 28/23 A2984 940 71 2700 280/07 RMK AO2
14837KMSN MSN20010707174509607/07/01 17:45:31  5-MIN KMSN 072345Z 28005KT 10SM SCT028 28/23 A2984 940 71 2700 280/05 RMK AO2
14837KMSN MSN20010707175013707/07/01 17:50:31  5-MIN KMSN 072350Z VRB06KT 10SM SCT028 28/23 A2985 930 71 2700 VRB/06 RMK AO2 SLP101 60000 T02830228 10294 20261 58038
14837KMSN MSN20010707175511207/07/01 17:55:31  5-MIN KMSN 072355Z 26008KT 240V300 10SM FEW028 28/23 A2985 930 71 2700 260/08 240V300 RMK AO2
14837KMSN MSN20010707180009607/07/01 18:00:31  5-MIN KMSN 080000Z VRB06KT 10SM FEW028 28/23 A2985 930 71 2700 VRB/06 RMK AO2
14837KMSN MSN20010707180510307/07/01 18:05:31  5-MIN KMSN 080005Z VRB05KT 10SM FEW026 SCT035 28/23 A2985 930 71 2700 VRB/05 RMK AO2
14837KMSN MSN20010707181010307/07/01 18:10:31  5-MIN KMSN 080010Z 26005KT 10SM FEW028 SCT035 28/23 A2985 930 71 2700 260/05 RMK AO2
14837KMSN MSN20010707181510307/07/01 18:15:31  5-MIN KMSN 080015Z 26006KT 10SM FEW028 SCT035 28/23 A2985 930 74 2600 250/06 RMK AO2
14837KMSN MSN20010707182010307/07/01 18:20:31  5-MIN KMSN 080020Z 24005KT 10SM FEW028 SCT035 28/23 A2985 920 74 2600 240/05 RMK AO2
14837KMSN MSN20010707182509607/07/01 18:25:31  5-MIN KMSN 080025Z VRB04KT 10SM FEW028 28/23 A2986 920 74 2600 VRB/04 RMK AO2
14837KMSN MSN20010707183009607/07/01 18:30:31  5-MIN KMSN 080030Z 25006KT 10SM FEW033 28/23 A2986 920 74 2600 250/06 RMK AO2
14837KMSN MSN20010707183509607/07/01 18:35:31  5-MIN KMSN 080035Z VRB05KT 10SM FEW033 28/23 A2986 920 74 2600 VRB/05 RMK AO2
14837KMSN MSN20010707184009607/07/01 18:40:31  5-MIN KMSN 080040Z 26006KT 10SM FEW028 28/23 A2986 920 74 2600 250/06 RMK AO2
14837KMSN MSN20010707184509607/07/01 18:45:31  5-MIN KMSN 080045Z 25005KT 10SM FEW028 28/23 A2986 920 74 2600 250/05 RMK AO2
14837KMSN MSN20010707185011307/07/01 18:50:31  5-MIN KMSN 080050Z 26004KT 10SM SCT028 28/23 A2986 920 74 2600 260/04 RMK AO2 SLP105 T02780228
14837KMSN MSN20010707185509607/07/01 18:55:31  5-MIN KMSN 080055Z VRB05KT 10SM FEW028 28/23 A2986 920 74 2600 VRB/05 RMK AO2
14837KMSN MSN20010707190009607/07/01 19:00:31  5-MIN KMSN 080100Z VRB05KT 10SM FEW028 28/23 A2986 920 74 2600 VRB/05 RMK AO2
14837KMSN MSN20010707190509607/07/01 19:05:31  5-MIN KMSN 080105Z VRB04KT 10SM FEW028 28/23 A2986 920 74 2600 VRB/04 RMK AO2
14837KMSN MSN20010707191009607/07/01 19:10:31  5-MIN KMSN 080110Z VRB03KT 10SM FEW028 27/23 A2986 920 76 2600 VRB/03 RMK AO2
14837KMSN MSN20010707191509607/07/01 19:15:31  5-MIN KMSN 080115Z VRB03KT 10SM FEW028 27/23 A2986 920 76 2600 VRB/03 RMK AO2
14837KMSN MSN20010707192009307/07/01 19:20:31  5-MIN KMSN 080120Z 28003KT 10SM CLR 27/23 A2986 920 76 2600 270/03 RMK AO2
14837KMSN MSN20010707192509307/07/01 19:25:31  5-MIN KMSN 080125Z 29003KT 10SM CLR 27/23 A2986 920 79 2500 280/03 RMK AO2
14837KMSN MSN20010707193009307/07/01 19:30:31  5-MIN KMSN 080130Z 28003KT 10SM CLR 27/23 A2986 920 79 2500 280/03 RMK AO2
14837KMSN MSN20010707193509307/07/01 19:35:31  5-MIN KMSN 080135Z 27003KT 10SM CLR 27/23 A2986 920 79 2500 270/03 RMK AO2
14837KMSN MSN20010707194009607/07/01 19:40:31  5-MIN KMSN 080140Z 27003KT 10SM FEW028 26/23 A2986 920 81 2500 270/03 RMK AO2
14837KMSN MSN20010707194509607/07/01 19:45:31  5-MIN KMSN 080145Z 00000KT 10SM FEW028 26/23 A2986 920 81 2500 000/00 RMK AO2
14837KMSN MSN20010707195011307/07/01 19:50:31  5-MIN KMSN 080150Z VRB03KT 10SM FEW028 26/23 A2986 920 81 2500 VRB/03 RMK AO2 SLP106 T02610228
14837KMSN MSN20010707195509507/07/01 19:55:31  5-MIN KMSN 080155Z 00000KT 9SM FEW028 26/23 A2986 920 81 2400 000/00 RMK AO2
14837KMSN MSN20010707200009507/07/01 20:00:31  5-MIN KMSN 080200Z 00000KT 9SM FEW028 26/23 A2986 920 81 2400 000/00 RMK AO2
14837KMSN MSN20010707200509507/07/01 20:05:31  5-MIN KMSN 080205Z 00000KT 9SM FEW028 26/23 A2987 910 81 2400 000/00 RMK AO2
14837KMSN MSN20010707201009607/07/01 20:10:31  5-MIN KMSN 080210Z 00000KT 10SM FEW028 26/23 A2987 910 84 2400 000/00 RMK AO2
14837KMSN MSN20010707201509607/07/01 20:15:31  5-MIN KMSN 080215Z 00000KT 10SM FEW028 26/23 A2987 910 84 2400 000/00 RMK AO2
14837KMSN MSN20010707202009607/07/01 20:20:31  5-MIN KMSN 080220Z 00000KT 10SM FEW028 25/23 A2987 910 87 2300 000/00 RMK AO2
14837KMSN MSN20010707202509507/07/01 20:25:31  5-MIN KMSN 080225Z 00000KT 9SM FEW028 24/23 A2987 910 90 2200 000/00 RMK AO2
14837KMSN MSN20010707203009507/07/01 20:30:31  5-MIN KMSN 080230Z 00000KT 8SM FEW028 24/23 A2988 910 93 2200 000/00 RMK AO2
14837KMSN MSN20010707203509507/07/01 20:35:31  5-MIN KMSN 080235Z 00000KT 8SM FEW028 24/22 A2988 900 90 2200 000/00 RMK AO2
14837KMSN MSN20010707204009507/07/01 20:40:31  5-MIN KMSN 080240Z 00000KT 8SM FEW028 23/22 A2988 900 93 2100 000/00 RMK AO2
14837KMSN MSN20010707204509507/07/01 20:45:31  5-MIN KMSN 080245Z 00000KT 7SM FEW028 23/23 A2988 900 97 2100 000/00 RMK AO2
14837KMSN MSN20010707205011507/07/01 20:50:31  5-MIN KMSN 080250Z 00000KT 7SM CLR 23/22 A2988 900 93 2100 000/00 RMK AO2 SLP114 T02330222 51030
14837KMSN MSN20010707205509507/07/01 20:55:31  5-MIN KMSN 080255Z 00000KT 6SM BR CLR 23/22 A2988 900 97 2000 000/00 RMK AO2
14837KMSN MSN20010707210009507/07/01 21:00:31  5-MIN KMSN 080300Z 00000KT 6SM BR CLR 23/22 A2988 900 97 2000 000/00 RMK AO2
14837KMSN MSN20010707210509507/07/01 21:05:31  5-MIN KMSN 080305Z 00000KT 6SM BR CLR 23/22 A2988 900 97 2000 000/00 RMK AO2
14837KMSN MSN20010707211009507/07/01 21:10:31  5-MIN KMSN 080310Z 00000KT 6SM BR CLR 23/22 A2989 900 93 2000 000/00 RMK AO2
14837KMSN MSN20010707211509507/07/01 21:15:31  5-MIN KMSN 080315Z 29003KT 6SM BR CLR 23/22 A2989 900 97 2000 290/03 RMK AO2
14837KMSN MSN20010707212009207/07/01 21:20:31  5-MIN KMSN 080320Z 31003KT 7SM CLR 23/22 A2989 900 97 2000 310/03 RMK AO2
14837KMSN MSN20010707212509207/07/01 21:25:31  5-MIN KMSN 080325Z 31004KT 7SM CLR 22/22 A2989 900 97 2000 300/04 RMK AO2
14837KMSN MSN20010707213009507/07/01 21:30:31  5-MIN KMSN 080330Z 31004KT 6SM BR CLR 22/22 A2989 900 97 2000 310/04 RMK AO2
14837KMSN MSN20010707213509507/07/01 21:35:31  5-MIN KMSN 080335Z 31004KT 6SM BR CLR 23/22 A2989 900 97 2000 300/04 RMK AO2
14837KMSN MSN20010707214009207/07/01 21:40:31  5-MIN KMSN 080340Z 28003KT 7SM CLR 22/22 A2989 900 97 2000 280/03 RMK AO2
14837KMSN MSN20010707214509507/07/01 21:45:31  5-MIN KMSN 080345Z 00000KT 6SM BR CLR 22/22 A2989 900 97 2000 000/00 RMK AO2
14837KMSN MSN20010707215011207/07/01 21:50:31  5-MIN KMSN 080350Z 00000KT 6SM BR CLR 22/21 A2989 900 93 2000 000/00 RMK AO2 SLP115 T02220211
14837KMSN MSN20010707215509507/07/01 21:55:31  5-MIN KMSN 080355Z 00000KT 4SM BR CLR 22/22 A2989 890 97 2000 000/00 RMK AO2
14837KMSN MSN20010707220009507/07/01 22:00:31  5-MIN KMSN 080400Z 29003KT 5SM BR CLR 22/22 A2989 890 97 2000 290/03 RMK AO2
14837KMSN MSN20010707220509507/07/01 22:05:31  5-MIN KMSN 080405Z 30003KT 5SM BR CLR 22/22 A2989 890 97 2000 300/03 RMK AO2
14837KMSN MSN20010707221009607/07/01 22:10:31  5-MIN KMSN 080410Z 29003KT 5SM BR CLR 22/22 A2989 890 100 1900 290/03 RMK AO2
14837KMSN MSN20010707221509507/07/01 22:15:31  5-MIN KMSN 080415Z 29003KT 5SM BR CLR 22/21 A2989 890 97 1900 290/03 RMK AO2
14837KMSN MSN20010707222009507/07/01 22:20:31  5-MIN KMSN 080420Z 31003KT 5SM BR CLR 22/22 A2989 890 97 2000 310/03 RMK AO2
14837KMSN MSN20010707222509507/07/01 22:25:31  5-MIN KMSN 080425Z 30003KT 5SM BR CLR 22/21 A2989 890 97 1900 300/03 RMK AO2
14837KMSN MSN20010707223009507/07/01 22:30:31  5-MIN KMSN 080430Z 32003KT 5SM BR CLR 22/21 A2989 890 97 1900 320/03 RMK AO2
14837KMSN MSN20010707223509507/07/01 22:35:31  5-MIN KMSN 080435Z 00000KT 5SM BR CLR 22/21 A2989 890 97 1900 000/00 RMK AO2
14837KMSN MSN20010707224010107/07/01 22:40:31  5-MIN KMSN 080440Z 00000KT 4SM BCFG BR CLR 21/21 A2989 890 100 1800 000/00 RMK AO2
14837KMSN MSN20010707224510107/07/01 22:45:31  5-MIN KMSN 080445Z 00000KT 4SM BCFG BR CLR 21/21 A2989 890 100 1800 000/00 RMK AO2
14837KMSN MSN20010708152009607/08/01 15:20:31  5-MIN KMSN 082120Z VRB04KT 10SM FEW060 33/18 A2983 940 41 3200 VRB/04 RMK AO2
14837KMSN MSN20010708152509607/08/01 15:25:31  5-MIN KMSN 082125Z 00000KT 10SM FEW060 32/18 A2983 950 41 3200 000/00 RMK AO2
14837KMSN MSN20010708153009607/08/01 15:30:31  5-MIN KMSN 082130Z 27003KT 10SM FEW060 33/18 A2983 950 41 3200 270/03 RMK AO2
14837KMSN MSN20010708153509607/08/01 15:35:31  5-MIN KMSN 082135Z VRB03KT 10SM FEW060 33/18 A2983 950 40 3200 VRB/03 RMK AO2
14837KMSN MSN20010708154009607/08/01 15:40:31  5-MIN KMSN 082140Z 28003KT 10SM FEW060 33/18 A2983 950 41 3200 280/03 RMK AO2
14837KMSN MSN20010708154509607/08/01 15:45:31  5-MIN KMSN 082145Z 25004KT 10SM FEW060 32/18 A2983 950 43 3200 250/04 RMK AO2
14837KMSN MSN20010708155011307/08/01 15:50:31  5-MIN KMSN 082150Z VRB03KT 10SM FEW060 32/18 A2983 950 41 3200 VRB/03 RMK AO2 SLP095 T03220178
14837KMSN MSN20010708155509307/08/01 15:55:31  5-MIN KMSN 082155Z 00000KT 10SM CLR 32/18 A2983 950 41 3200 000/00 RMK AO2
14837KMSN MSN20010708160009307/08/01 16:00:31  5-MIN KMSN 082200Z 00000KT 10SM CLR 33/18 A2983 950 40 3200 000/00 RMK AO2
14837KMSN MSN20010708160509307/08/01 16:05:31  5-MIN KMSN 082205Z 14003KT 10SM CLR 33/18 A2983 950 41 3200 140/03 RMK AO2
14837KMSN MSN20010708161009307/08/01 16:10:31  5-MIN KMSN 082210Z 00000KT 10SM CLR 33/18 A2983 950 40 3200 000/00 RMK AO2
14837KMSN MSN20010708161509307/08/01 16:15:31  5-MIN KMSN 082215Z 36003KT 10SM CLR 33/18 A2983 950 40 3200 360/03 RMK AO2
14837KMSN MSN20010708162009307/08/01 16:20:31  5-MIN KMSN 082220Z VRB03KT 10SM CLR 33/18 A2983 950 41 3200 VRB/03 RMK AO2
14837KMSN MSN20010708162509307/08/01 16:25:31  5-MIN KMSN 082225Z 00000KT 10SM CLR 33/18 A2983 950 40 3200 000/00 RMK AO2
14837KMSN MSN20010708163009307/08/01 16:30:31  5-MIN KMSN 082230Z VRB04KT 10SM CLR 33/18 A2983 950 40 3200 VRB/04 RMK AO2
14837KMSN MSN20010708163509307/08/01 16:35:31  5-MIN KMSN 082235Z VRB06KT 10SM CLR 32/18 A2983 950 44 3100 VRB/06 RMK AO2
14837KMSN MSN20010708164009307/08/01 16:40:31  5-MIN KMSN 082240Z 24004KT 10SM CLR 32/18 A2983 950 44 3100 240/04 RMK AO2
14837KMSN MSN20010708164509307/08/01 16:45:31  5-MIN KMSN 082245Z 23006KT 10SM CLR 32/18 A2983 950 43 3100 230/06 RMK AO2
14837KMSN MSN20010708165011307/08/01 16:50:31  5-MIN KMSN 082250Z 23006KT 10SM FEW060 32/18 A2983 950 43 3100 230/06 RMK AO2 SLP095 T03170178
14837KMSN MSN20010708165509307/08/01 16:55:31  5-MIN KMSN 082255Z 22005KT 10SM CLR 32/18 A2983 950 43 3100 220/05 RMK AO2
14837KMSN MSN20010708170009307/08/01 17:00:31  5-MIN KMSN 082300Z 23005KT 10SM CLR 32/18 A2983 950 44 3100 230/05 RMK AO2
14837KMSN MSN20010708170509307/08/01 17:05:31  5-MIN KMSN 082305Z 22005KT 10SM CLR 32/18 A2983 950 44 3100 220/05 RMK AO2
14837KMSN MSN20010708171009307/08/01 17:10:31  5-MIN KMSN 082310Z 24005KT 10SM CLR 32/18 A2983 950 44 3100 240/05 RMK AO2
14837KMSN MSN20010708171509307/08/01 17:15:31  5-MIN KMSN 082315Z 23004KT 10SM CLR 32/18 A2983 950 44 3100 230/04 RMK AO2
14837KMSN MSN20010708172009307/08/01 17:20:31  5-MIN KMSN 082320Z 25004KT 10SM CLR 32/18 A2983 950 44 3100 250/04 RMK AO2
14837KMSN MSN20010708172509307/08/01 17:25:31  5-MIN KMSN 082325Z 24003KT 10SM CLR 32/18 A2983 950 44 3100 240/03 RMK AO2
14837KMSN MSN20010708173009307/08/01 17:30:31  5-MIN KMSN 082330Z 00000KT 10SM CLR 32/19 A2983 950 46 3100 000/00 RMK AO2
14837KMSN MSN20010708173509307/08/01 17:35:31  5-MIN KMSN 082335Z 21005KT 10SM CLR 32/19 A2983 950 46 3100 210/05 RMK AO2
14837KMSN MSN20010708174009307/08/01 17:40:31  5-MIN KMSN 082340Z VRB04KT 10SM CLR 32/19 A2983 950 46 3100 VRB/04 RMK AO2
14837KMSN MSN20010708174509607/08/01 17:45:31  5-MIN KMSN 082345Z 23004KT 10SM FEW070 31/19 A2983 950 47 3000 230/04 RMK AO2
14837KMSN MSN20010708175013107/08/01 17:50:31  5-MIN KMSN 082350Z 23004KT 10SM FEW070 31/19 A2983 950 47 3000 230/04 RMK AO2 SLP094 T03110189 10328 20306 58017
14837KMSN MSN20010708175509307/08/01 17:55:31  5-MIN KMSN 082355Z 22003KT 10SM CLR 31/19 A2983 950 47 3000 220/03 RMK AO2
14837KMSN MSN20010708180009307/08/01 18:00:31  5-MIN KMSN 090000Z 22003KT 10SM CLR 31/19 A2983 950 47 3000 220/03 RMK AO2
14837KMSN MSN20010708180509307/08/01 18:05:31  5-MIN KMSN 090005Z 24004KT 10SM CLR 31/19 A2983 950 47 3000 230/04 RMK AO2
14837KMSN MSN20010708181009307/08/01 18:10:31  5-MIN KMSN 090010Z 23003KT 10SM CLR 31/19 A2983 950 47 3000 230/03 RMK AO2
14837KMSN MSN20010708181509307/08/01 18:15:31  5-MIN KMSN 090015Z VRB04KT 10SM CLR 31/19 A2983 950 49 3000 VRB/04 RMK AO2
14837KMSN MSN20010708182009307/08/01 18:20:31  5-MIN KMSN 090020Z 23003KT 10SM CLR 31/19 A2984 940 49 3000 220/03 RMK AO2
14837KMSN MSN20010708182509607/08/01 18:25:31  5-MIN KMSN 090025Z 00000KT 10SM FEW055 30/19 A2984 940 52 2900 000/00 RMK AO2
14837KMSN MSN20010708183009607/08/01 18:30:31  5-MIN KMSN 090030Z 21004KT 10SM FEW055 30/19 A2984 940 52 2900 210/04 RMK AO2
14837KMSN MSN20010708183509607/08/01 18:35:31  5-MIN KMSN 090035Z 23003KT 10SM SCT055 30/20 A2984 940 54 2900 230/03 RMK AO2
14837KMSN MSN20010708184009607/08/01 18:40:31  5-MIN KMSN 090040Z 23004KT 10SM SCT055 30/20 A2984 940 54 2900 230/04 RMK AO2
14837KMSN MSN20010708184509607/08/01 18:45:31  5-MIN KMSN 090045Z 23004KT 10SM FEW055 29/20 A2984 940 56 2800 230/04 RMK AO2
14837KMSN MSN20010708185011307/08/01 18:50:31  5-MIN KMSN 090050Z 23004KT 10SM SCT060 29/20 A2984 930 56 2800 230/04 RMK AO2 SLP100 T02940200
14837KMSN MSN20010708185510307/08/01 18:55:31  5-MIN KMSN 090055Z 22004KT 10SM SCT060 BKN080 29/21 A2985 930 58 2800 220/04 RMK AO2
14837KMSN MSN20010708190010307/08/01 19:00:31  5-MIN KMSN 090100Z 22005KT 10SM SCT060 SCT080 29/21 A2985 930 58 2800 220/05 RMK AO2
14837KMSN MSN20010708190510307/08/01 19:05:31  5-MIN KMSN 090105Z 22004KT 10SM SCT060 SCT080 29/21 A2985 930 60 2800 220/04 RMK AO2
14837KMSN MSN20010708191010307/08/01 19:10:31  5-MIN KMSN 090110Z 22004KT 10SM SCT060 SCT080 29/21 A2985 930 62 2800 220/04 RMK AO2
14837KMSN MSN20010708191510307/08/01 19:15:31  5-MIN KMSN 090115Z 22004KT 10SM FEW060 SCT080 29/21 A2985 930 62 2800 220/04 RMK AO2
14837KMSN MSN20010708192009607/08/01 19:20:31  5-MIN KMSN 090120Z 22004KT 10SM FEW055 29/21 A2985 930 62 2800 220/04 RMK AO2
14837KMSN MSN20010708192509607/08/01 19:25:31  5-MIN KMSN 090125Z 23005KT 10SM FEW055 29/21 A2985 930 62 2800 230/05 RMK AO2
14837KMSN MSN20010708193009607/08/01 19:30:31  5-MIN KMSN 090130Z 22005KT 10SM FEW055 29/21 A2985 930 60 2800 220/05 RMK AO2
14837KMSN MSN20010708193509307/08/01 19:35:31  5-MIN KMSN 090135Z 22004KT 10SM CLR 29/21 A2985 930 60 2800 220/04 RMK AO2
14837KMSN MSN20010708194009307/08/01 19:40:31  5-MIN KMSN 090140Z 22004KT 10SM CLR 28/21 A2985 930 62 2700 220/04 RMK AO2
14837KMSN MSN20010708194509307/08/01 19:45:31  5-MIN KMSN 090145Z 22004KT 10SM CLR 28/21 A2985 930 62 2700 220/04 RMK AO2
14837KMSN MSN20010708195011307/08/01 19:50:31  5-MIN KMSN 090150Z 22005KT 10SM FEW055 28/21 A2985 930 62 2700 220/05 RMK AO2 SLP101 T02830206
14837KMSN MSN20010708195509307/08/01 19:55:31  5-MIN KMSN 090155Z 22005KT 10SM CLR 28/21 A2985 930 64 2600 220/05 RMK AO2
14837KMSN MSN20010708200009307/08/01 20:00:31  5-MIN KMSN 090200Z 22005KT 10SM CLR 28/21 A2985 930 62 2700 220/05 RMK AO2
14837KMSN MSN20010708200509307/08/01 20:05:31  5-MIN KMSN 090205Z 22005KT 10SM CLR 28/20 A2985 930 62 2600 220/05 RMK AO2
14837KMSN MSN20010708201009307/08/01 20:10:31  5-MIN KMSN 090210Z 22006KT 10SM CLR 28/20 A2986 920 62 2600 220/06 RMK AO2
14837KMSN MSN20010708201509307/08/01 20:15:31  5-MIN KMSN 090215Z 21005KT 10SM CLR 28/20 A2986 920 62 2600 210/05 RMK AO2
14837KMSN MSN20010708202009307/08/01 20:20:31  5-MIN KMSN 090220Z 22005KT 10SM CLR 28/20 A2986 920 62 2600 220/05 RMK AO2
14837KMSN MSN20010708202509307/08/01 20:25:31  5-MIN KMSN 090225Z 22004KT 10SM CLR 28/20 A2986 920 62 2600 220/04 RMK AO2
14837KMSN MSN20010708203009307/08/01 20:30:31  5-MIN KMSN 090230Z 22005KT 10SM CLR 28/20 A2986 920 62 2600 220/05 RMK AO2
14837KMSN MSN20010708203509307/08/01 20:35:31  5-MIN KMSN 090235Z 21005KT 10SM CLR 28/20 A2986 920 62 2600 210/05 RMK AO2
14837KMSN MSN20010708204009307/08/01 20:40:31  5-MIN KMSN 090240Z 22006KT 10SM CLR 28/20 A2986 920 62 2600 220/06 RMK AO2
14837KMSN MSN20010708204509307/08/01 20:45:31  5-MIN KMSN 090245Z 21005KT 10SM CLR 28/20 A2986 920 62 2600 210/05 RMK AO2
14837KMSN MSN20010708205011907/08/01 20:50:31  5-MIN KMSN 090250Z 22006KT 10SM FEW060 28/20 A2986 920 62 2600 220/06 RMK AO2 SLP105 T02780200 56006
14837KMSN MSN20010708205509307/08/01 20:55:31  5-MIN KMSN 090255Z 21005KT 10SM CLR 28/20 A2986 920 62 2600 210/05 RMK AO2
14837KMSN MSN20010708210009307/08/01 21:00:31  5-MIN KMSN 090300Z 21006KT 10SM CLR 28/20 A2986 920 62 2600 210/06 RMK AO2
14837KMSN MSN20010708210509307/08/01 21:05:31  5-MIN KMSN 090305Z 21004KT 10SM CLR 28/20 A2986 920 62 2600 210/04 RMK AO2
14837KMSN MSN20010708211009307/08/01 21:10:31  5-MIN KMSN 090310Z 22005KT 10SM CLR 27/20 A2986 920 64 2600 220/05 RMK AO2
14837KMSN MSN20010708211509307/08/01 21:15:31  5-MIN KMSN 090315Z 22006KT 10SM CLR 27/21 A2986 920 66 2600 220/06 RMK AO2
14837KMSN MSN20010708212009307/08/01 21:20:31  5-MIN KMSN 090320Z 22006KT 10SM CLR 27/21 A2986 920 66 2600 220/06 RMK AO2
14837KMSN MSN20010708212509307/08/01 21:25:31  5-MIN KMSN 090325Z 22007KT 10SM CLR 28/21 A2986 920 64 2600 220/07 RMK AO2
14837KMSN MSN20010708213009307/08/01 21:30:31  5-MIN KMSN 090330Z 22006KT 10SM CLR 27/21 A2986 920 66 2600 220/06 RMK AO2
14837KMSN MSN20010708213509307/08/01 21:35:31  5-MIN KMSN 090335Z 22006KT 10SM CLR 27/21 A2985 930 66 2600 220/06 RMK AO2
14837KMSN MSN20010708214009307/08/01 21:40:31  5-MIN KMSN 090340Z 22005KT 10SM CLR 27/21 A2986 920 69 2500 220/05 RMK AO2
14837KMSN MSN20010708214509307/08/01 21:45:31  5-MIN KMSN 090345Z 22005KT 10SM CLR 27/21 A2986 920 69 2500 220/05 RMK AO2
14837KMSN MSN20010708215011007/08/01 21:50:31  5-MIN KMSN 090350Z 23004KT 10SM CLR 26/21 A2986 920 71 2400 230/04 RMK AO2 SLP105 T02610206
14837KMSN MSN20010708215509307/08/01 21:55:31  5-MIN KMSN 090355Z 22004KT 10SM CLR 26/21 A2986 920 73 2400 220/04 RMK AO2
14837KMSN MSN20010708220009307/08/01 22:00:31  5-MIN KMSN 090400Z 22005KT 10SM CLR 27/21 A2986 920 71 2500 220/05 RMK AO2
14837KMSN MSN20010708220509307/08/01 22:05:31  5-MIN KMSN 090405Z 22006KT 10SM CLR 26/21 A2986 920 73 2400 220/06 RMK AO2
14837KMSN MSN20010708221009307/08/01 22:10:31  5-MIN KMSN 090410Z 22004KT 10SM CLR 26/21 A2986 920 73 2400 220/04 RMK AO2
14837KMSN MSN20010708221509307/08/01 22:15:31  5-MIN KMSN 090415Z 22005KT 10SM CLR 26/21 A2987 910 73 2400 220/05 RMK AO2
14837KMSN MSN20010708222009307/08/01 22:20:31  5-MIN KMSN 090420Z 22006KT 10SM CLR 26/21 A2987 910 73 2400 220/06 RMK AO2
14837KMSN MSN20010708222509307/08/01 22:25:31  5-MIN KMSN 090425Z 22006KT 10SM CLR 27/21 A2987 910 71 2500 220/06 RMK AO2
14837KMSN MSN20010708223009307/08/01 22:30:31  5-MIN KMSN 090430Z 22006KT 10SM CLR 26/21 A2987 910 73 2400 220/06 RMK AO2
14837KMSN MSN20010708223509307/08/01 22:35:31  5-MIN KMSN 090435Z 23005KT 10SM CLR 26/21 A2987 910 73 2400 230/05 RMK AO2
14837KMSN MSN20010708224009607/08/01 22:40:31  5-MIN KMSN 090440Z VRB03KT 10SM FEW060 26/21 A2987 910 73 2400 VRB/03 RMK AO2
14837KMSN MSN20010708224510307/08/01 22:45:31  5-MIN KMSN 090445Z 34009KT 10SM FEW060 SCT110 26/22 A2988 900 79 2400 340/09 RMK AO2
14837KMSN MSN20010708225012007/08/01 22:50:31  5-MIN KMSN 090450Z VRB03KT 10SM FEW060 SCT110 25/21 A2987 910 79 2300 VRB/03 RMK AO2 SLP109 T02500211
14837KMSN MSN20010708225510307/08/01 22:55:31  5-MIN KMSN 090455Z 00000KT 10SM FEW060 SCT100 24/21 A2987 910 81 2200 000/00 RMK AO2
14837KMSN MSN20010708230010307/08/01 23:00:31  5-MIN KMSN 090500Z 00000KT 10SM FEW060 SCT100 25/21 A2987 910 79 2300 000/00 RMK AO2
14837KMSN MSN20010708230510307/08/01 23:05:31  5-MIN KMSN 090505Z 00000KT 10SM SCT065 BKN110 25/21 A2987 910 79 2300 000/00 RMK AO2
14837KMSN MSN20010708231010307/08/01 23:10:31  5-MIN KMSN 090510Z 00000KT 10SM SCT065 BKN110 25/21 A2987 910 79 2300 000/00 RMK AO2
14837KMSN MSN20010708231511007/08/01 23:15:31  5-MIN KMSN 090515Z 00000KT 10SM FEW055 SCT070 SCT100 25/21 A2987 910 79 2300 000/00 RMK AO2
14837KMSN MSN20010708232010307/08/01 23:20:31  5-MIN KMSN 090520Z 00000KT 10SM BKN060 BKN075 26/21 A2987 910 76 2400 000/00 RMK AO2
14837KMSN MSN20010708232510307/08/01 23:25:31  5-MIN KMSN 090525Z 00000KT 10SM BKN060 BKN070 25/21 A2987 910 79 2300 000/00 RMK AO2
14837KMSN MSN20010708233010307/08/01 23:30:31  5-MIN KMSN 090530Z 00000KT 10SM SCT060 BKN070 25/21 A2987 910 79 2300 000/00 RMK AO2
14837KMSN MSN20010708233510307/08/01 23:35:31  5-MIN KMSN 090535Z 00000KT 10SM SCT055 SCT075 24/21 A2987 910 84 2200 000/00 RMK AO2
14837KMSN MSN20010708234009607/08/01 23:40:31  5-MIN KMSN 090540Z 00000KT 10SM SCT055 24/21 A2987 910 81 2300 000/00 RMK AO2
14837KMSN MSN20010708234509607/08/01 23:45:31  5-MIN KMSN 090545Z 00000KT 10SM FEW060 24/21 A2987 910 84 2200 000/00 RMK AO2
14837KMSN MSN20010708235014107/08/01 23:50:31  5-MIN KMSN 090550Z 00000KT 10SM FEW060 24/21 A2987 910 81 2300 000/00 RMK AO2 SLP107 T02440211 10311 20239 403280156 51012
14837KMSN MSN20010708235509307/08/01 23:55:31  5-MIN KMSN 090555Z 02004KT 10SM CLR 23/21 A2987 910 87 2100 020/04 RMK AO2
14837KMSN MSN20010709000009307/09/01 00:00:31  5-MIN KMSN 090600Z 02004KT 10SM CLR 23/21 A2987 910 84 2100 020/04 RMK AO2
14837KMSN MSN20010709000509307/09/01 00:05:31  5-MIN KMSN 090605Z 01003KT 10SM CLR 23/21 A2987 910 87 2100 010/03 RMK AO2
14837KMSN MSN20010709001009307/09/01 00:10:31  5-MIN KMSN 090610Z 36003KT 10SM CLR 23/21 A2987 910 90 2100 360/03 RMK AO2
14837KMSN MSN20010709001509207/09/01 00:15:31  5-MIN KMSN 090615Z 00000KT 9SM CLR 23/21 A2987 910 90 2100 000/00 RMK AO2
14837KMSN MSN20010709002009207/09/01 00:20:31  5-MIN KMSN 090620Z 00000KT 9SM CLR 23/21 A2987 910 87 2100 000/00 RMK AO2
14837KMSN MSN20010709002509307/09/01 00:25:31  5-MIN KMSN 090625Z 00000KT 10SM CLR 23/21 A2987 910 87 2100 000/00 RMK AO2
14837KMSN MSN20010709003009207/09/01 00:30:31  5-MIN KMSN 090630Z 00000KT 9SM CLR 23/21 A2987 910 87 2100 000/00 RMK AO2
14837KMSN MSN20010709003509207/09/01 00:35:31  5-MIN KMSN 090635Z 00000KT 8SM CLR 23/21 A2986 920 87 2100 000/00 RMK AO2
14837KMSN MSN20010709004009207/09/01 00:40:31  5-MIN KMSN 090640Z 00000KT 7SM CLR 22/21 A2986 920 97 1900 000/00 RMK AO2
14837KMSN MSN20010709004509507/09/01 00:45:31  5-MIN KMSN 090645Z 00000KT 6SM BR CLR 22/21 A2986 920 93 1900 000/00 RMK AO2
14837KMSN MSN20010709005010907/09/01 00:50:31  5-MIN KMSN 090650Z 00000KT 7SM CLR 22/21 A2986 920 93 1900 000/00 RMK AO2 SLP105 T02170206
14837KMSN MSN20010709005509207/09/01 00:55:31  5-MIN KMSN 090655Z 24003KT 7SM CLR 22/21 A2986 920 93 1900 240/03 RMK AO2
14837KMSN MSN20010709010009207/09/01 01:00:31  5-MIN KMSN 090700Z 23003KT 8SM CLR 22/21 A2986 920 93 1900 230/03 RMK AO2
14837KMSN MSN20010709010509207/09/01 01:05:31  5-MIN KMSN 090705Z 26003KT 8SM CLR 21/21 A2986 920 97 1900 250/03 RMK AO2
14837KMSN MSN20010709011009207/09/01 01:10:31  5-MIN KMSN 090710Z 26003KT 7SM CLR 21/21 A2986 920 97 1900 260/03 RMK AO2
14837KMSN MSN20010709011509207/09/01 01:15:31  5-MIN KMSN 090715Z 29003KT 7SM CLR 21/21 A2986 920 97 1900 290/03 RMK AO2
14837KMSN MSN20010709012009207/09/01 01:20:31  5-MIN KMSN 090720Z 29003KT 7SM CLR 21/21 A2987 910 97 1900 290/03 RMK AO2
14837KMSN MSN20010709012509507/09/01 01:25:31  5-MIN KMSN 090725Z 00000KT 6SM BR CLR 21/21 A2987 920 97 1900 000/00 RMK AO2
14837KMSN MSN20010709013009507/09/01 01:30:31  5-MIN KMSN 090730Z 00000KT 6SM BR CLR 21/21 A2987 910 97 1900 000/00 RMK AO2
14837KMSN MSN20010709013509507/09/01 01:35:31  5-MIN KMSN 090735Z 00000KT 6SM BR CLR 21/20 A2987 910 93 1900 000/00 RMK AO2
14837KMSN MSN20010709014009207/09/01 01:40:31  5-MIN KMSN 090740Z 00000KT 7SM CLR 21/20 A2987 920 93 1900 000/00 RMK AO2
14837KMSN MSN20010709014509207/09/01 01:45:31  5-MIN KMSN 090745Z 00000KT 8SM CLR 22/20 A2986 920 90 1900 000/00 RMK AO2
14837KMSN MSN20010709015010907/09/01 01:50:31  5-MIN KMSN 090750Z 00000KT 8SM CLR 22/20 A2987 910 90 1900 000/00 RMK AO2 SLP106 T02170200
14837KMSN MSN20010709015509507/09/01 01:55:31  5-MIN KMSN 090755Z 00000KT 6SM BR CLR 21/20 A2987 910 93 1900 000/00 RMK AO2
14837KMSN MSN20010709020009507/09/01 02:00:31  5-MIN KMSN 090800Z 32004KT 5SM BR CLR 21/20 A2987 910 97 1800 320/04 RMK AO2
14837KMSN MSN20010709020509507/09/01 02:05:31  5-MIN KMSN 090805Z 33005KT 6SM BR CLR 22/21 A2987 910 93 1900 330/05 RMK AO2
14837KMSN MSN20010709021009207/09/01 02:10:31  5-MIN KMSN 090810Z 34004KT 9SM CLR 22/20 A2987 910 90 1900 330/04 RMK AO2
14837KMSN MSN20010709021509307/09/01 02:15:31  5-MIN KMSN 090815Z 32004KT 10SM CLR 22/20 A2987 910 87 2000 320/04 RMK AO2
14837KMSN MSN20010709022009307/09/01 02:20:31  5-MIN KMSN 090820Z 33004KT 10SM CLR 22/20 A2987 910 87 2000 330/04 RMK AO2
14837KMSN MSN20010709022509307/09/01 02:25:31  5-MIN KMSN 090825Z 32005KT 10SM CLR 22/20 A2988 900 90 1900 320/05 RMK AO2
14837KMSN MSN20010709023009307/09/01 02:30:31  5-MIN KMSN 090830Z 32004KT 10SM CLR 22/20 A2988 910 87 2000 320/04 RMK AO2
14837KMSN MSN20010709023509307/09/01 02:35:31  5-MIN KMSN 090835Z 32004KT 10SM CLR 22/19 A2987 910 87 1900 320/04 RMK AO2
14837KMSN MSN20010709024009307/09/01 02:40:31  5-MIN KMSN 090840Z 32003KT 10SM CLR 22/19 A2987 910 87 1900 320/03 RMK AO2
14837KMSN MSN20010709024509307/09/01 02:45:31  5-MIN KMSN 090845Z 31003KT 10SM CLR 21/19 A2987 910 90 1900 310/03 RMK AO2
14837KMSN MSN20010709025011607/09/01 02:50:31  5-MIN KMSN 090850Z VRB03KT 10SM CLR 21/19 A2987 910 90 1900 VRB/03 RMK AO2 SLP109 T02110194 50001
14837KMSN MSN20010709025509307/09/01 02:55:31  5-MIN KMSN 090855Z VRB03KT 10SM CLR 21/19 A2988 910 90 1900 VRB/03 RMK AO2
14837KMSN MSN20010709030009307/09/01 03:00:31  5-MIN KMSN 090900Z 00000KT 10SM CLR 21/19 A2987 910 90 1900 000/00 RMK AO2
14837KMSN MSN20010709030509207/09/01 03:05:31  5-MIN KMSN 090905Z 00000KT 9SM CLR 21/19 A2988 910 90 1900 000/00 RMK AO2
14837KMSN MSN20010709031009207/09/01 03:10:31  5-MIN KMSN 090910Z VRB03KT 9SM CLR 21/19 A2987 910 90 1900 VRB/03 RMK AO2
14837KMSN MSN20010709031509207/09/01 03:15:31  5-MIN KMSN 090915Z 00000KT 9SM CLR 21/19 A2987 910 87 1900 000/00 RMK AO2
14837KMSN MSN20010709032009207/09/01 03:20:31  5-MIN KMSN 090920Z VRB03KT 9SM CLR 21/19 A2987 910 90 1900 VRB/03 RMK AO2
14837KMSN MSN20010709032509207/09/01 03:25:31  5-MIN KMSN 090925Z 00000KT 9SM CLR 21/19 A2987 910 90 1900 000/00 RMK AO2
14837KMSN MSN20010709033009207/09/01 03:30:31  5-MIN KMSN 090930Z 00000KT 9SM CLR 21/19 A2988 910 90 1800 000/00 RMK AO2
14837KMSN MSN20010709033509207/09/01 03:35:31  5-MIN KMSN 090935Z 00000KT 8SM CLR 20/19 A2988 900 93 1700 000/00 RMK AO2
14837KMSN MSN20010709034009207/09/01 03:40:31  5-MIN KMSN 090940Z 00000KT 8SM CLR 21/19 A2988 900 93 1800 000/00 RMK AO2
14837KMSN MSN20010709034509207/09/01 03:45:31  5-MIN KMSN 090945Z 00000KT 8SM CLR 21/19 A2988 900 90 1800 000/00 RMK AO2
14837KMSN MSN20010709035010907/09/01 03:50:31  5-MIN KMSN 090950Z 00000KT 8SM CLR 20/19 A2988 900 93 1700 000/00 RMK AO2 SLP112 T02000189
14837KMSN MSN20010709035509207/09/01 03:55:31  5-MIN KMSN 090955Z 00000KT 7SM CLR 19/19 A2988 900 97 1700 000/00 RMK AO2
14837KMSN MSN20010709040009207/09/01 04:00:31  5-MIN KMSN 091000Z 00000KT 7SM CLR 19/19 A2988 900 97 1700 000/00 RMK AO2
14837KMSN MSN20010709040509207/09/01 04:05:31  5-MIN KMSN 091005Z 00000KT 7SM CLR 20/19 A2989 900 93 1700 000/00 RMK AO2
14837KMSN MSN20010709041009207/09/01 04:10:31  5-MIN KMSN 091010Z 00000KT 7SM CLR 19/19 A2989 900 97 1700 000/00 RMK AO2
14837KMSN MSN20010709041509207/09/01 04:15:31  5-MIN KMSN 091015Z VRB03KT 7SM CLR 19/19 A2989 890 97 1700 VRB/03 RMK AO2
14837KMSN MSN20010709042009207/09/01 04:20:31  5-MIN KMSN 091020Z 00000KT 7SM CLR 20/19 A2989 890 93 1700 000/00 RMK AO2
14837KMSN MSN20010709042509207/09/01 04:25:31  5-MIN KMSN 091025Z 00000KT 7SM CLR 19/19 A2989 890 97 1700 000/00 RMK AO2
14837KMSN MSN20010709043009507/09/01 04:30:31  5-MIN KMSN 091030Z 00000KT 6SM BR CLR 19/18 A2989 890 97 1600 000/00 RMK AO2
14837KMSN MSN20010709043509507/09/01 04:35:31  5-MIN KMSN 091035Z 00000KT 5SM BR CLR 19/18 A2990 880 97 1600 000/00 RMK AO2
14837KMSN MSN20010709044009507/09/01 04:40:31  5-MIN KMSN 091040Z 00000KT 4SM BR CLR 19/18 A2990 880 97 1600 000/00 RMK AO2
14837KMSN MSN20010709044509507/09/01 04:45:31  5-MIN KMSN 091045Z 00000KT 4SM BR CLR 19/18 A2990 880 93 1600 000/00 RMK AO2
14837KMSN MSN20010709045011707/09/01 04:50:31  5-MIN KMSN 091050Z 00000KT 9SM MIFG BR CLR 19/19 A2990 880 97 1600 000/00 RMK AO2 SLP120 T01940189
14837KMSN MSN20010709045510007/09/01 04:55:31  5-MIN KMSN 091055Z 00000KT 5SM MIFG BR CLR 20/19 A2991 880 93 1700 000/00 RMK AO2
14837KMSN MSN20010709050010007/09/01 05:00:31  5-MIN KMSN 091100Z 00000KT 5SM MIFG BR CLR 19/19 A2991 880 97 1600 000/00 RMK AO2
14837KMSN MSN20010709050510007/09/01 05:05:31  5-MIN KMSN 091105Z 33003KT 5SM MIFG BR CLR 19/19 A2991 870 97 1600 330/03 RMK AO2
14837KMSN MSN20010709051010007/09/01 05:10:31  5-MIN KMSN 091110Z 00000KT 5SM MIFG BR CLR 19/18 A2991 870 93 1600 000/00 RMK AO2
14837KMSN MSN20010709051510007/09/01 05:15:31  5-MIN KMSN 091115Z 00000KT 6SM MIFG BR CLR 19/18 A2991 870 93 1600 000/00 RMK AO2
14837KMSN MSN20010709052010007/09/01 05:20:31  5-MIN KMSN 091120Z 00000KT 7SM MIFG BR CLR 19/18 A2991 870 93 1600 000/00 RMK AO2
14837KMSN MSN20010709052510007/09/01 05:25:31  5-MIN KMSN 091125Z 00000KT 7SM MIFG BR CLR 19/18 A2991 880 93 1600 000/00 RMK AO2
14837KMSN MSN20010709053010007/09/01 05:30:31  5-MIN KMSN 091130Z 00000KT 8SM MIFG BR CLR 21/19 A2991 870 90 1800 000/00 RMK AO2
14837KMSN MSN20010709053509207/09/01 05:35:31  5-MIN KMSN 091135Z 36003KT 8SM CLR 21/19 A2991 870 90 1800 360/03 RMK AO2
14837KMSN MSN20010709054009207/09/01 05:40:31  5-MIN KMSN 091140Z 36003KT 9SM CLR 21/19 A2991 870 87 1800 350/03 RMK AO2
14837KMSN MSN20010709054509207/09/01 05:45:31  5-MIN KMSN 091145Z 00000KT 9SM CLR 22/19 A2991 870 84 1900 000/00 RMK AO2
14837KMSN MSN20010709055012707/09/01 05:50:31  5-MIN KMSN 091150Z 00000KT 9SM CLR 22/19 A2992 870 84 1900 000/00 RMK AO2 SLP124 T02170189 10233 20189 53003
14837KMSN MSN20010709055509207/09/01 05:55:31  5-MIN KMSN 091155Z 00000KT 9SM CLR 22/19 A2992 870 84 1900 000/00 RMK AO2
14837KMSN MSN20010709060009207/09/01 06:00:31  5-MIN KMSN 091200Z 35003KT 9SM CLR 22/19 A2992 870 84 1900 350/03 RMK AO2
14837KMSN MSN20010709060509307/09/01 06:05:31  5-MIN KMSN 091205Z 35004KT 10SM CLR 22/19 A2992 860 81 1900 350/04 RMK AO2
14837KMSN MSN20010709061009307/09/01 06:10:31  5-MIN KMSN 091210Z 34005KT 10SM CLR 22/19 A2993 860 81 1900 340/05 RMK AO2
14837KMSN MSN20010709061509307/09/01 06:15:31  5-MIN KMSN 091215Z 33003KT 10SM CLR 22/19 A2993 860 81 1900 330/03 RMK AO2
14837KMSN MSN20010709062009307/09/01 06:20:31  5-MIN KMSN 091220Z VRB03KT 10SM CLR 22/19 A2993 860 81 1900 VRB/03 RMK AO2
14837KMSN MSN20010709062509307/09/01 06:25:31  5-MIN KMSN 091225Z 00000KT 10SM CLR 23/19 A2993 860 78 2000 000/00 RMK AO2
14837KMSN MSN20010709063009307/09/01 06:30:31  5-MIN KMSN 091230Z 00000KT 10SM CLR 23/19 A2993 860 78 2000 000/00 RMK AO2
14837KMSN MSN20010709063509307/09/01 06:35:31  5-MIN KMSN 091235Z 35004KT 10SM CLR 23/19 A2993 860 78 2000 350/04 RMK AO2
14837KMSN MSN20010709064009307/09/01 06:40:31  5-MIN KMSN 091240Z VRB04KT 10SM CLR 23/19 A2993 850 76 2100 VRB/04 RMK AO2
14837KMSN MSN20010709064509307/09/01 06:45:31  5-MIN KMSN 091245Z 00000KT 10SM CLR 23/19 A2993 850 76 2100 000/00 RMK AO2
14837KMSN MSN20010709065011007/09/01 06:50:31  5-MIN KMSN 091250Z 36004KT 10SM CLR 24/19 A2993 850 76 2100 360/04 RMK AO2 SLP129 T02390194
14837KMSN MSN20010709065509307/09/01 06:55:31  5-MIN KMSN 091255Z 35003KT 10SM CLR 24/19 A2994 850 76 2100 350/03 RMK AO2
14837KMSN MSN20010709070009307/09/01 07:00:31  5-MIN KMSN 091300Z 35003KT 10SM CLR 24/19 A2993 850 76 2100 350/03 RMK AO2
14837KMSN MSN20010709070509307/09/01 07:05:31  5-MIN KMSN 091305Z 36004KT 10SM CLR 24/19 A2993 850 71 2200 360/04 RMK AO2
14837KMSN MSN20010709071009307/09/01 07:10:31  5-MIN KMSN 091310Z 01005KT 10SM CLR 24/19 A2994 850 71 2200 010/05 RMK AO2
14837KMSN MSN20010709071509307/09/01 07:15:31  5-MIN KMSN 091315Z 35004KT 10SM CLR 25/19 A2994 850 68 2200 350/04 RMK AO2
14837KMSN MSN20010709072009307/09/01 07:20:31  5-MIN KMSN 091320Z 36005KT 10SM CLR 25/19 A2994 850 68 2200 360/05 RMK AO2
14837KMSN MSN20010709072509307/09/01 07:25:31  5-MIN KMSN 091325Z 35005KT 10SM CLR 25/19 A2994 850 68 2200 350/05 RMK AO2
14837KMSN MSN20010709073009307/09/01 07:30:31  5-MIN KMSN 091330Z VRB04KT 10SM CLR 26/19 A2994 850 66 2300 VRB/04 RMK AO2
14837KMSN MSN20010709073509307/09/01 07:35:31  5-MIN KMSN 091335Z 36005KT 10SM CLR 26/19 A2994 850 66 2300 360/05 RMK AO2
14837KMSN MSN20010709074009307/09/01 07:40:31  5-MIN KMSN 091340Z 36005KT 10SM CLR 26/19 A2994 850 64 2400 360/05 RMK AO2
14837KMSN MSN20010709074509307/09/01 07:45:31  5-MIN KMSN 091345Z 02005KT 10SM CLR 26/18 A2993 850 62 2400 020/05 RMK AO2
14837KMSN MSN20010709075011007/09/01 07:50:31  5-MIN KMSN 091350Z 01006KT 10SM CLR 27/18 A2993 850 60 2400 010/06 RMK AO2 SLP130 T02670183
14837KMSN MSN20010709075509307/09/01 07:55:31  5-MIN KMSN 091355Z 36005KT 10SM CLR 27/19 A2994 850 62 2400 360/05 RMK AO2
14837KMSN MSN20010709080009307/09/01 08:00:31  5-MIN KMSN 091400Z 35007KT 10SM CLR 27/18 A2994 850 60 2400 350/07 RMK AO2
14837KMSN MSN20010709080509307/09/01 08:05:31  5-MIN KMSN 091405Z 36006KT 10SM CLR 27/18 A2994 850 56 2500 360/06 RMK AO2
14837KMSN MSN20010709081009307/09/01 08:10:31  5-MIN KMSN 091410Z 36007KT 10SM CLR 28/18 A2994 850 54 2600 360/07 RMK AO2
14837KMSN MSN20010709081509307/09/01 08:15:31  5-MIN KMSN 091415Z 01007KT 10SM CLR 28/18 A2994 850 54 2600 010/07 RMK AO2
14837KMSN MSN20010709082009307/09/01 08:20:31  5-MIN KMSN 091420Z 02008KT 10SM CLR 28/17 A2994 850 52 2600 020/08 RMK AO2
14837KMSN MSN20010709082509307/09/01 08:25:31  5-MIN KMSN 091425Z 02008KT 10SM CLR 28/17 A2993 850 52 2600 020/08 RMK AO2
14837KMSN MSN20010709083009307/09/01 08:30:31  5-MIN KMSN 091430Z 02008KT 10SM CLR 28/17 A2993 850 50 2600 020/08 RMK AO2
14837KMSN MSN20010709083509307/09/01 08:35:31  5-MIN KMSN 091435Z 02009KT 10SM CLR 28/18 A2993 850 52 2600 020/09 RMK AO2
14837KMSN MSN20010709084009307/09/01 08:40:31  5-MIN KMSN 091440Z 03009KT 10SM CLR 28/16 A2994 850 45 2600 030/09 RMK AO2
14837KMSN MSN20010709084509307/09/01 08:45:31  5-MIN KMSN 091445Z 04008KT 10SM CLR 28/16 A2994 850 47 2600 040/08 RMK AO2
14837KMSN MSN20010709085011607/09/01 08:50:31  5-MIN KMSN 091450Z 03008KT 10SM CLR 29/16 A2994 850 45 2700 030/08 RMK AO2 SLP130 T02890161 53014
14837KMSN MSN20010709085509307/09/01 08:55:31  5-MIN KMSN 091455Z 02011KT 10SM CLR 29/16 A2994 850 44 2700 020/11 RMK AO2
14837KMSN MSN20010709090009307/09/01 09:00:31  5-MIN KMSN 091500Z 03010KT 10SM CLR 29/16 A2994 850 42 2700 030/10 RMK AO2
14837KMSN MSN20010709090509307/09/01 09:05:31  5-MIN KMSN 091505Z 03008KT 10SM CLR 29/16 A2993 850 42 2700 030/08 RMK AO2
14837KMSN MSN20010709091009307/09/01 09:10:31  5-MIN KMSN 091510Z 01008KT 10SM CLR 29/16 A2993 850 42 2700 010/08 RMK AO2
14837KMSN MSN20010709091509307/09/01 09:15:31  5-MIN KMSN 091515Z 03010KT 10SM CLR 30/16 A2994 850 41 2800 030/10 RMK AO2
14837KMSN MSN20010709092009307/09/01 09:20:31  5-MIN KMSN 091520Z 03008KT 10SM CLR 29/14 A2994 850 39 2700 030/08 RMK AO2
14837KMSN MSN20010709092509307/09/01 09:25:31  5-MIN KMSN 091525Z 01008KT 10SM CLR 29/16 A2994 850 42 2700 010/08 RMK AO2
14837KMSN MSN20010709093009307/09/01 09:30:31  5-MIN KMSN 091530Z 03009KT 10SM CLR 29/15 A2994 850 41 2700 030/09 RMK AO2
14837KMSN MSN20010709093509307/09/01 09:35:31  5-MIN KMSN 091535Z 03009KT 10SM CLR 29/14 A2994 850 39 2700 030/09 RMK AO2
14837KMSN MSN20010709094009307/09/01 09:40:31  5-MIN KMSN 091540Z 04008KT 10SM CLR 30/14 A2994 850 38 2800 040/08 RMK AO2
14837KMSN MSN20010709094509307/09/01 09:45:31  5-MIN KMSN 091545Z 05010KT 10SM CLR 30/14 A2994 840 38 2800 050/10 RMK AO2
14837KMSN MSN20010709095011007/09/01 09:50:31  5-MIN KMSN 091550Z 02008KT 10SM CLR 30/14 A2994 840 36 2800 020/08 RMK AO2 SLP132 T03000139
14837KMSN MSN20010709095509307/09/01 09:55:31  5-MIN KMSN 091555Z 03011KT 10SM CLR 30/15 A2994 840 39 2800 020/11 RMK AO2
14837KMSN MSN20010709100009307/09/01 10:00:31  5-MIN KMSN 091600Z 03006KT 10SM CLR 30/14 A2994 840 38 2800 030/06 RMK AO2
14837KMSN MSN20010709100509307/09/01 10:05:31  5-MIN KMSN 091605Z 04008KT 10SM CLR 31/14 A2994 850 35 2900 040/08 RMK AO2
14837KMSN MSN20010709101009307/09/01 10:10:31  5-MIN KMSN 091610Z 06006KT 10SM CLR 30/14 A2994 840 36 2800 050/06 RMK AO2
14837KMSN MSN20010709101509307/09/01 10:15:31  5-MIN KMSN 091615Z VRB06KT 10SM CLR 31/14 A2994 850 35 2900 VRB/06 RMK AO2
14837KMSN MSN20010709102009307/09/01 10:20:31  5-MIN KMSN 091620Z 05005KT 10SM CLR 31/14 A2994 850 35 2900 050/05 RMK AO2
14837KMSN MSN20010709102509307/09/01 10:25:31  5-MIN KMSN 091625Z 04007KT 10SM CLR 31/13 A2993 850 33 2900 040/07 RMK AO2
14837KMSN MSN20010709103009307/09/01 10:30:31  5-MIN KMSN 091630Z 02007KT 10SM CLR 31/13 A2993 850 34 2900 020/07 RMK AO2
14837KMSN MSN20010709103509307/09/01 10:35:31  5-MIN KMSN 091635Z 03005KT 10SM CLR 31/14 A2993 850 35 2900 030/05 RMK AO2
14837KMSN MSN20010709104010907/09/01 10:40:31  5-MIN KMSN 091640Z 06007KT 020V090 10SM CLR 31/14 A2993 850 34 2900 060/07 020V090 RMK AO2
14837KMSN MSN20010709104509307/09/01 10:45:31  5-MIN KMSN 091645Z 09007KT 10SM CLR 31/13 A2993 850 32 2900 090/07 RMK AO2
14837KMSN MSN20010709105011007/09/01 10:50:31  5-MIN KMSN 091650Z VRB06KT 10SM CLR 31/13 A2993 850 33 2900 VRB/06 RMK AO2 SLP129 T03110133
14837KMSN MSN20010709105509307/09/01 10:55:31  5-MIN KMSN 091655Z VRB04KT 10SM CLR 31/13 A2993 850 32 2900 VRB/04 RMK AO2
14837KMSN MSN20010709110009307/09/01 11:00:31  5-MIN KMSN 091700Z 03007KT 10SM CLR 31/13 A2994 850 32 2900 030/07 RMK AO2
14837KMSN MSN20010709110509307/09/01 11:05:31  5-MIN KMSN 091705Z VRB05KT 10SM CLR 31/12 A2994 850 31 2900 VRB/05 RMK AO2
14837KMSN MSN20010709111009307/09/01 11:10:31  5-MIN KMSN 091710Z 01009KT 10SM CLR 31/13 A2994 850 32 2900 010/09 RMK AO2
14837KMSN MSN20010709111509307/09/01 11:15:31  5-MIN KMSN 091715Z 08006KT 10SM CLR 31/13 A2994 850 33 2900 080/06 RMK AO2
14837KMSN MSN20010709112009907/09/01 11:20:31  5-MIN KMSN 091720Z 02011G14KT 10SM CLR 32/13 A2994 850 32 3000 020/11G14 RMK AO2
14837KMSN MSN20010709112509907/09/01 11:25:31  5-MIN KMSN 091725Z 03009G14KT 10SM CLR 32/13 A2994 850 32 3000 030/09G14 RMK AO2
14837KMSN MSN20010709113009307/09/01 11:30:31  5-MIN KMSN 091730Z 03008KT 10SM CLR 32/12 A2994 850 30 3000 030/08 RMK AO2
14837KMSN MSN20010709113509307/09/01 11:35:31  5-MIN KMSN 091735Z VRB04KT 10SM CLR 32/12 A2994 840 30 3000 VRB/04 RMK AO2
14837KMSN MSN20010709114009307/09/01 11:40:31  5-MIN KMSN 091740Z 08008KT 10SM CLR 32/13 A2994 850 31 3000 080/08 RMK AO2
14837KMSN MSN20010709114509307/09/01 11:45:31  5-MIN KMSN 091745Z 05005KT 10SM CLR 32/13 A2994 850 31 3000 050/05 RMK AO2
14837KMSN MSN20010709115012807/09/01 11:50:31  5-MIN KMSN 091750Z 06005KT 10SM CLR 31/13 A2994 850 32 2900 050/05 RMK AO2 SLP131 T03110128 10322 20217 51006
14837KMSN MSN20010709115509307/09/01 11:55:31  5-MIN KMSN 091755Z 01005KT 10SM CLR 31/13 A2994 850 32 2900 010/05 RMK AO2
14837KMSN MSN20010709120009307/09/01 12:00:31  5-MIN KMSN 091800Z 34006KT 10SM CLR 32/13 A2994 850 31 3000 340/06 RMK AO2
14837KMSN MSN20010709120509307/09/01 12:05:31  5-MIN KMSN 091805Z 35007KT 10SM CLR 32/13 A2994 850 31 3000 350/07 RMK AO2
14837KMSN MSN20010709121009307/09/01 12:10:31  5-MIN KMSN 091810Z VRB04KT 10SM CLR 32/12 A2994 850 30 3000 VRB/04 RMK AO2
14837KMSN MSN20010709121509307/09/01 12:15:31  5-MIN KMSN 091815Z VRB03KT 10SM CLR 32/13 A2994 850 31 3000 VRB/03 RMK AO2
14837KMSN MSN20010709122009307/09/01 12:20:31  5-MIN KMSN 091820Z VRB04KT 10SM CLR 32/13 A2994 850 31 3000 VRB/04 RMK AO2
14837KMSN MSN20010709122509307/09/01 12:25:31  5-MIN KMSN 091825Z 10005KT 10SM CLR 32/13 A2993 850 31 3000 100/05 RMK AO2
14837KMSN MSN20010709123009307/09/01 12:30:31  5-MIN KMSN 091830Z 35006KT 10SM CLR 32/13 A2993 850 31 3000 350/06 RMK AO2
14837KMSN MSN20010709123509307/09/01 12:35:31  5-MIN KMSN 091835Z 33004KT 10SM CLR 32/13 A2993 850 31 3000 330/04 RMK AO2
14837KMSN MSN20010709124009307/09/01 12:40:31  5-MIN KMSN 091840Z VRB04KT 10SM CLR 32/13 A2993 850 31 3000 VRB/04 RMK AO2
14837KMSN MSN20010709124509307/09/01 12:45:31  5-MIN KMSN 091845Z VRB03KT 10SM CLR 32/13 A2993 850 31 3000 VRB/03 RMK AO2
14837KMSN MSN20010709125011007/09/01 12:50:31  5-MIN KMSN 091850Z VRB03KT 10SM CLR 32/13 A2993 850 31 3000 VRB/03 RMK AO2 SLP129 T03220133
14837KMSN MSN20010709125509307/09/01 12:55:31  5-MIN KMSN 091855Z VRB04KT 10SM CLR 32/13 A2993 850 31 3000 VRB/04 RMK AO2
14837KMSN MSN20010709130009307/09/01 13:00:31  5-MIN KMSN 091900Z 01005KT 10SM CLR 32/13 A2993 850 31 3000 010/05 RMK AO2
14837KMSN MSN20010709130509307/09/01 13:05:31  5-MIN KMSN 091905Z 33006KT 10SM CLR 32/14 A2993 850 32 3000 330/06 RMK AO2
14837KMSN MSN20010709131009307/09/01 13:10:31  5-MIN KMSN 091910Z 00000KT 10SM CLR 32/13 A2993 850 31 3000 000/00 RMK AO2
14837KMSN MSN20010709131509307/09/01 13:15:31  5-MIN KMSN 091915Z 34005KT 10SM CLR 32/13 A2993 850 31 3000 340/05 RMK AO2
14837KMSN MSN20010709132009307/09/01 13:20:31  5-MIN KMSN 091920Z 33005KT 10SM CLR 33/14 A2993 850 31 3100 330/05 RMK AO2
14837KMSN MSN20010709132509307/09/01 13:25:31  5-MIN KMSN 091925Z VRB03KT 10SM CLR 32/13 A2993 850 31 3000 VRB/03 RMK AO2
14837KMSN MSN20010709133009307/09/01 13:30:31  5-MIN KMSN 091930Z VRB05KT 10SM CLR 32/13 A2993 850 31 3000 VRB/05 RMK AO2
14837KMSN MSN20010709133509307/09/01 13:35:31  5-MIN KMSN 091935Z VRB03KT 10SM CLR 32/13 A2993 850 31 3000 VRB/03 RMK AO2
14837KMSN MSN20010709134009307/09/01 13:40:31  5-MIN KMSN 091940Z VRB03KT 10SM CLR 32/13 A2993 860 31 3000 VRB/03 RMK AO2
14837KMSN MSN20010709134509307/09/01 13:45:31  5-MIN KMSN 091945Z VRB05KT 10SM CLR 32/14 A2993 860 33 3000 VRB/05 RMK AO2
14837KMSN MSN20010709135011007/09/01 13:50:31  5-MIN KMSN 091950Z VRB03KT 10SM CLR 32/14 A2993 860 32 3100 VRB/03 RMK AO2 SLP127 T03220139
14837KMSN MSN20010709135509307/09/01 13:55:31  5-MIN KMSN 091955Z 34003KT 10SM CLR 32/13 A2993 860 32 3000 340/03 RMK AO2
14837KMSN MSN20010709175012807/09/01 17:50:31  5-MIN KMSN 092350Z 29005KT 10SM CLR 31/15 A2987 910 37 3000 280/05 RMK AO2 SLP109 T03110150 10333 20311 58008
14837KMSN MSN20010709175509307/09/01 17:55:31  5-MIN KMSN 092355Z 29005KT 10SM CLR 31/16 A2987 910 38 3000 290/05 RMK AO2
14837KMSN MSN20010709180009307/09/01 18:00:31  5-MIN KMSN 100000Z 30006KT 10SM CLR 31/16 A2987 910 38 3000 290/06 RMK AO2
14837KMSN MSN20010709180509307/09/01 18:05:31  5-MIN KMSN 100005Z 29005KT 10SM CLR 31/16 A2987 910 39 2900 290/05 RMK AO2
14837KMSN MSN20010709181009307/09/01 18:10:31  5-MIN KMSN 100010Z 29005KT 10SM CLR 31/16 A2987 910 41 2900 280/05 RMK AO2
14837KMSN MSN20010709181509307/09/01 18:15:31  5-MIN KMSN 100015Z VRB03KT 10SM CLR 31/16 A2987 910 41 2900 VRB/03 RMK AO2
14837KMSN MSN20010709182009307/09/01 18:20:31  5-MIN KMSN 100020Z VRB05KT 10SM CLR 31/16 A2987 910 41 2900 VRB/05 RMK AO2
14837KMSN MSN20010709182509307/09/01 18:25:31  5-MIN KMSN 100025Z 27003KT 10SM CLR 30/16 A2988 910 42 2900 270/03 RMK AO2
14837KMSN MSN20010709183009307/09/01 18:30:31  5-MIN KMSN 100030Z 28004KT 10SM CLR 30/17 A2988 910 44 2900 280/04 RMK AO2
14837KMSN MSN20010709183509307/09/01 18:35:31  5-MIN KMSN 100035Z VRB04KT 10SM CLR 30/17 A2988 900 44 2900 VRB/04 RMK AO2
14837KMSN MSN20010709184009307/09/01 18:40:31  5-MIN KMSN 100040Z VRB04KT 10SM CLR 29/17 A2988 900 45 2800 VRB/04 RMK AO2
14837KMSN MSN20010709184509307/09/01 18:45:31  5-MIN KMSN 100045Z 28004KT 10SM CLR 29/17 A2988 900 45 2800 280/04 RMK AO2
14837KMSN MSN20010709185011007/09/01 18:50:31  5-MIN KMSN 100050Z 28003KT 10SM CLR 29/17 A2988 900 45 2800 280/03 RMK AO2 SLP111 T02940167
14837KMSN MSN20010709185509307/09/01 18:55:31  5-MIN KMSN 100055Z 00000KT 10SM CLR 29/17 A2988 900 45 2800 000/00 RMK AO2
14837KMSN MSN20010709190009307/09/01 19:00:31  5-MIN KMSN 100100Z VRB03KT 10SM CLR 29/17 A2988 900 47 2700 VRB/03 RMK AO2
14837KMSN MSN20010709190509307/09/01 19:05:31  5-MIN KMSN 100105Z 27003KT 10SM CLR 29/16 A2988 900 45 2700 270/03 RMK AO2
14837KMSN MSN20010709191009307/09/01 19:10:31  5-MIN KMSN 100110Z 26003KT 10SM CLR 29/17 A2988 900 47 2700 260/03 RMK AO2
14837KMSN MSN20010709191509307/09/01 19:15:31  5-MIN KMSN 100115Z 00000KT 10SM CLR 29/17 A2988 900 47 2700 000/00 RMK AO2
14837KMSN MSN20010709192009307/09/01 19:20:31  5-MIN KMSN 100120Z 00000KT 10SM CLR 28/17 A2988 900 50 2600 000/00 RMK AO2
14837KMSN MSN20010709192509307/09/01 19:25:31  5-MIN KMSN 100125Z 00000KT 10SM CLR 27/17 A2988 900 55 2500 000/00 RMK AO2
14837KMSN MSN20010709193009307/09/01 19:30:31  5-MIN KMSN 100130Z 00000KT 10SM CLR 28/17 A2988 900 50 2600 000/00 RMK AO2
14837KMSN MSN20010709193509307/09/01 19:35:31  5-MIN KMSN 100135Z VRB03KT 10SM CLR 28/17 A2988 900 50 2600 VRB/03 RMK AO2
14837KMSN MSN20010709194009307/09/01 19:40:31  5-MIN KMSN 100140Z VRB03KT 10SM CLR 28/17 A2988 900 50 2600 VRB/03 RMK AO2
14837KMSN MSN20010709194509307/09/01 19:45:31  5-MIN KMSN 100145Z VRB03KT 10SM CLR 27/17 A2988 900 54 2600 VRB/03 RMK AO2
14837KMSN MSN20010709195011307/09/01 19:50:31  5-MIN KMSN 100150Z 26004KT 10SM FEW050 27/17 A2988 900 54 2600 250/04 RMK AO2 SLP111 T02720172
14837KMSN MSN20010709195509307/09/01 19:55:31  5-MIN KMSN 100155Z 00000KT 10SM CLR 26/17 A2988 900 57 2400 000/00 RMK AO2
14837KMSN MSN20010709200009307/09/01 20:00:31  5-MIN KMSN 100200Z 00000KT 10SM CLR 26/17 A2988 900 57 2400 000/00 RMK AO2
14837KMSN MSN20010709200509307/09/01 20:05:31  5-MIN KMSN 100205Z 00000KT 10SM CLR 26/17 A2988 900 57 2400 000/00 RMK AO2
14837KMSN MSN20010709201009307/09/01 20:10:31  5-MIN KMSN 100210Z VRB03KT 10SM CLR 26/17 A2988 900 59 2400 VRB/03 RMK AO2
14837KMSN MSN20010709201509307/09/01 20:15:31  5-MIN KMSN 100215Z VRB03KT 10SM CLR 26/17 A2988 900 57 2400 VRB/03 RMK AO2
14837KMSN MSN20010709202009307/09/01 20:20:31  5-MIN KMSN 100220Z 26003KT 10SM CLR 26/17 A2988 900 57 2400 250/03 RMK AO2
14837KMSN MSN20010709202509307/09/01 20:25:31  5-MIN KMSN 100225Z 26003KT 10SM CLR 26/17 A2988 900 59 2400 260/03 RMK AO2
14837KMSN MSN20010709203009307/09/01 20:30:31  5-MIN KMSN 100230Z 26004KT 10SM CLR 26/17 A2988 900 59 2400 260/04 RMK AO2
14837KMSN MSN20010709203509307/09/01 20:35:31  5-MIN KMSN 100235Z 26003KT 10SM CLR 26/17 A2988 900 59 2400 250/03 RMK AO2
14837KMSN MSN20010709204009307/09/01 20:40:31  5-MIN KMSN 100240Z 25003KT 10SM CLR 25/17 A2988 900 61 2300 250/03 RMK AO2
14837KMSN MSN20010709204509307/09/01 20:45:31  5-MIN KMSN 100245Z 26003KT 10SM CLR 25/17 A2988 900 61 2300 260/03 RMK AO2
14837KMSN MSN20010709205011607/09/01 20:50:31  5-MIN KMSN 100250Z 26003KT 10SM CLR 25/17 A2988 900 61 2300 260/03 RMK AO2 SLP112 T02500172 56013
14837KMSN MSN20010709205509307/09/01 20:55:31  5-MIN KMSN 100255Z VRB03KT 10SM CLR 25/17 A2988 900 61 2300 VRB/03 RMK AO2
14837KMSN MSN20010709210009307/09/01 21:00:31  5-MIN KMSN 100300Z 00000KT 10SM CLR 24/17 A2988 900 63 2200 000/00 RMK AO2
14837KMSN MSN20010709210509307/09/01 21:05:31  5-MIN KMSN 100305Z 26004KT 10SM CLR 24/17 A2989 900 63 2200 260/04 RMK AO2
14837KMSN MSN20010709211009307/09/01 21:10:31  5-MIN KMSN 100310Z VRB03KT 10SM CLR 25/17 A2989 900 61 2300 VRB/03 RMK AO2
14837KMSN MSN20010709211509307/09/01 21:15:31  5-MIN KMSN 100315Z VRB03KT 10SM CLR 25/17 A2989 900 61 2300 VRB/03 RMK AO2
14837KMSN MSN20010709212009307/09/01 21:20:31  5-MIN KMSN 100320Z VRB03KT 10SM CLR 25/17 A2989 900 61 2300 VRB/03 RMK AO2
14837KMSN MSN20010709212509307/09/01 21:25:31  5-MIN KMSN 100325Z 00000KT 10SM CLR 25/17 A2988 900 61 2300 000/00 RMK AO2
14837KMSN MSN20010709213009307/09/01 21:30:31  5-MIN KMSN 100330Z 00000KT 10SM CLR 24/17 A2988 900 63 2200 000/00 RMK AO2
14837KMSN MSN20010709213509307/09/01 21:35:31  5-MIN KMSN 100335Z 00000KT 10SM CLR 24/17 A2988 900 63 2200 000/00 RMK AO2
14837KMSN MSN20010709214009307/09/01 21:40:31  5-MIN KMSN 100340Z 00000KT 10SM CLR 24/17 A2988 900 66 2200 000/00 RMK AO2
14837KMSN MSN20010709214509307/09/01 21:45:31  5-MIN KMSN 100345Z 00000KT 10SM CLR 23/17 A2988 900 70 2100 000/00 RMK AO2
14837KMSN MSN20010709215011007/09/01 21:50:31  5-MIN KMSN 100350Z 00000KT 10SM CLR 23/17 A2988 900 70 2100 000/00 RMK AO2 SLP111 T02280172
14837KMSN MSN20010709215509307/09/01 21:55:31  5-MIN KMSN 100355Z VRB03KT 10SM CLR 23/17 A2988 900 70 2100 VRB/03 RMK AO2
14837KMSN MSN20010709220009307/09/01 22:00:31  5-MIN KMSN 100400Z 00000KT 10SM CLR 23/17 A2988 900 70 2100 000/00 RMK AO2
14837KMSN MSN20010709220509307/09/01 22:05:31  5-MIN KMSN 100405Z 00000KT 10SM CLR 22/17 A2988 910 73 2000 000/00 RMK AO2
14837KMSN MSN20010709221009307/09/01 22:10:31  5-MIN KMSN 100410Z 00000KT 10SM CLR 23/17 A2988 910 70 2100 000/00 RMK AO2
14837KMSN MSN20010709221509307/09/01 22:15:31  5-MIN KMSN 100415Z 00000KT 10SM CLR 22/17 A2987 910 73 2000 000/00 RMK AO2
14837KMSN MSN20010709222009307/09/01 22:20:31  5-MIN KMSN 100420Z 00000KT 10SM CLR 22/17 A2987 910 73 2000 000/00 RMK AO2
14837KMSN MSN20010709222509307/09/01 22:25:31  5-MIN KMSN 100425Z 00000KT 10SM CLR 22/17 A2987 910 73 2000 000/00 RMK AO2
14837KMSN MSN20010709223009307/09/01 22:30:31  5-MIN KMSN 100430Z 00000KT 10SM CLR 22/17 A2987 910 75 1900 000/00 RMK AO2
14837KMSN MSN20010709223509307/09/01 22:35:31  5-MIN KMSN 100435Z 00000KT 10SM CLR 22/17 A2987 910 73 2000 000/00 RMK AO2
14837KMSN MSN20010709224009307/09/01 22:40:31  5-MIN KMSN 100440Z 00000KT 10SM CLR 22/17 A2987 910 73 2000 000/00 RMK AO2
14837KMSN MSN20010709224509307/09/01 22:45:31  5-MIN KMSN 100445Z 00000KT 10SM CLR 22/17 A2987 920 73 2000 000/00 RMK AO2
14837KMSN MSN20010709225011007/09/01 22:50:31  5-MIN KMSN 100450Z 22003KT 10SM CLR 22/17 A2986 920 75 1900 220/03 RMK AO2 SLP105 T02170172
14837KMSN MSN20010709225509307/09/01 22:55:31  5-MIN KMSN 100455Z VRB03KT 10SM CLR 22/17 A2986 920 73 2000 VRB/03 RMK AO2
14837KMSN MSN20010709230009307/09/01 23:00:31  5-MIN KMSN 100500Z 00000KT 10SM CLR 22/17 A2986 920 73 2000 000/00 RMK AO2
14837KMSN MSN20010709230509307/09/01 23:05:31  5-MIN KMSN 100505Z 00000KT 10SM CLR 21/17 A2986 920 78 1900 000/00 RMK AO2
14837KMSN MSN20010709231009307/09/01 23:10:31  5-MIN KMSN 100510Z 00000KT 10SM CLR 21/17 A2986 920 78 1900 000/00 RMK AO2
14837KMSN MSN20010709231509307/09/01 23:15:31  5-MIN KMSN 100515Z 00000KT 10SM CLR 21/18 A2986 920 84 1800 000/00 RMK AO2
14837KMSN MSN20010709232009307/09/01 23:20:31  5-MIN KMSN 100520Z 00000KT 10SM CLR 21/18 A2986 920 84 1800 000/00 RMK AO2
14837KMSN MSN20010709232509307/09/01 23:25:31  5-MIN KMSN 100525Z 00000KT 10SM CLR 21/18 A2986 920 84 1800 000/00 RMK AO2
14837KMSN MSN20010709233009307/09/01 23:30:31  5-MIN KMSN 100530Z 00000KT 10SM CLR 20/18 A2986 920 87 1800 000/00 RMK AO2
14837KMSN MSN20010709233509307/09/01 23:35:31  5-MIN KMSN 100535Z 00000KT 10SM CLR 21/18 A2986 920 84 1800 000/00 RMK AO2
14837KMSN MSN20010709234009307/09/01 23:40:31  5-MIN KMSN 100540Z 00000KT 10SM CLR 21/18 A2986 920 84 1800 000/00 RMK AO2
14837KMSN MSN20010709234509307/09/01 23:45:31  5-MIN KMSN 100545Z 00000KT 10SM CLR 21/18 A2986 920 81 1900 000/00 RMK AO2
14837KMSN MSN20010709235013807/09/01 23:50:31  5-MIN KMSN 100550Z 00000KT 10SM CLR 21/18 A2986 920 81 1900 000/00 RMK AO2 SLP104 T02110178 10311 20200 403330189 51003
14837KMSN MSN20010709235509307/09/01 23:55:31  5-MIN KMSN 100555Z 00000KT 10SM CLR 21/18 A2986 920 84 1800 000/00 RMK AO2
14837KMSN MSN20010710000009307/10/01 00:00:31  5-MIN KMSN 100600Z 00000KT 10SM CLR 21/18 A2986 920 81 1900 000/00 RMK AO2
14837KMSN MSN20010710000509307/10/01 00:05:31  5-MIN KMSN 100605Z 00000KT 10SM CLR 21/17 A2986 920 81 1800 000/00 RMK AO2
14837KMSN MSN20010710001009307/10/01 00:10:31  5-MIN KMSN 100610Z 00000KT 10SM CLR 21/17 A2986 920 81 1800 000/00 RMK AO2
14837KMSN MSN20010710001509307/10/01 00:15:31  5-MIN KMSN 100615Z 00000KT 10SM CLR 21/17 A2985 930 81 1800 000/00 RMK AO2
14837KMSN MSN20010710002009307/10/01 00:20:31  5-MIN KMSN 100620Z 00000KT 10SM CLR 21/17 A2985 930 78 1800 000/00 RMK AO2
14837KMSN MSN20010710002509307/10/01 00:25:31  5-MIN KMSN 100625Z 00000KT 10SM CLR 20/17 A2985 930 81 1800 000/00 RMK AO2
14837KMSN MSN20010710003009307/10/01 00:30:31  5-MIN KMSN 100630Z 00000KT 10SM CLR 21/17 A2985 930 81 1800 000/00 RMK AO2
14837KMSN MSN20010710003509307/10/01 00:35:31  5-MIN KMSN 100635Z 00000KT 10SM CLR 20/17 A2985 930 84 1800 000/00 RMK AO2
14837KMSN MSN20010710004010907/10/01 00:40:31  5-MIN KMSN 100640Z 36007KT 310V010 10SM CLR 20/17 A2986 920 84 1800 360/07 310V010 RMK AO2
14837KMSN MSN20010710004509907/10/01 00:45:31  5-MIN KMSN 100645Z 30006G17KT 10SM CLR 21/17 A2986 920 78 1900 300/06G17 RMK AO2
14837KMSN MSN20010710005011007/10/01 00:50:31  5-MIN KMSN 100650Z 36008KT 10SM CLR 22/17 A2987 910 70 2000 360/08 RMK AO2 SLP106 T02220167
14837KMSN MSN20010710005509307/10/01 00:55:31  5-MIN KMSN 100655Z 30003KT 10SM CLR 22/17 A2986 920 73 1900 300/03 RMK AO2
14837KMSN MSN20010710010009307/10/01 01:00:31  5-MIN KMSN 100700Z 00000KT 10SM CLR 22/17 A2986 920 73 1900 000/00 RMK AO2
14837KMSN MSN20010710010509307/10/01 01:05:31  5-MIN KMSN 100705Z 00000KT 10SM CLR 21/17 A2986 920 75 1900 000/00 RMK AO2
14837KMSN MSN20010710011009307/10/01 01:10:31  5-MIN KMSN 100710Z 00000KT 10SM CLR 21/17 A2986 920 75 1900 000/00 RMK AO2
14837KMSN MSN20010710011509307/10/01 01:15:31  5-MIN KMSN 100715Z 00000KT 10SM CLR 21/17 A2986 920 78 1800 000/00 RMK AO2
14837KMSN MSN20010710012009307/10/01 01:20:31  5-MIN KMSN 100720Z 00000KT 10SM CLR 21/17 A2986 920 78 1800 000/00 RMK AO2
14837KMSN MSN20010710012509307/10/01 01:25:31  5-MIN KMSN 100725Z 00000KT 10SM CLR 21/17 A2986 920 75 1900 000/00 RMK AO2
14837KMSN MSN20010710013009307/10/01 01:30:31  5-MIN KMSN 100730Z 00000KT 10SM CLR 21/17 A2986 920 75 1900 000/00 RMK AO2
14837KMSN MSN20010710013509307/10/01 01:35:31  5-MIN KMSN 100735Z 00000KT 10SM CLR 20/17 A2986 920 81 1800 000/00 RMK AO2
14837KMSN MSN20010710014009607/10/01 01:40:31  5-MIN KMSN 100740Z 00000KT 10SM FEW120 20/17 A2986 920 81 1800 000/00 RMK AO2
14837KMSN MSN20010710014509607/10/01 01:45:31  5-MIN KMSN 100745Z 00000KT 10SM SCT120 20/17 A2986 920 81 1800 000/00 RMK AO2
14837KMSN MSN20010710015011307/10/01 01:50:31  5-MIN KMSN 100750Z 00000KT 10SM SCT120 20/17 A2985 930 81 1800 000/00 RMK AO2 SLP102 T02000167
14837KMSN MSN20010710015509607/10/01 01:55:31  5-MIN KMSN 100755Z 00000KT 10SM FEW120 20/17 A2985 930 81 1800 000/00 RMK AO2
14837KMSN MSN20010710020009607/10/01 02:00:31  5-MIN KMSN 100800Z 00000KT 10SM FEW120 20/17 A2985 930 81 1800 000/00 RMK AO2
14837KMSN MSN20010710020509607/10/01 02:05:31  5-MIN KMSN 100805Z 00000KT 10SM FEW120 20/17 A2985 930 81 1800 000/00 RMK AO2
14837KMSN MSN20010710021009607/10/01 02:10:31  5-MIN KMSN 100810Z 00000KT 10SM FEW120 20/17 A2985 930 81 1800 000/00 RMK AO2
14837KMSN MSN20010710021509307/10/01 02:15:31  5-MIN KMSN 100815Z 00000KT 10SM CLR 20/17 A2985 930 81 1800 000/00 RMK AO2
14837KMSN MSN20010710022009307/10/01 02:20:31  5-MIN KMSN 100820Z 00000KT 10SM CLR 19/17 A2986 920 84 1700 000/00 RMK AO2
14837KMSN MSN20010710022509307/10/01 02:25:31  5-MIN KMSN 100825Z 00000KT 10SM CLR 19/17 A2985 920 84 1700 000/00 RMK AO2
14837KMSN MSN20010710023009307/10/01 02:30:31  5-MIN KMSN 100830Z 00000KT 10SM CLR 19/17 A2985 930 84 1700 000/00 RMK AO2
14837KMSN MSN20010710023509307/10/01 02:35:31  5-MIN KMSN 100835Z 00000KT 10SM CLR 19/17 A2985 930 87 1600 000/00 RMK AO2
14837KMSN MSN20010710024009307/10/01 02:40:31  5-MIN KMSN 100840Z 00000KT 10SM CLR 18/17 A2986 920 90 1600 000/00 RMK AO2
14837KMSN MSN20010710024509307/10/01 02:45:31  5-MIN KMSN 100845Z 00000KT 10SM CLR 18/16 A2985 930 87 1600 000/00 RMK AO2
14837KMSN MSN20010710025011607/10/01 02:50:31  5-MIN KMSN 100850Z 00000KT 10SM CLR 18/16 A2986 920 90 1500 000/00 RMK AO2 SLP103 T01780161 58009
14837KMSN MSN20010710025509307/10/01 02:55:31  5-MIN KMSN 100855Z 33003KT 10SM CLR 18/17 A2986 920 93 1500 320/03 RMK AO2
14837KMSN MSN20010710030009307/10/01 03:00:31  5-MIN KMSN 100900Z 00000KT 10SM CLR 18/17 A2986 920 93 1500 000/00 RMK AO2
14837KMSN MSN20010710030509307/10/01 03:05:31  5-MIN KMSN 100905Z 00000KT 10SM CLR 18/17 A2986 920 90 1600 000/00 RMK AO2
14837KMSN MSN20010710031009307/10/01 03:10:31  5-MIN KMSN 100910Z 00000KT 10SM CLR 18/17 A2986 920 90 1600 000/00 RMK AO2
14837KMSN MSN20010710031509307/10/01 03:15:31  5-MIN KMSN 100915Z 00000KT 10SM CLR 18/17 A2986 920 93 1500 000/00 RMK AO2
14837KMSN MSN20010710032009307/10/01 03:20:31  5-MIN KMSN 100920Z 00000KT 10SM CLR 19/17 A2986 920 87 1600 000/00 RMK AO2
14837KMSN MSN20010710032509307/10/01 03:25:31  5-MIN KMSN 100925Z 00000KT 10SM CLR 18/17 A2986 920 90 1600 000/00 RMK AO2
14837KMSN MSN20010710033009307/10/01 03:30:31  5-MIN KMSN 100930Z 00000KT 10SM CLR 18/17 A2986 920 90 1600 000/00 RMK AO2
14837KMSN MSN20010710033509307/10/01 03:35:31  5-MIN KMSN 100935Z 00000KT 10SM CLR 19/17 A2986 920 87 1600 000/00 RMK AO2
14837KMSN MSN20010710034009307/10/01 03:40:31  5-MIN KMSN 100940Z 00000KT 10SM CLR 19/17 A2986 920 87 1600 000/00 RMK AO2
14837KMSN MSN20010710034509307/10/01 03:45:31  5-MIN KMSN 100945Z 00000KT 10SM CLR 18/17 A2986 920 93 1500 000/00 RMK AO2
14837KMSN MSN20010710035011007/10/01 03:50:31  5-MIN KMSN 100950Z 00000KT 10SM CLR 18/17 A2987 920 93 1500 000/00 RMK AO2 SLP107 T01780167
14837KMSN MSN20010710035509607/10/01 03:55:31  5-MIN KMSN 100955Z 00000KT 10SM FEW070 18/16 A2987 910 90 1500 000/00 RMK AO2
14837KMSN MSN20010710040009607/10/01 04:00:31  5-MIN KMSN 101000Z 00000KT 10SM SCT070 18/17 A2987 910 93 1500 000/00 RMK AO2
14837KMSN MSN20010710040509607/10/01 04:05:31  5-MIN KMSN 101005Z 00000KT 10SM FEW070 17/16 A2987 910 93 1400 000/00 RMK AO2
14837KMSN MSN20010710041009607/10/01 04:10:31  5-MIN KMSN 101010Z 32003KT 10SM FEW070 17/17 A2987 910 96 1400 320/03 RMK AO2
14837KMSN MSN20010710041509607/10/01 04:15:31  5-MIN KMSN 101015Z 00000KT 10SM FEW070 18/17 A2987 910 93 1500 000/00 RMK AO2
14837KMSN MSN20010710042009607/10/01 04:20:31  5-MIN KMSN 101020Z 31003KT 10SM FEW070 18/17 A2987 910 93 1500 310/03 RMK AO2
14837KMSN MSN20010710042509607/10/01 04:25:31  5-MIN KMSN 101025Z 00000KT 10SM FEW070 18/17 A2987 910 93 1500 000/00 RMK AO2
14837KMSN MSN20010710043009207/10/01 04:30:31  5-MIN KMSN 101030Z 00000KT 9SM CLR 17/16 A2987 910 93 1400 000/00 RMK AO2
14837KMSN MSN20010710043509207/10/01 04:35:31  5-MIN KMSN 101035Z 00000KT 9SM CLR 18/17 A2987 910 93 1500 000/00 RMK AO2
14837KMSN MSN20010710044009507/10/01 04:40:31  5-MIN KMSN 101040Z 00000KT 9SM FEW070 17/16 A2987 910 93 1400 000/00 RMK AO2
14837KMSN MSN20010710044509507/10/01 04:45:31  5-MIN KMSN 101045Z 00000KT 9SM FEW070 18/17 A2987 910 93 1500 000/00 RMK AO2
14837KMSN MSN20010710045011307/10/01 04:50:31  5-MIN KMSN 101050Z 00000KT 10SM FEW070 18/17 A2987 910 90 1500 000/00 RMK AO2 SLP109 T01830167
14837KMSN MSN20010710045509207/10/01 04:55:31  5-MIN KMSN 101055Z 00000KT 9SM CLR 18/17 A2987 910 93 1500 000/00 RMK AO2
14837KMSN MSN20010710050009207/10/01 05:00:31  5-MIN KMSN 101100Z 34004KT 9SM CLR 18/17 A2988 910 93 1500 340/04 RMK AO2
14837KMSN MSN20010710050509207/10/01 05:05:31  5-MIN KMSN 101105Z 34003KT 8SM CLR 17/16 A2988 900 93 1400 340/03 RMK AO2
14837KMSN MSN20010710051009207/10/01 05:10:31  5-MIN KMSN 101110Z 33003KT 9SM CLR 18/17 A2988 900 93 1500 330/03 RMK AO2
14837KMSN MSN20010710051509307/10/01 05:15:31  5-MIN KMSN 101115Z 35003KT 10SM CLR 18/17 A2988 900 90 1500 350/03 RMK AO2
14837KMSN MSN20010710052009307/10/01 05:20:31  5-MIN KMSN 101120Z 34004KT 10SM CLR 18/17 A2988 900 90 1500 340/04 RMK AO2
14837KMSN MSN20010710052509307/10/01 05:25:31  5-MIN KMSN 101125Z 34004KT 10SM CLR 19/17 A2988 900 90 1600 340/04 RMK AO2
14837KMSN MSN20010710053009307/10/01 05:30:31  5-MIN KMSN 101130Z 34003KT 10SM CLR 19/17 A2988 900 90 1600 340/03 RMK AO2
14837KMSN MSN20010710053509307/10/01 05:35:31  5-MIN KMSN 101135Z 01004KT 10SM CLR 20/17 A2988 900 84 1700 010/04 RMK AO2
14837KMSN MSN20010710054009307/10/01 05:40:31  5-MIN KMSN 101140Z 34003KT 10SM CLR 20/17 A2988 900 84 1700 340/03 RMK AO2
14837KMSN MSN20010710054509307/10/01 05:45:31  5-MIN KMSN 101145Z 33003KT 10SM CLR 20/18 A2988 900 87 1700 330/03 RMK AO2
14837KMSN MSN20010710115510207/10/01 11:55:31  5-MIN KMSN 101755Z 32012G17KT 10SM FEW075 31/12 A2988 900 32 2900 320/12G17 RMK AO2
14837KMSN MSN20010710120010207/10/01 12:00:31  5-MIN KMSN 101800Z 32009G17KT 10SM FEW075 31/12 A2988 900 32 2900 320/09G17 RMK AO2
14837KMSN MSN20010710120509307/10/01 12:05:31  5-MIN KMSN 101805Z 33010KT 10SM CLR 31/13 A2988 900 32 3000 320/10 RMK AO2
14837KMSN MSN20010710121009307/10/01 12:10:31  5-MIN KMSN 101810Z 31010KT 10SM CLR 31/12 A2988 900 32 2900 310/10 RMK AO2
14837KMSN MSN20010710121509307/10/01 12:15:31  5-MIN KMSN 101815Z 30008KT 10SM CLR 31/13 A2987 910 32 3000 300/08 RMK AO2
14837KMSN MSN20010710122009307/10/01 12:20:31  5-MIN KMSN 101820Z 31011KT 10SM CLR 31/13 A2988 910 33 3000 310/11 RMK AO2
14837KMSN MSN20010710122510207/10/01 12:25:31  5-MIN KMSN 101825Z 32010G15KT 10SM FEW075 31/13 A2988 910 32 3000 320/10G15 RMK AO2
14837KMSN MSN20010710123010207/10/01 12:30:31  5-MIN KMSN 101830Z 31010G15KT 10SM FEW075 31/13 A2987 910 33 3000 310/10G15 RMK AO2
14837KMSN MSN20010710123509307/10/01 12:35:31  5-MIN KMSN 101835Z 31012KT 10SM CLR 31/13 A2987 910 33 3000 310/12 RMK AO2
14837KMSN MSN20010710124009307/10/01 12:40:31  5-MIN KMSN 101840Z 32009KT 10SM CLR 31/13 A2987 910 33 2900 320/09 RMK AO2
14837KMSN MSN20010710124509907/10/01 12:45:31  5-MIN KMSN 101845Z 31011G14KT 10SM CLR 31/13 A2987 910 33 3000 310/11G14 RMK AO2
14837KMSN MSN20010710125011907/10/01 12:50:31  5-MIN KMSN 101850Z 31010G16KT 10SM FEW075 31/13 A2987 910 33 2900 310/10G16 RMK AO2 SLP107 T03060128
14837KMSN MSN20010710125510207/10/01 12:55:31  5-MIN KMSN 101855Z 33010G16KT 10SM FEW075 31/13 A2987 910 33 3000 330/10G16 RMK AO2
14837KMSN MSN20010710130009607/10/01 13:00:31  5-MIN KMSN 101900Z 34010KT 10SM FEW075 31/13 A2986 920 33 2900 340/10 RMK AO2
14837KMSN MSN20010710130509607/10/01 13:05:31  5-MIN KMSN 101905Z 31007KT 10SM FEW075 31/13 A2986 920 33 3000 310/07 RMK AO2
14837KMSN MSN20010710131010207/10/01 13:10:31  5-MIN KMSN 101910Z 33013G17KT 10SM FEW075 31/13 A2986 920 33 3000 330/13G17 RMK AO2
14837KMSN MSN20010710131510207/10/01 13:15:31  5-MIN KMSN 101915Z 32012G17KT 10SM FEW070 31/14 A2986 920 34 3000 320/12G17 RMK AO2
14837KMSN MSN20010710132010207/10/01 13:20:31  5-MIN KMSN 101920Z 33011G17KT 10SM FEW070 31/13 A2986 920 33 2900 320/11G17 RMK AO2
14837KMSN MSN20010710132510907/10/01 13:25:31  5-MIN KMSN 101925Z 31011KT 280V340 10SM CLR 31/13 A2986 920 33 2900 300/11 280V340 RMK AO2
14837KMSN MSN20010710133009607/10/01 13:30:31  5-MIN KMSN 101930Z 33008KT 10SM FEW075 31/13 A2986 920 34 2900 330/08 RMK AO2
14837KMSN MSN20010710133511207/10/01 13:35:31  5-MIN KMSN 101935Z 34007KT 300V040 10SM FEW075 31/14 A2985 930 34 3000 340/07 300V040 RMK AO2
14837KMSN MSN20010710134010207/10/01 13:40:31  5-MIN KMSN 101940Z 34008G14KT 10SM FEW075 31/13 A2985 930 34 3000 340/08G14 RMK AO2
14837KMSN MSN20010710134510207/10/01 13:45:31  5-MIN KMSN 101945Z 34010G14KT 10SM FEW075 31/13 A2985 930 33 3000 340/10G14 RMK AO2
14837KMSN MSN20010710135011307/10/01 13:50:31  5-MIN KMSN 101950Z 33010KT 10SM FEW075 32/14 A2985 930 33 3100 330/10 RMK AO2 SLP103 T03170139
14837KMSN MSN20010710135509607/10/01 13:55:31  5-MIN KMSN 101955Z 30010KT 10SM FEW075 31/13 A2985 930 33 3000 300/10 RMK AO2
14837KMSN MSN20010710140009607/10/01 14:00:31  5-MIN KMSN 102000Z 31010KT 10SM FEW075 31/13 A2985 930 33 3000 310/10 RMK AO2
14837KMSN MSN20010710140509907/10/01 14:05:31  5-MIN KMSN 102005Z 32011G15KT 10SM CLR 30/13 A2985 930 34 2900 320/11G15 RMK AO2
14837KMSN MSN20010710141009307/10/01 14:10:31  5-MIN KMSN 102010Z 32009KT 10SM CLR 31/13 A2985 930 34 3000 320/09 RMK AO2
14837KMSN MSN20010710141509607/10/01 14:15:31  5-MIN KMSN 102015Z 31009KT 10SM FEW075 31/13 A2985 930 34 3000 310/09 RMK AO2
14837KMSN MSN20010710142009607/10/01 14:20:31  5-MIN KMSN 102020Z 33010KT 10SM FEW075 31/13 A2985 930 34 3000 330/10 RMK AO2
14837KMSN MSN20010710142511207/10/01 14:25:31  5-MIN KMSN 102025Z 32008KT 280V340 10SM FEW075 30/13 A2985 930 34 2900 320/08 280V340 RMK AO2
14837KMSN MSN20010710143009607/10/01 14:30:31  5-MIN KMSN 102030Z VRB06KT 10SM SCT075 29/13 A2985 930 36 2800 VRB/06 RMK AO2
14837KMSN MSN20010710143509607/10/01 14:35:31  5-MIN KMSN 102035Z 32009KT 10SM FEW075 31/14 A2985 930 35 3000 320/09 RMK AO2
14837KMSN MSN20010710144009607/10/01 14:40:31  5-MIN KMSN 102040Z 34007KT 10SM FEW075 29/13 A2985 930 36 2800 340/07 RMK AO2
14837KMSN MSN20010710144509607/10/01 14:45:31  5-MIN KMSN 102045Z 34009KT 10SM FEW075 31/13 A2984 930 34 3000 340/09 RMK AO2
14837KMSN MSN20010710145012507/10/01 14:50:31  5-MIN KMSN 102050Z 34009G14KT 10SM FEW075 30/14 A2984 940 36 2900 340/09G14 RMK AO2 SLP100 T03000139 58005
14837KMSN MSN20010710145509607/10/01 14:55:31  5-MIN KMSN 102055Z VRB06KT 10SM FEW075 31/14 A2984 940 34 3000 VRB/06 RMK AO2
14837KMSN MSN20010710150011207/10/01 15:00:31  5-MIN KMSN 102100Z 34007KT 300V360 10SM FEW075 31/14 A2984 940 35 3000 330/07 300V360 RMK AO2
14837KMSN MSN20010710150509607/10/01 15:05:31  5-MIN KMSN 102105Z 31009KT 10SM FEW075 31/14 A2984 940 35 3000 310/09 RMK AO2
14837KMSN MSN20010710151011207/10/01 15:10:31  5-MIN KMSN 102110Z 30011KT 280V340 10SM FEW075 31/13 A2984 940 34 3000 300/11 280V340 RMK AO2
14837KMSN MSN20010710151509307/10/01 15:15:31  5-MIN KMSN 102115Z 30009KT 10SM CLR 30/12 A2984 940 33 2900 300/09 RMK AO2
14837KMSN MSN20010710152009607/10/01 15:20:31  5-MIN KMSN 102120Z 35010KT 10SM FEW075 31/13 A2984 940 34 3000 350/10 RMK AO2
14837KMSN MSN20010710152509607/10/01 15:25:31  5-MIN KMSN 102125Z 34008KT 10SM FEW075 30/13 A2984 940 35 2900 340/08 RMK AO2
14837KMSN MSN20010710153009607/10/01 15:30:31  5-MIN KMSN 102130Z 34007KT 10SM FEW075 31/13 A2984 940 34 3000 340/07 RMK AO2
14837KMSN MSN20010710153509607/10/01 15:35:31  5-MIN KMSN 102135Z 35009KT 10SM FEW075 31/13 A2984 940 34 3000 350/09 RMK AO2
14837KMSN MSN20010710154009607/10/01 15:40:31  5-MIN KMSN 102140Z 33007KT 10SM SCT075 31/14 A2984 940 35 3000 330/07 RMK AO2
14837KMSN MSN20010710154510207/10/01 15:45:31  5-MIN KMSN 102145Z 31013G16KT 10SM SCT075 31/14 A2984 940 37 3000 310/13G16 RMK AO2
14837KMSN MSN20010710155011907/10/01 15:50:31  5-MIN KMSN 102150Z 31010G16KT 10SM SCT075 30/12 A2984 940 33 2900 310/10G16 RMK AO2 SLP099 T03000122
14837KMSN MSN20010710155509607/10/01 15:55:31  5-MIN KMSN 102155Z 34009KT 10SM FEW075 29/13 A2984 940 35 2800 340/09 RMK AO2
14837KMSN MSN20010710160009307/10/01 16:00:31  5-MIN KMSN 102200Z 34011KT 10SM CLR 30/13 A2984 940 34 2900 340/11 RMK AO2
14837KMSN MSN20010710160509307/10/01 16:05:31  5-MIN KMSN 102205Z 33009KT 10SM CLR 29/12 A2984 940 35 2800 330/09 RMK AO2
14837KMSN MSN20010710161009307/10/01 16:10:31  5-MIN KMSN 102210Z 32010KT 10SM CLR 29/12 A2984 940 34 2800 320/10 RMK AO2
14837KMSN MSN20010710161509907/10/01 16:15:31  5-MIN KMSN 102215Z 33008G15KT 10SM CLR 30/13 A2984 940 34 2900 330/08G15 RMK AO2
14837KMSN MSN20010710162009607/10/01 16:20:31  5-MIN KMSN 102220Z 34009KT 10SM FEW075 29/13 A2984 940 35 2800 340/09 RMK AO2
14837KMSN MSN20010710162509607/10/01 16:25:31  5-MIN KMSN 102225Z 35008KT 10SM FEW075 29/12 A2984 940 34 2800 350/08 RMK AO2
14837KMSN MSN20010710163009607/10/01 16:30:31  5-MIN KMSN 102230Z 33008KT 10SM FEW075 29/13 A2984 940 35 2800 330/08 RMK AO2
14837KMSN MSN20010710163509607/10/01 16:35:31  5-MIN KMSN 102235Z 33011KT 10SM FEW075 30/12 A2984 940 33 2900 330/11 RMK AO2
14837KMSN MSN20010710164009607/10/01 16:40:31  5-MIN KMSN 102240Z 34009KT 10SM FEW075 30/12 A2984 940 33 2900 340/09 RMK AO2
14837KMSN MSN20010710164509607/10/01 16:45:31  5-MIN KMSN 102245Z 32005KT 10SM FEW075 29/12 A2984 940 34 2800 320/05 RMK AO2
14837KMSN MSN20010710165011307/10/01 16:50:31  5-MIN KMSN 102250Z 32008KT 10SM FEW075 30/13 A2984 940 34 2900 320/08 RMK AO2 SLP100 T03000128
14837KMSN MSN20010710165509607/10/01 16:55:31  5-MIN KMSN 102255Z 32009KT 10SM FEW075 30/12 A2984 940 33 2900 320/09 RMK AO2
14837KMSN MSN20010710170009607/10/01 17:00:31  5-MIN KMSN 102300Z 33007KT 10SM FEW075 29/12 A2984 940 35 2800 330/07 RMK AO2
14837KMSN MSN20010710170509607/10/01 17:05:31  5-MIN KMSN 102305Z 33007KT 10SM FEW075 29/12 A2984 930 34 2800 320/07 RMK AO2
14837KMSN MSN20010710171009607/10/01 17:10:31  5-MIN KMSN 102310Z 33008KT 10SM FEW075 29/12 A2984 930 34 2800 330/08 RMK AO2
14837KMSN MSN20010710171509607/10/01 17:15:31  5-MIN KMSN 102315Z 33009KT 10SM FEW075 29/12 A2985 930 34 2800 330/09 RMK AO2
14837KMSN MSN20010710172009607/10/01 17:20:31  5-MIN KMSN 102320Z 34009KT 10SM FEW075 29/12 A2985 930 34 2800 340/09 RMK AO2
14837KMSN MSN20010710172509607/10/01 17:25:31  5-MIN KMSN 102325Z 34007KT 10SM FEW075 29/13 A2985 930 36 2800 340/07 RMK AO2
14837KMSN MSN20010710173009607/10/01 17:30:31  5-MIN KMSN 102330Z 34007KT 10SM FEW075 29/13 A2985 930 38 2800 340/07 RMK AO2
14837KMSN MSN20010710173509607/10/01 17:35:31  5-MIN KMSN 102335Z 35010KT 10SM FEW080 29/13 A2985 930 38 2800 350/10 RMK AO2
14837KMSN MSN20010710174009907/10/01 17:40:31  5-MIN KMSN 102340Z 01012G15KT 10SM CLR 28/13 A2985 930 37 2700 010/12G15 RMK AO2
14837KMSN MSN20010710174509907/10/01 17:45:31  5-MIN KMSN 102345Z 35008G15KT 10SM CLR 28/13 A2986 920 39 2700 350/08G15 RMK AO2
14837KMSN MSN20010710175013107/10/01 17:50:31  5-MIN KMSN 102350Z 34008KT 10SM FEW080 28/13 A2986 920 39 2700 340/08 RMK AO2 SLP104 T02830133 10317 20283 56014
14837KMSN MSN20010710175509607/10/01 17:55:31  5-MIN KMSN 102355Z 34009KT 10SM FEW080 28/13 A2986 920 37 2700 340/09 RMK AO2
14837KMSN MSN20010710180009607/10/01 18:00:31  5-MIN KMSN 110000Z 35009KT 10SM FEW080 28/12 A2986 920 37 2600 350/09 RMK AO2
14837KMSN MSN20010710180509607/10/01 18:05:31  5-MIN KMSN 110005Z 35008KT 10SM FEW080 28/12 A2986 920 37 2600 350/08 RMK AO2
14837KMSN MSN20010710181009607/10/01 18:10:31  5-MIN KMSN 110010Z 35009KT 10SM FEW080 28/12 A2986 920 37 2600 350/09 RMK AO2
14837KMSN MSN20010710181510207/10/01 18:15:31  5-MIN KMSN 110015Z 36009G15KT 10SM FEW080 27/12 A2986 920 39 2600 360/09G15 RMK AO2
14837KMSN MSN20010710182009607/10/01 18:20:31  5-MIN KMSN 110020Z 36009KT 10SM FEW080 27/12 A2987 920 39 2600 360/09 RMK AO2
14837KMSN MSN20010710182510207/10/01 18:25:31  5-MIN KMSN 110025Z 36012G16KT 10SM FEW080 27/12 A2987 910 38 2500 350/12G16 RMK AO2
14837KMSN MSN20010710183010207/10/01 18:30:31  5-MIN KMSN 110030Z 35008G16KT 10SM FEW080 27/11 A2987 910 37 2500 350/08G16 RMK AO2
14837KMSN MSN20010710183509307/10/01 18:35:31  5-MIN KMSN 110035Z 34007KT 10SM CLR 27/11 A2987 910 37 2500 340/07 RMK AO2
14837KMSN MSN20010710184009307/10/01 18:40:31  5-MIN KMSN 110040Z 35007KT 10SM CLR 26/11 A2987 910 37 2400 340/07 RMK AO2
14837KMSN MSN20010710184509607/10/01 18:45:31  5-MIN KMSN 110045Z 35006KT 10SM FEW090 26/11 A2987 910 37 2400 350/06 RMK AO2
14837KMSN MSN20010710185011307/10/01 18:50:31  5-MIN KMSN 110050Z 34005KT 10SM FEW090 26/11 A2987 910 37 2400 340/05 RMK AO2 SLP110 T02610106
14837KMSN MSN20010710185509307/10/01 18:55:31  5-MIN KMSN 110055Z 35007KT 10SM CLR 26/11 A2988 910 38 2400 340/07 RMK AO2
14837KMSN MSN20010710190009307/10/01 19:00:31  5-MIN KMSN 110100Z 35006KT 10SM CLR 26/11 A2988 900 38 2400 350/06 RMK AO2
14837KMSN MSN20010710190509307/10/01 19:05:31  5-MIN KMSN 110105Z 34006KT 10SM CLR 25/11 A2988 900 39 2300 340/06 RMK AO2
14837KMSN MSN20010710191009307/10/01 19:10:31  5-MIN KMSN 110110Z 34005KT 10SM CLR 25/11 A2988 900 39 2300 340/05 RMK AO2
14837KMSN MSN20010710191509307/10/01 19:15:31  5-MIN KMSN 110115Z 34006KT 10SM CLR 25/11 A2988 900 39 2300 340/06 RMK AO2
14837KMSN MSN20010710192009307/10/01 19:20:31  5-MIN KMSN 110120Z 34006KT 10SM CLR 25/11 A2988 900 39 2300 340/06 RMK AO2
14837KMSN MSN20010710192509307/10/01 19:25:31  5-MIN KMSN 110125Z 34005KT 10SM CLR 24/11 A2988 900 41 2200 340/05 RMK AO2
14837KMSN MSN20010710193009307/10/01 19:30:31  5-MIN KMSN 110130Z 34005KT 10SM CLR 24/11 A2989 900 41 2200 340/05 RMK AO2
14837KMSN MSN20010710193509307/10/01 19:35:31  5-MIN KMSN 110135Z 34005KT 10SM CLR 24/11 A2989 900 42 2200 340/05 RMK AO2
14837KMSN MSN20010710194009607/10/01 19:40:31  5-MIN KMSN 110140Z 34007KT 10SM FEW050 24/11 A2989 900 42 2200 340/07 RMK AO2
14837KMSN MSN20010710194509607/10/01 19:45:31  5-MIN KMSN 110145Z 35006KT 10SM FEW050 24/10 A2989 890 41 2200 350/06 RMK AO2
14837KMSN MSN20010710195011307/10/01 19:50:31  5-MIN KMSN 110150Z 34006KT 10SM FEW050 24/10 A2989 890 41 2200 340/06 RMK AO2 SLP115 T02390100
14837KMSN MSN20010710195509607/10/01 19:55:31  5-MIN KMSN 110155Z 35006KT 10SM FEW070 24/10 A2989 890 41 2200 350/06 RMK AO2
14837KMSN MSN20010710200009607/10/01 20:00:31  5-MIN KMSN 110200Z 34005KT 10SM FEW070 23/10 A2989 890 42 2100 340/05 RMK AO2
14837KMSN MSN20010710200509607/10/01 20:05:31  5-MIN KMSN 110205Z 01007KT 10SM FEW070 22/11 A2990 890 47 2000 360/07 RMK AO2
14837KMSN MSN20010710201009607/10/01 20:10:31  5-MIN KMSN 110210Z 01009KT 10SM FEW070 21/11 A2990 880 52 1800 010/09 RMK AO2
14837KMSN MSN20010710201509607/10/01 20:15:31  5-MIN KMSN 110215Z 36008KT 10SM FEW070 21/11 A2990 880 52 1800 360/08 RMK AO2
14837KMSN MSN20010710202009607/10/01 20:20:31  5-MIN KMSN 110220Z 36008KT 10SM FEW070 21/11 A2990 880 52 1800 360/08 RMK AO2
14837KMSN MSN20010710202509607/10/01 20:25:31  5-MIN KMSN 110225Z 36007KT 10SM FEW070 22/11 A2991 880 50 1900 360/07 RMK AO2
14837KMSN MSN20010710203009607/10/01 20:30:31  5-MIN KMSN 110230Z 36008KT 10SM FEW070 22/11 A2991 870 50 1900 360/08 RMK AO2
14837KMSN MSN20010710203509607/10/01 20:35:31  5-MIN KMSN 110235Z 36008KT 10SM FEW070 21/11 A2991 870 52 1800 360/08 RMK AO2
14837KMSN MSN20010710204009607/10/01 20:40:31  5-MIN KMSN 110240Z 01009KT 10SM FEW070 21/11 A2992 870 52 1800 010/09 RMK AO2
14837KMSN MSN20010710204509607/10/01 20:45:31  5-MIN KMSN 110245Z 05013KT 10SM FEW070 21/11 A2993 860 52 1800 050/13 RMK AO2
14837KMSN MSN20010710205012307/10/01 20:50:31  5-MIN KMSN 110250Z 08012KT 10SM CLR 21/12 A2993 850 56 1800 080/12 RMK AO2 PRESRR SLP131 T02110122 53005
14837KMSN MSN20010710205509307/10/01 20:55:31  5-MIN KMSN 110255Z 07013KT 10SM CLR 21/13 A2994 850 60 1700 070/13 RMK AO2
14837KMSN MSN20010710210010407/10/01 21:00:31  5-MIN KMSN 110300Z 08013KT 10SM CLR 21/13 A2994 840 60 1700 080/13 RMK AO2 WSHFT 0243
14837KMSN MSN20010710210510407/10/01 21:05:31  5-MIN KMSN 110305Z 08009KT 10SM CLR 20/13 A2994 840 63 1700 080/09 RMK AO2 WSHFT 0243
14837KMSN MSN20010710211010407/10/01 21:10:31  5-MIN KMSN 110310Z 08010KT 10SM CLR 20/13 A2995 840 63 1700 080/10 RMK AO2 WSHFT 0243
14837KMSN MSN20010710211510407/10/01 21:15:31  5-MIN KMSN 110315Z 08008KT 10SM CLR 19/13 A2995 840 65 1600 080/08 RMK AO2 WSHFT 0243
14837KMSN MSN20010710212010407/10/01 21:20:31  5-MIN KMSN 110320Z 08009KT 10SM CLR 19/13 A2995 840 65 1600 070/09 RMK AO2 WSHFT 0243
14837KMSN MSN20010710212510407/10/01 21:25:31  5-MIN KMSN 110325Z 07008KT 10SM CLR 19/13 A2995 830 65 1600 070/08 RMK AO2 WSHFT 0243
14837KMSN MSN20010710213010407/10/01 21:30:31  5-MIN KMSN 110330Z 08008KT 10SM CLR 19/13 A2996 830 67 1500 080/08 RMK AO2 WSHFT 0243
14837KMSN MSN20010710213510407/10/01 21:35:31  5-MIN KMSN 110335Z 08007KT 10SM CLR 18/13 A2996 830 70 1500 080/07 RMK AO2 WSHFT 0243
14837KMSN MSN20010710214010407/10/01 21:40:31  5-MIN KMSN 110340Z 08008KT 10SM CLR 19/12 A2996 830 65 1500 080/08 RMK AO2 WSHFT 0243
14837KMSN MSN20010710214510407/10/01 21:45:31  5-MIN KMSN 110345Z 07008KT 10SM CLR 19/12 A2996 830 65 1500 070/08 RMK AO2 WSHFT 0243
14837KMSN MSN20010710215012107/10/01 21:50:31  5-MIN KMSN 110350Z 07008KT 10SM CLR 18/12 A2996 830 65 1400 070/08 RMK AO2 WSHFT 0243 SLP140 T01830117
14837KMSN MSN20010710215509307/10/01 21:55:31  5-MIN KMSN 110355Z 07007KT 10SM CLR 18/12 A2996 830 65 1400 070/07 RMK AO2
14837KMSN MSN20010710220009307/10/01 22:00:31  5-MIN KMSN 110400Z 08008KT 10SM CLR 18/11 A2996 820 62 1400 080/08 RMK AO2
14837KMSN MSN20010710220509307/10/01 22:05:31  5-MIN KMSN 110405Z 09008KT 10SM CLR 18/11 A2997 820 64 1400 090/08 RMK AO2
14837KMSN MSN20010710221009307/10/01 22:10:31  5-MIN KMSN 110410Z 08006KT 10SM CLR 18/11 A2997 820 62 1400 080/06 RMK AO2
14837KMSN MSN20010710221509307/10/01 22:15:31  5-MIN KMSN 110415Z 09006KT 10SM CLR 18/11 A2997 820 64 1400 090/06 RMK AO2
14837KMSN MSN20010710222009307/10/01 22:20:31  5-MIN KMSN 110420Z 08006KT 10SM CLR 17/11 A2997 820 64 1300 080/06 RMK AO2
14837KMSN MSN20010710222509307/10/01 22:25:31  5-MIN KMSN 110425Z 09009KT 10SM CLR 18/11 A2998 810 62 1400 080/09 RMK AO2
14837KMSN MSN20010710223009307/10/01 22:30:31  5-MIN KMSN 110430Z 08007KT 10SM CLR 17/11 A2998 810 64 1300 080/07 RMK AO2
14837KMSN MSN20010710223509307/10/01 22:35:31  5-MIN KMSN 110435Z 08007KT 10SM CLR 17/11 A2998 810 64 1300 080/07 RMK AO2
14837KMSN MSN20010710224009307/10/01 22:40:31  5-MIN KMSN 110440Z 08006KT 10SM CLR 17/11 A2998 810 67 1200 080/06 RMK AO2
14837KMSN MSN20010710224509307/10/01 22:45:31  5-MIN KMSN 110445Z 08005KT 10SM CLR 17/11 A2998 810 67 1200 080/05 RMK AO2
14837KMSN MSN20010710225011007/10/01 22:50:31  5-MIN KMSN 110450Z 07006KT 10SM CLR 16/11 A2998 810 69 1200 070/06 RMK AO2 SLP148 T01610106
14837KMSN MSN20010710225509307/10/01 22:55:31  5-MIN KMSN 110455Z 07005KT 10SM CLR 16/11 A2998 810 69 1200 070/05 RMK AO2
14837KMSN MSN20010710230009307/10/01 23:00:31  5-MIN KMSN 110500Z 07004KT 10SM CLR 16/11 A2998 810 69 1200 070/04 RMK AO2
14837KMSN MSN20010710230509307/10/01 23:05:31  5-MIN KMSN 110505Z 07004KT 10SM CLR 16/11 A2998 810 69 1200 070/04 RMK AO2
14837KMSN MSN20010710231009307/10/01 23:10:31  5-MIN KMSN 110510Z 07004KT 10SM CLR 16/11 A2998 810 69 1200 060/04 RMK AO2
14837KMSN MSN20010710231509307/10/01 23:15:31  5-MIN KMSN 110515Z 06003KT 10SM CLR 16/11 A2998 810 69 1200 050/03 RMK AO2
14837KMSN MSN20010710232009307/10/01 23:20:31  5-MIN KMSN 110520Z 06003KT 10SM CLR 16/11 A2998 810 69 1200 060/03 RMK AO2
14837KMSN MSN20010710232509307/10/01 23:25:31  5-MIN KMSN 110525Z 07003KT 10SM CLR 16/10 A2999 800 69 1100 070/03 RMK AO2
14837KMSN MSN20010710233009307/10/01 23:30:31  5-MIN KMSN 110530Z 05003KT 10SM CLR 16/10 A2999 800 69 1100 050/03 RMK AO2
14837KMSN MSN20010710233509307/10/01 23:35:31  5-MIN KMSN 110535Z 07004KT 10SM CLR 15/11 A2999 800 74 1000 070/04 RMK AO2
14837KMSN MSN20010710234009307/10/01 23:40:31  5-MIN KMSN 110540Z 04003KT 10SM CLR 16/10 A2999 800 69 1100 040/03 RMK AO2
14837KMSN MSN20010710234509307/10/01 23:45:31  5-MIN KMSN 110545Z 06004KT 10SM CLR 16/10 A2999 800 69 1100 060/04 RMK AO2
14837KMSN MSN20010710235013807/10/01 23:50:31  5-MIN KMSN 110550Z 02003KT 10SM CLR 16/10 A2999 800 69 1100 020/03 RMK AO2 SLP151 T01560100 10283 20150 403170150 53026
14837KMSN MSN20010710235509307/10/01 23:55:31  5-MIN KMSN 110555Z 00000KT 10SM CLR 15/11 A2999 800 74 1000 000/00 RMK AO2
14837KMSN MSN20010711000009307/11/01 00:00:31  5-MIN KMSN 110600Z 00000KT 10SM CLR 14/11 A2999 800 77 1000 000/00 RMK AO2
14837KMSN MSN20010711000509207/11/01 00:05:31  5-MIN KMSN 110605Z 00000KT 10SM CLR 14/11 A3000 790 83 900 000/00 RMK AO2
14837KMSN MSN20010711001009207/11/01 00:10:31  5-MIN KMSN 110610Z 00000KT 10SM CLR 13/11 A3000 790 83 800 000/00 RMK AO2
14837KMSN MSN20010711001509207/11/01 00:15:31  5-MIN KMSN 110615Z 00000KT 10SM CLR 13/11 A3000 790 83 800 000/00 RMK AO2
14837KMSN MSN20010711002009207/11/01 00:20:31  5-MIN KMSN 110620Z 00000KT 10SM CLR 13/11 A3000 790 83 800 000/00 RMK AO2
14837KMSN MSN20010711002509207/11/01 00:25:31  5-MIN KMSN 110625Z 00000KT 10SM CLR 13/11 A3000 800 83 800 000/00 RMK AO2
14837KMSN MSN20010711003009207/11/01 00:30:31  5-MIN KMSN 110630Z 00000KT 10SM CLR 13/11 A3000 790 83 800 000/00 RMK AO2
14837KMSN MSN20010711003509207/11/01 00:35:31  5-MIN KMSN 110635Z 00000KT 10SM CLR 13/11 A3000 790 86 800 000/00 RMK AO2
14837KMSN MSN20010711004009207/11/01 00:40:31  5-MIN KMSN 110640Z 00000KT 10SM CLR 13/11 A3000 790 86 800 000/00 RMK AO2
14837KMSN MSN20010711004509207/11/01 00:45:31  5-MIN KMSN 110645Z 00000KT 10SM CLR 13/11 A2999 800 86 800 000/00 RMK AO2
14837KMSN MSN20010711005010907/11/01 00:50:31  5-MIN KMSN 110650Z 00000KT 10SM CLR 13/11 A2999 800 86 800 000/00 RMK AO2 SLP153 T01280106
14837KMSN MSN20010711005509207/11/01 00:55:31  5-MIN KMSN 110655Z 00000KT 10SM CLR 13/11 A3000 790 86 800 000/00 RMK AO2
14837KMSN MSN20010711010009207/11/01 01:00:31  5-MIN KMSN 110700Z 00000KT 10SM CLR 13/11 A3000 790 86 800 000/00 RMK AO2
14837KMSN MSN20010711010509207/11/01 01:05:31  5-MIN KMSN 110705Z 00000KT 10SM CLR 13/11 A3000 790 86 800 000/00 RMK AO2
14837KMSN MSN20010711011009207/11/01 01:10:31  5-MIN KMSN 110710Z 29003KT 10SM CLR 12/11 A3000 790 89 700 290/03 RMK AO2
14837KMSN MSN20010711011509207/11/01 01:15:31  5-MIN KMSN 110715Z 00000KT 10SM CLR 12/11 A3000 790 89 700 000/00 RMK AO2
14837KMSN MSN20010711012009207/11/01 01:20:31  5-MIN KMSN 110720Z 00000KT 10SM CLR 12/11 A3000 790 89 700 000/00 RMK AO2
14837KMSN MSN20010711012509207/11/01 01:25:31  5-MIN KMSN 110725Z 00000KT 10SM CLR 13/11 A3000 790 86 800 000/00 RMK AO2
14837KMSN MSN20010711013009207/11/01 01:30:31  5-MIN KMSN 110730Z 00000KT 10SM CLR 12/11 A3000 790 89 700 000/00 RMK AO2
14837KMSN MSN20010711013509207/11/01 01:35:31  5-MIN KMSN 110735Z 00000KT 10SM CLR 12/11 A3000 790 89 700 000/00 RMK AO2
14837KMSN MSN20010711014009207/11/01 01:40:31  5-MIN KMSN 110740Z 00000KT 10SM CLR 12/11 A3000 790 89 700 000/00 RMK AO2
14837KMSN MSN20010711014509207/11/01 01:45:31  5-MIN KMSN 110745Z 00000KT 10SM CLR 12/11 A3000 790 89 700 000/00 RMK AO2
14837KMSN MSN20010711015010907/11/01 01:50:31  5-MIN KMSN 110750Z 00000KT 10SM CLR 12/11 A3000 790 93 600 000/00 RMK AO2 SLP155 T01170106
14837KMSN MSN20010711015509207/11/01 01:55:31  5-MIN KMSN 110755Z 00000KT 10SM CLR 12/11 A3000 790 89 700 000/00 RMK AO2
14837KMSN MSN20010711020009207/11/01 02:00:31  5-MIN KMSN 110800Z 00000KT 10SM CLR 12/11 A3000 790 89 700 000/00 RMK AO2
14837KMSN MSN20010711020509207/11/01 02:05:31  5-MIN KMSN 110805Z 00000KT 10SM CLR 12/11 A3000 790 93 600 000/00 RMK AO2
14837KMSN MSN20010711021009207/11/01 02:10:31  5-MIN KMSN 110810Z 00000KT 10SM CLR 12/11 A3000 790 93 600 000/00 RMK AO2
14837KMSN MSN20010711021509207/11/01 02:15:31  5-MIN KMSN 110815Z 00000KT 10SM CLR 12/11 A3000 790 93 600 000/00 RMK AO2
14837KMSN MSN20010711022009207/11/01 02:20:31  5-MIN KMSN 110820Z 00000KT 10SM CLR 12/11 A3000 790 93 600 000/00 RMK AO2
14837KMSN MSN20010711022509207/11/01 02:25:31  5-MIN KMSN 110825Z 00000KT 10SM CLR 12/11 A3000 790 93 600 000/00 RMK AO2
14837KMSN MSN20010711023009207/11/01 02:30:31  5-MIN KMSN 110830Z 00000KT 10SM CLR 11/11 A3000 790 96 600 000/00 RMK AO2
14837KMSN MSN20010711023509207/11/01 02:35:31  5-MIN KMSN 110835Z 00000KT 10SM CLR 12/11 A3000 790 93 600 000/00 RMK AO2
14837KMSN MSN20010711024009207/11/01 02:40:31  5-MIN KMSN 110840Z 00000KT 10SM CLR 11/11 A3000 790 96 600 000/00 RMK AO2
14837KMSN MSN20010711024509207/11/01 02:45:31  5-MIN KMSN 110845Z 00000KT 10SM CLR 11/10 A3000 790 93 600 000/00 RMK AO2
14837KMSN MSN20010711025011507/11/01 02:50:31  5-MIN KMSN 110850Z 00000KT 10SM CLR 11/10 A3000 790 93 600 000/00 RMK AO2 SLP156 T01110100 51019
14837KMSN MSN20010711025509207/11/01 02:55:31  5-MIN KMSN 110855Z 00000KT 10SM CLR 12/11 A3000 790 93 600 000/00 RMK AO2
14837KMSN MSN20010711030009207/11/01 03:00:31  5-MIN KMSN 110900Z 36003KT 10SM CLR 11/11 A3000 790 96 600 360/03 RMK AO2
14837KMSN MSN20010711030509207/11/01 03:05:31  5-MIN KMSN 110905Z 36003KT 10SM CLR 11/10 A3000 790 93 600 360/03 RMK AO2
14837KMSN MSN20010711031009207/11/01 03:10:31  5-MIN KMSN 110910Z 00000KT 10SM CLR 11/10 A3000 790 93 600 000/00 RMK AO2
14837KMSN MSN20010711031509207/11/01 03:15:31  5-MIN KMSN 110915Z 00000KT 10SM CLR 11/11 A3000 790 96 600 000/00 RMK AO2
14837KMSN MSN20010711032009207/11/01 03:20:31  5-MIN KMSN 110920Z 36003KT 10SM CLR 11/10 A3000 790 96 500 360/03 RMK AO2
14837KMSN MSN20010711032509207/11/01 03:25:31  5-MIN KMSN 110925Z 01004KT 10SM CLR 11/10 A3000 790 96 500 010/04 RMK AO2
14837KMSN MSN20010711033009207/11/01 03:30:31  5-MIN KMSN 110930Z 36003KT 10SM CLR 12/11 A3000 790 93 600 350/03 RMK AO2
14837KMSN MSN20010711033509207/11/01 03:35:31  5-MIN KMSN 110935Z 00000KT 10SM CLR 11/10 A3000 790 93 600 000/00 RMK AO2
14837KMSN MSN20010711034009207/11/01 03:40:31  5-MIN KMSN 110940Z 00000KT 10SM CLR 11/10 A3000 790 96 500 000/00 RMK AO2
14837KMSN MSN20010711034509207/11/01 03:45:31  5-MIN KMSN 110945Z 00000KT 10SM CLR 11/10 A3000 790 96 500 000/00 RMK AO2
14837KMSN MSN20010711035010907/11/01 03:50:31  5-MIN KMSN 110950Z 00000KT 10SM CLR 11/10 A3000 790 96 500 000/00 RMK AO2 SLP157 T01060100
14837KMSN MSN20010711035509207/11/01 03:55:31  5-MIN KMSN 110955Z 00000KT 10SM CLR 11/10 A3000 790 96 500 000/00 RMK AO2
14837KMSN MSN20010711040009207/11/01 04:00:31  5-MIN KMSN 111000Z 00000KT 10SM CLR 10/09 A3001 790 96 400 000/00 RMK AO2
14837KMSN MSN20010711040509207/11/01 04:05:31  5-MIN KMSN 111005Z 00000KT 10SM CLR 10/09 A3001 780 96 400 000/00 RMK AO2
14837KMSN MSN20010711041009207/11/01 04:10:31  5-MIN KMSN 111010Z 00000KT 10SM CLR 10/09 A3001 780 96 400 000/00 RMK AO2
14837KMSN MSN20010711041509207/11/01 04:15:31  5-MIN KMSN 111015Z 00000KT 10SM CLR 10/09 A3001 780 96 400 000/00 RMK AO2
14837KMSN MSN20010711042009207/11/01 04:20:31  5-MIN KMSN 111020Z 00000KT 10SM CLR 11/10 A3001 780 96 500 000/00 RMK AO2
14837KMSN MSN20010711042509207/11/01 04:25:31  5-MIN KMSN 111025Z 00000KT 10SM CLR 11/10 A3001 780 96 500 000/00 RMK AO2
14837KMSN MSN20010711043009207/11/01 04:30:31  5-MIN KMSN 111030Z 00000KT 10SM CLR 11/10 A3001 780 96 500 000/00 RMK AO2
14837KMSN MSN20010711043509207/11/01 04:35:31  5-MIN KMSN 111035Z 00000KT 10SM CLR 10/09 A3001 780 96 400 000/00 RMK AO2
14837KMSN MSN20010711044009207/11/01 04:40:31  5-MIN KMSN 111040Z 00000KT 10SM CLR 10/09 A3001 780 96 400 000/00 RMK AO2
14837KMSN MSN20010711044509207/11/01 04:45:31  5-MIN KMSN 111045Z 00000KT 10SM CLR 11/09 A3002 780 93 500 000/00 RMK AO2
14837KMSN MSN20010711045010907/11/01 04:50:31  5-MIN KMSN 111050Z 00000KT 10SM CLR 11/10 A3002 780 96 500 000/00 RMK AO2 SLP161 T01060100
14837KMSN MSN20010711045509207/11/01 04:55:31  5-MIN KMSN 111055Z 00000KT 10SM CLR 11/10 A3002 780 96 500 000/00 RMK AO2
14837KMSN MSN20010711050009207/11/01 05:00:31  5-MIN KMSN 111100Z 00000KT 10SM CLR 11/09 A3002 770 93 500 000/00 RMK AO2
14837KMSN MSN20010711050509207/11/01 05:05:31  5-MIN KMSN 111105Z 01003KT 10SM CLR 11/10 A3002 770 93 500 010/03 RMK AO2
14837KMSN MSN20010711051009207/11/01 05:10:31  5-MIN KMSN 111110Z 01003KT 10SM CLR 11/10 A3002 770 93 500 010/03 RMK AO2
14837KMSN MSN20010711051509207/11/01 05:15:31  5-MIN KMSN 111115Z 02003KT 10SM CLR 11/10 A3002 770 93 500 020/03 RMK AO2
14837KMSN MSN20010711052009207/11/01 05:20:31  5-MIN KMSN 111120Z 00000KT 10SM CLR 12/10 A3002 770 89 600 000/00 RMK AO2
14837KMSN MSN20010711052509207/11/01 05:25:31  5-MIN KMSN 111125Z 00000KT 10SM CLR 12/10 A3003 770 89 600 000/00 RMK AO2
14837KMSN MSN20010711053009207/11/01 05:30:31  5-MIN KMSN 111130Z 01005KT 10SM CLR 12/11 A3003 770 89 700 010/05 RMK AO2
14837KMSN MSN20010711053509207/11/01 05:35:31  5-MIN KMSN 111135Z 36004KT 10SM CLR 12/11 A3003 770 89 700 360/04 RMK AO2
14837KMSN MSN20010711054009207/11/01 05:40:31  5-MIN KMSN 111140Z 00000KT 10SM CLR 13/11 A3003 770 86 700 000/00 RMK AO2
14837KMSN MSN20010711054509207/11/01 05:45:31  5-MIN KMSN 111145Z 01004KT 10SM CLR 13/11 A3003 770 86 800 010/04 RMK AO2
14837KMSN MSN20010711055012707/11/01 05:50:31  5-MIN KMSN 111150Z 01003KT 10SM CLR 13/11 A3003 760 86 800 010/03 RMK AO2 SLP165 T01330111 10150 20100 51003
14837KMSN MSN20010711055509207/11/01 05:55:31  5-MIN KMSN 111155Z 00000KT 10SM CLR 14/11 A3003 760 83 800 000/00 RMK AO2
14837KMSN MSN20010711060009207/11/01 06:00:31  5-MIN KMSN 111200Z 00000KT 10SM CLR 14/11 A3003 760 80 800 000/00 RMK AO2
14837KMSN MSN20010711060509207/11/01 06:05:31  5-MIN KMSN 111205Z 00000KT 10SM CLR 14/11 A3003 760 77 900 000/00 RMK AO2
14837KMSN MSN20010711061009207/11/01 06:10:31  5-MIN KMSN 111210Z 00000KT 10SM CLR 14/11 A3003 760 80 900 000/00 RMK AO2
14837KMSN MSN20010711061509307/11/01 06:15:31  5-MIN KMSN 111215Z 00000KT 10SM CLR 15/11 A3004 760 77 1000 000/00 RMK AO2
14837KMSN MSN20010711062009307/11/01 06:20:31  5-MIN KMSN 111220Z 00000KT 10SM CLR 16/11 A3004 750 74 1000 000/00 RMK AO2
14837KMSN MSN20010711062509307/11/01 06:25:31  5-MIN KMSN 111225Z 00000KT 10SM CLR 16/11 A3004 750 74 1000 000/00 RMK AO2
14837KMSN MSN20010711063009307/11/01 06:30:31  5-MIN KMSN 111230Z 00000KT 10SM CLR 16/12 A3004 750 75 1100 000/00 RMK AO2
14837KMSN MSN20010711063509307/11/01 06:35:31  5-MIN KMSN 111235Z 00000KT 10SM CLR 17/12 A3004 750 72 1200 000/00 RMK AO2
14837KMSN MSN20010711064009307/11/01 06:40:31  5-MIN KMSN 111240Z 00000KT 10SM CLR 17/12 A3004 750 72 1200 000/00 RMK AO2
14837KMSN MSN20010711064509307/11/01 06:45:31  5-MIN KMSN 111245Z 00000KT 10SM CLR 18/12 A3005 750 67 1300 000/00 RMK AO2
14837KMSN MSN20010711065011007/11/01 06:50:31  5-MIN KMSN 111250Z VRB03KT 10SM CLR 18/11 A3005 750 64 1300 VRB/03 RMK AO2 SLP171 T01780111
14837KMSN MSN20010711065509307/11/01 06:55:31  5-MIN KMSN 111255Z 30004KT 10SM CLR 18/11 A3005 740 62 1300 300/04 RMK AO2
14837KMSN MSN20010711070009307/11/01 07:00:31  5-MIN KMSN 111300Z 30004KT 10SM CLR 18/11 A3005 740 60 1300 300/04 RMK AO2
14837KMSN MSN20010711070509307/11/01 07:05:31  5-MIN KMSN 111305Z 30004KT 10SM CLR 18/10 A3005 740 58 1300 300/04 RMK AO2
14837KMSN MSN20010711071009307/11/01 07:10:31  5-MIN KMSN 111310Z 31004KT 10SM CLR 19/11 A3005 740 58 1400 300/04 RMK AO2
14837KMSN MSN20010711071509307/11/01 07:15:31  5-MIN KMSN 111315Z 30003KT 10SM CLR 19/11 A3005 740 58 1400 300/03 RMK AO2
14837KMSN MSN20010711072009307/11/01 07:20:31  5-MIN KMSN 111320Z 29004KT 10SM CLR 19/11 A3005 740 58 1400 290/04 RMK AO2
14837KMSN MSN20010711072509307/11/01 07:25:31  5-MIN KMSN 111325Z 32005KT 10SM CLR 19/11 A3005 740 56 1500 320/05 RMK AO2
14837KMSN MSN20010711073009307/11/01 07:30:31  5-MIN KMSN 111330Z VRB04KT 10SM CLR 19/11 A3005 740 58 1500 VRB/04 RMK AO2
14837KMSN MSN20010711073509307/11/01 07:35:31  5-MIN KMSN 111335Z 29005KT 10SM CLR 19/11 A3005 740 56 1500 290/05 RMK AO2
14837KMSN MSN20010711074009307/11/01 07:40:31  5-MIN KMSN 111340Z VRB04KT 10SM CLR 20/10 A3005 740 52 1500 VRB/04 RMK AO2
14837KMSN MSN20010711074509307/11/01 07:45:31  5-MIN KMSN 111345Z VRB03KT 10SM CLR 20/10 A3005 740 52 1500 VRB/03 RMK AO2
14837KMSN MSN20010711075011007/11/01 07:50:31  5-MIN KMSN 111350Z VRB04KT 10SM CLR 20/10 A3005 740 52 1500 VRB/04 RMK AO2 SLP172 T02000100
14837KMSN MSN20010711075509307/11/01 07:55:31  5-MIN KMSN 111355Z 26005KT 10SM CLR 20/10 A3005 740 52 1500 260/05 RMK AO2
14837KMSN MSN20010711080009307/11/01 08:00:31  5-MIN KMSN 111400Z 30005KT 10SM CLR 21/11 A3005 740 50 1700 300/05 RMK AO2
14837KMSN MSN20010711080509307/11/01 08:05:31  5-MIN KMSN 111405Z 30005KT 10SM CLR 21/11 A3005 740 52 1600 290/05 RMK AO2
14837KMSN MSN20010711081009307/11/01 08:10:31  5-MIN KMSN 111410Z VRB04KT 10SM CLR 21/11 A3005 740 52 1600 VRB/04 RMK AO2
14837KMSN MSN20010711081509307/11/01 08:15:31  5-MIN KMSN 111415Z VRB04KT 10SM CLR 21/11 A3005 740 50 1700 VRB/04 RMK AO2
14837KMSN MSN20010711082009307/11/01 08:20:31  5-MIN KMSN 111420Z 27006KT 10SM CLR 21/10 A3005 740 50 1600 270/06 RMK AO2
14837KMSN MSN20010711082509307/11/01 08:25:31  5-MIN KMSN 111425Z VRB04KT 10SM CLR 22/11 A3005 740 49 1700 VRB/04 RMK AO2
14837KMSN MSN20010711083009307/11/01 08:30:31  5-MIN KMSN 111430Z VRB04KT 10SM CLR 21/11 A3006 740 50 1700 VRB/04 RMK AO2
14837KMSN MSN20010711083509307/11/01 08:35:31  5-MIN KMSN 111435Z 33005KT 10SM CLR 22/11 A3005 740 49 1700 330/05 RMK AO2
14837KMSN MSN20010711084009307/11/01 08:40:31  5-MIN KMSN 111440Z VRB06KT 10SM CLR 22/11 A3005 740 49 1700 VRB/06 RMK AO2
14837KMSN MSN20010711084509307/11/01 08:45:31  5-MIN KMSN 111445Z 32006KT 10SM CLR 22/11 A3005 740 49 1700 320/06 RMK AO2
14837KMSN MSN20010711085011607/11/01 08:50:31  5-MIN KMSN 111450Z VRB04KT 10SM CLR 22/11 A3006 740 49 1700 VRB/04 RMK AO2 SLP174 T02170106 53010
14837KMSN MSN20010711085509307/11/01 08:55:31  5-MIN KMSN 111455Z VRB04KT 10SM CLR 22/11 A3006 740 49 1800 VRB/04 RMK AO2
14837KMSN MSN20010711090009307/11/01 09:00:31  5-MIN KMSN 111500Z VRB05KT 10SM CLR 22/11 A3006 740 47 1800 VRB/05 RMK AO2
14837KMSN MSN20010711090509307/11/01 09:05:31  5-MIN KMSN 111505Z 33008KT 10SM CLR 22/11 A3006 740 47 1800 330/08 RMK AO2
14837KMSN MSN20010711091009307/11/01 09:10:31  5-MIN KMSN 111510Z VRB05KT 10SM CLR 22/11 A3006 740 47 1800 VRB/05 RMK AO2
14837KMSN MSN20010711091509307/11/01 09:15:31  5-MIN KMSN 111515Z VRB06KT 10SM CLR 23/11 A3006 730 45 1800 VRB/06 RMK AO2
14837KMSN MSN20010711092009607/11/01 09:20:31  5-MIN KMSN 111520Z VRB04KT 10SM FEW050 22/11 A3006 740 47 1800 VRB/04 RMK AO2
14837KMSN MSN20010711092509607/11/01 09:25:31  5-MIN KMSN 111525Z 27007KT 10SM FEW050 23/11 A3006 740 45 1800 270/07 RMK AO2
14837KMSN MSN20010711093009607/11/01 09:30:31  5-MIN KMSN 111530Z VRB05KT 10SM FEW050 22/11 A3006 740 47 1800 VRB/05 RMK AO2
14837KMSN MSN20010711093509607/11/01 09:35:31  5-MIN KMSN 111535Z 28007KT 10SM FEW050 23/11 A3006 730 45 1800 280/07 RMK AO2
14837KMSN MSN20010711094009607/11/01 09:40:31  5-MIN KMSN 111540Z 32007KT 10SM FEW050 23/11 A3006 730 45 1800 320/07 RMK AO2
14837KMSN MSN20010711094509607/11/01 09:45:31  5-MIN KMSN 111545Z VRB05KT 10SM FEW050 23/11 A3006 730 44 1900 VRB/05 RMK AO2
14837KMSN MSN20010711095011307/11/01 09:50:31  5-MIN KMSN 111550Z 33006KT 10SM FEW050 23/11 A3006 740 44 1900 330/06 RMK AO2 SLP175 T02330106
14837KMSN MSN20010711095510907/11/01 09:55:31  5-MIN KMSN 111555Z 31008KT 270V340 10SM CLR 23/11 A3006 740 44 1900 300/08 270V340 RMK AO2
14837KMSN MSN20010711100009307/11/01 10:00:31  5-MIN KMSN 111600Z 28007KT 10SM CLR 23/11 A3006 730 45 1800 280/07 RMK AO2
14837KMSN MSN20010711100509307/11/01 10:05:31  5-MIN KMSN 111605Z 31007KT 10SM CLR 24/11 A3006 740 42 2000 310/07 RMK AO2
14837KMSN MSN20010711101009307/11/01 10:10:31  5-MIN KMSN 111610Z 33006KT 10SM CLR 24/10 A3006 740 41 2000 330/06 RMK AO2
14837KMSN MSN20010711101509307/11/01 10:15:31  5-MIN KMSN 111615Z 29008KT 10SM CLR 23/11 A3006 740 44 1900 290/08 RMK AO2
14837KMSN MSN20010711102009307/11/01 10:20:31  5-MIN KMSN 111620Z 30006KT 10SM CLR 23/11 A3006 740 44 1900 300/06 RMK AO2
14837KMSN MSN20010711102509607/11/01 10:25:31  5-MIN KMSN 111625Z 32006KT 10SM FEW050 24/10 A3006 740 39 2000 320/06 RMK AO2
14837KMSN MSN20010711103009607/11/01 10:30:31  5-MIN KMSN 111630Z 33005KT 10SM FEW050 24/09 A3005 740 38 2000 330/05 RMK AO2
14837KMSN MSN20010711103509607/11/01 10:35:31  5-MIN KMSN 111635Z 33006KT 10SM FEW050 24/09 A3006 740 39 2000 330/06 RMK AO2
14837KMSN MSN20010711104009607/11/01 10:40:31  5-MIN KMSN 111640Z 32007KT 10SM FEW050 24/10 A3005 740 39 2000 320/07 RMK AO2
14837KMSN MSN20010711104511207/11/01 10:45:31  5-MIN KMSN 111645Z 30010KT 250V320 10SM FEW055 24/10 A3005 740 41 2000 300/10 250V320 RMK AO2
14837KMSN MSN20010711105011307/11/01 10:50:31  5-MIN KMSN 111650Z 32007KT 10SM FEW055 23/09 A3005 740 41 1900 320/07 RMK AO2 SLP173 T02330094
14837KMSN MSN20010711105511207/11/01 10:55:31  5-MIN KMSN 111655Z 28007KT 260V320 10SM FEW055 24/09 A3005 740 38 2000 280/07 260V320 RMK AO2
14837KMSN MSN20010711110009607/11/01 11:00:31  5-MIN KMSN 111700Z VRB06KT 10SM SCT060 24/08 A3005 740 35 2000 VRB/06 RMK AO2
14837KMSN MSN20010711110509607/11/01 11:05:31  5-MIN KMSN 111705Z 01009KT 10SM SCT060 24/08 A3005 740 35 2000 010/09 RMK AO2
14837KMSN MSN20010711111011207/11/01 11:10:31  5-MIN KMSN 111710Z 30008KT 270V350 10SM FEW060 25/08 A3005 740 34 2100 290/08 270V350 RMK AO2
14837KMSN MSN20010711111509607/11/01 11:15:31  5-MIN KMSN 111715Z 33009KT 10SM FEW065 25/09 A3005 740 37 2100 330/09 RMK AO2
14837KMSN MSN20010711112011207/11/01 11:20:31  5-MIN KMSN 111720Z 30007KT 270V340 10SM FEW065 24/09 A3005 750 38 2000 300/07 270V340 RMK AO2
14837KMSN MSN20010711112509607/11/01 11:25:31  5-MIN KMSN 111725Z VRB04KT 10SM FEW065 24/09 A3005 750 38 2100 VRB/04 RMK AO2
14837KMSN MSN20010711113009907/11/01 11:30:31  5-MIN KMSN 111730Z 32009G15KT 10SM CLR 25/09 A3005 750 37 2100 320/09G15 RMK AO2
14837KMSN MSN20010711113509907/11/01 11:35:31  5-MIN KMSN 111735Z 32008G15KT 10SM CLR 24/09 A3005 750 36 2100 320/08G15 RMK AO2
14837KMSN MSN20010711114009607/11/01 11:40:31  5-MIN KMSN 111740Z 36007KT 10SM FEW060 25/09 A3004 750 37 2100 360/07 RMK AO2
14837KMSN MSN20010711114509607/11/01 11:45:31  5-MIN KMSN 111745Z 33008KT 10SM FEW060 24/09 A3005 750 36 2100 330/08 RMK AO2
14837KMSN MSN20010711115015307/11/01 11:50:31  5-MIN KMSN 111750Z 33011G17KT 280V010 10SM SCT060 24/09 A3004 750 38 2000 320/11G17 280V010 RMK AO2 SLP171 T02390089 10250 20139 51008
14837KMSN MSN20010711115510207/11/01 11:55:31  5-MIN KMSN 111755Z VRB05G17KT 10SM SCT060 24/09 A3005 750 36 2100 VRB/05G17 RMK AO2
14837KMSN MSN20010711120009607/11/01 12:00:31  5-MIN KMSN 111800Z 31007KT 10SM SCT060 25/09 A3004 750 35 2100 310/07 RMK AO2
14837KMSN MSN20010711120509607/11/01 12:05:31  5-MIN KMSN 111805Z VRB06KT 10SM BKN060 26/10 A3004 750 37 2200 VRB/06 RMK AO2
14837KMSN MSN20010711121009607/11/01 12:10:31  5-MIN KMSN 111810Z 32007KT 10SM BKN060 24/09 A3004 750 39 2000 320/07 RMK AO2
14837KMSN MSN20010711121509607/11/01 12:15:31  5-MIN KMSN 111815Z 31009KT 10SM BKN060 23/09 A3004 750 41 1900 310/09 RMK AO2
14837KMSN MSN20010711122009607/11/01 12:20:31  5-MIN KMSN 111820Z 34007KT 10SM SCT060 25/10 A3004 760 38 2100 340/07 RMK AO2
14837KMSN MSN20010711122509607/11/01 12:25:31  5-MIN KMSN 111825Z VRB05KT 10SM SCT060 26/09 A3003 760 35 2200 VRB/05 RMK AO2
14837KMSN MSN20010711123009607/11/01 12:30:31  5-MIN KMSN 111830Z VRB05KT 10SM FEW060 26/09 A3003 760 34 2200 VRB/05 RMK AO2
14837KMSN MSN20010711123509607/11/01 12:35:31  5-MIN KMSN 111835Z 30006KT 10SM SCT060 26/09 A3003 760 35 2200 300/06 RMK AO2
14837KMSN MSN20010711124009607/11/01 12:40:31  5-MIN KMSN 111840Z 30007KT 10SM SCT065 26/09 A3003 760 35 2200 300/07 RMK AO2
14837KMSN MSN20010711124509607/11/01 12:45:31  5-MIN KMSN 111845Z 33008KT 10SM FEW065 26/09 A3003 760 35 2200 330/08 RMK AO2
14837KMSN MSN20010711125011307/11/01 12:50:31  5-MIN KMSN 111850Z 31006KT 10SM FEW065 25/09 A3003 760 35 2100 310/06 RMK AO2 SLP167 T02500089
14837KMSN MSN20010711125511207/11/01 12:55:31  5-MIN KMSN 111855Z 30009KT 280V340 10SM SCT065 26/09 A3003 770 34 2300 300/09 280V340 RMK AO2
14837KMSN MSN20010711130009607/11/01 13:00:31  5-MIN KMSN 111900Z VRB06KT 10SM FEW065 26/09 A3003 770 34 2300 VRB/06 RMK AO2
14837KMSN MSN20010711130509607/11/01 13:05:31  5-MIN KMSN 111905Z 34007KT 10SM FEW065 26/09 A3002 770 35 2200 340/07 RMK AO2
14837KMSN MSN20010711131009607/11/01 13:10:31  5-MIN KMSN 111910Z 36008KT 10SM FEW065 26/09 A3002 770 34 2300 360/08 RMK AO2
14837KMSN MSN20010711131511207/11/01 13:15:31  5-MIN KMSN 111915Z 31008KT 280V350 10SM FEW065 26/09 A3002 770 34 2300 310/08 280V350 RMK AO2
14837KMSN MSN20010711132010907/11/01 13:20:31  5-MIN KMSN 111920Z 32008KT 290V350 10SM CLR 26/09 A3002 780 34 2200 310/08 290V350 RMK AO2
14837KMSN MSN20010711132510907/11/01 13:25:31  5-MIN KMSN 111925Z 35008KT 320V020 10SM CLR 26/09 A3001 780 33 2300 350/08 320V020 RMK AO2
14837KMSN MSN20010711133011507/11/01 13:30:31  5-MIN KMSN 111930Z 34011G17KT 280V060 10SM CLR 27/09 A3001 780 33 2300 340/11G17 280V060 RMK AO2
14837KMSN MSN20010711133509907/11/01 13:35:31  5-MIN KMSN 111935Z 36009G17KT 10SM CLR 26/09 A3001 780 34 2300 360/09G17 RMK AO2
14837KMSN MSN20010711134009307/11/01 13:40:31  5-MIN KMSN 111940Z 02008KT 10SM CLR 27/09 A3001 780 33 2300 010/08 RMK AO2
14837KMSN MSN20010711134509307/11/01 13:45:31  5-MIN KMSN 111945Z 36011KT 10SM CLR 26/09 A3001 780 33 2300 360/11 RMK AO2
14837KMSN MSN20010711135011307/11/01 13:50:31  5-MIN KMSN 111950Z 33009KT 10SM FEW065 26/09 A3001 780 33 2300 330/09 RMK AO2 SLP161 T02610089
14837KMSN MSN20010711135509307/11/01 13:55:31  5-MIN KMSN 111955Z 32008KT 10SM CLR 26/09 A3001 780 34 2300 320/08 RMK AO2
14837KMSN MSN20010711140009607/11/01 14:00:31  5-MIN KMSN 112000Z VRB06KT 10SM FEW065 26/09 A3001 780 35 2200 VRB/06 RMK AO2
14837KMSN MSN20010711140509607/11/01 14:05:31  5-MIN KMSN 112005Z 34009KT 10SM FEW065 26/09 A3001 790 34 2300 340/09 RMK AO2
14837KMSN MSN20010711141009607/11/01 14:10:31  5-MIN KMSN 112010Z 02008KT 10SM FEW065 27/09 A3000 790 33 2400 010/08 RMK AO2
14837KMSN MSN20010711141509607/11/01 14:15:31  5-MIN KMSN 112015Z 31006KT 10SM FEW065 26/09 A3000 790 34 2300 310/06 RMK AO2
14837KMSN MSN20010711142009607/11/01 14:20:31  5-MIN KMSN 112020Z VRB04KT 10SM FEW065 26/09 A3000 790 34 2200 VRB/04 RMK AO2
14837KMSN MSN20010711142509607/11/01 14:25:31  5-MIN KMSN 112025Z 01008KT 10SM FEW065 26/09 A3000 790 34 2300 010/08 RMK AO2
14837KMSN MSN20010711143009307/11/01 14:30:31  5-MIN KMSN 112030Z 34008KT 10SM CLR 27/09 A3000 790 32 2400 330/08 RMK AO2
14837KMSN MSN20010711143509307/11/01 14:35:31  5-MIN KMSN 112035Z 33008KT 10SM CLR 26/09 A3000 790 34 2300 330/08 RMK AO2
14837KMSN MSN20010711144009607/11/01 14:40:31  5-MIN KMSN 112040Z 34007KT 10SM FEW065 27/09 A3000 790 32 2400 340/07 RMK AO2
14837KMSN MSN20010711144509607/11/01 14:45:31  5-MIN KMSN 112045Z 31005KT 10SM FEW065 26/09 A2999 800 33 2300 310/05 RMK AO2
14837KMSN MSN20010711145011907/11/01 14:50:31  5-MIN KMSN 112050Z VRB06KT 10SM FEW065 26/09 A2999 800 33 2300 VRB/06 RMK AO2 SLP154 T02610089 58004
14837KMSN MSN20010711190009307/11/01 19:00:31  5-MIN KMSN 120100Z 00000KT 10SM CLR 21/12 A3000 790 58 1700 000/00 RMK AO2
14837KMSN MSN20010711190509307/11/01 19:05:31  5-MIN KMSN 120105Z 00000KT 10SM CLR 21/12 A3000 790 58 1700 000/00 RMK AO2
14837KMSN MSN20010711191009307/11/01 19:10:31  5-MIN KMSN 120110Z 00000KT 10SM CLR 21/12 A3000 790 56 1700 000/00 RMK AO2
14837KMSN MSN20010711191509307/11/01 19:15:31  5-MIN KMSN 120115Z 00000KT 10SM CLR 20/12 A3000 790 60 1600 000/00 RMK AO2
14837KMSN MSN20010711192009307/11/01 19:20:31  5-MIN KMSN 120120Z 00000KT 10SM CLR 20/12 A3000 790 58 1600 000/00 RMK AO2
14837KMSN MSN20010711192509307/11/01 19:25:31  5-MIN KMSN 120125Z 00000KT 10SM CLR 19/12 A3000 790 60 1500 000/00 RMK AO2
14837KMSN MSN20010711193009307/11/01 19:30:31  5-MIN KMSN 120130Z 00000KT 10SM CLR 19/12 A3000 790 60 1500 000/00 RMK AO2
14837KMSN MSN20010711193509307/11/01 19:35:31  5-MIN KMSN 120135Z 00000KT 10SM CLR 19/11 A3000 790 58 1500 000/00 RMK AO2
14837KMSN MSN20010711194009307/11/01 19:40:31  5-MIN KMSN 120140Z 00000KT 10SM CLR 19/12 A3000 790 62 1500 000/00 RMK AO2
14837KMSN MSN20010711194509307/11/01 19:45:31  5-MIN KMSN 120145Z 00000KT 10SM CLR 18/12 A3001 790 67 1400 000/00 RMK AO2
14837KMSN MSN20010711195011007/11/01 19:50:31  5-MIN KMSN 120150Z 00000KT 10SM CLR 18/12 A3001 780 67 1400 000/00 RMK AO2 SLP158 T01830122
14837KMSN MSN20010711195509307/11/01 19:55:31  5-MIN KMSN 120155Z 00000KT 10SM CLR 18/12 A3001 780 67 1400 000/00 RMK AO2
14837KMSN MSN20010711200009307/11/01 20:00:31  5-MIN KMSN 120200Z 00000KT 10SM CLR 18/12 A3001 780 67 1400 000/00 RMK AO2
14837KMSN MSN20010711200509307/11/01 20:05:31  5-MIN KMSN 120205Z 00000KT 10SM CLR 18/12 A3002 780 67 1400 000/00 RMK AO2
14837KMSN MSN20010711201009307/11/01 20:10:31  5-MIN KMSN 120210Z 36003KT 10SM CLR 19/13 A3002 770 67 1400 360/03 RMK AO2
14837KMSN MSN20010711201509307/11/01 20:15:31  5-MIN KMSN 120215Z 34003KT 10SM CLR 18/13 A3002 770 72 1400 340/03 RMK AO2
14837KMSN MSN20010711202009307/11/01 20:20:31  5-MIN KMSN 120220Z 00000KT 10SM CLR 18/12 A3002 770 67 1400 000/00 RMK AO2
14837KMSN MSN20010711202509307/11/01 20:25:31  5-MIN KMSN 120225Z 00000KT 10SM CLR 18/12 A3002 770 67 1400 000/00 RMK AO2
14837KMSN MSN20010711203009307/11/01 20:30:31  5-MIN KMSN 120230Z 00000KT 10SM CLR 18/12 A3003 770 69 1300 000/00 RMK AO2
14837KMSN MSN20010711203509307/11/01 20:35:31  5-MIN KMSN 120235Z 00000KT 10SM CLR 18/12 A3003 770 69 1300 000/00 RMK AO2
14837KMSN MSN20010711204009307/11/01 20:40:31  5-MIN KMSN 120240Z 00000KT 10SM CLR 18/12 A3003 770 69 1300 000/00 RMK AO2
14837KMSN MSN20010711204509307/11/01 20:45:31  5-MIN KMSN 120245Z 00000KT 10SM CLR 18/13 A3003 760 70 1400 000/00 RMK AO2
14837KMSN MSN20010711205011607/11/01 20:50:31  5-MIN KMSN 120250Z 00000KT 10SM CLR 18/12 A3003 760 69 1300 000/00 RMK AO2 SLP167 T01780122 55000
14837KMSN MSN20010711205509307/11/01 20:55:31  5-MIN KMSN 120255Z 00000KT 10SM CLR 18/12 A3003 760 67 1400 000/00 RMK AO2
14837KMSN MSN20010711210009307/11/01 21:00:31  5-MIN KMSN 120300Z 00000KT 10SM CLR 18/13 A3004 760 72 1300 000/00 RMK AO2
14837KMSN MSN20010711210509307/11/01 21:05:31  5-MIN KMSN 120305Z 00000KT 10SM CLR 17/13 A3004 760 75 1200 000/00 RMK AO2
14837KMSN MSN20010711211009307/11/01 21:10:31  5-MIN KMSN 120310Z 00000KT 10SM CLR 18/13 A3004 750 72 1300 000/00 RMK AO2
14837KMSN MSN20010711211509307/11/01 21:15:31  5-MIN KMSN 120315Z 00000KT 10SM CLR 18/13 A3004 750 72 1300 000/00 RMK AO2
14837KMSN MSN20010711212009307/11/01 21:20:31  5-MIN KMSN 120320Z 00000KT 10SM CLR 18/13 A3004 750 72 1300 000/00 RMK AO2
14837KMSN MSN20010711212509307/11/01 21:25:31  5-MIN KMSN 120325Z 00000KT 10SM CLR 18/13 A3004 750 72 1300 000/00 RMK AO2
14837KMSN MSN20010711213009307/11/01 21:30:31  5-MIN KMSN 120330Z 00000KT 10SM CLR 17/13 A3004 750 75 1200 000/00 RMK AO2
14837KMSN MSN20010711213509307/11/01 21:35:31  5-MIN KMSN 120335Z 33003KT 10SM CLR 17/13 A3004 750 75 1200 330/03 RMK AO2
14837KMSN MSN20010711214009307/11/01 21:40:31  5-MIN KMSN 120340Z 34003KT 10SM CLR 17/13 A3004 750 75 1200 340/03 RMK AO2
14837KMSN MSN20010711214509307/11/01 21:45:31  5-MIN KMSN 120345Z 35003KT 10SM CLR 17/13 A3004 750 75 1200 340/03 RMK AO2
14837KMSN MSN20010711215011007/11/01 21:50:31  5-MIN KMSN 120350Z 00000KT 10SM CLR 17/13 A3004 750 75 1200 000/00 RMK AO2 SLP169 T01720128
14837KMSN MSN20010711215509307/11/01 21:55:31  5-MIN KMSN 120355Z 34003KT 10SM CLR 17/13 A3004 750 78 1200 340/03 RMK AO2
14837KMSN MSN20010711220009307/11/01 22:00:31  5-MIN KMSN 120400Z 00000KT 10SM CLR 17/13 A3004 750 75 1200 000/00 RMK AO2
14837KMSN MSN20010711220509307/11/01 22:05:31  5-MIN KMSN 120405Z 00000KT 10SM CLR 18/13 A3004 750 72 1300 000/00 RMK AO2
14837KMSN MSN20010711221009307/11/01 22:10:31  5-MIN KMSN 120410Z 00000KT 10SM CLR 18/13 A3004 750 70 1400 000/00 RMK AO2
14837KMSN MSN20010711221509307/11/01 22:15:31  5-MIN KMSN 120415Z 00000KT 10SM CLR 18/13 A3005 750 72 1300 000/00 RMK AO2
14837KMSN MSN20010711222009307/11/01 22:20:31  5-MIN KMSN 120420Z 00000KT 10SM CLR 18/13 A3005 750 72 1300 000/00 RMK AO2
14837KMSN MSN20010711222509307/11/01 22:25:31  5-MIN KMSN 120425Z 00000KT 10SM CLR 18/13 A3005 750 72 1300 000/00 RMK AO2
14837KMSN MSN20010711223009307/11/01 22:30:31  5-MIN KMSN 120430Z 00000KT 10SM CLR 18/13 A3004 750 75 1300 000/00 RMK AO2
14837KMSN MSN20010711223509307/11/01 22:35:31  5-MIN KMSN 120435Z 00000KT 10SM CLR 18/13 A3004 750 72 1400 000/00 RMK AO2
14837KMSN MSN20010711224009307/11/01 22:40:31  5-MIN KMSN 120440Z 00000KT 10SM CLR 17/13 A3005 750 78 1200 000/00 RMK AO2
14837KMSN MSN20010711224509307/11/01 22:45:31  5-MIN KMSN 120445Z 00000KT 10SM CLR 17/13 A3005 750 75 1200 000/00 RMK AO2
14837KMSN MSN20010711225011007/11/01 22:50:31  5-MIN KMSN 120450Z 00000KT 10SM CLR 17/13 A3004 750 75 1200 000/00 RMK AO2 SLP171 T01720128
14837KMSN MSN20010711225509307/11/01 22:55:31  5-MIN KMSN 120455Z 00000KT 10SM CLR 18/13 A3005 750 72 1300 000/00 RMK AO2
14837KMSN MSN20010711230009307/11/01 23:00:31  5-MIN KMSN 120500Z 00000KT 10SM CLR 17/13 A3005 750 77 1200 000/00 RMK AO2
14837KMSN MSN20010711230509307/11/01 23:05:31  5-MIN KMSN 120505Z 00000KT 10SM CLR 16/13 A3005 750 80 1100 000/00 RMK AO2
14837KMSN MSN20010711231009307/11/01 23:10:31  5-MIN KMSN 120510Z 00000KT 10SM CLR 16/13 A3005 750 80 1100 000/00 RMK AO2
14837KMSN MSN20010711231509307/11/01 23:15:31  5-MIN KMSN 120515Z 00000KT 10SM CLR 17/13 A3005 750 77 1200 000/00 RMK AO2
14837KMSN MSN20010711232009307/11/01 23:20:31  5-MIN KMSN 120520Z 00000KT 10SM CLR 17/13 A3005 750 80 1200 000/00 RMK AO2
14837KMSN MSN20010711232509307/11/01 23:25:31  5-MIN KMSN 120525Z 00000KT 10SM CLR 17/13 A3005 750 80 1200 000/00 RMK AO2
14837KMSN MSN20010711233009307/11/01 23:30:31  5-MIN KMSN 120530Z 00000KT 10SM CLR 17/13 A3005 750 80 1200 000/00 RMK AO2
14837KMSN MSN20010711233509307/11/01 23:35:31  5-MIN KMSN 120535Z 00000KT 10SM CLR 16/13 A3005 750 80 1100 000/00 RMK AO2
14837KMSN MSN20010711234009307/11/01 23:40:31  5-MIN KMSN 120540Z 00000KT 10SM CLR 16/13 A3005 750 80 1100 000/00 RMK AO2
14837KMSN MSN20010711234509307/11/01 23:45:31  5-MIN KMSN 120545Z 00000KT 10SM CLR 16/13 A3005 750 80 1100 000/00 RMK AO2
14837KMSN MSN20010711235013807/11/01 23:50:31  5-MIN KMSN 120550Z 00000KT 10SM CLR 16/13 A3005 750 80 1100 000/00 RMK AO2 SLP171 T01610128 10244 20156 402670100 53014
14837KMSN MSN20010711235509307/11/01 23:55:31  5-MIN KMSN 120555Z 00000KT 10SM CLR 16/13 A3005 750 83 1000 000/00 RMK AO2
14837KMSN MSN20010712000009307/12/01 00:00:31  5-MIN KMSN 120600Z 00000KT 10SM CLR 16/12 A3005 750 80 1000 000/00 RMK AO2
14837KMSN MSN20010712000509307/12/01 00:05:31  5-MIN KMSN 120605Z 00000KT 10SM CLR 15/12 A3005 750 83 1000 000/00 RMK AO2
14837KMSN MSN20010712001009307/12/01 00:10:31  5-MIN KMSN 120610Z 00000KT 10SM CLR 16/13 A3005 750 80 1100 000/00 RMK AO2
14837KMSN MSN20010712001509307/12/01 00:15:31  5-MIN KMSN 120615Z 00000KT 10SM CLR 16/13 A3005 750 83 1000 000/00 RMK AO2
14837KMSN MSN20010712002009307/12/01 00:20:31  5-MIN KMSN 120620Z 00000KT 10SM CLR 16/13 A3005 750 83 1000 000/00 RMK AO2
14837KMSN MSN20010712002509307/12/01 00:25:31  5-MIN KMSN 120625Z 32003KT 10SM CLR 15/13 A3005 740 86 1000 310/03 RMK AO2
14837KMSN MSN20010712003009307/12/01 00:30:31  5-MIN KMSN 120630Z 00000KT 10SM CLR 16/13 A3005 740 83 1000 000/00 RMK AO2
14837KMSN MSN20010712003509307/12/01 00:35:31  5-MIN KMSN 120635Z 00000KT 10SM CLR 15/13 A3005 750 86 1000 000/00 RMK AO2
14837KMSN MSN20010712004009307/12/01 00:40:31  5-MIN KMSN 120640Z 00000KT 10SM CLR 16/13 A3005 750 83 1000 000/00 RMK AO2
14837KMSN MSN20010712004509307/12/01 00:45:31  5-MIN KMSN 120645Z 00000KT 10SM CLR 16/13 A3004 750 83 1000 000/00 RMK AO2
14837KMSN MSN20010712005011007/12/01 00:50:31  5-MIN KMSN 120650Z 13007KT 10SM CLR 16/12 A3005 750 80 1000 130/07 RMK AO2 SLP172 T01560122
14837KMSN MSN20010712005509607/12/01 00:55:31  5-MIN KMSN 120655Z 00000KT 10SM FEW065 16/12 A3005 750 80 1000 000/00 RMK AO2
14837KMSN MSN20010712010009607/12/01 01:00:31  5-MIN KMSN 120700Z 00000KT 10SM FEW065 16/12 A3005 750 80 1000 000/00 RMK AO2
14837KMSN MSN20010712010509307/12/01 01:05:31  5-MIN KMSN 120705Z 00000KT 10SM CLR 16/12 A3004 750 77 1100 000/00 RMK AO2
14837KMSN MSN20010712011009307/12/01 01:10:31  5-MIN KMSN 120710Z 00000KT 10SM CLR 16/12 A3004 750 77 1100 000/00 RMK AO2
14837KMSN MSN20010712011509307/12/01 01:15:31  5-MIN KMSN 120715Z 00000KT 10SM CLR 16/12 A3004 750 77 1100 000/00 RMK AO2
14837KMSN MSN20010712012009607/12/01 01:20:31  5-MIN KMSN 120720Z 00000KT 10SM FEW065 16/13 A3005 750 83 1000 000/00 RMK AO2
14837KMSN MSN20010712012509507/12/01 01:25:31  5-MIN KMSN 120725Z 00000KT 10SM SCT065 14/12 A3005 750 86 900 000/00 RMK AO2
14837KMSN MSN20010712013009607/12/01 01:30:31  5-MIN KMSN 120730Z 00000KT 10SM SCT065 15/12 A3005 750 83 1000 000/00 RMK AO2
14837KMSN MSN20010712013509607/12/01 01:35:31  5-MIN KMSN 120735Z 00000KT 10SM FEW065 15/12 A3005 750 83 1000 000/00 RMK AO2
14837KMSN MSN20010712014009607/12/01 01:40:31  5-MIN KMSN 120740Z 00000KT 10SM FEW065 15/12 A3004 750 83 1000 000/00 RMK AO2
14837KMSN MSN20010712014509607/12/01 01:45:31  5-MIN KMSN 120745Z 00000KT 10SM FEW065 16/12 A3004 750 80 1000 000/00 RMK AO2
14837KMSN MSN20010712015011307/12/01 01:50:31  5-MIN KMSN 120750Z 00000KT 10SM FEW065 15/13 A3004 750 86 1000 000/00 RMK AO2 SLP170 T01500128
14837KMSN MSN20010712015509207/12/01 01:55:31  5-MIN KMSN 120755Z 00000KT 10SM CLR 14/13 A3004 750 90 900 000/00 RMK AO2
14837KMSN MSN20010712020009207/12/01 02:00:31  5-MIN KMSN 120800Z 00000KT 10SM CLR 14/12 A3004 760 86 900 000/00 RMK AO2
14837KMSN MSN20010712020509207/12/01 02:05:31  5-MIN KMSN 120805Z 00000KT 10SM CLR 14/12 A3003 760 86 900 000/00 RMK AO2
14837KMSN MSN20010712021009307/12/01 02:10:31  5-MIN KMSN 120810Z 00000KT 10SM CLR 15/12 A3003 760 83 1000 000/00 RMK AO2
14837KMSN MSN20010712021509307/12/01 02:15:31  5-MIN KMSN 120815Z 00000KT 10SM CLR 15/12 A3003 760 83 1000 000/00 RMK AO2
14837KMSN MSN20010712022009207/12/01 02:20:31  5-MIN KMSN 120820Z 00000KT 10SM CLR 14/12 A3003 760 90 800 000/00 RMK AO2
14837KMSN MSN20010712022509207/12/01 02:25:31  5-MIN KMSN 120825Z 00000KT 10SM CLR 14/12 A3003 760 90 800 000/00 RMK AO2
14837KMSN MSN20010712023009207/12/01 02:30:31  5-MIN KMSN 120830Z 00000KT 10SM CLR 13/12 A3003 760 93 800 000/00 RMK AO2
14837KMSN MSN20010712023509207/12/01 02:35:31  5-MIN KMSN 120835Z 00000KT 10SM CLR 13/12 A3004 760 93 800 000/00 RMK AO2
14837KMSN MSN20010712024009207/12/01 02:40:31  5-MIN KMSN 120840Z 00000KT 10SM CLR 13/12 A3004 760 89 800 000/00 RMK AO2
14837KMSN MSN20010712024509207/12/01 02:45:31  5-MIN KMSN 120845Z 00000KT 10SM CLR 13/12 A3003 760 93 800 000/00 RMK AO2
14837KMSN MSN20010712025011507/12/01 02:50:31  5-MIN KMSN 120850Z 00000KT 10SM CLR 14/12 A3004 760 90 800 000/00 RMK AO2 SLP169 T01390122 51004
14837KMSN MSN20010712025509207/12/01 02:55:31  5-MIN KMSN 120855Z 00000KT 10SM CLR 13/12 A3004 760 93 800 000/00 RMK AO2
14837KMSN MSN20010712030009207/12/01 03:00:31  5-MIN KMSN 120900Z 00000KT 10SM CLR 13/12 A3004 760 93 700 000/00 RMK AO2
14837KMSN MSN20010712030509207/12/01 03:05:31  5-MIN KMSN 120905Z 00000KT 10SM CLR 13/12 A3004 760 96 700 000/00 RMK AO2
14837KMSN MSN20010712031009207/12/01 03:10:31  5-MIN KMSN 120910Z 00000KT 10SM CLR 13/12 A3003 760 93 800 000/00 RMK AO2
14837KMSN MSN20010712031509207/12/01 03:15:31  5-MIN KMSN 120915Z 00000KT 10SM CLR 13/12 A3004 760 93 700 000/00 RMK AO2
14837KMSN MSN20010712032009207/12/01 03:20:31  5-MIN KMSN 120920Z 00000KT 10SM CLR 13/12 A3004 750 96 700 000/00 RMK AO2
14837KMSN MSN20010712032509207/12/01 03:25:31  5-MIN KMSN 120925Z 00000KT 10SM CLR 13/12 A3004 760 93 800 000/00 RMK AO2
14837KMSN MSN20010712033009207/12/01 03:30:31  5-MIN KMSN 120930Z 00000KT 10SM CLR 13/12 A3004 760 93 800 000/00 RMK AO2
14837KMSN MSN20010712033509207/12/01 03:35:31  5-MIN KMSN 120935Z 00000KT 10SM CLR 13/12 A3004 760 93 800 000/00 RMK AO2
14837KMSN MSN20010712034009207/12/01 03:40:31  5-MIN KMSN 120940Z 00000KT 10SM CLR 13/12 A3004 760 93 800 000/00 RMK AO2
14837KMSN MSN20010712034509207/12/01 03:45:31  5-MIN KMSN 120945Z 00000KT 10SM CLR 13/12 A3004 760 93 800 000/00 RMK AO2
14837KMSN MSN20010712035010907/12/01 03:50:31  5-MIN KMSN 120950Z 00000KT 10SM CLR 13/12 A3004 750 93 800 000/00 RMK AO2 SLP169 T01330122
14837KMSN MSN20010712035509207/12/01 03:55:31  5-MIN KMSN 120955Z 00000KT 10SM CLR 14/12 A3004 750 90 800 000/00 RMK AO2
14837KMSN MSN20010712040009207/12/01 04:00:31  5-MIN KMSN 121000Z 00000KT 10SM CLR 13/12 A3004 750 93 800 000/00 RMK AO2
14837KMSN MSN20010712040509207/12/01 04:05:31  5-MIN KMSN 121005Z 00000KT 10SM CLR 13/12 A3004 750 93 800 000/00 RMK AO2
14837KMSN MSN20010712041009207/12/01 04:10:31  5-MIN KMSN 121010Z 00000KT 10SM CLR 14/12 A3004 750 90 800 000/00 RMK AO2
14837KMSN MSN20010712041509207/12/01 04:15:31  5-MIN KMSN 121015Z 00000KT 10SM CLR 14/12 A3004 750 90 800 000/00 RMK AO2
14837KMSN MSN20010712042009207/12/01 04:20:31  5-MIN KMSN 121020Z 00000KT 10SM CLR 13/12 A3004 750 93 800 000/00 RMK AO2
14837KMSN MSN20010712042509207/12/01 04:25:31  5-MIN KMSN 121025Z 00000KT 10SM CLR 14/12 A3004 750 90 800 000/00 RMK AO2
14837KMSN MSN20010712043009207/12/01 04:30:31  5-MIN KMSN 121030Z 35003KT 10SM CLR 14/13 A3004 750 93 800 340/03 RMK AO2
14837KMSN MSN20010712043509207/12/01 04:35:31  5-MIN KMSN 121035Z 35003KT 10SM CLR 14/13 A3005 750 93 800 350/03 RMK AO2
14837KMSN MSN20010712044009207/12/01 04:40:31  5-MIN KMSN 121040Z 00000KT 10SM CLR 14/12 A3005 750 86 900 000/00 RMK AO2
14837KMSN MSN20010712044509207/12/01 04:45:31  5-MIN KMSN 121045Z 00000KT 10SM CLR 14/13 A3005 740 90 900 000/00 RMK AO2
14837KMSN MSN20010712045010907/12/01 04:50:31  5-MIN KMSN 121050Z 00000KT 10SM CLR 14/12 A3005 740 86 900 000/00 RMK AO2 SLP174 T01440122
14837KMSN MSN20010712045509207/12/01 04:55:31  5-MIN KMSN 121055Z 00000KT 10SM CLR 14/13 A3005 740 90 900 000/00 RMK AO2
14837KMSN MSN20010712050009207/12/01 05:00:31  5-MIN KMSN 121100Z 00000KT 10SM CLR 14/13 A3006 740 93 800 000/00 RMK AO2
14837KMSN MSN20010712050509207/12/01 05:05:31  5-MIN KMSN 121105Z 00000KT 10SM CLR 14/13 A3006 730 90 900 000/00 RMK AO2
14837KMSN MSN20010712051009207/12/01 05:10:31  5-MIN KMSN 121110Z 00000KT 10SM CLR 14/13 A3007 730 90 900 000/00 RMK AO2
14837KMSN MSN20010712051509207/12/01 05:15:31  5-MIN KMSN 121115Z 00000KT 10SM CLR 14/13 A3007 730 93 800 000/00 RMK AO2
14837KMSN MSN20010712052009207/12/01 05:20:31  5-MIN KMSN 121120Z 00000KT 10SM CLR 14/13 A3007 730 93 800 000/00 RMK AO2
14837KMSN MSN20010712052509207/12/01 05:25:31  5-MIN KMSN 121125Z 00000KT 10SM CLR 14/13 A3007 720 90 900 000/00 RMK AO2
14837KMSN MSN20010712053009207/12/01 05:30:31  5-MIN KMSN 121130Z 00000KT 10SM CLR 14/13 A3007 720 90 900 000/00 RMK AO2
14837KMSN MSN20010712053509207/12/01 05:35:31  5-MIN KMSN 121135Z 00000KT 10SM CLR 15/13 A3008 720 90 900 000/00 RMK AO2
14837KMSN MSN20010712054009207/12/01 05:40:31  5-MIN KMSN 121140Z 00000KT 10SM CLR 15/13 A3008 720 90 900 000/00 RMK AO2
14837KMSN MSN20010712054509207/12/01 05:45:31  5-MIN KMSN 121145Z 00000KT 10SM CLR 15/13 A3008 710 90 900 000/00 RMK AO2
14837KMSN MSN20010712055012807/12/01 05:50:31  5-MIN KMSN 121150Z 00000KT 10SM CLR 16/13 A3008 710 83 1000 000/00 RMK AO2 SLP184 T01610133 10161 20128 58003
14837KMSN MSN20010712055509307/12/01 05:55:31  5-MIN KMSN 121155Z 00000KT 10SM CLR 16/13 A3009 710 83 1000 000/00 RMK AO2
14837KMSN MSN20010712060009307/12/01 06:00:31  5-MIN KMSN 121200Z 00000KT 10SM CLR 17/13 A3009 710 80 1100 000/00 RMK AO2
14837KMSN MSN20010712060509307/12/01 06:05:31  5-MIN KMSN 121205Z 00000KT 10SM CLR 17/13 A3009 710 78 1200 000/00 RMK AO2
14837KMSN MSN20010712061009307/12/01 06:10:31  5-MIN KMSN 121210Z 00000KT 10SM CLR 17/13 A3009 710 78 1200 000/00 RMK AO2
14837KMSN MSN20010712061509307/12/01 06:15:31  5-MIN KMSN 121215Z 00000KT 10SM CLR 18/13 A3009 710 75 1200 000/00 RMK AO2
14837KMSN MSN20010712062009307/12/01 06:20:31  5-MIN KMSN 121220Z 00000KT 10SM CLR 18/13 A3009 710 72 1300 000/00 RMK AO2
14837KMSN MSN20010712062509307/12/01 06:25:31  5-MIN KMSN 121225Z 00000KT 10SM CLR 18/14 A3009 710 75 1300 000/00 RMK AO2
14837KMSN MSN20010712063009307/12/01 06:30:31  5-MIN KMSN 121230Z 03004KT 10SM CLR 18/13 A3009 710 72 1300 030/04 RMK AO2
14837KMSN MSN20010712063509307/12/01 06:35:31  5-MIN KMSN 121235Z 00000KT 10SM CLR 18/14 A3009 710 75 1300 000/00 RMK AO2
14837KMSN MSN20010712064009307/12/01 06:40:31  5-MIN KMSN 121240Z 01003KT 10SM CLR 19/13 A3009 700 70 1400 010/03 RMK AO2
14837KMSN MSN20010712064509307/12/01 06:45:31  5-MIN KMSN 121245Z 00000KT 10SM CLR 19/14 A3009 700 70 1400 000/00 RMK AO2
14837KMSN MSN20010712065011007/12/01 06:50:31  5-MIN KMSN 121250Z 00000KT 10SM CLR 19/13 A3010 700 67 1400 000/00 RMK AO2 SLP187 T01940133
14837KMSN MSN20010712065509307/12/01 06:55:31  5-MIN KMSN 121255Z 00000KT 10SM CLR 20/14 A3010 700 67 1500 000/00 RMK AO2
14837KMSN MSN20010712070009307/12/01 07:00:31  5-MIN KMSN 121300Z 00000KT 10SM CLR 20/13 A3009 710 65 1500 000/00 RMK AO2
14837KMSN MSN20010712070509307/12/01 07:05:31  5-MIN KMSN 121305Z 00000KT 10SM CLR 21/13 A3009 710 63 1600 000/00 RMK AO2
14837KMSN MSN20010712071009307/12/01 07:10:31  5-MIN KMSN 121310Z VRB03KT 10SM CLR 21/14 A3009 710 63 1600 VRB/03 RMK AO2
14837KMSN MSN20010712071509307/12/01 07:15:31  5-MIN KMSN 121315Z 33003KT 10SM CLR 21/14 A3009 710 63 1600 330/03 RMK AO2
14837KMSN MSN20010712072009307/12/01 07:20:31  5-MIN KMSN 121320Z 34003KT 10SM CLR 21/14 A3009 710 63 1600 340/03 RMK AO2
14837KMSN MSN20010712072509307/12/01 07:25:31  5-MIN KMSN 121325Z 00000KT 10SM CLR 21/14 A3009 710 63 1600 000/00 RMK AO2
14837KMSN MSN20010712073009307/12/01 07:30:31  5-MIN KMSN 121330Z 34003KT 10SM CLR 22/14 A3009 710 61 1700 340/03 RMK AO2
14837KMSN MSN20010712073509307/12/01 07:35:31  5-MIN KMSN 121335Z 36003KT 10SM CLR 22/14 A3009 710 61 1700 360/03 RMK AO2
14837KMSN MSN20010712074009307/12/01 07:40:31  5-MIN KMSN 121340Z 00000KT 10SM CLR 22/14 A3009 710 61 1700 000/00 RMK AO2
14837KMSN MSN20010712074509307/12/01 07:45:31  5-MIN KMSN 121345Z 32003KT 10SM CLR 22/14 A3009 700 59 1700 320/03 RMK AO2
14837KMSN MSN20010712075011007/12/01 07:50:31  5-MIN KMSN 121350Z VRB03KT 10SM CLR 22/14 A3009 700 59 1700 VRB/03 RMK AO2 SLP188 T02220139
14837KMSN MSN20010712075509307/12/01 07:55:31  5-MIN KMSN 121355Z VRB03KT 10SM CLR 22/13 A3010 700 56 1700 VRB/03 RMK AO2
14837KMSN MSN20010712080009307/12/01 08:00:31  5-MIN KMSN 121400Z 34003KT 10SM CLR 23/14 A3009 700 57 1800 340/03 RMK AO2
14837KMSN MSN20010712080509307/12/01 08:05:31  5-MIN KMSN 121405Z 34004KT 10SM CLR 23/14 A3009 710 57 1800 340/04 RMK AO2
14837KMSN MSN20010712081009307/12/01 08:10:31  5-MIN KMSN 121410Z 35003KT 10SM CLR 23/14 A3009 700 57 1800 350/03 RMK AO2
14837KMSN MSN20010712081509307/12/01 08:15:31  5-MIN KMSN 121415Z 00000KT 10SM CLR 23/13 A3009 710 55 1800 000/00 RMK AO2
14837KMSN MSN20010712082009307/12/01 08:20:31  5-MIN KMSN 121420Z 33003KT 10SM CLR 23/13 A3009 700 51 1900 330/03 RMK AO2
14837KMSN MSN20010712082509307/12/01 08:25:31  5-MIN KMSN 121425Z 00000KT 10SM CLR 23/12 A3009 710 49 1900 000/00 RMK AO2
14837KMSN MSN20010712083009307/12/01 08:30:31  5-MIN KMSN 121430Z 00000KT 10SM CLR 23/13 A3009 710 51 1900 000/00 RMK AO2
14837KMSN MSN20010712083509307/12/01 08:35:31  5-MIN KMSN 121435Z 00000KT 10SM CLR 23/13 A3009 710 53 1900 000/00 RMK AO2
14837KMSN MSN20010712084009307/12/01 08:40:31  5-MIN KMSN 121440Z 00000KT 10SM CLR 23/12 A3009 710 49 1900 000/00 RMK AO2
14837KMSN MSN20010712084509307/12/01 08:45:31  5-MIN KMSN 121445Z VRB03KT 10SM CLR 24/12 A3009 710 46 2000 VRB/03 RMK AO2
14837KMSN MSN20010712085011607/12/01 08:50:31  5-MIN KMSN 121450Z 03004KT 10SM CLR 24/12 A3009 710 46 2000 030/04 RMK AO2 SLP186 T02440122 53016
14837KMSN MSN20010712085509307/12/01 08:55:31  5-MIN KMSN 121455Z 00000KT 10SM CLR 24/12 A3009 710 47 1900 000/00 RMK AO2
14837KMSN MSN20010712090009307/12/01 09:00:31  5-MIN KMSN 121500Z 32003KT 10SM CLR 24/12 A3009 710 46 2000 320/03 RMK AO2
14837KMSN MSN20010712090509307/12/01 09:05:31  5-MIN KMSN 121505Z 00000KT 10SM CLR 24/12 A3009 710 44 2000 000/00 RMK AO2
14837KMSN MSN20010712091009307/12/01 09:10:31  5-MIN KMSN 121510Z 00000KT 10SM CLR 24/12 A3009 710 46 1900 000/00 RMK AO2
14837KMSN MSN20010712091509307/12/01 09:15:31  5-MIN KMSN 121515Z 35005KT 10SM CLR 25/12 A3009 710 44 2100 350/05 RMK AO2
14837KMSN MSN20010712092009307/12/01 09:20:31  5-MIN KMSN 121520Z VRB03KT 10SM CLR 25/12 A3009 710 43 2100 VRB/03 RMK AO2
14837KMSN MSN20010712092509607/12/01 09:25:31  5-MIN KMSN 121525Z VRB03KT 10SM FEW050 25/12 A3009 710 43 2100 VRB/03 RMK AO2
14837KMSN MSN20010712093009607/12/01 09:30:31  5-MIN KMSN 121530Z VRB03KT 10SM FEW050 24/12 A3009 700 44 2000 VRB/03 RMK AO2
14837KMSN MSN20010712093509607/12/01 09:35:31  5-MIN KMSN 121535Z 34004KT 10SM FEW050 25/12 A3009 710 44 2100 340/04 RMK AO2
14837KMSN MSN20010712094009607/12/01 09:40:31  5-MIN KMSN 121540Z VRB04KT 10SM FEW050 26/12 A3009 700 41 2100 VRB/04 RMK AO2
14837KMSN MSN20010712094509607/12/01 09:45:31  5-MIN KMSN 121545Z VRB05KT 10SM FEW050 25/11 A3009 710 41 2100 VRB/05 RMK AO2
14837KMSN MSN20010712095011307/12/01 09:50:31  5-MIN KMSN 121550Z 10005KT 10SM FEW055 25/11 A3009 710 41 2100 100/05 RMK AO2 SLP186 T02500111
14837KMSN MSN20010712095509607/12/01 09:55:31  5-MIN KMSN 121555Z 13006KT 10SM BKN055 26/11 A3009 710 38 2100 130/06 RMK AO2
14837KMSN MSN20010712100009607/12/01 10:00:31  5-MIN KMSN 121600Z VRB04KT 10SM SCT055 25/11 A3009 710 39 2100 VRB/04 RMK AO2
14837KMSN MSN20010712100509607/12/01 10:05:31  5-MIN KMSN 121605Z 03004KT 10SM SCT055 27/11 A3009 700 36 2200 030/04 RMK AO2
14837KMSN MSN20010712101009607/12/01 10:10:31  5-MIN KMSN 121610Z VRB04KT 10SM SCT055 26/11 A3010 700 37 2200 VRB/04 RMK AO2
14837KMSN MSN20010712101509607/12/01 10:15:31  5-MIN KMSN 121615Z VRB05KT 10SM SCT055 25/11 A3009 700 39 2100 VRB/05 RMK AO2
14837KMSN MSN20010712102009607/12/01 10:20:31  5-MIN KMSN 121620Z VRB05KT 10SM SCT055 26/11 A3009 710 38 2100 VRB/05 RMK AO2
14837KMSN MSN20010712102509607/12/01 10:25:31  5-MIN KMSN 121625Z VRB04KT 10SM SCT055 26/11 A3009 700 38 2100 VRB/04 RMK AO2
14837KMSN MSN20010712103009607/12/01 10:30:31  5-MIN KMSN 121630Z 00000KT 10SM SCT055 26/11 A3009 700 37 2200 000/00 RMK AO2
14837KMSN MSN20010712103509607/12/01 10:35:31  5-MIN KMSN 121635Z 08006KT 10SM SCT055 27/11 A3009 700 36 2200 080/06 RMK AO2
14837KMSN MSN20010712104009607/12/01 10:40:31  5-MIN KMSN 121640Z 04008KT 10SM SCT055 27/11 A3009 710 37 2300 040/08 RMK AO2
14837KMSN MSN20010712104509607/12/01 10:45:31  5-MIN KMSN 121645Z 08005KT 10SM SCT055 26/11 A3009 710 37 2200 080/05 RMK AO2
14837KMSN MSN20010712105011307/12/01 10:50:31  5-MIN KMSN 121650Z 04004KT 10SM SCT055 26/11 A3009 710 38 2200 040/04 RMK AO2 SLP186 T02610111
14837KMSN MSN20010712105509307/12/01 10:55:31  5-MIN KMSN 121655Z 00000KT 10SM CLR 25/11 A3009 710 39 2100 000/00 RMK AO2
14837KMSN MSN20010712110009307/12/01 11:00:31  5-MIN KMSN 121700Z 02005KT 10SM CLR 26/11 A3009 710 37 2200 020/05 RMK AO2
14837KMSN MSN20010712110509607/12/01 11:05:31  5-MIN KMSN 121705Z 00000KT 10SM FEW075 26/10 A3009 710 37 2100 000/00 RMK AO2
14837KMSN MSN20010712111010307/12/01 11:10:31  5-MIN KMSN 121710Z VRB04KT 10SM FEW060 SCT075 26/11 A3009 710 37 2200 VRB/04 RMK AO2
14837KMSN MSN20010712111509607/12/01 11:15:31  5-MIN KMSN 121715Z 06006KT 10SM SCT070 27/11 A3009 710 36 2300 060/06 RMK AO2
14837KMSN MSN20010712112009607/12/01 11:20:31  5-MIN KMSN 121720Z VRB03KT 10SM FEW070 27/11 A3009 710 36 2300 VRB/03 RMK AO2
14837KMSN MSN20010712112509607/12/01 11:25:31  5-MIN KMSN 121725Z 06005KT 10SM FEW070 27/11 A3009 710 36 2300 060/05 RMK AO2
14837KMSN MSN20010712113009607/12/01 11:30:31  5-MIN KMSN 121730Z 10005KT 10SM FEW070 27/11 A3009 710 34 2300 100/05 RMK AO2
14837KMSN MSN20010712113509607/12/01 11:35:31  5-MIN KMSN 121735Z 12005KT 10SM FEW060 27/10 A3009 710 34 2300 120/05 RMK AO2
14837KMSN MSN20010712114009607/12/01 11:40:31  5-MIN KMSN 121740Z 11005KT 10SM FEW065 26/09 A3009 710 34 2200 110/05 RMK AO2
14837KMSN MSN20010712114509607/12/01 11:45:31  5-MIN KMSN 121745Z 00000KT 10SM SCT065 27/09 A3009 710 32 2300 000/00 RMK AO2
14837KMSN MSN20010712115013107/12/01 11:50:31  5-MIN KMSN 121750Z VRB04KT 10SM SCT065 26/09 A3009 710 35 2100 VRB/04 RMK AO2 SLP185 T02560094 10272 20161 50001
14837KMSN MSN20010712115511207/12/01 11:55:31  5-MIN KMSN 121755Z 03007KT 010V070 10SM BKN065 25/10 A3009 710 38 2100 030/07 010V070 RMK AO2
14837KMSN MSN20010712120009607/12/01 12:00:31  5-MIN KMSN 121800Z 00000KT 10SM BKN065 25/10 A3009 710 38 2100 000/00 RMK AO2
14837KMSN MSN20010712120509607/12/01 12:05:31  5-MIN KMSN 121805Z 05004KT 10SM BKN065 26/10 A3009 710 36 2200 050/04 RMK AO2
14837KMSN MSN20010712121009607/12/01 12:10:31  5-MIN KMSN 121810Z 04006KT 10SM SCT065 27/10 A3009 710 34 2300 040/06 RMK AO2
14837KMSN MSN20010712121509607/12/01 12:15:31  5-MIN KMSN 121815Z VRB06KT 10SM SCT065 27/10 A3009 710 34 2300 VRB/06 RMK AO2
14837KMSN MSN20010712122009607/12/01 12:20:31  5-MIN KMSN 121820Z VRB04KT 10SM SCT065 27/10 A3008 710 33 2300 VRB/04 RMK AO2
14837KMSN MSN20010712122509607/12/01 12:25:31  5-MIN KMSN 121825Z 03007KT 10SM SCT065 27/11 A3008 710 36 2300 030/07 RMK AO2
14837KMSN MSN20010712123009607/12/01 12:30:31  5-MIN KMSN 121830Z 36005KT 10SM FEW070 27/11 A3008 710 36 2300 360/05 RMK AO2
14837KMSN MSN20010712123509607/12/01 12:35:31  5-MIN KMSN 121835Z VRB04KT 10SM FEW065 27/10 A3008 710 34 2300 VRB/04 RMK AO2
14837KMSN MSN20010712124009607/12/01 12:40:31  5-MIN KMSN 121840Z VRB06KT 10SM SCT065 27/11 A3008 720 34 2300 VRB/06 RMK AO2
14837KMSN MSN20010712124509607/12/01 12:45:31  5-MIN KMSN 121845Z VRB03KT 10SM FEW065 26/10 A3008 720 36 2200 VRB/03 RMK AO2
14837KMSN MSN20010712125011307/12/01 12:50:31  5-MIN KMSN 121850Z VRB03KT 10SM SCT065 27/10 A3008 720 34 2300 VRB/03 RMK AO2 SLP182 T02670100
14837KMSN MSN20010712125509607/12/01 12:55:31  5-MIN KMSN 121855Z VRB04KT 10SM FEW065 27/10 A3008 720 34 2300 VRB/04 RMK AO2
14837KMSN MSN20010712130009607/12/01 13:00:31  5-MIN KMSN 121900Z VRB05KT 10SM BKN070 26/10 A3008 720 36 2200 VRB/05 RMK AO2
14837KMSN MSN20010712130509607/12/01 13:05:31  5-MIN KMSN 121905Z 08005KT 10SM BKN070 26/10 A3008 720 37 2100 080/05 RMK AO2
14837KMSN MSN20010712131009607/12/01 13:10:31  5-MIN KMSN 121910Z 08004KT 10SM BKN070 26/10 A3008 720 37 2100 080/04 RMK AO2
14837KMSN MSN20010712131509607/12/01 13:15:31  5-MIN KMSN 121915Z VRB03KT 10SM SCT070 26/10 A3008 720 37 2100 VRB/03 RMK AO2
14837KMSN MSN20010712132009607/12/01 13:20:31  5-MIN KMSN 121920Z VRB06KT 10SM SCT070 27/10 A3007 720 34 2300 VRB/06 RMK AO2
14837KMSN MSN20010712132509607/12/01 13:25:31  5-MIN KMSN 121925Z VRB03KT 10SM SCT070 27/10 A3007 720 33 2300 VRB/03 RMK AO2
14837KMSN MSN20010712133009607/12/01 13:30:31  5-MIN KMSN 121930Z VRB04KT 10SM SCT075 28/10 A3007 730 32 2400 VRB/04 RMK AO2
14837KMSN MSN20010712133509607/12/01 13:35:31  5-MIN KMSN 121935Z 08004KT 10SM SCT075 27/09 A3007 730 32 2300 080/04 RMK AO2
14837KMSN MSN20010712134009607/12/01 13:40:31  5-MIN KMSN 121940Z 04008KT 10SM SCT075 26/10 A3007 730 36 2200 040/08 RMK AO2
14837KMSN MSN20010712134509607/12/01 13:45:31  5-MIN KMSN 121945Z 06006KT 10SM BKN075 26/10 A3007 730 36 2200 060/06 RMK AO2
14837KMSN MSN20010712135011307/12/01 13:50:31  5-MIN KMSN 121950Z 05005KT 10SM SCT075 26/10 A3007 730 36 2200 050/05 RMK AO2 SLP179 T02610100
14837KMSN MSN20010712135509607/12/01 13:55:31  5-MIN KMSN 121955Z 04005KT 10SM BKN075 26/10 A3007 730 36 2200 040/05 RMK AO2
14837KMSN MSN20010712140010307/12/01 14:00:31  5-MIN KMSN 122000Z 06006KT 10SM BKN075 BKN090 27/11 A3007 730 36 2300 060/06 RMK AO2
14837KMSN MSN20010712140509607/12/01 14:05:31  5-MIN KMSN 122005Z VRB06KT 10SM BKN080 27/11 A3007 730 34 2300 VRB/06 RMK AO2
14837KMSN MSN20010712141010307/12/01 14:10:31  5-MIN KMSN 122010Z VRB04KT 10SM SCT080 BKN090 27/11 A3007 730 34 2300 VRB/04 RMK AO2
14837KMSN MSN20010712141509607/12/01 14:15:31  5-MIN KMSN 122015Z VRB05KT 10SM BKN085 27/10 A3006 730 34 2300 VRB/05 RMK AO2
14837KMSN MSN20010712142009607/12/01 14:20:31  5-MIN KMSN 122020Z VRB03KT 10SM BKN090 27/11 A3006 730 36 2300 VRB/03 RMK AO2
14837KMSN MSN20010712142509607/12/01 14:25:31  5-MIN KMSN 122025Z VRB04KT 10SM BKN090 26/11 A3006 740 37 2200 VRB/04 RMK AO2
14837KMSN MSN20010712143009607/12/01 14:30:31  5-MIN KMSN 122030Z 04009KT 10SM BKN090 26/11 A3006 740 37 2200 040/09 RMK AO2
14837KMSN MSN20010712143509607/12/01 14:35:31  5-MIN KMSN 122035Z 06007KT 10SM SCT090 28/11 A3006 740 35 2400 060/07 RMK AO2
14837KMSN MSN20010712144009607/12/01 14:40:31  5-MIN KMSN 122040Z VRB03KT 10SM SCT090 27/11 A3006 740 36 2300 VRB/03 RMK AO2
14837KMSN MSN20010712144509607/12/01 14:45:31  5-MIN KMSN 122045Z 05008KT 10SM SCT080 27/11 A3006 740 36 2400 050/08 RMK AO2
14837KMSN MSN20010712145012607/12/01 14:50:31  5-MIN KMSN 122050Z 08006KT 10SM FEW065 SCT085 28/11 A3006 740 33 2400 080/06 RMK AO2 SLP174 T02780106 58001
14837KMSN MSN20010712145510307/12/01 14:55:31  5-MIN KMSN 122055Z 08007KT 10SM FEW065 SCT090 27/11 A3006 740 36 2300 080/07 RMK AO2
14837KMSN MSN20010712150009607/12/01 15:00:31  5-MIN KMSN 122100Z 07007KT 10SM BKN090 27/10 A3006 740 34 2300 070/07 RMK AO2
14837KMSN MSN20010712150509607/12/01 15:05:31  5-MIN KMSN 122105Z 07005KT 10SM BKN085 26/10 A3006 740 36 2200 070/05 RMK AO2
14837KMSN MSN20010712151009607/12/01 15:10:31  5-MIN KMSN 122110Z 06005KT 10SM BKN090 26/10 A3006 740 37 2200 060/05 RMK AO2
14837KMSN MSN20010712151509607/12/01 15:15:31  5-MIN KMSN 122115Z 32003KT 10SM SCT090 26/11 A3006 740 40 2200 320/03 RMK AO2
14837KMSN MSN20010712152009607/12/01 15:20:31  5-MIN KMSN 122120Z 00000KT 10SM SCT090 26/12 A3006 740 41 2200 000/00 RMK AO2
14837KMSN MSN20010712152509607/12/01 15:25:31  5-MIN KMSN 122125Z VRB03KT 10SM SCT090 27/12 A3005 740 40 2300 VRB/03 RMK AO2
14837KMSN MSN20010712153009607/12/01 15:30:31  5-MIN KMSN 122130Z VRB03KT 10SM BKN090 27/11 A3005 740 34 2400 VRB/03 RMK AO2
14837KMSN MSN20010712153509607/12/01 15:35:31  5-MIN KMSN 122135Z VRB06KT 10SM BKN090 28/11 A3005 740 33 2400 VRB/06 RMK AO2
14837KMSN MSN20010712154009607/12/01 15:40:31  5-MIN KMSN 122140Z 36007KT 10SM BKN090 28/11 A3005 740 32 2500 360/07 RMK AO2
14837KMSN MSN20010712154509607/12/01 15:45:31  5-MIN KMSN 122145Z 05007KT 10SM SCT090 27/10 A3006 740 33 2400 050/07 RMK AO2
14837KMSN MSN20010712155011307/12/01 15:50:31  5-MIN KMSN 122150Z 03007KT 10SM SCT090 27/10 A3005 740 33 2400 030/07 RMK AO2 SLP174 T02720100
14837KMSN MSN20010712155509607/12/01 15:55:31  5-MIN KMSN 122155Z 36005KT 10SM FEW090 27/10 A3005 740 33 2400 360/05 RMK AO2
14837KMSN MSN20010712160009607/12/01 16:00:31  5-MIN KMSN 122200Z 00000KT 10SM FEW090 26/09 A3006 740 34 2200 000/00 RMK AO2
14837KMSN MSN20010712160509607/12/01 16:05:31  5-MIN KMSN 122205Z 05005KT 10SM SCT090 27/10 A3006 740 34 2300 040/05 RMK AO2
14837KMSN MSN20010712161009607/12/01 16:10:31  5-MIN KMSN 122210Z 03004KT 10SM SCT090 27/10 A3006 740 34 2300 030/04 RMK AO2
14837KMSN MSN20010712161509607/12/01 16:15:31  5-MIN KMSN 122215Z VRB03KT 10SM SCT090 27/09 A3006 740 33 2300 VRB/03 RMK AO2
14837KMSN MSN20010712162009607/12/01 16:20:31  5-MIN KMSN 122220Z 04007KT 10SM SCT090 27/10 A3005 740 34 2300 040/07 RMK AO2
14837KMSN MSN20010712162509607/12/01 16:25:31  5-MIN KMSN 122225Z 03007KT 10SM SCT090 27/10 A3005 740 33 2400 030/07 RMK AO2
14837KMSN MSN20010712163009607/12/01 16:30:31  5-MIN KMSN 122230Z 02007KT 10SM SCT090 27/10 A3005 740 33 2400 020/07 RMK AO2
14837KMSN MSN20010712163509607/12/01 16:35:31  5-MIN KMSN 122235Z 01003KT 10SM SCT090 27/10 A3005 740 34 2300 010/03 RMK AO2
14837KMSN MSN20010712164009607/12/01 16:40:31  5-MIN KMSN 122240Z VRB04KT 10SM SCT090 27/09 A3005 740 32 2400 VRB/04 RMK AO2
14837KMSN MSN20010712164509607/12/01 16:45:31  5-MIN KMSN 122245Z VRB05KT 10SM SCT090 27/09 A3005 740 32 2400 VRB/05 RMK AO2
14837KMSN MSN20010712165011307/12/01 16:50:31  5-MIN KMSN 122250Z 07004KT 10SM FEW080 27/10 A3005 740 34 2300 070/04 RMK AO2 SLP174 T02670100
14837KMSN MSN20010712165509607/12/01 16:55:31  5-MIN KMSN 122255Z VRB03KT 10SM FEW080 27/10 A3005 740 34 2300 VRB/03 RMK AO2
14837KMSN MSN20010712170009607/12/01 17:00:31  5-MIN KMSN 122300Z 00000KT 10SM FEW080 27/11 A3005 740 34 2400 000/00 RMK AO2
14837KMSN MSN20010712170509607/12/01 17:05:31  5-MIN KMSN 122305Z 33004KT 10SM FEW080 27/11 A3005 740 34 2400 330/04 RMK AO2
14837KMSN MSN20010712171009607/12/01 17:10:31  5-MIN KMSN 122310Z 01004KT 10SM FEW080 27/11 A3005 740 34 2400 010/04 RMK AO2
14837KMSN MSN20010712171509607/12/01 17:15:31  5-MIN KMSN 122315Z 01005KT 10SM FEW080 27/10 A3005 740 33 2400 010/05 RMK AO2
14837KMSN MSN20010713153009307/13/01 15:30:31  5-MIN KMSN 132130Z 00000KT 10SM CLR 28/09 A3013 670 30 2300 000/00 RMK AO2
14837KMSN MSN20010713153509307/13/01 15:35:31  5-MIN KMSN 132135Z VRB03KT 10SM CLR 28/09 A3013 670 30 2300 VRB/03 RMK AO2
14837KMSN MSN20010713154009307/13/01 15:40:31  5-MIN KMSN 132140Z VRB03KT 10SM CLR 28/09 A3013 670 29 2400 VRB/03 RMK AO2
14837KMSN MSN20010713154509307/13/01 15:45:31  5-MIN KMSN 132145Z 02005KT 10SM CLR 28/09 A3013 670 30 2400 020/05 RMK AO2
14837KMSN MSN20010713155011307/13/01 15:50:31  5-MIN KMSN 132150Z 02004KT 10SM FEW065 28/09 A3013 670 30 2300 020/04 RMK AO2 SLP199 T02780089
14837KMSN MSN20010713155509307/13/01 15:55:31  5-MIN KMSN 132155Z VRB04KT 10SM CLR 28/09 A3013 670 30 2300 VRB/04 RMK AO2
14837KMSN MSN20010713160009307/13/01 16:00:31  5-MIN KMSN 132200Z 31008KT 10SM CLR 28/09 A3013 670 31 2300 310/08 RMK AO2
14837KMSN MSN20010713160509307/13/01 16:05:31  5-MIN KMSN 132205Z 32007KT 10SM CLR 28/09 A3013 670 31 2300 320/07 RMK AO2
14837KMSN MSN20010713161009307/13/01 16:10:31  5-MIN KMSN 132210Z 33005KT 10SM CLR 28/09 A3013 670 30 2400 330/05 RMK AO2
14837KMSN MSN20010713161509307/13/01 16:15:31  5-MIN KMSN 132215Z 32005KT 10SM CLR 28/09 A3012 680 29 2400 320/05 RMK AO2
14837KMSN MSN20010713162009307/13/01 16:20:31  5-MIN KMSN 132220Z 31005KT 10SM CLR 28/09 A3012 680 31 2300 310/05 RMK AO2
14837KMSN MSN20010713162509307/13/01 16:25:31  5-MIN KMSN 132225Z 31005KT 10SM CLR 28/09 A3012 680 31 2300 300/05 RMK AO2
14837KMSN MSN20010713163009307/13/01 16:30:31  5-MIN KMSN 132230Z 35005KT 10SM CLR 28/09 A3012 680 31 2300 350/05 RMK AO2
14837KMSN MSN20010713163509307/13/01 16:35:31  5-MIN KMSN 132235Z 34005KT 10SM CLR 28/10 A3012 680 31 2400 340/05 RMK AO2
14837KMSN MSN20010713164009307/13/01 16:40:31  5-MIN KMSN 132240Z 35004KT 10SM CLR 28/09 A3012 680 30 2300 350/04 RMK AO2
14837KMSN MSN20010713164509307/13/01 16:45:31  5-MIN KMSN 132245Z VRB03KT 10SM CLR 28/09 A3012 680 30 2300 VRB/03 RMK AO2
14837KMSN MSN20010713165011007/13/01 16:50:31  5-MIN KMSN 132250Z VRB03KT 10SM CLR 28/09 A3012 680 30 2300 VRB/03 RMK AO2 SLP196 T02780089
14837KMSN MSN20010713165509307/13/01 16:55:31  5-MIN KMSN 132255Z 35003KT 10SM CLR 28/09 A3012 680 30 2300 350/03 RMK AO2
14837KMSN MSN20010713170009307/13/01 17:00:31  5-MIN KMSN 132300Z VRB03KT 10SM CLR 27/09 A3011 690 32 2300 VRB/03 RMK AO2
14837KMSN MSN20010713170509307/13/01 17:05:31  5-MIN KMSN 132305Z 00000KT 10SM CLR 28/09 A3011 690 31 2400 000/00 RMK AO2
14837KMSN MSN20010713171009307/13/01 17:10:31  5-MIN KMSN 132310Z 35003KT 10SM CLR 28/10 A3011 690 32 2400 350/03 RMK AO2
14837KMSN MSN20010713171509307/13/01 17:15:31  5-MIN KMSN 132315Z 00000KT 10SM CLR 28/09 A3011 690 30 2400 000/00 RMK AO2
14837KMSN MSN20010713172009307/13/01 17:20:31  5-MIN KMSN 132320Z 00000KT 10SM CLR 28/09 A3011 690 31 2400 000/00 RMK AO2
14837KMSN MSN20010713172510907/13/01 17:25:31  5-MIN KMSN 132325Z 29007KT 230V320 10SM CLR 28/09 A3011 690 31 2400 290/07 230V320 RMK AO2
14837KMSN MSN20010713173009307/13/01 17:30:31  5-MIN KMSN 132330Z 29006KT 10SM CLR 27/08 A3011 690 30 2300 290/06 RMK AO2
14837KMSN MSN20010713173509307/13/01 17:35:31  5-MIN KMSN 132335Z 32004KT 10SM CLR 27/09 A3011 690 31 2300 320/04 RMK AO2
14837KMSN MSN20010713174009307/13/01 17:40:31  5-MIN KMSN 132340Z 32004KT 10SM CLR 27/09 A3011 690 31 2300 320/04 RMK AO2
14837KMSN MSN20010713174509307/13/01 17:45:31  5-MIN KMSN 132345Z 33003KT 10SM CLR 28/09 A3010 690 30 2400 330/03 RMK AO2
14837KMSN MSN20010713175013107/13/01 17:50:31  5-MIN KMSN 132350Z VRB03KT 10SM FEW070 27/09 A3011 690 32 2300 VRB/03 RMK AO2 SLP191 T02720094 10283 20261 56009
14837KMSN MSN20010713175509307/13/01 17:55:31  5-MIN KMSN 132355Z 00000KT 10SM CLR 27/10 A3010 690 33 2300 000/00 RMK AO2
14837KMSN MSN20010713180009307/13/01 18:00:31  5-MIN KMSN 140000Z 00000KT 10SM CLR 27/10 A3010 700 33 2300 000/00 RMK AO2
14837KMSN MSN20010713180509307/13/01 18:05:31  5-MIN KMSN 140005Z 00000KT 10SM CLR 27/09 A3010 700 33 2200 000/00 RMK AO2
14837KMSN MSN20010713181009307/13/01 18:10:31  5-MIN KMSN 140010Z VRB03KT 10SM CLR 27/09 A3010 700 33 2200 VRB/03 RMK AO2
14837KMSN MSN20010713181509307/13/01 18:15:31  5-MIN KMSN 140015Z 30004KT 10SM CLR 27/09 A3010 700 33 2200 290/04 RMK AO2
14837KMSN MSN20010713182009307/13/01 18:20:31  5-MIN KMSN 140020Z 29003KT 10SM CLR 26/11 A3010 700 37 2200 290/03 RMK AO2
14837KMSN MSN20010713182509307/13/01 18:25:31  5-MIN KMSN 140025Z VRB03KT 10SM CLR 26/11 A3010 700 37 2200 VRB/03 RMK AO2
14837KMSN MSN20010713183009307/13/01 18:30:31  5-MIN KMSN 140030Z VRB03KT 10SM CLR 26/11 A3009 700 38 2100 VRB/03 RMK AO2
14837KMSN MSN20010713183509307/13/01 18:35:31  5-MIN KMSN 140035Z 00000KT 10SM CLR 25/11 A3009 710 41 2100 000/00 RMK AO2
14837KMSN MSN20010713184009307/13/01 18:40:31  5-MIN KMSN 140040Z 25003KT 10SM CLR 25/11 A3009 700 41 2100 250/03 RMK AO2
14837KMSN MSN20010713184509307/13/01 18:45:31  5-MIN KMSN 140045Z VRB03KT 10SM CLR 25/11 A3009 710 39 2100 VRB/03 RMK AO2
14837KMSN MSN20010713185011007/13/01 18:50:31  5-MIN KMSN 140050Z 25003KT 10SM CLR 26/11 A3009 710 38 2100 250/03 RMK AO2 SLP186 T02560106
14837KMSN MSN20010713185509307/13/01 18:55:31  5-MIN KMSN 140055Z 24003KT 10SM CLR 24/12 A3009 710 44 2000 240/03 RMK AO2
14837KMSN MSN20010713190009307/13/01 19:00:31  5-MIN KMSN 140100Z 00000KT 10SM CLR 23/13 A3009 710 51 1900 000/00 RMK AO2
14837KMSN MSN20010713190509307/13/01 19:05:31  5-MIN KMSN 140105Z 25003KT 10SM CLR 23/13 A3009 710 53 1800 250/03 RMK AO2
14837KMSN MSN20010713191009307/13/01 19:10:31  5-MIN KMSN 140110Z 00000KT 10SM CLR 22/13 A3009 710 58 1700 000/00 RMK AO2
14837KMSN MSN20010713191509307/13/01 19:15:31  5-MIN KMSN 140115Z 00000KT 10SM CLR 22/13 A3009 710 56 1700 000/00 RMK AO2
14837KMSN MSN20010713192009307/13/01 19:20:31  5-MIN KMSN 140120Z 00000KT 10SM CLR 22/13 A3009 710 56 1700 000/00 RMK AO2
14837KMSN MSN20010713192509307/13/01 19:25:31  5-MIN KMSN 140125Z 25003KT 10SM CLR 21/13 A3009 710 58 1600 240/03 RMK AO2
14837KMSN MSN20010713193009307/13/01 19:30:31  5-MIN KMSN 140130Z 00000KT 10SM CLR 22/12 A3009 710 54 1700 000/00 RMK AO2
14837KMSN MSN20010713193509307/13/01 19:35:31  5-MIN KMSN 140135Z 00000KT 10SM CLR 21/12 A3009 710 56 1600 000/00 RMK AO2
14837KMSN MSN20010713194009307/13/01 19:40:31  5-MIN KMSN 140140Z 00000KT 10SM CLR 21/12 A3009 710 58 1600 000/00 RMK AO2
14837KMSN MSN20010713194509307/13/01 19:45:31  5-MIN KMSN 140145Z 00000KT 10SM CLR 21/12 A3009 710 58 1600 000/00 RMK AO2
14837KMSN MSN20010713195011007/13/01 19:50:31  5-MIN KMSN 140150Z 24003KT 10SM CLR 21/12 A3009 710 58 1600 240/03 RMK AO2 SLP185 T02060122
14837KMSN MSN20010713195509307/13/01 19:55:31  5-MIN KMSN 140155Z 25003KT 10SM CLR 21/12 A3009 710 56 1600 250/03 RMK AO2
14837KMSN MSN20010713200009307/13/01 20:00:31  5-MIN KMSN 140200Z VRB03KT 10SM CLR 21/12 A3008 710 58 1600 VRB/03 RMK AO2
14837KMSN MSN20010713200509307/13/01 20:05:31  5-MIN KMSN 140205Z 25003KT 10SM CLR 19/12 A3008 710 60 1400 250/03 RMK AO2
14837KMSN MSN20010713201009307/13/01 20:10:31  5-MIN KMSN 140210Z 25003KT 10SM CLR 20/12 A3009 710 58 1500 250/03 RMK AO2
14837KMSN MSN20010713201509307/13/01 20:15:31  5-MIN KMSN 140215Z 25003KT 10SM CLR 21/12 A3009 710 54 1600 240/03 RMK AO2
14837KMSN MSN20010713202009307/13/01 20:20:31  5-MIN KMSN 140220Z 00000KT 10SM CLR 20/12 A3009 710 58 1500 000/00 RMK AO2
14837KMSN MSN20010713202509307/13/01 20:25:31  5-MIN KMSN 140225Z 25003KT 10SM CLR 19/12 A3009 710 62 1400 250/03 RMK AO2
14837KMSN MSN20010713203009307/13/01 20:30:31  5-MIN KMSN 140230Z 25003KT 10SM CLR 19/12 A3009 710 62 1400 250/03 RMK AO2
14837KMSN MSN20010713203509307/13/01 20:35:31  5-MIN KMSN 140235Z 00000KT 10SM CLR 18/12 A3009 710 65 1300 000/00 RMK AO2
14837KMSN MSN20010713204009307/13/01 20:40:31  5-MIN KMSN 140240Z 00000KT 10SM CLR 19/12 A3009 710 60 1400 000/00 RMK AO2
14837KMSN MSN20010713204509307/13/01 20:45:31  5-MIN KMSN 140245Z 24003KT 10SM CLR 19/12 A3009 710 60 1400 240/03 RMK AO2
14837KMSN MSN20010713205011607/13/01 20:50:31  5-MIN KMSN 140250Z VRB03KT 10SM CLR 19/11 A3009 710 60 1400 VRB/03 RMK AO2 SLP186 T01890111 58011
14837KMSN MSN20010713205509307/13/01 20:55:31  5-MIN KMSN 140255Z 00000KT 10SM CLR 20/11 A3009 710 54 1500 000/00 RMK AO2
14837KMSN MSN20010713210009307/13/01 21:00:31  5-MIN KMSN 140300Z 00000KT 10SM CLR 19/11 A3009 710 60 1400 000/00 RMK AO2
14837KMSN MSN20010713210509307/13/01 21:05:31  5-MIN KMSN 140305Z 00000KT 10SM CLR 18/11 A3009 710 62 1300 000/00 RMK AO2
14837KMSN MSN20010713211009307/13/01 21:10:31  5-MIN KMSN 140310Z 00000KT 10SM CLR 18/11 A3009 710 64 1200 000/00 RMK AO2
14837KMSN MSN20010713211509307/13/01 21:15:31  5-MIN KMSN 140315Z 00000KT 10SM CLR 18/11 A3009 710 62 1300 000/00 RMK AO2
14837KMSN MSN20010713212009307/13/01 21:20:31  5-MIN KMSN 140320Z 00000KT 10SM CLR 18/11 A3009 710 62 1300 000/00 RMK AO2
14837KMSN MSN20010713212509307/13/01 21:25:31  5-MIN KMSN 140325Z 29003KT 10SM CLR 18/11 A3009 710 62 1300 290/03 RMK AO2
14837KMSN MSN20010713213009307/13/01 21:30:31  5-MIN KMSN 140330Z 29003KT 10SM CLR 18/11 A3009 710 62 1300 290/03 RMK AO2
14837KMSN MSN20010713213509307/13/01 21:35:31  5-MIN KMSN 140335Z 28003KT 10SM CLR 19/11 A3009 710 58 1400 280/03 RMK AO2
14837KMSN MSN20010713214009307/13/01 21:40:31  5-MIN KMSN 140340Z 28004KT 10SM CLR 19/12 A3009 710 62 1400 280/04 RMK AO2
14837KMSN MSN20010713214509307/13/01 21:45:31  5-MIN KMSN 140345Z 29003KT 10SM CLR 19/12 A3009 710 60 1400 290/03 RMK AO2
14837KMSN MSN20010713215011007/13/01 21:50:31  5-MIN KMSN 140350Z 29004KT 10SM CLR 20/11 A3009 710 56 1500 290/04 RMK AO2 SLP185 T02000111
14837KMSN MSN20010713215509307/13/01 21:55:31  5-MIN KMSN 140355Z 29003KT 10SM CLR 20/11 A3009 710 56 1500 290/03 RMK AO2
14837KMSN MSN20010713220009307/13/01 22:00:31  5-MIN KMSN 140400Z 29003KT 10SM CLR 20/11 A3009 710 56 1500 290/03 RMK AO2
14837KMSN MSN20010713220509307/13/01 22:05:31  5-MIN KMSN 140405Z 30004KT 10SM CLR 20/11 A3009 710 56 1500 300/04 RMK AO2
14837KMSN MSN20010713221009307/13/01 22:10:31  5-MIN KMSN 140410Z 29004KT 10SM CLR 20/11 A3009 710 56 1500 290/04 RMK AO2
14837KMSN MSN20010713221509307/13/01 22:15:31  5-MIN KMSN 140415Z 29003KT 10SM CLR 19/11 A3009 710 58 1400 290/03 RMK AO2
14837KMSN MSN20010713222009307/13/01 22:20:31  5-MIN KMSN 140420Z VRB03KT 10SM CLR 19/11 A3009 710 60 1400 VRB/03 RMK AO2
14837KMSN MSN20010713222509307/13/01 22:25:31  5-MIN KMSN 140425Z 29004KT 10SM CLR 19/11 A3009 710 60 1400 290/04 RMK AO2
14837KMSN MSN20010713223009307/13/01 22:30:31  5-MIN KMSN 140430Z VRB03KT 10SM CLR 18/11 A3009 710 62 1300 VRB/03 RMK AO2
14837KMSN MSN20010713223509307/13/01 22:35:31  5-MIN KMSN 140435Z 00000KT 10SM CLR 18/12 A3009 710 67 1200 000/00 RMK AO2
14837KMSN MSN20010713224009307/13/01 22:40:31  5-MIN KMSN 140440Z 00000KT 10SM CLR 17/12 A3009 710 69 1200 000/00 RMK AO2
14837KMSN MSN20010713224509307/13/01 22:45:31  5-MIN KMSN 140445Z 00000KT 10SM CLR 16/11 A3009 710 72 1000 000/00 RMK AO2
14837KMSN MSN20010713225011007/13/01 22:50:31  5-MIN KMSN 140450Z 00000KT 10SM CLR 17/12 A3009 710 72 1100 000/00 RMK AO2 SLP185 T01670117
14837KMSN MSN20010713225509307/13/01 22:55:31  5-MIN KMSN 140455Z 00000KT 10SM CLR 17/12 A3009 710 69 1200 000/00 RMK AO2
14837KMSN MSN20010713230009307/13/01 23:00:31  5-MIN KMSN 140500Z 04004KT 10SM CLR 17/12 A3009 700 72 1100 040/04 RMK AO2
14837KMSN MSN20010713230509307/13/01 23:05:31  5-MIN KMSN 140505Z 00000KT 10SM CLR 16/12 A3009 700 75 1000 000/00 RMK AO2
14837KMSN MSN20010713231009307/13/01 23:10:31  5-MIN KMSN 140510Z 00000KT 10SM CLR 16/12 A3009 700 77 1000 000/00 RMK AO2
14837KMSN MSN20010713231509307/13/01 23:15:31  5-MIN KMSN 140515Z 00000KT 10SM CLR 16/12 A3009 700 75 1000 000/00 RMK AO2
14837KMSN MSN20010713232009307/13/01 23:20:31  5-MIN KMSN 140520Z 00000KT 10SM CLR 17/12 A3009 700 69 1200 000/00 RMK AO2
14837KMSN MSN20010713232509307/13/01 23:25:31  5-MIN KMSN 140525Z 00000KT 10SM CLR 16/12 A3009 700 75 1000 000/00 RMK AO2
14837KMSN MSN20010713233009307/13/01 23:30:31  5-MIN KMSN 140530Z 00000KT 10SM CLR 16/12 A3009 700 75 1000 000/00 RMK AO2
14837KMSN MSN20010713233509307/13/01 23:35:31  5-MIN KMSN 140535Z 00000KT 10SM CLR 16/12 A3009 710 75 1000 000/00 RMK AO2
14837KMSN MSN20010713234009307/13/01 23:40:31  5-MIN KMSN 140540Z 00000KT 10SM CLR 16/12 A3009 710 75 1000 000/00 RMK AO2
14837KMSN MSN20010713234509307/13/01 23:45:31  5-MIN KMSN 140545Z 00000KT 10SM CLR 16/12 A3009 700 75 1000 000/00 RMK AO2
14837KMSN MSN20010713235013707/13/01 23:50:31  5-MIN KMSN 140550Z 00000KT 10SM CLR 15/12 A3009 700 80 900 000/00 RMK AO2 SLP188 T01500117 10272 20150 402830133 55004
14837KMSN MSN20010713235509207/13/01 23:55:31  5-MIN KMSN 140555Z 00000KT 10SM CLR 15/11 A3010 700 77 900 000/00 RMK AO2
14837KMSN MSN20010714000009207/14/01 00:00:31  5-MIN KMSN 140600Z 00000KT 10SM CLR 15/11 A3010 700 77 900 000/00 RMK AO2
14837KMSN MSN20010714000509307/14/01 00:05:31  5-MIN KMSN 140605Z 00000KT 10SM CLR 16/12 A3010 700 77 1000 000/00 RMK AO2
14837KMSN MSN20010714001009307/14/01 00:10:31  5-MIN KMSN 140610Z 00000KT 10SM CLR 16/12 A3009 700 75 1000 000/00 RMK AO2
14837KMSN MSN20010714001509307/14/01 00:15:31  5-MIN KMSN 140615Z 00000KT 10SM CLR 16/12 A3009 700 75 1000 000/00 RMK AO2
14837KMSN MSN20010714002009307/14/01 00:20:31  5-MIN KMSN 140620Z 00000KT 10SM CLR 16/12 A3009 710 77 1000 000/00 RMK AO2
14837KMSN MSN20010714002509207/14/01 00:25:31  5-MIN KMSN 140625Z 00000KT 10SM CLR 15/12 A3009 710 80 900 000/00 RMK AO2
14837KMSN MSN20010714003009307/14/01 00:30:31  5-MIN KMSN 140630Z 00000KT 10SM CLR 16/12 A3009 710 77 1000 000/00 RMK AO2
14837KMSN MSN20010714003509307/14/01 00:35:31  5-MIN KMSN 140635Z 00000KT 10SM CLR 16/12 A3009 710 77 1000 000/00 RMK AO2
14837KMSN MSN20010714004009307/14/01 00:40:31  5-MIN KMSN 140640Z 00000KT 10SM CLR 16/12 A3009 710 77 1000 000/00 RMK AO2
14837KMSN MSN20010714004509207/14/01 00:45:31  5-MIN KMSN 140645Z 00000KT 10SM CLR 15/12 A3009 700 80 900 000/00 RMK AO2
14837KMSN MSN20010714005011007/14/01 00:50:31  5-MIN KMSN 140650Z 00000KT 10SM CLR 16/12 A3010 700 77 1000 000/00 RMK AO2 SLP187 T01560117
14837KMSN MSN20010714005509207/14/01 00:55:31  5-MIN KMSN 140655Z 00000KT 10SM CLR 15/12 A3010 700 80 900 000/00 RMK AO2
14837KMSN MSN20010714010009207/14/01 01:00:31  5-MIN KMSN 140700Z 00000KT 10SM CLR 15/12 A3010 700 80 900 000/00 RMK AO2
14837KMSN MSN20010714010509207/14/01 01:05:31  5-MIN KMSN 140705Z 00000KT 10SM CLR 15/12 A3010 700 80 900 000/00 RMK AO2
14837KMSN MSN20010714011009207/14/01 01:10:31  5-MIN KMSN 140710Z 00000KT 10SM CLR 15/11 A3010 700 77 900 000/00 RMK AO2
14837KMSN MSN20010714011509207/14/01 01:15:31  5-MIN KMSN 140715Z 00000KT 10SM CLR 15/11 A3009 710 77 900 000/00 RMK AO2
14837KMSN MSN20010714012009207/14/01 01:20:31  5-MIN KMSN 140720Z 00000KT 10SM CLR 14/12 A3009 710 83 800 000/00 RMK AO2
14837KMSN MSN20010714012509207/14/01 01:25:31  5-MIN KMSN 140725Z 00000KT 10SM CLR 14/12 A3009 710 83 800 000/00 RMK AO2
14837KMSN MSN20010714013009207/14/01 01:30:31  5-MIN KMSN 140730Z 00000KT 10SM CLR 15/11 A3009 710 77 900 000/00 RMK AO2
14837KMSN MSN20010714013509207/14/01 01:35:31  5-MIN KMSN 140735Z 00000KT 10SM CLR 15/11 A3009 710 77 900 000/00 RMK AO2
14837KMSN MSN20010714014009207/14/01 01:40:31  5-MIN KMSN 140740Z 00000KT 10SM CLR 14/12 A3009 710 83 800 000/00 RMK AO2
14837KMSN MSN20010714014509207/14/01 01:45:31  5-MIN KMSN 140745Z 00000KT 10SM CLR 15/12 A3009 710 80 900 000/00 RMK AO2
14837KMSN MSN20010714015011007/14/01 01:50:31  5-MIN KMSN 140750Z 00000KT 10SM CLR 16/12 A3009 710 77 1000 000/00 RMK AO2 SLP186 T01560117
14837KMSN MSN20010714015509307/14/01 01:55:31  5-MIN KMSN 140755Z 00000KT 10SM CLR 16/11 A3009 700 74 1000 000/00 RMK AO2
14837KMSN MSN20010714020009207/14/01 02:00:31  5-MIN KMSN 140800Z 00000KT 10SM CLR 15/11 A3009 710 77 900 000/00 RMK AO2
14837KMSN MSN20010714020509207/14/01 02:05:31  5-MIN KMSN 140805Z 00000KT 10SM CLR 15/12 A3009 710 80 900 000/00 RMK AO2
14837KMSN MSN20010714021009207/14/01 02:10:31  5-MIN KMSN 140810Z 00000KT 10SM CLR 14/11 A3009 710 80 800 000/00 RMK AO2
14837KMSN MSN20010714021509207/14/01 02:15:31  5-MIN KMSN 140815Z 00000KT 10SM CLR 15/11 A3009 710 77 900 000/00 RMK AO2
14837KMSN MSN20010714022009207/14/01 02:20:31  5-MIN KMSN 140820Z 00000KT 10SM CLR 14/11 A3009 710 77 900 000/00 RMK AO2
14837KMSN MSN20010714022509207/14/01 02:25:31  5-MIN KMSN 140825Z 00000KT 10SM CLR 14/11 A3008 710 80 900 000/00 RMK AO2
14837KMSN MSN20010714023009207/14/01 02:30:31  5-MIN KMSN 140830Z 00000KT 10SM CLR 14/11 A3008 710 77 900 000/00 RMK AO2
14837KMSN MSN20010714023509207/14/01 02:35:31  5-MIN KMSN 140835Z 00000KT 10SM CLR 14/11 A3008 710 80 800 000/00 RMK AO2
14837KMSN MSN20010714024009207/14/01 02:40:31  5-MIN KMSN 140840Z 00000KT 10SM CLR 14/11 A3008 710 80 900 000/00 RMK AO2
14837KMSN MSN20010714024509207/14/01 02:45:31  5-MIN KMSN 140845Z 00000KT 10SM CLR 14/11 A3008 710 80 900 000/00 RMK AO2
14837KMSN MSN20010714025011507/14/01 02:50:31  5-MIN KMSN 140850Z 00000KT 10SM CLR 14/12 A3008 710 83 900 000/00 RMK AO2 SLP183 T01440117 53001
14837KMSN MSN20010714025509307/14/01 02:55:31  5-MIN KMSN 140855Z 00000KT 10SM CLR 16/11 A3008 710 74 1000 000/00 RMK AO2
14837KMSN MSN20010714030009207/14/01 03:00:31  5-MIN KMSN 140900Z 26003KT 10SM CLR 14/11 A3009 710 80 900 260/03 RMK AO2
14837KMSN MSN20010714030509207/14/01 03:05:31  5-MIN KMSN 140905Z 26003KT 10SM CLR 14/12 A3009 710 83 900 260/03 RMK AO2
14837KMSN MSN20010714031009207/14/01 03:10:31  5-MIN KMSN 140910Z 28004KT 10SM CLR 15/12 A3009 710 80 900 280/04 RMK AO2
14837KMSN MSN20010714031509307/14/01 03:15:31  5-MIN KMSN 140915Z 27003KT 10SM CLR 16/12 A3009 710 77 1000 270/03 RMK AO2
14837KMSN MSN20010714032009307/14/01 03:20:31  5-MIN KMSN 140920Z VRB03KT 10SM CLR 16/12 A3009 710 75 1000 VRB/03 RMK AO2
14837KMSN MSN20010714032509307/14/01 03:25:31  5-MIN KMSN 140925Z 00000KT 10SM CLR 17/12 A3009 710 72 1100 000/00 RMK AO2
14837KMSN MSN20010714033009307/14/01 03:30:31  5-MIN KMSN 140930Z 26003KT 10SM CLR 16/12 A3009 710 75 1000 260/03 RMK AO2
14837KMSN MSN20010714033509207/14/01 03:35:31  5-MIN KMSN 140935Z 00000KT 10SM CLR 15/12 A3009 710 80 900 000/00 RMK AO2
14837KMSN MSN20010714034009307/14/01 03:40:31  5-MIN KMSN 140940Z 00000KT 10SM CLR 16/12 A3009 710 77 1000 000/00 RMK AO2
14837KMSN MSN20010714034509307/14/01 03:45:31  5-MIN KMSN 140945Z 00000KT 10SM CLR 16/12 A3009 710 77 1000 000/00 RMK AO2
14837KMSN MSN20010714035010907/14/01 03:50:31  5-MIN KMSN 140950Z 00000KT 10SM CLR 15/12 A3009 710 80 900 000/00 RMK AO2 SLP184 T01500117
14837KMSN MSN20010714035509207/14/01 03:55:31  5-MIN KMSN 140955Z 00000KT 10SM CLR 14/12 A3009 710 83 900 000/00 RMK AO2
14837KMSN MSN20010714040009207/14/01 04:00:31  5-MIN KMSN 141000Z 00000KT 10SM CLR 14/12 A3009 710 86 800 000/00 RMK AO2
14837KMSN MSN20010714040509207/14/01 04:05:31  5-MIN KMSN 141005Z 00000KT 10SM CLR 14/12 A3009 710 86 800 000/00 RMK AO2
14837KMSN MSN20010714041009207/14/01 04:10:31  5-MIN KMSN 141010Z 00000KT 10SM CLR 14/12 A3009 710 86 800 000/00 RMK AO2
14837KMSN MSN20010714041509207/14/01 04:15:31  5-MIN KMSN 141015Z 25003KT 10SM CLR 14/11 A3009 710 83 800 250/03 RMK AO2
14837KMSN MSN20010714042009207/14/01 04:20:31  5-MIN KMSN 141020Z 25003KT 10SM CLR 13/12 A3009 710 93 600 250/03 RMK AO2
14837KMSN MSN20010714042509207/14/01 04:25:31  5-MIN KMSN 141025Z 00000KT 10SM CLR 13/12 A3009 710 89 700 000/00 RMK AO2
14837KMSN MSN20010714043009207/14/01 04:30:31  5-MIN KMSN 141030Z 25003KT 10SM CLR 13/12 A3009 710 89 700 250/03 RMK AO2
14837KMSN MSN20010714043509207/14/01 04:35:31  5-MIN KMSN 141035Z 00000KT 10SM CLR 14/12 A3009 700 86 800 000/00 RMK AO2
14837KMSN MSN20010714044009207/14/01 04:40:31  5-MIN KMSN 141040Z 25003KT 10SM CLR 13/12 A3009 700 89 700 250/03 RMK AO2
14837KMSN MSN20010714044509207/14/01 04:45:31  5-MIN KMSN 141045Z 26003KT 10SM CLR 14/12 A3010 700 83 800 260/03 RMK AO2
14837KMSN MSN20010714045010907/14/01 04:50:31  5-MIN KMSN 141050Z VRB03KT 10SM CLR 14/12 A3010 700 86 800 VRB/03 RMK AO2 SLP188 T01390117
14837KMSN MSN20010714045509207/14/01 04:55:31  5-MIN KMSN 141055Z 00000KT 10SM CLR 14/12 A3010 700 86 800 000/00 RMK AO2
14837KMSN MSN20010714050009207/14/01 05:00:31  5-MIN KMSN 141100Z 00000KT 10SM CLR 13/11 A3010 700 86 700 000/00 RMK AO2
14837KMSN MSN20010714050509207/14/01 05:05:31  5-MIN KMSN 141105Z VRB03KT 10SM CLR 14/12 A3010 700 83 800 VRB/03 RMK AO2
14837KMSN MSN20010714051009207/14/01 05:10:31  5-MIN KMSN 141110Z 00000KT 10SM CLR 15/12 A3009 700 80 900 000/00 RMK AO2
14837KMSN MSN20010714051509207/14/01 05:15:31  5-MIN KMSN 141115Z 00000KT 10SM CLR 15/12 A3009 710 80 900 000/00 RMK AO2
14837KMSN MSN20010714052009307/14/01 05:20:31  5-MIN KMSN 141120Z 00000KT 10SM CLR 16/12 A3009 710 77 1000 000/00 RMK AO2
14837KMSN MSN20010714052509307/14/01 05:25:31  5-MIN KMSN 141125Z 00000KT 10SM CLR 16/12 A3009 710 80 1000 000/00 RMK AO2
14837KMSN MSN20010714053009207/14/01 05:30:31  5-MIN KMSN 141130Z 27003KT 10SM CLR 14/12 A3009 700 83 800 270/03 RMK AO2
14837KMSN MSN20010714053509307/14/01 05:35:31  5-MIN KMSN 141135Z 00000KT 10SM CLR 16/12 A3009 700 80 1000 000/00 RMK AO2
14837KMSN MSN20010714054009307/14/01 05:40:31  5-MIN KMSN 141140Z 00000KT 10SM CLR 16/12 A3010 700 80 1000 000/00 RMK AO2
14837KMSN MSN20010714054509307/14/01 05:45:31  5-MIN KMSN 141145Z 00000KT 10SM CLR 16/12 A3010 700 77 1000 000/00 RMK AO2
14837KMSN MSN20010714055012807/14/01 05:50:31  5-MIN KMSN 141150Z 00000KT 10SM CLR 17/13 A3010 700 77 1100 000/00 RMK AO2 SLP188 T01670128 10167 20128 58004
14837KMSN MSN20010714055509307/14/01 05:55:31  5-MIN KMSN 141155Z 00000KT 10SM CLR 17/13 A3010 700 75 1200 000/00 RMK AO2
14837KMSN MSN20010714060009307/14/01 06:00:31  5-MIN KMSN 141200Z 28003KT 10SM CLR 18/13 A3009 700 72 1200 280/03 RMK AO2
14837KMSN MSN20010714060509307/14/01 06:05:31  5-MIN KMSN 141205Z VRB03KT 10SM CLR 18/13 A3009 700 72 1200 VRB/03 RMK AO2
14837KMSN MSN20010714061009307/14/01 06:10:31  5-MIN KMSN 141210Z 28003KT 10SM CLR 18/13 A3009 700 70 1300 280/03 RMK AO2
14837KMSN MSN20010714061509307/14/01 06:15:31  5-MIN KMSN 141215Z 28004KT 10SM CLR 18/13 A3009 710 70 1300 280/04 RMK AO2
14837KMSN MSN20010714062009307/14/01 06:20:31  5-MIN KMSN 141220Z 28005KT 10SM CLR 18/12 A3009 700 67 1300 280/05 RMK AO2
14837KMSN MSN20010714062509307/14/01 06:25:31  5-MIN KMSN 141225Z 29004KT 10SM CLR 18/13 A3010 700 70 1300 290/04 RMK AO2
14837KMSN MSN20010714063009307/14/01 06:30:31  5-MIN KMSN 141230Z 28004KT 10SM CLR 19/13 A3010 700 67 1400 280/04 RMK AO2
14837KMSN MSN20010714063509307/14/01 06:35:31  5-MIN KMSN 141235Z VRB03KT 10SM CLR 19/13 A3010 700 67 1400 VRB/03 RMK AO2
14837KMSN MSN20010714064009307/14/01 06:40:31  5-MIN KMSN 141240Z 00000KT 10SM CLR 19/13 A3010 700 67 1400 000/00 RMK AO2
14837KMSN MSN20010714064509307/14/01 06:45:31  5-MIN KMSN 141245Z 00000KT 10SM CLR 19/13 A3009 700 67 1400 000/00 RMK AO2
14837KMSN MSN20010714065011007/14/01 06:50:31  5-MIN KMSN 141250Z 00000KT 10SM CLR 19/13 A3009 700 67 1400 000/00 RMK AO2 SLP185 T01940133
14837KMSN MSN20010714065509307/14/01 06:55:31  5-MIN KMSN 141255Z 00000KT 10SM CLR 20/13 A3009 710 63 1500 000/00 RMK AO2
14837KMSN MSN20010714070009307/14/01 07:00:31  5-MIN KMSN 141300Z 00000KT 10SM CLR 20/13 A3009 710 65 1500 000/00 RMK AO2
14837KMSN MSN20010714070509307/14/01 07:05:31  5-MIN KMSN 141305Z VRB03KT 10SM CLR 20/13 A3009 710 65 1500 VRB/03 RMK AO2
14837KMSN MSN20010714071009307/14/01 07:10:31  5-MIN KMSN 141310Z 00000KT 10SM CLR 21/13 A3009 710 63 1600 000/00 RMK AO2
14837KMSN MSN20010714071509307/14/01 07:15:31  5-MIN KMSN 141315Z 29005KT 10SM CLR 21/13 A3009 710 58 1600 290/05 RMK AO2
14837KMSN MSN20010714072009307/14/01 07:20:31  5-MIN KMSN 141320Z VRB04KT 10SM CLR 21/13 A3009 710 58 1600 VRB/04 RMK AO2
14837KMSN MSN20010714072509307/14/01 07:25:31  5-MIN KMSN 141325Z 29007KT 10SM CLR 22/13 A3010 700 58 1700 290/07 RMK AO2
14837KMSN MSN20010714073009307/14/01 07:30:31  5-MIN KMSN 141330Z 29007KT 10SM CLR 22/13 A3010 700 56 1700 290/07 RMK AO2
14837KMSN MSN20010714073509307/14/01 07:35:31  5-MIN KMSN 141335Z 30005KT 10SM CLR 22/13 A3010 700 58 1700 300/05 RMK AO2
14837KMSN MSN20010714074009307/14/01 07:40:31  5-MIN KMSN 141340Z 30005KT 10SM CLR 22/13 A3010 700 56 1700 300/05 RMK AO2
14837KMSN MSN20010714074509307/14/01 07:45:31  5-MIN KMSN 141345Z VRB05KT 10SM CLR 23/13 A3010 700 55 1800 VRB/05 RMK AO2
14837KMSN MSN20010714075011007/14/01 07:50:31  5-MIN KMSN 141350Z 30007KT 10SM CLR 23/13 A3010 700 55 1800 300/07 RMK AO2 SLP189 T02280133
14837KMSN MSN20010714075509307/14/01 07:55:31  5-MIN KMSN 141355Z 30006KT 10SM CLR 23/13 A3010 700 53 1900 290/06 RMK AO2
14837KMSN MSN20010714080009307/14/01 08:00:31  5-MIN KMSN 141400Z 29007KT 10SM CLR 23/13 A3010 700 53 1900 290/07 RMK AO2
14837KMSN MSN20010714080509307/14/01 08:05:31  5-MIN KMSN 141405Z 30005KT 10SM CLR 23/13 A3010 700 53 1900 300/05 RMK AO2
14837KMSN MSN20010714081009307/14/01 08:10:31  5-MIN KMSN 141410Z 30005KT 10SM CLR 24/13 A3010 700 51 1900 300/05 RMK AO2
14837KMSN MSN20010714081509307/14/01 08:15:31  5-MIN KMSN 141415Z 31004KT 10SM CLR 24/14 A3009 700 53 1900 310/04 RMK AO2
14837KMSN MSN20010714082009307/14/01 08:20:31  5-MIN KMSN 141420Z VRB03KT 10SM CLR 24/14 A3010 700 53 1900 VRB/03 RMK AO2
14837KMSN MSN20010714082509307/14/01 08:25:31  5-MIN KMSN 141425Z 29005KT 10SM CLR 24/14 A3009 700 51 2000 290/05 RMK AO2
14837KMSN MSN20010714083009307/14/01 08:30:31  5-MIN KMSN 141430Z 28004KT 10SM CLR 24/14 A3010 700 51 2000 280/04 RMK AO2
14837KMSN MSN20010714083509307/14/01 08:35:31  5-MIN KMSN 141435Z 29005KT 10SM CLR 25/14 A3010 700 49 2100 290/05 RMK AO2
14837KMSN MSN20010714084009307/14/01 08:40:31  5-MIN KMSN 141440Z 30006KT 10SM CLR 25/13 A3010 700 48 2100 300/06 RMK AO2
14837KMSN MSN20010714084509307/14/01 08:45:31  5-MIN KMSN 141445Z 28006KT 10SM CLR 25/14 A3010 700 49 2100 280/06 RMK AO2
14837KMSN MSN20010714085011607/14/01 08:50:31  5-MIN KMSN 141450Z VRB05KT 10SM CLR 26/14 A3010 700 48 2100 VRB/05 RMK AO2 SLP188 T02560139 50004
14837KMSN MSN20010714085509307/14/01 08:55:31  5-MIN KMSN 141455Z VRB06KT 10SM CLR 26/14 A3010 700 48 2100 VRB/06 RMK AO2
14837KMSN MSN20010714090009307/14/01 09:00:31  5-MIN KMSN 141500Z 27005KT 10SM CLR 26/14 A3010 700 46 2200 270/05 RMK AO2
14837KMSN MSN20010714090509307/14/01 09:05:31  5-MIN KMSN 141505Z VRB05KT 10SM CLR 26/13 A3010 700 44 2200 VRB/05 RMK AO2
14837KMSN MSN20010714091009307/14/01 09:10:31  5-MIN KMSN 141510Z 30007KT 10SM CLR 26/13 A3010 700 43 2200 300/07 RMK AO2
14837KMSN MSN20010714091509307/14/01 09:15:31  5-MIN KMSN 141515Z VRB06KT 10SM CLR 27/13 A3010 700 43 2200 VRB/06 RMK AO2
14837KMSN MSN20010714092009307/14/01 09:20:31  5-MIN KMSN 141520Z 30006KT 10SM CLR 26/13 A3010 700 44 2200 300/06 RMK AO2
14837KMSN MSN20010714092509307/14/01 09:25:31  5-MIN KMSN 141525Z 28006KT 10SM CLR 26/13 A3010 700 44 2200 280/06 RMK AO2
14837KMSN MSN20010714093009307/14/01 09:30:31  5-MIN KMSN 141530Z 29006KT 10SM CLR 26/13 A3010 700 44 2200 290/06 RMK AO2
14837KMSN MSN20010714093509307/14/01 09:35:31  5-MIN KMSN 141535Z 32005KT 10SM CLR 27/13 A3010 700 43 2200 320/05 RMK AO2
14837KMSN MSN20010714094009307/14/01 09:40:31  5-MIN KMSN 141540Z 33005KT 10SM CLR 27/14 A3010 700 43 2300 330/05 RMK AO2
14837KMSN MSN20010714094509307/14/01 09:45:31  5-MIN KMSN 141545Z 34006KT 10SM CLR 27/13 A3010 700 42 2300 340/06 RMK AO2
14837KMSN MSN20010714095011007/14/01 09:50:31  5-MIN KMSN 141550Z 28006KT 10SM CLR 27/13 A3010 700 42 2300 280/06 RMK AO2 SLP187 T02720133
14837KMSN MSN20010714095509307/14/01 09:55:31  5-MIN KMSN 141555Z 30007KT 10SM CLR 27/13 A3010 700 42 2300 300/07 RMK AO2
14837KMSN MSN20010714100009307/14/01 10:00:31  5-MIN KMSN 141600Z 32007KT 10SM CLR 27/13 A3010 700 40 2300 320/07 RMK AO2
14837KMSN MSN20010714100509307/14/01 10:05:31  5-MIN KMSN 141605Z 33008KT 10SM CLR 27/13 A3009 710 40 2300 320/08 RMK AO2
14837KMSN MSN20010714101009307/14/01 10:10:31  5-MIN KMSN 141610Z VRB05KT 10SM CLR 28/13 A3009 710 39 2400 VRB/05 RMK AO2
14837KMSN MSN20010714101509307/14/01 10:15:31  5-MIN KMSN 141615Z VRB05KT 10SM CLR 28/13 A3009 710 39 2400 VRB/05 RMK AO2
14837KMSN MSN20010714102009307/14/01 10:20:31  5-MIN KMSN 141620Z VRB06KT 10SM CLR 28/12 A3009 710 37 2400 VRB/06 RMK AO2
14837KMSN MSN20010714102509307/14/01 10:25:31  5-MIN KMSN 141625Z VRB05KT 10SM CLR 27/12 A3009 710 39 2300 VRB/05 RMK AO2
14837KMSN MSN20010714103009307/14/01 10:30:31  5-MIN KMSN 141630Z 31007KT 10SM CLR 28/12 A3009 710 37 2400 310/07 RMK AO2
14837KMSN MSN20010714103509607/14/01 10:35:31  5-MIN KMSN 141635Z VRB06KT 10SM FEW065 28/12 A3009 710 36 2400 VRB/06 RMK AO2
14837KMSN MSN20010714104009607/14/01 10:40:31  5-MIN KMSN 141640Z 28006KT 10SM FEW065 28/13 A3009 710 37 2400 280/06 RMK AO2
14837KMSN MSN20010714104509607/14/01 10:45:31  5-MIN KMSN 141645Z 29007KT 10SM FEW065 28/12 A3009 710 36 2400 290/07 RMK AO2
14837KMSN MSN20010714105011307/14/01 10:50:31  5-MIN KMSN 141650Z 32008KT 10SM FEW065 28/13 A3009 710 37 2400 310/08 RMK AO2 SLP184 T02830128
14837KMSN MSN20010714105509607/14/01 10:55:31  5-MIN KMSN 141655Z VRB04KT 10SM FEW065 28/12 A3009 710 36 2400 VRB/04 RMK AO2
14837KMSN MSN20010714110009607/14/01 11:00:31  5-MIN KMSN 141700Z 29006KT 10SM FEW065 28/13 A3009 710 39 2400 290/06 RMK AO2
14837KMSN MSN20010714110511207/14/01 11:05:31  5-MIN KMSN 141705Z 33007KT 300V360 10SM FEW065 28/12 A3008 710 36 2400 330/07 300V360 RMK AO2
14837KMSN MSN20010714111011207/14/01 11:10:31  5-MIN KMSN 141710Z 31007KT 280V340 10SM FEW065 29/12 A3008 710 35 2500 310/07 280V340 RMK AO2
14837KMSN MSN20010714111509607/14/01 11:15:31  5-MIN KMSN 141715Z 32006KT 10SM FEW065 28/12 A3008 720 35 2400 320/06 RMK AO2
14837KMSN MSN20010714112009607/14/01 11:20:31  5-MIN KMSN 141720Z VRB06KT 10SM FEW065 29/12 A3008 720 34 2600 VRB/06 RMK AO2
14837KMSN MSN20010714112509607/14/01 11:25:31  5-MIN KMSN 141725Z 32007KT 10SM SCT065 29/12 A3008 720 35 2500 320/07 RMK AO2
14837KMSN MSN20010714113009607/14/01 11:30:31  5-MIN KMSN 141730Z 32007KT 10SM SCT065 28/12 A3007 720 35 2500 320/07 RMK AO2
14837KMSN MSN20010714113509607/14/01 11:35:31  5-MIN KMSN 141735Z VRB05KT 10SM SCT065 28/12 A3008 720 36 2400 VRB/05 RMK AO2
14837KMSN MSN20010714114011207/14/01 11:40:31  5-MIN KMSN 141740Z 31007KT 250V340 10SM SCT065 28/12 A3008 720 35 2500 300/07 250V340 RMK AO2
14837KMSN MSN20010714114509607/14/01 11:45:31  5-MIN KMSN 141745Z VRB03KT 10SM SCT065 29/12 A3008 720 34 2500 VRB/03 RMK AO2
14837KMSN MSN20010714115013107/14/01 11:50:31  5-MIN KMSN 141750Z 02005KT 10SM SCT065 29/12 A3007 730 33 2600 020/05 RMK AO2 SLP179 T02940117 10294 20172 53001
14837KMSN MSN20010714115509607/14/01 11:55:31  5-MIN KMSN 141755Z VRB04KT 10SM SCT065 29/11 A3007 730 31 2600 VRB/04 RMK AO2
14837KMSN MSN20010714120009607/14/01 12:00:31  5-MIN KMSN 141800Z VRB06KT 10SM SCT065 29/12 A3007 730 35 2500 VRB/06 RMK AO2
14837KMSN MSN20010714120509607/14/01 12:05:31  5-MIN KMSN 141805Z VRB05KT 10SM SCT065 29/12 A3007 730 34 2600 VRB/05 RMK AO2
14837KMSN MSN20010714121009607/14/01 12:10:31  5-MIN KMSN 141810Z 34006KT 10SM SCT065 30/12 A3006 730 31 2700 330/06 RMK AO2
14837KMSN MSN20010714121509607/14/01 12:15:31  5-MIN KMSN 141815Z 00000KT 10SM SCT065 29/11 A3006 730 31 2600 000/00 RMK AO2
14837KMSN MSN20010714122009607/14/01 12:20:31  5-MIN KMSN 141820Z VRB05KT 10SM SCT065 29/12 A3006 730 33 2600 VRB/05 RMK AO2
14837KMSN MSN20010714122509607/14/01 12:25:31  5-MIN KMSN 141825Z 26005KT 10SM SCT065 29/12 A3006 740 33 2600 260/05 RMK AO2
14837KMSN MSN20010714123009607/14/01 12:30:31  5-MIN KMSN 141830Z 34007KT 10SM SCT065 29/11 A3006 740 31 2600 340/07 RMK AO2
14837KMSN MSN20010714123509607/14/01 12:35:31  5-MIN KMSN 141835Z 30006KT 10SM SCT065 29/11 A3006 740 31 2600 300/06 RMK AO2
14837KMSN MSN20010714124009607/14/01 12:40:31  5-MIN KMSN 141840Z 26005KT 10SM SCT065 29/11 A3006 740 32 2500 250/05 RMK AO2
14837KMSN MSN20010714124509607/14/01 12:45:31  5-MIN KMSN 141845Z VRB05KT 10SM SCT065 29/11 A3006 740 31 2600 VRB/05 RMK AO2
14837KMSN MSN20010714125011307/14/01 12:50:31  5-MIN KMSN 141850Z 35006KT 10SM SCT065 29/11 A3005 740 32 2500 350/06 RMK AO2 SLP173 T02890111
14837KMSN MSN20010714125509607/14/01 12:55:31  5-MIN KMSN 141855Z 30004KT 10SM SCT065 28/12 A3005 740 35 2500 300/04 RMK AO2
14837KMSN MSN20010714130009607/14/01 13:00:31  5-MIN KMSN 141900Z 30006KT 10SM SCT065 28/12 A3005 740 35 2500 290/06 RMK AO2
14837KMSN MSN20010714130509607/14/01 13:05:31  5-MIN KMSN 141905Z VRB05KT 10SM SCT065 29/11 A3005 740 31 2500 VRB/05 RMK AO2
14837KMSN MSN20010714131009607/14/01 13:10:31  5-MIN KMSN 141910Z 32006KT 10SM SCT065 30/11 A3005 750 30 2700 320/06 RMK AO2
14837KMSN MSN20010714131509607/14/01 13:15:31  5-MIN KMSN 141915Z 30004KT 10SM SCT065 29/11 A3005 750 30 2600 300/04 RMK AO2
14837KMSN MSN20010714132009607/14/01 13:20:31  5-MIN KMSN 141920Z VRB04KT 10SM SCT065 29/11 A3004 750 31 2600 VRB/04 RMK AO2
14837KMSN MSN20010714132509607/14/01 13:25:31  5-MIN KMSN 141925Z 30004KT 10SM SCT065 28/12 A3004 750 36 2400 290/04 RMK AO2
14837KMSN MSN20010714133009607/14/01 13:30:31  5-MIN KMSN 141930Z 00000KT 10SM SCT065 28/12 A3004 750 36 2400 000/00 RMK AO2
14837KMSN MSN20010714133509607/14/01 13:35:31  5-MIN KMSN 141935Z VRB04KT 10SM SCT065 29/11 A3004 750 31 2600 VRB/04 RMK AO2
14837KMSN MSN20010714134009607/14/01 13:40:31  5-MIN KMSN 141940Z VRB05KT 10SM SCT065 28/11 A3004 750 33 2500 VRB/05 RMK AO2
14837KMSN MSN20010714134509607/14/01 13:45:31  5-MIN KMSN 141945Z 30004KT 10SM SCT065 28/11 A3004 750 33 2500 300/04 RMK AO2
14837KMSN MSN20010714135011307/14/01 13:50:31  5-MIN KMSN 141950Z 35005KT 10SM SCT065 29/11 A3004 760 30 2600 350/05 RMK AO2 SLP166 T02940106
14837KMSN MSN20010714135509607/14/01 13:55:31  5-MIN KMSN 141955Z 30006KT 10SM SCT065 31/11 A3004 760 29 2700 300/06 RMK AO2
14837KMSN MSN20010714140009607/14/01 14:00:31  5-MIN KMSN 142000Z VRB04KT 10SM SCT065 30/11 A3003 760 30 2700 VRB/04 RMK AO2
14837KMSN MSN20010714140509607/14/01 14:05:31  5-MIN KMSN 142005Z 32007KT 10SM SCT065 30/11 A3004 760 30 2700 320/07 RMK AO2
14837KMSN MSN20010714141009607/14/01 14:10:31  5-MIN KMSN 142010Z 00000KT 10SM SCT065 30/11 A3004 760 30 2700 000/00 RMK AO2
14837KMSN MSN20010714141509607/14/01 14:15:31  5-MIN KMSN 142015Z VRB05KT 10SM SCT065 29/11 A3004 760 31 2600 VRB/05 RMK AO2
14837KMSN MSN20010714142009607/14/01 14:20:31  5-MIN KMSN 142020Z 00000KT 10SM SCT065 30/11 A3003 760 29 2700 000/00 RMK AO2
14837KMSN MSN20010714142509607/14/01 14:25:31  5-MIN KMSN 142025Z 26007KT 10SM SCT065 30/11 A3003 760 30 2700 260/07 RMK AO2
14837KMSN MSN20010714143009607/14/01 14:30:31  5-MIN KMSN 142030Z VRB04KT 10SM SCT080 29/11 A3003 760 31 2600 VRB/04 RMK AO2
14837KMSN MSN20010714143509607/14/01 14:35:31  5-MIN KMSN 142035Z 34004KT 10SM SCT080 29/11 A3003 760 30 2600 340/04 RMK AO2
14837KMSN MSN20010714144009607/14/01 14:40:31  5-MIN KMSN 142040Z VRB03KT 10SM SCT080 29/11 A3003 770 30 2600 VRB/03 RMK AO2
14837KMSN MSN20010714144509607/14/01 14:45:31  5-MIN KMSN 142045Z 00000KT 10SM SCT080 29/11 A3003 770 30 2600 000/00 RMK AO2
14837KMSN MSN20010714145011907/14/01 14:50:31  5-MIN KMSN 142050Z 32004KT 10SM SCT080 30/11 A3002 770 30 2700 320/04 RMK AO2 SLP163 T03000111 58009
14837KMSN MSN20010714145509607/14/01 14:55:31  5-MIN KMSN 142055Z 36004KT 10SM SCT075 30/11 A3002 770 29 2700 360/04 RMK AO2
14837KMSN MSN20010714150009607/14/01 15:00:31  5-MIN KMSN 142100Z VRB03KT 10SM SCT075 30/11 A3002 770 30 2700 VRB/03 RMK AO2
14837KMSN MSN20010714150509607/14/01 15:05:31  5-MIN KMSN 142105Z VRB04KT 10SM SCT075 31/12 A3002 770 30 2800 VRB/04 RMK AO2
14837KMSN MSN20010714151009607/14/01 15:10:31  5-MIN KMSN 142110Z VRB03KT 10SM SCT075 30/11 A3002 770 29 2700 VRB/03 RMK AO2
14837KMSN MSN20010714151509607/14/01 15:15:31  5-MIN KMSN 142115Z VRB06KT 10SM SCT075 30/11 A3002 770 30 2700 VRB/06 RMK AO2
14837KMSN MSN20010714152009607/14/01 15:20:31  5-MIN KMSN 142120Z VRB04KT 10SM SCT075 29/11 A3002 770 31 2600 VRB/04 RMK AO2
14837KMSN MSN20010714152509607/14/01 15:25:31  5-MIN KMSN 142125Z VRB04KT 10SM SCT075 29/11 A3002 770 31 2600 VRB/04 RMK AO2
14837KMSN MSN20010714153009607/14/01 15:30:31  5-MIN KMSN 142130Z 34004KT 10SM SCT075 30/12 A3002 770 31 2700 340/04 RMK AO2
14837KMSN MSN20010714153509607/14/01 15:35:31  5-MIN KMSN 142135Z VRB03KT 10SM SCT075 29/11 A3002 770 30 2600 VRB/03 RMK AO2
14837KMSN MSN20010714154009607/14/01 15:40:31  5-MIN KMSN 142140Z 29005KT 10SM SCT075 30/11 A3002 780 30 2700 290/05 RMK AO2
14837KMSN MSN20010714154509607/14/01 15:45:31  5-MIN KMSN 142145Z 32005KT 10SM SCT075 30/11 A3002 780 30 2700 320/05 RMK AO2
14837KMSN MSN20010714155011307/14/01 15:50:31  5-MIN KMSN 142150Z VRB03KT 10SM SCT075 30/12 A3002 780 31 2700 VRB/03 RMK AO2 SLP159 T03000117
14837KMSN MSN20010714155509307/14/01 15:55:31  5-MIN KMSN 142155Z VRB04KT 10SM CLR 29/12 A3002 780 33 2600 VRB/04 RMK AO2
14837KMSN MSN20010714160009307/14/01 16:00:31  5-MIN KMSN 142200Z VRB04KT 10SM CLR 30/12 A3002 780 31 2700 VRB/04 RMK AO2
14837KMSN MSN20010714160509607/14/01 16:05:31  5-MIN KMSN 142205Z 00000KT 10SM FEW080 30/11 A3001 780 30 2700 000/00 RMK AO2
14837KMSN MSN20010714161009607/14/01 16:10:31  5-MIN KMSN 142210Z 00000KT 10SM SCT075 30/11 A3002 780 29 2700 000/00 RMK AO2
14837KMSN MSN20010714161509607/14/01 16:15:31  5-MIN KMSN 142215Z 00000KT 10SM SCT075 29/11 A3002 780 31 2600 000/00 RMK AO2
14837KMSN MSN20010714162009607/14/01 16:20:31  5-MIN KMSN 142220Z 00000KT 10SM FEW075 30/12 A3002 780 31 2700 000/00 RMK AO2
14837KMSN MSN20010714162509607/14/01 16:25:31  5-MIN KMSN 142225Z 34004KT 10SM FEW080 30/12 A3001 780 31 2700 340/04 RMK AO2
14837KMSN MSN20010714163009607/14/01 16:30:31  5-MIN KMSN 142230Z VRB05KT 10SM SCT080 29/12 A3001 780 33 2600 VRB/05 RMK AO2
14837KMSN MSN20010714163509607/14/01 16:35:31  5-MIN KMSN 142235Z 24005KT 10SM FEW080 29/12 A3001 780 35 2600 240/05 RMK AO2
14837KMSN MSN20010714164009607/14/01 16:40:31  5-MIN KMSN 142240Z 25006KT 10SM FEW075 29/12 A3001 780 34 2700 250/06 RMK AO2
14837KMSN MSN20010714164509607/14/01 16:45:31  5-MIN KMSN 142245Z VRB05KT 10SM FEW075 29/12 A3001 780 34 2600 VRB/05 RMK AO2
14837KMSN MSN20010714165011307/14/01 16:50:31  5-MIN KMSN 142250Z VRB04KT 10SM SCT075 29/12 A3001 780 35 2600 VRB/04 RMK AO2 SLP158 T02890122
14837KMSN MSN20010714165509607/14/01 16:55:31  5-MIN KMSN 142255Z VRB05KT 10SM FEW075 29/12 A3001 780 34 2600 VRB/05 RMK AO2
14837KMSN MSN20010714170009607/14/01 17:00:31  5-MIN KMSN 142300Z 00000KT 10SM FEW075 29/12 A3001 780 35 2600 000/00 RMK AO2
14837KMSN MSN20010714170509607/14/01 17:05:31  5-MIN KMSN 142305Z 25005KT 10SM FEW075 29/12 A3000 790 35 2600 250/05 RMK AO2
14837KMSN MSN20010714171009307/14/01 17:10:31  5-MIN KMSN 142310Z VRB04KT 10SM CLR 29/12 A3000 790 35 2600 VRB/04 RMK AO2
14837KMSN MSN20010714171509307/14/01 17:15:31  5-MIN KMSN 142315Z 22005KT 10SM CLR 29/12 A3000 790 35 2600 220/05 RMK AO2
14837KMSN MSN20010714172009307/14/01 17:20:31  5-MIN KMSN 142320Z 25003KT 10SM CLR 29/12 A3000 790 35 2600 250/03 RMK AO2
14837KMSN MSN20010714172509307/14/01 17:25:31  5-MIN KMSN 142325Z 29005KT 10SM CLR 29/12 A2999 800 35 2600 290/05 RMK AO2
14837KMSN MSN20010714173009307/14/01 17:30:31  5-MIN KMSN 142330Z VRB04KT 10SM CLR 28/12 A2999 800 36 2500 VRB/04 RMK AO2
14837KMSN MSN20010714173509307/14/01 17:35:31  5-MIN KMSN 142335Z 30005KT 10SM CLR 28/13 A2999 800 37 2600 300/05 RMK AO2
14837KMSN MSN20010714174009307/14/01 17:40:31  5-MIN KMSN 142340Z 00000KT 10SM CLR 29/13 A2999 800 36 2600 000/00 RMK AO2
14837KMSN MSN20010714174509307/14/01 17:45:31  5-MIN KMSN 142345Z VRB03KT 10SM CLR 28/12 A2999 800 36 2600 VRB/03 RMK AO2
14837KMSN MSN20010714175012807/14/01 17:50:31  5-MIN KMSN 142350Z 29003KT 10SM CLR 28/12 A2999 800 36 2600 290/03 RMK AO2 SLP151 T02830122 10306 20272 56016
14837KMSN MSN20010714175509307/14/01 17:55:31  5-MIN KMSN 142355Z 27004KT 10SM CLR 28/12 A2999 800 37 2500 270/04 RMK AO2
14837KMSN MSN20010714180009307/14/01 18:00:31  5-MIN KMSN 150000Z 28005KT 10SM CLR 28/12 A2999 800 36 2500 280/05 RMK AO2
14837KMSN MSN20010714180509307/14/01 18:05:31  5-MIN KMSN 150005Z 26003KT 10SM CLR 28/12 A2999 800 37 2500 260/03 RMK AO2
14837KMSN MSN20010714181009307/14/01 18:10:31  5-MIN KMSN 150010Z 25004KT 10SM CLR 28/12 A2999 800 37 2500 250/04 RMK AO2
14837KMSN MSN20010714181509307/14/01 18:15:31  5-MIN KMSN 150015Z 25003KT 10SM CLR 28/12 A2999 800 37 2500 250/03 RMK AO2
14837KMSN MSN20010714182009307/14/01 18:20:31  5-MIN KMSN 150020Z 27003KT 10SM CLR 28/13 A2999 800 39 2500 270/03 RMK AO2
14837KMSN MSN20010714182509307/14/01 18:25:31  5-MIN KMSN 150025Z 29004KT 10SM CLR 27/13 A2999 800 42 2400 290/04 RMK AO2
14837KMSN MSN20010714183009307/14/01 18:30:31  5-MIN KMSN 150030Z 30003KT 10SM CLR 27/13 A2999 800 42 2400 300/03 RMK AO2
14837KMSN MSN20010714183509307/14/01 18:35:31  5-MIN KMSN 150035Z 29003KT 10SM CLR 27/13 A2999 800 43 2400 280/03 RMK AO2
14837KMSN MSN20010714184009307/14/01 18:40:31  5-MIN KMSN 150040Z 00000KT 10SM CLR 26/14 A2999 800 49 2200 000/00 RMK AO2
14837KMSN MSN20010714184509307/14/01 18:45:31  5-MIN KMSN 150045Z 00000KT 10SM CLR 25/15 A2999 800 53 2200 000/00 RMK AO2
14837KMSN MSN20010714185011307/14/01 18:50:31  5-MIN KMSN 150050Z 00000KT 10SM FEW080 24/15 A2999 800 55 2100 000/00 RMK AO2 SLP151 T02440150
14837KMSN MSN20010714185509307/14/01 18:55:31  5-MIN KMSN 150055Z 00000KT 10SM CLR 24/15 A2999 800 57 2100 000/00 RMK AO2
14837KMSN MSN20010714190009307/14/01 19:00:31  5-MIN KMSN 150100Z 00000KT 10SM CLR 23/15 A2999 800 59 2000 000/00 RMK AO2
14837KMSN MSN20010714190509307/14/01 19:05:31  5-MIN KMSN 150105Z 00000KT 10SM CLR 23/15 A2999 800 59 2000 000/00 RMK AO2
14837KMSN MSN20010714191009307/14/01 19:10:31  5-MIN KMSN 150110Z 00000KT 10SM CLR 23/14 A2999 800 59 1900 000/00 RMK AO2
14837KMSN MSN20010714191509307/14/01 19:15:31  5-MIN KMSN 150115Z 00000KT 10SM CLR 23/14 A2999 800 59 1900 000/00 RMK AO2
14837KMSN MSN20010714192009307/14/01 19:20:31  5-MIN KMSN 150120Z 00000KT 10SM CLR 22/14 A2999 800 61 1900 000/00 RMK AO2
14837KMSN MSN20010714192509307/14/01 19:25:31  5-MIN KMSN 150125Z 00000KT 10SM CLR 22/14 A2999 800 61 1900 000/00 RMK AO2
14837KMSN MSN20010714193009307/14/01 19:30:31  5-MIN KMSN 150130Z 00000KT 10SM CLR 22/14 A2999 800 61 1900 000/00 RMK AO2
14837KMSN MSN20010714193509307/14/01 19:35:31  5-MIN KMSN 150135Z 00000KT 10SM CLR 22/14 A2999 800 63 1800 000/00 RMK AO2
14837KMSN MSN20010714194009307/14/01 19:40:31  5-MIN KMSN 150140Z 00000KT 10SM CLR 22/14 A2999 800 63 1800 000/00 RMK AO2
14837KMSN MSN20010714194509307/14/01 19:45:31  5-MIN KMSN 150145Z 00000KT 10SM CLR 22/14 A2999 800 63 1800 000/00 RMK AO2
14837KMSN MSN20010714195011007/14/01 19:50:31  5-MIN KMSN 150150Z 00000KT 10SM CLR 21/15 A2999 800 68 1700 000/00 RMK AO2 SLP152 T02110150
14837KMSN MSN20010714195509307/14/01 19:55:31  5-MIN KMSN 150155Z 00000KT 10SM CLR 21/14 A2999 800 65 1700 000/00 RMK AO2
14837KMSN MSN20010714200009307/14/01 20:00:31  5-MIN KMSN 150200Z 00000KT 10SM CLR 21/14 A3000 800 67 1700 000/00 RMK AO2
14837KMSN MSN20010714200509307/14/01 20:05:31  5-MIN KMSN 150205Z 00000KT 10SM CLR 21/14 A3000 790 65 1700 000/00 RMK AO2
14837KMSN MSN20010714201009307/14/01 20:10:31  5-MIN KMSN 150210Z 00000KT 10SM CLR 21/14 A3000 790 65 1700 000/00 RMK AO2
14837KMSN MSN20010714201509307/14/01 20:15:31  5-MIN KMSN 150215Z 00000KT 10SM CLR 21/14 A3000 790 65 1700 000/00 RMK AO2
14837KMSN MSN20010714202009307/14/01 20:20:31  5-MIN KMSN 150220Z 00000KT 10SM CLR 21/14 A3000 790 65 1700 000/00 RMK AO2
14837KMSN MSN20010714202509307/14/01 20:25:31  5-MIN KMSN 150225Z 00000KT 10SM CLR 21/14 A3000 790 65 1700 000/00 RMK AO2
14837KMSN MSN20010714203009307/14/01 20:30:31  5-MIN KMSN 150230Z 00000KT 10SM CLR 21/14 A3000 790 65 1700 000/00 RMK AO2
14837KMSN MSN20010714203509307/14/01 20:35:31  5-MIN KMSN 150235Z 00000KT 10SM CLR 21/14 A3000 790 65 1700 000/00 RMK AO2
14837KMSN MSN20010714204009307/14/01 20:40:31  5-MIN KMSN 150240Z 24003KT 10SM CLR 21/14 A3000 790 65 1700 240/03 RMK AO2
14837KMSN MSN20010714204509307/14/01 20:45:31  5-MIN KMSN 150245Z 00000KT 10SM CLR 21/14 A3000 790 63 1700 000/00 RMK AO2
14837KMSN MSN20010714205011607/14/01 20:50:31  5-MIN KMSN 150250Z 00000KT 10SM CLR 20/14 A3001 780 67 1600 000/00 RMK AO2 SLP156 T02000139 58010
14837KMSN MSN20010714205509307/14/01 20:55:31  5-MIN KMSN 150255Z 00000KT 10SM CLR 21/14 A3001 780 65 1700 000/00 RMK AO2
14837KMSN MSN20010714210009307/14/01 21:00:31  5-MIN KMSN 150300Z 00000KT 10SM CLR 20/14 A3001 780 67 1600 000/00 RMK AO2
14837KMSN MSN20010714210509307/14/01 21:05:31  5-MIN KMSN 150305Z 00000KT 10SM CLR 21/14 A3001 780 65 1700 000/00 RMK AO2
14837KMSN MSN20010714211009307/14/01 21:10:31  5-MIN KMSN 150310Z 00000KT 10SM CLR 20/13 A3001 780 65 1600 000/00 RMK AO2
14837KMSN MSN20010714211509307/14/01 21:15:31  5-MIN KMSN 150315Z 00000KT 10SM CLR 21/13 A3001 780 63 1700 000/00 RMK AO2
14837KMSN MSN20010714212009307/14/01 21:20:31  5-MIN KMSN 150320Z 00000KT 10SM CLR 20/14 A3001 780 67 1600 000/00 RMK AO2
14837KMSN MSN20010714212509307/14/01 21:25:31  5-MIN KMSN 150325Z 00000KT 10SM CLR 20/14 A3001 780 67 1600 000/00 RMK AO2
14837KMSN MSN20010714213009307/14/01 21:30:31  5-MIN KMSN 150330Z 00000KT 10SM CLR 19/14 A3001 780 70 1500 000/00 RMK AO2
14837KMSN MSN20010714213509307/14/01 21:35:31  5-MIN KMSN 150335Z 00000KT 10SM CLR 19/14 A3001 780 70 1500 000/00 RMK AO2
14837KMSN MSN20010714214009307/14/01 21:40:31  5-MIN KMSN 150340Z 00000KT 10SM CLR 19/14 A3001 780 70 1500 000/00 RMK AO2
14837KMSN MSN20010714214509307/14/01 21:45:31  5-MIN KMSN 150345Z 00000KT 10SM CLR 19/14 A3001 780 70 1500 000/00 RMK AO2
14837KMSN MSN20010714215011007/14/01 21:50:31  5-MIN KMSN 150350Z 00000KT 10SM CLR 19/14 A3001 780 70 1500 000/00 RMK AO2 SLP157 T01940139
14837KMSN MSN20010714215509307/14/01 21:55:31  5-MIN KMSN 150355Z 00000KT 10SM CLR 20/14 A3001 780 67 1600 000/00 RMK AO2
14837KMSN MSN20010714220009307/14/01 22:00:31  5-MIN KMSN 150400Z 00000KT 10SM CLR 20/14 A3001 780 67 1600 000/00 RMK AO2
14837KMSN MSN20010714220509307/14/01 22:05:31  5-MIN KMSN 150405Z 00000KT 10SM CLR 19/14 A3001 780 70 1500 000/00 RMK AO2
14837KMSN MSN20010714221009307/14/01 22:10:31  5-MIN KMSN 150410Z 00000KT 10SM CLR 19/14 A3001 780 70 1500 000/00 RMK AO2
14837KMSN MSN20010714221509307/14/01 22:15:31  5-MIN KMSN 150415Z 00000KT 10SM CLR 19/14 A3001 780 72 1500 000/00 RMK AO2
14837KMSN MSN20010714222009307/14/01 22:20:31  5-MIN KMSN 150420Z 00000KT 10SM CLR 19/14 A3001 780 70 1500 000/00 RMK AO2
14837KMSN MSN20010714222509307/14/01 22:25:31  5-MIN KMSN 150425Z 00000KT 10SM CLR 19/14 A3001 780 72 1500 000/00 RMK AO2
14837KMSN MSN20010714223009307/14/01 22:30:31  5-MIN KMSN 150430Z 00000KT 10SM CLR 19/14 A3001 780 72 1500 000/00 RMK AO2
14837KMSN MSN20010714223509307/14/01 22:35:31  5-MIN KMSN 150435Z 00000KT 10SM CLR 18/14 A3001 780 75 1400 000/00 RMK AO2
14837KMSN MSN20010714224009307/14/01 22:40:31  5-MIN KMSN 150440Z 00000KT 10SM CLR 18/14 A3001 780 75 1400 000/00 RMK AO2
14837KMSN MSN20010714224509307/14/01 22:45:31  5-MIN KMSN 150445Z 00000KT 10SM CLR 18/14 A3001 780 75 1400 000/00 RMK AO2
14837KMSN MSN20010714225011007/14/01 22:50:31  5-MIN KMSN 150450Z 00000KT 10SM CLR 18/14 A3001 780 75 1400 000/00 RMK AO2 SLP157 T01830139
14837KMSN MSN20010714225509307/14/01 22:55:31  5-MIN KMSN 150455Z 00000KT 10SM CLR 19/14 A3001 780 72 1500 000/00 RMK AO2
14837KMSN MSN20010714230009307/14/01 23:00:31  5-MIN KMSN 150500Z 00000KT 10SM CLR 19/14 A3001 780 72 1500 000/00 RMK AO2
14837KMSN MSN20010714230509307/14/01 23:05:31  5-MIN KMSN 150505Z 00000KT 10SM CLR 18/14 A3001 780 78 1300 000/00 RMK AO2
14837KMSN MSN20010714231009307/14/01 23:10:31  5-MIN KMSN 150510Z 00000KT 10SM CLR 18/14 A3001 780 78 1300 000/00 RMK AO2
14837KMSN MSN20010714231509307/14/01 23:15:31  5-MIN KMSN 150515Z 00000KT 10SM CLR 18/14 A3001 780 78 1300 000/00 RMK AO2
14837KMSN MSN20010714232009307/14/01 23:20:31  5-MIN KMSN 150520Z 00000KT 10SM CLR 18/14 A3002 780 75 1400 000/00 RMK AO2
14837KMSN MSN20010714232509307/14/01 23:25:31  5-MIN KMSN 150525Z 00000KT 10SM CLR 18/14 A3001 780 81 1300 000/00 RMK AO2
14837KMSN MSN20010714233009307/14/01 23:30:31  5-MIN KMSN 150530Z 00000KT 10SM CLR 17/14 A3001 780 80 1300 000/00 RMK AO2
14837KMSN MSN20010714233509307/14/01 23:35:31  5-MIN KMSN 150535Z 00000KT 10SM CLR 18/14 A3001 780 78 1300 000/00 RMK AO2
14837KMSN MSN20010714234009307/14/01 23:40:31  5-MIN KMSN 150540Z 00000KT 10SM CLR 18/14 A3001 780 75 1400 000/00 RMK AO2
14837KMSN MSN20010714234509307/14/01 23:45:31  5-MIN KMSN 150545Z 00000KT 10SM CLR 17/14 A3001 780 80 1300 000/00 RMK AO2
14837KMSN MSN20010714235013807/14/01 23:50:31  5-MIN KMSN 150550Z 00000KT 10SM CLR 17/14 A3001 780 83 1200 000/00 RMK AO2 SLP158 T01670139 10283 20167 403060128 53005
14837KMSN MSN20010714235509307/14/01 23:55:31  5-MIN KMSN 150555Z 00000KT 10SM CLR 17/14 A3001 780 83 1200 000/00 RMK AO2
14837KMSN MSN20010715000009307/15/01 00:00:31  5-MIN KMSN 150600Z 00000KT 10SM CLR 17/14 A3001 780 83 1200 000/00 RMK AO2
14837KMSN MSN20010715000509307/15/01 00:05:31  5-MIN KMSN 150605Z 00000KT 10SM CLR 17/14 A3001 780 83 1200 000/00 RMK AO2
14837KMSN MSN20010715001009307/15/01 00:10:31  5-MIN KMSN 150610Z 00000KT 10SM CLR 16/13 A3001 780 83 1100 000/00 RMK AO2
14837KMSN MSN20010715001509307/15/01 00:15:31  5-MIN KMSN 150615Z 00000KT 10SM CLR 17/13 A3002 780 80 1200 000/00 RMK AO2
14837KMSN MSN20010715002009307/15/01 00:20:31  5-MIN KMSN 150620Z 00000KT 10SM CLR 17/13 A3002 780 80 1200 000/00 RMK AO2
14837KMSN MSN20010715002509307/15/01 00:25:31  5-MIN KMSN 150625Z 00000KT 10SM CLR 18/13 A3001 780 75 1300 000/00 RMK AO2
14837KMSN MSN20010715003009307/15/01 00:30:31  5-MIN KMSN 150630Z 00000KT 10SM CLR 18/13 A3001 780 75 1300 000/00 RMK AO2
14837KMSN MSN20010715003509307/15/01 00:35:31  5-MIN KMSN 150635Z 00000KT 10SM CLR 17/13 A3001 780 78 1300 000/00 RMK AO2
14837KMSN MSN20010715004009307/15/01 00:40:31  5-MIN KMSN 150640Z 00000KT 10SM CLR 17/13 A3001 780 78 1300 000/00 RMK AO2
14837KMSN MSN20010715004509307/15/01 00:45:31  5-MIN KMSN 150645Z 00000KT 10SM CLR 17/13 A3001 780 78 1300 000/00 RMK AO2
14837KMSN MSN20010715005011007/15/01 00:50:31  5-MIN KMSN 150650Z 00000KT 10SM CLR 18/13 A3001 780 75 1300 000/00 RMK AO2 SLP158 T01780133
14837KMSN MSN20010715005509307/15/01 00:55:31  5-MIN KMSN 150655Z 00000KT 10SM CLR 18/13 A3001 780 75 1300 000/00 RMK AO2
14837KMSN MSN20010715010009307/15/01 01:00:31  5-MIN KMSN 150700Z 00000KT 10SM CLR 18/13 A3001 780 75 1300 000/00 RMK AO2
14837KMSN MSN20010715010509307/15/01 01:05:31  5-MIN KMSN 150705Z VRB03KT 10SM CLR 19/13 A3001 780 70 1500 VRB/03 RMK AO2
14837KMSN MSN20010715011009307/15/01 01:10:31  5-MIN KMSN 150710Z 00000KT 10SM CLR 19/13 A3001 790 65 1500 000/00 RMK AO2
14837KMSN MSN20010715011509307/15/01 01:15:31  5-MIN KMSN 150715Z 00000KT 10SM CLR 18/13 A3001 780 70 1400 000/00 RMK AO2
14837KMSN MSN20010715012009307/15/01 01:20:31  5-MIN KMSN 150720Z 00000KT 10SM CLR 19/13 A3000 790 67 1500 000/00 RMK AO2
14837KMSN MSN20010715012509307/15/01 01:25:31  5-MIN KMSN 150725Z 00000KT 10SM CLR 18/13 A3000 790 70 1400 000/00 RMK AO2
14837KMSN MSN20010715013009307/15/01 01:30:31  5-MIN KMSN 150730Z 00000KT 10SM CLR 18/13 A3000 790 72 1300 000/00 RMK AO2
14837KMSN MSN20010715013509307/15/01 01:35:31  5-MIN KMSN 150735Z 00000KT 10SM CLR 18/13 A3000 790 72 1300 000/00 RMK AO2
14837KMSN MSN20010715014009307/15/01 01:40:31  5-MIN KMSN 150740Z 00000KT 10SM CLR 18/13 A3001 790 72 1300 000/00 RMK AO2
14837KMSN MSN20010715014509307/15/01 01:45:31  5-MIN KMSN 150745Z 00000KT 10SM CLR 17/13 A3000 790 75 1300 000/00 RMK AO2
14837KMSN MSN20010715015011007/15/01 01:50:31  5-MIN KMSN 150750Z 00000KT 10SM CLR 17/13 A3000 790 75 1300 000/00 RMK AO2 SLP155 T01720128
14837KMSN MSN20010715015509307/15/01 01:55:31  5-MIN KMSN 150755Z 00000KT 10SM CLR 17/13 A3001 790 75 1300 000/00 RMK AO2
14837KMSN MSN20010715020009307/15/01 02:00:31  5-MIN KMSN 150800Z 00000KT 10SM CLR 17/13 A3001 790 75 1300 000/00 RMK AO2
14837KMSN MSN20010715020509307/15/01 02:05:31  5-MIN KMSN 150805Z 00000KT 10SM CLR 17/13 A3000 790 77 1200 000/00 RMK AO2
14837KMSN MSN20010715021009307/15/01 02:10:31  5-MIN KMSN 150810Z 00000KT 10SM CLR 17/13 A3000 790 77 1200 000/00 RMK AO2
14837KMSN MSN20010715021509307/15/01 02:15:31  5-MIN KMSN 150815Z 00000KT 10SM CLR 17/13 A3000 790 75 1300 000/00 RMK AO2
14837KMSN MSN20010715022009307/15/01 02:20:31  5-MIN KMSN 150820Z 00000KT 10SM CLR 17/13 A3000 790 75 1300 000/00 RMK AO2
14837KMSN MSN20010715022509307/15/01 02:25:31  5-MIN KMSN 150825Z 00000KT 10SM CLR 17/13 A3000 790 75 1300 000/00 RMK AO2
14837KMSN MSN20010715023009307/15/01 02:30:31  5-MIN KMSN 150830Z 00000KT 10SM CLR 17/13 A3001 790 75 1300 000/00 RMK AO2
14837KMSN MSN20010715023509307/15/01 02:35:31  5-MIN KMSN 150835Z 00000KT 10SM CLR 17/13 A3001 790 77 1200 000/00 RMK AO2
14837KMSN MSN20010715024009307/15/01 02:40:31  5-MIN KMSN 150840Z 00000KT 10SM CLR 16/13 A3001 780 80 1100 000/00 RMK AO2
14837KMSN MSN20010715024509307/15/01 02:45:31  5-MIN KMSN 150845Z 00000KT 10SM CLR 17/13 A3000 790 77 1200 000/00 RMK AO2
14837KMSN MSN20010715025011607/15/01 02:50:31  5-MIN KMSN 150850Z 00000KT 10SM CLR 16/13 A3000 790 80 1100 000/00 RMK AO2 SLP155 T01610128 51002
14837KMSN MSN20010715025509307/15/01 02:55:31  5-MIN KMSN 150855Z 00000KT 10SM CLR 17/13 A3000 790 77 1200 000/00 RMK AO2
14837KMSN MSN20010715030009307/15/01 03:00:31  5-MIN KMSN 150900Z 00000KT 10SM CLR 17/13 A3000 790 75 1300 000/00 RMK AO2
14837KMSN MSN20010715030509307/15/01 03:05:31  5-MIN KMSN 150905Z 00000KT 10SM CLR 16/13 A3000 790 83 1100 000/00 RMK AO2
14837KMSN MSN20010715031009307/15/01 03:10:31  5-MIN KMSN 150910Z 00000KT 10SM CLR 16/13 A3000 790 80 1100 000/00 RMK AO2
14837KMSN MSN20010715031509307/15/01 03:15:31  5-MIN KMSN 150915Z 00000KT 10SM CLR 16/13 A3000 790 80 1100 000/00 RMK AO2
14837KMSN MSN20010715032009307/15/01 03:20:31  5-MIN KMSN 150920Z 00000KT 10SM CLR 16/13 A3000 790 83 1100 000/00 RMK AO2
14837KMSN MSN20010715032509307/15/01 03:25:31  5-MIN KMSN 150925Z 00000KT 10SM CLR 16/13 A3001 790 83 1100 000/00 RMK AO2
14837KMSN MSN20010715033009307/15/01 03:30:31  5-MIN KMSN 150930Z 00000KT 10SM CLR 16/13 A3001 780 83 1100 000/00 RMK AO2
14837KMSN MSN20010715033509307/15/01 03:35:31  5-MIN KMSN 150935Z 00000KT 10SM CLR 16/13 A3001 780 83 1100 000/00 RMK AO2
14837KMSN MSN20010715034009307/15/01 03:40:31  5-MIN KMSN 150940Z 00000KT 10SM CLR 16/13 A3001 780 83 1100 000/00 RMK AO2
14837KMSN MSN20010715034509307/15/01 03:45:31  5-MIN KMSN 150945Z 00000KT 10SM CLR 15/13 A3001 780 86 1000 000/00 RMK AO2
14837KMSN MSN20010715035011007/15/01 03:50:31  5-MIN KMSN 150950Z 00000KT 10SM CLR 16/13 A3001 780 86 1100 000/00 RMK AO2 SLP157 T01560133
14837KMSN MSN20010715035509307/15/01 03:55:31  5-MIN KMSN 150955Z 00000KT 10SM CLR 15/13 A3001 780 86 1000 000/00 RMK AO2
14837KMSN MSN20010715040009307/15/01 04:00:31  5-MIN KMSN 151000Z 00000KT 10SM CLR 15/13 A3001 780 86 1000 000/00 RMK AO2
14837KMSN MSN20010715040509307/15/01 04:05:31  5-MIN KMSN 151005Z 00000KT 10SM CLR 16/13 A3001 780 83 1100 000/00 RMK AO2
14837KMSN MSN20010715041009307/15/01 04:10:31  5-MIN KMSN 151010Z 00000KT 10SM CLR 16/13 A3001 780 83 1100 000/00 RMK AO2
14837KMSN MSN20010715041509307/15/01 04:15:31  5-MIN KMSN 151015Z 00000KT 10SM CLR 16/13 A3001 780 83 1100 000/00 RMK AO2
14837KMSN MSN20010715042009307/15/01 04:20:31  5-MIN KMSN 151020Z 00000KT 10SM CLR 16/13 A3001 780 86 1100 000/00 RMK AO2
14837KMSN MSN20010715042509307/15/01 04:25:31  5-MIN KMSN 151025Z 00000KT 10SM CLR 15/13 A3002 780 86 1000 000/00 RMK AO2
14837KMSN MSN20010715043009307/15/01 04:30:31  5-MIN KMSN 151030Z 00000KT 10SM CLR 15/13 A3002 780 86 1000 000/00 RMK AO2
14837KMSN MSN20010715043509207/15/01 04:35:31  5-MIN KMSN 151035Z 00000KT 10SM CLR 14/13 A3002 780 90 900 000/00 RMK AO2
14837KMSN MSN20010715044009207/15/01 04:40:31  5-MIN KMSN 151040Z 00000KT 10SM CLR 14/13 A3002 770 90 900 000/00 RMK AO2
14837KMSN MSN20010715044509207/15/01 04:45:31  5-MIN KMSN 151045Z 00000KT 10SM CLR 14/13 A3002 770 93 900 000/00 RMK AO2
14837KMSN MSN20010715045011007/15/01 04:50:31  5-MIN KMSN 151050Z 00000KT 10SM CLR 15/13 A3002 770 86 1000 000/00 RMK AO2 SLP162 T01500128
14837KMSN MSN20010715045509207/15/01 04:55:31  5-MIN KMSN 151055Z 00000KT 10SM CLR 14/13 A3002 770 90 900 000/00 RMK AO2
14837KMSN MSN20010715050009207/15/01 05:00:31  5-MIN KMSN 151100Z 00000KT 10SM CLR 14/13 A3002 770 90 900 000/00 RMK AO2
14837KMSN MSN20010715050509207/15/01 05:05:31  5-MIN KMSN 151105Z 00000KT 10SM CLR 14/13 A3003 770 90 900 000/00 RMK AO2
14837KMSN MSN20010715051009207/15/01 05:10:31  5-MIN KMSN 151110Z 00000KT 10SM CLR 14/13 A3003 760 90 900 000/00 RMK AO2
14837KMSN MSN20010715051509307/15/01 05:15:31  5-MIN KMSN 151115Z 00000KT 10SM CLR 15/13 A3003 770 86 1000 000/00 RMK AO2
14837KMSN MSN20010715052009307/15/01 05:20:31  5-MIN KMSN 151120Z 00000KT 10SM CLR 15/13 A3003 760 90 1000 000/00 RMK AO2
14837KMSN MSN20010715052509307/15/01 05:25:31  5-MIN KMSN 151125Z 00000KT 10SM CLR 16/13 A3003 760 86 1000 000/00 RMK AO2
14837KMSN MSN20010715053009307/15/01 05:30:31  5-MIN KMSN 151130Z 00000KT 10SM CLR 15/13 A3003 760 90 1000 000/00 RMK AO2
14837KMSN MSN20010715053509307/15/01 05:35:31  5-MIN KMSN 151135Z 00000KT 10SM CLR 16/13 A3004 760 86 1000 000/00 RMK AO2
14837KMSN MSN20010715054009307/15/01 05:40:31  5-MIN KMSN 151140Z 00000KT 10SM CLR 16/14 A3004 760 86 1100 000/00 RMK AO2
14837KMSN MSN20010715054509307/15/01 05:45:31  5-MIN KMSN 151145Z 00000KT 10SM CLR 17/14 A3004 760 86 1200 000/00 RMK AO2
14837KMSN MSN20010715055012807/15/01 05:50:31  5-MIN KMSN 151150Z 00000KT 10SM CLR 17/14 A3003 760 80 1200 000/00 RMK AO2 SLP165 T01720139 10194 20139 56003
14837KMSN MSN20010715055509307/15/01 05:55:31  5-MIN KMSN 151155Z 00000KT 10SM CLR 18/14 A3003 760 78 1300 000/00 RMK AO2
14837KMSN MSN20010715060009307/15/01 06:00:31  5-MIN KMSN 151200Z 00000KT 10SM CLR 18/14 A3003 760 75 1400 000/00 RMK AO2
14837KMSN MSN20010715060509307/15/01 06:05:31  5-MIN KMSN 151205Z 00000KT 10SM CLR 19/14 A3003 760 75 1400 000/00 RMK AO2
14837KMSN MSN20010715061009307/15/01 06:10:31  5-MIN KMSN 151210Z 00000KT 10SM CLR 19/14 A3003 760 72 1500 000/00 RMK AO2
14837KMSN MSN20010715061509307/15/01 06:15:31  5-MIN KMSN 151215Z 00000KT 10SM CLR 19/14 A3003 760 72 1500 000/00 RMK AO2
14837KMSN MSN20010715062009307/15/01 06:20:31  5-MIN KMSN 151220Z 00000KT 10SM CLR 20/15 A3003 760 72 1600 000/00 RMK AO2
14837KMSN MSN20010715062509307/15/01 06:25:31  5-MIN KMSN 151225Z 00000KT 10SM CLR 21/15 A3003 760 68 1700 000/00 RMK AO2
14837KMSN MSN20010715063009307/15/01 06:30:31  5-MIN KMSN 151230Z 00000KT 10SM CLR 21/15 A3003 760 68 1700 000/00 RMK AO2
14837KMSN MSN20010715063509307/15/01 06:35:31  5-MIN KMSN 151235Z 00000KT 10SM CLR 22/15 A3003 760 65 1800 000/00 RMK AO2
14837KMSN MSN20010715064009307/15/01 06:40:31  5-MIN KMSN 151240Z 00000KT 10SM CLR 22/15 A3003 760 65 1800 000/00 RMK AO2
14837KMSN MSN20010715064509307/15/01 06:45:31  5-MIN KMSN 151245Z 00000KT 10SM CLR 22/15 A3003 760 63 1800 000/00 RMK AO2
14837KMSN MSN20010715065011007/15/01 06:50:31  5-MIN KMSN 151250Z VRB03KT 10SM CLR 22/15 A3004 760 63 1800 VRB/03 RMK AO2 SLP166 T02220150
14837KMSN MSN20010715065509307/15/01 06:55:31  5-MIN KMSN 151255Z VRB03KT 10SM CLR 23/16 A3004 760 63 1900 VRB/03 RMK AO2
14837KMSN MSN20010715070009307/15/01 07:00:31  5-MIN KMSN 151300Z VRB04KT 10SM CLR 23/15 A3004 750 61 1900 VRB/04 RMK AO2
14837KMSN MSN20010715070509307/15/01 07:05:31  5-MIN KMSN 151305Z VRB05KT 10SM CLR 23/14 A3004 750 59 1900 VRB/05 RMK AO2
14837KMSN MSN20010715071009307/15/01 07:10:31  5-MIN KMSN 151310Z 00000KT 10SM CLR 23/14 A3004 750 59 1900 000/00 RMK AO2
14837KMSN MSN20010715071509307/15/01 07:15:31  5-MIN KMSN 151315Z VRB04KT 10SM CLR 23/14 A3004 750 57 1900 VRB/04 RMK AO2
14837KMSN MSN20010715072009307/15/01 07:20:31  5-MIN KMSN 151320Z VRB04KT 10SM CLR 23/14 A3004 750 55 1900 VRB/04 RMK AO2
14837KMSN MSN20010715072509307/15/01 07:25:31  5-MIN KMSN 151325Z 22005KT 10SM CLR 23/14 A3004 750 55 1900 220/05 RMK AO2
14837KMSN MSN20010715073009307/15/01 07:30:31  5-MIN KMSN 151330Z 23004KT 10SM CLR 24/14 A3004 750 55 2000 230/04 RMK AO2
14837KMSN MSN20010715073509307/15/01 07:35:31  5-MIN KMSN 151335Z VRB04KT 10SM CLR 24/14 A3005 750 55 2000 VRB/04 RMK AO2
14837KMSN MSN20010715074009307/15/01 07:40:31  5-MIN KMSN 151340Z 22005KT 10SM CLR 24/14 A3004 750 55 2000 220/05 RMK AO2
14837KMSN MSN20010715074509307/15/01 07:45:31  5-MIN KMSN 151345Z VRB05KT 10SM CLR 24/14 A3004 750 55 2000 VRB/05 RMK AO2
14837KMSN MSN20010715075011007/15/01 07:50:31  5-MIN KMSN 151350Z VRB04KT 10SM CLR 24/14 A3004 750 53 2000 VRB/04 RMK AO2 SLP168 T02390139
14837KMSN MSN20010715075509307/15/01 07:55:31  5-MIN KMSN 151355Z VRB06KT 10SM CLR 24/14 A3004 750 53 2100 VRB/06 RMK AO2
14837KMSN MSN20010715080009307/15/01 08:00:31  5-MIN KMSN 151400Z 23004KT 10SM CLR 24/14 A3004 750 51 2100 220/04 RMK AO2
14837KMSN MSN20010715080509307/15/01 08:05:31  5-MIN KMSN 151405Z 22004KT 10SM CLR 24/14 A3004 750 51 2100 220/04 RMK AO2
14837KMSN MSN20010715081009307/15/01 08:10:31  5-MIN KMSN 151410Z 22007KT 10SM CLR 25/13 A3004 750 48 2100 220/07 RMK AO2
14837KMSN MSN20010715081509307/15/01 08:15:31  5-MIN KMSN 151415Z 23007KT 10SM CLR 25/13 A3004 750 48 2100 230/07 RMK AO2
14837KMSN MSN20010715082009307/15/01 08:20:31  5-MIN KMSN 151420Z VRB05KT 10SM CLR 25/13 A3004 750 48 2100 VRB/05 RMK AO2
14837KMSN MSN20010715082509307/15/01 08:25:31  5-MIN KMSN 151425Z 22007KT 10SM CLR 26/13 A3004 750 44 2200 220/07 RMK AO2
14837KMSN MSN20010715083009307/15/01 08:30:31  5-MIN KMSN 151430Z VRB06KT 10SM CLR 26/13 A3004 750 46 2200 VRB/06 RMK AO2
14837KMSN MSN20010715083509307/15/01 08:35:31  5-MIN KMSN 151435Z VRB05KT 10SM CLR 26/13 A3004 750 46 2200 VRB/05 RMK AO2
14837KMSN MSN20010715084009307/15/01 08:40:31  5-MIN KMSN 151440Z 22005KT 10SM CLR 26/13 A3004 760 46 2200 220/05 RMK AO2
14837KMSN MSN20010715084509307/15/01 08:45:31  5-MIN KMSN 151445Z 23005KT 10SM CLR 26/13 A3004 760 44 2200 230/05 RMK AO2
14837KMSN MSN20010715085011607/15/01 08:50:31  5-MIN KMSN 151450Z 23005KT 10SM CLR 26/13 A3003 760 43 2300 220/05 RMK AO2 SLP165 T02610128 53010
14837KMSN MSN20010715085509307/15/01 08:55:31  5-MIN KMSN 151455Z 22006KT 10SM CLR 26/13 A3003 760 43 2300 220/06 RMK AO2
14837KMSN MSN20010715090009307/15/01 09:00:31  5-MIN KMSN 151500Z VRB04KT 10SM CLR 27/13 A3003 760 43 2300 VRB/04 RMK AO2
14837KMSN MSN20010715090509307/15/01 09:05:31  5-MIN KMSN 151505Z 22007KT 10SM CLR 26/13 A3003 760 43 2300 220/07 RMK AO2
14837KMSN MSN20010715091009307/15/01 09:10:31  5-MIN KMSN 151510Z 21006KT 10SM CLR 26/13 A3003 760 43 2300 210/06 RMK AO2
14837KMSN MSN20010715091510907/15/01 09:15:31  5-MIN KMSN 151515Z 23007KT 200V270 10SM CLR 27/13 A3003 770 41 2300 230/07 200V270 RMK AO2
14837KMSN MSN20010715092009307/15/01 09:20:31  5-MIN KMSN 151520Z 23008KT 10SM CLR 27/13 A3002 770 41 2300 230/08 RMK AO2
14837KMSN MSN20010715092509307/15/01 09:25:31  5-MIN KMSN 151525Z VRB06KT 10SM CLR 27/13 A3002 770 41 2300 VRB/06 RMK AO2
14837KMSN MSN20010715093009307/15/01 09:30:31  5-MIN KMSN 151530Z VRB05KT 10SM CLR 27/13 A3002 770 42 2400 VRB/05 RMK AO2
14837KMSN MSN20010715093509307/15/01 09:35:31  5-MIN KMSN 151535Z VRB05KT 10SM CLR 27/13 A3002 770 40 2400 VRB/05 RMK AO2
14837KMSN MSN20010715094009307/15/01 09:40:31  5-MIN KMSN 151540Z 22007KT 10SM CLR 28/13 A3002 770 40 2500 220/07 RMK AO2
14837KMSN MSN20010715094509307/15/01 09:45:31  5-MIN KMSN 151545Z VRB05KT 10SM CLR 27/13 A3002 770 40 2400 VRB/05 RMK AO2
14837KMSN MSN20010715095011007/15/01 09:50:31  5-MIN KMSN 151550Z 24008KT 10SM CLR 27/13 A3002 770 40 2400 240/08 RMK AO2 SLP160 T02720128
14837KMSN MSN20010715095509307/15/01 09:55:31  5-MIN KMSN 151555Z 23008KT 10SM CLR 28/12 A3002 770 37 2500 230/08 RMK AO2
14837KMSN MSN20010715100010907/15/01 10:00:31  5-MIN KMSN 151600Z 21007KT 180V240 10SM CLR 28/12 A3002 780 36 2500 210/07 180V240 RMK AO2
14837KMSN MSN20010715100509307/15/01 10:05:31  5-MIN KMSN 151605Z VRB05KT 10SM CLR 28/13 A3002 780 39 2500 VRB/05 RMK AO2
14837KMSN MSN20010715101009307/15/01 10:10:31  5-MIN KMSN 151610Z 19009KT 10SM CLR 28/12 A3002 780 37 2500 190/09 RMK AO2
14837KMSN MSN20010715101509307/15/01 10:15:31  5-MIN KMSN 151615Z VRB06KT 10SM CLR 28/12 A3001 780 37 2500 VRB/06 RMK AO2
14837KMSN MSN20010715102009307/15/01 10:20:31  5-MIN KMSN 151620Z 22007KT 10SM CLR 28/13 A3002 780 39 2500 220/07 RMK AO2
14837KMSN MSN20010715102509307/15/01 10:25:31  5-MIN KMSN 151625Z 20006KT 10SM CLR 28/12 A3002 780 36 2500 200/06 RMK AO2
14837KMSN MSN20010715103009307/15/01 10:30:31  5-MIN KMSN 151630Z 20008KT 10SM CLR 28/12 A3001 780 35 2500 200/08 RMK AO2
14837KMSN MSN20010715103509307/15/01 10:35:31  5-MIN KMSN 151635Z 23008KT 10SM CLR 28/12 A3001 780 36 2500 230/08 RMK AO2
14837KMSN MSN20010715104009607/15/01 10:40:31  5-MIN KMSN 151640Z VRB06KT 10SM FEW060 28/12 A3001 780 37 2500 VRB/06 RMK AO2
14837KMSN MSN20010715104510207/15/01 10:45:31  5-MIN KMSN 151645Z 20010G14KT 10SM FEW060 27/12 A3001 780 37 2400 200/10G14 RMK AO2
14837KMSN MSN20010715105011907/15/01 10:50:31  5-MIN KMSN 151650Z 21009G14KT 10SM FEW060 27/12 A3001 780 37 2400 210/09G14 RMK AO2 SLP157 T02720117
14837KMSN MSN20010715105511207/15/01 10:55:31  5-MIN KMSN 151655Z 19008KT 170V240 10SM FEW060 28/12 A3001 780 35 2500 190/08 170V240 RMK AO2
14837KMSN MSN20010715110009607/15/01 11:00:31  5-MIN KMSN 151700Z 22006KT 10SM FEW060 28/12 A3001 780 36 2500 220/06 RMK AO2
14837KMSN MSN20010715110511207/15/01 11:05:31  5-MIN KMSN 151705Z 25008KT 190V270 10SM FEW060 28/12 A3001 790 37 2500 250/08 190V270 RMK AO2
14837KMSN MSN20010715111011207/15/01 11:10:31  5-MIN KMSN 151710Z 22008KT 180V250 10SM FEW060 28/12 A3000 790 37 2500 220/08 180V250 RMK AO2
14837KMSN MSN20010715111511207/15/01 11:15:31  5-MIN KMSN 151715Z 22008KT 180V260 10SM FEW060 29/12 A3000 790 35 2600 220/08 180V260 RMK AO2
14837KMSN MSN20010715112009607/15/01 11:20:31  5-MIN KMSN 151720Z 21010KT 10SM FEW060 28/12 A3000 790 35 2500 210/10 RMK AO2
14837KMSN MSN20010715112509607/15/01 11:25:31  5-MIN KMSN 151725Z 21008KT 10SM FEW060 28/12 A3000 790 36 2500 210/08 RMK AO2
14837KMSN MSN20010715113011207/15/01 11:30:31  5-MIN KMSN 151730Z 20008KT 170V240 10SM FEW060 29/11 A3000 790 32 2600 200/08 170V240 RMK AO2
14837KMSN MSN20010715113509607/15/01 11:35:31  5-MIN KMSN 151735Z 22008KT 10SM FEW060 28/12 A3000 790 35 2500 220/08 RMK AO2
14837KMSN MSN20010715114009607/15/01 11:40:31  5-MIN KMSN 151740Z VRB06KT 10SM FEW060 28/12 A3000 790 36 2500 VRB/06 RMK AO2
14837KMSN MSN20010715114509607/15/01 11:45:31  5-MIN KMSN 151745Z VRB06KT 10SM FEW060 28/12 A3000 790 36 2500 VRB/06 RMK AO2
14837KMSN MSN20010715115013107/15/01 11:50:31  5-MIN KMSN 151750Z 20007KT 10SM FEW060 28/12 A3000 790 35 2500 200/07 RMK AO2 SLP152 T02830117 10289 20178 50000
14837KMSN MSN20010715115509607/15/01 11:55:31  5-MIN KMSN 151755Z 23008KT 10SM FEW060 28/12 A3000 790 35 2500 220/08 RMK AO2
14837KMSN MSN20010715120009607/15/01 12:00:31  5-MIN KMSN 151800Z 21009KT 10SM FEW060 29/12 A2999 800 34 2600 210/09 RMK AO2
14837KMSN MSN20010715120509607/15/01 12:05:31  5-MIN KMSN 151805Z 25006KT 10SM FEW060 29/12 A2999 800 34 2600 240/06 RMK AO2
14837KMSN MSN20010715121010207/15/01 12:10:31  5-MIN KMSN 151810Z 20010G17KT 10SM FEW060 29/11 A2999 800 32 2600 200/10G17 RMK AO2
14837KMSN MSN20010715121510207/15/01 12:15:31  5-MIN KMSN 151815Z 20010G17KT 10SM FEW060 29/11 A2999 800 31 2600 200/10G17 RMK AO2
14837KMSN MSN20010715122009607/15/01 12:20:31  5-MIN KMSN 151820Z 22008KT 10SM FEW060 29/11 A2999 800 31 2600 220/08 RMK AO2
14837KMSN MSN20010715122509607/15/01 12:25:31  5-MIN KMSN 151825Z 20009KT 10SM FEW060 28/11 A2999 800 33 2500 200/09 RMK AO2
14837KMSN MSN20010715123009607/15/01 12:30:31  5-MIN KMSN 151830Z 19009KT 10SM FEW060 29/11 A2999 800 31 2700 190/09 RMK AO2
14837KMSN MSN20010715123509607/15/01 12:35:31  5-MIN KMSN 151835Z 22008KT 10SM FEW060 29/11 A2999 800 31 2700 220/08 RMK AO2
14837KMSN MSN20010715124009607/15/01 12:40:31  5-MIN KMSN 151840Z 22009KT 10SM FEW060 29/11 A2999 800 32 2600 220/09 RMK AO2
14837KMSN MSN20010715124509607/15/01 12:45:31  5-MIN KMSN 151845Z 22009KT 10SM FEW060 29/12 A2999 800 34 2600 220/09 RMK AO2
14837KMSN MSN20010715125011307/15/01 12:50:31  5-MIN KMSN 151850Z 18009KT 10SM FEW060 29/12 A2999 800 33 2700 180/09 RMK AO2 SLP151 T02940117
14837KMSN MSN20010715125510907/15/01 12:55:31  5-MIN KMSN 151855Z 21007KT 180V250 10SM CLR 30/12 A2999 800 33 2700 210/07 180V250 RMK AO2
14837KMSN MSN20010715130010907/15/01 13:00:31  5-MIN KMSN 151900Z 23007KT 190V270 10SM CLR 30/12 A2999 800 31 2700 230/07 190V270 RMK AO2
14837KMSN MSN20010715130509607/15/01 13:05:31  5-MIN KMSN 151905Z 21007KT 10SM FEW065 30/12 A2999 800 33 2700 210/07 RMK AO2
14837KMSN MSN20010715131009607/15/01 13:10:31  5-MIN KMSN 151910Z 22008KT 10SM FEW065 29/12 A2999 800 33 2700 220/08 RMK AO2
14837KMSN MSN20010715131509607/15/01 13:15:31  5-MIN KMSN 151915Z 23006KT 10SM FEW065 29/12 A2999 800 33 2700 230/06 RMK AO2
14837KMSN MSN20010715132009607/15/01 13:20:31  5-MIN KMSN 151920Z 22007KT 10SM FEW065 29/12 A2999 800 34 2700 220/07 RMK AO2
14837KMSN MSN20010715132509607/15/01 13:25:31  5-MIN KMSN 151925Z 23008KT 10SM FEW065 29/13 A2999 800 35 2700 230/08 RMK AO2
14837KMSN MSN20010715133009607/15/01 13:30:31  5-MIN KMSN 151930Z 22008KT 10SM FEW065 29/12 A2999 800 34 2700 220/08 RMK AO2
14837KMSN MSN20010715133509607/15/01 13:35:31  5-MIN KMSN 151935Z 25008KT 10SM FEW065 29/13 A2999 800 36 2600 240/08 RMK AO2
14837KMSN MSN20010715134009607/15/01 13:40:31  5-MIN KMSN 151940Z 20007KT 10SM FEW065 29/12 A2998 810 34 2700 200/07 RMK AO2
14837KMSN MSN20010715134509607/15/01 13:45:31  5-MIN KMSN 151945Z 23008KT 10SM FEW065 29/13 A2998 800 35 2700 220/08 RMK AO2
14837KMSN MSN20010715135011307/15/01 13:50:31  5-MIN KMSN 151950Z 23008KT 10SM FEW070 29/13 A2998 810 36 2600 230/08 RMK AO2 SLP148 T02890128
14837KMSN MSN20010715135509607/15/01 13:55:31  5-MIN KMSN 151955Z 23005KT 10SM FEW070 29/14 A2998 810 39 2600 230/05 RMK AO2
14837KMSN MSN20010715140011207/15/01 14:00:31  5-MIN KMSN 152000Z 22007KT 180V250 10SM FEW070 29/13 A2998 810 38 2600 220/07 180V250 RMK AO2
14837KMSN MSN20010715140509607/15/01 14:05:31  5-MIN KMSN 152005Z VRB06KT 10SM FEW070 29/13 A2998 810 36 2700 VRB/06 RMK AO2
14837KMSN MSN20010715141009607/15/01 14:10:31  5-MIN KMSN 152010Z 26006KT 10SM FEW070 29/13 A2998 810 35 2700 260/06 RMK AO2
14837KMSN MSN20010715141509607/15/01 14:15:31  5-MIN KMSN 152015Z 23008KT 10SM FEW070 29/13 A2997 810 36 2700 230/08 RMK AO2
14837KMSN MSN20010715142009607/15/01 14:20:31  5-MIN KMSN 152020Z 21007KT 10SM FEW070 30/13 A2998 810 34 2800 210/07 RMK AO2
14837KMSN MSN20010715142509607/15/01 14:25:31  5-MIN KMSN 152025Z VRB05KT 10SM FEW070 29/13 A2997 810 35 2700 VRB/05 RMK AO2
14837KMSN MSN20010715143011207/15/01 14:30:31  5-MIN KMSN 152030Z 24007KT 210V280 10SM FEW070 30/13 A2998 810 34 2800 240/07 210V280 RMK AO2
14837KMSN MSN20010715143509607/15/01 14:35:31  5-MIN KMSN 152035Z VRB06KT 10SM FEW070 29/12 A2998 810 34 2700 VRB/06 RMK AO2
14837KMSN MSN20010715144009607/15/01 14:40:31  5-MIN KMSN 152040Z VRB05KT 10SM FEW070 30/12 A2997 810 33 2800 VRB/05 RMK AO2
14837KMSN MSN20010715144509607/15/01 14:45:31  5-MIN KMSN 152045Z VRB06KT 10SM SCT070 29/13 A2997 810 35 2700 VRB/06 RMK AO2
14837KMSN MSN20010715145011907/15/01 14:50:31  5-MIN KMSN 152050Z 24006KT 10SM SCT070 30/12 A2997 820 33 2800 240/06 RMK AO2 SLP145 T03000122 57012
14837KMSN MSN20010715145511207/15/01 14:55:31  5-MIN KMSN 152055Z 25007KT 190V310 10SM SCT070 29/13 A2997 820 35 2700 250/07 190V310 RMK AO2
14837KMSN MSN20010715150009607/15/01 15:00:31  5-MIN KMSN 152100Z VRB05KT 10SM SCT070 30/13 A2997 820 34 2800 VRB/05 RMK AO2
14837KMSN MSN20010715150509607/15/01 15:05:31  5-MIN KMSN 152105Z 21006KT 10SM SCT070 30/13 A2997 820 34 2800 210/06 RMK AO2
14837KMSN MSN20010715151011207/15/01 15:10:31  5-MIN KMSN 152110Z 24007KT 200V270 10SM SCT070 30/13 A2997 820 34 2800 240/07 200V270 RMK AO2
14837KMSN MSN20010715151509607/15/01 15:15:31  5-MIN KMSN 152115Z VRB05KT 10SM SCT070 29/13 A2997 820 35 2700 VRB/05 RMK AO2
14837KMSN MSN20010715152011207/15/01 15:20:31  5-MIN KMSN 152120Z 26007KT 220V290 10SM SCT070 30/13 A2997 820 34 2800 260/07 220V290 RMK AO2
14837KMSN MSN20010715152509607/15/01 15:25:31  5-MIN KMSN 152125Z 22008KT 10SM SCT070 29/12 A2997 820 34 2700 220/08 RMK AO2
14837KMSN MSN20010715153009607/15/01 15:30:31  5-MIN KMSN 152130Z VRB06KT 10SM SCT070 29/12 A2997 820 34 2700 VRB/06 RMK AO2
14837KMSN MSN20010715153509607/15/01 15:35:31  5-MIN KMSN 152135Z 22006KT 10SM SCT070 29/12 A2997 820 34 2700 220/06 RMK AO2
14837KMSN MSN20010715154009607/15/01 15:40:31  5-MIN KMSN 152140Z 21007KT 10SM SCT070 30/13 A2996 820 34 2800 210/07 RMK AO2
14837KMSN MSN20010715154509607/15/01 15:45:31  5-MIN KMSN 152145Z 18009KT 10SM SCT070 30/13 A2996 820 34 2800 180/09 RMK AO2
14837KMSN MSN20010715155012907/15/01 15:50:31  5-MIN KMSN 152150Z 19008KT 170V240 10SM SCT070 30/12 A2996 820 33 2800 190/08 170V240 RMK AO2 SLP142 T03000122
14837KMSN MSN20010715155511207/15/01 15:55:31  5-MIN KMSN 152155Z 22007KT 190V290 10SM FEW070 29/13 A2996 820 36 2700 220/07 190V290 RMK AO2
14837KMSN MSN20010715160011207/15/01 16:00:31  5-MIN KMSN 152200Z 23007KT 180V270 10SM FEW070 29/13 A2996 820 36 2700 230/07 180V270 RMK AO2
14837KMSN MSN20010715160509607/15/01 16:05:31  5-MIN KMSN 152205Z 20008KT 10SM FEW070 30/13 A2996 830 35 2800 200/08 RMK AO2
14837KMSN MSN20010715161009607/15/01 16:10:31  5-MIN KMSN 152210Z 24008KT 10SM FEW070 29/13 A2996 820 35 2700 230/08 RMK AO2
14837KMSN MSN20010715161509307/15/01 16:15:31  5-MIN KMSN 152215Z 20007KT 10SM CLR 29/13 A2996 820 35 2700 200/07 RMK AO2
14837KMSN MSN20010715162009307/15/01 16:20:31  5-MIN KMSN 152220Z 21006KT 10SM CLR 29/13 A2996 830 35 2700 210/06 RMK AO2
14837KMSN MSN20010715162509307/15/01 16:25:31  5-MIN KMSN 152225Z 23007KT 10SM CLR 29/13 A2996 830 36 2600 230/07 RMK AO2
14837KMSN MSN20010715163009307/15/01 16:30:31  5-MIN KMSN 152230Z 21008KT 10SM CLR 29/13 A2996 830 38 2600 210/08 RMK AO2
14837KMSN MSN20010715163509307/15/01 16:35:31  5-MIN KMSN 152235Z 23005KT 10SM CLR 29/13 A2996 830 36 2600 230/05 RMK AO2
14837KMSN MSN20010715164009307/15/01 16:40:31  5-MIN KMSN 152240Z 20006KT 10SM CLR 29/13 A2996 830 35 2700 200/06 RMK AO2
14837KMSN MSN20010715164509307/15/01 16:45:31  5-MIN KMSN 152245Z 22006KT 10SM CLR 29/13 A2996 830 35 2700 220/06 RMK AO2
14837KMSN MSN20010715165011307/15/01 16:50:31  5-MIN KMSN 152250Z VRB05KT 10SM FEW070 29/13 A2996 830 36 2700 VRB/05 RMK AO2 SLP139 T02940133
14837KMSN MSN20010715165509307/15/01 16:55:31  5-MIN KMSN 152255Z 20007KT 10SM CLR 29/13 A2995 830 36 2700 200/07 RMK AO2
14837KMSN MSN20010715170009307/15/01 17:00:31  5-MIN KMSN 152300Z 20006KT 10SM CLR 29/13 A2995 830 35 2700 200/06 RMK AO2
14837KMSN MSN20010715170509307/15/01 17:05:31  5-MIN KMSN 152305Z 18009KT 10SM CLR 29/13 A2995 830 38 2700 180/09 RMK AO2
14837KMSN MSN20010715171009307/15/01 17:10:31  5-MIN KMSN 152310Z VRB05KT 10SM CLR 28/13 A2995 840 39 2600 VRB/05 RMK AO2
14837KMSN MSN20010715171509307/15/01 17:15:31  5-MIN KMSN 152315Z 23009KT 10SM CLR 29/13 A2995 840 38 2700 230/09 RMK AO2
14837KMSN MSN20010715172009307/15/01 17:20:31  5-MIN KMSN 152320Z 21008KT 10SM CLR 29/13 A2995 840 38 2700 210/08 RMK AO2
14837KMSN MSN20010715172509307/15/01 17:25:31  5-MIN KMSN 152325Z 22006KT 10SM CLR 29/13 A2995 840 38 2700 220/06 RMK AO2
14837KMSN MSN20010715173009307/15/01 17:30:31  5-MIN KMSN 152330Z 20007KT 10SM CLR 29/13 A2995 840 38 2700 200/07 RMK AO2
14837KMSN MSN20010715173509307/15/01 17:35:31  5-MIN KMSN 152335Z 18008KT 10SM CLR 29/13 A2995 840 36 2700 180/08 RMK AO2
14837KMSN MSN20010715174009307/15/01 17:40:31  5-MIN KMSN 152340Z 19010KT 10SM CLR 29/13 A2995 840 38 2700 190/10 RMK AO2
14837KMSN MSN20010715174509607/15/01 17:45:31  5-MIN KMSN 152345Z 22008KT 10SM FEW075 29/13 A2995 840 38 2700 220/08 RMK AO2
14837KMSN MSN20010715175013107/15/01 17:50:31  5-MIN KMSN 152350Z 21007KT 10SM FEW075 28/13 A2995 840 39 2600 210/07 RMK AO2 SLP137 T02830133 10300 20283 58008
14837KMSN MSN20010715175509307/15/01 17:55:31  5-MIN KMSN 152355Z 22006KT 10SM CLR 28/14 A2995 840 40 2600 220/06 RMK AO2
14837KMSN MSN20010715180009307/15/01 18:00:31  5-MIN KMSN 160000Z 22006KT 10SM CLR 28/13 A2995 840 40 2500 220/06 RMK AO2
14837KMSN MSN20010715180509307/15/01 18:05:31  5-MIN KMSN 160005Z 21004KT 10SM CLR 28/14 A2995 840 42 2500 210/04 RMK AO2
14837KMSN MSN20010715181009307/15/01 18:10:31  5-MIN KMSN 160010Z 22006KT 10SM CLR 28/14 A2995 840 42 2500 220/06 RMK AO2
14837KMSN MSN20010715181509307/15/01 18:15:31  5-MIN KMSN 160015Z 21006KT 10SM CLR 28/13 A2995 840 40 2500 210/06 RMK AO2
14837KMSN MSN20010715182009307/15/01 18:20:31  5-MIN KMSN 160020Z 20007KT 10SM CLR 28/13 A2995 830 40 2500 200/07 RMK AO2
14837KMSN MSN20010715182509307/15/01 18:25:31  5-MIN KMSN 160025Z 21006KT 10SM CLR 28/13 A2995 830 40 2500 210/06 RMK AO2
14837KMSN MSN20010715183009307/15/01 18:30:31  5-MIN KMSN 160030Z 20005KT 10SM CLR 28/13 A2995 830 40 2500 200/05 RMK AO2
14837KMSN MSN20010715183509307/15/01 18:35:31  5-MIN KMSN 160035Z 19008KT 10SM CLR 28/13 A2995 830 40 2500 190/08 RMK AO2
14837KMSN MSN20010715184009307/15/01 18:40:31  5-MIN KMSN 160040Z 21005KT 10SM CLR 27/13 A2995 830 42 2500 210/05 RMK AO2
14837KMSN MSN20010715184509307/15/01 18:45:31  5-MIN KMSN 160045Z 21006KT 10SM CLR 27/14 A2996 830 43 2500 210/06 RMK AO2
14837KMSN MSN20010715185011007/15/01 18:50:31  5-MIN KMSN 160050Z 21008KT 10SM CLR 27/13 A2995 830 42 2500 210/08 RMK AO2 SLP137 T02720133
14837KMSN MSN20010715185509307/15/01 18:55:31  5-MIN KMSN 160055Z 21006KT 10SM CLR 27/13 A2995 830 42 2500 210/06 RMK AO2
14837KMSN MSN20010715190009307/15/01 19:00:31  5-MIN KMSN 160100Z 21007KT 10SM CLR 27/14 A2996 830 43 2500 210/07 RMK AO2
14837KMSN MSN20010715190509307/15/01 19:05:31  5-MIN KMSN 160105Z 22007KT 10SM CLR 27/14 A2996 830 45 2400 210/07 RMK AO2
14837KMSN MSN20010715191009307/15/01 19:10:31  5-MIN KMSN 160110Z 21006KT 10SM CLR 27/14 A2996 830 45 2400 210/06 RMK AO2
14837KMSN MSN20010715191509307/15/01 19:15:31  5-MIN KMSN 160115Z 21007KT 10SM CLR 27/14 A2996 830 45 2400 210/07 RMK AO2
14837KMSN MSN20010715192009307/15/01 19:20:31  5-MIN KMSN 160120Z 21006KT 10SM CLR 27/13 A2996 830 43 2400 210/06 RMK AO2
14837KMSN MSN20010715192509307/15/01 19:25:31  5-MIN KMSN 160125Z 21007KT 10SM CLR 27/13 A2996 820 43 2400 210/07 RMK AO2
14837KMSN MSN20010715193009307/15/01 19:30:31  5-MIN KMSN 160130Z 21007KT 10SM CLR 26/13 A2996 820 44 2300 210/07 RMK AO2
14837KMSN MSN20010715193509307/15/01 19:35:31  5-MIN KMSN 160135Z 22006KT 10SM CLR 26/13 A2997 820 44 2300 220/06 RMK AO2
14837KMSN MSN20010715194009307/15/01 19:40:31  5-MIN KMSN 160140Z 22007KT 10SM CLR 26/13 A2997 820 44 2300 220/07 RMK AO2
14837KMSN MSN20010715194509307/15/01 19:45:31  5-MIN KMSN 160145Z 21006KT 10SM CLR 26/14 A2997 820 48 2300 210/06 RMK AO2
14837KMSN MSN20010715195011007/15/01 19:50:31  5-MIN KMSN 160150Z 21006KT 10SM CLR 26/13 A2997 820 46 2300 210/06 RMK AO2 SLP143 T02560133
14837KMSN MSN20010715195509307/15/01 19:55:31  5-MIN KMSN 160155Z 21008KT 10SM CLR 26/13 A2998 810 44 2300 210/08 RMK AO2
14837KMSN MSN20010715200009307/15/01 20:00:31  5-MIN KMSN 160200Z 21007KT 10SM CLR 26/13 A2998 810 46 2300 210/07 RMK AO2
14837KMSN MSN20010715200509307/15/01 20:05:31  5-MIN KMSN 160205Z 21006KT 10SM CLR 26/13 A2998 810 46 2300 210/06 RMK AO2
14837KMSN MSN20010715201009307/15/01 20:10:31  5-MIN KMSN 160210Z 21006KT 10SM CLR 26/13 A2998 810 46 2300 210/06 RMK AO2
14837KMSN MSN20010715201509307/15/01 20:15:31  5-MIN KMSN 160215Z 21006KT 10SM CLR 26/13 A2998 810 46 2200 210/06 RMK AO2
14837KMSN MSN20010715202009307/15/01 20:20:31  5-MIN KMSN 160220Z 21005KT 10SM CLR 25/13 A2998 810 48 2200 210/05 RMK AO2
14837KMSN MSN20010715202509307/15/01 20:25:31  5-MIN KMSN 160225Z 20004KT 10SM CLR 26/13 A2998 810 46 2200 200/04 RMK AO2
14837KMSN MSN20010715203009307/15/01 20:30:31  5-MIN KMSN 160230Z 21005KT 10SM CLR 25/13 A2998 800 48 2200 200/05 RMK AO2
14837KMSN MSN20010715203509307/15/01 20:35:31  5-MIN KMSN 160235Z 21004KT 10SM CLR 25/13 A2999 800 48 2200 210/04 RMK AO2
14837KMSN MSN20010715204009307/15/01 20:40:31  5-MIN KMSN 160240Z 21006KT 10SM CLR 25/13 A2999 800 48 2200 210/06 RMK AO2
14837KMSN MSN20010715204509307/15/01 20:45:31  5-MIN KMSN 160245Z 21006KT 10SM CLR 25/13 A2999 800 48 2200 210/06 RMK AO2
14837KMSN MSN20010715205011607/15/01 20:50:31  5-MIN KMSN 160250Z 21005KT 10SM CLR 25/13 A2999 800 48 2200 200/05 RMK AO2 SLP149 T02500133 56006
14837KMSN MSN20010715205509307/15/01 20:55:31  5-MIN KMSN 160255Z 20005KT 10SM CLR 25/13 A2999 800 48 2200 200/05 RMK AO2
14837KMSN MSN20010715210009307/15/01 21:00:31  5-MIN KMSN 160300Z 21007KT 10SM CLR 24/13 A2999 800 49 2100 210/07 RMK AO2
14837KMSN MSN20010715210509307/15/01 21:05:31  5-MIN KMSN 160305Z 20006KT 10SM CLR 24/13 A2999 800 49 2100 200/06 RMK AO2
14837KMSN MSN20010715211009307/15/01 21:10:31  5-MIN KMSN 160310Z 20006KT 10SM CLR 24/13 A2999 800 49 2100 200/06 RMK AO2
14837KMSN MSN20010715211509307/15/01 21:15:31  5-MIN KMSN 160315Z 21005KT 10SM CLR 24/13 A2999 800 49 2100 210/05 RMK AO2
14837KMSN MSN20010715212009307/15/01 21:20:31  5-MIN KMSN 160320Z VRB04KT 10SM CLR 24/13 A2999 800 49 2100 VRB/04 RMK AO2
14837KMSN MSN20010715212509307/15/01 21:25:31  5-MIN KMSN 160325Z 20005KT 10SM CLR 24/13 A2999 800 49 2100 200/05 RMK AO2
14837KMSN MSN20010715213009307/15/01 21:30:31  5-MIN KMSN 160330Z VRB06KT 10SM CLR 24/13 A2999 800 49 2100 VRB/06 RMK AO2
14837KMSN MSN20010715213509307/15/01 21:35:31  5-MIN KMSN 160335Z 19004KT 10SM CLR 24/13 A2999 800 47 2100 190/04 RMK AO2
14837KMSN MSN20010715214009307/15/01 21:40:31  5-MIN KMSN 160340Z 21006KT 10SM CLR 24/13 A3000 790 49 2000 210/06 RMK AO2
14837KMSN MSN20010715214509307/15/01 21:45:31  5-MIN KMSN 160345Z 21006KT 10SM CLR 24/13 A3000 790 47 2100 200/06 RMK AO2
14837KMSN MSN20010715215011007/15/01 21:50:31  5-MIN KMSN 160350Z 20006KT 10SM CLR 24/13 A3000 790 49 2100 200/06 RMK AO2 SLP152 T02440133
14837KMSN MSN20010715215509307/15/01 21:55:31  5-MIN KMSN 160355Z 20005KT 10SM CLR 24/13 A3000 790 51 2000 200/05 RMK AO2
14837KMSN MSN20010715220009307/15/01 22:00:31  5-MIN KMSN 160400Z 21005KT 10SM CLR 24/13 A3000 790 51 2000 210/05 RMK AO2
14837KMSN MSN20010715220509307/15/01 22:05:31  5-MIN KMSN 160405Z 21004KT 10SM CLR 24/13 A3000 790 51 2000 210/04 RMK AO2
14837KMSN MSN20010715221009307/15/01 22:10:31  5-MIN KMSN 160410Z 21005KT 10SM CLR 23/14 A3000 790 55 2000 210/05 RMK AO2
14837KMSN MSN20010715221509307/15/01 22:15:31  5-MIN KMSN 160415Z 20004KT 10SM CLR 23/14 A3000 790 55 2000 200/04 RMK AO2
14837KMSN MSN20010715222009307/15/01 22:20:31  5-MIN KMSN 160420Z 21005KT 10SM CLR 23/14 A3000 790 55 2000 210/05 RMK AO2
14837KMSN MSN20010715222509307/15/01 22:25:31  5-MIN KMSN 160425Z 21004KT 10SM CLR 23/14 A3000 790 55 2000 200/04 RMK AO2
14837KMSN MSN20010715223009307/15/01 22:30:31  5-MIN KMSN 160430Z 22005KT 10SM CLR 23/14 A3000 790 55 2000 210/05 RMK AO2
14837KMSN MSN20010715223509307/15/01 22:35:31  5-MIN KMSN 160435Z 22004KT 10SM CLR 23/14 A3000 790 57 1900 220/04 RMK AO2
14837KMSN MSN20010715224009307/15/01 22:40:31  5-MIN KMSN 160440Z 23003KT 10SM CLR 22/14 A3000 790 59 1900 230/03 RMK AO2
14837KMSN MSN20010715224509307/15/01 22:45:31  5-MIN KMSN 160445Z 23003KT 10SM CLR 22/14 A3000 790 61 1800 230/03 RMK AO2
14837KMSN MSN20010715225011007/15/01 22:50:31  5-MIN KMSN 160450Z 23003KT 10SM CLR 21/14 A3000 790 63 1700 230/03 RMK AO2 SLP153 T02110139
14837KMSN MSN20010715225509307/15/01 22:55:31  5-MIN KMSN 160455Z 23003KT 10SM CLR 21/14 A3000 790 65 1700 230/03 RMK AO2
14837KMSN MSN20010715230009307/15/01 23:00:31  5-MIN KMSN 160500Z 24003KT 10SM CLR 21/14 A3000 790 65 1700 240/03 RMK AO2
14837KMSN MSN20010715230509307/15/01 23:05:31  5-MIN KMSN 160505Z 24003KT 10SM CLR 21/14 A3000 790 63 1700 230/03 RMK AO2
14837KMSN MSN20010715231009307/15/01 23:10:31  5-MIN KMSN 160510Z 23003KT 10SM CLR 21/14 A3000 790 65 1700 230/03 RMK AO2
14837KMSN MSN20010715231509307/15/01 23:15:31  5-MIN KMSN 160515Z 23003KT 10SM CLR 22/14 A3000 790 61 1800 230/03 RMK AO2
14837KMSN MSN20010715232009307/15/01 23:20:31  5-MIN KMSN 160520Z 23004KT 10SM CLR 22/14 A3000 790 61 1800 230/04 RMK AO2
14837KMSN MSN20010715232509307/15/01 23:25:31  5-MIN KMSN 160525Z 22003KT 10SM CLR 22/14 A3000 790 59 1900 220/03 RMK AO2
14837KMSN MSN20010715233009307/15/01 23:30:31  5-MIN KMSN 160530Z 22003KT 10SM CLR 21/14 A3000 790 65 1700 220/03 RMK AO2
14837KMSN MSN20010715233509307/15/01 23:35:31  5-MIN KMSN 160535Z 20003KT 10SM CLR 22/14 A3000 790 61 1800 200/03 RMK AO2
14837KMSN MSN20010715234009307/15/01 23:40:31  5-MIN KMSN 160540Z 00000KT 10SM CLR 22/14 A3000 790 61 1800 000/00 RMK AO2
14837KMSN MSN20010715234509307/15/01 23:45:31  5-MIN KMSN 160545Z 00000KT 10SM CLR 22/14 A3000 790 61 1800 000/00 RMK AO2
14837KMSN MSN20010715235013807/15/01 23:50:31  5-MIN KMSN 160550Z 00000KT 10SM CLR 21/14 A3000 790 63 1700 000/00 RMK AO2 SLP152 T02110139 10283 20206 403000139 53013
14837KMSN MSN20010715235509307/15/01 23:55:31  5-MIN KMSN 160555Z 00000KT 10SM CLR 21/14 A3000 790 65 1700 000/00 RMK AO2
14837KMSN MSN20010716000009307/16/01 00:00:31  5-MIN KMSN 160600Z 20003KT 10SM CLR 21/14 A3000 790 67 1700 200/03 RMK AO2
14837KMSN MSN20010716000509307/16/01 00:05:31  5-MIN KMSN 160605Z 20003KT 10SM CLR 21/14 A3000 790 67 1700 200/03 RMK AO2
14837KMSN MSN20010716001009307/16/01 00:10:31  5-MIN KMSN 160610Z 20003KT 10SM CLR 21/14 A3000 790 65 1700 200/03 RMK AO2
14837KMSN MSN20010716001509307/16/01 00:15:31  5-MIN KMSN 160615Z 00000KT 10SM CLR 21/14 A3000 790 65 1700 000/00 RMK AO2
14837KMSN MSN20010716002009307/16/01 00:20:31  5-MIN KMSN 160620Z 00000KT 10SM CLR 21/14 A3000 800 67 1700 000/00 RMK AO2
14837KMSN MSN20010716002509307/16/01 00:25:31  5-MIN KMSN 160625Z 00000KT 10SM CLR 19/14 A2999 800 72 1500 000/00 RMK AO2
14837KMSN MSN20010716003009307/16/01 00:30:31  5-MIN KMSN 160630Z 00000KT 10SM CLR 19/14 A2999 800 70 1500 000/00 RMK AO2
14837KMSN MSN20010716003509307/16/01 00:35:31  5-MIN KMSN 160635Z 00000KT 10SM CLR 19/13 A2999 800 70 1500 000/00 RMK AO2
14837KMSN MSN20010716004009307/16/01 00:40:31  5-MIN KMSN 160640Z 00000KT 10SM CLR 18/13 A2999 800 72 1400 000/00 RMK AO2
14837KMSN MSN20010716004509307/16/01 00:45:31  5-MIN KMSN 160645Z 00000KT 10SM CLR 18/13 A2999 800 72 1400 000/00 RMK AO2
14837KMSN MSN20010716005011007/16/01 00:50:31  5-MIN KMSN 160650Z 00000KT 10SM CLR 18/13 A2999 800 72 1400 000/00 RMK AO2 SLP151 T01830133
14837KMSN MSN20010716005509307/16/01 00:55:31  5-MIN KMSN 160655Z 00000KT 10SM CLR 18/13 A2999 800 72 1400 000/00 RMK AO2
14837KMSN MSN20010716010009307/16/01 01:00:31  5-MIN KMSN 160700Z 00000KT 10SM CLR 18/15 A2999 800 81 1400 000/00 RMK AO2
14837KMSN MSN20010716010509307/16/01 01:05:31  5-MIN KMSN 160705Z 00000KT 10SM CLR 18/15 A2999 800 81 1400 000/00 RMK AO2
14837KMSN MSN20010716011009307/16/01 01:10:31  5-MIN KMSN 160710Z 00000KT 10SM CLR 18/13 A2999 800 72 1400 000/00 RMK AO2
14837KMSN MSN20010716011509307/16/01 01:15:31  5-MIN KMSN 160715Z 00000KT 10SM CLR 18/13 A2999 800 72 1400 000/00 RMK AO2
14837KMSN MSN20010716012009307/16/01 01:20:31  5-MIN KMSN 160720Z 00000KT 10SM CLR 18/14 A2999 800 75 1400 000/00 RMK AO2
14837KMSN MSN20010716012509307/16/01 01:25:31  5-MIN KMSN 160725Z 00000KT 10SM CLR 18/14 A2999 800 78 1300 000/00 RMK AO2
14837KMSN MSN20010716013009307/16/01 01:30:31  5-MIN KMSN 160730Z 00000KT 10SM CLR 17/14 A2999 800 83 1200 000/00 RMK AO2
14837KMSN MSN20010716013509307/16/01 01:35:31  5-MIN KMSN 160735Z 00000KT 10SM CLR 17/14 A2999 800 83 1200 000/00 RMK AO2
14837KMSN MSN20010716014009307/16/01 01:40:31  5-MIN KMSN 160740Z 00000KT 10SM CLR 17/14 A2999 800 83 1200 000/00 RMK AO2
14837KMSN MSN20010716014509307/16/01 01:45:31  5-MIN KMSN 160745Z 26003KT 10SM CLR 17/14 A3000 790 83 1200 260/03 RMK AO2
14837KMSN MSN20010716015011007/16/01 01:50:31  5-MIN KMSN 160750Z 25003KT 10SM CLR 17/14 A2999 800 83 1200 250/03 RMK AO2 SLP152 T01670139
14837KMSN MSN20010716015509307/16/01 01:55:31  5-MIN KMSN 160755Z 24003KT 10SM CLR 19/14 A2999 800 72 1500 240/03 RMK AO2
14837KMSN MSN20010716020009307/16/01 02:00:31  5-MIN KMSN 160800Z 23005KT 10SM CLR 19/14 A2999 800 72 1500 220/05 RMK AO2
14837KMSN MSN20010716020509307/16/01 02:05:31  5-MIN KMSN 160805Z 21005KT 10SM CLR 20/14 A2999 800 70 1600 210/05 RMK AO2
14837KMSN MSN20010716021009307/16/01 02:10:31  5-MIN KMSN 160810Z 20004KT 10SM CLR 21/14 A2999 800 67 1700 200/04 RMK AO2
14837KMSN MSN20010716021509307/16/01 02:15:31  5-MIN KMSN 160815Z 20004KT 10SM CLR 21/14 A2999 800 67 1700 200/04 RMK AO2
14837KMSN MSN20010716022009307/16/01 02:20:31  5-MIN KMSN 160820Z 20003KT 10SM CLR 21/14 A2999 800 67 1700 200/03 RMK AO2
14837KMSN MSN20010716022509307/16/01 02:25:31  5-MIN KMSN 160825Z 20003KT 10SM CLR 21/14 A2999 800 67 1700 190/03 RMK AO2
14837KMSN MSN20010716023009307/16/01 02:30:31  5-MIN KMSN 160830Z 00000KT 10SM CLR 20/14 A2999 800 70 1600 000/00 RMK AO2
14837KMSN MSN20010716023509307/16/01 02:35:31  5-MIN KMSN 160835Z 00000KT 10SM CLR 21/14 A2999 800 67 1700 000/00 RMK AO2
14837KMSN MSN20010716024009307/16/01 02:40:31  5-MIN KMSN 160840Z 00000KT 10SM CLR 19/15 A2999 800 75 1500 000/00 RMK AO2
14837KMSN MSN20010716024509307/16/01 02:45:31  5-MIN KMSN 160845Z 00000KT 10SM CLR 18/14 A2999 800 78 1400 000/00 RMK AO2
14837KMSN MSN20010716025011607/16/01 02:50:31  5-MIN KMSN 160850Z 16003KT 10SM CLR 19/14 A2999 800 75 1500 150/03 RMK AO2 SLP150 T01890144 51003
14837KMSN MSN20010716025509307/16/01 02:55:31  5-MIN KMSN 160855Z 00000KT 10SM CLR 18/14 A2999 800 75 1400 000/00 RMK AO2
14837KMSN MSN20010716030009307/16/01 03:00:31  5-MIN KMSN 160900Z 00000KT 10SM CLR 18/14 A2999 800 78 1400 000/00 RMK AO2
14837KMSN MSN20010716030509307/16/01 03:05:31  5-MIN KMSN 160905Z 00000KT 10SM CLR 17/13 A2999 800 80 1200 000/00 RMK AO2
14837KMSN MSN20010716031009307/16/01 03:10:31  5-MIN KMSN 160910Z 00000KT 10SM CLR 16/13 A2999 800 83 1200 000/00 RMK AO2
14837KMSN MSN20010716031509307/16/01 03:15:31  5-MIN KMSN 160915Z 00000KT 10SM CLR 16/13 A2999 800 80 1200 000/00 RMK AO2
14837KMSN MSN20010716032009307/16/01 03:20:31  5-MIN KMSN 160920Z 00000KT 10SM CLR 16/13 A2999 800 83 1100 000/00 RMK AO2
14837KMSN MSN20010716032509307/16/01 03:25:31  5-MIN KMSN 160925Z 00000KT 10SM CLR 16/13 A2998 810 83 1100 000/00 RMK AO2
14837KMSN MSN20010716033009307/16/01 03:30:31  5-MIN KMSN 160930Z 00000KT 10SM CLR 16/13 A2998 810 83 1200 000/00 RMK AO2
14837KMSN MSN20010716033509307/16/01 03:35:31  5-MIN KMSN 160935Z 00000KT 10SM CLR 16/13 A2998 810 83 1200 000/00 RMK AO2
14837KMSN MSN20010716034009307/16/01 03:40:31  5-MIN KMSN 160940Z 00000KT 10SM CLR 16/13 A2998 810 83 1200 000/00 RMK AO2
14837KMSN MSN20010716034509307/16/01 03:45:31  5-MIN KMSN 160945Z 16003KT 10SM CLR 16/13 A2998 810 83 1200 160/03 RMK AO2
14837KMSN MSN20010716035011007/16/01 03:50:31  5-MIN KMSN 160950Z 15003KT 10SM CLR 16/13 A2998 810 83 1200 150/03 RMK AO2 SLP148 T01610133
14837KMSN MSN20010716035509307/16/01 03:55:31  5-MIN KMSN 160955Z 17003KT 10SM CLR 16/13 A2999 800 86 1100 160/03 RMK AO2
14837KMSN MSN20010716040009307/16/01 04:00:31  5-MIN KMSN 161000Z 00000KT 10SM CLR 16/13 A2999 800 83 1100 000/00 RMK AO2
14837KMSN MSN20010716040509307/16/01 04:05:31  5-MIN KMSN 161005Z 15003KT 10SM CLR 16/13 A2999 800 86 1100 150/03 RMK AO2
14837KMSN MSN20010716041009307/16/01 04:10:31  5-MIN KMSN 161010Z 16003KT 10SM CLR 16/13 A2999 800 86 1100 150/03 RMK AO2
14837KMSN MSN20010716041509307/16/01 04:15:31  5-MIN KMSN 161015Z 17003KT 10SM CLR 16/14 A2999 800 90 1100 160/03 RMK AO2
14837KMSN MSN20010716042009307/16/01 04:20:31  5-MIN KMSN 161020Z 17004KT 10SM CLR 17/14 A2999 800 80 1300 170/04 RMK AO2
14837KMSN MSN20010716042509307/16/01 04:25:31  5-MIN KMSN 161025Z 16004KT 10SM CLR 18/14 A2999 800 78 1300 160/04 RMK AO2
14837KMSN MSN20010716043009307/16/01 04:30:31  5-MIN KMSN 161030Z 15004KT 10SM CLR 18/14 A2999 800 75 1400 150/04 RMK AO2
14837KMSN MSN20010716043509307/16/01 04:35:31  5-MIN KMSN 161035Z 17003KT 10SM CLR 18/14 A3000 790 75 1400 170/03 RMK AO2
14837KMSN MSN20010716044009307/16/01 04:40:31  5-MIN KMSN 161040Z 17003KT 10SM CLR 18/14 A3000 790 78 1300 160/03 RMK AO2
14837KMSN MSN20010716044509307/16/01 04:45:31  5-MIN KMSN 161045Z 00000KT 10SM CLR 17/14 A3001 780 83 1200 000/00 RMK AO2
14837KMSN MSN20010716045011007/16/01 04:50:31  5-MIN KMSN 161050Z 16004KT 10SM CLR 17/14 A3001 780 80 1300 160/04 RMK AO2 SLP156 T01720139
14837KMSN MSN20010716045509307/16/01 04:55:31  5-MIN KMSN 161055Z 17004KT 10SM CLR 18/14 A3001 780 78 1300 170/04 RMK AO2
14837KMSN MSN20010716050009307/16/01 05:00:31  5-MIN KMSN 161100Z 16003KT 10SM CLR 18/14 A3001 780 78 1400 160/03 RMK AO2
14837KMSN MSN20010716050509307/16/01 05:05:31  5-MIN KMSN 161105Z 00000KT 10SM CLR 18/14 A3001 780 78 1400 000/00 RMK AO2
14837KMSN MSN20010716051009307/16/01 05:10:31  5-MIN KMSN 161110Z 00000KT 10SM CLR 18/14 A3001 780 81 1300 000/00 RMK AO2
14837KMSN MSN20010716051509207/16/01 05:15:31  5-MIN KMSN 161115Z 17004KT 9SM CLR 18/14 A3001 780 81 1300 170/04 RMK AO2
14837KMSN MSN20010716052009207/16/01 05:20:31  5-MIN KMSN 161120Z 18004KT 9SM CLR 18/14 A3001 780 81 1300 180/04 RMK AO2
14837KMSN MSN20010716052509207/16/01 05:25:31  5-MIN KMSN 161125Z 18005KT 9SM CLR 18/14 A3001 780 78 1400 180/05 RMK AO2
14837KMSN MSN20010716053009207/16/01 05:30:31  5-MIN KMSN 161130Z 18005KT 9SM CLR 18/15 A3001 780 81 1400 180/05 RMK AO2
14837KMSN MSN20010716053509207/16/01 05:35:31  5-MIN KMSN 161135Z 18004KT 9SM CLR 18/15 A3001 780 81 1400 180/04 RMK AO2
14837KMSN MSN20010716054009207/16/01 05:40:31  5-MIN KMSN 161140Z 18004KT 9SM CLR 18/14 A3001 780 78 1400 180/04 RMK AO2
14837KMSN MSN20010716054509207/16/01 05:45:31  5-MIN KMSN 161145Z 17004KT 9SM CLR 19/15 A3001 780 78 1500 170/04 RMK AO2
14837KMSN MSN20010716055012807/16/01 05:50:31  5-MIN KMSN 161150Z 16004KT 10SM CLR 19/15 A3001 780 78 1500 160/04 RMK AO2 SLP156 T01890150 10211 20150 57004
14837KMSN MSN20010716055509207/16/01 05:55:31  5-MIN KMSN 161155Z 15004KT 9SM CLR 19/15 A3001 780 78 1500 150/04 RMK AO2
14837KMSN MSN20010716060009207/16/01 06:00:31  5-MIN KMSN 161200Z 15004KT 9SM CLR 19/16 A3001 780 78 1500 150/04 RMK AO2
14837KMSN MSN20010716060509207/16/01 06:05:31  5-MIN KMSN 161205Z 19004KT 8SM CLR 19/15 A3001 780 75 1500 190/04 RMK AO2
14837KMSN MSN20010716061009207/16/01 06:10:31  5-MIN KMSN 161210Z 17003KT 8SM CLR 19/16 A3001 780 78 1500 170/03 RMK AO2
14837KMSN MSN20010716061509207/16/01 06:15:31  5-MIN KMSN 161215Z 15004KT 8SM CLR 19/16 A3001 780 78 1500 150/04 RMK AO2
14837KMSN MSN20010716062009207/16/01 06:20:31  5-MIN KMSN 161220Z 18003KT 9SM CLR 20/16 A3001 780 75 1600 180/03 RMK AO2
14837KMSN MSN20010716062509207/16/01 06:25:31  5-MIN KMSN 161225Z 16004KT 9SM CLR 21/16 A3001 780 73 1600 160/04 RMK AO2
14837KMSN MSN20010716063009207/16/01 06:30:31  5-MIN KMSN 161230Z 00000KT 9SM CLR 21/16 A3001 780 73 1600 000/00 RMK AO2
14837KMSN MSN20010716063509207/16/01 06:35:31  5-MIN KMSN 161235Z 17003KT 9SM CLR 21/16 A3001 780 70 1700 170/03 RMK AO2
14837KMSN MSN20010716064009207/16/01 06:40:31  5-MIN KMSN 161240Z 00000KT 9SM CLR 21/16 A3002 780 70 1700 000/00 RMK AO2
14837KMSN MSN20010716064509307/16/01 06:45:31  5-MIN KMSN 161245Z VRB03KT 10SM CLR 22/16 A3002 780 68 1800 VRB/03 RMK AO2
14837KMSN MSN20010716065011007/16/01 06:50:31  5-MIN KMSN 161250Z 17004KT 10SM CLR 22/16 A3002 780 65 1800 160/04 RMK AO2 SLP158 T02220156
14837KMSN MSN20010716065509307/16/01 06:55:31  5-MIN KMSN 161255Z 18004KT 10SM CLR 22/15 A3002 770 63 1800 180/04 RMK AO2
14837KMSN MSN20010716070009307/16/01 07:00:31  5-MIN KMSN 161300Z 18005KT 10SM CLR 23/14 A3002 770 59 1900 180/05 RMK AO2
14837KMSN MSN20010716070509307/16/01 07:05:31  5-MIN KMSN 161305Z 17006KT 10SM CLR 23/15 A3002 770 61 1900 170/06 RMK AO2
14837KMSN MSN20010716071009307/16/01 07:10:31  5-MIN KMSN 161310Z 17004KT 10SM CLR 23/15 A3002 770 61 1900 170/04 RMK AO2
14837KMSN MSN20010716071509307/16/01 07:15:31  5-MIN KMSN 161315Z 16005KT 10SM CLR 23/15 A3002 770 61 1900 160/05 RMK AO2
14837KMSN MSN20010716072009307/16/01 07:20:31  5-MIN KMSN 161320Z 16005KT 10SM CLR 23/15 A3002 770 61 1900 160/05 RMK AO2
14837KMSN MSN20010716072509307/16/01 07:25:31  5-MIN KMSN 161325Z 16005KT 10SM CLR 23/15 A3002 770 59 2000 160/05 RMK AO2
14837KMSN MSN20010716073009307/16/01 07:30:31  5-MIN KMSN 161330Z 16006KT 10SM CLR 23/16 A3003 770 61 2000 160/06 RMK AO2
14837KMSN MSN20010716073509307/16/01 07:35:31  5-MIN KMSN 161335Z 17006KT 10SM CLR 24/15 A3003 770 57 2000 170/06 RMK AO2
14837KMSN MSN20010716074009307/16/01 07:40:31  5-MIN KMSN 161340Z 17006KT 10SM CLR 23/15 A3003 770 59 1900 170/06 RMK AO2
14837KMSN MSN20010716074509307/16/01 07:45:31  5-MIN KMSN 161345Z 17006KT 10SM CLR 23/15 A3002 770 59 2000 170/06 RMK AO2
14837KMSN MSN20010716075011007/16/01 07:50:31  5-MIN KMSN 161350Z 16005KT 10SM CLR 24/15 A3002 770 57 2000 160/05 RMK AO2 SLP161 T02390150
14837KMSN MSN20010716075509307/16/01 07:55:31  5-MIN KMSN 161355Z 17004KT 10SM CLR 24/15 A3003 770 57 2000 170/04 RMK AO2
14837KMSN MSN20010716080009307/16/01 08:00:31  5-MIN KMSN 161400Z 16006KT 10SM CLR 24/15 A3003 770 57 2000 160/06 RMK AO2
14837KMSN MSN20010716080509307/16/01 08:05:31  5-MIN KMSN 161405Z 17006KT 10SM CLR 24/16 A3003 770 57 2100 170/06 RMK AO2
14837KMSN MSN20010716081009307/16/01 08:10:31  5-MIN KMSN 161410Z 16006KT 10SM CLR 24/16 A3003 770 57 2100 160/06 RMK AO2
14837KMSN MSN20010716081509307/16/01 08:15:31  5-MIN KMSN 161415Z 18007KT 10SM CLR 25/16 A3002 770 55 2100 180/07 RMK AO2
14837KMSN MSN20010716082009307/16/01 08:20:31  5-MIN KMSN 161420Z 17007KT 10SM CLR 25/15 A3002 770 53 2100 170/07 RMK AO2
14837KMSN MSN20010716082509307/16/01 08:25:31  5-MIN KMSN 161425Z 17007KT 10SM CLR 25/16 A3002 770 55 2100 170/07 RMK AO2
14837KMSN MSN20010716083009307/16/01 08:30:31  5-MIN KMSN 161430Z 17006KT 10SM CLR 25/16 A3001 780 55 2200 170/06 RMK AO2
14837KMSN MSN20010716083509307/16/01 08:35:31  5-MIN KMSN 161435Z 17008KT 10SM CLR 25/16 A3001 780 55 2200 160/08 RMK AO2
14837KMSN MSN20010716084009307/16/01 08:40:31  5-MIN KMSN 161440Z 18008KT 10SM CLR 26/16 A3001 780 53 2200 180/08 RMK AO2
14837KMSN MSN20010716084509307/16/01 08:45:31  5-MIN KMSN 161445Z 17008KT 10SM CLR 26/16 A3000 790 53 2200 170/08 RMK AO2
14837KMSN MSN20010716085011607/16/01 08:50:31  5-MIN KMSN 161450Z 17009KT 10SM CLR 26/16 A3001 790 53 2200 170/09 RMK AO2 SLP155 T02560156 50006
14837KMSN MSN20010716085509307/16/01 08:55:31  5-MIN KMSN 161455Z 17007KT 10SM CLR 26/16 A3000 790 53 2200 170/07 RMK AO2
14837KMSN MSN20010716090009307/16/01 09:00:31  5-MIN KMSN 161500Z 16008KT 10SM CLR 26/16 A3000 790 55 2200 160/08 RMK AO2
14837KMSN MSN20010716090509307/16/01 09:05:31  5-MIN KMSN 161505Z 18007KT 10SM CLR 26/16 A3000 790 51 2300 180/07 RMK AO2
14837KMSN MSN20010716091009307/16/01 09:10:31  5-MIN KMSN 161510Z 17009KT 10SM CLR 26/16 A3000 790 51 2300 170/09 RMK AO2
14837KMSN MSN20010716091509307/16/01 09:15:31  5-MIN KMSN 161515Z 17009KT 10SM CLR 27/16 A3000 790 50 2400 160/09 RMK AO2
14837KMSN MSN20010716092009307/16/01 09:20:31  5-MIN KMSN 161520Z 16010KT 10SM CLR 27/16 A3000 790 50 2400 160/10 RMK AO2
14837KMSN MSN20010716092509307/16/01 09:25:31  5-MIN KMSN 161525Z VRB06KT 10SM CLR 27/15 A3000 790 48 2400 VRB/06 RMK AO2
14837KMSN MSN20010716093009307/16/01 09:30:31  5-MIN KMSN 161530Z 18008KT 10SM CLR 27/15 A3000 790 48 2400 180/08 RMK AO2
14837KMSN MSN20010716093509307/16/01 09:35:31  5-MIN KMSN 161535Z VRB06KT 10SM CLR 27/15 A3000 790 48 2400 VRB/06 RMK AO2
14837KMSN MSN20010716094009307/16/01 09:40:31  5-MIN KMSN 161540Z 22008KT 10SM CLR 27/14 A3000 790 46 2400 210/08 RMK AO2
14837KMSN MSN20010716094509307/16/01 09:45:31  5-MIN KMSN 161545Z 22008KT 10SM CLR 27/15 A3000 790 46 2400 220/08 RMK AO2
14837KMSN MSN20010716095012907/16/01 09:50:31  5-MIN KMSN 161550Z 22007KT 180V240 10SM FEW050 27/14 A3000 790 46 2400 220/07 180V240 RMK AO2 SLP152 T02670144
14837KMSN MSN20010716095509307/16/01 09:55:31  5-MIN KMSN 161555Z 23008KT 10SM CLR 27/14 A3000 790 46 2400 230/08 RMK AO2
14837KMSN MSN20010716100009607/16/01 10:00:31  5-MIN KMSN 161600Z 22009KT 10SM FEW050 27/14 A3000 790 46 2400 220/09 RMK AO2
14837KMSN MSN20010716100511207/16/01 10:05:31  5-MIN KMSN 161605Z 21008KT 140V230 10SM FEW050 27/14 A3000 790 45 2400 210/08 140V230 RMK AO2
14837KMSN MSN20010716101009607/16/01 10:10:31  5-MIN KMSN 161610Z 23007KT 10SM FEW050 27/14 A3000 790 46 2400 230/07 RMK AO2
14837KMSN MSN20010716101509607/16/01 10:15:31  5-MIN KMSN 161615Z 23009KT 10SM FEW050 27/14 A2999 800 43 2400 230/09 RMK AO2
14837KMSN MSN20010716102011207/16/01 10:20:31  5-MIN KMSN 161620Z 22007KT 180V250 10SM FEW050 27/14 A2999 800 45 2400 220/07 180V250 RMK AO2
14837KMSN MSN20010716102509607/16/01 10:25:31  5-MIN KMSN 161625Z VRB05KT 10SM FEW050 28/15 A2999 800 45 2500 VRB/05 RMK AO2
14837KMSN MSN20010716103009607/16/01 10:30:31  5-MIN KMSN 161630Z 18008KT 10SM FEW050 28/15 A2999 800 45 2500 180/08 RMK AO2
14837KMSN MSN20010716103509607/16/01 10:35:31  5-MIN KMSN 161635Z 23007KT 10SM FEW050 28/15 A2999 800 45 2500 230/07 RMK AO2
14837KMSN MSN20010716104009607/16/01 10:40:31  5-MIN KMSN 161640Z VRB04KT 10SM FEW050 28/15 A2999 800 45 2500 VRB/04 RMK AO2
14837KMSN MSN20010716104509607/16/01 10:45:31  5-MIN KMSN 161645Z 18009KT 10SM FEW050 28/15 A2999 800 43 2600 180/09 RMK AO2
14837KMSN MSN20010716105011307/16/01 10:50:31  5-MIN KMSN 161650Z 20007KT 10SM SCT055 28/14 A2999 800 42 2500 200/07 RMK AO2 SLP149 T02780139
14837KMSN MSN20010716105509607/16/01 10:55:31  5-MIN KMSN 161655Z 19009KT 10SM BKN060 28/14 A2999 800 42 2500 190/09 RMK AO2
14837KMSN MSN20010716110009607/16/01 11:00:31  5-MIN KMSN 161700Z 18007KT 10SM SCT060 28/14 A2998 800 42 2500 180/07 RMK AO2
14837KMSN MSN20010716110509607/16/01 11:05:31  5-MIN KMSN 161705Z 19007KT 10SM SCT060 28/14 A2998 810 42 2500 190/07 RMK AO2
14837KMSN MSN20010716111011207/16/01 11:10:31  5-MIN KMSN 161710Z 20007KT 150V240 10SM SCT060 27/14 A2998 810 45 2400 200/07 150V240 RMK AO2
14837KMSN MSN20010716111509607/16/01 11:15:31  5-MIN KMSN 161715Z 20007KT 10SM SCT060 27/14 A2998 810 45 2400 200/07 RMK AO2
14837KMSN MSN20010716112011207/16/01 11:20:31  5-MIN KMSN 161720Z 21007KT 170V250 10SM SCT055 27/14 A2998 810 45 2400 210/07 170V250 RMK AO2
14837KMSN MSN20010716112510207/16/01 11:25:31  5-MIN KMSN 161725Z 17010G14KT 10SM SCT055 29/14 A2998 810 40 2600 170/10G14 RMK AO2
14837KMSN MSN20010716113009607/16/01 11:30:31  5-MIN KMSN 161730Z 19013KT 10SM FEW055 29/14 A2998 810 40 2600 190/13 RMK AO2
14837KMSN MSN20010716113509607/16/01 11:35:31  5-MIN KMSN 161735Z 17011KT 10SM FEW055 29/14 A2998 810 40 2600 170/11 RMK AO2
14837KMSN MSN20010716114009607/16/01 11:40:31  5-MIN KMSN 161740Z 20008KT 10SM FEW055 29/14 A2998 810 40 2600 200/08 RMK AO2
14837KMSN MSN20010716114509607/16/01 11:45:31  5-MIN KMSN 161745Z 17011KT 10SM FEW055 29/14 A2997 820 40 2600 160/11 RMK AO2
14837KMSN MSN20010716115013107/16/01 11:50:31  5-MIN KMSN 161750Z 20008KT 10SM SCT055 29/14 A2997 810 40 2600 200/08 RMK AO2 SLP144 T02890144 10289 20189 58000
14837KMSN MSN20010716115511207/16/01 11:55:31  5-MIN KMSN 161755Z 19007KT 160V220 10SM FEW055 28/14 A2997 820 42 2600 190/07 160V220 RMK AO2
14837KMSN MSN20010716120009607/16/01 12:00:31  5-MIN KMSN 161800Z 19010KT 10SM FEW060 28/14 A2997 820 40 2600 190/10 RMK AO2
14837KMSN MSN20010716120510207/16/01 12:05:31  5-MIN KMSN 161805Z 18012G16KT 10SM SCT060 29/14 A2997 820 38 2700 180/12G16 RMK AO2
14837KMSN MSN20010716121010207/16/01 12:10:31  5-MIN KMSN 161810Z 19011G17KT 10SM SCT060 29/14 A2997 820 39 2600 190/11G17 RMK AO2
14837KMSN MSN20010716121510207/16/01 12:15:31  5-MIN KMSN 161815Z 18010G17KT 10SM SCT060 29/14 A2997 820 38 2700 170/10G17 RMK AO2
14837KMSN MSN20010716122010207/16/01 12:20:31  5-MIN KMSN 161820Z 18011G16KT 10SM SCT060 29/14 A2997 820 39 2600 180/11G16 RMK AO2
14837KMSN MSN20010716122510207/16/01 12:25:31  5-MIN KMSN 161825Z 18013G18KT 10SM SCT060 29/14 A2997 820 39 2600 180/13G18 RMK AO2
14837KMSN MSN20010716123010207/16/01 12:30:31  5-MIN KMSN 161830Z 17008G18KT 10SM SCT060 29/14 A2997 820 39 2600 170/08G18 RMK AO2
14837KMSN MSN20010716123509607/16/01 12:35:31  5-MIN KMSN 161835Z 19008KT 10SM SCT060 29/14 A2996 820 39 2700 190/08 RMK AO2
14837KMSN MSN20010716124011807/16/01 12:40:31  5-MIN KMSN 161840Z 20010G16KT 170V240 10SM FEW060 31/14 A2997 820 37 2800 200/10G16 170V240 RMK AO2
14837KMSN MSN20010716124510207/16/01 12:45:31  5-MIN KMSN 161845Z 20011G16KT 10SM FEW060 30/14 A2996 830 36 2800 190/11G16 RMK AO2
14837KMSN MSN20010716125011307/16/01 12:50:31  5-MIN KMSN 161850Z 17011KT 10SM SCT060 31/14 A2996 830 35 2800 170/11 RMK AO2 SLP140 T03060139
14837KMSN MSN20010716125509607/16/01 12:55:31  5-MIN KMSN 161855Z 17011KT 10SM FEW065 29/14 A2996 830 38 2700 170/11 RMK AO2
14837KMSN MSN20010716130009607/16/01 13:00:31  5-MIN KMSN 161900Z 21011KT 10SM FEW065 29/14 A2996 830 38 2700 210/11 RMK AO2
14837KMSN MSN20010716130509607/16/01 13:05:31  5-MIN KMSN 161905Z 21009KT 10SM FEW065 29/14 A2996 830 38 2700 210/09 RMK AO2
14837KMSN MSN20010716131009607/16/01 13:10:31  5-MIN KMSN 161910Z 18009KT 10SM SCT065 29/14 A2996 830 39 2700 180/09 RMK AO2
14837KMSN MSN20010716131510207/16/01 13:15:31  5-MIN KMSN 161915Z 17014G17KT 10SM SCT070 30/14 A2996 830 36 2800 170/14G17 RMK AO2
14837KMSN MSN20010716132010207/16/01 13:20:31  5-MIN KMSN 161920Z 15014G17KT 10SM SCT065 30/14 A2995 830 38 2800 150/14G17 RMK AO2
14837KMSN MSN20010716132509607/16/01 13:25:31  5-MIN KMSN 161925Z 17013KT 10SM FEW065 30/14 A2995 830 36 2800 160/13 RMK AO2
14837KMSN MSN20010716133009607/16/01 13:30:31  5-MIN KMSN 161930Z 18012KT 10SM SCT065 29/14 A2995 830 38 2700 180/12 RMK AO2
14837KMSN MSN20010716133509607/16/01 13:35:31  5-MIN KMSN 161935Z 17010KT 10SM SCT065 29/14 A2995 830 39 2700 170/10 RMK AO2
14837KMSN MSN20010716134009607/16/01 13:40:31  5-MIN KMSN 161940Z 18007KT 10SM SCT065 29/14 A2995 840 39 2700 180/07 RMK AO2
14837KMSN MSN20010716134511207/16/01 13:45:31  5-MIN KMSN 161945Z 21008KT 180V260 10SM SCT065 29/14 A2995 840 39 2700 210/08 180V260 RMK AO2
14837KMSN MSN20010716135011307/16/01 13:50:31  5-MIN KMSN 161950Z 21009KT 10SM SCT065 30/14 A2995 840 36 2800 210/09 RMK AO2 SLP137 T03000139
14837KMSN MSN20010716135509607/16/01 13:55:31  5-MIN KMSN 161955Z 18011KT 10SM SCT065 29/14 A2995 840 39 2700 180/11 RMK AO2
14837KMSN MSN20010716140009607/16/01 14:00:31  5-MIN KMSN 162000Z 22009KT 10SM SCT065 29/14 A2995 840 39 2700 220/09 RMK AO2
14837KMSN MSN20010716140511207/16/01 14:05:31  5-MIN KMSN 162005Z 19008KT 160V240 10SM SCT065 28/14 A2995 840 40 2600 190/08 160V240 RMK AO2
14837KMSN MSN20010716141009607/16/01 14:10:31  5-MIN KMSN 162010Z 19010KT 10SM BKN070 28/14 A2995 840 40 2600 190/10 RMK AO2
14837KMSN MSN20010716141509607/16/01 14:15:31  5-MIN KMSN 162015Z 17013KT 10SM BKN070 30/14 A2995 840 36 2800 170/13 RMK AO2
14837KMSN MSN20010716142010207/16/01 14:20:31  5-MIN KMSN 162020Z 17013G18KT 10SM SCT070 30/14 A2994 840 36 2800 170/13G18 RMK AO2
14837KMSN MSN20010716142510207/16/01 14:25:31  5-MIN KMSN 162025Z 18010G18KT 10SM SCT070 29/14 A2994 840 38 2700 180/10G18 RMK AO2
14837KMSN MSN20010716143010207/16/01 14:30:31  5-MIN KMSN 162030Z 18011G17KT 10SM SCT070 29/14 A2994 840 38 2700 180/11G17 RMK AO2
14837KMSN MSN20010716143510207/16/01 14:35:31  5-MIN KMSN 162035Z 19010G17KT 10SM SCT070 30/14 A2994 850 36 2800 180/10G17 RMK AO2
14837KMSN MSN20010716144009607/16/01 14:40:31  5-MIN KMSN 162040Z 18011KT 10SM SCT070 29/14 A2994 850 39 2700 180/11 RMK AO2
14837KMSN MSN20010716144510207/16/01 14:45:31  5-MIN KMSN 162045Z 16013G19KT 10SM SCT065 30/14 A2994 850 38 2800 160/13G19 RMK AO2
14837KMSN MSN20010716145012507/16/01 14:50:31  5-MIN KMSN 162050Z 16013G19KT 10SM SCT070 29/14 A2994 850 40 2700 160/13G19 RMK AO2 SLP132 T02890144 58011
14837KMSN MSN20010716145509607/16/01 14:55:31  5-MIN KMSN 162055Z 17012KT 10SM SCT065 29/14 A2994 850 40 2700 170/12 RMK AO2
14837KMSN MSN20010716150010307/16/01 15:00:31  5-MIN KMSN 162100Z 17010KT 10SM BKN065 BKN080 30/15 A2994 850 39 2800 170/10 RMK AO2
14837KMSN MSN20010716150510207/16/01 15:05:31  5-MIN KMSN 162105Z 17012G17KT 10SM BKN065 29/14 A2993 850 39 2700 170/12G17 RMK AO2
14837KMSN MSN20010716151010207/16/01 15:10:31  5-MIN KMSN 162110Z 19012G17KT 10SM BKN065 30/14 A2993 850 38 2800 180/12G17 RMK AO2
14837KMSN MSN20010716151509607/16/01 15:15:31  5-MIN KMSN 162115Z 19009KT 10SM BKN065 30/14 A2994 850 38 2800 190/09 RMK AO2
14837KMSN MSN20010716152009607/16/01 15:20:31  5-MIN KMSN 162120Z 20008KT 10SM BKN065 30/14 A2994 850 38 2800 200/08 RMK AO2
14837KMSN MSN20010716152509607/16/01 15:25:31  5-MIN KMSN 162125Z 21008KT 10SM BKN065 30/14 A2994 850 38 2800 210/08 RMK AO2
14837KMSN MSN20010716153009607/16/01 15:30:31  5-MIN KMSN 162130Z 17012KT 10SM SCT065 30/14 A2993 850 38 2800 170/12 RMK AO2
14837KMSN MSN20010716153509607/16/01 15:35:31  5-MIN KMSN 162135Z 18012KT 10SM SCT065 30/14 A2993 850 38 2800 180/12 RMK AO2
14837KMSN MSN20010716154009607/16/01 15:40:31  5-MIN KMSN 162140Z 20007KT 10SM SCT065 30/14 A2993 850 38 2800 200/07 RMK AO2
14837KMSN MSN20010716154509607/16/01 15:45:31  5-MIN KMSN 162145Z 19010KT 10SM SCT065 30/15 A2993 860 39 2800 190/10 RMK AO2
14837KMSN MSN20010716155011307/16/01 15:50:31  5-MIN KMSN 162150Z 17011KT 10SM SCT060 29/15 A2993 860 41 2700 170/11 RMK AO2 SLP130 T02940150
14837KMSN MSN20010716155509307/16/01 15:55:31  5-MIN KMSN 162155Z 18011KT 10SM CLR 29/14 A2993 860 39 2700 180/11 RMK AO2
14837KMSN MSN20010716160009307/16/01 16:00:31  5-MIN KMSN 162200Z 18010KT 10SM CLR 28/14 A2993 860 42 2600 170/10 RMK AO2
14837KMSN MSN20010716160509307/16/01 16:05:31  5-MIN KMSN 162205Z 16012KT 10SM CLR 29/15 A2993 860 42 2700 160/12 RMK AO2
14837KMSN MSN20010716161010207/16/01 16:10:31  5-MIN KMSN 162210Z 20010G21KT 10SM SCT060 29/15 A2993 860 41 2700 200/10G21 RMK AO2
14837KMSN MSN20010716161510207/16/01 16:15:31  5-MIN KMSN 162215Z 19011G21KT 10SM SCT060 29/14 A2993 860 40 2700 190/11G21 RMK AO2
14837KMSN MSN20010716162009607/16/01 16:20:31  5-MIN KMSN 162220Z 19011KT 10SM SCT060 29/14 A2993 860 40 2700 190/11 RMK AO2
14837KMSN MSN20010716162509607/16/01 16:25:31  5-MIN KMSN 162225Z 17012KT 10SM SCT060 29/15 A2993 860 42 2700 170/12 RMK AO2
14837KMSN MSN20010716163009607/16/01 16:30:31  5-MIN KMSN 162230Z 18011KT 10SM FEW060 28/15 A2993 860 43 2600 180/11 RMK AO2
14837KMSN MSN20010716163509607/16/01 16:35:31  5-MIN KMSN 162235Z 18011KT 10SM FEW060 28/14 A2993 860 42 2600 180/11 RMK AO2
14837KMSN MSN20010716164009607/16/01 16:40:31  5-MIN KMSN 162240Z 18009KT 10SM FEW060 28/14 A2992 860 42 2600 180/09 RMK AO2
14837KMSN MSN20010716164509607/16/01 16:45:31  5-MIN KMSN 162245Z 18013KT 10SM SCT060 29/15 A2992 860 42 2700 180/13 RMK AO2
14837KMSN MSN20010716165011307/16/01 16:50:31  5-MIN KMSN 162250Z 18010KT 10SM SCT060 28/14 A2992 860 42 2600 180/10 RMK AO2 SLP128 T02830144
14837KMSN MSN20010716165509607/16/01 16:55:31  5-MIN KMSN 162255Z 18009KT 10SM FEW060 29/14 A2992 860 40 2700 180/09 RMK AO2
14837KMSN MSN20010716170009607/16/01 17:00:31  5-MIN KMSN 162300Z 16010KT 10SM FEW060 28/15 A2992 860 43 2600 160/10 RMK AO2
14837KMSN MSN20010716170509607/16/01 17:05:31  5-MIN KMSN 162305Z 16011KT 10SM FEW065 28/15 A2992 860 43 2600 160/11 RMK AO2
14837KMSN MSN20010716171009607/16/01 17:10:31  5-MIN KMSN 162310Z 18009KT 10SM FEW065 28/15 A2992 860 43 2600 180/09 RMK AO2
14837KMSN MSN20010716171509607/16/01 17:15:31  5-MIN KMSN 162315Z 17011KT 10SM FEW060 28/15 A2992 860 43 2600 160/11 RMK AO2
14837KMSN MSN20010716172009607/16/01 17:20:31  5-MIN KMSN 162320Z 19009KT 10SM FEW060 28/15 A2992 860 45 2600 180/09 RMK AO2
14837KMSN MSN20010716172509607/16/01 17:25:31  5-MIN KMSN 162325Z 18010KT 10SM FEW060 28/15 A2992 870 43 2600 170/10 RMK AO2
14837KMSN MSN20010716173009607/16/01 17:30:31  5-MIN KMSN 162330Z 17009KT 10SM FEW060 28/15 A2992 870 43 2600 170/09 RMK AO2
14837KMSN MSN20010716173509607/16/01 17:35:31  5-MIN KMSN 162335Z 18011KT 10SM FEW060 28/15 A2992 870 43 2600 180/11 RMK AO2
14837KMSN MSN20010716174009307/16/01 17:40:31  5-MIN KMSN 162340Z 19008KT 10SM CLR 28/15 A2992 870 43 2600 190/08 RMK AO2
14837KMSN MSN20010716174509307/16/01 17:45:31  5-MIN KMSN 162345Z 17011KT 10SM CLR 28/15 A2992 870 43 2600 170/11 RMK AO2
14837KMSN MSN20010716175012807/16/01 17:50:31  5-MIN KMSN 162350Z 18011KT 10SM CLR 28/16 A2992 870 45 2600 180/11 RMK AO2 SLP126 T02830156 10306 20278 57012
14837KMSN MSN20010716175510907/16/01 17:55:31  5-MIN KMSN 162355Z 18008KT 160V230 10SM CLR 28/15 A2992 870 43 2600 180/08 160V230 RMK AO2
14837KMSN MSN20010716180009307/16/01 18:00:31  5-MIN KMSN 170000Z 18009KT 10SM CLR 28/16 A2992 870 45 2600 180/09 RMK AO2
14837KMSN MSN20010716180509307/16/01 18:05:31  5-MIN KMSN 170005Z 18011KT 10SM CLR 28/16 A2992 870 45 2600 180/11 RMK AO2
14837KMSN MSN20010716181009307/16/01 18:10:31  5-MIN KMSN 170010Z 17010KT 10SM CLR 28/16 A2992 870 46 2600 170/10 RMK AO2
14837KMSN MSN20010716181509307/16/01 18:15:31  5-MIN KMSN 170015Z 17010KT 10SM CLR 28/16 A2992 870 46 2600 170/10 RMK AO2
14837KMSN MSN20010716182009307/16/01 18:20:31  5-MIN KMSN 170020Z 17011KT 10SM CLR 28/16 A2992 870 46 2600 170/11 RMK AO2
14837KMSN MSN20010716182509307/16/01 18:25:31  5-MIN KMSN 170025Z 18010KT 10SM CLR 28/16 A2992 870 46 2600 180/10 RMK AO2
14837KMSN MSN20010716183009307/16/01 18:30:31  5-MIN KMSN 170030Z 18011KT 10SM CLR 28/16 A2992 860 46 2600 180/11 RMK AO2
14837KMSN MSN20010716183509607/16/01 18:35:31  5-MIN KMSN 170035Z 18009KT 10SM FEW055 28/16 A2992 860 48 2600 180/09 RMK AO2
14837KMSN MSN20010716184009307/16/01 18:40:31  5-MIN KMSN 170040Z 18011KT 10SM CLR 27/16 A2992 860 48 2500 180/11 RMK AO2
14837KMSN MSN20010716184509607/16/01 18:45:31  5-MIN KMSN 170045Z 18011KT 10SM FEW055 27/16 A2992 860 48 2500 180/11 RMK AO2
14837KMSN MSN20010716185011307/16/01 18:50:31  5-MIN KMSN 170050Z 18010KT 10SM FEW055 27/16 A2992 860 48 2500 180/10 RMK AO2 SLP127 T02720156
14837KMSN MSN20010716185509607/16/01 18:55:31  5-MIN KMSN 170055Z 18009KT 10SM FEW055 27/16 A2992 860 50 2500 180/09 RMK AO2
14837KMSN MSN20010716190009607/16/01 19:00:31  5-MIN KMSN 170100Z 18007KT 10SM FEW055 27/16 A2992 860 50 2500 180/07 RMK AO2
14837KMSN MSN20010716190509607/16/01 19:05:31  5-MIN KMSN 170105Z 18008KT 10SM FEW055 27/16 A2993 860 52 2400 180/08 RMK AO2
14837KMSN MSN20010716191009607/16/01 19:10:31  5-MIN KMSN 170110Z 17010KT 10SM FEW055 27/16 A2993 860 50 2500 170/10 RMK AO2
14837KMSN MSN20010716191509607/16/01 19:15:31  5-MIN KMSN 170115Z 18007KT 10SM FEW055 27/16 A2993 860 52 2400 180/07 RMK AO2
14837KMSN MSN20010716192009607/16/01 19:20:31  5-MIN KMSN 170120Z 18008KT 10SM FEW055 27/16 A2993 860 52 2400 180/08 RMK AO2
14837KMSN MSN20010716192509607/16/01 19:25:31  5-MIN KMSN 170125Z 19007KT 10SM FEW055 27/16 A2993 860 52 2400 180/07 RMK AO2
14837KMSN MSN20010716193009607/16/01 19:30:31  5-MIN KMSN 170130Z 18006KT 10SM FEW055 27/16 A2992 860 52 2400 180/06 RMK AO2
14837KMSN MSN20010716193509307/16/01 19:35:31  5-MIN KMSN 170135Z 18006KT 10SM CLR 27/16 A2993 860 52 2400 180/06 RMK AO2
14837KMSN MSN20010716194009307/16/01 19:40:31  5-MIN KMSN 170140Z 18007KT 10SM CLR 27/16 A2992 860 52 2400 180/07 RMK AO2
14837KMSN MSN20010716194509607/16/01 19:45:31  5-MIN KMSN 170145Z 18006KT 10SM SCT095 26/17 A2992 860 57 2300 170/06 RMK AO2
14837KMSN MSN20010716195011307/16/01 19:50:31  5-MIN KMSN 170150Z 18006KT 10SM SCT095 26/17 A2993 860 55 2400 180/06 RMK AO2 SLP128 T02610167
14837KMSN MSN20010716195509607/16/01 19:55:31  5-MIN KMSN 170155Z 17008KT 10SM BKN095 26/17 A2992 860 57 2300 170/08 RMK AO2
14837KMSN MSN20010716200009607/16/01 20:00:31  5-MIN KMSN 170200Z 18009KT 10SM SCT095 26/17 A2993 860 57 2300 180/09 RMK AO2
14837KMSN MSN20010716200509607/16/01 20:05:31  5-MIN KMSN 170205Z 18006KT 10SM BKN095 26/17 A2993 850 55 2400 180/06 RMK AO2
14837KMSN MSN20010716201009607/16/01 20:10:31  5-MIN KMSN 170210Z 18007KT 10SM BKN095 26/17 A2993 850 55 2400 180/07 RMK AO2
14837KMSN MSN20010716201509607/16/01 20:15:31  5-MIN KMSN 170215Z 18007KT 10SM BKN100 26/17 A2993 850 55 2400 180/07 RMK AO2
14837KMSN MSN20010716202009607/16/01 20:20:31  5-MIN KMSN 170220Z 18008KT 10SM BKN100 26/17 A2993 860 57 2300 180/08 RMK AO2
14837KMSN MSN20010716202509607/16/01 20:25:31  5-MIN KMSN 170225Z 19009KT 10SM SCT100 26/17 A2993 850 55 2400 190/09 RMK AO2
14837KMSN MSN20010716203009607/16/01 20:30:31  5-MIN KMSN 170230Z 18008KT 10SM SCT095 26/16 A2993 850 53 2400 180/08 RMK AO2
14837KMSN MSN20010716203509607/16/01 20:35:31  5-MIN KMSN 170235Z 19009KT 10SM FEW100 26/16 A2993 850 55 2300 190/09 RMK AO2
14837KMSN MSN20010716204009507/16/01 20:40:31  5-MIN KMSN 170240Z 19008KT 9SM SCT100 26/16 A2994 850 53 2400 180/08 RMK AO2
14837KMSN MSN20010716204509607/16/01 20:45:31  5-MIN KMSN 170245Z 18007KT 10SM SCT100 26/16 A2994 850 55 2300 180/07 RMK AO2
14837KMSN MSN20010716205011907/16/01 20:50:31  5-MIN KMSN 170250Z 18008KT 10SM SCT095 26/16 A2993 850 55 2300 180/08 RMK AO2 SLP131 T02560161 56007
14837KMSN MSN20010716205509607/16/01 20:55:31  5-MIN KMSN 170255Z 18006KT 10SM BKN095 26/16 A2994 850 55 2300 180/06 RMK AO2
14837KMSN MSN20010716210009607/16/01 21:00:31  5-MIN KMSN 170300Z 18007KT 10SM BKN095 26/16 A2994 850 55 2300 180/07 RMK AO2
14837KMSN MSN20010716210509607/16/01 21:05:31  5-MIN KMSN 170305Z 18007KT 10SM OVC095 26/16 A2994 850 55 2300 180/07 RMK AO2
14837KMSN MSN20010716211009607/16/01 21:10:31  5-MIN KMSN 170310Z 17006KT 10SM OVC095 26/17 A2994 840 57 2300 170/06 RMK AO2
14837KMSN MSN20010716211509607/16/01 21:15:31  5-MIN KMSN 170315Z 17005KT 10SM OVC095 25/17 A2994 850 59 2200 170/05 RMK AO2
14837KMSN MSN20010716212009607/16/01 21:20:31  5-MIN KMSN 170320Z 18007KT 10SM OVC095 25/17 A2994 840 59 2200 180/07 RMK AO2
14837KMSN MSN20010716212509607/16/01 21:25:31  5-MIN KMSN 170325Z 18007KT 10SM OVC095 25/17 A2994 850 59 2200 180/07 RMK AO2
14837KMSN MSN20010716213009607/16/01 21:30:31  5-MIN KMSN 170330Z 18007KT 10SM OVC095 25/17 A2994 850 59 2200 180/07 RMK AO2
14837KMSN MSN20010716213509607/16/01 21:35:31  5-MIN KMSN 170335Z 18007KT 10SM OVC095 25/17 A2994 850 59 2200 180/07 RMK AO2
14837KMSN MSN20010716214009607/16/01 21:40:31  5-MIN KMSN 170340Z 18007KT 10SM OVC095 25/17 A2994 850 59 2200 180/07 RMK AO2
14837KMSN MSN20010716214509607/16/01 21:45:31  5-MIN KMSN 170345Z 18007KT 10SM OVC095 25/17 A2994 850 59 2200 180/07 RMK AO2
14837KMSN MSN20010716215011307/16/01 21:50:31  5-MIN KMSN 170350Z 18008KT 10SM BKN095 25/16 A2994 850 57 2200 180/08 RMK AO2 SLP133 T02500161
14837KMSN MSN20010716215509607/16/01 21:55:31  5-MIN KMSN 170355Z 18006KT 10SM SCT090 25/16 A2994 840 57 2200 180/06 RMK AO2
14837KMSN MSN20010716220009607/16/01 22:00:31  5-MIN KMSN 170400Z 18006KT 10SM SCT090 25/16 A2994 840 57 2200 180/06 RMK AO2
14837KMSN MSN20010716220509607/16/01 22:05:31  5-MIN KMSN 170405Z 18006KT 10SM SCT090 25/17 A2994 840 59 2200 180/06 RMK AO2
14837KMSN MSN20010716221009607/16/01 22:10:31  5-MIN KMSN 170410Z 18006KT 10SM SCT090 25/17 A2994 840 59 2200 170/06 RMK AO2
14837KMSN MSN20010716221509607/16/01 22:15:31  5-MIN KMSN 170415Z 17005KT 10SM SCT090 24/17 A2994 840 61 2200 170/05 RMK AO2
14837KMSN MSN20010716222010307/16/01 22:20:31  5-MIN KMSN 170420Z 17005KT 10SM FEW075 BKN090 24/17 A2994 840 61 2200 170/05 RMK AO2
14837KMSN MSN20010716222509607/16/01 22:25:31  5-MIN KMSN 170425Z 16005KT 10SM BKN085 24/17 A2994 840 61 2200 160/05 RMK AO2
14837KMSN MSN20010716223010307/16/01 22:30:31  5-MIN KMSN 170430Z 16008KT 10SM SCT070 BKN090 24/17 A2994 850 61 2200 160/08 RMK AO2
14837KMSN MSN20010716223510307/16/01 22:35:31  5-MIN KMSN 170435Z 17008KT 10SM BKN070 BKN090 25/17 A2994 840 59 2200 170/08 RMK AO2
14837KMSN MSN20010716224010307/16/01 22:40:31  5-MIN KMSN 170440Z 16007KT 10SM BKN070 OVC090 25/16 A2994 850 57 2200 160/07 RMK AO2
14837KMSN MSN20010716224510307/16/01 22:45:31  5-MIN KMSN 170445Z 16007KT 10SM BKN070 OVC085 25/16 A2994 850 57 2200 160/07 RMK AO2
14837KMSN MSN20010716225012007/16/01 22:50:31  5-MIN KMSN 170450Z 16007KT 10SM BKN070 OVC085 25/16 A2994 850 57 2200 160/07 RMK AO2 SLP130 T02500161
14837KMSN MSN20010716225510307/16/01 22:55:31  5-MIN KMSN 170455Z 17008KT 10SM BKN065 OVC085 24/16 A2994 850 59 2200 160/08 RMK AO2
14837KMSN MSN20010716230010307/16/01 23:00:31  5-MIN KMSN 170500Z 16007KT 10SM BKN070 OVC085 24/16 A2994 850 59 2200 160/07 RMK AO2
14837KMSN MSN20010716230510307/16/01 23:05:31  5-MIN KMSN 170505Z 17005KT 10SM SCT070 OVC080 24/16 A2994 850 59 2200 170/05 RMK AO2
14837KMSN MSN20010716231010207/16/01 23:10:31  5-MIN KMSN 170510Z 17006KT 9SM FEW070 OVC080 24/16 A2993 850 59 2200 170/06 RMK AO2
14837KMSN MSN20010716231510207/16/01 23:15:31  5-MIN KMSN 170515Z 17007KT 9SM FEW070 OVC085 24/16 A2993 850 59 2200 170/07 RMK AO2
14837KMSN MSN20010716232009507/16/01 23:20:31  5-MIN KMSN 170520Z 17006KT 9SM BKN080 24/16 A2993 850 59 2200 170/06 RMK AO2
14837KMSN MSN20010716232509507/16/01 23:25:31  5-MIN KMSN 170525Z 17006KT 9SM BKN080 24/16 A2993 850 61 2100 170/06 RMK AO2
14837KMSN MSN20010716233009507/16/01 23:30:31  5-MIN KMSN 170530Z 17006KT 9SM SCT080 24/16 A2993 850 61 2100 170/06 RMK AO2
14837KMSN MSN20010716233509607/16/01 23:35:31  5-MIN KMSN 170535Z 17005KT 10SM SCT080 24/16 A2994 850 61 2100 160/05 RMK AO2
14837KMSN MSN20010716234010307/16/01 23:40:31  5-MIN KMSN 170540Z 17006KT 10SM FEW060 SCT080 24/16 A2994 850 61 2100 170/06 RMK AO2
14837KMSN MSN20010716234510207/16/01 23:45:31  5-MIN KMSN 170545Z 16006KT 8SM SCT060 SCT080 24/16 A2994 850 61 2100 160/06 RMK AO2
14837KMSN MSN20010716235014007/16/01 23:50:31  5-MIN KMSN 170550Z 16005KT 8SM SCT060 24/16 A2994 850 61 2100 160/05 RMK AO2 SLP131 T02390161 10283 20239 403060150 53006
14837KMSN MSN20010716235509607/16/01 23:55:31  5-MIN KMSN 170555Z 15005KT 10SM BKN060 24/17 A2994 850 63 2100 150/05 RMK AO2
14837KMSN MSN20010717000010307/17/01 00:00:31  5-MIN KMSN 170600Z 15005KT 10SM BKN060 BKN080 24/17 A2994 850 63 2100 150/05 RMK AO2
14837KMSN MSN20010717000510307/17/01 00:05:31  5-MIN KMSN 170605Z 15005KT 10SM BKN060 OVC080 24/17 A2994 850 63 2100 150/05 RMK AO2
14837KMSN MSN20010717001009607/17/01 00:10:31  5-MIN KMSN 170610Z 15005KT 10SM OVC060 24/17 A2994 850 63 2100 150/05 RMK AO2
14837KMSN MSN20010717001509607/17/01 00:15:31  5-MIN KMSN 170615Z 15005KT 10SM OVC060 24/17 A2994 850 63 2100 150/05 RMK AO2
14837KMSN MSN20010717002009607/17/01 00:20:31  5-MIN KMSN 170620Z 15005KT 10SM OVC060 24/16 A2994 850 61 2100 150/05 RMK AO2
14837KMSN MSN20010717002509607/17/01 00:25:31  5-MIN KMSN 170625Z 16007KT 10SM OVC060 24/16 A2994 850 61 2100 160/07 RMK AO2
14837KMSN MSN20010717003009607/17/01 00:30:31  5-MIN KMSN 170630Z 15006KT 10SM OVC065 24/16 A2994 850 61 2100 150/06 RMK AO2
14837KMSN MSN20010717003509607/17/01 00:35:31  5-MIN KMSN 170635Z 15006KT 10SM OVC070 24/16 A2994 850 61 2100 150/06 RMK AO2
14837KMSN MSN20010717004009607/17/01 00:40:31  5-MIN KMSN 170640Z 15006KT 10SM OVC070 24/16 A2994 850 61 2100 150/06 RMK AO2
14837KMSN MSN20010717004509607/17/01 00:45:31  5-MIN KMSN 170645Z 15005KT 10SM OVC070 24/16 A2994 850 61 2100 150/05 RMK AO2
14837KMSN MSN20010717005011307/17/01 00:50:31  5-MIN KMSN 170650Z 15005KT 10SM OVC070 24/16 A2993 850 61 2100 150/05 RMK AO2 SLP129 T02390161
14837KMSN MSN20010717005509607/17/01 00:55:31  5-MIN KMSN 170655Z 15005KT 10SM OVC070 23/17 A2993 850 66 2100 150/05 RMK AO2
14837KMSN MSN20010717010009607/17/01 01:00:31  5-MIN KMSN 170700Z 15004KT 10SM OVC070 23/16 A2993 850 63 2100 150/04 RMK AO2
14837KMSN MSN20010717010509607/17/01 01:05:31  5-MIN KMSN 170705Z 15005KT 10SM OVC070 24/16 A2993 860 61 2100 150/05 RMK AO2
14837KMSN MSN20010717011009607/17/01 01:10:31  5-MIN KMSN 170710Z 16006KT 10SM OVC070 24/16 A2993 850 61 2100 160/06 RMK AO2
14837KMSN MSN20010717011509607/17/01 01:15:31  5-MIN KMSN 170715Z 16005KT 10SM OVC070 24/16 A2993 860 61 2100 160/05 RMK AO2
14837KMSN MSN20010717012009607/17/01 01:20:31  5-MIN KMSN 170720Z 16005KT 10SM OVC070 24/16 A2993 860 61 2100 160/05 RMK AO2
14837KMSN MSN20010717012509607/17/01 01:25:31  5-MIN KMSN 170725Z 17004KT 10SM OVC070 23/16 A2993 850 63 2100 170/04 RMK AO2
14837KMSN MSN20010717013009607/17/01 01:30:31  5-MIN KMSN 170730Z 16005KT 10SM OVC070 24/16 A2993 850 61 2100 160/05 RMK AO2
14837KMSN MSN20010717013509607/17/01 01:35:31  5-MIN KMSN 170735Z 16004KT 10SM OVC065 24/16 A2993 860 61 2100 160/04 RMK AO2
14837KMSN MSN20010717014009607/17/01 01:40:31  5-MIN KMSN 170740Z 16004KT 10SM OVC070 23/16 A2993 860 63 2100 160/04 RMK AO2
14837KMSN MSN20010717014509607/17/01 01:45:31  5-MIN KMSN 170745Z 17004KT 10SM OVC070 24/16 A2993 860 61 2100 170/04 RMK AO2
14837KMSN MSN20010717015011307/17/01 01:50:31  5-MIN KMSN 170750Z 18006KT 10SM OVC070 24/16 A2993 860 61 2100 180/06 RMK AO2 SLP127 T02390161
14837KMSN MSN20010717015509607/17/01 01:55:31  5-MIN KMSN 170755Z 18007KT 10SM OVC070 24/16 A2993 860 61 2100 180/07 RMK AO2
14837KMSN MSN20010717020009607/17/01 02:00:31  5-MIN KMSN 170800Z 18006KT 10SM OVC070 24/16 A2993 860 61 2100 180/06 RMK AO2
14837KMSN MSN20010717020509607/17/01 02:05:31  5-MIN KMSN 170805Z 16006KT 10SM OVC075 23/16 A2992 860 63 2100 160/06 RMK AO2
14837KMSN MSN20010717021009607/17/01 02:10:31  5-MIN KMSN 170810Z 17006KT 10SM OVC075 23/17 A2993 860 66 2100 170/06 RMK AO2
14837KMSN MSN20010717021509607/17/01 02:15:31  5-MIN KMSN 170815Z 17006KT 10SM OVC075 23/17 A2993 860 66 2100 170/06 RMK AO2
14837KMSN MSN20010717022009607/17/01 02:20:31  5-MIN KMSN 170820Z 17006KT 10SM OVC075 23/17 A2993 860 66 2100 170/06 RMK AO2
14837KMSN MSN20010717022509607/17/01 02:25:31  5-MIN KMSN 170825Z 16007KT 10SM OVC075 23/17 A2992 860 66 2100 160/07 RMK AO2
14837KMSN MSN20010717023009607/17/01 02:30:31  5-MIN KMSN 170830Z 16007KT 10SM BKN075 23/17 A2992 860 66 2100 160/07 RMK AO2
14837KMSN MSN20010717023509607/17/01 02:35:31  5-MIN KMSN 170835Z 16006KT 10SM BKN075 23/17 A2992 860 66 2100 160/06 RMK AO2
14837KMSN MSN20010717024009607/17/01 02:40:31  5-MIN KMSN 170840Z 17007KT 10SM BKN075 23/17 A2992 860 66 2100 160/07 RMK AO2
14837KMSN MSN20010717024509607/17/01 02:45:31  5-MIN KMSN 170845Z 17007KT 10SM BKN075 24/17 A2992 860 63 2100 160/07 RMK AO2
14837KMSN MSN20010717025012607/17/01 02:50:31  5-MIN KMSN 170850Z 16007KT 10SM BKN070 OVC085 23/17 A2992 860 66 2100 160/07 RMK AO2 SLP126 T02330167 51001
14837KMSN MSN20010717025509607/17/01 02:55:31  5-MIN KMSN 170855Z 17007KT 10SM BKN070 23/17 A2992 870 66 2100 170/07 RMK AO2
14837KMSN MSN20010717030009607/17/01 03:00:31  5-MIN KMSN 170900Z 16005KT 10SM OVC070 23/17 A2992 870 66 2100 160/05 RMK AO2
14837KMSN MSN20010717030509607/17/01 03:05:31  5-MIN KMSN 170905Z 16006KT 10SM OVC070 23/17 A2992 870 66 2100 160/06 RMK AO2
14837KMSN MSN20010717031009607/17/01 03:10:31  5-MIN KMSN 170910Z 16006KT 10SM OVC075 23/17 A2992 870 68 2100 160/06 RMK AO2
14837KMSN MSN20010717031510307/17/01 03:15:31  5-MIN KMSN 170915Z 17006KT 10SM BKN070 OVC085 23/17 A2992 870 68 2100 160/06 RMK AO2
14837KMSN MSN20010717032009607/17/01 03:20:31  5-MIN KMSN 170920Z 17005KT 10SM OVC075 23/17 A2992 870 68 2100 170/05 RMK AO2
14837KMSN MSN20010717032510307/17/01 03:25:31  5-MIN KMSN 170925Z 17006KT 10SM BKN075 OVC090 23/17 A2992 870 68 2100 170/06 RMK AO2
14837KMSN MSN20010717033009507/17/01 03:30:31  5-MIN KMSN 170930Z 17005KT 9SM OVC080 23/17 A2992 870 68 2100 170/05 RMK AO2
14837KMSN MSN20010717033509507/17/01 03:35:31  5-MIN KMSN 170935Z 17006KT 9SM OVC080 23/17 A2992 870 68 2100 160/06 RMK AO2
14837KMSN MSN20010717034009507/17/01 03:40:31  5-MIN KMSN 170940Z 17006KT 9SM OVC085 23/17 A2992 870 70 2000 160/06 RMK AO2
14837KMSN MSN20010717034509507/17/01 03:45:31  5-MIN KMSN 170945Z 16007KT 9SM OVC085 23/17 A2992 870 68 2100 160/07 RMK AO2
14837KMSN MSN20010717035011207/17/01 03:50:31  5-MIN KMSN 170950Z 16007KT 9SM OVC085 23/17 A2991 870 70 2000 160/07 RMK AO2 SLP123 T02280172
14837KMSN MSN20010717035509507/17/01 03:55:31  5-MIN KMSN 170955Z 16007KT 9SM OVC085 23/17 A2991 870 70 2000 160/07 RMK AO2
14837KMSN MSN20010717040009507/17/01 04:00:31  5-MIN KMSN 171000Z 16008KT 9SM BKN085 23/17 A2990 880 70 2000 160/08 RMK AO2
14837KMSN MSN20010717040509507/17/01 04:05:31  5-MIN KMSN 171005Z 16009KT 9SM BKN085 23/17 A2990 880 70 2000 160/09 RMK AO2
14837KMSN MSN20010717041009507/17/01 04:10:31  5-MIN KMSN 171010Z 16007KT 8SM SCT085 23/18 A2990 880 73 2000 160/07 RMK AO2
14837KMSN MSN20010717041509507/17/01 04:15:31  5-MIN KMSN 171015Z 16007KT 8SM FEW085 23/18 A2990 880 73 2000 150/07 RMK AO2
14837KMSN MSN20010717042009507/17/01 04:20:31  5-MIN KMSN 171020Z 16007KT 8SM FEW090 22/18 A2991 880 75 2000 150/07 RMK AO2
14837KMSN MSN20010717042509207/17/01 04:25:31  5-MIN KMSN 171025Z 15006KT 8SM CLR 22/18 A2991 880 75 2000 150/06 RMK AO2
14837KMSN MSN20010717043009207/17/01 04:30:31  5-MIN KMSN 171030Z 14006KT 8SM CLR 22/18 A2991 880 75 2000 140/06 RMK AO2
14837KMSN MSN20010717043509207/17/01 04:35:31  5-MIN KMSN 171035Z 13005KT 7SM CLR 22/18 A2991 870 75 2000 130/05 RMK AO2
14837KMSN MSN20010717044009507/17/01 04:40:31  5-MIN KMSN 171040Z 12005KT 7SM FEW120 22/18 A2991 870 75 2000 120/05 RMK AO2
14837KMSN MSN20010717044509807/17/01 04:45:31  5-MIN KMSN 171045Z 09004KT 6SM HZ FEW120 22/18 A2991 870 75 2000 090/04 RMK AO2
14837KMSN MSN20010717045011507/17/01 04:50:31  5-MIN KMSN 171050Z 10004KT 6SM HZ FEW065 22/18 A2991 870 78 1900 100/04 RMK AO2 SLP123 T02170178
14837KMSN MSN20010717045509807/17/01 04:55:31  5-MIN KMSN 171055Z 13004KT 6SM HZ FEW065 22/18 A2991 870 78 1900 130/04 RMK AO2
14837KMSN MSN20010717050009807/17/01 05:00:31  5-MIN KMSN 171100Z 15006KT 6SM HZ FEW065 22/18 A2991 870 75 1900 150/06 RMK AO2
14837KMSN MSN20010717050509807/17/01 05:05:31  5-MIN KMSN 171105Z 14007KT 6SM HZ FEW065 22/18 A2991 870 78 2000 140/07 RMK AO2
14837KMSN MSN20010717051010507/17/01 05:10:31  5-MIN KMSN 171110Z 15008KT 6SM HZ FEW065 SCT100 22/18 A2991 870 75 2000 150/08 RMK AO2
14837KMSN MSN20010717051510507/17/01 05:15:31  5-MIN KMSN 171115Z 16008KT 6SM HZ FEW065 SCT100 22/18 A2990 880 78 2000 160/08 RMK AO2
14837KMSN MSN20010717052009807/17/01 05:20:31  5-MIN KMSN 171120Z 16008KT 6SM HZ FEW065 22/18 A2990 880 78 2000 150/08 RMK AO2
14837KMSN MSN20010717052509807/17/01 05:25:31  5-MIN KMSN 171125Z 16009KT 6SM HZ FEW100 22/18 A2990 880 78 2000 160/09 RMK AO2
14837KMSN MSN20010717053009807/17/01 05:30:31  5-MIN KMSN 171130Z 17006KT 6SM HZ FEW100 22/18 A2991 880 78 2000 170/06 RMK AO2
14837KMSN MSN20010717053509807/17/01 05:35:31  5-MIN KMSN 171135Z 17006KT 6SM HZ FEW095 22/18 A2991 870 78 2000 170/06 RMK AO2
14837KMSN MSN20010717054009507/17/01 05:40:31  5-MIN KMSN 171140Z 17007KT 6SM HZ CLR 23/18 A2991 870 76 2000 170/07 RMK AO2
14837KMSN MSN20010717054509507/17/01 05:45:31  5-MIN KMSN 171145Z 19005KT 6SM HZ CLR 23/18 A2992 870 76 2000 190/05 RMK AO2
14837KMSN MSN20010717055013007/17/01 05:50:31  5-MIN KMSN 171150Z 21004KT 6SM HZ CLR 23/18 A2991 870 76 2000 210/04 RMK AO2 SLP124 T02280183 10239 20217 58006
14837KMSN MSN20010717055509507/17/01 05:55:31  5-MIN KMSN 171155Z VRB06KT 6SM HZ CLR 23/18 A2991 870 73 2100 VRB/06 RMK AO2
14837KMSN MSN20010717060009807/17/01 06:00:31  5-MIN KMSN 171200Z 19005KT 6SM HZ FEW095 23/18 A2991 870 73 2100 190/05 RMK AO2
14837KMSN MSN20010717060509807/17/01 06:05:31  5-MIN KMSN 171205Z 17007KT 6SM HZ SCT095 23/19 A2991 870 76 2100 170/07 RMK AO2
14837KMSN MSN20010717061010507/17/01 06:10:31  5-MIN KMSN 171210Z 19006KT 6SM HZ FEW075 BKN090 23/18 A2991 870 73 2100 190/06 RMK AO2
14837KMSN MSN20010717061510507/17/01 06:15:31  5-MIN KMSN 171215Z 17006KT 6SM HZ SCT070 BKN090 23/19 A2991 870 78 2000 170/06 RMK AO2
14837KMSN MSN20010717062011807/17/01 06:20:31  5-MIN KMSN 171220Z 17007KT 6SM -RA BKN070 BKN095 23/19 A2991 870 78 2000 170/07 RMK AO2 RAB19 P0000
14837KMSN MSN20010717062511807/17/01 06:25:31  5-MIN KMSN 171225Z 16006KT 5SM -RA BKN070 OVC090 23/19 A2991 870 78 2000 160/06 RMK AO2 RAB19 P0000
14837KMSN MSN20010717063011107/17/01 06:30:31  5-MIN KMSN 171230Z 19004KT 5SM -RA OVC070 23/19 A2992 870 78 2000 190/04 RMK AO2 RAB19 P0000
14837KMSN MSN20010717063511107/17/01 06:35:31  5-MIN KMSN 171235Z 00000KT 5SM -RA OVC070 22/19 A2992 860 81 1900 000/00 RMK AO2 RAB19 P0000
14837KMSN MSN20010717064012007/17/01 06:40:31  5-MIN KMSN 171240Z 32004KT 5SM HZ BKN055 OVC070 22/19 A2993 860 84 1900 320/04 RMK AO2 RAB19E37 P0000
14837KMSN MSN20010717064512707/17/01 06:45:31  5-MIN KMSN 171245Z 35004KT 5SM BR SCT025 BKN060 OVC070 22/19 A2993 860 87 1900 350/04 RMK AO2 RAB19E37 P0000
14837KMSN MSN20010717065016907/17/01 06:50:31  5-MIN KMSN 171250Z 36003KT 5SM -TSRA BR BKN025 OVC060 22/19 A2992 860 87 1900 360/03 RMK AO2 TSB48RAB19 SLP127 FRQ LTGIC OHD TS OHD SE P0000 T02170194
14837KMSN MSN20010717065511707/17/01 06:55:31  5-MIN KMSN 171255Z 35004KT 4SM -TSRA BR BKN025 OVC060 22/19 A2993 860 87 1900 350/04 RMK AO2 P0000
14837KMSN MSN20010717070014607/17/01 07:00:31  5-MIN KMSN 171300Z 33007KT 2SM TSRA BR BKN025 OVC050 21/19 A2993 850 90 1800 330/07 RMK AO2 FRQ LTGICCC OHD TS OHD MOV SE P0005
14837KMSN MSN20010717070514807/17/01 07:05:31  5-MIN KMSN 171305Z 36010KT 3/4SM TSRA BR BKN025 OVC050 21/19 A2993 860 93 1700 360/10 RMK AO2 FRQ LTGICCC OHD TS OHD MOV SE P0019
14837KMSN MSN20010717071014507/17/01 07:10:31  5-MIN KMSN 171310Z 03009KT 1 1/4SM -TSRA BR OVC025 21/20 A2993 860 97 1700 030/09 RMK AO2 OCNL LTGICCC OHD TS OHD MOV SE P0022
14837KMSN MSN20010717071514507/17/01 07:15:31  5-MIN KMSN 171315Z 03005KT 1 1/2SM -TSRA BR OVC025 21/20 A2993 850 97 1700 030/05 RMK AO2 OCNL LTGICCC OHD TS OHD MOV SE P0025
14837KMSN MSN20010717072014507/17/01 07:20:31  5-MIN KMSN 171320Z 01006KT 1 1/4SM TSRA BR OVC025 20/20 A2994 850 100 1700 010/06 RMK AO2 OCNL LTGICCC OHD TS OHD MOV SE P0033
14837KMSN MSN20010717072514507/17/01 07:25:31  5-MIN KMSN 171325Z 36005KT 1 1/2SM TSRA BR OVC025 20/20 A2995 840 100 1700 360/05 RMK AO2 OCNL LTGICCC OHD TS OHD MOV SE P0035
14837KMSN MSN20010717073014207/17/01 07:30:31  5-MIN KMSN 171330Z 33007KT 1 3/4SM RA BR FEW003 OVC025 20/20 A2996 820 100 1600 330/07 RMK AO2 TSE26 PRESRR TS MOV SE P0037
14837KMSN MSN20010717073514207/17/01 07:35:31  5-MIN KMSN 171335Z 32007KT 1 1/4SM +RA BR FEW005 SCT018 OVC025 20/19 A2998 810 97 1600 320/07 RMK AO2 TSE26 TS MOV SE P0043
14837KMSN MSN20010717074017007/17/01 07:40:31  5-MIN KMSN 171340Z 34009KT 3/4SM +TSRA FEW003 SCT009 OVC025 20/19 A2998 810 97 1600 340/09 RMK AO2 TSE26B36 PRESRR OCNL LTGICCC OHD TS OHD MOV SE P0061
14837KMSN MSN20010717074516907/17/01 07:45:31  5-MIN KMSN 171345Z VRB06KT 1/2SM +TSRA SCT001 BKN018 OVC025 20/19 A3000 790 97 1600 VRB/06 RMK AO2 TSE26B36 PRESRR FRQ LTGICCC OHD TS OHD MOV SE P0091
14837KMSN MSN20010717075018607/17/01 07:50:31  5-MIN KMSN 171350Z VRB05KT 3/4SM TSRA SCT001 BKN007 OVC025 20/19 A3001 780 97 1600 VRB/05 RMK AO2 TSE26B36 PRESRR SLP158 OCNL LTGICCC OHD TS OHD MOV SE P0102 T02000194
14837KMSN MSN20010717075512007/17/01 07:55:31  5-MIN KMSN 171355Z 32007KT 1SM TSRA SCT001 BKN007 OVC017 20/19 A3001 780 97 1600 320/07 RMK AO2 P0001
14837KMSN MSN20010717080012707/17/01 08:00:31  5-MIN KMSN 171400Z 33006KT 2SM -RA BKN003 BKN009 OVC017 20/19 A3001 780 97 1600 330/06 RMK AO2 TSE1357 P0004
14837KMSN MSN20010717080514807/17/01 08:05:31  5-MIN KMSN 171405Z 01010G15KT 1 1/2SM -RA FEW001 BKN006 OVC010 19/19 A2998 810 100 1600 360/10G15 RMK AO2 TSE1357 TS MOV SE P0007
14837KMSN MSN20010717081014707/17/01 08:10:31  5-MIN KMSN 171410Z 35011G15KT 2 1/2SM -RA BKN003 BKN008 OVC015 19/19 A2998 810 97 1600 350/11G15 RMK AO2 TSE1357 TS MOV SE P0008
14837KMSN MSN20010717081513407/17/01 08:15:31  5-MIN KMSN 171415Z 36009KT 2 1/2SM -RA SCT006 OVC022 19/19 A2998 810 97 1600 360/09 RMK AO2 TSE1357 TS MOV SE P0009
14837KMSN MSN20010717082013907/17/01 08:20:31  5-MIN KMSN 171420Z 36009KT 2 1/2SM -TSRA SCT004 OVC022 19/19 A2998 810 97 1600 360/09 RMK AO2 TSE1357B20 TS MOV SE P0011
14837KMSN MSN20010717082515807/17/01 08:25:31  5-MIN KMSN 171425Z 02011KT 2 1/2SM -TSRA SCT004 OVC020 19/19 A2998 810 97 1600 020/11 RMK AO2 TSE1357B20 OCNL LTGIC OHD TS OHD MOV SE P0013
14837KMSN MSN20010717083015407/17/01 08:30:31  5-MIN KMSN 171430Z 03011KT 3SM -TSRA FEW004 OVC020 19/19 A2998 810 97 1600 030/11 RMK AO2 TSE1357B20 OCNL LTGIC OHD TS OHD MOV SE P0015
14837KMSN MSN20010717083514707/17/01 08:35:31  5-MIN KMSN 171435Z 04009KT 3SM -TSRA OVC020 19/18 A2999 800 93 1500 040/09 RMK AO2 TSE1357B20 OCNL LTGIC OHD TS OHD MOV SE P0017
14837KMSN MSN20010717084014707/17/01 08:40:31  5-MIN KMSN 171440Z 01006KT 4SM -TSRA OVC020 19/18 A2999 800 93 1500 010/06 RMK AO2 TSE1357B20 OCNL LTGIC OHD TS OHD MOV SE P0018
14837KMSN MSN20010717084513207/17/01 08:45:31  5-MIN KMSN 171445Z 35003KT 4SM -RA BR OVC018 19/18 A2999 800 93 1500 350/03 RMK AO2 TSE1357B20E42 TS MOV SE P0019
14837KMSN MSN20010717085016107/17/01 08:50:31  5-MIN KMSN 171450Z 04005KT 4SM -RA BR OVC018 19/19 A2999 800 97 1500 040/05 RMK AO2 TSE1357B20E42 SLP150 TS MOV SE P0023 60131 T01940189 56002
14837KMSN MSN20010717085510807/17/01 08:55:31  5-MIN KMSN 171455Z 07007KT 4SM -RA BR OVC018 19/19 A2998 810 97 1600 070/07 RMK AO2 P0000
14837KMSN MSN20010717090012207/17/01 09:00:31  5-MIN KMSN 171500Z 08006KT 4SM -RA BR BKN018 OVC075 19/19 A2997 820 97 1600 080/06 RMK AO2 PRESFR PNO $
14837KMSN MSN20010717090512207/17/01 09:05:31  5-MIN KMSN 171505Z 09008KT 5SM -RA BR BKN018 OVC075 19/19 A2996 830 97 1600 090/08 RMK AO2 PRESFR PNO $
14837KMSN MSN20010717091011507/17/01 09:10:31  5-MIN KMSN 171510Z 09007KT 5SM -RA BR BKN016 BKN075 20/19 A2996 830 97 1600 090/07 RMK AO2 PNO $
14837KMSN MSN20010717091511507/17/01 09:15:31  5-MIN KMSN 171515Z 09009KT 6SM -RA BR SCT016 BKN075 20/19 A2995 830 97 1600 090/09 RMK AO2 PNO $
14837KMSN MSN20010717092011407/17/01 09:20:31  5-MIN KMSN 171520Z 09008KT 8SM -RA FEW016 SCT075 21/19 A2995 840 93 1700 090/08 RMK AO2 P0004 $
14837KMSN MSN20010717092511507/17/01 09:25:31  5-MIN KMSN 171525Z 09010KT 10SM -RA FEW043 SCT075 21/19 A2994 840 90 1700 090/10 RMK AO2 P0004 $
14837KMSN MSN20010717093011707/17/01 09:30:31  5-MIN KMSN 171530Z 09014KT 10SM BKN055 20/19 A2992 860 93 1700 090/14 RMK AO2 RAE29 PRESFR P0005 $
14837KMSN MSN20010717093511007/17/01 09:35:31  5-MIN KMSN 171535Z 09014KT 10SM BKN055 20/19 A2992 870 97 1700 090/14 RMK AO2 RAE29 P0005 $
14837KMSN MSN20010717094011007/17/01 09:40:31  5-MIN KMSN 171540Z 11011KT 10SM SCT060 20/19 A2992 860 97 1700 110/11 RMK AO2 RAE40 P0005 $
14837KMSN MSN20010717094510807/17/01 09:45:31  5-MIN KMSN 171545Z 14011KT 10SM -RA SCT065 21/19 A2992 860 93 1800 140/11 RMK AO2 P0005 $
14837KMSN MSN20010717095014507/17/01 09:50:31  5-MIN KMSN 171550Z 14012KT 10SM SCT006 BKN065 21/19 A2992 870 93 1800 130/12 RMK AO2 WSHFT 1534 RAE48 SLP126 P0005 T02060194 $
14837KMSN MSN20010717095510407/17/01 09:55:31  5-MIN KMSN 171555Z 14012KT 7SM BKN006 BKN055 21/19 A2992 870 93 1800 140/12 RMK AO2 $
14837KMSN MSN20010717100010007/17/01 10:00:31  5-MIN KMSN 171600Z 14013KT 5SM BR BKN006 21/20 A2992 870 97 1800 140/13 RMK AO2 $
14837KMSN MSN20010717100510007/17/01 10:05:31  5-MIN KMSN 171605Z 15012KT 5SM BR BKN006 21/20 A2992 870 97 1800 140/12 RMK AO2 $
14837KMSN MSN20010717101009807/17/01 10:10:31  5-MIN KMSN 171610Z 14009KT 5SM BR OVC006 21/20 A2992 860 93 1800 140/09 RMK AO2
14837KMSN MSN20010717101509807/17/01 10:15:31  5-MIN KMSN 171615Z 14012KT 5SM BR OVC006 21/20 A2992 860 93 1800 140/12 RMK AO2
14837KMSN MSN20010717102011007/17/01 10:20:31  5-MIN KMSN 171620Z 14010KT 6SM BR OVC006 21/20 A2993 850 93 1800 140/10 RMK AO2 CIG 004V010
14837KMSN MSN20010717102511007/17/01 10:25:31  5-MIN KMSN 171625Z 15007KT 6SM BR OVC006 22/20 A2994 850 90 1900 150/07 RMK AO2 CIG 004V010
14837KMSN MSN20010717103010707/17/01 10:30:31  5-MIN KMSN 171630Z 15009KT 7SM OVC006 22/20 A2994 850 90 1900 150/09 RMK AO2 CIG 005V010
14837KMSN MSN20010717103510707/17/01 10:35:31  5-MIN KMSN 171635Z 15009KT 7SM OVC008 22/21 A2994 850 90 1900 150/09 RMK AO2 CIG 006V012
14837KMSN MSN20010717104010707/17/01 10:40:31  5-MIN KMSN 171640Z 15009KT 7SM OVC008 23/21 A2993 850 87 2000 150/09 RMK AO2 CIG 006V012
14837KMSN MSN20010717104509507/17/01 10:45:31  5-MIN KMSN 171645Z 14008KT 8SM BKN008 23/21 A2993 850 87 2000 140/08 RMK AO2
14837KMSN MSN20010717105011207/17/01 10:50:31  5-MIN KMSN 171650Z 14009KT 8SM BKN008 22/20 A2993 850 87 1900 140/09 RMK AO2 SLP131 T02220200
14837KMSN MSN20010717105510707/17/01 10:55:31  5-MIN KMSN 171655Z 14008KT 9SM BKN010 23/21 A2993 850 87 2000 130/08 RMK AO2 CIG 007V012
14837KMSN MSN20010717110009507/17/01 11:00:31  5-MIN KMSN 171700Z 16009KT 9SM BKN010 23/21 A2993 850 84 2100 160/09 RMK AO2
14837KMSN MSN20010717110510807/17/01 11:05:31  5-MIN KMSN 171705Z 15007KT 10SM BKN010 23/21 A2994 850 84 2100 150/07 RMK AO2 CIG 008V012
14837KMSN MSN20010717111009607/17/01 11:10:31  5-MIN KMSN 171710Z 13007KT 10SM BKN010 24/21 A2994 850 81 2100 130/07 RMK AO2
14837KMSN MSN20010717111509607/17/01 11:15:31  5-MIN KMSN 171715Z 14006KT 10SM BKN010 24/21 A2994 850 81 2100 140/06 RMK AO2
14837KMSN MSN20010717112011207/17/01 11:20:31  5-MIN KMSN 171720Z 13007KT 100V180 10SM BKN010 24/21 A2993 850 84 2100 130/07 100V180 RMK AO2
14837KMSN MSN20010717112509607/17/01 11:25:31  5-MIN KMSN 171725Z 15007KT 10SM BKN012 24/21 A2993 850 84 2100 150/07 RMK AO2
14837KMSN MSN20010717113009607/17/01 11:30:31  5-MIN KMSN 171730Z 19005KT 10SM SCT012 24/21 A2993 850 81 2100 190/05 RMK AO2
14837KMSN MSN20010717113509607/17/01 11:35:31  5-MIN KMSN 171735Z 16007KT 10SM SCT012 24/21 A2993 850 78 2200 160/07 RMK AO2
14837KMSN MSN20010717114009607/17/01 11:40:31  5-MIN KMSN 171740Z VRB05KT 10SM SCT012 25/21 A2993 860 79 2200 VRB/05 RMK AO2
14837KMSN MSN20010717114509607/17/01 11:45:31  5-MIN KMSN 171745Z 16006KT 10SM FEW012 24/21 A2993 860 78 2200 160/06 RMK AO2
14837KMSN MSN20010717115013407/17/01 11:50:31  5-MIN KMSN 171750Z 14005KT 10SM CLR 25/21 A2993 860 76 2200 140/05 RMK AO2 SLP129 60136 T02500206 10250 20194 50022
14837KMSN MSN20010717115509307/17/01 11:55:31  5-MIN KMSN 171755Z VRB03KT 10SM CLR 25/21 A2993 860 76 2200 VRB/03 RMK AO2
14837KMSN MSN20010717120009607/17/01 12:00:31  5-MIN KMSN 171800Z 18005KT 10SM FEW012 26/21 A2993 860 73 2300 180/05 RMK AO2
14837KMSN MSN20010717120509607/17/01 12:05:31  5-MIN KMSN 171805Z 14006KT 10SM FEW012 26/21 A2993 860 73 2300 140/06 RMK AO2
14837KMSN MSN20010717121009607/17/01 12:10:31  5-MIN KMSN 171810Z 12005KT 10SM FEW012 26/21 A2993 860 73 2400 120/05 RMK AO2
14837KMSN MSN20010717121509607/17/01 12:15:31  5-MIN KMSN 171815Z VRB03KT 10SM FEW012 26/21 A2993 860 73 2400 VRB/03 RMK AO2
14837KMSN MSN20010717122009607/17/01 12:20:31  5-MIN KMSN 171820Z 19006KT 10SM FEW012 26/21 A2993 860 73 2400 190/06 RMK AO2
14837KMSN MSN20010717122509607/17/01 12:25:31  5-MIN KMSN 171825Z 19006KT 10SM FEW012 26/21 A2993 860 73 2400 190/06 RMK AO2
14837KMSN MSN20010717123009607/17/01 12:30:31  5-MIN KMSN 171830Z VRB03KT 10SM FEW012 26/21 A2992 860 73 2400 VRB/03 RMK AO2
14837KMSN MSN20010717123509607/17/01 12:35:31  5-MIN KMSN 171835Z VRB04KT 10SM FEW012 27/21 A2992 860 69 2400 VRB/04 RMK AO2
14837KMSN MSN20010717124009607/17/01 12:40:31  5-MIN KMSN 171840Z 00000KT 10SM FEW012 27/21 A2992 860 71 2400 000/00 RMK AO2
14837KMSN MSN20010717124509607/17/01 12:45:31  5-MIN KMSN 171845Z VRB03KT 10SM FEW012 27/21 A2992 860 71 2400 VRB/03 RMK AO2
14837KMSN MSN20010717125011307/17/01 12:50:31  5-MIN KMSN 171850Z 00000KT 10SM FEW012 27/21 A2992 860 66 2500 000/00 RMK AO2 SLP127 T02720206
14837KMSN MSN20010717125509307/17/01 12:55:31  5-MIN KMSN 171855Z 14004KT 10SM CLR 27/21 A2992 860 69 2500 140/04 RMK AO2
14837KMSN MSN20010717130009307/17/01 13:00:31  5-MIN KMSN 171900Z 10004KT 10SM CLR 27/21 A2992 860 69 2500 100/04 RMK AO2
14837KMSN MSN20010717130509307/17/01 13:05:31  5-MIN KMSN 171905Z VRB04KT 10SM CLR 27/21 A2992 860 66 2500 VRB/04 RMK AO2
14837KMSN MSN20010717131009307/17/01 13:10:31  5-MIN KMSN 171910Z VRB03KT 10SM CLR 27/21 A2993 860 66 2500 VRB/03 RMK AO2
14837KMSN MSN20010717131509307/17/01 13:15:31  5-MIN KMSN 171915Z 10003KT 10SM CLR 28/21 A2993 860 64 2600 100/03 RMK AO2
14837KMSN MSN20010717132009307/17/01 13:20:31  5-MIN KMSN 171920Z 00000KT 10SM CLR 28/20 A2993 860 62 2600 000/00 RMK AO2
14837KMSN MSN20010717132509307/17/01 13:25:31  5-MIN KMSN 171925Z VRB03KT 10SM CLR 28/20 A2993 860 62 2600 VRB/03 RMK AO2
14837KMSN MSN20010717133009307/17/01 13:30:31  5-MIN KMSN 171930Z 00000KT 10SM CLR 29/21 A2993 860 60 2700 000/00 RMK AO2
14837KMSN MSN20010717133509307/17/01 13:35:31  5-MIN KMSN 171935Z 00000KT 10SM CLR 29/20 A2993 860 58 2700 000/00 RMK AO2
14837KMSN MSN20010717134009307/17/01 13:40:31  5-MIN KMSN 171940Z VRB03KT 10SM CLR 28/19 A2992 860 58 2600 VRB/03 RMK AO2
14837KMSN MSN20010717134509607/17/01 13:45:31  5-MIN KMSN 171945Z 00000KT 10SM FEW015 29/19 A2992 860 56 2700 000/00 RMK AO2
14837KMSN MSN20010717135011307/17/01 13:50:31  5-MIN KMSN 171950Z 00000KT 10SM FEW015 29/19 A2992 860 56 2700 000/00 RMK AO2 SLP126 T02890194
14837KMSN MSN20010717135509307/17/01 13:55:31  5-MIN KMSN 171955Z 00000KT 10SM CLR 29/19 A2992 860 54 2800 000/00 RMK AO2
14837KMSN MSN20010717140009607/17/01 14:00:31  5-MIN KMSN 172000Z VRB03KT 10SM FEW025 29/18 A2992 860 50 2800 VRB/03 RMK AO2
14837KMSN MSN20010717140509607/17/01 14:05:31  5-MIN KMSN 172005Z 01004KT 10SM FEW025 29/19 A2992 860 52 2700 360/04 RMK AO2
14837KMSN MSN20010717141009607/17/01 14:10:31  5-MIN KMSN 172010Z VRB03KT 10SM FEW025 30/19 A2992 860 51 2800 VRB/03 RMK AO2
14837KMSN MSN20010717141509607/17/01 14:15:31  5-MIN KMSN 172015Z 00000KT 10SM FEW025 29/18 A2992 860 50 2700 000/00 RMK AO2
14837KMSN MSN20010717142009607/17/01 14:20:31  5-MIN KMSN 172020Z 01004KT 10SM FEW025 29/18 A2992 860 50 2700 010/04 RMK AO2
14837KMSN MSN20010717142509607/17/01 14:25:31  5-MIN KMSN 172025Z VRB04KT 10SM FEW025 29/18 A2992 860 50 2700 VRB/04 RMK AO2
14837KMSN MSN20010717143009607/17/01 14:30:31  5-MIN KMSN 172030Z 31004KT 10SM FEW025 29/19 A2992 860 54 2800 310/04 RMK AO2
14837KMSN MSN20010717143509607/17/01 14:35:31  5-MIN KMSN 172035Z 27004KT 10SM FEW030 30/19 A2992 860 52 2800 270/04 RMK AO2
14837KMSN MSN20010717144009607/17/01 14:40:31  5-MIN KMSN 172040Z 31005KT 10SM FEW030 30/18 A2992 860 49 2800 310/05 RMK AO2
14837KMSN MSN20010717144509607/17/01 14:45:31  5-MIN KMSN 172045Z 30005KT 10SM FEW030 29/18 A2992 860 49 2800 300/05 RMK AO2
14837KMSN MSN20010717145011907/17/01 14:50:31  5-MIN KMSN 172050Z 00000KT 10SM FEW030 29/19 A2992 860 52 2800 000/00 RMK AO2 SLP125 T02940189 56018
14837KMSN MSN20010717145509307/17/01 14:55:31  5-MIN KMSN 172055Z 31005KT 10SM CLR 29/20 A2992 860 56 2800 310/05 RMK AO2
14837KMSN MSN20010717150009307/17/01 15:00:31  5-MIN KMSN 172100Z 33005KT 10SM CLR 29/20 A2992 860 56 2800 330/05 RMK AO2
14837KMSN MSN20010717150509607/17/01 15:05:31  5-MIN KMSN 172105Z VRB05KT 10SM FEW030 29/21 A2992 860 58 2700 VRB/05 RMK AO2
14837KMSN MSN20010717151009607/17/01 15:10:31  5-MIN KMSN 172110Z 35005KT 10SM FEW030 30/21 A2992 860 56 2800 350/05 RMK AO2
14837KMSN MSN20010717151509607/17/01 15:15:31  5-MIN KMSN 172115Z VRB03KT 10SM FEW030 30/21 A2992 860 56 2800 VRB/03 RMK AO2
14837KMSN MSN20010717152009607/17/01 15:20:31  5-MIN KMSN 172120Z 02004KT 10SM FEW030 29/20 A2992 860 56 2800 020/04 RMK AO2
14837KMSN MSN20010717152509607/17/01 15:25:31  5-MIN KMSN 172125Z VRB05KT 10SM FEW030 30/21 A2993 860 56 2800 VRB/05 RMK AO2
14837KMSN MSN20010717153009607/17/01 15:30:31  5-MIN KMSN 172130Z 04005KT 10SM FEW030 30/21 A2993 860 56 2800 040/05 RMK AO2
14837KMSN MSN20010717153509607/17/01 15:35:31  5-MIN KMSN 172135Z VRB05KT 10SM FEW030 29/21 A2993 860 58 2700 VRB/05 RMK AO2
14837KMSN MSN20010717154009607/17/01 15:40:31  5-MIN KMSN 172140Z 06005KT 10SM FEW030 29/21 A2993 860 58 2700 060/05 RMK AO2
14837KMSN MSN20010717154509607/17/01 15:45:31  5-MIN KMSN 172145Z 04006KT 10SM FEW030 29/21 A2993 860 58 2700 040/06 RMK AO2
14837KMSN MSN20010717155011307/17/01 15:50:31  5-MIN KMSN 172150Z VRB05KT 10SM FEW030 29/21 A2993 860 58 2700 VRB/05 RMK AO2 SLP129 T02940206
14837KMSN MSN20010717155509307/17/01 15:55:31  5-MIN KMSN 172155Z VRB04KT 10SM CLR 29/21 A2993 860 58 2700 VRB/04 RMK AO2
14837KMSN MSN20010717160009307/17/01 16:00:31  5-MIN KMSN 172200Z 06007KT 10SM CLR 29/21 A2993 860 58 2700 060/07 RMK AO2
14837KMSN MSN20010717160509307/17/01 16:05:31  5-MIN KMSN 172205Z VRB03KT 10SM CLR 29/21 A2993 860 58 2700 VRB/03 RMK AO2
14837KMSN MSN20010717161009607/17/01 16:10:31  5-MIN KMSN 172210Z 01006KT 10SM FEW030 29/21 A2993 860 58 2700 010/06 RMK AO2
14837KMSN MSN20010717161509607/17/01 16:15:31  5-MIN KMSN 172215Z 08005KT 10SM FEW030 29/21 A2992 860 58 2700 080/05 RMK AO2
14837KMSN MSN20010717162009607/17/01 16:20:31  5-MIN KMSN 172220Z VRB05KT 10SM FEW030 29/21 A2993 860 58 2700 VRB/05 RMK AO2
14837KMSN MSN20010717162509607/17/01 16:25:31  5-MIN KMSN 172225Z 07006KT 10SM FEW030 29/21 A2992 860 58 2700 070/06 RMK AO2
14837KMSN MSN20010717163009607/17/01 16:30:31  5-MIN KMSN 172230Z 10006KT 10SM FEW030 29/21 A2992 860 62 2700 100/06 RMK AO2
14837KMSN MSN20010717163509607/17/01 16:35:31  5-MIN KMSN 172235Z 09007KT 10SM FEW030 29/21 A2992 860 60 2700 090/07 RMK AO2
14837KMSN MSN20010717164009607/17/01 16:40:31  5-MIN KMSN 172240Z 06008KT 10SM FEW030 29/21 A2992 860 62 2700 060/08 RMK AO2
14837KMSN MSN20010717164509607/17/01 16:45:31  5-MIN KMSN 172245Z 06007KT 10SM FEW030 29/21 A2992 860 62 2700 060/07 RMK AO2
14837KMSN MSN20010717165011307/17/01 16:50:31  5-MIN KMSN 172250Z 06007KT 10SM FEW030 29/21 A2992 860 62 2700 060/07 RMK AO2 SLP126 T02890211
14837KMSN MSN20010717165509307/17/01 16:55:31  5-MIN KMSN 172255Z 06008KT 10SM CLR 29/21 A2992 860 62 2700 060/08 RMK AO2
14837KMSN MSN20010717170009307/17/01 17:00:31  5-MIN KMSN 172300Z 07008KT 10SM CLR 29/21 A2992 860 62 2700 060/08 RMK AO2
14837KMSN MSN20010717170509307/17/01 17:05:31  5-MIN KMSN 172305Z 08008KT 10SM CLR 28/21 A2992 860 64 2600 080/08 RMK AO2
14837KMSN MSN20010717171009307/17/01 17:10:31  5-MIN KMSN 172310Z 06007KT 10SM CLR 28/21 A2992 860 64 2600 060/07 RMK AO2
14837KMSN MSN20010717171509307/17/01 17:15:31  5-MIN KMSN 172315Z 09006KT 10SM CLR 28/21 A2992 860 64 2600 090/06 RMK AO2
14837KMSN MSN20010717172009307/17/01 17:20:31  5-MIN KMSN 172320Z 06007KT 10SM CLR 28/21 A2992 860 64 2600 060/07 RMK AO2
14837KMSN MSN20010717172509307/17/01 17:25:31  5-MIN KMSN 172325Z 07009KT 10SM CLR 28/21 A2992 860 64 2600 060/09 RMK AO2
14837KMSN MSN20010717173009307/17/01 17:30:31  5-MIN KMSN 172330Z 07008KT 10SM CLR 28/21 A2992 860 64 2600 070/08 RMK AO2
14837KMSN MSN20010717173509307/17/01 17:35:31  5-MIN KMSN 172335Z 06007KT 10SM CLR 28/21 A2993 860 64 2600 060/07 RMK AO2
14837KMSN MSN20010717174009307/17/01 17:40:31  5-MIN KMSN 172340Z 06006KT 10SM CLR 28/21 A2993 860 64 2600 060/06 RMK AO2
14837KMSN MSN20010717174509307/17/01 17:45:31  5-MIN KMSN 172345Z 06008KT 10SM CLR 28/22 A2993 860 66 2600 060/08 RMK AO2
14837KMSN MSN20010717175012807/17/01 17:50:31  5-MIN KMSN 172350Z 08008KT 10SM CLR 28/21 A2993 860 64 2600 080/08 RMK AO2 SLP128 T02830211 10300 20250 56002
14837KMSN MSN20010717175509307/17/01 17:55:31  5-MIN KMSN 172355Z 08008KT 10SM CLR 28/21 A2993 860 66 2600 070/08 RMK AO2
14837KMSN MSN20010717180009307/17/01 18:00:31  5-MIN KMSN 180000Z 08008KT 10SM CLR 28/21 A2993 860 66 2600 080/08 RMK AO2
14837KMSN MSN20010717180509307/17/01 18:05:31  5-MIN KMSN 180005Z 08007KT 10SM CLR 28/21 A2993 860 66 2600 080/07 RMK AO2
14837KMSN MSN20010717181009307/17/01 18:10:31  5-MIN KMSN 180010Z 07007KT 10SM CLR 28/21 A2993 850 66 2600 070/07 RMK AO2
14837KMSN MSN20010717181509307/17/01 18:15:31  5-MIN KMSN 180015Z 08006KT 10SM CLR 27/21 A2993 850 69 2500 080/06 RMK AO2
14837KMSN MSN20010717182009307/17/01 18:20:31  5-MIN KMSN 180020Z 08006KT 10SM CLR 27/21 A2993 850 69 2500 080/06 RMK AO2
14837KMSN MSN20010717182509307/17/01 18:25:31  5-MIN KMSN 180025Z 08007KT 10SM CLR 27/21 A2993 850 69 2500 080/07 RMK AO2
14837KMSN MSN20010717183009307/17/01 18:30:31  5-MIN KMSN 180030Z 08007KT 10SM CLR 27/21 A2993 850 69 2500 080/07 RMK AO2
14837KMSN MSN20010717183509307/17/01 18:35:31  5-MIN KMSN 180035Z 08007KT 10SM CLR 27/21 A2993 860 69 2500 070/07 RMK AO2
14837KMSN MSN20010717184009307/17/01 18:40:31  5-MIN KMSN 180040Z 08005KT 10SM CLR 27/21 A2993 860 71 2400 080/05 RMK AO2
14837KMSN MSN20010717184509307/17/01 18:45:31  5-MIN KMSN 180045Z 07006KT 10SM CLR 27/22 A2992 860 73 2400 070/06 RMK AO2
14837KMSN MSN20010717185011007/17/01 18:50:31  5-MIN KMSN 180050Z 07005KT 10SM CLR 27/21 A2992 860 71 2400 070/05 RMK AO2 SLP128 T02670211
14837KMSN MSN20010717185509307/17/01 18:55:31  5-MIN KMSN 180055Z 07005KT 10SM CLR 26/22 A2992 860 76 2400 070/05 RMK AO2
14837KMSN MSN20010717190009307/17/01 19:00:31  5-MIN KMSN 180100Z 07006KT 10SM CLR 26/21 A2992 860 73 2400 070/06 RMK AO2
14837KMSN MSN20010717190509307/17/01 19:05:31  5-MIN KMSN 180105Z 07006KT 10SM CLR 26/21 A2992 860 73 2400 070/06 RMK AO2
14837KMSN MSN20010717191009307/17/01 19:10:31  5-MIN KMSN 180110Z 07006KT 10SM CLR 26/21 A2992 860 76 2300 060/06 RMK AO2
14837KMSN MSN20010717191509307/17/01 19:15:31  5-MIN KMSN 180115Z 07006KT 10SM CLR 26/21 A2992 860 76 2300 070/06 RMK AO2
14837KMSN MSN20010717192009307/17/01 19:20:31  5-MIN KMSN 180120Z 07006KT 10SM CLR 26/21 A2992 860 76 2300 070/06 RMK AO2
14837KMSN MSN20010717192509307/17/01 19:25:31  5-MIN KMSN 180125Z 07006KT 10SM CLR 25/21 A2992 860 79 2300 070/06 RMK AO2
14837KMSN MSN20010717193009307/17/01 19:30:31  5-MIN KMSN 180130Z 07005KT 10SM CLR 25/21 A2992 870 79 2300 070/05 RMK AO2
14837KMSN MSN20010717193509307/17/01 19:35:31  5-MIN KMSN 180135Z 06004KT 10SM CLR 25/21 A2992 860 79 2300 060/04 RMK AO2
14837KMSN MSN20010717194009307/17/01 19:40:31  5-MIN KMSN 180140Z 07005KT 10SM CLR 25/21 A2992 860 79 2300 070/05 RMK AO2
14837KMSN MSN20010717194509307/17/01 19:45:31  5-MIN KMSN 180145Z 07004KT 10SM CLR 24/21 A2992 860 81 2200 070/04 RMK AO2
14837KMSN MSN20010717195011007/17/01 19:50:31  5-MIN KMSN 180150Z 06004KT 10SM CLR 24/21 A2992 860 81 2200 060/04 RMK AO2 SLP128 T02440211
14837KMSN MSN20010717195509307/17/01 19:55:31  5-MIN KMSN 180155Z 08004KT 10SM CLR 24/21 A2992 870 81 2200 080/04 RMK AO2
14837KMSN MSN20010717200009307/17/01 20:00:31  5-MIN KMSN 180200Z 07003KT 10SM CLR 24/21 A2992 860 81 2200 060/03 RMK AO2
14837KMSN MSN20010717200509307/17/01 20:05:31  5-MIN KMSN 180205Z 08003KT 10SM CLR 24/21 A2993 860 81 2200 080/03 RMK AO2
14837KMSN MSN20010717201009307/17/01 20:10:31  5-MIN KMSN 180210Z 07004KT 10SM CLR 24/21 A2993 860 81 2200 070/04 RMK AO2
14837KMSN MSN20010717201509307/17/01 20:15:31  5-MIN KMSN 180215Z 07004KT 10SM CLR 24/21 A2993 860 81 2200 070/04 RMK AO2
14837KMSN MSN20010717202009307/17/01 20:20:31  5-MIN KMSN 180220Z 08005KT 10SM CLR 24/21 A2993 860 81 2200 080/05 RMK AO2
14837KMSN MSN20010717202509307/17/01 20:25:31  5-MIN KMSN 180225Z 07004KT 10SM CLR 24/21 A2993 850 84 2100 070/04 RMK AO2
14837KMSN MSN20010717203009307/17/01 20:30:31  5-MIN KMSN 180230Z 05004KT 10SM CLR 24/21 A2994 850 84 2100 050/04 RMK AO2
14837KMSN MSN20010717203509307/17/01 20:35:31  5-MIN KMSN 180235Z 05003KT 10SM CLR 24/21 A2994 850 81 2200 050/03 RMK AO2
14837KMSN MSN20010717204009307/17/01 20:40:31  5-MIN KMSN 180240Z 07003KT 10SM CLR 24/21 A2994 840 81 2200 070/03 RMK AO2
14837KMSN MSN20010717204509307/17/01 20:45:31  5-MIN KMSN 180245Z 07003KT 10SM CLR 24/21 A2994 840 81 2200 070/03 RMK AO2
14837KMSN MSN20010717205011607/17/01 20:50:31  5-MIN KMSN 180250Z 08003KT 10SM CLR 24/21 A2994 840 81 2200 080/03 RMK AO2 SLP135 T02440211 51002
14837KMSN MSN20010717205509307/17/01 20:55:31  5-MIN KMSN 180255Z 00000KT 10SM CLR 24/21 A2995 840 81 2100 000/00 RMK AO2
14837KMSN MSN20010717210009307/17/01 21:00:31  5-MIN KMSN 180300Z 10005KT 10SM CLR 24/21 A2995 840 81 2100 100/05 RMK AO2
14837KMSN MSN20010717210509307/17/01 21:05:31  5-MIN KMSN 180305Z 11006KT 10SM CLR 24/21 A2995 830 81 2100 100/06 RMK AO2
14837KMSN MSN20010717211009207/17/01 21:10:31  5-MIN KMSN 180310Z 11006KT 9SM CLR 24/21 A2995 830 84 2100 110/06 RMK AO2
14837KMSN MSN20010717211509207/17/01 21:15:31  5-MIN KMSN 180315Z 11006KT 7SM CLR 24/21 A2995 840 84 2100 110/06 RMK AO2
14837KMSN MSN20010717212009207/17/01 21:20:31  5-MIN KMSN 180320Z 11006KT 7SM CLR 24/21 A2995 840 84 2100 100/06 RMK AO2
14837KMSN MSN20010717212509507/17/01 21:25:31  5-MIN KMSN 180325Z 11006KT 6SM HZ CLR 24/21 A2995 840 84 2100 100/06 RMK AO2
14837KMSN MSN20010717213009207/17/01 21:30:31  5-MIN KMSN 180330Z 12006KT 8SM CLR 24/21 A2996 830 84 2100 120/06 RMK AO2
14837KMSN MSN20010717213509207/17/01 21:35:31  5-MIN KMSN 180335Z 12005KT 8SM CLR 24/21 A2996 830 84 2100 120/05 RMK AO2
14837KMSN MSN20010717214009207/17/01 21:40:31  5-MIN KMSN 180340Z 13007KT 8SM CLR 24/22 A2995 840 87 2100 130/07 RMK AO2
14837KMSN MSN20010717214509207/17/01 21:45:31  5-MIN KMSN 180345Z 13006KT 8SM CLR 24/22 A2995 840 87 2100 130/06 RMK AO2
14837KMSN MSN20010717215010907/17/01 21:50:31  5-MIN KMSN 180350Z 13007KT 8SM CLR 24/22 A2994 840 87 2100 130/07 RMK AO2 SLP136 T02390217
14837KMSN MSN20010717215509207/17/01 21:55:31  5-MIN KMSN 180355Z 13006KT 7SM CLR 24/22 A2995 840 87 2100 130/06 RMK AO2
14837KMSN MSN20010717220009207/17/01 22:00:31  5-MIN KMSN 180400Z 14007KT 7SM CLR 24/22 A2995 840 87 2100 140/07 RMK AO2
14837KMSN MSN20010717220509207/17/01 22:05:31  5-MIN KMSN 180405Z 13006KT 7SM CLR 24/22 A2995 840 87 2100 130/06 RMK AO2
14837KMSN MSN20010717221009207/17/01 22:10:31  5-MIN KMSN 180410Z 13005KT 7SM CLR 23/22 A2995 840 90 2000 130/05 RMK AO2
14837KMSN MSN20010717221509207/17/01 22:15:31  5-MIN KMSN 180415Z 14005KT 7SM CLR 24/22 A2995 840 87 2100 130/05 RMK AO2
14837KMSN MSN20010717222009207/17/01 22:20:31  5-MIN KMSN 180420Z 11004KT 7SM CLR 23/22 A2995 840 90 2000 110/04 RMK AO2
14837KMSN MSN20010717222509207/17/01 22:25:31  5-MIN KMSN 180425Z 11005KT 7SM CLR 23/22 A2995 840 90 2000 110/05 RMK AO2
14837KMSN MSN20010717223009207/17/01 22:30:31  5-MIN KMSN 180430Z 10004KT 7SM CLR 23/21 A2995 840 87 2000 100/04 RMK AO2
14837KMSN MSN20010717223509207/17/01 22:35:31  5-MIN KMSN 180435Z 10005KT 7SM CLR 23/21 A2995 840 87 2000 100/05 RMK AO2
14837KMSN MSN20010717224009507/17/01 22:40:31  5-MIN KMSN 180440Z 12004KT 7SM BR CLR 23/21 A2995 840 87 2000 120/04 RMK AO2
14837KMSN MSN20010717224509507/17/01 22:45:31  5-MIN KMSN 180445Z 00000KT 4SM BR CLR 23/21 A2994 840 90 2000 000/00 RMK AO2
14837KMSN MSN20010717225011207/17/01 22:50:31  5-MIN KMSN 180450Z 11004KT 4SM BR CLR 23/21 A2994 840 90 2000 100/04 RMK AO2 SLP134 T02280211
14837KMSN MSN20010717225509507/17/01 22:55:31  5-MIN KMSN 180455Z 11005KT 3SM BR CLR 23/21 A2994 840 90 2000 100/05 RMK AO2
14837KMSN MSN20010717230009507/17/01 23:00:31  5-MIN KMSN 180500Z 12006KT 3SM BR CLR 23/21 A2994 850 90 2000 120/06 RMK AO2
14837KMSN MSN20010717230509507/17/01 23:05:31  5-MIN KMSN 180505Z 11005KT 3SM BR CLR 23/21 A2994 850 87 2000 110/05 RMK AO2
14837KMSN MSN20010717231009907/17/01 23:10:31  5-MIN KMSN 180510Z 11007KT 2 1/2SM BR CLR 23/21 A2994 850 90 2000 110/07 RMK AO2
14837KMSN MSN20010717231509907/17/01 23:15:31  5-MIN KMSN 180515Z 11007KT 2 1/2SM BR CLR 23/21 A2994 850 90 2000 110/07 RMK AO2
14837KMSN MSN20010717232009907/17/01 23:20:31  5-MIN KMSN 180520Z 11007KT 2 1/2SM BR CLR 23/21 A2994 850 90 2000 110/07 RMK AO2
14837KMSN MSN20010717232509507/17/01 23:25:31  5-MIN KMSN 180525Z 11005KT 2SM BR CLR 23/21 A2994 850 90 2000 110/05 RMK AO2
14837KMSN MSN20010717233009507/17/01 23:30:31  5-MIN KMSN 180530Z 12006KT 2SM BR CLR 23/21 A2994 840 90 2000 110/06 RMK AO2
14837KMSN MSN20010717233509507/17/01 23:35:31  5-MIN KMSN 180535Z 10005KT 2SM BR CLR 23/21 A2994 840 90 2000 100/05 RMK AO2
14837KMSN MSN20010717234009507/17/01 23:40:31  5-MIN KMSN 180540Z 11005KT 2SM BR CLR 22/21 A2994 840 93 1900 110/05 RMK AO2
14837KMSN MSN20010717234509907/17/01 23:45:31  5-MIN KMSN 180545Z 09005KT 1 3/4SM BR CLR 22/21 A2994 840 93 1900 090/05 RMK AO2
14837KMSN MSN20010717235014407/17/01 23:50:31  5-MIN KMSN 180550Z 10005KT 1 3/4SM BR CLR 22/21 A2994 850 93 1900 100/05 RMK AO2 SLP134 T02220211 10278 20222 403000194 53006
14837KMSN MSN20010717235509907/17/01 23:55:31  5-MIN KMSN 180555Z 11006KT 1 3/4SM BR CLR 22/21 A2994 850 93 1900 110/06 RMK AO2
14837KMSN MSN20010718000009907/18/01 00:00:31  5-MIN KMSN 180600Z 13006KT 1 1/2SM BR CLR 22/21 A2994 850 93 1900 130/06 RMK AO2
14837KMSN MSN20010718000509907/18/01 00:05:31  5-MIN KMSN 180605Z 13005KT 1 1/2SM BR CLR 22/21 A2994 850 93 1900 130/05 RMK AO2
14837KMSN MSN20010718001009907/18/01 00:10:31  5-MIN KMSN 180610Z 15004KT 1 1/2SM BR CLR 22/21 A2994 840 93 1900 150/04 RMK AO2
14837KMSN MSN20010718001509907/18/01 00:15:31  5-MIN KMSN 180615Z 12004KT 1 3/4SM BR CLR 22/21 A2995 840 93 1900 110/04 RMK AO2
14837KMSN MSN20010718002010207/18/01 00:20:31  5-MIN KMSN 180620Z 10005KT 1 3/4SM BR FEW007 22/21 A2995 840 93 1900 100/05 RMK AO2
14837KMSN MSN20010718002510207/18/01 00:25:31  5-MIN KMSN 180625Z 10004KT 1 1/2SM BR SCT007 22/21 A2995 840 93 1900 100/04 RMK AO2
14837KMSN MSN20010718003010207/18/01 00:30:31  5-MIN KMSN 180630Z 11005KT 1 1/2SM BR SCT007 22/21 A2995 840 97 1800 110/05 RMK AO2
14837KMSN MSN20010718003510207/18/01 00:35:31  5-MIN KMSN 180635Z 12004KT 1 1/2SM BR FEW007 22/21 A2995 840 93 1800 120/04 RMK AO2
14837KMSN MSN20010718004010207/18/01 00:40:31  5-MIN KMSN 180640Z 12005KT 1 1/2SM BR FEW007 22/21 A2994 840 97 1900 120/05 RMK AO2
14837KMSN MSN20010718004510207/18/01 00:45:31  5-MIN KMSN 180645Z 12007KT 1 1/2SM BR FEW007 22/21 A2994 840 97 1900 110/07 RMK AO2
14837KMSN MSN20010718005011907/18/01 00:50:31  5-MIN KMSN 180650Z 10005KT 1 1/2SM BR FEW007 22/21 A2994 840 93 1900 100/05 RMK AO2 SLP134 T02170206
14837KMSN MSN20010718005509907/18/01 00:55:31  5-MIN KMSN 180655Z 10006KT 1 1/4SM BR CLR 22/21 A2994 850 93 1900 100/06 RMK AO2
14837KMSN MSN20010718010009907/18/01 01:00:31  5-MIN KMSN 180700Z 11005KT 1 1/4SM BR CLR 22/21 A2994 840 97 1900 110/05 RMK AO2
14837KMSN MSN20010718010509907/18/01 01:05:31  5-MIN KMSN 180705Z 10004KT 1 1/4SM BR CLR 22/21 A2994 840 97 1900 100/04 RMK AO2
14837KMSN MSN20010718011009907/18/01 01:10:31  5-MIN KMSN 180710Z 10004KT 1 1/4SM BR CLR 22/21 A2994 840 93 1900 100/04 RMK AO2
14837KMSN MSN20010718011509907/18/01 01:15:31  5-MIN KMSN 180715Z 10004KT 1 1/2SM BR CLR 21/21 A2994 840 97 1800 100/04 RMK AO2
14837KMSN MSN20010718012009907/18/01 01:20:31  5-MIN KMSN 180720Z 09003KT 1 1/4SM BR CLR 21/21 A2994 850 97 1800 090/03 RMK AO2
14837KMSN MSN20010718012509907/18/01 01:25:31  5-MIN KMSN 180725Z 08004KT 1 1/4SM BR CLR 21/21 A2993 860 97 1800 080/04 RMK AO2
14837KMSN MSN20010718013009507/18/01 01:30:31  5-MIN KMSN 180730Z 08004KT 1SM BR CLR 21/20 A2993 860 93 1800 080/04 RMK AO2
14837KMSN MSN20010718013509707/18/01 01:35:31  5-MIN KMSN 180735Z 07005KT 1SM BR VV005 21/20 A2993 860 97 1700 070/05 RMK AO2
14837KMSN MSN20010718014009707/18/01 01:40:31  5-MIN KMSN 180740Z 10004KT 1SM BR VV004 21/20 A2993 860 93 1800 100/04 RMK AO2
14837KMSN MSN20010718014509707/18/01 01:45:31  5-MIN KMSN 180745Z 12005KT 1SM BR VV004 21/21 A2993 860 97 1800 110/05 RMK AO2
14837KMSN MSN20010718015011507/18/01 01:50:31  5-MIN KMSN 180750Z 12005KT 1SM BR BKN004 21/21 A2993 860 97 1800 120/05 RMK AO2 SLP129 T02110206
14837KMSN MSN20010718015509807/18/01 01:55:31  5-MIN KMSN 180755Z 12006KT 1SM BR BKN004 21/21 A2993 860 97 1800 120/06 RMK AO2
14837KMSN MSN20010718020009807/18/01 02:00:31  5-MIN KMSN 180800Z 10005KT 1SM BR BKN004 21/21 A2993 850 97 1800 100/05 RMK AO2
14837KMSN MSN20010718020509807/18/01 02:05:31  5-MIN KMSN 180805Z 09006KT 1SM BR OVC004 21/21 A2994 850 97 1800 090/06 RMK AO2
14837KMSN MSN20010718021010207/18/01 02:10:31  5-MIN KMSN 180810Z 10005KT 1 1/4SM BR OVC004 21/21 A2994 850 97 1800 100/05 RMK AO2
14837KMSN MSN20010718021510207/18/01 02:15:31  5-MIN KMSN 180815Z 08004KT 1 1/4SM BR OVC004 21/21 A2994 840 97 1800 080/04 RMK AO2
14837KMSN MSN20010718022009807/18/01 02:20:31  5-MIN KMSN 180820Z 10004KT 1SM BR OVC004 21/20 A2995 840 93 1800 100/04 RMK AO2
14837KMSN MSN20010718022510207/18/01 02:25:31  5-MIN KMSN 180825Z 10006KT 1 1/4SM BR OVC004 21/20 A2995 840 93 1800 100/06 RMK AO2
14837KMSN MSN20010718023010207/18/01 02:30:31  5-MIN KMSN 180830Z 11006KT 1 1/4SM BR OVC004 21/20 A2995 840 97 1700 110/06 RMK AO2
14837KMSN MSN20010718023510207/18/01 02:35:31  5-MIN KMSN 180835Z 13005KT 1 1/4SM BR OVC004 21/20 A2995 840 93 1800 130/05 RMK AO2
14837KMSN MSN20010718024010207/18/01 02:40:31  5-MIN KMSN 180840Z 11005KT 1 1/4SM BR OVC004 21/20 A2995 840 93 1800 110/05 RMK AO2
14837KMSN MSN20010718024510207/18/01 02:45:31  5-MIN KMSN 180845Z 11005KT 1 1/4SM BR OVC004 21/20 A2995 840 97 1700 110/05 RMK AO2
14837KMSN MSN20010718025012507/18/01 02:50:31  5-MIN KMSN 180850Z 11006KT 1 1/4SM BR OVC004 21/20 A2995 840 97 1700 110/06 RMK AO2 SLP135 T02060200 58002
14837KMSN MSN20010718025510207/18/01 02:55:31  5-MIN KMSN 180855Z 10007KT 1 1/4SM BR OVC004 21/20 A2994 840 97 1700 100/07 RMK AO2
14837KMSN MSN20010718030010207/18/01 03:00:31  5-MIN KMSN 180900Z 09007KT 1 1/4SM BR OVC004 21/20 A2994 840 97 1700 090/07 RMK AO2
14837KMSN MSN20010718030510207/18/01 03:05:31  5-MIN KMSN 180905Z 09007KT 1 1/4SM BR OVC004 21/20 A2994 850 97 1700 090/07 RMK AO2
14837KMSN MSN20010718031010207/18/01 03:10:31  5-MIN KMSN 180910Z 10006KT 1 1/2SM BR OVC004 21/20 A2993 850 97 1700 100/06 RMK AO2
14837KMSN MSN20010718031510207/18/01 03:15:31  5-MIN KMSN 180915Z 07005KT 1 1/4SM BR OVC004 21/20 A2993 850 97 1700 070/05 RMK AO2
14837KMSN MSN20010718032010207/18/01 03:20:31  5-MIN KMSN 180920Z 07007KT 1 1/4SM BR OVC004 21/20 A2994 840 97 1700 070/07 RMK AO2
14837KMSN MSN20010718032510207/18/01 03:25:31  5-MIN KMSN 180925Z 05005KT 1 1/4SM BR OVC004 21/20 A2995 840 97 1700 050/05 RMK AO2
14837KMSN MSN20010718033010207/18/01 03:30:31  5-MIN KMSN 180930Z 08005KT 1 1/4SM BR OVC004 21/20 A2995 840 97 1700 080/05 RMK AO2
14837KMSN MSN20010718033510207/18/01 03:35:31  5-MIN KMSN 180935Z 06005KT 1 1/4SM BR OVC004 21/20 A2995 840 97 1700 060/05 RMK AO2
14837KMSN MSN20010718034010207/18/01 03:40:31  5-MIN KMSN 180940Z 08005KT 1 1/4SM BR OVC004 21/19 A2995 830 93 1700 080/05 RMK AO2
14837KMSN MSN20010718034510207/18/01 03:45:31  5-MIN KMSN 180945Z 07006KT 1 1/4SM BR OVC004 21/19 A2996 830 93 1700 070/06 RMK AO2
14837KMSN MSN20010718035011907/18/01 03:50:31  5-MIN KMSN 180950Z 09006KT 1 1/4SM BR OVC004 21/19 A2996 830 93 1700 090/06 RMK AO2 SLP139 T02060194
14837KMSN MSN20010718035510207/18/01 03:55:31  5-MIN KMSN 180955Z 08004KT 1 1/4SM BR OVC004 21/19 A2996 830 93 1700 080/04 RMK AO2
14837KMSN MSN20010718040011407/18/01 04:00:31  5-MIN KMSN 181000Z 13004KT 1 1/4SM BR OVC004 21/19 A2996 830 93 1700 130/04 RMK AO2 CIG 004V009
14837KMSN MSN20010718040511407/18/01 04:05:31  5-MIN KMSN 181005Z 11004KT 1 1/2SM BR OVC004 21/19 A2996 830 93 1700 110/04 RMK AO2 CIG 004V009
14837KMSN MSN20010718041011407/18/01 04:10:31  5-MIN KMSN 181010Z 09004KT 1 1/2SM BR OVC004 21/19 A2997 820 93 1700 090/04 RMK AO2 CIG 004V009
14837KMSN MSN20010718041510207/18/01 04:15:31  5-MIN KMSN 181015Z 06005KT 1 1/2SM BR OVC004 21/19 A2997 820 93 1700 060/05 RMK AO2
14837KMSN MSN20010718042010207/18/01 04:20:31  5-MIN KMSN 181020Z 05005KT 1 1/4SM BR OVC004 21/19 A2997 820 93 1700 050/05 RMK AO2
14837KMSN MSN20010718042511407/18/01 04:25:31  5-MIN KMSN 181025Z 05006KT 1 1/4SM BR OVC004 21/19 A2997 820 93 1700 050/06 RMK AO2 CIG 004V009
14837KMSN MSN20010718043010207/18/01 04:30:31  5-MIN KMSN 181030Z 06006KT 1 1/4SM BR OVC004 21/19 A2998 810 93 1700 060/06 RMK AO2
14837KMSN MSN20010718043510207/18/01 04:35:31  5-MIN KMSN 181035Z 06006KT 1 1/2SM BR OVC004 21/19 A2998 810 93 1700 060/06 RMK AO2
14837KMSN MSN20010718044010207/18/01 04:40:31  5-MIN KMSN 181040Z 09005KT 1 1/2SM BR OVC004 21/19 A2998 810 93 1700 090/05 RMK AO2
14837KMSN MSN20010718044510207/18/01 04:45:31  5-MIN KMSN 181045Z 10005KT 1 1/2SM BR OVC004 21/19 A2998 810 93 1700 100/05 RMK AO2
14837KMSN MSN20010718045011507/18/01 04:50:31  5-MIN KMSN 181050Z 10005KT 1SM BR OVC004 21/19 A2999 800 93 1700 100/05 RMK AO2 SLP148 T02060194
14837KMSN MSN20010718045510207/18/01 04:55:31  5-MIN KMSN 181055Z 11006KT 1 1/4SM BR OVC004 21/19 A2998 800 93 1700 110/06 RMK AO2
14837KMSN MSN20010718050011007/18/01 05:00:31  5-MIN KMSN 181100Z 10005KT 1SM BR OVC006 21/19 A2999 800 93 1700 100/05 RMK AO2 CIG 005V009
14837KMSN MSN20010718050509807/18/01 05:05:31  5-MIN KMSN 181105Z 09007KT 1SM BR OVC006 21/19 A2999 800 93 1700 090/07 RMK AO2
14837KMSN MSN20010718051009807/18/01 05:10:31  5-MIN KMSN 181110Z 09005KT 1SM BR OVC006 21/19 A2999 800 93 1700 090/05 RMK AO2
14837KMSN MSN20010718051509807/18/01 05:15:31  5-MIN KMSN 181115Z 08006KT 1SM BR OVC006 21/19 A2998 810 93 1700 080/06 RMK AO2
14837KMSN MSN20010718052009807/18/01 05:20:31  5-MIN KMSN 181120Z 08006KT 1SM BR OVC006 21/19 A2998 810 93 1700 080/06 RMK AO2
14837KMSN MSN20010718052509807/18/01 05:25:31  5-MIN KMSN 181125Z 08005KT 1SM BR OVC006 21/19 A2999 800 93 1700 080/05 RMK AO2
14837KMSN MSN20010718053009807/18/01 05:30:31  5-MIN KMSN 181130Z 08006KT 1SM BR OVC006 21/19 A2999 800 93 1700 080/06 RMK AO2
14837KMSN MSN20010718053509807/18/01 05:35:31  5-MIN KMSN 181135Z 07006KT 1SM BR OVC006 21/19 A2999 800 93 1700 070/06 RMK AO2
14837KMSN MSN20010718054009807/18/01 05:40:31  5-MIN KMSN 181140Z 06006KT 1SM BR OVC006 21/19 A2999 800 93 1700 060/06 RMK AO2
14837KMSN MSN20010718054510507/18/01 05:45:31  5-MIN KMSN 181145Z 02013KT 1SM BR OVC006 21/19 A3001 780 93 1600 020/13 RMK AO2 PRESRR
14837KMSN MSN20010718055014507/18/01 05:50:31  5-MIN KMSN 181150Z 01021G25KT 1SM BR OVC006 21/19 A3001 780 93 1600 010/21G25 RMK AO2 SLP158 70136 T02060194 10222 20206 53002
14837KMSN MSN20010718055511607/18/01 05:55:31  5-MIN KMSN 181155Z 03014G25KT 3/4SM BR OVC004 20/19 A3001 790 97 1600 030/14G25 RMK AO2 SFC VIS 1
14837KMSN MSN20010718060010007/18/01 06:00:31  5-MIN KMSN 181200Z 03014KT 3/4SM BR OVC004 20/19 A3000 790 97 1600 030/14 RMK AO2
14837KMSN MSN20010718060512307/18/01 06:05:31  5-MIN KMSN 181205Z 04010KT 3/4SM -RA BR BKN004 OVC009 20/19 A3000 790 97 1600 040/10 RMK AO2 RAB01 P0000
14837KMSN MSN20010718061014007/18/01 06:10:31  5-MIN KMSN 181210Z 05010KT 3/4SM -RA BR BKN004 BKN009 OVC012 21/19 A2999 800 93 1700 050/10 RMK AO2 SFC VIS 1 RAB01 P0000
14837KMSN MSN20010718061513707/18/01 06:15:31  5-MIN KMSN 181215Z 07008KT 3/4SM -RA BR SCT004 OVC014 21/19 A2999 800 93 1700 070/08 RMK AO2 SFC VIS 1 1/4 RAB01 P0000
14837KMSN MSN20010718062014207/18/01 06:20:31  5-MIN KMSN 181220Z 09006KT 1SM -RA BR FEW004 BKN012 BKN018 21/19 A2999 800 93 1700 090/06 RMK AO2 SFC VIS 1 1/4 RAB01 P0000
14837KMSN MSN20010718062514207/18/01 06:25:31  5-MIN KMSN 181225Z 08007KT 1SM -RA BR FEW004 SCT012 BKN018 21/19 A2999 800 90 1700 080/07 RMK AO2 SFC VIS 1 1/4 RAB01 P0000
14837KMSN MSN20010718063013407/18/01 06:30:31  5-MIN KMSN 181230Z VRB03KT 1SM BR SCT012 SCT018 21/19 A2999 800 90 1700 VRB/03 RMK AO2 SFC VIS 2 1/2 RAB01E30 P0000
14837KMSN MSN20010718063512707/18/01 06:35:31  5-MIN KMSN 181235Z 32004KT 2SM BR SCT015 21/20 A3000 790 93 1700 320/04 RMK AO2 SFC VIS 2 1/2 RAB01E30 P0000
14837KMSN MSN20010718064012707/18/01 06:40:31  5-MIN KMSN 181240Z 31005KT 2SM BR FEW015 21/19 A3000 790 93 1700 310/05 RMK AO2 SFC VIS 2 1/2 RAB01E30 P0000
14837KMSN MSN20010718064511007/18/01 06:45:31  5-MIN KMSN 181245Z VRB03KT 2SM BR CLR 21/19 A3001 790 93 1700 VRB/03 RMK AO2 RAB01E30 P0000
14837KMSN MSN20010718065014107/18/01 06:50:31  5-MIN KMSN 181250Z 00000KT 1 1/2SM BR CLR 21/19 A3000 790 93 1700 000/00 RMK AO2 TWR VIS 2 RAB01E30 SLP154 P0000 T02060194
14837KMSN MSN20010718065510907/18/01 06:55:31  5-MIN KMSN 181255Z 00000KT 1 1/2SM BR CLR 21/19 A3000 790 93 1700 000/00 RMK AO2 TWR VIS 2
14837KMSN MSN20010718070012707/18/01 07:00:31  5-MIN KMSN 181300Z 19003KT 1 1/2SM -RA BR CLR 21/19 A2999 800 93 1700 190/03 RMK AO2 TWR VIS 2 RAB1257 P0000
14837KMSN MSN20010718070513007/18/01 07:05:31  5-MIN KMSN 181305Z 22004KT 1 1/2SM -RA BR FEW015 21/19 A2998 810 93 1700 220/04 RMK AO2 TWR VIS 2 RAB1257 P0001
14837KMSN MSN20010718071013007/18/01 07:10:31  5-MIN KMSN 181310Z 19004KT 1 1/2SM -RA BR SCT015 21/19 A2998 810 93 1700 190/04 RMK AO2 TWR VIS 2 RAB1257 P0001
14837KMSN MSN20010718071513007/18/01 07:15:31  5-MIN KMSN 181315Z 18006KT 1 1/2SM -RA BR FEW017 21/20 A2997 820 93 1800 180/06 RMK AO2 TWR VIS 2 RAB1257 P0001
14837KMSN MSN20010718072013007/18/01 07:20:31  5-MIN KMSN 181320Z 18006KT 1 1/2SM -RA BR SCT017 21/20 A2997 820 93 1800 180/06 RMK AO2 TWR VIS 2 RAB1257 P0001
14837KMSN MSN20010718072513007/18/01 07:25:31  5-MIN KMSN 181325Z 19009KT 1 3/4SM -RA BR SCT017 22/20 A2997 820 90 1800 180/09 RMK AO2 TWR VIS 2 RAB1257 P0001
14837KMSN MSN20010718073013707/18/01 07:30:31  5-MIN KMSN 181330Z 18011KT 1 3/4SM -RA BR SCT017 22/20 A2995 830 90 1800 180/11 RMK AO2 TWR VIS 2 RAB1257 PRESFR P0002
14837KMSN MSN20010718073513707/18/01 07:35:31  5-MIN KMSN 181335Z 17017KT 1 3/4SM -RA BR SCT017 22/20 A2992 860 90 1900 160/17 RMK AO2 TWR VIS 2 RAB1257 PRESFR P0002
14837KMSN MSN20010718074014407/18/01 07:40:31  5-MIN KMSN 181340Z 16020KT 1 3/4SM -RA BR SCT023 BKN037 21/20 A2991 880 93 1800 160/20 RMK AO2 TWR VIS 2 RAB1257 PRESFR P0002
14837KMSN MSN20010718074513707/18/01 07:45:31  5-MIN KMSN 181345Z 16011KT 1 3/4SM -RA BR SCT025 BKN037 21/20 A2992 860 93 1800 160/11 RMK AO2 TWR VIS 2 RAB1257 P0002
14837KMSN MSN20010718075015407/18/01 07:50:31  5-MIN KMSN 181350Z VRB04KT 1 3/4SM -RA BR SCT025 SCT037 21/20 A2995 840 93 1800 VRB/04 RMK AO2 TWR VIS 2 RAB1257 SLP135 P0002 T02110200
14837KMSN MSN20010718075512207/18/01 07:55:31  5-MIN KMSN 181355Z VRB04KT 1 1/2SM -RA BR SCT023 21/20 A2994 850 93 1800 VRB/04 RMK AO2 TWR VIS 2 P0000
14837KMSN MSN20010718080012207/18/01 08:00:31  5-MIN KMSN 181400Z 13012KT 1 3/4SM -RA BR FEW025 22/20 A2992 860 90 1900 130/12 RMK AO2 TWR VIS 2 P0000
14837KMSN MSN20010718080510807/18/01 08:05:31  5-MIN KMSN 181405Z 13014KT 2SM -RA BR FEW030 22/20 A2990 880 90 1900 130/14 RMK AO2 P0000
14837KMSN MSN20010718081010807/18/01 08:10:31  5-MIN KMSN 181410Z 11013KT 2SM -RA BR FEW033 21/20 A2990 880 93 1800 110/13 RMK AO2 P0000
14837KMSN MSN20010718081512507/18/01 08:15:31  5-MIN KMSN 181415Z 09010G19KT 2SM -RA BR FEW036 21/20 A2992 870 93 1800 090/10G19 RMK AO2 WSHFT 1358 P0000
14837KMSN MSN20010718082014007/18/01 08:20:31  5-MIN KMSN 181420Z VRB05KT 1 3/4SM -RA BR FEW008 21/20 A2995 840 93 1800 VRB/05 RMK AO2 WSHFT 1358 TWR VIS 2 PRESRR P0000
14837KMSN MSN20010718082512607/18/01 08:25:31  5-MIN KMSN 181425Z VRB05KT 2SM -RA BR SCT006 SCT035 21/20 A2995 830 93 1800 VRB/05 RMK AO2 WSHFT 1358 P0000
14837KMSN MSN20010718083012607/18/01 08:30:31  5-MIN KMSN 181430Z 08006KT 2SM -RA BR BKN008 BKN035 21/20 A2994 840 93 1800 080/06 RMK AO2 WSHFT 1358 P0000
14837KMSN MSN20010718083511907/18/01 08:35:31  5-MIN KMSN 181435Z 04003KT 2SM -RA BR BKN008 21/20 A2995 840 93 1800 040/03 RMK AO2 WSHFT 1358 P0000
14837KMSN MSN20010718084013807/18/01 08:40:31  5-MIN KMSN 181440Z 09005KT 2SM -RA BR BKN008 BKN012 21/20 A2995 840 93 1800 090/05 RMK AO2 WSHFT 1358 CIG 006V010 P0000
14837KMSN MSN20010718084513107/18/01 08:45:31  5-MIN KMSN 181445Z 09008KT 2SM -RA BR BKN008 21/20 A2994 840 93 1800 090/08 RMK AO2 WSHFT 1358 CIG 006V012 P0000
14837KMSN MSN20010718085016007/18/01 08:50:31  5-MIN KMSN 181450Z 09007KT 2SM -RA BR BKN010 21/20 A2994 850 93 1800 090/07 RMK AO2 WSHFT 1358 CIG 006V013 SLP133 P0000 60002 T02110200 53021
14837KMSN MSN20010718085512407/18/01 08:55:31  5-MIN KMSN 181455Z 10005KT 1 1/4SM BR BKN010 21/20 A2994 840 93 1800 100/05 RMK AO2 TWR VIS 2 CIG 007V013
14837KMSN MSN20010718090012407/18/01 09:00:31  5-MIN KMSN 181500Z 11006KT 1 1/2SM BR BKN010 21/20 A2995 840 93 1800 110/06 RMK AO2 TWR VIS 2 CIG 007V013
14837KMSN MSN20010718090512407/18/01 09:05:31  5-MIN KMSN 181505Z 13006KT 1 1/2SM BR BKN010 21/20 A2995 840 93 1800 130/06 RMK AO2 TWR VIS 2 CIG 007V013
14837KMSN MSN20010718091012407/18/01 09:10:31  5-MIN KMSN 181510Z 16007KT 1 1/2SM BR BKN010 22/21 A2995 840 93 1800 160/07 RMK AO2 TWR VIS 2 CIG 008V013
14837KMSN MSN20010718091514007/18/01 09:15:31  5-MIN KMSN 181515Z 16007KT 1 3/4SM -RA BR OVC010 22/21 A2995 830 93 1800 160/07 RMK AO2 TWR VIS 2 RAB15 CIG 008V013 P0000
14837KMSN MSN20010718092012807/18/01 09:20:31  5-MIN KMSN 181520Z 16006KT 1 3/4SM -RA BR OVC010 22/21 A2996 830 93 1800 160/06 RMK AO2 TWR VIS 2 RAB15 P0000
14837KMSN MSN20010718092512707/18/01 09:25:31  5-MIN KMSN 181525Z 17005KT 1 1/2SM BR OVC010 22/21 A2996 830 93 1800 170/05 RMK AO2 SFC VIS 2 RAB15E25 P0000
14837KMSN MSN20010718093012707/18/01 09:30:31  5-MIN KMSN 181530Z 16006KT 1 1/2SM BR OVC010 22/21 A2996 830 93 1800 160/06 RMK AO2 SFC VIS 2 RAB15E25 P0000
14837KMSN MSN20010718093513907/18/01 09:35:31  5-MIN KMSN 181535Z 14005KT 1 1/2SM BR OVC008 22/21 A2996 830 93 1800 140/05 RMK AO2 SFC VIS 2 RAB15E25 CIG 007V010 P0000
14837KMSN MSN20010718094013907/18/01 09:40:31  5-MIN KMSN 181540Z 14005KT 1 1/2SM BR OVC008 22/21 A2996 830 93 1800 140/05 RMK AO2 SFC VIS 2 RAB15E25 CIG 006V010 P0000
14837KMSN MSN20010718094513907/18/01 09:45:31  5-MIN KMSN 181545Z 00000KT 1 1/2SM BR OVC008 22/21 A2997 820 93 1800 000/00 RMK AO2 SFC VIS 2 RAB15E25 CIG 006V010 P0000
14837KMSN MSN20010718095015607/18/01 09:50:31  5-MIN KMSN 181550Z 14004KT 1 1/4SM BR OVC008 22/21 A2997 820 93 1800 140/04 RMK AO2 SFC VIS 2 RAB15E25 CIG 006V010 SLP143 P0000 T02170206
14837KMSN MSN20010718095512807/18/01 09:55:31  5-MIN KMSN 181555Z 13005KT 1 1/4SM BR OVC008 22/21 A2997 820 93 1800 130/05 RMK AO2 SFC VIS 1 1/2 CIG 006V010
14837KMSN MSN20010718100012807/18/01 10:00:31  5-MIN KMSN 181600Z 12006KT 1 1/4SM BR OVC008 22/21 A2996 820 90 1900 120/06 RMK AO2 SFC VIS 1 1/2 CIG 006V010
14837KMSN MSN20010718100512807/18/01 10:05:31  5-MIN KMSN 181605Z 13005KT 1 1/4SM BR OVC008 22/21 A2997 820 93 1900 130/05 RMK AO2 SFC VIS 1 1/2 CIG 006V010
14837KMSN MSN20010718101011607/18/01 10:10:31  5-MIN KMSN 181610Z 13006KT 1 1/4SM BR OVC008 22/21 A2997 820 93 1900 130/06 RMK AO2 SFC VIS 1 1/2
14837KMSN MSN20010718101511607/18/01 10:15:31  5-MIN KMSN 181615Z 13005KT 1 1/4SM BR OVC008 22/21 A2997 820 93 1900 130/05 RMK AO2 SFC VIS 1 1/2
14837KMSN MSN20010718102012807/18/01 10:20:31  5-MIN KMSN 181620Z 13004KT 1 1/4SM BR OVC008 23/21 A2997 810 90 1900 130/04 RMK AO2 SFC VIS 1 1/2 CIG 007V011
14837KMSN MSN20010718102512807/18/01 10:25:31  5-MIN KMSN 181625Z 13005KT 1 1/4SM BR OVC008 23/22 A2998 810 90 2000 130/05 RMK AO2 SFC VIS 1 1/2 CIG 007V011
14837KMSN MSN20010718103011607/18/01 10:30:31  5-MIN KMSN 181630Z VRB04KT 1 1/4SM BR OVC008 23/21 A2998 810 90 1900 VRB/04 RMK AO2 SFC VIS 1 1/2
14837KMSN MSN20010718103511607/18/01 10:35:31  5-MIN KMSN 181635Z 13004KT 1 1/4SM BR OVC008 23/21 A2998 810 90 1900 130/04 RMK AO2 SFC VIS 1 1/2
14837KMSN MSN20010718104011607/18/01 10:40:31  5-MIN KMSN 181640Z 15007KT 1 1/4SM BR OVC008 23/21 A2997 820 90 1900 150/07 RMK AO2 SFC VIS 1 3/4
14837KMSN MSN20010718104511607/18/01 10:45:31  5-MIN KMSN 181645Z 12005KT 1 1/4SM BR OVC008 23/21 A2997 820 87 2000 120/05 RMK AO2 SFC VIS 1 3/4
14837KMSN MSN20010718105013307/18/01 10:50:31  5-MIN KMSN 181650Z 13007KT 1 1/4SM BR OVC008 23/22 A2997 820 90 2000 130/07 RMK AO2 SFC VIS 1 3/4 SLP144 T02330217
14837KMSN MSN20010718105511607/18/01 10:55:31  5-MIN KMSN 181655Z 14005KT 1 1/4SM BR OVC008 23/22 A2997 820 90 2000 130/05 RMK AO2 SFC VIS 1 3/4
14837KMSN MSN20010718110011607/18/01 11:00:31  5-MIN KMSN 181700Z 13006KT 1 1/4SM BR OVC008 23/22 A2997 820 90 2000 130/06 RMK AO2 SFC VIS 1 3/4
14837KMSN MSN20010718110511607/18/01 11:05:31  5-MIN KMSN 181705Z 14007KT 1 1/4SM BR OVC008 24/22 A2997 820 87 2100 140/07 RMK AO2 SFC VIS 1 3/4
14837KMSN MSN20010718111011607/18/01 11:10:31  5-MIN KMSN 181710Z 14007KT 1 1/4SM BR OVC008 24/22 A2997 820 87 2100 140/07 RMK AO2 SFC VIS 1 3/4
14837KMSN MSN20010718111511207/18/01 11:15:31  5-MIN KMSN 181715Z 14006KT 1 3/4SM BR OVC010 24/22 A2997 820 87 2100 140/06 RMK AO2 SFC VIS 2
14837KMSN MSN20010718112011207/18/01 11:20:31  5-MIN KMSN 181720Z 15005KT 1 3/4SM HZ OVC010 24/22 A2997 820 84 2100 150/05 RMK AO2 SFC VIS 2
14837KMSN MSN20010718112511207/18/01 11:25:31  5-MIN KMSN 181725Z 16006KT 1 3/4SM HZ OVC010 24/22 A2997 820 84 2100 160/06 RMK AO2 SFC VIS 2
14837KMSN MSN20010718113011207/18/01 11:30:31  5-MIN KMSN 181730Z 16006KT 1 3/4SM HZ OVC010 24/22 A2997 820 84 2100 160/06 RMK AO2 SFC VIS 2
14837KMSN MSN20010718113511207/18/01 11:35:31  5-MIN KMSN 181735Z 16006KT 1 3/4SM HZ OVC012 24/22 A2997 820 84 2100 160/06 RMK AO2 SFC VIS 2
14837KMSN MSN20010718114011607/18/01 11:40:31  5-MIN KMSN 181740Z 15006KT 1 3/4SM HZ OVC012 25/22 A2997 820 84 2200 150/06 RMK AO2 SFC VIS 2 1/2
14837KMSN MSN20010718114511607/18/01 11:45:31  5-MIN KMSN 181745Z 19006KT 1 3/4SM HZ OVC012 25/22 A2997 820 81 2200 190/06 RMK AO2 SFC VIS 2 1/2
14837KMSN MSN20010718115014307/18/01 11:50:31  5-MIN KMSN 181750Z 18006KT 2 1/2SM HZ OVC012 25/22 A2997 820 84 2200 180/06 RMK AO2 SLP144 60002 T02500222 10250 20200 56022
14837KMSN MSN20010718115510207/18/01 11:55:31  5-MIN KMSN 181755Z 16006KT 2 1/2SM HZ OVC012 25/22 A2997 820 84 2200 160/06 RMK AO2
14837KMSN MSN20010718120010207/18/01 12:00:31  5-MIN KMSN 181800Z 16008KT 2 1/2SM HZ OVC012 25/22 A2997 820 84 2200 160/08 RMK AO2
14837KMSN MSN20010718120510207/18/01 12:05:31  5-MIN KMSN 181805Z 18007KT 2 1/2SM HZ OVC014 26/22 A2997 820 81 2300 180/07 RMK AO2
14837KMSN MSN20010718121010207/18/01 12:10:31  5-MIN KMSN 181810Z VRB05KT 2 1/2SM HZ OVC014 25/22 A2997 820 81 2200 VRB/05 RMK AO2
14837KMSN MSN20010718121511207/18/01 12:15:31  5-MIN KMSN 181815Z VRB04KT 2 1/2SM HZ BKN014 26/23 A2996 820 81 2300 VRB/04 RMK AO2 SFC VIS 3
14837KMSN MSN20010718122011207/18/01 12:20:31  5-MIN KMSN 181820Z 17008KT 2 1/2SM HZ BKN014 26/22 A2996 820 81 2300 170/08 RMK AO2 SFC VIS 3
14837KMSN MSN20010718122511207/18/01 12:25:31  5-MIN KMSN 181825Z 17009KT 2 1/2SM HZ BKN014 27/22 A2996 830 76 2400 160/09 RMK AO2 SFC VIS 3
14837KMSN MSN20010718123011207/18/01 12:30:31  5-MIN KMSN 181830Z 16006KT 2 1/2SM HZ SCT014 26/22 A2996 830 79 2300 160/06 RMK AO2 SFC VIS 3
14837KMSN MSN20010718123511207/18/01 12:35:31  5-MIN KMSN 181835Z VRB04KT 2 1/2SM HZ SCT014 27/22 A2996 830 76 2400 VRB/04 RMK AO2 SFC VIS 3
14837KMSN MSN20010718124011207/18/01 12:40:31  5-MIN KMSN 181840Z VRB04KT 2 1/2SM HZ SCT014 27/23 A2996 830 79 2400 VRB/04 RMK AO2 SFC VIS 3
14837KMSN MSN20010718124511207/18/01 12:45:31  5-MIN KMSN 181845Z 12005KT 2 1/2SM HZ SCT014 27/22 A2995 830 76 2400 120/05 RMK AO2 SFC VIS 3
14837KMSN MSN20010718125012907/18/01 12:50:31  5-MIN KMSN 181850Z 00000KT 2 1/2SM HZ SCT014 27/22 A2995 830 74 2500 000/00 RMK AO2 SFC VIS 3 SLP138 T02720222
14837KMSN MSN20010718125511207/18/01 12:55:31  5-MIN KMSN 181855Z 15004KT 2 1/2SM HZ FEW014 27/22 A2995 830 76 2400 140/04 RMK AO2 SFC VIS 3
14837KMSN MSN20010718130011207/18/01 13:00:31  5-MIN KMSN 181900Z 17006KT 2 1/2SM HZ FEW014 28/23 A2995 830 74 2500 170/06 RMK AO2 SFC VIS 3
14837KMSN MSN20010718130511207/18/01 13:05:31  5-MIN KMSN 181905Z 19004KT 2 1/2SM HZ FEW014 28/22 A2995 830 71 2500 190/04 RMK AO2 SFC VIS 3
14837KMSN MSN20010718131010807/18/01 13:10:31  5-MIN KMSN 181910Z VRB04KT 3SM HZ FEW014 28/22 A2995 840 71 2500 VRB/04 RMK AO2 SFC VIS 4
14837KMSN MSN20010718131510807/18/01 13:15:31  5-MIN KMSN 181915Z VRB04KT 3SM HZ FEW014 28/22 A2995 840 71 2500 VRB/04 RMK AO2 SFC VIS 4
14837KMSN MSN20010718132010807/18/01 13:20:31  5-MIN KMSN 181920Z 13006KT 3SM HZ SCT020 28/23 A2995 840 74 2500 130/06 RMK AO2 SFC VIS 4
14837KMSN MSN20010718132510807/18/01 13:25:31  5-MIN KMSN 181925Z VRB04KT 3SM HZ SCT020 28/23 A2995 840 74 2500 VRB/04 RMK AO2 SFC VIS 3
14837KMSN MSN20010718133010807/18/01 13:30:31  5-MIN KMSN 181930Z 13006KT 3SM HZ SCT020 28/23 A2995 840 71 2600 130/06 RMK AO2 SFC VIS 3
14837KMSN MSN20010718133510807/18/01 13:35:31  5-MIN KMSN 181935Z 19006KT 3SM HZ SCT020 28/23 A2995 840 71 2600 190/06 RMK AO2 SFC VIS 4
14837KMSN MSN20010718134010807/18/01 13:40:31  5-MIN KMSN 181940Z VRB04KT 3SM HZ SCT023 28/23 A2995 830 71 2600 VRB/04 RMK AO2 SFC VIS 4
14837KMSN MSN20010718134510807/18/01 13:45:31  5-MIN KMSN 181945Z 00000KT 3SM HZ SCT023 28/22 A2995 840 71 2500 000/00 RMK AO2 SFC VIS 4
14837KMSN MSN20010718135012507/18/01 13:50:31  5-MIN KMSN 181950Z 16006KT 3SM HZ SCT023 28/22 A2995 840 71 2500 160/06 RMK AO2 SFC VIS 4 SLP137 T02780222
14837KMSN MSN20010718135510807/18/01 13:55:31  5-MIN KMSN 181955Z 17006KT 3SM HZ SCT023 29/22 A2995 840 67 2700 170/06 RMK AO2 SFC VIS 4
14837KMSN MSN20010718140010807/18/01 14:00:31  5-MIN KMSN 182000Z VRB05KT 3SM HZ FEW023 28/22 A2995 840 69 2600 VRB/05 RMK AO2 SFC VIS 4
14837KMSN MSN20010718140510807/18/01 14:05:31  5-MIN KMSN 182005Z 16004KT 3SM HZ SCT023 29/22 A2995 840 67 2700 160/04 RMK AO2 SFC VIS 5
14837KMSN MSN20010718141010807/18/01 14:10:31  5-MIN KMSN 182010Z 15005KT 3SM HZ SCT023 29/22 A2995 840 67 2700 150/05 RMK AO2 SFC VIS 5
14837KMSN MSN20010718141510807/18/01 14:15:31  5-MIN KMSN 182015Z VRB04KT 3SM HZ SCT023 29/22 A2995 840 64 2700 VRB/04 RMK AO2 SFC VIS 6
14837KMSN MSN20010718142009807/18/01 14:20:31  5-MIN KMSN 182020Z VRB04KT 5SM HZ SCT023 29/22 A2995 840 67 2700 VRB/04 RMK AO2
14837KMSN MSN20010718142509807/18/01 14:25:31  5-MIN KMSN 182025Z 25005KT 5SM HZ SCT023 28/22 A2995 840 66 2600 250/05 RMK AO2
14837KMSN MSN20010718143009807/18/01 14:30:31  5-MIN KMSN 182030Z VRB05KT 5SM HZ SCT023 29/22 A2995 840 67 2700 VRB/05 RMK AO2
14837KMSN MSN20010718143509807/18/01 14:35:31  5-MIN KMSN 182035Z VRB05KT 5SM HZ SCT023 29/22 A2995 840 67 2700 VRB/05 RMK AO2
14837KMSN MSN20010718144009807/18/01 14:40:31  5-MIN KMSN 182040Z VRB04KT 5SM HZ SCT023 28/22 A2995 840 66 2600 VRB/04 RMK AO2
14837KMSN MSN20010718144509807/18/01 14:45:31  5-MIN KMSN 182045Z 16006KT 5SM HZ SCT023 28/22 A2994 840 66 2600 160/06 RMK AO2
14837KMSN MSN20010718145012107/18/01 14:50:31  5-MIN KMSN 182050Z 24005KT 5SM HZ SCT023 29/22 A2994 840 64 2700 240/05 RMK AO2 SLP134 T02890217 50009
14837KMSN MSN20010718145509807/18/01 14:55:31  5-MIN KMSN 182055Z VRB03KT 6SM HZ SCT023 29/22 A2994 840 64 2700 VRB/03 RMK AO2
14837KMSN MSN20010718150009807/18/01 15:00:31  5-MIN KMSN 182100Z 21004KT 6SM HZ SCT023 29/22 A2994 840 62 2700 210/04 RMK AO2
14837KMSN MSN20010718150509807/18/01 15:05:31  5-MIN KMSN 182105Z 00000KT 6SM HZ SCT023 29/21 A2995 840 62 2700 000/00 RMK AO2
14837KMSN MSN20010718151009507/18/01 15:10:31  5-MIN KMSN 182110Z 00000KT 7SM SCT023 29/21 A2994 840 62 2700 000/00 RMK AO2
14837KMSN MSN20010718151509507/18/01 15:15:31  5-MIN KMSN 182115Z 00000KT 7SM SCT023 29/21 A2995 840 60 2700 000/00 RMK AO2
14837KMSN MSN20010718152009507/18/01 15:20:31  5-MIN KMSN 182120Z 23005KT 7SM SCT023 29/22 A2995 840 62 2700 230/05 RMK AO2
14837KMSN MSN20010718152509507/18/01 15:25:31  5-MIN KMSN 182125Z 27004KT 7SM SCT023 29/21 A2995 840 60 2700 270/04 RMK AO2
14837KMSN MSN20010718153009507/18/01 15:30:31  5-MIN KMSN 182130Z 00000KT 7SM SCT030 29/21 A2995 840 60 2700 000/00 RMK AO2
14837KMSN MSN20010718153509507/18/01 15:35:31  5-MIN KMSN 182135Z VRB04KT 7SM SCT030 29/21 A2995 840 58 2700 VRB/04 RMK AO2
14837KMSN MSN20010718154009507/18/01 15:40:31  5-MIN KMSN 182140Z VRB04KT 8SM SCT030 29/21 A2995 840 58 2700 VRB/04 RMK AO2
14837KMSN MSN20010718154509507/18/01 15:45:31  5-MIN KMSN 182145Z VRB05KT 8SM SCT030 29/21 A2995 840 60 2700 VRB/05 RMK AO2
14837KMSN MSN20010718155011207/18/01 15:50:31  5-MIN KMSN 182150Z 27004KT 7SM SCT030 29/21 A2995 840 58 2700 270/04 RMK AO2 SLP136 T02940206
14837KMSN MSN20010718155509807/18/01 15:55:31  5-MIN KMSN 182155Z VRB03KT 6SM HZ FEW060 30/21 A2995 830 56 2800 VRB/03 RMK AO2
14837KMSN MSN20010718160009807/18/01 16:00:31  5-MIN KMSN 182200Z VRB04KT 6SM HZ FEW060 30/20 A2995 830 54 2800 VRB/04 RMK AO2
14837KMSN MSN20010718160509807/18/01 16:05:31  5-MIN KMSN 182205Z 26005KT 6SM HZ FEW060 30/20 A2995 830 54 2800 250/05 RMK AO2
14837KMSN MSN20010718161009807/18/01 16:10:31  5-MIN KMSN 182210Z 00000KT 6SM HZ FEW060 30/21 A2995 830 58 2800 000/00 RMK AO2
14837KMSN MSN20010718161509807/18/01 16:15:31  5-MIN KMSN 182215Z VRB03KT 6SM HZ FEW060 30/21 A2995 830 58 2800 VRB/03 RMK AO2
14837KMSN MSN20010718162009807/18/01 16:20:31  5-MIN KMSN 182220Z 30003KT 6SM HZ FEW060 30/21 A2995 830 56 2800 300/03 RMK AO2
14837KMSN MSN20010718162509507/18/01 16:25:31  5-MIN KMSN 182225Z 00000KT 6SM HZ CLR 30/21 A2995 830 58 2800 000/00 RMK AO2
14837KMSN MSN20010718163009507/18/01 16:30:31  5-MIN KMSN 182230Z 00000KT 6SM HZ CLR 30/22 A2995 830 60 2800 000/00 RMK AO2
14837KMSN MSN20010718163509507/18/01 16:35:31  5-MIN KMSN 182235Z 00000KT 6SM HZ CLR 30/21 A2995 840 58 2800 000/00 RMK AO2
14837KMSN MSN20010718164009507/18/01 16:40:31  5-MIN KMSN 182240Z 36003KT 6SM HZ CLR 30/21 A2995 840 56 2800 360/03 RMK AO2
14837KMSN MSN20010718164509207/18/01 16:45:31  5-MIN KMSN 182245Z 00000KT 7SM CLR 30/20 A2995 840 54 2800 000/00 RMK AO2
14837KMSN MSN20010718165010907/18/01 16:50:31  5-MIN KMSN 182250Z 32003KT 7SM CLR 30/21 A2995 830 56 2800 320/03 RMK AO2 SLP137 T03000206
14837KMSN MSN20010718165509207/18/01 16:55:31  5-MIN KMSN 182255Z 00000KT 8SM CLR 30/21 A2995 830 56 2800 000/00 RMK AO2
14837KMSN MSN20010718170009207/18/01 17:00:31  5-MIN KMSN 182300Z 00000KT 8SM CLR 30/21 A2995 830 56 2800 000/00 RMK AO2
14837KMSN MSN20010718170509207/18/01 17:05:31  5-MIN KMSN 182305Z 07005KT 8SM CLR 30/21 A2996 830 58 2800 070/05 RMK AO2
14837KMSN MSN20010718171010807/18/01 17:10:31  5-MIN KMSN 182310Z 09007KT 060V120 7SM CLR 29/22 A2996 830 62 2700 090/07 060V120 RMK AO2
14837KMSN MSN20010718171509207/18/01 17:15:31  5-MIN KMSN 182315Z 07004KT 7SM CLR 29/22 A2996 830 64 2700 070/04 RMK AO2
14837KMSN MSN20010718172009507/18/01 17:20:31  5-MIN KMSN 182320Z 08006KT 6SM HZ CLR 29/23 A2996 830 67 2700 080/06 RMK AO2
14837KMSN MSN20010718172509507/18/01 17:25:31  5-MIN KMSN 182325Z 10004KT 6SM HZ CLR 29/22 A2996 830 67 2600 100/04 RMK AO2
14837KMSN MSN20010718173009507/18/01 17:30:31  5-MIN KMSN 182330Z 08006KT 6SM HZ CLR 29/23 A2996 830 69 2600 080/06 RMK AO2
14837KMSN MSN20010718173509507/18/01 17:35:31  5-MIN KMSN 182335Z 10006KT 6SM HZ CLR 29/22 A2996 830 67 2600 100/06 RMK AO2
14837KMSN MSN20010718174009507/18/01 17:40:31  5-MIN KMSN 182340Z 11006KT 6SM HZ CLR 29/22 A2996 830 67 2600 110/06 RMK AO2
14837KMSN MSN20010718174509507/18/01 17:45:31  5-MIN KMSN 182345Z 11007KT 6SM HZ CLR 29/22 A2996 830 67 2600 110/07 RMK AO2
14837KMSN MSN20010718175013007/18/01 17:50:31  5-MIN KMSN 182350Z 10007KT 5SM HZ CLR 28/23 A2996 830 71 2600 100/07 RMK AO2 SLP140 T02830228 10306 20250 56009
14837KMSN MSN20010718175509507/18/01 17:55:31  5-MIN KMSN 182355Z 11006KT 6SM HZ CLR 28/23 A2996 830 71 2600 110/06 RMK AO2
14837KMSN MSN20010718180009507/18/01 18:00:31  5-MIN KMSN 190000Z 11006KT 6SM HZ CLR 28/23 A2996 820 71 2600 110/06 RMK AO2
14837KMSN MSN20010718180509507/18/01 18:05:31  5-MIN KMSN 190005Z 11008KT 6SM HZ CLR 28/22 A2997 820 69 2600 110/08 RMK AO2
14837KMSN MSN20010718181009507/18/01 18:10:31  5-MIN KMSN 190010Z 12007KT 6SM HZ CLR 28/22 A2997 820 69 2600 120/07 RMK AO2
14837KMSN MSN20010718181509507/18/01 18:15:31  5-MIN KMSN 190015Z 12007KT 6SM HZ CLR 28/22 A2997 820 71 2500 120/07 RMK AO2
14837KMSN MSN20010718182009507/18/01 18:20:31  5-MIN KMSN 190020Z 13008KT 5SM HZ CLR 28/23 A2996 820 74 2500 130/08 RMK AO2
14837KMSN MSN20010718182509507/18/01 18:25:31  5-MIN KMSN 190025Z 12007KT 5SM HZ CLR 28/22 A2996 820 71 2500 120/07 RMK AO2
14837KMSN MSN20010718183009507/18/01 18:30:31  5-MIN KMSN 190030Z 11008KT 5SM HZ CLR 28/22 A2996 820 71 2500 110/08 RMK AO2
14837KMSN MSN20010718183509507/18/01 18:35:31  5-MIN KMSN 190035Z 11007KT 5SM HZ CLR 28/22 A2997 820 71 2500 110/07 RMK AO2
14837KMSN MSN20010718184009507/18/01 18:40:31  5-MIN KMSN 190040Z 11008KT 5SM HZ CLR 28/22 A2997 820 71 2500 110/08 RMK AO2
14837KMSN MSN20010718184509507/18/01 18:45:31  5-MIN KMSN 190045Z 12007KT 5SM HZ CLR 27/22 A2997 820 74 2500 120/07 RMK AO2
14837KMSN MSN20010718185011207/18/01 18:50:31  5-MIN KMSN 190050Z 11005KT 5SM HZ CLR 27/22 A2997 820 74 2500 110/05 RMK AO2 SLP142 T02720222
14837KMSN MSN20010718185509507/18/01 18:55:31  5-MIN KMSN 190055Z 12006KT 5SM HZ CLR 27/22 A2997 820 76 2400 120/06 RMK AO2
14837KMSN MSN20010718190009507/18/01 19:00:31  5-MIN KMSN 190100Z 12007KT 5SM HZ CLR 27/22 A2997 820 74 2500 120/07 RMK AO2
14837KMSN MSN20010718190509507/18/01 19:05:31  5-MIN KMSN 190105Z 12007KT 5SM HZ CLR 27/22 A2997 820 76 2400 120/07 RMK AO2
14837KMSN MSN20010718191009507/18/01 19:10:31  5-MIN KMSN 190110Z 12005KT 5SM HZ CLR 27/22 A2997 820 76 2400 110/05 RMK AO2
14837KMSN MSN20010718191509507/18/01 19:15:31  5-MIN KMSN 190115Z 12005KT 5SM HZ CLR 27/22 A2997 820 76 2400 120/05 RMK AO2
14837KMSN MSN20010718192009507/18/01 19:20:31  5-MIN KMSN 190120Z 13005KT 5SM HZ CLR 27/22 A2997 820 76 2400 130/05 RMK AO2
14837KMSN MSN20010718192509507/18/01 19:25:31  5-MIN KMSN 190125Z 12006KT 5SM HZ CLR 26/22 A2997 820 79 2300 120/06 RMK AO2
14837KMSN MSN20010718193009507/18/01 19:30:31  5-MIN KMSN 190130Z 12007KT 5SM HZ CLR 26/22 A2997 820 79 2300 120/07 RMK AO2
14837KMSN MSN20010718193509507/18/01 19:35:31  5-MIN KMSN 190135Z 12005KT 5SM HZ CLR 26/22 A2997 820 79 2300 120/05 RMK AO2
14837KMSN MSN20010718194009507/18/01 19:40:31  5-MIN KMSN 190140Z 12005KT 5SM HZ CLR 26/22 A2997 820 81 2300 120/05 RMK AO2
14837KMSN MSN20010718194509507/18/01 19:45:31  5-MIN KMSN 190145Z 13005KT 5SM HZ CLR 26/22 A2997 820 79 2300 130/05 RMK AO2
14837KMSN MSN20010718195011207/18/01 19:50:31  5-MIN KMSN 190150Z 13005KT 5SM HZ CLR 26/22 A2997 820 79 2300 130/05 RMK AO2 SLP143 T02610222
14837KMSN MSN20010718195509507/18/01 19:55:31  5-MIN KMSN 190155Z 12006KT 4SM HZ CLR 26/22 A2997 820 79 2300 120/06 RMK AO2
14837KMSN MSN20010718200009507/18/01 20:00:31  5-MIN KMSN 190200Z 12005KT 4SM HZ CLR 26/22 A2997 820 81 2300 120/05 RMK AO2
14837KMSN MSN20010718200509507/18/01 20:05:31  5-MIN KMSN 190205Z 11005KT 4SM HZ CLR 25/22 A2997 820 84 2200 110/05 RMK AO2
14837KMSN MSN20010718201009507/18/01 20:10:31  5-MIN KMSN 190210Z 12005KT 4SM HZ CLR 25/22 A2997 820 84 2200 110/05 RMK AO2
14837KMSN MSN20010718201509507/18/01 20:15:31  5-MIN KMSN 190215Z 12004KT 4SM HZ CLR 26/22 A2997 810 81 2300 120/04 RMK AO2
14837KMSN MSN20010718202009507/18/01 20:20:31  5-MIN KMSN 190220Z 12004KT 4SM HZ CLR 26/22 A2997 810 81 2300 120/04 RMK AO2
14837KMSN MSN20010718202509507/18/01 20:25:31  5-MIN KMSN 190225Z 12004KT 4SM HZ CLR 26/22 A2998 810 81 2300 120/04 RMK AO2
14837KMSN MSN20010718203009507/18/01 20:30:31  5-MIN KMSN 190230Z 13005KT 4SM HZ CLR 25/22 A2998 810 81 2200 120/05 RMK AO2
14837KMSN MSN20010718203509507/18/01 20:35:31  5-MIN KMSN 190235Z 13004KT 4SM HZ CLR 25/22 A2998 810 81 2200 130/04 RMK AO2
14837KMSN MSN20010718204009507/18/01 20:40:31  5-MIN KMSN 190240Z 12004KT 4SM HZ CLR 25/22 A2998 810 84 2200 120/04 RMK AO2
14837KMSN MSN20010718204509507/18/01 20:45:31  5-MIN KMSN 190245Z 12004KT 4SM HZ CLR 25/22 A2998 810 81 2200 120/04 RMK AO2
14837KMSN MSN20010718205011807/18/01 20:50:31  5-MIN KMSN 190250Z 12005KT 4SM HZ CLR 25/22 A2998 810 81 2200 120/05 RMK AO2 SLP148 T02500217 51006
14837KMSN MSN20010718205509507/18/01 20:55:31  5-MIN KMSN 190255Z 13004KT 4SM HZ CLR 25/22 A2998 810 84 2200 130/04 RMK AO2
14837KMSN MSN20010718210009507/18/01 21:00:31  5-MIN KMSN 190300Z 13005KT 4SM BR CLR 24/22 A2998 810 87 2100 130/05 RMK AO2
14837KMSN MSN20010718210509507/18/01 21:05:31  5-MIN KMSN 190305Z 14005KT 4SM HZ CLR 25/22 A2999 800 84 2200 140/05 RMK AO2
14837KMSN MSN20010718211009507/18/01 21:10:31  5-MIN KMSN 190310Z 13006KT 4SM HZ CLR 25/22 A2999 800 84 2200 130/06 RMK AO2
14837KMSN MSN20010718211509507/18/01 21:15:31  5-MIN KMSN 190315Z 13005KT 4SM HZ CLR 25/22 A2999 800 84 2200 130/05 RMK AO2
14837KMSN MSN20010718212009507/18/01 21:20:31  5-MIN KMSN 190320Z 13005KT 4SM HZ CLR 25/22 A2999 800 84 2200 130/05 RMK AO2
14837KMSN MSN20010718212509507/18/01 21:25:31  5-MIN KMSN 190325Z 13007KT 4SM HZ CLR 25/22 A2999 800 84 2200 130/07 RMK AO2
14837KMSN MSN20010718213009507/18/01 21:30:31  5-MIN KMSN 190330Z 13006KT 4SM HZ CLR 25/22 A2999 800 84 2200 130/06 RMK AO2
14837KMSN MSN20010718213509507/18/01 21:35:31  5-MIN KMSN 190335Z 13006KT 4SM HZ CLR 25/22 A2999 800 84 2200 130/06 RMK AO2
14837KMSN MSN20010718214009507/18/01 21:40:31  5-MIN KMSN 190340Z 13007KT 4SM HZ CLR 25/22 A2999 800 84 2200 130/07 RMK AO2
14837KMSN MSN20010718214509507/18/01 21:45:31  5-MIN KMSN 190345Z 12007KT 4SM HZ CLR 25/22 A2999 800 84 2200 120/07 RMK AO2
14837KMSN MSN20010718215011207/18/01 21:50:31  5-MIN KMSN 190350Z 12007KT 3SM BR CLR 24/22 A2999 800 87 2100 120/07 RMK AO2 SLP151 T02440222
14837KMSN MSN20010718215509507/18/01 21:55:31  5-MIN KMSN 190355Z 12006KT 3SM BR CLR 24/22 A2999 800 87 2100 120/06 RMK AO2
14837KMSN MSN20010718220009507/18/01 22:00:31  5-MIN KMSN 190400Z 11006KT 3SM BR CLR 24/22 A2999 800 90 2100 110/06 RMK AO2
14837KMSN MSN20010718220509507/18/01 22:05:31  5-MIN KMSN 190405Z 11006KT 3SM BR CLR 24/22 A2999 800 90 2100 110/06 RMK AO2
14837KMSN MSN20010718221009507/18/01 22:10:31  5-MIN KMSN 190410Z 12005KT 3SM BR CLR 24/22 A2999 800 90 2100 120/05 RMK AO2
14837KMSN MSN20010718221509507/18/01 22:15:31  5-MIN KMSN 190415Z 12005KT 3SM BR CLR 24/22 A2999 800 90 2100 120/05 RMK AO2
14837KMSN MSN20010718222009507/18/01 22:20:31  5-MIN KMSN 190420Z 13007KT 3SM BR CLR 24/22 A2999 800 90 2100 130/07 RMK AO2
14837KMSN MSN20010718222509507/18/01 22:25:31  5-MIN KMSN 190425Z 13007KT 3SM BR CLR 24/22 A2999 800 90 2100 120/07 RMK AO2
14837KMSN MSN20010718223009507/18/01 22:30:31  5-MIN KMSN 190430Z 13008KT 3SM BR CLR 24/22 A2999 800 90 2000 130/08 RMK AO2
14837KMSN MSN20010718223509507/18/01 22:35:31  5-MIN KMSN 190435Z 13009KT 3SM BR CLR 24/22 A2999 800 90 2000 130/09 RMK AO2
14837KMSN MSN20010718224009507/18/01 22:40:31  5-MIN KMSN 190440Z 14006KT 3SM BR CLR 24/22 A2999 800 90 2000 140/06 RMK AO2
14837KMSN MSN20010718224509907/18/01 22:45:31  5-MIN KMSN 190445Z 14008KT 2 1/2SM BR CLR 24/22 A2999 800 90 2000 140/08 RMK AO2
14837KMSN MSN20010718225011207/18/01 22:50:31  5-MIN KMSN 190450Z 13007KT 2SM BR CLR 23/22 A3000 800 93 2000 130/07 RMK AO2 SLP152 T02330222
14837KMSN MSN20010718225509507/18/01 22:55:31  5-MIN KMSN 190455Z 14007KT 2SM BR CLR 23/22 A2999 800 93 2000 140/07 RMK AO2
14837KMSN MSN20010718230009507/18/01 23:00:31  5-MIN KMSN 190500Z 14006KT 2SM BR CLR 23/22 A2999 800 93 2000 140/06 RMK AO2
14837KMSN MSN20010718230509507/18/01 23:05:31  5-MIN KMSN 190505Z 14004KT 2SM BR CLR 23/22 A3000 800 93 2000 140/04 RMK AO2
14837KMSN MSN20010718231009507/18/01 23:10:31  5-MIN KMSN 190510Z 15005KT 2SM BR CLR 23/22 A3000 790 93 2000 150/05 RMK AO2
14837KMSN MSN20010718231509507/18/01 23:15:31  5-MIN KMSN 190515Z 15006KT 2SM BR CLR 23/22 A3000 790 93 2000 150/06 RMK AO2
14837KMSN MSN20010718232009507/18/01 23:20:31  5-MIN KMSN 190520Z 16006KT 2SM BR CLR 23/22 A3000 790 93 2000 160/06 RMK AO2
14837KMSN MSN20010718232509507/18/01 23:25:31  5-MIN KMSN 190525Z 16004KT 2SM BR CLR 23/22 A3000 790 93 2000 160/04 RMK AO2
14837KMSN MSN20010718233009507/18/01 23:30:31  5-MIN KMSN 190530Z 15003KT 2SM BR CLR 23/22 A3000 790 93 2000 150/03 RMK AO2
14837KMSN MSN20010718233509507/18/01 23:35:31  5-MIN KMSN 190535Z 15004KT 2SM BR CLR 23/22 A3000 790 93 2000 150/04 RMK AO2
14837KMSN MSN20010718234009507/18/01 23:40:31  5-MIN KMSN 190540Z 14005KT 2SM BR CLR 23/22 A3000 790 93 1900 140/05 RMK AO2
14837KMSN MSN20010718234509507/18/01 23:45:31  5-MIN KMSN 190545Z 14004KT 2SM BR CLR 23/22 A3001 790 93 1900 140/04 RMK AO2
14837KMSN MSN20010718235014007/18/01 23:50:31  5-MIN KMSN 190550Z 13004KT 2SM BR CLR 23/22 A3000 790 93 2000 130/04 RMK AO2 SLP155 T02330222 10283 20228 403060200 53007
14837KMSN MSN20010718235509907/18/01 23:55:31  5-MIN KMSN 190555Z 14004KT 1 3/4SM BR CLR 23/22 A3000 790 93 1900 140/04 RMK AO2
14837KMSN MSN20010719000009507/19/01 00:00:31  5-MIN KMSN 190600Z 14004KT 2SM BR CLR 23/22 A3001 780 93 1900 140/04 RMK AO2
14837KMSN MSN20010719000509507/19/01 00:05:31  5-MIN KMSN 190605Z 14004KT 2SM BR CLR 23/22 A3001 780 93 1900 130/04 RMK AO2
14837KMSN MSN20010719001009507/19/01 00:10:31  5-MIN KMSN 190610Z 15003KT 2SM BR CLR 23/22 A3001 780 93 1900 150/03 RMK AO2
14837KMSN MSN20010719001509507/19/01 00:15:31  5-MIN KMSN 190615Z 15005KT 2SM BR CLR 23/22 A3001 780 93 1900 150/05 RMK AO2
14837KMSN MSN20010719002009507/19/01 00:20:31  5-MIN KMSN 190620Z 15004KT 2SM BR CLR 23/22 A3001 780 93 1900 150/04 RMK AO2
14837KMSN MSN20010719002509507/19/01 00:25:31  5-MIN KMSN 190625Z 16004KT 2SM BR CLR 23/22 A3002 780 93 1900 160/04 RMK AO2
14837KMSN MSN20010719003009507/19/01 00:30:31  5-MIN KMSN 190630Z 16003KT 2SM BR CLR 23/22 A3002 780 93 1900 160/03 RMK AO2
14837KMSN MSN20010719003509907/19/01 00:35:31  5-MIN KMSN 190635Z 14004KT 1 3/4SM BR CLR 23/22 A3001 780 93 1900 140/04 RMK AO2
14837KMSN MSN20010719004009907/19/01 00:40:31  5-MIN KMSN 190640Z 15004KT 1 3/4SM BR CLR 23/22 A3001 780 93 1900 140/04 RMK AO2
14837KMSN MSN20010719004509907/19/01 00:45:31  5-MIN KMSN 190645Z 13005KT 1 3/4SM BR CLR 23/22 A3001 780 93 1900 130/05 RMK AO2
14837KMSN MSN20010719005011607/19/01 00:50:31  5-MIN KMSN 190650Z 13004KT 1 3/4SM BR CLR 23/22 A3001 780 93 1900 130/04 RMK AO2 SLP158 T02280217
14837KMSN MSN20010719005509907/19/01 00:55:31  5-MIN KMSN 190655Z 14005KT 1 3/4SM BR CLR 23/22 A3002 770 93 1900 140/05 RMK AO2
14837KMSN MSN20010719010009907/19/01 01:00:31  5-MIN KMSN 190700Z 14004KT 1 3/4SM BR CLR 23/22 A3002 780 93 1900 140/04 RMK AO2
14837KMSN MSN20010719010509907/19/01 01:05:31  5-MIN KMSN 190705Z 12003KT 1 3/4SM BR CLR 23/22 A3001 780 90 2000 120/03 RMK AO2
14837KMSN MSN20010719011009907/19/01 01:10:31  5-MIN KMSN 190710Z VRB03KT 1 3/4SM BR CLR 22/21 A3001 780 93 1800 VRB/03 RMK AO2
14837KMSN MSN20010719011509907/19/01 01:15:31  5-MIN KMSN 190715Z 13003KT 1 3/4SM BR CLR 22/21 A3001 780 93 1800 130/03 RMK AO2
14837KMSN MSN20010719012009907/19/01 01:20:31  5-MIN KMSN 190720Z 14004KT 1 1/2SM BR CLR 22/21 A3001 780 93 1800 140/04 RMK AO2
14837KMSN MSN20010719012509907/19/01 01:25:31  5-MIN KMSN 190725Z 14004KT 1 1/2SM BR CLR 22/21 A3001 780 93 1800 140/04 RMK AO2
14837KMSN MSN20010719013009907/19/01 01:30:31  5-MIN KMSN 190730Z 15003KT 1 1/2SM BR CLR 22/21 A3001 780 93 1800 140/03 RMK AO2
14837KMSN MSN20010719013509907/19/01 01:35:31  5-MIN KMSN 190735Z 14004KT 1 1/2SM BR CLR 22/21 A3001 780 93 1800 140/04 RMK AO2
14837KMSN MSN20010719014009907/19/01 01:40:31  5-MIN KMSN 190740Z 14003KT 1 3/4SM BR CLR 22/21 A3001 780 93 1800 140/03 RMK AO2
14837KMSN MSN20010719014509907/19/01 01:45:31  5-MIN KMSN 190745Z 14004KT 1 3/4SM BR CLR 22/21 A3001 780 93 1800 140/04 RMK AO2
14837KMSN MSN20010719015011607/19/01 01:50:31  5-MIN KMSN 190750Z 16004KT 1 1/2SM BR CLR 22/21 A3002 780 93 1800 160/04 RMK AO2 SLP158 T02220211
14837KMSN MSN20010719015509907/19/01 01:55:31  5-MIN KMSN 190755Z 15004KT 1 1/2SM BR CLR 22/21 A3002 780 93 1800 150/04 RMK AO2
14837KMSN MSN20010719020009907/19/01 02:00:31  5-MIN KMSN 190800Z 14003KT 1 1/2SM BR CLR 22/21 A3001 780 93 1800 140/03 RMK AO2
14837KMSN MSN20010719020509907/19/01 02:05:31  5-MIN KMSN 190805Z 15003KT 1 1/2SM BR CLR 22/21 A3001 780 93 1800 140/03 RMK AO2
14837KMSN MSN20010719021009907/19/01 02:10:31  5-MIN KMSN 190810Z 14003KT 1 1/2SM BR CLR 22/21 A3002 780 93 1800 140/03 RMK AO2
14837KMSN MSN20010719021509907/19/01 02:15:31  5-MIN KMSN 190815Z 00000KT 1 1/2SM BR CLR 22/21 A3001 780 93 1800 000/00 RMK AO2
14837KMSN MSN20010719022009907/19/01 02:20:31  5-MIN KMSN 190820Z 10003KT 1 1/2SM BR CLR 22/21 A3001 780 93 1800 100/03 RMK AO2
14837KMSN MSN20010719022509907/19/01 02:25:31  5-MIN KMSN 190825Z 00000KT 1 1/4SM BR CLR 22/21 A3002 770 93 1800 000/00 RMK AO2
14837KMSN MSN20010719023009907/19/01 02:30:31  5-MIN KMSN 190830Z 08003KT 1 1/4SM BR CLR 21/21 A3001 780 97 1700 080/03 RMK AO2
14837KMSN MSN20010719023509907/19/01 02:35:31  5-MIN KMSN 190835Z 10003KT 1 1/4SM BR CLR 22/21 A3002 780 93 1800 100/03 RMK AO2
14837KMSN MSN20010719024009907/19/01 02:40:31  5-MIN KMSN 190840Z 00000KT 1 1/4SM BR CLR 21/21 A3001 780 97 1700 000/00 RMK AO2
14837KMSN MSN20010719024509907/19/01 02:45:31  5-MIN KMSN 190845Z 00000KT 1 1/4SM BR CLR 21/21 A3002 780 97 1700 000/00 RMK AO2
14837KMSN MSN20010719025012207/19/01 02:50:31  5-MIN KMSN 190850Z 00000KT 1 1/4SM BR CLR 21/20 A3001 780 93 1700 000/00 RMK AO2 SLP158 T02110200 53007
14837KMSN MSN20010719025509907/19/01 02:55:31  5-MIN KMSN 190855Z 00000KT 1 1/4SM BR CLR 21/20 A3002 780 97 1600 000/00 RMK AO2
14837KMSN MSN20010719030009907/19/01 03:00:31  5-MIN KMSN 190900Z 00000KT 1 1/4SM BR CLR 21/21 A3002 780 97 1700 000/00 RMK AO2
14837KMSN MSN20010719030509807/19/01 03:05:31  5-MIN KMSN 190905Z 00000KT 3/4SM BR CLR 20/20 A3002 770 100 1600 000/00 RMK AO2
14837KMSN MSN20010719031009807/19/01 03:10:31  5-MIN KMSN 190910Z 00000KT 1/2SM FG CLR 19/19 A3002 780 100 1500 000/00 RMK AO2
14837KMSN MSN20010719031509707/19/01 03:15:31  5-MIN KMSN 190915Z 21003KT 1/2SM FG CLR 20/19 A3001 780 97 1600 210/03 RMK AO2
14837KMSN MSN20010719032009707/19/01 03:20:31  5-MIN KMSN 190920Z 00000KT 3/4SM BR CLR 21/20 A3001 780 97 1600 000/00 RMK AO2
14837KMSN MSN20010719032509507/19/01 03:25:31  5-MIN KMSN 190925Z 00000KT 1SM BR CLR 21/20 A3001 790 97 1700 000/00 RMK AO2
14837KMSN MSN20010719033009507/19/01 03:30:31  5-MIN KMSN 190930Z 00000KT 1SM BR CLR 21/20 A3000 790 97 1700 000/00 RMK AO2
14837KMSN MSN20010719033509507/19/01 03:35:31  5-MIN KMSN 190935Z 00000KT 1SM BR CLR 21/20 A3000 790 97 1700 000/00 RMK AO2
14837KMSN MSN20010719034009607/19/01 03:40:31  5-MIN KMSN 190940Z 00000KT 1SM BR CLR 20/20 A3000 790 100 1600 000/00 RMK AO2
14837KMSN MSN20010719034509507/19/01 03:45:31  5-MIN KMSN 190945Z 16003KT 1SM BR CLR 20/19 A3000 790 97 1600 160/03 RMK AO2
14837KMSN MSN20010719035011207/19/01 03:50:31  5-MIN KMSN 190950Z 14003KT 1SM BR CLR 21/20 A3000 790 97 1700 140/03 RMK AO2 SLP152 T02060200
14837KMSN MSN20010719035509507/19/01 03:55:31  5-MIN KMSN 190955Z 14004KT 1SM BR CLR 21/20 A3000 790 93 1700 140/04 RMK AO2
14837KMSN MSN20010719040009907/19/01 04:00:31  5-MIN KMSN 191000Z 14004KT 1 1/4SM BR CLR 21/21 A3000 790 97 1700 140/04 RMK AO2
14837KMSN MSN20010719040509907/19/01 04:05:31  5-MIN KMSN 191005Z 00000KT 1 1/4SM BR CLR 21/20 A3000 790 97 1700 000/00 RMK AO2
14837KMSN MSN20010719041010507/19/01 04:10:31  5-MIN KMSN 191010Z 00000KT 1 1/4SM BR CLR 20/19 A3000 790 97 1600 000/00 RMK AO2 P0001
14837KMSN MSN20010719041510507/19/01 04:15:31  5-MIN KMSN 191015Z 00000KT 1 1/4SM BR CLR 19/19 A3000 790 97 1500 000/00 RMK AO2 P0001
14837KMSN MSN20010719042010107/19/01 04:20:31  5-MIN KMSN 191020Z 00000KT 1SM BR CLR 20/19 A3000 790 97 1600 000/00 RMK AO2 P0001
14837KMSN MSN20010719042510407/19/01 04:25:31  5-MIN KMSN 191025Z 00000KT 3/4SM BR CLR 20/20 A3000 790 100 1600 000/00 RMK AO2 P0001
14837KMSN MSN20010719043009707/19/01 04:30:31  5-MIN KMSN 191030Z 00000KT 1/2SM FG CLR 20/19 A3001 780 97 1600 000/00 RMK AO2
14837KMSN MSN20010719043509707/19/01 04:35:31  5-MIN KMSN 191035Z VRB03KT 1/2SM FG CLR 21/20 A3001 780 97 1600 VRB/03 RMK AO2
14837KMSN MSN20010719044009707/19/01 04:40:31  5-MIN KMSN 191040Z 17004KT 1/2SM FG CLR 21/21 A3001 780 97 1700 160/04 RMK AO2
14837KMSN MSN20010719044509707/19/01 04:45:31  5-MIN KMSN 191045Z 18004KT 3/4SM BR CLR 21/21 A3002 770 97 1700 180/04 RMK AO2
14837KMSN MSN20010719045011407/19/01 04:50:31  5-MIN KMSN 191050Z 00000KT 3/4SM BR CLR 21/20 A3001 780 97 1600 000/00 RMK AO2 SLP158 T02060200
14837KMSN MSN20010719045509707/19/01 04:55:31  5-MIN KMSN 191055Z 13003KT 3/4SM BR CLR 20/19 A3002 770 97 1600 130/03 RMK AO2
14837KMSN MSN20010719050009707/19/01 05:00:31  5-MIN KMSN 191100Z 00000KT 3/4SM BR CLR 21/20 A3002 780 97 1600 000/00 RMK AO2
14837KMSN MSN20010719050509707/19/01 05:05:31  5-MIN KMSN 191105Z 04004KT 3/4SM BR CLR 20/19 A3002 780 97 1600 040/04 RMK AO2
14837KMSN MSN20010719051009707/19/01 05:10:31  5-MIN KMSN 191110Z 06004KT 3/4SM BR CLR 20/19 A3002 770 97 1600 060/04 RMK AO2
14837KMSN MSN20010719051509707/19/01 05:15:31  5-MIN KMSN 191115Z 06004KT 3/4SM BR CLR 21/20 A3002 770 97 1600 060/04 RMK AO2
14837KMSN MSN20010719052009707/19/01 05:20:31  5-MIN KMSN 191120Z 09004KT 3/4SM BR CLR 21/20 A3002 780 93 1700 090/04 RMK AO2
14837KMSN MSN20010719052509707/19/01 05:25:31  5-MIN KMSN 191125Z 08005KT 3/4SM BR CLR 21/21 A3002 780 97 1700 080/05 RMK AO2
14837KMSN MSN20010719053009707/19/01 05:30:31  5-MIN KMSN 191130Z 10003KT 3/4SM BR CLR 21/20 A3002 770 97 1600 100/03 RMK AO2
14837KMSN MSN20010719053509707/19/01 05:35:31  5-MIN KMSN 191135Z 00000KT 3/4SM BR CLR 21/21 A3002 770 97 1700 000/00 RMK AO2
14837KMSN MSN20010719054009707/19/01 05:40:31  5-MIN KMSN 191140Z 09003KT 3/4SM BR CLR 21/21 A3002 780 97 1700 090/03 RMK AO2
14837KMSN MSN20010719054509707/19/01 05:45:31  5-MIN KMSN 191145Z 00000KT 3/4SM BR CLR 22/21 A3002 780 93 1800 000/00 RMK AO2
14837KMSN MSN20010719055013807/19/01 05:50:31  5-MIN KMSN 191150Z 10003KT 3/4SM BR CLR 22/21 A3002 780 97 1800 100/03 RMK AO2 SLP158 70002 T02170211 10233 20194 51004
14837KMSN MSN20010719055509707/19/01 05:55:31  5-MIN KMSN 191155Z 10003KT 3/4SM BR CLR 22/21 A3002 780 97 1800 100/03 RMK AO2
14837KMSN MSN20010719060010907/19/01 06:00:31  5-MIN KMSN 191200Z 10005KT 1/2SM BR CLR 22/21 A3001 780 93 1800 090/05 RMK AO2 SFC VIS 3/4
14837KMSN MSN20010719060510907/19/01 06:05:31  5-MIN KMSN 191205Z 10005KT 1/2SM BR CLR 22/21 A3001 780 93 1800 100/05 RMK AO2 SFC VIS 3/4
14837KMSN MSN20010719061010907/19/01 06:10:31  5-MIN KMSN 191210Z 11005KT 1/2SM BR CLR 22/21 A3001 780 93 1800 110/05 RMK AO2 SFC VIS 3/4
14837KMSN MSN20010719061510907/19/01 06:15:31  5-MIN KMSN 191215Z 10006KT 1/2SM BR CLR 22/21 A3002 780 93 1800 100/06 RMK AO2 SFC VIS 3/4
14837KMSN MSN20010719062010907/19/01 06:20:31  5-MIN KMSN 191220Z 11006KT 1/2SM BR CLR 22/21 A3001 780 93 1800 110/06 RMK AO2 SFC VIS 3/4
14837KMSN MSN20010719062510907/19/01 06:25:31  5-MIN KMSN 191225Z 13005KT 1/2SM BR CLR 22/21 A3001 780 93 1800 130/05 RMK AO2 SFC VIS 3/4
14837KMSN MSN20010719063010707/19/01 06:30:31  5-MIN KMSN 191230Z 13005KT 1/2SM BR CLR 23/21 A3002 770 90 1900 130/05 RMK AO2 SFC VIS 1
14837KMSN MSN20010719063510707/19/01 06:35:31  5-MIN KMSN 191235Z 12004KT 1/2SM BR CLR 23/21 A3002 770 90 1900 120/04 RMK AO2 SFC VIS 1
14837KMSN MSN20010719064010707/19/01 06:40:31  5-MIN KMSN 191240Z 12003KT 1/2SM BR CLR 23/21 A3002 770 90 1900 120/03 RMK AO2 SFC VIS 1
14837KMSN MSN20010719064509507/19/01 06:45:31  5-MIN KMSN 191245Z 12005KT 1SM BR CLR 23/21 A3002 770 90 1900 120/05 RMK AO2
14837KMSN MSN20010719065011607/19/01 06:50:31  5-MIN KMSN 191250Z 11005KT 1 1/4SM BR CLR 23/21 A3003 770 90 1900 110/05 RMK AO2 SLP162 T02280211
14837KMSN MSN20010719065509907/19/01 06:55:31  5-MIN KMSN 191255Z 09005KT 1 1/4SM BR CLR 23/21 A3003 760 87 1900 090/05 RMK AO2
14837KMSN MSN20010719070009907/19/01 07:00:31  5-MIN KMSN 191300Z 11005KT 1 1/4SM BR CLR 23/21 A3003 760 87 1900 110/05 RMK AO2
14837KMSN MSN20010719070509907/19/01 07:05:31  5-MIN KMSN 191305Z 11004KT 1 1/4SM BR CLR 23/21 A3004 760 87 1900 110/04 RMK AO2
14837KMSN MSN20010719071011307/19/01 07:10:31  5-MIN KMSN 191310Z 10005KT 1 1/4SM BR CLR 23/21 A3003 760 87 1900 100/05 RMK AO2 SFC VIS 1 1/2
14837KMSN MSN20010719071511307/19/01 07:15:31  5-MIN KMSN 191315Z 12006KT 1 1/4SM BR CLR 23/21 A3003 760 87 1900 120/06 RMK AO2 SFC VIS 1 1/2
14837KMSN MSN20010719072011307/19/01 07:20:31  5-MIN KMSN 191320Z 11005KT 1 1/4SM BR CLR 23/22 A3003 770 90 1900 110/05 RMK AO2 SFC VIS 1 1/2
14837KMSN MSN20010719072511307/19/01 07:25:31  5-MIN KMSN 191325Z 10006KT 1 1/4SM BR CLR 24/22 A3002 770 87 2000 100/06 RMK AO2 SFC VIS 1 1/2
14837KMSN MSN20010719073011307/19/01 07:30:31  5-MIN KMSN 191330Z 12005KT 1 1/4SM BR CLR 24/22 A3003 770 87 2000 120/05 RMK AO2 SFC VIS 1 1/2
14837KMSN MSN20010719073511307/19/01 07:35:31  5-MIN KMSN 191335Z 11005KT 1 1/4SM BR CLR 24/22 A3003 770 87 2000 110/05 RMK AO2 SFC VIS 1 1/2
14837KMSN MSN20010719074011307/19/01 07:40:31  5-MIN KMSN 191340Z 13005KT 1 1/4SM HZ CLR 24/22 A3003 770 84 2100 120/05 RMK AO2 SFC VIS 1 3/4
14837KMSN MSN20010719074510907/19/01 07:45:31  5-MIN KMSN 191345Z 15006KT 1 1/4SM HZ CLR 25/22 A3002 770 81 2100 140/06 RMK AO2 SFC VIS 2
14837KMSN MSN20010719075011207/19/01 07:50:31  5-MIN KMSN 191350Z 13006KT 2SM HZ CLR 25/22 A3002 770 81 2100 130/06 RMK AO2 SLP160 T02500217
14837KMSN MSN20010719075509507/19/01 07:55:31  5-MIN KMSN 191355Z 12006KT 2SM HZ CLR 24/22 A3002 770 84 2100 120/06 RMK AO2
14837KMSN MSN20010719080009507/19/01 08:00:31  5-MIN KMSN 191400Z 14006KT 2SM HZ CLR 24/22 A3002 770 84 2100 140/06 RMK AO2
14837KMSN MSN20010719080509507/19/01 08:05:31  5-MIN KMSN 191405Z 15007KT 2SM HZ CLR 25/22 A3002 770 81 2100 150/07 RMK AO2
14837KMSN MSN20010719081010907/19/01 08:10:31  5-MIN KMSN 191410Z 15005KT 2SM HZ CLR 25/22 A3003 770 84 2100 150/05 RMK AO2 SFC VIS 2 1/2
14837KMSN MSN20010719081510907/19/01 08:15:31  5-MIN KMSN 191415Z 14007KT 2SM HZ CLR 25/22 A3003 760 84 2100 140/07 RMK AO2 SFC VIS 2 1/2
14837KMSN MSN20010719082010907/19/01 08:20:31  5-MIN KMSN 191420Z 14006KT 2SM HZ CLR 25/22 A3003 760 84 2100 140/06 RMK AO2 SFC VIS 2 1/2
14837KMSN MSN20010719082510907/19/01 08:25:31  5-MIN KMSN 191425Z 15005KT 2SM HZ CLR 26/22 A3003 760 81 2200 150/05 RMK AO2 SFC VIS 2 1/2
14837KMSN MSN20010719083010907/19/01 08:30:31  5-MIN KMSN 191430Z 14004KT 2SM HZ CLR 26/22 A3004 760 81 2200 140/04 RMK AO2 SFC VIS 2 1/2
14837KMSN MSN20010719083510507/19/01 08:35:31  5-MIN KMSN 191435Z 14006KT 2SM HZ CLR 26/22 A3004 750 81 2200 140/06 RMK AO2 SFC VIS 3
14837KMSN MSN20010719084010507/19/01 08:40:31  5-MIN KMSN 191440Z 16006KT 2SM HZ CLR 26/22 A3004 750 81 2200 150/06 RMK AO2 SFC VIS 3
14837KMSN MSN20010719084510507/19/01 08:45:31  5-MIN KMSN 191445Z 17004KT 2SM HZ CLR 26/23 A3005 750 81 2200 170/04 RMK AO2 SFC VIS 3
14837KMSN MSN20010719085013107/19/01 08:50:31  5-MIN KMSN 191450Z 15003KT 2SM HZ SCT015 26/22 A3005 750 79 2200 150/03 RMK AO2 SFC VIS 3 SLP169 T02610222 53000
14837KMSN MSN20010719085510807/19/01 08:55:31  5-MIN KMSN 191455Z VRB04KT 2SM HZ SCT015 26/22 A3005 750 79 2200 VRB/04 RMK AO2 SFC VIS 3
14837KMSN MSN20010719090010807/19/01 09:00:31  5-MIN KMSN 191500Z 19005KT 2SM HZ SCT015 26/22 A3005 750 79 2200 190/05 RMK AO2 SFC VIS 3
14837KMSN MSN20010719090510807/19/01 09:05:31  5-MIN KMSN 191505Z 17005KT 2SM HZ BKN015 26/22 A3005 750 79 2200 170/05 RMK AO2 SFC VIS 3
14837KMSN MSN20010719091010807/19/01 09:10:31  5-MIN KMSN 191510Z 17005KT 2SM HZ BKN015 26/22 A3005 750 79 2200 160/05 RMK AO2 SFC VIS 3
14837KMSN MSN20010719091510807/19/01 09:15:31  5-MIN KMSN 191515Z 17006KT 2SM HZ BKN015 27/22 A3005 750 76 2300 170/06 RMK AO2 SFC VIS 3
14837KMSN MSN20010719092010807/19/01 09:20:31  5-MIN KMSN 191520Z 18005KT 2SM HZ SCT015 26/22 A3005 740 76 2200 180/05 RMK AO2 SFC VIS 3
14837KMSN MSN20010719092510807/19/01 09:25:31  5-MIN KMSN 191525Z 15003KT 2SM HZ SCT015 27/22 A3005 740 76 2300 150/03 RMK AO2 SFC VIS 3
14837KMSN MSN20010719093010807/19/01 09:30:31  5-MIN KMSN 191530Z 16004KT 2SM HZ SCT015 27/22 A3006 740 76 2300 160/04 RMK AO2 SFC VIS 3
14837KMSN MSN20010719093510807/19/01 09:35:31  5-MIN KMSN 191535Z VRB04KT 2SM HZ SCT015 27/22 A3005 740 76 2300 VRB/04 RMK AO2 SFC VIS 4
14837KMSN MSN20010719094010807/19/01 09:40:31  5-MIN KMSN 191540Z 00000KT 2SM HZ SCT015 27/22 A3005 740 74 2400 000/00 RMK AO2 SFC VIS 4
14837KMSN MSN20010719094510807/19/01 09:45:31  5-MIN KMSN 191545Z VRB05KT 2SM HZ SCT020 27/22 A3005 740 74 2400 VRB/05 RMK AO2 SFC VIS 4
14837KMSN MSN20010719095012507/19/01 09:50:31  5-MIN KMSN 191550Z 18007KT 2SM HZ SCT020 27/22 A3006 740 71 2300 180/07 RMK AO2 SFC VIS 4 SLP173 T02720217
14837KMSN MSN20010719095511507/19/01 09:55:31  5-MIN KMSN 191555Z 20008KT 3SM HZ SCT021 BKN028 27/22 A3006 730 73 2300 200/08 RMK AO2 SFC VIS 5
14837KMSN MSN20010719100011507/19/01 10:00:31  5-MIN KMSN 191600Z 21008KT 3SM HZ SCT023 BKN028 27/22 A3006 730 71 2300 210/08 RMK AO2 SFC VIS 5
14837KMSN MSN20010719100511507/19/01 10:05:31  5-MIN KMSN 191605Z 18008KT 3SM HZ SCT023 BKN028 28/22 A3006 740 71 2400 180/08 RMK AO2 SFC VIS 5
14837KMSN MSN20010719101010807/19/01 10:10:31  5-MIN KMSN 191610Z 18007KT 3SM HZ BKN023 28/22 A3006 740 71 2400 180/07 RMK AO2 SFC VIS 5
14837KMSN MSN20010719101511507/19/01 10:15:31  5-MIN KMSN 191615Z 17008KT 3SM HZ BKN023 BKN049 28/22 A3006 740 71 2400 170/08 RMK AO2 SFC VIS 5
14837KMSN MSN20010719102012207/19/01 10:20:31  5-MIN KMSN 191620Z 18009KT 3SM HZ SCT023 BKN028 BKN049 27/22 A3005 740 74 2400 180/09 RMK AO2 SFC VIS 5
14837KMSN MSN20010719102511507/19/01 10:25:31  5-MIN KMSN 191625Z 19009KT 3SM HZ BKN023 BKN049 27/22 A3005 740 74 2400 190/09 RMK AO2 SFC VIS 5
14837KMSN MSN20010719103011507/19/01 10:30:31  5-MIN KMSN 191630Z 18009KT 3SM HZ BKN023 BKN049 27/22 A3004 750 74 2400 180/09 RMK AO2 SFC VIS 5
14837KMSN MSN20010719103511507/19/01 10:35:31  5-MIN KMSN 191635Z 19009KT 3SM HZ BKN023 BKN049 27/22 A3004 760 74 2400 180/09 RMK AO2 SFC VIS 5
14837KMSN MSN20010719104012207/19/01 10:40:31  5-MIN KMSN 191640Z 22008KT 3SM HZ SCT021 BKN025 BKN049 27/22 A3003 760 74 2400 210/08 RMK AO2 SFC VIS 5
14837KMSN MSN20010719104510507/19/01 10:45:31  5-MIN KMSN 191645Z 20007KT 6SM HZ BKN021 BKN049 27/22 A3003 760 71 2400 200/07 RMK AO2
14837KMSN MSN20010719105012907/19/01 10:50:31  5-MIN KMSN 191650Z 22009KT 6SM HZ SCT021 BKN026 BKN047 27/22 A3004 760 71 2400 220/09 RMK AO2 SLP165 T02720217
14837KMSN MSN20010719105511007/19/01 10:55:31  5-MIN KMSN 191655Z 22010KT 10SM FEW021 SCT026 BKN047 27/22 A3004 760 71 2400 210/10 RMK AO2
14837KMSN MSN20010719110011007/19/01 11:00:31  5-MIN KMSN 191700Z 22007KT 10SM FEW021 SCT026 BKN047 28/22 A3004 760 69 2400 220/07 RMK AO2
14837KMSN MSN20010719110512607/19/01 11:05:31  5-MIN KMSN 191705Z 21007KT 180V250 10SM FEW021 SCT040 SCT047 28/22 A3003 760 69 2400 210/07 180V250 RMK AO2
14837KMSN MSN20010719111009607/19/01 11:10:31  5-MIN KMSN 191710Z VRB06KT 10SM FEW024 28/22 A3003 760 66 2500 VRB/06 RMK AO2
14837KMSN MSN20010719111509607/19/01 11:15:31  5-MIN KMSN 191715Z 23007KT 10SM SCT043 28/22 A3003 760 69 2400 230/07 RMK AO2
14837KMSN MSN20010719112009607/19/01 11:20:31  5-MIN KMSN 191720Z 22007KT 10SM SCT043 28/21 A3003 760 66 2400 220/07 RMK AO2
14837KMSN MSN20010719112509607/19/01 11:25:31  5-MIN KMSN 191725Z 23006KT 10SM SCT043 27/22 A3003 760 71 2400 230/06 RMK AO2
14837KMSN MSN20010719113009607/19/01 11:30:31  5-MIN KMSN 191730Z 22006KT 10SM BKN043 27/22 A3003 760 71 2400 220/06 RMK AO2
14837KMSN MSN20010719113509607/19/01 11:35:31  5-MIN KMSN 191735Z 23007KT 10SM BKN043 27/22 A3003 760 71 2400 230/07 RMK AO2
14837KMSN MSN20010719114009607/19/01 11:40:31  5-MIN KMSN 191740Z VRB04KT 10SM BKN043 27/22 A3003 760 74 2400 VRB/04 RMK AO2
14837KMSN MSN20010719114509607/19/01 11:45:31  5-MIN KMSN 191745Z VRB03KT 10SM BKN043 27/22 A3003 770 71 2400 VRB/03 RMK AO2
14837KMSN MSN20010719115013107/19/01 11:50:31  5-MIN KMSN 191750Z VRB04KT 10SM SCT043 27/22 A3002 770 71 2400 VRB/04 RMK AO2 SLP161 T02720217 10283 20217 53010
14837KMSN MSN20010719115509307/19/01 11:55:31  5-MIN KMSN 191755Z 21005KT 10SM CLR 27/22 A3002 770 71 2400 210/05 RMK AO2
14837KMSN MSN20010719120009307/19/01 12:00:31  5-MIN KMSN 191800Z VRB04KT 10SM CLR 27/21 A3001 780 69 2400 VRB/04 RMK AO2
14837KMSN MSN20010719120509607/19/01 12:05:31  5-MIN KMSN 191805Z VRB04KT 10SM FEW044 27/21 A3001 780 69 2400 VRB/04 RMK AO2
14837KMSN MSN20010719121009507/19/01 12:10:31  5-MIN KMSN 191810Z 25003KT 9SM FEW044 27/21 A3001 780 69 2400 250/03 RMK AO2
14837KMSN MSN20010719121509507/19/01 12:15:31  5-MIN KMSN 191815Z 00000KT 9SM FEW044 27/21 A3001 780 69 2400 000/00 RMK AO2
14837KMSN MSN20010719122009607/19/01 12:20:31  5-MIN KMSN 191820Z 23003KT 10SM FEW044 27/21 A3001 780 69 2400 230/03 RMK AO2
14837KMSN MSN20010719122509607/19/01 12:25:31  5-MIN KMSN 191825Z 00000KT 10SM FEW044 28/21 A3001 780 64 2500 000/00 RMK AO2
14837KMSN MSN20010719123009607/19/01 12:30:31  5-MIN KMSN 191830Z 00000KT 10SM FEW044 28/21 A3001 780 66 2500 000/00 RMK AO2
14837KMSN MSN20010719123509607/19/01 12:35:31  5-MIN KMSN 191835Z VRB03KT 10SM FEW044 28/21 A3000 790 66 2500 VRB/03 RMK AO2
14837KMSN MSN20010719124009607/19/01 12:40:31  5-MIN KMSN 191840Z VRB04KT 10SM FEW044 28/22 A3000 790 69 2500 VRB/04 RMK AO2
14837KMSN MSN20010719124509607/19/01 12:45:31  5-MIN KMSN 191845Z 13007KT 10SM FEW044 28/21 A2999 800 66 2500 120/07 RMK AO2
14837KMSN MSN20010719125011307/19/01 12:50:31  5-MIN KMSN 191850Z 13006KT 10SM FEW044 28/21 A2999 800 66 2500 130/06 RMK AO2 SLP150 T02780211
14837KMSN MSN20010719125509307/19/01 12:55:31  5-MIN KMSN 191855Z 14005KT 10SM CLR 28/22 A2999 800 69 2500 140/05 RMK AO2
14837KMSN MSN20010719130009307/19/01 13:00:31  5-MIN KMSN 191900Z 12006KT 10SM CLR 28/22 A2999 800 69 2500 120/06 RMK AO2
14837KMSN MSN20010719130509307/19/01 13:05:31  5-MIN KMSN 191905Z 11007KT 10SM CLR 28/21 A2999 800 66 2500 110/07 RMK AO2
14837KMSN MSN20010719131009307/19/01 13:10:31  5-MIN KMSN 191910Z 11007KT 10SM CLR 28/21 A2999 800 64 2600 110/07 RMK AO2
14837KMSN MSN20010719131509307/19/01 13:15:31  5-MIN KMSN 191915Z 12007KT 10SM CLR 28/21 A2999 800 66 2500 120/07 RMK AO2
14837KMSN MSN20010719132009307/19/01 13:20:31  5-MIN KMSN 191920Z 11007KT 10SM CLR 28/22 A2999 800 66 2600 110/07 RMK AO2
14837KMSN MSN20010719132509307/19/01 13:25:31  5-MIN KMSN 191925Z 11008KT 10SM CLR 28/22 A2999 800 66 2600 110/08 RMK AO2
14837KMSN MSN20010719133009307/19/01 13:30:31  5-MIN KMSN 191930Z 11008KT 10SM CLR 28/22 A2999 800 66 2600 110/08 RMK AO2
14837KMSN MSN20010719133509307/19/01 13:35:31  5-MIN KMSN 191935Z 10008KT 10SM CLR 28/22 A2998 810 66 2600 100/08 RMK AO2
14837KMSN MSN20010719134009607/19/01 13:40:31  5-MIN KMSN 191940Z 10010KT 10SM FEW040 28/22 A2998 810 66 2600 100/10 RMK AO2
14837KMSN MSN20010719134509607/19/01 13:45:31  5-MIN KMSN 191945Z 11009KT 10SM FEW040 28/22 A2998 810 66 2600 110/09 RMK AO2
14837KMSN MSN20010719135011307/19/01 13:50:31  5-MIN KMSN 191950Z 13009KT 10SM FEW040 28/22 A2998 810 66 2600 130/09 RMK AO2 SLP145 T02830217
14837KMSN MSN20010719135509307/19/01 13:55:31  5-MIN KMSN 191955Z 12007KT 10SM CLR 28/22 A2998 810 66 2600 120/07 RMK AO2
14837KMSN MSN20010719140009307/19/01 14:00:31  5-MIN KMSN 192000Z 11009KT 10SM CLR 29/22 A2997 810 67 2600 110/09 RMK AO2
14837KMSN MSN20010719140509307/19/01 14:05:31  5-MIN KMSN 192005Z 11009KT 10SM CLR 28/22 A2997 820 66 2600 110/09 RMK AO2
14837KMSN MSN20010719141009307/19/01 14:10:31  5-MIN KMSN 192010Z 11008KT 10SM CLR 28/22 A2997 820 69 2600 100/08 RMK AO2
14837KMSN MSN20010719141509307/19/01 14:15:31  5-MIN KMSN 192015Z 13010KT 10SM CLR 28/22 A2997 820 66 2600 120/10 RMK AO2
14837KMSN MSN20010719142009307/19/01 14:20:31  5-MIN KMSN 192020Z 12009KT 10SM CLR 28/22 A2998 810 66 2600 120/09 RMK AO2
14837KMSN MSN20010719142509307/19/01 14:25:31  5-MIN KMSN 192025Z 12008KT 10SM CLR 29/22 A2998 810 67 2600 120/08 RMK AO2
14837KMSN MSN20010719143009307/19/01 14:30:31  5-MIN KMSN 192030Z 10009KT 10SM CLR 29/22 A2998 810 67 2600 100/09 RMK AO2
14837KMSN MSN20010719143509307/19/01 14:35:31  5-MIN KMSN 192035Z 13009KT 10SM CLR 29/22 A2998 810 64 2700 120/09 RMK AO2
14837KMSN MSN20010719144009307/19/01 14:40:31  5-MIN KMSN 192040Z 11008KT 10SM CLR 29/23 A2998 810 67 2700 110/08 RMK AO2
14837KMSN MSN20010719152009607/19/01 15:20:31  5-MIN KMSN 192120Z 12006KT 10SM FEW030 28/22 A2997 820 69 2600 120/06 RMK AO2
14837KMSN MSN20010719152509607/19/01 15:25:31  5-MIN KMSN 192125Z 11007KT 10SM FEW030 29/22 A2997 820 67 2600 110/07 RMK AO2
14837KMSN MSN20010719153009607/19/01 15:30:31  5-MIN KMSN 192130Z 12009KT 10SM FEW030 29/23 A2997 810 67 2700 120/09 RMK AO2
14837KMSN MSN20010719153509607/19/01 15:35:31  5-MIN KMSN 192135Z 12008KT 10SM FEW030 29/22 A2997 820 67 2600 120/08 RMK AO2
14837KMSN MSN20010719154009607/19/01 15:40:31  5-MIN KMSN 192140Z 13008KT 10SM FEW030 29/22 A2997 820 64 2700 130/08 RMK AO2
14837KMSN MSN20010719154509607/19/01 15:45:31  5-MIN KMSN 192145Z 15009KT 10SM FEW030 29/22 A2997 820 67 2600 150/09 RMK AO2
14837KMSN MSN20010719155011307/19/01 15:50:31  5-MIN KMSN 192150Z 14009KT 10SM FEW030 28/22 A2997 820 66 2600 140/09 RMK AO2 SLP142 T02830217
14837KMSN MSN20010719155509607/19/01 15:55:31  5-MIN KMSN 192155Z 12009KT 10SM FEW030 29/22 A2997 820 67 2600 120/09 RMK AO2
14837KMSN MSN20010719160009307/19/01 16:00:31  5-MIN KMSN 192200Z 14006KT 10SM CLR 29/22 A2997 820 64 2700 140/06 RMK AO2
14837KMSN MSN20010719160509307/19/01 16:05:31  5-MIN KMSN 192205Z 13009KT 10SM CLR 30/22 A2997 820 62 2800 120/09 RMK AO2
14837KMSN MSN20010719161009607/19/01 16:10:31  5-MIN KMSN 192210Z 14008KT 10SM FEW046 29/22 A2997 820 64 2700 140/08 RMK AO2
14837KMSN MSN20010719161509607/19/01 16:15:31  5-MIN KMSN 192215Z 15010KT 10SM FEW046 29/22 A2996 830 64 2700 150/10 RMK AO2
14837KMSN MSN20010719162009307/19/01 16:20:31  5-MIN KMSN 192220Z 14007KT 10SM CLR 29/22 A2996 830 64 2700 130/07 RMK AO2
14837KMSN MSN20010719162509307/19/01 16:25:31  5-MIN KMSN 192225Z 12006KT 10SM CLR 29/22 A2996 820 64 2700 120/06 RMK AO2
14837KMSN MSN20010719163009307/19/01 16:30:31  5-MIN KMSN 192230Z 15008KT 10SM CLR 29/22 A2997 820 64 2700 150/08 RMK AO2
14837KMSN MSN20010719163509607/19/01 16:35:31  5-MIN KMSN 192235Z 14007KT 10SM FEW044 29/22 A2997 820 64 2700 140/07 RMK AO2
14837KMSN MSN20010719164009607/19/01 16:40:31  5-MIN KMSN 192240Z 16007KT 10SM FEW040 29/22 A2997 820 64 2600 160/07 RMK AO2
14837KMSN MSN20010719164510307/19/01 16:45:31  5-MIN KMSN 192245Z 14006KT 10SM FEW038 SCT100 29/22 A2997 820 64 2600 140/06 RMK AO2
14837KMSN MSN20010719165012707/19/01 16:50:31  5-MIN KMSN 192250Z 12007KT 10SM FEW038 SCT050 BKN100 29/22 A2998 810 62 2700 120/07 RMK AO2 SLP145 T02940217
14837KMSN MSN20010719165512607/19/01 16:55:31  5-MIN KMSN 192255Z 16008KT 110V180 10SM SCT038 BKN048 BKN110 29/22 A2998 810 64 2600 160/08 110V180 RMK AO2
14837KMSN MSN20010719170011007/19/01 17:00:31  5-MIN KMSN 192300Z 15005KT 10SM SCT038 BKN046 BKN055 29/21 A2998 810 60 2600 150/05 RMK AO2
14837KMSN MSN20010719170510307/19/01 17:05:31  5-MIN KMSN 192305Z 15008KT 10SM BKN038 BKN055 29/21 A2998 810 60 2600 140/08 RMK AO2
14837KMSN MSN20010719171011007/19/01 17:10:31  5-MIN KMSN 192310Z 13006KT 10SM SCT040 BKN055 BKN110 29/21 A2998 810 62 2600 130/06 RMK AO2
14837KMSN MSN20010719171511007/19/01 17:15:31  5-MIN KMSN 192315Z 13007KT 10SM SCT040 SCT055 BKN120 29/21 A2998 810 62 2600 130/07 RMK AO2
14837KMSN MSN20010719172014407/19/01 17:20:31  5-MIN KMSN 192320Z 14007KT 10SM TS FEW040 BKN120 29/21 A2998 810 60 2600 140/07 RMK AO2 TSB16 OCNL LTGIC VC NW TS VC NW MOV E
14837KMSN MSN20010719172514407/19/01 17:25:31  5-MIN KMSN 192325Z 16007KT 10SM TS FEW040 SCT120 29/21 A2998 810 60 2600 160/07 RMK AO2 TSB16 OCNL LTGIC VC NW TS VC NW MOV E
14837KMSN MSN20010719173014107/19/01 17:30:31  5-MIN KMSN 192330Z 17010KT 10SM TS FEW040 29/21 A2998 810 60 2600 160/10 RMK AO2 TSB16 OCNL LTGIC VC NW TS VC NW MOV STNRY
14837KMSN MSN20010719173514107/19/01 17:35:31  5-MIN KMSN 192335Z 17010KT 10SM TS FEW120 29/21 A2998 810 60 2600 170/10 RMK AO2 TSB16 OCNL LTGIC VC NW TS VC NW MOV STNRY
14837KMSN MSN20010719174014107/19/01 17:40:31  5-MIN KMSN 192340Z 17009KT 10SM TS FEW110 29/21 A2997 820 60 2600 170/09 RMK AO2 TSB16 OCNL LTGIC VC NW TS VC NW MOV STNRY
14837KMSN MSN20010719174514107/19/01 17:45:31  5-MIN KMSN 192345Z 16009KT 10SM TS FEW110 28/21 A2997 820 62 2600 160/09 RMK AO2 TSB16 OCNL LTGIC VC NW TS VC NW MOV STNRY
14837KMSN MSN20010719175018307/19/01 17:50:31  5-MIN KMSN 192350Z 17008KT 10SM TS FEW040 SCT110 29/21 A2998 810 60 2600 170/08 RMK AO2 TSB16 SLP145 OCNL LTGIC VC NW TS VC NW MOV STNRY T02890206 10300 20272 55014
14837KMSN MSN20010719175513507/19/01 17:55:31  5-MIN KMSN 192355Z 17007KT 10SM TS SCT110 28/21 A2998 810 62 2600 170/07 RMK AO2 OCNL LTGIC VC NW TS VC NW MOV STNRY
14837KMSN MSN20010719180013407/19/01 18:00:31  5-MIN KMSN 200000Z 18005KT 10SM TS SCT110 28/21 A2998 810 62 2600 180/05 RMK AO2 FRQ LTGIC VC NW TS VC NW MOV STNRY
14837KMSN MSN20010719180514807/19/01 18:05:31  5-MIN KMSN 200005Z 18004KT 10SM -TSRA SCT040 SCT110 28/21 A2998 810 62 2600 180/04 RMK AO2 RAB04 FRQ LTGIC OHD TS OHD MOV E P0000
14837KMSN MSN20010719181014807/19/01 18:10:31  5-MIN KMSN 200010Z 17004KT 10SM -TSRA SCT040 SCT110 28/21 A2998 810 62 2600 170/04 RMK AO2 RAB04 FRQ LTGIC OHD TS OHD MOV E P0000
14837KMSN MSN20010719181514807/19/01 18:15:31  5-MIN KMSN 200015Z 18005KT 10SM -TSRA SCT040 SCT110 28/21 A2998 810 62 2600 180/05 RMK AO2 RAB04 FRQ LTGIC OHD TS OHD MOV E P0000
14837KMSN MSN20010719182014807/19/01 18:20:31  5-MIN KMSN 200020Z 00000KT 10SM -TSRA SCT040 SCT110 28/21 A2998 810 66 2500 000/00 RMK AO2 RAB04 FRQ LTGIC OHD TS OHD MOV E P0000
14837KMSN MSN20010719182514807/19/01 18:25:31  5-MIN KMSN 200025Z 00000KT 10SM -TSRA SCT040 SCT110 28/21 A2998 810 66 2500 000/00 RMK AO2 RAB04 FRQ LTGIC OHD TS OHD MOV E P0000
14837KMSN MSN20010719183015307/19/01 18:30:31  5-MIN KMSN 200030Z 00000KT 10SM -TSRA SCT040 SCT110 27/21 A2998 810 69 2400 000/00 RMK AO2 RAB04 FRQ LTGIC VC NW TS VC NW MOV NE P0000
14837KMSN MSN20010719183515307/19/01 18:35:31  5-MIN KMSN 200035Z 00000KT 10SM -TSRA SCT040 SCT110 27/22 A2998 810 73 2400 000/00 RMK AO2 RAB04 FRQ LTGIC VC NW TS VC NW MOV NE P0000
14837KMSN MSN20010719184014307/19/01 18:40:31  5-MIN KMSN 200040Z 00000KT 7SM TS CLR 26/22 A2999 800 79 2300 000/00 RMK AO2 RAB04E37 OCNL LTGIC VC NW TS VC NW MOV NE P0000
14837KMSN MSN20010719184514607/19/01 18:45:31  5-MIN KMSN 200045Z 11008KT 7SM TS FEW065 27/23 A2999 800 79 2400 110/08 RMK AO2 RAB04E37 OCNL LTGIC VC NW TS VC NW MOV NE P0000
14837KMSN MSN20010719185014507/19/01 18:50:31  5-MIN KMSN 200050Z 11008KT 6SM HZ FEW065 27/23 A2999 800 82 2400 110/08 RMK AO2 TSE50RAB04E37 SLP150 TS MOV NE P0000 T02670233
14837KMSN MSN20010719185510507/19/01 18:55:31  5-MIN KMSN 200055Z 11007KT 3SM -RA FEW048 27/23 A2999 800 82 2400 110/07 RMK AO2 P0000
14837KMSN MSN20010719190010507/19/01 19:00:31  5-MIN KMSN 200100Z 11006KT 4SM -RA SCT048 27/23 A2999 800 82 2400 100/06 RMK AO2 P0000
14837KMSN MSN20010719190511207/19/01 19:05:31  5-MIN KMSN 200105Z 09004KT 4SM -RA SCT046 BKN060 27/23 A2999 800 82 2400 090/04 RMK AO2 P0000
14837KMSN MSN20010719191011207/19/01 19:10:31  5-MIN KMSN 200110Z 00000KT 4SM -RA SCT046 BKN060 27/23 A2999 800 82 2400 000/00 RMK AO2 P0000
14837KMSN MSN20010719191511207/19/01 19:15:31  5-MIN KMSN 200115Z VRB03KT 4SM -RA SCT046 BKN065 26/23 A2999 800 84 2300 VRB/03 RMK AO2 P0000
14837KMSN MSN20010719192011507/19/01 19:20:31  5-MIN KMSN 200120Z 29003KT 4SM -RA BR SCT046 SCT060 26/24 A2999 800 90 2200 290/03 RMK AO2 P0000
14837KMSN MSN20010719192511507/19/01 19:25:31  5-MIN KMSN 200125Z 30004KT 3SM -RA BR SCT044 SCT065 25/23 A2999 800 90 2200 300/04 RMK AO2 P0000
14837KMSN MSN20010719193011707/19/01 19:30:31  5-MIN KMSN 200130Z 30003KT 3SM BR SCT044 BKN060 25/23 A2999 800 90 2200 300/03 RMK AO2 RAE27 P0000
14837KMSN MSN20010719193511707/19/01 19:35:31  5-MIN KMSN 200135Z 28003KT 3SM BR FEW044 SCT070 25/23 A2999 800 90 2200 280/03 RMK AO2 RAE27 P0000
14837KMSN MSN20010719194011007/19/01 19:40:31  5-MIN KMSN 200140Z 33003KT 3SM BR FEW044 24/23 A2999 800 90 2100 330/03 RMK AO2 RAE27 P0000
14837KMSN MSN20010719194511007/19/01 19:45:31  5-MIN KMSN 200145Z 00000KT 3SM BR SCT044 24/23 A2999 800 90 2100 000/00 RMK AO2 RAE27 P0000
14837KMSN MSN20010719195012707/19/01 19:50:31  5-MIN KMSN 200150Z 00000KT 6SM BR BKN044 24/23 A2999 800 90 2100 000/00 RMK AO2 RAE27 SLP150 P0000 T02440228
14837KMSN MSN20010719195510507/19/01 19:55:31  5-MIN KMSN 200155Z 00000KT 6SM BR FEW018 BKN044 24/23 A2999 800 90 2100 000/00 RMK AO2
14837KMSN MSN20010719200010207/19/01 20:00:31  5-MIN KMSN 200200Z 00000KT 7SM SCT018 BKN044 24/23 A2999 800 90 2100 000/00 RMK AO2
14837KMSN MSN20010719200512807/19/01 20:05:31  5-MIN KMSN 200205Z VRB03KT 6SM -RA BR SCT018 BKN025 BKN044 24/23 A2999 800 90 2100 VRB/03 RMK AO2 RAB03 P0000
14837KMSN MSN20010719201012807/19/01 20:10:31  5-MIN KMSN 200210Z 10004KT 5SM -RA BR BKN018 BKN023 OVC044 25/23 A2999 800 87 2200 100/04 RMK AO2 RAB03 P0000
14837KMSN MSN20010719201512507/19/01 20:15:31  5-MIN KMSN 200215Z 12009KT 4SM -RA BKN018 BKN029 OVC044 26/23 A2999 800 81 2300 120/09 RMK AO2 RAB03 P0000
14837KMSN MSN20010719202012007/19/01 20:20:31  5-MIN KMSN 200220Z 14005KT 5SM HZ BKN018 OVC027 26/22 A3000 790 79 2300 140/05 RMK AO2 RAB03E17 P0000
14837KMSN MSN20010719202511007/19/01 20:25:31  5-MIN KMSN 200225Z 17010KT 3SM RA OVC018 26/23 A3001 780 84 2200 170/10 RMK AO2 RAB03 P0008
14837KMSN MSN20010719203013007/19/01 20:30:31  5-MIN KMSN 200230Z 21011G16KT 1SM RA SCT002 OVC018 25/23 A3001 780 90 2200 210/11G16 RMK AO2 RAB03 PRESRR P0034
14837KMSN MSN20010719203516607/19/01 20:35:31  5-MIN KMSN 200235Z 23011KT 3/4SM TSRA BKN002 OVC018 24/22 A3001 780 87 2000 230/11 RMK AO2 TWR VIS 1 TSB31RAB03 FRQ LTGICCG OHD TS OHD MOV NE P0067
14837KMSN MSN20010719204016607/19/01 20:40:31  5-MIN KMSN 200240Z 23009KT 3/4SM TSRA BKN002 OVC018 24/22 A3001 780 87 2000 220/09 RMK AO2 TWR VIS 1 TSB31RAB03 FRQ LTGICCG OHD TS OHD MOV NE P0092
14837KMSN MSN20010719204516707/19/01 20:45:31  5-MIN KMSN 200245Z 22006KT 3/4SM TSRA BKN002 OVC018 23/22 A3001 780 90 2000 220/06 RMK AO2 TWR VIS 1 TSB31RAB03 OCNL LTGICCG OHD TS OHD MOV NE P0106
14837KMSN MSN20010719205019107/19/01 20:50:31  5-MIN KMSN 200250Z 21004KT 1SM TSRA FEW002 BKN005 OVC018 24/23 A3000 790 93 2000 210/04 RMK AO2 TSB31RAB03 SLP154 OCNL LTGICCG OHD TS OHD MOV NE P0117 60117 T02390228 53000
14837KMSN MSN20010719205514707/19/01 20:55:31  5-MIN KMSN 200255Z 00000KT 3SM -TSRA FEW002 OVC010 24/23 A3001 780 93 2000 000/00 RMK AO2 OCNL LTGICCG OHD TS OHD MOV NE P0000 $
14837KMSN MSN20010719210014107/19/01 21:00:31  5-MIN KMSN 200300Z 12005KT 3SM -TSRA FEW002 OVC014 24/23 A3001 780 93 2000 120/05 RMK AO2 OCNL LTGICCG OHD TS OHD MOV NE $
14837KMSN MSN20010719210515407/19/01 21:05:31  5-MIN KMSN 200305Z 00000KT 3SM -TSRA FEW002 BKN016 OVC041 24/23 A3001 780 93 2000 000/00 RMK AO2 OCNL LTGICCG OHD TS OHD MOV NE P0003 $
14837KMSN MSN20010719211015407/19/01 21:10:31  5-MIN KMSN 200310Z 00000KT 3SM -TSRA BKN021 BKN041 OVC050 23/22 A3001 780 97 1900 000/00 RMK AO2 OCNL LTGICCG OHD TS OHD MOV NE P0030 $
14837KMSN MSN20010719211514007/19/01 21:15:31  5-MIN KMSN 200315Z 32004KT 3SM -TSRA BKN025 23/22 A3001 780 97 1900 320/04 RMK AO2 OCNL LTGICCG OHD TS OHD MOV NE P0021 $
14837KMSN MSN20010719212013707/19/01 21:20:31  5-MIN KMSN 200320Z 00000KT 3SM -RA SCT027 SCT046 BKN120 23/22 A3001 780 97 1900 000/00 RMK AO2 TSE17 TS MOV NE P0021 $
14837KMSN MSN20010719212513707/19/01 21:25:31  5-MIN KMSN 200325Z 16006KT 3SM -RA FEW029 SCT046 BKN110 23/23 A3001 780 97 2000 160/06 RMK AO2 TSE17 TS MOV NE P0021 $
14837KMSN MSN20010719213013007/19/01 21:30:31  5-MIN KMSN 200330Z 00000KT 3SM -RA FEW032 BKN110 24/23 A3001 780 97 2000 000/00 RMK AO2 TSE17 TS MOV NE P0021 $
14837KMSN MSN20010719213513007/19/01 21:35:31  5-MIN KMSN 200335Z 15004KT 3SM -RA FEW034 BKN110 24/23 A3001 780 93 2000 150/04 RMK AO2 TSE17 TS MOV NE P0021 $
14837KMSN MSN20010719214012707/19/01 21:40:31  5-MIN KMSN 200340Z 21003KT 4SM BR BKN110 24/23 A3001 780 93 2000 210/03 RMK AO2 TSE17RAE39 TS MOV NE P0021 $
14837KMSN MSN20010719214511707/19/01 21:45:31  5-MIN KMSN 200345Z 19003KT 4SM BR BKN110 23/23 A3001 780 97 2000 190/03 RMK AO2 TSE17RAE39 P0023 $
14837KMSN MSN20010719215013407/19/01 21:50:31  5-MIN KMSN 200350Z 19005KT 4SM BR BKN110 24/23 A3001 780 93 2000 190/05 RMK AO2 TSE17RAE39 SLP155 P0023 T02390228 $
14837KMSN MSN20010719215510007/19/01 21:55:31  5-MIN KMSN 200355Z 19007KT 5SM BR BKN110 24/23 A3001 780 93 2000 190/07 RMK AO2 $
14837KMSN MSN20010719220010007/19/01 22:00:31  5-MIN KMSN 200400Z 18006KT 5SM BR SCT120 24/23 A3001 780 93 2000 180/06 RMK AO2 $
14837KMSN MSN20010719220510007/19/01 22:05:31  5-MIN KMSN 200405Z 18006KT 6SM BR SCT120 24/23 A3001 780 93 2000 180/06 RMK AO2 $
14837KMSN MSN20010719221010007/19/01 22:10:31  5-MIN KMSN 200410Z 17004KT 6SM BR SCT120 24/23 A3001 780 93 2000 170/04 RMK AO2 $
14837KMSN MSN20010719221510007/19/01 22:15:31  5-MIN KMSN 200415Z 15005KT 5SM BR FEW120 23/23 A3001 780 97 2000 150/05 RMK AO2 $
14837KMSN MSN20010719222010007/19/01 22:20:31  5-MIN KMSN 200420Z 17003KT 5SM BR FEW120 23/23 A3001 790 97 2000 170/03 RMK AO2 $
14837KMSN MSN20010719222510007/19/01 22:25:31  5-MIN KMSN 200425Z 15005KT 5SM BR FEW120 23/23 A3000 790 97 2000 150/05 RMK AO2 $
14837KMSN MSN20010719223010007/19/01 22:30:31  5-MIN KMSN 200430Z 14004KT 5SM BR FEW120 23/22 A3000 790 93 2000 140/04 RMK AO2 $
14837KMSN MSN20010719223510007/19/01 22:35:31  5-MIN KMSN 200435Z 00000KT 5SM BR FEW120 23/22 A3000 790 93 2000 000/00 RMK AO2 $
14837KMSN MSN20010719224009707/19/01 22:40:31  5-MIN KMSN 200440Z 00000KT 5SM BR CLR 23/22 A3000 790 93 2000 000/00 RMK AO2 $
14837KMSN MSN20010719224509707/19/01 22:45:31  5-MIN KMSN 200445Z 00000KT 5SM BR CLR 23/22 A3000 790 97 1900 000/00 RMK AO2 $
14837KMSN MSN20010719225011907/19/01 22:50:31  5-MIN KMSN 200450Z 06003KT 4SM BCFG BR CLR 23/22 A3001 790 97 1900 060/03 RMK AO2 SLP155 T02280222 $
14837KMSN MSN20010719225510207/19/01 22:55:31  5-MIN KMSN 200455Z 08003KT 4SM BCFG BR CLR 22/22 A3001 780 97 1800 070/03 RMK AO2 $
14837KMSN MSN20010719230010207/19/01 23:00:31  5-MIN KMSN 200500Z 00000KT 4SM BCFG BR CLR 23/22 A3001 780 97 1900 000/00 RMK AO2 $
14837KMSN MSN20010719230510207/19/01 23:05:31  5-MIN KMSN 200505Z 00000KT 5SM BCFG BR CLR 23/22 A3001 780 97 1900 000/00 RMK AO2 $
14837KMSN MSN20010719231010207/19/01 23:10:31  5-MIN KMSN 200510Z 00000KT 5SM BCFG BR CLR 23/22 A3001 780 93 2000 000/00 RMK AO2 $
14837KMSN MSN20010719231510207/19/01 23:15:31  5-MIN KMSN 200515Z 14003KT 4SM BCFG BR CLR 23/22 A3001 780 97 1900 140/03 RMK AO2 $
14837KMSN MSN20010719232010307/19/01 23:20:31  5-MIN KMSN 200520Z 16003KT 3SM BCFG BR CLR 22/22 A3001 780 100 1800 160/03 RMK AO2 $
14837KMSN MSN20010719232510207/19/01 23:25:31  5-MIN KMSN 200525Z 17004KT 3SM BCFG BR CLR 23/22 A3001 780 97 1900 170/04 RMK AO2 $
14837KMSN MSN20010719233010207/19/01 23:30:31  5-MIN KMSN 200530Z VRB04KT 4SM BCFG BR CLR 23/22 A3001 780 93 2000 VRB/04 RMK AO2 $
14837KMSN MSN20010719233510207/19/01 23:35:31  5-MIN KMSN 200535Z 00000KT 5SM BCFG BR CLR 23/22 A3001 780 93 2000 000/00 RMK AO2 $
14837KMSN MSN20010719234009707/19/01 23:40:31  5-MIN KMSN 200540Z 20003KT 5SM BR CLR 23/22 A3001 780 97 1900 200/03 RMK AO2 $
14837KMSN MSN20010719234509707/19/01 23:45:31  5-MIN KMSN 200545Z 00000KT 5SM BR CLR 23/22 A3001 780 93 2000 000/00 RMK AO2 $
14837KMSN MSN20010719235014807/19/01 23:50:31  5-MIN KMSN 200550Z 00000KT 5SM BR CLR 23/22 A3001 780 93 1900 000/00 RMK AO2 SLP156 60141 T02280217 10289 20222 403000194 53008 $
14837KMSN MSN20010719235509707/19/01 23:55:31  5-MIN KMSN 200555Z 12003KT 4SM BR CLR 22/22 A3001 780 97 1800 110/03 RMK AO2 $
14837KMSN MSN20010720000009707/20/01 00:00:31  5-MIN KMSN 200600Z 00000KT 5SM BR CLR 22/22 A3001 780 97 1800 000/00 RMK AO2 $
14837KMSN MSN20010720000509707/20/01 00:05:31  5-MIN KMSN 200605Z 00000KT 5SM BR CLR 22/22 A3001 780 97 1800 000/00 RMK AO2 $
14837KMSN MSN20010720001009707/20/01 00:10:31  5-MIN KMSN 200610Z 09003KT 4SM BR CLR 22/21 A3001 780 97 1800 090/03 RMK AO2 $
14837KMSN MSN20010720001509707/20/01 00:15:31  5-MIN KMSN 200615Z 12003KT 4SM BR CLR 22/21 A3001 780 97 1800 120/03 RMK AO2 $
14837KMSN MSN20010720002009707/20/01 00:20:31  5-MIN KMSN 200620Z 00000KT 4SM BR CLR 22/21 A3001 780 97 1800 000/00 RMK AO2 $
14837KMSN MSN20010720002509707/20/01 00:25:31  5-MIN KMSN 200625Z 00000KT 3SM BR CLR 22/21 A3001 780 97 1800 000/00 RMK AO2 $
14837KMSN MSN20010720003009707/20/01 00:30:31  5-MIN KMSN 200630Z 00000KT 3SM BR CLR 22/22 A3001 780 97 1800 000/00 RMK AO2 $
14837KMSN MSN20010720003509707/20/01 00:35:31  5-MIN KMSN 200635Z 00000KT 3SM BR CLR 22/22 A3001 780 97 1800 000/00 RMK AO2 $
14837KMSN MSN20010720004009707/20/01 00:40:31  5-MIN KMSN 200640Z 00000KT 4SM BR CLR 22/21 A3001 780 97 1800 000/00 RMK AO2 $
14837KMSN MSN20010720004509707/20/01 00:45:31  5-MIN KMSN 200645Z 00000KT 4SM BR CLR 22/21 A3001 780 97 1800 000/00 RMK AO2 $
14837KMSN MSN20010720005011407/20/01 00:50:31  5-MIN KMSN 200650Z 00000KT 4SM BR CLR 22/21 A3001 780 97 1800 000/00 RMK AO2 SLP156 T02170211 $
14837KMSN MSN20010720005509707/20/01 00:55:31  5-MIN KMSN 200655Z 00000KT 4SM BR CLR 22/22 A3001 780 97 1800 000/00 RMK AO2 $
14837KMSN MSN20010720010009707/20/01 01:00:31  5-MIN KMSN 200700Z 00000KT 4SM BR CLR 22/22 A3001 780 97 1800 000/00 RMK AO2 $
14837KMSN MSN20010720010509807/20/01 01:05:31  5-MIN KMSN 200705Z 00000KT 4SM BR CLR 22/22 A3001 790 100 1800 000/00 RMK AO2 $
14837KMSN MSN20010720011009707/20/01 01:10:31  5-MIN KMSN 200710Z 00000KT 4SM BR CLR 22/21 A3001 790 97 1800 000/00 RMK AO2 $
14837KMSN MSN20010720011509807/20/01 01:15:31  5-MIN KMSN 200715Z 00000KT 4SM BR CLR 21/21 A3001 780 100 1700 000/00 RMK AO2 $
14837KMSN MSN20010720012010007/20/01 01:20:31  5-MIN KMSN 200720Z 00000KT 4SM BR FEW027 21/21 A3001 780 97 1700 000/00 RMK AO2 $
14837KMSN MSN20010720012510107/20/01 01:25:31  5-MIN KMSN 200725Z 00000KT 4SM BR SCT027 21/21 A3001 790 100 1700 000/00 RMK AO2 $
14837KMSN MSN20010720013010107/20/01 01:30:31  5-MIN KMSN 200730Z 00000KT 4SM BR SCT027 21/21 A3000 790 100 1700 000/00 RMK AO2 $
14837KMSN MSN20010720013510107/20/01 01:35:31  5-MIN KMSN 200735Z 00000KT 4SM BR SCT027 21/21 A3000 790 100 1700 000/00 RMK AO2 $
14837KMSN MSN20010720014010407/20/01 01:40:31  5-MIN KMSN 200740Z 00000KT 1 1/4SM BR BKN027 21/21 A3000 790 97 1700 000/00 RMK AO2 $
14837KMSN MSN20010720014510507/20/01 01:45:31  5-MIN KMSN 200745Z 00000KT 1 1/4SM BR BKN027 21/21 A3001 790 100 1700 000/00 RMK AO2 $
14837KMSN MSN20010720015012707/20/01 01:50:31  5-MIN KMSN 200750Z 00000KT 1 3/4SM BCFG BR BKN029 21/21 A3001 780 100 1700 000/00 RMK AO2 SLP155 T02110211 $
14837KMSN MSN20010720015510907/20/01 01:55:31  5-MIN KMSN 200755Z 00000KT 1 3/4SM BCFG BR BKN029 21/21 A3001 780 97 1700 000/00 RMK AO2 $
14837KMSN MSN20010720020010907/20/01 02:00:31  5-MIN KMSN 200800Z 00000KT 1 3/4SM BCFG BR BKN029 21/21 A3001 780 97 1700 000/00 RMK AO2 $
14837KMSN MSN20010720020511007/20/01 02:05:31  5-MIN KMSN 200805Z 00000KT 1 3/4SM BCFG BR OVC029 21/21 A3001 780 100 1700 000/00 RMK AO2 $
14837KMSN MSN20010720021011007/20/01 02:10:31  5-MIN KMSN 200810Z 00000KT 1 3/4SM BCFG BR OVC031 21/21 A3001 780 100 1700 000/00 RMK AO2 $
14837KMSN MSN20010720021510907/20/01 02:15:31  5-MIN KMSN 200815Z 00000KT 1 3/4SM BCFG BR OVC031 21/21 A3001 780 97 1700 000/00 RMK AO2 $
14837KMSN MSN20010720022010907/20/01 02:20:31  5-MIN KMSN 200820Z 00000KT 1 3/4SM BCFG BR OVC031 21/21 A3001 780 97 1700 000/00 RMK AO2 $
14837KMSN MSN20010720022510907/20/01 02:25:31  5-MIN KMSN 200825Z 00000KT 1 3/4SM BCFG BR BKN031 21/21 A3001 780 97 1700 000/00 RMK AO2 $
14837KMSN MSN20010720023011007/20/01 02:30:31  5-MIN KMSN 200830Z 00000KT 1 3/4SM BCFG BR BKN031 21/21 A3001 780 100 1700 000/00 RMK AO2 $
14837KMSN MSN20010720023511007/20/01 02:35:31  5-MIN KMSN 200835Z 00000KT 1 3/4SM BCFG BR SCT033 21/21 A3001 780 100 1700 000/00 RMK AO2 $
14837KMSN MSN20010720024011007/20/01 02:40:31  5-MIN KMSN 200840Z 00000KT 1 3/4SM BCFG BR SCT033 21/21 A3000 790 100 1700 000/00 RMK AO2 $
14837KMSN MSN20010720024511707/20/01 02:45:31  5-MIN KMSN 200845Z 00000KT 1 3/4SM BCFG BR FEW001 SCT033 21/21 A3000 790 100 1700 000/00 RMK AO2 $
14837KMSN MSN20010720025013307/20/01 02:50:31  5-MIN KMSN 200850Z 00000KT 1 1/2SM BCFG BR FEW001 21/21 A3000 790 100 1700 000/00 RMK AO2 SLP153 T02110211 52001 $
14837KMSN MSN20010720025511007/20/01 02:55:31  5-MIN KMSN 200855Z 00000KT 1 1/2SM BCFG BR FEW001 21/21 A3000 790 100 1700 000/00 RMK AO2 $
14837KMSN MSN20010720030011007/20/01 03:00:31  5-MIN KMSN 200900Z 00000KT 1 1/2SM BCFG BR FEW001 21/21 A3000 790 100 1700 000/00 RMK AO2 $
14837KMSN MSN20010720030511007/20/01 03:05:31  5-MIN KMSN 200905Z 00000KT 1 1/2SM BCFG BR FEW001 21/21 A3000 790 100 1700 000/00 RMK AO2 $
14837KMSN MSN20010720031011007/20/01 03:10:31  5-MIN KMSN 200910Z 00000KT 1 1/2SM BCFG BR FEW001 21/21 A3000 790 100 1700 000/00 RMK AO2 $
14837KMSN MSN20010720031510907/20/01 03:15:31  5-MIN KMSN 200915Z 00000KT 1 1/2SM BCFG BR FEW001 21/21 A3000 790 97 1700 000/00 RMK AO2 $
14837KMSN MSN20010720032011007/20/01 03:20:31  5-MIN KMSN 200920Z 00000KT 1 1/2SM BCFG BR FEW001 21/21 A3000 790 100 1700 000/00 RMK AO2 $
14837KMSN MSN20010720032511007/20/01 03:25:31  5-MIN KMSN 200925Z 00000KT 1 1/2SM BCFG BR FEW001 21/21 A3000 790 100 1700 000/00 RMK AO2 $
14837KMSN MSN20010720033010907/20/01 03:30:31  5-MIN KMSN 200930Z 00000KT 1 1/2SM BCFG BR FEW001 21/20 A3000 790 97 1700 000/00 RMK AO2 $
14837KMSN MSN20010720033511007/20/01 03:35:31  5-MIN KMSN 200935Z 00000KT 1 1/2SM BCFG BR FEW001 21/21 A3000 790 100 1700 000/00 RMK AO2 $
14837KMSN MSN20010720034011007/20/01 03:40:31  5-MIN KMSN 200940Z 00000KT 1 1/2SM BCFG BR FEW001 21/21 A3000 790 100 1700 000/00 RMK AO2 $
14837KMSN MSN20010720034511007/20/01 03:45:31  5-MIN KMSN 200945Z 00000KT 1 1/2SM BCFG BR FEW001 21/21 A3001 790 100 1700 000/00 RMK AO2 $
14837KMSN MSN20010720035012007/20/01 03:50:31  5-MIN KMSN 200950Z 00000KT 3SM BCFG BR CLR 21/21 A3001 780 100 1700 000/00 RMK AO2 SLP156 T02060206 $
14837KMSN MSN20010720035511307/20/01 03:55:31  5-MIN KMSN 200955Z 00000KT 2SM BCFG BR CLR 21/21 A3001 780 100 1700 000/00 RMK AO2 VIS 3/4V5 $
14837KMSN MSN20010720040010707/20/01 04:00:31  5-MIN KMSN 201000Z 00000KT 1 1/2SM BCFG BR CLR 20/20 A3001 790 100 1600 000/00 RMK AO2 $
14837KMSN MSN20010720040510707/20/01 04:05:31  5-MIN KMSN 201005Z 00000KT 1 1/4SM BCFG BR CLR 21/21 A3000 790 100 1700 000/00 RMK AO2 $
14837KMSN MSN20010720041010707/20/01 04:10:31  5-MIN KMSN 201010Z 00000KT 1 3/4SM BCFG BR CLR 20/20 A3000 790 100 1600 000/00 RMK AO2 $
14837KMSN MSN20010720041510707/20/01 04:15:31  5-MIN KMSN 201015Z 00000KT 2 1/2SM BCFG BR CLR 20/20 A3000 790 100 1600 000/00 RMK AO2 $
14837KMSN MSN20010720042010307/20/01 04:20:31  5-MIN KMSN 201020Z 00000KT 3SM BCFG BR CLR 20/20 A3000 790 100 1600 000/00 RMK AO2 $
14837KMSN MSN20010720042510207/20/01 04:25:31  5-MIN KMSN 201025Z 00000KT 2SM BCFG BR CLR 21/20 A3000 790 97 1700 000/00 RMK AO2 $
14837KMSN MSN20010720043010607/20/01 04:30:31  5-MIN KMSN 201030Z 00000KT 1 1/2SM BCFG BR CLR 20/19 A3000 790 97 1600 000/00 RMK AO2 $
14837KMSN MSN20010720043510307/20/01 04:35:31  5-MIN KMSN 201035Z 00000KT 1SM BCFG BR CLR 20/20 A3001 790 100 1600 000/00 RMK AO2 $
14837KMSN MSN20010720044010507/20/01 04:40:31  5-MIN KMSN 201040Z 00000KT 3/4SM BCFG BR CLR 20/20 A3001 780 100 1600 000/00 RMK AO2 $
14837KMSN MSN20010720044510307/20/01 04:45:31  5-MIN KMSN 201045Z 00000KT 1SM BCFG BR CLR 20/20 A3001 780 100 1600 000/00 RMK AO2 $
14837KMSN MSN20010720045012007/20/01 04:50:31  5-MIN KMSN 201050Z 00000KT 1SM BCFG BR CLR 20/20 A3001 780 100 1600 000/00 RMK AO2 SLP155 T02000200 $
14837KMSN MSN20010720045510707/20/01 04:55:31  5-MIN KMSN 201055Z 00000KT 1 1/4SM BCFG BR CLR 20/20 A3001 780 100 1600 000/00 RMK AO2 $
14837KMSN MSN20010720050011607/20/01 05:00:31  5-MIN KMSN 201100Z 00000KT 1SM BCFG BR CLR 21/20 A3001 780 97 1600 000/00 RMK AO2 TWR VIS 1 1/4 $
14837KMSN MSN20010720050511707/20/01 05:05:31  5-MIN KMSN 201105Z 00000KT 1SM BCFG BR CLR 20/20 A3001 780 100 1600 000/00 RMK AO2 TWR VIS 1 1/4 $
14837KMSN MSN20010720051011707/20/01 05:10:31  5-MIN KMSN 201110Z 00000KT 1SM BCFG BR CLR 20/20 A3001 780 100 1600 000/00 RMK AO2 TWR VIS 1 1/4 $
14837KMSN MSN20010720051511707/20/01 05:15:31  5-MIN KMSN 201115Z 00000KT 1SM BCFG BR CLR 20/20 A3001 780 100 1600 000/00 RMK AO2 TWR VIS 1 1/4 $
14837KMSN MSN20010720052011707/20/01 05:20:31  5-MIN KMSN 201120Z 00000KT 1SM BCFG BR CLR 20/20 A3001 780 100 1600 000/00 RMK AO2 TWR VIS 1 1/4 $
14837KMSN MSN20010720052511207/20/01 05:25:31  5-MIN KMSN 201125Z 00000KT 1SM BCFG BR CLR 21/20 A3002 780 97 1600 000/00 RMK AO2 TWR VIS 2 $
14837KMSN MSN20010720053011307/20/01 05:30:31  5-MIN KMSN 201130Z 00000KT 1SM BCFG BR CLR 21/21 A3002 780 100 1600 000/00 RMK AO2 TWR VIS 2 $
14837KMSN MSN20010720053511207/20/01 05:35:31  5-MIN KMSN 201135Z 00000KT 1SM BCFG BR CLR 21/21 A3002 780 97 1700 000/00 RMK AO2 TWR VIS 2 $
14837KMSN MSN20010720054011207/20/01 05:40:31  5-MIN KMSN 201140Z 00000KT 1SM BCFG BR CLR 21/21 A3002 780 97 1700 000/00 RMK AO2 TWR VIS 2 $
14837KMSN MSN20010720054511307/20/01 05:45:31  5-MIN KMSN 201145Z 00000KT 1SM BCFG BR CLR 21/21 A3002 780 100 1700 000/00 RMK AO2 TWR VIS 2 $
14837KMSN MSN20010720055015707/20/01 05:50:31  5-MIN KMSN 201150Z 00000KT 1 1/2SM BCFG BR CLR 22/21 A3002 770 97 1800 000/00 RMK AO2 TWR VIS 2 SLP159 70141 T02170211 10222 20200 58002 $
14837KMSN MSN20010720055509707/20/01 05:55:31  5-MIN KMSN 201155Z 00000KT 2SM BR CLR 22/22 A3002 770 97 1800 000/00 RMK AO2 $
14837KMSN MSN20010720060011107/20/01 06:00:31  5-MIN KMSN 201200Z 00000KT 2SM BR CLR 22/22 A3002 770 97 1800 000/00 RMK AO2 SFC VIS 2 1/2 $
14837KMSN MSN20010720060511107/20/01 06:05:31  5-MIN KMSN 201205Z 00000KT 2SM BR CLR 23/22 A3002 780 93 1900 000/00 RMK AO2 SFC VIS 2 1/2 $
14837KMSN MSN20010720061011107/20/01 06:10:31  5-MIN KMSN 201210Z 00000KT 2SM BR CLR 23/22 A3002 770 93 1900 000/00 RMK AO2 SFC VIS 2 1/2 $
14837KMSN MSN20010720061511107/20/01 06:15:31  5-MIN KMSN 201215Z 00000KT 2 1/2SM BR CLR 23/22 A3002 770 93 2000 000/00 RMK AO2 SFC VIS 3 $
14837KMSN MSN20010720062010107/20/01 06:20:31  5-MIN KMSN 201220Z 00000KT 2 1/2SM BR CLR 23/22 A3002 770 93 2000 000/00 RMK AO2 $
14837KMSN MSN20010720062510107/20/01 06:25:31  5-MIN KMSN 201225Z 17003KT 2 1/2SM BR CLR 23/22 A3002 770 93 2000 170/03 RMK AO2 $
14837KMSN MSN20010720063010107/20/01 06:30:31  5-MIN KMSN 201230Z 00000KT 2 1/2SM BR CLR 23/22 A3002 770 93 2000 000/00 RMK AO2 $
14837KMSN MSN20010720063510107/20/01 06:35:31  5-MIN KMSN 201235Z 18003KT 2 1/2SM BR CLR 24/22 A3003 770 90 2000 180/03 RMK AO2 $
14837KMSN MSN20010720064011107/20/01 06:40:31  5-MIN KMSN 201240Z 22003KT 2 1/2SM BR CLR 24/23 A3003 760 93 2000 210/03 RMK AO2 SFC VIS 3 $
14837KMSN MSN20010720064511107/20/01 06:45:31  5-MIN KMSN 201245Z 00000KT 2 1/2SM BR CLR 24/23 A3003 760 93 2000 000/00 RMK AO2 SFC VIS 3 $
14837KMSN MSN20010720065012407/20/01 06:50:31  5-MIN KMSN 201250Z 00000KT 3SM BR CLR 24/23 A3003 760 90 2100 000/00 RMK AO2 TWR VIS 4 SLP165 T02440228 $
14837KMSN MSN20010720065510707/20/01 06:55:31  5-MIN KMSN 201255Z 00000KT 3SM BR CLR 24/23 A3004 760 90 2100 000/00 RMK AO2 TWR VIS 4 $
14837KMSN MSN20010720070010707/20/01 07:00:31  5-MIN KMSN 201300Z 00000KT 3SM BR CLR 24/23 A3004 750 90 2100 000/00 RMK AO2 TWR VIS 4 $
14837KMSN MSN20010720070510707/20/01 07:05:31  5-MIN KMSN 201305Z 22003KT 3SM BR CLR 24/23 A3004 750 90 2100 210/03 RMK AO2 TWR VIS 4 $
14837KMSN MSN20010720071009707/20/01 07:10:31  5-MIN KMSN 201310Z 23004KT 4SM BR CLR 24/23 A3004 750 90 2100 230/04 RMK AO2 $
14837KMSN MSN20010720071509707/20/01 07:15:31  5-MIN KMSN 201315Z 23003KT 4SM BR CLR 24/23 A3004 750 90 2100 230/03 RMK AO2 $
14837KMSN MSN20010720072009707/20/01 07:20:31  5-MIN KMSN 201320Z VRB04KT 4SM BR CLR 24/23 A3004 750 90 2100 VRB/04 RMK AO2 $
14837KMSN MSN20010720072509707/20/01 07:25:31  5-MIN KMSN 201325Z 23003KT 4SM BR CLR 24/23 A3004 750 90 2100 230/03 RMK AO2 $
14837KMSN MSN20010720073009507/20/01 07:30:31  5-MIN KMSN 201330Z 23003KT 4SM BR CLR 25/23 A3004 750 87 2100 230/03 RMK AO2
14837KMSN MSN20010720073509507/20/01 07:35:31  5-MIN KMSN 201335Z 00000KT 5SM BR CLR 25/23 A3004 750 87 2100 000/00 RMK AO2
14837KMSN MSN20010720074009507/20/01 07:40:31  5-MIN KMSN 201340Z VRB03KT 5SM BR CLR 26/23 A3004 750 87 2200 VRB/03 RMK AO2
14837KMSN MSN20010720074509507/20/01 07:45:31  5-MIN KMSN 201345Z 00000KT 5SM HZ CLR 26/23 A3004 750 84 2200 000/00 RMK AO2
14837KMSN MSN20010720075011207/20/01 07:50:31  5-MIN KMSN 201350Z 00000KT 5SM HZ CLR 26/23 A3004 750 84 2200 000/00 RMK AO2 SLP166 T02560228
14837KMSN MSN20010720075509807/20/01 07:55:31  5-MIN KMSN 201355Z 00000KT 6SM HZ FEW020 26/23 A3004 750 84 2200 000/00 RMK AO2
14837KMSN MSN20010720080009507/20/01 08:00:31  5-MIN KMSN 201400Z VRB03KT 7SM FEW020 26/23 A3004 750 81 2200 VRB/03 RMK AO2
14837KMSN MSN20010720080509507/20/01 08:05:31  5-MIN KMSN 201405Z 23004KT 8SM FEW020 26/22 A3004 760 79 2200 220/04 RMK AO2
14837KMSN MSN20010720081009507/20/01 08:10:31  5-MIN KMSN 201410Z 23004KT 9SM FEW020 26/22 A3004 760 79 2200 230/04 RMK AO2
14837KMSN MSN20010720081509507/20/01 08:15:31  5-MIN KMSN 201415Z VRB03KT 9SM FEW020 26/22 A3004 760 79 2200 VRB/03 RMK AO2
14837KMSN MSN20010720082009607/20/01 08:20:31  5-MIN KMSN 201420Z 24004KT 10SM FEW020 26/22 A3004 760 79 2200 240/04 RMK AO2
14837KMSN MSN20010720082509607/20/01 08:25:31  5-MIN KMSN 201425Z 24003KT 10SM FEW020 26/22 A3004 760 76 2200 240/03 RMK AO2
14837KMSN MSN20010720083009607/20/01 08:30:31  5-MIN KMSN 201430Z VRB03KT 10SM FEW020 27/22 A3004 760 73 2300 VRB/03 RMK AO2
14837KMSN MSN20010720083509607/20/01 08:35:31  5-MIN KMSN 201435Z VRB03KT 10SM FEW020 27/22 A3003 760 76 2300 VRB/03 RMK AO2
14837KMSN MSN20010720084009607/20/01 08:40:31  5-MIN KMSN 201440Z 22004KT 10SM FEW020 27/22 A3004 760 74 2400 220/04 RMK AO2
14837KMSN MSN20010720084509607/20/01 08:45:31  5-MIN KMSN 201445Z 21005KT 10SM FEW020 27/22 A3003 760 74 2400 210/05 RMK AO2
14837KMSN MSN20010720085011907/20/01 08:50:31  5-MIN KMSN 201450Z 23004KT 10SM FEW020 27/22 A3003 760 73 2300 230/04 RMK AO2 SLP164 T02670217 53005
14837KMSN MSN20010720085509607/20/01 08:55:31  5-MIN KMSN 201455Z 20005KT 10SM SCT020 26/22 A3004 760 76 2300 200/05 RMK AO2
14837KMSN MSN20010720090009607/20/01 09:00:31  5-MIN KMSN 201500Z 22005KT 10SM SCT020 26/22 A3004 760 76 2300 220/05 RMK AO2
14837KMSN MSN20010720090509607/20/01 09:05:31  5-MIN KMSN 201505Z 24003KT 10SM SCT020 26/22 A3003 760 76 2300 240/03 RMK AO2
14837KMSN MSN20010720091009607/20/01 09:10:31  5-MIN KMSN 201510Z 26004KT 10SM SCT020 27/22 A3003 760 73 2300 260/04 RMK AO2
14837KMSN MSN20010720091509607/20/01 09:15:31  5-MIN KMSN 201515Z 00000KT 10SM SCT020 27/22 A3003 760 73 2300 000/00 RMK AO2
14837KMSN MSN20010720092009607/20/01 09:20:31  5-MIN KMSN 201520Z VRB05KT 10SM SCT020 27/22 A3003 760 73 2300 VRB/05 RMK AO2
14837KMSN MSN20010720092509607/20/01 09:25:31  5-MIN KMSN 201525Z 21005KT 10SM SCT020 27/22 A3003 760 71 2400 210/05 RMK AO2
14837KMSN MSN20010720093009607/20/01 09:30:31  5-MIN KMSN 201530Z VRB05KT 10SM SCT030 27/21 A3003 760 71 2300 VRB/05 RMK AO2
14837KMSN MSN20010720093509607/20/01 09:35:31  5-MIN KMSN 201535Z 24004KT 10SM SCT030 27/22 A3004 760 73 2300 240/04 RMK AO2
14837KMSN MSN20010720094009607/20/01 09:40:31  5-MIN KMSN 201540Z 23005KT 10SM SCT030 27/21 A3003 760 71 2300 230/05 RMK AO2
14837KMSN MSN20010720094509607/20/01 09:45:31  5-MIN KMSN 201545Z VRB04KT 10SM SCT030 26/21 A3004 760 73 2300 VRB/04 RMK AO2
14837KMSN MSN20010720095012007/20/01 09:50:31  5-MIN KMSN 201550Z VRB03KT 10SM FEW037 SCT050 26/22 A3004 760 76 2300 VRB/03 RMK AO2 SLP165 T02610217
14837KMSN MSN20010720095510307/20/01 09:55:31  5-MIN KMSN 201555Z 20006KT 10SM SCT037 SCT050 27/22 A3004 760 73 2300 200/06 RMK AO2
14837KMSN MSN20010720100010307/20/01 10:00:31  5-MIN KMSN 201600Z 21005KT 10SM SCT037 SCT050 27/21 A3003 760 71 2300 210/05 RMK AO2
14837KMSN MSN20010720100511007/20/01 10:05:31  5-MIN KMSN 201605Z 22006KT 10SM SCT035 SCT042 BKN050 27/22 A3003 760 73 2300 220/06 RMK AO2
14837KMSN MSN20010720101010307/20/01 10:10:31  5-MIN KMSN 201610Z 22005KT 10SM SCT037 BKN050 27/22 A3003 760 71 2400 220/05 RMK AO2
14837KMSN MSN20010720101509607/20/01 10:15:31  5-MIN KMSN 201615Z 23006KT 10SM FEW037 27/22 A3003 760 71 2400 230/06 RMK AO2
14837KMSN MSN20010720102009607/20/01 10:20:31  5-MIN KMSN 201620Z VRB05KT 10SM FEW037 28/22 A3003 760 69 2400 VRB/05 RMK AO2
14837KMSN MSN20010720102509607/20/01 10:25:31  5-MIN KMSN 201625Z 23005KT 10SM FEW028 27/21 A3003 770 71 2300 220/05 RMK AO2
14837KMSN MSN20010720103009607/20/01 10:30:31  5-MIN KMSN 201630Z 22006KT 10SM SCT032 27/21 A3003 770 69 2400 220/06 RMK AO2
14837KMSN MSN20010720103509607/20/01 10:35:31  5-MIN KMSN 201635Z 22004KT 10SM FEW028 27/21 A3002 770 69 2400 220/04 RMK AO2
14837KMSN MSN20010720104009607/20/01 10:40:31  5-MIN KMSN 201640Z VRB05KT 10SM SCT028 28/22 A3002 770 66 2500 VRB/05 RMK AO2
14837KMSN MSN20010720104509607/20/01 10:45:31  5-MIN KMSN 201645Z 18007KT 10SM SCT030 28/21 A3002 770 64 2500 180/07 RMK AO2
14837KMSN MSN20010720105011307/20/01 10:50:31  5-MIN KMSN 201650Z 18006KT 10SM SCT030 28/21 A3002 770 64 2500 180/06 RMK AO2 SLP160 T02830211
14837KMSN MSN20010720105509607/20/01 10:55:31  5-MIN KMSN 201655Z 18008KT 10SM FEW030 28/21 A3002 770 64 2500 180/08 RMK AO2
14837KMSN MSN20010720110009607/20/01 11:00:31  5-MIN KMSN 201700Z VRB06KT 10SM SCT030 28/21 A3002 770 64 2500 VRB/06 RMK AO2
14837KMSN MSN20010720110509607/20/01 11:05:31  5-MIN KMSN 201705Z 21006KT 10SM SCT030 28/21 A3002 780 66 2500 210/06 RMK AO2
14837KMSN MSN20010720111009607/20/01 11:10:31  5-MIN KMSN 201710Z 21006KT 10SM SCT030 28/21 A3001 780 66 2500 210/06 RMK AO2
14837KMSN MSN20010720111509607/20/01 11:15:31  5-MIN KMSN 201715Z VRB04KT 10SM SCT030 28/21 A3001 780 66 2500 VRB/04 RMK AO2
14837KMSN MSN20010720112009607/20/01 11:20:31  5-MIN KMSN 201720Z VRB05KT 10SM SCT030 28/21 A3001 780 64 2500 VRB/05 RMK AO2
14837KMSN MSN20010720112509607/20/01 11:25:31  5-MIN KMSN 201725Z 26004KT 10SM SCT030 28/21 A3001 780 66 2500 250/04 RMK AO2
14837KMSN MSN20010720113009607/20/01 11:30:31  5-MIN KMSN 201730Z VRB04KT 10SM BKN030 28/21 A3002 780 66 2500 VRB/04 RMK AO2
14837KMSN MSN20010720113510307/20/01 11:35:31  5-MIN KMSN 201735Z 25004KT 10SM BKN030 BKN040 28/21 A3001 780 66 2500 250/04 RMK AO2
14837KMSN MSN20010720114010307/20/01 11:40:31  5-MIN KMSN 201740Z VRB04KT 10SM SCT032 BKN043 29/22 A3001 780 64 2600 VRB/04 RMK AO2
14837KMSN MSN20010720114510307/20/01 11:45:31  5-MIN KMSN 201745Z 18005KT 10SM SCT030 SCT039 29/22 A3002 770 64 2600 180/05 RMK AO2
14837KMSN MSN20010720115013807/20/01 11:50:31  5-MIN KMSN 201750Z 19005KT 10SM SCT032 SCT041 29/21 A3002 780 62 2600 190/05 RMK AO2 SLP158 T02890211 10294 20222 50006
14837KMSN MSN20010720115510307/20/01 11:55:31  5-MIN KMSN 201755Z 18005KT 10SM SCT032 BKN041 29/21 A3001 780 62 2600 180/05 RMK AO2
14837KMSN MSN20010720120009607/20/01 12:00:31  5-MIN KMSN 201800Z VRB03KT 10SM FEW034 29/21 A3001 780 60 2600 VRB/03 RMK AO2
14837KMSN MSN20010720120509607/20/01 12:05:31  5-MIN KMSN 201805Z 17004KT 10SM SCT034 29/21 A3001 780 60 2600 170/04 RMK AO2
14837KMSN MSN20010720121009607/20/01 12:10:31  5-MIN KMSN 201810Z 20005KT 10SM SCT034 30/22 A3001 780 60 2700 200/05 RMK AO2
14837KMSN MSN20010720121509607/20/01 12:15:31  5-MIN KMSN 201815Z VRB04KT 10SM SCT034 30/22 A3001 780 60 2700 VRB/04 RMK AO2
14837KMSN MSN20010720122009607/20/01 12:20:31  5-MIN KMSN 201820Z 17005KT 10SM SCT034 29/22 A3001 780 62 2700 170/05 RMK AO2
14837KMSN MSN20010720122509607/20/01 12:25:31  5-MIN KMSN 201825Z VRB05KT 10SM SCT034 29/21 A3001 780 60 2700 VRB/05 RMK AO2
14837KMSN MSN20010720123009607/20/01 12:30:31  5-MIN KMSN 201830Z 27007KT 10SM SCT034 29/22 A3001 780 62 2700 270/07 RMK AO2
14837KMSN MSN20010720123509607/20/01 12:35:31  5-MIN KMSN 201835Z VRB04KT 10SM SCT034 29/22 A3001 780 62 2700 VRB/04 RMK AO2
14837KMSN MSN20010720124009607/20/01 12:40:31  5-MIN KMSN 201840Z VRB05KT 10SM SCT035 29/21 A3001 790 60 2700 VRB/05 RMK AO2
14837KMSN MSN20010720124509607/20/01 12:45:31  5-MIN KMSN 201845Z VRB03KT 10SM SCT035 29/21 A3000 790 60 2700 VRB/03 RMK AO2
14837KMSN MSN20010720125011307/20/01 12:50:31  5-MIN KMSN 201850Z 18005KT 10SM SCT035 29/22 A3000 790 62 2700 180/05 RMK AO2 SLP153 T02940217
14837KMSN MSN20010720125509307/20/01 12:55:31  5-MIN KMSN 201855Z 21004KT 10SM CLR 30/21 A3000 790 58 2700 210/04 RMK AO2
14837KMSN MSN20010720130009307/20/01 13:00:31  5-MIN KMSN 201900Z VRB04KT 10SM CLR 31/22 A3000 790 58 2800 VRB/04 RMK AO2
14837KMSN MSN20010720130509607/20/01 13:05:31  5-MIN KMSN 201905Z VRB04KT 10SM SCT035 30/22 A3000 790 60 2700 VRB/04 RMK AO2
14837KMSN MSN20010720131009607/20/01 13:10:31  5-MIN KMSN 201910Z 19006KT 10SM SCT035 29/21 A2999 800 60 2700 190/06 RMK AO2
14837KMSN MSN20010720131509607/20/01 13:15:31  5-MIN KMSN 201915Z VRB04KT 10SM SCT037 30/22 A2999 800 60 2700 VRB/04 RMK AO2
14837KMSN MSN20010720132009607/20/01 13:20:31  5-MIN KMSN 201920Z VRB05KT 10SM SCT037 30/21 A2999 800 58 2700 VRB/05 RMK AO2
14837KMSN MSN20010720132509607/20/01 13:25:31  5-MIN KMSN 201925Z VRB06KT 10SM SCT037 30/22 A2999 800 60 2700 VRB/06 RMK AO2
14837KMSN MSN20010720133009607/20/01 13:30:31  5-MIN KMSN 201930Z VRB06KT 10SM SCT037 30/21 A2999 800 58 2700 VRB/06 RMK AO2
14837KMSN MSN20010720133509607/20/01 13:35:31  5-MIN KMSN 201935Z 29005KT 10SM SCT037 30/21 A2998 810 58 2700 290/05 RMK AO2
14837KMSN MSN20010720134009607/20/01 13:40:31  5-MIN KMSN 201940Z VRB04KT 10SM SCT037 30/21 A2998 810 58 2800 VRB/04 RMK AO2
14837KMSN MSN20010720134509607/20/01 13:45:31  5-MIN KMSN 201945Z 00000KT 10SM SCT037 30/21 A2997 810 58 2800 000/00 RMK AO2
14837KMSN MSN20010720135011307/20/01 13:50:31  5-MIN KMSN 201950Z 25005KT 10SM SCT036 31/21 A2997 820 56 2800 250/05 RMK AO2 SLP143 T03060211
14837KMSN MSN20010720220509207/20/01 22:05:31  5-MIN KMSN 210405Z 00000KT 8SM CLR 24/23 A2996 830 90 2100 000/00 RMK AO2
14837KMSN MSN20010720221009207/20/01 22:10:31  5-MIN KMSN 210410Z 00000KT 8SM CLR 24/23 A2996 830 90 2100 000/00 RMK AO2
14837KMSN MSN20010720221509207/20/01 22:15:31  5-MIN KMSN 210415Z 00000KT 8SM CLR 24/23 A2996 830 90 2100 000/00 RMK AO2
14837KMSN MSN20010720222009207/20/01 22:20:31  5-MIN KMSN 210420Z 00000KT 8SM CLR 24/23 A2996 830 90 2100 000/00 RMK AO2
14837KMSN MSN20010720222509207/20/01 22:25:31  5-MIN KMSN 210425Z 00000KT 8SM CLR 24/23 A2996 830 93 2100 000/00 RMK AO2
14837KMSN MSN20010720223009207/20/01 22:30:31  5-MIN KMSN 210430Z 00000KT 7SM CLR 24/23 A2996 830 93 2100 000/00 RMK AO2
14837KMSN MSN20010720223509207/20/01 22:35:31  5-MIN KMSN 210435Z 00000KT 7SM CLR 24/23 A2996 830 93 2100 000/00 RMK AO2
14837KMSN MSN20010720224009207/20/01 22:40:31  5-MIN KMSN 210440Z 00000KT 7SM CLR 24/23 A2996 820 93 2100 000/00 RMK AO2
14837KMSN MSN20010720224509307/20/01 22:45:31  5-MIN KMSN 210445Z 00000KT 10SM CLR 24/23 A2996 820 93 2100 000/00 RMK AO2
14837KMSN MSN20010720225011007/20/01 22:50:31  5-MIN KMSN 210450Z 00000KT 10SM CLR 24/23 A2997 820 93 2100 000/00 RMK AO2 SLP141 T02390228
14837KMSN MSN20010720225509207/20/01 22:55:31  5-MIN KMSN 210455Z 00000KT 7SM CLR 24/23 A2997 820 93 2100 000/00 RMK AO2
14837KMSN MSN20010720230009207/20/01 23:00:31  5-MIN KMSN 210500Z 00000KT 7SM CLR 24/23 A2996 820 93 2100 000/00 RMK AO2
14837KMSN MSN20010720230509207/20/01 23:05:31  5-MIN KMSN 210505Z 00000KT 8SM CLR 24/23 A2997 820 90 2100 000/00 RMK AO2
14837KMSN MSN20010720231009207/20/01 23:10:31  5-MIN KMSN 210510Z 02003KT 8SM CLR 24/23 A2997 820 90 2100 020/03 RMK AO2
14837KMSN MSN20010720231509207/20/01 23:15:31  5-MIN KMSN 210515Z 00000KT 7SM CLR 24/23 A2997 820 93 2100 000/00 RMK AO2
14837KMSN MSN20010720232009807/20/01 23:20:31  5-MIN KMSN 210520Z 00000KT 6SM BR FEW055 24/23 A2996 820 93 2100 000/00 RMK AO2
14837KMSN MSN20010720232509507/20/01 23:25:31  5-MIN KMSN 210525Z 00000KT 7SM FEW055 24/23 A2996 830 93 2100 000/00 RMK AO2
14837KMSN MSN20010720233009507/20/01 23:30:31  5-MIN KMSN 210530Z 00000KT 7SM FEW055 24/23 A2996 830 90 2200 000/00 RMK AO2
14837KMSN MSN20010720233509507/20/01 23:35:31  5-MIN KMSN 210535Z 00000KT 7SM FEW055 24/23 A2995 840 90 2200 000/00 RMK AO2
14837KMSN MSN20010720234009507/20/01 23:40:31  5-MIN KMSN 210540Z 00000KT 7SM FEW055 24/23 A2995 840 90 2200 000/00 RMK AO2
14837KMSN MSN20010720234509507/20/01 23:45:31  5-MIN KMSN 210545Z 00000KT 7SM FEW055 24/23 A2994 840 90 2200 000/00 RMK AO2
14837KMSN MSN20010720235014107/20/01 23:50:31  5-MIN KMSN 210550Z 00000KT 10SM SCT055 24/23 A2994 840 93 2100 000/00 RMK AO2 SLP132 T02390228 10294 20239 403110200 53007
14837KMSN MSN20010720235509207/20/01 23:55:31  5-MIN KMSN 210555Z 00000KT 7SM CLR 24/23 A2994 840 93 2100 000/00 RMK AO2
14837KMSN MSN20010721000009207/21/01 00:00:31  5-MIN KMSN 210600Z 00000KT 7SM CLR 24/23 A2994 850 90 2200 000/00 RMK AO2
14837KMSN MSN20010721000509207/21/01 00:05:31  5-MIN KMSN 210605Z 00000KT 7SM CLR 24/23 A2994 850 93 2100 000/00 RMK AO2
14837KMSN MSN20010721001009207/21/01 00:10:31  5-MIN KMSN 210610Z 00000KT 7SM CLR 24/23 A2994 850 93 2100 000/00 RMK AO2
14837KMSN MSN20010721001509207/21/01 00:15:31  5-MIN KMSN 210615Z 00000KT 7SM CLR 24/23 A2994 840 93 2100 000/00 RMK AO2
14837KMSN MSN20010721002009207/21/01 00:20:31  5-MIN KMSN 210620Z 00000KT 7SM CLR 24/23 A2995 840 93 2100 000/00 RMK AO2
14837KMSN MSN20010721002509507/21/01 00:25:31  5-MIN KMSN 210625Z 00000KT 7SM FEW110 24/23 A2995 840 93 2100 000/00 RMK AO2
14837KMSN MSN20010721003009807/21/01 00:30:31  5-MIN KMSN 210630Z 00000KT 6SM BR SCT110 24/23 A2995 840 93 2100 000/00 RMK AO2
14837KMSN MSN20010721003509807/21/01 00:35:31  5-MIN KMSN 210635Z 00000KT 6SM BR SCT110 24/23 A2995 840 93 2100 000/00 RMK AO2
14837KMSN MSN20010721004009507/21/01 00:40:31  5-MIN KMSN 210640Z 00000KT 7SM BKN110 24/23 A2995 840 93 2100 000/00 RMK AO2
14837KMSN MSN20010721004509507/21/01 00:45:31  5-MIN KMSN 210645Z 00000KT 7SM BKN110 24/23 A2995 830 93 2100 000/00 RMK AO2
14837KMSN MSN20010721005011207/21/01 00:50:31  5-MIN KMSN 210650Z 00000KT 8SM SCT110 24/23 A2995 830 93 2100 000/00 RMK AO2 SLP136 T02390228
14837KMSN MSN20010721005509507/21/01 00:55:31  5-MIN KMSN 210655Z 00000KT 7SM BKN110 24/23 A2995 830 93 2100 000/00 RMK AO2
14837KMSN MSN20010721010009507/21/01 01:00:31  5-MIN KMSN 210700Z 00000KT 7SM BKN110 24/23 A2995 840 93 2100 000/00 RMK AO2
14837KMSN MSN20010721010509507/21/01 01:05:31  5-MIN KMSN 210705Z 00000KT 7SM BKN110 24/23 A2995 840 90 2200 000/00 RMK AO2
14837KMSN MSN20010721011009507/21/01 01:10:31  5-MIN KMSN 210710Z 00000KT 7SM SCT110 24/23 A2994 840 90 2200 000/00 RMK AO2
14837KMSN MSN20010721011509507/21/01 01:15:31  5-MIN KMSN 210715Z 00000KT 7SM BKN110 24/23 A2994 840 90 2200 000/00 RMK AO2
14837KMSN MSN20010721012009507/21/01 01:20:31  5-MIN KMSN 210720Z 00000KT 8SM BKN110 24/23 A2994 840 90 2200 000/00 RMK AO2
14837KMSN MSN20010721012509507/21/01 01:25:31  5-MIN KMSN 210725Z 00000KT 8SM BKN120 24/23 A2994 850 90 2200 000/00 RMK AO2
14837KMSN MSN20010721013009507/21/01 01:30:31  5-MIN KMSN 210730Z 00000KT 8SM BKN120 24/23 A2994 850 90 2200 000/00 RMK AO2
14837KMSN MSN20010721013509507/21/01 01:35:31  5-MIN KMSN 210735Z 00000KT 8SM BKN110 24/23 A2994 850 90 2200 000/00 RMK AO2
14837KMSN MSN20010721014009507/21/01 01:40:31  5-MIN KMSN 210740Z 00000KT 7SM BKN110 24/23 A2994 850 90 2200 000/00 RMK AO2
14837KMSN MSN20010721014509507/21/01 01:45:31  5-MIN KMSN 210745Z 00000KT 7SM BKN120 24/23 A2994 850 93 2100 000/00 RMK AO2
14837KMSN MSN20010721015011207/21/01 01:50:31  5-MIN KMSN 210750Z 00000KT 8SM BKN120 24/23 A2994 850 90 2200 000/00 RMK AO2 SLP131 T02440228
14837KMSN MSN20010721015510207/21/01 01:55:31  5-MIN KMSN 210755Z 00000KT 8SM FEW060 BKN110 24/23 A2994 850 90 2200 000/00 RMK AO2
14837KMSN MSN20010721020010207/21/01 02:00:31  5-MIN KMSN 210800Z 00000KT 8SM FEW060 BKN110 24/23 A2994 850 90 2200 000/00 RMK AO2
14837KMSN MSN20010721020510207/21/01 02:05:31  5-MIN KMSN 210805Z 00000KT 7SM FEW060 BKN120 24/23 A2993 850 90 2200 000/00 RMK AO2
14837KMSN MSN20010721021010207/21/01 02:10:31  5-MIN KMSN 210810Z 00000KT 7SM FEW060 BKN120 24/23 A2993 850 90 2200 000/00 RMK AO2
14837KMSN MSN20010721021510207/21/01 02:15:31  5-MIN KMSN 210815Z 00000KT 7SM FEW060 BKN120 24/23 A2993 850 93 2100 000/00 RMK AO2
14837KMSN MSN20010721022010207/21/01 02:20:31  5-MIN KMSN 210820Z 00000KT 7SM FEW060 OVC120 24/23 A2993 850 93 2100 000/00 RMK AO2
14837KMSN MSN20010721022510507/21/01 02:25:31  5-MIN KMSN 210825Z 00000KT 6SM BR SCT055 OVC120 24/23 A2993 850 93 2100 000/00 RMK AO2
14837KMSN MSN20010721023010507/21/01 02:30:31  5-MIN KMSN 210830Z 00000KT 6SM BR SCT055 BKN120 24/23 A2993 860 93 2100 000/00 RMK AO2
14837KMSN MSN20010721023510207/21/01 02:35:31  5-MIN KMSN 210835Z 00000KT 7SM FEW055 BKN120 24/23 A2992 860 93 2200 000/00 RMK AO2
14837KMSN MSN20010721024010207/21/01 02:40:31  5-MIN KMSN 210840Z 00000KT 7SM FEW055 SCT110 24/23 A2992 870 90 2200 000/00 RMK AO2
14837KMSN MSN20010721024510207/21/01 02:45:31  5-MIN KMSN 210845Z 00000KT 7SM FEW055 SCT110 24/23 A2991 870 90 2200 000/00 RMK AO2
14837KMSN MSN20010721025012507/21/01 02:50:31  5-MIN KMSN 210850Z 13003KT 8SM FEW055 BKN110 24/23 A2991 870 90 2200 130/03 RMK AO2 SLP122 T02440228 58003
14837KMSN MSN20010721025510207/21/01 02:55:31  5-MIN KMSN 210855Z 00000KT 7SM FEW055 SCT120 24/23 A2991 870 90 2200 000/00 RMK AO2
14837KMSN MSN20010721030009507/21/01 03:00:31  5-MIN KMSN 210900Z 00000KT 7SM FEW120 24/23 A2991 870 90 2200 000/00 RMK AO2
14837KMSN MSN20010721030509507/21/01 03:05:31  5-MIN KMSN 210905Z 17005KT 7SM SCT120 25/23 A2991 880 87 2300 170/05 RMK AO2
14837KMSN MSN20010721031009507/21/01 03:10:31  5-MIN KMSN 210910Z 17004KT 8SM SCT120 26/23 A2991 880 84 2300 170/04 RMK AO2
14837KMSN MSN20010721031509507/21/01 03:15:31  5-MIN KMSN 210915Z 17004KT 8SM BKN120 26/23 A2990 880 84 2300 170/04 RMK AO2
14837KMSN MSN20010721032009507/21/01 03:20:31  5-MIN KMSN 210920Z 17003KT 8SM BKN120 26/23 A2990 880 84 2300 170/03 RMK AO2
14837KMSN MSN20010721032509507/21/01 03:25:31  5-MIN KMSN 210925Z 18004KT 8SM BKN120 26/23 A2991 880 84 2300 180/04 RMK AO2
14837KMSN MSN20010721033009507/21/01 03:30:31  5-MIN KMSN 210930Z 17004KT 8SM BKN120 26/23 A2991 870 84 2300 170/04 RMK AO2
14837KMSN MSN20010721033509507/21/01 03:35:31  5-MIN KMSN 210935Z 17003KT 8SM BKN110 26/23 A2991 870 84 2300 170/03 RMK AO2
14837KMSN MSN20010721034009507/21/01 03:40:31  5-MIN KMSN 210940Z 19003KT 7SM BKN110 26/23 A2991 870 84 2300 180/03 RMK AO2
14837KMSN MSN20010721034509507/21/01 03:45:31  5-MIN KMSN 210945Z VRB03KT 7SM BKN110 25/23 A2991 870 87 2300 VRB/03 RMK AO2
14837KMSN MSN20010721035011207/21/01 03:50:31  5-MIN KMSN 210950Z 00000KT 7SM OVC110 25/23 A2991 870 87 2300 000/00 RMK AO2 SLP121 T02500228
14837KMSN MSN20010721035509507/21/01 03:55:31  5-MIN KMSN 210955Z 24003KT 7SM OVC110 25/23 A2991 870 87 2300 240/03 RMK AO2
14837KMSN MSN20010721040009507/21/01 04:00:31  5-MIN KMSN 211000Z 27003KT 7SM OVC110 24/23 A2992 870 90 2200 270/03 RMK AO2
14837KMSN MSN20010721040509507/21/01 04:05:31  5-MIN KMSN 211005Z VRB03KT 7SM OVC110 25/23 A2992 870 87 2300 VRB/03 RMK AO2
14837KMSN MSN20010721041009507/21/01 04:10:31  5-MIN KMSN 211010Z VRB03KT 7SM OVC110 26/23 A2991 870 84 2300 VRB/03 RMK AO2
14837KMSN MSN20010721041509507/21/01 04:15:31  5-MIN KMSN 211015Z 00000KT 7SM OVC110 26/23 A2991 870 84 2300 000/00 RMK AO2
14837KMSN MSN20010721042009507/21/01 04:20:31  5-MIN KMSN 211020Z 00000KT 8SM BKN110 26/23 A2990 880 84 2300 000/00 RMK AO2
14837KMSN MSN20010721042509507/21/01 04:25:31  5-MIN KMSN 211025Z 00000KT 7SM BKN110 25/23 A2991 880 87 2300 000/00 RMK AO2
14837KMSN MSN20010721043009507/21/01 04:30:31  5-MIN KMSN 211030Z VRB03KT 7SM BKN110 26/23 A2991 880 84 2300 VRB/03 RMK AO2
14837KMSN MSN20010721043509807/21/01 04:35:31  5-MIN KMSN 211035Z 00000KT 6SM HZ SCT110 26/23 A2991 880 84 2300 000/00 RMK AO2
14837KMSN MSN20010721044009507/21/01 04:40:31  5-MIN KMSN 211040Z 00000KT 7SM BKN110 26/23 A2991 880 84 2300 000/00 RMK AO2
14837KMSN MSN20010721044509507/21/01 04:45:31  5-MIN KMSN 211045Z 00000KT 7SM BKN110 25/23 A2991 870 87 2300 000/00 RMK AO2
14837KMSN MSN20010721045011207/21/01 04:50:31  5-MIN KMSN 211050Z 00000KT 7SM SCT120 24/23 A2991 870 90 2200 000/00 RMK AO2 SLP122 T02440228
14837KMSN MSN20010721045509507/21/01 04:55:31  5-MIN KMSN 211055Z 00000KT 7SM SCT120 24/23 A2992 870 90 2200 000/00 RMK AO2
14837KMSN MSN20010721050009507/21/01 05:00:31  5-MIN KMSN 211100Z 30003KT 7SM FEW120 24/23 A2992 860 90 2200 290/03 RMK AO2
14837KMSN MSN20010721050509507/21/01 05:05:31  5-MIN KMSN 211105Z 00000KT 7SM FEW120 24/22 A2992 870 87 2200 000/00 RMK AO2
14837KMSN MSN20010721051009507/21/01 05:10:31  5-MIN KMSN 211110Z 27003KT 7SM FEW120 24/22 A2992 870 87 2200 260/03 RMK AO2
14837KMSN MSN20010721051509507/21/01 05:15:31  5-MIN KMSN 211115Z 00000KT 7SM FEW120 24/22 A2992 870 87 2200 000/00 RMK AO2
14837KMSN MSN20010721052009207/21/01 05:20:31  5-MIN KMSN 211120Z VRB03KT 7SM CLR 24/22 A2992 870 87 2200 VRB/03 RMK AO2
14837KMSN MSN20010721052509507/21/01 05:25:31  5-MIN KMSN 211125Z VRB03KT 6SM BR CLR 24/22 A2992 860 87 2200 VRB/03 RMK AO2
14837KMSN MSN20010721053009507/21/01 05:30:31  5-MIN KMSN 211130Z VRB03KT 6SM BR CLR 24/22 A2992 860 87 2200 VRB/03 RMK AO2
14837KMSN MSN20010721053509507/21/01 05:35:31  5-MIN KMSN 211135Z 00000KT 6SM HZ CLR 24/22 A2992 870 84 2200 000/00 RMK AO2
14837KMSN MSN20010721054009507/21/01 05:40:31  5-MIN KMSN 211140Z 00000KT 6SM HZ CLR 24/22 A2992 860 84 2200 000/00 RMK AO2
14837KMSN MSN20010721054509507/21/01 05:45:31  5-MIN KMSN 211145Z 00000KT 6SM HZ CLR 24/22 A2992 860 84 2200 000/00 RMK AO2
14837KMSN MSN20010721055013007/21/01 05:50:31  5-MIN KMSN 211150Z 00000KT 6SM BR CLR 24/22 A2992 860 87 2200 000/00 RMK AO2 SLP126 T02440222 10256 20239 58010
14837KMSN MSN20010721055509507/21/01 05:55:31  5-MIN KMSN 211155Z 00000KT 6SM BR CLR 24/22 A2992 860 87 2200 000/00 RMK AO2
14837KMSN MSN20010721060009507/21/01 06:00:31  5-MIN KMSN 211200Z 00000KT 5SM HZ CLR 25/22 A2993 860 84 2300 000/00 RMK AO2
14837KMSN MSN20010721060509507/21/01 06:05:31  5-MIN KMSN 211205Z 00000KT 5SM HZ CLR 25/22 A2993 860 84 2300 000/00 RMK AO2
14837KMSN MSN20010721061009507/21/01 06:10:31  5-MIN KMSN 211210Z 00000KT 5SM HZ CLR 25/22 A2993 860 84 2300 000/00 RMK AO2
14837KMSN MSN20010721061509507/21/01 06:15:31  5-MIN KMSN 211215Z 00000KT 5SM HZ CLR 26/22 A2993 860 81 2300 000/00 RMK AO2
14837KMSN MSN20010721062009507/21/01 06:20:31  5-MIN KMSN 211220Z 23003KT 6SM HZ CLR 25/22 A2993 860 84 2200 230/03 RMK AO2
14837KMSN MSN20010721062509507/21/01 06:25:31  5-MIN KMSN 211225Z 00000KT 6SM HZ CLR 26/22 A2993 860 81 2300 000/00 RMK AO2
14837KMSN MSN20010721063009507/21/01 06:30:31  5-MIN KMSN 211230Z 00000KT 6SM HZ CLR 26/22 A2993 860 81 2300 000/00 RMK AO2
14837KMSN MSN20010721063509207/21/01 06:35:31  5-MIN KMSN 211235Z 00000KT 7SM CLR 26/22 A2993 860 81 2300 000/00 RMK AO2
14837KMSN MSN20010721064009207/21/01 06:40:31  5-MIN KMSN 211240Z 00000KT 7SM CLR 26/22 A2993 850 81 2300 000/00 RMK AO2
14837KMSN MSN20010721064509207/21/01 06:45:31  5-MIN KMSN 211245Z 00000KT 7SM CLR 26/22 A2993 850 79 2400 000/00 RMK AO2
14837KMSN MSN20010721065010907/21/01 06:50:31  5-MIN KMSN 211250Z 00000KT 7SM CLR 26/22 A2994 850 79 2400 000/00 RMK AO2 SLP130 T02610222
14837KMSN MSN20010721065509207/21/01 06:55:31  5-MIN KMSN 211255Z 00000KT 7SM CLR 26/22 A2993 850 79 2400 000/00 RMK AO2
14837KMSN MSN20010721070009207/21/01 07:00:31  5-MIN KMSN 211300Z 00000KT 7SM CLR 26/23 A2993 850 81 2400 000/00 RMK AO2
14837KMSN MSN20010721070509207/21/01 07:05:31  5-MIN KMSN 211305Z 00000KT 7SM CLR 26/23 A2993 850 81 2400 000/00 RMK AO2
14837KMSN MSN20010721071009207/21/01 07:10:31  5-MIN KMSN 211310Z 00000KT 7SM CLR 27/23 A2993 850 79 2400 000/00 RMK AO2
14837KMSN MSN20010721071509207/21/01 07:15:31  5-MIN KMSN 211315Z 00000KT 7SM CLR 27/23 A2993 850 79 2400 000/00 RMK AO2
14837KMSN MSN20010721072009207/21/01 07:20:31  5-MIN KMSN 211320Z 00000KT 7SM CLR 27/23 A2993 850 79 2400 000/00 RMK AO2
14837KMSN MSN20010721072509207/21/01 07:25:31  5-MIN KMSN 211325Z VRB03KT 7SM CLR 26/23 A2993 850 81 2400 VRB/03 RMK AO2
14837KMSN MSN20010721073009207/21/01 07:30:31  5-MIN KMSN 211330Z 28003KT 7SM CLR 27/23 A2993 860 79 2400 270/03 RMK AO2
14837KMSN MSN20010721073509207/21/01 07:35:31  5-MIN KMSN 211335Z 00000KT 7SM CLR 27/23 A2993 860 79 2400 000/00 RMK AO2
14837KMSN MSN20010721074009507/21/01 07:40:31  5-MIN KMSN 211340Z 00000KT 7SM FEW014 26/23 A2993 850 81 2400 000/00 RMK AO2
14837KMSN MSN20010721074509507/21/01 07:45:31  5-MIN KMSN 211345Z 00000KT 7SM SCT014 27/23 A2993 860 76 2500 000/00 RMK AO2
14837KMSN MSN20010721075011207/21/01 07:50:31  5-MIN KMSN 211350Z 26003KT 7SM SCT014 27/23 A2993 860 79 2500 260/03 RMK AO2 SLP128 T02720233
14837KMSN MSN20010721075509507/21/01 07:55:31  5-MIN KMSN 211355Z 24003KT 7SM SCT014 27/23 A2993 860 79 2500 230/03 RMK AO2
14837KMSN MSN20010721080009507/21/01 08:00:31  5-MIN KMSN 211400Z 25003KT 7SM SCT014 27/23 A2993 860 82 2400 250/03 RMK AO2
14837KMSN MSN20010721080509507/21/01 08:05:31  5-MIN KMSN 211405Z 00000KT 7SM SCT014 27/23 A2993 860 79 2400 000/00 RMK AO2
14837KMSN MSN20010721081009507/21/01 08:10:31  5-MIN KMSN 211410Z 00000KT 8SM SCT014 27/23 A2993 860 79 2400 000/00 RMK AO2
14837KMSN MSN20010721081509507/21/01 08:15:31  5-MIN KMSN 211415Z 00000KT 8SM SCT014 27/23 A2993 860 76 2500 000/00 RMK AO2
14837KMSN MSN20010721082009507/21/01 08:20:31  5-MIN KMSN 211420Z 00000KT 9SM FEW014 27/22 A2992 860 74 2500 000/00 RMK AO2
14837KMSN MSN20010721082509507/21/01 08:25:31  5-MIN KMSN 211425Z 00000KT 9SM FEW014 28/23 A2992 870 74 2600 000/00 RMK AO2
14837KMSN MSN20010721083009207/21/01 08:30:31  5-MIN KMSN 211430Z 00000KT 9SM CLR 28/23 A2992 870 71 2600 000/00 RMK AO2
14837KMSN MSN20010721083509207/21/01 08:35:31  5-MIN KMSN 211435Z 26004KT 9SM CLR 28/23 A2991 870 74 2600 260/04 RMK AO2
14837KMSN MSN20010721084009207/21/01 08:40:31  5-MIN KMSN 211440Z 00000KT 9SM CLR 28/23 A2991 870 74 2600 000/00 RMK AO2
14837KMSN MSN20010721084509207/21/01 08:45:31  5-MIN KMSN 211445Z 00000KT 9SM CLR 28/23 A2991 870 71 2600 000/00 RMK AO2
14837KMSN MSN20010721085011607/21/01 08:50:31  5-MIN KMSN 211450Z VRB03KT 10SM CLR 28/23 A2991 880 74 2600 VRB/03 RMK AO2 SLP120 T02780228 53004
14837KMSN MSN20010721085509307/21/01 08:55:31  5-MIN KMSN 211455Z VRB03KT 10SM CLR 28/23 A2991 870 71 2600 VRB/03 RMK AO2
14837KMSN MSN20010721090009607/21/01 09:00:31  5-MIN KMSN 211500Z VRB03KT 10SM FEW015 28/23 A2991 870 71 2600 VRB/03 RMK AO2
14837KMSN MSN20010721090509607/21/01 09:05:31  5-MIN KMSN 211505Z 27004KT 10SM FEW015 28/23 A2991 870 71 2600 270/04 RMK AO2
14837KMSN MSN20010721091009607/21/01 09:10:31  5-MIN KMSN 211510Z 31004KT 10SM FEW015 28/22 A2991 870 69 2600 310/04 RMK AO2
14837KMSN MSN20010721091509607/21/01 09:15:31  5-MIN KMSN 211515Z VRB04KT 10SM FEW015 28/22 A2991 870 69 2600 VRB/04 RMK AO2
14837KMSN MSN20010721092009607/21/01 09:20:31  5-MIN KMSN 211520Z 28004KT 10SM FEW015 28/22 A2991 870 69 2600 280/04 RMK AO2
14837KMSN MSN20010721092509607/21/01 09:25:31  5-MIN KMSN 211525Z 25005KT 10SM FEW015 28/22 A2991 880 69 2600 250/05 RMK AO2
14837KMSN MSN20010721093009607/21/01 09:30:31  5-MIN KMSN 211530Z 23005KT 10SM FEW015 28/22 A2991 880 69 2600 230/05 RMK AO2
14837KMSN MSN20010721093509607/21/01 09:35:31  5-MIN KMSN 211535Z 23004KT 10SM FEW015 28/22 A2991 880 69 2600 230/04 RMK AO2
14837KMSN MSN20010721094009607/21/01 09:40:31  5-MIN KMSN 211540Z 25004KT 10SM FEW015 28/22 A2990 880 69 2600 250/04 RMK AO2
14837KMSN MSN20010721094509607/21/01 09:45:31  5-MIN KMSN 211545Z 00000KT 10SM FEW015 29/22 A2990 880 67 2700 000/00 RMK AO2
14837KMSN MSN20010721095011307/21/01 09:50:31  5-MIN KMSN 211550Z 00000KT 10SM SCT020 29/22 A2990 880 67 2700 000/00 RMK AO2 SLP118 T02890222
14837KMSN MSN20010721095509607/21/01 09:55:31  5-MIN KMSN 211555Z 21003KT 10SM SCT020 29/23 A2990 880 69 2700 210/03 RMK AO2
14837KMSN MSN20010721100009607/21/01 10:00:31  5-MIN KMSN 211600Z 23003KT 10SM SCT020 29/22 A2990 880 67 2700 230/03 RMK AO2
14837KMSN MSN20010721100509607/21/01 10:05:31  5-MIN KMSN 211605Z 17006KT 10SM SCT020 29/22 A2990 880 62 2800 170/06 RMK AO2
14837KMSN MSN20010721101009607/21/01 10:10:31  5-MIN KMSN 211610Z 16006KT 10SM SCT020 29/21 A2990 880 60 2800 160/06 RMK AO2
14837KMSN MSN20010721101509607/21/01 10:15:31  5-MIN KMSN 211615Z VRB03KT 10SM SCT020 29/21 A2990 880 62 2700 VRB/03 RMK AO2
14837KMSN MSN20010721102009607/21/01 10:20:31  5-MIN KMSN 211620Z 19006KT 10SM SCT020 29/21 A2990 880 58 2800 190/06 RMK AO2
14837KMSN MSN20010721102509607/21/01 10:25:31  5-MIN KMSN 211625Z 18005KT 10SM SCT020 29/21 A2990 880 58 2800 180/05 RMK AO2
14837KMSN MSN20010721103009607/21/01 10:30:31  5-MIN KMSN 211630Z VRB04KT 10SM SCT020 29/21 A2990 880 58 2800 VRB/04 RMK AO2
14837KMSN MSN20010721103509607/21/01 10:35:31  5-MIN KMSN 211635Z 18005KT 10SM SCT020 30/21 A2990 880 58 2800 180/05 RMK AO2
14837KMSN MSN20010721104009607/21/01 10:40:31  5-MIN KMSN 211640Z 24005KT 10SM SCT020 29/21 A2990 890 58 2800 240/05 RMK AO2
14837KMSN MSN20010721104509607/21/01 10:45:31  5-MIN KMSN 211645Z 00000KT 10SM SCT020 30/21 A2989 890 56 2800 000/00 RMK AO2
14837KMSN MSN20010721105011307/21/01 10:50:31  5-MIN KMSN 211650Z 23006KT 10SM SCT030 30/21 A2989 890 58 2800 220/06 RMK AO2 SLP116 T03000211
14837KMSN MSN20010721105509307/21/01 10:55:31  5-MIN KMSN 211655Z 24005KT 10SM CLR 30/21 A2990 890 56 2800 240/05 RMK AO2
14837KMSN MSN20010721110009307/21/01 11:00:31  5-MIN KMSN 211700Z VRB05KT 10SM CLR 31/22 A2990 890 58 2900 VRB/05 RMK AO2
14837KMSN MSN20010721110509307/21/01 11:05:31  5-MIN KMSN 211705Z 26005KT 10SM CLR 30/21 A2989 890 58 2800 260/05 RMK AO2
14837KMSN MSN20010721111009307/21/01 11:10:31  5-MIN KMSN 211710Z VRB05KT 10SM CLR 31/21 A2989 890 56 2900 VRB/05 RMK AO2
14837KMSN MSN20010721111509307/21/01 11:15:31  5-MIN KMSN 211715Z 23006KT 10SM CLR 30/21 A2989 890 58 2800 230/06 RMK AO2
14837KMSN MSN20010721112009307/21/01 11:20:31  5-MIN KMSN 211720Z 25005KT 10SM CLR 30/21 A2989 890 58 2800 250/05 RMK AO2
14837KMSN MSN20010721112509307/21/01 11:25:31  5-MIN KMSN 211725Z VRB06KT 10SM CLR 30/21 A2990 890 58 2800 VRB/06 RMK AO2
14837KMSN MSN20010721113009607/21/01 11:30:31  5-MIN KMSN 211730Z VRB05KT 10SM FEW030 31/22 A2990 890 58 2900 VRB/05 RMK AO2
14837KMSN MSN20010721113509607/21/01 11:35:31  5-MIN KMSN 211735Z VRB04KT 10SM FEW030 31/21 A2989 890 56 2900 VRB/04 RMK AO2
14837KMSN MSN20010721114009607/21/01 11:40:31  5-MIN KMSN 211740Z 27005KT 10SM FEW030 31/21 A2989 890 54 2900 270/05 RMK AO2
14837KMSN MSN20010721114509607/21/01 11:45:31  5-MIN KMSN 211745Z VRB03KT 10SM FEW030 31/20 A2990 880 52 2900 VRB/03 RMK AO2
14837KMSN MSN20010721115013107/21/01 11:50:31  5-MIN KMSN 211750Z VRB03KT 10SM FEW030 31/21 A2990 880 54 3000 VRB/03 RMK AO2 SLP118 T03110211 10311 20244 58004
14837KMSN MSN20010721115509307/21/01 11:55:31  5-MIN KMSN 211755Z 00000KT 10SM CLR 31/22 A2990 890 56 3000 000/00 RMK AO2
14837KMSN MSN20010721120009307/21/01 12:00:31  5-MIN KMSN 211800Z VRB04KT 10SM CLR 32/22 A2990 880 55 3000 VRB/04 RMK AO2
14837KMSN MSN20010721120509307/21/01 12:05:31  5-MIN KMSN 211805Z 32005KT 10SM CLR 32/21 A2990 880 53 3000 320/05 RMK AO2
14837KMSN MSN20010721121009307/21/01 12:10:31  5-MIN KMSN 211810Z 33006KT 10SM CLR 32/21 A2990 890 53 3000 330/06 RMK AO2
14837KMSN MSN20010721121509307/21/01 12:15:31  5-MIN KMSN 211815Z 34004KT 10SM CLR 31/21 A2990 890 54 3000 340/04 RMK AO2
14837KMSN MSN20010721122009607/21/01 12:20:31  5-MIN KMSN 211820Z 35003KT 10SM FEW030 32/21 A2990 890 53 3000 340/03 RMK AO2
14837KMSN MSN20010721122509607/21/01 12:25:31  5-MIN KMSN 211825Z VRB03KT 10SM FEW030 32/22 A2990 880 53 3100 VRB/03 RMK AO2
14837KMSN MSN20010721123009607/21/01 12:30:31  5-MIN KMSN 211830Z VRB04KT 10SM FEW030 32/22 A2990 880 55 3000 VRB/04 RMK AO2
14837KMSN MSN20010721123509607/21/01 12:35:31  5-MIN KMSN 211835Z 34003KT 10SM FEW030 32/22 A2990 880 55 3100 340/03 RMK AO2
14837KMSN MSN20010721124009607/21/01 12:40:31  5-MIN KMSN 211840Z 24005KT 10SM FEW030 32/22 A2990 880 56 3000 240/05 RMK AO2
14837KMSN MSN20010721124509607/21/01 12:45:31  5-MIN KMSN 211845Z VRB04KT 10SM SCT040 32/28 A2990 880 79 3000 VRB/04 RMK AO2
14837KMSN MSN20010721125011307/21/01 12:50:31  5-MIN KMSN 211850Z VRB04KT 10SM SCT040 32/28 A2989 890 79 3000 VRB/04 RMK AO2 SLP116 T03170278
14837KMSN MSN20010721125509607/21/01 12:55:31  5-MIN KMSN 211855Z 29006KT 10SM SCT040 32/22 A2990 890 55 3000 280/06 RMK AO2
14837KMSN MSN20010721130009607/21/01 13:00:31  5-MIN KMSN 211900Z 29005KT 10SM FEW040 32/21 A2989 890 53 3000 290/05 RMK AO2
14837KMSN MSN20010721130509607/21/01 13:05:31  5-MIN KMSN 211905Z 31007KT 10SM FEW040 32/21 A2989 890 53 3000 300/07 RMK AO2
14837KMSN MSN20010721131009607/21/01 13:10:31  5-MIN KMSN 211910Z 33007KT 10SM FEW040 32/22 A2989 890 55 3000 320/07 RMK AO2
14837KMSN MSN20010721131509607/21/01 13:15:31  5-MIN KMSN 211915Z VRB05KT 10SM FEW042 32/22 A2989 900 53 3100 VRB/05 RMK AO2
14837KMSN MSN20010721132009607/21/01 13:20:31  5-MIN KMSN 211920Z VRB05KT 10SM FEW040 32/22 A2988 900 55 3100 VRB/05 RMK AO2
14837KMSN MSN20010721132509607/21/01 13:25:31  5-MIN KMSN 211925Z 28005KT 10SM FEW040 32/22 A2988 900 55 3000 280/05 RMK AO2
14837KMSN MSN20010721133009607/21/01 13:30:31  5-MIN KMSN 211930Z 00000KT 10SM FEW040 32/22 A2988 900 55 3000 000/00 RMK AO2
14837KMSN MSN20010721133509607/21/01 13:35:31  5-MIN KMSN 211935Z 31004KT 10SM FEW040 32/22 A2988 900 55 3100 310/04 RMK AO2
14837KMSN MSN20010721134009607/21/01 13:40:31  5-MIN KMSN 211940Z 32007KT 10SM FEW040 32/22 A2988 900 55 3100 310/07 RMK AO2
14837KMSN MSN20010721134509607/21/01 13:45:31  5-MIN KMSN 211945Z 31005KT 10SM FEW040 32/22 A2988 900 55 3000 310/05 RMK AO2
14837KMSN MSN20010721135011307/21/01 13:50:31  5-MIN KMSN 211950Z 27006KT 10SM FEW040 32/22 A2988 900 53 3100 270/06 RMK AO2 SLP111 T03220217
14837KMSN MSN20010721135509307/21/01 13:55:31  5-MIN KMSN 211955Z VRB05KT 10SM CLR 32/22 A2987 910 53 3100 VRB/05 RMK AO2
14837KMSN MSN20010721140009307/21/01 14:00:31  5-MIN KMSN 212000Z 31003KT 10SM CLR 32/22 A2987 910 53 3100 310/03 RMK AO2
14837KMSN MSN20010721140509307/21/01 14:05:31  5-MIN KMSN 212005Z VRB05KT 10SM CLR 32/22 A2987 910 53 3100 VRB/05 RMK AO2
14837KMSN MSN20010721141009307/21/01 14:10:31  5-MIN KMSN 212010Z 33005KT 10SM CLR 32/22 A2987 910 53 3100 330/05 RMK AO2
14837KMSN MSN20010721141509307/21/01 14:15:31  5-MIN KMSN 212015Z 31004KT 10SM CLR 32/22 A2987 910 53 3100 310/04 RMK AO2
14837KMSN MSN20010721142009307/21/01 14:20:31  5-MIN KMSN 212020Z VRB04KT 10SM CLR 32/22 A2987 910 55 3100 VRB/04 RMK AO2
14837KMSN MSN20010721142509307/21/01 14:25:31  5-MIN KMSN 212025Z VRB05KT 10SM CLR 33/22 A2987 910 53 3200 VRB/05 RMK AO2
14837KMSN MSN20010721143009307/21/01 14:30:31  5-MIN KMSN 212030Z 33008KT 10SM CLR 33/22 A2987 910 51 3200 330/08 RMK AO2
14837KMSN MSN20010721143509607/21/01 14:35:31  5-MIN KMSN 212035Z VRB05KT 10SM FEW042 32/22 A2986 920 53 3100 VRB/05 RMK AO2
14837KMSN MSN20010721144009607/21/01 14:40:31  5-MIN KMSN 212040Z 29007KT 10SM FEW042 32/22 A2987 920 55 3100 290/07 RMK AO2
14837KMSN MSN20010721144509607/21/01 14:45:31  5-MIN KMSN 212045Z 29007KT 10SM FEW042 32/22 A2986 920 53 3100 290/07 RMK AO2
14837KMSN MSN20010721145011907/21/01 14:50:31  5-MIN KMSN 212050Z VRB06KT 10SM FEW042 32/22 A2986 920 53 3100 VRB/06 RMK AO2 SLP104 T03220217 55005
14837KMSN MSN20010721145509307/21/01 14:55:31  5-MIN KMSN 212055Z 30006KT 10SM CLR 32/22 A2986 920 55 3100 300/06 RMK AO2
14837KMSN MSN20010721150009607/21/01 15:00:31  5-MIN KMSN 212100Z 28006KT 10SM FEW042 32/22 A2986 920 55 3100 280/06 RMK AO2
14837KMSN MSN20010721150509607/21/01 15:05:31  5-MIN KMSN 212105Z 31005KT 10SM FEW042 32/22 A2986 920 55 3100 310/05 RMK AO2
14837KMSN MSN20010721151009607/21/01 15:10:31  5-MIN KMSN 212110Z 30007KT 10SM FEW042 32/22 A2986 920 53 3100 300/07 RMK AO2
14837KMSN MSN20010721151509607/21/01 15:15:31  5-MIN KMSN 212115Z VRB04KT 10SM FEW042 33/22 A2986 920 51 3200 VRB/04 RMK AO2
14837KMSN MSN20010721152009607/21/01 15:20:31  5-MIN KMSN 212120Z VRB06KT 10SM FEW042 33/22 A2986 920 51 3200 VRB/06 RMK AO2
14837KMSN MSN20010721152509607/21/01 15:25:31  5-MIN KMSN 212125Z 32006KT 10SM FEW042 32/22 A2986 920 53 3100 320/06 RMK AO2
14837KMSN MSN20010721153009607/21/01 15:30:31  5-MIN KMSN 212130Z VRB04KT 10SM FEW042 32/22 A2986 920 55 3100 VRB/04 RMK AO2
14837KMSN MSN20010721153511207/21/01 15:35:31  5-MIN KMSN 212135Z 32007KT 270V350 10SM FEW042 32/22 A2986 920 53 3100 320/07 270V350 RMK AO2
14837KMSN MSN20010721154009607/21/01 15:40:31  5-MIN KMSN 212140Z VRB06KT 10SM FEW045 32/22 A2986 920 53 3100 VRB/06 RMK AO2
14837KMSN MSN20010721154509607/21/01 15:45:31  5-MIN KMSN 212145Z 29004KT 10SM FEW045 32/22 A2985 930 53 3100 290/04 RMK AO2
14837KMSN MSN20010721155011307/21/01 15:50:31  5-MIN KMSN 212150Z 00000KT 10SM FEW045 33/22 A2985 930 53 3200 000/00 RMK AO2 SLP100 T03280222
14837KMSN MSN20010721155509307/21/01 15:55:31  5-MIN KMSN 212155Z 34005KT 10SM CLR 33/22 A2985 930 53 3200 340/05 RMK AO2
14837KMSN MSN20010721160009307/21/01 16:00:31  5-MIN KMSN 212200Z 35005KT 10SM CLR 33/22 A2984 930 53 3200 350/05 RMK AO2
14837KMSN MSN20010721160509307/21/01 16:05:31  5-MIN KMSN 212205Z 35005KT 10SM CLR 33/23 A2984 940 55 3200 350/05 RMK AO2
14837KMSN MSN20010721161009307/21/01 16:10:31  5-MIN KMSN 212210Z 36005KT 10SM CLR 33/22 A2984 940 53 3200 360/05 RMK AO2
14837KMSN MSN20010721161509307/21/01 16:15:31  5-MIN KMSN 212215Z 34005KT 10SM CLR 32/22 A2984 940 55 3100 340/05 RMK AO2
14837KMSN MSN20010721162009307/21/01 16:20:31  5-MIN KMSN 212220Z VRB03KT 10SM CLR 31/22 A2984 940 58 3000 VRB/03 RMK AO2
14837KMSN MSN20010721162509307/21/01 16:25:31  5-MIN KMSN 212225Z 00000KT 10SM CLR 31/22 A2984 940 58 3000 000/00 RMK AO2
14837KMSN MSN20010721163009307/21/01 16:30:31  5-MIN KMSN 212230Z 00000KT 10SM CLR 31/23 A2983 950 65 3000 000/00 RMK AO2
14837KMSN MSN20010721163509307/21/01 16:35:31  5-MIN KMSN 212235Z 00000KT 10SM CLR 31/23 A2983 950 65 3000 000/00 RMK AO2
14837KMSN MSN20010721164009307/21/01 16:40:31  5-MIN KMSN 212240Z 00000KT 10SM CLR 31/23 A2983 950 60 3000 000/00 RMK AO2
14837KMSN MSN20010721164509307/21/01 16:45:31  5-MIN KMSN 212245Z 00000KT 10SM CLR 31/23 A2983 950 60 3000 000/00 RMK AO2
14837KMSN MSN20010721165011307/21/01 16:50:31  5-MIN KMSN 212250Z 00000KT 10SM FEW045 31/23 A2982 950 63 3000 000/00 RMK AO2 SLP092 T03110233
14837KMSN MSN20010721165509307/21/01 16:55:31  5-MIN KMSN 212255Z 00000KT 10SM CLR 31/23 A2982 960 65 3000 000/00 RMK AO2
14837KMSN MSN20010721170009307/21/01 17:00:31  5-MIN KMSN 212300Z 01003KT 10SM CLR 31/24 A2982 960 67 3000 010/03 RMK AO2
14837KMSN MSN20010721170509307/21/01 17:05:31  5-MIN KMSN 212305Z 00000KT 10SM CLR 30/24 A2982 960 69 2900 000/00 RMK AO2
14837KMSN MSN20010721171009307/21/01 17:10:31  5-MIN KMSN 212310Z 36003KT 10SM CLR 30/24 A2982 960 72 2900 360/03 RMK AO2
14837KMSN MSN20010721171509307/21/01 17:15:31  5-MIN KMSN 212315Z 36003KT 10SM CLR 30/24 A2982 960 72 2900 360/03 RMK AO2
14837KMSN MSN20010721172009307/21/01 17:20:31  5-MIN KMSN 212320Z 36003KT 10SM CLR 30/24 A2982 960 69 2900 360/03 RMK AO2
14837KMSN MSN20010721172509307/21/01 17:25:31  5-MIN KMSN 212325Z 36003KT 10SM CLR 30/24 A2982 960 69 2900 350/03 RMK AO2
14837KMSN MSN20010721173009307/21/01 17:30:31  5-MIN KMSN 212330Z 00000KT 10SM CLR 30/23 A2982 960 67 2900 000/00 RMK AO2
14837KMSN MSN20010721173509307/21/01 17:35:31  5-MIN KMSN 212335Z 00000KT 10SM CLR 30/24 A2982 960 72 2900 000/00 RMK AO2
14837KMSN MSN20010721174009307/21/01 17:40:31  5-MIN KMSN 212340Z 36003KT 10SM CLR 30/24 A2982 960 69 2900 360/03 RMK AO2
14837KMSN MSN20010721174509307/21/01 17:45:31  5-MIN KMSN 212345Z 36003KT 10SM CLR 30/24 A2982 950 72 2900 360/03 RMK AO2
14837KMSN MSN20010721175012807/21/01 17:50:31  5-MIN KMSN 212350Z 01004KT 10SM CLR 30/24 A2982 960 69 2900 010/04 RMK AO2 SLP091 T03000239 10328 20300 58013
14837KMSN MSN20010721175509307/21/01 17:55:31  5-MIN KMSN 212355Z 00000KT 10SM CLR 30/24 A2982 960 72 2900 000/00 RMK AO2
14837KMSN MSN20010721180009307/21/01 18:00:31  5-MIN KMSN 220000Z 00000KT 10SM CLR 30/24 A2982 960 69 2900 000/00 RMK AO2
14837KMSN MSN20010721180509307/21/01 18:05:31  5-MIN KMSN 220005Z 00000KT 10SM CLR 31/24 A2982 960 69 3000 000/00 RMK AO2
14837KMSN MSN20010721181009307/21/01 18:10:31  5-MIN KMSN 220010Z 00000KT 10SM CLR 31/24 A2982 960 67 3000 000/00 RMK AO2
14837KMSN MSN20010721181509307/21/01 18:15:31  5-MIN KMSN 220015Z 00000KT 10SM CLR 30/24 A2982 960 72 2900 000/00 RMK AO2
14837KMSN MSN20010721182009307/21/01 18:20:31  5-MIN KMSN 220020Z 00000KT 10SM CLR 30/23 A2983 950 67 2900 000/00 RMK AO2
14837KMSN MSN20010721182509307/21/01 18:25:31  5-MIN KMSN 220025Z 00000KT 10SM CLR 29/23 A2983 950 69 2900 000/00 RMK AO2
14837KMSN MSN20010722114009507/22/01 11:40:31  5-MIN KMSN 221740Z 00000KT 9SM SCT055 32/26 A2985 930 69 3100 000/00 RMK AO2
14837KMSN MSN20010722114510307/22/01 11:45:31  5-MIN KMSN 221745Z 28005KT 10SM FEW043 SCT060 31/24 A2985 930 67 3000 280/05 RMK AO2
14837KMSN MSN20010722115013807/22/01 11:50:31  5-MIN KMSN 221750Z VRB04KT 10SM FEW045 SCT055 32/25 A2986 920 67 3100 VRB/04 RMK AO2 SLP103 T03170250 10322 20250 50004
14837KMSN MSN20010722115510307/22/01 11:55:31  5-MIN KMSN 221755Z 31006KT 10SM FEW045 SCT055 32/26 A2986 920 67 3100 300/06 RMK AO2
14837KMSN MSN20010722120009607/22/01 12:00:31  5-MIN KMSN 221800Z VRB03KT 10SM FEW045 31/24 A2986 920 67 3000 VRB/03 RMK AO2
14837KMSN MSN20010722120513207/22/01 12:05:31  5-MIN KMSN 221805Z 24005KT 10SM FEW032 SCT055 31/24 A2987 910 69 2900 240/05 RMK AO2 OCNL LTGICCG VC S TS S MOV E
14837KMSN MSN20010722121018407/22/01 12:10:31  5-MIN KMSN 221810Z 17013G17KT 130V190 9SM -TSRA SCT032 SCT044 BKN050 29/21 A2987 910 60 2800 170/13G17 130V190 RMK AO2 TSB07RAB07 OCNL LTGICCG OHD TS OHD MOV E P0000
14837KMSN MSN20010722121516807/22/01 12:15:31  5-MIN KMSN 221815Z VRB06G20KT 6SM -TSRA BKN030 BKN050 27/17 A2990 880 55 2500 VRB/06G20 RMK AO2 TSB07RAB07 PRESRR OCNL LTGICCG OHD TS OHD MOV E P0002
14837KMSN MSN20010722122016007/22/01 12:20:31  5-MIN KMSN 221820Z VRB06G20KT 6SM -TSRA BKN030 BKN036 26/19 A2990 880 68 2300 VRB/06G20 RMK AO2 TSB07RAB07 FRQ LTGICCG OHD TS OHD MOV E P0003
14837KMSN MSN20010722122517607/22/01 12:25:31  5-MIN KMSN 221825Z 14012G17KT 9SM -TSRA FEW021 BKN030 BKN036 24/21 A2992 870 78 2200 140/12G17 RMK AO2 TSB07RAB07 PRESRR FRQ LTGICCCCG OHD TS OHD MOV E P0003
14837KMSN MSN20010722123017507/22/01 12:30:31  5-MIN KMSN 221830Z VRB04G17KT 4SM TSRA SCT021 BKN030 OVC036 24/21 A2993 860 81 2100 VRB/04G17 RMK AO2 TSB07RAB07 PRESRR FRQ LTGICCCCG OHD TS OHD MOV E P0007
14837KMSN MSN20010722123517007/22/01 12:35:31  5-MIN KMSN 221835Z VRB06KT 4SM -TSRA FEW022 BKN030 OVC055 24/21 A2994 840 81 2100 VRB/06 RMK AO2 TSB07RAB07 PRESRR FRQ LTGICCCCG OHD TS OHD MOV E P0008
14837KMSN MSN20010722124017007/22/01 12:40:31  5-MIN KMSN 221840Z 14008G15KT 8SM -TSRA FEW022 BKN029 OVC050 23/21 A2995 840 87 2000 140/08G15 RMK AO2 TSB07RAB07 OCNL LTGICCCCG OHD TS OHD MOV E P0008
14837KMSN MSN20010722124517107/22/01 12:45:31  5-MIN KMSN 221845Z 13007G15KT 10SM -TSRA FEW022 SCT029 BKN050 23/21 A2995 840 90 2000 130/07G15 RMK AO2 TSB07RAB07 OCNL LTGICCCCG OHD TS OHD MOV E P0008
14837KMSN MSN20010722125018207/22/01 12:50:31  5-MIN KMSN 221850Z 14013KT 10SM -TSRA FEW022 SCT029 BKN050 23/22 A2995 840 90 2000 130/13 RMK AO2 TSB07RAB07 SLP136 OCNL LTGICCCCG OHD TS OHD MOV E P0008 T02330217
14837KMSN MSN20010722125511007/22/01 12:55:31  5-MIN KMSN 221855Z 12010KT 10SM SCT025 SCT043 OVC050 23/22 A2993 850 93 2000 120/10 RMK AO2
14837KMSN MSN20010722130010307/22/01 13:00:31  5-MIN KMSN 221900Z 13009KT 10SM FEW027 OVC050 23/22 A2993 860 90 2100 130/09 RMK AO2
14837KMSN MSN20010722130511007/22/01 13:05:31  5-MIN KMSN 221905Z 11008KT 10SM FEW027 BKN050 OVC070 23/21 A2993 860 87 2100 110/08 RMK AO2
14837KMSN MSN20010722131010207/22/01 13:10:31  5-MIN KMSN 221910Z 05008KT 9SM BKN050 OVC070 24/22 A2993 860 87 2100 050/08 RMK AO2
14837KMSN MSN20010722131510207/22/01 13:15:31  5-MIN KMSN 221915Z 07006KT 9SM BKN050 OVC070 23/22 A2992 860 90 2100 070/06 RMK AO2
14837KMSN MSN20010722132010307/22/01 13:20:31  5-MIN KMSN 221920Z 11006KT 10SM SCT050 OVC070 23/22 A2991 870 90 2100 110/06 RMK AO2
14837KMSN MSN20010722132510307/22/01 13:25:31  5-MIN KMSN 221925Z 14004KT 10SM SCT050 OVC065 24/22 A2991 880 87 2100 140/04 RMK AO2
14837KMSN MSN20010722133011007/22/01 13:30:31  5-MIN KMSN 221930Z VRB03KT 10SM FEW050 BKN065 24/22 A2990 880 87 2200 VRB/03 RMK AO2 PRESFR
14837KMSN MSN20010722133510307/22/01 13:35:31  5-MIN KMSN 221935Z 36004KT 10SM FEW050 BKN065 25/23 A2990 890 87 2300 350/04 RMK AO2
14837KMSN MSN20010722134010307/22/01 13:40:31  5-MIN KMSN 221940Z 00000KT 10SM FEW050 BKN065 26/23 A2990 890 84 2300 000/00 RMK AO2
14837KMSN MSN20010722134510307/22/01 13:45:31  5-MIN KMSN 221945Z 00000KT 10SM FEW050 BKN065 27/22 A2990 890 76 2500 000/00 RMK AO2
14837KMSN MSN20010722135012007/22/01 13:50:31  5-MIN KMSN 221950Z 14005KT 10SM FEW050 SCT065 27/22 A2990 890 76 2500 140/05 RMK AO2 SLP118 T02670222
14837KMSN MSN20010722135509607/22/01 13:55:31  5-MIN KMSN 221955Z 15005KT 10SM SCT065 27/19 A2990 890 60 2500 150/05 RMK AO2
14837KMSN MSN20010722140009607/22/01 14:00:31  5-MIN KMSN 222000Z 14005KT 10SM FEW070 27/19 A2990 880 60 2500 140/05 RMK AO2
14837KMSN MSN20010722140509607/22/01 14:05:31  5-MIN KMSN 222005Z 18007KT 10SM FEW065 28/19 A2990 880 58 2600 180/07 RMK AO2
14837KMSN MSN20010722141009307/22/01 14:10:31  5-MIN KMSN 222010Z 18006KT 10SM CLR 28/18 A2989 890 54 2600 180/06 RMK AO2
14837KMSN MSN20010722141509307/22/01 14:15:31  5-MIN KMSN 222015Z 16005KT 10SM CLR 28/18 A2989 890 56 2600 160/05 RMK AO2
14837KMSN MSN20010722142009307/22/01 14:20:31  5-MIN KMSN 222020Z 15007KT 10SM CLR 28/19 A2988 900 56 2700 140/07 RMK AO2
14837KMSN MSN20010722142509307/22/01 14:25:31  5-MIN KMSN 222025Z 17007KT 10SM CLR 28/18 A2988 900 54 2700 170/07 RMK AO2
14837KMSN MSN20010722143009307/22/01 14:30:31  5-MIN KMSN 222030Z 17009KT 10SM CLR 28/18 A2989 900 54 2700 170/09 RMK AO2
14837KMSN MSN20010722143509307/22/01 14:35:31  5-MIN KMSN 222035Z 17010KT 10SM CLR 28/18 A2989 890 54 2700 170/10 RMK AO2
14837KMSN MSN20010722144009607/22/01 14:40:31  5-MIN KMSN 222040Z 17013KT 10SM FEW065 28/19 A2989 890 58 2600 170/13 RMK AO2
14837KMSN MSN20010722144510207/22/01 14:45:31  5-MIN KMSN 222045Z 17009G16KT 10SM FEW065 27/19 A2988 900 60 2500 160/09G16 RMK AO2
14837KMSN MSN20010722145012507/22/01 14:50:31  5-MIN KMSN 222050Z 15007KT 10SM FEW065 27/19 A2988 900 62 2500 150/07 RMK AO2 SLP112 60008 T02670189 55004
14837KMSN MSN20010722145509307/22/01 14:55:31  5-MIN KMSN 222055Z 14008KT 10SM CLR 27/19 A2988 900 64 2500 140/08 RMK AO2
14837KMSN MSN20010722150009307/22/01 15:00:31  5-MIN KMSN 222100Z 15006KT 10SM CLR 26/19 A2988 900 66 2400 150/06 RMK AO2
14837KMSN MSN20010722150509307/22/01 15:05:31  5-MIN KMSN 222105Z 15006KT 10SM CLR 27/19 A2988 900 64 2500 150/06 RMK AO2
14837KMSN MSN20010722151009307/22/01 15:10:31  5-MIN KMSN 222110Z 15003KT 10SM CLR 27/19 A2988 900 64 2500 150/03 RMK AO2
14837KMSN MSN20010722151509307/22/01 15:15:31  5-MIN KMSN 222115Z 16003KT 10SM CLR 27/19 A2988 900 64 2500 160/03 RMK AO2
14837KMSN MSN20010722152009307/22/01 15:20:31  5-MIN KMSN 222120Z 18004KT 10SM CLR 27/19 A2988 900 64 2500 180/04 RMK AO2
14837KMSN MSN20010722152509307/22/01 15:25:31  5-MIN KMSN 222125Z VRB03KT 10SM CLR 27/20 A2987 910 64 2600 VRB/03 RMK AO2
14837KMSN MSN20010722153009307/22/01 15:30:31  5-MIN KMSN 222130Z VRB04KT 10SM CLR 27/20 A2987 910 66 2500 VRB/04 RMK AO2
14837KMSN MSN20010722153509307/22/01 15:35:31  5-MIN KMSN 222135Z 16004KT 10SM CLR 27/20 A2987 910 66 2500 150/04 RMK AO2
14837KMSN MSN20010722154009307/22/01 15:40:31  5-MIN KMSN 222140Z 16004KT 10SM CLR 27/21 A2987 910 66 2600 160/04 RMK AO2
14837KMSN MSN20010722154509307/22/01 15:45:31  5-MIN KMSN 222145Z 16005KT 10SM CLR 27/21 A2987 910 69 2600 160/05 RMK AO2
14837KMSN MSN20010722155011307/22/01 15:50:31  5-MIN KMSN 222150Z 15006KT 10SM FEW065 27/21 A2987 910 66 2600 150/06 RMK AO2 SLP109 T02720206
14837KMSN MSN20010722155509307/22/01 15:55:31  5-MIN KMSN 222155Z 13004KT 10SM CLR 27/21 A2987 910 66 2600 130/04 RMK AO2
14837KMSN MSN20010722160009307/22/01 16:00:31  5-MIN KMSN 222200Z 00000KT 10SM CLR 27/21 A2987 910 66 2600 000/00 RMK AO2
14837KMSN MSN20010722160509307/22/01 16:05:31  5-MIN KMSN 222205Z 00000KT 10SM CLR 28/21 A2988 900 64 2600 000/00 RMK AO2
14837KMSN MSN20010722161009307/22/01 16:10:31  5-MIN KMSN 222210Z 00000KT 10SM CLR 28/21 A2988 900 64 2600 000/00 RMK AO2
14837KMSN MSN20010722161509307/22/01 16:15:31  5-MIN KMSN 222215Z 00000KT 10SM CLR 28/21 A2988 900 64 2600 000/00 RMK AO2
14837KMSN MSN20010722162009307/22/01 16:20:31  5-MIN KMSN 222220Z VRB03KT 10SM CLR 28/21 A2988 900 66 2600 VRB/03 RMK AO2
14837KMSN MSN20010722162509307/22/01 16:25:31  5-MIN KMSN 222225Z 00000KT 10SM CLR 27/21 A2988 900 69 2600 000/00 RMK AO2
14837KMSN MSN20010722163009307/22/01 16:30:31  5-MIN KMSN 222230Z 00000KT 10SM CLR 27/21 A2988 910 69 2600 000/00 RMK AO2
14837KMSN MSN20010722163509307/22/01 16:35:31  5-MIN KMSN 222235Z 06005KT 10SM CLR 27/21 A2988 900 69 2600 060/05 RMK AO2
14837KMSN MSN20010722164009307/22/01 16:40:31  5-MIN KMSN 222240Z 08006KT 10SM CLR 27/21 A2988 910 69 2600 080/06 RMK AO2
14837KMSN MSN20010722164509307/22/01 16:45:31  5-MIN KMSN 222245Z 11004KT 10SM CLR 27/22 A2987 910 71 2600 110/04 RMK AO2
14837KMSN MSN20010722165011307/22/01 16:50:31  5-MIN KMSN 222250Z 12009KT 10SM FEW075 27/21 A2987 910 69 2600 120/09 RMK AO2 SLP109 T02720211
14837KMSN MSN20010722165509307/22/01 16:55:31  5-MIN KMSN 222255Z 13008KT 10SM CLR 27/21 A2987 910 66 2600 130/08 RMK AO2
14837KMSN MSN20010722170009307/22/01 17:00:31  5-MIN KMSN 222300Z 13005KT 10SM CLR 27/21 A2987 910 66 2600 130/05 RMK AO2
14837KMSN MSN20010722170509607/22/01 17:05:31  5-MIN KMSN 222305Z 11005KT 10SM SCT120 27/21 A2988 900 66 2600 110/05 RMK AO2
14837KMSN MSN20010722171009607/22/01 17:10:31  5-MIN KMSN 222310Z 11005KT 10SM SCT120 27/22 A2988 900 73 2500 110/05 RMK AO2
14837KMSN MSN20010722171509607/22/01 17:15:31  5-MIN KMSN 222315Z 11008KT 10SM FEW120 27/22 A2988 900 73 2500 110/08 RMK AO2
14837KMSN MSN20010722172009607/22/01 17:20:31  5-MIN KMSN 222320Z 10008KT 10SM FEW120 26/22 A2988 900 76 2400 100/08 RMK AO2
14837KMSN MSN20010722172509607/22/01 17:25:31  5-MIN KMSN 222325Z 11009KT 10SM FEW120 26/22 A2988 900 76 2400 110/09 RMK AO2
14837KMSN MSN20010722173009607/22/01 17:30:31  5-MIN KMSN 222330Z 11008KT 10SM FEW120 26/21 A2988 900 73 2400 110/08 RMK AO2
14837KMSN MSN20010722173509607/22/01 17:35:31  5-MIN KMSN 222335Z 13008KT 10SM FEW120 26/21 A2988 910 73 2400 130/08 RMK AO2
14837KMSN MSN20010722174009307/22/01 17:40:31  5-MIN KMSN 222340Z 12008KT 10SM CLR 26/21 A2987 910 73 2400 120/08 RMK AO2
14837KMSN MSN20010722174509307/22/01 17:45:31  5-MIN KMSN 222345Z 13009KT 10SM CLR 26/21 A2987 910 71 2400 130/09 RMK AO2
14837KMSN MSN20010722175013707/22/01 17:50:31  5-MIN KMSN 222350Z 12010KT 10SM SCT120 26/20 A2987 910 68 2400 120/10 RMK AO2 SLP108 60008 T02610200 10322 20228 50008
14837KMSN MSN20010722175509307/22/01 17:55:31  5-MIN KMSN 222355Z 12008KT 10SM CLR 26/20 A2987 910 68 2400 120/08 RMK AO2
14837KMSN MSN20010722180009307/22/01 18:00:31  5-MIN KMSN 230000Z 12010KT 10SM CLR 26/21 A2987 920 73 2400 120/10 RMK AO2
14837KMSN MSN20010722180509307/22/01 18:05:31  5-MIN KMSN 230005Z 13007KT 10SM CLR 26/22 A2986 920 76 2500 130/07 RMK AO2
14837KMSN MSN20010722181009307/22/01 18:10:31  5-MIN KMSN 230010Z 13010KT 10SM CLR 26/22 A2986 920 79 2400 130/10 RMK AO2
14837KMSN MSN20010722181509307/22/01 18:15:31  5-MIN KMSN 230015Z 13010KT 10SM CLR 26/22 A2986 920 79 2400 130/10 RMK AO2
14837KMSN MSN20010722182009307/22/01 18:20:31  5-MIN KMSN 230020Z 12010KT 10SM CLR 26/22 A2986 920 79 2400 120/10 RMK AO2
14837KMSN MSN20010722182509307/22/01 18:25:31  5-MIN KMSN 230025Z 14008KT 10SM CLR 26/22 A2985 930 79 2400 140/08 RMK AO2
14837KMSN MSN20010722183009307/22/01 18:30:31  5-MIN KMSN 230030Z 14009KT 10SM CLR 26/22 A2986 920 79 2400 140/09 RMK AO2
14837KMSN MSN20010722183509307/22/01 18:35:31  5-MIN KMSN 230035Z 14008KT 10SM CLR 26/21 A2986 920 76 2400 140/08 RMK AO2
14837KMSN MSN20010722184009607/22/01 18:40:31  5-MIN KMSN 230040Z 16008KT 10SM FEW080 26/21 A2986 920 76 2400 150/08 RMK AO2
14837KMSN MSN20010722184509607/22/01 18:45:31  5-MIN KMSN 230045Z 14007KT 10SM SCT080 26/21 A2986 920 76 2400 140/07 RMK AO2
14837KMSN MSN20010722185011307/22/01 18:50:31  5-MIN KMSN 230050Z 14008KT 10SM SCT085 26/21 A2985 930 76 2400 140/08 RMK AO2 SLP103 T02560211
14837KMSN MSN20010722185509607/22/01 18:55:31  5-MIN KMSN 230055Z 13008KT 10SM SCT085 25/21 A2986 920 79 2300 130/08 RMK AO2
14837KMSN MSN20010722190009607/22/01 19:00:31  5-MIN KMSN 230100Z 15007KT 10SM SCT085 26/21 A2986 920 76 2400 150/07 RMK AO2
14837KMSN MSN20010722190510307/22/01 19:05:31  5-MIN KMSN 230105Z 14006KT 10SM BKN085 BKN100 25/21 A2987 910 79 2300 140/06 RMK AO2
14837KMSN MSN20010722191011007/22/01 19:10:31  5-MIN KMSN 230110Z 00000KT 10SM BKN085 BKN100 26/21 A2988 910 76 2400 000/00 RMK AO2 PRESRR
14837KMSN MSN20010722191511007/22/01 19:15:31  5-MIN KMSN 230115Z 30010KT 10SM BKN085 BKN100 25/21 A2990 880 79 2300 300/10 RMK AO2 PRESRR
14837KMSN MSN20010722192012307/22/01 19:20:31  5-MIN KMSN 230120Z 31011G15KT 10SM FEW025 SCT049 BKN085 26/21 A2991 870 76 2300 310/11G15 RMK AO2 PRESRR
14837KMSN MSN20010722192516507/22/01 19:25:31  5-MIN KMSN 230125Z 33009KT 7SM -TSRA FEW023 BKN050 OVC100 25/21 A2989 890 79 2300 330/09 RMK AO2 TSB22RAB24 OCNL LTGICCG VC N TS VC N MOV SE P0001
14837KMSN MSN20010722193016807/22/01 19:30:31  5-MIN KMSN 230130Z 01008KT 4SM -TSRA BR SCT016 BKN050 OVC100 24/22 A2989 890 87 2200 010/08 RMK AO2 TSB22RAB24 OCNL LTGICCG VC N TS VC N MOV SE P0004
14837KMSN MSN20010722193517507/22/01 19:35:31  5-MIN KMSN 230135Z 02010KT 4SM -TSRA BR BKN022 BKN048 OVC085 24/22 A2988 900 87 2200 020/10 RMK AO2 TSB22RAB24 PRESFR OCNL LTGICCG VC N TS VC N MOV SE P0004
14837KMSN MSN20010722194016507/22/01 19:40:31  5-MIN KMSN 230140Z 03011KT 8SM -TSRA BKN025 BKN048 BKN090 24/22 A2988 900 87 2200 030/11 RMK AO2 TSB22RAB24 OCNL LTGICCG VC N TS VC N MOV SE P0004
14837KMSN MSN20010722194515907/22/01 19:45:31  5-MIN KMSN 230145Z 04011KT 10SM -TSRA SCT025 BKN048 24/22 A2988 900 87 2200 040/11 RMK AO2 TSB22RAB24 OCNL LTGICCG VC N TS VC N MOV SE P0004
14837KMSN MSN20010722195018807/22/01 19:50:31  5-MIN KMSN 230150Z 05007KT 10SM -TSRA SCT025 SCT050 BKN090 24/22 A2988 910 87 2200 050/07 RMK AO2 TSB22RAB24 SLP111 OCNL LTGICCG VC N-NE TS VC N-NE MOV E P0004 T02390217
14837KMSN MSN20010722195514607/22/01 19:55:31  5-MIN KMSN 230155Z 05008KT 10SM -TSRA SCT037 23/22 A2987 910 90 2100 050/08 RMK AO2 OCNL LTGICCG VC N-NE TS VC N-NE MOV E P0000
14837KMSN MSN20010722200014607/22/01 20:00:31  5-MIN KMSN 230200Z 08007KT 10SM -TSRA FEW044 23/22 A2988 900 90 2100 080/07 RMK AO2 OCNL LTGICCG VC N-NE TS VC N-NE MOV E P0000
14837KMSN MSN20010722200515307/22/01 20:05:31  5-MIN KMSN 230205Z 08005KT 10SM -TSRA FEW050 SCT090 23/21 A2988 900 87 2100 080/05 RMK AO2 OCNL LTGICCG VC N-NE TS VC N-NE MOV E P0000
14837KMSN MSN20010722201016007/22/01 20:10:31  5-MIN KMSN 230210Z 33004KT 10SM -TSRA FEW060 SCT080 BKN100 23/22 A2990 890 90 2100 330/04 RMK AO2 OCNL LTGICCG VC N-NE TS VC N-NE MOV E P0000
14837KMSN MSN20010722201516107/22/01 20:15:31  5-MIN KMSN 230215Z 06004KT 10SM TS FEW060 SCT075 BKN090 23/22 A2989 890 93 2000 060/04 RMK AO2 RAE12 OCNL LTGICCG DSNT E TS DSNT E MOV E P0000
14837KMSN MSN20010722202015407/22/01 20:20:31  5-MIN KMSN 230220Z 08005KT 10SM TS SCT075 BKN095 23/22 A2988 900 90 2100 070/05 RMK AO2 RAE12 OCNL LTGICCG DSNT E TS DSNT E MOV E P0000
14837KMSN MSN20010722202512907/22/01 20:25:31  5-MIN KMSN 230225Z 08005KT 10SM BKN075 BKN095 23/22 A2988 900 90 2100 080/05 RMK AO2 TSE21RAE12 TS MOV E P0000
14837KMSN MSN20010722203012907/22/01 20:30:31  5-MIN KMSN 230230Z 08005KT 10SM BKN080 BKN095 23/22 A2988 900 90 2100 080/05 RMK AO2 TSE21RAE12 TS MOV E P0000
14837KMSN MSN20010722203512207/22/01 20:35:31  5-MIN KMSN 230235Z 11005KT 10SM BKN075 23/22 A2988 900 90 2100 110/05 RMK AO2 TSE21RAE12 TS MOV E P0000
14837KMSN MSN20010722204012207/22/01 20:40:31  5-MIN KMSN 230240Z 11008KT 10SM BKN075 23/22 A2988 900 90 2100 110/08 RMK AO2 TSE21RAE12 TS MOV E P0000
14837KMSN MSN20010722204512207/22/01 20:45:31  5-MIN KMSN 230245Z 12007KT 10SM SCT075 23/22 A2988 900 90 2100 120/07 RMK AO2 TSE21RAE12 TS MOV E P0000
14837KMSN MSN20010722205014207/22/01 20:50:31  5-MIN KMSN 230250Z 14008KT 10SM BKN075 23/22 A2988 900 90 2100 140/08 RMK AO2 TSE21RAE12 SLP110 P0000 60004 T02330217 55004
14837KMSN MSN20010722205509607/22/01 20:55:31  5-MIN KMSN 230255Z 15007KT 10SM FEW075 23/22 A2988 910 90 2100 150/07 RMK AO2
14837KMSN MSN20010722210009607/22/01 21:00:31  5-MIN KMSN 230300Z 15006KT 10SM FEW075 23/21 A2988 910 87 2100 140/06 RMK AO2
14837KMSN MSN20010722210509307/22/01 21:05:31  5-MIN KMSN 230305Z 14004KT 10SM CLR 23/21 A2988 910 87 2100 140/04 RMK AO2
14837KMSN MSN20010722211009307/22/01 21:10:31  5-MIN KMSN 230310Z 13005KT 10SM CLR 23/21 A2988 910 87 2100 130/05 RMK AO2
14837KMSN MSN20010722211509307/22/01 21:15:31  5-MIN KMSN 230315Z 13004KT 10SM CLR 23/21 A2988 910 87 2100 130/04 RMK AO2
14837KMSN MSN20010722212009607/22/01 21:20:31  5-MIN KMSN 230320Z 13006KT 10SM FEW095 23/21 A2987 910 87 2100 130/06 RMK AO2
14837KMSN MSN20010722212509607/22/01 21:25:31  5-MIN KMSN 230325Z 14007KT 10SM SCT090 23/22 A2987 910 90 2100 140/07 RMK AO2
14837KMSN MSN20010722213009607/22/01 21:30:31  5-MIN KMSN 230330Z 15007KT 10SM SCT090 23/22 A2987 910 90 2100 150/07 RMK AO2
14837KMSN MSN20010722213509607/22/01 21:35:31  5-MIN KMSN 230335Z 15007KT 10SM SCT090 23/22 A2987 910 90 2100 150/07 RMK AO2
14837KMSN MSN20010722214009607/22/01 21:40:31  5-MIN KMSN 230340Z 15004KT 10SM SCT090 23/22 A2986 920 90 2100 150/04 RMK AO2
14837KMSN MSN20010722214510307/22/01 21:45:31  5-MIN KMSN 230345Z 14008KT 10SM SCT080 BKN090 24/22 A2986 920 87 2200 140/08 RMK AO2
14837KMSN MSN20010722215012007/22/01 21:50:31  5-MIN KMSN 230350Z 16006KT 10SM SCT080 SCT090 24/22 A2987 910 87 2200 160/06 RMK AO2 SLP106 T02390217
14837KMSN MSN20010722215510307/22/01 21:55:31  5-MIN KMSN 230355Z 15006KT 10SM FEW075 SCT095 24/22 A2986 920 87 2200 150/06 RMK AO2
14837KMSN MSN20010722220010307/22/01 22:00:31  5-MIN KMSN 230400Z 15007KT 10SM FEW075 SCT095 24/22 A2987 910 87 2200 150/07 RMK AO2
14837KMSN MSN20010722220510307/22/01 22:05:31  5-MIN KMSN 230405Z 16005KT 10SM FEW080 SCT100 24/22 A2987 910 87 2200 150/05 RMK AO2
14837KMSN MSN20010722221009607/22/01 22:10:31  5-MIN KMSN 230410Z 17005KT 10SM FEW075 24/22 A2987 910 87 2200 170/05 RMK AO2
14837KMSN MSN20010722221509607/22/01 22:15:31  5-MIN KMSN 230415Z 17004KT 10SM FEW075 24/22 A2987 910 87 2200 170/04 RMK AO2
14837KMSN MSN20010722222009607/22/01 22:20:31  5-MIN KMSN 230420Z 18004KT 10SM FEW075 24/22 A2987 910 87 2200 180/04 RMK AO2
14837KMSN MSN20010722222509607/22/01 22:25:31  5-MIN KMSN 230425Z 18005KT 10SM SCT080 24/22 A2987 910 84 2200 180/05 RMK AO2
14837KMSN MSN20010722223009607/22/01 22:30:31  5-MIN KMSN 230430Z 18005KT 10SM BKN080 24/22 A2987 910 84 2200 180/05 RMK AO2
14837KMSN MSN20010722223509607/22/01 22:35:31  5-MIN KMSN 230435Z 18005KT 10SM BKN085 24/22 A2988 910 87 2200 180/05 RMK AO2
14837KMSN MSN20010722224009607/22/01 22:40:31  5-MIN KMSN 230440Z 18005KT 10SM BKN085 24/21 A2987 910 81 2200 180/05 RMK AO2
14837KMSN MSN20010722224509607/22/01 22:45:31  5-MIN KMSN 230445Z 17005KT 10SM BKN085 24/21 A2987 910 81 2200 170/05 RMK AO2
14837KMSN MSN20010722225012007/22/01 22:50:31  5-MIN KMSN 230450Z 18006KT 10SM SCT080 SCT095 24/22 A2987 910 87 2200 180/06 RMK AO2 SLP108 T02390217
14837KMSN MSN20010722225509607/22/01 22:55:31  5-MIN KMSN 230455Z 18006KT 10SM FEW090 24/22 A2987 920 87 2200 180/06 RMK AO2
14837KMSN MSN20010722230009607/22/01 23:00:31  5-MIN KMSN 230500Z 17005KT 10SM FEW080 24/22 A2986 920 87 2200 170/05 RMK AO2
14837KMSN MSN20010722230509307/22/01 23:05:31  5-MIN KMSN 230505Z 17005KT 10SM CLR 24/22 A2987 910 87 2200 170/05 RMK AO2
14837KMSN MSN20010722231009307/22/01 23:10:31  5-MIN KMSN 230510Z 19004KT 10SM CLR 24/22 A2987 920 87 2200 190/04 RMK AO2
14837KMSN MSN20010722231509307/22/01 23:15:31  5-MIN KMSN 230515Z VRB04KT 10SM CLR 24/22 A2986 920 87 2200 VRB/04 RMK AO2
14837KMSN MSN20010722232009307/22/01 23:20:31  5-MIN KMSN 230520Z 18006KT 10SM CLR 24/21 A2987 910 84 2200 180/06 RMK AO2
14837KMSN MSN20010722232509307/22/01 23:25:31  5-MIN KMSN 230525Z 17005KT 10SM CLR 24/21 A2987 910 81 2300 170/05 RMK AO2
14837KMSN MSN20010722233009307/22/01 23:30:31  5-MIN KMSN 230530Z 15005KT 10SM CLR 24/21 A2987 910 84 2200 150/05 RMK AO2
14837KMSN MSN20010722233509307/22/01 23:35:31  5-MIN KMSN 230535Z 16005KT 10SM CLR 24/21 A2987 910 84 2200 160/05 RMK AO2
14837KMSN MSN20010722234009307/22/01 23:40:31  5-MIN KMSN 230540Z 17005KT 10SM CLR 24/21 A2986 920 84 2200 170/05 RMK AO2
14837KMSN MSN20010722234509307/22/01 23:45:31  5-MIN KMSN 230545Z 17006KT 10SM CLR 24/21 A2986 920 84 2200 170/06 RMK AO2
14837KMSN MSN20010722235014407/22/01 23:50:31  5-MIN KMSN 230550Z 18006KT 10SM CLR 24/21 A2986 920 81 2200 170/06 RMK AO2 SLP104 60004 T02390206 10261 20228 403220222 53003
14837KMSN MSN20010722235509307/22/01 23:55:31  5-MIN KMSN 230555Z 18006KT 10SM CLR 24/21 A2986 920 81 2200 180/06 RMK AO2
14837KMSN MSN20010723000009307/23/01 00:00:31  5-MIN KMSN 230600Z 18005KT 10SM CLR 24/21 A2986 920 81 2200 180/05 RMK AO2
14837KMSN MSN20010723000509307/23/01 00:05:31  5-MIN KMSN 230605Z VRB03KT 10SM CLR 24/21 A2987 910 81 2200 VRB/03 RMK AO2
14837KMSN MSN20010723001009307/23/01 00:10:31  5-MIN KMSN 230610Z 18006KT 10SM CLR 24/21 A2986 920 81 2200 180/06 RMK AO2
14837KMSN MSN20010723001509307/23/01 00:15:31  5-MIN KMSN 230615Z 17005KT 10SM CLR 24/21 A2986 920 81 2200 170/05 RMK AO2
14837KMSN MSN20010723002009307/23/01 00:20:31  5-MIN KMSN 230620Z 17005KT 10SM CLR 24/21 A2986 920 81 2200 170/05 RMK AO2
14837KMSN MSN20010723002509307/23/01 00:25:31  5-MIN KMSN 230625Z 17003KT 10SM CLR 23/21 A2986 920 84 2100 170/03 RMK AO2
14837KMSN MSN20010723003009307/23/01 00:30:31  5-MIN KMSN 230630Z 16003KT 10SM CLR 23/21 A2986 920 84 2100 160/03 RMK AO2
14837KMSN MSN20010723003509307/23/01 00:35:31  5-MIN KMSN 230635Z 16004KT 10SM CLR 23/21 A2986 920 84 2100 160/04 RMK AO2
14837KMSN MSN20010723004009307/23/01 00:40:31  5-MIN KMSN 230640Z 17006KT 10SM CLR 23/21 A2986 920 84 2100 160/06 RMK AO2
14837KMSN MSN20010723004509607/23/01 00:45:31  5-MIN KMSN 230645Z 17006KT 10SM FEW110 23/21 A2986 920 84 2100 170/06 RMK AO2
14837KMSN MSN20010723005011307/23/01 00:50:31  5-MIN KMSN 230650Z 18005KT 10SM SCT110 23/21 A2986 920 84 2100 180/05 RMK AO2 SLP105 T02330206
14837KMSN MSN20010723005509607/23/01 00:55:31  5-MIN KMSN 230655Z 19006KT 10SM BKN110 23/21 A2985 930 84 2100 180/06 RMK AO2
14837KMSN MSN20010723010009607/23/01 01:00:31  5-MIN KMSN 230700Z 19005KT 10SM SCT110 24/21 A2985 930 81 2200 180/05 RMK AO2
14837KMSN MSN20010723010509607/23/01 01:05:31  5-MIN KMSN 230705Z 19006KT 10SM SCT110 24/21 A2985 930 81 2200 190/06 RMK AO2
14837KMSN MSN20010723011009607/23/01 01:10:31  5-MIN KMSN 230710Z 19005KT 10SM SCT110 24/21 A2985 930 81 2200 180/05 RMK AO2
14837KMSN MSN20010723011509607/23/01 01:15:31  5-MIN KMSN 230715Z 19004KT 10SM FEW110 23/21 A2985 930 84 2200 190/04 RMK AO2
14837KMSN MSN20010723012009607/23/01 01:20:31  5-MIN KMSN 230720Z 00000KT 10SM FEW110 23/21 A2985 930 84 2200 000/00 RMK AO2
14837KMSN MSN20010723012509307/23/01 01:25:31  5-MIN KMSN 230725Z 00000KT 10SM CLR 23/21 A2985 930 84 2100 000/00 RMK AO2
14837KMSN MSN20010723013009307/23/01 01:30:31  5-MIN KMSN 230730Z 00000KT 10SM CLR 23/21 A2985 930 84 2100 000/00 RMK AO2
14837KMSN MSN20010723013509307/23/01 01:35:31  5-MIN KMSN 230735Z 19003KT 10SM CLR 24/21 A2985 930 81 2200 190/03 RMK AO2
14837KMSN MSN20010723014009307/23/01 01:40:31  5-MIN KMSN 230740Z 18004KT 10SM CLR 23/21 A2985 930 84 2200 180/04 RMK AO2
14837KMSN MSN20010723014509307/23/01 01:45:31  5-MIN KMSN 230745Z 19003KT 10SM CLR 23/21 A2985 930 84 2200 190/03 RMK AO2
14837KMSN MSN20010723015010907/23/01 01:50:31  5-MIN KMSN 230750Z 19003KT 9SM CLR 23/21 A2985 930 84 2200 190/03 RMK AO2 SLP101 T02330206
14837KMSN MSN20010723015509207/23/01 01:55:31  5-MIN KMSN 230755Z 16004KT 9SM CLR 23/21 A2985 930 84 2100 160/04 RMK AO2
14837KMSN MSN20010723020009207/23/01 02:00:31  5-MIN KMSN 230800Z 00000KT 9SM CLR 23/21 A2985 930 87 2100 000/00 RMK AO2
14837KMSN MSN20010723020509207/23/01 02:05:31  5-MIN KMSN 230805Z 20003KT 9SM CLR 23/21 A2985 930 84 2100 200/03 RMK AO2
14837KMSN MSN20010723021009207/23/01 02:10:31  5-MIN KMSN 230810Z 20003KT 9SM CLR 23/21 A2985 930 84 2100 200/03 RMK AO2
14837KMSN MSN20010723021509207/23/01 02:15:31  5-MIN KMSN 230815Z 19003KT 8SM CLR 24/21 A2985 930 81 2200 190/03 RMK AO2
14837KMSN MSN20010723022009207/23/01 02:20:31  5-MIN KMSN 230820Z 17004KT 8SM CLR 23/21 A2985 930 84 2100 170/04 RMK AO2
14837KMSN MSN20010723022509207/23/01 02:25:31  5-MIN KMSN 230825Z 17004KT 8SM CLR 23/21 A2985 930 84 2100 170/04 RMK AO2
14837KMSN MSN20010723023009207/23/01 02:30:31  5-MIN KMSN 230830Z 17005KT 9SM CLR 23/21 A2985 930 84 2200 170/05 RMK AO2
14837KMSN MSN20010723023509207/23/01 02:35:31  5-MIN KMSN 230835Z 17006KT 9SM CLR 23/21 A2985 930 87 2200 170/06 RMK AO2
14837KMSN MSN20010723024009207/23/01 02:40:31  5-MIN KMSN 230840Z 18006KT 8SM CLR 23/21 A2985 930 87 2200 180/06 RMK AO2
14837KMSN MSN20010723024509207/23/01 02:45:31  5-MIN KMSN 230845Z 18003KT 8SM CLR 23/21 A2985 930 87 2200 180/03 RMK AO2
14837KMSN MSN20010723025011507/23/01 02:50:31  5-MIN KMSN 230850Z 16004KT 8SM CLR 23/21 A2985 930 87 2200 160/04 RMK AO2 SLP101 T02330211 56005
14837KMSN MSN20010723025509207/23/01 02:55:31  5-MIN KMSN 230855Z 16005KT 8SM CLR 23/21 A2985 930 87 2100 160/05 RMK AO2
14837KMSN MSN20010723030009207/23/01 03:00:31  5-MIN KMSN 230900Z 16005KT 8SM CLR 23/21 A2985 930 87 2200 160/05 RMK AO2
14837KMSN MSN20010723030509207/23/01 03:05:31  5-MIN KMSN 230905Z 17005KT 8SM CLR 23/21 A2985 930 90 2100 170/05 RMK AO2
14837KMSN MSN20010723031009207/23/01 03:10:31  5-MIN KMSN 230910Z 16005KT 8SM CLR 23/21 A2984 940 87 2200 160/05 RMK AO2
14837KMSN MSN20010723031509207/23/01 03:15:31  5-MIN KMSN 230915Z 16004KT 8SM CLR 23/21 A2985 930 90 2100 160/04 RMK AO2
14837KMSN MSN20010723032009207/23/01 03:20:31  5-MIN KMSN 230920Z 16005KT 8SM CLR 23/21 A2984 940 90 2100 160/05 RMK AO2
14837KMSN MSN20010723032509207/23/01 03:25:31  5-MIN KMSN 230925Z 17005KT 8SM CLR 23/21 A2984 940 90 2100 170/05 RMK AO2
14837KMSN MSN20010723033009207/23/01 03:30:31  5-MIN KMSN 230930Z 17005KT 8SM CLR 23/21 A2984 940 90 2100 170/05 RMK AO2
14837KMSN MSN20010723033509207/23/01 03:35:31  5-MIN KMSN 230935Z 18006KT 8SM CLR 23/21 A2984 940 87 2200 180/06 RMK AO2
14837KMSN MSN20010723034009207/23/01 03:40:31  5-MIN KMSN 230940Z 18005KT 8SM CLR 23/21 A2984 940 87 2200 180/05 RMK AO2
14837KMSN MSN20010723034509207/23/01 03:45:31  5-MIN KMSN 230945Z 18004KT 7SM CLR 23/21 A2984 940 87 2200 180/04 RMK AO2
14837KMSN MSN20010723035010907/23/01 03:50:31  5-MIN KMSN 230950Z 18005KT 7SM CLR 23/21 A2984 940 87 2200 180/05 RMK AO2 SLP098 T02330211
14837KMSN MSN20010723035509207/23/01 03:55:31  5-MIN KMSN 230955Z 18006KT 7SM CLR 23/21 A2984 940 87 2200 180/06 RMK AO2
14837KMSN MSN20010723040009507/23/01 04:00:31  5-MIN KMSN 231000Z 17006KT 6SM HZ CLR 24/21 A2984 940 84 2200 170/06 RMK AO2
14837KMSN MSN20010723040509507/23/01 04:05:31  5-MIN KMSN 231005Z 17005KT 6SM BR CLR 23/21 A2984 940 87 2200 170/05 RMK AO2
14837KMSN MSN20010723041009507/23/01 04:10:31  5-MIN KMSN 231010Z 18004KT 6SM BR CLR 23/21 A2984 940 87 2200 180/04 RMK AO2
14837KMSN MSN20010723041509507/23/01 04:15:31  5-MIN KMSN 231015Z 17004KT 6SM BR CLR 23/21 A2984 940 87 2200 170/04 RMK AO2
14837KMSN MSN20010723042009507/23/01 04:20:31  5-MIN KMSN 231020Z 17005KT 6SM BR CLR 23/21 A2984 940 87 2200 170/05 RMK AO2
14837KMSN MSN20010723042509507/23/01 04:25:31  5-MIN KMSN 231025Z 17006KT 6SM BR CLR 23/21 A2984 940 90 2100 160/06 RMK AO2
14837KMSN MSN20010723043009507/23/01 04:30:31  5-MIN KMSN 231030Z 18006KT 6SM BR CLR 23/22 A2984 940 90 2200 180/06 RMK AO2
14837KMSN MSN20010723043509507/23/01 04:35:31  5-MIN KMSN 231035Z 17005KT 6SM BR CLR 23/22 A2984 940 90 2200 170/05 RMK AO2
14837KMSN MSN20010723044009507/23/01 04:40:31  5-MIN KMSN 231040Z 16006KT 6SM BR CLR 23/22 A2984 940 90 2200 160/06 RMK AO2
14837KMSN MSN20010723044509507/23/01 04:45:31  5-MIN KMSN 231045Z 17006KT 5SM BR CLR 23/22 A2984 940 90 2200 170/06 RMK AO2
14837KMSN MSN20010723045011207/23/01 04:50:31  5-MIN KMSN 231050Z 17006KT 5SM BR CLR 23/22 A2984 940 90 2200 170/06 RMK AO2 SLP098 T02330217
14837KMSN MSN20010723045509507/23/01 04:55:31  5-MIN KMSN 231055Z 18006KT 5SM BR CLR 23/22 A2984 940 90 2200 180/06 RMK AO2
14837KMSN MSN20010723050009507/23/01 05:00:31  5-MIN KMSN 231100Z 18006KT 5SM BR CLR 23/22 A2984 940 90 2200 180/06 RMK AO2
14837KMSN MSN20010723050509507/23/01 05:05:31  5-MIN KMSN 231105Z 18005KT 5SM BR CLR 23/22 A2984 940 90 2200 180/05 RMK AO2
14837KMSN MSN20010723051009507/23/01 05:10:31  5-MIN KMSN 231110Z 00000KT 5SM BR CLR 23/22 A2984 940 90 2200 000/00 RMK AO2
14837KMSN MSN20010723051509807/23/01 05:15:31  5-MIN KMSN 231115Z 00000KT 5SM BR FEW100 23/22 A2984 940 90 2200 000/00 RMK AO2
14837KMSN MSN20010723052009807/23/01 05:20:31  5-MIN KMSN 231120Z 00000KT 4SM BR SCT100 24/22 A2985 930 87 2200 000/00 RMK AO2
14837KMSN MSN20010723052509807/23/01 05:25:31  5-MIN KMSN 231125Z 00000KT 4SM BR BKN100 23/22 A2984 940 93 2200 000/00 RMK AO2
14837KMSN MSN20010723053009807/23/01 05:30:31  5-MIN KMSN 231130Z 00000KT 4SM BR BKN100 23/22 A2984 940 90 2200 000/00 RMK AO2
14837KMSN MSN20010723053509807/23/01 05:35:31  5-MIN KMSN 231135Z 18005KT 4SM BR SCT100 24/22 A2984 940 90 2200 180/05 RMK AO2
14837KMSN MSN20010723054009807/23/01 05:40:31  5-MIN KMSN 231140Z 18005KT 3SM BR SCT100 24/22 A2983 940 87 2300 180/05 RMK AO2
14837KMSN MSN20010723054509807/23/01 05:45:31  5-MIN KMSN 231145Z 18005KT 3SM BR SCT100 24/22 A2984 940 87 2300 180/05 RMK AO2
14837KMSN MSN20010723055013907/23/01 05:50:31  5-MIN KMSN 231150Z 19006KT 5SM BR FEW100 24/22 A2983 940 87 2300 180/06 RMK AO2 SLP097 70015 T02440222 10244 20228 56004
14837KMSN MSN20010723055509807/23/01 05:55:31  5-MIN KMSN 231155Z 17005KT 3SM BR FEW100 24/22 A2983 940 87 2300 170/05 RMK AO2
14837KMSN MSN20010723060009507/23/01 06:00:31  5-MIN KMSN 231200Z 18005KT 4SM BR CLR 24/22 A2984 940 87 2300 180/05 RMK AO2
14837KMSN MSN20010723060509507/23/01 06:05:31  5-MIN KMSN 231205Z 19005KT 4SM BR CLR 24/23 A2984 940 90 2300 190/05 RMK AO2
14837KMSN MSN20010723061009507/23/01 06:10:31  5-MIN KMSN 231210Z VRB05KT 4SM BR CLR 25/23 A2984 940 87 2300 VRB/05 RMK AO2
14837KMSN MSN20010723061509507/23/01 06:15:31  5-MIN KMSN 231215Z 20005KT 4SM BR CLR 25/23 A2984 940 87 2300 200/05 RMK AO2
14837KMSN MSN20010723062009507/23/01 06:20:31  5-MIN KMSN 231220Z VRB05KT 4SM HZ CLR 26/23 A2984 940 84 2400 VRB/05 RMK AO2
14837KMSN MSN20010723062509507/23/01 06:25:31  5-MIN KMSN 231225Z 19006KT 4SM HZ CLR 26/23 A2984 940 84 2400 180/06 RMK AO2
14837KMSN MSN20010723063009507/23/01 06:30:31  5-MIN KMSN 231230Z 20005KT 4SM HZ CLR 26/23 A2984 940 84 2400 200/05 RMK AO2
14837KMSN MSN20010723063509507/23/01 06:35:31  5-MIN KMSN 231235Z 20005KT 4SM HZ CLR 26/23 A2985 930 81 2500 200/05 RMK AO2
14837KMSN MSN20010723064009507/23/01 06:40:31  5-MIN KMSN 231240Z 20005KT 4SM HZ CLR 26/23 A2984 940 84 2500 200/05 RMK AO2
14837KMSN MSN20010723064509507/23/01 06:45:31  5-MIN KMSN 231245Z 19005KT 4SM HZ CLR 26/23 A2984 940 84 2500 190/05 RMK AO2
14837KMSN MSN20010723065011207/23/01 06:50:31  5-MIN KMSN 231250Z 22003KT 5SM HZ CLR 26/23 A2984 940 84 2500 220/03 RMK AO2 SLP100 T02610233
14837KMSN MSN20010723065509507/23/01 06:55:31  5-MIN KMSN 231255Z 22003KT 5SM HZ CLR 26/23 A2984 930 84 2500 220/03 RMK AO2
14837KMSN MSN20010723070009507/23/01 07:00:31  5-MIN KMSN 231300Z VRB04KT 5SM HZ CLR 26/23 A2984 940 84 2500 VRB/04 RMK AO2
14837KMSN MSN20010723070509507/23/01 07:05:31  5-MIN KMSN 231305Z VRB04KT 5SM HZ CLR 26/23 A2985 930 84 2500 VRB/04 RMK AO2
14837KMSN MSN20010723071009507/23/01 07:10:31  5-MIN KMSN 231310Z 22004KT 5SM HZ CLR 27/23 A2985 930 82 2500 220/04 RMK AO2
14837KMSN MSN20010723071509507/23/01 07:15:31  5-MIN KMSN 231315Z 20006KT 5SM HZ CLR 27/23 A2984 940 82 2500 200/06 RMK AO2
14837KMSN MSN20010723072009507/23/01 07:20:31  5-MIN KMSN 231320Z 23005KT 5SM HZ CLR 27/24 A2984 940 84 2500 230/05 RMK AO2
14837KMSN MSN20010723072509807/23/01 07:25:31  5-MIN KMSN 231325Z 22006KT 5SM HZ FEW025 27/24 A2984 930 84 2500 220/06 RMK AO2
14837KMSN MSN20010723073009807/23/01 07:30:31  5-MIN KMSN 231330Z 22005KT 5SM HZ FEW040 27/24 A2985 930 84 2500 220/05 RMK AO2
14837KMSN MSN20010723073509807/23/01 07:35:31  5-MIN KMSN 231335Z 24004KT 5SM HZ FEW040 27/24 A2984 930 84 2500 240/04 RMK AO2
14837KMSN MSN20010723074009807/23/01 07:40:31  5-MIN KMSN 231340Z 23004KT 5SM HZ FEW040 27/24 A2984 940 84 2500 220/04 RMK AO2
14837KMSN MSN20010723074509807/23/01 07:45:31  5-MIN KMSN 231345Z VRB04KT 5SM HZ SCT100 27/24 A2984 940 82 2600 VRB/04 RMK AO2
14837KMSN MSN20010723075011507/23/01 07:50:31  5-MIN KMSN 231350Z 23006KT 5SM HZ SCT100 27/24 A2984 940 84 2600 220/06 RMK AO2 SLP099 T02720244
14837KMSN MSN20010723075509807/23/01 07:55:31  5-MIN KMSN 231355Z 22006KT 5SM HZ SCT100 27/24 A2984 940 82 2600 220/06 RMK AO2
14837KMSN MSN20010723080009807/23/01 08:00:31  5-MIN KMSN 231400Z VRB04KT 5SM HZ SCT100 27/24 A2984 940 82 2600 VRB/04 RMK AO2
14837KMSN MSN20010723080509807/23/01 08:05:31  5-MIN KMSN 231405Z 22008KT 5SM HZ SCT100 28/24 A2983 940 79 2700 220/08 RMK AO2
14837KMSN MSN20010723081009807/23/01 08:10:31  5-MIN KMSN 231410Z 20005KT 6SM HZ SCT100 28/24 A2983 950 79 2700 200/05 RMK AO2
14837KMSN MSN20010723081509807/23/01 08:15:31  5-MIN KMSN 231415Z 20005KT 6SM HZ SCT100 28/24 A2983 950 79 2700 200/05 RMK AO2
14837KMSN MSN20010723082009807/23/01 08:20:31  5-MIN KMSN 231420Z 21008KT 6SM HZ SCT100 29/24 A2983 950 76 2800 210/08 RMK AO2
14837KMSN MSN20010723082509807/23/01 08:25:31  5-MIN KMSN 231425Z 21008KT 6SM HZ FEW100 28/24 A2983 950 76 2700 210/08 RMK AO2
14837KMSN MSN20010723083009807/23/01 08:30:31  5-MIN KMSN 231430Z 22006KT 6SM HZ FEW100 28/24 A2983 950 79 2700 210/06 RMK AO2
14837KMSN MSN20010723083509807/23/01 08:35:31  5-MIN KMSN 231435Z 22006KT 5SM HZ FEW100 29/24 A2984 940 76 2800 220/06 RMK AO2
14837KMSN MSN20010723084009807/23/01 08:40:31  5-MIN KMSN 231440Z VRB06KT 5SM HZ FEW100 29/24 A2984 940 76 2800 VRB/06 RMK AO2
14837KMSN MSN20010723084509807/23/01 08:45:31  5-MIN KMSN 231445Z VRB04KT 5SM HZ FEW100 28/24 A2985 930 79 2700 VRB/04 RMK AO2
14837KMSN MSN20010723085012107/23/01 08:50:31  5-MIN KMSN 231450Z VRB05KT 6SM HZ BKN065 29/24 A2985 930 76 2800 VRB/05 RMK AO2 SLP101 T02890244 56004
14837KMSN MSN20010723085509507/23/01 08:55:31  5-MIN KMSN 231455Z 26006KT 7SM SCT070 29/24 A2985 930 74 2800 260/06 RMK AO2
14837KMSN MSN20010723090010207/23/01 09:00:31  5-MIN KMSN 231500Z 26005KT 7SM FEW070 SCT080 29/24 A2985 930 76 2800 260/05 RMK AO2
14837KMSN MSN20010723090510207/23/01 09:05:31  5-MIN KMSN 231505Z VRB03KT 7SM FEW070 SCT085 29/24 A2986 920 74 2800 VRB/03 RMK AO2
14837KMSN MSN20010723091010207/23/01 09:10:31  5-MIN KMSN 231510Z VRB04KT 7SM FEW070 SCT095 29/24 A2986 920 74 2800 VRB/04 RMK AO2
14837KMSN MSN20010723091509507/23/01 09:15:31  5-MIN KMSN 231515Z VRB03KT 8SM SCT070 29/24 A2986 920 74 2800 VRB/03 RMK AO2
14837KMSN MSN20010723092009507/23/01 09:20:31  5-MIN KMSN 231520Z VRB06KT 8SM FEW100 29/24 A2986 920 74 2800 VRB/06 RMK AO2
14837KMSN MSN20010723092509507/23/01 09:25:31  5-MIN KMSN 231525Z 22004KT 8SM FEW100 29/24 A2986 920 74 2800 220/04 RMK AO2
14837KMSN MSN20010723093009507/23/01 09:30:31  5-MIN KMSN 231530Z VRB06KT 8SM FEW100 29/24 A2986 920 74 2800 VRB/06 RMK AO2
14837KMSN MSN20010723093509507/23/01 09:35:31  5-MIN KMSN 231535Z VRB04KT 8SM SCT065 31/25 A2986 920 72 2900 VRB/04 RMK AO2
14837KMSN MSN20010723094009507/23/01 09:40:31  5-MIN KMSN 231540Z 23006KT 8SM SCT065 30/24 A2986 920 72 2900 230/06 RMK AO2
14837KMSN MSN20010723094509507/23/01 09:45:31  5-MIN KMSN 231545Z 22007KT 8SM SCT065 30/24 A2987 910 72 2900 220/07 RMK AO2
14837KMSN MSN20010723095011207/23/01 09:50:31  5-MIN KMSN 231550Z 24007KT 8SM SCT070 29/24 A2987 910 74 2800 230/07 RMK AO2 SLP108 T02940244
14837KMSN MSN20010723095509507/23/01 09:55:31  5-MIN KMSN 231555Z VRB06KT 8SM BKN080 29/24 A2987 910 74 2800 VRB/06 RMK AO2
14837KMSN MSN20010723100009507/23/01 10:00:31  5-MIN KMSN 231600Z 25007KT 8SM BKN080 29/24 A2987 910 74 2800 250/07 RMK AO2
14837KMSN MSN20010723100509507/23/01 10:05:31  5-MIN KMSN 231605Z VRB05KT 8SM SCT090 29/24 A2987 910 74 2800 VRB/05 RMK AO2
14837KMSN MSN20010723101011107/23/01 10:10:31  5-MIN KMSN 231610Z 24007KT 200V270 8SM SCT090 30/24 A2988 910 72 2900 240/07 200V270 RMK AO2
14837KMSN MSN20010723101510107/23/01 10:15:31  5-MIN KMSN 231615Z 28011G16KT 8SM BKN033 30/24 A2988 900 72 2900 280/11G16 RMK AO2
14837KMSN MSN20010723102013107/23/01 10:20:31  5-MIN KMSN 231620Z 28014G20KT 230V300 10SM SCT035 SCT043 29/23 A2988 900 69 2800 270/14G20 230V300 RMK AO2 P0001
14837KMSN MSN20010723102512207/23/01 10:25:31  5-MIN KMSN 231625Z 27012G20KT 10SM FEW035 SCT043 SCT055 29/23 A2988 900 69 2800 270/12G20 RMK AO2 P0001
14837KMSN MSN20010723103012207/23/01 10:30:31  5-MIN KMSN 231630Z 28011G18KT 10SM FEW035 SCT046 SCT060 29/23 A2989 900 69 2800 280/11G18 RMK AO2 P0001
14837KMSN MSN20010723103511507/23/01 10:35:31  5-MIN KMSN 231635Z 28013G19KT 10SM SCT035 BKN046 29/23 A2989 890 71 2700 270/13G19 RMK AO2 P0001
14837KMSN MSN20010723104012207/23/01 10:40:31  5-MIN KMSN 231640Z 29014G21KT 10SM FEW027 SCT034 BKN046 28/23 A2989 890 71 2700 290/14G21 RMK AO2 P0001
14837KMSN MSN20010723104512207/23/01 10:45:31  5-MIN KMSN 231645Z 29010G23KT 10SM FEW029 SCT040 BKN049 28/22 A2990 890 69 2700 290/10G23 RMK AO2 P0001
14837KMSN MSN20010723105013207/23/01 10:50:31  5-MIN KMSN 231650Z 28012G23KT 10SM FEW029 SCT049 28/22 A2989 890 69 2700 280/12G23 RMK AO2 SLP116 P0001 T02830222
14837KMSN MSN20010723105512507/23/01 10:55:31  5-MIN KMSN 231655Z 28011G23KT 240V320 10SM FEW029 SCT049 28/22 A2989 890 69 2700 280/11G23 240V320 RMK AO2
14837KMSN MSN20010723110010907/23/01 11:00:31  5-MIN KMSN 231700Z 29009G23KT 10SM FEW029 SCT049 28/22 A2989 890 71 2600 290/09G23 RMK AO2
14837KMSN MSN20010723110510207/23/01 11:05:31  5-MIN KMSN 231705Z 30011G19KT 10SM SCT029 28/22 A2989 890 69 2700 300/11G19 RMK AO2
14837KMSN MSN20010723111010207/23/01 11:10:31  5-MIN KMSN 231710Z 30011G19KT 10SM SCT029 28/22 A2989 900 69 2600 300/11G19 RMK AO2
14837KMSN MSN20010723111510207/23/01 11:15:31  5-MIN KMSN 231715Z 30013G19KT 10SM BKN080 28/22 A2989 890 71 2600 300/13G19 RMK AO2
14837KMSN MSN20010723112010207/23/01 11:20:31  5-MIN KMSN 231720Z 32011G16KT 10SM BKN080 28/22 A2989 890 71 2600 320/11G16 RMK AO2
14837KMSN MSN20010723112510207/23/01 11:25:31  5-MIN KMSN 231725Z 31010G16KT 10SM SCT080 28/22 A2989 890 71 2600 310/10G16 RMK AO2
14837KMSN MSN20010723113010207/23/01 11:30:31  5-MIN KMSN 231730Z 32015G18KT 10SM SCT080 28/22 A2989 890 71 2600 320/15G18 RMK AO2
14837KMSN MSN20010723113510207/23/01 11:35:31  5-MIN KMSN 231735Z 32012G19KT 10SM SCT080 27/22 A2989 890 74 2500 310/12G19 RMK AO2
14837KMSN MSN20010723114010207/23/01 11:40:31  5-MIN KMSN 231740Z 32012G22KT 10SM BKN027 27/22 A2989 890 74 2500 320/12G22 RMK AO2
14837KMSN MSN20010723114510207/23/01 11:45:31  5-MIN KMSN 231745Z 33014G22KT 10SM SCT027 27/22 A2989 890 74 2500 330/14G22 RMK AO2
14837KMSN MSN20010723115013707/23/01 11:50:31  5-MIN KMSN 231750Z 33012G21KT 10SM SCT027 27/22 A2989 890 71 2500 330/12G21 RMK AO2 SLP116 T02720217 10306 20244 53004
14837KMSN MSN20010723115510207/23/01 11:55:31  5-MIN KMSN 231755Z 33013G21KT 10SM SCT027 27/21 A2989 890 71 2500 330/13G21 RMK AO2
14837KMSN MSN20010723120010207/23/01 12:00:31  5-MIN KMSN 231800Z 34012G17KT 10SM SCT027 27/21 A2988 900 71 2500 340/12G17 RMK AO2
14837KMSN MSN20010723120510207/23/01 12:05:31  5-MIN KMSN 231805Z 34010G17KT 10SM SCT027 26/21 A2988 900 73 2400 340/10G17 RMK AO2
14837KMSN MSN20010723121011207/23/01 12:10:31  5-MIN KMSN 231810Z 34011KT 300V020 10SM SCT027 26/21 A2988 910 71 2400 340/11 300V020 RMK AO2
14837KMSN MSN20010723121509607/23/01 12:15:31  5-MIN KMSN 231815Z 34009KT 10SM SCT027 26/21 A2987 910 73 2400 330/09 RMK AO2
14837KMSN MSN20010723122009607/23/01 12:20:31  5-MIN KMSN 231820Z 34010KT 10SM SCT027 26/21 A2987 910 73 2400 340/10 RMK AO2
14837KMSN MSN20010723122509607/23/01 12:25:31  5-MIN KMSN 231825Z VRB06KT 10SM SCT027 26/21 A2986 920 73 2400 VRB/06 RMK AO2
14837KMSN MSN20010723123010307/23/01 12:30:31  5-MIN KMSN 231830Z 35008KT 10SM FEW027 27/22 A2985 930 73 2500 350/08 RMK AO2 PRESFR
14837KMSN MSN20010723123510207/23/01 12:35:31  5-MIN KMSN 231835Z 34006G15KT 10SM FEW027 27/22 A2985 930 71 2600 340/06G15 RMK AO2
14837KMSN MSN20010723124009907/23/01 12:40:31  5-MIN KMSN 231840Z 02010G15KT 10SM CLR 27/22 A2984 940 74 2600 010/10G15 RMK AO2
14837KMSN MSN20010723124509907/23/01 12:45:31  5-MIN KMSN 231845Z 36011G16KT 10SM CLR 27/22 A2984 940 71 2600 360/11G16 RMK AO2
14837KMSN MSN20010723125011007/23/01 12:50:31  5-MIN KMSN 231850Z 01009KT 10SM CLR 28/22 A2984 940 71 2700 010/09 RMK AO2 SLP097 T02780222
14837KMSN MSN20010723125509307/23/01 12:55:31  5-MIN KMSN 231855Z 36009KT 10SM CLR 28/23 A2984 940 74 2700 360/09 RMK AO2
14837KMSN MSN20010723130009307/23/01 13:00:31  5-MIN KMSN 231900Z 01011KT 10SM CLR 28/23 A2984 940 74 2700 010/11 RMK AO2
14837KMSN MSN20010723130509307/23/01 13:05:31  5-MIN KMSN 231905Z 03012KT 10SM CLR 28/22 A2983 950 69 2700 030/12 RMK AO2
14837KMSN MSN20010723131009307/23/01 13:10:31  5-MIN KMSN 231910Z 02012KT 10SM CLR 28/22 A2983 950 66 2700 020/12 RMK AO2
14837KMSN MSN20010723131509307/23/01 13:15:31  5-MIN KMSN 231915Z 02010KT 10SM CLR 28/22 A2984 940 66 2700 020/10 RMK AO2
14837KMSN MSN20010723132009307/23/01 13:20:31  5-MIN KMSN 231920Z 03009KT 10SM CLR 28/22 A2984 940 66 2700 030/09 RMK AO2
14837KMSN MSN20010723132509607/23/01 13:25:31  5-MIN KMSN 231925Z 03007KT 10SM SCT120 29/22 A2984 940 67 2800 030/07 RMK AO2
14837KMSN MSN20010723133009607/23/01 13:30:31  5-MIN KMSN 231930Z 05006KT 10SM SCT120 29/22 A2983 940 67 2800 050/06 RMK AO2
14837KMSN MSN20010723133509607/23/01 13:35:31  5-MIN KMSN 231935Z 04006KT 10SM SCT120 28/22 A2983 950 66 2700 040/06 RMK AO2
14837KMSN MSN20010723134009607/23/01 13:40:31  5-MIN KMSN 231940Z VRB06KT 10SM SCT120 28/22 A2983 950 66 2700 VRB/06 RMK AO2
14837KMSN MSN20010723134509607/23/01 13:45:31  5-MIN KMSN 231945Z 09008KT 10SM SCT120 29/22 A2983 950 64 2800 090/08 RMK AO2
14837KMSN MSN20010723135011307/23/01 13:50:31  5-MIN KMSN 231950Z 10006KT 10SM SCT100 28/22 A2982 950 66 2700 100/06 RMK AO2 SLP092 T02830217
14837KMSN MSN20010723135509307/23/01 13:55:31  5-MIN KMSN 231955Z 10007KT 10SM CLR 28/21 A2981 960 66 2700 100/07 RMK AO2
14837KMSN MSN20010723140009607/23/01 14:00:31  5-MIN KMSN 232000Z 09007KT 10SM BKN110 28/21 A2981 960 66 2700 090/07 RMK AO2
14837KMSN MSN20010723140509607/23/01 14:05:31  5-MIN KMSN 232005Z 11005KT 10SM BKN110 28/21 A2981 970 66 2700 110/05 RMK AO2
14837KMSN MSN20010723141009607/23/01 14:10:31  5-MIN KMSN 232010Z 12009KT 10SM BKN110 28/21 A2980 970 66 2700 120/09 RMK AO2
14837KMSN MSN20010723141509607/23/01 14:15:31  5-MIN KMSN 232015Z 13009KT 10SM BKN110 28/22 A2981 970 69 2700 130/09 RMK AO2
14837KMSN MSN20010723142009607/23/01 14:20:31  5-MIN KMSN 232020Z 12006KT 10SM BKN110 27/22 A2982 960 71 2600 120/06 RMK AO2
14837KMSN MSN20010723142509607/23/01 14:25:31  5-MIN KMSN 232025Z 13008KT 10SM BKN110 28/22 A2982 960 69 2700 130/08 RMK AO2
14837KMSN MSN20010723143009607/23/01 14:30:31  5-MIN KMSN 232030Z 12004KT 10SM BKN110 28/21 A2982 960 66 2700 120/04 RMK AO2
14837KMSN MSN20010723143509607/23/01 14:35:31  5-MIN KMSN 232035Z 13003KT 10SM BKN110 28/21 A2982 960 66 2700 130/03 RMK AO2
14837KMSN MSN20010723144009607/23/01 14:40:31  5-MIN KMSN 232040Z 15006KT 10SM BKN110 28/22 A2982 960 69 2700 150/06 RMK AO2
14837KMSN MSN20010723144509607/23/01 14:45:31  5-MIN KMSN 232045Z VRB04KT 10SM BKN110 28/21 A2982 960 66 2700 VRB/04 RMK AO2
14837KMSN MSN20010723145011907/23/01 14:50:31  5-MIN KMSN 232050Z VRB04KT 10SM BKN110 28/22 A2982 960 69 2700 VRB/04 RMK AO2 SLP091 T02780217 50013
14837KMSN MSN20010723145509307/23/01 14:55:31  5-MIN KMSN 232055Z 17005KT 10SM CLR 28/22 A2982 960 69 2700 170/05 RMK AO2
14837KMSN MSN20010723150009607/23/01 15:00:31  5-MIN KMSN 232100Z 18004KT 10SM BKN120 28/22 A2982 960 66 2700 170/04 RMK AO2
14837KMSN MSN20010723150509607/23/01 15:05:31  5-MIN KMSN 232105Z VRB03KT 10SM BKN120 28/21 A2982 960 64 2700 VRB/03 RMK AO2
14837KMSN MSN20010723151009607/23/01 15:10:31  5-MIN KMSN 232110Z 19003KT 10SM BKN120 28/21 A2982 960 64 2700 190/03 RMK AO2
14837KMSN MSN20010723151509607/23/01 15:15:31  5-MIN KMSN 232115Z 00000KT 10SM BKN120 28/22 A2982 960 66 2700 000/00 RMK AO2
14837KMSN MSN20010723152009607/23/01 15:20:31  5-MIN KMSN 232120Z 00000KT 10SM BKN120 28/22 A2982 950 66 2700 000/00 RMK AO2
14837KMSN MSN20010723152509607/23/01 15:25:31  5-MIN KMSN 232125Z 00000KT 10SM BKN120 28/22 A2983 950 66 2700 000/00 RMK AO2
14837KMSN MSN20010723153009607/23/01 15:30:31  5-MIN KMSN 232130Z 21003KT 10SM BKN120 28/22 A2982 950 66 2700 210/03 RMK AO2
14837KMSN MSN20010723153509607/23/01 15:35:31  5-MIN KMSN 232135Z 00000KT 10SM BKN120 28/21 A2983 950 64 2700 000/00 RMK AO2
14837KMSN MSN20010723154009607/23/01 15:40:31  5-MIN KMSN 232140Z 24003KT 10SM BKN120 28/22 A2983 950 66 2700 240/03 RMK AO2
14837KMSN MSN20010723154509607/23/01 15:45:31  5-MIN KMSN 232145Z 24003KT 10SM BKN120 28/22 A2983 950 69 2700 240/03 RMK AO2
14837KMSN MSN20010723155011307/23/01 15:50:31  5-MIN KMSN 232150Z 24003KT 10SM BKN120 28/22 A2983 950 69 2700 240/03 RMK AO2 SLP096 T02780217
14837KMSN MSN20010723155509307/23/01 15:55:31  5-MIN KMSN 232155Z 00000KT 10SM CLR 28/22 A2984 940 69 2700 000/00 RMK AO2
14837KMSN MSN20010723160009307/23/01 16:00:31  5-MIN KMSN 232200Z 26003KT 10SM CLR 28/22 A2984 940 66 2700 260/03 RMK AO2
14837KMSN MSN20010723160509307/23/01 16:05:31  5-MIN KMSN 232205Z 25004KT 10SM CLR 28/22 A2984 940 66 2700 250/04 RMK AO2
14837KMSN MSN20010723161009307/23/01 16:10:31  5-MIN KMSN 232210Z 25003KT 10SM CLR 28/21 A2984 930 66 2700 250/03 RMK AO2
14837KMSN MSN20010723161509307/23/01 16:15:31  5-MIN KMSN 232215Z 00000KT 10SM CLR 28/22 A2985 930 69 2700 000/00 RMK AO2
14837KMSN MSN20010723162009307/23/01 16:20:31  5-MIN KMSN 232220Z 25003KT 10SM CLR 28/22 A2985 930 66 2700 250/03 RMK AO2
14837KMSN MSN20010723162509307/23/01 16:25:31  5-MIN KMSN 232225Z 00000KT 10SM CLR 29/22 A2985 930 64 2800 000/00 RMK AO2
14837KMSN MSN20010723163009307/23/01 16:30:31  5-MIN KMSN 232230Z VRB04KT 10SM CLR 29/22 A2985 930 64 2800 VRB/04 RMK AO2
14837KMSN MSN20010723163509307/23/01 16:35:31  5-MIN KMSN 232235Z 23004KT 10SM CLR 29/22 A2985 930 64 2800 230/04 RMK AO2
14837KMSN MSN20010723164009607/23/01 16:40:31  5-MIN KMSN 232240Z 22006KT 10SM FEW120 29/22 A2985 930 64 2800 220/06 RMK AO2
14837KMSN MSN20010723164509607/23/01 16:45:31  5-MIN KMSN 232245Z VRB05KT 10SM FEW120 29/22 A2985 930 67 2800 VRB/05 RMK AO2
14837KMSN MSN20010723165012007/23/01 16:50:31  5-MIN KMSN 232250Z 21005KT 10SM FEW050 SCT120 29/22 A2985 930 64 2800 210/05 RMK AO2 SLP101 T02890217
14837KMSN MSN20010723165509307/23/01 16:55:31  5-MIN KMSN 232255Z 21006KT 10SM CLR 29/22 A2985 930 64 2800 210/06 RMK AO2
14837KMSN MSN20010723170009307/23/01 17:00:31  5-MIN KMSN 232300Z 22006KT 10SM CLR 28/22 A2985 930 69 2700 220/06 RMK AO2
14837KMSN MSN20010723170509307/23/01 17:05:31  5-MIN KMSN 232305Z 22005KT 10SM CLR 28/22 A2985 930 69 2700 220/05 RMK AO2
14837KMSN MSN20010723171009607/23/01 17:10:31  5-MIN KMSN 232310Z 00000KT 10SM FEW041 28/22 A2984 930 69 2700 000/00 RMK AO2
14837KMSN MSN20010723171509607/23/01 17:15:31  5-MIN KMSN 232315Z 22005KT 10SM FEW041 29/22 A2984 930 64 2800 220/05 RMK AO2
14837KMSN MSN20010723172009307/23/01 17:20:31  5-MIN KMSN 232320Z 22004KT 10SM CLR 29/22 A2984 940 64 2800 220/04 RMK AO2
14837KMSN MSN20010723172509307/23/01 17:25:31  5-MIN KMSN 232325Z VRB03KT 10SM CLR 29/22 A2984 940 64 2800 VRB/03 RMK AO2
14837KMSN MSN20010723173009307/23/01 17:30:31  5-MIN KMSN 232330Z 24003KT 10SM CLR 28/22 A2985 930 66 2700 240/03 RMK AO2
14837KMSN MSN20010723173509607/23/01 17:35:31  5-MIN KMSN 232335Z VRB03KT 10SM FEW043 28/22 A2984 930 66 2700 VRB/03 RMK AO2
14837KMSN MSN20010723174009607/23/01 17:40:31  5-MIN KMSN 232340Z 23004KT 10SM FEW043 28/22 A2985 930 66 2700 230/04 RMK AO2
14837KMSN MSN20010723174509607/23/01 17:45:31  5-MIN KMSN 232345Z 23003KT 10SM SCT040 28/22 A2985 930 66 2700 230/03 RMK AO2
14837KMSN MSN20010723175013107/23/01 17:50:31  5-MIN KMSN 232350Z 24003KT 10SM BKN040 28/22 A2985 930 69 2600 240/03 RMK AO2 SLP102 T02780217 10289 20261 55023
14837KMSN MSN20010723175509607/23/01 17:55:31  5-MIN KMSN 232355Z 25003KT 10SM BKN043 28/22 A2985 930 66 2700 250/03 RMK AO2
14837KMSN MSN20010723180009607/23/01 18:00:31  5-MIN KMSN 240000Z 00000KT 10SM BKN043 28/22 A2985 930 66 2700 000/00 RMK AO2
14837KMSN MSN20010723180509607/23/01 18:05:31  5-MIN KMSN 240005Z 00000KT 10SM BKN043 28/22 A2985 930 66 2700 000/00 RMK AO2
14837KMSN MSN20010723181009607/23/01 18:10:31  5-MIN KMSN 240010Z VRB03KT 10SM OVC043 28/22 A2985 930 66 2700 VRB/03 RMK AO2
14837KMSN MSN20010723181509607/23/01 18:15:31  5-MIN KMSN 240015Z 29003KT 10SM BKN043 28/22 A2985 930 69 2600 290/03 RMK AO2
14837KMSN MSN20010723182009607/23/01 18:20:31  5-MIN KMSN 240020Z 00000KT 10SM BKN045 28/22 A2985 930 69 2600 000/00 RMK AO2
14837KMSN MSN20010723182509607/23/01 18:25:31  5-MIN KMSN 240025Z 29005KT 10SM BKN045 28/22 A2985 930 71 2600 290/05 RMK AO2
14837KMSN MSN20010723183009607/23/01 18:30:31  5-MIN KMSN 240030Z 30004KT 10SM SCT045 28/22 A2985 930 69 2700 290/04 RMK AO2
14837KMSN MSN20010723183509607/23/01 18:35:31  5-MIN KMSN 240035Z VRB03KT 10SM FEW045 28/22 A2985 930 69 2700 VRB/03 RMK AO2
14837KMSN MSN20010723184009607/23/01 18:40:31  5-MIN KMSN 240040Z 28005KT 10SM FEW047 28/22 A2985 930 69 2700 280/05 RMK AO2
14837KMSN MSN20010723184509307/23/01 18:45:31  5-MIN KMSN 240045Z VRB04KT 10SM CLR 27/22 A2985 930 74 2600 VRB/04 RMK AO2
14837KMSN MSN20010723185011307/23/01 18:50:31  5-MIN KMSN 240050Z 30003KT 10SM FEW045 27/22 A2984 940 76 2500 300/03 RMK AO2 SLP098 T02670222
14837KMSN MSN20010723185509307/23/01 18:55:31  5-MIN KMSN 240055Z 31003KT 10SM CLR 27/22 A2984 940 74 2600 310/03 RMK AO2
14837KMSN MSN20010723190009307/23/01 19:00:31  5-MIN KMSN 240100Z 30003KT 10SM CLR 27/22 A2984 940 76 2500 300/03 RMK AO2
14837KMSN MSN20010723190509307/23/01 19:05:31  5-MIN KMSN 240105Z VRB04KT 10SM CLR 27/22 A2983 940 76 2500 VRB/04 RMK AO2
14837KMSN MSN20010723191009307/23/01 19:10:31  5-MIN KMSN 240110Z 30005KT 10SM CLR 26/22 A2983 950 79 2500 300/05 RMK AO2
14837KMSN MSN20010723191509307/23/01 19:15:31  5-MIN KMSN 240115Z 30005KT 10SM CLR 26/22 A2983 950 79 2500 300/05 RMK AO2
14837KMSN MSN20010723192009307/23/01 19:20:31  5-MIN KMSN 240120Z 29006KT 10SM CLR 26/22 A2983 950 76 2500 290/06 RMK AO2
14837KMSN MSN20010723192509307/23/01 19:25:31  5-MIN KMSN 240125Z 29006KT 10SM CLR 26/22 A2983 950 76 2500 290/06 RMK AO2
14837KMSN MSN20010723193009307/23/01 19:30:31  5-MIN KMSN 240130Z 29006KT 10SM CLR 26/22 A2983 950 76 2500 290/06 RMK AO2
14837KMSN MSN20010723193509307/23/01 19:35:31  5-MIN KMSN 240135Z 30005KT 10SM CLR 26/22 A2984 940 79 2400 300/05 RMK AO2
14837KMSN MSN20010723194009307/23/01 19:40:31  5-MIN KMSN 240140Z 29004KT 10SM CLR 26/22 A2984 940 79 2400 290/04 RMK AO2
14837KMSN MSN20010723194509307/23/01 19:45:31  5-MIN KMSN 240145Z 28004KT 10SM CLR 26/22 A2984 940 79 2400 280/04 RMK AO2
14837KMSN MSN20010723195011007/23/01 19:50:31  5-MIN KMSN 240150Z 29004KT 10SM CLR 26/22 A2985 930 81 2400 290/04 RMK AO2 SLP099 T02560222
14837KMSN MSN20010723195509307/23/01 19:55:31  5-MIN KMSN 240155Z 29004KT 10SM CLR 26/22 A2985 930 81 2400 290/04 RMK AO2
14837KMSN MSN20010723200009307/23/01 20:00:31  5-MIN KMSN 240200Z VRB03KT 10SM CLR 26/22 A2985 930 81 2400 VRB/03 RMK AO2
14837KMSN MSN20010723200509307/23/01 20:05:31  5-MIN KMSN 240205Z 00000KT 10SM CLR 26/22 A2985 930 79 2400 000/00 RMK AO2
14837KMSN MSN20010723201009307/23/01 20:10:31  5-MIN KMSN 240210Z 30004KT 10SM CLR 25/22 A2985 930 81 2300 300/04 RMK AO2
14837KMSN MSN20010723201509307/23/01 20:15:31  5-MIN KMSN 240215Z VRB03KT 10SM CLR 25/22 A2985 930 81 2300 VRB/03 RMK AO2
14837KMSN MSN20010723202009307/23/01 20:20:31  5-MIN KMSN 240220Z 29004KT 10SM CLR 25/22 A2986 920 81 2300 290/04 RMK AO2
14837KMSN MSN20010723202509307/23/01 20:25:31  5-MIN KMSN 240225Z 29003KT 10SM CLR 25/22 A2986 920 81 2300 290/03 RMK AO2
14837KMSN MSN20010723203009307/23/01 20:30:31  5-MIN KMSN 240230Z 28003KT 10SM CLR 24/22 A2987 910 84 2300 280/03 RMK AO2
14837KMSN MSN20010723203509307/23/01 20:35:31  5-MIN KMSN 240235Z 29003KT 10SM CLR 24/22 A2987 910 84 2300 290/03 RMK AO2
14837KMSN MSN20010723204009307/23/01 20:40:31  5-MIN KMSN 240240Z 00000KT 10SM CLR 24/22 A2987 910 84 2200 000/00 RMK AO2
14837KMSN MSN20010723204509307/23/01 20:45:31  5-MIN KMSN 240245Z 00000KT 10SM CLR 24/22 A2987 910 84 2200 000/00 RMK AO2
14837KMSN MSN20010723205011607/23/01 20:50:31  5-MIN KMSN 240250Z 00000KT 10SM CLR 24/22 A2988 910 87 2200 000/00 RMK AO2 SLP109 T02390217 51011
14837KMSN MSN20010723205509307/23/01 20:55:31  5-MIN KMSN 240255Z 00000KT 10SM CLR 24/22 A2987 910 84 2200 000/00 RMK AO2
14837KMSN MSN20010723210009307/23/01 21:00:31  5-MIN KMSN 240300Z 00000KT 10SM CLR 24/22 A2988 910 87 2200 000/00 RMK AO2
14837KMSN MSN20010723210509307/23/01 21:05:31  5-MIN KMSN 240305Z 29003KT 10SM CLR 23/22 A2987 910 93 2100 290/03 RMK AO2
14837KMSN MSN20010723211009307/23/01 21:10:31  5-MIN KMSN 240310Z 30004KT 10SM CLR 23/22 A2988 910 90 2100 300/04 RMK AO2
14837KMSN MSN20010723211509307/23/01 21:15:31  5-MIN KMSN 240315Z 29004KT 10SM CLR 24/22 A2988 900 87 2200 290/04 RMK AO2
14837KMSN MSN20010723212009307/23/01 21:20:31  5-MIN KMSN 240320Z 29004KT 10SM CLR 24/22 A2988 900 87 2200 290/04 RMK AO2
14837KMSN MSN20010723212509307/23/01 21:25:31  5-MIN KMSN 240325Z 29003KT 10SM CLR 24/22 A2988 900 87 2200 290/03 RMK AO2
14837KMSN MSN20010723213009307/23/01 21:30:31  5-MIN KMSN 240330Z 00000KT 10SM CLR 24/22 A2988 900 87 2200 000/00 RMK AO2
14837KMSN MSN20010723213509307/23/01 21:35:31  5-MIN KMSN 240335Z 00000KT 10SM CLR 24/22 A2988 900 87 2200 000/00 RMK AO2
14837KMSN MSN20010723214009307/23/01 21:40:31  5-MIN KMSN 240340Z 00000KT 10SM CLR 23/22 A2988 900 93 2000 000/00 RMK AO2
14837KMSN MSN20010723214509307/23/01 21:45:31  5-MIN KMSN 240345Z 28003KT 10SM CLR 23/22 A2988 900 90 2100 280/03 RMK AO2
14837KMSN MSN20010723215011007/23/01 21:50:31  5-MIN KMSN 240350Z 29004KT 10SM CLR 23/22 A2988 900 90 2100 290/04 RMK AO2 SLP112 T02330217
14837KMSN MSN20010723215509307/23/01 21:55:31  5-MIN KMSN 240355Z 29004KT 10SM CLR 23/22 A2988 900 90 2100 290/04 RMK AO2
14837KMSN MSN20010723220009307/23/01 22:00:31  5-MIN KMSN 240400Z VRB03KT 10SM CLR 24/22 A2988 900 87 2200 VRB/03 RMK AO2
14837KMSN MSN20010723220509307/23/01 22:05:31  5-MIN KMSN 240405Z 28003KT 10SM CLR 24/22 A2988 900 87 2200 280/03 RMK AO2
14837KMSN MSN20010723221009307/23/01 22:10:31  5-MIN KMSN 240410Z VRB03KT 10SM CLR 24/22 A2988 900 87 2200 VRB/03 RMK AO2
14837KMSN MSN20010723221509307/23/01 22:15:31  5-MIN KMSN 240415Z VRB03KT 10SM CLR 24/22 A2988 900 87 2200 VRB/03 RMK AO2
14837KMSN MSN20010723222009307/23/01 22:20:31  5-MIN KMSN 240420Z 00000KT 10SM CLR 24/22 A2989 900 87 2200 000/00 RMK AO2
14837KMSN MSN20010723222509307/23/01 22:25:31  5-MIN KMSN 240425Z 25003KT 10SM CLR 24/22 A2989 900 87 2200 250/03 RMK AO2
14837KMSN MSN20010723223009307/23/01 22:30:31  5-MIN KMSN 240430Z 25003KT 10SM CLR 23/22 A2988 900 90 2100 250/03 RMK AO2
14837KMSN MSN20010723223509307/23/01 22:35:31  5-MIN KMSN 240435Z 00000KT 10SM CLR 23/22 A2989 900 90 2100 000/00 RMK AO2
14837KMSN MSN20010723224009307/23/01 22:40:31  5-MIN KMSN 240440Z 00000KT 10SM CLR 23/22 A2989 900 90 2100 000/00 RMK AO2
14837KMSN MSN20010723224509307/23/01 22:45:31  5-MIN KMSN 240445Z 00000KT 10SM CLR 23/21 A2989 890 90 2000 000/00 RMK AO2
14837KMSN MSN20010723225011007/23/01 22:50:31  5-MIN KMSN 240450Z 00000KT 10SM CLR 23/22 A2989 900 93 2000 000/00 RMK AO2 SLP114 T02280217
14837KMSN MSN20010723225509307/23/01 22:55:31  5-MIN KMSN 240455Z 00000KT 10SM CLR 23/22 A2989 890 90 2100 000/00 RMK AO2
14837KMSN MSN20010723230009307/23/01 23:00:31  5-MIN KMSN 240500Z VRB03KT 10SM CLR 23/22 A2989 890 90 2100 VRB/03 RMK AO2
14837KMSN MSN20010723230509307/23/01 23:05:31  5-MIN KMSN 240505Z 27003KT 10SM CLR 23/22 A2989 900 90 2100 270/03 RMK AO2
14837KMSN MSN20010723231009307/23/01 23:10:31  5-MIN KMSN 240510Z 00000KT 10SM CLR 23/22 A2988 900 93 2000 000/00 RMK AO2
14837KMSN MSN20010723231509307/23/01 23:15:31  5-MIN KMSN 240515Z VRB03KT 10SM CLR 23/22 A2989 900 90 2100 VRB/03 RMK AO2
14837KMSN MSN20010723232009307/23/01 23:20:31  5-MIN KMSN 240520Z VRB03KT 10SM CLR 23/22 A2989 890 90 2100 VRB/03 RMK AO2
14837KMSN MSN20010723232509307/23/01 23:25:31  5-MIN KMSN 240525Z VRB04KT 10SM CLR 23/22 A2989 890 90 2100 VRB/04 RMK AO2
14837KMSN MSN20010723233009307/23/01 23:30:31  5-MIN KMSN 240530Z VRB03KT 10SM CLR 23/22 A2989 890 90 2100 VRB/03 RMK AO2
14837KMSN MSN20010723233509307/23/01 23:35:31  5-MIN KMSN 240535Z VRB03KT 10SM CLR 23/22 A2989 890 90 2100 VRB/03 RMK AO2
14837KMSN MSN20010723234009307/23/01 23:40:31  5-MIN KMSN 240540Z VRB03KT 10SM CLR 23/22 A2989 890 90 2100 VRB/03 RMK AO2
14837KMSN MSN20010723234509307/23/01 23:45:31  5-MIN KMSN 240545Z VRB03KT 10SM CLR 23/22 A2989 890 90 2100 VRB/03 RMK AO2
14837KMSN MSN20010723235013807/23/01 23:50:31  5-MIN KMSN 240550Z 00000KT 10SM CLR 23/22 A2989 890 90 2100 000/00 RMK AO2 SLP116 T02330217 10283 20228 403170228 53007
14837KMSN MSN20010723235509307/23/01 23:55:31  5-MIN KMSN 240555Z VRB04KT 10SM CLR 23/22 A2989 890 90 2100 VRB/04 RMK AO2
14837KMSN MSN20010724000009307/24/01 00:00:31  5-MIN KMSN 240600Z VRB03KT 10SM CLR 23/22 A2989 890 90 2100 VRB/03 RMK AO2
14837KMSN MSN20010724000509307/24/01 00:05:31  5-MIN KMSN 240605Z VRB04KT 10SM CLR 23/22 A2989 890 90 2100 VRB/04 RMK AO2
14837KMSN MSN20010724001009307/24/01 00:10:31  5-MIN KMSN 240610Z 28004KT 10SM CLR 23/22 A2989 890 90 2100 280/04 RMK AO2
14837KMSN MSN20010724001509307/24/01 00:15:31  5-MIN KMSN 240615Z VRB03KT 10SM CLR 23/22 A2989 890 90 2100 VRB/03 RMK AO2
14837KMSN MSN20010724002009307/24/01 00:20:31  5-MIN KMSN 240620Z VRB04KT 10SM CLR 23/22 A2989 890 93 2000 VRB/04 RMK AO2
14837KMSN MSN20010724002509307/24/01 00:25:31  5-MIN KMSN 240625Z 29004KT 10SM CLR 23/22 A2989 890 93 2000 290/04 RMK AO2
14837KMSN MSN20010724003009307/24/01 00:30:31  5-MIN KMSN 240630Z 29005KT 10SM CLR 23/22 A2989 890 93 2000 290/05 RMK AO2
14837KMSN MSN20010724003509307/24/01 00:35:31  5-MIN KMSN 240635Z 28004KT 10SM CLR 23/22 A2989 890 93 2000 280/04 RMK AO2
14837KMSN MSN20010724004009307/24/01 00:40:31  5-MIN KMSN 240640Z VRB03KT 10SM CLR 23/22 A2989 890 93 2000 VRB/03 RMK AO2
14837KMSN MSN20010724004509307/24/01 00:45:31  5-MIN KMSN 240645Z VRB03KT 10SM CLR 23/22 A2989 890 93 2000 VRB/03 RMK AO2
14837KMSN MSN20010724005011007/24/01 00:50:31  5-MIN KMSN 240650Z VRB03KT 10SM CLR 23/21 A2989 890 90 2000 VRB/03 RMK AO2 SLP117 T02280211
14837KMSN MSN20010724005509307/24/01 00:55:31  5-MIN KMSN 240655Z 00000KT 10SM CLR 23/21 A2989 890 90 2000 000/00 RMK AO2
14837KMSN MSN20010724010009307/24/01 01:00:31  5-MIN KMSN 240700Z VRB03KT 10SM CLR 23/21 A2989 890 90 2000 VRB/03 RMK AO2
14837KMSN MSN20010724010509307/24/01 01:05:31  5-MIN KMSN 240705Z VRB03KT 10SM CLR 22/21 A2989 890 93 2000 VRB/03 RMK AO2
14837KMSN MSN20010724011009307/24/01 01:10:31  5-MIN KMSN 240710Z VRB03KT 10SM CLR 22/21 A2989 890 93 2000 VRB/03 RMK AO2
14837KMSN MSN20010724011509307/24/01 01:15:31  5-MIN KMSN 240715Z 00000KT 10SM CLR 22/21 A2989 890 93 2000 000/00 RMK AO2
14837KMSN MSN20010724012009207/24/01 01:20:31  5-MIN KMSN 240720Z 00000KT 9SM CLR 22/21 A2989 890 93 2000 000/00 RMK AO2
14837KMSN MSN20010724012509207/24/01 01:25:31  5-MIN KMSN 240725Z VRB03KT 9SM CLR 22/21 A2989 890 93 2000 VRB/03 RMK AO2
14837KMSN MSN20010724013009207/24/01 01:30:31  5-MIN KMSN 240730Z 00000KT 9SM CLR 22/21 A2989 890 93 2000 000/00 RMK AO2
14837KMSN MSN20010724013509207/24/01 01:35:31  5-MIN KMSN 240735Z 00000KT 9SM CLR 22/21 A2989 900 93 2000 000/00 RMK AO2
14837KMSN MSN20010724014009207/24/01 01:40:31  5-MIN KMSN 240740Z 00000KT 9SM CLR 22/21 A2989 900 93 2000 000/00 RMK AO2
14837KMSN MSN20010724014509207/24/01 01:45:31  5-MIN KMSN 240745Z 31003KT 8SM CLR 22/21 A2989 900 97 1900 310/03 RMK AO2
14837KMSN MSN20010724015010907/24/01 01:50:31  5-MIN KMSN 240750Z 32004KT 8SM CLR 22/21 A2989 890 93 2000 320/04 RMK AO2 SLP115 T02220211
14837KMSN MSN20010724015509207/24/01 01:55:31  5-MIN KMSN 240755Z 32004KT 8SM CLR 22/21 A2988 900 93 2000 320/04 RMK AO2
14837KMSN MSN20010724020009207/24/01 02:00:31  5-MIN KMSN 240800Z 32003KT 8SM CLR 22/21 A2988 900 93 2000 320/03 RMK AO2
14837KMSN MSN20010724020509207/24/01 02:05:31  5-MIN KMSN 240805Z 31004KT 8SM CLR 22/21 A2988 900 97 1900 310/04 RMK AO2
14837KMSN MSN20010724021009207/24/01 02:10:31  5-MIN KMSN 240810Z 31005KT 8SM CLR 22/21 A2988 900 97 1900 310/05 RMK AO2
14837KMSN MSN20010724021509207/24/01 02:15:31  5-MIN KMSN 240815Z 31005KT 8SM CLR 22/21 A2988 900 93 2000 310/05 RMK AO2
14837KMSN MSN20010724022009207/24/01 02:20:31  5-MIN KMSN 240820Z 31003KT 8SM CLR 22/21 A2988 900 93 2000 310/03 RMK AO2
14837KMSN MSN20010724022509207/24/01 02:25:31  5-MIN KMSN 240825Z 33003KT 8SM CLR 22/21 A2988 900 93 2000 330/03 RMK AO2
14837KMSN MSN20010724023009207/24/01 02:30:31  5-MIN KMSN 240830Z 00000KT 7SM CLR 21/20 A2988 900 97 1800 000/00 RMK AO2
14837KMSN MSN20010724023509507/24/01 02:35:31  5-MIN KMSN 240835Z 00000KT 6SM BR CLR 21/20 A2988 900 97 1800 000/00 RMK AO2
14837KMSN MSN20010724024009507/24/01 02:40:31  5-MIN KMSN 240840Z 00000KT 6SM BR CLR 21/21 A2989 900 97 1900 000/00 RMK AO2
14837KMSN MSN20010724024509207/24/01 02:45:31  5-MIN KMSN 240845Z 00000KT 7SM CLR 21/21 A2989 900 97 1900 000/00 RMK AO2
14837KMSN MSN20010724025011507/24/01 02:50:31  5-MIN KMSN 240850Z 00000KT 7SM CLR 21/21 A2989 890 97 1900 000/00 RMK AO2 SLP116 T02110206 51006
14837KMSN MSN20010724025509207/24/01 02:55:31  5-MIN KMSN 240855Z 00000KT 7SM CLR 21/20 A2989 900 97 1800 000/00 RMK AO2
14837KMSN MSN20010724030009207/24/01 03:00:31  5-MIN KMSN 240900Z 00000KT 7SM CLR 21/21 A2989 900 97 1900 000/00 RMK AO2
14837KMSN MSN20010724030509207/24/01 03:05:31  5-MIN KMSN 240905Z VRB03KT 7SM CLR 21/20 A2988 900 97 1800 VRB/03 RMK AO2
14837KMSN MSN20010724031009207/24/01 03:10:31  5-MIN KMSN 240910Z 30003KT 7SM CLR 21/21 A2988 900 97 1900 300/03 RMK AO2
14837KMSN MSN20010724031509207/24/01 03:15:31  5-MIN KMSN 240915Z 31004KT 7SM CLR 22/21 A2988 900 97 1900 310/04 RMK AO2
14837KMSN MSN20010724032009207/24/01 03:20:31  5-MIN KMSN 240920Z 30004KT 7SM CLR 22/21 A2988 900 97 1900 300/04 RMK AO2
14837KMSN MSN20010724032509207/24/01 03:25:31  5-MIN KMSN 240925Z 30004KT 8SM CLR 22/21 A2988 900 97 1900 300/04 RMK AO2
14837KMSN MSN20010724033009207/24/01 03:30:31  5-MIN KMSN 240930Z 32003KT 8SM CLR 22/21 A2988 900 97 1900 310/03 RMK AO2
14837KMSN MSN20010724033509207/24/01 03:35:31  5-MIN KMSN 240935Z 00000KT 7SM CLR 22/21 A2989 900 97 1900 000/00 RMK AO2
14837KMSN MSN20010724034009207/24/01 03:40:31  5-MIN KMSN 240940Z 00000KT 7SM CLR 21/20 A2988 900 97 1800 000/00 RMK AO2
14837KMSN MSN20010724034509207/24/01 03:45:31  5-MIN KMSN 240945Z 00000KT 7SM CLR 21/20 A2989 900 97 1800 000/00 RMK AO2
14837KMSN MSN20010724035010907/24/01 03:50:31  5-MIN KMSN 240950Z 00000KT 8SM CLR 20/19 A2989 900 97 1700 000/00 RMK AO2 SLP115 T02000194
14837KMSN MSN20010724035509207/24/01 03:55:31  5-MIN KMSN 240955Z 00000KT 7SM CLR 20/19 A2989 890 97 1700 000/00 RMK AO2
14837KMSN MSN20010724040009507/24/01 04:00:31  5-MIN KMSN 241000Z 00000KT 4SM BR CLR 21/20 A2989 890 97 1800 000/00 RMK AO2
14837KMSN MSN20010724040509507/24/01 04:05:31  5-MIN KMSN 241005Z 00000KT 4SM BR CLR 21/20 A2989 890 97 1800 000/00 RMK AO2
14837KMSN MSN20010724041009507/24/01 04:10:31  5-MIN KMSN 241010Z 00000KT 6SM BR CLR 21/20 A2989 890 97 1800 000/00 RMK AO2
14837KMSN MSN20010724041509607/24/01 04:15:31  5-MIN KMSN 241015Z 00000KT 6SM BR CLR 20/20 A2989 890 100 1700 000/00 RMK AO2
14837KMSN MSN20010724042010007/24/01 04:20:31  5-MIN KMSN 241020Z 00000KT 5SM BR CLR 21/20 A2989 890 97 1800 000/00 RMK AO2 MIFG
14837KMSN MSN20010724042510007/24/01 04:25:31  5-MIN KMSN 241025Z 00000KT 5SM BR CLR 21/20 A2990 890 97 1800 000/00 RMK AO2 MIFG
14837KMSN MSN20010724043010007/24/01 04:30:31  5-MIN KMSN 241030Z 00000KT 6SM BR CLR 21/20 A2990 880 97 1800 000/00 RMK AO2 MIFG
14837KMSN MSN20010724043510007/24/01 04:35:31  5-MIN KMSN 241035Z 00000KT 3SM BR CLR 20/19 A2990 880 97 1700 000/00 RMK AO2 MIFG
14837KMSN MSN20010724044010807/24/01 04:40:31  5-MIN KMSN 241040Z 00000KT 4SM MIFG BR FEW015 20/19 A2990 880 97 1700 000/00 RMK AO2 MIFG
14837KMSN MSN20010724044510807/24/01 04:45:31  5-MIN KMSN 241045Z 00000KT 4SM MIFG BR FEW015 20/19 A2991 880 97 1700 000/00 RMK AO2 MIFG
14837KMSN MSN20010724045012307/24/01 04:50:31  5-MIN KMSN 241050Z 00000KT 4SM MIFG BR CLR 20/20 A2991 870 100 1700 000/00 RMK AO2 SLP123 MIFG T02000200
14837KMSN MSN20010724045510107/24/01 04:55:31  5-MIN KMSN 241055Z 00000KT 4SM MIFG BR CLR 20/20 A2991 870 100 1700 000/00 RMK AO2
14837KMSN MSN20010724050010107/24/01 05:00:31  5-MIN KMSN 241100Z 00000KT 4SM MIFG BR CLR 20/20 A2991 870 100 1700 000/00 RMK AO2
14837KMSN MSN20010724050510107/24/01 05:05:31  5-MIN KMSN 241105Z 00000KT 4SM MIFG BR CLR 20/20 A2991 870 100 1700 000/00 RMK AO2
14837KMSN MSN20010724051010107/24/01 05:10:31  5-MIN KMSN 241110Z 29003KT 4SM MIFG BR CLR 20/20 A2992 870 100 1700 290/03 RMK AO2
14837KMSN MSN20010724051510107/24/01 05:15:31  5-MIN KMSN 241115Z 00000KT 4SM MIFG BR CLR 20/20 A2992 870 100 1700 000/00 RMK AO2
14837KMSN MSN20010724052010107/24/01 05:20:31  5-MIN KMSN 241120Z 30003KT 4SM MIFG BR CLR 21/21 A2991 870 100 1800 300/03 RMK AO2
14837KMSN MSN20010724052510107/24/01 05:25:31  5-MIN KMSN 241125Z 31003KT 4SM MIFG BR CLR 21/21 A2991 870 100 1800 310/03 RMK AO2
14837KMSN MSN20010724053010107/24/01 05:30:31  5-MIN KMSN 241130Z 00000KT 4SM MIFG BR CLR 21/21 A2991 870 100 1800 000/00 RMK AO2
14837KMSN MSN20010724053510107/24/01 05:35:31  5-MIN KMSN 241135Z 00000KT 4SM MIFG BR CLR 21/21 A2992 870 100 1800 000/00 RMK AO2
14837KMSN MSN20010724054010007/24/01 05:40:31  5-MIN KMSN 241140Z 00000KT 4SM MIFG BR CLR 21/21 A2992 860 97 1800 000/00 RMK AO2
14837KMSN MSN20010724054510107/24/01 05:45:31  5-MIN KMSN 241145Z 00000KT 4SM MIFG BR CLR 21/21 A2992 860 100 1800 000/00 RMK AO2
14837KMSN MSN20010724055014107/24/01 05:50:31  5-MIN KMSN 241150Z 00000KT 4SM MIFG BR CLR 22/21 A2992 860 97 1900 000/00 RMK AO2 SLP127 70001 T02170211 10233 20200 57001
14837KMSN MSN20010724055510007/24/01 05:55:31  5-MIN KMSN 241155Z 31003KT 6SM MIFG BR CLR 22/21 A2992 860 97 1900 310/03 RMK AO2
14837KMSN MSN20010724060010007/24/01 06:00:31  5-MIN KMSN 241200Z 31004KT 7SM MIFG BR CLR 22/21 A2993 860 93 1900 310/04 RMK AO2
14837KMSN MSN20010724060510007/24/01 06:05:31  5-MIN KMSN 241205Z 32003KT 8SM MIFG BR CLR 23/21 A2993 860 90 2000 310/03 RMK AO2
14837KMSN MSN20010724061009307/24/01 06:10:31  5-MIN KMSN 241210Z 32003KT 10SM CLR 23/21 A2993 860 90 2000 320/03 RMK AO2
14837KMSN MSN20010724061509307/24/01 06:15:31  5-MIN KMSN 241215Z 32004KT 10SM CLR 23/21 A2993 850 90 2000 320/04 RMK AO2
14837KMSN MSN20010724062009307/24/01 06:20:31  5-MIN KMSN 241220Z 32003KT 10SM CLR 23/21 A2993 850 90 2000 320/03 RMK AO2
14837KMSN MSN20010724062509307/24/01 06:25:31  5-MIN KMSN 241225Z 00000KT 10SM CLR 23/21 A2993 850 87 2100 000/00 RMK AO2
14837KMSN MSN20010724063009307/24/01 06:30:31  5-MIN KMSN 241230Z 32004KT 10SM CLR 23/21 A2994 850 87 2100 320/04 RMK AO2
14837KMSN MSN20010724063509307/24/01 06:35:31  5-MIN KMSN 241235Z 32004KT 10SM CLR 23/21 A2994 850 84 2000 320/04 RMK AO2
14837KMSN MSN20010724064009307/24/01 06:40:31  5-MIN KMSN 241240Z 31004KT 10SM CLR 23/21 A2994 850 84 2000 310/04 RMK AO2
14837KMSN MSN20010724064509307/24/01 06:45:31  5-MIN KMSN 241245Z 32005KT 10SM CLR 24/21 A2994 840 81 2100 320/05 RMK AO2
14837KMSN MSN20010724065011007/24/01 06:50:31  5-MIN KMSN 241250Z 32006KT 10SM CLR 24/21 A2994 840 81 2100 320/06 RMK AO2 SLP133 T02390206
14837KMSN MSN20010724065509307/24/01 06:55:31  5-MIN KMSN 241255Z 32005KT 10SM CLR 24/20 A2994 840 78 2100 320/05 RMK AO2
14837KMSN MSN20010724070009307/24/01 07:00:31  5-MIN KMSN 241300Z 34005KT 10SM CLR 24/21 A2994 850 81 2100 330/05 RMK AO2
14837KMSN MSN20010724070509307/24/01 07:05:31  5-MIN KMSN 241305Z 33005KT 10SM CLR 24/21 A2994 840 78 2200 330/05 RMK AO2
14837KMSN MSN20010724071009307/24/01 07:10:31  5-MIN KMSN 241310Z 34004KT 10SM CLR 24/21 A2994 840 78 2200 340/04 RMK AO2
14837KMSN MSN20010724071509307/24/01 07:15:31  5-MIN KMSN 241315Z 33005KT 10SM CLR 24/21 A2994 850 78 2200 330/05 RMK AO2
14837KMSN MSN20010724072009307/24/01 07:20:31  5-MIN KMSN 241320Z 33005KT 10SM CLR 25/20 A2994 850 73 2200 330/05 RMK AO2
14837KMSN MSN20010724072509307/24/01 07:25:31  5-MIN KMSN 241325Z 34004KT 10SM CLR 25/20 A2994 850 73 2200 340/04 RMK AO2
14837KMSN MSN20010724073009307/24/01 07:30:31  5-MIN KMSN 241330Z 34005KT 10SM CLR 25/19 A2994 850 71 2200 340/05 RMK AO2
14837KMSN MSN20010724073509307/24/01 07:35:31  5-MIN KMSN 241335Z 33004KT 10SM CLR 25/20 A2994 840 73 2200 330/04 RMK AO2
14837KMSN MSN20010724074009307/24/01 07:40:31  5-MIN KMSN 241340Z VRB03KT 10SM CLR 25/20 A2994 840 73 2200 VRB/03 RMK AO2
14837KMSN MSN20010724074509307/24/01 07:45:31  5-MIN KMSN 241345Z 36004KT 10SM CLR 26/19 A2995 840 68 2300 360/04 RMK AO2
14837KMSN MSN20010724075011007/24/01 07:50:31  5-MIN KMSN 241350Z 34004KT 10SM CLR 26/20 A2995 840 71 2300 330/04 RMK AO2 SLP134 T02560200
14837KMSN MSN20010724075509307/24/01 07:55:31  5-MIN KMSN 241355Z 33005KT 10SM CLR 26/19 A2995 840 68 2300 330/05 RMK AO2
14837KMSN MSN20010724080009307/24/01 08:00:31  5-MIN KMSN 241400Z 36003KT 10SM CLR 26/19 A2995 840 68 2300 360/03 RMK AO2
14837KMSN MSN20010724080509307/24/01 08:05:31  5-MIN KMSN 241405Z VRB03KT 10SM CLR 26/19 A2995 840 66 2300 VRB/03 RMK AO2
14837KMSN MSN20010724081009307/24/01 08:10:31  5-MIN KMSN 241410Z VRB04KT 10SM CLR 26/19 A2995 840 68 2300 VRB/04 RMK AO2
14837KMSN MSN20010724081509307/24/01 08:15:31  5-MIN KMSN 241415Z VRB03KT 10SM CLR 26/19 A2995 830 66 2300 VRB/03 RMK AO2
14837KMSN MSN20010724082009307/24/01 08:20:31  5-MIN KMSN 241420Z 33004KT 10SM CLR 26/19 A2996 830 66 2300 330/04 RMK AO2
14837KMSN MSN20010724082509307/24/01 08:25:31  5-MIN KMSN 241425Z 30003KT 10SM CLR 26/19 A2996 830 64 2300 300/03 RMK AO2
14837KMSN MSN20010724083009307/24/01 08:30:31  5-MIN KMSN 241430Z 00000KT 10SM CLR 26/19 A2996 830 64 2300 000/00 RMK AO2
14837KMSN MSN20010724083509307/24/01 08:35:31  5-MIN KMSN 241435Z 30003KT 10SM CLR 26/19 A2996 830 66 2300 300/03 RMK AO2
14837KMSN MSN20010724084009307/24/01 08:40:31  5-MIN KMSN 241440Z VRB03KT 10SM CLR 27/19 A2996 830 64 2400 VRB/03 RMK AO2
14837KMSN MSN20010724084509307/24/01 08:45:31  5-MIN KMSN 241445Z 30003KT 10SM CLR 27/19 A2996 830 62 2400 290/03 RMK AO2
14837KMSN MSN20010724085011607/24/01 08:50:31  5-MIN KMSN 241450Z 02004KT 10SM CLR 27/19 A2996 830 62 2400 020/04 RMK AO2 SLP138 T02670189 53012
14837KMSN MSN20010724085509307/24/01 08:55:31  5-MIN KMSN 241455Z 00000KT 10SM CLR 27/18 A2996 830 60 2400 000/00 RMK AO2
14837KMSN MSN20010724090009307/24/01 09:00:31  5-MIN KMSN 241500Z 31003KT 10SM CLR 27/19 A2996 830 60 2500 310/03 RMK AO2
14837KMSN MSN20010724090509307/24/01 09:05:31  5-MIN KMSN 241505Z 04003KT 10SM CLR 27/18 A2996 830 58 2500 040/03 RMK AO2
14837KMSN MSN20010724091009307/24/01 09:10:31  5-MIN KMSN 241510Z 00000KT 10SM CLR 27/18 A2996 830 58 2500 000/00 RMK AO2
14837KMSN MSN20010724091509307/24/01 09:15:31  5-MIN KMSN 241515Z 00000KT 10SM CLR 28/18 A2996 830 56 2500 000/00 RMK AO2
14837KMSN MSN20010724092009307/24/01 09:20:31  5-MIN KMSN 241520Z VRB03KT 10SM CLR 28/18 A2996 830 56 2500 VRB/03 RMK AO2
14837KMSN MSN20010724092509307/24/01 09:25:31  5-MIN KMSN 241525Z 31004KT 10SM CLR 28/18 A2996 830 56 2500 310/04 RMK AO2
14837KMSN MSN20010724093009307/24/01 09:30:31  5-MIN KMSN 241530Z 00000KT 10SM CLR 28/18 A2996 830 54 2500 000/00 RMK AO2
14837KMSN MSN20010724093509307/24/01 09:35:31  5-MIN KMSN 241535Z 00000KT 10SM CLR 28/18 A2995 830 54 2500 000/00 RMK AO2
14837KMSN MSN20010724094009307/24/01 09:40:31  5-MIN KMSN 241540Z 00000KT 10SM CLR 28/18 A2995 830 54 2600 000/00 RMK AO2
14837KMSN MSN20010724094509307/24/01 09:45:31  5-MIN KMSN 241545Z 01003KT 10SM CLR 28/18 A2995 840 54 2600 010/03 RMK AO2
14837KMSN MSN20010724095011007/24/01 09:50:31  5-MIN KMSN 241550Z 00000KT 10SM CLR 28/17 A2995 840 50 2600 000/00 RMK AO2 SLP136 T02830172
14837KMSN MSN20010724095509307/24/01 09:55:31  5-MIN KMSN 241555Z 11004KT 10SM CLR 28/18 A2995 840 52 2600 110/04 RMK AO2
14837KMSN MSN20010724100009307/24/01 10:00:31  5-MIN KMSN 241600Z 00000KT 10SM CLR 28/18 A2995 840 52 2600 000/00 RMK AO2
14837KMSN MSN20010724100509307/24/01 10:05:31  5-MIN KMSN 241605Z 00000KT 10SM CLR 29/17 A2994 840 48 2700 000/00 RMK AO2
14837KMSN MSN20010724101009307/24/01 10:10:31  5-MIN KMSN 241610Z VRB03KT 10SM CLR 28/17 A2994 850 50 2600 VRB/03 RMK AO2
14837KMSN MSN20010724101509307/24/01 10:15:31  5-MIN KMSN 241615Z 00000KT 10SM CLR 29/17 A2993 850 47 2700 000/00 RMK AO2
14837KMSN MSN20010724102009307/24/01 10:20:31  5-MIN KMSN 241620Z 00000KT 10SM CLR 28/16 A2994 850 45 2600 000/00 RMK AO2
14837KMSN MSN20010724102509307/24/01 10:25:31  5-MIN KMSN 241625Z 35003KT 10SM CLR 29/16 A2994 850 45 2700 350/03 RMK AO2
14837KMSN MSN20010724103009307/24/01 10:30:31  5-MIN KMSN 241630Z VRB04KT 10SM CLR 29/16 A2994 850 45 2700 VRB/04 RMK AO2
14837KMSN MSN20010724103509307/24/01 10:35:31  5-MIN KMSN 241635Z VRB03KT 10SM CLR 29/16 A2993 850 45 2700 VRB/03 RMK AO2
14837KMSN MSN20010724104009307/24/01 10:40:31  5-MIN KMSN 241640Z VRB03KT 10SM CLR 29/17 A2993 850 45 2700 VRB/03 RMK AO2
14837KMSN MSN20010724104509307/24/01 10:45:31  5-MIN KMSN 241645Z 33004KT 10SM CLR 29/17 A2993 850 47 2700 330/04 RMK AO2
14837KMSN MSN20010724105011007/24/01 10:50:31  5-MIN KMSN 241650Z 00000KT 10SM CLR 29/17 A2993 850 47 2700 000/00 RMK AO2 SLP130 T02890167
14837KMSN MSN20010724105509307/24/01 10:55:31  5-MIN KMSN 241655Z 00000KT 10SM CLR 29/17 A2993 850 45 2700 000/00 RMK AO2
14837KMSN MSN20010724110009307/24/01 11:00:31  5-MIN KMSN 241700Z 00000KT 10SM CLR 30/17 A2994 850 44 2800 000/00 RMK AO2
14837KMSN MSN20010724110509307/24/01 11:05:31  5-MIN KMSN 241705Z VRB04KT 10SM CLR 30/16 A2993 850 42 2800 VRB/04 RMK AO2
14837KMSN MSN20010724111009307/24/01 11:10:31  5-MIN KMSN 241710Z VRB03KT 10SM CLR 30/16 A2994 850 41 2800 VRB/03 RMK AO2
14837KMSN MSN20010724111509307/24/01 11:15:31  5-MIN KMSN 241715Z 00000KT 10SM CLR 30/15 A2994 850 39 2800 000/00 RMK AO2
14837KMSN MSN20010724112009307/24/01 11:20:31  5-MIN KMSN 241720Z 00000KT 10SM CLR 30/16 A2994 850 41 2800 000/00 RMK AO2
14837KMSN MSN20010724112509307/24/01 11:25:31  5-MIN KMSN 241725Z 34003KT 10SM CLR 30/16 A2994 850 42 2800 330/03 RMK AO2
14837KMSN MSN20010724113009307/24/01 11:30:31  5-MIN KMSN 241730Z 31003KT 10SM CLR 29/17 A2993 850 45 2700 310/03 RMK AO2
14837KMSN MSN20010724113509307/24/01 11:35:31  5-MIN KMSN 241735Z 32003KT 10SM CLR 29/17 A2993 860 45 2700 310/03 RMK AO2
14837KMSN MSN20010724114009307/24/01 11:40:31  5-MIN KMSN 241740Z 32004KT 10SM CLR 29/18 A2993 860 49 2700 320/04 RMK AO2
14837KMSN MSN20010724114509307/24/01 11:45:31  5-MIN KMSN 241745Z 29005KT 10SM CLR 29/17 A2992 860 47 2700 290/05 RMK AO2
14837KMSN MSN20010724115012807/24/01 11:50:31  5-MIN KMSN 241750Z 00000KT 10SM CLR 29/17 A2992 860 47 2700 000/00 RMK AO2 SLP127 T02890167 10300 20217 51011
14837KMSN MSN20010724115509307/24/01 11:55:31  5-MIN KMSN 241755Z VRB03KT 10SM CLR 29/17 A2992 860 45 2800 VRB/03 RMK AO2
14837KMSN MSN20010724120009307/24/01 12:00:31  5-MIN KMSN 241800Z 00000KT 10SM CLR 29/17 A2992 860 45 2800 000/00 RMK AO2
14837KMSN MSN20010724120509307/24/01 12:05:31  5-MIN KMSN 241805Z 00000KT 10SM CLR 30/17 A2992 870 44 2800 000/00 RMK AO2
14837KMSN MSN20010724121009307/24/01 12:10:31  5-MIN KMSN 241810Z 01004KT 10SM CLR 30/17 A2992 860 44 2800 360/04 RMK AO2
14837KMSN MSN20010724121509307/24/01 12:15:31  5-MIN KMSN 241815Z 00000KT 10SM CLR 30/16 A2992 870 42 2800 000/00 RMK AO2
14837KMSN MSN20010724122009307/24/01 12:20:31  5-MIN KMSN 241820Z 34004KT 10SM CLR 30/17 A2992 870 44 2800 340/04 RMK AO2
14837KMSN MSN20010724122509307/24/01 12:25:31  5-MIN KMSN 241825Z 34003KT 10SM CLR 29/16 A2992 870 45 2700 340/03 RMK AO2
14837KMSN MSN20010724123009307/24/01 12:30:31  5-MIN KMSN 241830Z 34004KT 10SM CLR 29/17 A2992 870 47 2700 340/04 RMK AO2
14837KMSN MSN20010724123509307/24/01 12:35:31  5-MIN KMSN 241835Z 34004KT 10SM CLR 29/17 A2991 870 45 2800 340/04 RMK AO2
14837KMSN MSN20010724124009307/24/01 12:40:31  5-MIN KMSN 241840Z 35004KT 10SM CLR 30/17 A2992 870 45 2800 350/04 RMK AO2
14837KMSN MSN20010724124509307/24/01 12:45:31  5-MIN KMSN 241845Z VRB04KT 10SM CLR 30/16 A2991 870 42 2800 VRB/04 RMK AO2
14837KMSN MSN20010724125011007/24/01 12:50:31  5-MIN KMSN 241850Z 30005KT 10SM CLR 30/16 A2991 870 42 2800 300/05 RMK AO2 SLP122 T03000161
14837KMSN MSN20010724125509307/24/01 12:55:31  5-MIN KMSN 241855Z VRB03KT 10SM CLR 30/16 A2991 870 41 2800 VRB/03 RMK AO2
14837KMSN MSN20010724130009307/24/01 13:00:31  5-MIN KMSN 241900Z 07004KT 10SM CLR 30/16 A2991 870 42 2800 060/04 RMK AO2
14837KMSN MSN20010724130509307/24/01 13:05:31  5-MIN KMSN 241905Z 35005KT 10SM CLR 31/17 A2991 870 42 2900 350/05 RMK AO2
14837KMSN MSN20010724131009307/24/01 13:10:31  5-MIN KMSN 241910Z 35005KT 10SM CLR 31/17 A2991 870 44 2900 350/05 RMK AO2
14837KMSN MSN20010724131509307/24/01 13:15:31  5-MIN KMSN 241915Z VRB04KT 10SM CLR 31/17 A2991 880 44 2900 VRB/04 RMK AO2
14837KMSN MSN20010724132009307/24/01 13:20:31  5-MIN KMSN 241920Z VRB03KT 10SM CLR 30/16 A2991 880 42 2800 VRB/03 RMK AO2
14837KMSN MSN20010724132509307/24/01 13:25:31  5-MIN KMSN 241925Z 35004KT 10SM CLR 31/16 A2991 880 40 3000 350/04 RMK AO2
14837KMSN MSN20010724133009307/24/01 13:30:31  5-MIN KMSN 241930Z VRB04KT 10SM CLR 31/16 A2990 880 40 3000 VRB/04 RMK AO2
14837KMSN MSN20010724133509307/24/01 13:35:31  5-MIN KMSN 241935Z 00000KT 10SM CLR 31/16 A2990 880 41 2900 000/00 RMK AO2
14837KMSN MSN20010724134009307/24/01 13:40:31  5-MIN KMSN 241940Z 03003KT 10SM CLR 31/16 A2990 880 40 3000 030/03 RMK AO2
14837KMSN MSN20010724134509307/24/01 13:45:31  5-MIN KMSN 241945Z VRB03KT 10SM CLR 31/16 A2990 880 40 3000 VRB/03 RMK AO2
14837KMSN MSN20010724135011007/24/01 13:50:31  5-MIN KMSN 241950Z 33004KT 10SM CLR 31/16 A2990 880 40 3000 330/04 RMK AO2 SLP119 T03110161
14837KMSN MSN20010724135509307/24/01 13:55:31  5-MIN KMSN 241955Z 03003KT 10SM CLR 31/17 A2990 880 41 3000 030/03 RMK AO2
14837KMSN MSN20010724140009307/24/01 14:00:31  5-MIN KMSN 242000Z 06005KT 10SM CLR 31/16 A2989 890 41 2900 060/05 RMK AO2
14837KMSN MSN20010724140509307/24/01 14:05:31  5-MIN KMSN 242005Z 05003KT 10SM CLR 31/16 A2990 890 41 2900 050/03 RMK AO2
14837KMSN MSN20010724141009307/24/01 14:10:31  5-MIN KMSN 242010Z VRB04KT 10SM CLR 31/16 A2990 890 40 3000 VRB/04 RMK AO2
14837KMSN MSN20010724141509307/24/01 14:15:31  5-MIN KMSN 242015Z 35004KT 10SM CLR 31/17 A2989 890 42 3000 350/04 RMK AO2
14837KMSN MSN20010724142009307/24/01 14:20:31  5-MIN KMSN 242020Z 00000KT 10SM CLR 31/16 A2989 890 40 3000 000/00 RMK AO2
14837KMSN MSN20010724142509307/24/01 14:25:31  5-MIN KMSN 242025Z 01008KT 10SM CLR 31/18 A2989 890 46 3000 010/08 RMK AO2
14837KMSN MSN20010724143009307/24/01 14:30:31  5-MIN KMSN 242030Z 34005KT 10SM CLR 31/18 A2989 890 46 3000 340/05 RMK AO2
14837KMSN MSN20010724143509307/24/01 14:35:31  5-MIN KMSN 242035Z 01005KT 10SM CLR 31/18 A2989 890 47 2900 010/05 RMK AO2
14837KMSN MSN20010724144009307/24/01 14:40:31  5-MIN KMSN 242040Z VRB03KT 10SM CLR 31/18 A2989 890 46 2900 VRB/03 RMK AO2
14837KMSN MSN20010724144509307/24/01 14:45:31  5-MIN KMSN 242045Z 33004KT 10SM CLR 31/18 A2989 890 46 2900 320/04 RMK AO2
14837KMSN MSN20010724145011607/24/01 14:50:31  5-MIN KMSN 242050Z VRB04KT 10SM CLR 31/18 A2989 890 46 2900 VRB/04 RMK AO2 SLP115 T03060178 58011
14837KMSN MSN20010724145509307/24/01 14:55:31  5-MIN KMSN 242055Z 02005KT 10SM CLR 31/18 A2989 890 44 3000 020/05 RMK AO2
14837KMSN MSN20010724150009307/24/01 15:00:31  5-MIN KMSN 242100Z VRB05KT 10SM CLR 31/18 A2989 890 44 3000 VRB/05 RMK AO2
14837KMSN MSN20010724150509307/24/01 15:05:31  5-MIN KMSN 242105Z 04005KT 10SM CLR 31/18 A2989 890 44 3000 040/05 RMK AO2
14837KMSN MSN20010724151009307/24/01 15:10:31  5-MIN KMSN 242110Z 35004KT 10SM CLR 31/18 A2989 890 44 3000 350/04 RMK AO2
14837KMSN MSN20010724151509307/24/01 15:15:31  5-MIN KMSN 242115Z 35005KT 10SM CLR 31/18 A2989 890 44 3000 350/05 RMK AO2
14837KMSN MSN20010724152009307/24/01 15:20:31  5-MIN KMSN 242120Z 02007KT 10SM CLR 31/19 A2989 890 47 3000 010/07 RMK AO2
14837KMSN MSN20010724152509307/24/01 15:25:31  5-MIN KMSN 242125Z 36005KT 10SM CLR 31/18 A2988 900 46 3000 360/05 RMK AO2
14837KMSN MSN20010724153009307/24/01 15:30:31  5-MIN KMSN 242130Z 34006KT 10SM CLR 31/19 A2988 900 49 2900 340/06 RMK AO2
14837KMSN MSN20010724153509307/24/01 15:35:31  5-MIN KMSN 242135Z 35005KT 10SM CLR 31/19 A2988 900 49 2900 350/05 RMK AO2
14837KMSN MSN20010724154009307/24/01 15:40:31  5-MIN KMSN 242140Z 02006KT 10SM CLR 31/19 A2988 900 47 3000 020/06 RMK AO2
14837KMSN MSN20010724154509307/24/01 15:45:31  5-MIN KMSN 242145Z 36008KT 10SM CLR 31/19 A2988 900 49 2900 360/08 RMK AO2
14837KMSN MSN20010724155011007/24/01 15:50:31  5-MIN KMSN 242150Z 36008KT 10SM CLR 31/19 A2988 900 49 2900 360/08 RMK AO2 SLP111 T03060189
14837KMSN MSN20010724155509307/24/01 15:55:31  5-MIN KMSN 242155Z 02009KT 10SM CLR 30/18 A2988 900 49 2900 020/09 RMK AO2
14837KMSN MSN20010724160009307/24/01 16:00:31  5-MIN KMSN 242200Z 01008KT 10SM CLR 29/18 A2988 900 50 2800 360/08 RMK AO2
14837KMSN MSN20010724160509307/24/01 16:05:31  5-MIN KMSN 242205Z 02009KT 10SM CLR 29/18 A2988 900 50 2800 020/09 RMK AO2
14837KMSN MSN20010724161009307/24/01 16:10:31  5-MIN KMSN 242210Z 36004KT 10SM CLR 29/18 A2988 900 50 2800 360/04 RMK AO2
14837KMSN MSN20010724161509307/24/01 16:15:31  5-MIN KMSN 242215Z 01005KT 10SM CLR 29/19 A2988 900 54 2800 010/05 RMK AO2
14837KMSN MSN20010724162009307/24/01 16:20:31  5-MIN KMSN 242220Z VRB04KT 10SM CLR 30/19 A2989 900 52 2900 VRB/04 RMK AO2
14837KMSN MSN20010724162509307/24/01 16:25:31  5-MIN KMSN 242225Z 34004KT 10SM CLR 29/19 A2989 900 54 2800 330/04 RMK AO2
14837KMSN MSN20010724163009307/24/01 16:30:31  5-MIN KMSN 242230Z 34003KT 10SM CLR 29/19 A2988 910 54 2800 340/03 RMK AO2
14837KMSN MSN20010724163509307/24/01 16:35:31  5-MIN KMSN 242235Z 01005KT 10SM CLR 31/20 A2987 910 52 2900 010/05 RMK AO2
14837KMSN MSN20010724164009307/24/01 16:40:31  5-MIN KMSN 242240Z VRB05KT 10SM CLR 31/19 A2988 900 51 2900 VRB/05 RMK AO2
14837KMSN MSN20010724164509307/24/01 16:45:31  5-MIN KMSN 242245Z 34005KT 10SM CLR 30/19 A2988 900 51 2900 340/05 RMK AO2
14837KMSN MSN20010724165011007/24/01 16:50:31  5-MIN KMSN 242250Z 34005KT 10SM CLR 30/19 A2988 900 52 2900 340/05 RMK AO2 SLP111 T03000194
14837KMSN MSN20010724165509307/24/01 16:55:31  5-MIN KMSN 242255Z 35004KT 10SM CLR 29/19 A2988 900 56 2700 350/04 RMK AO2
14837KMSN MSN20010724170009307/24/01 17:00:31  5-MIN KMSN 242300Z 02007KT 10SM CLR 28/19 A2988 910 58 2700 020/07 RMK AO2
14837KMSN MSN20010724170509307/24/01 17:05:31  5-MIN KMSN 242305Z 35005KT 10SM CLR 28/19 A2988 900 60 2600 350/05 RMK AO2
14837KMSN MSN20010724171009307/24/01 17:10:31  5-MIN KMSN 242310Z 35004KT 10SM CLR 28/19 A2988 900 58 2600 350/04 RMK AO2
14837KMSN MSN20010724171509307/24/01 17:15:31  5-MIN KMSN 242315Z 35004KT 10SM CLR 28/19 A2988 900 60 2600 350/04 RMK AO2
14837KMSN MSN20010724172009307/24/01 17:20:31  5-MIN KMSN 242320Z 34003KT 10SM CLR 27/21 A2989 900 66 2500 340/03 RMK AO2
14837KMSN MSN20010724172509307/24/01 17:25:31  5-MIN KMSN 242325Z 36003KT 10SM CLR 27/21 A2988 900 66 2600 360/03 RMK AO2
14837KMSN MSN20010724173009307/24/01 17:30:31  5-MIN KMSN 242330Z 00000KT 10SM CLR 27/21 A2989 900 66 2500 000/00 RMK AO2
14837KMSN MSN20010724173509307/24/01 17:35:31  5-MIN KMSN 242335Z 33003KT 10SM CLR 27/21 A2989 890 69 2500 320/03 RMK AO2
14837KMSN MSN20010724174009307/24/01 17:40:31  5-MIN KMSN 242340Z 00000KT 10SM CLR 27/21 A2989 890 69 2500 000/00 RMK AO2
14837KMSN MSN20010724174509307/24/01 17:45:31  5-MIN KMSN 242345Z 00000KT 10SM CLR 27/20 A2990 890 66 2500 000/00 RMK AO2
14837KMSN MSN20010724175012807/24/01 17:50:31  5-MIN KMSN 242350Z 32003KT 10SM CLR 26/21 A2990 890 73 2400 320/03 RMK AO2 SLP118 T02610211 10311 20261 58010
14837KMSN MSN20010724175509307/24/01 17:55:31  5-MIN KMSN 242355Z 34003KT 10SM CLR 26/21 A2989 890 76 2400 340/03 RMK AO2
14837KMSN MSN20010724180009307/24/01 18:00:31  5-MIN KMSN 250000Z 33003KT 10SM CLR 26/21 A2989 890 73 2400 330/03 RMK AO2
14837KMSN MSN20010724180509307/24/01 18:05:31  5-MIN KMSN 250005Z 00000KT 10SM CLR 26/21 A2989 890 73 2400 000/00 RMK AO2
14837KMSN MSN20010724181009307/24/01 18:10:31  5-MIN KMSN 250010Z 00000KT 10SM CLR 26/22 A2989 890 79 2400 000/00 RMK AO2
14837KMSN MSN20010724181509307/24/01 18:15:31  5-MIN KMSN 250015Z 00000KT 10SM CLR 26/22 A2989 890 76 2400 000/00 RMK AO2
14837KMSN MSN20010724182009307/24/01 18:20:31  5-MIN KMSN 250020Z 00000KT 10SM CLR 26/22 A2989 890 79 2300 000/00 RMK AO2
14837KMSN MSN20010724182509307/24/01 18:25:31  5-MIN KMSN 250025Z 00000KT 10SM CLR 25/21 A2989 890 79 2300 000/00 RMK AO2
14837KMSN MSN20010724183009307/24/01 18:30:31  5-MIN KMSN 250030Z 34003KT 10SM CLR 25/21 A2989 890 79 2300 340/03 RMK AO2
14837KMSN MSN20010724183509307/24/01 18:35:31  5-MIN KMSN 250035Z 34004KT 10SM CLR 25/21 A2989 890 79 2300 340/04 RMK AO2
14837KMSN MSN20010724184009607/24/01 18:40:31  5-MIN KMSN 250040Z 34007KT 10SM FEW100 26/21 A2989 890 73 2400 340/07 RMK AO2
14837KMSN MSN20010724184509607/24/01 18:45:31  5-MIN KMSN 250045Z 34007KT 10SM FEW055 27/20 A2990 890 66 2500 340/07 RMK AO2
14837KMSN MSN20010724185011307/24/01 18:50:31  5-MIN KMSN 250050Z 35006KT 10SM FEW055 26/20 A2990 880 68 2400 340/06 RMK AO2 SLP118 T02610200
14837KMSN MSN20010724185509607/24/01 18:55:31  5-MIN KMSN 250055Z 34006KT 10SM FEW055 26/20 A2990 880 68 2400 340/06 RMK AO2
14837KMSN MSN20010724190009607/24/01 19:00:31  5-MIN KMSN 250100Z 35006KT 10SM FEW050 26/19 A2991 880 66 2400 350/06 RMK AO2
14837KMSN MSN20010724190509607/24/01 19:05:31  5-MIN KMSN 250105Z 36005KT 10SM FEW050 26/19 A2991 870 68 2300 360/05 RMK AO2
14837KMSN MSN20010724191009607/24/01 19:10:31  5-MIN KMSN 250110Z 34005KT 10SM FEW050 26/19 A2992 870 68 2300 340/05 RMK AO2
14837KMSN MSN20010724191509307/24/01 19:15:31  5-MIN KMSN 250115Z 33004KT 10SM CLR 26/19 A2992 860 68 2300 330/04 RMK AO2
14837KMSN MSN20010724192009607/24/01 19:20:31  5-MIN KMSN 250120Z 34003KT 10SM FEW120 26/19 A2992 870 68 2300 340/03 RMK AO2
14837KMSN MSN20010724192509607/24/01 19:25:31  5-MIN KMSN 250125Z 36005KT 10SM FEW120 26/19 A2991 880 68 2300 360/05 RMK AO2
14837KMSN MSN20010724193009607/24/01 19:30:31  5-MIN KMSN 250130Z 01006KT 10SM FEW120 25/19 A2990 880 71 2300 010/06 RMK AO2
14837KMSN MSN20010724193511907/24/01 19:35:31  5-MIN KMSN 250135Z 04010KT 10SM -RA FEW085 25/19 A2989 890 71 2300 040/10 RMK AO2 RAB35 PRESFR P0000
14837KMSN MSN20010724194011207/24/01 19:40:31  5-MIN KMSN 250140Z 00000KT 10SM -RA FEW080 26/19 A2991 870 68 2300 000/00 RMK AO2 RAB35 P0000
14837KMSN MSN20010724194511907/24/01 19:45:31  5-MIN KMSN 250145Z 00000KT 10SM -RA FEW085 SCT110 25/20 A2991 880 73 2300 000/00 RMK AO2 RAB35 P0000
14837KMSN MSN20010724195013607/24/01 19:50:31  5-MIN KMSN 250150Z 04007KT 10SM -RA SCT070 SCT110 24/19 A2989 890 73 2200 040/07 RMK AO2 RAB35 SLP115 P0000 T02440194
14837KMSN MSN20010724195511307/24/01 19:55:31  5-MIN KMSN 250155Z 03012KT 10SM -RA FEW040 BKN060 24/20 A2987 910 76 2200 030/12 RMK AO2 P0000
14837KMSN MSN20010724200012007/24/01 20:00:31  5-MIN KMSN 250200Z 07008KT 10SM -RA FEW040 BKN060 BKN080 24/20 A2988 900 76 2200 070/08 RMK AO2 P0000
14837KMSN MSN20010724200515807/24/01 20:05:31  5-MIN KMSN 250205Z 06006KT 10SM -TSRA FEW040 BKN055 BKN080 24/21 A2988 900 81 2200 060/06 RMK AO2 TSB02 OCNL LTGICCC OHD TS OHD MOV E P0000
14837KMSN MSN20010724201015807/24/01 20:10:31  5-MIN KMSN 250210Z 07007KT 10SM -TSRA FEW040 BKN048 BKN080 24/21 A2989 900 81 2200 070/07 RMK AO2 TSB02 OCNL LTGICCC OHD TS OHD MOV E P0001
14837KMSN MSN20010724201515107/24/01 20:15:31  5-MIN KMSN 250215Z 05007KT 10SM -TSRA BKN043 OVC070 23/21 A2988 900 84 2100 050/07 RMK AO2 TSB02 OCNL LTGICCC OHD TS OHD MOV E P0001
14837KMSN MSN20010724202015107/24/01 20:20:31  5-MIN KMSN 250220Z 06006KT 10SM -TSRA BKN041 OVC070 23/21 A2988 900 84 2100 060/06 RMK AO2 TSB02 OCNL LTGICCC OHD TS OHD MOV E P0002
14837KMSN MSN20010724202515007/24/01 20:25:31  5-MIN KMSN 250225Z 03004KT 9SM -TSRA BKN041 OVC060 23/21 A2989 890 87 2000 030/04 RMK AO2 TSB02 OCNL LTGICCC OHD TS OHD MOV E P0002
14837KMSN MSN20010724203014307/24/01 20:30:31  5-MIN KMSN 250230Z 04003KT 8SM -TSRA OVC038 23/21 A2990 890 87 2000 040/03 RMK AO2 TSB02 OCNL LTGICCC OHD TS OHD MOV E P0003
14837KMSN MSN20010724203514307/24/01 20:35:31  5-MIN KMSN 250235Z 06004KT 8SM -TSRA OVC031 23/21 A2990 890 87 2000 060/04 RMK AO2 TSB02 OCNL LTGICCC OHD TS OHD MOV E P0004
14837KMSN MSN20010724204011507/24/01 20:40:31  5-MIN KMSN 250240Z 06003KT 10SM -RA OVC035 23/21 A2990 880 84 2100 060/03 RMK AO2 TSB02E37 P0004
14837KMSN MSN20010724204511507/24/01 20:45:31  5-MIN KMSN 250245Z 08004KT 10SM -RA OVC037 23/21 A2991 880 84 2100 080/04 RMK AO2 TSB02E37 P0005
14837KMSN MSN20010724205014407/24/01 20:50:31  5-MIN KMSN 250250Z 06005KT 10SM -RA OVC035 23/21 A2991 880 84 2100 060/05 RMK AO2 TSB02E37 SLP121 P0005 60006 T02330206 53001
14837KMSN MSN20010724205510607/24/01 20:55:31  5-MIN KMSN 250255Z 05004KT 10SM -RA OVC035 23/21 A2991 870 84 2100 040/04 RMK AO2 P0000
14837KMSN MSN20010724210011307/24/01 21:00:31  5-MIN KMSN 250300Z 04004KT 10SM -RA BKN037 OVC110 23/21 A2991 870 87 2000 040/04 RMK AO2 P0000
14837KMSN MSN20010724210512007/24/01 21:05:31  5-MIN KMSN 250305Z 05004KT 10SM -RA BKN041 BKN070 BKN110 23/21 A2992 870 87 2000 050/04 RMK AO2 P0000
14837KMSN MSN20010724211012007/24/01 21:10:31  5-MIN KMSN 250310Z 00000KT 10SM -RA BKN039 BKN070 BKN110 23/21 A2992 860 87 2000 000/00 RMK AO2 P0000
14837KMSN MSN20010724211511307/24/01 21:15:31  5-MIN KMSN 250315Z 00000KT 10SM -RA SCT039 BKN110 23/21 A2992 860 87 2000 000/00 RMK AO2 P0001
14837KMSN MSN20010724212011207/24/01 21:20:31  5-MIN KMSN 250320Z 00000KT 8SM -RA FEW043 BKN110 22/21 A2992 860 93 1900 000/00 RMK AO2 P0001
14837KMSN MSN20010724212511207/24/01 21:25:31  5-MIN KMSN 250325Z 00000KT 7SM -RA FEW041 OVC110 22/21 A2992 860 97 1900 000/00 RMK AO2 P0001
14837KMSN MSN20010724213011307/24/01 21:30:31  5-MIN KMSN 250330Z 36004KT 10SM -RA FEW070 BKN110 22/21 A2992 870 97 1900 360/04 RMK AO2 P0001
14837KMSN MSN20010724213511307/24/01 21:35:31  5-MIN KMSN 250335Z 36004KT 10SM -RA FEW070 OVC110 22/21 A2991 870 97 1900 360/04 RMK AO2 P0001
14837KMSN MSN20010724214012007/24/01 21:40:31  5-MIN KMSN 250340Z VRB03KT 10SM -RA FEW060 SCT090 OVC110 22/21 A2992 860 93 1900 VRB/03 RMK AO2 P0001
14837KMSN MSN20010724214511307/24/01 21:45:31  5-MIN KMSN 250345Z 25003KT 10SM -RA SCT055 OVC100 22/21 A2993 860 93 1900 250/03 RMK AO2 P0002
14837KMSN MSN20010724215013707/24/01 21:50:31  5-MIN KMSN 250350Z VRB03KT 10SM -RA FEW048 BKN065 OVC100 22/21 A2993 850 97 1900 VRB/03 RMK AO2 SLP129 P0002 T02170211
14837KMSN MSN20010724215512207/24/01 21:55:31  5-MIN KMSN 250355Z 33005KT 5SM -RA BR SCT045 BKN060 OVC100 22/21 A2993 860 97 1900 330/05 RMK AO2 P0001
14837KMSN MSN20010724220012207/24/01 22:00:31  5-MIN KMSN 250400Z 01006KT 6SM -RA BR FEW041 BKN065 OVC085 22/21 A2993 860 90 1900 010/06 RMK AO2 P0001
14837KMSN MSN20010724220512207/24/01 22:05:31  5-MIN KMSN 250405Z 02006KT 6SM -RA BR FEW039 BKN060 OVC075 22/21 A2993 860 90 1900 010/06 RMK AO2 P0002
14837KMSN MSN20010724221012207/24/01 22:10:31  5-MIN KMSN 250410Z 03009KT 6SM -RA BR FEW041 BKN065 OVC085 22/21 A2993 860 90 1900 030/09 RMK AO2 P0002
14837KMSN MSN20010724221512207/24/01 22:15:31  5-MIN KMSN 250415Z 02006KT 6SM -RA BR SCT047 BKN070 OVC090 22/21 A2993 860 90 1900 020/06 RMK AO2 P0002
14837KMSN MSN20010724222011907/24/01 22:20:31  5-MIN KMSN 250420Z 33005KT 7SM -RA SCT045 BKN055 OVC090 22/21 A2993 860 93 1900 330/05 RMK AO2 P0002
14837KMSN MSN20010724222511907/24/01 22:25:31  5-MIN KMSN 250425Z 34005KT 7SM -RA SCT047 BKN060 OVC090 22/21 A2993 860 93 1900 340/05 RMK AO2 P0002
14837KMSN MSN20010724223011907/24/01 22:30:31  5-MIN KMSN 250430Z 02009KT 8SM -RA FEW047 BKN070 OVC110 22/20 A2992 870 90 1900 020/09 RMK AO2 P0002
14837KMSN MSN20010724223512007/24/01 22:35:31  5-MIN KMSN 250435Z 02008KT 10SM -RA FEW047 BKN070 OVC110 22/19 A2992 870 84 1900 020/08 RMK AO2 P0002
14837KMSN MSN20010724224012207/24/01 22:40:31  5-MIN KMSN 250440Z 01007KT 10SM FEW050 BKN085 OVC110 21/19 A2992 870 87 1800 010/07 RMK AO2 RAE37 P0002
14837KMSN MSN20010724224512207/24/01 22:45:31  5-MIN KMSN 250445Z 01008KT 10SM FEW050 SCT070 OVC110 21/19 A2991 870 90 1800 010/08 RMK AO2 RAE37 P0002
14837KMSN MSN20010724225013907/24/01 22:50:31  5-MIN KMSN 250450Z 02006KT 10SM FEW055 BKN100 OVC110 21/19 A2991 880 90 1800 020/06 RMK AO2 RAE37 SLP121 P0002 T02060189
14837KMSN MSN20010724225510307/24/01 22:55:31  5-MIN KMSN 250455Z 34004KT 10SM BKN100 OVC110 21/19 A2991 870 90 1800 340/04 RMK AO2
14837KMSN MSN20010724230009607/24/01 23:00:31  5-MIN KMSN 250500Z VRB03KT 10SM OVC095 21/19 A2991 870 90 1800 VRB/03 RMK AO2
14837KMSN MSN20010724230509607/24/01 23:05:31  5-MIN KMSN 250505Z 35004KT 10SM OVC090 20/19 A2990 880 93 1700 340/04 RMK AO2
14837KMSN MSN20010724231009607/24/01 23:10:31  5-MIN KMSN 250510Z 34004KT 10SM OVC095 21/19 A2990 880 90 1800 340/04 RMK AO2
14837KMSN MSN20010724231509607/24/01 23:15:31  5-MIN KMSN 250515Z 35005KT 10SM OVC090 21/19 A2991 880 90 1800 350/05 RMK AO2
14837KMSN MSN20010724232009607/24/01 23:20:31  5-MIN KMSN 250520Z 01006KT 10SM OVC090 21/18 A2991 870 84 1800 010/06 RMK AO2
14837KMSN MSN20010724232509607/24/01 23:25:31  5-MIN KMSN 250525Z 01007KT 10SM OVC090 21/18 A2991 870 87 1800 010/07 RMK AO2
14837KMSN MSN20010724233010307/24/01 23:30:31  5-MIN KMSN 250530Z 36007KT 10SM FEW055 OVC090 21/18 A2991 870 87 1800 360/07 RMK AO2
14837KMSN MSN20010724233511907/24/01 23:35:31  5-MIN KMSN 250535Z VRB05KT 10SM -RA SCT055 OVC090 20/18 A2991 870 90 1700 VRB/05 RMK AO2 RAB33 P0000
14837KMSN MSN20010724234011807/24/01 23:40:31  5-MIN KMSN 250540Z 00000KT 9SM -RA SCT055 OVC090 20/18 A2991 870 87 1700 000/00 RMK AO2 RAB33 P0001
14837KMSN MSN20010724234512507/24/01 23:45:31  5-MIN KMSN 250545Z 29003KT 8SM -RA FEW046 SCT055 OVC090 20/18 A2992 860 90 1700 290/03 RMK AO2 RAB33 P0001
14837KMSN MSN20010724235017707/24/01 23:50:31  5-MIN KMSN 250550Z 30004KT 10SM -RA SCT048 BKN055 OVC085 20/18 A2992 860 90 1700 300/04 RMK AO2 RAB33 SLP127 P0001 60011 T02000183 10267 20200 403110200 53006
14837KMSN MSN20010724235511907/24/01 23:55:31  5-MIN KMSN 250555Z 33004KT 7SM -RA SCT048 BKN060 OVC085 20/18 A2992 860 90 1700 330/04 RMK AO2 P0000
14837KMSN MSN20010725000012207/25/01 00:00:31  5-MIN KMSN 250600Z 34004KT 5SM -RA BR SCT048 BKN060 OVC085 20/18 A2992 860 90 1700 340/04 RMK AO2 P0001
14837KMSN MSN20010725000512207/25/01 00:05:31  5-MIN KMSN 250605Z 31004KT 6SM -RA BR FEW045 BKN055 OVC085 20/18 A2993 860 90 1700 310/04 RMK AO2 P0001
14837KMSN MSN20010725001011207/25/01 00:10:31  5-MIN KMSN 250610Z 30005KT 7SM -RA SCT045 OVC060 19/18 A2993 860 93 1600 300/05 RMK AO2 P0001
14837KMSN MSN20010725001512007/25/01 00:15:31  5-MIN KMSN 250615Z VRB05KT 10SM -RA FEW039 BKN055 OVC070 20/18 A2993 860 90 1700 VRB/05 RMK AO2 P0001
14837KMSN MSN20010725002011907/25/01 00:20:31  5-MIN KMSN 250620Z 01007KT 9SM -RA FEW039 BKN055 OVC070 20/18 A2993 860 87 1700 360/07 RMK AO2 P0001
14837KMSN MSN20010725002511907/25/01 00:25:31  5-MIN KMSN 250625Z 34004KT 8SM -RA SCT042 BKN060 OVC070 20/18 A2993 850 87 1700 340/04 RMK AO2 P0001
14837KMSN MSN20010725003011207/25/01 00:30:31  5-MIN KMSN 250630Z VRB05KT 9SM -RA BKN044 OVC060 19/18 A2993 860 90 1600 VRB/05 RMK AO2 P0001
14837KMSN MSN20010725003511307/25/01 00:35:31  5-MIN KMSN 250635Z 32004KT 10SM -RA BKN044 OVC060 19/18 A2994 850 90 1600 320/04 RMK AO2 P0001
14837KMSN MSN20010725004011507/25/01 00:40:31  5-MIN KMSN 250640Z 35004KT 10SM BKN044 OVC055 19/18 A2994 850 90 1600 350/04 RMK AO2 RAE37 P0001
14837KMSN MSN20010725004511207/25/01 00:45:31  5-MIN KMSN 250645Z 36006KT 8SM -RA BKN042 OVC055 20/18 A2994 850 87 1700 360/06 RMK AO2 P0001
14837KMSN MSN20010725005012907/25/01 00:50:31  5-MIN KMSN 250650Z 34004KT 7SM -RA BKN042 OVC055 19/18 A2994 850 90 1600 340/04 RMK AO2 SLP132 P0002 T01940178
14837KMSN MSN20010725005511907/25/01 00:55:31  5-MIN KMSN 250655Z 35007KT 7SM -RA BKN038 BKN047 OVC055 19/18 A2994 850 93 1600 350/07 RMK AO2 P0000
14837KMSN MSN20010725010011207/25/01 01:00:31  5-MIN KMSN 250700Z 35006KT 7SM -RA BKN040 OVC055 21/18 A2993 850 87 1700 350/06 RMK AO2 P0000
14837KMSN MSN20010725010511907/25/01 01:05:31  5-MIN KMSN 250705Z 36007KT 8SM -RA BKN042 BKN050 OVC090 19/18 A2993 860 93 1600 360/07 RMK AO2 P0000
14837KMSN MSN20010725011011907/25/01 01:10:31  5-MIN KMSN 250710Z 01006KT 9SM -RA FEW039 BKN046 OVC090 19/18 A2993 850 90 1600 010/06 RMK AO2 P0000
14837KMSN MSN20010725011512007/25/01 01:15:31  5-MIN KMSN 250715Z 02011KT 10SM -RA FEW039 BKN046 OVC090 19/18 A2993 860 90 1600 020/11 RMK AO2 P0000
14837KMSN MSN20010725012012007/25/01 01:20:31  5-MIN KMSN 250720Z 02010KT 10SM -RA FEW037 SCT045 OVC090 19/18 A2993 860 90 1600 020/10 RMK AO2 P0000
14837KMSN MSN20010725012512207/25/01 01:25:31  5-MIN KMSN 250725Z 02012KT 10SM FEW047 SCT075 OVC090 19/17 A2993 860 87 1600 020/12 RMK AO2 RAE24 P0000
14837KMSN MSN20010725013012207/25/01 01:30:31  5-MIN KMSN 250730Z 03011KT 10SM FEW047 SCT070 OVC090 19/17 A2993 860 87 1600 030/11 RMK AO2 RAE24 P0000
14837KMSN MSN20010725013512207/25/01 01:35:31  5-MIN KMSN 250735Z 03010KT 10SM FEW045 BKN070 OVC090 19/17 A2993 860 87 1600 030/10 RMK AO2 RAE24 P0000
14837KMSN MSN20010725014011507/25/01 01:40:31  5-MIN KMSN 250740Z 04008KT 10SM BKN070 OVC090 19/17 A2993 860 87 1600 030/08 RMK AO2 RAE24 P0000
14837KMSN MSN20010725014511507/25/01 01:45:31  5-MIN KMSN 250745Z 04009KT 10SM BKN070 OVC090 19/17 A2993 860 84 1600 040/09 RMK AO2 RAE24 P0000
14837KMSN MSN20010725015012507/25/01 01:50:31  5-MIN KMSN 250750Z 03008KT 10SM OVC070 19/17 A2993 860 84 1600 030/08 RMK AO2 RAE24 SLP127 P0000 T01940167
14837KMSN MSN20010725015509607/25/01 01:55:31  5-MIN KMSN 250755Z 03009KT 10SM OVC070 19/17 A2992 860 84 1600 030/09 RMK AO2
14837KMSN MSN20010725020009607/25/01 02:00:31  5-MIN KMSN 250800Z 04008KT 10SM OVC070 19/17 A2992 860 84 1600 040/08 RMK AO2
14837KMSN MSN20010725020509607/25/01 02:05:31  5-MIN KMSN 250805Z 03008KT 10SM OVC065 19/17 A2992 860 84 1600 030/08 RMK AO2
14837KMSN MSN20010725021009607/25/01 02:10:31  5-MIN KMSN 250810Z 03007KT 10SM OVC065 19/17 A2993 860 84 1600 030/07 RMK AO2
14837KMSN MSN20010725021510307/25/01 02:15:31  5-MIN KMSN 250815Z 02008KT 10SM BKN060 OVC075 19/17 A2992 860 87 1600 020/08 RMK AO2
14837KMSN MSN20010725022010307/25/01 02:20:31  5-MIN KMSN 250820Z 02007KT 10SM BKN060 OVC075 19/17 A2993 860 87 1600 020/07 RMK AO2
14837KMSN MSN20010725022510307/25/01 02:25:31  5-MIN KMSN 250825Z 03007KT 10SM FEW040 OVC065 19/17 A2993 860 87 1600 030/07 RMK AO2
14837KMSN MSN20010725023010307/25/01 02:30:31  5-MIN KMSN 250830Z 03008KT 10SM FEW040 OVC065 19/17 A2992 860 87 1600 030/08 RMK AO2
14837KMSN MSN20010725023510307/25/01 02:35:31  5-MIN KMSN 250835Z 03009KT 10SM FEW040 OVC065 19/17 A2992 860 90 1600 030/09 RMK AO2
14837KMSN MSN20010725024010307/25/01 02:40:31  5-MIN KMSN 250840Z 03009KT 10SM FEW040 OVC065 19/17 A2993 860 87 1600 030/09 RMK AO2
14837KMSN MSN20010725024510307/25/01 02:45:31  5-MIN KMSN 250845Z 04010KT 10SM FEW040 OVC065 19/17 A2992 860 87 1600 040/10 RMK AO2
14837KMSN MSN20010725025012507/25/01 02:50:31  5-MIN KMSN 250850Z 03009KT 10SM OVC060 19/17 A2993 860 87 1600 030/09 RMK AO2 SLP128 60002 T01890167 51004
14837KMSN MSN20010725025510307/25/01 02:55:31  5-MIN KMSN 250855Z 03008KT 10SM FEW036 OVC060 19/17 A2993 850 87 1500 030/08 RMK AO2
14837KMSN MSN20010725030010307/25/01 03:00:31  5-MIN KMSN 250900Z 03009KT 10SM SCT036 OVC060 19/17 A2993 860 90 1600 030/09 RMK AO2
14837KMSN MSN20010725030510307/25/01 03:05:31  5-MIN KMSN 250905Z 03009KT 10SM FEW036 OVC060 19/17 A2993 860 87 1600 030/09 RMK AO2
14837KMSN MSN20010725031010307/25/01 03:10:31  5-MIN KMSN 250910Z 04009KT 10SM FEW036 OVC060 19/17 A2992 860 87 1600 040/09 RMK AO2
14837KMSN MSN20010725031510307/25/01 03:15:31  5-MIN KMSN 250915Z 04010KT 10SM FEW036 OVC055 19/17 A2992 860 87 1600 030/10 RMK AO2
14837KMSN MSN20010725032010307/25/01 03:20:31  5-MIN KMSN 250920Z 03011KT 10SM FEW036 OVC055 19/17 A2993 860 87 1600 030/11 RMK AO2
14837KMSN MSN20010725032510307/25/01 03:25:31  5-MIN KMSN 250925Z 03013KT 10SM FEW036 OVC055 19/17 A2993 860 87 1600 030/13 RMK AO2
14837KMSN MSN20010725033009607/25/01 03:30:31  5-MIN KMSN 250930Z 03011KT 10SM OVC055 19/17 A2993 860 87 1600 020/11 RMK AO2
14837KMSN MSN20010725033510307/25/01 03:35:31  5-MIN KMSN 250935Z 03012KT 10SM FEW044 OVC055 19/17 A2993 860 87 1600 030/12 RMK AO2
14837KMSN MSN20010725034010307/25/01 03:40:31  5-MIN KMSN 250940Z 03011KT 10SM SCT047 OVC055 19/17 A2993 860 87 1600 030/11 RMK AO2
14837KMSN MSN20010725034511007/25/01 03:45:31  5-MIN KMSN 250945Z 01009KT 10SM FEW013 BKN047 OVC055 19/17 A2992 860 87 1600 010/09 RMK AO2
14837KMSN MSN20010725035012707/25/01 03:50:31  5-MIN KMSN 250950Z 02010KT 10SM BKN013 BKN047 OVC055 19/17 A2993 860 90 1600 020/10 RMK AO2 SLP128 T01890172
14837KMSN MSN20010725035511007/25/01 03:55:31  5-MIN KMSN 250955Z 03010KT 10SM SCT011 BKN047 OVC055 19/18 A2993 860 93 1500 030/10 RMK AO2
14837KMSN MSN20010725040011007/25/01 04:00:31  5-MIN KMSN 251000Z 02008KT 10SM SCT011 BKN047 OVC055 19/18 A2993 860 93 1500 020/08 RMK AO2
14837KMSN MSN20010725040511007/25/01 04:05:31  5-MIN KMSN 251005Z 02010KT 10SM SCT011 BKN047 OVC055 19/18 A2993 860 93 1500 020/10 RMK AO2
14837KMSN MSN20010725041010307/25/01 04:10:31  5-MIN KMSN 251010Z 04010KT 10SM BKN011 OVC034 19/18 A2993 860 93 1500 040/10 RMK AO2
14837KMSN MSN20010725041510307/25/01 04:15:31  5-MIN KMSN 251015Z 03014KT 10SM BKN013 OVC034 19/17 A2993 850 90 1500 030/14 RMK AO2
14837KMSN MSN20010725042010307/25/01 04:20:31  5-MIN KMSN 251020Z 03009KT 10SM BKN013 OVC032 19/17 A2993 850 90 1500 030/09 RMK AO2
14837KMSN MSN20010725042510307/25/01 04:25:31  5-MIN KMSN 251025Z 04010KT 10SM BKN013 OVC032 19/17 A2993 850 90 1500 040/10 RMK AO2
14837KMSN MSN20010725043011007/25/01 04:30:31  5-MIN KMSN 251030Z 04012KT 10SM BKN013 BKN032 OVC040 19/17 A2993 850 90 1500 040/12 RMK AO2
14837KMSN MSN20010725043512607/25/01 04:35:31  5-MIN KMSN 251035Z 06010KT 020V120 10SM SCT013 BKN032 OVC040 19/17 A2993 850 90 1500 050/10 020V120 RMK AO2
14837KMSN MSN20010725044012607/25/01 04:40:31  5-MIN KMSN 251040Z 10010KT 010V140 10SM BKN013 BKN032 OVC040 19/17 A2994 850 90 1500 100/10 010V140 RMK AO2
14837KMSN MSN20010725044510307/25/01 04:45:31  5-MIN KMSN 251045Z 04011KT 10SM BKN013 OVC032 19/17 A2994 840 90 1500 040/11 RMK AO2
14837KMSN MSN20010725045012007/25/01 04:50:31  5-MIN KMSN 251050Z 05012KT 10SM BKN011 OVC032 19/17 A2994 840 90 1500 040/12 RMK AO2 SLP135 T01890172
14837KMSN MSN20010725045510307/25/01 04:55:31  5-MIN KMSN 251055Z 04011KT 10SM BKN011 OVC032 19/17 A2995 840 90 1500 040/11 RMK AO2
14837KMSN MSN20010725050010307/25/01 05:00:31  5-MIN KMSN 251100Z 05010KT 10SM BKN011 OVC032 19/17 A2995 840 90 1500 040/10 RMK AO2
14837KMSN MSN20010725050510307/25/01 05:05:31  5-MIN KMSN 251105Z 05011KT 10SM BKN011 OVC032 19/17 A2995 840 87 1500 050/11 RMK AO2
14837KMSN MSN20010725051010307/25/01 05:10:31  5-MIN KMSN 251110Z 05010KT 10SM BKN011 OVC032 18/17 A2995 840 90 1500 050/10 RMK AO2
14837KMSN MSN20010725051510307/25/01 05:15:31  5-MIN KMSN 251115Z 06009KT 10SM SCT011 OVC032 18/17 A2995 840 90 1500 060/09 RMK AO2
14837KMSN MSN20010725052010307/25/01 05:20:31  5-MIN KMSN 251120Z 07010KT 10SM SCT011 OVC032 19/17 A2994 840 87 1500 060/10 RMK AO2
14837KMSN MSN20010725052510307/25/01 05:25:31  5-MIN KMSN 251125Z 06010KT 10SM FEW011 OVC032 18/17 A2995 840 90 1500 050/10 RMK AO2
14837KMSN MSN20010725053009607/25/01 05:30:31  5-MIN KMSN 251130Z 05010KT 10SM OVC032 18/17 A2995 830 90 1500 040/10 RMK AO2
14837KMSN MSN20010725053510307/25/01 05:35:31  5-MIN KMSN 251135Z 05010KT 10SM FEW010 OVC032 18/16 A2995 840 87 1500 040/10 RMK AO2
14837KMSN MSN20010725054009607/25/01 05:40:31  5-MIN KMSN 251140Z 05010KT 10SM OVC032 18/16 A2995 840 87 1500 050/10 RMK AO2
14837KMSN MSN20010725054509607/25/01 05:45:31  5-MIN KMSN 251145Z 04011KT 10SM OVC032 18/16 A2995 840 87 1500 040/11 RMK AO2
14837KMSN MSN20010725055015007/25/01 05:50:31  5-MIN KMSN 251150Z 05010KT 10SM BKN032 OVC050 18/16 A2995 830 87 1500 050/10 RMK AO2 SLP139 60002 70013 T01830161 10206 20183 51003
14837KMSN MSN20010725055509607/25/01 05:55:31  5-MIN KMSN 251155Z 05009KT 10SM OVC029 18/16 A2995 830 87 1500 050/09 RMK AO2
14837KMSN MSN20010725060010307/25/01 06:00:31  5-MIN KMSN 251200Z 05009KT 10SM BKN029 OVC040 18/16 A2996 830 87 1500 050/09 RMK AO2
14837KMSN MSN20010725060510307/25/01 06:05:31  5-MIN KMSN 251205Z 05009KT 10SM BKN029 OVC040 18/16 A2996 830 84 1400 050/09 RMK AO2
14837KMSN MSN20010725061010307/25/01 06:10:31  5-MIN KMSN 251210Z 05009KT 10SM BKN029 OVC040 18/16 A2996 830 84 1400 050/09 RMK AO2
14837KMSN MSN20010725061510307/25/01 06:15:31  5-MIN KMSN 251215Z 05008KT 10SM BKN029 OVC040 18/16 A2996 820 84 1400 050/08 RMK AO2
14837KMSN MSN20010725062009607/25/01 06:20:31  5-MIN KMSN 251220Z 06009KT 10SM OVC029 18/16 A2997 820 84 1400 060/09 RMK AO2
14837KMSN MSN20010725062509607/25/01 06:25:31  5-MIN KMSN 251225Z 05010KT 10SM OVC029 18/16 A2996 820 84 1400 050/10 RMK AO2
14837KMSN MSN20010725063009607/25/01 06:30:31  5-MIN KMSN 251230Z 05010KT 10SM OVC031 18/16 A2997 820 84 1400 050/10 RMK AO2
14837KMSN MSN20010725063509607/25/01 06:35:31  5-MIN KMSN 251235Z 04011KT 10SM OVC031 18/16 A2997 820 84 1400 040/11 RMK AO2
14837KMSN MSN20010725064009607/25/01 06:40:31  5-MIN KMSN 251240Z 05010KT 10SM OVC031 18/15 A2997 820 81 1400 050/10 RMK AO2
14837KMSN MSN20010725064509607/25/01 06:45:31  5-MIN KMSN 251245Z 06009KT 10SM OVC033 18/15 A2997 820 81 1400 060/09 RMK AO2
14837KMSN MSN20010725065011307/25/01 06:50:31  5-MIN KMSN 251250Z 07010KT 10SM OVC033 18/15 A2997 820 81 1400 060/10 RMK AO2 SLP144 T01830150
14837KMSN MSN20010725065509607/25/01 06:55:31  5-MIN KMSN 251255Z 06008KT 10SM OVC033 18/15 A2997 820 81 1400 060/08 RMK AO2
14837KMSN MSN20010725070010207/25/01 07:00:31  5-MIN KMSN 251300Z 07012G15KT 10SM OVC033 18/16 A2996 820 84 1400 070/12G15 RMK AO2
14837KMSN MSN20010725070510207/25/01 07:05:31  5-MIN KMSN 251305Z 07011G15KT 10SM OVC033 19/15 A2996 820 78 1500 070/11G15 RMK AO2
14837KMSN MSN20010725071009607/25/01 07:10:31  5-MIN KMSN 251310Z 06008KT 10SM OVC033 19/16 A2996 820 81 1500 060/08 RMK AO2
14837KMSN MSN20010725071509607/25/01 07:15:31  5-MIN KMSN 251315Z 07009KT 10SM OVC035 19/16 A2997 820 81 1500 070/09 RMK AO2
14837KMSN MSN20010725072010307/25/01 07:20:31  5-MIN KMSN 251320Z 07008KT 10SM BKN035 OVC050 19/16 A2997 820 81 1500 070/08 RMK AO2
14837KMSN MSN20010725072509607/25/01 07:25:31  5-MIN KMSN 251325Z 07011KT 10SM OVC035 19/16 A2997 820 81 1500 070/11 RMK AO2
14837KMSN MSN20010725073009607/25/01 07:30:31  5-MIN KMSN 251330Z 06013KT 10SM OVC035 19/15 A2997 820 78 1500 060/13 RMK AO2
14837KMSN MSN20010725073509607/25/01 07:35:31  5-MIN KMSN 251335Z 06014KT 10SM OVC035 19/15 A2996 820 78 1500 060/14 RMK AO2
14837KMSN MSN20010725074010307/25/01 07:40:31  5-MIN KMSN 251340Z 06011KT 10SM BKN035 BKN055 19/15 A2996 820 78 1500 060/11 RMK AO2
14837KMSN MSN20010725074510307/25/01 07:45:31  5-MIN KMSN 251345Z 07010KT 10SM BKN035 BKN055 19/16 A2997 820 78 1600 070/10 RMK AO2
14837KMSN MSN20010725075012007/25/01 07:50:31  5-MIN KMSN 251350Z 06010KT 10SM BKN035 BKN055 19/16 A2997 820 78 1600 060/10 RMK AO2 SLP145 T01940156
14837KMSN MSN20010725075510307/25/01 07:55:31  5-MIN KMSN 251355Z 05011KT 10SM BKN035 OVC055 19/16 A2997 810 81 1500 040/11 RMK AO2
14837KMSN MSN20010725080010307/25/01 08:00:31  5-MIN KMSN 251400Z 04009KT 10SM BKN035 OVC055 19/15 A2998 810 78 1500 040/09 RMK AO2
14837KMSN MSN20010725080510307/25/01 08:05:31  5-MIN KMSN 251405Z 03009KT 10SM BKN035 OVC055 19/15 A2998 810 78 1500 030/09 RMK AO2
14837KMSN MSN20010725081009607/25/01 08:10:31  5-MIN KMSN 251410Z 03007KT 10SM OVC035 19/15 A2998 810 78 1500 030/07 RMK AO2
14837KMSN MSN20010725081509607/25/01 08:15:31  5-MIN KMSN 251415Z 03009KT 10SM OVC035 19/16 A2998 810 81 1500 030/09 RMK AO2
14837KMSN MSN20010725082009607/25/01 08:20:31  5-MIN KMSN 251420Z 03009KT 10SM OVC035 19/16 A2998 810 81 1500 030/09 RMK AO2
14837KMSN MSN20010725082509607/25/01 08:25:31  5-MIN KMSN 251425Z 03010KT 10SM OVC037 19/16 A2997 820 81 1500 030/10 RMK AO2
14837KMSN MSN20010725083009607/25/01 08:30:31  5-MIN KMSN 251430Z 04011KT 10SM OVC037 19/16 A2998 810 81 1500 040/11 RMK AO2
14837KMSN MSN20010725083509607/25/01 08:35:31  5-MIN KMSN 251435Z 03009KT 10SM OVC037 19/16 A2998 810 81 1500 030/09 RMK AO2
14837KMSN MSN20010725084009607/25/01 08:40:31  5-MIN KMSN 251440Z 04010KT 10SM OVC037 19/16 A2998 810 81 1500 040/10 RMK AO2
14837KMSN MSN20010725084509607/25/01 08:45:31  5-MIN KMSN 251445Z 03011KT 10SM OVC037 19/16 A2998 810 81 1500 030/11 RMK AO2
14837KMSN MSN20010725085012607/25/01 08:50:31  5-MIN KMSN 251450Z 04011KT 10SM FEW020 OVC037 19/16 A2998 810 81 1500 040/11 RMK AO2 SLP148 T01890156 53007
14837KMSN MSN20010725085509607/25/01 08:55:31  5-MIN KMSN 251455Z 04011KT 10SM OVC037 19/16 A2998 810 81 1500 040/11 RMK AO2
14837KMSN MSN20010725090010307/25/01 09:00:31  5-MIN KMSN 251500Z 05011KT 10SM FEW020 OVC037 19/16 A2998 810 81 1500 050/11 RMK AO2
14837KMSN MSN20010725090510307/25/01 09:05:31  5-MIN KMSN 251505Z 04010KT 10SM FEW020 OVC037 19/16 A2999 800 84 1500 040/10 RMK AO2
14837KMSN MSN20010725091010307/25/01 09:10:31  5-MIN KMSN 251510Z 05011KT 10SM FEW020 OVC037 19/16 A2999 800 84 1500 050/11 RMK AO2
14837KMSN MSN20010725091510307/25/01 09:15:31  5-MIN KMSN 251515Z 05008KT 10SM FEW020 OVC037 19/16 A2999 800 84 1500 050/08 RMK AO2
14837KMSN MSN20010725092010307/25/01 09:20:31  5-MIN KMSN 251520Z 05010KT 10SM FEW020 OVC037 19/16 A3000 800 84 1500 050/10 RMK AO2
14837KMSN MSN20010725092510307/25/01 09:25:31  5-MIN KMSN 251525Z 04011KT 10SM FEW020 OVC037 19/16 A3000 790 84 1500 040/11 RMK AO2
14837KMSN MSN20010725093010307/25/01 09:30:31  5-MIN KMSN 251530Z 04012KT 10SM FEW020 OVC037 19/16 A3000 790 84 1500 040/12 RMK AO2
14837KMSN MSN20010725093510307/25/01 09:35:31  5-MIN KMSN 251535Z 06010KT 10SM FEW020 OVC037 19/16 A3000 790 84 1500 060/10 RMK AO2
14837KMSN MSN20010725094010307/25/01 09:40:31  5-MIN KMSN 251540Z 05009KT 10SM SCT015 OVC037 19/16 A3000 790 84 1500 050/09 RMK AO2
14837KMSN MSN20010725094510307/25/01 09:45:31  5-MIN KMSN 251545Z 05010KT 10SM SCT015 OVC037 19/16 A3000 790 81 1500 050/10 RMK AO2
14837KMSN MSN20010725095012007/25/01 09:50:31  5-MIN KMSN 251550Z 05011KT 10SM SCT015 OVC037 19/16 A3000 790 81 1500 050/11 RMK AO2 SLP155 T01940161
14837KMSN MSN20010725095510307/25/01 09:55:31  5-MIN KMSN 251555Z 05013KT 10SM FEW017 OVC037 20/16 A3000 790 78 1600 050/13 RMK AO2
14837KMSN MSN20010725100010307/25/01 10:00:31  5-MIN KMSN 251600Z 05011KT 10SM SCT017 OVC037 20/16 A3000 790 78 1600 040/11 RMK AO2
14837KMSN MSN20010725100510307/25/01 10:05:31  5-MIN KMSN 251605Z 06011KT 10SM SCT017 OVC037 20/16 A3000 790 78 1600 050/11 RMK AO2
14837KMSN MSN20010725101010307/25/01 10:10:31  5-MIN KMSN 251610Z 05011KT 10SM SCT017 OVC037 20/16 A3000 790 78 1600 050/11 RMK AO2
14837KMSN MSN20010725101510307/25/01 10:15:31  5-MIN KMSN 251615Z 06009KT 10SM SCT017 OVC037 21/17 A3000 790 78 1700 060/09 RMK AO2
14837KMSN MSN20010725102010307/25/01 10:20:31  5-MIN KMSN 251620Z 05011KT 10SM SCT017 OVC037 21/17 A3000 790 75 1700 050/11 RMK AO2
14837KMSN MSN20010725102510307/25/01 10:25:31  5-MIN KMSN 251625Z 04009KT 10SM SCT017 OVC037 21/17 A3001 780 78 1700 040/09 RMK AO2
14837KMSN MSN20010725103010307/25/01 10:30:31  5-MIN KMSN 251630Z 04010KT 10SM SCT017 OVC037 21/17 A3001 780 78 1700 040/10 RMK AO2
14837KMSN MSN20010725103510307/25/01 10:35:31  5-MIN KMSN 251635Z 06011KT 10SM SCT017 OVC037 21/17 A3001 780 75 1700 050/11 RMK AO2
14837KMSN MSN20010725104010307/25/01 10:40:31  5-MIN KMSN 251640Z 06010KT 10SM SCT017 OVC037 21/17 A3001 780 75 1700 060/10 RMK AO2
14837KMSN MSN20010725104510307/25/01 10:45:31  5-MIN KMSN 251645Z 06010KT 10SM SCT017 OVC037 21/17 A3001 780 78 1700 060/10 RMK AO2
14837KMSN MSN20010725105012007/25/01 10:50:31  5-MIN KMSN 251650Z 07009KT 10SM SCT017 OVC037 22/17 A3002 780 75 1800 070/09 RMK AO2 SLP160 T02170172
14837KMSN MSN20010725105510307/25/01 10:55:31  5-MIN KMSN 251655Z 05010KT 10SM BKN019 OVC037 22/17 A3001 780 73 1800 050/10 RMK AO2
14837KMSN MSN20010725110010307/25/01 11:00:31  5-MIN KMSN 251700Z 04009KT 10SM BKN019 OVC037 22/18 A3001 780 78 1800 040/09 RMK AO2
14837KMSN MSN20010725110511007/25/01 11:05:31  5-MIN KMSN 251705Z 05010KT 10SM BKN019 BKN037 OVC047 22/18 A3001 780 75 1800 050/10 RMK AO2
14837KMSN MSN20010725111011007/25/01 11:10:31  5-MIN KMSN 251710Z 03011KT 10SM SCT019 BKN037 OVC047 22/18 A3001 780 75 1800 030/11 RMK AO2
14837KMSN MSN20010725111511007/25/01 11:15:31  5-MIN KMSN 251715Z 03012KT 10SM BKN019 BKN037 OVC047 22/18 A3001 780 78 1800 030/12 RMK AO2
14837KMSN MSN20010725112010307/25/01 11:20:31  5-MIN KMSN 251720Z 04010KT 10SM BKN019 OVC047 22/17 A3001 790 75 1800 040/10 RMK AO2
14837KMSN MSN20010725112510307/25/01 11:25:31  5-MIN KMSN 251725Z 02011KT 10SM BKN019 OVC047 22/18 A3000 790 75 1800 020/11 RMK AO2
14837KMSN MSN20010725113010907/25/01 11:30:31  5-MIN KMSN 251730Z 03012G18KT 10SM BKN019 OVC047 22/17 A3000 790 75 1800 030/12G18 RMK AO2
14837KMSN MSN20010725113510307/25/01 11:35:31  5-MIN KMSN 251735Z 03011KT 10SM BKN019 OVC047 22/17 A3000 790 75 1800 030/11 RMK AO2
14837KMSN MSN20010725114009607/25/01 11:40:31  5-MIN KMSN 251740Z 02011KT 10SM OVC019 22/17 A3000 790 75 1800 020/11 RMK AO2
14837KMSN MSN20010725114509607/25/01 11:45:31  5-MIN KMSN 251745Z 03010KT 10SM OVC019 22/18 A3000 790 75 1800 030/10 RMK AO2
14837KMSN MSN20010725115013107/25/01 11:50:31  5-MIN KMSN 251750Z 04013KT 10SM OVC019 22/18 A3001 790 78 1800 040/13 RMK AO2 SLP156 T02170178 10222 20183 51010
14837KMSN MSN20010725115509607/25/01 11:55:31  5-MIN KMSN 251755Z 04010KT 10SM OVC019 22/18 A3000 790 78 1800 030/10 RMK AO2
14837KMSN MSN20010725120009607/25/01 12:00:31  5-MIN KMSN 251800Z 05011KT 10SM OVC019 22/17 A3001 790 75 1800 050/11 RMK AO2
14837KMSN MSN20010725120509607/25/01 12:05:31  5-MIN KMSN 251805Z 03010KT 10SM OVC019 22/18 A3001 790 75 1800 030/10 RMK AO2
14837KMSN MSN20010725121009607/25/01 12:10:31  5-MIN KMSN 251810Z 03011KT 10SM OVC017 21/17 A3001 780 78 1700 030/11 RMK AO2
14837KMSN MSN20010725121509607/25/01 12:15:31  5-MIN KMSN 251815Z 02010KT 10SM OVC017 21/17 A3001 790 78 1700 020/10 RMK AO2
14837KMSN MSN20010725122009607/25/01 12:20:31  5-MIN KMSN 251820Z 02011KT 10SM OVC019 21/18 A3001 780 81 1700 020/11 RMK AO2
14837KMSN MSN20010725122509607/25/01 12:25:31  5-MIN KMSN 251825Z 02010KT 10SM OVC019 21/17 A3001 780 78 1700 020/10 RMK AO2
14837KMSN MSN20010725123009607/25/01 12:30:31  5-MIN KMSN 251830Z 03009KT 10SM OVC019 21/17 A3001 780 78 1700 030/09 RMK AO2
14837KMSN MSN20010725123509607/25/01 12:35:31  5-MIN KMSN 251835Z 02011KT 10SM OVC017 21/17 A3001 780 81 1700 020/11 RMK AO2
14837KMSN MSN20010725124009607/25/01 12:40:31  5-MIN KMSN 251840Z 03009KT 10SM OVC017 21/17 A3001 780 78 1700 030/09 RMK AO2
14837KMSN MSN20010725124509607/25/01 12:45:31  5-MIN KMSN 251845Z 04011KT 10SM OVC017 21/17 A3001 780 78 1700 040/11 RMK AO2
14837KMSN MSN20010725125011307/25/01 12:50:31  5-MIN KMSN 251850Z 04010KT 10SM OVC017 21/17 A3001 780 78 1700 040/10 RMK AO2 SLP159 T02110172
14837KMSN MSN20010725125509607/25/01 12:55:31  5-MIN KMSN 251855Z 03010KT 10SM OVC017 22/17 A3001 780 75 1800 030/10 RMK AO2
14837KMSN MSN20010725130009607/25/01 13:00:31  5-MIN KMSN 251900Z 03009KT 10SM OVC017 21/17 A3001 780 78 1700 030/09 RMK AO2
14837KMSN MSN20010725130509607/25/01 13:05:31  5-MIN KMSN 251905Z 03010KT 10SM OVC017 21/17 A3001 780 78 1700 020/10 RMK AO2
14837KMSN MSN20010725131009607/25/01 13:10:31  5-MIN KMSN 251910Z 03012KT 10SM OVC017 21/17 A3001 780 78 1700 030/12 RMK AO2
14837KMSN MSN20010725131509607/25/01 13:15:31  5-MIN KMSN 251915Z 04010KT 10SM OVC017 21/17 A3001 780 78 1700 040/10 RMK AO2
14837KMSN MSN20010725132009607/25/01 13:20:31  5-MIN KMSN 251920Z 04010KT 10SM OVC017 21/17 A3001 780 78 1700 030/10 RMK AO2
14837KMSN MSN20010725132509607/25/01 13:25:31  5-MIN KMSN 251925Z 03009KT 10SM OVC017 21/18 A3001 780 81 1700 030/09 RMK AO2
14837KMSN MSN20010725133009607/25/01 13:30:31  5-MIN KMSN 251930Z 04010KT 10SM OVC019 22/17 A3001 780 75 1800 040/10 RMK AO2
14837KMSN MSN20010725133509607/25/01 13:35:31  5-MIN KMSN 251935Z 04009KT 10SM OVC019 21/17 A3001 780 78 1700 040/09 RMK AO2
14837KMSN MSN20010725134009607/25/01 13:40:31  5-MIN KMSN 251940Z 05009KT 10SM OVC019 21/17 A3001 780 78 1700 040/09 RMK AO2
14837KMSN MSN20010725134509607/25/01 13:45:31  5-MIN KMSN 251945Z 04010KT 10SM OVC017 21/17 A3001 780 81 1600 040/10 RMK AO2
14837KMSN MSN20010725135011307/25/01 13:50:31  5-MIN KMSN 251950Z 04011KT 10SM OVC017 21/17 A3001 780 81 1600 040/11 RMK AO2 SLP159 T02060172
14837KMSN MSN20010725135509607/25/01 13:55:31  5-MIN KMSN 251955Z 03010KT 10SM OVC017 21/17 A3001 780 81 1600 030/10 RMK AO2
14837KMSN MSN20010725140009607/25/01 14:00:31  5-MIN KMSN 252000Z 04008KT 10SM OVC017 21/17 A3001 780 81 1600 040/08 RMK AO2
14837KMSN MSN20010725140509607/25/01 14:05:31  5-MIN KMSN 252005Z 05011KT 10SM OVC017 21/17 A3001 780 81 1600 040/11 RMK AO2
14837KMSN MSN20010725141009607/25/01 14:10:31  5-MIN KMSN 252010Z 04009KT 10SM OVC017 21/17 A3001 780 81 1600 040/09 RMK AO2
14837KMSN MSN20010725141509607/25/01 14:15:31  5-MIN KMSN 252015Z 04009KT 10SM OVC017 21/17 A3001 780 81 1600 040/09 RMK AO2
14837KMSN MSN20010725142009607/25/01 14:20:31  5-MIN KMSN 252020Z 03011KT 10SM OVC017 21/17 A3001 780 81 1700 030/11 RMK AO2
14837KMSN MSN20010725142509607/25/01 14:25:31  5-MIN KMSN 252025Z 05007KT 10SM OVC017 21/17 A3001 780 81 1700 040/07 RMK AO2
14837KMSN MSN20010725143009607/25/01 14:30:31  5-MIN KMSN 252030Z 04009KT 10SM OVC017 21/17 A3001 780 81 1600 040/09 RMK AO2
14837KMSN MSN20010725143509607/25/01 14:35:31  5-MIN KMSN 252035Z 03010KT 10SM OVC017 21/17 A3001 780 81 1700 030/10 RMK AO2
14837KMSN MSN20010725144009607/25/01 14:40:31  5-MIN KMSN 252040Z 04009KT 10SM OVC019 21/17 A3001 780 78 1700 040/09 RMK AO2
14837KMSN MSN20010725144509607/25/01 14:45:31  5-MIN KMSN 252045Z 04009KT 10SM OVC019 21/17 A3001 780 78 1700 040/09 RMK AO2
14837KMSN MSN20010725145011907/25/01 14:50:31  5-MIN KMSN 252050Z 03012KT 10SM OVC019 21/17 A3001 780 81 1700 030/12 RMK AO2 SLP158 T02060172 50007
14837KMSN MSN20010725145509607/25/01 14:55:31  5-MIN KMSN 252055Z 03012KT 10SM OVC019 21/17 A3001 780 78 1700 030/12 RMK AO2
14837KMSN MSN20010725150009607/25/01 15:00:31  5-MIN KMSN 252100Z 04011KT 10SM OVC019 21/17 A3001 780 78 1700 040/11 RMK AO2
14837KMSN MSN20010725150509607/25/01 15:05:31  5-MIN KMSN 252105Z 04009KT 10SM OVC019 21/17 A3001 780 78 1700 040/09 RMK AO2
14837KMSN MSN20010725151009607/25/01 15:10:31  5-MIN KMSN 252110Z 04011KT 10SM OVC021 21/17 A3001 790 78 1700 040/11 RMK AO2
14837KMSN MSN20010725151509607/25/01 15:15:31  5-MIN KMSN 252115Z 05013KT 10SM OVC021 21/17 A3000 790 78 1700 040/13 RMK AO2
14837KMSN MSN20010725152009607/25/01 15:20:31  5-MIN KMSN 252120Z 05009KT 10SM OVC021 21/17 A3000 790 78 1700 050/09 RMK AO2
14837KMSN MSN20010725152509607/25/01 15:25:31  5-MIN KMSN 252125Z 06011KT 10SM OVC021 21/17 A3000 790 78 1700 060/11 RMK AO2
14837KMSN MSN20010725153009607/25/01 15:30:31  5-MIN KMSN 252130Z 07009KT 10SM OVC021 21/17 A3001 790 75 1700 070/09 RMK AO2
14837KMSN MSN20010725153509607/25/01 15:35:31  5-MIN KMSN 252135Z 06010KT 10SM OVC021 21/17 A3001 790 75 1700 060/10 RMK AO2
14837KMSN MSN20010725154009607/25/01 15:40:31  5-MIN KMSN 252140Z 06009KT 10SM OVC023 21/17 A3001 780 75 1700 060/09 RMK AO2
14837KMSN MSN20010725154509607/25/01 15:45:31  5-MIN KMSN 252145Z 05008KT 10SM OVC025 21/17 A3000 790 75 1700 050/08 RMK AO2
14837KMSN MSN20010725155011307/25/01 15:50:31  5-MIN KMSN 252150Z 05009KT 10SM OVC025 21/17 A3000 790 75 1700 050/09 RMK AO2 SLP157 T02110167
14837KMSN MSN20010725155509607/25/01 15:55:31  5-MIN KMSN 252155Z 06009KT 10SM OVC025 21/17 A3000 790 75 1700 060/09 RMK AO2
14837KMSN MSN20010725160009607/25/01 16:00:31  5-MIN KMSN 252200Z 06009KT 10SM OVC027 21/17 A3001 780 75 1700 060/09 RMK AO2
14837KMSN MSN20010725160509607/25/01 16:05:31  5-MIN KMSN 252205Z 04009KT 10SM OVC029 21/17 A3001 780 75 1700 040/09 RMK AO2
14837KMSN MSN20010725161010307/25/01 16:10:31  5-MIN KMSN 252210Z 07009KT 10SM BKN027 OVC033 22/17 A3001 780 75 1800 070/09 RMK AO2
14837KMSN MSN20010725161510307/25/01 16:15:31  5-MIN KMSN 252215Z 08009KT 10SM FEW021 OVC031 22/17 A3001 780 73 1800 080/09 RMK AO2
14837KMSN MSN20010725162011007/25/01 16:20:31  5-MIN KMSN 252220Z 08009KT 10SM FEW021 BKN031 OVC035 21/17 A3001 780 75 1700 080/09 RMK AO2
14837KMSN MSN20010725162510307/25/01 16:25:31  5-MIN KMSN 252225Z 09008KT 10SM SCT031 OVC035 21/17 A3001 780 78 1700 090/08 RMK AO2
14837KMSN MSN20010725163010307/25/01 16:30:31  5-MIN KMSN 252230Z 09009KT 10SM FEW022 OVC033 21/17 A3001 780 78 1700 090/09 RMK AO2
14837KMSN MSN20010725163510307/25/01 16:35:31  5-MIN KMSN 252235Z 07010KT 10SM SCT027 OVC033 21/17 A3001 780 75 1700 070/10 RMK AO2
14837KMSN MSN20010725164010307/25/01 16:40:31  5-MIN KMSN 252240Z 08009KT 10SM BKN027 OVC033 21/17 A3001 780 75 1700 080/09 RMK AO2
14837KMSN MSN20010725164510307/25/01 16:45:31  5-MIN KMSN 252245Z 09008KT 10SM BKN027 OVC033 21/17 A3002 780 75 1700 090/08 RMK AO2
14837KMSN MSN20010725165012007/25/01 16:50:31  5-MIN KMSN 252250Z 08007KT 10SM SCT027 OVC033 21/17 A3002 770 75 1700 080/07 RMK AO2 SLP162 T02110167
14837KMSN MSN20010725180510307/25/01 18:05:31  5-MIN KMSN 260005Z 09004KT 10SM SCT031 OVC040 21/17 A3005 750 78 1700 090/04 RMK AO2
14837KMSN MSN20010725181010307/25/01 18:10:31  5-MIN KMSN 260010Z 08005KT 10SM SCT031 OVC040 21/17 A3005 750 78 1700 080/05 RMK AO2
14837KMSN MSN20010725181510307/25/01 18:15:31  5-MIN KMSN 260015Z 09005KT 10SM SCT030 OVC040 21/17 A3005 740 75 1700 090/05 RMK AO2
14837KMSN MSN20010725182010307/25/01 18:20:31  5-MIN KMSN 260020Z 11005KT 10SM SCT028 OVC040 21/17 A3005 740 78 1700 110/05 RMK AO2
14837KMSN MSN20010725182510307/25/01 18:25:31  5-MIN KMSN 260025Z 10005KT 10SM SCT028 OVC040 21/17 A3005 740 75 1700 100/05 RMK AO2
14837KMSN MSN20010725183010307/25/01 18:30:31  5-MIN KMSN 260030Z 09005KT 10SM SCT028 OVC042 21/17 A3005 740 75 1700 090/05 RMK AO2
14837KMSN MSN20010725183510307/25/01 18:35:31  5-MIN KMSN 260035Z 08005KT 10SM FEW028 OVC042 21/17 A3005 750 75 1700 080/05 RMK AO2
14837KMSN MSN20010725184010307/25/01 18:40:31  5-MIN KMSN 260040Z 08005KT 10SM FEW028 OVC044 21/17 A3005 750 75 1700 080/05 RMK AO2
14837KMSN MSN20010725184510307/25/01 18:45:31  5-MIN KMSN 260045Z 08006KT 10SM FEW028 BKN044 21/17 A3005 740 75 1700 080/06 RMK AO2
14837KMSN MSN20010725185012007/25/01 18:50:31  5-MIN KMSN 260050Z 08005KT 10SM FEW028 BKN044 21/17 A3005 740 78 1600 080/05 RMK AO2 SLP173 T02060167
14837KMSN MSN20010725185509607/25/01 18:55:31  5-MIN KMSN 260055Z 07005KT 10SM OVC044 21/17 A3005 740 78 1600 070/05 RMK AO2
14837KMSN MSN20010725190009607/25/01 19:00:31  5-MIN KMSN 260100Z 08004KT 10SM OVC044 21/17 A3005 740 78 1600 080/04 RMK AO2
14837KMSN MSN20010725190509607/25/01 19:05:31  5-MIN KMSN 260105Z 07004KT 10SM OVC044 21/17 A3005 740 78 1600 070/04 RMK AO2
14837KMSN MSN20010725191009607/25/01 19:10:31  5-MIN KMSN 260110Z 06004KT 10SM OVC044 20/17 A3005 750 81 1500 060/04 RMK AO2
14837KMSN MSN20010725191509607/25/01 19:15:31  5-MIN KMSN 260115Z 05004KT 10SM BKN044 20/17 A3005 750 81 1500 050/04 RMK AO2
14837KMSN MSN20010725192009607/25/01 19:20:31  5-MIN KMSN 260120Z 06005KT 10SM BKN044 19/17 A3005 750 84 1500 060/05 RMK AO2
14837KMSN MSN20010725192509607/25/01 19:25:31  5-MIN KMSN 260125Z 07005KT 10SM BKN044 19/17 A3005 740 84 1500 070/05 RMK AO2
14837KMSN MSN20010725193009607/25/01 19:30:31  5-MIN KMSN 260130Z 08003KT 10SM BKN044 19/17 A3005 740 84 1500 070/03 RMK AO2
14837KMSN MSN20010725193509607/25/01 19:35:31  5-MIN KMSN 260135Z 07004KT 10SM SCT044 19/17 A3005 740 84 1500 070/04 RMK AO2
14837KMSN MSN20010725194009607/25/01 19:40:31  5-MIN KMSN 260140Z 07004KT 10SM SCT044 19/17 A3005 740 84 1500 070/04 RMK AO2
14837KMSN MSN20010725194509607/25/01 19:45:31  5-MIN KMSN 260145Z 08004KT 10SM SCT044 19/17 A3006 740 84 1500 080/04 RMK AO2
14837KMSN MSN20010725195011307/25/01 19:50:31  5-MIN KMSN 260150Z 07004KT 10SM SCT044 19/17 A3006 740 84 1500 070/04 RMK AO2 SLP176 T01940167
14837KMSN MSN20010725195509607/25/01 19:55:31  5-MIN KMSN 260155Z 07004KT 10SM BKN046 19/17 A3006 740 87 1400 070/04 RMK AO2
14837KMSN MSN20010725200009607/25/01 20:00:31  5-MIN KMSN 260200Z 07004KT 10SM SCT046 19/16 A3006 740 84 1400 070/04 RMK AO2
14837KMSN MSN20010725200509607/25/01 20:05:31  5-MIN KMSN 260205Z 08004KT 10SM SCT046 19/16 A3006 740 84 1400 070/04 RMK AO2
14837KMSN MSN20010725201009607/25/01 20:10:31  5-MIN KMSN 260210Z 07004KT 10SM FEW046 19/16 A3006 740 84 1400 070/04 RMK AO2
14837KMSN MSN20010725201509607/25/01 20:15:31  5-MIN KMSN 260215Z 06003KT 10SM FEW046 18/16 A3006 730 87 1300 060/03 RMK AO2
14837KMSN MSN20010725202009607/25/01 20:20:31  5-MIN KMSN 260220Z 07003KT 10SM FEW046 18/16 A3006 730 87 1300 060/03 RMK AO2
14837KMSN MSN20010725202509607/25/01 20:25:31  5-MIN KMSN 260225Z 06003KT 10SM FEW046 18/16 A3006 730 87 1300 060/03 RMK AO2
14837KMSN MSN20010725203009607/25/01 20:30:31  5-MIN KMSN 260230Z 08003KT 10SM FEW046 18/16 A3007 730 87 1300 080/03 RMK AO2
14837KMSN MSN20010725203509607/25/01 20:35:31  5-MIN KMSN 260235Z 09005KT 10SM FEW046 18/16 A3007 730 87 1300 080/05 RMK AO2
14837KMSN MSN20010725204009607/25/01 20:40:31  5-MIN KMSN 260240Z 09005KT 10SM FEW046 18/16 A3007 730 87 1300 090/05 RMK AO2
14837KMSN MSN20010725204509607/25/01 20:45:31  5-MIN KMSN 260245Z 09005KT 10SM FEW046 18/16 A3007 730 84 1300 090/05 RMK AO2
14837KMSN MSN20010725205011907/25/01 20:50:31  5-MIN KMSN 260250Z 09004KT 10SM FEW045 18/16 A3007 730 87 1300 090/04 RMK AO2 SLP181 T01830161 53012
14837KMSN MSN20010725205509307/25/01 20:55:31  5-MIN KMSN 260255Z 09004KT 10SM CLR 18/16 A3007 720 84 1300 090/04 RMK AO2
14837KMSN MSN20010725210009307/25/01 21:00:31  5-MIN KMSN 260300Z 07004KT 10SM CLR 18/16 A3008 720 87 1300 070/04 RMK AO2
14837KMSN MSN20010725210509307/25/01 21:05:31  5-MIN KMSN 260305Z 07003KT 10SM CLR 18/16 A3008 720 87 1300 070/03 RMK AO2
14837KMSN MSN20010725211009307/25/01 21:10:31  5-MIN KMSN 260310Z 08004KT 10SM CLR 18/16 A3008 720 87 1300 080/04 RMK AO2
14837KMSN MSN20010725211509307/25/01 21:15:31  5-MIN KMSN 260315Z 08004KT 10SM CLR 18/16 A3008 720 87 1200 080/04 RMK AO2
14837KMSN MSN20010725212009307/25/01 21:20:31  5-MIN KMSN 260320Z 07004KT 10SM CLR 18/16 A3008 710 87 1200 070/04 RMK AO2
14837KMSN MSN20010725212509307/25/01 21:25:31  5-MIN KMSN 260325Z 08004KT 10SM CLR 18/16 A3009 710 87 1200 070/04 RMK AO2
14837KMSN MSN20010725213009307/25/01 21:30:31  5-MIN KMSN 260330Z 07003KT 10SM CLR 18/16 A3009 710 87 1200 070/03 RMK AO2
14837KMSN MSN20010725213509307/25/01 21:35:31  5-MIN KMSN 260335Z 07003KT 10SM CLR 18/16 A3009 710 87 1200 070/03 RMK AO2
14837KMSN MSN20010725214009307/25/01 21:40:31  5-MIN KMSN 260340Z 07004KT 10SM CLR 18/16 A3009 710 87 1200 070/04 RMK AO2
14837KMSN MSN20010725214509307/25/01 21:45:31  5-MIN KMSN 260345Z 07004KT 10SM CLR 18/16 A3009 710 87 1200 070/04 RMK AO2
14837KMSN MSN20010725215011007/25/01 21:50:31  5-MIN KMSN 260350Z 06004KT 10SM CLR 18/16 A3009 710 87 1200 060/04 RMK AO2 SLP186 T01780156
14837KMSN MSN20010725215509307/25/01 21:55:31  5-MIN KMSN 260355Z 05003KT 10SM CLR 17/16 A3009 710 90 1200 050/03 RMK AO2
14837KMSN MSN20010725220009307/25/01 22:00:31  5-MIN KMSN 260400Z 04004KT 10SM CLR 17/15 A3009 710 90 1100 030/04 RMK AO2
14837KMSN MSN20010725220509307/25/01 22:05:31  5-MIN KMSN 260405Z 03004KT 10SM CLR 17/15 A3009 710 90 1100 030/04 RMK AO2
14837KMSN MSN20010725221009307/25/01 22:10:31  5-MIN KMSN 260410Z 03004KT 10SM CLR 17/15 A3009 710 90 1100 030/04 RMK AO2
14837KMSN MSN20010725221509307/25/01 22:15:31  5-MIN KMSN 260415Z 03004KT 10SM CLR 16/15 A3009 710 93 1000 030/04 RMK AO2
14837KMSN MSN20010725222009307/25/01 22:20:31  5-MIN KMSN 260420Z 04005KT 10SM CLR 16/15 A3009 710 93 1000 040/05 RMK AO2
14837KMSN MSN20010725222509307/25/01 22:25:31  5-MIN KMSN 260425Z 04005KT 10SM CLR 17/15 A3009 700 90 1100 040/05 RMK AO2
14837KMSN MSN20010725223009307/25/01 22:30:31  5-MIN KMSN 260430Z 04007KT 10SM CLR 17/15 A3010 700 90 1100 040/07 RMK AO2
14837KMSN MSN20010725223509307/25/01 22:35:31  5-MIN KMSN 260435Z 06010KT 10SM CLR 17/14 A3009 710 83 1200 060/10 RMK AO2
14837KMSN MSN20010725224009307/25/01 22:40:31  5-MIN KMSN 260440Z 05008KT 10SM CLR 17/14 A3010 700 83 1200 050/08 RMK AO2
14837KMSN MSN20010725224509307/25/01 22:45:31  5-MIN KMSN 260445Z 05007KT 10SM CLR 17/14 A3010 700 86 1100 050/07 RMK AO2
14837KMSN MSN20010725225011007/25/01 22:50:31  5-MIN KMSN 260450Z 05006KT 10SM CLR 16/14 A3010 700 90 1000 040/06 RMK AO2 SLP189 T01610144
14837KMSN MSN20010725225509307/25/01 22:55:31  5-MIN KMSN 260455Z 03005KT 10SM CLR 16/14 A3010 700 90 1000 030/05 RMK AO2
14837KMSN MSN20010725230009307/25/01 23:00:31  5-MIN KMSN 260500Z 04005KT 10SM CLR 16/15 A3010 700 93 1000 040/05 RMK AO2
14837KMSN MSN20010725230509307/25/01 23:05:31  5-MIN KMSN 260505Z 04005KT 10SM CLR 17/15 A3010 690 90 1100 040/05 RMK AO2
14837KMSN MSN20010725231009307/25/01 23:10:31  5-MIN KMSN 260510Z 05005KT 10SM CLR 16/14 A3010 700 90 1000 050/05 RMK AO2
14837KMSN MSN20010725231509307/25/01 23:15:31  5-MIN KMSN 260515Z 05005KT 10SM CLR 16/14 A3010 700 90 1000 050/05 RMK AO2
14837KMSN MSN20010725232009307/25/01 23:20:31  5-MIN KMSN 260520Z 06004KT 10SM CLR 16/14 A3010 700 86 1000 060/04 RMK AO2
14837KMSN MSN20010725232509307/25/01 23:25:31  5-MIN KMSN 260525Z 07005KT 10SM CLR 16/14 A3010 700 86 1000 070/05 RMK AO2
14837KMSN MSN20010725233009307/25/01 23:30:31  5-MIN KMSN 260530Z 08004KT 10SM CLR 16/14 A3010 700 86 1000 080/04 RMK AO2
14837KMSN MSN20010725233509307/25/01 23:35:31  5-MIN KMSN 260535Z 08004KT 10SM CLR 16/14 A3010 700 86 1000 080/04 RMK AO2
14837KMSN MSN20010725234009307/25/01 23:40:31  5-MIN KMSN 260540Z 06005KT 10SM CLR 16/14 A3011 690 86 1000 060/05 RMK AO2
14837KMSN MSN20010725234509307/25/01 23:45:31  5-MIN KMSN 260545Z 05005KT 10SM CLR 16/13 A3011 690 86 1000 050/05 RMK AO2
14837KMSN MSN20010725235013807/25/01 23:50:31  5-MIN KMSN 260550Z 03004KT 10SM CLR 16/13 A3011 690 86 1000 030/04 RMK AO2 SLP193 T01560133 10211 20156 402220156 53009
14837KMSN MSN20010725235509307/25/01 23:55:31  5-MIN KMSN 260555Z 02006KT 10SM CLR 16/13 A3011 690 86 1000 020/06 RMK AO2
14837KMSN MSN20010726000009307/26/01 00:00:31  5-MIN KMSN 260600Z 02006KT 10SM CLR 16/13 A3011 690 86 1000 020/06 RMK AO2
14837KMSN MSN20010726000509207/26/01 00:05:31  5-MIN KMSN 260605Z 02006KT 10SM CLR 16/13 A3011 680 86 900 020/06 RMK AO2
14837KMSN MSN20010726001009207/26/01 00:10:31  5-MIN KMSN 260610Z 02006KT 10SM CLR 16/13 A3012 680 86 900 010/06 RMK AO2
14837KMSN MSN20010726001509207/26/01 00:15:31  5-MIN KMSN 260615Z 36005KT 10SM CLR 16/13 A3012 680 86 900 360/05 RMK AO2
14837KMSN MSN20010726002009207/26/01 00:20:31  5-MIN KMSN 260620Z 36006KT 10SM CLR 16/13 A3012 680 86 900 360/06 RMK AO2
14837KMSN MSN20010726002509207/26/01 00:25:31  5-MIN KMSN 260625Z 01005KT 10SM CLR 16/13 A3012 680 86 900 010/05 RMK AO2
14837KMSN MSN20010726003009207/26/01 00:30:31  5-MIN KMSN 260630Z 02004KT 10SM CLR 15/13 A3012 680 90 900 010/04 RMK AO2
14837KMSN MSN20010726003509207/26/01 00:35:31  5-MIN KMSN 260635Z 02004KT 10SM CLR 14/13 A3012 680 93 800 020/04 RMK AO2
14837KMSN MSN20010726004009207/26/01 00:40:31  5-MIN KMSN 260640Z 02004KT 10SM CLR 14/13 A3012 680 93 800 020/04 RMK AO2
14837KMSN MSN20010726004509207/26/01 00:45:31  5-MIN KMSN 260645Z 02004KT 10SM CLR 14/13 A3012 680 93 800 020/04 RMK AO2
14837KMSN MSN20010726005010907/26/01 00:50:31  5-MIN KMSN 260650Z 03005KT 10SM CLR 14/13 A3012 680 93 800 030/05 RMK AO2 SLP198 T01440133
14837KMSN MSN20010726005509207/26/01 00:55:31  5-MIN KMSN 260655Z 04005KT 10SM CLR 15/13 A3012 680 90 900 040/05 RMK AO2
14837KMSN MSN20010726010009207/26/01 01:00:31  5-MIN KMSN 260700Z 04005KT 10SM CLR 15/13 A3012 680 90 900 030/05 RMK AO2
14837KMSN MSN20010726010509207/26/01 01:05:31  5-MIN KMSN 260705Z 04005KT 10SM CLR 15/13 A3012 680 90 900 040/05 RMK AO2
14837KMSN MSN20010726011009207/26/01 01:10:31  5-MIN KMSN 260710Z 03005KT 10SM CLR 15/13 A3012 680 90 900 030/05 RMK AO2
14837KMSN MSN20010726011509207/26/01 01:15:31  5-MIN KMSN 260715Z 03007KT 10SM CLR 15/13 A3012 680 90 900 030/07 RMK AO2
14837KMSN MSN20010726012009207/26/01 01:20:31  5-MIN KMSN 260720Z 04006KT 10SM CLR 15/14 A3012 680 93 900 040/06 RMK AO2
14837KMSN MSN20010726012509207/26/01 01:25:31  5-MIN KMSN 260725Z 03006KT 10SM CLR 15/13 A3012 680 90 900 030/06 RMK AO2
14837KMSN MSN20010726013009207/26/01 01:30:31  5-MIN KMSN 260730Z 03006KT 10SM CLR 15/13 A3012 680 90 900 030/06 RMK AO2
14837KMSN MSN20010726013509207/26/01 01:35:31  5-MIN KMSN 260735Z 03007KT 10SM CLR 15/13 A3012 680 90 900 030/07 RMK AO2
14837KMSN MSN20010726014009207/26/01 01:40:31  5-MIN KMSN 260740Z 04007KT 10SM CLR 15/14 A3011 690 93 900 040/07 RMK AO2
14837KMSN MSN20010726014509207/26/01 01:45:31  5-MIN KMSN 260745Z 04007KT 10SM CLR 15/14 A3011 690 93 900 040/07 RMK AO2
14837KMSN MSN20010726015010907/26/01 01:50:31  5-MIN KMSN 260750Z 04006KT 10SM CLR 15/13 A3011 690 90 900 040/06 RMK AO2 SLP194 T01500133
14837KMSN MSN20010726015509207/26/01 01:55:31  5-MIN KMSN 260755Z 04006KT 10SM CLR 14/13 A3011 690 93 800 040/06 RMK AO2
14837KMSN MSN20010726020009207/26/01 02:00:31  5-MIN KMSN 260800Z 04006KT 10SM CLR 14/13 A3011 690 93 800 040/06 RMK AO2
14837KMSN MSN20010726020509207/26/01 02:05:31  5-MIN KMSN 260805Z 02006KT 10SM CLR 14/13 A3011 690 93 800 020/06 RMK AO2
14837KMSN MSN20010726021009207/26/01 02:10:31  5-MIN KMSN 260810Z 02007KT 10SM CLR 14/13 A3012 680 93 800 020/07 RMK AO2
14837KMSN MSN20010726021509207/26/01 02:15:31  5-MIN KMSN 260815Z 02008KT 10SM CLR 15/14 A3012 680 93 900 020/08 RMK AO2
14837KMSN MSN20010726022009207/26/01 02:20:31  5-MIN KMSN 260820Z 01007KT 10SM CLR 15/14 A3012 680 93 900 010/07 RMK AO2
14837KMSN MSN20010726022509207/26/01 02:25:31  5-MIN KMSN 260825Z 01008KT 10SM CLR 14/13 A3012 680 93 800 360/08 RMK AO2
14837KMSN MSN20010726023009207/26/01 02:30:31  5-MIN KMSN 260830Z 36008KT 10SM CLR 14/13 A3013 670 93 800 360/08 RMK AO2
14837KMSN MSN20010726023509207/26/01 02:35:31  5-MIN KMSN 260835Z 36007KT 10SM CLR 14/13 A3013 670 93 800 360/07 RMK AO2
14837KMSN MSN20010726024009207/26/01 02:40:31  5-MIN KMSN 260840Z 36007KT 10SM CLR 14/13 A3013 670 96 700 360/07 RMK AO2
14837KMSN MSN20010726024509207/26/01 02:45:31  5-MIN KMSN 260845Z 01007KT 10SM CLR 14/13 A3013 670 96 700 010/07 RMK AO2
14837KMSN MSN20010726025011507/26/01 02:50:31  5-MIN KMSN 260850Z 36007KT 10SM CLR 14/13 A3013 670 96 700 360/07 RMK AO2 SLP201 T01390133 51012
14837KMSN MSN20010726025509207/26/01 02:55:31  5-MIN KMSN 260855Z 36007KT 10SM CLR 14/13 A3013 670 96 700 360/07 RMK AO2
14837KMSN MSN20010726030009207/26/01 03:00:31  5-MIN KMSN 260900Z 36007KT 10SM CLR 14/13 A3013 670 96 700 360/07 RMK AO2
14837KMSN MSN20010726030509207/26/01 03:05:31  5-MIN KMSN 260905Z 36008KT 10SM CLR 14/13 A3013 670 96 700 360/08 RMK AO2
14837KMSN MSN20010726031009207/26/01 03:10:31  5-MIN KMSN 260910Z 36007KT 10SM CLR 14/13 A3013 670 96 700 360/07 RMK AO2
14837KMSN MSN20010726031509207/26/01 03:15:31  5-MIN KMSN 260915Z 36006KT 10SM CLR 14/13 A3014 670 96 700 360/06 RMK AO2
14837KMSN MSN20010726032009207/26/01 03:20:31  5-MIN KMSN 260920Z 36007KT 10SM CLR 14/13 A3014 670 96 700 360/07 RMK AO2
14837KMSN MSN20010726032509207/26/01 03:25:31  5-MIN KMSN 260925Z 36008KT 10SM CLR 14/13 A3014 670 96 700 360/08 RMK AO2
14837KMSN MSN20010726033009207/26/01 03:30:31  5-MIN KMSN 260930Z 01009KT 10SM CLR 14/13 A3013 670 93 700 010/09 RMK AO2
14837KMSN MSN20010726033509207/26/01 03:35:31  5-MIN KMSN 260935Z 01010KT 10SM CLR 14/13 A3013 670 93 700 010/10 RMK AO2
14837KMSN MSN20010726034009207/26/01 03:40:31  5-MIN KMSN 260940Z 36008KT 10SM CLR 13/13 A3014 660 96 700 360/08 RMK AO2
14837KMSN MSN20010726034509207/26/01 03:45:31  5-MIN KMSN 260945Z 01009KT 10SM CLR 13/13 A3014 660 96 700 010/09 RMK AO2
14837KMSN MSN20010726035010907/26/01 03:50:31  5-MIN KMSN 260950Z 01008KT 10SM CLR 13/12 A3014 660 93 700 010/08 RMK AO2 SLP205 T01330122
14837KMSN MSN20010726035509207/26/01 03:55:31  5-MIN KMSN 260955Z 01009KT 10SM CLR 13/12 A3014 660 93 700 010/09 RMK AO2
14837KMSN MSN20010726040009207/26/01 04:00:31  5-MIN KMSN 261000Z 36008KT 10SM CLR 13/12 A3014 660 93 700 360/08 RMK AO2
14837KMSN MSN20010726040509207/26/01 04:05:31  5-MIN KMSN 261005Z 01007KT 10SM CLR 13/12 A3014 660 93 700 010/07 RMK AO2
14837KMSN MSN20010726041009207/26/01 04:10:31  5-MIN KMSN 261010Z 01008KT 10SM CLR 13/12 A3014 660 93 700 010/08 RMK AO2
14837KMSN MSN20010726041509207/26/01 04:15:31  5-MIN KMSN 261015Z 01008KT 10SM CLR 13/12 A3014 660 96 600 010/08 RMK AO2
14837KMSN MSN20010726042009207/26/01 04:20:31  5-MIN KMSN 261020Z 01008KT 10SM CLR 13/12 A3015 650 93 600 010/08 RMK AO2
14837KMSN MSN20010726042509207/26/01 04:25:31  5-MIN KMSN 261025Z 01006KT 10SM CLR 13/12 A3015 650 93 600 010/06 RMK AO2
14837KMSN MSN20010726043009207/26/01 04:30:31  5-MIN KMSN 261030Z 01006KT 10SM CLR 13/12 A3015 650 93 600 010/06 RMK AO2
14837KMSN MSN20010726043509207/26/01 04:35:31  5-MIN KMSN 261035Z 02006KT 10SM CLR 13/12 A3015 650 93 600 010/06 RMK AO2
14837KMSN MSN20010726044009207/26/01 04:40:31  5-MIN KMSN 261040Z 01006KT 10SM CLR 13/12 A3015 650 93 600 010/06 RMK AO2
14837KMSN MSN20010726044509207/26/01 04:45:31  5-MIN KMSN 261045Z 01007KT 10SM CLR 13/12 A3015 660 89 700 010/07 RMK AO2
14837KMSN MSN20010726045010907/26/01 04:50:31  5-MIN KMSN 261050Z 01006KT 10SM CLR 13/12 A3015 660 93 600 360/06 RMK AO2 SLP207 T01280117
14837KMSN MSN20010726045509207/26/01 04:55:31  5-MIN KMSN 261055Z 36006KT 10SM CLR 13/12 A3015 650 93 600 360/06 RMK AO2
14837KMSN MSN20010726050009207/26/01 05:00:31  5-MIN KMSN 261100Z 01006KT 10SM CLR 13/12 A3015 650 93 600 010/06 RMK AO2
14837KMSN MSN20010726050509207/26/01 05:05:31  5-MIN KMSN 261105Z 03005KT 10SM CLR 13/12 A3015 650 89 600 020/05 RMK AO2
14837KMSN MSN20010726051009207/26/01 05:10:31  5-MIN KMSN 261110Z 03006KT 10SM CLR 13/12 A3015 650 89 600 030/06 RMK AO2
14837KMSN MSN20010726051509207/26/01 05:15:31  5-MIN KMSN 261115Z 02005KT 10SM CLR 13/12 A3016 650 89 600 020/05 RMK AO2
14837KMSN MSN20010726052009207/26/01 05:20:31  5-MIN KMSN 261120Z 02006KT 10SM CLR 13/12 A3016 650 89 600 020/06 RMK AO2
14837KMSN MSN20010726052509207/26/01 05:25:31  5-MIN KMSN 261125Z 03005KT 10SM CLR 14/12 A3016 640 86 700 030/05 RMK AO2
14837KMSN MSN20010726053009207/26/01 05:30:31  5-MIN KMSN 261130Z 02007KT 10SM CLR 14/12 A3016 640 86 700 020/07 RMK AO2
14837KMSN MSN20010726053509207/26/01 05:35:31  5-MIN KMSN 261135Z 03006KT 10SM CLR 14/12 A3016 640 86 700 030/06 RMK AO2
14837KMSN MSN20010726054009207/26/01 05:40:31  5-MIN KMSN 261140Z 03009KT 10SM CLR 14/12 A3016 640 86 700 030/09 RMK AO2
14837KMSN MSN20010726054509507/26/01 05:45:31  5-MIN KMSN 261145Z 04007KT 10SM FEW019 14/12 A3016 640 86 800 040/07 RMK AO2
14837KMSN MSN20010726055013007/26/01 05:50:31  5-MIN KMSN 261150Z 03007KT 10SM FEW019 14/12 A3016 640 86 800 030/07 RMK AO2 SLP212 T01440122 10156 20128 53006
14837KMSN MSN20010726055509507/26/01 05:55:31  5-MIN KMSN 261155Z 04008KT 10SM FEW019 14/12 A3016 640 83 800 040/08 RMK AO2
14837KMSN MSN20010726060009507/26/01 06:00:31  5-MIN KMSN 261200Z 04007KT 10SM SCT019 14/12 A3016 640 90 700 040/07 RMK AO2
14837KMSN MSN20010726060509507/26/01 06:05:31  5-MIN KMSN 261205Z 04008KT 10SM BKN019 14/12 A3016 640 83 800 030/08 RMK AO2
14837KMSN MSN20010726061009507/26/01 06:10:31  5-MIN KMSN 261210Z 03008KT 10SM BKN019 14/12 A3016 640 86 800 030/08 RMK AO2
14837KMSN MSN20010726061509507/26/01 06:15:31  5-MIN KMSN 261215Z 03009KT 10SM BKN019 14/12 A3016 640 86 800 030/09 RMK AO2
14837KMSN MSN20010726062009507/26/01 06:20:31  5-MIN KMSN 261220Z 04007KT 10SM OVC019 15/12 A3017 640 83 800 040/07 RMK AO2
14837KMSN MSN20010726062509507/26/01 06:25:31  5-MIN KMSN 261225Z 04008KT 10SM OVC019 15/12 A3017 640 83 800 040/08 RMK AO2
14837KMSN MSN20010726063009507/26/01 06:30:31  5-MIN KMSN 261230Z 04008KT 10SM BKN019 15/13 A3017 640 86 800 040/08 RMK AO2
14837KMSN MSN20010726063509507/26/01 06:35:31  5-MIN KMSN 261235Z 04008KT 10SM BKN019 15/12 A3016 640 83 800 040/08 RMK AO2
14837KMSN MSN20010726064009507/26/01 06:40:31  5-MIN KMSN 261240Z 04008KT 10SM BKN019 16/13 A3017 630 83 900 030/08 RMK AO2
14837KMSN MSN20010726064509507/26/01 06:45:31  5-MIN KMSN 261245Z 04008KT 10SM BKN019 16/13 A3017 630 83 900 040/08 RMK AO2
14837KMSN MSN20010726065011207/26/01 06:50:31  5-MIN KMSN 261250Z 04009KT 10SM BKN019 16/13 A3018 630 83 900 040/09 RMK AO2 SLP217 T01560128
14837KMSN MSN20010726065509507/26/01 06:55:31  5-MIN KMSN 261255Z 03008KT 10SM OVC019 16/13 A3018 630 80 900 030/08 RMK AO2
14837KMSN MSN20010726070009507/26/01 07:00:31  5-MIN KMSN 261300Z 03009KT 10SM OVC019 16/13 A3018 620 80 900 030/09 RMK AO2
14837KMSN MSN20010726070509607/26/01 07:05:31  5-MIN KMSN 261305Z 04011KT 10SM BKN019 17/13 A3018 630 77 1000 040/11 RMK AO2
14837KMSN MSN20010726071009607/26/01 07:10:31  5-MIN KMSN 261310Z 04011KT 10SM FEW019 17/13 A3018 630 80 1000 040/11 RMK AO2
14837KMSN MSN20010726071509607/26/01 07:15:31  5-MIN KMSN 261315Z 04010KT 10SM FEW019 17/13 A3018 630 78 1100 040/10 RMK AO2
14837KMSN MSN20010726072009607/26/01 07:20:31  5-MIN KMSN 261320Z 04011KT 10SM FEW019 17/13 A3018 620 78 1100 040/11 RMK AO2
14837KMSN MSN20010726072509607/26/01 07:25:31  5-MIN KMSN 261325Z 04009KT 10SM FEW019 17/13 A3018 620 78 1100 040/09 RMK AO2
14837KMSN MSN20010726073009607/26/01 07:30:31  5-MIN KMSN 261330Z 03011KT 10SM FEW019 17/13 A3018 620 78 1100 030/11 RMK AO2
14837KMSN MSN20010726073509307/26/01 07:35:31  5-MIN KMSN 261335Z 04011KT 10SM CLR 18/14 A3019 620 78 1100 030/11 RMK AO2
14837KMSN MSN20010726074009307/26/01 07:40:31  5-MIN KMSN 261340Z 04012KT 10SM CLR 18/13 A3018 620 75 1100 040/12 RMK AO2
14837KMSN MSN20010726074509307/26/01 07:45:31  5-MIN KMSN 261345Z 04009KT 10SM CLR 18/14 A3018 620 78 1100 040/09 RMK AO2
14837KMSN MSN20010726075011007/26/01 07:50:31  5-MIN KMSN 261350Z 03011KT 10SM CLR 18/14 A3019 620 78 1100 030/11 RMK AO2 SLP220 T01780139
14837KMSN MSN20010726075509307/26/01 07:55:31  5-MIN KMSN 261355Z 04012KT 10SM CLR 18/14 A3019 620 75 1200 040/12 RMK AO2
14837KMSN MSN20010726080009307/26/01 08:00:31  5-MIN KMSN 261400Z 04011KT 10SM CLR 18/14 A3019 620 75 1200 040/11 RMK AO2
14837KMSN MSN20010726080509307/26/01 08:05:31  5-MIN KMSN 261405Z 05011KT 10SM CLR 18/14 A3019 620 75 1200 050/11 RMK AO2
14837KMSN MSN20010726081009307/26/01 08:10:31  5-MIN KMSN 261410Z 05011KT 10SM CLR 19/14 A3018 620 75 1300 050/11 RMK AO2
14837KMSN MSN20010726081509307/26/01 08:15:31  5-MIN KMSN 261415Z 06010KT 10SM CLR 19/14 A3019 620 75 1300 060/10 RMK AO2
14837KMSN MSN20010726082009307/26/01 08:20:31  5-MIN KMSN 261420Z 05010KT 10SM CLR 19/14 A3019 620 75 1300 050/10 RMK AO2
14837KMSN MSN20010726082509307/26/01 08:25:31  5-MIN KMSN 261425Z 05011KT 10SM CLR 19/14 A3019 620 75 1300 050/11 RMK AO2
14837KMSN MSN20010726083009307/26/01 08:30:31  5-MIN KMSN 261430Z 05009KT 10SM CLR 19/15 A3019 620 75 1300 050/09 RMK AO2
14837KMSN MSN20010726083509307/26/01 08:35:31  5-MIN KMSN 261435Z 04010KT 10SM CLR 20/15 A3019 620 72 1400 040/10 RMK AO2
14837KMSN MSN20010726084009307/26/01 08:40:31  5-MIN KMSN 261440Z 04009KT 10SM CLR 19/15 A3018 620 75 1300 040/09 RMK AO2
14837KMSN MSN20010726084509607/26/01 08:45:31  5-MIN KMSN 261445Z 04009KT 10SM FEW020 20/15 A3018 620 72 1400 040/09 RMK AO2
14837KMSN MSN20010726085011907/26/01 08:50:31  5-MIN KMSN 261450Z 07010KT 10SM FEW020 20/16 A3019 620 75 1400 070/10 RMK AO2 SLP219 T02000156 53012
14837KMSN MSN20010726085509307/26/01 08:55:31  5-MIN KMSN 261455Z 05007KT 10SM CLR 21/16 A3019 620 73 1400 040/07 RMK AO2
14837KMSN MSN20010726090009607/26/01 09:00:31  5-MIN KMSN 261500Z 06007KT 10SM SCT020 20/15 A3018 620 72 1400 060/07 RMK AO2
14837KMSN MSN20010726090509607/26/01 09:05:31  5-MIN KMSN 261505Z 08010KT 10SM SCT020 21/16 A3019 620 73 1400 080/10 RMK AO2
14837KMSN MSN20010726091009607/26/01 09:10:31  5-MIN KMSN 261510Z 05010KT 10SM SCT020 21/16 A3019 620 73 1400 050/10 RMK AO2
14837KMSN MSN20010726091509607/26/01 09:15:31  5-MIN KMSN 261515Z 07010KT 10SM SCT020 21/15 A3019 610 70 1400 070/10 RMK AO2
14837KMSN MSN20010726092009607/26/01 09:20:31  5-MIN KMSN 261520Z 09009KT 10SM BKN020 20/16 A3019 610 75 1400 090/09 RMK AO2
14837KMSN MSN20010726092509607/26/01 09:25:31  5-MIN KMSN 261525Z 07011KT 10SM BKN022 21/16 A3019 610 73 1400 070/11 RMK AO2
14837KMSN MSN20010726093009607/26/01 09:30:31  5-MIN KMSN 261530Z 06010KT 10SM BKN022 21/16 A3020 610 70 1500 060/10 RMK AO2
14837KMSN MSN20010726093509607/26/01 09:35:31  5-MIN KMSN 261535Z 07009KT 10SM BKN022 21/16 A3020 610 73 1400 070/09 RMK AO2
14837KMSN MSN20010726094009607/26/01 09:40:31  5-MIN KMSN 261540Z 07010KT 10SM BKN022 21/16 A3020 610 73 1400 070/10 RMK AO2
14837KMSN MSN20010726094509607/26/01 09:45:31  5-MIN KMSN 261545Z 08008KT 10SM BKN022 21/16 A3020 610 73 1400 080/08 RMK AO2
14837KMSN MSN20010726095011307/26/01 09:50:31  5-MIN KMSN 261550Z 07009KT 10SM BKN022 21/16 A3020 610 73 1400 070/09 RMK AO2 SLP223 T02060156
14837KMSN MSN20010726095509607/26/01 09:55:31  5-MIN KMSN 261555Z 10008KT 10SM OVC022 21/16 A3020 610 70 1500 100/08 RMK AO2
14837KMSN MSN20010726100009607/26/01 10:00:31  5-MIN KMSN 261600Z 09009KT 10SM OVC022 21/16 A3020 610 73 1400 080/09 RMK AO2
14837KMSN MSN20010726100509607/26/01 10:05:31  5-MIN KMSN 261605Z 08010KT 10SM OVC022 21/16 A3020 600 73 1400 080/10 RMK AO2
14837KMSN MSN20010726101009607/26/01 10:10:31  5-MIN KMSN 261610Z 07009KT 10SM OVC022 21/16 A3020 600 73 1500 070/09 RMK AO2
14837KMSN MSN20010726101509607/26/01 10:15:31  5-MIN KMSN 261615Z 09008KT 10SM OVC022 21/16 A3021 600 73 1400 090/08 RMK AO2
14837KMSN MSN20010726102009607/26/01 10:20:31  5-MIN KMSN 261620Z 08007KT 10SM OVC022 21/16 A3021 600 73 1400 080/07 RMK AO2
14837KMSN MSN20010726102509607/26/01 10:25:31  5-MIN KMSN 261625Z 08007KT 10SM OVC022 21/16 A3021 600 73 1400 080/07 RMK AO2
14837KMSN MSN20010726103009607/26/01 10:30:31  5-MIN KMSN 261630Z 07007KT 10SM OVC022 21/16 A3021 600 73 1400 070/07 RMK AO2
14837KMSN MSN20010726103509607/26/01 10:35:31  5-MIN KMSN 261635Z 07008KT 10SM OVC022 21/16 A3021 600 73 1400 070/08 RMK AO2
14837KMSN MSN20010726104009607/26/01 10:40:31  5-MIN KMSN 261640Z 06009KT 10SM OVC022 21/16 A3021 600 73 1500 060/09 RMK AO2
14837KMSN MSN20010726104510307/26/01 10:45:31  5-MIN KMSN 261645Z 07006KT 10SM BKN023 OVC029 21/16 A3021 600 73 1500 070/06 RMK AO2
14837KMSN MSN20010726105012007/26/01 10:50:31  5-MIN KMSN 261650Z 05007KT 10SM BKN023 OVC029 21/16 A3021 600 73 1500 050/07 RMK AO2 SLP227 T02110161
14837KMSN MSN20010726105510307/26/01 10:55:31  5-MIN KMSN 261655Z 03007KT 10SM SCT023 OVC033 21/16 A3021 600 70 1500 030/07 RMK AO2
14837KMSN MSN20010726110011007/26/01 11:00:31  5-MIN KMSN 261700Z 06006KT 10SM FEW023 SCT028 OVC035 22/16 A3021 600 70 1600 060/06 RMK AO2
14837KMSN MSN20010726110511007/26/01 11:05:31  5-MIN KMSN 261705Z 03009KT 10SM SCT023 BKN030 OVC037 21/16 A3021 600 73 1500 030/09 RMK AO2
14837KMSN MSN20010726111011007/26/01 11:10:31  5-MIN KMSN 261710Z 03008KT 10SM SCT025 BKN030 OVC037 22/17 A3021 600 73 1600 030/08 RMK AO2
14837KMSN MSN20010726111511007/26/01 11:15:31  5-MIN KMSN 261715Z 04010KT 10SM SCT025 BKN032 OVC040 22/16 A3021 600 70 1600 040/10 RMK AO2
14837KMSN MSN20010726112011007/26/01 11:20:31  5-MIN KMSN 261720Z 06009KT 10SM SCT025 BKN034 OVC042 22/16 A3021 600 70 1600 050/09 RMK AO2
14837KMSN MSN20010726112511007/26/01 11:25:31  5-MIN KMSN 261725Z 05007KT 10SM SCT025 BKN032 BKN042 22/17 A3021 590 70 1600 050/07 RMK AO2
14837KMSN MSN20010726113011007/26/01 11:30:31  5-MIN KMSN 261730Z 04008KT 10SM SCT025 BKN032 BKN042 22/17 A3022 590 70 1600 040/08 RMK AO2
14837KMSN MSN20010726113511007/26/01 11:35:31  5-MIN KMSN 261735Z 36008KT 10SM SCT025 BKN032 BKN042 22/17 A3022 590 70 1600 360/08 RMK AO2
14837KMSN MSN20010726114011007/26/01 11:40:31  5-MIN KMSN 261740Z 04010KT 10SM SCT025 BKN032 BKN042 23/17 A3022 590 68 1700 040/10 RMK AO2
14837KMSN MSN20010726114511007/26/01 11:45:31  5-MIN KMSN 261745Z 03009KT 10SM FEW023 SCT038 BKN045 22/17 A3021 590 70 1600 030/09 RMK AO2
14837KMSN MSN20010726115013807/26/01 11:50:31  5-MIN KMSN 261750Z 02009KT 10SM FEW023 BKN045 22/16 A3022 590 70 1500 020/09 RMK AO2 SLP230 T02170161 10228 20139 50008
14837KMSN MSN20010726115511007/26/01 11:55:31  5-MIN KMSN 261755Z 04010KT 10SM FEW023 SCT037 BKN045 22/16 A3021 600 70 1500 040/10 RMK AO2
14837KMSN MSN20010726120011007/26/01 12:00:31  5-MIN KMSN 261800Z 04011KT 10SM SCT025 BKN037 BKN047 23/17 A3021 600 68 1700 040/11 RMK AO2
14837KMSN MSN20010726120510307/26/01 12:05:31  5-MIN KMSN 261805Z 03011KT 10SM SCT025 BKN045 22/16 A3021 600 68 1600 020/11 RMK AO2
14837KMSN MSN20010726121011007/26/01 12:10:31  5-MIN KMSN 261810Z 04009KT 10SM FEW027 SCT035 BKN047 22/16 A3021 600 68 1600 040/09 RMK AO2
14837KMSN MSN20010726121511007/26/01 12:15:31  5-MIN KMSN 261815Z 03012KT 10SM FEW027 SCT035 BKN045 23/17 A3020 600 66 1800 030/12 RMK AO2
14837KMSN MSN20010726122011007/26/01 12:20:31  5-MIN KMSN 261820Z 03012KT 10SM SCT027 SCT035 BKN047 23/17 A3020 600 66 1700 030/12 RMK AO2
14837KMSN MSN20010726122510307/26/01 12:25:31  5-MIN KMSN 261825Z 02011KT 10SM FEW027 SCT047 23/17 A3020 600 66 1700 020/11 RMK AO2
14837KMSN MSN20010726123011007/26/01 12:30:31  5-MIN KMSN 261830Z 04009KT 10SM FEW027 SCT035 SCT047 23/16 A3020 600 65 1700 040/09 RMK AO2
14837KMSN MSN20010726123511007/26/01 12:35:31  5-MIN KMSN 261835Z 03010KT 10SM FEW027 SCT037 BKN049 23/17 A3020 600 66 1700 030/10 RMK AO2
14837KMSN MSN20010726124011007/26/01 12:40:31  5-MIN KMSN 261840Z 07010KT 10SM FEW029 SCT037 BKN049 24/16 A3020 600 61 1800 070/10 RMK AO2
14837KMSN MSN20010726124512607/26/01 12:45:31  5-MIN KMSN 261845Z 04008KT 020V080 10SM SCT029 SCT038 SCT049 24/16 A3020 600 61 1800 040/08 020V080 RMK AO2
14837KMSN MSN20010726125012707/26/01 12:50:31  5-MIN KMSN 261850Z 04011KT 10SM FEW031 SCT039 BKN047 23/16 A3020 600 63 1700 040/11 RMK AO2 SLP226 T02330161
14837KMSN MSN20010726125511007/26/01 12:55:31  5-MIN KMSN 261855Z 04012KT 10SM FEW031 SCT038 BKN049 23/16 A3020 600 63 1700 040/12 RMK AO2
14837KMSN MSN20010726130010307/26/01 13:00:31  5-MIN KMSN 261900Z 03009KT 10SM FEW031 BKN045 24/17 A3020 610 63 1800 030/09 RMK AO2
14837KMSN MSN20010726130510307/26/01 13:05:31  5-MIN KMSN 261905Z 06010KT 10SM SCT033 SCT048 24/16 A3020 600 61 1800 060/10 RMK AO2
14837KMSN MSN20010726131010307/26/01 13:10:31  5-MIN KMSN 261910Z 08009KT 10SM SCT033 SCT048 24/16 A3021 600 59 1800 080/09 RMK AO2
14837KMSN MSN20010726131510307/26/01 13:15:31  5-MIN KMSN 261915Z 07009KT 10SM SCT034 BKN048 24/16 A3021 600 59 1900 060/09 RMK AO2
14837KMSN MSN20010726132010307/26/01 13:20:31  5-MIN KMSN 261920Z 07012KT 10SM SCT034 BKN048 23/16 A3021 600 61 1700 070/12 RMK AO2
14837KMSN MSN20010726132510307/26/01 13:25:31  5-MIN KMSN 261925Z 06010KT 10SM FEW034 SCT050 24/16 A3021 600 59 1800 060/10 RMK AO2
14837KMSN MSN20010726133010307/26/01 13:30:31  5-MIN KMSN 261930Z 07011KT 10SM FEW034 SCT050 24/16 A3020 600 59 1900 060/11 RMK AO2
14837KMSN MSN20010726133510307/26/01 13:35:31  5-MIN KMSN 261935Z 07009KT 10SM SCT034 BKN055 23/16 A3021 600 61 1700 060/09 RMK AO2
14837KMSN MSN20010726134010307/26/01 13:40:31  5-MIN KMSN 261940Z 07010KT 10SM SCT034 BKN050 23/15 A3021 600 61 1700 070/10 RMK AO2
14837KMSN MSN20010726134510307/26/01 13:45:31  5-MIN KMSN 261945Z 08010KT 10SM FEW034 BKN055 23/15 A3021 600 59 1700 080/10 RMK AO2
14837KMSN MSN20010726135012007/26/01 13:50:31  5-MIN KMSN 261950Z 07013KT 10SM FEW034 SCT055 24/16 A3021 600 57 1900 070/13 RMK AO2 SLP226 T02440156
14837KMSN MSN20010726135510307/26/01 13:55:31  5-MIN KMSN 261955Z 06013KT 10SM FEW034 SCT050 25/16 A3021 600 55 1900 060/13 RMK AO2
14837KMSN MSN20010726140010307/26/01 14:00:31  5-MIN KMSN 262000Z 05010KT 10SM FEW034 BKN055 24/16 A3021 600 57 1900 050/10 RMK AO2
14837KMSN MSN20010726140509607/26/01 14:05:31  5-MIN KMSN 262005Z 04009KT 10SM BKN060 24/16 A3021 600 57 1900 040/09 RMK AO2
14837KMSN MSN20010726141009607/26/01 14:10:31  5-MIN KMSN 262010Z 05008KT 10SM SCT060 24/16 A3020 600 57 1900 050/08 RMK AO2
14837KMSN MSN20010726141509607/26/01 14:15:31  5-MIN KMSN 262015Z 09009KT 10SM BKN060 25/16 A3021 600 57 1900 080/09 RMK AO2
14837KMSN MSN20010726142009607/26/01 14:20:31  5-MIN KMSN 262020Z 07010KT 10SM BKN060 25/16 A3021 600 55 1900 070/10 RMK AO2
14837KMSN MSN20010726142509607/26/01 14:25:31  5-MIN KMSN 262025Z 09009KT 10SM BKN060 25/16 A3021 600 57 1900 080/09 RMK AO2
14837KMSN MSN20010726143009607/26/01 14:30:31  5-MIN KMSN 262030Z 08008KT 10SM BKN060 24/15 A3021 600 57 1800 080/08 RMK AO2
14837KMSN MSN20010726143509607/26/01 14:35:31  5-MIN KMSN 262035Z 06009KT 10SM BKN060 24/15 A3021 600 57 1800 060/09 RMK AO2
14837KMSN MSN20010726144009607/26/01 14:40:31  5-MIN KMSN 262040Z 06011KT 10SM BKN060 24/15 A3020 610 57 1800 060/11 RMK AO2
14837KMSN MSN20010726144509607/26/01 14:45:31  5-MIN KMSN 262045Z 06010KT 10SM BKN060 23/15 A3020 610 59 1800 060/10 RMK AO2
14837KMSN MSN20010726145011907/26/01 14:50:31  5-MIN KMSN 262050Z 06008KT 10SM BKN060 23/15 A3020 610 59 1800 060/08 RMK AO2 SLP224 T02330150 51009
14837KMSN MSN20010726145510307/26/01 14:55:31  5-MIN KMSN 262055Z 06007KT 10SM FEW043 BKN060 24/15 A3019 620 57 1800 060/07 RMK AO2
14837KMSN MSN20010726150010307/26/01 15:00:31  5-MIN KMSN 262100Z 06010KT 10SM FEW041 BKN060 24/16 A3019 620 57 1900 060/10 RMK AO2
14837KMSN MSN20010726150510307/26/01 15:05:31  5-MIN KMSN 262105Z 07011KT 10SM FEW041 BKN060 24/15 A3019 620 55 1900 070/11 RMK AO2
14837KMSN MSN20010726151010307/26/01 15:10:31  5-MIN KMSN 262110Z 08011KT 10SM FEW041 SCT060 23/14 A3019 610 57 1800 080/11 RMK AO2
14837KMSN MSN20010726151510307/26/01 15:15:31  5-MIN KMSN 262115Z 09009KT 10SM FEW041 SCT060 24/15 A3019 610 55 1900 090/09 RMK AO2
14837KMSN MSN20010726152010307/26/01 15:20:31  5-MIN KMSN 262120Z 09011KT 10SM FEW041 SCT065 24/14 A3019 610 55 1800 080/11 RMK AO2
14837KMSN MSN20010726152511207/26/01 15:25:31  5-MIN KMSN 262125Z 08009KT 040V110 10SM FEW041 24/14 A3019 610 53 1900 080/09 040V110 RMK AO2
14837KMSN MSN20010726153010307/26/01 15:30:31  5-MIN KMSN 262130Z 07011KT 10SM FEW041 SCT060 25/14 A3019 610 51 1900 070/11 RMK AO2
14837KMSN MSN20010726153510307/26/01 15:35:31  5-MIN KMSN 262135Z 07008KT 10SM FEW041 SCT060 24/14 A3019 610 53 1800 070/08 RMK AO2
14837KMSN MSN20010726154010307/26/01 15:40:31  5-MIN KMSN 262140Z 07009KT 10SM FEW043 SCT060 25/15 A3019 610 53 1900 070/09 RMK AO2
14837KMSN MSN20010726154510907/26/01 15:45:31  5-MIN KMSN 262145Z 07012G15KT 10SM SCT047 SCT060 25/16 A3019 610 55 1900 060/12G15 RMK AO2
14837KMSN MSN20010726155012007/26/01 15:50:31  5-MIN KMSN 262150Z 07011KT 10SM SCT047 BKN060 23/14 A3020 610 57 1800 070/11 RMK AO2 SLP224 T02330144
14837KMSN MSN20010726155510307/26/01 15:55:31  5-MIN KMSN 262155Z 08010KT 10SM FEW047 BKN060 23/14 A3020 610 57 1800 080/10 RMK AO2
14837KMSN MSN20010726160010307/26/01 16:00:31  5-MIN KMSN 262200Z 10008KT 10SM FEW047 SCT060 23/14 A3020 610 57 1700 100/08 RMK AO2
14837KMSN MSN20010726160510307/26/01 16:05:31  5-MIN KMSN 262205Z 09008KT 10SM FEW047 SCT060 24/14 A3019 610 55 1800 090/08 RMK AO2
14837KMSN MSN20010726161010307/26/01 16:10:31  5-MIN KMSN 262210Z 07012KT 10SM SCT047 SCT060 24/14 A3019 610 53 1900 070/12 RMK AO2
14837KMSN MSN20010726161510307/26/01 16:15:31  5-MIN KMSN 262215Z 08011KT 10SM FEW049 SCT060 24/14 A3020 610 53 1900 080/11 RMK AO2
14837KMSN MSN20010726162010307/26/01 16:20:31  5-MIN KMSN 262220Z 09010KT 10SM FEW049 SCT060 24/14 A3020 610 55 1800 090/10 RMK AO2
14837KMSN MSN20010726162510307/26/01 16:25:31  5-MIN KMSN 262225Z 08011KT 10SM FEW049 SCT060 24/14 A3020 610 55 1800 080/11 RMK AO2
14837KMSN MSN20010726163009607/26/01 16:30:31  5-MIN KMSN 262230Z 09010KT 10SM FEW049 23/14 A3019 610 55 1800 090/10 RMK AO2
14837KMSN MSN20010726163510307/26/01 16:35:31  5-MIN KMSN 262235Z 09011KT 10SM FEW049 SCT060 24/14 A3019 610 53 1800 090/11 RMK AO2
14837KMSN MSN20010726164009607/26/01 16:40:31  5-MIN KMSN 262240Z 08011KT 10SM BKN060 24/14 A3019 610 51 1900 070/11 RMK AO2
14837KMSN MSN20010726164509607/26/01 16:45:31  5-MIN KMSN 262245Z 08011KT 10SM BKN060 24/14 A3019 610 51 1900 080/11 RMK AO2
14837KMSN MSN20010726165012007/26/01 16:50:31  5-MIN KMSN 262250Z 09012KT 10SM FEW047 SCT060 24/14 A3019 610 53 1900 080/12 RMK AO2 SLP223 T02440144
14837KMSN MSN20010726165509607/26/01 16:55:31  5-MIN KMSN 262255Z 09010KT 10SM BKN060 24/14 A3019 610 55 1800 090/10 RMK AO2
14837KMSN MSN20010726170009607/26/01 17:00:31  5-MIN KMSN 262300Z 08010KT 10SM BKN060 24/14 A3019 610 55 1800 080/10 RMK AO2
14837KMSN MSN20010726170509607/26/01 17:05:31  5-MIN KMSN 262305Z 09009KT 10SM BKN060 24/14 A3019 620 53 1800 090/09 RMK AO2
14837KMSN MSN20010726171009607/26/01 17:10:31  5-MIN KMSN 262310Z 07011KT 10SM SCT060 24/14 A3019 620 53 1800 070/11 RMK AO2
14837KMSN MSN20010726171509607/26/01 17:15:31  5-MIN KMSN 262315Z 08012KT 10SM SCT060 23/14 A3019 620 55 1800 080/12 RMK AO2
14837KMSN MSN20010726172009607/26/01 17:20:31  5-MIN KMSN 262320Z 08012KT 10SM FEW060 23/14 A3019 610 57 1800 080/12 RMK AO2
14837KMSN MSN20010726172509607/26/01 17:25:31  5-MIN KMSN 262325Z 08011KT 10SM FEW060 23/14 A3019 610 55 1800 080/11 RMK AO2
14837KMSN MSN20010726173009607/26/01 17:30:31  5-MIN KMSN 262330Z 08008KT 10SM FEW060 23/14 A3019 610 55 1800 080/08 RMK AO2
14837KMSN MSN20010726173509607/26/01 17:35:31  5-MIN KMSN 262335Z 07010KT 10SM FEW060 23/14 A3019 610 57 1800 070/10 RMK AO2
14837KMSN MSN20010726174009607/26/01 17:40:31  5-MIN KMSN 262340Z 07010KT 10SM FEW060 23/14 A3019 610 57 1700 070/10 RMK AO2
14837KMSN MSN20010726174509607/26/01 17:45:31  5-MIN KMSN 262345Z 07012KT 10SM FEW060 23/14 A3019 610 57 1700 070/12 RMK AO2
14837KMSN MSN20010726175013107/26/01 17:50:31  5-MIN KMSN 262350Z 08011KT 10SM FEW060 23/14 A3019 610 57 1700 080/11 RMK AO2 SLP223 T02280139 10256 20217 58007
14837KMSN MSN20010726175509307/26/01 17:55:31  5-MIN KMSN 262355Z 08011KT 10SM CLR 23/13 A3020 610 55 1700 080/11 RMK AO2
14837KMSN MSN20010726180009307/26/01 18:00:31  5-MIN KMSN 270000Z 08009KT 10SM CLR 22/13 A3020 610 56 1600 080/09 RMK AO2
14837KMSN MSN20010726180509307/26/01 18:05:31  5-MIN KMSN 270005Z 09010KT 10SM CLR 22/13 A3020 610 56 1600 090/10 RMK AO2
14837KMSN MSN20010726181009307/26/01 18:10:31  5-MIN KMSN 270010Z 09009KT 10SM CLR 22/13 A3020 600 56 1600 080/09 RMK AO2
14837KMSN MSN20010726181509307/26/01 18:15:31  5-MIN KMSN 270015Z 08009KT 10SM CLR 22/13 A3020 610 56 1600 080/09 RMK AO2
14837KMSN MSN20010726182009307/26/01 18:20:31  5-MIN KMSN 270020Z 07008KT 10SM CLR 22/14 A3020 610 59 1600 070/08 RMK AO2
14837KMSN MSN20010726182509307/26/01 18:25:31  5-MIN KMSN 270025Z 08009KT 10SM CLR 22/13 A3020 610 58 1600 080/09 RMK AO2
14837KMSN MSN20010726183009307/26/01 18:30:31  5-MIN KMSN 270030Z 08010KT 10SM CLR 22/13 A3020 610 56 1600 080/10 RMK AO2
14837KMSN MSN20010726183509307/26/01 18:35:31  5-MIN KMSN 270035Z 09008KT 10SM CLR 22/13 A3020 610 58 1600 090/08 RMK AO2
14837KMSN MSN20010726184009307/26/01 18:40:31  5-MIN KMSN 270040Z 09007KT 10SM CLR 22/13 A3020 600 58 1600 090/07 RMK AO2
14837KMSN MSN20010726184509307/26/01 18:45:31  5-MIN KMSN 270045Z 09007KT 10SM CLR 22/13 A3020 600 56 1600 090/07 RMK AO2
14837KMSN MSN20010726185011007/26/01 18:50:31  5-MIN KMSN 270050Z 09007KT 10SM CLR 21/13 A3020 600 61 1500 080/07 RMK AO2 SLP226 T02110133
14837KMSN MSN20010726185509307/26/01 18:55:31  5-MIN KMSN 270055Z 08007KT 10SM CLR 21/13 A3020 600 63 1400 080/07 RMK AO2
14837KMSN MSN20010726190009307/26/01 19:00:31  5-MIN KMSN 270100Z 09007KT 10SM CLR 21/13 A3020 600 63 1400 090/07 RMK AO2
14837KMSN MSN20010726190509307/26/01 19:05:31  5-MIN KMSN 270105Z 09008KT 10SM CLR 21/13 A3020 600 63 1400 090/08 RMK AO2
14837KMSN MSN20010726191009307/26/01 19:10:31  5-MIN KMSN 270110Z 08007KT 10SM CLR 21/13 A3021 600 63 1400 080/07 RMK AO2
14837KMSN MSN20010726191509307/26/01 19:15:31  5-MIN KMSN 270115Z 08006KT 10SM CLR 19/13 A3021 600 67 1300 080/06 RMK AO2
14837KMSN MSN20010726192009307/26/01 19:20:31  5-MIN KMSN 270120Z 07007KT 10SM CLR 19/13 A3021 600 67 1300 070/07 RMK AO2
14837KMSN MSN20010726192509307/26/01 19:25:31  5-MIN KMSN 270125Z 07006KT 10SM CLR 19/13 A3021 600 70 1200 070/06 RMK AO2
14837KMSN MSN20010726193009307/26/01 19:30:31  5-MIN KMSN 270130Z 08007KT 10SM CLR 19/13 A3021 600 67 1300 080/07 RMK AO2
14837KMSN MSN20010726193509307/26/01 19:35:31  5-MIN KMSN 270135Z 08006KT 10SM CLR 19/13 A3021 600 70 1200 080/06 RMK AO2
14837KMSN MSN20010726194009307/26/01 19:40:31  5-MIN KMSN 270140Z 08006KT 10SM CLR 19/13 A3021 600 70 1200 080/06 RMK AO2
14837KMSN MSN20010726194509307/26/01 19:45:31  5-MIN KMSN 270145Z 08007KT 10SM CLR 18/13 A3021 600 72 1200 080/07 RMK AO2
14837KMSN MSN20010726195011007/26/01 19:50:31  5-MIN KMSN 270150Z 08006KT 10SM CLR 18/13 A3021 600 72 1200 080/06 RMK AO2 SLP229 T01830133
14837KMSN MSN20010726195509307/26/01 19:55:31  5-MIN KMSN 270155Z 07006KT 10SM CLR 18/13 A3021 590 72 1200 070/06 RMK AO2
14837KMSN MSN20010726200009307/26/01 20:00:31  5-MIN KMSN 270200Z 07005KT 10SM CLR 18/13 A3022 590 75 1100 070/05 RMK AO2
14837KMSN MSN20010726200509307/26/01 20:05:31  5-MIN KMSN 270205Z 07006KT 10SM CLR 18/13 A3022 590 75 1100 070/06 RMK AO2
14837KMSN MSN20010726201009307/26/01 20:10:31  5-MIN KMSN 270210Z 07005KT 10SM CLR 18/13 A3022 590 75 1100 070/05 RMK AO2
14837KMSN MSN20010726201509307/26/01 20:15:31  5-MIN KMSN 270215Z 08005KT 10SM CLR 18/13 A3022 590 75 1100 080/05 RMK AO2
14837KMSN MSN20010726202009307/26/01 20:20:31  5-MIN KMSN 270220Z 07006KT 10SM CLR 18/13 A3022 590 70 1200 070/06 RMK AO2
14837KMSN MSN20010726202509307/26/01 20:25:31  5-MIN KMSN 270225Z 07004KT 10SM CLR 18/13 A3023 580 75 1100 060/04 RMK AO2
14837KMSN MSN20010726203009307/26/01 20:30:31  5-MIN KMSN 270230Z 06003KT 10SM CLR 18/13 A3023 580 75 1100 050/03 RMK AO2
14837KMSN MSN20010726203509307/26/01 20:35:31  5-MIN KMSN 270235Z 04003KT 10SM CLR 18/13 A3023 580 75 1100 040/03 RMK AO2
14837KMSN MSN20010726204009307/26/01 20:40:31  5-MIN KMSN 270240Z 06005KT 10SM CLR 17/13 A3023 580 78 1000 060/05 RMK AO2
14837KMSN MSN20010726204509307/26/01 20:45:31  5-MIN KMSN 270245Z 07005KT 10SM CLR 17/13 A3023 580 78 1000 070/05 RMK AO2
14837KMSN MSN20010726205011607/26/01 20:50:31  5-MIN KMSN 270250Z 07007KT 10SM CLR 17/13 A3023 580 77 1000 070/07 RMK AO2 SLP234 T01670128 51001
14837KMSN MSN20010726205509307/26/01 20:55:31  5-MIN KMSN 270255Z 07007KT 10SM CLR 17/13 A3023 580 77 1000 070/07 RMK AO2
14837KMSN MSN20010726210009307/26/01 21:00:31  5-MIN KMSN 270300Z 08010KT 10SM CLR 17/13 A3023 580 80 1000 080/10 RMK AO2
14837KMSN MSN20010726210509307/26/01 21:05:31  5-MIN KMSN 270305Z 08011KT 10SM CLR 17/13 A3023 580 78 1000 070/11 RMK AO2
14837KMSN MSN20010726211009307/26/01 21:10:31  5-MIN KMSN 270310Z 08010KT 10SM CLR 17/13 A3023 580 75 1000 080/10 RMK AO2
14837KMSN MSN20010726211509307/26/01 21:15:31  5-MIN KMSN 270315Z 08010KT 10SM CLR 17/13 A3023 580 75 1000 080/10 RMK AO2
14837KMSN MSN20010726212009307/26/01 21:20:31  5-MIN KMSN 270320Z 07009KT 10SM CLR 17/13 A3023 580 75 1000 070/09 RMK AO2
14837KMSN MSN20010726212509307/26/01 21:25:31  5-MIN KMSN 270325Z 07009KT 10SM CLR 17/13 A3023 580 75 1000 070/09 RMK AO2
14837KMSN MSN20010726213009207/26/01 21:30:31  5-MIN KMSN 270330Z 07008KT 10SM CLR 17/13 A3023 580 77 900 070/08 RMK AO2
14837KMSN MSN20010726213509207/26/01 21:35:31  5-MIN KMSN 270335Z 07006KT 10SM CLR 16/13 A3023 580 80 900 070/06 RMK AO2
14837KMSN MSN20010726214009207/26/01 21:40:31  5-MIN KMSN 270340Z 08007KT 10SM CLR 16/13 A3023 570 80 900 080/07 RMK AO2
14837KMSN MSN20010726214509207/26/01 21:45:31  5-MIN KMSN 270345Z 08008KT 10SM CLR 16/13 A3024 570 80 900 080/08 RMK AO2
14837KMSN MSN20010726215010907/26/01 21:50:31  5-MIN KMSN 270350Z 08010KT 10SM CLR 17/12 A3024 570 75 900 080/10 RMK AO2 SLP237 T01670122
14837KMSN MSN20010726215509207/26/01 21:55:31  5-MIN KMSN 270355Z 08010KT 10SM CLR 16/11 A3023 570 72 900 080/10 RMK AO2
14837KMSN MSN20010726220009207/26/01 22:00:31  5-MIN KMSN 270400Z 08010KT 10SM CLR 17/11 A3024 570 67 900 080/10 RMK AO2
14837KMSN MSN20010726220509207/26/01 22:05:31  5-MIN KMSN 270405Z 08010KT 10SM CLR 16/11 A3024 570 69 900 080/10 RMK AO2
14837KMSN MSN20010726221009207/26/01 22:10:31  5-MIN KMSN 270410Z 08009KT 10SM CLR 16/10 A3024 570 67 900 080/09 RMK AO2
14837KMSN MSN20010726221509207/26/01 22:15:31  5-MIN KMSN 270415Z 08007KT 10SM CLR 16/10 A3024 570 67 900 080/07 RMK AO2
14837KMSN MSN20010726222009207/26/01 22:20:31  5-MIN KMSN 270420Z 08007KT 10SM CLR 16/10 A3024 570 69 800 080/07 RMK AO2
14837KMSN MSN20010726222509207/26/01 22:25:31  5-MIN KMSN 270425Z 08007KT 10SM CLR 16/09 A3024 570 67 800 080/07 RMK AO2
14837KMSN MSN20010726223009207/26/01 22:30:31  5-MIN KMSN 270430Z 08006KT 10SM CLR 16/10 A3025 560 69 800 080/06 RMK AO2
14837KMSN MSN20010726223509207/26/01 22:35:31  5-MIN KMSN 270435Z 08005KT 10SM CLR 15/10 A3025 560 72 700 070/05 RMK AO2
14837KMSN MSN20010726224009207/26/01 22:40:31  5-MIN KMSN 270440Z 07005KT 10SM CLR 15/09 A3025 560 69 700 070/05 RMK AO2
14837KMSN MSN20010726224509207/26/01 22:45:31  5-MIN KMSN 270445Z 07005KT 10SM CLR 15/09 A3025 560 69 700 070/05 RMK AO2
14837KMSN MSN20010726225010907/26/01 22:50:31  5-MIN KMSN 270450Z 06004KT 10SM CLR 15/09 A3025 560 69 700 060/04 RMK AO2 SLP243 T01500094
14837KMSN MSN20010726225509207/26/01 22:55:31  5-MIN KMSN 270455Z 06004KT 10SM CLR 14/09 A3026 560 72 700 060/04 RMK AO2
14837KMSN MSN20010726230009207/26/01 23:00:31  5-MIN KMSN 270500Z 06004KT 10SM CLR 14/09 A3026 560 72 700 060/04 RMK AO2
14837KMSN MSN20010726230509207/26/01 23:05:31  5-MIN KMSN 270505Z 05004KT 10SM CLR 14/09 A3026 550 72 700 040/04 RMK AO2
14837KMSN MSN20010726231009207/26/01 23:10:31  5-MIN KMSN 270510Z 04004KT 10SM CLR 14/10 A3026 550 77 600 040/04 RMK AO2
14837KMSN MSN20010726231509207/26/01 23:15:31  5-MIN KMSN 270515Z 03003KT 10SM CLR 13/10 A3026 550 80 500 030/03 RMK AO2
14837KMSN MSN20010726232009207/26/01 23:20:31  5-MIN KMSN 270520Z 02003KT 10SM CLR 13/10 A3026 550 80 500 020/03 RMK AO2
14837KMSN MSN20010726232509207/26/01 23:25:31  5-MIN KMSN 270525Z 02003KT 10SM CLR 13/10 A3026 550 80 500 020/03 RMK AO2
14837KMSN MSN20010726233009207/26/01 23:30:31  5-MIN KMSN 270530Z 04003KT 10SM CLR 13/10 A3026 550 80 500 040/03 RMK AO2
14837KMSN MSN20010726233509207/26/01 23:35:31  5-MIN KMSN 270535Z 05003KT 10SM CLR 14/10 A3025 560 77 600 050/03 RMK AO2
14837KMSN MSN20010726234009207/26/01 23:40:31  5-MIN KMSN 270540Z 04003KT 10SM CLR 13/10 A3025 560 80 500 040/03 RMK AO2
14837KMSN MSN20010726234509207/26/01 23:45:31  5-MIN KMSN 270545Z 00000KT 10SM CLR 13/10 A3025 560 80 500 000/00 RMK AO2
14837KMSN MSN20010726235013707/26/01 23:50:31  5-MIN KMSN 270550Z 00000KT 10SM CLR 13/10 A3026 550 83 500 000/00 RMK AO2 SLP246 T01280100 10228 20128 402560128 53010
14837KMSN MSN20010726235509207/26/01 23:55:31  5-MIN KMSN 270555Z 00000KT 10SM CLR 13/10 A3026 550 83 500 000/00 RMK AO2
14837KMSN MSN20010727000009207/27/01 00:00:31  5-MIN KMSN 270600Z VRB03KT 10SM CLR 13/10 A3026 550 83 500 VRB/03 RMK AO2
14837KMSN MSN20010727000509207/27/01 00:05:31  5-MIN KMSN 270605Z 36003KT 10SM CLR 13/10 A3026 550 83 500 360/03 RMK AO2
14837KMSN MSN20010727001009207/27/01 00:10:31  5-MIN KMSN 270610Z 01003KT 10SM CLR 13/10 A3026 550 80 500 010/03 RMK AO2
14837KMSN MSN20010727001509207/27/01 00:15:31  5-MIN KMSN 270615Z 03004KT 10SM CLR 13/10 A3026 560 80 500 030/04 RMK AO2
14837KMSN MSN20010727002009207/27/01 00:20:31  5-MIN KMSN 270620Z 01003KT 10SM CLR 13/10 A3026 550 80 500 010/03 RMK AO2
14837KMSN MSN20010727002509207/27/01 00:25:31  5-MIN KMSN 270625Z 36003KT 10SM CLR 13/10 A3026 560 80 500 360/03 RMK AO2
14837KMSN MSN20010727003009207/27/01 00:30:31  5-MIN KMSN 270630Z 34003KT 10SM CLR 12/10 A3026 550 86 400 340/03 RMK AO2
14837KMSN MSN20010727003509207/27/01 00:35:31  5-MIN KMSN 270635Z 32003KT 10SM CLR 12/10 A3026 550 89 300 320/03 RMK AO2
14837KMSN MSN20010727004009207/27/01 00:40:31  5-MIN KMSN 270640Z 00000KT 10SM CLR 12/10 A3026 550 86 400 000/00 RMK AO2
14837KMSN MSN20010727004509207/27/01 00:45:31  5-MIN KMSN 270645Z 30003KT 10SM CLR 12/10 A3026 550 89 300 300/03 RMK AO2
14837KMSN MSN20010727005010907/27/01 00:50:31  5-MIN KMSN 270650Z 30003KT 10SM CLR 12/10 A3026 550 89 300 300/03 RMK AO2 SLP245 T01170100
14837KMSN MSN20010727005509207/27/01 00:55:31  5-MIN KMSN 270655Z 30003KT 10SM CLR 12/10 A3026 550 89 300 300/03 RMK AO2
14837KMSN MSN20010727010009207/27/01 01:00:31  5-MIN KMSN 270700Z 31004KT 10SM CLR 12/10 A3026 550 89 300 310/04 RMK AO2
14837KMSN MSN20010727010509207/27/01 01:05:31  5-MIN KMSN 270705Z 31003KT 10SM CLR 12/10 A3026 550 86 400 310/03 RMK AO2
14837KMSN MSN20010727011009207/27/01 01:10:31  5-MIN KMSN 270710Z 32003KT 10SM CLR 12/10 A3026 550 86 400 320/03 RMK AO2
14837KMSN MSN20010727011509207/27/01 01:15:31  5-MIN KMSN 270715Z 33003KT 10SM CLR 12/10 A3026 550 89 300 330/03 RMK AO2
14837KMSN MSN20010727012009207/27/01 01:20:31  5-MIN KMSN 270720Z 33003KT 10SM CLR 12/11 A3026 550 93 300 330/03 RMK AO2
14837KMSN MSN20010727012509207/27/01 01:25:31  5-MIN KMSN 270725Z 33003KT 10SM CLR 12/10 A3026 560 89 300 330/03 RMK AO2
14837KMSN MSN20010727013009207/27/01 01:30:31  5-MIN KMSN 270730Z 34003KT 10SM CLR 12/11 A3025 560 93 300 340/03 RMK AO2
14837KMSN MSN20010727013509507/27/01 01:35:31  5-MIN KMSN 270735Z 00000KT 10SM FEW050 12/11 A3026 550 93 300 000/00 RMK AO2
14837KMSN MSN20010727014009507/27/01 01:40:31  5-MIN KMSN 270740Z 33003KT 10SM FEW050 12/11 A3026 550 93 300 330/03 RMK AO2
14837KMSN MSN20010727014509507/27/01 01:45:31  5-MIN KMSN 270745Z 34003KT 10SM FEW050 12/11 A3026 550 93 300 340/03 RMK AO2
14837KMSN MSN20010727015011207/27/01 01:50:31  5-MIN KMSN 270750Z 33003KT 10SM FEW050 12/11 A3026 560 93 300 330/03 RMK AO2 SLP244 T01170106
14837KMSN MSN20010727015509507/27/01 01:55:31  5-MIN KMSN 270755Z 35003KT 10SM FEW050 12/11 A3025 560 89 400 350/03 RMK AO2
14837KMSN MSN20010727020009507/27/01 02:00:31  5-MIN KMSN 270800Z 35003KT 10SM FEW050 12/11 A3025 560 89 400 350/03 RMK AO2
14837KMSN MSN20010727020509507/27/01 02:05:31  5-MIN KMSN 270805Z 34003KT 10SM FEW050 12/11 A3026 560 89 400 340/03 RMK AO2
14837KMSN MSN20010727021009507/27/01 02:10:31  5-MIN KMSN 270810Z 33003KT 10SM FEW050 12/11 A3026 550 93 300 330/03 RMK AO2
14837KMSN MSN20010727021509207/27/01 02:15:31  5-MIN KMSN 270815Z 34003KT 10SM CLR 12/11 A3026 550 93 300 340/03 RMK AO2
14837KMSN MSN20010727022009207/27/01 02:20:31  5-MIN KMSN 270820Z 00000KT 10SM CLR 12/11 A3026 560 93 300 000/00 RMK AO2
14837KMSN MSN20010727022509207/27/01 02:25:31  5-MIN KMSN 270825Z 00000KT 10SM CLR 12/11 A3025 560 93 300 000/00 RMK AO2
14837KMSN MSN20010727023009207/27/01 02:30:31  5-MIN KMSN 270830Z 00000KT 10SM CLR 12/11 A3025 560 93 300 000/00 RMK AO2
14837KMSN MSN20010727023509207/27/01 02:35:31  5-MIN KMSN 270835Z 00000KT 10SM CLR 11/11 A3025 560 96 300 000/00 RMK AO2
14837KMSN MSN20010727024009507/27/01 02:40:31  5-MIN KMSN 270840Z 00000KT 10SM FEW050 11/10 A3025 560 93 300 000/00 RMK AO2
14837KMSN MSN20010727024509507/27/01 02:45:31  5-MIN KMSN 270845Z 00000KT 10SM SCT050 11/11 A3025 560 96 300 000/00 RMK AO2
14837KMSN MSN20010727025011807/27/01 02:50:31  5-MIN KMSN 270850Z 00000KT 10SM BKN050 12/11 A3025 560 93 300 000/00 RMK AO2 SLP243 T01170106 51011
14837KMSN MSN20010727025509507/27/01 02:55:31  5-MIN KMSN 270855Z 00000KT 10SM BKN050 12/11 A3025 560 93 300 000/00 RMK AO2
14837KMSN MSN20010727030009507/27/01 03:00:31  5-MIN KMSN 270900Z 00000KT 10SM BKN050 12/11 A3026 550 96 300 000/00 RMK AO2
14837KMSN MSN20010727030509507/27/01 03:05:31  5-MIN KMSN 270905Z 33003KT 10SM BKN050 12/11 A3026 550 96 300 330/03 RMK AO2
14837KMSN MSN20010727031009507/27/01 03:10:31  5-MIN KMSN 270910Z 00000KT 10SM BKN050 12/11 A3026 550 93 300 000/00 RMK AO2
14837KMSN MSN20010727031509507/27/01 03:15:31  5-MIN KMSN 270915Z 00000KT 10SM BKN050 12/11 A3026 550 89 400 000/00 RMK AO2
14837KMSN MSN20010727032009507/27/01 03:20:31  5-MIN KMSN 270920Z 00000KT 10SM BKN055 12/11 A3026 550 89 400 000/00 RMK AO2
14837KMSN MSN20010727032509507/27/01 03:25:31  5-MIN KMSN 270925Z 36003KT 10SM SCT050 12/11 A3026 550 93 300 360/03 RMK AO2
14837KMSN MSN20010727033009507/27/01 03:30:31  5-MIN KMSN 270930Z 01004KT 10SM BKN050 12/11 A3026 550 89 400 010/04 RMK AO2
14837KMSN MSN20010727033509507/27/01 03:35:31  5-MIN KMSN 270935Z 36004KT 10SM BKN050 12/11 A3026 550 93 300 360/04 RMK AO2
14837KMSN MSN20010727034009507/27/01 03:40:31  5-MIN KMSN 270940Z 35003KT 10SM BKN055 12/11 A3026 550 93 300 350/03 RMK AO2
14837KMSN MSN20010727034509507/27/01 03:45:31  5-MIN KMSN 270945Z 01003KT 10SM BKN055 12/11 A3026 550 93 300 360/03 RMK AO2
14837KMSN MSN20010727035011207/27/01 03:50:31  5-MIN KMSN 270950Z 01005KT 10SM SCT055 12/11 A3026 550 93 300 010/05 RMK AO2 SLP245 T01170106
14837KMSN MSN20010727035509507/27/01 03:55:31  5-MIN KMSN 270955Z 01004KT 10SM BKN055 12/11 A3026 550 93 300 010/04 RMK AO2
14837KMSN MSN20010727040009507/27/01 04:00:31  5-MIN KMSN 271000Z 36005KT 10SM SCT055 12/11 A3026 550 89 400 360/05 RMK AO2
14837KMSN MSN20010727040509507/27/01 04:05:31  5-MIN KMSN 271005Z 36004KT 10SM SCT055 12/11 A3026 550 93 300 360/04 RMK AO2
14837KMSN MSN20010727041009507/27/01 04:10:31  5-MIN KMSN 271010Z 36004KT 10SM SCT055 12/11 A3026 550 89 400 360/04 RMK AO2
14837KMSN MSN20010727041509507/27/01 04:15:31  5-MIN KMSN 271015Z 01004KT 10SM SCT055 12/11 A3026 550 93 300 360/04 RMK AO2
14837KMSN MSN20010727042009507/27/01 04:20:31  5-MIN KMSN 271020Z 01005KT 10SM SCT055 12/11 A3026 550 93 300 360/05 RMK AO2
14837KMSN MSN20010727042509507/27/01 04:25:31  5-MIN KMSN 271025Z 01004KT 10SM SCT055 12/11 A3026 550 93 300 010/04 RMK AO2
14837KMSN MSN20010727043009507/27/01 04:30:31  5-MIN KMSN 271030Z 36003KT 10SM SCT055 12/11 A3026 550 93 300 360/03 RMK AO2
14837KMSN MSN20010727043509507/27/01 04:35:31  5-MIN KMSN 271035Z 01004KT 10SM SCT055 12/11 A3026 550 93 300 010/04 RMK AO2
14837KMSN MSN20010727044009507/27/01 04:40:31  5-MIN KMSN 271040Z 02004KT 10SM FEW055 12/11 A3026 550 93 300 020/04 RMK AO2
14837KMSN MSN20010727044509507/27/01 04:45:31  5-MIN KMSN 271045Z 02005KT 10SM FEW055 12/11 A3026 550 93 300 020/05 RMK AO2
14837KMSN MSN20010727045011207/27/01 04:50:31  5-MIN KMSN 271050Z 01005KT 10SM FEW055 12/11 A3026 550 93 300 010/05 RMK AO2 SLP245 T01170106
14837KMSN MSN20010727045509507/27/01 04:55:31  5-MIN KMSN 271055Z 02004KT 10SM FEW055 12/11 A3026 550 93 300 020/04 RMK AO2
14837KMSN MSN20010727050009507/27/01 05:00:31  5-MIN KMSN 271100Z 02004KT 10SM FEW055 12/11 A3026 550 93 300 010/04 RMK AO2
14837KMSN MSN20010727050509207/27/01 05:05:31  5-MIN KMSN 271105Z 02003KT 10SM CLR 12/11 A3026 560 93 300 020/03 RMK AO2
14837KMSN MSN20010727051009507/27/01 05:10:31  5-MIN KMSN 271110Z 02003KT 10SM FEW055 12/11 A3026 550 89 400 020/03 RMK AO2
14837KMSN MSN20010727051509507/27/01 05:15:31  5-MIN KMSN 271115Z VRB03KT 10SM FEW055 12/11 A3026 560 93 300 VRB/03 RMK AO2
14837KMSN MSN20010727052009507/27/01 05:20:31  5-MIN KMSN 271120Z 03003KT 10SM FEW055 12/11 A3026 550 93 400 030/03 RMK AO2
14837KMSN MSN20010727052509507/27/01 05:25:31  5-MIN KMSN 271125Z 03003KT 10SM FEW090 12/11 A3026 550 93 400 020/03 RMK AO2
14837KMSN MSN20010727053009507/27/01 05:30:31  5-MIN KMSN 271130Z 00000KT 10SM FEW090 13/11 A3026 550 89 500 000/00 RMK AO2
14837KMSN MSN20010727053509507/27/01 05:35:31  5-MIN KMSN 271135Z 00000KT 10SM FEW090 13/12 A3026 550 93 500 000/00 RMK AO2
14837KMSN MSN20010727054009207/27/01 05:40:31  5-MIN KMSN 271140Z 07003KT 10SM CLR 13/12 A3026 550 89 500 070/03 RMK AO2
14837KMSN MSN20010727054509207/27/01 05:45:31  5-MIN KMSN 271145Z VRB04KT 10SM CLR 14/12 A3027 550 86 600 VRB/04 RMK AO2
14837KMSN MSN20010727055013007/27/01 05:50:31  5-MIN KMSN 271150Z 06004KT 10SM FEW090 14/12 A3027 540 86 600 060/04 RMK AO2 SLP248 T01440122 10144 20111 58002
14837KMSN MSN20010727055509507/27/01 05:55:31  5-MIN KMSN 271155Z 07003KT 10SM FEW100 15/12 A3027 550 83 700 070/03 RMK AO2
14837KMSN MSN20010727060009507/27/01 06:00:31  5-MIN KMSN 271200Z 10004KT 10SM FEW100 15/13 A3026 550 86 700 100/04 RMK AO2
14837KMSN MSN20010727060509507/27/01 06:05:31  5-MIN KMSN 271205Z 11005KT 10SM FEW100 15/13 A3026 550 86 700 100/05 RMK AO2
14837KMSN MSN20010727061009507/27/01 06:10:31  5-MIN KMSN 271210Z 11008KT 10SM FEW100 16/12 A3026 550 80 800 110/08 RMK AO2
14837KMSN MSN20010727061509207/27/01 06:15:31  5-MIN KMSN 271215Z 11007KT 10SM CLR 16/13 A3026 550 83 800 110/07 RMK AO2
14837KMSN MSN20010727062009207/27/01 06:20:31  5-MIN KMSN 271220Z 11007KT 10SM CLR 16/13 A3027 550 83 800 100/07 RMK AO2
14837KMSN MSN20010727062509207/27/01 06:25:31  5-MIN KMSN 271225Z 10006KT 10SM CLR 16/13 A3027 540 80 800 100/06 RMK AO2
14837KMSN MSN20010727063009207/27/01 06:30:31  5-MIN KMSN 271230Z 10004KT 10SM CLR 16/13 A3027 550 80 800 100/04 RMK AO2
14837KMSN MSN20010727063509207/27/01 06:35:31  5-MIN KMSN 271235Z 10006KT 10SM CLR 17/13 A3027 540 77 900 090/06 RMK AO2
14837KMSN MSN20010727064009207/27/01 06:40:31  5-MIN KMSN 271240Z 10006KT 10SM CLR 17/13 A3027 550 80 900 100/06 RMK AO2
14837KMSN MSN20010727064509307/27/01 06:45:31  5-MIN KMSN 271245Z 10008KT 10SM CLR 17/13 A3026 550 78 1000 100/08 RMK AO2
14837KMSN MSN20010727065011007/27/01 06:50:31  5-MIN KMSN 271250Z 11007KT 10SM CLR 17/13 A3026 550 78 1000 110/07 RMK AO2 SLP246 T01720133
14837KMSN MSN20010727065509307/27/01 06:55:31  5-MIN KMSN 271255Z 11010KT 10SM CLR 17/13 A3026 550 78 1000 110/10 RMK AO2
14837KMSN MSN20010727070009307/27/01 07:00:31  5-MIN KMSN 271300Z 11009KT 10SM CLR 17/13 A3027 550 78 1000 110/09 RMK AO2
14837KMSN MSN20010727070509607/27/01 07:05:31  5-MIN KMSN 271305Z 11010KT 10SM FEW050 18/13 A3026 550 75 1000 110/10 RMK AO2
14837KMSN MSN20010727071009607/27/01 07:10:31  5-MIN KMSN 271310Z 11011KT 10SM FEW050 18/13 A3026 550 75 1000 110/11 RMK AO2
14837KMSN MSN20010727071510207/27/01 07:15:31  5-MIN KMSN 271315Z 11011G16KT 10SM FEW050 18/13 A3026 550 75 1000 110/11G16 RMK AO2
14837KMSN MSN20010727072009607/27/01 07:20:31  5-MIN KMSN 271320Z 11011KT 10SM FEW050 18/14 A3026 550 75 1100 110/11 RMK AO2
14837KMSN MSN20010727072509307/27/01 07:25:31  5-MIN KMSN 271325Z 11010KT 10SM CLR 18/13 A3026 550 72 1100 110/10 RMK AO2
14837KMSN MSN20010727073009307/27/01 07:30:31  5-MIN KMSN 271330Z 12012KT 10SM CLR 18/14 A3026 550 75 1100 120/12 RMK AO2
14837KMSN MSN20010727073509307/27/01 07:35:31  5-MIN KMSN 271335Z 12009KT 10SM CLR 18/14 A3026 550 75 1100 120/09 RMK AO2
14837KMSN MSN20010727074009307/27/01 07:40:31  5-MIN KMSN 271340Z 11009KT 10SM CLR 19/14 A3026 550 75 1200 110/09 RMK AO2
14837KMSN MSN20010727074509307/27/01 07:45:31  5-MIN KMSN 271345Z 11010KT 10SM CLR 19/14 A3026 550 72 1200 110/10 RMK AO2
14837KMSN MSN20010727075011007/27/01 07:50:31  5-MIN KMSN 271350Z 11010KT 10SM CLR 19/14 A3026 550 75 1200 110/10 RMK AO2 SLP246 T01890144
14837KMSN MSN20010727075509307/27/01 07:55:31  5-MIN KMSN 271355Z 13010KT 10SM CLR 19/14 A3026 550 72 1200 130/10 RMK AO2
14837KMSN MSN20010727080009307/27/01 08:00:31  5-MIN KMSN 271400Z 13010KT 10SM CLR 20/14 A3026 550 70 1300 130/10 RMK AO2
14837KMSN MSN20010727080509307/27/01 08:05:31  5-MIN KMSN 271405Z 13009KT 10SM CLR 20/15 A3027 550 72 1300 130/09 RMK AO2
14837KMSN MSN20010727081009307/27/01 08:10:31  5-MIN KMSN 271410Z 12010KT 10SM CLR 20/14 A3027 550 70 1300 120/10 RMK AO2
14837KMSN MSN20010727081509307/27/01 08:15:31  5-MIN KMSN 271415Z 13009KT 10SM CLR 20/15 A3026 550 72 1300 130/09 RMK AO2
14837KMSN MSN20010727082009307/27/01 08:20:31  5-MIN KMSN 271420Z 12009KT 10SM CLR 20/14 A3026 550 70 1300 120/09 RMK AO2
14837KMSN MSN20010727082509307/27/01 08:25:31  5-MIN KMSN 271425Z 13009KT 10SM CLR 21/14 A3026 550 67 1400 130/09 RMK AO2
14837KMSN MSN20010727083009307/27/01 08:30:31  5-MIN KMSN 271430Z 13010KT 10SM CLR 21/15 A3026 550 70 1400 130/10 RMK AO2
14837KMSN MSN20010727083509307/27/01 08:35:31  5-MIN KMSN 271435Z 14011KT 10SM CLR 21/14 A3026 550 67 1400 140/11 RMK AO2
14837KMSN MSN20010727084009307/27/01 08:40:31  5-MIN KMSN 271440Z 14011KT 10SM CLR 21/15 A3026 550 70 1400 130/11 RMK AO2
14837KMSN MSN20010727084509307/27/01 08:45:31  5-MIN KMSN 271445Z 13012KT 10SM CLR 21/14 A3026 550 65 1400 130/12 RMK AO2
14837KMSN MSN20010727085011607/27/01 08:50:31  5-MIN KMSN 271450Z 14010KT 10SM CLR 21/15 A3026 550 68 1400 140/10 RMK AO2 SLP246 T02110150 51005
14837KMSN MSN20010727085509607/27/01 08:55:31  5-MIN KMSN 271455Z 13011KT 10SM FEW025 21/15 A3026 550 68 1400 130/11 RMK AO2
14837KMSN MSN20010727090009607/27/01 09:00:31  5-MIN KMSN 271500Z 14008KT 10SM FEW025 21/15 A3026 550 68 1400 140/08 RMK AO2
14837KMSN MSN20010727090509607/27/01 09:05:31  5-MIN KMSN 271505Z 14009KT 10SM FEW025 21/15 A3026 550 68 1400 140/09 RMK AO2
14837KMSN MSN20010727091009907/27/01 09:10:31  5-MIN KMSN 271510Z 13011G16KT 10SM CLR 22/15 A3026 560 65 1500 130/11G16 RMK AO2
14837KMSN MSN20010727091510207/27/01 09:15:31  5-MIN KMSN 271515Z 14009G16KT 10SM FEW025 22/15 A3025 560 65 1500 140/09G16 RMK AO2
14837KMSN MSN20010727092009607/27/01 09:20:31  5-MIN KMSN 271520Z 11008KT 10SM FEW025 22/15 A3025 560 65 1500 110/08 RMK AO2
14837KMSN MSN20010727092509607/27/01 09:25:31  5-MIN KMSN 271525Z 11009KT 10SM FEW025 22/15 A3025 560 65 1500 110/09 RMK AO2
14837KMSN MSN20010727093009607/27/01 09:30:31  5-MIN KMSN 271530Z 12009KT 10SM FEW025 22/15 A3025 560 65 1500 120/09 RMK AO2
14837KMSN MSN20010727093509607/27/01 09:35:31  5-MIN KMSN 271535Z 14009KT 10SM FEW025 22/15 A3025 560 65 1500 140/09 RMK AO2
14837KMSN MSN20010727094009607/27/01 09:40:31  5-MIN KMSN 271540Z 12007KT 10SM FEW025 22/16 A3025 560 65 1600 120/07 RMK AO2
14837KMSN MSN20010727094509607/27/01 09:45:31  5-MIN KMSN 271545Z 12009KT 10SM FEW025 22/16 A3025 560 65 1600 110/09 RMK AO2
14837KMSN MSN20010727095011307/27/01 09:50:31  5-MIN KMSN 271550Z 11008KT 10SM FEW025 22/16 A3025 560 65 1600 110/08 RMK AO2 SLP242 T02220156
14837KMSN MSN20010727095509307/27/01 09:55:31  5-MIN KMSN 271555Z 12009KT 10SM CLR 23/16 A3025 560 63 1600 120/09 RMK AO2
14837KMSN MSN20010727100009607/27/01 10:00:31  5-MIN KMSN 271600Z 12010KT 10SM FEW033 23/16 A3025 560 63 1600 120/10 RMK AO2
14837KMSN MSN20010727100510207/27/01 10:05:31  5-MIN KMSN 271605Z 11010G15KT 10SM FEW033 22/15 A3025 560 63 1600 110/10G15 RMK AO2
14837KMSN MSN20010727101009607/27/01 10:10:31  5-MIN KMSN 271610Z 11012KT 10SM SCT033 23/15 A3025 560 61 1600 110/12 RMK AO2
14837KMSN MSN20010727101509607/27/01 10:15:31  5-MIN KMSN 271615Z 12013KT 10SM SCT033 23/15 A3025 560 61 1600 120/13 RMK AO2
14837KMSN MSN20010727102009607/27/01 10:20:31  5-MIN KMSN 271620Z 13012KT 10SM FEW033 23/15 A3025 560 61 1600 130/12 RMK AO2
14837KMSN MSN20010727102509607/27/01 10:25:31  5-MIN KMSN 271625Z 14012KT 10SM FEW033 23/14 A3025 560 59 1600 140/12 RMK AO2
14837KMSN MSN20010727103009607/27/01 10:30:31  5-MIN KMSN 271630Z 15012KT 10SM SCT033 23/15 A3024 570 59 1700 150/12 RMK AO2
14837KMSN MSN20010727103509607/27/01 10:35:31  5-MIN KMSN 271635Z 14011KT 10SM SCT033 23/14 A3024 570 57 1700 140/11 RMK AO2
14837KMSN MSN20010727104009607/27/01 10:40:31  5-MIN KMSN 271640Z 13011KT 10SM SCT033 23/15 A3024 570 59 1700 130/11 RMK AO2
14837KMSN MSN20010727104510207/27/01 10:45:31  5-MIN KMSN 271645Z 13012G16KT 10SM SCT033 23/15 A3024 570 59 1700 120/12G16 RMK AO2
14837KMSN MSN20010727105011307/27/01 10:50:31  5-MIN KMSN 271650Z 14013KT 10SM SCT033 24/15 A3024 570 57 1800 140/13 RMK AO2 SLP238 T02390150
14837KMSN MSN20010727105510307/27/01 10:55:31  5-MIN KMSN 271655Z 12011KT 10SM FEW038 SCT055 23/14 A3024 570 57 1700 120/11 RMK AO2
14837KMSN MSN20010727110010307/27/01 11:00:31  5-MIN KMSN 271700Z 14011KT 10SM FEW038 BKN055 23/14 A3024 570 57 1700 140/11 RMK AO2
14837KMSN MSN20010727110510307/27/01 11:05:31  5-MIN KMSN 271705Z 15009KT 10SM FEW038 BKN055 23/14 A3024 570 57 1700 150/09 RMK AO2
14837KMSN MSN20010727111010307/27/01 11:10:31  5-MIN KMSN 271710Z 12009KT 10SM FEW038 SCT055 24/15 A3024 570 57 1800 120/09 RMK AO2
14837KMSN MSN20010727111510307/27/01 11:15:31  5-MIN KMSN 271715Z 11011KT 10SM FEW038 SCT055 23/14 A3023 580 57 1700 110/11 RMK AO2
14837KMSN MSN20010727112010307/27/01 11:20:31  5-MIN KMSN 271720Z 12009KT 10SM FEW038 SCT055 24/15 A3023 580 57 1800 120/09 RMK AO2
14837KMSN MSN20010727112510907/27/01 11:25:31  5-MIN KMSN 271725Z 12010G16KT 10SM FEW038 SCT055 24/15 A3023 580 55 1800 120/10G16 RMK AO2
14837KMSN MSN20010727113010907/27/01 11:30:31  5-MIN KMSN 271730Z 13011G16KT 10SM FEW041 SCT055 23/14 A3023 580 57 1700 130/11G16 RMK AO2
14837KMSN MSN20010727113510307/27/01 11:35:31  5-MIN KMSN 271735Z 12011KT 10SM FEW041 SCT050 23/14 A3022 590 55 1700 120/11 RMK AO2
14837KMSN MSN20010727114010307/27/01 11:40:31  5-MIN KMSN 271740Z 11010KT 10SM FEW043 SCT050 23/14 A3022 590 57 1700 110/10 RMK AO2
14837KMSN MSN20010727114509607/27/01 11:45:31  5-MIN KMSN 271745Z 11011KT 10SM FEW043 24/14 A3022 590 53 1800 110/11 RMK AO2
14837KMSN MSN20010727115013107/27/01 11:50:31  5-MIN KMSN 271750Z 11012KT 10SM SCT045 24/14 A3022 590 53 1900 110/12 RMK AO2 SLP232 T02440144 10244 20150 58002
14837KMSN MSN20010727115509607/27/01 11:55:31  5-MIN KMSN 271755Z 11008KT 10SM FEW043 24/14 A3022 590 51 1900 110/08 RMK AO2
14837KMSN MSN20010727120009607/27/01 12:00:31  5-MIN KMSN 271800Z 09011KT 10SM FEW045 24/14 A3022 590 53 1900 090/11 RMK AO2
14837KMSN MSN20010727120509607/27/01 12:05:31  5-MIN KMSN 271805Z 11013KT 10SM SCT045 23/14 A3021 600 57 1700 110/13 RMK AO2
14837KMSN MSN20010727121009607/27/01 12:10:31  5-MIN KMSN 271810Z 13008KT 10SM SCT045 23/14 A3021 600 55 1700 130/08 RMK AO2
14837KMSN MSN20010727121509607/27/01 12:15:31  5-MIN KMSN 271815Z 09012KT 10SM FEW045 24/14 A3021 600 53 1900 090/12 RMK AO2
14837KMSN MSN20010727122009607/27/01 12:20:31  5-MIN KMSN 271820Z 12012KT 10SM FEW045 24/14 A3021 600 53 1900 120/12 RMK AO2
14837KMSN MSN20010727122509607/27/01 12:25:31  5-MIN KMSN 271825Z 11009KT 10SM FEW045 24/14 A3021 600 51 1900 110/09 RMK AO2
14837KMSN MSN20010727123009607/27/01 12:30:31  5-MIN KMSN 271830Z 11011KT 10SM FEW045 24/14 A3021 600 51 1900 110/11 RMK AO2
14837KMSN MSN20010727123509607/27/01 12:35:31  5-MIN KMSN 271835Z 10011KT 10SM SCT047 24/14 A3021 600 53 1800 100/11 RMK AO2
14837KMSN MSN20010727124009607/27/01 12:40:31  5-MIN KMSN 271840Z 13010KT 10SM SCT049 24/14 A3021 600 51 1900 130/10 RMK AO2
14837KMSN MSN20010727124509607/27/01 12:45:31  5-MIN KMSN 271845Z 12009KT 10SM BKN049 24/14 A3020 600 51 1900 120/09 RMK AO2
14837KMSN MSN20010727125011307/27/01 12:50:31  5-MIN KMSN 271850Z 15009KT 10SM BKN049 24/13 A3020 600 49 1900 140/09 RMK AO2 SLP226 T02440133
14837KMSN MSN20010727125511807/27/01 12:55:31  5-MIN KMSN 271855Z 14007G15KT 080V180 10SM BKN049 26/14 A3020 610 49 2000 130/07G15 080V180 RMK AO2
14837KMSN MSN20010727130009607/27/01 13:00:31  5-MIN KMSN 271900Z 14011KT 10SM SCT049 25/14 A3020 610 49 1900 140/11 RMK AO2
14837KMSN MSN20010727130511207/27/01 13:05:31  5-MIN KMSN 271905Z 13008KT 100V170 10SM SCT049 24/13 A3020 610 51 1800 130/08 100V170 RMK AO2
14837KMSN MSN20010727131009607/27/01 13:10:31  5-MIN KMSN 271910Z 13010KT 10SM SCT049 24/13 A3020 610 49 1900 130/10 RMK AO2
14837KMSN MSN20010727131509607/27/01 13:15:31  5-MIN KMSN 271915Z 13008KT 10SM SCT049 24/13 A3020 610 47 1900 130/08 RMK AO2
14837KMSN MSN20010727132009607/27/01 13:20:31  5-MIN KMSN 271920Z 13007KT 10SM FEW049 24/13 A3020 610 49 1900 130/07 RMK AO2
14837KMSN MSN20010727132509607/27/01 13:25:31  5-MIN KMSN 271925Z 14008KT 10SM SCT055 24/13 A3020 610 51 1800 140/08 RMK AO2
14837KMSN MSN20010727133009607/27/01 13:30:31  5-MIN KMSN 271930Z 14008KT 10SM SCT055 24/13 A3020 610 51 1800 140/08 RMK AO2
14837KMSN MSN20010727133509607/27/01 13:35:31  5-MIN KMSN 271935Z 12010KT 10SM BKN050 25/14 A3020 610 49 1900 120/10 RMK AO2
14837KMSN MSN20010727134009607/27/01 13:40:31  5-MIN KMSN 271940Z 10010KT 10SM SCT050 24/13 A3020 610 49 1800 100/10 RMK AO2
14837KMSN MSN20010727134509607/27/01 13:45:31  5-MIN KMSN 271945Z 10009KT 10SM SCT050 24/13 A3020 610 49 1800 090/09 RMK AO2
14837KMSN MSN20010727135011307/27/01 13:50:31  5-MIN KMSN 271950Z 10010KT 10SM SCT050 24/13 A3019 610 51 1800 100/10 RMK AO2 SLP223 T02390133
14837KMSN MSN20010727135509607/27/01 13:55:31  5-MIN KMSN 271955Z 10010KT 10SM BKN050 24/13 A3019 610 49 1800 100/10 RMK AO2
14837KMSN MSN20010727140009607/27/01 14:00:31  5-MIN KMSN 272000Z 10009KT 10SM SCT050 23/12 A3019 620 49 1800 100/09 RMK AO2
14837KMSN MSN20010727140509607/27/01 14:05:31  5-MIN KMSN 272005Z 11007KT 10SM SCT050 24/13 A3019 620 49 1800 110/07 RMK AO2
14837KMSN MSN20010727141009607/27/01 14:10:31  5-MIN KMSN 272010Z 13008KT 10SM SCT050 24/13 A3019 620 49 1900 130/08 RMK AO2
14837KMSN MSN20010727141509607/27/01 14:15:31  5-MIN KMSN 272015Z 13004KT 10SM SCT050 24/13 A3018 620 47 1900 130/04 RMK AO2
14837KMSN MSN20010727142009607/27/01 14:20:31  5-MIN KMSN 272020Z 12011KT 10SM SCT050 25/14 A3018 630 49 2000 110/11 RMK AO2
14837KMSN MSN20010727142511207/27/01 14:25:31  5-MIN KMSN 272025Z 11008KT 070V140 10SM SCT050 25/13 A3018 630 48 2000 110/08 070V140 RMK AO2
14837KMSN MSN20010727143009607/27/01 14:30:31  5-MIN KMSN 272030Z 10008KT 10SM SCT050 25/13 A3017 630 46 2000 100/08 RMK AO2
14837KMSN MSN20010727143509607/27/01 14:35:31  5-MIN KMSN 272035Z 14010KT 10SM SCT050 25/13 A3017 630 46 2000 140/10 RMK AO2
14837KMSN MSN20010727144009607/27/01 14:40:31  5-MIN KMSN 272040Z 13008KT 10SM SCT050 25/13 A3017 640 46 2000 130/08 RMK AO2
14837KMSN MSN20010727144509607/27/01 14:45:31  5-MIN KMSN 272045Z 12011KT 10SM SCT050 25/13 A3017 640 46 2000 120/11 RMK AO2
14837KMSN MSN20010727145011907/27/01 14:50:31  5-MIN KMSN 272050Z 11008KT 10SM FEW055 25/12 A3017 640 44 2000 110/08 RMK AO2 SLP214 T02500122 58014
14837KMSN MSN20010727145509607/27/01 14:55:31  5-MIN KMSN 272055Z 11008KT 10SM FEW055 24/12 A3017 640 46 1900 110/08 RMK AO2
14837KMSN MSN20010727150009307/27/01 15:00:31  5-MIN KMSN 272100Z 10009KT 10SM CLR 25/12 A3017 640 44 2000 100/09 RMK AO2
14837KMSN MSN20010727150509307/27/01 15:05:31  5-MIN KMSN 272105Z 11009KT 10SM CLR 25/12 A3017 640 44 2000 110/09 RMK AO2
14837KMSN MSN20010727151009607/27/01 15:10:31  5-MIN KMSN 272110Z 12012KT 10SM FEW055 25/12 A3016 640 44 2000 110/12 RMK AO2
14837KMSN MSN20010727151509607/27/01 15:15:31  5-MIN KMSN 272115Z 10011KT 10SM FEW055 25/12 A3016 640 43 2000 100/11 RMK AO2
14837KMSN MSN20010727152009607/27/01 15:20:31  5-MIN KMSN 272120Z 11008KT 10SM FEW055 25/12 A3016 640 44 2000 100/08 RMK AO2
14837KMSN MSN20010727152509607/27/01 15:25:31  5-MIN KMSN 272125Z 11010KT 10SM FEW055 25/12 A3016 650 43 2000 100/10 RMK AO2
14837KMSN MSN20010727153009307/27/01 15:30:31  5-MIN KMSN 272130Z 11010KT 10SM CLR 25/12 A3016 650 44 2000 110/10 RMK AO2
14837KMSN MSN20010727153509307/27/01 15:35:31  5-MIN KMSN 272135Z 11010KT 10SM CLR 24/12 A3016 640 44 1900 110/10 RMK AO2
14837KMSN MSN20010727154009307/27/01 15:40:31  5-MIN KMSN 272140Z 09009KT 10SM CLR 25/12 A3016 640 44 2000 090/09 RMK AO2
14837KMSN MSN20010727154509307/27/01 15:45:31  5-MIN KMSN 272145Z 10010KT 10SM CLR 25/12 A3016 650 44 2000 100/10 RMK AO2
14837KMSN MSN20010727155011007/27/01 15:50:31  5-MIN KMSN 272150Z 11011KT 10SM CLR 25/12 A3015 650 44 2000 110/11 RMK AO2 SLP209 T02500122
14837KMSN MSN20010727155509307/27/01 15:55:31  5-MIN KMSN 272155Z 12009KT 10SM CLR 24/12 A3015 650 44 1900 120/09 RMK AO2
14837KMSN MSN20010727160009307/27/01 16:00:31  5-MIN KMSN 272200Z 11011KT 10SM CLR 24/12 A3015 650 46 1900 110/11 RMK AO2
14837KMSN MSN20010727160509307/27/01 16:05:31  5-MIN KMSN 272205Z 11011KT 10SM CLR 24/12 A3015 650 44 1900 110/11 RMK AO2
14837KMSN MSN20010727161009307/27/01 16:10:31  5-MIN KMSN 272210Z 09009KT 10SM CLR 24/12 A3015 650 46 1900 090/09 RMK AO2
14837KMSN MSN20010727161509307/27/01 16:15:31  5-MIN KMSN 272215Z 09011KT 10SM CLR 25/12 A3015 650 44 2000 090/11 RMK AO2
14837KMSN MSN20010727162009307/27/01 16:20:31  5-MIN KMSN 272220Z 10010KT 10SM CLR 25/12 A3015 650 44 2000 100/10 RMK AO2
14837KMSN MSN20010727162509307/27/01 16:25:31  5-MIN KMSN 272225Z 09007KT 10SM CLR 24/12 A3015 660 46 1900 090/07 RMK AO2
14837KMSN MSN20010727163009307/27/01 16:30:31  5-MIN KMSN 272230Z 11010KT 10SM CLR 24/12 A3015 660 46 1900 110/10 RMK AO2
14837KMSN MSN20010727163509307/27/01 16:35:31  5-MIN KMSN 272235Z 11008KT 10SM CLR 24/12 A3015 660 46 1900 110/08 RMK AO2
14837KMSN MSN20010727164009307/27/01 16:40:31  5-MIN KMSN 272240Z 11009KT 10SM CLR 25/13 A3014 660 46 2000 110/09 RMK AO2
14837KMSN MSN20010727164509307/27/01 16:45:31  5-MIN KMSN 272245Z 12011KT 10SM CLR 24/13 A3014 660 47 1900 120/11 RMK AO2
14837KMSN MSN20010727165011007/27/01 16:50:31  5-MIN KMSN 272250Z 12011KT 10SM CLR 24/13 A3014 660 47 1900 120/11 RMK AO2 SLP205 T02440128
14837KMSN MSN20010727165509307/27/01 16:55:31  5-MIN KMSN 272255Z 09010KT 10SM CLR 24/13 A3014 660 47 1900 090/10 RMK AO2
14837KMSN MSN20010727170009307/27/01 17:00:31  5-MIN KMSN 272300Z 08010KT 10SM CLR 24/13 A3014 670 47 2000 080/10 RMK AO2
14837KMSN MSN20010727170509307/27/01 17:05:31  5-MIN KMSN 272305Z 10010KT 10SM CLR 24/12 A3014 660 46 1900 100/10 RMK AO2
14837KMSN MSN20010727171009307/27/01 17:10:31  5-MIN KMSN 272310Z 13009KT 10SM CLR 24/13 A3014 660 47 1900 130/09 RMK AO2
14837KMSN MSN20010727171509307/27/01 17:15:31  5-MIN KMSN 272315Z 11007KT 10SM CLR 24/13 A3014 660 49 1900 100/07 RMK AO2
14837KMSN MSN20010727172009307/27/01 17:20:31  5-MIN KMSN 272320Z 10008KT 10SM CLR 24/13 A3014 660 49 1900 100/08 RMK AO2
14837KMSN MSN20010727172509307/27/01 17:25:31  5-MIN KMSN 272325Z 11010KT 10SM CLR 24/13 A3014 670 49 1900 110/10 RMK AO2
14837KMSN MSN20010727173009307/27/01 17:30:31  5-MIN KMSN 272330Z 11008KT 10SM CLR 24/13 A3014 660 49 1900 110/08 RMK AO2
14837KMSN MSN20010727173509307/27/01 17:35:31  5-MIN KMSN 272335Z 12009KT 10SM CLR 23/13 A3014 660 53 1800 120/09 RMK AO2
14837KMSN MSN20010727174009307/27/01 17:40:31  5-MIN KMSN 272340Z 12008KT 10SM CLR 23/13 A3013 670 55 1800 120/08 RMK AO2
14837KMSN MSN20010727174509307/27/01 17:45:31  5-MIN KMSN 272345Z 11011KT 10SM CLR 23/13 A3013 670 53 1800 110/11 RMK AO2
14837KMSN MSN20010727175012807/27/01 17:50:31  5-MIN KMSN 272350Z 11010KT 10SM CLR 23/13 A3013 670 53 1800 110/10 RMK AO2 SLP201 T02330133 10256 20228 58017
14837KMSN MSN20010727175509307/27/01 17:55:31  5-MIN KMSN 272355Z 10010KT 10SM CLR 23/13 A3013 670 55 1800 100/10 RMK AO2
14837KMSN MSN20010727180009307/27/01 18:00:31  5-MIN KMSN 280000Z 11010KT 10SM CLR 23/13 A3013 670 55 1800 110/10 RMK AO2
14837KMSN MSN20010727180509307/27/01 18:05:31  5-MIN KMSN 280005Z 10010KT 10SM CLR 22/13 A3013 670 56 1700 100/10 RMK AO2
14837KMSN MSN20010727181009307/27/01 18:10:31  5-MIN KMSN 280010Z 10008KT 10SM CLR 22/14 A3013 670 59 1700 100/08 RMK AO2
14837KMSN MSN20010727181509307/27/01 18:15:31  5-MIN KMSN 280015Z 10009KT 10SM CLR 22/14 A3013 670 59 1700 100/09 RMK AO2
14837KMSN MSN20010727182009307/27/01 18:20:31  5-MIN KMSN 280020Z 10009KT 10SM CLR 22/14 A3012 680 59 1700 100/09 RMK AO2
14837KMSN MSN20010727182509307/27/01 18:25:31  5-MIN KMSN 280025Z 10008KT 10SM CLR 22/14 A3012 680 59 1700 100/08 RMK AO2
14837KMSN MSN20010727183009307/27/01 18:30:31  5-MIN KMSN 280030Z 10009KT 10SM CLR 22/14 A3012 680 61 1700 100/09 RMK AO2
14837KMSN MSN20010727183509307/27/01 18:35:31  5-MIN KMSN 280035Z 11010KT 10SM CLR 22/14 A3012 680 59 1700 110/10 RMK AO2
14837KMSN MSN20010727184009307/27/01 18:40:31  5-MIN KMSN 280040Z 11009KT 10SM CLR 22/14 A3012 680 59 1700 110/09 RMK AO2
14837KMSN MSN20010727184509307/27/01 18:45:31  5-MIN KMSN 280045Z 11007KT 10SM CLR 22/14 A3012 680 63 1600 110/07 RMK AO2
14837KMSN MSN20010727185011007/27/01 18:50:31  5-MIN KMSN 280050Z 12008KT 10SM CLR 22/14 A3012 680 63 1700 110/08 RMK AO2 SLP197 T02170144
14837KMSN MSN20010727185509307/27/01 18:55:31  5-MIN KMSN 280055Z 12010KT 10SM CLR 22/14 A3012 680 63 1600 120/10 RMK AO2
14837KMSN MSN20010727190009307/27/01 19:00:31  5-MIN KMSN 280100Z 12008KT 10SM CLR 22/14 A3013 670 63 1600 120/08 RMK AO2
14837KMSN MSN20010727190509307/27/01 19:05:31  5-MIN KMSN 280105Z 13008KT 10SM CLR 22/14 A3013 670 61 1600 120/08 RMK AO2
14837KMSN MSN20010727191009307/27/01 19:10:31  5-MIN KMSN 280110Z 13010KT 10SM CLR 22/14 A3013 680 61 1600 130/10 RMK AO2
14837KMSN MSN20010727191509307/27/01 19:15:31  5-MIN KMSN 280115Z 12008KT 10SM CLR 22/14 A3012 680 61 1600 120/08 RMK AO2
14837KMSN MSN20010727192009307/27/01 19:20:31  5-MIN KMSN 280120Z 12010KT 10SM CLR 22/14 A3012 680 61 1600 120/10 RMK AO2
14837KMSN MSN20010727192509307/27/01 19:25:31  5-MIN KMSN 280125Z 13009KT 10SM CLR 22/14 A3012 680 63 1600 120/09 RMK AO2
14837KMSN MSN20010727193009307/27/01 19:30:31  5-MIN KMSN 280130Z 13010KT 10SM CLR 21/14 A3012 680 65 1600 130/10 RMK AO2
14837KMSN MSN20010727193509307/27/01 19:35:31  5-MIN KMSN 280135Z 12012KT 10SM CLR 21/14 A3012 680 63 1600 120/12 RMK AO2
14837KMSN MSN20010727194009307/27/01 19:40:31  5-MIN KMSN 280140Z 12011KT 10SM CLR 21/14 A3012 680 63 1600 120/11 RMK AO2
14837KMSN MSN20010727194509307/27/01 19:45:31  5-MIN KMSN 280145Z 12010KT 10SM CLR 21/14 A3012 680 63 1600 120/10 RMK AO2
14837KMSN MSN20010727195011007/27/01 19:50:31  5-MIN KMSN 280150Z 12011KT 10SM CLR 21/14 A3012 680 63 1600 120/11 RMK AO2 SLP196 T02110139
14837KMSN MSN20010727195509307/27/01 19:55:31  5-MIN KMSN 280155Z 13011KT 10SM CLR 21/14 A3012 680 63 1600 130/11 RMK AO2
14837KMSN MSN20010727200009307/27/01 20:00:31  5-MIN KMSN 280200Z 13011KT 10SM CLR 21/14 A3012 680 65 1500 120/11 RMK AO2
14837KMSN MSN20010727200509307/27/01 20:05:31  5-MIN KMSN 280205Z 13011KT 10SM CLR 21/14 A3012 680 65 1500 120/11 RMK AO2
14837KMSN MSN20010727201009307/27/01 20:10:31  5-MIN KMSN 280210Z 12011KT 10SM CLR 21/13 A3012 680 63 1500 120/11 RMK AO2
14837KMSN MSN20010727201509307/27/01 20:15:31  5-MIN KMSN 280215Z 12011KT 10SM CLR 21/13 A3012 680 63 1500 120/11 RMK AO2
14837KMSN MSN20010727202009307/27/01 20:20:31  5-MIN KMSN 280220Z 13009KT 10SM CLR 20/13 A3012 680 65 1500 130/09 RMK AO2
14837KMSN MSN20010727202509307/27/01 20:25:31  5-MIN KMSN 280225Z 13011KT 10SM CLR 20/13 A3012 680 65 1500 130/11 RMK AO2
14837KMSN MSN20010727203009307/27/01 20:30:31  5-MIN KMSN 280230Z 13009KT 10SM CLR 20/13 A3012 680 65 1500 130/09 RMK AO2
14837KMSN MSN20010727203509307/27/01 20:35:31  5-MIN KMSN 280235Z 13011KT 10SM CLR 20/13 A3012 680 63 1500 130/11 RMK AO2
14837KMSN MSN20010727204009307/27/01 20:40:31  5-MIN KMSN 280240Z 13010KT 10SM CLR 20/13 A3013 670 63 1500 130/10 RMK AO2
14837KMSN MSN20010727204509307/27/01 20:45:31  5-MIN KMSN 280245Z 13009KT 10SM CLR 20/13 A3012 680 63 1500 130/09 RMK AO2
14837KMSN MSN20010727205011607/27/01 20:50:31  5-MIN KMSN 280250Z 13009KT 10SM CLR 20/13 A3013 670 63 1500 130/09 RMK AO2 SLP199 T02000128 56012
14837KMSN MSN20010727205509307/27/01 20:55:31  5-MIN KMSN 280255Z 13008KT 10SM CLR 19/13 A3013 670 65 1400 130/08 RMK AO2
14837KMSN MSN20010727210009307/27/01 21:00:31  5-MIN KMSN 280300Z 13008KT 10SM CLR 19/13 A3013 670 65 1400 130/08 RMK AO2
14837KMSN MSN20010727210509307/27/01 21:05:31  5-MIN KMSN 280305Z 13008KT 10SM CLR 19/13 A3013 670 65 1400 130/08 RMK AO2
14837KMSN MSN20010727211009307/27/01 21:10:31  5-MIN KMSN 280310Z 13008KT 10SM CLR 19/13 A3013 670 65 1400 130/08 RMK AO2
14837KMSN MSN20010727211509307/27/01 21:15:31  5-MIN KMSN 280315Z 13009KT 10SM CLR 19/13 A3013 670 65 1400 130/09 RMK AO2
14837KMSN MSN20010727212009307/27/01 21:20:31  5-MIN KMSN 280320Z 12007KT 10SM CLR 19/13 A3013 670 67 1300 120/07 RMK AO2
14837KMSN MSN20010727212509307/27/01 21:25:31  5-MIN KMSN 280325Z 12007KT 10SM CLR 19/13 A3013 670 67 1300 120/07 RMK AO2
14837KMSN MSN20010727213009307/27/01 21:30:31  5-MIN KMSN 280330Z 13009KT 10SM CLR 19/13 A3013 670 67 1300 130/09 RMK AO2
14837KMSN MSN20010727213509307/27/01 21:35:31  5-MIN KMSN 280335Z 13007KT 10SM CLR 19/13 A3013 670 67 1300 120/07 RMK AO2
14837KMSN MSN20010727214009307/27/01 21:40:31  5-MIN KMSN 280340Z 13007KT 10SM CLR 19/13 A3013 670 67 1300 130/07 RMK AO2
14837KMSN MSN20010727214509307/27/01 21:45:31  5-MIN KMSN 280345Z 13008KT 10SM CLR 19/13 A3013 670 70 1300 130/08 RMK AO2
14837KMSN MSN20010727215011007/27/01 21:50:31  5-MIN KMSN 280350Z 13007KT 10SM CLR 19/13 A3013 670 70 1300 130/07 RMK AO2 SLP198 T01890133
14837KMSN MSN20010727215509307/27/01 21:55:31  5-MIN KMSN 280355Z 13006KT 10SM CLR 19/13 A3013 670 70 1300 130/06 RMK AO2
14837KMSN MSN20010727220009307/27/01 22:00:31  5-MIN KMSN 280400Z 13007KT 10SM CLR 19/13 A3013 670 70 1300 130/07 RMK AO2
14837KMSN MSN20010727220509307/27/01 22:05:31  5-MIN KMSN 280405Z 13008KT 10SM CLR 19/13 A3013 670 70 1300 130/08 RMK AO2
14837KMSN MSN20010727221009307/27/01 22:10:31  5-MIN KMSN 280410Z 13007KT 10SM CLR 19/13 A3013 670 70 1300 130/07 RMK AO2
14837KMSN MSN20010727221509307/27/01 22:15:31  5-MIN KMSN 280415Z 13007KT 10SM CLR 19/13 A3013 670 70 1300 130/07 RMK AO2
14837KMSN MSN20010727222009307/27/01 22:20:31  5-MIN KMSN 280420Z 13007KT 10SM CLR 19/13 A3013 670 70 1300 130/07 RMK AO2
14837KMSN MSN20010727222509307/27/01 22:25:31  5-MIN KMSN 280425Z 13006KT 10SM CLR 19/13 A3013 670 70 1300 130/06 RMK AO2
14837KMSN MSN20010727223009307/27/01 22:30:31  5-MIN KMSN 280430Z 13006KT 10SM CLR 19/13 A3013 670 70 1300 130/06 RMK AO2
14837KMSN MSN20010727223509307/27/01 22:35:31  5-MIN KMSN 280435Z 13006KT 10SM CLR 19/13 A3013 670 70 1300 130/06 RMK AO2
14837KMSN MSN20010727224009307/27/01 22:40:31  5-MIN KMSN 280440Z 13006KT 10SM CLR 18/14 A3013 670 75 1300 130/06 RMK AO2
14837KMSN MSN20010727224509307/27/01 22:45:31  5-MIN KMSN 280445Z 13006KT 10SM CLR 18/14 A3013 670 75 1300 130/06 RMK AO2
14837KMSN MSN20010727225011007/27/01 22:50:31  5-MIN KMSN 280450Z 13006KT 10SM CLR 18/14 A3013 670 75 1300 130/06 RMK AO2 SLP198 T01830139
14837KMSN MSN20010727225509307/27/01 22:55:31  5-MIN KMSN 280455Z 13007KT 10SM CLR 18/14 A3013 670 75 1300 130/07 RMK AO2
14837KMSN MSN20010727230009307/27/01 23:00:31  5-MIN KMSN 280500Z 13007KT 10SM CLR 18/14 A3013 670 75 1300 130/07 RMK AO2
14837KMSN MSN20010727230509307/27/01 23:05:31  5-MIN KMSN 280505Z 13007KT 10SM CLR 18/14 A3013 670 75 1300 130/07 RMK AO2
14837KMSN MSN20010727231009307/27/01 23:10:31  5-MIN KMSN 280510Z 13007KT 10SM CLR 18/14 A3013 670 75 1300 130/07 RMK AO2
14837KMSN MSN20010727231509307/27/01 23:15:31  5-MIN KMSN 280515Z 13006KT 10SM CLR 18/14 A3013 670 75 1300 130/06 RMK AO2
14837KMSN MSN20010727232009607/27/01 23:20:31  5-MIN KMSN 280520Z 13008KT 10SM FEW050 18/14 A3012 680 75 1300 130/08 RMK AO2
14837KMSN MSN20010727232509607/27/01 23:25:31  5-MIN KMSN 280525Z 13008KT 10SM SCT050 18/14 A3012 680 75 1300 120/08 RMK AO2
14837KMSN MSN20010727233009607/27/01 23:30:31  5-MIN KMSN 280530Z 12008KT 10SM BKN050 18/14 A3012 680 75 1300 120/08 RMK AO2
14837KMSN MSN20010727233509607/27/01 23:35:31  5-MIN KMSN 280535Z 12008KT 10SM BKN050 18/14 A3012 680 75 1300 120/08 RMK AO2
14837KMSN MSN20010727234009607/27/01 23:40:31  5-MIN KMSN 280540Z 12008KT 10SM BKN050 18/14 A3012 680 78 1300 120/08 RMK AO2
14837KMSN MSN20010727234509607/27/01 23:45:31  5-MIN KMSN 280545Z 13008KT 10SM BKN050 18/14 A3012 680 75 1300 130/08 RMK AO2
14837KMSN MSN20010727235014107/27/01 23:50:31  5-MIN KMSN 280550Z 13007KT 10SM BKN050 18/14 A3011 690 78 1300 130/07 RMK AO2 SLP193 T01830144 10228 20183 402560111 55001
14837KMSN MSN20010727235509607/27/01 23:55:31  5-MIN KMSN 280555Z 13008KT 10SM BKN050 18/14 A3011 690 78 1300 130/08 RMK AO2
14837KMSN MSN20010728000009607/28/01 00:00:31  5-MIN KMSN 280600Z 13008KT 10SM SCT050 18/14 A3011 690 78 1300 130/08 RMK AO2
14837KMSN MSN20010728000509607/28/01 00:05:31  5-MIN KMSN 280605Z 13008KT 10SM SCT050 18/14 A3011 690 78 1300 130/08 RMK AO2
14837KMSN MSN20010728001009607/28/01 00:10:31  5-MIN KMSN 280610Z 13008KT 10SM FEW050 18/14 A3011 690 78 1300 130/08 RMK AO2
14837KMSN MSN20010728001509607/28/01 00:15:31  5-MIN KMSN 280615Z 13008KT 10SM FEW050 18/14 A3010 690 78 1300 130/08 RMK AO2
14837KMSN MSN20010728002009607/28/01 00:20:31  5-MIN KMSN 280620Z 13006KT 10SM FEW120 18/14 A3010 700 78 1300 130/06 RMK AO2
14837KMSN MSN20010728002509607/28/01 00:25:31  5-MIN KMSN 280625Z 14007KT 10SM FEW120 18/14 A3010 700 78 1300 130/07 RMK AO2
14837KMSN MSN20010728003009607/28/01 00:30:31  5-MIN KMSN 280630Z 13006KT 10SM FEW120 18/14 A3010 700 78 1300 130/06 RMK AO2
14837KMSN MSN20010728003509607/28/01 00:35:31  5-MIN KMSN 280635Z 13007KT 10SM SCT120 18/15 A3009 710 81 1300 130/07 RMK AO2
14837KMSN MSN20010728004009607/28/01 00:40:31  5-MIN KMSN 280640Z 13007KT 10SM SCT120 18/15 A3009 710 81 1300 130/07 RMK AO2
14837KMSN MSN20010728004509607/28/01 00:45:31  5-MIN KMSN 280645Z 13007KT 10SM BKN120 18/15 A3009 710 81 1300 130/07 RMK AO2
14837KMSN MSN20010728005011307/28/01 00:50:31  5-MIN KMSN 280650Z 13007KT 10SM SCT120 18/15 A3009 710 81 1300 130/07 RMK AO2 SLP185 T01830150
14837KMSN MSN20010728005509607/28/01 00:55:31  5-MIN KMSN 280655Z 14005KT 10SM SCT120 18/16 A3009 710 87 1300 140/05 RMK AO2
14837KMSN MSN20010728010009607/28/01 01:00:31  5-MIN KMSN 280700Z 13006KT 10SM SCT120 18/16 A3009 710 87 1300 130/06 RMK AO2
14837KMSN MSN20010728010509607/28/01 01:05:31  5-MIN KMSN 280705Z 14007KT 10SM SCT110 18/15 A3009 710 81 1300 140/07 RMK AO2
14837KMSN MSN20010728011009607/28/01 01:10:31  5-MIN KMSN 280710Z 14008KT 10SM BKN110 18/15 A3008 710 81 1300 140/08 RMK AO2
14837KMSN MSN20010728011509607/28/01 01:15:31  5-MIN KMSN 280715Z 13007KT 10SM BKN110 18/15 A3008 720 81 1300 130/07 RMK AO2
14837KMSN MSN20010728012009607/28/01 01:20:31  5-MIN KMSN 280720Z 12006KT 10SM SCT110 18/15 A3008 720 81 1300 120/06 RMK AO2
14837KMSN MSN20010728012509607/28/01 01:25:31  5-MIN KMSN 280725Z 12005KT 10SM SCT110 18/15 A3008 720 81 1300 110/05 RMK AO2
14837KMSN MSN20010728013009607/28/01 01:30:31  5-MIN KMSN 280730Z 12005KT 10SM FEW110 18/15 A3007 720 83 1300 120/05 RMK AO2
14837KMSN MSN20010728013509607/28/01 01:35:31  5-MIN KMSN 280735Z 12006KT 10SM FEW110 18/15 A3007 720 83 1300 120/06 RMK AO2
14837KMSN MSN20010728014009307/28/01 01:40:31  5-MIN KMSN 280740Z 13006KT 10SM CLR 18/16 A3008 720 87 1300 120/06 RMK AO2
14837KMSN MSN20010728014509307/28/01 01:45:31  5-MIN KMSN 280745Z 13007KT 10SM CLR 18/16 A3007 720 87 1300 130/07 RMK AO2
14837KMSN MSN20010728015011007/28/01 01:50:31  5-MIN KMSN 280750Z 13006KT 10SM CLR 18/16 A3007 720 87 1300 130/06 RMK AO2 SLP179 T01780156
14837KMSN MSN20010728015509607/28/01 01:55:31  5-MIN KMSN 280755Z 13006KT 10SM FEW037 18/16 A3007 720 87 1300 130/06 RMK AO2
14837KMSN MSN20010728020009607/28/01 02:00:31  5-MIN KMSN 280800Z 12005KT 10SM SCT037 18/16 A3007 720 84 1300 120/05 RMK AO2
14837KMSN MSN20010728105509807/28/01 10:55:31  5-MIN KMSN 281655Z 19006KT 5SM BR OVC016 23/20 A3000 790 81 2000 190/06 RMK AO2
14837KMSN MSN20010728110009807/28/01 11:00:31  5-MIN KMSN 281700Z VRB05KT 5SM BR OVC016 23/20 A3000 790 81 2000 VRB/05 RMK AO2
14837KMSN MSN20010728110509807/28/01 11:05:31  5-MIN KMSN 281705Z 20006KT 5SM BR OVC016 23/20 A3000 790 81 2000 200/06 RMK AO2
14837KMSN MSN20010728111009807/28/01 11:10:31  5-MIN KMSN 281710Z 20005KT 5SM BR OVC016 23/20 A3000 790 81 2000 200/05 RMK AO2
14837KMSN MSN20010728111509807/28/01 11:15:31  5-MIN KMSN 281715Z 19007KT 5SM BR OVC016 23/20 A2999 800 81 2000 190/07 RMK AO2
14837KMSN MSN20010728112009807/28/01 11:20:31  5-MIN KMSN 281720Z 20005KT 5SM BR OVC016 23/20 A2999 800 81 2000 200/05 RMK AO2
14837KMSN MSN20010728112509807/28/01 11:25:31  5-MIN KMSN 281725Z 21006KT 5SM BR OVC016 23/20 A3000 800 81 2000 200/06 RMK AO2
14837KMSN MSN20010728113009807/28/01 11:30:31  5-MIN KMSN 281730Z 18007KT 5SM BR OVC016 23/20 A2999 800 81 2000 180/07 RMK AO2
14837KMSN MSN20010728113509807/28/01 11:35:31  5-MIN KMSN 281735Z VRB04KT 5SM BR OVC016 23/20 A2999 800 81 2000 VRB/04 RMK AO2
14837KMSN MSN20010728114009807/28/01 11:40:31  5-MIN KMSN 281740Z 18006KT 5SM BR OVC016 23/20 A2999 800 81 2000 180/06 RMK AO2
14837KMSN MSN20010728114509807/28/01 11:45:31  5-MIN KMSN 281745Z 18007KT 4SM BR OVC016 23/20 A2999 800 81 2000 180/07 RMK AO2
14837KMSN MSN20010728115013907/28/01 11:50:31  5-MIN KMSN 281750Z 18006KT 4SM BR OVC016 23/20 A2999 800 81 2000 180/06 RMK AO2 SLP151 60002 T02330200 10239 20194 56006
14837KMSN MSN20010728115509807/28/01 11:55:31  5-MIN KMSN 281755Z 18005KT 4SM BR OVC016 23/21 A2999 800 84 2000 170/05 RMK AO2
14837KMSN MSN20010728120009807/28/01 12:00:31  5-MIN KMSN 281800Z 21005KT 4SM BR OVC016 24/20 A2999 800 78 2100 210/05 RMK AO2
14837KMSN MSN20010728120509807/28/01 12:05:31  5-MIN KMSN 281805Z 20007KT 4SM BR OVC016 24/20 A2998 800 78 2100 200/07 RMK AO2
14837KMSN MSN20010728121010507/28/01 12:10:31  5-MIN KMSN 281810Z 20005KT 4SM BR BKN018 OVC030 24/21 A2998 810 81 2100 200/05 RMK AO2
14837KMSN MSN20010728121509807/28/01 12:15:31  5-MIN KMSN 281815Z 22005KT 4SM BR OVC018 24/21 A2998 810 81 2100 220/05 RMK AO2
14837KMSN MSN20010728122009807/28/01 12:20:31  5-MIN KMSN 281820Z 19007KT 4SM BR OVC018 24/21 A2998 810 78 2100 190/07 RMK AO2
14837KMSN MSN20010728122510507/28/01 12:25:31  5-MIN KMSN 281825Z 17008KT 4SM BR BKN018 OVC030 24/21 A2998 810 78 2100 170/08 RMK AO2
14837KMSN MSN20010728123010507/28/01 12:30:31  5-MIN KMSN 281830Z 17007KT 4SM BR BKN018 OVC030 25/21 A2998 810 79 2200 170/07 RMK AO2
14837KMSN MSN20010728123510507/28/01 12:35:31  5-MIN KMSN 281835Z 19005KT 4SM BR BKN018 OVC030 24/21 A2998 810 78 2100 190/05 RMK AO2
14837KMSN MSN20010728124010507/28/01 12:40:31  5-MIN KMSN 281840Z 20006KT 4SM BR BKN018 OVC030 24/21 A2997 820 78 2100 200/06 RMK AO2
14837KMSN MSN20010728124510507/28/01 12:45:31  5-MIN KMSN 281845Z 18006KT 4SM BR BKN018 OVC030 24/21 A2997 810 78 2100 180/06 RMK AO2
14837KMSN MSN20010728125011507/28/01 12:50:31  5-MIN KMSN 281850Z 18007KT 4SM BR BKN016 25/21 A2997 820 79 2200 180/07 RMK AO2 SLP145 T02500211
14837KMSN MSN20010728125509807/28/01 12:55:31  5-MIN KMSN 281855Z 17008KT 4SM BR OVC016 24/21 A2997 820 78 2100 170/08 RMK AO2
14837KMSN MSN20010728130009807/28/01 13:00:31  5-MIN KMSN 281900Z 19006KT 4SM BR OVC018 24/21 A2997 820 78 2100 190/06 RMK AO2
14837KMSN MSN20010728130510507/28/01 13:05:31  5-MIN KMSN 281905Z 18008KT 4SM BR BKN018 OVC027 24/21 A2997 820 78 2100 180/08 RMK AO2
14837KMSN MSN20010728131010507/28/01 13:10:31  5-MIN KMSN 281910Z 17008KT 4SM BR BKN018 OVC025 24/21 A2997 820 78 2100 170/08 RMK AO2
14837KMSN MSN20010728131510507/28/01 13:15:31  5-MIN KMSN 281915Z 18007KT 4SM BR BKN018 OVC025 24/21 A2997 820 78 2100 180/07 RMK AO2
14837KMSN MSN20010728132010507/28/01 13:20:31  5-MIN KMSN 281920Z 19005KT 4SM BR BKN018 OVC027 24/21 A2997 810 81 2100 190/05 RMK AO2
14837KMSN MSN20010728132510507/28/01 13:25:31  5-MIN KMSN 281925Z 16008KT 4SM BR BKN018 OVC027 24/21 A2998 810 81 2100 160/08 RMK AO2
14837KMSN MSN20010728133009807/28/01 13:30:31  5-MIN KMSN 281930Z 15008KT 4SM BR OVC018 24/21 A2997 810 81 2100 150/08 RMK AO2
14837KMSN MSN20010728133509807/28/01 13:35:31  5-MIN KMSN 281935Z 16008KT 4SM BR OVC018 23/21 A2998 810 84 2000 160/08 RMK AO2
14837KMSN MSN20010728134009807/28/01 13:40:31  5-MIN KMSN 281940Z 15007KT 4SM BR OVC018 23/21 A2997 810 87 2000 150/07 RMK AO2
14837KMSN MSN20010728134509807/28/01 13:45:31  5-MIN KMSN 281945Z 16006KT 3SM BR OVC018 23/21 A2997 820 87 2000 160/06 RMK AO2
14837KMSN MSN20010728135013107/28/01 13:50:31  5-MIN KMSN 281950Z 15005KT 3SM -RA BR OVC016 23/21 A2997 820 87 2000 150/05 RMK AO2 RAB49 SLP147 P0000 T02330211
14837KMSN MSN20010728135510807/28/01 13:55:31  5-MIN KMSN 281955Z 17007KT 3SM -RA BR OVC016 23/21 A2997 820 87 2000 170/07 RMK AO2 P0000
14837KMSN MSN20010728140010807/28/01 14:00:31  5-MIN KMSN 282000Z 19006KT 3SM -RA BR OVC016 24/21 A2997 820 84 2100 190/06 RMK AO2 P0000
14837KMSN MSN20010728140510807/28/01 14:05:31  5-MIN KMSN 282005Z 19007KT 3SM -RA BR OVC016 24/21 A2997 820 84 2100 190/07 RMK AO2 P0000
14837KMSN MSN20010728141010807/28/01 14:10:31  5-MIN KMSN 282010Z 18008KT 3SM -RA BR OVC018 24/21 A2997 820 84 2100 180/08 RMK AO2 P0000
14837KMSN MSN20010728141511007/28/01 14:15:31  5-MIN KMSN 282015Z 18007KT 4SM BR OVC017 24/21 A2997 820 84 2100 180/07 RMK AO2 RAE13 P0000
14837KMSN MSN20010728142011007/28/01 14:20:31  5-MIN KMSN 282020Z 18007KT 3SM BR OVC015 24/21 A2997 820 84 2100 180/07 RMK AO2 RAE13 P0000
14837KMSN MSN20010728142511707/28/01 14:25:31  5-MIN KMSN 282025Z 18009KT 3SM BR BKN015 OVC019 24/21 A2997 820 84 2100 180/09 RMK AO2 RAE13 P0000
14837KMSN MSN20010728143011707/28/01 14:30:31  5-MIN KMSN 282030Z 19008KT 3SM BR BKN015 OVC019 24/21 A2997 820 84 2100 190/08 RMK AO2 RAE13 P0000
14837KMSN MSN20010728143511707/28/01 14:35:31  5-MIN KMSN 282035Z 18007KT 3SM BR BKN015 OVC019 24/21 A2997 820 84 2100 180/07 RMK AO2 RAE13 P0000
14837KMSN MSN20010728144011707/28/01 14:40:31  5-MIN KMSN 282040Z 17008KT 3SM BR BKN015 OVC021 24/21 A2997 820 84 2100 170/08 RMK AO2 RAE13 P0000
14837KMSN MSN20010728144511707/28/01 14:45:31  5-MIN KMSN 282045Z 17007KT 3SM BR BKN015 OVC023 24/21 A2997 820 81 2100 170/07 RMK AO2 RAE13 P0000
14837KMSN MSN20010728145014607/28/01 14:50:31  5-MIN KMSN 282050Z 17008KT 3SM BR SCT015 BKN023 24/22 A2996 820 84 2100 170/08 RMK AO2 RAE13 SLP143 P0000 60000 T02440217 56015
14837KMSN MSN20010728145510507/28/01 14:55:31  5-MIN KMSN 282055Z 18009KT 3SM BR SCT015 BKN023 24/22 A2996 820 84 2100 180/09 RMK AO2
14837KMSN MSN20010728150010507/28/01 15:00:31  5-MIN KMSN 282100Z 18008KT 3SM BR SCT015 BKN023 24/21 A2996 830 81 2100 170/08 RMK AO2
14837KMSN MSN20010728150510507/28/01 15:05:31  5-MIN KMSN 282105Z 18009KT 3SM BR FEW015 SCT023 24/21 A2996 830 81 2100 170/09 RMK AO2
14837KMSN MSN20010728151010507/28/01 15:10:31  5-MIN KMSN 282110Z 21006KT 3SM BR FEW015 BKN023 24/21 A2996 820 81 2100 210/06 RMK AO2
14837KMSN MSN20010728151510507/28/01 15:15:31  5-MIN KMSN 282115Z 20006KT 4SM BR FEW015 BKN023 25/22 A2996 820 81 2200 200/06 RMK AO2
14837KMSN MSN20010728152010507/28/01 15:20:31  5-MIN KMSN 282120Z 18006KT 4SM BR FEW015 BKN023 26/22 A2996 830 79 2300 180/06 RMK AO2
14837KMSN MSN20010728152510507/28/01 15:25:31  5-MIN KMSN 282125Z 18007KT 4SM BR FEW015 BKN023 26/22 A2996 830 79 2300 170/07 RMK AO2
14837KMSN MSN20010728153010507/28/01 15:30:31  5-MIN KMSN 282130Z 19006KT 4SM BR FEW015 BKN023 25/22 A2996 830 81 2200 190/06 RMK AO2
14837KMSN MSN20010728153510507/28/01 15:35:31  5-MIN KMSN 282135Z 19007KT 4SM HZ FEW015 BKN034 25/21 A2996 830 79 2200 180/07 RMK AO2
14837KMSN MSN20010728154011207/28/01 15:40:31  5-MIN KMSN 282140Z 19005KT 4SM HZ FEW015 SCT027 SCT034 26/22 A2996 830 79 2300 190/05 RMK AO2
14837KMSN MSN20010728154511207/28/01 15:45:31  5-MIN KMSN 282145Z 16009KT 4SM HZ FEW016 SCT027 BKN033 26/22 A2996 830 79 2300 160/09 RMK AO2
14837KMSN MSN20010728155012907/28/01 15:50:31  5-MIN KMSN 282150Z 17009KT 4SM HZ FEW016 SCT022 OVC033 25/22 A2996 830 81 2200 160/09 RMK AO2 SLP139 T02500217
14837KMSN MSN20010728155510507/28/01 15:55:31  5-MIN KMSN 282155Z 19007KT 4SM HZ SCT018 BKN025 25/22 A2995 830 81 2200 190/07 RMK AO2
14837KMSN MSN20010728160010507/28/01 16:00:31  5-MIN KMSN 282200Z 19007KT 4SM HZ BKN018 BKN025 25/22 A2995 830 81 2200 180/07 RMK AO2
14837KMSN MSN20010728160510507/28/01 16:05:31  5-MIN KMSN 282205Z 20004KT 4SM HZ SCT018 BKN027 26/22 A2995 840 79 2300 200/04 RMK AO2
14837KMSN MSN20010728161010507/28/01 16:10:31  5-MIN KMSN 282210Z 19006KT 5SM HZ SCT018 BKN027 26/22 A2995 840 79 2300 190/06 RMK AO2
14837KMSN MSN20010728161510507/28/01 16:15:31  5-MIN KMSN 282215Z VRB05KT 5SM HZ SCT018 BKN027 26/22 A2995 840 76 2300 VRB/05 RMK AO2
14837KMSN MSN20010728162010507/28/01 16:20:31  5-MIN KMSN 282220Z 20006KT 5SM HZ SCT018 BKN027 26/22 A2995 840 76 2300 200/06 RMK AO2
14837KMSN MSN20010728162510507/28/01 16:25:31  5-MIN KMSN 282225Z 20005KT 6SM HZ SCT018 BKN027 26/22 A2995 840 76 2400 200/05 RMK AO2
14837KMSN MSN20010728163009807/28/01 16:30:31  5-MIN KMSN 282230Z 20006KT 6SM HZ SCT018 26/22 A2995 840 76 2400 200/06 RMK AO2
14837KMSN MSN20010728163509807/28/01 16:35:31  5-MIN KMSN 282235Z VRB05KT 6SM HZ SCT018 26/22 A2994 840 76 2400 VRB/05 RMK AO2
14837KMSN MSN20010728164009807/28/01 16:40:31  5-MIN KMSN 282240Z 22004KT 6SM HZ SCT018 26/21 A2994 840 76 2300 220/04 RMK AO2
14837KMSN MSN20010728164509807/28/01 16:45:31  5-MIN KMSN 282245Z 22005KT 6SM HZ SCT018 26/22 A2995 840 76 2400 220/05 RMK AO2
14837KMSN MSN20010728165011507/28/01 16:50:31  5-MIN KMSN 282250Z 22006KT 6SM HZ BKN020 26/21 A2994 840 76 2300 220/06 RMK AO2 SLP135 T02560211
14837KMSN MSN20010728165509807/28/01 16:55:31  5-MIN KMSN 282255Z 21005KT 6SM HZ BKN023 26/21 A2995 840 76 2300 210/05 RMK AO2
14837KMSN MSN20010728170009807/28/01 17:00:31  5-MIN KMSN 282300Z 20005KT 6SM HZ BKN023 26/22 A2994 840 76 2400 200/05 RMK AO2
14837KMSN MSN20010728170509507/28/01 17:05:31  5-MIN KMSN 282305Z 21005KT 7SM BKN023 26/22 A2994 840 76 2400 210/05 RMK AO2
14837KMSN MSN20010728171009507/28/01 17:10:31  5-MIN KMSN 282310Z 19006KT 7SM BKN023 26/22 A2994 840 76 2400 190/06 RMK AO2
14837KMSN MSN20010728171509507/28/01 17:15:31  5-MIN KMSN 282315Z 21006KT 7SM BKN023 26/22 A2994 840 76 2400 210/06 RMK AO2
14837KMSN MSN20010728172010207/28/01 17:20:31  5-MIN KMSN 282320Z VRB04KT 7SM BKN023 BKN036 26/22 A2994 850 76 2400 VRB/04 RMK AO2
14837KMSN MSN20010728172510207/28/01 17:25:31  5-MIN KMSN 282325Z 18005KT 7SM BKN023 BKN036 26/22 A2994 850 76 2400 180/05 RMK AO2
14837KMSN MSN20010728173009807/28/01 17:30:31  5-MIN KMSN 282330Z 17008KT 6SM HZ BKN023 26/22 A2994 850 79 2400 170/08 RMK AO2
14837KMSN MSN20010728173509807/28/01 17:35:31  5-MIN KMSN 282335Z 18007KT 6SM HZ BKN023 26/22 A2994 850 79 2300 180/07 RMK AO2
14837KMSN MSN20010728174009807/28/01 17:40:31  5-MIN KMSN 282340Z 17008KT 6SM HZ BKN023 26/22 A2993 850 79 2300 170/08 RMK AO2
14837KMSN MSN20010728174509807/28/01 17:45:31  5-MIN KMSN 282345Z 19006KT 6SM HZ SCT023 26/22 A2993 850 79 2300 190/06 RMK AO2
14837KMSN MSN20010728175013907/28/01 17:50:31  5-MIN KMSN 282350Z 18006KT 6SM HZ SCT023 26/22 A2993 850 79 2300 180/06 RMK AO2 SLP130 60000 T02560217 10261 20233 56008
14837KMSN MSN20010728175509807/28/01 17:55:31  5-MIN KMSN 282355Z 17008KT 6SM HZ SCT021 26/22 A2993 860 79 2300 170/08 RMK AO2
14837KMSN MSN20010728180009807/28/01 18:00:31  5-MIN KMSN 290000Z 17007KT 6SM HZ SCT021 26/22 A2993 860 79 2300 160/07 RMK AO2
14837KMSN MSN20010728180509807/28/01 18:05:31  5-MIN KMSN 290005Z 17008KT 6SM HZ SCT021 26/22 A2993 860 79 2300 170/08 RMK AO2
14837KMSN MSN20010728181009807/28/01 18:10:31  5-MIN KMSN 290010Z 17006KT 6SM HZ FEW021 26/22 A2993 860 79 2300 170/06 RMK AO2
14837KMSN MSN20010728181509507/28/01 18:15:31  5-MIN KMSN 290015Z 18005KT 7SM FEW021 26/22 A2993 860 79 2300 180/05 RMK AO2
14837KMSN MSN20010728182009807/28/01 18:20:31  5-MIN KMSN 290020Z 17006KT 6SM HZ FEW021 26/22 A2993 860 79 2300 170/06 RMK AO2
14837KMSN MSN20010728182509507/28/01 18:25:31  5-MIN KMSN 290025Z 19006KT 6SM HZ CLR 26/22 A2993 860 79 2300 190/06 RMK AO2
14837KMSN MSN20010728183009807/28/01 18:30:31  5-MIN KMSN 290030Z 18006KT 6SM HZ FEW021 26/22 A2993 860 79 2300 180/06 RMK AO2
14837KMSN MSN20010728183509507/28/01 18:35:31  5-MIN KMSN 290035Z 18004KT 7SM FEW021 26/22 A2993 860 79 2300 180/04 RMK AO2
14837KMSN MSN20010728184009807/28/01 18:40:31  5-MIN KMSN 290040Z 18006KT 6SM HZ FEW021 25/22 A2993 860 81 2200 180/06 RMK AO2
14837KMSN MSN20010728184509507/28/01 18:45:31  5-MIN KMSN 290045Z 18006KT 6SM HZ CLR 25/22 A2993 860 81 2200 180/06 RMK AO2
14837KMSN MSN20010728185010907/28/01 18:50:31  5-MIN KMSN 290050Z 18004KT 8SM CLR 25/22 A2993 860 81 2200 180/04 RMK AO2 SLP129 T02500217
14837KMSN MSN20010728185509507/28/01 18:55:31  5-MIN KMSN 290055Z 17004KT 6SM HZ CLR 25/22 A2993 860 81 2200 170/04 RMK AO2
14837KMSN MSN20010728190009507/28/01 19:00:31  5-MIN KMSN 290100Z 16005KT 6SM HZ CLR 24/22 A2993 860 84 2200 160/05 RMK AO2
14837KMSN MSN20010728190509207/28/01 19:05:31  5-MIN KMSN 290105Z 17005KT 8SM CLR 24/22 A2993 850 84 2200 170/05 RMK AO2
14837KMSN MSN20010728191009207/28/01 19:10:31  5-MIN KMSN 290110Z 18005KT 8SM CLR 24/22 A2993 850 84 2200 180/05 RMK AO2
14837KMSN MSN20010728191509207/28/01 19:15:31  5-MIN KMSN 290115Z 18005KT 8SM CLR 24/22 A2993 850 84 2200 180/05 RMK AO2
14837KMSN MSN20010728192009207/28/01 19:20:31  5-MIN KMSN 290120Z 18004KT 8SM CLR 24/22 A2993 850 84 2200 180/04 RMK AO2
14837KMSN MSN20010728192509207/28/01 19:25:31  5-MIN KMSN 290125Z VRB03KT 8SM CLR 24/22 A2993 850 84 2200 VRB/03 RMK AO2
14837KMSN MSN20010728193009207/28/01 19:30:31  5-MIN KMSN 290130Z 00000KT 8SM CLR 24/22 A2993 850 84 2200 000/00 RMK AO2
14837KMSN MSN20010728193509207/28/01 19:35:31  5-MIN KMSN 290135Z 19003KT 8SM CLR 24/22 A2993 850 84 2200 190/03 RMK AO2
14837KMSN MSN20010728194009207/28/01 19:40:31  5-MIN KMSN 290140Z 18004KT 8SM CLR 24/22 A2994 850 84 2200 180/04 RMK AO2
14837KMSN MSN20010728194509207/28/01 19:45:31  5-MIN KMSN 290145Z 16005KT 8SM CLR 23/21 A2994 850 87 2000 160/05 RMK AO2
14837KMSN MSN20010728195010907/28/01 19:50:31  5-MIN KMSN 290150Z 16005KT 7SM CLR 23/21 A2994 850 87 2000 160/05 RMK AO2 SLP134 T02330211
14837KMSN MSN20010728195509207/28/01 19:55:31  5-MIN KMSN 290155Z 16005KT 7SM CLR 23/21 A2994 850 87 2000 160/05 RMK AO2
14837KMSN MSN20010728200009207/28/01 20:00:31  5-MIN KMSN 290200Z 17004KT 7SM CLR 23/21 A2994 840 87 2000 170/04 RMK AO2
14837KMSN MSN20010728200509207/28/01 20:05:31  5-MIN KMSN 290205Z 17004KT 7SM CLR 23/21 A2994 840 87 2000 170/04 RMK AO2
14837KMSN MSN20010728201009507/28/01 20:10:31  5-MIN KMSN 290210Z 18004KT 7SM FEW095 24/22 A2995 840 87 2100 180/04 RMK AO2
14837KMSN MSN20010728201509507/28/01 20:15:31  5-MIN KMSN 290215Z 17005KT 7SM FEW095 24/22 A2995 840 87 2100 170/05 RMK AO2
14837KMSN MSN20010728202009507/28/01 20:20:31  5-MIN KMSN 290220Z 17004KT 7SM SCT095 24/22 A2995 840 87 2100 170/04 RMK AO2
14837KMSN MSN20010728202509507/28/01 20:25:31  5-MIN KMSN 290225Z 17005KT 7SM BKN095 24/22 A2995 840 87 2100 170/05 RMK AO2
14837KMSN MSN20010728203009807/28/01 20:30:31  5-MIN KMSN 290230Z 17005KT 6SM BR BKN095 24/22 A2995 840 87 2100 170/05 RMK AO2
14837KMSN MSN20010728203509807/28/01 20:35:31  5-MIN KMSN 290235Z 17005KT 6SM BR OVC095 24/22 A2995 840 87 2100 170/05 RMK AO2
14837KMSN MSN20010728204009807/28/01 20:40:31  5-MIN KMSN 290240Z 18006KT 6SM BR OVC095 24/22 A2995 840 87 2100 180/06 RMK AO2
14837KMSN MSN20010728204509807/28/01 20:45:31  5-MIN KMSN 290245Z 18006KT 6SM BR OVC095 24/22 A2995 840 87 2100 180/06 RMK AO2
14837KMSN MSN20010728205012107/28/01 20:50:31  5-MIN KMSN 290250Z 19006KT 6SM BR OVC095 24/22 A2995 840 87 2100 190/06 RMK AO2 SLP137 T02390217 58012
14837KMSN MSN20010728205509807/28/01 20:55:31  5-MIN KMSN 290255Z 19006KT 6SM BR OVC095 24/22 A2995 840 87 2100 180/06 RMK AO2
14837KMSN MSN20010728210009807/28/01 21:00:31  5-MIN KMSN 290300Z 19006KT 6SM BR OVC095 24/22 A2995 840 87 2100 180/06 RMK AO2
14837KMSN MSN20010728210509807/28/01 21:05:31  5-MIN KMSN 290305Z 18006KT 6SM BR OVC095 24/22 A2995 830 87 2100 180/06 RMK AO2
14837KMSN MSN20010728211009807/28/01 21:10:31  5-MIN KMSN 290310Z 18006KT 5SM BR OVC095 24/22 A2995 830 90 2100 180/06 RMK AO2
14837KMSN MSN20010728211509807/28/01 21:15:31  5-MIN KMSN 290315Z 19007KT 5SM BR OVC095 24/22 A2995 830 90 2100 190/07 RMK AO2
14837KMSN MSN20010728212009807/28/01 21:20:31  5-MIN KMSN 290320Z 19007KT 5SM BR OVC095 24/22 A2995 840 90 2100 180/07 RMK AO2
14837KMSN MSN20010728212509807/28/01 21:25:31  5-MIN KMSN 290325Z 18006KT 5SM BR OVC095 24/22 A2995 840 90 2100 180/06 RMK AO2
14837KMSN MSN20010728213009807/28/01 21:30:31  5-MIN KMSN 290330Z 19009KT 5SM BR OVC095 24/22 A2995 830 90 2100 180/09 RMK AO2
14837KMSN MSN20010728213509807/28/01 21:35:31  5-MIN KMSN 290335Z 18007KT 4SM BR OVC095 24/22 A2995 830 90 2100 180/07 RMK AO2
14837KMSN MSN20010728214009807/28/01 21:40:31  5-MIN KMSN 290340Z 18006KT 4SM BR OVC095 24/22 A2996 830 90 2100 180/06 RMK AO2
14837KMSN MSN20010728214509807/28/01 21:45:31  5-MIN KMSN 290345Z 18007KT 4SM BR OVC095 24/22 A2996 830 90 2100 180/07 RMK AO2
14837KMSN MSN20010728215011507/28/01 21:50:31  5-MIN KMSN 290350Z 18006KT 4SM BR OVC095 24/22 A2996 830 90 2100 180/06 RMK AO2 SLP139 T02390222
14837KMSN MSN20010728215509807/28/01 21:55:31  5-MIN KMSN 290355Z 18007KT 4SM BR OVC095 24/22 A2995 830 90 2100 180/07 RMK AO2
14837KMSN MSN20010728220009807/28/01 22:00:31  5-MIN KMSN 290400Z 18005KT 4SM BR OVC095 23/22 A2996 830 93 2000 180/05 RMK AO2
14837KMSN MSN20010728220509807/28/01 22:05:31  5-MIN KMSN 290405Z 18006KT 4SM BR OVC095 23/22 A2995 830 93 2000 180/06 RMK AO2
14837KMSN MSN20010728221009807/28/01 22:10:31  5-MIN KMSN 290410Z 18006KT 4SM BR OVC095 23/22 A2995 840 93 2000 180/06 RMK AO2
14837KMSN MSN20010728221509807/28/01 22:15:31  5-MIN KMSN 290415Z 19006KT 4SM BR BKN095 23/22 A2995 830 93 2000 190/06 RMK AO2
14837KMSN MSN20010728222009807/28/01 22:20:31  5-MIN KMSN 290420Z 18006KT 4SM BR BKN095 23/22 A2995 830 93 2000 180/06 RMK AO2
14837KMSN MSN20010728222509807/28/01 22:25:31  5-MIN KMSN 290425Z VRB03KT 4SM BR OVC095 23/22 A2995 830 93 2000 VRB/03 RMK AO2
14837KMSN MSN20010728223009807/28/01 22:30:31  5-MIN KMSN 290430Z 18006KT 3SM BR OVC095 23/22 A2995 840 93 2000 180/06 RMK AO2
14837KMSN MSN20010728223509807/28/01 22:35:31  5-MIN KMSN 290435Z 18006KT 3SM BR BKN095 23/22 A2995 840 93 2000 180/06 RMK AO2
14837KMSN MSN20010728224009807/28/01 22:40:31  5-MIN KMSN 290440Z 19006KT 3SM BR BKN095 23/22 A2995 840 93 2000 190/06 RMK AO2
14837KMSN MSN20010728224509807/28/01 22:45:31  5-MIN KMSN 290445Z 20004KT 3SM BR BKN095 23/22 A2995 840 90 2000 200/04 RMK AO2
14837KMSN MSN20010728225011507/28/01 22:50:31  5-MIN KMSN 290450Z VRB04KT 3SM BR BKN095 23/22 A2995 830 90 2000 VRB/04 RMK AO2 SLP138 T02330217
14837KMSN MSN20010728225510507/28/01 22:55:31  5-MIN KMSN 290455Z 21003KT 3SM BR FEW041 SCT095 23/22 A2995 840 90 2000 210/03 RMK AO2
14837KMSN MSN20010728230011207/28/01 23:00:31  5-MIN KMSN 290500Z 00000KT 3SM BR FEW034 SCT041 SCT095 23/22 A2995 840 90 2000 000/00 RMK AO2
14837KMSN MSN20010728230511207/28/01 23:05:31  5-MIN KMSN 290505Z 22003KT 3SM BR FEW028 SCT042 SCT095 23/22 A2995 840 93 2000 220/03 RMK AO2
14837KMSN MSN20010728231011207/28/01 23:10:31  5-MIN KMSN 290510Z 00000KT 3SM BR FEW028 SCT042 BKN095 23/22 A2995 840 90 2000 000/00 RMK AO2
14837KMSN MSN20010728231510507/28/01 23:15:31  5-MIN KMSN 290515Z 00000KT 3SM BR FEW031 BKN090 23/22 A2995 840 90 2000 000/00 RMK AO2
14837KMSN MSN20010728232011207/28/01 23:20:31  5-MIN KMSN 290520Z VRB03KT 4SM BR FEW024 SCT033 BKN080 23/22 A2995 840 90 2000 VRB/03 RMK AO2
14837KMSN MSN20010728232511207/28/01 23:25:31  5-MIN KMSN 290525Z 23003KT 4SM BR SCT024 SCT033 BKN045 23/22 A2995 840 90 2000 220/03 RMK AO2
14837KMSN MSN20010728233011207/28/01 23:30:31  5-MIN KMSN 290530Z VRB03KT 4SM BR FEW024 SCT037 BKN090 23/22 A2995 840 93 2000 VRB/03 RMK AO2
14837KMSN MSN20010728233511207/28/01 23:35:31  5-MIN KMSN 290535Z 24003KT 4SM BR SCT022 SCT080 BKN090 23/22 A2995 840 93 2000 240/03 RMK AO2
14837KMSN MSN20010728234011207/28/01 23:40:31  5-MIN KMSN 290540Z 23004KT 4SM BR FEW008 SCT022 BKN080 23/22 A2994 840 93 2000 230/04 RMK AO2
14837KMSN MSN20010728234510507/28/01 23:45:31  5-MIN KMSN 290545Z 23004KT 3SM BR FEW008 SCT022 23/22 A2995 840 93 2000 220/04 RMK AO2
14837KMSN MSN20010728235015007/28/01 23:50:31  5-MIN KMSN 290550Z 22005KT 3SM BR FEW008 SCT022 23/22 A2995 840 93 2000 220/05 RMK AO2 SLP136 T02330222 10256 20228 402610178 53006
14837KMSN MSN20010728235510507/28/01 23:55:31  5-MIN KMSN 290555Z 22005KT 3SM BR FEW008 SCT022 23/22 A2995 840 93 2000 210/05 RMK AO2
14837KMSN MSN20010729000010507/29/01 00:00:31  5-MIN KMSN 290600Z 21005KT 3SM BR FEW008 SCT022 23/22 A2995 840 93 2000 210/05 RMK AO2
14837KMSN MSN20010729000509807/29/01 00:05:31  5-MIN KMSN 290605Z 22006KT 3SM BR FEW021 23/22 A2995 840 93 2000 220/06 RMK AO2
14837KMSN MSN20010729001009807/29/01 00:10:31  5-MIN KMSN 290610Z 22004KT 3SM BR FEW021 23/22 A2994 840 97 2000 220/04 RMK AO2
14837KMSN MSN20010729001509807/29/01 00:15:31  5-MIN KMSN 290615Z VRB03KT 3SM BR FEW021 23/22 A2994 840 93 2000 VRB/03 RMK AO2
14837KMSN MSN20010729002009507/29/01 00:20:31  5-MIN KMSN 290620Z 23004KT 3SM BR CLR 23/22 A2994 840 93 2000 230/04 RMK AO2
14837KMSN MSN20010729002509507/29/01 00:25:31  5-MIN KMSN 290625Z VRB03KT 3SM BR CLR 23/22 A2994 840 93 2000 VRB/03 RMK AO2
14837KMSN MSN20010729003009507/29/01 00:30:31  5-MIN KMSN 290630Z 00000KT 3SM BR CLR 23/22 A2994 840 93 2000 000/00 RMK AO2
14837KMSN MSN20010729003509507/29/01 00:35:31  5-MIN KMSN 290635Z 00000KT 3SM BR CLR 23/22 A2994 840 93 2000 000/00 RMK AO2
14837KMSN MSN20010729004009507/29/01 00:40:31  5-MIN KMSN 290640Z 22003KT 3SM BR CLR 23/22 A2994 840 93 2000 220/03 RMK AO2
14837KMSN MSN20010729004509507/29/01 00:45:31  5-MIN KMSN 290645Z 21004KT 3SM BR CLR 23/22 A2994 840 93 2000 210/04 RMK AO2
14837KMSN MSN20010729005011207/29/01 00:50:31  5-MIN KMSN 290650Z 23003KT 3SM BR CLR 23/22 A2994 840 93 2000 230/03 RMK AO2 SLP135 T02280217
14837KMSN MSN20010729005509507/29/01 00:55:31  5-MIN KMSN 290655Z VRB03KT 3SM BR CLR 23/22 A2994 840 93 2000 VRB/03 RMK AO2
14837KMSN MSN20010729010009507/29/01 01:00:31  5-MIN KMSN 290700Z 23003KT 3SM BR CLR 22/22 A2994 850 97 1900 230/03 RMK AO2
14837KMSN MSN20010729010509507/29/01 01:05:31  5-MIN KMSN 290705Z VRB03KT 3SM BR CLR 22/21 A2994 850 93 1900 VRB/03 RMK AO2
14837KMSN MSN20010729011009507/29/01 01:10:31  5-MIN KMSN 290710Z 00000KT 3SM BR CLR 22/22 A2994 850 97 1900 000/00 RMK AO2
14837KMSN MSN20010729011509507/29/01 01:15:31  5-MIN KMSN 290715Z 00000KT 3SM BR CLR 22/21 A2994 850 93 1900 000/00 RMK AO2
14837KMSN MSN20010729012009507/29/01 01:20:31  5-MIN KMSN 290720Z 00000KT 3SM BR CLR 22/21 A2994 850 97 1900 000/00 RMK AO2
14837KMSN MSN20010729012509507/29/01 01:25:31  5-MIN KMSN 290725Z 00000KT 3SM BR CLR 22/21 A2994 850 93 1900 000/00 RMK AO2
14837KMSN MSN20010729013009507/29/01 01:30:31  5-MIN KMSN 290730Z 00000KT 3SM BR CLR 22/21 A2993 850 93 1900 000/00 RMK AO2
14837KMSN MSN20010729013509507/29/01 01:35:31  5-MIN KMSN 290735Z 00000KT 3SM BR CLR 22/21 A2993 850 97 1900 000/00 RMK AO2
14837KMSN MSN20010729014009507/29/01 01:40:31  5-MIN KMSN 290740Z 26003KT 3SM BR CLR 22/21 A2993 850 97 1900 260/03 RMK AO2
14837KMSN MSN20010729014509507/29/01 01:45:31  5-MIN KMSN 290745Z 00000KT 3SM BR CLR 22/21 A2993 850 97 1900 000/00 RMK AO2
14837KMSN MSN20010729015011207/29/01 01:50:31  5-MIN KMSN 290750Z 26003KT 3SM BR CLR 22/21 A2994 850 93 1900 260/03 RMK AO2 SLP132 T02170206
14837KMSN MSN20010729015509507/29/01 01:55:31  5-MIN KMSN 290755Z VRB03KT 3SM BR CLR 21/21 A2994 850 97 1800 VRB/03 RMK AO2
14837KMSN MSN20010729020009507/29/01 02:00:31  5-MIN KMSN 290800Z 00000KT 3SM BR CLR 21/21 A2994 850 97 1800 000/00 RMK AO2
14837KMSN MSN20010729020509507/29/01 02:05:31  5-MIN KMSN 290805Z 00000KT 3SM BR CLR 21/21 A2993 850 97 1800 000/00 RMK AO2
14837KMSN MSN20010729021009507/29/01 02:10:31  5-MIN KMSN 290810Z 00000KT 3SM BR CLR 21/21 A2993 850 97 1800 000/00 RMK AO2
14837KMSN MSN20010729021509607/29/01 02:15:31  5-MIN KMSN 290815Z 00000KT 3SM BR CLR 20/20 A2994 850 100 1700 000/00 RMK AO2
14837KMSN MSN20010729022009507/29/01 02:20:31  5-MIN KMSN 290820Z 00000KT 3SM BR CLR 20/19 A2993 850 97 1700 000/00 RMK AO2
14837KMSN MSN20010729022509507/29/01 02:25:31  5-MIN KMSN 290825Z 00000KT 3SM BR CLR 21/20 A2993 850 97 1700 000/00 RMK AO2
14837KMSN MSN20010729023010507/29/01 02:30:31  5-MIN KMSN 290830Z 00000KT 2 1/2SM BR BCFG CLR 21/21 A2993 850 100 1700 000/00 RMK AO2
14837KMSN MSN20010729023510007/29/01 02:35:31  5-MIN KMSN 290835Z 00000KT 2SM BR BCFG CLR 21/20 A2993 850 97 1700 000/00 RMK AO2
14837KMSN MSN20010729024010007/29/01 02:40:31  5-MIN KMSN 290840Z 00000KT 2SM BR BCFG CLR 21/20 A2993 860 97 1700 000/00 RMK AO2
14837KMSN MSN20010729024510607/29/01 02:45:31  5-MIN KMSN 290845Z 00000KT 2SM BR BCFG CLR 21/20 A2993 850 97 1700 000/00 RMK AO2 P0001
14837KMSN MSN20010729025012407/29/01 02:50:31  5-MIN KMSN 290850Z 00000KT 1SM BR BCFG CLR 20/20 A2993 850 100 1700 000/00 RMK AO2 SLP131 T02000200 50000
14837KMSN MSN20010729025510107/29/01 02:55:31  5-MIN KMSN 290855Z 00000KT 1SM BR BCFG CLR 19/19 A2993 860 100 1600 000/00 RMK AO2
14837KMSN MSN20010729030010107/29/01 03:00:31  5-MIN KMSN 290900Z 00000KT 1SM BR BCFG CLR 19/19 A2993 860 100 1500 000/00 RMK AO2
14837KMSN MSN20010729030509807/29/01 03:05:31  5-MIN KMSN 290905Z 00000KT 1/2SM FG CLR 19/19 A2993 860 100 1500 000/00 RMK AO2
14837KMSN MSN20010729031009807/29/01 03:10:31  5-MIN KMSN 290910Z 00000KT 1/2SM FG CLR 19/19 A2993 860 100 1500 000/00 RMK AO2
14837KMSN MSN20010729031509807/29/01 03:15:31  5-MIN KMSN 290915Z 00000KT 1/4SM FG CLR 19/19 A2993 850 100 1500 000/00 RMK AO2
14837KMSN MSN20010729032009807/29/01 03:20:31  5-MIN KMSN 290920Z 28004KT 1/4SM FG CLR 19/19 A2993 850 100 1500 280/04 RMK AO2
14837KMSN MSN20010729032509707/29/01 03:25:31  5-MIN KMSN 290925Z 29004KT 1/4SM FG CLR 19/19 A2993 850 97 1600 290/04 RMK AO2
14837KMSN MSN20010729033009807/29/01 03:30:31  5-MIN KMSN 290930Z 00000KT 1/4SM FG CLR 20/20 A2993 850 100 1700 000/00 RMK AO2
14837KMSN MSN20010729033509807/29/01 03:35:31  5-MIN KMSN 290935Z 00000KT 1/4SM FG CLR 20/20 A2993 850 100 1700 000/00 RMK AO2
14837KMSN MSN20010729034009707/29/01 03:40:31  5-MIN KMSN 290940Z 00000KT 1/4SM FG CLR 20/19 A2993 850 97 1700 000/00 RMK AO2
14837KMSN MSN20010729034509807/29/01 03:45:31  5-MIN KMSN 290945Z 29003KT 1/4SM FG CLR 19/19 A2994 850 100 1600 280/03 RMK AO2
14837KMSN MSN20010729035011707/29/01 03:50:31  5-MIN KMSN 290950Z VRB03KT 1/4SM FG VV001 19/19 A2994 850 100 1600 VRB/03 RMK AO2 SLP134 T01940194
14837KMSN MSN20010729035510007/29/01 03:55:31  5-MIN KMSN 290955Z 00000KT 1/4SM FG VV001 19/19 A2994 840 100 1600 000/00 RMK AO2
14837KMSN MSN20010729040010007/29/01 04:00:31  5-MIN KMSN 291000Z 00000KT 1/4SM FG VV001 19/19 A2995 840 100 1600 000/00 RMK AO2
14837KMSN MSN20010729040510007/29/01 04:05:31  5-MIN KMSN 291005Z 00000KT 1/4SM FG VV001 19/19 A2995 840 100 1600 000/00 RMK AO2
14837KMSN MSN20010729041010807/29/01 04:10:31  5-MIN KMSN 291010Z 00000KT 1/4SM FG BKN001 OVC007 19/19 A2995 840 100 1600 000/00 RMK AO2
14837KMSN MSN20010729041510807/29/01 04:15:31  5-MIN KMSN 291015Z 00000KT 1/4SM FG BKN001 OVC007 19/19 A2995 840 100 1500 000/00 RMK AO2
14837KMSN MSN20010729042010807/29/01 04:20:31  5-MIN KMSN 291020Z 00000KT 1/4SM FG BKN001 OVC007 19/19 A2995 840 100 1500 000/00 RMK AO2
14837KMSN MSN20010729042510807/29/01 04:25:31  5-MIN KMSN 291025Z 00000KT 1/4SM FG BKN001 OVC007 19/19 A2995 840 100 1500 000/00 RMK AO2
14837KMSN MSN20010729043010107/29/01 04:30:31  5-MIN KMSN 291030Z 00000KT 1/4SM FG SCT007 19/19 A2995 830 100 1500 000/00 RMK AO2
14837KMSN MSN20010729043510007/29/01 04:35:31  5-MIN KMSN 291035Z 00000KT 1/4SM FG SCT007 19/18 A2995 840 97 1500 000/00 RMK AO2
14837KMSN MSN20010729044010107/29/01 04:40:31  5-MIN KMSN 291040Z 00000KT 1/4SM FG SCT007 18/18 A2995 840 100 1500 000/00 RMK AO2
14837KMSN MSN20010729044510107/29/01 04:45:31  5-MIN KMSN 291045Z 00000KT 1/4SM FG SCT007 18/18 A2995 840 100 1500 000/00 RMK AO2
14837KMSN MSN20010729045011707/29/01 04:50:31  5-MIN KMSN 291050Z 00000KT 1/4SM FG SCT007 19/18 A2995 840 97 1500 000/00 RMK AO2 SLP138 T01890183
14837KMSN MSN20010729045510107/29/01 04:55:31  5-MIN KMSN 291055Z 00000KT 1/2SM FG SCT035 18/18 A2995 830 100 1500 000/00 RMK AO2
14837KMSN MSN20010729050011107/29/01 05:00:31  5-MIN KMSN 291100Z 00000KT 1/2SM FG SCT035 18/18 A2996 830 100 1500 000/00 RMK AO2 TWR VIS 1
14837KMSN MSN20010729050511107/29/01 05:05:31  5-MIN KMSN 291105Z 00000KT 1/2SM FG SCT035 18/18 A2995 830 100 1500 000/00 RMK AO2 TWR VIS 1
14837KMSN MSN20010729051011107/29/01 05:10:31  5-MIN KMSN 291110Z 00000KT 1/2SM FG SCT035 18/18 A2996 830 100 1500 000/00 RMK AO2 TWR VIS 1
14837KMSN MSN20010729051510407/29/01 05:15:31  5-MIN KMSN 291115Z 00000KT 1SM BR BCFG BKN044 18/18 A2996 830 100 1500 000/00 RMK AO2
14837KMSN MSN20010729052010407/29/01 05:20:31  5-MIN KMSN 291120Z 00000KT 1SM BR BCFG BKN044 18/18 A2996 820 100 1400 000/00 RMK AO2
14837KMSN MSN20010729052510407/29/01 05:25:31  5-MIN KMSN 291125Z 00000KT 1SM BR BCFG BKN044 18/18 A2996 820 100 1400 000/00 RMK AO2
14837KMSN MSN20010729053010407/29/01 05:30:31  5-MIN KMSN 291130Z 00000KT 1SM BR BCFG BKN044 18/18 A2997 820 100 1400 000/00 RMK AO2
14837KMSN MSN20010729053510407/29/01 05:35:31  5-MIN KMSN 291135Z 00000KT 1SM BR BCFG BKN044 18/18 A2997 820 100 1400 000/00 RMK AO2
14837KMSN MSN20010729054010307/29/01 05:40:31  5-MIN KMSN 291140Z 00000KT 1SM BR BCFG BKN044 19/18 A2997 820 97 1500 000/00 RMK AO2
14837KMSN MSN20010729054510407/29/01 05:45:31  5-MIN KMSN 291145Z 28003KT 1SM BR BCFG BKN044 19/19 A2997 820 100 1500 280/03 RMK AO2
14837KMSN MSN20010729055014507/29/01 05:50:31  5-MIN KMSN 291150Z 00000KT 1SM BR BCFG BKN044 19/19 A2997 820 100 1600 000/00 RMK AO2 SLP142 70002 T01940194 10233 20183 56006
14837KMSN MSN20010729055510407/29/01 05:55:31  5-MIN KMSN 291155Z 25003KT 1SM BR BCFG BKN044 19/19 A2997 820 100 1600 250/03 RMK AO2
14837KMSN MSN20010729060010407/29/01 06:00:31  5-MIN KMSN 291200Z 00000KT 1SM BR BCFG BKN044 19/19 A2997 820 100 1600 000/00 RMK AO2
14837KMSN MSN20010729060511107/29/01 06:05:31  5-MIN KMSN 291205Z 00000KT 1SM BR BCFG FEW001 OVC044 19/19 A2997 820 100 1600 000/00 RMK AO2
14837KMSN MSN20010729061012307/29/01 06:10:31  5-MIN KMSN 291210Z 00000KT 3/4SM BR BCFG SCT001 OVC044 19/19 A2997 820 100 1600 000/00 RMK AO2 SFC VIS 1
14837KMSN MSN20010729061512307/29/01 06:15:31  5-MIN KMSN 291215Z 00000KT 3/4SM BR BCFG SCT001 OVC044 19/19 A2997 820 100 1600 000/00 RMK AO2 SFC VIS 1
14837KMSN MSN20010729062012307/29/01 06:20:31  5-MIN KMSN 291220Z 35003KT 3/4SM BR BCFG SCT001 OVC044 19/19 A2997 820 100 1600 350/03 RMK AO2 SFC VIS 1
14837KMSN MSN20010729062512307/29/01 06:25:31  5-MIN KMSN 291225Z 32004KT 3/4SM BR BCFG SCT003 OVC035 19/19 A2997 820 100 1600 320/04 RMK AO2 SFC VIS 1
14837KMSN MSN20010729063012707/29/01 06:30:31  5-MIN KMSN 291230Z 32006KT 3/4SM BR BCFG SCT003 OVC035 19/19 A2997 820 100 1600 320/06 RMK AO2 SFC VIS 1 1/4
14837KMSN MSN20010729063512707/29/01 06:35:31  5-MIN KMSN 291235Z 32005KT 3/4SM BR BCFG SCT003 OVC035 19/19 A2997 820 100 1600 320/05 RMK AO2 SFC VIS 1 1/4
14837KMSN MSN20010729064012307/29/01 06:40:31  5-MIN KMSN 291240Z 32006KT 3/4SM BR BCFG SCT001 OVC035 19/19 A2998 810 100 1600 320/06 RMK AO2 SFC VIS 1
14837KMSN MSN20010729064512307/29/01 06:45:31  5-MIN KMSN 291245Z VRB04KT 3/4SM BR BCFG SCT001 OVC015 19/19 A2998 810 100 1600 VRB/04 RMK AO2 SFC VIS 1
14837KMSN MSN20010729065012807/29/01 06:50:31  5-MIN KMSN 291250Z 34007KT 1SM BR BCFG SCT001 OVC015 19/19 A2998 810 100 1600 340/07 RMK AO2 SLP149 T01940194
14837KMSN MSN20010729065511107/29/01 06:55:31  5-MIN KMSN 291255Z 34006KT 1SM BR BCFG SCT001 OVC015 19/19 A2998 810 100 1600 340/06 RMK AO2
14837KMSN MSN20010729070011007/29/01 07:00:31  5-MIN KMSN 291300Z 36006KT 1SM BR BCFG SCT001 OVC015 20/19 A2998 810 97 1600 360/06 RMK AO2
14837KMSN MSN20010729070511107/29/01 07:05:31  5-MIN KMSN 291305Z 01006KT 1SM BR BCFG SCT001 OVC015 20/20 A2998 810 100 1600 010/06 RMK AO2
14837KMSN MSN20010729071011107/29/01 07:10:31  5-MIN KMSN 291310Z 01006KT 1SM BR BCFG SCT001 OVC015 20/20 A2998 810 100 1600 010/06 RMK AO2
14837KMSN MSN20010729071511107/29/01 07:15:31  5-MIN KMSN 291315Z 01006KT 1SM BR BCFG SCT001 OVC015 20/20 A2998 810 100 1600 010/06 RMK AO2
14837KMSN MSN20010729072011107/29/01 07:20:31  5-MIN KMSN 291320Z 35004KT 1SM BR BCFG SCT001 OVC015 20/20 A2998 810 100 1600 350/04 RMK AO2
14837KMSN MSN20010729072511107/29/01 07:25:31  5-MIN KMSN 291325Z 02006KT 1SM BR BCFG SCT001 OVC015 20/20 A2998 810 100 1600 020/06 RMK AO2
14837KMSN MSN20010729073011107/29/01 07:30:31  5-MIN KMSN 291330Z 01006KT 1SM BR BCFG SCT001 OVC015 20/20 A2998 810 100 1600 010/06 RMK AO2
14837KMSN MSN20010729073511107/29/01 07:35:31  5-MIN KMSN 291335Z 01006KT 1SM BR BCFG SCT001 OVC015 20/20 A2998 810 100 1600 010/06 RMK AO2
14837KMSN MSN20010729074011107/29/01 07:40:31  5-MIN KMSN 291340Z 01006KT 1SM BR BCFG SCT001 OVC015 20/20 A2998 810 100 1600 010/06 RMK AO2
14837KMSN MSN20010729074511107/29/01 07:45:31  5-MIN KMSN 291345Z 01006KT 1SM BR BCFG SCT001 OVC015 20/20 A2998 810 100 1600 010/06 RMK AO2
14837KMSN MSN20010729075012807/29/01 07:50:31  5-MIN KMSN 291350Z 01005KT 1SM BR BCFG SCT001 OVC015 20/20 A2998 810 100 1600 010/05 RMK AO2 SLP149 T02000200
14837KMSN MSN20010729075510007/29/01 07:55:31  5-MIN KMSN 291355Z 36004KT 4SM BR OVC003 21/20 A2998 810 97 1700 360/04 RMK AO2 $
14837KMSN MSN20010729080010007/29/01 08:00:31  5-MIN KMSN 291400Z 36004KT 4SM BR OVC003 21/20 A2998 810 97 1700 360/04 RMK AO2 $
14837KMSN MSN20010729080511207/29/01 08:05:31  5-MIN KMSN 291405Z 02006KT 4SM BR OVC003 21/20 A2998 810 93 1700 010/06 RMK AO2 CIG 003V007 $
14837KMSN MSN20010729081010007/29/01 08:10:31  5-MIN KMSN 291410Z 01005KT 5SM BR OVC005 21/20 A2998 810 93 1700 010/05 RMK AO2 $
14837KMSN MSN20010729081510007/29/01 08:15:31  5-MIN KMSN 291415Z 36005KT 5SM BR OVC005 21/20 A2999 800 93 1700 360/05 RMK AO2 $
14837KMSN MSN20010729082010007/29/01 08:20:31  5-MIN KMSN 291420Z 02007KT 5SM BR OVC005 21/20 A2999 800 93 1700 020/07 RMK AO2 $
14837KMSN MSN20010729082510007/29/01 08:25:31  5-MIN KMSN 291425Z 01007KT 6SM BR OVC005 21/19 A2999 800 90 1700 010/07 RMK AO2 $
14837KMSN MSN20010729083009707/29/01 08:30:31  5-MIN KMSN 291430Z VRB05KT 7SM OVC005 21/19 A2999 800 90 1700 VRB/05 RMK AO2 $
14837KMSN MSN20010729083510907/29/01 08:35:31  5-MIN KMSN 291435Z 32004KT 7SM OVC007 21/19 A2999 800 90 1700 320/04 RMK AO2 CIG 005V010 $
14837KMSN MSN20010729084010907/29/01 08:40:31  5-MIN KMSN 291440Z 35004KT 7SM OVC007 21/19 A2999 800 90 1700 350/04 RMK AO2 CIG 005V010 $
14837KMSN MSN20010729084510907/29/01 08:45:31  5-MIN KMSN 291445Z 01004KT 7SM OVC007 22/19 A2999 800 87 1800 010/04 RMK AO2 CIG 006V011 $
14837KMSN MSN20010729085013207/29/01 08:50:31  5-MIN KMSN 291450Z 33004KT 7SM OVC007 22/19 A2999 800 87 1800 330/04 RMK AO2 CIG 007V012 SLP149 T02170194 53012 $
14837KMSN MSN20010729085510907/29/01 08:55:31  5-MIN KMSN 291455Z 02005KT 7SM OVC009 22/19 A2999 800 87 1800 020/05 RMK AO2 CIG 007V012 $
14837KMSN MSN20010729090009707/29/01 09:00:31  5-MIN KMSN 291500Z 03005KT 7SM OVC009 22/19 A2999 800 87 1800 030/05 RMK AO2 $
14837KMSN MSN20010729090510907/29/01 09:05:31  5-MIN KMSN 291505Z 36005KT 8SM OVC009 23/19 A2999 800 81 1900 360/05 RMK AO2 CIG 008V013 $
14837KMSN MSN20010729091009507/29/01 09:10:31  5-MIN KMSN 291510Z 36003KT 8SM OVC011 22/19 A2999 800 84 1900 350/03 RMK AO2
14837KMSN MSN20010729091509507/29/01 09:15:31  5-MIN KMSN 291515Z VRB03KT 8SM OVC011 23/19 A2998 800 81 1900 VRB/03 RMK AO2
14837KMSN MSN20010729092009507/29/01 09:20:31  5-MIN KMSN 291520Z VRB04KT 8SM OVC011 23/19 A2998 810 81 1900 VRB/04 RMK AO2
14837KMSN MSN20010729092509507/29/01 09:25:31  5-MIN KMSN 291525Z 04004KT 8SM OVC011 23/20 A2998 810 81 2000 040/04 RMK AO2
14837KMSN MSN20010729093009507/29/01 09:30:31  5-MIN KMSN 291530Z 00000KT 8SM BKN011 23/19 A2998 810 81 1900 000/00 RMK AO2
14837KMSN MSN20010729093509507/29/01 09:35:31  5-MIN KMSN 291535Z 00000KT 8SM BKN011 23/19 A2998 810 81 1900 000/00 RMK AO2
14837KMSN MSN20010729094009507/29/01 09:40:31  5-MIN KMSN 291540Z 00000KT 9SM SCT011 23/19 A2998 810 78 2000 000/00 RMK AO2
14837KMSN MSN20010729094509507/29/01 09:45:31  5-MIN KMSN 291545Z 00000KT 9SM SCT011 23/19 A2999 800 78 2000 000/00 RMK AO2
14837KMSN MSN20010729095011207/29/01 09:50:31  5-MIN KMSN 291550Z VRB03KT 9SM SCT013 24/20 A2999 800 78 2100 VRB/03 RMK AO2 SLP149 T02390200
14837KMSN MSN20010729095509507/29/01 09:55:31  5-MIN KMSN 291555Z 00000KT 8SM SCT015 24/19 A2999 800 76 2100 000/00 RMK AO2
14837KMSN MSN20010729100009507/29/01 10:00:31  5-MIN KMSN 291600Z 00000KT 9SM BKN015 24/20 A2999 800 76 2100 000/00 RMK AO2
14837KMSN MSN20010729100509507/29/01 10:05:31  5-MIN KMSN 291605Z 36004KT 9SM BKN015 24/20 A2999 800 78 2100 360/04 RMK AO2
14837KMSN MSN20010729101009607/29/01 10:10:31  5-MIN KMSN 291610Z VRB03KT 10SM BKN015 24/19 A2999 800 76 2000 VRB/03 RMK AO2
14837KMSN MSN20010729101509607/29/01 10:15:31  5-MIN KMSN 291615Z 01006KT 10SM BKN015 24/19 A2999 800 76 2000 010/06 RMK AO2
14837KMSN MSN20010729102009607/29/01 10:20:31  5-MIN KMSN 291620Z 05004KT 10SM BKN015 24/20 A3000 790 78 2000 050/04 RMK AO2
14837KMSN MSN20010729102509607/29/01 10:25:31  5-MIN KMSN 291625Z 33006KT 10SM BKN015 24/20 A3000 790 76 2100 330/06 RMK AO2
14837KMSN MSN20010729103009607/29/01 10:30:31  5-MIN KMSN 291630Z VRB03KT 10SM BKN015 24/19 A3000 790 73 2100 VRB/03 RMK AO2
14837KMSN MSN20010729103509607/29/01 10:35:31  5-MIN KMSN 291635Z 36005KT 10SM FEW015 25/20 A3000 790 73 2200 360/05 RMK AO2
14837KMSN MSN20010729104009607/29/01 10:40:31  5-MIN KMSN 291640Z VRB04KT 10SM FEW015 26/20 A2999 800 71 2200 VRB/04 RMK AO2
14837KMSN MSN20010729104509607/29/01 10:45:31  5-MIN KMSN 291645Z VRB03KT 10SM FEW017 26/20 A2999 800 71 2200 VRB/03 RMK AO2
14837KMSN MSN20010729105011307/29/01 10:50:31  5-MIN KMSN 291650Z 31005KT 10SM FEW017 26/20 A2999 800 71 2200 310/05 RMK AO2 SLP150 T02560200
14837KMSN MSN20010729105509207/29/01 10:55:31  5-MIN KMSN 291655Z VRB04KT 9SM CLR 26/20 A2999 800 71 2200 VRB/04 RMK AO2
14837KMSN MSN20010729110009307/29/01 11:00:31  5-MIN KMSN 291700Z VRB03KT 10SM CLR 26/19 A2999 800 68 2200 VRB/03 RMK AO2
14837KMSN MSN20010729110509307/29/01 11:05:31  5-MIN KMSN 291705Z 00000KT 10SM CLR 26/19 A2998 810 66 2300 000/00 RMK AO2
14837KMSN MSN20010729111009307/29/01 11:10:31  5-MIN KMSN 291710Z 32004KT 10SM CLR 26/19 A2998 810 66 2300 320/04 RMK AO2
14837KMSN MSN20010729111509307/29/01 11:15:31  5-MIN KMSN 291715Z VRB03KT 10SM CLR 25/19 A2998 810 68 2200 VRB/03 RMK AO2
14837KMSN MSN20010729112009307/29/01 11:20:31  5-MIN KMSN 291720Z 29003KT 10SM CLR 26/19 A2998 810 66 2300 290/03 RMK AO2
14837KMSN MSN20010729112509607/29/01 11:25:31  5-MIN KMSN 291725Z 00000KT 10SM FEW029 26/18 A2998 810 64 2300 000/00 RMK AO2
14837KMSN MSN20010729113009607/29/01 11:30:31  5-MIN KMSN 291730Z 00000KT 10SM SCT029 26/19 A2998 810 66 2300 000/00 RMK AO2
14837KMSN MSN20010729113509607/29/01 11:35:31  5-MIN KMSN 291735Z VRB04KT 10SM SCT029 26/19 A2998 810 66 2300 VRB/04 RMK AO2
14837KMSN MSN20010729114009607/29/01 11:40:31  5-MIN KMSN 291740Z 28004KT 10SM SCT029 26/19 A2998 810 64 2300 280/04 RMK AO2
14837KMSN MSN20010729114509607/29/01 11:45:31  5-MIN KMSN 291745Z 00000KT 10SM SCT029 26/18 A2998 810 62 2300 000/00 RMK AO2
14837KMSN MSN20010729115013807/29/01 11:50:31  5-MIN KMSN 291750Z 34004KT 10SM FEW029 SCT034 26/18 A2998 810 64 2300 340/04 RMK AO2 SLP147 T02560183 10267 20194 51007
14837KMSN MSN20010729115509607/29/01 11:55:31  5-MIN KMSN 291755Z 29004KT 10SM SCT031 26/18 A2998 810 64 2300 290/04 RMK AO2
14837KMSN MSN20010729120009607/29/01 12:00:31  5-MIN KMSN 291800Z VRB05KT 10SM FEW033 26/19 A2998 810 64 2300 VRB/05 RMK AO2
14837KMSN MSN20010729120509607/29/01 12:05:31  5-MIN KMSN 291805Z VRB05KT 10SM FEW033 26/18 A2998 810 62 2300 VRB/05 RMK AO2
14837KMSN MSN20010729121009607/29/01 12:10:31  5-MIN KMSN 291810Z VRB05KT 10SM FEW033 26/19 A2998 810 66 2200 VRB/05 RMK AO2
14837KMSN MSN20010729121509607/29/01 12:15:31  5-MIN KMSN 291815Z VRB04KT 10SM SCT033 27/20 A2998 810 66 2400 VRB/04 RMK AO2
14837KMSN MSN20010729122009607/29/01 12:20:31  5-MIN KMSN 291820Z VRB05KT 10SM SCT031 28/20 A2998 810 62 2500 VRB/05 RMK AO2
14837KMSN MSN20010729122509607/29/01 12:25:31  5-MIN KMSN 291825Z 00000KT 10SM SCT031 27/19 A2998 810 62 2400 000/00 RMK AO2
14837KMSN MSN20010729123010307/29/01 12:30:31  5-MIN KMSN 291830Z 27005KT 10SM SCT028 BKN037 26/19 A2998 810 66 2300 270/05 RMK AO2
14837KMSN MSN20010729123509607/29/01 12:35:31  5-MIN KMSN 291835Z VRB05KT 10SM BKN028 26/19 A2998 810 68 2300 VRB/05 RMK AO2
14837KMSN MSN20010729124009607/29/01 12:40:31  5-MIN KMSN 291840Z VRB04KT 10SM BKN028 27/19 A2998 810 64 2400 VRB/04 RMK AO2
14837KMSN MSN20010729124509607/29/01 12:45:31  5-MIN KMSN 291845Z VRB04KT 10SM SCT030 26/18 A2998 810 62 2300 VRB/04 RMK AO2
14837KMSN MSN20010729125011307/29/01 12:50:31  5-MIN KMSN 291850Z 31004KT 10SM SCT030 26/18 A2998 810 62 2300 310/04 RMK AO2 SLP146 T02610183
14837KMSN MSN20010729125509607/29/01 12:55:31  5-MIN KMSN 291855Z VRB04KT 10SM SCT030 27/19 A2998 810 62 2400 VRB/04 RMK AO2
14837KMSN MSN20010729130009607/29/01 13:00:31  5-MIN KMSN 291900Z VRB04KT 10SM FEW030 27/19 A2997 820 60 2400 VRB/04 RMK AO2
14837KMSN MSN20010729130509307/29/01 13:05:31  5-MIN KMSN 291905Z 00000KT 10SM CLR 27/18 A2997 820 60 2400 000/00 RMK AO2
14837KMSN MSN20010729131009307/29/01 13:10:31  5-MIN KMSN 291910Z VRB03KT 10SM CLR 27/18 A2997 820 57 2400 VRB/03 RMK AO2
14837KMSN MSN20010729131509307/29/01 13:15:31  5-MIN KMSN 291915Z VRB04KT 10SM CLR 27/18 A2997 820 58 2400 VRB/04 RMK AO2
14837KMSN MSN20010729132009307/29/01 13:20:31  5-MIN KMSN 291920Z 00000KT 10SM CLR 28/18 A2997 820 54 2500 000/00 RMK AO2
14837KMSN MSN20010729132509307/29/01 13:25:31  5-MIN KMSN 291925Z 31007KT 10SM CLR 28/18 A2997 820 54 2600 310/07 RMK AO2
14837KMSN MSN20010729133009307/29/01 13:30:31  5-MIN KMSN 291930Z VRB04KT 10SM CLR 28/18 A2997 820 54 2500 VRB/04 RMK AO2
14837KMSN MSN20010729133509307/29/01 13:35:31  5-MIN KMSN 291935Z VRB04KT 10SM CLR 28/18 A2997 820 54 2600 VRB/04 RMK AO2
14837KMSN MSN20010729134009307/29/01 13:40:31  5-MIN KMSN 291940Z 35005KT 10SM CLR 28/18 A2997 820 54 2500 340/05 RMK AO2
14837KMSN MSN20010729134509307/29/01 13:45:31  5-MIN KMSN 291945Z VRB05KT 10SM CLR 28/18 A2997 820 54 2500 VRB/05 RMK AO2
14837KMSN MSN20010729135011007/29/01 13:50:31  5-MIN KMSN 291950Z VRB04KT 10SM CLR 28/17 A2997 820 52 2500 VRB/04 RMK AO2 SLP141 T02780172
14837KMSN MSN20010729135509307/29/01 13:55:31  5-MIN KMSN 291955Z 00000KT 10SM CLR 28/17 A2997 820 50 2600 000/00 RMK AO2
14837KMSN MSN20010729140009307/29/01 14:00:31  5-MIN KMSN 292000Z 35005KT 10SM CLR 28/17 A2996 820 52 2500 350/05 RMK AO2
14837KMSN MSN20010729140509307/29/01 14:05:31  5-MIN KMSN 292005Z VRB06KT 10SM CLR 28/18 A2997 820 52 2600 VRB/06 RMK AO2
14837KMSN MSN20010729141009307/29/01 14:10:31  5-MIN KMSN 292010Z 32005KT 10SM CLR 28/17 A2997 820 52 2500 320/05 RMK AO2
14837KMSN MSN20010729141509307/29/01 14:15:31  5-MIN KMSN 292015Z VRB03KT 10SM CLR 28/17 A2997 820 52 2500 VRB/03 RMK AO2
14837KMSN MSN20010729142009607/29/01 14:20:31  5-MIN KMSN 292020Z 33004KT 10SM FEW043 28/18 A2997 820 52 2600 330/04 RMK AO2
14837KMSN MSN20010729142509607/29/01 14:25:31  5-MIN KMSN 292025Z 34005KT 10SM FEW043 28/18 A2997 820 52 2600 340/05 RMK AO2
14837KMSN MSN20010729143009307/29/01 14:30:31  5-MIN KMSN 292030Z VRB06KT 10SM CLR 28/18 A2997 820 54 2500 VRB/06 RMK AO2
14837KMSN MSN20010729143509607/29/01 14:35:31  5-MIN KMSN 292035Z 34004KT 10SM FEW042 27/18 A2997 820 58 2500 340/04 RMK AO2
14837KMSN MSN20010729144009607/29/01 14:40:31  5-MIN KMSN 292040Z 00000KT 10SM FEW042 28/18 A2996 820 54 2600 000/00 RMK AO2
14837KMSN MSN20010729144509607/29/01 14:45:31  5-MIN KMSN 292045Z 33007KT 10SM FEW042 28/18 A2996 820 54 2600 330/07 RMK AO2
14837KMSN MSN20010729145011607/29/01 14:50:31  5-MIN KMSN 292050Z VRB05KT 10SM CLR 28/18 A2996 820 54 2600 VRB/05 RMK AO2 SLP141 T02830183 58002
14837KMSN MSN20010729145509307/29/01 14:55:31  5-MIN KMSN 292055Z 29006KT 10SM CLR 28/18 A2996 830 56 2500 290/06 RMK AO2
14837KMSN MSN20010729150009307/29/01 15:00:31  5-MIN KMSN 292100Z VRB04KT 10SM CLR 28/18 A2996 830 54 2500 VRB/04 RMK AO2
14837KMSN MSN20010729150509307/29/01 15:05:31  5-MIN KMSN 292105Z VRB04KT 10SM CLR 28/18 A2996 830 54 2500 VRB/04 RMK AO2
14837KMSN MSN20010729151009307/29/01 15:10:31  5-MIN KMSN 292110Z VRB04KT 10SM CLR 28/18 A2996 830 56 2500 VRB/04 RMK AO2
14837KMSN MSN20010729151510907/29/01 15:15:31  5-MIN KMSN 292115Z 28007KT 250V320 10SM CLR 28/18 A2996 830 54 2600 280/07 250V320 RMK AO2
14837KMSN MSN20010729152009307/29/01 15:20:31  5-MIN KMSN 292120Z VRB03KT 10SM CLR 28/18 A2996 830 56 2500 VRB/03 RMK AO2
14837KMSN MSN20010729152509307/29/01 15:25:31  5-MIN KMSN 292125Z VRB05KT 10SM CLR 28/18 A2996 830 54 2600 VRB/05 RMK AO2
14837KMSN MSN20010729153009307/29/01 15:30:31  5-MIN KMSN 292130Z VRB04KT 10SM CLR 28/18 A2996 830 52 2600 VRB/04 RMK AO2
14837KMSN MSN20010729153509307/29/01 15:35:31  5-MIN KMSN 292135Z VRB05KT 10SM CLR 28/18 A2996 830 54 2600 VRB/05 RMK AO2
14837KMSN MSN20010729154009307/29/01 15:40:31  5-MIN KMSN 292140Z 29004KT 10SM CLR 28/18 A2996 830 54 2500 290/04 RMK AO2
14837KMSN MSN20010729154509307/29/01 15:45:31  5-MIN KMSN 292145Z 35004KT 10SM CLR 28/18 A2996 830 54 2600 350/04 RMK AO2
14837KMSN MSN20010729155011307/29/01 15:50:31  5-MIN KMSN 292150Z 34005KT 10SM FEW042 28/18 A2996 830 52 2600 340/05 RMK AO2 SLP140 T02830178
14837KMSN MSN20010729155509307/29/01 15:55:31  5-MIN KMSN 292155Z 27005KT 10SM CLR 28/18 A2996 830 54 2600 270/05 RMK AO2
14837KMSN MSN20010729160009307/29/01 16:00:31  5-MIN KMSN 292200Z 32004KT 10SM CLR 28/18 A2996 830 54 2500 320/04 RMK AO2
14837KMSN MSN20010729160509307/29/01 16:05:31  5-MIN KMSN 292205Z VRB03KT 10SM CLR 28/18 A2996 830 52 2600 VRB/03 RMK AO2
14837KMSN MSN20010729161009307/29/01 16:10:31  5-MIN KMSN 292210Z 27005KT 10SM CLR 28/18 A2996 830 54 2500 270/05 RMK AO2
14837KMSN MSN20010729161509607/29/01 16:15:31  5-MIN KMSN 292215Z VRB04KT 10SM FEW040 28/18 A2995 830 54 2600 VRB/04 RMK AO2
14837KMSN MSN20010729162009607/29/01 16:20:31  5-MIN KMSN 292220Z 31006KT 10SM FEW040 28/18 A2995 840 54 2600 310/06 RMK AO2
14837KMSN MSN20010729162509607/29/01 16:25:31  5-MIN KMSN 292225Z VRB03KT 10SM FEW040 28/18 A2995 840 54 2500 VRB/03 RMK AO2
14837KMSN MSN20010729163009607/29/01 16:30:31  5-MIN KMSN 292230Z 33004KT 10SM FEW040 28/18 A2995 830 54 2600 320/04 RMK AO2
14837KMSN MSN20010729163509607/29/01 16:35:31  5-MIN KMSN 292235Z 35004KT 10SM FEW040 28/18 A2995 830 54 2600 350/04 RMK AO2
14837KMSN MSN20010729164009607/29/01 16:40:31  5-MIN KMSN 292240Z 36005KT 10SM FEW040 28/19 A2995 830 56 2600 360/05 RMK AO2
14837KMSN MSN20010729164509607/29/01 16:45:31  5-MIN KMSN 292245Z 36005KT 10SM FEW040 28/19 A2995 830 56 2600 360/05 RMK AO2
14837KMSN MSN20010729165011307/29/01 16:50:31  5-MIN KMSN 292250Z VRB04KT 10SM FEW040 28/19 A2995 830 58 2500 VRB/04 RMK AO2 SLP138 T02780189
14837KMSN MSN20010729165509307/29/01 16:55:31  5-MIN KMSN 292255Z VRB04KT 10SM CLR 28/19 A2995 840 58 2500 VRB/04 RMK AO2
14837KMSN MSN20010729170009307/29/01 17:00:31  5-MIN KMSN 292300Z 33005KT 10SM CLR 28/19 A2995 840 58 2500 330/05 RMK AO2
14837KMSN MSN20010729170509307/29/01 17:05:31  5-MIN KMSN 292305Z VRB04KT 10SM CLR 28/19 A2995 840 58 2500 VRB/04 RMK AO2
14837KMSN MSN20010729171009307/29/01 17:10:31  5-MIN KMSN 292310Z 31004KT 10SM CLR 28/19 A2995 840 58 2500 310/04 RMK AO2
14837KMSN MSN20010729171509307/29/01 17:15:31  5-MIN KMSN 292315Z 33004KT 10SM CLR 28/19 A2995 840 58 2500 330/04 RMK AO2
14837KMSN MSN20010729172009307/29/01 17:20:31  5-MIN KMSN 292320Z 35004KT 10SM CLR 28/19 A2995 840 58 2500 350/04 RMK AO2
14837KMSN MSN20010729172509307/29/01 17:25:31  5-MIN KMSN 292325Z 35005KT 10SM CLR 28/19 A2995 840 58 2500 350/05 RMK AO2
14837KMSN MSN20010729173009307/29/01 17:30:31  5-MIN KMSN 292330Z 35004KT 10SM CLR 28/19 A2995 840 58 2500 350/04 RMK AO2
14837KMSN MSN20010729173509307/29/01 17:35:31  5-MIN KMSN 292335Z 33004KT 10SM CLR 28/19 A2995 840 58 2500 330/04 RMK AO2
14837KMSN MSN20010729174009307/29/01 17:40:31  5-MIN KMSN 292340Z 32003KT 10SM CLR 28/18 A2995 840 56 2500 320/03 RMK AO2
14837KMSN MSN20010729174509307/29/01 17:45:31  5-MIN KMSN 292345Z 34004KT 10SM CLR 28/19 A2995 840 58 2500 340/04 RMK AO2
14837KMSN MSN20010729175012807/29/01 17:50:31  5-MIN KMSN 292350Z 33004KT 10SM CLR 27/19 A2994 840 60 2500 330/04 RMK AO2 SLP135 T02720189 10283 20256 56006
14837KMSN MSN20010729175509307/29/01 17:55:31  5-MIN KMSN 292355Z 33003KT 10SM CLR 27/18 A2994 840 58 2500 330/03 RMK AO2
14837KMSN MSN20010729180009307/29/01 18:00:31  5-MIN KMSN 300000Z 00000KT 10SM CLR 27/19 A2994 840 60 2500 000/00 RMK AO2
14837KMSN MSN20010729180509307/29/01 18:05:31  5-MIN KMSN 300005Z 00000KT 10SM CLR 27/19 A2994 840 60 2500 000/00 RMK AO2
14837KMSN MSN20010729181009307/29/01 18:10:31  5-MIN KMSN 300010Z 01003KT 10SM CLR 27/19 A2994 840 62 2500 360/03 RMK AO2
14837KMSN MSN20010729181509307/29/01 18:15:31  5-MIN KMSN 300015Z 36003KT 10SM CLR 27/20 A2994 840 66 2400 360/03 RMK AO2
14837KMSN MSN20010729182009307/29/01 18:20:31  5-MIN KMSN 300020Z 01003KT 10SM CLR 26/21 A2994 840 71 2400 010/03 RMK AO2
14837KMSN MSN20010729182509307/29/01 18:25:31  5-MIN KMSN 300025Z 36003KT 10SM CLR 26/21 A2994 840 71 2400 360/03 RMK AO2
14837KMSN MSN20010729183009307/29/01 18:30:31  5-MIN KMSN 300030Z 00000KT 10SM CLR 26/20 A2995 840 71 2300 000/00 RMK AO2
14837KMSN MSN20010729183509307/29/01 18:35:31  5-MIN KMSN 300035Z 36003KT 10SM CLR 25/20 A2995 840 73 2200 360/03 RMK AO2
14837KMSN MSN20010729184009307/29/01 18:40:31  5-MIN KMSN 300040Z 35003KT 10SM CLR 26/20 A2995 840 71 2300 350/03 RMK AO2
14837KMSN MSN20010729184509307/29/01 18:45:31  5-MIN KMSN 300045Z 00000KT 10SM CLR 24/20 A2995 840 76 2200 000/00 RMK AO2
14837KMSN MSN20010729185011007/29/01 18:50:31  5-MIN KMSN 300050Z 00000KT 10SM CLR 24/20 A2995 840 78 2100 000/00 RMK AO2 SLP138 T02390200
14837KMSN MSN20010729185509307/29/01 18:55:31  5-MIN KMSN 300055Z 00000KT 10SM CLR 24/19 A2995 830 76 2100 000/00 RMK AO2
14837KMSN MSN20010729190009307/29/01 19:00:31  5-MIN KMSN 300100Z 00000KT 10SM CLR 23/19 A2996 830 78 2000 000/00 RMK AO2
14837KMSN MSN20010729190509307/29/01 19:05:31  5-MIN KMSN 300105Z 00000KT 10SM CLR 23/19 A2996 830 81 2000 000/00 RMK AO2
14837KMSN MSN20010729191009307/29/01 19:10:31  5-MIN KMSN 300110Z 00000KT 10SM CLR 23/19 A2996 830 81 2000 000/00 RMK AO2
14837KMSN MSN20010729191509307/29/01 19:15:31  5-MIN KMSN 300115Z 00000KT 10SM CLR 23/19 A2996 830 81 2000 000/00 RMK AO2
14837KMSN MSN20010729192009307/29/01 19:20:31  5-MIN KMSN 300120Z 00000KT 10SM CLR 23/20 A2996 830 84 2000 000/00 RMK AO2
14837KMSN MSN20010729192509307/29/01 19:25:31  5-MIN KMSN 300125Z 00000KT 10SM CLR 22/20 A2996 820 87 1900 000/00 RMK AO2
14837KMSN MSN20010729193009307/29/01 19:30:31  5-MIN KMSN 300130Z 00000KT 10SM CLR 22/20 A2997 820 87 1900 000/00 RMK AO2
14837KMSN MSN20010729193509307/29/01 19:35:31  5-MIN KMSN 300135Z 00000KT 10SM CLR 22/19 A2997 820 84 1900 000/00 RMK AO2
14837KMSN MSN20010729194009307/29/01 19:40:31  5-MIN KMSN 300140Z 00000KT 10SM CLR 22/19 A2997 820 84 1900 000/00 RMK AO2
14837KMSN MSN20010729194509307/29/01 19:45:31  5-MIN KMSN 300145Z 00000KT 10SM CLR 22/19 A2997 820 87 1800 000/00 RMK AO2
14837KMSN MSN20010729195011007/29/01 19:50:31  5-MIN KMSN 300150Z 00000KT 10SM CLR 22/19 A2997 820 87 1800 000/00 RMK AO2 SLP144 T02170194
14837KMSN MSN20010729195509307/29/01 19:55:31  5-MIN KMSN 300155Z 00000KT 10SM CLR 21/19 A2997 820 90 1800 000/00 RMK AO2
14837KMSN MSN20010729200009307/29/01 20:00:31  5-MIN KMSN 300200Z 00000KT 10SM CLR 21/19 A2997 820 87 1800 000/00 RMK AO2
14837KMSN MSN20010729200509307/29/01 20:05:31  5-MIN KMSN 300205Z 00000KT 10SM CLR 21/19 A2997 820 87 1800 000/00 RMK AO2
14837KMSN MSN20010729201009307/29/01 20:10:31  5-MIN KMSN 300210Z 00000KT 10SM CLR 21/19 A2998 810 87 1800 000/00 RMK AO2
14837KMSN MSN20010729201509307/29/01 20:15:31  5-MIN KMSN 300215Z 00000KT 10SM CLR 21/19 A2998 810 87 1800 000/00 RMK AO2
14837KMSN MSN20010729202009307/29/01 20:20:31  5-MIN KMSN 300220Z 00000KT 10SM CLR 21/19 A2998 810 90 1800 000/00 RMK AO2
14837KMSN MSN20010729202509307/29/01 20:25:31  5-MIN KMSN 300225Z 00000KT 10SM CLR 22/19 A2998 810 84 1800 000/00 RMK AO2
14837KMSN MSN20010729203009307/29/01 20:30:31  5-MIN KMSN 300230Z 00000KT 10SM CLR 21/19 A2998 810 90 1700 000/00 RMK AO2
14837KMSN MSN20010729203509307/29/01 20:35:31  5-MIN KMSN 300235Z 00000KT 10SM CLR 21/19 A2998 810 90 1700 000/00 RMK AO2
14837KMSN MSN20010729204009307/29/01 20:40:31  5-MIN KMSN 300240Z 11004KT 10SM CLR 21/18 A2998 810 84 1700 110/04 RMK AO2
14837KMSN MSN20010729204509307/29/01 20:45:31  5-MIN KMSN 300245Z 00000KT 10SM CLR 22/19 A2998 810 84 1800 000/00 RMK AO2
14837KMSN MSN20010729205011607/29/01 20:50:31  5-MIN KMSN 300250Z 00000KT 10SM CLR 22/19 A2998 810 84 1800 000/00 RMK AO2 SLP149 T02170189 58006
14837KMSN MSN20010729205509307/29/01 20:55:31  5-MIN KMSN 300255Z 00000KT 10SM CLR 21/18 A2998 810 87 1700 000/00 RMK AO2
14837KMSN MSN20010729210009307/29/01 21:00:31  5-MIN KMSN 300300Z 00000KT 10SM CLR 21/18 A2998 810 87 1700 000/00 RMK AO2
14837KMSN MSN20010729210509307/29/01 21:05:31  5-MIN KMSN 300305Z 00000KT 10SM CLR 21/18 A2998 810 87 1700 000/00 RMK AO2
14837KMSN MSN20010729211009307/29/01 21:10:31  5-MIN KMSN 300310Z 00000KT 10SM CLR 19/18 A2998 810 93 1600 000/00 RMK AO2
14837KMSN MSN20010729211509307/29/01 21:15:31  5-MIN KMSN 300315Z 00000KT 10SM CLR 19/18 A2999 800 97 1500 000/00 RMK AO2
14837KMSN MSN20010729212009307/29/01 21:20:31  5-MIN KMSN 300320Z 00000KT 10SM CLR 19/18 A2999 800 93 1500 000/00 RMK AO2
14837KMSN MSN20010729212509307/29/01 21:25:31  5-MIN KMSN 300325Z 00000KT 10SM CLR 19/18 A2999 800 93 1500 000/00 RMK AO2
14837KMSN MSN20010729213009307/29/01 21:30:31  5-MIN KMSN 300330Z 00000KT 10SM CLR 19/18 A2999 800 93 1500 000/00 RMK AO2
14837KMSN MSN20010729213509307/29/01 21:35:31  5-MIN KMSN 300335Z 00000KT 10SM CLR 19/18 A2999 800 93 1500 000/00 RMK AO2
14837KMSN MSN20010729214009307/29/01 21:40:31  5-MIN KMSN 300340Z 00000KT 10SM CLR 19/18 A2999 800 93 1500 000/00 RMK AO2
14837KMSN MSN20010729214509307/29/01 21:45:31  5-MIN KMSN 300345Z 00000KT 10SM CLR 19/18 A3000 790 93 1500 000/00 RMK AO2
14837KMSN MSN20010729215011007/29/01 21:50:31  5-MIN KMSN 300350Z 00000KT 10SM CLR 19/18 A3000 790 93 1500 000/00 RMK AO2 SLP153 T01940183
14837KMSN MSN20010729215509307/29/01 21:55:31  5-MIN KMSN 300355Z 00000KT 10SM CLR 19/18 A3000 790 93 1500 000/00 RMK AO2
14837KMSN MSN20010729220009307/29/01 22:00:31  5-MIN KMSN 300400Z 00000KT 10SM CLR 19/18 A3000 790 93 1500 000/00 RMK AO2
14837KMSN MSN20010729220509307/29/01 22:05:31  5-MIN KMSN 300405Z 00000KT 10SM CLR 19/18 A3000 790 97 1500 000/00 RMK AO2
14837KMSN MSN20010729221009207/29/01 22:10:31  5-MIN KMSN 300410Z 00000KT 9SM CLR 19/18 A3000 790 97 1500 000/00 RMK AO2
14837KMSN MSN20010729221509207/29/01 22:15:31  5-MIN KMSN 300415Z 00000KT 9SM CLR 19/18 A3000 790 93 1500 000/00 RMK AO2
14837KMSN MSN20010729222009307/29/01 22:20:31  5-MIN KMSN 300420Z 00000KT 10SM CLR 19/18 A3000 790 97 1500 000/00 RMK AO2
14837KMSN MSN20010729222509307/29/01 22:25:31  5-MIN KMSN 300425Z 00000KT 10SM CLR 19/18 A3000 790 97 1500 000/00 RMK AO2
14837KMSN MSN20010729223009307/29/01 22:30:31  5-MIN KMSN 300430Z 00000KT 10SM CLR 19/18 A3000 790 97 1500 000/00 RMK AO2
14837KMSN MSN20010729223509207/29/01 22:35:31  5-MIN KMSN 300435Z 00000KT 9SM CLR 19/18 A3000 790 97 1500 000/00 RMK AO2
14837KMSN MSN20010729224009207/29/01 22:40:31  5-MIN KMSN 300440Z 00000KT 9SM CLR 19/18 A3000 790 93 1500 000/00 RMK AO2
14837KMSN MSN20010729224509307/29/01 22:45:31  5-MIN KMSN 300445Z 00000KT 10SM CLR 19/18 A3000 790 97 1500 000/00 RMK AO2
14837KMSN MSN20010729225011007/29/01 22:50:31  5-MIN KMSN 300450Z 00000KT 10SM CLR 19/18 A3000 790 97 1500 000/00 RMK AO2 SLP154 T01890183
14837KMSN MSN20010729225509207/29/01 22:55:31  5-MIN KMSN 300455Z 00000KT 8SM CLR 19/18 A3000 790 97 1500 000/00 RMK AO2
14837KMSN MSN20010729230009207/29/01 23:00:31  5-MIN KMSN 300500Z 00000KT 7SM CLR 19/18 A3000 790 97 1500 000/00 RMK AO2
14837KMSN MSN20010729230509207/29/01 23:05:31  5-MIN KMSN 300505Z 00000KT 8SM CLR 19/18 A3000 790 97 1500 000/00 RMK AO2
14837KMSN MSN20010729231009207/29/01 23:10:31  5-MIN KMSN 300510Z 00000KT 8SM CLR 19/18 A3000 790 97 1500 000/00 RMK AO2
14837KMSN MSN20010729231509207/29/01 23:15:31  5-MIN KMSN 300515Z 00000KT 8SM CLR 19/18 A3000 790 97 1500 000/00 RMK AO2
14837KMSN MSN20010729232009207/29/01 23:20:31  5-MIN KMSN 300520Z 06005KT 7SM CLR 18/18 A3000 790 96 1400 060/05 RMK AO2
14837KMSN MSN20010729232509207/29/01 23:25:31  5-MIN KMSN 300525Z 06005KT 7SM CLR 18/17 A3000 790 93 1400 060/05 RMK AO2
14837KMSN MSN20010729233009207/29/01 23:30:31  5-MIN KMSN 300530Z 04003KT 8SM CLR 18/17 A3000 790 96 1300 040/03 RMK AO2
14837KMSN MSN20010729233509207/29/01 23:35:31  5-MIN KMSN 300535Z 06005KT 8SM CLR 18/17 A3000 790 93 1400 060/05 RMK AO2
14837KMSN MSN20010729234009207/29/01 23:40:31  5-MIN KMSN 300540Z 11004KT 8SM CLR 19/18 A3000 790 90 1500 110/04 RMK AO2
14837KMSN MSN20010729234509207/29/01 23:45:31  5-MIN KMSN 300545Z 09004KT 8SM CLR 19/18 A3000 790 93 1500 090/04 RMK AO2
14837KMSN MSN20010729235014007/29/01 23:50:31  5-MIN KMSN 300550Z 11006KT 4SM BR CLR 19/18 A3000 790 93 1500 100/06 RMK AO2 SLP154 T01940183 10272 20178 402830178 53012
14837KMSN MSN20010729235509507/29/01 23:55:31  5-MIN KMSN 300555Z 10006KT 5SM BR CLR 20/18 A3000 790 90 1600 100/06 RMK AO2
14837KMSN MSN20010730000009507/30/01 00:00:31  5-MIN KMSN 300600Z 12006KT 4SM BR CLR 20/19 A3000 790 93 1600 120/06 RMK AO2
14837KMSN MSN20010730000509507/30/01 00:05:31  5-MIN KMSN 300605Z 10004KT 3SM BR CLR 19/19 A3000 790 97 1500 090/04 RMK AO2
14837KMSN MSN20010730001009507/30/01 00:10:31  5-MIN KMSN 300610Z 11006KT 3SM BR CLR 19/18 A3000 790 93 1500 110/06 RMK AO2
14837KMSN MSN20010730001509807/30/01 00:15:31  5-MIN KMSN 300615Z 11006KT 2SM BR FEW004 19/19 A3000 790 97 1500 110/06 RMK AO2
14837KMSN MSN20010730002009807/30/01 00:20:31  5-MIN KMSN 300620Z 12006KT 2SM BR SCT004 19/19 A3001 790 97 1500 120/06 RMK AO2
14837KMSN MSN20010730002509807/30/01 00:25:31  5-MIN KMSN 300625Z 10005KT 2SM BR OVC004 19/19 A3001 790 97 1500 100/05 RMK AO2
14837KMSN MSN20010730003009807/30/01 00:30:31  5-MIN KMSN 300630Z 10005KT 2SM BR OVC004 19/19 A3001 780 97 1500 100/05 RMK AO2
14837KMSN MSN20010730003509807/30/01 00:35:31  5-MIN KMSN 300635Z 11005KT 1SM BR OVC001 19/19 A3001 780 97 1500 110/05 RMK AO2
14837KMSN MSN20010730004010307/30/01 00:40:31  5-MIN KMSN 300640Z 11005KT 1SM BR BCFG OVC001 19/19 A3001 780 97 1500 110/05 RMK AO2
14837KMSN MSN20010730004510307/30/01 00:45:31  5-MIN KMSN 300645Z 10005KT 1SM BR BCFG OVC001 19/19 A3001 780 97 1500 100/05 RMK AO2
14837KMSN MSN20010730005012107/30/01 00:50:31  5-MIN KMSN 300650Z 11005KT 1SM BR BCFG OVC001 19/19 A3001 790 100 1500 100/05 RMK AO2 SLP156 T01940194
14837KMSN MSN20010730005510007/30/01 00:55:31  5-MIN KMSN 300655Z 11004KT 1/2SM FG OVC001 19/19 A3001 780 97 1500 100/04 RMK AO2
14837KMSN MSN20010730010010007/30/01 01:00:31  5-MIN KMSN 300700Z 12004KT 1/2SM FG OVC001 19/19 A3001 780 97 1500 120/04 RMK AO2
14837KMSN MSN20010730010510007/30/01 01:05:31  5-MIN KMSN 300705Z 08004KT 1/2SM FG OVC001 19/19 A3001 780 97 1500 080/04 RMK AO2
14837KMSN MSN20010730011010007/30/01 01:10:31  5-MIN KMSN 300710Z 10005KT 1/2SM FG OVC001 19/19 A3001 790 97 1500 100/05 RMK AO2
14837KMSN MSN20010730011510007/30/01 01:15:31  5-MIN KMSN 300715Z 11005KT 1/2SM FG OVC001 19/19 A3001 790 97 1500 110/05 RMK AO2
14837KMSN MSN20010730012010007/30/01 01:20:31  5-MIN KMSN 300720Z 11004KT 1/2SM FG OVC001 19/19 A3000 790 97 1500 110/04 RMK AO2
14837KMSN MSN20010730012510007/30/01 01:25:31  5-MIN KMSN 300725Z 10005KT 1/2SM FG OVC001 19/19 A3000 790 97 1500 100/05 RMK AO2
14837KMSN MSN20010730013010007/30/01 01:30:31  5-MIN KMSN 300730Z 11005KT 1/2SM FG OVC001 19/19 A3000 790 97 1500 110/05 RMK AO2
14837KMSN MSN20010730013510107/30/01 01:35:31  5-MIN KMSN 300735Z 13004KT 1/4SM FG OVC001 19/19 A3000 790 100 1500 130/04 RMK AO2
14837KMSN MSN20010730014010007/30/01 01:40:31  5-MIN KMSN 300740Z 13004KT 1/4SM FG VV001 19/19 A3000 790 100 1500 130/04 RMK AO2
14837KMSN MSN20010730014510007/30/01 01:45:31  5-MIN KMSN 300745Z 13004KT 1/4SM FG VV001 19/19 A3000 790 100 1500 130/04 RMK AO2
14837KMSN MSN20010730015011707/30/01 01:50:31  5-MIN KMSN 300750Z 11005KT 1/4SM FG VV001 19/19 A3000 790 100 1500 110/05 RMK AO2 SLP155 T01890189
14837KMSN MSN20010730015510007/30/01 01:55:31  5-MIN KMSN 300755Z 11004KT 1/4SM FG VV001 19/19 A3001 790 100 1500 110/04 RMK AO2
14837KMSN MSN20010730020010007/30/01 02:00:31  5-MIN KMSN 300800Z 15005KT 1/4SM FG VV001 19/19 A3001 780 100 1500 150/05 RMK AO2
14837KMSN MSN20010730020510007/30/01 02:05:31  5-MIN KMSN 300805Z 13003KT 1/4SM FG VV001 19/19 A3001 780 100 1500 130/03 RMK AO2
14837KMSN MSN20010730021010007/30/01 02:10:31  5-MIN KMSN 300810Z 15005KT 1/4SM FG VV001 19/19 A3001 780 100 1500 140/05 RMK AO2
14837KMSN MSN20010730021510007/30/01 02:15:31  5-MIN KMSN 300815Z 13005KT 1/4SM FG VV001 19/19 A3001 780 100 1500 130/05 RMK AO2
14837KMSN MSN20010730022010007/30/01 02:20:31  5-MIN KMSN 300820Z 14004KT 1/4SM FG VV001 19/19 A3001 780 100 1500 140/04 RMK AO2
14837KMSN MSN20010730022510007/30/01 02:25:31  5-MIN KMSN 300825Z 18004KT 1/4SM FG VV001 19/19 A3001 780 100 1500 180/04 RMK AO2
14837KMSN MSN20010730023010007/30/01 02:30:31  5-MIN KMSN 300830Z 15004KT 1/4SM FG VV001 19/19 A3001 780 100 1500 150/04 RMK AO2
14837KMSN MSN20010730023510007/30/01 02:35:31  5-MIN KMSN 300835Z 17003KT 1/4SM FG VV001 19/19 A3001 780 100 1500 170/03 RMK AO2
14837KMSN MSN20010730024009907/30/01 02:40:31  5-MIN KMSN 300840Z 15004KT 1/4SM FG VV001 19/19 A3002 780 97 1500 150/04 RMK AO2
14837KMSN MSN20010730024510007/30/01 02:45:31  5-MIN KMSN 300845Z 18004KT 1/2SM FG OVC001 19/19 A3002 780 97 1500 180/04 RMK AO2
14837KMSN MSN20010730025012307/30/01 02:50:31  5-MIN KMSN 300850Z 17004KT 1/4SM FG OVC001 19/19 A3002 770 97 1500 170/04 RMK AO2 SLP160 T01940189 51006
14837KMSN MSN20010730025510007/30/01 02:55:31  5-MIN KMSN 300855Z 15005KT 1/4SM FG OVC001 19/19 A3002 770 97 1500 150/05 RMK AO2
14837KMSN MSN20010730030010107/30/01 03:00:31  5-MIN KMSN 300900Z 13004KT 1/4SM FG OVC001 19/19 A3002 770 100 1400 130/04 RMK AO2
14837KMSN MSN20010730030510007/30/01 03:05:31  5-MIN KMSN 300905Z 13004KT 1/4SM FG OVC001 19/19 A3002 770 97 1500 130/04 RMK AO2
14837KMSN MSN20010730031010007/30/01 03:10:31  5-MIN KMSN 300910Z 12004KT 1/4SM FG OVC001 19/19 A3002 770 97 1500 120/04 RMK AO2
14837KMSN MSN20010730031510107/30/01 03:15:31  5-MIN KMSN 300915Z 11004KT 1/4SM FG OVC001 19/19 A3002 770 100 1500 110/04 RMK AO2
14837KMSN MSN20010730032010107/30/01 03:20:31  5-MIN KMSN 300920Z 12004KT 1/4SM FG OVC001 19/19 A3002 770 100 1500 120/04 RMK AO2
14837KMSN MSN20010730032510107/30/01 03:25:31  5-MIN KMSN 300925Z 13004KT 1/4SM FG OVC001 19/19 A3002 770 100 1500 130/04 RMK AO2
14837KMSN MSN20010730033010107/30/01 03:30:31  5-MIN KMSN 300930Z 12004KT 1/4SM FG OVC001 19/19 A3002 770 100 1500 120/04 RMK AO2
14837KMSN MSN20010730033510107/30/01 03:35:31  5-MIN KMSN 300935Z 13003KT 1/2SM FG OVC001 19/19 A3002 770 100 1500 130/03 RMK AO2
14837KMSN MSN20010730034010107/30/01 03:40:31  5-MIN KMSN 300940Z 13004KT 1/2SM FG OVC001 19/19 A3002 770 100 1500 130/04 RMK AO2
14837KMSN MSN20010730034510107/30/01 03:45:31  5-MIN KMSN 300945Z 13003KT 1/2SM FG OVC001 19/19 A3002 770 100 1500 130/03 RMK AO2
14837KMSN MSN20010730035012307/30/01 03:50:31  5-MIN KMSN 300950Z 15004KT 3/4SM BR BCFG OVC001 19/19 A3002 770 100 1500 150/04 RMK AO2 SLP161 T01940194
14837KMSN MSN20010730035510607/30/01 03:55:31  5-MIN KMSN 300955Z 16004KT 3/4SM BR BCFG OVC001 19/19 A3002 770 100 1500 160/04 RMK AO2
14837KMSN MSN20010730040010607/30/01 04:00:31  5-MIN KMSN 301000Z 16004KT 3/4SM BR BCFG OVC001 19/19 A3002 770 100 1500 160/04 RMK AO2
14837KMSN MSN20010730040510607/30/01 04:05:31  5-MIN KMSN 301005Z 00000KT 3/4SM BR BCFG OVC001 19/19 A3002 770 100 1500 000/00 RMK AO2
14837KMSN MSN20010730041010607/30/01 04:10:31  5-MIN KMSN 301010Z 15004KT 3/4SM BR BCFG OVC001 19/19 A3002 770 100 1500 150/04 RMK AO2
14837KMSN MSN20010730041510607/30/01 04:15:31  5-MIN KMSN 301015Z 16003KT 3/4SM BR BCFG OVC001 19/19 A3002 770 100 1500 160/03 RMK AO2
14837KMSN MSN20010730042010607/30/01 04:20:31  5-MIN KMSN 301020Z 18004KT 3/4SM BR BCFG OVC001 19/19 A3003 770 100 1500 170/04 RMK AO2
14837KMSN MSN20010730042510607/30/01 04:25:31  5-MIN KMSN 301025Z 15003KT 3/4SM BR BCFG OVC001 19/19 A3003 770 100 1500 150/03 RMK AO2
14837KMSN MSN20010730043010607/30/01 04:30:31  5-MIN KMSN 301030Z 15004KT 3/4SM BR BCFG OVC001 19/19 A3002 770 100 1500 150/04 RMK AO2
14837KMSN MSN20010730043510607/30/01 04:35:31  5-MIN KMSN 301035Z 14005KT 3/4SM BR BCFG OVC001 19/19 A3002 770 100 1500 140/05 RMK AO2
14837KMSN MSN20010730044010607/30/01 04:40:31  5-MIN KMSN 301040Z 15004KT 3/4SM BR BCFG OVC001 19/19 A3002 770 100 1500 150/04 RMK AO2
14837KMSN MSN20010730044510607/30/01 04:45:31  5-MIN KMSN 301045Z 15004KT 3/4SM BR BCFG OVC001 19/19 A3002 770 100 1500 150/04 RMK AO2
14837KMSN MSN20010730045012307/30/01 04:50:31  5-MIN KMSN 301050Z 16004KT 3/4SM BR BCFG OVC001 19/19 A3002 770 100 1500 150/04 RMK AO2 SLP162 T01940194
14837KMSN MSN20010730045510607/30/01 04:55:31  5-MIN KMSN 301055Z 15005KT 3/4SM BR BCFG OVC001 19/19 A3002 770 100 1500 150/05 RMK AO2
14837KMSN MSN20010730050010607/30/01 05:00:31  5-MIN KMSN 301100Z 14006KT 3/4SM BR BCFG OVC001 19/19 A3003 770 100 1500 140/06 RMK AO2
14837KMSN MSN20010730050510607/30/01 05:05:31  5-MIN KMSN 301105Z 14005KT 3/4SM BR BCFG OVC001 19/19 A3003 770 100 1500 140/05 RMK AO2
14837KMSN MSN20010730051010607/30/01 05:10:31  5-MIN KMSN 301110Z 15005KT 3/4SM BR BCFG OVC001 19/19 A3003 770 100 1500 150/05 RMK AO2
14837KMSN MSN20010730051510107/30/01 05:15:31  5-MIN KMSN 301115Z 14004KT 1/2SM FG OVC001 19/19 A3003 760 100 1500 140/04 RMK AO2
14837KMSN MSN20010730052010107/30/01 05:20:31  5-MIN KMSN 301120Z 14004KT 1/2SM FG OVC001 19/19 A3003 760 100 1500 140/04 RMK AO2
14837KMSN MSN20010730052510107/30/01 05:25:31  5-MIN KMSN 301125Z 14005KT 1/2SM FG OVC001 19/19 A3003 760 100 1500 140/05 RMK AO2
14837KMSN MSN20010730053010107/30/01 05:30:31  5-MIN KMSN 301130Z 15006KT 1/2SM FG OVC001 19/19 A3003 760 100 1500 150/06 RMK AO2
14837KMSN MSN20010730053510107/30/01 05:35:31  5-MIN KMSN 301135Z 15005KT 1/2SM FG OVC001 19/19 A3003 760 100 1500 150/05 RMK AO2
14837KMSN MSN20010730054010107/30/01 05:40:31  5-MIN KMSN 301140Z 16005KT 1/2SM FG OVC001 19/19 A3003 760 100 1500 150/05 RMK AO2
14837KMSN MSN20010730054510107/30/01 05:45:31  5-MIN KMSN 301145Z 16005KT 1/2SM FG OVC001 19/19 A3003 760 100 1500 150/05 RMK AO2
14837KMSN MSN20010730055013907/30/01 05:50:31  5-MIN KMSN 301150Z 15005KT 1SM BR BCFG BKN001 19/19 A3003 760 100 1500 150/05 RMK AO2 SLP164 T01940194 10200 20189 53005
14837KMSN MSN20010730055510407/30/01 05:55:31  5-MIN KMSN 301155Z 15005KT 1SM BR BCFG BKN001 19/19 A3003 760 100 1500 150/05 RMK AO2
14837KMSN MSN20010730060010407/30/01 06:00:31  5-MIN KMSN 301200Z 15004KT 1SM BR BCFG BKN001 19/19 A3003 760 100 1500 150/04 RMK AO2
14837KMSN MSN20010730060510407/30/01 06:05:31  5-MIN KMSN 301205Z 16006KT 1SM BR BCFG BKN001 19/19 A3003 760 100 1500 160/06 RMK AO2
14837KMSN MSN20010730061010407/30/01 06:10:31  5-MIN KMSN 301210Z 14006KT 1SM BR BCFG BKN001 19/19 A3003 760 100 1500 140/06 RMK AO2
14837KMSN MSN20010730061510407/30/01 06:15:31  5-MIN KMSN 301215Z 15005KT 1SM BR BCFG BKN001 19/19 A3003 760 100 1500 150/05 RMK AO2
14837KMSN MSN20010730062010307/30/01 06:20:31  5-MIN KMSN 301220Z 14005KT 1SM BR BCFG BKN001 20/19 A3003 760 97 1600 140/05 RMK AO2
14837KMSN MSN20010730062510307/30/01 06:25:31  5-MIN KMSN 301225Z 13005KT 1SM BR BCFG BKN001 20/19 A3003 760 97 1600 130/05 RMK AO2
14837KMSN MSN20010730063010307/30/01 06:30:31  5-MIN KMSN 301230Z 15004KT 1SM BR BCFG BKN001 20/19 A3003 760 97 1600 150/04 RMK AO2
14837KMSN MSN20010730063510307/30/01 06:35:31  5-MIN KMSN 301235Z 14006KT 1SM BR BCFG BKN001 20/19 A3003 760 97 1600 140/06 RMK AO2
14837KMSN MSN20010730064010307/30/01 06:40:31  5-MIN KMSN 301240Z 15007KT 1SM BR BCFG BKN001 20/19 A3003 770 97 1600 150/07 RMK AO2
14837KMSN MSN20010730064510707/30/01 06:45:31  5-MIN KMSN 301245Z 15006KT 1 1/4SM BR BCFG OVC003 20/19 A3003 770 97 1600 150/06 RMK AO2
14837KMSN MSN20010730065012407/30/01 06:50:31  5-MIN KMSN 301250Z 15006KT 1 1/2SM BR BCFG BKN003 21/19 A3003 760 93 1600 150/06 RMK AO2 SLP164 T02060194
14837KMSN MSN20010730065510707/30/01 06:55:31  5-MIN KMSN 301255Z 15006KT 1 3/4SM BR BCFG OVC003 21/20 A3003 760 97 1600 150/06 RMK AO2
14837KMSN MSN20010730070010707/30/01 07:00:31  5-MIN KMSN 301300Z 13006KT 1 3/4SM BR BCFG OVC003 21/20 A3003 760 97 1600 130/06 RMK AO2
14837KMSN MSN20010730070510307/30/01 07:05:31  5-MIN KMSN 301305Z 16006KT 2SM BR BCFG OVC003 21/20 A3003 760 97 1600 160/06 RMK AO2
14837KMSN MSN20010730071010307/30/01 07:10:31  5-MIN KMSN 301310Z 16005KT 2SM BR BCFG OVC003 21/20 A3003 760 97 1600 160/05 RMK AO2
14837KMSN MSN20010730071510707/30/01 07:15:31  5-MIN KMSN 301315Z 17005KT 2 1/2SM BR BCFG BKN003 21/20 A3003 760 93 1700 160/05 RMK AO2
14837KMSN MSN20010730072010307/30/01 07:20:31  5-MIN KMSN 301320Z 18004KT 3SM BR BCFG BKN003 21/20 A3003 760 93 1700 180/04 RMK AO2
14837KMSN MSN20010730072510307/30/01 07:25:31  5-MIN KMSN 301325Z 15004KT 3SM BR BCFG BKN003 22/20 A3003 760 90 1800 150/04 RMK AO2
14837KMSN MSN20010730073009807/30/01 07:30:31  5-MIN KMSN 301330Z 14004KT 3SM BR BKN003 22/20 A3003 760 90 1800 140/04 RMK AO2
14837KMSN MSN20010730073509807/30/01 07:35:31  5-MIN KMSN 301335Z 16005KT 3SM BR FEW005 22/20 A3003 760 90 1800 160/05 RMK AO2
14837KMSN MSN20010730074010807/30/01 07:40:31  5-MIN KMSN 301340Z 14004KT 3SM BR FEW005 22/20 A3003 760 87 1800 140/04 RMK AO2 SFC VIS 3
14837KMSN MSN20010730074509507/30/01 07:45:31  5-MIN KMSN 301345Z 12004KT 3SM BR CLR 22/20 A3003 760 87 1800 120/04 RMK AO2
14837KMSN MSN20010730075011507/30/01 07:50:31  5-MIN KMSN 301350Z 13003KT 3SM BR FEW005 22/20 A3003 760 87 1800 130/03 RMK AO2 SLP165 T02220200
14837KMSN MSN20010730075510807/30/01 07:55:31  5-MIN KMSN 301355Z 15004KT 3SM HZ FEW005 23/20 A3003 760 84 1900 150/04 RMK AO2 SFC VIS 4
14837KMSN MSN20010730080010807/30/01 08:00:31  5-MIN KMSN 301400Z 13004KT 3SM HZ FEW005 23/20 A3003 760 84 1900 130/04 RMK AO2 SFC VIS 4
14837KMSN MSN20010730080510807/30/01 08:05:31  5-MIN KMSN 301405Z 16004KT 3SM HZ FEW005 23/20 A3004 760 84 1900 160/04 RMK AO2 SFC VIS 4
14837KMSN MSN20010730081010507/30/01 08:10:31  5-MIN KMSN 301410Z 00000KT 3SM HZ CLR 23/20 A3004 760 84 1900 000/00 RMK AO2 SFC VIS 4
14837KMSN MSN20010730081510507/30/01 08:15:31  5-MIN KMSN 301415Z VRB03KT 3SM HZ CLR 23/20 A3004 760 81 1900 VRB/03 RMK AO2 SFC VIS 5
14837KMSN MSN20010730082009507/30/01 08:20:31  5-MIN KMSN 301420Z 14004KT 4SM HZ CLR 23/21 A3004 760 84 1900 140/04 RMK AO2
14837KMSN MSN20010730082509507/30/01 08:25:31  5-MIN KMSN 301425Z 14005KT 4SM HZ CLR 24/21 A3003 760 81 2000 140/05 RMK AO2
14837KMSN MSN20010730083009507/30/01 08:30:31  5-MIN KMSN 301430Z VRB03KT 5SM HZ CLR 23/21 A3003 760 84 1900 VRB/03 RMK AO2
14837KMSN MSN20010730083509507/30/01 08:35:31  5-MIN KMSN 301435Z VRB05KT 5SM HZ CLR 24/21 A3003 760 81 2000 VRB/05 RMK AO2
14837KMSN MSN20010730084009507/30/01 08:40:31  5-MIN KMSN 301440Z 15005KT 5SM HZ CLR 24/21 A3003 760 81 2000 140/05 RMK AO2
14837KMSN MSN20010730084509507/30/01 08:45:31  5-MIN KMSN 301445Z 16007KT 6SM HZ CLR 24/21 A3003 760 78 2100 150/07 RMK AO2
14837KMSN MSN20010730085011807/30/01 08:50:31  5-MIN KMSN 301450Z 14006KT 6SM HZ CLR 24/21 A3003 760 78 2100 140/06 RMK AO2 SLP165 T02440206 53004
14837KMSN MSN20010730085509507/30/01 08:55:31  5-MIN KMSN 301455Z 13005KT 6SM HZ CLR 24/21 A3003 760 78 2100 130/05 RMK AO2
14837KMSN MSN20010730090009507/30/01 09:00:31  5-MIN KMSN 301500Z 15006KT 6SM HZ CLR 24/21 A3003 760 78 2100 150/06 RMK AO2
14837KMSN MSN20010730090509507/30/01 09:05:31  5-MIN KMSN 301505Z 16007KT 6SM HZ CLR 24/21 A3003 770 81 2100 160/07 RMK AO2
14837KMSN MSN20010730091009507/30/01 09:10:31  5-MIN KMSN 301510Z 14008KT 6SM HZ CLR 25/21 A3003 760 79 2100 140/08 RMK AO2
14837KMSN MSN20010730091509207/30/01 09:15:31  5-MIN KMSN 301515Z 17007KT 7SM CLR 25/21 A3003 770 79 2100 170/07 RMK AO2
14837KMSN MSN20010730092009207/30/01 09:20:31  5-MIN KMSN 301520Z 18007KT 7SM CLR 25/21 A3003 760 79 2100 180/07 RMK AO2
14837KMSN MSN20010730092509207/30/01 09:25:31  5-MIN KMSN 301525Z 17006KT 8SM CLR 25/21 A3003 760 79 2100 170/06 RMK AO2
14837KMSN MSN20010730093009207/30/01 09:30:31  5-MIN KMSN 301530Z 18008KT 8SM CLR 26/21 A3003 760 76 2200 180/08 RMK AO2
14837KMSN MSN20010730093509307/30/01 09:35:31  5-MIN KMSN 301535Z 17010KT 10SM CLR 26/21 A3003 760 73 2200 170/10 RMK AO2
14837KMSN MSN20010730094009307/30/01 09:40:31  5-MIN KMSN 301540Z 18009KT 10SM CLR 26/21 A3003 760 73 2200 180/09 RMK AO2
14837KMSN MSN20010730094509307/30/01 09:45:31  5-MIN KMSN 301545Z 19008KT 10SM CLR 26/21 A3003 760 73 2300 190/08 RMK AO2
14837KMSN MSN20010730095011007/30/01 09:50:31  5-MIN KMSN 301550Z 18007KT 10SM CLR 26/21 A3003 760 71 2300 180/07 RMK AO2 SLP164 T02610206
14837KMSN MSN20010730095509307/30/01 09:55:31  5-MIN KMSN 301555Z 19010KT 10SM CLR 26/21 A3003 760 73 2200 190/10 RMK AO2
14837KMSN MSN20010730100009307/30/01 10:00:31  5-MIN KMSN 301600Z 16010KT 10SM CLR 26/21 A3003 760 73 2300 160/10 RMK AO2
14837KMSN MSN20010730100509307/30/01 10:05:31  5-MIN KMSN 301605Z 17009KT 10SM CLR 27/21 A3003 760 71 2300 170/09 RMK AO2
14837KMSN MSN20010730101009307/30/01 10:10:31  5-MIN KMSN 301610Z 18008KT 10SM CLR 27/22 A3003 770 73 2300 170/08 RMK AO2
14837KMSN MSN20010730101509307/30/01 10:15:31  5-MIN KMSN 301615Z 17009KT 10SM CLR 27/21 A3002 770 71 2300 170/09 RMK AO2
14837KMSN MSN20010730102009307/30/01 10:20:31  5-MIN KMSN 301620Z 18009KT 10SM CLR 27/21 A3002 770 71 2300 180/09 RMK AO2
14837KMSN MSN20010730102509307/30/01 10:25:31  5-MIN KMSN 301625Z 17009KT 10SM CLR 27/21 A3002 770 69 2400 170/09 RMK AO2
14837KMSN MSN20010730103009307/30/01 10:30:31  5-MIN KMSN 301630Z 17009KT 10SM CLR 27/22 A3001 780 71 2400 170/09 RMK AO2
14837KMSN MSN20010730103509307/30/01 10:35:31  5-MIN KMSN 301635Z 16009KT 10SM CLR 27/22 A3001 780 71 2400 160/09 RMK AO2
14837KMSN MSN20010730104010907/30/01 10:40:31  5-MIN KMSN 301640Z 17007KT 140V200 10SM CLR 28/21 A3001 780 66 2500 160/07 140V200 RMK AO2
14837KMSN MSN20010730104509307/30/01 10:45:31  5-MIN KMSN 301645Z 18010KT 10SM CLR 28/22 A3001 780 69 2500 180/10 RMK AO2
14837KMSN MSN20010730105011007/30/01 10:50:31  5-MIN KMSN 301650Z 17009KT 10SM CLR 28/21 A3001 780 66 2500 170/09 RMK AO2 SLP157 T02780211
14837KMSN MSN20010730105509307/30/01 10:55:31  5-MIN KMSN 301655Z 17010KT 10SM CLR 28/22 A3001 780 66 2500 170/10 RMK AO2
14837KMSN MSN20010730110009307/30/01 11:00:31  5-MIN KMSN 301700Z 19010KT 10SM CLR 28/21 A3001 790 66 2500 190/10 RMK AO2
14837KMSN MSN20010730110509307/30/01 11:05:31  5-MIN KMSN 301705Z 17009KT 10SM CLR 28/21 A3000 790 64 2500 170/09 RMK AO2
14837KMSN MSN20010730111009307/30/01 11:10:31  5-MIN KMSN 301710Z 17011KT 10SM CLR 28/21 A3000 790 64 2500 170/11 RMK AO2
14837KMSN MSN20010730111509307/30/01 11:15:31  5-MIN KMSN 301715Z 17012KT 10SM CLR 28/22 A3001 780 66 2500 170/12 RMK AO2
14837KMSN MSN20010730112009307/30/01 11:20:31  5-MIN KMSN 301720Z 16009KT 10SM CLR 28/22 A3001 780 66 2500 150/09 RMK AO2
14837KMSN MSN20010730112509307/30/01 11:25:31  5-MIN KMSN 301725Z 15009KT 10SM CLR 28/22 A3001 780 66 2500 150/09 RMK AO2
14837KMSN MSN20010730113009307/30/01 11:30:31  5-MIN KMSN 301730Z 15010KT 10SM CLR 29/22 A3001 780 64 2600 150/10 RMK AO2
14837KMSN MSN20010730113509307/30/01 11:35:31  5-MIN KMSN 301735Z 15008KT 10SM CLR 29/21 A3002 780 62 2600 150/08 RMK AO2
14837KMSN MSN20010730114010907/30/01 11:40:31  5-MIN KMSN 301740Z 17009KT 130V200 10SM CLR 29/22 A3002 770 62 2600 170/09 130V200 RMK AO2
14837KMSN MSN20010730114509307/30/01 11:45:31  5-MIN KMSN 301745Z 15009KT 10SM CLR 29/21 A3002 770 58 2600 150/09 RMK AO2
14837KMSN MSN20010730115012807/30/01 11:50:31  5-MIN KMSN 301750Z 17008KT 10SM CLR 29/20 A3002 770 58 2600 170/08 RMK AO2 SLP160 T02890200 10294 20194 50001
14837KMSN MSN20010730115509307/30/01 11:55:31  5-MIN KMSN 301755Z 16008KT 10SM CLR 29/20 A3001 780 56 2600 150/08 RMK AO2
14837KMSN MSN20010730120009307/30/01 12:00:31  5-MIN KMSN 301800Z 16008KT 10SM CLR 29/21 A3002 780 60 2600 160/08 RMK AO2
14837KMSN MSN20010730120509307/30/01 12:05:31  5-MIN KMSN 301805Z 16007KT 10SM CLR 29/21 A3002 770 58 2600 160/07 RMK AO2
14837KMSN MSN20010730121009307/30/01 12:10:31  5-MIN KMSN 301810Z 15009KT 10SM CLR 29/21 A3002 780 60 2600 150/09 RMK AO2
14837KMSN MSN20010730121509307/30/01 12:15:31  5-MIN KMSN 301815Z 15007KT 10SM CLR 29/21 A3002 770 58 2600 140/07 RMK AO2
14837KMSN MSN20010730122010907/30/01 12:20:31  5-MIN KMSN 301820Z 18009KT 140V210 10SM CLR 30/21 A3002 770 56 2700 180/09 140V210 RMK AO2
14837KMSN MSN20010730122509307/30/01 12:25:31  5-MIN KMSN 301825Z 15007KT 10SM CLR 29/21 A3003 760 58 2600 150/07 RMK AO2
14837KMSN MSN20010730123009307/30/01 12:30:31  5-MIN KMSN 301830Z 14007KT 10SM CLR 30/21 A3003 760 56 2700 140/07 RMK AO2
14837KMSN MSN20010730123509307/30/01 12:35:31  5-MIN KMSN 301835Z 00000KT 10SM CLR 29/21 A3004 760 58 2600 000/00 RMK AO2
14837KMSN MSN20010730124009307/30/01 12:40:31  5-MIN KMSN 301840Z 16006KT 10SM CLR 31/21 A3004 750 54 2700 160/06 RMK AO2
14837KMSN MSN20010730124509307/30/01 12:45:31  5-MIN KMSN 301845Z 15007KT 10SM CLR 30/21 A3003 760 56 2700 150/07 RMK AO2
14837KMSN MSN20010730125011007/30/01 12:50:31  5-MIN KMSN 301850Z 16008KT 10SM CLR 30/20 A3003 760 54 2700 150/08 RMK AO2 SLP163 T03000200
14837KMSN MSN20010730125509307/30/01 12:55:31  5-MIN KMSN 301855Z 16007KT 10SM CLR 30/21 A3003 770 56 2700 160/07 RMK AO2
14837KMSN MSN20010730130009307/30/01 13:00:31  5-MIN KMSN 301900Z 16010KT 10SM CLR 30/21 A3002 770 58 2700 160/10 RMK AO2
14837KMSN MSN20010730130509307/30/01 13:05:31  5-MIN KMSN 301905Z 15009KT 10SM CLR 31/21 A3002 770 54 2800 150/09 RMK AO2
14837KMSN MSN20010730131009307/30/01 13:10:31  5-MIN KMSN 301910Z 15009KT 10SM CLR 31/21 A3002 780 56 2800 150/09 RMK AO2
14837KMSN MSN20010730131509307/30/01 13:15:31  5-MIN KMSN 301915Z 17010KT 10SM CLR 30/21 A3001 780 58 2700 170/10 RMK AO2
14837KMSN MSN20010730132009307/30/01 13:20:31  5-MIN KMSN 301920Z 18010KT 10SM CLR 31/21 A3001 780 56 2800 180/10 RMK AO2
14837KMSN MSN20010730132509307/30/01 13:25:31  5-MIN KMSN 301925Z 18010KT 10SM CLR 31/21 A3001 780 54 2800 180/10 RMK AO2
14837KMSN MSN20010730133009307/30/01 13:30:31  5-MIN KMSN 301930Z 18006KT 10SM CLR 31/21 A3002 770 56 2800 180/06 RMK AO2
14837KMSN MSN20010730133509307/30/01 13:35:31  5-MIN KMSN 301935Z 16006KT 10SM CLR 31/21 A3003 770 56 2800 160/06 RMK AO2
14837KMSN MSN20010730134009307/30/01 13:40:31  5-MIN KMSN 301940Z VRB06KT 10SM CLR 31/21 A3003 760 56 2800 VRB/06 RMK AO2
14837KMSN MSN20010730134509307/30/01 13:45:31  5-MIN KMSN 301945Z 12007KT 10SM CLR 31/21 A3003 760 56 2800 120/07 RMK AO2
14837KMSN MSN20010730135011307/30/01 13:50:31  5-MIN KMSN 301950Z VRB03KT 10SM FEW100 31/21 A3003 760 56 2700 VRB/03 RMK AO2 SLP164 T03060211
14837KMSN MSN20010730135509307/30/01 13:55:31  5-MIN KMSN 301955Z 13005KT 10SM CLR 31/21 A3004 760 54 2800 130/05 RMK AO2
14837KMSN MSN20010730140009607/30/01 14:00:31  5-MIN KMSN 302000Z 14006KT 10SM SCT100 31/21 A3004 750 56 2700 140/06 RMK AO2
14837KMSN MSN20010730140509607/30/01 14:05:31  5-MIN KMSN 302005Z VRB03KT 10SM SCT100 31/20 A3005 750 52 2700 VRB/03 RMK AO2
14837KMSN MSN20010730141009607/30/01 14:10:31  5-MIN KMSN 302010Z 00000KT 10SM SCT100 31/21 A3005 740 54 2700 000/00 RMK AO2
14837KMSN MSN20010730141509607/30/01 14:15:31  5-MIN KMSN 302015Z 36003KT 10SM FEW100 31/21 A3005 740 53 2800 360/03 RMK AO2
14837KMSN MSN20010730142009607/30/01 14:20:31  5-MIN KMSN 302020Z VRB03KT 10SM FEW100 32/21 A3005 750 53 2900 VRB/03 RMK AO2
14837KMSN MSN20010730142509607/30/01 14:25:31  5-MIN KMSN 302025Z 00000KT 10SM FEW100 31/21 A3004 750 53 2800 000/00 RMK AO2
14837KMSN MSN20010730143009607/30/01 14:30:31  5-MIN KMSN 302030Z 08004KT 10SM FEW100 32/21 A3004 760 53 2900 080/04 RMK AO2
14837KMSN MSN20010730143509607/30/01 14:35:31  5-MIN KMSN 302035Z 09006KT 10SM FEW100 32/21 A3003 760 53 2900 090/06 RMK AO2
14837KMSN MSN20010730144009607/30/01 14:40:31  5-MIN KMSN 302040Z 00000KT 10SM FEW100 32/21 A3003 770 51 2900 000/00 RMK AO2
14837KMSN MSN20010730144509607/30/01 14:45:31  5-MIN KMSN 302045Z 11004KT 10SM FEW100 32/21 A3003 760 51 2900 100/04 RMK AO2
14837KMSN MSN20010730145011907/30/01 14:50:31  5-MIN KMSN 302050Z VRB03KT 10SM FEW100 32/21 A3003 760 49 2900 VRB/03 RMK AO2 SLP163 T03220206 55005
14837KMSN MSN20010730145509607/30/01 14:55:31  5-MIN KMSN 302055Z 07007KT 10SM FEW050 32/21 A3003 760 53 2900 070/07 RMK AO2
14837KMSN MSN20010730150009607/30/01 15:00:31  5-MIN KMSN 302100Z 06007KT 10SM FEW050 32/21 A3003 760 53 2900 060/07 RMK AO2
14837KMSN MSN20010730150509607/30/01 15:05:31  5-MIN KMSN 302105Z 06010KT 10SM FEW050 32/21 A3004 760 53 2900 050/10 RMK AO2
14837KMSN MSN20010730151009607/30/01 15:10:31  5-MIN KMSN 302110Z 05008KT 10SM FEW050 32/21 A3004 760 53 2900 050/08 RMK AO2
14837KMSN MSN20010730151509607/30/01 15:15:31  5-MIN KMSN 302115Z 05007KT 10SM FEW050 31/21 A3004 760 54 2800 050/07 RMK AO2
14837KMSN MSN20010730152009607/30/01 15:20:31  5-MIN KMSN 302120Z 05008KT 10SM FEW050 31/21 A3004 760 56 2700 050/08 RMK AO2
14837KMSN MSN20010730152509607/30/01 15:25:31  5-MIN KMSN 302125Z 04007KT 10SM FEW050 30/21 A3004 750 58 2700 040/07 RMK AO2
14837KMSN MSN20010730153009607/30/01 15:30:31  5-MIN KMSN 302130Z 04007KT 10SM BKN055 31/21 A3004 750 56 2700 040/07 RMK AO2
14837KMSN MSN20010730153510307/30/01 15:35:31  5-MIN KMSN 302135Z 06008KT 10SM BKN055 BKN065 31/21 A3004 750 56 2700 050/08 RMK AO2
14837KMSN MSN20010730154009607/30/01 15:40:31  5-MIN KMSN 302140Z 06008KT 10SM BKN060 31/21 A3005 750 56 2700 060/08 RMK AO2
14837KMSN MSN20010730154510307/30/01 15:45:31  5-MIN KMSN 302145Z 04007KT 10SM BKN055 BKN070 31/21 A3005 750 56 2700 040/07 RMK AO2
14837KMSN MSN20010730155012007/30/01 15:50:31  5-MIN KMSN 302150Z 04006KT 10SM BKN055 BKN065 31/21 A3004 750 54 2800 030/06 RMK AO2 SLP168 T03110211
14837KMSN MSN20010730155510307/30/01 15:55:31  5-MIN KMSN 302155Z 04007KT 10SM SCT055 SCT065 31/21 A3004 750 53 2800 040/07 RMK AO2
14837KMSN MSN20010730160009607/30/01 16:00:31  5-MIN KMSN 302200Z 04011KT 10SM SCT060 31/21 A3004 750 54 2800 040/11 RMK AO2
14837KMSN MSN20010730160509607/30/01 16:05:31  5-MIN KMSN 302205Z 06009KT 10SM FEW055 31/21 A3004 760 54 2800 060/09 RMK AO2
14837KMSN MSN20010730161009607/30/01 16:10:31  5-MIN KMSN 302210Z 05010KT 10SM FEW055 31/21 A3004 760 54 2800 040/10 RMK AO2
14837KMSN MSN20010730161509307/30/01 16:15:31  5-MIN KMSN 302215Z 05009KT 10SM CLR 31/22 A3004 760 56 2800 050/09 RMK AO2
14837KMSN MSN20010730162009307/30/01 16:20:31  5-MIN KMSN 302220Z 08007KT 10SM CLR 31/22 A3003 760 56 2800 080/07 RMK AO2
14837KMSN MSN20010730162509307/30/01 16:25:31  5-MIN KMSN 302225Z 10008KT 10SM CLR 31/21 A3003 760 56 2800 100/08 RMK AO2
14837KMSN MSN20010730163009307/30/01 16:30:31  5-MIN KMSN 302230Z 09008KT 10SM CLR 31/21 A3003 760 54 2800 090/08 RMK AO2
14837KMSN MSN20010730163509307/30/01 16:35:31  5-MIN KMSN 302235Z 09008KT 10SM CLR 30/21 A3003 760 56 2700 090/08 RMK AO2
14837KMSN MSN20010730164009307/30/01 16:40:31  5-MIN KMSN 302240Z 08007KT 10SM CLR 30/21 A3003 770 56 2700 080/07 RMK AO2
14837KMSN MSN20010730164509307/30/01 16:45:31  5-MIN KMSN 302245Z 08006KT 10SM CLR 30/21 A3003 770 56 2700 080/06 RMK AO2
14837KMSN MSN20010730165011307/30/01 16:50:31  5-MIN KMSN 302250Z 08007KT 10SM FEW055 29/21 A3002 770 58 2600 080/07 RMK AO2 SLP162 T02940206
14837KMSN MSN20010730165509307/30/01 16:55:31  5-MIN KMSN 302255Z 07006KT 10SM CLR 29/21 A3002 770 60 2600 070/06 RMK AO2
14837KMSN MSN20010730170009307/30/01 17:00:31  5-MIN KMSN 302300Z 07006KT 10SM CLR 29/21 A3002 770 62 2600 070/06 RMK AO2
14837KMSN MSN20010730170509307/30/01 17:05:31  5-MIN KMSN 302305Z 08006KT 10SM CLR 29/21 A3002 770 62 2600 080/06 RMK AO2
14837KMSN MSN20010730171009307/30/01 17:10:31  5-MIN KMSN 302310Z 08007KT 10SM CLR 29/21 A3002 780 62 2600 080/07 RMK AO2
14837KMSN MSN20010730171509307/30/01 17:15:31  5-MIN KMSN 302315Z 07005KT 10SM CLR 28/21 A3002 770 64 2500 070/05 RMK AO2
14837KMSN MSN20010730172009307/30/01 17:20:31  5-MIN KMSN 302320Z 08005KT 10SM CLR 28/21 A3002 770 64 2500 080/05 RMK AO2
14837KMSN MSN20010730172509307/30/01 17:25:31  5-MIN KMSN 302325Z 08003KT 10SM CLR 28/21 A3002 780 64 2500 080/03 RMK AO2
14837KMSN MSN20010730173009307/30/01 17:30:31  5-MIN KMSN 302330Z 09003KT 10SM CLR 29/22 A3001 780 64 2600 090/03 RMK AO2
14837KMSN MSN20010730173509307/30/01 17:35:31  5-MIN KMSN 302335Z 10004KT 10SM CLR 29/22 A3002 780 64 2600 100/04 RMK AO2
14837KMSN MSN20010730174009307/30/01 17:40:31  5-MIN KMSN 302340Z 07003KT 10SM CLR 29/22 A3002 780 64 2600 070/03 RMK AO2
14837KMSN MSN20010730174509307/30/01 17:45:31  5-MIN KMSN 302345Z 00000KT 10SM CLR 29/22 A3001 780 64 2600 000/00 RMK AO2
14837KMSN MSN20010730175013107/30/01 17:50:31  5-MIN KMSN 302350Z 10004KT 10SM FEW050 29/22 A3001 780 67 2600 100/04 RMK AO2 SLP158 T02890222 10322 20283 50006
14837KMSN MSN20010730175509307/30/01 17:55:31  5-MIN KMSN 302355Z 09004KT 10SM CLR 28/22 A3001 780 69 2500 090/04 RMK AO2
14837KMSN MSN20010730180009307/30/01 18:00:31  5-MIN KMSN 310000Z VRB03KT 10SM CLR 29/22 A3001 780 64 2600 VRB/03 RMK AO2
14837KMSN MSN20010730180509307/30/01 18:05:31  5-MIN KMSN 310005Z 36003KT 10SM CLR 29/22 A3001 780 64 2600 360/03 RMK AO2
14837KMSN MSN20010730181009307/30/01 18:10:31  5-MIN KMSN 310010Z VRB04KT 10SM CLR 28/22 A3001 780 69 2500 VRB/04 RMK AO2
14837KMSN MSN20010730181509307/30/01 18:15:31  5-MIN KMSN 310015Z 10006KT 10SM CLR 28/22 A3001 780 69 2500 100/06 RMK AO2
14837KMSN MSN20010730182009307/30/01 18:20:31  5-MIN KMSN 310020Z 09005KT 10SM CLR 28/22 A3001 780 66 2500 090/05 RMK AO2
14837KMSN MSN20010730182509307/30/01 18:25:31  5-MIN KMSN 310025Z 10005KT 10SM CLR 28/22 A3002 780 69 2500 100/05 RMK AO2
14837KMSN MSN20010730183009307/30/01 18:30:31  5-MIN KMSN 310030Z 11005KT 10SM CLR 28/22 A3001 780 66 2500 110/05 RMK AO2
14837KMSN MSN20010730183509307/30/01 18:35:31  5-MIN KMSN 310035Z 12004KT 10SM CLR 29/22 A3001 780 64 2600 120/04 RMK AO2
14837KMSN MSN20010730184009307/30/01 18:40:31  5-MIN KMSN 310040Z 12006KT 10SM CLR 28/22 A3001 780 66 2500 120/06 RMK AO2
14837KMSN MSN20010730184509307/30/01 18:45:31  5-MIN KMSN 310045Z 13005KT 10SM CLR 28/22 A3001 780 66 2500 130/05 RMK AO2
14837KMSN MSN20010730185011307/30/01 18:50:31  5-MIN KMSN 310050Z 14008KT 10SM FEW060 29/22 A3000 790 64 2600 130/08 RMK AO2 SLP153 T02890217
14837KMSN MSN20010730185509307/30/01 18:55:31  5-MIN KMSN 310055Z 15009KT 10SM CLR 28/22 A3000 790 66 2500 150/09 RMK AO2
14837KMSN MSN20010730190009307/30/01 19:00:31  5-MIN KMSN 310100Z 15009KT 10SM CLR 29/21 A3000 790 62 2600 150/09 RMK AO2
14837KMSN MSN20010730190509307/30/01 19:05:31  5-MIN KMSN 310105Z 15010KT 10SM CLR 29/21 A2999 800 62 2600 150/10 RMK AO2
14837KMSN MSN20010730191009307/30/01 19:10:31  5-MIN KMSN 310110Z 16010KT 10SM CLR 28/21 A2999 800 64 2500 160/10 RMK AO2
14837KMSN MSN20010730191509307/30/01 19:15:31  5-MIN KMSN 310115Z 16009KT 10SM CLR 28/21 A2999 800 64 2600 160/09 RMK AO2
14837KMSN MSN20010730192009307/30/01 19:20:31  5-MIN KMSN 310120Z 15009KT 10SM CLR 28/21 A2999 800 64 2600 150/09 RMK AO2
14837KMSN MSN20010730192509307/30/01 19:25:31  5-MIN KMSN 310125Z 15008KT 10SM CLR 28/21 A2999 800 66 2500 150/08 RMK AO2
14837KMSN MSN20010730193009307/30/01 19:30:31  5-MIN KMSN 310130Z 15009KT 10SM CLR 28/21 A2999 800 64 2500 150/09 RMK AO2
14837KMSN MSN20010730193509307/30/01 19:35:31  5-MIN KMSN 310135Z 14006KT 10SM CLR 28/21 A2999 800 64 2500 140/06 RMK AO2
14837KMSN MSN20010730194009307/30/01 19:40:31  5-MIN KMSN 310140Z 15007KT 10SM CLR 27/21 A3000 790 69 2400 150/07 RMK AO2
14837KMSN MSN20010730194509307/30/01 19:45:31  5-MIN KMSN 310145Z 15008KT 10SM CLR 27/21 A3000 790 69 2400 150/08 RMK AO2
14837KMSN MSN20010730195011007/30/01 19:50:31  5-MIN KMSN 310150Z 16007KT 10SM CLR 27/21 A3000 790 69 2400 150/07 RMK AO2 SLP151 T02720211
14837KMSN MSN20010730195509307/30/01 19:55:31  5-MIN KMSN 310155Z 18006KT 10SM CLR 27/21 A2999 800 69 2400 180/06 RMK AO2
14837KMSN MSN20010730200009307/30/01 20:00:31  5-MIN KMSN 310200Z 17007KT 10SM CLR 27/21 A2999 800 69 2400 170/07 RMK AO2
14837KMSN MSN20010730200509307/30/01 20:05:31  5-MIN KMSN 310205Z 18008KT 10SM CLR 27/21 A2999 800 69 2400 180/08 RMK AO2
14837KMSN MSN20010730201009307/30/01 20:10:31  5-MIN KMSN 310210Z 18007KT 10SM CLR 27/21 A2999 800 69 2400 180/07 RMK AO2
14837KMSN MSN20010730201509307/30/01 20:15:31  5-MIN KMSN 310215Z 18007KT 10SM CLR 27/21 A2999 800 69 2400 180/07 RMK AO2
14837KMSN MSN20010730202009307/30/01 20:20:31  5-MIN KMSN 310220Z 18006KT 10SM CLR 27/21 A2999 800 69 2400 180/06 RMK AO2
14837KMSN MSN20010730202509307/30/01 20:25:31  5-MIN KMSN 310225Z 17005KT 10SM CLR 27/21 A3000 790 71 2400 170/05 RMK AO2
14837KMSN MSN20010730203009307/30/01 20:30:31  5-MIN KMSN 310230Z 16005KT 10SM CLR 26/21 A3000 790 73 2300 160/05 RMK AO2
14837KMSN MSN20010730203509307/30/01 20:35:31  5-MIN KMSN 310235Z 16005KT 10SM CLR 26/21 A3000 790 73 2300 160/05 RMK AO2
14837KMSN MSN20010730204009307/30/01 20:40:31  5-MIN KMSN 310240Z 12006KT 10SM CLR 26/21 A3000 790 76 2200 120/06 RMK AO2
14837KMSN MSN20010730204509307/30/01 20:45:31  5-MIN KMSN 310245Z 13008KT 10SM CLR 24/21 A3000 790 81 2100 130/08 RMK AO2
14837KMSN MSN20010730205011607/30/01 20:50:31  5-MIN KMSN 310250Z 14007KT 10SM CLR 25/21 A3000 790 79 2200 130/07 RMK AO2 SLP152 T02500211 58007
14837KMSN MSN20010730205509307/30/01 20:55:31  5-MIN KMSN 310255Z 17006KT 10SM CLR 25/21 A2999 800 79 2200 170/06 RMK AO2
14837KMSN MSN20010730210009307/30/01 21:00:31  5-MIN KMSN 310300Z 18007KT 10SM CLR 26/21 A2999 800 76 2200 180/07 RMK AO2
14837KMSN MSN20010730210509307/30/01 21:05:31  5-MIN KMSN 310305Z 18006KT 10SM CLR 26/21 A3000 800 76 2200 180/06 RMK AO2
14837KMSN MSN20010730211009307/30/01 21:10:31  5-MIN KMSN 310310Z 18003KT 10SM CLR 26/21 A3000 790 76 2200 180/03 RMK AO2
14837KMSN MSN20010730211509307/30/01 21:15:31  5-MIN KMSN 310315Z 00000KT 10SM CLR 26/21 A3000 790 76 2200 000/00 RMK AO2
14837KMSN MSN20010730212009307/30/01 21:20:31  5-MIN KMSN 310320Z 20003KT 10SM CLR 26/21 A3000 790 76 2200 200/03 RMK AO2
14837KMSN MSN20010730212509307/30/01 21:25:31  5-MIN KMSN 310325Z 20004KT 10SM CLR 26/21 A3000 790 73 2300 200/04 RMK AO2
14837KMSN MSN20010730213009307/30/01 21:30:31  5-MIN KMSN 310330Z 21003KT 10SM CLR 26/21 A3001 790 73 2300 210/03 RMK AO2
14837KMSN MSN20010730213509307/30/01 21:35:31  5-MIN KMSN 310335Z 20003KT 10SM CLR 26/21 A3000 790 73 2300 200/03 RMK AO2
14837KMSN MSN20010730214009307/30/01 21:40:31  5-MIN KMSN 310340Z 00000KT 10SM CLR 26/21 A3000 790 76 2200 000/00 RMK AO2
14837KMSN MSN20010730214509307/30/01 21:45:31  5-MIN KMSN 310345Z 00000KT 10SM CLR 26/21 A3000 790 76 2200 000/00 RMK AO2
14837KMSN MSN20010730215011007/30/01 21:50:31  5-MIN KMSN 310350Z 16004KT 10SM CLR 25/21 A3000 790 79 2200 160/04 RMK AO2 SLP154 T02500211
14837KMSN MSN20010730215509307/30/01 21:55:31  5-MIN KMSN 310355Z 17005KT 10SM CLR 25/21 A3000 790 79 2200 170/05 RMK AO2
14837KMSN MSN20010730220009307/30/01 22:00:31  5-MIN KMSN 310400Z 17005KT 10SM CLR 25/21 A3000 790 79 2200 170/05 RMK AO2
14837KMSN MSN20010730220509307/30/01 22:05:31  5-MIN KMSN 310405Z 16005KT 10SM CLR 25/21 A3001 780 79 2200 160/05 RMK AO2
14837KMSN MSN20010730221009307/30/01 22:10:31  5-MIN KMSN 310410Z 17005KT 10SM CLR 25/21 A3001 780 79 2200 170/05 RMK AO2
14837KMSN MSN20010730221509307/30/01 22:15:31  5-MIN KMSN 310415Z 17004KT 10SM CLR 26/21 A3001 780 76 2200 170/04 RMK AO2
14837KMSN MSN20010730222009307/30/01 22:20:31  5-MIN KMSN 310420Z 18003KT 10SM CLR 25/21 A3002 770 79 2100 180/03 RMK AO2
14837KMSN MSN20010730222509307/30/01 22:25:31  5-MIN KMSN 310425Z 15006KT 10SM CLR 25/21 A3002 770 79 2100 150/06 RMK AO2
14837KMSN MSN20010730223009307/30/01 22:30:31  5-MIN KMSN 310430Z 11005KT 10SM CLR 24/21 A3002 770 81 2100 110/05 RMK AO2
14837KMSN MSN20010730223509307/30/01 22:35:31  5-MIN KMSN 310435Z 10005KT 10SM CLR 24/21 A3002 770 84 2000 100/05 RMK AO2
14837KMSN MSN20010730224009307/30/01 22:40:31  5-MIN KMSN 310440Z 00000KT 10SM CLR 23/21 A3003 770 87 1900 000/00 RMK AO2
14837KMSN MSN20010730224509307/30/01 22:45:31  5-MIN KMSN 310445Z 00000KT 10SM CLR 23/21 A3003 770 87 1900 000/00 RMK AO2
14837KMSN MSN20010730225011007/30/01 22:50:31  5-MIN KMSN 310450Z 00000KT 10SM CLR 23/21 A3003 760 87 1900 000/00 RMK AO2 SLP162 T02280206
14837KMSN MSN20010730225509307/30/01 22:55:31  5-MIN KMSN 310455Z VRB04KT 10SM CLR 22/21 A3003 760 90 1800 VRB/04 RMK AO2
14837KMSN MSN20010730230009307/30/01 23:00:31  5-MIN KMSN 310500Z 12005KT 10SM CLR 22/21 A3003 760 90 1800 120/05 RMK AO2
14837KMSN MSN20010730230509307/30/01 23:05:31  5-MIN KMSN 310505Z 14006KT 10SM CLR 23/21 A3003 760 90 1900 140/06 RMK AO2
14837KMSN MSN20010730231009307/30/01 23:10:31  5-MIN KMSN 310510Z 15005KT 10SM CLR 23/22 A3003 760 90 1900 150/05 RMK AO2
14837KMSN MSN20010730231509307/30/01 23:15:31  5-MIN KMSN 310515Z 15006KT 10SM CLR 24/22 A3003 760 87 2000 150/06 RMK AO2
14837KMSN MSN20010730232009307/30/01 23:20:31  5-MIN KMSN 310520Z 15006KT 10SM CLR 24/22 A3003 760 87 2000 150/06 RMK AO2
14837KMSN MSN20010730232509307/30/01 23:25:31  5-MIN KMSN 310525Z 15007KT 10SM CLR 24/22 A3003 760 87 2000 150/07 RMK AO2
14837KMSN MSN20010730233009307/30/01 23:30:31  5-MIN KMSN 310530Z 16006KT 10SM CLR 24/22 A3003 760 87 2000 160/06 RMK AO2
14837KMSN MSN20010730233509307/30/01 23:35:31  5-MIN KMSN 310535Z 16005KT 10SM CLR 24/22 A3003 760 87 2000 160/05 RMK AO2
14837KMSN MSN20010730234009307/30/01 23:40:31  5-MIN KMSN 310540Z 16005KT 10SM CLR 24/22 A3003 760 87 2000 160/05 RMK AO2
14837KMSN MSN20010730234509307/30/01 23:45:31  5-MIN KMSN 310545Z 14004KT 10SM CLR 24/21 A3003 760 84 2000 140/04 RMK AO2
14837KMSN MSN20010730235013807/30/01 23:50:31  5-MIN KMSN 310550Z 13005KT 10SM CLR 23/21 A3003 760 87 1900 130/05 RMK AO2 SLP164 T02330211 10289 20222 403220189 55005
14837KMSN MSN20010730235509307/30/01 23:55:31  5-MIN KMSN 310555Z 14005KT 10SM CLR 23/21 A3004 760 87 1900 140/05 RMK AO2
14837KMSN MSN20010731000009307/31/01 00:00:31  5-MIN KMSN 310600Z 15005KT 10SM CLR 23/21 A3004 760 87 1900 150/05 RMK AO2
14837KMSN MSN20010731000509307/31/01 00:05:31  5-MIN KMSN 310605Z 15007KT 10SM CLR 23/21 A3004 760 87 1900 140/07 RMK AO2
14837KMSN MSN20010731001009307/31/01 00:10:31  5-MIN KMSN 310610Z 14005KT 10SM CLR 24/21 A3004 760 84 2000 140/05 RMK AO2
14837KMSN MSN20010731001509307/31/01 00:15:31  5-MIN KMSN 310615Z 14004KT 10SM CLR 23/21 A3004 760 87 1900 140/04 RMK AO2
14837KMSN MSN20010731002009307/31/01 00:20:31  5-MIN KMSN 310620Z 13005KT 10SM CLR 23/21 A3003 760 87 1900 130/05 RMK AO2
14837KMSN MSN20010731002509307/31/01 00:25:31  5-MIN KMSN 310625Z 15005KT 10SM CLR 23/21 A3003 760 90 1900 150/05 RMK AO2
14837KMSN MSN20010731003009307/31/01 00:30:31  5-MIN KMSN 310630Z 16006KT 10SM CLR 23/21 A3003 760 87 1900 160/06 RMK AO2
14837KMSN MSN20010731003509307/31/01 00:35:31  5-MIN KMSN 310635Z 16006KT 10SM CLR 24/21 A3003 760 84 2000 160/06 RMK AO2
14837KMSN MSN20010731004009307/31/01 00:40:31  5-MIN KMSN 310640Z 15005KT 10SM CLR 23/21 A3004 760 87 1900 150/05 RMK AO2
14837KMSN MSN20010731004509307/31/01 00:45:31  5-MIN KMSN 310645Z 16004KT 10SM CLR 23/21 A3004 750 87 1900 160/04 RMK AO2
14837KMSN MSN20010731005011007/31/01 00:50:31  5-MIN KMSN 310650Z 16003KT 10SM CLR 23/21 A3004 750 87 1900 160/03 RMK AO2 SLP165 T02330211
14837KMSN MSN20010731005509307/31/01 00:55:31  5-MIN KMSN 310655Z 16003KT 10SM CLR 23/21 A3004 750 87 1900 160/03 RMK AO2
14837KMSN MSN20010731010009307/31/01 01:00:31  5-MIN KMSN 310700Z 16004KT 10SM CLR 23/21 A3004 750 87 1900 160/04 RMK AO2
14837KMSN MSN20010731010509207/31/01 01:05:31  5-MIN KMSN 310705Z 15005KT 9SM CLR 23/21 A3004 760 87 1900 150/05 RMK AO2
14837KMSN MSN20010731011009207/31/01 01:10:31  5-MIN KMSN 310710Z 12004KT 9SM CLR 23/21 A3004 750 87 1900 120/04 RMK AO2
14837KMSN MSN20010731011509207/31/01 01:15:31  5-MIN KMSN 310715Z 10005KT 7SM CLR 22/21 A3004 750 90 1800 100/05 RMK AO2
14837KMSN MSN20010731012009207/31/01 01:20:31  5-MIN KMSN 310720Z 11006KT 7SM CLR 22/21 A3004 750 90 1800 110/06 RMK AO2
14837KMSN MSN20010731012509207/31/01 01:25:31  5-MIN KMSN 310725Z 12004KT 7SM CLR 22/21 A3004 750 90 1800 120/04 RMK AO2
14837KMSN MSN20010731013009507/31/01 01:30:31  5-MIN KMSN 310730Z 00000KT 6SM BR CLR 22/21 A3005 750 90 1800 000/00 RMK AO2
14837KMSN MSN20010731013509507/31/01 01:35:31  5-MIN KMSN 310735Z 14003KT 6SM BR CLR 23/21 A3005 750 90 1900 140/03 RMK AO2
14837KMSN MSN20010731014009207/31/01 01:40:31  5-MIN KMSN 310740Z 15003KT 7SM CLR 23/21 A3005 740 90 1900 150/03 RMK AO2
14837KMSN MSN20010731014509207/31/01 01:45:31  5-MIN KMSN 310745Z 18003KT 7SM CLR 22/21 A3005 740 93 1700 180/03 RMK AO2
14837KMSN MSN20010731015010907/31/01 01:50:31  5-MIN KMSN 310750Z 17005KT 9SM CLR 23/21 A3006 740 90 1900 170/05 RMK AO2 SLP171 T02280211
14837KMSN MSN20010731015509207/31/01 01:55:31  5-MIN KMSN 310755Z 17006KT 8SM CLR 23/21 A3006 740 87 1900 170/06 RMK AO2
14837KMSN MSN20010731020009207/31/01 02:00:31  5-MIN KMSN 310800Z 17006KT 8SM CLR 23/21 A3006 730 87 1900 170/06 RMK AO2
14837KMSN MSN20010731020509207/31/01 02:05:31  5-MIN KMSN 310805Z 18005KT 8SM CLR 23/21 A3006 730 87 1900 180/05 RMK AO2
14837KMSN MSN20010731021009207/31/01 02:10:31  5-MIN KMSN 310810Z 18005KT 7SM CLR 23/21 A3007 730 87 1900 180/05 RMK AO2
14837KMSN MSN20010731021509207/31/01 02:15:31  5-MIN KMSN 310815Z 17006KT 7SM CLR 23/21 A3007 730 87 1900 170/06 RMK AO2
14837KMSN MSN20010731022009207/31/01 02:20:31  5-MIN KMSN 310820Z 17005KT 7SM CLR 23/21 A3007 730 87 1900 170/05 RMK AO2
14837KMSN MSN20010731022509207/31/01 02:25:31  5-MIN KMSN 310825Z 17005KT 7SM CLR 23/21 A3007 730 87 1900 170/05 RMK AO2
14837KMSN MSN20010731023009207/31/01 02:30:31  5-MIN KMSN 310830Z 17005KT 7SM CLR 23/21 A3007 730 87 1900 170/05 RMK AO2
14837KMSN MSN20010731023509207/31/01 02:35:31  5-MIN KMSN 310835Z 18005KT 7SM CLR 23/21 A3007 730 87 1900 180/05 RMK AO2
14837KMSN MSN20010731024009207/31/01 02:40:31  5-MIN KMSN 310840Z 18006KT 7SM CLR 23/21 A3007 730 87 1900 170/06 RMK AO2
14837KMSN MSN20010731024509207/31/01 02:45:31  5-MIN KMSN 310845Z 18005KT 7SM CLR 23/21 A3007 730 87 1900 180/05 RMK AO2
14837KMSN MSN20010731025011507/31/01 02:50:31  5-MIN KMSN 310850Z 18004KT 7SM CLR 23/21 A3007 720 87 1900 180/04 RMK AO2 SLP177 T02330211 51013
14837KMSN MSN20010731025509207/31/01 02:55:31  5-MIN KMSN 310855Z 18005KT 7SM CLR 23/21 A3007 720 87 1900 180/05 RMK AO2
14837KMSN MSN20010731030009207/31/01 03:00:31  5-MIN KMSN 310900Z 18004KT 7SM CLR 23/22 A3007 720 90 1900 180/04 RMK AO2
14837KMSN MSN20010731030509207/31/01 03:05:31  5-MIN KMSN 310905Z 17004KT 7SM CLR 23/21 A3007 720 90 1800 160/04 RMK AO2
14837KMSN MSN20010731031009207/31/01 03:10:31  5-MIN KMSN 310910Z 15004KT 7SM CLR 23/21 A3007 720 90 1800 150/04 RMK AO2
14837KMSN MSN20010731031509507/31/01 03:15:31  5-MIN KMSN 310915Z 16003KT 6SM BR CLR 23/21 A3007 720 90 1800 160/03 RMK AO2
14837KMSN MSN20010731032009507/31/01 03:20:31  5-MIN KMSN 310920Z 16004KT 6SM BR CLR 23/21 A3007 720 90 1800 160/04 RMK AO2
14837KMSN MSN20010731032509207/31/01 03:25:31  5-MIN KMSN 310925Z 18004KT 7SM CLR 23/21 A3008 720 90 1800 180/04 RMK AO2
14837KMSN MSN20010731033009207/31/01 03:30:31  5-MIN KMSN 310930Z 19005KT 7SM CLR 23/21 A3008 720 90 1800 190/05 RMK AO2
14837KMSN MSN20010731033509207/31/01 03:35:31  5-MIN KMSN 310935Z VRB03KT 7SM CLR 23/21 A3008 710 90 1800 VRB/03 RMK AO2
14837KMSN MSN20010731034009207/31/01 03:40:31  5-MIN KMSN 310940Z 00000KT 7SM CLR 23/21 A3008 710 87 1900 000/00 RMK AO2
14837KMSN MSN20010731034509207/31/01 03:45:31  5-MIN KMSN 310945Z 18003KT 7SM CLR 23/21 A3008 710 87 1900 180/03 RMK AO2
14837KMSN MSN20010731035010907/31/01 03:50:31  5-MIN KMSN 310950Z 17003KT 7SM CLR 23/21 A3008 720 90 1800 170/03 RMK AO2 SLP179 T02280211
14837KMSN MSN20010731035509207/31/01 03:55:31  5-MIN KMSN 310955Z 16005KT 7SM CLR 23/21 A3008 720 90 1800 160/05 RMK AO2
14837KMSN MSN20010731040009507/31/01 04:00:31  5-MIN KMSN 311000Z 15005KT 6SM BR CLR 22/21 A3008 710 93 1800 150/05 RMK AO2
14837KMSN MSN20010731040509507/31/01 04:05:31  5-MIN KMSN 311005Z 15004KT 6SM BR CLR 23/21 A3008 720 90 1800 150/04 RMK AO2
14837KMSN MSN20010731041009507/31/01 04:10:31  5-MIN KMSN 311010Z 17004KT 6SM BR CLR 23/21 A3008 720 90 1800 170/04 RMK AO2
14837KMSN MSN20010731041509207/31/01 04:15:31  5-MIN KMSN 311015Z 17004KT 7SM CLR 23/21 A3008 720 90 1800 170/04 RMK AO2
14837KMSN MSN20010731042009207/31/01 04:20:31  5-MIN KMSN 311020Z 17005KT 7SM CLR 23/21 A3008 710 90 1800 170/05 RMK AO2
14837KMSN MSN20010731042509207/31/01 04:25:31  5-MIN KMSN 311025Z 17004KT 7SM CLR 23/21 A3008 710 90 1800 170/04 RMK AO2
14837KMSN MSN20010731043009207/31/01 04:30:31  5-MIN KMSN 311030Z 16005KT 7SM CLR 23/21 A3009 710 90 1800 160/05 RMK AO2
14837KMSN MSN20010731043509507/31/01 04:35:31  5-MIN KMSN 311035Z 16005KT 6SM BR CLR 23/21 A3009 710 90 1800 160/05 RMK AO2
14837KMSN MSN20010731044009507/31/01 04:40:31  5-MIN KMSN 311040Z 16006KT 6SM BR CLR 23/21 A3009 710 90 1800 160/06 RMK AO2
14837KMSN MSN20010731044509507/31/01 04:45:31  5-MIN KMSN 311045Z 16005KT 6SM BR CLR 23/21 A3009 710 90 1800 160/05 RMK AO2
14837KMSN MSN20010731045011207/31/01 04:50:31  5-MIN KMSN 311050Z 16007KT 6SM BR CLR 23/21 A3009 710 90 1800 160/07 RMK AO2 SLP183 T02280211
14837KMSN MSN20010731045509807/31/01 04:55:31  5-MIN KMSN 311055Z 16006KT 5SM BR FEW041 23/21 A3009 700 90 1800 150/06 RMK AO2
14837KMSN MSN20010731050009807/31/01 05:00:31  5-MIN KMSN 311100Z 16006KT 4SM BR FEW041 23/21 A3009 710 90 1800 160/06 RMK AO2
14837KMSN MSN20010731050509807/31/01 05:05:31  5-MIN KMSN 311105Z 15006KT 4SM BR FEW041 23/21 A3009 710 90 1800 150/06 RMK AO2
14837KMSN MSN20010731051009807/31/01 05:10:31  5-MIN KMSN 311110Z 16006KT 4SM BR FEW041 23/21 A3009 710 90 1800 160/06 RMK AO2
14837KMSN MSN20010731051509807/31/01 05:15:31  5-MIN KMSN 311115Z 16006KT 4SM BR FEW041 23/21 A3009 710 90 1800 160/06 RMK AO2
14837KMSN MSN20010731052009807/31/01 05:20:31  5-MIN KMSN 311120Z 17005KT 4SM BR FEW041 23/22 A3009 710 93 1800 170/05 RMK AO2
14837KMSN MSN20010731052509807/31/01 05:25:31  5-MIN KMSN 311125Z 17005KT 4SM BR FEW041 23/22 A3009 710 93 1800 170/05 RMK AO2
14837KMSN MSN20010731053009507/31/01 05:30:31  5-MIN KMSN 311130Z 18005KT 4SM BR CLR 23/22 A3009 700 93 1800 180/05 RMK AO2
14837KMSN MSN20010731053509507/31/01 05:35:31  5-MIN KMSN 311135Z 18006KT 4SM BR CLR 23/22 A3010 700 90 1900 170/06 RMK AO2
14837KMSN MSN20010731054009507/31/01 05:40:31  5-MIN KMSN 311140Z 18007KT 4SM BR CLR 23/22 A3009 700 90 1900 180/07 RMK AO2
14837KMSN MSN20010731054509507/31/01 05:45:31  5-MIN KMSN 311145Z 18006KT 4SM BR CLR 23/22 A3009 710 90 1900 180/06 RMK AO2
14837KMSN MSN20010731055013007/31/01 05:50:31  5-MIN KMSN 311150Z 19006KT 4SM BR CLR 24/22 A3009 700 87 1900 190/06 RMK AO2 SLP184 T02390217 10239 20217 53013
14837KMSN MSN20010731055509507/31/01 05:55:31  5-MIN KMSN 311155Z 19005KT 5SM BR CLR 24/22 A3009 700 87 1900 190/05 RMK AO2
14837KMSN MSN20010731060009507/31/01 06:00:31  5-MIN KMSN 311200Z VRB04KT 5SM BR CLR 24/22 A3010 700 87 1900 VRB/04 RMK AO2
14837KMSN MSN20010731060509507/31/01 06:05:31  5-MIN KMSN 311205Z 18005KT 5SM BR CLR 24/22 A3009 700 87 1900 180/05 RMK AO2
14837KMSN MSN20010731061009507/31/01 06:10:31  5-MIN KMSN 311210Z 18005KT 5SM HZ CLR 24/22 A3010 700 84 2000 180/05 RMK AO2
14837KMSN MSN20010731061509507/31/01 06:15:31  5-MIN KMSN 311215Z VRB05KT 5SM HZ CLR 24/22 A3010 700 84 2000 VRB/05 RMK AO2
14837KMSN MSN20010731062009507/31/01 06:20:31  5-MIN KMSN 311220Z 19007KT 5SM HZ CLR 24/22 A3010 700 84 2000 190/07 RMK AO2
14837KMSN MSN20010731062509507/31/01 06:25:31  5-MIN KMSN 311225Z 19005KT 5SM HZ CLR 24/22 A3010 700 84 2000 190/05 RMK AO2
14837KMSN MSN20010731063009507/31/01 06:30:31  5-MIN KMSN 311230Z 18006KT 5SM BR CLR 24/22 A3010 700 87 2000 170/06 RMK AO2
14837KMSN MSN20010731063509507/31/01 06:35:31  5-MIN KMSN 311235Z 18006KT 5SM BR CLR 24/22 A3010 700 87 2000 180/06 RMK AO2
14837KMSN MSN20010731064009507/31/01 06:40:31  5-MIN KMSN 311240Z 17006KT 5SM BR CLR 24/22 A3010 700 87 2000 170/06 RMK AO2
14837KMSN MSN20010731064509507/31/01 06:45:31  5-MIN KMSN 311245Z 19007KT 5SM BR CLR 24/22 A3010 700 87 2000 190/07 RMK AO2
14837KMSN MSN20010731065011507/31/01 06:50:31  5-MIN KMSN 311250Z 19008KT 5SM HZ FEW040 25/22 A3010 700 84 2100 190/08 RMK AO2 SLP185 T02500222
14837KMSN MSN20010731065509507/31/01 06:55:31  5-MIN KMSN 311255Z 19009KT 5SM HZ CLR 25/22 A3010 700 84 2100 190/09 RMK AO2
14837KMSN MSN20010731070009507/31/01 07:00:31  5-MIN KMSN 311300Z 18009KT 5SM HZ CLR 25/22 A3010 700 84 2100 180/09 RMK AO2
14837KMSN MSN20010731070509507/31/01 07:05:31  5-MIN KMSN 311305Z 20007KT 5SM HZ CLR 26/22 A3010 700 81 2100 200/07 RMK AO2
14837KMSN MSN20010731071009507/31/01 07:10:31  5-MIN KMSN 311310Z 19006KT 6SM HZ CLR 26/23 A3011 690 81 2200 190/06 RMK AO2
14837KMSN MSN20010731071509507/31/01 07:15:31  5-MIN KMSN 311315Z 20008KT 6SM HZ CLR 26/23 A3010 690 81 2200 200/08 RMK AO2
14837KMSN MSN20010731072009507/31/01 07:20:31  5-MIN KMSN 311320Z 21008KT 6SM HZ CLR 26/23 A3011 690 81 2200 210/08 RMK AO2
14837KMSN MSN20010731072509507/31/01 07:25:31  5-MIN KMSN 311325Z 20008KT 6SM HZ CLR 26/23 A3011 690 81 2200 200/08 RMK AO2
14837KMSN MSN20010731073009207/31/01 07:30:31  5-MIN KMSN 311330Z 19008KT 7SM CLR 27/23 A3011 690 79 2200 190/08 RMK AO2
14837KMSN MSN20010731073509207/31/01 07:35:31  5-MIN KMSN 311335Z VRB05KT 7SM CLR 27/23 A3011 690 79 2200 VRB/05 RMK AO2
14837KMSN MSN20010731074009207/31/01 07:40:31  5-MIN KMSN 311340Z 18008KT 7SM CLR 27/23 A3011 690 76 2300 180/08 RMK AO2
14837KMSN MSN20010731074509207/31/01 07:45:31  5-MIN KMSN 311345Z 20005KT 8SM CLR 27/23 A3011 690 76 2300 200/05 RMK AO2
14837KMSN MSN20010731075010907/31/01 07:50:31  5-MIN KMSN 311350Z 22006KT 8SM CLR 27/23 A3011 690 76 2300 220/06 RMK AO2 SLP190 T02720228
14837KMSN MSN20010731075509207/31/01 07:55:31  5-MIN KMSN 311355Z VRB06KT 8SM CLR 27/23 A3011 690 76 2300 VRB/06 RMK AO2
14837KMSN MSN20010731080009207/31/01 08:00:31  5-MIN KMSN 311400Z 20007KT 8SM CLR 27/23 A3011 690 76 2300 200/07 RMK AO2
14837KMSN MSN20010731080509207/31/01 08:05:31  5-MIN KMSN 311405Z 19008KT 8SM CLR 28/23 A3011 690 76 2400 190/08 RMK AO2
14837KMSN MSN20010731081009207/31/01 08:10:31  5-MIN KMSN 311410Z 19010KT 8SM CLR 28/23 A3011 690 76 2400 190/10 RMK AO2
14837KMSN MSN20010731081509207/31/01 08:15:31  5-MIN KMSN 311415Z 20006KT 9SM CLR 28/23 A3011 690 74 2400 200/06 RMK AO2
14837KMSN MSN20010731082009207/31/01 08:20:31  5-MIN KMSN 311420Z 20008KT 9SM CLR 28/23 A3011 690 74 2400 200/08 RMK AO2
14837KMSN MSN20010731082509207/31/01 08:25:31  5-MIN KMSN 311425Z 21008KT 9SM CLR 28/23 A3011 690 74 2400 210/08 RMK AO2
14837KMSN MSN20010731083009307/31/01 08:30:31  5-MIN KMSN 311430Z 19007KT 10SM CLR 28/23 A3011 690 74 2400 190/07 RMK AO2
14837KMSN MSN20010731083509307/31/01 08:35:31  5-MIN KMSN 311435Z 20006KT 10SM CLR 28/23 A3011 690 74 2400 200/06 RMK AO2
14837KMSN MSN20010731084009307/31/01 08:40:31  5-MIN KMSN 311440Z 20007KT 10SM CLR 28/23 A3011 690 74 2400 200/07 RMK AO2
14837KMSN MSN20010731084509307/31/01 08:45:31  5-MIN KMSN 311445Z VRB06KT 10SM CLR 29/23 A3011 690 71 2500 VRB/06 RMK AO2
14837KMSN MSN20010731085011607/31/01 08:50:31  5-MIN KMSN 311450Z 20007KT 10SM CLR 29/24 A3010 690 71 2500 200/07 RMK AO2 SLP187 T02940239 51006
14837KMSN MSN20010731085509307/31/01 08:55:31  5-MIN KMSN 311455Z 19010KT 10SM CLR 29/23 A3010 690 71 2500 190/10 RMK AO2
14837KMSN MSN20010731090010907/31/01 09:00:31  5-MIN KMSN 311500Z 21008KT 180V240 10SM CLR 29/23 A3010 700 69 2500 210/08 180V240 RMK AO2
14837KMSN MSN20010731090509307/31/01 09:05:31  5-MIN KMSN 311505Z 20008KT 10SM CLR 29/23 A3010 690 69 2500 200/08 RMK AO2
14837KMSN MSN20010731091009307/31/01 09:10:31  5-MIN KMSN 311510Z 20007KT 10SM CLR 29/23 A3010 690 69 2500 200/07 RMK AO2
14837KMSN MSN20010731091509307/31/01 09:15:31  5-MIN KMSN 311515Z 20008KT 10SM CLR 29/23 A3011 690 69 2500 200/08 RMK AO2
14837KMSN MSN20010731092009307/31/01 09:20:31  5-MIN KMSN 311520Z 23007KT 10SM CLR 29/24 A3010 700 71 2500 230/07 RMK AO2
14837KMSN MSN20010731092509307/31/01 09:25:31  5-MIN KMSN 311525Z 21008KT 10SM CLR 29/23 A3010 700 69 2500 210/08 RMK AO2
14837KMSN MSN20010731093009307/31/01 09:30:31  5-MIN KMSN 311530Z 19007KT 10SM CLR 30/23 A3010 700 67 2600 190/07 RMK AO2
14837KMSN MSN20010731093509307/31/01 09:35:31  5-MIN KMSN 311535Z 18008KT 10SM CLR 29/23 A3010 700 69 2600 180/08 RMK AO2
14837KMSN MSN20010731094009307/31/01 09:40:31  5-MIN KMSN 311540Z 18008KT 10SM CLR 29/24 A3010 700 71 2600 180/08 RMK AO2
14837KMSN MSN20010731094509307/31/01 09:45:31  5-MIN KMSN 311545Z 16010KT 10SM CLR 30/24 A3010 700 69 2600 160/10 RMK AO2
14837KMSN MSN20010731095011007/31/01 09:50:31  5-MIN KMSN 311550Z 17010KT 10SM CLR 31/24 A3010 700 69 2700 170/10 RMK AO2 SLP185 T03060244
14837KMSN MSN20010731095509307/31/01 09:55:31  5-MIN KMSN 311555Z 18008KT 10SM CLR 30/24 A3009 700 69 2600 180/08 RMK AO2
14837KMSN MSN20010731100009607/31/01 10:00:31  5-MIN KMSN 311600Z 15011KT 10SM BKN090 30/24 A3009 710 69 2600 150/11 RMK AO2
14837KMSN MSN20010731100509607/31/01 10:05:31  5-MIN KMSN 311605Z 17011KT 10SM BKN090 30/24 A3009 710 69 2600 170/11 RMK AO2
14837KMSN MSN20010731101009607/31/01 10:10:31  5-MIN KMSN 311610Z 17011KT 10SM BKN090 31/24 A3009 710 67 2700 170/11 RMK AO2
14837KMSN MSN20010731101509607/31/01 10:15:31  5-MIN KMSN 311615Z 18009KT 10SM BKN090 31/24 A3009 710 67 2700 180/09 RMK AO2
14837KMSN MSN20010731102009607/31/01 10:20:31  5-MIN KMSN 311620Z 17011KT 10SM BKN090 31/24 A3009 710 65 2700 170/11 RMK AO2
14837KMSN MSN20010731102509607/31/01 10:25:31  5-MIN KMSN 311625Z 17009KT 10SM SCT090 31/24 A3009 710 65 2700 170/09 RMK AO2
14837KMSN MSN20010731103010207/31/01 10:30:31  5-MIN KMSN 311630Z 17012G16KT 10SM SCT090 31/24 A3009 710 65 2700 170/12G16 RMK AO2
14837KMSN MSN20010731103509607/31/01 10:35:31  5-MIN KMSN 311635Z 17010KT 10SM SCT090 32/24 A3009 710 65 2800 170/10 RMK AO2
14837KMSN MSN20010731104009607/31/01 10:40:31  5-MIN KMSN 311640Z 16009KT 10SM SCT090 32/24 A3009 710 65 2800 160/09 RMK AO2
14837KMSN MSN20010731104509607/31/01 10:45:31  5-MIN KMSN 311645Z 16012KT 10SM SCT090 32/24 A3009 710 65 2800 160/12 RMK AO2
14837KMSN MSN20010731105011307/31/01 10:50:31  5-MIN KMSN 311650Z 18011KT 10SM SCT090 32/24 A3009 710 63 2800 180/11 RMK AO2 SLP182 T03170239
14837KMSN MSN20010731105509607/31/01 10:55:31  5-MIN KMSN 311655Z 17013KT 10SM FEW090 32/23 A3009 710 61 2800 170/13 RMK AO2
14837KMSN MSN20010731110009607/31/01 11:00:31  5-MIN KMSN 311700Z 18012KT 10SM FEW090 32/24 A3009 710 61 2900 180/12 RMK AO2
14837KMSN MSN20010731110509607/31/01 11:05:31  5-MIN KMSN 311705Z 21008KT 10SM FEW090 32/24 A3009 710 61 2900 210/08 RMK AO2
14837KMSN MSN20010731111009607/31/01 11:10:31  5-MIN KMSN 311710Z 21007KT 10SM FEW090 33/23 A3009 710 57 2900 210/07 RMK AO2
14837KMSN MSN20010731111509607/31/01 11:15:31  5-MIN KMSN 311715Z 21007KT 10SM FEW090 32/23 A3009 710 59 2900 210/07 RMK AO2
14837KMSN MSN20010731112009607/31/01 11:20:31  5-MIN KMSN 311720Z 21007KT 10SM SCT040 32/23 A3009 710 59 2900 210/07 RMK AO2
14837KMSN MSN20010731112511807/31/01 11:25:31  5-MIN KMSN 311725Z 21009G14KT 180V240 10SM SCT040 33/23 A3009 710 55 2900 210/09G14 180V240 RMK AO2
14837KMSN MSN20010731113011207/31/01 11:30:31  5-MIN KMSN 311730Z 19007KT 170V230 10SM SCT040 33/23 A3009 710 55 3000 190/07 170V230 RMK AO2
14837KMSN MSN20010731113509607/31/01 11:35:31  5-MIN KMSN 311735Z 20009KT 10SM SCT040 33/23 A3009 710 55 3000 200/09 RMK AO2
14837KMSN MSN20010731114009607/31/01 11:40:31  5-MIN KMSN 311740Z 18009KT 10SM SCT040 33/23 A3009 710 53 3000 180/09 RMK AO2
14837KMSN MSN20010731114509607/31/01 11:45:31  5-MIN KMSN 311745Z VRB05KT 10SM SCT050 33/23 A3009 710 53 3000 VRB/05 RMK AO2
14837KMSN MSN20010731115013107/31/01 11:50:31  5-MIN KMSN 311750Z 20009KT 10SM SCT050 33/23 A3009 710 53 3000 200/09 RMK AO2 SLP183 T03330228 10333 20239 50004
14837KMSN MSN20010731115509607/31/01 11:55:31  5-MIN KMSN 311755Z 19012KT 10SM SCT050 33/23 A3009 710 55 3000 190/12 RMK AO2
14837KMSN MSN20010731120009607/31/01 12:00:31  5-MIN KMSN 311800Z 19009KT 10SM SCT050 33/23 A3009 710 53 3000 180/09 RMK AO2
14837KMSN MSN20010731120509607/31/01 12:05:31  5-MIN KMSN 311805Z 22009KT 10SM SCT050 33/23 A3009 710 55 2900 220/09 RMK AO2
14837KMSN MSN20010731121011207/31/01 12:10:31  5-MIN KMSN 311810Z 21009KT 160V230 10SM SCT050 33/23 A3009 710 53 3000 210/09 160V230 RMK AO2
14837KMSN MSN20010731121511207/31/01 12:15:31  5-MIN KMSN 311815Z 20008KT 170V240 10SM SCT050 33/23 A3009 710 53 3000 200/08 170V240 RMK AO2
14837KMSN MSN20010731122009607/31/01 12:20:31  5-MIN KMSN 311820Z 19011KT 10SM SCT050 34/22 A3009 710 50 3100 190/11 RMK AO2
14837KMSN MSN20010731122509607/31/01 12:25:31  5-MIN KMSN 311825Z 21006KT 10SM SCT050 34/23 A3009 710 51 3100 210/06 RMK AO2
14837KMSN MSN20010731123011207/31/01 12:30:31  5-MIN KMSN 311830Z 21007KT 180V250 10SM SCT045 34/23 A3009 710 51 3100 210/07 180V250 RMK AO2
14837KMSN MSN20010731123509507/31/01 12:35:31  5-MIN KMSN 311835Z 19009KT 9SM SCT045 34/23 A3009 710 51 3100 190/09 RMK AO2
14837KMSN MSN20010731124009607/31/01 12:40:31  5-MIN KMSN 311840Z 21008KT 10SM SCT045 34/23 A3009 710 51 3100 210/08 RMK AO2
14837KMSN MSN20010731124509607/31/01 12:45:31  5-MIN KMSN 311845Z 20009KT 10SM SCT045 33/22 A3008 720 51 3000 200/09 RMK AO2
14837KMSN MSN20010731125011907/31/01 12:50:31  5-MIN KMSN 311850Z 20007G15KT 10SM SCT045 34/23 A3008 720 51 3100 200/07G15 RMK AO2 SLP178 T03390228
14837KMSN MSN20010731125509607/31/01 12:55:31  5-MIN KMSN 311855Z VRB06KT 10SM SCT045 34/23 A3008 720 51 3100 VRB/06 RMK AO2
14837KMSN MSN20010731130009607/31/01 13:00:31  5-MIN KMSN 311900Z 22007KT 10SM SCT045 34/23 A3008 720 51 3100 220/07 RMK AO2
14837KMSN MSN20010731130510207/31/01 13:05:31  5-MIN KMSN 311905Z 20010G14KT 10SM SCT045 34/22 A3008 720 50 3100 200/10G14 RMK AO2
14837KMSN MSN20010731131009607/31/01 13:10:31  5-MIN KMSN 311910Z 23008KT 10SM SCT045 34/23 A3008 720 51 3100 230/08 RMK AO2
14837KMSN MSN20010731131509607/31/01 13:15:31  5-MIN KMSN 311915Z 21005KT 10SM SCT045 34/22 A3008 720 50 3100 210/05 RMK AO2
14837KMSN MSN20010731132009607/31/01 13:20:31  5-MIN KMSN 311920Z 19008KT 10SM SCT045 34/22 A3008 720 50 3100 190/08 RMK AO2
14837KMSN MSN20010731132509607/31/01 13:25:31  5-MIN KMSN 311925Z 21009KT 10SM SCT045 34/22 A3008 720 48 3100 210/09 RMK AO2
14837KMSN MSN20010731133009607/31/01 13:30:31  5-MIN KMSN 311930Z 19008KT 10SM SCT045 34/22 A3008 720 46 3100 190/08 RMK AO2
14837KMSN MSN20010731133511207/31/01 13:35:31  5-MIN KMSN 311935Z 23007KT 200V260 10SM SCT045 34/22 A3008 720 48 3100 230/07 200V260 RMK AO2
14837KMSN MSN20010731134009607/31/01 13:40:31  5-MIN KMSN 311940Z 18009KT 10SM SCT045 34/22 A3008 720 48 3100 180/09 RMK AO2
14837KMSN MSN20010731134511207/31/01 13:45:31  5-MIN KMSN 311945Z 19009KT 170V240 10SM SCT050 34/23 A3008 720 50 3100 190/09 170V240 RMK AO2
14837KMSN MSN20010731135011307/31/01 13:50:31  5-MIN KMSN 311950Z 20008KT 10SM SCT050 34/23 A3008 720 50 3100 200/08 RMK AO2 SLP177 T03440228
14837KMSN MSN20010731135509307/31/01 13:55:31  5-MIN KMSN 311955Z 19011KT 10SM CLR 34/22 A3007 720 48 3100 190/11 RMK AO2
14837KMSN MSN20010731140009607/31/01 14:00:31  5-MIN KMSN 312000Z 22008KT 10SM SCT050 34/22 A3007 720 50 3100 220/08 RMK AO2
14837KMSN MSN20010731140511207/31/01 14:05:31  5-MIN KMSN 312005Z 22007KT 170V260 10SM SCT050 34/22 A3007 720 48 3100 220/07 170V260 RMK AO2
14837KMSN MSN20010731141009607/31/01 14:10:31  5-MIN KMSN 312010Z 20009KT 10SM SCT050 34/22 A3007 720 48 3100 200/09 RMK AO2
14837KMSN MSN20010731141509607/31/01 14:15:31  5-MIN KMSN 312015Z 22007KT 10SM SCT050 34/22 A3007 720 48 3100 220/07 RMK AO2
14837KMSN MSN20010731142009607/31/01 14:20:31  5-MIN KMSN 312020Z 22009KT 10SM SCT050 34/22 A3007 720 50 3100 220/09 RMK AO2
14837KMSN MSN20010731142509607/31/01 14:25:31  5-MIN KMSN 312025Z 21009KT 10SM SCT050 34/22 A3007 720 48 3100 210/09 RMK AO2
14837KMSN MSN20010731143009607/31/01 14:30:31  5-MIN KMSN 312030Z 19008KT 10SM SCT050 34/22 A3007 720 46 3100 190/08 RMK AO2
14837KMSN MSN20010731143509607/31/01 14:35:31  5-MIN KMSN 312035Z 20010KT 10SM SCT050 34/22 A3007 720 48 3100 200/10 RMK AO2
14837KMSN MSN20010731144011207/31/01 14:40:31  5-MIN KMSN 312040Z 19008KT 160V230 10SM SCT050 34/22 A3007 730 48 3100 190/08 160V230 RMK AO2
14837KMSN MSN20010731144511207/31/01 14:45:31  5-MIN KMSN 312045Z 22008KT 190V250 10SM SCT050 34/22 A3007 730 48 3100 220/08 190V250 RMK AO2
14837KMSN MSN20010731145011907/31/01 14:50:31  5-MIN KMSN 312050Z 22008KT 10SM SCT050 34/22 A3007 730 48 3100 220/08 RMK AO2 SLP174 T03440222 55005
14837KMSN MSN20010731145511207/31/01 14:55:31  5-MIN KMSN 312055Z 22007KT 180V240 10SM SCT050 34/22 A3007 730 48 3100 220/07 180V240 RMK AO2
14837KMSN MSN20010731150011207/31/01 15:00:31  5-MIN KMSN 312100Z 21009KT 170V230 10SM SCT050 34/22 A3007 730 48 3100 200/09 170V230 RMK AO2
14837KMSN MSN20010731150509607/31/01 15:05:31  5-MIN KMSN 312105Z 18010KT 10SM SCT050 34/22 A3007 730 46 3100 180/10 RMK AO2
14837KMSN MSN20010731151009607/31/01 15:10:31  5-MIN KMSN 312110Z 20010KT 10SM SCT050 34/22 A3007 730 46 3100 200/10 RMK AO2
14837KMSN MSN20010731151509607/31/01 15:15:31  5-MIN KMSN 312115Z 19009KT 10SM SCT050 34/22 A3007 730 48 3100 190/09 RMK AO2
14837KMSN MSN20010731152009607/31/01 15:20:31  5-MIN KMSN 312120Z 22008KT 10SM SCT050 34/22 A3007 730 48 3100 220/08 RMK AO2
14837KMSN MSN20010731152511207/31/01 15:25:31  5-MIN KMSN 312125Z 21007KT 170V260 10SM SCT050 34/22 A3006 730 48 3100 210/07 170V260 RMK AO2
14837KMSN MSN20010731153010207/31/01 15:30:31  5-MIN KMSN 312130Z 19008G14KT 10SM SCT050 34/22 A3006 730 48 3100 190/08G14 RMK AO2
14837KMSN MSN20010731153511807/31/01 15:35:31  5-MIN KMSN 312135Z 20008G14KT 170V240 10SM SCT050 34/22 A3006 730 48 3100 200/08G14 170V240 RMK AO2
14837KMSN MSN20010731154009607/31/01 15:40:31  5-MIN KMSN 312140Z VRB05KT 10SM SCT050 34/22 A3006 730 48 3100 VRB/05 RMK AO2
14837KMSN MSN20010731154509607/31/01 15:45:31  5-MIN KMSN 312145Z 17013KT 10SM SCT050 34/22 A3006 730 48 3100 170/13 RMK AO2
14837KMSN MSN20010731155011307/31/01 15:50:31  5-MIN KMSN 312150Z 18010KT 10SM FEW050 34/22 A3006 730 50 3100 180/10 RMK AO2 SLP173 T03390222
14837KMSN MSN20010731155509507/31/01 15:55:31  5-MIN KMSN 312155Z 17014KT 9SM FEW050 34/23 A3006 740 50 3100 170/14 RMK AO2
14837KMSN MSN20010731160009507/31/01 16:00:31  5-MIN KMSN 312200Z 18011KT 9SM FEW050 34/23 A3006 740 51 3100 180/11 RMK AO2
14837KMSN MSN20010731160509607/31/01 16:05:31  5-MIN KMSN 312205Z 17013KT 10SM FEW050 34/23 A3006 740 50 3100 170/13 RMK AO2
14837KMSN MSN20010731161009607/31/01 16:10:31  5-MIN KMSN 312210Z 18011KT 10SM FEW050 34/23 A3006 740 50 3100 180/11 RMK AO2
14837KMSN MSN20010731161509607/31/01 16:15:31  5-MIN KMSN 312215Z 18011KT 10SM FEW050 34/23 A3006 740 51 3100 180/11 RMK AO2
14837KMSN MSN20010731162009607/31/01 16:20:31  5-MIN KMSN 312220Z 17012KT 10SM FEW050 34/23 A3006 740 51 3100 170/12 RMK AO2
14837KMSN MSN20010731162509607/31/01 16:25:31  5-MIN KMSN 312225Z 17011KT 10SM FEW050 34/23 A3006 730 51 3100 170/11 RMK AO2
14837KMSN MSN20010731163009607/31/01 16:30:31  5-MIN KMSN 312230Z 17011KT 10SM SCT050 34/23 A3006 730 51 3100 170/11 RMK AO2
14837KMSN MSN20010731163509607/31/01 16:35:31  5-MIN KMSN 312235Z 17011KT 10SM SCT050 34/23 A3006 730 51 3100 170/11 RMK AO2
14837KMSN MSN20010731164009607/31/01 16:40:31  5-MIN KMSN 312240Z 18010KT 10SM SCT050 34/23 A3006 740 53 3100 180/10 RMK AO2
14837KMSN MSN20010731164509607/31/01 16:45:31  5-MIN KMSN 312245Z 17013KT 10SM SCT050 34/23 A3006 740 51 3100 170/13 RMK AO2
14837KMSN MSN20010731165011307/31/01 16:50:31  5-MIN KMSN 312250Z 18011KT 10SM SCT050 34/23 A3006 730 51 3100 180/11 RMK AO2 SLP173 T03390228
14837KMSN MSN20010731165509607/31/01 16:55:31  5-MIN KMSN 312255Z 19012KT 10SM FEW050 33/22 A3006 730 51 3000 180/12 RMK AO2
14837KMSN MSN20010731170009607/31/01 17:00:31  5-MIN KMSN 312300Z 18011KT 10SM FEW050 34/23 A3006 730 51 3100 180/11 RMK AO2
14837KMSN MSN20010731170509607/31/01 17:05:31  5-MIN KMSN 312305Z 17011KT 10SM FEW050 33/23 A3006 730 53 3000 170/11 RMK AO2
14837KMSN MSN20010731171009307/31/01 17:10:31  5-MIN KMSN 312310Z 17013KT 10SM CLR 33/23 A3006 730 53 3000 170/13 RMK AO2
14837KMSN MSN20010731171509307/31/01 17:15:31  5-MIN KMSN 312315Z 18010KT 10SM CLR 33/23 A3006 730 53 3000 180/10 RMK AO2
14837KMSN MSN20010731172009307/31/01 17:20:31  5-MIN KMSN 312320Z 17012KT 10SM CLR 33/23 A3006 730 53 3000 170/12 RMK AO2
14837KMSN MSN20010731172509307/31/01 17:25:31  5-MIN KMSN 312325Z 18010KT 10SM CLR 33/23 A3006 730 53 3000 180/10 RMK AO2
14837KMSN MSN20010731173009307/31/01 17:30:31  5-MIN KMSN 312330Z 19011KT 10SM CLR 33/23 A3006 730 55 3000 190/11 RMK AO2
14837KMSN MSN20010731173509307/31/01 17:35:31  5-MIN KMSN 312335Z 18011KT 10SM CLR 33/23 A3007 730 55 3000 180/11 RMK AO2
14837KMSN MSN20010731174009307/31/01 17:40:31  5-MIN KMSN 312340Z 18010KT 10SM CLR 33/22 A3006 730 53 3000 180/10 RMK AO2
14837KMSN MSN20010731174509307/31/01 17:45:31  5-MIN KMSN 312345Z 18009KT 10SM CLR 33/22 A3007 730 53 3000 180/09 RMK AO2
14837KMSN MSN20010731175013107/31/01 17:50:31  5-MIN KMSN 312350Z 17010KT 10SM FEW050 33/22 A3006 730 53 3000 170/10 RMK AO2 SLP174 T03280222 10350 20328 56006
14837KMSN MSN20010731175509307/31/01 17:55:31  5-MIN KMSN 312355Z 18011KT 10SM CLR 32/22 A3007 730 55 2900 170/11 RMK AO2
14837KMSN MSN20010731180009307/31/01 18:00:31  5-MIN KMSN 010000Z 18010KT 10SM CLR 32/22 A3007 730 55 2900 180/10 RMK AO2
14837KMSN MSN20010731180509307/31/01 18:05:31  5-MIN KMSN 010005Z 18011KT 10SM CLR 32/22 A3007 730 55 2900 180/11 RMK AO2
14837KMSN MSN20010731181009307/31/01 18:10:31  5-MIN KMSN 010010Z 18011KT 10SM CLR 32/22 A3007 730 55 2900 180/11 RMK AO2
14837KMSN MSN20010731181509307/31/01 18:15:31  5-MIN KMSN 010015Z 18008KT 10SM CLR 32/22 A3007 730 55 2900 180/08 RMK AO2
14837KMSN MSN20010731182009307/31/01 18:20:31  5-MIN KMSN 010020Z 18010KT 10SM CLR 32/22 A3007 730 56 2800 180/10 RMK AO2
14837KMSN MSN20010731182509307/31/01 18:25:31  5-MIN KMSN 010025Z 18009KT 10SM CLR 32/22 A3007 730 56 2800 180/09 RMK AO2
14837KMSN MSN20010731183009307/31/01 18:30:31  5-MIN KMSN 010030Z 18008KT 10SM CLR 32/22 A3007 730 56 2800 180/08 RMK AO2
14837KMSN MSN20010731183509307/31/01 18:35:31  5-MIN KMSN 010035Z 18010KT 10SM CLR 32/22 A3007 730 56 2800 180/10 RMK AO2
14837KMSN MSN20010731184009307/31/01 18:40:31  5-MIN KMSN 010040Z 18008KT 10SM CLR 32/22 A3007 730 56 2800 180/08 RMK AO2
14837KMSN MSN20010731184509307/31/01 18:45:31  5-MIN KMSN 010045Z 20006KT 10SM CLR 32/22 A3007 730 56 2800 190/06 RMK AO2
14837KMSN MSN20010731185011607/31/01 18:50:31  5-MIN KMSN 010050Z 20010G14KT 10SM CLR 31/22 A3007 730 58 2800 190/10G14 RMK AO2 SLP176 T03110222
14837KMSN MSN20010731185511507/31/01 18:55:31  5-MIN KMSN 010055Z 20007G14KT 170V230 10SM CLR 31/22 A3007 720 58 2800 200/07G14 170V230 RMK AO2
14837KMSN MSN20010731190009307/31/01 19:00:31  5-MIN KMSN 010100Z 20006KT 10SM CLR 31/22 A3007 720 58 2800 200/06 RMK AO2
14837KMSN MSN20010731190509307/31/01 19:05:31  5-MIN KMSN 010105Z 19008KT 10SM CLR 31/22 A3007 720 58 2800 190/08 RMK AO2
14837KMSN MSN20010731191009307/31/01 19:10:31  5-MIN KMSN 010110Z 19008KT 10SM CLR 31/22 A3007 720 58 2800 190/08 RMK AO2
14837KMSN MSN20010731191509307/31/01 19:15:31  5-MIN KMSN 010115Z 19006KT 10SM CLR 31/22 A3007 720 60 2700 180/06 RMK AO2
14837KMSN MSN20010731192009307/31/01 19:20:31  5-MIN KMSN 010120Z 18008KT 10SM CLR 31/22 A3007 720 60 2700 180/08 RMK AO2
14837KMSN MSN20010731192509307/31/01 19:25:31  5-MIN KMSN 010125Z 18009KT 10SM CLR 31/22 A3008 720 60 2700 180/09 RMK AO2
14837KMSN MSN20010731193009307/31/01 19:30:31  5-MIN KMSN 010130Z 18009KT 10SM CLR 30/22 A3007 720 62 2600 180/09 RMK AO2
14837KMSN MSN20010731193509307/31/01 19:35:31  5-MIN KMSN 010135Z 18009KT 10SM CLR 30/23 A3007 720 65 2600 180/09 RMK AO2
14837KMSN MSN20010731194009307/31/01 19:40:31  5-MIN KMSN 010140Z 18010KT 10SM CLR 30/23 A3007 720 65 2600 180/10 RMK AO2
14837KMSN MSN20010731194509307/31/01 19:45:31  5-MIN KMSN 010145Z 18010KT 10SM CLR 30/23 A3008 720 65 2600 180/10 RMK AO2
14837KMSN MSN20010731195011007/31/01 19:50:31  5-MIN KMSN 010150Z 19011KT 10SM CLR 30/23 A3007 720 67 2600 180/11 RMK AO2 SLP176 T03000233
14837KMSN MSN20010731195509307/31/01 19:55:31  5-MIN KMSN 010155Z 18009KT 10SM CLR 29/23 A3008 720 69 2600 180/09 RMK AO2
14837KMSN MSN20010731200009307/31/01 20:00:31  5-MIN KMSN 010200Z 18009KT 10SM CLR 29/23 A3008 720 69 2600 180/09 RMK AO2
14837KMSN MSN20010731200509307/31/01 20:05:31  5-MIN KMSN 010205Z 18009KT 10SM CLR 29/23 A3008 720 69 2600 180/09 RMK AO2
14837KMSN MSN20010731201009307/31/01 20:10:31  5-MIN KMSN 010210Z 18008KT 10SM CLR 29/23 A3008 720 69 2600 180/08 RMK AO2
14837KMSN MSN20010731201509307/31/01 20:15:31  5-MIN KMSN 010215Z 18009KT 10SM CLR 29/23 A3008 720 67 2600 180/09 RMK AO2
14837KMSN MSN20010731202009307/31/01 20:20:31  5-MIN KMSN 010220Z 18009KT 10SM CLR 29/23 A3008 720 69 2500 180/09 RMK AO2
14837KMSN MSN20010731202509307/31/01 20:25:31  5-MIN KMSN 010225Z 18009KT 10SM CLR 29/23 A3007 720 69 2500 180/09 RMK AO2
14837KMSN MSN20010731203009307/31/01 20:30:31  5-MIN KMSN 010230Z 18010KT 10SM CLR 29/23 A3007 720 69 2500 180/10 RMK AO2
14837KMSN MSN20010731203509307/31/01 20:35:31  5-MIN KMSN 010235Z 18009KT 10SM CLR 29/23 A3008 720 69 2500 180/09 RMK AO2
14837KMSN MSN20010731204009307/31/01 20:40:31  5-MIN KMSN 010240Z 18009KT 10SM CLR 29/23 A3008 720 69 2500 180/09 RMK AO2
14837KMSN MSN20010731204509307/31/01 20:45:31  5-MIN KMSN 010245Z 18009KT 10SM CLR 29/23 A3008 720 69 2500 180/09 RMK AO2
14837KMSN MSN20010731205011607/31/01 20:50:31  5-MIN KMSN 010250Z 18008KT 10SM CLR 28/23 A3008 720 71 2500 180/08 RMK AO2 SLP178 T02830228 55002
14837KMSN MSN20010731205509307/31/01 20:55:31  5-MIN KMSN 010255Z 18010KT 10SM CLR 28/23 A3008 710 71 2400 180/10 RMK AO2
14837KMSN MSN20010731210009307/31/01 21:00:31  5-MIN KMSN 010300Z 19009KT 10SM CLR 29/23 A3009 710 69 2500 180/09 RMK AO2
14837KMSN MSN20010731210509307/31/01 21:05:31  5-MIN KMSN 010305Z 18008KT 10SM CLR 28/23 A3009 710 74 2400 180/08 RMK AO2
14837KMSN MSN20010731211009307/31/01 21:10:31  5-MIN KMSN 010310Z 18007KT 10SM CLR 28/23 A3009 710 76 2400 180/07 RMK AO2
14837KMSN MSN20010731211509307/31/01 21:15:31  5-MIN KMSN 010315Z 17010KT 10SM CLR 28/23 A3009 700 74 2400 170/10 RMK AO2
14837KMSN MSN20010731212009307/31/01 21:20:31  5-MIN KMSN 010320Z 18010KT 10SM CLR 28/23 A3009 700 76 2400 180/10 RMK AO2
14837KMSN MSN20010731212509207/31/01 21:25:31  5-MIN KMSN 010325Z 17009KT 9SM CLR 28/23 A3009 700 76 2400 170/09 RMK AO2
14837KMSN MSN20010731213009207/31/01 21:30:31  5-MIN KMSN 010330Z 18009KT 9SM CLR 28/23 A3010 700 76 2400 180/09 RMK AO2
14837KMSN MSN20010731213509207/31/01 21:35:31  5-MIN KMSN 010335Z 17009KT 9SM CLR 28/23 A3010 700 76 2400 170/09 RMK AO2
14837KMSN MSN20010731214009207/31/01 21:40:31  5-MIN KMSN 010340Z 18009KT 9SM CLR 27/23 A3010 700 79 2300 170/09 RMK AO2
14837KMSN MSN20010731214509207/31/01 21:45:31  5-MIN KMSN 010345Z 18008KT 9SM CLR 27/23 A3010 700 79 2300 180/08 RMK AO2
14837KMSN MSN20010731215010907/31/01 21:50:31  5-MIN KMSN 010350Z 18008KT 9SM CLR 27/23 A3010 700 79 2300 180/08 RMK AO2 SLP186 T02720233
14837KMSN MSN20010731215509207/31/01 21:55:31  5-MIN KMSN 010355Z 18010KT 8SM CLR 27/23 A3010 690 79 2300 180/10 RMK AO2
14837KMSN MSN20010731220009207/31/01 22:00:31  5-MIN KMSN 010400Z 18008KT 8SM CLR 27/23 A3011 690 79 2300 170/08 RMK AO2
14837KMSN MSN20010731220509207/31/01 22:05:31  5-MIN KMSN 010405Z 18008KT 9SM CLR 27/23 A3011 690 79 2300 180/08 RMK AO2
14837KMSN MSN20010731221009207/31/01 22:10:31  5-MIN KMSN 010410Z 18008KT 8SM CLR 27/23 A3011 690 79 2300 180/08 RMK AO2
14837KMSN MSN20010731221509207/31/01 22:15:31  5-MIN KMSN 010415Z 18008KT 9SM CLR 27/23 A3011 690 79 2300 180/08 RMK AO2
14837KMSN MSN20010731222009207/31/01 22:20:31  5-MIN KMSN 010420Z 18010KT 9SM CLR 27/23 A3011 690 79 2300 180/10 RMK AO2
14837KMSN MSN20010731222509207/31/01 22:25:31  5-MIN KMSN 010425Z 18008KT 9SM CLR 27/23 A3012 680 76 2300 180/08 RMK AO2
14837KMSN MSN20010731223009207/31/01 22:30:31  5-MIN KMSN 010430Z 19008KT 9SM CLR 27/23 A3012 680 76 2300 190/08 RMK AO2
14837KMSN MSN20010731223509207/31/01 22:35:31  5-MIN KMSN 010435Z 19007KT 9SM CLR 27/23 A3012 680 76 2300 190/07 RMK AO2
14837KMSN MSN20010731224009207/31/01 22:40:31  5-MIN KMSN 010440Z 19007KT 9SM CLR 27/23 A3012 680 76 2300 180/07 RMK AO2
14837KMSN MSN20010731224509207/31/01 22:45:31  5-MIN KMSN 010445Z 19005KT 9SM CLR 27/23 A3013 670 76 2300 190/05 RMK AO2
14837KMSN MSN20010731225010907/31/01 22:50:31  5-MIN KMSN 010450Z 18008KT 8SM CLR 27/23 A3013 670 76 2300 180/08 RMK AO2 SLP194 T02720228
14837KMSN MSN20010731225509207/31/01 22:55:31  5-MIN KMSN 010455Z 18008KT 8SM CLR 27/23 A3013 670 79 2200 180/08 RMK AO2
14837KMSN MSN20010731230009207/31/01 23:00:31  5-MIN KMSN 010500Z 18008KT 8SM CLR 27/23 A3013 670 79 2200 180/08 RMK AO2
14837KMSN MSN20010731230509207/31/01 23:05:31  5-MIN KMSN 010505Z 18008KT 8SM CLR 27/23 A3013 670 79 2200 180/08 RMK AO2
14837KMSN MSN20010731231009207/31/01 23:10:31  5-MIN KMSN 010510Z 18008KT 8SM CLR 27/23 A3013 670 79 2200 180/08 RMK AO2
14837KMSN MSN20010731231509207/31/01 23:15:31  5-MIN KMSN 010515Z 18008KT 8SM CLR 27/23 A3013 670 79 2200 180/08 RMK AO2
14837KMSN MSN20010731232009207/31/01 23:20:31  5-MIN KMSN 010520Z 18007KT 8SM CLR 27/23 A3013 670 79 2200 180/07 RMK AO2
14837KMSN MSN20010731232509207/31/01 23:25:31  5-MIN KMSN 010525Z 18008KT 8SM CLR 27/23 A3013 670 79 2200 180/08 RMK AO2
14837KMSN MSN20010731233009207/31/01 23:30:31  5-MIN KMSN 010530Z 18007KT 7SM CLR 26/23 A3013 670 81 2100 180/07 RMK AO2
14837KMSN MSN20010731233509207/31/01 23:35:31  5-MIN KMSN 010535Z 18008KT 7SM CLR 26/23 A3014 660 81 2100 180/08 RMK AO2
14837KMSN MSN20010731234009207/31/01 23:40:31  5-MIN KMSN 010540Z 18008KT 8SM CLR 26/23 A3014 660 81 2100 180/08 RMK AO2
14837KMSN MSN20010731234509207/31/01 23:45:31  5-MIN KMSN 010545Z 19008KT 8SM CLR 26/23 A3014 660 81 2100 180/08 RMK AO2
14837KMSN MSN20010731235013707/31/01 23:50:31  5-MIN KMSN 010550Z 18008KT 8SM CLR 26/23 A3013 670 81 2100 180/08 RMK AO2 SLP197 T02610228 10328 20261 403500217 51005
14837KMSN MSN20010731235509207/31/01 23:55:31  5-MIN KMSN 010555Z 18007KT 8SM CLR 26/23 A3013 670 81 2100 180/07 RMK AO2
