14837KMSN MSN20060201000011702/01/06 00:00:49  5-MIN KMSN 010600Z 17010KT 6SM -RA BR OVC055 01/M01 A2974 1030 89 -300 170/10 RMK AO2 PRESFR P0000
14837KMSN MSN20060201000511002/01/06 00:05:31  5-MIN KMSN 010605Z 19007KT 6SM -RA BR OVC060 01/M01 A2974 1030 89 -300 190/07 RMK AO2 P0000
14837KMSN MSN20060201001011002/01/06 00:10:31  5-MIN KMSN 010610Z 18007KT 6SM -RA BR OVC060 02/M01 A2974 1030 85 -200 170/07 RMK AO2 P0000
14837KMSN MSN20060201001511002/01/06 00:15:32  5-MIN KMSN 010615Z 17011KT 6SM -RA BR OVC060 02/M01 A2973 1040 85 -200 170/11 RMK AO2 P0000
14837KMSN MSN20060201002011202/01/06 00:20:31  5-MIN KMSN 010620Z 18007KT 6SM BR OVC065 02/M01 A2973 1040 85 -200 180/07 RMK AO2 RAE20 P0000
14837KMSN MSN20060201002511202/01/06 00:25:31  5-MIN KMSN 010625Z 17009KT 6SM BR OVC065 01/M01 A2973 1040 89 -300 170/09 RMK AO2 RAE20 P0000
14837KMSN MSN20060201003011202/01/06 00:30:31  5-MIN KMSN 010630Z 16009KT 6SM BR OVC070 01/M01 A2973 1050 89 -300 160/09 RMK AO2 RAE20 P0000
14837KMSN MSN20060201003511202/01/06 00:35:31  5-MIN KMSN 010635Z 16010KT 6SM BR OVC070 01/M01 A2972 1050 89 -300 160/10 RMK AO2 RAE20 P0000
14837KMSN MSN20060201004011202/01/06 00:40:31  5-MIN KMSN 010640Z 17008KT 6SM BR OVC070 02/M01 A2972 1050 85 -200 170/08 RMK AO2 RAE20 P0000
14837KMSN MSN20060201004511202/01/06 00:45:31  5-MIN KMSN 010645Z 16009KT 6SM BR OVC075 01/M01 A2971 1060 89 -300 160/09 RMK AO2 RAE20 P0000
14837KMSN MSN20060201005013602/01/06 00:50:31  5-MIN KMSN 010650Z 15007KT 6SM BR BKN075 OVC090 01/M01 A2971 1060 89 -300 150/07 RMK AO2 RAE20 SLP071 P0000 T00111006
14837KMSN MSN20060201005510002/01/06 00:55:31  5-MIN KMSN 010655Z 16010KT 6SM BR OVC080 01/M01 A2971 1060 89 -300 160/10 RMK AO2
14837KMSN MSN20060201010010002/01/06 01:00:31  5-MIN KMSN 010700Z 16011KT 6SM BR OVC080 02/M01 A2971 1060 85 -200 160/11 RMK AO2
14837KMSN MSN20060201010510002/01/06 01:05:31  5-MIN KMSN 010705Z 15007KT 6SM BR OVC080 02/M01 A2971 1060 85 -200 150/07 RMK AO2
14837KMSN MSN20060201011010002/01/06 01:10:31  5-MIN KMSN 010710Z 15008KT 6SM BR OVC075 02/M01 A2970 1070 85 -200 150/08 RMK AO2
14837KMSN MSN20060201011510002/01/06 01:15:31  5-MIN KMSN 010715Z 16008KT 6SM BR OVC070 02/M01 A2970 1070 85 -200 150/08 RMK AO2
14837KMSN MSN20060201012010002/01/06 01:20:31  5-MIN KMSN 010720Z 19006KT 6SM BR OVC065 02/M01 A2971 1060 85 -200 190/06 RMK AO2
14837KMSN MSN20060201012511602/01/06 01:25:31  5-MIN KMSN 010725Z 17007KT 6SM -RA BR OVC055 02/M01 A2970 1070 85 -200 170/07 RMK AO2 RAB24 P0000
14837KMSN MSN20060201013011602/01/06 01:30:31  5-MIN KMSN 010730Z 17009KT 5SM -RA BR OVC050 02/M01 A2970 1070 85 -200 170/09 RMK AO2 RAB24 P0000
14837KMSN MSN20060201013512302/01/06 01:35:31  5-MIN KMSN 010735Z 16011KT 5SM UP BR OVC048 02/M01 A2969 1080 85 -200 160/11 RMK AO2 RAB24E33UPB33 P0000
14837KMSN MSN20060201014012202/01/06 01:40:31  5-MIN KMSN 010740Z 16011KT 5SM BR OVC048 01/M01 A2968 1090 89 -300 160/11 RMK AO2 PRESFR RAB24E37 P0000
14837KMSN MSN20060201014511502/01/06 01:45:31  5-MIN KMSN 010745Z 17009KT 6SM BR OVC048 02/M01 A2968 1090 85 -200 170/09 RMK AO2 RAB24E37 P0000
14837KMSN MSN20060201015014002/01/06 01:50:31  5-MIN KMSN 010750Z 16012KT 6SM -RA BR OVC055 02/M01 A2967 1100 85 -200 160/12 RMK AO2 PRESFR SLP055 RAB24 P0000 T00171006
14837KMSN MSN20060201015511702/01/06 01:55:31  5-MIN KMSN 010755Z 15011KT 6SM -RA BR OVC060 02/M01 A2966 1110 85 -200 150/11 RMK AO2 PRESFR P0000
14837KMSN MSN20060201020011702/01/06 02:00:31  5-MIN KMSN 010800Z 15013KT 6SM -RA BR BKN070 02/M01 A2965 1120 85 -100 150/13 RMK AO2 PRESFR P0000
14837KMSN MSN20060201020511902/01/06 02:05:31  5-MIN KMSN 010805Z 15012KT 6SM BR BKN070 02/M01 A2964 1120 85 -100 150/12 RMK AO2 RAE03 PRESFR P0000
14837KMSN MSN20060201021011202/01/06 02:10:31  5-MIN KMSN 010810Z 15011KT 6SM BR BKN080 02/M01 A2964 1130 85 -100 150/11 RMK AO2 RAE03 P0000
14837KMSN MSN20060201021511202/01/06 02:15:31  5-MIN KMSN 010815Z 16012KT 6SM BR BKN090 02/M01 A2964 1130 85 -100 160/12 RMK AO2 RAE03 P0000
14837KMSN MSN20060201022011202/01/06 02:20:31  5-MIN KMSN 010820Z 16011KT 6SM BR BKN090 02/M01 A2963 1130 85 -100 160/11 RMK AO2 RAE03 P0000
14837KMSN MSN20060201022511202/01/06 02:25:31  5-MIN KMSN 010825Z 16011KT 6SM BR BKN095 02/M01 A2963 1140 85 -100 160/11 RMK AO2 RAE03 P0000
14837KMSN MSN20060201023011202/01/06 02:30:31  5-MIN KMSN 010830Z 16010KT 6SM BR BKN090 02/M01 A2962 1140 85 -100 160/10 RMK AO2 RAE03 P0000
14837KMSN MSN20060201023511202/01/06 02:35:31  5-MIN KMSN 010835Z 17013KT 6SM BR BKN090 02/M01 A2962 1140 85 -100 160/13 RMK AO2 RAE03 P0000
14837KMSN MSN20060201024011202/01/06 02:40:31  5-MIN KMSN 010840Z 17012KT 6SM BR OVC085 02/M01 A2962 1140 85 -100 170/12 RMK AO2 RAE03 P0000
14837KMSN MSN20060201024510902/01/06 02:45:31  5-MIN KMSN 010845Z 17012KT 7SM BKN085 02/M01 A2962 1140 85 -100 170/12 RMK AO2 RAE03 P0000
14837KMSN MSN20060201025013502/01/06 02:50:31  5-MIN KMSN 010850Z 18010KT 7SM BKN090 02/M01 A2962 1140 82 0 180/10 RMK AO2 RAE03 SLP038 P0000 60000 T00221006 58018
14837KMSN MSN20060201025509402/01/06 02:55:31  5-MIN KMSN 010855Z 18012KT 7SM BKN090 02/M01 A2962 1140 82 0 180/12 RMK AO2
14837KMSN MSN20060201030009402/01/06 03:00:31  5-MIN KMSN 010900Z 18011KT 7SM SCT090 02/M01 A2961 1150 82 0 180/11 RMK AO2
14837KMSN MSN20060201030509402/01/06 03:05:31  5-MIN KMSN 010905Z 18013KT 7SM BKN095 02/M01 A2961 1150 82 0 180/13 RMK AO2
14837KMSN MSN20060201031011002/01/06 03:10:31  5-MIN KMSN 010910Z 21007KT 180V240 7SM BKN090 02/M01 A2962 1140 82 0 210/07 180V240 RMK AO2
14837KMSN MSN20060201031509402/01/06 03:15:31  5-MIN KMSN 010915Z 20007KT 7SM BKN075 02/M01 A2961 1150 82 0 200/07 RMK AO2
14837KMSN MSN20060201032011002/01/06 03:20:31  5-MIN KMSN 010920Z 17010KT 6SM -RA BKN060 02/M01 A2960 1160 82 0 170/10 RMK AO2 RAB16 P0000
14837KMSN MSN20060201032512402/01/06 03:25:31  5-MIN KMSN 010925Z 16015KT 7SM -RA BKN060 OVC085 02/M01 A2957 1190 82 0 160/15 RMK AO2 RAB16 PRESFR P0000
14837KMSN MSN20060201033012302/01/06 03:30:31  5-MIN KMSN 010930Z 16014KT 8SM BKN065 OVC085 03/M01 A2957 1190 79 0 160/14 RMK AO2 RAB16E28 PRESFR P0000
14837KMSN MSN20060201033512302/01/06 03:35:31  5-MIN KMSN 010935Z 17014KT 8SM SCT060 OVC080 03/M01 A2956 1200 79 0 170/14 RMK AO2 RAB16E28 PRESFR P0000
14837KMSN MSN20060201034011602/01/06 03:40:31  5-MIN KMSN 010940Z 19011KT 8SM SCT050 OVC080 03/M01 A2957 1190 79 0 180/11 RMK AO2 RAB16E28 P0000
14837KMSN MSN20060201034511602/01/06 03:45:31  5-MIN KMSN 010945Z 18012KT 8SM FEW049 OVC085 03/M01 A2957 1190 79 0 180/12 RMK AO2 RAB16E28 P0000
14837KMSN MSN20060201035013202/01/06 03:50:31  5-MIN KMSN 010950Z 18010KT 8SM FEW055 OVC085 03/00 A2957 1190 82 0 180/10 RMK AO2 RAB16E28 SLP020 P0000 T00280000
14837KMSN MSN20060201035509302/01/06 03:55:31  5-MIN KMSN 010955Z 19012KT 8SM OVC085 03/00 A2957 1190 82 0 180/12 RMK AO2
14837KMSN MSN20060201040009302/01/06 04:00:31  5-MIN KMSN 011000Z 19010KT 8SM OVC090 03/00 A2957 1190 82 0 190/10 RMK AO2
14837KMSN MSN20060201040509302/01/06 04:05:31  5-MIN KMSN 011005Z 19010KT 8SM OVC095 03/00 A2957 1190 82 0 190/10 RMK AO2
14837KMSN MSN20060201041009302/01/06 04:10:31  5-MIN KMSN 011010Z 19009KT 8SM OVC095 03/00 A2956 1200 82 0 190/09 RMK AO2
14837KMSN MSN20060201041509302/01/06 04:15:31  5-MIN KMSN 011015Z 19009KT 8SM OVC100 03/00 A2957 1190 82 0 190/09 RMK AO2
14837KMSN MSN20060201042009302/01/06 04:20:31  5-MIN KMSN 011020Z 19009KT 8SM OVC095 03/00 A2956 1200 82 0 190/09 RMK AO2
14837KMSN MSN20060201042509302/01/06 04:25:31  5-MIN KMSN 011025Z 19008KT 8SM OVC095 03/00 A2956 1200 82 0 190/08 RMK AO2
14837KMSN MSN20060201043009502/01/06 04:30:31  5-MIN KMSN 011030Z 18009KT 9SM OVC095 03/00 A2956 1200 79 100 180/09 RMK AO2
14837KMSN MSN20060201043509502/01/06 04:35:31  5-MIN KMSN 011035Z 18009KT 9SM OVC095 03/00 A2955 1210 79 100 180/09 RMK AO2
14837KMSN MSN20060201044009502/01/06 04:40:31  5-MIN KMSN 011040Z 19009KT 9SM OVC095 03/00 A2955 1210 82 100 180/09 RMK AO2
14837KMSN MSN20060201044509502/01/06 04:45:31  5-MIN KMSN 011045Z 19009KT 9SM OVC095 03/00 A2955 1210 79 100 190/09 RMK AO2
14837KMSN MSN20060201045011202/01/06 04:50:31  5-MIN KMSN 011050Z 18009KT 9SM OVC095 03/00 A2955 1210 79 100 180/09 RMK AO2 SLP012 T00330000
14837KMSN MSN20060201045509502/01/06 04:55:31  5-MIN KMSN 011055Z 18008KT 9SM OVC095 03/00 A2954 1210 79 100 180/08 RMK AO2
14837KMSN MSN20060201050009502/01/06 05:00:31  5-MIN KMSN 011100Z 18008KT 9SM OVC095 03/00 A2954 1220 79 100 180/08 RMK AO2
14837KMSN MSN20060201050509502/01/06 05:05:31  5-MIN KMSN 011105Z 18008KT 9SM OVC095 03/00 A2954 1220 79 100 180/08 RMK AO2
14837KMSN MSN20060201051009602/01/06 05:10:31  5-MIN KMSN 011110Z 18009KT 10SM OVC095 03/00 A2954 1220 79 100 180/09 RMK AO2
14837KMSN MSN20060201051509602/01/06 05:15:31  5-MIN KMSN 011115Z 18010KT 10SM OVC095 03/00 A2953 1220 79 100 180/10 RMK AO2
14837KMSN MSN20060201052009602/01/06 05:20:31  5-MIN KMSN 011120Z 19009KT 10SM OVC095 03/00 A2953 1220 79 100 190/09 RMK AO2
14837KMSN MSN20060201052509602/01/06 05:25:31  5-MIN KMSN 011125Z 19010KT 10SM OVC095 04/00 A2953 1220 76 200 190/10 RMK AO2
14837KMSN MSN20060201053009602/01/06 05:30:31  5-MIN KMSN 011130Z 19009KT 10SM OVC095 04/00 A2953 1230 76 200 190/09 RMK AO2
14837KMSN MSN20060201053509602/01/06 05:35:31  5-MIN KMSN 011135Z 19009KT 10SM OVC095 04/00 A2953 1230 76 200 180/09 RMK AO2
14837KMSN MSN20060201054009602/01/06 05:40:31  5-MIN KMSN 011140Z 18009KT 10SM OVC090 04/00 A2953 1230 76 200 180/09 RMK AO2
14837KMSN MSN20060201054509602/01/06 05:45:31  5-MIN KMSN 011145Z 19008KT 10SM OVC095 04/00 A2953 1230 76 200 180/08 RMK AO2
14837KMSN MSN20060201055013802/01/06 05:50:31  5-MIN KMSN 011150Z 19011KT 10SM OVC090 04/M01 A2953 1230 73 200 190/11 RMK AO2 SLP008 60000 T00391006 10039 20011 58043
14837KMSN MSN20060201055509702/01/06 05:55:31  5-MIN KMSN 011155Z 19010KT 10SM OVC090 04/M01 A2953 1230 73 200 190/10 RMK AO2
14837KMSN MSN20060201060010402/01/06 06:00:31  5-MIN KMSN 011200Z 19009KT 10SM BKN090 OVC110 04/M01 A2954 1220 70 300 190/09 RMK AO2
14837KMSN MSN20060201060510402/01/06 06:05:31  5-MIN KMSN 011205Z 20011KT 10SM BKN090 OVC110 04/M01 A2953 1220 70 300 190/11 RMK AO2
14837KMSN MSN20060201061009702/01/06 06:10:31  5-MIN KMSN 011210Z 19008KT 10SM OVC090 04/M01 A2953 1220 70 300 190/08 RMK AO2
14837KMSN MSN20060201061509702/01/06 06:15:31  5-MIN KMSN 011215Z 20007KT 10SM OVC090 04/M01 A2954 1220 73 200 200/07 RMK AO2
14837KMSN MSN20060201062009702/01/06 06:20:31  5-MIN KMSN 011220Z 20008KT 10SM OVC090 04/M01 A2954 1220 70 300 200/08 RMK AO2
14837KMSN MSN20060201062511002/01/06 06:25:31  5-MIN KMSN 011225Z 22005G14KT 10SM FEW036 OVC090 04/M01 A2954 1220 70 300 220/05G14 RMK AO2
14837KMSN MSN20060201063011002/01/06 06:30:31  5-MIN KMSN 011230Z 20009G14KT 10SM SCT034 OVC090 04/M01 A2953 1220 70 300 190/09G14 RMK AO2
14837KMSN MSN20060201063510402/01/06 06:35:31  5-MIN KMSN 011235Z 20011KT 10SM SCT034 OVC095 04/M01 A2953 1230 70 300 200/11 RMK AO2
14837KMSN MSN20060201064010402/01/06 06:40:31  5-MIN KMSN 011240Z 20011KT 10SM FEW034 OVC095 04/M01 A2953 1220 70 300 200/11 RMK AO2
14837KMSN MSN20060201064510402/01/06 06:45:31  5-MIN KMSN 011245Z 20011KT 10SM FEW034 OVC095 04/M01 A2954 1220 70 300 200/11 RMK AO2
14837KMSN MSN20060201065012102/01/06 06:50:31  5-MIN KMSN 011250Z 21008KT 10SM FEW034 OVC095 04/M01 A2954 1220 70 300 210/08 RMK AO2 SLP010 T00441006
14837KMSN MSN20060201065510402/01/06 06:55:31  5-MIN KMSN 011255Z 22007KT 10SM FEW032 BKN095 04/M01 A2954 1220 67 300 220/07 RMK AO2
14837KMSN MSN20060201070009702/01/06 07:00:31  5-MIN KMSN 011300Z 22007KT 10SM BKN095 04/M01 A2954 1220 67 300 220/07 RMK AO2
14837KMSN MSN20060201070509702/01/06 07:05:31  5-MIN KMSN 011305Z 22007KT 10SM BKN095 04/M01 A2954 1220 67 300 220/07 RMK AO2
14837KMSN MSN20060201071009702/01/06 07:10:31  5-MIN KMSN 011310Z 22007KT 10SM SCT095 04/M01 A2954 1220 67 300 220/07 RMK AO2
14837KMSN MSN20060201071509702/01/06 07:15:31  5-MIN KMSN 011315Z 24008KT 10SM FEW090 04/M01 A2954 1220 67 300 240/08 RMK AO2
14837KMSN MSN20060201072010402/01/06 07:20:31  5-MIN KMSN 011320Z 24007KT 10SM FEW025 SCT090 04/M01 A2954 1220 67 300 230/07 RMK AO2
14837KMSN MSN20060201072510402/01/06 07:25:31  5-MIN KMSN 011325Z 24008KT 10SM SCT025 BKN090 04/M01 A2954 1220 67 300 240/08 RMK AO2
14837KMSN MSN20060201073010302/01/06 07:30:31  5-MIN KMSN 011330Z 24009G14KT 10SM BKN025 04/M01 A2954 1220 70 300 240/09G14 RMK AO2
14837KMSN MSN20060201073510302/01/06 07:35:31  5-MIN KMSN 011335Z 24007G14KT 10SM BKN025 04/M01 A2954 1220 73 200 240/07G14 RMK AO2
14837KMSN MSN20060201074011302/01/06 07:40:31  5-MIN KMSN 011340Z 23007KT 190V270 10SM BKN023 04/M01 A2954 1220 73 200 230/07 190V270 RMK AO2
14837KMSN MSN20060201074509702/01/06 07:45:31  5-MIN KMSN 011345Z 24008KT 10SM OVC023 04/M01 A2954 1220 73 200 240/08 RMK AO2
14837KMSN MSN20060201075011302/01/06 07:50:31  5-MIN KMSN 011350Z VRB06KT 10SM OVC023 04/00 A2954 1210 76 200 VRB/06 RMK AO2 SLP012 T00390000
14837KMSN MSN20060201075509602/01/06 07:55:31  5-MIN KMSN 011355Z 24007KT 10SM OVC023 04/00 A2955 1210 76 200 240/07 RMK AO2
14837KMSN MSN20060201080009602/01/06 08:00:31  5-MIN KMSN 011400Z VRB05KT 10SM OVC021 04/00 A2955 1210 76 200 VRB/05 RMK AO2
14837KMSN MSN20060201080509602/01/06 08:05:31  5-MIN KMSN 011405Z 29006KT 10SM OVC021 04/00 A2955 1210 76 200 290/06 RMK AO2
14837KMSN MSN20060201081009602/01/06 08:10:31  5-MIN KMSN 011410Z 28010KT 10SM OVC019 04/00 A2955 1210 76 200 280/10 RMK AO2
14837KMSN MSN20060201081510102/01/06 08:15:31  5-MIN KMSN 011415Z 28011G17KT 9SM OVC019 04/00 A2955 1210 76 200 280/11G17 RMK AO2
14837KMSN MSN20060201082011702/01/06 08:20:31  5-MIN KMSN 011420Z 27008G17KT 240V310 8SM OVC017 03/00 A2955 1210 79 100 270/08G17 240V310 RMK AO2
14837KMSN MSN20060201082511702/01/06 08:25:31  5-MIN KMSN 011425Z 26008G19KT 220V290 8SM OVC017 03/00 A2955 1210 79 100 260/08G19 220V290 RMK AO2
14837KMSN MSN20060201083010102/01/06 08:30:31  5-MIN KMSN 011430Z 26007G19KT 8SM OVC017 03/00 A2955 1210 79 100 260/07G19 RMK AO2
14837KMSN MSN20060201083509502/01/06 08:35:31  5-MIN KMSN 011435Z 27007KT 7SM OVC017 03/00 A2955 1210 79 100 270/07 RMK AO2
14837KMSN MSN20060201084011102/01/06 08:40:31  5-MIN KMSN 011440Z 26009KT 230V290 7SM OVC017 03/00 A2955 1210 79 100 260/09 230V290 RMK AO2
14837KMSN MSN20060201084509502/01/06 08:45:31  5-MIN KMSN 011445Z 27006KT 7SM OVC017 03/00 A2955 1210 79 100 270/06 RMK AO2
14837KMSN MSN20060201085013402/01/06 08:50:31  5-MIN KMSN 011450Z 27008KT 240V310 7SM OVC017 03/00 A2955 1210 82 100 270/08 240V310 RMK AO2 SLP013 T00280000 56030
14837KMSN MSN20060201085509502/01/06 08:55:31  5-MIN KMSN 011455Z 27006KT 7SM OVC017 03/00 A2955 1210 82 100 270/06 RMK AO2
14837KMSN MSN20060201090009502/01/06 09:00:31  5-MIN KMSN 011500Z 28008KT 7SM OVC017 03/00 A2955 1210 82 100 270/08 RMK AO2
14837KMSN MSN20060201090509502/01/06 09:05:31  5-MIN KMSN 011505Z 27009KT 7SM OVC017 03/00 A2955 1210 82 100 270/09 RMK AO2
14837KMSN MSN20060201091009302/01/06 09:10:31  5-MIN KMSN 011510Z 28006KT 7SM OVC017 03/00 A2956 1200 82 0 280/06 RMK AO2
14837KMSN MSN20060201091509302/01/06 09:15:31  5-MIN KMSN 011515Z 26007KT 7SM OVC017 03/00 A2956 1200 82 0 260/07 RMK AO2
14837KMSN MSN20060201092009302/01/06 09:20:31  5-MIN KMSN 011520Z 28008KT 7SM OVC017 03/00 A2956 1200 82 0 280/08 RMK AO2
14837KMSN MSN20060201092510902/01/06 09:25:31  5-MIN KMSN 011525Z 27008KT 240V310 7SM OVC017 03/00 A2956 1200 82 0 270/08 240V310 RMK AO2
14837KMSN MSN20060201093009602/01/06 09:30:31  5-MIN KMSN 011530Z 28008KT 6SM HZ OVC017 03/00 A2957 1190 82 0 280/08 RMK AO2
14837KMSN MSN20060201093509602/01/06 09:35:31  5-MIN KMSN 011535Z VRB05KT 6SM HZ OVC015 03/00 A2957 1190 82 0 VRB/05 RMK AO2
14837KMSN MSN20060201094009602/01/06 09:40:31  5-MIN KMSN 011540Z VRB05KT 6SM HZ OVC015 03/00 A2957 1190 82 0 VRB/05 RMK AO2
14837KMSN MSN20060201094509602/01/06 09:45:31  5-MIN KMSN 011545Z 27007KT 6SM HZ OVC015 03/00 A2957 1190 82 0 270/07 RMK AO2
14837KMSN MSN20060201095011302/01/06 09:50:31  5-MIN KMSN 011550Z 28007KT 6SM HZ OVC015 03/00 A2958 1180 82 0 280/07 RMK AO2 SLP023 T00280000
14837KMSN MSN20060201095509602/01/06 09:55:31  5-MIN KMSN 011555Z 28007KT 6SM HZ OVC015 03/00 A2958 1180 82 0 280/07 RMK AO2
14837KMSN MSN20060201100009602/01/06 10:00:31  5-MIN KMSN 011600Z 29007KT 6SM HZ OVC015 03/00 A2959 1180 82 0 290/07 RMK AO2
14837KMSN MSN20060201100509602/01/06 10:05:31  5-MIN KMSN 011605Z 29007KT 6SM HZ OVC015 03/00 A2959 1170 82 0 290/07 RMK AO2
14837KMSN MSN20060201101009602/01/06 10:10:31  5-MIN KMSN 011610Z 29008KT 6SM HZ OVC015 03/00 A2959 1170 82 0 290/08 RMK AO2
14837KMSN MSN20060201101510302/01/06 10:15:31  5-MIN KMSN 011615Z 29006KT 6SM HZ BKN015 OVC019 03/00 A2959 1170 82 0 290/06 RMK AO2
14837KMSN MSN20060201102010302/01/06 10:20:31  5-MIN KMSN 011620Z 30007KT 6SM HZ BKN015 OVC022 03/00 A2959 1170 82 0 300/07 RMK AO2
14837KMSN MSN20060201102510102/01/06 10:25:31  5-MIN KMSN 011625Z 29008KT 7SM SCT015 OVC022 03/M01 A2960 1160 79 0 290/08 RMK AO2
14837KMSN MSN20060201103010102/01/06 10:30:31  5-MIN KMSN 011630Z 29008KT 8SM FEW015 OVC022 03/M01 A2960 1160 79 0 290/08 RMK AO2
14837KMSN MSN20060201103510102/01/06 10:35:31  5-MIN KMSN 011635Z 27008KT 8SM FEW015 OVC020 03/M01 A2960 1160 79 0 270/08 RMK AO2
14837KMSN MSN20060201104009402/01/06 10:40:31  5-MIN KMSN 011640Z 28007KT 8SM OVC020 03/M01 A2960 1160 79 0 280/07 RMK AO2
14837KMSN MSN20060201104509402/01/06 10:45:31  5-MIN KMSN 011645Z 28006KT 8SM OVC020 03/M01 A2961 1160 79 0 280/06 RMK AO2
14837KMSN MSN20060201105011102/01/06 10:50:31  5-MIN KMSN 011650Z 29010KT 8SM OVC020 03/M01 A2961 1160 79 0 290/10 RMK AO2 SLP033 T00281006
14837KMSN MSN20060201105511002/01/06 10:55:31  5-MIN KMSN 011655Z 29009KT 250V310 8SM OVC020 03/M01 A2961 1150 79 0 290/09 250V310 RMK AO2
14837KMSN MSN20060201110011602/01/06 11:00:31  5-MIN KMSN 011700Z 28008G15KT 250V310 8SM OVC020 03/M01 A2961 1150 75 0 280/08G15 250V310 RMK AO2
14837KMSN MSN20060201110510002/01/06 11:05:31  5-MIN KMSN 011705Z 29008G15KT 8SM OVC022 03/M01 A2960 1160 79 0 290/08G15 RMK AO2
14837KMSN MSN20060201111009602/01/06 11:10:31  5-MIN KMSN 011710Z 29008KT 8SM OVC022 03/M01 A2961 1160 72 100 290/08 RMK AO2
14837KMSN MSN20060201111510202/01/06 11:15:31  5-MIN KMSN 011715Z 29010G15KT 8SM OVC022 03/M01 A2960 1160 72 100 290/10G15 RMK AO2
14837KMSN MSN20060201112009602/01/06 11:20:31  5-MIN KMSN 011720Z 29009KT 9SM OVC022 03/M01 A2960 1160 72 100 290/09 RMK AO2
14837KMSN MSN20060201112511002/01/06 11:25:31  5-MIN KMSN 011725Z 29008KT 260V320 8SM OVC022 03/M01 A2960 1160 75 0 290/08 260V320 RMK AO2
14837KMSN MSN20060201113009602/01/06 11:30:31  5-MIN KMSN 011730Z 29010KT 8SM OVC022 03/M01 A2960 1160 72 100 280/10 RMK AO2
14837KMSN MSN20060201113509402/01/06 11:35:31  5-MIN KMSN 011735Z 29009KT 8SM OVC022 03/M01 A2961 1160 75 0 290/09 RMK AO2
14837KMSN MSN20060201114009602/01/06 11:40:31  5-MIN KMSN 011740Z 29008KT 8SM OVC022 03/M01 A2961 1160 72 100 290/08 RMK AO2
14837KMSN MSN20060201114511202/01/06 11:45:31  5-MIN KMSN 011745Z 28008KT 260V320 8SM OVC022 03/M01 A2961 1150 72 100 280/08 260V320 RMK AO2
14837KMSN MSN20060201115013102/01/06 11:50:31  5-MIN KMSN 011750Z 29010KT 8SM OVC022 03/M01 A2961 1150 72 100 290/10 RMK AO2 SLP034 T00331011 10044 20028 51006
14837KMSN MSN20060201115509402/01/06 11:55:31  5-MIN KMSN 011755Z 28011KT 8SM OVC022 03/M01 A2962 1150 72 0 280/11 RMK AO2
14837KMSN MSN20060201120010002/01/06 12:00:31  5-MIN KMSN 011800Z 28009G16KT 7SM OVC022 03/M01 A2962 1150 72 0 280/09G16 RMK AO2
14837KMSN MSN20060201120510202/01/06 12:05:31  5-MIN KMSN 011805Z 30008G18KT 8SM OVC022 03/M01 A2962 1150 72 100 300/08G18 RMK AO2
14837KMSN MSN20060201121010002/01/06 12:10:31  5-MIN KMSN 011810Z 30012G18KT 8SM OVC022 03/M01 A2962 1150 75 0 300/12G18 RMK AO2
14837KMSN MSN20060201121510002/01/06 12:15:31  5-MIN KMSN 011815Z 30011G17KT 8SM OVC022 03/M01 A2962 1150 75 0 300/11G17 RMK AO2
14837KMSN MSN20060201122009402/01/06 12:20:31  5-MIN KMSN 011820Z 29010KT 7SM OVC020 03/M01 A2962 1150 75 0 290/10 RMK AO2
14837KMSN MSN20060201122509402/01/06 12:25:31  5-MIN KMSN 011825Z 30007KT 7SM OVC020 03/M01 A2962 1150 75 0 300/07 RMK AO2
14837KMSN MSN20060201123011002/01/06 12:30:31  5-MIN KMSN 011830Z 28007KT 250V320 7SM OVC020 03/M01 A2962 1150 75 0 280/07 250V320 RMK AO2
14837KMSN MSN20060201123509402/01/06 12:35:31  5-MIN KMSN 011835Z 30009KT 7SM OVC020 03/M01 A2962 1150 75 0 290/09 RMK AO2
14837KMSN MSN20060201124009402/01/06 12:40:31  5-MIN KMSN 011840Z 30006KT 7SM OVC020 03/M01 A2962 1150 75 0 300/06 RMK AO2
14837KMSN MSN20060201124509402/01/06 12:45:31  5-MIN KMSN 011845Z 30006KT 7SM OVC020 03/M01 A2962 1150 79 0 300/06 RMK AO2
14837KMSN MSN20060201125011402/01/06 12:50:31  5-MIN KMSN 011850Z 30007KT 6SM HZ OVC020 03/M01 A2962 1140 79 0 300/07 RMK AO2 SLP038 T00281006
14837KMSN MSN20060201125509702/01/06 12:55:31  5-MIN KMSN 011855Z 31007KT 6SM HZ OVC018 03/M01 A2962 1140 79 0 300/07 RMK AO2
14837KMSN MSN20060201130009702/01/06 13:00:31  5-MIN KMSN 011900Z 30008KT 6SM HZ OVC018 03/M01 A2962 1140 76 0 300/08 RMK AO2
14837KMSN MSN20060201130509402/01/06 13:05:31  5-MIN KMSN 011905Z 29009KT 7SM OVC020 03/M01 A2962 1140 72 0 290/09 RMK AO2
14837KMSN MSN20060201131010002/01/06 13:10:31  5-MIN KMSN 011910Z 28011G16KT 7SM OVC020 03/M01 A2962 1140 72 0 280/11G16 RMK AO2
14837KMSN MSN20060201131510002/01/06 13:15:31  5-MIN KMSN 011915Z 30010G16KT 8SM OVC020 03/M02 A2962 1140 70 0 300/10G16 RMK AO2
14837KMSN MSN20060201132010002/01/06 13:20:31  5-MIN KMSN 011920Z 29012G17KT 8SM OVC020 03/M02 A2962 1140 72 0 290/12G17 RMK AO2
14837KMSN MSN20060201132510002/01/06 13:25:31  5-MIN KMSN 011925Z 31011G17KT 8SM OVC020 03/M02 A2963 1140 72 0 310/11G17 RMK AO2
14837KMSN MSN20060201133009402/01/06 13:30:31  5-MIN KMSN 011930Z 30010KT 7SM OVC020 03/M02 A2963 1140 72 0 300/10 RMK AO2
14837KMSN MSN20060201133509402/01/06 13:35:31  5-MIN KMSN 011935Z 30007KT 7SM OVC020 03/M01 A2963 1130 75 0 290/07 RMK AO2
14837KMSN MSN20060201134009402/01/06 13:40:31  5-MIN KMSN 011940Z 28007KT 7SM OVC020 03/M01 A2963 1140 75 0 280/07 RMK AO2
14837KMSN MSN20060201134509402/01/06 13:45:31  5-MIN KMSN 011945Z 29008KT 7SM OVC020 03/M01 A2963 1140 75 0 290/08 RMK AO2
14837KMSN MSN20060201135011102/01/06 13:50:31  5-MIN KMSN 011950Z 30008KT 7SM OVC020 03/M01 A2962 1140 75 0 300/08 RMK AO2 SLP039 T00281011
14837KMSN MSN20060201135509402/01/06 13:55:31  5-MIN KMSN 011955Z 29005KT 7SM OVC020 03/M01 A2962 1140 75 0 290/05 RMK AO2
14837KMSN MSN20060201140009402/01/06 14:00:31  5-MIN KMSN 012000Z 31006KT 7SM OVC020 03/M01 A2962 1140 75 0 310/06 RMK AO2
14837KMSN MSN20060201140509402/01/06 14:05:31  5-MIN KMSN 012005Z 31008KT 7SM OVC020 03/M01 A2963 1140 75 0 310/08 RMK AO2
14837KMSN MSN20060201141010002/01/06 14:10:31  5-MIN KMSN 012010Z 31010G15KT 7SM OVC020 03/M02 A2963 1140 72 0 310/10G15 RMK AO2
14837KMSN MSN20060201141510002/01/06 14:15:31  5-MIN KMSN 012015Z 31009G15KT 7SM OVC020 03/M02 A2963 1130 72 0 310/09G15 RMK AO2
14837KMSN MSN20060201142009402/01/06 14:20:31  5-MIN KMSN 012020Z VRB05KT 7SM OVC020 03/M02 A2963 1130 72 0 VRB/05 RMK AO2
14837KMSN MSN20060201142509402/01/06 14:25:31  5-MIN KMSN 012025Z 30009KT 7SM OVC020 03/M02 A2964 1130 72 0 290/09 RMK AO2
14837KMSN MSN20060201143011002/01/06 14:30:31  5-MIN KMSN 012030Z 30009KT 250V320 8SM OVC020 03/M02 A2964 1130 72 0 290/09 250V320 RMK AO2
14837KMSN MSN20060201143509402/01/06 14:35:31  5-MIN KMSN 012035Z 28007KT 8SM OVC020 03/M02 A2964 1130 72 0 280/07 RMK AO2
14837KMSN MSN20060201144009402/01/06 14:40:31  5-MIN KMSN 012040Z 29008KT 8SM OVC020 03/M02 A2964 1130 72 0 290/08 RMK AO2
14837KMSN MSN20060201144511002/01/06 14:45:31  5-MIN KMSN 012045Z 28007KT 240V300 8SM OVC022 03/M02 A2964 1120 72 0 280/07 240V300 RMK AO2
14837KMSN MSN20060201145011702/01/06 14:50:31  5-MIN KMSN 012050Z 29009KT 8SM OVC022 03/M02 A2964 1120 72 0 290/09 RMK AO2 SLP045 T00281017 51022
14837KMSN MSN20060201145509402/01/06 14:55:31  5-MIN KMSN 012055Z 30007KT 8SM OVC022 03/M02 A2964 1120 72 0 290/07 RMK AO2
14837KMSN MSN20060201150009402/01/06 15:00:31  5-MIN KMSN 012100Z 30009KT 8SM OVC022 03/M02 A2964 1120 72 0 300/09 RMK AO2
14837KMSN MSN20060201150509402/01/06 15:05:31  5-MIN KMSN 012105Z 29007KT 8SM OVC022 03/M02 A2965 1120 69 0 290/07 RMK AO2
14837KMSN MSN20060201151009402/01/06 15:10:31  5-MIN KMSN 012110Z 28007KT 8SM OVC024 03/M02 A2965 1110 69 0 280/07 RMK AO2
14837KMSN MSN20060201151509402/01/06 15:15:31  5-MIN KMSN 012115Z 28007KT 8SM OVC024 03/M02 A2965 1110 69 0 280/07 RMK AO2
14837KMSN MSN20060201152009402/01/06 15:20:31  5-MIN KMSN 012120Z 28006KT 8SM OVC024 03/M02 A2965 1110 69 0 280/06 RMK AO2
14837KMSN MSN20060201152509402/01/06 15:25:31  5-MIN KMSN 012125Z 29007KT 8SM OVC024 03/M02 A2965 1110 69 0 280/07 RMK AO2
14837KMSN MSN20060201153009402/01/06 15:30:31  5-MIN KMSN 012130Z 30007KT 9SM OVC024 03/M02 A2965 1110 69 0 300/07 RMK AO2
14837KMSN MSN20060201153509402/01/06 15:35:31  5-MIN KMSN 012135Z 29005KT 8SM OVC024 03/M02 A2965 1110 72 0 290/05 RMK AO2
14837KMSN MSN20060201154009402/01/06 15:40:31  5-MIN KMSN 012140Z VRB05KT 8SM OVC024 03/M02 A2965 1110 72 0 VRB/05 RMK AO2
14837KMSN MSN20060201154509402/01/06 15:45:31  5-MIN KMSN 012145Z VRB04KT 8SM OVC024 03/M02 A2966 1110 72 0 VRB/04 RMK AO2
14837KMSN MSN20060201155011102/01/06 15:50:31  5-MIN KMSN 012150Z VRB05KT 8SM OVC024 03/M02 A2966 1110 72 0 VRB/05 RMK AO2 SLP051 T00281017
14837KMSN MSN20060201155509402/01/06 15:55:31  5-MIN KMSN 012155Z VRB06KT 9SM OVC024 03/M02 A2967 1100 72 0 VRB/06 RMK AO2
14837KMSN MSN20060201160009402/01/06 16:00:31  5-MIN KMSN 012200Z 25006KT 9SM OVC024 03/M02 A2967 1100 72 0 250/06 RMK AO2
14837KMSN MSN20060201160509402/01/06 16:05:31  5-MIN KMSN 012205Z 27008KT 9SM OVC024 03/M02 A2967 1100 72 0 270/08 RMK AO2
14837KMSN MSN20060201161009402/01/06 16:10:31  5-MIN KMSN 012210Z VRB06KT 9SM OVC024 03/M02 A2967 1100 72 0 VRB/06 RMK AO2
14837KMSN MSN20060201161509402/01/06 16:15:31  5-MIN KMSN 012215Z 26007KT 9SM OVC024 03/M02 A2967 1100 69 0 260/07 RMK AO2
14837KMSN MSN20060201162009802/01/06 16:20:31  5-MIN KMSN 012220Z 28007KT 10SM OVC024 02/M02 A2967 1100 72 -100 280/07 RMK AO2
14837KMSN MSN20060201162509802/01/06 16:25:31  5-MIN KMSN 012225Z VRB05KT 10SM OVC024 02/M02 A2967 1100 72 -100 VRB/05 RMK AO2
14837KMSN MSN20060201163009802/01/06 16:30:31  5-MIN KMSN 012230Z 27005KT 10SM OVC024 02/M02 A2967 1100 72 -100 270/05 RMK AO2
14837KMSN MSN20060201163509802/01/06 16:35:31  5-MIN KMSN 012235Z 27005KT 10SM OVC024 02/M03 A2967 1090 69 -100 270/05 RMK AO2
14837KMSN MSN20060201164009802/01/06 16:40:31  5-MIN KMSN 012240Z VRB04KT 10SM OVC024 02/M03 A2967 1090 69 -100 VRB/04 RMK AO2
14837KMSN MSN20060201164509702/01/06 16:45:31  5-MIN KMSN 012245Z 26007KT 9SM OVC024 02/M03 A2967 1090 69 -100 260/07 RMK AO2
14837KMSN MSN20060201165011402/01/06 16:50:31  5-MIN KMSN 012250Z VRB04KT 9SM BKN024 02/M03 A2968 1090 69 -100 VRB/04 RMK AO2 SLP057 T00221028
14837KMSN MSN20060201165509702/01/06 16:55:31  5-MIN KMSN 012255Z 26007KT 9SM OVC024 02/M03 A2968 1090 69 -100 260/07 RMK AO2
14837KMSN MSN20060201170009702/01/06 17:00:31  5-MIN KMSN 012300Z VRB04KT 8SM OVC024 02/M03 A2968 1080 69 -100 VRB/04 RMK AO2
14837KMSN MSN20060201170509702/01/06 17:05:31  5-MIN KMSN 012305Z 27006KT 8SM OVC024 02/M03 A2968 1080 72 -200 270/06 RMK AO2
14837KMSN MSN20060201171009702/01/06 17:10:31  5-MIN KMSN 012310Z VRB04KT 9SM OVC024 02/M03 A2969 1080 72 -200 VRB/04 RMK AO2
14837KMSN MSN20060201171509802/01/06 17:15:31  5-MIN KMSN 012315Z VRB06KT 10SM OVC024 02/M03 A2969 1080 69 -200 VRB/06 RMK AO2
14837KMSN MSN20060201172009802/01/06 17:20:31  5-MIN KMSN 012320Z 26006KT 10SM OVC024 02/M03 A2969 1070 69 -200 260/06 RMK AO2
14837KMSN MSN20060201172509802/01/06 17:25:31  5-MIN KMSN 012325Z VRB04KT 10SM OVC024 02/M03 A2970 1070 69 -200 VRB/04 RMK AO2
14837KMSN MSN20060201173011402/01/06 17:30:31  5-MIN KMSN 012330Z 29007KT 240V310 10SM OVC024 02/M03 A2970 1070 69 -200 290/07 240V310 RMK AO2
14837KMSN MSN20060201173510402/01/06 17:35:31  5-MIN KMSN 012335Z 29007G14KT 10SM OVC024 02/M03 A2970 1070 69 -200 290/07G14 RMK AO2
14837KMSN MSN20060201174010402/01/06 17:40:31  5-MIN KMSN 012340Z 27007G14KT 10SM OVC024 02/M03 A2970 1070 69 -200 270/07G14 RMK AO2
14837KMSN MSN20060201174509802/01/06 17:45:31  5-MIN KMSN 012345Z VRB04KT 10SM OVC024 02/M03 A2971 1060 69 -200 VRB/04 RMK AO2
14837KMSN MSN20060201175013302/01/06 17:50:31  5-MIN KMSN 012350Z VRB06KT 10SM OVC024 02/M03 A2971 1060 69 -200 VRB/06 RMK AO2 SLP068 T00171033 10033 20017 53009
14837KMSN MSN20060201175509802/01/06 17:55:31  5-MIN KMSN 012355Z VRB05KT 10SM OVC024 02/M03 A2972 1050 69 -200 VRB/05 RMK AO2
14837KMSN MSN20060201180009802/01/06 18:00:31  5-MIN KMSN 020000Z VRB03KT 10SM OVC024 02/M03 A2971 1050 69 -200 VRB/03 RMK AO2
14837KMSN MSN20060201180509802/01/06 18:05:31  5-MIN KMSN 020005Z 00000KT 10SM OVC024 02/M03 A2971 1060 69 -200 000/00 RMK AO2
14837KMSN MSN20060201181009802/01/06 18:10:31  5-MIN KMSN 020010Z 00000KT 10SM OVC024 01/M03 A2971 1060 72 -300 000/00 RMK AO2
14837KMSN MSN20060201181509802/01/06 18:15:31  5-MIN KMSN 020015Z 28004KT 10SM OVC024 01/M03 A2971 1060 72 -300 280/04 RMK AO2
14837KMSN MSN20060201182009802/01/06 18:20:31  5-MIN KMSN 020020Z VRB03KT 10SM OVC024 01/M03 A2971 1060 72 -300 VRB/03 RMK AO2
14837KMSN MSN20060201182509802/01/06 18:25:31  5-MIN KMSN 020025Z 00000KT 10SM OVC024 01/M03 A2971 1060 72 -300 000/00 RMK AO2
14837KMSN MSN20060201183009802/01/06 18:30:31  5-MIN KMSN 020030Z 00000KT 10SM OVC024 01/M03 A2971 1060 72 -300 000/00 RMK AO2
14837KMSN MSN20060201183509802/01/06 18:35:31  5-MIN KMSN 020035Z VRB03KT 10SM OVC024 01/M03 A2971 1060 72 -300 VRB/03 RMK AO2
14837KMSN MSN20060201184009802/01/06 18:40:31  5-MIN KMSN 020040Z 00000KT 10SM OVC024 01/M03 A2971 1060 72 -300 000/00 RMK AO2
14837KMSN MSN20060201184509802/01/06 18:45:31  5-MIN KMSN 020045Z 00000KT 10SM OVC024 01/M03 A2971 1060 72 -300 000/00 RMK AO2
14837KMSN MSN20060201185011502/01/06 18:50:31  5-MIN KMSN 020050Z 00000KT 10SM OVC024 01/M03 A2972 1050 78 -400 000/00 RMK AO2 SLP069 T00061028
14837KMSN MSN20060201185509802/01/06 18:55:31  5-MIN KMSN 020055Z 00000KT 10SM OVC024 01/M03 A2972 1050 78 -400 000/00 RMK AO2
14837KMSN MSN20060201190009802/01/06 19:00:31  5-MIN KMSN 020100Z 22003KT 10SM OVC024 01/M03 A2972 1050 72 -300 220/03 RMK AO2
14837KMSN MSN20060201190509802/01/06 19:05:31  5-MIN KMSN 020105Z 23005KT 10SM OVC024 01/M03 A2972 1050 72 -300 230/05 RMK AO2
14837KMSN MSN20060201191009802/01/06 19:10:31  5-MIN KMSN 020110Z 23004KT 10SM OVC024 01/M03 A2973 1050 78 -400 230/04 RMK AO2
14837KMSN MSN20060201191509802/01/06 19:15:31  5-MIN KMSN 020115Z 23005KT 10SM OVC024 01/M03 A2973 1040 72 -300 230/05 RMK AO2
14837KMSN MSN20060201192009802/01/06 19:20:31  5-MIN KMSN 020120Z 24004KT 10SM OVC024 01/M03 A2973 1040 75 -300 240/04 RMK AO2
14837KMSN MSN20060201192509802/01/06 19:25:31  5-MIN KMSN 020125Z 24005KT 10SM OVC024 01/M03 A2973 1040 75 -300 240/05 RMK AO2
14837KMSN MSN20060201193009802/01/06 19:30:31  5-MIN KMSN 020130Z 25006KT 10SM OVC024 01/M03 A2973 1040 72 -300 250/06 RMK AO2
14837KMSN MSN20060201193509802/01/06 19:35:31  5-MIN KMSN 020135Z VRB05KT 10SM OVC024 01/M03 A2973 1040 75 -300 VRB/05 RMK AO2
14837KMSN MSN20060201194009802/01/06 19:40:31  5-MIN KMSN 020140Z VRB04KT 10SM OVC024 01/M03 A2973 1040 75 -300 VRB/04 RMK AO2
14837KMSN MSN20060201194509802/01/06 19:45:31  5-MIN KMSN 020145Z VRB04KT 10SM OVC024 01/M03 A2973 1040 75 -300 VRB/04 RMK AO2
14837KMSN MSN20060201195011502/01/06 19:50:31  5-MIN KMSN 020150Z 24005KT 10SM OVC024 01/M03 A2974 1040 75 -300 240/05 RMK AO2 SLP076 T00111028
14837KMSN MSN20060201195509802/01/06 19:55:31  5-MIN KMSN 020155Z VRB04KT 10SM OVC024 01/M03 A2973 1040 75 -300 VRB/04 RMK AO2
14837KMSN MSN20060201200009802/01/06 20:00:31  5-MIN KMSN 020200Z 25005KT 10SM OVC024 01/M03 A2973 1040 75 -300 250/05 RMK AO2
14837KMSN MSN20060201200509802/01/06 20:05:31  5-MIN KMSN 020205Z VRB04KT 10SM OVC024 01/M03 A2973 1040 78 -400 VRB/04 RMK AO2
14837KMSN MSN20060201201009802/01/06 20:10:31  5-MIN KMSN 020210Z 26004KT 10SM OVC024 01/M03 A2973 1040 78 -400 260/04 RMK AO2
14837KMSN MSN20060201201509802/01/06 20:15:31  5-MIN KMSN 020215Z VRB03KT 10SM OVC022 01/M03 A2973 1040 78 -400 VRB/03 RMK AO2
14837KMSN MSN20060201202009802/01/06 20:20:31  5-MIN KMSN 020220Z VRB04KT 10SM OVC022 01/M03 A2973 1040 75 -400 VRB/04 RMK AO2
14837KMSN MSN20060201202509802/01/06 20:25:31  5-MIN KMSN 020225Z 27004KT 10SM OVC022 01/M03 A2973 1040 75 -400 270/04 RMK AO2
14837KMSN MSN20060201203009802/01/06 20:30:31  5-MIN KMSN 020230Z VRB04KT 10SM OVC022 01/M03 A2973 1040 75 -400 VRB/04 RMK AO2
14837KMSN MSN20060201203509802/01/06 20:35:31  5-MIN KMSN 020235Z 00000KT 10SM OVC020 01/M03 A2973 1040 75 -400 000/00 RMK AO2
14837KMSN MSN20060201204009802/01/06 20:40:31  5-MIN KMSN 020240Z VRB03KT 10SM OVC020 01/M03 A2973 1040 75 -400 VRB/03 RMK AO2
14837KMSN MSN20060201204509802/01/06 20:45:31  5-MIN KMSN 020245Z VRB03KT 10SM OVC020 01/M03 A2973 1040 75 -400 VRB/03 RMK AO2
14837KMSN MSN20060201205012102/01/06 20:50:31  5-MIN KMSN 020250Z 29003KT 10SM OVC020 01/M03 A2973 1040 75 -400 290/03 RMK AO2 SLP076 T00061033 53023
14837KMSN MSN20060201205509802/01/06 20:55:31  5-MIN KMSN 020255Z VRB04KT 10SM OVC020 01/M03 A2973 1040 75 -400 VRB/04 RMK AO2
14837KMSN MSN20060201210009802/01/06 21:00:31  5-MIN KMSN 020300Z VRB05KT 10SM OVC020 00/M03 A2973 1040 78 -400 VRB/05 RMK AO2
14837KMSN MSN20060201210509802/01/06 21:05:31  5-MIN KMSN 020305Z 28004KT 10SM OVC020 00/M04 A2973 1040 75 -400 280/04 RMK AO2
14837KMSN MSN20060201211009802/01/06 21:10:31  5-MIN KMSN 020310Z VRB05KT 10SM OVC020 00/M04 A2972 1050 75 -400 VRB/05 RMK AO2
14837KMSN MSN20060201211509802/01/06 21:15:31  5-MIN KMSN 020315Z VRB03KT 10SM OVC020 00/M04 A2972 1050 75 -400 VRB/03 RMK AO2
14837KMSN MSN20060201212009802/01/06 21:20:31  5-MIN KMSN 020320Z 26003KT 10SM OVC020 00/M04 A2972 1050 75 -400 260/03 RMK AO2
14837KMSN MSN20060201212509802/01/06 21:25:31  5-MIN KMSN 020325Z 26004KT 10SM OVC020 00/M04 A2972 1050 75 -400 260/04 RMK AO2
14837KMSN MSN20060201213009802/01/06 21:30:31  5-MIN KMSN 020330Z VRB04KT 10SM OVC020 00/M04 A2972 1050 75 -400 VRB/04 RMK AO2
14837KMSN MSN20060201213509902/01/06 21:35:31  5-MIN KMSN 020335Z VRB04KT 10SM OVC020 M01/M04 A2972 1050 78 -500 VRB/04 RMK AO2
14837KMSN MSN20060201214009902/01/06 21:40:31  5-MIN KMSN 020340Z VRB03KT 10SM OVC020 M01/M04 A2972 1050 78 -500 VRB/03 RMK AO2
14837KMSN MSN20060201214509902/01/06 21:45:31  5-MIN KMSN 020345Z 25003KT 10SM OVC020 M01/M04 A2972 1050 78 -500 250/03 RMK AO2
14837KMSN MSN20060201215011602/01/06 21:50:31  5-MIN KMSN 020350Z 27003KT 10SM BKN018 M01/M04 A2971 1060 78 -500 270/03 RMK AO2 SLP070 T10061039
14837KMSN MSN20060201215509902/01/06 21:55:31  5-MIN KMSN 020355Z 00000KT 10SM OVC018 M01/M04 A2971 1060 75 -500 000/00 RMK AO2
14837KMSN MSN20060201220009902/01/06 22:00:31  5-MIN KMSN 020400Z VRB03KT 10SM OVC018 M01/M04 A2971 1060 75 -500 VRB/03 RMK AO2
14837KMSN MSN20060201220509902/01/06 22:05:31  5-MIN KMSN 020405Z 00000KT 10SM BKN018 M01/M04 A2971 1060 75 -500 000/00 RMK AO2
14837KMSN MSN20060201221009902/01/06 22:10:31  5-MIN KMSN 020410Z 00000KT 10SM BKN018 M01/M04 A2971 1060 78 -600 000/00 RMK AO2
14837KMSN MSN20060201221509902/01/06 22:15:31  5-MIN KMSN 020415Z 00000KT 10SM BKN018 M01/M04 A2971 1060 78 -600 000/00 RMK AO2
14837KMSN MSN20060201222009902/01/06 22:20:31  5-MIN KMSN 020420Z 23003KT 10SM BKN018 M01/M04 A2971 1060 78 -600 230/03 RMK AO2
14837KMSN MSN20060201222509902/01/06 22:25:31  5-MIN KMSN 020425Z 00000KT 10SM BKN018 M01/M04 A2971 1060 78 -600 000/00 RMK AO2
14837KMSN MSN20060201223009902/01/06 22:30:31  5-MIN KMSN 020430Z 00000KT 10SM BKN018 M01/M04 A2971 1060 78 -600 000/00 RMK AO2
14837KMSN MSN20060201223509902/01/06 22:35:31  5-MIN KMSN 020435Z 21003KT 10SM BKN018 M01/M04 A2971 1060 78 -600 210/03 RMK AO2
14837KMSN MSN20060201224009902/01/06 22:40:31  5-MIN KMSN 020440Z 20003KT 10SM BKN018 M01/M04 A2971 1060 78 -600 200/03 RMK AO2
14837KMSN MSN20060201224509902/01/06 22:45:31  5-MIN KMSN 020445Z 23003KT 10SM BKN018 M01/M04 A2971 1060 78 -600 230/03 RMK AO2
14837KMSN MSN20060201225011602/01/06 22:50:31  5-MIN KMSN 020450Z 00000KT 10SM BKN018 M01/M04 A2971 1060 78 -600 000/00 RMK AO2 SLP070 T10111044
14837KMSN MSN20060201225509902/01/06 22:55:31  5-MIN KMSN 020455Z 00000KT 10SM OVC018 M01/M04 A2972 1050 78 -600 000/00 RMK AO2
14837KMSN MSN20060201230009902/01/06 23:00:31  5-MIN KMSN 020500Z 22003KT 10SM OVC016 M02/M04 A2972 1050 81 -600 220/03 RMK AO2
14837KMSN MSN20060201230509902/01/06 23:05:31  5-MIN KMSN 020505Z 27003KT 10SM OVC016 M01/M04 A2972 1050 81 -600 270/03 RMK AO2
14837KMSN MSN20060201231009902/01/06 23:10:31  5-MIN KMSN 020510Z 00000KT 10SM BKN016 M02/M04 A2972 1050 81 -600 000/00 RMK AO2
14837KMSN MSN20060201231509902/01/06 23:15:31  5-MIN KMSN 020515Z 25003KT 10SM BKN016 M02/M04 A2973 1040 81 -700 250/03 RMK AO2
14837KMSN MSN20060201232009902/01/06 23:20:31  5-MIN KMSN 020520Z 00000KT 10SM BKN016 M02/M04 A2973 1040 85 -700 000/00 RMK AO2
14837KMSN MSN20060201232509902/01/06 23:25:31  5-MIN KMSN 020525Z 00000KT 10SM BKN016 M02/M04 A2973 1040 81 -700 000/00 RMK AO2
14837KMSN MSN20060201233009902/01/06 23:30:31  5-MIN KMSN 020530Z 00000KT 10SM SCT016 M02/M04 A2973 1040 81 -700 000/00 RMK AO2
14837KMSN MSN20060201233509902/01/06 23:35:31  5-MIN KMSN 020535Z 00000KT 10SM SCT016 M02/M04 A2973 1040 81 -700 000/00 RMK AO2
14837KMSN MSN20060201234009902/01/06 23:40:31  5-MIN KMSN 020540Z 24003KT 10SM SCT016 M02/M04 A2973 1040 81 -700 240/03 RMK AO2
14837KMSN MSN20060201234509902/01/06 23:45:31  5-MIN KMSN 020545Z 00000KT 10SM SCT016 M02/M04 A2973 1040 81 -700 000/00 RMK AO2
14837KMSN MSN20060201235014402/01/06 23:50:31  5-MIN KMSN 020550Z 00000KT 10SM SCT016 M02/M04 A2973 1040 85 -700 000/00 RMK AO2 SLP077 T10221044 10017 21022 400441022 50006
14837KMSN MSN20060201235509902/01/06 23:55:31  5-MIN KMSN 020555Z 25003KT 10SM BKN016 M02/M04 A2973 1040 81 -700 250/03 RMK AO2
14837KMSN MSN20060202000009902/02/06 00:00:38  5-MIN KMSN 020600Z 27003KT 10SM BKN016 M02/M04 A2973 1040 81 -700 270/03 RMK AO2
14837KMSN MSN20060202000509902/02/06 00:05:31  5-MIN KMSN 020605Z 00000KT 10SM BKN016 M02/M04 A2973 1040 81 -700 000/00 RMK AO2
14837KMSN MSN20060202001009902/02/06 00:10:31  5-MIN KMSN 020610Z 00000KT 10SM SCT016 M02/M04 A2973 1040 81 -700 000/00 RMK AO2
14837KMSN MSN20060202001509902/02/06 00:15:32  5-MIN KMSN 020615Z 00000KT 10SM FEW016 M02/M04 A2973 1040 81 -700 000/00 RMK AO2
14837KMSN MSN20060202002009802/02/06 00:20:31  5-MIN KMSN 020620Z 00000KT 9SM FEW016 M02/M04 A2973 1040 81 -700 000/00 RMK AO2
14837KMSN MSN20060202002509902/02/06 00:25:31  5-MIN KMSN 020625Z 00000KT 10SM FEW016 M02/M04 A2973 1040 81 -700 000/00 RMK AO2
14837KMSN MSN20060202003009902/02/06 00:30:31  5-MIN KMSN 020630Z 00000KT 10SM FEW016 M02/M04 A2973 1040 85 -700 000/00 RMK AO2
14837KMSN MSN20060202003509802/02/06 00:35:31  5-MIN KMSN 020635Z 00000KT 9SM FEW016 M02/M04 A2973 1040 81 -700 000/00 RMK AO2
14837KMSN MSN20060202004009802/02/06 00:40:31  5-MIN KMSN 020640Z 00000KT 9SM FEW016 M02/M04 A2973 1040 85 -700 000/00 RMK AO2
14837KMSN MSN20060202004509802/02/06 00:45:31  5-MIN KMSN 020645Z 00000KT 9SM FEW016 M02/M04 A2973 1040 85 -700 000/00 RMK AO2
14837KMSN MSN20060202005011302/02/06 00:50:31  5-MIN KMSN 020650Z 00000KT 10SM CLR M02/M04 A2973 1040 85 -700 000/00 RMK AO2 SLP076 T10221044
14837KMSN MSN20060202005509502/02/06 00:55:31  5-MIN KMSN 020655Z 00000KT 9SM CLR M02/M04 A2972 1050 85 -700 000/00 RMK AO2
14837KMSN MSN20060202010009502/02/06 01:00:31  5-MIN KMSN 020700Z 00000KT 9SM CLR M02/M04 A2973 1040 85 -700 000/00 RMK AO2
14837KMSN MSN20060202010509502/02/06 01:05:31  5-MIN KMSN 020705Z 00000KT 9SM CLR M02/M04 A2973 1040 81 -700 000/00 RMK AO2
14837KMSN MSN20060202011009502/02/06 01:10:31  5-MIN KMSN 020710Z 00000KT 9SM CLR M02/M04 A2973 1040 81 -700 000/00 RMK AO2
14837KMSN MSN20060202011509502/02/06 01:15:31  5-MIN KMSN 020715Z 00000KT 9SM CLR M02/M04 A2973 1040 85 -700 000/00 RMK AO2
14837KMSN MSN20060202012009502/02/06 01:20:31  5-MIN KMSN 020720Z 00000KT 9SM CLR M02/M04 A2973 1040 85 -700 000/00 RMK AO2
14837KMSN MSN20060202012509502/02/06 01:25:31  5-MIN KMSN 020725Z 00000KT 9SM CLR M02/M04 A2973 1040 85 -700 000/00 RMK AO2
14837KMSN MSN20060202013009502/02/06 01:30:31  5-MIN KMSN 020730Z 00000KT 9SM CLR M03/M04 A2973 1040 88 -800 000/00 RMK AO2
14837KMSN MSN20060202013509502/02/06 01:35:31  5-MIN KMSN 020735Z 00000KT 8SM CLR M03/M04 A2973 1040 88 -800 000/00 RMK AO2
14837KMSN MSN20060202014009502/02/06 01:40:31  5-MIN KMSN 020740Z 00000KT 8SM CLR M02/M04 A2972 1050 85 -700 000/00 RMK AO2
14837KMSN MSN20060202014509502/02/06 01:45:31  5-MIN KMSN 020745Z 00000KT 8SM CLR M02/M04 A2972 1050 88 -700 000/00 RMK AO2
14837KMSN MSN20060202015011202/02/06 01:50:31  5-MIN KMSN 020750Z 00000KT 9SM CLR M02/M04 A2972 1050 88 -700 000/00 RMK AO2 SLP073 T10221039
14837KMSN MSN20060202015509502/02/06 01:55:31  5-MIN KMSN 020755Z 23003KT 9SM CLR M02/M04 A2973 1040 88 -700 230/03 RMK AO2
14837KMSN MSN20060202020009502/02/06 02:00:31  5-MIN KMSN 020800Z 00000KT 8SM CLR M03/M04 A2973 1040 88 -800 000/00 RMK AO2
14837KMSN MSN20060202020509502/02/06 02:05:31  5-MIN KMSN 020805Z 00000KT 8SM CLR M03/M04 A2973 1040 92 -900 000/00 RMK AO2
14837KMSN MSN20060202021009502/02/06 02:10:31  5-MIN KMSN 020810Z 00000KT 8SM CLR M03/M04 A2973 1040 88 -800 000/00 RMK AO2
14837KMSN MSN20060202021509502/02/06 02:15:31  5-MIN KMSN 020815Z 00000KT 8SM CLR M02/M04 A2973 1040 85 -700 000/00 RMK AO2
14837KMSN MSN20060202022009502/02/06 02:20:31  5-MIN KMSN 020820Z 00000KT 8SM CLR M02/M04 A2972 1050 88 -700 000/00 RMK AO2
14837KMSN MSN20060202022509502/02/06 02:25:31  5-MIN KMSN 020825Z 00000KT 8SM CLR M02/M04 A2972 1050 88 -700 000/00 RMK AO2
14837KMSN MSN20060202023009502/02/06 02:30:31  5-MIN KMSN 020830Z 00000KT 8SM CLR M02/M04 A2972 1050 88 -700 000/00 RMK AO2
14837KMSN MSN20060202023509502/02/06 02:35:31  5-MIN KMSN 020835Z 00000KT 8SM CLR M03/M04 A2972 1050 88 -800 000/00 RMK AO2
14837KMSN MSN20060202024009502/02/06 02:40:31  5-MIN KMSN 020840Z 00000KT 8SM CLR M03/M05 A2971 1050 88 -900 000/00 RMK AO2
14837KMSN MSN20060202024509502/02/06 02:45:31  5-MIN KMSN 020845Z 00000KT 8SM CLR M03/M05 A2971 1060 88 -800 000/00 RMK AO2
14837KMSN MSN20060202025011802/02/06 02:50:31  5-MIN KMSN 020850Z 00000KT 8SM CLR M03/M05 A2971 1060 88 -800 000/00 RMK AO2 SLP070 T10331050 55000
14837KMSN MSN20060202025509502/02/06 02:55:31  5-MIN KMSN 020855Z 00000KT 8SM CLR M03/M05 A2971 1060 88 -800 000/00 RMK AO2
14837KMSN MSN20060202030009502/02/06 03:00:31  5-MIN KMSN 020900Z 00000KT 8SM CLR M03/M04 A2971 1060 88 -800 000/00 RMK AO2
14837KMSN MSN20060202030509802/02/06 03:05:31  5-MIN KMSN 020905Z 00000KT 8SM FEW110 M03/M04 A2971 1060 88 -800 000/00 RMK AO2
14837KMSN MSN20060202031009802/02/06 03:10:31  5-MIN KMSN 020910Z 00000KT 8SM FEW110 M03/M04 A2971 1060 88 -800 000/00 RMK AO2
14837KMSN MSN20060202031509802/02/06 03:15:31  5-MIN KMSN 020915Z 00000KT 8SM FEW110 M03/M04 A2971 1060 88 -800 000/00 RMK AO2
14837KMSN MSN20060202032009802/02/06 03:20:31  5-MIN KMSN 020920Z 00000KT 8SM FEW110 M03/M04 A2970 1070 88 -800 000/00 RMK AO2
14837KMSN MSN20060202032509802/02/06 03:25:31  5-MIN KMSN 020925Z 00000KT 8SM FEW110 M03/M04 A2970 1070 88 -800 000/00 RMK AO2
14837KMSN MSN20060202033009802/02/06 03:30:31  5-MIN KMSN 020930Z 00000KT 8SM FEW110 M03/M05 A2970 1070 88 -800 000/00 RMK AO2
14837KMSN MSN20060202033509802/02/06 03:35:31  5-MIN KMSN 020935Z 00000KT 7SM FEW110 M03/M05 A2970 1070 88 -800 000/00 RMK AO2
14837KMSN MSN20060202034009802/02/06 03:40:31  5-MIN KMSN 020940Z 00000KT 7SM FEW110 M03/M04 A2970 1070 92 -800 000/00 RMK AO2
14837KMSN MSN20060202034509802/02/06 03:45:31  5-MIN KMSN 020945Z 00000KT 7SM FEW110 M03/M04 A2970 1070 92 -800 000/00 RMK AO2
14837KMSN MSN20060202035011502/02/06 03:50:31  5-MIN KMSN 020950Z 00000KT 7SM SCT110 M03/M05 A2970 1070 88 -800 000/00 RMK AO2 SLP066 T10331050
14837KMSN MSN20060202035509802/02/06 03:55:31  5-MIN KMSN 020955Z 13003KT 7SM SCT110 M03/M05 A2970 1070 88 -800 130/03 RMK AO2
14837KMSN MSN20060202040009802/02/06 04:00:31  5-MIN KMSN 021000Z 16004KT 8SM BKN110 M03/M05 A2970 1070 88 -800 150/04 RMK AO2
14837KMSN MSN20060202040509802/02/06 04:05:31  5-MIN KMSN 021005Z 17006KT 8SM BKN110 M03/M05 A2970 1060 88 -800 170/06 RMK AO2
14837KMSN MSN20060202041009802/02/06 04:10:31  5-MIN KMSN 021010Z 17007KT 8SM OVC110 M02/M04 A2971 1060 85 -700 170/07 RMK AO2
14837KMSN MSN20060202041509802/02/06 04:15:31  5-MIN KMSN 021015Z 17007KT 8SM OVC110 M02/M04 A2971 1060 85 -700 170/07 RMK AO2
14837KMSN MSN20060202042009802/02/06 04:20:31  5-MIN KMSN 021020Z 17007KT 7SM OVC110 M03/M04 A2971 1060 88 -800 170/07 RMK AO2
14837KMSN MSN20060202042509802/02/06 04:25:31  5-MIN KMSN 021025Z 16008KT 7SM OVC110 M02/M04 A2971 1060 88 -700 160/08 RMK AO2
14837KMSN MSN20060202043009802/02/06 04:30:31  5-MIN KMSN 021030Z 16007KT 7SM OVC110 M02/M04 A2971 1060 88 -700 160/07 RMK AO2
14837KMSN MSN20060202043509802/02/06 04:35:31  5-MIN KMSN 021035Z 16007KT 7SM OVC110 M02/M04 A2970 1070 88 -700 160/07 RMK AO2
14837KMSN MSN20060202044009802/02/06 04:40:31  5-MIN KMSN 021040Z 16007KT 7SM OVC110 M02/M04 A2970 1070 88 -700 160/07 RMK AO2
14837KMSN MSN20060202044509802/02/06 04:45:31  5-MIN KMSN 021045Z 16006KT 7SM BKN110 M02/M04 A2970 1070 88 -700 160/06 RMK AO2
14837KMSN MSN20060202045011502/02/06 04:50:31  5-MIN KMSN 021050Z 17006KT 7SM SCT110 M02/M04 A2970 1060 85 -700 170/06 RMK AO2 SLP068 T10221044
14837KMSN MSN20060202045509802/02/06 04:55:31  5-MIN KMSN 021055Z 17006KT 7SM BKN110 M03/M04 A2971 1060 88 -800 160/06 RMK AO2
14837KMSN MSN20060202050009802/02/06 05:00:31  5-MIN KMSN 021100Z 17005KT 8SM BKN100 M03/M04 A2971 1060 88 -800 170/05 RMK AO2
14837KMSN MSN20060202050509802/02/06 05:05:31  5-MIN KMSN 021105Z 17005KT 8SM BKN100 M02/M04 A2971 1060 85 -700 170/05 RMK AO2
14837KMSN MSN20060202051009802/02/06 05:10:31  5-MIN KMSN 021110Z 17005KT 8SM SCT100 M02/M04 A2972 1050 85 -700 170/05 RMK AO2
14837KMSN MSN20060202051509802/02/06 05:15:31  5-MIN KMSN 021115Z 17006KT 7SM SCT100 M03/M04 A2972 1050 88 -800 170/06 RMK AO2
14837KMSN MSN20060202052009802/02/06 05:20:31  5-MIN KMSN 021120Z 17005KT 7SM SCT100 M03/M04 A2972 1050 88 -800 170/05 RMK AO2
14837KMSN MSN20060202052509802/02/06 05:25:31  5-MIN KMSN 021125Z 16004KT 8SM FEW100 M03/M04 A2971 1060 88 -800 160/04 RMK AO2
14837KMSN MSN20060202053009802/02/06 05:30:31  5-MIN KMSN 021130Z 14003KT 8SM FEW095 M03/M04 A2971 1060 88 -800 140/03 RMK AO2
14837KMSN MSN20060202053510502/02/06 05:35:31  5-MIN KMSN 021135Z 14003KT 8SM FEW085 SCT110 M03/M04 A2971 1060 88 -800 140/03 RMK AO2
14837KMSN MSN20060202054010502/02/06 05:40:31  5-MIN KMSN 021140Z 12003KT 8SM SCT085 SCT110 M03/M04 A2970 1070 92 -800 120/03 RMK AO2
14837KMSN MSN20060202054510502/02/06 05:45:31  5-MIN KMSN 021145Z 13004KT 7SM BKN085 BKN110 M03/M05 A2970 1070 88 -800 130/04 RMK AO2
14837KMSN MSN20060202055014002/02/06 05:50:31  5-MIN KMSN 021150Z 16004KT 7SM BKN085 BKN110 M03/M05 A2971 1060 88 -800 160/04 RMK AO2 SLP070 T10331050 11017 21033 58008
14837KMSN MSN20060202055510502/02/06 05:55:31  5-MIN KMSN 021155Z 17005KT 8SM BKN090 OVC110 M03/M04 A2971 1060 88 -800 170/05 RMK AO2
14837KMSN MSN20060202060010502/02/06 06:00:31  5-MIN KMSN 021200Z 17006KT 8SM BKN090 OVC110 M02/M04 A2971 1060 88 -700 170/06 RMK AO2
14837KMSN MSN20060202060510502/02/06 06:05:31  5-MIN KMSN 021205Z 16007KT 8SM BKN090 OVC110 M03/M04 A2971 1060 88 -800 160/07 RMK AO2
14837KMSN MSN20060202061010502/02/06 06:10:31  5-MIN KMSN 021210Z 16006KT 7SM BKN090 OVC110 M02/M04 A2971 1060 88 -700 160/06 RMK AO2
14837KMSN MSN20060202061510502/02/06 06:15:31  5-MIN KMSN 021215Z 17008KT 7SM BKN100 OVC110 M02/M04 A2971 1060 88 -700 170/08 RMK AO2
14837KMSN MSN20060202062010502/02/06 06:20:31  5-MIN KMSN 021220Z 18005KT 7SM BKN100 OVC110 M02/M04 A2971 1060 88 -700 180/05 RMK AO2
14837KMSN MSN20060202062510502/02/06 06:25:31  5-MIN KMSN 021225Z 18005KT 7SM FEW090 OVC110 M02/M04 A2971 1060 88 -700 180/05 RMK AO2
14837KMSN MSN20060202063009802/02/06 06:30:31  5-MIN KMSN 021230Z 19005KT 7SM BKN110 M02/M04 A2971 1060 88 -700 190/05 RMK AO2
14837KMSN MSN20060202063509802/02/06 06:35:31  5-MIN KMSN 021235Z 18004KT 8SM BKN110 M02/M04 A2971 1060 85 -600 180/04 RMK AO2
14837KMSN MSN20060202064009802/02/06 06:40:31  5-MIN KMSN 021240Z 18004KT 7SM SCT100 M02/M04 A2971 1060 85 -600 180/04 RMK AO2
14837KMSN MSN20060202064509802/02/06 06:45:31  5-MIN KMSN 021245Z 16005KT 7SM FEW110 M02/M04 A2970 1070 88 -700 160/05 RMK AO2
14837KMSN MSN20060202065011502/02/06 06:50:31  5-MIN KMSN 021250Z 17005KT 7SM SCT110 M02/M04 A2970 1060 88 -700 160/05 RMK AO2 SLP068 T10221039
14837KMSN MSN20060202065509802/02/06 06:55:31  5-MIN KMSN 021255Z 16006KT 7SM SCT100 M02/M04 A2970 1070 88 -700 160/06 RMK AO2
14837KMSN MSN20060202070009802/02/06 07:00:31  5-MIN KMSN 021300Z 17005KT 7SM BKN100 M02/M04 A2970 1070 88 -700 170/05 RMK AO2
14837KMSN MSN20060202070509802/02/06 07:05:31  5-MIN KMSN 021305Z 16007KT 7SM BKN095 M02/M04 A2970 1070 88 -700 160/07 RMK AO2
14837KMSN MSN20060202071010502/02/06 07:10:31  5-MIN KMSN 021310Z 17007KT 7SM BKN100 BKN110 M02/M04 A2970 1070 88 -700 170/07 RMK AO2
14837KMSN MSN20060202071510102/02/06 07:15:31  5-MIN KMSN 021315Z 16008KT 6SM BR OVC110 M02/M04 A2970 1070 88 -700 160/08 RMK AO2
14837KMSN MSN20060202072010102/02/06 07:20:31  5-MIN KMSN 021320Z 16006KT 6SM BR OVC110 M02/M04 A2970 1070 88 -700 160/06 RMK AO2
14837KMSN MSN20060202072510102/02/06 07:25:31  5-MIN KMSN 021325Z 17005KT 5SM BR OVC110 M02/M04 A2970 1070 88 -700 170/05 RMK AO2
14837KMSN MSN20060202073010102/02/06 07:30:31  5-MIN KMSN 021330Z 18004KT 5SM BR BKN110 M02/M04 A2970 1070 88 -700 180/04 RMK AO2
14837KMSN MSN20060202073510102/02/06 07:35:31  5-MIN KMSN 021335Z 17003KT 5SM BR BKN110 M02/M04 A2970 1070 88 -700 170/03 RMK AO2
14837KMSN MSN20060202074010102/02/06 07:40:31  5-MIN KMSN 021340Z 16004KT 5SM BR BKN110 M03/M04 A2970 1070 92 -800 160/04 RMK AO2
14837KMSN MSN20060202074510102/02/06 07:45:31  5-MIN KMSN 021345Z 17004KT 5SM BR BKN110 M03/M04 A2970 1070 92 -800 170/04 RMK AO2
14837KMSN MSN20060202075011802/02/06 07:50:31  5-MIN KMSN 021350Z 16004KT 5SM BR SCT110 M03/M04 A2970 1070 88 -800 160/04 RMK AO2 SLP066 T10281044
14837KMSN MSN20060202075510102/02/06 07:55:31  5-MIN KMSN 021355Z 16004KT 4SM BR FEW110 M03/M04 A2970 1070 88 -800 160/04 RMK AO2
14837KMSN MSN20060202080010102/02/06 08:00:31  5-MIN KMSN 021400Z 14003KT 4SM BR FEW110 M03/M04 A2969 1080 88 -800 140/03 RMK AO2
14837KMSN MSN20060202080510102/02/06 08:05:31  5-MIN KMSN 021405Z 15003KT 4SM BR FEW110 M02/M04 A2969 1080 88 -700 150/03 RMK AO2
14837KMSN MSN20060202081009802/02/06 08:10:31  5-MIN KMSN 021410Z 14004KT 5SM BR CLR M02/M04 A2968 1080 88 -700 140/04 RMK AO2
14837KMSN MSN20060202081510502/02/06 08:15:31  5-MIN KMSN 021415Z 00000KT 4SM BR CLR M02/M03 A2968 1090 88 -600 000/00 RMK AO2 PRESFR
14837KMSN MSN20060202082009802/02/06 08:20:31  5-MIN KMSN 021420Z 00000KT 4SM BR CLR M02/M03 A2968 1090 92 -700 000/00 RMK AO2
14837KMSN MSN20060202082509802/02/06 08:25:31  5-MIN KMSN 021425Z 12004KT 4SM BR CLR M02/M03 A2968 1090 92 -700 120/04 RMK AO2
14837KMSN MSN20060202083009802/02/06 08:30:31  5-MIN KMSN 021430Z 10004KT 4SM BR CLR M02/M03 A2968 1090 88 -600 100/04 RMK AO2
14837KMSN MSN20060202083509802/02/06 08:35:31  5-MIN KMSN 021435Z 12003KT 4SM BR CLR M02/M03 A2968 1090 92 -600 110/03 RMK AO2
14837KMSN MSN20060202084009802/02/06 08:40:31  5-MIN KMSN 021440Z 00000KT 4SM BR CLR M02/M03 A2968 1090 92 -600 000/00 RMK AO2
14837KMSN MSN20060202084509802/02/06 08:45:31  5-MIN KMSN 021445Z 00000KT 4SM BR CLR M01/M03 A2968 1090 88 -500 000/00 RMK AO2
14837KMSN MSN20060202085012102/02/06 08:50:31  5-MIN KMSN 021450Z 00000KT 5SM BR CLR M01/M03 A2968 1090 88 -500 000/00 RMK AO2 SLP060 T10111028 53000
14837KMSN MSN20060202085509802/02/06 08:55:31  5-MIN KMSN 021455Z 00000KT 5SM BR CLR M01/M03 A2968 1090 88 -500 000/00 RMK AO2
14837KMSN MSN20060202090009802/02/06 09:00:31  5-MIN KMSN 021500Z 00000KT 5SM BR CLR M01/M03 A2968 1090 88 -500 000/00 RMK AO2
14837KMSN MSN20060202090509802/02/06 09:05:31  5-MIN KMSN 021505Z 00000KT 5SM BR CLR M01/M03 A2968 1090 85 -500 000/00 RMK AO2
14837KMSN MSN20060202091009802/02/06 09:10:31  5-MIN KMSN 021510Z 00000KT 5SM BR CLR M01/M03 A2968 1090 88 -500 000/00 RMK AO2
14837KMSN MSN20060202091509802/02/06 09:15:31  5-MIN KMSN 021515Z 13003KT 5SM BR CLR M01/M03 A2968 1080 88 -500 130/03 RMK AO2
14837KMSN MSN20060202092009802/02/06 09:20:31  5-MIN KMSN 021520Z 16003KT 5SM BR CLR M01/M03 A2969 1080 85 -500 160/03 RMK AO2
14837KMSN MSN20060202092509802/02/06 09:25:31  5-MIN KMSN 021525Z 19005KT 5SM BR CLR M01/M03 A2969 1080 85 -500 180/05 RMK AO2
14837KMSN MSN20060202093010002/02/06 09:30:31  5-MIN KMSN 021530Z 17006KT 5SM HZ FEW095 00/M03 A2969 1080 81 -400 170/06 RMK AO2
14837KMSN MSN20060202093510002/02/06 09:35:31  5-MIN KMSN 021535Z 17006KT 5SM BR SCT095 00/M02 A2969 1080 85 -400 170/06 RMK AO2
14837KMSN MSN20060202094010002/02/06 09:40:31  5-MIN KMSN 021540Z 17006KT 5SM HZ BKN090 01/M02 A2969 1080 82 -300 170/06 RMK AO2
14837KMSN MSN20060202094510002/02/06 09:45:31  5-MIN KMSN 021545Z 17006KT 5SM BR BKN090 00/M02 A2969 1080 85 -400 170/06 RMK AO2
14837KMSN MSN20060202095011702/02/06 09:50:31  5-MIN KMSN 021550Z 17007KT 5SM HZ BKN090 01/M02 A2969 1080 82 -300 160/07 RMK AO2 SLP061 T00061022
14837KMSN MSN20060202095510002/02/06 09:55:31  5-MIN KMSN 021555Z 17006KT 5SM HZ BKN085 01/M02 A2968 1090 82 -300 170/06 RMK AO2
14837KMSN MSN20060202100010002/02/06 10:00:31  5-MIN KMSN 021600Z 17006KT 6SM HZ OVC085 01/M02 A2968 1090 82 -300 170/06 RMK AO2
14837KMSN MSN20060202100510702/02/06 10:05:31  5-MIN KMSN 021605Z 17008KT 6SM HZ BKN080 OVC090 01/M02 A2968 1090 82 -200 170/08 RMK AO2
14837KMSN MSN20060202101010702/02/06 10:10:31  5-MIN KMSN 021610Z 17009KT 6SM HZ BKN080 OVC095 01/M02 A2968 1090 78 -200 170/09 RMK AO2
14837KMSN MSN20060202101510002/02/06 10:15:31  5-MIN KMSN 021615Z 17008KT 6SM HZ OVC080 01/M02 A2968 1090 78 -200 170/08 RMK AO2
14837KMSN MSN20060202102010002/02/06 10:20:31  5-MIN KMSN 021620Z 18008KT 6SM HZ OVC080 01/M02 A2967 1090 78 -200 180/08 RMK AO2
14837KMSN MSN20060202102510002/02/06 10:25:31  5-MIN KMSN 021625Z 17008KT 6SM HZ OVC080 01/M02 A2967 1090 78 -200 170/08 RMK AO2
14837KMSN MSN20060202103010002/02/06 10:30:31  5-MIN KMSN 021630Z 17009KT 6SM HZ OVC080 01/M02 A2967 1090 78 -200 170/09 RMK AO2
14837KMSN MSN20060202103510002/02/06 10:35:31  5-MIN KMSN 021635Z 18009KT 6SM HZ OVC080 02/M02 A2967 1100 75 -200 180/09 RMK AO2
14837KMSN MSN20060202104010002/02/06 10:40:31  5-MIN KMSN 021640Z 17007KT 6SM HZ OVC080 02/M02 A2967 1100 78 -200 170/07 RMK AO2
14837KMSN MSN20060202104510002/02/06 10:45:31  5-MIN KMSN 021645Z 17008KT 6SM HZ BKN075 02/M02 A2967 1100 78 -200 170/08 RMK AO2
14837KMSN MSN20060202105012402/02/06 10:50:31  5-MIN KMSN 021650Z 17007KT 6SM HZ BKN075 BKN100 02/M02 A2967 1100 75 -100 160/07 RMK AO2 SLP054 T00221017
14837KMSN MSN20060202105510702/02/06 10:55:31  5-MIN KMSN 021655Z 16008KT 6SM HZ SCT075 BKN100 02/M02 A2966 1110 75 -100 150/08 RMK AO2
14837KMSN MSN20060202110010402/02/06 11:00:31  5-MIN KMSN 021700Z 15007KT 6SM HZ FEW070 SCT085 03/M02 A2966 1110 72 0 150/07 RMK AO2
14837KMSN MSN20060202110509702/02/06 11:05:31  5-MIN KMSN 021705Z 15008KT 6SM HZ FEW070 03/M01 A2965 1120 75 0 150/08 RMK AO2
14837KMSN MSN20060202111009702/02/06 11:10:31  5-MIN KMSN 021710Z 15009KT 6SM HZ FEW090 03/M02 A2965 1120 72 0 150/09 RMK AO2
14837KMSN MSN20060202111509702/02/06 11:15:31  5-MIN KMSN 021715Z 16009KT 6SM HZ SCT095 03/M02 A2965 1120 72 0 160/09 RMK AO2
14837KMSN MSN20060202112009702/02/06 11:20:31  5-MIN KMSN 021720Z 15011KT 6SM HZ SCT090 03/M02 A2965 1120 72 0 150/11 RMK AO2
14837KMSN MSN20060202112509702/02/06 11:25:31  5-MIN KMSN 021725Z 17010KT 6SM HZ SCT085 03/M01 A2964 1120 75 0 170/10 RMK AO2
14837KMSN MSN20060202113009702/02/06 11:30:31  5-MIN KMSN 021730Z 17012KT 6SM HZ SCT090 03/M02 A2964 1120 72 0 170/12 RMK AO2
14837KMSN MSN20060202113509702/02/06 11:35:31  5-MIN KMSN 021735Z 17010KT 6SM HZ SCT090 03/M01 A2964 1120 72 0 170/10 RMK AO2
14837KMSN MSN20060202114009702/02/06 11:40:31  5-MIN KMSN 021740Z 16014KT 6SM HZ FEW090 03/M01 A2964 1120 72 0 150/14 RMK AO2
14837KMSN MSN20060202114509702/02/06 11:45:31  5-MIN KMSN 021745Z 17013KT 6SM HZ FEW090 03/M01 A2964 1120 75 0 170/13 RMK AO2
14837KMSN MSN20060202115013202/02/06 11:50:31  5-MIN KMSN 021750Z 16013KT 6SM HZ FEW090 03/M01 A2964 1120 72 0 160/13 RMK AO2 SLP046 T00331011 10033 21028 58009
14837KMSN MSN20060202115509702/02/06 11:55:31  5-MIN KMSN 021755Z 17011KT 6SM HZ FEW095 03/M01 A2964 1130 72 0 170/11 RMK AO2
14837KMSN MSN20060202120009902/02/06 12:00:31  5-MIN KMSN 021800Z 17010KT 6SM HZ FEW100 04/M01 A2963 1130 70 100 170/10 RMK AO2
14837KMSN MSN20060202120509902/02/06 12:05:31  5-MIN KMSN 021805Z 16010KT 6SM HZ FEW095 04/M01 A2963 1130 70 100 160/10 RMK AO2
14837KMSN MSN20060202121009902/02/06 12:10:31  5-MIN KMSN 021810Z 18011KT 6SM HZ FEW095 04/M01 A2963 1130 73 100 180/11 RMK AO2
14837KMSN MSN20060202121509902/02/06 12:15:31  5-MIN KMSN 021815Z 18011KT 6SM HZ FEW095 04/M01 A2963 1130 73 100 180/11 RMK AO2
14837KMSN MSN20060202122009902/02/06 12:20:31  5-MIN KMSN 021820Z 17012KT 6SM HZ FEW095 04/M01 A2963 1140 73 100 170/12 RMK AO2
14837KMSN MSN20060202122509902/02/06 12:25:31  5-MIN KMSN 021825Z 16012KT 6SM HZ FEW095 04/M01 A2963 1130 73 100 160/12 RMK AO2
14837KMSN MSN20060202123009902/02/06 12:30:31  5-MIN KMSN 021830Z 17012KT 6SM HZ FEW090 04/M01 A2963 1140 73 100 160/12 RMK AO2
14837KMSN MSN20060202123509902/02/06 12:35:31  5-MIN KMSN 021835Z 16013KT 6SM HZ SCT090 04/M01 A2963 1140 73 100 160/13 RMK AO2
14837KMSN MSN20060202124009902/02/06 12:40:31  5-MIN KMSN 021840Z 17011KT 6SM HZ BKN090 04/M01 A2962 1140 70 200 170/11 RMK AO2
14837KMSN MSN20060202124509802/02/06 12:45:31  5-MIN KMSN 021845Z 17010KT 6SM HZ SCT090 05/00 A2961 1150 70 300 170/10 RMK AO2
14837KMSN MSN20060202125011602/02/06 12:50:31  5-MIN KMSN 021850Z 16012KT 6SM HZ FEW090 05/M01 A2961 1150 67 300 160/12 RMK AO2 SLP034 T00501006
14837KMSN MSN20060202125509902/02/06 12:55:31  5-MIN KMSN 021855Z 17009KT 6SM HZ FEW090 05/M01 A2961 1160 67 300 170/09 RMK AO2
14837KMSN MSN20060202130009902/02/06 13:00:31  5-MIN KMSN 021900Z 18011KT 6SM HZ FEW090 05/M01 A2961 1160 67 300 180/11 RMK AO2
14837KMSN MSN20060202130509602/02/06 13:05:31  5-MIN KMSN 021905Z 19011KT 6SM HZ CLR 05/M01 A2960 1160 67 300 180/11 RMK AO2
14837KMSN MSN20060202131009902/02/06 13:10:31  5-MIN KMSN 021910Z 17011KT 6SM HZ FEW090 05/M01 A2960 1160 67 300 170/11 RMK AO2
14837KMSN MSN20060202131509902/02/06 13:15:31  5-MIN KMSN 021915Z 17011KT 6SM HZ FEW090 05/M01 A2960 1160 67 300 170/11 RMK AO2
14837KMSN MSN20060202132010502/02/06 13:20:31  5-MIN KMSN 021920Z 17012KT 6SM HZ SCT090 SCT100 05/00 A2960 1160 70 300 170/12 RMK AO2
14837KMSN MSN20060202132510502/02/06 13:25:31  5-MIN KMSN 021925Z 16011KT 6SM HZ SCT090 SCT100 06/00 A2960 1160 67 300 160/11 RMK AO2
14837KMSN MSN20060202133010502/02/06 13:30:31  5-MIN KMSN 021930Z 15012KT 6SM HZ SCT090 BKN100 06/00 A2960 1160 67 300 140/12 RMK AO2
14837KMSN MSN20060202133509802/02/06 13:35:31  5-MIN KMSN 021935Z 15014KT 6SM HZ BKN090 05/00 A2960 1160 70 300 150/14 RMK AO2
14837KMSN MSN20060202134011202/02/06 13:40:31  5-MIN KMSN 021940Z 15015KT 6SM HZ FEW070 BKN090 BKN100 05/00 A2959 1170 70 300 140/15 RMK AO2
14837KMSN MSN20060202134510502/02/06 13:45:31  5-MIN KMSN 021945Z 17015KT 6SM HZ FEW070 BKN095 05/00 A2959 1170 70 300 160/15 RMK AO2
14837KMSN MSN20060202135012202/02/06 13:50:31  5-MIN KMSN 021950Z 16015KT 6SM HZ FEW070 BKN095 05/00 A2959 1170 70 300 150/15 RMK AO2 SLP028 T00500000
14837KMSN MSN20060202135510502/02/06 13:55:31  5-MIN KMSN 021955Z 15014KT 6SM HZ FEW070 BKN100 05/00 A2959 1170 70 300 150/14 RMK AO2
14837KMSN MSN20060202140010502/02/06 14:00:31  5-MIN KMSN 022000Z 15013KT 6SM HZ FEW070 BKN100 05/00 A2959 1170 70 300 150/13 RMK AO2
14837KMSN MSN20060202140510502/02/06 14:05:31  5-MIN KMSN 022005Z 16013KT 6SM HZ FEW070 SCT100 05/00 A2959 1170 70 300 160/13 RMK AO2
14837KMSN MSN20060202141009802/02/06 14:10:31  5-MIN KMSN 022010Z 18013KT 6SM HZ SCT100 05/00 A2959 1170 70 300 180/13 RMK AO2
14837KMSN MSN20060202141509802/02/06 14:15:31  5-MIN KMSN 022015Z 17015KT 6SM HZ BKN100 05/00 A2959 1170 70 300 170/15 RMK AO2
14837KMSN MSN20060202142009802/02/06 14:20:31  5-MIN KMSN 022020Z 17015KT 6SM HZ BKN100 05/00 A2958 1180 70 300 170/15 RMK AO2
14837KMSN MSN20060202142509802/02/06 14:25:31  5-MIN KMSN 022025Z 16012KT 6SM HZ BKN100 06/01 A2958 1180 70 400 160/12 RMK AO2
14837KMSN MSN20060202143009802/02/06 14:30:31  5-MIN KMSN 022030Z 16014KT 6SM HZ BKN100 06/01 A2958 1180 70 400 160/14 RMK AO2
14837KMSN MSN20060202143509802/02/06 14:35:31  5-MIN KMSN 022035Z 17012KT 6SM HZ OVC100 06/01 A2958 1180 70 400 170/12 RMK AO2
14837KMSN MSN20060202144009802/02/06 14:40:31  5-MIN KMSN 022040Z 17014KT 6SM HZ OVC100 06/01 A2958 1180 70 400 170/14 RMK AO2
14837KMSN MSN20060202144509802/02/06 14:45:31  5-MIN KMSN 022045Z 17014KT 6SM HZ OVC100 06/01 A2958 1180 70 400 170/14 RMK AO2
14837KMSN MSN20060202145012102/02/06 14:50:31  5-MIN KMSN 022050Z 17013KT 6SM HZ BKN100 06/01 A2958 1180 70 400 170/13 RMK AO2 SLP024 T00560006 58014
14837KMSN MSN20060202145509802/02/06 14:55:31  5-MIN KMSN 022055Z 16012KT 6SM HZ OVC100 06/01 A2958 1180 70 400 160/12 RMK AO2
14837KMSN MSN20060202150009802/02/06 15:00:31  5-MIN KMSN 022100Z 16011KT 6SM HZ OVC100 06/01 A2958 1180 70 400 160/11 RMK AO2
14837KMSN MSN20060202150509802/02/06 15:05:31  5-MIN KMSN 022105Z 17009KT 6SM HZ BKN100 06/01 A2958 1180 70 400 170/09 RMK AO2
14837KMSN MSN20060202151009802/02/06 15:10:31  5-MIN KMSN 022110Z 17011KT 6SM HZ BKN100 06/01 A2958 1180 70 400 170/11 RMK AO2
14837KMSN MSN20060202151509802/02/06 15:15:31  5-MIN KMSN 022115Z 16012KT 6SM HZ BKN100 06/01 A2957 1190 70 400 160/12 RMK AO2
14837KMSN MSN20060202152009802/02/06 15:20:31  5-MIN KMSN 022120Z 17010KT 6SM HZ SCT100 06/01 A2957 1190 70 400 170/10 RMK AO2
14837KMSN MSN20060202152509802/02/06 15:25:31  5-MIN KMSN 022125Z 17010KT 6SM HZ FEW100 06/01 A2957 1190 70 400 170/10 RMK AO2
14837KMSN MSN20060202153009502/02/06 15:30:31  5-MIN KMSN 022130Z 16011KT 6SM HZ CLR 06/01 A2957 1190 70 400 160/11 RMK AO2
14837KMSN MSN20060202153509502/02/06 15:35:31  5-MIN KMSN 022135Z 16009KT 6SM HZ CLR 06/01 A2957 1190 73 400 160/09 RMK AO2
14837KMSN MSN20060202154009502/02/06 15:40:31  5-MIN KMSN 022140Z 17011KT 6SM HZ CLR 06/01 A2957 1190 73 400 170/11 RMK AO2
14837KMSN MSN20060202154509502/02/06 15:45:31  5-MIN KMSN 022145Z 17009KT 6SM HZ CLR 06/01 A2957 1190 73 400 160/09 RMK AO2
14837KMSN MSN20060202155011202/02/06 15:50:31  5-MIN KMSN 022150Z 18009KT 6SM HZ CLR 06/01 A2957 1190 73 400 180/09 RMK AO2 SLP021 T00560011
14837KMSN MSN20060202155509502/02/06 15:55:31  5-MIN KMSN 022155Z 18009KT 6SM HZ CLR 06/01 A2957 1190 73 400 180/09 RMK AO2
14837KMSN MSN20060202160009502/02/06 16:00:31  5-MIN KMSN 022200Z 17009KT 6SM HZ CLR 06/01 A2957 1190 73 400 170/09 RMK AO2
14837KMSN MSN20060202160509502/02/06 16:05:31  5-MIN KMSN 022205Z 16008KT 6SM HZ CLR 06/01 A2957 1190 73 400 160/08 RMK AO2
14837KMSN MSN20060202161009502/02/06 16:10:31  5-MIN KMSN 022210Z 17009KT 6SM HZ CLR 06/01 A2957 1190 73 400 170/09 RMK AO2
14837KMSN MSN20060202161509502/02/06 16:15:31  5-MIN KMSN 022215Z 18008KT 6SM HZ CLR 06/01 A2957 1190 73 400 180/08 RMK AO2
14837KMSN MSN20060202162009502/02/06 16:20:31  5-MIN KMSN 022220Z 17010KT 6SM HZ CLR 05/01 A2957 1190 76 300 170/10 RMK AO2
14837KMSN MSN20060202162509502/02/06 16:25:31  5-MIN KMSN 022225Z 17009KT 6SM HZ CLR 05/01 A2957 1190 76 300 170/09 RMK AO2
14837KMSN MSN20060202163009802/02/06 16:30:31  5-MIN KMSN 022230Z 17009KT 6SM HZ FEW100 05/01 A2957 1190 76 300 160/09 RMK AO2
14837KMSN MSN20060202163509802/02/06 16:35:31  5-MIN KMSN 022235Z 18008KT 6SM HZ SCT100 05/01 A2957 1190 76 300 180/08 RMK AO2
14837KMSN MSN20060202164009802/02/06 16:40:31  5-MIN KMSN 022240Z 17007KT 6SM HZ BKN110 05/01 A2957 1190 76 300 170/07 RMK AO2
14837KMSN MSN20060202164509802/02/06 16:45:31  5-MIN KMSN 022245Z 16009KT 6SM HZ BKN110 05/01 A2957 1190 76 300 160/09 RMK AO2
14837KMSN MSN20060202165011502/02/06 16:50:31  5-MIN KMSN 022250Z 16010KT 6SM HZ SCT110 05/01 A2957 1190 76 300 160/10 RMK AO2 SLP020 T00500011
14837KMSN MSN20060202165509802/02/06 16:55:31  5-MIN KMSN 022255Z 17008KT 6SM HZ SCT110 04/01 A2957 1190 76 200 160/08 RMK AO2
14837KMSN MSN20060202170009802/02/06 17:00:31  5-MIN KMSN 022300Z 17008KT 5SM HZ SCT110 04/01 A2957 1190 76 200 170/08 RMK AO2
14837KMSN MSN20060202170509802/02/06 17:05:31  5-MIN KMSN 022305Z 18007KT 5SM HZ FEW110 04/01 A2957 1190 76 200 180/07 RMK AO2
14837KMSN MSN20060202171009502/02/06 17:10:31  5-MIN KMSN 022310Z 17007KT 5SM HZ CLR 04/01 A2957 1190 76 200 170/07 RMK AO2
14837KMSN MSN20060202171509502/02/06 17:15:31  5-MIN KMSN 022315Z 17007KT 5SM HZ CLR 04/01 A2957 1190 76 200 170/07 RMK AO2
14837KMSN MSN20060202172009502/02/06 17:20:31  5-MIN KMSN 022320Z 16007KT 5SM HZ CLR 04/01 A2958 1180 79 200 160/07 RMK AO2
14837KMSN MSN20060202172509502/02/06 17:25:31  5-MIN KMSN 022325Z 16007KT 5SM HZ CLR 03/01 A2958 1180 82 100 160/07 RMK AO2
14837KMSN MSN20060202173009802/02/06 17:30:31  5-MIN KMSN 022330Z 16006KT 6SM HZ FEW110 03/01 A2958 1180 82 100 160/06 RMK AO2
14837KMSN MSN20060202173509802/02/06 17:35:31  5-MIN KMSN 022335Z 16008KT 6SM HZ FEW110 03/00 A2958 1180 79 100 160/08 RMK AO2
14837KMSN MSN20060202174009802/02/06 17:40:31  5-MIN KMSN 022340Z 17007KT 6SM HZ FEW110 03/00 A2958 1180 79 100 170/07 RMK AO2
14837KMSN MSN20060202174509802/02/06 17:45:31  5-MIN KMSN 022345Z 16007KT 6SM HZ FEW110 04/01 A2958 1180 79 200 160/07 RMK AO2
14837KMSN MSN20060202175013002/02/06 17:50:31  5-MIN KMSN 022350Z 16006KT 6SM HZ CLR 03/00 A2958 1180 79 100 160/06 RMK AO2 SLP025 T00330000 10061 20033 56020
14837KMSN MSN20060202175509302/02/06 17:55:31  5-MIN KMSN 022355Z 16007KT 6SM HZ CLR 03/00 A2958 1180 82 0 150/07 RMK AO2
14837KMSN MSN20060202180009302/02/06 18:00:31  5-MIN KMSN 030000Z 15006KT 6SM BR CLR 02/00 A2958 1180 85 0 150/06 RMK AO2
14837KMSN MSN20060202180509402/02/06 18:05:31  5-MIN KMSN 030005Z 16007KT 6SM HZ CLR 02/M01 A2958 1180 82 0 160/07 RMK AO2
14837KMSN MSN20060202181009302/02/06 18:10:31  5-MIN KMSN 030010Z 16007KT 6SM HZ CLR 03/00 A2958 1180 82 0 160/07 RMK AO2
14837KMSN MSN20060202181509302/02/06 18:15:31  5-MIN KMSN 030015Z 17007KT 6SM HZ CLR 03/00 A2958 1180 82 0 160/07 RMK AO2
14837KMSN MSN20060202182009402/02/06 18:20:31  5-MIN KMSN 030020Z 15006KT 6SM HZ CLR 02/M01 A2958 1180 82 0 150/06 RMK AO2
14837KMSN MSN20060202182509302/02/06 18:25:31  5-MIN KMSN 030025Z 15005KT 6SM BR CLR 02/00 A2958 1180 85 0 150/05 RMK AO2
14837KMSN MSN20060202183009702/02/06 18:30:31  5-MIN KMSN 030030Z 14006KT 6SM BR CLR 02/M01 A2958 1180 85 -100 140/06 RMK AO2
14837KMSN MSN20060202183509702/02/06 18:35:31  5-MIN KMSN 030035Z 15006KT 6SM BR CLR 02/M01 A2958 1180 85 -100 150/06 RMK AO2
14837KMSN MSN20060202184009402/02/06 18:40:31  5-MIN KMSN 030040Z 16006KT 6SM HZ CLR 02/M01 A2958 1180 82 0 160/06 RMK AO2
14837KMSN MSN20060202184509302/02/06 18:45:31  5-MIN KMSN 030045Z 17006KT 6SM BR CLR 02/00 A2958 1180 85 0 170/06 RMK AO2
14837KMSN MSN20060202185011002/02/06 18:50:31  5-MIN KMSN 030050Z 17005KT 6SM BR CLR 02/00 A2958 1180 85 0 170/05 RMK AO2 SLP025 T00220000
14837KMSN MSN20060202185509702/02/06 18:55:31  5-MIN KMSN 030055Z 16005KT 6SM BR CLR 02/M01 A2958 1180 85 -100 160/05 RMK AO2
14837KMSN MSN20060202190009302/02/06 19:00:31  5-MIN KMSN 030100Z 16005KT 6SM BR CLR 02/00 A2958 1180 85 0 160/05 RMK AO2
14837KMSN MSN20060202190509702/02/06 19:05:31  5-MIN KMSN 030105Z 16004KT 6SM BR CLR 02/M01 A2958 1180 85 -100 160/04 RMK AO2
14837KMSN MSN20060202191009602/02/06 19:10:31  5-MIN KMSN 030110Z 15003KT 5SM BR CLR 02/00 A2958 1180 89 -100 150/03 RMK AO2
14837KMSN MSN20060202191509702/02/06 19:15:31  5-MIN KMSN 030115Z 13003KT 5SM BR CLR 02/M01 A2958 1180 85 -100 120/03 RMK AO2
14837KMSN MSN20060202192009702/02/06 19:20:31  5-MIN KMSN 030120Z 15004KT 5SM BR CLR 02/M01 A2958 1180 85 -100 150/04 RMK AO2
14837KMSN MSN20060202192509302/02/06 19:25:31  5-MIN KMSN 030125Z 16004KT 5SM BR CLR 02/00 A2957 1190 85 0 160/04 RMK AO2
14837KMSN MSN20060202193009602/02/06 19:30:31  5-MIN KMSN 030130Z 16004KT 5SM BR CLR 02/00 A2957 1190 89 -100 160/04 RMK AO2
14837KMSN MSN20060202193509702/02/06 19:35:31  5-MIN KMSN 030135Z 16003KT 5SM BR CLR 02/M01 A2957 1190 85 -100 160/03 RMK AO2
14837KMSN MSN20060202194009302/02/06 19:40:31  5-MIN KMSN 030140Z 17003KT 5SM BR CLR 02/00 A2957 1190 85 0 170/03 RMK AO2
14837KMSN MSN20060202194509302/02/06 19:45:31  5-MIN KMSN 030145Z 17004KT 5SM BR CLR 02/00 A2957 1190 85 0 170/04 RMK AO2
14837KMSN MSN20060202195011302/02/06 19:50:31  5-MIN KMSN 030150Z 17005KT 6SM BR CLR 02/00 A2957 1190 89 -100 160/05 RMK AO2 SLP022 T00170000
14837KMSN MSN20060202195509302/02/06 19:55:31  5-MIN KMSN 030155Z 16005KT 5SM BR CLR 02/00 A2957 1190 89 0 160/05 RMK AO2
14837KMSN MSN20060202200009402/02/06 20:00:31  5-MIN KMSN 030200Z 16004KT 5SM BR CLR 02/M01 A2957 1190 85 0 160/04 RMK AO2
14837KMSN MSN20060202200509302/02/06 20:05:31  5-MIN KMSN 030205Z 17005KT 5SM BR CLR 02/00 A2956 1200 85 0 170/05 RMK AO2
14837KMSN MSN20060202201009302/02/06 20:10:31  5-MIN KMSN 030210Z 18004KT 5SM BR CLR 02/00 A2956 1200 85 0 180/04 RMK AO2
14837KMSN MSN20060202201509302/02/06 20:15:31  5-MIN KMSN 030215Z 17006KT 5SM BR CLR 02/00 A2956 1200 89 0 170/06 RMK AO2
14837KMSN MSN20060202202009302/02/06 20:20:31  5-MIN KMSN 030220Z 17004KT 5SM BR CLR 02/00 A2956 1200 85 0 170/04 RMK AO2
14837KMSN MSN20060202202509702/02/06 20:25:31  5-MIN KMSN 030225Z 17005KT 5SM BR CLR 01/M01 A2956 1200 89 -100 160/05 RMK AO2
14837KMSN MSN20060202203009702/02/06 20:30:31  5-MIN KMSN 030230Z 17005KT 5SM BR CLR 01/M01 A2956 1200 89 -100 160/05 RMK AO2
14837KMSN MSN20060202203509302/02/06 20:35:31  5-MIN KMSN 030235Z 17005KT 5SM BR CLR 02/00 A2956 1200 89 0 170/05 RMK AO2
14837KMSN MSN20060202204009402/02/06 20:40:31  5-MIN KMSN 030240Z 17004KT 5SM BR CLR 02/M01 A2956 1200 85 0 170/04 RMK AO2
14837KMSN MSN20060202204509702/02/06 20:45:31  5-MIN KMSN 030245Z 17005KT 5SM BR CLR 01/M01 A2956 1200 89 -100 170/05 RMK AO2
14837KMSN MSN20060202205011702/02/06 20:50:31  5-MIN KMSN 030250Z 19003KT 5SM BR CLR 02/M01 A2956 1200 85 0 180/03 RMK AO2 SLP019 T00171006 55000
14837KMSN MSN20060202205509402/02/06 20:55:31  5-MIN KMSN 030255Z 20003KT 5SM BR CLR 02/M01 A2956 1200 85 0 200/03 RMK AO2
14837KMSN MSN20060203081012702/03/06 08:10:31  5-MIN KMSN 031410Z VRB05KT 2SM -RA BR SCT021 OVC026 02/01 A2956 1200 92 0 VRB/05 RMK AO2 TWR VIS 2 1/2 P0001
14837KMSN MSN20060203081512002/03/06 08:15:31  5-MIN KMSN 031415Z VRB04KT 2SM -RA BR OVC023 02/01 A2957 1190 92 0 VRB/04 RMK AO2 TWR VIS 2 1/2 P0001
14837KMSN MSN20060203082011002/03/06 08:20:31  5-MIN KMSN 031420Z 28005KT 2 1/2SM -RA BR OVC023 02/01 A2957 1190 92 0 280/05 RMK AO2 P0001
14837KMSN MSN20060203082511002/03/06 08:25:31  5-MIN KMSN 031425Z 28005KT 2 1/2SM -RA BR OVC023 02/01 A2957 1190 92 0 280/05 RMK AO2 P0001
14837KMSN MSN20060203083011002/03/06 08:30:31  5-MIN KMSN 031430Z 28005KT 2 1/2SM -RA BR OVC023 02/01 A2957 1190 92 0 280/05 RMK AO2 P0001
14837KMSN MSN20060203083511002/03/06 08:35:31  5-MIN KMSN 031435Z 28005KT 2 1/2SM -RA BR OVC021 02/01 A2957 1190 92 0 270/05 RMK AO2 P0001
14837KMSN MSN20060203084011002/03/06 08:40:31  5-MIN KMSN 031440Z 27006KT 2 1/2SM -RA BR OVC021 02/01 A2957 1190 92 0 270/06 RMK AO2 P0001
14837KMSN MSN20060203084511002/03/06 08:45:31  5-MIN KMSN 031445Z 27006KT 2 1/2SM -RA BR OVC021 02/01 A2957 1190 92 0 270/06 RMK AO2 P0002
14837KMSN MSN20060203085012502/03/06 08:50:31  5-MIN KMSN 031450Z 27005KT 2 1/2SM -RASN BR FEW008 OVC021 02/01 A2958 1180 92 0 270/05 RMK AO2 SNB50 P0002
14837KMSN MSN20060203085511902/03/06 08:55:31  5-MIN KMSN 031455Z 29006KT 2 1/2SM -RASN BR SCT008 OVC021 02/01 A2958 1180 92 0 280/06 RMK AO2 P0000
14837KMSN MSN20060203090011902/03/06 09:00:31  5-MIN KMSN 031500Z VRB06KT 2 1/2SM -RASN BR BKN008 OVC021 02/01 A2958 1180 92 0 VRB/06 RMK AO2 P0001
14837KMSN MSN20060203090511902/03/06 09:05:31  5-MIN KMSN 031505Z 30005KT 2 1/2SM -RASN BR BKN008 OVC021 02/01 A2958 1180 92 0 290/05 RMK AO2 P0001
14837KMSN MSN20060203091013102/03/06 09:10:31  5-MIN KMSN 031510Z 28005KT 2 1/2SM -RASN BR BKN008 OVC021 02/01 A2958 1180 92 0 280/05 RMK AO2 CIG 006V011 P0001
14837KMSN MSN20060203091512402/03/06 09:15:31  5-MIN KMSN 031515Z 29005KT 2 1/2SM -RASN BR OVC008 02/01 A2958 1180 92 0 290/05 RMK AO2 CIG 006V011 P0002
14837KMSN MSN20060203092012702/03/06 09:20:31  5-MIN KMSN 031520Z 30006KT 2 1/2SM -RASN BR OVC008 02/01 A2958 1180 92 -100 300/06 RMK AO2 CIG 006V011 P0002
14837KMSN MSN20060203092512402/03/06 09:25:31  5-MIN KMSN 031525Z 30005KT 2 1/2SM -RASN BR OVC008 02/01 A2958 1180 92 0 290/05 RMK AO2 CIG 006V011 P0002
14837KMSN MSN20060203093012402/03/06 09:30:31  5-MIN KMSN 031530Z 29007KT 2 1/2SM -RASN BR OVC008 02/01 A2958 1180 92 0 290/07 RMK AO2 CIG 006V011 P0002
14837KMSN MSN20060203093513802/03/06 09:35:31  5-MIN KMSN 031535Z 30007KT 2 1/2SM -RA BR OVC008 02/01 A2958 1180 92 0 300/07 RMK AO2 SFC VIS 3 SNE35 CIG 006V011 P0002
14837KMSN MSN20060203094013902/03/06 09:40:31  5-MIN KMSN 031540Z 30008KT 2 1/2SM BR OVC008 02/01 A2958 1180 89 0 300/08 RMK AO2 SFC VIS 3 RAE37SNE35 CIG 006V011 P0002
14837KMSN MSN20060203094512502/03/06 09:45:31  5-MIN KMSN 031545Z 30007KT 3SM BR OVC010 02/01 A2958 1180 89 0 300/07 RMK AO2 RAE37SNE35 CIG 006V011 P0002
14837KMSN MSN20060203095014002/03/06 09:50:31  5-MIN KMSN 031550Z 31007KT 3SM BR OVC010 02/01 A2958 1180 89 0 310/07 RMK AO2 SFC VIS 4 RAE37SNE35 SLP023 P0002 T00220006
14837KMSN MSN20060203095510602/03/06 09:55:31  5-MIN KMSN 031555Z VRB05KT 3SM BR BKN010 02/01 A2958 1180 89 0 VRB/05 RMK AO2 SFC VIS 3
14837KMSN MSN20060203100011302/03/06 10:00:31  5-MIN KMSN 031600Z 30006KT 3SM BR BKN010 BKN041 02/01 A2958 1180 92 0 300/06 RMK AO2 SFC VIS 3
14837KMSN MSN20060203100512002/03/06 10:05:31  5-MIN KMSN 031605Z VRB04KT 3SM BR SCT010 SCT041 BKN100 02/01 A2958 1180 92 0 VRB/04 RMK AO2 SFC VIS 4
14837KMSN MSN20060203101012002/03/06 10:10:31  5-MIN KMSN 031610Z 30006KT 3SM BR FEW010 SCT048 BKN100 03/01 A2959 1170 89 0 290/06 RMK AO2 SFC VIS 4
14837KMSN MSN20060203101512002/03/06 10:15:31  5-MIN KMSN 031615Z VRB05KT 3SM BR FEW010 SCT060 BKN100 03/01 A2959 1170 89 0 VRB/05 RMK AO2 SFC VIS 4
14837KMSN MSN20060203102012002/03/06 10:20:31  5-MIN KMSN 031620Z 27004KT 3SM BR FEW010 SCT065 BKN100 03/01 A2959 1170 89 0 270/04 RMK AO2 SFC VIS 4
14837KMSN MSN20060203102512202/03/06 10:25:31  5-MIN KMSN 031625Z 27007KT 3SM BR FEW012 SCT065 BKN100 03/01 A2959 1170 85 100 270/07 RMK AO2 SFC VIS 4
14837KMSN MSN20060203103012002/03/06 10:30:31  5-MIN KMSN 031630Z 27006KT 3SM BR SCT012 BKN065 BKN080 03/01 A2959 1170 89 0 270/06 RMK AO2 SFC VIS 4
14837KMSN MSN20060203103512202/03/06 10:35:31  5-MIN KMSN 031635Z 26006KT 3SM BR SCT012 BKN065 BKN080 03/01 A2959 1170 85 100 260/06 RMK AO2 SFC VIS 4
14837KMSN MSN20060203104012202/03/06 10:40:31  5-MIN KMSN 031640Z VRB05KT 3SM HZ SCT012 SCT065 BKN080 03/01 A2959 1170 82 100 VRB/05 RMK AO2 SFC VIS 4
14837KMSN MSN20060203104512202/03/06 10:45:31  5-MIN KMSN 031645Z 28009KT 3SM BR SCT012 BKN090 BKN110 04/02 A2960 1170 85 100 280/09 RMK AO2 SFC VIS 4
14837KMSN MSN20060203105015502/03/06 10:50:31  5-MIN KMSN 031650Z 27008KT 230V300 3SM BR SCT012 BKN065 BKN085 03/01 A2960 1160 85 100 270/08 230V300 RMK AO2 SFC VIS 4 SLP030 T00330011
14837KMSN MSN20060203105512202/03/06 10:55:31  5-MIN KMSN 031655Z 27008KT 3SM BR BKN012 BKN065 BKN085 03/01 A2960 1160 85 100 270/08 RMK AO2 SFC VIS 4
14837KMSN MSN20060203110013802/03/06 11:00:31  5-MIN KMSN 031700Z 27009KT 240V310 3SM HZ BKN012 BKN065 BKN085 03/01 A2960 1160 82 100 270/09 240V310 RMK AO2 SFC VIS 4
14837KMSN MSN20060203110510802/03/06 11:05:31  5-MIN KMSN 031705Z VRB06KT 3SM HZ BKN012 03/01 A2960 1160 82 100 VRB/06 RMK AO2 SFC VIS 4
14837KMSN MSN20060203111010802/03/06 11:10:31  5-MIN KMSN 031710Z 28007KT 3SM BR BKN014 03/01 A2960 1160 85 100 280/07 RMK AO2 SFC VIS 4
14837KMSN MSN20060203111510802/03/06 11:15:31  5-MIN KMSN 031715Z 27007KT 3SM HZ OVC014 03/01 A2960 1160 82 100 270/07 RMK AO2 SFC VIS 4
14837KMSN MSN20060203112012402/03/06 11:20:31  5-MIN KMSN 031720Z 28008KT 250V310 3SM HZ OVC014 04/01 A2960 1160 82 100 280/08 250V310 RMK AO2 SFC VIS 4
14837KMSN MSN20060203112510802/03/06 11:25:31  5-MIN KMSN 031725Z 26006KT 3SM BR OVC014 03/01 A2960 1160 85 100 260/06 RMK AO2 SFC VIS 4
14837KMSN MSN20060203113010802/03/06 11:30:31  5-MIN KMSN 031730Z 26006KT 3SM BR OVC014 03/01 A2960 1160 85 100 260/06 RMK AO2 SFC VIS 4
14837KMSN MSN20060203113512402/03/06 11:35:31  5-MIN KMSN 031735Z 26008KT 230V310 3SM HZ OVC014 03/01 A2960 1160 82 100 260/08 230V310 RMK AO2 SFC VIS 4
14837KMSN MSN20060203114010802/03/06 11:40:31  5-MIN KMSN 031740Z 27008KT 3SM HZ OVC014 03/01 A2960 1160 82 100 270/08 RMK AO2 SFC VIS 4
14837KMSN MSN20060203114509802/03/06 11:45:31  5-MIN KMSN 031745Z 29009KT 5SM HZ OVC014 04/01 A2960 1160 82 100 290/09 RMK AO2
14837KMSN MSN20060203115013902/03/06 11:50:31  5-MIN KMSN 031750Z 28007KT 5SM HZ OVC014 03/01 A2960 1160 82 100 280/07 RMK AO2 SLP032 60010 T00330006 10039 20017 52020
14837KMSN MSN20060203115509802/03/06 11:55:31  5-MIN KMSN 031755Z 29009KT 5SM HZ OVC016 04/01 A2960 1160 79 100 290/09 RMK AO2
14837KMSN MSN20060203120011402/03/06 12:00:31  5-MIN KMSN 031800Z 30007KT 270V330 5SM HZ OVC016 04/01 A2960 1160 79 100 300/07 270V330 RMK AO2
14837KMSN MSN20060203120509802/03/06 12:05:31  5-MIN KMSN 031805Z VRB06KT 5SM HZ OVC016 04/01 A2960 1160 79 100 VRB/06 RMK AO2
14837KMSN MSN20060203121009802/03/06 12:10:31  5-MIN KMSN 031810Z 29008KT 5SM HZ OVC016 04/01 A2960 1160 79 100 290/08 RMK AO2
14837KMSN MSN20060203121509802/03/06 12:15:31  5-MIN KMSN 031815Z 30007KT 5SM HZ OVC016 04/01 A2960 1160 76 200 300/07 RMK AO2
14837KMSN MSN20060203122009802/03/06 12:20:31  5-MIN KMSN 031820Z 30007KT 5SM HZ OVC016 04/01 A2960 1160 79 100 290/07 RMK AO2
14837KMSN MSN20060203122511402/03/06 12:25:31  5-MIN KMSN 031825Z 31007KT 260V320 5SM HZ OVC018 04/01 A2960 1160 76 200 310/07 260V320 RMK AO2
14837KMSN MSN20060203123011402/03/06 12:30:31  5-MIN KMSN 031830Z 29007KT 270V330 6SM HZ BKN018 04/01 A2960 1160 79 100 290/07 270V330 RMK AO2
14837KMSN MSN20060203123510502/03/06 12:35:31  5-MIN KMSN 031835Z 31006KT 6SM HZ BKN018 BKN024 04/01 A2960 1160 79 100 310/06 RMK AO2
14837KMSN MSN20060203124009802/03/06 12:40:31  5-MIN KMSN 031840Z 31006KT 6SM HZ BKN016 04/00 A2960 1160 76 100 310/06 RMK AO2
14837KMSN MSN20060203124509802/03/06 12:45:31  5-MIN KMSN 031845Z 29005KT 6SM HZ BKN016 04/00 A2960 1160 76 100 290/05 RMK AO2
14837KMSN MSN20060203125012202/03/06 12:50:31  5-MIN KMSN 031850Z 29007KT 6SM HZ BKN020 BKN038 04/00 A2960 1160 73 200 290/07 RMK AO2 SLP032 T00440000
14837KMSN MSN20060203125510502/03/06 12:55:31  5-MIN KMSN 031855Z 30007KT 6SM HZ BKN020 BKN036 04/00 A2960 1160 76 100 300/07 RMK AO2
14837KMSN MSN20060203130010502/03/06 13:00:31  5-MIN KMSN 031900Z 31008KT 6SM HZ BKN020 BKN036 04/00 A2960 1160 73 200 300/08 RMK AO2
14837KMSN MSN20060203130510502/03/06 13:05:31  5-MIN KMSN 031905Z VRB06KT 6SM HZ FEW024 OVC036 04/00 A2960 1160 73 200 VRB/06 RMK AO2
14837KMSN MSN20060203131010502/03/06 13:10:31  5-MIN KMSN 031910Z 29006KT 6SM HZ FEW024 OVC036 04/01 A2960 1160 76 200 280/06 RMK AO2
14837KMSN MSN20060203131510502/03/06 13:15:31  5-MIN KMSN 031915Z 28008KT 6SM HZ SCT024 OVC034 04/00 A2960 1160 73 200 280/08 RMK AO2
14837KMSN MSN20060203132010502/03/06 13:20:31  5-MIN KMSN 031920Z VRB06KT 6SM HZ BKN024 OVC034 04/00 A2961 1160 73 200 VRB/06 RMK AO2
14837KMSN MSN20060203132511202/03/06 13:25:31  5-MIN KMSN 031925Z 31007KT 6SM HZ FEW022 BKN029 OVC034 04/00 A2961 1150 76 100 310/07 RMK AO2
14837KMSN MSN20060203133010502/03/06 13:30:31  5-MIN KMSN 031930Z 30006KT 5SM HZ SCT026 OVC032 04/00 A2961 1150 76 100 300/06 RMK AO2
14837KMSN MSN20060203133510502/03/06 13:35:31  5-MIN KMSN 031935Z 29006KT 5SM HZ FEW026 OVC034 04/00 A2961 1150 76 100 290/06 RMK AO2
14837KMSN MSN20060203134010502/03/06 13:40:31  5-MIN KMSN 031940Z 28007KT 6SM HZ FEW025 OVC034 04/00 A2961 1150 76 100 280/07 RMK AO2
14837KMSN MSN20060203134510302/03/06 13:45:31  5-MIN KMSN 031945Z VRB06KT 7SM FEW030 OVC036 04/M01 A2961 1150 70 100 VRB/06 RMK AO2
14837KMSN MSN20060203135012702/03/06 13:50:31  5-MIN KMSN 031950Z 28008KT 9SM FEW030 BKN036 OVC046 05/M01 A2961 1150 64 300 280/08 RMK AO2 SLP034 T00501011
14837KMSN MSN20060203135511902/03/06 13:55:31  5-MIN KMSN 031955Z 27009KT 250V310 8SM BKN036 OVC046 05/M02 A2961 1150 62 300 270/09 250V310 RMK AO2
14837KMSN MSN20060203140010302/03/06 14:00:31  5-MIN KMSN 032000Z 28007KT 8SM SCT036 OVC046 04/M02 A2961 1150 64 200 280/07 RMK AO2
14837KMSN MSN20060203140511002/03/06 14:05:31  5-MIN KMSN 032005Z VRB06KT 8SM FEW028 SCT036 OVC046 04/M01 A2962 1150 70 200 VRB/06 RMK AO2
14837KMSN MSN20060203141010902/03/06 14:10:31  5-MIN KMSN 032010Z 32008KT 7SM FEW028 SCT036 OVC046 04/00 A2962 1150 76 100 320/08 RMK AO2
14837KMSN MSN20060203141510502/03/06 14:15:31  5-MIN KMSN 032015Z 33009KT 6SM HZ FEW028 OVC046 04/00 A2962 1150 76 100 330/09 RMK AO2
14837KMSN MSN20060203142010502/03/06 14:20:31  5-MIN KMSN 032020Z 32008KT 6SM HZ FEW028 OVC046 04/00 A2962 1150 76 100 320/08 RMK AO2
14837KMSN MSN20060203142510602/03/06 14:25:31  5-MIN KMSN 032025Z 32008KT 6SM HZ FEW028 OVC046 04/M01 A2962 1150 73 100 320/08 RMK AO2
14837KMSN MSN20060203143010802/03/06 14:30:31  5-MIN KMSN 032030Z 32007KT 7SM FEW028 SCT037 OVC046 03/M01 A2962 1140 76 0 310/07 RMK AO2
14837KMSN MSN20060203143510102/03/06 14:35:31  5-MIN KMSN 032035Z 31007KT 7SM BKN037 OVC048 03/M01 A2962 1140 76 0 310/07 RMK AO2
14837KMSN MSN20060203144010102/03/06 14:40:31  5-MIN KMSN 032040Z 31008KT 8SM BKN035 OVC048 03/M01 A2962 1140 72 0 310/08 RMK AO2
14837KMSN MSN20060203144510102/03/06 14:45:31  5-MIN KMSN 032045Z 30006KT 8SM BKN038 OVC049 03/M01 A2963 1140 72 0 300/06 RMK AO2
14837KMSN MSN20060203145011702/03/06 14:50:31  5-MIN KMSN 032050Z 29006KT 8SM OVC038 03/M01 A2963 1140 72 0 290/06 RMK AO2 SLP040 T00331011 53008
14837KMSN MSN20060203145510102/03/06 14:55:31  5-MIN KMSN 032055Z 29008KT 8SM FEW025 OVC038 03/M01 A2963 1140 72 0 290/08 RMK AO2
14837KMSN MSN20060203150010802/03/06 15:00:31  5-MIN KMSN 032100Z 30008KT 8SM FEW021 SCT025 OVC038 03/M01 A2963 1130 72 0 300/08 RMK AO2
14837KMSN MSN20060203150510802/03/06 15:05:31  5-MIN KMSN 032105Z 31010KT 8SM SCT021 BKN033 OVC040 03/M01 A2964 1130 75 0 310/10 RMK AO2
14837KMSN MSN20060203151010802/03/06 15:10:31  5-MIN KMSN 032110Z 31010KT 7SM SCT018 BKN025 OVC040 03/M01 A2964 1120 75 0 310/10 RMK AO2
14837KMSN MSN20060203151511702/03/06 15:15:31  5-MIN KMSN 032115Z 30010G16KT 7SM BKN018 BKN025 OVC038 02/M01 A2964 1120 78 -100 300/10G16 RMK AO2
14837KMSN MSN20060203152012002/03/06 15:20:31  5-MIN KMSN 032120Z 30010G16KT 6SM HZ BKN018 BKN023 OVC038 02/M01 A2965 1120 78 -100 300/10G16 RMK AO2
14837KMSN MSN20060203152510702/03/06 15:25:31  5-MIN KMSN 032125Z 29010KT 6SM HZ BKN018 OVC025 02/M01 A2965 1110 78 -100 290/10 RMK AO2
14837KMSN MSN20060203153012002/03/06 15:30:31  5-MIN KMSN 032130Z 27012G15KT 6SM HZ BKN018 BKN025 OVC055 02/M02 A2965 1110 75 -100 270/12G15 RMK AO2
14837KMSN MSN20060203153512002/03/06 15:35:31  5-MIN KMSN 032135Z 28007G15KT 6SM HZ SCT018 BKN025 OVC060 02/M02 A2966 1110 78 -200 280/07G15 RMK AO2
14837KMSN MSN20060203154011302/03/06 15:40:31  5-MIN KMSN 032140Z 29010G15KT 6SM HZ BKN018 BKN060 02/M02 A2966 1110 75 -200 290/10G15 RMK AO2
14837KMSN MSN20060203154511302/03/06 15:45:31  5-MIN KMSN 032145Z 28012G18KT 6SM HZ BKN018 BKN060 01/M02 A2966 1100 78 -200 280/12G18 RMK AO2
14837KMSN MSN20060203155013002/03/06 15:50:31  5-MIN KMSN 032150Z 29010G18KT 6SM HZ BKN018 BKN060 01/M02 A2966 1100 78 -200 290/10G18 RMK AO2 SLP053 T00111022
14837KMSN MSN20060203155512102/03/06 15:55:31  5-MIN KMSN 032155Z 28009KT 5SM -SN SCT020 BKN028 OVC060 01/M02 A2967 1100 78 -200 280/09 RMK AO2 P0000
14837KMSN MSN20060203160012702/03/06 16:00:31  5-MIN KMSN 032200Z 28006G14KT 5SM -SN SCT020 BKN040 OVC060 01/M02 A2967 1100 78 -200 280/06G14 RMK AO2 P0000
14837KMSN MSN20060203160512102/03/06 16:05:31  5-MIN KMSN 032205Z 28007KT 5SM -SN SCT020 BKN040 BKN060 01/M02 A2967 1100 82 -300 280/07 RMK AO2 P0000
14837KMSN MSN20060203161012102/03/06 16:10:31  5-MIN KMSN 032210Z 28008KT 4SM -SN SCT020 BKN040 BKN060 01/M03 A2967 1090 78 -300 280/08 RMK AO2 P0000
14837KMSN MSN20060203161512102/03/06 16:15:31  5-MIN KMSN 032215Z 27008KT 5SM -SN SCT020 BKN040 BKN060 01/M03 A2968 1090 78 -300 270/08 RMK AO2 P0000
14837KMSN MSN20060203162012102/03/06 16:20:31  5-MIN KMSN 032220Z 27007KT 5SM -SN SCT015 BKN040 OVC047 01/M02 A2968 1090 82 -300 270/07 RMK AO2 P0000
14837KMSN MSN20060203162511402/03/06 16:25:31  5-MIN KMSN 032225Z 28007KT 5SM -SN SCT015 OVC043 00/M03 A2969 1080 81 -400 280/07 RMK AO2 P0000
14837KMSN MSN20060203163011402/03/06 16:30:31  5-MIN KMSN 032230Z 27008KT 5SM -SN BKN015 OVC045 00/M03 A2969 1080 81 -400 270/08 RMK AO2 P0000
14837KMSN MSN20060203163513602/03/06 16:35:31  5-MIN KMSN 032235Z 27011G15KT 240V310 5SM -SN BKN015 OVC045 00/M03 A2969 1080 81 -400 270/11G15 240V310 RMK AO2 P0000
14837KMSN MSN20060203164012702/03/06 16:40:31  5-MIN KMSN 032240Z 27009G15KT 5SM -SN BKN015 BKN039 OVC048 00/M03 A2969 1080 81 -400 270/09G15 RMK AO2 P0000
14837KMSN MSN20060203164513202/03/06 16:45:31  5-MIN KMSN 032245Z 27009KT 3SM -SN BKN015 BKN039 OVC048 M01/M03 A2969 1070 85 -500 270/09 RMK AO2 TWR VIS 4 P0000
14837KMSN MSN20060203165013502/03/06 16:50:31  5-MIN KMSN 032250Z 28008KT 3SM -SN OVC015 M01/M03 A2970 1070 85 -500 280/08 RMK AO2 TWR VIS 4 SLP065 P0000 T10061028
14837KMSN MSN20060203165511802/03/06 16:55:31  5-MIN KMSN 032255Z 27007KT 3SM -SN OVC015 M01/M03 A2970 1070 85 -500 270/07 RMK AO2 TWR VIS 4 P0000
14837KMSN MSN20060203170011802/03/06 17:00:31  5-MIN KMSN 032300Z 27006KT 3SM -SN OVC013 M01/M03 A2970 1070 85 -500 270/06 RMK AO2 TWR VIS 4 P0000
14837KMSN MSN20060203170511802/03/06 17:05:31  5-MIN KMSN 032305Z 28007KT 3SM -SN OVC013 M01/M03 A2970 1070 85 -500 280/07 RMK AO2 TWR VIS 4 P0000
14837KMSN MSN20060203171013402/03/06 17:10:31  5-MIN KMSN 032310Z 27007KT 240V310 3SM -SN OVC013 M01/M03 A2971 1060 81 -500 270/07 240V310 RMK AO2 TWR VIS 4 P0000
14837KMSN MSN20060203171510802/03/06 17:15:31  5-MIN KMSN 032315Z 28008KT 4SM -SN OVC013 M01/M03 A2971 1060 81 -500 280/08 RMK AO2 P0000
14837KMSN MSN20060203172010802/03/06 17:20:31  5-MIN KMSN 032320Z 28008KT 4SM -SN OVC013 M01/M03 A2971 1060 81 -500 280/08 RMK AO2 P0000
14837KMSN MSN20060203172512102/03/06 17:25:31  5-MIN KMSN 032325Z 28007G14KT 4SM -SN BKN013 OVC024 M01/M03 A2971 1060 85 -500 280/07G14 RMK AO2 P0000
14837KMSN MSN20060203173011502/03/06 17:30:31  5-MIN KMSN 032330Z 28009KT 4SM -SN BKN011 OVC024 M01/M03 A2972 1050 88 -600 280/09 RMK AO2 P0000
14837KMSN MSN20060203173511502/03/06 17:35:31  5-MIN KMSN 032335Z VRB05KT 4SM -SN BKN011 OVC024 M01/M03 A2972 1050 88 -600 VRB/05 RMK AO2 P0000
14837KMSN MSN20060203174011502/03/06 17:40:31  5-MIN KMSN 032340Z 27004KT 4SM -SN BKN011 OVC024 M01/M03 A2972 1050 88 -600 270/04 RMK AO2 P0000
14837KMSN MSN20060203174511502/03/06 17:45:31  5-MIN KMSN 032345Z VRB04KT 4SM -SN BKN011 OVC024 M01/M03 A2972 1050 88 -600 VRB/04 RMK AO2 P0000
14837KMSN MSN20060203175015602/03/06 17:50:31  5-MIN KMSN 032350Z VRB04KT 4SM -SN BKN011 OVC024 M01/M03 A2973 1050 88 -600 VRB/04 RMK AO2 SLP075 P0000 60000 T10111028 10050 21011 53008
14837KMSN MSN20060203175511502/03/06 17:55:31  5-MIN KMSN 032355Z 27005KT 4SM -SN SCT011 OVC024 M01/M03 A2973 1040 85 -600 270/05 RMK AO2 P0000
14837KMSN MSN20060203180013102/03/06 18:00:31  5-MIN KMSN 040000Z 27007KT 210V330 4SM -SN FEW011 OVC024 M01/M03 A2973 1040 85 -600 270/07 210V330 RMK AO2 P0000
14837KMSN MSN20060203180511502/03/06 18:05:31  5-MIN KMSN 040005Z VRB05KT 4SM -SN FEW011 OVC024 M01/M03 A2973 1040 85 -600 VRB/05 RMK AO2 P0000
14837KMSN MSN20060203181011502/03/06 18:10:31  5-MIN KMSN 040010Z 29006KT 4SM -SN FEW011 OVC024 M01/M03 A2973 1040 85 -600 280/06 RMK AO2 P0000
14837KMSN MSN20060203181510802/03/06 18:15:31  5-MIN KMSN 040015Z VRB05KT 4SM -SN OVC024 M01/M03 A2973 1040 85 -600 VRB/05 RMK AO2 P0000
14837KMSN MSN20060203182010802/03/06 18:20:31  5-MIN KMSN 040020Z VRB05KT 4SM -SN OVC024 M01/M03 A2973 1040 85 -600 VRB/05 RMK AO2 P0000
14837KMSN MSN20060203182510802/03/06 18:25:31  5-MIN KMSN 040025Z 27005KT 4SM -SN OVC026 M01/M03 A2974 1040 85 -600 270/05 RMK AO2 P0000
14837KMSN MSN20060203183010802/03/06 18:30:31  5-MIN KMSN 040030Z 27007KT 6SM -SN OVC026 M01/M03 A2974 1030 85 -600 260/07 RMK AO2 P0000
14837KMSN MSN20060203183510802/03/06 18:35:31  5-MIN KMSN 040035Z VRB05KT 5SM -SN OVC026 M01/M03 A2974 1030 85 -600 VRB/05 RMK AO2 P0000
14837KMSN MSN20060203184012402/03/06 18:40:31  5-MIN KMSN 040040Z 28007KT 250V310 5SM -SN OVC026 M01/M03 A2974 1030 85 -600 280/07 250V310 RMK AO2 P0000
14837KMSN MSN20060203184510802/03/06 18:45:31  5-MIN KMSN 040045Z 27007KT 6SM -SN OVC026 M01/M03 A2974 1030 85 -600 270/07 RMK AO2 P0000
14837KMSN MSN20060203185012502/03/06 18:50:31  5-MIN KMSN 040050Z 28007KT 6SM -SN OVC026 M01/M03 A2974 1030 85 -600 280/07 RMK AO2 SLP081 P0000 T10111033
14837KMSN MSN20060203185510802/03/06 18:55:31  5-MIN KMSN 040055Z 29008KT 6SM -SN OVC026 M01/M03 A2975 1030 85 -600 290/08 RMK AO2 P0000
14837KMSN MSN20060203190010802/03/06 19:00:31  5-MIN KMSN 040100Z 27009KT 6SM -SN OVC028 M01/M03 A2975 1030 85 -600 270/09 RMK AO2 P0000
14837KMSN MSN20060203190510802/03/06 19:05:31  5-MIN KMSN 040105Z 28007KT 6SM -SN OVC028 M01/M03 A2975 1020 85 -600 280/07 RMK AO2 P0000
14837KMSN MSN20060203191010802/03/06 19:10:31  5-MIN KMSN 040110Z 28006KT 6SM -SN OVC028 M01/M03 A2975 1020 85 -600 280/06 RMK AO2 P0000
14837KMSN MSN20060203191510802/03/06 19:15:31  5-MIN KMSN 040115Z 28008KT 5SM -SN OVC028 M01/M03 A2975 1020 85 -600 280/08 RMK AO2 P0000
14837KMSN MSN20060203192010802/03/06 19:20:31  5-MIN KMSN 040120Z 27007KT 4SM -SN OVC030 M01/M03 A2975 1020 85 -600 270/07 RMK AO2 P0000
14837KMSN MSN20060203192510802/03/06 19:25:31  5-MIN KMSN 040125Z VRB06KT 4SM -SN OVC030 M01/M03 A2975 1020 85 -600 VRB/06 RMK AO2 P0000
14837KMSN MSN20060203193011502/03/06 19:30:31  5-MIN KMSN 040130Z VRB06KT 3SM -SN FEW011 OVC030 M01/M03 A2975 1020 85 -600 VRB/06 RMK AO2 P0000
14837KMSN MSN20060203193513102/03/06 19:35:31  5-MIN KMSN 040135Z 27008KT 240V300 3SM -SN FEW011 OVC032 M01/M03 A2975 1020 85 -600 260/08 240V300 RMK AO2 P0000
14837KMSN MSN20060203194011502/03/06 19:40:31  5-MIN KMSN 040140Z 27007KT 4SM -SN SCT011 OVC030 M01/M03 A2976 1020 85 -600 270/07 RMK AO2 P0000
14837KMSN MSN20060203194511502/03/06 19:45:31  5-MIN KMSN 040145Z 26007KT 4SM -SN SCT011 OVC032 M01/M03 A2976 1020 88 -600 260/07 RMK AO2 P0000
14837KMSN MSN20060203195011502/03/06 19:50:31  5-MIN KMSN 040150Z VRB06KT 3SM -SN BKN011 OVC032 M01/M03 A2976 1020 88 -600 VRB/06 RMK AO2 P0000
14837KMSN MSN20060203195513102/03/06 19:55:31  5-MIN KMSN 040155Z 28007KT 250V310 3SM -SN BKN011 OVC034 M01/M03 A2976 1020 88 -600 280/07 250V310 RMK AO2 P0000
14837KMSN MSN20060203200013802/03/06 20:00:31  5-MIN KMSN 040200Z 28007KT 240V310 4SM -SN BKN011 BKN030 OVC036 M01/M03 A2976 1010 88 -600 280/07 240V310 RMK AO2 P0000
14837KMSN MSN20060203200511502/03/06 20:05:31  5-MIN KMSN 040205Z 28008KT 4SM -SN BKN011 OVC038 M01/M03 A2976 1010 85 -600 270/08 RMK AO2 P0000
14837KMSN MSN20060203201011502/03/06 20:10:31  5-MIN KMSN 040210Z VRB06KT 4SM -SN BKN011 OVC038 M01/M03 A2976 1010 88 -600 VRB/06 RMK AO2 P0000
14837KMSN MSN20060203201511502/03/06 20:15:31  5-MIN KMSN 040215Z 29007KT 5SM -SN BKN011 OVC038 M01/M03 A2976 1010 88 -600 290/07 RMK AO2 P0000
14837KMSN MSN20060203202011502/03/06 20:20:31  5-MIN KMSN 040220Z 27007KT 4SM -SN SCT011 OVC040 M01/M03 A2976 1010 88 -600 270/07 RMK AO2 P0000
14837KMSN MSN20060203202511502/03/06 20:25:31  5-MIN KMSN 040225Z VRB06KT 4SM -SN SCT011 OVC040 M01/M03 A2976 1010 88 -600 VRB/06 RMK AO2 P0000
14837KMSN MSN20060203203012202/03/06 20:30:31  5-MIN KMSN 040230Z 29008KT 4SM -SN FEW009 SCT013 OVC040 M01/M03 A2976 1010 88 -600 290/08 RMK AO2 P0000
14837KMSN MSN20060203203512202/03/06 20:35:31  5-MIN KMSN 040235Z 30007KT 4SM -SN SCT011 BKN030 OVC042 M01/M03 A2976 1010 88 -600 290/07 RMK AO2 P0000
14837KMSN MSN20060203204012202/03/06 20:40:31  5-MIN KMSN 040240Z 29006KT 3SM -SN FEW009 BKN013 OVC042 M01/M03 A2977 1010 88 -600 290/06 RMK AO2 P0000
14837KMSN MSN20060203204512202/03/06 20:45:31  5-MIN KMSN 040245Z 29008KT 3SM -SN FEW009 SCT013 OVC042 M01/M03 A2977 1010 88 -600 290/08 RMK AO2 P0000
14837KMSN MSN20060203205015102/03/06 20:50:31  5-MIN KMSN 040250Z 28008KT 3SM -SN FEW009 SCT013 OVC042 M01/M03 A2977 1010 88 -600 280/08 RMK AO2 SLP089 P0000 60000 T10111028 53008
14837KMSN MSN20060203205512202/03/06 20:55:31  5-MIN KMSN 040255Z 30008KT 3SM -SN FEW009 SCT013 OVC044 M01/M03 A2977 1000 88 -600 290/08 RMK AO2 P0000
14837KMSN MSN20060203210011502/03/06 21:00:31  5-MIN KMSN 040300Z 29007KT 3SM -SN SCT011 OVC044 M01/M03 A2977 1000 88 -600 290/07 RMK AO2 P0000
14837KMSN MSN20060203210511502/03/06 21:05:31  5-MIN KMSN 040305Z 30008KT 3SM -SN SCT011 OVC044 M01/M03 A2977 1000 88 -600 300/08 RMK AO2 P0000
14837KMSN MSN20060203211012202/03/06 21:10:31  5-MIN KMSN 040310Z 29009KT 3SM -SN FEW011 SCT018 OVC044 M01/M03 A2977 1000 88 -600 290/09 RMK AO2 P0000
14837KMSN MSN20060203211512802/03/06 21:15:31  5-MIN KMSN 040315Z 30012G17KT 4SM -SN FEW011 SCT018 OVC046 M01/M03 A2977 1000 85 -600 300/12G17 RMK AO2 P0000
14837KMSN MSN20060203212012802/03/06 21:20:31  5-MIN KMSN 040320Z 30008G17KT 4SM -SN FEW011 BKN018 OVC046 M02/M03 A2977 1000 88 -700 300/08G17 RMK AO2 P0000
14837KMSN MSN20060203212512802/03/06 21:25:31  5-MIN KMSN 040325Z 30009G16KT 5SM -SN SCT011 BKN018 OVC044 M01/M03 A2977 1000 85 -600 300/09G16 RMK AO2 P0000
14837KMSN MSN20060203213012802/03/06 21:30:31  5-MIN KMSN 040330Z 30011G16KT 5SM -SN SCT011 BKN018 OVC044 M01/M03 A2977 1000 85 -600 300/11G16 RMK AO2 P0000
14837KMSN MSN20060203213512202/03/06 21:35:31  5-MIN KMSN 040335Z 30009KT 5SM -SN FEW011 BKN018 OVC044 M01/M03 A2977 1000 85 -600 290/09 RMK AO2 P0000
14837KMSN MSN20060203214012202/03/06 21:40:31  5-MIN KMSN 040340Z 30009KT 5SM -SN SCT013 BKN018 OVC044 M01/M03 A2977 1000 85 -600 300/09 RMK AO2 P0000
14837KMSN MSN20060203214512202/03/06 21:45:31  5-MIN KMSN 040345Z 30010KT 3SM -SN SCT013 BKN018 OVC046 M02/M03 A2977 1000 88 -700 300/10 RMK AO2 P0000
14837KMSN MSN20060203215011502/03/06 21:50:31  5-MIN KMSN 040350Z 30008KT 3SM -SN SCT013 OVC048 M02/M03 A2977 1000 88 -700 300/08 RMK AO2 P0000
14837KMSN MSN20060203215511902/03/06 21:55:31  5-MIN KMSN 040355Z 29009KT 2 1/2SM -SN FEW013 OVC048 M02/M03 A2978 1000 88 -700 290/09 RMK AO2 P0000
14837KMSN MSN20060203220011802/03/06 22:00:31  5-MIN KMSN 040400Z 30007KT 2 1/2SM -SN SCT013 OVC048 M02/M03 A2978 990 88 -700 300/07 RMK AO2 P0000
14837KMSN MSN20060203220512502/03/06 22:05:31  5-MIN KMSN 040405Z 30008KT 2 1/2SM -SN SCT011 SCT016 OVC050 M02/M03 A2978 990 88 -700 300/08 RMK AO2 P0000
14837KMSN MSN20060203221011802/03/06 22:10:31  5-MIN KMSN 040410Z 29008KT 2 1/2SM -SN BKN011 OVC050 M02/M03 A2978 990 88 -700 290/08 RMK AO2 P0000
14837KMSN MSN20060203221511802/03/06 22:15:31  5-MIN KMSN 040415Z 29008KT 2 1/2SM -SN BKN011 OVC050 M02/M03 A2978 990 88 -700 290/08 RMK AO2 P0000
14837KMSN MSN20060203222012502/03/06 22:20:31  5-MIN KMSN 040420Z 30009KT 2 1/2SM -SN BKN011 BKN016 OVC050 M02/M03 A2979 990 88 -700 300/09 RMK AO2 P0000
14837KMSN MSN20060203222513502/03/06 22:25:31  5-MIN KMSN 040425Z 30007KT 1 1/2SM -SN FEW007 BKN011 OVC016 M02/M03 A2979 990 88 -700 300/07 RMK AO2 SFC VIS 2 P0000
14837KMSN MSN20060203223012802/03/06 22:30:31  5-MIN KMSN 040430Z 30009KT 1 1/2SM -SN FEW007 OVC011 M02/M03 A2979 990 92 -800 290/09 RMK AO2 SFC VIS 2 P0000
14837KMSN MSN20060203223511802/03/06 22:35:31  5-MIN KMSN 040435Z 30010KT 1 1/2SM -SN BKN009 OVC015 M02/M04 A2979 990 88 -800 300/10 RMK AO2 P0000
14837KMSN MSN20060203224011102/03/06 22:40:31  5-MIN KMSN 040440Z 30009KT 1 1/2SM -SN OVC015 M02/M04 A2979 990 88 -800 300/09 RMK AO2 P0000
14837KMSN MSN20060203224512802/03/06 22:45:31  5-MIN KMSN 040445Z 31010KT 1 1/2SM -SN SCT011 OVC017 M02/M04 A2979 990 85 -800 310/10 RMK AO2 SFC VIS 3 P0000
14837KMSN MSN20060203225013102/03/06 22:50:31  5-MIN KMSN 040450Z 31011KT 5SM -SN FEW009 OVC017 M02/M04 A2979 990 85 -800 310/11 RMK AO2 SLP096 P0002 T10221044
14837KMSN MSN20060203225510702/03/06 22:55:31  5-MIN KMSN 040455Z 30011KT 6SM -SN OVC017 M02/M04 A2979 980 85 -800 300/11 RMK AO2 P0000
14837KMSN MSN20060203230011302/03/06 23:00:31  5-MIN KMSN 040500Z 30010G15KT 8SM -SN OVC015 M02/M04 A2979 980 85 -800 290/10G15 RMK AO2 P0000
14837KMSN MSN20060203230511302/03/06 23:05:31  5-MIN KMSN 040505Z 31010G15KT 9SM -SN OVC015 M02/M05 A2979 980 81 -800 310/10G15 RMK AO2 P0000
14837KMSN MSN20060203231010702/03/06 23:10:31  5-MIN KMSN 040510Z 30009KT 9SM -SN OVC015 M02/M05 A2979 980 81 -800 300/09 RMK AO2 P0000
14837KMSN MSN20060203231510702/03/06 23:15:31  5-MIN KMSN 040515Z 30009KT 9SM -SN OVC015 M02/M05 A2979 980 81 -800 300/09 RMK AO2 P0000
14837KMSN MSN20060203232010702/03/06 23:20:31  5-MIN KMSN 040520Z 29008KT 9SM -SN OVC015 M02/M05 A2980 980 81 -800 290/08 RMK AO2 P0000
14837KMSN MSN20060203232510702/03/06 23:25:31  5-MIN KMSN 040525Z 30007KT 9SM -SN OVC015 M02/M05 A2980 980 81 -800 300/07 RMK AO2 P0000
14837KMSN MSN20060203233010702/03/06 23:30:31  5-MIN KMSN 040530Z 30007KT 9SM -SN OVC015 M02/M05 A2980 980 81 -800 300/07 RMK AO2 P0000
14837KMSN MSN20060203233510902/03/06 23:35:31  5-MIN KMSN 040535Z 30008KT 9SM OVC015 M02/M05 A2980 980 81 -800 300/08 RMK AO2 SNE31 P0000
14837KMSN MSN20060203234011002/03/06 23:40:31  5-MIN KMSN 040540Z 30006KT 10SM OVC015 M02/M05 A2980 980 81 -800 300/06 RMK AO2 SNE31 P0000
14837KMSN MSN20060203234511002/03/06 23:45:31  5-MIN KMSN 040545Z 31008KT 10SM OVC015 M03/M05 A2980 980 85 -900 310/08 RMK AO2 SNE31 P0000
14837KMSN MSN20060203235016702/03/06 23:50:31  5-MIN KMSN 040550Z 31009KT 10SM OVC015 M03/M05 A2980 980 85 -900 300/09 RMK AO2 SNE31 SLP099 P0000 60002 4/001 T10281050 11011 21028 400501028 53005
14837KMSN MSN20060203235509802/03/06 23:55:31  5-MIN KMSN 040555Z 31008KT 10SM OVC015 M03/M05 A2980 980 85 -900 310/08 RMK AO2
14837KMSN MSN20060204000010402/04/06 00:00:38  5-MIN KMSN 040600Z 31009G14KT 10SM OVC015 M03/M05 A2980 980 85 -900 310/09G14 RMK AO2
14837KMSN MSN20060204000510402/04/06 00:05:31  5-MIN KMSN 040605Z 31009G14KT 10SM OVC015 M03/M05 A2980 980 85 -900 310/09G14 RMK AO2
14837KMSN MSN20060204001009702/04/06 00:10:31  5-MIN KMSN 040610Z 31008KT 9SM OVC017 M03/M05 A2979 980 85 -900 310/08 RMK AO2
14837KMSN MSN20060204001511302/04/06 00:15:42  5-MIN KMSN 040615Z 31007KT 280V350 8SM OVC017 M03/M05 A2979 980 85 -900 310/07 280V350 RMK AO2
14837KMSN MSN20060204002011302/04/06 00:20:31  5-MIN KMSN 040620Z 30009KT 8SM -SN OVC017 M03/M05 A2979 980 85 -900 300/09 RMK AO2 SNB16 P0000
14837KMSN MSN20060204002512002/04/06 00:25:31  5-MIN KMSN 040625Z 31007KT 7SM -SN BKN017 OVC090 M03/M05 A2980 980 85 -900 310/07 RMK AO2 SNB16 P0000
14837KMSN MSN20060204003012002/04/06 00:30:31  5-MIN KMSN 040630Z 31008KT 7SM -SN BKN017 OVC046 M03/M05 A2980 980 85 -900 310/08 RMK AO2 SNB16 P0000
14837KMSN MSN20060204003511302/04/06 00:35:31  5-MIN KMSN 040635Z 30009KT 8SM -SN OVC017 M03/M05 A2980 980 85 -900 300/09 RMK AO2 SNB16 P0000
14837KMSN MSN20060204004011302/04/06 00:40:31  5-MIN KMSN 040640Z 30008KT 8SM -SN OVC017 M03/M05 A2980 970 85 -900 300/08 RMK AO2 SNB16 P0000
14837KMSN MSN20060204004511302/04/06 00:45:31  5-MIN KMSN 040645Z 31009KT 8SM -SN OVC017 M03/M05 A2981 970 85 -900 310/09 RMK AO2 SNB16 P0000
14837KMSN MSN20060204005013002/04/06 00:50:31  5-MIN KMSN 040650Z 31008KT 8SM -SN OVC017 M03/M06 A2980 970 81 -900 300/08 RMK AO2 SNB16 SLP100 P0000 T10281056
14837KMSN MSN20060204005510702/04/06 00:55:31  5-MIN KMSN 040655Z 31008KT 8SM -SN OVC017 M03/M05 A2980 970 85 -900 310/08 RMK AO2 P0000
14837KMSN MSN20060204010010702/04/06 01:00:31  5-MIN KMSN 040700Z 31009KT 8SM -SN OVC017 M03/M06 A2980 970 81 -900 310/09 RMK AO2 P0000
14837KMSN MSN20060204010510702/04/06 01:05:31  5-MIN KMSN 040705Z 31008KT 9SM -SN OVC017 M03/M06 A2981 970 81 -900 310/08 RMK AO2 P0000
14837KMSN MSN20060204011010702/04/06 01:10:31  5-MIN KMSN 040710Z 31011KT 9SM -SN OVC017 M03/M06 A2981 970 81 -900 310/11 RMK AO2 P0000
14837KMSN MSN20060204011510902/04/06 01:15:31  5-MIN KMSN 040715Z 30008KT 9SM OVC017 M03/M06 A2981 970 81 -900 300/08 RMK AO2 SNE12 P0000
14837KMSN MSN20060204012011002/04/06 01:20:31  5-MIN KMSN 040720Z 30009KT 10SM OVC017 M03/M06 A2981 970 81 -900 300/09 RMK AO2 SNE12 P0000
14837KMSN MSN20060204012511002/04/06 01:25:31  5-MIN KMSN 040725Z 32010KT 10SM OVC017 M03/M06 A2981 970 81 -900 310/10 RMK AO2 SNE12 P0000
14837KMSN MSN20060204013010802/04/06 01:30:31  5-MIN KMSN 040730Z 31009KT 10SM -SN OVC017 M03/M06 A2981 960 81 -900 310/09 RMK AO2 P0000
14837KMSN MSN20060204013510702/04/06 01:35:31  5-MIN KMSN 040735Z 31010KT 9SM -SN OVC017 M03/M06 A2981 960 81 -900 310/10 RMK AO2 P0000
14837KMSN MSN20060204014010702/04/06 01:40:31  5-MIN KMSN 040740Z 32009KT 9SM -SN OVC017 M03/M06 A2981 960 81 -900 310/09 RMK AO2 P0000
14837KMSN MSN20060204014511002/04/06 01:45:31  5-MIN KMSN 040745Z 31009KT 9SM OVC017 M03/M06 A2982 960 85 -1000 310/09 RMK AO2 SNE44 P0000
14837KMSN MSN20060204015012502/04/06 01:50:31  5-MIN KMSN 040750Z 31008KT 9SM -SN OVC017 M03/M06 A2982 960 85 -1000 310/08 RMK AO2 SLP104 P0000 T10331056
14837KMSN MSN20060204015510802/04/06 01:55:31  5-MIN KMSN 040755Z 31010KT 9SM -SN OVC017 M03/M06 A2982 960 85 -1000 310/10 RMK AO2 P0000
14837KMSN MSN20060204020010802/04/06 02:00:31  5-MIN KMSN 040800Z 32010KT 9SM -SN OVC015 M03/M06 A2982 960 85 -1000 320/10 RMK AO2 P0000
14837KMSN MSN20060204020510802/04/06 02:05:31  5-MIN KMSN 040805Z 32010KT 9SM -SN OVC015 M03/M06 A2982 960 85 -1000 320/10 RMK AO2 P0000
14837KMSN MSN20060204021010802/04/06 02:10:31  5-MIN KMSN 040810Z 32009KT 9SM -SN OVC015 M03/M06 A2982 960 85 -1000 320/09 RMK AO2 P0000
14837KMSN MSN20060204021510802/04/06 02:15:31  5-MIN KMSN 040815Z 32009KT 9SM -SN OVC015 M03/M06 A2982 960 85 -1000 320/09 RMK AO2 P0000
14837KMSN MSN20060204022010802/04/06 02:20:31  5-MIN KMSN 040820Z 32010KT 9SM -SN OVC015 M03/M06 A2982 960 85 -1000 320/10 RMK AO2 P0000
14837KMSN MSN20060204022511002/04/06 02:25:31  5-MIN KMSN 040825Z 32011KT 9SM OVC015 M03/M06 A2982 960 81 -1000 320/11 RMK AO2 SNE24 P0000
14837KMSN MSN20060204023011102/04/06 02:30:31  5-MIN KMSN 040830Z 32010KT 10SM OVC015 M03/M06 A2982 960 81 -1000 320/10 RMK AO2 SNE24 P0000
14837KMSN MSN20060204023511102/04/06 02:35:31  5-MIN KMSN 040835Z 32009KT 10SM OVC015 M03/M06 A2982 960 81 -1000 320/09 RMK AO2 SNE24 P0000
14837KMSN MSN20060204024011102/04/06 02:40:31  5-MIN KMSN 040840Z 32011KT 10SM OVC015 M03/M06 A2982 960 81 -1000 320/11 RMK AO2 SNE24 P0000
14837KMSN MSN20060204024511102/04/06 02:45:31  5-MIN KMSN 040845Z 32011KT 10SM OVC015 M03/M06 A2982 960 81 -1000 320/11 RMK AO2 SNE24 P0000
14837KMSN MSN20060204025014002/04/06 02:50:31  5-MIN KMSN 040850Z 32010KT 10SM OVC015 M03/M06 A2982 960 81 -1000 310/10 RMK AO2 SNE24 SLP106 P0000 60000 T10331061 52009
14837KMSN MSN20060204025509902/04/06 02:55:31  5-MIN KMSN 040855Z 33010KT 10SM OVC015 M03/M06 A2982 960 81 -1000 320/10 RMK AO2
14837KMSN MSN20060204030009902/04/06 03:00:31  5-MIN KMSN 040900Z 32010KT 10SM OVC015 M03/M06 A2982 960 81 -1000 320/10 RMK AO2
14837KMSN MSN20060204030509902/04/06 03:05:31  5-MIN KMSN 040905Z 33010KT 10SM OVC015 M03/M06 A2982 960 81 -1000 320/10 RMK AO2
14837KMSN MSN20060204031009902/04/06 03:10:31  5-MIN KMSN 040910Z 31008KT 10SM OVC015 M03/M06 A2982 950 81 -1000 310/08 RMK AO2
14837KMSN MSN20060204031509902/04/06 03:15:31  5-MIN KMSN 040915Z 32008KT 10SM OVC015 M03/M06 A2982 950 81 -1000 320/08 RMK AO2
14837KMSN MSN20060204032009902/04/06 03:20:31  5-MIN KMSN 040920Z 32009KT 10SM OVC015 M03/M06 A2982 960 81 -1000 320/09 RMK AO2
14837KMSN MSN20060204032509902/04/06 03:25:31  5-MIN KMSN 040925Z 32011KT 10SM OVC015 M03/M06 A2982 950 81 -1000 320/11 RMK AO2
14837KMSN MSN20060204033009902/04/06 03:30:31  5-MIN KMSN 040930Z 32008KT 10SM OVC015 M03/M06 A2983 950 81 -1000 320/08 RMK AO2
14837KMSN MSN20060204033509902/04/06 03:35:31  5-MIN KMSN 040935Z 32011KT 10SM OVC015 M03/M06 A2983 950 81 -1000 320/11 RMK AO2
14837KMSN MSN20060204034009902/04/06 03:40:31  5-MIN KMSN 040940Z 32009KT 10SM OVC015 M03/M06 A2983 950 81 -1000 320/09 RMK AO2
14837KMSN MSN20060204034509902/04/06 03:45:31  5-MIN KMSN 040945Z 32012KT 10SM OVC015 M03/M06 A2983 950 81 -1000 320/12 RMK AO2
14837KMSN MSN20060204035011602/04/06 03:50:31  5-MIN KMSN 040950Z 32007KT 10SM OVC015 M03/M06 A2983 950 81 -1000 320/07 RMK AO2 SLP112 T10331061
14837KMSN MSN20060204035509902/04/06 03:55:31  5-MIN KMSN 040955Z 32011KT 10SM OVC015 M03/M06 A2983 940 81 -1000 320/11 RMK AO2
14837KMSN MSN20060204040009902/04/06 04:00:31  5-MIN KMSN 041000Z 32010KT 10SM OVC015 M03/M06 A2984 940 81 -1000 320/10 RMK AO2
14837KMSN MSN20060204040511502/04/06 04:05:31  5-MIN KMSN 041005Z 32009KT 10SM -SN OVC015 M04/M06 A2983 940 85 -1100 320/09 RMK AO2 SNB04 P0000
14837KMSN MSN20060204041011502/04/06 04:10:31  5-MIN KMSN 041010Z 32011KT 10SM -SN OVC015 M04/M06 A2984 940 85 -1100 320/11 RMK AO2 SNB04 P0000
14837KMSN MSN20060204041511402/04/06 04:15:31  5-MIN KMSN 041015Z 32008KT 9SM -SN OVC015 M04/M06 A2984 940 85 -1100 320/08 RMK AO2 SNB04 P0000
14837KMSN MSN20060204042011402/04/06 04:20:31  5-MIN KMSN 041020Z 32010KT 9SM -SN OVC015 M04/M06 A2984 940 85 -1100 320/10 RMK AO2 SNB04 P0000
14837KMSN MSN20060204042511302/04/06 04:25:31  5-MIN KMSN 041025Z 33008KT 9SM OVC015 M04/M06 A2984 940 85 -1100 330/08 RMK AO2 SNB04E24 P0000
14837KMSN MSN20060204043011302/04/06 04:30:31  5-MIN KMSN 041030Z 32011KT 9SM OVC015 M04/M07 A2984 940 81 -1100 320/11 RMK AO2 SNB04E24 P0000
14837KMSN MSN20060204043511402/04/06 04:35:31  5-MIN KMSN 041035Z 32010KT 10SM OVC015 M04/M07 A2984 940 81 -1100 320/10 RMK AO2 SNB04E24 P0000
14837KMSN MSN20060204044011402/04/06 04:40:31  5-MIN KMSN 041040Z 33011KT 10SM OVC015 M04/M07 A2984 940 81 -1100 330/11 RMK AO2 SNB04E24 P0000
14837KMSN MSN20060204044511402/04/06 04:45:31  5-MIN KMSN 041045Z 32009KT 10SM OVC015 M04/M07 A2984 940 81 -1100 310/09 RMK AO2 SNB04E24 P0000
14837KMSN MSN20060204045013102/04/06 04:50:31  5-MIN KMSN 041050Z 32009KT 10SM OVC015 M04/M07 A2984 940 81 -1100 320/09 RMK AO2 SLP116 SNB04E24 P0000 T10391067
14837KMSN MSN20060204045509902/04/06 04:55:31  5-MIN KMSN 041055Z 32011KT 10SM OVC015 M04/M07 A2984 940 81 -1100 320/11 RMK AO2
14837KMSN MSN20060204050009902/04/06 05:00:31  5-MIN KMSN 041100Z 32009KT 10SM OVC015 M04/M07 A2984 940 81 -1100 320/09 RMK AO2
14837KMSN MSN20060204050509902/04/06 05:05:31  5-MIN KMSN 041105Z 32010KT 10SM OVC015 M04/M07 A2984 940 81 -1100 320/10 RMK AO2
14837KMSN MSN20060204051009902/04/06 05:10:31  5-MIN KMSN 041110Z 32009KT 10SM OVC015 M04/M07 A2984 940 81 -1100 320/09 RMK AO2
14837KMSN MSN20060204051509902/04/06 05:15:31  5-MIN KMSN 041115Z 32010KT 10SM OVC015 M04/M07 A2984 940 81 -1100 320/10 RMK AO2
14837KMSN MSN20060204052011302/04/06 05:20:31  5-MIN KMSN 041120Z 32009KT 10SM BKN015 BKN022 OVC028 M04/M07 A2984 940 81 -1100 320/09 RMK AO2
14837KMSN MSN20060204052511302/04/06 05:25:31  5-MIN KMSN 041125Z 32008KT 10SM BKN015 BKN022 OVC028 M04/M07 A2984 940 81 -1100 320/08 RMK AO2
14837KMSN MSN20060204053011302/04/06 05:30:31  5-MIN KMSN 041130Z 33011KT 10SM SCT015 BKN022 OVC028 M04/M07 A2984 940 81 -1100 320/11 RMK AO2
14837KMSN MSN20060204053510602/04/06 05:35:31  5-MIN KMSN 041135Z 32010KT 10SM FEW017 OVC026 M04/M07 A2984 940 81 -1100 320/10 RMK AO2
14837KMSN MSN20060204054010602/04/06 05:40:31  5-MIN KMSN 041140Z 33011KT 10SM FEW017 OVC026 M04/M07 A2984 940 81 -1100 330/11 RMK AO2
14837KMSN MSN20060204054511502/04/06 05:45:31  5-MIN KMSN 041145Z 33009KT 10SM -SN OVC026 M04/M07 A2985 930 81 -1100 330/09 RMK AO2 SNB42 P0000
14837KMSN MSN20060204055016702/04/06 05:50:31  5-MIN KMSN 041150Z 32011KT 9SM -SN OVC026 M04/M07 A2984 930 81 -1100 320/11 RMK AO2 SNB42 SLP117 P0000 60000 70012 4/001 T10391067 11028 21039 51006
14837KMSN MSN20060204055511502/04/06 05:55:31  5-MIN KMSN 041155Z 32009KT 9SM -SN FEW016 OVC026 M04/M07 A2985 930 81 -1100 320/09 RMK AO2 P0000
14837KMSN MSN20060204060011502/04/06 06:00:31  5-MIN KMSN 041200Z 32009KT 9SM -SN FEW016 OVC026 M04/M07 A2985 930 81 -1100 320/09 RMK AO2 P0000
14837KMSN MSN20060204060512102/04/06 06:05:31  5-MIN KMSN 041205Z 32009G15KT 9SM -SN SCT016 OVC026 M04/M07 A2985 930 81 -1100 320/09G15 RMK AO2 P0000
14837KMSN MSN20060204061011502/04/06 06:10:31  5-MIN KMSN 041210Z 32010KT 9SM -SN SCT016 OVC028 M04/M07 A2985 930 84 -1100 320/10 RMK AO2 P0000
14837KMSN MSN20060204061511502/04/06 06:15:31  5-MIN KMSN 041215Z 32010KT 9SM -SN BKN016 OVC028 M04/M07 A2985 930 84 -1100 320/10 RMK AO2 P0000
14837KMSN MSN20060204062011502/04/06 06:20:31  5-MIN KMSN 041220Z 32011KT 9SM -SN BKN016 OVC028 M04/M07 A2985 930 81 -1200 320/11 RMK AO2 P0000
14837KMSN MSN20060204062512202/04/06 06:25:31  5-MIN KMSN 041225Z 33009KT 9SM -SN BKN016 BKN028 OVC050 M04/M07 A2985 930 81 -1200 330/09 RMK AO2 P0000
14837KMSN MSN20060204063012202/04/06 06:30:31  5-MIN KMSN 041230Z 33010KT 9SM -SN SCT016 BKN028 OVC055 M04/M07 A2986 920 81 -1200 330/10 RMK AO2 P0000
14837KMSN MSN20060204063512802/04/06 06:35:31  5-MIN KMSN 041235Z 33011G17KT 9SM -SN SCT016 BKN042 OVC055 M04/M07 A2986 920 81 -1200 330/11G17 RMK AO2 P0000
14837KMSN MSN20060204064012802/04/06 06:40:31  5-MIN KMSN 041240Z 33012G17KT 9SM -SN FEW016 BKN039 OVC055 M04/M07 A2986 920 81 -1200 330/12G17 RMK AO2 P0000
14837KMSN MSN20060204064512202/04/06 06:45:31  5-MIN KMSN 041245Z 33011KT 9SM -SN FEW016 BKN039 OVC055 M04/M07 A2986 920 81 -1200 330/11 RMK AO2 P0000
14837KMSN MSN20060204065013202/04/06 06:50:31  5-MIN KMSN 041250Z 33008KT 9SM -SN BKN039 OVC055 M04/M07 A2986 920 81 -1200 330/08 RMK AO2 SLP124 P0000 T10441072
14837KMSN MSN20060204065511502/04/06 06:55:31  5-MIN KMSN 041255Z 33008KT 9SM -SN FEW014 OVC039 M04/M07 A2987 920 81 -1200 330/08 RMK AO2 P0000
14837KMSN MSN20060204070011502/04/06 07:00:31  5-MIN KMSN 041300Z 33011KT 9SM -SN FEW016 OVC039 M04/M07 A2987 910 81 -1200 330/11 RMK AO2 P0000
14837KMSN MSN20060204070511702/04/06 07:05:31  5-MIN KMSN 041305Z 32010KT 9SM SCT016 OVC039 M04/M07 A2987 910 81 -1200 320/10 RMK AO2 SNE01 P0000
14837KMSN MSN20060204071012402/04/06 07:10:31  5-MIN KMSN 041310Z 33011G19KT 10SM FEW016 OVC037 M05/M07 A2987 910 84 -1200 320/11G19 RMK AO2 SNE01 P0000
14837KMSN MSN20060204071512302/04/06 07:15:31  5-MIN KMSN 041315Z 33010G19KT 9SM FEW016 OVC037 M05/M07 A2987 910 84 -1200 320/10G19 RMK AO2 SNE01 P0000
14837KMSN MSN20060204072011702/04/06 07:20:31  5-MIN KMSN 041320Z 33011KT 7SM FEW016 OVC037 M05/M07 A2987 910 84 -1200 330/11 RMK AO2 SNE01 P0000
14837KMSN MSN20060204072512702/04/06 07:25:31  5-MIN KMSN 041325Z 32011KT 6SM -SN BR FEW016 OVC037 M05/M07 A2987 910 84 -1200 320/11 RMK AO2 SNE01B23 P0000
14837KMSN MSN20060204073013402/04/06 07:30:31  5-MIN KMSN 041330Z 32010KT 5SM -SN BR FEW016 BKN037 OVC060 M05/M07 A2987 910 84 -1200 320/10 RMK AO2 SNE01B23 P0000
14837KMSN MSN20060204073513402/04/06 07:35:31  5-MIN KMSN 041335Z 33011KT 4SM -SN BR SCT037 BKN048 OVC060 M05/M07 A2987 910 84 -1200 330/11 RMK AO2 SNE01B23 P0000
14837KMSN MSN20060204074013402/04/06 07:40:31  5-MIN KMSN 041340Z 32010KT 4SM -SN BR SCT037 BKN048 OVC065 M05/M07 A2987 910 84 -1200 320/10 RMK AO2 SNE01B23 P0000
14837KMSN MSN20060204074513402/04/06 07:45:31  5-MIN KMSN 041345Z 33008KT 3SM -SN BR FEW037 BKN048 OVC065 M05/M07 A2987 910 84 -1200 330/08 RMK AO2 SNE01B23 P0000
14837KMSN MSN20060204075015102/04/06 07:50:31  5-MIN KMSN 041350Z 33010KT 3SM -SN BR FEW037 BKN046 OVC060 M05/M07 A2987 910 84 -1200 330/10 RMK AO2 SNE01B23 SLP125 P0000 T10501072
14837KMSN MSN20060204075512402/04/06 07:55:31  5-MIN KMSN 041355Z 32012G16KT 3SM -SN BR BKN046 OVC060 M05/M07 A2987 910 84 -1200 320/12G16 RMK AO2 P0000
14837KMSN MSN20060204080012402/04/06 08:00:31  5-MIN KMSN 041400Z 33009G16KT 4SM -SN BR BKN044 OVC055 M05/M07 A2987 910 84 -1200 330/09G16 RMK AO2 P0000
14837KMSN MSN20060204080511802/04/06 08:05:31  5-MIN KMSN 041405Z 33011KT 4SM -SN BR BKN044 OVC055 M05/M07 A2987 910 84 -1200 320/11 RMK AO2 P0000
14837KMSN MSN20060204081011802/04/06 08:10:31  5-MIN KMSN 041410Z 32010KT 3SM -SN BR BKN042 OVC050 M05/M07 A2987 910 84 -1200 320/10 RMK AO2 P0000
14837KMSN MSN20060204081513502/04/06 08:15:31  5-MIN KMSN 041415Z 33010KT 3SM -SN BR FEW016 BKN042 OVC050 M05/M07 A2987 910 84 -1200 330/10 RMK AO2 TWR VIS 4 P0000
14837KMSN MSN20060204082013502/04/06 08:20:31  5-MIN KMSN 041420Z 33012KT 2SM -SN BR SCT016 BKN042 OVC050 M05/M07 A2987 910 84 -1200 330/12 RMK AO2 TWR VIS 4 P0000
14837KMSN MSN20060204082514502/04/06 08:25:31  5-MIN KMSN 041425Z 33009G16KT 2 1/2SM -SN BR BKN016 BKN042 OVC050 M05/M07 A2987 910 84 -1200 330/09G16 RMK AO2 TWR VIS 4 P0000
14837KMSN MSN20060204083013102/04/06 08:30:31  5-MIN KMSN 041430Z 33010G16KT 5SM -SN BR BKN016 BKN042 OVC050 M05/M07 A2988 910 84 -1200 330/10G16 RMK AO2 P0000
14837KMSN MSN20060204083511502/04/06 08:35:31  5-MIN KMSN 041435Z 34012KT 5SM -SN BKN016 OVC045 M05/M07 A2988 910 84 -1300 340/12 RMK AO2 P0000
14837KMSN MSN20060204084010802/04/06 08:40:31  5-MIN KMSN 041440Z 33011KT 9SM -SN OVC016 M05/M07 A2988 900 84 -1300 330/11 RMK AO2 P0000
14837KMSN MSN20060204084510802/04/06 08:45:31  5-MIN KMSN 041445Z 34011KT 9SM -SN OVC016 M05/M08 A2988 910 81 -1300 340/11 RMK AO2 P0000
14837KMSN MSN20060204085014302/04/06 08:50:31  5-MIN KMSN 041450Z 34013G19KT 9SM -SN OVC016 M05/M08 A2988 910 81 -1300 340/13G19 RMK AO2 SLP128 P0000 60000 T10501078 51009
14837KMSN MSN20060204085511402/04/06 08:55:31  5-MIN KMSN 041455Z 34011G20KT 7SM -SN OVC016 M05/M08 A2988 900 81 -1300 340/11G20 RMK AO2 P0000
14837KMSN MSN20060204090011402/04/06 09:00:31  5-MIN KMSN 041500Z 33010G20KT 5SM -SN OVC016 M05/M08 A2988 910 81 -1300 330/10G20 RMK AO2 P0000
14837KMSN MSN20060204090510802/04/06 09:05:31  5-MIN KMSN 041505Z 34010KT 5SM -SN OVC016 M05/M08 A2988 910 81 -1300 330/10 RMK AO2 P0000
14837KMSN MSN20060204091010802/04/06 09:10:31  5-MIN KMSN 041510Z 34012KT 6SM -SN OVC016 M05/M08 A2988 910 81 -1300 340/12 RMK AO2 P0000
14837KMSN MSN20060204091510802/04/06 09:15:31  5-MIN KMSN 041515Z 33010KT 7SM -SN OVC016 M05/M08 A2988 910 81 -1300 330/10 RMK AO2 P0000
14837KMSN MSN20060204092010802/04/06 09:20:31  5-MIN KMSN 041520Z 34013KT 3SM -SN OVC016 M05/M08 A2987 910 81 -1200 340/13 RMK AO2 P0000
14837KMSN MSN20060204092513502/04/06 09:25:31  5-MIN KMSN 041525Z 33011G17KT 1 1/2SM -SN BR OVC016 M05/M07 A2987 910 84 -1200 330/11G17 RMK AO2 SFC VIS 1 3/4 P0000
14837KMSN MSN20060204093013002/04/06 09:30:31  5-MIN KMSN 041530Z 33014KT 1/2SM -SN BR SCT009 OVC016 M05/M07 A2988 910 84 -1200 330/14 RMK AO2 SFC VIS 1 P0000
14837KMSN MSN20060204093512002/04/06 09:35:31  5-MIN KMSN 041535Z 33011KT 3/4SM -SN BR SCT007 OVC016 M05/M07 A2987 910 84 -1200 330/11 RMK AO2 P0000
14837KMSN MSN20060204094012002/04/06 09:40:31  5-MIN KMSN 041540Z 33011KT 3/4SM -SN BR SCT007 OVC016 M05/M07 A2987 910 84 -1200 330/11 RMK AO2 P0001
14837KMSN MSN20060204094512402/04/06 09:45:31  5-MIN KMSN 041545Z 33014G19KT 1SM -SN BR SCT007 OVC016 M05/M07 A2987 910 84 -1200 330/14G19 RMK AO2 P0001
14837KMSN MSN20060204095015502/04/06 09:50:31  5-MIN KMSN 041550Z 34012G19KT 1SM -SN BR SCT007 OVC016 M05/M07 A2987 910 84 -1200 340/12G19 RMK AO2 SFC VIS 1 1/4 SLP127 P0001 T10501072
14837KMSN MSN20060204095513202/04/06 09:55:31  5-MIN KMSN 041555Z 33011KT 1SM -SN BR SCT005 OVC016 M05/M07 A2987 910 84 -1200 330/11 RMK AO2 SFC VIS 1 1/4 P0000
14837KMSN MSN20060204100013202/04/06 10:00:31  5-MIN KMSN 041600Z 33013KT 1SM -SN BR FEW005 OVC016 M05/M07 A2987 910 84 -1200 330/13 RMK AO2 SFC VIS 1 1/4 P0000
14837KMSN MSN20060204100512902/04/06 10:05:31  5-MIN KMSN 041605Z 33010KT 1SM -SN FEW007 OVC016 M04/M07 A2986 920 81 -1200 330/10 RMK AO2 SFC VIS 1 3/4 P0000
14837KMSN MSN20060204101011402/04/06 10:10:31  5-MIN KMSN 041610Z 34014G21KT 2SM -SN OVC016 M04/M07 A2986 920 81 -1200 340/14G21 RMK AO2 P0000
14837KMSN MSN20060204101511402/04/06 10:15:31  5-MIN KMSN 041615Z 34012G21KT 2SM -SN OVC016 M04/M07 A2986 920 81 -1200 330/12G21 RMK AO2 P0000
14837KMSN MSN20060204102010802/04/06 10:20:31  5-MIN KMSN 041620Z 34010KT 2SM -SN OVC016 M04/M07 A2986 920 81 -1200 340/10 RMK AO2 P0000
14837KMSN MSN20060204102512402/04/06 10:25:31  5-MIN KMSN 041625Z 34014G18KT 2SM -SN OVC016 M04/M07 A2986 920 81 -1200 340/14G18 RMK AO2 SFC VIS 3 P0000
14837KMSN MSN20060204103012402/04/06 10:30:31  5-MIN KMSN 041630Z 34015G19KT 3SM -SN OVC016 M04/M08 A2986 920 78 -1200 340/15G19 RMK AO2 SFC VIS 4 P0000
14837KMSN MSN20060204103511402/04/06 10:35:31  5-MIN KMSN 041635Z 33010G19KT 5SM -SN OVC016 M04/M07 A2987 920 78 -1100 330/10G19 RMK AO2 P0000
14837KMSN MSN20060204104011402/04/06 10:40:31  5-MIN KMSN 041640Z 34013G17KT 5SM -SN OVC016 M04/M07 A2986 920 78 -1100 340/13G17 RMK AO2 P0000
14837KMSN MSN20060204104510802/04/06 10:45:31  5-MIN KMSN 041645Z 34012KT 5SM -SN OVC016 M04/M08 A2986 920 78 -1200 340/12 RMK AO2 P0000
14837KMSN MSN20060204105013202/04/06 10:50:31  5-MIN KMSN 041650Z 33012KT 7SM -SN BKN016 OVC030 M04/M07 A2986 920 81 -1200 330/12 RMK AO2 SLP124 P0000 T10441072
14837KMSN MSN20060204105510802/04/06 10:55:31  5-MIN KMSN 041655Z 34012KT 6SM -SN OVC016 M04/M08 A2986 920 78 -1200 340/12 RMK AO2 P0000
14837KMSN MSN20060204110010802/04/06 11:00:31  5-MIN KMSN 041700Z 32013KT 6SM -SN OVC016 M04/M08 A2986 920 78 -1200 320/13 RMK AO2 P0000
14837KMSN MSN20060204110511402/04/06 11:05:31  5-MIN KMSN 041705Z 33012G19KT 7SM -SN OVC016 M04/M08 A2986 920 78 -1200 330/12G19 RMK AO2 P0000
14837KMSN MSN20060204111011402/04/06 11:10:31  5-MIN KMSN 041710Z 34016G19KT 8SM -SN OVC016 M04/M08 A2986 920 78 -1200 340/16G19 RMK AO2 P0000
14837KMSN MSN20060204111511102/04/06 11:15:31  5-MIN KMSN 041715Z 33012KT 10SM OVC018 M04/M08 A2986 920 74 -1100 330/12 RMK AO2 SNE15 P0000
14837KMSN MSN20060204112011702/04/06 11:20:31  5-MIN KMSN 041720Z 33015G20KT 10SM OVC018 M04/M08 A2986 920 74 -1100 330/15G20 RMK AO2 SNE15 P0000
14837KMSN MSN20060204112511702/04/06 11:25:31  5-MIN KMSN 041725Z 34012G20KT 10SM OVC018 M04/M08 A2985 920 74 -1100 340/12G20 RMK AO2 SNE15 P0000
14837KMSN MSN20060204113011102/04/06 11:30:31  5-MIN KMSN 041730Z 34012KT 10SM OVC018 M04/M08 A2985 930 74 -1100 340/12 RMK AO2 SNE15 P0000
14837KMSN MSN20060204113511102/04/06 11:35:31  5-MIN KMSN 041735Z 34014KT 10SM OVC018 M04/M08 A2985 930 78 -1200 340/14 RMK AO2 SNE15 P0000
14837KMSN MSN20060204114011702/04/06 11:40:31  5-MIN KMSN 041740Z 33013G21KT 10SM OVC018 M04/M08 A2985 930 78 -1200 330/13G21 RMK AO2 SNE15 P0000
14837KMSN MSN20060204114511702/04/06 11:45:31  5-MIN KMSN 041745Z 34015G21KT 10SM OVC018 M04/M08 A2985 930 78 -1100 340/15G21 RMK AO2 SNE15 P0000
14837KMSN MSN20060204115015802/04/06 11:50:31  5-MIN KMSN 041750Z 34014KT 9SM -SN OVC018 M04/M08 A2985 930 78 -1100 340/14 RMK AO2 SNE15B47 SLP119 P0000 60001 T10441078 11039 21050 51010
14837KMSN MSN20060204115510802/04/06 11:55:31  5-MIN KMSN 041755Z 34013KT 7SM -SN OVC018 M04/M07 A2984 930 78 -1100 340/13 RMK AO2 P0000
14837KMSN MSN20060204120010802/04/06 12:00:31  5-MIN KMSN 041800Z 34010KT 8SM -SN OVC018 M04/M07 A2984 940 78 -1100 340/10 RMK AO2 P0000
14837KMSN MSN20060204120510802/04/06 12:05:31  5-MIN KMSN 041805Z 33011KT 8SM -SN OVC016 M04/M07 A2984 940 81 -1100 330/11 RMK AO2 P0000
14837KMSN MSN20060204121010802/04/06 12:10:31  5-MIN KMSN 041810Z 33012KT 8SM -SN OVC016 M04/M07 A2984 940 78 -1100 330/12 RMK AO2 P0000
14837KMSN MSN20060204121510802/04/06 12:15:31  5-MIN KMSN 041815Z 33013KT 9SM -SN OVC016 M04/M07 A2984 940 78 -1100 320/13 RMK AO2 P0000
14837KMSN MSN20060204122010802/04/06 12:20:31  5-MIN KMSN 041820Z 33013KT 9SM -SN OVC016 M04/M08 A2983 940 78 -1100 330/13 RMK AO2 P0000
14837KMSN MSN20060204122510802/04/06 12:25:31  5-MIN KMSN 041825Z 33013KT 9SM -SN OVC016 M04/M08 A2983 940 78 -1100 330/13 RMK AO2 P0000
14837KMSN MSN20060204123011402/04/06 12:30:31  5-MIN KMSN 041830Z 33014G19KT 9SM -SN OVC016 M04/M08 A2983 940 78 -1100 330/14G19 RMK AO2 P0000
14837KMSN MSN20060204123511402/04/06 12:35:31  5-MIN KMSN 041835Z 34009G19KT 9SM -SN OVC014 M04/M08 A2983 950 78 -1100 340/09G19 RMK AO2 P0000
14837KMSN MSN20060204124011402/04/06 12:40:31  5-MIN KMSN 041840Z 33012G16KT 9SM -SN OVC014 M04/M08 A2983 950 78 -1100 330/12G16 RMK AO2 P0000
14837KMSN MSN20060204124511002/04/06 12:45:31  5-MIN KMSN 041845Z 33014KT 9SM OVC014 M04/M08 A2983 950 78 -1100 330/14 RMK AO2 SNE41 P0000
14837KMSN MSN20060204125013402/04/06 12:50:31  5-MIN KMSN 041850Z 34015G18KT 10SM OVC014 M04/M08 A2983 950 78 -1100 340/15G18 RMK AO2 SNE41 SLP112 P0000 T10441078
14837KMSN MSN20060204125510502/04/06 12:55:31  5-MIN KMSN 041855Z 32014G19KT 10SM OVC014 M04/M08 A2983 950 74 -1100 320/14G19 RMK AO2
14837KMSN MSN20060204130010502/04/06 13:00:31  5-MIN KMSN 041900Z 32014G19KT 10SM OVC014 M04/M08 A2983 950 74 -1100 320/14G19 RMK AO2
14837KMSN MSN20060204130510502/04/06 13:05:31  5-MIN KMSN 041905Z 33009G18KT 10SM OVC014 M04/M08 A2983 950 74 -1100 330/09G18 RMK AO2
14837KMSN MSN20060204131010502/04/06 13:10:31  5-MIN KMSN 041910Z 33014G18KT 10SM OVC014 M04/M08 A2982 950 74 -1100 330/14G18 RMK AO2
14837KMSN MSN20060204131510502/04/06 13:15:31  5-MIN KMSN 041915Z 33013G19KT 10SM OVC016 M05/M08 A2982 950 77 -1200 330/13G19 RMK AO2
14837KMSN MSN20060204132010502/04/06 13:20:31  5-MIN KMSN 041920Z 33013G19KT 10SM OVC016 M04/M08 A2982 960 74 -1100 330/13G19 RMK AO2
14837KMSN MSN20060204132510502/04/06 13:25:31  5-MIN KMSN 041925Z 34012G19KT 10SM OVC016 M04/M08 A2982 960 74 -1100 330/12G19 RMK AO2
14837KMSN MSN20060204133010502/04/06 13:30:31  5-MIN KMSN 041930Z 32010G19KT 10SM OVC016 M04/M08 A2982 960 74 -1100 320/10G19 RMK AO2
14837KMSN MSN20060204133510502/04/06 13:35:31  5-MIN KMSN 041935Z 32015G20KT 10SM OVC016 M05/M08 A2982 960 77 -1200 320/15G20 RMK AO2
14837KMSN MSN20060204134010502/04/06 13:40:31  5-MIN KMSN 041940Z 33009G20KT 10SM OVC016 M05/M08 A2982 960 77 -1200 320/09G20 RMK AO2
14837KMSN MSN20060204134510502/04/06 13:45:31  5-MIN KMSN 041945Z 32015G19KT 10SM OVC016 M05/M08 A2982 960 77 -1200 320/15G19 RMK AO2
14837KMSN MSN20060204135013802/04/06 13:50:31  5-MIN KMSN 041950Z 32014G19KT 10SM -SN OVC016 M05/M08 A2982 960 77 -1200 320/14G19 RMK AO2 SNB50 SLP110 P0000 T10501083
14837KMSN MSN20060204135511402/04/06 13:55:31  5-MIN KMSN 041955Z 33013G19KT 9SM -SN OVC016 M05/M09 A2982 960 74 -1200 330/13G19 RMK AO2 P0000
14837KMSN MSN20060204140011402/04/06 14:00:31  5-MIN KMSN 042000Z 32013G19KT 9SM -SN OVC016 M05/M08 A2982 960 77 -1200 320/13G19 RMK AO2 P0000
14837KMSN MSN20060204140510802/04/06 14:05:31  5-MIN KMSN 042005Z 31013KT 9SM -SN OVC016 M05/M09 A2982 960 74 -1200 310/13 RMK AO2 P0000
14837KMSN MSN20060204141010802/04/06 14:10:31  5-MIN KMSN 042010Z 33011KT 9SM -SN OVC016 M05/M09 A2982 960 74 -1200 330/11 RMK AO2 P0000
14837KMSN MSN20060204141510802/04/06 14:15:31  5-MIN KMSN 042015Z 33011KT 9SM -SN OVC018 M05/M09 A2982 960 74 -1200 330/11 RMK AO2 P0000
14837KMSN MSN20060204142011702/04/06 14:20:31  5-MIN KMSN 042020Z 33013G17KT 10SM OVC018 M05/M08 A2982 960 77 -1200 330/13G17 RMK AO2 SNE16 P0000
14837KMSN MSN20060204142511702/04/06 14:25:31  5-MIN KMSN 042025Z 33015G19KT 10SM OVC018 M05/M09 A2982 960 74 -1200 330/15G19 RMK AO2 SNE16 P0000
14837KMSN MSN20060204143011702/04/06 14:30:31  5-MIN KMSN 042030Z 33009G19KT 10SM OVC018 M05/M09 A2982 960 74 -1200 330/09G19 RMK AO2 SNE16 P0000
14837KMSN MSN20060204143511702/04/06 14:35:31  5-MIN KMSN 042035Z 33014G18KT 10SM OVC018 M05/M09 A2982 960 74 -1200 320/14G18 RMK AO2 SNE16 P0000
14837KMSN MSN20060204144011702/04/06 14:40:31  5-MIN KMSN 042040Z 32011G18KT 10SM OVC018 M05/M09 A2982 960 74 -1200 320/11G18 RMK AO2 SNE16 P0000
14837KMSN MSN20060204144511702/04/06 14:45:31  5-MIN KMSN 042045Z 32011G18KT 10SM OVC018 M04/M08 A2982 960 74 -1100 320/11G18 RMK AO2 SNE16 P0000
14837KMSN MSN20060204145014602/04/06 14:50:31  5-MIN KMSN 042050Z 31009G18KT 10SM OVC018 M04/M09 A2982 950 71 -1100 310/09G18 RMK AO2 SNE16 SLP111 P0000 60000 T10441089 58008
14837KMSN MSN20060204145509902/04/06 14:55:31  5-MIN KMSN 042055Z 32012KT 10SM OVC018 M05/M08 A2982 950 77 -1200 320/12 RMK AO2
14837KMSN MSN20060204150009902/04/06 15:00:31  5-MIN KMSN 042100Z 31010KT 10SM OVC018 M05/M09 A2983 950 74 -1200 310/10 RMK AO2
14837KMSN MSN20060204150509902/04/06 15:05:31  5-MIN KMSN 042105Z 32015KT 10SM OVC018 M05/M09 A2983 950 74 -1200 320/15 RMK AO2
14837KMSN MSN20060204151010502/04/06 15:10:31  5-MIN KMSN 042110Z 32013G18KT 10SM OVC018 M05/M09 A2983 950 74 -1200 320/13G18 RMK AO2
14837KMSN MSN20060204151510502/04/06 15:15:31  5-MIN KMSN 042115Z 32014G19KT 10SM OVC018 M05/M09 A2983 950 74 -1200 320/14G19 RMK AO2
14837KMSN MSN20060204152010502/04/06 15:20:31  5-MIN KMSN 042120Z 33010G19KT 10SM OVC020 M05/M09 A2983 950 74 -1200 330/10G19 RMK AO2
14837KMSN MSN20060204152510502/04/06 15:25:31  5-MIN KMSN 042125Z 32011G16KT 10SM OVC020 M05/M09 A2983 950 74 -1200 320/11G16 RMK AO2
14837KMSN MSN20060204153009902/04/06 15:30:31  5-MIN KMSN 042130Z 32014KT 10SM OVC020 M05/M09 A2983 950 71 -1200 320/14 RMK AO2
14837KMSN MSN20060204153509902/04/06 15:35:31  5-MIN KMSN 042135Z 32011KT 10SM OVC020 M05/M09 A2983 950 71 -1200 320/11 RMK AO2
14837KMSN MSN20060204154009902/04/06 15:40:31  5-MIN KMSN 042140Z 32009KT 10SM OVC020 M05/M09 A2983 950 71 -1200 310/09 RMK AO2
14837KMSN MSN20060204154510502/04/06 15:45:31  5-MIN KMSN 042145Z 32013G17KT 10SM OVC020 M05/M09 A2983 950 71 -1200 310/13G17 RMK AO2
14837KMSN MSN20060204155012202/04/06 15:50:31  5-MIN KMSN 042150Z 32012G18KT 10SM OVC020 M05/M09 A2983 950 71 -1200 320/12G18 RMK AO2 SLP112 T10501094
14837KMSN MSN20060204155510502/04/06 15:55:31  5-MIN KMSN 042155Z 32012G18KT 10SM OVC020 M05/M09 A2983 950 71 -1200 320/12G18 RMK AO2
14837KMSN MSN20060204160009902/04/06 16:00:31  5-MIN KMSN 042200Z 33012KT 10SM OVC020 M05/M09 A2983 950 71 -1200 320/12 RMK AO2
14837KMSN MSN20060204160510502/04/06 16:05:31  5-MIN KMSN 042205Z 32012G18KT 10SM OVC020 M05/M09 A2983 950 71 -1200 320/12G18 RMK AO2
14837KMSN MSN20060204161010502/04/06 16:10:31  5-MIN KMSN 042210Z 32013G18KT 10SM OVC020 M05/M09 A2983 950 71 -1200 320/13G18 RMK AO2
14837KMSN MSN20060204161510502/04/06 16:15:31  5-MIN KMSN 042215Z 33012G18KT 10SM OVC020 M05/M09 A2983 950 71 -1200 320/12G18 RMK AO2
14837KMSN MSN20060204162010502/04/06 16:20:31  5-MIN KMSN 042220Z 33012G18KT 10SM OVC020 M05/M09 A2983 950 71 -1200 320/12G18 RMK AO2
14837KMSN MSN20060204162509902/04/06 16:25:31  5-MIN KMSN 042225Z 32011KT 10SM OVC020 M05/M09 A2982 950 71 -1200 320/11 RMK AO2
14837KMSN MSN20060204163009902/04/06 16:30:31  5-MIN KMSN 042230Z 32009KT 10SM OVC020 M05/M09 A2982 950 74 -1200 320/09 RMK AO2
14837KMSN MSN20060204163509902/04/06 16:35:31  5-MIN KMSN 042235Z 32014KT 10SM OVC020 M05/M09 A2982 950 74 -1200 320/14 RMK AO2
14837KMSN MSN20060204171512002/04/06 17:15:31  5-MIN KMSN 042315Z 32010G19KT 9SM -SN OVC020 M05/M09 A2982 960 71 -1200 320/10G19 RMK AO2 SNB04 P0000
14837KMSN MSN20060204172012002/04/06 17:20:31  5-MIN KMSN 042320Z 32011G19KT 9SM -SN OVC020 M05/M09 A2982 950 71 -1200 320/11G19 RMK AO2 SNB04 P0000
14837KMSN MSN20060204172512002/04/06 17:25:31  5-MIN KMSN 042325Z 32009G19KT 9SM -SN OVC020 M05/M09 A2982 950 74 -1200 320/09G19 RMK AO2 SNB04 P0000
14837KMSN MSN20060204173011402/04/06 17:30:31  5-MIN KMSN 042330Z 32008KT 9SM -SN OVC020 M05/M09 A2983 950 74 -1200 320/08 RMK AO2 SNB04 P0000
14837KMSN MSN20060204173512002/04/06 17:35:31  5-MIN KMSN 042335Z 32010G16KT 9SM -SN OVC020 M06/M09 A2983 950 77 -1300 320/10G16 RMK AO2 SNB04 P0000
14837KMSN MSN20060204174012002/04/06 17:40:31  5-MIN KMSN 042340Z 31009G16KT 9SM -SN OVC020 M06/M09 A2983 950 74 -1300 310/09G16 RMK AO2 SNB04 P0000
14837KMSN MSN20060204174512002/04/06 17:45:31  5-MIN KMSN 042345Z 32012G16KT 9SM -SN OVC020 M06/M09 A2983 950 74 -1300 320/12G16 RMK AO2 SNB04 P0000
14837KMSN MSN20060204175016102/04/06 17:50:31  5-MIN KMSN 042350Z 32012KT 9SM -SN OVC020 M06/M09 A2983 950 74 -1300 320/12 RMK AO2 SNB04 SLP114 4/001 P0000 60000 T10561094 11039 21056 55007
14837KMSN MSN20060204175510802/04/06 17:55:31  5-MIN KMSN 042355Z 32012KT 9SM -SN OVC020 M06/M09 A2983 950 74 -1300 320/12 RMK AO2 P0000
14837KMSN MSN20060204180010802/04/06 18:00:31  5-MIN KMSN 050000Z 32011KT 9SM -SN OVC020 M06/M09 A2983 950 74 -1300 310/11 RMK AO2 P0000
14837KMSN MSN20060204180510802/04/06 18:05:31  5-MIN KMSN 050005Z 32011KT 9SM -SN OVC020 M06/M09 A2983 950 74 -1300 320/11 RMK AO2 P0000
14837KMSN MSN20060204181010802/04/06 18:10:31  5-MIN KMSN 050010Z 33013KT 9SM -SN OVC020 M06/M09 A2983 950 74 -1300 330/13 RMK AO2 P0000
14837KMSN MSN20060204181510802/04/06 18:15:31  5-MIN KMSN 050015Z 33011KT 9SM -SN OVC022 M06/M09 A2983 950 74 -1300 330/11 RMK AO2 P0000
14837KMSN MSN20060204182012102/04/06 18:20:31  5-MIN KMSN 050020Z 32012G18KT 9SM -SN BKN022 OVC050 M06/M09 A2983 950 74 -1300 320/12G18 RMK AO2 P0000
14837KMSN MSN20060204182512102/04/06 18:25:31  5-MIN KMSN 050025Z 33011G18KT 9SM -SN BKN022 OVC050 M06/M09 A2983 950 74 -1300 320/11G18 RMK AO2 P0000
14837KMSN MSN20060204183012102/04/06 18:30:31  5-MIN KMSN 050030Z 32012G17KT 9SM -SN BKN022 OVC050 M06/M09 A2983 950 74 -1300 320/12G17 RMK AO2 P0000
14837KMSN MSN20060204183512102/04/06 18:35:31  5-MIN KMSN 050035Z 33012G17KT 9SM -SN SCT022 OVC050 M06/M09 A2983 940 74 -1300 330/12G17 RMK AO2 P0000
14837KMSN MSN20060204184012102/04/06 18:40:31  5-MIN KMSN 050040Z 32011G16KT 9SM -SN BKN022 OVC050 M06/M09 A2984 940 74 -1300 320/11G16 RMK AO2 P0000
14837KMSN MSN20060204184512102/04/06 18:45:31  5-MIN KMSN 050045Z 33011G16KT 9SM -SN BKN022 OVC050 M06/M09 A2983 940 74 -1300 330/11G16 RMK AO2 P0000
14837KMSN MSN20060204185012102/04/06 18:50:31  5-MIN KMSN 050050Z 33012G18KT 9SM -SN SCT022 OVC050 M06/M09 A2983 950 74 -1300 330/12G18 RMK AO2 P0000
14837KMSN MSN20060204185512802/04/06 18:55:31  5-MIN KMSN 050055Z 33010G18KT 9SM -SN SCT024 SCT036 OVC055 M06/M09 A2983 950 74 -1300 330/10G18 RMK AO2 P0000
14837KMSN MSN20060204190012202/04/06 19:00:31  5-MIN KMSN 050100Z 32007KT 9SM -SN SCT024 SCT036 OVC055 M06/M09 A2983 950 74 -1300 320/07 RMK AO2 P0000
14837KMSN MSN20060204190512802/04/06 19:05:31  5-MIN KMSN 050105Z 32012G16KT 9SM -SN FEW024 SCT036 OVC055 M06/M09 A2983 950 74 -1300 320/12G16 RMK AO2 P0000
14837KMSN MSN20060204191012202/04/06 19:10:31  5-MIN KMSN 050110Z 32012KT 9SM -SN FEW024 SCT036 OVC055 M06/M09 A2983 950 74 -1300 320/12 RMK AO2 P0000
14837KMSN MSN20060204191511502/04/06 19:15:31  5-MIN KMSN 050115Z 32009KT 9SM -SN SCT038 OVC055 M06/M09 A2983 950 74 -1300 320/09 RMK AO2 P0000
14837KMSN MSN20060204192012202/04/06 19:20:31  5-MIN KMSN 050120Z 32010KT 9SM -SN FEW025 SCT038 OVC055 M06/M09 A2983 950 74 -1300 320/10 RMK AO2 P0000
14837KMSN MSN20060204192512202/04/06 19:25:31  5-MIN KMSN 050125Z 32011KT 9SM -SN FEW025 BKN038 OVC055 M06/M09 A2983 950 74 -1300 320/11 RMK AO2 P0000
14837KMSN MSN20060204193012102/04/06 19:30:31  5-MIN KMSN 050130Z 32012G17KT 9SM -SN BKN038 OVC055 M06/M09 A2983 950 74 -1300 320/12G17 RMK AO2 P0000
14837KMSN MSN20060204193511502/04/06 19:35:31  5-MIN KMSN 050135Z 31011KT 9SM -SN BKN038 OVC055 M06/M09 A2982 950 74 -1300 310/11 RMK AO2 P0000
14837KMSN MSN20060204194011502/04/06 19:40:31  5-MIN KMSN 050140Z 32011KT 9SM -SN SCT038 OVC055 M06/M09 A2982 950 74 -1300 320/11 RMK AO2 P0000
14837KMSN MSN20060204194512102/04/06 19:45:31  5-MIN KMSN 050145Z 32011G17KT 9SM -SN FEW038 OVC055 M06/M09 A2982 960 74 -1300 320/11G17 RMK AO2 P0000
14837KMSN MSN20060204195013802/04/06 19:50:31  5-MIN KMSN 050150Z 32010G17KT 9SM -SN FEW038 OVC055 M06/M09 A2982 960 74 -1300 320/10G17 RMK AO2 SLP111 P0000 T10561094
14837KMSN MSN20060204195511502/04/06 19:55:31  5-MIN KMSN 050155Z 32009KT 9SM -SN FEW038 OVC055 M06/M09 A2982 960 74 -1300 320/09 RMK AO2 P0000
14837KMSN MSN20060204200010802/04/06 20:00:31  5-MIN KMSN 050200Z 32008KT 9SM -SN OVC055 M06/M09 A2982 960 74 -1300 320/08 RMK AO2 P0000
14837KMSN MSN20060204200510802/04/06 20:05:31  5-MIN KMSN 050205Z 32012KT 9SM -SN OVC055 M06/M09 A2982 960 74 -1300 320/12 RMK AO2 P0000
14837KMSN MSN20060204201011502/04/06 20:10:31  5-MIN KMSN 050210Z 32010KT 9SM -SN FEW036 OVC055 M06/M09 A2982 960 74 -1300 320/10 RMK AO2 P0000
14837KMSN MSN20060204201511502/04/06 20:15:31  5-MIN KMSN 050215Z 32010KT 9SM -SN SCT036 OVC055 M06/M09 A2982 960 74 -1300 320/10 RMK AO2 P0000
14837KMSN MSN20060204202011502/04/06 20:20:31  5-MIN KMSN 050220Z 32010KT 9SM -SN BKN034 OVC055 M06/M09 A2982 960 74 -1300 320/10 RMK AO2 P0000
14837KMSN MSN20060204202511502/04/06 20:25:31  5-MIN KMSN 050225Z 31010KT 9SM -SN BKN034 OVC060 M06/M09 A2981 960 74 -1300 310/10 RMK AO2 P0000
14837KMSN MSN20060204203011502/04/06 20:30:31  5-MIN KMSN 050230Z 31010KT 9SM -SN SCT034 OVC060 M06/M09 A2981 970 74 -1200 310/10 RMK AO2 P0000
14837KMSN MSN20060204203511502/04/06 20:35:31  5-MIN KMSN 050235Z 32012KT 9SM -SN SCT034 OVC060 M06/M09 A2981 970 74 -1200 320/12 RMK AO2 P0000
14837KMSN MSN20060204204011502/04/06 20:40:31  5-MIN KMSN 050240Z 32012KT 9SM -SN SCT034 OVC060 M06/M09 A2981 970 74 -1200 320/12 RMK AO2 P0000
14837KMSN MSN20060204204511502/04/06 20:45:31  5-MIN KMSN 050245Z 32012KT 9SM -SN FEW034 OVC060 M06/M09 A2981 970 74 -1200 310/12 RMK AO2 P0000
14837KMSN MSN20060204205014402/04/06 20:50:31  5-MIN KMSN 050250Z 32009KT 9SM -SN FEW032 OVC060 M06/M10 A2981 970 71 -1200 320/09 RMK AO2 SLP107 P0000 60000 T10561100 53002
14837KMSN MSN20060204205512102/04/06 20:55:31  5-MIN KMSN 050255Z 32011G16KT 9SM -SN FEW030 OVC060 M06/M09 A2980 970 74 -1200 310/11G16 RMK AO2 P0000
14837KMSN MSN20060204210011502/04/06 21:00:31  5-MIN KMSN 050300Z 32010KT 9SM -SN FEW030 OVC060 M06/M09 A2980 980 74 -1200 320/10 RMK AO2 P0000
14837KMSN MSN20060204210511502/04/06 21:05:31  5-MIN KMSN 050305Z 32012KT 9SM -SN FEW030 OVC060 M06/M09 A2980 980 74 -1200 320/12 RMK AO2 P0000
14837KMSN MSN20060204211011502/04/06 21:10:31  5-MIN KMSN 050310Z 32011KT 9SM -SN FEW030 OVC060 M06/M09 A2980 980 74 -1200 320/11 RMK AO2 P0000
14837KMSN MSN20060204211511502/04/06 21:15:31  5-MIN KMSN 050315Z 32013KT 9SM -SN FEW030 OVC060 M06/M09 A2980 980 74 -1200 320/13 RMK AO2 P0000
14837KMSN MSN20060204212012102/04/06 21:20:31  5-MIN KMSN 050320Z 32011G18KT 9SM -SN FEW030 OVC060 M06/M09 A2979 980 74 -1200 310/11G18 RMK AO2 P0000
14837KMSN MSN20060204212511502/04/06 21:25:31  5-MIN KMSN 050325Z 33014KT 9SM -SN SCT030 OVC060 M06/M10 A2979 980 71 -1200 330/14 RMK AO2 P0000
14837KMSN MSN20060204213011502/04/06 21:30:31  5-MIN KMSN 050330Z 32010KT 9SM -SN BKN030 OVC060 M06/M09 A2979 990 74 -1200 320/10 RMK AO2 P0000
14837KMSN MSN20060204213511502/04/06 21:35:31  5-MIN KMSN 050335Z 32012KT 9SM -SN BKN028 OVC060 M06/M09 A2979 990 74 -1200 320/12 RMK AO2 P0000
14837KMSN MSN20060204214011502/04/06 21:40:31  5-MIN KMSN 050340Z 32014KT 9SM -SN BKN028 OVC065 M06/M09 A2978 990 74 -1200 320/14 RMK AO2 P0000
14837KMSN MSN20060204214512102/04/06 21:45:31  5-MIN KMSN 050345Z 32012G18KT 9SM -SN BKN028 OVC065 M06/M10 A2978 990 74 -1300 320/12G18 RMK AO2 P0000
14837KMSN MSN20060204215013802/04/06 21:50:31  5-MIN KMSN 050350Z 32011G19KT 9SM -SN BKN028 OVC065 M06/M09 A2978 990 77 -1300 320/11G19 RMK AO2 SLP098 P0000 T10611094
14837KMSN MSN20060204215511102/04/06 21:55:31  5-MIN KMSN 050355Z 32016G20KT 9SM BKN028 OVC065 M06/M10 A2978 990 74 -1300 320/16G20 RMK AO2
14837KMSN MSN20060204220011202/04/06 22:00:31  5-MIN KMSN 050400Z 32015G20KT 10SM BKN028 OVC065 M06/M10 A2978 990 74 -1300 320/15G20 RMK AO2
14837KMSN MSN20060204220511202/04/06 22:05:31  5-MIN KMSN 050405Z 33013G19KT 10SM BKN026 OVC065 M06/M09 A2978 990 77 -1300 320/13G19 RMK AO2
14837KMSN MSN20060204221009902/04/06 22:10:31  5-MIN KMSN 050410Z 32010KT 10SM OVC026 M06/M09 A2978 990 77 -1300 320/10 RMK AO2
14837KMSN MSN20060204221510002/04/06 22:15:31  5-MIN KMSN 050415Z 32011KT 10SM OVC026 M06/M09 A2978 1000 77 -1300 320/11 RMK AO2
14837KMSN MSN20060204222010002/04/06 22:20:31  5-MIN KMSN 050420Z 33011KT 10SM OVC026 M06/M09 A2978 1000 77 -1300 320/11 RMK AO2
14837KMSN MSN20060204222510002/04/06 22:25:31  5-MIN KMSN 050425Z 33010KT 10SM OVC026 M06/M09 A2978 1000 77 -1300 330/10 RMK AO2
14837KMSN MSN20060204223010702/04/06 22:30:31  5-MIN KMSN 050430Z 32011KT 10SM BKN026 OVC032 M06/M09 A2978 1000 77 -1300 320/11 RMK AO2
14837KMSN MSN20060204223512302/04/06 22:35:31  5-MIN KMSN 050435Z 32012KT 10SM -SN BKN026 OVC032 M06/M09 A2977 1000 77 -1300 320/12 RMK AO2 SNB35 P0000
14837KMSN MSN20060204224012202/04/06 22:40:31  5-MIN KMSN 050440Z 32010KT 9SM -SN SCT026 OVC032 M06/M09 A2977 1000 77 -1300 320/10 RMK AO2 SNB35 P0000
14837KMSN MSN20060204224512202/04/06 22:45:31  5-MIN KMSN 050445Z 32012KT 9SM -SN SCT026 OVC034 M06/M09 A2977 1000 77 -1300 320/12 RMK AO2 SNB35 P0000
14837KMSN MSN20060204225013902/04/06 22:50:31  5-MIN KMSN 050450Z 32012KT 9SM -SN FEW024 OVC034 M06/M09 A2977 1000 77 -1300 320/12 RMK AO2 SNB35 SLP094 P0000 T10611094
14837KMSN MSN20060204225511502/04/06 22:55:31  5-MIN KMSN 050455Z 32012G19KT 9SM -SN OVC034 M06/M09 A2977 1000 77 -1300 320/12G19 RMK AO2 P0000
14837KMSN MSN20060204230011502/04/06 23:00:31  5-MIN KMSN 050500Z 32013G19KT 9SM -SN OVC034 M06/M09 A2977 1000 77 -1300 320/13G19 RMK AO2 P0000
14837KMSN MSN20060204230512202/04/06 23:05:31  5-MIN KMSN 050505Z 33012G19KT 9SM -SN BKN031 OVC038 M06/M09 A2977 1010 77 -1300 330/12G19 RMK AO2 P0000
14837KMSN MSN20060204231012202/04/06 23:10:31  5-MIN KMSN 050510Z 32010G19KT 9SM -SN BKN031 OVC038 M06/M09 A2977 1010 77 -1300 320/10G19 RMK AO2 P0000
14837KMSN MSN20060204231511602/04/06 23:15:31  5-MIN KMSN 050515Z 33011KT 9SM -SN BKN031 OVC038 M06/M09 A2977 1010 77 -1300 320/11 RMK AO2 P0000
14837KMSN MSN20060204232011602/04/06 23:20:31  5-MIN KMSN 050520Z 33013KT 9SM -SN BKN029 OVC038 M06/M09 A2977 1010 77 -1300 330/13 RMK AO2 P0000
14837KMSN MSN20060204232511602/04/06 23:25:31  5-MIN KMSN 050525Z 34012KT 9SM -SN FEW022 OVC029 M06/M10 A2977 1010 71 -1200 340/12 RMK AO2 P0000
14837KMSN MSN20060204233011602/04/06 23:30:31  5-MIN KMSN 050530Z 32008KT 9SM -SN FEW022 OVC029 M06/M09 A2977 1000 74 -1200 320/08 RMK AO2 P0000
14837KMSN MSN20060204233511602/04/06 23:35:31  5-MIN KMSN 050535Z 32009KT 9SM -SN FEW022 OVC029 M06/M09 A2977 1000 77 -1300 320/09 RMK AO2 P0000
14837KMSN MSN20060204234011602/04/06 23:40:31  5-MIN KMSN 050540Z 33011KT 9SM -SN FEW022 OVC029 M06/M09 A2977 1000 77 -1300 320/11 RMK AO2 P0000
14837KMSN MSN20060204234512202/04/06 23:45:31  5-MIN KMSN 050545Z 32012G18KT 9SM -SN SCT022 OVC029 M06/M10 A2977 1010 74 -1300 320/12G18 RMK AO2 P0000
14837KMSN MSN20060204235017902/04/06 23:50:31  5-MIN KMSN 050550Z 33011G18KT 9SM -SN BKN022 OVC029 M06/M10 A2977 1010 74 -1300 320/11G18 RMK AO2 SLP092 4/001 P0000 60000 T10611100 11056 21061 410281061 58008
14837KMSN MSN20060204235511602/04/06 23:55:31  5-MIN KMSN 050555Z 32012KT 9SM -SN SCT022 OVC029 M06/M10 A2976 1010 71 -1200 320/12 RMK AO2 P0000
14837KMSN MSN20060205000012202/05/06 00:00:38  5-MIN KMSN 050600Z 32011G17KT 9SM -SN SCT022 OVC029 M06/M10 A2976 1010 71 -1200 320/11G17 RMK AO2 P0000
14837KMSN MSN20060205000512202/05/06 00:05:31  5-MIN KMSN 050605Z 32010G17KT 9SM -SN SCT022 OVC029 M06/M10 A2977 1010 74 -1300 320/10G17 RMK AO2 P0000
14837KMSN MSN20060205001011602/05/06 00:10:31  5-MIN KMSN 050610Z 33009KT 9SM -SN FEW022 OVC029 M06/M10 A2977 1010 74 -1300 330/09 RMK AO2 P0000
14837KMSN MSN20060205001511602/05/06 00:15:43  5-MIN KMSN 050615Z 33011KT 9SM -SN FEW022 OVC029 M06/M10 A2977 1010 74 -1300 330/11 RMK AO2 P0000
14837KMSN MSN20060205002012402/05/06 00:20:31  5-MIN KMSN 050620Z 33014G18KT 9SM BKN029 OVC039 M06/M10 A2976 1010 74 -1300 330/14G18 RMK AO2 SNE16 P0000
14837KMSN MSN20060205002512502/05/06 00:25:31  5-MIN KMSN 050625Z 32012G18KT 10SM SCT029 OVC037 M06/M10 A2976 1010 74 -1300 320/12G18 RMK AO2 SNE16 P0000
14837KMSN MSN20060205003012502/05/06 00:30:31  5-MIN KMSN 050630Z 32012G17KT 10SM SCT029 OVC037 M06/M10 A2976 1010 74 -1300 320/12G17 RMK AO2 SNE16 P0000
14837KMSN MSN20060205003511902/05/06 00:35:31  5-MIN KMSN 050635Z 32013KT 10SM FEW029 OVC037 M06/M10 A2976 1010 74 -1300 320/13 RMK AO2 SNE16 P0000
14837KMSN MSN20060205004012502/05/06 00:40:31  5-MIN KMSN 050640Z 33010G16KT 10SM FEW029 OVC037 M06/M10 A2976 1010 74 -1300 330/10G16 RMK AO2 SNE16 P0000
14837KMSN MSN20060205004512502/05/06 00:45:31  5-MIN KMSN 050645Z 32012G17KT 10SM FEW029 OVC037 M06/M11 A2976 1010 71 -1300 320/12G17 RMK AO2 SNE16 P0000
14837KMSN MSN20060205005013602/05/06 00:50:31  5-MIN KMSN 050650Z 32012KT 10SM FEW029 OVC037 M06/M11 A2976 1020 71 -1300 320/12 RMK AO2 SNE16 SLP090 P0000 T10611106
14837KMSN MSN20060205005511302/05/06 00:55:31  5-MIN KMSN 050655Z 33013G19KT 10SM FEW029 OVC037 M06/M10 A2976 1020 74 -1300 330/13G19 RMK AO2
14837KMSN MSN20060205010011302/05/06 01:00:31  5-MIN KMSN 050700Z 33012G19KT 10SM FEW029 OVC037 M06/M11 A2976 1020 71 -1300 320/12G19 RMK AO2
14837KMSN MSN20060205010511302/05/06 01:05:31  5-MIN KMSN 050705Z 33010G18KT 10SM SCT029 OVC037 M06/M10 A2976 1010 74 -1300 330/10G18 RMK AO2
14837KMSN MSN20060205011011302/05/06 01:10:31  5-MIN KMSN 050710Z 33012G18KT 10SM SCT029 OVC037 M06/M11 A2976 1010 71 -1300 330/12G18 RMK AO2
14837KMSN MSN20060205011511302/05/06 01:15:31  5-MIN KMSN 050715Z 34011G18KT 10SM SCT029 OVC037 M06/M11 A2976 1010 71 -1300 340/11G18 RMK AO2
14837KMSN MSN20060205012011302/05/06 01:20:31  5-MIN KMSN 050720Z 32011G18KT 10SM SCT029 OVC037 M06/M11 A2976 1010 71 -1300 320/11G18 RMK AO2
14837KMSN MSN20060205012511302/05/06 01:25:31  5-MIN KMSN 050725Z 32012G17KT 10SM SCT029 OVC037 M06/M10 A2976 1010 74 -1300 320/12G17 RMK AO2
14837KMSN MSN20060205013011302/05/06 01:30:31  5-MIN KMSN 050730Z 32011G17KT 10SM SCT029 OVC037 M06/M11 A2976 1010 71 -1300 320/11G17 RMK AO2
14837KMSN MSN20060205013511302/05/06 01:35:31  5-MIN KMSN 050735Z 33009G17KT 10SM BKN029 OVC037 M06/M11 A2976 1010 71 -1300 330/09G17 RMK AO2
14837KMSN MSN20060205014010702/05/06 01:40:31  5-MIN KMSN 050740Z 32011KT 10SM BKN029 OVC037 M06/M11 A2977 1010 71 -1300 320/11 RMK AO2
14837KMSN MSN20060205014511302/05/06 01:45:31  5-MIN KMSN 050745Z 32012G18KT 10SM BKN029 OVC037 M06/M11 A2977 1010 71 -1300 320/12G18 RMK AO2
14837KMSN MSN20060205015013002/05/06 01:50:31  5-MIN KMSN 050750Z 33011G18KT 10SM BKN029 OVC039 M06/M11 A2977 1010 71 -1300 320/11G18 RMK AO2 SLP093 T10611106
14837KMSN MSN20060205015510702/05/06 01:55:31  5-MIN KMSN 050755Z 32013KT 10SM BKN029 OVC037 M07/M11 A2977 1000 74 -1300 320/13 RMK AO2
14837KMSN MSN20060205020010702/05/06 02:00:31  5-MIN KMSN 050800Z 32012KT 10SM BKN029 OVC037 M07/M11 A2977 1000 74 -1300 320/12 RMK AO2
14837KMSN MSN20060205020510702/05/06 02:05:31  5-MIN KMSN 050805Z 32011KT 10SM BKN029 OVC037 M07/M11 A2977 1010 74 -1300 320/11 RMK AO2
14837KMSN MSN20060205021010002/05/06 02:10:31  5-MIN KMSN 050810Z 33014KT 10SM OVC029 M07/M11 A2977 1010 74 -1300 330/14 RMK AO2
14837KMSN MSN20060205021510602/05/06 02:15:31  5-MIN KMSN 050815Z 32015G19KT 10SM OVC029 M07/M11 A2977 1000 74 -1300 320/15G19 RMK AO2
14837KMSN MSN20060205022010602/05/06 02:20:31  5-MIN KMSN 050820Z 33013G19KT 10SM OVC029 M07/M11 A2977 1000 74 -1300 320/13G19 RMK AO2
14837KMSN MSN20060205022510002/05/06 02:25:31  5-MIN KMSN 050825Z 31009KT 10SM OVC029 M07/M11 A2977 1010 74 -1300 310/09 RMK AO2
14837KMSN MSN20060205023010002/05/06 02:30:31  5-MIN KMSN 050830Z 32010KT 10SM OVC029 M07/M11 A2976 1010 74 -1300 320/10 RMK AO2
14837KMSN MSN20060205023510602/05/06 02:35:31  5-MIN KMSN 050835Z 32011G17KT 10SM OVC029 M07/M11 A2976 1010 74 -1300 320/11G17 RMK AO2
14837KMSN MSN20060205024011302/05/06 02:40:31  5-MIN KMSN 050840Z 31012G18KT 10SM BKN029 OVC060 M07/M11 A2976 1020 74 -1300 310/12G18 RMK AO2
14837KMSN MSN20060205024511302/05/06 02:45:31  5-MIN KMSN 050845Z 32010G18KT 10SM BKN029 OVC060 M07/M11 A2976 1020 74 -1300 320/10G18 RMK AO2
14837KMSN MSN20060205025011302/05/06 02:50:31  5-MIN KMSN 050850Z 33013G19KT 10SM SCT029 OVC060 M07/M11 A2975 1020 74 -1300 330/13G19 RMK AO2
14837KMSN MSN20060205025511302/05/06 02:55:31  5-MIN KMSN 050855Z 33013G19KT 10SM FEW029 OVC060 M07/M11 A2975 1020 74 -1300 330/13G19 RMK AO2
14837KMSN MSN20060205030011302/05/06 03:00:31  5-MIN KMSN 050900Z 33013G19KT 10SM FEW029 OVC060 M07/M11 A2975 1020 74 -1300 330/13G19 RMK AO2
14837KMSN MSN20060205030510602/05/06 03:05:31  5-MIN KMSN 050905Z 32012G19KT 10SM OVC060 M07/M11 A2975 1020 74 -1300 320/12G19 RMK AO2
14837KMSN MSN20060205031010002/05/06 03:10:31  5-MIN KMSN 050910Z 33011KT 10SM OVC060 M07/M11 A2976 1020 74 -1300 320/11 RMK AO2
14837KMSN MSN20060205031510702/05/06 03:15:31  5-MIN KMSN 050915Z 32010KT 10SM FEW033 OVC060 M07/M11 A2976 1020 74 -1300 320/10 RMK AO2
14837KMSN MSN20060205032010702/05/06 03:20:31  5-MIN KMSN 050920Z 33011KT 10SM FEW033 OVC060 M07/M11 A2976 1020 74 -1300 330/11 RMK AO2
14837KMSN MSN20060205032510702/05/06 03:25:31  5-MIN KMSN 050925Z 33010KT 10SM FEW033 OVC060 M07/M11 A2976 1020 74 -1300 330/10 RMK AO2
14837KMSN MSN20060205033011302/05/06 03:30:31  5-MIN KMSN 050930Z 33012G17KT 10SM FEW033 OVC060 M07/M11 A2975 1020 74 -1300 330/12G17 RMK AO2
14837KMSN MSN20060205033511302/05/06 03:35:31  5-MIN KMSN 050935Z 32012G17KT 10SM FEW033 OVC060 M07/M11 A2976 1020 74 -1300 320/12G17 RMK AO2
14837KMSN MSN20060205034011302/05/06 03:40:31  5-MIN KMSN 050940Z 33012G17KT 10SM FEW033 OVC060 M07/M11 A2976 1020 74 -1300 320/12G17 RMK AO2
14837KMSN MSN20060205034511302/05/06 03:45:31  5-MIN KMSN 050945Z 33012G17KT 10SM FEW033 OVC060 M07/M11 A2976 1020 74 -1300 320/12G17 RMK AO2
14837KMSN MSN20060205035012302/05/06 03:50:31  5-MIN KMSN 050950Z 32010G17KT 10SM OVC055 M07/M11 A2976 1020 77 -1400 320/10G17 RMK AO2 SLP090 T10721106
14837KMSN MSN20060205035510602/05/06 03:55:31  5-MIN KMSN 050955Z 32010G17KT 10SM OVC055 M07/M11 A2976 1020 77 -1400 320/10G17 RMK AO2
14837KMSN MSN20060205040010002/05/06 04:00:31  5-MIN KMSN 051000Z 32010KT 10SM OVC055 M07/M11 A2975 1020 77 -1400 320/10 RMK AO2
14837KMSN MSN20060205040510002/05/06 04:05:31  5-MIN KMSN 051005Z 32011KT 10SM OVC055 M07/M11 A2975 1020 77 -1400 320/11 RMK AO2
14837KMSN MSN20060205041011602/05/06 04:10:31  5-MIN KMSN 051010Z 32013KT 10SM -SN OVC055 M07/M11 A2975 1020 77 -1400 320/13 RMK AO2 SNB10 P0000
14837KMSN MSN20060205041511502/05/06 04:15:31  5-MIN KMSN 051015Z 32011KT 9SM -SN OVC055 M07/M11 A2975 1020 77 -1400 320/11 RMK AO2 SNB10 P0000
14837KMSN MSN20060205042011502/05/06 04:20:31  5-MIN KMSN 051020Z 33011KT 9SM -SN OVC055 M07/M11 A2975 1020 77 -1400 320/11 RMK AO2 SNB10 P0000
14837KMSN MSN20060205042511502/05/06 04:25:31  5-MIN KMSN 051025Z 33010KT 9SM -SN OVC055 M07/M11 A2975 1020 74 -1400 330/10 RMK AO2 SNB10 P0000
14837KMSN MSN20060205043011502/05/06 04:30:31  5-MIN KMSN 051030Z 33009KT 9SM -SN OVC055 M08/M11 A2975 1020 77 -1500 330/09 RMK AO2 SNB10 P0000
14837KMSN MSN20060205043511502/05/06 04:35:31  5-MIN KMSN 051035Z 32011KT 9SM -SN OVC055 M08/M11 A2975 1020 77 -1500 320/11 RMK AO2 SNB10 P0000
14837KMSN MSN20060205044011502/05/06 04:40:31  5-MIN KMSN 051040Z 32011KT 9SM -SN OVC055 M08/M11 A2975 1020 77 -1500 320/11 RMK AO2 SNB10 P0000
14837KMSN MSN20060205044511502/05/06 04:45:31  5-MIN KMSN 051045Z 32010KT 9SM -SN OVC055 M08/M11 A2976 1020 77 -1500 320/10 RMK AO2 SNB10 P0000
14837KMSN MSN20060205045013202/05/06 04:50:31  5-MIN KMSN 051050Z 32009KT 9SM -SN OVC055 M08/M11 A2975 1020 77 -1500 320/09 RMK AO2 SNB10 SLP090 P0000 T10781111
14837KMSN MSN20060205045510902/05/06 04:55:31  5-MIN KMSN 051055Z 31006KT 9SM -SN OVC055 M08/M11 A2976 1020 77 -1500 310/06 RMK AO2 P0000
14837KMSN MSN20060205050010902/05/06 05:00:31  5-MIN KMSN 051100Z 31008KT 9SM -SN OVC055 M08/M11 A2976 1020 77 -1500 310/08 RMK AO2 P0000
14837KMSN MSN20060205050511102/05/06 05:05:31  5-MIN KMSN 051105Z 31009KT 9SM OVC055 M08/M11 A2976 1010 77 -1500 310/09 RMK AO2 SNE02 P0000
14837KMSN MSN20060205051011202/05/06 05:10:31  5-MIN KMSN 051110Z 31007KT 10SM OVC055 M08/M11 A2976 1010 77 -1500 310/07 RMK AO2 SNE02 P0000
14837KMSN MSN20060205140010402/05/06 14:00:31  5-MIN KMSN 052000Z 33013G17KT 10SM FEW029 M01/M08 A2981 970 58 -600 320/13G17 RMK AO2
14837KMSN MSN20060205140510402/05/06 14:05:31  5-MIN KMSN 052005Z 30015G18KT 10SM SCT031 M01/M08 A2981 960 60 -700 300/15G18 RMK AO2
14837KMSN MSN20060205141010402/05/06 14:10:31  5-MIN KMSN 052010Z 30013G18KT 10SM SCT031 M01/M08 A2982 960 60 -700 300/13G18 RMK AO2
14837KMSN MSN20060205141510402/05/06 14:15:31  5-MIN KMSN 052015Z 30009G17KT 10SM BKN031 M01/M08 A2981 960 60 -700 300/09G17 RMK AO2
14837KMSN MSN20060205142010402/05/06 14:20:31  5-MIN KMSN 052020Z 31012G16KT 10SM BKN031 M01/M08 A2982 960 58 -600 300/12G16 RMK AO2
14837KMSN MSN20060205142510402/05/06 14:25:31  5-MIN KMSN 052025Z 31012G16KT 10SM BKN031 M01/M08 A2982 960 58 -700 310/12G16 RMK AO2
14837KMSN MSN20060205143009802/05/06 14:30:31  5-MIN KMSN 052030Z 31014KT 10SM SCT031 M01/M08 A2982 960 58 -700 310/14 RMK AO2
14837KMSN MSN20060205143510402/05/06 14:35:31  5-MIN KMSN 052035Z 31012G18KT 10SM SCT031 M01/M08 A2982 960 58 -700 310/12G18 RMK AO2
14837KMSN MSN20060205144010402/05/06 14:40:31  5-MIN KMSN 052040Z 31013G18KT 10SM SCT031 M01/M08 A2982 960 58 -700 300/13G18 RMK AO2
14837KMSN MSN20060205144510402/05/06 14:45:31  5-MIN KMSN 052045Z 33011G18KT 10SM FEW031 M01/M08 A2982 950 56 -600 330/11G18 RMK AO2
14837KMSN MSN20060205145012702/05/06 14:50:31  5-MIN KMSN 052050Z 31009G16KT 10SM FEW031 M01/M08 A2982 950 58 -700 310/09G16 RMK AO2 SLP111 T10111083 50006
14837KMSN MSN20060205145510402/05/06 14:55:31  5-MIN KMSN 052055Z 32012G16KT 10SM FEW031 M01/M08 A2983 950 58 -600 320/12G16 RMK AO2
14837KMSN MSN20060205150010402/05/06 15:00:31  5-MIN KMSN 052100Z 31011G16KT 10SM FEW031 M01/M08 A2983 950 58 -700 310/11G16 RMK AO2
14837KMSN MSN20060205150510402/05/06 15:05:31  5-MIN KMSN 052105Z 33014G20KT 10SM FEW031 M01/M08 A2983 950 56 -600 330/14G20 RMK AO2
14837KMSN MSN20060205151010102/05/06 15:10:31  5-MIN KMSN 052110Z 31010G20KT 10SM CLR M01/M08 A2983 950 58 -700 310/10G20 RMK AO2
14837KMSN MSN20060205151510102/05/06 15:15:31  5-MIN KMSN 052115Z 32011G17KT 10SM CLR M01/M09 A2983 950 53 -600 320/11G17 RMK AO2
14837KMSN MSN20060205152010102/05/06 15:20:31  5-MIN KMSN 052120Z 31012G17KT 10SM CLR M01/M09 A2983 950 53 -600 310/12G17 RMK AO2
14837KMSN MSN20060205152510102/05/06 15:25:31  5-MIN KMSN 052125Z 31011G17KT 10SM CLR M01/M09 A2983 950 53 -700 310/11G17 RMK AO2
14837KMSN MSN20060205153009502/05/06 15:30:31  5-MIN KMSN 052130Z 34011KT 10SM CLR M01/M09 A2983 950 53 -700 340/11 RMK AO2
14837KMSN MSN20060205153509502/05/06 15:35:31  5-MIN KMSN 052135Z 34011KT 10SM CLR M01/M09 A2984 940 53 -600 340/11 RMK AO2
14837KMSN MSN20060205154009502/05/06 15:40:31  5-MIN KMSN 052140Z 34012KT 10SM CLR M01/M09 A2983 950 51 -600 340/12 RMK AO2
14837KMSN MSN20060205154509502/05/06 15:45:31  5-MIN KMSN 052145Z 32010KT 10SM CLR M01/M09 A2984 940 53 -600 320/10 RMK AO2
14837KMSN MSN20060205155011802/05/06 15:50:31  5-MIN KMSN 052150Z 34010G14KT 10SM CLR M01/M09 A2984 940 53 -600 340/10G14 RMK AO2 SLP116 T10061089
14837KMSN MSN20060205155510102/05/06 15:55:31  5-MIN KMSN 052155Z 33009G14KT 10SM CLR M01/M09 A2984 940 51 -600 320/09G14 RMK AO2
14837KMSN MSN20060205160009502/05/06 16:00:31  5-MIN KMSN 052200Z 33009KT 10SM CLR M01/M09 A2984 940 51 -600 330/09 RMK AO2
14837KMSN MSN20060205160509502/05/06 16:05:31  5-MIN KMSN 052205Z 33012KT 10SM CLR M01/M09 A2984 940 51 -600 330/12 RMK AO2
14837KMSN MSN20060205161009502/05/06 16:10:31  5-MIN KMSN 052210Z 33012KT 10SM CLR M01/M09 A2984 940 53 -700 330/12 RMK AO2
14837KMSN MSN20060205161509502/05/06 16:15:31  5-MIN KMSN 052215Z 32010KT 10SM CLR M01/M09 A2984 940 53 -700 320/10 RMK AO2
14837KMSN MSN20060205162010102/05/06 16:20:31  5-MIN KMSN 052220Z 33008G16KT 10SM CLR M01/M09 A2984 930 53 -700 330/08G16 RMK AO2
14837KMSN MSN20060205162509502/05/06 16:25:31  5-MIN KMSN 052225Z 34008KT 10SM CLR M01/M09 A2985 930 53 -700 330/08 RMK AO2
14837KMSN MSN20060205163009502/05/06 16:30:31  5-MIN KMSN 052230Z 33010KT 10SM CLR M01/M09 A2985 930 53 -700 330/10 RMK AO2
14837KMSN MSN20060205163509802/05/06 16:35:31  5-MIN KMSN 052235Z 33010KT 10SM FEW037 M01/M09 A2985 930 53 -700 330/10 RMK AO2
14837KMSN MSN20060205164009802/05/06 16:40:31  5-MIN KMSN 052240Z 32011KT 10SM FEW037 M01/M09 A2985 930 53 -700 320/11 RMK AO2
14837KMSN MSN20060205164509802/05/06 16:45:31  5-MIN KMSN 052245Z 33010KT 10SM FEW037 M02/M09 A2986 920 55 -800 330/10 RMK AO2
14837KMSN MSN20060205165011502/05/06 16:50:31  5-MIN KMSN 052250Z 34010KT 10SM FEW037 M02/M10 A2986 920 53 -800 330/10 RMK AO2 SLP123 T10171100
14837KMSN MSN20060205165509802/05/06 16:55:31  5-MIN KMSN 052255Z 32007KT 10SM FEW037 M02/M10 A2986 920 53 -800 320/07 RMK AO2
14837KMSN MSN20060205170009802/05/06 17:00:31  5-MIN KMSN 052300Z 32008KT 10SM FEW037 M02/M10 A2986 920 53 -800 320/08 RMK AO2
14837KMSN MSN20060205170509502/05/06 17:05:31  5-MIN KMSN 052305Z 31006KT 10SM CLR M02/M09 A2986 920 58 -900 310/06 RMK AO2
14837KMSN MSN20060205171009502/05/06 17:10:31  5-MIN KMSN 052310Z 30007KT 10SM CLR M02/M09 A2987 910 58 -900 300/07 RMK AO2
14837KMSN MSN20060205171509502/05/06 17:15:31  5-MIN KMSN 052315Z 30006KT 10SM CLR M02/M09 A2987 910 60 -900 300/06 RMK AO2
14837KMSN MSN20060205172009502/05/06 17:20:31  5-MIN KMSN 052320Z 31008KT 10SM CLR M02/M09 A2987 910 58 -900 310/08 RMK AO2
14837KMSN MSN20060205172509502/05/06 17:25:31  5-MIN KMSN 052325Z 32006KT 10SM CLR M02/M09 A2987 910 58 -900 320/06 RMK AO2
14837KMSN MSN20060205173009502/05/06 17:30:31  5-MIN KMSN 052330Z 31007KT 10SM CLR M02/M09 A2987 910 58 -900 310/07 RMK AO2
14837KMSN MSN20060205173509502/05/06 17:35:31  5-MIN KMSN 052335Z 31006KT 10SM CLR M02/M09 A2988 900 58 -900 310/06 RMK AO2
14837KMSN MSN20060205174009602/05/06 17:40:31  5-MIN KMSN 052340Z 31005KT 10SM CLR M03/M09 A2988 900 60 -1000 310/05 RMK AO2
14837KMSN MSN20060205174509602/05/06 17:45:31  5-MIN KMSN 052345Z 31004KT 10SM CLR M03/M09 A2988 900 60 -1000 310/04 RMK AO2
14837KMSN MSN20060205175013102/05/06 17:50:31  5-MIN KMSN 052350Z 31004KT 10SM CLR M03/M09 A2988 900 60 -1000 310/04 RMK AO2 SLP132 T10281094 11006 21028 53005
14837KMSN MSN20060205175509602/05/06 17:55:31  5-MIN KMSN 052355Z 32004KT 10SM CLR M03/M09 A2988 900 60 -1000 310/04 RMK AO2
14837KMSN MSN20060205180009602/05/06 18:00:31  5-MIN KMSN 060000Z 31005KT 10SM CLR M03/M09 A2989 900 60 -1000 310/05 RMK AO2
14837KMSN MSN20060205180509602/05/06 18:05:31  5-MIN KMSN 060005Z 31006KT 10SM CLR M03/M09 A2989 890 60 -1000 310/06 RMK AO2
14837KMSN MSN20060205181009602/05/06 18:10:31  5-MIN KMSN 060010Z 31006KT 10SM CLR M03/M09 A2989 890 63 -1100 310/06 RMK AO2
14837KMSN MSN20060205181509602/05/06 18:15:31  5-MIN KMSN 060015Z 31006KT 10SM CLR M03/M09 A2989 890 63 -1100 310/06 RMK AO2
14837KMSN MSN20060205182009602/05/06 18:20:31  5-MIN KMSN 060020Z 31006KT 10SM CLR M03/M09 A2990 890 60 -1000 310/06 RMK AO2
14837KMSN MSN20060205182509602/05/06 18:25:31  5-MIN KMSN 060025Z 31006KT 10SM CLR M03/M09 A2990 890 60 -1000 310/06 RMK AO2
14837KMSN MSN20060205183009602/05/06 18:30:31  5-MIN KMSN 060030Z 31007KT 10SM CLR M03/M09 A2990 890 63 -1100 310/07 RMK AO2
14837KMSN MSN20060205183509602/05/06 18:35:31  5-MIN KMSN 060035Z 32007KT 10SM CLR M03/M09 A2990 880 60 -1000 320/07 RMK AO2
14837KMSN MSN20060205184009602/05/06 18:40:31  5-MIN KMSN 060040Z 32008KT 10SM CLR M03/M09 A2990 880 63 -1100 320/08 RMK AO2
14837KMSN MSN20060205184509602/05/06 18:45:31  5-MIN KMSN 060045Z 31007KT 10SM CLR M03/M09 A2990 880 63 -1100 310/07 RMK AO2
14837KMSN MSN20060205185011302/05/06 18:50:31  5-MIN KMSN 060050Z 32006KT 10SM CLR M03/M09 A2990 880 60 -1000 310/06 RMK AO2 SLP140 T10281094
14837KMSN MSN20060205185509602/05/06 18:55:31  5-MIN KMSN 060055Z 32006KT 10SM CLR M03/M09 A2991 880 63 -1100 320/06 RMK AO2
14837KMSN MSN20060205190009602/05/06 19:00:31  5-MIN KMSN 060100Z 31005KT 10SM CLR M03/M09 A2991 880 63 -1100 310/05 RMK AO2
14837KMSN MSN20060205190509602/05/06 19:05:31  5-MIN KMSN 060105Z 31005KT 10SM CLR M03/M09 A2991 870 63 -1100 310/05 RMK AO2
14837KMSN MSN20060205191009602/05/06 19:10:31  5-MIN KMSN 060110Z 31005KT 10SM CLR M03/M09 A2991 870 63 -1100 310/05 RMK AO2
14837KMSN MSN20060205191509602/05/06 19:15:31  5-MIN KMSN 060115Z 30005KT 10SM CLR M04/M09 A2991 870 65 -1200 300/05 RMK AO2
14837KMSN MSN20060205192009602/05/06 19:20:31  5-MIN KMSN 060120Z 30004KT 10SM CLR M04/M09 A2991 870 65 -1200 300/04 RMK AO2
14837KMSN MSN20060205192509602/05/06 19:25:31  5-MIN KMSN 060125Z 30004KT 10SM CLR M04/M09 A2991 870 65 -1200 300/04 RMK AO2
14837KMSN MSN20060205193009602/05/06 19:30:31  5-MIN KMSN 060130Z 30004KT 10SM CLR M04/M09 A2991 870 65 -1200 300/04 RMK AO2
14837KMSN MSN20060205193509602/05/06 19:35:31  5-MIN KMSN 060135Z 31005KT 10SM CLR M04/M09 A2991 870 65 -1200 310/05 RMK AO2
14837KMSN MSN20060205194009602/05/06 19:40:31  5-MIN KMSN 060140Z 32007KT 10SM CLR M04/M09 A2992 870 65 -1200 320/07 RMK AO2
14837KMSN MSN20060205194509602/05/06 19:45:31  5-MIN KMSN 060145Z 31006KT 10SM CLR M04/M09 A2992 870 65 -1200 310/06 RMK AO2
14837KMSN MSN20060205195011302/05/06 19:50:31  5-MIN KMSN 060150Z 31006KT 10SM CLR M04/M09 A2992 860 65 -1200 310/06 RMK AO2 SLP145 T10391094
14837KMSN MSN20060205195509602/05/06 19:55:31  5-MIN KMSN 060155Z 31007KT 10SM CLR M04/M09 A2992 860 65 -1200 310/07 RMK AO2
14837KMSN MSN20060205200009602/05/06 20:00:31  5-MIN KMSN 060200Z 31006KT 10SM CLR M04/M09 A2992 860 65 -1200 310/06 RMK AO2
14837KMSN MSN20060205200509602/05/06 20:05:31  5-MIN KMSN 060205Z 31007KT 10SM CLR M04/M09 A2992 860 65 -1200 310/07 RMK AO2
14837KMSN MSN20060205201009602/05/06 20:10:31  5-MIN KMSN 060210Z 31006KT 10SM CLR M04/M09 A2992 860 65 -1200 310/06 RMK AO2
14837KMSN MSN20060205201509602/05/06 20:15:31  5-MIN KMSN 060215Z 31006KT 10SM CLR M04/M09 A2993 860 65 -1200 310/06 RMK AO2
14837KMSN MSN20060205202009602/05/06 20:20:31  5-MIN KMSN 060220Z 30005KT 10SM CLR M04/M09 A2993 860 65 -1200 290/05 RMK AO2
14837KMSN MSN20060205202509602/05/06 20:25:31  5-MIN KMSN 060225Z 31006KT 10SM CLR M04/M09 A2993 850 65 -1200 300/06 RMK AO2
14837KMSN MSN20060205203009602/05/06 20:30:31  5-MIN KMSN 060230Z 30005KT 10SM CLR M04/M09 A2993 850 65 -1200 300/05 RMK AO2
14837KMSN MSN20060205203509602/05/06 20:35:31  5-MIN KMSN 060235Z 29004KT 10SM CLR M04/M09 A2994 850 65 -1200 290/04 RMK AO2
14837KMSN MSN20060205204009602/05/06 20:40:31  5-MIN KMSN 060240Z 28004KT 10SM CLR M04/M09 A2994 850 68 -1300 280/04 RMK AO2
14837KMSN MSN20060205204509602/05/06 20:45:31  5-MIN KMSN 060245Z 27005KT 10SM CLR M05/M09 A2994 850 71 -1300 270/05 RMK AO2
14837KMSN MSN20060205205011902/05/06 20:50:31  5-MIN KMSN 060250Z 29005KT 10SM CLR M04/M09 A2994 850 68 -1300 290/05 RMK AO2 SLP151 T10441094 53019
14837KMSN MSN20060205205509602/05/06 20:55:31  5-MIN KMSN 060255Z 29007KT 10SM CLR M04/M09 A2994 850 68 -1300 290/07 RMK AO2
14837KMSN MSN20060205210009602/05/06 21:00:31  5-MIN KMSN 060300Z 29007KT 10SM CLR M04/M09 A2994 850 68 -1300 290/07 RMK AO2
14837KMSN MSN20060205210509602/05/06 21:05:31  5-MIN KMSN 060305Z 29007KT 10SM CLR M04/M09 A2994 850 68 -1300 290/07 RMK AO2
14837KMSN MSN20060205211009602/05/06 21:10:31  5-MIN KMSN 060310Z 30007KT 10SM CLR M04/M09 A2994 850 68 -1300 290/07 RMK AO2
14837KMSN MSN20060205211509602/05/06 21:15:31  5-MIN KMSN 060315Z 29007KT 10SM CLR M04/M09 A2994 840 68 -1300 290/07 RMK AO2
14837KMSN MSN20060205212009602/05/06 21:20:31  5-MIN KMSN 060320Z 30006KT 10SM CLR M04/M09 A2994 840 68 -1300 300/06 RMK AO2
14837KMSN MSN20060205212509602/05/06 21:25:31  5-MIN KMSN 060325Z 30006KT 10SM CLR M04/M09 A2994 840 68 -1300 300/06 RMK AO2
14837KMSN MSN20060205213009602/05/06 21:30:31  5-MIN KMSN 060330Z 29006KT 10SM CLR M05/M09 A2994 840 71 -1300 290/06 RMK AO2
14837KMSN MSN20060205213509602/05/06 21:35:31  5-MIN KMSN 060335Z 30008KT 10SM CLR M05/M10 A2994 840 68 -1300 300/08 RMK AO2
14837KMSN MSN20060205214009602/05/06 21:40:31  5-MIN KMSN 060340Z 29006KT 10SM CLR M05/M10 A2994 840 68 -1300 290/06 RMK AO2
14837KMSN MSN20060205214509602/05/06 21:45:31  5-MIN KMSN 060345Z 30007KT 10SM CLR M05/M10 A2995 840 68 -1300 300/07 RMK AO2
14837KMSN MSN20060205215011302/05/06 21:50:31  5-MIN KMSN 060350Z 29007KT 10SM CLR M05/M10 A2995 840 68 -1300 290/07 RMK AO2 SLP154 T10501100
14837KMSN MSN20060205215509602/05/06 21:55:31  5-MIN KMSN 060355Z 30006KT 10SM CLR M05/M10 A2995 840 68 -1300 300/06 RMK AO2
14837KMSN MSN20060205220009602/05/06 22:00:31  5-MIN KMSN 060400Z 29007KT 10SM CLR M05/M10 A2995 840 68 -1300 290/07 RMK AO2
14837KMSN MSN20060205220509602/05/06 22:05:31  5-MIN KMSN 060405Z 29007KT 10SM CLR M05/M10 A2995 840 68 -1300 290/07 RMK AO2
14837KMSN MSN20060205221009602/05/06 22:10:31  5-MIN KMSN 060410Z 30006KT 10SM CLR M05/M10 A2995 840 68 -1300 300/06 RMK AO2
14837KMSN MSN20060205221509602/05/06 22:15:31  5-MIN KMSN 060415Z 29006KT 10SM CLR M06/M10 A2995 840 71 -1400 290/06 RMK AO2
14837KMSN MSN20060205222009602/05/06 22:20:31  5-MIN KMSN 060420Z 30008KT 10SM CLR M05/M10 A2995 840 68 -1300 290/08 RMK AO2
14837KMSN MSN20060205222509602/05/06 22:25:31  5-MIN KMSN 060425Z 29006KT 10SM CLR M05/M10 A2995 840 68 -1300 290/06 RMK AO2
14837KMSN MSN20060205223009602/05/06 22:30:31  5-MIN KMSN 060430Z 28006KT 10SM CLR M05/M10 A2995 840 68 -1300 280/06 RMK AO2
14837KMSN MSN20060205223509602/05/06 22:35:31  5-MIN KMSN 060435Z 29007KT 10SM CLR M05/M10 A2995 840 68 -1300 290/07 RMK AO2
14837KMSN MSN20060205224009602/05/06 22:40:31  5-MIN KMSN 060440Z 29006KT 10SM CLR M06/M10 A2995 840 71 -1400 290/06 RMK AO2
14837KMSN MSN20060205224509602/05/06 22:45:31  5-MIN KMSN 060445Z 29005KT 10SM CLR M06/M11 A2995 840 68 -1400 290/05 RMK AO2
14837KMSN MSN20060205225011302/05/06 22:50:31  5-MIN KMSN 060450Z 28007KT 10SM CLR M06/M11 A2995 840 68 -1400 280/07 RMK AO2 SLP155 T10561106
14837KMSN MSN20060205225509602/05/06 22:55:31  5-MIN KMSN 060455Z 30005KT 10SM CLR M06/M11 A2995 840 68 -1400 290/05 RMK AO2
14837KMSN MSN20060205230009602/05/06 23:00:31  5-MIN KMSN 060500Z 29006KT 10SM CLR M06/M11 A2995 830 68 -1400 290/06 RMK AO2
14837KMSN MSN20060205230509602/05/06 23:05:31  5-MIN KMSN 060505Z 29005KT 10SM CLR M06/M11 A2995 830 68 -1400 290/05 RMK AO2
14837KMSN MSN20060205231009602/05/06 23:10:31  5-MIN KMSN 060510Z 28005KT 10SM CLR M06/M11 A2995 830 68 -1400 280/05 RMK AO2
14837KMSN MSN20060205231509602/05/06 23:15:31  5-MIN KMSN 060515Z 28004KT 10SM CLR M06/M11 A2995 830 65 -1400 280/04 RMK AO2
14837KMSN MSN20060205232009602/05/06 23:20:31  5-MIN KMSN 060520Z 29006KT 10SM CLR M06/M11 A2996 830 65 -1400 290/06 RMK AO2
14837KMSN MSN20060205232509602/05/06 23:25:31  5-MIN KMSN 060525Z 29005KT 10SM CLR M06/M11 A2996 830 68 -1500 280/05 RMK AO2
14837KMSN MSN20060205233009602/05/06 23:30:31  5-MIN KMSN 060530Z 29005KT 10SM CLR M06/M11 A2996 830 68 -1500 280/05 RMK AO2
14837KMSN MSN20060205233509602/05/06 23:35:31  5-MIN KMSN 060535Z 28004KT 10SM CLR M06/M11 A2996 830 68 -1500 280/04 RMK AO2
14837KMSN MSN20060205234009602/05/06 23:40:31  5-MIN KMSN 060540Z 28006KT 10SM CLR M06/M11 A2996 830 68 -1500 280/06 RMK AO2
14837KMSN MSN20060205234509602/05/06 23:45:31  5-MIN KMSN 060545Z 29005KT 10SM CLR M06/M11 A2996 830 68 -1500 290/05 RMK AO2
14837KMSN MSN20060205235014102/05/06 23:50:31  5-MIN KMSN 060550Z 29004KT 10SM CLR M06/M12 A2996 830 65 -1500 290/04 RMK AO2 SLP158 T10611117 11028 21061 410061078 51018
14837KMSN MSN20060205235509602/05/06 23:55:31  5-MIN KMSN 060555Z 28005KT 10SM CLR M06/M12 A2996 830 65 -1500 280/05 RMK AO2
14837KMSN MSN20060206000009602/06/06 00:00:38  5-MIN KMSN 060600Z 28005KT 10SM CLR M06/M12 A2996 830 65 -1500 280/05 RMK AO2
14837KMSN MSN20060206000509602/06/06 00:05:31  5-MIN KMSN 060605Z VRB05KT 10SM CLR M06/M12 A2996 830 65 -1500 VRB/05 RMK AO2
14837KMSN MSN20060206001009602/06/06 00:10:31  5-MIN KMSN 060610Z 28006KT 10SM CLR M07/M12 A2996 830 68 -1600 280/06 RMK AO2
14837KMSN MSN20060206001509602/06/06 00:15:33  5-MIN KMSN 060615Z 28006KT 10SM CLR M07/M12 A2996 830 68 -1600 280/06 RMK AO2
14837KMSN MSN20060206002009602/06/06 00:20:31  5-MIN KMSN 060620Z 29006KT 10SM CLR M06/M12 A2996 830 65 -1500 290/06 RMK AO2
14837KMSN MSN20060206002509602/06/06 00:25:31  5-MIN KMSN 060625Z 28006KT 10SM CLR M07/M12 A2996 830 68 -1600 280/06 RMK AO2
14837KMSN MSN20060206003009602/06/06 00:30:31  5-MIN KMSN 060630Z 29007KT 10SM CLR M07/M12 A2996 830 68 -1600 290/07 RMK AO2
14837KMSN MSN20060206003509602/06/06 00:35:31  5-MIN KMSN 060635Z 29006KT 10SM CLR M07/M12 A2996 830 65 -1600 290/06 RMK AO2
14837KMSN MSN20060206004009602/06/06 00:40:31  5-MIN KMSN 060640Z 29006KT 10SM CLR M07/M12 A2996 830 65 -1600 290/06 RMK AO2
14837KMSN MSN20060206004509602/06/06 00:45:31  5-MIN KMSN 060645Z 29006KT 10SM CLR M07/M12 A2996 830 65 -1600 290/06 RMK AO2
14837KMSN MSN20060206005011302/06/06 00:50:31  5-MIN KMSN 060650Z 29006KT 10SM CLR M07/M12 A2996 830 65 -1600 290/06 RMK AO2 SLP157 T10671122
14837KMSN MSN20060206005509602/06/06 00:55:31  5-MIN KMSN 060655Z 28006KT 10SM CLR M07/M13 A2995 830 62 -1600 280/06 RMK AO2
14837KMSN MSN20060206010009602/06/06 01:00:31  5-MIN KMSN 060700Z 29006KT 10SM CLR M07/M13 A2995 830 62 -1600 290/06 RMK AO2
14837KMSN MSN20060206010509602/06/06 01:05:31  5-MIN KMSN 060705Z 28006KT 10SM CLR M07/M13 A2995 830 62 -1600 280/06 RMK AO2
14837KMSN MSN20060206011009602/06/06 01:10:31  5-MIN KMSN 060710Z 28007KT 10SM CLR M07/M13 A2995 830 62 -1600 280/07 RMK AO2
14837KMSN MSN20060206011509602/06/06 01:15:31  5-MIN KMSN 060715Z 28006KT 10SM CLR M07/M13 A2995 830 62 -1600 280/06 RMK AO2
14837KMSN MSN20060206012009602/06/06 01:20:31  5-MIN KMSN 060720Z 28006KT 10SM CLR M07/M13 A2995 830 62 -1600 280/06 RMK AO2
14837KMSN MSN20060206012509602/06/06 01:25:31  5-MIN KMSN 060725Z 28006KT 10SM CLR M07/M13 A2995 830 59 -1600 280/06 RMK AO2
14837KMSN MSN20060206013009602/06/06 01:30:31  5-MIN KMSN 060730Z 29006KT 10SM CLR M07/M13 A2995 830 59 -1600 290/06 RMK AO2
14837KMSN MSN20060206013509602/06/06 01:35:31  5-MIN KMSN 060735Z 29008KT 10SM CLR M07/M13 A2996 830 59 -1600 290/08 RMK AO2
14837KMSN MSN20060206014009602/06/06 01:40:31  5-MIN KMSN 060740Z 29006KT 10SM CLR M07/M13 A2996 830 59 -1600 290/06 RMK AO2
14837KMSN MSN20060206014509602/06/06 01:45:31  5-MIN KMSN 060745Z 29005KT 10SM CLR M07/M13 A2996 830 59 -1600 290/05 RMK AO2
14837KMSN MSN20060206015011302/06/06 01:50:31  5-MIN KMSN 060750Z 30007KT 10SM CLR M07/M14 A2996 830 57 -1600 300/07 RMK AO2 SLP158 T10671139
14837KMSN MSN20060206015509602/06/06 01:55:31  5-MIN KMSN 060755Z 30006KT 10SM CLR M07/M14 A2996 830 57 -1600 300/06 RMK AO2
14837KMSN MSN20060206020009602/06/06 02:00:31  5-MIN KMSN 060800Z 29005KT 10SM CLR M07/M14 A2996 820 59 -1600 290/05 RMK AO2
14837KMSN MSN20060206020509602/06/06 02:05:31  5-MIN KMSN 060805Z 29006KT 10SM CLR M07/M14 A2996 820 59 -1600 290/06 RMK AO2
14837KMSN MSN20060206021009602/06/06 02:10:31  5-MIN KMSN 060810Z 29007KT 10SM CLR M07/M14 A2996 830 59 -1600 290/07 RMK AO2
14837KMSN MSN20060206021509602/06/06 02:15:31  5-MIN KMSN 060815Z 29007KT 10SM CLR M07/M14 A2996 820 59 -1600 290/07 RMK AO2
14837KMSN MSN20060206022009602/06/06 02:20:31  5-MIN KMSN 060820Z 29007KT 10SM CLR M07/M14 A2996 820 59 -1600 290/07 RMK AO2
14837KMSN MSN20060206022509602/06/06 02:25:31  5-MIN KMSN 060825Z 29007KT 10SM CLR M07/M14 A2996 820 59 -1600 290/07 RMK AO2
14837KMSN MSN20060206023009602/06/06 02:30:31  5-MIN KMSN 060830Z 29007KT 10SM CLR M07/M14 A2996 820 56 -1600 290/07 RMK AO2
14837KMSN MSN20060206023509602/06/06 02:35:31  5-MIN KMSN 060835Z 29007KT 10SM CLR M07/M14 A2996 820 56 -1600 290/07 RMK AO2
14837KMSN MSN20060206024009602/06/06 02:40:31  5-MIN KMSN 060840Z 29008KT 10SM CLR M07/M14 A2996 830 56 -1600 290/08 RMK AO2
14837KMSN MSN20060206024509602/06/06 02:45:31  5-MIN KMSN 060845Z 30007KT 10SM CLR M07/M14 A2997 820 56 -1600 300/07 RMK AO2
14837KMSN MSN20060206025011902/06/06 02:50:31  5-MIN KMSN 060850Z 31006KT 10SM CLR M07/M14 A2997 820 56 -1600 310/06 RMK AO2 SLP160 T10721144 51006
14837KMSN MSN20060206025509602/06/06 02:55:31  5-MIN KMSN 060855Z 30006KT 10SM CLR M08/M15 A2997 820 56 -1700 300/06 RMK AO2
14837KMSN MSN20060206030009602/06/06 03:00:31  5-MIN KMSN 060900Z 31006KT 10SM CLR M07/M15 A2997 820 54 -1600 310/06 RMK AO2
14837KMSN MSN20060206030509602/06/06 03:05:31  5-MIN KMSN 060905Z 31007KT 10SM CLR M08/M15 A2997 820 56 -1700 310/07 RMK AO2
14837KMSN MSN20060206031009602/06/06 03:10:31  5-MIN KMSN 060910Z 30006KT 10SM CLR M07/M16 A2997 820 52 -1600 300/06 RMK AO2
14837KMSN MSN20060206031509602/06/06 03:15:31  5-MIN KMSN 060915Z 30006KT 10SM CLR M07/M16 A2997 820 52 -1600 300/06 RMK AO2
14837KMSN MSN20060206032009602/06/06 03:20:31  5-MIN KMSN 060920Z 29008KT 10SM CLR M07/M16 A2997 820 52 -1600 290/08 RMK AO2
14837KMSN MSN20060206032509602/06/06 03:25:31  5-MIN KMSN 060925Z VRB06KT 10SM CLR M07/M16 A2997 820 52 -1600 VRB/06 RMK AO2
14837KMSN MSN20060206033009602/06/06 03:30:31  5-MIN KMSN 060930Z 28007KT 10SM CLR M07/M16 A2997 820 52 -1600 280/07 RMK AO2
14837KMSN MSN20060206033509602/06/06 03:35:31  5-MIN KMSN 060935Z 29006KT 10SM CLR M08/M16 A2997 820 51 -1700 290/06 RMK AO2
14837KMSN MSN20060206034009602/06/06 03:40:31  5-MIN KMSN 060940Z 28006KT 10SM CLR M08/M16 A2996 830 51 -1700 280/06 RMK AO2
14837KMSN MSN20060206034509602/06/06 03:45:31  5-MIN KMSN 060945Z 29006KT 10SM CLR M08/M16 A2996 820 51 -1700 290/06 RMK AO2
14837KMSN MSN20060206035011302/06/06 03:50:31  5-MIN KMSN 060950Z 28006KT 10SM CLR M07/M16 A2997 820 49 -1600 280/06 RMK AO2 SLP160 T10721161
14837KMSN MSN20060206035509602/06/06 03:55:31  5-MIN KMSN 060955Z VRB06KT 10SM CLR M08/M16 A2996 820 51 -1700 VRB/06 RMK AO2
14837KMSN MSN20060206040009602/06/06 04:00:31  5-MIN KMSN 061000Z VRB04KT 10SM CLR M08/M16 A2996 820 51 -1700 VRB/04 RMK AO2
14837KMSN MSN20060206040509602/06/06 04:05:31  5-MIN KMSN 061005Z VRB03KT 10SM CLR M08/M17 A2997 820 49 -1700 VRB/03 RMK AO2
14837KMSN MSN20060206041009602/06/06 04:10:31  5-MIN KMSN 061010Z 31006KT 10SM CLR M08/M17 A2997 820 49 -1700 310/06 RMK AO2
14837KMSN MSN20060206041509602/06/06 04:15:31  5-MIN KMSN 061015Z 33005KT 10SM CLR M08/M17 A2998 810 49 -1700 330/05 RMK AO2
14837KMSN MSN20060206042009602/06/06 04:20:31  5-MIN KMSN 061020Z 31005KT 10SM CLR M08/M17 A2998 810 49 -1700 310/05 RMK AO2
14837KMSN MSN20060206042509602/06/06 04:25:31  5-MIN KMSN 061025Z VRB04KT 10SM CLR M08/M17 A2997 810 49 -1700 VRB/04 RMK AO2
14837KMSN MSN20060206043009602/06/06 04:30:31  5-MIN KMSN 061030Z 31006KT 10SM CLR M08/M17 A2998 810 51 -1800 310/06 RMK AO2
14837KMSN MSN20060206043509602/06/06 04:35:31  5-MIN KMSN 061035Z 30007KT 10SM CLR M08/M17 A2998 810 51 -1800 300/07 RMK AO2
14837KMSN MSN20060206044009602/06/06 04:40:31  5-MIN KMSN 061040Z 30006KT 10SM CLR M08/M17 A2998 810 49 -1700 300/06 RMK AO2
14837KMSN MSN20060206044509602/06/06 04:45:31  5-MIN KMSN 061045Z 29007KT 10SM CLR M08/M17 A2998 810 49 -1700 290/07 RMK AO2
14837KMSN MSN20060206045011302/06/06 04:50:31  5-MIN KMSN 061050Z 29005KT 10SM CLR M08/M17 A2998 810 49 -1700 290/05 RMK AO2 SLP165 T10781167
14837KMSN MSN20060206045509602/06/06 04:55:31  5-MIN KMSN 061055Z 29005KT 10SM CLR M08/M17 A2998 810 51 -1800 290/05 RMK AO2
14837KMSN MSN20060206050009602/06/06 05:00:31  5-MIN KMSN 061100Z 29007KT 10SM CLR M08/M17 A2998 810 51 -1800 290/07 RMK AO2
14837KMSN MSN20060206050509602/06/06 05:05:31  5-MIN KMSN 061105Z 30004KT 10SM CLR M08/M17 A2999 800 51 -1800 300/04 RMK AO2
14837KMSN MSN20060206051009602/06/06 05:10:31  5-MIN KMSN 061110Z 30005KT 10SM CLR M08/M17 A2999 800 51 -1800 300/05 RMK AO2
14837KMSN MSN20060206051509602/06/06 05:15:31  5-MIN KMSN 061115Z VRB04KT 10SM CLR M08/M17 A2998 800 51 -1800 VRB/04 RMK AO2
14837KMSN MSN20060206052009602/06/06 05:20:31  5-MIN KMSN 061120Z 30004KT 10SM CLR M08/M17 A2999 800 51 -1800 300/04 RMK AO2
14837KMSN MSN20060206052509602/06/06 05:25:31  5-MIN KMSN 061125Z 28004KT 10SM CLR M08/M17 A2998 810 49 -1800 280/04 RMK AO2
14837KMSN MSN20060206053009602/06/06 05:30:31  5-MIN KMSN 061130Z 28004KT 10SM CLR M08/M17 A2998 800 51 -1800 280/04 RMK AO2
14837KMSN MSN20060206053509602/06/06 05:35:31  5-MIN KMSN 061135Z 31005KT 10SM CLR M08/M17 A2999 800 51 -1800 300/05 RMK AO2
14837KMSN MSN20060206054009602/06/06 05:40:31  5-MIN KMSN 061140Z 29006KT 10SM CLR M09/M17 A2998 810 54 -1900 290/06 RMK AO2
14837KMSN MSN20060206054509602/06/06 05:45:31  5-MIN KMSN 061145Z 28005KT 10SM CLR M09/M17 A2998 810 54 -1900 280/05 RMK AO2
14837KMSN MSN20060206055013102/06/06 05:50:31  5-MIN KMSN 061150Z VRB05KT 10SM CLR M09/M17 A2998 810 54 -1900 VRB/05 RMK AO2 SLP167 T10891167 11061 21089 53003
14837KMSN MSN20060206055509602/06/06 05:55:31  5-MIN KMSN 061155Z 28005KT 10SM CLR M09/M17 A2998 810 54 -1900 270/05 RMK AO2
14837KMSN MSN20060206060009602/06/06 06:00:31  5-MIN KMSN 061200Z VRB04KT 10SM CLR M09/M17 A2998 810 54 -1900 VRB/04 RMK AO2
14837KMSN MSN20060206060509602/06/06 06:05:31  5-MIN KMSN 061205Z 28006KT 10SM CLR M09/M17 A2998 810 54 -1900 280/06 RMK AO2
14837KMSN MSN20060206061009602/06/06 06:10:31  5-MIN KMSN 061210Z VRB05KT 10SM CLR M09/M17 A2998 810 54 -1900 VRB/05 RMK AO2
14837KMSN MSN20060206061509602/06/06 06:15:31  5-MIN KMSN 061215Z 26004KT 10SM CLR M09/M17 A2998 810 54 -1900 260/04 RMK AO2
14837KMSN MSN20060206062009602/06/06 06:20:31  5-MIN KMSN 061220Z VRB04KT 10SM CLR M09/M17 A2998 810 54 -1900 VRB/04 RMK AO2
14837KMSN MSN20060206062509602/06/06 06:25:31  5-MIN KMSN 061225Z VRB03KT 10SM CLR M09/M17 A2999 800 54 -1900 VRB/03 RMK AO2
14837KMSN MSN20060206063009602/06/06 06:30:31  5-MIN KMSN 061230Z VRB06KT 10SM CLR M09/M17 A2999 800 54 -1900 VRB/06 RMK AO2
14837KMSN MSN20060206063509602/06/06 06:35:31  5-MIN KMSN 061235Z VRB04KT 10SM CLR M09/M17 A2999 800 54 -1900 VRB/04 RMK AO2
14837KMSN MSN20060206064009602/06/06 06:40:31  5-MIN KMSN 061240Z VRB03KT 10SM CLR M09/M17 A3000 790 51 -1900 VRB/03 RMK AO2
14837KMSN MSN20060206064509602/06/06 06:45:31  5-MIN KMSN 061245Z 27003KT 10SM CLR M09/M17 A3000 790 54 -1900 270/03 RMK AO2
14837KMSN MSN20060206065011302/06/06 06:50:31  5-MIN KMSN 061250Z 29007KT 10SM CLR M09/M17 A3000 790 54 -1900 290/07 RMK AO2 SLP171 T10891167
14837KMSN MSN20060206065509602/06/06 06:55:31  5-MIN KMSN 061255Z 30007KT 10SM CLR M09/M17 A3000 790 51 -1900 290/07 RMK AO2
14837KMSN MSN20060206070009602/06/06 07:00:31  5-MIN KMSN 061300Z 30007KT 10SM CLR M09/M17 A3000 790 54 -1900 300/07 RMK AO2
14837KMSN MSN20060206070509602/06/06 07:05:31  5-MIN KMSN 061305Z 30007KT 10SM CLR M09/M17 A3000 790 54 -1900 300/07 RMK AO2
14837KMSN MSN20060206071009602/06/06 07:10:31  5-MIN KMSN 061310Z 30008KT 10SM CLR M09/M17 A3000 790 54 -1900 300/08 RMK AO2
14837KMSN MSN20060206071509602/06/06 07:15:31  5-MIN KMSN 061315Z 29008KT 10SM CLR M09/M17 A3000 790 54 -1900 290/08 RMK AO2
14837KMSN MSN20060206072009602/06/06 07:20:31  5-MIN KMSN 061320Z 30008KT 10SM CLR M09/M17 A3000 790 54 -1900 300/08 RMK AO2
14837KMSN MSN20060206072509602/06/06 07:25:31  5-MIN KMSN 061325Z 30007KT 10SM CLR M09/M17 A3000 790 54 -1900 300/07 RMK AO2
14837KMSN MSN20060206073009602/06/06 07:30:31  5-MIN KMSN 061330Z 30007KT 10SM CLR M09/M17 A3000 790 54 -1900 300/07 RMK AO2
14837KMSN MSN20060206073509602/06/06 07:35:31  5-MIN KMSN 061335Z 29008KT 10SM CLR M09/M17 A3000 790 54 -1900 280/08 RMK AO2
14837KMSN MSN20060206074009602/06/06 07:40:31  5-MIN KMSN 061340Z 29007KT 10SM CLR M09/M17 A3000 790 54 -1900 290/07 RMK AO2
14837KMSN MSN20060206074509602/06/06 07:45:31  5-MIN KMSN 061345Z VRB06KT 10SM CLR M09/M17 A3001 780 54 -1900 VRB/06 RMK AO2
14837KMSN MSN20060206075011302/06/06 07:50:31  5-MIN KMSN 061350Z VRB05KT 10SM CLR M09/M17 A3001 780 51 -1900 VRB/05 RMK AO2 SLP177 T10891172
14837KMSN MSN20060206075509602/06/06 07:55:31  5-MIN KMSN 061355Z 29006KT 10SM CLR M08/M17 A3001 780 51 -1800 290/06 RMK AO2
14837KMSN MSN20060206080009602/06/06 08:00:31  5-MIN KMSN 061400Z 29007KT 10SM CLR M08/M17 A3002 780 49 -1800 290/07 RMK AO2
14837KMSN MSN20060206080509602/06/06 08:05:31  5-MIN KMSN 061405Z VRB06KT 10SM CLR M08/M17 A3002 770 51 -1800 VRB/06 RMK AO2
14837KMSN MSN20060206081009602/06/06 08:10:31  5-MIN KMSN 061410Z 29008KT 10SM CLR M08/M17 A3002 770 49 -1900 290/08 RMK AO2
14837KMSN MSN20060206081509602/06/06 08:15:31  5-MIN KMSN 061415Z 30010KT 10SM CLR M08/M17 A3002 770 49 -1900 300/10 RMK AO2
14837KMSN MSN20060206082010202/06/06 08:20:31  5-MIN KMSN 061420Z 29009G14KT 10SM CLR M08/M17 A3002 770 47 -1800 290/09G14 RMK AO2
14837KMSN MSN20060206082510202/06/06 08:25:31  5-MIN KMSN 061425Z 30009G14KT 10SM CLR M08/M17 A3003 770 47 -1800 300/09G14 RMK AO2
14837KMSN MSN20060206083011202/06/06 08:30:31  5-MIN KMSN 061430Z 29009KT 260V330 10SM CLR M08/M17 A3003 770 47 -1800 290/09 260V330 RMK AO2
14837KMSN MSN20060206083509602/06/06 08:35:31  5-MIN KMSN 061435Z 31008KT 10SM CLR M08/M17 A3003 760 47 -1800 300/08 RMK AO2
14837KMSN MSN20060206084009602/06/06 08:40:31  5-MIN KMSN 061440Z 29008KT 10SM CLR M07/M17 A3003 760 45 -1700 290/08 RMK AO2
14837KMSN MSN20060206084510202/06/06 08:45:31  5-MIN KMSN 061445Z 31010G14KT 10SM CLR M07/M17 A3003 760 45 -1700 300/10G14 RMK AO2
14837KMSN MSN20060206085011902/06/06 08:50:31  5-MIN KMSN 061450Z 29009KT 10SM CLR M07/M17 A3003 760 45 -1700 290/09 RMK AO2 SLP183 T10721172 53005
14837KMSN MSN20060206085511202/06/06 08:55:31  5-MIN KMSN 061455Z 30009KT 260V320 10SM CLR M07/M17 A3003 760 45 -1700 300/09 260V320 RMK AO2
14837KMSN MSN20060206090009602/06/06 09:00:31  5-MIN KMSN 061500Z 31011KT 10SM CLR M07/M17 A3003 760 45 -1700 310/11 RMK AO2
14837KMSN MSN20060206090509602/06/06 09:05:31  5-MIN KMSN 061505Z 30009KT 10SM CLR M07/M17 A3003 760 47 -1700 300/09 RMK AO2
14837KMSN MSN20060206091009602/06/06 09:10:31  5-MIN KMSN 061510Z 31007KT 10SM CLR M07/M17 A3003 760 45 -1600 310/07 RMK AO2
14837KMSN MSN20060206091509602/06/06 09:15:31  5-MIN KMSN 061515Z 29009KT 10SM CLR M07/M16 A3003 760 47 -1600 290/09 RMK AO2
14837KMSN MSN20060206092011202/06/06 09:20:31  5-MIN KMSN 061520Z 30007KT 270V330 10SM CLR M07/M17 A3003 760 45 -1600 300/07 270V330 RMK AO2
14837KMSN MSN20060206092510202/06/06 09:25:31  5-MIN KMSN 061525Z 32009G16KT 10SM CLR M06/M16 A3003 760 45 -1600 310/09G16 RMK AO2
14837KMSN MSN20060206093011802/06/06 09:30:31  5-MIN KMSN 061530Z 29008G16KT 240V320 10SM CLR M06/M16 A3003 760 43 -1500 290/08G16 240V320 RMK AO2
14837KMSN MSN20060206093510202/06/06 09:35:31  5-MIN KMSN 061535Z 31010G15KT 10SM CLR M06/M16 A3003 760 45 -1600 310/10G15 RMK AO2
14837KMSN MSN20060206094010202/06/06 09:40:31  5-MIN KMSN 061540Z 31012G16KT 10SM CLR M06/M16 A3003 760 45 -1600 310/12G16 RMK AO2
14837KMSN MSN20060206094510202/06/06 09:45:31  5-MIN KMSN 061545Z 30009G16KT 10SM CLR M06/M16 A3003 760 43 -1500 300/09G16 RMK AO2
14837KMSN MSN20060206095011302/06/06 09:50:31  5-MIN KMSN 061550Z 29009KT 10SM CLR M06/M16 A3003 760 45 -1600 290/09 RMK AO2 SLP184 T10611161
14837KMSN MSN20060206095509602/06/06 09:55:31  5-MIN KMSN 061555Z 29010KT 10SM CLR M06/M16 A3004 760 43 -1500 290/10 RMK AO2
14837KMSN MSN20060206100010202/06/06 10:00:31  5-MIN KMSN 061600Z 29013G17KT 10SM CLR M06/M16 A3004 760 43 -1500 290/13G17 RMK AO2
14837KMSN MSN20060206100510202/06/06 10:05:31  5-MIN KMSN 061605Z 30013G17KT 10SM CLR M06/M17 A3004 760 41 -1500 300/13G17 RMK AO2
14837KMSN MSN20060206101009602/06/06 10:10:31  5-MIN KMSN 061610Z 30013KT 10SM CLR M06/M17 A3004 760 41 -1500 300/13 RMK AO2
14837KMSN MSN20060206101510202/06/06 10:15:31  5-MIN KMSN 061615Z 30010G17KT 10SM CLR M05/M17 A3004 760 40 -1400 300/10G17 RMK AO2
14837KMSN MSN20060206102009602/06/06 10:20:31  5-MIN KMSN 061620Z 31011KT 10SM CLR M05/M16 A3004 760 42 -1400 310/11 RMK AO2
14837KMSN MSN20060206102510202/06/06 10:25:31  5-MIN KMSN 061625Z 31010G16KT 10SM CLR M04/M16 A3004 750 40 -1400 310/10G16 RMK AO2
14837KMSN MSN20060206103009602/06/06 10:30:31  5-MIN KMSN 061630Z 29011KT 10SM CLR M04/M17 A3004 750 38 -1400 290/11 RMK AO2
14837KMSN MSN20060206103511202/06/06 10:35:31  5-MIN KMSN 061635Z 29009KT 260V320 10SM CLR M04/M17 A3004 750 38 -1400 290/09 260V320 RMK AO2
14837KMSN MSN20060206104010202/06/06 10:40:31  5-MIN KMSN 061640Z 31011G17KT 10SM CLR M04/M17 A3004 750 38 -1400 300/11G17 RMK AO2
14837KMSN MSN20060206104510202/06/06 10:45:31  5-MIN KMSN 061645Z 31012G17KT 10SM CLR M04/M17 A3004 750 36 -1400 310/12G17 RMK AO2
14837KMSN MSN20060206105011902/06/06 10:50:31  5-MIN KMSN 061650Z 29013G17KT 10SM CLR M04/M17 A3004 750 35 -1300 290/13G17 RMK AO2 SLP186 T10391172
14837KMSN MSN20060206105510202/06/06 10:55:31  5-MIN KMSN 061655Z 29012G17KT 10SM CLR M04/M17 A3004 750 35 -1300 290/12G17 RMK AO2
14837KMSN MSN20060206110011802/06/06 11:00:31  5-MIN KMSN 061700Z 30009G16KT 260V320 10SM CLR M04/M17 A3004 750 35 -1300 300/09G16 260V320 RMK AO2
14837KMSN MSN20060206110510202/06/06 11:05:31  5-MIN KMSN 061705Z 29009G17KT 10SM CLR M04/M17 A3004 760 37 -1300 290/09G17 RMK AO2
14837KMSN MSN20060206111010202/06/06 11:10:31  5-MIN KMSN 061710Z 29014G19KT 10SM CLR M04/M17 A3004 760 35 -1300 290/14G19 RMK AO2
14837KMSN MSN20060206111510202/06/06 11:15:31  5-MIN KMSN 061715Z 29012G19KT 10SM CLR M04/M17 A3003 760 35 -1300 290/12G19 RMK AO2
14837KMSN MSN20060206112010202/06/06 11:20:31  5-MIN KMSN 061720Z 30011G19KT 10SM CLR M04/M17 A3003 760 37 -1300 290/11G19 RMK AO2
14837KMSN MSN20060206112510202/06/06 11:25:31  5-MIN KMSN 061725Z 29011G19KT 10SM CLR M03/M17 A3003 760 35 -1200 290/11G19 RMK AO2
14837KMSN MSN20060206113010202/06/06 11:30:31  5-MIN KMSN 061730Z 30015G22KT 10SM CLR M03/M17 A3003 760 35 -1200 300/15G22 RMK AO2
14837KMSN MSN20060206113510202/06/06 11:35:31  5-MIN KMSN 061735Z 30016G22KT 10SM CLR M03/M17 A3003 760 35 -1200 300/16G22 RMK AO2
14837KMSN MSN20060206114010202/06/06 11:40:31  5-MIN KMSN 061740Z 30014G21KT 10SM CLR M03/M17 A3003 760 35 -1200 290/14G21 RMK AO2
14837KMSN MSN20060206114510202/06/06 11:45:31  5-MIN KMSN 061745Z 31014G20KT 10SM CLR M03/M16 A3003 760 35 -1100 310/14G20 RMK AO2
14837KMSN MSN20060206115013702/06/06 11:50:31  5-MIN KMSN 061750Z 29013G19KT 10SM CLR M03/M16 A3003 760 35 -1100 290/13G19 RMK AO2 SLP182 T10281161 11028 21089 53016
14837KMSN MSN20060206115510202/06/06 11:55:31  5-MIN KMSN 061755Z 30013G19KT 10SM CLR M03/M16 A3003 760 35 -1100 300/13G19 RMK AO2
14837KMSN MSN20060206120010202/06/06 12:00:31  5-MIN KMSN 061800Z 30010G19KT 10SM CLR M02/M15 A3003 760 37 -1100 300/10G19 RMK AO2
14837KMSN MSN20060206120510202/06/06 12:05:31  5-MIN KMSN 061805Z 30012G17KT 10SM CLR M02/M16 A3003 760 35 -1100 300/12G17 RMK AO2
14837KMSN MSN20060206121010202/06/06 12:10:31  5-MIN KMSN 061810Z 31013G19KT 10SM CLR M02/M16 A3003 760 35 -1100 310/13G19 RMK AO2
14837KMSN MSN20060206121510202/06/06 12:15:31  5-MIN KMSN 061815Z 31012G19KT 10SM CLR M02/M15 A3003 760 35 -1000 310/12G19 RMK AO2
14837KMSN MSN20060206122010202/06/06 12:20:31  5-MIN KMSN 061820Z 30014G20KT 10SM CLR M02/M15 A3003 760 37 -1100 300/14G20 RMK AO2
14837KMSN MSN20060206122510202/06/06 12:25:31  5-MIN KMSN 061825Z 30011G21KT 10SM CLR M02/M15 A3003 760 35 -1000 290/11G21 RMK AO2
14837KMSN MSN20060206123010202/06/06 12:30:31  5-MIN KMSN 061830Z 30015G21KT 10SM CLR M02/M14 A3003 770 37 -1000 300/15G21 RMK AO2
14837KMSN MSN20060206123510202/06/06 12:35:31  5-MIN KMSN 061835Z 29013G21KT 10SM CLR M02/M15 A3003 770 35 -1000 290/13G21 RMK AO2
14837KMSN MSN20060206124010202/06/06 12:40:31  5-MIN KMSN 061840Z 30012G19KT 10SM CLR M02/M14 A3003 770 37 -1000 300/12G19 RMK AO2
14837KMSN MSN20060206124510202/06/06 12:45:31  5-MIN KMSN 061845Z 30015G20KT 10SM CLR M02/M14 A3003 760 37 -1000 300/15G20 RMK AO2
14837KMSN MSN20060206125011902/06/06 12:50:31  5-MIN KMSN 061850Z 29013G20KT 10SM CLR M02/M15 A3003 760 35 -1000 290/13G20 RMK AO2 SLP182 T10171150
14837KMSN MSN20060206125510102/06/06 12:55:31  5-MIN KMSN 061855Z 31012G21KT 10SM CLR M01/M14 A3003 770 36 -900 310/12G21 RMK AO2
14837KMSN MSN20060206130010102/06/06 13:00:31  5-MIN KMSN 061900Z 30016G22KT 10SM CLR M01/M14 A3003 770 36 -900 300/16G22 RMK AO2
14837KMSN MSN20060206130510202/06/06 13:05:31  5-MIN KMSN 061905Z 31015G22KT 10SM CLR M02/M15 A3003 770 35 -1000 310/15G22 RMK AO2
14837KMSN MSN20060206131010102/06/06 13:10:31  5-MIN KMSN 061910Z 30015G22KT 10SM CLR M01/M14 A3003 770 36 -900 300/15G22 RMK AO2
14837KMSN MSN20060206131510102/06/06 13:15:31  5-MIN KMSN 061915Z 31011G22KT 10SM CLR M01/M14 A3002 770 36 -900 310/11G22 RMK AO2
14837KMSN MSN20060206132010102/06/06 13:20:31  5-MIN KMSN 061920Z 31012G20KT 10SM CLR M01/M14 A3002 770 37 -900 310/12G20 RMK AO2
14837KMSN MSN20060206132510102/06/06 13:25:31  5-MIN KMSN 061925Z 31013G20KT 10SM CLR M01/M14 A3003 770 36 -900 310/13G20 RMK AO2
14837KMSN MSN20060206133010102/06/06 13:30:31  5-MIN KMSN 061930Z 31016G22KT 10SM CLR M01/M14 A3003 770 36 -900 310/16G22 RMK AO2
14837KMSN MSN20060206133510102/06/06 13:35:31  5-MIN KMSN 061935Z 31015G22KT 10SM CLR M01/M14 A3003 770 36 -900 310/15G22 RMK AO2
14837KMSN MSN20060206134010102/06/06 13:40:31  5-MIN KMSN 061940Z 30013G22KT 10SM CLR M01/M14 A3003 760 36 -900 300/13G22 RMK AO2
14837KMSN MSN20060206134510102/06/06 13:45:31  5-MIN KMSN 061945Z 31014G20KT 10SM CLR M01/M14 A3003 760 36 -900 310/14G20 RMK AO2
14837KMSN MSN20060206135011802/06/06 13:50:31  5-MIN KMSN 061950Z 31016G22KT 10SM CLR M01/M14 A3003 760 36 -900 310/16G22 RMK AO2 SLP182 T10061139
14837KMSN MSN20060206135510102/06/06 13:55:31  5-MIN KMSN 061955Z 32016G22KT 10SM CLR M01/M14 A3003 760 37 -900 320/16G22 RMK AO2
14837KMSN MSN20060206140010102/06/06 14:00:31  5-MIN KMSN 062000Z 30012G20KT 10SM CLR M01/M14 A3003 760 36 -900 300/12G20 RMK AO2
14837KMSN MSN20060206140510102/06/06 14:05:31  5-MIN KMSN 062005Z 31013G18KT 10SM CLR M01/M14 A3003 760 36 -900 310/13G18 RMK AO2
14837KMSN MSN20060206141010102/06/06 14:10:31  5-MIN KMSN 062010Z 31010G18KT 10SM CLR M01/M14 A3003 760 36 -900 310/10G18 RMK AO2
14837KMSN MSN20060206141510102/06/06 14:15:31  5-MIN KMSN 062015Z 31016G21KT 10SM CLR M01/M14 A3004 760 36 -900 310/16G21 RMK AO2
14837KMSN MSN20060206142010102/06/06 14:20:31  5-MIN KMSN 062020Z 31013G21KT 10SM CLR M01/M14 A3004 760 34 -900 310/13G21 RMK AO2
14837KMSN MSN20060206142510102/06/06 14:25:31  5-MIN KMSN 062025Z 31014G20KT 10SM CLR M01/M14 A3003 760 34 -900 310/14G20 RMK AO2
14837KMSN MSN20060206143010102/06/06 14:30:31  5-MIN KMSN 062030Z 31014G19KT 10SM CLR M01/M14 A3003 760 36 -900 310/14G19 RMK AO2
14837KMSN MSN20060206143510102/06/06 14:35:31  5-MIN KMSN 062035Z 31013G20KT 10SM CLR M01/M14 A3003 760 36 -900 310/13G20 RMK AO2
14837KMSN MSN20060206144010102/06/06 14:40:31  5-MIN KMSN 062040Z 30013G20KT 10SM CLR M01/M14 A3003 760 36 -900 300/13G20 RMK AO2
14837KMSN MSN20060206144510102/06/06 14:45:31  5-MIN KMSN 062045Z 29016G20KT 10SM CLR M01/M14 A3003 760 36 -900 290/16G20 RMK AO2
14837KMSN MSN20060206145012402/06/06 14:50:31  5-MIN KMSN 062050Z 31012G20KT 10SM CLR M01/M14 A3004 760 36 -900 310/12G20 RMK AO2 SLP183 T10061139 50000
14837KMSN MSN20060206145509402/06/06 14:55:31  5-MIN KMSN 062055Z 31013KT 10SM CLR 00/M14 A3003 760 34 -800 310/13 RMK AO2
14837KMSN MSN20060206150010102/06/06 15:00:31  5-MIN KMSN 062100Z 31013G18KT 10SM CLR M01/M14 A3003 760 36 -900 310/13G18 RMK AO2
14837KMSN MSN20060206150510102/06/06 15:05:31  5-MIN KMSN 062105Z 31012G21KT 10SM CLR M01/M14 A3004 760 36 -900 310/12G21 RMK AO2
14837KMSN MSN20060206151010102/06/06 15:10:31  5-MIN KMSN 062110Z 31011G21KT 10SM CLR M01/M14 A3004 760 36 -900 310/11G21 RMK AO2
14837KMSN MSN20060206151509502/06/06 15:15:31  5-MIN KMSN 062115Z 31012KT 10SM CLR M01/M14 A3004 760 36 -900 310/12 RMK AO2
14837KMSN MSN20060206152010002/06/06 15:20:31  5-MIN KMSN 062120Z 30010G17KT 10SM CLR 00/M13 A3004 760 36 -800 300/10G17 RMK AO2
14837KMSN MSN20060206152510102/06/06 15:25:31  5-MIN KMSN 062125Z 31014G21KT 10SM CLR M01/M14 A3004 760 36 -900 310/14G21 RMK AO2
14837KMSN MSN20060206153010102/06/06 15:30:31  5-MIN KMSN 062130Z 31009G21KT 10SM CLR M01/M14 A3004 760 36 -900 310/09G21 RMK AO2
14837KMSN MSN20060206153510102/06/06 15:35:31  5-MIN KMSN 062135Z 29013G18KT 10SM CLR M01/M13 A3004 760 37 -900 290/13G18 RMK AO2
14837KMSN MSN20060206154010102/06/06 15:40:31  5-MIN KMSN 062140Z 31013G18KT 10SM CLR M01/M14 A3004 750 36 -900 310/13G18 RMK AO2
14837KMSN MSN20060206154510102/06/06 15:45:31  5-MIN KMSN 062145Z 30013G18KT 10SM CLR M01/M14 A3004 750 36 -900 300/13G18 RMK AO2
14837KMSN MSN20060206155011202/06/06 15:50:31  5-MIN KMSN 062150Z 30013KT 10SM CLR M01/M14 A3004 750 36 -900 300/13 RMK AO2 SLP185 T10061139
14837KMSN MSN20060206155510102/06/06 15:55:31  5-MIN KMSN 062155Z 29013G18KT 10SM CLR M01/M14 A3004 750 36 -900 290/13G18 RMK AO2
14837KMSN MSN20060206160010102/06/06 16:00:31  5-MIN KMSN 062200Z 30014G18KT 10SM CLR M01/M14 A3004 750 36 -900 290/14G18 RMK AO2
14837KMSN MSN20060206160510102/06/06 16:05:31  5-MIN KMSN 062205Z 31015G20KT 10SM CLR M01/M14 A3004 750 36 -900 310/15G20 RMK AO2
14837KMSN MSN20060206161010102/06/06 16:10:31  5-MIN KMSN 062210Z 30013G20KT 10SM CLR M01/M14 A3004 750 36 -900 300/13G20 RMK AO2
14837KMSN MSN20060206161509602/06/06 16:15:31  5-MIN KMSN 062215Z 30008KT 10SM CLR M01/M14 A3005 750 36 -1000 300/08 RMK AO2
14837KMSN MSN20060206162010202/06/06 16:20:31  5-MIN KMSN 062220Z 29012G17KT 10SM CLR M01/M14 A3005 750 36 -1000 290/12G17 RMK AO2
14837KMSN MSN20060206162510202/06/06 16:25:31  5-MIN KMSN 062225Z 30012G17KT 10SM CLR M01/M14 A3005 750 36 -1000 300/12G17 RMK AO2
14837KMSN MSN20060206163010202/06/06 16:30:31  5-MIN KMSN 062230Z 30010G17KT 10SM CLR M01/M14 A3005 750 36 -1000 300/10G17 RMK AO2
14837KMSN MSN20060206163509602/06/06 16:35:31  5-MIN KMSN 062235Z 30010KT 10SM CLR M01/M14 A3005 740 36 -1000 300/10 RMK AO2
14837KMSN MSN20060206164009602/06/06 16:40:31  5-MIN KMSN 062240Z 30009KT 10SM CLR M01/M15 A3005 740 34 -1000 300/09 RMK AO2
14837KMSN MSN20060206164509602/06/06 16:45:31  5-MIN KMSN 062245Z 29007KT 10SM CLR M02/M14 A3005 740 37 -1000 290/07 RMK AO2
14837KMSN MSN20060206165011902/06/06 16:50:31  5-MIN KMSN 062250Z 30012G16KT 10SM CLR M02/M14 A3006 740 37 -1000 300/12G16 RMK AO2 SLP191 T10171144
14837KMSN MSN20060206165510202/06/06 16:55:31  5-MIN KMSN 062255Z 30009G16KT 10SM CLR M02/M15 A3006 740 35 -1000 300/09G16 RMK AO2
14837KMSN MSN20060206170010202/06/06 17:00:31  5-MIN KMSN 062300Z 30012G17KT 10SM CLR M02/M15 A3006 740 35 -1000 300/12G17 RMK AO2
14837KMSN MSN20060206170510202/06/06 17:05:31  5-MIN KMSN 062305Z 30010G17KT 10SM CLR M02/M15 A3006 740 35 -1000 300/10G17 RMK AO2
14837KMSN MSN20060206171009602/06/06 17:10:31  5-MIN KMSN 062310Z 29010KT 10SM CLR M02/M15 A3006 730 35 -1000 290/10 RMK AO2
14837KMSN MSN20060206171509602/06/06 17:15:31  5-MIN KMSN 062315Z 31008KT 10SM CLR M02/M15 A3006 730 37 -1100 310/08 RMK AO2
14837KMSN MSN20060206172009602/06/06 17:20:31  5-MIN KMSN 062320Z 30008KT 10SM CLR M02/M15 A3006 730 37 -1100 300/08 RMK AO2
14837KMSN MSN20060206172509602/06/06 17:25:31  5-MIN KMSN 062325Z 31009KT 10SM CLR M02/M15 A3007 730 37 -1100 310/09 RMK AO2
14837KMSN MSN20060206173009602/06/06 17:30:31  5-MIN KMSN 062330Z 31008KT 10SM CLR M02/M15 A3007 730 37 -1100 310/08 RMK AO2
14837KMSN MSN20060206173509602/06/06 17:35:31  5-MIN KMSN 062335Z 31007KT 10SM CLR M02/M15 A3007 730 37 -1100 310/07 RMK AO2
14837KMSN MSN20060206174009602/06/06 17:40:31  5-MIN KMSN 062340Z 31009KT 10SM CLR M02/M15 A3007 720 37 -1100 310/09 RMK AO2
14837KMSN MSN20060206174509602/06/06 17:45:31  5-MIN KMSN 062345Z 31009KT 10SM CLR M02/M15 A3007 720 37 -1100 300/09 RMK AO2
14837KMSN MSN20060206175013102/06/06 17:50:31  5-MIN KMSN 062350Z 31007KT 10SM CLR M02/M15 A3007 720 37 -1100 310/07 RMK AO2 SLP198 T10221150 10000 21028 53001
14837KMSN MSN20060206175509602/06/06 17:55:31  5-MIN KMSN 062355Z 30008KT 10SM CLR M03/M15 A3007 720 39 -1200 300/08 RMK AO2
14837KMSN MSN20060206180009602/06/06 18:00:31  5-MIN KMSN 070000Z 30007KT 10SM CLR M03/M15 A3008 720 39 -1200 300/07 RMK AO2
14837KMSN MSN20060206180509602/06/06 18:05:31  5-MIN KMSN 070005Z 30009KT 10SM CLR M03/M15 A3008 720 39 -1200 300/09 RMK AO2
14837KMSN MSN20060206181009602/06/06 18:10:31  5-MIN KMSN 070010Z 30008KT 10SM CLR M03/M15 A3008 720 39 -1200 300/08 RMK AO2
14837KMSN MSN20060206181509602/06/06 18:15:31  5-MIN KMSN 070015Z 31007KT 10SM CLR M03/M15 A3008 720 39 -1200 300/07 RMK AO2
14837KMSN MSN20060206182009602/06/06 18:20:31  5-MIN KMSN 070020Z 31009KT 10SM CLR M03/M15 A3008 720 39 -1200 300/09 RMK AO2
14837KMSN MSN20060206182509602/06/06 18:25:31  5-MIN KMSN 070025Z 30007KT 10SM CLR M03/M15 A3008 710 39 -1200 300/07 RMK AO2
14837KMSN MSN20060206183009602/06/06 18:30:31  5-MIN KMSN 070030Z 31008KT 10SM CLR M03/M15 A3009 710 39 -1200 310/08 RMK AO2
14837KMSN MSN20060206183509602/06/06 18:35:31  5-MIN KMSN 070035Z 31008KT 10SM CLR M03/M15 A3009 710 39 -1200 310/08 RMK AO2
14837KMSN MSN20060206184009602/06/06 18:40:31  5-MIN KMSN 070040Z 30008KT 10SM CLR M03/M15 A3009 710 40 -1300 300/08 RMK AO2
14837KMSN MSN20060206184509602/06/06 18:45:31  5-MIN KMSN 070045Z 30009KT 10SM CLR M03/M15 A3009 710 40 -1300 300/09 RMK AO2
14837KMSN MSN20060206185011302/06/06 18:50:31  5-MIN KMSN 070050Z 30008KT 10SM CLR M03/M15 A3009 710 40 -1300 300/08 RMK AO2 SLP204 T10331150
14837KMSN MSN20060206185509602/06/06 18:55:31  5-MIN KMSN 070055Z 30008KT 10SM CLR M03/M15 A3009 710 40 -1300 300/08 RMK AO2
14837KMSN MSN20060206190009602/06/06 19:00:31  5-MIN KMSN 070100Z 30006KT 10SM CLR M03/M15 A3009 700 40 -1300 300/06 RMK AO2
14837KMSN MSN20060206190509602/06/06 19:05:31  5-MIN KMSN 070105Z 29007KT 10SM CLR M03/M15 A3010 700 40 -1300 290/07 RMK AO2
14837KMSN MSN20060206191009602/06/06 19:10:31  5-MIN KMSN 070110Z 30005KT 10SM CLR M03/M15 A3010 700 40 -1300 300/05 RMK AO2
14837KMSN MSN20060206191509602/06/06 19:15:31  5-MIN KMSN 070115Z 30006KT 10SM CLR M03/M15 A3010 700 40 -1300 300/06 RMK AO2
14837KMSN MSN20060206192009602/06/06 19:20:31  5-MIN KMSN 070120Z 28004KT 10SM CLR M03/M15 A3010 700 40 -1300 280/04 RMK AO2
14837KMSN MSN20060206192509602/06/06 19:25:31  5-MIN KMSN 070125Z 29005KT 10SM CLR M04/M15 A3010 700 42 -1400 290/05 RMK AO2
14837KMSN MSN20060206193009602/06/06 19:30:31  5-MIN KMSN 070130Z VRB04KT 10SM CLR M04/M15 A3010 700 42 -1400 VRB/04 RMK AO2
14837KMSN MSN20060206193509602/06/06 19:35:31  5-MIN KMSN 070135Z VRB04KT 10SM CLR M04/M15 A3011 690 42 -1400 VRB/04 RMK AO2
14837KMSN MSN20060206194009602/06/06 19:40:31  5-MIN KMSN 070140Z VRB04KT 10SM CLR M04/M14 A3011 690 44 -1400 VRB/04 RMK AO2
14837KMSN MSN20060206194509602/06/06 19:45:31  5-MIN KMSN 070145Z 28004KT 10SM CLR M04/M14 A3011 690 46 -1400 280/04 RMK AO2
14837KMSN MSN20060206195011302/06/06 19:50:31  5-MIN KMSN 070150Z 27003KT 10SM CLR M04/M14 A3011 690 46 -1400 270/03 RMK AO2 SLP210 T10441144
14837KMSN MSN20060206195509602/06/06 19:55:31  5-MIN KMSN 070155Z 27005KT 10SM CLR M04/M14 A3011 690 46 -1400 270/05 RMK AO2
14837KMSN MSN20060206200009602/06/06 20:00:31  5-MIN KMSN 070200Z 28004KT 10SM CLR M04/M14 A3011 690 46 -1400 280/04 RMK AO2
14837KMSN MSN20060206200509602/06/06 20:05:31  5-MIN KMSN 070205Z 29005KT 10SM CLR M04/M14 A3011 690 46 -1400 290/05 RMK AO2
14837KMSN MSN20060206201009602/06/06 20:10:31  5-MIN KMSN 070210Z 29005KT 10SM CLR M04/M14 A3011 690 46 -1500 290/05 RMK AO2
14837KMSN MSN20060206201509602/06/06 20:15:31  5-MIN KMSN 070215Z 29006KT 10SM CLR M04/M14 A3011 690 46 -1400 290/06 RMK AO2
14837KMSN MSN20060206202009602/06/06 20:20:31  5-MIN KMSN 070220Z 30006KT 10SM CLR M05/M14 A3011 690 48 -1500 290/06 RMK AO2
14837KMSN MSN20060206202509602/06/06 20:25:31  5-MIN KMSN 070225Z 30008KT 10SM CLR M05/M14 A3011 690 48 -1500 300/08 RMK AO2
14837KMSN MSN20060206203009602/06/06 20:30:31  5-MIN KMSN 070230Z 30008KT 10SM CLR M04/M14 A3011 690 46 -1500 300/08 RMK AO2
14837KMSN MSN20060206203509602/06/06 20:35:31  5-MIN KMSN 070235Z 30008KT 10SM CLR M04/M14 A3011 690 46 -1500 300/08 RMK AO2
14837KMSN MSN20060206204009602/06/06 20:40:31  5-MIN KMSN 070240Z 31007KT 10SM CLR M04/M14 A3011 690 46 -1500 300/07 RMK AO2
14837KMSN MSN20060206204509602/06/06 20:45:31  5-MIN KMSN 070245Z 31007KT 10SM CLR M05/M14 A3012 680 48 -1500 310/07 RMK AO2
14837KMSN MSN20060206205011902/06/06 20:50:31  5-MIN KMSN 070250Z 30007KT 10SM CLR M05/M14 A3012 680 48 -1500 300/07 RMK AO2 SLP214 T10501144 53014
14837KMSN MSN20060206205509602/06/06 20:55:31  5-MIN KMSN 070255Z 31008KT 10SM CLR M05/M14 A3012 680 48 -1500 310/08 RMK AO2
14837KMSN MSN20060206210009602/06/06 21:00:31  5-MIN KMSN 070300Z 31006KT 10SM CLR M05/M14 A3012 680 48 -1500 310/06 RMK AO2
14837KMSN MSN20060206210509602/06/06 21:05:31  5-MIN KMSN 070305Z 31006KT 10SM CLR M05/M14 A3012 680 48 -1500 310/06 RMK AO2
14837KMSN MSN20060206211009602/06/06 21:10:31  5-MIN KMSN 070310Z 30005KT 10SM CLR M05/M14 A3013 670 48 -1500 300/05 RMK AO2
14837KMSN MSN20060206211509602/06/06 21:15:31  5-MIN KMSN 070315Z 29005KT 10SM CLR M05/M14 A3013 670 48 -1500 290/05 RMK AO2
14837KMSN MSN20060206212009602/06/06 21:20:31  5-MIN KMSN 070320Z 29005KT 10SM CLR M06/M14 A3013 670 50 -1600 280/05 RMK AO2
14837KMSN MSN20060206212509602/06/06 21:25:31  5-MIN KMSN 070325Z 28005KT 10SM CLR M05/M14 A3013 670 48 -1500 280/05 RMK AO2
14837KMSN MSN20060206213009602/06/06 21:30:31  5-MIN KMSN 070330Z 28006KT 10SM CLR M06/M14 A3013 670 50 -1600 280/06 RMK AO2
14837KMSN MSN20060206213509602/06/06 21:35:31  5-MIN KMSN 070335Z 29007KT 10SM CLR M05/M14 A3013 670 48 -1500 290/07 RMK AO2
14837KMSN MSN20060206214009602/06/06 21:40:31  5-MIN KMSN 070340Z 29005KT 10SM CLR M06/M14 A3013 670 50 -1600 290/05 RMK AO2
14837KMSN MSN20060206214509602/06/06 21:45:31  5-MIN KMSN 070345Z 30007KT 10SM CLR M06/M15 A3013 670 48 -1600 300/07 RMK AO2
14837KMSN MSN20060206215011302/06/06 21:50:31  5-MIN KMSN 070350Z 30005KT 10SM CLR M06/M15 A3013 670 48 -1600 300/05 RMK AO2 SLP216 T10561150
14837KMSN MSN20060206215509602/06/06 21:55:31  5-MIN KMSN 070355Z 31006KT 10SM CLR M06/M15 A3013 670 48 -1600 310/06 RMK AO2
14837KMSN MSN20060206220009602/06/06 22:00:31  5-MIN KMSN 070400Z 31008KT 10SM CLR M06/M15 A3013 670 48 -1600 310/08 RMK AO2
14837KMSN MSN20060206220509602/06/06 22:05:31  5-MIN KMSN 070405Z 31006KT 10SM CLR M06/M15 A3013 680 48 -1600 310/06 RMK AO2
14837KMSN MSN20060206221009602/06/06 22:10:31  5-MIN KMSN 070410Z 32006KT 10SM CLR M06/M15 A3013 670 48 -1600 320/06 RMK AO2
14837KMSN MSN20060206221509602/06/06 22:15:31  5-MIN KMSN 070415Z 32007KT 10SM CLR M06/M15 A3013 670 48 -1600 320/07 RMK AO2
14837KMSN MSN20060206222009602/06/06 22:20:31  5-MIN KMSN 070420Z 31009KT 10SM CLR M06/M15 A3013 670 48 -1600 310/09 RMK AO2
14837KMSN MSN20060206222509602/06/06 22:25:31  5-MIN KMSN 070425Z 32008KT 10SM CLR M06/M15 A3013 670 48 -1600 320/08 RMK AO2
14837KMSN MSN20060206223009602/06/06 22:30:31  5-MIN KMSN 070430Z 32007KT 10SM CLR M06/M14 A3013 670 52 -1700 320/07 RMK AO2
14837KMSN MSN20060206223509602/06/06 22:35:31  5-MIN KMSN 070435Z 32007KT 10SM CLR M06/M14 A3013 670 52 -1700 320/07 RMK AO2
14837KMSN MSN20060206224009602/06/06 22:40:31  5-MIN KMSN 070440Z 32008KT 10SM CLR M06/M14 A3013 670 52 -1700 320/08 RMK AO2
14837KMSN MSN20060206224509602/06/06 22:45:31  5-MIN KMSN 070445Z 32010KT 10SM CLR M06/M14 A3013 670 52 -1700 320/10 RMK AO2
14837KMSN MSN20060206225011302/06/06 22:50:31  5-MIN KMSN 070450Z 32008KT 10SM CLR M06/M14 A3012 680 52 -1700 320/08 RMK AO2 SLP215 T10611144
14837KMSN MSN20060206225509602/06/06 22:55:31  5-MIN KMSN 070455Z 32007KT 10SM CLR M06/M14 A3013 670 52 -1700 320/07 RMK AO2
14837KMSN MSN20060206230009602/06/06 23:00:31  5-MIN KMSN 070500Z 32007KT 10SM CLR M06/M14 A3013 670 52 -1700 320/07 RMK AO2
14837KMSN MSN20060206230509602/06/06 23:05:31  5-MIN KMSN 070505Z 32007KT 10SM CLR M06/M15 A3013 670 50 -1700 320/07 RMK AO2
14837KMSN MSN20060206231009602/06/06 23:10:31  5-MIN KMSN 070510Z 33008KT 10SM CLR M06/M15 A3013 670 50 -1700 320/08 RMK AO2
14837KMSN MSN20060206231509602/06/06 23:15:31  5-MIN KMSN 070515Z 32007KT 10SM CLR M06/M15 A3012 680 50 -1700 320/07 RMK AO2
14837KMSN MSN20060206232009602/06/06 23:20:31  5-MIN KMSN 070520Z 32006KT 10SM CLR M06/M15 A3013 670 50 -1700 320/06 RMK AO2
14837KMSN MSN20060206232509602/06/06 23:25:31  5-MIN KMSN 070525Z 32005KT 10SM CLR M06/M15 A3013 670 50 -1700 320/05 RMK AO2
14837KMSN MSN20060206233009602/06/06 23:30:31  5-MIN KMSN 070530Z 32006KT 10SM CLR M06/M15 A3013 670 50 -1700 320/06 RMK AO2
14837KMSN MSN20060206233509602/06/06 23:35:31  5-MIN KMSN 070535Z 32005KT 10SM CLR M07/M15 A3013 670 52 -1800 310/05 RMK AO2
14837KMSN MSN20060206234009602/06/06 23:40:31  5-MIN KMSN 070540Z 31004KT 10SM CLR M07/M15 A3014 670 52 -1800 310/04 RMK AO2
14837KMSN MSN20060206234509602/06/06 23:45:31  5-MIN KMSN 070545Z 31003KT 10SM CLR M07/M15 A3013 670 52 -1800 310/03 RMK AO2
14837KMSN MSN20060206235014102/06/06 23:50:31  5-MIN KMSN 070550Z VRB03KT 10SM CLR M07/M15 A3013 670 52 -1800 VRB/03 RMK AO2 SLP218 T10671150 11028 21067 400001089 51015
14837KMSN MSN20060206235509602/06/06 23:55:31  5-MIN KMSN 070555Z 31003KT 10SM CLR M07/M15 A3013 670 52 -1800 310/03 RMK AO2
14837KMSN MSN20060207000009602/07/06 00:00:38  5-MIN KMSN 070600Z 31003KT 10SM CLR M07/M15 A3014 670 52 -1800 310/03 RMK AO2
14837KMSN MSN20060207000509602/07/06 00:05:31  5-MIN KMSN 070605Z 00000KT 10SM CLR M07/M15 A3014 670 52 -1800 000/00 RMK AO2
14837KMSN MSN20060207001009602/07/06 00:10:31  5-MIN KMSN 070610Z 32004KT 10SM CLR M07/M15 A3013 670 52 -1800 320/04 RMK AO2
14837KMSN MSN20060207001509602/07/06 00:15:31  5-MIN KMSN 070615Z 31004KT 10SM CLR M07/M15 A3014 670 52 -1800 310/04 RMK AO2
14837KMSN MSN20060207002009602/07/06 00:20:31  5-MIN KMSN 070620Z 31004KT 10SM CLR M07/M15 A3013 670 54 -1800 310/04 RMK AO2
14837KMSN MSN20060207002509602/07/06 00:25:31  5-MIN KMSN 070625Z 30003KT 10SM CLR M07/M15 A3014 670 54 -1800 300/03 RMK AO2
14837KMSN MSN20060207003009602/07/06 00:30:31  5-MIN KMSN 070630Z 30004KT 10SM CLR M07/M15 A3014 670 54 -1800 300/04 RMK AO2
14837KMSN MSN20060207003509602/07/06 00:35:31  5-MIN KMSN 070635Z 30005KT 10SM CLR M07/M15 A3014 660 54 -1800 300/05 RMK AO2
14837KMSN MSN20060207004009602/07/06 00:40:31  5-MIN KMSN 070640Z 30004KT 10SM CLR M07/M15 A3014 660 54 -1800 300/04 RMK AO2
14837KMSN MSN20060207004509602/07/06 00:45:31  5-MIN KMSN 070645Z 29004KT 10SM CLR M08/M15 A3014 660 56 -1900 290/04 RMK AO2
14837KMSN MSN20060207005011302/07/06 00:50:31  5-MIN KMSN 070650Z 31003KT 10SM CLR M07/M15 A3014 660 54 -1800 310/03 RMK AO2 SLP220 T10721150
14837KMSN MSN20060207005509602/07/06 00:55:31  5-MIN KMSN 070655Z VRB03KT 10SM CLR M07/M15 A3014 660 54 -1800 VRB/03 RMK AO2
14837KMSN MSN20060207010009602/07/06 01:00:31  5-MIN KMSN 070700Z 30004KT 10SM CLR M07/M15 A3014 660 54 -1800 300/04 RMK AO2
14837KMSN MSN20060207010509602/07/06 01:05:31  5-MIN KMSN 070705Z 31004KT 10SM CLR M07/M15 A3014 660 54 -1800 310/04 RMK AO2
14837KMSN MSN20060207011009602/07/06 01:10:31  5-MIN KMSN 070710Z 31004KT 10SM CLR M08/M15 A3014 660 56 -1900 310/04 RMK AO2
14837KMSN MSN20060207011509602/07/06 01:15:31  5-MIN KMSN 070715Z 31004KT 10SM CLR M07/M15 A3014 660 54 -1800 310/04 RMK AO2
14837KMSN MSN20060207012009602/07/06 01:20:31  5-MIN KMSN 070720Z 31003KT 10SM CLR M07/M16 A3014 660 52 -1800 310/03 RMK AO2
14837KMSN MSN20060207012509602/07/06 01:25:31  5-MIN KMSN 070725Z 00000KT 10SM CLR M08/M15 A3014 660 56 -1900 000/00 RMK AO2
14837KMSN MSN20060207013009602/07/06 01:30:31  5-MIN KMSN 070730Z 00000KT 10SM CLR M07/M15 A3014 660 54 -1800 000/00 RMK AO2
14837KMSN MSN20060207013509602/07/06 01:35:31  5-MIN KMSN 070735Z 00000KT 10SM CLR M08/M15 A3014 660 56 -1900 000/00 RMK AO2
14837KMSN MSN20060207014009602/07/06 01:40:31  5-MIN KMSN 070740Z 00000KT 10SM CLR M08/M15 A3014 660 56 -1900 000/00 RMK AO2
14837KMSN MSN20060207014509602/07/06 01:45:31  5-MIN KMSN 070745Z 00000KT 10SM CLR M08/M15 A3014 660 59 -2000 000/00 RMK AO2
14837KMSN MSN20060207015011302/07/06 01:50:31  5-MIN KMSN 070750Z 32003KT 10SM CLR M08/M16 A3014 660 54 -1900 320/03 RMK AO2 SLP219 T10781156
14837KMSN MSN20060207015509602/07/06 01:55:31  5-MIN KMSN 070755Z 00000KT 10SM CLR M08/M15 A3014 660 59 -2000 000/00 RMK AO2
14837KMSN MSN20060207020009602/07/06 02:00:31  5-MIN KMSN 070800Z 00000KT 10SM CLR M09/M15 A3014 660 61 -2100 000/00 RMK AO2
14837KMSN MSN20060207020509602/07/06 02:05:31  5-MIN KMSN 070805Z 00000KT 10SM CLR M09/M14 A3014 660 64 -2100 000/00 RMK AO2
14837KMSN MSN20060207021009602/07/06 02:10:31  5-MIN KMSN 070810Z 00000KT 10SM CLR M09/M14 A3014 660 67 -2100 000/00 RMK AO2
14837KMSN MSN20060207021509602/07/06 02:15:31  5-MIN KMSN 070815Z 29003KT 10SM CLR M09/M14 A3014 660 67 -2100 290/03 RMK AO2
14837KMSN MSN20060207022009602/07/06 02:20:31  5-MIN KMSN 070820Z 29003KT 10SM CLR M09/M14 A3014 660 67 -2100 290/03 RMK AO2
14837KMSN MSN20060207022509602/07/06 02:25:31  5-MIN KMSN 070825Z 30003KT 10SM CLR M09/M15 A3014 660 61 -2100 300/03 RMK AO2
14837KMSN MSN20060207023009602/07/06 02:30:31  5-MIN KMSN 070830Z 31004KT 10SM CLR M09/M15 A3014 660 61 -2100 310/04 RMK AO2
14837KMSN MSN20060207023509602/07/06 02:35:31  5-MIN KMSN 070835Z 31004KT 10SM CLR M09/M15 A3014 670 61 -2100 300/04 RMK AO2
14837KMSN MSN20060207024009602/07/06 02:40:31  5-MIN KMSN 070840Z 31003KT 10SM CLR M09/M15 A3014 670 61 -2100 310/03 RMK AO2
14837KMSN MSN20060207024509602/07/06 02:45:31  5-MIN KMSN 070845Z 30003KT 10SM CLR M09/M15 A3014 660 61 -2100 300/03 RMK AO2
14837KMSN MSN20060207025011902/07/06 02:50:31  5-MIN KMSN 070850Z 30004KT 10SM CLR M09/M14 A3014 670 64 -2100 300/04 RMK AO2 SLP219 T10891144 53005
14837KMSN MSN20060207025509602/07/06 02:55:31  5-MIN KMSN 070855Z 30004KT 10SM CLR M09/M15 A3014 660 61 -2100 300/04 RMK AO2
14837KMSN MSN20060207030009602/07/06 03:00:31  5-MIN KMSN 070900Z 30004KT 10SM CLR M09/M15 A3013 670 61 -2100 300/04 RMK AO2
14837KMSN MSN20060207030509602/07/06 03:05:31  5-MIN KMSN 070905Z 31004KT 10SM CLR M09/M15 A3013 670 61 -2100 310/04 RMK AO2
14837KMSN MSN20060207031009602/07/06 03:10:31  5-MIN KMSN 070910Z 31004KT 10SM CLR M08/M15 A3013 670 59 -2000 310/04 RMK AO2
14837KMSN MSN20060207031509602/07/06 03:15:31  5-MIN KMSN 070915Z 30004KT 10SM CLR M08/M15 A3014 670 59 -2000 300/04 RMK AO2
14837KMSN MSN20060207032009602/07/06 03:20:31  5-MIN KMSN 070920Z 30004KT 10SM CLR M08/M15 A3014 670 59 -2000 300/04 RMK AO2
14837KMSN MSN20060207032509602/07/06 03:25:31  5-MIN KMSN 070925Z 30004KT 10SM CLR M08/M15 A3014 660 59 -2000 300/04 RMK AO2
14837KMSN MSN20060207033009602/07/06 03:30:31  5-MIN KMSN 070930Z 31005KT 10SM CLR M08/M15 A3014 660 56 -1900 310/05 RMK AO2
14837KMSN MSN20060207033509602/07/06 03:35:31  5-MIN KMSN 070935Z 32004KT 10SM CLR M08/M15 A3014 660 56 -1900 320/04 RMK AO2
14837KMSN MSN20060207034009602/07/06 03:40:31  5-MIN KMSN 070940Z 32004KT 10SM CLR M08/M15 A3014 660 59 -2000 320/04 RMK AO2
14837KMSN MSN20060207034509602/07/06 03:45:31  5-MIN KMSN 070945Z 32004KT 10SM CLR M08/M15 A3014 660 56 -1900 320/04 RMK AO2
14837KMSN MSN20060207035011302/07/06 03:50:31  5-MIN KMSN 070950Z 32003KT 10SM CLR M08/M15 A3014 660 56 -1900 320/03 RMK AO2 SLP219 T10781150
14837KMSN MSN20060207035509602/07/06 03:55:31  5-MIN KMSN 070955Z 31003KT 10SM CLR M08/M15 A3014 660 59 -2000 310/03 RMK AO2
14837KMSN MSN20060207040009602/07/06 04:00:31  5-MIN KMSN 071000Z 31003KT 10SM CLR M08/M15 A3014 660 59 -2000 310/03 RMK AO2
14837KMSN MSN20060207040509602/07/06 04:05:31  5-MIN KMSN 071005Z 33003KT 10SM CLR M08/M15 A3014 660 56 -1900 330/03 RMK AO2
14837KMSN MSN20060207041009602/07/06 04:10:31  5-MIN KMSN 071010Z 32003KT 10SM CLR M08/M15 A3014 660 56 -1900 320/03 RMK AO2
14837KMSN MSN20060207041509602/07/06 04:15:31  5-MIN KMSN 071015Z 31003KT 10SM CLR M08/M15 A3014 660 59 -2000 310/03 RMK AO2
14837KMSN MSN20060207042009602/07/06 04:20:31  5-MIN KMSN 071020Z 31003KT 10SM CLR M08/M15 A3014 660 59 -2000 310/03 RMK AO2
14837KMSN MSN20060207042509602/07/06 04:25:31  5-MIN KMSN 071025Z 31004KT 10SM CLR M08/M15 A3014 660 59 -2000 310/04 RMK AO2
14837KMSN MSN20060207043009602/07/06 04:30:31  5-MIN KMSN 071030Z 31004KT 10SM CLR M08/M15 A3014 660 59 -2000 310/04 RMK AO2
14837KMSN MSN20060207043509602/07/06 04:35:31  5-MIN KMSN 071035Z 31005KT 10SM CLR M08/M15 A3014 660 59 -2000 310/05 RMK AO2
14837KMSN MSN20060207044009602/07/06 04:40:31  5-MIN KMSN 071040Z 31004KT 10SM CLR M08/M15 A3014 660 59 -2000 310/04 RMK AO2
14837KMSN MSN20060207044509602/07/06 04:45:31  5-MIN KMSN 071045Z 30004KT 10SM CLR M08/M15 A3015 650 59 -2000 300/04 RMK AO2
14837KMSN MSN20060207045011302/07/06 04:50:31  5-MIN KMSN 071050Z 30004KT 10SM CLR M08/M15 A3015 650 59 -2000 300/04 RMK AO2 SLP223 T10831150
14837KMSN MSN20060207045509602/07/06 04:55:31  5-MIN KMSN 071055Z 30005KT 10SM CLR M08/M15 A3015 650 59 -2000 300/05 RMK AO2
14837KMSN MSN20060207050009602/07/06 05:00:31  5-MIN KMSN 071100Z 30004KT 10SM CLR M08/M16 A3015 650 56 -2000 300/04 RMK AO2
14837KMSN MSN20060207050509602/07/06 05:05:31  5-MIN KMSN 071105Z 31004KT 10SM CLR M08/M16 A3015 650 56 -2000 300/04 RMK AO2
14837KMSN MSN20060207051009602/07/06 05:10:31  5-MIN KMSN 071110Z 31004KT 10SM CLR M08/M16 A3015 650 56 -2000 310/04 RMK AO2
14837KMSN MSN20060207051509602/07/06 05:15:31  5-MIN KMSN 071115Z 32004KT 10SM CLR M08/M16 A3015 660 56 -2000 320/04 RMK AO2
14837KMSN MSN20060207052009602/07/06 05:20:31  5-MIN KMSN 071120Z 33003KT 10SM CLR M08/M15 A3015 660 59 -2000 320/03 RMK AO2
14837KMSN MSN20060207052509602/07/06 05:25:31  5-MIN KMSN 071125Z 33004KT 10SM CLR M08/M15 A3014 660 59 -2000 320/04 RMK AO2
14837KMSN MSN20060207053009602/07/06 05:30:31  5-MIN KMSN 071130Z 31004KT 10SM CLR M09/M15 A3014 660 61 -2100 310/04 RMK AO2
14837KMSN MSN20060207053509602/07/06 05:35:31  5-MIN KMSN 071135Z 32004KT 10SM CLR M09/M15 A3014 660 61 -2100 320/04 RMK AO2
14837KMSN MSN20060207054009602/07/06 05:40:31  5-MIN KMSN 071140Z 32003KT 10SM CLR M08/M15 A3014 660 59 -2000 320/03 RMK AO2
14837KMSN MSN20060207054509602/07/06 05:45:31  5-MIN KMSN 071145Z 32004KT 10SM CLR M09/M15 A3014 660 61 -2100 320/04 RMK AO2
14837KMSN MSN20060207055013102/07/06 05:50:31  5-MIN KMSN 071150Z 30004KT 10SM CLR M09/M15 A3015 660 61 -2100 300/04 RMK AO2 SLP222 T10891150 11067 21094 50001
14837KMSN MSN20060207055509602/07/06 05:55:31  5-MIN KMSN 071155Z 30005KT 10SM CLR M09/M15 A3015 650 61 -2100 300/05 RMK AO2
14837KMSN MSN20060207060009602/07/06 06:00:31  5-MIN KMSN 071200Z 30004KT 10SM CLR M09/M15 A3015 650 61 -2100 300/04 RMK AO2
14837KMSN MSN20060207060509602/07/06 06:05:31  5-MIN KMSN 071205Z 31004KT 10SM CLR M08/M15 A3015 650 59 -2000 310/04 RMK AO2
14837KMSN MSN20060207061009602/07/06 06:10:31  5-MIN KMSN 071210Z 31005KT 10SM CLR M08/M15 A3015 650 59 -2000 310/05 RMK AO2
14837KMSN MSN20060207061509602/07/06 06:15:31  5-MIN KMSN 071215Z 32005KT 10SM CLR M08/M15 A3015 650 59 -2000 320/05 RMK AO2
14837KMSN MSN20060207062009602/07/06 06:20:31  5-MIN KMSN 071220Z 33005KT 10SM CLR M08/M15 A3015 650 59 -2000 320/05 RMK AO2
14837KMSN MSN20060207062509602/07/06 06:25:31  5-MIN KMSN 071225Z 32006KT 10SM CLR M08/M15 A3016 650 59 -2000 320/06 RMK AO2
14837KMSN MSN20060207063009602/07/06 06:30:31  5-MIN KMSN 071230Z 32006KT 10SM CLR M08/M15 A3016 650 56 -1900 320/06 RMK AO2
14837KMSN MSN20060207063509602/07/06 06:35:31  5-MIN KMSN 071235Z 32005KT 10SM CLR M08/M14 A3016 640 59 -1900 320/05 RMK AO2
14837KMSN MSN20060207064009902/07/06 06:40:31  5-MIN KMSN 071240Z 33004KT 10SM FEW110 M08/M14 A3016 640 59 -1900 330/04 RMK AO2
14837KMSN MSN20060207064509902/07/06 06:45:31  5-MIN KMSN 071245Z 32005KT 10SM FEW110 M08/M14 A3016 640 59 -1900 320/05 RMK AO2
14837KMSN MSN20060207065011302/07/06 06:50:31  5-MIN KMSN 071250Z 32005KT 10SM CLR M08/M14 A3017 640 59 -1900 320/05 RMK AO2 SLP229 T10781144
14837KMSN MSN20060207065509602/07/06 06:55:31  5-MIN KMSN 071255Z 32004KT 10SM CLR M08/M14 A3017 640 59 -1900 320/04 RMK AO2
14837KMSN MSN20060207070009602/07/06 07:00:31  5-MIN KMSN 071300Z 32005KT 10SM CLR M08/M14 A3017 630 59 -1900 320/05 RMK AO2
14837KMSN MSN20060207070509602/07/06 07:05:31  5-MIN KMSN 071305Z 32004KT 10SM CLR M08/M15 A3017 640 56 -1900 320/04 RMK AO2
14837KMSN MSN20060207071009602/07/06 07:10:31  5-MIN KMSN 071310Z 33004KT 10SM CLR M08/M14 A3017 630 59 -2000 330/04 RMK AO2
14837KMSN MSN20060207071509602/07/06 07:15:31  5-MIN KMSN 071315Z 32005KT 10SM CLR M08/M14 A3017 630 59 -2000 320/05 RMK AO2
14837KMSN MSN20060207072009602/07/06 07:20:31  5-MIN KMSN 071320Z 32005KT 10SM CLR M07/M14 A3017 630 56 -1900 320/05 RMK AO2
14837KMSN MSN20060207072509602/07/06 07:25:31  5-MIN KMSN 071325Z 32005KT 10SM CLR M07/M14 A3018 630 56 -1900 310/05 RMK AO2
14837KMSN MSN20060207073009602/07/06 07:30:31  5-MIN KMSN 071330Z 32006KT 10SM CLR M07/M14 A3018 630 56 -1900 320/06 RMK AO2
14837KMSN MSN20060207073509602/07/06 07:35:31  5-MIN KMSN 071335Z 33006KT 10SM CLR M07/M14 A3018 630 56 -1900 330/06 RMK AO2
14837KMSN MSN20060207074009602/07/06 07:40:31  5-MIN KMSN 071340Z 33004KT 10SM CLR M07/M14 A3018 630 56 -1900 330/04 RMK AO2
14837KMSN MSN20060207074509602/07/06 07:45:31  5-MIN KMSN 071345Z 33004KT 10SM CLR M07/M14 A3018 630 56 -1900 330/04 RMK AO2
14837KMSN MSN20060207075011302/07/06 07:50:31  5-MIN KMSN 071350Z 32004KT 10SM CLR M07/M14 A3018 620 56 -1900 320/04 RMK AO2 SLP234 T10721144
14837KMSN MSN20060207075509602/07/06 07:55:31  5-MIN KMSN 071355Z 32004KT 10SM CLR M07/M14 A3019 620 56 -1900 320/04 RMK AO2
14837KMSN MSN20060207080009602/07/06 08:00:31  5-MIN KMSN 071400Z 32005KT 10SM CLR M07/M14 A3019 620 54 -1800 320/05 RMK AO2
14837KMSN MSN20060207080509602/07/06 08:05:31  5-MIN KMSN 071405Z 33005KT 10SM CLR M07/M14 A3019 620 54 -1800 320/05 RMK AO2
14837KMSN MSN20060207081009602/07/06 08:10:31  5-MIN KMSN 071410Z 31005KT 10SM CLR M07/M14 A3019 620 54 -1800 310/05 RMK AO2
14837KMSN MSN20060207081509602/07/06 08:15:31  5-MIN KMSN 071415Z 32006KT 10SM CLR M07/M14 A3019 610 54 -1800 320/06 RMK AO2
14837KMSN MSN20060207082009602/07/06 08:20:31  5-MIN KMSN 071420Z 31005KT 10SM CLR M07/M14 A3019 610 57 -1800 310/05 RMK AO2
14837KMSN MSN20060207082509602/07/06 08:25:31  5-MIN KMSN 071425Z 32004KT 10SM CLR M06/M14 A3020 610 54 -1800 320/04 RMK AO2
14837KMSN MSN20060207083009602/07/06 08:30:31  5-MIN KMSN 071430Z 31005KT 10SM CLR M06/M14 A3020 610 54 -1800 310/05 RMK AO2
14837KMSN MSN20060207083509602/07/06 08:35:31  5-MIN KMSN 071435Z 31005KT 10SM CLR M06/M14 A3020 610 54 -1800 310/05 RMK AO2
14837KMSN MSN20060207084009602/07/06 08:40:31  5-MIN KMSN 071440Z 32006KT 10SM CLR M06/M14 A3020 610 54 -1800 320/06 RMK AO2
14837KMSN MSN20060207084509602/07/06 08:45:31  5-MIN KMSN 071445Z 32007KT 10SM CLR M06/M14 A3020 610 52 -1800 320/07 RMK AO2
14837KMSN MSN20060207085011902/07/06 08:50:31  5-MIN KMSN 071450Z 32006KT 10SM CLR M06/M14 A3020 610 54 -1800 320/06 RMK AO2 SLP240 T10611139 50004
14837KMSN MSN20060207085509602/07/06 08:55:31  5-MIN KMSN 071455Z 33005KT 10SM CLR M06/M14 A3020 610 54 -1800 330/05 RMK AO2
14837KMSN MSN20060207090009602/07/06 09:00:31  5-MIN KMSN 071500Z 33005KT 10SM CLR M06/M14 A3020 610 54 -1800 330/05 RMK AO2
14837KMSN MSN20060207090509602/07/06 09:05:31  5-MIN KMSN 071505Z 32005KT 10SM CLR M06/M14 A3020 610 54 -1800 310/05 RMK AO2
14837KMSN MSN20060207091009602/07/06 09:10:31  5-MIN KMSN 071510Z 32006KT 10SM CLR M06/M14 A3019 610 54 -1800 320/06 RMK AO2
14837KMSN MSN20060207091509602/07/06 09:15:31  5-MIN KMSN 071515Z 32006KT 10SM CLR M06/M14 A3019 610 54 -1800 320/06 RMK AO2
14837KMSN MSN20060207092009602/07/06 09:20:31  5-MIN KMSN 071520Z 32005KT 10SM CLR M06/M14 A3019 610 52 -1700 320/05 RMK AO2
14837KMSN MSN20060207092509602/07/06 09:25:31  5-MIN KMSN 071525Z 35006KT 10SM CLR M06/M13 A3019 610 54 -1700 350/06 RMK AO2
14837KMSN MSN20060207093009602/07/06 09:30:31  5-MIN KMSN 071530Z 32006KT 10SM CLR M06/M14 A3019 610 52 -1700 320/06 RMK AO2
14837KMSN MSN20060207093509602/07/06 09:35:31  5-MIN KMSN 071535Z 33006KT 10SM CLR M06/M14 A3019 620 52 -1700 320/06 RMK AO2
14837KMSN MSN20060207094009602/07/06 09:40:31  5-MIN KMSN 071540Z 33006KT 10SM CLR M05/M14 A3019 620 50 -1600 330/06 RMK AO2
14837KMSN MSN20060207094509602/07/06 09:45:31  5-MIN KMSN 071545Z 34005KT 10SM CLR M05/M14 A3019 620 50 -1600 340/05 RMK AO2
14837KMSN MSN20060207095011302/07/06 09:50:31  5-MIN KMSN 071550Z 32005KT 10SM CLR M04/M13 A3019 620 50 -1500 320/05 RMK AO2 SLP237 T10441133
14837KMSN MSN20060207095509602/07/06 09:55:31  5-MIN KMSN 071555Z 31008KT 10SM CLR M04/M14 A3019 620 48 -1500 310/08 RMK AO2
14837KMSN MSN20060207100009902/07/06 10:00:31  5-MIN KMSN 071600Z 34006KT 10SM FEW100 M04/M14 A3019 620 48 -1500 340/06 RMK AO2
14837KMSN MSN20060207100509902/07/06 10:05:31  5-MIN KMSN 071605Z 31007KT 10SM FEW100 M04/M13 A3019 620 48 -1500 310/07 RMK AO2
14837KMSN MSN20060207101009902/07/06 10:10:31  5-MIN KMSN 071610Z 33008KT 10SM FEW100 M03/M13 A3019 620 46 -1400 330/08 RMK AO2
14837KMSN MSN20060207101511502/07/06 10:15:31  5-MIN KMSN 071615Z 32009KT 280V340 10SM FEW100 M04/M13 A3019 620 48 -1500 320/09 280V340 RMK AO2
14837KMSN MSN20060207102009902/07/06 10:20:31  5-MIN KMSN 071620Z 33007KT 10SM FEW100 M03/M13 A3019 620 46 -1400 330/07 RMK AO2
14837KMSN MSN20060207102509902/07/06 10:25:31  5-MIN KMSN 071625Z 32008KT 10SM FEW100 M04/M14 A3019 620 46 -1500 320/08 RMK AO2
14837KMSN MSN20060207103009902/07/06 10:30:31  5-MIN KMSN 071630Z 36007KT 10SM FEW095 M03/M14 A3019 610 44 -1400 360/07 RMK AO2
14837KMSN MSN20060207103509902/07/06 10:35:31  5-MIN KMSN 071635Z 34007KT 10SM FEW090 M03/M13 A3019 610 44 -1300 340/07 RMK AO2
14837KMSN MSN20060207104009902/07/06 10:40:31  5-MIN KMSN 071640Z 34007KT 10SM FEW095 M03/M13 A3019 610 46 -1400 340/07 RMK AO2
14837KMSN MSN20060207104509902/07/06 10:45:31  5-MIN KMSN 071645Z 34009KT 10SM FEW095 M03/M13 A3019 610 46 -1400 340/09 RMK AO2
14837KMSN MSN20060207105011602/07/06 10:50:31  5-MIN KMSN 071650Z 36009KT 10SM FEW095 M03/M13 A3019 610 44 -1300 350/09 RMK AO2 SLP237 T10281133
14837KMSN MSN20060207105509902/07/06 10:55:31  5-MIN KMSN 071655Z 32009KT 10SM FEW095 M03/M13 A3019 610 46 -1400 320/09 RMK AO2
14837KMSN MSN20060207110009602/07/06 11:00:31  5-MIN KMSN 071700Z 32008KT 10SM CLR M03/M13 A3019 610 46 -1400 320/08 RMK AO2
14837KMSN MSN20060207110509602/07/06 11:05:31  5-MIN KMSN 071705Z 33009KT 10SM CLR M03/M13 A3019 610 46 -1400 330/09 RMK AO2
14837KMSN MSN20060207111009602/07/06 11:10:31  5-MIN KMSN 071710Z 33010KT 10SM CLR M03/M13 A3019 620 44 -1300 330/10 RMK AO2
14837KMSN MSN20060207111509602/07/06 11:15:31  5-MIN KMSN 071715Z 33009KT 10SM CLR M03/M13 A3019 620 46 -1400 330/09 RMK AO2
14837KMSN MSN20060207112009602/07/06 11:20:31  5-MIN KMSN 071720Z 33008KT 10SM CLR M03/M13 A3019 620 44 -1300 330/08 RMK AO2
14837KMSN MSN20060207112509602/07/06 11:25:31  5-MIN KMSN 071725Z 32010KT 10SM CLR M03/M13 A3019 620 44 -1300 310/10 RMK AO2
14837KMSN MSN20060207113009602/07/06 11:30:31  5-MIN KMSN 071730Z 32009KT 10SM CLR M03/M13 A3019 620 44 -1300 320/09 RMK AO2
14837KMSN MSN20060207113509602/07/06 11:35:31  5-MIN KMSN 071735Z 34008KT 10SM CLR M03/M13 A3018 620 44 -1300 340/08 RMK AO2
14837KMSN MSN20060207114011502/07/06 11:40:31  5-MIN KMSN 071740Z 32007KT 290V360 10SM FEW110 M03/M13 A3018 620 44 -1300 320/07 290V360 RMK AO2
14837KMSN MSN20060207114509902/07/06 11:45:31  5-MIN KMSN 071745Z 34009KT 10SM SCT110 M03/M14 A3018 620 42 -1300 340/09 RMK AO2
14837KMSN MSN20060207115013402/07/06 11:50:31  5-MIN KMSN 071750Z 31008KT 10SM SCT110 M03/M13 A3018 620 44 -1300 310/08 RMK AO2 SLP234 T10281133 11028 21089 51016
14837KMSN MSN20060207115509902/07/06 11:55:31  5-MIN KMSN 071755Z 34009KT 10SM BKN110 M03/M13 A3018 620 44 -1300 340/09 RMK AO2
14837KMSN MSN20060207120009902/07/06 12:00:31  5-MIN KMSN 071800Z 33007KT 10SM BKN110 M03/M13 A3018 630 44 -1300 330/07 RMK AO2
14837KMSN MSN20060207120509902/07/06 12:05:31  5-MIN KMSN 071805Z 33007KT 10SM BKN110 M02/M13 A3018 630 42 -1200 330/07 RMK AO2
14837KMSN MSN20060207121009902/07/06 12:10:31  5-MIN KMSN 071810Z 32006KT 10SM BKN110 M02/M13 A3018 630 42 -1200 320/06 RMK AO2
14837KMSN MSN20060207121509902/07/06 12:15:31  5-MIN KMSN 071815Z 30007KT 10SM BKN110 M02/M13 A3018 630 42 -1200 300/07 RMK AO2
14837KMSN MSN20060207122009902/07/06 12:20:31  5-MIN KMSN 071820Z 29007KT 10SM BKN110 M02/M13 A3017 630 42 -1200 290/07 RMK AO2
14837KMSN MSN20060207122509902/07/06 12:25:31  5-MIN KMSN 071825Z 30008KT 10SM BKN110 M02/M13 A3017 630 41 -1200 300/08 RMK AO2
14837KMSN MSN20060207123009902/07/06 12:30:31  5-MIN KMSN 071830Z 29007KT 10SM BKN110 M02/M13 A3017 630 42 -1200 290/07 RMK AO2
14837KMSN MSN20060207123509902/07/06 12:35:31  5-MIN KMSN 071835Z VRB06KT 10SM OVC110 M02/M13 A3017 630 41 -1200 VRB/06 RMK AO2
14837KMSN MSN20060207124009902/07/06 12:40:31  5-MIN KMSN 071840Z 33008KT 10SM OVC110 M02/M13 A3017 630 41 -1200 330/08 RMK AO2
14837KMSN MSN20060207124509902/07/06 12:45:31  5-MIN KMSN 071845Z 35006KT 10SM OVC110 M02/M14 A3017 630 39 -1200 350/06 RMK AO2
14837KMSN MSN20060207125011602/07/06 12:50:31  5-MIN KMSN 071850Z 33007KT 10SM BKN110 M02/M13 A3017 640 41 -1200 320/07 RMK AO2 SLP230 T10171133
14837KMSN MSN20060207125509902/07/06 12:55:31  5-MIN KMSN 071855Z 34009KT 10SM BKN110 M02/M14 A3017 640 39 -1200 340/09 RMK AO2
14837KMSN MSN20060207130009902/07/06 13:00:31  5-MIN KMSN 071900Z 33006KT 10SM OVC110 M02/M14 A3017 640 39 -1200 330/06 RMK AO2
14837KMSN MSN20060207130509902/07/06 13:05:31  5-MIN KMSN 071905Z 32007KT 10SM BKN110 M02/M13 A3017 640 41 -1200 320/07 RMK AO2
14837KMSN MSN20060207131009902/07/06 13:10:31  5-MIN KMSN 071910Z 32006KT 10SM BKN110 M02/M14 A3017 640 39 -1200 320/06 RMK AO2
14837KMSN MSN20060207131509902/07/06 13:15:31  5-MIN KMSN 071915Z 31008KT 10SM BKN110 M01/M14 A3017 640 37 -1100 310/08 RMK AO2
14837KMSN MSN20060207132009902/07/06 13:20:31  5-MIN KMSN 071920Z 31007KT 10SM BKN110 M02/M14 A3017 640 39 -1200 310/07 RMK AO2
14837KMSN MSN20060207132509902/07/06 13:25:31  5-MIN KMSN 071925Z 28006KT 10SM BKN110 M02/M14 A3016 640 39 -1200 280/06 RMK AO2
14837KMSN MSN20060207133009902/07/06 13:30:31  5-MIN KMSN 071930Z 33007KT 10SM SCT110 M02/M13 A3016 640 41 -1200 330/07 RMK AO2
14837KMSN MSN20060207133509902/07/06 13:35:31  5-MIN KMSN 071935Z VRB06KT 10SM SCT110 M02/M13 A3016 640 41 -1200 VRB/06 RMK AO2
14837KMSN MSN20060207134009902/07/06 13:40:31  5-MIN KMSN 071940Z 35008KT 10SM FEW110 M01/M14 A3016 640 37 -1100 350/08 RMK AO2
14837KMSN MSN20060207134509902/07/06 13:45:31  5-MIN KMSN 071945Z 33006KT 10SM FEW110 M01/M13 A3016 650 39 -1100 330/06 RMK AO2
14837KMSN MSN20060207135011602/07/06 13:50:31  5-MIN KMSN 071950Z 31006KT 10SM SCT110 M01/M14 A3016 650 37 -1100 310/06 RMK AO2 SLP226 T10111139
14837KMSN MSN20060207135509902/07/06 13:55:31  5-MIN KMSN 071955Z 32008KT 10SM SCT110 M02/M14 A3015 650 39 -1100 320/08 RMK AO2
14837KMSN MSN20060207140009902/07/06 14:00:31  5-MIN KMSN 072000Z 32005KT 10SM SCT110 M02/M13 A3015 650 42 -1100 310/05 RMK AO2
14837KMSN MSN20060207140509902/07/06 14:05:31  5-MIN KMSN 072005Z VRB05KT 10SM SCT110 M01/M13 A3015 650 39 -1000 VRB/05 RMK AO2
14837KMSN MSN20060207141009902/07/06 14:10:31  5-MIN KMSN 072010Z 34007KT 10SM SCT110 M01/M13 A3015 650 39 -1100 340/07 RMK AO2
14837KMSN MSN20060207141509902/07/06 14:15:31  5-MIN KMSN 072015Z 30006KT 10SM BKN110 M01/M13 A3015 650 39 -1100 300/06 RMK AO2
14837KMSN MSN20060207142009902/07/06 14:20:31  5-MIN KMSN 072020Z 31007KT 10SM SCT110 M01/M13 A3015 650 41 -1100 300/07 RMK AO2
14837KMSN MSN20060207142509902/07/06 14:25:31  5-MIN KMSN 072025Z 33003KT 10SM SCT110 M01/M13 A3015 650 41 -1100 330/03 RMK AO2
14837KMSN MSN20060207143009902/07/06 14:30:31  5-MIN KMSN 072030Z 29006KT 10SM SCT110 M01/M13 A3015 650 39 -1100 290/06 RMK AO2
14837KMSN MSN20060207143509902/07/06 14:35:31  5-MIN KMSN 072035Z VRB06KT 10SM SCT110 M01/M13 A3015 650 39 -1100 VRB/06 RMK AO2
14837KMSN MSN20060207144009902/07/06 14:40:31  5-MIN KMSN 072040Z 29005KT 10SM SCT120 M01/M13 A3015 650 39 -1100 290/05 RMK AO2
14837KMSN MSN20060207144509902/07/06 14:45:31  5-MIN KMSN 072045Z 31005KT 10SM SCT120 M01/M13 A3015 650 39 -1100 310/05 RMK AO2
14837KMSN MSN20060207145012202/07/06 14:50:31  5-MIN KMSN 072050Z VRB04KT 10SM SCT120 M01/M13 A3015 650 39 -1100 VRB/04 RMK AO2 SLP224 T10111133 58005
14837KMSN MSN20060207145509902/07/06 14:55:31  5-MIN KMSN 072055Z 33006KT 10SM SCT120 M01/M13 A3015 650 39 -1100 330/06 RMK AO2
14837KMSN MSN20060207150009902/07/06 15:00:31  5-MIN KMSN 072100Z 29004KT 10SM SCT110 M01/M13 A3016 650 37 -1000 290/04 RMK AO2
14837KMSN MSN20060207150510602/07/06 15:05:31  5-MIN KMSN 072105Z 34007KT 10SM SCT090 BKN120 M01/M13 A3016 650 37 -1000 340/07 RMK AO2
14837KMSN MSN20060207151010602/07/06 15:10:31  5-MIN KMSN 072110Z VRB06KT 10SM BKN090 BKN120 M01/M13 A3015 650 37 -1000 VRB/06 RMK AO2
14837KMSN MSN20060207151510602/07/06 15:15:31  5-MIN KMSN 072115Z 34005KT 10SM BKN090 BKN120 M01/M14 A3015 650 37 -1100 340/05 RMK AO2
14837KMSN MSN20060207152010602/07/06 15:20:31  5-MIN KMSN 072120Z 35005KT 10SM SCT090 BKN120 M01/M14 A3016 650 37 -1100 340/05 RMK AO2
14837KMSN MSN20060207152510602/07/06 15:25:31  5-MIN KMSN 072125Z 32005KT 10SM SCT090 BKN120 M01/M13 A3016 650 39 -1100 320/05 RMK AO2
14837KMSN MSN20060207153009902/07/06 15:30:31  5-MIN KMSN 072130Z 30006KT 10SM BKN095 M01/M13 A3016 650 39 -1100 300/06 RMK AO2
14837KMSN MSN20060207153509902/07/06 15:35:31  5-MIN KMSN 072135Z 29005KT 10SM BKN095 M02/M13 A3016 640 41 -1200 290/05 RMK AO2
14837KMSN MSN20060207154009902/07/06 15:40:31  5-MIN KMSN 072140Z 29006KT 10SM BKN100 M02/M13 A3016 640 41 -1200 280/06 RMK AO2
14837KMSN MSN20060207154509902/07/06 15:45:31  5-MIN KMSN 072145Z VRB05KT 10SM BKN095 M02/M13 A3016 640 41 -1200 VRB/05 RMK AO2
14837KMSN MSN20060207155011602/07/06 15:50:31  5-MIN KMSN 072150Z 29004KT 10SM BKN095 M02/M13 A3016 640 41 -1200 280/04 RMK AO2 SLP227 T10171133
14837KMSN MSN20060207155509902/07/06 15:55:31  5-MIN KMSN 072155Z 32004KT 10SM OVC095 M02/M13 A3016 640 41 -1200 320/04 RMK AO2
14837KMSN MSN20060207160009902/07/06 16:00:31  5-MIN KMSN 072200Z VRB04KT 10SM BKN100 M02/M13 A3016 650 41 -1200 VRB/04 RMK AO2
14837KMSN MSN20060207160509902/07/06 16:05:31  5-MIN KMSN 072205Z 29005KT 10SM BKN100 M02/M13 A3016 640 41 -1200 290/05 RMK AO2
14837KMSN MSN20060207161009902/07/06 16:10:31  5-MIN KMSN 072210Z 28005KT 10SM BKN100 M02/M14 A3016 640 39 -1200 280/05 RMK AO2
14837KMSN MSN20060207161509902/07/06 16:15:31  5-MIN KMSN 072215Z 28005KT 10SM BKN100 M02/M14 A3016 640 39 -1200 280/05 RMK AO2
14837KMSN MSN20060207162009902/07/06 16:20:31  5-MIN KMSN 072220Z 28006KT 10SM BKN100 M02/M13 A3016 640 41 -1200 280/06 RMK AO2
14837KMSN MSN20060207162509902/07/06 16:25:31  5-MIN KMSN 072225Z 26005KT 10SM BKN100 M02/M14 A3016 640 39 -1200 260/05 RMK AO2
14837KMSN MSN20060207163009902/07/06 16:30:31  5-MIN KMSN 072230Z VRB05KT 10SM BKN100 M02/M13 A3016 640 41 -1200 VRB/05 RMK AO2
14837KMSN MSN20060207163509902/07/06 16:35:31  5-MIN KMSN 072235Z 29004KT 10SM BKN100 M02/M13 A3016 640 41 -1200 290/04 RMK AO2
14837KMSN MSN20060207164009902/07/06 16:40:31  5-MIN KMSN 072240Z 30004KT 10SM BKN100 M02/M14 A3016 640 39 -1200 300/04 RMK AO2
14837KMSN MSN20060207164509902/07/06 16:45:31  5-MIN KMSN 072245Z 29005KT 10SM BKN100 M02/M13 A3016 640 41 -1200 290/05 RMK AO2
14837KMSN MSN20060207165011602/07/06 16:50:31  5-MIN KMSN 072250Z 29005KT 10SM BKN095 M02/M13 A3016 640 42 -1200 290/05 RMK AO2 SLP227 T10221133
14837KMSN MSN20060207165509902/07/06 16:55:31  5-MIN KMSN 072255Z 29005KT 10SM SCT095 M02/M13 A3016 640 42 -1200 290/05 RMK AO2
14837KMSN MSN20060207170009902/07/06 17:00:31  5-MIN KMSN 072300Z 28005KT 10SM SCT095 M02/M13 A3016 640 42 -1200 280/05 RMK AO2
14837KMSN MSN20060207170509902/07/06 17:05:31  5-MIN KMSN 072305Z 29005KT 10SM SCT095 M02/M13 A3016 640 42 -1200 290/05 RMK AO2
14837KMSN MSN20060207171009902/07/06 17:10:31  5-MIN KMSN 072310Z 29003KT 10SM SCT095 M02/M13 A3016 640 42 -1200 290/03 RMK AO2
14837KMSN MSN20060207171509902/07/06 17:15:31  5-MIN KMSN 072315Z 29004KT 10SM SCT095 M03/M13 A3016 640 46 -1300 290/04 RMK AO2
14837KMSN MSN20060207172009902/07/06 17:20:31  5-MIN KMSN 072320Z 29005KT 10SM SCT095 M02/M13 A3017 640 44 -1200 290/05 RMK AO2
14837KMSN MSN20060207172509902/07/06 17:25:31  5-MIN KMSN 072325Z 29005KT 10SM SCT095 M03/M13 A3017 640 46 -1300 290/05 RMK AO2
14837KMSN MSN20060207173009902/07/06 17:30:31  5-MIN KMSN 072330Z 30005KT 10SM BKN100 M03/M13 A3017 640 46 -1300 300/05 RMK AO2
14837KMSN MSN20060207173509902/07/06 17:35:31  5-MIN KMSN 072335Z 30004KT 10SM BKN100 M03/M13 A3017 640 46 -1300 300/04 RMK AO2
14837KMSN MSN20060207174009902/07/06 17:40:31  5-MIN KMSN 072340Z 29004KT 10SM BKN100 M03/M13 A3017 640 48 -1400 290/04 RMK AO2
14837KMSN MSN20060207174509902/07/06 17:45:31  5-MIN KMSN 072345Z 30003KT 10SM BKN100 M03/M13 A3017 640 48 -1400 300/03 RMK AO2
14837KMSN MSN20060207175013402/07/06 17:50:31  5-MIN KMSN 072350Z 30003KT 10SM SCT095 M03/M13 A3017 640 48 -1400 300/03 RMK AO2 SLP231 T10331128 11006 21033 56009
14837KMSN MSN20060207175509902/07/06 17:55:31  5-MIN KMSN 072355Z 00000KT 10SM FEW100 M03/M13 A3017 640 48 -1400 000/00 RMK AO2
14837KMSN MSN20060207180009602/07/06 18:00:31  5-MIN KMSN 080000Z 00000KT 10SM CLR M03/M13 A3017 640 48 -1400 000/00 RMK AO2
14837KMSN MSN20060207180509902/07/06 18:05:31  5-MIN KMSN 080005Z 00000KT 10SM FEW120 M04/M12 A3017 640 52 -1400 000/00 RMK AO2
14837KMSN MSN20060207181009902/07/06 18:10:31  5-MIN KMSN 080010Z 00000KT 10SM SCT120 M04/M12 A3017 640 55 -1400 000/00 RMK AO2
14837KMSN MSN20060207181509902/07/06 18:15:31  5-MIN KMSN 080015Z 00000KT 10SM SCT120 M04/M12 A3017 640 55 -1400 000/00 RMK AO2
14837KMSN MSN20060207182009902/07/06 18:20:31  5-MIN KMSN 080020Z 00000KT 10SM BKN120 M04/M12 A3017 640 55 -1400 000/00 RMK AO2
14837KMSN MSN20060207182509902/07/06 18:25:31  5-MIN KMSN 080025Z 00000KT 10SM BKN120 M04/M11 A3017 640 57 -1400 000/00 RMK AO2
14837KMSN MSN20060207183009902/07/06 18:30:31  5-MIN KMSN 080030Z 00000KT 10SM BKN120 M04/M12 A3017 640 57 -1500 000/00 RMK AO2
14837KMSN MSN20060207183509902/07/06 18:35:31  5-MIN KMSN 080035Z 00000KT 10SM OVC120 M04/M12 A3017 640 55 -1500 000/00 RMK AO2
14837KMSN MSN20060207184009902/07/06 18:40:31  5-MIN KMSN 080040Z 00000KT 10SM OVC120 M04/M13 A3017 640 50 -1400 000/00 RMK AO2
14837KMSN MSN20060207184509902/07/06 18:45:31  5-MIN KMSN 080045Z 00000KT 10SM OVC120 M04/M12 A3017 640 55 -1500 000/00 RMK AO2
14837KMSN MSN20060207185011602/07/06 18:50:31  5-MIN KMSN 080050Z 00000KT 10SM BKN120 M04/M12 A3017 640 55 -1500 000/00 RMK AO2 SLP230 T10441122
14837KMSN MSN20060207185509902/07/06 18:55:31  5-MIN KMSN 080055Z 00000KT 10SM BKN120 M04/M12 A3017 640 55 -1500 000/00 RMK AO2
14837KMSN MSN20060207190009902/07/06 19:00:31  5-MIN KMSN 080100Z 00000KT 10SM BKN120 M05/M12 A3017 640 60 -1600 000/00 RMK AO2
14837KMSN MSN20060207190509902/07/06 19:05:31  5-MIN KMSN 080105Z 00000KT 10SM BKN120 M04/M11 A3017 630 60 -1500 000/00 RMK AO2
14837KMSN MSN20060207191009902/07/06 19:10:31  5-MIN KMSN 080110Z 29003KT 10SM BKN120 M04/M12 A3017 630 57 -1500 290/03 RMK AO2
14837KMSN MSN20060207191509902/07/06 19:15:31  5-MIN KMSN 080115Z 29003KT 10SM BKN120 M04/M12 A3017 630 57 -1500 290/03 RMK AO2
14837KMSN MSN20060207192009902/07/06 19:20:31  5-MIN KMSN 080120Z 00000KT 10SM BKN120 M04/M12 A3017 630 57 -1500 000/00 RMK AO2
14837KMSN MSN20060207192509902/07/06 19:25:31  5-MIN KMSN 080125Z 31003KT 10SM BKN120 M04/M12 A3017 630 57 -1500 310/03 RMK AO2
14837KMSN MSN20060207193009902/07/06 19:30:31  5-MIN KMSN 080130Z 00000KT 10SM BKN120 M04/M12 A3017 630 57 -1500 000/00 RMK AO2
14837KMSN MSN20060207193509902/07/06 19:35:31  5-MIN KMSN 080135Z 00000KT 10SM BKN110 M04/M12 A3017 630 57 -1500 000/00 RMK AO2
14837KMSN MSN20060207194009902/07/06 19:40:31  5-MIN KMSN 080140Z 00000KT 10SM BKN110 M04/M12 A3017 630 57 -1500 000/00 RMK AO2
14837KMSN MSN20060207194509902/07/06 19:45:31  5-MIN KMSN 080145Z 00000KT 10SM BKN110 M04/M12 A3017 640 57 -1500 000/00 RMK AO2
14837KMSN MSN20060207195011602/07/06 19:50:31  5-MIN KMSN 080150Z 00000KT 10SM OVC110 M04/M11 A3017 640 62 -1500 000/00 RMK AO2 SLP229 T10441106
14837KMSN MSN20060207195509902/07/06 19:55:31  5-MIN KMSN 080155Z 33003KT 10SM OVC110 M04/M11 A3017 640 60 -1500 330/03 RMK AO2
14837KMSN MSN20060207200009902/07/06 20:00:31  5-MIN KMSN 080200Z 32003KT 10SM OVC110 M04/M10 A3017 640 65 -1500 320/03 RMK AO2
14837KMSN MSN20060207200509902/07/06 20:05:31  5-MIN KMSN 080205Z 31003KT 10SM OVC110 M05/M11 A3016 640 65 -1600 310/03 RMK AO2
14837KMSN MSN20060207201009902/07/06 20:10:31  5-MIN KMSN 080210Z 00000KT 10SM OVC110 M05/M11 A3017 640 62 -1600 000/00 RMK AO2
14837KMSN MSN20060207201509902/07/06 20:15:31  5-MIN KMSN 080215Z 00000KT 10SM OVC110 M05/M10 A3017 640 68 -1600 000/00 RMK AO2
14837KMSN MSN20060207202009902/07/06 20:20:31  5-MIN KMSN 080220Z 00000KT 10SM OVC110 M05/M11 A3017 640 65 -1600 000/00 RMK AO2
14837KMSN MSN20060207202509902/07/06 20:25:31  5-MIN KMSN 080225Z 00000KT 10SM OVC110 M04/M11 A3017 640 60 -1500 000/00 RMK AO2
14837KMSN MSN20060207203009902/07/06 20:30:31  5-MIN KMSN 080230Z 01003KT 10SM OVC110 M05/M11 A3017 640 65 -1600 360/03 RMK AO2
14837KMSN MSN20060207203509902/07/06 20:35:31  5-MIN KMSN 080235Z 01004KT 10SM OVC110 M05/M11 A3017 640 62 -1600 010/04 RMK AO2
14837KMSN MSN20060207204010602/07/06 20:40:31  5-MIN KMSN 080240Z 36004KT 10SM SCT090 OVC110 M05/M11 A3017 640 62 -1600 360/04 RMK AO2
14837KMSN MSN20060207204510602/07/06 20:45:31  5-MIN KMSN 080245Z 35003KT 10SM SCT090 OVC110 M05/M11 A3017 640 65 -1600 350/03 RMK AO2
14837KMSN MSN20060207205012902/07/06 20:50:31  5-MIN KMSN 080250Z 35004KT 10SM SCT090 BKN110 M05/M11 A3017 640 65 -1600 350/04 RMK AO2 SLP230 T10501106 51005
14837KMSN MSN20060207205510602/07/06 20:55:31  5-MIN KMSN 080255Z 36004KT 10SM SCT090 BKN110 M04/M11 A3017 630 62 -1500 360/04 RMK AO2
14837KMSN MSN20060207210010602/07/06 21:00:31  5-MIN KMSN 080300Z 36004KT 10SM BKN090 BKN110 M05/M11 A3017 630 65 -1600 360/04 RMK AO2
14837KMSN MSN20060207210509902/07/06 21:05:31  5-MIN KMSN 080305Z 36004KT 10SM BKN095 M05/M11 A3017 630 65 -1600 360/04 RMK AO2
14837KMSN MSN20060207211009902/07/06 21:10:31  5-MIN KMSN 080310Z 36004KT 10SM BKN090 M05/M11 A3018 630 65 -1600 360/04 RMK AO2
14837KMSN MSN20060207211509902/07/06 21:15:31  5-MIN KMSN 080315Z 01004KT 10SM BKN095 M05/M11 A3018 630 65 -1600 010/04 RMK AO2
14837KMSN MSN20060207212009902/07/06 21:20:31  5-MIN KMSN 080320Z 01004KT 10SM OVC095 M05/M11 A3018 630 65 -1600 010/04 RMK AO2
14837KMSN MSN20060207212509902/07/06 21:25:31  5-MIN KMSN 080325Z 01004KT 10SM OVC095 M05/M11 A3018 630 65 -1600 360/04 RMK AO2
14837KMSN MSN20060207213009902/07/06 21:30:31  5-MIN KMSN 080330Z 02004KT 10SM OVC095 M05/M11 A3018 630 65 -1600 010/04 RMK AO2
14837KMSN MSN20060207213509902/07/06 21:35:31  5-MIN KMSN 080335Z 02005KT 10SM OVC095 M05/M11 A3018 630 62 -1600 020/05 RMK AO2
14837KMSN MSN20060207214009902/07/06 21:40:31  5-MIN KMSN 080340Z 02004KT 10SM OVC095 M06/M12 A3018 630 62 -1700 020/04 RMK AO2
14837KMSN MSN20060207214509902/07/06 21:45:31  5-MIN KMSN 080345Z 02004KT 10SM BKN095 M06/M11 A3018 630 65 -1700 020/04 RMK AO2
14837KMSN MSN20060207215011602/07/06 21:50:31  5-MIN KMSN 080350Z 01004KT 10SM BKN095 M06/M11 A3018 630 65 -1700 010/04 RMK AO2 SLP232 T10561111
14837KMSN MSN20060207215509902/07/06 21:55:31  5-MIN KMSN 080355Z 02004KT 10SM BKN095 M05/M11 A3017 630 62 -1600 020/04 RMK AO2
14837KMSN MSN20060207220009902/07/06 22:00:31  5-MIN KMSN 080400Z 01005KT 10SM BKN100 M05/M12 A3017 630 60 -1600 010/05 RMK AO2
14837KMSN MSN20060207220509902/07/06 22:05:31  5-MIN KMSN 080405Z 02005KT 10SM BKN100 M06/M11 A3017 630 65 -1700 020/05 RMK AO2
14837KMSN MSN20060207221009902/07/06 22:10:31  5-MIN KMSN 080410Z 01005KT 10SM BKN100 M06/M11 A3017 630 65 -1700 010/05 RMK AO2
14837KMSN MSN20060207221509902/07/06 22:15:31  5-MIN KMSN 080415Z 36004KT 10SM BKN100 M06/M12 A3018 630 62 -1700 360/04 RMK AO2
14837KMSN MSN20060207222009902/07/06 22:20:31  5-MIN KMSN 080420Z 36004KT 10SM OVC100 M06/M12 A3017 630 62 -1700 350/04 RMK AO2
14837KMSN MSN20060207222509902/07/06 22:25:31  5-MIN KMSN 080425Z 35004KT 10SM OVC100 M06/M12 A3017 630 62 -1700 350/04 RMK AO2
14837KMSN MSN20060207223009902/07/06 22:30:31  5-MIN KMSN 080430Z 36005KT 10SM OVC100 M06/M12 A3017 630 62 -1700 360/05 RMK AO2
14837KMSN MSN20060207223510602/07/06 22:35:31  5-MIN KMSN 080435Z 36006KT 10SM BKN100 OVC110 M06/M12 A3017 630 62 -1700 360/06 RMK AO2
14837KMSN MSN20060207224010602/07/06 22:40:31  5-MIN KMSN 080440Z 36006KT 10SM BKN100 OVC110 M06/M11 A3017 640 68 -1700 360/06 RMK AO2
14837KMSN MSN20060207224509902/07/06 22:45:31  5-MIN KMSN 080445Z 36005KT 10SM OVC100 M06/M11 A3017 640 68 -1700 360/05 RMK AO2
14837KMSN MSN20060207225011602/07/06 22:50:31  5-MIN KMSN 080450Z 36004KT 10SM OVC110 M06/M11 A3017 640 68 -1700 350/04 RMK AO2 SLP230 T10611111
14837KMSN MSN20060207225509902/07/06 22:55:31  5-MIN KMSN 080455Z 35004KT 10SM OVC100 M06/M12 A3017 640 62 -1700 350/04 RMK AO2
14837KMSN MSN20060207230009902/07/06 23:00:31  5-MIN KMSN 080500Z 36005KT 10SM OVC100 M06/M12 A3017 640 65 -1700 360/05 RMK AO2
14837KMSN MSN20060207230509902/07/06 23:05:31  5-MIN KMSN 080505Z 36005KT 10SM OVC100 M06/M12 A3017 630 65 -1700 360/05 RMK AO2
14837KMSN MSN20060207231009902/07/06 23:10:31  5-MIN KMSN 080510Z 36005KT 10SM OVC100 M06/M12 A3017 630 65 -1700 360/05 RMK AO2
14837KMSN MSN20060207231509902/07/06 23:15:31  5-MIN KMSN 080515Z 36004KT 10SM OVC100 M06/M12 A3017 630 65 -1700 360/04 RMK AO2
14837KMSN MSN20060207232009902/07/06 23:20:31  5-MIN KMSN 080520Z 36004KT 10SM OVC100 M06/M12 A3017 630 65 -1700 360/04 RMK AO2
14837KMSN MSN20060207232509902/07/06 23:25:31  5-MIN KMSN 080525Z 01004KT 10SM OVC100 M06/M12 A3017 630 65 -1700 010/04 RMK AO2
14837KMSN MSN20060207233009902/07/06 23:30:31  5-MIN KMSN 080530Z 36003KT 10SM OVC100 M06/M12 A3017 630 65 -1700 360/03 RMK AO2
14837KMSN MSN20060207233509902/07/06 23:35:31  5-MIN KMSN 080535Z 36004KT 10SM BKN100 M06/M11 A3017 630 68 -1700 350/04 RMK AO2
14837KMSN MSN20060207234009902/07/06 23:40:31  5-MIN KMSN 080540Z 35003KT 10SM BKN100 M06/M12 A3017 630 65 -1700 350/03 RMK AO2
14837KMSN MSN20060207234509902/07/06 23:45:31  5-MIN KMSN 080545Z 35004KT 10SM BKN100 M06/M12 A3017 630 65 -1700 350/04 RMK AO2
14837KMSN MSN20060207235014402/07/06 23:50:31  5-MIN KMSN 080550Z 35004KT 10SM SCT100 M06/M12 A3017 630 65 -1700 350/04 RMK AO2 SLP232 T10611117 11033 21061 410061094 53001
14837KMSN MSN20060207235509902/07/06 23:55:31  5-MIN KMSN 080555Z 35004KT 10SM SCT100 M06/M12 A3018 630 65 -1700 350/04 RMK AO2
14837KMSN MSN20060208000009902/08/06 00:00:38  5-MIN KMSN 080600Z 35005KT 10SM BKN100 M06/M12 A3018 630 65 -1700 350/05 RMK AO2
14837KMSN MSN20060208000509902/08/06 00:05:31  5-MIN KMSN 080605Z 35005KT 10SM BKN100 M07/M12 A3018 630 65 -1800 350/05 RMK AO2
14837KMSN MSN20060208001009902/08/06 00:10:31  5-MIN KMSN 080610Z 36006KT 10SM BKN100 M07/M12 A3018 630 68 -1800 360/06 RMK AO2
14837KMSN MSN20060208001509902/08/06 00:15:31  5-MIN KMSN 080615Z 36006KT 10SM BKN100 M07/M12 A3018 630 71 -1900 360/06 RMK AO2
14837KMSN MSN20060208002009902/08/06 00:20:31  5-MIN KMSN 080620Z 36005KT 10SM BKN100 M07/M12 A3018 630 71 -1900 360/05 RMK AO2
14837KMSN MSN20060208002509902/08/06 00:25:31  5-MIN KMSN 080625Z 01006KT 10SM BKN100 M07/M12 A3018 630 68 -1900 010/06 RMK AO2
14837KMSN MSN20060208003009902/08/06 00:30:31  5-MIN KMSN 080630Z 01005KT 10SM BKN100 M07/M12 A3018 630 71 -1900 010/05 RMK AO2
14837KMSN MSN20060208003509902/08/06 00:35:31  5-MIN KMSN 080635Z 01005KT 10SM BKN100 M07/M12 A3018 630 71 -1900 010/05 RMK AO2
14837KMSN MSN20060208004009902/08/06 00:40:31  5-MIN KMSN 080640Z 01004KT 10SM BKN100 M07/M12 A3018 630 71 -1900 010/04 RMK AO2
14837KMSN MSN20060208004509902/08/06 00:45:31  5-MIN KMSN 080645Z 36003KT 10SM OVC095 M07/M12 A3018 630 71 -1900 360/03 RMK AO2
14837KMSN MSN20060208005011602/08/06 00:50:31  5-MIN KMSN 080650Z 36003KT 10SM OVC095 M07/M12 A3018 630 71 -1900 360/03 RMK AO2 SLP234 T10721117
14837KMSN MSN20060208005509902/08/06 00:55:31  5-MIN KMSN 080655Z 36003KT 10SM OVC095 M07/M12 A3018 620 71 -1900 360/03 RMK AO2
14837KMSN MSN20060208010009902/08/06 01:00:31  5-MIN KMSN 080700Z 00000KT 10SM OVC095 M08/M12 A3018 620 74 -2000 000/00 RMK AO2
14837KMSN MSN20060208010509902/08/06 01:05:31  5-MIN KMSN 080705Z 35003KT 10SM BKN095 M08/M12 A3018 620 74 -2000 350/03 RMK AO2
14837KMSN MSN20060208011009902/08/06 01:10:31  5-MIN KMSN 080710Z 36003KT 10SM BKN100 M07/M12 A3018 620 71 -1900 360/03 RMK AO2
14837KMSN MSN20060208011509902/08/06 01:15:31  5-MIN KMSN 080715Z 36003KT 10SM BKN100 M07/M12 A3018 620 71 -1900 360/03 RMK AO2
14837KMSN MSN20060208012009902/08/06 01:20:31  5-MIN KMSN 080720Z 36004KT 10SM BKN100 M07/M12 A3018 620 71 -1900 360/04 RMK AO2
14837KMSN MSN20060208012509902/08/06 01:25:31  5-MIN KMSN 080725Z 36005KT 10SM SCT100 M08/M12 A3018 620 74 -2000 360/05 RMK AO2
14837KMSN MSN20060208013009902/08/06 01:30:31  5-MIN KMSN 080730Z 36005KT 10SM FEW100 M08/M12 A3018 620 74 -2000 360/05 RMK AO2
14837KMSN MSN20060208013509902/08/06 01:35:31  5-MIN KMSN 080735Z 36004KT 10SM FEW100 M08/M12 A3018 620 77 -2000 360/04 RMK AO2
14837KMSN MSN20060208014009602/08/06 01:40:31  5-MIN KMSN 080740Z 35004KT 10SM CLR M08/M12 A3018 620 77 -2000 350/04 RMK AO2
14837KMSN MSN20060208014509602/08/06 01:45:31  5-MIN KMSN 080745Z 36004KT 10SM CLR M08/M12 A3018 620 77 -2000 350/04 RMK AO2
14837KMSN MSN20060208015011302/08/06 01:50:31  5-MIN KMSN 080750Z 01007KT 10SM CLR M08/M12 A3019 620 77 -2000 010/07 RMK AO2 SLP236 T10831117
14837KMSN MSN20060208015509602/08/06 01:55:31  5-MIN KMSN 080755Z 01008KT 10SM CLR M08/M12 A3019 620 77 -2000 010/08 RMK AO2
14837KMSN MSN20060208020009602/08/06 02:00:31  5-MIN KMSN 080800Z 01007KT 10SM CLR M08/M12 A3019 620 77 -2000 010/07 RMK AO2
14837KMSN MSN20060208020509602/08/06 02:05:31  5-MIN KMSN 080805Z 01005KT 10SM CLR M08/M12 A3019 620 77 -2000 010/05 RMK AO2
14837KMSN MSN20060208021009602/08/06 02:10:31  5-MIN KMSN 080810Z 01004KT 10SM CLR M08/M12 A3019 620 77 -2000 010/04 RMK AO2
14837KMSN MSN20060208021509902/08/06 02:15:31  5-MIN KMSN 080815Z 36003KT 10SM FEW110 M08/M12 A3019 620 77 -2000 360/03 RMK AO2
14837KMSN MSN20060208022009902/08/06 02:20:31  5-MIN KMSN 080820Z 35004KT 10SM SCT110 M08/M12 A3019 610 74 -2000 350/04 RMK AO2
14837KMSN MSN20060208022509902/08/06 02:25:31  5-MIN KMSN 080825Z 36005KT 10SM FEW110 M08/M12 A3019 610 74 -2000 350/05 RMK AO2
14837KMSN MSN20060208023009902/08/06 02:30:31  5-MIN KMSN 080830Z 36004KT 10SM FEW110 M08/M12 A3019 620 74 -2000 360/04 RMK AO2
14837KMSN MSN20060208023509902/08/06 02:35:31  5-MIN KMSN 080835Z 36003KT 10SM SCT110 M08/M12 A3019 620 74 -2000 360/03 RMK AO2
14837KMSN MSN20060208024009902/08/06 02:40:31  5-MIN KMSN 080840Z 35003KT 10SM BKN110 M08/M12 A3019 620 74 -2000 340/03 RMK AO2
14837KMSN MSN20060208024509902/08/06 02:45:31  5-MIN KMSN 080845Z 35003KT 10SM BKN110 M08/M12 A3019 620 77 -2000 350/03 RMK AO2
14837KMSN MSN20060208025012202/08/06 02:50:31  5-MIN KMSN 080850Z 35004KT 10SM BKN110 M08/M12 A3019 620 77 -2000 350/04 RMK AO2 SLP237 T10831117 53002
14837KMSN MSN20060208025509902/08/06 02:55:31  5-MIN KMSN 080855Z 35005KT 10SM BKN110 M08/M12 A3019 620 77 -2000 350/05 RMK AO2
14837KMSN MSN20060208030009902/08/06 03:00:31  5-MIN KMSN 080900Z 35005KT 10SM BKN110 M08/M12 A3019 610 77 -2000 350/05 RMK AO2
14837KMSN MSN20060208030509902/08/06 03:05:31  5-MIN KMSN 080905Z 36005KT 10SM BKN100 M08/M12 A3019 610 77 -2000 360/05 RMK AO2
14837KMSN MSN20060208031009902/08/06 03:10:31  5-MIN KMSN 080910Z 36005KT 10SM BKN110 M08/M12 A3019 610 74 -2000 360/05 RMK AO2
14837KMSN MSN20060208031509902/08/06 03:15:31  5-MIN KMSN 080915Z 36006KT 10SM OVC100 M09/M12 A3019 620 77 -2100 360/06 RMK AO2
14837KMSN MSN20060208032009902/08/06 03:20:31  5-MIN KMSN 080920Z 36005KT 10SM OVC100 M08/M12 A3019 620 74 -2000 360/05 RMK AO2
14837KMSN MSN20060208032509902/08/06 03:25:31  5-MIN KMSN 080925Z 36005KT 10SM OVC100 M09/M12 A3019 620 77 -2100 360/05 RMK AO2
14837KMSN MSN20060208033009902/08/06 03:30:31  5-MIN KMSN 080930Z 36006KT 10SM OVC100 M09/M12 A3019 620 77 -2100 360/06 RMK AO2
14837KMSN MSN20060208033509902/08/06 03:35:31  5-MIN KMSN 080935Z 35005KT 10SM OVC100 M09/M12 A3019 620 77 -2100 350/05 RMK AO2
14837KMSN MSN20060208034009902/08/06 03:40:31  5-MIN KMSN 080940Z 35005KT 10SM OVC100 M09/M12 A3019 620 77 -2100 350/05 RMK AO2
14837KMSN MSN20060208034509902/08/06 03:45:31  5-MIN KMSN 080945Z 35006KT 10SM BKN100 M09/M12 A3019 620 77 -2100 350/06 RMK AO2
14837KMSN MSN20060208035011602/08/06 03:50:31  5-MIN KMSN 080950Z 35005KT 10SM BKN100 M09/M12 A3019 610 77 -2100 350/05 RMK AO2 SLP237 T10891122
14837KMSN MSN20060208035509902/08/06 03:55:31  5-MIN KMSN 080955Z 35005KT 10SM SCT100 M09/M12 A3019 620 77 -2100 350/05 RMK AO2
14837KMSN MSN20060208040009902/08/06 04:00:31  5-MIN KMSN 081000Z 35005KT 10SM FEW100 M09/M12 A3019 610 80 -2200 350/05 RMK AO2
14837KMSN MSN20060208040509902/08/06 04:05:31  5-MIN KMSN 081005Z 35005KT 10SM FEW110 M09/M13 A3019 610 77 -2200 350/05 RMK AO2
14837KMSN MSN20060208041009602/08/06 04:10:31  5-MIN KMSN 081010Z 35005KT 10SM CLR M09/M12 A3019 610 80 -2200 350/05 RMK AO2
14837KMSN MSN20060208041509602/08/06 04:15:31  5-MIN KMSN 081015Z 35005KT 10SM CLR M09/M12 A3019 610 80 -2200 350/05 RMK AO2
14837KMSN MSN20060208042009602/08/06 04:20:31  5-MIN KMSN 081020Z 35006KT 10SM CLR M09/M12 A3019 610 80 -2200 350/06 RMK AO2
14837KMSN MSN20060208042509602/08/06 04:25:31  5-MIN KMSN 081025Z 36005KT 10SM CLR M09/M12 A3019 610 80 -2200 350/05 RMK AO2
14837KMSN MSN20060208043009602/08/06 04:30:31  5-MIN KMSN 081030Z 35004KT 10SM CLR M09/M13 A3019 610 77 -2200 350/04 RMK AO2
14837KMSN MSN20060208043509602/08/06 04:35:31  5-MIN KMSN 081035Z 34005KT 10SM CLR M09/M13 A3020 610 77 -2200 340/05 RMK AO2
14837KMSN MSN20060208044009602/08/06 04:40:31  5-MIN KMSN 081040Z 33004KT 10SM CLR M09/M13 A3020 610 77 -2200 330/04 RMK AO2
14837KMSN MSN20060208044509602/08/06 04:45:31  5-MIN KMSN 081045Z 33004KT 10SM CLR M09/M13 A3020 610 77 -2200 330/04 RMK AO2
14837KMSN MSN20060208045011302/08/06 04:50:31  5-MIN KMSN 081050Z 34005KT 10SM CLR M09/M13 A3020 610 77 -2200 340/05 RMK AO2 SLP239 T10941128
14837KMSN MSN20060208045509602/08/06 04:55:31  5-MIN KMSN 081055Z 33004KT 10SM CLR M09/M13 A3020 610 77 -2200 330/04 RMK AO2
14837KMSN MSN20060208050009602/08/06 05:00:31  5-MIN KMSN 081100Z 33005KT 10SM CLR M09/M13 A3020 610 77 -2200 330/05 RMK AO2
14837KMSN MSN20060208050509602/08/06 05:05:31  5-MIN KMSN 081105Z 33007KT 10SM CLR M09/M13 A3020 610 77 -2200 330/07 RMK AO2
14837KMSN MSN20060208051009602/08/06 05:10:31  5-MIN KMSN 081110Z 34007KT 10SM CLR M09/M13 A3020 610 77 -2200 340/07 RMK AO2
14837KMSN MSN20060208051509602/08/06 05:15:31  5-MIN KMSN 081115Z 33006KT 10SM CLR M09/M13 A3020 610 77 -2200 330/06 RMK AO2
14837KMSN MSN20060208052009602/08/06 05:20:31  5-MIN KMSN 081120Z 34007KT 10SM CLR M09/M13 A3020 610 73 -2200 340/07 RMK AO2
14837KMSN MSN20060208052509602/08/06 05:25:31  5-MIN KMSN 081125Z 34006KT 10SM CLR M09/M13 A3020 600 73 -2200 340/06 RMK AO2
14837KMSN MSN20060208053009602/08/06 05:30:31  5-MIN KMSN 081130Z 35007KT 10SM CLR M09/M13 A3020 600 73 -2200 350/07 RMK AO2
14837KMSN MSN20060208053509602/08/06 05:35:31  5-MIN KMSN 081135Z 35007KT 10SM CLR M09/M13 A3021 600 73 -2200 350/07 RMK AO2
14837KMSN MSN20060208054009602/08/06 05:40:31  5-MIN KMSN 081140Z 35007KT 10SM CLR M09/M13 A3020 600 73 -2200 340/07 RMK AO2
14837KMSN MSN20060208054509602/08/06 05:45:31  5-MIN KMSN 081145Z 35007KT 10SM CLR M09/M13 A3021 600 73 -2200 350/07 RMK AO2
14837KMSN MSN20060208055013102/08/06 05:50:31  5-MIN KMSN 081150Z 35007KT 10SM CLR M10/M13 A3021 600 77 -2300 350/07 RMK AO2 SLP244 T11001133 11061 21100 51005
14837KMSN MSN20060208055509602/08/06 05:55:31  5-MIN KMSN 081155Z 35007KT 10SM CLR M10/M13 A3021 600 77 -2300 350/07 RMK AO2
14837KMSN MSN20060208060009602/08/06 06:00:31  5-MIN KMSN 081200Z 35007KT 10SM CLR M10/M13 A3021 600 77 -2300 350/07 RMK AO2
14837KMSN MSN20060208060509602/08/06 06:05:31  5-MIN KMSN 081205Z 35006KT 10SM CLR M10/M13 A3021 600 77 -2300 350/06 RMK AO2
14837KMSN MSN20060208061009602/08/06 06:10:31  5-MIN KMSN 081210Z 35007KT 10SM CLR M10/M14 A3021 600 73 -2300 350/07 RMK AO2
14837KMSN MSN20060208061509602/08/06 06:15:31  5-MIN KMSN 081215Z 34006KT 10SM CLR M10/M14 A3021 600 73 -2300 340/06 RMK AO2
14837KMSN MSN20060208062009602/08/06 06:20:31  5-MIN KMSN 081220Z 34007KT 10SM CLR M10/M13 A3021 600 77 -2300 340/07 RMK AO2
14837KMSN MSN20060208062509602/08/06 06:25:31  5-MIN KMSN 081225Z 35006KT 10SM CLR M10/M13 A3021 600 77 -2300 350/06 RMK AO2
14837KMSN MSN20060208063009902/08/06 06:30:31  5-MIN KMSN 081230Z 34007KT 10SM FEW050 M10/M13 A3021 600 77 -2300 340/07 RMK AO2
14837KMSN MSN20060208063509902/08/06 06:35:31  5-MIN KMSN 081235Z 34006KT 10SM FEW050 M10/M13 A3021 600 77 -2300 340/06 RMK AO2
14837KMSN MSN20060208064009902/08/06 06:40:31  5-MIN KMSN 081240Z 35006KT 10SM FEW050 M10/M13 A3021 600 77 -2300 340/06 RMK AO2
14837KMSN MSN20060208064509902/08/06 06:45:31  5-MIN KMSN 081245Z 34006KT 10SM SCT050 M10/M13 A3021 590 77 -2300 340/06 RMK AO2
14837KMSN MSN20060208065011602/08/06 06:50:31  5-MIN KMSN 081250Z 35006KT 10SM BKN050 M09/M13 A3022 590 73 -2200 350/06 RMK AO2 SLP247 T10941133
14837KMSN MSN20060208065509902/08/06 06:55:31  5-MIN KMSN 081255Z 34007KT 10SM BKN050 M09/M13 A3022 590 73 -2200 340/07 RMK AO2
14837KMSN MSN20060208070009902/08/06 07:00:31  5-MIN KMSN 081300Z 34007KT 10SM BKN050 M09/M13 A3022 590 77 -2200 340/07 RMK AO2
14837KMSN MSN20060208070509902/08/06 07:05:31  5-MIN KMSN 081305Z 34008KT 10SM OVC050 M09/M13 A3022 590 77 -2200 340/08 RMK AO2
14837KMSN MSN20060208071009902/08/06 07:10:31  5-MIN KMSN 081310Z 35006KT 10SM OVC050 M09/M13 A3023 580 74 -2200 340/06 RMK AO2
14837KMSN MSN20060208071509902/08/06 07:15:31  5-MIN KMSN 081315Z 34007KT 10SM OVC050 M09/M13 A3023 580 74 -2200 340/07 RMK AO2
14837KMSN MSN20060208072009902/08/06 07:20:31  5-MIN KMSN 081320Z 35008KT 10SM OVC050 M09/M13 A3023 580 74 -2200 340/08 RMK AO2
14837KMSN MSN20060208072509902/08/06 07:25:31  5-MIN KMSN 081325Z 35008KT 10SM OVC050 M09/M12 A3023 580 77 -2200 350/08 RMK AO2
14837KMSN MSN20060208073009902/08/06 07:30:31  5-MIN KMSN 081330Z 35008KT 10SM OVC050 M09/M12 A3023 580 77 -2200 350/08 RMK AO2
14837KMSN MSN20060208073509902/08/06 07:35:31  5-MIN KMSN 081335Z 35007KT 10SM OVC050 M08/M12 A3023 580 74 -2100 350/07 RMK AO2
14837KMSN MSN20060208074009902/08/06 07:40:31  5-MIN KMSN 081340Z 36007KT 10SM OVC050 M08/M12 A3023 580 77 -2100 350/07 RMK AO2
14837KMSN MSN20060208074509902/08/06 07:45:31  5-MIN KMSN 081345Z 36007KT 10SM OVC050 M08/M12 A3023 570 77 -2100 360/07 RMK AO2
14837KMSN MSN20060208075011602/08/06 07:50:31  5-MIN KMSN 081350Z 36007KT 10SM OVC050 M08/M12 A3023 570 77 -2100 360/07 RMK AO2 SLP253 T10831117
14837KMSN MSN20060208075509902/08/06 07:55:31  5-MIN KMSN 081355Z 36008KT 10SM OVC050 M08/M11 A3024 570 77 -2000 360/08 RMK AO2
14837KMSN MSN20060208080009902/08/06 08:00:31  5-MIN KMSN 081400Z 36009KT 10SM OVC050 M08/M11 A3024 570 77 -2000 360/09 RMK AO2
14837KMSN MSN20060208080509902/08/06 08:05:31  5-MIN KMSN 081405Z 36009KT 10SM OVC050 M08/M11 A3024 570 77 -2000 360/09 RMK AO2
14837KMSN MSN20060208081011502/08/06 08:10:31  5-MIN KMSN 081410Z 36010KT 10SM -SN OVC050 M08/M11 A3024 570 77 -2000 360/10 RMK AO2 SNB09 P0000
14837KMSN MSN20060208081511402/08/06 08:15:31  5-MIN KMSN 081415Z 36009KT 9SM -SN OVC050 M07/M11 A3024 570 77 -2000 360/09 RMK AO2 SNB09 P0000
14837KMSN MSN20060208082011402/08/06 08:20:31  5-MIN KMSN 081420Z 36009KT 9SM -SN OVC050 M07/M11 A3024 570 77 -2000 360/09 RMK AO2 SNB09 P0000
14837KMSN MSN20060208082511402/08/06 08:25:31  5-MIN KMSN 081425Z 36008KT 9SM -SN OVC050 M07/M11 A3024 570 77 -2000 360/08 RMK AO2 SNB09 P0000
14837KMSN MSN20060208083011402/08/06 08:30:31  5-MIN KMSN 081430Z 36011KT 9SM -SN OVC050 M07/M11 A3024 570 77 -2000 360/11 RMK AO2 SNB09 P0000
14837KMSN MSN20060208083511402/08/06 08:35:31  5-MIN KMSN 081435Z 01012KT 9SM -SN OVC050 M07/M11 A3024 570 77 -2000 010/12 RMK AO2 SNB09 P0000
14837KMSN MSN20060208084011402/08/06 08:40:31  5-MIN KMSN 081440Z 01012KT 9SM -SN OVC050 M07/M11 A3024 570 77 -2000 010/12 RMK AO2 SNB09 P0000
14837KMSN MSN20060208084511402/08/06 08:45:31  5-MIN KMSN 081445Z 01011KT 9SM -SN OVC050 M07/M11 A3024 570 74 -1900 010/11 RMK AO2 SNB09 P0000
14837KMSN MSN20060208085015002/08/06 08:50:31  5-MIN KMSN 081450Z 01011KT 9SM -SN FEW022 OVC055 M07/M10 A3024 570 77 -1900 360/11 RMK AO2 SNB09 SLP256 P0000 60000 T10671100 53006
14837KMSN MSN20060208085510802/08/06 08:55:31  5-MIN KMSN 081455Z 01011KT 9SM -SN OVC055 M07/M10 A3024 570 77 -1900 010/11 RMK AO2 P0000
14837KMSN MSN20060208090010802/08/06 09:00:31  5-MIN KMSN 081500Z 01013KT 9SM -SN OVC055 M07/M10 A3025 560 77 -1900 010/13 RMK AO2 P0000
14837KMSN MSN20060208090510802/08/06 09:05:31  5-MIN KMSN 081505Z 01012KT 9SM -SN OVC055 M06/M10 A3025 570 74 -1800 010/12 RMK AO2 P0000
14837KMSN MSN20060208091010802/08/06 09:10:31  5-MIN KMSN 081510Z 36013KT 9SM -SN OVC055 M06/M10 A3025 560 74 -1800 360/13 RMK AO2 P0000
14837KMSN MSN20060208091511402/08/06 09:15:31  5-MIN KMSN 081515Z 02015G20KT 9SM -SN OVC055 M06/M10 A3025 560 74 -1800 020/15G20 RMK AO2 P0000
14837KMSN MSN20060208092011402/08/06 09:20:31  5-MIN KMSN 081520Z 02015G20KT 9SM -SN OVC055 M06/M10 A3025 560 74 -1800 020/15G20 RMK AO2 P0000
14837KMSN MSN20060208092510802/08/06 09:25:31  5-MIN KMSN 081525Z 01015KT 9SM -SN OVC055 M06/M10 A3025 560 74 -1800 010/15 RMK AO2 P0000
14837KMSN MSN20060208093010802/08/06 09:30:31  5-MIN KMSN 081530Z 02015KT 9SM -SN OVC055 M06/M10 A3025 560 74 -1800 020/15 RMK AO2 P0000
14837KMSN MSN20060208093510802/08/06 09:35:31  5-MIN KMSN 081535Z 02016KT 9SM -SN OVC055 M06/M10 A3025 560 71 -1800 010/16 RMK AO2 P0000
14837KMSN MSN20060208094010802/08/06 09:40:31  5-MIN KMSN 081540Z 01014KT 9SM -SN OVC055 M06/M10 A3025 560 71 -1800 010/14 RMK AO2 P0000
14837KMSN MSN20060208094510802/08/06 09:45:31  5-MIN KMSN 081545Z 03014KT 9SM -SN OVC055 M06/M10 A3025 560 71 -1800 030/14 RMK AO2 P0000
14837KMSN MSN20060208095013202/08/06 09:50:31  5-MIN KMSN 081550Z 02015KT 9SM -SN SCT024 OVC055 M06/M10 A3025 560 71 -1800 020/15 RMK AO2 SLP259 P0000 T10561100
14837KMSN MSN20060208095510802/08/06 09:55:31  5-MIN KMSN 081555Z 03011KT 9SM -SN OVC055 M06/M10 A3026 560 71 -1800 030/11 RMK AO2 P0000
14837KMSN MSN20060208100010802/08/06 10:00:31  5-MIN KMSN 081600Z 01013KT 9SM -SN OVC055 M05/M10 A3026 550 68 -1700 010/13 RMK AO2 P0000
14837KMSN MSN20060208100511502/08/06 10:05:31  5-MIN KMSN 081605Z 01011KT 9SM -SN FEW021 OVC055 M05/M10 A3026 550 68 -1700 360/11 RMK AO2 P0000
14837KMSN MSN20060208101011502/08/06 10:10:31  5-MIN KMSN 081610Z 01014KT 9SM -SN BKN023 BKN055 M05/M10 A3026 550 68 -1700 010/14 RMK AO2 P0000
14837KMSN MSN20060208101511502/08/06 10:15:31  5-MIN KMSN 081615Z 03013KT 9SM -SN BKN023 BKN055 M05/M10 A3026 550 68 -1700 030/13 RMK AO2 P0000
14837KMSN MSN20060208102011502/08/06 10:20:31  5-MIN KMSN 081620Z 04013KT 9SM -SN BKN023 BKN055 M05/M11 A3026 550 65 -1700 040/13 RMK AO2 P0000
14837KMSN MSN20060208102511702/08/06 10:25:31  5-MIN KMSN 081625Z 03012KT 9SM BKN025 OVC055 M04/M11 A3026 550 62 -1600 030/12 RMK AO2 SNE23 P0000
14837KMSN MSN20060208103012402/08/06 10:30:31  5-MIN KMSN 081630Z 02015G20KT 10SM BKN025 OVC055 M04/M11 A3026 550 60 -1600 010/15G20 RMK AO2 SNE23 P0000
14837KMSN MSN20060208103512402/08/06 10:35:31  5-MIN KMSN 081635Z 02013G20KT 10SM BKN025 OVC055 M04/M11 A3026 550 60 -1600 020/13G20 RMK AO2 SNE23 P0000
14837KMSN MSN20060208104011802/08/06 10:40:31  5-MIN KMSN 081640Z 03015KT 10SM BKN025 OVC055 M04/M11 A3027 550 60 -1600 030/15 RMK AO2 SNE23 P0000
14837KMSN MSN20060208104511802/08/06 10:45:31  5-MIN KMSN 081645Z 02013KT 10SM BKN027 OVC055 M04/M11 A3027 550 60 -1600 020/13 RMK AO2 SNE23 P0000
14837KMSN MSN20060208105013502/08/06 10:50:31  5-MIN KMSN 081650Z 02016KT 10SM BKN027 OVC055 M04/M11 A3027 540 60 -1600 020/16 RMK AO2 SNE23 SLP264 P0000 T10391106
14837KMSN MSN20060208105510602/08/06 10:55:31  5-MIN KMSN 081655Z 36015KT 10SM BKN027 OVC055 M04/M11 A3027 540 60 -1600 360/15 RMK AO2
14837KMSN MSN20060208110011202/08/06 11:00:31  5-MIN KMSN 081700Z 02016G20KT 10SM BKN027 OVC055 M04/M11 A3027 540 57 -1600 010/16G20 RMK AO2
14837KMSN MSN20060208110510602/08/06 11:05:31  5-MIN KMSN 081705Z 03015KT 10SM SCT027 OVC060 M04/M11 A3027 540 57 -1600 020/15 RMK AO2
14837KMSN MSN20060208111010602/08/06 11:10:31  5-MIN KMSN 081710Z 02011KT 10SM SCT027 OVC060 M04/M11 A3027 550 57 -1600 020/11 RMK AO2
14837KMSN MSN20060208111510602/08/06 11:15:31  5-MIN KMSN 081715Z 02014KT 10SM SCT027 OVC060 M03/M11 A3027 540 57 -1500 020/14 RMK AO2
14837KMSN MSN20060208112010602/08/06 11:20:31  5-MIN KMSN 081720Z 02015KT 10SM FEW027 OVC060 M03/M11 A3027 540 55 -1500 020/15 RMK AO2
14837KMSN MSN20060208112510602/08/06 11:25:31  5-MIN KMSN 081725Z 01015KT 10SM FEW027 BKN060 M03/M11 A3027 540 55 -1500 360/15 RMK AO2
14837KMSN MSN20060208113011202/08/06 11:30:31  5-MIN KMSN 081730Z 36014G19KT 10SM FEW027 BKN060 M03/M11 A3027 540 55 -1500 360/14G19 RMK AO2
14837KMSN MSN20060208113510602/08/06 11:35:31  5-MIN KMSN 081735Z 01017KT 10SM FEW027 BKN060 M03/M11 A3027 540 55 -1500 010/17 RMK AO2
14837KMSN MSN20060208114009902/08/06 11:40:31  5-MIN KMSN 081740Z 36013KT 10SM OVC060 M03/M11 A3027 550 55 -1500 360/13 RMK AO2
14837KMSN MSN20060208114509902/08/06 11:45:31  5-MIN KMSN 081745Z 02011KT 10SM OVC060 M03/M11 A3026 550 55 -1500 020/11 RMK AO2
14837KMSN MSN20060208115015302/08/06 11:50:31  5-MIN KMSN 081750Z 36015G18KT 10SM FEW030 OVC060 M03/M11 A3026 550 55 -1500 360/15G18 RMK AO2 SLP262 60000 T10331111 11033 21100 51012
14837KMSN MSN20060208115510602/08/06 11:55:31  5-MIN KMSN 081755Z 36014KT 10SM SCT030 BKN060 M04/M11 A3026 550 57 -1600 360/14 RMK AO2
14837KMSN MSN20060208120011202/08/06 12:00:31  5-MIN KMSN 081800Z 02014G19KT 10SM SCT030 BKN060 M03/M11 A3026 550 55 -1500 020/14G19 RMK AO2
14837KMSN MSN20060208120511202/08/06 12:05:31  5-MIN KMSN 081805Z 01013G22KT 10SM BKN030 BKN060 M03/M11 A3026 550 53 -1400 010/13G22 RMK AO2
14837KMSN MSN20060208121011202/08/06 12:10:31  5-MIN KMSN 081810Z 02013G22KT 10SM BKN030 BKN060 M03/M11 A3026 550 53 -1400 020/13G22 RMK AO2
14837KMSN MSN20060208121511202/08/06 12:15:31  5-MIN KMSN 081815Z 01015G20KT 10SM BKN030 BKN060 M02/M11 A3026 550 51 -1300 010/15G20 RMK AO2
14837KMSN MSN20060208122011202/08/06 12:20:31  5-MIN KMSN 081820Z 01011G20KT 10SM BKN030 BKN060 M02/M11 A3026 560 49 -1300 010/11G20 RMK AO2
14837KMSN MSN20060208122510602/08/06 12:25:31  5-MIN KMSN 081825Z 01012KT 10SM BKN030 BKN060 M03/M12 A3026 550 50 -1400 010/12 RMK AO2
14837KMSN MSN20060208123010602/08/06 12:30:31  5-MIN KMSN 081830Z 03016KT 10SM BKN030 BKN060 M02/M11 A3025 560 49 -1300 020/16 RMK AO2
14837KMSN MSN20060208123510502/08/06 12:35:31  5-MIN KMSN 081835Z 36015G22KT 10SM BKN032 M03/M12 A3026 550 50 -1400 360/15G22 RMK AO2
14837KMSN MSN20060208124010502/08/06 12:40:31  5-MIN KMSN 081840Z 36013G22KT 10SM SCT034 M03/M12 A3026 560 50 -1400 360/13G22 RMK AO2
14837KMSN MSN20060208124510502/08/06 12:45:31  5-MIN KMSN 081845Z 02012G21KT 10SM SCT034 M02/M11 A3026 550 49 -1300 020/12G21 RMK AO2
14837KMSN MSN20060208125012202/08/06 12:50:31  5-MIN KMSN 081850Z 02015G21KT 10SM SCT034 M02/M11 A3026 560 49 -1300 020/15G21 RMK AO2 SLP260 T10171111
14837KMSN MSN20060208125510502/08/06 12:55:31  5-MIN KMSN 081855Z 36011G21KT 10SM SCT034 M03/M12 A3026 550 50 -1400 350/11G21 RMK AO2
14837KMSN MSN20060208130009902/08/06 13:00:31  5-MIN KMSN 081900Z 02015KT 10SM SCT034 M02/M12 A3026 560 48 -1300 020/15 RMK AO2
14837KMSN MSN20060208130509902/08/06 13:05:31  5-MIN KMSN 081905Z 01014KT 10SM SCT034 M02/M12 A3025 560 48 -1300 010/14 RMK AO2
14837KMSN MSN20060208131009902/08/06 13:10:31  5-MIN KMSN 081910Z 02016KT 10SM SCT034 M02/M12 A3025 560 46 -1300 020/16 RMK AO2
14837KMSN MSN20060208131510502/08/06 13:15:31  5-MIN KMSN 081915Z 35011G19KT 10SM SCT034 M03/M12 A3025 560 48 -1400 350/11G19 RMK AO2
14837KMSN MSN20060208132009902/08/06 13:20:31  5-MIN KMSN 081920Z 36013KT 10SM SCT034 M02/M12 A3025 560 46 -1300 360/13 RMK AO2
14837KMSN MSN20060208132510502/08/06 13:25:31  5-MIN KMSN 081925Z 02017G20KT 10SM SCT034 M02/M12 A3025 560 46 -1300 020/17G20 RMK AO2
14837KMSN MSN20060208133010502/08/06 13:30:31  5-MIN KMSN 081930Z 02014G20KT 10SM SCT034 M03/M12 A3025 560 50 -1500 020/14G20 RMK AO2
14837KMSN MSN20060208133510502/08/06 13:35:31  5-MIN KMSN 081935Z 03013G18KT 10SM SCT034 M02/M12 A3025 560 48 -1300 030/13G18 RMK AO2
14837KMSN MSN20060208134010502/08/06 13:40:31  5-MIN KMSN 081940Z 02014G18KT 10SM SCT034 M02/M12 A3025 560 46 -1300 020/14G18 RMK AO2
14837KMSN MSN20060208134510502/08/06 13:45:31  5-MIN KMSN 081945Z 02016G21KT 10SM SCT034 M02/M12 A3025 560 46 -1300 020/16G21 RMK AO2
14837KMSN MSN20060208135011602/08/06 13:50:31  5-MIN KMSN 081950Z 36012KT 10SM BKN040 M03/M12 A3025 560 48 -1400 360/12 RMK AO2 SLP258 T10281122
14837KMSN MSN20060208135509902/08/06 13:55:31  5-MIN KMSN 081955Z 03015KT 10SM BKN040 M03/M12 A3025 560 48 -1400 030/15 RMK AO2
14837KMSN MSN20060208140009902/08/06 14:00:31  5-MIN KMSN 082000Z 01014KT 10SM BKN040 M02/M12 A3025 560 46 -1300 010/14 RMK AO2
14837KMSN MSN20060208140509902/08/06 14:05:31  5-MIN KMSN 082005Z 36010KT 10SM BKN040 M02/M12 A3025 560 46 -1300 360/10 RMK AO2
14837KMSN MSN20060208141010502/08/06 14:10:31  5-MIN KMSN 082010Z 01016G19KT 10SM BKN040 M01/M12 A3025 560 45 -1200 010/16G19 RMK AO2
14837KMSN MSN20060208141510502/08/06 14:15:31  5-MIN KMSN 082015Z 02015G19KT 10SM BKN040 M02/M12 A3025 560 46 -1300 020/15G19 RMK AO2
14837KMSN MSN20060208142009902/08/06 14:20:31  5-MIN KMSN 082020Z 01011KT 10SM BKN040 M03/M12 A3025 560 50 -1500 360/11 RMK AO2
14837KMSN MSN20060208142510502/08/06 14:25:31  5-MIN KMSN 082025Z 03014G19KT 10SM SCT040 M03/M12 A3025 560 48 -1400 030/14G19 RMK AO2
14837KMSN MSN20060208143009902/08/06 14:30:31  5-MIN KMSN 082030Z 02015KT 10SM SCT038 M03/M12 A3025 560 48 -1400 020/15 RMK AO2
14837KMSN MSN20060208143509902/08/06 14:35:31  5-MIN KMSN 082035Z 02012KT 10SM FEW038 M03/M12 A3025 560 48 -1400 020/12 RMK AO2
14837KMSN MSN20060208144009902/08/06 14:40:31  5-MIN KMSN 082040Z 01013KT 10SM FEW038 M02/M12 A3025 560 48 -1300 010/13 RMK AO2
14837KMSN MSN20060208144509902/08/06 14:45:31  5-MIN KMSN 082045Z 02017KT 10SM FEW038 M02/M12 A3025 560 46 -1300 010/17 RMK AO2
14837KMSN MSN20060208145012802/08/06 14:50:31  5-MIN KMSN 082050Z 02014G19KT 10SM FEW038 M02/M12 A3026 550 46 -1300 020/14G19 RMK AO2 SLP260 T10221122 50006
14837KMSN MSN20060208145509602/08/06 14:55:31  5-MIN KMSN 082055Z 01012KT 10SM CLR M02/M12 A3026 550 46 -1300 010/12 RMK AO2
14837KMSN MSN20060208150009902/08/06 15:00:31  5-MIN KMSN 082100Z 03011KT 10SM SCT038 M03/M12 A3026 550 48 -1400 030/11 RMK AO2
14837KMSN MSN20060208150510502/08/06 15:05:31  5-MIN KMSN 082105Z 02016G19KT 10SM SCT038 M02/M12 A3026 550 46 -1300 010/16G19 RMK AO2
14837KMSN MSN20060208151010502/08/06 15:10:31  5-MIN KMSN 082110Z 02011G19KT 10SM FEW038 M03/M12 A3026 550 48 -1400 020/11G19 RMK AO2
14837KMSN MSN20060208151509902/08/06 15:15:31  5-MIN KMSN 082115Z 02011KT 10SM FEW038 M03/M12 A3026 550 48 -1400 020/11 RMK AO2
14837KMSN MSN20060208152010502/08/06 15:20:31  5-MIN KMSN 082120Z 02014G19KT 10SM FEW038 M03/M12 A3026 550 48 -1400 020/14G19 RMK AO2
14837KMSN MSN20060208152509902/08/06 15:25:31  5-MIN KMSN 082125Z 04013KT 10SM FEW038 M03/M12 A3026 550 50 -1400 040/13 RMK AO2
14837KMSN MSN20060208153009902/08/06 15:30:31  5-MIN KMSN 082130Z 03013KT 10SM FEW038 M03/M12 A3026 550 50 -1400 030/13 RMK AO2
14837KMSN MSN20060208153509902/08/06 15:35:31  5-MIN KMSN 082135Z 02014KT 10SM FEW038 M03/M12 A3026 550 48 -1400 020/14 RMK AO2
14837KMSN MSN20060208154009902/08/06 15:40:31  5-MIN KMSN 082140Z 02013KT 10SM FEW038 M03/M12 A3026 550 50 -1400 020/13 RMK AO2
14837KMSN MSN20060208154509902/08/06 15:45:31  5-MIN KMSN 082145Z 03013KT 10SM FEW038 M03/M12 A3027 550 50 -1400 030/13 RMK AO2
14837KMSN MSN20060208155011602/08/06 15:50:31  5-MIN KMSN 082150Z 03013KT 10SM FEW038 M03/M12 A3027 550 50 -1400 030/13 RMK AO2 SLP263 T10281117
14837KMSN MSN20060208155509902/08/06 15:55:31  5-MIN KMSN 082155Z 01014KT 10SM FEW038 M03/M12 A3026 550 50 -1400 010/14 RMK AO2
14837KMSN MSN20060208160009902/08/06 16:00:31  5-MIN KMSN 082200Z 02013KT 10SM FEW038 M03/M12 A3027 550 53 -1500 020/13 RMK AO2
14837KMSN MSN20060208160509902/08/06 16:05:31  5-MIN KMSN 082205Z 02012KT 10SM FEW038 M03/M12 A3026 550 53 -1500 020/12 RMK AO2
14837KMSN MSN20060208161009902/08/06 16:10:31  5-MIN KMSN 082210Z 04010KT 10SM FEW038 M03/M12 A3027 550 53 -1500 040/10 RMK AO2
14837KMSN MSN20060208161509902/08/06 16:15:31  5-MIN KMSN 082215Z 02012KT 10SM FEW038 M03/M12 A3027 550 53 -1500 020/12 RMK AO2
14837KMSN MSN20060208162009902/08/06 16:20:31  5-MIN KMSN 082220Z 01009KT 10SM FEW038 M03/M12 A3027 550 53 -1500 010/09 RMK AO2
14837KMSN MSN20060208162509902/08/06 16:25:31  5-MIN KMSN 082225Z 03010KT 10SM FEW038 M03/M12 A3027 540 53 -1500 030/10 RMK AO2
14837KMSN MSN20060208163009902/08/06 16:30:31  5-MIN KMSN 082230Z 02010KT 10SM FEW038 M03/M12 A3027 540 50 -1500 020/10 RMK AO2
14837KMSN MSN20060208163509902/08/06 16:35:31  5-MIN KMSN 082235Z 03010KT 10SM FEW038 M03/M12 A3027 540 53 -1500 030/10 RMK AO2
14837KMSN MSN20060208164009902/08/06 16:40:31  5-MIN KMSN 082240Z 04010KT 10SM FEW038 M04/M12 A3027 540 55 -1600 040/10 RMK AO2
14837KMSN MSN20060208164509902/08/06 16:45:31  5-MIN KMSN 082245Z 03009KT 10SM FEW038 M04/M12 A3028 540 55 -1600 030/09 RMK AO2
14837KMSN MSN20060208165011602/08/06 16:50:31  5-MIN KMSN 082250Z 04009KT 10SM FEW040 M04/M12 A3028 540 55 -1600 040/09 RMK AO2 SLP267 T10391117
14837KMSN MSN20060208165509902/08/06 16:55:31  5-MIN KMSN 082255Z 03010KT 10SM FEW040 M04/M12 A3028 530 57 -1600 030/10 RMK AO2
14837KMSN MSN20060208170009902/08/06 17:00:31  5-MIN KMSN 082300Z 04009KT 10SM FEW040 M04/M12 A3028 530 57 -1600 040/09 RMK AO2
14837KMSN MSN20060208170509902/08/06 17:05:31  5-MIN KMSN 082305Z 03009KT 10SM FEW040 M04/M12 A3028 530 57 -1600 030/09 RMK AO2
14837KMSN MSN20060208171009902/08/06 17:10:31  5-MIN KMSN 082310Z 04008KT 10SM FEW040 M05/M12 A3028 530 60 -1700 040/08 RMK AO2
14837KMSN MSN20060208171509902/08/06 17:15:31  5-MIN KMSN 082315Z 03008KT 10SM FEW040 M05/M12 A3028 530 60 -1700 030/08 RMK AO2
14837KMSN MSN20060208172009902/08/06 17:20:31  5-MIN KMSN 082320Z 04008KT 10SM FEW040 M06/M12 A3028 530 62 -1800 040/08 RMK AO2
14837KMSN MSN20060208172509902/08/06 17:25:31  5-MIN KMSN 082325Z 04007KT 10SM FEW040 M06/M12 A3028 530 62 -1800 040/07 RMK AO2
14837KMSN MSN20060208173009902/08/06 17:30:31  5-MIN KMSN 082330Z 04007KT 10SM FEW040 M06/M12 A3028 530 65 -1900 040/07 RMK AO2
14837KMSN MSN20060208173509902/08/06 17:35:31  5-MIN KMSN 082335Z 04006KT 10SM FEW040 M06/M12 A3028 530 65 -1900 040/06 RMK AO2
14837KMSN MSN20060208174009902/08/06 17:40:31  5-MIN KMSN 082340Z 05006KT 10SM FEW040 M07/M12 A3028 530 65 -1900 050/06 RMK AO2
14837KMSN MSN20060208174509902/08/06 17:45:31  5-MIN KMSN 082345Z 05006KT 10SM FEW045 M07/M12 A3028 530 68 -2000 050/06 RMK AO2
14837KMSN MSN20060208175013402/08/06 17:50:31  5-MIN KMSN 082350Z 05006KT 10SM FEW045 M07/M12 A3028 530 68 -2000 050/06 RMK AO2 SLP272 T10721122 11011 21072 55001
14837KMSN MSN20060208175509902/08/06 17:55:31  5-MIN KMSN 082355Z 05005KT 10SM FEW045 M07/M12 A3028 530 68 -2000 050/05 RMK AO2
14837KMSN MSN20060208180009902/08/06 18:00:31  5-MIN KMSN 090000Z 05005KT 10SM FEW045 M07/M12 A3028 530 68 -2000 050/05 RMK AO2
14837KMSN MSN20060208180509902/08/06 18:05:31  5-MIN KMSN 090005Z 04004KT 10SM FEW045 M07/M12 A3029 530 68 -2000 040/04 RMK AO2
14837KMSN MSN20060208181009902/08/06 18:10:31  5-MIN KMSN 090010Z 04003KT 10SM FEW045 M07/M12 A3029 530 68 -2000 040/03 RMK AO2
14837KMSN MSN20060208181509902/08/06 18:15:31  5-MIN KMSN 090015Z 00000KT 10SM FEW045 M07/M12 A3029 520 71 -2000 000/00 RMK AO2
14837KMSN MSN20060208182009902/08/06 18:20:31  5-MIN KMSN 090020Z 00000KT 10SM FEW045 M07/M12 A3029 520 71 -2000 000/00 RMK AO2
14837KMSN MSN20060208182509902/08/06 18:25:31  5-MIN KMSN 090025Z 00000KT 10SM FEW045 M07/M12 A3029 520 71 -2000 000/00 RMK AO2
14837KMSN MSN20060208183009902/08/06 18:30:31  5-MIN KMSN 090030Z 00000KT 10SM FEW045 M07/M12 A3029 520 71 -2000 000/00 RMK AO2
14837KMSN MSN20060208183509902/08/06 18:35:31  5-MIN KMSN 090035Z 00000KT 10SM FEW045 M08/M12 A3029 520 74 -2100 000/00 RMK AO2
14837KMSN MSN20060208184009902/08/06 18:40:31  5-MIN KMSN 090040Z 33003KT 10SM FEW045 M07/M12 A3030 520 71 -2000 330/03 RMK AO2
14837KMSN MSN20060208184509902/08/06 18:45:31  5-MIN KMSN 090045Z 00000KT 10SM FEW045 M07/M12 A3030 520 71 -2000 000/00 RMK AO2
14837KMSN MSN20060208185011302/08/06 18:50:31  5-MIN KMSN 090050Z 00000KT 10SM CLR M07/M12 A3030 520 71 -2000 000/00 RMK AO2 SLP277 T10721117
14837KMSN MSN20060208185509602/08/06 18:55:31  5-MIN KMSN 090055Z 00000KT 10SM CLR M07/M12 A3030 520 71 -2000 000/00 RMK AO2
14837KMSN MSN20060208190009602/08/06 19:00:31  5-MIN KMSN 090100Z 34003KT 10SM CLR M08/M12 A3030 510 74 -2100 340/03 RMK AO2
14837KMSN MSN20060208190509602/08/06 19:05:31  5-MIN KMSN 090105Z 33003KT 10SM CLR M08/M12 A3030 510 77 -2200 330/03 RMK AO2
14837KMSN MSN20060208191009602/08/06 19:10:31  5-MIN KMSN 090110Z 00000KT 10SM CLR M08/M12 A3030 510 77 -2200 000/00 RMK AO2
14837KMSN MSN20060208191509602/08/06 19:15:31  5-MIN KMSN 090115Z 35003KT 10SM CLR M08/M12 A3030 510 74 -2100 340/03 RMK AO2
14837KMSN MSN20060208192009602/08/06 19:20:31  5-MIN KMSN 090120Z 34003KT 10SM CLR M08/M12 A3031 510 74 -2100 340/03 RMK AO2
14837KMSN MSN20060208192509602/08/06 19:25:31  5-MIN KMSN 090125Z 33003KT 10SM CLR M08/M12 A3031 510 77 -2200 330/03 RMK AO2
14837KMSN MSN20060208193009602/08/06 19:30:31  5-MIN KMSN 090130Z 34003KT 10SM CLR M08/M12 A3031 510 74 -2200 330/03 RMK AO2
14837KMSN MSN20060208193509602/08/06 19:35:31  5-MIN KMSN 090135Z 34003KT 10SM CLR M08/M12 A3030 510 74 -2200 340/03 RMK AO2
14837KMSN MSN20060208194009602/08/06 19:40:31  5-MIN KMSN 090140Z 32003KT 10SM CLR M09/M12 A3031 510 77 -2300 320/03 RMK AO2
14837KMSN MSN20060208194509602/08/06 19:45:31  5-MIN KMSN 090145Z 31003KT 10SM CLR M09/M12 A3031 510 80 -2300 310/03 RMK AO2
14837KMSN MSN20060208195011302/08/06 19:50:31  5-MIN KMSN 090150Z 32003KT 10SM CLR M09/M12 A3031 510 77 -2300 310/03 RMK AO2 SLP280 T10891122
14837KMSN MSN20060208195509602/08/06 19:55:31  5-MIN KMSN 090155Z 00000KT 10SM CLR M09/M12 A3031 510 77 -2300 000/00 RMK AO2
14837KMSN MSN20060208200009602/08/06 20:00:31  5-MIN KMSN 090200Z 00000KT 10SM CLR M09/M12 A3031 510 77 -2300 000/00 RMK AO2
14837KMSN MSN20060208200509602/08/06 20:05:31  5-MIN KMSN 090205Z 00000KT 10SM CLR M09/M12 A3031 510 80 -2300 000/00 RMK AO2
14837KMSN MSN20060208201009602/08/06 20:10:31  5-MIN KMSN 090210Z 00000KT 10SM CLR M09/M12 A3031 510 77 -2300 000/00 RMK AO2
14837KMSN MSN20060208201509602/08/06 20:15:31  5-MIN KMSN 090215Z 00000KT 10SM CLR M09/M12 A3031 500 77 -2300 000/00 RMK AO2
14837KMSN MSN20060208202009602/08/06 20:20:31  5-MIN KMSN 090220Z 00000KT 10SM CLR M09/M12 A3031 510 80 -2300 000/00 RMK AO2
14837KMSN MSN20060208202509602/08/06 20:25:31  5-MIN KMSN 090225Z 00000KT 10SM CLR M09/M12 A3031 510 80 -2300 000/00 RMK AO2
14837KMSN MSN20060208203009602/08/06 20:30:31  5-MIN KMSN 090230Z 00000KT 10SM CLR M09/M12 A3031 500 77 -2300 000/00 RMK AO2
14837KMSN MSN20060208203509602/08/06 20:35:31  5-MIN KMSN 090235Z 00000KT 10SM CLR M09/M12 A3031 500 80 -2300 000/00 RMK AO2
14837KMSN MSN20060208204009602/08/06 20:40:31  5-MIN KMSN 090240Z 00000KT 10SM CLR M09/M12 A3031 500 80 -2300 000/00 RMK AO2
14837KMSN MSN20060208204509602/08/06 20:45:31  5-MIN KMSN 090245Z 00000KT 10SM CLR M09/M12 A3031 500 84 -2300 000/00 RMK AO2
14837KMSN MSN20060208205011902/08/06 20:50:31  5-MIN KMSN 090250Z 00000KT 10SM CLR M09/M12 A3031 500 84 -2300 000/00 RMK AO2 SLP281 T10941117 52008
14837KMSN MSN20060208205509602/08/06 20:55:31  5-MIN KMSN 090255Z 00000KT 10SM CLR M09/M11 A3031 500 88 -2300 000/00 RMK AO2
14837KMSN MSN20060208210009602/08/06 21:00:31  5-MIN KMSN 090300Z 00000KT 10SM CLR M09/M12 A3031 500 84 -2300 000/00 RMK AO2
14837KMSN MSN20060208210509602/08/06 21:05:31  5-MIN KMSN 090305Z 00000KT 10SM CLR M09/M12 A3031 500 84 -2300 000/00 RMK AO2
14837KMSN MSN20060208211009602/08/06 21:10:31  5-MIN KMSN 090310Z 00000KT 10SM CLR M10/M12 A3031 500 88 -2400 000/00 RMK AO2
14837KMSN MSN20060208211509602/08/06 21:15:31  5-MIN KMSN 090315Z 29003KT 10SM CLR M10/M12 A3031 500 84 -2400 290/03 RMK AO2
14837KMSN MSN20060208212009602/08/06 21:20:31  5-MIN KMSN 090320Z 29003KT 10SM CLR M10/M13 A3031 500 80 -2400 290/03 RMK AO2
14837KMSN MSN20060208212509602/08/06 21:25:31  5-MIN KMSN 090325Z 00000KT 10SM CLR M10/M12 A3031 500 84 -2400 000/00 RMK AO2
14837KMSN MSN20060208213009602/08/06 21:30:31  5-MIN KMSN 090330Z 30003KT 10SM CLR M10/M12 A3032 500 84 -2400 300/03 RMK AO2
14837KMSN MSN20060208213509602/08/06 21:35:31  5-MIN KMSN 090335Z 30003KT 10SM CLR M10/M12 A3031 500 84 -2400 300/03 RMK AO2
14837KMSN MSN20060208214009602/08/06 21:40:31  5-MIN KMSN 090340Z 30003KT 10SM CLR M11/M13 A3032 500 84 -2500 290/03 RMK AO2
14837KMSN MSN20060208214509602/08/06 21:45:31  5-MIN KMSN 090345Z 29003KT 10SM CLR M10/M13 A3031 500 80 -2400 290/03 RMK AO2
14837KMSN MSN20060208215011302/08/06 21:50:31  5-MIN KMSN 090350Z 30003KT 10SM CLR M10/M13 A3032 500 80 -2400 300/03 RMK AO2 SLP282 T11001128
14837KMSN MSN20060208215509602/08/06 21:55:31  5-MIN KMSN 090355Z 30003KT 10SM CLR M09/M13 A3031 500 77 -2300 300/03 RMK AO2
14837KMSN MSN20060208220009602/08/06 22:00:31  5-MIN KMSN 090400Z 00000KT 10SM CLR M10/M13 A3031 500 80 -2400 000/00 RMK AO2
14837KMSN MSN20060208220509602/08/06 22:05:31  5-MIN KMSN 090405Z 00000KT 10SM CLR M10/M13 A3031 500 80 -2400 000/00 RMK AO2
14837KMSN MSN20060208221009602/08/06 22:10:31  5-MIN KMSN 090410Z 31003KT 10SM CLR M10/M13 A3031 500 80 -2400 310/03 RMK AO2
14837KMSN MSN20060208221509602/08/06 22:15:31  5-MIN KMSN 090415Z 00000KT 10SM CLR M10/M13 A3031 500 80 -2400 000/00 RMK AO2
14837KMSN MSN20060208222009602/08/06 22:20:31  5-MIN KMSN 090420Z 00000KT 10SM CLR M09/M13 A3031 500 77 -2300 000/00 RMK AO2
14837KMSN MSN20060208222509602/08/06 22:25:31  5-MIN KMSN 090425Z 00000KT 10SM CLR M09/M12 A3031 500 80 -2300 000/00 RMK AO2
14837KMSN MSN20060208223009602/08/06 22:30:31  5-MIN KMSN 090430Z 00000KT 10SM CLR M09/M12 A3031 510 80 -2300 000/00 RMK AO2
14837KMSN MSN20060208223509602/08/06 22:35:31  5-MIN KMSN 090435Z 00000KT 10SM CLR M09/M13 A3031 500 77 -2300 000/00 RMK AO2
14837KMSN MSN20060208224009602/08/06 22:40:31  5-MIN KMSN 090440Z 00000KT 10SM CLR M10/M13 A3031 500 77 -2400 000/00 RMK AO2
14837KMSN MSN20060208224509602/08/06 22:45:31  5-MIN KMSN 090445Z 00000KT 10SM CLR M10/M13 A3031 500 77 -2400 000/00 RMK AO2
14837KMSN MSN20060208225011302/08/06 22:50:31  5-MIN KMSN 090450Z 00000KT 10SM CLR M11/M13 A3031 510 80 -2500 000/00 RMK AO2 SLP280 T11061133
14837KMSN MSN20060208225509602/08/06 22:55:31  5-MIN KMSN 090455Z 00000KT 10SM CLR M11/M13 A3031 510 80 -2500 000/00 RMK AO2
14837KMSN MSN20060208230009602/08/06 23:00:31  5-MIN KMSN 090500Z 00000KT 10SM CLR M11/M13 A3031 510 80 -2500 000/00 RMK AO2
14837KMSN MSN20060208230509602/08/06 23:05:31  5-MIN KMSN 090505Z 28003KT 10SM CLR M11/M13 A3031 510 84 -2600 280/03 RMK AO2
14837KMSN MSN20060208231009602/08/06 23:10:31  5-MIN KMSN 090510Z 27003KT 10SM CLR M11/M13 A3031 510 84 -2500 270/03 RMK AO2
14837KMSN MSN20060208231509602/08/06 23:15:31  5-MIN KMSN 090515Z 00000KT 10SM CLR M11/M13 A3031 500 80 -2500 000/00 RMK AO2
14837KMSN MSN20060208232009602/08/06 23:20:31  5-MIN KMSN 090520Z 29003KT 10SM CLR M11/M13 A3031 500 80 -2500 290/03 RMK AO2
14837KMSN MSN20060208232509602/08/06 23:25:31  5-MIN KMSN 090525Z 27003KT 10SM CLR M11/M14 A3031 500 77 -2500 270/03 RMK AO2
14837KMSN MSN20060208233009602/08/06 23:30:31  5-MIN KMSN 090530Z 00000KT 10SM CLR M10/M13 A3031 500 77 -2400 000/00 RMK AO2
14837KMSN MSN20060208233509602/08/06 23:35:31  5-MIN KMSN 090535Z 00000KT 10SM CLR M09/M13 A3031 500 73 -2300 000/00 RMK AO2
14837KMSN MSN20060208234009602/08/06 23:40:31  5-MIN KMSN 090540Z 00000KT 10SM CLR M11/M14 A3031 500 77 -2500 000/00 RMK AO2
14837KMSN MSN20060208234509602/08/06 23:45:31  5-MIN KMSN 090545Z 00000KT 10SM CLR M10/M14 A3031 510 73 -2400 000/00 RMK AO2
14837KMSN MSN20060208235014102/08/06 23:50:31  5-MIN KMSN 090550Z 00000KT 10SM CLR M09/M14 A3031 510 70 -2300 000/00 RMK AO2 SLP278 T10941139 11072 21111 410111111 51010
14837KMSN MSN20060208235509602/08/06 23:55:31  5-MIN KMSN 090555Z 00000KT 10SM CLR M09/M14 A3031 510 70 -2300 000/00 RMK AO2
14837KMSN MSN20060209000009602/09/06 00:00:38  5-MIN KMSN 090600Z 00000KT 10SM CLR M09/M14 A3030 510 70 -2300 000/00 RMK AO2
14837KMSN MSN20060209000509602/09/06 00:05:31  5-MIN KMSN 090605Z 00000KT 10SM CLR M11/M14 A3030 510 77 -2500 000/00 RMK AO2
14837KMSN MSN20060209001009602/09/06 00:10:31  5-MIN KMSN 090610Z 28003KT 10SM CLR M11/M14 A3030 520 73 -2500 280/03 RMK AO2
14837KMSN MSN20060209001509602/09/06 00:15:32  5-MIN KMSN 090615Z 00000KT 10SM CLR M10/M14 A3029 520 70 -2400 000/00 RMK AO2
14837KMSN MSN20060209002009602/09/06 00:20:31  5-MIN KMSN 090620Z 00000KT 10SM CLR M10/M14 A3029 520 70 -2400 000/00 RMK AO2
14837KMSN MSN20060209002509602/09/06 00:25:31  5-MIN KMSN 090625Z 00000KT 10SM CLR M11/M14 A3029 520 77 -2500 000/00 RMK AO2
14837KMSN MSN20060209003009602/09/06 00:30:31  5-MIN KMSN 090630Z 00000KT 10SM CLR M11/M14 A3029 520 77 -2500 000/00 RMK AO2
14837KMSN MSN20060209003509602/09/06 00:35:31  5-MIN KMSN 090635Z 28003KT 10SM CLR M11/M14 A3029 520 73 -2500 280/03 RMK AO2
14837KMSN MSN20060209004009602/09/06 00:40:31  5-MIN KMSN 090640Z 29004KT 10SM CLR M10/M14 A3029 520 70 -2400 290/04 RMK AO2
14837KMSN MSN20060209004509602/09/06 00:45:31  5-MIN KMSN 090645Z 29003KT 10SM CLR M09/M14 A3029 520 70 -2300 290/03 RMK AO2
14837KMSN MSN20060209005011302/09/06 00:50:31  5-MIN KMSN 090650Z VRB03KT 10SM CLR M10/M14 A3029 520 73 -2400 VRB/03 RMK AO2 SLP273 T11001139
14837KMSN MSN20060209005509602/09/06 00:55:31  5-MIN KMSN 090655Z VRB03KT 10SM CLR M10/M14 A3029 520 70 -2400 VRB/03 RMK AO2
14837KMSN MSN20060209010009602/09/06 01:00:31  5-MIN KMSN 090700Z VRB03KT 10SM CLR M09/M14 A3029 520 70 -2300 VRB/03 RMK AO2
14837KMSN MSN20060209010509602/09/06 01:05:31  5-MIN KMSN 090705Z VRB03KT 10SM CLR M09/M14 A3029 520 70 -2300 VRB/03 RMK AO2
14837KMSN MSN20060209011009602/09/06 01:10:31  5-MIN KMSN 090710Z VRB04KT 10SM CLR M09/M14 A3029 530 67 -2200 VRB/04 RMK AO2
14837KMSN MSN20060209011509602/09/06 01:15:31  5-MIN KMSN 090715Z 30004KT 10SM CLR M09/M14 A3029 530 67 -2200 300/04 RMK AO2
14837KMSN MSN20060209012009602/09/06 01:20:31  5-MIN KMSN 090720Z 29005KT 10SM CLR M09/M14 A3029 530 67 -2200 290/05 RMK AO2
14837KMSN MSN20060209012509602/09/06 01:25:31  5-MIN KMSN 090725Z 30004KT 10SM CLR M09/M14 A3029 530 67 -2200 300/04 RMK AO2
14837KMSN MSN20060209013009602/09/06 01:30:31  5-MIN KMSN 090730Z 31003KT 10SM CLR M09/M14 A3029 530 70 -2300 300/03 RMK AO2
14837KMSN MSN20060209013509602/09/06 01:35:31  5-MIN KMSN 090735Z VRB03KT 10SM CLR M09/M14 A3028 530 67 -2200 VRB/03 RMK AO2
14837KMSN MSN20060209014009602/09/06 01:40:31  5-MIN KMSN 090740Z 29004KT 10SM CLR M09/M14 A3028 530 70 -2300 290/04 RMK AO2
14837KMSN MSN20060209014509602/09/06 01:45:31  5-MIN KMSN 090745Z VRB03KT 10SM CLR M09/M14 A3028 530 70 -2300 VRB/03 RMK AO2
14837KMSN MSN20060209015011302/09/06 01:50:31  5-MIN KMSN 090750Z 00000KT 10SM CLR M09/M14 A3027 540 70 -2300 000/00 RMK AO2 SLP266 T10941139
14837KMSN MSN20060209015509602/09/06 01:55:31  5-MIN KMSN 090755Z 00000KT 10SM CLR M09/M14 A3027 540 70 -2300 000/00 RMK AO2
14837KMSN MSN20060209020009602/09/06 02:00:31  5-MIN KMSN 090800Z 00000KT 10SM CLR M10/M14 A3027 540 73 -2400 000/00 RMK AO2
14837KMSN MSN20060209020509602/09/06 02:05:31  5-MIN KMSN 090805Z 00000KT 10SM CLR M10/M14 A3027 540 70 -2400 000/00 RMK AO2
14837KMSN MSN20060209021009602/09/06 02:10:31  5-MIN KMSN 090810Z 00000KT 10SM CLR M10/M14 A3027 540 70 -2400 000/00 RMK AO2
14837KMSN MSN20060209021509602/09/06 02:15:31  5-MIN KMSN 090815Z VRB03KT 10SM CLR M09/M14 A3028 540 70 -2300 VRB/03 RMK AO2
14837KMSN MSN20060209022009602/09/06 02:20:31  5-MIN KMSN 090820Z 00000KT 10SM CLR M10/M14 A3027 540 73 -2400 000/00 RMK AO2
14837KMSN MSN20060209022509602/09/06 02:25:31  5-MIN KMSN 090825Z 00000KT 10SM CLR M09/M14 A3027 540 70 -2300 000/00 RMK AO2
14837KMSN MSN20060209023009602/09/06 02:30:31  5-MIN KMSN 090830Z 00000KT 10SM CLR M10/M14 A3027 540 70 -2400 000/00 RMK AO2
14837KMSN MSN20060209023509602/09/06 02:35:31  5-MIN KMSN 090835Z 00000KT 10SM CLR M11/M14 A3027 540 73 -2400 000/00 RMK AO2
14837KMSN MSN20060209024009602/09/06 02:40:31  5-MIN KMSN 090840Z 00000KT 10SM CLR M11/M15 A3027 550 73 -2500 000/00 RMK AO2
14837KMSN MSN20060209024509602/09/06 02:45:31  5-MIN KMSN 090845Z 00000KT 10SM CLR M11/M15 A3027 550 70 -2400 000/00 RMK AO2
14837KMSN MSN20060209025011902/09/06 02:50:31  5-MIN KMSN 090850Z 00000KT 10SM CLR M11/M14 A3026 550 73 -2400 000/00 RMK AO2 SLP263 T11061144 58002
14837KMSN MSN20060209025509602/09/06 02:55:31  5-MIN KMSN 090855Z 00000KT 10SM CLR M11/M15 A3026 550 70 -2400 000/00 RMK AO2
14837KMSN MSN20060209030009602/09/06 03:00:31  5-MIN KMSN 090900Z 00000KT 10SM CLR M10/M14 A3026 550 70 -2300 000/00 RMK AO2
14837KMSN MSN20060209030509602/09/06 03:05:31  5-MIN KMSN 090905Z 29003KT 10SM CLR M09/M14 A3027 550 70 -2300 290/03 RMK AO2
14837KMSN MSN20060209031009602/09/06 03:10:31  5-MIN KMSN 090910Z 30003KT 10SM CLR M09/M14 A3026 550 70 -2300 290/03 RMK AO2
14837KMSN MSN20060209031509602/09/06 03:15:31  5-MIN KMSN 090915Z 30003KT 10SM CLR M09/M14 A3027 540 70 -2300 300/03 RMK AO2
14837KMSN MSN20060209032009602/09/06 03:20:31  5-MIN KMSN 090920Z VRB03KT 10SM CLR M10/M14 A3027 550 73 -2400 VRB/03 RMK AO2
14837KMSN MSN20060209032509602/09/06 03:25:31  5-MIN KMSN 090925Z 29003KT 10SM CLR M10/M14 A3026 550 73 -2400 290/03 RMK AO2
14837KMSN MSN20060209033009602/09/06 03:30:31  5-MIN KMSN 090930Z 29004KT 10SM CLR M10/M14 A3027 550 73 -2400 290/04 RMK AO2
14837KMSN MSN20060209033509602/09/06 03:35:31  5-MIN KMSN 090935Z 31004KT 10SM CLR M10/M14 A3027 540 73 -2400 310/04 RMK AO2
14837KMSN MSN20060209034009602/09/06 03:40:31  5-MIN KMSN 090940Z 30003KT 10SM CLR M10/M14 A3027 540 73 -2400 300/03 RMK AO2
14837KMSN MSN20060209034509602/09/06 03:45:31  5-MIN KMSN 090945Z 29004KT 10SM CLR M10/M14 A3027 540 73 -2400 290/04 RMK AO2
14837KMSN MSN20060209035011302/09/06 03:50:31  5-MIN KMSN 090950Z 30006KT 10SM CLR M10/M14 A3027 540 73 -2400 300/06 RMK AO2 SLP265 T11001139
14837KMSN MSN20060209035509602/09/06 03:55:31  5-MIN KMSN 090955Z 30005KT 10SM CLR M10/M14 A3027 540 73 -2400 300/05 RMK AO2
14837KMSN MSN20060209040009602/09/06 04:00:31  5-MIN KMSN 091000Z 30005KT 10SM CLR M10/M14 A3027 540 73 -2400 290/05 RMK AO2
14837KMSN MSN20060209040509602/09/06 04:05:31  5-MIN KMSN 091005Z 29006KT 10SM CLR M10/M14 A3027 540 73 -2400 290/06 RMK AO2
14837KMSN MSN20060209041009602/09/06 04:10:31  5-MIN KMSN 091010Z 29005KT 10SM CLR M10/M14 A3027 540 73 -2400 290/05 RMK AO2
14837KMSN MSN20060209041509602/09/06 04:15:31  5-MIN KMSN 091015Z 29006KT 10SM CLR M10/M14 A3027 540 73 -2400 290/06 RMK AO2
14837KMSN MSN20060209042009602/09/06 04:20:31  5-MIN KMSN 091020Z 29006KT 10SM CLR M10/M14 A3027 540 73 -2400 290/06 RMK AO2
14837KMSN MSN20060209042509602/09/06 04:25:31  5-MIN KMSN 091025Z 29005KT 10SM CLR M10/M14 A3027 540 73 -2400 290/05 RMK AO2
14837KMSN MSN20060209043009602/09/06 04:30:31  5-MIN KMSN 091030Z 29006KT 10SM CLR M10/M14 A3028 540 73 -2400 290/06 RMK AO2
14837KMSN MSN20060209043509602/09/06 04:35:31  5-MIN KMSN 091035Z 29005KT 10SM CLR M10/M14 A3028 530 73 -2400 290/05 RMK AO2
14837KMSN MSN20060209044009602/09/06 04:40:31  5-MIN KMSN 091040Z VRB04KT 10SM CLR M10/M14 A3027 540 73 -2400 VRB/04 RMK AO2
14837KMSN MSN20060209044509602/09/06 04:45:31  5-MIN KMSN 091045Z 00000KT 10SM CLR M10/M14 A3027 550 73 -2400 000/00 RMK AO2
14837KMSN MSN20060209045011302/09/06 04:50:31  5-MIN KMSN 091050Z 29003KT 10SM CLR M10/M14 A3027 550 73 -2400 290/03 RMK AO2 SLP264 T11001139
14837KMSN MSN20060209045509602/09/06 04:55:31  5-MIN KMSN 091055Z VRB03KT 10SM CLR M10/M14 A3027 550 73 -2400 VRB/03 RMK AO2
14837KMSN MSN20060209050009602/09/06 05:00:31  5-MIN KMSN 091100Z VRB03KT 10SM CLR M10/M14 A3026 550 73 -2300 VRB/03 RMK AO2
14837KMSN MSN20060209050509602/09/06 05:05:31  5-MIN KMSN 091105Z 00000KT 10SM CLR M10/M14 A3026 550 73 -2300 000/00 RMK AO2
14837KMSN MSN20060209051009602/09/06 05:10:31  5-MIN KMSN 091110Z 00000KT 10SM CLR M09/M14 A3025 560 70 -2300 000/00 RMK AO2
14837KMSN MSN20060209051509602/09/06 05:15:31  5-MIN KMSN 091115Z 28003KT 10SM CLR M10/M14 A3025 560 73 -2300 280/03 RMK AO2
14837KMSN MSN20060209052009602/09/06 05:20:31  5-MIN KMSN 091120Z 28003KT 10SM CLR M10/M14 A3025 560 73 -2300 280/03 RMK AO2
14837KMSN MSN20060209052509602/09/06 05:25:31  5-MIN KMSN 091125Z 00000KT 10SM CLR M11/M14 A3025 560 77 -2400 000/00 RMK AO2
14837KMSN MSN20060209053009602/09/06 05:30:31  5-MIN KMSN 091130Z 00000KT 10SM CLR M11/M14 A3025 560 77 -2500 000/00 RMK AO2
14837KMSN MSN20060209053509602/09/06 05:35:31  5-MIN KMSN 091135Z 00000KT 10SM CLR M11/M14 A3026 550 77 -2500 000/00 RMK AO2
14837KMSN MSN20060209054009602/09/06 05:40:31  5-MIN KMSN 091140Z 00000KT 10SM CLR M11/M14 A3026 550 77 -2500 000/00 RMK AO2
14837KMSN MSN20060209054509602/09/06 05:45:31  5-MIN KMSN 091145Z 28003KT 10SM CLR M12/M15 A3026 560 76 -2600 280/03 RMK AO2
14837KMSN MSN20060209055013102/09/06 05:50:31  5-MIN KMSN 091150Z 29004KT 10SM CLR M11/M15 A3026 560 73 -2500 290/04 RMK AO2 SLP263 T11111150 11089 21117 56014
14837KMSN MSN20060209055509602/09/06 05:55:31  5-MIN KMSN 091155Z VRB03KT 10SM CLR M11/M14 A3026 550 77 -2500 VRB/03 RMK AO2
14837KMSN MSN20060209060009602/09/06 06:00:31  5-MIN KMSN 091200Z 28003KT 10SM CLR M11/M14 A3026 550 77 -2500 280/03 RMK AO2
14837KMSN MSN20060209060509602/09/06 06:05:31  5-MIN KMSN 091205Z 28003KT 10SM CLR M11/M14 A3026 550 77 -2500 280/03 RMK AO2
14837KMSN MSN20060209061009602/09/06 06:10:31  5-MIN KMSN 091210Z 00000KT 10SM CLR M11/M14 A3026 550 73 -2400 000/00 RMK AO2
14837KMSN MSN20060209061509602/09/06 06:15:31  5-MIN KMSN 091215Z 29003KT 10SM CLR M11/M14 A3026 550 73 -2400 290/03 RMK AO2
14837KMSN MSN20060209062009602/09/06 06:20:31  5-MIN KMSN 091220Z 29004KT 10SM CLR M11/M14 A3026 550 73 -2400 290/04 RMK AO2
14837KMSN MSN20060209062509602/09/06 06:25:31  5-MIN KMSN 091225Z 28003KT 10SM CLR M11/M14 A3026 560 77 -2400 280/03 RMK AO2
14837KMSN MSN20060209063009602/09/06 06:30:31  5-MIN KMSN 091230Z 29003KT 10SM CLR M11/M14 A3026 550 73 -2400 290/03 RMK AO2
14837KMSN MSN20060209063509602/09/06 06:35:31  5-MIN KMSN 091235Z VRB03KT 10SM CLR M11/M14 A3026 550 73 -2400 VRB/03 RMK AO2
14837KMSN MSN20060209064009602/09/06 06:40:31  5-MIN KMSN 091240Z VRB04KT 10SM CLR M11/M14 A3026 550 73 -2400 VRB/04 RMK AO2
14837KMSN MSN20060209064509602/09/06 06:45:31  5-MIN KMSN 091245Z 29005KT 10SM CLR M11/M14 A3026 550 73 -2400 280/05 RMK AO2
14837KMSN MSN20060209065011302/09/06 06:50:31  5-MIN KMSN 091250Z 29005KT 10SM CLR M11/M14 A3026 550 73 -2400 290/05 RMK AO2 SLP265 T11061144
14837KMSN MSN20060209065509602/09/06 06:55:31  5-MIN KMSN 091255Z 28005KT 10SM CLR M11/M14 A3026 550 77 -2400 280/05 RMK AO2
14837KMSN MSN20060209070009602/09/06 07:00:31  5-MIN KMSN 091300Z 29006KT 10SM CLR M11/M14 A3027 550 77 -2400 290/06 RMK AO2
14837KMSN MSN20060209070509602/09/06 07:05:31  5-MIN KMSN 091305Z 29006KT 10SM CLR M11/M14 A3027 550 77 -2400 290/06 RMK AO2
14837KMSN MSN20060209071009602/09/06 07:10:31  5-MIN KMSN 091310Z 29006KT 10SM CLR M11/M14 A3027 540 77 -2400 290/06 RMK AO2
14837KMSN MSN20060209071509602/09/06 07:15:31  5-MIN KMSN 091315Z 29005KT 10SM CLR M11/M14 A3027 540 77 -2400 290/05 RMK AO2
14837KMSN MSN20060209072009602/09/06 07:20:31  5-MIN KMSN 091320Z 29005KT 10SM CLR M11/M14 A3027 540 77 -2400 280/05 RMK AO2
14837KMSN MSN20060209072509602/09/06 07:25:31  5-MIN KMSN 091325Z VRB04KT 10SM CLR M11/M14 A3027 540 77 -2400 VRB/04 RMK AO2
14837KMSN MSN20060209073009602/09/06 07:30:31  5-MIN KMSN 091330Z VRB04KT 10SM CLR M11/M14 A3027 540 77 -2400 VRB/04 RMK AO2
14837KMSN MSN20060209073509602/09/06 07:35:31  5-MIN KMSN 091335Z 29004KT 10SM CLR M10/M14 A3027 540 73 -2400 290/04 RMK AO2
14837KMSN MSN20060209074009602/09/06 07:40:31  5-MIN KMSN 091340Z 29005KT 10SM CLR M10/M13 A3027 540 77 -2400 290/05 RMK AO2
14837KMSN MSN20060209074509602/09/06 07:45:31  5-MIN KMSN 091345Z VRB04KT 10SM CLR M09/M13 A3026 550 73 -2300 VRB/04 RMK AO2
14837KMSN MSN20060209075011302/09/06 07:50:31  5-MIN KMSN 091350Z 28005KT 10SM CLR M09/M13 A3026 550 73 -2300 280/05 RMK AO2 SLP264 T10941133
14837KMSN MSN20060209075509602/09/06 07:55:31  5-MIN KMSN 091355Z 29004KT 10SM CLR M09/M13 A3026 550 73 -2300 290/04 RMK AO2
14837KMSN MSN20060209080009602/09/06 08:00:31  5-MIN KMSN 091400Z 29004KT 10SM CLR M09/M13 A3026 550 73 -2300 290/04 RMK AO2
14837KMSN MSN20060209080509602/09/06 08:05:31  5-MIN KMSN 091405Z 00000KT 10SM CLR M09/M13 A3026 550 70 -2200 000/00 RMK AO2
14837KMSN MSN20060209081009602/09/06 08:10:31  5-MIN KMSN 091410Z VRB03KT 10SM CLR M09/M13 A3027 550 74 -2200 VRB/03 RMK AO2
14837KMSN MSN20060209081509602/09/06 08:15:31  5-MIN KMSN 091415Z VRB04KT 10SM CLR M08/M13 A3027 540 70 -2100 VRB/04 RMK AO2
14837KMSN MSN20060209082009602/09/06 08:20:31  5-MIN KMSN 091420Z VRB04KT 10SM CLR M08/M13 A3027 550 70 -2100 VRB/04 RMK AO2
14837KMSN MSN20060209082509602/09/06 08:25:31  5-MIN KMSN 091425Z 30004KT 10SM CLR M08/M13 A3027 550 70 -2100 300/04 RMK AO2
14837KMSN MSN20060209083009602/09/06 08:30:31  5-MIN KMSN 091430Z 28003KT 10SM CLR M08/M13 A3026 550 70 -2100 280/03 RMK AO2
14837KMSN MSN20060209083509602/09/06 08:35:31  5-MIN KMSN 091435Z 00000KT 10SM CLR M08/M13 A3026 550 70 -2100 000/00 RMK AO2
14837KMSN MSN20060209084009602/09/06 08:40:31  5-MIN KMSN 091440Z 30004KT 10SM CLR M08/M12 A3025 560 71 -2000 290/04 RMK AO2
14837KMSN MSN20060209084509602/09/06 08:45:31  5-MIN KMSN 091445Z 27004KT 10SM CLR M08/M13 A3025 560 67 -2000 270/04 RMK AO2
14837KMSN MSN20060209085011902/09/06 08:50:31  5-MIN KMSN 091450Z 28003KT 10SM CLR M08/M13 A3025 560 67 -2000 280/03 RMK AO2 SLP262 T10781128 58003
14837KMSN MSN20060209085509602/09/06 08:55:31  5-MIN KMSN 091455Z 00000KT 10SM CLR M07/M12 A3025 560 71 -2000 000/00 RMK AO2
14837KMSN MSN20060209090009602/09/06 09:00:31  5-MIN KMSN 091500Z 00000KT 10SM CLR M07/M12 A3025 560 68 -2000 000/00 RMK AO2
14837KMSN MSN20060209090509602/09/06 09:05:31  5-MIN KMSN 091505Z 25003KT 10SM CLR M07/M12 A3025 560 65 -1900 250/03 RMK AO2
14837KMSN MSN20060209091009602/09/06 09:10:31  5-MIN KMSN 091510Z 00000KT 10SM CLR M07/M12 A3025 560 68 -1900 000/00 RMK AO2
14837KMSN MSN20060209091509602/09/06 09:15:31  5-MIN KMSN 091515Z 00000KT 10SM CLR M06/M12 A3024 570 65 -1800 000/00 RMK AO2
14837KMSN MSN20060209092009602/09/06 09:20:31  5-MIN KMSN 091520Z 00000KT 10SM CLR M06/M12 A3024 570 65 -1800 000/00 RMK AO2
14837KMSN MSN20060209092509602/09/06 09:25:31  5-MIN KMSN 091525Z 00000KT 10SM CLR M06/M12 A3024 570 65 -1800 000/00 RMK AO2
14837KMSN MSN20060209093009602/09/06 09:30:31  5-MIN KMSN 091530Z 24003KT 10SM CLR M06/M12 A3024 570 59 -1700 240/03 RMK AO2
14837KMSN MSN20060209093509602/09/06 09:35:31  5-MIN KMSN 091535Z VRB03KT 10SM CLR M06/M12 A3024 570 62 -1700 VRB/03 RMK AO2
14837KMSN MSN20060209094009602/09/06 09:40:31  5-MIN KMSN 091540Z VRB03KT 10SM CLR M06/M12 A3024 570 59 -1700 VRB/03 RMK AO2
14837KMSN MSN20060209094509602/09/06 09:45:31  5-MIN KMSN 091545Z 26005KT 10SM CLR M06/M12 A3024 570 62 -1700 250/05 RMK AO2
14837KMSN MSN20060209095011302/09/06 09:50:31  5-MIN KMSN 091550Z 21004KT 10SM CLR M05/M12 A3023 580 60 -1700 210/04 RMK AO2 SLP254 T10501117
14837KMSN MSN20060209095509602/09/06 09:55:31  5-MIN KMSN 091555Z VRB04KT 10SM CLR M05/M12 A3023 580 60 -1700 VRB/04 RMK AO2
14837KMSN MSN20060209100009602/09/06 10:00:31  5-MIN KMSN 091600Z VRB05KT 10SM CLR M05/M12 A3023 580 57 -1700 VRB/05 RMK AO2
14837KMSN MSN20060209100509602/09/06 10:05:31  5-MIN KMSN 091605Z 25006KT 10SM CLR M05/M13 A3023 580 55 -1700 250/06 RMK AO2
14837KMSN MSN20060209101009602/09/06 10:10:31  5-MIN KMSN 091610Z 25006KT 10SM CLR M05/M13 A3023 580 55 -1700 250/06 RMK AO2
14837KMSN MSN20060209101509602/09/06 10:15:31  5-MIN KMSN 091615Z VRB06KT 10SM CLR M05/M13 A3023 580 55 -1700 VRB/06 RMK AO2
14837KMSN MSN20060209102009602/09/06 10:20:31  5-MIN KMSN 091620Z 26006KT 10SM CLR M05/M13 A3023 580 55 -1700 250/06 RMK AO2
14837KMSN MSN20060209102509602/09/06 10:25:31  5-MIN KMSN 091625Z VRB06KT 10SM CLR M04/M12 A3023 580 55 -1600 VRB/06 RMK AO2
14837KMSN MSN20060209103009602/09/06 10:30:31  5-MIN KMSN 091630Z VRB05KT 10SM CLR M04/M12 A3023 580 55 -1600 VRB/05 RMK AO2
14837KMSN MSN20060209103509602/09/06 10:35:31  5-MIN KMSN 091635Z VRB05KT 10SM CLR M04/M12 A3023 580 52 -1500 VRB/05 RMK AO2
14837KMSN MSN20060209104009602/09/06 10:40:31  5-MIN KMSN 091640Z 27007KT 10SM CLR M03/M12 A3022 580 53 -1400 270/07 RMK AO2
14837KMSN MSN20060209104511202/09/06 10:45:31  5-MIN KMSN 091645Z 24007KT 220V280 10SM CLR M03/M12 A3022 590 50 -1400 240/07 220V280 RMK AO2
14837KMSN MSN20060209105012902/09/06 10:50:31  5-MIN KMSN 091650Z 25007KT 220V290 10SM CLR M04/M13 A3022 590 50 -1500 250/07 220V290 RMK AO2 SLP250 T10391128
14837KMSN MSN20060209105509602/09/06 10:55:31  5-MIN KMSN 091655Z 24008KT 10SM CLR M04/M13 A3022 590 50 -1500 240/08 RMK AO2
14837KMSN MSN20060209110009602/09/06 11:00:31  5-MIN KMSN 091700Z 25008KT 10SM CLR M03/M12 A3022 590 50 -1400 250/08 RMK AO2
14837KMSN MSN20060209110511202/09/06 11:05:31  5-MIN KMSN 091705Z 28009KT 220V300 10SM CLR M03/M13 A3021 600 48 -1400 280/09 220V300 RMK AO2
14837KMSN MSN20060209111009602/09/06 11:10:31  5-MIN KMSN 091710Z VRB05KT 10SM CLR M03/M13 A3021 600 46 -1300 VRB/05 RMK AO2
14837KMSN MSN20060209111509602/09/06 11:15:31  5-MIN KMSN 091715Z VRB05KT 10SM CLR M03/M13 A3021 600 46 -1300 VRB/05 RMK AO2
14837KMSN MSN20060209112011202/09/06 11:20:31  5-MIN KMSN 091720Z 22007KT 180V240 10SM CLR M03/M12 A3020 610 50 -1400 220/07 180V240 RMK AO2
14837KMSN MSN20060209112509602/09/06 11:25:31  5-MIN KMSN 091725Z 25008KT 10SM CLR M03/M12 A3020 600 50 -1300 250/08 RMK AO2
14837KMSN MSN20060209113009602/09/06 11:30:31  5-MIN KMSN 091730Z 25007KT 10SM CLR M03/M12 A3020 600 50 -1400 250/07 RMK AO2
14837KMSN MSN20060209113509602/09/06 11:35:31  5-MIN KMSN 091735Z 23006KT 10SM CLR M03/M13 A3019 610 46 -1300 230/06 RMK AO2
14837KMSN MSN20060209114009602/09/06 11:40:31  5-MIN KMSN 091740Z 23005KT 10SM CLR M03/M12 A3019 620 48 -1300 230/05 RMK AO2
14837KMSN MSN20060209114509602/09/06 11:45:31  5-MIN KMSN 091745Z 22006KT 10SM CLR M03/M13 A3019 620 46 -1300 220/06 RMK AO2
14837KMSN MSN20060209115013102/09/06 11:50:31  5-MIN KMSN 091750Z 23007KT 10SM CLR M02/M12 A3018 620 46 -1300 230/07 RMK AO2 SLP235 T10221122 11022 21111 58001
14837KMSN MSN20060209115509602/09/06 11:55:31  5-MIN KMSN 091755Z 23006KT 10SM CLR M03/M13 A3019 620 46 -1300 230/06 RMK AO2
14837KMSN MSN20060209120009602/09/06 12:00:31  5-MIN KMSN 091800Z 24008KT 10SM CLR M03/M12 A3019 620 48 -1300 240/08 RMK AO2
14837KMSN MSN20060209120509602/09/06 12:05:31  5-MIN KMSN 091805Z 26006KT 10SM CLR M02/M12 A3019 620 46 -1300 260/06 RMK AO2
14837KMSN MSN20060209121009602/09/06 12:10:31  5-MIN KMSN 091810Z 24007KT 10SM CLR M03/M12 A3018 630 48 -1300 240/07 RMK AO2
14837KMSN MSN20060209121509602/09/06 12:15:31  5-MIN KMSN 091815Z 25006KT 10SM CLR M03/M12 A3017 630 50 -1300 250/06 RMK AO2
14837KMSN MSN20060209122009602/09/06 12:20:31  5-MIN KMSN 091820Z 23006KT 10SM CLR M02/M12 A3017 630 48 -1200 230/06 RMK AO2
14837KMSN MSN20060209122511202/09/06 12:25:31  5-MIN KMSN 091825Z 25008KT 220V280 10SM CLR M02/M12 A3017 630 46 -1200 250/08 220V280 RMK AO2
14837KMSN MSN20060209123009602/09/06 12:30:31  5-MIN KMSN 091830Z 22006KT 10SM CLR M02/M12 A3017 640 46 -1200 220/06 RMK AO2
14837KMSN MSN20060209123509602/09/06 12:35:31  5-MIN KMSN 091835Z VRB05KT 10SM CLR M02/M12 A3016 640 46 -1200 VRB/05 RMK AO2
14837KMSN MSN20060209124011202/09/06 12:40:31  5-MIN KMSN 091840Z 22007KT 170V250 10SM CLR M02/M12 A3016 640 46 -1200 220/07 170V250 RMK AO2
14837KMSN MSN20060209124509602/09/06 12:45:31  5-MIN KMSN 091845Z 23007KT 10SM CLR M02/M12 A3015 650 44 -1100 230/07 RMK AO2
14837KMSN MSN20060209125011302/09/06 12:50:31  5-MIN KMSN 091850Z 25006KT 10SM CLR M02/M12 A3015 650 44 -1100 250/06 RMK AO2 SLP223 T10171122
14837KMSN MSN20060209125511202/09/06 12:55:31  5-MIN KMSN 091855Z 22007KT 190V270 10SM CLR M02/M12 A3015 660 46 -1200 220/07 190V270 RMK AO2
14837KMSN MSN20060209130009602/09/06 13:00:31  5-MIN KMSN 091900Z 25007KT 10SM CLR M02/M12 A3014 660 46 -1200 250/07 RMK AO2
14837KMSN MSN20060209130509602/09/06 13:05:31  5-MIN KMSN 091905Z 26008KT 10SM CLR M02/M12 A3014 660 44 -1100 250/08 RMK AO2
14837KMSN MSN20060209131009602/09/06 13:10:31  5-MIN KMSN 091910Z 24007KT 10SM CLR M02/M13 A3014 660 44 -1200 240/07 RMK AO2
14837KMSN MSN20060209131509602/09/06 13:15:31  5-MIN KMSN 091915Z VRB04KT 10SM CLR M02/M12 A3014 670 46 -1200 VRB/04 RMK AO2
14837KMSN MSN20060209132009602/09/06 13:20:31  5-MIN KMSN 091920Z 26007KT 10SM CLR M02/M12 A3014 670 44 -1100 250/07 RMK AO2
14837KMSN MSN20060209132509602/09/06 13:25:31  5-MIN KMSN 091925Z 20009KT 10SM CLR M02/M12 A3013 670 44 -1100 200/09 RMK AO2
14837KMSN MSN20060209133009602/09/06 13:30:31  5-MIN KMSN 091930Z 20008KT 10SM CLR M01/M12 A3013 670 43 -1100 200/08 RMK AO2
14837KMSN MSN20060209133509602/09/06 13:35:31  5-MIN KMSN 091935Z 23008KT 10SM CLR M01/M12 A3013 670 43 -1000 230/08 RMK AO2
14837KMSN MSN20060209134009602/09/06 13:40:31  5-MIN KMSN 091940Z 24007KT 10SM CLR M01/M12 A3012 680 43 -1000 240/07 RMK AO2
14837KMSN MSN20060209134511202/09/06 13:45:31  5-MIN KMSN 091945Z 23008KT 200V260 10SM CLR M01/M12 A3012 680 43 -1000 220/08 200V260 RMK AO2
14837KMSN MSN20060209135011302/09/06 13:50:31  5-MIN KMSN 091950Z 20010KT 10SM CLR M01/M13 A3012 680 41 -1000 200/10 RMK AO2 SLP212 T10111128
14837KMSN MSN20060209135509602/09/06 13:55:31  5-MIN KMSN 091955Z 21009KT 10SM CLR M01/M12 A3011 690 43 -1000 210/09 RMK AO2
14837KMSN MSN20060209140009602/09/06 14:00:31  5-MIN KMSN 092000Z 22008KT 10SM CLR M01/M13 A3011 690 41 -1000 220/08 RMK AO2
14837KMSN MSN20060209140509602/09/06 14:05:31  5-MIN KMSN 092005Z 21008KT 10SM CLR M01/M13 A3011 690 39 -1000 210/08 RMK AO2
14837KMSN MSN20060209141009602/09/06 14:10:31  5-MIN KMSN 092010Z 23008KT 10SM CLR M01/M13 A3011 690 39 -1000 220/08 RMK AO2
14837KMSN MSN20060209141509602/09/06 14:15:31  5-MIN KMSN 092015Z 22007KT 10SM CLR M01/M13 A3010 700 39 -1000 220/07 RMK AO2
14837KMSN MSN20060209142009602/09/06 14:20:31  5-MIN KMSN 092020Z 23006KT 10SM CLR M02/M13 A3010 700 41 -1100 230/06 RMK AO2
14837KMSN MSN20060209142509602/09/06 14:25:31  5-MIN KMSN 092025Z VRB06KT 10SM CLR M02/M13 A3009 700 42 -1100 VRB/06 RMK AO2
14837KMSN MSN20060209143009602/09/06 14:30:31  5-MIN KMSN 092030Z 20008KT 10SM CLR M02/M13 A3009 710 41 -1100 190/08 RMK AO2
14837KMSN MSN20060209143509602/09/06 14:35:31  5-MIN KMSN 092035Z 22008KT 10SM CLR M02/M13 A3009 710 41 -1100 220/08 RMK AO2
14837KMSN MSN20060209144009602/09/06 14:40:31  5-MIN KMSN 092040Z 20009KT 10SM CLR M01/M13 A3009 710 39 -1000 200/09 RMK AO2
14837KMSN MSN20060209144509602/09/06 14:45:31  5-MIN KMSN 092045Z 24007KT 10SM CLR M02/M13 A3009 710 41 -1100 230/07 RMK AO2
14837KMSN MSN20060209145011902/09/06 14:50:31  5-MIN KMSN 092050Z 22008KT 10SM CLR M02/M13 A3009 710 41 -1100 220/08 RMK AO2 SLP204 T10171133 58022
14837KMSN MSN20060209145509602/09/06 14:55:31  5-MIN KMSN 092055Z 20008KT 10SM CLR M02/M13 A3009 710 41 -1100 200/08 RMK AO2
14837KMSN MSN20060209150009602/09/06 15:00:31  5-MIN KMSN 092100Z 21006KT 10SM CLR M02/M13 A3008 710 41 -1100 210/06 RMK AO2
14837KMSN MSN20060209150509602/09/06 15:05:31  5-MIN KMSN 092105Z 21006KT 10SM CLR M02/M13 A3009 710 41 -1100 210/06 RMK AO2
14837KMSN MSN20060209151009602/09/06 15:10:31  5-MIN KMSN 092110Z 22005KT 10SM CLR M02/M13 A3009 710 41 -1100 220/05 RMK AO2
14837KMSN MSN20060209151509602/09/06 15:15:31  5-MIN KMSN 092115Z 22006KT 10SM CLR M01/M13 A3009 710 39 -1000 220/06 RMK AO2
14837KMSN MSN20060209152009602/09/06 15:20:31  5-MIN KMSN 092120Z 23007KT 10SM CLR M01/M13 A3009 710 39 -1000 230/07 RMK AO2
14837KMSN MSN20060209152509602/09/06 15:25:31  5-MIN KMSN 092125Z 22007KT 10SM CLR M02/M13 A3009 710 41 -1100 220/07 RMK AO2
14837KMSN MSN20060209153009602/09/06 15:30:31  5-MIN KMSN 092130Z 23008KT 10SM CLR M02/M13 A3009 700 41 -1100 230/08 RMK AO2
14837KMSN MSN20060209153509602/09/06 15:35:31  5-MIN KMSN 092135Z 22008KT 10SM CLR M02/M13 A3010 700 41 -1100 220/08 RMK AO2
14837KMSN MSN20060209154009602/09/06 15:40:31  5-MIN KMSN 092140Z 23008KT 10SM CLR M02/M13 A3009 710 41 -1100 230/08 RMK AO2
14837KMSN MSN20060209154509602/09/06 15:45:31  5-MIN KMSN 092145Z 21007KT 10SM CLR M02/M13 A3009 700 41 -1100 210/07 RMK AO2
14837KMSN MSN20060209155011302/09/06 15:50:31  5-MIN KMSN 092150Z 21008KT 10SM CLR M02/M13 A3009 710 41 -1100 210/08 RMK AO2 SLP203 T10171133
14837KMSN MSN20060209155509902/09/06 15:55:31  5-MIN KMSN 092155Z 23007KT 10SM BKN120 M02/M13 A3009 710 41 -1100 230/07 RMK AO2
14837KMSN MSN20060209160009902/09/06 16:00:31  5-MIN KMSN 092200Z 21007KT 10SM SCT120 M02/M13 A3008 720 41 -1100 210/07 RMK AO2
14837KMSN MSN20060209160511502/09/06 16:05:31  5-MIN KMSN 092205Z 22008KT 180V240 10SM SCT120 M02/M13 A3008 720 41 -1100 220/08 180V240 RMK AO2
14837KMSN MSN20060209161009902/09/06 16:10:31  5-MIN KMSN 092210Z 23010KT 10SM SCT120 M02/M14 A3008 720 39 -1100 230/10 RMK AO2
14837KMSN MSN20060209161509902/09/06 16:15:31  5-MIN KMSN 092215Z 23008KT 10SM SCT120 M02/M14 A3008 720 39 -1100 230/08 RMK AO2
14837KMSN MSN20060209162009902/09/06 16:20:31  5-MIN KMSN 092220Z 23009KT 10SM SCT120 M02/M14 A3008 720 39 -1100 230/09 RMK AO2
14837KMSN MSN20060209162510502/09/06 16:25:31  5-MIN KMSN 092225Z 23011G15KT 10SM SCT120 M02/M14 A3008 720 39 -1100 230/11G15 RMK AO2
14837KMSN MSN20060209163009902/09/06 16:30:31  5-MIN KMSN 092230Z 22008KT 10SM SCT120 M02/M14 A3007 720 39 -1100 220/08 RMK AO2
14837KMSN MSN20060209163509902/09/06 16:35:31  5-MIN KMSN 092235Z 22006KT 10SM FEW120 M02/M14 A3007 730 40 -1100 220/06 RMK AO2
14837KMSN MSN20060209164009902/09/06 16:40:31  5-MIN KMSN 092240Z 22009KT 10SM FEW120 M02/M13 A3007 730 42 -1100 220/09 RMK AO2
14837KMSN MSN20060209164509902/09/06 16:45:31  5-MIN KMSN 092245Z 22007KT 10SM FEW120 M02/M13 A3007 730 42 -1100 220/07 RMK AO2
14837KMSN MSN20060209165011602/09/06 16:50:31  5-MIN KMSN 092250Z 23010KT 10SM FEW120 M02/M13 A3007 730 42 -1100 230/10 RMK AO2 SLP196 T10221133
14837KMSN MSN20060209165509902/09/06 16:55:31  5-MIN KMSN 092255Z 21008KT 10SM FEW120 M02/M13 A3006 730 42 -1100 210/08 RMK AO2
14837KMSN MSN20060209170009902/09/06 17:00:31  5-MIN KMSN 092300Z 21007KT 10SM FEW120 M02/M13 A3006 740 42 -1100 210/07 RMK AO2
14837KMSN MSN20060209170509902/09/06 17:05:31  5-MIN KMSN 092305Z 22008KT 10SM FEW120 M02/M13 A3005 740 44 -1100 220/08 RMK AO2
14837KMSN MSN20060209171009902/09/06 17:10:31  5-MIN KMSN 092310Z 22009KT 10SM FEW120 M02/M13 A3005 740 44 -1100 220/09 RMK AO2
14837KMSN MSN20060209171509902/09/06 17:15:31  5-MIN KMSN 092315Z 21007KT 10SM FEW120 M02/M13 A3005 750 44 -1100 210/07 RMK AO2
14837KMSN MSN20060209172009902/09/06 17:20:31  5-MIN KMSN 092320Z 21007KT 10SM FEW120 M02/M13 A3005 750 44 -1100 210/07 RMK AO2
14837KMSN MSN20060209172509902/09/06 17:25:31  5-MIN KMSN 092325Z 21005KT 10SM FEW120 M03/M12 A3004 750 48 -1200 210/05 RMK AO2
14837KMSN MSN20060209173009902/09/06 17:30:31  5-MIN KMSN 092330Z 19007KT 10SM FEW120 M02/M12 A3004 760 46 -1100 190/07 RMK AO2
14837KMSN MSN20060209173509902/09/06 17:35:31  5-MIN KMSN 092335Z 20007KT 10SM FEW120 M02/M12 A3003 760 46 -1100 200/07 RMK AO2
14837KMSN MSN20060209174009902/09/06 17:40:31  5-MIN KMSN 092340Z 19009KT 10SM FEW120 M02/M12 A3003 760 46 -1100 190/09 RMK AO2
14837KMSN MSN20060209181009902/09/06 18:10:31  5-MIN KMSN 100010Z 20008KT 10SM OVC090 M02/M12 A3003 760 48 -1100 190/08 RMK AO2
14837KMSN MSN20060209181509902/09/06 18:15:31  5-MIN KMSN 100015Z VRB06KT 10SM OVC085 M02/M12 A3003 760 48 -1100 VRB/06 RMK AO2
14837KMSN MSN20060209182009902/09/06 18:20:31  5-MIN KMSN 100020Z 20006KT 10SM OVC085 M02/M12 A3003 760 48 -1100 200/06 RMK AO2
14837KMSN MSN20060209182509902/09/06 18:25:31  5-MIN KMSN 100025Z 20007KT 10SM OVC085 M02/M12 A3003 760 48 -1100 200/07 RMK AO2
14837KMSN MSN20060209183009902/09/06 18:30:31  5-MIN KMSN 100030Z 20007KT 10SM OVC085 M02/M12 A3003 760 48 -1100 200/07 RMK AO2
14837KMSN MSN20060209183509902/09/06 18:35:31  5-MIN KMSN 100035Z 19008KT 10SM OVC085 M02/M12 A3003 760 48 -1100 190/08 RMK AO2
14837KMSN MSN20060209184009902/09/06 18:40:31  5-MIN KMSN 100040Z 19007KT 10SM OVC085 M02/M12 A3003 760 48 -1100 190/07 RMK AO2
14837KMSN MSN20060209184509902/09/06 18:45:31  5-MIN KMSN 100045Z 20007KT 10SM OVC080 M02/M12 A3003 770 48 -1100 200/07 RMK AO2
14837KMSN MSN20060209185011602/09/06 18:50:31  5-MIN KMSN 100050Z 20006KT 10SM OVC080 M02/M12 A3003 770 48 -1100 200/06 RMK AO2 SLP183 T10221117
14837KMSN MSN20060209185510602/09/06 18:55:31  5-MIN KMSN 100055Z 19007KT 10SM FEW060 OVC075 M02/M11 A3002 770 51 -1100 190/07 RMK AO2
14837KMSN MSN20060209190009902/09/06 19:00:31  5-MIN KMSN 100100Z 20007KT 10SM OVC070 M02/M11 A3003 770 51 -1100 200/07 RMK AO2
14837KMSN MSN20060209190509902/09/06 19:05:31  5-MIN KMSN 100105Z 19006KT 10SM OVC070 M02/M11 A3002 770 51 -1100 190/06 RMK AO2
14837KMSN MSN20060209191009902/09/06 19:10:31  5-MIN KMSN 100110Z 19006KT 10SM OVC070 M02/M11 A3002 770 51 -1100 180/06 RMK AO2
14837KMSN MSN20060209191509902/09/06 19:15:31  5-MIN KMSN 100115Z 19008KT 10SM OVC065 M02/M11 A3002 780 51 -1100 190/08 RMK AO2
14837KMSN MSN20060209192009902/09/06 19:20:31  5-MIN KMSN 100120Z 19007KT 10SM OVC060 M02/M11 A3001 780 51 -1100 190/07 RMK AO2
14837KMSN MSN20060209192510602/09/06 19:25:31  5-MIN KMSN 100125Z 20007KT 10SM BKN060 OVC070 M02/M11 A3001 780 51 -1100 200/07 RMK AO2
14837KMSN MSN20060209193009902/09/06 19:30:31  5-MIN KMSN 100130Z 20007KT 10SM OVC055 M02/M11 A3001 780 51 -1000 200/07 RMK AO2
14837KMSN MSN20060209193509902/09/06 19:35:31  5-MIN KMSN 100135Z 20007KT 10SM OVC050 M02/M11 A3001 780 51 -1000 200/07 RMK AO2
14837KMSN MSN20060209194009902/09/06 19:40:31  5-MIN KMSN 100140Z 19008KT 10SM OVC050 M02/M11 A3000 790 51 -1000 190/08 RMK AO2
14837KMSN MSN20060209194510502/09/06 19:45:31  5-MIN KMSN 100145Z 20011G15KT 10SM OVC046 M02/M11 A3000 790 51 -1000 200/11G15 RMK AO2
14837KMSN MSN20060209195013202/09/06 19:50:31  5-MIN KMSN 100150Z 21008KT 190V250 10SM OVC044 M02/M11 A3000 790 53 -1000 210/08 190V250 RMK AO2 SLP172 T10221106
14837KMSN MSN20060209195510802/09/06 19:55:31  5-MIN KMSN 100155Z 23009KT 9SM -SN OVC040 M02/M11 A3000 790 53 -1000 220/09 RMK AO2 P0000
14837KMSN MSN20060209200010802/09/06 20:00:31  5-MIN KMSN 100200Z 22007KT 9SM -SN OVC038 M02/M10 A3000 790 55 -1000 220/07 RMK AO2 P0000
14837KMSN MSN20060209200511502/09/06 20:05:31  5-MIN KMSN 100205Z 22010KT 5SM -SN BKN034 OVC041 M02/M10 A3000 790 55 -1000 220/10 RMK AO2 P0000
14837KMSN MSN20060209201013202/09/06 20:10:31  5-MIN KMSN 100210Z 22010KT 2SM -SN BKN029 BKN034 OVC041 M03/M09 A3000 790 63 -1100 220/10 RMK AO2 SFC VIS 4 P0000
14837KMSN MSN20060209201513202/09/06 20:15:31  5-MIN KMSN 100215Z 21006KT 3SM -SN BKN029 BKN034 OVC055 M03/M08 A3000 800 66 -1100 210/06 RMK AO2 TWR VIS 4 P0000
14837KMSN MSN20060209202013602/09/06 20:20:31  5-MIN KMSN 100220Z 20007KT 2 1/2SM -SN BKN027 BKN032 OVC055 M03/M08 A2999 800 71 -1200 200/07 RMK AO2 TWR VIS 4 P0000
14837KMSN MSN20060209202511902/09/06 20:25:31  5-MIN KMSN 100225Z 21006KT 2 1/2SM -SN BKN025 OVC032 M03/M07 A3000 790 74 -1200 210/06 RMK AO2 P0000
14837KMSN MSN20060209203013202/09/06 20:30:31  5-MIN KMSN 100230Z 21010G14KT 2 1/2SM -SN BKN021 BKN026 OVC032 M03/M07 A2999 800 74 -1200 210/10G14 RMK AO2 P0000
14837KMSN MSN20060209203514202/09/06 20:35:31  5-MIN KMSN 100235Z 20009G14KT 2SM -SN BKN017 BKN026 OVC032 M03/M07 A2999 800 74 -1200 200/09G14 RMK AO2 TWR VIS 2 1/2 P0000
14837KMSN MSN20060209204012902/09/06 20:40:31  5-MIN KMSN 100240Z 21009KT 2SM -SN BKN013 OVC026 M04/M07 A3000 800 81 -1200 210/09 RMK AO2 TWR VIS 2 1/2 P0000
14837KMSN MSN20060209204513202/09/06 20:45:31  5-MIN KMSN 100245Z 21008KT 2SM -SN BR BKN013 OVC026 M04/M06 A2999 800 85 -1200 200/08 RMK AO2 TWR VIS 2 1/2 P0000
14837KMSN MSN20060209205013202/09/06 20:50:31  5-MIN KMSN 100250Z 20011KT 2SM -SN BR BKN020 OVC026 M04/M06 A2999 800 85 -1200 200/11 RMK AO2 TWR VIS 2 1/2 P0000
14837KMSN MSN20060209205513802/09/06 20:55:31  5-MIN KMSN 100255Z 21007G15KT 2SM -SN BR BKN024 OVC065 M04/M06 A2999 800 85 -1200 210/07G15 RMK AO2 TWR VIS 2 1/2 P0000
14837KMSN MSN20060209210013902/09/06 21:00:31  5-MIN KMSN 100300Z 21008KT 2SM -SN BR FEW014 BKN026 OVC065 M04/M06 A2999 800 85 -1200 210/08 RMK AO2 TWR VIS 2 1/2 P0000
14837KMSN MSN20060209210512902/09/06 21:05:31  5-MIN KMSN 100305Z 21006KT 2 1/2SM -SN BR FEW014 BKN028 OVC045 M04/M06 A2999 800 85 -1200 210/06 RMK AO2 P0000
14837KMSN MSN20060209211013902/09/06 21:10:31  5-MIN KMSN 100310Z 21008KT 2SM -SN BR FEW014 SCT038 OVC047 M04/M06 A2999 800 85 -1200 210/08 RMK AO2 TWR VIS 2 1/2 P0000
14837KMSN MSN20060209211512502/09/06 21:15:31  5-MIN KMSN 100315Z 21006KT 2SM -SN BR FEW014 BKN045 OVC065 M04/M06 A2999 800 85 -1200 210/06 RMK AO2 P0000
14837KMSN MSN20060209212012502/09/06 21:20:31  5-MIN KMSN 100320Z 22008KT 2SM -SN BR FEW014 SCT032 OVC045 M04/M06 A2999 800 85 -1200 220/08 RMK AO2 P0000
14837KMSN MSN20060209212513902/09/06 21:25:31  5-MIN KMSN 100325Z 21007KT 2SM -SN BR SCT014 BKN026 OVC046 M04/M06 A2999 800 85 -1200 210/07 RMK AO2 SFC VIS 2 1/2 P0000
14837KMSN MSN20060209213012502/09/06 21:30:31  5-MIN KMSN 100330Z 21005KT 5SM -SN BR SCT014 BKN026 OVC049 M04/M06 A2999 800 85 -1200 210/05 RMK AO2 P0000
14837KMSN MSN20060209213512502/09/06 21:35:31  5-MIN KMSN 100335Z 21004KT 6SM -SN BR SCT014 BKN024 OVC049 M04/M06 A2999 800 85 -1200 210/04 RMK AO2 P0000
14837KMSN MSN20060209214012502/09/06 21:40:31  5-MIN KMSN 100340Z VRB04KT 6SM -SN BR SCT014 BKN024 OVC030 M04/M06 A2999 800 85 -1200 VRB/04 RMK AO2 P0000
14837KMSN MSN20060209214512502/09/06 21:45:31  5-MIN KMSN 100345Z 20005KT 6SM -SN BR SCT014 BKN022 OVC038 M04/M06 A2999 800 85 -1200 200/05 RMK AO2 P0000
14837KMSN MSN20060209215014202/09/06 21:50:31  5-MIN KMSN 100350Z VRB05KT 6SM -SN BR SCT014 BKN022 OVC038 M04/M06 A2999 800 85 -1200 VRB/05 RMK AO2 SLP169 P0000 T10391061
14837KMSN MSN20060209215514702/09/06 21:55:31  5-MIN KMSN 100355Z 21007KT 170V230 2 1/2SM -SN BR BKN014 BKN024 OVC038 M04/M06 A2999 800 85 -1200 210/07 170V230 RMK AO2 P0000 $
14837KMSN MSN20060209220012002/09/06 22:00:31  5-MIN KMSN 100400Z 21006KT 2SM -SN BR BKN014 OVC022 M04/M06 A2999 800 85 -1200 200/06 RMK AO2 P0000 $
14837KMSN MSN20060209220512402/09/06 22:05:31  5-MIN KMSN 100405Z 20007KT 1 1/2SM -SN BR BKN014 OVC022 M04/M06 A2998 810 85 -1200 200/07 RMK AO2 P0000 $
14837KMSN MSN20060209221013102/09/06 22:10:31  5-MIN KMSN 100410Z 20007KT 1 1/2SM -SN BR BKN014 BKN020 OVC025 M04/M06 A2998 810 85 -1200 200/07 RMK AO2 P0000 $
14837KMSN MSN20060209221512402/09/06 22:15:31  5-MIN KMSN 100415Z 20008KT 1 1/2SM -SN BR BKN014 OVC020 M04/M06 A2997 820 85 -1200 190/08 RMK AO2 P0000 $
14837KMSN MSN20060209222013402/09/06 22:20:31  5-MIN KMSN 100420Z 20009KT 1 1/2SM -SN BR BKN014 OVC020 M04/M06 A2997 810 85 -1200 200/09 RMK AO2 TWR VIS 2 P0000 $
14837KMSN MSN20060209222513402/09/06 22:25:31  5-MIN KMSN 100425Z 20009KT 1 1/2SM -SN BR BKN012 OVC018 M04/M06 A2997 820 85 -1200 200/09 RMK AO2 TWR VIS 2 P0000 $
14837KMSN MSN20060209223013402/09/06 22:30:31  5-MIN KMSN 100430Z 19007KT 1 1/2SM -SN BR BKN010 OVC016 M04/M06 A2997 820 85 -1200 190/07 RMK AO2 TWR VIS 2 P0000 $
14837KMSN MSN20060209223513402/09/06 22:35:31  5-MIN KMSN 100435Z 20008KT 1 1/2SM -SN BR SCT010 OVC016 M04/M06 A2997 820 85 -1200 200/08 RMK AO2 TWR VIS 2 P0000 $
14837KMSN MSN20060209224013402/09/06 22:40:31  5-MIN KMSN 100440Z 20008KT 1 1/2SM -SN BR SCT010 OVC016 M04/M06 A2997 820 85 -1200 200/08 RMK AO2 TWR VIS 2 P0001 $
14837KMSN MSN20060209224514102/09/06 22:45:31  5-MIN KMSN 100445Z 20008KT 1 1/2SM -SN BR SCT010 BKN014 OVC028 M04/M06 A2996 820 85 -1200 200/08 RMK AO2 TWR VIS 2 P0001 $
14837KMSN MSN20060209225015802/09/06 22:50:31  5-MIN KMSN 100450Z 20008KT 1 1/2SM -SN BR BKN012 BKN029 OVC044 M04/M06 A2996 820 85 -1200 200/08 RMK AO2 TWR VIS 2 SLP159 P0001 T10391061 $
14837KMSN MSN20060209225512002/09/06 22:55:31  5-MIN KMSN 100455Z 20009KT 2SM -SN BR BKN014 OVC029 M04/M06 A2996 820 85 -1200 200/09 RMK AO2 P0000 $
14837KMSN MSN20060209230012002/09/06 23:00:31  5-MIN KMSN 100500Z 20007KT 2SM -SN BR BKN014 OVC029 M04/M06 A2996 830 85 -1200 200/07 RMK AO2 P0000 $
14837KMSN MSN20060209230512002/09/06 23:05:31  5-MIN KMSN 100505Z 20006KT 2SM -SN BR BKN014 OVC029 M04/M06 A2996 830 85 -1200 200/06 RMK AO2 P0000 $
14837KMSN MSN20060209231012002/09/06 23:10:31  5-MIN KMSN 100510Z 21007KT 2SM -SN BR BKN014 OVC029 M04/M06 A2996 830 88 -1200 200/07 RMK AO2 P0000 $
14837KMSN MSN20060209231512402/09/06 23:15:31  5-MIN KMSN 100515Z 20006KT 1 1/2SM -SN BR BKN014 OVC029 M04/M06 A2996 830 88 -1200 200/06 RMK AO2 P0000 $
14837KMSN MSN20060209232012402/09/06 23:20:31  5-MIN KMSN 100520Z 21007KT 1 1/2SM -SN BR BKN014 OVC029 M04/M06 A2996 830 88 -1200 200/07 RMK AO2 P0000 $
14837KMSN MSN20060209232513102/09/06 23:25:31  5-MIN KMSN 100525Z 21006KT 1 1/2SM -SN BR SCT011 BKN016 OVC029 M04/M06 A2996 830 88 -1200 210/06 RMK AO2 P0000 $
14837KMSN MSN20060209233012002/09/06 23:30:31  5-MIN KMSN 100530Z 21007KT 1SM -SN BR BKN013 OVC029 M04/M06 A2996 830 88 -1200 210/07 RMK AO2 P0000 $
14837KMSN MSN20060209233512702/09/06 23:35:31  5-MIN KMSN 100535Z 21007KT 1SM -SN BR FEW010 BKN015 OVC032 M04/M06 A2996 830 88 -1200 210/07 RMK AO2 P0001 $
14837KMSN MSN20060209234012702/09/06 23:40:31  5-MIN KMSN 100540Z 21006KT 1SM -SN BR BKN012 BKN017 OVC025 M04/M06 A2996 830 88 -1200 210/06 RMK AO2 P0001 $
14837KMSN MSN20060209234512002/09/06 23:45:31  5-MIN KMSN 100545Z 20007KT 1SM -SN BR BKN013 OVC025 M04/M06 A2995 830 88 -1200 200/07 RMK AO2 P0001 $
14837KMSN MSN20060209235014702/09/06 23:50:31  5-MIN KMSN 100550Z 20005KT 1SM -SN BR BKN017 OVC023 M04/M06 A2995 830 88 -1200 200/05 RMK AO2 SNINCR 1/1 4/001 P0001 410111117 $
14837KMSN MSN20060209235512002/09/06 23:55:31  5-MIN KMSN 100555Z 21006KT 1SM -SN BR FEW014 OVC019 M04/M06 A2995 840 88 -1200 210/06 RMK AO2 P0000 $
14837KMSN MSN20060210000012002/10/06 00:00:38  5-MIN KMSN 100600Z 21006KT 1SM -SN BR FEW014 OVC019 M04/M06 A2995 840 88 -1200 210/06 RMK AO2 P0000 $
14837KMSN MSN20060210000512002/10/06 00:05:31  5-MIN KMSN 100605Z 20006KT 1SM -SN BR FEW014 OVC019 M04/M06 A2995 840 88 -1200 200/06 RMK AO2 P0000 $
14837KMSN MSN20060210001012002/10/06 00:10:31  5-MIN KMSN 100610Z 19006KT 1SM -SN BR FEW014 OVC021 M04/M06 A2994 840 88 -1200 190/06 RMK AO2 P0000 $
14837KMSN MSN20060210001512002/10/06 00:15:33  5-MIN KMSN 100615Z 20007KT 1SM -SN BR FEW014 OVC023 M04/M06 A2994 850 88 -1200 200/07 RMK AO2 P0000 $
14837KMSN MSN20060210002011302/10/06 00:20:31  5-MIN KMSN 100620Z 20007KT 1SM -SN BR OVC023 M04/M06 A2994 850 88 -1200 200/07 RMK AO2 P0000 $
14837KMSN MSN20060210002511302/10/06 00:25:31  5-MIN KMSN 100625Z 20007KT 1SM -SN BR OVC023 M04/M06 A2993 850 88 -1200 190/07 RMK AO2 P0000 $
14837KMSN MSN20060210003012402/10/06 00:30:31  5-MIN KMSN 100630Z 19007KT 2 1/2SM -SN BR BKN023 OVC035 M04/M06 A2993 850 88 -1200 190/07 RMK AO2 P0000 $
14837KMSN MSN20060210003513102/10/06 00:35:31  5-MIN KMSN 100635Z 20007KT 2 1/2SM -SN BR FEW016 BKN023 OVC028 M04/M06 A2993 850 85 -1200 200/07 RMK AO2 P0000 $
14837KMSN MSN20060210004013102/10/06 00:40:31  5-MIN KMSN 100640Z 20007KT 2 1/2SM -SN BR SCT014 BKN023 OVC055 M04/M06 A2993 860 85 -1200 200/07 RMK AO2 P0000 $
14837KMSN MSN20060210004513102/10/06 00:45:31  5-MIN KMSN 100645Z 20005KT 2 1/2SM -SN BR SCT014 BKN023 OVC060 M04/M06 A2993 860 85 -1200 200/05 RMK AO2 P0000 $
14837KMSN MSN20060210005012702/10/06 00:50:31  5-MIN KMSN 100650Z 21007KT 3SM -SN BR SCT014 BKN025 OVC060 M04/M06 A2993 860 85 -1200 210/07 RMK AO2 P0000 $
14837KMSN MSN20060210005512702/10/06 00:55:31  5-MIN KMSN 100655Z 20006KT 3SM -SN BR BKN014 BKN022 OVC031 M04/M06 A2993 860 85 -1200 200/06 RMK AO2 P0000 $
14837KMSN MSN20060210010012702/10/06 01:00:31  5-MIN KMSN 100700Z 20006KT 3SM -SN BR BKN016 BKN026 OVC033 M04/M06 A2992 860 85 -1200 200/06 RMK AO2 P0000 $
14837KMSN MSN20060210010512702/10/06 01:05:31  5-MIN KMSN 100705Z 23006KT 3SM -SN BR SCT014 BKN020 OVC033 M04/M06 A2992 860 85 -1200 230/06 RMK AO2 P0000 $
14837KMSN MSN20060210011012702/10/06 01:10:31  5-MIN KMSN 100710Z 21006KT 3SM -SN BR BKN014 BKN020 OVC026 M04/M06 A2993 860 85 -1200 210/06 RMK AO2 P0000 $
14837KMSN MSN20060210011512702/10/06 01:15:31  5-MIN KMSN 100715Z 23005KT 3SM -SN BR BKN014 BKN020 OVC026 M04/M06 A2992 860 85 -1200 230/05 RMK AO2 P0000 $
14837KMSN MSN20060210012012702/10/06 01:20:31  5-MIN KMSN 100720Z 22006KT 2SM -SN BR BKN014 BKN020 OVC026 M04/M06 A2992 860 85 -1200 220/06 RMK AO2 P0000 $
14837KMSN MSN20060210012512002/10/06 01:25:31  5-MIN KMSN 100725Z 23007KT 2SM -SN BR BKN016 OVC024 M04/M06 A2992 870 85 -1200 230/07 RMK AO2 P0000 $
14837KMSN MSN20060210013012902/10/06 01:30:31  5-MIN KMSN 100730Z 22007KT 180V250 4SM -SN BR OVC016 M04/M06 A2992 870 85 -1200 220/07 180V250 RMK AO2 P0000 $
14837KMSN MSN20060210013511302/10/06 01:35:31  5-MIN KMSN 100735Z 22008KT 5SM -SN BR OVC016 M04/M06 A2992 870 85 -1200 220/08 RMK AO2 P0000 $
14837KMSN MSN20060210014011302/10/06 01:40:31  5-MIN KMSN 100740Z 21007KT 6SM -SN BR OVC016 M04/M06 A2991 870 85 -1200 210/07 RMK AO2 P0000 $
14837KMSN MSN20060210014511302/10/06 01:45:31  5-MIN KMSN 100745Z 22008KT 6SM -SN BR OVC016 M04/M06 A2991 870 85 -1100 220/08 RMK AO2 P0000 $
14837KMSN MSN20060210015013702/10/06 01:50:31  5-MIN KMSN 100750Z 22007KT 6SM -SN BR BKN016 OVC029 M04/M06 A2991 870 85 -1100 220/07 RMK AO2 SLP139 P0000 T10391061 $
14837KMSN MSN20060210015512002/10/06 01:55:31  5-MIN KMSN 100755Z 22010KT 6SM -SN BR BKN016 OVC029 M04/M06 A2991 880 85 -1100 220/10 RMK AO2 P0000 $
14837KMSN MSN20060210020012002/10/06 02:00:31  5-MIN KMSN 100800Z 22007KT 6SM -SN BR BKN016 OVC029 M04/M06 A2991 880 85 -1100 220/07 RMK AO2 P0000 $
14837KMSN MSN20060210020512002/10/06 02:05:31  5-MIN KMSN 100805Z 22006KT 6SM -SN BR SCT016 OVC029 M04/M06 A2991 880 85 -1100 220/06 RMK AO2 P0000 $
14837KMSN MSN20060210021011702/10/06 02:10:31  5-MIN KMSN 100810Z 23008KT 7SM -SN SCT016 OVC027 M04/M06 A2991 880 85 -1100 230/08 RMK AO2 P0000 $
14837KMSN MSN20060210021511702/10/06 02:15:31  5-MIN KMSN 100815Z 22007KT 7SM -SN SCT016 OVC027 M04/M06 A2990 880 85 -1100 220/07 RMK AO2 P0000 $
14837KMSN MSN20060210022011702/10/06 02:20:31  5-MIN KMSN 100820Z 22006KT 7SM -SN SCT016 OVC027 M04/M06 A2990 880 85 -1100 220/06 RMK AO2 P0000 $
14837KMSN MSN20060210022511702/10/06 02:25:31  5-MIN KMSN 100825Z 22006KT 7SM -SN SCT016 OVC025 M04/M06 A2990 880 85 -1100 210/06 RMK AO2 P0000 $
14837KMSN MSN20060210023011702/10/06 02:30:31  5-MIN KMSN 100830Z 22007KT 7SM -SN SCT016 OVC025 M04/M06 A2990 890 85 -1100 220/07 RMK AO2 P0000 $
14837KMSN MSN20060210023512002/10/06 02:35:31  5-MIN KMSN 100835Z 22007KT 6SM -SN BR BKN018 OVC025 M04/M06 A2989 890 85 -1100 220/07 RMK AO2 P0000 $
14837KMSN MSN20060210024012002/10/06 02:40:31  5-MIN KMSN 100840Z 23007KT 6SM -SN BR BKN019 OVC024 M04/M06 A2989 890 85 -1100 230/07 RMK AO2 P0000 $
14837KMSN MSN20060210024511302/10/06 02:45:31  5-MIN KMSN 100845Z 22005KT 6SM -SN BR OVC019 M04/M06 A2989 890 85 -1100 220/05 RMK AO2 P0000 $
14837KMSN MSN20060210025013902/10/06 02:50:31  5-MIN KMSN 100850Z 21004KT 7SM -SN OVC019 M04/M06 A2989 890 85 -1100 210/04 RMK AO2 SLP132 P0000 60000 T10391061 56013 $
14837KMSN MSN20060210025511302/10/06 02:55:31  5-MIN KMSN 100855Z 22006KT 6SM -SN BR OVC019 M04/M06 A2988 900 85 -1100 220/06 RMK AO2 P0000 $
14837KMSN MSN20060210030011302/10/06 03:00:31  5-MIN KMSN 100900Z 22008KT 4SM -SN BR OVC017 M04/M06 A2989 900 85 -1100 220/08 RMK AO2 P0000 $
14837KMSN MSN20060210030511302/10/06 03:05:31  5-MIN KMSN 100905Z 21006KT 4SM -SN BR OVC017 M04/M06 A2989 900 85 -1100 210/06 RMK AO2 P0000 $
14837KMSN MSN20060210031011302/10/06 03:10:31  5-MIN KMSN 100910Z 22006KT 5SM -SN BR OVC017 M04/M06 A2988 900 85 -1100 220/06 RMK AO2 P0000 $
14837KMSN MSN20060210031511302/10/06 03:15:31  5-MIN KMSN 100915Z 21005KT 6SM -SN BR OVC015 M04/M06 A2988 900 85 -1100 210/05 RMK AO2 P0000 $
14837KMSN MSN20060210032011002/10/06 03:20:31  5-MIN KMSN 100920Z VRB05KT 7SM -SN OVC015 M04/M06 A2988 900 85 -1100 VRB/05 RMK AO2 P0000 $
14837KMSN MSN20060210032511002/10/06 03:25:31  5-MIN KMSN 100925Z 21006KT 7SM -SN OVC015 M04/M06 A2988 900 85 -1100 210/06 RMK AO2 P0000 $
14837KMSN MSN20060210033011002/10/06 03:30:31  5-MIN KMSN 100930Z 22005KT 7SM -SN OVC015 M04/M06 A2988 900 85 -1100 220/05 RMK AO2 P0000 $
14837KMSN MSN20060210033511002/10/06 03:35:31  5-MIN KMSN 100935Z 22004KT 7SM -SN OVC015 M04/M06 A2988 900 85 -1100 220/04 RMK AO2 P0000 $
14837KMSN MSN20060210034011002/10/06 03:40:31  5-MIN KMSN 100940Z VRB04KT 7SM -SN OVC015 M04/M06 A2988 900 85 -1100 VRB/04 RMK AO2 P0000 $
14837KMSN MSN20060210034511002/10/06 03:45:31  5-MIN KMSN 100945Z 22007KT 7SM -SN OVC017 M04/M06 A2988 900 85 -1100 220/07 RMK AO2 P0000 $
14837KMSN MSN20060210035012702/10/06 03:50:31  5-MIN KMSN 100950Z 23004KT 7SM -SN OVC017 M04/M06 A2988 900 85 -1100 230/04 RMK AO2 SLP128 P0000 T10391061 $
14837KMSN MSN20060210035511002/10/06 03:55:31  5-MIN KMSN 100955Z VRB04KT 7SM -SN OVC017 M04/M06 A2988 900 85 -1100 VRB/04 RMK AO2 P0000 $
14837KMSN MSN20060210040011002/10/06 04:00:31  5-MIN KMSN 101000Z 22004KT 7SM -SN OVC017 M03/M06 A2988 900 81 -1000 220/04 RMK AO2 P0000 $
14837KMSN MSN20060210040511002/10/06 04:05:31  5-MIN KMSN 101005Z 23004KT 7SM -SN OVC017 M03/M06 A2988 900 81 -1000 230/04 RMK AO2 P0000 $
14837KMSN MSN20060210041011002/10/06 04:10:31  5-MIN KMSN 101010Z 23004KT 7SM -SN OVC017 M03/M06 A2988 900 81 -1000 230/04 RMK AO2 P0000 $
14837KMSN MSN20060210041511002/10/06 04:15:31  5-MIN KMSN 101015Z 23004KT 7SM -SN OVC017 M03/M06 A2988 900 81 -1000 220/04 RMK AO2 P0000 $
14837KMSN MSN20060210042011002/10/06 04:20:31  5-MIN KMSN 101020Z 23004KT 7SM -SN OVC017 M03/M06 A2988 910 81 -1000 220/04 RMK AO2 P0000 $
14837KMSN MSN20060210042511002/10/06 04:25:31  5-MIN KMSN 101025Z 23005KT 7SM -SN OVC017 M03/M06 A2987 910 81 -1000 230/05 RMK AO2 P0000 $
14837KMSN MSN20060210043011002/10/06 04:30:31  5-MIN KMSN 101030Z 23004KT 7SM -SN OVC017 M03/M06 A2988 910 81 -1000 230/04 RMK AO2 P0000 $
14837KMSN MSN20060210043511002/10/06 04:35:31  5-MIN KMSN 101035Z VRB04KT 7SM -SN OVC017 M03/M06 A2987 910 81 -1000 VRB/04 RMK AO2 P0000 $
14837KMSN MSN20060210044011002/10/06 04:40:31  5-MIN KMSN 101040Z VRB04KT 7SM -SN OVC017 M03/M06 A2988 910 81 -1000 VRB/04 RMK AO2 P0000 $
14837KMSN MSN20060210044511002/10/06 04:45:31  5-MIN KMSN 101045Z 23004KT 7SM -SN OVC017 M03/M06 A2988 900 81 -1000 220/04 RMK AO2 P0000 $
14837KMSN MSN20060210045012702/10/06 04:50:31  5-MIN KMSN 101050Z VRB05KT 7SM -SN OVC017 M03/M06 A2988 900 81 -1000 VRB/05 RMK AO2 SLP128 P0000 T10331061 $
14837KMSN MSN20060210045511002/10/06 04:55:31  5-MIN KMSN 101055Z VRB06KT 7SM -SN OVC017 M03/M06 A2988 910 81 -1000 VRB/06 RMK AO2 P0000 $
14837KMSN MSN20060210050011002/10/06 05:00:31  5-MIN KMSN 101100Z 24005KT 7SM -SN OVC017 M03/M06 A2987 910 81 -1000 230/05 RMK AO2 P0000 $
14837KMSN MSN20060210050511002/10/06 05:05:31  5-MIN KMSN 101105Z VRB05KT 7SM -SN OVC017 M03/M06 A2988 910 81 -1000 VRB/05 RMK AO2 P0000 $
14837KMSN MSN20060210051011002/10/06 05:10:31  5-MIN KMSN 101110Z VRB04KT 7SM -SN OVC017 M03/M06 A2988 910 81 -1000 VRB/04 RMK AO2 P0000 $
14837KMSN MSN20060210051511002/10/06 05:15:31  5-MIN KMSN 101115Z VRB05KT 7SM -SN OVC017 M03/M06 A2988 900 81 -1000 VRB/05 RMK AO2 P0000 $
14837KMSN MSN20060210052011002/10/06 05:20:31  5-MIN KMSN 101120Z VRB03KT 6SM -SN OVC017 M03/M06 A2988 910 81 -1000 VRB/03 RMK AO2 P0000 $
14837KMSN MSN20060210052511002/10/06 05:25:31  5-MIN KMSN 101125Z VRB04KT 6SM -SN OVC017 M03/M06 A2988 910 81 -1000 VRB/04 RMK AO2 P0000 $
14837KMSN MSN20060210053011002/10/06 05:30:31  5-MIN KMSN 101130Z 23004KT 6SM -SN OVC017 M03/M06 A2988 910 81 -1000 230/04 RMK AO2 P0000 $
14837KMSN MSN20060210053511002/10/06 05:35:31  5-MIN KMSN 101135Z VRB04KT 6SM -SN OVC017 M03/M06 A2988 910 81 -1000 VRB/04 RMK AO2 P0000 $
14837KMSN MSN20060210054011002/10/06 05:40:31  5-MIN KMSN 101140Z VRB03KT 6SM -SN OVC015 M03/M06 A2988 910 81 -1000 VRB/03 RMK AO2 P0000 $
14837KMSN MSN20060210054511002/10/06 05:45:31  5-MIN KMSN 101145Z VRB03KT 7SM -SN OVC015 M03/M06 A2988 910 81 -1000 VRB/03 RMK AO2 P0000 $
14837KMSN MSN20060210055016302/10/06 05:50:31  5-MIN KMSN 101150Z 25003KT 7SM -SN OVC015 M03/M06 A2988 900 81 -1000 250/03 RMK AO2 SLP128 4/001 P0000 60000 70002 T10331061 11033 21044 56021 $
14837KMSN MSN20060210055511002/10/06 05:55:31  5-MIN KMSN 101155Z 00000KT 6SM -SN OVC015 M03/M06 A2988 910 81 -1000 000/00 RMK AO2 P0000 $
14837KMSN MSN20060210060011002/10/06 06:00:31  5-MIN KMSN 101200Z VRB03KT 6SM -SN OVC015 M03/M06 A2988 900 81 -1000 VRB/03 RMK AO2 P0000 $
14837KMSN MSN20060210060511002/10/06 06:05:31  5-MIN KMSN 101205Z 23003KT 6SM -SN OVC015 M03/M06 A2988 900 81 -1000 230/03 RMK AO2 P0000 $
14837KMSN MSN20060210061011002/10/06 06:10:31  5-MIN KMSN 101210Z 24003KT 6SM -SN OVC015 M03/M06 A2988 910 81 -1000 240/03 RMK AO2 P0000 $
14837KMSN MSN20060210061511002/10/06 06:15:31  5-MIN KMSN 101215Z VRB03KT 6SM -SN OVC015 M03/M06 A2988 910 81 -1000 VRB/03 RMK AO2 P0000 $
14837KMSN MSN20060210062011002/10/06 06:20:31  5-MIN KMSN 101220Z 00000KT 6SM -SN OVC015 M03/M06 A2987 910 81 -1000 000/00 RMK AO2 P0000 $
14837KMSN MSN20060210062511702/10/06 06:25:31  5-MIN KMSN 101225Z 00000KT 6SM -SN BKN015 OVC065 M03/M06 A2987 910 81 -1000 000/00 RMK AO2 P0000 $
14837KMSN MSN20060210063011702/10/06 06:30:31  5-MIN KMSN 101230Z 00000KT 6SM -SN BKN015 OVC065 M03/M06 A2987 910 81 -1000 000/00 RMK AO2 P0000 $
14837KMSN MSN20060210063511702/10/06 06:35:31  5-MIN KMSN 101235Z 00000KT 6SM -SN BKN015 OVC065 M03/M06 A2988 900 81 -1000 000/00 RMK AO2 P0000 $
14837KMSN MSN20060210064012002/10/06 06:40:31  5-MIN KMSN 101240Z 00000KT 6SM -SN BR BKN013 OVC065 M03/M06 A2988 900 85 -1000 000/00 RMK AO2 P0000 $
14837KMSN MSN20060210064512002/10/06 06:45:31  5-MIN KMSN 101245Z 00000KT 6SM -SN BR BKN013 OVC065 M03/M06 A2988 900 85 -1000 000/00 RMK AO2 P0000 $
14837KMSN MSN20060210065014102/10/06 06:50:31  5-MIN KMSN 101250Z 00000KT 6SM -SN BKN013 BKN028 OVC065 M03/M06 A2988 900 81 -1000 000/00 RMK AO2 SLP130 P0000 T10331061 $
14837KMSN MSN20060210065512402/10/06 06:55:31  5-MIN KMSN 101255Z 00000KT 6SM -SN BKN013 BKN028 OVC070 M03/M06 A2988 900 81 -1000 000/00 RMK AO2 P0000 $
14837KMSN MSN20060210070012402/10/06 07:00:31  5-MIN KMSN 101300Z 00000KT 6SM -SN SCT013 BKN028 OVC039 M03/M06 A2989 900 81 -1000 000/00 RMK AO2 P0000 $
14837KMSN MSN20060210070512702/10/06 07:05:31  5-MIN KMSN 101305Z 00000KT 6SM -SN BR SCT013 BKN028 OVC039 M03/M06 A2989 900 85 -1000 000/00 RMK AO2 P0000 $
14837KMSN MSN20060210071012002/10/06 07:10:31  5-MIN KMSN 101310Z 00000KT 5SM -SN BR SCT013 OVC028 M03/M06 A2989 900 85 -1100 000/00 RMK AO2 P0000 $
14837KMSN MSN20060210071512702/10/06 07:15:31  5-MIN KMSN 101315Z 00000KT 4SM -SN BR FEW013 BKN028 OVC039 M03/M06 A2989 890 85 -1100 000/00 RMK AO2 P0000 $
14837KMSN MSN20060210072012702/10/06 07:20:31  5-MIN KMSN 101320Z 24003KT 4SM -SN BR FEW013 BKN028 OVC039 M03/M06 A2989 890 85 -1100 240/03 RMK AO2 P0000 $
14837KMSN MSN20060210072512502/10/06 07:25:31  5-MIN KMSN 101325Z 00000KT 3SM -SN BR FEW021 BKN026 OVC032 M03/M06 A2989 890 85 -1100 000/00 RMK AO2 P0000
14837KMSN MSN20060210073011802/10/06 07:30:31  5-MIN KMSN 101330Z 00000KT 3SM -SN BR BKN024 OVC030 M03/M06 A2989 890 85 -1100 000/00 RMK AO2 P0000
14837KMSN MSN20060210073511802/10/06 07:35:31  5-MIN KMSN 101335Z 21003KT 3SM -SN BR BKN022 OVC028 M03/M06 A2989 890 85 -1100 210/03 RMK AO2 P0000
14837KMSN MSN20060210074011802/10/06 07:40:31  5-MIN KMSN 101340Z 22003KT 3SM -SN BR SCT016 OVC023 M03/M06 A2990 890 85 -1100 220/03 RMK AO2 P0000
14837KMSN MSN20060210074511502/10/06 07:45:31  5-MIN KMSN 101345Z 00000KT 4SM -SN BKN016 OVC023 M03/M06 A2990 880 81 -1000 000/00 RMK AO2 P0000
14837KMSN MSN20060210075013202/10/06 07:50:31  5-MIN KMSN 101350Z VRB04KT 4SM -SN BKN018 OVC025 M03/M06 A2990 880 81 -1000 VRB/04 RMK AO2 SLP137 P0000 T10281056
14837KMSN MSN20060210075510802/10/06 07:55:31  5-MIN KMSN 101355Z 00000KT 4SM -SN OVC018 M03/M06 A2990 880 81 -1000 000/00 RMK AO2 P0000
14837KMSN MSN20060210080010802/10/06 08:00:31  5-MIN KMSN 101400Z VRB03KT 4SM -SN OVC016 M03/M06 A2991 880 81 -1000 VRB/03 RMK AO2 P0000
14837KMSN MSN20060210080511102/10/06 08:05:31  5-MIN KMSN 101405Z 00000KT 3SM -SN BR OVC016 M03/M05 A2991 880 85 -1000 000/00 RMK AO2 P0000
14837KMSN MSN20060210081011102/10/06 08:10:31  5-MIN KMSN 101410Z 19004KT 3SM -SN BR OVC016 M03/M05 A2991 880 85 -1000 190/04 RMK AO2 P0000
14837KMSN MSN20060210081511102/10/06 08:15:31  5-MIN KMSN 101415Z 20005KT 3SM -SN BR OVC014 M03/M05 A2991 880 85 -1000 190/05 RMK AO2 P0000
14837KMSN MSN20060210082011802/10/06 08:20:31  5-MIN KMSN 101420Z 21003KT 3SM -SN BR BKN012 OVC017 M03/M05 A2991 870 85 -1000 200/03 RMK AO2 P0000
14837KMSN MSN20060210082511102/10/06 08:25:31  5-MIN KMSN 101425Z 00000KT 4SM -SN BR OVC012 M03/M05 A2991 870 85 -1000 000/00 RMK AO2 P0000
14837KMSN MSN20060210083011102/10/06 08:30:31  5-MIN KMSN 101430Z 00000KT 4SM -SN BR OVC012 M03/M05 A2991 870 85 -1000 000/00 RMK AO2 P0000
14837KMSN MSN20060210083511102/10/06 08:35:31  5-MIN KMSN 101435Z 19004KT 3SM -SN BR OVC012 M03/M05 A2992 870 85 -1000 190/04 RMK AO2 P0000
14837KMSN MSN20060210084011102/10/06 08:40:31  5-MIN KMSN 101440Z 20004KT 3SM -SN BR OVC012 M03/M05 A2992 870 85 -1000 200/04 RMK AO2 P0000
14837KMSN MSN20060210084511102/10/06 08:45:31  5-MIN KMSN 101445Z 20004KT 3SM -SN BR OVC012 M03/M05 A2992 870 85 -1000 200/04 RMK AO2 P0000
14837KMSN MSN20060210085014002/10/06 08:50:31  5-MIN KMSN 101450Z 20003KT 3SM -SN BR OVC012 M03/M05 A2992 860 85 -1000 200/03 RMK AO2 SLP144 P0000 60000 T10281050 56003
14837KMSN MSN20060210085511502/10/06 08:55:31  5-MIN KMSN 101455Z 19005KT 2 1/2SM -SN BR OVC012 M03/M05 A2992 860 85 -1000 190/05 RMK AO2 P0000
14837KMSN MSN20060210090011102/10/06 09:00:31  5-MIN KMSN 101500Z 19005KT 3SM -SN BR OVC012 M03/M05 A2992 860 85 -1000 190/05 RMK AO2 P0000
14837KMSN MSN20060210090511102/10/06 09:05:31  5-MIN KMSN 101505Z 18004KT 3SM -SN BR OVC012 M03/M05 A2992 860 85 -1000 180/04 RMK AO2 P0000
14837KMSN MSN20060210091011102/10/06 09:10:31  5-MIN KMSN 101510Z 19004KT 3SM -SN BR OVC012 M03/M04 A2992 860 88 -1000 190/04 RMK AO2 P0000
14837KMSN MSN20060210091511002/10/06 09:15:31  5-MIN KMSN 101515Z 19003KT 3SM -SN BR OVC012 M02/M04 A2992 860 85 -900 190/03 RMK AO2 P0000
14837KMSN MSN20060210092011002/10/06 09:20:31  5-MIN KMSN 101520Z 19006KT 4SM -SN BR OVC012 M02/M04 A2992 860 85 -900 190/06 RMK AO2 P0000
14837KMSN MSN20060210092510802/10/06 09:25:31  5-MIN KMSN 101525Z 23004KT 3SM -SN OVC012 M02/M05 A2992 860 81 -1000 220/04 RMK AO2 P0000
14837KMSN MSN20060210093011002/10/06 09:30:31  5-MIN KMSN 101530Z 20004KT 3SM -SN BR OVC012 M02/M04 A2992 860 85 -900 200/04 RMK AO2 P0000
14837KMSN MSN20060210093511502/10/06 09:35:31  5-MIN KMSN 101535Z 19005KT 2 1/2SM -SN BR OVC012 M02/M04 A2992 860 85 -1000 190/05 RMK AO2 P0000
14837KMSN MSN20060210094011502/10/06 09:40:31  5-MIN KMSN 101540Z 20003KT 2 1/2SM -SN BR OVC012 M02/M04 A2992 860 85 -1000 190/03 RMK AO2 P0000
14837KMSN MSN20060210094511502/10/06 09:45:31  5-MIN KMSN 101545Z 20005KT 2 1/2SM -SN BR OVC012 M02/M04 A2993 860 85 -1000 200/05 RMK AO2 P0000
14837KMSN MSN20060210095013202/10/06 09:50:31  5-MIN KMSN 101550Z 20004KT 2 1/2SM -SN BR OVC012 M02/M04 A2993 860 85 -1000 200/04 RMK AO2 SLP145 P0000 T10221044
14837KMSN MSN20060210095512502/10/06 09:55:31  5-MIN KMSN 101555Z 19004KT 2 1/2SM -SN BR OVC014 M02/M04 A2993 860 85 -1000 190/04 RMK AO2 SFC VIS 3 P0000
14837KMSN MSN20060210100012502/10/06 10:00:31  5-MIN KMSN 101600Z 19005KT 2 1/2SM -SN BR OVC014 M02/M04 A2993 850 85 -1000 190/05 RMK AO2 SFC VIS 3 P0000
14837KMSN MSN20060210100512502/10/06 10:05:31  5-MIN KMSN 101605Z 19005KT 2 1/2SM -SN BR OVC012 M02/M04 A2993 850 85 -1000 190/05 RMK AO2 SFC VIS 3 P0000
14837KMSN MSN20060210101012102/10/06 10:10:31  5-MIN KMSN 101610Z VRB03KT 3SM -SN BR OVC012 M02/M04 A2994 850 85 -1000 VRB/03 RMK AO2 SFC VIS 3 P0000
14837KMSN MSN20060210101511702/10/06 10:15:31  5-MIN KMSN 101615Z 21004KT 3SM -SN OVC012 M02/M04 A2994 850 81 -900 210/04 RMK AO2 SFC VIS 3 P0000
14837KMSN MSN20060210102011702/10/06 10:20:31  5-MIN KMSN 101620Z 23004KT 3SM -SN OVC012 M02/M04 A2994 850 81 -900 230/04 RMK AO2 SFC VIS 3 P0000
14837KMSN MSN20060210102511702/10/06 10:25:31  5-MIN KMSN 101625Z 00000KT 3SM -SN OVC012 M02/M04 A2994 850 81 -900 000/00 RMK AO2 SFC VIS 3 P0000
14837KMSN MSN20060210103012002/10/06 10:30:31  5-MIN KMSN 101630Z 23005KT 3SM -SN BR OVC012 M02/M04 A2994 850 85 -900 230/05 RMK AO2 SFC VIS 3 P0000
14837KMSN MSN20060210103511702/10/06 10:35:31  5-MIN KMSN 101635Z 24006KT 3SM -SN OVC012 M02/M04 A2994 840 81 -900 240/06 RMK AO2 SFC VIS 4 P0000
14837KMSN MSN20060210104010702/10/06 10:40:31  5-MIN KMSN 101640Z 24005KT 4SM -SN OVC012 M02/M04 A2994 840 81 -900 240/05 RMK AO2 P0000
14837KMSN MSN20060210104511002/10/06 10:45:31  5-MIN KMSN 101645Z 23004KT 4SM -SN BR OVC012 M02/M04 A2995 840 85 -900 230/04 RMK AO2 P0000
14837KMSN MSN20060210105012402/10/06 10:50:31  5-MIN KMSN 101650Z VRB04KT 4SM -SN OVC012 M01/M04 A2995 840 81 -800 VRB/04 RMK AO2 SLP152 P0000 T10111039
14837KMSN MSN20060210105511402/10/06 10:55:31  5-MIN KMSN 101655Z 22005KT 4SM -SN BKN012 OVC027 M01/M04 A2994 840 81 -800 220/05 RMK AO2 P0000
14837KMSN MSN20060210110011402/10/06 11:00:31  5-MIN KMSN 101700Z 23005KT 4SM -SN BKN012 OVC027 M01/M04 A2994 840 81 -800 230/05 RMK AO2 P0000
14837KMSN MSN20060210110511702/10/06 11:05:31  5-MIN KMSN 101705Z 22004KT 4SM -SN BR SCT012 OVC027 M01/M03 A2994 840 85 -800 220/04 RMK AO2 P0000
14837KMSN MSN20060210111011702/10/06 11:10:31  5-MIN KMSN 101710Z 24004KT 4SM -SN BR FEW012 OVC027 M01/M03 A2995 840 85 -800 240/04 RMK AO2 P0000
14837KMSN MSN20060210111511402/10/06 11:15:31  5-MIN KMSN 101715Z VRB04KT 4SM -SN FEW012 OVC027 M01/M03 A2995 840 81 -800 VRB/04 RMK AO2 P0000
14837KMSN MSN20060210112010702/10/06 11:20:31  5-MIN KMSN 101720Z VRB04KT 4SM -SN OVC027 M01/M03 A2995 840 81 -800 VRB/04 RMK AO2 P0000
14837KMSN MSN20060210112511302/10/06 11:25:31  5-MIN KMSN 101725Z 25005KT 4SM -SN OVC027 M01/M03 A2995 840 81 -800 250/05 RMK AO2 4/001 P0000
14837KMSN MSN20060210113010702/10/06 11:30:31  5-MIN KMSN 101730Z VRB06KT 5SM -SN OVC031 M01/M04 A2995 840 78 -800 VRB/06 RMK AO2 P0000
14837KMSN MSN20060210113511102/10/06 11:35:31  5-MIN KMSN 101735Z 27005KT 5SM HZ OVC031 00/M04 A2995 840 75 -700 270/05 RMK AO2 SNE32 P0000
14837KMSN MSN20060210114011102/10/06 11:40:31  5-MIN KMSN 101740Z 27004KT 6SM HZ OVC033 00/M04 A2995 840 72 -700 270/04 RMK AO2 SNE32 P0000
14837KMSN MSN20060210114511402/10/06 11:45:31  5-MIN KMSN 101745Z 31003KT 7SM OVC035 00/M04 A2995 840 75 -700 310/03 RMK AO2 SNE32 4/001 P0000
14837KMSN MSN20060210115016202/10/06 11:50:31  5-MIN KMSN 101750Z 30003KT 7SM SCT031 BKN035 01/M04 A2994 840 72 -600 300/03 RMK AO2 SNE32 SLP151 4/001 P0000 60000 T00061039 10006 21033 53014
14837KMSN MSN20060210115509602/10/06 11:55:31  5-MIN KMSN 101755Z 29005KT 7SM OVC035 00/M04 A2994 840 72 -700 290/05 RMK AO2
14837KMSN MSN20060210120010302/10/06 12:00:31  5-MIN KMSN 101800Z 29006KT 7SM BKN037 OVC046 00/M04 A2994 840 72 -700 290/06 RMK AO2
14837KMSN MSN20060210120510302/10/06 12:05:31  5-MIN KMSN 101805Z 32005KT 8SM BKN037 OVC048 00/M04 A2994 840 72 -700 320/05 RMK AO2
14837KMSN MSN20060210121010302/10/06 12:10:31  5-MIN KMSN 101810Z 32006KT 8SM BKN039 OVC050 01/M04 A2994 850 69 -600 320/06 RMK AO2
14837KMSN MSN20060210121510302/10/06 12:15:31  5-MIN KMSN 101815Z 31004KT 8SM BKN039 OVC050 00/M04 A2994 840 72 -700 310/04 RMK AO2
14837KMSN MSN20060210122010302/10/06 12:20:31  5-MIN KMSN 101820Z 30004KT 8SM BKN041 OVC050 01/M04 A2994 840 69 -600 300/04 RMK AO2
14837KMSN MSN20060210122510302/10/06 12:25:31  5-MIN KMSN 101825Z 33005KT 8SM BKN043 OVC050 01/M04 A2994 840 69 -600 330/05 RMK AO2
14837KMSN MSN20060210123009602/10/06 12:30:31  5-MIN KMSN 101830Z 34005KT 8SM OVC047 01/M04 A2995 840 66 -600 340/05 RMK AO2
14837KMSN MSN20060210123509602/10/06 12:35:31  5-MIN KMSN 101835Z VRB04KT 9SM OVC047 01/M04 A2995 840 66 -600 VRB/04 RMK AO2
14837KMSN MSN20060210124010302/10/06 12:40:31  5-MIN KMSN 101840Z VRB05KT 9SM FEW042 OVC049 01/M04 A2994 840 69 -600 VRB/05 RMK AO2
14837KMSN MSN20060210124511002/10/06 12:45:31  5-MIN KMSN 101845Z 30007KT 9SM FEW024 BKN047 OVC070 01/M04 A2995 840 69 -600 300/07 RMK AO2
14837KMSN MSN20060210125012702/10/06 12:50:31  5-MIN KMSN 101850Z 31007KT 9SM FEW024 BKN050 BKN065 02/M04 A2995 840 64 -500 300/07 RMK AO2 SLP151 T00171044
14837KMSN MSN20060210125511002/10/06 12:55:31  5-MIN KMSN 101855Z 31008KT 9SM FEW024 BKN050 BKN065 01/M04 A2994 840 66 -600 310/08 RMK AO2
14837KMSN MSN20060210130011002/10/06 13:00:31  5-MIN KMSN 101900Z 27004KT 9SM FEW026 BKN050 BKN065 01/M05 A2994 840 64 -600 270/04 RMK AO2
14837KMSN MSN20060210130511002/10/06 13:05:31  5-MIN KMSN 101905Z VRB05KT 9SM SCT026 BKN055 BKN065 01/M04 A2994 850 66 -600 VRB/05 RMK AO2
14837KMSN MSN20060210131011002/10/06 13:10:31  5-MIN KMSN 101910Z 31005KT 9SM FEW026 SCT030 SCT065 01/M04 A2994 850 66 -600 310/05 RMK AO2
14837KMSN MSN20060210131510302/10/06 13:15:31  5-MIN KMSN 101915Z 33006KT 9SM FEW026 SCT065 02/M04 A2994 850 66 -500 330/06 RMK AO2
14837KMSN MSN20060210132009602/10/06 13:20:31  5-MIN KMSN 101920Z 32004KT 9SM FEW028 01/M04 A2994 850 66 -600 320/04 RMK AO2
14837KMSN MSN20060210132509602/10/06 13:25:31  5-MIN KMSN 101925Z 31005KT 9SM FEW028 01/M04 A2994 850 66 -600 310/05 RMK AO2
14837KMSN MSN20060210133010302/10/06 13:30:31  5-MIN KMSN 101930Z VRB03KT 9SM FEW026 SCT033 02/M04 A2994 850 66 -500 VRB/03 RMK AO2
14837KMSN MSN20060210133509602/10/06 13:35:31  5-MIN KMSN 101935Z 25003KT 9SM BKN032 02/M04 A2994 850 66 -500 250/03 RMK AO2
14837KMSN MSN20060210134009602/10/06 13:40:31  5-MIN KMSN 101940Z 33004KT 9SM BKN032 01/M04 A2994 850 66 -500 330/04 RMK AO2
14837KMSN MSN20060210134509602/10/06 13:45:31  5-MIN KMSN 101945Z VRB04KT 9SM BKN032 02/M04 A2994 850 64 -500 VRB/04 RMK AO2
14837KMSN MSN20060210135012002/10/06 13:50:31  5-MIN KMSN 101950Z 02004KT 9SM BKN030 BKN039 02/M04 A2994 850 66 -500 010/04 RMK AO2 SLP149 T00171039
14837KMSN MSN20060210135510302/10/06 13:55:31  5-MIN KMSN 101955Z 35004KT 9SM BKN030 OVC039 02/M04 A2994 850 66 -500 350/04 RMK AO2
14837KMSN MSN20060210140010302/10/06 14:00:31  5-MIN KMSN 102000Z 00000KT 9SM SCT029 OVC039 02/M04 A2994 850 64 -500 000/00 RMK AO2
14837KMSN MSN20060210140510402/10/06 14:05:31  5-MIN KMSN 102005Z 34004KT 10SM SCT031 OVC041 02/M05 A2994 850 61 -500 340/04 RMK AO2
14837KMSN MSN20060210141011102/10/06 14:10:31  5-MIN KMSN 102010Z 33004KT 10SM FEW031 BKN039 OVC050 02/M04 A2994 850 64 -500 330/04 RMK AO2
14837KMSN MSN20060210141510402/10/06 14:15:31  5-MIN KMSN 102015Z 29004KT 10SM SCT039 OVC050 02/M04 A2994 850 64 -500 290/04 RMK AO2
14837KMSN MSN20060210142010402/10/06 14:20:31  5-MIN KMSN 102020Z 32004KT 10SM SCT039 OVC050 02/M04 A2994 840 64 -500 320/04 RMK AO2
14837KMSN MSN20060210142509702/10/06 14:25:31  5-MIN KMSN 102025Z 33004KT 10SM OVC048 02/M05 A2994 840 61 -500 330/04 RMK AO2
14837KMSN MSN20060210143010402/10/06 14:30:31  5-MIN KMSN 102030Z VRB03KT 10SM FEW042 OVC050 02/M04 A2994 840 61 -400 VRB/03 RMK AO2
14837KMSN MSN20060210143511102/10/06 14:35:31  5-MIN KMSN 102035Z 01004KT 10SM FEW039 BKN050 OVC060 02/M04 A2995 840 64 -400 010/04 RMK AO2
14837KMSN MSN20060210144011002/10/06 14:40:31  5-MIN KMSN 102040Z 02004KT 9SM FEW039 BKN050 OVC060 02/M04 A2994 840 66 -500 020/04 RMK AO2
14837KMSN MSN20060210144510302/10/06 14:45:31  5-MIN KMSN 102045Z 00000KT 9SM SCT038 OVC055 02/M04 A2995 840 66 -500 000/00 RMK AO2
14837KMSN MSN20060210145012602/10/06 14:50:31  5-MIN KMSN 102050Z 03004KT 9SM SCT035 OVC055 02/M04 A2995 840 66 -500 020/04 RMK AO2 SLP152 T00171039 51008
14837KMSN MSN20060210145510302/10/06 14:55:31  5-MIN KMSN 102055Z 35003KT 9SM BKN035 OVC055 02/M04 A2995 840 66 -500 350/03 RMK AO2
14837KMSN MSN20060210150010402/10/06 15:00:31  5-MIN KMSN 102100Z 32006KT 10SM BKN035 OVC055 02/M04 A2995 840 64 -500 320/06 RMK AO2
14837KMSN MSN20060210150510402/10/06 15:05:31  5-MIN KMSN 102105Z 01005KT 10SM SCT035 OVC055 02/M04 A2995 840 64 -400 010/05 RMK AO2
14837KMSN MSN20060210151010402/10/06 15:10:31  5-MIN KMSN 102110Z 35004KT 10SM SCT035 OVC055 02/M04 A2995 830 64 -400 350/04 RMK AO2
14837KMSN MSN20060210151510402/10/06 15:15:31  5-MIN KMSN 102115Z 32004KT 10SM FEW033 OVC055 02/M04 A2995 830 64 -500 320/04 RMK AO2
14837KMSN MSN20060210152011102/10/06 15:20:31  5-MIN KMSN 102120Z VRB05KT 10SM FEW033 SCT049 OVC060 02/M04 A2996 830 61 -400 VRB/05 RMK AO2
14837KMSN MSN20060210152510402/10/06 15:25:31  5-MIN KMSN 102125Z 33006KT 10SM BKN050 OVC060 02/M04 A2996 830 64 -500 330/06 RMK AO2
14837KMSN MSN20060210153010402/10/06 15:30:31  5-MIN KMSN 102130Z 31004KT 10SM BKN045 OVC060 02/M05 A2996 830 61 -500 310/04 RMK AO2
14837KMSN MSN20060210153510402/10/06 15:35:31  5-MIN KMSN 102135Z 34004KT 10SM BKN045 OVC060 02/M05 A2996 830 61 -500 340/04 RMK AO2
14837KMSN MSN20060210154011102/10/06 15:40:31  5-MIN KMSN 102140Z 32004KT 10SM SCT043 BKN050 OVC060 02/M05 A2996 830 61 -500 320/04 RMK AO2
14837KMSN MSN20060210154510402/10/06 15:45:31  5-MIN KMSN 102145Z 33004KT 10SM SCT044 OVC060 02/M05 A2996 830 61 -500 320/04 RMK AO2
14837KMSN MSN20060210155012102/10/06 15:50:31  5-MIN KMSN 102150Z 32004KT 10SM SCT044 BKN060 02/M05 A2996 830 61 -500 320/04 RMK AO2 SLP157 T00171050
14837KMSN MSN20060210155510402/10/06 15:55:31  5-MIN KMSN 102155Z 33003KT 10SM SCT042 OVC060 02/M05 A2996 820 61 -500 330/03 RMK AO2
14837KMSN MSN20060210160010402/10/06 16:00:31  5-MIN KMSN 102200Z 33003KT 10SM FEW042 OVC060 02/M05 A2996 820 61 -500 330/03 RMK AO2
14837KMSN MSN20060210160511102/10/06 16:05:31  5-MIN KMSN 102205Z VRB04KT 10SM FEW040 SCT047 OVC060 02/M05 A2997 820 61 -500 VRB/04 RMK AO2
14837KMSN MSN20060210161011102/10/06 16:10:31  5-MIN KMSN 102210Z 00000KT 10SM SCT035 SCT045 OVC060 02/M05 A2997 820 61 -500 000/00 RMK AO2
14837KMSN MSN20060210161511102/10/06 16:15:31  5-MIN KMSN 102215Z 36004KT 10SM SCT035 SCT045 BKN060 02/M04 A2997 820 64 -500 360/04 RMK AO2
14837KMSN MSN20060210162011102/10/06 16:20:31  5-MIN KMSN 102220Z 34005KT 10SM SCT035 SCT045 BKN060 02/M04 A2997 820 64 -500 340/05 RMK AO2
14837KMSN MSN20060210162511102/10/06 16:25:31  5-MIN KMSN 102225Z 33004KT 10SM SCT035 SCT045 BKN060 02/M04 A2997 820 64 -500 320/04 RMK AO2
14837KMSN MSN20060210163011102/10/06 16:30:31  5-MIN KMSN 102230Z 34003KT 10SM SCT035 SCT045 BKN060 01/M04 A2997 820 66 -600 340/03 RMK AO2
14837KMSN MSN20060210163511102/10/06 16:35:31  5-MIN KMSN 102235Z 34004KT 10SM BKN039 BKN050 BKN060 02/M05 A2997 810 61 -500 340/04 RMK AO2
14837KMSN MSN20060210164011102/10/06 16:40:31  5-MIN KMSN 102240Z 33004KT 10SM BKN039 BKN050 BKN060 01/M05 A2998 810 64 -600 330/04 RMK AO2
14837KMSN MSN20060210164511102/10/06 16:45:31  5-MIN KMSN 102245Z 33003KT 10SM BKN039 BKN050 BKN060 01/M05 A2998 810 64 -600 330/03 RMK AO2
14837KMSN MSN20060210165012102/10/06 16:50:31  5-MIN KMSN 102250Z 36003KT 10SM BKN039 BKN060 01/M05 A2998 810 64 -600 360/03 RMK AO2 SLP162 T00111050
14837KMSN MSN20060210165510402/10/06 16:55:31  5-MIN KMSN 102255Z 36003KT 10SM BKN039 OVC060 01/M05 A2998 810 64 -600 350/03 RMK AO2
14837KMSN MSN20060210170010402/10/06 17:00:31  5-MIN KMSN 102300Z 00000KT 10SM BKN039 BKN060 01/M04 A2998 810 66 -600 000/00 RMK AO2
14837KMSN MSN20060210170510402/10/06 17:05:31  5-MIN KMSN 102305Z 33004KT 10SM BKN039 BKN060 01/M05 A2999 800 64 -600 330/04 RMK AO2
14837KMSN MSN20060210171010402/10/06 17:10:31  5-MIN KMSN 102310Z 33003KT 10SM BKN039 BKN060 01/M05 A2999 800 64 -600 330/03 RMK AO2
14837KMSN MSN20060210171510402/10/06 17:15:31  5-MIN KMSN 102315Z 33003KT 10SM BKN039 BKN060 01/M05 A2999 800 64 -600 330/03 RMK AO2
14837KMSN MSN20060210172010402/10/06 17:20:31  5-MIN KMSN 102320Z 00000KT 10SM BKN039 BKN060 01/M05 A2999 800 64 -600 000/00 RMK AO2
14837KMSN MSN20060210172510402/10/06 17:25:31  5-MIN KMSN 102325Z 00000KT 10SM BKN039 BKN060 01/M05 A3000 790 66 -700 000/00 RMK AO2
14837KMSN MSN20060210173010402/10/06 17:30:31  5-MIN KMSN 102330Z 00000KT 10SM BKN044 OVC055 01/M05 A3000 790 64 -600 000/00 RMK AO2
14837KMSN MSN20060210173510402/10/06 17:35:31  5-MIN KMSN 102335Z 08003KT 10SM SCT044 OVC060 01/M04 A3000 790 69 -700 080/03 RMK AO2
14837KMSN MSN20060210174010402/10/06 17:40:31  5-MIN KMSN 102340Z 00000KT 10SM SCT044 OVC060 00/M04 A3000 790 75 -800 000/00 RMK AO2
14837KMSN MSN20060210174510302/10/06 17:45:31  5-MIN KMSN 102345Z 08005KT 9SM SCT044 OVC060 00/M04 A3000 790 75 -800 080/05 RMK AO2
14837KMSN MSN20060210175013902/10/06 17:50:31  5-MIN KMSN 102350Z 08006KT 10SM FEW044 OVC065 00/M04 A3001 780 75 -800 080/06 RMK AO2 SLP172 T00001039 10022 20000 53002
14837KMSN MSN20060210175510302/10/06 17:55:31  5-MIN KMSN 102355Z 08006KT 9SM FEW046 OVC065 00/M04 A3001 780 75 -800 080/06 RMK AO2
14837KMSN MSN20060210180009602/10/06 18:00:31  5-MIN KMSN 110000Z 08006KT 9SM OVC065 00/M04 A3001 780 75 -800 080/06 RMK AO2
14837KMSN MSN20060210180509702/10/06 18:05:31  5-MIN KMSN 110005Z 08005KT 9SM OVC070 M01/M04 A3001 780 78 -800 080/05 RMK AO2
14837KMSN MSN20060210181009702/10/06 18:10:31  5-MIN KMSN 110010Z 08005KT 8SM OVC070 M01/M04 A3002 780 78 -800 080/05 RMK AO2
14837KMSN MSN20060210181510402/10/06 18:15:31  5-MIN KMSN 110015Z 07006KT 8SM FEW034 OVC070 M01/M04 A3002 770 78 -800 070/06 RMK AO2
14837KMSN MSN20060210182010302/10/06 18:20:31  5-MIN KMSN 110020Z 07005KT 8SM SCT032 OVC070 00/M04 A3002 770 75 -800 070/05 RMK AO2
14837KMSN MSN20060210182511102/10/06 18:25:31  5-MIN KMSN 110025Z 08004KT 8SM SCT032 BKN050 OVC070 M01/M04 A3002 770 78 -900 070/04 RMK AO2
14837KMSN MSN20060210183011102/10/06 18:30:31  5-MIN KMSN 110030Z 08004KT 8SM SCT032 BKN050 OVC070 M01/M04 A3002 770 78 -900 080/04 RMK AO2
14837KMSN MSN20060210183511102/10/06 18:35:31  5-MIN KMSN 110035Z 08004KT 8SM BKN032 BKN050 OVC065 M01/M04 A3003 770 78 -900 080/04 RMK AO2
14837KMSN MSN20060210184011102/10/06 18:40:31  5-MIN KMSN 110040Z 08004KT 8SM BKN032 BKN050 OVC060 M01/M04 A3003 770 78 -900 080/04 RMK AO2
14837KMSN MSN20060210184512702/10/06 18:45:31  5-MIN KMSN 110045Z 07004KT 8SM -SN SCT032 BKN050 OVC065 M01/M04 A3003 760 78 -900 070/04 RMK AO2 SNB45 P0000
14837KMSN MSN20060210185014402/10/06 18:50:31  5-MIN KMSN 110050Z 06005KT 7SM -SN SCT032 SCT050 OVC065 M01/M04 A3003 760 78 -900 060/05 RMK AO2 SNB45 SLP180 P0000 T10061039
14837KMSN MSN20060210185511402/10/06 18:55:31  5-MIN KMSN 110055Z 05006KT 7SM -SN FEW032 OVC065 M01/M04 A3003 760 78 -900 050/06 RMK AO2 P0000
14837KMSN MSN20060210190011402/10/06 19:00:31  5-MIN KMSN 110100Z 07006KT 6SM -SN FEW032 OVC065 M01/M04 A3003 760 78 -900 070/06 RMK AO2 P0000
14837KMSN MSN20060210190510702/10/06 19:05:31  5-MIN KMSN 110105Z 08007KT 7SM -SN OVC065 M01/M04 A3003 760 78 -900 080/07 RMK AO2 P0000
14837KMSN MSN20060210191010702/10/06 19:10:31  5-MIN KMSN 110110Z 08006KT 7SM -SN OVC065 M01/M04 A3003 760 78 -900 080/06 RMK AO2 P0000
14837KMSN MSN20060210191510702/10/06 19:15:31  5-MIN KMSN 110115Z 08006KT 7SM -SN OVC065 M01/M04 A3004 760 78 -900 080/06 RMK AO2 P0000
14837KMSN MSN20060210192010702/10/06 19:20:31  5-MIN KMSN 110120Z 08004KT 7SM -SN OVC065 M01/M04 A3004 760 78 -900 080/04 RMK AO2 P0000
14837KMSN MSN20060210192510702/10/06 19:25:31  5-MIN KMSN 110125Z 06005KT 7SM -SN OVC065 M01/M04 A3004 760 78 -900 060/05 RMK AO2 P0000
14837KMSN MSN20060210193011402/10/06 19:30:31  5-MIN KMSN 110130Z 06005KT 7SM -SN FEW033 OVC065 M01/M04 A3004 760 81 -900 060/05 RMK AO2 P0000
14837KMSN MSN20060210193511402/10/06 19:35:31  5-MIN KMSN 110135Z 06005KT 7SM -SN FEW033 OVC070 M01/M04 A3004 760 81 -900 060/05 RMK AO2 P0000
14837KMSN MSN20060210194011402/10/06 19:40:31  5-MIN KMSN 110140Z 06005KT 7SM -SN FEW033 OVC070 M01/M04 A3003 760 81 -900 060/05 RMK AO2 P0000
14837KMSN MSN20060210194511402/10/06 19:45:31  5-MIN KMSN 110145Z 06004KT 7SM -SN FEW033 OVC070 M01/M04 A3003 760 81 -900 060/04 RMK AO2 P0000
14837KMSN MSN20060210195013302/10/06 19:50:31  5-MIN KMSN 110150Z 07004KT 7SM FEW033 OVC070 M01/M04 A3003 760 81 -900 070/04 RMK AO2 SNE47 SLP181 P0000 T10111039
14837KMSN MSN20060210195509802/10/06 19:55:31  5-MIN KMSN 110155Z 07005KT 7SM OVC070 M02/M04 A3003 760 81 -1000 070/05 RMK AO2
14837KMSN MSN20060210200009802/10/06 20:00:31  5-MIN KMSN 110200Z 06004KT 8SM OVC070 M02/M04 A3003 760 81 -1000 060/04 RMK AO2
14837KMSN MSN20060210200509802/10/06 20:05:31  5-MIN KMSN 110205Z 07007KT 7SM OVC070 M02/M04 A3003 760 81 -1000 070/07 RMK AO2
14837KMSN MSN20060210201009702/10/06 20:10:31  5-MIN KMSN 110210Z 07005KT 8SM OVC070 M01/M04 A3004 760 78 -900 060/05 RMK AO2
14837KMSN MSN20060210201509802/10/06 20:15:31  5-MIN KMSN 110215Z 04003KT 8SM OVC070 M02/M04 A3004 760 81 -1000 040/03 RMK AO2
14837KMSN MSN20060210202009802/10/06 20:20:31  5-MIN KMSN 110220Z 06003KT 8SM OVC075 M02/M04 A3004 760 81 -1000 060/03 RMK AO2
14837KMSN MSN20060210202509802/10/06 20:25:31  5-MIN KMSN 110225Z 00000KT 8SM OVC075 M02/M04 A3004 760 81 -1000 000/00 RMK AO2
14837KMSN MSN20060210203009802/10/06 20:30:31  5-MIN KMSN 110230Z 00000KT 8SM OVC075 M02/M04 A3004 750 81 -1000 000/00 RMK AO2
14837KMSN MSN20060210203509702/10/06 20:35:31  5-MIN KMSN 110235Z 00000KT 8SM OVC080 M01/M04 A3004 750 78 -900 000/00 RMK AO2
14837KMSN MSN20060210204009802/10/06 20:40:31  5-MIN KMSN 110240Z 00000KT 8SM OVC075 M01/M04 A3005 750 78 -1000 000/00 RMK AO2
14837KMSN MSN20060210204509802/10/06 20:45:31  5-MIN KMSN 110245Z 00000KT 8SM OVC075 M01/M04 A3005 750 78 -1000 000/00 RMK AO2
14837KMSN MSN20060210205012702/10/06 20:50:31  5-MIN KMSN 110250Z 00000KT 8SM OVC075 M02/M04 A3005 750 81 -1000 000/00 RMK AO2 SLP187 60000 T10171044 53020
14837KMSN MSN20060210205509802/10/06 20:55:31  5-MIN KMSN 110255Z 00000KT 8SM OVC075 M01/M04 A3005 750 78 -1000 000/00 RMK AO2
14837KMSN MSN20060210210009802/10/06 21:00:31  5-MIN KMSN 110300Z 00000KT 8SM OVC075 M02/M04 A3005 740 81 -1000 000/00 RMK AO2
14837KMSN MSN20060210210509802/10/06 21:05:31  5-MIN KMSN 110305Z 00000KT 8SM OVC075 M02/M04 A3005 740 81 -1000 000/00 RMK AO2
14837KMSN MSN20060210211009802/10/06 21:10:31  5-MIN KMSN 110310Z 03003KT 8SM OVC075 M01/M04 A3005 740 78 -1000 030/03 RMK AO2
14837KMSN MSN20060210211509802/10/06 21:15:31  5-MIN KMSN 110315Z 03004KT 8SM OVC075 M02/M04 A3005 740 81 -1000 030/04 RMK AO2
14837KMSN MSN20060210212009802/10/06 21:20:31  5-MIN KMSN 110320Z 04003KT 8SM OVC075 M02/M04 A3006 740 81 -1000 040/03 RMK AO2
14837KMSN MSN20060210212509802/10/06 21:25:31  5-MIN KMSN 110325Z 07003KT 8SM OVC075 M01/M04 A3006 740 78 -1000 070/03 RMK AO2
14837KMSN MSN20060210213009802/10/06 21:30:31  5-MIN KMSN 110330Z 00000KT 8SM OVC075 M02/M04 A3006 740 81 -1000 000/00 RMK AO2
14837KMSN MSN20060210213509802/10/06 21:35:31  5-MIN KMSN 110335Z 06003KT 7SM OVC075 M02/M04 A3006 740 81 -1000 060/03 RMK AO2
14837KMSN MSN20060210214009802/10/06 21:40:31  5-MIN KMSN 110340Z 00000KT 7SM OVC075 M02/M04 A3006 740 81 -1000 000/00 RMK AO2
14837KMSN MSN20060210214509802/10/06 21:45:31  5-MIN KMSN 110345Z 00000KT 7SM OVC075 M02/M04 A3006 740 81 -1000 000/00 RMK AO2
14837KMSN MSN20060210215011502/10/06 21:50:31  5-MIN KMSN 110350Z 00000KT 7SM OVC075 M02/M04 A3006 730 81 -1000 000/00 RMK AO2 SLP190 T10171044
14837KMSN MSN20060210215510502/10/06 21:55:31  5-MIN KMSN 110355Z 00000KT 7SM FEW032 OVC075 M02/M04 A3006 730 81 -1000 000/00 RMK AO2
14837KMSN MSN20060210220010502/10/06 22:00:31  5-MIN KMSN 110400Z 00000KT 7SM SCT032 OVC075 M02/M04 A3007 730 81 -1000 000/00 RMK AO2
14837KMSN MSN20060210220510502/10/06 22:05:31  5-MIN KMSN 110405Z 00000KT 7SM BKN032 OVC075 M02/M04 A3007 730 81 -1000 000/00 RMK AO2
14837KMSN MSN20060210221010502/10/06 22:10:31  5-MIN KMSN 110410Z 00000KT 7SM BKN032 OVC075 M01/M04 A3007 730 78 -1000 000/00 RMK AO2
14837KMSN MSN20060210221510502/10/06 22:15:31  5-MIN KMSN 110415Z 00000KT 7SM BKN032 OVC075 M01/M04 A3007 730 78 -1000 000/00 RMK AO2
14837KMSN MSN20060210222009802/10/06 22:20:31  5-MIN KMSN 110420Z 00000KT 7SM OVC032 M01/M04 A3007 730 78 -1000 000/00 RMK AO2
14837KMSN MSN20060210222509802/10/06 22:25:31  5-MIN KMSN 110425Z 01003KT 7SM OVC032 M02/M04 A3007 730 81 -1100 010/03 RMK AO2
14837KMSN MSN20060210223010102/10/06 22:30:31  5-MIN KMSN 110430Z 35004KT 6SM HZ OVC032 M02/M04 A3007 720 81 -1100 350/04 RMK AO2
14837KMSN MSN20060210223512102/10/06 22:35:31  5-MIN KMSN 110435Z 36005KT 6SM -SN BKN029 OVC034 M02/M04 A3007 720 81 -1100 350/05 RMK AO2 SNB35 P0000
14837KMSN MSN20060210224012102/10/06 22:40:31  5-MIN KMSN 110440Z 36004KT 6SM -SN BKN027 OVC034 M02/M04 A3007 720 81 -1100 360/04 RMK AO2 SNB35 P0000
14837KMSN MSN20060210224512102/10/06 22:45:31  5-MIN KMSN 110445Z 01005KT 5SM -SN BKN029 OVC036 M02/M04 A3007 720 81 -1100 010/05 RMK AO2 SNB35 P0000
14837KMSN MSN20060210225013802/10/06 22:50:31  5-MIN KMSN 110450Z 03005KT 6SM -SN BKN029 OVC036 M02/M04 A3008 720 81 -1100 030/05 RMK AO2 SNB35 SLP196 P0000 T10171044
14837KMSN MSN20060210225511502/10/06 22:55:31  5-MIN KMSN 110455Z 04004KT 5SM -SN SCT029 OVC036 M02/M04 A3008 720 81 -1100 040/04 RMK AO2 P0000
14837KMSN MSN20060210230011502/10/06 23:00:31  5-MIN KMSN 110500Z 05004KT 5SM -SN SCT029 OVC036 M02/M04 A3008 720 81 -1100 050/04 RMK AO2 P0000
14837KMSN MSN20060210230510802/10/06 23:05:31  5-MIN KMSN 110505Z 06004KT 6SM -SN OVC032 M02/M04 A3008 720 81 -1100 060/04 RMK AO2 P0000
14837KMSN MSN20060210231010802/10/06 23:10:31  5-MIN KMSN 110510Z 05003KT 6SM -SN OVC033 M02/M04 A3008 720 81 -1100 050/03 RMK AO2 P0000
14837KMSN MSN20060210231510802/10/06 23:15:31  5-MIN KMSN 110515Z 05003KT 6SM -SN OVC033 M02/M04 A3008 720 81 -1100 050/03 RMK AO2 P0000
14837KMSN MSN20060210232011502/10/06 23:20:31  5-MIN KMSN 110520Z 05003KT 6SM -SN BKN030 OVC037 M02/M04 A3008 720 81 -1100 050/03 RMK AO2 P0000
14837KMSN MSN20060210232512202/10/06 23:25:31  5-MIN KMSN 110525Z 05003KT 6SM -SN BKN030 BKN037 OVC070 M02/M04 A3008 720 81 -1100 050/03 RMK AO2 P0000
14837KMSN MSN20060210233012202/10/06 23:30:31  5-MIN KMSN 110530Z 06004KT 6SM -SN SCT030 BKN037 OVC070 M02/M04 A3008 720 81 -1100 050/04 RMK AO2 P0000
14837KMSN MSN20060210233512202/10/06 23:35:31  5-MIN KMSN 110535Z 06003KT 6SM -SN SCT028 BKN037 OVC070 M02/M04 A3008 720 81 -1100 050/03 RMK AO2 P0000
14837KMSN MSN20060210234012202/10/06 23:40:31  5-MIN KMSN 110540Z 06003KT 6SM -SN SCT028 BKN037 OVC070 M02/M04 A3008 710 81 -1100 060/03 RMK AO2 P0000
14837KMSN MSN20060210234512202/10/06 23:45:31  5-MIN KMSN 110545Z 06004KT 6SM -SN BKN028 BKN039 OVC070 M02/M04 A3008 710 81 -1100 060/04 RMK AO2 P0000
14837KMSN MSN20060210235016602/10/06 23:50:31  5-MIN KMSN 110550Z 06004KT 6SM -SN BKN028 OVC070 M02/M04 A3009 710 81 -1100 060/04 RMK AO2 SLP198 P0000 60000 T10171044 10000 21017 400221044 51012
14837KMSN MSN20060210235511502/10/06 23:55:31  5-MIN KMSN 110555Z 05004KT 5SM -SN BKN028 OVC075 M02/M04 A3009 710 81 -1100 040/04 RMK AO2 P0000
14837KMSN MSN20060211000011502/11/06 00:00:38  5-MIN KMSN 110600Z 04004KT 5SM -SN BKN028 OVC075 M02/M04 A3009 710 81 -1100 040/04 RMK AO2 P0000
14837KMSN MSN20060211000510802/11/06 00:05:31  5-MIN KMSN 110605Z 03004KT 5SM -SN OVC028 M02/M04 A3009 710 81 -1100 030/04 RMK AO2 P0000
14837KMSN MSN20060211001010802/11/06 00:10:31  5-MIN KMSN 110610Z 03004KT 5SM -SN OVC028 M02/M04 A3009 710 81 -1100 030/04 RMK AO2 P0000
14837KMSN MSN20060211001510802/11/06 00:15:34  5-MIN KMSN 110615Z 03005KT 5SM -SN OVC026 M02/M04 A3009 710 81 -1100 030/05 RMK AO2 P0000
14837KMSN MSN20060211002010802/11/06 00:20:31  5-MIN KMSN 110620Z 04004KT 5SM -SN OVC026 M02/M04 A3009 710 81 -1100 040/04 RMK AO2 P0000
14837KMSN MSN20060211002510802/11/06 00:25:31  5-MIN KMSN 110625Z 04004KT 5SM -SN OVC026 M02/M04 A3009 710 81 -1100 040/04 RMK AO2 P0000
14837KMSN MSN20060211003010802/11/06 00:30:31  5-MIN KMSN 110630Z 04004KT 5SM -SN OVC026 M02/M04 A3009 710 81 -1100 040/04 RMK AO2 P0000
14837KMSN MSN20060211003510802/11/06 00:35:31  5-MIN KMSN 110635Z 00000KT 5SM -SN OVC028 M02/M04 A3009 710 81 -1100 000/00 RMK AO2 P0000
14837KMSN MSN20060211004010802/11/06 00:40:31  5-MIN KMSN 110640Z 00000KT 5SM -SN OVC028 M02/M04 A3009 710 81 -1100 000/00 RMK AO2 P0000
14837KMSN MSN20060211004511502/11/06 00:45:31  5-MIN KMSN 110645Z 00000KT 5SM -SN BKN028 OVC036 M02/M04 A3009 710 81 -1100 000/00 RMK AO2 P0000
14837KMSN MSN20060211005011802/11/06 00:50:31  5-MIN KMSN 110650Z 00000KT 6SM -SN BR SCT026 OVC034 M02/M04 A3009 710 85 -1100 000/00 RMK AO2 P0000
14837KMSN MSN20060211005511802/11/06 00:55:31  5-MIN KMSN 110655Z 00000KT 4SM -SN BR BKN028 OVC033 M02/M04 A3008 710 85 -1100 000/00 RMK AO2 P0000
14837KMSN MSN20060211010011802/11/06 01:00:31  5-MIN KMSN 110700Z 00000KT 5SM -SN BR BKN026 OVC035 M02/M04 A3008 710 85 -1100 000/00 RMK AO2 P0000
14837KMSN MSN20060211010511802/11/06 01:05:31  5-MIN KMSN 110705Z 00000KT 5SM -SN BR BKN026 OVC035 M02/M04 A3008 710 85 -1100 000/00 RMK AO2 P0000
14837KMSN MSN20060211011011802/11/06 01:10:31  5-MIN KMSN 110710Z 04003KT 5SM -SN BR BKN026 OVC035 M02/M04 A3008 710 85 -1100 040/03 RMK AO2 P0000
14837KMSN MSN20060211011511802/11/06 01:15:31  5-MIN KMSN 110715Z 00000KT 5SM -SN BR SCT026 OVC035 M02/M04 A3008 710 85 -1100 000/00 RMK AO2 P0000
14837KMSN MSN20060211012011802/11/06 01:20:31  5-MIN KMSN 110720Z 00000KT 5SM -SN BR SCT026 OVC035 M02/M04 A3008 710 85 -1100 000/00 RMK AO2 P0000
14837KMSN MSN20060211012511802/11/06 01:25:31  5-MIN KMSN 110725Z 03004KT 5SM -SN BR FEW026 OVC037 M02/M04 A3008 720 85 -1100 030/04 RMK AO2 P0000
14837KMSN MSN20060211013011802/11/06 01:30:31  5-MIN KMSN 110730Z 03005KT 5SM -SN BR FEW028 OVC039 M02/M04 A3008 720 85 -1100 030/05 RMK AO2 P0000
14837KMSN MSN20060211013511802/11/06 01:35:31  5-MIN KMSN 110735Z 04006KT 5SM -SN BR BKN039 OVC047 M02/M04 A3008 720 85 -1100 030/06 RMK AO2 P0000
14837KMSN MSN20060211014012002/11/06 01:40:31  5-MIN KMSN 110740Z 04006KT 5SM HZ BKN039 OVC047 M02/M05 A3008 720 81 -1100 040/06 RMK AO2 SNE37 P0000
14837KMSN MSN20060211014511302/11/06 01:45:31  5-MIN KMSN 110745Z 04006KT 5SM HZ OVC043 M02/M05 A3008 710 81 -1100 040/06 RMK AO2 SNE37 P0000
14837KMSN MSN20060211015013002/11/06 01:50:31  5-MIN KMSN 110750Z 04004KT 5SM HZ OVC043 M02/M05 A3008 710 81 -1100 030/04 RMK AO2 SNE37 SLP197 P0000 T10221050
14837KMSN MSN20060211015510102/11/06 01:55:31  5-MIN KMSN 110755Z 04005KT 5SM HZ OVC043 M02/M05 A3008 710 81 -1100 040/05 RMK AO2
14837KMSN MSN20060211020010102/11/06 02:00:31  5-MIN KMSN 110800Z 05005KT 5SM BR OVC045 M03/M05 A3008 710 85 -1200 050/05 RMK AO2
14837KMSN MSN20060211020510102/11/06 02:05:31  5-MIN KMSN 110805Z 05006KT 5SM BR OVC045 M03/M05 A3008 710 85 -1200 040/06 RMK AO2
14837KMSN MSN20060211021010102/11/06 02:10:31  5-MIN KMSN 110810Z 04005KT 5SM BR OVC045 M03/M05 A3008 710 85 -1200 040/05 RMK AO2
14837KMSN MSN20060211021510802/11/06 02:15:31  5-MIN KMSN 110815Z 04005KT 5SM BR BKN045 OVC080 M03/M05 A3008 710 85 -1200 040/05 RMK AO2
14837KMSN MSN20060211022010802/11/06 02:20:31  5-MIN KMSN 110820Z 03005KT 5SM BR BKN045 OVC080 M03/M06 A3008 710 85 -1300 030/05 RMK AO2
14837KMSN MSN20060211022510802/11/06 02:25:31  5-MIN KMSN 110825Z 03004KT 5SM BR SCT045 OVC080 M03/M06 A3008 720 85 -1300 030/04 RMK AO2
14837KMSN MSN20060211023010802/11/06 02:30:31  5-MIN KMSN 110830Z 04005KT 5SM BR SCT045 OVC080 M03/M06 A3008 720 85 -1300 040/05 RMK AO2
14837KMSN MSN20060211023510802/11/06 02:35:31  5-MIN KMSN 110835Z 04004KT 4SM BR SCT047 OVC080 M03/M06 A3008 720 85 -1300 040/04 RMK AO2
14837KMSN MSN20060211024010802/11/06 02:40:31  5-MIN KMSN 110840Z 04004KT 4SM BR BKN047 OVC080 M03/M06 A3008 720 85 -1300 040/04 RMK AO2
14837KMSN MSN20060211024510802/11/06 02:45:31  5-MIN KMSN 110845Z 03006KT 4SM BR BKN047 OVC080 M03/M06 A3008 720 85 -1300 030/06 RMK AO2
14837KMSN MSN20060211025013702/11/06 02:50:31  5-MIN KMSN 110850Z 03005KT 5SM BR BKN047 OVC080 M03/M06 A3008 720 85 -1300 030/05 RMK AO2 SLP196 60000 T10331056 51008
14837KMSN MSN20060211025510102/11/06 02:55:31  5-MIN KMSN 110855Z 04004KT 4SM BR OVC047 M03/M06 A3008 720 85 -1300 040/04 RMK AO2
14837KMSN MSN20060211030010102/11/06 03:00:31  5-MIN KMSN 110900Z 04004KT 4SM BR OVC047 M03/M06 A3008 720 85 -1300 040/04 RMK AO2
14837KMSN MSN20060211030510802/11/06 03:05:31  5-MIN KMSN 110905Z 04003KT 4SM BR BKN047 OVC080 M04/M06 A3008 720 88 -1300 040/03 RMK AO2
14837KMSN MSN20060211031010802/11/06 03:10:31  5-MIN KMSN 110910Z 04004KT 4SM BR BKN047 OVC080 M04/M06 A3008 720 88 -1300 040/04 RMK AO2
14837KMSN MSN20060211031510802/11/06 03:15:31  5-MIN KMSN 110915Z 03004KT 4SM BR BKN047 OVC080 M04/M06 A3008 720 88 -1300 030/04 RMK AO2
14837KMSN MSN20060211032010802/11/06 03:20:31  5-MIN KMSN 110920Z 02005KT 4SM BR BKN047 OVC080 M04/M06 A3008 720 88 -1300 020/05 RMK AO2
14837KMSN MSN20060211032510802/11/06 03:25:31  5-MIN KMSN 110925Z 02005KT 4SM BR BKN047 OVC080 M04/M06 A3007 720 88 -1300 020/05 RMK AO2
14837KMSN MSN20060211033010802/11/06 03:30:31  5-MIN KMSN 110930Z 01006KT 4SM BR BKN047 OVC075 M04/M06 A3007 720 88 -1300 010/06 RMK AO2
14837KMSN MSN20060211033510802/11/06 03:35:31  5-MIN KMSN 110935Z 01005KT 3SM BR BKN047 OVC075 M04/M06 A3007 720 88 -1300 010/05 RMK AO2
14837KMSN MSN20060211034010802/11/06 03:40:31  5-MIN KMSN 110940Z 02006KT 3SM BR SCT047 OVC075 M04/M06 A3007 720 88 -1300 020/06 RMK AO2
14837KMSN MSN20060211034510802/11/06 03:45:31  5-MIN KMSN 110945Z 03007KT 3SM BR FEW047 OVC075 M04/M06 A3007 730 88 -1300 030/07 RMK AO2
14837KMSN MSN20060211035012502/11/06 03:50:31  5-MIN KMSN 110950Z 02007KT 4SM BR FEW047 BKN075 M04/M06 A3007 720 88 -1300 020/07 RMK AO2 SLP194 T10391056
14837KMSN MSN20060211035510102/11/06 03:55:31  5-MIN KMSN 110955Z 02007KT 3SM BR OVC080 M04/M06 A3007 720 88 -1300 020/07 RMK AO2
14837KMSN MSN20060211040010102/11/06 04:00:31  5-MIN KMSN 111000Z 03007KT 3SM BR OVC080 M04/M06 A3007 720 88 -1400 030/07 RMK AO2
14837KMSN MSN20060211040510102/11/06 04:05:31  5-MIN KMSN 111005Z 02006KT 3SM BR BKN080 M04/M06 A3008 720 88 -1400 020/06 RMK AO2
14837KMSN MSN20060211041010102/11/06 04:10:31  5-MIN KMSN 111010Z 04004KT 3SM BR BKN080 M05/M06 A3008 720 92 -1500 030/04 RMK AO2
14837KMSN MSN20060211041510102/11/06 04:15:31  5-MIN KMSN 111015Z 04004KT 3SM BR BKN080 M05/M07 A3008 720 88 -1500 040/04 RMK AO2
14837KMSN MSN20060211042010102/11/06 04:20:31  5-MIN KMSN 111020Z 03005KT 3SM BR SCT080 M06/M07 A3008 710 92 -1600 030/05 RMK AO2
14837KMSN MSN20060211042510102/11/06 04:25:31  5-MIN KMSN 111025Z 02003KT 3SM BR FEW080 M06/M07 A3009 710 92 -1600 020/03 RMK AO2
14837KMSN MSN20060211043010102/11/06 04:30:31  5-MIN KMSN 111030Z 01003KT 3SM BR FEW080 M06/M07 A3009 710 88 -1600 010/03 RMK AO2
14837KMSN MSN20060211043510802/11/06 04:35:31  5-MIN KMSN 111035Z 01004KT 4SM BR FEW050 SCT080 M05/M07 A3009 710 88 -1500 010/04 RMK AO2
14837KMSN MSN20060211044010102/11/06 04:40:31  5-MIN KMSN 111040Z 35003KT 4SM BR FEW050 M05/M07 A3009 700 88 -1500 350/03 RMK AO2
14837KMSN MSN20060211044510102/11/06 04:45:31  5-MIN KMSN 111045Z 01005KT 4SM BR SCT050 M06/M07 A3009 700 88 -1600 010/05 RMK AO2
14837KMSN MSN20060211045011802/11/06 04:50:31  5-MIN KMSN 111050Z 36004KT 5SM BR BKN050 M06/M07 A3010 700 88 -1600 360/04 RMK AO2 SLP203 T10561072
14837KMSN MSN20060211045510102/11/06 04:55:31  5-MIN KMSN 111055Z 35004KT 4SM BR SCT050 M06/M07 A3010 700 88 -1600 350/04 RMK AO2
14837KMSN MSN20060211050010102/11/06 05:00:31  5-MIN KMSN 111100Z 35004KT 4SM BR BKN050 M06/M07 A3010 700 88 -1600 350/04 RMK AO2
14837KMSN MSN20060211050510102/11/06 05:05:31  5-MIN KMSN 111105Z 36005KT 4SM BR BKN050 M06/M07 A3010 690 88 -1600 360/05 RMK AO2
14837KMSN MSN20060211051010102/11/06 05:10:31  5-MIN KMSN 111110Z 01005KT 4SM BR BKN050 M06/M07 A3011 690 88 -1600 010/05 RMK AO2
14837KMSN MSN20060211051510102/11/06 05:15:31  5-MIN KMSN 111115Z 01006KT 4SM BR OVC050 M06/M08 A3011 690 88 -1700 010/06 RMK AO2
14837KMSN MSN20060211052010102/11/06 05:20:31  5-MIN KMSN 111120Z 36004KT 4SM BR OVC050 M06/M08 A3011 690 88 -1700 360/04 RMK AO2
14837KMSN MSN20060211052510102/11/06 05:25:31  5-MIN KMSN 111125Z 35004KT 4SM BR OVC050 M06/M07 A3011 690 88 -1600 340/04 RMK AO2
14837KMSN MSN20060211053010102/11/06 05:30:31  5-MIN KMSN 111130Z 36004KT 4SM BR OVC050 M06/M08 A3011 690 84 -1600 360/04 RMK AO2
14837KMSN MSN20060211053510102/11/06 05:35:31  5-MIN KMSN 111135Z 35004KT 4SM BR OVC050 M06/M08 A3011 690 88 -1700 350/04 RMK AO2
14837KMSN MSN20060211054010802/11/06 05:40:31  5-MIN KMSN 111140Z 36005KT 4SM BR BKN050 OVC070 M06/M08 A3012 680 88 -1700 360/05 RMK AO2
14837KMSN MSN20060211054510802/11/06 05:45:31  5-MIN KMSN 111145Z 01006KT 4SM BR BKN050 OVC070 M07/M08 A3011 690 88 -1700 010/06 RMK AO2
14837KMSN MSN20060211055014902/11/06 05:50:31  5-MIN KMSN 111150Z 01006KT 5SM BR BKN050 BKN070 M07/M08 A3011 690 88 -1700 010/06 RMK AO2 SLP210 60000 T10671083 11017 21067 58003
14837KMSN MSN20060211055510802/11/06 05:55:31  5-MIN KMSN 111155Z 36005KT 4SM BR BKN050 OVC070 M07/M08 A3011 690 88 -1700 360/05 RMK AO2
14837KMSN MSN20060211060010802/11/06 06:00:31  5-MIN KMSN 111200Z 36005KT 4SM BR BKN050 OVC070 M07/M08 A3012 680 88 -1700 360/05 RMK AO2
14837KMSN MSN20060211060510802/11/06 06:05:31  5-MIN KMSN 111205Z 36005KT 4SM BR BKN050 OVC070 M07/M08 A3011 690 92 -1700 360/05 RMK AO2
14837KMSN MSN20060211061010802/11/06 06:10:31  5-MIN KMSN 111210Z 36005KT 4SM BR SCT050 OVC075 M06/M08 A3011 690 88 -1700 360/05 RMK AO2
14837KMSN MSN20060211061510802/11/06 06:15:31  5-MIN KMSN 111215Z 36005KT 4SM BR SCT050 OVC075 M06/M08 A3011 690 88 -1700 350/05 RMK AO2
14837KMSN MSN20060211062010802/11/06 06:20:31  5-MIN KMSN 111220Z 35005KT 4SM BR FEW050 OVC075 M06/M08 A3012 680 88 -1700 350/05 RMK AO2
14837KMSN MSN20060211062510802/11/06 06:25:31  5-MIN KMSN 111225Z 35005KT 4SM BR FEW050 OVC075 M06/M08 A3012 680 88 -1700 340/05 RMK AO2
14837KMSN MSN20060211063010102/11/06 06:30:31  5-MIN KMSN 111230Z 35005KT 4SM BR OVC075 M06/M08 A3012 680 88 -1700 350/05 RMK AO2
14837KMSN MSN20060211063510102/11/06 06:35:31  5-MIN KMSN 111235Z 34006KT 4SM BR OVC075 M06/M08 A3012 680 88 -1700 340/06 RMK AO2
14837KMSN MSN20060211064010802/11/06 06:40:31  5-MIN KMSN 111240Z 35006KT 4SM BR FEW050 OVC075 M06/M07 A3012 680 88 -1600 350/06 RMK AO2
14837KMSN MSN20060211064510802/11/06 06:45:31  5-MIN KMSN 111245Z 36005KT 4SM BR FEW050 OVC075 M06/M07 A3012 680 88 -1600 350/05 RMK AO2
14837KMSN MSN20060211065012502/11/06 06:50:31  5-MIN KMSN 111250Z 36005KT 5SM BR FEW050 OVC075 M06/M07 A3012 680 88 -1600 360/05 RMK AO2 SLP211 T10561072
14837KMSN MSN20060211065510802/11/06 06:55:31  5-MIN KMSN 111255Z 36005KT 4SM BR SCT050 OVC075 M06/M07 A3012 680 88 -1600 360/05 RMK AO2
14837KMSN MSN20060211070010802/11/06 07:00:31  5-MIN KMSN 111300Z 36005KT 4SM BR BKN050 OVC075 M06/M07 A3012 680 88 -1600 360/05 RMK AO2
14837KMSN MSN20060211070510802/11/06 07:05:31  5-MIN KMSN 111305Z 36005KT 4SM BR BKN050 OVC075 M05/M07 A3012 680 84 -1500 360/05 RMK AO2
14837KMSN MSN20060211071010802/11/06 07:10:31  5-MIN KMSN 111310Z 36006KT 4SM BR BKN050 OVC075 M05/M07 A3012 680 84 -1500 360/06 RMK AO2
14837KMSN MSN20060211071510102/11/06 07:15:31  5-MIN KMSN 111315Z 36005KT 4SM BR OVC050 M05/M07 A3012 680 84 -1500 360/05 RMK AO2
14837KMSN MSN20060211072010102/11/06 07:20:31  5-MIN KMSN 111320Z 36006KT 4SM BR OVC050 M05/M07 A3013 680 84 -1500 360/06 RMK AO2
14837KMSN MSN20060211072510102/11/06 07:25:31  5-MIN KMSN 111325Z 01007KT 4SM BR OVC050 M05/M07 A3013 680 84 -1500 010/07 RMK AO2
14837KMSN MSN20060211073010102/11/06 07:30:31  5-MIN KMSN 111330Z 01008KT 4SM HZ OVC050 M04/M07 A3013 670 81 -1500 010/08 RMK AO2
14837KMSN MSN20060211073511402/11/06 07:35:31  5-MIN KMSN 111335Z 36007KT 4SM -SN OVC050 M04/M07 A3013 670 81 -1500 360/07 RMK AO2 SNB31 P0000
14837KMSN MSN20060211074011602/11/06 07:40:31  5-MIN KMSN 111340Z 01007KT 4SM HZ OVC050 M04/M07 A3013 670 81 -1500 010/07 RMK AO2 SNB31E37 P0000
14837KMSN MSN20060211074512102/11/06 07:45:31  5-MIN KMSN 111345Z 36008KT 4SM -SN BKN050 OVC070 M04/M07 A3013 670 81 -1500 360/08 RMK AO2 SNB31 P0000
14837KMSN MSN20060211075013102/11/06 07:50:31  5-MIN KMSN 111350Z 01009KT 4SM -SN OVC050 M04/M07 A3013 670 81 -1500 010/09 RMK AO2 SNB31 SLP214 P0000 T10441072
14837KMSN MSN20060211075510802/11/06 07:55:31  5-MIN KMSN 111355Z 01008KT 4SM -SN OVC050 M04/M07 A3013 670 81 -1500 010/08 RMK AO2 P0000
14837KMSN MSN20060211080011802/11/06 08:00:31  5-MIN KMSN 111400Z 36010KT 3SM -SN OVC050 M04/M07 A3013 670 81 -1500 360/10 RMK AO2 TWR VIS 4 P0000
14837KMSN MSN20060211080512002/11/06 08:05:31  5-MIN KMSN 111405Z 01009KT 4SM HZ BKN050 OVC070 M04/M07 A3013 670 81 -1500 010/09 RMK AO2 SNE01 P0000
14837KMSN MSN20060211081012002/11/06 08:10:31  5-MIN KMSN 111410Z 01009KT 4SM HZ BKN050 OVC065 M04/M07 A3013 670 81 -1500 360/09 RMK AO2 SNE01 P0000
14837KMSN MSN20060211081512002/11/06 08:15:31  5-MIN KMSN 111415Z 01011KT 4SM HZ SCT050 OVC070 M04/M07 A3013 670 81 -1500 010/11 RMK AO2 SNE01 P0000
14837KMSN MSN20060211082012002/11/06 08:20:31  5-MIN KMSN 111420Z 01010KT 4SM BR SCT050 OVC070 M04/M07 A3013 670 84 -1500 010/10 RMK AO2 SNE01 P0000
14837KMSN MSN20060211082512002/11/06 08:25:31  5-MIN KMSN 111425Z 01011KT 4SM BR FEW050 OVC070 M04/M07 A3013 670 84 -1500 010/11 RMK AO2 SNE01 P0000
14837KMSN MSN20060211083011302/11/06 08:30:31  5-MIN KMSN 111430Z 01010KT 4SM BR OVC070 M04/M07 A3013 670 84 -1500 010/10 RMK AO2 SNE01 P0000
14837KMSN MSN20060211083511302/11/06 08:35:31  5-MIN KMSN 111435Z 02012KT 4SM BR OVC070 M04/M07 A3013 670 84 -1500 020/12 RMK AO2 SNE01 P0000
14837KMSN MSN20060211084011302/11/06 08:40:31  5-MIN KMSN 111440Z 02011KT 4SM BR OVC070 M04/M07 A3013 670 84 -1500 020/11 RMK AO2 SNE01 P0000
14837KMSN MSN20060211084511302/11/06 08:45:31  5-MIN KMSN 111445Z 02010KT 4SM BR OVC070 M04/M07 A3013 670 84 -1500 010/10 RMK AO2 SNE01 P0000
14837KMSN MSN20060211085014202/11/06 08:50:31  5-MIN KMSN 111450Z 01010KT 4SM BR OVC070 M04/M06 A3012 680 88 -1500 010/10 RMK AO2 SNE01 SLP213 P0000 60000 T10441061 53012
14837KMSN MSN20060211085510102/11/06 08:55:31  5-MIN KMSN 111455Z 36009KT 4SM BR OVC070 M04/M07 A3012 680 84 -1500 360/09 RMK AO2
14837KMSN MSN20060211090010102/11/06 09:00:31  5-MIN KMSN 111500Z 02012KT 4SM BR OVC070 M04/M06 A3012 680 85 -1400 020/12 RMK AO2
14837KMSN MSN20060211090510102/11/06 09:05:31  5-MIN KMSN 111505Z 01010KT 4SM BR OVC070 M04/M06 A3012 680 85 -1400 010/10 RMK AO2
14837KMSN MSN20060211091010802/11/06 09:10:31  5-MIN KMSN 111510Z 01011KT 5SM BR FEW030 OVC070 M04/M06 A3012 680 85 -1400 010/11 RMK AO2
14837KMSN MSN20060211091510802/11/06 09:15:31  5-MIN KMSN 111515Z 01010KT 5SM BR FEW030 OVC070 M04/M06 A3012 680 85 -1400 360/10 RMK AO2
14837KMSN MSN20060211092010802/11/06 09:20:31  5-MIN KMSN 111520Z 36011KT 5SM HZ FEW030 OVC070 M04/M07 A3012 680 81 -1400 360/11 RMK AO2
14837KMSN MSN20060211092510802/11/06 09:25:31  5-MIN KMSN 111525Z 36012KT 5SM HZ FEW030 OVC070 M04/M07 A3012 680 81 -1400 360/12 RMK AO2
14837KMSN MSN20060211093010802/11/06 09:30:31  5-MIN KMSN 111530Z 36009KT 6SM BR FEW015 OVC070 M04/M06 A3012 680 85 -1400 360/09 RMK AO2
14837KMSN MSN20060211093510802/11/06 09:35:31  5-MIN KMSN 111535Z 35010KT 6SM BR FEW015 OVC070 M04/M06 A3012 680 85 -1400 350/10 RMK AO2
14837KMSN MSN20060211094010802/11/06 09:40:31  5-MIN KMSN 111540Z 36010KT 6SM HZ FEW015 OVC070 M03/M06 A3012 680 81 -1300 360/10 RMK AO2
14837KMSN MSN20060211094510102/11/06 09:45:31  5-MIN KMSN 111545Z 35010KT 6SM HZ BKN070 M03/M06 A3012 680 81 -1300 350/10 RMK AO2
14837KMSN MSN20060211095011502/11/06 09:50:31  5-MIN KMSN 111550Z 01011KT 7SM BKN070 M03/M06 A3012 680 78 -1200 010/11 RMK AO2 SLP211 T10281061
14837KMSN MSN20060211095509802/11/06 09:55:31  5-MIN KMSN 111555Z 35008KT 7SM OVC070 M03/M06 A3012 680 78 -1200 350/08 RMK AO2
14837KMSN MSN20060211100010102/11/06 10:00:31  5-MIN KMSN 111600Z 35009KT 6SM HZ OVC070 M03/M06 A3012 680 81 -1300 350/09 RMK AO2
14837KMSN MSN20060211100510102/11/06 10:05:31  5-MIN KMSN 111605Z 02010KT 6SM HZ OVC070 M03/M06 A3012 680 81 -1200 020/10 RMK AO2
14837KMSN MSN20060211101010102/11/06 10:10:31  5-MIN KMSN 111610Z 36008KT 6SM HZ BKN070 M03/M06 A3012 680 81 -1200 360/08 RMK AO2
14837KMSN MSN20060211101510802/11/06 10:15:31  5-MIN KMSN 111615Z 01010KT 6SM HZ FEW011 BKN070 M03/M06 A3012 680 81 -1200 010/10 RMK AO2
14837KMSN MSN20060211102010802/11/06 10:20:31  5-MIN KMSN 111620Z 36007KT 6SM HZ FEW011 BKN070 M02/M06 A3012 680 78 -1200 360/07 RMK AO2
14837KMSN MSN20060211102510802/11/06 10:25:31  5-MIN KMSN 111625Z 01010KT 6SM HZ FEW011 SCT070 M02/M06 A3012 680 75 -1100 010/10 RMK AO2
14837KMSN MSN20060211103010502/11/06 10:30:31  5-MIN KMSN 111630Z 35008KT 7SM FEW011 SCT070 M02/M06 A3012 680 75 -1100 350/08 RMK AO2
14837KMSN MSN20060211103509802/11/06 10:35:31  5-MIN KMSN 111635Z 36009KT 7SM FEW011 M02/M06 A3012 680 75 -1100 360/09 RMK AO2
14837KMSN MSN20060211104009802/11/06 10:40:31  5-MIN KMSN 111640Z 02011KT 7SM FEW011 M01/M06 A3012 680 72 -1000 020/11 RMK AO2
14837KMSN MSN20060211104509502/11/06 10:45:31  5-MIN KMSN 111645Z 01009KT 7SM CLR M01/M05 A3012 680 72 -1000 010/09 RMK AO2
14837KMSN MSN20060211105011502/11/06 10:50:31  5-MIN KMSN 111650Z 01010KT 8SM SCT018 M01/M05 A3012 680 72 -1000 010/10 RMK AO2 SLP211 T10061050
14837KMSN MSN20060211105509802/11/06 10:55:31  5-MIN KMSN 111655Z 04011KT 8SM FEW020 M01/M06 A3012 680 69 -1000 040/11 RMK AO2
14837KMSN MSN20060211110009802/11/06 11:00:31  5-MIN KMSN 111700Z 01010KT 8SM FEW020 M01/M06 A3012 680 69 -1000 010/10 RMK AO2
14837KMSN MSN20060211110509802/11/06 11:05:31  5-MIN KMSN 111705Z 03009KT 8SM FEW020 M01/M06 A3012 680 69 -1000 030/09 RMK AO2
14837KMSN MSN20060211111009602/11/06 11:10:31  5-MIN KMSN 111710Z 36011KT 8SM SCT020 00/M05 A3012 680 69 -900 360/11 RMK AO2
14837KMSN MSN20060211111509602/11/06 11:15:31  5-MIN KMSN 111715Z 01011KT 9SM BKN022 00/M06 A3012 680 63 -900 360/11 RMK AO2
14837KMSN MSN20060211112009802/11/06 11:20:31  5-MIN KMSN 111720Z 36008KT 9SM SCT022 M01/M06 A3012 680 66 -1000 360/08 RMK AO2
14837KMSN MSN20060211112509602/11/06 11:25:31  5-MIN KMSN 111725Z 03012KT 9SM SCT022 00/M06 A3012 680 66 -900 030/12 RMK AO2
14837KMSN MSN20060211113009802/11/06 11:30:31  5-MIN KMSN 111730Z 02013KT 9SM SCT022 M01/M06 A3012 680 69 -1000 020/13 RMK AO2
14837KMSN MSN20060211113509802/11/06 11:35:31  5-MIN KMSN 111735Z 36010KT 9SM SCT022 M01/M06 A3012 680 69 -1000 360/10 RMK AO2
14837KMSN MSN20060211114009802/11/06 11:40:31  5-MIN KMSN 111740Z 02010KT 9SM BKN022 M01/M06 A3012 680 69 -1000 020/10 RMK AO2
14837KMSN MSN20060211114509802/11/06 11:45:31  5-MIN KMSN 111745Z 01010KT 9SM BKN022 M01/M06 A3012 680 72 -1000 010/10 RMK AO2
14837KMSN MSN20060211115013902/11/06 11:50:31  5-MIN KMSN 111750Z 36010KT 9SM BKN022 M01/M06 A3012 680 72 -1000 360/10 RMK AO2 SLP209 60000 T10111056 10000 21067 50003
14837KMSN MSN20060211115510502/11/06 11:55:31  5-MIN KMSN 111755Z 02013KT 9SM BKN020 OVC027 M02/M06 A3011 680 75 -1100 020/13 RMK AO2
14837KMSN MSN20060211120010502/11/06 12:00:31  5-MIN KMSN 111800Z 01011KT 8SM BKN020 OVC027 M01/M06 A3011 690 72 -1000 010/11 RMK AO2
14837KMSN MSN20060211120510502/11/06 12:05:31  5-MIN KMSN 111805Z 02011KT 9SM SCT020 OVC029 M01/M06 A3011 690 69 -1000 020/11 RMK AO2
14837KMSN MSN20060211121010502/11/06 12:10:31  5-MIN KMSN 111810Z 02014KT 9SM SCT020 OVC029 M01/M06 A3011 690 72 -1000 020/14 RMK AO2
14837KMSN MSN20060211121510502/11/06 12:15:31  5-MIN KMSN 111815Z 01013KT 9SM SCT020 OVC029 M01/M06 A3011 690 69 -1000 010/13 RMK AO2
14837KMSN MSN20060211122011202/11/06 12:20:31  5-MIN KMSN 111820Z 02015KT 9SM SCT020 SCT026 OVC031 M01/M06 A3011 690 69 -1000 020/15 RMK AO2
14837KMSN MSN20060211122511202/11/06 12:25:31  5-MIN KMSN 111825Z 36011KT 9SM FEW020 SCT026 OVC031 M01/M06 A3011 690 69 -1000 360/11 RMK AO2
14837KMSN MSN20060211123012802/11/06 12:30:31  5-MIN KMSN 111830Z 02014KT 9SM -SN FEW020 SCT027 OVC030 M01/M06 A3011 690 72 -1000 020/14 RMK AO2 SNB29 P0000
14837KMSN MSN20060211123512802/11/06 12:35:31  5-MIN KMSN 111835Z 01012KT 8SM -SN FEW020 SCT027 OVC030 M01/M06 A3010 690 72 -1000 010/12 RMK AO2 SNB29 P0000
14837KMSN MSN20060211124012802/11/06 12:40:31  5-MIN KMSN 111840Z 02012KT 8SM -SN FEW020 SCT027 OVC030 M01/M06 A3010 700 69 -1000 020/12 RMK AO2 SNB29 P0000
14837KMSN MSN20060211124512802/11/06 12:45:31  5-MIN KMSN 111845Z 02013KT 7SM -SN FEW020 SCT027 OVC030 M02/M06 A3010 700 72 -1100 020/13 RMK AO2 SNB29 P0000
14837KMSN MSN20060211125014502/11/06 12:50:31  5-MIN KMSN 111850Z 02013KT 7SM -SN FEW020 SCT027 OVC030 M02/M06 A3010 700 72 -1100 020/13 RMK AO2 SNB29 SLP204 P0000 T10171061
14837KMSN MSN20060211125511502/11/06 12:55:31  5-MIN KMSN 111855Z 01012KT 7SM -SN BKN020 OVC027 M02/M06 A3010 700 72 -1100 010/12 RMK AO2 P0000
14837KMSN MSN20060211130011502/11/06 13:00:31  5-MIN KMSN 111900Z 02011KT 8SM -SN BKN020 OVC027 M02/M06 A3010 700 72 -1100 020/11 RMK AO2 P0000
14837KMSN MSN20060211130510802/11/06 13:05:31  5-MIN KMSN 111905Z 02011KT 8SM -SN OVC020 M02/M06 A3010 700 72 -1100 020/11 RMK AO2 P0000
14837KMSN MSN20060211131010802/11/06 13:10:31  5-MIN KMSN 111910Z 01011KT 8SM -SN OVC020 M02/M06 A3010 700 72 -1100 010/11 RMK AO2 P0000
14837KMSN MSN20060211131510802/11/06 13:15:31  5-MIN KMSN 111915Z 01011KT 8SM -SN OVC020 M02/M06 A3010 700 72 -1100 010/11 RMK AO2 P0000
14837KMSN MSN20060211132010802/11/06 13:20:31  5-MIN KMSN 111920Z 02010KT 8SM -SN OVC020 M02/M06 A3010 700 72 -1100 020/10 RMK AO2 P0000
14837KMSN MSN20060211132510802/11/06 13:25:31  5-MIN KMSN 111925Z 01009KT 8SM -SN OVC020 M02/M06 A3010 700 72 -1100 010/09 RMK AO2 P0000
14837KMSN MSN20060211133010802/11/06 13:30:31  5-MIN KMSN 111930Z 01010KT 8SM -SN OVC020 M02/M06 A3009 700 72 -1100 010/10 RMK AO2 P0000
14837KMSN MSN20060211133511702/11/06 13:35:31  5-MIN KMSN 111935Z 02009KT 8SM BKN020 OVC026 M02/M06 A3009 700 72 -1100 010/09 RMK AO2 SNE35 P0000
14837KMSN MSN20060211134011002/11/06 13:40:31  5-MIN KMSN 111940Z 01011KT 8SM OVC023 M02/M06 A3009 710 72 -1100 010/11 RMK AO2 SNE35 P0000
14837KMSN MSN20060211134511702/11/06 13:45:31  5-MIN KMSN 111945Z 01010KT 9SM BKN021 OVC026 M02/M06 A3009 710 72 -1100 010/10 RMK AO2 SNE35 P0000
14837KMSN MSN20060211135012502/11/06 13:50:31  5-MIN KMSN 111950Z 35008KT 9SM -SN OVC023 M02/M06 A3009 710 72 -1100 350/08 RMK AO2 SLP200 P0000 T10171061
14837KMSN MSN20060211135510802/11/06 13:55:31  5-MIN KMSN 111955Z 01008KT 9SM -SN OVC023 M02/M06 A3009 710 72 -1100 360/08 RMK AO2 P0000
14837KMSN MSN20060211140010802/11/06 14:00:31  5-MIN KMSN 112000Z 03008KT 7SM -SN OVC023 M02/M06 A3009 710 72 -1100 020/08 RMK AO2 P0000
14837KMSN MSN20060211140510802/11/06 14:05:31  5-MIN KMSN 112005Z 36008KT 7SM -SN OVC023 M02/M06 A3009 710 72 -1100 360/08 RMK AO2 P0000
14837KMSN MSN20060211141010802/11/06 14:10:31  5-MIN KMSN 112010Z 36008KT 7SM -SN OVC023 M02/M07 A3008 710 69 -1100 360/08 RMK AO2 P0000
14837KMSN MSN20060211141510802/11/06 14:15:31  5-MIN KMSN 112015Z 36009KT 8SM -SN OVC023 M02/M07 A3008 710 69 -1100 360/09 RMK AO2 P0000
14837KMSN MSN20060211142011502/11/06 14:20:31  5-MIN KMSN 112020Z 02009KT 8SM -SN BKN023 OVC029 M02/M07 A3008 710 69 -1100 020/09 RMK AO2 P0000
14837KMSN MSN20060211142511502/11/06 14:25:31  5-MIN KMSN 112025Z 02008KT 7SM -SN BKN025 OVC029 M02/M06 A3008 720 72 -1100 020/08 RMK AO2 P0000
14837KMSN MSN20060211143010802/11/06 14:30:31  5-MIN KMSN 112030Z 03007KT 6SM -SN OVC025 M02/M06 A3008 720 72 -1100 030/07 RMK AO2 P0000
14837KMSN MSN20060211143511502/11/06 14:35:31  5-MIN KMSN 112035Z 02008KT 5SM -SN BKN023 OVC028 M02/M06 A3008 720 72 -1100 020/08 RMK AO2 P0000
14837KMSN MSN20060211144011502/11/06 14:40:31  5-MIN KMSN 112040Z 01010KT 4SM -SN BKN021 OVC028 M02/M06 A3008 720 72 -1100 010/10 RMK AO2 P0000
14837KMSN MSN20060211144510802/11/06 14:45:31  5-MIN KMSN 112045Z 35007KT 4SM -SN OVC023 M02/M06 A3008 720 72 -1100 350/07 RMK AO2 P0000
14837KMSN MSN20060211145013702/11/06 14:50:31  5-MIN KMSN 112050Z 35008KT 4SM -SN OVC023 M02/M06 A3008 720 72 -1100 350/08 RMK AO2 SLP198 P0000 60000 T10171061 58003
14837KMSN MSN20060211145511802/11/06 14:55:31  5-MIN KMSN 112055Z 01007KT 3SM -SN OVC021 M02/M06 A3008 720 72 -1100 010/07 RMK AO2 SFC VIS 3 P0000
14837KMSN MSN20060211150010802/11/06 15:00:31  5-MIN KMSN 112100Z 01008KT 3SM -SN OVC021 M02/M06 A3008 720 75 -1100 010/08 RMK AO2 P0000
14837KMSN MSN20060211150510802/11/06 15:05:31  5-MIN KMSN 112105Z 36006KT 3SM -SN OVC021 M02/M06 A3008 720 75 -1100 350/06 RMK AO2 P0000
14837KMSN MSN20060211151011502/11/06 15:10:31  5-MIN KMSN 112110Z 01006KT 3SM -SN SCT018 OVC024 M02/M06 A3008 720 75 -1100 010/06 RMK AO2 P0000
14837KMSN MSN20060211151511502/11/06 15:15:31  5-MIN KMSN 112115Z 01007KT 3SM -SN BKN018 OVC024 M02/M06 A3008 720 75 -1100 010/07 RMK AO2 P0000
14837KMSN MSN20060211152012202/11/06 15:20:31  5-MIN KMSN 112120Z 01007KT 3SM -SN BKN018 BKN024 OVC030 M02/M05 A3008 720 78 -1100 010/07 RMK AO2 P0000
14837KMSN MSN20060211152512202/11/06 15:25:31  5-MIN KMSN 112125Z 36007KT 3SM -SN BKN018 BKN024 OVC030 M02/M06 A3008 720 75 -1100 360/07 RMK AO2 P0000
14837KMSN MSN20060211153012202/11/06 15:30:31  5-MIN KMSN 112130Z 01009KT 3SM -SN SCT018 BKN024 OVC033 M02/M05 A3008 720 78 -1100 010/09 RMK AO2 P0000
14837KMSN MSN20060211153513602/11/06 15:35:31  5-MIN KMSN 112135Z 01007KT 2 1/2SM -SN FEW016 BKN024 OVC033 M02/M05 A3008 720 81 -1100 010/07 RMK AO2 TWR VIS 3 P0000
14837KMSN MSN20060211154013602/11/06 15:40:31  5-MIN KMSN 112140Z 02007KT 2 1/2SM -SN SCT016 BKN024 OVC033 M02/M05 A3008 720 81 -1100 020/07 RMK AO2 TWR VIS 3 P0000
14837KMSN MSN20060211154513602/11/06 15:45:31  5-MIN KMSN 112145Z 01006KT 2 1/2SM -SN SCT014 BKN024 OVC033 M02/M05 A3008 720 81 -1100 010/06 RMK AO2 TWR VIS 3 P0000
14837KMSN MSN20060211155015302/11/06 15:50:31  5-MIN KMSN 112150Z 36006KT 2 1/2SM -SN SCT014 BKN024 OVC033 M02/M05 A3007 720 81 -1100 360/06 RMK AO2 TWR VIS 3 SLP196 P0000 T10221050
14837KMSN MSN20060211155512202/11/06 15:55:31  5-MIN KMSN 112155Z 35005KT 3SM -SN SCT014 BKN024 OVC033 M02/M06 A3007 720 78 -1100 350/05 RMK AO2 P0000
14837KMSN MSN20060211160012202/11/06 16:00:31  5-MIN KMSN 112200Z 36006KT 3SM -SN SCT014 BKN024 OVC033 M02/M05 A3007 720 81 -1100 350/06 RMK AO2 P0000
14837KMSN MSN20060211160512202/11/06 16:05:31  5-MIN KMSN 112205Z 01005KT 3SM -SN SCT014 BKN033 OVC046 M02/M05 A3007 720 81 -1100 010/05 RMK AO2 P0000
14837KMSN MSN20060211161012202/11/06 16:10:31  5-MIN KMSN 112210Z 35006KT 3SM -SN SCT014 BKN028 OVC046 M02/M05 A3007 720 81 -1100 350/06 RMK AO2 P0000
14837KMSN MSN20060211161513602/11/06 16:15:31  5-MIN KMSN 112215Z 36005KT 2 1/2SM -SN FEW014 BKN033 OVC044 M02/M05 A3007 730 81 -1100 360/05 RMK AO2 TWR VIS 3 P0000
14837KMSN MSN20060211162013602/11/06 16:20:31  5-MIN KMSN 112220Z 02007KT 2 1/2SM -SN SCT014 BKN033 OVC044 M02/M05 A3007 730 81 -1100 020/07 RMK AO2 TWR VIS 3 P0000
14837KMSN MSN20060211162512202/11/06 16:25:31  5-MIN KMSN 112225Z 02006KT 3SM -SN SCT014 BKN028 OVC044 M02/M05 A3007 730 81 -1100 020/06 RMK AO2 P0000
14837KMSN MSN20060211163012202/11/06 16:30:31  5-MIN KMSN 112230Z 02006KT 3SM -SN BKN014 BKN028 OVC044 M02/M05 A3007 730 81 -1100 020/06 RMK AO2 P0000
14837KMSN MSN20060211163512202/11/06 16:35:31  5-MIN KMSN 112235Z 03005KT 3SM -SN BKN014 BKN028 OVC044 M02/M05 A3007 730 81 -1100 030/05 RMK AO2 P0000
14837KMSN MSN20060211164012202/11/06 16:40:31  5-MIN KMSN 112240Z 02005KT 3SM -SN BKN014 BKN028 OVC044 M02/M05 A3007 730 81 -1100 020/05 RMK AO2 P0000
14837KMSN MSN20060211164513602/11/06 16:45:31  5-MIN KMSN 112245Z 01005KT 2 1/2SM -SN BKN014 BKN028 OVC044 M02/M05 A3007 730 81 -1100 010/05 RMK AO2 TWR VIS 3 P0000
14837KMSN MSN20060211165012902/11/06 16:50:31  5-MIN KMSN 112250Z 01004KT 2 1/2SM -SN BKN014 OVC026 M02/M05 A3007 730 81 -1100 010/04 RMK AO2 SFC VIS 3 P0000
14837KMSN MSN20060211165513602/11/06 16:55:31  5-MIN KMSN 112255Z 36004KT 1 3/4SM -SN BR SCT012 OVC026 M03/M05 A3007 730 85 -1200 360/04 RMK AO2 TWR VIS 2 1/2 P0000
14837KMSN MSN20060211170013202/11/06 17:00:31  5-MIN KMSN 112300Z 34004KT 2SM -SN BR FEW012 OVC026 M03/M05 A3007 730 85 -1200 340/04 RMK AO2 TWR VIS 2 1/2 P0000
14837KMSN MSN20060211170512902/11/06 17:05:31  5-MIN KMSN 112305Z 34004KT 2 1/2SM -SN SCT012 OVC026 M03/M06 A3007 730 81 -1200 340/04 RMK AO2 SFC VIS 3 P0000
14837KMSN MSN20060211171012902/11/06 17:10:31  5-MIN KMSN 112310Z 34006KT 2SM -SN SCT012 OVC026 M03/M06 A3007 730 81 -1200 340/06 RMK AO2 SFC VIS 2 1/2 P0000
14837KMSN MSN20060211171513602/11/06 17:15:31  5-MIN KMSN 112315Z 33005KT 1 1/4SM -SN BR SCT012 OVC026 M03/M05 A3007 730 85 -1200 330/05 RMK AO2 TWR VIS 1 1/2 P0000
14837KMSN MSN20060211172013602/11/06 17:20:31  5-MIN KMSN 112320Z 31003KT 1 1/2SM -SN BR SCT012 OVC026 M03/M05 A3007 730 85 -1200 310/03 RMK AO2 SFC VIS 1 3/4 P0000
14837KMSN MSN20060211172513602/11/06 17:25:31  5-MIN KMSN 112325Z 30003KT 1 1/2SM -SN BR SCT012 OVC026 M03/M05 A3007 730 85 -1200 300/03 RMK AO2 SFC VIS 1 3/4 P0000
14837KMSN MSN20060211173013602/11/06 17:30:31  5-MIN KMSN 112330Z 31003KT 1 1/2SM -SN BR SCT012 OVC026 M03/M05 A3007 730 88 -1300 300/03 RMK AO2 SFC VIS 1 3/4 P0001
14837KMSN MSN20060211173513602/11/06 17:35:31  5-MIN KMSN 112335Z 00000KT 1 1/2SM -SN BR SCT012 OVC026 M03/M05 A3007 730 88 -1300 000/00 RMK AO2 SFC VIS 1 3/4 P0001
14837KMSN MSN20060211174013202/11/06 17:40:31  5-MIN KMSN 112340Z 00000KT 1 1/2SM -SN BR SCT012 OVC026 M03/M05 A3007 730 88 -1300 000/00 RMK AO2 SFC VIS 3 P0001
14837KMSN MSN20060211174511802/11/06 17:45:31  5-MIN KMSN 112345Z 00000KT 6SM -SN BR SCT018 OVC042 M03/M05 A3007 730 88 -1300 000/00 RMK AO2 P0001
14837KMSN MSN20060211175015602/11/06 17:50:31  5-MIN KMSN 112350Z 00000KT 7SM -SN SCT018 OVC042 M03/M05 A3007 730 88 -1300 000/00 RMK AO2 SLP196 P0001 60002 T10331050 11011 21033 56011
14837KMSN MSN20060211175510802/11/06 17:55:31  5-MIN KMSN 112355Z 00000KT 7SM -SN OVC044 M03/M05 A3007 730 88 -1300 000/00 RMK AO2 P0000
14837KMSN MSN20060211180011502/11/06 18:00:31  5-MIN KMSN 120000Z 00000KT 7SM -SN FEW027 OVC044 M03/M05 A3007 730 88 -1300 000/00 RMK AO2 P0000
14837KMSN MSN20060211180511502/11/06 18:05:31  5-MIN KMSN 120005Z 00000KT 7SM -SN FEW027 OVC044 M03/M05 A3007 730 88 -1300 000/00 RMK AO2 P0000
14837KMSN MSN20060211181011502/11/06 18:10:31  5-MIN KMSN 120010Z 00000KT 7SM -SN FEW027 OVC044 M03/M05 A3007 730 88 -1300 000/00 RMK AO2 P0000
14837KMSN MSN20060211181511502/11/06 18:15:31  5-MIN KMSN 120015Z 30003KT 7SM -SN FEW027 OVC044 M03/M05 A3007 730 88 -1300 300/03 RMK AO2 P0000
14837KMSN MSN20060211182011502/11/06 18:20:31  5-MIN KMSN 120020Z 29003KT 7SM -SN FEW027 OVC044 M03/M05 A3007 730 88 -1300 290/03 RMK AO2 P0000
14837KMSN MSN20060211182511502/11/06 18:25:31  5-MIN KMSN 120025Z 00000KT 7SM -SN FEW027 OVC044 M03/M05 A3007 730 88 -1300 000/00 RMK AO2 P0000
14837KMSN MSN20060211183012202/11/06 18:30:31  5-MIN KMSN 120030Z 00000KT 7SM -SN FEW027 BKN039 OVC046 M03/M05 A3007 730 88 -1300 000/00 RMK AO2 P0000
14837KMSN MSN20060211183511502/11/06 18:35:31  5-MIN KMSN 120035Z 00000KT 7SM -SN BKN039 OVC046 M03/M05 A3007 730 85 -1200 000/00 RMK AO2 P0000
14837KMSN MSN20060211184010802/11/06 18:40:31  5-MIN KMSN 120040Z 00000KT 7SM -SN OVC037 M03/M06 A3007 730 81 -1200 000/00 RMK AO2 P0000
14837KMSN MSN20060211184510802/11/06 18:45:31  5-MIN KMSN 120045Z 00000KT 7SM -SN OVC039 M03/M06 A3007 730 81 -1200 000/00 RMK AO2 P0000
14837KMSN MSN20060211185012502/11/06 18:50:31  5-MIN KMSN 120050Z 00000KT 8SM -SN OVC039 M03/M06 A3007 730 81 -1200 000/00 RMK AO2 SLP194 P0000 T10281056
14837KMSN MSN20060211185510802/11/06 18:55:31  5-MIN KMSN 120055Z 00000KT 8SM -SN OVC039 M03/M06 A3007 730 81 -1200 000/00 RMK AO2 P0000
14837KMSN MSN20060211190010802/11/06 19:00:31  5-MIN KMSN 120100Z 00000KT 8SM -SN OVC039 M03/M06 A3007 730 81 -1200 000/00 RMK AO2 P0000
14837KMSN MSN20060211190510802/11/06 19:05:31  5-MIN KMSN 120105Z 00000KT 8SM -SN OVC041 M03/M06 A3006 730 81 -1200 000/00 RMK AO2 P0000
14837KMSN MSN20060211191010802/11/06 19:10:31  5-MIN KMSN 120110Z 00000KT 8SM -SN OVC041 M03/M06 A3006 730 81 -1200 000/00 RMK AO2 P0000
14837KMSN MSN20060211191510802/11/06 19:15:31  5-MIN KMSN 120115Z 00000KT 8SM -SN OVC041 M03/M06 A3006 730 78 -1200 000/00 RMK AO2 P0000
14837KMSN MSN20060211192010802/11/06 19:20:31  5-MIN KMSN 120120Z 00000KT 8SM -SN OVC043 M03/M07 A3006 730 75 -1200 000/00 RMK AO2 P0000
14837KMSN MSN20060211192510802/11/06 19:25:31  5-MIN KMSN 120125Z 30003KT 9SM -SN OVC043 M03/M07 A3006 730 75 -1200 300/03 RMK AO2 P0000
14837KMSN MSN20060211193010802/11/06 19:30:31  5-MIN KMSN 120130Z 29003KT 9SM -SN OVC043 M03/M07 A3006 730 78 -1300 290/03 RMK AO2 P0000
14837KMSN MSN20060211193511002/11/06 19:35:31  5-MIN KMSN 120135Z 29003KT 9SM OVC043 M03/M07 A3006 740 71 -1200 290/03 RMK AO2 SNE34 P0000
14837KMSN MSN20060211194011102/11/06 19:40:31  5-MIN KMSN 120140Z 29004KT 10SM OVC045 M03/M07 A3006 740 71 -1200 290/04 RMK AO2 SNE34 P0000
14837KMSN MSN20060211194511102/11/06 19:45:31  5-MIN KMSN 120145Z 30004KT 10SM OVC045 M03/M07 A3006 740 71 -1200 300/04 RMK AO2 SNE34 P0000
14837KMSN MSN20060211195012802/11/06 19:50:31  5-MIN KMSN 120150Z 29004KT 10SM OVC045 M03/M07 A3006 740 71 -1200 290/04 RMK AO2 SNE34 SLP191 P0000 T10281072
14837KMSN MSN20060211195509902/11/06 19:55:31  5-MIN KMSN 120155Z 28003KT 10SM OVC045 M03/M07 A3006 740 71 -1200 280/03 RMK AO2
14837KMSN MSN20060211200009902/11/06 20:00:31  5-MIN KMSN 120200Z VRB03KT 10SM OVC045 M03/M07 A3006 740 71 -1200 VRB/03 RMK AO2
14837KMSN MSN20060211200509902/11/06 20:05:31  5-MIN KMSN 120205Z 30003KT 10SM OVC045 M03/M07 A3006 740 71 -1200 300/03 RMK AO2
14837KMSN MSN20060211201009902/11/06 20:10:31  5-MIN KMSN 120210Z 29003KT 10SM OVC045 M03/M07 A3006 740 74 -1200 290/03 RMK AO2
14837KMSN MSN20060211201509902/11/06 20:15:31  5-MIN KMSN 120215Z 28003KT 10SM OVC045 M03/M08 A3005 740 68 -1200 280/03 RMK AO2
14837KMSN MSN20060211202009902/11/06 20:20:31  5-MIN KMSN 120220Z 28004KT 10SM OVC045 M03/M08 A3005 740 71 -1200 280/04 RMK AO2
14837KMSN MSN20060211202509902/11/06 20:25:31  5-MIN KMSN 120225Z 29004KT 10SM OVC045 M03/M08 A3005 740 71 -1200 290/04 RMK AO2
14837KMSN MSN20060211203009902/11/06 20:30:31  5-MIN KMSN 120230Z 28004KT 10SM OVC047 M03/M08 A3005 740 71 -1200 280/04 RMK AO2
14837KMSN MSN20060211203509902/11/06 20:35:31  5-MIN KMSN 120235Z 29003KT 10SM OVC047 M03/M08 A3005 740 71 -1200 290/03 RMK AO2
14837KMSN MSN20060211204009902/11/06 20:40:31  5-MIN KMSN 120240Z 29003KT 10SM OVC047 M03/M08 A3005 740 71 -1200 290/03 RMK AO2
14837KMSN MSN20060211204509902/11/06 20:45:31  5-MIN KMSN 120245Z VRB03KT 10SM OVC047 M03/M08 A3005 740 71 -1200 VRB/03 RMK AO2
14837KMSN MSN20060211205012802/11/06 20:50:31  5-MIN KMSN 120250Z 29003KT 10SM BKN047 M03/M08 A3005 750 68 -1200 290/03 RMK AO2 SLP188 60000 T10331083 55001
14837KMSN MSN20060211205509902/11/06 20:55:31  5-MIN KMSN 120255Z 29003KT 10SM BKN047 M03/M08 A3005 750 68 -1200 290/03 RMK AO2
14837KMSN MSN20060211210009902/11/06 21:00:31  5-MIN KMSN 120300Z 29004KT 10SM BKN049 M04/M08 A3005 750 71 -1300 290/04 RMK AO2
14837KMSN MSN20060211210509902/11/06 21:05:31  5-MIN KMSN 120305Z 29003KT 10SM BKN049 M04/M08 A3005 750 71 -1300 290/03 RMK AO2
14837KMSN MSN20060211211009902/11/06 21:10:31  5-MIN KMSN 120310Z 29003KT 10SM OVC049 M04/M08 A3005 750 71 -1300 280/03 RMK AO2
14837KMSN MSN20060211211509902/11/06 21:15:31  5-MIN KMSN 120315Z 29003KT 10SM OVC049 M04/M08 A3005 750 71 -1300 290/03 RMK AO2
14837KMSN MSN20060211212009902/11/06 21:20:31  5-MIN KMSN 120320Z 28003KT 10SM OVC049 M04/M08 A3005 750 71 -1300 280/03 RMK AO2
14837KMSN MSN20060211212509902/11/06 21:25:31  5-MIN KMSN 120325Z 28003KT 10SM OVC049 M04/M08 A3005 750 71 -1300 280/03 RMK AO2
14837KMSN MSN20060211213009902/11/06 21:30:31  5-MIN KMSN 120330Z 00000KT 10SM OVC049 M04/M08 A3005 750 71 -1300 000/00 RMK AO2
14837KMSN MSN20060211213509902/11/06 21:35:31  5-MIN KMSN 120335Z 28003KT 10SM BKN049 M04/M08 A3005 750 71 -1300 280/03 RMK AO2
14837KMSN MSN20060211214009902/11/06 21:40:31  5-MIN KMSN 120340Z VRB03KT 10SM BKN049 M04/M08 A3004 750 71 -1300 VRB/03 RMK AO2
14837KMSN MSN20060211214509902/11/06 21:45:31  5-MIN KMSN 120345Z 29003KT 10SM BKN049 M04/M08 A3004 750 71 -1300 290/03 RMK AO2
14837KMSN MSN20060211215011602/11/06 21:50:31  5-MIN KMSN 120350Z 29004KT 10SM BKN049 M04/M09 A3004 750 68 -1300 290/04 RMK AO2 SLP186 T10391089
14837KMSN MSN20060211215509902/11/06 21:55:31  5-MIN KMSN 120355Z 29004KT 10SM OVC049 M04/M09 A3004 750 68 -1300 290/04 RMK AO2
14837KMSN MSN20060211220009902/11/06 22:00:31  5-MIN KMSN 120400Z 30004KT 10SM OVC049 M04/M09 A3004 750 68 -1300 300/04 RMK AO2
14837KMSN MSN20060211220509902/11/06 22:05:31  5-MIN KMSN 120405Z 30004KT 10SM OVC049 M04/M09 A3004 750 68 -1300 300/04 RMK AO2
14837KMSN MSN20060211221009902/11/06 22:10:31  5-MIN KMSN 120410Z 29004KT 10SM OVC049 M04/M09 A3004 750 68 -1300 290/04 RMK AO2
14837KMSN MSN20060211221509902/11/06 22:15:31  5-MIN KMSN 120415Z 30003KT 10SM OVC049 M04/M09 A3004 760 68 -1300 300/03 RMK AO2
14837KMSN MSN20060211222009902/11/06 22:20:31  5-MIN KMSN 120420Z 30004KT 10SM OVC049 M04/M09 A3004 760 68 -1300 290/04 RMK AO2
14837KMSN MSN20060211222509902/11/06 22:25:31  5-MIN KMSN 120425Z 29005KT 10SM OVC049 M04/M09 A3004 760 68 -1300 290/05 RMK AO2
14837KMSN MSN20060211223009902/11/06 22:30:31  5-MIN KMSN 120430Z 30004KT 10SM OVC049 M04/M09 A3003 760 68 -1300 300/04 RMK AO2
14837KMSN MSN20060211223509902/11/06 22:35:31  5-MIN KMSN 120435Z 29003KT 10SM BKN049 M04/M09 A3003 760 68 -1300 290/03 RMK AO2
14837KMSN MSN20060211224009902/11/06 22:40:31  5-MIN KMSN 120440Z 29004KT 10SM BKN049 M04/M09 A3003 760 68 -1300 290/04 RMK AO2
14837KMSN MSN20060211224509902/11/06 22:45:31  5-MIN KMSN 120445Z 30003KT 10SM BKN049 M04/M09 A3003 760 68 -1300 300/03 RMK AO2
14837KMSN MSN20060211225011602/11/06 22:50:31  5-MIN KMSN 120450Z 30004KT 10SM BKN049 M04/M09 A3003 760 68 -1300 300/04 RMK AO2 SLP181 T10391089
14837KMSN MSN20060211225509902/11/06 22:55:31  5-MIN KMSN 120455Z 29004KT 10SM OVC049 M04/M09 A3003 760 68 -1300 290/04 RMK AO2
14837KMSN MSN20060211230009902/11/06 23:00:31  5-MIN KMSN 120500Z 30004KT 10SM OVC049 M04/M09 A3003 760 68 -1300 300/04 RMK AO2
14837KMSN MSN20060211230511502/11/06 23:05:31  5-MIN KMSN 120505Z 30005KT 10SM -SN OVC049 M04/M08 A3003 760 71 -1300 300/05 RMK AO2 SNB05 P0000
14837KMSN MSN20060211231011402/11/06 23:10:31  5-MIN KMSN 120510Z 31004KT 9SM -SN OVC049 M04/M08 A3003 770 71 -1300 310/04 RMK AO2 SNB05 P0000
14837KMSN MSN20060211231511402/11/06 23:15:31  5-MIN KMSN 120515Z 30004KT 9SM -SN OVC049 M03/M08 A3003 770 68 -1200 300/04 RMK AO2 SNB05 P0000
14837KMSN MSN20060211232011402/11/06 23:20:31  5-MIN KMSN 120520Z 31003KT 9SM -SN OVC049 M03/M08 A3002 770 68 -1200 310/03 RMK AO2 SNB05 P0000
14837KMSN MSN20060211232511402/11/06 23:25:31  5-MIN KMSN 120525Z 31004KT 9SM -SN OVC049 M03/M08 A3002 770 68 -1200 310/04 RMK AO2 SNB05 P0000
14837KMSN MSN20060211233011402/11/06 23:30:31  5-MIN KMSN 120530Z 31003KT 9SM -SN OVC049 M03/M08 A3002 770 71 -1200 300/03 RMK AO2 SNB05 P0000
14837KMSN MSN20060211233511402/11/06 23:35:31  5-MIN KMSN 120535Z 30003KT 9SM -SN OVC049 M03/M08 A3002 770 71 -1200 300/03 RMK AO2 SNB05 P0000
14837KMSN MSN20060211234011402/11/06 23:40:31  5-MIN KMSN 120540Z 30003KT 9SM -SN OVC049 M03/M08 A3002 770 71 -1200 300/03 RMK AO2 SNB05 P0000
14837KMSN MSN20060211234511402/11/06 23:45:31  5-MIN KMSN 120545Z 00000KT 9SM -SN OVC049 M03/M08 A3002 770 68 -1200 000/00 RMK AO2 SNB05 P0000
14837KMSN MSN20060211235016402/11/06 23:50:31  5-MIN KMSN 120550Z 31003KT 9SM OVC049 M03/M08 A3002 780 68 -1200 310/03 RMK AO2 SNB05E50 SLP176 P0000 60000 T10331083 11028 21039 400001067 58007
14837KMSN MSN20060211235509802/11/06 23:55:31  5-MIN KMSN 120555Z 31003KT 9SM OVC049 M03/M08 A3001 780 68 -1200 310/03 RMK AO2
14837KMSN MSN20060212000009902/12/06 00:00:38  5-MIN KMSN 120600Z 31004KT 10SM OVC049 M03/M08 A3001 780 68 -1200 310/04 RMK AO2
14837KMSN MSN20060212000509902/12/06 00:05:31  5-MIN KMSN 120605Z 31004KT 10SM OVC049 M03/M08 A3001 780 68 -1200 310/04 RMK AO2
14837KMSN MSN20060212001009902/12/06 00:10:31  5-MIN KMSN 120610Z 31003KT 10SM OVC049 M03/M08 A3001 780 68 -1200 310/03 RMK AO2
14837KMSN MSN20060212001509902/12/06 00:15:33  5-MIN KMSN 120615Z 32004KT 10SM OVC049 M03/M08 A3001 780 68 -1200 320/04 RMK AO2
14837KMSN MSN20060212002009902/12/06 00:20:31  5-MIN KMSN 120620Z 31004KT 10SM OVC049 M03/M08 A3001 780 68 -1200 310/04 RMK AO2
14837KMSN MSN20060212002509902/12/06 00:25:31  5-MIN KMSN 120625Z 31003KT 10SM OVC049 M03/M08 A3001 780 68 -1200 310/03 RMK AO2
14837KMSN MSN20060212003009902/12/06 00:30:31  5-MIN KMSN 120630Z 31004KT 10SM OVC049 M03/M08 A3000 790 68 -1200 310/04 RMK AO2
14837KMSN MSN20060212003509902/12/06 00:35:31  5-MIN KMSN 120635Z 31003KT 10SM OVC049 M03/M08 A3000 790 68 -1200 310/03 RMK AO2
14837KMSN MSN20060212004009902/12/06 00:40:31  5-MIN KMSN 120640Z 31003KT 10SM OVC049 M03/M08 A3000 790 68 -1200 310/03 RMK AO2
14837KMSN MSN20060212004509902/12/06 00:45:31  5-MIN KMSN 120645Z 30003KT 10SM OVC049 M04/M08 A3000 790 71 -1300 290/03 RMK AO2
14837KMSN MSN20060212005011602/12/06 00:50:31  5-MIN KMSN 120650Z VRB06KT 10SM OVC049 M03/M08 A3000 790 68 -1200 VRB/06 RMK AO2 SLP171 T10331083
14837KMSN MSN20060212005509902/12/06 00:55:31  5-MIN KMSN 120655Z 32008KT 10SM OVC049 M03/M09 A3000 790 65 -1200 320/08 RMK AO2
14837KMSN MSN20060212010009902/12/06 01:00:31  5-MIN KMSN 120700Z 32007KT 10SM OVC049 M03/M09 A3000 790 65 -1200 320/07 RMK AO2
14837KMSN MSN20060212010509902/12/06 01:05:31  5-MIN KMSN 120705Z 32006KT 10SM OVC049 M04/M09 A3000 790 65 -1300 320/06 RMK AO2
14837KMSN MSN20060212011009902/12/06 01:10:31  5-MIN KMSN 120710Z 32006KT 10SM OVC049 M04/M10 A3000 790 63 -1300 320/06 RMK AO2
14837KMSN MSN20060212011509902/12/06 01:15:31  5-MIN KMSN 120715Z 32006KT 10SM OVC049 M04/M11 A3000 790 60 -1300 310/06 RMK AO2
14837KMSN MSN20060212012009902/12/06 01:20:31  5-MIN KMSN 120720Z 31005KT 10SM OVC049 M04/M11 A3000 790 60 -1300 310/05 RMK AO2
14837KMSN MSN20060212012509902/12/06 01:25:31  5-MIN KMSN 120725Z 31007KT 10SM OVC049 M04/M11 A3000 790 60 -1300 310/07 RMK AO2
14837KMSN MSN20060212013009902/12/06 01:30:31  5-MIN KMSN 120730Z 32006KT 10SM OVC049 M04/M11 A3000 790 57 -1200 320/06 RMK AO2
14837KMSN MSN20060212013509902/12/06 01:35:31  5-MIN KMSN 120735Z 32005KT 10SM OVC049 M04/M11 A3000 790 57 -1200 320/05 RMK AO2
14837KMSN MSN20060212014009902/12/06 01:40:31  5-MIN KMSN 120740Z 32004KT 10SM OVC049 M04/M11 A3000 790 60 -1300 320/04 RMK AO2
14837KMSN MSN20060212014509902/12/06 01:45:31  5-MIN KMSN 120745Z 32004KT 10SM OVC049 M04/M11 A3000 790 60 -1300 320/04 RMK AO2
14837KMSN MSN20060212015011602/12/06 01:50:31  5-MIN KMSN 120750Z 32005KT 10SM OVC049 M04/M11 A3000 790 60 -1300 320/05 RMK AO2 SLP169 T10441111
14837KMSN MSN20060212015509902/12/06 01:55:31  5-MIN KMSN 120755Z 31004KT 10SM OVC049 M04/M11 A3000 790 60 -1300 310/04 RMK AO2
14837KMSN MSN20060212020009902/12/06 02:00:31  5-MIN KMSN 120800Z 32005KT 10SM OVC049 M04/M11 A2999 800 62 -1300 320/05 RMK AO2
14837KMSN MSN20060212020509902/12/06 02:05:31  5-MIN KMSN 120805Z 30005KT 10SM OVC049 M04/M11 A2999 800 60 -1300 300/05 RMK AO2
14837KMSN MSN20060212021009902/12/06 02:10:31  5-MIN KMSN 120810Z 30004KT 10SM OVC049 M04/M11 A2999 800 62 -1300 300/04 RMK AO2
14837KMSN MSN20060212021509902/12/06 02:15:31  5-MIN KMSN 120815Z VRB04KT 10SM OVC049 M04/M11 A2999 800 62 -1300 VRB/04 RMK AO2
14837KMSN MSN20060212022009902/12/06 02:20:31  5-MIN KMSN 120820Z 30005KT 10SM OVC055 M04/M11 A2999 800 60 -1300 300/05 RMK AO2
14837KMSN MSN20060212022509902/12/06 02:25:31  5-MIN KMSN 120825Z 30005KT 10SM OVC055 M04/M11 A2999 800 62 -1300 300/05 RMK AO2
14837KMSN MSN20060212023009902/12/06 02:30:31  5-MIN KMSN 120830Z 29004KT 10SM OVC055 M04/M11 A2999 800 60 -1300 290/04 RMK AO2
14837KMSN MSN20060212023509902/12/06 02:35:31  5-MIN KMSN 120835Z 30005KT 10SM OVC055 M04/M11 A2999 800 60 -1300 300/05 RMK AO2
14837KMSN MSN20060212024009902/12/06 02:40:31  5-MIN KMSN 120840Z 29007KT 10SM OVC055 M04/M11 A2999 800 62 -1300 290/07 RMK AO2
14837KMSN MSN20060212024509902/12/06 02:45:31  5-MIN KMSN 120845Z 30007KT 10SM OVC055 M04/M11 A2999 800 60 -1300 300/07 RMK AO2
14837KMSN MSN20060212025012202/12/06 02:50:31  5-MIN KMSN 120850Z 30007KT 10SM OVC055 M04/M11 A2998 800 60 -1300 300/07 RMK AO2 SLP165 T10441111 58011
14837KMSN MSN20060212025509902/12/06 02:55:31  5-MIN KMSN 120855Z 30005KT 10SM OVC055 M04/M11 A2998 810 60 -1300 300/05 RMK AO2
14837KMSN MSN20060212030009902/12/06 03:00:31  5-MIN KMSN 120900Z 30007KT 10SM OVC055 M04/M11 A2998 810 62 -1300 290/07 RMK AO2
14837KMSN MSN20060212030510602/12/06 03:05:31  5-MIN KMSN 120905Z 30007KT 10SM FEW041 OVC060 M04/M11 A2998 810 60 -1300 300/07 RMK AO2
14837KMSN MSN20060212031010602/12/06 03:10:31  5-MIN KMSN 120910Z 30006KT 10SM SCT041 OVC060 M04/M11 A2998 810 60 -1300 290/06 RMK AO2
14837KMSN MSN20060212031510602/12/06 03:15:31  5-MIN KMSN 120915Z 29006KT 10SM SCT043 OVC060 M04/M11 A2998 810 60 -1300 290/06 RMK AO2
14837KMSN MSN20060212032010602/12/06 03:20:31  5-MIN KMSN 120920Z 30006KT 10SM SCT043 OVC055 M05/M11 A2997 810 65 -1400 300/06 RMK AO2
14837KMSN MSN20060212032510602/12/06 03:25:31  5-MIN KMSN 120925Z 29007KT 10SM SCT043 OVC055 M05/M11 A2997 810 65 -1400 290/07 RMK AO2
14837KMSN MSN20060212033010602/12/06 03:30:31  5-MIN KMSN 120930Z 29006KT 10SM SCT043 OVC055 M05/M11 A2997 820 65 -1400 290/06 RMK AO2
14837KMSN MSN20060212033510602/12/06 03:35:31  5-MIN KMSN 120935Z 30005KT 10SM FEW043 OVC055 M05/M11 A2997 820 65 -1400 300/05 RMK AO2
14837KMSN MSN20060212034010602/12/06 03:40:31  5-MIN KMSN 120940Z 30007KT 10SM FEW045 OVC055 M05/M11 A2997 820 65 -1400 300/07 RMK AO2
14837KMSN MSN20060212034510602/12/06 03:45:31  5-MIN KMSN 120945Z 30007KT 10SM FEW047 OVC055 M05/M11 A2997 820 65 -1400 300/07 RMK AO2
14837KMSN MSN20060212035012302/12/06 03:50:31  5-MIN KMSN 120950Z 30008KT 10SM FEW047 OVC055 M05/M11 A2997 820 65 -1400 300/08 RMK AO2 SLP162 T10501106
14837KMSN MSN20060212035510602/12/06 03:55:31  5-MIN KMSN 120955Z 30006KT 10SM FEW047 OVC055 M05/M11 A2997 820 65 -1400 300/06 RMK AO2
14837KMSN MSN20060212040010602/12/06 04:00:31  5-MIN KMSN 121000Z 30006KT 10SM FEW047 OVC055 M05/M11 A2997 820 65 -1400 300/06 RMK AO2
14837KMSN MSN20060212040510602/12/06 04:05:31  5-MIN KMSN 121005Z 30008KT 10SM FEW047 OVC055 M05/M11 A2997 820 65 -1400 300/08 RMK AO2
14837KMSN MSN20060212041010602/12/06 04:10:31  5-MIN KMSN 121010Z 31006KT 10SM FEW047 OVC055 M05/M11 A2997 820 65 -1400 310/06 RMK AO2
14837KMSN MSN20060212041509902/12/06 04:15:31  5-MIN KMSN 121015Z 30006KT 10SM OVC060 M05/M11 A2997 820 65 -1400 300/06 RMK AO2
14837KMSN MSN20060212042009902/12/06 04:20:31  5-MIN KMSN 121020Z 31006KT 10SM OVC055 M05/M11 A2997 820 65 -1400 310/06 RMK AO2
14837KMSN MSN20060212042509902/12/06 04:25:31  5-MIN KMSN 121025Z 30007KT 10SM OVC060 M05/M11 A2997 820 65 -1400 300/07 RMK AO2
14837KMSN MSN20060212043009902/12/06 04:30:31  5-MIN KMSN 121030Z 30006KT 10SM OVC060 M06/M11 A2997 820 68 -1400 300/06 RMK AO2
14837KMSN MSN20060212043509902/12/06 04:35:31  5-MIN KMSN 121035Z 31007KT 10SM OVC060 M06/M11 A2997 820 68 -1400 310/07 RMK AO2
14837KMSN MSN20060212044009902/12/06 04:40:31  5-MIN KMSN 121040Z 31005KT 10SM OVC060 M06/M11 A2997 820 68 -1400 300/05 RMK AO2
14837KMSN MSN20060212044509902/12/06 04:45:31  5-MIN KMSN 121045Z 31006KT 10SM OVC060 M06/M11 A2997 820 68 -1400 310/06 RMK AO2
14837KMSN MSN20060212045011602/12/06 04:50:31  5-MIN KMSN 121050Z 30006KT 10SM OVC060 M06/M11 A2997 820 68 -1400 300/06 RMK AO2 SLP162 T10561106
14837KMSN MSN20060212045509902/12/06 04:55:31  5-MIN KMSN 121055Z 30005KT 10SM OVC060 M06/M11 A2997 820 68 -1400 300/05 RMK AO2
14837KMSN MSN20060212050009902/12/06 05:00:31  5-MIN KMSN 121100Z 30005KT 10SM OVC055 M06/M11 A2997 820 68 -1400 300/05 RMK AO2
14837KMSN MSN20060212050509902/12/06 05:05:31  5-MIN KMSN 121105Z 30006KT 10SM OVC055 M06/M11 A2997 820 68 -1400 300/06 RMK AO2
14837KMSN MSN20060212051009902/12/06 05:10:31  5-MIN KMSN 121110Z 30005KT 10SM OVC055 M06/M10 A2997 820 71 -1400 300/05 RMK AO2
14837KMSN MSN20060212051509902/12/06 05:15:31  5-MIN KMSN 121115Z VRB05KT 10SM OVC055 M06/M10 A2997 820 71 -1400 VRB/05 RMK AO2
14837KMSN MSN20060212052009902/12/06 05:20:31  5-MIN KMSN 121120Z 30007KT 10SM OVC055 M06/M11 A2997 820 68 -1400 300/07 RMK AO2
14837KMSN MSN20060212052509902/12/06 05:25:31  5-MIN KMSN 121125Z 31008KT 10SM OVC055 M06/M11 A2997 820 68 -1400 310/08 RMK AO2
14837KMSN MSN20060212053009902/12/06 05:30:31  5-MIN KMSN 121130Z 30006KT 10SM OVC055 M06/M10 A2997 810 71 -1400 300/06 RMK AO2
14837KMSN MSN20060212053509902/12/06 05:35:31  5-MIN KMSN 121135Z 31004KT 10SM OVC055 M06/M10 A2997 810 71 -1400 310/04 RMK AO2
14837KMSN MSN20060212054009902/12/06 05:40:31  5-MIN KMSN 121140Z 30006KT 10SM OVC055 M06/M10 A2998 810 71 -1400 300/06 RMK AO2
14837KMSN MSN20060212054509902/12/06 05:45:31  5-MIN KMSN 121145Z 31005KT 10SM OVC055 M06/M10 A2998 810 71 -1400 310/05 RMK AO2
14837KMSN MSN20060212055014002/12/06 05:50:31  5-MIN KMSN 121150Z 30006KT 10SM OVC055 M06/M10 A2998 810 71 -1400 300/06 RMK AO2 SLP165 70002 T10561100 11033 21056 56010
14837KMSN MSN20060212055509902/12/06 05:55:31  5-MIN KMSN 121155Z 30006KT 10SM OVC055 M06/M10 A2998 810 71 -1400 300/06 RMK AO2
14837KMSN MSN20060212060009902/12/06 06:00:31  5-MIN KMSN 121200Z 30006KT 10SM OVC055 M06/M10 A2998 810 71 -1400 300/06 RMK AO2
14837KMSN MSN20060212060509902/12/06 06:05:31  5-MIN KMSN 121205Z 30005KT 10SM OVC055 M06/M10 A2998 810 71 -1400 300/05 RMK AO2
14837KMSN MSN20060212061009902/12/06 06:10:31  5-MIN KMSN 121210Z 31006KT 10SM OVC055 M06/M10 A2998 810 71 -1400 310/06 RMK AO2
14837KMSN MSN20060212061509902/12/06 06:15:31  5-MIN KMSN 121215Z 31005KT 10SM OVC055 M06/M10 A2998 810 71 -1400 310/05 RMK AO2
14837KMSN MSN20060212062009902/12/06 06:20:31  5-MIN KMSN 121220Z 31005KT 10SM OVC055 M06/M10 A2998 810 71 -1400 310/05 RMK AO2
14837KMSN MSN20060212062511402/12/06 06:25:31  5-MIN KMSN 121225Z 32006KT 9SM -SN OVC055 M06/M10 A2998 810 71 -1400 320/06 RMK AO2 SNB21 P0000
14837KMSN MSN20060212063011402/12/06 06:30:31  5-MIN KMSN 121230Z 31006KT 9SM -SN OVC060 M06/M10 A2998 810 71 -1400 310/06 RMK AO2 SNB21 P0000
14837KMSN MSN20060212063511402/12/06 06:35:31  5-MIN KMSN 121235Z 31006KT 8SM -SN OVC060 M06/M10 A2998 810 71 -1400 310/06 RMK AO2 SNB21 P0000
14837KMSN MSN20060212064011402/12/06 06:40:31  5-MIN KMSN 121240Z 31005KT 8SM -SN OVC060 M06/M10 A2998 810 71 -1400 310/05 RMK AO2 SNB21 P0000
14837KMSN MSN20060212064511402/12/06 06:45:31  5-MIN KMSN 121245Z 31004KT 8SM -SN OVC060 M06/M10 A2998 810 71 -1400 310/04 RMK AO2 SNB21 P0000
14837KMSN MSN20060212065013102/12/06 06:50:31  5-MIN KMSN 121250Z 31006KT 7SM -SN OVC060 M06/M09 A2998 810 74 -1400 310/06 RMK AO2 SNB21 SLP165 P0000 T10561094
14837KMSN MSN20060212065510802/12/06 06:55:31  5-MIN KMSN 121255Z 31006KT 7SM -SN OVC060 M06/M09 A2998 810 77 -1500 310/06 RMK AO2 P0000
14837KMSN MSN20060212070010802/12/06 07:00:31  5-MIN KMSN 121300Z 31007KT 7SM -SN OVC060 M06/M09 A2999 800 77 -1500 310/07 RMK AO2 P0000
14837KMSN MSN20060212070510802/12/06 07:05:31  5-MIN KMSN 121305Z 31005KT 6SM -SN OVC060 M06/M09 A2999 800 77 -1500 300/05 RMK AO2 P0000
14837KMSN MSN20060212071010802/12/06 07:10:31  5-MIN KMSN 121310Z 32005KT 7SM -SN OVC060 M06/M09 A2999 800 77 -1500 320/05 RMK AO2 P0000
14837KMSN MSN20060212071510802/12/06 07:15:31  5-MIN KMSN 121315Z 32005KT 7SM -SN OVC060 M06/M09 A2999 800 77 -1500 310/05 RMK AO2 P0000
14837KMSN MSN20060212072010802/12/06 07:20:31  5-MIN KMSN 121320Z 31006KT 6SM -SN OVC060 M06/M09 A2999 800 74 -1500 310/06 RMK AO2 P0000
14837KMSN MSN20060212072510802/12/06 07:25:31  5-MIN KMSN 121325Z 32005KT 5SM -SN OVC060 M06/M09 A2999 800 74 -1500 320/05 RMK AO2 P0000
14837KMSN MSN20060212073010802/12/06 07:30:31  5-MIN KMSN 121330Z 32006KT 5SM -SN OVC060 M06/M09 A2999 800 74 -1500 320/06 RMK AO2 P0000
14837KMSN MSN20060212073511502/12/06 07:35:31  5-MIN KMSN 121335Z 31006KT 7SM -SN FEW047 OVC060 M06/M09 A2999 800 74 -1500 310/06 RMK AO2 P0000
14837KMSN MSN20060212074011502/12/06 07:40:31  5-MIN KMSN 121340Z 32006KT 7SM -SN FEW047 OVC060 M06/M09 A2999 800 74 -1500 320/06 RMK AO2 P0000
14837KMSN MSN20060212074511002/12/06 07:45:31  5-MIN KMSN 121345Z 32005KT 7SM OVC060 M06/M09 A2999 800 74 -1500 310/05 RMK AO2 SNE45 P0000
14837KMSN MSN20060212075012702/12/06 07:50:31  5-MIN KMSN 121350Z 32007KT 8SM OVC060 M06/M09 A3000 790 74 -1500 320/07 RMK AO2 SNE45 SLP170 P0000 T10561094
14837KMSN MSN20060212075509802/12/06 07:55:31  5-MIN KMSN 121355Z 32005KT 9SM OVC060 M06/M09 A3000 790 74 -1500 320/05 RMK AO2
14837KMSN MSN20060212080009802/12/06 08:00:31  5-MIN KMSN 121400Z 32005KT 9SM OVC060 M06/M09 A3000 790 74 -1500 320/05 RMK AO2
14837KMSN MSN20060212080509902/12/06 08:05:31  5-MIN KMSN 121405Z 32006KT 10SM OVC060 M06/M09 A3000 790 74 -1500 320/06 RMK AO2
14837KMSN MSN20060212081009802/12/06 08:10:31  5-MIN KMSN 121410Z 33005KT 9SM OVC060 M06/M09 A3000 790 74 -1500 330/05 RMK AO2
14837KMSN MSN20060212081509802/12/06 08:15:31  5-MIN KMSN 121415Z 32007KT 9SM OVC060 M06/M09 A3000 790 77 -1500 320/07 RMK AO2
14837KMSN MSN20060212082009902/12/06 08:20:31  5-MIN KMSN 121420Z 33006KT 10SM OVC060 M05/M09 A3000 790 71 -1400 330/06 RMK AO2
14837KMSN MSN20060212082509902/12/06 08:25:31  5-MIN KMSN 121425Z 33005KT 10SM OVC060 M05/M09 A3000 790 74 -1400 330/05 RMK AO2
14837KMSN MSN20060212083009902/12/06 08:30:31  5-MIN KMSN 121430Z 33006KT 10SM OVC060 M05/M09 A3000 790 71 -1400 330/06 RMK AO2
14837KMSN MSN20060212083509902/12/06 08:35:31  5-MIN KMSN 121435Z 33004KT 10SM OVC060 M05/M09 A3000 790 74 -1400 330/04 RMK AO2
14837KMSN MSN20060212084009902/12/06 08:40:31  5-MIN KMSN 121440Z 34007KT 10SM OVC060 M05/M09 A3000 790 71 -1400 340/07 RMK AO2
14837KMSN MSN20060212084509902/12/06 08:45:31  5-MIN KMSN 121445Z 35008KT 10SM OVC060 M05/M09 A3000 790 71 -1400 350/08 RMK AO2
14837KMSN MSN20060212085012802/12/06 08:50:31  5-MIN KMSN 121450Z 34006KT 10SM OVC060 M04/M09 A3000 790 68 -1300 330/06 RMK AO2 SLP172 60000 T10441094 55002
14837KMSN MSN20060212085511502/12/06 08:55:31  5-MIN KMSN 121455Z 34007KT 320V020 10SM OVC060 M04/M09 A3000 790 68 -1300 340/07 320V020 RMK AO2
14837KMSN MSN20060212090009902/12/06 09:00:31  5-MIN KMSN 121500Z 34009KT 10SM OVC060 M04/M09 A3000 790 68 -1300 340/09 RMK AO2
14837KMSN MSN20060212090509902/12/06 09:05:31  5-MIN KMSN 121505Z 35009KT 10SM OVC060 M04/M10 A3000 790 65 -1300 350/09 RMK AO2
14837KMSN MSN20060212091009902/12/06 09:10:31  5-MIN KMSN 121510Z 36009KT 10SM OVC060 M04/M10 A3001 780 65 -1300 360/09 RMK AO2
14837KMSN MSN20060212091509902/12/06 09:15:31  5-MIN KMSN 121515Z 36010KT 10SM OVC060 M04/M11 A3001 790 62 -1300 360/10 RMK AO2
14837KMSN MSN20060212092009902/12/06 09:20:31  5-MIN KMSN 121520Z 35008KT 10SM OVC060 M04/M11 A3001 780 62 -1300 350/08 RMK AO2
14837KMSN MSN20060212092509902/12/06 09:25:31  5-MIN KMSN 121525Z 34009KT 10SM OVC060 M04/M10 A3001 780 65 -1300 340/09 RMK AO2
14837KMSN MSN20060212093009902/12/06 09:30:31  5-MIN KMSN 121530Z 35007KT 10SM OVC060 M04/M10 A3001 780 65 -1300 350/07 RMK AO2
14837KMSN MSN20060212093509902/12/06 09:35:31  5-MIN KMSN 121535Z 34009KT 10SM OVC065 M04/M10 A3001 780 63 -1300 330/09 RMK AO2
14837KMSN MSN20060212094009902/12/06 09:40:31  5-MIN KMSN 121540Z 34009KT 10SM OVC065 M04/M10 A3001 780 63 -1300 340/09 RMK AO2
14837KMSN MSN20060212094510602/12/06 09:45:31  5-MIN KMSN 121545Z 34011KT 10SM FEW030 OVC065 M04/M10 A3001 780 63 -1300 330/11 RMK AO2
14837KMSN MSN20060212095012302/12/06 09:50:31  5-MIN KMSN 121550Z 32008KT 10SM FEW030 OVC065 M04/M10 A3001 780 63 -1300 320/08 RMK AO2 SLP176 T10391100
14837KMSN MSN20060212095510602/12/06 09:55:31  5-MIN KMSN 121555Z 33009KT 10SM SCT027 OVC065 M04/M10 A3002 780 63 -1300 330/09 RMK AO2
14837KMSN MSN20060212100010602/12/06 10:00:31  5-MIN KMSN 121600Z 33010KT 10SM SCT027 OVC065 M04/M10 A3002 780 63 -1300 330/10 RMK AO2
14837KMSN MSN20060212100510602/12/06 10:05:31  5-MIN KMSN 121605Z 35009KT 10SM SCT027 OVC065 M04/M10 A3002 780 63 -1300 340/09 RMK AO2
14837KMSN MSN20060212101010602/12/06 10:10:31  5-MIN KMSN 121610Z 34011KT 10SM SCT027 OVC065 M04/M10 A3002 770 63 -1300 340/11 RMK AO2
14837KMSN MSN20060212101510602/12/06 10:15:31  5-MIN KMSN 121615Z 35010KT 10SM SCT027 OVC065 M04/M10 A3002 770 63 -1300 350/10 RMK AO2
14837KMSN MSN20060212102010602/12/06 10:20:31  5-MIN KMSN 121620Z 36009KT 10SM SCT027 OVC065 M03/M10 A3002 770 60 -1200 360/09 RMK AO2
14837KMSN MSN20060212102510602/12/06 10:25:31  5-MIN KMSN 121625Z 35010KT 10SM SCT027 OVC065 M03/M10 A3002 770 60 -1200 350/10 RMK AO2
14837KMSN MSN20060212103010602/12/06 10:30:31  5-MIN KMSN 121630Z 36010KT 10SM SCT027 OVC065 M03/M11 A3002 770 57 -1200 360/10 RMK AO2
14837KMSN MSN20060212103510602/12/06 10:35:31  5-MIN KMSN 121635Z 34010KT 10SM SCT027 OVC065 M03/M11 A3002 770 57 -1200 340/10 RMK AO2
14837KMSN MSN20060212104010602/12/06 10:40:31  5-MIN KMSN 121640Z 36011KT 10SM SCT027 OVC065 M03/M11 A3003 770 57 -1200 360/11 RMK AO2
14837KMSN MSN20060212104510602/12/06 10:45:31  5-MIN KMSN 121645Z 32010KT 10SM BKN031 OVC060 M03/M11 A3003 770 57 -1200 310/10 RMK AO2
14837KMSN MSN20060212105012302/12/06 10:50:31  5-MIN KMSN 121650Z 34009KT 10SM BKN031 OVC060 M03/M11 A3003 760 55 -1200 340/09 RMK AO2 SLP181 T10331111
14837KMSN MSN20060212105511302/12/06 10:55:31  5-MIN KMSN 121655Z 36011KT 10SM SCT031 BKN045 OVC060 M03/M11 A3003 760 57 -1200 360/11 RMK AO2
14837KMSN MSN20060212110011302/12/06 11:00:31  5-MIN KMSN 121700Z 36011KT 10SM BKN031 BKN045 OVC060 M03/M11 A3003 760 55 -1100 360/11 RMK AO2
14837KMSN MSN20060212110510602/12/06 11:05:31  5-MIN KMSN 121705Z 35010KT 10SM BKN031 OVC043 M03/M11 A3003 760 57 -1200 350/10 RMK AO2
14837KMSN MSN20060212111010602/12/06 11:10:31  5-MIN KMSN 121710Z 33008KT 10SM BKN031 OVC043 M03/M11 A3003 760 57 -1200 330/08 RMK AO2
14837KMSN MSN20060212111510602/12/06 11:15:31  5-MIN KMSN 121715Z 33010KT 10SM BKN033 OVC045 M03/M11 A3003 760 57 -1200 330/10 RMK AO2
14837KMSN MSN20060212112010602/12/06 11:20:31  5-MIN KMSN 121720Z 34008KT 10SM BKN033 OVC042 M03/M11 A3003 760 57 -1200 340/08 RMK AO2
14837KMSN MSN20060212112509902/12/06 11:25:31  5-MIN KMSN 121725Z 34008KT 10SM OVC033 M03/M10 A3003 760 60 -1200 340/08 RMK AO2
14837KMSN MSN20060212113009902/12/06 11:30:31  5-MIN KMSN 121730Z 34008KT 10SM OVC033 M03/M10 A3003 760 60 -1200 340/08 RMK AO2
14837KMSN MSN20060212113510602/12/06 11:35:31  5-MIN KMSN 121735Z 33011KT 10SM BKN030 OVC035 M03/M11 A3003 760 57 -1200 320/11 RMK AO2
14837KMSN MSN20060212114011302/12/06 11:40:31  5-MIN KMSN 121740Z 34011KT 10SM BKN030 BKN035 OVC046 M03/M11 A3003 760 57 -1200 340/11 RMK AO2
14837KMSN MSN20060212114510602/12/06 11:45:31  5-MIN KMSN 121745Z 33007KT 10SM BKN033 OVC046 M03/M11 A3003 760 55 -1100 330/07 RMK AO2
14837KMSN MSN20060212115014702/12/06 11:50:31  5-MIN KMSN 121750Z 35010KT 10SM BKN033 OVC046 M03/M11 A3003 770 55 -1100 340/10 RMK AO2 SLP180 60000 T10281106 11028 21061 53008
14837KMSN MSN20060212115510602/12/06 11:55:31  5-MIN KMSN 121755Z 35008KT 10SM BKN033 OVC046 M03/M11 A3003 770 55 -1100 350/08 RMK AO2
14837KMSN MSN20060212120011202/12/06 12:00:31  5-MIN KMSN 121800Z 34011G15KT 10SM BKN033 OVC046 M02/M10 A3003 770 55 -1100 340/11G15 RMK AO2
14837KMSN MSN20060212120512802/12/06 12:05:31  5-MIN KMSN 121805Z 34009G15KT 10SM -SN BKN033 OVC046 M03/M11 A3003 770 55 -1100 340/09G15 RMK AO2 SNB01 P0000
14837KMSN MSN20060212121012102/12/06 12:10:31  5-MIN KMSN 121810Z 35009KT 9SM -SN BKN035 OVC046 M03/M11 A3002 770 55 -1100 350/09 RMK AO2 SNB01 P0000
14837KMSN MSN20060212121512102/12/06 12:15:31  5-MIN KMSN 121815Z 32008KT 9SM -SN BKN035 OVC046 M03/M11 A3002 770 55 -1100 320/08 RMK AO2 SNB01 P0000
14837KMSN MSN20060212122012102/12/06 12:20:31  5-MIN KMSN 121820Z 33007KT 9SM -SN BKN035 OVC046 M03/M11 A3002 770 55 -1100 320/07 RMK AO2 SNB01 P0000
14837KMSN MSN20060212122511402/12/06 12:25:31  5-MIN KMSN 121825Z 35008KT 9SM -SN OVC033 M03/M11 A3002 770 55 -1100 350/08 RMK AO2 SNB01 P0000
14837KMSN MSN20060212123012102/12/06 12:30:31  5-MIN KMSN 121830Z 32010KT 9SM -SN BKN033 OVC045 M03/M11 A3002 770 57 -1200 320/10 RMK AO2 SNB01 P0000
14837KMSN MSN20060212123512002/12/06 12:35:31  5-MIN KMSN 121835Z 31008KT 9SM BKN035 OVC045 M03/M11 A3002 770 57 -1200 310/08 RMK AO2 SNB01E34 P0000
14837KMSN MSN20060212124012702/12/06 12:40:31  5-MIN KMSN 121840Z 32010G14KT 10SM BKN035 OVC045 M03/M11 A3002 770 55 -1100 320/10G14 RMK AO2 SNB01E34 P0000
14837KMSN MSN20060212124512702/12/06 12:45:31  5-MIN KMSN 121845Z 32010G14KT 10SM BKN035 OVC043 M03/M11 A3002 770 55 -1100 320/10G14 RMK AO2 SNB01E34 P0000
14837KMSN MSN20060212125013802/12/06 12:50:31  5-MIN KMSN 121850Z 34012KT 10SM BKN035 OVC043 M03/M11 A3002 770 55 -1100 340/12 RMK AO2 SNB01E34 SLP176 P0000 T10281106
14837KMSN MSN20060212125510602/12/06 12:55:31  5-MIN KMSN 121855Z 34009KT 10SM BKN035 OVC043 M03/M11 A3002 770 57 -1200 340/09 RMK AO2
14837KMSN MSN20060212130010602/12/06 13:00:31  5-MIN KMSN 121900Z 32008KT 10SM BKN035 OVC043 M03/M11 A3002 770 57 -1200 320/08 RMK AO2
14837KMSN MSN20060212130511202/12/06 13:05:31  5-MIN KMSN 121905Z 33012G15KT 10SM BKN035 OVC043 M03/M11 A3002 770 57 -1200 330/12G15 RMK AO2
14837KMSN MSN20060212131011202/12/06 13:10:31  5-MIN KMSN 121910Z 33011G15KT 10SM BKN035 OVC043 M03/M11 A3002 770 57 -1200 330/11G15 RMK AO2
14837KMSN MSN20060212131509902/12/06 13:15:31  5-MIN KMSN 121915Z 33010KT 10SM OVC037 M03/M11 A3002 770 57 -1200 330/10 RMK AO2
14837KMSN MSN20060212132009902/12/06 13:20:31  5-MIN KMSN 121920Z 33011KT 10SM OVC037 M04/M11 A3002 770 60 -1300 330/11 RMK AO2
14837KMSN MSN20060212132511502/12/06 13:25:31  5-MIN KMSN 121925Z 33010KT 10SM -SN OVC037 M03/M11 A3002 770 57 -1200 320/10 RMK AO2 SNB25 P0000
14837KMSN MSN20060212133012002/12/06 13:30:31  5-MIN KMSN 121930Z 34012G16KT 7SM -SN OVC037 M04/M11 A3002 770 60 -1300 340/12G16 RMK AO2 SNB25 P0000
14837KMSN MSN20060212133512002/12/06 13:35:31  5-MIN KMSN 121935Z 32009G16KT 7SM -SN OVC035 M04/M10 A3002 770 63 -1300 320/09G16 RMK AO2 SNB25 P0000
14837KMSN MSN20060212134012102/12/06 13:40:31  5-MIN KMSN 121940Z 33010KT 8SM -SN BKN030 OVC038 M04/M10 A3002 770 63 -1300 330/10 RMK AO2 SNB25 P0000
14837KMSN MSN20060212134512102/12/06 13:45:31  5-MIN KMSN 121945Z 32010KT 7SM -SN SCT030 OVC038 M04/M10 A3003 770 63 -1300 320/10 RMK AO2 SNB25 P0000
14837KMSN MSN20060212135013802/12/06 13:50:31  5-MIN KMSN 121950Z 32009KT 7SM -SN SCT030 OVC038 M04/M11 A3002 770 60 -1300 320/09 RMK AO2 SNB25 SLP179 P0000 T10391106
14837KMSN MSN20060212135511502/12/06 13:55:31  5-MIN KMSN 121955Z 31008KT 8SM -SN SCT030 OVC038 M04/M10 A3002 770 63 -1300 310/08 RMK AO2 P0000
14837KMSN MSN20060212140011502/12/06 14:00:31  5-MIN KMSN 122000Z 32010KT 9SM -SN FEW030 OVC038 M04/M10 A3002 770 63 -1300 320/10 RMK AO2 P0000
14837KMSN MSN20060212140512102/12/06 14:05:31  5-MIN KMSN 122005Z 32007G16KT 9SM -SN FEW028 OVC040 M04/M10 A3002 770 63 -1300 310/07G16 RMK AO2 P0000
14837KMSN MSN20060212141010802/12/06 14:10:31  5-MIN KMSN 122010Z 32012KT 9SM -SN OVC040 M04/M10 A3002 770 63 -1300 320/12 RMK AO2 P0000
14837KMSN MSN20060212141510802/12/06 14:15:31  5-MIN KMSN 122015Z 32013KT 8SM -SN OVC037 M04/M11 A3002 770 60 -1300 320/13 RMK AO2 P0000
14837KMSN MSN20060212142010802/12/06 14:20:31  5-MIN KMSN 122020Z 31011KT 8SM -SN OVC037 M04/M11 A3002 770 60 -1300 310/11 RMK AO2 P0000
14837KMSN MSN20060212142510802/12/06 14:25:31  5-MIN KMSN 122025Z 31010KT 8SM -SN OVC039 M04/M10 A3002 770 65 -1300 300/10 RMK AO2 P0000
14837KMSN MSN20060212143010802/12/06 14:30:31  5-MIN KMSN 122030Z 31008KT 9SM -SN OVC039 M04/M10 A3002 770 63 -1300 310/08 RMK AO2 P0000
14837KMSN MSN20060212143510802/12/06 14:35:31  5-MIN KMSN 122035Z 33011KT 8SM -SN OVC039 M04/M10 A3002 770 63 -1300 330/11 RMK AO2 P0000
14837KMSN MSN20060212144010802/12/06 14:40:31  5-MIN KMSN 122040Z 33010KT 8SM -SN OVC041 M04/M10 A3003 770 63 -1300 330/10 RMK AO2 P0000
14837KMSN MSN20060212144511502/12/06 14:45:31  5-MIN KMSN 122045Z 32009KT 7SM -SN FEW035 OVC041 M04/M09 A3003 760 65 -1300 320/09 RMK AO2 P0000
14837KMSN MSN20060212145014402/12/06 14:50:31  5-MIN KMSN 122050Z 32010KT 7SM -SN FEW032 OVC041 M04/M09 A3003 770 65 -1300 320/10 RMK AO2 SLP180 P0000 60000 T10391094 50008
14837KMSN MSN20060212145510802/12/06 14:55:31  5-MIN KMSN 122055Z 34009KT 9SM -SN OVC041 M04/M09 A3003 770 65 -1300 340/09 RMK AO2 P0000
14837KMSN MSN20060212150010802/12/06 15:00:31  5-MIN KMSN 122100Z 32010KT 9SM -SN OVC041 M04/M10 A3003 770 63 -1300 320/10 RMK AO2 P0000
14837KMSN MSN20060212150511502/12/06 15:05:31  5-MIN KMSN 122105Z 33009KT 9SM -SN FEW035 BKN041 M04/M10 A3003 760 63 -1300 330/09 RMK AO2 P0000
14837KMSN MSN20060212151011502/12/06 15:10:31  5-MIN KMSN 122110Z 33009KT 9SM -SN FEW035 BKN041 M04/M10 A3003 760 63 -1300 330/09 RMK AO2 P0000
14837KMSN MSN20060212151511502/12/06 15:15:31  5-MIN KMSN 122115Z 34010KT 9SM -SN FEW035 BKN041 M04/M10 A3003 760 63 -1300 340/10 RMK AO2 P0000
14837KMSN MSN20060212152011502/12/06 15:20:31  5-MIN KMSN 122120Z 33010KT 9SM -SN FEW035 BKN041 M04/M10 A3003 760 63 -1300 330/10 RMK AO2 P0000
14837KMSN MSN20060212152511502/12/06 15:25:31  5-MIN KMSN 122125Z 34011KT 9SM -SN FEW035 BKN041 M04/M11 A3003 760 60 -1300 340/11 RMK AO2 P0000
14837KMSN MSN20060212153011502/12/06 15:30:31  5-MIN KMSN 122130Z 33007KT 9SM -SN FEW035 BKN041 M04/M11 A3003 760 60 -1300 330/07 RMK AO2 P0000
14837KMSN MSN20060212153511502/12/06 15:35:31  5-MIN KMSN 122135Z 32009KT 9SM -SN FEW035 BKN041 M04/M11 A3003 760 60 -1300 320/09 RMK AO2 P0000
14837KMSN MSN20060212154010802/12/06 15:40:31  5-MIN KMSN 122140Z 32010KT 9SM -SN OVC037 M04/M11 A3003 760 60 -1400 320/10 RMK AO2 P0000
14837KMSN MSN20060212154510802/12/06 15:45:31  5-MIN KMSN 122145Z 33010KT 9SM -SN OVC037 M04/M11 A3003 760 60 -1400 330/10 RMK AO2 P0000
14837KMSN MSN20060212155012502/12/06 15:50:31  5-MIN KMSN 122150Z 34011KT 9SM -SN OVC037 M04/M12 A3003 760 57 -1400 340/11 RMK AO2 SLP183 P0000 T10441117
14837KMSN MSN20060212155510802/12/06 15:55:31  5-MIN KMSN 122155Z 33010KT 9SM -SN OVC037 M04/M12 A3003 760 57 -1400 330/10 RMK AO2 P0000
14837KMSN MSN20060212160010802/12/06 16:00:31  5-MIN KMSN 122200Z 33009KT 9SM -SN OVC039 M04/M12 A3003 760 57 -1400 330/09 RMK AO2 P0000
14837KMSN MSN20060212160510802/12/06 16:05:31  5-MIN KMSN 122205Z 33011KT 9SM -SN OVC039 M04/M12 A3003 760 55 -1400 330/11 RMK AO2 P0000
14837KMSN MSN20060212161010802/12/06 16:10:31  5-MIN KMSN 122210Z 31010KT 9SM -SN OVC039 M04/M12 A3003 760 55 -1400 310/10 RMK AO2 P0000
14837KMSN MSN20060212161510802/12/06 16:15:31  5-MIN KMSN 122215Z 32008KT 9SM -SN OVC041 M04/M12 A3003 760 55 -1400 320/08 RMK AO2 P0000
14837KMSN MSN20060212162010802/12/06 16:20:31  5-MIN KMSN 122220Z 32007KT 9SM -SN OVC041 M04/M12 A3004 760 55 -1400 320/07 RMK AO2 P0000
14837KMSN MSN20060212162510802/12/06 16:25:31  5-MIN KMSN 122225Z 32009KT 9SM -SN OVC041 M04/M13 A3004 760 52 -1400 320/09 RMK AO2 P0000
14837KMSN MSN20060212163010802/12/06 16:30:31  5-MIN KMSN 122230Z 33010KT 9SM -SN OVC041 M04/M13 A3004 760 52 -1400 330/10 RMK AO2 P0000
14837KMSN MSN20060212163510802/12/06 16:35:31  5-MIN KMSN 122235Z 32010KT 9SM -SN OVC041 M04/M13 A3004 760 52 -1400 320/10 RMK AO2 P0000
14837KMSN MSN20060212164011002/12/06 16:40:31  5-MIN KMSN 122240Z 34010KT 9SM OVC041 M04/M13 A3004 750 52 -1400 340/10 RMK AO2 SNE39 P0000
14837KMSN MSN20060212164511102/12/06 16:45:31  5-MIN KMSN 122245Z 34010KT 10SM OVC041 M04/M13 A3004 750 50 -1400 340/10 RMK AO2 SNE39 P0000
14837KMSN MSN20060212165012802/12/06 16:50:31  5-MIN KMSN 122250Z 33009KT 10SM OVC041 M04/M13 A3004 750 50 -1400 330/09 RMK AO2 SNE39 SLP188 P0000 T10441133
14837KMSN MSN20060212165509902/12/06 16:55:31  5-MIN KMSN 122255Z 34008KT 10SM OVC041 M04/M13 A3005 750 50 -1400 340/08 RMK AO2
14837KMSN MSN20060212170009902/12/06 17:00:31  5-MIN KMSN 122300Z 33008KT 10SM OVC041 M04/M13 A3005 750 50 -1400 330/08 RMK AO2
14837KMSN MSN20060212170509902/12/06 17:05:31  5-MIN KMSN 122305Z 33008KT 10SM OVC039 M04/M13 A3005 740 52 -1400 330/08 RMK AO2
14837KMSN MSN20060212171011502/12/06 17:10:31  5-MIN KMSN 122310Z 31007KT 280V340 10SM OVC039 M04/M13 A3005 740 52 -1400 310/07 280V340 RMK AO2
14837KMSN MSN20060212171509902/12/06 17:15:31  5-MIN KMSN 122315Z 30007KT 10SM OVC039 M04/M13 A3005 740 52 -1400 300/07 RMK AO2
14837KMSN MSN20060212172010502/12/06 17:20:31  5-MIN KMSN 122320Z 30011G15KT 10SM OVC039 M04/M13 A3006 740 52 -1400 300/11G15 RMK AO2
14837KMSN MSN20060212172510502/12/06 17:25:31  5-MIN KMSN 122325Z 33008G15KT 10SM OVC039 M04/M13 A3005 740 52 -1400 320/08G15 RMK AO2
14837KMSN MSN20060212173009902/12/06 17:30:31  5-MIN KMSN 122330Z 33008KT 10SM OVC039 M04/M13 A3006 740 52 -1400 320/08 RMK AO2
14837KMSN MSN20060212173509902/12/06 17:35:31  5-MIN KMSN 122335Z 32006KT 10SM OVC039 M04/M13 A3006 740 52 -1400 320/06 RMK AO2
14837KMSN MSN20060212174009902/12/06 17:40:31  5-MIN KMSN 122340Z 32007KT 10SM OVC039 M04/M13 A3006 740 52 -1400 320/07 RMK AO2
14837KMSN MSN20060212174509902/12/06 17:45:31  5-MIN KMSN 122345Z 32008KT 10SM OVC039 M04/M13 A3006 740 52 -1400 320/08 RMK AO2
14837KMSN MSN20060212175014002/12/06 17:50:31  5-MIN KMSN 122350Z 32007KT 10SM OVC039 M04/M13 A3006 740 52 -1400 310/07 RMK AO2 SLP192 60000 T10441128 11022 21044 55000
14837KMSN MSN20060212175509902/12/06 17:55:31  5-MIN KMSN 122355Z 31009KT 10SM OVC039 M04/M13 A3006 730 52 -1400 310/09 RMK AO2
14837KMSN MSN20060212180009902/12/06 18:00:31  5-MIN KMSN 130000Z 31009KT 10SM OVC039 M04/M13 A3006 730 50 -1400 310/09 RMK AO2
14837KMSN MSN20060212180509902/12/06 18:05:31  5-MIN KMSN 130005Z 31007KT 10SM OVC039 M05/M13 A3006 730 55 -1500 310/07 RMK AO2
14837KMSN MSN20060212181009902/12/06 18:10:31  5-MIN KMSN 130010Z 31007KT 10SM OVC039 M05/M13 A3006 730 52 -1500 310/07 RMK AO2
14837KMSN MSN20060212181509902/12/06 18:15:31  5-MIN KMSN 130015Z 31009KT 10SM OVC039 M05/M13 A3007 730 52 -1500 310/09 RMK AO2
14837KMSN MSN20060212182009902/12/06 18:20:31  5-MIN KMSN 130020Z 31006KT 10SM OVC039 M05/M13 A3007 730 52 -1500 310/06 RMK AO2
14837KMSN MSN20060212182509902/12/06 18:25:31  5-MIN KMSN 130025Z 30005KT 10SM OVC039 M05/M13 A3007 730 52 -1500 300/05 RMK AO2
14837KMSN MSN20060212183009902/12/06 18:30:31  5-MIN KMSN 130030Z 31007KT 10SM OVC039 M05/M13 A3007 720 52 -1500 310/07 RMK AO2
14837KMSN MSN20060212183509902/12/06 18:35:31  5-MIN KMSN 130035Z 31007KT 10SM OVC039 M05/M13 A3007 720 52 -1500 310/07 RMK AO2
14837KMSN MSN20060212184009902/12/06 18:40:31  5-MIN KMSN 130040Z 29008KT 10SM OVC039 M05/M13 A3008 720 55 -1500 290/08 RMK AO2
14837KMSN MSN20060212184509902/12/06 18:45:31  5-MIN KMSN 130045Z 30009KT 10SM OVC039 M05/M13 A3008 720 52 -1500 300/09 RMK AO2
14837KMSN MSN20060212185011602/12/06 18:50:31  5-MIN KMSN 130050Z 30009KT 10SM OVC039 M05/M13 A3008 720 52 -1500 300/09 RMK AO2 SLP199 T10501133
14837KMSN MSN20060212185509902/12/06 18:55:31  5-MIN KMSN 130055Z 30009KT 10SM OVC039 M05/M13 A3008 720 52 -1500 300/09 RMK AO2
14837KMSN MSN20060212190009902/12/06 19:00:31  5-MIN KMSN 130100Z 30009KT 10SM OVC039 M05/M13 A3008 720 52 -1500 300/09 RMK AO2
14837KMSN MSN20060212190509902/12/06 19:05:31  5-MIN KMSN 130105Z 31011KT 10SM OVC039 M05/M13 A3008 720 52 -1500 310/11 RMK AO2
14837KMSN MSN20060212191009902/12/06 19:10:31  5-MIN KMSN 130110Z 30011KT 10SM OVC039 M05/M13 A3008 720 52 -1500 300/11 RMK AO2
14837KMSN MSN20060212191509902/12/06 19:15:31  5-MIN KMSN 130115Z 31008KT 10SM OVC039 M05/M13 A3008 710 52 -1500 310/08 RMK AO2
14837KMSN MSN20060212192009902/12/06 19:20:31  5-MIN KMSN 130120Z 31008KT 10SM OVC039 M05/M13 A3008 720 52 -1500 310/08 RMK AO2
14837KMSN MSN20060212192509902/12/06 19:25:31  5-MIN KMSN 130125Z 31010KT 10SM OVC039 M05/M13 A3008 720 52 -1500 310/10 RMK AO2
14837KMSN MSN20060212193009902/12/06 19:30:31  5-MIN KMSN 130130Z 30008KT 10SM OVC039 M06/M13 A3008 720 54 -1600 300/08 RMK AO2
14837KMSN MSN20060212193509902/12/06 19:35:31  5-MIN KMSN 130135Z 30007KT 10SM OVC039 M06/M13 A3008 720 54 -1600 300/07 RMK AO2
14837KMSN MSN20060212194009902/12/06 19:40:31  5-MIN KMSN 130140Z 31007KT 10SM OVC039 M06/M13 A3008 720 54 -1600 310/07 RMK AO2
14837KMSN MSN20060212194509902/12/06 19:45:31  5-MIN KMSN 130145Z 30006KT 10SM OVC039 M06/M13 A3008 720 54 -1600 300/06 RMK AO2
14837KMSN MSN20060212195012202/12/06 19:50:31  5-MIN KMSN 130150Z 31009G15KT 10SM OVC039 M06/M13 A3008 720 54 -1600 310/09G15 RMK AO2 SLP199 T10561133
14837KMSN MSN20060212195509902/12/06 19:55:31  5-MIN KMSN 130155Z 31009KT 10SM OVC039 M06/M14 A3008 720 52 -1600 310/09 RMK AO2
14837KMSN MSN20060212200009902/12/06 20:00:31  5-MIN KMSN 130200Z 32009KT 10SM OVC039 M06/M14 A3008 720 52 -1600 320/09 RMK AO2
14837KMSN MSN20060212200509902/12/06 20:05:31  5-MIN KMSN 130205Z 32008KT 10SM OVC039 M06/M13 A3008 720 54 -1600 320/08 RMK AO2
14837KMSN MSN20060212201009902/12/06 20:10:31  5-MIN KMSN 130210Z 32008KT 10SM OVC039 M06/M13 A3008 720 54 -1600 320/08 RMK AO2
14837KMSN MSN20060212201509902/12/06 20:15:31  5-MIN KMSN 130215Z 30006KT 10SM OVC039 M06/M13 A3007 720 54 -1600 300/06 RMK AO2
14837KMSN MSN20060212202009902/12/06 20:20:31  5-MIN KMSN 130220Z 31007KT 10SM OVC039 M06/M13 A3007 720 54 -1500 310/07 RMK AO2
14837KMSN MSN20060212202509902/12/06 20:25:31  5-MIN KMSN 130225Z VRB06KT 10SM OVC037 M06/M13 A3007 730 54 -1500 VRB/06 RMK AO2
14837KMSN MSN20060212203009902/12/06 20:30:31  5-MIN KMSN 130230Z 30005KT 10SM OVC037 M06/M13 A3007 730 54 -1500 300/05 RMK AO2
14837KMSN MSN20060212203509902/12/06 20:35:31  5-MIN KMSN 130235Z 29006KT 10SM OVC037 M06/M13 A3007 730 54 -1500 290/06 RMK AO2
14837KMSN MSN20060212204009902/12/06 20:40:31  5-MIN KMSN 130240Z 30008KT 10SM OVC037 M06/M13 A3007 730 54 -1500 300/08 RMK AO2
14837KMSN MSN20060212204509902/12/06 20:45:31  5-MIN KMSN 130245Z 30007KT 10SM OVC037 M06/M13 A3007 730 54 -1500 300/07 RMK AO2
14837KMSN MSN20060212205012202/12/06 20:50:31  5-MIN KMSN 130250Z 30008KT 10SM OVC037 M06/M13 A3007 730 54 -1500 300/08 RMK AO2 SLP195 T10561133 53011
14837KMSN MSN20060212205509902/12/06 20:55:31  5-MIN KMSN 130255Z 29007KT 10SM OVC037 M06/M13 A3007 730 54 -1500 290/07 RMK AO2
14837KMSN MSN20060212210009902/12/06 21:00:31  5-MIN KMSN 130300Z 30006KT 10SM OVC037 M06/M13 A3007 730 54 -1500 300/06 RMK AO2
14837KMSN MSN20060212210509902/12/06 21:05:31  5-MIN KMSN 130305Z 29007KT 10SM OVC037 M06/M13 A3007 730 57 -1600 290/07 RMK AO2
14837KMSN MSN20060212211009902/12/06 21:10:31  5-MIN KMSN 130310Z 30007KT 10SM OVC037 M06/M13 A3006 730 57 -1600 300/07 RMK AO2
14837KMSN MSN20060212211509902/12/06 21:15:31  5-MIN KMSN 130315Z 30006KT 10SM OVC037 M06/M13 A3006 730 57 -1600 300/06 RMK AO2
14837KMSN MSN20060212212009902/12/06 21:20:31  5-MIN KMSN 130320Z 29007KT 10SM OVC037 M06/M13 A3007 730 57 -1600 290/07 RMK AO2
14837KMSN MSN20060212212509902/12/06 21:25:31  5-MIN KMSN 130325Z 30005KT 10SM OVC037 M06/M13 A3007 730 57 -1600 290/05 RMK AO2
14837KMSN MSN20060212213009902/12/06 21:30:31  5-MIN KMSN 130330Z 31008KT 10SM OVC037 M06/M13 A3006 730 57 -1600 310/08 RMK AO2
14837KMSN MSN20060212213509902/12/06 21:35:31  5-MIN KMSN 130335Z 30006KT 10SM OVC035 M06/M13 A3006 730 57 -1600 300/06 RMK AO2
14837KMSN MSN20060212214009902/12/06 21:40:31  5-MIN KMSN 130340Z 30006KT 10SM OVC035 M06/M13 A3006 730 57 -1600 290/06 RMK AO2
14837KMSN MSN20060212214509902/12/06 21:45:31  5-MIN KMSN 130345Z 30006KT 10SM OVC035 M06/M13 A3006 740 57 -1600 300/06 RMK AO2
14837KMSN MSN20060212215011602/12/06 21:50:31  5-MIN KMSN 130350Z 30007KT 10SM OVC035 M06/M13 A3006 740 57 -1600 300/07 RMK AO2 SLP192 T10611133
14837KMSN MSN20060212215509902/12/06 21:55:31  5-MIN KMSN 130355Z 31008KT 10SM BKN035 M07/M14 A3006 740 57 -1700 310/08 RMK AO2
14837KMSN MSN20060212220009902/12/06 22:00:31  5-MIN KMSN 130400Z 31006KT 10SM BKN035 M07/M14 A3006 740 57 -1700 310/06 RMK AO2
14837KMSN MSN20060212220509902/12/06 22:05:31  5-MIN KMSN 130405Z 30005KT 10SM BKN035 M07/M13 A3005 740 59 -1700 300/05 RMK AO2
14837KMSN MSN20060212221009902/12/06 22:10:31  5-MIN KMSN 130410Z 30006KT 10SM BKN035 M07/M13 A3005 740 62 -1700 300/06 RMK AO2
14837KMSN MSN20060212221509902/12/06 22:15:31  5-MIN KMSN 130415Z 30004KT 10SM BKN033 M07/M13 A3005 740 59 -1700 300/04 RMK AO2
14837KMSN MSN20060212222009902/12/06 22:20:31  5-MIN KMSN 130420Z 30006KT 10SM BKN033 M07/M13 A3005 740 59 -1700 300/06 RMK AO2
14837KMSN MSN20060212222509902/12/06 22:25:31  5-MIN KMSN 130425Z 29004KT 10SM BKN033 M07/M13 A3005 740 59 -1700 290/04 RMK AO2
14837KMSN MSN20060212223009902/12/06 22:30:31  5-MIN KMSN 130430Z VRB05KT 10SM OVC033 M07/M13 A3005 750 62 -1700 VRB/05 RMK AO2
14837KMSN MSN20060212223509902/12/06 22:35:31  5-MIN KMSN 130435Z 29005KT 10SM BKN033 M07/M13 A3005 750 62 -1700 290/05 RMK AO2
14837KMSN MSN20060212224009902/12/06 22:40:31  5-MIN KMSN 130440Z 29005KT 10SM BKN033 M07/M13 A3005 740 62 -1700 290/05 RMK AO2
14837KMSN MSN20060212224509902/12/06 22:45:31  5-MIN KMSN 130445Z 29005KT 10SM SCT033 M07/M13 A3005 740 62 -1700 280/05 RMK AO2
14837KMSN MSN20060212225011602/12/06 22:50:31  5-MIN KMSN 130450Z 30006KT 10SM SCT033 M07/M13 A3005 740 62 -1700 300/06 RMK AO2 SLP189 T10721133
14837KMSN MSN20060212225509902/12/06 22:55:31  5-MIN KMSN 130455Z 29004KT 10SM FEW033 M08/M13 A3005 740 64 -1800 290/04 RMK AO2
14837KMSN MSN20060213230509802/13/06 23:05:31  5-MIN KMSN 140505Z 00000KT 10SM OVC029 M03/M07 A2979 990 71 -900 000/00 RMK AO2
14837KMSN MSN20060213231009802/13/06 23:10:31  5-MIN KMSN 140510Z 00000KT 10SM OVC029 M03/M07 A2979 980 71 -900 000/00 RMK AO2
14837KMSN MSN20060213231509802/13/06 23:15:31  5-MIN KMSN 140515Z 00000KT 10SM OVC029 M03/M07 A2979 980 71 -900 000/00 RMK AO2
14837KMSN MSN20060213232009802/13/06 23:20:31  5-MIN KMSN 140520Z 00000KT 10SM OVC029 M03/M07 A2979 990 75 -900 000/00 RMK AO2
14837KMSN MSN20060213232509802/13/06 23:25:31  5-MIN KMSN 140525Z 00000KT 10SM OVC029 M03/M06 A2978 990 78 -900 000/00 RMK AO2
14837KMSN MSN20060213233009902/13/06 23:30:31  5-MIN KMSN 140530Z 00000KT 10SM OVC029 M03/M06 A2978 1000 78 -900 000/00 RMK AO2
14837KMSN MSN20060213233509802/13/06 23:35:31  5-MIN KMSN 140535Z 00000KT 10SM OVC029 M03/M07 A2978 990 78 -900 000/00 RMK AO2
14837KMSN MSN20060213234010002/13/06 23:40:31  5-MIN KMSN 140540Z 00000KT 10SM OVC029 M04/M07 A2978 1000 81 -1000 000/00 RMK AO2
14837KMSN MSN20060213234509902/13/06 23:45:31  5-MIN KMSN 140545Z 00000KT 10SM OVC029 M03/M07 A2978 1000 74 -900 000/00 RMK AO2
14837KMSN MSN20060213235014302/13/06 23:50:31  5-MIN KMSN 140550Z 00000KT 10SM BKN029 M03/M07 A2977 1000 71 -800 000/00 RMK AO2 SLPNO T10281072 10011 21039 400281039 51020
14837KMSN MSN20060213235509902/13/06 23:55:31  5-MIN KMSN 140555Z 00000KT 10SM BKN029 M03/M07 A2977 1000 74 -900 000/00 RMK AO2
14837KMSN MSN20060214000010002/14/06 00:00:38  5-MIN KMSN 140600Z 00000KT 10SM BKN029 M04/M07 A2977 1000 78 -1000 000/00 RMK AO2
14837KMSN MSN20060214000510002/14/06 00:05:31  5-MIN KMSN 140605Z 00000KT 10SM SCT029 M04/M07 A2977 1000 78 -1000 000/00 RMK AO2
14837KMSN MSN20060214001010002/14/06 00:10:31  5-MIN KMSN 140610Z 00000KT 10SM FEW029 M04/M08 A2977 1000 78 -1100 000/00 RMK AO2
14837KMSN MSN20060214001510002/14/06 00:15:31  5-MIN KMSN 140615Z 00000KT 10SM FEW029 M04/M08 A2978 1000 78 -1100 000/00 RMK AO2
14837KMSN MSN20060214002010002/14/06 00:20:31  5-MIN KMSN 140620Z 00000KT 10SM FEW029 M04/M08 A2978 1000 78 -1100 000/00 RMK AO2
14837KMSN MSN20060214002509502/14/06 00:25:31  5-MIN KMSN 140625Z 00000KT 9SM CLR M04/M08 A2978 990 78 -1100 000/00 RMK AO2
14837KMSN MSN20060214003009502/14/06 00:30:31  5-MIN KMSN 140630Z 00000KT 9SM CLR M05/M08 A2978 990 81 -1100 000/00 RMK AO2
14837KMSN MSN20060214003509802/14/06 00:35:31  5-MIN KMSN 140635Z 00000KT 9SM FEW026 M06/M08 A2978 990 84 -1200 000/00 RMK AO2
14837KMSN MSN20060214004009802/14/06 00:40:31  5-MIN KMSN 140640Z 00000KT 9SM SCT026 M04/M08 A2978 990 78 -1100 000/00 RMK AO2
14837KMSN MSN20060214004509802/14/06 00:45:31  5-MIN KMSN 140645Z 00000KT 9SM BKN026 M04/M07 A2978 990 81 -1100 000/00 RMK AO2
14837KMSN MSN20060214005011402/14/06 00:50:31  5-MIN KMSN 140650Z 00000KT 9SM BKN026 M04/M07 A2978 990 81 -1100 000/00 RMK AO2 SLPNO T10441072
14837KMSN MSN20060214005509902/14/06 00:55:31  5-MIN KMSN 140655Z 00000KT 9SM BKN026 M05/M07 A2978 1000 84 -1100 000/00 RMK AO2
14837KMSN MSN20060214010009902/14/06 01:00:31  5-MIN KMSN 140700Z 00000KT 9SM OVC026 M05/M07 A2978 1000 84 -1100 000/00 RMK AO2
14837KMSN MSN20060214010509902/14/06 01:05:31  5-MIN KMSN 140705Z 00000KT 9SM BKN026 M05/M08 A2978 1000 81 -1100 000/00 RMK AO2
14837KMSN MSN20060214011009902/14/06 01:10:31  5-MIN KMSN 140710Z 00000KT 9SM BKN026 M05/M07 A2978 1000 84 -1100 000/00 RMK AO2
14837KMSN MSN20060214011509902/14/06 01:15:31  5-MIN KMSN 140715Z 00000KT 8SM BKN026 M06/M07 A2978 1000 88 -1200 000/00 RMK AO2
14837KMSN MSN20060214012009902/14/06 01:20:31  5-MIN KMSN 140720Z 00000KT 8SM OVC026 M06/M07 A2977 1000 88 -1200 000/00 RMK AO2
14837KMSN MSN20060214012509902/14/06 01:25:31  5-MIN KMSN 140725Z 00000KT 8SM BKN026 M06/M07 A2977 1000 88 -1200 000/00 RMK AO2
14837KMSN MSN20060214013009902/14/06 01:30:31  5-MIN KMSN 140730Z 00000KT 8SM BKN026 M06/M08 A2977 1000 84 -1200 000/00 RMK AO2
14837KMSN MSN20060214013509902/14/06 01:35:31  5-MIN KMSN 140735Z 00000KT 8SM BKN026 M06/M08 A2978 1000 84 -1200 000/00 RMK AO2
14837KMSN MSN20060214014009802/14/06 01:40:31  5-MIN KMSN 140740Z 29003KT 8SM SCT026 M06/M08 A2978 990 88 -1300 290/03 RMK AO2
14837KMSN MSN20060214014509802/14/06 01:45:31  5-MIN KMSN 140745Z 27003KT 8SM FEW026 M06/M08 A2978 990 84 -1200 270/03 RMK AO2
14837KMSN MSN20060214015011502/14/06 01:50:31  5-MIN KMSN 140750Z VRB03KT 8SM FEW026 M04/M07 A2978 1000 81 -1100 VRB/03 RMK AO2 SLPNO T10441072
14837KMSN MSN20060214015509502/14/06 01:55:31  5-MIN KMSN 140755Z 23003KT 8SM CLR M03/M07 A2977 1000 75 -800 230/03 RMK AO2
14837KMSN MSN20060214020009502/14/06 02:00:31  5-MIN KMSN 140800Z 00000KT 8SM CLR M03/M07 A2978 1000 75 -900 000/00 RMK AO2
14837KMSN MSN20060214020509502/14/06 02:05:31  5-MIN KMSN 140805Z 24004KT 8SM CLR M03/M07 A2978 1000 74 -900 240/04 RMK AO2
14837KMSN MSN20060214021009502/14/06 02:10:31  5-MIN KMSN 140810Z 00000KT 7SM CLR M03/M07 A2977 1000 75 -800 000/00 RMK AO2
14837KMSN MSN20060214021509502/14/06 02:15:31  5-MIN KMSN 140815Z 00000KT 7SM CLR M03/M07 A2977 1000 75 -800 000/00 RMK AO2
14837KMSN MSN20060214022009502/14/06 02:20:31  5-MIN KMSN 140820Z 00000KT 7SM CLR M03/M07 A2977 1000 75 -800 000/00 RMK AO2
14837KMSN MSN20060214022509502/14/06 02:25:31  5-MIN KMSN 140825Z 23003KT 7SM CLR M03/M07 A2977 1010 75 -800 230/03 RMK AO2
14837KMSN MSN20060214023009502/14/06 02:30:31  5-MIN KMSN 140830Z 23003KT 7SM CLR M03/M07 A2977 1010 75 -800 230/03 RMK AO2
14837KMSN MSN20060214023509502/14/06 02:35:31  5-MIN KMSN 140835Z 23003KT 7SM CLR M03/M07 A2977 1010 78 -900 230/03 RMK AO2
14837KMSN MSN20060214024009502/14/06 02:40:31  5-MIN KMSN 140840Z 00000KT 7SM CLR M03/M07 A2977 1010 78 -900 000/00 RMK AO2
14837KMSN MSN20060214024509602/14/06 02:45:31  5-MIN KMSN 140845Z 00000KT 7SM CLR M04/M07 A2977 1000 78 -1000 000/00 RMK AO2
14837KMSN MSN20060214025011802/14/06 02:50:31  5-MIN KMSN 140850Z 00000KT 7SM CLR M03/M07 A2977 1000 75 -800 000/00 RMK AO2 SLP091 T10281067 58001
14837KMSN MSN20060214025509602/14/06 02:55:31  5-MIN KMSN 140855Z 00000KT 7SM CLR M04/M07 A2977 1000 81 -1000 000/00 RMK AO2
14837KMSN MSN20060214030009502/14/06 03:00:31  5-MIN KMSN 140900Z 00000KT 7SM CLR M03/M07 A2977 1000 78 -900 000/00 RMK AO2
14837KMSN MSN20060214030509502/14/06 03:05:31  5-MIN KMSN 140905Z 00000KT 7SM CLR M03/M07 A2978 1000 78 -900 000/00 RMK AO2
14837KMSN MSN20060214031009602/14/06 03:10:31  5-MIN KMSN 140910Z 00000KT 7SM CLR M04/M07 A2977 1000 78 -1000 000/00 RMK AO2
14837KMSN MSN20060214031509502/14/06 03:15:31  5-MIN KMSN 140915Z 00000KT 7SM CLR M03/M07 A2977 1000 74 -900 000/00 RMK AO2
14837KMSN MSN20060214032009502/14/06 03:20:31  5-MIN KMSN 140920Z 00000KT 7SM CLR M03/M07 A2977 1000 78 -900 000/00 RMK AO2
14837KMSN MSN20060214032509602/14/06 03:25:31  5-MIN KMSN 140925Z 21003KT 7SM CLR M04/M07 A2977 1010 81 -1000 210/03 RMK AO2
14837KMSN MSN20060214033009502/14/06 03:30:31  5-MIN KMSN 140930Z 20004KT 7SM CLR M03/M07 A2976 1010 78 -900 200/04 RMK AO2
14837KMSN MSN20060214033510202/14/06 03:35:31  5-MIN KMSN 140935Z 20004KT 7SM CLR M03/M07 A2975 1020 78 -900 200/04 RMK AO2 PRESFR
14837KMSN MSN20060214034009502/14/06 03:40:31  5-MIN KMSN 140940Z 21005KT 7SM CLR M03/M06 A2975 1030 78 -800 210/05 RMK AO2
14837KMSN MSN20060214034509502/14/06 03:45:31  5-MIN KMSN 140945Z 22004KT 7SM CLR M03/M06 A2974 1030 78 -800 220/04 RMK AO2
14837KMSN MSN20060214035011202/14/06 03:50:31  5-MIN KMSN 140950Z 22006KT 7SM CLR M03/M06 A2975 1030 78 -800 220/06 RMK AO2 SLP083 T10281061
14837KMSN MSN20060214035509502/14/06 03:55:31  5-MIN KMSN 140955Z 24005KT 7SM CLR M03/M06 A2975 1020 78 -800 240/05 RMK AO2
14837KMSN MSN20060214040009502/14/06 04:00:31  5-MIN KMSN 141000Z VRB04KT 7SM CLR M03/M06 A2975 1020 78 -800 VRB/04 RMK AO2
14837KMSN MSN20060214040509802/14/06 04:05:31  5-MIN KMSN 141005Z 24005KT 7SM FEW018 M03/M06 A2975 1020 78 -800 240/05 RMK AO2
14837KMSN MSN20060214041009802/14/06 04:10:31  5-MIN KMSN 141010Z 23004KT 7SM SCT018 M03/M06 A2975 1020 78 -800 230/04 RMK AO2
14837KMSN MSN20060214041509802/14/06 04:15:31  5-MIN KMSN 141015Z 24007KT 7SM BKN018 M03/M06 A2975 1020 78 -800 240/07 RMK AO2
14837KMSN MSN20060214042009802/14/06 04:20:31  5-MIN KMSN 141020Z 24006KT 7SM BKN018 M03/M06 A2975 1020 78 -800 230/06 RMK AO2
14837KMSN MSN20060214042509802/14/06 04:25:31  5-MIN KMSN 141025Z 24005KT 7SM BKN018 M03/M06 A2975 1020 78 -800 240/05 RMK AO2
14837KMSN MSN20060214043009802/14/06 04:30:31  5-MIN KMSN 141030Z VRB05KT 7SM BKN018 M03/M06 A2976 1020 78 -800 VRB/05 RMK AO2
14837KMSN MSN20060214043509802/14/06 04:35:31  5-MIN KMSN 141035Z VRB04KT 7SM BKN018 M03/M06 A2976 1020 78 -800 VRB/04 RMK AO2
14837KMSN MSN20060214044009802/14/06 04:40:31  5-MIN KMSN 141040Z VRB06KT 7SM SCT016 M03/M06 A2976 1010 78 -800 VRB/06 RMK AO2
14837KMSN MSN20060214044511402/14/06 04:45:31  5-MIN KMSN 141045Z 25007KT 210V280 7SM FEW016 M03/M06 A2976 1010 78 -800 240/07 210V280 RMK AO2
14837KMSN MSN20060214045011502/14/06 04:50:31  5-MIN KMSN 141050Z VRB06KT 7SM FEW016 M03/M06 A2976 1020 78 -800 VRB/06 RMK AO2 SLP086 T10281061
14837KMSN MSN20060214045511102/14/06 04:55:31  5-MIN KMSN 141055Z 23007KT 210V270 7SM CLR M03/M06 A2976 1020 78 -800 230/07 210V270 RMK AO2
14837KMSN MSN20060214050009502/14/06 05:00:31  5-MIN KMSN 141100Z 22006KT 7SM CLR M03/M06 A2975 1020 81 -800 220/06 RMK AO2
14837KMSN MSN20060214050509502/14/06 05:05:31  5-MIN KMSN 141105Z 22004KT 7SM CLR M03/M06 A2976 1020 81 -800 220/04 RMK AO2
14837KMSN MSN20060214051009502/14/06 05:10:31  5-MIN KMSN 141110Z VRB04KT 7SM CLR M03/M06 A2976 1020 81 -800 VRB/04 RMK AO2
14837KMSN MSN20060214051509502/14/06 05:15:31  5-MIN KMSN 141115Z 22004KT 7SM CLR M03/M06 A2976 1020 81 -800 220/04 RMK AO2
14837KMSN MSN20060214052009502/14/06 05:20:31  5-MIN KMSN 141120Z 22006KT 7SM CLR M03/M06 A2975 1020 81 -800 220/06 RMK AO2
14837KMSN MSN20060214052509502/14/06 05:25:31  5-MIN KMSN 141125Z 23006KT 7SM CLR M03/M06 A2976 1020 81 -800 230/06 RMK AO2
14837KMSN MSN20060214053009502/14/06 05:30:31  5-MIN KMSN 141130Z 23007KT 7SM CLR M03/M06 A2976 1010 81 -800 230/07 RMK AO2
14837KMSN MSN20060214053509802/14/06 05:35:31  5-MIN KMSN 141135Z 24007KT 6SM HZ CLR M03/M06 A2976 1020 81 -800 230/07 RMK AO2
14837KMSN MSN20060214054011402/14/06 05:40:31  5-MIN KMSN 141140Z 23007KT 190V260 6SM HZ CLR M03/M06 A2975 1020 81 -800 230/07 190V260 RMK AO2
14837KMSN MSN20060214054510102/14/06 05:45:31  5-MIN KMSN 141145Z 22006KT 6SM HZ FEW110 M03/M06 A2975 1020 81 -800 220/06 RMK AO2
14837KMSN MSN20060214055013602/14/06 05:50:31  5-MIN KMSN 141150Z 21005KT 6SM HZ SCT100 M03/M06 A2975 1030 81 -800 210/05 RMK AO2 SLP083 T10281056 11028 21061 58003
14837KMSN MSN20060214055510802/14/06 05:55:31  5-MIN KMSN 141155Z 21004KT 6SM HZ SCT100 SCT120 M03/M06 A2975 1030 81 -800 210/04 RMK AO2
14837KMSN MSN20060214060011002/14/06 06:00:31  5-MIN KMSN 141200Z 21005KT 6SM HZ SCT100 SCT120 M03/M06 A2975 1020 81 -800 210/05 RMK AO2 $
14837KMSN MSN20060214060511002/14/06 06:05:31  5-MIN KMSN 141205Z 22007KT 6SM HZ FEW100 SCT120 M03/M06 A2976 1020 81 -800 220/07 RMK AO2 $
14837KMSN MSN20060214061010302/14/06 06:10:31  5-MIN KMSN 141210Z VRB06KT 6SM HZ SCT100 M03/M06 A2976 1010 81 -800 VRB/06 RMK AO2 $
14837KMSN MSN20060214061510302/14/06 06:15:31  5-MIN KMSN 141215Z 21005KT 6SM HZ BKN100 M03/M06 A2975 1020 81 -800 210/05 RMK AO2 $
14837KMSN MSN20060214062010302/14/06 06:20:31  5-MIN KMSN 141220Z 22005KT 6SM HZ SCT100 M03/M06 A2976 1020 78 -800 220/05 RMK AO2 $
14837KMSN MSN20060214062510302/14/06 06:25:31  5-MIN KMSN 141225Z 21008KT 6SM HZ FEW110 M03/M06 A2976 1020 78 -800 200/08 RMK AO2 $
14837KMSN MSN20060214063010302/14/06 06:30:31  5-MIN KMSN 141230Z 22007KT 6SM HZ FEW110 M03/M06 A2976 1010 78 -800 220/07 RMK AO2 $
14837KMSN MSN20060214063510302/14/06 06:35:31  5-MIN KMSN 141235Z VRB06KT 6SM HZ FEW110 M03/M06 A2976 1010 81 -900 VRB/06 RMK AO2 $
14837KMSN MSN20060214064010302/14/06 06:40:31  5-MIN KMSN 141240Z 21006KT 6SM HZ FEW110 M03/M06 A2976 1010 81 -900 210/06 RMK AO2 $
14837KMSN MSN20060214064510002/14/06 06:45:31  5-MIN KMSN 141245Z 21007KT 6SM HZ CLR M03/M06 A2977 1010 81 -900 210/07 RMK AO2 $
14837KMSN MSN20060214065012002/14/06 06:50:31  5-MIN KMSN 141250Z VRB06KT 6SM HZ FEW120 M03/M06 A2977 1000 81 -900 VRB/06 RMK AO2 SLP091 T10331061 $
14837KMSN MSN20060214065510302/14/06 06:55:31  5-MIN KMSN 141255Z 22007KT 6SM HZ SCT110 M03/M06 A2977 1010 81 -900 220/07 RMK AO2 $
14837KMSN MSN20060214070010302/14/06 07:00:31  5-MIN KMSN 141300Z 22006KT 5SM HZ SCT120 M03/M06 A2977 1010 81 -900 220/06 RMK AO2 $
14837KMSN MSN20060214070510902/14/06 07:05:31  5-MIN KMSN 141305Z 22009G14KT 5SM HZ SCT120 M03/M06 A2977 1010 81 -900 220/09G14 RMK AO2 $
14837KMSN MSN20060214071011902/14/06 07:10:31  5-MIN KMSN 141310Z 23007KT 200V270 5SM HZ BKN110 M03/M06 A2977 1010 81 -900 220/07 200V270 RMK AO2 $
14837KMSN MSN20060214071510302/14/06 07:15:31  5-MIN KMSN 141315Z 22007KT 5SM HZ BKN110 M03/M06 A2976 1010 81 -900 220/07 RMK AO2 $
14837KMSN MSN20060214072010302/14/06 07:20:31  5-MIN KMSN 141320Z 23008KT 5SM HZ BKN110 M03/M06 A2977 1010 81 -900 220/08 RMK AO2 $
14837KMSN MSN20060214072510102/14/06 07:25:31  5-MIN KMSN 141325Z 21006KT 5SM HZ SCT110 M03/M06 A2977 1000 81 -900 210/06 RMK AO2
14837KMSN MSN20060214073010102/14/06 07:30:31  5-MIN KMSN 141330Z 22007KT 6SM HZ SCT110 M03/M06 A2977 1000 81 -900 220/07 RMK AO2
14837KMSN MSN20060214073510102/14/06 07:35:31  5-MIN KMSN 141335Z 24007KT 6SM HZ SCT110 M03/M06 A2978 1000 81 -900 230/07 RMK AO2
14837KMSN MSN20060214074010102/14/06 07:40:31  5-MIN KMSN 141340Z 23007KT 6SM HZ SCT110 M03/M06 A2978 1000 81 -900 230/07 RMK AO2
14837KMSN MSN20060214074510002/14/06 07:45:31  5-MIN KMSN 141345Z 22007KT 6SM HZ FEW110 M03/M06 A2978 990 78 -900 220/07 RMK AO2
14837KMSN MSN20060214075011702/14/06 07:50:31  5-MIN KMSN 141350Z VRB05KT 6SM HZ SCT120 M03/M06 A2978 990 78 -900 VRB/05 RMK AO2 SLP095 T10281061
14837KMSN MSN20060214075511602/14/06 07:55:31  5-MIN KMSN 141355Z 22007KT 210V270 6SM HZ SCT120 M03/M06 A2978 990 78 -900 220/07 210V270 RMK AO2
14837KMSN MSN20060214080010002/14/06 08:00:31  5-MIN KMSN 141400Z 23006KT 6SM HZ FEW120 M03/M06 A2978 990 78 -900 230/06 RMK AO2
14837KMSN MSN20060214080509802/14/06 08:05:31  5-MIN KMSN 141405Z 23006KT 7SM FEW120 M03/M06 A2978 1000 81 -900 220/06 RMK AO2
14837KMSN MSN20060214081009802/14/06 08:10:31  5-MIN KMSN 141410Z 23007KT 7SM FEW120 M03/M06 A2978 1000 78 -900 230/07 RMK AO2
14837KMSN MSN20060214081509802/14/06 08:15:31  5-MIN KMSN 141415Z 23007KT 7SM FEW120 M02/M06 A2978 1000 78 -800 230/07 RMK AO2
14837KMSN MSN20060214082009502/14/06 08:20:31  5-MIN KMSN 141420Z 23009KT 7SM CLR M02/M06 A2978 1000 78 -800 230/09 RMK AO2
14837KMSN MSN20060214082511402/14/06 08:25:31  5-MIN KMSN 141425Z 24007KT 210V270 7SM FEW110 M02/M06 A2978 1000 75 -800 240/07 210V270 RMK AO2
14837KMSN MSN20060214083009802/14/06 08:30:31  5-MIN KMSN 141430Z 24008KT 8SM SCT110 M02/M06 A2978 1000 78 -800 240/08 RMK AO2
14837KMSN MSN20060214083509802/14/06 08:35:31  5-MIN KMSN 141435Z VRB06KT 8SM SCT110 M02/M06 A2978 1000 75 -700 VRB/06 RMK AO2
14837KMSN MSN20060214084009802/14/06 08:40:31  5-MIN KMSN 141440Z 24008KT 8SM SCT110 M02/M06 A2977 1000 75 -700 230/08 RMK AO2
14837KMSN MSN20060214084509802/14/06 08:45:31  5-MIN KMSN 141445Z 23007KT 8SM BKN110 M01/M06 A2976 1010 72 -600 230/07 RMK AO2
14837KMSN MSN20060214085012102/14/06 08:50:31  5-MIN KMSN 141450Z 23007KT 8SM BKN110 M01/M06 A2977 1000 72 -600 230/07 RMK AO2 SLP090 T10111056 56008
14837KMSN MSN20060214085509802/14/06 08:55:31  5-MIN KMSN 141455Z 21008KT 8SM BKN120 M01/M06 A2977 1010 72 -600 210/08 RMK AO2
14837KMSN MSN20060214090009802/14/06 09:00:31  5-MIN KMSN 141500Z 22010KT 8SM SCT120 M01/M06 A2977 1000 72 -600 220/10 RMK AO2
14837KMSN MSN20060214090509802/14/06 09:05:31  5-MIN KMSN 141505Z 23009KT 9SM SCT110 M01/M06 A2977 1000 69 -600 230/09 RMK AO2
14837KMSN MSN20060214091009702/14/06 09:10:31  5-MIN KMSN 141510Z 22010KT 9SM BKN110 00/M06 A2977 1000 66 -500 220/10 RMK AO2
14837KMSN MSN20060214091509702/14/06 09:15:31  5-MIN KMSN 141515Z 22011KT 9SM BKN110 00/M06 A2977 1000 66 -500 220/11 RMK AO2
14837KMSN MSN20060214092009702/14/06 09:20:31  5-MIN KMSN 141520Z 22010KT 9SM SCT110 00/M06 A2978 1000 66 -500 220/10 RMK AO2
14837KMSN MSN20060214092510302/14/06 09:25:31  5-MIN KMSN 141525Z 24010G17KT 9SM BKN110 00/M06 A2977 1000 66 -500 240/10G17 RMK AO2
14837KMSN MSN20060214093010402/14/06 09:30:31  5-MIN KMSN 141530Z 23012G18KT 10SM BKN110 00/M06 A2977 1000 66 -500 230/12G18 RMK AO2
14837KMSN MSN20060214093510302/14/06 09:35:31  5-MIN KMSN 141535Z 23012G18KT 9SM SCT110 00/M06 A2978 1000 66 -500 230/12G18 RMK AO2
14837KMSN MSN20060214094009702/14/06 09:40:31  5-MIN KMSN 141540Z 23009KT 9SM FEW110 00/M06 A2978 1000 66 -500 230/09 RMK AO2
14837KMSN MSN20060214094509702/14/06 09:45:31  5-MIN KMSN 141545Z 23010KT 9SM FEW110 00/M06 A2978 1000 66 -500 230/10 RMK AO2
14837KMSN MSN20060214095011402/14/06 09:50:31  5-MIN KMSN 141550Z 23009KT 9SM FEW110 00/M05 A2978 1000 69 -500 230/09 RMK AO2 SLP094 T00001050
14837KMSN MSN20060214095509702/14/06 09:55:31  5-MIN KMSN 141555Z 23009KT 9SM FEW110 00/M05 A2977 1000 69 -500 230/09 RMK AO2
14837KMSN MSN20060214100009702/14/06 10:00:31  5-MIN KMSN 141600Z 23009KT 9SM FEW110 01/M05 A2977 1000 66 -400 230/09 RMK AO2
14837KMSN MSN20060214100509702/14/06 10:05:31  5-MIN KMSN 141605Z 23010KT 9SM FEW110 01/M05 A2977 1010 66 -400 230/10 RMK AO2
14837KMSN MSN20060214101009702/14/06 10:10:31  5-MIN KMSN 141610Z 22010KT 9SM FEW110 01/M05 A2976 1010 66 -400 220/10 RMK AO2
14837KMSN MSN20060214101511402/14/06 10:15:31  5-MIN KMSN 141615Z 22008KT 190V250 10SM FEW110 01/M05 A2976 1010 64 -300 220/08 190V250 RMK AO2
14837KMSN MSN20060214102009502/14/06 10:20:31  5-MIN KMSN 141620Z 22009KT 10SM CLR 02/M05 A2976 1020 61 -300 220/09 RMK AO2
14837KMSN MSN20060214102509502/14/06 10:25:31  5-MIN KMSN 141625Z 21009KT 10SM CLR 02/M04 A2975 1020 64 -300 210/09 RMK AO2
14837KMSN MSN20060214103009502/14/06 10:30:31  5-MIN KMSN 141630Z 20008KT 10SM CLR 02/M04 A2975 1020 64 -300 200/08 RMK AO2
14837KMSN MSN20060214103509502/14/06 10:35:31  5-MIN KMSN 141635Z 21007KT 10SM CLR 02/M04 A2975 1020 61 -200 210/07 RMK AO2
14837KMSN MSN20060214104009502/14/06 10:40:31  5-MIN KMSN 141640Z 20007KT 10SM CLR 02/M04 A2975 1020 61 -200 200/07 RMK AO2
14837KMSN MSN20060214104509402/14/06 10:45:31  5-MIN KMSN 141645Z 21007KT 9SM CLR 02/M04 A2975 1020 61 -200 210/07 RMK AO2
14837KMSN MSN20060214105011102/14/06 10:50:31  5-MIN KMSN 141650Z 21009KT 9SM CLR 03/M04 A2975 1020 59 -100 210/09 RMK AO2 SLP083 T00281044
14837KMSN MSN20060214105509402/14/06 10:55:31  5-MIN KMSN 141655Z 21007KT 9SM CLR 03/M04 A2975 1030 59 -100 210/07 RMK AO2
14837KMSN MSN20060214110009402/14/06 11:00:31  5-MIN KMSN 141700Z 21008KT 9SM CLR 03/M04 A2975 1030 59 -100 210/08 RMK AO2
14837KMSN MSN20060214110509502/14/06 11:05:31  5-MIN KMSN 141705Z 20009KT 10SM CLR 03/M04 A2974 1030 61 -100 200/09 RMK AO2
14837KMSN MSN20060214111009202/14/06 11:10:31  5-MIN KMSN 141710Z 20008KT 10SM CLR 03/M04 A2974 1030 59 0 200/08 RMK AO2
14837KMSN MSN20060214111509202/14/06 11:15:31  5-MIN KMSN 141715Z 20010KT 10SM CLR 03/M04 A2974 1030 59 0 200/10 RMK AO2
14837KMSN MSN20060214112009202/14/06 11:20:31  5-MIN KMSN 141720Z 20010KT 10SM CLR 03/M04 A2974 1030 59 0 200/10 RMK AO2
14837KMSN MSN20060214112509202/14/06 11:25:31  5-MIN KMSN 141725Z 20009KT 10SM CLR 04/M04 A2974 1030 57 0 200/09 RMK AO2
14837KMSN MSN20060214113009202/14/06 11:30:31  5-MIN KMSN 141730Z 21010KT 10SM CLR 04/M04 A2974 1030 57 0 210/10 RMK AO2
14837KMSN MSN20060214113509202/14/06 11:35:31  5-MIN KMSN 141735Z 20008KT 10SM CLR 04/M03 A2974 1030 57 0 200/08 RMK AO2
14837KMSN MSN20060214114009202/14/06 11:40:31  5-MIN KMSN 141740Z 21007KT 10SM CLR 04/M03 A2974 1030 57 0 210/07 RMK AO2
14837KMSN MSN20060214114509402/14/06 11:45:31  5-MIN KMSN 141745Z 20008KT 10SM CLR 05/M03 A2974 1040 55 100 200/08 RMK AO2
14837KMSN MSN20060214115012902/14/06 11:50:31  5-MIN KMSN 141750Z 21006KT 10SM CLR 06/M03 A2974 1040 53 200 210/06 RMK AO2 SLP077 T00561033 10056 21033 50007
14837KMSN MSN20060214115511002/14/06 11:55:31  5-MIN KMSN 141755Z 21007KT 180V260 10SM CLR 06/M03 A2974 1040 55 200 210/07 180V260 RMK AO2
14837KMSN MSN20060214120009702/14/06 12:00:31  5-MIN KMSN 141800Z 25007KT 10SM FEW110 06/M03 A2974 1030 53 300 250/07 RMK AO2
14837KMSN MSN20060214120509702/14/06 12:05:31  5-MIN KMSN 141805Z VRB05KT 10SM FEW110 06/M03 A2974 1030 53 300 VRB/05 RMK AO2
14837KMSN MSN20060214121009402/14/06 12:10:31  5-MIN KMSN 141810Z 23006KT 10SM CLR 06/M03 A2974 1040 53 300 230/06 RMK AO2
14837KMSN MSN20060214121509402/14/06 12:15:31  5-MIN KMSN 141815Z VRB05KT 10SM CLR 07/M03 A2973 1040 51 300 VRB/05 RMK AO2
14837KMSN MSN20060214122009402/14/06 12:20:31  5-MIN KMSN 141820Z 24007KT 10SM CLR 07/M03 A2973 1040 51 300 240/07 RMK AO2
14837KMSN MSN20060214122509402/14/06 12:25:31  5-MIN KMSN 141825Z 24006KT 10SM CLR 07/M03 A2973 1040 51 300 240/06 RMK AO2
14837KMSN MSN20060214123009402/14/06 12:30:31  5-MIN KMSN 141830Z 24005KT 10SM CLR 07/M03 A2972 1050 51 300 240/05 RMK AO2
14837KMSN MSN20060214123509402/14/06 12:35:31  5-MIN KMSN 141835Z 25006KT 10SM CLR 07/M03 A2972 1050 49 400 250/06 RMK AO2
14837KMSN MSN20060214124009402/14/06 12:40:31  5-MIN KMSN 141840Z VRB06KT 10SM CLR 07/M03 A2972 1050 49 400 VRB/06 RMK AO2
14837KMSN MSN20060214124509402/14/06 12:45:31  5-MIN KMSN 141845Z 25006KT 10SM CLR 07/M03 A2972 1050 49 400 250/06 RMK AO2
14837KMSN MSN20060214125011402/14/06 12:50:31  5-MIN KMSN 141850Z VRB03KT 10SM FEW110 08/M02 A2972 1050 49 500 VRB/03 RMK AO2 SLP072 T00781022
14837KMSN MSN20060214125509702/14/06 12:55:31  5-MIN KMSN 141855Z VRB06KT 10SM FEW100 08/M02 A2972 1050 49 500 VRB/06 RMK AO2
14837KMSN MSN20060214130009702/14/06 13:00:31  5-MIN KMSN 141900Z VRB05KT 10SM SCT100 08/M02 A2971 1060 47 500 VRB/05 RMK AO2
14837KMSN MSN20060214130509702/14/06 13:05:31  5-MIN KMSN 141905Z 25006KT 10SM BKN100 08/M02 A2971 1060 47 500 250/06 RMK AO2
14837KMSN MSN20060214131009702/14/06 13:10:31  5-MIN KMSN 141910Z 24008KT 10SM BKN100 09/M02 A2971 1060 45 600 230/08 RMK AO2
14837KMSN MSN20060214131509702/14/06 13:15:31  5-MIN KMSN 141915Z 25008KT 10SM BKN100 09/M02 A2971 1060 45 600 250/08 RMK AO2
14837KMSN MSN20060214132009702/14/06 13:20:31  5-MIN KMSN 141920Z 24009KT 10SM BKN100 09/M02 A2970 1070 44 700 240/09 RMK AO2
14837KMSN MSN20060214132509702/14/06 13:25:31  5-MIN KMSN 141925Z 23008KT 10SM BKN100 09/M02 A2970 1070 45 600 230/08 RMK AO2
14837KMSN MSN20060214133009702/14/06 13:30:31  5-MIN KMSN 141930Z 24006KT 10SM BKN100 09/M03 A2970 1070 42 700 240/06 RMK AO2
14837KMSN MSN20060214133509702/14/06 13:35:31  5-MIN KMSN 141935Z 25008KT 10SM BKN100 09/M03 A2970 1070 42 700 250/08 RMK AO2
14837KMSN MSN20060214134009702/14/06 13:40:31  5-MIN KMSN 141940Z 26008KT 10SM SCT100 09/M03 A2969 1070 43 600 250/08 RMK AO2
14837KMSN MSN20060214134509702/14/06 13:45:31  5-MIN KMSN 141945Z 25007KT 10SM SCT100 09/M03 A2969 1070 42 700 250/07 RMK AO2
14837KMSN MSN20060214135011402/14/06 13:50:31  5-MIN KMSN 141950Z VRB05KT 10SM SCT100 09/M03 A2969 1080 42 700 VRB/05 RMK AO2 SLP061 T00941028
14837KMSN MSN20060214135511302/14/06 13:55:31  5-MIN KMSN 141955Z 25007KT 230V290 10SM SCT100 10/M03 A2969 1080 40 800 250/07 230V290 RMK AO2
14837KMSN MSN20060214140011302/14/06 14:00:31  5-MIN KMSN 142000Z 25007KT 220V280 10SM FEW100 10/M03 A2969 1080 40 800 250/07 220V280 RMK AO2
14837KMSN MSN20060214140509702/14/06 14:05:31  5-MIN KMSN 142005Z 24008KT 10SM SCT100 10/M03 A2968 1080 40 800 240/08 RMK AO2
14837KMSN MSN20060214141011302/14/06 14:10:31  5-MIN KMSN 142010Z 23007KT 190V290 10SM SCT100 10/M03 A2968 1090 40 800 230/07 190V290 RMK AO2
14837KMSN MSN20060214141509702/14/06 14:15:31  5-MIN KMSN 142015Z 24006KT 10SM SCT100 10/M03 A2968 1090 40 800 240/06 RMK AO2
14837KMSN MSN20060214142009702/14/06 14:20:31  5-MIN KMSN 142020Z 23006KT 10SM SCT100 11/M02 A2968 1090 40 900 220/06 RMK AO2
14837KMSN MSN20060214142509702/14/06 14:25:31  5-MIN KMSN 142025Z VRB06KT 10SM SCT100 10/M02 A2967 1090 42 800 VRB/06 RMK AO2
14837KMSN MSN20060214143009702/14/06 14:30:31  5-MIN KMSN 142030Z 21006KT 10SM SCT100 11/M02 A2967 1100 40 900 210/06 RMK AO2
14837KMSN MSN20060214143509702/14/06 14:35:31  5-MIN KMSN 142035Z 23006KT 10SM SCT100 11/M02 A2967 1100 40 900 230/06 RMK AO2
14837KMSN MSN20060214144009702/14/06 14:40:31  5-MIN KMSN 142040Z 23005KT 10SM SCT100 11/M02 A2966 1100 40 900 230/05 RMK AO2
14837KMSN MSN20060214144509702/14/06 14:45:31  5-MIN KMSN 142045Z VRB05KT 10SM SCT100 11/M02 A2966 1100 40 900 VRB/05 RMK AO2
14837KMSN MSN20060214145012002/14/06 14:50:31  5-MIN KMSN 142050Z 24004KT 10SM SCT100 11/M02 A2966 1100 40 900 240/04 RMK AO2 SLP051 T01061022 58011
14837KMSN MSN20060214145509402/14/06 14:55:31  5-MIN KMSN 142055Z 25005KT 10SM CLR 11/M02 A2966 1110 39 900 240/05 RMK AO2
14837KMSN MSN20060214150009402/14/06 15:00:31  5-MIN KMSN 142100Z VRB05KT 10SM CLR 11/M02 A2966 1110 39 900 VRB/05 RMK AO2
14837KMSN MSN20060214150509502/14/06 15:05:31  5-MIN KMSN 142105Z VRB03KT 10SM CLR 12/M02 A2965 1110 38 1000 VRB/03 RMK AO2
14837KMSN MSN20060214151009802/14/06 15:10:31  5-MIN KMSN 142110Z VRB05KT 10SM FEW100 12/M02 A2965 1110 38 1000 VRB/05 RMK AO2
14837KMSN MSN20060214151509802/14/06 15:15:31  5-MIN KMSN 142115Z VRB06KT 10SM FEW100 12/M02 A2965 1120 38 1000 VRB/06 RMK AO2
14837KMSN MSN20060214152009802/14/06 15:20:31  5-MIN KMSN 142120Z 21005KT 10SM FEW100 12/M02 A2964 1120 38 1000 210/05 RMK AO2
14837KMSN MSN20060214152509802/14/06 15:25:31  5-MIN KMSN 142125Z 18008KT 10SM FEW100 12/M02 A2964 1120 38 1000 180/08 RMK AO2
14837KMSN MSN20060214153009802/14/06 15:30:31  5-MIN KMSN 142130Z 17008KT 10SM FEW100 12/M02 A2964 1120 39 1000 170/08 RMK AO2
14837KMSN MSN20060214153509802/14/06 15:35:31  5-MIN KMSN 142135Z 19006KT 10SM FEW100 12/M02 A2964 1120 38 1000 190/06 RMK AO2
14837KMSN MSN20060214154011102/14/06 15:40:31  5-MIN KMSN 142140Z 22007KT 160V260 10SM CLR 12/M02 A2964 1120 38 1000 220/07 160V260 RMK AO2
14837KMSN MSN20060214154509502/14/06 15:45:31  5-MIN KMSN 142145Z VRB06KT 10SM CLR 12/M03 A2964 1120 36 1000 VRB/06 RMK AO2
14837KMSN MSN20060214155011202/14/06 15:50:31  5-MIN KMSN 142150Z 21006KT 10SM CLR 12/M03 A2964 1130 36 1000 210/06 RMK AO2 SLP043 T01171028
14837KMSN MSN20060214155509502/14/06 15:55:31  5-MIN KMSN 142155Z 21005KT 10SM CLR 12/M03 A2964 1130 36 1000 210/05 RMK AO2
14837KMSN MSN20060214160009502/14/06 16:00:31  5-MIN KMSN 142200Z 20006KT 10SM CLR 12/M03 A2964 1130 36 1000 200/06 RMK AO2
14837KMSN MSN20060214160509502/14/06 16:05:31  5-MIN KMSN 142205Z 20007KT 10SM CLR 12/M02 A2964 1130 38 1000 200/07 RMK AO2
14837KMSN MSN20060214161009502/14/06 16:10:31  5-MIN KMSN 142210Z 21007KT 10SM CLR 11/M02 A2964 1130 39 1000 210/07 RMK AO2
14837KMSN MSN20060214161509502/14/06 16:15:31  5-MIN KMSN 142215Z 20007KT 10SM CLR 11/M02 A2964 1120 39 1000 200/07 RMK AO2
14837KMSN MSN20060214162009502/14/06 16:20:31  5-MIN KMSN 142220Z 20005KT 10SM CLR 12/M02 A2964 1120 38 1000 200/05 RMK AO2
14837KMSN MSN20060214162509502/14/06 16:25:31  5-MIN KMSN 142225Z 22005KT 10SM CLR 12/M02 A2964 1120 38 1000 220/05 RMK AO2
14837KMSN MSN20060214163009502/14/06 16:30:31  5-MIN KMSN 142230Z 25005KT 10SM CLR 12/M02 A2964 1120 38 1000 250/05 RMK AO2
14837KMSN MSN20060214163509502/14/06 16:35:31  5-MIN KMSN 142235Z 25004KT 10SM CLR 12/M02 A2965 1120 38 1000 250/04 RMK AO2
14837KMSN MSN20060214164009502/14/06 16:40:31  5-MIN KMSN 142240Z VRB03KT 10SM CLR 11/M02 A2965 1120 39 1000 VRB/03 RMK AO2
14837KMSN MSN20060214164509402/14/06 16:45:31  5-MIN KMSN 142245Z 33007KT 10SM CLR 11/M02 A2966 1110 40 900 330/07 RMK AO2
14837KMSN MSN20060214165011102/14/06 16:50:31  5-MIN KMSN 142250Z 34009KT 10SM CLR 09/M02 A2966 1110 45 700 340/09 RMK AO2 SLP051 T00941017
14837KMSN MSN20060214165509402/14/06 16:55:31  5-MIN KMSN 142255Z 34010KT 10SM CLR 09/M02 A2966 1100 47 700 340/10 RMK AO2
14837KMSN MSN20060214170009402/14/06 17:00:31  5-MIN KMSN 142300Z 35008KT 10SM CLR 08/M02 A2967 1100 49 600 350/08 RMK AO2
14837KMSN MSN20060214170509402/14/06 17:05:31  5-MIN KMSN 142305Z 35009KT 10SM CLR 08/M02 A2966 1100 51 500 350/09 RMK AO2
14837KMSN MSN20060214171009402/14/06 17:10:31  5-MIN KMSN 142310Z 35009KT 10SM CLR 08/M02 A2967 1100 49 500 350/09 RMK AO2
14837KMSN MSN20060214171509402/14/06 17:15:31  5-MIN KMSN 142315Z 35008KT 10SM CLR 07/M02 A2967 1100 51 500 350/08 RMK AO2
14837KMSN MSN20060214172009402/14/06 17:20:31  5-MIN KMSN 142320Z 34007KT 10SM CLR 07/M02 A2967 1100 53 400 340/07 RMK AO2
14837KMSN MSN20060214172509402/14/06 17:25:31  5-MIN KMSN 142325Z 34007KT 10SM CLR 07/M02 A2967 1100 53 400 340/07 RMK AO2
14837KMSN MSN20060214173009402/14/06 17:30:31  5-MIN KMSN 142330Z 34007KT 10SM CLR 07/M02 A2967 1100 53 400 340/07 RMK AO2
14837KMSN MSN20060214173509402/14/06 17:35:31  5-MIN KMSN 142335Z 34008KT 10SM CLR 06/M02 A2968 1090 55 300 330/08 RMK AO2
14837KMSN MSN20060214174009402/14/06 17:40:31  5-MIN KMSN 142340Z 35007KT 10SM CLR 06/M02 A2968 1090 55 300 350/07 RMK AO2
14837KMSN MSN20060214174509402/14/06 17:45:31  5-MIN KMSN 142345Z 36006KT 10SM CLR 05/M02 A2968 1090 59 200 360/06 RMK AO2
14837KMSN MSN20060214175012902/14/06 17:50:31  5-MIN KMSN 142350Z 01007KT 10SM CLR 04/M03 A2968 1090 59 100 010/07 RMK AO2 SLP059 T00441028 10117 20044 58025
14837KMSN MSN20060214175509202/14/06 17:55:31  5-MIN KMSN 142355Z 36008KT 10SM CLR 04/M03 A2968 1080 62 0 360/08 RMK AO2
14837KMSN MSN20060214180009202/14/06 18:00:31  5-MIN KMSN 150000Z 01007KT 10SM CLR 04/M03 A2969 1080 62 0 010/07 RMK AO2
14837KMSN MSN20060214180509202/14/06 18:05:31  5-MIN KMSN 150005Z 02006KT 10SM CLR 03/M03 A2969 1080 64 0 020/06 RMK AO2
14837KMSN MSN20060214181009502/14/06 18:10:31  5-MIN KMSN 150010Z 02008KT 10SM CLR 02/M03 A2970 1070 69 -100 020/08 RMK AO2
14837KMSN MSN20060214181509502/14/06 18:15:31  5-MIN KMSN 150015Z 01008KT 10SM CLR 03/M03 A2970 1070 67 -100 010/08 RMK AO2
14837KMSN MSN20060214182009502/14/06 18:20:31  5-MIN KMSN 150020Z 01008KT 10SM CLR 03/M03 A2970 1060 67 -100 010/08 RMK AO2
14837KMSN MSN20060214182509502/14/06 18:25:31  5-MIN KMSN 150025Z 01008KT 10SM CLR 03/M02 A2971 1060 69 -100 010/08 RMK AO2
14837KMSN MSN20060214183009502/14/06 18:30:31  5-MIN KMSN 150030Z 36006KT 10SM CLR 03/M03 A2971 1060 67 -100 360/06 RMK AO2
14837KMSN MSN20060214183509502/14/06 18:35:31  5-MIN KMSN 150035Z 01006KT 10SM CLR 03/M02 A2971 1060 69 -100 010/06 RMK AO2
14837KMSN MSN20060214184009502/14/06 18:40:31  5-MIN KMSN 150040Z 02004KT 10SM CLR 02/M03 A2971 1060 69 -100 020/04 RMK AO2
14837KMSN MSN20060214184509502/14/06 18:45:31  5-MIN KMSN 150045Z 02004KT 10SM CLR 02/M03 A2971 1060 69 -100 020/04 RMK AO2
14837KMSN MSN20060214185011202/14/06 18:50:31  5-MIN KMSN 150050Z 01004KT 10SM CLR 02/M03 A2972 1050 69 -200 010/04 RMK AO2 SLP073 T00221028
14837KMSN MSN20060214185509502/14/06 18:55:31  5-MIN KMSN 150055Z 35004KT 10SM CLR 02/M02 A2972 1050 72 -200 350/04 RMK AO2
14837KMSN MSN20060214190009502/14/06 19:00:31  5-MIN KMSN 150100Z 35005KT 10SM CLR 02/M03 A2972 1050 69 -200 350/05 RMK AO2
14837KMSN MSN20060214190509502/14/06 19:05:31  5-MIN KMSN 150105Z 36005KT 10SM CLR 02/M03 A2973 1040 69 -200 360/05 RMK AO2
14837KMSN MSN20060214191009502/14/06 19:10:31  5-MIN KMSN 150110Z 35005KT 10SM CLR 02/M03 A2973 1040 69 -200 350/05 RMK AO2
14837KMSN MSN20060214191509502/14/06 19:15:31  5-MIN KMSN 150115Z 35005KT 10SM CLR 02/M03 A2973 1040 72 -200 350/05 RMK AO2
14837KMSN MSN20060214192009502/14/06 19:20:31  5-MIN KMSN 150120Z 35005KT 10SM CLR 02/M03 A2973 1040 72 -200 350/05 RMK AO2
14837KMSN MSN20060214192509502/14/06 19:25:31  5-MIN KMSN 150125Z 35005KT 10SM CLR 02/M03 A2974 1030 72 -200 350/05 RMK AO2
14837KMSN MSN20060214193009502/14/06 19:30:31  5-MIN KMSN 150130Z 36004KT 10SM CLR 02/M02 A2974 1030 75 -300 360/04 RMK AO2
14837KMSN MSN20060214193509502/14/06 19:35:31  5-MIN KMSN 150135Z 01004KT 10SM CLR 02/M02 A2974 1030 75 -200 010/04 RMK AO2
14837KMSN MSN20060214194009502/14/06 19:40:31  5-MIN KMSN 150140Z 35005KT 10SM CLR 02/M02 A2974 1030 75 -300 350/05 RMK AO2
14837KMSN MSN20060214194509502/14/06 19:45:31  5-MIN KMSN 150145Z 35005KT 10SM CLR 02/M02 A2975 1030 75 -300 340/05 RMK AO2
14837KMSN MSN20060214195011202/14/06 19:50:31  5-MIN KMSN 150150Z 34005KT 10SM CLR 02/M03 A2975 1020 72 -300 340/05 RMK AO2 SLP085 T00171028
14837KMSN MSN20060214195509502/14/06 19:55:31  5-MIN KMSN 150155Z 35004KT 10SM CLR 02/M02 A2975 1020 75 -300 350/04 RMK AO2
14837KMSN MSN20060214200009502/14/06 20:00:31  5-MIN KMSN 150200Z 35003KT 10SM CLR 01/M03 A2976 1020 78 -400 350/03 RMK AO2
14837KMSN MSN20060214200509502/14/06 20:05:31  5-MIN KMSN 150205Z 36003KT 10SM CLR 01/M03 A2975 1020 75 -300 360/03 RMK AO2
14837KMSN MSN20060214201009502/14/06 20:10:31  5-MIN KMSN 150210Z 00000KT 10SM CLR 01/M03 A2976 1020 75 -300 000/00 RMK AO2
14837KMSN MSN20060214201509502/14/06 20:15:31  5-MIN KMSN 150215Z 00000KT 10SM CLR 01/M03 A2976 1010 78 -400 000/00 RMK AO2
14837KMSN MSN20060214202009502/14/06 20:20:31  5-MIN KMSN 150220Z 00000KT 10SM CLR 01/M02 A2976 1010 78 -300 000/00 RMK AO2
14837KMSN MSN20060214202509502/14/06 20:25:31  5-MIN KMSN 150225Z 00000KT 10SM CLR 01/M03 A2976 1010 78 -400 000/00 RMK AO2
14837KMSN MSN20060214203009502/14/06 20:30:31  5-MIN KMSN 150230Z 00000KT 10SM CLR 00/M03 A2976 1010 81 -500 000/00 RMK AO2
14837KMSN MSN20060214203509602/14/06 20:35:31  5-MIN KMSN 150235Z 00000KT 10SM CLR M01/M03 A2977 1010 81 -600 000/00 RMK AO2
14837KMSN MSN20060214204009502/14/06 20:40:31  5-MIN KMSN 150240Z 32003KT 10SM CLR 00/M03 A2977 1000 78 -500 320/03 RMK AO2
14837KMSN MSN20060214204509502/14/06 20:45:31  5-MIN KMSN 150245Z 33003KT 10SM CLR 00/M03 A2977 1000 78 -500 330/03 RMK AO2
14837KMSN MSN20060214205011802/14/06 20:50:31  5-MIN KMSN 150250Z 34004KT 10SM CLR 01/M03 A2977 1000 78 -400 340/04 RMK AO2 SLP091 T00061028 53007
14837KMSN MSN20060214205509502/14/06 20:55:31  5-MIN KMSN 150255Z 34004KT 10SM CLR 01/M02 A2978 1000 82 -400 340/04 RMK AO2
14837KMSN MSN20060214210009502/14/06 21:00:31  5-MIN KMSN 150300Z 33003KT 10SM CLR 00/M03 A2978 1000 81 -500 330/03 RMK AO2
14837KMSN MSN20060214210509502/14/06 21:05:31  5-MIN KMSN 150305Z 34004KT 10SM CLR 01/M02 A2978 1000 82 -400 340/04 RMK AO2
14837KMSN MSN20060214211009402/14/06 21:10:31  5-MIN KMSN 150310Z 33005KT 10SM CLR 01/M02 A2978 990 82 -400 330/05 RMK AO2
14837KMSN MSN20060214211509402/14/06 21:15:31  5-MIN KMSN 150315Z 34004KT 10SM CLR 01/M02 A2978 990 82 -400 340/04 RMK AO2
14837KMSN MSN20060214212009402/14/06 21:20:31  5-MIN KMSN 150320Z 34004KT 10SM CLR 01/M02 A2979 990 82 -400 340/04 RMK AO2
14837KMSN MSN20060214212509402/14/06 21:25:31  5-MIN KMSN 150325Z 33004KT 10SM CLR 01/M02 A2979 990 78 -400 330/04 RMK AO2
14837KMSN MSN20060214213009402/14/06 21:30:31  5-MIN KMSN 150330Z 34004KT 10SM CLR 01/M02 A2979 980 82 -400 340/04 RMK AO2
14837KMSN MSN20060214213509402/14/06 21:35:31  5-MIN KMSN 150335Z 33004KT 10SM CLR 01/M02 A2980 980 82 -500 330/04 RMK AO2
14837KMSN MSN20060214214009402/14/06 21:40:31  5-MIN KMSN 150340Z 33004KT 10SM CLR 01/M02 A2980 980 82 -500 330/04 RMK AO2
14837KMSN MSN20060214214509402/14/06 21:45:31  5-MIN KMSN 150345Z 35007KT 10SM CLR 02/M02 A2980 980 78 -300 350/07 RMK AO2
14837KMSN MSN20060214215011102/14/06 21:50:31  5-MIN KMSN 150350Z 35007KT 10SM CLR 01/M02 A2979 980 82 -400 350/07 RMK AO2 SLP098 T00111017
14837KMSN MSN20060214215509702/14/06 21:55:31  5-MIN KMSN 150355Z 35006KT 10SM FEW100 01/M02 A2979 980 82 -400 340/06 RMK AO2
14837KMSN MSN20060214220009702/14/06 22:00:31  5-MIN KMSN 150400Z 34007KT 10SM FEW100 01/M02 A2980 980 82 -400 340/07 RMK AO2
14837KMSN MSN20060214220509702/14/06 22:05:31  5-MIN KMSN 150405Z 34006KT 10SM BKN034 01/M02 A2980 970 82 -400 340/06 RMK AO2
14837KMSN MSN20060214221009702/14/06 22:10:31  5-MIN KMSN 150410Z 33006KT 10SM BKN034 02/M02 A2981 970 78 -300 330/06 RMK AO2
14837KMSN MSN20060214221509702/14/06 22:15:31  5-MIN KMSN 150415Z 34006KT 10SM BKN034 02/M02 A2981 970 78 -300 340/06 RMK AO2
14837KMSN MSN20060214222009702/14/06 22:20:31  5-MIN KMSN 150420Z 34006KT 10SM OVC034 02/M02 A2981 970 78 -300 340/06 RMK AO2
14837KMSN MSN20060214222509702/14/06 22:25:31  5-MIN KMSN 150425Z 34005KT 10SM OVC034 02/M02 A2981 960 78 -300 340/05 RMK AO2
14837KMSN MSN20060214223009702/14/06 22:30:31  5-MIN KMSN 150430Z 34003KT 10SM OVC034 02/M02 A2981 970 78 -300 340/03 RMK AO2
14837KMSN MSN20060214223509702/14/06 22:35:31  5-MIN KMSN 150435Z 00000KT 10SM BKN034 02/M02 A2981 970 78 -300 000/00 RMK AO2
14837KMSN MSN20060214224009702/14/06 22:40:31  5-MIN KMSN 150440Z 34004KT 10SM BKN034 01/M02 A2981 960 82 -400 340/04 RMK AO2
14837KMSN MSN20060214224509702/14/06 22:45:31  5-MIN KMSN 150445Z 33005KT 10SM SCT034 01/M02 A2981 960 82 -400 330/05 RMK AO2
14837KMSN MSN20060214225011402/14/06 22:50:31  5-MIN KMSN 150450Z 33005KT 10SM SCT034 01/M02 A2982 960 82 -400 330/05 RMK AO2 SLP105 T00111017
14837KMSN MSN20060214225509702/14/06 22:55:31  5-MIN KMSN 150455Z 33005KT 10SM FEW034 01/M02 A2982 960 82 -500 320/05 RMK AO2
14837KMSN MSN20060214230009402/14/06 23:00:31  5-MIN KMSN 150500Z 33004KT 10SM CLR 01/M02 A2982 960 82 -400 330/04 RMK AO2
14837KMSN MSN20060214230509702/14/06 23:05:31  5-MIN KMSN 150505Z 00000KT 10SM FEW034 01/M02 A2982 960 82 -500 000/00 RMK AO2
14837KMSN MSN20060214231009802/14/06 23:10:31  5-MIN KMSN 150510Z 00000KT 10SM FEW034 M02/M03 A2982 950 88 -800 000/00 RMK AO2
14837KMSN MSN20060214231509502/14/06 23:15:31  5-MIN KMSN 150515Z 00000KT 10SM CLR M02/M03 A2983 950 88 -800 000/00 RMK AO2
14837KMSN MSN20060214232009502/14/06 23:20:31  5-MIN KMSN 150520Z 00000KT 10SM CLR M01/M03 A2983 950 88 -700 000/00 RMK AO2
14837KMSN MSN20060214232509502/14/06 23:25:31  5-MIN KMSN 150525Z 00000KT 10SM CLR M01/M02 A2983 950 88 -600 000/00 RMK AO2
14837KMSN MSN20060214233009502/14/06 23:30:31  5-MIN KMSN 150530Z 00000KT 10SM CLR M01/M02 A2983 950 88 -600 000/00 RMK AO2
14837KMSN MSN20060214233509502/14/06 23:35:31  5-MIN KMSN 150535Z 00000KT 10SM CLR M01/M03 A2983 950 88 -700 000/00 RMK AO2
14837KMSN MSN20060214234009502/14/06 23:40:31  5-MIN KMSN 150540Z 00000KT 10SM CLR M02/M03 A2983 950 92 -800 000/00 RMK AO2
14837KMSN MSN20060214234509502/14/06 23:45:31  5-MIN KMSN 150545Z 00000KT 10SM CLR M01/M03 A2984 940 88 -700 000/00 RMK AO2
14837KMSN MSN20060214235014002/14/06 23:50:31  5-MIN KMSN 150550Z 00000KT 10SM CLR M01/M03 A2984 940 85 -600 000/00 RMK AO2 SLP111 T10061028 10039 21022 401171061 51030
14837KMSN MSN20060214235509502/14/06 23:55:31  5-MIN KMSN 150555Z 00000KT 10SM CLR M01/M03 A2984 940 85 -600 000/00 RMK AO2
14837KMSN MSN20060215000009502/15/06 00:00:38  5-MIN KMSN 150600Z 00000KT 10SM CLR M01/M03 A2985 930 88 -700 000/00 RMK AO2
14837KMSN MSN20060215000509502/15/06 00:05:31  5-MIN KMSN 150605Z 00000KT 10SM CLR M02/M03 A2985 930 92 -800 000/00 RMK AO2
14837KMSN MSN20060215001009502/15/06 00:10:31  5-MIN KMSN 150610Z 00000KT 10SM CLR M01/M03 A2985 930 85 -700 000/00 RMK AO2
14837KMSN MSN20060215001509502/15/06 00:15:31  5-MIN KMSN 150615Z 00000KT 10SM CLR M02/M03 A2986 920 92 -900 000/00 RMK AO2
14837KMSN MSN20060215002009502/15/06 00:20:31  5-MIN KMSN 150620Z 00000KT 10SM CLR M02/M03 A2986 920 92 -900 000/00 RMK AO2
14837KMSN MSN20060215002509802/15/06 00:25:31  5-MIN KMSN 150625Z 18003KT 10SM FEW046 M02/M03 A2986 920 88 -800 180/03 RMK AO2
14837KMSN MSN20060215003009802/15/06 00:30:31  5-MIN KMSN 150630Z 00000KT 10SM BKN046 M02/M03 A2987 910 92 -900 000/00 RMK AO2
14837KMSN MSN20060215003509902/15/06 00:35:31  5-MIN KMSN 150635Z 00000KT 10SM BKN048 M03/M04 A2987 910 92 -1000 000/00 RMK AO2
14837KMSN MSN20060215004009902/15/06 00:40:31  5-MIN KMSN 150640Z 00000KT 10SM BKN048 M03/M04 A2987 910 92 -1000 000/00 RMK AO2
14837KMSN MSN20060215004509802/15/06 00:45:31  5-MIN KMSN 150645Z 00000KT 10SM OVC050 M02/M03 A2987 910 92 -900 000/00 RMK AO2
14837KMSN MSN20060215005011502/15/06 00:50:31  5-MIN KMSN 150650Z 00000KT 10SM OVC050 M02/M03 A2988 900 92 -900 000/00 RMK AO2 SLP125 T10221033
14837KMSN MSN20060215005509802/15/06 00:55:31  5-MIN KMSN 150655Z 31003KT 10SM OVC050 M02/M03 A2988 900 92 -900 310/03 RMK AO2
14837KMSN MSN20060215010009802/15/06 01:00:31  5-MIN KMSN 150700Z 00000KT 10SM OVC050 M02/M03 A2988 900 92 -800 000/00 RMK AO2
14837KMSN MSN20060215010509802/15/06 01:05:31  5-MIN KMSN 150705Z 28003KT 10SM OVC055 M02/M03 A2988 900 92 -800 280/03 RMK AO2
14837KMSN MSN20060215011009802/15/06 01:10:31  5-MIN KMSN 150710Z 00000KT 10SM OVC055 M01/M02 A2989 900 92 -800 000/00 RMK AO2
14837KMSN MSN20060215011509802/15/06 01:15:31  5-MIN KMSN 150715Z 00000KT 10SM OVC055 M01/M02 A2989 890 88 -700 000/00 RMK AO2
14837KMSN MSN20060215012009702/15/06 01:20:31  5-MIN KMSN 150720Z 29003KT 10SM OVC055 00/M02 A2989 890 85 -600 290/03 RMK AO2
14837KMSN MSN20060215012509702/15/06 01:25:31  5-MIN KMSN 150725Z 29003KT 10SM BKN055 01/M02 A2989 890 82 -600 290/03 RMK AO2
14837KMSN MSN20060215013009702/15/06 01:30:31  5-MIN KMSN 150730Z 30003KT 10SM BKN055 01/M02 A2989 890 82 -600 290/03 RMK AO2
14837KMSN MSN20060215013509802/15/06 01:35:31  5-MIN KMSN 150735Z 00000KT 10SM SCT055 M02/M04 A2989 890 88 -900 000/00 RMK AO2
14837KMSN MSN20060215014009902/15/06 01:40:31  5-MIN KMSN 150740Z 00000KT 10SM FEW055 M03/M04 A2989 890 88 -1000 000/00 RMK AO2
14837KMSN MSN20060215014509902/15/06 01:45:31  5-MIN KMSN 150745Z 00000KT 10SM FEW055 M03/M04 A2989 890 88 -1000 000/00 RMK AO2
14837KMSN MSN20060215015011302/15/06 01:50:31  5-MIN KMSN 150750Z 00000KT 10SM CLR M03/M04 A2990 880 92 -1000 000/00 RMK AO2 SLP132 T10281039
14837KMSN MSN20060215015509602/15/06 01:55:31  5-MIN KMSN 150755Z 00000KT 10SM CLR M03/M04 A2990 880 92 -1000 000/00 RMK AO2
14837KMSN MSN20060215020009502/15/06 02:00:31  5-MIN KMSN 150800Z 00000KT 10SM CLR M02/M03 A2991 880 92 -900 000/00 RMK AO2
14837KMSN MSN20060215020509502/15/06 02:05:31  5-MIN KMSN 150805Z 00000KT 10SM CLR M02/M03 A2991 870 88 -900 000/00 RMK AO2
14837KMSN MSN20060215021009502/15/06 02:10:31  5-MIN KMSN 150810Z 00000KT 10SM CLR M01/M03 A2991 870 85 -800 000/00 RMK AO2
14837KMSN MSN20060215021509502/15/06 02:15:31  5-MIN KMSN 150815Z 00000KT 10SM CLR M02/M04 A2992 870 88 -900 000/00 RMK AO2
14837KMSN MSN20060215022009502/15/06 02:20:31  5-MIN KMSN 150820Z 00000KT 10SM CLR M01/M03 A2992 870 85 -800 000/00 RMK AO2
14837KMSN MSN20060215022509502/15/06 02:25:31  5-MIN KMSN 150825Z VRB03KT 10SM CLR M01/M03 A2992 860 85 -800 VRB/03 RMK AO2
14837KMSN MSN20060215023009502/15/06 02:30:31  5-MIN KMSN 150830Z 00000KT 10SM CLR M01/M03 A2993 860 85 -800 000/00 RMK AO2
14837KMSN MSN20060215023509502/15/06 02:35:31  5-MIN KMSN 150835Z 00000KT 10SM CLR M01/M03 A2993 860 85 -800 000/00 RMK AO2
14837KMSN MSN20060215024009502/15/06 02:40:31  5-MIN KMSN 150840Z 00000KT 10SM CLR M01/M03 A2993 860 85 -700 000/00 RMK AO2
14837KMSN MSN20060215024509502/15/06 02:45:31  5-MIN KMSN 150845Z 00000KT 10SM CLR M01/M03 A2993 860 85 -700 000/00 RMK AO2
14837KMSN MSN20060215025011802/15/06 02:50:31  5-MIN KMSN 150850Z 29003KT 10SM CLR M02/M03 A2993 850 88 -900 290/03 RMK AO2 SLP142 T10171033 53021
14837KMSN MSN20060215025509502/15/06 02:55:31  5-MIN KMSN 150855Z 29004KT 10SM CLR M01/M03 A2993 850 85 -800 290/04 RMK AO2
14837KMSN MSN20060215030009502/15/06 03:00:31  5-MIN KMSN 150900Z 30005KT 10SM CLR M01/M03 A2994 850 85 -800 290/05 RMK AO2
14837KMSN MSN20060215030509502/15/06 03:05:31  5-MIN KMSN 150905Z 29005KT 10SM CLR M01/M03 A2994 850 85 -800 290/05 RMK AO2
14837KMSN MSN20060215031009502/15/06 03:10:31  5-MIN KMSN 150910Z 29004KT 10SM CLR M01/M03 A2994 850 85 -800 290/04 RMK AO2
14837KMSN MSN20060215031509402/15/06 03:15:31  5-MIN KMSN 150915Z 31004KT 10SM CLR 00/M03 A2994 850 81 -700 300/04 RMK AO2
14837KMSN MSN20060215032009502/15/06 03:20:31  5-MIN KMSN 150920Z 30005KT 10SM CLR M01/M03 A2994 850 85 -800 300/05 RMK AO2
14837KMSN MSN20060215032509502/15/06 03:25:31  5-MIN KMSN 150925Z 31005KT 10SM CLR M01/M03 A2994 840 81 -800 310/05 RMK AO2
14837KMSN MSN20060215033009502/15/06 03:30:31  5-MIN KMSN 150930Z 31005KT 10SM CLR M01/M03 A2995 840 81 -800 310/05 RMK AO2
14837KMSN MSN20060215033509502/15/06 03:35:31  5-MIN KMSN 150935Z 31004KT 10SM CLR M01/M03 A2995 840 81 -800 310/04 RMK AO2
14837KMSN MSN20060215034009502/15/06 03:40:31  5-MIN KMSN 150940Z 31004KT 10SM CLR M01/M03 A2995 840 85 -800 310/04 RMK AO2
14837KMSN MSN20060215034509502/15/06 03:45:31  5-MIN KMSN 150945Z 32004KT 10SM CLR M01/M03 A2995 840 81 -800 320/04 RMK AO2
14837KMSN MSN20060215035011202/15/06 03:50:31  5-MIN KMSN 150950Z 33004KT 10SM CLR M01/M03 A2995 840 85 -800 330/04 RMK AO2 SLP148 T10111033
14837KMSN MSN20060215035509802/15/06 03:55:31  5-MIN KMSN 150955Z 33004KT 10SM FEW023 M01/M03 A2996 830 85 -800 330/04 RMK AO2
14837KMSN MSN20060215040009802/15/06 04:00:31  5-MIN KMSN 151000Z 00000KT 10SM FEW023 M01/M04 A2995 830 81 -800 000/00 RMK AO2
14837KMSN MSN20060215040509802/15/06 04:05:31  5-MIN KMSN 151005Z 35004KT 10SM FEW023 M01/M04 A2995 840 81 -800 350/04 RMK AO2
14837KMSN MSN20060215041009802/15/06 04:10:31  5-MIN KMSN 151010Z 34004KT 10SM FEW023 M01/M04 A2995 840 81 -800 340/04 RMK AO2
14837KMSN MSN20060215041509802/15/06 04:15:31  5-MIN KMSN 151015Z 34005KT 10SM FEW023 M01/M04 A2996 830 81 -800 340/05 RMK AO2
14837KMSN MSN20060215042009802/15/06 04:20:31  5-MIN KMSN 151020Z 34006KT 10SM FEW023 M01/M04 A2996 830 81 -900 340/06 RMK AO2
14837KMSN MSN20060215042509502/15/06 04:25:31  5-MIN KMSN 151025Z 34005KT 10SM CLR M01/M04 A2996 830 81 -900 340/05 RMK AO2
14837KMSN MSN20060215043009502/15/06 04:30:31  5-MIN KMSN 151030Z 34006KT 10SM CLR M01/M04 A2996 820 78 -800 340/06 RMK AO2
14837KMSN MSN20060215043509502/15/06 04:35:31  5-MIN KMSN 151035Z 34007KT 10SM CLR M01/M04 A2996 820 75 -800 340/07 RMK AO2
14837KMSN MSN20060215044009502/15/06 04:40:31  5-MIN KMSN 151040Z 34007KT 10SM CLR M01/M04 A2996 820 75 -800 340/07 RMK AO2
14837KMSN MSN20060215044509502/15/06 04:45:31  5-MIN KMSN 151045Z 34007KT 10SM CLR M01/M04 A2996 820 75 -800 340/07 RMK AO2
14837KMSN MSN20060215045011202/15/06 04:50:31  5-MIN KMSN 151050Z 33007KT 10SM CLR M01/M05 A2997 820 72 -800 330/07 RMK AO2 SLP156 T10061050
14837KMSN MSN20060215045509502/15/06 04:55:31  5-MIN KMSN 151055Z 33007KT 10SM CLR M01/M05 A2998 810 72 -800 330/07 RMK AO2
14837KMSN MSN20060215050009502/15/06 05:00:31  5-MIN KMSN 151100Z 33007KT 10SM CLR M01/M06 A2998 800 72 -900 330/07 RMK AO2
14837KMSN MSN20060215050509502/15/06 05:05:31  5-MIN KMSN 151105Z 32007KT 10SM CLR M01/M06 A2999 800 69 -900 320/07 RMK AO2
14837KMSN MSN20060215051009502/15/06 05:10:31  5-MIN KMSN 151110Z 33007KT 10SM CLR M01/M06 A2999 800 69 -900 330/07 RMK AO2
14837KMSN MSN20060215051509502/15/06 05:15:31  5-MIN KMSN 151115Z 33007KT 10SM CLR M01/M07 A2999 800 66 -900 330/07 RMK AO2
14837KMSN MSN20060215052009502/15/06 05:20:31  5-MIN KMSN 151120Z 33007KT 10SM CLR M01/M07 A2999 800 63 -900 330/07 RMK AO2
14837KMSN MSN20060215052509502/15/06 05:25:31  5-MIN KMSN 151125Z 33006KT 10SM CLR M01/M07 A3000 790 63 -900 330/06 RMK AO2
14837KMSN MSN20060215053009502/15/06 05:30:31  5-MIN KMSN 151130Z 34006KT 10SM CLR M01/M07 A3000 790 63 -900 340/06 RMK AO2
14837KMSN MSN20060215053509602/15/06 05:35:31  5-MIN KMSN 151135Z 33004KT 10SM CLR M02/M07 A3001 790 66 -1000 330/04 RMK AO2
14837KMSN MSN20060215054009602/15/06 05:40:31  5-MIN KMSN 151140Z 33004KT 10SM CLR M02/M07 A3001 780 66 -1000 330/04 RMK AO2
14837KMSN MSN20060215054509602/15/06 05:45:31  5-MIN KMSN 151145Z 33003KT 10SM CLR M02/M07 A3001 780 66 -1000 320/03 RMK AO2
14837KMSN MSN20060215055013102/15/06 05:50:31  5-MIN KMSN 151150Z 32004KT 10SM CLR M02/M07 A3001 780 66 -1000 320/04 RMK AO2 SLP172 T10171072 10006 21028 51030
14837KMSN MSN20060215055509602/15/06 05:55:31  5-MIN KMSN 151155Z 33004KT 10SM CLR M02/M07 A3001 780 69 -1000 330/04 RMK AO2
14837KMSN MSN20060215060009602/15/06 06:00:31  5-MIN KMSN 151200Z VRB05KT 10SM CLR M02/M07 A3001 790 69 -1000 VRB/05 RMK AO2
14837KMSN MSN20060215060509602/15/06 06:05:31  5-MIN KMSN 151205Z 33007KT 10SM CLR M02/M08 A3001 780 63 -1000 330/07 RMK AO2
14837KMSN MSN20060215061009602/15/06 06:10:31  5-MIN KMSN 151210Z 34005KT 10SM CLR M02/M08 A3002 780 63 -1000 340/05 RMK AO2
14837KMSN MSN20060215061509602/15/06 06:15:31  5-MIN KMSN 151215Z 34006KT 10SM CLR M02/M08 A3002 770 63 -1000 340/06 RMK AO2
14837KMSN MSN20060215062009602/15/06 06:20:31  5-MIN KMSN 151220Z 34006KT 10SM CLR M02/M08 A3002 770 63 -1000 340/06 RMK AO2
14837KMSN MSN20060215062509602/15/06 06:25:31  5-MIN KMSN 151225Z 34006KT 10SM CLR M02/M08 A3003 770 66 -1100 340/06 RMK AO2
14837KMSN MSN20060215063009602/15/06 06:30:31  5-MIN KMSN 151230Z 33005KT 10SM CLR M02/M08 A3003 760 66 -1100 330/05 RMK AO2
14837KMSN MSN20060215063509602/15/06 06:35:31  5-MIN KMSN 151235Z 34005KT 10SM CLR M02/M07 A3003 760 69 -1100 340/05 RMK AO2
14837KMSN MSN20060215064009602/15/06 06:40:31  5-MIN KMSN 151240Z 34006KT 10SM CLR M02/M08 A3003 760 66 -1100 340/06 RMK AO2
14837KMSN MSN20060215064509902/15/06 06:45:31  5-MIN KMSN 151245Z 33007KT 10SM FEW120 M02/M08 A3004 760 66 -1100 330/07 RMK AO2
14837KMSN MSN20060215065011602/15/06 06:50:31  5-MIN KMSN 151250Z 34006KT 10SM SCT120 M02/M07 A3004 750 69 -1100 340/06 RMK AO2 SLP182 T10221072
14837KMSN MSN20060215065509902/15/06 06:55:31  5-MIN KMSN 151255Z 34007KT 10SM SCT120 M02/M07 A3004 750 69 -1100 340/07 RMK AO2
14837KMSN MSN20060215070009902/15/06 07:00:31  5-MIN KMSN 151300Z 34006KT 10SM BKN120 M02/M07 A3004 750 69 -1100 340/06 RMK AO2
14837KMSN MSN20060215070509902/15/06 07:05:31  5-MIN KMSN 151305Z 34006KT 10SM BKN120 M02/M07 A3005 750 69 -1100 340/06 RMK AO2
14837KMSN MSN20060215071009902/15/06 07:10:31  5-MIN KMSN 151310Z 35007KT 10SM BKN120 M02/M07 A3005 750 69 -1100 350/07 RMK AO2
14837KMSN MSN20060215071509902/15/06 07:15:31  5-MIN KMSN 151315Z 35007KT 10SM BKN120 M02/M07 A3005 740 69 -1100 350/07 RMK AO2
14837KMSN MSN20060215072009902/15/06 07:20:31  5-MIN KMSN 151320Z 34009KT 10SM BKN120 M02/M07 A3005 750 69 -1100 340/09 RMK AO2
14837KMSN MSN20060215072509902/15/06 07:25:31  5-MIN KMSN 151325Z 34007KT 10SM SCT120 M02/M08 A3005 740 66 -1100 340/07 RMK AO2
14837KMSN MSN20060215073009902/15/06 07:30:31  5-MIN KMSN 151330Z 34008KT 10SM SCT120 M02/M08 A3006 740 66 -1100 340/08 RMK AO2
14837KMSN MSN20060215073509902/15/06 07:35:31  5-MIN KMSN 151335Z 34008KT 10SM SCT120 M02/M08 A3005 740 66 -1100 340/08 RMK AO2
14837KMSN MSN20060215074009902/15/06 07:40:31  5-MIN KMSN 151340Z 34009KT 10SM SCT120 M02/M08 A3006 740 66 -1100 340/09 RMK AO2
14837KMSN MSN20060215074509902/15/06 07:45:31  5-MIN KMSN 151345Z 34008KT 10SM FEW120 M02/M08 A3006 730 66 -1100 340/08 RMK AO2
14837KMSN MSN20060215075011602/15/06 07:50:31  5-MIN KMSN 151350Z 34008KT 10SM SCT120 M02/M08 A3007 730 66 -1100 340/08 RMK AO2 SLP191 T10221078
14837KMSN MSN20060215075509902/15/06 07:55:31  5-MIN KMSN 151355Z 34008KT 10SM SCT120 M02/M08 A3007 730 66 -1100 340/08 RMK AO2
14837KMSN MSN20060215080009902/15/06 08:00:31  5-MIN KMSN 151400Z 34008KT 10SM FEW120 M02/M08 A3008 720 66 -1100 340/08 RMK AO2
14837KMSN MSN20060215080509902/15/06 08:05:31  5-MIN KMSN 151405Z 34007KT 10SM FEW120 M02/M08 A3008 710 66 -1100 340/07 RMK AO2
14837KMSN MSN20060215081010602/15/06 08:10:31  5-MIN KMSN 151410Z 34008KT 10SM SCT120 M02/M07 A3009 710 69 -1100 340/08 RMK AO2 PRESRR
14837KMSN MSN20060215081509902/15/06 08:15:31  5-MIN KMSN 151415Z 34007KT 10SM BKN120 M02/M08 A3009 710 66 -1100 340/07 RMK AO2
14837KMSN MSN20060215082009902/15/06 08:20:31  5-MIN KMSN 151420Z 34007KT 10SM BKN120 M02/M07 A3009 710 69 -1100 340/07 RMK AO2
14837KMSN MSN20060215082509902/15/06 08:25:31  5-MIN KMSN 151425Z 34008KT 10SM BKN120 M02/M08 A3009 700 66 -1100 340/08 RMK AO2
14837KMSN MSN20060215083009902/15/06 08:30:31  5-MIN KMSN 151430Z 34008KT 10SM BKN120 M02/M08 A3009 710 66 -1100 340/08 RMK AO2
14837KMSN MSN20060215083509902/15/06 08:35:31  5-MIN KMSN 151435Z 35008KT 10SM BKN120 M02/M08 A3009 710 66 -1100 350/08 RMK AO2
14837KMSN MSN20060215084009902/15/06 08:40:31  5-MIN KMSN 151440Z 33008KT 10SM BKN120 M02/M08 A3009 700 63 -1100 330/08 RMK AO2
14837KMSN MSN20060215084509902/15/06 08:45:31  5-MIN KMSN 151445Z 35008KT 10SM BKN120 M02/M08 A3009 710 63 -1100 350/08 RMK AO2
14837KMSN MSN20060215085012202/15/06 08:50:31  5-MIN KMSN 151450Z 34007KT 10SM BKN120 M02/M08 A3010 700 66 -1200 340/07 RMK AO2 SLP203 T10221078 53026
14837KMSN MSN20060215085509902/15/06 08:55:31  5-MIN KMSN 151455Z 35007KT 10SM SCT120 M02/M08 A3010 700 66 -1200 350/07 RMK AO2
14837KMSN MSN20060215090009902/15/06 09:00:31  5-MIN KMSN 151500Z 33006KT 10SM FEW120 M02/M08 A3010 700 66 -1200 330/06 RMK AO2
14837KMSN MSN20060215090509902/15/06 09:05:31  5-MIN KMSN 151505Z 33005KT 10SM FEW110 M02/M08 A3010 700 60 -1100 330/05 RMK AO2
14837KMSN MSN20060215091009902/15/06 09:10:31  5-MIN KMSN 151510Z 32009KT 10SM SCT120 M02/M08 A3011 690 63 -1100 320/09 RMK AO2
14837KMSN MSN20060215091509902/15/06 09:15:31  5-MIN KMSN 151515Z 32006KT 10SM BKN120 M02/M08 A3011 690 60 -1100 320/06 RMK AO2
14837KMSN MSN20060215092009902/15/06 09:20:31  5-MIN KMSN 151520Z 33007KT 10SM BKN120 M02/M08 A3011 690 60 -1100 330/07 RMK AO2
14837KMSN MSN20060215092509902/15/06 09:25:31  5-MIN KMSN 151525Z 34007KT 10SM BKN120 M02/M08 A3011 690 60 -1100 340/07 RMK AO2
14837KMSN MSN20060215093009902/15/06 09:30:31  5-MIN KMSN 151530Z 33007KT 10SM BKN120 M02/M08 A3012 680 60 -1100 330/07 RMK AO2
14837KMSN MSN20060215093509902/15/06 09:35:31  5-MIN KMSN 151535Z 32006KT 10SM BKN110 M02/M08 A3012 680 60 -1100 320/06 RMK AO2
14837KMSN MSN20060215094009902/15/06 09:40:31  5-MIN KMSN 151540Z 35004KT 10SM BKN110 M02/M08 A3012 680 60 -1100 350/04 RMK AO2
14837KMSN MSN20060215094509902/15/06 09:45:31  5-MIN KMSN 151545Z 34007KT 10SM BKN110 M01/M08 A3012 680 60 -1000 330/07 RMK AO2
14837KMSN MSN20060215095011602/15/06 09:50:31  5-MIN KMSN 151550Z 32007KT 10SM SCT110 M01/M08 A3012 680 58 -1000 320/07 RMK AO2 SLP209 T10111083
14837KMSN MSN20060215095509902/15/06 09:55:31  5-MIN KMSN 151555Z 35006KT 10SM SCT110 M01/M08 A3012 680 58 -1000 350/06 RMK AO2
14837KMSN MSN20060215100009902/15/06 10:00:31  5-MIN KMSN 151600Z 32007KT 10SM SCT120 M01/M08 A3012 680 58 -1000 320/07 RMK AO2
14837KMSN MSN20060215100509902/15/06 10:05:31  5-MIN KMSN 151605Z 33009KT 10SM FEW120 M01/M08 A3012 680 56 -1000 330/09 RMK AO2
14837KMSN MSN20060215101009902/15/06 10:10:31  5-MIN KMSN 151610Z 34007KT 10SM FEW120 M01/M09 A3013 670 51 -1000 340/07 RMK AO2
14837KMSN MSN20060215101509902/15/06 10:15:31  5-MIN KMSN 151615Z 35008KT 10SM FEW110 M01/M09 A3013 670 51 -1000 350/08 RMK AO2
14837KMSN MSN20060215102009702/15/06 10:20:31  5-MIN KMSN 151620Z 34007KT 10SM FEW120 00/M09 A3013 670 51 -900 340/07 RMK AO2
14837KMSN MSN20060215102509902/15/06 10:25:31  5-MIN KMSN 151625Z 34009KT 10SM FEW120 M01/M09 A3014 670 51 -1000 340/09 RMK AO2
14837KMSN MSN20060215103009702/15/06 10:30:31  5-MIN KMSN 151630Z 34009KT 10SM FEW110 00/M09 A3014 670 51 -900 340/09 RMK AO2
14837KMSN MSN20060215103509702/15/06 10:35:31  5-MIN KMSN 151635Z 02010KT 10SM FEW110 00/M09 A3014 660 49 -900 010/10 RMK AO2
14837KMSN MSN20060215104009702/15/06 10:40:31  5-MIN KMSN 151640Z 35008KT 10SM SCT110 00/M09 A3014 660 49 -900 340/08 RMK AO2
14837KMSN MSN20060215104509702/15/06 10:45:31  5-MIN KMSN 151645Z 34006KT 10SM FEW110 00/M09 A3014 660 51 -900 340/06 RMK AO2
14837KMSN MSN20060215105011402/15/06 10:50:31  5-MIN KMSN 151650Z 36007KT 10SM FEW110 00/M09 A3014 660 51 -900 360/07 RMK AO2 SLP215 T00001089
14837KMSN MSN20060215105509702/15/06 10:55:31  5-MIN KMSN 151655Z 34008KT 10SM FEW110 00/M09 A3013 670 51 -900 330/08 RMK AO2
14837KMSN MSN20060215110009702/15/06 11:00:31  5-MIN KMSN 151700Z 32007KT 10SM FEW110 00/M09 A3013 670 49 -900 320/07 RMK AO2
14837KMSN MSN20060215110509902/15/06 11:05:31  5-MIN KMSN 151705Z 35007KT 10SM FEW110 M01/M09 A3013 670 51 -1000 350/07 RMK AO2
14837KMSN MSN20060215111009602/15/06 11:10:31  5-MIN KMSN 151710Z 35008KT 10SM CLR M01/M09 A3013 670 51 -1000 350/08 RMK AO2
14837KMSN MSN20060215111509602/15/06 11:15:31  5-MIN KMSN 151715Z 33007KT 10SM CLR M01/M10 A3013 670 49 -1000 330/07 RMK AO2
14837KMSN MSN20060215112009702/15/06 11:20:31  5-MIN KMSN 151720Z 36007KT 10SM FEW120 00/M09 A3012 680 49 -900 360/07 RMK AO2
14837KMSN MSN20060215112509702/15/06 11:25:31  5-MIN KMSN 151725Z 36008KT 10SM FEW120 00/M09 A3012 680 51 -900 350/08 RMK AO2
14837KMSN MSN20060215113009702/15/06 11:30:31  5-MIN KMSN 151730Z 36008KT 10SM SCT120 00/M09 A3012 680 49 -900 350/08 RMK AO2
14837KMSN MSN20060215113509702/15/06 11:35:31  5-MIN KMSN 151735Z 03009KT 10SM SCT120 01/M09 A3012 680 47 -800 030/09 RMK AO2
14837KMSN MSN20060215114009702/15/06 11:40:31  5-MIN KMSN 151740Z 36007KT 10SM SCT120 01/M09 A3012 680 47 -800 360/07 RMK AO2
14837KMSN MSN20060215114509702/15/06 11:45:31  5-MIN KMSN 151745Z 01010KT 10SM SCT120 01/M09 A3012 680 47 -800 010/10 RMK AO2
14837KMSN MSN20060215115013202/15/06 11:50:31  5-MIN KMSN 151750Z 36008KT 10SM SCT120 01/M09 A3011 690 49 -800 360/08 RMK AO2 SLP206 T00061089 10011 21022 52029
14837KMSN MSN20060215115509702/15/06 11:55:31  5-MIN KMSN 151755Z 02008KT 10SM SCT120 00/M09 A3011 690 49 -900 020/08 RMK AO2
14837KMSN MSN20060215120009702/15/06 12:00:31  5-MIN KMSN 151800Z 01009KT 10SM FEW120 00/M09 A3011 690 49 -900 010/09 RMK AO2
14837KMSN MSN20060215120509702/15/06 12:05:31  5-MIN KMSN 151805Z 03010KT 10SM SCT120 00/M09 A3011 690 49 -900 030/10 RMK AO2
14837KMSN MSN20060215121009702/15/06 12:10:31  5-MIN KMSN 151810Z 02010KT 10SM SCT120 00/M10 A3011 690 47 -900 020/10 RMK AO2
14837KMSN MSN20060215121509702/15/06 12:15:31  5-MIN KMSN 151815Z 02011KT 10SM SCT120 00/M09 A3011 690 49 -900 020/11 RMK AO2
14837KMSN MSN20060215122009702/15/06 12:20:31  5-MIN KMSN 151820Z 02011KT 10SM SCT120 00/M09 A3011 690 49 -900 020/11 RMK AO2
14837KMSN MSN20060215122509702/15/06 12:25:31  5-MIN KMSN 151825Z 01010KT 10SM FEW120 00/M09 A3011 690 49 -900 010/10 RMK AO2
14837KMSN MSN20060215123009702/15/06 12:30:31  5-MIN KMSN 151830Z 01010KT 10SM FEW120 00/M09 A3011 690 49 -900 010/10 RMK AO2
14837KMSN MSN20060215123509702/15/06 12:35:31  5-MIN KMSN 151835Z 03010KT 10SM SCT110 01/M09 A3010 690 47 -800 030/10 RMK AO2
14837KMSN MSN20060215124009702/15/06 12:40:31  5-MIN KMSN 151840Z 02010KT 10SM BKN110 01/M10 A3010 690 45 -800 020/10 RMK AO2
14837KMSN MSN20060215124509702/15/06 12:45:31  5-MIN KMSN 151845Z 02011KT 10SM BKN110 01/M10 A3010 700 43 -700 020/11 RMK AO2
14837KMSN MSN20060215125011402/15/06 12:50:31  5-MIN KMSN 151850Z 02011KT 10SM BKN110 01/M11 A3010 690 41 -700 020/11 RMK AO2 SLP205 T00111106
14837KMSN MSN20060215125509702/15/06 12:55:31  5-MIN KMSN 151855Z 01010KT 10SM BKN100 01/M11 A3010 700 43 -800 010/10 RMK AO2
14837KMSN MSN20060215130009702/15/06 13:00:31  5-MIN KMSN 151900Z 02012KT 10SM BKN100 01/M11 A3010 690 43 -800 020/12 RMK AO2
14837KMSN MSN20060215130509702/15/06 13:05:31  5-MIN KMSN 151905Z 02011KT 10SM BKN100 01/M11 A3011 690 43 -800 020/11 RMK AO2
14837KMSN MSN20060215131009702/15/06 13:10:31  5-MIN KMSN 151910Z 02010KT 10SM BKN100 00/M11 A3011 690 43 -900 020/10 RMK AO2
14837KMSN MSN20060215131509702/15/06 13:15:31  5-MIN KMSN 151915Z 03011KT 10SM BKN100 00/M11 A3011 690 43 -900 020/11 RMK AO2
14837KMSN MSN20060215132009702/15/06 13:20:31  5-MIN KMSN 151920Z 04011KT 10SM SCT100 00/M11 A3011 690 45 -900 030/11 RMK AO2
14837KMSN MSN20060215132509702/15/06 13:25:31  5-MIN KMSN 151925Z 03011KT 10SM SCT100 00/M11 A3011 690 45 -900 030/11 RMK AO2
14837KMSN MSN20060215133009702/15/06 13:30:31  5-MIN KMSN 151930Z 02010KT 10SM BKN095 01/M11 A3012 680 41 -800 020/10 RMK AO2
14837KMSN MSN20060215133509702/15/06 13:35:31  5-MIN KMSN 151935Z 02009KT 10SM BKN090 00/M11 A3012 680 43 -900 020/09 RMK AO2
14837KMSN MSN20060215134009702/15/06 13:40:31  5-MIN KMSN 151940Z 03008KT 10SM BKN090 00/M11 A3012 680 43 -900 020/08 RMK AO2
14837KMSN MSN20060215134510402/15/06 13:45:31  5-MIN KMSN 151945Z 03009KT 10SM BKN090 BKN110 00/M11 A3011 690 43 -900 030/09 RMK AO2
14837KMSN MSN20060215135012102/15/06 13:50:31  5-MIN KMSN 151950Z 04006KT 10SM BKN090 BKN110 00/M12 A3011 690 41 -900 040/06 RMK AO2 SLP208 T00001117
14837KMSN MSN20060215135509702/15/06 13:55:31  5-MIN KMSN 151955Z 04007KT 10SM SCT090 00/M11 A3011 690 43 -900 040/07 RMK AO2
14837KMSN MSN20060215140009702/15/06 14:00:31  5-MIN KMSN 152000Z 02007KT 10SM SCT090 00/M12 A3011 690 41 -900 020/07 RMK AO2
14837KMSN MSN20060215140509902/15/06 14:05:31  5-MIN KMSN 152005Z 03009KT 10SM FEW090 M01/M11 A3011 690 45 -1000 030/09 RMK AO2
14837KMSN MSN20060215141009902/15/06 14:10:31  5-MIN KMSN 152010Z 01008KT 10SM FEW095 M01/M12 A3011 690 43 -1000 010/08 RMK AO2
14837KMSN MSN20060215141509602/15/06 14:15:31  5-MIN KMSN 152015Z 01007KT 10SM CLR M01/M12 A3011 690 43 -1000 010/07 RMK AO2
14837KMSN MSN20060215142009602/15/06 14:20:31  5-MIN KMSN 152020Z 03008KT 10SM CLR M01/M12 A3011 690 41 -1000 030/08 RMK AO2
14837KMSN MSN20060215142509902/15/06 14:25:31  5-MIN KMSN 152025Z 02009KT 10SM FEW080 M01/M12 A3011 690 41 -1000 020/09 RMK AO2
14837KMSN MSN20060215143009902/15/06 14:30:31  5-MIN KMSN 152030Z 03008KT 10SM FEW080 M01/M12 A3011 690 41 -1000 030/08 RMK AO2
14837KMSN MSN20060215143509702/15/06 14:35:31  5-MIN KMSN 152035Z 04008KT 10SM FEW080 00/M12 A3011 690 39 -900 030/08 RMK AO2
14837KMSN MSN20060215144009802/15/06 14:40:31  5-MIN KMSN 152040Z 02008KT 10SM FEW080 M01/M12 A3010 690 41 -900 020/08 RMK AO2
14837KMSN MSN20060215144509802/15/06 14:45:31  5-MIN KMSN 152045Z 03006KT 10SM FEW075 M01/M12 A3010 700 41 -900 030/06 RMK AO2
14837KMSN MSN20060215145012102/15/06 14:50:31  5-MIN KMSN 152050Z 36008KT 10SM SCT070 M01/M12 A3010 690 41 -900 360/08 RMK AO2 SLP205 T10061122 50005
14837KMSN MSN20060215145510402/15/06 14:55:31  5-MIN KMSN 152055Z 02007KT 10SM BKN065 BKN080 00/M12 A3010 700 41 -900 020/07 RMK AO2
14837KMSN MSN20060215150009702/15/06 15:00:31  5-MIN KMSN 152100Z 03008KT 10SM BKN065 00/M12 A3010 700 39 -900 020/08 RMK AO2
14837KMSN MSN20060215150509802/15/06 15:05:31  5-MIN KMSN 152105Z 03008KT 10SM SCT065 M01/M13 A3010 700 39 -900 030/08 RMK AO2
14837KMSN MSN20060215151011202/15/06 15:10:31  5-MIN KMSN 152110Z 04007KT 10SM FEW070 SCT085 SCT110 M01/M12 A3010 690 41 -900 030/07 RMK AO2
14837KMSN MSN20060215151510502/15/06 15:15:31  5-MIN KMSN 152115Z 02007KT 10SM FEW065 SCT095 M01/M12 A3010 700 41 -900 020/07 RMK AO2
14837KMSN MSN20060215152010502/15/06 15:20:31  5-MIN KMSN 152120Z 02008KT 10SM FEW065 BKN095 M01/M12 A3010 700 41 -900 020/08 RMK AO2
14837KMSN MSN20060215152510502/15/06 15:25:31  5-MIN KMSN 152125Z 03007KT 10SM SCT085 BKN100 M01/M12 A3010 700 41 -900 030/07 RMK AO2
14837KMSN MSN20060215153011202/15/06 15:30:31  5-MIN KMSN 152130Z 02009KT 10SM FEW070 BKN085 BKN110 M01/M12 A3010 700 41 -900 020/09 RMK AO2
14837KMSN MSN20060215153511202/15/06 15:35:31  5-MIN KMSN 152135Z 03009KT 10SM FEW070 BKN085 BKN100 M01/M12 A3010 700 41 -900 030/09 RMK AO2
14837KMSN MSN20060215154011202/15/06 15:40:31  5-MIN KMSN 152140Z 03007KT 10SM FEW070 BKN090 BKN100 M01/M12 A3010 700 41 -900 030/07 RMK AO2
14837KMSN MSN20060215154510502/15/06 15:45:31  5-MIN KMSN 152145Z 04007KT 10SM FEW070 BKN085 M01/M12 A3010 700 41 -900 040/07 RMK AO2
14837KMSN MSN20060215155012302/15/06 15:50:31  5-MIN KMSN 152150Z 02008KT 10SM SCT080 SCT100 M01/M13 A3011 690 39 -1000 020/08 RMK AO2 SLP205 T10061128
14837KMSN MSN20060215155510602/15/06 15:55:31  5-MIN KMSN 152155Z 02009KT 10SM SCT070 BKN095 M01/M13 A3011 690 39 -1000 020/09 RMK AO2
14837KMSN MSN20060215160010602/15/06 16:00:31  5-MIN KMSN 152200Z 03008KT 10SM BKN065 BKN095 M01/M12 A3010 690 43 -1000 030/08 RMK AO2
14837KMSN MSN20060215160510602/15/06 16:05:31  5-MIN KMSN 152205Z 02008KT 10SM BKN070 BKN090 M01/M12 A3011 690 43 -1000 020/08 RMK AO2
14837KMSN MSN20060215161010602/15/06 16:10:31  5-MIN KMSN 152210Z 02009KT 10SM BKN065 BKN080 M01/M12 A3011 690 43 -1000 020/09 RMK AO2
14837KMSN MSN20060215161509902/15/06 16:15:31  5-MIN KMSN 152215Z 02009KT 10SM BKN065 M01/M12 A3011 690 45 -1000 020/09 RMK AO2
14837KMSN MSN20060215162010602/15/06 16:20:31  5-MIN KMSN 152220Z 03008KT 10SM BKN060 OVC075 M01/M12 A3011 690 45 -1000 030/08 RMK AO2
14837KMSN MSN20060215162509902/15/06 16:25:31  5-MIN KMSN 152225Z 03009KT 10SM OVC060 M01/M12 A3010 700 45 -1000 030/09 RMK AO2
14837KMSN MSN20060215163009902/15/06 16:30:31  5-MIN KMSN 152230Z 05010KT 10SM OVC055 M01/M12 A3009 700 43 -1000 040/10 RMK AO2
14837KMSN MSN20060215163509902/15/06 16:35:31  5-MIN KMSN 152235Z 04009KT 10SM OVC055 M01/M12 A3009 710 43 -1000 040/09 RMK AO2
14837KMSN MSN20060215164009902/15/06 16:40:31  5-MIN KMSN 152240Z 04009KT 10SM OVC055 M01/M12 A3009 710 43 -1000 040/09 RMK AO2
14837KMSN MSN20060215164509902/15/06 16:45:31  5-MIN KMSN 152245Z 03009KT 10SM OVC050 M01/M12 A3009 700 43 -1000 030/09 RMK AO2
14837KMSN MSN20060215165011602/15/06 16:50:31  5-MIN KMSN 152250Z 04009KT 10SM OVC050 M01/M12 A3010 700 43 -1000 040/09 RMK AO2 SLP202 T10111122
14837KMSN MSN20060215165510602/15/06 16:55:31  5-MIN KMSN 152255Z 03009KT 10SM BKN050 OVC070 M02/M12 A3010 700 46 -1100 030/09 RMK AO2
14837KMSN MSN20060215170010602/15/06 17:00:31  5-MIN KMSN 152300Z 03009KT 10SM BKN050 OVC070 M02/M12 A3010 700 46 -1100 030/09 RMK AO2
14837KMSN MSN20060215170510602/15/06 17:05:31  5-MIN KMSN 152305Z 03009KT 10SM BKN050 OVC070 M02/M12 A3010 700 46 -1100 030/09 RMK AO2
14837KMSN MSN20060215171010602/15/06 17:10:31  5-MIN KMSN 152310Z 03008KT 10SM BKN050 OVC070 M02/M12 A3011 690 44 -1100 030/08 RMK AO2
14837KMSN MSN20060215171510602/15/06 17:15:31  5-MIN KMSN 152315Z 03008KT 10SM BKN050 OVC070 M02/M12 A3011 690 46 -1100 030/08 RMK AO2
14837KMSN MSN20060215172010602/15/06 17:20:31  5-MIN KMSN 152320Z 03009KT 10SM BKN048 OVC070 M02/M12 A3011 690 46 -1100 030/09 RMK AO2
14837KMSN MSN20060215172510602/15/06 17:25:31  5-MIN KMSN 152325Z 02010KT 10SM BKN048 OVC070 M02/M12 A3011 690 46 -1100 020/10 RMK AO2
14837KMSN MSN20060215173010602/15/06 17:30:31  5-MIN KMSN 152330Z 04010KT 10SM BKN048 OVC065 M02/M12 A3011 690 46 -1100 040/10 RMK AO2
14837KMSN MSN20060215173510602/15/06 17:35:31  5-MIN KMSN 152335Z 03009KT 10SM SCT048 OVC065 M02/M12 A3011 690 46 -1100 030/09 RMK AO2
14837KMSN MSN20060215174010602/15/06 17:40:31  5-MIN KMSN 152340Z 04009KT 10SM SCT048 OVC065 M02/M12 A3010 690 46 -1100 040/09 RMK AO2
14837KMSN MSN20060215174510602/15/06 17:45:31  5-MIN KMSN 152345Z 04011KT 10SM FEW048 OVC065 M02/M12 A3010 700 48 -1200 040/11 RMK AO2
14837KMSN MSN20060215175013402/15/06 17:50:31  5-MIN KMSN 152350Z 04011KT 10SM OVC065 M02/M12 A3010 700 46 -1200 040/11 RMK AO2 SLP204 T10221122 10011 21022 57003
14837KMSN MSN20060215175510602/15/06 17:55:31  5-MIN KMSN 152355Z 03011KT 10SM BKN065 OVC095 M02/M12 A3010 700 46 -1200 030/11 RMK AO2
14837KMSN MSN20060215180010602/15/06 18:00:31  5-MIN KMSN 160000Z 03011KT 10SM BKN065 OVC090 M02/M13 A3010 700 44 -1200 030/11 RMK AO2
14837KMSN MSN20060215180510602/15/06 18:05:31  5-MIN KMSN 160005Z 03009KT 10SM BKN065 OVC085 M02/M13 A3010 700 44 -1200 030/09 RMK AO2
14837KMSN MSN20060215181010602/15/06 18:10:31  5-MIN KMSN 160010Z 03010KT 10SM BKN065 OVC085 M02/M13 A3010 700 44 -1200 030/10 RMK AO2
14837KMSN MSN20060215181510602/15/06 18:15:31  5-MIN KMSN 160015Z 04010KT 10SM BKN060 OVC090 M02/M13 A3010 700 44 -1200 040/10 RMK AO2
14837KMSN MSN20060215182011302/15/06 18:20:31  5-MIN KMSN 160020Z 03011KT 10SM BKN055 BKN070 OVC090 M02/M13 A3011 690 44 -1200 030/11 RMK AO2
14837KMSN MSN20060215182510602/15/06 18:25:31  5-MIN KMSN 160025Z 04011KT 10SM BKN050 OVC065 M02/M12 A3011 690 46 -1200 040/11 RMK AO2
14837KMSN MSN20060215183010602/15/06 18:30:31  5-MIN KMSN 160030Z 04010KT 10SM BKN048 OVC065 M02/M13 A3011 690 44 -1200 040/10 RMK AO2
14837KMSN MSN20060215183510602/15/06 18:35:31  5-MIN KMSN 160035Z 05011KT 10SM BKN046 OVC065 M02/M13 A3011 690 44 -1200 050/11 RMK AO2
14837KMSN MSN20060215184011302/15/06 18:40:31  5-MIN KMSN 160040Z 04011KT 10SM BKN044 BKN060 OVC075 M02/M13 A3011 690 44 -1200 040/11 RMK AO2
14837KMSN MSN20060215184510602/15/06 18:45:31  5-MIN KMSN 160045Z 04010KT 10SM SCT044 OVC070 M02/M13 A3010 700 44 -1200 040/10 RMK AO2
14837KMSN MSN20060215185013002/15/06 18:50:31  5-MIN KMSN 160050Z 04010KT 10SM FEW040 SCT060 OVC070 M02/M13 A3010 700 44 -1200 030/10 RMK AO2 SLP205 T10221128
14837KMSN MSN20060215185510602/15/06 18:55:31  5-MIN KMSN 160055Z 04011KT 10SM FEW046 OVC070 M02/M13 A3010 700 44 -1200 040/11 RMK AO2
14837KMSN MSN20060215190010602/15/06 19:00:31  5-MIN KMSN 160100Z 03012KT 10SM FEW046 OVC070 M02/M13 A3010 700 42 -1200 030/12 RMK AO2
14837KMSN MSN20060215190510602/15/06 19:05:31  5-MIN KMSN 160105Z 03012KT 10SM SCT041 OVC070 M03/M13 A3010 700 46 -1200 030/12 RMK AO2
14837KMSN MSN20060215191010602/15/06 19:10:31  5-MIN KMSN 160110Z 03010KT 10SM BKN037 OVC070 M03/M13 A3010 700 46 -1200 030/10 RMK AO2
14837KMSN MSN20060215191510602/15/06 19:15:31  5-MIN KMSN 160115Z 03009KT 10SM BKN033 OVC070 M03/M13 A3010 690 46 -1200 030/09 RMK AO2
14837KMSN MSN20060215192010602/15/06 19:20:31  5-MIN KMSN 160120Z 03010KT 10SM BKN033 OVC065 M03/M13 A3011 690 46 -1200 030/10 RMK AO2
14837KMSN MSN20060215192509902/15/06 19:25:31  5-MIN KMSN 160125Z 03011KT 10SM OVC031 M03/M13 A3011 690 46 -1200 030/11 RMK AO2
14837KMSN MSN20060215193009902/15/06 19:30:31  5-MIN KMSN 160130Z 03011KT 10SM OVC029 M03/M13 A3011 690 46 -1200 030/11 RMK AO2
14837KMSN MSN20060215193509902/15/06 19:35:31  5-MIN KMSN 160135Z 03010KT 10SM OVC025 M03/M13 A3012 680 46 -1200 030/10 RMK AO2
14837KMSN MSN20060215194010002/15/06 19:40:31  5-MIN KMSN 160140Z 04010KT 9SM OVC023 M03/M12 A3013 670 48 -1300 040/10 RMK AO2 $
14837KMSN MSN20060215194512302/15/06 19:45:31  5-MIN KMSN 160145Z 06008KT 3SM -SN OVC021 M03/M11 A3014 670 57 -1300 060/08 RMK AO2 SNB43 PRESRR P0000 $
14837KMSN MSN20060215195012302/15/06 19:50:31  5-MIN KMSN 160150Z 04011KT 2SM -SN OVC019 M04/M09 A3015 660 65 -1400 040/11 RMK AO2 SNB43 PRESRR P0000 $
14837KMSN MSN20060215195513102/15/06 19:55:31  5-MIN KMSN 160155Z 04008KT 1 1/2SM -SN OVC015 M04/M09 A3016 650 68 -1400 040/08 RMK AO2 TWR VIS 2 PRESRR P0000 $
14837KMSN MSN20060215200012402/15/06 20:00:31  5-MIN KMSN 160200Z 05007KT 1 1/2SM -SN OVC013 M04/M08 A3016 650 78 -1500 050/07 RMK AO2 TWR VIS 2 P0000 $
14837KMSN MSN20060215200511902/15/06 20:05:31  5-MIN KMSN 160205Z 03007KT 1SM -SN VV009 M04/M08 A3016 650 78 -1500 030/07 RMK AO2 TWR VIS 2 P0000 $
14837KMSN MSN20060215201012102/15/06 20:10:31  5-MIN KMSN 160210Z 03008KT 3/4SM -SN VV007 M04/M07 A3016 650 81 -1500 030/08 RMK AO2 TWR VIS 2 P0000 $
14837KMSN MSN20060215201512102/15/06 20:15:31  5-MIN KMSN 160215Z 03007KT 3/4SM -SN VV005 M05/M07 A3015 650 88 -1600 030/07 RMK AO2 TWR VIS 2 P0000 $
14837KMSN MSN20060215202011002/15/06 20:20:31  5-MIN KMSN 160220Z 02009KT 1/2SM SN VV003 M05/M07 A3015 650 88 -1600 010/09 RMK AO2 P0001 $
14837KMSN MSN20060215202511802/15/06 20:25:31  5-MIN KMSN 160225Z 03008KT 1/2SM SN BKN003 OVC009 M05/M07 A3015 660 88 -1600 030/08 RMK AO2 P0001 $
14837KMSN MSN20060215203011802/15/06 20:30:31  5-MIN KMSN 160230Z 03009KT 1/2SM SN BKN003 OVC009 M05/M07 A3014 660 88 -1600 020/09 RMK AO2 P0002 $
14837KMSN MSN20060215203511002/15/06 20:35:31  5-MIN KMSN 160235Z 02010KT 1/2SM SN VV001 M06/M07 A3014 660 92 -1600 020/10 RMK AO2 P0002 $
14837KMSN MSN20060215204011002/15/06 20:40:31  5-MIN KMSN 160240Z 02010KT 1/2SM SN VV001 M06/M07 A3014 660 92 -1600 020/10 RMK AO2 P0002 $
14837KMSN MSN20060215204511002/15/06 20:45:31  5-MIN KMSN 160245Z 02012KT 1/2SM SN VV001 M06/M07 A3014 660 92 -1600 020/12 RMK AO2 P0002 $
14837KMSN MSN20060215205013902/15/06 20:50:31  5-MIN KMSN 160250Z 02010KT 1/2SM SN VV001 M06/M07 A3014 660 92 -1600 020/10 RMK AO2 SLP220 P0002 60002 T10561067 55001 $
14837KMSN MSN20060215205511002/15/06 20:55:31  5-MIN KMSN 160255Z 02010KT 1/2SM SN VV001 M06/M07 A3014 660 88 -1600 020/10 RMK AO2 P0000 $
14837KMSN MSN20060215210011002/15/06 21:00:31  5-MIN KMSN 160300Z 02012KT 1/2SM SN VV001 M06/M07 A3013 670 88 -1600 020/12 RMK AO2 P0000 $
14837KMSN MSN20060215210511002/15/06 21:05:31  5-MIN KMSN 160305Z 01010KT 1/2SM SN VV001 M06/M07 A3013 670 88 -1600 010/10 RMK AO2 P0000 $
14837KMSN MSN20060215211011002/15/06 21:10:31  5-MIN KMSN 160310Z 02011KT 1/2SM SN VV001 M06/M07 A3013 670 88 -1600 020/11 RMK AO2 P0000 $
14837KMSN MSN20060215211511002/15/06 21:15:31  5-MIN KMSN 160315Z 01010KT 1/2SM SN VV001 M06/M07 A3012 680 88 -1600 010/10 RMK AO2 P0001 $
14837KMSN MSN20060215212011002/15/06 21:20:31  5-MIN KMSN 160320Z 01011KT 1/2SM SN VV001 M06/M07 A3012 680 88 -1600 010/11 RMK AO2 P0001 $
14837KMSN MSN20060215212511002/15/06 21:25:31  5-MIN KMSN 160325Z 02011KT 1/2SM SN VV002 M06/M07 A3012 680 88 -1600 010/11 RMK AO2 P0001 $
14837KMSN MSN20060215213012102/15/06 21:30:31  5-MIN KMSN 160330Z 02011KT 1/2SM -SN VV002 M06/M07 A3012 680 88 -1600 020/11 RMK AO2 SFC VIS 1 P0001 $
14837KMSN MSN20060215213512102/15/06 21:35:31  5-MIN KMSN 160335Z 01010KT 1/2SM -SN VV002 M06/M07 A3012 680 88 -1600 010/10 RMK AO2 SFC VIS 1 P0001 $
14837KMSN MSN20060215214012102/15/06 21:40:31  5-MIN KMSN 160340Z 02014KT 1/2SM -SN VV003 M06/M07 A3011 690 88 -1600 010/14 RMK AO2 SFC VIS 1 P0001 $
14837KMSN MSN20060215214512102/15/06 21:45:31  5-MIN KMSN 160345Z 01014KT 1/2SM -SN VV003 M06/M07 A3011 690 92 -1700 010/14 RMK AO2 SFC VIS 1 P0001 $
14837KMSN MSN20060215215013802/15/06 21:50:31  5-MIN KMSN 160350Z 01012KT 1/2SM -SN VV004 M06/M07 A3011 690 92 -1700 010/12 RMK AO2 SFC VIS 1 SLP209 P0001 T10611072 $
14837KMSN MSN20060215215512102/15/06 21:55:31  5-MIN KMSN 160355Z 01011KT 1/2SM -SN VV004 M06/M07 A3011 690 92 -1700 010/11 RMK AO2 SFC VIS 1 P0000 $
14837KMSN MSN20060215220012102/15/06 22:00:31  5-MIN KMSN 160400Z 01011KT 1/2SM -SN VV004 M06/M08 A3011 680 88 -1700 010/11 RMK AO2 SFC VIS 1 P0000 $
14837KMSN MSN20060215220512102/15/06 22:05:31  5-MIN KMSN 160405Z 36011KT 1/2SM -SN VV004 M06/M08 A3012 680 88 -1700 360/11 RMK AO2 SFC VIS 1 P0000 $
14837KMSN MSN20060215221012102/15/06 22:10:31  5-MIN KMSN 160410Z 36010KT 1/2SM -SN VV004 M06/M08 A3013 670 88 -1700 360/10 RMK AO2 SFC VIS 1 P0000 $
14837KMSN MSN20060215221512102/15/06 22:15:31  5-MIN KMSN 160415Z 01013KT 1/2SM -SN VV004 M06/M08 A3012 680 88 -1700 360/13 RMK AO2 SFC VIS 1 P0000 $
14837KMSN MSN20060215222012102/15/06 22:20:31  5-MIN KMSN 160420Z 01012KT 1/2SM -SN VV004 M06/M08 A3012 680 88 -1700 010/12 RMK AO2 SFC VIS 1 P0000 $
14837KMSN MSN20060215222512102/15/06 22:25:31  5-MIN KMSN 160425Z 01012KT 1/2SM -SN VV005 M06/M08 A3012 680 88 -1700 010/12 RMK AO2 SFC VIS 1 P0000 $
14837KMSN MSN20060215223012102/15/06 22:30:31  5-MIN KMSN 160430Z 01013KT 1/2SM -SN VV006 M06/M08 A3012 680 88 -1700 010/13 RMK AO2 SFC VIS 1 P0000 $
14837KMSN MSN20060215223512102/15/06 22:35:31  5-MIN KMSN 160435Z 01014KT 1/2SM -SN VV008 M06/M08 A3012 680 88 -1700 010/14 RMK AO2 SFC VIS 1 P0000 $
14837KMSN MSN20060215224012102/15/06 22:40:31  5-MIN KMSN 160440Z 01013KT 1/2SM -SN VV009 M06/M08 A3011 690 88 -1700 010/13 RMK AO2 SFC VIS 1 P0000 $
14837KMSN MSN20060215224512102/15/06 22:45:31  5-MIN KMSN 160445Z 01011KT 1/2SM -SN VV010 M06/M08 A3011 690 88 -1700 010/11 RMK AO2 SFC VIS 1 P0001 $
14837KMSN MSN20060215225013802/15/06 22:50:31  5-MIN KMSN 160450Z 01012KT 1/2SM -SN VV011 M06/M08 A3012 680 88 -1700 360/12 RMK AO2 SFC VIS 1 SLP210 P0001 T10611078 $
14837KMSN MSN20060215225512602/15/06 22:55:31  5-MIN KMSN 160455Z 01012KT 1/2SM -SN OVC012 M06/M08 A3012 680 88 -1700 360/12 RMK AO2 SFC VIS 1 3/4 P0000 $
14837KMSN MSN20060215230012102/15/06 23:00:31  5-MIN KMSN 160500Z 01014KT 1/2SM -SN VV013 M06/M08 A3011 690 88 -1700 010/14 RMK AO2 SFC VIS 1 P0000 $
14837KMSN MSN20060215230512102/15/06 23:05:31  5-MIN KMSN 160505Z 01013KT 1/2SM -SN VV014 M06/M08 A3011 690 88 -1700 010/13 RMK AO2 SFC VIS 1 P0000 $
14837KMSN MSN20060215231012102/15/06 23:10:31  5-MIN KMSN 160510Z 01013KT 1/2SM -SN VV015 M06/M08 A3011 690 88 -1700 010/13 RMK AO2 SFC VIS 1 P0000 $
14837KMSN MSN20060215231510902/15/06 23:15:31  5-MIN KMSN 160515Z 01012KT 1SM -SN VV014 M06/M08 A3011 690 84 -1700 010/12 RMK AO2 P0000 $
14837KMSN MSN20060215232010902/15/06 23:20:31  5-MIN KMSN 160520Z 01013KT 1SM -SN VV012 M06/M08 A3010 700 88 -1700 010/13 RMK AO2 P0000 $
14837KMSN MSN20060215232510902/15/06 23:25:31  5-MIN KMSN 160525Z 01013KT 1SM -SN VV010 M06/M08 A3010 700 88 -1700 010/13 RMK AO2 P0000 $
14837KMSN MSN20060215233010902/15/06 23:30:31  5-MIN KMSN 160530Z 02013KT 1SM -SN VV010 M06/M08 A3010 700 88 -1700 010/13 RMK AO2 P0000 $
14837KMSN MSN20060215233511402/15/06 23:35:31  5-MIN KMSN 160535Z 01012KT 1 3/4SM -SN OVC012 M06/M08 A3010 700 88 -1700 010/12 RMK AO2 P0000 $
14837KMSN MSN20060215234011702/15/06 23:40:31  5-MIN KMSN 160540Z 01012KT 2SM -SN BKN014 OVC035 M06/M08 A3010 700 88 -1700 010/12 RMK AO2 P0000 $
14837KMSN MSN20060215234511702/15/06 23:45:31  5-MIN KMSN 160545Z 02012KT 2SM -SN BKN014 OVC033 M06/M08 A3010 700 88 -1700 010/12 RMK AO2 P0000 $
14837KMSN MSN20060215235017402/15/06 23:50:31  5-MIN KMSN 160550Z 01011KT 2SM -SN BKN014 OVC035 M06/M08 A3010 700 88 -1700 010/11 RMK AO2 SLP205 P0000 60025 4/004 T10611078 11022 21061 400111061 50013 $
14837KMSN MSN20060215235511702/15/06 23:55:31  5-MIN KMSN 160555Z 01011KT 2SM -SN BKN016 OVC035 M06/M08 A3010 700 88 -1700 010/11 RMK AO2 P0000 $
14837KMSN MSN20060216000011702/16/06 00:00:38  5-MIN KMSN 160600Z 01010KT 2SM -SN BKN018 OVC035 M06/M08 A3010 690 88 -1700 010/10 RMK AO2 P0000 $
14837KMSN MSN20060216000512102/16/06 00:05:31  5-MIN KMSN 160605Z 02009KT 1 1/2SM -SN BKN016 OVC035 M06/M08 A3011 690 88 -1700 010/09 RMK AO2 P0000 $
14837KMSN MSN20060216001011402/16/06 00:10:31  5-MIN KMSN 160610Z 01011KT 1 1/2SM -SN OVC014 M06/M08 A3011 690 88 -1700 010/11 RMK AO2 P0001 $
14837KMSN MSN20060216001511402/16/06 00:15:32  5-MIN KMSN 160615Z 01010KT 1 1/2SM -SN OVC014 M06/M08 A3011 690 88 -1700 010/10 RMK AO2 P0001 $
14837KMSN MSN20060216002011402/16/06 00:20:31  5-MIN KMSN 160620Z 01010KT 1 1/2SM -SN OVC014 M06/M08 A3011 690 88 -1700 010/10 RMK AO2 P0001 $
14837KMSN MSN20060216002511402/16/06 00:25:31  5-MIN KMSN 160625Z 01011KT 1 1/2SM -SN OVC016 M06/M08 A3011 690 88 -1700 010/11 RMK AO2 P0001 $
14837KMSN MSN20060216003011402/16/06 00:30:31  5-MIN KMSN 160630Z 02010KT 1 1/2SM -SN OVC016 M06/M08 A3011 690 88 -1700 020/10 RMK AO2 P0001 $
14837KMSN MSN20060216003511402/16/06 00:35:31  5-MIN KMSN 160635Z 02011KT 1 1/2SM -SN OVC016 M06/M08 A3011 690 88 -1700 020/11 RMK AO2 P0001 $
14837KMSN MSN20060216004011402/16/06 00:40:31  5-MIN KMSN 160640Z 01010KT 1 1/2SM -SN OVC016 M06/M08 A3012 680 88 -1700 010/10 RMK AO2 P0001 $
14837KMSN MSN20060216004511402/16/06 00:45:31  5-MIN KMSN 160645Z 02012KT 1 1/2SM -SN OVC016 M06/M08 A3011 690 88 -1700 020/12 RMK AO2 P0001 $
14837KMSN MSN20060216005013102/16/06 00:50:31  5-MIN KMSN 160650Z 02012KT 1 1/2SM -SN OVC016 M06/M08 A3011 690 88 -1700 020/12 RMK AO2 SLP207 P0002 T10611078 $
14837KMSN MSN20060216005511402/16/06 00:55:31  5-MIN KMSN 160655Z 02010KT 1 3/4SM -SN OVC016 M06/M08 A3011 690 88 -1700 020/10 RMK AO2 P0000 $
14837KMSN MSN20060216010011402/16/06 01:00:31  5-MIN KMSN 160700Z 02011KT 1 1/2SM -SN OVC016 M06/M08 A3011 690 88 -1700 020/11 RMK AO2 P0000 $
14837KMSN MSN20060216010511402/16/06 01:05:31  5-MIN KMSN 160705Z 02013KT 1 1/2SM -SN OVC014 M06/M08 A3010 690 84 -1600 020/13 RMK AO2 P0000 $
14837KMSN MSN20060216011011402/16/06 01:10:31  5-MIN KMSN 160710Z 02010KT 1 1/4SM -SN OVC014 M06/M08 A3011 690 84 -1600 020/10 RMK AO2 P0000 $
14837KMSN MSN20060216011511402/16/06 01:15:31  5-MIN KMSN 160715Z 03011KT 1 1/4SM -SN OVC012 M06/M07 A3010 700 88 -1600 030/11 RMK AO2 P0001 $
14837KMSN MSN20060216012011402/16/06 01:20:31  5-MIN KMSN 160720Z 03014KT 1 1/4SM -SN OVC012 M06/M08 A3010 700 84 -1600 030/14 RMK AO2 P0001 $
14837KMSN MSN20060216012511402/16/06 01:25:31  5-MIN KMSN 160725Z 03013KT 1 1/4SM -SN OVC012 M06/M08 A3009 710 84 -1600 030/13 RMK AO2 P0001 $
14837KMSN MSN20060216013011402/16/06 01:30:31  5-MIN KMSN 160730Z 03012KT 1 1/2SM -SN OVC012 M06/M08 A3010 700 84 -1600 030/12 RMK AO2 P0001 $
14837KMSN MSN20060216013512102/16/06 01:35:31  5-MIN KMSN 160735Z 03014KT 1 1/2SM -SN BKN012 OVC055 M06/M08 A3010 700 84 -1600 030/14 RMK AO2 P0001 $
14837KMSN MSN20060216014012102/16/06 01:40:31  5-MIN KMSN 160740Z 03014KT 1 3/4SM -SN SCT010 OVC055 M06/M08 A3010 700 84 -1600 030/14 RMK AO2 P0001 $
14837KMSN MSN20060216014512102/16/06 01:45:31  5-MIN KMSN 160745Z 02013KT 1 3/4SM -SN SCT010 OVC055 M06/M08 A3010 700 84 -1600 020/13 RMK AO2 P0001 $
14837KMSN MSN20060216015013202/16/06 01:50:31  5-MIN KMSN 160750Z 03012KT 1 1/2SM -SN FEW010 OVC055 M06/M08 A3009 710 84 -1600 020/12 RMK AO2 SLP201 T10561078 $
14837KMSN MSN20060216015512102/16/06 01:55:31  5-MIN KMSN 160755Z 02012KT 1 1/2SM -SN FEW012 OVC055 M06/M08 A3009 710 84 -1600 020/12 RMK AO2 P0000 $
14837KMSN MSN20060216020011402/16/06 02:00:31  5-MIN KMSN 160800Z 02012KT 1 1/2SM -SN OVC050 M06/M08 A3009 710 84 -1600 020/12 RMK AO2 P0000 $
14837KMSN MSN20060216020511402/16/06 02:05:31  5-MIN KMSN 160805Z 02013KT 1 3/4SM -SN OVC050 M06/M08 A3010 700 84 -1600 020/13 RMK AO2 P0000 $
14837KMSN MSN20060216021011402/16/06 02:10:31  5-MIN KMSN 160810Z 03011KT 2 1/2SM -SN OVC050 M06/M08 A3009 710 84 -1600 030/11 RMK AO2 P0000 $
14837KMSN MSN20060216021511002/16/06 02:15:31  5-MIN KMSN 160815Z 03016KT 3SM -SN OVC050 M06/M08 A3008 720 84 -1600 030/16 RMK AO2 P0000 $
14837KMSN MSN20060216022011002/16/06 02:20:31  5-MIN KMSN 160820Z 03015KT 3SM -SN OVC050 M06/M08 A3008 720 84 -1600 030/15 RMK AO2 P0000 $
14837KMSN MSN20060216022511002/16/06 02:25:31  5-MIN KMSN 160825Z 04013KT 4SM -SN OVC050 M06/M08 A3007 720 84 -1500 030/13 RMK AO2 P0000 $
14837KMSN MSN20060216023011002/16/06 02:30:31  5-MIN KMSN 160830Z 03014KT 4SM -SN OVC050 M06/M08 A3007 720 84 -1500 030/14 RMK AO2 P0000 $
14837KMSN MSN20060216023511002/16/06 02:35:31  5-MIN KMSN 160835Z 03012KT 4SM -SN OVC050 M06/M08 A3007 720 84 -1600 030/12 RMK AO2 P0000 $
14837KMSN MSN20060216024011002/16/06 02:40:31  5-MIN KMSN 160840Z 03013KT 4SM -SN OVC048 M06/M08 A3007 730 84 -1500 030/13 RMK AO2 P0000 $
14837KMSN MSN20060216024511502/16/06 02:45:31  5-MIN KMSN 160845Z 03013KT 4SM BR OVC048 M06/M08 A3006 730 84 -1500 020/13 RMK AO2 SNE43 P0000 $
14837KMSN MSN20060216025013202/16/06 02:50:31  5-MIN KMSN 160850Z 03016KT 5SM BR OVC048 M06/M08 A3006 740 84 -1500 020/16 RMK AO2 SNE43 SLP190 T10561078 58004 $
14837KMSN MSN20060216025510302/16/06 02:55:31  5-MIN KMSN 160855Z 03015KT 6SM BR OVC048 M06/M08 A3005 740 84 -1500 030/15 RMK AO2 $
14837KMSN MSN20060216030010002/16/06 03:00:31  5-MIN KMSN 160900Z 03013KT 7SM OVC046 M06/M08 A3005 740 84 -1500 030/13 RMK AO2 $
14837KMSN MSN20060216030510002/16/06 03:05:31  5-MIN KMSN 160905Z 04014KT 8SM OVC046 M06/M08 A3004 750 84 -1500 040/14 RMK AO2 $
14837KMSN MSN20060216031010002/16/06 03:10:31  5-MIN KMSN 160910Z 04013KT 9SM OVC046 M06/M08 A3004 750 84 -1500 040/13 RMK AO2 $
14837KMSN MSN20060216031510002/16/06 03:15:31  5-MIN KMSN 160915Z 04013KT 9SM OVC046 M06/M08 A3004 750 84 -1500 040/13 RMK AO2 $
14837KMSN MSN20060216032010002/16/06 03:20:31  5-MIN KMSN 160920Z 04012KT 9SM OVC046 M06/M08 A3004 750 84 -1500 040/12 RMK AO2 $
14837KMSN MSN20060216032510002/16/06 03:25:31  5-MIN KMSN 160925Z 05012KT 9SM OVC044 M06/M08 A3004 750 84 -1500 040/12 RMK AO2 $
14837KMSN MSN20060216033010002/16/06 03:30:31  5-MIN KMSN 160930Z 04014KT 9SM OVC044 M06/M08 A3004 760 84 -1500 040/14 RMK AO2 $
14837KMSN MSN20060216033510102/16/06 03:35:31  5-MIN KMSN 160935Z 04014KT 10SM OVC044 M06/M08 A3004 750 84 -1500 040/14 RMK AO2 $
14837KMSN MSN20060216034010102/16/06 03:40:31  5-MIN KMSN 160940Z 04010KT 10SM OVC042 M06/M08 A3004 750 84 -1500 040/10 RMK AO2 $
14837KMSN MSN20060216034510102/16/06 03:45:31  5-MIN KMSN 160945Z 04011KT 10SM OVC042 M06/M08 A3004 750 84 -1500 040/11 RMK AO2 $
14837KMSN MSN20060216035011802/16/06 03:50:31  5-MIN KMSN 160950Z 04013KT 10SM OVC040 M06/M08 A3004 760 84 -1500 040/13 RMK AO2 SLP182 T10561078 $
14837KMSN MSN20060216035510102/16/06 03:55:31  5-MIN KMSN 160955Z 04012KT 10SM OVC040 M06/M08 A3003 760 84 -1500 030/12 RMK AO2 $
14837KMSN MSN20060216040010102/16/06 04:00:31  5-MIN KMSN 161000Z 04012KT 10SM OVC040 M06/M08 A3003 770 84 -1500 040/12 RMK AO2 $
14837KMSN MSN20060216040510102/16/06 04:05:31  5-MIN KMSN 161005Z 04012KT 10SM OVC040 M06/M08 A3002 770 84 -1500 030/12 RMK AO2 $
14837KMSN MSN20060216041010102/16/06 04:10:31  5-MIN KMSN 161010Z 04012KT 10SM OVC040 M06/M08 A3003 770 84 -1500 040/12 RMK AO2 $
14837KMSN MSN20060216041511502/16/06 04:15:31  5-MIN KMSN 161015Z 03016KT 10SM FEW013 OVC040 M06/M08 A3000 790 84 -1500 030/16 RMK AO2 PRESFR $
14837KMSN MSN20060216042011402/16/06 04:20:31  5-MIN KMSN 161020Z 03014G22KT 10SM FEW013 OVC040 M06/M08 A3001 780 84 -1500 030/14G22 RMK AO2 $
14837KMSN MSN20060216042511402/16/06 04:25:31  5-MIN KMSN 161025Z 03014G22KT 10SM SCT013 OVC040 M06/M08 A3001 780 84 -1500 030/14G22 RMK AO2 $
14837KMSN MSN20060216043011302/16/06 04:30:31  5-MIN KMSN 161030Z 03012KT 10SM BLSN BKN013 OVC040 M06/M08 A3002 770 84 -1500 030/12 RMK AO2 $
14837KMSN MSN20060216043511302/16/06 04:35:31  5-MIN KMSN 161035Z 03013KT 10SM BLSN BKN013 OVC040 M06/M07 A3002 770 88 -1500 030/13 RMK AO2 $
14837KMSN MSN20060216044011302/16/06 04:40:31  5-MIN KMSN 161040Z 03011KT 10SM BLSN BKN011 OVC038 M06/M07 A3002 780 88 -1500 030/11 RMK AO2 $
14837KMSN MSN20060216044510602/16/06 04:45:31  5-MIN KMSN 161045Z 04012KT 10SM BLSN OVC011 M06/M07 A3001 780 88 -1500 030/12 RMK AO2 $
14837KMSN MSN20060216045012302/16/06 04:50:31  5-MIN KMSN 161050Z 04013KT 10SM BLSN OVC011 M06/M07 A3000 790 88 -1500 040/13 RMK AO2 SLP172 T10561072 $
14837KMSN MSN20060216045511902/16/06 04:55:31  5-MIN KMSN 161055Z 03016G21KT 10SM BLSN OVC011 M06/M07 A2999 800 88 -1500 030/16G21 RMK AO2 PRESFR $
14837KMSN MSN20060216050011202/16/06 05:00:31  5-MIN KMSN 161100Z 04011G21KT 10SM BLSN OVC011 M05/M07 A3000 790 84 -1400 040/11G21 RMK AO2 $
14837KMSN MSN20060216050510602/16/06 05:05:31  5-MIN KMSN 161105Z 04011KT 10SM BLSN OVC011 M05/M07 A3000 790 84 -1400 040/11 RMK AO2 $
14837KMSN MSN20060216051010602/16/06 05:10:31  5-MIN KMSN 161110Z 04011KT 10SM BLSN OVC011 M05/M07 A3000 790 84 -1400 040/11 RMK AO2 $
14837KMSN MSN20060216051510602/16/06 05:15:31  5-MIN KMSN 161115Z 04014KT 10SM BLSN OVC011 M05/M07 A3000 790 84 -1400 040/14 RMK AO2 $
14837KMSN MSN20060216052010602/16/06 05:20:31  5-MIN KMSN 161120Z 04012KT 10SM BLSN OVC011 M05/M07 A3000 800 84 -1400 040/12 RMK AO2 $
14837KMSN MSN20060216052510602/16/06 05:25:31  5-MIN KMSN 161125Z 04014KT 10SM BLSN OVC011 M05/M07 A2999 800 84 -1400 040/14 RMK AO2 $
14837KMSN MSN20060216053011302/16/06 05:30:31  5-MIN KMSN 161130Z 05016KT 10SM BLSN OVC011 M05/M07 A2998 810 88 -1400 040/16 RMK AO2 PRESFR $
14837KMSN MSN20060216053510602/16/06 05:35:31  5-MIN KMSN 161135Z 04013KT 10SM BLSN OVC011 M05/M07 A2999 800 88 -1400 040/13 RMK AO2 $
14837KMSN MSN20060216054010602/16/06 05:40:31  5-MIN KMSN 161140Z 05012KT 10SM BLSN OVC011 M05/M07 A2999 800 88 -1400 040/12 RMK AO2 $
14837KMSN MSN20060216054510602/16/06 05:45:31  5-MIN KMSN 161145Z 04013KT 10SM BLSN OVC011 M05/M07 A2999 800 88 -1400 040/13 RMK AO2 $
14837KMSN MSN20060216055012402/16/06 05:50:31  5-MIN KMSN 161150Z 04012KT 10SM BLSN OVC009 M05/M07 A2998 810 88 -1400 040/12 RMK AO2 60004 70029 4/004 $
14837KMSN MSN20060216055510602/16/06 05:55:31  5-MIN KMSN 161155Z 04014KT 10SM BLSN OVC009 M05/M07 A2998 810 88 -1400 040/14 RMK AO2 $
14837KMSN MSN20060216060010602/16/06 06:00:31  5-MIN KMSN 161200Z 04013KT 10SM BLSN OVC009 M05/M07 A2997 820 88 -1400 040/13 RMK AO2 $
14837KMSN MSN20060216060511302/16/06 06:05:31  5-MIN KMSN 161205Z 04014KT 10SM BLSN OVC009 M05/M07 A2996 820 88 -1400 040/14 RMK AO2 PRESFR $
14837KMSN MSN20060216061010602/16/06 06:10:31  5-MIN KMSN 161210Z 04013KT 10SM BLSN OVC009 M05/M07 A2996 830 88 -1300 040/13 RMK AO2 $
14837KMSN MSN20060216061510602/16/06 06:15:31  5-MIN KMSN 161215Z 04014KT 10SM BLSN OVC009 M05/M07 A2995 830 88 -1300 040/14 RMK AO2 $
14837KMSN MSN20060216062010002/16/06 06:20:31  5-MIN KMSN 161220Z 04013KT 9SM OVC009 M05/M07 A2996 830 88 -1300 040/13 RMK AO2 $
14837KMSN MSN20060216062510002/16/06 06:25:31  5-MIN KMSN 161225Z 04011KT 8SM OVC009 M05/M07 A2995 830 88 -1300 040/11 RMK AO2 $
14837KMSN MSN20060216063010002/16/06 06:30:31  5-MIN KMSN 161230Z 04011KT 7SM OVC009 M04/M06 A2995 840 88 -1300 040/11 RMK AO2 $
14837KMSN MSN20060216063510602/16/06 06:35:31  5-MIN KMSN 161235Z 04013KT 7SM OVC009 M04/M06 A2995 840 88 -1300 040/13 RMK AO2 P0001 $
14837KMSN MSN20060216064010002/16/06 06:40:31  5-MIN KMSN 161240Z 04010KT 8SM OVC009 M04/M06 A2995 840 88 -1300 040/10 RMK AO2 $
14837KMSN MSN20060216064509802/16/06 06:45:31  5-MIN KMSN 161245Z 03011KT 8SM OVC009 M04/M06 A2994 840 88 -1300 030/11 RMK AO2
14837KMSN MSN20060216065011802/16/06 06:50:31  5-MIN KMSN 161250Z 04012KT 5SM BR OVC009 M04/M06 A2994 850 88 -1300 040/12 RMK AO2 SLP150 T10441061
14837KMSN MSN20060216065510502/16/06 06:55:31  5-MIN KMSN 161255Z 04013KT 7SM OVC009 M04/M06 A2993 860 88 -1200 030/13 RMK AO2 PRESFR
14837KMSN MSN20060216070010802/16/06 07:00:31  5-MIN KMSN 161300Z 03012KT 6SM BR OVC009 M04/M06 A2992 870 88 -1200 030/12 RMK AO2 PRESFR
14837KMSN MSN20060216070509802/16/06 07:05:31  5-MIN KMSN 161305Z 04012KT 7SM OVC007 M04/M06 A2991 870 88 -1200 040/12 RMK AO2
14837KMSN MSN20060216071010102/16/06 07:10:31  5-MIN KMSN 161310Z 04013KT 6SM BR OVC007 M04/M06 A2991 870 88 -1200 040/13 RMK AO2
14837KMSN MSN20060216071510102/16/06 07:15:31  5-MIN KMSN 161315Z 03013KT 6SM BR OVC007 M04/M06 A2991 870 88 -1200 030/13 RMK AO2
14837KMSN MSN20060216072009802/16/06 07:20:31  5-MIN KMSN 161320Z 03012KT 8SM OVC007 M04/M06 A2991 870 88 -1200 030/12 RMK AO2
14837KMSN MSN20060216072509802/16/06 07:25:31  5-MIN KMSN 161325Z 03014KT 9SM OVC007 M04/M06 A2992 870 88 -1200 030/14 RMK AO2
14837KMSN MSN20060216073009902/16/06 07:30:31  5-MIN KMSN 161330Z 03014KT 10SM OVC007 M04/M06 A2991 870 92 -1200 030/14 RMK AO2
14837KMSN MSN20060216073509802/16/06 07:35:31  5-MIN KMSN 161335Z 03016KT 9SM OVC007 M04/M06 A2991 880 92 -1200 030/16 RMK AO2
14837KMSN MSN20060216074009802/16/06 07:40:31  5-MIN KMSN 161340Z 02014KT 9SM OVC007 M04/M06 A2992 870 92 -1200 020/14 RMK AO2
14837KMSN MSN20060216074509802/16/06 07:45:31  5-MIN KMSN 161345Z 03016KT 8SM OVC007 M04/M06 A2991 880 92 -1200 030/16 RMK AO2
14837KMSN MSN20060216075013102/16/06 07:50:31  5-MIN KMSN 161350Z 02014KT 7SM -SN OVC007 M04/M06 A2990 880 88 -1200 020/14 RMK AO2 SNB46 SLP137 P0000 T10441061
14837KMSN MSN20060216075510802/16/06 07:55:31  5-MIN KMSN 161355Z 03017KT 6SM -SN OVC007 M04/M06 A2989 890 88 -1200 030/17 RMK AO2 P0000
14837KMSN MSN20060216080012102/16/06 08:00:31  5-MIN KMSN 161400Z 03017G22KT 3SM -SN OVC007 M04/M06 A2987 910 88 -1200 030/17G22 RMK AO2 PRESFR P0000
14837KMSN MSN20060216080511102/16/06 08:05:31  5-MIN KMSN 161405Z 02018KT 2SM -SN BR OVC007 M05/M06 A2988 900 92 -1300 020/18 RMK AO2 P0000
14837KMSN MSN20060216081014102/16/06 08:10:31  5-MIN KMSN 161410Z 02022G26KT 1 1/2SM -SN BLSN OVC007 M04/M06 A2987 910 88 -1200 020/22G26 RMK AO2 PK WND 02026/1410 P0000
14837KMSN MSN20060216081514802/16/06 08:15:31  5-MIN KMSN 161415Z 02020G26KT 1 1/2SM -SN BLSN OVC007 M04/M06 A2985 930 88 -1200 020/20G26 RMK AO2 PK WND 02026/1412 PRESFR P0000
14837KMSN MSN20060216082015202/16/06 08:20:31  5-MIN KMSN 161420Z 02018G25KT 1/2SM SN BLSN OVC007 M04/M06 A2986 920 88 -1200 020/18G25 RMK AO2 PK WND 02026/1412 TWR VIS 1 1/2 P0000
14837KMSN MSN20060216082513802/16/06 08:25:31  5-MIN KMSN 161425Z 02018G24KT 1/2SM SN BLSN OVC007 M04/M06 A2986 920 88 -1200 020/18G24 RMK AO2 PK WND 02026/1412 P0000
14837KMSN MSN20060216083015702/16/06 08:30:31  5-MIN KMSN 161430Z 02016G23KT 1/2SM SN BLSN BKN007 OVC012 M04/M06 A2988 910 88 -1200 020/16G23 RMK AO2 PK WND 02026/1412 CIG 006V010 P0001
14837KMSN MSN20060216083515202/16/06 08:35:31  5-MIN KMSN 161435Z 02016G22KT 1/2SM SN BLSN BKN007 OVC012 M04/M06 A2989 900 88 -1200 020/16G22 RMK AO2 PK WND 02026/1412 PRESRR P0001
14837KMSN MSN20060216084015902/16/06 08:40:31  5-MIN KMSN 161440Z 01014G22KT 1/2SM SN BLSN FEW003 BKN007 OVC012 M04/M06 A2990 890 88 -1200 010/14G22 RMK AO2 PK WND 02026/1412 PRESRR P0002
14837KMSN MSN20060216084515902/16/06 08:45:31  5-MIN KMSN 161445Z 01014KT 1/4SM +SN BLSN SCT001 BKN007 OVC012 M04/M06 A2989 890 92 -1200 010/14 RMK AO2 PK WND 02026/1412 TWR VIS 1/2 P0002
14837KMSN MSN20060216085015202/16/06 08:50:31  5-MIN KMSN 161450Z 01016KT 1/4SM +SN BLSN BKN001 OVC010 M04/M06 A2988 900 88 -1200 010/16 RMK AO2 PK WND 02026/1412 TWR VIS 1/4 P0002
14837KMSN MSN20060216085513402/16/06 08:55:31  5-MIN KMSN 161455Z 02015KT 1/4SM +SN BLSN BKN001 OVC012 M04/M06 A2988 900 92 -1200 020/15 RMK AO2 TWR VIS 1/4 P0000
14837KMSN MSN20060216090012402/16/06 09:00:31  5-MIN KMSN 161500Z 01015KT 1/4SM +SN BLSN BKN001 OVC009 M04/M06 A2988 900 92 -1200 010/15 RMK AO2 P0000 $
14837KMSN MSN20060216090511602/16/06 09:05:31  5-MIN KMSN 161505Z 01016KT 1/4SM +SN BLSN VV001 M04/M06 A2987 910 92 -1200 010/16 RMK AO2 P0000 $
14837KMSN MSN20060216091012302/16/06 09:10:31  5-MIN KMSN 161510Z 02018KT 1/4SM +SN BLSN VV001 M04/M06 A2986 920 92 -1200 020/18 RMK AO2 PRESFR P0001 $
14837KMSN MSN20060216091512302/16/06 09:15:31  5-MIN KMSN 161515Z 01015KT 1/4SM +SN BLSN VV001 M04/M06 A2985 930 92 -1200 010/15 RMK AO2 PRESFR P0001 $
14837KMSN MSN20060216092011602/16/06 09:20:31  5-MIN KMSN 161520Z 01017KT 1/4SM +SN BLSN VV001 M04/M06 A2986 920 92 -1200 010/17 RMK AO2 P0002 $
14837KMSN MSN20060216092512202/16/06 09:25:31  5-MIN KMSN 161525Z 01017G22KT 1/4SM +SN BLSN VV001 M04/M06 A2986 920 92 -1200 010/17G22 RMK AO2 P0003 $
14837KMSN MSN20060216093015302/16/06 09:30:31  5-MIN KMSN 161530Z 01015KT 1/4SM +TSSN BLSN VV001 M04/M06 A2988 900 92 -1200 010/15 RMK AO2 TSB28 OCNL LTGIC OHD TS OHD MOV NE P0004 $
14837KMSN MSN20060216093515802/16/06 09:35:31  5-MIN KMSN 161535Z 01013KT 1/4SM +TSSN BLSN VV001 M04/M06 A2989 890 92 -1200 010/13 RMK AO2 TSB28 PRESRR OCNL LTGIC OHD TS OHD MOV NE P0004
14837KMSN MSN20060216094015902/16/06 09:40:31  5-MIN KMSN 161540Z 02017G20KT 1/4SM +TSSN BLSN VV001 M04/M06 A2988 900 92 -1200 010/17G20 RMK AO2 TSB28 OCNL LTGIC OHD TS OHD MOV NE P0005 $
14837KMSN MSN20060216094515902/16/06 09:45:31  5-MIN KMSN 161545Z 01012G20KT 1/4SM +TSSN BLSN VV001 M04/M06 A2988 900 92 -1200 010/12G20 RMK AO2 TSB28 OCNL LTGIC OHD TS OHD MOV NE P0005 $
14837KMSN MSN20060216095017002/16/06 09:50:31  5-MIN KMSN 161550Z 01012KT 1/4SM +TSSN BLSN VV001 M05/M06 A2988 900 92 -1300 360/12 RMK AO2 TSB28 SLP131 OCNL LTGIC OHD TS OHD MOV NE P0006 T10501061 $
14837KMSN MSN20060216095515102/16/06 09:55:31  5-MIN KMSN 161555Z 02017KT 1/4SM +TSSN VV001 M05/M06 A2986 920 92 -1200 020/17 RMK AO2 PRESFR OCNL LTGCGIC OHD TS OHD MOV NE P0000 $
14837KMSN MSN20060216100014402/16/06 10:00:31  5-MIN KMSN 161600Z 01016KT 1/4SM +TSSN VV001 M05/M06 A2986 920 92 -1200 010/16 RMK AO2 OCNL LTGCGIC OHD TS OHD MOV NE P0001 $
14837KMSN MSN20060216100514402/16/06 10:05:31  5-MIN KMSN 161605Z 01015KT 1/4SM +TSSN VV001 M05/M06 A2987 910 92 -1200 010/15 RMK AO2 OCNL LTGCGIC OHD TS OHD MOV NE P0002 $
14837KMSN MSN20060216101014402/16/06 10:10:31  5-MIN KMSN 161610Z 01015KT 1/4SM +TSSN VV001 M05/M06 A2987 910 92 -1200 010/15 RMK AO2 OCNL LTGCGIC OHD TS OHD MOV NE P0003 $
14837KMSN MSN20060216101511702/16/06 10:15:31  5-MIN KMSN 161615Z 02015KT 1/4SM +SN VV001 M05/M06 A2986 920 92 -1200 020/15 RMK AO2 TSE14 P0003 $
14837KMSN MSN20060216102012202/16/06 10:20:31  5-MIN KMSN 161620Z 02015KT 1/4SM +SN BLSN VV001 M05/M06 A2984 940 92 -1200 010/15 RMK AO2 TSE14 P0004 $
14837KMSN MSN20060216102512202/16/06 10:25:31  5-MIN KMSN 161625Z 02017KT 1/4SM +SN BLSN VV001 M05/M06 A2984 940 92 -1200 020/17 RMK AO2 TSE14 P0004 $
14837KMSN MSN20060216103012202/16/06 10:30:31  5-MIN KMSN 161630Z 02017KT 1/4SM +SN BLSN VV001 M05/M06 A2984 940 92 -1200 020/17 RMK AO2 TSE14 P0004 $
14837KMSN MSN20060216103512202/16/06 10:35:31  5-MIN KMSN 161635Z 02018KT 1/4SM +SN BLSN VV001 M05/M06 A2983 950 92 -1200 020/18 RMK AO2 TSE14 P0006 $
14837KMSN MSN20060216104012202/16/06 10:40:31  5-MIN KMSN 161640Z 02016KT 1/4SM +SN BLSN VV001 M05/M06 A2983 940 92 -1200 020/16 RMK AO2 TSE14 P0006 $
14837KMSN MSN20060216104513302/16/06 10:45:31  5-MIN KMSN 161645Z 01015KT 1/4SM SN FZFG VV001 M05/M06 A2983 950 92 -1200 010/15 RMK AO2 SFC VIS 1/2 TSE14 P0007 $
14837KMSN MSN20060216105015002/16/06 10:50:31  5-MIN KMSN 161650Z 02017KT 1/4SM SN FZFG VV001 M05/M06 A2982 950 92 -1200 020/17 RMK AO2 SFC VIS 1/2 TSE14 SLP112 P0007 T10501061 $
14837KMSN MSN20060216105510802/16/06 10:55:31  5-MIN KMSN 161655Z 01015KT 1/2SM SN VV001 M05/M07 A2982 950 88 -1200 010/15 RMK AO2 P0000
14837KMSN MSN20060216110011902/16/06 11:00:31  5-MIN KMSN 161700Z 01016KT 1/2SM -SN VV001 M05/M07 A2982 960 88 -1200 010/16 RMK AO2 SFC VIS 1 P0000
14837KMSN MSN20060216110510702/16/06 11:05:31  5-MIN KMSN 161705Z 01017KT 1SM -SN VV001 M05/M07 A2982 960 88 -1200 010/17 RMK AO2 P0000
14837KMSN MSN20060216111011202/16/06 11:10:31  5-MIN KMSN 161710Z 02017KT 1 3/4SM -SN BKN004 M05/M07 A2981 970 88 -1200 010/17 RMK AO2 P0000
14837KMSN MSN20060216111512302/16/06 11:15:31  5-MIN KMSN 161715Z 02020G24KT 2SM SCT001 OVC005 M05/M07 A2981 970 88 -1200 020/20G24 RMK AO2 SNE15 P0000
14837KMSN MSN20060216112011502/16/06 11:20:31  5-MIN KMSN 161720Z 01016KT 2SM -SN SCT001 OVC005 M05/M07 A2980 970 88 -1200 010/16 RMK AO2 P0000
14837KMSN MSN20060216112513802/16/06 11:25:31  5-MIN KMSN 161725Z 01016G23KT 3SM -SN FEW001 SCT007 OVC033 M05/M07 A2980 970 88 -1200 010/16G23 RMK AO2 P0001 SCT V BKN
14837KMSN MSN20060216113012402/16/06 11:30:31  5-MIN KMSN 161730Z 01017G23KT 3SM -SN SCT033 M05/M07 A2980 980 88 -1200 010/17G23 RMK AO2 P0001 SCT V BKN
14837KMSN MSN20060216113512402/16/06 11:35:31  5-MIN KMSN 161735Z 01018G24KT 3SM -SN BKN033 M05/M07 A2981 970 84 -1200 010/18G24 RMK AO2 P0001 SCT V BKN
14837KMSN MSN20060216114012402/16/06 11:40:31  5-MIN KMSN 161740Z 01019G24KT 3SM -SN BKN033 M06/M07 A2980 970 88 -1200 010/19G24 RMK AO2 P0001 SCT V BKN
14837KMSN MSN20060216114510802/16/06 11:45:31  5-MIN KMSN 161745Z 02020KT 5SM -SN BKN033 M06/M07 A2980 970 88 -1200 020/20 RMK AO2 P0001
14837KMSN MSN20060216115014302/16/06 11:50:31  5-MIN KMSN 161750Z 01018KT 5SM -SN OVC033 M06/M07 A2981 970 88 -1200 010/18 RMK AO2 SLP106 P0001 T10561072 11044 21056 56033
14837KMSN MSN20060216115511302/16/06 11:55:31  5-MIN KMSN 161755Z 01017KT 4SM -SN BLSN OVC033 M06/M07 A2980 970 88 -1200 010/17 RMK AO2 P0000
14837KMSN MSN20060216120012602/16/06 12:00:31  5-MIN KMSN 161800Z 01020G23KT 4SM -SN BLSN FEW013 OVC033 M06/M07 A2980 970 88 -1200 010/20G23 RMK AO2 P0000
14837KMSN MSN20060216120512602/16/06 12:05:31  5-MIN KMSN 161805Z 01015G23KT 3SM -SN BLSN FEW013 OVC031 M06/M07 A2979 980 88 -1200 010/15G23 RMK AO2 P0000
14837KMSN MSN20060216121013102/16/06 12:10:31  5-MIN KMSN 161810Z 01018KT 2 1/2SM -SN BLSN FEW013 SCT025 OVC031 M06/M07 A2978 990 88 -1200 010/18 RMK AO2 P0000
14837KMSN MSN20060216121514502/16/06 12:15:31  5-MIN KMSN 161815Z 01018KT 1 1/2SM -SN BLSN FEW013 BKN025 OVC031 M06/M07 A2978 990 88 -1200 010/18 RMK AO2 SFC VIS 1 3/4 P0000
14837KMSN MSN20060216122014102/16/06 12:20:31  5-MIN KMSN 161820Z 01016KT 1 1/2SM -SN BLSN FEW013 BKN025 OVC031 M06/M08 A2979 990 84 -1200 010/16 RMK AO2 SFC VIS 2 P0000
14837KMSN MSN20060216122514702/16/06 12:25:31  5-MIN KMSN 161825Z 01016G21KT 1 1/2SM -SN BLSN FEW015 BKN025 OVC031 M06/M08 A2979 980 84 -1200 010/16G21 RMK AO2 SFC VIS 2 P0000
14837KMSN MSN20060216123014702/16/06 12:30:31  5-MIN KMSN 161830Z 01018G22KT 1 1/2SM -SN BLSN SCT017 BKN024 OVC031 M06/M08 A2979 980 84 -1200 010/18G22 RMK AO2 SFC VIS 2 P0000
14837KMSN MSN20060216123514002/16/06 12:35:31  5-MIN KMSN 161835Z 01019G22KT 1 1/2SM -SN BLSN BKN017 OVC024 M06/M08 A2979 980 84 -1200 010/19G22 RMK AO2 SFC VIS 2 P0000
14837KMSN MSN20060216124014002/16/06 12:40:31  5-MIN KMSN 161840Z 02017G23KT 1 1/2SM -SN BLSN FEW014 OVC022 M06/M08 A2978 990 84 -1200 010/17G23 RMK AO2 SFC VIS 2 P0000
14837KMSN MSN20060216124514902/16/06 12:45:31  5-MIN KMSN 161845Z 01019G27KT 1 1/2SM -SN BLSN BKN019 OVC024 M06/M08 A2977 1000 84 -1200 010/19G27 RMK AO2 PK WND 02027/1843 P0000
14837KMSN MSN20060216125017202/16/06 12:50:31  5-MIN KMSN 161850Z 01017G27KT 1 1/2SM -SN BLSN OVC019 M06/M08 A2978 990 84 -1200 010/17G27 RMK AO2 PK WND 02027/1843 SFC VIS 1 3/4 SLP097 P0001 T10561078
14837KMSN MSN20060216125513702/16/06 12:55:31  5-MIN KMSN 161855Z 01018G25KT 1 1/2SM -SN BLSN OVC019 M06/M08 A2979 990 84 -1200 010/18G25 RMK AO2 SFC VIS 1 3/4 P0000
14837KMSN MSN20060216130013702/16/06 13:00:31  5-MIN KMSN 161900Z 01017G25KT 1 1/2SM -SN BLSN OVC019 M06/M08 A2980 980 84 -1200 360/17G25 RMK AO2 SFC VIS 1 3/4 P0000
14837KMSN MSN20060216130513702/16/06 13:05:31  5-MIN KMSN 161905Z 01017G25KT 1 1/2SM -SN BLSN OVC017 M06/M08 A2978 990 84 -1200 010/17G25 RMK AO2 SFC VIS 1 3/4 P0000
14837KMSN MSN20060216131014102/16/06 13:10:31  5-MIN KMSN 161910Z 01020G24KT 1SM -SN BLSN FEW011 OVC017 M06/M08 A2976 1010 84 -1200 010/20G24 RMK AO2 TWR VIS 1 1/2 P0000
14837KMSN MSN20060216131512702/16/06 13:15:31  5-MIN KMSN 161915Z 01020G24KT 1SM -SN BLSN FEW008 OVC017 M06/M08 A2977 1000 84 -1200 010/20G24 RMK AO2 P0000
14837KMSN MSN20060216132013902/16/06 13:20:31  5-MIN KMSN 161920Z 01018KT 1SM -SN BLSN SCT006 OVC017 M06/M08 A2977 1000 84 -1200 010/18 RMK AO2 PK WND 01026/1917 P0000
14837KMSN MSN20060216132514502/16/06 13:25:31  5-MIN KMSN 161925Z 01017KT 1SM -SN BLSN SCT006 BKN017 OVC030 M06/M08 A2979 990 84 -1200 010/17 RMK AO2 PK WND 01026/1917 P0000
14837KMSN MSN20060216133015202/16/06 13:30:31  5-MIN KMSN 161930Z 01017KT 1SM -SN BLSN SCT008 BKN017 OVC028 M06/M08 A2980 980 84 -1200 010/17 RMK AO2 PK WND 01026/1917 PRESRR P0000
14837KMSN MSN20060216133515902/16/06 13:35:31  5-MIN KMSN 161935Z 01020KT 1SM -SN BLSN SCT008 BKN015 OVC028 M06/M08 A2978 990 84 -1200 010/20 RMK AO2 PK WND 01026/1917 SFC VIS 1 1/2 P0000
14837KMSN MSN20060216134016002/16/06 13:40:31  5-MIN KMSN 161940Z 01022KT 1SM -SN BLSN SCT008 SCT015 OVC028 M06/M08 A2976 1010 84 -1200 010/22 RMK AO2 PK WND 01026/1917 SFC VIS 1 1/2 P0000
14837KMSN MSN20060216134516002/16/06 13:45:31  5-MIN KMSN 161945Z 01020KT 1SM -SN BLSN SCT012 BKN019 OVC031 M06/M08 A2977 1000 84 -1200 010/20 RMK AO2 PK WND 01026/1917 SFC VIS 1 1/2 P0000
14837KMSN MSN20060216135018202/16/06 13:50:31  5-MIN KMSN 161950Z 01017G25KT 1 1/2SM -SN BLSN SCT014 BKN019 OVC027 M06/M08 A2979 990 84 -1200 010/17G25 RMK AO2 PK WND 01026/1917 SFC VIS 2 SLP100 P0000 T10561078
14837KMSN MSN20060216135515102/16/06 13:55:31  5-MIN KMSN 161955Z 01018G25KT 1 1/2SM -SN BLSN SCT014 BKN019 OVC027 M06/M08 A2979 980 84 -1200 010/18G25 RMK AO2 SFC VIS 1 3/4 P0000
14837KMSN MSN20060216140016902/16/06 14:00:31  5-MIN KMSN 162000Z 01020G26KT 1 1/2SM -SN BLSN BKN014 BKN019 OVC035 M06/M08 A2979 990 84 -1200 010/20G26 RMK AO2 PK WND 02026/1959 SFC VIS 1 3/4 P0000
14837KMSN MSN20060216140516902/16/06 14:05:31  5-MIN KMSN 162005Z 01020G26KT 1 1/2SM -SN BLSN SCT010 BKN016 OVC035 M06/M08 A2978 990 84 -1200 010/20G26 RMK AO2 PK WND 02026/1959 SFC VIS 1 3/4 P0000
14837KMSN MSN20060216141016302/16/06 14:10:31  5-MIN KMSN 162010Z 01021KT 1 1/2SM -SN BLSN SCT010 BKN016 OVC027 M06/M08 A2978 990 84 -1200 010/21 RMK AO2 PK WND 02026/1959 SFC VIS 1 3/4 P0000
14837KMSN MSN20060216141517702/16/06 14:15:31  5-MIN KMSN 162015Z 01023G29KT 1 1/4SM -SN BLSN BKN013 BKN018 OVC036 M06/M08 A2977 1000 84 -1200 010/23G29 RMK AO2 PK WND 01029/2012 TWR VIS 1 1/2 PRESFR P0000
14837KMSN MSN20060216142015602/16/06 14:20:31  5-MIN KMSN 162020Z 01023G29KT 1 1/2SM -SN BLSN BKN013 BKN019 OVC038 M06/M08 A2977 1000 84 -1200 010/23G29 RMK AO2 PK WND 01029/2012 P0000
14837KMSN MSN20060216142515602/16/06 14:25:31  5-MIN KMSN 162025Z 01020G28KT 1 1/2SM -SN BLSN SCT013 BKN019 OVC038 M06/M08 A2978 1000 84 -1200 010/20G28 RMK AO2 PK WND 01029/2012 P0000
14837KMSN MSN20060216143016502/16/06 14:30:31  5-MIN KMSN 162030Z 01018G25KT 1 1/2SM -SN BLSN SCT013 BKN027 OVC038 M06/M08 A2978 990 84 -1200 010/18G25 RMK AO2 PK WND 01029/2012 SFC VIS 2 P0000
14837KMSN MSN20060216143516502/16/06 14:35:31  5-MIN KMSN 162035Z 01022G26KT 1 1/2SM -SN BLSN SCT013 SCT020 OVC038 M06/M08 A2978 990 84 -1200 010/22G26 RMK AO2 PK WND 01029/2012 SFC VIS 2 P0000
14837KMSN MSN20060216144016202/16/06 14:40:31  5-MIN KMSN 162040Z 01020G26KT 1 1/2SM -SN BLSN FEW015 OVC038 M06/M08 A2978 990 84 -1200 010/20G26 RMK AO2 PK WND 01029/2012 SFC VIS 1 3/4 P0000
14837KMSN MSN20060216144515702/16/06 14:45:31  5-MIN KMSN 162045Z 01020KT 1 1/2SM -SN BLSN FEW015 OVC038 M06/M08 A2977 1000 84 -1200 010/20 RMK AO2 PK WND 01029/2012 SFC VIS 1 3/4 P0000
14837KMSN MSN20060216145014702/16/06 14:50:31  5-MIN KMSN 162050Z 01022G28KT 2SM BLSN FEW024 OVC038 M06/M08 A2977 1000 84 -1200 010/22G28 RMK AO2 PK WND 01029/2012 SNE50 P0000
14837KMSN MSN20060216145513602/16/06 14:55:31  5-MIN KMSN 162055Z 01017G28KT 2SM -SN BLSN FEW024 OVC038 M06/M08 A2978 990 81 -1200 010/17G28 RMK AO2 SFC VIS 3 P0000
14837KMSN MSN20060216150013002/16/06 15:00:31  5-MIN KMSN 162100Z 01020KT 2SM -SN BLSN SCT024 OVC038 M06/M08 A2978 990 81 -1200 010/20 RMK AO2 SFC VIS 3 P0000
14837KMSN MSN20060216150512002/16/06 15:05:31  5-MIN KMSN 162105Z 01019KT 4SM -SN BLSN FEW024 OVC038 M06/M08 A2978 990 81 -1200 010/19 RMK AO2 P0000
14837KMSN MSN20060216151013302/16/06 15:10:31  5-MIN KMSN 162110Z 01020G25KT 4SM -SN BLSN FEW016 SCT024 OVC040 M06/M08 A2979 990 81 -1200 010/20G25 RMK AO2 P0000
14837KMSN MSN20060216151512602/16/06 15:15:31  5-MIN KMSN 162115Z 01020G25KT 4SM -SN BLSN FEW016 OVC040 M06/M08 A2979 990 81 -1200 010/20G25 RMK AO2 P0000
14837KMSN MSN20060216152012602/16/06 15:20:31  5-MIN KMSN 162120Z 01020G25KT 4SM -SN BLSN FEW016 OVC040 M06/M08 A2979 990 84 -1300 360/20G25 RMK AO2 P0000
14837KMSN MSN20060216152512102/16/06 15:25:31  5-MIN KMSN 162125Z 01019G25KT 4SM -SN FEW016 OVC040 M06/M08 A2979 980 84 -1300 010/19G25 RMK AO2 P0000
14837KMSN MSN20060216153011502/16/06 15:30:31  5-MIN KMSN 162130Z 01020KT 4SM -SN FEW016 OVC040 M06/M08 A2979 980 84 -1300 010/20 RMK AO2 P0000
14837KMSN MSN20060216153512202/16/06 15:35:31  5-MIN KMSN 162135Z 01019KT 4SM -SN FEW016 SCT028 OVC040 M06/M08 A2980 980 84 -1300 360/19 RMK AO2 P0000
14837KMSN MSN20060216154014602/16/06 15:40:31  5-MIN KMSN 162140Z 36023G27KT 4SM -SN FEW018 SCT028 OVC040 M06/M08 A2980 970 84 -1300 360/23G27 RMK AO2 PK WND 01027/2140 P0000
14837KMSN MSN20060216154514602/16/06 15:45:31  5-MIN KMSN 162145Z 36019G27KT 4SM -SN FEW018 SCT028 OVC040 M06/M08 A2981 970 84 -1300 360/19G27 RMK AO2 PK WND 01027/2142 P0000
14837KMSN MSN20060216155015102/16/06 15:50:31  5-MIN KMSN 162150Z 01019G27KT 4SM -SN BLSN SCT018 BKN028 OVC040 M06/M08 A2981 970 84 -1300 010/19G27 RMK AO2 PK WND 01027/2142 P0000
14837KMSN MSN20060216155513302/16/06 15:55:31  5-MIN KMSN 162155Z 36020G25KT 4SM -SN BLSN SCT021 BKN028 OVC040 M06/M08 A2981 960 84 -1300 360/20G25 RMK AO2 P0000
14837KMSN MSN20060216160013302/16/06 16:00:31  5-MIN KMSN 162200Z 01020G25KT 3SM -SN BLSN BKN021 BKN028 OVC040 M06/M09 A2982 960 81 -1300 010/20G25 RMK AO2 P0000
14837KMSN MSN20060216160514002/16/06 16:05:31  5-MIN KMSN 162205Z 36017G24KT 3SM -SN BLSN BKN021 BKN030 OVC040 M06/M08 A2983 950 84 -1300 360/17G24 RMK AO2 PRESRR P0000
14837KMSN MSN20060216161012602/16/06 16:10:31  5-MIN KMSN 162210Z 01017G23KT 3SM -SN BLSN BKN023 OVC028 M06/M08 A2982 960 84 -1300 010/17G23 RMK AO2 P0000
14837KMSN MSN20060216161514802/16/06 16:15:31  5-MIN KMSN 162215Z 02022G26KT 2 1/2SM -SN BLSN BKN021 OVC028 M06/M08 A2981 970 84 -1300 020/22G26 RMK AO2 PK WND 01026/2215 P0000
14837KMSN MSN20060216162015502/16/06 16:20:31  5-MIN KMSN 162220Z 01018G29KT 1 1/2SM -SN BLSN SCT015 BKN023 OVC027 M07/M08 A2982 960 88 -1400 010/18G29 RMK AO2 PK WND 36029/2218 P0000
14837KMSN MSN20060216162516502/16/06 16:25:31  5-MIN KMSN 162225Z 36017G29KT 1SM -SN BLSN BKN013 BKN021 OVC025 M07/M08 A2983 950 88 -1400 360/17G29 RMK AO2 PK WND 36029/2218 SFC VIS 1 1/2 P0000
14837KMSN MSN20060216163015102/16/06 16:30:31  5-MIN KMSN 162230Z 36019G24KT 1SM -SN BLSN BKN009 BKN017 OVC023 M07/M08 A2982 950 88 -1400 360/19G24 RMK AO2 PK WND 36029/2218 P0000
14837KMSN MSN20060216163515102/16/06 16:35:31  5-MIN KMSN 162235Z 36018G24KT 1SM -SN BLSN BKN007 BKN017 OVC023 M07/M08 A2982 960 88 -1400 360/18G24 RMK AO2 PK WND 36029/2218 P0000
14837KMSN MSN20060216164013202/16/06 16:40:31  5-MIN KMSN 162240Z 36018KT 3/4SM -SN BLSN VV006 M07/M08 A2983 950 88 -1400 360/18 RMK AO2 PK WND 36029/2218 P0000
14837KMSN MSN20060216164513802/16/06 16:45:31  5-MIN KMSN 162245Z 01019G25KT 3/4SM -SN BLSN VV006 M07/M08 A2983 950 88 -1400 010/19G25 RMK AO2 PK WND 36029/2218 P0000
14837KMSN MSN20060216165014902/16/06 16:50:31  5-MIN KMSN 162250Z 01020G25KT 3/4SM -SN BLSN VV006 M07/M08 A2983 950 88 -1400 360/20G25 RMK AO2 PK WND 36029/2218 SLP114 T10671083
14837KMSN MSN20060216165512002/16/06 16:55:31  5-MIN KMSN 162255Z 01021G25KT 3/4SM -SN BLSN VV008 M07/M08 A2982 950 88 -1400 010/21G25 RMK AO2 P0000
14837KMSN MSN20060216170016502/16/06 17:00:31  5-MIN KMSN 162300Z 36018G25KT 3/4SM -SN BLSN BKN008 BKN027 OVC055 M07/M08 A2983 950 88 -1400 360/18G25 RMK AO2 PK WND 36026/2256 SFC VIS 1 P0000 $
14837KMSN MSN20060216170516302/16/06 17:05:31  5-MIN KMSN 162305Z 36020G26KT 2SM -SN BLSN BKN010 BKN027 OVC055 M07/M08 A2983 950 88 -1400 360/20G26 RMK AO2 PK WND 01026/2304 SFC VIS 3 P0000 $
14837KMSN MSN20060216171016302/16/06 17:10:31  5-MIN KMSN 162310Z 36017G26KT 2SM -SN BLSN SCT018 BKN027 OVC055 M07/M09 A2984 940 84 -1400 360/17G26 RMK AO2 PK WND 01026/2304 SFC VIS 5 P0000 $
14837KMSN MSN20060216171516002/16/06 17:15:31  5-MIN KMSN 162315Z 36014G24KT 5SM -SN BLSN SCT022 BKN050 OVC055 M07/M09 A2985 930 84 -1400 360/14G24 RMK AO2 PK WND 01026/2304 PRESRR P0000 $
14837KMSN MSN20060216172015302/16/06 17:20:31  5-MIN KMSN 162320Z 36017G23KT 6SM -SN BLSN FEW018 BKN050 OVC055 M07/M09 A2985 930 84 -1400 360/17G23 RMK AO2 PK WND 01026/2304 P0000 $
14837KMSN MSN20060216172515302/16/06 17:25:31  5-MIN KMSN 162325Z 36018G22KT 6SM -SN BLSN FEW023 BKN046 OVC055 M07/M09 A2985 930 84 -1400 360/18G22 RMK AO2 PK WND 01026/2304 P0000 $
14837KMSN MSN20060216173015302/16/06 17:30:31  5-MIN KMSN 162330Z 01019G25KT 5SM -SN BLSN FEW018 SCT041 OVC050 M07/M09 A2985 930 84 -1400 360/19G25 RMK AO2 PK WND 01026/2304 P0000 $
14837KMSN MSN20060216173515302/16/06 17:35:31  5-MIN KMSN 162335Z 01019G25KT 5SM -SN BLSN FEW018 BKN041 OVC050 M07/M09 A2985 930 81 -1400 360/19G25 RMK AO2 PK WND 01026/2304 P0000 $
14837KMSN MSN20060216174013902/16/06 17:40:31  5-MIN KMSN 162340Z 01020G26KT 5SM -SN BLSN OVC044 M07/M09 A2985 930 84 -1400 360/20G26 RMK AO2 PK WND 01026/2336 P0000 $
14837KMSN MSN20060216174514602/16/06 17:45:31  5-MIN KMSN 162345Z 36017G26KT 5SM -SN BLSN BKN041 OVC048 M07/M09 A2986 920 81 -1400 360/17G26 RMK AO2 PK WND 01026/2336 P0000 $
14837KMSN MSN20060216175018602/16/06 17:50:31  5-MIN KMSN 162350Z 36017G23KT 7SM -SN BLSN OVC041 M07/M09 A2986 920 81 -1400 360/17G23 RMK AO2 PK WND 01026/2336 SLP125 P0000 60004 4/008 T10671094 11056 21067 56007 $
14837KMSN MSN20060216175512802/16/06 17:55:31  5-MIN KMSN 162355Z 36020G26KT 5SM -SN BLSN FEW028 OVC041 M07/M09 A2986 920 81 -1500 360/20G26 RMK AO2 P0000 $
14837KMSN MSN20060216180012802/16/06 18:00:31  5-MIN KMSN 170000Z 36019G26KT 4SM -SN BLSN FEW028 OVC041 M07/M09 A2987 910 81 -1500 360/19G26 RMK AO2 P0000 $
14837KMSN MSN20060216180512802/16/06 18:05:31  5-MIN KMSN 170005Z 36016G24KT 5SM -SN BLSN FEW028 OVC041 M07/M09 A2987 910 81 -1500 360/16G24 RMK AO2 P0000 $
14837KMSN MSN20060216181012802/16/06 18:10:31  5-MIN KMSN 170010Z 36017G22KT 6SM -SN BLSN FEW028 OVC041 M07/M09 A2988 900 81 -1500 360/17G22 RMK AO2 P0000 $
14837KMSN MSN20060216181512802/16/06 18:15:31  5-MIN KMSN 170015Z 36016G23KT 6SM -SN BLSN FEW028 OVC041 M07/M09 A2988 900 81 -1500 360/16G23 RMK AO2 P0000 $
14837KMSN MSN20060216182013502/16/06 18:20:31  5-MIN KMSN 170020Z 35016G23KT 6SM -SN BLSN FEW028 OVC041 M07/M09 A2990 890 81 -1500 350/16G23 RMK AO2 PRESRR P0000 $
14837KMSN MSN20060216182512602/16/06 18:25:31  5-MIN KMSN 170025Z 36017G25KT 5SM -SN BLSN FEW028 OVC041 M07/M09 A2989 890 81 -1500 360/17G25 RMK AO2 P0000
14837KMSN MSN20060216183012602/16/06 18:30:31  5-MIN KMSN 170030Z 36016G25KT 5SM -SN BLSN FEW028 OVC041 M07/M09 A2990 880 81 -1500 360/16G25 RMK AO2 P0000
14837KMSN MSN20060216183512602/16/06 18:35:31  5-MIN KMSN 170035Z 36014G23KT 6SM -SN BLSN BKN021 OVC041 M07/M09 A2990 880 81 -1500 360/14G23 RMK AO2 P0000
14837KMSN MSN20060216184013302/16/06 18:40:31  5-MIN KMSN 170040Z 36015G23KT 6SM -SN BLSN BKN021 BKN026 OVC041 M07/M09 A2990 880 81 -1500 360/15G23 RMK AO2 P0000
14837KMSN MSN20060216184512002/16/06 18:45:31  5-MIN KMSN 170045Z 35014KT 6SM -SN BLSN BKN021 OVC041 M07/M09 A2990 880 81 -1500 350/14 RMK AO2 P0000
14837KMSN MSN20060216185014302/16/06 18:50:31  5-MIN KMSN 170050Z 36018G22KT 7SM -SN BLSN BKN023 OVC041 M07/M09 A2991 870 81 -1500 350/18G22 RMK AO2 SLP142 P0000 T10671094
14837KMSN MSN20060216185512602/16/06 18:55:31  5-MIN KMSN 170055Z 35015G22KT 6SM -SN BLSN BKN023 OVC041 M07/M09 A2992 870 81 -1500 350/15G22 RMK AO2 P0000
14837KMSN MSN20060216190013302/16/06 19:00:31  5-MIN KMSN 170100Z 35013G22KT 5SM -SN BLSN BKN023 OVC041 M07/M09 A2992 860 81 -1500 350/13G22 RMK AO2 PRESRR P0000
14837KMSN MSN20060216190513302/16/06 19:05:31  5-MIN KMSN 170105Z 35015G22KT 4SM -SN BLSN BKN023 BKN033 OVC043 M07/M09 A2993 860 81 -1500 350/15G22 RMK AO2 P0000
14837KMSN MSN20060216191013302/16/06 19:10:31  5-MIN KMSN 170110Z 34014G20KT 5SM -SN BLSN FEW020 BKN033 OVC043 M07/M09 A2993 860 81 -1500 340/14G20 RMK AO2 P0000
14837KMSN MSN20060216191512702/16/06 19:15:31  5-MIN KMSN 170115Z 35014KT 5SM -SN BLSN FEW024 SCT035 OVC045 M07/M09 A2993 860 81 -1500 340/14 RMK AO2 P0000
14837KMSN MSN20060216192013302/16/06 19:20:31  5-MIN KMSN 170120Z 34016G20KT 3SM -SN BLSN FEW024 SCT035 OVC047 M07/M09 A2993 850 81 -1500 340/16G20 RMK AO2 P0000
14837KMSN MSN20060216192513702/16/06 19:25:31  5-MIN KMSN 170125Z 34014G20KT 2 1/2SM -SN BLSN FEW024 SCT037 OVC047 M07/M09 A2994 850 81 -1500 340/14G20 RMK AO2 P0000
14837KMSN MSN20060216193012602/16/06 19:30:31  5-MIN KMSN 170130Z 35014G21KT 2SM -SN BLSN BKN037 OVC047 M07/M09 A2994 840 81 -1500 350/14G21 RMK AO2 P0000
14837KMSN MSN20060216193512602/16/06 19:35:31  5-MIN KMSN 170135Z 34016G21KT 2SM -SN BLSN BKN037 OVC048 M07/M09 A2995 840 81 -1500 340/16G21 RMK AO2 P0000
14837KMSN MSN20060216194012002/16/06 19:40:31  5-MIN KMSN 170140Z 34015KT 2SM -SN BLSN BKN035 OVC048 M07/M09 A2994 850 81 -1500 340/15 RMK AO2 P0000
14837KMSN MSN20060216194512602/16/06 19:45:31  5-MIN KMSN 170145Z 34017G22KT 2SM -SN BLSN BKN031 OVC048 M07/M09 A2995 840 81 -1600 340/17G22 RMK AO2 P0000
14837KMSN MSN20060216195014302/16/06 19:50:31  5-MIN KMSN 170150Z 35018G22KT 2SM -SN BLSN BKN031 OVC045 M07/M09 A2995 830 81 -1600 350/18G22 RMK AO2 SLP157 P0002 T10671094
14837KMSN MSN20060216195512302/16/06 19:55:31  5-MIN KMSN 170155Z 34016G22KT 2 1/2SM -SN BLSN OVC033 M07/M09 A2996 830 81 -1600 340/16G22 RMK AO2 P0000
14837KMSN MSN20060216200011902/16/06 20:00:31  5-MIN KMSN 170200Z 34013G21KT 2SM -SN BLSN BKN033 M07/M09 A2996 830 81 -1600 340/13G21 RMK AO2 P0000
14837KMSN MSN20060216200512602/16/06 20:05:31  5-MIN KMSN 170205Z 34013G18KT 2SM -SN BLSN BKN031 OVC045 M07/M09 A2997 820 81 -1600 330/13G18 RMK AO2 P0000
14837KMSN MSN20060216201013302/16/06 20:10:31  5-MIN KMSN 170210Z 34014G19KT 2SM -SN BLSN FEW021 BKN031 OVC048 M07/M09 A2997 820 81 -1600 340/14G19 RMK AO2 P0000
14837KMSN MSN20060216201513302/16/06 20:15:31  5-MIN KMSN 170215Z 34017G23KT 2SM -SN BLSN FEW021 BKN031 OVC038 M07/M09 A2998 810 81 -1600 340/17G23 RMK AO2 P0000
14837KMSN MSN20060216202013302/16/06 20:20:31  5-MIN KMSN 170220Z 35016G23KT 2SM -SN BLSN FEW021 BKN031 OVC040 M07/M09 A2998 810 81 -1600 350/16G23 RMK AO2 P0000
14837KMSN MSN20060216202512602/16/06 20:25:31  5-MIN KMSN 170225Z 35014G21KT 2SM -SN BLSN BKN033 OVC044 M07/M09 A2999 800 81 -1600 350/14G21 RMK AO2 P0000
14837KMSN MSN20060216203013302/16/06 20:30:31  5-MIN KMSN 170230Z 35016G21KT 2SM -SN BLSN FEW024 BKN038 OVC050 M07/M09 A2999 800 81 -1600 350/16G21 RMK AO2 P0000
14837KMSN MSN20060216203514702/16/06 20:35:31  5-MIN KMSN 170235Z 35016G20KT 2SM -SN BLSN FEW024 BKN045 OVC075 M07/M09 A2998 810 81 -1600 350/16G20 RMK AO2 SFC VIS 2 1/2 P0000
14837KMSN MSN20060216204013302/16/06 20:40:31  5-MIN KMSN 170240Z 34016G20KT 5SM -SN BLSN FEW036 BKN044 OVC095 M07/M09 A2998 810 81 -1600 340/16G20 RMK AO2 P0000
14837KMSN MSN20060216204513302/16/06 20:45:31  5-MIN KMSN 170245Z 35016G24KT 5SM -SN BLSN SCT044 BKN050 OVC095 M07/M10 A2998 810 77 -1600 350/16G24 RMK AO2 P0000
14837KMSN MSN20060216205016202/16/06 20:50:31  5-MIN KMSN 170250Z 34014G24KT 5SM -SN BLSN BKN047 BKN075 OVC095 M07/M10 A2998 810 77 -1600 340/14G24 RMK AO2 SLP166 P0001 60003 T10671100 53027
14837KMSN MSN20060216205513302/16/06 20:55:31  5-MIN KMSN 170255Z 34016G21KT 4SM -SN BLSN BKN047 BKN075 OVC095 M07/M09 A2999 800 81 -1600 340/16G21 RMK AO2 P0000
14837KMSN MSN20060216210013302/16/06 21:00:31  5-MIN KMSN 170300Z 34012G20KT 4SM -SN BLSN BKN045 BKN070 OVC095 M07/M09 A2999 800 81 -1600 340/12G20 RMK AO2 P0000
14837KMSN MSN20060216210514002/16/06 21:05:31  5-MIN KMSN 170305Z 33012G19KT 4SM -SN BLSN BKN042 BKN050 OVC095 M07/M09 A3000 790 81 -1600 330/12G19 RMK AO2 PRESRR P0000
14837KMSN MSN20060216211013302/16/06 21:10:31  5-MIN KMSN 170310Z 33012G19KT 4SM -SN BLSN FEW023 OVC044 M07/M09 A3001 780 81 -1600 330/12G19 RMK AO2 PRESRR P0000
14837KMSN MSN20060216211514002/16/06 21:15:31  5-MIN KMSN 170315Z 34015G20KT 4SM -SN BLSN FEW023 BKN042 OVC050 M07/M09 A3002 770 81 -1600 340/15G20 RMK AO2 PRESRR P0000
14837KMSN MSN20060216212014002/16/06 21:20:31  5-MIN KMSN 170320Z 34018G22KT 5SM -SN BLSN FEW025 BKN038 OVC046 M07/M10 A3003 770 81 -1700 340/18G22 RMK AO2 PRESRR P0000
14837KMSN MSN20060216212514002/16/06 21:25:31  5-MIN KMSN 170325Z 34014G22KT 5SM -SN BLSN FEW020 BKN036 OVC046 M07/M10 A3004 760 81 -1700 330/14G22 RMK AO2 PRESRR P0000
14837KMSN MSN20060216213014002/16/06 21:30:31  5-MIN KMSN 170330Z 34014G22KT 5SM -SN BLSN FEW020 BKN034 OVC046 M07/M11 A3004 750 77 -1700 340/14G22 RMK AO2 PRESRR P0000
14837KMSN MSN20060216213514002/16/06 21:35:31  5-MIN KMSN 170335Z 34016G23KT 5SM -SN BLSN FEW020 BKN032 OVC044 M07/M11 A3005 740 77 -1700 340/16G23 RMK AO2 PRESRR P0000
14837KMSN MSN20060216214013302/16/06 21:40:31  5-MIN KMSN 170340Z 34014G23KT 5SM -SN BLSN FEW020 BKN032 OVC044 M08/M11 A3006 740 80 -1800 340/14G23 RMK AO2 P0000
14837KMSN MSN20060216214513302/16/06 21:45:31  5-MIN KMSN 170345Z 34018G23KT 4SM -SN BLSN SCT024 OVC032 M08/M11 A3006 730 80 -1800 330/18G23 RMK AO2 PRESRR P0000
14837KMSN MSN20060216215013302/16/06 21:50:31  5-MIN KMSN 170350Z 34015G23KT 4SM -SN BLSN BKN027 OVC036 M08/M11 A3007 730 80 -1800 340/15G23 RMK AO2 PRESRR P0000
14837KMSN MSN20060216215514002/16/06 21:55:31  5-MIN KMSN 170355Z 33013G20KT 6SM -SN BLSN SCT027 BKN033 OVC110 M08/M11 A3008 720 77 -1800 330/13G20 RMK AO2 PRESRR P0000
14837KMSN MSN20060216220013302/16/06 22:00:31  5-MIN KMSN 170400Z 33013G20KT 7SM -SN BLSN SCT029 BKN043 OVC110 M08/M11 A3008 710 77 -1800 330/13G20 RMK AO2 P0000
14837KMSN MSN20060216220514002/16/06 22:05:31  5-MIN KMSN 170405Z 33014G19KT 7SM -SN BLSN FEW025 BKN043 OVC060 M08/M11 A3009 710 77 -1900 330/14G19 RMK AO2 PRESRR P0000
14837KMSN MSN20060216221013302/16/06 22:10:31  5-MIN KMSN 170410Z 33012G19KT 6SM -SN BLSN FEW027 BKN043 OVC055 M08/M11 A3009 710 77 -1900 330/12G19 RMK AO2 P0000
14837KMSN MSN20060216221512002/16/06 22:15:31  5-MIN KMSN 170415Z 33011KT 6SM -SN BLSN BKN043 OVC055 M08/M11 A3009 700 77 -1900 330/11 RMK AO2 P0000
14837KMSN MSN20060216222013302/16/06 22:20:31  5-MIN KMSN 170420Z 33012G18KT 5SM -SN BLSN BKN043 BKN049 OVC055 M08/M11 A3010 700 77 -1900 330/12G18 RMK AO2 P0000
14837KMSN MSN20060216222512602/16/06 22:25:31  5-MIN KMSN 170425Z 33012G18KT 5SM -SN BLSN BKN043 OVC060 M08/M11 A3011 690 77 -1900 330/12G18 RMK AO2 P0000
14837KMSN MSN20060216223012702/16/06 22:30:31  5-MIN KMSN 170430Z 33014KT 5SM -SN BLSN FEW028 BKN043 OVC055 M08/M11 A3011 690 77 -1900 330/14 RMK AO2 P0000
14837KMSN MSN20060216223513302/16/06 22:35:31  5-MIN KMSN 170435Z 33013G19KT 5SM -SN BLSN FEW028 BKN043 OVC055 M08/M11 A3011 680 77 -1900 330/13G19 RMK AO2 P0000
14837KMSN MSN20060216224013302/16/06 22:40:31  5-MIN KMSN 170440Z 33012G19KT 5SM -SN BLSN FEW028 BKN043 OVC055 M08/M11 A3012 680 77 -1900 330/12G19 RMK AO2 P0000
14837KMSN MSN20060216224513302/16/06 22:45:31  5-MIN KMSN 170445Z 33010G19KT 5SM -SN BLSN FEW028 BKN043 OVC055 M08/M11 A3012 680 77 -1900 330/10G19 RMK AO2 P0000
14837KMSN MSN20060216225015002/16/06 22:50:31  5-MIN KMSN 170450Z 33013G19KT 5SM -SN BLSN FEW028 BKN043 OVC055 M08/M11 A3012 680 77 -1900 330/13G19 RMK AO2 SLP216 P0000 T10781111
14837KMSN MSN20060216225512602/16/06 22:55:31  5-MIN KMSN 170455Z 33015G22KT 6SM -SN BLSN BKN040 OVC055 M08/M11 A3013 670 77 -1900 320/15G22 RMK AO2 P0000
14837KMSN MSN20060216230012602/16/06 23:00:31  5-MIN KMSN 170500Z 33012G22KT 5SM -SN BLSN FEW040 SCT055 M08/M11 A3014 670 77 -1900 330/12G22 RMK AO2 P0000
14837KMSN MSN20060216230512602/16/06 23:05:31  5-MIN KMSN 170505Z 33017G23KT 5SM -SN BLSN FEW040 SCT055 M08/M11 A3014 660 77 -1900 330/17G23 RMK AO2 P0000
14837KMSN MSN20060216231012602/16/06 23:10:31  5-MIN KMSN 170510Z 33015G23KT 6SM -SN BLSN FEW040 SCT055 M08/M12 A3014 660 74 -1900 330/15G23 RMK AO2 P0000
14837KMSN MSN20060216231512602/16/06 23:15:31  5-MIN KMSN 170515Z 33014G23KT 7SM -SN BLSN FEW040 SCT055 M08/M12 A3014 660 74 -1900 330/14G23 RMK AO2 P0000
14837KMSN MSN20060216232012602/16/06 23:20:31  5-MIN KMSN 170520Z 33013G22KT 9SM -SN BLSN FEW040 SCT055 M08/M12 A3015 650 74 -1900 330/13G22 RMK AO2 P0000
14837KMSN MSN20060216232512602/16/06 23:25:31  5-MIN KMSN 170525Z 33014G20KT 9SM -SN BLSN FEW040 SCT055 M08/M12 A3015 650 74 -1900 330/14G20 RMK AO2 P0000
14837KMSN MSN20060216233012602/16/06 23:30:31  5-MIN KMSN 170530Z 33012G20KT 9SM -SN BLSN FEW040 SCT055 M08/M12 A3015 650 74 -1900 330/12G20 RMK AO2 P0000
14837KMSN MSN20060216233512002/16/06 23:35:31  5-MIN KMSN 170535Z 33011KT 9SM -SN BLSN FEW034 SCT045 M08/M12 A3016 640 74 -1900 330/11 RMK AO2 P0000
14837KMSN MSN20060216234012002/16/06 23:40:31  5-MIN KMSN 170540Z 33013KT 9SM -SN BLSN FEW034 SCT045 M08/M12 A3017 640 74 -1900 330/13 RMK AO2 P0000
14837KMSN MSN20060216234512702/16/06 23:45:31  5-MIN KMSN 170545Z 33011KT 9SM -SN BLSN FEW034 SCT045 M08/M12 A3017 630 74 -2000 320/11 RMK AO2 PRESRR P0000
14837KMSN MSN20060216235019002/16/06 23:50:31  5-MIN KMSN 170550Z 32012KT 280V340 9SM FEW030 SCT041 M08/M12 A3017 630 74 -2000 320/12 280V340 RMK AO2 SNE48 SLP232 P0000 60003 4/008 T10781117 11067 21078 410441078 51040
14837KMSN MSN20060216235510602/16/06 23:55:31  5-MIN KMSN 170555Z 33011KT 10SM SCT030 SCT039 M08/M12 A3017 630 74 -2000 330/11 RMK AO2
14837KMSN MSN20060217000009902/17/06 00:00:38  5-MIN KMSN 170600Z 32012KT 10SM BKN030 M08/M11 A3018 630 77 -2000 320/12 RMK AO2
14837KMSN MSN20060217000509902/17/06 00:05:31  5-MIN KMSN 170605Z 32012KT 10SM SCT030 M08/M11 A3018 620 77 -2000 320/12 RMK AO2
14837KMSN MSN20060217001009902/17/06 00:10:31  5-MIN KMSN 170610Z 32012KT 10SM FEW030 M08/M11 A3019 620 77 -2000 320/12 RMK AO2
14837KMSN MSN20060217001511202/17/06 00:15:34  5-MIN KMSN 170615Z 32010G17KT 10SM FEW030 M08/M12 A3020 610 74 -2000 320/10G17 RMK AO2 PRESRR
14837KMSN MSN20060217002011302/17/06 00:20:31  5-MIN KMSN 170620Z 32011KT 10SM FEW025 SCT030 M08/M11 A3020 600 77 -2000 310/11 RMK AO2 PRESRR
14837KMSN MSN20060217002511902/17/06 00:25:31  5-MIN KMSN 170625Z 33012G19KT 10SM FEW025 SCT042 M08/M12 A3021 600 74 -2000 330/12G19 RMK AO2 PRESRR
14837KMSN MSN20060217003011202/17/06 00:30:31  5-MIN KMSN 170630Z 32011G19KT 10SM SCT042 M08/M12 A3022 590 74 -2000 320/11G19 RMK AO2 PRESRR
14837KMSN MSN20060217003510602/17/06 00:35:31  5-MIN KMSN 170635Z 32011KT 10SM BKN042 BKN050 M08/M12 A3022 590 74 -2000 320/11 RMK AO2
14837KMSN MSN20060217004011302/17/06 00:40:31  5-MIN KMSN 170640Z 32012KT 10SM BKN043 BKN050 M08/M12 A3023 580 74 -2000 320/12 RMK AO2 PRESRR
14837KMSN MSN20060217004511202/17/06 00:45:31  5-MIN KMSN 170645Z 32010G17KT 10SM SCT043 BKN050 M08/M12 A3023 580 74 -2000 320/10G17 RMK AO2
14837KMSN MSN20060217005012302/17/06 00:50:31  5-MIN KMSN 170650Z 32011KT 10SM BKN041 OVC050 M08/M12 A3024 570 74 -2000 320/11 RMK AO2 SLP254 T10781117
14837KMSN MSN20060217005510602/17/06 00:55:31  5-MIN KMSN 170655Z 32011KT 10SM SCT039 OVC048 M08/M12 A3024 570 77 -2100 320/11 RMK AO2
14837KMSN MSN20060217010012602/17/06 01:00:31  5-MIN KMSN 170700Z 31012G17KT 10SM FEW025 BKN042 OVC050 M08/M12 A3025 560 77 -2100 310/12G17 RMK AO2 PRESRR
14837KMSN MSN20060217010511302/17/06 01:05:31  5-MIN KMSN 170705Z 32011KT 10SM SCT025 BKN040 OVC050 M08/M12 A3025 560 77 -2100 310/11 RMK AO2
14837KMSN MSN20060217011011302/17/06 01:10:31  5-MIN KMSN 170710Z 32011KT 10SM BKN025 BKN038 OVC045 M08/M12 A3026 550 77 -2100 310/11 RMK AO2
14837KMSN MSN20060217011511902/17/06 01:15:31  5-MIN KMSN 170715Z 33011G18KT 10SM SCT021 BKN025 OVC040 M08/M12 A3026 550 74 -2100 330/11G18 RMK AO2
14837KMSN MSN20060217012011202/17/06 01:20:31  5-MIN KMSN 170720Z 32008G18KT 10SM BKN023 BKN046 M08/M13 A3026 550 70 -2100 320/08G18 RMK AO2
14837KMSN MSN20060217012509902/17/06 01:25:31  5-MIN KMSN 170725Z 32011KT 10SM BKN023 M09/M13 A3027 540 74 -2200 320/11 RMK AO2
14837KMSN MSN20060217013009902/17/06 01:30:31  5-MIN KMSN 170730Z 32010KT 10SM SCT023 M08/M13 A3027 540 70 -2100 320/10 RMK AO2
14837KMSN MSN20060217013509902/17/06 01:35:31  5-MIN KMSN 170735Z 32012KT 10SM FEW023 M09/M13 A3028 540 74 -2200 320/12 RMK AO2
14837KMSN MSN20060217014010602/17/06 01:40:31  5-MIN KMSN 170740Z 31010KT 10SM FEW021 M09/M13 A3029 530 70 -2200 310/10 RMK AO2 PRESRR
14837KMSN MSN20060217014509602/17/06 01:45:31  5-MIN KMSN 170745Z 32009KT 10SM CLR M09/M13 A3029 530 70 -2200 320/09 RMK AO2
14837KMSN MSN20060217015011302/17/06 01:50:31  5-MIN KMSN 170750Z 32009KT 10SM CLR M09/M13 A3029 530 70 -2200 320/09 RMK AO2 SLP272 T10891133
14837KMSN MSN20060217015509602/17/06 01:55:31  5-MIN KMSN 170755Z 32010KT 10SM CLR M09/M13 A3029 530 70 -2200 320/10 RMK AO2
14837KMSN MSN20060217020009602/17/06 02:00:31  5-MIN KMSN 170800Z 31010KT 10SM CLR M09/M13 A3029 520 70 -2200 310/10 RMK AO2
14837KMSN MSN20060217020509602/17/06 02:05:31  5-MIN KMSN 170805Z 32008KT 10SM CLR M09/M13 A3029 520 70 -2200 320/08 RMK AO2
14837KMSN MSN20060217021009602/17/06 02:10:31  5-MIN KMSN 170810Z 32010KT 10SM CLR M09/M13 A3030 520 70 -2200 320/10 RMK AO2
14837KMSN MSN20060217021509602/17/06 02:15:31  5-MIN KMSN 170815Z 31009KT 10SM CLR M09/M13 A3030 520 70 -2200 310/09 RMK AO2
14837KMSN MSN20060217022009602/17/06 02:20:31  5-MIN KMSN 170820Z 31008KT 10SM CLR M09/M13 A3030 520 70 -2200 310/08 RMK AO2
14837KMSN MSN20060217022509602/17/06 02:25:31  5-MIN KMSN 170825Z 30008KT 10SM CLR M09/M13 A3030 510 73 -2300 300/08 RMK AO2
14837KMSN MSN20060217023009602/17/06 02:30:31  5-MIN KMSN 170830Z 31008KT 10SM CLR M09/M13 A3031 510 70 -2300 310/08 RMK AO2
14837KMSN MSN20060217023509602/17/06 02:35:31  5-MIN KMSN 170835Z 31009KT 10SM CLR M09/M13 A3031 500 70 -2300 310/09 RMK AO2
14837KMSN MSN20060217024009602/17/06 02:40:31  5-MIN KMSN 170840Z 31010KT 10SM CLR M09/M13 A3032 500 73 -2300 310/10 RMK AO2
14837KMSN MSN20060217024509602/17/06 02:45:31  5-MIN KMSN 170845Z 31010KT 10SM CLR M09/M13 A3032 500 73 -2300 310/10 RMK AO2
14837KMSN MSN20060217025011902/17/06 02:50:31  5-MIN KMSN 170850Z 31008KT 10SM CLR M09/M13 A3032 490 73 -2300 310/08 RMK AO2 SLP285 T10941133 51062
14837KMSN MSN20060217025509602/17/06 02:55:31  5-MIN KMSN 170855Z 30006KT 10SM CLR M09/M13 A3033 490 73 -2400 300/06 RMK AO2
14837KMSN MSN20060217030009602/17/06 03:00:31  5-MIN KMSN 170900Z 30008KT 10SM CLR M09/M13 A3033 490 73 -2400 300/08 RMK AO2
14837KMSN MSN20060217030510202/17/06 03:05:31  5-MIN KMSN 170905Z 31012G16KT 10SM CLR M09/M13 A3033 490 77 -2400 310/12G16 RMK AO2
14837KMSN MSN20060217031009602/17/06 03:10:31  5-MIN KMSN 170910Z 31010KT 10SM CLR M09/M13 A3034 480 73 -2400 310/10 RMK AO2
14837KMSN MSN20060217031509602/17/06 03:15:31  5-MIN KMSN 170915Z 31011KT 10SM CLR M10/M13 A3034 480 77 -2400 310/11 RMK AO2
14837KMSN MSN20060217032009602/17/06 03:20:31  5-MIN KMSN 170920Z 31011KT 10SM CLR M10/M13 A3034 480 77 -2400 310/11 RMK AO2
14837KMSN MSN20060217032509602/17/06 03:25:31  5-MIN KMSN 170925Z 31009KT 10SM CLR M10/M14 A3034 480 73 -2400 310/09 RMK AO2
14837KMSN MSN20060217033009602/17/06 03:30:31  5-MIN KMSN 170930Z 31010KT 10SM CLR M10/M14 A3034 480 73 -2400 310/10 RMK AO2
14837KMSN MSN20060217033510202/17/06 03:35:31  5-MIN KMSN 170935Z 31012G17KT 10SM CLR M10/M14 A3034 480 73 -2400 310/12G17 RMK AO2
14837KMSN MSN20060217034010202/17/06 03:40:31  5-MIN KMSN 170940Z 30011G17KT 10SM CLR M10/M14 A3035 470 73 -2400 300/11G17 RMK AO2
14837KMSN MSN20060217034509602/17/06 03:45:31  5-MIN KMSN 170945Z 31011KT 10SM CLR M11/M14 A3035 470 77 -2500 310/11 RMK AO2
14837KMSN MSN20060217035011902/17/06 03:50:31  5-MIN KMSN 170950Z 30009G16KT 10SM CLR M11/M14 A3036 460 77 -2500 300/09G16 RMK AO2 SLP297 T11061139
14837KMSN MSN20060217035510302/17/06 03:55:31  5-MIN KMSN 170955Z 31011KT 10SM CLR M11/M14 A3037 450 73 -2500 310/11 RMK AO2 PRESRR
14837KMSN MSN20060217040009602/17/06 04:00:31  5-MIN KMSN 171000Z 30009KT 10SM CLR M11/M14 A3037 450 73 -2500 300/09 RMK AO2
14837KMSN MSN20060217040509602/17/06 04:05:31  5-MIN KMSN 171005Z 30006KT 10SM CLR M11/M14 A3037 450 77 -2600 300/06 RMK AO2
14837KMSN MSN20060217041009602/17/06 04:10:31  5-MIN KMSN 171010Z 30009KT 10SM CLR M11/M14 A3037 450 77 -2600 300/09 RMK AO2
14837KMSN MSN20060217041509602/17/06 04:15:31  5-MIN KMSN 171015Z 30008KT 10SM CLR M11/M14 A3038 440 77 -2600 300/08 RMK AO2
14837KMSN MSN20060217042009602/17/06 04:20:31  5-MIN KMSN 171020Z 31007KT 10SM CLR M11/M14 A3038 440 77 -2600 310/07 RMK AO2
14837KMSN MSN20060217042509602/17/06 04:25:31  5-MIN KMSN 171025Z 29010KT 10SM CLR M11/M14 A3039 440 77 -2600 290/10 RMK AO2
14837KMSN MSN20060217043009602/17/06 04:30:31  5-MIN KMSN 171030Z 30009KT 10SM CLR M12/M15 A3039 430 76 -2700 300/09 RMK AO2
14837KMSN MSN20060217043509602/17/06 04:35:31  5-MIN KMSN 171035Z 29007KT 10SM CLR M12/M15 A3040 430 76 -2700 290/07 RMK AO2
14837KMSN MSN20060217044009602/17/06 04:40:31  5-MIN KMSN 171040Z 29010KT 10SM CLR M12/M15 A3040 420 76 -2700 290/10 RMK AO2
14837KMSN MSN20060217044509602/17/06 04:45:31  5-MIN KMSN 171045Z 30008KT 10SM CLR M12/M15 A3040 420 76 -2700 300/08 RMK AO2
14837KMSN MSN20060217045011302/17/06 04:50:31  5-MIN KMSN 171050Z 30008KT 10SM CLR M12/M15 A3040 420 76 -2700 300/08 RMK AO2 SLP313 T11171150
14837KMSN MSN20060217045509602/17/06 04:55:31  5-MIN KMSN 171055Z 29008KT 10SM CLR M12/M15 A3041 410 76 -2700 290/08 RMK AO2
14837KMSN MSN20060217050009602/17/06 05:00:31  5-MIN KMSN 171100Z 29007KT 10SM CLR M12/M15 A3042 410 76 -2700 290/07 RMK AO2
14837KMSN MSN20060217050509602/17/06 05:05:31  5-MIN KMSN 171105Z 30008KT 10SM CLR M12/M15 A3042 400 80 -2800 300/08 RMK AO2
14837KMSN MSN20060217051009602/17/06 05:10:31  5-MIN KMSN 171110Z 30008KT 10SM CLR M12/M16 A3042 400 76 -2800 290/08 RMK AO2
14837KMSN MSN20060217051509602/17/06 05:15:31  5-MIN KMSN 171115Z 29008KT 10SM CLR M12/M16 A3043 400 76 -2800 290/08 RMK AO2
14837KMSN MSN20060217052009602/17/06 05:20:31  5-MIN KMSN 171120Z 30007KT 10SM CLR M12/M16 A3043 400 76 -2800 290/07 RMK AO2
14837KMSN MSN20060217052509602/17/06 05:25:31  5-MIN KMSN 171125Z 29007KT 10SM CLR M12/M16 A3043 400 76 -2800 290/07 RMK AO2
14837KMSN MSN20060217053009602/17/06 05:30:31  5-MIN KMSN 171130Z 30006KT 10SM CLR M13/M16 A3043 390 80 -2900 300/06 RMK AO2
14837KMSN MSN20060217053509602/17/06 05:35:31  5-MIN KMSN 171135Z 31005KT 10SM CLR M13/M16 A3044 390 80 -2900 310/05 RMK AO2
14837KMSN MSN20060217054009602/17/06 05:40:31  5-MIN KMSN 171140Z 31008KT 10SM CLR M13/M16 A3043 390 80 -2900 300/08 RMK AO2
14837KMSN MSN20060217054509602/17/06 05:45:31  5-MIN KMSN 171145Z 31006KT 10SM CLR M13/M16 A3044 390 80 -2900 310/06 RMK AO2
14837KMSN MSN20060217055014302/17/06 05:50:31  5-MIN KMSN 171150Z 30006KT 10SM CLR M13/M16 A3045 380 76 -2900 300/06 RMK AO2 SLP327 70033 4/008 T11281161 11078 21128 51051
14837KMSN MSN20060217055509602/17/06 05:55:31  5-MIN KMSN 171155Z 29007KT 10SM CLR M13/M16 A3045 380 76 -2900 290/07 RMK AO2
14837KMSN MSN20060217060009602/17/06 06:00:31  5-MIN KMSN 171200Z 30008KT 10SM CLR M13/M16 A3045 380 80 -3000 300/08 RMK AO2
14837KMSN MSN20060217060509602/17/06 06:05:31  5-MIN KMSN 171205Z 31009KT 10SM CLR M13/M16 A3045 380 80 -3000 310/09 RMK AO2
14837KMSN MSN20060217061009602/17/06 06:10:31  5-MIN KMSN 171210Z 31006KT 10SM CLR M13/M16 A3045 380 76 -2900 310/06 RMK AO2
14837KMSN MSN20060217061509602/17/06 06:15:31  5-MIN KMSN 171215Z 30008KT 10SM CLR M13/M16 A3046 370 76 -2900 300/08 RMK AO2
14837KMSN MSN20060217062009602/17/06 06:20:31  5-MIN KMSN 171220Z 30005KT 10SM CLR M13/M16 A3046 370 80 -3000 300/05 RMK AO2
14837KMSN MSN20060217062509602/17/06 06:25:31  5-MIN KMSN 171225Z 30008KT 10SM CLR M13/M16 A3046 370 80 -3000 290/08 RMK AO2
14837KMSN MSN20060217063009602/17/06 06:30:31  5-MIN KMSN 171230Z 30007KT 10SM CLR M13/M17 A3046 370 76 -3000 300/07 RMK AO2
14837KMSN MSN20060217063509602/17/06 06:35:31  5-MIN KMSN 171235Z 30008KT 10SM CLR M13/M17 A3046 370 76 -3000 300/08 RMK AO2
14837KMSN MSN20060217064009602/17/06 06:40:31  5-MIN KMSN 171240Z 30008KT 10SM CLR M13/M17 A3046 370 76 -3000 300/08 RMK AO2
14837KMSN MSN20060217064509602/17/06 06:45:31  5-MIN KMSN 171245Z 30007KT 10SM CLR M13/M17 A3046 370 76 -3000 300/07 RMK AO2
14837KMSN MSN20060217065011302/17/06 06:50:31  5-MIN KMSN 171250Z 30007KT 10SM CLR M13/M17 A3046 370 76 -3000 300/07 RMK AO2 SLP334 T11331167
14837KMSN MSN20060217065509602/17/06 06:55:31  5-MIN KMSN 171255Z 30006KT 10SM CLR M13/M17 A3046 370 76 -3000 300/06 RMK AO2
14837KMSN MSN20060217070009602/17/06 07:00:31  5-MIN KMSN 171300Z 31007KT 10SM CLR M13/M17 A3046 370 76 -3000 310/07 RMK AO2
14837KMSN MSN20060217070509602/17/06 07:05:31  5-MIN KMSN 171305Z 31007KT 10SM CLR M13/M17 A3046 370 76 -3000 310/07 RMK AO2
14837KMSN MSN20060217071009602/17/06 07:10:31  5-MIN KMSN 171310Z 31007KT 10SM CLR M13/M17 A3047 360 76 -3000 310/07 RMK AO2
14837KMSN MSN20060217071509602/17/06 07:15:31  5-MIN KMSN 171315Z 31004KT 10SM CLR M13/M17 A3048 350 76 -3000 310/04 RMK AO2
14837KMSN MSN20060217072009602/17/06 07:20:31  5-MIN KMSN 171320Z 31007KT 10SM CLR M13/M17 A3048 350 76 -3000 310/07 RMK AO2
14837KMSN MSN20060217072509602/17/06 07:25:31  5-MIN KMSN 171325Z 33006KT 10SM CLR M13/M17 A3047 360 73 -3000 330/06 RMK AO2
14837KMSN MSN20060217073009602/17/06 07:30:31  5-MIN KMSN 171330Z 32007KT 10SM CLR M13/M17 A3048 350 73 -3000 320/07 RMK AO2
14837KMSN MSN20060217073509602/17/06 07:35:31  5-MIN KMSN 171335Z 32005KT 10SM CLR M13/M17 A3048 350 73 -3000 320/05 RMK AO2
14837KMSN MSN20060217074009602/17/06 07:40:31  5-MIN KMSN 171340Z 31008KT 10SM CLR M13/M17 A3049 340 73 -3100 310/08 RMK AO2
14837KMSN MSN20060217074509602/17/06 07:45:31  5-MIN KMSN 171345Z 31008KT 10SM CLR M13/M17 A3049 340 73 -3100 310/08 RMK AO2
14837KMSN MSN20060217075011302/17/06 07:50:31  5-MIN KMSN 171350Z 32010KT 10SM CLR M13/M17 A3049 340 73 -3100 320/10 RMK AO2 SLP345 T11331172
14837KMSN MSN20060217075509602/17/06 07:55:31  5-MIN KMSN 171355Z 31007KT 10SM CLR M13/M17 A3050 340 73 -3100 310/07 RMK AO2
14837KMSN MSN20060217080009602/17/06 08:00:31  5-MIN KMSN 171400Z 31009KT 10SM CLR M13/M17 A3050 330 73 -3100 310/09 RMK AO2
14837KMSN MSN20060217080509602/17/06 08:05:31  5-MIN KMSN 171405Z 32006KT 10SM CLR M13/M17 A3050 330 70 -3000 320/06 RMK AO2
14837KMSN MSN20060217081009602/17/06 08:10:31  5-MIN KMSN 171410Z 31009KT 10SM CLR M13/M17 A3050 330 70 -3000 310/09 RMK AO2
14837KMSN MSN20060217081509602/17/06 08:15:31  5-MIN KMSN 171415Z 32005KT 10SM CLR M13/M17 A3050 330 70 -3000 320/05 RMK AO2
14837KMSN MSN20060217082009602/17/06 08:20:31  5-MIN KMSN 171420Z 31007KT 10SM CLR M13/M17 A3050 330 70 -3000 310/07 RMK AO2
14837KMSN MSN20060217082509602/17/06 08:25:31  5-MIN KMSN 171425Z 31008KT 10SM CLR M13/M17 A3050 330 70 -3000 310/08 RMK AO2
14837KMSN MSN20060217083009602/17/06 08:30:31  5-MIN KMSN 171430Z 32009KT 10SM CLR M13/M17 A3050 330 70 -3000 310/09 RMK AO2
14837KMSN MSN20060217083509602/17/06 08:35:31  5-MIN KMSN 171435Z 32007KT 10SM CLR M13/M17 A3050 330 70 -3000 320/07 RMK AO2
14837KMSN MSN20060217084009602/17/06 08:40:31  5-MIN KMSN 171440Z 32006KT 10SM CLR M13/M17 A3050 330 70 -3000 310/06 RMK AO2
14837KMSN MSN20060217084509602/17/06 08:45:31  5-MIN KMSN 171445Z 31006KT 10SM CLR M13/M17 A3050 330 70 -3000 310/06 RMK AO2
14837KMSN MSN20060217085011902/17/06 08:50:31  5-MIN KMSN 171450Z 32008KT 10SM CLR M13/M18 A3050 330 66 -3000 320/08 RMK AO2 SLP346 T11281178 53041
14837KMSN MSN20060217085509602/17/06 08:55:31  5-MIN KMSN 171455Z 33008KT 10SM CLR M13/M18 A3050 330 66 -3000 330/08 RMK AO2
14837KMSN MSN20060217090009602/17/06 09:00:31  5-MIN KMSN 171500Z 30008KT 10SM CLR M13/M18 A3050 330 66 -3000 300/08 RMK AO2
14837KMSN MSN20060217090509602/17/06 09:05:31  5-MIN KMSN 171505Z 30010KT 10SM CLR M13/M18 A3050 330 66 -3000 300/10 RMK AO2
14837KMSN MSN20060217091009602/17/06 09:10:31  5-MIN KMSN 171510Z 31008KT 10SM CLR M12/M18 A3050 330 64 -2900 310/08 RMK AO2
14837KMSN MSN20060217091509602/17/06 09:15:31  5-MIN KMSN 171515Z 32008KT 10SM CLR M12/M18 A3050 330 64 -2900 320/08 RMK AO2
14837KMSN MSN20060217092009602/17/06 09:20:31  5-MIN KMSN 171520Z 30007KT 10SM CLR M12/M17 A3050 330 67 -2900 300/07 RMK AO2
14837KMSN MSN20060217092509602/17/06 09:25:31  5-MIN KMSN 171525Z 30007KT 10SM CLR M12/M17 A3051 330 67 -2900 300/07 RMK AO2
14837KMSN MSN20060217093009602/17/06 09:30:31  5-MIN KMSN 171530Z 29009KT 10SM CLR M12/M18 A3051 320 64 -2900 290/09 RMK AO2
14837KMSN MSN20060217093509602/17/06 09:35:31  5-MIN KMSN 171535Z 31006KT 10SM CLR M12/M18 A3051 320 64 -2900 310/06 RMK AO2
14837KMSN MSN20060217094009602/17/06 09:40:31  5-MIN KMSN 171540Z 32010KT 10SM CLR M12/M18 A3052 320 61 -2900 320/10 RMK AO2
14837KMSN MSN20060217094511202/17/06 09:45:31  5-MIN KMSN 171545Z 31008KT 280V340 10SM CLR M12/M18 A3052 320 61 -2900 310/08 280V340 RMK AO2
14837KMSN MSN20060217095011302/17/06 09:50:31  5-MIN KMSN 171550Z 32010KT 10SM CLR M12/M18 A3052 310 61 -2900 310/10 RMK AO2 SLP352 T11171178
14837KMSN MSN20060217095509602/17/06 09:55:31  5-MIN KMSN 171555Z 31006KT 10SM CLR M12/M18 A3052 310 58 -2900 310/06 RMK AO2
14837KMSN MSN20060217100009602/17/06 10:00:31  5-MIN KMSN 171600Z 30009KT 10SM CLR M12/M18 A3052 310 58 -2900 300/09 RMK AO2
14837KMSN MSN20060217100510202/17/06 10:05:31  5-MIN KMSN 171605Z 30009G15KT 10SM CLR M12/M18 A3052 310 58 -2900 300/09G15 RMK AO2
14837KMSN MSN20060217101010202/17/06 10:10:31  5-MIN KMSN 171610Z 30009G15KT 10SM CLR M12/M18 A3052 310 58 -2900 300/09G15 RMK AO2
14837KMSN MSN20060217101509602/17/06 10:15:31  5-MIN KMSN 171615Z 31008KT 10SM CLR M12/M18 A3053 310 58 -2900 310/08 RMK AO2
14837KMSN MSN20060217102009602/17/06 10:20:31  5-MIN KMSN 171620Z 31008KT 10SM CLR M11/M19 A3053 310 53 -2800 310/08 RMK AO2
14837KMSN MSN20060217102509602/17/06 10:25:31  5-MIN KMSN 171625Z 31011KT 10SM CLR M11/M19 A3052 310 53 -2800 300/11 RMK AO2
14837KMSN MSN20060217103009602/17/06 10:30:31  5-MIN KMSN 171630Z 32009KT 10SM CLR M12/M19 A3053 310 53 -2900 310/09 RMK AO2
14837KMSN MSN20060217103510202/17/06 10:35:31  5-MIN KMSN 171635Z 30009G15KT 10SM CLR M12/M19 A3053 310 53 -2900 300/09G15 RMK AO2
14837KMSN MSN20060217104009602/17/06 10:40:31  5-MIN KMSN 171640Z 30010KT 10SM CLR M11/M19 A3053 310 53 -2800 300/10 RMK AO2
14837KMSN MSN20060217104509602/17/06 10:45:31  5-MIN KMSN 171645Z 31011KT 10SM CLR M11/M19 A3053 310 53 -2800 310/11 RMK AO2
14837KMSN MSN20060217105011302/17/06 10:50:31  5-MIN KMSN 171650Z 32012KT 10SM CLR M11/M20 A3053 310 48 -2800 320/12 RMK AO2 SLP356 T11111200
14837KMSN MSN20060217105509602/17/06 10:55:31  5-MIN KMSN 171655Z 30009KT 10SM CLR M11/M19 A3053 300 51 -2800 300/09 RMK AO2
14837KMSN MSN20060217110009602/17/06 11:00:31  5-MIN KMSN 171700Z 30011KT 10SM CLR M11/M19 A3054 300 51 -2800 300/11 RMK AO2
14837KMSN MSN20060217110509602/17/06 11:05:31  5-MIN KMSN 171705Z 32011KT 10SM CLR M11/M19 A3054 300 51 -2700 320/11 RMK AO2
14837KMSN MSN20060217111009602/17/06 11:10:31  5-MIN KMSN 171710Z 33010KT 10SM CLR M11/M19 A3054 300 53 -2800 330/10 RMK AO2
14837KMSN MSN20060217111509602/17/06 11:15:31  5-MIN KMSN 171715Z 29008KT 10SM CLR M11/M19 A3054 290 51 -2700 290/08 RMK AO2
14837KMSN MSN20060217112009602/17/06 11:20:31  5-MIN KMSN 171720Z 32011KT 10SM CLR M11/M19 A3055 290 48 -2700 320/11 RMK AO2
14837KMSN MSN20060217112510202/17/06 11:25:31  5-MIN KMSN 171725Z 29009G14KT 10SM CLR M11/M19 A3055 290 48 -2700 290/09G14 RMK AO2
14837KMSN MSN20060217113009602/17/06 11:30:31  5-MIN KMSN 171730Z 29011KT 10SM CLR M11/M19 A3055 290 48 -2700 290/11 RMK AO2
14837KMSN MSN20060217113510202/17/06 11:35:31  5-MIN KMSN 171735Z 29010G15KT 10SM CLR M11/M19 A3055 290 48 -2800 290/10G15 RMK AO2
14837KMSN MSN20060217114010202/17/06 11:40:31  5-MIN KMSN 171740Z 28010G17KT 10SM CLR M11/M20 A3055 290 46 -2800 280/10G17 RMK AO2
14837KMSN MSN20060217114511802/17/06 11:45:31  5-MIN KMSN 171745Z 29010G17KT 260V320 10SM CLR M11/M20 A3056 280 46 -2800 290/10G17 260V320 RMK AO2
14837KMSN MSN20060217115015002/17/06 11:50:31  5-MIN KMSN 171750Z 31013G16KT 10SM CLR M11/M20 A3056 280 46 -2800 310/13G16 RMK AO2 SLP366 4/008 933010 T11061200 11106 21133 51017
14837KMSN MSN20060217115510202/17/06 11:55:31  5-MIN KMSN 171755Z 31011G16KT 10SM CLR M11/M20 A3056 280 46 -2800 300/11G16 RMK AO2
14837KMSN MSN20060217120010202/17/06 12:00:31  5-MIN KMSN 171800Z 29013G17KT 10SM CLR M11/M20 A3056 280 46 -2800 290/13G17 RMK AO2
14837KMSN MSN20060217120511802/17/06 12:05:31  5-MIN KMSN 171805Z 26009G17KT 250V310 10SM CLR M11/M20 A3056 280 46 -2800 260/09G17 250V310 RMK AO2
14837KMSN MSN20060217121009602/17/06 12:10:31  5-MIN KMSN 171810Z 29010KT 10SM CLR M11/M19 A3056 280 48 -2800 290/10 RMK AO2
14837KMSN MSN20060217121510202/17/06 12:15:31  5-MIN KMSN 171815Z 29012G16KT 10SM CLR M11/M20 A3056 280 48 -2800 290/12G16 RMK AO2
14837KMSN MSN20060217122010202/17/06 12:20:31  5-MIN KMSN 171820Z 30012G16KT 10SM CLR M11/M19 A3056 280 48 -2800 300/12G16 RMK AO2
14837KMSN MSN20060217122511802/17/06 12:25:31  5-MIN KMSN 171825Z 29011G17KT 260V330 10SM CLR M11/M20 A3055 280 46 -2800 290/11G17 260V330 RMK AO2
14837KMSN MSN20060217123010202/17/06 12:30:31  5-MIN KMSN 171830Z 31011G17KT 10SM CLR M11/M19 A3055 290 48 -2800 310/11G17 RMK AO2
14837KMSN MSN20060217123510202/17/06 12:35:31  5-MIN KMSN 171835Z 30010G16KT 10SM CLR M11/M20 A3055 290 46 -2800 300/10G16 RMK AO2
14837KMSN MSN20060217124010202/17/06 12:40:31  5-MIN KMSN 171840Z 31012G15KT 10SM CLR M11/M20 A3055 290 46 -2800 310/12G15 RMK AO2
14837KMSN MSN20060217124509602/17/06 12:45:31  5-MIN KMSN 171845Z 30011KT 10SM CLR M11/M19 A3055 290 48 -2800 300/11 RMK AO2
14837KMSN MSN20060217125011302/17/06 12:50:31  5-MIN KMSN 171850Z 30010KT 10SM CLR M11/M19 A3054 290 48 -2700 300/10 RMK AO2 SLP360 T11061194
14837KMSN MSN20060217125509602/17/06 12:55:31  5-MIN KMSN 171855Z 31010KT 10SM CLR M11/M19 A3054 290 48 -2700 310/10 RMK AO2
14837KMSN MSN20060217130009602/17/06 13:00:31  5-MIN KMSN 171900Z 30008KT 10SM CLR M10/M19 A3054 300 46 -2700 300/08 RMK AO2
14837KMSN MSN20060217130511202/17/06 13:05:31  5-MIN KMSN 171905Z 28008KT 260V320 10SM CLR M10/M19 A3054 290 49 -2700 280/08 260V320 RMK AO2
14837KMSN MSN20060217131010202/17/06 13:10:31  5-MIN KMSN 171910Z 29009G14KT 10SM CLR M10/M19 A3054 290 46 -2700 290/09G14 RMK AO2
14837KMSN MSN20060217131510202/17/06 13:15:31  5-MIN KMSN 171915Z 28011G16KT 10SM CLR M10/M19 A3054 290 46 -2700 280/11G16 RMK AO2
14837KMSN MSN20060217132010202/17/06 13:20:31  5-MIN KMSN 171920Z 29009G16KT 10SM CLR M10/M19 A3054 300 49 -2700 290/09G16 RMK AO2
14837KMSN MSN20060217132510202/17/06 13:25:31  5-MIN KMSN 171925Z 29008G15KT 10SM CLR M10/M19 A3054 300 46 -2700 290/08G15 RMK AO2
14837KMSN MSN20060217133010202/17/06 13:30:31  5-MIN KMSN 171930Z 30013G18KT 10SM CLR M10/M19 A3054 300 46 -2700 300/13G18 RMK AO2
14837KMSN MSN20060217133510202/17/06 13:35:31  5-MIN KMSN 171935Z 28010G18KT 10SM CLR M10/M19 A3054 300 46 -2700 280/10G18 RMK AO2
14837KMSN MSN20060217134010202/17/06 13:40:31  5-MIN KMSN 171940Z 29012G18KT 10SM CLR M10/M19 A3054 300 46 -2700 290/12G18 RMK AO2
14837KMSN MSN20060217134510202/17/06 13:45:31  5-MIN KMSN 171945Z 28013G18KT 10SM CLR M09/M19 A3054 300 44 -2600 280/13G18 RMK AO2
14837KMSN MSN20060217135011902/17/06 13:50:31  5-MIN KMSN 171950Z 30015G19KT 10SM CLR M10/M21 A3054 300 42 -2700 290/15G19 RMK AO2 SLP360 T11001206
14837KMSN MSN20060217135510202/17/06 13:55:31  5-MIN KMSN 171955Z 28012G20KT 10SM CLR M11/M21 A3054 300 44 -2700 280/12G20 RMK AO2
14837KMSN MSN20060217140010202/17/06 14:00:31  5-MIN KMSN 172000Z 29010G20KT 10SM CLR M11/M21 A3054 300 44 -2700 280/10G20 RMK AO2
14837KMSN MSN20060217140510202/17/06 14:05:31  5-MIN KMSN 172005Z 29013G17KT 10SM CLR M10/M21 A3054 300 42 -2700 290/13G17 RMK AO2
14837KMSN MSN20060217141010202/17/06 14:10:31  5-MIN KMSN 172010Z 29014G17KT 10SM CLR M11/M20 A3054 300 46 -2700 290/14G17 RMK AO2
14837KMSN MSN20060217141510202/17/06 14:15:31  5-MIN KMSN 172015Z 30009G17KT 10SM CLR M11/M19 A3053 300 48 -2700 300/09G17 RMK AO2
14837KMSN MSN20060217142009602/17/06 14:20:31  5-MIN KMSN 172020Z 29012KT 10SM CLR M10/M19 A3053 300 46 -2700 290/12 RMK AO2
14837KMSN MSN20060217142509602/17/06 14:25:31  5-MIN KMSN 172025Z 27010KT 10SM CLR M10/M19 A3053 300 49 -2700 270/10 RMK AO2
14837KMSN MSN20060217143009602/17/06 14:30:31  5-MIN KMSN 172030Z 29009KT 10SM CLR M10/M19 A3053 300 49 -2700 290/09 RMK AO2
14837KMSN MSN20060217143509602/17/06 14:35:31  5-MIN KMSN 172035Z 27008KT 10SM CLR M10/M19 A3053 300 49 -2700 270/08 RMK AO2
14837KMSN MSN20060217144010202/17/06 14:40:31  5-MIN KMSN 172040Z 30011G15KT 10SM CLR M10/M19 A3053 300 46 -2700 300/11G15 RMK AO2
14837KMSN MSN20060217144511802/17/06 14:45:31  5-MIN KMSN 172045Z 28008G15KT 250V310 10SM CLR M11/M20 A3053 300 46 -2700 280/08G15 250V310 RMK AO2
14837KMSN MSN20060217145014102/17/06 14:50:31  5-MIN KMSN 172050Z 27009G19KT 240V300 10SM CLR M11/M20 A3053 310 46 -2700 270/09G19 240V300 RMK AO2 SLP357 T11061200 53020
14837KMSN MSN20060217145510202/17/06 14:55:31  5-MIN KMSN 172055Z 29010G19KT 10SM CLR M11/M20 A3053 310 46 -2700 290/10G19 RMK AO2
14837KMSN MSN20060217150011202/17/06 15:00:31  5-MIN KMSN 172100Z 28009KT 250V310 10SM CLR M11/M20 A3053 300 46 -2700 280/09 250V310 RMK AO2
14837KMSN MSN20060217150511802/17/06 15:05:31  5-MIN KMSN 172105Z 28009G15KT 250V310 10SM CLR M11/M20 A3053 300 46 -2700 280/09G15 250V310 RMK AO2
14837KMSN MSN20060217151010202/17/06 15:10:31  5-MIN KMSN 172110Z 29010G18KT 10SM CLR M11/M21 A3053 300 44 -2700 290/10G18 RMK AO2
14837KMSN MSN20060217151510202/17/06 15:15:31  5-MIN KMSN 172115Z 29012G18KT 10SM CLR M11/M20 A3053 300 46 -2700 290/12G18 RMK AO2
14837KMSN MSN20060217152010502/17/06 15:20:31  5-MIN KMSN 172120Z 28011G16KT 10SM FEW095 M11/M20 A3053 300 46 -2700 280/11G16 RMK AO2
14837KMSN MSN20060217152510502/17/06 15:25:31  5-MIN KMSN 172125Z 29015G19KT 10SM FEW095 M11/M21 A3054 300 46 -2800 290/15G19 RMK AO2
14837KMSN MSN20060217153010502/17/06 15:30:31  5-MIN KMSN 172130Z 30014G20KT 10SM FEW095 M12/M23 A3054 300 38 -2900 300/14G20 RMK AO2
14837KMSN MSN20060217153510502/17/06 15:35:31  5-MIN KMSN 172135Z 31012G20KT 10SM FEW095 M12/M23 A3054 300 40 -3000 310/12G20 RMK AO2
14837KMSN MSN20060217154010502/17/06 15:40:31  5-MIN KMSN 172140Z 31011G18KT 10SM FEW095 M12/M23 A3053 300 40 -3000 310/11G18 RMK AO2
14837KMSN MSN20060217154510502/17/06 15:45:31  5-MIN KMSN 172145Z 31012G18KT 10SM FEW095 M12/M23 A3053 300 41 -3000 310/12G18 RMK AO2
14837KMSN MSN20060217155011602/17/06 15:50:31  5-MIN KMSN 172150Z 30011KT 10SM FEW095 M12/M23 A3053 300 40 -3000 300/11 RMK AO2 SLP360 T11221233
14837KMSN MSN20060217155509902/17/06 15:55:31  5-MIN KMSN 172155Z 33012KT 10SM FEW090 M12/M23 A3054 300 40 -3000 330/12 RMK AO2
14837KMSN MSN20060217160009902/17/06 16:00:31  5-MIN KMSN 172200Z 32011KT 10SM FEW090 M13/M24 A3054 300 39 -3000 320/11 RMK AO2
14837KMSN MSN20060217160509902/17/06 16:05:31  5-MIN KMSN 172205Z 31010KT 10SM FEW090 M13/M24 A3054 300 39 -3000 310/10 RMK AO2
14837KMSN MSN20060217161009902/17/06 16:10:31  5-MIN KMSN 172210Z 32009KT 10SM SCT090 M13/M24 A3054 300 39 -3000 320/09 RMK AO2
14837KMSN MSN20060217161511502/17/06 16:15:31  5-MIN KMSN 172215Z 31009KT 270V330 10SM SCT090 M13/M23 A3055 290 41 -3000 310/09 270V330 RMK AO2
14837KMSN MSN20060217162009902/17/06 16:20:31  5-MIN KMSN 172220Z 31008KT 10SM SCT090 M13/M23 A3054 290 41 -3000 310/08 RMK AO2
14837KMSN MSN20060217162509902/17/06 16:25:31  5-MIN KMSN 172225Z 31009KT 10SM BKN090 M13/M23 A3054 290 43 -3100 310/09 RMK AO2
14837KMSN MSN20060217163009902/17/06 16:30:31  5-MIN KMSN 172230Z 32010KT 10SM SCT090 M13/M23 A3054 290 43 -3100 320/10 RMK AO2
14837KMSN MSN20060217163509902/17/06 16:35:31  5-MIN KMSN 172235Z 32006KT 10SM SCT090 M13/M23 A3054 300 43 -3100 320/06 RMK AO2
14837KMSN MSN20060217164009902/17/06 16:40:31  5-MIN KMSN 172240Z 32009KT 10SM SCT090 M13/M23 A3054 300 43 -3100 320/09 RMK AO2
14837KMSN MSN20060217164509902/17/06 16:45:31  5-MIN KMSN 172245Z 32008KT 10SM SCT090 M13/M23 A3054 300 43 -3100 320/08 RMK AO2
14837KMSN MSN20060217165011602/17/06 16:50:31  5-MIN KMSN 172250Z 32008KT 10SM BKN090 M14/M23 A3053 300 45 -3200 320/08 RMK AO2 SLP360 T11391233
14837KMSN MSN20060217165511502/17/06 16:55:31  5-MIN KMSN 172255Z 29007KT 250V320 10SM BKN095 M13/M23 A3053 300 45 -3100 290/07 250V320 RMK AO2
14837KMSN MSN20060217170010502/17/06 17:00:31  5-MIN KMSN 172300Z 29010G14KT 10SM BKN095 M14/M23 A3054 300 47 -3200 290/10G14 RMK AO2
14837KMSN MSN20060217170512102/17/06 17:05:31  5-MIN KMSN 172305Z 29010G14KT 250V320 10SM BKN100 M14/M23 A3054 300 45 -3200 290/10G14 250V320 RMK AO2
14837KMSN MSN20060217171010502/17/06 17:10:31  5-MIN KMSN 172310Z 29010G16KT 10SM OVC100 M14/M23 A3054 300 47 -3300 290/10G16 RMK AO2
14837KMSN MSN20060217171510502/17/06 17:15:31  5-MIN KMSN 172315Z 29011G16KT 10SM OVC100 M14/M23 A3054 300 47 -3300 290/11G16 RMK AO2
14837KMSN MSN20060217172010502/17/06 17:20:31  5-MIN KMSN 172320Z 29009G16KT 10SM BKN100 M14/M24 A3054 300 45 -3300 290/09G16 RMK AO2
14837KMSN MSN20060217172510502/17/06 17:25:31  5-MIN KMSN 172325Z 29009G16KT 10SM BKN100 M15/M24 A3054 290 47 -3300 290/09G16 RMK AO2
14837KMSN MSN20060217173010502/17/06 17:30:31  5-MIN KMSN 172330Z 29012G17KT 10SM BKN100 M15/M24 A3054 290 47 -3300 290/12G17 RMK AO2
14837KMSN MSN20060217173510502/17/06 17:35:31  5-MIN KMSN 172335Z 29008G17KT 10SM BKN100 M15/M24 A3054 290 47 -3300 290/08G17 RMK AO2
14837KMSN MSN20060217174010502/17/06 17:40:31  5-MIN KMSN 172340Z 28010G15KT 10SM SCT100 M15/M24 A3055 290 47 -3300 280/10G15 RMK AO2
14837KMSN MSN20060217174511102/17/06 17:45:31  5-MIN KMSN 172345Z 29010G16KT 10SM FEW100 M15/M24 A3055 280 45 -3400 290/10G16 RMK AO2 4/008
14837KMSN MSN20060217175014602/17/06 17:50:31  5-MIN KMSN 172350Z 29008G16KT 10SM FEW100 M16/M24 A3056 280 47 -3400 290/08G16 RMK AO2 SLP369 4/008 T11561244 11094 21156 56010
14837KMSN MSN20060217175510502/17/06 17:55:31  5-MIN KMSN 172355Z 29013G20KT 10SM FEW100 M16/M25 A3056 280 45 -3400 290/13G20 RMK AO2
14837KMSN MSN20060217180010202/17/06 18:00:31  5-MIN KMSN 180000Z 29007G20KT 10SM CLR M16/M25 A3056 280 45 -3400 290/07G20 RMK AO2
14837KMSN MSN20060217180510202/17/06 18:05:31  5-MIN KMSN 180005Z 30010G15KT 10SM CLR M16/M25 A3056 280 45 -3400 300/10G15 RMK AO2
14837KMSN MSN20060217181010202/17/06 18:10:31  5-MIN KMSN 180010Z 29011G17KT 10SM CLR M16/M25 A3056 280 45 -3400 290/11G17 RMK AO2
14837KMSN MSN20060217181510202/17/06 18:15:31  5-MIN KMSN 180015Z 30011G18KT 10SM CLR M16/M26 A3056 280 45 -3500 300/11G18 RMK AO2
14837KMSN MSN20060217182010202/17/06 18:20:31  5-MIN KMSN 180020Z 30011G18KT 10SM CLR M16/M26 A3057 270 45 -3500 290/11G18 RMK AO2
14837KMSN MSN20060217182510202/17/06 18:25:31  5-MIN KMSN 180025Z 30014G17KT 10SM CLR M16/M26 A3057 270 42 -3500 300/14G17 RMK AO2
14837KMSN MSN20060217183010202/17/06 18:30:31  5-MIN KMSN 180030Z 31012G19KT 10SM CLR M16/M26 A3058 260 42 -3500 310/12G19 RMK AO2
14837KMSN MSN20060217183510202/17/06 18:35:31  5-MIN KMSN 180035Z 30008G19KT 10SM CLR M17/M26 A3058 260 44 -3600 300/08G19 RMK AO2
14837KMSN MSN20060217184010202/17/06 18:40:31  5-MIN KMSN 180040Z 30010G16KT 10SM CLR M17/M26 A3058 260 47 -3600 300/10G16 RMK AO2
14837KMSN MSN20060217184510202/17/06 18:45:31  5-MIN KMSN 180045Z 30011G16KT 10SM CLR M17/M26 A3058 260 47 -3600 300/11G16 RMK AO2
14837KMSN MSN20060217185011902/17/06 18:50:31  5-MIN KMSN 180050Z 30011G18KT 10SM CLR M17/M26 A3058 260 44 -3600 300/11G18 RMK AO2 SLP378 T11671261
14837KMSN MSN20060217185510202/17/06 18:55:31  5-MIN KMSN 180055Z 31013G18KT 10SM CLR M17/M26 A3058 260 47 -3700 310/13G18 RMK AO2
14837KMSN MSN20060217190010202/17/06 19:00:31  5-MIN KMSN 180100Z 30014G19KT 10SM CLR M17/M26 A3059 250 47 -3700 300/14G19 RMK AO2
14837KMSN MSN20060217190510202/17/06 19:05:31  5-MIN KMSN 180105Z 31012G19KT 10SM CLR M17/M27 A3059 250 44 -3700 300/12G19 RMK AO2
14837KMSN MSN20060217191010202/17/06 19:10:31  5-MIN KMSN 180110Z 31010G18KT 10SM CLR M18/M27 A3059 250 46 -3800 310/10G18 RMK AO2
14837KMSN MSN20060217191510202/17/06 19:15:31  5-MIN KMSN 180115Z 30009G18KT 10SM CLR M18/M27 A3060 240 46 -3800 300/09G18 RMK AO2
14837KMSN MSN20060217192010202/17/06 19:20:31  5-MIN KMSN 180120Z 30009G18KT 10SM CLR M18/M27 A3060 240 46 -3800 300/09G18 RMK AO2
14837KMSN MSN20060217192510202/17/06 19:25:31  5-MIN KMSN 180125Z 30010G16KT 10SM CLR M18/M27 A3060 240 46 -3800 300/10G16 RMK AO2
14837KMSN MSN20060217193010202/17/06 19:30:31  5-MIN KMSN 180130Z 30010G16KT 10SM CLR M18/M27 A3060 240 49 -3900 300/10G16 RMK AO2
14837KMSN MSN20060217193510202/17/06 19:35:31  5-MIN KMSN 180135Z 30010G16KT 10SM CLR M18/M27 A3060 240 49 -3900 300/10G16 RMK AO2
14837KMSN MSN20060217194010202/17/06 19:40:31  5-MIN KMSN 180140Z 31008G15KT 10SM CLR M18/M27 A3060 240 49 -3900 300/08G15 RMK AO2
14837KMSN MSN20060217194510202/17/06 19:45:31  5-MIN KMSN 180145Z 32010G15KT 10SM CLR M19/M27 A3061 230 51 -3900 320/10G15 RMK AO2
14837KMSN MSN20060217195011902/17/06 19:50:31  5-MIN KMSN 180150Z 32011G20KT 10SM CLR M19/M27 A3061 230 48 -3900 320/11G20 RMK AO2 SLP388 T11891272
14837KMSN MSN20060217195510202/17/06 19:55:31  5-MIN KMSN 180155Z 32014G22KT 10SM CLR M19/M28 A3061 230 46 -3900 320/14G22 RMK AO2
14837KMSN MSN20060217200010202/17/06 20:00:31  5-MIN KMSN 180200Z 31012G22KT 10SM CLR M19/M28 A3060 240 48 -4000 310/12G22 RMK AO2
14837KMSN MSN20060217200509602/17/06 20:05:31  5-MIN KMSN 180205Z 31010KT 10SM CLR M19/M28 A3060 240 48 -4000 310/10 RMK AO2
14837KMSN MSN20060217201009602/17/06 20:10:31  5-MIN KMSN 180210Z 30011KT 10SM CLR M19/M28 A3061 240 48 -4000 300/11 RMK AO2
14837KMSN MSN20060217201510202/17/06 20:15:31  5-MIN KMSN 180215Z 31009G16KT 10SM CLR M19/M28 A3061 230 48 -4000 310/09G16 RMK AO2
14837KMSN MSN20060217202009602/17/06 20:20:31  5-MIN KMSN 180220Z 31007KT 10SM CLR M19/M28 A3061 230 48 -4000 300/07 RMK AO2
14837KMSN MSN20060217202509602/17/06 20:25:31  5-MIN KMSN 180225Z 30009KT 10SM CLR M19/M28 A3061 230 48 -4000 300/09 RMK AO2
14837KMSN MSN20060217203009602/17/06 20:30:31  5-MIN KMSN 180230Z 30009KT 10SM CLR M19/M28 A3061 230 48 -4000 300/09 RMK AO2
14837KMSN MSN20060217203509602/17/06 20:35:31  5-MIN KMSN 180235Z 30010KT 10SM CLR M19/M28 A3062 230 48 -4000 300/10 RMK AO2
14837KMSN MSN20060217204009602/17/06 20:40:31  5-MIN KMSN 180240Z 30008KT 10SM CLR M19/M28 A3062 220 48 -4000 300/08 RMK AO2
14837KMSN MSN20060217204510202/17/06 20:45:31  5-MIN KMSN 180245Z 30009G15KT 10SM CLR M19/M28 A3062 220 48 -4000 300/09G15 RMK AO2
14837KMSN MSN20060217205012502/17/06 20:50:31  5-MIN KMSN 180250Z 30008G15KT 10SM CLR M19/M28 A3063 220 48 -4000 300/08G15 RMK AO2 SLP396 T11941278 53009
14837KMSN MSN20060217205509902/17/06 20:55:31  5-MIN KMSN 180255Z 30009KT 10SM FEW110 M19/M28 A3063 210 48 -4100 300/09 RMK AO2
14837KMSN MSN20060217210009902/17/06 21:00:31  5-MIN KMSN 180300Z 31008KT 10SM SCT100 M19/M28 A3063 210 48 -4000 310/08 RMK AO2
14837KMSN MSN20060217210509902/17/06 21:05:31  5-MIN KMSN 180305Z 30009KT 10SM SCT100 M20/M28 A3063 210 51 -4100 300/09 RMK AO2
14837KMSN MSN20060217211010502/17/06 21:10:31  5-MIN KMSN 180310Z 31009G16KT 10SM SCT100 M20/M28 A3063 210 51 -4100 310/09G16 RMK AO2
14837KMSN MSN20060217211510502/17/06 21:15:31  5-MIN KMSN 180315Z 31012G17KT 10SM FEW100 M20/M28 A3064 210 48 -4100 310/12G17 RMK AO2
14837KMSN MSN20060217212010502/17/06 21:20:31  5-MIN KMSN 180320Z 32012G17KT 10SM SCT100 M20/M28 A3064 210 48 -4100 320/12G17 RMK AO2
14837KMSN MSN20060217212510502/17/06 21:25:31  5-MIN KMSN 180325Z 32010G16KT 10SM FEW100 M20/M28 A3064 200 48 -4100 320/10G16 RMK AO2
14837KMSN MSN20060217213010502/17/06 21:30:31  5-MIN KMSN 180330Z 31007G16KT 10SM FEW110 M20/M28 A3064 200 48 -4100 310/07G16 RMK AO2
14837KMSN MSN20060217213509602/17/06 21:35:31  5-MIN KMSN 180335Z 32007KT 10SM CLR M21/M28 A3065 200 53 -4200 320/07 RMK AO2
14837KMSN MSN20060217214010202/17/06 21:40:31  5-MIN KMSN 180340Z 32011G16KT 10SM CLR M21/M28 A3065 200 53 -4200 320/11G16 RMK AO2
14837KMSN MSN20060217214510202/17/06 21:45:31  5-MIN KMSN 180345Z 31010G16KT 10SM CLR M21/M28 A3065 200 50 -4200 310/10G16 RMK AO2
14837KMSN MSN20060217215011902/17/06 21:50:31  5-MIN KMSN 180350Z 31011G15KT 10SM CLR M21/M28 A3065 200 50 -4200 310/11G15 RMK AO2 SLP402 T12061283
14837KMSN MSN20060217215510202/17/06 21:55:31  5-MIN KMSN 180355Z 30008G15KT 10SM CLR M21/M28 A3065 200 50 -4200 300/08G15 RMK AO2
14837KMSN MSN20060217220009602/17/06 22:00:31  5-MIN KMSN 180400Z 31009KT 10SM CLR M21/M28 A3065 200 50 -4200 310/09 RMK AO2
14837KMSN MSN20060217220510202/17/06 22:05:31  5-MIN KMSN 180405Z 31010G15KT 10SM CLR M21/M28 A3065 190 53 -4300 310/10G15 RMK AO2
14837KMSN MSN20060217221009602/17/06 22:10:31  5-MIN KMSN 180410Z 31008KT 10SM CLR M21/M28 A3066 190 53 -4300 310/08 RMK AO2
14837KMSN MSN20060217221509602/17/06 22:15:31  5-MIN KMSN 180415Z 31006KT 10SM CLR M21/M28 A3066 190 53 -4300 310/06 RMK AO2
14837KMSN MSN20060217222009602/17/06 22:20:31  5-MIN KMSN 180420Z 30008KT 10SM CLR M21/M28 A3066 190 53 -4300 300/08 RMK AO2
14837KMSN MSN20060217222510202/17/06 22:25:31  5-MIN KMSN 180425Z 31010G14KT 10SM CLR M21/M28 A3066 180 53 -4300 310/10G14 RMK AO2
14837KMSN MSN20060217223009602/17/06 22:30:31  5-MIN KMSN 180430Z 31010KT 10SM CLR M21/M28 A3066 180 53 -4300 310/10 RMK AO2
14837KMSN MSN20060217223509602/17/06 22:35:31  5-MIN KMSN 180435Z 31009KT 10SM CLR M21/M28 A3067 180 53 -4300 310/09 RMK AO2
14837KMSN MSN20060217224009602/17/06 22:40:31  5-MIN KMSN 180440Z 30007KT 10SM CLR M22/M28 A3067 180 55 -4400 300/07 RMK AO2
14837KMSN MSN20060217224509602/17/06 22:45:31  5-MIN KMSN 180445Z 31009KT 10SM CLR M22/M28 A3067 180 55 -4400 310/09 RMK AO2
14837KMSN MSN20060217225011902/17/06 22:50:31  5-MIN KMSN 180450Z 31011G16KT 10SM CLR M22/M28 A3067 180 55 -4400 310/11G16 RMK AO2 SLP410 T12171283
14837KMSN MSN20060217225510202/17/06 22:55:31  5-MIN KMSN 180455Z 31009G16KT 10SM CLR M22/M29 A3067 180 53 -4400 310/09G16 RMK AO2
14837KMSN MSN20060217230009602/17/06 23:00:31  5-MIN KMSN 180500Z 32012KT 10SM CLR M22/M29 A3067 180 53 -4400 320/12 RMK AO2
14837KMSN MSN20060217230510202/17/06 23:05:31  5-MIN KMSN 180505Z 32009G16KT 10SM CLR M22/M29 A3067 180 53 -4400 320/09G16 RMK AO2
14837KMSN MSN20060217231009602/17/06 23:10:31  5-MIN KMSN 180510Z 31011KT 10SM CLR M22/M29 A3067 180 53 -4400 310/11 RMK AO2
14837KMSN MSN20060217231509602/17/06 23:15:31  5-MIN KMSN 180515Z 32010KT 10SM CLR M22/M29 A3067 180 55 -4500 310/10 RMK AO2
14837KMSN MSN20060217232009602/17/06 23:20:31  5-MIN KMSN 180520Z 32010KT 10SM CLR M22/M29 A3067 180 55 -4500 320/10 RMK AO2
14837KMSN MSN20060217232509602/17/06 23:25:31  5-MIN KMSN 180525Z 32011KT 10SM CLR M22/M29 A3067 180 53 -4500 320/11 RMK AO2
14837KMSN MSN20060217233010202/17/06 23:30:31  5-MIN KMSN 180530Z 32011G15KT 10SM CLR M22/M29 A3067 180 53 -4500 320/11G15 RMK AO2
14837KMSN MSN20060217233510202/17/06 23:35:31  5-MIN KMSN 180535Z 32012G15KT 10SM CLR M22/M29 A3067 180 53 -4500 320/12G15 RMK AO2
14837KMSN MSN20060217234009602/17/06 23:40:31  5-MIN KMSN 180540Z 32011KT 10SM CLR M22/M29 A3067 180 53 -4500 310/11 RMK AO2
14837KMSN MSN20060217234509602/17/06 23:45:31  5-MIN KMSN 180545Z 32009KT 10SM CLR M22/M29 A3067 170 53 -4500 320/09 RMK AO2
14837KMSN MSN20060217235014102/17/06 23:50:31  5-MIN KMSN 180550Z 31010KT 10SM CLR M23/M29 A3067 180 55 -4600 310/10 RMK AO2 SLP411 T12281294 11156 21228 410781228 52024
14837KMSN MSN20060217235510202/17/06 23:55:31  5-MIN KMSN 180555Z 31011G16KT 10SM CLR M23/M29 A3067 180 55 -4600 310/11G16 RMK AO2
14837KMSN MSN20060218000009602/18/06 00:00:38  5-MIN KMSN 180600Z 31012KT 10SM CLR M23/M29 A3067 180 55 -4600 310/12 RMK AO2
14837KMSN MSN20060218000509602/18/06 00:05:31  5-MIN KMSN 180605Z 32010KT 10SM CLR M23/M29 A3067 180 55 -4600 320/10 RMK AO2
14837KMSN MSN20060218001009602/18/06 00:10:31  5-MIN KMSN 180610Z 31010KT 10SM CLR M23/M29 A3067 180 55 -4600 310/10 RMK AO2
14837KMSN MSN20060218001509602/18/06 00:15:31  5-MIN KMSN 180615Z 31011KT 10SM CLR M23/M29 A3067 180 55 -4600 310/11 RMK AO2
14837KMSN MSN20060218002009602/18/06 00:20:31  5-MIN KMSN 180620Z 31011KT 10SM CLR M23/M29 A3067 180 55 -4600 310/11 RMK AO2
14837KMSN MSN20060218002509602/18/06 00:25:31  5-MIN KMSN 180625Z 30010KT 10SM CLR M23/M30 A3067 180 52 -4600 300/10 RMK AO2
14837KMSN MSN20060218003009602/18/06 00:30:31  5-MIN KMSN 180630Z 31011KT 10SM CLR M23/M30 A3068 170 52 -4600 310/11 RMK AO2
14837KMSN MSN20060218003509602/18/06 00:35:31  5-MIN KMSN 180635Z 30008KT 10SM CLR M23/M30 A3068 170 55 -4600 300/08 RMK AO2
14837KMSN MSN20060218004009602/18/06 00:40:31  5-MIN KMSN 180640Z 31008KT 10SM CLR M23/M30 A3068 170 55 -4600 310/08 RMK AO2
14837KMSN MSN20060218004509602/18/06 00:45:31  5-MIN KMSN 180645Z 31010KT 10SM CLR M23/M30 A3068 170 55 -4600 310/10 RMK AO2
14837KMSN MSN20060218005011302/18/06 00:50:31  5-MIN KMSN 180650Z 31008KT 10SM CLR M23/M30 A3068 170 55 -4700 310/08 RMK AO2 SLP414 T12331300
14837KMSN MSN20060218005509602/18/06 00:55:31  5-MIN KMSN 180655Z 31008KT 10SM CLR M23/M30 A3068 170 55 -4700 310/08 RMK AO2
14837KMSN MSN20060218010009602/18/06 01:00:31  5-MIN KMSN 180700Z 30009KT 10SM CLR M23/M30 A3068 170 55 -4700 300/09 RMK AO2
14837KMSN MSN20060218010509602/18/06 01:05:31  5-MIN KMSN 180705Z 31007KT 10SM CLR M23/M30 A3068 170 55 -4600 310/07 RMK AO2
14837KMSN MSN20060218011009602/18/06 01:10:31  5-MIN KMSN 180710Z 31008KT 10SM CLR M23/M30 A3068 170 55 -4700 310/08 RMK AO2
14837KMSN MSN20060218011509602/18/06 01:15:31  5-MIN KMSN 180715Z 31009KT 10SM CLR M23/M30 A3068 160 55 -4700 310/09 RMK AO2
14837KMSN MSN20060218012009602/18/06 01:20:31  5-MIN KMSN 180720Z 31009KT 10SM CLR M23/M30 A3069 160 55 -4700 310/09 RMK AO2
14837KMSN MSN20060218012509602/18/06 01:25:31  5-MIN KMSN 180725Z 32009KT 10SM CLR M24/M30 A3068 170 58 -4700 310/09 RMK AO2
14837KMSN MSN20060218013009602/18/06 01:30:31  5-MIN KMSN 180730Z 31008KT 10SM CLR M24/M30 A3068 160 58 -4700 310/08 RMK AO2
14837KMSN MSN20060218013509602/18/06 01:35:31  5-MIN KMSN 180735Z 31009KT 10SM CLR M24/M30 A3069 160 58 -4700 310/09 RMK AO2
14837KMSN MSN20060218014009602/18/06 01:40:31  5-MIN KMSN 180740Z 31008KT 10SM CLR M24/M30 A3069 160 58 -4700 310/08 RMK AO2
14837KMSN MSN20060218014509602/18/06 01:45:31  5-MIN KMSN 180745Z 31007KT 10SM CLR M24/M30 A3069 160 58 -4700 300/07 RMK AO2
14837KMSN MSN20060218015011302/18/06 01:50:31  5-MIN KMSN 180750Z 31007KT 10SM CLR M24/M30 A3069 160 58 -4700 310/07 RMK AO2 SLP417 T12391300
14837KMSN MSN20060218015509602/18/06 01:55:31  5-MIN KMSN 180755Z 31007KT 10SM CLR M24/M30 A3069 160 58 -4700 300/07 RMK AO2
14837KMSN MSN20060218020009602/18/06 02:00:31  5-MIN KMSN 180800Z 31005KT 10SM CLR M24/M30 A3069 160 58 -4700 310/05 RMK AO2
14837KMSN MSN20060218020509602/18/06 02:05:31  5-MIN KMSN 180805Z 31006KT 10SM CLR M24/M30 A3069 160 61 -4800 310/06 RMK AO2
14837KMSN MSN20060218021009602/18/06 02:10:31  5-MIN KMSN 180810Z 32009KT 10SM CLR M24/M30 A3069 160 61 -4800 320/09 RMK AO2
14837KMSN MSN20060218021509602/18/06 02:15:31  5-MIN KMSN 180815Z 32008KT 10SM CLR M24/M31 A3069 160 58 -4800 320/08 RMK AO2
14837KMSN MSN20060218022009602/18/06 02:20:31  5-MIN KMSN 180820Z 31006KT 10SM CLR M24/M31 A3069 160 58 -4800 310/06 RMK AO2
14837KMSN MSN20060218022509602/18/06 02:25:31  5-MIN KMSN 180825Z 31008KT 10SM CLR M24/M31 A3069 160 58 -4800 310/08 RMK AO2
14837KMSN MSN20060218023009602/18/06 02:30:31  5-MIN KMSN 180830Z 32007KT 10SM CLR M24/M31 A3069 160 58 -4800 320/07 RMK AO2
14837KMSN MSN20060218023509602/18/06 02:35:31  5-MIN KMSN 180835Z 32007KT 10SM CLR M24/M31 A3069 160 58 -4800 310/07 RMK AO2
14837KMSN MSN20060218024009602/18/06 02:40:31  5-MIN KMSN 180840Z 31008KT 10SM CLR M24/M31 A3068 170 58 -4800 310/08 RMK AO2
14837KMSN MSN20060218024509602/18/06 02:45:31  5-MIN KMSN 180845Z 32010KT 10SM CLR M24/M31 A3068 170 58 -4800 310/10 RMK AO2
14837KMSN MSN20060218025011902/18/06 02:50:31  5-MIN KMSN 180850Z 31006KT 10SM CLR M25/M31 A3068 170 61 -4900 310/06 RMK AO2 SLP415 T12501306 51014
14837KMSN MSN20060218025509602/18/06 02:55:31  5-MIN KMSN 180855Z 32008KT 10SM CLR M25/M31 A3068 170 61 -4900 320/08 RMK AO2
14837KMSN MSN20060218030009602/18/06 03:00:31  5-MIN KMSN 180900Z 31006KT 10SM CLR M25/M31 A3068 170 61 -4900 310/06 RMK AO2
14837KMSN MSN20060218030509602/18/06 03:05:31  5-MIN KMSN 180905Z 31005KT 10SM CLR M25/M31 A3068 170 61 -4900 310/05 RMK AO2
14837KMSN MSN20060218031009602/18/06 03:10:31  5-MIN KMSN 180910Z 31005KT 10SM CLR M25/M31 A3068 160 61 -4900 310/05 RMK AO2
14837KMSN MSN20060218031509602/18/06 03:15:31  5-MIN KMSN 180915Z 31006KT 10SM CLR M25/M31 A3068 160 57 -4900 310/06 RMK AO2
14837KMSN MSN20060218032009602/18/06 03:20:31  5-MIN KMSN 180920Z 32006KT 10SM CLR M25/M31 A3068 160 57 -4900 320/06 RMK AO2
14837KMSN MSN20060218032509602/18/06 03:25:31  5-MIN KMSN 180925Z 31007KT 10SM CLR M25/M31 A3068 170 57 -4900 310/07 RMK AO2
14837KMSN MSN20060218033009602/18/06 03:30:31  5-MIN KMSN 180930Z 31008KT 10SM CLR M25/M31 A3068 170 57 -4900 310/08 RMK AO2
14837KMSN MSN20060218033509602/18/06 03:35:31  5-MIN KMSN 180935Z 31007KT 10SM CLR M26/M31 A3068 170 60 -5000 310/07 RMK AO2
14837KMSN MSN20060218034009602/18/06 03:40:31  5-MIN KMSN 180940Z 32007KT 10SM CLR M26/M31 A3068 170 60 -5000 320/07 RMK AO2
14837KMSN MSN20060218034509602/18/06 03:45:31  5-MIN KMSN 180945Z 31007KT 10SM CLR M26/M31 A3068 170 60 -5000 310/07 RMK AO2
14837KMSN MSN20060218035011302/18/06 03:50:31  5-MIN KMSN 180950Z 31009KT 10SM CLR M26/M31 A3068 170 60 -5000 310/09 RMK AO2 SLP415 T12561311
14837KMSN MSN20060218035509602/18/06 03:55:31  5-MIN KMSN 180955Z 31007KT 10SM CLR M26/M31 A3068 170 60 -5000 310/07 RMK AO2
14837KMSN MSN20060218040009602/18/06 04:00:31  5-MIN KMSN 181000Z 31008KT 10SM CLR M26/M31 A3067 170 60 -5000 310/08 RMK AO2
14837KMSN MSN20060218040509602/18/06 04:05:31  5-MIN KMSN 181005Z 31008KT 10SM CLR M26/M31 A3067 180 60 -5000 310/08 RMK AO2
14837KMSN MSN20060218041009602/18/06 04:10:31  5-MIN KMSN 181010Z 31008KT 10SM CLR M26/M31 A3067 180 60 -5000 310/08 RMK AO2
14837KMSN MSN20060218041509602/18/06 04:15:31  5-MIN KMSN 181015Z 31008KT 10SM CLR M26/M31 A3067 170 60 -5000 310/08 RMK AO2
14837KMSN MSN20060218042009602/18/06 04:20:31  5-MIN KMSN 181020Z 31005KT 10SM CLR M26/M31 A3067 170 60 -5000 310/05 RMK AO2
14837KMSN MSN20060218042509602/18/06 04:25:31  5-MIN KMSN 181025Z 32006KT 10SM CLR M26/M31 A3067 170 60 -5000 320/06 RMK AO2
14837KMSN MSN20060218043009602/18/06 04:30:31  5-MIN KMSN 181030Z 32007KT 10SM CLR M26/M32 A3067 170 57 -5000 320/07 RMK AO2
14837KMSN MSN20060218043509602/18/06 04:35:31  5-MIN KMSN 181035Z 32006KT 10SM CLR M26/M32 A3068 170 60 -5000 320/06 RMK AO2
14837KMSN MSN20060218044009602/18/06 04:40:31  5-MIN KMSN 181040Z 32006KT 10SM CLR M26/M32 A3067 180 60 -5000 320/06 RMK AO2
14837KMSN MSN20060218044509602/18/06 04:45:31  5-MIN KMSN 181045Z 33005KT 10SM CLR M26/M32 A3067 170 60 -5000 330/05 RMK AO2
14837KMSN MSN20060218045011302/18/06 04:50:31  5-MIN KMSN 181050Z 31004KT 10SM CLR M26/M32 A3067 180 60 -5000 310/04 RMK AO2 SLP414 T12611317
14837KMSN MSN20060218045509602/18/06 04:55:31  5-MIN KMSN 181055Z 32004KT 10SM CLR M26/M32 A3067 180 60 -5000 320/04 RMK AO2
14837KMSN MSN20060218050009602/18/06 05:00:31  5-MIN KMSN 181100Z 32006KT 10SM CLR M26/M32 A3067 180 60 -5000 320/06 RMK AO2
14837KMSN MSN20060218050509602/18/06 05:05:31  5-MIN KMSN 181105Z 31006KT 10SM CLR M26/M32 A3067 180 60 -5000 310/06 RMK AO2
14837KMSN MSN20060218051009602/18/06 05:10:31  5-MIN KMSN 181110Z 31005KT 10SM CLR M26/M32 A3067 180 60 -5000 310/05 RMK AO2
14837KMSN MSN20060218051509602/18/06 05:15:31  5-MIN KMSN 181115Z 30005KT 10SM CLR M26/M32 A3067 180 60 -5000 300/05 RMK AO2
14837KMSN MSN20060218052009602/18/06 05:20:31  5-MIN KMSN 181120Z 31004KT 10SM CLR M26/M32 A3067 180 60 -5000 310/04 RMK AO2
14837KMSN MSN20060218052509602/18/06 05:25:31  5-MIN KMSN 181125Z 31005KT 10SM CLR M27/M32 A3067 180 63 -5100 300/05 RMK AO2
14837KMSN MSN20060218053009602/18/06 05:30:31  5-MIN KMSN 181130Z 30004KT 10SM CLR M27/M32 A3067 180 63 -5100 300/04 RMK AO2
14837KMSN MSN20060218053509602/18/06 05:35:31  5-MIN KMSN 181135Z 31004KT 10SM CLR M27/M31 A3067 170 67 -5100 300/04 RMK AO2
14837KMSN MSN20060218054009602/18/06 05:40:31  5-MIN KMSN 181140Z 30005KT 10SM CLR M27/M31 A3068 170 67 -5100 300/05 RMK AO2
14837KMSN MSN20060218054509602/18/06 05:45:31  5-MIN KMSN 181145Z 30005KT 10SM CLR M27/M32 A3068 170 63 -5100 300/05 RMK AO2
14837KMSN MSN20060218055013102/18/06 05:50:31  5-MIN KMSN 181150Z 30004KT 10SM CLR M27/M32 A3068 170 63 -5100 300/04 RMK AO2 SLP418 T12671317 11228 21267 50002
14837KMSN MSN20060218055509602/18/06 05:55:31  5-MIN KMSN 181155Z 30004KT 10SM CLR M27/M32 A3069 160 63 -5100 300/04 RMK AO2
14837KMSN MSN20060218060009602/18/06 06:00:31  5-MIN KMSN 181200Z 29004KT 10SM CLR M27/M32 A3069 160 63 -5100 290/04 RMK AO2
14837KMSN MSN20060218060509602/18/06 06:05:31  5-MIN KMSN 181205Z 30004KT 10SM CLR M27/M32 A3069 160 63 -5100 300/04 RMK AO2
14837KMSN MSN20060218061009602/18/06 06:10:31  5-MIN KMSN 181210Z VRB03KT 10SM CLR M27/M32 A3069 160 63 -5100 VRB/03 RMK AO2
14837KMSN MSN20060218061509602/18/06 06:15:31  5-MIN KMSN 181215Z 29004KT 10SM CLR M27/M32 A3069 160 63 -5100 290/04 RMK AO2
14837KMSN MSN20060218062009602/18/06 06:20:31  5-MIN KMSN 181220Z 29003KT 10SM CLR M27/M32 A3069 160 63 -5100 280/03 RMK AO2
14837KMSN MSN20060218062509602/18/06 06:25:31  5-MIN KMSN 181225Z 29004KT 10SM CLR M27/M32 A3069 160 63 -5100 290/04 RMK AO2
14837KMSN MSN20060218063009602/18/06 06:30:31  5-MIN KMSN 181230Z 00000KT 10SM CLR M27/M32 A3069 160 63 -5100 000/00 RMK AO2
14837KMSN MSN20060218063509602/18/06 06:35:31  5-MIN KMSN 181235Z 29003KT 10SM CLR M27/M32 A3069 160 67 -5200 290/03 RMK AO2
14837KMSN MSN20060218064009602/18/06 06:40:31  5-MIN KMSN 181240Z 29003KT 10SM CLR M27/M32 A3069 160 67 -5200 290/03 RMK AO2
14837KMSN MSN20060218064509602/18/06 06:45:31  5-MIN KMSN 181245Z 30004KT 10SM CLR M27/M32 A3069 160 67 -5200 300/04 RMK AO2
14837KMSN MSN20060218065011302/18/06 06:50:31  5-MIN KMSN 181250Z 30003KT 10SM CLR M27/M32 A3069 160 67 -5200 300/03 RMK AO2 SLP423 T12721317
14837KMSN MSN20060218065509602/18/06 06:55:31  5-MIN KMSN 181255Z 30004KT 10SM CLR M27/M32 A3069 160 67 -5200 300/04 RMK AO2
14837KMSN MSN20060218070009602/18/06 07:00:31  5-MIN KMSN 181300Z 30004KT 10SM CLR M27/M32 A3069 160 67 -5200 300/04 RMK AO2
14837KMSN MSN20060218070509602/18/06 07:05:31  5-MIN KMSN 181305Z 30005KT 10SM CLR M27/M32 A3069 160 67 -5200 290/05 RMK AO2
14837KMSN MSN20060218071009602/18/06 07:10:31  5-MIN KMSN 181310Z 30006KT 10SM CLR M27/M32 A3069 160 67 -5200 300/06 RMK AO2
14837KMSN MSN20060218071509602/18/06 07:15:31  5-MIN KMSN 181315Z 30006KT 10SM CLR M27/M32 A3070 150 67 -5200 300/06 RMK AO2
14837KMSN MSN20060218072009602/18/06 07:20:31  5-MIN KMSN 181320Z 30006KT 10SM CLR M27/M32 A3070 150 63 -5100 300/06 RMK AO2
14837KMSN MSN20060218072509602/18/06 07:25:31  5-MIN KMSN 181325Z 30006KT 10SM CLR M27/M32 A3070 150 63 -5100 300/06 RMK AO2
14837KMSN MSN20060218073009602/18/06 07:30:31  5-MIN KMSN 181330Z 30007KT 10SM CLR M27/M32 A3070 150 63 -5100 300/07 RMK AO2
14837KMSN MSN20060218073509602/18/06 07:35:31  5-MIN KMSN 181335Z 30006KT 10SM CLR M27/M32 A3070 150 63 -5100 300/06 RMK AO2
14837KMSN MSN20060218074009602/18/06 07:40:31  5-MIN KMSN 181340Z 30005KT 10SM CLR M27/M32 A3070 150 63 -5100 300/05 RMK AO2
14837KMSN MSN20060218074509602/18/06 07:45:31  5-MIN KMSN 181345Z 30006KT 10SM CLR M26/M32 A3070 150 60 -5100 300/06 RMK AO2
14837KMSN MSN20060218075011302/18/06 07:50:31  5-MIN KMSN 181350Z 29005KT 10SM CLR M26/M32 A3070 150 60 -5100 290/05 RMK AO2 SLP427 T12611317
14837KMSN MSN20060218075509602/18/06 07:55:31  5-MIN KMSN 181355Z 29006KT 10SM CLR M26/M32 A3070 150 60 -5100 290/06 RMK AO2
14837KMSN MSN20060218080009602/18/06 08:00:31  5-MIN KMSN 181400Z 31007KT 10SM CLR M26/M32 A3071 150 60 -5100 310/07 RMK AO2
14837KMSN MSN20060218080509602/18/06 08:05:31  5-MIN KMSN 181405Z 30007KT 10SM CLR M26/M31 A3071 140 63 -5100 300/07 RMK AO2
14837KMSN MSN20060218081009602/18/06 08:10:31  5-MIN KMSN 181410Z 30007KT 10SM CLR M26/M31 A3071 140 60 -5000 300/07 RMK AO2
14837KMSN MSN20060218081509602/18/06 08:15:31  5-MIN KMSN 181415Z 30007KT 10SM CLR M26/M31 A3071 140 60 -5000 300/07 RMK AO2
14837KMSN MSN20060218082009602/18/06 08:20:31  5-MIN KMSN 181420Z 29006KT 10SM CLR M26/M31 A3071 140 60 -5000 290/06 RMK AO2
14837KMSN MSN20060218082509602/18/06 08:25:31  5-MIN KMSN 181425Z 29006KT 10SM CLR M26/M31 A3071 140 60 -5000 290/06 RMK AO2
14837KMSN MSN20060218083009602/18/06 08:30:31  5-MIN KMSN 181430Z 29007KT 10SM CLR M25/M31 A3071 140 57 -4900 290/07 RMK AO2
14837KMSN MSN20060218083509602/18/06 08:35:31  5-MIN KMSN 181435Z 31007KT 10SM CLR M25/M31 A3071 140 57 -4900 310/07 RMK AO2
14837KMSN MSN20060218084009602/18/06 08:40:31  5-MIN KMSN 181440Z 31007KT 10SM CLR M25/M31 A3071 140 57 -4900 310/07 RMK AO2
14837KMSN MSN20060218084509602/18/06 08:45:31  5-MIN KMSN 181445Z 30006KT 10SM CLR M25/M31 A3071 140 57 -4900 300/06 RMK AO2
14837KMSN MSN20060218085011902/18/06 08:50:31  5-MIN KMSN 181450Z 31009KT 10SM CLR M24/M31 A3071 140 58 -4800 310/09 RMK AO2 SLP428 T12441306 53001
14837KMSN MSN20060218085509602/18/06 08:55:31  5-MIN KMSN 181455Z 32008KT 10SM CLR M24/M31 A3071 140 58 -4800 320/08 RMK AO2
14837KMSN MSN20060218090009602/18/06 09:00:31  5-MIN KMSN 181500Z 32008KT 10SM CLR M24/M31 A3071 140 58 -4800 320/08 RMK AO2
14837KMSN MSN20060218090509602/18/06 09:05:31  5-MIN KMSN 181505Z 31008KT 10SM CLR M24/M31 A3071 140 58 -4800 310/08 RMK AO2
14837KMSN MSN20060218091009602/18/06 09:10:31  5-MIN KMSN 181510Z 30007KT 10SM CLR M24/M31 A3071 140 55 -4800 300/07 RMK AO2
14837KMSN MSN20060218091509602/18/06 09:15:31  5-MIN KMSN 181515Z 32007KT 10SM CLR M24/M31 A3071 140 55 -4800 320/07 RMK AO2
14837KMSN MSN20060218092009602/18/06 09:20:31  5-MIN KMSN 181520Z 32008KT 10SM CLR M24/M30 A3071 140 58 -4800 310/08 RMK AO2
14837KMSN MSN20060218092509602/18/06 09:25:31  5-MIN KMSN 181525Z 31006KT 10SM CLR M24/M30 A3071 140 58 -4800 300/06 RMK AO2
14837KMSN MSN20060218093009602/18/06 09:30:31  5-MIN KMSN 181530Z 32006KT 10SM CLR M24/M30 A3071 140 58 -4800 320/06 RMK AO2
14837KMSN MSN20060218093509602/18/06 09:35:31  5-MIN KMSN 181535Z 31006KT 10SM CLR M24/M30 A3071 140 58 -4800 310/06 RMK AO2
14837KMSN MSN20060218094009602/18/06 09:40:31  5-MIN KMSN 181540Z 31005KT 10SM CLR M23/M30 A3071 140 55 -4700 310/05 RMK AO2
14837KMSN MSN20060218094509602/18/06 09:45:31  5-MIN KMSN 181545Z 32006KT 10SM CLR M23/M30 A3071 140 55 -4700 320/06 RMK AO2
14837KMSN MSN20060218095011302/18/06 09:50:31  5-MIN KMSN 181550Z 33005KT 10SM CLR M23/M29 A3071 140 58 -4700 320/05 RMK AO2 SLP428 T12331294
14837KMSN MSN20060218095509602/18/06 09:55:31  5-MIN KMSN 181555Z 31006KT 10SM CLR M23/M29 A3071 140 58 -4700 310/06 RMK AO2
14837KMSN MSN20060218100009602/18/06 10:00:31  5-MIN KMSN 181600Z 31004KT 10SM CLR M23/M29 A3071 140 58 -4700 310/04 RMK AO2
14837KMSN MSN20060218100509602/18/06 10:05:31  5-MIN KMSN 181605Z 32007KT 10SM CLR M23/M29 A3071 140 55 -4600 320/07 RMK AO2
14837KMSN MSN20060218101009602/18/06 10:10:31  5-MIN KMSN 181610Z 32006KT 10SM CLR M23/M29 A3071 140 55 -4600 320/06 RMK AO2
14837KMSN MSN20060218101509602/18/06 10:15:31  5-MIN KMSN 181615Z VRB06KT 10SM CLR M23/M29 A3071 140 55 -4600 VRB/06 RMK AO2
14837KMSN MSN20060218102011202/18/06 10:20:31  5-MIN KMSN 181620Z 29007KT 250V320 10SM CLR M23/M29 A3071 140 55 -4600 290/07 250V320 RMK AO2
14837KMSN MSN20060218102509602/18/06 10:25:31  5-MIN KMSN 181625Z 32005KT 10SM CLR M23/M29 A3071 140 55 -4600 310/05 RMK AO2
14837KMSN MSN20060218103009602/18/06 10:30:31  5-MIN KMSN 181630Z 29006KT 10SM CLR M23/M29 A3071 140 58 -4600 290/06 RMK AO2
14837KMSN MSN20060218103509602/18/06 10:35:31  5-MIN KMSN 181635Z 28007KT 10SM CLR M22/M29 A3071 140 55 -4500 280/07 RMK AO2
14837KMSN MSN20060218104009602/18/06 10:40:31  5-MIN KMSN 181640Z 29008KT 10SM CLR M22/M29 A3071 140 53 -4500 290/08 RMK AO2
14837KMSN MSN20060218104509602/18/06 10:45:31  5-MIN KMSN 181645Z 32006KT 10SM CLR M22/M29 A3071 140 55 -4500 320/06 RMK AO2
14837KMSN MSN20060218105011302/18/06 10:50:31  5-MIN KMSN 181650Z 33005KT 10SM CLR M22/M29 A3071 140 53 -4500 330/05 RMK AO2 SLP428 T12221294
14837KMSN MSN20060218105509602/18/06 10:55:31  5-MIN KMSN 181655Z VRB05KT 10SM CLR M22/M29 A3071 140 55 -4500 VRB/05 RMK AO2
14837KMSN MSN20060218110009602/18/06 11:00:31  5-MIN KMSN 181700Z VRB05KT 10SM CLR M22/M29 A3071 140 55 -4500 VRB/05 RMK AO2
14837KMSN MSN20060218110509602/18/06 11:05:31  5-MIN KMSN 181705Z 30007KT 10SM CLR M22/M29 A3071 140 55 -4500 300/07 RMK AO2
14837KMSN MSN20060218111009602/18/06 11:10:31  5-MIN KMSN 181710Z 30007KT 10SM CLR M22/M29 A3071 140 53 -4400 300/07 RMK AO2
14837KMSN MSN20060218111509602/18/06 11:15:31  5-MIN KMSN 181715Z VRB04KT 10SM CLR M22/M28 A3071 150 55 -4400 VRB/04 RMK AO2
14837KMSN MSN20060218112009602/18/06 11:20:31  5-MIN KMSN 181720Z VRB06KT 10SM CLR M22/M29 A3070 150 53 -4400 VRB/06 RMK AO2
14837KMSN MSN20060218112509602/18/06 11:25:31  5-MIN KMSN 181725Z 30006KT 10SM CLR M22/M29 A3070 150 53 -4400 300/06 RMK AO2
14837KMSN MSN20060218113009602/18/06 11:30:31  5-MIN KMSN 181730Z VRB06KT 10SM CLR M22/M28 A3070 150 55 -4400 VRB/06 RMK AO2
14837KMSN MSN20060218113509602/18/06 11:35:31  5-MIN KMSN 181735Z 31006KT 10SM CLR M21/M28 A3070 150 53 -4400 310/06 RMK AO2
14837KMSN MSN20060218114009602/18/06 11:40:31  5-MIN KMSN 181740Z VRB06KT 10SM CLR M21/M28 A3069 160 53 -4400 VRB/06 RMK AO2
14837KMSN MSN20060218114509602/18/06 11:45:31  5-MIN KMSN 181745Z 30008KT 10SM CLR M21/M28 A3069 160 53 -4300 300/08 RMK AO2
14837KMSN MSN20060218115013102/18/06 11:50:31  5-MIN KMSN 181750Z VRB05KT 10SM CLR M21/M28 A3069 160 50 -4300 VRB/05 RMK AO2 SLP422 T12061283 11206 21272 52008
14837KMSN MSN20060218115509602/18/06 11:55:31  5-MIN KMSN 181755Z 30007KT 10SM CLR M21/M28 A3069 160 50 -4300 300/07 RMK AO2
14837KMSN MSN20060218120009602/18/06 12:00:31  5-MIN KMSN 181800Z 27006KT 10SM CLR M21/M28 A3069 160 50 -4300 270/06 RMK AO2
14837KMSN MSN20060218120509602/18/06 12:05:31  5-MIN KMSN 181805Z 28007KT 10SM CLR M21/M28 A3068 160 53 -4300 280/07 RMK AO2
14837KMSN MSN20060218121009602/18/06 12:10:31  5-MIN KMSN 181810Z 28008KT 10SM CLR M21/M28 A3068 170 50 -4300 280/08 RMK AO2
14837KMSN MSN20060218121509602/18/06 12:15:31  5-MIN KMSN 181815Z 30005KT 10SM CLR M20/M28 A3068 170 51 -4200 300/05 RMK AO2
14837KMSN MSN20060218122011202/18/06 12:20:31  5-MIN KMSN 181820Z 29007KT 260V350 10SM CLR M19/M28 A3068 170 48 -4100 290/07 260V350 RMK AO2
14837KMSN MSN20060218122511202/18/06 12:25:31  5-MIN KMSN 181825Z 29008KT 240V330 10SM CLR M19/M28 A3067 170 48 -4100 290/08 240V330 RMK AO2
14837KMSN MSN20060218123009602/18/06 12:30:31  5-MIN KMSN 181830Z 29008KT 10SM CLR M19/M27 A3067 180 51 -4100 290/08 RMK AO2
14837KMSN MSN20060218123509602/18/06 12:35:31  5-MIN KMSN 181835Z 30009KT 10SM CLR M19/M28 A3067 180 48 -4100 300/09 RMK AO2
14837KMSN MSN20060218124010202/18/06 12:40:31  5-MIN KMSN 181840Z 30008G15KT 10SM CLR M19/M28 A3067 180 48 -4100 300/08G15 RMK AO2
14837KMSN MSN20060218124510202/18/06 12:45:31  5-MIN KMSN 181845Z 29008G15KT 10SM CLR M19/M27 A3067 180 48 -4000 290/08G15 RMK AO2
14837KMSN MSN20060218125011302/18/06 12:50:31  5-MIN KMSN 181850Z 27008KT 10SM CLR M19/M27 A3066 180 48 -4000 270/08 RMK AO2 SLP412 T11891272
14837KMSN MSN20060218125509602/18/06 12:55:31  5-MIN KMSN 181855Z VRB04KT 10SM CLR M19/M27 A3066 180 48 -4000 VRB/04 RMK AO2
14837KMSN MSN20060218130009602/18/06 13:00:31  5-MIN KMSN 181900Z VRB06KT 10SM CLR M19/M27 A3066 190 53 -4100 VRB/06 RMK AO2
14837KMSN MSN20060218130509602/18/06 13:05:31  5-MIN KMSN 181905Z 24007KT 10SM CLR M19/M27 A3066 190 51 -4100 240/07 RMK AO2
14837KMSN MSN20060218131009602/18/06 13:10:31  5-MIN KMSN 181910Z 27008KT 10SM CLR M19/M27 A3065 190 51 -4100 260/08 RMK AO2
14837KMSN MSN20060218131509602/18/06 13:15:31  5-MIN KMSN 181915Z VRB04KT 10SM CLR M19/M27 A3065 200 51 -4000 VRB/04 RMK AO2
14837KMSN MSN20060218132011202/18/06 13:20:31  5-MIN KMSN 181920Z 29008KT 270V330 10SM CLR M18/M27 A3065 200 49 -3900 290/08 270V330 RMK AO2
14837KMSN MSN20060218132509602/18/06 13:25:31  5-MIN KMSN 181925Z VRB06KT 10SM CLR M18/M27 A3064 200 49 -3900 VRB/06 RMK AO2
14837KMSN MSN20060218133009602/18/06 13:30:31  5-MIN KMSN 181930Z 25008KT 10SM CLR M18/M27 A3064 200 49 -3900 250/08 RMK AO2
14837KMSN MSN20060218133509602/18/06 13:35:31  5-MIN KMSN 181935Z 26006KT 10SM CLR M18/M27 A3064 210 49 -3900 260/06 RMK AO2
14837KMSN MSN20060218134011202/18/06 13:40:31  5-MIN KMSN 181940Z 27008KT 230V300 10SM CLR M18/M27 A3064 210 49 -3900 270/08 230V300 RMK AO2
14837KMSN MSN20060218134509602/18/06 13:45:31  5-MIN KMSN 181945Z VRB06KT 10SM CLR M18/M27 A3064 210 49 -3900 VRB/06 RMK AO2
14837KMSN MSN20060218135011302/18/06 13:50:31  5-MIN KMSN 181950Z 25007KT 10SM CLR M18/M27 A3063 210 49 -3900 250/07 RMK AO2 SLP402 T11831267
14837KMSN MSN20060218135509602/18/06 13:55:31  5-MIN KMSN 181955Z VRB06KT 10SM CLR M18/M26 A3063 210 51 -3900 VRB/06 RMK AO2
14837KMSN MSN20060218140010202/18/06 14:00:31  5-MIN KMSN 182000Z 29008G14KT 10SM CLR M18/M27 A3063 210 46 -3800 290/08G14 RMK AO2
14837KMSN MSN20060218140510202/18/06 14:05:31  5-MIN KMSN 182005Z 26008G14KT 10SM CLR M18/M26 A3063 210 49 -3800 260/08G14 RMK AO2
14837KMSN MSN20060218141011202/18/06 14:10:31  5-MIN KMSN 182010Z 27008KT 220V310 10SM CLR M18/M27 A3063 210 46 -3800 260/08 220V310 RMK AO2
14837KMSN MSN20060218141509602/18/06 14:15:31  5-MIN KMSN 182015Z 29007KT 10SM CLR M17/M26 A3063 220 47 -3700 290/07 RMK AO2
14837KMSN MSN20060218142009602/18/06 14:20:31  5-MIN KMSN 182020Z 25006KT 10SM CLR M17/M26 A3063 220 49 -3700 250/06 RMK AO2
14837KMSN MSN20060218142509602/18/06 14:25:31  5-MIN KMSN 182025Z VRB05KT 10SM CLR M18/M26 A3062 220 49 -3800 VRB/05 RMK AO2
14837KMSN MSN20060218143011202/18/06 14:30:31  5-MIN KMSN 182030Z 25007KT 210V280 10SM CLR M18/M26 A3062 220 49 -3800 250/07 210V280 RMK AO2
14837KMSN MSN20060218143509602/18/06 14:35:31  5-MIN KMSN 182035Z VRB05KT 10SM CLR M17/M26 A3062 220 47 -3700 VRB/05 RMK AO2
14837KMSN MSN20060218144009602/18/06 14:40:31  5-MIN KMSN 182040Z 27007KT 10SM CLR M17/M26 A3062 230 47 -3700 270/07 RMK AO2
14837KMSN MSN20060218144511202/18/06 14:45:31  5-MIN KMSN 182045Z 26007KT 230V300 10SM CLR M17/M26 A3061 230 47 -3700 260/07 230V300 RMK AO2
14837KMSN MSN20060218145013502/18/06 14:50:31  5-MIN KMSN 182050Z 28008KT 200V330 10SM CLR M17/M26 A3061 230 47 -3700 280/08 200V330 RMK AO2 SLP394 T11721261 58007
14837KMSN MSN20060218145509602/18/06 14:55:31  5-MIN KMSN 182055Z 29009KT 10SM CLR M17/M26 A3061 230 44 -3600 290/09 RMK AO2
14837KMSN MSN20060218150009602/18/06 15:00:31  5-MIN KMSN 182100Z 29008KT 10SM CLR M17/M26 A3061 240 47 -3600 290/08 RMK AO2
14837KMSN MSN20060218150509602/18/06 15:05:31  5-MIN KMSN 182105Z 28007KT 10SM CLR M17/M26 A3060 240 47 -3600 280/07 RMK AO2
14837KMSN MSN20060218151009602/18/06 15:10:31  5-MIN KMSN 182110Z 29007KT 10SM CLR M17/M26 A3060 240 47 -3600 290/07 RMK AO2
14837KMSN MSN20060218151509602/18/06 15:15:31  5-MIN KMSN 182115Z VRB04KT 10SM CLR M17/M26 A3060 240 47 -3600 VRB/04 RMK AO2
14837KMSN MSN20060218152009602/18/06 15:20:31  5-MIN KMSN 182120Z 28007KT 10SM CLR M17/M25 A3060 240 49 -3600 280/07 RMK AO2
14837KMSN MSN20060218152509602/18/06 15:25:31  5-MIN KMSN 182125Z 28009KT 10SM CLR M17/M26 A3059 250 47 -3600 280/09 RMK AO2
14837KMSN MSN20060218153009602/18/06 15:30:31  5-MIN KMSN 182130Z 28009KT 10SM CLR M17/M26 A3059 250 47 -3600 280/09 RMK AO2
14837KMSN MSN20060218153509602/18/06 15:35:31  5-MIN KMSN 182135Z 28008KT 10SM CLR M16/M25 A3059 250 47 -3500 280/08 RMK AO2
14837KMSN MSN20060218154009602/18/06 15:40:31  5-MIN KMSN 182140Z 28007KT 10SM CLR M16/M26 A3059 250 45 -3500 270/07 RMK AO2
14837KMSN MSN20060218154509602/18/06 15:45:31  5-MIN KMSN 182145Z VRB06KT 10SM CLR M16/M26 A3059 250 45 -3500 VRB/06 RMK AO2
14837KMSN MSN20060218155011302/18/06 15:50:31  5-MIN KMSN 182150Z VRB06KT 10SM CLR M16/M25 A3059 250 47 -3500 VRB/06 RMK AO2 SLP387 T11611250
14837KMSN MSN20060218155509602/18/06 15:55:31  5-MIN KMSN 182155Z VRB05KT 10SM CLR M16/M25 A3059 250 47 -3500 VRB/05 RMK AO2
14837KMSN MSN20060218160009602/18/06 16:00:31  5-MIN KMSN 182200Z VRB05KT 10SM CLR M16/M25 A3059 250 47 -3500 VRB/05 RMK AO2
14837KMSN MSN20060218160509602/18/06 16:05:31  5-MIN KMSN 182205Z VRB06KT 10SM CLR M16/M25 A3058 260 47 -3500 VRB/06 RMK AO2
14837KMSN MSN20060218161009602/18/06 16:10:31  5-MIN KMSN 182210Z 25004KT 10SM CLR M16/M26 A3058 260 45 -3500 250/04 RMK AO2
14837KMSN MSN20060218161509602/18/06 16:15:31  5-MIN KMSN 182215Z 25006KT 10SM CLR M16/M25 A3059 250 47 -3500 250/06 RMK AO2
14837KMSN MSN20060218162009602/18/06 16:20:31  5-MIN KMSN 182220Z VRB04KT 10SM CLR M16/M26 A3058 260 45 -3500 VRB/04 RMK AO2
14837KMSN MSN20060218162509602/18/06 16:25:31  5-MIN KMSN 182225Z 28006KT 10SM CLR M16/M25 A3058 260 47 -3500 280/06 RMK AO2
14837KMSN MSN20060218163009602/18/06 16:30:31  5-MIN KMSN 182230Z VRB05KT 10SM CLR M16/M26 A3058 260 45 -3500 VRB/05 RMK AO2
14837KMSN MSN20060218163509602/18/06 16:35:31  5-MIN KMSN 182235Z VRB05KT 10SM CLR M16/M25 A3058 260 47 -3500 VRB/05 RMK AO2
14837KMSN MSN20060218164009602/18/06 16:40:31  5-MIN KMSN 182240Z 28008KT 10SM CLR M16/M25 A3058 260 47 -3500 280/08 RMK AO2
14837KMSN MSN20060218164509602/18/06 16:45:31  5-MIN KMSN 182245Z 28007KT 10SM CLR M16/M26 A3058 260 45 -3500 280/07 RMK AO2
14837KMSN MSN20060218165011302/18/06 16:50:31  5-MIN KMSN 182250Z 28008KT 10SM CLR M16/M26 A3058 260 45 -3500 280/08 RMK AO2 SLP383 T11611256
14837KMSN MSN20060218165509602/18/06 16:55:31  5-MIN KMSN 182255Z VRB05KT 10SM CLR M16/M26 A3057 260 45 -3500 VRB/05 RMK AO2
14837KMSN MSN20060218170009602/18/06 17:00:31  5-MIN KMSN 182300Z 27008KT 10SM CLR M16/M26 A3057 270 45 -3500 260/08 RMK AO2
14837KMSN MSN20060218170509602/18/06 17:05:31  5-MIN KMSN 182305Z 27006KT 10SM CLR M16/M26 A3057 270 45 -3500 270/06 RMK AO2
14837KMSN MSN20060218171009602/18/06 17:10:31  5-MIN KMSN 182310Z 27004KT 10SM CLR M17/M25 A3057 270 49 -3600 270/04 RMK AO2
14837KMSN MSN20060218171509602/18/06 17:15:31  5-MIN KMSN 182315Z 27004KT 10SM CLR M17/M25 A3057 270 49 -3600 270/04 RMK AO2
14837KMSN MSN20060218172009602/18/06 17:20:31  5-MIN KMSN 182320Z VRB04KT 10SM CLR M17/M25 A3057 270 49 -3600 VRB/04 RMK AO2
14837KMSN MSN20060218172509602/18/06 17:25:31  5-MIN KMSN 182325Z VRB04KT 10SM CLR M17/M25 A3057 270 49 -3600 VRB/04 RMK AO2
14837KMSN MSN20060218173009602/18/06 17:30:31  5-MIN KMSN 182330Z 28004KT 10SM CLR M17/M25 A3057 270 49 -3600 280/04 RMK AO2
14837KMSN MSN20060218173509602/18/06 17:35:31  5-MIN KMSN 182335Z VRB03KT 10SM CLR M17/M25 A3057 270 49 -3600 VRB/03 RMK AO2
14837KMSN MSN20060218174009602/18/06 17:40:31  5-MIN KMSN 182340Z VRB04KT 10SM CLR M17/M25 A3056 270 49 -3600 VRB/04 RMK AO2
14837KMSN MSN20060218174509602/18/06 17:45:31  5-MIN KMSN 182345Z 28003KT 10SM CLR M17/M25 A3056 280 51 -3700 280/03 RMK AO2
14837KMSN MSN20060218175013702/18/06 17:50:31  5-MIN KMSN 182350Z 23004KT 10SM CLR M17/M25 A3056 280 51 -3700 230/04 RMK AO2 SLP378 4/007 T11721250 11161 21206 58026
14837KMSN MSN20060218175509602/18/06 17:55:31  5-MIN KMSN 182355Z 24005KT 10SM CLR M17/M25 A3056 280 51 -3700 240/05 RMK AO2
14837KMSN MSN20060218180009602/18/06 18:00:31  5-MIN KMSN 190000Z 23006KT 10SM CLR M17/M24 A3056 280 54 -3700 230/06 RMK AO2
14837KMSN MSN20060218180509602/18/06 18:05:31  5-MIN KMSN 190005Z 23006KT 10SM CLR M17/M24 A3056 280 57 -3700 230/06 RMK AO2
14837KMSN MSN20060218181009602/18/06 18:10:31  5-MIN KMSN 190010Z VRB05KT 10SM CLR M17/M24 A3056 280 57 -3700 VRB/05 RMK AO2
14837KMSN MSN20060218181509602/18/06 18:15:31  5-MIN KMSN 190015Z 24005KT 10SM CLR M18/M24 A3056 280 59 -3700 240/05 RMK AO2
14837KMSN MSN20060218182009602/18/06 18:20:31  5-MIN KMSN 190020Z VRB05KT 10SM CLR M17/M24 A3056 280 57 -3700 VRB/05 RMK AO2
14837KMSN MSN20060218182509602/18/06 18:25:31  5-MIN KMSN 190025Z 25006KT 10SM CLR M17/M24 A3056 280 57 -3700 250/06 RMK AO2
14837KMSN MSN20060218183009602/18/06 18:30:31  5-MIN KMSN 190030Z 26006KT 10SM CLR M17/M24 A3056 280 57 -3700 260/06 RMK AO2
14837KMSN MSN20060218183509602/18/06 18:35:31  5-MIN KMSN 190035Z VRB04KT 10SM CLR M18/M24 A3056 280 59 -3700 VRB/04 RMK AO2
14837KMSN MSN20060218184009602/18/06 18:40:31  5-MIN KMSN 190040Z VRB05KT 10SM CLR M18/M24 A3056 270 59 -3700 VRB/05 RMK AO2
14837KMSN MSN20060218184509602/18/06 18:45:31  5-MIN KMSN 190045Z 25005KT 10SM CLR M18/M24 A3056 280 59 -3700 250/05 RMK AO2
14837KMSN MSN20060218185011302/18/06 18:50:31  5-MIN KMSN 190050Z VRB05KT 10SM CLR M18/M24 A3056 270 59 -3700 VRB/05 RMK AO2 SLP380 T11781239
14837KMSN MSN20060218185509602/18/06 18:55:31  5-MIN KMSN 190055Z VRB04KT 10SM CLR M18/M24 A3056 270 59 -3700 VRB/04 RMK AO2
14837KMSN MSN20060218190009602/18/06 19:00:31  5-MIN KMSN 190100Z VRB04KT 10SM CLR M18/M24 A3056 270 59 -3700 VRB/04 RMK AO2
14837KMSN MSN20060218190509602/18/06 19:05:31  5-MIN KMSN 190105Z 25006KT 10SM CLR M18/M24 A3057 270 59 -3700 250/06 RMK AO2
14837KMSN MSN20060218191009602/18/06 19:10:31  5-MIN KMSN 190110Z 24006KT 10SM CLR M18/M24 A3057 270 59 -3700 240/06 RMK AO2
14837KMSN MSN20060218191509602/18/06 19:15:31  5-MIN KMSN 190115Z VRB04KT 10SM CLR M18/M24 A3057 270 59 -3700 VRB/04 RMK AO2
14837KMSN MSN20060218192009602/18/06 19:20:31  5-MIN KMSN 190120Z VRB06KT 10SM CLR M18/M24 A3056 270 59 -3700 VRB/06 RMK AO2
14837KMSN MSN20060218192509602/18/06 19:25:31  5-MIN KMSN 190125Z 25007KT 10SM CLR M18/M24 A3056 270 59 -3700 250/07 RMK AO2
14837KMSN MSN20060218193009602/18/06 19:30:31  5-MIN KMSN 190130Z 26006KT 10SM CLR M18/M24 A3056 270 59 -3700 260/06 RMK AO2
14837KMSN MSN20060218193509602/18/06 19:35:31  5-MIN KMSN 190135Z 25007KT 10SM CLR M18/M24 A3056 280 59 -3700 250/07 RMK AO2
14837KMSN MSN20060218194009602/18/06 19:40:31  5-MIN KMSN 190140Z VRB04KT 10SM CLR M18/M24 A3056 280 59 -3700 VRB/04 RMK AO2
14837KMSN MSN20060218194509602/18/06 19:45:31  5-MIN KMSN 190145Z VRB05KT 10SM CLR M18/M24 A3056 280 59 -3700 VRB/05 RMK AO2
14837KMSN MSN20060218195011302/18/06 19:50:31  5-MIN KMSN 190150Z VRB06KT 10SM CLR M18/M24 A3056 280 59 -3700 VRB/06 RMK AO2 SLP377 T11781239
14837KMSN MSN20060218195509602/18/06 19:55:31  5-MIN KMSN 190155Z VRB05KT 10SM CLR M18/M24 A3056 280 59 -3700 VRB/05 RMK AO2
14837KMSN MSN20060218200009602/18/06 20:00:31  5-MIN KMSN 190200Z VRB05KT 10SM CLR M18/M24 A3056 280 59 -3700 VRB/05 RMK AO2
14837KMSN MSN20060218200509602/18/06 20:05:31  5-MIN KMSN 190205Z VRB06KT 10SM CLR M18/M24 A3056 280 59 -3700 VRB/06 RMK AO2
14837KMSN MSN20060218201009602/18/06 20:10:31  5-MIN KMSN 190210Z 25006KT 10SM CLR M18/M24 A3056 280 59 -3700 250/06 RMK AO2
14837KMSN MSN20060218201509602/18/06 20:15:31  5-MIN KMSN 190215Z VRB05KT 10SM CLR M18/M24 A3056 280 59 -3700 VRB/05 RMK AO2
14837KMSN MSN20060218202009602/18/06 20:20:31  5-MIN KMSN 190220Z VRB05KT 10SM CLR M18/M24 A3056 280 59 -3700 VRB/05 RMK AO2
14837KMSN MSN20060218202509602/18/06 20:25:31  5-MIN KMSN 190225Z 25007KT 10SM CLR M18/M24 A3056 280 59 -3700 250/07 RMK AO2
14837KMSN MSN20060218203009602/18/06 20:30:31  5-MIN KMSN 190230Z VRB05KT 10SM CLR M18/M24 A3056 280 59 -3700 VRB/05 RMK AO2
14837KMSN MSN20060218203509602/18/06 20:35:31  5-MIN KMSN 190235Z VRB05KT 10SM CLR M18/M24 A3055 280 62 -3800 VRB/05 RMK AO2
14837KMSN MSN20060218204009602/18/06 20:40:31  5-MIN KMSN 190240Z VRB06KT 10SM CLR M18/M24 A3055 280 59 -3800 VRB/06 RMK AO2
14837KMSN MSN20060218204509602/18/06 20:45:31  5-MIN KMSN 190245Z VRB05KT 10SM CLR M18/M24 A3056 280 59 -3800 VRB/05 RMK AO2
14837KMSN MSN20060218205011902/18/06 20:50:31  5-MIN KMSN 190250Z 26006KT 10SM CLR M18/M24 A3055 280 59 -3800 260/06 RMK AO2 SLP375 T11831244 56016
14837KMSN MSN20060218205509602/18/06 20:55:31  5-MIN KMSN 190255Z VRB04KT 10SM CLR M18/M24 A3055 280 59 -3800 VRB/04 RMK AO2
14837KMSN MSN20060218210009602/18/06 21:00:31  5-MIN KMSN 190300Z VRB05KT 10SM CLR M18/M24 A3055 290 59 -3800 VRB/05 RMK AO2
14837KMSN MSN20060218210509602/18/06 21:05:31  5-MIN KMSN 190305Z VRB06KT 10SM CLR M18/M24 A3055 290 59 -3800 VRB/06 RMK AO2
14837KMSN MSN20060218211009602/18/06 21:10:31  5-MIN KMSN 190310Z 28004KT 10SM CLR M18/M24 A3055 290 59 -3800 270/04 RMK AO2
14837KMSN MSN20060218211509602/18/06 21:15:31  5-MIN KMSN 190315Z 28004KT 10SM CLR M18/M24 A3055 290 59 -3800 280/04 RMK AO2
14837KMSN MSN20060218212009602/18/06 21:20:31  5-MIN KMSN 190320Z VRB04KT 10SM CLR M18/M24 A3055 290 59 -3800 VRB/04 RMK AO2
14837KMSN MSN20060218212509602/18/06 21:25:31  5-MIN KMSN 190325Z VRB03KT 10SM CLR M19/M24 A3055 290 62 -3900 VRB/03 RMK AO2
14837KMSN MSN20060218213009602/18/06 21:30:31  5-MIN KMSN 190330Z VRB03KT 10SM CLR M19/M24 A3055 290 62 -3900 VRB/03 RMK AO2
14837KMSN MSN20060218213509602/18/06 21:35:31  5-MIN KMSN 190335Z VRB03KT 10SM CLR M19/M24 A3054 290 62 -3900 VRB/03 RMK AO2
14837KMSN MSN20060218214009602/18/06 21:40:31  5-MIN KMSN 190340Z VRB04KT 10SM CLR M19/M24 A3054 290 62 -3900 VRB/04 RMK AO2
14837KMSN MSN20060218214509602/18/06 21:45:31  5-MIN KMSN 190345Z VRB03KT 10SM CLR M19/M24 A3054 290 62 -3900 VRB/03 RMK AO2
14837KMSN MSN20060218215011302/18/06 21:50:31  5-MIN KMSN 190350Z VRB03KT 10SM CLR M19/M24 A3054 290 62 -3900 VRB/03 RMK AO2 SLP370 T11891244
14837KMSN MSN20060218215509602/18/06 21:55:31  5-MIN KMSN 190355Z VRB04KT 10SM CLR M19/M24 A3054 300 62 -3900 VRB/04 RMK AO2
14837KMSN MSN20060218220009602/18/06 22:00:31  5-MIN KMSN 190400Z VRB04KT 10SM CLR M19/M24 A3054 300 62 -3900 VRB/04 RMK AO2
14837KMSN MSN20060218220509602/18/06 22:05:31  5-MIN KMSN 190405Z 24004KT 10SM CLR M19/M24 A3054 300 62 -3900 240/04 RMK AO2
14837KMSN MSN20060218221009602/18/06 22:10:31  5-MIN KMSN 190410Z VRB03KT 10SM CLR M19/M24 A3054 300 62 -3900 VRB/03 RMK AO2
14837KMSN MSN20060218221509602/18/06 22:15:31  5-MIN KMSN 190415Z 00000KT 10SM CLR M19/M24 A3054 300 62 -3900 000/00 RMK AO2
14837KMSN MSN20060218222009602/18/06 22:20:31  5-MIN KMSN 190420Z 26003KT 10SM CLR M19/M24 A3054 300 62 -3900 260/03 RMK AO2
14837KMSN MSN20060218222509602/18/06 22:25:31  5-MIN KMSN 190425Z VRB03KT 10SM CLR M19/M24 A3054 300 62 -3900 VRB/03 RMK AO2
14837KMSN MSN20060218223009602/18/06 22:30:31  5-MIN KMSN 190430Z 25003KT 10SM CLR M19/M24 A3053 300 62 -3900 250/03 RMK AO2
14837KMSN MSN20060218223509602/18/06 22:35:31  5-MIN KMSN 190435Z 26004KT 10SM CLR M19/M24 A3053 300 62 -3900 260/04 RMK AO2
14837KMSN MSN20060218224009602/18/06 22:40:31  5-MIN KMSN 190440Z VRB03KT 10SM CLR M19/M24 A3053 300 62 -3900 VRB/03 RMK AO2
14837KMSN MSN20060218224509602/18/06 22:45:31  5-MIN KMSN 190445Z VRB03KT 10SM CLR M19/M24 A3053 300 62 -3900 VRB/03 RMK AO2
14837KMSN MSN20060218225011302/18/06 22:50:31  5-MIN KMSN 190450Z 00000KT 10SM CLR M19/M24 A3053 310 62 -3900 000/00 RMK AO2 SLP365 T11891244
14837KMSN MSN20060218225509602/18/06 22:55:31  5-MIN KMSN 190455Z VRB04KT 10SM CLR M19/M24 A3053 310 62 -3900 VRB/04 RMK AO2
14837KMSN MSN20060218230009602/18/06 23:00:31  5-MIN KMSN 190500Z VRB03KT 10SM CLR M19/M24 A3052 310 65 -3900 VRB/03 RMK AO2
14837KMSN MSN20060218230509602/18/06 23:05:31  5-MIN KMSN 190505Z VRB03KT 10SM CLR M19/M24 A3052 310 65 -3900 VRB/03 RMK AO2
14837KMSN MSN20060218231009602/18/06 23:10:31  5-MIN KMSN 190510Z 00000KT 10SM CLR M19/M24 A3052 310 65 -3900 000/00 RMK AO2
14837KMSN MSN20060218231509602/18/06 23:15:31  5-MIN KMSN 190515Z 00000KT 10SM CLR M19/M24 A3052 320 65 -3900 000/00 RMK AO2
14837KMSN MSN20060218232009602/18/06 23:20:31  5-MIN KMSN 190520Z 00000KT 10SM CLR M19/M24 A3052 320 65 -3900 000/00 RMK AO2
14837KMSN MSN20060218232509602/18/06 23:25:31  5-MIN KMSN 190525Z 00000KT 10SM CLR M19/M24 A3051 320 65 -3900 000/00 RMK AO2
14837KMSN MSN20060218233009602/18/06 23:30:31  5-MIN KMSN 190530Z VRB03KT 10SM CLR M19/M24 A3051 320 65 -3900 VRB/03 RMK AO2
14837KMSN MSN20060218233509602/18/06 23:35:31  5-MIN KMSN 190535Z VRB03KT 10SM CLR M19/M24 A3051 320 65 -3900 VRB/03 RMK AO2
14837KMSN MSN20060218234010202/18/06 23:40:31  5-MIN KMSN 190540Z VRB03KT 10SM CLR M19/M24 A3051 320 65 -3900 VRB/03 RMK AO2 4/007
14837KMSN MSN20060218234510202/18/06 23:45:31  5-MIN KMSN 190545Z 26004KT 10SM CLR M19/M24 A3051 320 65 -3900 260/04 RMK AO2 4/007
14837KMSN MSN20060218235014702/18/06 23:50:31  5-MIN KMSN 190550Z VRB05KT 10SM CLR M20/M24 A3051 320 68 -4000 VRB/05 RMK AO2 SLP360 4/007 T12001244 11172 21200 411611272 58002
14837KMSN MSN20060218235509602/18/06 23:55:31  5-MIN KMSN 190555Z 26005KT 10SM CLR M20/M24 A3051 320 68 -4000 260/05 RMK AO2
14837KMSN MSN20060219000009602/19/06 00:00:38  5-MIN KMSN 190600Z 00000KT 10SM CLR M20/M24 A3051 320 68 -4000 000/00 RMK AO2
14837KMSN MSN20060219000509602/19/06 00:05:31  5-MIN KMSN 190605Z 00000KT 10SM CLR M19/M24 A3051 320 68 -3900 000/00 RMK AO2
14837KMSN MSN20060219001009602/19/06 00:10:31  5-MIN KMSN 190610Z 24004KT 10SM CLR M19/M24 A3051 320 68 -3900 240/04 RMK AO2
14837KMSN MSN20060219001509602/19/06 00:15:32  5-MIN KMSN 190615Z VRB03KT 10SM CLR M19/M24 A3051 320 68 -3900 VRB/03 RMK AO2
14837KMSN MSN20060219002009602/19/06 00:20:31  5-MIN KMSN 190620Z VRB03KT 10SM CLR M19/M24 A3051 320 68 -3900 VRB/03 RMK AO2
14837KMSN MSN20060219002509602/19/06 00:25:31  5-MIN KMSN 190625Z VRB03KT 10SM CLR M19/M24 A3051 320 68 -3900 VRB/03 RMK AO2
14837KMSN MSN20060219003009602/19/06 00:30:31  5-MIN KMSN 190630Z VRB03KT 10SM CLR M19/M24 A3051 320 65 -3900 VRB/03 RMK AO2
14837KMSN MSN20060219003509602/19/06 00:35:31  5-MIN KMSN 190635Z VRB03KT 10SM CLR M19/M24 A3051 320 68 -3900 VRB/03 RMK AO2
14837KMSN MSN20060219004009602/19/06 00:40:31  5-MIN KMSN 190640Z 28004KT 10SM CLR M19/M24 A3051 330 68 -3900 280/04 RMK AO2
14837KMSN MSN20060219004509602/19/06 00:45:31  5-MIN KMSN 190645Z VRB03KT 10SM CLR M19/M24 A3051 320 65 -3800 VRB/03 RMK AO2
14837KMSN MSN20060219005011302/19/06 00:50:31  5-MIN KMSN 190650Z VRB04KT 10SM CLR M19/M24 A3051 320 65 -3800 VRB/04 RMK AO2 SLP357 T11891239
14837KMSN MSN20060219005509602/19/06 00:55:31  5-MIN KMSN 190655Z VRB03KT 10SM CLR M19/M24 A3051 320 65 -3800 VRB/03 RMK AO2
14837KMSN MSN20060219010009602/19/06 01:00:31  5-MIN KMSN 190700Z VRB04KT 10SM CLR M19/M24 A3051 320 65 -3800 VRB/04 RMK AO2
14837KMSN MSN20060219010509602/19/06 01:05:31  5-MIN KMSN 190705Z VRB04KT 10SM CLR M19/M24 A3051 320 65 -3800 VRB/04 RMK AO2
14837KMSN MSN20060219011009602/19/06 01:10:31  5-MIN KMSN 190710Z 00000KT 10SM CLR M19/M24 A3051 320 65 -3800 000/00 RMK AO2
14837KMSN MSN20060219011509602/19/06 01:15:31  5-MIN KMSN 190715Z VRB03KT 10SM CLR M19/M24 A3051 320 65 -3800 VRB/03 RMK AO2
14837KMSN MSN20060219012009602/19/06 01:20:31  5-MIN KMSN 190720Z VRB04KT 10SM CLR M19/M24 A3051 320 65 -3800 VRB/04 RMK AO2
14837KMSN MSN20060219012509602/19/06 01:25:31  5-MIN KMSN 190725Z VRB03KT 10SM CLR M19/M24 A3051 320 65 -3800 VRB/03 RMK AO2
14837KMSN MSN20060219013009602/19/06 01:30:31  5-MIN KMSN 190730Z VRB03KT 10SM CLR M19/M24 A3051 320 65 -3800 VRB/03 RMK AO2
14837KMSN MSN20060219013509602/19/06 01:35:31  5-MIN KMSN 190735Z VRB05KT 10SM CLR M19/M24 A3051 320 65 -3800 VRB/05 RMK AO2
14837KMSN MSN20060219014009602/19/06 01:40:31  5-MIN KMSN 190740Z VRB05KT 10SM CLR M19/M24 A3051 320 65 -3800 VRB/05 RMK AO2
14837KMSN MSN20060219014509602/19/06 01:45:31  5-MIN KMSN 190745Z 24004KT 10SM CLR M19/M23 A3051 330 68 -3800 240/04 RMK AO2
14837KMSN MSN20060219015011302/19/06 01:50:31  5-MIN KMSN 190750Z 24004KT 10SM CLR M19/M23 A3051 330 68 -3800 240/04 RMK AO2 SLP356 T11891233
14837KMSN MSN20060219015509602/19/06 01:55:31  5-MIN KMSN 190755Z 25005KT 10SM CLR M19/M23 A3051 330 68 -3800 250/05 RMK AO2
14837KMSN MSN20060219020009602/19/06 02:00:31  5-MIN KMSN 190800Z VRB05KT 10SM CLR M19/M23 A3051 330 68 -3800 VRB/05 RMK AO2
14837KMSN MSN20060219020509602/19/06 02:05:31  5-MIN KMSN 190805Z VRB04KT 10SM CLR M19/M23 A3051 330 68 -3800 VRB/04 RMK AO2
14837KMSN MSN20060219021009602/19/06 02:10:31  5-MIN KMSN 190810Z 24005KT 10SM CLR M19/M23 A3051 330 68 -3800 240/05 RMK AO2
14837KMSN MSN20060219021509602/19/06 02:15:31  5-MIN KMSN 190815Z 25006KT 10SM CLR M19/M23 A3050 330 68 -3800 250/06 RMK AO2
14837KMSN MSN20060219022009602/19/06 02:20:31  5-MIN KMSN 190820Z VRB05KT 10SM CLR M18/M23 A3050 330 65 -3700 VRB/05 RMK AO2
14837KMSN MSN20060219022509602/19/06 02:25:31  5-MIN KMSN 190825Z VRB04KT 10SM CLR M18/M23 A3050 330 65 -3700 VRB/04 RMK AO2
14837KMSN MSN20060219023009602/19/06 02:30:31  5-MIN KMSN 190830Z VRB04KT 10SM CLR M18/M23 A3050 330 65 -3700 VRB/04 RMK AO2
14837KMSN MSN20060219023509602/19/06 02:35:31  5-MIN KMSN 190835Z VRB04KT 10SM CLR M18/M23 A3049 340 65 -3700 VRB/04 RMK AO2
14837KMSN MSN20060219024009602/19/06 02:40:31  5-MIN KMSN 190840Z VRB04KT 10SM CLR M18/M23 A3049 340 65 -3700 VRB/04 RMK AO2
14837KMSN MSN20060219024509602/19/06 02:45:31  5-MIN KMSN 190845Z VRB04KT 10SM CLR M18/M23 A3049 340 65 -3700 VRB/04 RMK AO2
14837KMSN MSN20060219025011902/19/06 02:50:31  5-MIN KMSN 190850Z 00000KT 10SM CLR M18/M23 A3048 350 65 -3700 000/00 RMK AO2 SLP348 T11831233 58014
14837KMSN MSN20060219025509602/19/06 02:55:31  5-MIN KMSN 190855Z VRB04KT 10SM CLR M19/M23 A3048 350 68 -3800 VRB/04 RMK AO2
14837KMSN MSN20060219030009602/19/06 03:00:31  5-MIN KMSN 190900Z VRB03KT 10SM CLR M19/M24 A3048 350 65 -3800 VRB/03 RMK AO2
14837KMSN MSN20060219030509602/19/06 03:05:31  5-MIN KMSN 190905Z VRB03KT 10SM CLR M19/M24 A3048 350 65 -3800 VRB/03 RMK AO2
14837KMSN MSN20060219031009602/19/06 03:10:31  5-MIN KMSN 190910Z 24006KT 10SM CLR M19/M24 A3048 350 65 -3800 240/06 RMK AO2
14837KMSN MSN20060219031509602/19/06 03:15:31  5-MIN KMSN 190915Z VRB04KT 10SM CLR M19/M24 A3048 350 65 -3800 VRB/04 RMK AO2
14837KMSN MSN20060219032009602/19/06 03:20:31  5-MIN KMSN 190920Z 24005KT 10SM CLR M19/M24 A3048 350 65 -3800 240/05 RMK AO2
14837KMSN MSN20060219032509602/19/06 03:25:31  5-MIN KMSN 190925Z 26004KT 10SM CLR M19/M24 A3048 350 65 -3800 260/04 RMK AO2
14837KMSN MSN20060219033009602/19/06 03:30:31  5-MIN KMSN 190930Z VRB04KT 10SM CLR M19/M24 A3048 350 65 -3800 VRB/04 RMK AO2
14837KMSN MSN20060219033509602/19/06 03:35:31  5-MIN KMSN 190935Z 24004KT 10SM CLR M19/M24 A3048 350 65 -3800 240/04 RMK AO2
14837KMSN MSN20060219034009602/19/06 03:40:31  5-MIN KMSN 190940Z VRB03KT 10SM CLR M19/M23 A3048 350 68 -3800 VRB/03 RMK AO2
14837KMSN MSN20060219034509602/19/06 03:45:31  5-MIN KMSN 190945Z VRB04KT 10SM CLR M19/M23 A3048 350 68 -3800 VRB/04 RMK AO2
14837KMSN MSN20060219035011302/19/06 03:50:31  5-MIN KMSN 190950Z VRB04KT 10SM CLR M19/M23 A3047 360 68 -3800 VRB/04 RMK AO2 SLP343 T11891233
14837KMSN MSN20060219035509602/19/06 03:55:31  5-MIN KMSN 190955Z VRB03KT 10SM CLR M18/M23 A3047 360 65 -3700 VRB/03 RMK AO2
14837KMSN MSN20060219040009602/19/06 04:00:31  5-MIN KMSN 191000Z VRB03KT 10SM CLR M19/M23 A3047 360 68 -3800 VRB/03 RMK AO2
14837KMSN MSN20060219040509602/19/06 04:05:31  5-MIN KMSN 191005Z VRB03KT 10SM CLR M19/M24 A3047 360 65 -3800 VRB/03 RMK AO2
14837KMSN MSN20060219041009602/19/06 04:10:31  5-MIN KMSN 191010Z 00000KT 10SM CLR M19/M24 A3046 370 65 -3800 000/00 RMK AO2
14837KMSN MSN20060219041509602/19/06 04:15:31  5-MIN KMSN 191015Z 00000KT 10SM CLR M19/M24 A3046 370 65 -3800 000/00 RMK AO2
14837KMSN MSN20060219042009602/19/06 04:20:31  5-MIN KMSN 191020Z VRB03KT 10SM CLR M19/M24 A3046 370 68 -3900 VRB/03 RMK AO2
14837KMSN MSN20060219042509602/19/06 04:25:31  5-MIN KMSN 191025Z VRB03KT 10SM CLR M19/M24 A3046 370 65 -3800 VRB/03 RMK AO2
14837KMSN MSN20060219043009602/19/06 04:30:31  5-MIN KMSN 191030Z 00000KT 10SM CLR M19/M24 A3046 370 68 -3900 000/00 RMK AO2
14837KMSN MSN20060219043509602/19/06 04:35:31  5-MIN KMSN 191035Z 00000KT 10SM CLR M19/M24 A3046 370 68 -3800 000/00 RMK AO2
14837KMSN MSN20060219044009602/19/06 04:40:31  5-MIN KMSN 191040Z 00000KT 10SM CLR M19/M24 A3046 370 68 -3800 000/00 RMK AO2
14837KMSN MSN20060219044509602/19/06 04:45:31  5-MIN KMSN 191045Z 00000KT 10SM CLR M19/M24 A3046 370 68 -3800 000/00 RMK AO2
14837KMSN MSN20060219045011302/19/06 04:50:31  5-MIN KMSN 191050Z 00000KT 10SM CLR M19/M24 A3045 370 68 -3800 000/00 RMK AO2 SLP337 T11941239
14837KMSN MSN20060219045509602/19/06 04:55:31  5-MIN KMSN 191055Z 00000KT 10SM CLR M19/M24 A3045 380 68 -3800 000/00 RMK AO2
14837KMSN MSN20060219050009602/19/06 05:00:31  5-MIN KMSN 191100Z 00000KT 10SM CLR M19/M24 A3045 380 68 -3800 000/00 RMK AO2
14837KMSN MSN20060219050509602/19/06 05:05:31  5-MIN KMSN 191105Z 00000KT 10SM CLR M19/M24 A3044 390 68 -3800 000/00 RMK AO2
14837KMSN MSN20060219051009602/19/06 05:10:31  5-MIN KMSN 191110Z 00000KT 10SM CLR M19/M24 A3044 390 68 -3800 000/00 RMK AO2
14837KMSN MSN20060219051509602/19/06 05:15:31  5-MIN KMSN 191115Z 00000KT 10SM CLR M19/M24 A3044 390 68 -3800 000/00 RMK AO2
14837KMSN MSN20060219052009602/19/06 05:20:31  5-MIN KMSN 191120Z 00000KT 10SM CLR M20/M24 A3044 390 71 -3900 000/00 RMK AO2
14837KMSN MSN20060219052509602/19/06 05:25:31  5-MIN KMSN 191125Z VRB03KT 10SM CLR M19/M24 A3044 390 68 -3800 VRB/03 RMK AO2
14837KMSN MSN20060219053009602/19/06 05:30:31  5-MIN KMSN 191130Z VRB03KT 10SM CLR M19/M24 A3044 390 68 -3800 VRB/03 RMK AO2
14837KMSN MSN20060219053509602/19/06 05:35:31  5-MIN KMSN 191135Z 00000KT 10SM CLR M19/M24 A3044 390 68 -3800 000/00 RMK AO2
14837KMSN MSN20060219054009602/19/06 05:40:31  5-MIN KMSN 191140Z VRB03KT 10SM CLR M19/M24 A3044 390 68 -3800 VRB/03 RMK AO2
14837KMSN MSN20060219054510202/19/06 05:45:31  5-MIN KMSN 191145Z VRB03KT 10SM CLR M19/M24 A3044 390 68 -3800 VRB/03 RMK AO2 4/007
14837KMSN MSN20060219055013702/19/06 05:50:31  5-MIN KMSN 191150Z 00000KT 10SM CLR M19/M24 A3044 390 68 -3800 000/00 RMK AO2 SLP333 4/007 T11941239 11183 21200 58009
14837KMSN MSN20060219055509602/19/06 05:55:31  5-MIN KMSN 191155Z 00000KT 10SM CLR M19/M24 A3044 390 68 -3800 000/00 RMK AO2
14837KMSN MSN20060219060009602/19/06 06:00:31  5-MIN KMSN 191200Z 00000KT 10SM CLR M19/M24 A3043 390 68 -3800 000/00 RMK AO2
14837KMSN MSN20060219060509602/19/06 06:05:31  5-MIN KMSN 191205Z 00000KT 10SM CLR M19/M24 A3043 390 68 -3800 000/00 RMK AO2
14837KMSN MSN20060219061009602/19/06 06:10:31  5-MIN KMSN 191210Z VRB03KT 10SM CLR M19/M24 A3043 390 68 -3800 VRB/03 RMK AO2
14837KMSN MSN20060219061509602/19/06 06:15:31  5-MIN KMSN 191215Z VRB05KT 10SM CLR M19/M24 A3043 400 68 -3800 VRB/05 RMK AO2
14837KMSN MSN20060219062009602/19/06 06:20:31  5-MIN KMSN 191220Z 25006KT 10SM CLR M19/M24 A3043 400 68 -3800 250/06 RMK AO2
14837KMSN MSN20060219062509602/19/06 06:25:31  5-MIN KMSN 191225Z VRB05KT 10SM CLR M19/M24 A3043 400 68 -3800 VRB/05 RMK AO2
14837KMSN MSN20060219063009602/19/06 06:30:31  5-MIN KMSN 191230Z VRB05KT 10SM CLR M19/M24 A3042 400 65 -3800 VRB/05 RMK AO2
14837KMSN MSN20060219063509602/19/06 06:35:31  5-MIN KMSN 191235Z VRB05KT 10SM CLR M19/M24 A3042 400 68 -3800 VRB/05 RMK AO2
14837KMSN MSN20060219064009602/19/06 06:40:31  5-MIN KMSN 191240Z VRB03KT 10SM CLR M19/M24 A3042 400 65 -3700 VRB/03 RMK AO2
14837KMSN MSN20060219064509602/19/06 06:45:31  5-MIN KMSN 191245Z VRB04KT 10SM CLR M19/M24 A3042 400 68 -3800 VRB/04 RMK AO2
14837KMSN MSN20060219065011302/19/06 06:50:31  5-MIN KMSN 191250Z VRB06KT 10SM CLR M19/M24 A3042 400 68 -3800 VRB/06 RMK AO2 SLP328 T11941239
14837KMSN MSN20060219065509602/19/06 06:55:31  5-MIN KMSN 191255Z VRB06KT 10SM CLR M19/M23 A3042 400 72 -3800 VRB/06 RMK AO2
14837KMSN MSN20060219070009602/19/06 07:00:31  5-MIN KMSN 191300Z VRB06KT 10SM CLR M19/M23 A3042 400 72 -3800 VRB/06 RMK AO2
14837KMSN MSN20060219070509602/19/06 07:05:31  5-MIN KMSN 191305Z 24006KT 10SM CLR M19/M23 A3042 400 72 -3800 240/06 RMK AO2
14837KMSN MSN20060219071009602/19/06 07:10:31  5-MIN KMSN 191310Z VRB06KT 10SM CLR M19/M23 A3042 400 72 -3800 VRB/06 RMK AO2
14837KMSN MSN20060219071509602/19/06 07:15:31  5-MIN KMSN 191315Z 24006KT 10SM CLR M19/M23 A3042 400 72 -3800 240/06 RMK AO2
14837KMSN MSN20060219072009602/19/06 07:20:31  5-MIN KMSN 191320Z 24007KT 10SM CLR M19/M23 A3042 400 72 -3800 240/07 RMK AO2
14837KMSN MSN20060219072509602/19/06 07:25:31  5-MIN KMSN 191325Z 24008KT 10SM CLR M19/M23 A3042 400 72 -3800 240/08 RMK AO2
14837KMSN MSN20060219073009602/19/06 07:30:31  5-MIN KMSN 191330Z 24006KT 10SM CLR M19/M23 A3042 400 68 -3700 240/06 RMK AO2
14837KMSN MSN20060219073509602/19/06 07:35:31  5-MIN KMSN 191335Z 24007KT 10SM CLR M19/M23 A3043 400 68 -3700 240/07 RMK AO2
14837KMSN MSN20060219074009602/19/06 07:40:31  5-MIN KMSN 191340Z 24007KT 10SM CLR M19/M23 A3043 400 68 -3700 240/07 RMK AO2
14837KMSN MSN20060219074509602/19/06 07:45:31  5-MIN KMSN 191345Z 23006KT 10SM CLR M19/M23 A3043 400 68 -3700 230/06 RMK AO2
14837KMSN MSN20060219075011302/19/06 07:50:31  5-MIN KMSN 191350Z 24007KT 10SM CLR M19/M23 A3042 400 68 -3700 240/07 RMK AO2 SLP328 T11891233
14837KMSN MSN20060219075509602/19/06 07:55:31  5-MIN KMSN 191355Z VRB06KT 10SM CLR M19/M23 A3042 400 72 -3700 VRB/06 RMK AO2
14837KMSN MSN20060219080011202/19/06 08:00:31  5-MIN KMSN 191400Z 24007KT 210V280 10SM CLR M18/M23 A3042 400 68 -3700 240/07 210V280 RMK AO2
14837KMSN MSN20060219080509602/19/06 08:05:31  5-MIN KMSN 191405Z VRB06KT 10SM CLR M18/M23 A3042 400 68 -3700 VRB/06 RMK AO2
14837KMSN MSN20060219081009602/19/06 08:10:31  5-MIN KMSN 191410Z 24006KT 10SM CLR M18/M23 A3042 400 68 -3700 240/06 RMK AO2
14837KMSN MSN20060219081509602/19/06 08:15:31  5-MIN KMSN 191415Z 24007KT 10SM CLR M18/M23 A3042 400 68 -3700 240/07 RMK AO2
14837KMSN MSN20060219082011202/19/06 08:20:31  5-MIN KMSN 191420Z 24007KT 210V270 10SM CLR M18/M23 A3042 400 68 -3700 240/07 210V270 RMK AO2
14837KMSN MSN20060219082509602/19/06 08:25:31  5-MIN KMSN 191425Z 24007KT 10SM CLR M18/M23 A3042 400 68 -3700 240/07 RMK AO2
14837KMSN MSN20060219083009602/19/06 08:30:31  5-MIN KMSN 191430Z 24007KT 10SM CLR M18/M23 A3042 400 62 -3600 240/07 RMK AO2
14837KMSN MSN20060219083509602/19/06 08:35:31  5-MIN KMSN 191435Z VRB06KT 10SM CLR M18/M23 A3042 400 65 -3600 VRB/06 RMK AO2
14837KMSN MSN20060219084009602/19/06 08:40:31  5-MIN KMSN 191440Z 25009KT 10SM CLR M18/M23 A3042 400 62 -3600 250/09 RMK AO2
14837KMSN MSN20060219084509602/19/06 08:45:31  5-MIN KMSN 191445Z 25009KT 10SM CLR M18/M23 A3042 400 62 -3600 250/09 RMK AO2
14837KMSN MSN20060219085012502/19/06 08:50:31  5-MIN KMSN 191450Z 25008G14KT 10SM CLR M18/M23 A3042 410 65 -3600 250/08G14 RMK AO2 SLP326 T11781228 56015
14837KMSN MSN20060219085509602/19/06 08:55:31  5-MIN KMSN 191455Z 25006KT 10SM CLR M18/M23 A3041 410 65 -3600 240/06 RMK AO2
14837KMSN MSN20060219090009602/19/06 09:00:31  5-MIN KMSN 191500Z VRB06KT 10SM CLR M17/M23 A3042 410 62 -3500 VRB/06 RMK AO2
14837KMSN MSN20060219090509602/19/06 09:05:31  5-MIN KMSN 191505Z VRB06KT 10SM CLR M17/M23 A3041 410 62 -3500 VRB/06 RMK AO2
14837KMSN MSN20060219091009602/19/06 09:10:31  5-MIN KMSN 191510Z 24008KT 10SM CLR M17/M23 A3041 410 62 -3500 240/08 RMK AO2
14837KMSN MSN20060219091509602/19/06 09:15:31  5-MIN KMSN 191515Z 25005KT 10SM CLR M17/M23 A3041 410 62 -3500 250/05 RMK AO2
14837KMSN MSN20060219092009602/19/06 09:20:31  5-MIN KMSN 191520Z 25006KT 10SM CLR M17/M23 A3041 420 62 -3500 250/06 RMK AO2
14837KMSN MSN20060219092509602/19/06 09:25:31  5-MIN KMSN 191525Z 25007KT 10SM CLR M17/M23 A3041 420 62 -3500 250/07 RMK AO2
14837KMSN MSN20060219093009602/19/06 09:30:31  5-MIN KMSN 191530Z 24005KT 10SM CLR M17/M22 A3040 420 63 -3400 240/05 RMK AO2
14837KMSN MSN20060219093509602/19/06 09:35:31  5-MIN KMSN 191535Z VRB05KT 10SM CLR M17/M22 A3040 420 63 -3400 VRB/05 RMK AO2
14837KMSN MSN20060219094009602/19/06 09:40:31  5-MIN KMSN 191540Z VRB06KT 10SM CLR M17/M23 A3040 420 60 -3400 VRB/06 RMK AO2
14837KMSN MSN20060219094509602/19/06 09:45:31  5-MIN KMSN 191545Z 24005KT 10SM CLR M17/M23 A3040 420 60 -3400 240/05 RMK AO2
14837KMSN MSN20060219095011302/19/06 09:50:31  5-MIN KMSN 191550Z VRB06KT 10SM CLR M16/M22 A3040 420 60 -3300 VRB/06 RMK AO2 SLP319 T11611222
14837KMSN MSN20060219095511202/19/06 09:55:31  5-MIN KMSN 191555Z 24007KT 210V280 10SM CLR M16/M22 A3040 420 60 -3300 240/07 210V280 RMK AO2
14837KMSN MSN20060219100009602/19/06 10:00:31  5-MIN KMSN 191600Z 24008KT 10SM CLR M16/M22 A3040 420 60 -3300 240/08 RMK AO2
14837KMSN MSN20060219100509602/19/06 10:05:31  5-MIN KMSN 191605Z 24010KT 10SM CLR M16/M22 A3040 420 60 -3300 240/10 RMK AO2
14837KMSN MSN20060219101009602/19/06 10:10:31  5-MIN KMSN 191610Z 23009KT 10SM CLR M16/M22 A3040 420 57 -3300 230/09 RMK AO2
14837KMSN MSN20060219101509602/19/06 10:15:31  5-MIN KMSN 191615Z VRB06KT 10SM CLR M16/M22 A3040 430 60 -3200 VRB/06 RMK AO2
14837KMSN MSN20060219102011202/19/06 10:20:31  5-MIN KMSN 191620Z 23007KT 210V270 10SM CLR M15/M22 A3040 430 57 -3200 230/07 210V270 RMK AO2
14837KMSN MSN20060219102509602/19/06 10:25:31  5-MIN KMSN 191625Z 25008KT 10SM CLR M16/M22 A3039 430 57 -3200 250/08 RMK AO2
14837KMSN MSN20060219103011202/19/06 10:30:31  5-MIN KMSN 191630Z 24007KT 210V270 10SM CLR M15/M22 A3039 430 54 -3200 240/07 210V270 RMK AO2
14837KMSN MSN20060219103509602/19/06 10:35:31  5-MIN KMSN 191635Z 23008KT 10SM CLR M15/M22 A3039 430 57 -3200 220/08 RMK AO2
14837KMSN MSN20060219104011202/19/06 10:40:31  5-MIN KMSN 191640Z 25009KT 230V300 10SM CLR M15/M22 A3039 430 57 -3200 250/09 230V300 RMK AO2
14837KMSN MSN20060219104509602/19/06 10:45:31  5-MIN KMSN 191645Z 25008KT 10SM CLR M15/M22 A3039 430 57 -3200 250/08 RMK AO2
14837KMSN MSN20060219105011302/19/06 10:50:31  5-MIN KMSN 191650Z 23008KT 10SM CLR M14/M22 A3039 430 55 -3100 230/08 RMK AO2 SLP315 T11441217
14837KMSN MSN20060219105511802/19/06 10:55:31  5-MIN KMSN 191655Z 25009G14KT 210V270 10SM CLR M14/M22 A3039 430 55 -3100 240/09G14 210V270 RMK AO2
14837KMSN MSN20060219110009602/19/06 11:00:31  5-MIN KMSN 191700Z 23007KT 10SM CLR M14/M22 A3039 430 52 -3000 230/07 RMK AO2
14837KMSN MSN20060219110509602/19/06 11:05:31  5-MIN KMSN 191705Z 23008KT 10SM CLR M14/M21 A3039 430 55 -3000 230/08 RMK AO2
14837KMSN MSN20060219111011202/19/06 11:10:31  5-MIN KMSN 191710Z 23010KT 200V260 10SM CLR M14/M21 A3039 430 55 -3000 230/10 200V260 RMK AO2
14837KMSN MSN20060219111509602/19/06 11:15:31  5-MIN KMSN 191715Z 23010KT 10SM CLR M14/M21 A3038 440 55 -3000 220/10 RMK AO2
14837KMSN MSN20060219112009602/19/06 11:20:31  5-MIN KMSN 191720Z 22008KT 10SM CLR M13/M21 A3038 440 52 -2900 220/08 RMK AO2
14837KMSN MSN20060219112509602/19/06 11:25:31  5-MIN KMSN 191725Z 23009KT 10SM CLR M13/M22 A3038 440 50 -2900 230/09 RMK AO2
14837KMSN MSN20060219113011202/19/06 11:30:31  5-MIN KMSN 191730Z 23009KT 190V260 10SM CLR M13/M21 A3037 450 50 -2800 230/09 190V260 RMK AO2
14837KMSN MSN20060219113509602/19/06 11:35:31  5-MIN KMSN 191735Z 22011KT 10SM CLR M13/M21 A3037 450 50 -2800 220/11 RMK AO2
14837KMSN MSN20060219114011202/19/06 11:40:31  5-MIN KMSN 191740Z 23009KT 200V270 10SM CLR M13/M22 A3037 450 48 -2800 230/09 200V270 RMK AO2
14837KMSN MSN20060219114509602/19/06 11:45:31  5-MIN KMSN 191745Z 23009KT 10SM CLR M13/M21 A3037 450 50 -2800 230/09 RMK AO2
14837KMSN MSN20060219115013102/19/06 11:50:31  5-MIN KMSN 191750Z 24009KT 10SM CLR M13/M21 A3037 460 50 -2800 240/09 RMK AO2 SLP306 T11281211 11128 21194 56007
14837KMSN MSN20060219115509602/19/06 11:55:31  5-MIN KMSN 191755Z 23009KT 10SM CLR M13/M21 A3036 460 50 -2800 230/09 RMK AO2
14837KMSN MSN20060219225011302/19/06 22:50:31  5-MIN KMSN 200450Z 22008KT 10SM CLR M12/M17 A3017 640 64 -2500 220/08 RMK AO2 SLP235 T11171172
14837KMSN MSN20060219225509602/19/06 22:55:31  5-MIN KMSN 200455Z 22009KT 10SM CLR M12/M17 A3017 640 64 -2500 220/09 RMK AO2
14837KMSN MSN20060219230009602/19/06 23:00:31  5-MIN KMSN 200500Z 22008KT 10SM CLR M12/M17 A3017 640 64 -2500 220/08 RMK AO2
14837KMSN MSN20060219230509602/19/06 23:05:31  5-MIN KMSN 200505Z 23008KT 10SM CLR M12/M17 A3016 640 64 -2500 230/08 RMK AO2
14837KMSN MSN20060219231011202/19/06 23:10:31  5-MIN KMSN 200510Z 23009KT 200V260 10SM CLR M12/M17 A3016 640 64 -2500 230/09 200V260 RMK AO2
14837KMSN MSN20060219231511202/19/06 23:15:31  5-MIN KMSN 200515Z 23007KT 200V260 10SM CLR M12/M17 A3016 640 64 -2500 230/07 200V260 RMK AO2
14837KMSN MSN20060219232009602/19/06 23:20:31  5-MIN KMSN 200520Z 23007KT 10SM CLR M12/M17 A3016 640 64 -2500 230/07 RMK AO2
14837KMSN MSN20060219232509602/19/06 23:25:31  5-MIN KMSN 200525Z 23008KT 10SM CLR M12/M17 A3016 640 64 -2500 230/08 RMK AO2
14837KMSN MSN20060219233011202/19/06 23:30:31  5-MIN KMSN 200530Z 23008KT 180V260 10SM CLR M12/M17 A3016 640 64 -2400 230/08 180V260 RMK AO2
14837KMSN MSN20060219233509602/19/06 23:35:31  5-MIN KMSN 200535Z 23008KT 10SM CLR M12/M17 A3016 640 64 -2400 230/08 RMK AO2
14837KMSN MSN20060219234009602/19/06 23:40:31  5-MIN KMSN 200540Z 22008KT 10SM CLR M12/M17 A3016 650 64 -2400 220/08 RMK AO2
14837KMSN MSN20060219234511802/19/06 23:45:31  5-MIN KMSN 200545Z 23008KT 200V260 10SM CLR M12/M17 A3016 640 64 -2400 230/08 200V260 RMK AO2 4/007
14837KMSN MSN20060219235014702/19/06 23:50:31  5-MIN KMSN 200550Z 23009KT 10SM CLR M12/M17 A3016 650 64 -2400 230/09 RMK AO2 SLP232 4/007 T11171172 11106 21122 411001200 58007
14837KMSN MSN20060219235509602/19/06 23:55:31  5-MIN KMSN 200555Z 23008KT 10SM CLR M12/M17 A3016 650 64 -2400 230/08 RMK AO2
14837KMSN MSN20060220000009602/20/06 00:00:38  5-MIN KMSN 200600Z 23008KT 10SM CLR M12/M17 A3015 650 64 -2400 230/08 RMK AO2
14837KMSN MSN20060220000509602/20/06 00:05:31  5-MIN KMSN 200605Z 22009KT 10SM CLR M12/M17 A3015 650 64 -2400 220/09 RMK AO2
14837KMSN MSN20060220001009602/20/06 00:10:31  5-MIN KMSN 200610Z 22008KT 10SM CLR M12/M17 A3016 650 67 -2500 220/08 RMK AO2
14837KMSN MSN20060220001509602/20/06 00:15:32  5-MIN KMSN 200615Z 22007KT 10SM CLR M12/M17 A3015 650 67 -2500 220/07 RMK AO2
14837KMSN MSN20060220002009602/20/06 00:20:31  5-MIN KMSN 200620Z 22008KT 10SM CLR M12/M17 A3015 650 64 -2400 220/08 RMK AO2
14837KMSN MSN20060220002509602/20/06 00:25:31  5-MIN KMSN 200625Z 22008KT 10SM CLR M12/M17 A3015 650 67 -2500 220/08 RMK AO2
14837KMSN MSN20060220003009602/20/06 00:30:31  5-MIN KMSN 200630Z 22008KT 10SM CLR M12/M17 A3015 650 67 -2500 220/08 RMK AO2
14837KMSN MSN20060220003509602/20/06 00:35:31  5-MIN KMSN 200635Z 22008KT 10SM CLR M12/M17 A3015 650 67 -2500 220/08 RMK AO2
14837KMSN MSN20060220004009602/20/06 00:40:31  5-MIN KMSN 200640Z 23009KT 10SM CLR M12/M17 A3015 650 67 -2500 230/09 RMK AO2
14837KMSN MSN20060220004509602/20/06 00:45:31  5-MIN KMSN 200645Z 23008KT 10SM CLR M12/M17 A3015 650 70 -2500 230/08 RMK AO2
14837KMSN MSN20060220005011302/20/06 00:50:31  5-MIN KMSN 200650Z 23007KT 10SM CLR M12/M17 A3015 660 70 -2500 230/07 RMK AO2 SLP227 T11221167
14837KMSN MSN20060220005509602/20/06 00:55:31  5-MIN KMSN 200655Z 23006KT 10SM CLR M12/M17 A3015 660 70 -2500 230/06 RMK AO2
14837KMSN MSN20060220010009602/20/06 01:00:31  5-MIN KMSN 200700Z 23008KT 10SM CLR M12/M17 A3014 660 67 -2500 230/08 RMK AO2
14837KMSN MSN20060220010509602/20/06 01:05:31  5-MIN KMSN 200705Z 23007KT 10SM CLR M12/M17 A3014 660 67 -2500 230/07 RMK AO2
14837KMSN MSN20060220011011202/20/06 01:10:31  5-MIN KMSN 200710Z 24007KT 210V270 10SM CLR M12/M17 A3014 660 70 -2500 230/07 210V270 RMK AO2
14837KMSN MSN20060220011509602/20/06 01:15:31  5-MIN KMSN 200715Z 24006KT 10SM CLR M12/M17 A3014 660 70 -2500 230/06 RMK AO2
14837KMSN MSN20060220012009602/20/06 01:20:31  5-MIN KMSN 200720Z 24008KT 10SM CLR M12/M17 A3014 670 70 -2500 240/08 RMK AO2
14837KMSN MSN20060220012509602/20/06 01:25:31  5-MIN KMSN 200725Z 23008KT 10SM CLR M12/M17 A3014 660 70 -2500 230/08 RMK AO2
14837KMSN MSN20060220013009602/20/06 01:30:31  5-MIN KMSN 200730Z VRB06KT 10SM CLR M12/M17 A3014 670 70 -2500 VRB/06 RMK AO2
14837KMSN MSN20060220013509602/20/06 01:35:31  5-MIN KMSN 200735Z 24008KT 10SM CLR M12/M17 A3013 670 70 -2500 230/08 RMK AO2
14837KMSN MSN20060220014009602/20/06 01:40:31  5-MIN KMSN 200740Z 24006KT 10SM CLR M12/M17 A3013 670 70 -2500 240/06 RMK AO2
14837KMSN MSN20060220014509602/20/06 01:45:31  5-MIN KMSN 200745Z 23008KT 10SM CLR M12/M17 A3013 670 70 -2500 230/08 RMK AO2
14837KMSN MSN20060220015011302/20/06 01:50:31  5-MIN KMSN 200750Z 23009KT 10SM CLR M12/M17 A3013 670 67 -2400 230/09 RMK AO2 SLP221 T11171167
14837KMSN MSN20060220015509602/20/06 01:55:31  5-MIN KMSN 200755Z 23009KT 10SM CLR M12/M17 A3013 670 70 -2500 230/09 RMK AO2
14837KMSN MSN20060220020009602/20/06 02:00:31  5-MIN KMSN 200800Z 23009KT 10SM CLR M12/M17 A3013 670 70 -2500 230/09 RMK AO2
14837KMSN MSN20060220020509602/20/06 02:05:31  5-MIN KMSN 200805Z 23009KT 10SM CLR M12/M17 A3012 680 70 -2500 230/09 RMK AO2
14837KMSN MSN20060220021009602/20/06 02:10:31  5-MIN KMSN 200810Z 23009KT 10SM CLR M12/M17 A3012 680 70 -2500 230/09 RMK AO2
14837KMSN MSN20060220021509602/20/06 02:15:31  5-MIN KMSN 200815Z 23009KT 10SM CLR M12/M17 A3012 680 70 -2500 230/09 RMK AO2
14837KMSN MSN20060220022009602/20/06 02:20:31  5-MIN KMSN 200820Z 23009KT 10SM CLR M12/M17 A3012 680 70 -2500 230/09 RMK AO2
14837KMSN MSN20060220022509602/20/06 02:25:31  5-MIN KMSN 200825Z 23008KT 10SM CLR M12/M17 A3011 690 70 -2500 230/08 RMK AO2
14837KMSN MSN20060220023009602/20/06 02:30:31  5-MIN KMSN 200830Z 23009KT 10SM CLR M12/M17 A3011 690 70 -2500 220/09 RMK AO2
14837KMSN MSN20060220023509602/20/06 02:35:31  5-MIN KMSN 200835Z 23007KT 10SM CLR M12/M17 A3011 690 70 -2500 230/07 RMK AO2
14837KMSN MSN20060220024009602/20/06 02:40:31  5-MIN KMSN 200840Z 23008KT 10SM CLR M12/M17 A3011 690 70 -2500 230/08 RMK AO2
14837KMSN MSN20060220024509602/20/06 02:45:31  5-MIN KMSN 200845Z 23007KT 10SM CLR M12/M17 A3011 690 70 -2500 230/07 RMK AO2
14837KMSN MSN20060220025011902/20/06 02:50:31  5-MIN KMSN 200850Z 22008KT 10SM CLR M12/M17 A3010 700 70 -2500 220/08 RMK AO2 SLP213 T11221167 58008
14837KMSN MSN20060220025509602/20/06 02:55:31  5-MIN KMSN 200855Z 23009KT 10SM CLR M12/M17 A3010 700 70 -2500 230/09 RMK AO2
14837KMSN MSN20060220030009602/20/06 03:00:31  5-MIN KMSN 200900Z 23008KT 10SM CLR M12/M17 A3010 700 70 -2500 220/08 RMK AO2
14837KMSN MSN20060220030509602/20/06 03:05:31  5-MIN KMSN 200905Z 23008KT 10SM CLR M12/M17 A3009 700 70 -2400 230/08 RMK AO2
14837KMSN MSN20060220031009602/20/06 03:10:31  5-MIN KMSN 200910Z 23008KT 10SM CLR M12/M17 A3009 710 70 -2400 220/08 RMK AO2
14837KMSN MSN20060220031509602/20/06 03:15:31  5-MIN KMSN 200915Z 22008KT 10SM CLR M12/M17 A3009 710 70 -2400 220/08 RMK AO2
14837KMSN MSN20060220032009602/20/06 03:20:31  5-MIN KMSN 200920Z 22005KT 10SM CLR M12/M17 A3009 710 70 -2400 220/05 RMK AO2
14837KMSN MSN20060220032509602/20/06 03:25:31  5-MIN KMSN 200925Z 22006KT 10SM CLR M12/M17 A3008 710 70 -2400 220/06 RMK AO2
14837KMSN MSN20060220033009602/20/06 03:30:31  5-MIN KMSN 200930Z 21006KT 10SM CLR M13/M17 A3008 710 70 -2500 210/06 RMK AO2
14837KMSN MSN20060220033509602/20/06 03:35:31  5-MIN KMSN 200935Z VRB05KT 10SM CLR M13/M17 A3008 710 70 -2500 VRB/05 RMK AO2
14837KMSN MSN20060220034009602/20/06 03:40:31  5-MIN KMSN 200940Z 22005KT 10SM CLR M13/M17 A3008 720 70 -2500 220/05 RMK AO2
14837KMSN MSN20060220034509602/20/06 03:45:31  5-MIN KMSN 200945Z 22006KT 10SM CLR M13/M17 A3008 720 70 -2500 220/06 RMK AO2
14837KMSN MSN20060220035011302/20/06 03:50:31  5-MIN KMSN 200950Z 22005KT 10SM CLR M13/M17 A3008 720 70 -2500 220/05 RMK AO2 SLP204 T11281172
14837KMSN MSN20060220035509602/20/06 03:55:31  5-MIN KMSN 200955Z VRB05KT 10SM CLR M13/M17 A3008 720 70 -2500 VRB/05 RMK AO2
14837KMSN MSN20060220040009602/20/06 04:00:31  5-MIN KMSN 201000Z 22006KT 10SM CLR M13/M17 A3008 720 70 -2500 220/06 RMK AO2
14837KMSN MSN20060220040509602/20/06 04:05:31  5-MIN KMSN 201005Z 22007KT 10SM CLR M13/M17 A3007 720 70 -2500 220/07 RMK AO2
14837KMSN MSN20060220041009602/20/06 04:10:31  5-MIN KMSN 201010Z 22006KT 10SM CLR M13/M17 A3007 720 70 -2500 220/06 RMK AO2
14837KMSN MSN20060220041509602/20/06 04:15:31  5-MIN KMSN 201015Z 23006KT 10SM CLR M13/M17 A3008 720 70 -2500 220/06 RMK AO2
14837KMSN MSN20060220042009602/20/06 04:20:31  5-MIN KMSN 201020Z 23005KT 10SM CLR M13/M17 A3007 720 70 -2500 230/05 RMK AO2
14837KMSN MSN20060220042509602/20/06 04:25:31  5-MIN KMSN 201025Z VRB05KT 10SM CLR M13/M17 A3007 720 70 -2500 VRB/05 RMK AO2
14837KMSN MSN20060220043009602/20/06 04:30:31  5-MIN KMSN 201030Z 22006KT 10SM CLR M13/M17 A3007 730 73 -2500 220/06 RMK AO2
14837KMSN MSN20060220043509602/20/06 04:35:31  5-MIN KMSN 201035Z VRB06KT 10SM CLR M13/M17 A3007 730 73 -2500 VRB/06 RMK AO2
14837KMSN MSN20060220044009602/20/06 04:40:31  5-MIN KMSN 201040Z 22006KT 10SM CLR M13/M17 A3007 730 73 -2500 220/06 RMK AO2
14837KMSN MSN20060220044509602/20/06 04:45:31  5-MIN KMSN 201045Z 22006KT 10SM CLR M13/M17 A3007 730 73 -2500 220/06 RMK AO2
14837KMSN MSN20060220045011302/20/06 04:50:31  5-MIN KMSN 201050Z 22006KT 10SM CLR M13/M17 A3007 730 73 -2500 220/06 RMK AO2 SLP199 T11281167
14837KMSN MSN20060220045509602/20/06 04:55:31  5-MIN KMSN 201055Z 22004KT 10SM CLR M13/M17 A3006 730 73 -2500 220/04 RMK AO2
14837KMSN MSN20060220050009602/20/06 05:00:31  5-MIN KMSN 201100Z 22003KT 10SM CLR M13/M17 A3006 740 73 -2500 220/03 RMK AO2
14837KMSN MSN20060220050509602/20/06 05:05:31  5-MIN KMSN 201105Z VRB04KT 10SM CLR M13/M17 A3006 740 70 -2500 VRB/04 RMK AO2
14837KMSN MSN20060220051009602/20/06 05:10:31  5-MIN KMSN 201110Z 00000KT 10SM CLR M13/M17 A3006 730 73 -2600 000/00 RMK AO2
14837KMSN MSN20060220051509602/20/06 05:15:31  5-MIN KMSN 201115Z VRB03KT 10SM CLR M13/M17 A3007 730 73 -2600 VRB/03 RMK AO2
14837KMSN MSN20060220052009602/20/06 05:20:31  5-MIN KMSN 201120Z 22004KT 10SM CLR M13/M17 A3006 730 70 -2500 220/04 RMK AO2
14837KMSN MSN20060220052509602/20/06 05:25:31  5-MIN KMSN 201125Z 23004KT 10SM CLR M13/M17 A3006 730 73 -2500 220/04 RMK AO2
14837KMSN MSN20060220053009602/20/06 05:30:31  5-MIN KMSN 201130Z 22005KT 10SM CLR M13/M17 A3007 730 73 -2500 220/05 RMK AO2
14837KMSN MSN20060220053509602/20/06 05:35:31  5-MIN KMSN 201135Z VRB04KT 10SM CLR M13/M17 A3007 730 70 -2500 VRB/04 RMK AO2
14837KMSN MSN20060220054009602/20/06 05:40:31  5-MIN KMSN 201140Z 21005KT 10SM CLR M13/M17 A3006 740 70 -2500 210/05 RMK AO2
14837KMSN MSN20060220054510202/20/06 05:45:31  5-MIN KMSN 201145Z 22006KT 10SM CLR M13/M17 A3006 730 70 -2500 220/06 RMK AO2 4/007
14837KMSN MSN20060220055013702/20/06 05:50:31  5-MIN KMSN 201150Z 23005KT 10SM CLR M13/M17 A3006 730 70 -2500 220/05 RMK AO2 SLP198 4/007 T11281172 11117 21133 58018
14837KMSN MSN20060220055509602/20/06 05:55:31  5-MIN KMSN 201155Z 22006KT 10SM CLR M13/M17 A3006 730 70 -2500 220/06 RMK AO2
14837KMSN MSN20060220060009602/20/06 06:00:31  5-MIN KMSN 201200Z 22007KT 10SM CLR M13/M17 A3006 740 70 -2500 220/07 RMK AO2
14837KMSN MSN20060220060509602/20/06 06:05:31  5-MIN KMSN 201205Z 22007KT 10SM CLR M13/M17 A3005 740 70 -2500 220/07 RMK AO2
14837KMSN MSN20060220061009602/20/06 06:10:31  5-MIN KMSN 201210Z 21006KT 10SM CLR M13/M17 A3005 740 70 -2500 210/06 RMK AO2
14837KMSN MSN20060220061509902/20/06 06:15:31  5-MIN KMSN 201215Z 22007KT 10SM FEW120 M13/M17 A3005 740 73 -2500 220/07 RMK AO2
14837KMSN MSN20060220062009902/20/06 06:20:31  5-MIN KMSN 201220Z 23009KT 10SM SCT120 M13/M17 A3005 750 73 -2500 230/09 RMK AO2
14837KMSN MSN20060220062509902/20/06 06:25:31  5-MIN KMSN 201225Z 22008KT 10SM BKN120 M12/M17 A3005 750 70 -2400 220/08 RMK AO2
14837KMSN MSN20060220063009902/20/06 06:30:31  5-MIN KMSN 201230Z 22007KT 10SM BKN120 M12/M17 A3005 750 70 -2400 220/07 RMK AO2
14837KMSN MSN20060220063509902/20/06 06:35:31  5-MIN KMSN 201235Z 23009KT 10SM BKN110 M12/M17 A3005 750 70 -2400 230/09 RMK AO2
14837KMSN MSN20060220064009902/20/06 06:40:31  5-MIN KMSN 201240Z 22007KT 10SM OVC110 M12/M17 A3005 750 70 -2400 220/07 RMK AO2
14837KMSN MSN20060220064509902/20/06 06:45:31  5-MIN KMSN 201245Z 22008KT 10SM BKN110 M12/M17 A3004 750 70 -2400 220/08 RMK AO2
14837KMSN MSN20060220065011602/20/06 06:50:31  5-MIN KMSN 201250Z 21007KT 10SM BKN110 M12/M17 A3004 750 70 -2400 210/07 RMK AO2 SLP190 T11221167
14837KMSN MSN20060220065509902/20/06 06:55:31  5-MIN KMSN 201255Z 21007KT 10SM BKN110 M12/M17 A3004 750 70 -2400 200/07 RMK AO2
14837KMSN MSN20060220070009902/20/06 07:00:31  5-MIN KMSN 201300Z 22007KT 10SM BKN110 M12/M17 A3004 750 70 -2400 210/07 RMK AO2
14837KMSN MSN20060220070509902/20/06 07:05:31  5-MIN KMSN 201305Z 22007KT 10SM BKN110 M12/M17 A3004 750 70 -2400 220/07 RMK AO2
14837KMSN MSN20060220071009902/20/06 07:10:31  5-MIN KMSN 201310Z 21007KT 10SM BKN100 M12/M17 A3004 760 70 -2400 210/07 RMK AO2
14837KMSN MSN20060220071509902/20/06 07:15:31  5-MIN KMSN 201315Z 22006KT 10SM BKN100 M12/M17 A3004 760 70 -2400 220/06 RMK AO2
14837KMSN MSN20060220072009802/20/06 07:20:31  5-MIN KMSN 201320Z 21006KT 9SM OVC100 M12/M16 A3004 760 73 -2400 210/06 RMK AO2
14837KMSN MSN20060220072509802/20/06 07:25:31  5-MIN KMSN 201325Z 22008KT 9SM OVC100 M12/M16 A3004 760 70 -2300 220/08 RMK AO2
14837KMSN MSN20060220073009902/20/06 07:30:31  5-MIN KMSN 201330Z 21007KT 10SM OVC100 M12/M16 A3003 760 70 -2300 210/07 RMK AO2
14837KMSN MSN20060220073509902/20/06 07:35:31  5-MIN KMSN 201335Z 21006KT 10SM OVC100 M12/M16 A3003 760 70 -2300 210/06 RMK AO2
14837KMSN MSN20060220074009902/20/06 07:40:31  5-MIN KMSN 201340Z 22006KT 10SM OVC100 M12/M16 A3004 760 70 -2300 220/06 RMK AO2
14837KMSN MSN20060220074509902/20/06 07:45:31  5-MIN KMSN 201345Z 22008KT 10SM BKN100 M12/M16 A3004 760 70 -2300 220/08 RMK AO2
14837KMSN MSN20060220075013202/20/06 07:50:31  5-MIN KMSN 201350Z 21008KT 180V250 10SM BKN100 M12/M16 A3003 760 70 -2300 210/08 180V250 RMK AO2 SLP188 T11171161
14837KMSN MSN20060220075509902/20/06 07:55:31  5-MIN KMSN 201355Z 21007KT 10SM SCT100 M12/M16 A3003 760 70 -2300 210/07 RMK AO2
14837KMSN MSN20060220080009902/20/06 08:00:31  5-MIN KMSN 201400Z 21007KT 10SM FEW100 M12/M16 A3003 760 70 -2300 210/07 RMK AO2
14837KMSN MSN20060220080509902/20/06 08:05:31  5-MIN KMSN 201405Z 21007KT 10SM FEW110 M12/M16 A3003 760 70 -2300 210/07 RMK AO2
14837KMSN MSN20060220081009902/20/06 08:10:31  5-MIN KMSN 201410Z 21008KT 10SM SCT100 M12/M16 A3003 760 70 -2300 210/08 RMK AO2
14837KMSN MSN20060220081509902/20/06 08:15:31  5-MIN KMSN 201415Z 22006KT 10SM BKN110 M11/M16 A3003 760 67 -2200 220/06 RMK AO2
14837KMSN MSN20060220082009902/20/06 08:20:31  5-MIN KMSN 201420Z 23008KT 10SM BKN110 M11/M16 A3003 760 70 -2200 230/08 RMK AO2
14837KMSN MSN20060220082509902/20/06 08:25:31  5-MIN KMSN 201425Z 22008KT 10SM BKN100 M11/M16 A3003 760 67 -2200 220/08 RMK AO2
14837KMSN MSN20060220083009902/20/06 08:30:31  5-MIN KMSN 201430Z 22009KT 10SM BKN100 M11/M16 A3003 760 70 -2200 220/09 RMK AO2
14837KMSN MSN20060220083509902/20/06 08:35:31  5-MIN KMSN 201435Z 21006KT 10SM OVC100 M11/M16 A3004 760 70 -2200 210/06 RMK AO2
14837KMSN MSN20060220084010602/20/06 08:40:31  5-MIN KMSN 201440Z 22009KT 10SM BKN100 BKN110 M11/M16 A3004 760 67 -2200 220/09 RMK AO2
14837KMSN MSN20060220084510502/20/06 08:45:31  5-MIN KMSN 201445Z 23012G17KT 10SM OVC100 M11/M16 A3004 760 67 -2200 220/12G17 RMK AO2
14837KMSN MSN20060220085013502/20/06 08:50:31  5-MIN KMSN 201450Z 23010G17KT 10SM SCT090 BKN100 M11/M16 A3004 760 67 -2200 230/10G17 RMK AO2 SLP189 T11061156 56013
14837KMSN MSN20060220085509902/20/06 08:55:31  5-MIN KMSN 201455Z 23007KT 10SM SCT100 M10/M16 A3003 760 64 -2100 230/07 RMK AO2
14837KMSN MSN20060220090009902/20/06 09:00:31  5-MIN KMSN 201500Z 22009KT 10SM SCT100 M10/M15 A3003 760 67 -2100 220/09 RMK AO2
14837KMSN MSN20060220090509902/20/06 09:05:31  5-MIN KMSN 201505Z 23010KT 10SM BKN100 M10/M15 A3003 760 67 -2100 230/10 RMK AO2
14837KMSN MSN20060220091010602/20/06 09:10:31  5-MIN KMSN 201510Z 24009KT 10SM FEW080 BKN100 M10/M16 A3003 760 64 -2100 230/09 RMK AO2
14837KMSN MSN20060220091509902/20/06 09:15:31  5-MIN KMSN 201515Z 22009KT 10SM BKN100 M10/M16 A3003 760 64 -2100 220/09 RMK AO2
14837KMSN MSN20060220092010602/20/06 09:20:31  5-MIN KMSN 201520Z 23009KT 10SM SCT085 BKN100 M09/M15 A3003 770 64 -2000 230/09 RMK AO2
14837KMSN MSN20060220092511202/20/06 09:25:31  5-MIN KMSN 201525Z 22009G15KT 10SM BKN085 BKN100 M09/M15 A3003 770 64 -2000 220/09G15 RMK AO2
14837KMSN MSN20060220093011202/20/06 09:30:31  5-MIN KMSN 201530Z 24008G15KT 10SM BKN080 OVC100 M09/M15 A3003 760 64 -2000 240/08G15 RMK AO2
14837KMSN MSN20060220093510602/20/06 09:35:31  5-MIN KMSN 201535Z 23008KT 10SM BKN085 BKN100 M09/M15 A3002 770 64 -2000 230/08 RMK AO2
14837KMSN MSN20060220094010602/20/06 09:40:31  5-MIN KMSN 201540Z 22008KT 10SM BKN085 BKN100 M09/M16 A3002 770 61 -2000 220/08 RMK AO2
14837KMSN MSN20060220094509902/20/06 09:45:31  5-MIN KMSN 201545Z 23008KT 10SM BKN085 M09/M15 A3002 770 61 -1900 230/08 RMK AO2
14837KMSN MSN20060220095012302/20/06 09:50:31  5-MIN KMSN 201550Z 22008KT 10SM SCT080 SCT095 M09/M15 A3001 780 61 -1900 210/08 RMK AO2 SLP181 T10891150
14837KMSN MSN20060220095510602/20/06 09:55:31  5-MIN KMSN 201555Z 23010KT 10SM FEW080 SCT095 M09/M15 A3001 780 61 -1900 230/10 RMK AO2
14837KMSN MSN20060220100009902/20/06 10:00:31  5-MIN KMSN 201600Z 23008KT 10SM FEW090 M08/M15 A3001 780 59 -1800 230/08 RMK AO2
14837KMSN MSN20060220100509902/20/06 10:05:31  5-MIN KMSN 201605Z VRB06KT 10SM BKN090 M08/M14 A3001 780 62 -1800 VRB/06 RMK AO2
14837KMSN MSN20060220101009902/20/06 10:10:31  5-MIN KMSN 201610Z 22008KT 10SM BKN090 M08/M14 A3001 780 59 -1800 220/08 RMK AO2
14837KMSN MSN20060220101509902/20/06 10:15:31  5-MIN KMSN 201615Z 20007KT 10SM BKN090 M08/M14 A3001 780 62 -1800 200/07 RMK AO2
14837KMSN MSN20060220102009902/20/06 10:20:31  5-MIN KMSN 201620Z 20010KT 10SM BKN090 M08/M14 A3001 780 62 -1800 200/10 RMK AO2
14837KMSN MSN20060220102509902/20/06 10:25:31  5-MIN KMSN 201625Z 20006KT 10SM BKN090 M07/M14 A3001 780 59 -1700 200/06 RMK AO2
14837KMSN MSN20060220103009902/20/06 10:30:31  5-MIN KMSN 201630Z 21007KT 10SM BKN090 M07/M13 A3001 780 62 -1700 210/07 RMK AO2
14837KMSN MSN20060220103509902/20/06 10:35:31  5-MIN KMSN 201635Z 21007KT 10SM BKN090 M07/M14 A3001 780 59 -1700 210/07 RMK AO2
14837KMSN MSN20060220104009902/20/06 10:40:31  5-MIN KMSN 201640Z 20009KT 10SM OVC085 M07/M13 A3000 790 62 -1700 200/09 RMK AO2
14837KMSN MSN20060220104509902/20/06 10:45:31  5-MIN KMSN 201645Z 21008KT 10SM OVC085 M07/M13 A3000 790 59 -1600 200/08 RMK AO2
14837KMSN MSN20060220193009602/20/06 19:30:31  5-MIN KMSN 210130Z 20006KT 10SM CLR M05/M11 A2984 940 62 -1200 200/06 RMK AO2
14837KMSN MSN20060220193509602/20/06 19:35:31  5-MIN KMSN 210135Z 19005KT 10SM CLR M05/M11 A2983 950 62 -1200 190/05 RMK AO2
14837KMSN MSN20060220194009602/20/06 19:40:31  5-MIN KMSN 210140Z 20005KT 10SM CLR M05/M11 A2983 940 62 -1200 200/05 RMK AO2
14837KMSN MSN20060220194509602/20/06 19:45:31  5-MIN KMSN 210145Z 20005KT 10SM CLR M05/M11 A2983 950 62 -1200 200/05 RMK AO2
14837KMSN MSN20060220195011302/20/06 19:50:31  5-MIN KMSN 210150Z 21005KT 10SM CLR M05/M11 A2983 950 62 -1200 210/05 RMK AO2 SLP117 T10501111
14837KMSN MSN20060220195509602/20/06 19:55:31  5-MIN KMSN 210155Z 20005KT 10SM CLR M06/M11 A2983 950 65 -1300 200/05 RMK AO2
14837KMSN MSN20060220200009602/20/06 20:00:31  5-MIN KMSN 210200Z 20005KT 10SM CLR M06/M11 A2983 950 65 -1300 200/05 RMK AO2
14837KMSN MSN20060220200509602/20/06 20:05:31  5-MIN KMSN 210205Z 20005KT 10SM CLR M06/M11 A2983 950 65 -1300 200/05 RMK AO2
14837KMSN MSN20060220201009602/20/06 20:10:31  5-MIN KMSN 210210Z 20005KT 10SM CLR M06/M11 A2983 950 65 -1300 200/05 RMK AO2
14837KMSN MSN20060220201509602/20/06 20:15:31  5-MIN KMSN 210215Z 22005KT 10SM CLR M06/M11 A2982 950 65 -1300 210/05 RMK AO2
14837KMSN MSN20060220202009602/20/06 20:20:31  5-MIN KMSN 210220Z 21006KT 10SM CLR M06/M11 A2982 950 65 -1300 210/06 RMK AO2
14837KMSN MSN20060220202509602/20/06 20:25:31  5-MIN KMSN 210225Z 21004KT 10SM CLR M06/M11 A2982 960 65 -1300 210/04 RMK AO2
14837KMSN MSN20060220203009602/20/06 20:30:31  5-MIN KMSN 210230Z 21004KT 10SM CLR M06/M11 A2982 960 68 -1300 210/04 RMK AO2
14837KMSN MSN20060220203509602/20/06 20:35:31  5-MIN KMSN 210235Z 20007KT 10SM CLR M06/M11 A2982 960 65 -1300 200/07 RMK AO2
14837KMSN MSN20060220204009602/20/06 20:40:31  5-MIN KMSN 210240Z 21005KT 10SM CLR M06/M11 A2982 960 65 -1300 200/05 RMK AO2
14837KMSN MSN20060220204509602/20/06 20:45:31  5-MIN KMSN 210245Z 21005KT 10SM CLR M06/M11 A2982 960 68 -1300 210/05 RMK AO2
14837KMSN MSN20060220205011902/20/06 20:50:31  5-MIN KMSN 210250Z 21005KT 10SM CLR M06/M11 A2982 960 68 -1300 200/05 RMK AO2 SLP113 T10611111 55008
14837KMSN MSN20060220205509602/20/06 20:55:31  5-MIN KMSN 210255Z 22004KT 10SM CLR M06/M11 A2982 960 71 -1300 210/04 RMK AO2
14837KMSN MSN20060220210009602/20/06 21:00:31  5-MIN KMSN 210300Z 21006KT 10SM CLR M06/M11 A2982 960 71 -1300 210/06 RMK AO2
14837KMSN MSN20060220210509602/20/06 21:05:31  5-MIN KMSN 210305Z 21006KT 10SM CLR M06/M11 A2982 960 71 -1300 210/06 RMK AO2
14837KMSN MSN20060220211009502/20/06 21:10:31  5-MIN KMSN 210310Z 23007KT 9SM CLR M06/M11 A2982 960 71 -1300 220/07 RMK AO2
14837KMSN MSN20060220211509502/20/06 21:15:31  5-MIN KMSN 210315Z 22007KT 9SM CLR M06/M11 A2982 960 68 -1300 220/07 RMK AO2
14837KMSN MSN20060220212009502/20/06 21:20:31  5-MIN KMSN 210320Z 22008KT 8SM CLR M06/M10 A2982 960 71 -1300 220/08 RMK AO2
14837KMSN MSN20060220212509502/20/06 21:25:31  5-MIN KMSN 210325Z 22008KT 8SM CLR M06/M10 A2982 960 71 -1300 210/08 RMK AO2
14837KMSN MSN20060220213009502/20/06 21:30:31  5-MIN KMSN 210330Z 22007KT 9SM CLR M06/M09 A2982 950 74 -1300 220/07 RMK AO2
14837KMSN MSN20060220213509502/20/06 21:35:31  5-MIN KMSN 210335Z 22008KT 9SM CLR M05/M09 A2983 950 71 -1200 220/08 RMK AO2
14837KMSN MSN20060220214009502/20/06 21:40:31  5-MIN KMSN 210340Z 21011KT 9SM CLR M05/M09 A2982 960 71 -1200 200/11 RMK AO2
14837KMSN MSN20060220214509602/20/06 21:45:31  5-MIN KMSN 210345Z 22009KT 10SM CLR M05/M09 A2982 950 71 -1200 220/09 RMK AO2
14837KMSN MSN20060220215011302/20/06 21:50:31  5-MIN KMSN 210350Z 22006KT 10SM CLR M05/M09 A2982 950 71 -1200 220/06 RMK AO2 SLP113 T10501094
14837KMSN MSN20060220215509602/20/06 21:55:31  5-MIN KMSN 210355Z 24008KT 10SM CLR M06/M09 A2983 950 74 -1300 240/08 RMK AO2
14837KMSN MSN20060220220009502/20/06 22:00:31  5-MIN KMSN 210400Z VRB05KT 9SM CLR M06/M09 A2983 950 74 -1300 VRB/05 RMK AO2
14837KMSN MSN20060220220509502/20/06 22:05:31  5-MIN KMSN 210405Z 22006KT 9SM CLR M06/M09 A2982 950 74 -1300 220/06 RMK AO2
14837KMSN MSN20060220221009502/20/06 22:10:31  5-MIN KMSN 210410Z 23008KT 9SM CLR M06/M09 A2983 950 74 -1300 230/08 RMK AO2
14837KMSN MSN20060220221509502/20/06 22:15:31  5-MIN KMSN 210415Z 21008KT 9SM CLR M06/M09 A2982 950 74 -1300 210/08 RMK AO2
14837KMSN MSN20060220222010102/20/06 22:20:31  5-MIN KMSN 210420Z 21012G15KT 9SM CLR M05/M09 A2982 960 71 -1200 210/12G15 RMK AO2
14837KMSN MSN20060220222510102/20/06 22:25:31  5-MIN KMSN 210425Z 22007G15KT 9SM CLR M06/M09 A2982 960 74 -1300 220/07G15 RMK AO2
14837KMSN MSN20060220223009502/20/06 22:30:31  5-MIN KMSN 210430Z 22008KT 9SM CLR M06/M09 A2982 960 74 -1300 220/08 RMK AO2
14837KMSN MSN20060220223509502/20/06 22:35:31  5-MIN KMSN 210435Z 22007KT 9SM CLR M06/M09 A2982 960 74 -1300 210/07 RMK AO2
14837KMSN MSN20060220224009502/20/06 22:40:31  5-MIN KMSN 210440Z 22007KT 9SM CLR M06/M09 A2982 960 74 -1300 220/07 RMK AO2
14837KMSN MSN20060220224509902/20/06 22:45:31  5-MIN KMSN 210445Z 23006KT 10SM FEW085 M06/M09 A2982 960 74 -1300 230/06 RMK AO2
14837KMSN MSN20060220225011602/20/06 22:50:31  5-MIN KMSN 210450Z 23006KT 10SM FEW085 M06/M09 A2982 960 74 -1300 230/06 RMK AO2 SLP110 T10561094
14837KMSN MSN20060220225509902/20/06 22:55:31  5-MIN KMSN 210455Z 23006KT 10SM SCT080 M05/M09 A2981 960 71 -1200 220/06 RMK AO2
14837KMSN MSN20060220230009902/20/06 23:00:31  5-MIN KMSN 210500Z 23008KT 10SM BKN085 M05/M09 A2981 970 71 -1200 230/08 RMK AO2
14837KMSN MSN20060220230509902/20/06 23:05:31  5-MIN KMSN 210505Z 23008KT 10SM BKN085 M05/M09 A2981 970 74 -1200 230/08 RMK AO2
14837KMSN MSN20060220231012102/20/06 23:10:31  5-MIN KMSN 210510Z 23007G14KT 200V260 10SM OVC080 M05/M09 A2981 970 74 -1200 230/07G14 200V260 RMK AO2
14837KMSN MSN20060220231509902/20/06 23:15:31  5-MIN KMSN 210515Z 24008KT 10SM OVC080 M05/M09 A2981 970 74 -1200 240/08 RMK AO2
14837KMSN MSN20060220232009902/20/06 23:20:31  5-MIN KMSN 210520Z 23007KT 10SM OVC080 M05/M09 A2980 970 74 -1200 230/07 RMK AO2
14837KMSN MSN20060220232509902/20/06 23:25:31  5-MIN KMSN 210525Z 24008KT 10SM SCT080 M05/M09 A2980 970 74 -1200 240/08 RMK AO2
14837KMSN MSN20060220233009902/20/06 23:30:31  5-MIN KMSN 210530Z 24009KT 10SM SCT080 M05/M09 A2980 970 74 -1200 230/09 RMK AO2
14837KMSN MSN20060220233510502/20/06 23:35:31  5-MIN KMSN 210535Z 24009G14KT 10SM SCT080 M05/M09 A2981 970 74 -1200 240/09G14 RMK AO2
14837KMSN MSN20060220234012702/20/06 23:40:31  5-MIN KMSN 210540Z 23009G14KT 210V270 10SM SCT075 M05/M09 A2981 970 71 -1200 230/09G14 210V270 RMK AO2 4/006
14837KMSN MSN20060220234510502/20/06 23:45:31  5-MIN KMSN 210545Z 24008KT 10SM SCT075 M05/M09 A2981 970 71 -1200 240/08 RMK AO2 4/006
14837KMSN MSN20060220235015602/20/06 23:50:31  5-MIN KMSN 210550Z 24008G15KT 10SM FEW070 M05/M09 A2981 970 71 -1200 240/08G15 RMK AO2 SLP108 4/006 T10501094 11039 21061 410221133 58012
14837KMSN MSN20060220235509602/20/06 23:55:31  5-MIN KMSN 210555Z 24007KT 10SM CLR M05/M09 A2981 960 71 -1200 240/07 RMK AO2
14837KMSN MSN20060221000009602/21/06 00:00:38  5-MIN KMSN 210600Z 24007KT 10SM CLR M05/M09 A2981 960 71 -1200 240/07 RMK AO2
14837KMSN MSN20060221000509602/21/06 00:05:31  5-MIN KMSN 210605Z VRB05KT 10SM CLR M05/M09 A2981 960 71 -1200 VRB/05 RMK AO2
14837KMSN MSN20060221001009602/21/06 00:10:31  5-MIN KMSN 210610Z 25006KT 10SM CLR M06/M09 A2981 960 74 -1200 250/06 RMK AO2
14837KMSN MSN20060221001509602/21/06 00:15:31  5-MIN KMSN 210615Z 24004KT 10SM CLR M06/M09 A2982 960 74 -1300 240/04 RMK AO2
14837KMSN MSN20060221002009602/21/06 00:20:31  5-MIN KMSN 210620Z 24004KT 10SM CLR M06/M09 A2982 960 74 -1300 240/04 RMK AO2
14837KMSN MSN20060221002509602/21/06 00:25:31  5-MIN KMSN 210625Z 25006KT 10SM CLR M06/M09 A2982 960 74 -1300 250/06 RMK AO2
14837KMSN MSN20060221003009602/21/06 00:30:31  5-MIN KMSN 210630Z 25004KT 10SM CLR M06/M09 A2982 960 74 -1300 250/04 RMK AO2
14837KMSN MSN20060221003509602/21/06 00:35:31  5-MIN KMSN 210635Z 25005KT 10SM CLR M06/M09 A2982 960 74 -1300 250/05 RMK AO2
14837KMSN MSN20060221004009502/21/06 00:40:31  5-MIN KMSN 210640Z VRB04KT 9SM CLR M06/M10 A2982 960 71 -1300 VRB/04 RMK AO2
14837KMSN MSN20060221004509502/21/06 00:45:31  5-MIN KMSN 210645Z VRB05KT 9SM CLR M06/M10 A2982 960 71 -1300 VRB/05 RMK AO2
14837KMSN MSN20060221005011202/21/06 00:50:31  5-MIN KMSN 210650Z VRB03KT 9SM CLR M06/M10 A2982 950 71 -1300 VRB/03 RMK AO2 SLP112 T10561100
14837KMSN MSN20060221005509502/21/06 00:55:31  5-MIN KMSN 210655Z VRB04KT 9SM CLR M06/M10 A2983 950 71 -1300 VRB/04 RMK AO2
14837KMSN MSN20060221010009602/21/06 01:00:31  5-MIN KMSN 210700Z VRB04KT 10SM CLR M06/M10 A2983 950 71 -1300 VRB/04 RMK AO2
14837KMSN MSN20060221010509602/21/06 01:05:31  5-MIN KMSN 210705Z VRB04KT 10SM CLR M06/M10 A2983 950 71 -1300 VRB/04 RMK AO2
14837KMSN MSN20060221011009602/21/06 01:10:31  5-MIN KMSN 210710Z VRB04KT 10SM CLR M06/M10 A2983 950 71 -1300 VRB/04 RMK AO2
14837KMSN MSN20060221011509602/21/06 01:15:31  5-MIN KMSN 210715Z VRB04KT 10SM CLR M06/M10 A2983 940 71 -1300 VRB/04 RMK AO2
14837KMSN MSN20060221012009602/21/06 01:20:31  5-MIN KMSN 210720Z VRB04KT 10SM CLR M06/M10 A2984 940 71 -1300 VRB/04 RMK AO2
14837KMSN MSN20060221012509602/21/06 01:25:31  5-MIN KMSN 210725Z VRB04KT 10SM CLR M06/M10 A2984 940 74 -1400 VRB/04 RMK AO2
14837KMSN MSN20060221013009602/21/06 01:30:31  5-MIN KMSN 210730Z VRB04KT 10SM CLR M06/M10 A2984 930 71 -1300 VRB/04 RMK AO2
14837KMSN MSN20060221013509602/21/06 01:35:31  5-MIN KMSN 210735Z VRB03KT 10SM CLR M06/M10 A2985 930 74 -1400 VRB/03 RMK AO2
14837KMSN MSN20060221014009602/21/06 01:40:31  5-MIN KMSN 210740Z VRB03KT 10SM CLR M06/M10 A2985 930 74 -1400 VRB/03 RMK AO2
14837KMSN MSN20060221014509602/21/06 01:45:31  5-MIN KMSN 210745Z VRB03KT 10SM CLR M06/M10 A2985 930 74 -1400 VRB/03 RMK AO2
14837KMSN MSN20060221015011302/21/06 01:50:31  5-MIN KMSN 210750Z 26004KT 10SM CLR M06/M10 A2986 920 74 -1400 250/04 RMK AO2 SLP123 T10611100
14837KMSN MSN20060221015509602/21/06 01:55:31  5-MIN KMSN 210755Z 00000KT 10SM CLR M06/M10 A2986 920 74 -1400 000/00 RMK AO2
14837KMSN MSN20060221020009602/21/06 02:00:31  5-MIN KMSN 210800Z VRB04KT 10SM CLR M06/M10 A2986 920 74 -1400 VRB/04 RMK AO2
14837KMSN MSN20060221020509602/21/06 02:05:31  5-MIN KMSN 210805Z VRB03KT 10SM CLR M07/M10 A2986 920 77 -1400 VRB/03 RMK AO2
14837KMSN MSN20060221021009502/21/06 02:10:31  5-MIN KMSN 210810Z 27004KT 9SM CLR M07/M11 A2986 920 74 -1400 270/04 RMK AO2
14837KMSN MSN20060221021509502/21/06 02:15:31  5-MIN KMSN 210815Z VRB03KT 9SM CLR M07/M11 A2986 920 74 -1500 VRB/03 RMK AO2
14837KMSN MSN20060221022009502/21/06 02:20:31  5-MIN KMSN 210820Z VRB03KT 9SM CLR M07/M11 A2986 920 77 -1500 VRB/03 RMK AO2
14837KMSN MSN20060221022509502/21/06 02:25:31  5-MIN KMSN 210825Z 30003KT 9SM CLR M07/M11 A2986 920 74 -1500 300/03 RMK AO2
14837KMSN MSN20060221023009502/21/06 02:30:31  5-MIN KMSN 210830Z 29003KT 9SM CLR M07/M11 A2986 920 77 -1500 290/03 RMK AO2
14837KMSN MSN20060221023509502/21/06 02:35:31  5-MIN KMSN 210835Z 26003KT 9SM CLR M08/M11 A2986 920 77 -1600 260/03 RMK AO2
14837KMSN MSN20060221024009502/21/06 02:40:31  5-MIN KMSN 210840Z 00000KT 9SM CLR M08/M11 A2986 920 80 -1600 000/00 RMK AO2
14837KMSN MSN20060221024509502/21/06 02:45:31  5-MIN KMSN 210845Z 29004KT 9SM CLR M08/M11 A2986 920 80 -1600 290/04 RMK AO2
14837KMSN MSN20060221025011802/21/06 02:50:31  5-MIN KMSN 210850Z 30003KT 9SM CLR M08/M11 A2986 920 84 -1700 300/03 RMK AO2 SLP126 T10831106 58002
14837KMSN MSN20060221025509502/21/06 02:55:31  5-MIN KMSN 210855Z 30003KT 9SM CLR M08/M11 A2987 910 80 -1600 300/03 RMK AO2
14837KMSN MSN20060221030009502/21/06 03:00:31  5-MIN KMSN 210900Z 29004KT 9SM CLR M09/M11 A2987 910 84 -1700 290/04 RMK AO2
14837KMSN MSN20060221030509502/21/06 03:05:31  5-MIN KMSN 210905Z 30005KT 9SM CLR M08/M11 A2987 910 80 -1700 300/05 RMK AO2
14837KMSN MSN20060221031009502/21/06 03:10:31  5-MIN KMSN 210910Z 29006KT 9SM CLR M08/M11 A2988 910 84 -1700 290/06 RMK AO2
14837KMSN MSN20060221031509502/21/06 03:15:31  5-MIN KMSN 210915Z 30006KT 9SM CLR M08/M11 A2988 900 80 -1700 290/06 RMK AO2
14837KMSN MSN20060221032009602/21/06 03:20:31  5-MIN KMSN 210920Z 30006KT 10SM CLR M08/M11 A2988 900 77 -1600 300/06 RMK AO2
14837KMSN MSN20060221032509602/21/06 03:25:31  5-MIN KMSN 210925Z 30005KT 10SM CLR M08/M11 A2988 900 80 -1600 300/05 RMK AO2
14837KMSN MSN20060221033009602/21/06 03:30:31  5-MIN KMSN 210930Z 30005KT 10SM CLR M08/M11 A2989 890 80 -1600 300/05 RMK AO2
14837KMSN MSN20060221033509602/21/06 03:35:31  5-MIN KMSN 210935Z 30005KT 10SM CLR M07/M11 A2989 890 74 -1600 300/05 RMK AO2
14837KMSN MSN20060221034009602/21/06 03:40:31  5-MIN KMSN 210940Z 30004KT 10SM CLR M07/M11 A2989 890 74 -1600 300/04 RMK AO2
14837KMSN MSN20060221034509902/21/06 03:45:31  5-MIN KMSN 210945Z 30004KT 10SM FEW025 M08/M11 A2990 890 77 -1600 300/04 RMK AO2
14837KMSN MSN20060221035011602/21/06 03:50:31  5-MIN KMSN 210950Z 31005KT 10SM SCT025 M07/M12 A2990 880 71 -1600 310/05 RMK AO2 SLP138 T10721117
14837KMSN MSN20060221035509902/21/06 03:55:31  5-MIN KMSN 210955Z 31006KT 10SM SCT025 M08/M12 A2990 880 74 -1600 310/06 RMK AO2
14837KMSN MSN20060221040009902/21/06 04:00:31  5-MIN KMSN 211000Z 30005KT 10SM BKN025 M08/M12 A2990 880 74 -1600 300/05 RMK AO2
14837KMSN MSN20060221040509902/21/06 04:05:31  5-MIN KMSN 211005Z 29005KT 10SM SCT025 M08/M12 A2991 880 74 -1600 290/05 RMK AO2
14837KMSN MSN20060221041009902/21/06 04:10:31  5-MIN KMSN 211010Z 28005KT 10SM SCT025 M08/M12 A2991 880 74 -1700 280/05 RMK AO2
14837KMSN MSN20060221041509902/21/06 04:15:31  5-MIN KMSN 211015Z 29006KT 10SM FEW025 M08/M12 A2991 870 71 -1600 290/06 RMK AO2
14837KMSN MSN20060221042009902/21/06 04:20:31  5-MIN KMSN 211020Z 29005KT 10SM FEW025 M08/M12 A2991 870 74 -1700 290/05 RMK AO2
14837KMSN MSN20060221042509602/21/06 04:25:31  5-MIN KMSN 211025Z 29004KT 10SM CLR M08/M12 A2992 870 74 -1700 290/04 RMK AO2
14837KMSN MSN20060221043009602/21/06 04:30:31  5-MIN KMSN 211030Z 29005KT 10SM CLR M09/M12 A2991 870 77 -1800 290/05 RMK AO2
14837KMSN MSN20060221043509602/21/06 04:35:31  5-MIN KMSN 211035Z 30005KT 10SM CLR M08/M12 A2991 870 74 -1700 300/05 RMK AO2
14837KMSN MSN20060221044009602/21/06 04:40:31  5-MIN KMSN 211040Z VRB03KT 10SM CLR M08/M12 A2992 870 74 -1700 VRB/03 RMK AO2
14837KMSN MSN20060221044509602/21/06 04:45:31  5-MIN KMSN 211045Z 30003KT 10SM CLR M09/M12 A2992 870 77 -1800 300/03 RMK AO2
14837KMSN MSN20060221045011302/21/06 04:50:31  5-MIN KMSN 211050Z VRB03KT 10SM CLR M09/M13 A2992 860 74 -1800 VRB/03 RMK AO2 SLP145 T10891128
14837KMSN MSN20060221045509602/21/06 04:55:31  5-MIN KMSN 211055Z 28003KT 10SM CLR M09/M13 A2992 860 74 -1800 280/03 RMK AO2
14837KMSN MSN20060221050009602/21/06 05:00:31  5-MIN KMSN 211100Z 29005KT 10SM CLR M09/M13 A2992 860 77 -1900 290/05 RMK AO2
14837KMSN MSN20060221050509602/21/06 05:05:31  5-MIN KMSN 211105Z 29005KT 10SM CLR M09/M13 A2992 860 77 -1900 290/05 RMK AO2
14837KMSN MSN20060221051009602/21/06 05:10:31  5-MIN KMSN 211110Z 28004KT 10SM CLR M11/M13 A2992 860 80 -2000 280/04 RMK AO2
14837KMSN MSN20060221051509602/21/06 05:15:31  5-MIN KMSN 211115Z 28003KT 10SM CLR M11/M14 A2992 860 80 -2100 280/03 RMK AO2
14837KMSN MSN20060221052009602/21/06 05:20:31  5-MIN KMSN 211120Z 00000KT 10SM CLR M11/M13 A2993 860 80 -2000 000/00 RMK AO2
14837KMSN MSN20060221052509602/21/06 05:25:31  5-MIN KMSN 211125Z 00000KT 10SM CLR M09/M13 A2993 860 77 -1900 000/00 RMK AO2
14837KMSN MSN20060221053009602/21/06 05:30:31  5-MIN KMSN 211130Z 00000KT 10SM CLR M11/M13 A2993 850 80 -2000 000/00 RMK AO2
14837KMSN MSN20060221053509602/21/06 05:35:31  5-MIN KMSN 211135Z 24003KT 10SM CLR M10/M13 A2993 850 77 -2000 240/03 RMK AO2
14837KMSN MSN20060221054009602/21/06 05:40:31  5-MIN KMSN 211140Z 26003KT 10SM CLR M10/M13 A2994 850 77 -2000 260/03 RMK AO2
14837KMSN MSN20060221054510202/21/06 05:45:31  5-MIN KMSN 211145Z 24003KT 10SM CLR M11/M13 A2994 850 80 -2000 240/03 RMK AO2 4/006
14837KMSN MSN20060221055013702/21/06 05:50:31  5-MIN KMSN 211150Z 00000KT 10SM CLR M09/M13 A2994 850 77 -1900 000/00 RMK AO2 SLP153 4/006 T10941128 11050 21111 51019
14837KMSN MSN20060221055509602/21/06 05:55:31  5-MIN KMSN 211155Z 25003KT 10SM CLR M10/M13 A2994 850 80 -2000 250/03 RMK AO2
14837KMSN MSN20060221060009602/21/06 06:00:31  5-MIN KMSN 211200Z 00000KT 10SM CLR M11/M13 A2994 850 80 -2000 000/00 RMK AO2
14837KMSN MSN20060221060509602/21/06 06:05:31  5-MIN KMSN 211205Z 00000KT 10SM CLR M11/M13 A2994 850 84 -2100 000/00 RMK AO2
14837KMSN MSN20060221061009502/21/06 06:10:31  5-MIN KMSN 211210Z 00000KT 9SM CLR M12/M14 A2994 840 87 -2300 000/00 RMK AO2
14837KMSN MSN20060221061509602/21/06 06:15:31  5-MIN KMSN 211215Z 00000KT 10SM CLR M11/M14 A2994 840 77 -2100 000/00 RMK AO2
14837KMSN MSN20060221062009602/21/06 06:20:31  5-MIN KMSN 211220Z 29003KT 10SM CLR M11/M13 A2994 850 80 -2000 290/03 RMK AO2
14837KMSN MSN20060221062509602/21/06 06:25:31  5-MIN KMSN 211225Z 29003KT 10SM CLR M11/M13 A2994 840 84 -2100 290/03 RMK AO2
14837KMSN MSN20060221063009602/21/06 06:30:31  5-MIN KMSN 211230Z 28003KT 10SM CLR M12/M14 A2995 840 84 -2200 280/03 RMK AO2
14837KMSN MSN20060221063509502/21/06 06:35:31  5-MIN KMSN 211235Z 00000KT 9SM CLR M12/M14 A2995 830 84 -2200 000/00 RMK AO2
14837KMSN MSN20060221064009602/21/06 06:40:31  5-MIN KMSN 211240Z VRB03KT 10SM CLR M11/M14 A2996 830 80 -2100 VRB/03 RMK AO2
14837KMSN MSN20060221064509502/21/06 06:45:31  5-MIN KMSN 211245Z VRB04KT 9SM CLR M11/M13 A2996 830 80 -2100 VRB/04 RMK AO2
14837KMSN MSN20060221065011202/21/06 06:50:31  5-MIN KMSN 211250Z 27003KT 9SM CLR M10/M13 A2996 830 80 -2000 270/03 RMK AO2 SLP159 T11001128
14837KMSN MSN20060221065509502/21/06 06:55:31  5-MIN KMSN 211255Z 00000KT 9SM CLR M11/M14 A2996 830 80 -2100 000/00 RMK AO2
14837KMSN MSN20060221070009502/21/06 07:00:31  5-MIN KMSN 211300Z 25003KT 9SM CLR M11/M13 A2996 830 80 -2100 240/03 RMK AO2
14837KMSN MSN20060221070509502/21/06 07:05:31  5-MIN KMSN 211305Z 27005KT 9SM CLR M10/M13 A2996 830 80 -2000 270/05 RMK AO2
14837KMSN MSN20060221071009502/21/06 07:10:31  5-MIN KMSN 211310Z VRB03KT 9SM CLR M10/M13 A2996 830 80 -2000 VRB/03 RMK AO2
14837KMSN MSN20060221071509502/21/06 07:15:31  5-MIN KMSN 211315Z VRB03KT 8SM CLR M10/M13 A2996 830 80 -2000 VRB/03 RMK AO2
14837KMSN MSN20060221072009502/21/06 07:20:31  5-MIN KMSN 211320Z 27004KT 8SM CLR M09/M13 A2996 830 77 -1900 270/04 RMK AO2
14837KMSN MSN20060221072509502/21/06 07:25:31  5-MIN KMSN 211325Z 00000KT 8SM CLR M10/M13 A2996 830 80 -2000 000/00 RMK AO2
14837KMSN MSN20060221170009602/21/06 17:00:31  5-MIN KMSN 212300Z 20007KT 10SM CLR M03/M12 A2990 880 48 -1000 200/07 RMK AO2
14837KMSN MSN20060221170509602/21/06 17:05:31  5-MIN KMSN 212305Z 19005KT 10SM CLR M03/M12 A2990 890 50 -1100 190/05 RMK AO2
14837KMSN MSN20060221171009602/21/06 17:10:31  5-MIN KMSN 212310Z 19005KT 10SM CLR M03/M12 A2989 890 50 -1100 190/05 RMK AO2
14837KMSN MSN20060221171509602/21/06 17:15:31  5-MIN KMSN 212315Z 18007KT 10SM CLR M03/M12 A2989 890 50 -1100 180/07 RMK AO2
14837KMSN MSN20060221172009602/21/06 17:20:31  5-MIN KMSN 212320Z 19007KT 10SM CLR M03/M12 A2989 890 50 -1100 190/07 RMK AO2
14837KMSN MSN20060221172509602/21/06 17:25:31  5-MIN KMSN 212325Z 19007KT 10SM CLR M04/M12 A2989 900 52 -1100 190/07 RMK AO2
14837KMSN MSN20060221173009602/21/06 17:30:31  5-MIN KMSN 212330Z 19007KT 10SM CLR M03/M12 A2988 900 50 -1000 190/07 RMK AO2
14837KMSN MSN20060221173509602/21/06 17:35:31  5-MIN KMSN 212335Z 20007KT 10SM CLR M03/M12 A2989 900 50 -1000 200/07 RMK AO2
14837KMSN MSN20060221174009602/21/06 17:40:31  5-MIN KMSN 212340Z 20007KT 10SM CLR M03/M13 A2988 900 48 -1000 200/07 RMK AO2
14837KMSN MSN20060221174510202/21/06 17:45:31  5-MIN KMSN 212345Z 19006KT 10SM CLR M03/M13 A2988 900 48 -1000 190/06 RMK AO2 4/006
14837KMSN MSN20060221175013702/21/06 17:50:31  5-MIN KMSN 212350Z 19006KT 10SM CLR M04/M13 A2988 900 50 -1100 190/06 RMK AO2 SLP132 4/006 T10391128 11022 21044 56017
14837KMSN MSN20060221175509602/21/06 17:55:31  5-MIN KMSN 212355Z 18007KT 10SM CLR M04/M13 A2988 900 50 -1100 180/07 RMK AO2
14837KMSN MSN20060221180009602/21/06 18:00:31  5-MIN KMSN 220000Z 17006KT 10SM CLR M04/M12 A2988 900 55 -1200 170/06 RMK AO2
14837KMSN MSN20060221180509602/21/06 18:05:31  5-MIN KMSN 220005Z 17007KT 10SM CLR M06/M12 A2988 900 59 -1300 170/07 RMK AO2
14837KMSN MSN20060221181009602/21/06 18:10:31  5-MIN KMSN 220010Z 18006KT 10SM CLR M04/M12 A2988 900 55 -1200 180/06 RMK AO2
14837KMSN MSN20060221181509602/21/06 18:15:31  5-MIN KMSN 220015Z 17006KT 10SM CLR M04/M12 A2988 900 55 -1200 170/06 RMK AO2
14837KMSN MSN20060221182009602/21/06 18:20:31  5-MIN KMSN 220020Z 17005KT 10SM CLR M05/M12 A2988 900 57 -1300 170/05 RMK AO2
14837KMSN MSN20060221182509602/21/06 18:25:31  5-MIN KMSN 220025Z 16005KT 10SM CLR M05/M12 A2988 900 57 -1300 160/05 RMK AO2
14837KMSN MSN20060221183009602/21/06 18:30:31  5-MIN KMSN 220030Z 17006KT 10SM CLR M06/M12 A2988 900 59 -1300 170/06 RMK AO2
14837KMSN MSN20060221183509602/21/06 18:35:31  5-MIN KMSN 220035Z 17007KT 10SM CLR M05/M12 A2988 900 57 -1300 170/07 RMK AO2
14837KMSN MSN20060221184009602/21/06 18:40:31  5-MIN KMSN 220040Z 18006KT 10SM CLR M05/M12 A2988 900 57 -1300 170/06 RMK AO2
14837KMSN MSN20060221184509602/21/06 18:45:31  5-MIN KMSN 220045Z 18006KT 10SM CLR M05/M12 A2988 900 57 -1300 180/06 RMK AO2
14837KMSN MSN20060221185011302/21/06 18:50:31  5-MIN KMSN 220050Z 18007KT 10SM CLR M05/M12 A2988 900 57 -1300 180/07 RMK AO2 SLP133 T10501122
14837KMSN MSN20060221185509602/21/06 18:55:31  5-MIN KMSN 220055Z 18006KT 10SM CLR M05/M12 A2988 900 57 -1300 180/06 RMK AO2
14837KMSN MSN20060221190009602/21/06 19:00:31  5-MIN KMSN 220100Z 18006KT 10SM CLR M05/M12 A2988 900 60 -1300 180/06 RMK AO2
14837KMSN MSN20060221190509602/21/06 19:05:31  5-MIN KMSN 220105Z 18005KT 10SM CLR M06/M12 A2989 890 59 -1300 180/05 RMK AO2
14837KMSN MSN20060221191009602/21/06 19:10:31  5-MIN KMSN 220110Z 18005KT 10SM CLR M06/M12 A2989 900 62 -1300 180/05 RMK AO2
14837KMSN MSN20060221191509602/21/06 19:15:31  5-MIN KMSN 220115Z 17005KT 10SM CLR M06/M12 A2988 900 62 -1300 170/05 RMK AO2
14837KMSN MSN20060221192009602/21/06 19:20:31  5-MIN KMSN 220120Z 18005KT 10SM CLR M06/M12 A2988 900 62 -1300 180/05 RMK AO2
14837KMSN MSN20060221192509602/21/06 19:25:31  5-MIN KMSN 220125Z 18005KT 10SM CLR M06/M12 A2988 900 62 -1300 180/05 RMK AO2
14837KMSN MSN20060221193009602/21/06 19:30:31  5-MIN KMSN 220130Z 18005KT 10SM CLR M06/M12 A2989 900 62 -1300 180/05 RMK AO2
14837KMSN MSN20060221193509602/21/06 19:35:31  5-MIN KMSN 220135Z 18005KT 10SM CLR M06/M12 A2989 890 62 -1300 180/05 RMK AO2
14837KMSN MSN20060221194009602/21/06 19:40:31  5-MIN KMSN 220140Z 18005KT 10SM CLR M06/M12 A2989 900 62 -1300 180/05 RMK AO2
14837KMSN MSN20060221194509602/21/06 19:45:31  5-MIN KMSN 220145Z 18004KT 10SM CLR M06/M12 A2989 900 65 -1400 180/04 RMK AO2
14837KMSN MSN20060221195011302/21/06 19:50:31  5-MIN KMSN 220150Z 18004KT 10SM CLR M06/M12 A2988 900 65 -1400 180/04 RMK AO2 SLP135 T10611117
14837KMSN MSN20060221195509602/21/06 19:55:31  5-MIN KMSN 220155Z 17005KT 10SM CLR M06/M12 A2988 900 65 -1400 170/05 RMK AO2
14837KMSN MSN20060221200009602/21/06 20:00:31  5-MIN KMSN 220200Z 18006KT 10SM CLR M06/M12 A2988 900 65 -1400 170/06 RMK AO2
14837KMSN MSN20060221200509602/21/06 20:05:31  5-MIN KMSN 220205Z 17004KT 10SM CLR M06/M12 A2987 910 65 -1400 170/04 RMK AO2
14837KMSN MSN20060221201009602/21/06 20:10:31  5-MIN KMSN 220210Z 17006KT 10SM CLR M06/M12 A2987 910 65 -1400 170/06 RMK AO2
14837KMSN MSN20060221201509602/21/06 20:15:31  5-MIN KMSN 220215Z 18005KT 10SM CLR M06/M12 A2987 910 62 -1400 170/05 RMK AO2
14837KMSN MSN20060221202009602/21/06 20:20:31  5-MIN KMSN 220220Z 17006KT 10SM CLR M06/M12 A2987 910 62 -1400 170/06 RMK AO2
14837KMSN MSN20060221202509602/21/06 20:25:31  5-MIN KMSN 220225Z 18004KT 10SM CLR M06/M12 A2987 910 62 -1400 180/04 RMK AO2
14837KMSN MSN20060221203009602/21/06 20:30:31  5-MIN KMSN 220230Z 17004KT 10SM CLR M06/M12 A2987 910 62 -1400 170/04 RMK AO2
14837KMSN MSN20060221203509602/21/06 20:35:31  5-MIN KMSN 220235Z 18005KT 10SM CLR M06/M12 A2987 910 62 -1400 180/05 RMK AO2
14837KMSN MSN20060221204009602/21/06 20:40:31  5-MIN KMSN 220240Z 17007KT 10SM CLR M06/M12 A2987 920 62 -1400 170/07 RMK AO2
14837KMSN MSN20060221204509602/21/06 20:45:31  5-MIN KMSN 220245Z 18005KT 10SM CLR M06/M12 A2986 920 62 -1400 170/05 RMK AO2
14837KMSN MSN20060221205011902/21/06 20:50:31  5-MIN KMSN 220250Z 17006KT 10SM CLR M07/M12 A2986 920 65 -1500 170/06 RMK AO2 SLP127 T10671122 58023
14837KMSN MSN20060221205509602/21/06 20:55:31  5-MIN KMSN 220255Z 18005KT 10SM CLR M07/M12 A2986 920 65 -1400 180/05 RMK AO2
14837KMSN MSN20060221210009602/21/06 21:00:31  5-MIN KMSN 220300Z 17005KT 10SM CLR M07/M12 A2986 920 65 -1400 170/05 RMK AO2
14837KMSN MSN20060221210509602/21/06 21:05:31  5-MIN KMSN 220305Z 17005KT 10SM CLR M07/M13 A2986 920 65 -1500 170/05 RMK AO2
14837KMSN MSN20060221211009602/21/06 21:10:31  5-MIN KMSN 220310Z 17006KT 10SM CLR M07/M12 A2986 920 68 -1500 170/06 RMK AO2
14837KMSN MSN20060221211509602/21/06 21:15:31  5-MIN KMSN 220315Z 18004KT 10SM CLR M07/M12 A2985 930 68 -1500 180/04 RMK AO2
14837KMSN MSN20060221212009602/21/06 21:20:31  5-MIN KMSN 220320Z 18004KT 10SM CLR M07/M12 A2985 930 65 -1400 180/04 RMK AO2
14837KMSN MSN20060221212509602/21/06 21:25:31  5-MIN KMSN 220325Z 18003KT 10SM CLR M07/M12 A2985 930 65 -1400 180/03 RMK AO2
14837KMSN MSN20060221213009602/21/06 21:30:31  5-MIN KMSN 220330Z 17004KT 10SM CLR M07/M12 A2984 930 65 -1400 160/04 RMK AO2
14837KMSN MSN20060221213509602/21/06 21:35:31  5-MIN KMSN 220335Z 17005KT 10SM CLR M07/M12 A2984 930 68 -1500 170/05 RMK AO2
14837KMSN MSN20060221214009602/21/06 21:40:31  5-MIN KMSN 220340Z 17006KT 10SM CLR M07/M12 A2984 940 68 -1500 170/06 RMK AO2
14837KMSN MSN20060221214509902/21/06 21:45:31  5-MIN KMSN 220345Z 17005KT 10SM FEW070 M07/M12 A2984 940 68 -1500 170/05 RMK AO2
14837KMSN MSN20060221215011602/21/06 21:50:31  5-MIN KMSN 220350Z 17005KT 10SM BKN070 M07/M12 A2984 940 65 -1400 170/05 RMK AO2 SLP118 T10671122
14837KMSN MSN20060221215509902/21/06 21:55:31  5-MIN KMSN 220355Z 17004KT 10SM BKN070 M06/M12 A2984 940 65 -1300 170/04 RMK AO2
14837KMSN MSN20060221220009902/21/06 22:00:31  5-MIN KMSN 220400Z 17005KT 10SM BKN070 M06/M12 A2983 940 65 -1300 170/05 RMK AO2
14837KMSN MSN20060221220509902/21/06 22:05:31  5-MIN KMSN 220405Z 17005KT 10SM BKN075 M06/M12 A2983 950 65 -1300 160/05 RMK AO2
14837KMSN MSN20060221221009902/21/06 22:10:31  5-MIN KMSN 220410Z 16005KT 10SM OVC075 M07/M12 A2982 950 68 -1400 160/05 RMK AO2
14837KMSN MSN20060221221509902/21/06 22:15:31  5-MIN KMSN 220415Z 16007KT 10SM OVC075 M06/M12 A2982 960 65 -1300 160/07 RMK AO2
14837KMSN MSN20060221222009902/21/06 22:20:31  5-MIN KMSN 220420Z 17008KT 10SM OVC075 M06/M11 A2982 960 68 -1300 160/08 RMK AO2
14837KMSN MSN20060221222509902/21/06 22:25:31  5-MIN KMSN 220425Z 17008KT 10SM OVC075 M06/M11 A2982 960 65 -1300 170/08 RMK AO2
14837KMSN MSN20060221223009902/21/06 22:30:31  5-MIN KMSN 220430Z 17007KT 10SM OVC075 M06/M11 A2981 960 68 -1300 170/07 RMK AO2
14837KMSN MSN20060221223509902/21/06 22:35:31  5-MIN KMSN 220435Z 17007KT 10SM OVC080 M05/M11 A2981 970 65 -1200 170/07 RMK AO2
14837KMSN MSN20060221224009902/21/06 22:40:31  5-MIN KMSN 220440Z 18006KT 10SM OVC080 M05/M11 A2981 960 65 -1200 170/06 RMK AO2
14837KMSN MSN20060221224509902/21/06 22:45:31  5-MIN KMSN 220445Z 18006KT 10SM OVC080 M05/M11 A2981 970 65 -1200 180/06 RMK AO2
14837KMSN MSN20060221225011602/21/06 22:50:31  5-MIN KMSN 220450Z 16010KT 10SM OVC080 M05/M11 A2980 970 65 -1200 160/10 RMK AO2 SLP106 T10501106
14837KMSN MSN20060221225509902/21/06 22:55:31  5-MIN KMSN 220455Z 17008KT 10SM OVC080 M05/M11 A2981 970 65 -1200 170/08 RMK AO2
14837KMSN MSN20060221230009902/21/06 23:00:31  5-MIN KMSN 220500Z 19006KT 10SM OVC080 M04/M11 A2981 970 62 -1100 180/06 RMK AO2
14837KMSN MSN20060221230509902/21/06 23:05:31  5-MIN KMSN 220505Z 17007KT 10SM OVC080 M04/M11 A2980 970 62 -1100 170/07 RMK AO2
14837KMSN MSN20060221231009902/21/06 23:10:31  5-MIN KMSN 220510Z 22005KT 10SM OVC080 M04/M11 A2981 970 60 -1000 220/05 RMK AO2
14837KMSN MSN20060221231509902/21/06 23:15:31  5-MIN KMSN 220515Z 18007KT 10SM OVC080 M04/M11 A2980 970 62 -1100 180/07 RMK AO2
14837KMSN MSN20060221232009902/21/06 23:20:31  5-MIN KMSN 220520Z 20006KT 10SM OVC080 M04/M11 A2980 970 62 -1100 190/06 RMK AO2
14837KMSN MSN20060221232509902/21/06 23:25:31  5-MIN KMSN 220525Z VRB06KT 10SM OVC080 M04/M11 A2980 980 62 -1100 VRB/06 RMK AO2
14837KMSN MSN20060221233009902/21/06 23:30:31  5-MIN KMSN 220530Z 19006KT 10SM BKN080 M04/M11 A2980 980 62 -1100 190/06 RMK AO2
14837KMSN MSN20060221233509902/21/06 23:35:31  5-MIN KMSN 220535Z 19005KT 10SM BKN080 M04/M11 A2979 980 62 -1100 190/05 RMK AO2
14837KMSN MSN20060221234009902/21/06 23:40:31  5-MIN KMSN 220540Z 18008KT 10SM BKN080 M04/M11 A2979 980 62 -1100 180/08 RMK AO2
14837KMSN MSN20060221234509902/21/06 23:45:31  5-MIN KMSN 220545Z VRB06KT 10SM OVC080 M04/M10 A2980 970 65 -1100 VRB/06 RMK AO2
14837KMSN MSN20060221235016602/21/06 23:50:31  5-MIN KMSN 220550Z 20008KT 160V260 10SM OVC080 M04/M10 A2980 980 63 -1000 200/08 160V260 RMK AO2 SLP102 4/006 T10391100 11039 21072 410221122 58006
14837KMSN MSN20060221235509902/21/06 23:55:31  5-MIN KMSN 220555Z 17008KT 10SM BKN080 M04/M10 A2979 980 63 -1000 170/08 RMK AO2
14837KMSN MSN20060222000009802/22/06 00:00:38  5-MIN KMSN 220600Z 19009KT 10SM OVC080 M03/M09 A2979 980 63 -900 190/09 RMK AO2
14837KMSN MSN20060222000509802/22/06 00:05:31  5-MIN KMSN 220605Z 20007KT 10SM OVC080 M03/M09 A2979 980 63 -900 200/07 RMK AO2
14837KMSN MSN20060222001009802/22/06 00:10:31  5-MIN KMSN 220610Z 20009KT 10SM BKN080 M03/M09 A2980 980 63 -900 200/09 RMK AO2
14837KMSN MSN20060222001509802/22/06 00:15:31  5-MIN KMSN 220615Z 20011KT 10SM BKN075 M03/M09 A2980 980 63 -900 200/11 RMK AO2
14837KMSN MSN20060222002009802/22/06 00:20:31  5-MIN KMSN 220620Z 20008KT 10SM BKN075 M03/M09 A2979 980 60 -900 200/08 RMK AO2
14837KMSN MSN20060222002509802/22/06 00:25:31  5-MIN KMSN 220625Z 20010KT 10SM SCT080 M03/M09 A2980 980 63 -900 200/10 RMK AO2
14837KMSN MSN20060222003009802/22/06 00:30:31  5-MIN KMSN 220630Z 19008KT 10SM FEW080 M03/M09 A2980 980 63 -900 190/08 RMK AO2
14837KMSN MSN20060222003509802/22/06 00:35:31  5-MIN KMSN 220635Z 19009KT 10SM SCT085 M03/M09 A2980 980 63 -900 190/09 RMK AO2
14837KMSN MSN20060222004009802/22/06 00:40:31  5-MIN KMSN 220640Z 20007KT 10SM BKN085 M03/M09 A2980 970 63 -900 200/07 RMK AO2
14837KMSN MSN20060222004509802/22/06 00:45:31  5-MIN KMSN 220645Z 21005KT 10SM BKN085 M03/M09 A2980 970 63 -900 200/05 RMK AO2
14837KMSN MSN20060222005011502/22/06 00:50:31  5-MIN KMSN 220650Z 21006KT 10SM BKN085 M02/M08 A2981 970 63 -800 210/06 RMK AO2 SLP104 T10221083
14837KMSN MSN20060222005510502/22/06 00:55:31  5-MIN KMSN 220655Z 23005KT 10SM FEW070 OVC090 M02/M08 A2981 970 63 -800 220/05 RMK AO2
14837KMSN MSN20060222010010502/22/06 01:00:31  5-MIN KMSN 220700Z 22005KT 10SM SCT070 OVC090 M02/M08 A2981 970 63 -800 220/05 RMK AO2
14837KMSN MSN20060222010510502/22/06 01:05:31  5-MIN KMSN 220705Z 22007KT 10SM SCT075 OVC090 M02/M08 A2981 970 63 -700 220/07 RMK AO2
14837KMSN MSN20060222011010502/22/06 01:10:31  5-MIN KMSN 220710Z 22007KT 10SM SCT075 OVC090 M02/M08 A2981 970 63 -700 220/07 RMK AO2
14837KMSN MSN20060222011509802/22/06 01:15:31  5-MIN KMSN 220715Z 23007KT 10SM OVC085 M02/M08 A2981 970 63 -700 230/07 RMK AO2
14837KMSN MSN20060222012010502/22/06 01:20:31  5-MIN KMSN 220720Z 23008KT 10SM BKN080 BKN100 M02/M08 A2981 970 63 -700 230/08 RMK AO2
14837KMSN MSN20060222012510502/22/06 01:25:31  5-MIN KMSN 220725Z 23007KT 10SM SCT080 BKN100 M02/M08 A2981 970 63 -700 230/07 RMK AO2
14837KMSN MSN20060222013009802/22/06 01:30:31  5-MIN KMSN 220730Z 23007KT 10SM SCT090 M02/M08 A2981 970 63 -700 230/07 RMK AO2
14837KMSN MSN20060222013509802/22/06 01:35:31  5-MIN KMSN 220735Z 23007KT 10SM FEW085 M02/M08 A2981 970 66 -800 230/07 RMK AO2
14837KMSN MSN20060222014009802/22/06 01:40:31  5-MIN KMSN 220740Z 23007KT 10SM FEW085 M02/M08 A2981 970 66 -800 230/07 RMK AO2
14837KMSN MSN20060222014509802/22/06 01:45:31  5-MIN KMSN 220745Z 22005KT 10SM FEW085 M02/M07 A2981 970 69 -800 220/05 RMK AO2
14837KMSN MSN20060222015011502/22/06 01:50:31  5-MIN KMSN 220750Z 23006KT 10SM FEW085 M02/M07 A2980 970 69 -800 230/06 RMK AO2 SLP104 T10221072
14837KMSN MSN20060222015509802/22/06 01:55:31  5-MIN KMSN 220755Z 22007KT 10SM FEW085 M02/M07 A2980 970 69 -800 220/07 RMK AO2
14837KMSN MSN20060222020009802/22/06 02:00:31  5-MIN KMSN 220800Z 22006KT 10SM FEW085 M02/M07 A2980 970 69 -800 220/06 RMK AO2
14837KMSN MSN20060222020509802/22/06 02:05:31  5-MIN KMSN 220805Z 22006KT 10SM FEW085 M02/M07 A2980 970 69 -800 220/06 RMK AO2
14837KMSN MSN20060222021009502/22/06 02:10:31  5-MIN KMSN 220810Z 22007KT 10SM CLR M02/M07 A2980 970 69 -800 220/07 RMK AO2
14837KMSN MSN20060222021509502/22/06 02:15:31  5-MIN KMSN 220815Z 22006KT 10SM CLR M02/M07 A2980 980 66 -700 220/06 RMK AO2
14837KMSN MSN20060222022009802/22/06 02:20:31  5-MIN KMSN 220820Z 22005KT 10SM FEW060 M02/M07 A2980 980 69 -800 220/05 RMK AO2
14837KMSN MSN20060222022509802/22/06 02:25:31  5-MIN KMSN 220825Z 22006KT 10SM FEW060 M02/M07 A2980 980 66 -700 220/06 RMK AO2
14837KMSN MSN20060222023009502/22/06 02:30:31  5-MIN KMSN 220830Z 20005KT 10SM CLR M02/M07 A2979 980 69 -800 200/05 RMK AO2
14837KMSN MSN20060222023509502/22/06 02:35:31  5-MIN KMSN 220835Z 20006KT 10SM CLR M02/M07 A2979 980 69 -800 200/06 RMK AO2
14837KMSN MSN20060222024009502/22/06 02:40:31  5-MIN KMSN 220840Z 20007KT 10SM CLR M03/M07 A2979 990 71 -900 200/07 RMK AO2
14837KMSN MSN20060222024509502/22/06 02:45:31  5-MIN KMSN 220845Z 20007KT 10SM CLR M02/M07 A2978 990 69 -800 190/07 RMK AO2
14837KMSN MSN20060222025011802/22/06 02:50:31  5-MIN KMSN 220850Z 20008KT 10SM CLR M02/M08 A2978 990 66 -800 200/08 RMK AO2 SLP096 T10221078 56021
14837KMSN MSN20060222025509502/22/06 02:55:31  5-MIN KMSN 220855Z 20007KT 10SM CLR M03/M07 A2978 990 71 -900 200/07 RMK AO2
14837KMSN MSN20060222030009602/22/06 03:00:31  5-MIN KMSN 220900Z 20009KT 10SM CLR M02/M07 A2978 1000 69 -800 200/09 RMK AO2
14837KMSN MSN20060222030509602/22/06 03:05:31  5-MIN KMSN 220905Z 21006KT 10SM CLR M02/M07 A2978 1000 69 -800 210/06 RMK AO2
14837KMSN MSN20060222031009802/22/06 03:10:31  5-MIN KMSN 220910Z 22006KT 10SM FEW085 M02/M07 A2978 990 69 -800 210/06 RMK AO2
14837KMSN MSN20060222031509902/22/06 03:15:31  5-MIN KMSN 220915Z 23005KT 10SM SCT080 M03/M07 A2978 1000 71 -900 230/05 RMK AO2
14837KMSN MSN20060222032009902/22/06 03:20:31  5-MIN KMSN 220920Z 23003KT 10SM BKN080 M03/M08 A2977 1000 68 -800 230/03 RMK AO2
14837KMSN MSN20060222032509902/22/06 03:25:31  5-MIN KMSN 220925Z 23004KT 10SM SCT080 M03/M08 A2977 1000 71 -900 230/04 RMK AO2
14837KMSN MSN20060222033009902/22/06 03:30:31  5-MIN KMSN 220930Z 22005KT 10SM SCT080 M03/M08 A2977 1000 68 -800 220/05 RMK AO2
14837KMSN MSN20060222033509902/22/06 03:35:31  5-MIN KMSN 220935Z 23004KT 10SM SCT080 M03/M07 A2977 1000 71 -800 230/04 RMK AO2
14837KMSN MSN20060222034009902/22/06 03:40:31  5-MIN KMSN 220940Z 23004KT 10SM FEW080 M03/M07 A2977 1000 71 -800 230/04 RMK AO2
14837KMSN MSN20060222034509502/22/06 03:45:31  5-MIN KMSN 220945Z 23005KT 9SM CLR M03/M07 A2977 1000 71 -800 230/05 RMK AO2
14837KMSN MSN20060222035011202/22/06 03:50:31  5-MIN KMSN 220950Z 23005KT 9SM CLR M03/M07 A2977 1000 71 -800 220/05 RMK AO2 SLP092 T10281072
14837KMSN MSN20060222035509502/22/06 03:55:31  5-MIN KMSN 220955Z 23004KT 9SM CLR M03/M07 A2976 1010 71 -800 230/04 RMK AO2
14837KMSN MSN20060222040009602/22/06 04:00:31  5-MIN KMSN 221000Z 00000KT 9SM CLR M04/M08 A2976 1010 74 -1000 000/00 RMK AO2
14837KMSN MSN20060222040509602/22/06 04:05:31  5-MIN KMSN 221005Z 00000KT 9SM CLR M04/M08 A2977 1010 78 -1100 000/00 RMK AO2
14837KMSN MSN20060222041009602/22/06 04:10:31  5-MIN KMSN 221010Z 21003KT 9SM CLR M04/M08 A2977 1010 74 -1000 210/03 RMK AO2
14837KMSN MSN20060222041509602/22/06 04:15:31  5-MIN KMSN 221015Z 00000KT 9SM CLR M04/M07 A2976 1010 78 -1000 000/00 RMK AO2
14837KMSN MSN20060222042009602/22/06 04:20:31  5-MIN KMSN 221020Z 23003KT 9SM CLR M04/M07 A2976 1010 78 -1000 230/03 RMK AO2
14837KMSN MSN20060222042509602/22/06 04:25:31  5-MIN KMSN 221025Z VRB04KT 9SM CLR M04/M08 A2976 1010 74 -1000 VRB/04 RMK AO2
14837KMSN MSN20060222043009602/22/06 04:30:31  5-MIN KMSN 221030Z VRB03KT 9SM CLR M04/M08 A2977 1010 78 -1100 VRB/03 RMK AO2
14837KMSN MSN20060222043509602/22/06 04:35:31  5-MIN KMSN 221035Z 24004KT 9SM CLR M04/M08 A2977 1010 74 -1000 240/04 RMK AO2
14837KMSN MSN20060222044009602/22/06 04:40:31  5-MIN KMSN 221040Z VRB04KT 9SM CLR M04/M08 A2977 1000 74 -1000 VRB/04 RMK AO2
14837KMSN MSN20060222044509602/22/06 04:45:31  5-MIN KMSN 221045Z VRB03KT 9SM CLR M04/M08 A2977 1000 74 -1000 VRB/03 RMK AO2
14837KMSN MSN20060222045011302/22/06 04:50:31  5-MIN KMSN 221050Z VRB03KT 9SM CLR M04/M08 A2977 1010 74 -1000 VRB/03 RMK AO2 SLP091 T10391078
14837KMSN MSN20060222045509602/22/06 04:55:31  5-MIN KMSN 221055Z 25003KT 8SM CLR M05/M08 A2977 1010 81 -1100 250/03 RMK AO2
14837KMSN MSN20060222050009602/22/06 05:00:31  5-MIN KMSN 221100Z 30003KT 8SM CLR M06/M08 A2976 1010 81 -1200 300/03 RMK AO2
14837KMSN MSN20060222050509602/22/06 05:05:31  5-MIN KMSN 221105Z 00000KT 8SM CLR M06/M08 A2977 1010 84 -1300 000/00 RMK AO2
14837KMSN MSN20060222051009602/22/06 05:10:31  5-MIN KMSN 221110Z 00000KT 7SM CLR M06/M09 A2977 1010 81 -1300 000/00 RMK AO2
14837KMSN MSN20060222051509602/22/06 05:15:31  5-MIN KMSN 221115Z 00000KT 8SM CLR M06/M09 A2977 1010 81 -1300 000/00 RMK AO2
14837KMSN MSN20060222052009602/22/06 05:20:31  5-MIN KMSN 221120Z VRB03KT 8SM CLR M06/M08 A2977 1000 84 -1300 VRB/03 RMK AO2
14837KMSN MSN20060222052509602/22/06 05:25:31  5-MIN KMSN 221125Z 00000KT 8SM CLR M05/M08 A2977 1000 81 -1100 000/00 RMK AO2
14837KMSN MSN20060222053009602/22/06 05:30:31  5-MIN KMSN 221130Z 00000KT 8SM CLR M07/M09 A2977 1000 81 -1300 000/00 RMK AO2
14837KMSN MSN20060222053509602/22/06 05:35:31  5-MIN KMSN 221135Z 00000KT 8SM CLR M07/M09 A2977 1000 84 -1400 000/00 RMK AO2
14837KMSN MSN20060222054010102/22/06 05:40:31  5-MIN KMSN 221140Z 00000KT 7SM CLR M09/M12 A2978 990 84 -1700 000/00 RMK AO2 4/006
14837KMSN MSN20060222054510102/22/06 05:45:31  5-MIN KMSN 221145Z 00000KT 7SM CLR M09/M12 A2978 990 84 -1700 000/00 RMK AO2 4/006
14837KMSN MSN20060222055013602/22/06 05:50:31  5-MIN KMSN 221150Z 23003KT 7SM CLR M07/M11 A2978 990 77 -1400 230/03 RMK AO2 SLP099 4/006 T10721106 11017 21100 58005
14837KMSN MSN20060222055509502/22/06 05:55:31  5-MIN KMSN 221155Z 00000KT 7SM CLR M09/M11 A2978 990 88 -1600 000/00 RMK AO2
14837KMSN MSN20060222060009502/22/06 06:00:31  5-MIN KMSN 221200Z 00000KT 7SM CLR M09/M11 A2979 990 88 -1700 000/00 RMK AO2
14837KMSN MSN20060222060509502/22/06 06:05:31  5-MIN KMSN 221205Z 00000KT 7SM CLR M10/M12 A2979 990 88 -1800 000/00 RMK AO2
14837KMSN MSN20060222061009802/22/06 06:10:31  5-MIN KMSN 221210Z 00000KT 6SM BR CLR M09/M11 A2979 990 84 -1700 000/00 RMK AO2
14837KMSN MSN20060222061509802/22/06 06:15:31  5-MIN KMSN 221215Z 00000KT 6SM BR CLR M09/M11 A2979 980 88 -1700 000/00 RMK AO2
14837KMSN MSN20060222062009802/22/06 06:20:31  5-MIN KMSN 221220Z 00000KT 6SM BR CLR M09/M11 A2979 980 88 -1700 000/00 RMK AO2
14837KMSN MSN20060222062509802/22/06 06:25:31  5-MIN KMSN 221225Z 12003KT 6SM BR CLR M09/M11 A2979 980 88 -1700 120/03 RMK AO2
14837KMSN MSN20060222063009802/22/06 06:30:31  5-MIN KMSN 221230Z 00000KT 6SM BR CLR M09/M11 A2979 980 84 -1700 000/00 RMK AO2
14837KMSN MSN20060222063509802/22/06 06:35:31  5-MIN KMSN 221235Z 00000KT 6SM BR CLR M10/M11 A2979 980 92 -1800 000/00 RMK AO2
14837KMSN MSN20060222064009802/22/06 06:40:31  5-MIN KMSN 221240Z 00000KT 5SM BR CLR M11/M12 A2979 980 92 -2000 000/00 RMK AO2
14837KMSN MSN20060222064509802/22/06 06:45:31  5-MIN KMSN 221245Z 00000KT 5SM BR CLR M11/M13 A2980 980 88 -2000 000/00 RMK AO2
14837KMSN MSN20060222065011502/22/06 06:50:31  5-MIN KMSN 221250Z 00000KT 4SM BR CLR M11/M12 A2980 980 88 -1900 000/00 RMK AO2 SLP105 T11061122
14837KMSN MSN20060222065509802/22/06 06:55:31  5-MIN KMSN 221255Z 00000KT 5SM BR CLR M11/M12 A2980 980 88 -1900 000/00 RMK AO2
14837KMSN MSN20060222070009802/22/06 07:00:31  5-MIN KMSN 221300Z 00000KT 4SM BR CLR M09/M12 A2980 980 84 -1700 000/00 RMK AO2
14837KMSN MSN20060222070509802/22/06 07:05:31  5-MIN KMSN 221305Z 00000KT 4SM BR CLR M10/M12 A2980 980 88 -1800 000/00 RMK AO2
14837KMSN MSN20060222071009802/22/06 07:10:31  5-MIN KMSN 221310Z 00000KT 4SM BR CLR M09/M11 A2980 980 84 -1700 000/00 RMK AO2
14837KMSN MSN20060222071509802/22/06 07:15:31  5-MIN KMSN 221315Z 00000KT 4SM BR CLR M09/M11 A2980 980 88 -1700 000/00 RMK AO2
14837KMSN MSN20060222072009802/22/06 07:20:31  5-MIN KMSN 221320Z 09003KT 4SM BR CLR M09/M11 A2980 970 88 -1700 080/03 RMK AO2
14837KMSN MSN20060222072509802/22/06 07:25:31  5-MIN KMSN 221325Z 09003KT 4SM BR CLR M09/M11 A2980 970 88 -1700 090/03 RMK AO2
14837KMSN MSN20060222073009802/22/06 07:30:31  5-MIN KMSN 221330Z 12003KT 4SM BR CLR M10/M11 A2981 970 92 -1800 120/03 RMK AO2
14837KMSN MSN20060222073509802/22/06 07:35:31  5-MIN KMSN 221335Z 00000KT 4SM BR CLR M09/M11 A2981 970 88 -1700 000/00 RMK AO2
14837KMSN MSN20060222074009802/22/06 07:40:31  5-MIN KMSN 221340Z 00000KT 4SM BR CLR M08/M10 A2981 960 88 -1600 000/00 RMK AO2
14837KMSN MSN20060222074509802/22/06 07:45:31  5-MIN KMSN 221345Z 20003KT 4SM BR CLR M08/M10 A2982 960 84 -1500 200/03 RMK AO2
14837KMSN MSN20060222075011502/22/06 07:50:31  5-MIN KMSN 221350Z 00000KT 6SM BR CLR M08/M10 A2982 960 84 -1500 000/00 RMK AO2 SLP111 T10781100
14837KMSN MSN20060222075509802/22/06 07:55:31  5-MIN KMSN 221355Z 00000KT 5SM BR CLR M07/M09 A2982 960 84 -1500 000/00 RMK AO2
14837KMSN MSN20060222080009802/22/06 08:00:31  5-MIN KMSN 221400Z 00000KT 5SM BR CLR M07/M09 A2982 950 84 -1500 000/00 RMK AO2
14837KMSN MSN20060222080509802/22/06 08:05:31  5-MIN KMSN 221405Z 00000KT 4SM BR CLR M07/M09 A2983 950 84 -1500 000/00 RMK AO2
14837KMSN MSN20060222081009802/22/06 08:10:31  5-MIN KMSN 221410Z 00000KT 4SM BR CLR M07/M09 A2983 950 84 -1500 000/00 RMK AO2
14837KMSN MSN20060222081509802/22/06 08:15:31  5-MIN KMSN 221415Z 00000KT 4SM BR CLR M07/M09 A2983 940 84 -1500 000/00 RMK AO2
14837KMSN MSN20060222082009802/22/06 08:20:31  5-MIN KMSN 221420Z 00000KT 5SM HZ CLR M06/M08 A2984 940 81 -1300 000/00 RMK AO2
14837KMSN MSN20060222082509802/22/06 08:25:31  5-MIN KMSN 221425Z 00000KT 6SM HZ CLR M04/M07 A2984 940 78 -1100 000/00 RMK AO2
14837KMSN MSN20060222083009402/22/06 08:30:31  5-MIN KMSN 221430Z 00000KT 8SM CLR M03/M06 A2984 940 78 -900 000/00 RMK AO2
14837KMSN MSN20060222083509402/22/06 08:35:31  5-MIN KMSN 221435Z 24004KT 9SM CLR M02/M06 A2985 930 78 -900 240/04 RMK AO2
14837KMSN MSN20060222084009402/22/06 08:40:31  5-MIN KMSN 221440Z 24004KT 9SM CLR M02/M06 A2985 930 78 -900 240/04 RMK AO2
14837KMSN MSN20060222084509402/22/06 08:45:31  5-MIN KMSN 221445Z VRB04KT 9SM CLR M02/M06 A2985 930 75 -800 VRB/04 RMK AO2
14837KMSN MSN20060222085011702/22/06 08:50:31  5-MIN KMSN 221450Z 25005KT 9SM CLR M02/M06 A2985 930 75 -800 240/05 RMK AO2 SLP121 T10171056 55000
14837KMSN MSN20060222085509402/22/06 08:55:31  5-MIN KMSN 221455Z 25004KT 9SM CLR M02/M06 A2985 930 75 -800 240/04 RMK AO2
14837KMSN MSN20060222090009402/22/06 09:00:31  5-MIN KMSN 221500Z 25006KT 9SM CLR M01/M06 A2985 930 72 -700 250/06 RMK AO2
14837KMSN MSN20060222090509402/22/06 09:05:31  5-MIN KMSN 221505Z 25003KT 9SM CLR M01/M05 A2985 930 75 -700 250/03 RMK AO2
14837KMSN MSN20060222091009402/22/06 09:10:31  5-MIN KMSN 221510Z 24006KT 9SM CLR M01/M05 A2985 930 75 -700 240/06 RMK AO2
14837KMSN MSN20060222091509402/22/06 09:15:31  5-MIN KMSN 221515Z VRB06KT 9SM CLR M01/M05 A2985 930 72 -700 VRB/06 RMK AO2
14837KMSN MSN20060222092009502/22/06 09:20:31  5-MIN KMSN 221520Z 24005KT 10SM CLR M01/M05 A2985 930 72 -700 240/05 RMK AO2
14837KMSN MSN20060222092509502/22/06 09:25:31  5-MIN KMSN 221525Z 24005KT 10SM CLR M01/M05 A2985 930 72 -700 240/05 RMK AO2
14837KMSN MSN20060222093009502/22/06 09:30:31  5-MIN KMSN 221530Z 24005KT 10SM CLR M01/M05 A2985 930 72 -700 240/05 RMK AO2
14837KMSN MSN20060222093509402/22/06 09:35:31  5-MIN KMSN 221535Z 26004KT 10SM CLR 00/M05 A2985 930 69 -600 260/04 RMK AO2
14837KMSN MSN20060222094009402/22/06 09:40:31  5-MIN KMSN 221540Z 29008KT 10SM CLR 01/M05 A2985 930 66 -500 290/08 RMK AO2
14837KMSN MSN20060222094509402/22/06 09:45:31  5-MIN KMSN 221545Z 25006KT 10SM CLR 01/M05 A2985 930 66 -500 250/06 RMK AO2
14837KMSN MSN20060222095011102/22/06 09:50:31  5-MIN KMSN 221550Z 29007KT 10SM CLR 01/M05 A2985 930 66 -500 290/07 RMK AO2 SLP120 T00061050
14837KMSN MSN20060222095509402/22/06 09:55:31  5-MIN KMSN 221555Z 29006KT 10SM CLR 01/M05 A2985 930 66 -500 280/06 RMK AO2
14837KMSN MSN20060222100009402/22/06 10:00:31  5-MIN KMSN 221600Z 27006KT 10SM CLR 01/M05 A2985 930 66 -500 270/06 RMK AO2
14837KMSN MSN20060222100509402/22/06 10:05:31  5-MIN KMSN 221605Z VRB05KT 10SM CLR 01/M05 A2985 930 66 -500 VRB/05 RMK AO2
14837KMSN MSN20060222101009402/22/06 10:10:31  5-MIN KMSN 221610Z VRB06KT 10SM CLR 01/M05 A2985 930 66 -500 VRB/06 RMK AO2
14837KMSN MSN20060222101509402/22/06 10:15:31  5-MIN KMSN 221615Z VRB05KT 10SM CLR 01/M05 A2985 930 64 -400 VRB/05 RMK AO2
14837KMSN MSN20060222102009402/22/06 10:20:31  5-MIN KMSN 221620Z VRB05KT 10SM CLR 01/M05 A2985 930 64 -400 VRB/05 RMK AO2
14837KMSN MSN20060222102509402/22/06 10:25:31  5-MIN KMSN 221625Z VRB05KT 10SM CLR 01/M05 A2985 930 64 -400 VRB/05 RMK AO2
14837KMSN MSN20060222103009402/22/06 10:30:31  5-MIN KMSN 221630Z VRB06KT 10SM CLR 01/M05 A2985 930 64 -400 VRB/06 RMK AO2
14837KMSN MSN20060222103509402/22/06 10:35:31  5-MIN KMSN 221635Z VRB06KT 10SM CLR 01/M05 A2985 930 64 -400 VRB/06 RMK AO2
14837KMSN MSN20060222104009402/22/06 10:40:31  5-MIN KMSN 221640Z 27008KT 10SM CLR 01/M05 A2984 930 64 -400 270/08 RMK AO2
14837KMSN MSN20060222104509402/22/06 10:45:31  5-MIN KMSN 221645Z VRB06KT 10SM CLR 01/M05 A2984 940 64 -400 VRB/06 RMK AO2
14837KMSN MSN20060222105011102/22/06 10:50:31  5-MIN KMSN 221650Z 25004KT 10SM CLR 01/M05 A2984 940 64 -400 240/04 RMK AO2 SLP116 T00111050
14837KMSN MSN20060222105509402/22/06 10:55:31  5-MIN KMSN 221655Z VRB05KT 10SM CLR 01/M05 A2984 940 64 -400 VRB/05 RMK AO2
14837KMSN MSN20060222110009402/22/06 11:00:31  5-MIN KMSN 221700Z 28005KT 10SM CLR 02/M05 A2984 940 61 -400 280/05 RMK AO2
14837KMSN MSN20060222110509402/22/06 11:05:31  5-MIN KMSN 221705Z VRB03KT 10SM CLR 02/M05 A2984 940 61 -400 VRB/03 RMK AO2
14837KMSN MSN20060222111009402/22/06 11:10:31  5-MIN KMSN 221710Z 27007KT 10SM CLR 02/M06 A2984 940 59 -400 270/07 RMK AO2
14837KMSN MSN20060222111509402/22/06 11:15:31  5-MIN KMSN 221715Z 28009KT 10SM CLR 02/M06 A2984 940 59 -400 280/09 RMK AO2
14837KMSN MSN20060222112009402/22/06 11:20:31  5-MIN KMSN 221720Z VRB05KT 10SM CLR 02/M06 A2984 940 59 -400 VRB/05 RMK AO2
14837KMSN MSN20060222112509402/22/06 11:25:31  5-MIN KMSN 221725Z 26008KT 10SM CLR 02/M06 A2984 940 56 -400 260/08 RMK AO2
14837KMSN MSN20060222113011002/22/06 11:30:31  5-MIN KMSN 221730Z 25007KT 210V280 10SM CLR 02/M06 A2984 940 56 -400 250/07 210V280 RMK AO2
14837KMSN MSN20060222113509402/22/06 11:35:31  5-MIN KMSN 221735Z 28007KT 10SM CLR 02/M06 A2984 940 54 -300 280/07 RMK AO2
14837KMSN MSN20060222114011002/22/06 11:40:31  5-MIN KMSN 221740Z 29008KT 250V310 10SM CLR 02/M06 A2984 940 54 -300 280/08 250V310 RMK AO2
14837KMSN MSN20060222114511002/22/06 11:45:31  5-MIN KMSN 221745Z 29007KT 260V320 10SM CLR 02/M06 A2984 940 54 -300 290/07 260V320 RMK AO2
14837KMSN MSN20060222115014202/22/06 11:50:31  5-MIN KMSN 221750Z 29007KT 10SM CLR 02/M06 A2984 940 54 -300 290/07 RMK AO2 SLP115 4/005 933008 T00221061 10022 21111 53022
14837KMSN MSN20060222115509402/22/06 11:55:31  5-MIN KMSN 221755Z 29007KT 10SM CLR 03/M06 A2984 940 52 -200 290/07 RMK AO2
14837KMSN MSN20060222120009402/22/06 12:00:31  5-MIN KMSN 221800Z VRB05KT 10SM CLR 02/M06 A2984 940 54 -300 VRB/05 RMK AO2
14837KMSN MSN20060222120510002/22/06 12:05:31  5-MIN KMSN 221805Z 29011G15KT 10SM CLR 02/M07 A2984 940 52 -300 290/11G15 RMK AO2
14837KMSN MSN20060222121010002/22/06 12:10:31  5-MIN KMSN 221810Z 29010G15KT 10SM CLR 02/M07 A2984 940 50 -300 280/10G15 RMK AO2
14837KMSN MSN20060222121510002/22/06 12:15:31  5-MIN KMSN 221815Z 29009G14KT 10SM CLR 03/M07 A2984 940 48 -200 290/09G14 RMK AO2
14837KMSN MSN20060222122010002/22/06 12:20:31  5-MIN KMSN 221820Z 29009G14KT 10SM CLR 03/M07 A2983 940 48 -200 290/09G14 RMK AO2
14837KMSN MSN20060222122509402/22/06 12:25:31  5-MIN KMSN 221825Z 29008KT 10SM CLR 03/M07 A2983 950 48 -200 280/08 RMK AO2
14837KMSN MSN20060222123009402/22/06 12:30:31  5-MIN KMSN 221830Z 29009KT 10SM CLR 03/M07 A2983 950 48 -200 290/09 RMK AO2
14837KMSN MSN20060222123509402/22/06 12:35:31  5-MIN KMSN 221835Z 30008KT 10SM CLR 03/M08 A2982 950 46 -200 300/08 RMK AO2
14837KMSN MSN20060222124011002/22/06 12:40:31  5-MIN KMSN 221840Z 28008KT 270V330 10SM CLR 03/M08 A2982 960 46 -200 280/08 270V330 RMK AO2
14837KMSN MSN20060222124509402/22/06 12:45:31  5-MIN KMSN 221845Z 30009KT 10SM CLR 03/M08 A2982 960 44 -200 300/09 RMK AO2
14837KMSN MSN20060222125011102/22/06 12:50:31  5-MIN KMSN 221850Z 27007KT 10SM CLR 03/M08 A2982 960 46 -200 270/07 RMK AO2 SLP106 T00281078
14837KMSN MSN20060222125509402/22/06 12:55:31  5-MIN KMSN 221855Z 28009KT 10SM CLR 03/M08 A2981 960 44 -100 280/09 RMK AO2
14837KMSN MSN20060222130009402/22/06 13:00:31  5-MIN KMSN 221900Z 29010KT 10SM CLR 03/M08 A2981 960 44 -100 290/10 RMK AO2
14837KMSN MSN20060222130509402/22/06 13:05:31  5-MIN KMSN 221905Z 29011KT 10SM CLR 03/M09 A2981 970 40 -200 290/11 RMK AO2
14837KMSN MSN20060222131009402/22/06 13:10:31  5-MIN KMSN 221910Z 31008KT 10SM CLR 03/M09 A2981 970 42 -200 310/08 RMK AO2
14837KMSN MSN20060222131509402/22/06 13:15:31  5-MIN KMSN 221915Z 29011KT 10SM CLR 03/M08 A2981 970 44 -200 290/11 RMK AO2
14837KMSN MSN20060222132009402/22/06 13:20:31  5-MIN KMSN 221920Z 27008KT 10SM CLR 02/M08 A2981 970 45 -300 270/08 RMK AO2
14837KMSN MSN20060222132509402/22/06 13:25:31  5-MIN KMSN 221925Z 30008KT 10SM CLR 03/M08 A2981 970 46 -200 300/08 RMK AO2
14837KMSN MSN20060222133009402/22/06 13:30:31  5-MIN KMSN 221930Z 30010KT 10SM CLR 03/M08 A2981 970 46 -200 300/10 RMK AO2
14837KMSN MSN20060222133509402/22/06 13:35:31  5-MIN KMSN 221935Z 29009KT 10SM CLR 03/M08 A2980 970 44 -200 290/09 RMK AO2
14837KMSN MSN20060222134009402/22/06 13:40:31  5-MIN KMSN 221940Z 31009KT 10SM CLR 03/M08 A2980 970 44 -200 310/09 RMK AO2
14837KMSN MSN20060222134509402/22/06 13:45:31  5-MIN KMSN 221945Z 28004KT 10SM CLR 03/M07 A2980 970 46 -100 280/04 RMK AO2
14837KMSN MSN20060222135011102/22/06 13:50:31  5-MIN KMSN 221950Z 29007KT 10SM CLR 03/M07 A2980 970 48 -200 290/07 RMK AO2 SLP101 T00281072
14837KMSN MSN20060222135509402/22/06 13:55:31  5-MIN KMSN 221955Z 26006KT 10SM CLR 03/M07 A2980 970 46 -100 260/06 RMK AO2
14837KMSN MSN20060222140009402/22/06 14:00:31  5-MIN KMSN 222000Z 25006KT 10SM CLR 03/M07 A2980 980 48 -200 250/06 RMK AO2
14837KMSN MSN20060222140509402/22/06 14:05:31  5-MIN KMSN 222005Z 24007KT 10SM CLR 03/M07 A2980 980 48 -200 240/07 RMK AO2
14837KMSN MSN20060222141009402/22/06 14:10:31  5-MIN KMSN 222010Z VRB06KT 10SM CLR 03/M07 A2980 980 48 -200 VRB/06 RMK AO2
14837KMSN MSN20060222141509402/22/06 14:15:31  5-MIN KMSN 222015Z 24008KT 10SM CLR 03/M07 A2980 980 48 -200 240/08 RMK AO2
14837KMSN MSN20060222142009402/22/06 14:20:31  5-MIN KMSN 222020Z VRB05KT 10SM CLR 03/M07 A2980 980 46 -100 VRB/05 RMK AO2
14837KMSN MSN20060222142509402/22/06 14:25:31  5-MIN KMSN 222025Z VRB06KT 10SM CLR 03/M07 A2980 980 48 -100 VRB/06 RMK AO2
14837KMSN MSN20060222143011002/22/06 14:30:31  5-MIN KMSN 222030Z 26007KT 230V290 10SM CLR 03/M07 A2980 980 46 -100 260/07 230V290 RMK AO2
14837KMSN MSN20060222143509402/22/06 14:35:31  5-MIN KMSN 222035Z 26006KT 10SM CLR 03/M07 A2980 980 48 -200 260/06 RMK AO2
14837KMSN MSN20060222144009402/22/06 14:40:31  5-MIN KMSN 222040Z VRB06KT 10SM CLR 03/M07 A2980 980 48 -100 VRB/06 RMK AO2
14837KMSN MSN20060222144509402/22/06 14:45:31  5-MIN KMSN 222045Z 27007KT 10SM CLR 03/M07 A2980 980 48 -100 270/07 RMK AO2
14837KMSN MSN20060222145011702/22/06 14:50:31  5-MIN KMSN 222050Z 26007KT 10SM CLR 03/M07 A2980 980 46 -100 260/07 RMK AO2 SLP099 T00331072 58004
14837KMSN MSN20060222145509402/22/06 14:55:31  5-MIN KMSN 222055Z 27007KT 10SM CLR 03/M07 A2979 980 46 -100 270/07 RMK AO2
14837KMSN MSN20060222150009402/22/06 15:00:31  5-MIN KMSN 222100Z 28006KT 10SM CLR 03/M07 A2980 980 46 -100 280/06 RMK AO2
14837KMSN MSN20060222150511002/22/06 15:05:31  5-MIN KMSN 222105Z 27007KT 240V310 10SM CLR 03/M07 A2980 980 46 -100 270/07 240V310 RMK AO2
14837KMSN MSN20060222151009102/22/06 15:10:31  5-MIN KMSN 222110Z 29009KT 10SM CLR 04/M07 A2980 980 44 0 290/09 RMK AO2
14837KMSN MSN20060222151509102/22/06 15:15:31  5-MIN KMSN 222115Z 29006KT 10SM CLR 04/M08 A2980 980 42 0 290/06 RMK AO2
14837KMSN MSN20060222152009702/22/06 15:20:31  5-MIN KMSN 222120Z 28009G17KT 10SM CLR 04/M08 A2980 980 42 0 270/09G17 RMK AO2
14837KMSN MSN20060222152509702/22/06 15:25:31  5-MIN KMSN 222125Z 29014G18KT 10SM CLR 04/M08 A2980 980 40 0 290/14G18 RMK AO2
14837KMSN MSN20060222153009702/22/06 15:30:31  5-MIN KMSN 222130Z 28010G18KT 10SM CLR 04/M08 A2980 980 40 0 280/10G18 RMK AO2
14837KMSN MSN20060222153510702/22/06 15:35:31  5-MIN KMSN 222135Z 28010KT 260V330 10SM CLR 04/M08 A2980 980 42 0 280/10 260V330 RMK AO2
14837KMSN MSN20060222154009702/22/06 15:40:31  5-MIN KMSN 222140Z 28009G16KT 10SM CLR 04/M08 A2980 980 42 0 280/09G16 RMK AO2
14837KMSN MSN20060222154509702/22/06 15:45:31  5-MIN KMSN 222145Z 29009G15KT 10SM CLR 04/M08 A2980 980 42 0 290/09G15 RMK AO2
14837KMSN MSN20060222155010802/22/06 15:50:31  5-MIN KMSN 222150Z 28007KT 10SM CLR 04/M08 A2980 980 42 0 280/07 RMK AO2 SLP099 T00391078
14837KMSN MSN20060222155509102/22/06 15:55:31  5-MIN KMSN 222155Z 28008KT 10SM CLR 04/M08 A2980 980 42 0 280/08 RMK AO2
14837KMSN MSN20060222160009402/22/06 16:00:31  5-MIN KMSN 222200Z 29008KT 10SM FEW050 04/M08 A2980 980 42 0 290/08 RMK AO2
14837KMSN MSN20060222160509402/22/06 16:05:31  5-MIN KMSN 222205Z 30005KT 10SM FEW050 04/M08 A2980 980 42 0 300/05 RMK AO2
14837KMSN MSN20060222161009402/22/06 16:10:31  5-MIN KMSN 222210Z 28007KT 10SM FEW050 04/M07 A2980 980 44 0 270/07 RMK AO2
14837KMSN MSN20060222161509402/22/06 16:15:31  5-MIN KMSN 222215Z 29008KT 10SM FEW050 04/M08 A2980 980 42 0 290/08 RMK AO2
14837KMSN MSN20060222162009402/22/06 16:20:31  5-MIN KMSN 222220Z VRB05KT 10SM FEW050 04/M08 A2980 980 42 0 VRB/05 RMK AO2
14837KMSN MSN20060222162509402/22/06 16:25:31  5-MIN KMSN 222225Z 28006KT 10SM FEW050 04/M08 A2980 980 42 0 280/06 RMK AO2
14837KMSN MSN20060222163009702/22/06 16:30:31  5-MIN KMSN 222230Z VRB05KT 10SM FEW050 03/M08 A2980 980 44 -100 VRB/05 RMK AO2
14837KMSN MSN20060222163509702/22/06 16:35:31  5-MIN KMSN 222235Z 24004KT 10SM FEW050 03/M07 A2980 970 46 -100 240/04 RMK AO2
14837KMSN MSN20060222164009702/22/06 16:40:31  5-MIN KMSN 222240Z VRB03KT 10SM FEW050 03/M07 A2980 970 46 -100 VRB/03 RMK AO2
14837KMSN MSN20060222164509702/22/06 16:45:31  5-MIN KMSN 222245Z 23004KT 10SM FEW050 03/M07 A2980 970 46 -100 230/04 RMK AO2
14837KMSN MSN20060222165011402/22/06 16:50:31  5-MIN KMSN 222250Z 23005KT 10SM FEW070 03/M08 A2980 970 46 -200 230/05 RMK AO2 SLP103 T00281078
14837KMSN MSN20060222165509402/22/06 16:55:31  5-MIN KMSN 222255Z 24005KT 10SM CLR 03/M07 A2981 970 48 -200 240/05 RMK AO2
14837KMSN MSN20060222170009702/22/06 17:00:31  5-MIN KMSN 222300Z 23005KT 10SM FEW055 02/M07 A2981 970 52 -300 230/05 RMK AO2
14837KMSN MSN20060222170509702/22/06 17:05:31  5-MIN KMSN 222305Z 23005KT 10SM FEW055 02/M06 A2981 970 54 -300 230/05 RMK AO2
14837KMSN MSN20060222171009702/22/06 17:10:31  5-MIN KMSN 222310Z 25005KT 10SM FEW055 02/M06 A2981 970 54 -300 250/05 RMK AO2
14837KMSN MSN20060222171509702/22/06 17:15:31  5-MIN KMSN 222315Z 23004KT 10SM SCT055 02/M06 A2981 960 54 -300 230/04 RMK AO2
14837KMSN MSN20060222172009702/22/06 17:20:31  5-MIN KMSN 222320Z VRB04KT 10SM BKN055 02/M06 A2981 960 54 -300 VRB/04 RMK AO2
14837KMSN MSN20060222172509702/22/06 17:25:31  5-MIN KMSN 222325Z 23005KT 10SM BKN055 02/M06 A2981 960 56 -300 230/05 RMK AO2
14837KMSN MSN20060222173009702/22/06 17:30:31  5-MIN KMSN 222330Z 22005KT 10SM BKN055 02/M06 A2981 960 56 -300 220/05 RMK AO2
14837KMSN MSN20060222173509702/22/06 17:35:31  5-MIN KMSN 222335Z 23005KT 10SM SCT055 02/M06 A2981 960 56 -300 230/05 RMK AO2
14837KMSN MSN20060222174010302/22/06 17:40:31  5-MIN KMSN 222340Z 23005KT 10SM SCT055 02/M06 A2981 960 56 -300 230/05 RMK AO2 4/005
14837KMSN MSN20060222174510302/22/06 17:45:31  5-MIN KMSN 222345Z 23006KT 10SM SCT055 02/M06 A2981 960 59 -300 230/06 RMK AO2 4/005
14837KMSN MSN20060222175013802/22/06 17:50:31  5-MIN KMSN 222350Z 23005KT 10SM SCT055 02/M06 A2982 960 56 -300 230/05 RMK AO2 SLP107 4/005 T00171061 10039 20017 56015
14837KMSN MSN20060222175509702/22/06 17:55:31  5-MIN KMSN 222355Z 22004KT 10SM SCT055 02/M06 A2982 960 56 -300 220/04 RMK AO2
14837KMSN MSN20060222180009702/22/06 18:00:31  5-MIN KMSN 230000Z 23005KT 10SM SCT060 02/M06 A2982 960 59 -300 230/05 RMK AO2
14837KMSN MSN20060222180509702/22/06 18:05:31  5-MIN KMSN 230005Z 23005KT 10SM FEW055 02/M06 A2982 960 59 -300 230/05 RMK AO2
14837KMSN MSN20060222181009702/22/06 18:10:31  5-MIN KMSN 230010Z 23004KT 10SM FEW060 02/M06 A2982 960 56 -300 220/04 RMK AO2
14837KMSN MSN20060222181509702/22/06 18:15:31  5-MIN KMSN 230015Z 23005KT 10SM FEW060 02/M06 A2982 960 56 -300 230/05 RMK AO2
14837KMSN MSN20060222182009702/22/06 18:20:31  5-MIN KMSN 230020Z 23004KT 10SM FEW060 01/M06 A2982 950 58 -400 230/04 RMK AO2
14837KMSN MSN20060222182509402/22/06 18:25:31  5-MIN KMSN 230025Z 23004KT 10SM CLR 01/M06 A2982 950 58 -400 230/04 RMK AO2
14837KMSN MSN20060222183009402/22/06 18:30:31  5-MIN KMSN 230030Z 23005KT 10SM CLR 01/M06 A2982 950 58 -400 230/05 RMK AO2
14837KMSN MSN20060222183509402/22/06 18:35:31  5-MIN KMSN 230035Z 23004KT 10SM CLR 01/M06 A2983 950 58 -400 230/04 RMK AO2
14837KMSN MSN20060222184009402/22/06 18:40:31  5-MIN KMSN 230040Z 22004KT 10SM CLR 01/M06 A2983 950 58 -400 210/04 RMK AO2
14837KMSN MSN20060222184509402/22/06 18:45:31  5-MIN KMSN 230045Z 22003KT 10SM CLR 01/M06 A2983 950 58 -400 220/03 RMK AO2
14837KMSN MSN20060222185011102/22/06 18:50:31  5-MIN KMSN 230050Z 22003KT 10SM CLR 01/M06 A2983 950 61 -500 220/03 RMK AO2 SLP114 T00061061
14837KMSN MSN20060222185509402/22/06 18:55:31  5-MIN KMSN 230055Z 22003KT 10SM CLR 00/M06 A2983 950 63 -600 220/03 RMK AO2
14837KMSN MSN20060222190009402/22/06 19:00:31  5-MIN KMSN 230100Z 21003KT 10SM CLR 01/M06 A2983 950 61 -500 210/03 RMK AO2
14837KMSN MSN20060222190509402/22/06 19:05:31  5-MIN KMSN 230105Z 21003KT 10SM CLR 01/M06 A2983 950 61 -500 200/03 RMK AO2
14837KMSN MSN20060222191009402/22/06 19:10:31  5-MIN KMSN 230110Z 21004KT 10SM CLR 01/M06 A2983 950 61 -500 210/04 RMK AO2
14837KMSN MSN20060222191509402/22/06 19:15:31  5-MIN KMSN 230115Z 21004KT 10SM CLR 01/M06 A2983 950 61 -500 210/04 RMK AO2
14837KMSN MSN20060222192009402/22/06 19:20:31  5-MIN KMSN 230120Z 21004KT 10SM CLR 01/M06 A2983 940 58 -400 210/04 RMK AO2
14837KMSN MSN20060222192509402/22/06 19:25:31  5-MIN KMSN 230125Z 21005KT 10SM CLR 01/M06 A2984 940 61 -500 210/05 RMK AO2
14837KMSN MSN20060222193009402/22/06 19:30:31  5-MIN KMSN 230130Z 22004KT 10SM CLR 01/M06 A2984 940 61 -500 210/04 RMK AO2
14837KMSN MSN20060222193509402/22/06 19:35:31  5-MIN KMSN 230135Z 22004KT 10SM CLR 00/M06 A2984 940 63 -600 220/04 RMK AO2
14837KMSN MSN20060222194009402/22/06 19:40:31  5-MIN KMSN 230140Z 22004KT 10SM CLR 00/M06 A2984 940 63 -600 220/04 RMK AO2
14837KMSN MSN20060222194509402/22/06 19:45:31  5-MIN KMSN 230145Z 23004KT 10SM CLR 00/M06 A2984 940 63 -600 230/04 RMK AO2
14837KMSN MSN20060222195011202/22/06 19:50:31  5-MIN KMSN 230150Z 23004KT 10SM CLR M01/M06 A2984 940 66 -600 230/04 RMK AO2 SLP115 T10061061
14837KMSN MSN20060222195509402/22/06 19:55:31  5-MIN KMSN 230155Z 22004KT 10SM CLR 00/M06 A2984 940 63 -600 220/04 RMK AO2
14837KMSN MSN20060222200009502/22/06 20:00:31  5-MIN KMSN 230200Z 23004KT 10SM CLR M01/M06 A2984 940 66 -600 230/04 RMK AO2
14837KMSN MSN20060222200509402/22/06 20:05:31  5-MIN KMSN 230205Z 23004KT 10SM CLR 00/M06 A2984 940 63 -600 230/04 RMK AO2
14837KMSN MSN20060222201009502/22/06 20:10:31  5-MIN KMSN 230210Z 23004KT 10SM CLR M01/M06 A2984 940 66 -600 230/04 RMK AO2
14837KMSN MSN20060222201509502/22/06 20:15:31  5-MIN KMSN 230215Z 23004KT 10SM CLR M01/M06 A2984 940 66 -600 230/04 RMK AO2
14837KMSN MSN20060222202009502/22/06 20:20:31  5-MIN KMSN 230220Z 23004KT 10SM CLR M01/M06 A2984 940 69 -700 230/04 RMK AO2
14837KMSN MSN20060222202509502/22/06 20:25:31  5-MIN KMSN 230225Z 23005KT 10SM CLR M01/M06 A2984 940 66 -600 230/05 RMK AO2
14837KMSN MSN20060222203009502/22/06 20:30:31  5-MIN KMSN 230230Z 22004KT 10SM CLR M01/M06 A2984 940 66 -600 220/04 RMK AO2
14837KMSN MSN20060222203509502/22/06 20:35:31  5-MIN KMSN 230235Z 22004KT 10SM CLR M01/M06 A2984 940 69 -600 220/04 RMK AO2
14837KMSN MSN20060222204009502/22/06 20:40:31  5-MIN KMSN 230240Z 21003KT 10SM CLR M01/M06 A2983 940 69 -600 210/03 RMK AO2
14837KMSN MSN20060222204509502/22/06 20:45:31  5-MIN KMSN 230245Z 20004KT 10SM CLR M01/M06 A2983 950 69 -600 200/04 RMK AO2
14837KMSN MSN20060222205011802/22/06 20:50:31  5-MIN KMSN 230250Z 20005KT 10SM CLR M01/M06 A2983 950 66 -600 200/05 RMK AO2 SLP112 T10061061 53007
14837KMSN MSN20060222205509802/22/06 20:55:31  5-MIN KMSN 230255Z 20005KT 10SM FEW070 M01/M06 A2983 940 66 -600 200/05 RMK AO2
14837KMSN MSN20060222210009802/22/06 21:00:31  5-MIN KMSN 230300Z 20006KT 10SM FEW070 M01/M06 A2983 950 66 -600 200/06 RMK AO2
14837KMSN MSN20060222210509802/22/06 21:05:31  5-MIN KMSN 230305Z 20006KT 10SM FEW070 M01/M06 A2983 950 66 -600 200/06 RMK AO2
14837KMSN MSN20060222211009802/22/06 21:10:31  5-MIN KMSN 230310Z 19005KT 10SM FEW070 M01/M07 A2983 950 66 -700 190/05 RMK AO2
14837KMSN MSN20060222211509802/22/06 21:15:31  5-MIN KMSN 230315Z 19005KT 10SM FEW070 M01/M07 A2983 950 66 -700 190/05 RMK AO2
14837KMSN MSN20060222212009802/22/06 21:20:31  5-MIN KMSN 230320Z 19006KT 10SM FEW070 M01/M07 A2983 950 66 -700 190/06 RMK AO2
14837KMSN MSN20060222212509802/22/06 21:25:31  5-MIN KMSN 230325Z 19005KT 10SM FEW070 M01/M06 A2983 950 69 -700 190/05 RMK AO2
14837KMSN MSN20060222213009802/22/06 21:30:31  5-MIN KMSN 230330Z 19005KT 10SM FEW080 M01/M06 A2983 950 69 -700 190/05 RMK AO2
14837KMSN MSN20060222213509802/22/06 21:35:31  5-MIN KMSN 230335Z 19005KT 10SM FEW065 M01/M06 A2983 950 69 -700 190/05 RMK AO2
14837KMSN MSN20060222214009802/22/06 21:40:31  5-MIN KMSN 230340Z 20004KT 10SM SCT065 M01/M06 A2983 940 69 -700 200/04 RMK AO2
14837KMSN MSN20060222214509802/22/06 21:45:31  5-MIN KMSN 230345Z 19005KT 10SM SCT060 M01/M06 A2983 940 69 -700 190/05 RMK AO2
14837KMSN MSN20060222215011502/22/06 21:50:31  5-MIN KMSN 230350Z 18006KT 10SM FEW060 M01/M06 A2983 950 69 -700 180/06 RMK AO2 SLP111 T10111061
14837KMSN MSN20060222215509802/22/06 21:55:31  5-MIN KMSN 230355Z 19006KT 10SM FEW060 M01/M06 A2983 950 69 -700 190/06 RMK AO2
14837KMSN MSN20060222220009802/22/06 22:00:31  5-MIN KMSN 230400Z 20005KT 10SM FEW060 M01/M07 A2983 950 66 -700 200/05 RMK AO2
14837KMSN MSN20060222220509802/22/06 22:05:31  5-MIN KMSN 230405Z 21005KT 10SM FEW060 M01/M07 A2983 950 66 -700 200/05 RMK AO2
14837KMSN MSN20060222221009802/22/06 22:10:31  5-MIN KMSN 230410Z 21004KT 10SM FEW060 M01/M07 A2983 950 66 -700 210/04 RMK AO2
14837KMSN MSN20060222221509802/22/06 22:15:31  5-MIN KMSN 230415Z 20005KT 10SM FEW060 M01/M07 A2983 950 66 -700 200/05 RMK AO2
14837KMSN MSN20060222222009802/22/06 22:20:31  5-MIN KMSN 230420Z 19006KT 10SM FEW060 M01/M07 A2983 950 66 -700 190/06 RMK AO2
14837KMSN MSN20060222222509802/22/06 22:25:31  5-MIN KMSN 230425Z 20006KT 10SM FEW060 M01/M07 A2983 950 66 -700 190/06 RMK AO2
14837KMSN MSN20060222223009802/22/06 22:30:31  5-MIN KMSN 230430Z 20006KT 10SM FEW060 M01/M07 A2983 950 66 -700 200/06 RMK AO2
14837KMSN MSN20060222223509802/22/06 22:35:31  5-MIN KMSN 230435Z 20006KT 10SM FEW060 M01/M07 A2983 950 66 -700 200/06 RMK AO2
14837KMSN MSN20060222224009802/22/06 22:40:31  5-MIN KMSN 230440Z 20006KT 10SM FEW060 M01/M07 A2983 950 66 -700 200/06 RMK AO2
14837KMSN MSN20060222224509802/22/06 22:45:31  5-MIN KMSN 230445Z 20006KT 10SM FEW060 M01/M07 A2983 950 66 -700 200/06 RMK AO2
14837KMSN MSN20060222225011502/22/06 22:50:31  5-MIN KMSN 230450Z 20005KT 10SM FEW070 M01/M07 A2983 950 63 -600 200/05 RMK AO2 SLP111 T10061067
14837KMSN MSN20060222225509802/22/06 22:55:31  5-MIN KMSN 230455Z 21005KT 10SM FEW070 M01/M07 A2983 950 63 -700 210/05 RMK AO2
14837KMSN MSN20060222230009802/22/06 23:00:31  5-MIN KMSN 230500Z 20006KT 10SM FEW070 M01/M07 A2983 950 63 -700 200/06 RMK AO2
14837KMSN MSN20060222230509802/22/06 23:05:31  5-MIN KMSN 230505Z 21005KT 10SM FEW070 M01/M07 A2983 950 63 -700 210/05 RMK AO2
14837KMSN MSN20060222231009802/22/06 23:10:31  5-MIN KMSN 230510Z 20006KT 10SM FEW070 M01/M07 A2983 950 63 -700 200/06 RMK AO2
14837KMSN MSN20060222231509502/22/06 23:15:31  5-MIN KMSN 230515Z 20006KT 10SM CLR M01/M07 A2983 950 63 -700 200/06 RMK AO2
14837KMSN MSN20060222232009502/22/06 23:20:31  5-MIN KMSN 230520Z 21005KT 10SM CLR M01/M07 A2983 950 63 -700 200/05 RMK AO2
14837KMSN MSN20060222232509502/22/06 23:25:31  5-MIN KMSN 230525Z 21005KT 10SM CLR M01/M07 A2983 950 63 -700 200/05 RMK AO2
14837KMSN MSN20060222233010102/22/06 23:30:31  5-MIN KMSN 230530Z 21005KT 10SM CLR M01/M07 A2983 950 63 -700 210/05 RMK AO2 4/005
14837KMSN MSN20060222233510102/22/06 23:35:31  5-MIN KMSN 230535Z 22006KT 10SM CLR M01/M07 A2983 950 63 -700 220/06 RMK AO2 4/005
14837KMSN MSN20060222234010102/22/06 23:40:31  5-MIN KMSN 230540Z 22006KT 10SM CLR M01/M07 A2983 950 63 -700 220/06 RMK AO2 4/005
14837KMSN MSN20060222234510102/22/06 23:45:31  5-MIN KMSN 230545Z 21006KT 10SM CLR M01/M07 A2983 950 63 -700 210/06 RMK AO2 4/005
14837KMSN MSN20060222235014602/22/06 23:50:31  5-MIN KMSN 230550Z 21006KT 10SM CLR M01/M07 A2983 950 63 -700 210/06 RMK AO2 SLP110 4/005 T10111072 10017 21017 400391111 50006
14837KMSN MSN20060222235509502/22/06 23:55:31  5-MIN KMSN 230555Z 21005KT 10SM CLR M01/M07 A2983 950 63 -700 210/05 RMK AO2
14837KMSN MSN20060223000009502/23/06 00:00:38  5-MIN KMSN 230600Z 22005KT 10SM CLR M01/M07 A2983 950 63 -700 210/05 RMK AO2
14837KMSN MSN20060223000509502/23/06 00:05:31  5-MIN KMSN 230605Z VRB03KT 10SM CLR M02/M07 A2983 950 66 -800 VRB/03 RMK AO2
14837KMSN MSN20060223001009502/23/06 00:10:31  5-MIN KMSN 230610Z 24003KT 10SM CLR M02/M08 A2983 940 66 -800 240/03 RMK AO2
14837KMSN MSN20060223001509502/23/06 00:15:31  5-MIN KMSN 230615Z 24003KT 10SM CLR M03/M08 A2984 940 68 -900 240/03 RMK AO2
14837KMSN MSN20060223002009602/23/06 00:20:31  5-MIN KMSN 230620Z 23004KT 10SM CLR M03/M08 A2984 940 71 -1000 230/04 RMK AO2
14837KMSN MSN20060223002509502/23/06 00:25:31  5-MIN KMSN 230625Z 22005KT 10SM CLR M02/M08 A2984 940 66 -800 220/05 RMK AO2
14837KMSN MSN20060223003009502/23/06 00:30:31  5-MIN KMSN 230630Z 22005KT 10SM CLR M02/M07 A2983 940 66 -800 220/05 RMK AO2
14837KMSN MSN20060223003509502/23/06 00:35:31  5-MIN KMSN 230635Z 22006KT 10SM CLR M02/M07 A2983 950 66 -800 210/06 RMK AO2
14837KMSN MSN20060223004009502/23/06 00:40:31  5-MIN KMSN 230640Z 22007KT 10SM CLR M02/M07 A2984 940 66 -800 220/07 RMK AO2
14837KMSN MSN20060223004509502/23/06 00:45:31  5-MIN KMSN 230645Z 22007KT 10SM CLR M01/M07 A2984 940 63 -700 220/07 RMK AO2
14837KMSN MSN20060223005011202/23/06 00:50:31  5-MIN KMSN 230650Z 22007KT 10SM CLR M01/M07 A2984 940 63 -700 210/07 RMK AO2 SLP112 T10111072
14837KMSN MSN20060223005509502/23/06 00:55:31  5-MIN KMSN 230655Z 22006KT 10SM CLR M01/M07 A2984 940 63 -700 220/06 RMK AO2
14837KMSN MSN20060223010009502/23/06 01:00:31  5-MIN KMSN 230700Z 22006KT 10SM CLR M01/M07 A2984 940 63 -700 220/06 RMK AO2
14837KMSN MSN20060223010509502/23/06 01:05:31  5-MIN KMSN 230705Z 22006KT 10SM CLR M01/M07 A2984 940 63 -700 220/06 RMK AO2
14837KMSN MSN20060223011009502/23/06 01:10:31  5-MIN KMSN 230710Z 22006KT 10SM CLR M01/M07 A2984 940 63 -700 220/06 RMK AO2
14837KMSN MSN20060223011509502/23/06 01:15:31  5-MIN KMSN 230715Z 23006KT 10SM CLR M01/M07 A2984 940 63 -700 230/06 RMK AO2
14837KMSN MSN20060223012009502/23/06 01:20:31  5-MIN KMSN 230720Z VRB04KT 10SM CLR M02/M07 A2984 940 66 -800 VRB/04 RMK AO2
14837KMSN MSN20060223012509502/23/06 01:25:31  5-MIN KMSN 230725Z 23005KT 10SM CLR M02/M07 A2984 940 66 -800 230/05 RMK AO2
14837KMSN MSN20060223013009502/23/06 01:30:31  5-MIN KMSN 230730Z VRB05KT 10SM CLR M02/M07 A2984 940 66 -800 VRB/05 RMK AO2
14837KMSN MSN20060223013509502/23/06 01:35:31  5-MIN KMSN 230735Z VRB03KT 10SM CLR M02/M07 A2984 940 66 -800 VRB/03 RMK AO2
14837KMSN MSN20060223014009502/23/06 01:40:31  5-MIN KMSN 230740Z 24005KT 10SM CLR M02/M07 A2984 940 66 -800 240/05 RMK AO2
14837KMSN MSN20060223014509502/23/06 01:45:31  5-MIN KMSN 230745Z VRB03KT 10SM CLR M02/M07 A2984 940 66 -800 VRB/03 RMK AO2
14837KMSN MSN20060223015011202/23/06 01:50:31  5-MIN KMSN 230750Z 24004KT 10SM CLR M02/M07 A2984 940 66 -800 240/04 RMK AO2 SLP113 T10171072
14837KMSN MSN20060223015509502/23/06 01:55:31  5-MIN KMSN 230755Z 24004KT 10SM CLR M02/M07 A2984 940 66 -800 240/04 RMK AO2
14837KMSN MSN20060223020009502/23/06 02:00:31  5-MIN KMSN 230800Z 23003KT 10SM CLR M02/M07 A2984 940 66 -800 230/03 RMK AO2
14837KMSN MSN20060223020509502/23/06 02:05:31  5-MIN KMSN 230805Z VRB03KT 10SM CLR M02/M07 A2984 940 69 -900 VRB/03 RMK AO2
14837KMSN MSN20060223021009502/23/06 02:10:31  5-MIN KMSN 230810Z 23003KT 10SM CLR M02/M07 A2984 940 69 -900 230/03 RMK AO2
14837KMSN MSN20060223021509502/23/06 02:15:31  5-MIN KMSN 230815Z 22003KT 10SM CLR M02/M07 A2984 940 69 -900 220/03 RMK AO2
14837KMSN MSN20060223022009502/23/06 02:20:31  5-MIN KMSN 230820Z 22004KT 10SM CLR M02/M07 A2984 940 69 -900 220/04 RMK AO2
14837KMSN MSN20060223022509502/23/06 02:25:31  5-MIN KMSN 230825Z VRB04KT 10SM CLR M03/M07 A2984 940 71 -900 VRB/04 RMK AO2
14837KMSN MSN20060223023009502/23/06 02:30:31  5-MIN KMSN 230830Z 22003KT 10SM CLR M02/M07 A2984 940 69 -900 220/03 RMK AO2
14837KMSN MSN20060223023509502/23/06 02:35:31  5-MIN KMSN 230835Z VRB03KT 10SM CLR M02/M07 A2983 940 69 -800 VRB/03 RMK AO2
14837KMSN MSN20060223024009502/23/06 02:40:31  5-MIN KMSN 230840Z 22004KT 10SM CLR M02/M07 A2983 950 69 -800 220/04 RMK AO2
14837KMSN MSN20060223024509502/23/06 02:45:31  5-MIN KMSN 230845Z 23003KT 10SM CLR M02/M07 A2983 950 69 -800 230/03 RMK AO2
14837KMSN MSN20060223025011802/23/06 02:50:31  5-MIN KMSN 230850Z 22003KT 10SM CLR M02/M07 A2983 950 69 -800 220/03 RMK AO2 SLP111 T10221072 56002
14837KMSN MSN20060223025509502/23/06 02:55:31  5-MIN KMSN 230855Z VRB03KT 10SM CLR M02/M07 A2983 950 69 -800 VRB/03 RMK AO2
14837KMSN MSN20060223030009502/23/06 03:00:31  5-MIN KMSN 230900Z VRB03KT 10SM CLR M03/M07 A2983 950 71 -900 VRB/03 RMK AO2
14837KMSN MSN20060223030509502/23/06 03:05:31  5-MIN KMSN 230905Z 22004KT 10SM CLR M02/M07 A2983 950 69 -800 220/04 RMK AO2
14837KMSN MSN20060223031009502/23/06 03:10:31  5-MIN KMSN 230910Z VRB03KT 10SM CLR M02/M07 A2983 950 69 -800 VRB/03 RMK AO2
14837KMSN MSN20060223031509502/23/06 03:15:31  5-MIN KMSN 230915Z VRB03KT 10SM CLR M02/M07 A2983 950 69 -800 VRB/03 RMK AO2
14837KMSN MSN20060223032009502/23/06 03:20:31  5-MIN KMSN 230920Z 22003KT 10SM CLR M02/M07 A2983 950 69 -800 220/03 RMK AO2
14837KMSN MSN20060223032509502/23/06 03:25:31  5-MIN KMSN 230925Z 22004KT 10SM CLR M02/M07 A2983 950 69 -800 220/04 RMK AO2
14837KMSN MSN20060223033009502/23/06 03:30:31  5-MIN KMSN 230930Z 23004KT 10SM CLR M03/M07 A2983 950 71 -900 230/04 RMK AO2
14837KMSN MSN20060223033509502/23/06 03:35:31  5-MIN KMSN 230935Z 23004KT 10SM CLR M03/M07 A2983 950 71 -900 230/04 RMK AO2
14837KMSN MSN20060223034009502/23/06 03:40:31  5-MIN KMSN 230940Z VRB03KT 10SM CLR M03/M07 A2983 950 71 -900 VRB/03 RMK AO2
14837KMSN MSN20060223034509502/23/06 03:45:31  5-MIN KMSN 230945Z VRB03KT 10SM CLR M03/M07 A2983 940 71 -900 VRB/03 RMK AO2
14837KMSN MSN20060223035011202/23/06 03:50:31  5-MIN KMSN 230950Z VRB03KT 10SM CLR M02/M07 A2984 940 69 -800 VRB/03 RMK AO2 SLP111 T10221072
14837KMSN MSN20060223035509502/23/06 03:55:31  5-MIN KMSN 230955Z VRB04KT 10SM CLR M02/M07 A2984 940 69 -900 VRB/04 RMK AO2
14837KMSN MSN20060223040009502/23/06 04:00:31  5-MIN KMSN 231000Z VRB04KT 10SM CLR M03/M07 A2984 940 71 -900 VRB/04 RMK AO2
14837KMSN MSN20060223040509502/23/06 04:05:31  5-MIN KMSN 231005Z 22004KT 10SM CLR M02/M07 A2984 940 69 -800 220/04 RMK AO2
14837KMSN MSN20060223041009502/23/06 04:10:31  5-MIN KMSN 231010Z 22005KT 10SM CLR M02/M07 A2983 940 69 -800 220/05 RMK AO2
14837KMSN MSN20060223041509502/23/06 04:15:31  5-MIN KMSN 231015Z VRB05KT 10SM CLR M02/M07 A2984 940 69 -800 VRB/05 RMK AO2
14837KMSN MSN20060223042009502/23/06 04:20:31  5-MIN KMSN 231020Z VRB03KT 10SM CLR M02/M07 A2983 940 69 -800 VRB/03 RMK AO2
14837KMSN MSN20060223042509502/23/06 04:25:31  5-MIN KMSN 231025Z VRB04KT 10SM CLR M02/M07 A2984 940 69 -800 VRB/04 RMK AO2
14837KMSN MSN20060223043009502/23/06 04:30:31  5-MIN KMSN 231030Z VRB05KT 10SM CLR M02/M07 A2984 940 69 -900 VRB/05 RMK AO2
14837KMSN MSN20060223043509502/23/06 04:35:31  5-MIN KMSN 231035Z VRB03KT 10SM CLR M02/M07 A2984 940 69 -900 VRB/03 RMK AO2
14837KMSN MSN20060223044009502/23/06 04:40:31  5-MIN KMSN 231040Z VRB03KT 10SM CLR M03/M07 A2984 940 71 -900 VRB/03 RMK AO2
14837KMSN MSN20060223044509502/23/06 04:45:31  5-MIN KMSN 231045Z 22003KT 10SM CLR M03/M07 A2984 940 71 -900 220/03 RMK AO2
14837KMSN MSN20060223045011202/23/06 04:50:31  5-MIN KMSN 231050Z 21003KT 10SM CLR M03/M07 A2984 940 71 -900 210/03 RMK AO2 SLP114 T10281072
14837KMSN MSN20060223045509502/23/06 04:55:31  5-MIN KMSN 231055Z 20004KT 10SM CLR M03/M07 A2984 940 71 -900 200/04 RMK AO2
14837KMSN MSN20060223050009502/23/06 05:00:31  5-MIN KMSN 231100Z 22004KT 10SM CLR M02/M07 A2984 940 69 -900 220/04 RMK AO2
14837KMSN MSN20060223050509502/23/06 05:05:31  5-MIN KMSN 231105Z VRB04KT 10SM CLR M02/M07 A2985 930 69 -900 VRB/04 RMK AO2
14837KMSN MSN20060223051009502/23/06 05:10:31  5-MIN KMSN 231110Z VRB03KT 10SM CLR M03/M07 A2985 930 71 -900 VRB/03 RMK AO2
14837KMSN MSN20060223051509602/23/06 05:15:31  5-MIN KMSN 231115Z VRB03KT 10SM CLR M03/M07 A2985 930 74 -1000 VRB/03 RMK AO2
14837KMSN MSN20060223052009602/23/06 05:20:31  5-MIN KMSN 231120Z 29003KT 10SM CLR M04/M07 A2985 930 78 -1100 290/03 RMK AO2
14837KMSN MSN20060223052509602/23/06 05:25:31  5-MIN KMSN 231125Z 00000KT 10SM CLR M04/M08 A2985 920 78 -1200 000/00 RMK AO2
14837KMSN MSN20060223053009902/23/06 05:30:31  5-MIN KMSN 231130Z 00000KT 10SM FEW070 M04/M08 A2986 920 78 -1200 000/00 RMK AO2
14837KMSN MSN20060223053509902/23/06 05:35:31  5-MIN KMSN 231135Z 00000KT 10SM SCT070 M05/M08 A2986 920 81 -1200 000/00 RMK AO2
14837KMSN MSN20060223054009902/23/06 05:40:31  5-MIN KMSN 231140Z 00000KT 10SM SCT070 M06/M08 A2986 920 84 -1300 000/00 RMK AO2
14837KMSN MSN20060223054509902/23/06 05:45:31  5-MIN KMSN 231145Z 00000KT 10SM SCT070 M06/M08 A2986 920 81 -1300 000/00 RMK AO2
14837KMSN MSN20060223055014002/23/06 05:50:31  5-MIN KMSN 231150Z 00000KT 10SM SCT070 M06/M08 A2987 910 84 -1400 000/00 RMK AO2 SLP125 4/005 T10611083 11011 21061 50001
14837KMSN MSN20060223055509902/23/06 05:55:31  5-MIN KMSN 231155Z 29004KT 10SM BKN070 M06/M08 A2987 910 84 -1300 290/04 RMK AO2
14837KMSN MSN20060223060009902/23/06 06:00:31  5-MIN KMSN 231200Z 28003KT 10SM SCT070 M06/M08 A2988 910 84 -1300 270/03 RMK AO2
14837KMSN MSN20060223060509902/23/06 06:05:31  5-MIN KMSN 231205Z 28003KT 10SM FEW070 M05/M08 A2988 900 81 -1300 280/03 RMK AO2
14837KMSN MSN20060223061009902/23/06 06:10:31  5-MIN KMSN 231210Z VRB03KT 10SM FEW070 M04/M08 A2988 900 78 -1200 VRB/03 RMK AO2
14837KMSN MSN20060223061509902/23/06 06:15:31  5-MIN KMSN 231215Z 28004KT 10SM FEW070 M04/M07 A2988 900 78 -1100 280/04 RMK AO2
14837KMSN MSN20060223062009902/23/06 06:20:31  5-MIN KMSN 231220Z 27003KT 10SM FEW070 M04/M07 A2988 900 78 -1100 270/03 RMK AO2
14837KMSN MSN20060223062509602/23/06 06:25:31  5-MIN KMSN 231225Z 28003KT 10SM CLR M04/M07 A2988 900 78 -1100 280/03 RMK AO2
14837KMSN MSN20060223063009602/23/06 06:30:31  5-MIN KMSN 231230Z 30003KT 10SM CLR M04/M07 A2988 900 78 -1100 300/03 RMK AO2
14837KMSN MSN20060223063509602/23/06 06:35:31  5-MIN KMSN 231235Z 29004KT 10SM CLR M03/M07 A2988 900 75 -1000 290/04 RMK AO2
14837KMSN MSN20060223064009902/23/06 06:40:31  5-MIN KMSN 231240Z 28004KT 10SM FEW070 M03/M07 A2989 900 74 -1000 270/04 RMK AO2
14837KMSN MSN20060223064509902/23/06 06:45:31  5-MIN KMSN 231245Z VRB03KT 10SM SCT070 M04/M07 A2989 890 81 -1200 VRB/03 RMK AO2
14837KMSN MSN20060223065011602/23/06 06:50:31  5-MIN KMSN 231250Z VRB03KT 10SM BKN070 M03/M07 A2989 890 74 -1100 VRB/03 RMK AO2 SLP133 T10331072
14837KMSN MSN20060223065510602/23/06 06:55:31  5-MIN KMSN 231255Z VRB03KT 10SM FEW037 BKN070 M03/M07 A2990 890 75 -1000 VRB/03 RMK AO2
14837KMSN MSN20060223070010602/23/06 07:00:31  5-MIN KMSN 231300Z VRB03KT 10SM SCT037 BKN070 M03/M07 A2990 890 75 -1000 VRB/03 RMK AO2
14837KMSN MSN20060223070510502/23/06 07:05:31  5-MIN KMSN 231305Z VRB03KT 10SM SCT037 OVC070 M02/M06 A2990 880 75 -900 VRB/03 RMK AO2
14837KMSN MSN20060223071010502/23/06 07:10:31  5-MIN KMSN 231310Z VRB04KT 10SM BKN037 OVC070 M02/M06 A2990 880 75 -900 VRB/04 RMK AO2
14837KMSN MSN20060223071510502/23/06 07:15:31  5-MIN KMSN 231315Z 28004KT 10SM BKN037 OVC070 M02/M06 A2990 880 75 -900 280/04 RMK AO2
14837KMSN MSN20060223072010502/23/06 07:20:31  5-MIN KMSN 231320Z VRB04KT 10SM BKN037 OVC070 M02/M06 A2991 880 75 -900 VRB/04 RMK AO2
14837KMSN MSN20060223072509802/23/06 07:25:31  5-MIN KMSN 231325Z 28006KT 10SM OVC039 M02/M06 A2991 870 75 -900 280/06 RMK AO2
14837KMSN MSN20060223073011302/23/06 07:30:31  5-MIN KMSN 231330Z 29005KT 8SM -SN OVC041 M02/M06 A2991 870 72 -900 290/05 RMK AO2 SNB29 P0000
14837KMSN MSN20060223073511302/23/06 07:35:31  5-MIN KMSN 231335Z 28005KT 6SM -SN OVC041 M02/M06 A2991 870 72 -900 280/05 RMK AO2 SNB29 P0000
14837KMSN MSN20060223074011302/23/06 07:40:31  5-MIN KMSN 231340Z 29005KT 4SM -SN OVC043 M02/M06 A2992 870 75 -900 290/05 RMK AO2 SNB29 P0000
14837KMSN MSN20060223074512002/23/06 07:45:31  5-MIN KMSN 231345Z 30005KT 4SM -SN BKN045 OVC050 M02/M06 A2992 860 75 -900 300/05 RMK AO2 SNB29 P0000
14837KMSN MSN20060223075014402/23/06 07:50:31  5-MIN KMSN 231350Z 29006KT 5SM -SN FEW017 BKN045 OVC050 M02/M05 A2992 860 78 -900 290/06 RMK AO2 SNB29 SLP144 P0000 T10171050
14837KMSN MSN20060223075512502/23/06 07:55:31  5-MIN KMSN 231355Z 30005KT 1 1/2SM -SN FEW012 BKN045 OVC050 M02/M05 A2992 860 78 -900 300/05 RMK AO2 P0000
14837KMSN MSN20060223080012502/23/06 08:00:31  5-MIN KMSN 231400Z 30004KT 1 1/2SM -SN SCT012 BKN030 OVC048 M02/M05 A2992 860 78 -900 300/04 RMK AO2 P0000
14837KMSN MSN20060223080512002/23/06 08:05:31  5-MIN KMSN 231405Z 30003KT 3/4SM -SN BR BKN010 OVC050 M02/M04 A2993 860 85 -1000 300/03 RMK AO2 P0000
14837KMSN MSN20060223081014302/23/06 08:10:31  5-MIN KMSN 231410Z 30004KT 1 1/2SM -SN BR BKN015 BKN039 OVC050 M02/M04 A2993 850 85 -1000 300/04 RMK AO2 SFC VIS 1 3/4 P0000
14837KMSN MSN20060223081512502/23/06 08:15:31  5-MIN KMSN 231415Z 29005KT 3SM -SN BR BKN026 BKN039 OVC055 M02/M04 A2994 850 85 -1000 290/05 RMK AO2 P0000
14837KMSN MSN20060223082011502/23/06 08:20:31  5-MIN KMSN 231420Z VRB03KT 4SM -SN BKN026 BKN055 M02/M04 A2993 850 88 -1000 VRB/03 RMK AO2 P0000
14837KMSN MSN20060223082510802/23/06 08:25:31  5-MIN KMSN 231425Z 29003KT 7SM -SN SCT026 M02/M04 A2993 850 88 -1000 290/03 RMK AO2 P0000
14837KMSN MSN20060223083010702/23/06 08:30:31  5-MIN KMSN 231430Z 31004KT 7SM -SN SCT031 M02/M04 A2994 850 85 -900 310/04 RMK AO2 P0001
14837KMSN MSN20060223083511602/23/06 08:35:31  5-MIN KMSN 231435Z 31005KT 7SM FEW027 SCT044 M02/M04 A2994 850 85 -900 310/05 RMK AO2 SNE34 P0001
14837KMSN MSN20060223084012302/23/06 08:40:31  5-MIN KMSN 231440Z 29003KT 7SM FEW027 SCT060 SCT090 M02/M04 A2994 850 85 -900 290/03 RMK AO2 SNE34 P0001
14837KMSN MSN20060223084510902/23/06 08:45:31  5-MIN KMSN 231445Z 29004KT 7SM SCT090 M01/M03 A2994 850 85 -800 290/04 RMK AO2 SNE34 P0001
14837KMSN MSN20060223085013802/23/06 08:50:31  5-MIN KMSN 231450Z 28004KT 7SM SCT090 M01/M03 A2995 840 85 -800 280/04 RMK AO2 SNE34 SLP152 P0001 60001 T10111033 53013
14837KMSN MSN20060223085509702/23/06 08:55:31  5-MIN KMSN 231455Z 29006KT 7SM FEW090 M01/M03 A2995 840 85 -800 290/06 RMK AO2
14837KMSN MSN20060223090009702/23/06 09:00:31  5-MIN KMSN 231500Z 29006KT 7SM FEW090 M01/M03 A2995 840 85 -800 290/06 RMK AO2
14837KMSN MSN20060223090509702/23/06 09:05:31  5-MIN KMSN 231505Z 28005KT 8SM FEW090 M01/M03 A2995 830 81 -800 280/05 RMK AO2
14837KMSN MSN20060223091009702/23/06 09:10:31  5-MIN KMSN 231510Z 30007KT 8SM FEW090 M01/M03 A2996 830 81 -800 300/07 RMK AO2
14837KMSN MSN20060223091509302/23/06 09:15:31  5-MIN KMSN 231515Z 30006KT 8SM CLR 00/M03 A2996 820 81 -700 300/06 RMK AO2
14837KMSN MSN20060223092009402/23/06 09:20:31  5-MIN KMSN 231520Z 29007KT 8SM CLR M01/M03 A2997 820 81 -800 290/07 RMK AO2
14837KMSN MSN20060223092509702/23/06 09:25:31  5-MIN KMSN 231525Z 29007KT 8SM FEW015 M01/M03 A2997 820 81 -800 290/07 RMK AO2
14837KMSN MSN20060223093011102/23/06 09:30:31  5-MIN KMSN 231530Z 28010KT 8SM FEW015 SCT023 BKN029 M01/M03 A2998 810 81 -800 280/10 RMK AO2
14837KMSN MSN20060223093511102/23/06 09:35:31  5-MIN KMSN 231535Z 30007KT 8SM FEW015 SCT023 BKN029 M01/M03 A2998 810 81 -800 300/07 RMK AO2
14837KMSN MSN20060223094010402/23/06 09:40:31  5-MIN KMSN 231540Z 30008KT 8SM SCT015 BKN025 M01/M03 A2998 810 81 -800 300/08 RMK AO2
14837KMSN MSN20060223094511102/23/06 09:45:31  5-MIN KMSN 231545Z 30009KT 8SM FEW012 BKN019 BKN026 M01/M03 A2998 810 81 -800 300/09 RMK AO2
14837KMSN MSN20060223095012702/23/06 09:50:31  5-MIN KMSN 231550Z 31010KT 8SM SCT016 BKN022 OVC028 00/M04 A2998 810 75 -700 310/10 RMK AO2 SLP162 T00001039
14837KMSN MSN20060223095511002/23/06 09:55:31  5-MIN KMSN 231555Z 30010KT 8SM FEW012 BKN018 OVC025 00/M04 A2998 810 75 -700 300/10 RMK AO2
14837KMSN MSN20060223100010302/23/06 10:00:31  5-MIN KMSN 231600Z 31011KT 8SM BKN019 OVC028 00/M04 A2998 810 75 -700 310/11 RMK AO2
14837KMSN MSN20060223100510302/23/06 10:05:31  5-MIN KMSN 231605Z 31010KT 8SM BKN019 OVC026 00/M04 A2998 810 72 -700 310/10 RMK AO2
14837KMSN MSN20060223101010302/23/06 10:10:31  5-MIN KMSN 231610Z 32010KT 8SM BKN019 BKN028 00/M04 A2999 800 72 -700 320/10 RMK AO2
14837KMSN MSN20060223101510302/23/06 10:15:31  5-MIN KMSN 231615Z 33009KT 8SM BKN019 BKN028 01/M04 A2998 800 69 -700 330/09 RMK AO2
14837KMSN MSN20060223102010302/23/06 10:20:31  5-MIN KMSN 231620Z 33011KT 8SM BKN019 BKN028 00/M04 A2999 800 72 -700 330/11 RMK AO2
14837KMSN MSN20060223102510302/23/06 10:25:31  5-MIN KMSN 231625Z 33009KT 8SM SCT022 BKN030 00/M05 A2999 800 69 -700 330/09 RMK AO2
14837KMSN MSN20060223103011002/23/06 10:30:31  5-MIN KMSN 231630Z 34011KT 8SM SCT022 BKN028 BKN035 00/M06 A2999 800 66 -700 330/11 RMK AO2
14837KMSN MSN20060223103511002/23/06 10:35:31  5-MIN KMSN 231635Z 34009KT 9SM SCT022 BKN030 BKN035 00/M06 A2999 800 63 -800 340/09 RMK AO2
14837KMSN MSN20060223104011102/23/06 10:40:31  5-MIN KMSN 231640Z 33013KT 10SM SCT022 BKN030 BKN035 01/M06 A3000 790 61 -700 330/13 RMK AO2
14837KMSN MSN20060223104511102/23/06 10:45:31  5-MIN KMSN 231645Z 34013KT 10SM SCT022 BKN030 BKN035 01/M07 A3000 790 58 -700 340/13 RMK AO2
14837KMSN MSN20060223105011402/23/06 10:50:31  5-MIN KMSN 231650Z 33011KT 10SM FEW027 01/M07 A3000 790 58 -700 330/11 RMK AO2 SLP169 T00061067
14837KMSN MSN20060223105509702/23/06 10:55:31  5-MIN KMSN 231655Z 31010KT 10SM FEW025 01/M07 A3000 790 56 -700 310/10 RMK AO2
14837KMSN MSN20060223110009702/23/06 11:00:31  5-MIN KMSN 231700Z 33010KT 10SM FEW025 00/M08 A3001 780 56 -800 320/10 RMK AO2
14837KMSN MSN20060223110509702/23/06 11:05:31  5-MIN KMSN 231705Z 31011KT 10SM FEW025 00/M09 A3001 780 51 -800 310/11 RMK AO2
14837KMSN MSN20060223111010302/23/06 11:10:31  5-MIN KMSN 231710Z 32013G18KT 10SM FEW025 00/M11 A3001 780 45 -800 320/13G18 RMK AO2
14837KMSN MSN20060223111510302/23/06 11:15:31  5-MIN KMSN 231715Z 33014G18KT 10SM FEW025 01/M11 A3001 780 43 -700 330/14G18 RMK AO2
14837KMSN MSN20060223112009702/23/06 11:20:31  5-MIN KMSN 231720Z 33014KT 10SM FEW025 01/M11 A3002 780 41 -700 320/14 RMK AO2
14837KMSN MSN20060223112509702/23/06 11:25:31  5-MIN KMSN 231725Z 32014KT 10SM FEW025 01/M11 A3002 770 43 -700 320/14 RMK AO2
14837KMSN MSN20060223113010302/23/06 11:30:31  5-MIN KMSN 231730Z 32014G19KT 10SM FEW025 00/M11 A3002 770 43 -800 320/14G19 RMK AO2
14837KMSN MSN20060223113510302/23/06 11:35:31  5-MIN KMSN 231735Z 32012G19KT 10SM FEW025 00/M11 A3003 760 45 -800 320/12G19 RMK AO2
14837KMSN MSN20060223114009702/23/06 11:40:31  5-MIN KMSN 231740Z 31014KT 10SM FEW025 00/M11 A3003 760 43 -800 310/14 RMK AO2
14837KMSN MSN20060223114509702/23/06 11:45:31  5-MIN KMSN 231745Z 30012KT 10SM FEW025 00/M12 A3004 760 41 -800 300/12 RMK AO2
14837KMSN MSN20060223115015702/23/06 11:50:31  5-MIN KMSN 231750Z 31014G20KT 10SM FEW025 00/M12 A3004 760 41 -800 310/14G20 RMK AO2 SLP182 60001 4/004 933007 T00001117 10006 21056 53026
14837KMSN MSN20060223115511602/23/06 11:55:31  5-MIN KMSN 231755Z 31014G20KT 270V340 10SM CLR 00/M13 A3004 750 38 -800 310/14G20 270V340 RMK AO2
14837KMSN MSN20060223120010002/23/06 12:00:31  5-MIN KMSN 231800Z 30011G18KT 10SM CLR 00/M12 A3004 760 41 -800 300/11G18 RMK AO2
14837KMSN MSN20060223120509402/23/06 12:05:31  5-MIN KMSN 231805Z 32012KT 10SM CLR 00/M12 A3004 760 41 -800 320/12 RMK AO2
14837KMSN MSN20060223121010002/23/06 12:10:31  5-MIN KMSN 231810Z 31016G19KT 10SM CLR 01/M11 A3004 760 41 -700 310/16G19 RMK AO2
14837KMSN MSN20060223121510002/23/06 12:15:31  5-MIN KMSN 231815Z 31013G19KT 10SM CLR 00/M12 A3004 760 41 -800 310/13G19 RMK AO2
14837KMSN MSN20060223122009502/23/06 12:20:31  5-MIN KMSN 231820Z 31010KT 10SM CLR M01/M11 A3004 750 45 -900 310/10 RMK AO2
14837KMSN MSN20060223122509402/23/06 12:25:31  5-MIN KMSN 231825Z 32011KT 10SM CLR 00/M11 A3004 760 43 -800 320/11 RMK AO2
14837KMSN MSN20060223123010002/23/06 12:30:31  5-MIN KMSN 231830Z 30010G17KT 10SM CLR 00/M11 A3004 760 43 -800 300/10G17 RMK AO2
14837KMSN MSN20060223123510002/23/06 12:35:31  5-MIN KMSN 231835Z 31012G18KT 10SM CLR 00/M12 A3004 750 39 -800 300/12G18 RMK AO2
14837KMSN MSN20060223124010002/23/06 12:40:31  5-MIN KMSN 231840Z 31012G18KT 10SM CLR 00/M12 A3004 750 41 -800 310/12G18 RMK AO2
14837KMSN MSN20060223124510002/23/06 12:45:31  5-MIN KMSN 231845Z 30009G18KT 10SM CLR 00/M12 A3004 750 39 -800 300/09G18 RMK AO2
14837KMSN MSN20060223125011102/23/06 12:50:31  5-MIN KMSN 231850Z 31014KT 10SM CLR 00/M12 A3005 750 39 -800 300/14 RMK AO2 SLP186 T00001122
14837KMSN MSN20060223125510102/23/06 12:55:31  5-MIN KMSN 231855Z 29010G16KT 10SM CLR M01/M12 A3005 750 41 -900 290/10G16 RMK AO2
14837KMSN MSN20060223130009502/23/06 13:00:31  5-MIN KMSN 231900Z 32011KT 10SM CLR M01/M12 A3005 750 41 -900 320/11 RMK AO2
14837KMSN MSN20060223130510002/23/06 13:05:31  5-MIN KMSN 231905Z 31013G18KT 10SM CLR 00/M12 A3005 750 39 -800 310/13G18 RMK AO2
14837KMSN MSN20060223131010102/23/06 13:10:31  5-MIN KMSN 231910Z 32011G18KT 10SM CLR M01/M12 A3005 740 41 -900 320/11G18 RMK AO2
14837KMSN MSN20060223131510102/23/06 13:15:31  5-MIN KMSN 231915Z 31013G18KT 10SM CLR M01/M12 A3005 750 41 -900 310/13G18 RMK AO2
14837KMSN MSN20060223132010102/23/06 13:20:31  5-MIN KMSN 231920Z 31013G19KT 10SM CLR M01/M12 A3005 750 41 -900 310/13G19 RMK AO2
14837KMSN MSN20060223132510202/23/06 13:25:31  5-MIN KMSN 231925Z 31012G19KT 10SM CLR M01/M13 A3005 740 39 -1000 310/12G19 RMK AO2
14837KMSN MSN20060223133009602/23/06 13:30:31  5-MIN KMSN 231930Z 31014KT 10SM CLR M01/M13 A3005 740 41 -1000 310/14 RMK AO2
14837KMSN MSN20060223133510202/23/06 13:35:31  5-MIN KMSN 231935Z 30010G18KT 10SM CLR M01/M13 A3006 740 41 -1000 290/10G18 RMK AO2
14837KMSN MSN20060223134010202/23/06 13:40:31  5-MIN KMSN 231940Z 32011G18KT 10SM CLR M01/M12 A3006 740 43 -1000 320/11G18 RMK AO2
14837KMSN MSN20060223134510202/23/06 13:45:31  5-MIN KMSN 231945Z 32014G18KT 10SM CLR M01/M13 A3007 730 41 -1000 320/14G18 RMK AO2
14837KMSN MSN20060223135011902/23/06 13:50:31  5-MIN KMSN 231950Z 31014G18KT 10SM CLR M01/M13 A3007 730 41 -1000 310/14G18 RMK AO2 SLP193 T10111128
14837KMSN MSN20060223135509602/23/06 13:55:31  5-MIN KMSN 231955Z 32010KT 10SM CLR M01/M12 A3007 720 43 -1000 320/10 RMK AO2
14837KMSN MSN20060223140009602/23/06 14:00:31  5-MIN KMSN 232000Z 30011KT 10SM CLR M01/M12 A3007 720 43 -1000 300/11 RMK AO2
14837KMSN MSN20060223140511202/23/06 14:05:31  5-MIN KMSN 232005Z 28009KT 240V310 10SM CLR M01/M12 A3007 720 43 -1000 280/09 240V310 RMK AO2
14837KMSN MSN20060223141011202/23/06 14:10:31  5-MIN KMSN 232010Z 29010KT 260V320 10SM CLR M01/M12 A3008 720 43 -1000 290/10 260V320 RMK AO2
14837KMSN MSN20060223141510202/23/06 14:15:31  5-MIN KMSN 232015Z 29013G17KT 10SM CLR M01/M13 A3008 720 41 -1000 290/13G17 RMK AO2
14837KMSN MSN20060223142009602/23/06 14:20:31  5-MIN KMSN 232020Z 31012KT 10SM CLR M01/M13 A3008 720 41 -1000 300/12 RMK AO2
14837KMSN MSN20060223142510202/23/06 14:25:31  5-MIN KMSN 232025Z 30012G18KT 10SM CLR M01/M13 A3008 720 41 -1000 300/12G18 RMK AO2
14837KMSN MSN20060223143010202/23/06 14:30:31  5-MIN KMSN 232030Z 30010G18KT 10SM CLR M01/M12 A3008 720 43 -1000 300/10G18 RMK AO2
14837KMSN MSN20060223143509602/23/06 14:35:31  5-MIN KMSN 232035Z 30011KT 10SM CLR M01/M13 A3008 710 41 -1000 300/11 RMK AO2
14837KMSN MSN20060223144009602/23/06 14:40:31  5-MIN KMSN 232040Z 29010KT 10SM CLR M01/M12 A3008 720 43 -1000 290/10 RMK AO2
14837KMSN MSN20060223144510202/23/06 14:45:31  5-MIN KMSN 232045Z 30011G16KT 10SM CLR M01/M12 A3008 720 43 -1000 300/11G16 RMK AO2
14837KMSN MSN20060223145012502/23/06 14:50:31  5-MIN KMSN 232050Z 31009G16KT 10SM CLR M01/M12 A3008 710 43 -1000 310/09G16 RMK AO2 SLP198 T10111122 53029
14837KMSN MSN20060223145509602/23/06 14:55:31  5-MIN KMSN 232055Z 30010KT 10SM CLR M01/M12 A3008 710 43 -1000 300/10 RMK AO2
14837KMSN MSN20060223150009602/23/06 15:00:31  5-MIN KMSN 232100Z 30008KT 10SM CLR M01/M12 A3008 710 45 -1000 300/08 RMK AO2
14837KMSN MSN20060223150509502/23/06 15:05:31  5-MIN KMSN 232105Z 30010KT 10SM CLR M01/M12 A3009 710 43 -900 300/10 RMK AO2
14837KMSN MSN20060223151009502/23/06 15:10:31  5-MIN KMSN 232110Z VRB06KT 10SM CLR M01/M11 A3009 710 45 -900 VRB/06 RMK AO2
14837KMSN MSN20060223151509502/23/06 15:15:31  5-MIN KMSN 232115Z 31007KT 10SM CLR M01/M11 A3009 710 45 -900 310/07 RMK AO2
14837KMSN MSN20060223152009602/23/06 15:20:31  5-MIN KMSN 232120Z 29007KT 10SM CLR M01/M12 A3009 710 45 -1000 290/07 RMK AO2
14837KMSN MSN20060223152509502/23/06 15:25:31  5-MIN KMSN 232125Z 31009KT 10SM CLR M01/M11 A3009 700 45 -900 310/09 RMK AO2
14837KMSN MSN20060223153009502/23/06 15:30:31  5-MIN KMSN 232130Z 31006KT 10SM CLR M01/M12 A3010 700 43 -900 310/06 RMK AO2
14837KMSN MSN20060223153509502/23/06 15:35:31  5-MIN KMSN 232135Z 30007KT 10SM CLR M01/M12 A3010 700 43 -900 300/07 RMK AO2
14837KMSN MSN20060223154009502/23/06 15:40:31  5-MIN KMSN 232140Z 32009KT 10SM CLR M01/M12 A3010 700 43 -900 320/09 RMK AO2
14837KMSN MSN20060223154509502/23/06 15:45:31  5-MIN KMSN 232145Z 33010KT 10SM CLR M01/M12 A3010 700 43 -900 320/10 RMK AO2
14837KMSN MSN20060223155011302/23/06 15:50:31  5-MIN KMSN 232150Z 32009KT 10SM CLR M01/M12 A3010 700 43 -1000 320/09 RMK AO2 SLP204 T10111122
14837KMSN MSN20060223155509602/23/06 15:55:31  5-MIN KMSN 232155Z 33012KT 10SM CLR M01/M12 A3011 690 43 -1000 330/12 RMK AO2
14837KMSN MSN20060223160009602/23/06 16:00:31  5-MIN KMSN 232200Z 33007KT 10SM CLR M01/M12 A3011 690 43 -1000 320/07 RMK AO2
14837KMSN MSN20060223160509602/23/06 16:05:31  5-MIN KMSN 232205Z 31008KT 10SM CLR M01/M13 A3012 680 41 -1000 310/08 RMK AO2
14837KMSN MSN20060223161009602/23/06 16:10:31  5-MIN KMSN 232210Z 31010KT 10SM CLR M01/M13 A3012 680 41 -1000 310/10 RMK AO2
14837KMSN MSN20060223161509602/23/06 16:15:31  5-MIN KMSN 232215Z 32010KT 10SM CLR M01/M13 A3012 680 41 -1000 320/10 RMK AO2
14837KMSN MSN20060223162009602/23/06 16:20:31  5-MIN KMSN 232220Z 32007KT 10SM CLR M01/M13 A3012 680 41 -1000 320/07 RMK AO2
14837KMSN MSN20060223162509602/23/06 16:25:31  5-MIN KMSN 232225Z 32008KT 10SM CLR M01/M12 A3013 670 43 -1000 320/08 RMK AO2
14837KMSN MSN20060223163009602/23/06 16:30:31  5-MIN KMSN 232230Z 32010KT 10SM CLR M02/M12 A3013 670 44 -1100 310/10 RMK AO2
14837KMSN MSN20060223163509602/23/06 16:35:31  5-MIN KMSN 232235Z 30009KT 10SM CLR M02/M13 A3013 670 42 -1100 300/09 RMK AO2
14837KMSN MSN20060223164009602/23/06 16:40:31  5-MIN KMSN 232240Z 31008KT 10SM CLR M02/M13 A3013 670 42 -1100 310/08 RMK AO2
14837KMSN MSN20060223164509602/23/06 16:45:31  5-MIN KMSN 232245Z 32008KT 10SM CLR M02/M12 A3014 670 44 -1100 320/08 RMK AO2
14837KMSN MSN20060223165011302/23/06 16:50:31  5-MIN KMSN 232250Z 32008KT 10SM CLR M02/M13 A3014 660 42 -1100 320/08 RMK AO2 SLP218 T10171128
14837KMSN MSN20060223165509602/23/06 16:55:31  5-MIN KMSN 232255Z 31009KT 10SM CLR M02/M13 A3014 660 42 -1100 300/09 RMK AO2
14837KMSN MSN20060223170009602/23/06 17:00:31  5-MIN KMSN 232300Z 31009KT 10SM CLR M02/M13 A3015 660 44 -1200 310/09 RMK AO2
14837KMSN MSN20060223170509602/23/06 17:05:31  5-MIN KMSN 232305Z 30006KT 10SM CLR M02/M13 A3015 650 44 -1200 300/06 RMK AO2
14837KMSN MSN20060223171009602/23/06 17:10:31  5-MIN KMSN 232310Z 31005KT 10SM CLR M03/M13 A3015 650 46 -1300 310/05 RMK AO2
14837KMSN MSN20060223171509602/23/06 17:15:31  5-MIN KMSN 232315Z 29008KT 10SM CLR M02/M13 A3015 650 44 -1200 290/08 RMK AO2
14837KMSN MSN20060223172009602/23/06 17:20:31  5-MIN KMSN 232320Z 29008KT 10SM CLR M02/M13 A3016 650 42 -1200 290/08 RMK AO2
14837KMSN MSN20060223172509602/23/06 17:25:31  5-MIN KMSN 232325Z 30006KT 10SM CLR M03/M13 A3016 640 44 -1300 300/06 RMK AO2
14837KMSN MSN20060223173009602/23/06 17:30:31  5-MIN KMSN 232330Z 31009KT 10SM CLR M03/M13 A3016 640 44 -1300 310/09 RMK AO2
14837KMSN MSN20060223173509602/23/06 17:35:31  5-MIN KMSN 232335Z 31005KT 10SM CLR M03/M13 A3016 640 44 -1300 310/05 RMK AO2
14837KMSN MSN20060223174010202/23/06 17:40:31  5-MIN KMSN 232340Z 30006KT 10SM CLR M03/M13 A3016 640 44 -1300 300/06 RMK AO2 4/004
14837KMSN MSN20060223174510202/23/06 17:45:31  5-MIN KMSN 232345Z 30005KT 10SM CLR M03/M13 A3016 640 46 -1400 300/05 RMK AO2 4/004
14837KMSN MSN20060223175013702/23/06 17:50:31  5-MIN KMSN 232350Z 30006KT 10SM CLR M03/M13 A3016 640 46 -1400 300/06 RMK AO2 SLP228 4/004 T10331133 10006 21033 53015
14837KMSN MSN20060223175509602/23/06 17:55:31  5-MIN KMSN 232355Z 30006KT 10SM CLR M03/M13 A3017 640 46 -1400 300/06 RMK AO2
14837KMSN MSN20060223180009602/23/06 18:00:31  5-MIN KMSN 240000Z 30006KT 10SM CLR M03/M13 A3017 630 46 -1400 300/06 RMK AO2
14837KMSN MSN20060223180509602/23/06 18:05:31  5-MIN KMSN 240005Z 29006KT 10SM CLR M03/M13 A3017 630 46 -1400 290/06 RMK AO2
14837KMSN MSN20060223181009902/23/06 18:10:31  5-MIN KMSN 240010Z 30005KT 10SM FEW110 M03/M13 A3018 630 46 -1400 300/05 RMK AO2
14837KMSN MSN20060223181509902/23/06 18:15:31  5-MIN KMSN 240015Z 30008KT 10SM FEW110 M03/M13 A3018 630 46 -1400 300/08 RMK AO2
14837KMSN MSN20060223182009902/23/06 18:20:31  5-MIN KMSN 240020Z 30007KT 10SM FEW110 M04/M14 A3018 630 46 -1500 300/07 RMK AO2
14837KMSN MSN20060223182509902/23/06 18:25:31  5-MIN KMSN 240025Z 31007KT 10SM FEW110 M04/M14 A3018 620 46 -1500 310/07 RMK AO2
14837KMSN MSN20060223183009902/23/06 18:30:31  5-MIN KMSN 240030Z 31006KT 10SM FEW110 M04/M14 A3018 620 44 -1500 310/06 RMK AO2
14837KMSN MSN20060223183509902/23/06 18:35:31  5-MIN KMSN 240035Z 30005KT 10SM FEW110 M04/M14 A3019 620 44 -1500 300/05 RMK AO2
14837KMSN MSN20060223184009602/23/06 18:40:31  5-MIN KMSN 240040Z 30007KT 10SM CLR M04/M14 A3019 620 44 -1500 300/07 RMK AO2
14837KMSN MSN20060223184509602/23/06 18:45:31  5-MIN KMSN 240045Z 30007KT 10SM CLR M04/M14 A3020 610 44 -1500 300/07 RMK AO2
14837KMSN MSN20060223185011302/23/06 18:50:31  5-MIN KMSN 240050Z 30006KT 10SM CLR M04/M14 A3020 610 46 -1600 300/06 RMK AO2 SLP239 T10441144
14837KMSN MSN20060223185509602/23/06 18:55:31  5-MIN KMSN 240055Z 31006KT 10SM CLR M04/M14 A3020 610 46 -1600 310/06 RMK AO2
14837KMSN MSN20060223190009602/23/06 19:00:31  5-MIN KMSN 240100Z 31006KT 10SM CLR M04/M14 A3020 610 48 -1600 310/06 RMK AO2
14837KMSN MSN20060223190509602/23/06 19:05:31  5-MIN KMSN 240105Z 31006KT 10SM CLR M05/M14 A3020 610 50 -1600 310/06 RMK AO2
14837KMSN MSN20060223191009602/23/06 19:10:31  5-MIN KMSN 240110Z 31006KT 10SM CLR M05/M14 A3020 600 50 -1600 310/06 RMK AO2
14837KMSN MSN20060223191509602/23/06 19:15:31  5-MIN KMSN 240115Z 30006KT 10SM CLR M05/M14 A3021 600 50 -1600 300/06 RMK AO2
14837KMSN MSN20060223192009602/23/06 19:20:31  5-MIN KMSN 240120Z 30005KT 10SM CLR M05/M14 A3021 600 48 -1600 300/05 RMK AO2
14837KMSN MSN20060223192509602/23/06 19:25:31  5-MIN KMSN 240125Z 31006KT 10SM CLR M05/M14 A3021 600 48 -1600 300/06 RMK AO2
14837KMSN MSN20060223193009602/23/06 19:30:31  5-MIN KMSN 240130Z 30005KT 10SM CLR M05/M14 A3021 590 48 -1600 300/05 RMK AO2
14837KMSN MSN20060223193509602/23/06 19:35:31  5-MIN KMSN 240135Z 30005KT 10SM CLR M05/M14 A3022 590 48 -1600 300/05 RMK AO2
14837KMSN MSN20060223194009602/23/06 19:40:31  5-MIN KMSN 240140Z 30005KT 10SM CLR M05/M14 A3022 590 48 -1600 300/05 RMK AO2
14837KMSN MSN20060223194509602/23/06 19:45:31  5-MIN KMSN 240145Z 30005KT 10SM CLR M05/M14 A3022 590 48 -1600 300/05 RMK AO2
14837KMSN MSN20060223195011302/23/06 19:50:31  5-MIN KMSN 240150Z 30005KT 10SM CLR M05/M14 A3022 590 48 -1600 300/05 RMK AO2 SLP247 T10501144
14837KMSN MSN20060223195509602/23/06 19:55:31  5-MIN KMSN 240155Z 31005KT 10SM CLR M06/M14 A3022 590 50 -1700 310/05 RMK AO2
14837KMSN MSN20060223200009602/23/06 20:00:31  5-MIN KMSN 240200Z 31005KT 10SM CLR M06/M14 A3022 590 50 -1700 310/05 RMK AO2
14837KMSN MSN20060223200509602/23/06 20:05:31  5-MIN KMSN 240205Z 31004KT 10SM CLR M06/M14 A3023 580 50 -1700 310/04 RMK AO2
14837KMSN MSN20060223201009602/23/06 20:10:31  5-MIN KMSN 240210Z 31004KT 10SM CLR M06/M14 A3023 580 50 -1700 300/04 RMK AO2
14837KMSN MSN20060223201509602/23/06 20:15:31  5-MIN KMSN 240215Z 31004KT 10SM CLR M06/M14 A3023 580 50 -1700 310/04 RMK AO2
14837KMSN MSN20060223202009602/23/06 20:20:31  5-MIN KMSN 240220Z 30003KT 10SM CLR M07/M14 A3023 580 54 -1900 300/03 RMK AO2
14837KMSN MSN20060223202509602/23/06 20:25:31  5-MIN KMSN 240225Z 29003KT 10SM CLR M07/M14 A3023 580 59 -2000 290/03 RMK AO2
14837KMSN MSN20060223203009602/23/06 20:30:31  5-MIN KMSN 240230Z 00000KT 10SM CLR M07/M13 A3023 580 62 -2000 000/00 RMK AO2
14837KMSN MSN20060223203509602/23/06 20:35:31  5-MIN KMSN 240235Z 27004KT 10SM CLR M08/M13 A3023 580 64 -2000 270/04 RMK AO2
14837KMSN MSN20060223204009602/23/06 20:40:31  5-MIN KMSN 240240Z 29004KT 10SM CLR M07/M14 A3023 580 59 -2000 290/04 RMK AO2
14837KMSN MSN20060223204509602/23/06 20:45:31  5-MIN KMSN 240245Z 29003KT 10SM CLR M08/M14 A3023 580 64 -2100 290/03 RMK AO2
14837KMSN MSN20060223205011902/23/06 20:50:31  5-MIN KMSN 240250Z 29003KT 10SM CLR M08/M14 A3023 570 64 -2100 290/03 RMK AO2 SLP252 T10831139 52028
14837KMSN MSN20060223205509602/23/06 20:55:31  5-MIN KMSN 240255Z 30003KT 10SM CLR M09/M14 A3023 580 67 -2200 300/03 RMK AO2
14837KMSN MSN20060223210009602/23/06 21:00:31  5-MIN KMSN 240300Z 30003KT 10SM CLR M09/M14 A3024 570 67 -2200 300/03 RMK AO2
14837KMSN MSN20060223210509602/23/06 21:05:31  5-MIN KMSN 240305Z 00000KT 10SM CLR M09/M14 A3024 570 67 -2200 000/00 RMK AO2
14837KMSN MSN20060223211009602/23/06 21:10:31  5-MIN KMSN 240310Z 00000KT 10SM CLR M09/M14 A3024 570 67 -2200 000/00 RMK AO2
14837KMSN MSN20060223211509602/23/06 21:15:31  5-MIN KMSN 240315Z 00000KT 10SM CLR M08/M14 A3024 570 59 -2000 000/00 RMK AO2
14837KMSN MSN20060223212009602/23/06 21:20:31  5-MIN KMSN 240320Z 00000KT 10SM CLR M08/M14 A3025 560 59 -2000 000/00 RMK AO2
14837KMSN MSN20060223212509602/23/06 21:25:31  5-MIN KMSN 240325Z 00000KT 10SM CLR M08/M14 A3024 570 59 -2000 000/00 RMK AO2
14837KMSN MSN20060223213009602/23/06 21:30:31  5-MIN KMSN 240330Z 00000KT 10SM CLR M08/M14 A3025 560 62 -2100 000/00 RMK AO2
14837KMSN MSN20060223213509602/23/06 21:35:31  5-MIN KMSN 240335Z 00000KT 10SM CLR M08/M15 A3025 560 59 -2100 000/00 RMK AO2
14837KMSN MSN20060223214009602/23/06 21:40:31  5-MIN KMSN 240340Z 00000KT 10SM CLR M09/M15 A3025 560 61 -2200 000/00 RMK AO2
14837KMSN MSN20060223214509602/23/06 21:45:31  5-MIN KMSN 240345Z 00000KT 10SM CLR M09/M15 A3025 560 61 -2200 000/00 RMK AO2
14837KMSN MSN20060223215011302/23/06 21:50:31  5-MIN KMSN 240350Z 00000KT 10SM CLR M09/M14 A3025 560 64 -2200 000/00 RMK AO2 SLP259 T10891144
14837KMSN MSN20060223215509602/23/06 21:55:31  5-MIN KMSN 240355Z 01003KT 10SM CLR M09/M14 A3025 560 64 -2200 360/03 RMK AO2
14837KMSN MSN20060223220009602/23/06 22:00:31  5-MIN KMSN 240400Z 34003KT 10SM CLR M09/M14 A3025 560 67 -2300 340/03 RMK AO2
14837KMSN MSN20060223220509602/23/06 22:05:31  5-MIN KMSN 240405Z 00000KT 10SM CLR M11/M14 A3026 560 77 -2400 000/00 RMK AO2
14837KMSN MSN20060223221009602/23/06 22:10:31  5-MIN KMSN 240410Z 00000KT 10SM CLR M11/M14 A3026 560 77 -2400 000/00 RMK AO2
14837KMSN MSN20060223221509602/23/06 22:15:31  5-MIN KMSN 240415Z 29003KT 10SM CLR M10/M14 A3026 560 70 -2300 290/03 RMK AO2
14837KMSN MSN20060223222009602/23/06 22:20:31  5-MIN KMSN 240420Z 31003KT 10SM CLR M10/M14 A3026 560 70 -2300 310/03 RMK AO2
14837KMSN MSN20060223222509602/23/06 22:25:31  5-MIN KMSN 240425Z 00000KT 10SM CLR M09/M14 A3026 550 67 -2300 000/00 RMK AO2
14837KMSN MSN20060223223009602/23/06 22:30:31  5-MIN KMSN 240430Z 33003KT 10SM CLR M10/M14 A3026 550 73 -2300 330/03 RMK AO2
14837KMSN MSN20060223223509602/23/06 22:35:31  5-MIN KMSN 240435Z 32003KT 10SM CLR M10/M14 A3026 550 70 -2300 320/03 RMK AO2
14837KMSN MSN20060223224009602/23/06 22:40:31  5-MIN KMSN 240440Z 00000KT 10SM CLR M11/M14 A3026 550 77 -2500 000/00 RMK AO2
14837KMSN MSN20060223224509602/23/06 22:45:31  5-MIN KMSN 240445Z 00000KT 10SM CLR M11/M14 A3026 550 77 -2500 000/00 RMK AO2
14837KMSN MSN20060223225011302/23/06 22:50:31  5-MIN KMSN 240450Z 00000KT 10SM CLR M11/M15 A3026 550 73 -2500 000/00 RMK AO2 SLP263 T11111150
14837KMSN MSN20060223225509602/23/06 22:55:31  5-MIN KMSN 240455Z 00000KT 10SM CLR M11/M15 A3027 540 73 -2500 000/00 RMK AO2
14837KMSN MSN20060223230009602/23/06 23:00:31  5-MIN KMSN 240500Z 00000KT 10SM CLR M11/M15 A3027 550 73 -2500 000/00 RMK AO2
14837KMSN MSN20060223230509602/23/06 23:05:31  5-MIN KMSN 240505Z 00000KT 10SM CLR M11/M14 A3027 540 77 -2500 000/00 RMK AO2
14837KMSN MSN20060223231009602/23/06 23:10:31  5-MIN KMSN 240510Z 00000KT 10SM CLR M12/M16 A3027 540 73 -2700 000/00 RMK AO2
14837KMSN MSN20060223231509602/23/06 23:15:31  5-MIN KMSN 240515Z 00000KT 10SM CLR M12/M16 A3027 540 73 -2600 000/00 RMK AO2
14837KMSN MSN20060223232009602/23/06 23:20:31  5-MIN KMSN 240520Z 00000KT 10SM CLR M11/M15 A3027 540 73 -2500 000/00 RMK AO2
14837KMSN MSN20060223232509602/23/06 23:25:31  5-MIN KMSN 240525Z 00000KT 10SM CLR M12/M15 A3027 540 76 -2600 000/00 RMK AO2
14837KMSN MSN20060223233009602/23/06 23:30:31  5-MIN KMSN 240530Z 00000KT 10SM CLR M11/M14 A3028 530 77 -2500 000/00 RMK AO2
14837KMSN MSN20060223233510202/23/06 23:35:31  5-MIN KMSN 240535Z 00000KT 10SM CLR M11/M14 A3028 530 77 -2500 000/00 RMK AO2 4/004
14837KMSN MSN20060223234010202/23/06 23:40:31  5-MIN KMSN 240540Z 00000KT 10SM CLR M11/M14 A3028 530 77 -2500 000/00 RMK AO2 4/004
14837KMSN MSN20060223234510202/23/06 23:45:31  5-MIN KMSN 240545Z 00000KT 10SM CLR M11/M15 A3028 530 73 -2500 000/00 RMK AO2 4/004
14837KMSN MSN20060223235014702/23/06 23:50:31  5-MIN KMSN 240550Z 00000KT 10SM CLR M12/M16 A3028 530 73 -2600 000/00 RMK AO2 SLP268 4/004 T11171156 11033 21122 400061122 51023
14837KMSN MSN20060223235509602/23/06 23:55:31  5-MIN KMSN 240555Z 00000KT 10SM CLR M12/M16 A3028 530 76 -2700 000/00 RMK AO2
14837KMSN MSN20060224000009602/24/06 00:00:38  5-MIN KMSN 240600Z 00000KT 10SM CLR M12/M16 A3029 530 70 -2600 000/00 RMK AO2
14837KMSN MSN20060224000509602/24/06 00:05:31  5-MIN KMSN 240605Z 16003KT 10SM CLR M12/M16 A3029 530 70 -2600 160/03 RMK AO2
14837KMSN MSN20060224001009602/24/06 00:10:31  5-MIN KMSN 240610Z 14003KT 10SM CLR M11/M16 A3029 530 67 -2500 140/03 RMK AO2
14837KMSN MSN20060224001509602/24/06 00:15:32  5-MIN KMSN 240615Z 00000KT 10SM CLR M12/M16 A3029 530 70 -2600 000/00 RMK AO2
14837KMSN MSN20060224002009602/24/06 00:20:31  5-MIN KMSN 240620Z 00000KT 10SM CLR M11/M16 A3029 520 70 -2500 000/00 RMK AO2
14837KMSN MSN20060224002509602/24/06 00:25:31  5-MIN KMSN 240625Z 00000KT 10SM CLR M13/M17 A3029 520 73 -2700 000/00 RMK AO2
14837KMSN MSN20060224003009602/24/06 00:30:31  5-MIN KMSN 240630Z 00000KT 10SM CLR M13/M17 A3029 520 73 -2800 000/00 RMK AO2
14837KMSN MSN20060224003509602/24/06 00:35:31  5-MIN KMSN 240635Z 00000KT 10SM CLR M13/M17 A3030 520 73 -2800 000/00 RMK AO2
14837KMSN MSN20060224004009602/24/06 00:40:31  5-MIN KMSN 240640Z 00000KT 10SM CLR M13/M16 A3030 510 76 -2800 000/00 RMK AO2
14837KMSN MSN20060224004509602/24/06 00:45:31  5-MIN KMSN 240645Z 00000KT 10SM CLR M13/M16 A3030 510 76 -2800 000/00 RMK AO2
14837KMSN MSN20060224005011302/24/06 00:50:31  5-MIN KMSN 240650Z 00000KT 10SM CLR M13/M16 A3031 510 76 -2800 000/00 RMK AO2 SLP277 T11281161
14837KMSN MSN20060224005509602/24/06 00:55:31  5-MIN KMSN 240655Z 00000KT 10SM CLR M12/M16 A3031 510 73 -2700 000/00 RMK AO2
14837KMSN MSN20060224010009602/24/06 01:00:31  5-MIN KMSN 240700Z 00000KT 10SM CLR M12/M16 A3030 510 73 -2600 000/00 RMK AO2
14837KMSN MSN20060224010509602/24/06 01:05:31  5-MIN KMSN 240705Z 00000KT 10SM CLR M12/M16 A3030 510 73 -2600 000/00 RMK AO2
14837KMSN MSN20060224011009602/24/06 01:10:31  5-MIN KMSN 240710Z 00000KT 10SM CLR M12/M16 A3030 510 73 -2600 000/00 RMK AO2
14837KMSN MSN20060224011509602/24/06 01:15:31  5-MIN KMSN 240715Z 00000KT 10SM CLR M12/M16 A3030 510 73 -2600 000/00 RMK AO2
14837KMSN MSN20060224012009602/24/06 01:20:31  5-MIN KMSN 240720Z 00000KT 10SM CLR M13/M16 A3030 510 76 -2800 000/00 RMK AO2
14837KMSN MSN20060224012509602/24/06 01:25:31  5-MIN KMSN 240725Z 00000KT 10SM CLR M13/M16 A3031 510 80 -2800 000/00 RMK AO2
14837KMSN MSN20060224013009602/24/06 01:30:31  5-MIN KMSN 240730Z 00000KT 10SM CLR M13/M16 A3030 510 80 -2800 000/00 RMK AO2
14837KMSN MSN20060224013509602/24/06 01:35:31  5-MIN KMSN 240735Z 00000KT 10SM CLR M13/M16 A3030 510 76 -2800 000/00 RMK AO2
14837KMSN MSN20060224014009602/24/06 01:40:31  5-MIN KMSN 240740Z 00000KT 10SM CLR M13/M17 A3030 510 76 -2800 000/00 RMK AO2
14837KMSN MSN20060224014509602/24/06 01:45:31  5-MIN KMSN 240745Z 00000KT 10SM CLR M13/M16 A3030 510 76 -2800 000/00 RMK AO2
14837KMSN MSN20060224015011302/24/06 01:50:31  5-MIN KMSN 240750Z 00000KT 10SM CLR M13/M17 A3030 510 76 -2800 000/00 RMK AO2 SLP278 T11331167
14837KMSN MSN20060224015509602/24/06 01:55:31  5-MIN KMSN 240755Z 00000KT 10SM CLR M13/M16 A3031 510 76 -2800 000/00 RMK AO2
14837KMSN MSN20060224020009602/24/06 02:00:31  5-MIN KMSN 240800Z 00000KT 10SM CLR M13/M16 A3031 510 76 -2800 000/00 RMK AO2
14837KMSN MSN20060224020509602/24/06 02:05:31  5-MIN KMSN 240805Z 00000KT 10SM CLR M13/M16 A3030 510 80 -2800 000/00 RMK AO2
14837KMSN MSN20060224021009602/24/06 02:10:31  5-MIN KMSN 240810Z 00000KT 10SM CLR M13/M17 A3030 510 76 -2800 000/00 RMK AO2
14837KMSN MSN20060224021509602/24/06 02:15:31  5-MIN KMSN 240815Z 00000KT 10SM CLR M13/M16 A3030 520 76 -2800 000/00 RMK AO2
14837KMSN MSN20060224022009602/24/06 02:20:31  5-MIN KMSN 240820Z 00000KT 10SM CLR M13/M16 A3029 520 76 -2800 000/00 RMK AO2
14837KMSN MSN20060224022509602/24/06 02:25:31  5-MIN KMSN 240825Z 00000KT 10SM CLR M14/M17 A3029 520 76 -2900 000/00 RMK AO2
14837KMSN MSN20060224023009602/24/06 02:30:31  5-MIN KMSN 240830Z 00000KT 10SM CLR M13/M17 A3029 530 76 -2800 000/00 RMK AO2
14837KMSN MSN20060224023509902/24/06 02:35:31  5-MIN KMSN 240835Z 06003KT 10SM SCT120 M13/M16 A3028 530 80 -2800 060/03 RMK AO2
14837KMSN MSN20060224024009902/24/06 02:40:31  5-MIN KMSN 240840Z 00000KT 10SM SCT120 M13/M16 A3028 530 80 -2800 000/00 RMK AO2
14837KMSN MSN20060224024509902/24/06 02:45:31  5-MIN KMSN 240845Z 00000KT 10SM SCT120 M13/M16 A3028 530 80 -2800 000/00 RMK AO2
14837KMSN MSN20060224025012202/24/06 02:50:31  5-MIN KMSN 240850Z 00000KT 10SM SCT120 M13/M17 A3028 530 73 -2700 000/00 RMK AO2 SLP269 T11281167 51016
14837KMSN MSN20060224025509902/24/06 02:55:31  5-MIN KMSN 240855Z 00000KT 10SM SCT120 M12/M17 A3028 530 70 -2700 000/00 RMK AO2
14837KMSN MSN20060224030009902/24/06 03:00:31  5-MIN KMSN 240900Z 00000KT 10SM BKN120 M11/M16 A3029 530 64 -2400 000/00 RMK AO2
14837KMSN MSN20060224030509902/24/06 03:05:31  5-MIN KMSN 240905Z 00000KT 10SM BKN120 M12/M16 A3029 530 73 -2700 000/00 RMK AO2
14837KMSN MSN20060224031009902/24/06 03:10:31  5-MIN KMSN 240910Z 00000KT 10SM BKN120 M12/M16 A3028 530 76 -2700 000/00 RMK AO2
14837KMSN MSN20060224031509902/24/06 03:15:31  5-MIN KMSN 240915Z 00000KT 10SM BKN120 M12/M16 A3028 530 73 -2700 000/00 RMK AO2
14837KMSN MSN20060224032009902/24/06 03:20:31  5-MIN KMSN 240920Z 00000KT 10SM OVC120 M12/M16 A3029 530 70 -2600 000/00 RMK AO2
14837KMSN MSN20060224032509902/24/06 03:25:31  5-MIN KMSN 240925Z 24003KT 10SM OVC120 M09/M16 A3029 520 59 -2300 240/03 RMK AO2
14837KMSN MSN20060224033009902/24/06 03:30:31  5-MIN KMSN 240930Z 00000KT 10SM OVC120 M07/M16 A3029 520 49 -2000 000/00 RMK AO2
14837KMSN MSN20060224033509902/24/06 03:35:31  5-MIN KMSN 240935Z 00000KT 10SM OVC120 M11/M16 A3029 530 67 -2500 000/00 RMK AO2
14837KMSN MSN20060224034009902/24/06 03:40:31  5-MIN KMSN 240940Z 00000KT 10SM OVC110 M12/M16 A3028 530 70 -2600 000/00 RMK AO2
14837KMSN MSN20060224034509902/24/06 03:45:31  5-MIN KMSN 240945Z 00000KT 10SM OVC110 M11/M16 A3029 530 70 -2500 000/00 RMK AO2
14837KMSN MSN20060224035011602/24/06 03:50:31  5-MIN KMSN 240950Z 00000KT 10SM BKN110 M11/M16 A3028 530 70 -2500 000/00 RMK AO2 SLP270 T11111156
14837KMSN MSN20060224035509902/24/06 03:55:31  5-MIN KMSN 240955Z 00000KT 10SM OVC110 M11/M15 A3029 530 73 -2500 000/00 RMK AO2
14837KMSN MSN20060224040009902/24/06 04:00:31  5-MIN KMSN 241000Z 00000KT 10SM OVC110 M11/M15 A3029 520 73 -2500 000/00 RMK AO2
14837KMSN MSN20060224040509902/24/06 04:05:31  5-MIN KMSN 241005Z 00000KT 10SM OVC110 M11/M14 A3029 520 73 -2500 000/00 RMK AO2
14837KMSN MSN20060224041009902/24/06 04:10:31  5-MIN KMSN 241010Z 00000KT 10SM OVC110 M11/M14 A3029 520 73 -2500 000/00 RMK AO2
14837KMSN MSN20060224041509902/24/06 04:15:31  5-MIN KMSN 241015Z 00000KT 10SM OVC110 M11/M15 A3029 520 70 -2500 000/00 RMK AO2
14837KMSN MSN20060224042009902/24/06 04:20:31  5-MIN KMSN 241020Z 00000KT 10SM OVC110 M10/M15 A3029 520 67 -2400 000/00 RMK AO2
14837KMSN MSN20060224042509902/24/06 04:25:31  5-MIN KMSN 241025Z 00000KT 10SM OVC110 M10/M15 A3029 520 67 -2400 000/00 RMK AO2
14837KMSN MSN20060224043009902/24/06 04:30:31  5-MIN KMSN 241030Z 00000KT 10SM OVC110 M09/M15 A3029 520 64 -2300 000/00 RMK AO2
14837KMSN MSN20060224043509902/24/06 04:35:31  5-MIN KMSN 241035Z 00000KT 10SM OVC110 M09/M15 A3029 520 64 -2300 000/00 RMK AO2
14837KMSN MSN20060224044009902/24/06 04:40:31  5-MIN KMSN 241040Z 00000KT 10SM OVC110 M10/M15 A3030 520 67 -2400 000/00 RMK AO2
14837KMSN MSN20060224044509902/24/06 04:45:31  5-MIN KMSN 241045Z 00000KT 10SM OVC110 M10/M15 A3029 520 67 -2400 000/00 RMK AO2
14837KMSN MSN20060224045011602/24/06 04:50:31  5-MIN KMSN 241050Z 00000KT 10SM BKN110 M10/M15 A3028 530 67 -2400 000/00 RMK AO2 SLP269 T11001150
14837KMSN MSN20060224045509902/24/06 04:55:31  5-MIN KMSN 241055Z 00000KT 10SM OVC110 M10/M15 A3028 530 67 -2400 000/00 RMK AO2
14837KMSN MSN20060224050009902/24/06 05:00:31  5-MIN KMSN 241100Z 06003KT 10SM OVC110 M10/M15 A3028 530 67 -2400 060/03 RMK AO2
14837KMSN MSN20060224050509902/24/06 05:05:31  5-MIN KMSN 241105Z 00000KT 10SM OVC120 M09/M14 A3028 530 67 -2300 000/00 RMK AO2
14837KMSN MSN20060224051009902/24/06 05:10:31  5-MIN KMSN 241110Z 00000KT 10SM BKN120 M09/M14 A3029 530 64 -2200 000/00 RMK AO2
14837KMSN MSN20060224051509902/24/06 05:15:31  5-MIN KMSN 241115Z 00000KT 10SM BKN110 M08/M14 A3029 530 59 -2100 000/00 RMK AO2
14837KMSN MSN20060224052009902/24/06 05:20:31  5-MIN KMSN 241120Z 00000KT 10SM OVC110 M08/M14 A3029 530 64 -2200 000/00 RMK AO2
14837KMSN MSN20060224052509902/24/06 05:25:31  5-MIN KMSN 241125Z 00000KT 10SM OVC110 M08/M14 A3029 530 62 -2200 000/00 RMK AO2
14837KMSN MSN20060224053009902/24/06 05:30:31  5-MIN KMSN 241130Z 00000KT 10SM OVC110 M09/M14 A3029 530 64 -2200 000/00 RMK AO2
14837KMSN MSN20060224053509902/24/06 05:35:31  5-MIN KMSN 241135Z 00000KT 10SM OVC100 M08/M14 A3029 520 62 -2200 000/00 RMK AO2
14837KMSN MSN20060224054010602/24/06 05:40:31  5-MIN KMSN 241140Z 00000KT 10SM BKN100 OVC120 M09/M14 A3029 530 67 -2200 000/00 RMK AO2
14837KMSN MSN20060224054509902/24/06 05:45:31  5-MIN KMSN 241145Z 00000KT 10SM OVC100 M09/M14 A3029 530 64 -2200 000/00 RMK AO2
14837KMSN MSN20060224055014602/24/06 05:50:31  5-MIN KMSN 241150Z 00000KT 10SM BKN100 M09/M14 A3029 520 67 -2200 000/00 RMK AO2 SLP272 70001 4/004 T10891139 11067 21139 50000
14837KMSN MSN20060224055509902/24/06 05:55:31  5-MIN KMSN 241155Z 00000KT 10SM OVC100 M08/M14 A3030 520 64 -2200 000/00 RMK AO2
14837KMSN MSN20060224060009902/24/06 06:00:31  5-MIN KMSN 241200Z 00000KT 10SM OVC100 M08/M14 A3029 520 64 -2200 000/00 RMK AO2
14837KMSN MSN20060224060509902/24/06 06:05:31  5-MIN KMSN 241205Z 00000KT 10SM OVC100 M08/M14 A3029 520 64 -2200 000/00 RMK AO2
14837KMSN MSN20060224061009902/24/06 06:10:31  5-MIN KMSN 241210Z 07003KT 10SM OVC100 M08/M14 A3029 530 64 -2200 070/03 RMK AO2
14837KMSN MSN20060224061509902/24/06 06:15:31  5-MIN KMSN 241215Z 06004KT 10SM OVC095 M08/M13 A3028 530 67 -2200 050/04 RMK AO2
14837KMSN MSN20060224062009902/24/06 06:20:31  5-MIN KMSN 241220Z 00000KT 10SM OVC090 M09/M13 A3028 530 70 -2200 000/00 RMK AO2
14837KMSN MSN20060224062509902/24/06 06:25:31  5-MIN KMSN 241225Z 00000KT 10SM OVC090 M08/M13 A3028 530 64 -2100 000/00 RMK AO2
14837KMSN MSN20060224063009902/24/06 06:30:31  5-MIN KMSN 241230Z 00000KT 10SM OVC090 M08/M13 A3028 530 67 -2200 000/00 RMK AO2
14837KMSN MSN20060224063509902/24/06 06:35:31  5-MIN KMSN 241235Z 00000KT 10SM OVC090 M09/M13 A3028 530 70 -2200 000/00 RMK AO2
14837KMSN MSN20060224064009902/24/06 06:40:31  5-MIN KMSN 241240Z 00000KT 10SM OVC090 M09/M13 A3028 530 70 -2200 000/00 RMK AO2
14837KMSN MSN20060224064509902/24/06 06:45:31  5-MIN KMSN 241245Z 00000KT 10SM OVC090 M08/M13 A3028 530 67 -2100 000/00 RMK AO2
14837KMSN MSN20060224065011602/24/06 06:50:31  5-MIN KMSN 241250Z 00000KT 10SM BKN090 M08/M13 A3027 540 64 -2100 000/00 RMK AO2 SLP267 T10781133
14837KMSN MSN20060224065509902/24/06 06:55:31  5-MIN KMSN 241255Z 00000KT 10SM OVC090 M08/M13 A3028 540 67 -2100 000/00 RMK AO2
14837KMSN MSN20060224070009902/24/06 07:00:31  5-MIN KMSN 241300Z 14003KT 10SM OVC090 M07/M13 A3028 540 62 -2000 130/03 RMK AO2
14837KMSN MSN20060224070509902/24/06 07:05:31  5-MIN KMSN 241305Z 15003KT 10SM OVC085 M06/M13 A3028 540 57 -1900 150/03 RMK AO2
14837KMSN MSN20060224071009902/24/06 07:10:31  5-MIN KMSN 241310Z 16004KT 10SM OVC085 M06/M13 A3028 530 59 -1900 160/04 RMK AO2
14837KMSN MSN20060224071509902/24/06 07:15:31  5-MIN KMSN 241315Z 16005KT 10SM OVC080 M04/M13 A3028 530 52 -1600 160/05 RMK AO2
14837KMSN MSN20060224072009802/24/06 07:20:31  5-MIN KMSN 241320Z 16005KT 10SM OVC080 01/M13 A3028 540 36 -1000 160/05 RMK AO2
14837KMSN MSN20060224072509702/24/06 07:25:31  5-MIN KMSN 241325Z 16005KT 10SM OVC080 03/M13 A3027 540 29 -700 160/05 RMK AO2
14837KMSN MSN20060224073009702/24/06 07:30:31  5-MIN KMSN 241330Z 16005KT 10SM OVC085 03/M13 A3027 540 30 -700 160/05 RMK AO2
14837KMSN MSN20060224073509702/24/06 07:35:31  5-MIN KMSN 241335Z 15005KT 10SM OVC085 03/M13 A3027 550 31 -700 150/05 RMK AO2
14837KMSN MSN20060224074009702/24/06 07:40:31  5-MIN KMSN 241340Z 15006KT 10SM OVC085 03/M13 A3026 550 31 -700 150/06 RMK AO2
14837KMSN MSN20060224074509702/24/06 07:45:31  5-MIN KMSN 241345Z 16008KT 10SM BKN080 03/M13 A3027 550 31 -700 160/08 RMK AO2
14837KMSN MSN20060224075012102/24/06 07:50:31  5-MIN KMSN 241350Z 16011KT 10SM SCT075 BKN090 03/M13 A3026 550 29 -700 160/11 RMK AO2 SLP260 T00281133
14837KMSN MSN20060224075510402/24/06 07:55:31  5-MIN KMSN 241355Z 16011KT 10SM BKN075 BKN090 02/M13 A3027 550 32 -900 160/11 RMK AO2
14837KMSN MSN20060224080010402/24/06 08:00:31  5-MIN KMSN 241400Z 17006KT 10SM BKN070 OVC085 01/M13 A3027 540 33 -900 160/06 RMK AO2
14837KMSN MSN20060224080510402/24/06 08:05:31  5-MIN KMSN 241405Z 17009KT 10SM BKN070 BKN080 01/M13 A3027 540 33 -900 170/09 RMK AO2
14837KMSN MSN20060224081009702/24/06 08:10:31  5-MIN KMSN 241410Z 17009KT 10SM BKN070 01/M13 A3027 540 33 -900 170/09 RMK AO2
14837KMSN MSN20060224081509802/24/06 08:15:31  5-MIN KMSN 241415Z 17010KT 10SM OVC070 01/M13 A3027 550 35 -1000 160/10 RMK AO2
14837KMSN MSN20060224082009802/24/06 08:20:31  5-MIN KMSN 241420Z 16009KT 10SM OVC070 01/M13 A3027 550 35 -1000 160/09 RMK AO2
14837KMSN MSN20060224082509902/24/06 08:25:31  5-MIN KMSN 241425Z 16009KT 10SM BKN065 M04/M13 A3027 550 48 -1600 160/09 RMK AO2
14837KMSN MSN20060224083010602/24/06 08:30:31  5-MIN KMSN 241430Z 16008KT 10SM BKN060 OVC070 M04/M13 A3027 540 48 -1600 160/08 RMK AO2
14837KMSN MSN20060224083510602/24/06 08:35:31  5-MIN KMSN 241435Z 16008KT 10SM BKN055 OVC070 M04/M13 A3027 540 48 -1600 160/08 RMK AO2
14837KMSN MSN20060224084010602/24/06 08:40:31  5-MIN KMSN 241440Z 15008KT 10SM BKN055 OVC070 M04/M13 A3027 540 48 -1600 150/08 RMK AO2
14837KMSN MSN20060224084511302/24/06 08:45:31  5-MIN KMSN 241445Z 16009KT 10SM FEW040 BKN050 OVC065 M04/M13 A3026 550 48 -1600 160/09 RMK AO2
14837KMSN MSN20060224085012902/24/06 08:50:31  5-MIN KMSN 241450Z 17009KT 10SM FEW038 OVC046 M04/M13 A3026 550 48 -1600 160/09 RMK AO2 SLP263 T10391133 53004
14837KMSN MSN20060224085509902/24/06 08:55:31  5-MIN KMSN 241455Z 16008KT 10SM OVC042 M03/M13 A3026 550 46 -1500 160/08 RMK AO2
14837KMSN MSN20060224090009902/24/06 09:00:31  5-MIN KMSN 241500Z 16010KT 10SM BKN042 M03/M13 A3026 550 46 -1500 160/10 RMK AO2
14837KMSN MSN20060224090510602/24/06 09:05:31  5-MIN KMSN 241505Z 16008KT 10SM FEW039 BKN047 M03/M13 A3026 550 46 -1500 160/08 RMK AO2
14837KMSN MSN20060224091010602/24/06 09:10:31  5-MIN KMSN 241510Z 16008KT 10SM SCT047 BKN080 M03/M13 A3026 550 46 -1500 150/08 RMK AO2
14837KMSN MSN20060224091510602/24/06 09:15:31  5-MIN KMSN 241515Z 16008KT 10SM BKN065 BKN080 M03/M13 A3025 560 46 -1500 160/08 RMK AO2
14837KMSN MSN20060224092009902/24/06 09:20:31  5-MIN KMSN 241520Z 17012KT 10SM BKN080 M03/M13 A3025 560 46 -1500 170/12 RMK AO2
14837KMSN MSN20060224092510602/24/06 09:25:31  5-MIN KMSN 241525Z 17012KT 10SM FEW075 BKN090 M03/M13 A3025 560 48 -1500 170/12 RMK AO2
14837KMSN MSN20060224093010602/24/06 09:30:31  5-MIN KMSN 241530Z 17011KT 10SM FEW075 BKN090 M03/M13 A3024 570 48 -1500 160/11 RMK AO2
14837KMSN MSN20060224093509902/24/06 09:35:31  5-MIN KMSN 241535Z 16013KT 10SM SCT085 M03/M13 A3024 570 48 -1500 160/13 RMK AO2
14837KMSN MSN20060224094009902/24/06 09:40:31  5-MIN KMSN 241540Z 16012KT 10SM SCT090 M03/M13 A3023 580 48 -1500 160/12 RMK AO2
14837KMSN MSN20060224094509902/24/06 09:45:31  5-MIN KMSN 241545Z 16012KT 10SM FEW090 M03/M13 A3023 580 48 -1400 160/12 RMK AO2
14837KMSN MSN20060224095011602/24/06 09:50:31  5-MIN KMSN 241550Z 16013KT 10SM FEW055 M03/M13 A3023 580 48 -1400 160/13 RMK AO2 SLP250 T10331128
14837KMSN MSN20060224095510402/24/06 09:55:31  5-MIN KMSN 241555Z 16012KT 10SM FEW055 SCT080 02/M12 A3022 590 35 -800 160/12 RMK AO2
14837KMSN MSN20060224100009902/24/06 10:00:31  5-MIN KMSN 241600Z 16015KT 10SM BKN090 M02/M12 A3022 590 46 -1300 160/15 RMK AO2
14837KMSN MSN20060224100509902/24/06 10:05:31  5-MIN KMSN 241605Z 17014KT 10SM BKN090 M02/M12 A3022 590 46 -1300 170/14 RMK AO2
14837KMSN MSN20060224101009902/24/06 10:10:31  5-MIN KMSN 241610Z 17012KT 10SM BKN090 M02/M12 A3021 590 46 -1300 170/12 RMK AO2
14837KMSN MSN20060224101509902/24/06 10:15:31  5-MIN KMSN 241615Z 18013KT 10SM SCT090 M02/M12 A3021 590 46 -1300 180/13 RMK AO2
14837KMSN MSN20060224102009902/24/06 10:20:31  5-MIN KMSN 241620Z 17012KT 10SM SCT090 M02/M12 A3021 600 46 -1300 170/12 RMK AO2
14837KMSN MSN20060224102510502/24/06 10:25:31  5-MIN KMSN 241625Z 18015G19KT 10SM FEW095 M02/M12 A3020 610 46 -1300 170/15G19 RMK AO2
14837KMSN MSN20060224103010602/24/06 10:30:31  5-MIN KMSN 241630Z 17014KT 10SM FEW095 M02/M12 A3019 620 46 -1300 170/14 RMK AO2 PRESFR
14837KMSN MSN20060224103509602/24/06 10:35:31  5-MIN KMSN 241635Z 17014KT 10SM CLR M02/M12 A3019 620 46 -1300 170/14 RMK AO2
14837KMSN MSN20060224104009902/24/06 10:40:31  5-MIN KMSN 241640Z 17014KT 10SM FEW090 M02/M12 A3019 620 46 -1300 170/14 RMK AO2
14837KMSN MSN20060224104509902/24/06 10:45:31  5-MIN KMSN 241645Z 16014KT 10SM FEW100 M02/M12 A3018 620 46 -1200 160/14 RMK AO2
14837KMSN MSN20060224105011602/24/06 10:50:31  5-MIN KMSN 241650Z 16013KT 10SM FEW100 M02/M11 A3018 620 49 -1200 160/13 RMK AO2 SLP235 T10171111
14837KMSN MSN20060224105509702/24/06 10:55:31  5-MIN KMSN 241655Z 16012KT 10SM FEW100 03/M11 A3017 630 34 -500 160/12 RMK AO2
14837KMSN MSN20060224110009902/24/06 11:00:31  5-MIN KMSN 241700Z 16013KT 10SM FEW100 M02/M11 A3017 630 49 -1200 160/13 RMK AO2
14837KMSN MSN20060224110509902/24/06 11:05:31  5-MIN KMSN 241705Z 16013KT 10SM SCT100 M02/M11 A3017 640 49 -1200 160/13 RMK AO2
14837KMSN MSN20060224111009902/24/06 11:10:31  5-MIN KMSN 241710Z 15015KT 10SM BKN110 M02/M11 A3016 640 49 -1200 150/15 RMK AO2
14837KMSN MSN20060224111509902/24/06 11:15:31  5-MIN KMSN 241715Z 16016KT 10SM BKN110 M02/M11 A3016 640 49 -1200 160/16 RMK AO2
14837KMSN MSN20060224112009902/24/06 11:20:31  5-MIN KMSN 241720Z 16013KT 10SM BKN110 M02/M11 A3016 650 49 -1100 160/13 RMK AO2
14837KMSN MSN20060224112509902/24/06 11:25:31  5-MIN KMSN 241725Z 16013KT 10SM BKN110 M01/M11 A3015 650 47 -1100 160/13 RMK AO2
14837KMSN MSN20060224113009902/24/06 11:30:31  5-MIN KMSN 241730Z 16015KT 10SM OVC110 M01/M11 A3015 660 47 -1100 160/15 RMK AO2
14837KMSN MSN20060224113509902/24/06 11:35:31  5-MIN KMSN 241735Z 16015KT 10SM OVC110 M02/M11 A3014 660 51 -1100 160/15 RMK AO2
14837KMSN MSN20060224114009902/24/06 11:40:31  5-MIN KMSN 241740Z 16015KT 10SM OVC110 M01/M11 A3014 660 49 -1100 160/15 RMK AO2
14837KMSN MSN20060224114509902/24/06 11:45:31  5-MIN KMSN 241745Z 17014KT 10SM BKN110 M01/M11 A3013 670 49 -1100 170/14 RMK AO2
14837KMSN MSN20060224115014002/24/06 11:50:31  5-MIN KMSN 241750Z 15015G20KT 10SM BKN110 M01/M10 A3013 670 49 -1000 150/15G20 RMK AO2 SLP217 T10061100 10033 21089 56010
14837KMSN MSN20060224115509902/24/06 11:55:31  5-MIN KMSN 241755Z 16015KT 10SM BKN110 M01/M10 A3013 680 51 -1000 160/15 RMK AO2
14837KMSN MSN20060224120009902/24/06 12:00:31  5-MIN KMSN 241800Z 17014KT 10SM SCT110 M01/M10 A3012 680 49 -1000 170/14 RMK AO2
14837KMSN MSN20060224120509702/24/06 12:05:31  5-MIN KMSN 241805Z 17016KT 10SM FEW110 00/M10 A3012 680 47 -900 170/16 RMK AO2
14837KMSN MSN20060224121009702/24/06 12:10:31  5-MIN KMSN 241810Z 18014KT 10SM FEW110 00/M10 A3011 690 47 -900 180/14 RMK AO2
14837KMSN MSN20060224121510302/24/06 12:15:31  5-MIN KMSN 241815Z 18016G22KT 10SM SCT110 00/M10 A3011 690 47 -900 180/16G22 RMK AO2
14837KMSN MSN20060224122010402/24/06 12:20:31  5-MIN KMSN 241820Z 17015KT 10SM SCT110 00/M11 A3010 700 45 -900 170/15 RMK AO2 PRESFR
14837KMSN MSN20060224122510402/24/06 12:25:31  5-MIN KMSN 241825Z 17016KT 10SM BKN110 00/M10 A3009 710 47 -900 170/16 RMK AO2 PRESFR
14837KMSN MSN20060224123010302/24/06 12:30:31  5-MIN KMSN 241830Z 17015G21KT 10SM SCT110 00/M10 A3009 710 47 -900 160/15G21 RMK AO2
14837KMSN MSN20060224123509702/24/06 12:35:31  5-MIN KMSN 241835Z 17019KT 10SM SCT100 01/M10 A3008 710 45 -800 170/19 RMK AO2
14837KMSN MSN20060224124010302/24/06 12:40:31  5-MIN KMSN 241840Z 17017G22KT 10SM SCT110 01/M09 A3008 720 47 -800 170/17G22 RMK AO2
14837KMSN MSN20060224124509702/24/06 12:45:31  5-MIN KMSN 241845Z 17019KT 10SM SCT100 01/M09 A3007 720 47 -800 170/19 RMK AO2
14837KMSN MSN20060224125012102/24/06 12:50:31  5-MIN KMSN 241850Z 17016KT 10SM SCT100 01/M09 A3007 730 47 -800 170/16 RMK AO2 PRESFR SLP196 T00061094
14837KMSN MSN20060224125510402/24/06 12:55:31  5-MIN KMSN 241855Z 17018KT 10SM SCT095 01/M09 A3006 740 49 -800 170/18 RMK AO2 PRESFR
14837KMSN MSN20060224130010402/24/06 13:00:31  5-MIN KMSN 241900Z 16018KT 10SM SCT090 01/M09 A3005 740 47 -700 160/18 RMK AO2 PRESFR
14837KMSN MSN20060224130510402/24/06 13:05:31  5-MIN KMSN 241905Z 17016KT 10SM SCT090 01/M09 A3004 750 47 -700 170/16 RMK AO2 PRESFR
14837KMSN MSN20060224131009702/24/06 13:10:31  5-MIN KMSN 241910Z 17017KT 10SM BKN090 01/M09 A3004 760 47 -700 170/17 RMK AO2
14837KMSN MSN20060224131510402/24/06 13:15:31  5-MIN KMSN 241915Z 18015KT 10SM BKN090 01/M09 A3003 760 47 -700 180/15 RMK AO2 PRESFR
14837KMSN MSN20060224132010402/24/06 13:20:31  5-MIN KMSN 241920Z 17016KT 10SM BKN090 01/M09 A3002 770 47 -600 170/16 RMK AO2 PRESFR
14837KMSN MSN20060224132511002/24/06 13:25:31  5-MIN KMSN 241925Z 17017G21KT 10SM BKN090 01/M09 A3001 780 47 -600 170/17G21 RMK AO2 PRESFR
14837KMSN MSN20060224133011002/24/06 13:30:31  5-MIN KMSN 241930Z 18018G24KT 10SM BKN090 02/M08 A3001 780 47 -600 180/18G24 RMK AO2 PRESFR
14837KMSN MSN20060224133511002/24/06 13:35:31  5-MIN KMSN 241935Z 17021G24KT 10SM BKN090 02/M09 A3000 790 45 -600 170/21G24 RMK AO2 PRESFR
14837KMSN MSN20060224134010402/24/06 13:40:31  5-MIN KMSN 241940Z 17018KT 10SM BKN085 02/M08 A2999 800 47 -500 170/18 RMK AO2 PRESFR
14837KMSN MSN20060224134509702/24/06 13:45:31  5-MIN KMSN 241945Z 18017KT 10SM BKN085 02/M08 A2999 800 49 -500 180/17 RMK AO2
14837KMSN MSN20060224135012002/24/06 13:50:31  5-MIN KMSN 241950Z 18018G25KT 10SM BKN085 02/M08 A2999 800 45 -500 170/18G25 RMK AO2 SLP168 T00221083
14837KMSN MSN20060224135510302/24/06 13:55:31  5-MIN KMSN 241955Z 17020G25KT 10SM BKN085 02/M08 A2998 810 47 -500 170/20G25 RMK AO2
14837KMSN MSN20060224140010302/24/06 14:00:31  5-MIN KMSN 242000Z 17018G24KT 10SM BKN085 02/M08 A2998 810 47 -500 170/18G24 RMK AO2
14837KMSN MSN20060224140509702/24/06 14:05:31  5-MIN KMSN 242005Z 18019KT 10SM OVC080 02/M08 A2997 820 47 -400 170/19 RMK AO2
14837KMSN MSN20060224141009702/24/06 14:10:31  5-MIN KMSN 242010Z 17019KT 10SM OVC080 03/M08 A2997 820 46 -400 170/19 RMK AO2
14837KMSN MSN20060224141511002/24/06 14:15:31  5-MIN KMSN 242015Z 17021G25KT 10SM OVC080 03/M08 A2996 830 46 -400 170/21G25 RMK AO2 PRESFR
14837KMSN MSN20060224142011002/24/06 14:20:31  5-MIN KMSN 242020Z 17018G25KT 10SM BKN080 03/M07 A2995 840 48 -400 170/18G25 RMK AO2 PRESFR
14837KMSN MSN20060224142509702/24/06 14:25:31  5-MIN KMSN 242025Z 17020KT 10SM BKN080 03/M07 A2995 840 48 -400 170/20 RMK AO2
14837KMSN MSN20060224143009702/24/06 14:30:31  5-MIN KMSN 242030Z 18017KT 10SM BKN080 03/M07 A2994 840 48 -300 170/17 RMK AO2
14837KMSN MSN20060224143509702/24/06 14:35:31  5-MIN KMSN 242035Z 17016KT 10SM BKN080 03/M07 A2994 850 48 -300 170/16 RMK AO2
14837KMSN MSN20060224144009702/24/06 14:40:31  5-MIN KMSN 242040Z 18014KT 10SM SCT080 03/M07 A2994 850 48 -300 180/14 RMK AO2
14837KMSN MSN20060224144509702/24/06 14:45:31  5-MIN KMSN 242045Z 19016KT 10SM FEW080 03/M07 A2993 850 48 -300 190/16 RMK AO2
14837KMSN MSN20060224145012602/24/06 14:50:31  5-MIN KMSN 242050Z 19019G23KT 10SM FEW080 04/M07 A2993 860 44 -200 190/19G23 RMK AO2 SLP148 T00391072 58045
14837KMSN MSN20060224145510302/24/06 14:55:31  5-MIN KMSN 242055Z 18017G23KT 10SM FEW075 04/M07 A2993 860 46 -200 180/17G23 RMK AO2
14837KMSN MSN20060224150010002/24/06 15:00:31  5-MIN KMSN 242100Z 19015G22KT 10SM CLR 04/M07 A2992 860 46 -200 190/15G22 RMK AO2
14837KMSN MSN20060224150510002/24/06 15:05:31  5-MIN KMSN 242105Z 18014G21KT 10SM CLR 04/M07 A2992 860 46 -200 180/14G21 RMK AO2
14837KMSN MSN20060224151010302/24/06 15:10:31  5-MIN KMSN 242110Z 18012G19KT 10SM FEW070 04/M07 A2991 870 46 -200 180/12G19 RMK AO2
14837KMSN MSN20060224151509702/24/06 15:15:31  5-MIN KMSN 242115Z 18012KT 10SM SCT070 04/M06 A2991 870 48 -200 180/12 RMK AO2
14837KMSN MSN20060224152010302/24/06 15:20:31  5-MIN KMSN 242120Z 19015G19KT 10SM BKN065 04/M06 A2991 880 48 -200 190/15G19 RMK AO2
14837KMSN MSN20060224152510302/24/06 15:25:31  5-MIN KMSN 242125Z 18014G21KT 10SM BKN065 04/M06 A2990 880 50 -200 180/14G21 RMK AO2
14837KMSN MSN20060224153010302/24/06 15:30:31  5-MIN KMSN 242130Z 18014G21KT 10SM BKN065 04/M06 A2990 890 50 -200 180/14G21 RMK AO2
14837KMSN MSN20060224153509702/24/06 15:35:31  5-MIN KMSN 242135Z 18016KT 10SM BKN065 04/M06 A2989 890 50 -100 180/16 RMK AO2
14837KMSN MSN20060224154009702/24/06 15:40:31  5-MIN KMSN 242140Z 18016KT 10SM OVC065 04/M06 A2989 890 50 -100 180/16 RMK AO2
14837KMSN MSN20060224154509702/24/06 15:45:31  5-MIN KMSN 242145Z 18014KT 10SM BKN060 04/M06 A2989 900 50 -100 180/14 RMK AO2
14837KMSN MSN20060224155011402/24/06 15:50:31  5-MIN KMSN 242150Z 19013KT 10SM SCT065 04/M06 A2989 890 48 -100 180/13 RMK AO2 SLP134 T00441056
14837KMSN MSN20060224155509702/24/06 15:55:31  5-MIN KMSN 242155Z 19011KT 10SM SCT060 04/M06 A2989 890 48 -100 190/11 RMK AO2
14837KMSN MSN20060224160009702/24/06 16:00:31  5-MIN KMSN 242200Z 19010KT 10SM SCT060 04/M05 A2989 890 50 -100 190/10 RMK AO2
14837KMSN MSN20060224160509702/24/06 16:05:31  5-MIN KMSN 242205Z 20012KT 10SM FEW060 04/M06 A2989 900 48 -100 190/12 RMK AO2
14837KMSN MSN20060224161010302/24/06 16:10:31  5-MIN KMSN 242210Z 20012G18KT 10SM FEW060 04/M06 A2988 900 48 -100 190/12G18 RMK AO2
14837KMSN MSN20060224161510002/24/06 16:15:31  5-MIN KMSN 242215Z 19014G18KT 10SM CLR 04/M06 A2988 900 48 -100 190/14G18 RMK AO2
14837KMSN MSN20060224162010002/24/06 16:20:31  5-MIN KMSN 242220Z 19015G20KT 10SM CLR 04/M06 A2988 900 48 -100 190/15G20 RMK AO2
14837KMSN MSN20060224162509702/24/06 16:25:31  5-MIN KMSN 242225Z 20011G20KT 10SM CLR 05/M06 A2989 900 46 0 200/11G20 RMK AO2
14837KMSN MSN20060224163009102/24/06 16:30:31  5-MIN KMSN 242230Z 20010KT 10SM CLR 05/M06 A2989 890 46 0 200/10 RMK AO2
14837KMSN MSN20060224163509102/24/06 16:35:31  5-MIN KMSN 242235Z 20011KT 10SM CLR 05/M06 A2989 890 46 0 200/11 RMK AO2
14837KMSN MSN20060224164009702/24/06 16:40:31  5-MIN KMSN 242240Z 20011G19KT 10SM CLR 05/M06 A2989 890 46 0 200/11G19 RMK AO2
14837KMSN MSN20060224164510002/24/06 16:45:31  5-MIN KMSN 242245Z 21010G19KT 10SM CLR 04/M06 A2989 890 48 -100 210/10G19 RMK AO2
14837KMSN MSN20060224165011102/24/06 16:50:31  5-MIN KMSN 242250Z 20011KT 10SM CLR 04/M05 A2989 900 50 -100 200/11 RMK AO2 SLP132 T00441050
14837KMSN MSN20060224165509402/24/06 16:55:31  5-MIN KMSN 242255Z 20011KT 10SM CLR 04/M06 A2988 900 48 -100 200/11 RMK AO2
14837KMSN MSN20060224170009102/24/06 17:00:31  5-MIN KMSN 242300Z 19014KT 10SM CLR 05/M05 A2988 900 48 0 190/14 RMK AO2
14837KMSN MSN20060224170509702/24/06 17:05:31  5-MIN KMSN 242305Z 20011KT 10SM FEW060 04/M05 A2988 900 50 -100 200/11 RMK AO2
14837KMSN MSN20060224171009702/24/06 17:10:31  5-MIN KMSN 242310Z 20012KT 10SM SCT060 04/M05 A2988 900 50 -100 200/12 RMK AO2
14837KMSN MSN20060224171510302/24/06 17:15:31  5-MIN KMSN 242315Z 20013G18KT 10SM FEW060 04/M05 A2988 900 50 -100 200/13G18 RMK AO2
14837KMSN MSN20060224172010302/24/06 17:20:31  5-MIN KMSN 242320Z 20011G18KT 10SM FEW060 04/M05 A2988 900 50 -100 200/11G18 RMK AO2
14837KMSN MSN20060224172510302/24/06 17:25:31  5-MIN KMSN 242325Z 20008G17KT 10SM FEW060 04/M05 A2988 910 50 -100 200/08G17 RMK AO2
14837KMSN MSN20060224173010302/24/06 17:30:31  5-MIN KMSN 242330Z 20010G16KT 10SM FEW060 04/M05 A2987 910 50 -100 200/10G16 RMK AO2
14837KMSN MSN20060224173509402/24/06 17:35:31  5-MIN KMSN 242335Z 20010KT 10SM CLR 04/M05 A2987 910 50 -100 200/10 RMK AO2
14837KMSN MSN20060224174010002/24/06 17:40:31  5-MIN KMSN 242340Z 20011KT 10SM CLR 04/M04 A2987 910 52 -100 200/11 RMK AO2 4/004
14837KMSN MSN20060224174510002/24/06 17:45:31  5-MIN KMSN 242345Z 20010KT 10SM CLR 04/M04 A2987 910 54 -100 200/10 RMK AO2 4/004
14837KMSN MSN20060224175013502/24/06 17:50:31  5-MIN KMSN 242350Z 19011KT 10SM CLR 04/M04 A2986 920 54 -100 190/11 RMK AO2 SLP124 4/004 T00391044 10050 21011 56066
14837KMSN MSN20060224175509402/24/06 17:55:31  5-MIN KMSN 242355Z 20010KT 10SM CLR 04/M04 A2986 920 54 -100 200/10 RMK AO2
14837KMSN MSN20060224180009402/24/06 18:00:31  5-MIN KMSN 250000Z 19007KT 10SM CLR 04/M04 A2986 920 54 -100 190/07 RMK AO2
14837KMSN MSN20060224180509402/24/06 18:05:31  5-MIN KMSN 250005Z 19008KT 10SM CLR 04/M04 A2986 920 54 -100 190/08 RMK AO2
14837KMSN MSN20060224181009402/24/06 18:10:31  5-MIN KMSN 250010Z 19009KT 10SM CLR 04/M04 A2986 920 54 -100 190/09 RMK AO2
14837KMSN MSN20060224181509402/24/06 18:15:31  5-MIN KMSN 250015Z 19008KT 10SM CLR 03/M04 A2986 920 57 -200 180/08 RMK AO2
14837KMSN MSN20060224182009402/24/06 18:20:31  5-MIN KMSN 250020Z 19008KT 10SM CLR 03/M04 A2986 920 57 -200 190/08 RMK AO2
14837KMSN MSN20060224182509402/24/06 18:25:31  5-MIN KMSN 250025Z 19008KT 10SM CLR 03/M04 A2986 920 57 -200 190/08 RMK AO2
14837KMSN MSN20060224183009402/24/06 18:30:31  5-MIN KMSN 250030Z 19009KT 10SM CLR 03/M04 A2985 930 57 -200 190/09 RMK AO2
14837KMSN MSN20060224183509402/24/06 18:35:31  5-MIN KMSN 250035Z 19009KT 10SM CLR 03/M04 A2985 930 57 -200 190/09 RMK AO2
14837KMSN MSN20060224184009402/24/06 18:40:31  5-MIN KMSN 250040Z 19009KT 10SM CLR 03/M04 A2985 930 59 -200 190/09 RMK AO2
14837KMSN MSN20060224184509402/24/06 18:45:31  5-MIN KMSN 250045Z 19008KT 10SM CLR 03/M04 A2985 930 59 -200 190/08 RMK AO2
14837KMSN MSN20060224185011102/24/06 18:50:31  5-MIN KMSN 250050Z 19009KT 10SM CLR 03/M04 A2985 930 59 -200 190/09 RMK AO2 SLP118 T00331039
14837KMSN MSN20060224185509402/24/06 18:55:31  5-MIN KMSN 250055Z 19010KT 10SM CLR 03/M04 A2984 940 59 -200 190/10 RMK AO2
14837KMSN MSN20060224190009402/24/06 19:00:31  5-MIN KMSN 250100Z 19011KT 10SM CLR 03/M04 A2984 940 59 -200 190/11 RMK AO2
14837KMSN MSN20060224190509402/24/06 19:05:31  5-MIN KMSN 250105Z 19010KT 10SM CLR 03/M04 A2984 940 59 -200 190/10 RMK AO2
14837KMSN MSN20060224191009402/24/06 19:10:31  5-MIN KMSN 250110Z 19011KT 10SM CLR 03/M04 A2983 940 59 -200 190/11 RMK AO2
14837KMSN MSN20060224191509402/24/06 19:15:31  5-MIN KMSN 250115Z 19011KT 10SM CLR 03/M04 A2983 950 59 -100 190/11 RMK AO2
14837KMSN MSN20060224192009402/24/06 19:20:31  5-MIN KMSN 250120Z 19012KT 10SM CLR 03/M04 A2983 950 59 -100 190/12 RMK AO2
14837KMSN MSN20060224192509402/24/06 19:25:31  5-MIN KMSN 250125Z 19011KT 10SM CLR 03/M04 A2983 950 59 -100 190/11 RMK AO2
14837KMSN MSN20060224193009402/24/06 19:30:31  5-MIN KMSN 250130Z 18010KT 10SM CLR 03/M04 A2982 950 59 -100 180/10 RMK AO2
14837KMSN MSN20060224193509402/24/06 19:35:31  5-MIN KMSN 250135Z 18009KT 10SM CLR 03/M04 A2982 960 59 -100 180/09 RMK AO2
14837KMSN MSN20060224194009402/24/06 19:40:31  5-MIN KMSN 250140Z 18010KT 10SM CLR 03/M04 A2982 960 59 -100 180/10 RMK AO2
14837KMSN MSN20060224194509402/24/06 19:45:31  5-MIN KMSN 250145Z 18010KT 10SM CLR 03/M04 A2981 970 59 -100 180/10 RMK AO2
14837KMSN MSN20060224195011102/24/06 19:50:31  5-MIN KMSN 250150Z 19010KT 10SM CLR 03/M04 A2981 970 59 -100 180/10 RMK AO2 SLP102 T00331039
14837KMSN MSN20060224195509402/24/06 19:55:31  5-MIN KMSN 250155Z 19009KT 10SM CLR 03/M04 A2981 970 59 -100 190/09 RMK AO2
14837KMSN MSN20060224200009402/24/06 20:00:31  5-MIN KMSN 250200Z 19006KT 10SM CLR 03/M04 A2981 970 59 -100 190/06 RMK AO2
14837KMSN MSN20060224200509402/24/06 20:05:31  5-MIN KMSN 250205Z 20006KT 10SM CLR 03/M04 A2981 960 59 -100 190/06 RMK AO2
14837KMSN MSN20060224201009402/24/06 20:10:31  5-MIN KMSN 250210Z 20005KT 10SM CLR 03/M04 A2981 970 59 -100 190/05 RMK AO2
14837KMSN MSN20060224201509402/24/06 20:15:31  5-MIN KMSN 250215Z 20003KT 10SM CLR 03/M04 A2981 970 59 -100 200/03 RMK AO2
14837KMSN MSN20060224202009402/24/06 20:20:31  5-MIN KMSN 250220Z 00000KT 10SM CLR 03/M04 A2981 970 59 -100 000/00 RMK AO2
14837KMSN MSN20060224202509402/24/06 20:25:31  5-MIN KMSN 250225Z 00000KT 10SM CLR 04/M04 A2981 960 57 -100 000/00 RMK AO2
14837KMSN MSN20060224203009402/24/06 20:30:31  5-MIN KMSN 250230Z 00000KT 10SM CLR 04/M04 A2981 960 57 -100 000/00 RMK AO2
14837KMSN MSN20060224203509402/24/06 20:35:31  5-MIN KMSN 250235Z VRB03KT 10SM CLR 04/M04 A2982 960 57 -100 VRB/03 RMK AO2
14837KMSN MSN20060224204009402/24/06 20:40:31  5-MIN KMSN 250240Z VRB05KT 10SM CLR 04/M04 A2982 960 57 -100 VRB/05 RMK AO2
14837KMSN MSN20060224204509402/24/06 20:45:31  5-MIN KMSN 250245Z VRB06KT 10SM CLR 04/M04 A2982 960 57 -100 VRB/06 RMK AO2
14837KMSN MSN20060224205011702/24/06 20:50:31  5-MIN KMSN 250250Z VRB05KT 10SM CLR 04/M04 A2982 960 57 -100 VRB/05 RMK AO2 SLP107 T00391039 56021
14837KMSN MSN20060224205509402/24/06 20:55:31  5-MIN KMSN 250255Z 22008KT 10SM CLR 04/M04 A2982 950 57 -100 220/08 RMK AO2
14837KMSN MSN20060224210009402/24/06 21:00:31  5-MIN KMSN 250300Z 22006KT 10SM CLR 04/M03 A2982 950 59 -100 220/06 RMK AO2
14837KMSN MSN20060224210509102/24/06 21:05:31  5-MIN KMSN 250305Z VRB04KT 10SM CLR 04/M03 A2982 950 57 0 VRB/04 RMK AO2
14837KMSN MSN20060224211009102/24/06 21:10:31  5-MIN KMSN 250310Z VRB05KT 10SM CLR 04/M03 A2982 960 57 0 VRB/05 RMK AO2
14837KMSN MSN20060224211509102/24/06 21:15:31  5-MIN KMSN 250315Z 24006KT 10SM CLR 04/M03 A2982 960 57 0 230/06 RMK AO2
14837KMSN MSN20060224212009102/24/06 21:20:31  5-MIN KMSN 250320Z 24008KT 10SM CLR 04/M03 A2982 950 57 0 240/08 RMK AO2
14837KMSN MSN20060224212509102/24/06 21:25:31  5-MIN KMSN 250325Z 23009KT 10SM CLR 04/M03 A2982 960 57 0 230/09 RMK AO2
14837KMSN MSN20060224213009402/24/06 21:30:31  5-MIN KMSN 250330Z 24008KT 10SM CLR 04/M03 A2982 950 59 -100 240/08 RMK AO2
14837KMSN MSN20060224213509402/24/06 21:35:31  5-MIN KMSN 250335Z 22009KT 10SM CLR 04/M03 A2982 960 59 -100 220/09 RMK AO2
14837KMSN MSN20060224214011002/24/06 21:40:31  5-MIN KMSN 250340Z 24008KT 210V270 10SM CLR 04/M03 A2982 950 59 -100 230/08 210V270 RMK AO2
14837KMSN MSN20060224214511002/24/06 21:45:31  5-MIN KMSN 250345Z 24009KT 200V260 10SM CLR 04/M03 A2982 950 59 -100 230/09 200V260 RMK AO2
14837KMSN MSN20060224215012702/24/06 21:50:31  5-MIN KMSN 250350Z 23008KT 200V270 10SM CLR 04/M03 A2983 950 59 -100 230/08 200V270 RMK AO2 SLP109 T00391033
14837KMSN MSN20060224215509402/24/06 21:55:31  5-MIN KMSN 250355Z 23008KT 10SM CLR 04/M03 A2982 960 59 -100 230/08 RMK AO2
14837KMSN MSN20060224220009702/24/06 22:00:31  5-MIN KMSN 250400Z 23009KT 10SM FEW110 04/M03 A2982 950 62 -100 230/09 RMK AO2
14837KMSN MSN20060224220509702/24/06 22:05:31  5-MIN KMSN 250405Z 23007KT 10SM SCT110 04/M03 A2983 950 62 -100 230/07 RMK AO2
14837KMSN MSN20060224221009402/24/06 22:10:31  5-MIN KMSN 250410Z 24007KT 10SM SCT110 04/M03 A2983 950 59 0 240/07 RMK AO2
14837KMSN MSN20060224221511002/24/06 22:15:31  5-MIN KMSN 250415Z 24007KT 210V280 10SM FEW110 04/M03 A2983 950 59 0 240/07 210V280 RMK AO2
14837KMSN MSN20060224222009402/24/06 22:20:31  5-MIN KMSN 250420Z 25006KT 10SM FEW110 04/M03 A2983 950 59 0 250/06 RMK AO2
14837KMSN MSN20060224222509402/24/06 22:25:31  5-MIN KMSN 250425Z 27006KT 10SM FEW110 04/M03 A2984 940 59 0 270/06 RMK AO2
14837KMSN MSN20060224223010002/24/06 22:30:31  5-MIN KMSN 250430Z 28008G18KT 10SM FEW110 05/M03 A2984 940 57 0 280/08G18 RMK AO2
14837KMSN MSN20060224223509702/24/06 22:35:31  5-MIN KMSN 250435Z 28007G18KT 10SM CLR 05/M02 A2984 940 59 0 280/07G18 RMK AO2
14837KMSN MSN20060224224009102/24/06 22:40:31  5-MIN KMSN 250440Z 28008KT 10SM CLR 05/M02 A2984 940 59 0 280/08 RMK AO2
14837KMSN MSN20060224224509102/24/06 22:45:31  5-MIN KMSN 250445Z 29008KT 10SM CLR 05/M02 A2984 940 59 0 280/08 RMK AO2
14837KMSN MSN20060224225010802/24/06 22:50:31  5-MIN KMSN 250450Z 29009KT 10SM CLR 05/M02 A2984 930 59 0 290/09 RMK AO2 SLP114 T00501022
14837KMSN MSN20060224225509402/24/06 22:55:31  5-MIN KMSN 250455Z 29007KT 10SM FEW110 04/M02 A2985 930 62 0 290/07 RMK AO2
14837KMSN MSN20060224230009402/24/06 23:00:31  5-MIN KMSN 250500Z 28006KT 10SM FEW110 04/M02 A2985 930 62 0 280/06 RMK AO2
14837KMSN MSN20060224230509402/24/06 23:05:31  5-MIN KMSN 250505Z 28007KT 10SM FEW110 04/M02 A2986 920 62 0 280/07 RMK AO2
14837KMSN MSN20060224231009402/24/06 23:10:31  5-MIN KMSN 250510Z 29008KT 10SM FEW110 04/M02 A2986 920 62 0 290/08 RMK AO2
14837KMSN MSN20060224231509402/24/06 23:15:31  5-MIN KMSN 250515Z 28008KT 10SM FEW110 04/M02 A2985 930 62 0 280/08 RMK AO2
14837KMSN MSN20060224232009402/24/06 23:20:31  5-MIN KMSN 250520Z 29008KT 10SM FEW110 04/M02 A2986 920 62 0 290/08 RMK AO2
14837KMSN MSN20060224232510002/24/06 23:25:31  5-MIN KMSN 250525Z 30009G16KT 10SM FEW110 04/M02 A2986 920 62 0 300/09G16 RMK AO2
14837KMSN MSN20060224233010302/24/06 23:30:31  5-MIN KMSN 250530Z 30012G16KT 10SM FEW110 04/M02 A2987 910 62 -100 300/12G16 RMK AO2
14837KMSN MSN20060224233510302/24/06 23:35:31  5-MIN KMSN 250535Z 29014G19KT 10SM FEW110 04/M02 A2987 910 62 -100 290/14G19 RMK AO2
14837KMSN MSN20060224234010302/24/06 23:40:31  5-MIN KMSN 250540Z 30016G22KT 10SM FEW110 04/M02 A2987 910 62 -100 300/16G22 RMK AO2
14837KMSN MSN20060224234510902/24/06 23:45:31  5-MIN KMSN 250545Z 29013G22KT 10SM SCT110 04/M02 A2988 900 62 -100 290/13G22 RMK AO2 4/004
14837KMSN MSN20060224235015402/24/06 23:50:31  5-MIN KMSN 250550Z 30012G19KT 10SM FEW110 04/M02 A2988 900 64 -100 290/12G19 RMK AO2 SLP126 4/004 T00391022 10050 20033 400501139 55015
14837KMSN MSN20060224235510302/24/06 23:55:31  5-MIN KMSN 250555Z 30013G19KT 10SM FEW120 04/M02 A2988 900 64 -100 300/13G19 RMK AO2
14837KMSN MSN20060225000010002/25/06 00:00:38  5-MIN KMSN 250600Z 30013G19KT 10SM CLR 04/M02 A2989 900 64 -100 300/13G19 RMK AO2
14837KMSN MSN20060225000510002/25/06 00:05:31  5-MIN KMSN 250605Z 30011G18KT 10SM CLR 04/M03 A2989 900 62 -100 290/11G18 RMK AO2
14837KMSN MSN20060225001010002/25/06 00:10:31  5-MIN KMSN 250610Z 30011G18KT 10SM CLR 03/M03 A2990 890 64 -200 300/11G18 RMK AO2
14837KMSN MSN20060225001510302/25/06 00:15:32  5-MIN KMSN 250615Z 30008G16KT 10SM FEW033 03/M03 A2990 880 64 -200 300/08G16 RMK AO2
14837KMSN MSN20060225002011002/25/06 00:20:31  5-MIN KMSN 250620Z 29011G16KT 10SM SCT033 03/M03 A2991 870 64 -200 290/11G16 RMK AO2 PRESRR
14837KMSN MSN20060225002510302/25/06 00:25:31  5-MIN KMSN 250625Z 30011G17KT 10SM SCT033 03/M03 A2991 870 64 -200 300/11G17 RMK AO2
14837KMSN MSN20060225003010302/25/06 00:30:31  5-MIN KMSN 250630Z 30010G17KT 10SM BKN033 03/M03 A2992 870 64 -200 300/10G17 RMK AO2
14837KMSN MSN20060225003510302/25/06 00:35:31  5-MIN KMSN 250635Z 30012G19KT 10SM BKN033 03/M03 A2992 860 64 -300 300/12G19 RMK AO2
14837KMSN MSN20060225004010302/25/06 00:40:31  5-MIN KMSN 250640Z 31017G24KT 10SM OVC033 03/M03 A2993 860 64 -300 310/17G24 RMK AO2
14837KMSN MSN20060225004512802/25/06 00:45:31  5-MIN KMSN 250645Z 33021G28KT 10SM OVC033 03/M03 A2994 850 61 -300 330/21G28 RMK AO2 PK WND 33028/0644 PRESRR
14837KMSN MSN20060225005014402/25/06 00:50:31  5-MIN KMSN 250650Z 33016G29KT 9SM BKN033 02/M04 A2995 840 61 -400 330/16G29 RMK AO2 PK WND 34029/0646 PRESRR SLP151 T00221044
14837KMSN MSN20060225005512802/25/06 00:55:31  5-MIN KMSN 250655Z 33018G29KT 10SM OVC035 02/M05 A2996 830 61 -500 330/18G29 RMK AO2 PK WND 33029/0655 PRESRR
14837KMSN MSN20060225010012802/25/06 01:00:31  5-MIN KMSN 250700Z 33014G29KT 10SM OVC035 01/M06 A2997 820 61 -600 330/14G29 RMK AO2 PK WND 33029/0655 PRESRR
14837KMSN MSN20060225010512102/25/06 01:05:31  5-MIN KMSN 250705Z 32017G23KT 10SM BKN035 01/M06 A2997 820 61 -700 320/17G23 RMK AO2 PK WND 33029/0655
14837KMSN MSN20060225011011502/25/06 01:10:31  5-MIN KMSN 250710Z 33015KT 10SM BKN035 00/M07 A2997 810 61 -700 330/15 RMK AO2 PK WND 33029/0655
14837KMSN MSN20060225011512902/25/06 01:15:31  5-MIN KMSN 250715Z 33017G27KT 10SM SCT037 M01/M07 A2998 810 61 -800 330/17G27 RMK AO2 PK WND 33029/0655 PRESRR
14837KMSN MSN20060225012012902/25/06 01:20:31  5-MIN KMSN 250720Z 33016G27KT 10SM FEW037 M01/M07 A2999 800 63 -900 330/16G27 RMK AO2 PK WND 33029/0655 PRESRR
14837KMSN MSN20060225012512202/25/06 01:25:31  5-MIN KMSN 250725Z 33017G28KT 10SM FEW039 M01/M08 A2999 800 60 -900 330/17G28 RMK AO2 PK WND 33029/0655
14837KMSN MSN20060225013012302/25/06 01:30:31  5-MIN KMSN 250730Z 34018G28KT 10SM FEW039 M02/M08 A3000 790 63 -1000 330/18G28 RMK AO2 PK WND 33029/0655
14837KMSN MSN20060225013512302/25/06 01:35:31  5-MIN KMSN 250735Z 33016G24KT 10SM FEW039 M02/M08 A3001 790 66 -1000 330/16G24 RMK AO2 PK WND 33029/0655
14837KMSN MSN20060225014012302/25/06 01:40:31  5-MIN KMSN 250740Z 32017G22KT 10SM FEW039 M02/M08 A3001 780 66 -1100 320/17G22 RMK AO2 PK WND 33029/0655
14837KMSN MSN20060225014512302/25/06 01:45:31  5-MIN KMSN 250745Z 33015G22KT 10SM FEW039 M02/M08 A3001 780 63 -1100 330/15G22 RMK AO2 PK WND 33029/0655
14837KMSN MSN20060225015013702/25/06 01:50:31  5-MIN KMSN 250750Z 33017G27KT 10SM CLR M03/M08 A3002 770 66 -1100 330/17G27 RMK AO2 PK WND 33029/0655 SLP175 T10281083
14837KMSN MSN20060225015510902/25/06 01:55:31  5-MIN KMSN 250755Z 33019G27KT 10SM CLR M03/M09 A3003 760 63 -1100 330/19G27 RMK AO2 PRESRR
14837KMSN MSN20060225020010902/25/06 02:00:31  5-MIN KMSN 250800Z 32016G24KT 10SM CLR M03/M09 A3004 760 63 -1200 320/16G24 RMK AO2 PRESRR
14837KMSN MSN20060225020510202/25/06 02:05:31  5-MIN KMSN 250805Z 32014G21KT 10SM CLR M03/M09 A3004 750 63 -1200 320/14G21 RMK AO2
14837KMSN MSN20060225021010902/25/06 02:10:31  5-MIN KMSN 250810Z 32016G21KT 10SM CLR M03/M09 A3005 750 63 -1200 320/16G21 RMK AO2 PRESRR
14837KMSN MSN20060225021510902/25/06 02:15:31  5-MIN KMSN 250815Z 32011G24KT 10SM CLR M03/M09 A3005 740 65 -1200 320/11G24 RMK AO2 PRESRR
14837KMSN MSN20060225022010902/25/06 02:20:31  5-MIN KMSN 250820Z 33014G24KT 10SM CLR M03/M09 A3006 740 65 -1200 320/14G24 RMK AO2 PRESRR
14837KMSN MSN20060225022510202/25/06 02:25:31  5-MIN KMSN 250825Z 33011G21KT 10SM CLR M03/M09 A3006 730 63 -1300 330/11G21 RMK AO2
14837KMSN MSN20060225023010202/25/06 02:30:31  5-MIN KMSN 250830Z 33012G21KT 10SM CLR M03/M09 A3007 730 63 -1300 330/12G21 RMK AO2
14837KMSN MSN20060225023509602/25/06 02:35:31  5-MIN KMSN 250835Z 32012KT 10SM CLR M03/M09 A3007 730 63 -1300 320/12 RMK AO2
14837KMSN MSN20060225024009602/25/06 02:40:31  5-MIN KMSN 250840Z 32013KT 10SM CLR M04/M09 A3007 730 65 -1300 320/13 RMK AO2
14837KMSN MSN20060225024510202/25/06 02:45:31  5-MIN KMSN 250845Z 32013G21KT 10SM CLR M04/M09 A3007 720 65 -1300 320/13G21 RMK AO2
14837KMSN MSN20060225025012802/25/06 02:50:31  5-MIN KMSN 250850Z 33012G21KT 10SM FEW030 M04/M09 A3008 720 65 -1300 330/12G21 RMK AO2 SLP194 T10391094 53020
14837KMSN MSN20060225025510202/25/06 02:55:31  5-MIN KMSN 250855Z 32015G23KT 10SM CLR M04/M09 A3008 720 65 -1300 320/15G23 RMK AO2
14837KMSN MSN20060225030010202/25/06 03:00:31  5-MIN KMSN 250900Z 33015G25KT 10SM CLR M04/M09 A3008 720 65 -1300 330/15G25 RMK AO2
14837KMSN MSN20060225030510202/25/06 03:05:31  5-MIN KMSN 250905Z 33012G25KT 10SM CLR M04/M09 A3008 710 65 -1300 330/12G25 RMK AO2
14837KMSN MSN20060225031010202/25/06 03:10:31  5-MIN KMSN 250910Z 33016G25KT 10SM CLR M04/M09 A3009 710 68 -1400 330/16G25 RMK AO2
14837KMSN MSN20060225031510202/25/06 03:15:31  5-MIN KMSN 250915Z 33016G25KT 10SM CLR M04/M09 A3010 700 68 -1400 330/16G25 RMK AO2
14837KMSN MSN20060225032010502/25/06 03:20:31  5-MIN KMSN 250920Z 33016G23KT 10SM FEW028 M04/M09 A3010 700 68 -1400 330/16G23 RMK AO2
14837KMSN MSN20060225032510502/25/06 03:25:31  5-MIN KMSN 250925Z 33014G20KT 10SM FEW028 M04/M09 A3010 690 68 -1400 330/14G20 RMK AO2
14837KMSN MSN20060225033010502/25/06 03:30:31  5-MIN KMSN 250930Z 32014G21KT 10SM FEW028 M04/M09 A3011 690 68 -1400 320/14G21 RMK AO2
14837KMSN MSN20060225033510502/25/06 03:35:31  5-MIN KMSN 250935Z 33012G21KT 10SM FEW028 M04/M10 A3011 690 65 -1500 330/12G21 RMK AO2
14837KMSN MSN20060225034010502/25/06 03:40:31  5-MIN KMSN 250940Z 33011G20KT 10SM FEW028 M04/M10 A3012 680 65 -1500 330/11G20 RMK AO2
14837KMSN MSN20060225034512302/25/06 03:45:31  5-MIN KMSN 250945Z 33015G28KT 10SM FEW028 M04/M10 A3012 680 65 -1500 330/15G28 RMK AO2 PK WND 32028/0945
14837KMSN MSN20060225035014002/25/06 03:50:31  5-MIN KMSN 250950Z 33014G28KT 10SM FEW028 M04/M10 A3012 680 65 -1500 330/14G28 RMK AO2 PK WND 32028/0945 SLP211 T10441100
14837KMSN MSN20060225035510502/25/06 03:55:31  5-MIN KMSN 250955Z 33016G24KT 10SM FEW028 M05/M10 A3013 670 68 -1500 330/16G24 RMK AO2
14837KMSN MSN20060225040010502/25/06 04:00:31  5-MIN KMSN 251000Z 33014G24KT 10SM SCT028 M05/M10 A3013 670 68 -1600 330/14G24 RMK AO2
14837KMSN MSN20060225040510502/25/06 04:05:31  5-MIN KMSN 251005Z 33016G23KT 10SM SCT026 M05/M11 A3014 660 65 -1600 330/16G23 RMK AO2
14837KMSN MSN20060225041010502/25/06 04:10:31  5-MIN KMSN 251010Z 33017G23KT 10SM FEW026 M05/M11 A3014 660 65 -1600 330/17G23 RMK AO2
14837KMSN MSN20060225041510502/25/06 04:15:31  5-MIN KMSN 251015Z 34013G23KT 10SM FEW026 M05/M11 A3015 650 65 -1600 340/13G23 RMK AO2
14837KMSN MSN20060225042010502/25/06 04:20:31  5-MIN KMSN 251020Z 34016G22KT 10SM FEW026 M06/M11 A3015 650 68 -1600 330/16G22 RMK AO2
14837KMSN MSN20060225042510502/25/06 04:25:31  5-MIN KMSN 251025Z 33014G22KT 10SM FEW026 M06/M11 A3016 650 68 -1600 330/14G22 RMK AO2
14837KMSN MSN20060225043010502/25/06 04:30:31  5-MIN KMSN 251030Z 33013G19KT 10SM FEW026 M06/M11 A3016 640 68 -1700 330/13G19 RMK AO2
14837KMSN MSN20060225043510502/25/06 04:35:31  5-MIN KMSN 251035Z 33012G19KT 10SM FEW026 M06/M11 A3017 640 68 -1700 330/12G19 RMK AO2
14837KMSN MSN20060225044010502/25/06 04:40:31  5-MIN KMSN 251040Z 33013G20KT 10SM FEW026 M06/M11 A3017 630 68 -1700 330/13G20 RMK AO2
14837KMSN MSN20060225044510502/25/06 04:45:31  5-MIN KMSN 251045Z 33013G20KT 10SM FEW026 M06/M11 A3018 630 68 -1700 330/13G20 RMK AO2
14837KMSN MSN20060225045011902/25/06 04:50:31  5-MIN KMSN 251050Z 33013G22KT 10SM CLR M06/M11 A3018 620 65 -1700 330/13G22 RMK AO2 SLP232 T10561111
14837KMSN MSN20060225045510202/25/06 04:55:31  5-MIN KMSN 251055Z 34014G22KT 10SM CLR M06/M11 A3019 620 65 -1700 340/14G22 RMK AO2
14837KMSN MSN20060225050009602/25/06 05:00:31  5-MIN KMSN 251100Z 33012KT 10SM CLR M06/M11 A3019 610 65 -1700 330/12 RMK AO2
14837KMSN MSN20060225050509602/25/06 05:05:31  5-MIN KMSN 251105Z 33011KT 10SM CLR M06/M11 A3020 610 68 -1800 330/11 RMK AO2
14837KMSN MSN20060225051009602/25/06 05:10:31  5-MIN KMSN 251110Z 33010KT 10SM CLR M06/M11 A3020 600 68 -1800 330/10 RMK AO2
14837KMSN MSN20060225051509602/25/06 05:15:31  5-MIN KMSN 251115Z 33010KT 10SM CLR M06/M11 A3021 600 68 -1800 330/10 RMK AO2
14837KMSN MSN20060225052009602/25/06 05:20:31  5-MIN KMSN 251120Z 33008KT 10SM CLR M06/M11 A3021 600 68 -1800 330/08 RMK AO2
14837KMSN MSN20060225052509602/25/06 05:25:31  5-MIN KMSN 251125Z 33008KT 10SM CLR M06/M11 A3021 600 68 -1800 330/08 RMK AO2
14837KMSN MSN20060225053009602/25/06 05:30:31  5-MIN KMSN 251130Z 33010KT 10SM CLR M06/M11 A3021 590 68 -1800 330/10 RMK AO2
14837KMSN MSN20060225053509602/25/06 05:35:31  5-MIN KMSN 251135Z 33011KT 10SM CLR M06/M11 A3022 590 68 -1800 330/11 RMK AO2
14837KMSN MSN20060225054009602/25/06 05:40:31  5-MIN KMSN 251140Z 33009KT 10SM CLR M06/M11 A3022 590 68 -1800 330/09 RMK AO2
14837KMSN MSN20060225054509602/25/06 05:45:31  5-MIN KMSN 251145Z 33008KT 10SM CLR M06/M11 A3023 580 68 -1800 330/08 RMK AO2
14837KMSN MSN20060225055014402/25/06 05:50:31  5-MIN KMSN 251150Z 33010KT 10SM CLR M06/M11 A3023 570 68 -1800 330/10 RMK AO2 PRESRR SLP249 4/004 T10611111 10039 21061 51066
14837KMSN MSN20060225055510302/25/06 05:55:31  5-MIN KMSN 251155Z 33009KT 10SM CLR M06/M11 A3024 570 68 -1800 330/09 RMK AO2 PRESRR
14837KMSN MSN20060225060009602/25/06 06:00:31  5-MIN KMSN 251200Z 33010KT 10SM CLR M06/M11 A3024 570 68 -1800 330/10 RMK AO2
14837KMSN MSN20060225060509602/25/06 06:05:31  5-MIN KMSN 251205Z 34012KT 10SM CLR M06/M11 A3025 560 68 -1800 330/12 RMK AO2
14837KMSN MSN20060225061010202/25/06 06:10:31  5-MIN KMSN 251210Z 33015G18KT 10SM CLR M06/M11 A3025 560 68 -1800 330/15G18 RMK AO2
14837KMSN MSN20060225061510202/25/06 06:15:31  5-MIN KMSN 251215Z 33011G20KT 10SM CLR M06/M11 A3025 560 68 -1800 330/11G20 RMK AO2
14837KMSN MSN20060225062010202/25/06 06:20:31  5-MIN KMSN 251220Z 34011G20KT 10SM CLR M06/M11 A3026 550 68 -1800 330/11G20 RMK AO2
14837KMSN MSN20060225062510202/25/06 06:25:31  5-MIN KMSN 251225Z 34011G17KT 10SM CLR M06/M11 A3026 550 71 -1800 340/11G17 RMK AO2
14837KMSN MSN20060225063009602/25/06 06:30:31  5-MIN KMSN 251230Z 33013KT 10SM CLR M06/M11 A3027 540 71 -1800 330/13 RMK AO2
14837KMSN MSN20060225063509602/25/06 06:35:31  5-MIN KMSN 251235Z 33013KT 10SM CLR M06/M11 A3027 540 71 -1900 330/13 RMK AO2
14837KMSN MSN20060225064009602/25/06 06:40:31  5-MIN KMSN 251240Z 33012KT 10SM CLR M07/M11 A3028 540 74 -1900 330/12 RMK AO2
14837KMSN MSN20060225064510202/25/06 06:45:31  5-MIN KMSN 251245Z 33012G18KT 10SM CLR M07/M11 A3028 530 74 -1900 330/12G18 RMK AO2
14837KMSN MSN20060225065011302/25/06 06:50:31  5-MIN KMSN 251250Z 33010KT 10SM CLR M07/M11 A3028 530 74 -1900 330/10 RMK AO2 SLP266 T10671106
14837KMSN MSN20060225065510202/25/06 06:55:31  5-MIN KMSN 251255Z 33011G17KT 10SM CLR M07/M11 A3029 530 74 -1900 330/11G17 RMK AO2
14837KMSN MSN20060225070010202/25/06 07:00:31  5-MIN KMSN 251300Z 33014G19KT 10SM CLR M07/M11 A3029 520 74 -1900 330/14G19 RMK AO2
14837KMSN MSN20060225070510202/25/06 07:05:31  5-MIN KMSN 251305Z 33013G19KT 10SM CLR M07/M11 A3029 520 74 -1900 330/13G19 RMK AO2
14837KMSN MSN20060225071009602/25/06 07:10:31  5-MIN KMSN 251310Z 33011KT 10SM CLR M06/M11 A3030 520 71 -1900 330/11 RMK AO2
14837KMSN MSN20060225071509602/25/06 07:15:31  5-MIN KMSN 251315Z 33012KT 10SM CLR M06/M11 A3030 510 71 -1900 330/12 RMK AO2
14837KMSN MSN20060225072009602/25/06 07:20:31  5-MIN KMSN 251320Z 33012KT 10SM CLR M06/M11 A3031 510 71 -1900 330/12 RMK AO2
14837KMSN MSN20060225072510202/25/06 07:25:31  5-MIN KMSN 251325Z 33013G18KT 10SM CLR M06/M11 A3031 510 71 -1900 330/13G18 RMK AO2
14837KMSN MSN20060225073009602/25/06 07:30:31  5-MIN KMSN 251330Z 33011KT 10SM CLR M06/M11 A3031 500 71 -1900 330/11 RMK AO2
14837KMSN MSN20060225073509602/25/06 07:35:31  5-MIN KMSN 251335Z 33012KT 10SM CLR M06/M11 A3032 500 71 -1900 330/12 RMK AO2
14837KMSN MSN20060225074010202/25/06 07:40:31  5-MIN KMSN 251340Z 33013G18KT 10SM CLR M06/M11 A3032 500 71 -1900 330/13G18 RMK AO2
14837KMSN MSN20060225074510202/25/06 07:45:31  5-MIN KMSN 251345Z 34013G18KT 10SM CLR M06/M11 A3032 500 68 -1800 340/13G18 RMK AO2
14837KMSN MSN20060225075011902/25/06 07:50:31  5-MIN KMSN 251350Z 33012G19KT 10SM CLR M06/M11 A3032 490 68 -1800 330/12G19 RMK AO2 SLP280 T10561106
14837KMSN MSN20060225075510202/25/06 07:55:31  5-MIN KMSN 251355Z 33012G19KT 10SM CLR M06/M11 A3033 490 68 -1800 330/12G19 RMK AO2
14837KMSN MSN20060225080010202/25/06 08:00:31  5-MIN KMSN 251400Z 33015G20KT 10SM CLR M06/M11 A3033 490 68 -1800 330/15G20 RMK AO2
14837KMSN MSN20060225080510202/25/06 08:05:31  5-MIN KMSN 251405Z 33014G20KT 10SM CLR M06/M11 A3034 480 68 -1900 330/14G20 RMK AO2
14837KMSN MSN20060225081010202/25/06 08:10:31  5-MIN KMSN 251410Z 33015G20KT 10SM CLR M06/M11 A3034 480 68 -1900 330/15G20 RMK AO2
14837KMSN MSN20060225081509602/25/06 08:15:31  5-MIN KMSN 251415Z 33013KT 10SM CLR M06/M11 A3034 480 68 -1900 330/13 RMK AO2
14837KMSN MSN20060225082009602/25/06 08:20:31  5-MIN KMSN 251420Z 34013KT 10SM CLR M06/M10 A3035 470 71 -1900 340/13 RMK AO2
14837KMSN MSN20060225082510202/25/06 08:25:31  5-MIN KMSN 251425Z 33010G19KT 10SM CLR M06/M10 A3035 470 71 -1900 330/10G19 RMK AO2
14837KMSN MSN20060225083010202/25/06 08:30:31  5-MIN KMSN 251430Z 34012G19KT 10SM CLR M05/M10 A3035 470 68 -1800 340/12G19 RMK AO2
14837KMSN MSN20060225083510202/25/06 08:35:31  5-MIN KMSN 251435Z 33011G20KT 10SM CLR M05/M11 A3035 470 65 -1800 330/11G20 RMK AO2
14837KMSN MSN20060225084010202/25/06 08:40:31  5-MIN KMSN 251440Z 34013G20KT 10SM CLR M05/M11 A3035 470 65 -1800 340/13G20 RMK AO2
14837KMSN MSN20060225084510202/25/06 08:45:31  5-MIN KMSN 251445Z 33014G20KT 10SM CLR M05/M11 A3035 470 65 -1800 330/14G20 RMK AO2
14837KMSN MSN20060225085012802/25/06 08:50:31  5-MIN KMSN 251450Z 34014G20KT 10SM FEW020 M05/M11 A3036 460 65 -1800 340/14G20 RMK AO2 SLP291 T10501106 53052
14837KMSN MSN20060225085510202/25/06 08:55:31  5-MIN KMSN 251455Z 34013G19KT 10SM CLR M05/M11 A3036 460 65 -1800 330/13G19 RMK AO2
14837KMSN MSN20060225090009602/25/06 09:00:31  5-MIN KMSN 251500Z 33013KT 10SM CLR M05/M11 A3036 460 65 -1800 330/13 RMK AO2
14837KMSN MSN20060225090509602/25/06 09:05:31  5-MIN KMSN 251505Z 33013KT 10SM CLR M05/M11 A3036 460 65 -1800 330/13 RMK AO2
14837KMSN MSN20060225091009602/25/06 09:10:31  5-MIN KMSN 251510Z 34012KT 10SM CLR M04/M11 A3036 460 62 -1700 340/12 RMK AO2
14837KMSN MSN20060225091510202/25/06 09:15:31  5-MIN KMSN 251515Z 35014G19KT 10SM CLR M04/M11 A3036 460 62 -1700 350/14G19 RMK AO2
14837KMSN MSN20060225092010202/25/06 09:20:31  5-MIN KMSN 251520Z 34015G20KT 10SM CLR M05/M11 A3037 450 65 -1800 340/15G20 RMK AO2
14837KMSN MSN20060225092510202/25/06 09:25:31  5-MIN KMSN 251525Z 34013G20KT 10SM CLR M05/M11 A3037 450 65 -1800 340/13G20 RMK AO2
14837KMSN MSN20060225093009602/25/06 09:30:31  5-MIN KMSN 251530Z 34012KT 10SM CLR M04/M11 A3037 450 62 -1700 340/12 RMK AO2
14837KMSN MSN20060225093510202/25/06 09:35:31  5-MIN KMSN 251535Z 34015G20KT 10SM CLR M04/M11 A3037 450 62 -1700 340/15G20 RMK AO2
14837KMSN MSN20060225094010202/25/06 09:40:31  5-MIN KMSN 251540Z 35015G20KT 10SM CLR M04/M11 A3037 450 62 -1800 340/15G20 RMK AO2
14837KMSN MSN20060225094510202/25/06 09:45:31  5-MIN KMSN 251545Z 34012G20KT 10SM CLR M04/M11 A3037 450 62 -1800 340/12G20 RMK AO2
14837KMSN MSN20060225095011602/25/06 09:50:31  5-MIN KMSN 251550Z 35013KT 10SM FEW020 M04/M11 A3038 450 62 -1800 350/13 RMK AO2 SLP296 T10441106
14837KMSN MSN20060225095510202/25/06 09:55:31  5-MIN KMSN 251555Z 34013G19KT 10SM CLR M04/M11 A3038 440 60 -1800 330/13G19 RMK AO2
14837KMSN MSN20060225100009602/25/06 10:00:31  5-MIN KMSN 251600Z 35015KT 10SM CLR M04/M11 A3038 440 60 -1800 350/15 RMK AO2
14837KMSN MSN20060225100509602/25/06 10:05:31  5-MIN KMSN 251605Z 35015KT 10SM CLR M04/M11 A3038 440 57 -1700 350/15 RMK AO2
14837KMSN MSN20060225101009602/25/06 10:10:31  5-MIN KMSN 251610Z 35012KT 10SM CLR M04/M11 A3038 440 57 -1700 350/12 RMK AO2
14837KMSN MSN20060225101509602/25/06 10:15:31  5-MIN KMSN 251615Z 34014KT 10SM CLR M04/M11 A3038 440 57 -1700 340/14 RMK AO2
14837KMSN MSN20060225102009602/25/06 10:20:31  5-MIN KMSN 251620Z 35015KT 10SM CLR M04/M11 A3038 440 57 -1700 350/15 RMK AO2
14837KMSN MSN20060225102509602/25/06 10:25:31  5-MIN KMSN 251625Z 35013KT 10SM CLR M04/M11 A3038 440 57 -1700 350/13 RMK AO2
14837KMSN MSN20060225103009602/25/06 10:30:31  5-MIN KMSN 251630Z 34011KT 10SM CLR M04/M11 A3038 440 60 -1700 340/11 RMK AO2
14837KMSN MSN20060225103509602/25/06 10:35:31  5-MIN KMSN 251635Z 34012KT 10SM CLR M03/M11 A3038 440 55 -1600 340/12 RMK AO2
14837KMSN MSN20060225104009602/25/06 10:40:31  5-MIN KMSN 251640Z 35013KT 10SM CLR M03/M11 A3038 440 55 -1600 350/13 RMK AO2
14837KMSN MSN20060225104510202/25/06 10:45:31  5-MIN KMSN 251645Z 36015G20KT 10SM CLR M03/M11 A3039 430 55 -1600 350/15G20 RMK AO2
14837KMSN MSN20060225105012202/25/06 10:50:31  5-MIN KMSN 251650Z 35013G20KT 10SM FEW020 M03/M12 A3039 430 53 -1600 350/13G20 RMK AO2 SLP301 T10331117
14837KMSN MSN20060225105509602/25/06 10:55:31  5-MIN KMSN 251655Z 34014KT 10SM CLR M03/M11 A3039 430 55 -1600 340/14 RMK AO2
14837KMSN MSN20060225110011202/25/06 11:00:31  5-MIN KMSN 251700Z 32011KT 300V360 10SM CLR M03/M11 A3040 430 55 -1600 320/11 300V360 RMK AO2
14837KMSN MSN20060225110509602/25/06 11:05:31  5-MIN KMSN 251705Z 33012KT 10SM CLR M03/M11 A3040 420 55 -1600 330/12 RMK AO2
14837KMSN MSN20060225111010202/25/06 11:10:31  5-MIN KMSN 251710Z 34014G17KT 10SM CLR M03/M12 A3040 420 53 -1600 340/14G17 RMK AO2
14837KMSN MSN20060225111510202/25/06 11:15:31  5-MIN KMSN 251715Z 35011G17KT 10SM CLR M03/M12 A3040 420 50 -1600 350/11G17 RMK AO2
14837KMSN MSN20060225112009602/25/06 11:20:31  5-MIN KMSN 251720Z 35012KT 10SM CLR M03/M12 A3041 420 48 -1600 350/12 RMK AO2
14837KMSN MSN20060225112510202/25/06 11:25:31  5-MIN KMSN 251725Z 34010G18KT 10SM CLR M03/M12 A3041 410 48 -1600 340/10G18 RMK AO2
14837KMSN MSN20060225113009602/25/06 11:30:31  5-MIN KMSN 251730Z 33010KT 10SM CLR M03/M12 A3041 410 50 -1600 330/10 RMK AO2
14837KMSN MSN20060225113509602/25/06 11:35:31  5-MIN KMSN 251735Z 32011KT 10SM CLR M03/M11 A3041 410 53 -1600 320/11 RMK AO2
14837KMSN MSN20060225114010202/25/06 11:40:31  5-MIN KMSN 251740Z 35014G17KT 10SM CLR M03/M12 A3041 410 48 -1600 340/14G17 RMK AO2
14837KMSN MSN20060225114510202/25/06 11:45:31  5-MIN KMSN 251745Z 35013G17KT 10SM CLR M03/M13 A3042 410 44 -1600 350/13G17 RMK AO2
14837KMSN MSN20060225115013102/25/06 11:50:31  5-MIN KMSN 251750Z 35013KT 10SM CLR M03/M13 A3042 410 44 -1600 350/13 RMK AO2 SLP311 T10281133 11028 21067 51039
14837KMSN MSN20060225115509602/25/06 11:55:31  5-MIN KMSN 251755Z 34013KT 10SM CLR M03/M13 A3042 410 46 -1600 340/13 RMK AO2
14837KMSN MSN20060225120009602/25/06 12:00:31  5-MIN KMSN 251800Z 33012KT 10SM CLR M03/M13 A3042 400 46 -1600 330/12 RMK AO2
14837KMSN MSN20060225120509602/25/06 12:05:31  5-MIN KMSN 251805Z 33009KT 10SM CLR M03/M13 A3042 400 46 -1600 330/09 RMK AO2
14837KMSN MSN20060225121009602/25/06 12:10:31  5-MIN KMSN 251810Z 34013KT 10SM CLR M03/M12 A3042 400 48 -1600 340/13 RMK AO2
14837KMSN MSN20060225121509602/25/06 12:15:31  5-MIN KMSN 251815Z 35012KT 10SM CLR M03/M13 A3043 400 46 -1600 350/12 RMK AO2
14837KMSN MSN20060225122009602/25/06 12:20:31  5-MIN KMSN 251820Z 35012KT 10SM CLR M03/M13 A3043 400 44 -1600 350/12 RMK AO2
14837KMSN MSN20060225122509602/25/06 12:25:31  5-MIN KMSN 251825Z 34012KT 10SM CLR M03/M13 A3043 400 44 -1600 340/12 RMK AO2
14837KMSN MSN20060225123009602/25/06 12:30:31  5-MIN KMSN 251830Z 32010KT 10SM CLR M03/M14 A3043 400 42 -1600 320/10 RMK AO2
14837KMSN MSN20060225123510202/25/06 12:35:31  5-MIN KMSN 251835Z 31013G18KT 10SM CLR M02/M14 A3043 390 40 -1500 310/13G18 RMK AO2
14837KMSN MSN20060225124010202/25/06 12:40:31  5-MIN KMSN 251840Z 35009G18KT 10SM CLR M02/M14 A3043 390 40 -1500 350/09G18 RMK AO2
14837KMSN MSN20060225124509602/25/06 12:45:31  5-MIN KMSN 251845Z 33013KT 10SM CLR M02/M14 A3043 390 40 -1500 330/13 RMK AO2
14837KMSN MSN20060225125011902/25/06 12:50:31  5-MIN KMSN 251850Z 33013G18KT 10SM CLR M02/M14 A3043 390 39 -1500 330/13G18 RMK AO2 SLP316 T10221144
14837KMSN MSN20060225125510202/25/06 12:55:31  5-MIN KMSN 251855Z 33012G18KT 10SM CLR M02/M14 A3044 390 39 -1500 320/12G18 RMK AO2
14837KMSN MSN20060225130010202/25/06 13:00:31  5-MIN KMSN 251900Z 32016G19KT 10SM CLR M02/M16 A3044 390 34 -1500 320/16G19 RMK AO2
14837KMSN MSN20060225130510202/25/06 13:05:31  5-MIN KMSN 251905Z 34012G19KT 10SM CLR M02/M16 A3044 390 35 -1500 340/12G19 RMK AO2
14837KMSN MSN20060225131010202/25/06 13:10:31  5-MIN KMSN 251910Z 33012G18KT 10SM CLR M02/M16 A3044 390 35 -1500 330/12G18 RMK AO2
14837KMSN MSN20060225131510202/25/06 13:15:31  5-MIN KMSN 251915Z 32012G18KT 10SM CLR M02/M15 A3044 390 37 -1500 320/12G18 RMK AO2
14837KMSN MSN20060225132009602/25/06 13:20:31  5-MIN KMSN 251920Z 33011KT 10SM CLR M02/M14 A3044 390 39 -1500 330/11 RMK AO2
14837KMSN MSN20060225132509602/25/06 13:25:31  5-MIN KMSN 251925Z 31012KT 10SM CLR M02/M15 A3044 390 37 -1500 310/12 RMK AO2
14837KMSN MSN20060225133010202/25/06 13:30:31  5-MIN KMSN 251930Z 29012G19KT 10SM CLR M02/M14 A3044 380 39 -1500 290/12G19 RMK AO2
14837KMSN MSN20060225133510202/25/06 13:35:31  5-MIN KMSN 251935Z 32011G19KT 10SM CLR M02/M14 A3044 380 39 -1500 320/11G19 RMK AO2
14837KMSN MSN20060225134010202/25/06 13:40:31  5-MIN KMSN 251940Z 32011G16KT 10SM CLR M02/M15 A3045 380 37 -1600 310/11G16 RMK AO2
14837KMSN MSN20060225134510202/25/06 13:45:31  5-MIN KMSN 251945Z 34011G16KT 10SM CLR M02/M16 A3045 380 35 -1600 340/11G16 RMK AO2
14837KMSN MSN20060225135011302/25/06 13:50:31  5-MIN KMSN 251950Z 34011KT 10SM CLR M02/M16 A3045 380 35 -1600 340/11 RMK AO2 SLP323 T10221156
14837KMSN MSN20060225135510202/25/06 13:55:31  5-MIN KMSN 251955Z 33009G16KT 10SM CLR M02/M16 A3045 370 35 -1600 330/09G16 RMK AO2
14837KMSN MSN20060225140010202/25/06 14:00:31  5-MIN KMSN 252000Z 32013G18KT 10SM CLR M02/M17 A3045 370 32 -1600 320/13G18 RMK AO2
14837KMSN MSN20060225140510202/25/06 14:05:31  5-MIN KMSN 252005Z 32011G18KT 10SM CLR M02/M17 A3045 370 32 -1600 320/11G18 RMK AO2
14837KMSN MSN20060225141009602/25/06 14:10:31  5-MIN KMSN 252010Z 32010KT 10SM CLR M02/M17 A3045 380 32 -1600 320/10 RMK AO2
14837KMSN MSN20060225141509602/25/06 14:15:31  5-MIN KMSN 252015Z 32011KT 10SM CLR M02/M17 A3046 370 31 -1500 320/11 RMK AO2
14837KMSN MSN20060225142009602/25/06 14:20:31  5-MIN KMSN 252020Z 32014KT 10SM CLR M02/M17 A3046 370 30 -1500 320/14 RMK AO2
14837KMSN MSN20060225142509602/25/06 14:25:31  5-MIN KMSN 252025Z 32010KT 10SM CLR M02/M19 A3046 370 27 -1600 320/10 RMK AO2
14837KMSN MSN20060225143010202/25/06 14:30:31  5-MIN KMSN 252030Z 33011G18KT 10SM CLR M02/M18 A3046 370 28 -1600 330/11G18 RMK AO2
14837KMSN MSN20060225143510202/25/06 14:35:31  5-MIN KMSN 252035Z 32012G18KT 10SM CLR M02/M18 A3046 370 28 -1600 320/12G18 RMK AO2
14837KMSN MSN20060225144010202/25/06 14:40:31  5-MIN KMSN 252040Z 32012G18KT 10SM CLR M02/M19 A3046 370 26 -1600 320/12G18 RMK AO2
14837KMSN MSN20060225144509602/25/06 14:45:31  5-MIN KMSN 252045Z 34012KT 10SM CLR M02/M18 A3046 370 28 -1600 340/12 RMK AO2
14837KMSN MSN20060225145011902/25/06 14:50:31  5-MIN KMSN 252050Z 33010KT 10SM CLR M02/M18 A3046 370 28 -1600 330/10 RMK AO2 SLP328 T10221183 53021
14837KMSN MSN20060225145509602/25/06 14:55:31  5-MIN KMSN 252055Z 32009KT 10SM CLR M02/M18 A3046 370 28 -1600 320/09 RMK AO2
14837KMSN MSN20060225150009602/25/06 15:00:31  5-MIN KMSN 252100Z 34010KT 10SM CLR M02/M17 A3046 370 30 -1500 340/10 RMK AO2
14837KMSN MSN20060225150509602/25/06 15:05:31  5-MIN KMSN 252105Z 34011KT 10SM CLR M02/M18 A3046 370 28 -1500 340/11 RMK AO2
14837KMSN MSN20060225151009602/25/06 15:10:31  5-MIN KMSN 252110Z 34010KT 10SM CLR M02/M19 A3046 370 26 -1600 340/10 RMK AO2
14837KMSN MSN20060225151509602/25/06 15:15:31  5-MIN KMSN 252115Z 34008KT 10SM CLR M02/M18 A3047 360 27 -1500 330/08 RMK AO2
14837KMSN MSN20060225152009602/25/06 15:20:31  5-MIN KMSN 252120Z 33009KT 10SM CLR M02/M19 A3047 360 27 -1600 330/09 RMK AO2
14837KMSN MSN20060225152509602/25/06 15:25:31  5-MIN KMSN 252125Z 32009KT 10SM CLR M02/M18 A3047 360 28 -1600 320/09 RMK AO2
14837KMSN MSN20060225153009602/25/06 15:30:31  5-MIN KMSN 252130Z 33011KT 10SM CLR M02/M18 A3047 360 28 -1500 330/11 RMK AO2
14837KMSN MSN20060225153509602/25/06 15:35:31  5-MIN KMSN 252135Z 31009KT 10SM CLR M02/M17 A3047 360 31 -1600 310/09 RMK AO2
14837KMSN MSN20060225154009602/25/06 15:40:31  5-MIN KMSN 252140Z 30012KT 10SM CLR M02/M17 A3047 360 31 -1600 300/12 RMK AO2
14837KMSN MSN20060225154509602/25/06 15:45:31  5-MIN KMSN 252145Z 31010KT 10SM CLR M02/M17 A3048 350 31 -1600 310/10 RMK AO2
14837KMSN MSN20060225155011302/25/06 15:50:31  5-MIN KMSN 252150Z 31008KT 10SM CLR M02/M17 A3048 350 31 -1600 310/08 RMK AO2 SLP334 T10221172
14837KMSN MSN20060225155509602/25/06 15:55:31  5-MIN KMSN 252155Z 30009KT 10SM CLR M02/M17 A3048 350 31 -1600 300/09 RMK AO2
14837KMSN MSN20060225160009602/25/06 16:00:31  5-MIN KMSN 252200Z 30008KT 10SM CLR M02/M17 A3048 350 31 -1600 300/08 RMK AO2
14837KMSN MSN20060225160509602/25/06 16:05:31  5-MIN KMSN 252205Z 31009KT 10SM CLR M02/M17 A3048 350 31 -1600 310/09 RMK AO2
14837KMSN MSN20060225161009602/25/06 16:10:31  5-MIN KMSN 252210Z 31007KT 10SM CLR M02/M17 A3048 350 31 -1600 310/07 RMK AO2
14837KMSN MSN20060225161509602/25/06 16:15:31  5-MIN KMSN 252215Z 31010KT 10SM CLR M02/M17 A3048 350 31 -1600 310/10 RMK AO2
14837KMSN MSN20060225162009602/25/06 16:20:31  5-MIN KMSN 252220Z 31009KT 10SM CLR M02/M18 A3048 350 29 -1600 310/09 RMK AO2
14837KMSN MSN20060225162509602/25/06 16:25:31  5-MIN KMSN 252225Z 31009KT 10SM CLR M02/M17 A3048 350 31 -1600 310/09 RMK AO2
14837KMSN MSN20060225163009602/25/06 16:30:31  5-MIN KMSN 252230Z 31010KT 10SM CLR M02/M17 A3048 350 31 -1600 310/10 RMK AO2
14837KMSN MSN20060225163509602/25/06 16:35:31  5-MIN KMSN 252235Z 31009KT 10SM CLR M02/M17 A3048 350 31 -1600 310/09 RMK AO2
14837KMSN MSN20060225164009602/25/06 16:40:31  5-MIN KMSN 252240Z 32007KT 10SM CLR M02/M17 A3048 350 31 -1600 310/07 RMK AO2
14837KMSN MSN20060225164509602/25/06 16:45:31  5-MIN KMSN 252245Z 31007KT 10SM CLR M03/M17 A3048 350 34 -1700 310/07 RMK AO2
14837KMSN MSN20060225165011302/25/06 16:50:31  5-MIN KMSN 252250Z 31006KT 10SM CLR M03/M17 A3048 350 34 -1700 300/06 RMK AO2 SLP336 T10281167
14837KMSN MSN20060225165509602/25/06 16:55:31  5-MIN KMSN 252255Z 31008KT 10SM CLR M03/M16 A3048 350 35 -1700 310/08 RMK AO2
14837KMSN MSN20060225170009602/25/06 17:00:31  5-MIN KMSN 252300Z 31006KT 10SM CLR M03/M17 A3048 350 34 -1700 300/06 RMK AO2
14837KMSN MSN20060225170509602/25/06 17:05:31  5-MIN KMSN 252305Z 31007KT 10SM CLR M03/M17 A3049 350 34 -1700 310/07 RMK AO2
14837KMSN MSN20060225171009602/25/06 17:10:31  5-MIN KMSN 252310Z 31007KT 10SM CLR M03/M17 A3049 340 35 -1700 300/07 RMK AO2
14837KMSN MSN20060225171509602/25/06 17:15:31  5-MIN KMSN 252315Z 30007KT 10SM CLR M03/M17 A3049 340 35 -1700 300/07 RMK AO2
14837KMSN MSN20060225172009602/25/06 17:20:31  5-MIN KMSN 252320Z 30006KT 10SM CLR M03/M16 A3049 340 37 -1700 300/06 RMK AO2
14837KMSN MSN20060225172509602/25/06 17:25:31  5-MIN KMSN 252325Z 29006KT 10SM CLR M03/M16 A3049 340 37 -1700 290/06 RMK AO2
14837KMSN MSN20060225173009602/25/06 17:30:31  5-MIN KMSN 252330Z 30006KT 10SM CLR M03/M16 A3049 340 37 -1700 300/06 RMK AO2
14837KMSN MSN20060225173509602/25/06 17:35:31  5-MIN KMSN 252335Z 29007KT 10SM CLR M03/M17 A3049 340 35 -1700 290/07 RMK AO2
14837KMSN MSN20060225174009602/25/06 17:40:31  5-MIN KMSN 252340Z 29007KT 10SM CLR M04/M17 A3049 340 37 -1800 290/07 RMK AO2
14837KMSN MSN20060225174510202/25/06 17:45:31  5-MIN KMSN 252345Z 29006KT 10SM CLR M04/M17 A3050 340 37 -1800 290/06 RMK AO2 4/004
14837KMSN MSN20060225175013702/25/06 17:50:31  5-MIN KMSN 252350Z 29006KT 10SM CLR M04/M17 A3050 330 37 -1800 290/06 RMK AO2 SLP342 4/004 T10391167 11017 21039 51014
14837KMSN MSN20060225175509602/25/06 17:55:31  5-MIN KMSN 252355Z 30006KT 10SM CLR M04/M16 A3050 330 40 -1900 300/06 RMK AO2
14837KMSN MSN20060225180009602/25/06 18:00:31  5-MIN KMSN 260000Z 29006KT 10SM CLR M04/M16 A3050 330 40 -1900 290/06 RMK AO2
14837KMSN MSN20060225180509602/25/06 18:05:31  5-MIN KMSN 260005Z 30005KT 10SM CLR M04/M16 A3050 330 40 -1900 300/05 RMK AO2
14837KMSN MSN20060225181009602/25/06 18:10:31  5-MIN KMSN 260010Z 30005KT 10SM CLR M04/M16 A3051 330 40 -1900 300/05 RMK AO2
14837KMSN MSN20060225181509602/25/06 18:15:31  5-MIN KMSN 260015Z 29006KT 10SM CLR M04/M16 A3051 320 40 -1900 290/06 RMK AO2
14837KMSN MSN20060225182009602/25/06 18:20:31  5-MIN KMSN 260020Z 29005KT 10SM CLR M04/M17 A3051 320 38 -1900 290/05 RMK AO2
14837KMSN MSN20060225182509602/25/06 18:25:31  5-MIN KMSN 260025Z 29005KT 10SM CLR M05/M17 A3051 320 40 -2000 290/05 RMK AO2
14837KMSN MSN20060225183009602/25/06 18:30:31  5-MIN KMSN 260030Z 29006KT 10SM CLR M05/M17 A3052 320 40 -2000 290/06 RMK AO2
14837KMSN MSN20060225183509602/25/06 18:35:31  5-MIN KMSN 260035Z 29005KT 10SM CLR M05/M17 A3052 320 40 -2000 290/05 RMK AO2
14837KMSN MSN20060225184009602/25/06 18:40:31  5-MIN KMSN 260040Z 29005KT 10SM CLR M05/M17 A3052 320 40 -2000 290/05 RMK AO2
14837KMSN MSN20060225184509602/25/06 18:45:31  5-MIN KMSN 260045Z 29005KT 10SM CLR M06/M16 A3052 310 43 -2100 290/05 RMK AO2
14837KMSN MSN20060225185011302/25/06 18:50:31  5-MIN KMSN 260050Z 29005KT 10SM CLR M05/M17 A3052 310 40 -2000 290/05 RMK AO2 SLP350 T10501167
14837KMSN MSN20060225185509602/25/06 18:55:31  5-MIN KMSN 260055Z 30005KT 10SM CLR M06/M17 A3052 310 41 -2100 300/05 RMK AO2
14837KMSN MSN20060225190009602/25/06 19:00:31  5-MIN KMSN 260100Z 30005KT 10SM CLR M06/M17 A3052 310 40 -2100 300/05 RMK AO2
14837KMSN MSN20060225190509602/25/06 19:05:31  5-MIN KMSN 260105Z 30005KT 10SM CLR M06/M17 A3053 310 40 -2100 300/05 RMK AO2
14837KMSN MSN20060225191009602/25/06 19:10:31  5-MIN KMSN 260110Z 31005KT 10SM CLR M06/M17 A3053 310 40 -2100 310/05 RMK AO2
14837KMSN MSN20060225191509602/25/06 19:15:31  5-MIN KMSN 260115Z 31005KT 10SM CLR M06/M17 A3053 310 40 -2100 310/05 RMK AO2
14837KMSN MSN20060225192009602/25/06 19:20:31  5-MIN KMSN 260120Z 31005KT 10SM CLR M06/M17 A3053 300 43 -2100 310/05 RMK AO2
14837KMSN MSN20060225192509602/25/06 19:25:31  5-MIN KMSN 260125Z 31005KT 10SM CLR M06/M17 A3053 300 40 -2100 310/05 RMK AO2
14837KMSN MSN20060225193009602/25/06 19:30:31  5-MIN KMSN 260130Z 32005KT 10SM CLR M06/M17 A3053 300 41 -2100 320/05 RMK AO2
14837KMSN MSN20060225193509602/25/06 19:35:31  5-MIN KMSN 260135Z 32005KT 10SM CLR M06/M17 A3053 300 41 -2100 320/05 RMK AO2
14837KMSN MSN20060225194009602/25/06 19:40:31  5-MIN KMSN 260140Z 32006KT 10SM CLR M06/M17 A3053 300 41 -2200 320/06 RMK AO2
14837KMSN MSN20060225194509602/25/06 19:45:31  5-MIN KMSN 260145Z 32005KT 10SM CLR M06/M17 A3053 300 41 -2200 320/05 RMK AO2
14837KMSN MSN20060225195011302/25/06 19:50:31  5-MIN KMSN 260150Z 33005KT 10SM CLR M07/M17 A3053 300 43 -2200 330/05 RMK AO2 SLP355 T10671172
14837KMSN MSN20060225195509602/25/06 19:55:31  5-MIN KMSN 260155Z 33005KT 10SM CLR M07/M17 A3053 300 45 -2200 320/05 RMK AO2
14837KMSN MSN20060225200009602/25/06 20:00:31  5-MIN KMSN 260200Z 33005KT 10SM CLR M07/M17 A3053 300 45 -2200 330/05 RMK AO2
14837KMSN MSN20060225200509602/25/06 20:05:31  5-MIN KMSN 260205Z 33006KT 10SM CLR M07/M17 A3053 300 45 -2200 330/06 RMK AO2
14837KMSN MSN20060225201009602/25/06 20:10:31  5-MIN KMSN 260210Z 33005KT 10SM CLR M07/M17 A3053 300 47 -2300 320/05 RMK AO2
14837KMSN MSN20060225201509602/25/06 20:15:31  5-MIN KMSN 260215Z 32004KT 10SM CLR M07/M17 A3053 300 47 -2300 320/04 RMK AO2
14837KMSN MSN20060225202009602/25/06 20:20:31  5-MIN KMSN 260220Z 32005KT 10SM CLR M07/M17 A3053 300 47 -2300 320/05 RMK AO2
14837KMSN MSN20060225202509602/25/06 20:25:31  5-MIN KMSN 260225Z 33004KT 10SM CLR M07/M17 A3053 300 47 -2300 330/04 RMK AO2
14837KMSN MSN20060225203009602/25/06 20:30:31  5-MIN KMSN 260230Z 33005KT 10SM CLR M07/M17 A3053 300 45 -2300 330/05 RMK AO2
14837KMSN MSN20060225203509602/25/06 20:35:31  5-MIN KMSN 260235Z 35004KT 10SM CLR M08/M17 A3053 300 51 -2400 340/04 RMK AO2
14837KMSN MSN20060225204009602/25/06 20:40:31  5-MIN KMSN 260240Z 35004KT 10SM CLR M09/M17 A3053 300 54 -2500 350/04 RMK AO2
14837KMSN MSN20060225204509602/25/06 20:45:31  5-MIN KMSN 260245Z 35005KT 10SM CLR M08/M16 A3053 300 54 -2400 350/05 RMK AO2
14837KMSN MSN20060225205011902/25/06 20:50:31  5-MIN KMSN 260250Z 35005KT 10SM CLR M08/M16 A3053 300 54 -2400 350/05 RMK AO2 SLP355 T10831161 51013
14837KMSN MSN20060225205509602/25/06 20:55:31  5-MIN KMSN 260255Z 35006KT 10SM CLR M08/M16 A3053 300 54 -2400 350/06 RMK AO2
14837KMSN MSN20060225210009602/25/06 21:00:31  5-MIN KMSN 260300Z 35005KT 10SM CLR M08/M17 A3054 300 51 -2400 350/05 RMK AO2
14837KMSN MSN20060225210509602/25/06 21:05:31  5-MIN KMSN 260305Z 35006KT 10SM CLR M08/M17 A3054 300 49 -2400 340/06 RMK AO2
14837KMSN MSN20060225211009602/25/06 21:10:31  5-MIN KMSN 260310Z 34007KT 10SM CLR M08/M18 A3054 290 47 -2500 340/07 RMK AO2
14837KMSN MSN20060225211509602/25/06 21:15:31  5-MIN KMSN 260315Z 34006KT 10SM CLR M08/M18 A3054 290 47 -2400 330/06 RMK AO2
14837KMSN MSN20060225212009602/25/06 21:20:31  5-MIN KMSN 260320Z 33007KT 10SM CLR M08/M18 A3054 290 45 -2500 330/07 RMK AO2
14837KMSN MSN20060225212509602/25/06 21:25:31  5-MIN KMSN 260325Z 34007KT 10SM CLR M08/M19 A3055 290 41 -2400 340/07 RMK AO2
14837KMSN MSN20060225213009602/25/06 21:30:31  5-MIN KMSN 260330Z 34007KT 10SM CLR M08/M19 A3055 290 41 -2400 340/07 RMK AO2
14837KMSN MSN20060225213509602/25/06 21:35:31  5-MIN KMSN 260335Z 34007KT 10SM CLR M08/M19 A3055 290 41 -2400 340/07 RMK AO2
14837KMSN MSN20060225214009602/25/06 21:40:31  5-MIN KMSN 260340Z 34007KT 10SM CLR M08/M19 A3055 290 43 -2500 340/07 RMK AO2
14837KMSN MSN20060225214509602/25/06 21:45:31  5-MIN KMSN 260345Z 34008KT 10SM CLR M08/M19 A3055 290 43 -2500 340/08 RMK AO2
14837KMSN MSN20060225215011302/25/06 21:50:31  5-MIN KMSN 260350Z 34007KT 10SM CLR M08/M19 A3055 290 43 -2500 340/07 RMK AO2 SLP359 T10831189
14837KMSN MSN20060225215509602/25/06 21:55:31  5-MIN KMSN 260355Z 34006KT 10SM CLR M08/M19 A3055 290 43 -2500 340/06 RMK AO2
14837KMSN MSN20060225220009602/25/06 22:00:31  5-MIN KMSN 260400Z 34007KT 10SM CLR M08/M19 A3055 290 43 -2500 340/07 RMK AO2
14837KMSN MSN20060225220509602/25/06 22:05:31  5-MIN KMSN 260405Z 33006KT 10SM CLR M08/M19 A3055 280 43 -2500 330/06 RMK AO2
14837KMSN MSN20060225221009602/25/06 22:10:31  5-MIN KMSN 260410Z 33004KT 10SM CLR M09/M19 A3055 290 46 -2600 320/04 RMK AO2
14837KMSN MSN20060225221509602/25/06 22:15:31  5-MIN KMSN 260415Z 34003KT 10SM CLR M09/M19 A3055 280 44 -2500 340/03 RMK AO2
14837KMSN MSN20060225222009602/25/06 22:20:31  5-MIN KMSN 260420Z 35004KT 10SM CLR M09/M19 A3055 280 44 -2500 350/04 RMK AO2
14837KMSN MSN20060225222509602/25/06 22:25:31  5-MIN KMSN 260425Z 35003KT 10SM CLR M09/M19 A3056 280 46 -2600 350/03 RMK AO2
14837KMSN MSN20060225223009602/25/06 22:30:31  5-MIN KMSN 260430Z 35003KT 10SM CLR M11/M18 A3056 280 53 -2800 350/03 RMK AO2
14837KMSN MSN20060225223509602/25/06 22:35:31  5-MIN KMSN 260435Z 35004KT 10SM CLR M11/M19 A3056 280 51 -2800 350/04 RMK AO2
14837KMSN MSN20060225224009602/25/06 22:40:31  5-MIN KMSN 260440Z 35004KT 10SM CLR M10/M19 A3056 280 49 -2700 350/04 RMK AO2
14837KMSN MSN20060225224509602/25/06 22:45:31  5-MIN KMSN 260445Z 35004KT 10SM CLR M09/M19 A3056 280 46 -2600 350/04 RMK AO2
14837KMSN MSN20060225225011302/25/06 22:50:31  5-MIN KMSN 260450Z 36004KT 10SM CLR M10/M18 A3055 280 51 -2700 360/04 RMK AO2 SLP362 T11001183
14837KMSN MSN20060225225509602/25/06 22:55:31  5-MIN KMSN 260455Z 35005KT 10SM CLR M09/M18 A3055 280 49 -2600 350/05 RMK AO2
14837KMSN MSN20060225230009602/25/06 23:00:31  5-MIN KMSN 260500Z 35005KT 10SM CLR M09/M18 A3055 290 49 -2600 350/05 RMK AO2
14837KMSN MSN20060225230509602/25/06 23:05:31  5-MIN KMSN 260505Z 35006KT 10SM CLR M09/M19 A3055 290 46 -2600 350/06 RMK AO2
14837KMSN MSN20060225231009602/25/06 23:10:31  5-MIN KMSN 260510Z 35005KT 10SM CLR M10/M19 A3055 290 49 -2700 350/05 RMK AO2
14837KMSN MSN20060225231509602/25/06 23:15:31  5-MIN KMSN 260515Z 35004KT 10SM CLR M10/M19 A3055 290 49 -2700 350/04 RMK AO2
14837KMSN MSN20060225232009602/25/06 23:20:31  5-MIN KMSN 260520Z 34005KT 10SM CLR M11/M19 A3055 290 51 -2800 340/05 RMK AO2
14837KMSN MSN20060225232509602/25/06 23:25:31  5-MIN KMSN 260525Z 35004KT 10SM CLR M11/M19 A3055 290 51 -2700 350/04 RMK AO2
14837KMSN MSN20060225233009602/25/06 23:30:31  5-MIN KMSN 260530Z 36004KT 10SM CLR M10/M19 A3055 290 49 -2700 360/04 RMK AO2
14837KMSN MSN20060225233510202/25/06 23:35:31  5-MIN KMSN 260535Z 00000KT 10SM CLR M12/M19 A3054 290 53 -2900 000/00 RMK AO2 4/004
14837KMSN MSN20060225234010202/25/06 23:40:31  5-MIN KMSN 260540Z 00000KT 10SM CLR M12/M19 A3054 290 53 -2900 000/00 RMK AO2 4/004
14837KMSN MSN20060225234510202/25/06 23:45:31  5-MIN KMSN 260545Z 00000KT 10SM CLR M12/M19 A3054 290 53 -2900 000/00 RMK AO2 4/004
14837KMSN MSN20060225235014702/25/06 23:50:31  5-MIN KMSN 260550Z 00000KT 10SM CLR M12/M19 A3055 290 53 -2900 000/00 RMK AO2 SLP361 4/004 T11171194 11039 21122 400391122 50011
14837KMSN MSN20060225235509602/25/06 23:55:31  5-MIN KMSN 260555Z 00000KT 10SM CLR M11/M19 A3055 290 51 -2800 000/00 RMK AO2
14837KMSN MSN20060226000009602/26/06 00:00:38  5-MIN KMSN 260600Z 31003KT 10SM CLR M12/M19 A3055 290 55 -2900 310/03 RMK AO2
14837KMSN MSN20060226000509602/26/06 00:05:31  5-MIN KMSN 260605Z 31003KT 10SM CLR M13/M19 A3055 290 63 -3100 310/03 RMK AO2
14837KMSN MSN20060226001009602/26/06 00:10:31  5-MIN KMSN 260610Z 29003KT 10SM CLR M14/M19 A3055 290 66 -3200 290/03 RMK AO2
14837KMSN MSN20060226001509602/26/06 00:15:32  5-MIN KMSN 260615Z 30003KT 10SM CLR M13/M19 A3055 290 60 -3000 300/03 RMK AO2
14837KMSN MSN20060226002009602/26/06 00:20:31  5-MIN KMSN 260620Z 32004KT 10SM CLR M13/M19 A3055 290 60 -3000 320/04 RMK AO2
14837KMSN MSN20060226002509602/26/06 00:25:31  5-MIN KMSN 260625Z 33005KT 10SM CLR M12/M19 A3055 290 53 -2900 330/05 RMK AO2
14837KMSN MSN20060226003009602/26/06 00:30:31  5-MIN KMSN 260630Z 34006KT 10SM CLR M11/M19 A3055 290 53 -2800 340/06 RMK AO2
14837KMSN MSN20060226003509602/26/06 00:35:31  5-MIN KMSN 260635Z 35005KT 10SM CLR M11/M19 A3055 290 53 -2800 350/05 RMK AO2
14837KMSN MSN20060226004009602/26/06 00:40:31  5-MIN KMSN 260640Z 34005KT 10SM CLR M11/M19 A3055 290 53 -2800 340/05 RMK AO2
14837KMSN MSN20060226004509602/26/06 00:45:31  5-MIN KMSN 260645Z 34005KT 10SM CLR M11/M19 A3055 290 53 -2800 340/05 RMK AO2
14837KMSN MSN20060226005011302/26/06 00:50:31  5-MIN KMSN 260650Z 34005KT 10SM CLR M11/M19 A3055 290 51 -2700 340/05 RMK AO2 SLP359 T11061189
14837KMSN MSN20060226005509602/26/06 00:55:31  5-MIN KMSN 260655Z 35006KT 10SM CLR M11/M19 A3055 290 51 -2700 350/06 RMK AO2
14837KMSN MSN20060226010009602/26/06 01:00:31  5-MIN KMSN 260700Z 34005KT 10SM CLR M12/M19 A3055 290 55 -2900 340/05 RMK AO2
14837KMSN MSN20060226010509602/26/06 01:05:31  5-MIN KMSN 260705Z 34005KT 10SM CLR M12/M19 A3055 290 55 -2900 340/05 RMK AO2
14837KMSN MSN20060226011009602/26/06 01:10:31  5-MIN KMSN 260710Z 34006KT 10SM CLR M12/M19 A3055 290 53 -2900 340/06 RMK AO2
14837KMSN MSN20060226011509602/26/06 01:15:31  5-MIN KMSN 260715Z 35006KT 10SM CLR M12/M19 A3055 290 53 -2900 350/06 RMK AO2
14837KMSN MSN20060226012009602/26/06 01:20:31  5-MIN KMSN 260720Z 35006KT 10SM CLR M12/M19 A3054 290 53 -2900 350/06 RMK AO2
14837KMSN MSN20060226012509602/26/06 01:25:31  5-MIN KMSN 260725Z 34005KT 10SM CLR M12/M19 A3055 290 55 -3000 340/05 RMK AO2
14837KMSN MSN20060226013009602/26/06 01:30:31  5-MIN KMSN 260730Z 33003KT 10SM CLR M12/M19 A3055 290 58 -3000 330/03 RMK AO2
14837KMSN MSN20060226013509602/26/06 01:35:31  5-MIN KMSN 260735Z 00000KT 10SM CLR M14/M19 A3055 290 63 -3200 000/00 RMK AO2
14837KMSN MSN20060226014009602/26/06 01:40:31  5-MIN KMSN 260740Z 00000KT 10SM CLR M13/M19 A3055 290 58 -3000 000/00 RMK AO2
14837KMSN MSN20060226014509602/26/06 01:45:31  5-MIN KMSN 260745Z 00000KT 10SM CLR M13/M19 A3055 290 58 -3000 000/00 RMK AO2
14837KMSN MSN20060226015011302/26/06 01:50:31  5-MIN KMSN 260750Z 00000KT 10SM CLR M12/M19 A3055 290 55 -3000 000/00 RMK AO2 SLP362 T11221194
14837KMSN MSN20060226015509602/26/06 01:55:31  5-MIN KMSN 260755Z 00000KT 10SM CLR M13/M19 A3055 290 60 -3100 000/00 RMK AO2
14837KMSN MSN20060226020009602/26/06 02:00:31  5-MIN KMSN 260800Z 00000KT 10SM CLR M13/M19 A3055 290 63 -3100 000/00 RMK AO2
14837KMSN MSN20060226020509602/26/06 02:05:31  5-MIN KMSN 260805Z 00000KT 10SM CLR M14/M19 A3055 290 63 -3200 000/00 RMK AO2
14837KMSN MSN20060226021009602/26/06 02:10:31  5-MIN KMSN 260810Z 00000KT 10SM CLR M14/M19 A3055 290 66 -3200 000/00 RMK AO2
14837KMSN MSN20060226021509602/26/06 02:15:31  5-MIN KMSN 260815Z 34003KT 10SM CLR M13/M19 A3055 290 60 -3100 340/03 RMK AO2
14837KMSN MSN20060226022009602/26/06 02:20:31  5-MIN KMSN 260820Z 34003KT 10SM CLR M13/M19 A3055 290 60 -3100 340/03 RMK AO2
14837KMSN MSN20060226022509602/26/06 02:25:31  5-MIN KMSN 260825Z 00000KT 10SM CLR M14/M19 A3055 290 63 -3200 000/00 RMK AO2
14837KMSN MSN20060226023009602/26/06 02:30:31  5-MIN KMSN 260830Z 00000KT 10SM CLR M14/M19 A3055 290 66 -3300 000/00 RMK AO2
14837KMSN MSN20060226023509602/26/06 02:35:31  5-MIN KMSN 260835Z 00000KT 10SM CLR M14/M19 A3055 290 66 -3300 000/00 RMK AO2
14837KMSN MSN20060226024009602/26/06 02:40:31  5-MIN KMSN 260840Z 00000KT 10SM CLR M14/M19 A3055 290 66 -3200 000/00 RMK AO2
14837KMSN MSN20060226024509602/26/06 02:45:31  5-MIN KMSN 260845Z 00000KT 10SM CLR M14/M19 A3055 290 66 -3200 000/00 RMK AO2
14837KMSN MSN20060226025011902/26/06 02:50:31  5-MIN KMSN 260850Z 00000KT 10SM CLR M15/M19 A3055 290 72 -3300 000/00 RMK AO2 SLP362 T11501189 50004
14837KMSN MSN20060226025509602/26/06 02:55:31  5-MIN KMSN 260855Z 00000KT 10SM CLR M15/M19 A3055 290 72 -3300 000/00 RMK AO2
14837KMSN MSN20060226030009602/26/06 03:00:31  5-MIN KMSN 260900Z 00000KT 10SM CLR M14/M18 A3055 290 73 -3300 000/00 RMK AO2
14837KMSN MSN20060226030509602/26/06 03:05:31  5-MIN KMSN 260905Z 00000KT 10SM CLR M16/M19 A3054 290 76 -3400 000/00 RMK AO2
14837KMSN MSN20060226031009602/26/06 03:10:31  5-MIN KMSN 260910Z 00000KT 10SM CLR M16/M19 A3054 290 76 -3400 000/00 RMK AO2
14837KMSN MSN20060226031509602/26/06 03:15:31  5-MIN KMSN 260915Z 00000KT 10SM CLR M16/M19 A3054 290 76 -3500 000/00 RMK AO2
14837KMSN MSN20060226032009602/26/06 03:20:31  5-MIN KMSN 260920Z 00000KT 10SM CLR M16/M20 A3054 290 72 -3500 000/00 RMK AO2
14837KMSN MSN20060226032509602/26/06 03:25:31  5-MIN KMSN 260925Z 33003KT 10SM CLR M15/M20 A3054 290 66 -3300 330/03 RMK AO2
14837KMSN MSN20060226033009602/26/06 03:30:31  5-MIN KMSN 260930Z 32003KT 10SM CLR M15/M19 A3055 290 69 -3300 320/03 RMK AO2
14837KMSN MSN20060226033509602/26/06 03:35:31  5-MIN KMSN 260935Z 31003KT 10SM CLR M16/M20 A3055 290 72 -3500 310/03 RMK AO2
14837KMSN MSN20060226034009602/26/06 03:40:31  5-MIN KMSN 260940Z 32004KT 10SM CLR M16/M20 A3054 290 72 -3500 320/04 RMK AO2
14837KMSN MSN20060226034509602/26/06 03:45:31  5-MIN KMSN 260945Z 32004KT 10SM CLR M16/M19 A3055 290 72 -3400 320/04 RMK AO2
14837KMSN MSN20060226035011302/26/06 03:50:31  5-MIN KMSN 260950Z 32003KT 10SM CLR M15/M19 A3055 290 69 -3300 320/03 RMK AO2 SLP361 T11501194
14837KMSN MSN20060226035509602/26/06 03:55:31  5-MIN KMSN 260955Z 00000KT 10SM CLR M16/M19 A3054 290 72 -3400 000/00 RMK AO2
14837KMSN MSN20060226040009602/26/06 04:00:31  5-MIN KMSN 261000Z 00000KT 10SM CLR M16/M19 A3054 290 79 -3500 000/00 RMK AO2
14837KMSN MSN20060226040509602/26/06 04:05:31  5-MIN KMSN 261005Z 00000KT 10SM CLR M17/M19 A3054 290 83 -3600 000/00 RMK AO2
14837KMSN MSN20060226041009602/26/06 04:10:31  5-MIN KMSN 261010Z 00000KT 10SM CLR M16/M19 A3054 290 76 -3500 000/00 RMK AO2
14837KMSN MSN20060226041509602/26/06 04:15:31  5-MIN KMSN 261015Z 00000KT 10SM CLR M16/M19 A3054 290 76 -3500 000/00 RMK AO2
14837KMSN MSN20060226042009602/26/06 04:20:31  5-MIN KMSN 261020Z 00000KT 10SM CLR M17/M19 A3054 290 79 -3600 000/00 RMK AO2
14837KMSN MSN20060226042509602/26/06 04:25:31  5-MIN KMSN 261025Z 00000KT 10SM CLR M17/M19 A3054 290 79 -3600 000/00 RMK AO2
14837KMSN MSN20060226043009602/26/06 04:30:31  5-MIN KMSN 261030Z 00000KT 10SM CLR M16/M20 A3054 290 72 -3500 000/00 RMK AO2
14837KMSN MSN20060226043509602/26/06 04:35:31  5-MIN KMSN 261035Z 00000KT 10SM CLR M16/M21 A3054 290 69 -3500 000/00 RMK AO2
14837KMSN MSN20060226044009602/26/06 04:40:31  5-MIN KMSN 261040Z 00000KT 10SM CLR M17/M20 A3054 290 76 -3600 000/00 RMK AO2
14837KMSN MSN20060226044509602/26/06 04:45:31  5-MIN KMSN 261045Z 00000KT 10SM CLR M17/M19 A3055 290 79 -3600 000/00 RMK AO2
14837KMSN MSN20060226045011302/26/06 04:50:31  5-MIN KMSN 261050Z 00000KT 10SM CLR M17/M19 A3055 290 83 -3600 000/00 RMK AO2 SLP362 T11671189
14837KMSN MSN20060226045509602/26/06 04:55:31  5-MIN KMSN 261055Z 00000KT 10SM CLR M17/M19 A3055 290 83 -3600 000/00 RMK AO2
14837KMSN MSN20060226050009602/26/06 05:00:31  5-MIN KMSN 261100Z 00000KT 10SM CLR M17/M19 A3055 290 79 -3600 000/00 RMK AO2
14837KMSN MSN20060226050509602/26/06 05:05:31  5-MIN KMSN 261105Z 00000KT 10SM CLR M17/M19 A3055 290 83 -3700 000/00 RMK AO2
14837KMSN MSN20060226051009602/26/06 05:10:31  5-MIN KMSN 261110Z 00000KT 10SM CLR M17/M19 A3055 290 79 -3600 000/00 RMK AO2
14837KMSN MSN20060226051509602/26/06 05:15:31  5-MIN KMSN 261115Z 00000KT 10SM CLR M17/M19 A3055 280 87 -3700 000/00 RMK AO2
14837KMSN MSN20060226052009602/26/06 05:20:31  5-MIN KMSN 261120Z 00000KT 10SM CLR M17/M19 A3055 280 79 -3600 000/00 RMK AO2
14837KMSN MSN20060226052509602/26/06 05:25:31  5-MIN KMSN 261125Z 00000KT 10SM CLR M17/M21 A3055 280 76 -3700 000/00 RMK AO2
14837KMSN MSN20060226053009602/26/06 05:30:31  5-MIN KMSN 261130Z 00000KT 10SM CLR M17/M21 A3055 280 72 -3600 000/00 RMK AO2
14837KMSN MSN20060226053509902/26/06 05:35:31  5-MIN KMSN 261135Z 00000KT 10SM FEW090 M17/M20 A3055 280 76 -3600 000/00 RMK AO2
14837KMSN MSN20060226054009902/26/06 05:40:31  5-MIN KMSN 261140Z 00000KT 10SM FEW090 M17/M20 A3055 280 79 -3700 000/00 RMK AO2
14837KMSN MSN20060226054510502/26/06 05:45:31  5-MIN KMSN 261145Z 00000KT 10SM FEW090 M17/M19 A3055 290 79 -3600 000/00 RMK AO2 4/004
14837KMSN MSN20060226055014002/26/06 05:50:31  5-MIN KMSN 261150Z 00000KT 10SM FEW090 M18/M21 A3055 290 79 -3700 000/00 RMK AO2 SLP364 4/004 T11781206 11106 21178 50000
14837KMSN MSN20060226055509902/26/06 05:55:31  5-MIN KMSN 261155Z 00000KT 10SM FEW090 M18/M21 A3055 280 75 -3700 000/00 RMK AO2
14837KMSN MSN20060226060009902/26/06 06:00:31  5-MIN KMSN 261200Z 00000KT 10SM FEW090 M17/M21 A3055 280 72 -3600 000/00 RMK AO2
14837KMSN MSN20060226060509602/26/06 06:05:31  5-MIN KMSN 261205Z 00000KT 10SM CLR M17/M20 A3055 280 76 -3600 000/00 RMK AO2
14837KMSN MSN20060226061009602/26/06 06:10:31  5-MIN KMSN 261210Z 00000KT 10SM CLR M17/M21 A3055 280 76 -3700 000/00 RMK AO2
14837KMSN MSN20060226061509602/26/06 06:15:31  5-MIN KMSN 261215Z 00000KT 10SM CLR M18/M21 A3055 290 79 -3700 000/00 RMK AO2
14837KMSN MSN20060226062009602/26/06 06:20:31  5-MIN KMSN 261220Z 00000KT 10SM CLR M18/M21 A3055 290 79 -3700 000/00 RMK AO2
14837KMSN MSN20060226062509602/26/06 06:25:31  5-MIN KMSN 261225Z 00000KT 10SM CLR M18/M21 A3055 290 79 -3700 000/00 RMK AO2
14837KMSN MSN20060226063009602/26/06 06:30:31  5-MIN KMSN 261230Z 00000KT 10SM CLR M18/M21 A3055 290 79 -3700 000/00 RMK AO2
14837KMSN MSN20060226063509602/26/06 06:35:31  5-MIN KMSN 261235Z 00000KT 10SM CLR M18/M20 A3055 290 83 -3700 000/00 RMK AO2
14837KMSN MSN20060226064009602/26/06 06:40:31  5-MIN KMSN 261240Z 00000KT 10SM CLR M18/M20 A3054 290 83 -3700 000/00 RMK AO2
14837KMSN MSN20060226064509602/26/06 06:45:31  5-MIN KMSN 261245Z 00000KT 10SM CLR M18/M21 A3054 290 79 -3700 000/00 RMK AO2
14837KMSN MSN20060226065011602/26/06 06:50:31  5-MIN KMSN 261250Z 00000KT 10SM FEW090 M18/M21 A3054 290 79 -3700 000/00 RMK AO2 SLP362 T11781206
14837KMSN MSN20060226065509602/26/06 06:55:31  5-MIN KMSN 261255Z 00000KT 10SM CLR M18/M20 A3054 290 83 -3700 000/00 RMK AO2
14837KMSN MSN20060226070009602/26/06 07:00:31  5-MIN KMSN 261300Z 00000KT 10SM CLR M18/M20 A3054 290 83 -3700 000/00 RMK AO2
14837KMSN MSN20060226070509602/26/06 07:05:31  5-MIN KMSN 261305Z 00000KT 10SM CLR M18/M21 A3055 290 79 -3700 000/00 RMK AO2
14837KMSN MSN20060226071009602/26/06 07:10:31  5-MIN KMSN 261310Z 00000KT 10SM CLR M18/M20 A3055 290 83 -3700 000/00 RMK AO2
14837KMSN MSN20060226071509602/26/06 07:15:31  5-MIN KMSN 261315Z 00000KT 10SM CLR M17/M19 A3054 290 83 -3600 000/00 RMK AO2
14837KMSN MSN20060226072009602/26/06 07:20:31  5-MIN KMSN 261320Z 00000KT 10SM CLR M17/M19 A3054 290 79 -3600 000/00 RMK AO2
14837KMSN MSN20060226072509602/26/06 07:25:31  5-MIN KMSN 261325Z 00000KT 10SM CLR M17/M19 A3054 290 79 -3600 000/00 RMK AO2
14837KMSN MSN20060226073009602/26/06 07:30:31  5-MIN KMSN 261330Z 00000KT 10SM CLR M16/M19 A3054 290 79 -3500 000/00 RMK AO2
14837KMSN MSN20060226073509602/26/06 07:35:31  5-MIN KMSN 261335Z 00000KT 10SM CLR M16/M19 A3054 290 79 -3500 000/00 RMK AO2
14837KMSN MSN20060226074009602/26/06 07:40:31  5-MIN KMSN 261340Z 00000KT 10SM CLR M16/M19 A3054 290 79 -3500 000/00 RMK AO2
14837KMSN MSN20060226074509602/26/06 07:45:31  5-MIN KMSN 261345Z 00000KT 10SM CLR M16/M19 A3054 290 76 -3400 000/00 RMK AO2
14837KMSN MSN20060226075011302/26/06 07:50:31  5-MIN KMSN 261350Z 00000KT 10SM CLR M15/M18 A3054 290 76 -3300 000/00 RMK AO2 SLP361 T11501183
14837KMSN MSN20060226075509602/26/06 07:55:31  5-MIN KMSN 261355Z 00000KT 10SM CLR M15/M18 A3054 290 76 -3300 000/00 RMK AO2
14837KMSN MSN20060226080009602/26/06 08:00:31  5-MIN KMSN 261400Z 00000KT 10SM CLR M15/M18 A3054 300 76 -3300 000/00 RMK AO2
14837KMSN MSN20060226080509602/26/06 08:05:31  5-MIN KMSN 261405Z 00000KT 10SM CLR M15/M18 A3054 300 76 -3300 000/00 RMK AO2
14837KMSN MSN20060226081009602/26/06 08:10:31  5-MIN KMSN 261410Z 00000KT 10SM CLR M15/M18 A3054 300 76 -3300 000/00 RMK AO2
14837KMSN MSN20060226081509602/26/06 08:15:31  5-MIN KMSN 261415Z 00000KT 10SM CLR M14/M18 A3054 300 69 -3200 000/00 RMK AO2
14837KMSN MSN20060226082009602/26/06 08:20:31  5-MIN KMSN 261420Z 00000KT 10SM CLR M13/M18 A3054 300 69 -3100 000/00 RMK AO2
14837KMSN MSN20060226082509602/26/06 08:25:31  5-MIN KMSN 261425Z 00000KT 10SM CLR M13/M17 A3054 300 70 -3000 000/00 RMK AO2
14837KMSN MSN20060226083009602/26/06 08:30:31  5-MIN KMSN 261430Z 00000KT 10SM CLR M12/M17 A3054 300 67 -3000 000/00 RMK AO2
14837KMSN MSN20060226083509602/26/06 08:35:31  5-MIN KMSN 261435Z 00000KT 10SM CLR M12/M17 A3054 300 70 -3000 000/00 RMK AO2
14837KMSN MSN20060226084009602/26/06 08:40:31  5-MIN KMSN 261440Z 00000KT 10SM CLR M12/M17 A3054 300 67 -2900 000/00 RMK AO2
14837KMSN MSN20060226084509602/26/06 08:45:31  5-MIN KMSN 261445Z 00000KT 10SM CLR M11/M16 A3053 300 67 -2800 000/00 RMK AO2
14837KMSN MSN20060226085011902/26/06 08:50:31  5-MIN KMSN 261450Z 00000KT 10SM CLR M11/M16 A3053 300 64 -2700 000/00 RMK AO2 SLP357 T11061161 53002
14837KMSN MSN20060226085509602/26/06 08:55:31  5-MIN KMSN 261455Z 00000KT 10SM CLR M11/M16 A3053 300 64 -2700 000/00 RMK AO2
14837KMSN MSN20060226090009602/26/06 09:00:31  5-MIN KMSN 261500Z 00000KT 10SM CLR M10/M16 A3053 300 64 -2700 000/00 RMK AO2
14837KMSN MSN20060226090509602/26/06 09:05:31  5-MIN KMSN 261505Z 16005KT 10SM CLR M10/M16 A3053 300 64 -2700 160/05 RMK AO2
14837KMSN MSN20060226091009602/26/06 09:10:31  5-MIN KMSN 261510Z 17007KT 10SM CLR M09/M16 A3053 310 56 -2500 170/07 RMK AO2
14837KMSN MSN20060226091509602/26/06 09:15:31  5-MIN KMSN 261515Z 18006KT 10SM CLR M09/M16 A3053 310 56 -2500 180/06 RMK AO2
14837KMSN MSN20060226092009602/26/06 09:20:31  5-MIN KMSN 261520Z 17006KT 10SM CLR M09/M16 A3053 310 56 -2500 160/06 RMK AO2
14837KMSN MSN20060226092509602/26/06 09:25:31  5-MIN KMSN 261525Z 20007KT 10SM CLR M08/M16 A3052 310 56 -2400 200/07 RMK AO2
14837KMSN MSN20060226093009602/26/06 09:30:31  5-MIN KMSN 261530Z 19009KT 10SM CLR M08/M17 A3052 310 51 -2400 190/09 RMK AO2
14837KMSN MSN20060226093509602/26/06 09:35:31  5-MIN KMSN 261535Z 19007KT 10SM CLR M08/M17 A3052 310 51 -2400 190/07 RMK AO2
14837KMSN MSN20060226094009602/26/06 09:40:31  5-MIN KMSN 261540Z VRB05KT 10SM CLR M08/M17 A3052 310 49 -2400 VRB/05 RMK AO2
14837KMSN MSN20060226094509602/26/06 09:45:31  5-MIN KMSN 261545Z 20006KT 10SM CLR M08/M16 A3052 320 51 -2400 200/06 RMK AO2
14837KMSN MSN20060226095011302/26/06 09:50:31  5-MIN KMSN 261550Z 22008KT 10SM CLR M08/M17 A3052 320 49 -2300 220/08 RMK AO2 SLP350 T10781167
14837KMSN MSN20060226095509602/26/06 09:55:31  5-MIN KMSN 261555Z 20006KT 10SM CLR M08/M17 A3051 320 47 -2300 200/06 RMK AO2
14837KMSN MSN20060226100009602/26/06 10:00:31  5-MIN KMSN 261600Z 22006KT 10SM CLR M07/M17 A3051 320 45 -2300 220/06 RMK AO2
14837KMSN MSN20060226100509602/26/06 10:05:31  5-MIN KMSN 261605Z 20007KT 10SM CLR M07/M18 A3051 320 43 -2300 200/07 RMK AO2
14837KMSN MSN20060226101009602/26/06 10:10:31  5-MIN KMSN 261610Z 19008KT 10SM CLR M07/M18 A3050 330 43 -2300 190/08 RMK AO2
14837KMSN MSN20060226101511202/26/06 10:15:31  5-MIN KMSN 261615Z 21007KT 170V240 10SM CLR M07/M17 A3050 330 45 -2300 210/07 170V240 RMK AO2
14837KMSN MSN20060226102009602/26/06 10:20:31  5-MIN KMSN 261620Z 21008KT 10SM CLR M07/M17 A3050 330 45 -2300 210/08 RMK AO2
14837KMSN MSN20060226102511202/26/06 10:25:31  5-MIN KMSN 261625Z 21008KT 160V270 10SM CLR M07/M17 A3050 330 43 -2200 210/08 160V270 RMK AO2
14837KMSN MSN20060226103011202/26/06 10:30:31  5-MIN KMSN 261630Z 21008KT 170V240 10SM CLR M07/M17 A3050 330 43 -2200 210/08 170V240 RMK AO2
14837KMSN MSN20060226103509602/26/06 10:35:31  5-MIN KMSN 261635Z 21007KT 10SM CLR M07/M17 A3050 340 43 -2200 210/07 RMK AO2
14837KMSN MSN20060226104009602/26/06 10:40:31  5-MIN KMSN 261640Z 20009KT 10SM CLR M07/M17 A3049 340 45 -2200 200/09 RMK AO2
14837KMSN MSN20060226104509602/26/06 10:45:31  5-MIN KMSN 261645Z 20008KT 10SM CLR M07/M17 A3049 340 43 -2200 200/08 RMK AO2
14837KMSN MSN20060226105011302/26/06 10:50:31  5-MIN KMSN 261650Z 20008KT 10SM CLR M07/M17 A3049 340 45 -2200 200/08 RMK AO2 SLP341 T10671167
14837KMSN MSN20060226105509602/26/06 10:55:31  5-MIN KMSN 261655Z 19009KT 10SM CLR M07/M17 A3049 350 45 -2200 190/09 RMK AO2
14837KMSN MSN20060226110009602/26/06 11:00:31  5-MIN KMSN 261700Z VRB06KT 10SM CLR M06/M16 A3048 350 45 -2100 VRB/06 RMK AO2
14837KMSN MSN20060226110509602/26/06 11:05:31  5-MIN KMSN 261705Z 23006KT 10SM CLR M06/M17 A3048 350 43 -2100 230/06 RMK AO2
14837KMSN MSN20060226111009602/26/06 11:10:31  5-MIN KMSN 261710Z 24006KT 10SM CLR M06/M17 A3048 350 43 -2100 240/06 RMK AO2
14837KMSN MSN20060226111509602/26/06 11:15:31  5-MIN KMSN 261715Z 23008KT 10SM CLR M06/M17 A3048 350 43 -2100 230/08 RMK AO2
14837KMSN MSN20060226112011202/26/06 11:20:31  5-MIN KMSN 261720Z 24008KT 210V270 10SM CLR M06/M17 A3047 360 43 -2100 240/08 210V270 RMK AO2
14837KMSN MSN20060226112511202/26/06 11:25:31  5-MIN KMSN 261725Z 23009KT 200V270 10SM CLR M06/M17 A3047 360 43 -2100 230/09 200V270 RMK AO2
14837KMSN MSN20060226113011202/26/06 11:30:31  5-MIN KMSN 261730Z 23008KT 200V260 10SM CLR M06/M17 A3047 360 41 -2000 230/08 200V260 RMK AO2
14837KMSN MSN20060226113509602/26/06 11:35:31  5-MIN KMSN 261735Z 21007KT 10SM CLR M06/M16 A3046 360 43 -2000 210/07 RMK AO2
14837KMSN MSN20060226114009602/26/06 11:40:31  5-MIN KMSN 261740Z 23010KT 10SM CLR M06/M16 A3046 370 43 -2000 230/10 RMK AO2
14837KMSN MSN20060226114511202/26/06 11:45:31  5-MIN KMSN 261745Z 25008KT 220V280 10SM CLR M05/M17 A3046 370 40 -1900 250/08 220V280 RMK AO2
14837KMSN MSN20060226115013102/26/06 11:50:31  5-MIN KMSN 261750Z 23007KT 10SM CLR M05/M17 A3046 370 40 -1900 230/07 RMK AO2 SLP331 T10501167 11050 21183 57007
14837KMSN MSN20060226115509602/26/06 11:55:31  5-MIN KMSN 261755Z VRB05KT 10SM CLR M05/M17 A3045 380 40 -1900 VRB/05 RMK AO2
14837KMSN MSN20060226120009602/26/06 12:00:31  5-MIN KMSN 261800Z 26009KT 10SM CLR M05/M17 A3045 380 40 -1900 260/09 RMK AO2
14837KMSN MSN20060226120511202/26/06 12:05:31  5-MIN KMSN 261805Z 25007KT 210V270 10SM CLR M05/M17 A3045 380 40 -1900 240/07 210V270 RMK AO2
14837KMSN MSN20060226121009602/26/06 12:10:31  5-MIN KMSN 261810Z 23008KT 10SM CLR M05/M17 A3044 390 38 -1900 230/08 RMK AO2
14837KMSN MSN20060226121509602/26/06 12:15:31  5-MIN KMSN 261815Z 25009KT 10SM CLR M05/M17 A3044 390 38 -1900 250/09 RMK AO2
14837KMSN MSN20060226122009602/26/06 12:20:31  5-MIN KMSN 261820Z 25007KT 10SM CLR M04/M17 A3043 390 38 -1800 250/07 RMK AO2
14837KMSN MSN20060226122509602/26/06 12:25:31  5-MIN KMSN 261825Z 21007KT 10SM CLR M05/M17 A3043 400 40 -1900 210/07 RMK AO2
14837KMSN MSN20060226123009602/26/06 12:30:31  5-MIN KMSN 261830Z 22009KT 10SM CLR M04/M16 A3043 400 40 -1800 220/09 RMK AO2
14837KMSN MSN20060226123509602/26/06 12:35:31  5-MIN KMSN 261835Z 24009KT 10SM CLR M04/M16 A3042 400 40 -1800 240/09 RMK AO2
14837KMSN MSN20060226124009602/26/06 12:40:31  5-MIN KMSN 261840Z 22006KT 10SM CLR M04/M17 A3042 410 38 -1800 220/06 RMK AO2
14837KMSN MSN20060226124511202/26/06 12:45:31  5-MIN KMSN 261845Z 23007KT 200V270 10SM CLR M04/M16 A3042 410 40 -1800 230/07 200V270 RMK AO2
14837KMSN MSN20060226125011302/26/06 12:50:31  5-MIN KMSN 261850Z VRB06KT 10SM CLR M04/M16 A3041 410 40 -1800 VRB/06 RMK AO2 SLP315 T10441161
14837KMSN MSN20060226125509602/26/06 12:55:31  5-MIN KMSN 261855Z 24008KT 10SM CLR M04/M16 A3041 410 40 -1700 240/08 RMK AO2
14837KMSN MSN20060226130009602/26/06 13:00:31  5-MIN KMSN 261900Z 23008KT 10SM CLR M04/M16 A3041 420 40 -1700 220/08 RMK AO2
14837KMSN MSN20060226130509602/26/06 13:05:31  5-MIN KMSN 261905Z VRB06KT 10SM CLR M04/M16 A3040 420 40 -1700 VRB/06 RMK AO2
14837KMSN MSN20060226131011202/26/06 13:10:31  5-MIN KMSN 261910Z 25007KT 220V280 10SM CLR M04/M16 A3040 420 40 -1700 250/07 220V280 RMK AO2
14837KMSN MSN20060226131511202/26/06 13:15:31  5-MIN KMSN 261915Z 23007KT 200V260 10SM CLR M04/M16 A3040 430 40 -1700 230/07 200V260 RMK AO2
14837KMSN MSN20060226132011202/26/06 13:20:31  5-MIN KMSN 261920Z 24007KT 200V280 10SM CLR M04/M15 A3039 430 42 -1700 240/07 200V280 RMK AO2
14837KMSN MSN20060226132511202/26/06 13:25:31  5-MIN KMSN 261925Z 25008KT 210V280 10SM CLR M04/M16 A3039 430 40 -1700 240/08 210V280 RMK AO2
14837KMSN MSN20060226133009602/26/06 13:30:31  5-MIN KMSN 261930Z 24010KT 10SM CLR M04/M16 A3039 440 40 -1700 240/10 RMK AO2
14837KMSN MSN20060226133509602/26/06 13:35:31  5-MIN KMSN 261935Z 25009KT 10SM CLR M03/M15 A3038 440 40 -1600 250/09 RMK AO2
14837KMSN MSN20060226134009902/26/06 13:40:31  5-MIN KMSN 261940Z 23008KT 10SM FEW090 M03/M16 A3038 440 38 -1600 230/08 RMK AO2
14837KMSN MSN20060226134509902/26/06 13:45:31  5-MIN KMSN 261945Z 24007KT 10SM SCT090 M03/M15 A3038 450 40 -1600 240/07 RMK AO2
14837KMSN MSN20060226135011602/26/06 13:50:31  5-MIN KMSN 261950Z 22007KT 10SM BKN090 M03/M15 A3037 450 40 -1600 220/07 RMK AO2 SLP302 T10331150
14837KMSN MSN20060226135509902/26/06 13:55:31  5-MIN KMSN 261955Z 23008KT 10SM BKN090 M03/M15 A3037 450 40 -1600 230/08 RMK AO2
14837KMSN MSN20060226140009902/26/06 14:00:31  5-MIN KMSN 262000Z 22007KT 10SM BKN090 M03/M15 A3037 450 39 -1500 220/07 RMK AO2
14837KMSN MSN20060226140511502/26/06 14:05:31  5-MIN KMSN 262005Z 23007KT 190V260 10SM BKN090 M03/M15 A3037 450 39 -1500 230/07 190V260 RMK AO2
14837KMSN MSN20060226141011502/26/06 14:10:31  5-MIN KMSN 262010Z 23007KT 200V270 10SM SCT090 M03/M15 A3036 460 39 -1500 230/07 200V270 RMK AO2
14837KMSN MSN20060226141512102/26/06 14:15:31  5-MIN KMSN 262015Z 24009G14KT 200V270 10SM SCT090 M03/M14 A3036 460 40 -1500 240/09G14 200V270 RMK AO2
14837KMSN MSN20060226142010502/26/06 14:20:31  5-MIN KMSN 262020Z 24007G14KT 10SM SCT090 M03/M14 A3035 470 40 -1500 240/07G14 RMK AO2
14837KMSN MSN20060226142509902/26/06 14:25:31  5-MIN KMSN 262025Z 23008KT 10SM FEW090 M03/M15 A3035 470 39 -1500 230/08 RMK AO2
14837KMSN MSN20060226143009902/26/06 14:30:31  5-MIN KMSN 262030Z VRB05KT 10SM FEW090 M02/M14 A3035 470 39 -1400 VRB/05 RMK AO2
14837KMSN MSN20060226143511502/26/06 14:35:31  5-MIN KMSN 262035Z 23008KT 200V260 10SM FEW090 M02/M14 A3034 480 39 -1400 230/08 200V260 RMK AO2
14837KMSN MSN20060226144009902/26/06 14:40:31  5-MIN KMSN 262040Z 24009KT 10SM FEW090 M02/M14 A3034 480 39 -1400 240/09 RMK AO2
14837KMSN MSN20060226144509902/26/06 14:45:31  5-MIN KMSN 262045Z 22008KT 10SM FEW090 M03/M14 A3034 480 40 -1500 220/08 RMK AO2
14837KMSN MSN20060226145013802/26/06 14:50:31  5-MIN KMSN 262050Z 25007KT 220V280 10SM FEW090 M03/M14 A3033 480 40 -1500 250/07 220V280 RMK AO2 SLP289 T10281144 58026
14837KMSN MSN20060226145511202/26/06 14:55:31  5-MIN KMSN 262055Z 24007KT 200V260 10SM CLR M02/M14 A3033 490 39 -1400 240/07 200V260 RMK AO2
14837KMSN MSN20060226150011202/26/06 15:00:31  5-MIN KMSN 262100Z 23007KT 190V280 10SM CLR M02/M14 A3033 490 39 -1400 230/07 190V280 RMK AO2
14837KMSN MSN20060226150511202/26/06 15:05:31  5-MIN KMSN 262105Z 23007KT 190V260 10SM CLR M02/M14 A3033 490 39 -1400 230/07 190V260 RMK AO2
14837KMSN MSN20060226151009602/26/06 15:10:31  5-MIN KMSN 262110Z 25006KT 10SM CLR M02/M14 A3032 490 39 -1400 250/06 RMK AO2
14837KMSN MSN20060226151509602/26/06 15:15:31  5-MIN KMSN 262115Z 23008KT 10SM CLR M02/M14 A3032 500 40 -1400 230/08 RMK AO2
14837KMSN MSN20060226152009602/26/06 15:20:31  5-MIN KMSN 262120Z 24009KT 10SM CLR M02/M14 A3032 500 40 -1400 240/09 RMK AO2
14837KMSN MSN20060226152509602/26/06 15:25:31  5-MIN KMSN 262125Z 24009KT 10SM CLR M02/M14 A3031 500 39 -1300 230/09 RMK AO2
14837KMSN MSN20060226153009602/26/06 15:30:31  5-MIN KMSN 262130Z 22008KT 10SM CLR M02/M14 A3031 510 40 -1400 220/08 RMK AO2
14837KMSN MSN20060226153509602/26/06 15:35:31  5-MIN KMSN 262135Z 22007KT 10SM CLR M02/M14 A3031 510 39 -1400 220/07 RMK AO2
14837KMSN MSN20060226154009602/26/06 15:40:31  5-MIN KMSN 262140Z 24007KT 10SM CLR M02/M14 A3031 510 40 -1400 240/07 RMK AO2
14837KMSN MSN20060226154509602/26/06 15:45:31  5-MIN KMSN 262145Z 22006KT 10SM CLR M02/M14 A3030 510 39 -1300 220/06 RMK AO2
14837KMSN MSN20060226155011302/26/06 15:50:31  5-MIN KMSN 262150Z 24008KT 10SM CLR M02/M14 A3030 510 40 -1400 230/08 RMK AO2 SLP278 T10221139
14837KMSN MSN20060226155509602/26/06 15:55:31  5-MIN KMSN 262155Z 23008KT 10SM CLR M02/M14 A3030 520 39 -1300 230/08 RMK AO2
14837KMSN MSN20060226160009602/26/06 16:00:31  5-MIN KMSN 262200Z 23009KT 10SM CLR M02/M14 A3030 520 40 -1400 230/09 RMK AO2
14837KMSN MSN20060226160509602/26/06 16:05:31  5-MIN KMSN 262205Z 23007KT 10SM CLR M02/M13 A3029 520 41 -1300 230/07 RMK AO2
14837KMSN MSN20060226161011202/26/06 16:10:31  5-MIN KMSN 262210Z 25007KT 210V300 10SM CLR M02/M14 A3029 520 39 -1300 250/07 210V300 RMK AO2
14837KMSN MSN20060226161509602/26/06 16:15:31  5-MIN KMSN 262215Z 23009KT 10SM CLR M02/M14 A3029 530 39 -1300 230/09 RMK AO2
14837KMSN MSN20060226162009602/26/06 16:20:31  5-MIN KMSN 262220Z 23006KT 10SM CLR M02/M13 A3029 530 41 -1300 230/06 RMK AO2
14837KMSN MSN20060226162511202/26/06 16:25:31  5-MIN KMSN 262225Z 24008KT 210V280 10SM CLR M02/M13 A3028 530 41 -1300 240/08 210V280 RMK AO2
14837KMSN MSN20060226163009602/26/06 16:30:31  5-MIN KMSN 262230Z 23007KT 10SM CLR M02/M13 A3028 530 41 -1300 230/07 RMK AO2
14837KMSN MSN20060226163509602/26/06 16:35:31  5-MIN KMSN 262235Z 23006KT 10SM CLR M02/M13 A3028 530 41 -1300 230/06 RMK AO2
14837KMSN MSN20060226164009602/26/06 16:40:31  5-MIN KMSN 262240Z VRB06KT 10SM CLR M02/M13 A3028 540 41 -1300 VRB/06 RMK AO2
14837KMSN MSN20060226164509602/26/06 16:45:31  5-MIN KMSN 262245Z 22005KT 10SM CLR M02/M13 A3027 540 41 -1300 220/05 RMK AO2
14837KMSN MSN20060226165011602/26/06 16:50:31  5-MIN KMSN 262250Z 24008KT 10SM FEW070 M02/M13 A3027 540 41 -1300 240/08 RMK AO2 SLP268 T10171133
14837KMSN MSN20060226165509902/26/06 16:55:31  5-MIN KMSN 262255Z 23006KT 10SM FEW070 M02/M14 A3027 540 39 -1300 230/06 RMK AO2
14837KMSN MSN20060226170009902/26/06 17:00:31  5-MIN KMSN 262300Z VRB06KT 10SM FEW075 M02/M13 A3027 540 42 -1300 VRB/06 RMK AO2
14837KMSN MSN20060226170509902/26/06 17:05:31  5-MIN KMSN 262305Z VRB05KT 10SM FEW075 M02/M13 A3027 540 42 -1300 VRB/05 RMK AO2
14837KMSN MSN20060226171009902/26/06 17:10:31  5-MIN KMSN 262310Z 23007KT 10SM FEW070 M02/M13 A3027 550 42 -1300 230/07 RMK AO2
14837KMSN MSN20060226171509902/26/06 17:15:31  5-MIN KMSN 262315Z 23005KT 10SM FEW070 M02/M13 A3027 550 42 -1300 230/05 RMK AO2
14837KMSN MSN20060226172009902/26/06 17:20:31  5-MIN KMSN 262320Z VRB05KT 10SM FEW060 M02/M13 A3026 550 44 -1300 VRB/05 RMK AO2
14837KMSN MSN20060226172510602/26/06 17:25:31  5-MIN KMSN 262325Z 23005KT 10SM SCT055 SCT070 M02/M13 A3026 550 44 -1300 230/05 RMK AO2
14837KMSN MSN20060226173009902/26/06 17:30:31  5-MIN KMSN 262330Z 23004KT 10SM SCT055 M02/M13 A3026 550 44 -1300 230/04 RMK AO2
14837KMSN MSN20060226173509902/26/06 17:35:31  5-MIN KMSN 262335Z 22006KT 10SM BKN055 M02/M13 A3026 550 44 -1300 220/06 RMK AO2
14837KMSN MSN20060226174009902/26/06 17:40:31  5-MIN KMSN 262340Z 21005KT 10SM BKN055 M02/M13 A3025 560 42 -1300 210/05 RMK AO2
14837KMSN MSN20060226174510602/26/06 17:45:31  5-MIN KMSN 262345Z 21005KT 10SM BKN055 BKN070 M02/M13 A3025 560 44 -1300 210/05 RMK AO2
14837KMSN MSN20060226175014102/26/06 17:50:31  5-MIN KMSN 262350Z 21006KT 10SM BKN055 BKN065 M03/M13 A3025 560 46 -1400 210/06 RMK AO2 SLP261 T10281128 11017 21050 56039
14837KMSN MSN20060226175509902/26/06 17:55:31  5-MIN KMSN 262355Z 21005KT 10SM OVC065 M03/M13 A3025 560 46 -1400 210/05 RMK AO2
14837KMSN MSN20060226180009902/26/06 18:00:31  5-MIN KMSN 270000Z 21005KT 10SM OVC065 M03/M13 A3025 560 46 -1400 210/05 RMK AO2
14837KMSN MSN20060226180509902/26/06 18:05:31  5-MIN KMSN 270005Z 21005KT 10SM OVC065 M03/M13 A3025 560 46 -1400 210/05 RMK AO2
14837KMSN MSN20060226181009902/26/06 18:10:31  5-MIN KMSN 270010Z 21006KT 10SM OVC065 M03/M13 A3024 570 46 -1400 210/06 RMK AO2
14837KMSN MSN20060226181509902/26/06 18:15:31  5-MIN KMSN 270015Z 21006KT 10SM BKN065 M03/M13 A3024 570 46 -1400 210/06 RMK AO2
14837KMSN MSN20060226182009902/26/06 18:20:31  5-MIN KMSN 270020Z 21005KT 10SM BKN065 M03/M13 A3024 570 46 -1400 210/05 RMK AO2
14837KMSN MSN20060226182509902/26/06 18:25:31  5-MIN KMSN 270025Z 22005KT 10SM BKN065 M03/M13 A3024 570 46 -1400 220/05 RMK AO2
14837KMSN MSN20060226183009902/26/06 18:30:31  5-MIN KMSN 270030Z 21005KT 10SM SCT065 M03/M13 A3024 570 46 -1400 210/05 RMK AO2
14837KMSN MSN20060226183509902/26/06 18:35:31  5-MIN KMSN 270035Z 21005KT 10SM FEW060 M03/M13 A3024 570 48 -1500 210/05 RMK AO2
14837KMSN MSN20060226184009902/26/06 18:40:31  5-MIN KMSN 270040Z 21004KT 10SM FEW060 M03/M13 A3024 570 48 -1500 210/04 RMK AO2
14837KMSN MSN20060226184509902/26/06 18:45:31  5-MIN KMSN 270045Z 20006KT 10SM SCT060 M03/M13 A3023 580 48 -1400 190/06 RMK AO2
14837KMSN MSN20060226185011602/26/06 18:50:31  5-MIN KMSN 270050Z 21005KT 10SM FEW060 M03/M13 A3024 570 48 -1500 210/05 RMK AO2 SLP256 T10331128
14837KMSN MSN20060226185509902/26/06 18:55:31  5-MIN KMSN 270055Z 21005KT 10SM FEW060 M03/M13 A3023 580 48 -1400 210/05 RMK AO2
14837KMSN MSN20060226190009902/26/06 19:00:31  5-MIN KMSN 270100Z 21005KT 10SM FEW060 M03/M13 A3023 580 48 -1400 210/05 RMK AO2
14837KMSN MSN20060226190509902/26/06 19:05:31  5-MIN KMSN 270105Z 21004KT 10SM FEW060 M03/M13 A3023 580 48 -1400 210/04 RMK AO2
14837KMSN MSN20060226191009602/26/06 19:10:31  5-MIN KMSN 270110Z 21004KT 10SM CLR M03/M13 A3023 580 48 -1400 210/04 RMK AO2
14837KMSN MSN20060226191509602/26/06 19:15:31  5-MIN KMSN 270115Z 20003KT 10SM CLR M03/M13 A3023 580 48 -1400 200/03 RMK AO2
14837KMSN MSN20060226192009602/26/06 19:20:31  5-MIN KMSN 270120Z 19004KT 10SM CLR M04/M13 A3023 580 50 -1500 190/04 RMK AO2
14837KMSN MSN20060226192509602/26/06 19:25:31  5-MIN KMSN 270125Z 20005KT 10SM CLR M03/M13 A3022 590 48 -1400 200/05 RMK AO2
14837KMSN MSN20060226193009602/26/06 19:30:31  5-MIN KMSN 270130Z 20005KT 10SM CLR M04/M13 A3022 590 50 -1500 200/05 RMK AO2
14837KMSN MSN20060226193509602/26/06 19:35:31  5-MIN KMSN 270135Z 20005KT 10SM CLR M03/M13 A3022 590 48 -1400 200/05 RMK AO2
14837KMSN MSN20060226194009602/26/06 19:40:31  5-MIN KMSN 270140Z 20005KT 10SM CLR M04/M13 A3022 590 50 -1500 200/05 RMK AO2
14837KMSN MSN20060226194509602/26/06 19:45:31  5-MIN KMSN 270145Z 21005KT 10SM CLR M04/M13 A3021 590 50 -1500 210/05 RMK AO2
14837KMSN MSN20060226195011302/26/06 19:50:31  5-MIN KMSN 270150Z 21005KT 10SM CLR M04/M13 A3021 600 50 -1500 210/05 RMK AO2 SLP248 T10391128
14837KMSN MSN20060226195509602/26/06 19:55:31  5-MIN KMSN 270155Z 22005KT 10SM CLR M04/M13 A3021 600 50 -1500 210/05 RMK AO2
14837KMSN MSN20060226200009602/26/06 20:00:31  5-MIN KMSN 270200Z 22004KT 10SM CLR M04/M13 A3021 600 50 -1500 220/04 RMK AO2
14837KMSN MSN20060226200509602/26/06 20:05:31  5-MIN KMSN 270205Z 22004KT 10SM CLR M04/M13 A3020 600 50 -1500 220/04 RMK AO2
14837KMSN MSN20060226201009602/26/06 20:10:31  5-MIN KMSN 270210Z 22004KT 10SM CLR M04/M13 A3021 600 50 -1500 220/04 RMK AO2
14837KMSN MSN20060226201509602/26/06 20:15:31  5-MIN KMSN 270215Z 22005KT 10SM CLR M04/M13 A3020 600 50 -1500 220/05 RMK AO2
14837KMSN MSN20060226202009602/26/06 20:20:31  5-MIN KMSN 270220Z 22005KT 10SM CLR M04/M13 A3020 610 50 -1500 220/05 RMK AO2
14837KMSN MSN20060226202509602/26/06 20:25:31  5-MIN KMSN 270225Z 22005KT 10SM CLR M04/M13 A3020 610 50 -1500 220/05 RMK AO2
14837KMSN MSN20060226203009902/26/06 20:30:31  5-MIN KMSN 270230Z 22005KT 10SM FEW100 M04/M13 A3019 610 50 -1500 220/05 RMK AO2
14837KMSN MSN20060226203509902/26/06 20:35:31  5-MIN KMSN 270235Z 22006KT 10SM SCT100 M04/M13 A3019 620 50 -1500 220/06 RMK AO2
14837KMSN MSN20060226204009902/26/06 20:40:31  5-MIN KMSN 270240Z 22006KT 10SM FEW100 M04/M13 A3019 620 50 -1500 220/06 RMK AO2
14837KMSN MSN20060226204509902/26/06 20:45:31  5-MIN KMSN 270245Z 22006KT 10SM FEW100 M04/M13 A3019 620 50 -1500 220/06 RMK AO2
14837KMSN MSN20060226205012202/26/06 20:50:31  5-MIN KMSN 270250Z 22007KT 10SM FEW100 M04/M13 A3018 620 50 -1500 220/07 RMK AO2 SLP237 T10391128 56028
14837KMSN MSN20060226205509902/26/06 20:55:31  5-MIN KMSN 270255Z 22006KT 10SM FEW100 M03/M13 A3018 620 48 -1400 220/06 RMK AO2
14837KMSN MSN20060226210009902/26/06 21:00:31  5-MIN KMSN 270300Z 22006KT 10SM FEW100 M04/M13 A3018 620 50 -1500 220/06 RMK AO2
14837KMSN MSN20060226210509602/26/06 21:05:31  5-MIN KMSN 270305Z 22005KT 10SM CLR M04/M13 A3018 630 50 -1500 220/05 RMK AO2
14837KMSN MSN20060226211009602/26/06 21:10:31  5-MIN KMSN 270310Z 22005KT 10SM CLR M04/M13 A3018 630 50 -1500 210/05 RMK AO2
14837KMSN MSN20060226211509602/26/06 21:15:31  5-MIN KMSN 270315Z 22006KT 10SM CLR M04/M13 A3018 630 50 -1500 220/06 RMK AO2
14837KMSN MSN20060226212009602/26/06 21:20:31  5-MIN KMSN 270320Z 22006KT 10SM CLR M03/M13 A3017 630 46 -1400 220/06 RMK AO2
14837KMSN MSN20060226212509602/26/06 21:25:31  5-MIN KMSN 270325Z 22007KT 10SM CLR M03/M13 A3017 630 46 -1400 210/07 RMK AO2
14837KMSN MSN20060226213009602/26/06 21:30:31  5-MIN KMSN 270330Z 22006KT 10SM CLR M03/M13 A3017 630 46 -1400 220/06 RMK AO2
14837KMSN MSN20060226213509602/26/06 21:35:31  5-MIN KMSN 270335Z 22006KT 10SM CLR M03/M13 A3017 640 46 -1400 220/06 RMK AO2
14837KMSN MSN20060226214009602/26/06 21:40:31  5-MIN KMSN 270340Z 22005KT 10SM CLR M04/M13 A3016 640 48 -1400 220/05 RMK AO2
14837KMSN MSN20060226214509602/26/06 21:45:31  5-MIN KMSN 270345Z 21006KT 10SM CLR M03/M13 A3016 640 46 -1400 210/06 RMK AO2
14837KMSN MSN20060226215011302/26/06 21:50:31  5-MIN KMSN 270350Z 22005KT 10SM CLR M03/M13 A3016 640 46 -1400 220/05 RMK AO2 SLP227 T10331133
14837KMSN MSN20060226215509602/26/06 21:55:31  5-MIN KMSN 270355Z 22005KT 10SM CLR M03/M13 A3016 640 46 -1400 210/05 RMK AO2
14837KMSN MSN20060226220009602/26/06 22:00:31  5-MIN KMSN 270400Z 22004KT 10SM CLR M03/M13 A3016 640 46 -1400 220/04 RMK AO2
14837KMSN MSN20060226220509602/26/06 22:05:31  5-MIN KMSN 270405Z 21005KT 10SM CLR M04/M13 A3016 640 48 -1400 210/05 RMK AO2
14837KMSN MSN20060226221009602/26/06 22:10:31  5-MIN KMSN 270410Z 21006KT 10SM CLR M04/M13 A3016 650 48 -1400 210/06 RMK AO2
14837KMSN MSN20060226221509602/26/06 22:15:31  5-MIN KMSN 270415Z 21005KT 10SM CLR M03/M13 A3016 650 46 -1400 210/05 RMK AO2
14837KMSN MSN20060226222009602/26/06 22:20:31  5-MIN KMSN 270420Z 21006KT 10SM CLR M03/M13 A3015 650 46 -1400 210/06 RMK AO2
14837KMSN MSN20060226222509602/26/06 22:25:31  5-MIN KMSN 270425Z 21006KT 10SM CLR M03/M13 A3015 650 46 -1400 210/06 RMK AO2
14837KMSN MSN20060226223009902/26/06 22:30:31  5-MIN KMSN 270430Z 22006KT 10SM FEW080 M03/M13 A3015 650 46 -1400 210/06 RMK AO2
14837KMSN MSN20060226223510602/26/06 22:35:31  5-MIN KMSN 270435Z 22006KT 10SM SCT075 SCT095 M03/M13 A3015 650 46 -1400 220/06 RMK AO2
14837KMSN MSN20060226224010602/26/06 22:40:31  5-MIN KMSN 270440Z 22007KT 10SM SCT075 BKN090 M03/M13 A3015 650 46 -1400 220/07 RMK AO2
14837KMSN MSN20060226224510602/26/06 22:45:31  5-MIN KMSN 270445Z 22006KT 10SM BKN075 BKN090 M03/M13 A3015 650 46 -1400 220/06 RMK AO2
14837KMSN MSN20060226225012302/26/06 22:50:31  5-MIN KMSN 270450Z 22007KT 10SM BKN075 BKN090 M03/M13 A3015 650 46 -1400 220/07 RMK AO2 SLP223 T10331133
14837KMSN MSN20060226225509902/26/06 22:55:31  5-MIN KMSN 270455Z 22006KT 10SM OVC075 M03/M13 A3015 660 46 -1400 220/06 RMK AO2
14837KMSN MSN20060226230009902/26/06 23:00:31  5-MIN KMSN 270500Z 22006KT 10SM OVC075 M03/M13 A3015 650 48 -1400 210/06 RMK AO2
14837KMSN MSN20060226230509902/26/06 23:05:31  5-MIN KMSN 270505Z 22006KT 10SM OVC075 M03/M13 A3015 650 48 -1400 220/06 RMK AO2
14837KMSN MSN20060226231009902/26/06 23:10:31  5-MIN KMSN 270510Z 22006KT 10SM OVC070 M03/M13 A3014 660 48 -1300 210/06 RMK AO2
14837KMSN MSN20060226231509902/26/06 23:15:31  5-MIN KMSN 270515Z 22005KT 10SM OVC070 M03/M13 A3014 660 48 -1300 220/05 RMK AO2
14837KMSN MSN20060226232009902/26/06 23:20:31  5-MIN KMSN 270520Z 22004KT 10SM OVC070 M03/M13 A3014 660 48 -1300 220/04 RMK AO2
14837KMSN MSN20060226232510602/26/06 23:25:31  5-MIN KMSN 270525Z 22004KT 10SM BKN070 OVC085 M04/M13 A3014 660 50 -1400 220/04 RMK AO2
14837KMSN MSN20060226233010602/26/06 23:30:31  5-MIN KMSN 270530Z 22004KT 10SM BKN070 OVC085 M04/M13 A3014 660 50 -1400 220/04 RMK AO2
14837KMSN MSN20060226233510602/26/06 23:35:31  5-MIN KMSN 270535Z 21004KT 10SM BKN065 OVC085 M03/M13 A3014 660 48 -1300 210/04 RMK AO2
14837KMSN MSN20060226234010602/26/06 23:40:31  5-MIN KMSN 270540Z 22004KT 10SM BKN065 OVC085 M04/M13 A3014 660 50 -1400 220/04 RMK AO2
14837KMSN MSN20060226234510602/26/06 23:45:31  5-MIN KMSN 270545Z 21004KT 10SM BKN065 OVC085 M04/M13 A3014 670 50 -1400 210/04 RMK AO2
14837KMSN MSN20060226235015702/26/06 23:50:31  5-MIN KMSN 270550Z 22003KT 10SM BKN065 OVC085 M04/M13 A3013 670 50 -1400 220/03 RMK AO2 SLP218 4/003 T10391128 11028 21039 410171183 58022
14837KMSN MSN20060226235510602/26/06 23:55:31  5-MIN KMSN 270555Z 22003KT 10SM BKN065 OVC085 M04/M13 A3013 670 50 -1400 220/03 RMK AO2
14837KMSN MSN20060227000010602/27/06 00:00:38  5-MIN KMSN 270600Z 00000KT 10SM BKN065 OVC085 M04/M13 A3013 670 50 -1400 000/00 RMK AO2
14837KMSN MSN20060227000510602/27/06 00:05:31  5-MIN KMSN 270605Z 00000KT 10SM BKN070 OVC085 M04/M12 A3013 670 52 -1400 000/00 RMK AO2
14837KMSN MSN20060227001010602/27/06 00:10:31  5-MIN KMSN 270610Z 00000KT 10SM BKN070 OVC085 M04/M12 A3013 670 52 -1400 000/00 RMK AO2
14837KMSN MSN20060227001510602/27/06 00:15:32  5-MIN KMSN 270615Z 00000KT 10SM BKN070 OVC085 M04/M12 A3013 670 55 -1500 000/00 RMK AO2
14837KMSN MSN20060227002010602/27/06 00:20:31  5-MIN KMSN 270620Z 00000KT 10SM BKN075 OVC090 M04/M12 A3013 680 57 -1500 000/00 RMK AO2
14837KMSN MSN20060227002510602/27/06 00:25:31  5-MIN KMSN 270625Z 00000KT 10SM BKN075 OVC090 M04/M12 A3012 680 52 -1400 000/00 RMK AO2
14837KMSN MSN20060227003009902/27/06 00:30:31  5-MIN KMSN 270630Z 00000KT 10SM OVC080 M04/M12 A3013 680 55 -1500 000/00 RMK AO2
14837KMSN MSN20060227003509902/27/06 00:35:31  5-MIN KMSN 270635Z 00000KT 10SM OVC075 M04/M12 A3012 680 57 -1500 000/00 RMK AO2
14837KMSN MSN20060227004009902/27/06 00:40:31  5-MIN KMSN 270640Z 00000KT 10SM OVC075 M05/M11 A3013 670 62 -1500 000/00 RMK AO2
14837KMSN MSN20060227004509902/27/06 00:45:31  5-MIN KMSN 270645Z 00000KT 10SM OVC075 M04/M11 A3013 680 60 -1500 000/00 RMK AO2
14837KMSN MSN20060227005011602/27/06 00:50:31  5-MIN KMSN 270650Z 00000KT 10SM OVC075 M05/M11 A3012 680 65 -1500 000/00 RMK AO2 SLP214 T10501106
14837KMSN MSN20060227005510602/27/06 00:55:31  5-MIN KMSN 270655Z 00000KT 10SM BKN075 OVC090 M05/M11 A3012 680 65 -1500 000/00 RMK AO2
14837KMSN MSN20060227010010602/27/06 01:00:31  5-MIN KMSN 270700Z 00000KT 10SM BKN080 OVC090 M05/M11 A3012 680 62 -1500 000/00 RMK AO2
14837KMSN MSN20060227010510602/27/06 01:05:31  5-MIN KMSN 270705Z 00000KT 10SM BKN080 OVC095 M05/M11 A3012 680 62 -1500 000/00 RMK AO2
14837KMSN MSN20060227011010602/27/06 01:10:31  5-MIN KMSN 270710Z 00000KT 10SM BKN085 OVC100 M05/M11 A3012 680 65 -1500 000/00 RMK AO2
14837KMSN MSN20060227011509902/27/06 01:15:31  5-MIN KMSN 270715Z 35003KT 10SM OVC090 M05/M11 A3012 680 65 -1500 350/03 RMK AO2
14837KMSN MSN20060227012009902/27/06 01:20:31  5-MIN KMSN 270720Z 35003KT 10SM OVC090 M05/M11 A3012 680 62 -1500 350/03 RMK AO2
14837KMSN MSN20060227012509902/27/06 01:25:31  5-MIN KMSN 270725Z 00000KT 10SM OVC090 M05/M11 A3011 690 62 -1500 000/00 RMK AO2
14837KMSN MSN20060227013009902/27/06 01:30:31  5-MIN KMSN 270730Z 36003KT 10SM OVC090 M06/M11 A3011 690 68 -1600 360/03 RMK AO2
14837KMSN MSN20060227013509902/27/06 01:35:31  5-MIN KMSN 270735Z 00000KT 10SM OVC090 M06/M11 A3011 690 68 -1700 000/00 RMK AO2
14837KMSN MSN20060227014010602/27/06 01:40:31  5-MIN KMSN 270740Z 01003KT 10SM SCT080 OVC095 M06/M11 A3011 690 65 -1600 010/03 RMK AO2
14837KMSN MSN20060227014510602/27/06 01:45:31  5-MIN KMSN 270745Z 00000KT 10SM BKN090 OVC110 M06/M12 A3011 690 62 -1600 000/00 RMK AO2
14837KMSN MSN20060227015012302/27/06 01:50:31  5-MIN KMSN 270750Z 00000KT 10SM BKN090 OVC110 M07/M11 A3011 690 71 -1700 000/00 RMK AO2 SLP210 T10671111
14837KMSN MSN20060227015510602/27/06 01:55:31  5-MIN KMSN 270755Z 05003KT 10SM BKN090 OVC110 M06/M11 A3011 690 68 -1700 050/03 RMK AO2
14837KMSN MSN20060227020010602/27/06 02:00:31  5-MIN KMSN 270800Z 04004KT 10SM BKN090 OVC110 M06/M11 A3011 690 68 -1700 040/04 RMK AO2
14837KMSN MSN20060227020510602/27/06 02:05:31  5-MIN KMSN 270805Z 03004KT 10SM BKN080 OVC100 M06/M11 A3011 690 68 -1700 030/04 RMK AO2
14837KMSN MSN20060227021010602/27/06 02:10:31  5-MIN KMSN 270810Z 00000KT 10SM BKN080 OVC100 M06/M11 A3011 690 68 -1700 000/00 RMK AO2
14837KMSN MSN20060227021509902/27/06 02:15:31  5-MIN KMSN 270815Z 35004KT 10SM OVC080 M06/M11 A3011 690 68 -1700 340/04 RMK AO2
14837KMSN MSN20060227022009902/27/06 02:20:31  5-MIN KMSN 270820Z 36005KT 10SM OVC080 M06/M11 A3011 690 68 -1600 360/05 RMK AO2
14837KMSN MSN20060227022509902/27/06 02:25:31  5-MIN KMSN 270825Z 01005KT 10SM BKN080 M06/M11 A3011 690 65 -1600 010/05 RMK AO2
14837KMSN MSN20060227023009902/27/06 02:30:31  5-MIN KMSN 270830Z 01005KT 10SM BKN085 M06/M11 A3010 700 65 -1600 010/05 RMK AO2
14837KMSN MSN20060227023510602/27/06 02:35:31  5-MIN KMSN 270835Z 01005KT 10SM BKN085 BKN100 M06/M11 A3010 700 65 -1600 010/05 RMK AO2
14837KMSN MSN20060227024010602/27/06 02:40:31  5-MIN KMSN 270840Z 01004KT 10SM BKN085 BKN100 M06/M11 A3010 700 65 -1600 010/04 RMK AO2
14837KMSN MSN20060227024510602/27/06 02:45:31  5-MIN KMSN 270845Z 00000KT 10SM BKN090 BKN100 M06/M11 A3010 700 65 -1600 000/00 RMK AO2
14837KMSN MSN20060227025012902/27/06 02:50:31  5-MIN KMSN 270850Z 00000KT 10SM BKN085 OVC100 M06/M11 A3010 700 65 -1600 000/00 RMK AO2 SLP204 T10561111 56017
14837KMSN MSN20060227025509902/27/06 02:55:31  5-MIN KMSN 270855Z 00000KT 10SM OVC085 M05/M11 A3009 700 62 -1500 000/00 RMK AO2
14837KMSN MSN20060227030009902/27/06 03:00:31  5-MIN KMSN 270900Z 00000KT 10SM OVC080 M05/M11 A3009 710 62 -1500 000/00 RMK AO2
14837KMSN MSN20060227030509902/27/06 03:05:31  5-MIN KMSN 270905Z 00000KT 10SM OVC085 M05/M11 A3009 710 62 -1500 000/00 RMK AO2
14837KMSN MSN20060227031009902/27/06 03:10:31  5-MIN KMSN 270910Z 00000KT 10SM OVC090 M05/M11 A3009 710 62 -1500 000/00 RMK AO2
14837KMSN MSN20060227031509902/27/06 03:15:31  5-MIN KMSN 270915Z 00000KT 10SM OVC090 M05/M12 A3009 710 60 -1500 000/00 RMK AO2
14837KMSN MSN20060227032009902/27/06 03:20:31  5-MIN KMSN 270920Z 00000KT 10SM OVC090 M04/M12 A3008 710 57 -1400 000/00 RMK AO2
14837KMSN MSN20060227032509902/27/06 03:25:31  5-MIN KMSN 270925Z 05003KT 10SM OVC090 M05/M11 A3008 720 62 -1500 050/03 RMK AO2
14837KMSN MSN20060227033009902/27/06 03:30:31  5-MIN KMSN 270930Z 04003KT 10SM OVC090 M05/M11 A3008 720 65 -1500 040/03 RMK AO2
14837KMSN MSN20060227033509902/27/06 03:35:31  5-MIN KMSN 270935Z 00000KT 10SM OVC090 M05/M11 A3008 720 65 -1500 000/00 RMK AO2
14837KMSN MSN20060227034009902/27/06 03:40:31  5-MIN KMSN 270940Z 03003KT 10SM OVC090 M05/M11 A3008 720 62 -1500 030/03 RMK AO2
14837KMSN MSN20060227034509902/27/06 03:45:31  5-MIN KMSN 270945Z 00000KT 10SM OVC090 M04/M12 A3008 720 57 -1400 000/00 RMK AO2
14837KMSN MSN20060227035011602/27/06 03:50:31  5-MIN KMSN 270950Z 00000KT 10SM OVC090 M05/M11 A3007 720 62 -1500 000/00 RMK AO2 SLP196 T10501111
14837KMSN MSN20060227035509902/27/06 03:55:31  5-MIN KMSN 270955Z 00000KT 10SM OVC090 M05/M11 A3007 720 62 -1500 000/00 RMK AO2
14837KMSN MSN20060227040009902/27/06 04:00:31  5-MIN KMSN 271000Z 00000KT 10SM OVC095 M05/M11 A3007 730 65 -1500 000/00 RMK AO2
14837KMSN MSN20060227040509902/27/06 04:05:31  5-MIN KMSN 271005Z 00000KT 10SM OVC095 M04/M11 A3007 730 62 -1400 000/00 RMK AO2
14837KMSN MSN20060227041009902/27/06 04:10:31  5-MIN KMSN 271010Z 06003KT 10SM OVC100 M05/M11 A3007 730 65 -1500 060/03 RMK AO2
14837KMSN MSN20060227041509902/27/06 04:15:31  5-MIN KMSN 271015Z 05003KT 10SM OVC100 M05/M10 A3006 730 68 -1500 050/03 RMK AO2
14837KMSN MSN20060227042009902/27/06 04:20:31  5-MIN KMSN 271020Z 06004KT 10SM OVC100 M05/M10 A3006 740 68 -1500 050/04 RMK AO2
14837KMSN MSN20060227042509902/27/06 04:25:31  5-MIN KMSN 271025Z 05004KT 10SM OVC100 M05/M10 A3006 740 68 -1500 050/04 RMK AO2
14837KMSN MSN20060227043009902/27/06 04:30:31  5-MIN KMSN 271030Z 05003KT 10SM OVC100 M05/M10 A3006 740 68 -1500 050/03 RMK AO2
14837KMSN MSN20060227043509902/27/06 04:35:31  5-MIN KMSN 271035Z 05003KT 10SM OVC100 M05/M10 A3006 740 68 -1500 050/03 RMK AO2
14837KMSN MSN20060227044009902/27/06 04:40:31  5-MIN KMSN 271040Z 05005KT 10SM OVC100 M04/M09 A3006 740 71 -1400 050/05 RMK AO2
14837KMSN MSN20060227044509902/27/06 04:45:31  5-MIN KMSN 271045Z 05005KT 10SM OVC100 M04/M08 A3006 740 74 -1400 050/05 RMK AO2
14837KMSN MSN20060227045011602/27/06 04:50:31  5-MIN KMSN 271050Z 05007KT 10SM OVC100 M04/M08 A3005 740 78 -1400 050/07 RMK AO2 SLP189 T10441078
14837KMSN MSN20060227045509902/27/06 04:55:31  5-MIN KMSN 271055Z 05007KT 10SM OVC100 M04/M07 A3005 740 81 -1400 050/07 RMK AO2
14837KMSN MSN20060227050009902/27/06 05:00:31  5-MIN KMSN 271100Z 05008KT 10SM OVC100 M04/M07 A3005 740 81 -1400 050/08 RMK AO2
14837KMSN MSN20060227050509902/27/06 05:05:31  5-MIN KMSN 271105Z 05008KT 10SM OVC100 M04/M07 A3005 740 81 -1400 050/08 RMK AO2
14837KMSN MSN20060227051009902/27/06 05:10:31  5-MIN KMSN 271110Z 05009KT 10SM OVC100 M04/M07 A3005 740 81 -1400 050/09 RMK AO2
14837KMSN MSN20060227051509902/27/06 05:15:31  5-MIN KMSN 271115Z 05009KT 10SM OVC100 M04/M07 A3005 740 81 -1400 050/09 RMK AO2
14837KMSN MSN20060227052009902/27/06 05:20:31  5-MIN KMSN 271120Z 05010KT 10SM OVC100 M04/M07 A3005 740 81 -1400 050/10 RMK AO2
14837KMSN MSN20060227052509902/27/06 05:25:31  5-MIN KMSN 271125Z 05009KT 10SM OVC100 M04/M07 A3006 740 81 -1400 050/09 RMK AO2
14837KMSN MSN20060227053009902/27/06 05:30:31  5-MIN KMSN 271130Z 05009KT 10SM OVC100 M05/M07 A3006 740 84 -1500 050/09 RMK AO2
14837KMSN MSN20060227053509902/27/06 05:35:31  5-MIN KMSN 271135Z 05007KT 10SM OVC100 M05/M07 A3006 740 84 -1500 050/07 RMK AO2
14837KMSN MSN20060227054009902/27/06 05:40:31  5-MIN KMSN 271140Z 05008KT 10SM OVC100 M04/M07 A3006 730 81 -1400 050/08 RMK AO2
14837KMSN MSN20060227054509902/27/06 05:45:31  5-MIN KMSN 271145Z 05009KT 10SM OVC100 M05/M07 A3006 730 84 -1500 050/09 RMK AO2
14837KMSN MSN20060227055014002/27/06 05:50:31  5-MIN KMSN 271150Z 06009KT 10SM OVC100 M05/M07 A3006 740 84 -1500 060/09 RMK AO2 SLP192 4/003 T10501072 11039 21067 58013
14837KMSN MSN20060227055509902/27/06 05:55:31  5-MIN KMSN 271155Z 06011KT 10SM OVC100 M04/M07 A3006 730 81 -1400 060/11 RMK AO2
14837KMSN MSN20060227060009902/27/06 06:00:31  5-MIN KMSN 271200Z 06009KT 10SM OVC100 M04/M07 A3006 730 81 -1400 060/09 RMK AO2
14837KMSN MSN20060227060509902/27/06 06:05:31  5-MIN KMSN 271205Z 06009KT 10SM OVC100 M04/M07 A3006 730 81 -1400 060/09 RMK AO2
14837KMSN MSN20060227061009902/27/06 06:10:31  5-MIN KMSN 271210Z 06010KT 10SM OVC100 M04/M07 A3007 730 81 -1400 060/10 RMK AO2
14837KMSN MSN20060227061509902/27/06 06:15:31  5-MIN KMSN 271215Z 06009KT 10SM OVC100 M05/M07 A3007 730 84 -1500 060/09 RMK AO2
14837KMSN MSN20060227062009902/27/06 06:20:31  5-MIN KMSN 271220Z 06011KT 10SM OVC100 M05/M07 A3007 720 84 -1500 060/11 RMK AO2
14837KMSN MSN20060227062509902/27/06 06:25:31  5-MIN KMSN 271225Z 06013KT 10SM OVC100 M05/M07 A3007 720 84 -1500 060/13 RMK AO2
14837KMSN MSN20060227063009902/27/06 06:30:31  5-MIN KMSN 271230Z 06010KT 10SM OVC100 M05/M07 A3007 730 84 -1500 060/10 RMK AO2
14837KMSN MSN20060227063509902/27/06 06:35:31  5-MIN KMSN 271235Z 06013KT 10SM OVC100 M05/M08 A3007 730 81 -1500 060/13 RMK AO2
14837KMSN MSN20060227064009902/27/06 06:40:31  5-MIN KMSN 271240Z 07011KT 10SM OVC100 M05/M08 A3007 730 81 -1500 070/11 RMK AO2
14837KMSN MSN20060227064509902/27/06 06:45:31  5-MIN KMSN 271245Z 07011KT 10SM OVC100 M05/M08 A3007 730 81 -1500 070/11 RMK AO2
14837KMSN MSN20060227065011602/27/06 06:50:31  5-MIN KMSN 271250Z 06012KT 10SM OVC100 M05/M08 A3006 730 81 -1500 060/12 RMK AO2 SLP193 T10501078
14837KMSN MSN20060227065510602/27/06 06:55:31  5-MIN KMSN 271255Z 06011KT 10SM FEW080 OVC100 M05/M08 A3006 730 81 -1500 060/11 RMK AO2
14837KMSN MSN20060227070009802/27/06 07:00:31  5-MIN KMSN 271300Z 07009KT 9SM OVC095 M05/M08 A3006 740 81 -1500 070/09 RMK AO2
14837KMSN MSN20060227070509802/27/06 07:05:31  5-MIN KMSN 271305Z 06011KT 9SM OVC095 M06/M08 A3006 740 84 -1500 060/11 RMK AO2
14837KMSN MSN20060227071009802/27/06 07:10:31  5-MIN KMSN 271310Z 06011KT 9SM OVC095 M06/M08 A3006 740 84 -1500 060/11 RMK AO2
14837KMSN MSN20060227071509802/27/06 07:15:31  5-MIN KMSN 271315Z 06013KT 9SM OVC095 M06/M08 A3006 740 84 -1500 060/13 RMK AO2
14837KMSN MSN20060227072009802/27/06 07:20:31  5-MIN KMSN 271320Z 05011KT 9SM OVC095 M06/M08 A3006 730 84 -1500 050/11 RMK AO2
14837KMSN MSN20060227072509802/27/06 07:25:31  5-MIN KMSN 271325Z 07013KT 9SM OVC100 M06/M08 A3006 730 84 -1500 070/13 RMK AO2
14837KMSN MSN20060227073009802/27/06 07:30:31  5-MIN KMSN 271330Z 06013KT 9SM OVC100 M06/M08 A3006 730 84 -1500 060/13 RMK AO2
14837KMSN MSN20060227073509802/27/06 07:35:31  5-MIN KMSN 271335Z 06012KT 9SM BKN095 M06/M08 A3006 730 84 -1500 060/12 RMK AO2
14837KMSN MSN20060227074009802/27/06 07:40:31  5-MIN KMSN 271340Z 07012KT 9SM BKN095 M06/M08 A3007 730 84 -1500 070/12 RMK AO2
14837KMSN MSN20060227074510502/27/06 07:45:31  5-MIN KMSN 271345Z 07012KT 9SM FEW012 BKN095 M06/M08 A3007 730 84 -1500 070/12 RMK AO2
14837KMSN MSN20060227075012902/27/06 07:50:31  5-MIN KMSN 271350Z 07010KT 9SM FEW070 SCT090 BKN110 M06/M08 A3006 730 84 -1500 070/10 RMK AO2 SLP194 T10561078
14837KMSN MSN20060227075510502/27/06 07:55:31  5-MIN KMSN 271355Z 07013KT 9SM SCT080 BKN095 M05/M08 A3007 730 81 -1500 070/13 RMK AO2
14837KMSN MSN20060227080009802/27/06 08:00:31  5-MIN KMSN 271400Z 06013KT 9SM BKN080 M05/M08 A3007 730 81 -1500 060/13 RMK AO2
14837KMSN MSN20060227080509802/27/06 08:05:31  5-MIN KMSN 271405Z 07012KT 9SM BKN080 M05/M08 A3007 730 81 -1500 070/12 RMK AO2
14837KMSN MSN20060227081009802/27/06 08:10:31  5-MIN KMSN 271410Z 07011KT 9SM BKN080 M05/M08 A3007 730 81 -1500 070/11 RMK AO2
14837KMSN MSN20060227081509902/27/06 08:15:31  5-MIN KMSN 271415Z 07011KT 10SM BKN080 M05/M08 A3007 730 81 -1500 070/11 RMK AO2
14837KMSN MSN20060227082009902/27/06 08:20:31  5-MIN KMSN 271420Z 07014KT 10SM BKN080 M05/M08 A3007 730 77 -1500 070/14 RMK AO2
14837KMSN MSN20060227082510602/27/06 08:25:31  5-MIN KMSN 271425Z 06013KT 10SM BKN070 OVC085 M05/M08 A3006 730 77 -1500 060/13 RMK AO2
14837KMSN MSN20060227083010602/27/06 08:30:31  5-MIN KMSN 271430Z 06012KT 10SM BKN070 OVC085 M05/M08 A3006 740 81 -1500 060/12 RMK AO2
14837KMSN MSN20060227083510602/27/06 08:35:31  5-MIN KMSN 271435Z 06012KT 10SM BKN075 OVC095 M05/M08 A3006 740 81 -1500 060/12 RMK AO2
14837KMSN MSN20060227084010602/27/06 08:40:31  5-MIN KMSN 271440Z 06011KT 10SM BKN080 OVC095 M05/M08 A3006 730 81 -1500 060/11 RMK AO2
14837KMSN MSN20060227084510602/27/06 08:45:31  5-MIN KMSN 271445Z 07011KT 10SM FEW070 OVC090 M05/M08 A3006 730 81 -1500 070/11 RMK AO2
14837KMSN MSN20060227085012902/27/06 08:50:31  5-MIN KMSN 271450Z 07012KT 10SM FEW070 OVC090 M05/M08 A3006 730 81 -1500 070/12 RMK AO2 SLP194 T10501078 55010
14837KMSN MSN20060227085510602/27/06 08:55:31  5-MIN KMSN 271455Z 07014KT 10SM FEW070 BKN095 M05/M08 A3006 730 81 -1500 070/14 RMK AO2
14837KMSN MSN20060227090010602/27/06 09:00:31  5-MIN KMSN 271500Z 07011KT 10SM FEW080 OVC095 M04/M08 A3006 740 74 -1400 070/11 RMK AO2
14837KMSN MSN20060227090509902/27/06 09:05:31  5-MIN KMSN 271505Z 08013KT 10SM OVC095 M04/M08 A3006 740 78 -1400 080/13 RMK AO2
14837KMSN MSN20060227091009902/27/06 09:10:31  5-MIN KMSN 271510Z 07012KT 10SM BKN095 M04/M08 A3006 740 78 -1400 070/12 RMK AO2
14837KMSN MSN20060227091509902/27/06 09:15:31  5-MIN KMSN 271515Z 07011KT 10SM BKN095 M04/M08 A3005 740 78 -1400 070/11 RMK AO2
14837KMSN MSN20060227092009902/27/06 09:20:31  5-MIN KMSN 271520Z 09012KT 10SM BKN090 M04/M08 A3005 740 78 -1400 090/12 RMK AO2
14837KMSN MSN20060227092509902/27/06 09:25:31  5-MIN KMSN 271525Z 08011KT 10SM BKN095 M04/M08 A3005 740 78 -1400 080/11 RMK AO2
14837KMSN MSN20060227093009902/27/06 09:30:31  5-MIN KMSN 271530Z 07012KT 10SM BKN090 M04/M08 A3005 740 78 -1400 070/12 RMK AO2
14837KMSN MSN20060227093509902/27/06 09:35:31  5-MIN KMSN 271535Z 07013KT 10SM BKN095 M04/M08 A3005 740 74 -1300 070/13 RMK AO2
14837KMSN MSN20060227094009902/27/06 09:40:31  5-MIN KMSN 271540Z 08013KT 10SM BKN100 M04/M08 A3005 740 74 -1300 080/13 RMK AO2
14837KMSN MSN20060227094509902/27/06 09:45:31  5-MIN KMSN 271545Z 08012KT 10SM BKN095 M04/M08 A3005 750 74 -1300 080/12 RMK AO2
14837KMSN MSN20060227095011602/27/06 09:50:31  5-MIN KMSN 271550Z 07012KT 10SM BKN095 M04/M08 A3005 750 74 -1300 070/12 RMK AO2 SLP187 T10391078
14837KMSN MSN20060227095509902/27/06 09:55:31  5-MIN KMSN 271555Z 08013KT 10SM BKN095 M04/M08 A3004 750 74 -1300 080/13 RMK AO2
14837KMSN MSN20060227100009902/27/06 10:00:31  5-MIN KMSN 271600Z 07013KT 10SM BKN095 M04/M08 A3004 750 74 -1300 070/13 RMK AO2
14837KMSN MSN20060227100509902/27/06 10:05:31  5-MIN KMSN 271605Z 07012KT 10SM BKN095 M04/M08 A3004 750 74 -1300 070/12 RMK AO2
14837KMSN MSN20060227101009902/27/06 10:10:31  5-MIN KMSN 271610Z 07011KT 10SM BKN095 M04/M08 A3004 750 74 -1300 070/11 RMK AO2
14837KMSN MSN20060227101509902/27/06 10:15:31  5-MIN KMSN 271615Z 07012KT 10SM FEW100 M04/M08 A3004 750 74 -1300 070/12 RMK AO2
14837KMSN MSN20060227102009902/27/06 10:20:31  5-MIN KMSN 271620Z 08011KT 10SM FEW110 M04/M08 A3004 750 74 -1300 080/11 RMK AO2
14837KMSN MSN20060227102509602/27/06 10:25:31  5-MIN KMSN 271625Z 07012KT 10SM CLR M04/M08 A3004 750 74 -1300 070/12 RMK AO2
14837KMSN MSN20060227103009602/27/06 10:30:31  5-MIN KMSN 271630Z 07014KT 10SM CLR M04/M08 A3004 760 74 -1300 070/14 RMK AO2
14837KMSN MSN20060227103509602/27/06 10:35:31  5-MIN KMSN 271635Z 05013KT 10SM CLR M03/M08 A3005 750 71 -1200 050/13 RMK AO2
14837KMSN MSN20060227104009602/27/06 10:40:31  5-MIN KMSN 271640Z 07013KT 10SM CLR M03/M08 A3005 750 71 -1200 070/13 RMK AO2
14837KMSN MSN20060227104509602/27/06 10:45:31  5-MIN KMSN 271645Z 08011KT 10SM CLR M03/M08 A3004 750 71 -1200 070/11 RMK AO2
14837KMSN MSN20060227105011302/27/06 10:50:31  5-MIN KMSN 271650Z 07013KT 10SM CLR M03/M08 A3004 750 71 -1200 070/13 RMK AO2 SLP185 T10331078
14837KMSN MSN20060227105509602/27/06 10:55:31  5-MIN KMSN 271655Z 07010KT 10SM CLR M03/M08 A3004 760 71 -1200 070/10 RMK AO2
14837KMSN MSN20060227110009602/27/06 11:00:31  5-MIN KMSN 271700Z 07011KT 10SM CLR M03/M07 A3003 760 74 -1200 070/11 RMK AO2
14837KMSN MSN20060227110509602/27/06 11:05:31  5-MIN KMSN 271705Z 08013KT 10SM CLR M03/M08 A3003 760 71 -1200 080/13 RMK AO2
14837KMSN MSN20060227111009602/27/06 11:10:31  5-MIN KMSN 271710Z 09012KT 10SM CLR M03/M08 A3003 760 71 -1200 080/12 RMK AO2
14837KMSN MSN20060227111509602/27/06 11:15:31  5-MIN KMSN 271715Z 07013KT 10SM CLR M03/M08 A3003 760 68 -1100 070/13 RMK AO2
14837KMSN MSN20060227112009602/27/06 11:20:31  5-MIN KMSN 271720Z 07013KT 10SM CLR M03/M08 A3003 760 71 -1200 070/13 RMK AO2
14837KMSN MSN20060227112509602/27/06 11:25:31  5-MIN KMSN 271725Z 07014KT 10SM CLR M03/M08 A3003 770 71 -1200 070/14 RMK AO2
14837KMSN MSN20060227113009602/27/06 11:30:31  5-MIN KMSN 271730Z 07013KT 10SM CLR M03/M08 A3003 770 68 -1100 070/13 RMK AO2
14837KMSN MSN20060227113509602/27/06 11:35:31  5-MIN KMSN 271735Z 08012KT 10SM CLR M03/M08 A3003 770 68 -1100 080/12 RMK AO2
14837KMSN MSN20060227114009602/27/06 11:40:31  5-MIN KMSN 271740Z 08013KT 10SM CLR M03/M07 A3003 760 71 -1100 070/13 RMK AO2
14837KMSN MSN20060227114510902/27/06 11:45:31  5-MIN KMSN 271745Z 07013KT 10SM CLR M03/M07 A3003 760 71 -1100 070/13 RMK AO2 4/003 933007
14837KMSN MSN20060227115015402/27/06 11:50:31  5-MIN KMSN 271750Z 07012KT 10SM FEW024 SCT110 M03/M08 A3003 760 68 -1100 070/12 RMK AO2 SLP183 4/003 933007 T10281078 11028 21056 54000
14837KMSN MSN20060227115509902/27/06 11:55:31  5-MIN KMSN 271755Z 06012KT 10SM FEW100 M03/M07 A3003 760 71 -1100 060/12 RMK AO2
14837KMSN MSN20060227120009902/27/06 12:00:31  5-MIN KMSN 271800Z 05013KT 10SM FEW100 M03/M07 A3004 760 71 -1200 050/13 RMK AO2
14837KMSN MSN20060227120509902/27/06 12:05:31  5-MIN KMSN 271805Z 04013KT 10SM FEW100 M03/M07 A3003 760 71 -1100 040/13 RMK AO2
14837KMSN MSN20060227121009902/27/06 12:10:31  5-MIN KMSN 271810Z 07013KT 10SM SCT100 M03/M08 A3003 760 68 -1100 070/13 RMK AO2
14837KMSN MSN20060227121509902/27/06 12:15:31  5-MIN KMSN 271815Z 04016KT 10SM SCT100 M03/M07 A3003 760 71 -1100 040/16 RMK AO2
14837KMSN MSN20060227122009902/27/06 12:20:31  5-MIN KMSN 271820Z 04014KT 10SM FEW100 M03/M08 A3003 760 68 -1100 040/14 RMK AO2
14837KMSN MSN20060227122509902/27/06 12:25:31  5-MIN KMSN 271825Z 06014KT 10SM SCT095 M03/M07 A3003 760 71 -1100 060/14 RMK AO2
14837KMSN MSN20060227123009902/27/06 12:30:31  5-MIN KMSN 271830Z 04014KT 10SM SCT095 M03/M08 A3003 760 68 -1100 040/14 RMK AO2
14837KMSN MSN20060227123510602/27/06 12:35:31  5-MIN KMSN 271835Z 04014KT 10SM FEW090 SCT100 M03/M07 A3003 770 71 -1100 040/14 RMK AO2
14837KMSN MSN20060227124009902/27/06 12:40:31  5-MIN KMSN 271840Z 05013KT 10SM SCT090 M03/M08 A3002 770 68 -1100 050/13 RMK AO2
14837KMSN MSN20060227124509902/27/06 12:45:31  5-MIN KMSN 271845Z 05013KT 10SM FEW090 M03/M08 A3002 770 71 -1200 040/13 RMK AO2
14837KMSN MSN20060227125012302/27/06 12:50:31  5-MIN KMSN 271850Z 05013KT 10SM FEW025 SCT090 M03/M08 A3002 770 68 -1100 040/13 RMK AO2 SLP178 T10281078
14837KMSN MSN20060227125509902/27/06 12:55:31  5-MIN KMSN 271855Z 07011KT 10SM FEW085 M03/M08 A3002 770 68 -1100 060/11 RMK AO2
14837KMSN MSN20060227130009902/27/06 13:00:31  5-MIN KMSN 271900Z 05012KT 10SM FEW020 M03/M07 A3002 770 71 -1100 050/12 RMK AO2
14837KMSN MSN20060227130509902/27/06 13:05:31  5-MIN KMSN 271905Z 06013KT 10SM FEW020 M03/M08 A3002 780 68 -1100 060/13 RMK AO2
14837KMSN MSN20060227131009602/27/06 13:10:31  5-MIN KMSN 271910Z 07011KT 10SM CLR M03/M08 A3002 780 71 -1200 070/11 RMK AO2
14837KMSN MSN20060227131509602/27/06 13:15:31  5-MIN KMSN 271915Z 06010KT 10SM CLR M03/M07 A3002 780 71 -1100 060/10 RMK AO2
14837KMSN MSN20060227132009602/27/06 13:20:31  5-MIN KMSN 271920Z 06009KT 10SM CLR M03/M07 A3001 780 71 -1100 060/09 RMK AO2
14837KMSN MSN20060227132509602/27/06 13:25:31  5-MIN KMSN 271925Z 07009KT 10SM CLR M03/M08 A3001 780 68 -1100 060/09 RMK AO2
14837KMSN MSN20060227133009602/27/06 13:30:31  5-MIN KMSN 271930Z 06010KT 10SM CLR M02/M07 A3001 780 69 -1100 060/10 RMK AO2
14837KMSN MSN20060227133509602/27/06 13:35:31  5-MIN KMSN 271935Z 07011KT 10SM CLR M03/M07 A3001 780 71 -1100 070/11 RMK AO2
14837KMSN MSN20060227134009602/27/06 13:40:31  5-MIN KMSN 271940Z 06011KT 10SM CLR M02/M07 A3001 780 69 -1100 060/11 RMK AO2
14837KMSN MSN20060227134509602/27/06 13:45:31  5-MIN KMSN 271945Z 05010KT 10SM CLR M02/M07 A3001 780 69 -1100 050/10 RMK AO2
14837KMSN MSN20060227135012302/27/06 13:50:31  5-MIN KMSN 271950Z 06010KT 10SM FEW025 SCT120 M02/M07 A3002 770 69 -1100 060/10 RMK AO2 SLP178 T10221072
14837KMSN MSN20060227135510602/27/06 13:55:31  5-MIN KMSN 271955Z 04012KT 10SM FEW021 SCT110 M02/M07 A3002 770 69 -1100 040/12 RMK AO2
14837KMSN MSN20060227140009902/27/06 14:00:31  5-MIN KMSN 272000Z 05011KT 10SM FEW021 M02/M07 A3002 780 69 -1100 050/11 RMK AO2
14837KMSN MSN20060227140509902/27/06 14:05:31  5-MIN KMSN 272005Z 05013KT 10SM FEW110 M02/M08 A3001 780 66 -1100 050/13 RMK AO2
14837KMSN MSN20060227141009902/27/06 14:10:31  5-MIN KMSN 272010Z 04012KT 10SM FEW110 M02/M07 A3002 770 69 -1100 040/12 RMK AO2
14837KMSN MSN20060227141509902/27/06 14:15:31  5-MIN KMSN 272015Z 04013KT 10SM FEW022 M02/M08 A3002 770 66 -1100 040/13 RMK AO2
14837KMSN MSN20060227142009902/27/06 14:20:31  5-MIN KMSN 272020Z 03013KT 10SM FEW022 M02/M08 A3002 770 66 -1100 030/13 RMK AO2
14837KMSN MSN20060227142509902/27/06 14:25:31  5-MIN KMSN 272025Z 04013KT 10SM SCT022 M02/M07 A3002 770 69 -1100 040/13 RMK AO2
14837KMSN MSN20060227143009902/27/06 14:30:31  5-MIN KMSN 272030Z 05014KT 10SM SCT022 M02/M08 A3001 780 66 -1100 050/14 RMK AO2
14837KMSN MSN20060227143509902/27/06 14:35:31  5-MIN KMSN 272035Z 06010KT 10SM SCT022 M02/M08 A3002 780 66 -1100 060/10 RMK AO2
14837KMSN MSN20060227144009902/27/06 14:40:31  5-MIN KMSN 272040Z 07012KT 10SM SCT022 M02/M08 A3001 780 66 -1100 070/12 RMK AO2
14837KMSN MSN20060227144509902/27/06 14:45:31  5-MIN KMSN 272045Z 07012KT 10SM FEW022 M02/M08 A3001 780 66 -1100 070/12 RMK AO2
14837KMSN MSN20060227145011902/27/06 14:50:31  5-MIN KMSN 272050Z 07009KT 10SM CLR M02/M08 A3001 780 66 -1100 060/09 RMK AO2 SLP175 T10221078 56009
14837KMSN MSN20060227145509602/27/06 14:55:31  5-MIN KMSN 272055Z 07010KT 10SM CLR M02/M08 A3001 780 66 -1000 070/10 RMK AO2
14837KMSN MSN20060227150009602/27/06 15:00:31  5-MIN KMSN 272100Z 04010KT 10SM CLR M02/M07 A3001 780 69 -1100 040/10 RMK AO2
14837KMSN MSN20060227150509602/27/06 15:05:31  5-MIN KMSN 272105Z 07008KT 10SM CLR M02/M08 A3001 780 66 -1100 070/08 RMK AO2
14837KMSN MSN20060227151009902/27/06 15:10:31  5-MIN KMSN 272110Z 04011KT 10SM SCT023 M02/M08 A3002 780 66 -1100 040/11 RMK AO2
14837KMSN MSN20060227151509902/27/06 15:15:31  5-MIN KMSN 272115Z 04012KT 10SM SCT023 M02/M08 A3002 770 66 -1100 040/12 RMK AO2
14837KMSN MSN20060227152009902/27/06 15:20:31  5-MIN KMSN 272120Z 05010KT 10SM SCT023 M02/M08 A3002 770 66 -1100 040/10 RMK AO2
14837KMSN MSN20060227152509902/27/06 15:25:31  5-MIN KMSN 272125Z 05010KT 10SM SCT023 M02/M08 A3002 770 66 -1100 050/10 RMK AO2
14837KMSN MSN20060227153009902/27/06 15:30:31  5-MIN KMSN 272130Z 04011KT 10SM SCT023 M03/M08 A3002 770 66 -1100 040/11 RMK AO2
14837KMSN MSN20060227153509902/27/06 15:35:31  5-MIN KMSN 272135Z 05011KT 10SM SCT023 M03/M08 A3002 770 68 -1100 050/11 RMK AO2
14837KMSN MSN20060227154009902/27/06 15:40:31  5-MIN KMSN 272140Z 04011KT 10SM SCT023 M02/M08 A3002 770 66 -1100 040/11 RMK AO2
14837KMSN MSN20060227154509902/27/06 15:45:31  5-MIN KMSN 272145Z 05012KT 10SM SCT023 M02/M08 A3002 770 63 -1100 050/12 RMK AO2
14837KMSN MSN20060227155011602/27/06 15:50:31  5-MIN KMSN 272150Z 04011KT 10SM SCT023 M02/M08 A3002 770 63 -1100 040/11 RMK AO2 SLP179 T10221083
14837KMSN MSN20060227155509902/27/06 15:55:31  5-MIN KMSN 272155Z 06012KT 10SM FEW023 M03/M08 A3002 770 66 -1100 050/12 RMK AO2
14837KMSN MSN20060227160009902/27/06 16:00:31  5-MIN KMSN 272200Z 04012KT 10SM FEW023 M03/M08 A3003 770 66 -1100 040/12 RMK AO2
14837KMSN MSN20060227160509602/27/06 16:05:31  5-MIN KMSN 272205Z 05013KT 10SM CLR M03/M08 A3003 760 66 -1100 050/13 RMK AO2
14837KMSN MSN20060227161009602/27/06 16:10:31  5-MIN KMSN 272210Z 04012KT 10SM CLR M03/M09 A3004 760 63 -1200 040/12 RMK AO2
14837KMSN MSN20060227161509602/27/06 16:15:31  5-MIN KMSN 272215Z 05012KT 10SM CLR M03/M09 A3003 760 63 -1100 050/12 RMK AO2
14837KMSN MSN20060227162009602/27/06 16:20:31  5-MIN KMSN 272220Z 05012KT 10SM CLR M03/M09 A3004 760 63 -1200 040/12 RMK AO2
14837KMSN MSN20060227162509602/27/06 16:25:31  5-MIN KMSN 272225Z 04013KT 10SM CLR M03/M09 A3004 760 60 -1200 040/13 RMK AO2
14837KMSN MSN20060227163009602/27/06 16:30:31  5-MIN KMSN 272230Z 04013KT 10SM CLR M03/M10 A3004 750 60 -1200 040/13 RMK AO2
14837KMSN MSN20060227163509602/27/06 16:35:31  5-MIN KMSN 272235Z 05012KT 10SM CLR M03/M10 A3004 750 60 -1200 050/12 RMK AO2
14837KMSN MSN20060227164009602/27/06 16:40:31  5-MIN KMSN 272240Z 05012KT 10SM CLR M03/M10 A3004 750 60 -1200 050/12 RMK AO2
14837KMSN MSN20060227164509602/27/06 16:45:31  5-MIN KMSN 272245Z 05012KT 10SM CLR M03/M11 A3004 750 57 -1200 050/12 RMK AO2
14837KMSN MSN20060227165011302/27/06 16:50:31  5-MIN KMSN 272250Z 05011KT 10SM CLR M04/M11 A3005 740 57 -1300 050/11 RMK AO2 SLP188 T10391111
14837KMSN MSN20060227180509602/27/06 18:05:31  5-MIN KMSN 280005Z 03007KT 10SM CLR M06/M12 A3006 730 59 -1500 030/07 RMK AO2
14837KMSN MSN20060227181009602/27/06 18:10:31  5-MIN KMSN 280010Z 03007KT 10SM CLR M06/M12 A3006 730 59 -1500 030/07 RMK AO2
14837KMSN MSN20060227181509602/27/06 18:15:31  5-MIN KMSN 280015Z 03007KT 10SM CLR M06/M12 A3006 730 59 -1500 030/07 RMK AO2
14837KMSN MSN20060227182009602/27/06 18:20:31  5-MIN KMSN 280020Z 03006KT 10SM CLR M06/M12 A3007 730 59 -1500 030/06 RMK AO2
14837KMSN MSN20060227182509602/27/06 18:25:31  5-MIN KMSN 280025Z 03006KT 10SM CLR M06/M12 A3007 730 62 -1600 030/06 RMK AO2
14837KMSN MSN20060227183009602/27/06 18:30:31  5-MIN KMSN 280030Z 04006KT 10SM CLR M06/M12 A3007 730 62 -1600 040/06 RMK AO2
14837KMSN MSN20060227183509602/27/06 18:35:31  5-MIN KMSN 280035Z 03004KT 10SM CLR M06/M12 A3007 720 62 -1600 030/04 RMK AO2
14837KMSN MSN20060227184009602/27/06 18:40:31  5-MIN KMSN 280040Z 36003KT 10SM CLR M07/M12 A3008 720 68 -1700 360/03 RMK AO2
14837KMSN MSN20060227184509602/27/06 18:45:31  5-MIN KMSN 280045Z 36004KT 10SM CLR M07/M12 A3008 720 68 -1700 360/04 RMK AO2
14837KMSN MSN20060227185011302/27/06 18:50:31  5-MIN KMSN 280050Z 01005KT 10SM CLR M07/M12 A3008 710 65 -1700 360/05 RMK AO2 SLP201 T10671122
14837KMSN MSN20060227185509602/27/06 18:55:31  5-MIN KMSN 280055Z 02006KT 10SM CLR M07/M12 A3009 710 68 -1800 010/06 RMK AO2
14837KMSN MSN20060227190009602/27/06 19:00:31  5-MIN KMSN 280100Z 01005KT 10SM CLR M07/M12 A3009 710 65 -1700 010/05 RMK AO2
14837KMSN MSN20060227190509602/27/06 19:05:31  5-MIN KMSN 280105Z 03005KT 10SM CLR M07/M12 A3009 710 68 -1800 020/05 RMK AO2
14837KMSN MSN20060227191009602/27/06 19:10:31  5-MIN KMSN 280110Z 03006KT 10SM CLR M07/M13 A3009 710 65 -1800 030/06 RMK AO2
14837KMSN MSN20060227191509602/27/06 19:15:31  5-MIN KMSN 280115Z 03007KT 10SM CLR M07/M13 A3009 710 65 -1800 030/07 RMK AO2
14837KMSN MSN20060227192009602/27/06 19:20:31  5-MIN KMSN 280120Z 03007KT 10SM CLR M07/M13 A3010 700 62 -1700 030/07 RMK AO2
14837KMSN MSN20060227192509602/27/06 19:25:31  5-MIN KMSN 280125Z 03008KT 10SM CLR M07/M13 A3010 700 62 -1700 030/08 RMK AO2
14837KMSN MSN20060227193009602/27/06 19:30:31  5-MIN KMSN 280130Z 03009KT 10SM CLR M07/M13 A3010 700 62 -1700 030/09 RMK AO2
14837KMSN MSN20060227193509602/27/06 19:35:31  5-MIN KMSN 280135Z 04008KT 10SM CLR M07/M13 A3010 700 62 -1700 040/08 RMK AO2
14837KMSN MSN20060227194009602/27/06 19:40:31  5-MIN KMSN 280140Z 03007KT 10SM CLR M07/M13 A3009 700 65 -1800 030/07 RMK AO2
14837KMSN MSN20060227194509602/27/06 19:45:31  5-MIN KMSN 280145Z 04007KT 10SM CLR M07/M13 A3010 700 65 -1800 040/07 RMK AO2
14837KMSN MSN20060227195011302/27/06 19:50:31  5-MIN KMSN 280150Z 04006KT 10SM CLR M07/M13 A3010 700 65 -1800 040/06 RMK AO2 SLP206 T10721128
14837KMSN MSN20060227195509602/27/06 19:55:31  5-MIN KMSN 280155Z 04006KT 10SM CLR M08/M13 A3010 700 67 -1900 040/06 RMK AO2
14837KMSN MSN20060227200009602/27/06 20:00:31  5-MIN KMSN 280200Z 04006KT 10SM CLR M08/M13 A3010 700 67 -1900 040/06 RMK AO2
14837KMSN MSN20060227200509602/27/06 20:05:31  5-MIN KMSN 280205Z 04006KT 10SM CLR M08/M13 A3010 700 64 -1900 040/06 RMK AO2
14837KMSN MSN20060227201009602/27/06 20:10:31  5-MIN KMSN 280210Z 05007KT 10SM CLR M08/M13 A3009 700 67 -1900 050/07 RMK AO2
14837KMSN MSN20060227201509602/27/06 20:15:31  5-MIN KMSN 280215Z 05006KT 10SM CLR M08/M13 A3009 700 67 -1900 040/06 RMK AO2
14837KMSN MSN20060227202009602/27/06 20:20:31  5-MIN KMSN 280220Z 04006KT 10SM CLR M08/M13 A3009 700 67 -1900 040/06 RMK AO2
14837KMSN MSN20060227202509602/27/06 20:25:31  5-MIN KMSN 280225Z 04006KT 10SM CLR M08/M13 A3010 700 67 -1900 040/06 RMK AO2
14837KMSN MSN20060227203009602/27/06 20:30:31  5-MIN KMSN 280230Z 04006KT 10SM CLR M08/M13 A3009 700 67 -1900 040/06 RMK AO2
14837KMSN MSN20060227203509602/27/06 20:35:31  5-MIN KMSN 280235Z 04007KT 10SM CLR M08/M13 A3009 700 67 -1900 040/07 RMK AO2
14837KMSN MSN20060227204009602/27/06 20:40:31  5-MIN KMSN 280240Z 04007KT 10SM CLR M08/M13 A3009 710 67 -1900 040/07 RMK AO2
14837KMSN MSN20060227204509602/27/06 20:45:31  5-MIN KMSN 280245Z 04007KT 10SM CLR M08/M13 A3009 710 67 -1900 040/07 RMK AO2
14837KMSN MSN20060227205011902/27/06 20:50:31  5-MIN KMSN 280250Z 04007KT 10SM CLR M08/M13 A3009 710 67 -1900 040/07 RMK AO2 SLP204 T10831133 51016
14837KMSN MSN20060227205509602/27/06 20:55:31  5-MIN KMSN 280255Z 05006KT 10SM CLR M08/M13 A3009 710 67 -1900 050/06 RMK AO2
14837KMSN MSN20060227210009602/27/06 21:00:31  5-MIN KMSN 280300Z 05006KT 10SM CLR M09/M13 A3009 710 70 -2000 050/06 RMK AO2
14837KMSN MSN20060227210509602/27/06 21:05:31  5-MIN KMSN 280305Z 05007KT 10SM CLR M09/M13 A3008 720 70 -2000 050/07 RMK AO2
14837KMSN MSN20060227211009602/27/06 21:10:31  5-MIN KMSN 280310Z 06007KT 10SM CLR M09/M13 A3008 720 70 -2000 060/07 RMK AO2
14837KMSN MSN20060227211509602/27/06 21:15:31  5-MIN KMSN 280315Z 06006KT 10SM CLR M09/M13 A3008 720 70 -2000 060/06 RMK AO2
14837KMSN MSN20060227212009602/27/06 21:20:31  5-MIN KMSN 280320Z 05006KT 10SM CLR M08/M13 A3008 720 67 -1900 050/06 RMK AO2
14837KMSN MSN20060227212509602/27/06 21:25:31  5-MIN KMSN 280325Z 05007KT 10SM CLR M09/M13 A3008 720 70 -2000 050/07 RMK AO2
14837KMSN MSN20060227213009602/27/06 21:30:31  5-MIN KMSN 280330Z 05007KT 10SM CLR M09/M13 A3008 720 70 -2000 050/07 RMK AO2
14837KMSN MSN20060227213509602/27/06 21:35:31  5-MIN KMSN 280335Z 06006KT 10SM CLR M08/M13 A3008 720 67 -1900 060/06 RMK AO2
14837KMSN MSN20060227214009602/27/06 21:40:31  5-MIN KMSN 280340Z 06004KT 10SM CLR M08/M13 A3008 720 67 -1900 060/04 RMK AO2
14837KMSN MSN20060227214509602/27/06 21:45:31  5-MIN KMSN 280345Z 06005KT 10SM CLR M08/M13 A3008 720 67 -1900 060/05 RMK AO2
14837KMSN MSN20060227215011302/27/06 21:50:31  5-MIN KMSN 280350Z 04004KT 10SM CLR M09/M13 A3008 710 70 -2000 040/04 RMK AO2 SLP202 T10891133
14837KMSN MSN20060227215509602/27/06 21:55:31  5-MIN KMSN 280355Z 04004KT 10SM CLR M09/M14 A3009 710 67 -2000 040/04 RMK AO2
14837KMSN MSN20060227220009602/27/06 22:00:31  5-MIN KMSN 280400Z 04004KT 10SM CLR M08/M13 A3009 710 67 -1900 040/04 RMK AO2
14837KMSN MSN20060227220509602/27/06 22:05:31  5-MIN KMSN 280405Z 04004KT 10SM CLR M08/M14 A3009 710 64 -1900 040/04 RMK AO2
14837KMSN MSN20060227221009602/27/06 22:10:31  5-MIN KMSN 280410Z 04003KT 10SM CLR M08/M14 A3009 710 64 -1900 040/03 RMK AO2
14837KMSN MSN20060227221509602/27/06 22:15:31  5-MIN KMSN 280415Z 00000KT 10SM CLR M08/M13 A3009 710 67 -1900 000/00 RMK AO2
14837KMSN MSN20060227222009602/27/06 22:20:31  5-MIN KMSN 280420Z 00000KT 10SM CLR M08/M13 A3008 710 67 -1900 000/00 RMK AO2
14837KMSN MSN20060227222509602/27/06 22:25:31  5-MIN KMSN 280425Z 05003KT 10SM CLR M08/M13 A3008 720 67 -1900 050/03 RMK AO2
14837KMSN MSN20060227223009602/27/06 22:30:31  5-MIN KMSN 280430Z 06004KT 10SM CLR M08/M14 A3008 720 64 -1900 050/04 RMK AO2
14837KMSN MSN20060227223509602/27/06 22:35:31  5-MIN KMSN 280435Z 05003KT 10SM CLR M08/M14 A3008 720 64 -1900 050/03 RMK AO2
14837KMSN MSN20060227224009602/27/06 22:40:31  5-MIN KMSN 280440Z 05003KT 10SM CLR M09/M14 A3009 710 67 -2000 040/03 RMK AO2
14837KMSN MSN20060227224509602/27/06 22:45:31  5-MIN KMSN 280445Z 02003KT 10SM CLR M09/M14 A3009 710 67 -2000 020/03 RMK AO2
14837KMSN MSN20060227225011302/27/06 22:50:31  5-MIN KMSN 280450Z 00000KT 10SM CLR M09/M13 A3009 700 73 -2100 000/00 RMK AO2 SLP205 T10941133
14837KMSN MSN20060227225509602/27/06 22:55:31  5-MIN KMSN 280455Z 00000KT 10SM CLR M09/M13 A3009 700 73 -2100 000/00 RMK AO2
14837KMSN MSN20060227230009602/27/06 23:00:31  5-MIN KMSN 280500Z 00000KT 10SM CLR M09/M13 A3009 710 70 -2000 000/00 RMK AO2
14837KMSN MSN20060227230509602/27/06 23:05:31  5-MIN KMSN 280505Z 00000KT 10SM CLR M09/M13 A3009 710 70 -2000 000/00 RMK AO2
14837KMSN MSN20060227231009602/27/06 23:10:31  5-MIN KMSN 280510Z 00000KT 10SM CLR M09/M13 A3008 710 70 -2000 000/00 RMK AO2
14837KMSN MSN20060227231509602/27/06 23:15:31  5-MIN KMSN 280515Z 00000KT 10SM CLR M08/M13 A3008 720 67 -1900 000/00 RMK AO2
14837KMSN MSN20060227232009602/27/06 23:20:31  5-MIN KMSN 280520Z 00000KT 10SM CLR M08/M13 A3008 720 67 -1900 000/00 RMK AO2
14837KMSN MSN20060227232509602/27/06 23:25:31  5-MIN KMSN 280525Z 00000KT 10SM CLR M08/M13 A3008 720 67 -1900 000/00 RMK AO2
14837KMSN MSN20060227233009602/27/06 23:30:31  5-MIN KMSN 280530Z 00000KT 10SM CLR M08/M13 A3007 720 67 -1900 000/00 RMK AO2
14837KMSN MSN20060227233509602/27/06 23:35:31  5-MIN KMSN 280535Z 00000KT 10SM CLR M08/M13 A3007 720 67 -1900 000/00 RMK AO2
14837KMSN MSN20060227234009602/27/06 23:40:31  5-MIN KMSN 280540Z 00000KT 10SM CLR M08/M13 A3007 730 67 -1900 000/00 RMK AO2
14837KMSN MSN20060227234510202/27/06 23:45:31  5-MIN KMSN 280545Z 00000KT 10SM CLR M09/M13 A3007 730 74 -2000 000/00 RMK AO2 4/003
14837KMSN MSN20060227235014702/27/06 23:50:31  5-MIN KMSN 280550Z 00000KT 10SM CLR M09/M13 A3006 730 73 -2000 000/00 RMK AO2 SLP195 4/003 T10941133 11056 21094 410221094 50010
14837KMSN MSN20060227235509602/27/06 23:55:31  5-MIN KMSN 280555Z 00000KT 10SM CLR M09/M13 A3006 730 70 -2000 000/00 RMK AO2
14837KMSN MSN20060228000009602/28/06 00:00:38  5-MIN KMSN 280600Z 00000KT 10SM CLR M09/M13 A3006 740 70 -2000 000/00 RMK AO2
14837KMSN MSN20060228000509602/28/06 00:05:31  5-MIN KMSN 280605Z 00000KT 10SM CLR M09/M13 A3005 740 73 -2000 000/00 RMK AO2
14837KMSN MSN20060228001009602/28/06 00:10:31  5-MIN KMSN 280610Z 00000KT 10SM CLR M09/M13 A3006 740 70 -2000 000/00 RMK AO2
14837KMSN MSN20060228001509602/28/06 00:15:32  5-MIN KMSN 280615Z 00000KT 10SM CLR M09/M13 A3006 740 73 -2000 000/00 RMK AO2
14837KMSN MSN20060228002009602/28/06 00:20:31  5-MIN KMSN 280620Z 00000KT 10SM CLR M09/M13 A3006 740 70 -2000 000/00 RMK AO2
14837KMSN MSN20060228002509602/28/06 00:25:31  5-MIN KMSN 280625Z 00000KT 10SM CLR M09/M13 A3006 730 70 -2000 000/00 RMK AO2
14837KMSN MSN20060228003009602/28/06 00:30:31  5-MIN KMSN 280630Z 00000KT 10SM CLR M09/M13 A3007 730 70 -2000 000/00 RMK AO2
14837KMSN MSN20060228003509602/28/06 00:35:31  5-MIN KMSN 280635Z 03003KT 10SM CLR M09/M13 A3006 730 70 -2000 030/03 RMK AO2
14837KMSN MSN20060228004009602/28/06 00:40:31  5-MIN KMSN 280640Z 02004KT 10SM CLR M09/M13 A3006 740 70 -2000 020/04 RMK AO2
14837KMSN MSN20060228004509602/28/06 00:45:31  5-MIN KMSN 280645Z 01004KT 10SM CLR M09/M13 A3006 740 74 -2000 010/04 RMK AO2
14837KMSN MSN20060228005011302/28/06 00:50:31  5-MIN KMSN 280650Z 02004KT 10SM CLR M09/M13 A3006 730 74 -2000 020/04 RMK AO2 SLP193 T10891128
14837KMSN MSN20060228005509602/28/06 00:55:31  5-MIN KMSN 280655Z 02005KT 10SM CLR M09/M13 A3006 740 77 -2000 020/05 RMK AO2
14837KMSN MSN20060228010009602/28/06 01:00:31  5-MIN KMSN 280700Z 36003KT 10SM CLR M09/M13 A3005 740 77 -2000 360/03 RMK AO2
14837KMSN MSN20060228010509602/28/06 01:05:31  5-MIN KMSN 280705Z 00000KT 10SM CLR M09/M13 A3005 740 77 -2000 000/00 RMK AO2
14837KMSN MSN20060228011009602/28/06 01:10:31  5-MIN KMSN 280710Z 00000KT 10SM CLR M09/M13 A3005 750 77 -2000 000/00 RMK AO2
14837KMSN MSN20060228011509602/28/06 01:15:31  5-MIN KMSN 280715Z 02003KT 10SM CLR M09/M13 A3005 750 74 -2000 020/03 RMK AO2
14837KMSN MSN20060228012009602/28/06 01:20:31  5-MIN KMSN 280720Z 03004KT 10SM CLR M09/M13 A3004 750 74 -2000 030/04 RMK AO2
14837KMSN MSN20060228012509602/28/06 01:25:31  5-MIN KMSN 280725Z 03003KT 10SM CLR M09/M13 A3005 750 74 -2000 030/03 RMK AO2
14837KMSN MSN20060228013009902/28/06 01:30:31  5-MIN KMSN 280730Z 00000KT 10SM FEW120 M09/M13 A3005 740 74 -2000 000/00 RMK AO2
14837KMSN MSN20060228013509902/28/06 01:35:31  5-MIN KMSN 280735Z 00000KT 10SM FEW120 M09/M13 A3005 750 74 -2000 000/00 RMK AO2
14837KMSN MSN20060228014009902/28/06 01:40:31  5-MIN KMSN 280740Z 00000KT 10SM FEW120 M08/M13 A3005 750 70 -1900 000/00 RMK AO2
14837KMSN MSN20060228014509902/28/06 01:45:31  5-MIN KMSN 280745Z 00000KT 10SM FEW120 M08/M13 A3005 750 67 -1800 000/00 RMK AO2
14837KMSN MSN20060228015011602/28/06 01:50:31  5-MIN KMSN 280750Z 00000KT 10SM FEW120 M08/M13 A3005 740 70 -1900 000/00 RMK AO2 SLP190 T10831128
14837KMSN MSN20060228015509902/28/06 01:55:31  5-MIN KMSN 280755Z 00000KT 10SM FEW100 M08/M13 A3005 740 67 -1800 000/00 RMK AO2
14837KMSN MSN20060228020009602/28/06 02:00:31  5-MIN KMSN 280800Z 00000KT 10SM CLR M08/M13 A3005 740 67 -1800 000/00 RMK AO2
14837KMSN MSN20060228020509602/28/06 02:05:31  5-MIN KMSN 280805Z 00000KT 10SM CLR M08/M12 A3006 740 74 -1900 000/00 RMK AO2
14837KMSN MSN20060228021009602/28/06 02:10:31  5-MIN KMSN 280810Z 00000KT 10SM CLR M08/M12 A3006 740 74 -1900 000/00 RMK AO2
14837KMSN MSN20060228021509602/28/06 02:15:31  5-MIN KMSN 280815Z 00000KT 10SM CLR M08/M12 A3006 740 74 -1900 000/00 RMK AO2
14837KMSN MSN20060228022009602/28/06 02:20:31  5-MIN KMSN 280820Z 00000KT 10SM CLR M08/M12 A3006 740 74 -1900 000/00 RMK AO2
14837KMSN MSN20060228022509602/28/06 02:25:31  5-MIN KMSN 280825Z 00000KT 10SM CLR M08/M12 A3006 730 74 -1900 000/00 RMK AO2
14837KMSN MSN20060228023009602/28/06 02:30:31  5-MIN KMSN 280830Z 00000KT 10SM CLR M08/M12 A3006 740 74 -1900 000/00 RMK AO2
14837KMSN MSN20060228023509602/28/06 02:35:31  5-MIN KMSN 280835Z 00000KT 10SM CLR M08/M12 A3006 740 74 -1900 000/00 RMK AO2
14837KMSN MSN20060228024009602/28/06 02:40:31  5-MIN KMSN 280840Z 01003KT 10SM CLR M08/M13 A3005 740 70 -1900 010/03 RMK AO2
14837KMSN MSN20060228024509602/28/06 02:45:31  5-MIN KMSN 280845Z 35004KT 10SM CLR M08/M13 A3006 740 70 -1900 350/04 RMK AO2
14837KMSN MSN20060228025011902/28/06 02:50:31  5-MIN KMSN 280850Z 33003KT 10SM CLR M08/M13 A3006 730 70 -1900 330/03 RMK AO2 SLP194 T10831128 58009
14837KMSN MSN20060228025509902/28/06 02:55:31  5-MIN KMSN 280855Z 34003KT 10SM FEW120 M08/M13 A3007 730 70 -1900 340/03 RMK AO2
14837KMSN MSN20060228030009902/28/06 03:00:31  5-MIN KMSN 280900Z 35004KT 10SM SCT120 M08/M13 A3007 730 70 -1900 350/04 RMK AO2
14837KMSN MSN20060228030509902/28/06 03:05:31  5-MIN KMSN 280905Z 35004KT 10SM BKN120 M08/M13 A3007 720 70 -1900 350/04 RMK AO2
14837KMSN MSN20060228031009902/28/06 03:10:31  5-MIN KMSN 280910Z 35004KT 10SM BKN120 M08/M13 A3007 720 70 -1900 350/04 RMK AO2
14837KMSN MSN20060228031509902/28/06 03:15:31  5-MIN KMSN 280915Z 36004KT 10SM BKN120 M08/M13 A3007 730 70 -1900 360/04 RMK AO2
14837KMSN MSN20060228032009902/28/06 03:20:31  5-MIN KMSN 280920Z 36004KT 10SM BKN120 M08/M12 A3007 730 74 -1900 360/04 RMK AO2
14837KMSN MSN20060228032509902/28/06 03:25:31  5-MIN KMSN 280925Z 35003KT 10SM BKN120 M08/M12 A3007 730 74 -1900 350/03 RMK AO2
14837KMSN MSN20060228033009902/28/06 03:30:31  5-MIN KMSN 280930Z 33003KT 10SM OVC120 M08/M12 A3007 730 74 -1900 330/03 RMK AO2
14837KMSN MSN20060228033509902/28/06 03:35:31  5-MIN KMSN 280935Z 00000KT 10SM OVC120 M08/M12 A3007 730 74 -1900 000/00 RMK AO2
14837KMSN MSN20060228034009902/28/06 03:40:31  5-MIN KMSN 280940Z 02003KT 10SM OVC120 M08/M12 A3006 730 74 -1900 020/03 RMK AO2
14837KMSN MSN20060228034509902/28/06 03:45:31  5-MIN KMSN 280945Z 03004KT 10SM OVC120 M08/M12 A3006 740 71 -1800 030/04 RMK AO2
14837KMSN MSN20060228035011602/28/06 03:50:31  5-MIN KMSN 280950Z 02004KT 10SM OVC120 M08/M12 A3005 740 71 -1800 020/04 RMK AO2 SLP190 T10781122
14837KMSN MSN20060228035509902/28/06 03:55:31  5-MIN KMSN 280955Z 04004KT 10SM OVC120 M08/M12 A3005 740 74 -1900 040/04 RMK AO2
14837KMSN MSN20060228040009902/28/06 04:00:31  5-MIN KMSN 281000Z 04006KT 10SM OVC120 M08/M12 A3005 740 71 -1800 040/06 RMK AO2
14837KMSN MSN20060228040509902/28/06 04:05:31  5-MIN KMSN 281005Z 04005KT 10SM OVC120 M08/M12 A3005 740 71 -1800 040/05 RMK AO2
14837KMSN MSN20060228041009902/28/06 04:10:31  5-MIN KMSN 281010Z 03004KT 10SM OVC120 M08/M12 A3006 730 71 -1800 030/04 RMK AO2
14837KMSN MSN20060228041509902/28/06 04:15:31  5-MIN KMSN 281015Z 03004KT 10SM OVC120 M08/M13 A3006 730 67 -1800 030/04 RMK AO2
14837KMSN MSN20060228042009902/28/06 04:20:31  5-MIN KMSN 281020Z 03005KT 10SM OVC120 M08/M12 A3007 730 71 -1800 030/05 RMK AO2
14837KMSN MSN20060228042509902/28/06 04:25:31  5-MIN KMSN 281025Z 03005KT 10SM OVC120 M07/M13 A3007 720 65 -1800 020/05 RMK AO2
14837KMSN MSN20060228043009902/28/06 04:30:31  5-MIN KMSN 281030Z 03005KT 10SM OVC120 M07/M13 A3007 730 65 -1800 030/05 RMK AO2
14837KMSN MSN20060228043509902/28/06 04:35:31  5-MIN KMSN 281035Z 04005KT 10SM OVC120 M07/M12 A3007 730 68 -1800 040/05 RMK AO2
14837KMSN MSN20060228044009902/28/06 04:40:31  5-MIN KMSN 281040Z 03004KT 10SM OVC120 M07/M12 A3007 720 68 -1800 030/04 RMK AO2
14837KMSN MSN20060228044509902/28/06 04:45:31  5-MIN KMSN 281045Z 03004KT 10SM OVC120 M07/M12 A3008 720 68 -1800 030/04 RMK AO2
14837KMSN MSN20060228045011602/28/06 04:50:31  5-MIN KMSN 281050Z 03004KT 10SM OVC120 M07/M12 A3008 720 68 -1800 030/04 RMK AO2 SLP199 T10721122
14837KMSN MSN20060228045509902/28/06 04:55:31  5-MIN KMSN 281055Z 03005KT 10SM OVC120 M07/M12 A3008 720 68 -1800 030/05 RMK AO2
14837KMSN MSN20060228050009902/28/06 05:00:31  5-MIN KMSN 281100Z 04005KT 10SM OVC110 M07/M12 A3008 720 68 -1800 040/05 RMK AO2
14837KMSN MSN20060228050509902/28/06 05:05:31  5-MIN KMSN 281105Z 04005KT 10SM OVC110 M07/M12 A3008 720 68 -1800 040/05 RMK AO2
14837KMSN MSN20060228051009902/28/06 05:10:31  5-MIN KMSN 281110Z 04005KT 10SM BKN110 M07/M12 A3008 720 68 -1800 040/05 RMK AO2
14837KMSN MSN20060228051509902/28/06 05:15:31  5-MIN KMSN 281115Z 05005KT 10SM BKN110 M07/M12 A3008 720 68 -1800 050/05 RMK AO2
14837KMSN MSN20060228052009902/28/06 05:20:31  5-MIN KMSN 281120Z 05005KT 10SM BKN110 M07/M12 A3008 720 68 -1800 050/05 RMK AO2
14837KMSN MSN20060228052509902/28/06 05:25:31  5-MIN KMSN 281125Z 06006KT 10SM BKN110 M07/M12 A3007 720 68 -1800 060/06 RMK AO2
14837KMSN MSN20060228053009902/28/06 05:30:31  5-MIN KMSN 281130Z 06006KT 10SM BKN120 M07/M12 A3007 720 68 -1800 060/06 RMK AO2
14837KMSN MSN20060228053509902/28/06 05:35:31  5-MIN KMSN 281135Z 06006KT 10SM BKN120 M07/M12 A3007 730 68 -1800 060/06 RMK AO2
14837KMSN MSN20060228054009902/28/06 05:40:31  5-MIN KMSN 281140Z 07007KT 10SM BKN120 M07/M12 A3007 730 68 -1800 060/07 RMK AO2
14837KMSN MSN20060228054509902/28/06 05:45:31  5-MIN KMSN 281145Z 07008KT 10SM OVC120 M07/M13 A3006 740 65 -1800 070/08 RMK AO2
14837KMSN MSN20060228055014002/28/06 05:50:31  5-MIN KMSN 281150Z 08009KT 10SM BKN120 M07/M13 A3005 740 65 -1700 080/09 RMK AO2 SLP191 4/003 T10721128 11072 21094 53002
14837KMSN MSN20060228055509902/28/06 05:55:31  5-MIN KMSN 281155Z 08007KT 10SM OVC120 M07/M13 A3005 740 65 -1700 080/07 RMK AO2
14837KMSN MSN20060228060009902/28/06 06:00:31  5-MIN KMSN 281200Z 08010KT 10SM OVC120 M07/M13 A3005 740 65 -1700 080/10 RMK AO2
14837KMSN MSN20060228060509902/28/06 06:05:31  5-MIN KMSN 281205Z 08007KT 10SM OVC120 M07/M13 A3006 740 65 -1700 080/07 RMK AO2
14837KMSN MSN20060228061009902/28/06 06:10:31  5-MIN KMSN 281210Z 08009KT 10SM BKN120 M07/M13 A3005 740 65 -1700 080/09 RMK AO2
14837KMSN MSN20060228061509902/28/06 06:15:31  5-MIN KMSN 281215Z 08009KT 10SM BKN120 M07/M13 A3005 740 62 -1700 080/09 RMK AO2
14837KMSN MSN20060228062009902/28/06 06:20:31  5-MIN KMSN 281220Z 08009KT 10SM SCT120 M07/M13 A3006 730 62 -1800 080/09 RMK AO2
14837KMSN MSN20060228062509902/28/06 06:25:31  5-MIN KMSN 281225Z 07007KT 10SM SCT120 M07/M13 A3006 730 62 -1800 070/07 RMK AO2
14837KMSN MSN20060228063009902/28/06 06:30:31  5-MIN KMSN 281230Z 07006KT 10SM SCT120 M07/M13 A3006 730 65 -1800 070/06 RMK AO2
14837KMSN MSN20060228063509902/28/06 06:35:31  5-MIN KMSN 281235Z 08005KT 10SM FEW120 M07/M13 A3006 730 62 -1800 080/05 RMK AO2
14837KMSN MSN20060228064009902/28/06 06:40:31  5-MIN KMSN 281240Z 09006KT 10SM FEW120 M07/M13 A3006 740 62 -1700 090/06 RMK AO2
14837KMSN MSN20060228064509902/28/06 06:45:31  5-MIN KMSN 281245Z 08006KT 10SM SCT120 M07/M13 A3006 730 62 -1800 080/06 RMK AO2
14837KMSN MSN20060228065011602/28/06 06:50:31  5-MIN KMSN 281250Z 08007KT 10SM SCT120 M07/M13 A3006 740 62 -1800 070/07 RMK AO2 SLP194 T10721133
14837KMSN MSN20060228065509902/28/06 06:55:31  5-MIN KMSN 281255Z 07006KT 10SM FEW120 M07/M13 A3006 730 62 -1800 070/06 RMK AO2
14837KMSN MSN20060228070009902/28/06 07:00:31  5-MIN KMSN 281300Z 06005KT 10SM FEW120 M07/M13 A3007 730 62 -1800 060/05 RMK AO2
14837KMSN MSN20060228070509902/28/06 07:05:31  5-MIN KMSN 281305Z 07006KT 10SM FEW120 M07/M13 A3007 730 62 -1800 070/06 RMK AO2
14837KMSN MSN20060228071009602/28/06 07:10:31  5-MIN KMSN 281310Z 07007KT 10SM CLR M07/M13 A3007 730 62 -1800 070/07 RMK AO2
14837KMSN MSN20060228071509602/28/06 07:15:31  5-MIN KMSN 281315Z 07006KT 10SM CLR M07/M13 A3007 720 62 -1800 070/06 RMK AO2
14837KMSN MSN20060228072009602/28/06 07:20:31  5-MIN KMSN 281320Z 07005KT 10SM CLR M07/M13 A3007 730 62 -1800 070/05 RMK AO2
14837KMSN MSN20060228072509602/28/06 07:25:31  5-MIN KMSN 281325Z 07003KT 10SM CLR M07/M13 A3007 730 65 -1800 070/03 RMK AO2
14837KMSN MSN20060228073009602/28/06 07:30:31  5-MIN KMSN 281330Z 00000KT 10SM CLR M07/M13 A3006 730 65 -1800 000/00 RMK AO2
14837KMSN MSN20060228073509602/28/06 07:35:31  5-MIN KMSN 281335Z 08003KT 10SM CLR M07/M13 A3006 740 62 -1700 080/03 RMK AO2
14837KMSN MSN20060228074009602/28/06 07:40:31  5-MIN KMSN 281340Z 07003KT 10SM CLR M07/M13 A3006 740 62 -1700 070/03 RMK AO2
14837KMSN MSN20060228074509602/28/06 07:45:31  5-MIN KMSN 281345Z 07007KT 10SM CLR M07/M13 A3006 730 62 -1700 070/07 RMK AO2
14837KMSN MSN20060228075011302/28/06 07:50:31  5-MIN KMSN 281350Z 07008KT 10SM CLR M07/M13 A3006 740 59 -1700 070/08 RMK AO2 SLP193 T10671133
14837KMSN MSN20060228075509602/28/06 07:55:31  5-MIN KMSN 281355Z 07009KT 10SM CLR M07/M14 A3006 730 57 -1700 070/09 RMK AO2
14837KMSN MSN20060228080009602/28/06 08:00:31  5-MIN KMSN 281400Z 07009KT 10SM CLR M07/M14 A3006 740 57 -1700 070/09 RMK AO2
14837KMSN MSN20060228080509602/28/06 08:05:31  5-MIN KMSN 281405Z 07010KT 10SM CLR M07/M14 A3006 740 57 -1700 070/10 RMK AO2
14837KMSN MSN20060228081009602/28/06 08:10:31  5-MIN KMSN 281410Z 07008KT 10SM CLR M07/M13 A3006 740 59 -1700 070/08 RMK AO2
14837KMSN MSN20060228081509602/28/06 08:15:31  5-MIN KMSN 281415Z 08009KT 10SM CLR M07/M13 A3006 740 59 -1700 080/09 RMK AO2
14837KMSN MSN20060228082009602/28/06 08:20:31  5-MIN KMSN 281420Z 09008KT 10SM CLR M06/M13 A3006 740 57 -1600 080/08 RMK AO2
14837KMSN MSN20060228082509602/28/06 08:25:31  5-MIN KMSN 281425Z 09007KT 10SM CLR M06/M13 A3005 750 57 -1600 080/07 RMK AO2
14837KMSN MSN20060228083009602/28/06 08:30:31  5-MIN KMSN 281430Z 08006KT 10SM CLR M06/M13 A3005 740 57 -1600 080/06 RMK AO2
14837KMSN MSN20060228083509602/28/06 08:35:31  5-MIN KMSN 281435Z 08007KT 10SM CLR M06/M13 A3005 750 57 -1500 080/07 RMK AO2
14837KMSN MSN20060228084009602/28/06 08:40:31  5-MIN KMSN 281440Z 09007KT 10SM CLR M06/M13 A3005 750 57 -1500 090/07 RMK AO2
14837KMSN MSN20060228084509602/28/06 08:45:31  5-MIN KMSN 281445Z 08007KT 10SM CLR M06/M13 A3005 750 57 -1500 080/07 RMK AO2
14837KMSN MSN20060228085011902/28/06 08:50:31  5-MIN KMSN 281450Z 08006KT 10SM CLR M06/M12 A3005 740 59 -1500 080/06 RMK AO2 SLP191 T10561122 58005
14837KMSN MSN20060228085509602/28/06 08:55:31  5-MIN KMSN 281455Z 07008KT 10SM CLR M06/M12 A3005 740 59 -1500 070/08 RMK AO2
14837KMSN MSN20060228090009602/28/06 09:00:31  5-MIN KMSN 281500Z 09007KT 10SM CLR M06/M12 A3005 740 59 -1500 090/07 RMK AO2
14837KMSN MSN20060228090509602/28/06 09:05:31  5-MIN KMSN 281505Z 08007KT 10SM CLR M05/M12 A3005 750 57 -1400 080/07 RMK AO2
14837KMSN MSN20060228091009602/28/06 09:10:31  5-MIN KMSN 281510Z 08007KT 10SM CLR M06/M12 A3005 750 59 -1500 080/07 RMK AO2
14837KMSN MSN20060228091509602/28/06 09:15:31  5-MIN KMSN 281515Z 09007KT 10SM CLR M05/M12 A3005 740 57 -1500 090/07 RMK AO2
14837KMSN MSN20060228092009602/28/06 09:20:31  5-MIN KMSN 281520Z 09006KT 10SM CLR M05/M12 A3005 740 60 -1500 090/06 RMK AO2
14837KMSN MSN20060228092509602/28/06 09:25:31  5-MIN KMSN 281525Z 09006KT 10SM CLR M05/M12 A3005 750 60 -1500 090/06 RMK AO2
14837KMSN MSN20060228093009602/28/06 09:30:31  5-MIN KMSN 281530Z 11006KT 10SM CLR M05/M11 A3005 750 62 -1400 110/06 RMK AO2
14837KMSN MSN20060228093509602/28/06 09:35:31  5-MIN KMSN 281535Z 12007KT 10SM CLR M04/M11 A3004 750 60 -1400 120/07 RMK AO2
14837KMSN MSN20060228094009602/28/06 09:40:31  5-MIN KMSN 281540Z 12008KT 10SM CLR M04/M11 A3004 750 62 -1400 120/08 RMK AO2
14837KMSN MSN20060228094509602/28/06 09:45:31  5-MIN KMSN 281545Z 12006KT 10SM CLR M04/M11 A3004 750 60 -1400 120/06 RMK AO2
14837KMSN MSN20060228095011302/28/06 09:50:31  5-MIN KMSN 281550Z 12007KT 10SM CLR M04/M11 A3004 750 60 -1400 120/07 RMK AO2 SLP188 T10441111
14837KMSN MSN20060228095509602/28/06 09:55:31  5-MIN KMSN 281555Z 11006KT 10SM CLR M04/M11 A3005 750 62 -1400 110/06 RMK AO2
14837KMSN MSN20060228100009602/28/06 10:00:31  5-MIN KMSN 281600Z 11006KT 10SM CLR M04/M11 A3004 750 62 -1400 110/06 RMK AO2
14837KMSN MSN20060228100509602/28/06 10:05:31  5-MIN KMSN 281605Z 10004KT 10SM CLR M04/M11 A3005 750 60 -1300 100/04 RMK AO2
14837KMSN MSN20060228101009602/28/06 10:10:31  5-MIN KMSN 281610Z 10005KT 10SM CLR M04/M11 A3004 750 60 -1300 100/05 RMK AO2
14837KMSN MSN20060228101509602/28/06 10:15:31  5-MIN KMSN 281615Z 10005KT 10SM CLR M04/M11 A3004 750 60 -1300 100/05 RMK AO2
14837KMSN MSN20060228102009602/28/06 10:20:31  5-MIN KMSN 281620Z 10005KT 10SM CLR M04/M11 A3004 750 60 -1300 100/05 RMK AO2
14837KMSN MSN20060228102509602/28/06 10:25:31  5-MIN KMSN 281625Z 10005KT 10SM CLR M03/M10 A3004 760 60 -1200 100/05 RMK AO2
14837KMSN MSN20060228103009602/28/06 10:30:31  5-MIN KMSN 281630Z 10005KT 10SM CLR M03/M10 A3003 760 60 -1200 100/05 RMK AO2
14837KMSN MSN20060228103509602/28/06 10:35:31  5-MIN KMSN 281635Z 09008KT 10SM CLR M03/M09 A3003 770 60 -1100 090/08 RMK AO2
14837KMSN MSN20060228104009602/28/06 10:40:31  5-MIN KMSN 281640Z 10006KT 10SM CLR M03/M09 A3002 770 60 -1100 100/06 RMK AO2
14837KMSN MSN20060228104509602/28/06 10:45:31  5-MIN KMSN 281645Z 12008KT 10SM CLR M03/M09 A3002 780 63 -1100 120/08 RMK AO2
14837KMSN MSN20060228105011302/28/06 10:50:31  5-MIN KMSN 281650Z 12009KT 10SM CLR M02/M09 A3002 770 60 -1100 120/09 RMK AO2 SLP179 T10221089
14837KMSN MSN20060228105509602/28/06 10:55:31  5-MIN KMSN 281655Z 14007KT 10SM CLR M03/M09 A3003 770 63 -1100 140/07 RMK AO2
14837KMSN MSN20060228110009602/28/06 11:00:31  5-MIN KMSN 281700Z 14008KT 10SM CLR M02/M09 A3002 770 60 -1100 140/08 RMK AO2
14837KMSN MSN20060228110509602/28/06 11:05:31  5-MIN KMSN 281705Z 16008KT 10SM CLR M02/M09 A3002 770 60 -1100 160/08 RMK AO2
14837KMSN MSN20060228111009602/28/06 11:10:31  5-MIN KMSN 281710Z 14008KT 10SM CLR M02/M09 A3002 770 60 -1100 140/08 RMK AO2
14837KMSN MSN20060228111509602/28/06 11:15:31  5-MIN KMSN 281715Z 13007KT 10SM CLR M02/M09 A3003 760 60 -1100 130/07 RMK AO2
14837KMSN MSN20060228112009602/28/06 11:20:31  5-MIN KMSN 281720Z 13007KT 10SM CLR M02/M09 A3003 770 60 -1100 130/07 RMK AO2
14837KMSN MSN20060228112509602/28/06 11:25:31  5-MIN KMSN 281725Z 13006KT 10SM CLR M02/M09 A3003 760 60 -1100 130/06 RMK AO2
14837KMSN MSN20060228113009602/28/06 11:30:31  5-MIN KMSN 281730Z 09006KT 10SM CLR M02/M09 A3004 760 60 -1100 090/06 RMK AO2
14837KMSN MSN20060228113509602/28/06 11:35:31  5-MIN KMSN 281735Z 08004KT 10SM CLR M02/M09 A3003 760 60 -1100 080/04 RMK AO2
14837KMSN MSN20060228114010902/28/06 11:40:31  5-MIN KMSN 281740Z 09003KT 10SM CLR M02/M09 A3003 760 60 -1100 090/03 RMK AO2 4/003 933007
14837KMSN MSN20060228114510902/28/06 11:45:31  5-MIN KMSN 281745Z 10003KT 10SM CLR M02/M09 A3003 770 58 -1000 100/03 RMK AO2 4/003 933007
14837KMSN MSN20060228115014402/28/06 11:50:31  5-MIN KMSN 281750Z 12004KT 10SM CLR M02/M09 A3002 770 58 -1000 110/04 RMK AO2 SLP181 4/003 933007 T10171089 11017 21072 50000
14837KMSN MSN20060228115509602/28/06 11:55:31  5-MIN KMSN 281755Z VRB04KT 10SM CLR M02/M09 A3002 770 58 -1000 VRB/04 RMK AO2
14837KMSN MSN20060228120009602/28/06 12:00:31  5-MIN KMSN 281800Z 09004KT 10SM CLR M02/M08 A3002 770 60 -1000 090/04 RMK AO2
14837KMSN MSN20060228120509602/28/06 12:05:31  5-MIN KMSN 281805Z 06003KT 10SM CLR M02/M09 A3001 780 58 -1000 060/03 RMK AO2
14837KMSN MSN20060228121009602/28/06 12:10:31  5-MIN KMSN 281810Z 09004KT 10SM CLR M02/M09 A3001 780 58 -1000 090/04 RMK AO2
14837KMSN MSN20060228121509602/28/06 12:15:31  5-MIN KMSN 281815Z 11004KT 10SM CLR M02/M09 A3001 780 58 -1000 110/04 RMK AO2
14837KMSN MSN20060228122009502/28/06 12:20:31  5-MIN KMSN 281820Z 10004KT 10SM CLR M01/M09 A3001 790 55 -900 100/04 RMK AO2
14837KMSN MSN20060228122509502/28/06 12:25:31  5-MIN KMSN 281825Z 10004KT 10SM CLR M01/M09 A3000 790 55 -900 100/04 RMK AO2
14837KMSN MSN20060228123009502/28/06 12:30:31  5-MIN KMSN 281830Z 09003KT 10SM CLR M01/M09 A3000 790 55 -900 090/03 RMK AO2
14837KMSN MSN20060228123509502/28/06 12:35:31  5-MIN KMSN 281835Z 10006KT 10SM CLR M01/M08 A2999 800 56 -800 100/06 RMK AO2
14837KMSN MSN20060228124009502/28/06 12:40:31  5-MIN KMSN 281840Z 11005KT 10SM CLR M01/M08 A2999 800 58 -900 110/05 RMK AO2
14837KMSN MSN20060228124509502/28/06 12:45:31  5-MIN KMSN 281845Z 11006KT 10SM CLR M01/M08 A2999 800 58 -900 110/06 RMK AO2
14837KMSN MSN20060228125011202/28/06 12:50:31  5-MIN KMSN 281850Z 12007KT 10SM CLR M01/M08 A2999 800 58 -900 120/07 RMK AO2 SLP167 T10111083
14837KMSN MSN20060228125509502/28/06 12:55:31  5-MIN KMSN 281855Z 07007KT 10SM CLR M01/M08 A2999 800 58 -900 070/07 RMK AO2
14837KMSN MSN20060228130009502/28/06 13:00:31  5-MIN KMSN 281900Z 10006KT 10SM CLR M01/M08 A2998 810 60 -900 100/06 RMK AO2
14837KMSN MSN20060228130509502/28/06 13:05:31  5-MIN KMSN 281905Z 11008KT 10SM CLR M01/M08 A2998 810 58 -800 110/08 RMK AO2
14837KMSN MSN20060228131009502/28/06 13:10:31  5-MIN KMSN 281910Z VRB05KT 10SM CLR M01/M08 A2997 810 56 -800 VRB/05 RMK AO2
14837KMSN MSN20060228131509502/28/06 13:15:31  5-MIN KMSN 281915Z 08005KT 10SM CLR M01/M08 A2997 820 56 -800 080/05 RMK AO2
14837KMSN MSN20060228132009502/28/06 13:20:31  5-MIN KMSN 281920Z 08005KT 10SM CLR M01/M08 A2997 820 58 -800 080/05 RMK AO2
14837KMSN MSN20060228132509502/28/06 13:25:31  5-MIN KMSN 281925Z 11005KT 10SM CLR M01/M08 A2997 820 58 -800 110/05 RMK AO2
14837KMSN MSN20060228133009502/28/06 13:30:31  5-MIN KMSN 281930Z 11005KT 10SM CLR M01/M08 A2996 830 58 -800 110/05 RMK AO2
14837KMSN MSN20060228133509502/28/06 13:35:31  5-MIN KMSN 281935Z 10005KT 10SM CLR M01/M08 A2996 830 58 -800 100/05 RMK AO2
14837KMSN MSN20060228134009502/28/06 13:40:31  5-MIN KMSN 281940Z 11005KT 10SM CLR M01/M08 A2995 840 58 -800 110/05 RMK AO2
14837KMSN MSN20060228134509402/28/06 13:45:31  5-MIN KMSN 281945Z 11006KT 10SM CLR 00/M07 A2995 840 58 -700 110/06 RMK AO2
14837KMSN MSN20060228135011202/28/06 13:50:31  5-MIN KMSN 281950Z 13003KT 10SM CLR M01/M08 A2995 840 58 -800 130/03 RMK AO2 SLP155 T10061078
14837KMSN MSN20060228135509402/28/06 13:55:31  5-MIN KMSN 281955Z VRB03KT 10SM CLR 00/M08 A2995 840 56 -700 VRB/03 RMK AO2
14837KMSN MSN20060228140009402/28/06 14:00:31  5-MIN KMSN 282000Z 08005KT 10SM CLR 00/M08 A2995 840 56 -700 080/05 RMK AO2
14837KMSN MSN20060228140509402/28/06 14:05:31  5-MIN KMSN 282005Z 09006KT 10SM CLR 00/M08 A2994 840 56 -700 090/06 RMK AO2
14837KMSN MSN20060228141009402/28/06 14:10:31  5-MIN KMSN 282010Z 10005KT 10SM CLR 00/M07 A2994 850 58 -700 100/05 RMK AO2
14837KMSN MSN20060228141509402/28/06 14:15:31  5-MIN KMSN 282015Z 10007KT 10SM CLR 00/M07 A2994 850 58 -700 100/07 RMK AO2
14837KMSN MSN20060228142009402/28/06 14:20:31  5-MIN KMSN 282020Z 10006KT 10SM CLR 00/M08 A2994 850 56 -700 100/06 RMK AO2
14837KMSN MSN20060228142509402/28/06 14:25:31  5-MIN KMSN 282025Z 12007KT 10SM CLR 00/M07 A2993 860 58 -700 110/07 RMK AO2
14837KMSN MSN20060228143009402/28/06 14:30:31  5-MIN KMSN 282030Z 10008KT 10SM CLR 00/M07 A2993 860 58 -700 100/08 RMK AO2
14837KMSN MSN20060228143509402/28/06 14:35:31  5-MIN KMSN 282035Z 10009KT 10SM CLR 00/M07 A2993 860 58 -700 100/09 RMK AO2
14837KMSN MSN20060228144009402/28/06 14:40:31  5-MIN KMSN 282040Z 12009KT 10SM CLR 00/M07 A2993 860 58 -700 120/09 RMK AO2
14837KMSN MSN20060228144509402/28/06 14:45:31  5-MIN KMSN 282045Z 12006KT 10SM CLR 00/M07 A2993 860 61 -700 110/06 RMK AO2
14837KMSN MSN20060228145011702/28/06 14:50:31  5-MIN KMSN 282050Z 11008KT 10SM CLR 00/M07 A2993 860 58 -700 110/08 RMK AO2 SLP146 T00001072 56010
14837KMSN MSN20060228145509402/28/06 14:55:31  5-MIN KMSN 282055Z 11004KT 10SM CLR 00/M07 A2993 850 58 -700 100/04 RMK AO2
14837KMSN MSN20060228150009402/28/06 15:00:31  5-MIN KMSN 282100Z 10006KT 10SM CLR 01/M07 A2993 860 56 -600 100/06 RMK AO2
14837KMSN MSN20060228150509402/28/06 15:05:31  5-MIN KMSN 282105Z 13005KT 10SM CLR 00/M07 A2993 860 58 -700 130/05 RMK AO2
14837KMSN MSN20060228151009402/28/06 15:10:31  5-MIN KMSN 282110Z 12005KT 10SM CLR 00/M07 A2993 860 61 -700 120/05 RMK AO2
14837KMSN MSN20060228151509402/28/06 15:15:31  5-MIN KMSN 282115Z 10005KT 10SM CLR 01/M07 A2993 850 56 -600 100/05 RMK AO2
14837KMSN MSN20060228152009402/28/06 15:20:31  5-MIN KMSN 282120Z 12006KT 10SM CLR 01/M07 A2992 860 58 -600 120/06 RMK AO2
14837KMSN MSN20060228152509402/28/06 15:25:31  5-MIN KMSN 282125Z 12007KT 10SM CLR 01/M07 A2992 870 58 -600 120/07 RMK AO2
14837KMSN MSN20060228153009402/28/06 15:30:31  5-MIN KMSN 282130Z 12005KT 10SM CLR 01/M07 A2992 870 58 -600 120/05 RMK AO2
14837KMSN MSN20060228153509402/28/06 15:35:31  5-MIN KMSN 282135Z 13005KT 10SM CLR 01/M07 A2992 870 58 -600 130/05 RMK AO2
14837KMSN MSN20060228154009402/28/06 15:40:31  5-MIN KMSN 282140Z 12004KT 10SM CLR 01/M07 A2992 870 58 -600 120/04 RMK AO2
14837KMSN MSN20060228154509402/28/06 15:45:31  5-MIN KMSN 282145Z 09004KT 10SM CLR 01/M07 A2992 870 56 -600 090/04 RMK AO2
14837KMSN MSN20060228155011102/28/06 15:50:31  5-MIN KMSN 282150Z 10003KT 10SM CLR 01/M07 A2992 870 58 -600 100/03 RMK AO2 SLP143 T00061067
14837KMSN MSN20060228155509402/28/06 15:55:31  5-MIN KMSN 282155Z 09006KT 10SM CLR 01/M07 A2992 870 58 -600 090/06 RMK AO2
14837KMSN MSN20060228160009402/28/06 16:00:31  5-MIN KMSN 282200Z 08004KT 10SM CLR 01/M07 A2992 870 56 -600 080/04 RMK AO2
14837KMSN MSN20060228160509402/28/06 16:05:31  5-MIN KMSN 282205Z 09004KT 10SM CLR 01/M07 A2992 870 58 -600 090/04 RMK AO2
14837KMSN MSN20060228161009402/28/06 16:10:31  5-MIN KMSN 282210Z 11005KT 10SM CLR 01/M07 A2992 870 58 -600 100/05 RMK AO2
14837KMSN MSN20060228161509402/28/06 16:15:31  5-MIN KMSN 282215Z 11004KT 10SM CLR 01/M07 A2992 870 58 -600 110/04 RMK AO2
14837KMSN MSN20060228162009402/28/06 16:20:31  5-MIN KMSN 282220Z 10004KT 10SM CLR 01/M07 A2992 870 58 -600 100/04 RMK AO2
14837KMSN MSN20060228162509402/28/06 16:25:31  5-MIN KMSN 282225Z 10005KT 10SM CLR 01/M07 A2991 870 58 -600 100/05 RMK AO2
14837KMSN MSN20060228163009402/28/06 16:30:31  5-MIN KMSN 282230Z 10005KT 10SM CLR 01/M07 A2991 870 58 -600 100/05 RMK AO2
14837KMSN MSN20060228163509402/28/06 16:35:31  5-MIN KMSN 282235Z 10005KT 10SM CLR 01/M07 A2991 880 58 -600 100/05 RMK AO2
14837KMSN MSN20060228164009402/28/06 16:40:31  5-MIN KMSN 282240Z 11004KT 10SM CLR 00/M06 A2990 880 63 -600 110/04 RMK AO2
14837KMSN MSN20060228164509402/28/06 16:45:31  5-MIN KMSN 282245Z 12004KT 10SM CLR 00/M06 A2990 880 63 -600 120/04 RMK AO2
14837KMSN MSN20060228165011102/28/06 16:50:31  5-MIN KMSN 282250Z 07005KT 10SM CLR 00/M06 A2990 880 63 -600 070/05 RMK AO2 SLP137 T00001061
14837KMSN MSN20060228165509402/28/06 16:55:31  5-MIN KMSN 282255Z 06006KT 10SM CLR 00/M06 A2990 880 63 -600 060/06 RMK AO2
14837KMSN MSN20060228170009402/28/06 17:00:31  5-MIN KMSN 282300Z 06006KT 10SM CLR 00/M06 A2990 880 63 -600 060/06 RMK AO2
14837KMSN MSN20060228170509502/28/06 17:05:31  5-MIN KMSN 282305Z 06006KT 10SM CLR M01/M06 A2991 880 66 -700 060/06 RMK AO2
14837KMSN MSN20060228171009502/28/06 17:10:31  5-MIN KMSN 282310Z 06006KT 10SM CLR M01/M06 A2991 880 66 -700 060/06 RMK AO2
14837KMSN MSN20060228171509502/28/06 17:15:31  5-MIN KMSN 282315Z 06006KT 10SM CLR M01/M06 A2990 880 66 -700 060/06 RMK AO2
14837KMSN MSN20060228172009502/28/06 17:20:31  5-MIN KMSN 282320Z 06005KT 10SM CLR M01/M06 A2991 880 66 -700 060/05 RMK AO2
14837KMSN MSN20060228172509502/28/06 17:25:31  5-MIN KMSN 282325Z 06004KT 10SM CLR M01/M06 A2990 880 66 -700 060/04 RMK AO2
14837KMSN MSN20060228173009502/28/06 17:30:31  5-MIN KMSN 282330Z 06005KT 10SM CLR M01/M06 A2990 880 66 -700 060/05 RMK AO2
14837KMSN MSN20060228173509502/28/06 17:35:31  5-MIN KMSN 282335Z 06004KT 10SM CLR M01/M06 A2991 880 69 -800 060/04 RMK AO2
14837KMSN MSN20060228174010102/28/06 17:40:31  5-MIN KMSN 282340Z 07004KT 10SM CLR M01/M06 A2990 880 69 -800 070/04 RMK AO2 4/003
14837KMSN MSN20060228174510102/28/06 17:45:31  5-MIN KMSN 282345Z 06005KT 10SM CLR M01/M06 A2990 880 69 -800 050/05 RMK AO2 4/003
14837KMSN MSN20060228175013602/28/06 17:50:31  5-MIN KMSN 282350Z 05005KT 10SM CLR M02/M06 A2990 880 72 -900 050/05 RMK AO2 SLP139 4/003 T10171061 10006 21017 56030
14837KMSN MSN20060228175509502/28/06 17:55:31  5-MIN KMSN 282355Z 04005KT 10SM CLR M02/M06 A2991 870 72 -900 040/05 RMK AO2
14837KMSN MSN20060228180009502/28/06 18:00:31  5-MIN KMSN 010000Z 02004KT 10SM CLR M01/M07 A2992 870 66 -800 020/04 RMK AO2
14837KMSN MSN20060228180509502/28/06 18:05:31  5-MIN KMSN 010005Z 01004KT 10SM CLR M01/M07 A2991 870 66 -800 010/04 RMK AO2
14837KMSN MSN20060228181009502/28/06 18:10:31  5-MIN KMSN 010010Z 04007KT 10SM CLR M01/M07 A2990 880 66 -800 040/07 RMK AO2
14837KMSN MSN20060228181509502/28/06 18:15:31  5-MIN KMSN 010015Z 04007KT 10SM CLR M01/M07 A2990 880 66 -800 040/07 RMK AO2
14837KMSN MSN20060228182009502/28/06 18:20:31  5-MIN KMSN 010020Z 04007KT 10SM CLR M02/M07 A2990 880 72 -900 040/07 RMK AO2
14837KMSN MSN20060228182509502/28/06 18:25:31  5-MIN KMSN 010025Z 05007KT 10SM CLR M02/M07 A2990 880 72 -900 050/07 RMK AO2
14837KMSN MSN20060228183009502/28/06 18:30:31  5-MIN KMSN 010030Z 05006KT 10SM CLR M02/M07 A2991 880 72 -900 050/06 RMK AO2
14837KMSN MSN20060228183509502/28/06 18:35:31  5-MIN KMSN 010035Z 05006KT 10SM CLR M02/M07 A2990 880 72 -900 050/06 RMK AO2
14837KMSN MSN20060228184009502/28/06 18:40:31  5-MIN KMSN 010040Z 05006KT 10SM CLR M02/M07 A2991 880 72 -900 050/06 RMK AO2
14837KMSN MSN20060228184509502/28/06 18:45:31  5-MIN KMSN 010045Z 05005KT 10SM CLR M02/M07 A2991 870 72 -900 050/05 RMK AO2
14837KMSN MSN20060228185011202/28/06 18:50:31  5-MIN KMSN 010050Z 05005KT 10SM CLR M02/M07 A2991 870 72 -900 050/05 RMK AO2 SLP142 T10221067
14837KMSN MSN20060228185509502/28/06 18:55:31  5-MIN KMSN 010055Z 05005KT 10SM CLR M02/M07 A2992 870 72 -900 050/05 RMK AO2
14837KMSN MSN20060228190009502/28/06 19:00:31  5-MIN KMSN 010100Z 05006KT 10SM CLR M02/M07 A2991 870 72 -900 050/06 RMK AO2
14837KMSN MSN20060228190509502/28/06 19:05:31  5-MIN KMSN 010105Z 05006KT 10SM CLR M02/M07 A2991 870 72 -900 050/06 RMK AO2
14837KMSN MSN20060228191009502/28/06 19:10:31  5-MIN KMSN 010110Z 05005KT 10SM CLR M02/M07 A2991 870 72 -900 050/05 RMK AO2
14837KMSN MSN20060228191509502/28/06 19:15:31  5-MIN KMSN 010115Z 06004KT 10SM CLR M02/M07 A2991 870 72 -900 060/04 RMK AO2
14837KMSN MSN20060228192009602/28/06 19:20:31  5-MIN KMSN 010120Z 06004KT 10SM CLR M03/M07 A2991 880 75 -1000 060/04 RMK AO2
14837KMSN MSN20060228192509602/28/06 19:25:31  5-MIN KMSN 010125Z 06004KT 10SM CLR M03/M07 A2991 880 75 -1000 060/04 RMK AO2
14837KMSN MSN20060228193009602/28/06 19:30:31  5-MIN KMSN 010130Z 06004KT 10SM CLR M03/M07 A2990 880 71 -1000 060/04 RMK AO2
14837KMSN MSN20060228193509602/28/06 19:35:31  5-MIN KMSN 010135Z 07003KT 10SM CLR M03/M07 A2991 870 71 -1000 070/03 RMK AO2
14837KMSN MSN20060228194009602/28/06 19:40:31  5-MIN KMSN 010140Z 07004KT 10SM CLR M03/M07 A2991 880 71 -1000 070/04 RMK AO2
14837KMSN MSN20060228194509502/28/06 19:45:31  5-MIN KMSN 010145Z 08003KT 10SM CLR M02/M07 A2991 870 69 -900 080/03 RMK AO2
14837KMSN MSN20060228195011202/28/06 19:50:31  5-MIN KMSN 010150Z 07006KT 10SM CLR M02/M07 A2991 870 69 -900 070/06 RMK AO2 SLP143 T10221072
14837KMSN MSN20060228195509502/28/06 19:55:31  5-MIN KMSN 010155Z 07005KT 10SM CLR M02/M07 A2992 860 69 -900 070/05 RMK AO2
14837KMSN MSN20060228200009502/28/06 20:00:31  5-MIN KMSN 010200Z 08007KT 10SM CLR M02/M07 A2992 860 69 -900 070/07 RMK AO2
14837KMSN MSN20060228200509602/28/06 20:05:31  5-MIN KMSN 010205Z 07005KT 10SM CLR M02/M07 A2992 860 69 -1000 070/05 RMK AO2
14837KMSN MSN20060228201009502/28/06 20:10:31  5-MIN KMSN 010210Z 07005KT 10SM CLR M02/M07 A2992 860 69 -900 070/05 RMK AO2
14837KMSN MSN20060228201509502/28/06 20:15:31  5-MIN KMSN 010215Z 07006KT 10SM CLR M02/M07 A2992 860 69 -900 070/06 RMK AO2
14837KMSN MSN20060228202009502/28/06 20:20:31  5-MIN KMSN 010220Z 07007KT 10SM CLR M02/M07 A2992 870 69 -900 070/07 RMK AO2
14837KMSN MSN20060228202509502/28/06 20:25:31  5-MIN KMSN 010225Z 08007KT 10SM CLR M02/M07 A2992 870 69 -900 070/07 RMK AO2
14837KMSN MSN20060228203009502/28/06 20:30:31  5-MIN KMSN 010230Z 08006KT 10SM CLR M02/M07 A2992 870 69 -900 080/06 RMK AO2
14837KMSN MSN20060228203509502/28/06 20:35:31  5-MIN KMSN 010235Z 08008KT 10SM CLR M02/M07 A2992 870 72 -900 080/08 RMK AO2
14837KMSN MSN20060228204009602/28/06 20:40:31  5-MIN KMSN 010240Z 09006KT 10SM CLR M02/M07 A2992 860 72 -1000 090/06 RMK AO2
14837KMSN MSN20060228204509602/28/06 20:45:31  5-MIN KMSN 010245Z 08006KT 10SM CLR M02/M07 A2992 860 72 -1000 080/06 RMK AO2
14837KMSN MSN20060228205011902/28/06 20:50:31  5-MIN KMSN 010250Z 07007KT 10SM CLR M03/M07 A2992 860 75 -1000 070/07 RMK AO2 SLP145 T10281067 55008
14837KMSN MSN20060228205509602/28/06 20:55:31  5-MIN KMSN 010255Z 07007KT 10SM CLR M03/M07 A2992 860 75 -1000 070/07 RMK AO2
14837KMSN MSN20060228210009602/28/06 21:00:31  5-MIN KMSN 010300Z 07006KT 10SM CLR M03/M07 A2993 860 75 -1000 070/06 RMK AO2
14837KMSN MSN20060228210509602/28/06 21:05:31  5-MIN KMSN 010305Z 07006KT 10SM CLR M03/M07 A2993 860 75 -1000 070/06 RMK AO2
14837KMSN MSN20060228211009602/28/06 21:10:31  5-MIN KMSN 010310Z 08006KT 10SM CLR M03/M07 A2993 860 75 -1000 080/06 RMK AO2
14837KMSN MSN20060228211509602/28/06 21:15:31  5-MIN KMSN 010315Z 08006KT 10SM CLR M03/M07 A2993 860 75 -1000 080/06 RMK AO2
14837KMSN MSN20060228212009602/28/06 21:20:31  5-MIN KMSN 010320Z 08006KT 10SM CLR M03/M07 A2993 850 75 -1000 070/06 RMK AO2
14837KMSN MSN20060228212509602/28/06 21:25:31  5-MIN KMSN 010325Z 08005KT 10SM CLR M03/M07 A2993 850 75 -1000 080/05 RMK AO2
14837KMSN MSN20060228213009602/28/06 21:30:31  5-MIN KMSN 010330Z 07005KT 10SM CLR M03/M07 A2993 850 78 -1100 070/05 RMK AO2
14837KMSN MSN20060228213509602/28/06 21:35:31  5-MIN KMSN 010335Z 08005KT 10SM CLR M03/M07 A2993 850 78 -1100 080/05 RMK AO2
14837KMSN MSN20060228214009602/28/06 21:40:31  5-MIN KMSN 010340Z 09005KT 10SM CLR M03/M07 A2994 850 78 -1100 090/05 RMK AO2
14837KMSN MSN20060228214509602/28/06 21:45:31  5-MIN KMSN 010345Z 08005KT 10SM CLR M03/M07 A2994 840 74 -1100 080/05 RMK AO2
14837KMSN MSN20060228215011302/28/06 21:50:31  5-MIN KMSN 010350Z 09005KT 10SM CLR M03/M07 A2994 850 75 -1000 090/05 RMK AO2 SLP151 T10281067
14837KMSN MSN20060228215509602/28/06 21:55:31  5-MIN KMSN 010355Z 10004KT 10SM CLR M03/M07 A2994 850 74 -1100 100/04 RMK AO2
14837KMSN MSN20060228220009602/28/06 22:00:31  5-MIN KMSN 010400Z 11004KT 10SM CLR M03/M07 A2994 850 74 -1100 110/04 RMK AO2
14837KMSN MSN20060228220509602/28/06 22:05:31  5-MIN KMSN 010405Z 11006KT 10SM CLR M03/M07 A2994 850 74 -1100 110/06 RMK AO2
14837KMSN MSN20060228221009602/28/06 22:10:31  5-MIN KMSN 010410Z 11008KT 10SM CLR M03/M07 A2994 850 71 -1000 110/08 RMK AO2
14837KMSN MSN20060228221509602/28/06 22:15:31  5-MIN KMSN 010415Z 11008KT 10SM CLR M03/M08 A2993 850 71 -1100 110/08 RMK AO2
14837KMSN MSN20060228222009602/28/06 22:20:31  5-MIN KMSN 010420Z 12007KT 10SM CLR M03/M08 A2994 850 71 -1100 120/07 RMK AO2
14837KMSN MSN20060228222509602/28/06 22:25:31  5-MIN KMSN 010425Z 12006KT 10SM CLR M03/M08 A2994 850 71 -1100 120/06 RMK AO2
14837KMSN MSN20060228223009602/28/06 22:30:31  5-MIN KMSN 010430Z 12005KT 10SM CLR M03/M08 A2994 840 71 -1100 120/05 RMK AO2
14837KMSN MSN20060228223509602/28/06 22:35:31  5-MIN KMSN 010435Z 12006KT 10SM CLR M03/M08 A2994 840 71 -1100 120/06 RMK AO2
14837KMSN MSN20060228224009602/28/06 22:40:31  5-MIN KMSN 010440Z 12006KT 10SM CLR M03/M08 A2994 840 71 -1100 120/06 RMK AO2
14837KMSN MSN20060228224509602/28/06 22:45:31  5-MIN KMSN 010445Z 11005KT 10SM CLR M03/M08 A2994 840 71 -1100 100/05 RMK AO2
14837KMSN MSN20060228225011302/28/06 22:50:31  5-MIN KMSN 010450Z 09004KT 10SM CLR M03/M08 A2994 850 71 -1100 090/04 RMK AO2 SLP150 T10331078
14837KMSN MSN20060228225509602/28/06 22:55:31  5-MIN KMSN 010455Z 09005KT 10SM CLR M03/M08 A2994 850 71 -1100 090/05 RMK AO2
14837KMSN MSN20060228230009602/28/06 23:00:31  5-MIN KMSN 010500Z 10007KT 10SM CLR M03/M08 A2994 850 71 -1100 100/07 RMK AO2
14837KMSN MSN20060228230509602/28/06 23:05:31  5-MIN KMSN 010505Z 09007KT 10SM CLR M03/M08 A2994 850 71 -1100 090/07 RMK AO2
14837KMSN MSN20060228231009602/28/06 23:10:31  5-MIN KMSN 010510Z 10005KT 10SM CLR M03/M08 A2994 850 71 -1100 100/05 RMK AO2
14837KMSN MSN20060228231509602/28/06 23:15:31  5-MIN KMSN 010515Z 12005KT 10SM CLR M03/M08 A2994 840 71 -1100 120/05 RMK AO2
14837KMSN MSN20060228232009602/28/06 23:20:31  5-MIN KMSN 010520Z 11006KT 10SM CLR M03/M08 A2994 840 71 -1100 110/06 RMK AO2
14837KMSN MSN20060228232509602/28/06 23:25:31  5-MIN KMSN 010525Z 12006KT 10SM CLR M04/M08 A2995 840 74 -1200 120/06 RMK AO2
14837KMSN MSN20060228233009602/28/06 23:30:31  5-MIN KMSN 010530Z 11006KT 10SM CLR M04/M07 A2994 850 78 -1200 110/06 RMK AO2
14837KMSN MSN20060228233509602/28/06 23:35:31  5-MIN KMSN 010535Z 11007KT 10SM CLR M04/M07 A2994 850 78 -1200 110/07 RMK AO2
14837KMSN MSN20060228234009602/28/06 23:40:31  5-MIN KMSN 010540Z 10008KT 10SM CLR M04/M07 A2994 850 78 -1200 100/08 RMK AO2
14837KMSN MSN20060228234509602/28/06 23:45:31  5-MIN KMSN 010545Z 11006KT 10SM CLR M04/M07 A2994 840 78 -1200 110/06 RMK AO2
14837KMSN MSN20060228235014702/28/06 23:50:31  5-MIN KMSN 010550Z 11006KT 10SM CLR M04/M07 A2994 840 78 -1200 110/06 RMK AO2 SLP151 4/003 T10391072 11011 21039 400061094 51005
14837KMSN MSN20060228235509602/28/06 23:55:31  5-MIN KMSN 010555Z 11006KT 10SM CLR M04/M07 A2994 850 78 -1200 110/06 RMK AO2
