14837KMSN MSN20020901000009509/01/02 00:00:32  5-MIN KMSN 010600Z 00000KT 6SM BR CLR 17/16 A3020 610 93 1100 000/00 RMK AO2
14837KMSN MSN20020901000509509/01/02 00:05:31  5-MIN KMSN 010605Z 00000KT 6SM BR CLR 17/16 A3020 610 93 1100 000/00 RMK AO2
14837KMSN MSN20020901001009509/01/02 00:10:31  5-MIN KMSN 010610Z 00000KT 6SM BR CLR 17/16 A3019 610 90 1100 000/00 RMK AO2
14837KMSN MSN20020901001509509/01/02 00:15:31  5-MIN KMSN 010615Z 00000KT 5SM BR CLR 17/16 A3020 610 93 1100 000/00 RMK AO2
14837KMSN MSN20020901002009509/01/02 00:20:31  5-MIN KMSN 010620Z 00000KT 5SM BR CLR 17/16 A3020 610 93 1000 000/00 RMK AO2
14837KMSN MSN20020901002509509/01/02 00:25:31  5-MIN KMSN 010625Z 00000KT 5SM BR CLR 17/16 A3019 610 93 1000 000/00 RMK AO2
14837KMSN MSN20020901003009509/01/02 00:30:31  5-MIN KMSN 010630Z 00000KT 5SM BR CLR 17/16 A3019 610 93 1100 000/00 RMK AO2
14837KMSN MSN20020901003509409/01/02 00:35:31  5-MIN KMSN 010635Z 00000KT 4SM BR CLR 16/15 A3019 610 96 900 000/00 RMK AO2
14837KMSN MSN20020901004009409/01/02 00:40:31  5-MIN KMSN 010640Z 00000KT 4SM BR CLR 16/16 A3019 610 96 900 000/00 RMK AO2
14837KMSN MSN20020901004509409/01/02 00:45:31  5-MIN KMSN 010645Z 00000KT 4SM BR CLR 16/15 A3019 620 96 900 000/00 RMK AO2
14837KMSN MSN20020901005011109/01/02 00:50:31  5-MIN KMSN 010650Z 00000KT 4SM BR CLR 16/15 A3019 610 96 900 000/00 RMK AO2 SLP220 T01560150
14837KMSN MSN20020901005509409/01/02 00:55:31  5-MIN KMSN 010655Z 00000KT 3SM BR CLR 16/15 A3019 610 96 900 000/00 RMK AO2
14837KMSN MSN20020901010009409/01/02 01:00:31  5-MIN KMSN 010700Z 00000KT 3SM BR CLR 16/15 A3019 620 96 900 000/00 RMK AO2
14837KMSN MSN20020901010509409/01/02 01:05:31  5-MIN KMSN 010705Z 00000KT 3SM BR CLR 16/15 A3019 620 96 900 000/00 RMK AO2
14837KMSN MSN20020901011009409/01/02 01:10:31  5-MIN KMSN 010710Z 00000KT 3SM BR CLR 16/16 A3019 620 96 900 000/00 RMK AO2
14837KMSN MSN20020901011509409/01/02 01:15:31  5-MIN KMSN 010715Z 00000KT 3SM BR CLR 16/15 A3019 620 96 900 000/00 RMK AO2
14837KMSN MSN20020901012009409/01/02 01:20:31  5-MIN KMSN 010720Z 00000KT 3SM BR CLR 16/15 A3019 620 96 900 000/00 RMK AO2
14837KMSN MSN20020901012509809/01/02 01:25:31  5-MIN KMSN 010725Z 00000KT 2 1/2SM BR CLR 16/15 A3019 620 96 900 000/00 RMK AO2
14837KMSN MSN20020901013009509/01/02 01:30:31  5-MIN KMSN 010730Z 00000KT 3SM BR CLR 16/16 A3018 620 100 900 000/00 RMK AO2
14837KMSN MSN20020901013509409/01/02 01:35:31  5-MIN KMSN 010735Z 00000KT 4SM BR CLR 16/15 A3018 620 96 900 000/00 RMK AO2
14837KMSN MSN20020901014009409/01/02 01:40:31  5-MIN KMSN 010740Z 00000KT 3SM BR CLR 16/16 A3019 620 96 900 000/00 RMK AO2
14837KMSN MSN20020901014509909/01/02 01:45:31  5-MIN KMSN 010745Z 00000KT 2 1/2SM BR CLR 16/16 A3019 620 100 900 000/00 RMK AO2
14837KMSN MSN20020901015011109/01/02 01:50:31  5-MIN KMSN 010750Z 00000KT 2SM BR CLR 16/15 A3018 620 96 900 000/00 RMK AO2 SLP219 T01560150
14837KMSN MSN20020901015509409/01/02 01:55:31  5-MIN KMSN 010755Z 00000KT 2SM BR CLR 16/15 A3018 620 96 900 000/00 RMK AO2
14837KMSN MSN20020901020009809/01/02 02:00:31  5-MIN KMSN 010800Z 00000KT 2 1/2SM BR CLR 16/15 A3018 620 96 900 000/00 RMK AO2
14837KMSN MSN20020901020509809/01/02 02:05:31  5-MIN KMSN 010805Z 00000KT 2 1/2SM BR CLR 16/15 A3019 620 96 900 000/00 RMK AO2
14837KMSN MSN20020901021009809/01/02 02:10:31  5-MIN KMSN 010810Z 00000KT 1 3/4SM BR CLR 15/14 A3019 620 96 800 000/00 RMK AO2
14837KMSN MSN20020901021509809/01/02 02:15:31  5-MIN KMSN 010815Z 00000KT 1 1/2SM BR CLR 15/14 A3019 610 96 800 000/00 RMK AO2
14837KMSN MSN20020901022009809/01/02 02:20:31  5-MIN KMSN 010820Z 00000KT 1 1/2SM BR CLR 15/14 A3019 620 96 800 000/00 RMK AO2
14837KMSN MSN20020901022509809/01/02 02:25:31  5-MIN KMSN 010825Z 00000KT 1 1/2SM BR CLR 15/14 A3019 620 96 800 000/00 RMK AO2
14837KMSN MSN20020901023009409/01/02 02:30:31  5-MIN KMSN 010830Z 00000KT 3SM BR CLR 15/14 A3018 620 96 800 000/00 RMK AO2
14837KMSN MSN20020901023509409/01/02 02:35:31  5-MIN KMSN 010835Z 00000KT 3SM BR CLR 14/14 A3018 620 96 700 000/00 RMK AO2
14837KMSN MSN20020901024009409/01/02 02:40:31  5-MIN KMSN 010840Z 00000KT 3SM BR CLR 14/13 A3018 620 96 700 000/00 RMK AO2
14837KMSN MSN20020901024509409/01/02 02:45:31  5-MIN KMSN 010845Z 00000KT 3SM BR CLR 15/14 A3018 620 96 800 000/00 RMK AO2
14837KMSN MSN20020901025011709/01/02 02:50:31  5-MIN KMSN 010850Z 00000KT 3SM BR CLR 14/14 A3018 620 96 700 000/00 RMK AO2 SLP219 T01440139 58007
14837KMSN MSN20020901025509409/01/02 02:55:31  5-MIN KMSN 010855Z 00000KT 4SM BR CLR 15/14 A3019 620 96 800 000/00 RMK AO2
14837KMSN MSN20020901030009509/01/02 03:00:31  5-MIN KMSN 010900Z 00000KT 4SM BR CLR 14/14 A3018 620 100 700 000/00 RMK AO2
14837KMSN MSN20020901030509409/01/02 03:05:31  5-MIN KMSN 010905Z 00000KT 4SM BR CLR 15/14 A3018 620 96 800 000/00 RMK AO2
14837KMSN MSN20020901031009409/01/02 03:10:31  5-MIN KMSN 010910Z 00000KT 4SM BR CLR 15/14 A3018 620 96 800 000/00 RMK AO2
14837KMSN MSN20020901031509409/01/02 03:15:31  5-MIN KMSN 010915Z 00000KT 4SM BR CLR 15/14 A3018 620 96 800 000/00 RMK AO2
14837KMSN MSN20020901032009409/01/02 03:20:31  5-MIN KMSN 010920Z 00000KT 4SM BR CLR 16/14 A3018 630 93 900 000/00 RMK AO2
14837KMSN MSN20020901032509409/01/02 03:25:31  5-MIN KMSN 010925Z 00000KT 4SM BR CLR 15/14 A3018 630 96 800 000/00 RMK AO2
14837KMSN MSN20020901033009409/01/02 03:30:31  5-MIN KMSN 010930Z 00000KT 4SM BR CLR 16/14 A3018 630 93 900 000/00 RMK AO2
14837KMSN MSN20020901033509409/01/02 03:35:31  5-MIN KMSN 010935Z 00000KT 4SM BR CLR 15/14 A3018 620 96 800 000/00 RMK AO2
14837KMSN MSN20020901034009409/01/02 03:40:31  5-MIN KMSN 010940Z 00000KT 5SM BR CLR 15/14 A3018 630 96 800 000/00 RMK AO2
14837KMSN MSN20020901034509509/01/02 03:45:31  5-MIN KMSN 010945Z 00000KT 5SM BR CLR 15/15 A3018 630 100 800 000/00 RMK AO2
14837KMSN MSN20020901035011109/01/02 03:50:31  5-MIN KMSN 010950Z 00000KT 5SM BR CLR 15/14 A3017 630 96 800 000/00 RMK AO2 SLP213 T01500144
14837KMSN MSN20020901035509409/01/02 03:55:31  5-MIN KMSN 010955Z 00000KT 5SM BR CLR 16/15 A3017 630 96 900 000/00 RMK AO2
14837KMSN MSN20020901040009509/01/02 04:00:31  5-MIN KMSN 011000Z 00000KT 5SM BR CLR 15/15 A3017 630 100 800 000/00 RMK AO2
14837KMSN MSN20020901040509509/01/02 04:05:31  5-MIN KMSN 011005Z 00000KT 5SM BR CLR 14/14 A3017 630 100 800 000/00 RMK AO2
14837KMSN MSN20020901041010009/01/02 04:10:31  5-MIN KMSN 011010Z 00000KT 4SM BR BCFG CLR 14/14 A3017 630 100 800 000/00 RMK AO2
14837KMSN MSN20020901041509909/01/02 04:15:31  5-MIN KMSN 011015Z 00000KT 4SM BR BCFG CLR 15/14 A3017 630 96 800 000/00 RMK AO2
14837KMSN MSN20020901042010009/01/02 04:20:31  5-MIN KMSN 011020Z 00000KT 4SM BR BCFG CLR 15/15 A3017 630 100 800 000/00 RMK AO2
14837KMSN MSN20020901042509909/01/02 04:25:31  5-MIN KMSN 011025Z 00000KT 4SM BR BCFG CLR 15/14 A3017 630 96 800 000/00 RMK AO2
14837KMSN MSN20020901043009909/01/02 04:30:31  5-MIN KMSN 011030Z 00000KT 4SM BR BCFG CLR 15/14 A3017 630 96 800 000/00 RMK AO2
14837KMSN MSN20020901043509909/01/02 04:35:31  5-MIN KMSN 011035Z 00000KT 4SM BR BCFG CLR 15/14 A3017 630 96 800 000/00 RMK AO2
14837KMSN MSN20020901044009909/01/02 04:40:31  5-MIN KMSN 011040Z 00000KT 4SM BR BCFG CLR 15/14 A3017 630 96 800 000/00 RMK AO2
14837KMSN MSN20020901044509909/01/02 04:45:31  5-MIN KMSN 011045Z 00000KT 5SM BR MIFG CLR 15/14 A3017 630 96 800 000/00 RMK AO2
14837KMSN MSN20020901045011609/01/02 04:50:31  5-MIN KMSN 011050Z 00000KT 5SM BR MIFG CLR 15/14 A3017 630 96 800 000/00 RMK AO2 SLP215 T01500144
14837KMSN MSN20020901045509909/01/02 04:55:31  5-MIN KMSN 011055Z 00000KT 4SM BR MIFG CLR 15/14 A3017 630 93 800 000/00 RMK AO2
14837KMSN MSN20020901050009909/01/02 05:00:31  5-MIN KMSN 011100Z 00000KT 4SM BR MIFG CLR 15/14 A3018 630 96 800 000/00 RMK AO2
14837KMSN MSN20020901050509909/01/02 05:05:31  5-MIN KMSN 011105Z 00000KT 4SM BR BCFG CLR 14/14 A3018 630 96 700 000/00 RMK AO2
14837KMSN MSN20020901051009909/01/02 05:10:31  5-MIN KMSN 011110Z 00000KT 3SM BR BCFG CLR 14/14 A3018 630 96 700 000/00 RMK AO2
14837KMSN MSN20020901051509909/01/02 05:15:31  5-MIN KMSN 011115Z 00000KT 3SM BR BCFG CLR 14/14 A3018 630 96 700 000/00 RMK AO2
14837KMSN MSN20020901052009909/01/02 05:20:31  5-MIN KMSN 011120Z 00000KT 3SM BR BCFG CLR 14/14 A3018 630 96 700 000/00 RMK AO2
14837KMSN MSN20020901052509909/01/02 05:25:31  5-MIN KMSN 011125Z 00000KT 3SM BR BCFG CLR 16/14 A3018 620 93 900 000/00 RMK AO2
14837KMSN MSN20020901053009909/01/02 05:30:31  5-MIN KMSN 011130Z 00000KT 3SM BR BCFG CLR 16/14 A3018 620 90 900 000/00 RMK AO2
14837KMSN MSN20020901053509909/01/02 05:35:31  5-MIN KMSN 011135Z 00000KT 3SM BR BCFG CLR 16/14 A3018 620 93 900 000/00 RMK AO2
14837KMSN MSN20020901054009909/01/02 05:40:31  5-MIN KMSN 011140Z 00000KT 3SM BR BCFG CLR 16/14 A3018 620 93 900 000/00 RMK AO2
14837KMSN MSN20020901054509909/01/02 05:45:31  5-MIN KMSN 011145Z 00000KT 3SM BR BCFG CLR 16/14 A3018 620 93 900 000/00 RMK AO2
14837KMSN MSN20020901055013409/01/02 05:50:31  5-MIN KMSN 011150Z 15004KT 3SM BR BCFG CLR 16/14 A3018 630 90 900 150/04 RMK AO2 SLP217 T01610144 10178 20139 55005
14837KMSN MSN20020901055509909/01/02 05:55:31  5-MIN KMSN 011155Z 16004KT 3SM BR BCFG CLR 16/15 A3018 630 93 900 160/04 RMK AO2
14837KMSN MSN20020901060009909/01/02 06:00:31  5-MIN KMSN 011200Z 17003KT 3SM BR BCFG CLR 16/14 A3018 630 93 900 160/03 RMK AO2
14837KMSN MSN20020901060509909/01/02 06:05:31  5-MIN KMSN 011205Z 16004KT 3SM BR BCFG CLR 16/14 A3018 630 90 900 160/04 RMK AO2
14837KMSN MSN20020901061010009/01/02 06:10:31  5-MIN KMSN 011210Z 16005KT 3SM BR BCFG CLR 17/16 A3018 630 93 1100 160/05 RMK AO2
14837KMSN MSN20020901061510009/01/02 06:15:31  5-MIN KMSN 011215Z 17004KT 3SM BR BCFG CLR 18/16 A3018 630 90 1100 170/04 RMK AO2
14837KMSN MSN20020901062010009/01/02 06:20:31  5-MIN KMSN 011220Z 18004KT 3SM BR BCFG CLR 18/16 A3018 630 90 1100 180/04 RMK AO2
14837KMSN MSN20020901062510009/01/02 06:25:31  5-MIN KMSN 011225Z 17004KT 3SM BR BCFG CLR 18/16 A3018 630 90 1100 170/04 RMK AO2
14837KMSN MSN20020901063010009/01/02 06:30:31  5-MIN KMSN 011230Z 17004KT 3SM BR BCFG CLR 18/16 A3018 630 90 1100 170/04 RMK AO2
14837KMSN MSN20020901063510009/01/02 06:35:31  5-MIN KMSN 011235Z 16005KT 3SM BR BCFG CLR 18/16 A3018 630 90 1100 160/05 RMK AO2
14837KMSN MSN20020901064010009/01/02 06:40:31  5-MIN KMSN 011240Z 17005KT 3SM BR BCFG CLR 18/16 A3018 630 87 1200 160/05 RMK AO2
14837KMSN MSN20020901064510009/01/02 06:45:31  5-MIN KMSN 011245Z 16004KT 3SM BR BCFG CLR 18/17 A3018 630 90 1200 160/04 RMK AO2
14837KMSN MSN20020901065011209/01/02 06:50:31  5-MIN KMSN 011250Z 16005KT 3SM BR CLR 18/17 A3017 630 90 1200 160/05 RMK AO2 SLP215 T01830167
14837KMSN MSN20020901065509509/01/02 06:55:31  5-MIN KMSN 011255Z 16005KT 3SM BR CLR 18/17 A3017 630 90 1200 160/05 RMK AO2
14837KMSN MSN20020901070009509/01/02 07:00:31  5-MIN KMSN 011300Z 17006KT 3SM BR CLR 19/17 A3017 630 87 1300 170/06 RMK AO2
14837KMSN MSN20020901070509509/01/02 07:05:31  5-MIN KMSN 011305Z 17005KT 3SM BR CLR 19/17 A3018 630 87 1300 170/05 RMK AO2
14837KMSN MSN20020901071009509/01/02 07:10:31  5-MIN KMSN 011310Z 17005KT 4SM BR CLR 19/17 A3017 630 87 1300 170/05 RMK AO2
14837KMSN MSN20020901071509509/01/02 07:15:31  5-MIN KMSN 011315Z 17006KT 4SM BR CLR 19/17 A3018 630 87 1300 160/06 RMK AO2
14837KMSN MSN20020901072009509/01/02 07:20:31  5-MIN KMSN 011320Z 16007KT 4SM BR CLR 19/17 A3017 630 87 1300 160/07 RMK AO2
14837KMSN MSN20020901072509509/01/02 07:25:31  5-MIN KMSN 011325Z 16007KT 4SM BR CLR 19/17 A3017 630 87 1300 160/07 RMK AO2
14837KMSN MSN20020901073009509/01/02 07:30:31  5-MIN KMSN 011330Z 16006KT 4SM HZ CLR 20/17 A3017 630 84 1400 160/06 RMK AO2
14837KMSN MSN20020901073509509/01/02 07:35:31  5-MIN KMSN 011335Z 16007KT 4SM HZ CLR 20/17 A3018 630 84 1400 160/07 RMK AO2
14837KMSN MSN20020901074009509/01/02 07:40:31  5-MIN KMSN 011340Z 16006KT 4SM HZ CLR 20/17 A3018 630 84 1400 160/06 RMK AO2
14837KMSN MSN20020901074509509/01/02 07:45:31  5-MIN KMSN 011345Z 17006KT 4SM HZ CLR 21/17 A3017 630 81 1500 170/06 RMK AO2
14837KMSN MSN20020901075011209/01/02 07:50:31  5-MIN KMSN 011350Z 18005KT 5SM HZ CLR 21/17 A3017 630 78 1500 180/05 RMK AO2 SLP215 T02110172
14837KMSN MSN20020901075509509/01/02 07:55:31  5-MIN KMSN 011355Z 18006KT 5SM HZ CLR 21/17 A3017 630 78 1500 180/06 RMK AO2
14837KMSN MSN20020901080009509/01/02 08:00:31  5-MIN KMSN 011400Z 17006KT 5SM HZ CLR 21/17 A3017 630 78 1500 160/06 RMK AO2
14837KMSN MSN20020901080509509/01/02 08:05:31  5-MIN KMSN 011405Z 18006KT 6SM HZ CLR 22/17 A3017 630 75 1600 180/06 RMK AO2
14837KMSN MSN20020901081009509/01/02 08:10:31  5-MIN KMSN 011410Z 16006KT 6SM HZ CLR 22/18 A3017 640 78 1600 160/06 RMK AO2
14837KMSN MSN20020901081509509/01/02 08:15:31  5-MIN KMSN 011415Z 17006KT 6SM HZ CLR 22/18 A3017 640 78 1600 160/06 RMK AO2
14837KMSN MSN20020901082009509/01/02 08:20:31  5-MIN KMSN 011420Z 17005KT 6SM HZ CLR 22/18 A3017 640 75 1700 170/05 RMK AO2
14837KMSN MSN20020901082509209/01/02 08:25:31  5-MIN KMSN 011425Z 18005KT 7SM CLR 22/17 A3017 640 73 1700 180/05 RMK AO2
14837KMSN MSN20020901083009209/01/02 08:30:31  5-MIN KMSN 011430Z 18005KT 7SM CLR 22/17 A3017 640 73 1700 180/05 RMK AO2
14837KMSN MSN20020901083509209/01/02 08:35:31  5-MIN KMSN 011435Z 17006KT 7SM CLR 23/18 A3017 640 73 1700 170/06 RMK AO2
14837KMSN MSN20020901084009209/01/02 08:40:31  5-MIN KMSN 011440Z 16006KT 7SM CLR 23/18 A3016 640 73 1700 160/06 RMK AO2
14837KMSN MSN20020901084509209/01/02 08:45:31  5-MIN KMSN 011445Z 17006KT 7SM CLR 23/18 A3016 640 73 1700 160/06 RMK AO2
14837KMSN MSN20020901085011509/01/02 08:50:31  5-MIN KMSN 011450Z 17005KT 7SM CLR 23/18 A3016 640 70 1800 170/05 RMK AO2 SLP210 T02330178 55002
14837KMSN MSN20020901085509209/01/02 08:55:31  5-MIN KMSN 011455Z 16006KT 7SM CLR 23/18 A3016 640 70 1800 160/06 RMK AO2
14837KMSN MSN20020901090009209/01/02 09:00:31  5-MIN KMSN 011500Z 16006KT 8SM CLR 23/18 A3016 640 70 1800 160/06 RMK AO2
14837KMSN MSN20020901090509209/01/02 09:05:31  5-MIN KMSN 011505Z 17005KT 8SM CLR 24/18 A3016 650 68 1900 170/05 RMK AO2
14837KMSN MSN20020901091009209/01/02 09:10:31  5-MIN KMSN 011510Z 18007KT 8SM CLR 24/18 A3016 650 68 1900 180/07 RMK AO2
14837KMSN MSN20020901091509209/01/02 09:15:31  5-MIN KMSN 011515Z 17005KT 9SM CLR 24/18 A3015 650 68 1900 160/05 RMK AO2
14837KMSN MSN20020901092009209/01/02 09:20:31  5-MIN KMSN 011520Z 16006KT 9SM CLR 24/18 A3015 650 66 1900 160/06 RMK AO2
14837KMSN MSN20020901092509209/01/02 09:25:31  5-MIN KMSN 011525Z 18006KT 9SM CLR 24/18 A3015 650 66 1900 180/06 RMK AO2
14837KMSN MSN20020901093009309/01/02 09:30:31  5-MIN KMSN 011530Z 17007KT 10SM CLR 25/18 A3015 660 66 2000 170/07 RMK AO2
14837KMSN MSN20020901093509309/01/02 09:35:31  5-MIN KMSN 011535Z 17007KT 10SM CLR 25/18 A3014 660 64 2000 170/07 RMK AO2
14837KMSN MSN20020901094009309/01/02 09:40:31  5-MIN KMSN 011540Z 17008KT 10SM CLR 25/18 A3014 660 64 2000 170/08 RMK AO2
14837KMSN MSN20020901094509309/01/02 09:45:31  5-MIN KMSN 011545Z 18008KT 10SM CLR 25/18 A3014 660 64 2000 180/08 RMK AO2
14837KMSN MSN20020901095011009/01/02 09:50:31  5-MIN KMSN 011550Z 16008KT 10SM CLR 26/18 A3014 660 61 2100 160/08 RMK AO2 SLP202 T02560178
14837KMSN MSN20020901095509309/01/02 09:55:31  5-MIN KMSN 011555Z 21006KT 10SM CLR 26/18 A3014 660 59 2100 210/06 RMK AO2
14837KMSN MSN20020901100009309/01/02 10:00:31  5-MIN KMSN 011600Z 21006KT 10SM CLR 26/18 A3014 660 59 2100 210/06 RMK AO2
14837KMSN MSN20020901100509309/01/02 10:05:31  5-MIN KMSN 011605Z 21008KT 10SM CLR 26/18 A3014 660 59 2100 210/08 RMK AO2
14837KMSN MSN20020901101009209/01/02 10:10:31  5-MIN KMSN 011610Z 19008KT 9SM CLR 26/18 A3014 660 59 2100 190/08 RMK AO2
14837KMSN MSN20020901101510909/01/02 10:15:31  5-MIN KMSN 011615Z 19007KT 160V220 10SM CLR 26/18 A3014 660 59 2100 190/07 160V220 RMK AO2
14837KMSN MSN20020901102009209/01/02 10:20:31  5-MIN KMSN 011620Z 20007KT 9SM CLR 26/18 A3014 660 59 2100 200/07 RMK AO2
14837KMSN MSN20020901102510809/01/02 10:25:31  5-MIN KMSN 011625Z 22007KT 170V250 9SM CLR 26/18 A3014 660 59 2100 220/07 170V250 RMK AO2
14837KMSN MSN20020901103009209/01/02 10:30:31  5-MIN KMSN 011630Z 20007KT 9SM CLR 26/18 A3013 670 59 2100 200/07 RMK AO2
14837KMSN MSN20020901103509209/01/02 10:35:31  5-MIN KMSN 011635Z 20005KT 9SM CLR 26/18 A3013 670 59 2100 200/05 RMK AO2
14837KMSN MSN20020901104009209/01/02 10:40:31  5-MIN KMSN 011640Z VRB05KT 9SM CLR 26/18 A3013 670 59 2100 VRB/05 RMK AO2
14837KMSN MSN20020901104509209/01/02 10:45:31  5-MIN KMSN 011645Z 19007KT 8SM CLR 26/18 A3013 670 61 2100 190/07 RMK AO2
14837KMSN MSN20020901105011309/01/02 10:50:31  5-MIN KMSN 011650Z 21007KT 10SM FEW035 26/18 A3013 670 61 2100 210/07 RMK AO2 SLP198 T02560178
14837KMSN MSN20020901105509209/01/02 10:55:31  5-MIN KMSN 011655Z 22007KT 8SM CLR 26/18 A3013 670 59 2100 210/07 RMK AO2
14837KMSN MSN20020901110009509/01/02 11:00:31  5-MIN KMSN 011700Z 22007KT 8SM FEW037 26/18 A3013 670 62 2100 220/07 RMK AO2
14837KMSN MSN20020901110509509/01/02 11:05:31  5-MIN KMSN 011705Z VRB06KT 8SM FEW037 27/19 A3012 680 60 2300 VRB/06 RMK AO2
14837KMSN MSN20020901111009509/01/02 11:10:31  5-MIN KMSN 011710Z 20008KT 8SM FEW055 27/18 A3012 680 60 2200 200/08 RMK AO2
14837KMSN MSN20020901111509509/01/02 11:15:31  5-MIN KMSN 011715Z 22009KT 9SM FEW055 27/18 A3012 680 60 2200 220/09 RMK AO2
14837KMSN MSN20020901112009509/01/02 11:20:31  5-MIN KMSN 011720Z 23009KT 9SM FEW055 27/18 A3012 680 57 2200 220/09 RMK AO2
14837KMSN MSN20020901112509209/01/02 11:25:31  5-MIN KMSN 011725Z VRB06KT 9SM CLR 27/18 A3012 680 58 2300 VRB/06 RMK AO2
14837KMSN MSN20020901113010809/01/02 11:30:31  5-MIN KMSN 011730Z 20007KT 180V240 9SM CLR 27/18 A3012 680 58 2300 200/07 180V240 RMK AO2
14837KMSN MSN20020901113509209/01/02 11:35:31  5-MIN KMSN 011735Z 20007KT 9SM CLR 27/18 A3011 690 56 2300 200/07 RMK AO2
14837KMSN MSN20020901114009209/01/02 11:40:31  5-MIN KMSN 011740Z 21005KT 9SM CLR 27/18 A3011 690 56 2300 210/05 RMK AO2
14837KMSN MSN20020901114509209/01/02 11:45:31  5-MIN KMSN 011745Z 18008KT 9SM CLR 27/18 A3011 690 56 2300 180/08 RMK AO2
14837KMSN MSN20020901115013109/01/02 11:50:31  5-MIN KMSN 011750Z 19008KT 10SM FEW045 28/17 A3011 690 52 2400 190/08 RMK AO2 SLP191 T02780172 10278 20156 58006
14837KMSN MSN20020901115509509/01/02 11:55:31  5-MIN KMSN 011755Z 21006KT 9SM FEW060 27/17 A3011 690 52 2300 210/06 RMK AO2
14837KMSN MSN20020901120009509/01/02 12:00:31  5-MIN KMSN 011800Z VRB06KT 9SM FEW049 27/17 A3011 690 54 2300 VRB/06 RMK AO2
14837KMSN MSN20020901120509209/01/02 12:05:31  5-MIN KMSN 011805Z 21007KT 9SM CLR 28/17 A3011 690 52 2400 210/07 RMK AO2
14837KMSN MSN20020901121009209/01/02 12:10:31  5-MIN KMSN 011810Z 23007KT 9SM CLR 28/17 A3011 690 52 2400 220/07 RMK AO2
14837KMSN MSN20020901121509509/01/02 12:15:31  5-MIN KMSN 011815Z 21005KT 9SM FEW050 27/17 A3011 690 54 2300 210/05 RMK AO2
14837KMSN MSN20020901122009509/01/02 12:20:31  5-MIN KMSN 011820Z 23005KT 9SM FEW050 27/17 A3010 700 54 2300 230/05 RMK AO2
14837KMSN MSN20020901122509509/01/02 12:25:31  5-MIN KMSN 011825Z 21006KT 9SM FEW050 28/18 A3010 700 54 2400 210/06 RMK AO2
14837KMSN MSN20020901123009509/01/02 12:30:31  5-MIN KMSN 011830Z 19009KT 9SM FEW050 28/17 A3010 700 50 2400 190/09 RMK AO2
14837KMSN MSN20020901123509509/01/02 12:35:31  5-MIN KMSN 011835Z VRB04KT 9SM FEW050 28/17 A3009 710 50 2400 VRB/04 RMK AO2
14837KMSN MSN20020901124011109/01/02 12:40:31  5-MIN KMSN 011840Z 19007KT 170V230 9SM FEW050 28/17 A3009 710 52 2400 190/07 170V230 RMK AO2
14837KMSN MSN20020901124509509/01/02 12:45:31  5-MIN KMSN 011845Z 22008KT 9SM FEW050 28/17 A3009 710 52 2400 210/08 RMK AO2
14837KMSN MSN20020901125012909/01/02 12:50:31  5-MIN KMSN 011850Z 21008KT 170V230 10SM SCT047 28/17 A3008 710 52 2400 200/08 170V230 RMK AO2 SLP183 T02780172
14837KMSN MSN20020901125511209/01/02 12:55:31  5-MIN KMSN 011855Z 20008KT 170V230 10SM FEW047 28/16 A3008 720 48 2400 200/08 170V230 RMK AO2
14837KMSN MSN20020901130009609/01/02 13:00:31  5-MIN KMSN 011900Z VRB06KT 10SM FEW047 28/16 A3008 720 48 2400 VRB/06 RMK AO2
14837KMSN MSN20020901130509509/01/02 13:05:31  5-MIN KMSN 011905Z 20007KT 9SM FEW047 28/17 A3008 720 50 2400 190/07 RMK AO2
14837KMSN MSN20020901131009509/01/02 13:10:31  5-MIN KMSN 011910Z 18010KT 9SM FEW055 28/17 A3008 720 48 2500 180/10 RMK AO2
14837KMSN MSN20020901131509609/01/02 13:15:31  5-MIN KMSN 011915Z VRB06KT 10SM FEW055 28/17 A3008 720 52 2400 VRB/06 RMK AO2
14837KMSN MSN20020901132010809/01/02 13:20:31  5-MIN KMSN 011920Z 19008G14KT 9SM FEW049 SCT065 28/17 A3007 720 50 2400 180/08G14 RMK AO2
14837KMSN MSN20020901132510909/01/02 13:25:31  5-MIN KMSN 011925Z VRB06G14KT 10SM FEW049 SCT060 28/17 A3007 720 52 2400 VRB/06G14 RMK AO2
14837KMSN MSN20020901133010309/01/02 13:30:31  5-MIN KMSN 011930Z 19008KT 10SM FEW049 SCT060 28/17 A3007 730 50 2500 190/08 RMK AO2
14837KMSN MSN20020901133510309/01/02 13:35:31  5-MIN KMSN 011935Z 18009KT 10SM FEW049 SCT060 28/17 A3007 730 48 2500 180/09 RMK AO2
14837KMSN MSN20020901134010309/01/02 13:40:31  5-MIN KMSN 011940Z 17011KT 10SM SCT049 SCT060 28/17 A3006 730 50 2500 170/11 RMK AO2
14837KMSN MSN20020901134510209/01/02 13:45:31  5-MIN KMSN 011945Z 17011KT 9SM SCT049 SCT065 28/17 A3006 730 52 2400 160/11 RMK AO2
14837KMSN MSN20020901135011909/01/02 13:50:31  5-MIN KMSN 011950Z 23007KT 9SM FEW049 SCT060 28/17 A3006 740 50 2500 220/07 RMK AO2 SLP175 T02830172
14837KMSN MSN20020901135510309/01/02 13:55:31  5-MIN KMSN 011955Z 21007KT 10SM SCT049 SCT060 28/17 A3006 740 50 2400 210/07 RMK AO2
14837KMSN MSN20020901140010309/01/02 14:00:31  5-MIN KMSN 012000Z 22008KT 10SM FEW049 SCT060 28/17 A3005 740 48 2500 220/08 RMK AO2
14837KMSN MSN20020901140509609/01/02 14:05:31  5-MIN KMSN 012005Z 18009KT 10SM FEW049 28/17 A3005 750 48 2500 180/09 RMK AO2
14837KMSN MSN20020901141009609/01/02 14:10:31  5-MIN KMSN 012010Z 19010KT 10SM FEW049 29/17 A3005 750 47 2500 190/10 RMK AO2
14837KMSN MSN20020901141511209/01/02 14:15:31  5-MIN KMSN 012015Z 21009KT 180V240 10SM FEW049 28/17 A3004 750 48 2500 210/09 180V240 RMK AO2
14837KMSN MSN20020901142009609/01/02 14:20:31  5-MIN KMSN 012020Z 19010KT 10SM FEW049 29/16 A3004 750 45 2600 190/10 RMK AO2
14837KMSN MSN20020901142509609/01/02 14:25:31  5-MIN KMSN 012025Z 21007KT 10SM FEW049 28/17 A3004 760 48 2500 210/07 RMK AO2
14837KMSN MSN20020901143009609/01/02 14:30:31  5-MIN KMSN 012030Z 17013KT 10SM FEW049 29/17 A3004 760 48 2600 170/13 RMK AO2
14837KMSN MSN20020901143509609/01/02 14:35:31  5-MIN KMSN 012035Z 18012KT 10SM FEW049 28/17 A3003 760 48 2500 180/12 RMK AO2
14837KMSN MSN20020901144009609/01/02 14:40:31  5-MIN KMSN 012040Z 19010KT 10SM FEW049 28/17 A3003 760 48 2500 190/10 RMK AO2
14837KMSN MSN20020901144509609/01/02 14:45:31  5-MIN KMSN 012045Z 17011KT 10SM FEW049 29/17 A3003 760 47 2600 170/11 RMK AO2
14837KMSN MSN20020901145012509/01/02 14:50:31  5-MIN KMSN 012050Z 19010G17KT 10SM FEW049 28/17 A3003 770 48 2500 190/10G17 RMK AO2 SLP164 T02830167 56017
14837KMSN MSN20020901145509909/01/02 14:55:31  5-MIN KMSN 012055Z 19011G17KT 10SM CLR 28/17 A3003 770 50 2400 190/11G17 RMK AO2
14837KMSN MSN20020901150009609/01/02 15:00:31  5-MIN KMSN 012100Z 18011KT 10SM FEW049 28/16 A3002 770 48 2500 180/11 RMK AO2
14837KMSN MSN20020901150509609/01/02 15:05:31  5-MIN KMSN 012105Z 17011KT 10SM FEW049 28/16 A3002 770 48 2500 170/11 RMK AO2
14837KMSN MSN20020901151009609/01/02 15:10:31  5-MIN KMSN 012110Z 17011KT 10SM FEW049 28/17 A3002 770 50 2500 170/11 RMK AO2
14837KMSN MSN20020901151509609/01/02 15:15:31  5-MIN KMSN 012115Z 19010KT 10SM FEW049 28/16 A3002 770 47 2500 180/10 RMK AO2
14837KMSN MSN20020901152009609/01/02 15:20:31  5-MIN KMSN 012120Z 22009KT 10SM FEW049 28/17 A3002 770 48 2500 220/09 RMK AO2
14837KMSN MSN20020901152509609/01/02 15:25:31  5-MIN KMSN 012125Z 20008KT 10SM FEW049 28/17 A3002 770 48 2500 200/08 RMK AO2
14837KMSN MSN20020901153010209/01/02 15:30:31  5-MIN KMSN 012130Z 19010G15KT 10SM FEW049 28/17 A3002 770 48 2500 190/10G15 RMK AO2
14837KMSN MSN20020901153510209/01/02 15:35:31  5-MIN KMSN 012135Z 19009G15KT 10SM FEW049 28/16 A3002 780 47 2500 190/09G15 RMK AO2
14837KMSN MSN20020901154009609/01/02 15:40:31  5-MIN KMSN 012140Z 21006KT 10SM FEW049 29/17 A3001 780 47 2600 210/06 RMK AO2
14837KMSN MSN20020901154509609/01/02 15:45:31  5-MIN KMSN 012145Z 21009KT 10SM FEW049 28/17 A3001 780 48 2500 210/09 RMK AO2
14837KMSN MSN20020901155011309/01/02 15:50:31  5-MIN KMSN 012150Z 20008KT 10SM FEW049 28/16 A3001 780 47 2500 200/08 RMK AO2 SLP159 T02830161
14837KMSN MSN20020901155509609/01/02 15:55:31  5-MIN KMSN 012155Z 18010KT 10SM FEW049 28/16 A3001 780 47 2500 180/10 RMK AO2
14837KMSN MSN20020901160009609/01/02 16:00:31  5-MIN KMSN 012200Z 22007KT 10SM FEW049 28/16 A3001 780 48 2500 220/07 RMK AO2
14837KMSN MSN20020901160509609/01/02 16:05:31  5-MIN KMSN 012205Z 17011KT 10SM FEW049 28/16 A3001 780 47 2500 170/11 RMK AO2
14837KMSN MSN20020901161009309/01/02 16:10:31  5-MIN KMSN 012210Z 18010KT 10SM CLR 28/17 A3001 780 48 2500 180/10 RMK AO2
14837KMSN MSN20020901161509609/01/02 16:15:31  5-MIN KMSN 012215Z 22007KT 10SM FEW050 28/16 A3001 790 47 2500 220/07 RMK AO2
14837KMSN MSN20020901162009609/01/02 16:20:31  5-MIN KMSN 012220Z 19011KT 10SM FEW050 28/16 A3000 790 48 2500 190/11 RMK AO2
14837KMSN MSN20020901162509609/01/02 16:25:31  5-MIN KMSN 012225Z 19008KT 10SM FEW050 27/16 A3000 790 50 2400 190/08 RMK AO2
14837KMSN MSN20020901163009609/01/02 16:30:31  5-MIN KMSN 012230Z 19008KT 10SM FEW050 27/16 A3000 790 50 2400 180/08 RMK AO2
14837KMSN MSN20020901163509609/01/02 16:35:31  5-MIN KMSN 012235Z 18010KT 10SM FEW050 27/16 A3000 790 50 2400 180/10 RMK AO2
14837KMSN MSN20020901164009609/01/02 16:40:31  5-MIN KMSN 012240Z 18009KT 10SM FEW050 27/16 A3000 790 50 2400 180/09 RMK AO2
14837KMSN MSN20020901164509609/01/02 16:45:31  5-MIN KMSN 012245Z 18009KT 10SM FEW050 28/16 A3000 790 48 2500 180/09 RMK AO2
14837KMSN MSN20020901165011009/01/02 16:50:31  5-MIN KMSN 012250Z 18009KT 10SM CLR 27/16 A3000 790 50 2400 180/09 RMK AO2 SLP155 T02720161
14837KMSN MSN20020901165509309/01/02 16:55:31  5-MIN KMSN 012255Z 19011KT 10SM CLR 27/16 A3000 790 50 2400 190/11 RMK AO2
14837KMSN MSN20020901170009209/01/02 17:00:31  5-MIN KMSN 012300Z 19010KT 9SM CLR 27/17 A3000 790 52 2400 190/10 RMK AO2
14837KMSN MSN20020901170509209/01/02 17:05:31  5-MIN KMSN 012305Z 19009KT 9SM CLR 27/17 A3000 790 52 2400 180/09 RMK AO2
14837KMSN MSN20020901171009209/01/02 17:10:31  5-MIN KMSN 012310Z 18007KT 9SM CLR 27/17 A3000 790 52 2400 180/07 RMK AO2
14837KMSN MSN20020901171509209/01/02 17:15:31  5-MIN KMSN 012315Z 18010KT 9SM CLR 27/17 A3000 790 52 2400 180/10 RMK AO2
14837KMSN MSN20020901172009209/01/02 17:20:31  5-MIN KMSN 012320Z 18010KT 9SM CLR 27/17 A3000 790 53 2400 180/10 RMK AO2
14837KMSN MSN20020901172509209/01/02 17:25:31  5-MIN KMSN 012325Z 18008KT 9SM CLR 27/17 A3000 800 53 2400 180/08 RMK AO2
14837KMSN MSN20020901173009209/01/02 17:30:31  5-MIN KMSN 012330Z 18009KT 9SM CLR 27/17 A2999 800 53 2400 180/09 RMK AO2
14837KMSN MSN20020901173509209/01/02 17:35:31  5-MIN KMSN 012335Z 18010KT 9SM CLR 27/17 A2999 800 55 2400 180/10 RMK AO2
14837KMSN MSN20020901174009209/01/02 17:40:31  5-MIN KMSN 012340Z 18008KT 9SM CLR 27/17 A2999 800 55 2400 180/08 RMK AO2
14837KMSN MSN20020901174509209/01/02 17:45:31  5-MIN KMSN 012345Z 18009KT 8SM CLR 26/17 A2999 800 57 2300 180/09 RMK AO2
14837KMSN MSN20020901175012709/01/02 17:50:31  5-MIN KMSN 012350Z 18007KT 8SM CLR 26/17 A2999 800 57 2300 180/07 RMK AO2 SLP153 T02610172 10289 20261 58027
14837KMSN MSN20020901175509209/01/02 17:55:31  5-MIN KMSN 012355Z 18007KT 8SM CLR 26/17 A3000 790 57 2300 180/07 RMK AO2
14837KMSN MSN20020901180009209/01/02 18:00:31  5-MIN KMSN 020000Z 18008KT 8SM CLR 26/17 A3000 790 57 2300 180/08 RMK AO2
14837KMSN MSN20020901180509209/01/02 18:05:31  5-MIN KMSN 020005Z 18007KT 8SM CLR 26/17 A2999 800 57 2300 180/07 RMK AO2
14837KMSN MSN20020901181009209/01/02 18:10:31  5-MIN KMSN 020010Z 18006KT 8SM CLR 26/17 A2999 800 57 2300 180/06 RMK AO2
14837KMSN MSN20020901181509209/01/02 18:15:31  5-MIN KMSN 020015Z 18006KT 7SM CLR 26/18 A2999 800 61 2200 180/06 RMK AO2
14837KMSN MSN20020901182009209/01/02 18:20:31  5-MIN KMSN 020020Z 18005KT 7SM CLR 26/18 A2999 800 61 2200 180/05 RMK AO2
14837KMSN MSN20020901182509209/01/02 18:25:31  5-MIN KMSN 020025Z 18006KT 7SM CLR 26/18 A2999 800 61 2200 180/06 RMK AO2
14837KMSN MSN20020901183009209/01/02 18:30:31  5-MIN KMSN 020030Z 18006KT 7SM CLR 26/18 A2999 800 61 2200 180/06 RMK AO2
14837KMSN MSN20020901183509209/01/02 18:35:31  5-MIN KMSN 020035Z 18006KT 7SM CLR 25/18 A2999 800 64 2200 180/06 RMK AO2
14837KMSN MSN20020901184009209/01/02 18:40:31  5-MIN KMSN 020040Z 18006KT 8SM CLR 25/18 A2999 800 64 2200 180/06 RMK AO2
14837KMSN MSN20020901184509209/01/02 18:45:31  5-MIN KMSN 020045Z 17006KT 8SM CLR 25/18 A2999 800 64 2200 170/06 RMK AO2
14837KMSN MSN20020901185010909/01/02 18:50:31  5-MIN KMSN 020050Z 18006KT 8SM CLR 25/18 A2999 800 64 2200 180/06 RMK AO2 SLP153 T02500178
14837KMSN MSN20020901185509209/01/02 18:55:31  5-MIN KMSN 020055Z 18006KT 8SM CLR 25/18 A3000 790 64 2200 180/06 RMK AO2
14837KMSN MSN20020901190009209/01/02 19:00:31  5-MIN KMSN 020100Z 18005KT 8SM CLR 25/18 A3000 790 64 2200 180/05 RMK AO2
14837KMSN MSN20020901190509209/01/02 19:05:31  5-MIN KMSN 020105Z 18006KT 8SM CLR 25/18 A3000 790 64 2200 180/06 RMK AO2
14837KMSN MSN20020901191009209/01/02 19:10:31  5-MIN KMSN 020110Z 18006KT 8SM CLR 25/18 A3000 790 64 2200 180/06 RMK AO2
14837KMSN MSN20020901191509209/01/02 19:15:31  5-MIN KMSN 020115Z 18005KT 8SM CLR 25/18 A3000 790 64 2200 170/05 RMK AO2
14837KMSN MSN20020901192009209/01/02 19:20:31  5-MIN KMSN 020120Z 18005KT 7SM CLR 24/18 A3000 790 68 2100 180/05 RMK AO2
14837KMSN MSN20020901192509209/01/02 19:25:31  5-MIN KMSN 020125Z 18005KT 7SM CLR 24/18 A3000 790 68 2100 180/05 RMK AO2
14837KMSN MSN20020901193009209/01/02 19:30:31  5-MIN KMSN 020130Z 18006KT 7SM CLR 24/18 A3000 790 68 2100 180/06 RMK AO2
14837KMSN MSN20020901193509209/01/02 19:35:31  5-MIN KMSN 020135Z 17005KT 7SM CLR 24/18 A2999 800 68 2100 170/05 RMK AO2
14837KMSN MSN20020901194009209/01/02 19:40:31  5-MIN KMSN 020140Z 17005KT 7SM CLR 23/18 A2999 800 73 2000 160/05 RMK AO2
14837KMSN MSN20020901194509209/01/02 19:45:31  5-MIN KMSN 020145Z 17005KT 7SM CLR 23/18 A2999 800 73 2000 170/05 RMK AO2
14837KMSN MSN20020901195010909/01/02 19:50:31  5-MIN KMSN 020150Z 17006KT 7SM CLR 23/18 A2999 800 73 2000 170/06 RMK AO2 SLP152 T02330183
14837KMSN MSN20020901195509209/01/02 19:55:31  5-MIN KMSN 020155Z 17007KT 7SM CLR 23/18 A2999 800 73 2000 160/07 RMK AO2
14837KMSN MSN20020901200009209/01/02 20:00:31  5-MIN KMSN 020200Z 17006KT 7SM CLR 23/18 A2999 800 73 2000 170/06 RMK AO2
14837KMSN MSN20020901200509209/01/02 20:05:31  5-MIN KMSN 020205Z 17005KT 7SM CLR 23/18 A2999 800 73 2000 170/05 RMK AO2
14837KMSN MSN20020901201009209/01/02 20:10:31  5-MIN KMSN 020210Z 17005KT 7SM CLR 23/18 A2999 800 73 2000 170/05 RMK AO2
14837KMSN MSN20020901201509209/01/02 20:15:31  5-MIN KMSN 020215Z 18006KT 7SM CLR 24/18 A2999 800 71 2100 180/06 RMK AO2
14837KMSN MSN20020901202009209/01/02 20:20:31  5-MIN KMSN 020220Z 17005KT 7SM CLR 23/18 A2999 800 73 2000 170/05 RMK AO2
14837KMSN MSN20020901202509209/01/02 20:25:31  5-MIN KMSN 020225Z 17005KT 7SM CLR 23/18 A2999 800 73 2000 170/05 RMK AO2
14837KMSN MSN20020901203009209/01/02 20:30:31  5-MIN KMSN 020230Z 17006KT 7SM CLR 23/18 A2999 800 73 2000 170/06 RMK AO2
14837KMSN MSN20020901203509209/01/02 20:35:31  5-MIN KMSN 020235Z 17005KT 7SM CLR 23/18 A2999 800 73 2000 170/05 RMK AO2
14837KMSN MSN20020901204009209/01/02 20:40:31  5-MIN KMSN 020240Z 17005KT 7SM CLR 23/18 A2999 800 76 1900 170/05 RMK AO2
14837KMSN MSN20020901204509509/01/02 20:45:31  5-MIN KMSN 020245Z 17006KT 6SM HZ CLR 23/18 A2999 800 73 2000 170/06 RMK AO2
14837KMSN MSN20020901205011809/01/02 20:50:31  5-MIN KMSN 020250Z 17006KT 6SM HZ CLR 23/18 A2999 800 73 2000 170/06 RMK AO2 SLP149 T02330183 56010
14837KMSN MSN20020901205509509/01/02 20:55:31  5-MIN KMSN 020255Z 17005KT 6SM HZ CLR 23/18 A2999 800 73 2000 170/05 RMK AO2
14837KMSN MSN20020901210009509/01/02 21:00:31  5-MIN KMSN 020300Z 17007KT 6SM HZ CLR 23/18 A2999 800 73 2000 170/07 RMK AO2
14837KMSN MSN20020901210509509/01/02 21:05:31  5-MIN KMSN 020305Z 17006KT 6SM HZ CLR 23/18 A2998 800 73 2000 170/06 RMK AO2
14837KMSN MSN20020901211009509/01/02 21:10:31  5-MIN KMSN 020310Z 17006KT 6SM HZ CLR 23/18 A2998 810 76 1900 170/06 RMK AO2
14837KMSN MSN20020901211509509/01/02 21:15:31  5-MIN KMSN 020315Z 17007KT 6SM HZ CLR 23/18 A2998 810 76 1900 160/07 RMK AO2
14837KMSN MSN20020901212009509/01/02 21:20:31  5-MIN KMSN 020320Z 18006KT 6SM HZ CLR 23/18 A2998 810 76 1900 180/06 RMK AO2
14837KMSN MSN20020901212509509/01/02 21:25:31  5-MIN KMSN 020325Z 17007KT 6SM HZ CLR 23/18 A2998 810 73 2000 170/07 RMK AO2
14837KMSN MSN20020901213009509/01/02 21:30:31  5-MIN KMSN 020330Z 17007KT 6SM HZ CLR 23/18 A2998 810 73 2000 170/07 RMK AO2
14837KMSN MSN20020901213509509/01/02 21:35:31  5-MIN KMSN 020335Z 17006KT 6SM HZ CLR 23/18 A2998 810 76 1900 170/06 RMK AO2
14837KMSN MSN20020901214009509/01/02 21:40:31  5-MIN KMSN 020340Z 17008KT 6SM HZ CLR 23/18 A2997 810 76 1900 170/08 RMK AO2
14837KMSN MSN20020901214509509/01/02 21:45:31  5-MIN KMSN 020345Z 18008KT 6SM HZ CLR 23/18 A2997 820 76 1900 170/08 RMK AO2
14837KMSN MSN20020901215011209/01/02 21:50:31  5-MIN KMSN 020350Z 18008KT 6SM HZ CLR 23/18 A2997 820 76 1900 180/08 RMK AO2 SLP144 T02280183
14837KMSN MSN20020901215509509/01/02 21:55:31  5-MIN KMSN 020355Z 18009KT 6SM HZ CLR 23/18 A2997 820 76 1900 180/09 RMK AO2
14837KMSN MSN20020901220009509/01/02 22:00:31  5-MIN KMSN 020400Z 18009KT 6SM HZ CLR 23/18 A2997 820 76 2000 180/09 RMK AO2
14837KMSN MSN20020901220509509/01/02 22:05:31  5-MIN KMSN 020405Z 18009KT 6SM HZ CLR 23/18 A2996 820 76 2000 180/09 RMK AO2
14837KMSN MSN20020901221009509/01/02 22:10:31  5-MIN KMSN 020410Z 18009KT 6SM HZ CLR 23/18 A2996 830 76 2000 180/09 RMK AO2
14837KMSN MSN20020901221509509/01/02 22:15:31  5-MIN KMSN 020415Z 18009KT 6SM HZ CLR 23/18 A2996 830 76 2000 180/09 RMK AO2
14837KMSN MSN20020901222009509/01/02 22:20:31  5-MIN KMSN 020420Z 18009KT 6SM HZ CLR 23/18 A2996 830 73 2000 180/09 RMK AO2
14837KMSN MSN20020901222509509/01/02 22:25:31  5-MIN KMSN 020425Z 18009KT 6SM HZ CLR 23/18 A2996 830 73 2000 180/09 RMK AO2
14837KMSN MSN20020901223009509/01/02 22:30:31  5-MIN KMSN 020430Z 18008KT 6SM HZ CLR 23/18 A2996 830 76 2000 180/08 RMK AO2
14837KMSN MSN20020901223509509/01/02 22:35:31  5-MIN KMSN 020435Z 18009KT 6SM HZ CLR 23/18 A2996 830 76 2000 180/09 RMK AO2
14837KMSN MSN20020901224009509/01/02 22:40:31  5-MIN KMSN 020440Z 18009KT 6SM HZ CLR 23/18 A2996 830 76 2000 180/09 RMK AO2
14837KMSN MSN20020901224509509/01/02 22:45:31  5-MIN KMSN 020445Z 17009KT 6SM HZ CLR 23/18 A2995 830 76 2000 170/09 RMK AO2
14837KMSN MSN20020901225011209/01/02 22:50:31  5-MIN KMSN 020450Z 18009KT 6SM HZ CLR 23/18 A2995 830 76 2000 180/09 RMK AO2 SLP138 T02280183
14837KMSN MSN20020901225509509/01/02 22:55:31  5-MIN KMSN 020455Z 18008KT 6SM HZ CLR 23/18 A2996 830 76 2000 180/08 RMK AO2
14837KMSN MSN20020901230009509/01/02 23:00:31  5-MIN KMSN 020500Z 18008KT 6SM HZ CLR 23/18 A2996 830 76 2000 180/08 RMK AO2
14837KMSN MSN20020901230509509/01/02 23:05:31  5-MIN KMSN 020505Z 18009KT 6SM HZ CLR 23/18 A2995 830 73 2000 180/09 RMK AO2
14837KMSN MSN20020901231009509/01/02 23:10:31  5-MIN KMSN 020510Z 18007KT 6SM HZ CLR 23/18 A2996 830 73 2000 180/07 RMK AO2
14837KMSN MSN20020901231509509/01/02 23:15:31  5-MIN KMSN 020515Z 18008KT 6SM HZ CLR 23/18 A2995 830 73 2000 180/08 RMK AO2
14837KMSN MSN20020901232009509/01/02 23:20:31  5-MIN KMSN 020520Z 18007KT 6SM HZ CLR 23/18 A2996 830 73 2000 180/07 RMK AO2
14837KMSN MSN20020901232509509/01/02 23:25:31  5-MIN KMSN 020525Z 17007KT 6SM HZ CLR 23/18 A2995 830 73 2000 170/07 RMK AO2
14837KMSN MSN20020901233009509/01/02 23:30:31  5-MIN KMSN 020530Z 18006KT 6SM HZ CLR 22/18 A2996 830 75 1900 180/06 RMK AO2
14837KMSN MSN20020901233509509/01/02 23:35:31  5-MIN KMSN 020535Z 18007KT 6SM HZ CLR 22/18 A2996 830 75 1900 180/07 RMK AO2
14837KMSN MSN20020901234009509/01/02 23:40:31  5-MIN KMSN 020540Z 17007KT 6SM HZ CLR 22/18 A2995 840 75 1900 170/07 RMK AO2
14837KMSN MSN20020901234509509/01/02 23:45:31  5-MIN KMSN 020545Z 18007KT 6SM HZ CLR 22/18 A2995 840 75 1900 170/07 RMK AO2
14837KMSN MSN20020901235014009/01/02 23:50:31  5-MIN KMSN 020550Z 18006KT 6SM HZ CLR 22/18 A2995 840 78 1800 180/06 RMK AO2 SLP136 T02170178 10261 20217 402890139 58003
14837KMSN MSN20020901235509509/01/02 23:55:31  5-MIN KMSN 020555Z 17007KT 6SM HZ CLR 22/18 A2995 840 75 1900 170/07 RMK AO2
14837KMSN MSN20020902000009509/02/02 00:00:31  5-MIN KMSN 020600Z 18007KT 6SM HZ CLR 22/18 A2995 840 75 1900 180/07 RMK AO2
14837KMSN MSN20020902000509809/02/02 00:05:31  5-MIN KMSN 020605Z 18007KT 6SM HZ FEW055 22/18 A2995 840 75 1900 180/07 RMK AO2
14837KMSN MSN20020902001009809/02/02 00:10:31  5-MIN KMSN 020610Z 17007KT 6SM HZ SCT055 22/18 A2994 840 75 1900 170/07 RMK AO2
14837KMSN MSN20020902001509809/02/02 00:15:31  5-MIN KMSN 020615Z 17008KT 6SM HZ SCT055 22/18 A2994 850 75 1900 170/08 RMK AO2
14837KMSN MSN20020902002009809/02/02 00:20:31  5-MIN KMSN 020620Z 17008KT 6SM HZ SCT055 22/18 A2994 850 75 1900 170/08 RMK AO2
14837KMSN MSN20020902002509809/02/02 00:25:31  5-MIN KMSN 020625Z 17008KT 6SM HZ FEW055 22/18 A2993 850 75 1900 170/08 RMK AO2
14837KMSN MSN20020902003009809/02/02 00:30:31  5-MIN KMSN 020630Z 16009KT 6SM HZ FEW055 22/18 A2993 860 75 1900 160/09 RMK AO2
14837KMSN MSN20020902003509809/02/02 00:35:31  5-MIN KMSN 020635Z 16007KT 6SM HZ FEW050 22/18 A2993 860 75 1900 160/07 RMK AO2
14837KMSN MSN20020902004009809/02/02 00:40:31  5-MIN KMSN 020640Z 16008KT 6SM HZ FEW050 22/18 A2992 860 78 1900 160/08 RMK AO2
14837KMSN MSN20020902004509509/02/02 00:45:31  5-MIN KMSN 020645Z 18007KT 5SM HZ CLR 22/18 A2993 860 75 1900 180/07 RMK AO2
14837KMSN MSN20020902005011509/02/02 00:50:31  5-MIN KMSN 020650Z 18007KT 5SM HZ FEW055 22/18 A2992 860 78 1900 170/07 RMK AO2 SLP126 T02170178
14837KMSN MSN20020902005509809/02/02 00:55:31  5-MIN KMSN 020655Z 18007KT 5SM HZ FEW055 22/18 A2992 860 78 1900 180/07 RMK AO2
14837KMSN MSN20020902010009809/02/02 01:00:31  5-MIN KMSN 020700Z 18008KT 5SM HZ FEW055 22/18 A2992 860 75 1900 170/08 RMK AO2
14837KMSN MSN20020902010509809/02/02 01:05:31  5-MIN KMSN 020705Z 18008KT 5SM HZ FEW055 22/18 A2992 870 75 1900 180/08 RMK AO2
14837KMSN MSN20020902011009809/02/02 01:10:31  5-MIN KMSN 020710Z 18008KT 5SM HZ FEW055 22/18 A2992 860 75 1900 180/08 RMK AO2
14837KMSN MSN20020902011509809/02/02 01:15:31  5-MIN KMSN 020715Z 18008KT 5SM HZ FEW055 22/18 A2992 860 75 1900 180/08 RMK AO2
14837KMSN MSN20020902012009809/02/02 01:20:31  5-MIN KMSN 020720Z 18007KT 5SM HZ FEW055 22/18 A2992 870 75 1900 180/07 RMK AO2
14837KMSN MSN20020902012509809/02/02 01:25:31  5-MIN KMSN 020725Z 18008KT 5SM HZ SCT100 23/18 A2992 870 73 2000 180/08 RMK AO2
14837KMSN MSN20020902013010509/02/02 01:30:31  5-MIN KMSN 020730Z 18008KT 5SM HZ FEW055 SCT100 23/18 A2992 870 73 2000 180/08 RMK AO2
14837KMSN MSN20020902013510509/02/02 01:35:31  5-MIN KMSN 020735Z 19007KT 5SM HZ SCT055 SCT100 23/18 A2992 870 73 2000 190/07 RMK AO2
14837KMSN MSN20020902014010509/02/02 01:40:31  5-MIN KMSN 020740Z 18009KT 5SM HZ SCT055 BKN100 23/18 A2991 870 73 2000 180/09 RMK AO2
14837KMSN MSN20020902014510909/02/02 01:45:31  5-MIN KMSN 020745Z 18008KT 5SM HZ BKN055 22/18 A2991 870 75 1900 180/08 RMK AO2 LTG DSNT W
14837KMSN MSN20020902015012609/02/02 01:50:31  5-MIN KMSN 020750Z 18008KT 5SM HZ BKN055 22/18 A2991 870 75 2000 180/08 RMK AO2 SLP122 LTG DSNT W T02220178
14837KMSN MSN20020902015510909/02/02 01:55:31  5-MIN KMSN 020755Z 18008KT 5SM HZ SCT055 22/18 A2991 880 78 2000 180/08 RMK AO2 LTG DSNT W
14837KMSN MSN20020902020010909/02/02 02:00:31  5-MIN KMSN 020800Z 18008KT 5SM HZ FEW055 22/18 A2991 880 78 2000 180/08 RMK AO2 LTG DSNT W
14837KMSN MSN20020902020510909/02/02 02:05:31  5-MIN KMSN 020805Z 18008KT 5SM HZ FEW055 22/18 A2991 880 78 2000 180/08 RMK AO2 LTG DSNT W
14837KMSN MSN20020902021010909/02/02 02:10:31  5-MIN KMSN 020810Z 17006KT 5SM HZ FEW055 22/18 A2990 880 78 2000 170/06 RMK AO2 LTG DSNT W
14837KMSN MSN20020902021510609/02/02 02:15:31  5-MIN KMSN 020815Z 17007KT 5SM HZ CLR 22/18 A2990 880 78 2000 170/07 RMK AO2 LTG DSNT W
14837KMSN MSN20020902022010909/02/02 02:20:31  5-MIN KMSN 020820Z 16006KT 5SM HZ FEW075 22/18 A2991 880 78 2000 160/06 RMK AO2 LTG DSNT W
14837KMSN MSN20020902022510909/02/02 02:25:31  5-MIN KMSN 020825Z 17004KT 5SM HZ SCT075 22/18 A2991 870 78 1900 170/04 RMK AO2 LTG DSNT W
14837KMSN MSN20020902023010909/02/02 02:30:31  5-MIN KMSN 020830Z 17003KT 5SM HZ SCT080 22/18 A2992 870 78 1900 170/03 RMK AO2 LTG DSNT W
14837KMSN MSN20020902023511609/02/02 02:35:31  5-MIN KMSN 020835Z 17004KT 5SM HZ SCT080 BKN090 22/18 A2992 870 78 1900 170/04 RMK AO2 LTG DSNT W
14837KMSN MSN20020902024011609/02/02 02:40:31  5-MIN KMSN 020840Z 17005KT 5SM HZ BKN080 BKN095 22/18 A2992 860 78 1900 170/05 RMK AO2 LTG DSNT W
14837KMSN MSN20020902024511609/02/02 02:45:31  5-MIN KMSN 020845Z 17006KT 5SM HZ BKN075 BKN095 22/18 A2992 870 78 1900 160/06 RMK AO2 LTG DSNT W
14837KMSN MSN20020902025013909/02/02 02:50:31  5-MIN KMSN 020850Z VRB03KT 5SM HZ BKN080 OVC090 22/18 A2993 860 78 1900 VRB/03 RMK AO2 SLP127 LTG DSNT W T02220183 56012
14837KMSN MSN20020902025511909/02/02 02:55:31  5-MIN KMSN 020855Z 33008KT 5SM HZ FEW050 BKN080 OVC095 22/18 A2995 840 81 1800 330/08 RMK AO2 PRESRR
14837KMSN MSN20020902030017009/02/02 03:00:31  5-MIN KMSN 020900Z 34010KT 5SM -TSRA FEW022 BKN080 OVC095 22/18 A2996 830 81 1800 340/10 RMK AO2 TSB0857RAB0857 PRESRR FRQ LTGIC OHD TS OHD MOV E P0000
14837KMSN MSN20020902030516509/02/02 03:05:31  5-MIN KMSN 020905Z 34011KT 4SM -TSRA SCT022 BKN049 OVC080 21/18 A2997 820 84 1800 340/11 RMK AO2 TSB0857RAB0857 FRQ LTGCGIC OHD TS OHD MOV E P0001
14837KMSN MSN20020902031016509/02/02 03:10:31  5-MIN KMSN 020910Z 35009KT 4SM -TSRA SCT022 BKN037 OVC080 21/18 A2997 820 84 1700 350/09 RMK AO2 TSB0857RAB0857 FRQ LTGCGIC OHD TS OHD MOV E P0002
14837KMSN MSN20020902031517309/02/02 03:15:31  5-MIN KMSN 020915Z 01016G22KT 4SM TSRA BR FEW024 BKN035 OVC080 19/17 A2997 820 87 1500 010/16G22 RMK AO2 TSB0857RAB0857 FRQ LTGCGIC OHD TS OHD MOV E P0004
14837KMSN MSN20020902032017309/02/02 03:20:31  5-MIN KMSN 020920Z 02019G25KT 4SM TSRA BR FEW024 BKN033 OVC050 18/16 A2997 820 90 1400 020/19G25 RMK AO2 TSB0857RAB0857 FRQ LTGCGIC OHD TS OHD MOV E P0007
14837KMSN MSN20020902032517309/02/02 03:25:31  5-MIN KMSN 020925Z 36015G25KT 4SM TSRA BR FEW024 BKN033 OVC041 17/16 A2999 800 93 1300 360/15G25 RMK AO2 TSB0857RAB0857 FRQ LTGCGIC OHD TS OHD MOV E P0007
14837KMSN MSN20020902033017409/02/02 03:30:31  5-MIN KMSN 020930Z 03010G19KT 3SM +TSRA BR FEW022 BKN031 OVC038 17/16 A2997 820 93 1300 030/10G19 RMK AO2 TSB0857RAB0857 FRQ LTGCGIC OHD TS OHD MOV E P0011
14837KMSN MSN20020902033516109/02/02 03:35:31  5-MIN KMSN 020935Z 03011KT 3SM +TSRA BR BKN031 OVC043 17/16 A2997 820 93 1300 030/11 RMK AO2 TSB0857RAB0857 FRQ LTGCGIC OHD TS OHD MOV E P0013
14837KMSN MSN20020902034016709/02/02 03:40:31  5-MIN KMSN 020940Z 05010KT 3SM TSRA BR FEW020 BKN031 OVC045 17/16 A2996 820 93 1300 040/10 RMK AO2 TSB0857RAB0857 FRQ LTGCGIC OHD TS OHD MOV E P0015
14837KMSN MSN20020902034516709/02/02 03:45:31  5-MIN KMSN 020945Z 05009KT 3SM TSRA BR SCT022 BKN031 OVC047 17/16 A2996 820 93 1300 050/09 RMK AO2 TSB0857RAB0857 FRQ LTGCGIC OHD TS OHD MOV E P0017
14837KMSN MSN20020902035018809/02/02 03:50:31  5-MIN KMSN 020950Z 05010KT 3SM -TSRA BR FEW022 BKN031 OVC050 17/16 A2996 830 93 1300 050/10 RMK AO2 TSB0857RAB0857 SLP140 OCNL LTGCGICCC OHD TS OHD MOV E P0017 T01720161
14837KMSN MSN20020902035512409/02/02 03:55:31  5-MIN KMSN 020955Z 06011KT 4SM -TSRA BR BKN029 BKN042 OVC050 17/16 A2996 830 93 1300 060/11 RMK AO2 P0000
14837KMSN MSN20020902040011609/02/02 04:00:31  5-MIN KMSN 021000Z 06008KT 4SM TSRA BR BKN029 OVC040 17/16 A2996 830 93 1300 060/08 RMK AO2 P0002
14837KMSN MSN20020902040514909/02/02 04:05:31  5-MIN KMSN 021005Z 06010KT 3SM -TSRA BR BKN026 OVC040 17/16 A2996 830 93 1300 060/10 RMK AO2 OCNL LTGCGICCC OHD TS OHD MOV E P0003
14837KMSN MSN20020902041014909/02/02 04:10:31  5-MIN KMSN 021010Z 06011KT 4SM -TSRA BR SCT028 OVC040 17/16 A2995 840 93 1300 060/11 RMK AO2 OCNL LTGCGICCC OHD TS OHD MOV E P0004
14837KMSN MSN20020902041514909/02/02 04:15:31  5-MIN KMSN 021015Z 06010KT 4SM -TSRA BR SCT030 OVC037 17/16 A2995 840 96 1300 060/10 RMK AO2 OCNL LTGCGICCC OHD TS OHD MOV E P0004
14837KMSN MSN20020902042014909/02/02 04:20:31  5-MIN KMSN 021020Z 06008KT 4SM -TSRA BR BKN032 OVC039 17/16 A2994 840 93 1300 060/08 RMK AO2 OCNL LTGCGICCC OHD TS OHD MOV E P0005
14837KMSN MSN20020902042514909/02/02 04:25:31  5-MIN KMSN 021025Z 06010KT 4SM -TSRA BR BKN029 OVC036 17/16 A2994 850 93 1300 060/10 RMK AO2 OCNL LTGCGICCC OHD TS OHD MOV E P0005
14837KMSN MSN20020902043014909/02/02 04:30:31  5-MIN KMSN 021030Z 07011KT 4SM -TSRA BR FEW025 OVC032 17/16 A2994 850 93 1300 070/11 RMK AO2 OCNL LTGCGICCC OHD TS OHD MOV E P0006
14837KMSN MSN20020902043514209/02/02 04:35:31  5-MIN KMSN 021035Z 07011KT 6SM -TSRA BR OVC032 17/16 A2994 850 93 1300 070/11 RMK AO2 OCNL LTGCGICCC OHD TS OHD MOV E P0007
14837KMSN MSN20020902044013809/02/02 04:40:31  5-MIN KMSN 021040Z 06014KT 6SM -TSRA BR OVC032 17/16 A2993 860 93 1400 060/14 RMK AO2 OCNL LTGIC OHD TS OHD MOV E P0007
14837KMSN MSN20020902044514509/02/02 04:45:31  5-MIN KMSN 021045Z 06012KT 6SM -TSRA BR BKN032 OVC038 17/16 A2993 860 93 1400 060/12 RMK AO2 OCNL LTGIC OHD TS OHD MOV E P0008
14837KMSN MSN20020902045016109/02/02 04:50:31  5-MIN KMSN 021050Z 06010KT 6SM TSRA BR BKN032 OVC045 17/16 A2994 850 93 1300 060/10 RMK AO2 SLP133 OCNL LTGIC OHD TS OHD MOV E P0008 T01720161
14837KMSN MSN20020902045511709/02/02 04:55:31  5-MIN KMSN 021055Z 05008KT 6SM -TSRA BR FEW030 OVC038 17/16 A2995 840 93 1300 050/08 RMK AO2 P0000
14837KMSN MSN20020902050012309/02/02 05:00:31  5-MIN KMSN 021100Z 07005KT 6SM TSRA BR BKN033 OVC042 17/16 A2996 830 93 1300 070/05 RMK AO2 PRESRR P0003
14837KMSN MSN20020902050515209/02/02 05:05:31  5-MIN KMSN 021105Z 11007KT 3SM +TSRA BR SCT023 BKN033 OVC042 17/16 A2996 830 93 1300 110/07 RMK AO2 OCNL LTGIC OHD TS OHD MOV E P0009
14837KMSN MSN20020902051015209/02/02 05:10:31  5-MIN KMSN 021110Z 11005KT 3SM +TSRA BR BKN019 OVC042 17/16 A2997 820 93 1300 110/05 RMK AO2 PRESRR OCNL LTGIC OHD TS OHD MOV E P0013
14837KMSN MSN20020902051515109/02/02 05:15:31  5-MIN KMSN 021115Z 08006KT 3SM TSRA BR SCT017 BKN034 OVC042 17/16 A2997 820 93 1300 080/06 RMK AO2 OCNL LTGIC OHD TS OHD MOV E P0015
14837KMSN MSN20020902052014409/02/02 05:20:31  5-MIN KMSN 021120Z 11010KT 3SM TSRA BR BKN019 OVC037 17/16 A2995 840 93 1300 110/10 RMK AO2 OCNL LTGIC OHD TS OHD MOV E P0017
14837KMSN MSN20020902052514409/02/02 05:25:31  5-MIN KMSN 021125Z 09008KT 3SM +TSRA BR BKN017 OVC033 17/16 A2994 840 96 1300 090/08 RMK AO2 FRQ LTGIC OHD TS OHD MOV E P0022
14837KMSN MSN20020902053014309/02/02 05:30:31  5-MIN KMSN 021130Z 10009KT 3SM TSRA BR BKN019 OVC035 17/16 A2994 840 96 1300 100/09 RMK AO2 FRQ LTGIC OHD TS OHD MOV E P0023
14837KMSN MSN20020902053515009/02/02 05:35:31  5-MIN KMSN 021135Z 12009KT 3SM TSRA BR BKN023 BKN035 OVC046 17/16 A2994 850 93 1300 120/09 RMK AO2 FRQ LTGIC OHD TS OHD MOV E P0024
14837KMSN MSN20020902054015109/02/02 05:40:31  5-MIN KMSN 021140Z 13015KT 4SM -TSRA BR BKN032 OVC100 17/16 A2991 870 93 1400 130/15 RMK AO2 PRESFR FRQ LTGIC OHD TS OHD MOV E P0025
14837KMSN MSN20020902054514609/02/02 05:45:31  5-MIN KMSN 021145Z 12013KT 3SM -TSRA BR BKN036 OVC100 17/16 A2991 870 93 1400 120/13 RMK AO2 FRQ LTGCGIC OHD TS OHD MOV E P0026
14837KMSN MSN20020902055019309/02/02 05:50:31  5-MIN KMSN 021150Z 12013KT 3SM -TSRA BR BKN038 OVC048 17/16 A2990 880 93 1400 110/13 RMK AO2 SLP122 FRQ LTGCGIC OHD TS OHD MOV E P0026 60053 70053 T01720161 10228 20167 55004
14837KMSN MSN20020902055514509/02/02 05:55:31  5-MIN KMSN 021155Z 12014KT 3SM -TSRA BR BKN038 OVC048 17/16 A2990 880 93 1400 110/14 RMK AO2 OCNL LTGIC OHD TS OHD MOV E P0000
14837KMSN MSN20020902060014509/02/02 06:00:31  5-MIN KMSN 021200Z 12013KT 4SM -TSRA BR BKN036 BKN110 17/16 A2990 880 93 1400 120/13 RMK AO2 OCNL LTGIC OHD TS OHD MOV E P0000
14837KMSN MSN20020902060514509/02/02 06:05:31  5-MIN KMSN 021205Z 13012KT 4SM -TSRA BR BKN041 BKN100 17/16 A2990 890 93 1400 130/12 RMK AO2 OCNL LTGIC OHD TS OHD MOV E P0000
14837KMSN MSN20020902061012609/02/02 06:10:31  5-MIN KMSN 021210Z 14011KT 8SM SCT039 SCT090 BKN100 17/16 A2990 880 93 1400 140/11 RMK AO2 TSE07RAE07 P0000
14837KMSN MSN20020902061512609/02/02 06:15:31  5-MIN KMSN 021215Z 16011KT 8SM SCT043 BKN090 BKN100 17/16 A2990 880 93 1400 160/11 RMK AO2 TSE07RAE07 P0000
14837KMSN MSN20020902062012709/02/02 06:20:31  5-MIN KMSN 021220Z 15012KT 10SM FEW038 BKN085 BKN100 17/16 A2990 880 93 1400 150/12 RMK AO2 TSE07RAE07 P0000
14837KMSN MSN20020902062512009/02/02 06:25:31  5-MIN KMSN 021225Z 16014KT 10SM BKN080 BKN100 17/17 A2989 890 96 1400 160/14 RMK AO2 TSE07RAE07 P0000
14837KMSN MSN20020902063012009/02/02 06:30:31  5-MIN KMSN 021230Z 17015KT 10SM BKN080 BKN095 17/17 A2989 900 96 1400 170/15 RMK AO2 TSE07RAE07 P0000
14837KMSN MSN20020902063512009/02/02 06:35:31  5-MIN KMSN 021235Z 18012KT 10SM FEW065 BKN080 17/17 A2991 880 96 1400 180/12 RMK AO2 TSE07RAE07 P0000
14837KMSN MSN20020902064013409/02/02 06:40:31  5-MIN KMSN 021240Z 18014KT 10SM -RA FEW003 SCT065 BKN080 17/17 A2991 880 96 1400 180/14 RMK AO2 TSE07RAE07B37 P0001
14837KMSN MSN20020902064517809/02/02 06:45:31  5-MIN KMSN 021245Z 17013KT 3SM -TSRA BR FEW003 SCT065 BKN080 17/17 A2989 890 96 1400 170/13 RMK AO2 TWR VIS 4 TSE07B41RAE07B37 FRQ LTGIC OHD TS OHD MOV E P0003
14837KMSN MSN20020902065018609/02/02 06:50:31  5-MIN KMSN 021250Z 17012G19KT 2SM +TSRA BR SCT024 OVC075 17/17 A2990 880 96 1400 170/12G19 RMK AO2 TSE07B41RAE07B37 SLP121 FRQ LTGICCA OHD TS OHD MOV E P0009 T01720167
14837KMSN MSN20020902065512909/02/02 06:55:31  5-MIN KMSN 021255Z 16010G19KT 3SM TSRA BR SCT021 BKN065 OVC085 17/17 A2990 880 96 1400 160/10G19 RMK AO2 P0000
14837KMSN MSN20020902070016409/02/02 07:00:31  5-MIN KMSN 021300Z 16013KT 3SM -TSRA BR SCT021 SCT065 OVC085 17/17 A2991 880 96 1400 160/13 RMK AO2 SFC VIS 5 FRQ LTGICCA OHD TS OHD MOV SE P0000
14837KMSN MSN20020902070516609/02/02 07:05:31  5-MIN KMSN 021305Z 18012KT 3SM -RA SCT021 BKN075 OVC090 18/17 A2992 860 93 1400 180/12 RMK AO2 SFC VIS 10 TSE05 FRQ LTGICCA OHD TS OHD MOV SE P0000
14837KMSN MSN20020902071017109/02/02 07:10:31  5-MIN KMSN 021310Z 16013KT 3SM TSRA BR SCT021 BKN070 OVC090 18/17 A2990 880 93 1500 160/13 RMK AO2 SFC VIS 5 TSE05B06 FRQ LTGICCC OH TS OHD MOV SE P0003
14837KMSN MSN20020902071517209/02/02 07:15:31  5-MIN KMSN 021315Z 15011KT 2SM +TSRA BR BKN015 BKN070 OVC090 18/17 A2990 880 93 1500 150/11 RMK AO2 TWR VIS 3 TSE05B06 FRQ LTGICCC OH TS OHD MOV SE P0012
14837KMSN MSN20020902072017109/02/02 07:20:31  5-MIN KMSN 021320Z 16010KT 3SM TSRA BR BKN017 BKN070 OVC090 18/17 A2990 880 93 1500 160/10 RMK AO2 SFC VIS 4 TSE05B06 FRQ LTGICCC OH TS OHD MOV SE P0014
14837KMSN MSN20020902072515409/02/02 07:25:31  5-MIN KMSN 021325Z 17013KT 5SM TSRA BR BKN026 OVC075 18/17 A2989 890 93 1500 170/13 RMK AO2 TSE05B06 FRQ LTGICCC OH TS OHD MOV SE P0014
14837KMSN MSN20020902073016009/02/02 07:30:31  5-MIN KMSN 021330Z 16015KT 7SM -TSRA BKN034 BKN070 OVC080 18/17 A2989 890 96 1500 160/15 RMK AO2 TSE05B06 OCNL LTGICCC OH TS OHD MOV SE P0015
14837KMSN MSN20020902073516009/02/02 07:35:31  5-MIN KMSN 021335Z 17013KT 8SM -TSRA BKN034 BKN070 OVC100 18/17 A2989 890 96 1500 170/13 RMK AO2 TSE05B06 OCNL LTGICCC OH TS OHD MOV SE P0015
14837KMSN MSN20020902074016109/02/02 07:40:31  5-MIN KMSN 021340Z 18014KT 10SM -TSRA SCT029 BKN080 OVC100 18/17 A2990 880 96 1400 180/14 RMK AO2 TSE05B06 OCNL LTGICCC OH TS OHD MOV SE P0015
14837KMSN MSN20020902074514809/02/02 07:45:31  5-MIN KMSN 021345Z 17013G22KT 10SM -RA SCT038 BKN080 OVC100 18/17 A2989 890 93 1500 170/13G22 RMK AO2 TSE05B06E41 TS MOV SE P0015
14837KMSN MSN20020902075016609/02/02 07:50:31  5-MIN KMSN 021350Z 18017G22KT 10SM FEW050 BKN080 BKN100 18/17 A2990 890 93 1500 180/17G22 RMK AO2 TSE05B06E41RAE46 SLP120 TS MOV SE P0015 T01830172
14837KMSN MSN20020902075511009/02/02 07:55:31  5-MIN KMSN 021355Z 18017KT 10SM FEW060 BKN080 BKN100 18/17 A2990 890 93 1500 180/17 RMK AO2
14837KMSN MSN20020902080010309/02/02 08:00:31  5-MIN KMSN 021400Z 17014KT 10SM BKN080 BKN100 18/17 A2990 890 93 1500 170/14 RMK AO2
14837KMSN MSN20020902080510909/02/02 08:05:31  5-MIN KMSN 021405Z 18018G21KT 10SM SCT080 BKN100 18/17 A2991 880 93 1500 180/18G21 RMK AO2
14837KMSN MSN20020902081010909/02/02 08:10:31  5-MIN KMSN 021410Z 18017G21KT 10SM SCT080 BKN100 18/17 A2990 880 93 1500 180/17G21 RMK AO2
14837KMSN MSN20020902081510909/02/02 08:15:31  5-MIN KMSN 021415Z 18018G22KT 10SM BKN080 BKN100 18/17 A2990 890 93 1500 180/18G22 RMK AO2
14837KMSN MSN20020902082010909/02/02 08:20:31  5-MIN KMSN 021420Z 18015G22KT 10SM BKN080 BKN100 18/17 A2990 890 93 1500 180/15G22 RMK AO2
14837KMSN MSN20020902082510309/02/02 08:25:31  5-MIN KMSN 021425Z 18016KT 10SM BKN075 BKN100 18/17 A2988 900 93 1500 180/16 RMK AO2
14837KMSN MSN20020902083010309/02/02 08:30:31  5-MIN KMSN 021430Z 18015KT 10SM BKN075 18/17 A2988 910 93 1500 180/15 RMK AO2 PRESFR
14837KMSN MSN20020902083510909/02/02 08:35:31  5-MIN KMSN 021435Z 18016G22KT 10SM OVC075 19/17 A2986 920 90 1600 180/16G22 RMK AO2 PRESFR
14837KMSN MSN20020902084010909/02/02 08:40:31  5-MIN KMSN 021440Z 18015G22KT 10SM BKN070 19/17 A2985 930 90 1600 180/15G22 RMK AO2 PRESFR
14837KMSN MSN20020902084509609/02/02 08:45:31  5-MIN KMSN 021445Z 18016KT 10SM BKN070 19/17 A2985 930 90 1600 180/16 RMK AO2
14837KMSN MSN20020902085012709/02/02 08:50:31  5-MIN KMSN 021450Z 19011KT 10SM BKN070CB 19/18 A2985 930 93 1600 190/11 RMK AO2 SLP103 60025 T01890178 58011
14837KMSN MSN20020902085510109/02/02 08:55:31  5-MIN KMSN 021455Z 19012G18KT 9SM BKN070 19/18 A2984 940 93 1600 190/12G18 RMK AO2
14837KMSN MSN20020902090010209/02/02 09:00:31  5-MIN KMSN 021500Z 19012G18KT 10SM BKN070 19/18 A2984 940 93 1700 190/12G18 RMK AO2
14837KMSN MSN20020902090509609/02/02 09:05:31  5-MIN KMSN 021505Z 19011KT 10SM BKN070 19/18 A2984 940 93 1700 190/11 RMK AO2
14837KMSN MSN20020902091009609/02/02 09:10:31  5-MIN KMSN 021510Z 18010KT 10SM BKN070 19/18 A2984 940 93 1700 180/10 RMK AO2
14837KMSN MSN20020902091509609/02/02 09:15:31  5-MIN KMSN 021515Z 19010KT 10SM BKN070 20/18 A2984 940 90 1800 190/10 RMK AO2
14837KMSN MSN20020902092009509/02/02 09:20:31  5-MIN KMSN 021520Z 19010KT 8SM BKN070 20/18 A2984 940 90 1800 190/10 RMK AO2
14837KMSN MSN20020902092509509/02/02 09:25:31  5-MIN KMSN 021525Z 19013KT 9SM BKN070 21/18 A2984 940 87 1800 190/13 RMK AO2
14837KMSN MSN20020902093009609/02/02 09:30:31  5-MIN KMSN 021530Z 18010KT 10SM BKN070 21/18 A2984 940 84 1800 180/10 RMK AO2
14837KMSN MSN20020902093509309/02/02 09:35:31  5-MIN KMSN 021535Z 18013KT 10SM CLR 20/18 A2984 940 87 1800 180/13 RMK AO2
14837KMSN MSN20020902094009309/02/02 09:40:31  5-MIN KMSN 021540Z 19013KT 10SM CLR 20/18 A2984 940 87 1800 180/13 RMK AO2
14837KMSN MSN20020902094509609/02/02 09:45:31  5-MIN KMSN 021545Z 18013KT 10SM FEW090 20/18 A2984 940 87 1800 180/13 RMK AO2
14837KMSN MSN20020902095011309/02/02 09:50:31  5-MIN KMSN 021550Z 18014KT 10SM SCT090 20/18 A2984 940 87 1800 180/14 RMK AO2 SLP101 T02000178
14837KMSN MSN20020902095509309/02/02 09:55:31  5-MIN KMSN 021555Z 18011KT 10SM CLR 20/18 A2984 940 87 1800 180/11 RMK AO2
14837KMSN MSN20020902100009309/02/02 10:00:31  5-MIN KMSN 021600Z 19013KT 10SM CLR 21/18 A2984 940 84 1800 180/13 RMK AO2
14837KMSN MSN20020902100509309/02/02 10:05:31  5-MIN KMSN 021605Z 18014KT 10SM CLR 21/18 A2984 940 87 1800 180/14 RMK AO2
14837KMSN MSN20020902101009609/02/02 10:10:31  5-MIN KMSN 021610Z 18013KT 10SM FEW090 21/18 A2983 940 87 1800 180/13 RMK AO2
14837KMSN MSN20020902101510209/02/02 10:15:31  5-MIN KMSN 021615Z 18016G21KT 10SM FEW090 21/18 A2983 940 87 1800 180/16G21 RMK AO2
14837KMSN MSN20020902102009609/02/02 10:20:31  5-MIN KMSN 021620Z 18015KT 10SM FEW090 21/18 A2984 940 87 1800 180/15 RMK AO2
14837KMSN MSN20020902102510209/02/02 10:25:31  5-MIN KMSN 021625Z 18017G21KT 10SM FEW090 21/18 A2984 940 87 1800 180/17G21 RMK AO2
14837KMSN MSN20020902103009309/02/02 10:30:31  5-MIN KMSN 021630Z 18016KT 10SM CLR 21/18 A2984 940 84 1900 180/16 RMK AO2
14837KMSN MSN20020902103509909/02/02 10:35:31  5-MIN KMSN 021635Z 18017G22KT 10SM CLR 21/18 A2984 940 87 1800 180/17G22 RMK AO2
14837KMSN MSN20020902104010209/02/02 10:40:31  5-MIN KMSN 021640Z 18015G22KT 10SM FEW020 21/18 A2984 940 87 1800 180/15G22 RMK AO2
14837KMSN MSN20020902104510209/02/02 10:45:31  5-MIN KMSN 021645Z 18016G20KT 10SM FEW015 21/18 A2984 940 87 1800 180/16G20 RMK AO2
14837KMSN MSN20020902105011909/02/02 10:50:31  5-MIN KMSN 021650Z 18014G20KT 10SM FEW015 21/18 A2984 940 87 1800 180/14G20 RMK AO2 SLP100 T02060183
14837KMSN MSN20020902105510209/02/02 10:55:31  5-MIN KMSN 021655Z 18012G19KT 10SM FEW015 21/18 A2984 940 84 1900 170/12G19 RMK AO2
14837KMSN MSN20020902110009609/02/02 11:00:31  5-MIN KMSN 021700Z 18015KT 10SM FEW015 21/18 A2983 940 84 1900 180/15 RMK AO2
14837KMSN MSN20020902110510209/02/02 11:05:31  5-MIN KMSN 021705Z 18015G21KT 10SM FEW015 21/18 A2983 950 84 1900 180/15G21 RMK AO2
14837KMSN MSN20020902111009909/02/02 11:10:31  5-MIN KMSN 021710Z 18015G22KT 10SM CLR 22/18 A2983 950 81 2000 180/15G22 RMK AO2
14837KMSN MSN20020902111509909/02/02 11:15:31  5-MIN KMSN 021715Z 19016G22KT 10SM CLR 22/18 A2983 950 81 2000 180/16G22 RMK AO2
14837KMSN MSN20020902112009909/02/02 11:20:31  5-MIN KMSN 021720Z 18014G20KT 10SM CLR 22/18 A2983 950 81 2000 180/14G20 RMK AO2
14837KMSN MSN20020902112509909/02/02 11:25:31  5-MIN KMSN 021725Z 19016G21KT 10SM CLR 22/18 A2982 950 81 2000 190/16G21 RMK AO2
14837KMSN MSN20020902113009909/02/02 11:30:31  5-MIN KMSN 021730Z 19014G21KT 10SM CLR 22/19 A2982 960 84 2000 180/14G21 RMK AO2
14837KMSN MSN20020902113509909/02/02 11:35:31  5-MIN KMSN 021735Z 19015G21KT 10SM CLR 22/19 A2981 960 81 2100 180/15G21 RMK AO2
14837KMSN MSN20020902114009909/02/02 11:40:31  5-MIN KMSN 021740Z 19017G21KT 10SM CLR 22/18 A2981 970 78 2100 180/17G21 RMK AO2
14837KMSN MSN20020902114509309/02/02 11:45:31  5-MIN KMSN 021745Z 18017KT 10SM CLR 23/19 A2981 970 78 2100 180/17 RMK AO2
14837KMSN MSN20020902115014009/02/02 11:50:31  5-MIN KMSN 021750Z 18017G23KT 10SM CLR 23/19 A2981 970 78 2100 180/17G23 RMK AO2 SLP090 60025 T02280189 10228 20172 58019
14837KMSN MSN20020902115510209/02/02 11:55:31  5-MIN KMSN 021755Z 18016G23KT 10SM FEW035 23/19 A2981 970 76 2200 180/16G23 RMK AO2
14837KMSN MSN20020902120009609/02/02 12:00:31  5-MIN KMSN 021800Z 19014KT 10SM FEW035 23/19 A2981 970 76 2200 190/14 RMK AO2
14837KMSN MSN20020902120509909/02/02 12:05:31  5-MIN KMSN 021805Z 18013G23KT 10SM CLR 23/18 A2980 970 73 2200 180/13G23 RMK AO2
14837KMSN MSN20020902121009909/02/02 12:10:31  5-MIN KMSN 021810Z 18015G23KT 10SM CLR 23/18 A2980 970 73 2200 180/15G23 RMK AO2
14837KMSN MSN20020902121509909/02/02 12:15:31  5-MIN KMSN 021815Z 18015G20KT 10SM CLR 24/18 A2980 980 71 2300 180/15G20 RMK AO2
14837KMSN MSN20020902122009909/02/02 12:20:31  5-MIN KMSN 021820Z 19011G20KT 10SM CLR 24/19 A2980 980 73 2300 190/11G20 RMK AO2
14837KMSN MSN20020902122509909/02/02 12:25:31  5-MIN KMSN 021825Z 18015G19KT 10SM CLR 24/19 A2980 980 73 2300 180/15G19 RMK AO2
14837KMSN MSN20020902123009909/02/02 12:30:31  5-MIN KMSN 021830Z 19017G22KT 10SM CLR 24/19 A2979 980 71 2300 190/17G22 RMK AO2
14837KMSN MSN20020902123509909/02/02 12:35:31  5-MIN KMSN 021835Z 18017G22KT 10SM CLR 24/19 A2979 980 73 2300 180/17G22 RMK AO2
14837KMSN MSN20020902124011709/02/02 12:40:31  5-MIN KMSN 021840Z 18018G28KT 10SM CLR 24/19 A2979 990 73 2300 180/18G28 RMK AO2 PK WND 18028/1838
14837KMSN MSN20020902124511709/02/02 12:45:31  5-MIN KMSN 021845Z 18020G28KT 10SM CLR 24/19 A2978 990 71 2300 180/20G28 RMK AO2 PK WND 18028/1838
14837KMSN MSN20020902125013709/02/02 12:50:31  5-MIN KMSN 021850Z 19016G26KT 10SM FEW045 24/18 A2978 990 68 2300 190/16G26 RMK AO2 PK WND 18028/1838 SLP080 T02440183
14837KMSN MSN20020902125509909/02/02 12:55:31  5-MIN KMSN 021855Z 19019G25KT 10SM CLR 24/18 A2978 990 68 2400 190/19G25 RMK AO2
14837KMSN MSN20020902130009909/02/02 13:00:31  5-MIN KMSN 021900Z 19016G25KT 10SM CLR 24/18 A2978 990 68 2400 180/16G25 RMK AO2
14837KMSN MSN20020902130510009/02/02 13:05:31  5-MIN KMSN 021905Z 19016G25KT 10SM CLR 24/18 A2978 1000 68 2400 190/16G25 RMK AO2
14837KMSN MSN20020902131010009/02/02 13:10:31  5-MIN KMSN 021910Z 19016G25KT 10SM CLR 25/19 A2977 1000 68 2400 180/16G25 RMK AO2
14837KMSN MSN20020902131510009/02/02 13:15:31  5-MIN KMSN 021915Z 19014G23KT 10SM CLR 25/19 A2977 1000 68 2400 180/14G23 RMK AO2
14837KMSN MSN20020902132010009/02/02 13:20:31  5-MIN KMSN 021920Z 18019G23KT 10SM CLR 25/19 A2977 1010 68 2400 180/19G23 RMK AO2
14837KMSN MSN20020902132509409/02/02 13:25:31  5-MIN KMSN 021925Z 19016KT 10SM CLR 25/19 A2976 1010 68 2400 190/16 RMK AO2
14837KMSN MSN20020902133010009/02/02 13:30:31  5-MIN KMSN 021930Z 19016G25KT 10SM CLR 26/19 A2976 1010 66 2500 190/16G25 RMK AO2
14837KMSN MSN20020902133511609/02/02 13:35:31  5-MIN KMSN 021935Z 19012G25KT 160V220 10SM CLR 26/19 A2976 1010 68 2500 190/12G25 160V220 RMK AO2
14837KMSN MSN20020902134011809/02/02 13:40:31  5-MIN KMSN 021940Z 19014G26KT 10SM CLR 26/19 A2976 1010 66 2600 190/14G26 RMK AO2 PK WND 19026/1937
14837KMSN MSN20020902134511809/02/02 13:45:31  5-MIN KMSN 021945Z 19017G28KT 10SM CLR 26/19 A2976 1010 66 2600 190/17G28 RMK AO2 PK WND 18028/1943
14837KMSN MSN20020902135013509/02/02 13:50:31  5-MIN KMSN 021950Z 19015G28KT 10SM CLR 26/19 A2976 1020 66 2600 180/15G28 RMK AO2 PK WND 18028/1943 SLP071 T02610194
14837KMSN MSN20020902135510009/02/02 13:55:31  5-MIN KMSN 021955Z 19018G24KT 10SM CLR 27/19 A2975 1020 64 2600 190/18G24 RMK AO2
14837KMSN MSN20020902140010009/02/02 14:00:31  5-MIN KMSN 022000Z 18018G24KT 10SM CLR 27/19 A2975 1020 64 2600 180/18G24 RMK AO2
14837KMSN MSN20020902140511709/02/02 14:05:31  5-MIN KMSN 022005Z 18021G28KT 9SM CLR 27/20 A2975 1020 66 2600 180/21G28 RMK AO2 PK WND 18028/2005
14837KMSN MSN20020902141012109/02/02 14:10:31  5-MIN KMSN 022010Z 19016G28KT 10SM FEW110 26/19 A2974 1030 66 2600 190/16G28 RMK AO2 PK WND 18028/2005
14837KMSN MSN20020902141511809/02/02 14:15:31  5-MIN KMSN 022015Z 19018G26KT 10SM CLR 27/20 A2974 1030 66 2600 180/18G26 RMK AO2 PK WND 18028/2005
14837KMSN MSN20020902142011209/02/02 14:20:31  5-MIN KMSN 022020Z 19017KT 10SM CLR 27/20 A2974 1030 66 2600 180/17 RMK AO2 PK WND 18028/2005
14837KMSN MSN20020902142511809/02/02 14:25:31  5-MIN KMSN 022025Z 19014G22KT 10SM CLR 27/20 A2974 1030 66 2600 190/14G22 RMK AO2 PK WND 18028/2005
14837KMSN MSN20020902143012109/02/02 14:30:31  5-MIN KMSN 022030Z 18017G23KT 10SM FEW035 27/20 A2974 1030 66 2600 180/17G23 RMK AO2 PK WND 18028/2005
14837KMSN MSN20020902143512109/02/02 14:35:31  5-MIN KMSN 022035Z 19015G23KT 10SM FEW035 27/20 A2974 1030 66 2600 190/15G23 RMK AO2 PK WND 18028/2005
14837KMSN MSN20020902144012009/02/02 14:40:31  5-MIN KMSN 022040Z 19015G23KT 8SM FEW100 27/20 A2974 1030 66 2600 190/15G23 RMK AO2 PK WND 18028/2005
14837KMSN MSN20020902144512009/02/02 14:45:31  5-MIN KMSN 022045Z 20013G24KT 8SM FEW100 27/20 A2974 1030 66 2600 200/13G24 RMK AO2 PK WND 18028/2005
14837KMSN MSN20020902145014409/02/02 14:50:31  5-MIN KMSN 022050Z 19016G24KT 10SM FEW100 27/20 A2974 1030 66 2600 180/16G24 RMK AO2 PK WND 18028/2005 SLP065 T02670200 58013
14837KMSN MSN20020902145510309/02/02 14:55:31  5-MIN KMSN 022055Z 18013G20KT 10SM FEW100 27/20 A2973 1040 66 2700 180/13G20 RMK AO2
14837KMSN MSN20020902150010309/02/02 15:00:31  5-MIN KMSN 022100Z 18012G20KT 10SM FEW100 27/21 A2973 1040 66 2700 180/12G20 RMK AO2
14837KMSN MSN20020902150510309/02/02 15:05:31  5-MIN KMSN 022105Z 18014G18KT 10SM FEW100 27/21 A2973 1040 66 2700 180/14G18 RMK AO2
14837KMSN MSN20020902151010309/02/02 15:10:31  5-MIN KMSN 022110Z 18013G19KT 10SM FEW100 27/21 A2972 1050 66 2700 180/13G19 RMK AO2
14837KMSN MSN20020902151510309/02/02 15:15:31  5-MIN KMSN 022115Z 19015G25KT 10SM FEW100 27/21 A2972 1050 66 2700 190/15G25 RMK AO2
14837KMSN MSN20020902152010309/02/02 15:20:31  5-MIN KMSN 022120Z 18018G25KT 10SM FEW100 27/21 A2972 1050 66 2700 180/18G25 RMK AO2
14837KMSN MSN20020902152510309/02/02 15:25:31  5-MIN KMSN 022125Z 19015G24KT 10SM FEW100 27/21 A2972 1050 66 2700 190/15G24 RMK AO2
14837KMSN MSN20020902153010309/02/02 15:30:31  5-MIN KMSN 022130Z 19016G24KT 10SM FEW100 27/21 A2972 1050 66 2700 190/16G24 RMK AO2
14837KMSN MSN20020902153510309/02/02 15:35:31  5-MIN KMSN 022135Z 19016G23KT 10SM FEW100 27/21 A2972 1050 66 2700 190/16G23 RMK AO2
14837KMSN MSN20020902154010309/02/02 15:40:31  5-MIN KMSN 022140Z 21012G22KT 10SM FEW100 27/21 A2972 1050 66 2700 210/12G22 RMK AO2
14837KMSN MSN20020902154510309/02/02 15:45:31  5-MIN KMSN 022145Z 21008G21KT 10SM FEW100 27/21 A2972 1050 66 2700 210/08G21 RMK AO2
14837KMSN MSN20020902155012009/02/02 15:50:31  5-MIN KMSN 022150Z 19015G21KT 10SM FEW100 27/21 A2972 1050 69 2700 190/15G21 RMK AO2 SLP060 T02720211
14837KMSN MSN20020902155509909/02/02 15:55:31  5-MIN KMSN 022155Z 20011G19KT 8SM CLR 27/21 A2972 1050 69 2700 200/11G19 RMK AO2
14837KMSN MSN20020902160009909/02/02 16:00:31  5-MIN KMSN 022200Z 20011G19KT 8SM CLR 27/21 A2972 1050 69 2700 200/11G19 RMK AO2
14837KMSN MSN20020902160509909/02/02 16:05:31  5-MIN KMSN 022205Z 21012G17KT 8SM CLR 27/21 A2972 1050 69 2700 200/12G17 RMK AO2
14837KMSN MSN20020902161009309/02/02 16:10:31  5-MIN KMSN 022210Z 20012KT 8SM CLR 27/21 A2973 1050 69 2700 200/12 RMK AO2
14837KMSN MSN20020902161509909/02/02 16:15:31  5-MIN KMSN 022215Z 19010G16KT 8SM CLR 27/21 A2973 1040 71 2700 190/10G16 RMK AO2
14837KMSN MSN20020902162009909/02/02 16:20:31  5-MIN KMSN 022220Z 20008G17KT 8SM CLR 27/22 A2973 1040 71 2700 200/08G17 RMK AO2
14837KMSN MSN20020902162510209/02/02 16:25:31  5-MIN KMSN 022225Z 21010G19KT 8SM FEW100 27/22 A2973 1040 71 2700 210/10G19 RMK AO2
14837KMSN MSN20020902163010209/02/02 16:30:31  5-MIN KMSN 022230Z 20010G19KT 7SM FEW100 27/22 A2972 1050 71 2700 200/10G19 RMK AO2
14837KMSN MSN20020902163510209/02/02 16:35:31  5-MIN KMSN 022235Z 21011G17KT 7SM FEW100 27/22 A2972 1050 73 2700 210/11G17 RMK AO2
14837KMSN MSN20020902164009609/02/02 16:40:31  5-MIN KMSN 022240Z 21010KT 7SM FEW100 27/22 A2972 1050 73 2700 200/10 RMK AO2
14837KMSN MSN20020902164509609/02/02 16:45:31  5-MIN KMSN 022245Z 20009KT 7SM FEW100 27/22 A2972 1050 73 2700 200/09 RMK AO2
14837KMSN MSN20020902165011009/02/02 16:50:31  5-MIN KMSN 022250Z 20010KT 9SM CLR 27/22 A2972 1050 76 2700 200/10 RMK AO2 SLP059 T02670222
14837KMSN MSN20020902165509309/02/02 16:55:31  5-MIN KMSN 022255Z 20009KT 7SM CLR 27/22 A2971 1050 76 2700 200/09 RMK AO2
14837KMSN MSN20020902170009309/02/02 17:00:31  5-MIN KMSN 022300Z 20011KT 7SM CLR 27/22 A2971 1060 76 2700 200/11 RMK AO2
14837KMSN MSN20020902170509309/02/02 17:05:31  5-MIN KMSN 022305Z 19010KT 7SM CLR 27/22 A2971 1060 74 2700 190/10 RMK AO2
14837KMSN MSN20020902171009909/02/02 17:10:31  5-MIN KMSN 022310Z 20011G16KT 7SM CLR 27/22 A2971 1060 74 2700 200/11G16 RMK AO2
14837KMSN MSN20020902171509909/02/02 17:15:31  5-MIN KMSN 022315Z 20008G16KT 7SM CLR 27/22 A2971 1060 74 2700 200/08G16 RMK AO2
14837KMSN MSN20020902172009309/02/02 17:20:31  5-MIN KMSN 022320Z 20008KT 7SM CLR 27/23 A2971 1050 76 2700 190/08 RMK AO2
14837KMSN MSN20020902172509309/02/02 17:25:31  5-MIN KMSN 022325Z 19010KT 7SM CLR 27/23 A2971 1060 76 2700 190/10 RMK AO2
14837KMSN MSN20020902173009909/02/02 17:30:31  5-MIN KMSN 022330Z 20011G15KT 7SM CLR 27/23 A2971 1060 76 2700 200/11G15 RMK AO2
14837KMSN MSN20020902173509309/02/02 17:35:31  5-MIN KMSN 022335Z 20009KT 7SM CLR 27/22 A2971 1060 74 2700 200/09 RMK AO2
14837KMSN MSN20020902174009909/02/02 17:40:31  5-MIN KMSN 022340Z 21010G18KT 7SM CLR 28/22 A2971 1060 71 2800 200/10G18 RMK AO2
14837KMSN MSN20020902174509909/02/02 17:45:31  5-MIN KMSN 022345Z 20010G18KT 8SM CLR 28/22 A2971 1060 71 2800 200/10G18 RMK AO2
14837KMSN MSN20020902175013709/02/02 17:50:31  5-MIN KMSN 022350Z 20010G16KT 8SM FEW060 28/22 A2970 1060 69 2800 200/10G16 RMK AO2 SLP053 T02780217 10278 20233 56024
14837KMSN MSN20020902175509909/02/02 17:55:31  5-MIN KMSN 022355Z 20011G19KT 8SM CLR 28/22 A2971 1060 69 2800 200/11G19 RMK AO2
14837KMSN MSN20020902180010209/02/02 18:00:31  5-MIN KMSN 030000Z 20012G19KT 8SM FEW060 28/22 A2971 1060 69 2800 200/12G19 RMK AO2
14837KMSN MSN20020902180510209/02/02 18:05:31  5-MIN KMSN 030005Z 20012G18KT 8SM FEW060 27/22 A2971 1060 71 2700 200/12G18 RMK AO2
14837KMSN MSN20020902181010209/02/02 18:10:31  5-MIN KMSN 030010Z 21009G18KT 8SM FEW060 27/22 A2971 1060 71 2700 210/09G18 RMK AO2
14837KMSN MSN20020902181510209/02/02 18:15:31  5-MIN KMSN 030015Z 20009G17KT 8SM FEW060 27/22 A2972 1050 71 2700 200/09G17 RMK AO2
14837KMSN MSN20020902182010209/02/02 18:20:31  5-MIN KMSN 030020Z 20008G17KT 8SM FEW060 27/22 A2972 1050 71 2700 190/08G17 RMK AO2
14837KMSN MSN20020902182510209/02/02 18:25:31  5-MIN KMSN 030025Z 20010G17KT 8SM FEW060 27/22 A2972 1050 71 2700 200/10G17 RMK AO2
14837KMSN MSN20020902183009609/02/02 18:30:31  5-MIN KMSN 030030Z 20008KT 8SM FEW060 27/22 A2972 1050 71 2700 200/08 RMK AO2
14837KMSN MSN20020902183510209/02/02 18:35:31  5-MIN KMSN 030035Z 20010G16KT 8SM FEW060 27/22 A2972 1050 71 2700 190/10G16 RMK AO2
14837KMSN MSN20020902184009609/02/02 18:40:31  5-MIN KMSN 030040Z 20010KT 8SM FEW060 27/22 A2971 1060 71 2700 200/10 RMK AO2
14837KMSN MSN20020902184509609/02/02 18:45:31  5-MIN KMSN 030045Z 20010KT 9SM FEW060 27/22 A2971 1060 71 2700 200/10 RMK AO2
14837KMSN MSN20020902185011309/02/02 18:50:31  5-MIN KMSN 030050Z 19014KT 9SM FEW060 27/22 A2971 1060 71 2700 190/14 RMK AO2 SLP055 T02720217
14837KMSN MSN20020902185509309/02/02 18:55:31  5-MIN KMSN 030055Z 19009KT 9SM CLR 27/22 A2971 1060 71 2700 190/09 RMK AO2
14837KMSN MSN20020902190009309/02/02 19:00:31  5-MIN KMSN 030100Z 19010KT 9SM CLR 27/22 A2971 1060 71 2700 190/10 RMK AO2
14837KMSN MSN20020902190509909/02/02 19:05:31  5-MIN KMSN 030105Z 19011G18KT 9SM CLR 27/22 A2971 1060 71 2700 190/11G18 RMK AO2
14837KMSN MSN20020902191010209/02/02 19:10:31  5-MIN KMSN 030110Z 19011G18KT 9SM FEW055 27/22 A2972 1050 71 2700 190/11G18 RMK AO2
14837KMSN MSN20020902191509609/02/02 19:15:31  5-MIN KMSN 030115Z 19010KT 9SM SCT055 27/22 A2972 1050 71 2700 190/10 RMK AO2
14837KMSN MSN20020902192009609/02/02 19:20:31  5-MIN KMSN 030120Z 20013KT 9SM SCT055 27/22 A2972 1050 73 2700 200/13 RMK AO2
14837KMSN MSN20020902192510909/02/02 19:25:31  5-MIN KMSN 030125Z 19011G17KT 9SM SCT055 SCT070 27/22 A2972 1050 73 2700 190/11G17 RMK AO2
14837KMSN MSN20020902193009609/02/02 19:30:31  5-MIN KMSN 030130Z 20008KT 9SM SCT060 27/22 A2972 1050 73 2700 200/08 RMK AO2
14837KMSN MSN20020902193509609/02/02 19:35:31  5-MIN KMSN 030135Z 20009KT 9SM BKN055 27/22 A2972 1050 73 2700 200/09 RMK AO2
14837KMSN MSN20020902194010909/02/02 19:40:31  5-MIN KMSN 030140Z 21007G14KT 9SM BKN055 BKN070 27/22 A2972 1050 73 2700 210/07G14 RMK AO2
14837KMSN MSN20020902194510909/02/02 19:45:31  5-MIN KMSN 030145Z 21009G15KT 9SM BKN055 BKN070 27/22 A2972 1050 73 2700 210/09G15 RMK AO2
14837KMSN MSN20020902195012609/02/02 19:50:31  5-MIN KMSN 030150Z 20008G15KT 9SM SCT055 SCT070 27/22 A2973 1040 73 2700 200/08G15 RMK AO2 SLP061 T02670217
14837KMSN MSN20020902195510209/02/02 19:55:31  5-MIN KMSN 030155Z 20010G17KT 9SM SCT055 27/22 A2973 1040 76 2700 200/10G17 RMK AO2
14837KMSN MSN20020902200010209/02/02 20:00:31  5-MIN KMSN 030200Z 21008G17KT 9SM FEW055 27/22 A2974 1030 76 2700 210/08G17 RMK AO2
14837KMSN MSN20020902200509609/02/02 20:05:31  5-MIN KMSN 030205Z 21010KT 9SM FEW049 27/22 A2974 1040 73 2700 200/10 RMK AO2
14837KMSN MSN20020902201009609/02/02 20:10:31  5-MIN KMSN 030210Z 21010KT 9SM FEW049 27/22 A2974 1030 73 2700 210/10 RMK AO2
14837KMSN MSN20020902201510309/02/02 20:15:31  5-MIN KMSN 030215Z 22010KT 9SM FEW049 SCT120 27/22 A2974 1030 73 2700 210/10 RMK AO2
14837KMSN MSN20020902202011909/02/02 20:20:31  5-MIN KMSN 030220Z 21010KT 190V260 9SM FEW049 SCT090 27/22 A2974 1030 73 2700 210/10 190V260 RMK AO2
14837KMSN MSN20020902202511609/02/02 20:25:31  5-MIN KMSN 030225Z 22012G16KT 9SM FEW047 SCT075 SCT090 27/22 A2974 1030 73 2600 220/12G16 RMK AO2
14837KMSN MSN20020902203011009/02/02 20:30:31  5-MIN KMSN 030230Z 23010KT 9SM SCT043 SCT055 SCT080 27/22 A2975 1020 73 2600 220/10 RMK AO2
14837KMSN MSN20020902203511609/02/02 20:35:31  5-MIN KMSN 030235Z 22009G16KT 9SM SCT041 BKN050 BKN065 27/22 A2975 1020 73 2600 220/09G16 RMK AO2
14837KMSN MSN20020902204011609/02/02 20:40:31  5-MIN KMSN 030240Z 22010G16KT 9SM FEW038 BKN047 BKN090 27/22 A2975 1020 73 2600 220/10G16 RMK AO2
14837KMSN MSN20020902204510909/02/02 20:45:31  5-MIN KMSN 030245Z 22007G15KT 9SM FEW038 SCT047 26/22 A2976 1020 76 2600 220/07G15 RMK AO2
14837KMSN MSN20020902205015209/02/02 20:50:31  5-MIN KMSN 030250Z 22008KT 9SM SCT041 SCT050 SCT060 26/22 A2976 1020 76 2600 220/08 RMK AO2 SLP071 CONS LTG DSNT N-NE T02610217 56010
14837KMSN MSN20020902205512609/02/02 20:55:31  5-MIN KMSN 030255Z 22007KT 200V260 9SM SCT041 BKN050 BKN060 26/22 A2976 1010 76 2600 220/07 200V260 RMK AO2
14837KMSN MSN20020902210014609/02/02 21:00:31  5-MIN KMSN 030300Z VRB06KT 9SM -RA FEW037 SCT045 BKN055 26/22 A2976 1010 76 2600 VRB/06 RMK AO2 RAB0258 FRQ LTG DSNT N-NE P0000
14837KMSN MSN20020902210516809/02/02 21:05:31  5-MIN KMSN 030305Z 23009G14KT 200V260 9SM -RA SCT032 SCT039 BKN050 26/22 A2977 1010 76 2600 230/09G14 200V260 RMK AO2 RAB0258 FRQ LTG DSNT N-NE P0000
14837KMSN MSN20020902211015209/02/02 21:10:31  5-MIN KMSN 030310Z 29010KT 10SM FEW026 BKN032 BKN043 26/22 A2978 990 76 2500 290/10 RMK AO2 RAB0258E10 PRESRR FRQ LTG DSNT N-NE P0000
14837KMSN MSN20020902211515009/02/02 21:15:31  5-MIN KMSN 030315Z 31014G23KT 9SM SCT026 BKN034 OVC060 26/21 A2979 990 76 2500 310/14G23 RMK AO2 RAB0258E10 FRQ LTG DSNT N-NE P0000
14837KMSN MSN20020902212015709/02/02 21:20:31  5-MIN KMSN 030320Z 32013G23KT 9SM FEW024 SCT033 BKN045 25/21 A2979 980 76 2400 320/13G23 RMK AO2 RAB0258E10 PRESRR FRQ LTG DSNT N-NE P0000
14837KMSN MSN20020902212516209/02/02 21:25:31  5-MIN KMSN 030325Z 32013G18KT 10SM FEW024 SCT033 BKN045 25/19 A2980 980 68 2400 320/13G18 RMK AO2 WSHFT 0310 RAB0258E10 FRQ LTG DSNT N-NE P0000
14837KMSN MSN20020902213016109/02/02 21:30:31  5-MIN KMSN 030330Z 32009G18KT 10SM FEW024 SCT031 BKN045 24/17 A2980 980 63 2300 320/09G18 RMK AO2 WSHFT 0310 RAB0258E10 FRQ LTG DSNT N-E P0000
14837KMSN MSN20020902213515609/02/02 21:35:31  5-MIN KMSN 030335Z 31011KT 10SM FEW026 SCT045 BKN065 24/17 A2981 970 63 2300 310/11 RMK AO2 WSHFT 0310 RAB0258E10 FRQ LTG DSNT NE-E P0000
14837KMSN MSN20020902214014909/02/02 21:40:31  5-MIN KMSN 030340Z 32009KT 10SM BKN045 BKN065 24/17 A2981 960 66 2300 310/09 RMK AO2 WSHFT 0310 RAB0258E10 FRQ LTG DSNT NE-E P0000
14837KMSN MSN20020902214514909/02/02 21:45:31  5-MIN KMSN 030345Z 32006KT 10SM BKN047 BKN065 24/17 A2982 960 66 2200 320/06 RMK AO2 WSHFT 0310 RAB0258E10 FRQ LTG DSNT NE-E P0000
14837KMSN MSN20020902215015509/02/02 21:50:31  5-MIN KMSN 030350Z 32005KT 10SM BKN047 BKN060 23/17 A2982 950 68 2200 320/05 RMK AO2 WSHFT 0310 RAB0258E10 PRESRR SLP094 P0000 T02330172
14837KMSN MSN20020902215511009/02/02 21:55:31  5-MIN KMSN 030355Z 35006KT 10SM FEW047 BKN060 23/17 A2983 950 68 2200 340/06 RMK AO2 PRESRR
14837KMSN MSN20020902220011709/02/02 22:00:31  5-MIN KMSN 030400Z 32005KT 10SM FEW035 SCT047 OVC055 23/17 A2983 940 68 2200 320/05 RMK AO2 PRESRR
14837KMSN MSN20020902220511009/02/02 22:05:31  5-MIN KMSN 030405Z 33005KT 10SM SCT035 BKN047 OVC055 23/17 A2983 940 70 2100 330/05 RMK AO2
14837KMSN MSN20020902221011009/02/02 22:10:31  5-MIN KMSN 030410Z VRB06KT 10SM SCT035 BKN050 OVC060 23/17 A2984 940 70 2100 VRB/06 RMK AO2
14837KMSN MSN20020902221510309/02/02 22:15:31  5-MIN KMSN 030415Z 33009KT 10SM FEW035 OVC060 23/17 A2984 940 68 2100 330/09 RMK AO2
14837KMSN MSN20020902222010309/02/02 22:20:31  5-MIN KMSN 030420Z 33008KT 10SM FEW035 OVC060 23/16 A2984 930 65 2100 330/08 RMK AO2
14837KMSN MSN20020902222510309/02/02 22:25:31  5-MIN KMSN 030425Z 34007KT 10SM FEW035 OVC060 23/16 A2985 930 65 2100 340/07 RMK AO2
14837KMSN MSN20020902223010309/02/02 22:30:31  5-MIN KMSN 030430Z 34009KT 10SM FEW035 OVC060 22/16 A2985 930 68 2000 340/09 RMK AO2
14837KMSN MSN20020902223510209/02/02 22:35:31  5-MIN KMSN 030435Z 34012G16KT 10SM OVC060 22/16 A2986 920 68 2000 340/12G16 RMK AO2
14837KMSN MSN20020902224009609/02/02 22:40:31  5-MIN KMSN 030440Z 34011KT 10SM OVC060 22/16 A2986 920 65 2000 330/11 RMK AO2
14837KMSN MSN20020902224510209/02/02 22:45:31  5-MIN KMSN 030445Z 33013G19KT 10SM OVC060 22/14 A2987 910 61 2000 330/13G19 RMK AO2
14837KMSN MSN20020902225011909/02/02 22:50:31  5-MIN KMSN 030450Z 34010G20KT 10SM SCT060 22/14 A2987 910 61 1900 340/10G20 RMK AO2 SLP111 T02170139
14837KMSN MSN20020902225510209/02/02 22:55:31  5-MIN KMSN 030455Z 34011G20KT 10SM BKN060 21/14 A2987 910 63 1900 340/11G20 RMK AO2
14837KMSN MSN20020902230010209/02/02 23:00:31  5-MIN KMSN 030500Z 34012G17KT 10SM BKN060 21/13 A2988 910 61 1900 330/12G17 RMK AO2
14837KMSN MSN20020902230510209/02/02 23:05:31  5-MIN KMSN 030505Z 33010G17KT 10SM SCT060 21/13 A2988 900 61 1900 330/10G17 RMK AO2
14837KMSN MSN20020902231009609/02/02 23:10:31  5-MIN KMSN 030510Z 32009KT 10SM FEW065 21/13 A2988 900 63 1800 320/09 RMK AO2
14837KMSN MSN20020902231509609/02/02 23:15:31  5-MIN KMSN 030515Z 33008KT 10SM FEW065 21/13 A2988 900 63 1800 330/08 RMK AO2
14837KMSN MSN20020902232009309/02/02 23:20:31  5-MIN KMSN 030520Z 33009KT 10SM CLR 21/13 A2989 900 63 1800 330/09 RMK AO2
14837KMSN MSN20020902232509309/02/02 23:25:31  5-MIN KMSN 030525Z 33007KT 10SM CLR 20/13 A2989 890 65 1700 320/07 RMK AO2
14837KMSN MSN20020902233009309/02/02 23:30:31  5-MIN KMSN 030530Z 34006KT 10SM CLR 20/13 A2989 890 65 1700 330/06 RMK AO2
14837KMSN MSN20020902233509309/02/02 23:35:31  5-MIN KMSN 030535Z 33006KT 10SM CLR 20/13 A2989 890 65 1700 330/06 RMK AO2
14837KMSN MSN20020902234009309/02/02 23:40:31  5-MIN KMSN 030540Z 33006KT 10SM CLR 20/13 A2989 890 65 1700 330/06 RMK AO2
14837KMSN MSN20020902234509309/02/02 23:45:31  5-MIN KMSN 030545Z 33006KT 10SM CLR 19/13 A2989 890 67 1700 330/06 RMK AO2
14837KMSN MSN20020902235014409/02/02 23:50:31  5-MIN KMSN 030550Z 32005KT 10SM CLR 19/13 A2989 890 70 1600 320/05 RMK AO2 SLP118 60000 T01890133 10278 20189 402780167 53019
14837KMSN MSN20020902235509309/02/02 23:55:31  5-MIN KMSN 030555Z 32004KT 10SM CLR 19/13 A2990 890 70 1600 310/04 RMK AO2
14837KMSN MSN20020903000009309/03/02 00:00:31  5-MIN KMSN 030600Z 32005KT 10SM CLR 19/13 A2989 890 70 1600 320/05 RMK AO2
14837KMSN MSN20020903000509309/03/02 00:05:31  5-MIN KMSN 030605Z 31006KT 10SM CLR 19/13 A2990 890 70 1600 310/06 RMK AO2
14837KMSN MSN20020903001009309/03/02 00:10:31  5-MIN KMSN 030610Z 31005KT 10SM CLR 19/13 A2990 890 70 1600 310/05 RMK AO2
14837KMSN MSN20020903001509309/03/02 00:15:31  5-MIN KMSN 030615Z 32005KT 10SM CLR 18/13 A2990 890 72 1500 320/05 RMK AO2
14837KMSN MSN20020903002009309/03/02 00:20:31  5-MIN KMSN 030620Z 31004KT 10SM CLR 18/13 A2990 880 72 1500 310/04 RMK AO2
14837KMSN MSN20020903002509309/03/02 00:25:31  5-MIN KMSN 030625Z 30003KT 10SM CLR 18/13 A2990 880 72 1500 300/03 RMK AO2
14837KMSN MSN20020903003009309/03/02 00:30:31  5-MIN KMSN 030630Z 31003KT 10SM CLR 18/13 A2990 880 72 1500 310/03 RMK AO2
14837KMSN MSN20020903003509309/03/02 00:35:31  5-MIN KMSN 030635Z 32003KT 10SM CLR 18/13 A2990 880 75 1500 320/03 RMK AO2
14837KMSN MSN20020903004009309/03/02 00:40:31  5-MIN KMSN 030640Z 00000KT 10SM CLR 17/13 A2990 880 78 1400 000/00 RMK AO2
14837KMSN MSN20020903004509309/03/02 00:45:31  5-MIN KMSN 030645Z 30003KT 10SM CLR 17/13 A2990 880 78 1400 290/03 RMK AO2
14837KMSN MSN20020903005011009/03/02 00:50:31  5-MIN KMSN 030650Z 29003KT 10SM CLR 17/13 A2991 880 78 1400 290/03 RMK AO2 SLP122 T01720133
14837KMSN MSN20020903005509309/03/02 00:55:31  5-MIN KMSN 030655Z 29004KT 10SM CLR 17/13 A2990 880 80 1300 290/04 RMK AO2
14837KMSN MSN20020903010009309/03/02 01:00:31  5-MIN KMSN 030700Z 29004KT 10SM CLR 17/13 A2991 880 78 1400 290/04 RMK AO2
14837KMSN MSN20020903010509309/03/02 01:05:31  5-MIN KMSN 030705Z 27003KT 10SM CLR 17/13 A2991 880 78 1400 270/03 RMK AO2
14837KMSN MSN20020903011009309/03/02 01:10:31  5-MIN KMSN 030710Z 00000KT 10SM CLR 17/13 A2991 880 78 1400 000/00 RMK AO2
14837KMSN MSN20020903011509309/03/02 01:15:31  5-MIN KMSN 030715Z VRB04KT 10SM CLR 17/13 A2991 880 78 1400 VRB/04 RMK AO2
14837KMSN MSN20020903012009309/03/02 01:20:31  5-MIN KMSN 030720Z 26003KT 10SM CLR 17/13 A2991 880 78 1400 260/03 RMK AO2
14837KMSN MSN20020903012509309/03/02 01:25:31  5-MIN KMSN 030725Z 00000KT 10SM CLR 17/13 A2991 870 80 1300 000/00 RMK AO2
14837KMSN MSN20020903013009309/03/02 01:30:31  5-MIN KMSN 030730Z 28003KT 10SM CLR 16/13 A2991 870 83 1200 280/03 RMK AO2
14837KMSN MSN20020903013509309/03/02 01:35:31  5-MIN KMSN 030735Z 27003KT 10SM CLR 15/13 A2991 880 90 1100 270/03 RMK AO2
14837KMSN MSN20020903014009309/03/02 01:40:31  5-MIN KMSN 030740Z 29004KT 10SM CLR 16/13 A2991 880 86 1200 280/04 RMK AO2
14837KMSN MSN20020903014509309/03/02 01:45:31  5-MIN KMSN 030745Z 29004KT 10SM CLR 16/13 A2991 880 80 1200 290/04 RMK AO2
14837KMSN MSN20020903015011009/03/02 01:50:31  5-MIN KMSN 030750Z VRB03KT 10SM CLR 17/13 A2991 880 77 1300 VRB/03 RMK AO2 SLP123 T01670128
14837KMSN MSN20020903015509309/03/02 01:55:31  5-MIN KMSN 030755Z 28004KT 10SM CLR 17/13 A2991 870 77 1300 280/04 RMK AO2
14837KMSN MSN20020903020009309/03/02 02:00:31  5-MIN KMSN 030800Z 28004KT 10SM CLR 17/13 A2991 870 77 1300 280/04 RMK AO2
14837KMSN MSN20020903020509309/03/02 02:05:31  5-MIN KMSN 030805Z 27003KT 10SM CLR 17/13 A2991 870 77 1300 270/03 RMK AO2
14837KMSN MSN20020903021009309/03/02 02:10:31  5-MIN KMSN 030810Z VRB03KT 10SM CLR 17/13 A2991 870 77 1300 VRB/03 RMK AO2
14837KMSN MSN20020903021509309/03/02 02:15:31  5-MIN KMSN 030815Z VRB03KT 10SM CLR 16/13 A2991 880 80 1200 VRB/03 RMK AO2
14837KMSN MSN20020903022009309/03/02 02:20:31  5-MIN KMSN 030820Z VRB04KT 10SM CLR 16/13 A2991 870 80 1200 VRB/04 RMK AO2
14837KMSN MSN20020903022509309/03/02 02:25:31  5-MIN KMSN 030825Z VRB04KT 10SM CLR 17/13 A2991 870 77 1300 VRB/04 RMK AO2
14837KMSN MSN20020903023009309/03/02 02:30:31  5-MIN KMSN 030830Z VRB03KT 10SM CLR 16/13 A2991 870 80 1200 VRB/03 RMK AO2
14837KMSN MSN20020903023509309/03/02 02:35:31  5-MIN KMSN 030835Z VRB03KT 10SM CLR 16/13 A2991 870 80 1200 VRB/03 RMK AO2
14837KMSN MSN20020903024009309/03/02 02:40:31  5-MIN KMSN 030840Z 29004KT 10SM CLR 16/13 A2991 870 80 1200 290/04 RMK AO2
14837KMSN MSN20020903024509309/03/02 02:45:31  5-MIN KMSN 030845Z 28005KT 10SM CLR 16/13 A2991 870 80 1200 280/05 RMK AO2
14837KMSN MSN20020903025011609/03/02 02:50:31  5-MIN KMSN 030850Z VRB04KT 10SM CLR 16/13 A2991 870 80 1200 VRB/04 RMK AO2 SLP126 T01610128 51044
14837KMSN MSN20020903025509309/03/02 02:55:31  5-MIN KMSN 030855Z 28005KT 10SM CLR 16/13 A2991 870 80 1200 280/05 RMK AO2
14837KMSN MSN20020903030009309/03/02 03:00:31  5-MIN KMSN 030900Z VRB04KT 10SM CLR 16/13 A2991 870 80 1200 VRB/04 RMK AO2
14837KMSN MSN20020903030509309/03/02 03:05:31  5-MIN KMSN 030905Z 30004KT 10SM CLR 16/13 A2992 870 80 1200 300/04 RMK AO2
14837KMSN MSN20020903031009309/03/02 03:10:31  5-MIN KMSN 030910Z VRB04KT 10SM CLR 16/13 A2992 870 80 1200 VRB/04 RMK AO2
14837KMSN MSN20020903031509309/03/02 03:15:31  5-MIN KMSN 030915Z 29004KT 10SM CLR 16/13 A2992 870 80 1200 290/04 RMK AO2
14837KMSN MSN20020903032009309/03/02 03:20:31  5-MIN KMSN 030920Z 29005KT 10SM CLR 16/13 A2992 860 80 1200 290/05 RMK AO2
14837KMSN MSN20020903032509309/03/02 03:25:31  5-MIN KMSN 030925Z 29004KT 10SM CLR 16/13 A2992 860 80 1200 290/04 RMK AO2
14837KMSN MSN20020903033009309/03/02 03:30:31  5-MIN KMSN 030930Z 29004KT 10SM CLR 16/13 A2992 860 83 1200 290/04 RMK AO2
14837KMSN MSN20020903033509309/03/02 03:35:31  5-MIN KMSN 030935Z VRB04KT 10SM CLR 16/13 A2992 860 83 1200 VRB/04 RMK AO2
14837KMSN MSN20020903034009309/03/02 03:40:31  5-MIN KMSN 030940Z 29004KT 10SM CLR 16/13 A2992 860 83 1200 290/04 RMK AO2
14837KMSN MSN20020903034509309/03/02 03:45:31  5-MIN KMSN 030945Z 29004KT 10SM CLR 16/13 A2993 860 83 1200 290/04 RMK AO2
14837KMSN MSN20020903035011009/03/02 03:50:31  5-MIN KMSN 030950Z 29005KT 10SM CLR 16/13 A2993 860 83 1200 280/05 RMK AO2 SLP130 T01560128
14837KMSN MSN20020903035509309/03/02 03:55:31  5-MIN KMSN 030955Z 29005KT 10SM CLR 16/13 A2993 860 83 1200 290/05 RMK AO2
14837KMSN MSN20020903040009309/03/02 04:00:31  5-MIN KMSN 031000Z 29005KT 10SM CLR 16/13 A2993 850 83 1200 280/05 RMK AO2
14837KMSN MSN20020903040509309/03/02 04:05:31  5-MIN KMSN 031005Z 29006KT 10SM CLR 16/13 A2993 850 83 1200 280/06 RMK AO2
14837KMSN MSN20020903041009309/03/02 04:10:31  5-MIN KMSN 031010Z 29006KT 10SM CLR 16/13 A2993 850 83 1200 280/06 RMK AO2
14837KMSN MSN20020903041509309/03/02 04:15:31  5-MIN KMSN 031015Z 29004KT 10SM CLR 16/13 A2994 850 83 1200 290/04 RMK AO2
14837KMSN MSN20020903042009309/03/02 04:20:31  5-MIN KMSN 031020Z 29005KT 10SM CLR 15/13 A2994 850 86 1100 290/05 RMK AO2
14837KMSN MSN20020903042509309/03/02 04:25:31  5-MIN KMSN 031025Z 29004KT 10SM CLR 15/13 A2994 850 86 1100 290/04 RMK AO2
14837KMSN MSN20020903043009309/03/02 04:30:31  5-MIN KMSN 031030Z 29005KT 10SM CLR 15/13 A2994 840 86 1100 280/05 RMK AO2
14837KMSN MSN20020903043509309/03/02 04:35:31  5-MIN KMSN 031035Z 29005KT 10SM CLR 15/13 A2994 840 86 1100 290/05 RMK AO2
14837KMSN MSN20020903044009309/03/02 04:40:31  5-MIN KMSN 031040Z 29004KT 10SM CLR 15/13 A2995 840 86 1100 290/04 RMK AO2
14837KMSN MSN20020903044509309/03/02 04:45:31  5-MIN KMSN 031045Z VRB05KT 10SM CLR 15/13 A2995 840 86 1100 VRB/05 RMK AO2
14837KMSN MSN20020903045011009/03/02 04:50:31  5-MIN KMSN 031050Z VRB03KT 10SM CLR 15/13 A2995 830 86 1100 VRB/03 RMK AO2 SLP138 T01500128
14837KMSN MSN20020903045509309/03/02 04:55:31  5-MIN KMSN 031055Z 29003KT 10SM CLR 15/13 A2996 830 86 1100 290/03 RMK AO2
14837KMSN MSN20020903050009309/03/02 05:00:31  5-MIN KMSN 031100Z 29004KT 10SM CLR 15/13 A2996 830 86 1100 290/04 RMK AO2
14837KMSN MSN20020903050509309/03/02 05:05:31  5-MIN KMSN 031105Z 28004KT 10SM CLR 15/13 A2996 830 86 1100 280/04 RMK AO2
14837KMSN MSN20020903051009309/03/02 05:10:31  5-MIN KMSN 031110Z VRB04KT 10SM CLR 15/13 A2996 830 86 1100 VRB/04 RMK AO2
14837KMSN MSN20020903051509309/03/02 05:15:31  5-MIN KMSN 031115Z VRB05KT 10SM CLR 15/13 A2996 830 86 1100 VRB/05 RMK AO2
14837KMSN MSN20020903052009309/03/02 05:20:31  5-MIN KMSN 031120Z 28005KT 10SM CLR 16/13 A2997 820 83 1100 280/05 RMK AO2
14837KMSN MSN20020903052509309/03/02 05:25:31  5-MIN KMSN 031125Z VRB04KT 10SM CLR 16/13 A2997 820 83 1100 VRB/04 RMK AO2
14837KMSN MSN20020903053009309/03/02 05:30:31  5-MIN KMSN 031130Z VRB06KT 10SM CLR 16/13 A2997 820 83 1100 VRB/06 RMK AO2
14837KMSN MSN20020903053509309/03/02 05:35:31  5-MIN KMSN 031135Z VRB04KT 10SM CLR 16/13 A2997 810 83 1100 VRB/04 RMK AO2
14837KMSN MSN20020903054009309/03/02 05:40:31  5-MIN KMSN 031140Z 26004KT 10SM CLR 16/13 A2998 810 83 1100 260/04 RMK AO2
14837KMSN MSN20020903054509309/03/02 05:45:31  5-MIN KMSN 031145Z VRB03KT 10SM CLR 16/13 A2998 810 83 1100 VRB/03 RMK AO2
14837KMSN MSN20020903055013409/03/02 05:50:31  5-MIN KMSN 031150Z VRB04KT 10SM CLR 16/13 A2998 810 80 1200 VRB/04 RMK AO2 SLP148 70025 T01610128 10189 20150 51006
14837KMSN MSN20020903055509309/03/02 05:55:31  5-MIN KMSN 031155Z 26005KT 10SM CLR 16/13 A2998 810 80 1200 260/05 RMK AO2
14837KMSN MSN20020903060009309/03/02 06:00:31  5-MIN KMSN 031200Z VRB05KT 10SM CLR 16/13 A2998 810 80 1200 VRB/05 RMK AO2
14837KMSN MSN20020903060509309/03/02 06:05:31  5-MIN KMSN 031205Z VRB05KT 10SM CLR 16/13 A2998 810 80 1200 VRB/05 RMK AO2
14837KMSN MSN20020903061009309/03/02 06:10:31  5-MIN KMSN 031210Z VRB05KT 10SM CLR 16/13 A2998 810 80 1200 VRB/05 RMK AO2
14837KMSN MSN20020903061509309/03/02 06:15:31  5-MIN KMSN 031215Z VRB04KT 10SM CLR 17/13 A2998 810 77 1200 VRB/04 RMK AO2
14837KMSN MSN20020903062009309/03/02 06:20:31  5-MIN KMSN 031220Z VRB05KT 10SM CLR 17/13 A2999 800 77 1200 VRB/05 RMK AO2
14837KMSN MSN20020903062509309/03/02 06:25:31  5-MIN KMSN 031225Z VRB05KT 10SM CLR 17/13 A2999 800 77 1200 VRB/05 RMK AO2
14837KMSN MSN20020903063009309/03/02 06:30:31  5-MIN KMSN 031230Z 27006KT 10SM CLR 17/13 A2999 800 75 1300 270/06 RMK AO2
14837KMSN MSN20020903063509309/03/02 06:35:31  5-MIN KMSN 031235Z VRB05KT 10SM CLR 17/13 A2999 800 75 1300 VRB/05 RMK AO2
14837KMSN MSN20020903064009309/03/02 06:40:31  5-MIN KMSN 031240Z 27006KT 10SM CLR 17/13 A2999 800 75 1300 270/06 RMK AO2
14837KMSN MSN20020903064509309/03/02 06:45:31  5-MIN KMSN 031245Z 27006KT 10SM CLR 17/13 A2999 800 75 1300 270/06 RMK AO2
14837KMSN MSN20020903065011009/03/02 06:50:31  5-MIN KMSN 031250Z VRB05KT 10SM CLR 17/13 A2999 800 75 1300 VRB/05 RMK AO2 SLP152 T01720128
14837KMSN MSN20020903065509309/03/02 06:55:31  5-MIN KMSN 031255Z 27006KT 10SM CLR 18/13 A2999 800 72 1300 270/06 RMK AO2
14837KMSN MSN20020903070009309/03/02 07:00:31  5-MIN KMSN 031300Z 28006KT 10SM CLR 18/13 A3000 790 72 1300 280/06 RMK AO2
14837KMSN MSN20020903070509309/03/02 07:05:31  5-MIN KMSN 031305Z 27007KT 10SM CLR 18/13 A3000 790 72 1300 270/07 RMK AO2
14837KMSN MSN20020903071009309/03/02 07:10:31  5-MIN KMSN 031310Z VRB06KT 10SM CLR 18/13 A3000 790 75 1300 VRB/06 RMK AO2
14837KMSN MSN20020903071509309/03/02 07:15:31  5-MIN KMSN 031315Z VRB05KT 10SM CLR 18/13 A3000 790 75 1300 VRB/05 RMK AO2
14837KMSN MSN20020903072009309/03/02 07:20:31  5-MIN KMSN 031320Z 27007KT 10SM CLR 18/13 A3000 790 75 1300 270/07 RMK AO2
14837KMSN MSN20020903072509309/03/02 07:25:31  5-MIN KMSN 031325Z VRB04KT 10SM CLR 18/13 A3000 790 72 1400 VRB/04 RMK AO2
14837KMSN MSN20020903073009309/03/02 07:30:31  5-MIN KMSN 031330Z VRB06KT 10SM CLR 18/13 A3000 790 72 1400 VRB/06 RMK AO2
14837KMSN MSN20020903073509309/03/02 07:35:31  5-MIN KMSN 031335Z 27007KT 10SM CLR 18/13 A3000 790 72 1400 270/07 RMK AO2
14837KMSN MSN20020903074009309/03/02 07:40:31  5-MIN KMSN 031340Z 27006KT 10SM CLR 19/13 A3000 790 70 1500 270/06 RMK AO2
14837KMSN MSN20020903074509309/03/02 07:45:31  5-MIN KMSN 031345Z 28008KT 10SM CLR 19/13 A3000 790 70 1500 280/08 RMK AO2
14837KMSN MSN20020903075011009/03/02 07:50:31  5-MIN KMSN 031350Z 29007KT 10SM CLR 19/13 A3000 790 70 1500 290/07 RMK AO2 SLP155 T01890133
14837KMSN MSN20020903075509309/03/02 07:55:31  5-MIN KMSN 031355Z 27006KT 10SM CLR 19/13 A3001 790 70 1500 270/06 RMK AO2
14837KMSN MSN20020903080009309/03/02 08:00:31  5-MIN KMSN 031400Z 29006KT 10SM CLR 19/13 A3001 790 67 1500 290/06 RMK AO2
14837KMSN MSN20020903080509309/03/02 08:05:31  5-MIN KMSN 031405Z VRB06KT 10SM CLR 19/13 A3001 780 67 1500 VRB/06 RMK AO2
14837KMSN MSN20020903081009309/03/02 08:10:31  5-MIN KMSN 031410Z 28007KT 10SM CLR 19/13 A3001 780 67 1500 280/07 RMK AO2
14837KMSN MSN20020903081509309/03/02 08:15:31  5-MIN KMSN 031415Z VRB05KT 10SM CLR 19/13 A3001 780 67 1500 VRB/05 RMK AO2
14837KMSN MSN20020903082009309/03/02 08:20:31  5-MIN KMSN 031420Z 28006KT 10SM CLR 20/13 A3001 780 65 1600 280/06 RMK AO2
14837KMSN MSN20020903082509309/03/02 08:25:31  5-MIN KMSN 031425Z 28006KT 10SM CLR 20/13 A3001 780 63 1600 280/06 RMK AO2
14837KMSN MSN20020903083009309/03/02 08:30:31  5-MIN KMSN 031430Z VRB05KT 10SM CLR 20/13 A3001 780 65 1600 VRB/05 RMK AO2
14837KMSN MSN20020903083509309/03/02 08:35:31  5-MIN KMSN 031435Z 27007KT 10SM CLR 21/13 A3001 780 60 1600 270/07 RMK AO2
14837KMSN MSN20020903084009309/03/02 08:40:31  5-MIN KMSN 031440Z 28007KT 10SM CLR 21/13 A3001 780 60 1600 280/07 RMK AO2
14837KMSN MSN20020903084509309/03/02 08:45:31  5-MIN KMSN 031445Z 28006KT 10SM CLR 21/13 A3001 780 60 1600 280/06 RMK AO2
14837KMSN MSN20020903085011609/03/02 08:50:31  5-MIN KMSN 031450Z 28007KT 10SM CLR 21/13 A3002 780 60 1600 280/07 RMK AO2 SLP159 T02060128 53022
14837KMSN MSN20020903085509309/03/02 08:55:31  5-MIN KMSN 031455Z 26007KT 10SM CLR 21/13 A3002 780 60 1600 260/07 RMK AO2
14837KMSN MSN20020903090009309/03/02 09:00:31  5-MIN KMSN 031500Z 26007KT 10SM CLR 21/13 A3002 770 58 1700 260/07 RMK AO2
14837KMSN MSN20020903090509309/03/02 09:05:31  5-MIN KMSN 031505Z 29007KT 10SM CLR 21/12 A3002 770 56 1700 290/07 RMK AO2
14837KMSN MSN20020903091009309/03/02 09:10:31  5-MIN KMSN 031510Z VRB05KT 10SM CLR 21/12 A3002 770 56 1700 VRB/05 RMK AO2
14837KMSN MSN20020903091510909/03/02 09:15:31  5-MIN KMSN 031515Z 29007KT 270V330 10SM CLR 22/13 A3002 770 56 1800 290/07 270V330 RMK AO2
14837KMSN MSN20020903092009309/03/02 09:20:31  5-MIN KMSN 031520Z VRB05KT 10SM CLR 22/13 A3002 770 56 1800 VRB/05 RMK AO2
14837KMSN MSN20020903092509309/03/02 09:25:31  5-MIN KMSN 031525Z VRB05KT 10SM CLR 22/13 A3002 770 54 1800 VRB/05 RMK AO2
14837KMSN MSN20020903093009309/03/02 09:30:31  5-MIN KMSN 031530Z VRB06KT 10SM CLR 22/13 A3002 770 56 1800 VRB/06 RMK AO2
14837KMSN MSN20020903093509309/03/02 09:35:31  5-MIN KMSN 031535Z 25006KT 10SM CLR 22/12 A3002 770 54 1800 250/06 RMK AO2
14837KMSN MSN20020903094009309/03/02 09:40:31  5-MIN KMSN 031540Z 28008KT 10SM CLR 22/12 A3002 770 51 1800 280/08 RMK AO2
14837KMSN MSN20020903094510909/03/02 09:45:31  5-MIN KMSN 031545Z 28008KT 260V330 10SM CLR 22/11 A3002 770 49 1800 280/08 260V330 RMK AO2
14837KMSN MSN20020903095011009/03/02 09:50:31  5-MIN KMSN 031550Z 30008KT 10SM CLR 23/12 A3002 770 51 1900 300/08 RMK AO2 SLP161 T02280122
14837KMSN MSN20020903095509309/03/02 09:55:31  5-MIN KMSN 031555Z 27007KT 10SM CLR 22/12 A3002 770 52 1800 270/07 RMK AO2
14837KMSN MSN20020903100009309/03/02 10:00:31  5-MIN KMSN 031600Z 31008KT 10SM CLR 23/11 A3002 770 45 1900 310/08 RMK AO2
14837KMSN MSN20020903100510909/03/02 10:05:31  5-MIN KMSN 031605Z 29007KT 250V320 10SM CLR 23/11 A3002 770 47 1900 290/07 250V320 RMK AO2
14837KMSN MSN20020903101010909/03/02 10:10:31  5-MIN KMSN 031610Z 29007KT 250V320 10SM CLR 23/11 A3002 770 45 2000 290/07 250V320 RMK AO2
14837KMSN MSN20020903101509909/03/02 10:15:31  5-MIN KMSN 031615Z 30009G14KT 10SM CLR 23/11 A3002 770 45 1900 300/09G14 RMK AO2
14837KMSN MSN20020903102009909/03/02 10:20:31  5-MIN KMSN 031620Z 29009G14KT 10SM CLR 23/11 A3002 770 45 1900 290/09G14 RMK AO2
14837KMSN MSN20020903102509309/03/02 10:25:31  5-MIN KMSN 031625Z 28007KT 10SM CLR 23/11 A3002 770 45 2000 280/07 RMK AO2
14837KMSN MSN20020903103011509/03/02 10:30:31  5-MIN KMSN 031630Z 28010G14KT 240V300 10SM CLR 23/10 A3002 770 42 2000 280/10G14 240V300 RMK AO2
14837KMSN MSN20020903103511509/03/02 10:35:31  5-MIN KMSN 031635Z 28008G14KT 260V320 10SM CLR 23/10 A3002 770 42 2000 280/08G14 260V320 RMK AO2
14837KMSN MSN20020903104010909/03/02 10:40:31  5-MIN KMSN 031640Z 29008KT 260V320 10SM CLR 24/10 A3002 770 41 2000 290/08 260V320 RMK AO2
14837KMSN MSN20020903104509909/03/02 10:45:31  5-MIN KMSN 031645Z 29012G16KT 10SM CLR 23/10 A3002 770 42 2000 280/12G16 RMK AO2
14837KMSN MSN20020903105011609/03/02 10:50:31  5-MIN KMSN 031650Z 28011G17KT 10SM CLR 23/09 A3003 770 41 1900 270/11G17 RMK AO2 SLP162 T02330094
14837KMSN MSN20020903105509909/03/02 10:55:31  5-MIN KMSN 031655Z 30012G18KT 10SM CLR 23/09 A3002 770 39 2000 300/12G18 RMK AO2
14837KMSN MSN20020903110009909/03/02 11:00:31  5-MIN KMSN 031700Z 28010G18KT 10SM CLR 23/09 A3002 770 39 2000 280/10G18 RMK AO2
14837KMSN MSN20020903110509909/03/02 11:05:31  5-MIN KMSN 031705Z 30009G15KT 10SM CLR 24/10 A3002 770 41 2000 300/09G15 RMK AO2
14837KMSN MSN20020903111009309/03/02 11:10:31  5-MIN KMSN 031710Z 28007KT 10SM CLR 24/09 A3002 770 39 2000 280/07 RMK AO2
14837KMSN MSN20020903111509309/03/02 11:15:31  5-MIN KMSN 031715Z 30010KT 10SM CLR 24/09 A3002 770 39 2000 300/10 RMK AO2
14837KMSN MSN20020903112009309/03/02 11:20:31  5-MIN KMSN 031720Z 30011KT 10SM CLR 23/09 A3002 770 39 2000 290/11 RMK AO2
14837KMSN MSN20020903112509309/03/02 11:25:31  5-MIN KMSN 031725Z 29009KT 10SM CLR 23/09 A3002 770 39 2000 290/09 RMK AO2
14837KMSN MSN20020903113010909/03/02 11:30:31  5-MIN KMSN 031730Z 27012KT 230V290 10SM CLR 24/09 A3002 770 38 2000 270/12 230V290 RMK AO2
14837KMSN MSN20020903113510909/03/02 11:35:31  5-MIN KMSN 031735Z 27009KT 230V310 10SM CLR 24/10 A3002 770 41 2000 270/09 230V310 RMK AO2
14837KMSN MSN20020903114009309/03/02 11:40:31  5-MIN KMSN 031740Z 29008KT 10SM CLR 24/09 A3002 770 39 2000 290/08 RMK AO2
14837KMSN MSN20020903114509309/03/02 11:45:31  5-MIN KMSN 031745Z 27011KT 10SM CLR 24/09 A3003 770 39 2000 270/11 RMK AO2
14837KMSN MSN20020903115014409/03/02 11:50:31  5-MIN KMSN 031750Z 27010KT 220V290 10SM CLR 24/09 A3003 770 39 2000 260/10 220V290 RMK AO2 SLP164 T02390094 10239 20161 51012
14837KMSN MSN20020903115510909/03/02 11:55:31  5-MIN KMSN 031755Z 28009KT 240V320 10SM CLR 24/10 A3003 770 41 2000 280/09 240V320 RMK AO2
14837KMSN MSN20020903120010909/03/02 12:00:31  5-MIN KMSN 031800Z 27007KT 230V310 10SM CLR 24/10 A3003 770 41 2000 270/07 230V310 RMK AO2
14837KMSN MSN20020903120510909/03/02 12:05:31  5-MIN KMSN 031805Z 31008KT 280V350 10SM CLR 24/11 A3003 770 42 2100 310/08 280V350 RMK AO2
14837KMSN MSN20020903121009309/03/02 12:10:31  5-MIN KMSN 031810Z 30008KT 10SM CLR 24/11 A3003 770 42 2100 300/08 RMK AO2
14837KMSN MSN20020903121511509/03/02 12:15:31  5-MIN KMSN 031815Z 29008G15KT 250V320 10SM CLR 24/11 A3003 770 42 2100 290/08G15 250V320 RMK AO2
14837KMSN MSN20020903122009909/03/02 12:20:31  5-MIN KMSN 031820Z 31011G17KT 10SM CLR 24/10 A3003 770 41 2000 300/11G17 RMK AO2
14837KMSN MSN20020903122509909/03/02 12:25:31  5-MIN KMSN 031825Z 30007G17KT 10SM CLR 24/11 A3003 770 41 2100 300/07G17 RMK AO2
14837KMSN MSN20020903123011509/03/02 12:30:31  5-MIN KMSN 031830Z 30010G16KT 270V330 10SM CLR 24/11 A3002 770 41 2100 300/10G16 270V330 RMK AO2
14837KMSN MSN20020903123511509/03/02 12:35:31  5-MIN KMSN 031835Z 29008G16KT 250V320 10SM CLR 24/11 A3002 770 41 2100 290/08G16 250V320 RMK AO2
14837KMSN MSN20020903124009309/03/02 12:40:31  5-MIN KMSN 031840Z 30011KT 10SM CLR 24/10 A3002 770 39 2100 300/11 RMK AO2
14837KMSN MSN20020903124511509/03/02 12:45:31  5-MIN KMSN 031845Z 28007G15KT 230V320 10SM CLR 24/11 A3003 770 41 2100 280/07G15 230V320 RMK AO2
14837KMSN MSN20020903125012609/03/02 12:50:31  5-MIN KMSN 031850Z 29009KT 250V310 10SM CLR 24/10 A3002 770 39 2100 280/09 250V310 RMK AO2 SLP162 T02440100
14837KMSN MSN20020903125509309/03/02 12:55:31  5-MIN KMSN 031855Z 29009KT 10SM CLR 24/10 A3002 770 39 2100 290/09 RMK AO2
14837KMSN MSN20020903130009309/03/02 13:00:31  5-MIN KMSN 031900Z 28010KT 10SM CLR 24/11 A3002 770 41 2100 280/10 RMK AO2
14837KMSN MSN20020903130509909/03/02 13:05:31  5-MIN KMSN 031905Z 30009G14KT 10SM CLR 24/11 A3002 770 41 2100 290/09G14 RMK AO2
14837KMSN MSN20020903131009309/03/02 13:10:31  5-MIN KMSN 031910Z 30007KT 10SM CLR 25/11 A3002 770 39 2100 300/07 RMK AO2
14837KMSN MSN20020903131509309/03/02 13:15:31  5-MIN KMSN 031915Z 31010KT 10SM CLR 25/11 A3002 770 39 2100 310/10 RMK AO2
14837KMSN MSN20020903132010909/03/02 13:20:31  5-MIN KMSN 031920Z 31009KT 270V340 10SM CLR 25/11 A3002 770 39 2100 300/09 270V340 RMK AO2
14837KMSN MSN20020903132510909/03/02 13:25:31  5-MIN KMSN 031925Z 30007KT 270V340 10SM CLR 25/10 A3002 770 38 2100 300/07 270V340 RMK AO2
14837KMSN MSN20020903133009309/03/02 13:30:31  5-MIN KMSN 031930Z 29009KT 10SM CLR 25/10 A3002 770 38 2100 290/09 RMK AO2
14837KMSN MSN20020903133509309/03/02 13:35:31  5-MIN KMSN 031935Z VRB06KT 10SM CLR 26/10 A3002 770 37 2200 VRB/06 RMK AO2
14837KMSN MSN20020903134009909/03/02 13:40:31  5-MIN KMSN 031940Z 32010G14KT 10SM CLR 26/09 A3002 780 35 2200 320/10G14 RMK AO2
14837KMSN MSN20020903134509309/03/02 13:45:31  5-MIN KMSN 031945Z 28009KT 10SM CLR 25/09 A3002 780 35 2100 280/09 RMK AO2
14837KMSN MSN20020903135011009/03/02 13:50:31  5-MIN KMSN 031950Z 30010KT 10SM CLR 25/09 A3002 780 35 2100 300/10 RMK AO2 SLP160 T02500089
14837KMSN MSN20020903135510909/03/02 13:55:31  5-MIN KMSN 031955Z 31007KT 250V330 10SM CLR 26/09 A3002 780 35 2200 300/07 250V330 RMK AO2
14837KMSN MSN20020903140011509/03/02 14:00:31  5-MIN KMSN 032000Z 32011G15KT 290V350 10SM CLR 26/09 A3002 780 34 2200 320/11G15 290V350 RMK AO2
14837KMSN MSN20020903140509909/03/02 14:05:31  5-MIN KMSN 032005Z 31009G16KT 10SM CLR 26/08 A3001 780 33 2200 310/09G16 RMK AO2
14837KMSN MSN20020903141011509/03/02 14:10:31  5-MIN KMSN 032010Z 32009G16KT 280V340 10SM CLR 25/09 A3001 780 35 2200 310/09G16 280V340 RMK AO2
14837KMSN MSN20020903141509909/03/02 14:15:31  5-MIN KMSN 032015Z 31012G18KT 10SM CLR 26/09 A3002 770 35 2200 310/12G18 RMK AO2
14837KMSN MSN20020903142009909/03/02 14:20:31  5-MIN KMSN 032020Z 31010G18KT 10SM CLR 26/09 A3002 770 34 2200 310/10G18 RMK AO2
14837KMSN MSN20020903142509309/03/02 14:25:31  5-MIN KMSN 032025Z 33007KT 10SM CLR 26/09 A3002 770 34 2200 320/07 RMK AO2
14837KMSN MSN20020903143009309/03/02 14:30:31  5-MIN KMSN 032030Z 33008KT 10SM CLR 26/10 A3002 770 37 2200 330/08 RMK AO2
14837KMSN MSN20020903143509309/03/02 14:35:31  5-MIN KMSN 032035Z 30011KT 10SM CLR 26/10 A3002 770 37 2200 300/11 RMK AO2
14837KMSN MSN20020903144009309/03/02 14:40:31  5-MIN KMSN 032040Z 30011KT 10SM CLR 26/09 A3002 770 35 2200 300/11 RMK AO2
14837KMSN MSN20020903144509909/03/02 14:45:31  5-MIN KMSN 032045Z 32012G17KT 10SM CLR 25/09 A3002 770 35 2100 320/12G17 RMK AO2
14837KMSN MSN20020903145012209/03/02 14:50:31  5-MIN KMSN 032050Z 33012G18KT 10SM CLR 25/09 A3002 770 35 2100 330/12G18 RMK AO2 SLP162 T02500089 51003
14837KMSN MSN20020903145509909/03/02 14:55:31  5-MIN KMSN 032055Z 32007G18KT 10SM CLR 26/09 A3002 770 35 2200 320/07G18 RMK AO2
14837KMSN MSN20020903150009309/03/02 15:00:31  5-MIN KMSN 032100Z 30009KT 10SM CLR 26/10 A3002 770 37 2200 300/09 RMK AO2
14837KMSN MSN20020903150509909/03/02 15:05:31  5-MIN KMSN 032105Z 32011G16KT 10SM CLR 26/09 A3002 780 35 2200 320/11G16 RMK AO2
14837KMSN MSN20020903151009909/03/02 15:10:31  5-MIN KMSN 032110Z 30009G16KT 10SM CLR 26/10 A3002 770 37 2200 300/09G16 RMK AO2
14837KMSN MSN20020903151509909/03/02 15:15:31  5-MIN KMSN 032115Z 32011G16KT 10SM CLR 26/09 A3002 770 35 2200 310/11G16 RMK AO2
14837KMSN MSN20020903152009909/03/02 15:20:31  5-MIN KMSN 032120Z 32011G17KT 10SM CLR 25/09 A3002 770 35 2100 320/11G17 RMK AO2
14837KMSN MSN20020903152509909/03/02 15:25:31  5-MIN KMSN 032125Z 30010G17KT 10SM CLR 25/09 A3002 770 37 2100 300/10G17 RMK AO2
14837KMSN MSN20020903153010909/03/02 15:30:31  5-MIN KMSN 032130Z 32008KT 280V340 10SM CLR 25/09 A3002 770 37 2100 320/08 280V340 RMK AO2
14837KMSN MSN20020903153509309/03/02 15:35:31  5-MIN KMSN 032135Z 31009KT 10SM CLR 26/10 A3002 770 37 2200 310/09 RMK AO2
14837KMSN MSN20020903154009309/03/02 15:40:31  5-MIN KMSN 032140Z 32007KT 10SM CLR 26/10 A3003 770 37 2200 310/07 RMK AO2
14837KMSN MSN20020903154509309/03/02 15:45:31  5-MIN KMSN 032145Z 30009KT 10SM CLR 26/11 A3003 760 38 2200 290/09 RMK AO2
14837KMSN MSN20020903155012609/03/02 15:50:31  5-MIN KMSN 032150Z 31008KT 260V360 10SM CLR 25/10 A3003 760 38 2100 310/08 260V360 RMK AO2 SLP166 T02500100
14837KMSN MSN20020903155509309/03/02 15:55:31  5-MIN KMSN 032155Z 29008KT 10SM CLR 25/10 A3003 760 38 2100 290/08 RMK AO2
14837KMSN MSN20020903160009909/03/02 16:00:31  5-MIN KMSN 032200Z 32009G19KT 10SM CLR 25/09 A3003 760 37 2100 320/09G19 RMK AO2
14837KMSN MSN20020903160509909/03/02 16:05:31  5-MIN KMSN 032205Z 32011G19KT 10SM CLR 25/11 A3003 760 39 2100 320/11G19 RMK AO2
14837KMSN MSN20020903161011509/03/02 16:10:31  5-MIN KMSN 032210Z 31008G16KT 270V340 10SM CLR 25/09 A3003 760 37 2100 310/08G16 270V340 RMK AO2
14837KMSN MSN20020903161509909/03/02 16:15:31  5-MIN KMSN 032215Z 32011G15KT 10SM CLR 25/09 A3003 760 37 2100 310/11G15 RMK AO2
14837KMSN MSN20020903162009309/03/02 16:20:31  5-MIN KMSN 032220Z 31008KT 10SM CLR 25/09 A3003 760 37 2100 310/08 RMK AO2
14837KMSN MSN20020903162509309/03/02 16:25:31  5-MIN KMSN 032225Z 31006KT 10SM CLR 25/09 A3003 760 37 2100 310/06 RMK AO2
14837KMSN MSN20020903163009309/03/02 16:30:31  5-MIN KMSN 032230Z 30007KT 10SM CLR 25/10 A3003 760 38 2100 300/07 RMK AO2
14837KMSN MSN20020903163509309/03/02 16:35:31  5-MIN KMSN 032235Z 31005KT 10SM CLR 25/10 A3003 760 38 2100 310/05 RMK AO2
14837KMSN MSN20020903164009309/03/02 16:40:31  5-MIN KMSN 032240Z 31006KT 10SM CLR 25/11 A3003 760 39 2100 300/06 RMK AO2
14837KMSN MSN20020903164509309/03/02 16:45:31  5-MIN KMSN 032245Z 30007KT 10SM CLR 25/11 A3003 760 39 2100 300/07 RMK AO2
14837KMSN MSN20020903165011009/03/02 16:50:31  5-MIN KMSN 032250Z 30008KT 10SM CLR 24/10 A3003 760 39 2100 300/08 RMK AO2 SLP167 T02440100
14837KMSN MSN20020903165509309/03/02 16:55:31  5-MIN KMSN 032255Z 31008KT 10SM CLR 24/10 A3003 760 39 2100 300/08 RMK AO2
14837KMSN MSN20020903170009309/03/02 17:00:31  5-MIN KMSN 032300Z 31006KT 10SM CLR 24/10 A3003 760 39 2100 310/06 RMK AO2
14837KMSN MSN20020903170509309/03/02 17:05:31  5-MIN KMSN 032305Z VRB06KT 10SM CLR 24/11 A3003 760 41 2100 VRB/06 RMK AO2
14837KMSN MSN20020903171009309/03/02 17:10:31  5-MIN KMSN 032310Z 30004KT 10SM CLR 24/11 A3003 760 41 2100 300/04 RMK AO2
14837KMSN MSN20020903171509309/03/02 17:15:31  5-MIN KMSN 032315Z 31006KT 10SM CLR 24/11 A3003 760 41 2100 300/06 RMK AO2
14837KMSN MSN20020903172009309/03/02 17:20:31  5-MIN KMSN 032320Z VRB05KT 10SM CLR 24/11 A3003 760 42 2000 VRB/05 RMK AO2
14837KMSN MSN20020903172509309/03/02 17:25:31  5-MIN KMSN 032325Z VRB04KT 10SM CLR 24/11 A3004 760 42 2000 VRB/04 RMK AO2
14837KMSN MSN20020903173009309/03/02 17:30:31  5-MIN KMSN 032330Z VRB06KT 10SM CLR 24/11 A3004 760 42 2000 VRB/06 RMK AO2
14837KMSN MSN20020903173509309/03/02 17:35:31  5-MIN KMSN 032335Z 31005KT 10SM CLR 23/11 A3004 760 44 1900 310/05 RMK AO2
14837KMSN MSN20020903174009309/03/02 17:40:31  5-MIN KMSN 032340Z 00000KT 10SM CLR 23/11 A3004 750 44 1900 000/00 RMK AO2
14837KMSN MSN20020903174509309/03/02 17:45:31  5-MIN KMSN 032345Z 00000KT 10SM CLR 23/11 A3004 750 44 1900 000/00 RMK AO2
14837KMSN MSN20020903175012809/03/02 17:50:31  5-MIN KMSN 032350Z VRB03KT 10SM CLR 23/11 A3004 750 47 1900 VRB/03 RMK AO2 SLP170 T02280111 10256 20228 55003
14837KMSN MSN20020903175509309/03/02 17:55:31  5-MIN KMSN 032355Z 00000KT 10SM CLR 22/11 A3004 750 49 1800 000/00 RMK AO2
14837KMSN MSN20020903180009309/03/02 18:00:31  5-MIN KMSN 040000Z 00000KT 10SM CLR 22/12 A3004 750 54 1700 000/00 RMK AO2
14837KMSN MSN20020903180509309/03/02 18:05:31  5-MIN KMSN 040005Z 00000KT 10SM CLR 21/12 A3004 750 58 1600 000/00 RMK AO2
14837KMSN MSN20020903181009309/03/02 18:10:31  5-MIN KMSN 040010Z 00000KT 10SM CLR 20/13 A3004 750 63 1500 000/00 RMK AO2
14837KMSN MSN20020903181509309/03/02 18:15:31  5-MIN KMSN 040015Z 00000KT 10SM CLR 19/13 A3005 750 67 1500 000/00 RMK AO2
14837KMSN MSN20020903182009309/03/02 18:20:31  5-MIN KMSN 040020Z 00000KT 10SM CLR 19/13 A3005 750 70 1400 000/00 RMK AO2
14837KMSN MSN20020903182509309/03/02 18:25:31  5-MIN KMSN 040025Z 00000KT 10SM CLR 19/13 A3005 750 67 1400 000/00 RMK AO2
14837KMSN MSN20020903183009309/03/02 18:30:31  5-MIN KMSN 040030Z 00000KT 10SM CLR 18/13 A3005 750 72 1300 000/00 RMK AO2
14837KMSN MSN20020903183510509/03/02 18:35:31  5-MIN KMSN 040035Z 00000KT 10SM CLR 18/13 A3005 740 72 1300 000/00 RMK AO2 (ACFT MSHP)
14837KMSN MSN20020903184010509/03/02 18:40:31  5-MIN KMSN 040040Z 00000KT 10SM CLR 18/13 A3005 740 72 1300 000/00 RMK AO2 (ACFT MSHP)
14837KMSN MSN20020903184509309/03/02 18:45:31  5-MIN KMSN 040045Z 00000KT 10SM CLR 18/13 A3005 740 72 1300 000/00 RMK AO2
14837KMSN MSN20020903185011009/03/02 18:50:31  5-MIN KMSN 040050Z 00000KT 10SM CLR 18/13 A3005 740 72 1300 000/00 RMK AO2 SLP175 T01830133
14837KMSN MSN20020903185509309/03/02 18:55:31  5-MIN KMSN 040055Z 00000KT 10SM CLR 18/13 A3006 740 75 1300 000/00 RMK AO2
14837KMSN MSN20020903190009309/03/02 19:00:31  5-MIN KMSN 040100Z 00000KT 10SM CLR 18/13 A3006 740 75 1300 000/00 RMK AO2
14837KMSN MSN20020903190509309/03/02 19:05:31  5-MIN KMSN 040105Z 00000KT 10SM CLR 18/13 A3006 740 75 1300 000/00 RMK AO2
14837KMSN MSN20020903191009309/03/02 19:10:31  5-MIN KMSN 040110Z 00000KT 10SM CLR 17/13 A3006 730 78 1200 000/00 RMK AO2
14837KMSN MSN20020903191509309/03/02 19:15:31  5-MIN KMSN 040115Z 00000KT 10SM CLR 17/13 A3006 730 77 1100 000/00 RMK AO2
14837KMSN MSN20020903192009309/03/02 19:20:31  5-MIN KMSN 040120Z 00000KT 10SM CLR 17/13 A3006 730 75 1200 000/00 RMK AO2
14837KMSN MSN20020903192509309/03/02 19:25:31  5-MIN KMSN 040125Z 00000KT 10SM CLR 17/13 A3007 730 80 1100 000/00 RMK AO2
14837KMSN MSN20020903193009309/03/02 19:30:31  5-MIN KMSN 040130Z 00000KT 10SM CLR 17/13 A3007 730 77 1100 000/00 RMK AO2
14837KMSN MSN20020903193509309/03/02 19:35:31  5-MIN KMSN 040135Z 00000KT 10SM CLR 17/13 A3007 730 77 1100 000/00 RMK AO2
14837KMSN MSN20020903194009309/03/02 19:40:31  5-MIN KMSN 040140Z 00000KT 10SM CLR 16/13 A3007 730 80 1100 000/00 RMK AO2
14837KMSN MSN20020903194509309/03/02 19:45:31  5-MIN KMSN 040145Z 00000KT 10SM CLR 16/12 A3007 730 77 1100 000/00 RMK AO2
14837KMSN MSN20020903195011009/03/02 19:50:31  5-MIN KMSN 040150Z 00000KT 10SM CLR 16/12 A3007 730 77 1100 000/00 RMK AO2 SLP181 T01610122
14837KMSN MSN20020903195509309/03/02 19:55:31  5-MIN KMSN 040155Z 00000KT 10SM CLR 17/13 A3007 730 77 1100 000/00 RMK AO2
14837KMSN MSN20020903200009309/03/02 20:00:31  5-MIN KMSN 040200Z 00000KT 10SM CLR 16/13 A3007 720 80 1100 000/00 RMK AO2
14837KMSN MSN20020903200509309/03/02 20:05:31  5-MIN KMSN 040205Z 00000KT 10SM CLR 16/12 A3007 720 77 1100 000/00 RMK AO2
14837KMSN MSN20020903201009309/03/02 20:10:31  5-MIN KMSN 040210Z 00000KT 10SM CLR 17/13 A3007 720 77 1100 000/00 RMK AO2
14837KMSN MSN20020903201509309/03/02 20:15:31  5-MIN KMSN 040215Z 00000KT 10SM CLR 16/12 A3007 720 80 1000 000/00 RMK AO2
14837KMSN MSN20020903202009309/03/02 20:20:31  5-MIN KMSN 040220Z 00000KT 10SM CLR 16/12 A3007 720 77 1100 000/00 RMK AO2
14837KMSN MSN20020903202509309/03/02 20:25:31  5-MIN KMSN 040225Z 00000KT 10SM CLR 16/13 A3007 720 80 1100 000/00 RMK AO2
14837KMSN MSN20020903203009309/03/02 20:30:31  5-MIN KMSN 040230Z 00000KT 10SM CLR 16/12 A3007 720 80 1000 000/00 RMK AO2
14837KMSN MSN20020903203509309/03/02 20:35:31  5-MIN KMSN 040235Z 00000KT 10SM CLR 16/12 A3007 720 80 1000 000/00 RMK AO2
14837KMSN MSN20020903204009309/03/02 20:40:31  5-MIN KMSN 040240Z 00000KT 10SM CLR 16/13 A3007 720 83 1000 000/00 RMK AO2
14837KMSN MSN20020903204509309/03/02 20:45:31  5-MIN KMSN 040245Z 00000KT 10SM CLR 16/12 A3007 720 80 1000 000/00 RMK AO2
14837KMSN MSN20020903205011609/03/02 20:50:31  5-MIN KMSN 040250Z 00000KT 10SM CLR 16/12 A3007 720 80 1000 000/00 RMK AO2 SLP182 T01560122 52008
14837KMSN MSN20020903205509309/03/02 20:55:31  5-MIN KMSN 040255Z 00000KT 10SM CLR 16/12 A3007 720 80 1000 000/00 RMK AO2
14837KMSN MSN20020903210009309/03/02 21:00:31  5-MIN KMSN 040300Z 00000KT 10SM CLR 16/12 A3007 720 77 1100 000/00 RMK AO2
14837KMSN MSN20020903210509309/03/02 21:05:31  5-MIN KMSN 040305Z 00000KT 10SM CLR 16/12 A3008 720 80 1000 000/00 RMK AO2
14837KMSN MSN20020903211009209/03/02 21:10:31  5-MIN KMSN 040310Z 00000KT 10SM CLR 15/13 A3008 720 86 900 000/00 RMK AO2
14837KMSN MSN20020903211509309/03/02 21:15:31  5-MIN KMSN 040315Z 00000KT 10SM CLR 16/12 A3008 720 77 1100 000/00 RMK AO2
14837KMSN MSN20020903212009309/03/02 21:20:31  5-MIN KMSN 040320Z 30003KT 10SM CLR 16/12 A3008 720 75 1100 300/03 RMK AO2
14837KMSN MSN20020903212509309/03/02 21:25:31  5-MIN KMSN 040325Z 29004KT 10SM CLR 17/12 A3008 720 72 1200 290/04 RMK AO2
14837KMSN MSN20020903213009309/03/02 21:30:31  5-MIN KMSN 040330Z 29004KT 10SM CLR 17/12 A3008 720 69 1200 290/04 RMK AO2
14837KMSN MSN20020903213509309/03/02 21:35:31  5-MIN KMSN 040335Z 29003KT 10SM CLR 17/12 A3008 720 72 1100 290/03 RMK AO2
14837KMSN MSN20020903214009309/03/02 21:40:31  5-MIN KMSN 040340Z VRB04KT 10SM CLR 17/12 A3008 720 69 1200 VRB/04 RMK AO2
14837KMSN MSN20020903214509309/03/02 21:45:31  5-MIN KMSN 040345Z 30004KT 10SM CLR 18/12 A3008 720 67 1200 290/04 RMK AO2
14837KMSN MSN20020903215011009/03/02 21:50:31  5-MIN KMSN 040350Z 29005KT 10SM CLR 18/12 A3008 710 67 1200 290/05 RMK AO2 SLP184 T01780117
14837KMSN MSN20020903215509309/03/02 21:55:31  5-MIN KMSN 040355Z 29004KT 10SM CLR 18/12 A3008 710 67 1200 290/04 RMK AO2
14837KMSN MSN20020903220009309/03/02 22:00:31  5-MIN KMSN 040400Z VRB04KT 10SM CLR 18/12 A3008 710 67 1200 VRB/04 RMK AO2
14837KMSN MSN20020903220509309/03/02 22:05:31  5-MIN KMSN 040405Z VRB04KT 10SM CLR 18/12 A3008 710 67 1200 VRB/04 RMK AO2
14837KMSN MSN20020903221009309/03/02 22:10:31  5-MIN KMSN 040410Z VRB04KT 10SM CLR 18/12 A3009 710 67 1200 VRB/04 RMK AO2
14837KMSN MSN20020903221509309/03/02 22:15:31  5-MIN KMSN 040415Z 30003KT 10SM CLR 18/12 A3009 710 67 1200 300/03 RMK AO2
14837KMSN MSN20020903222009309/03/02 22:20:31  5-MIN KMSN 040420Z VRB03KT 10SM CLR 18/12 A3009 710 67 1200 VRB/03 RMK AO2
14837KMSN MSN20020903222509309/03/02 22:25:31  5-MIN KMSN 040425Z 32003KT 10SM CLR 18/12 A3009 710 67 1200 310/03 RMK AO2
14837KMSN MSN20020903223009309/03/02 22:30:31  5-MIN KMSN 040430Z 29003KT 10SM CLR 18/12 A3009 710 67 1200 290/03 RMK AO2
14837KMSN MSN20020903223509309/03/02 22:35:31  5-MIN KMSN 040435Z 00000KT 10SM CLR 17/12 A3009 700 69 1200 000/00 RMK AO2
14837KMSN MSN20020903224009309/03/02 22:40:31  5-MIN KMSN 040440Z 00000KT 10SM CLR 17/12 A3010 700 69 1200 000/00 RMK AO2
14837KMSN MSN20020903224509309/03/02 22:45:31  5-MIN KMSN 040445Z 00000KT 10SM CLR 16/12 A3010 700 75 1000 000/00 RMK AO2
14837KMSN MSN20020903225011009/03/02 22:50:31  5-MIN KMSN 040450Z 00000KT 10SM CLR 16/12 A3010 700 80 1000 000/00 RMK AO2 SLP189 T01560122
14837KMSN MSN20020903225509309/03/02 22:55:31  5-MIN KMSN 040455Z 00000KT 10SM CLR 16/12 A3010 700 80 1000 000/00 RMK AO2
14837KMSN MSN20020903230009209/03/02 23:00:31  5-MIN KMSN 040500Z 00000KT 10SM CLR 15/12 A3010 700 83 900 000/00 RMK AO2
14837KMSN MSN20020903230509209/03/02 23:05:31  5-MIN KMSN 040505Z 00000KT 10SM CLR 14/12 A3010 700 83 800 000/00 RMK AO2
14837KMSN MSN20020903231009209/03/02 23:10:31  5-MIN KMSN 040510Z 00000KT 10SM CLR 14/11 A3010 700 80 800 000/00 RMK AO2
14837KMSN MSN20020903231509209/03/02 23:15:31  5-MIN KMSN 040515Z 00000KT 10SM CLR 14/11 A3010 700 83 800 000/00 RMK AO2
14837KMSN MSN20020903232009209/03/02 23:20:31  5-MIN KMSN 040520Z 00000KT 10SM CLR 14/11 A3010 700 83 800 000/00 RMK AO2
14837KMSN MSN20020903232509209/03/02 23:25:31  5-MIN KMSN 040525Z 00000KT 10SM CLR 14/12 A3010 700 86 800 000/00 RMK AO2
14837KMSN MSN20020903233009209/03/02 23:30:31  5-MIN KMSN 040530Z 00000KT 10SM CLR 14/12 A3011 690 86 800 000/00 RMK AO2
14837KMSN MSN20020903233509209/03/02 23:35:31  5-MIN KMSN 040535Z 00000KT 10SM CLR 14/12 A3010 690 86 800 000/00 RMK AO2
14837KMSN MSN20020903234009209/03/02 23:40:31  5-MIN KMSN 040540Z 00000KT 10SM CLR 13/11 A3010 690 86 700 000/00 RMK AO2
14837KMSN MSN20020903234509209/03/02 23:45:31  5-MIN KMSN 040545Z 00000KT 10SM CLR 13/11 A3011 690 89 600 000/00 RMK AO2
14837KMSN MSN20020903235013709/03/02 23:50:31  5-MIN KMSN 040550Z 00000KT 10SM CLR 13/11 A3011 690 86 700 000/00 RMK AO2 SLP193 T01330111 10228 20128 402560128 51010
14837KMSN MSN20020903235509209/03/02 23:55:31  5-MIN KMSN 040555Z 30003KT 10SM CLR 13/11 A3011 690 86 700 300/03 RMK AO2
14837KMSN MSN20020904000009209/04/02 00:00:31  5-MIN KMSN 040600Z 30003KT 10SM CLR 14/12 A3011 690 83 800 300/03 RMK AO2
14837KMSN MSN20020904000509209/04/02 00:05:31  5-MIN KMSN 040605Z 29003KT 10SM CLR 14/11 A3011 690 80 800 290/03 RMK AO2
14837KMSN MSN20020904001009209/04/02 00:10:31  5-MIN KMSN 040610Z 00000KT 10SM CLR 14/12 A3011 690 83 800 000/00 RMK AO2
14837KMSN MSN20020904001509209/04/02 00:15:31  5-MIN KMSN 040615Z 00000KT 10SM CLR 15/12 A3011 690 80 900 000/00 RMK AO2
14837KMSN MSN20020904002009209/04/02 00:20:31  5-MIN KMSN 040620Z 30003KT 10SM CLR 14/12 A3011 690 83 800 300/03 RMK AO2
14837KMSN MSN20020904002509209/04/02 00:25:31  5-MIN KMSN 040625Z 30003KT 10SM CLR 14/11 A3011 690 83 800 300/03 RMK AO2
14837KMSN MSN20020904003009209/04/02 00:30:31  5-MIN KMSN 040630Z 00000KT 10SM CLR 14/11 A3011 690 83 800 000/00 RMK AO2
14837KMSN MSN20020904003509209/04/02 00:35:31  5-MIN KMSN 040635Z 00000KT 10SM CLR 14/11 A3011 690 83 800 000/00 RMK AO2
14837KMSN MSN20020904004009209/04/02 00:40:31  5-MIN KMSN 040640Z 00000KT 10SM CLR 13/11 A3011 690 89 600 000/00 RMK AO2
14837KMSN MSN20020904004509209/04/02 00:45:31  5-MIN KMSN 040645Z 00000KT 10SM CLR 14/12 A3012 680 86 800 000/00 RMK AO2
14837KMSN MSN20020904005010909/04/02 00:50:31  5-MIN KMSN 040650Z 00000KT 10SM CLR 14/11 A3012 680 80 800 000/00 RMK AO2 SLP195 T01440111
14837KMSN MSN20020904005509209/04/02 00:55:31  5-MIN KMSN 040655Z 00000KT 10SM CLR 13/11 A3012 680 86 700 000/00 RMK AO2
14837KMSN MSN20020904010009209/04/02 01:00:31  5-MIN KMSN 040700Z 00000KT 10SM CLR 13/11 A3012 680 86 700 000/00 RMK AO2
14837KMSN MSN20020904010509209/04/02 01:05:31  5-MIN KMSN 040705Z 00000KT 10SM CLR 13/11 A3012 680 86 700 000/00 RMK AO2
14837KMSN MSN20020904011009209/04/02 01:10:31  5-MIN KMSN 040710Z 00000KT 10SM CLR 13/11 A3012 680 86 700 000/00 RMK AO2
14837KMSN MSN20020904011509209/04/02 01:15:31  5-MIN KMSN 040715Z 00000KT 10SM CLR 13/11 A3012 680 86 600 000/00 RMK AO2
14837KMSN MSN20020904012009209/04/02 01:20:31  5-MIN KMSN 040720Z 00000KT 10SM CLR 12/11 A3012 680 89 500 000/00 RMK AO2
14837KMSN MSN20020904012509209/04/02 01:25:31  5-MIN KMSN 040725Z 03003KT 10SM CLR 12/11 A3012 680 89 500 030/03 RMK AO2
14837KMSN MSN20020904013009209/04/02 01:30:31  5-MIN KMSN 040730Z 02003KT 10SM CLR 12/11 A3012 680 89 500 020/03 RMK AO2
14837KMSN MSN20020904013509209/04/02 01:35:31  5-MIN KMSN 040735Z 00000KT 10SM CLR 12/11 A3012 680 89 500 000/00 RMK AO2
14837KMSN MSN20020904014009209/04/02 01:40:31  5-MIN KMSN 040740Z 00000KT 10SM CLR 12/11 A3013 680 89 500 000/00 RMK AO2
14837KMSN MSN20020904014509209/04/02 01:45:31  5-MIN KMSN 040745Z 00000KT 10SM CLR 12/11 A3013 670 93 500 000/00 RMK AO2
14837KMSN MSN20020904015010909/04/02 01:50:31  5-MIN KMSN 040750Z 00000KT 10SM CLR 12/11 A3013 670 89 500 000/00 RMK AO2 SLP200 T01220106
14837KMSN MSN20020904015509209/04/02 01:55:31  5-MIN KMSN 040755Z 00000KT 10SM CLR 12/11 A3013 670 89 500 000/00 RMK AO2
14837KMSN MSN20020904020009209/04/02 02:00:31  5-MIN KMSN 040800Z 00000KT 10SM CLR 13/11 A3013 670 89 600 000/00 RMK AO2
14837KMSN MSN20020904020509209/04/02 02:05:31  5-MIN KMSN 040805Z 00000KT 10SM CLR 13/11 A3013 670 89 600 000/00 RMK AO2
14837KMSN MSN20020904021009209/04/02 02:10:31  5-MIN KMSN 040810Z 00000KT 10SM CLR 12/11 A3013 670 93 500 000/00 RMK AO2
14837KMSN MSN20020904021509209/04/02 02:15:31  5-MIN KMSN 040815Z 00000KT 10SM CLR 12/12 A3013 670 96 500 000/00 RMK AO2
14837KMSN MSN20020904022009209/04/02 02:20:31  5-MIN KMSN 040820Z 00000KT 10SM CLR 12/12 A3013 670 96 500 000/00 RMK AO2
14837KMSN MSN20020904022509209/04/02 02:25:31  5-MIN KMSN 040825Z 00000KT 10SM CLR 13/12 A3013 670 93 600 000/00 RMK AO2
14837KMSN MSN20020904023009209/04/02 02:30:31  5-MIN KMSN 040830Z 00000KT 10SM CLR 13/12 A3013 670 93 600 000/00 RMK AO2
14837KMSN MSN20020904023509209/04/02 02:35:31  5-MIN KMSN 040835Z 00000KT 10SM CLR 13/12 A3013 670 93 600 000/00 RMK AO2
14837KMSN MSN20020904024009209/04/02 02:40:31  5-MIN KMSN 040840Z 00000KT 10SM CLR 12/11 A3014 670 96 500 000/00 RMK AO2
14837KMSN MSN20020904024509209/04/02 02:45:31  5-MIN KMSN 040845Z 00000KT 10SM CLR 12/11 A3014 670 96 500 000/00 RMK AO2
14837KMSN MSN20020904025011509/04/02 02:50:31  5-MIN KMSN 040850Z 00000KT 10SM CLR 12/11 A3014 660 96 500 000/00 RMK AO2 SLP203 T01170111 53011
14837KMSN MSN20020904025509209/04/02 02:55:31  5-MIN KMSN 040855Z 00000KT 10SM CLR 12/11 A3014 660 96 500 000/00 RMK AO2
14837KMSN MSN20020904030009209/04/02 03:00:31  5-MIN KMSN 040900Z 00000KT 10SM CLR 12/11 A3014 660 96 500 000/00 RMK AO2
14837KMSN MSN20020904030509209/04/02 03:05:31  5-MIN KMSN 040905Z 00000KT 10SM CLR 12/11 A3014 660 96 500 000/00 RMK AO2
14837KMSN MSN20020904031009209/04/02 03:10:31  5-MIN KMSN 040910Z 00000KT 10SM CLR 12/11 A3014 660 93 500 000/00 RMK AO2
14837KMSN MSN20020904031509209/04/02 03:15:31  5-MIN KMSN 040915Z 00000KT 10SM CLR 12/12 A3014 660 96 500 000/00 RMK AO2
14837KMSN MSN20020904032009209/04/02 03:20:31  5-MIN KMSN 040920Z 00000KT 10SM CLR 12/11 A3014 660 96 500 000/00 RMK AO2
14837KMSN MSN20020904032509209/04/02 03:25:31  5-MIN KMSN 040925Z 00000KT 10SM CLR 12/12 A3015 660 96 500 000/00 RMK AO2
14837KMSN MSN20020904033009209/04/02 03:30:31  5-MIN KMSN 040930Z 00000KT 10SM CLR 12/11 A3015 660 96 500 000/00 RMK AO2
14837KMSN MSN20020904033509309/04/02 03:35:31  5-MIN KMSN 040935Z 00000KT 10SM CLR 12/12 A3015 650 100 500 000/00 RMK AO2
14837KMSN MSN20020904034009209/04/02 03:40:31  5-MIN KMSN 040940Z 00000KT 10SM CLR 12/11 A3015 650 96 500 000/00 RMK AO2
14837KMSN MSN20020904034509209/04/02 03:45:31  5-MIN KMSN 040945Z 00000KT 10SM CLR 12/11 A3015 650 96 500 000/00 RMK AO2
14837KMSN MSN20020904035010909/04/02 03:50:31  5-MIN KMSN 040950Z 00000KT 10SM CLR 12/11 A3015 650 96 400 000/00 RMK AO2 SLP208 T01170111
14837KMSN MSN20020904035509209/04/02 03:55:31  5-MIN KMSN 040955Z 00000KT 10SM CLR 12/11 A3015 650 96 400 000/00 RMK AO2
14837KMSN MSN20020904040009209/04/02 04:00:31  5-MIN KMSN 041000Z 00000KT 10SM CLR 12/11 A3015 650 96 400 000/00 RMK AO2
14837KMSN MSN20020904040509209/04/02 04:05:31  5-MIN KMSN 041005Z 00000KT 10SM CLR 12/11 A3016 650 96 400 000/00 RMK AO2
14837KMSN MSN20020904041009209/04/02 04:10:31  5-MIN KMSN 041010Z 00000KT 10SM CLR 12/11 A3016 650 96 400 000/00 RMK AO2
14837KMSN MSN20020904041509309/04/02 04:15:31  5-MIN KMSN 041015Z 00000KT 10SM CLR 11/11 A3016 640 100 400 000/00 RMK AO2
14837KMSN MSN20020904042009209/04/02 04:20:31  5-MIN KMSN 041020Z 00000KT 10SM CLR 12/11 A3016 640 96 400 000/00 RMK AO2
14837KMSN MSN20020904042509209/04/02 04:25:31  5-MIN KMSN 041025Z 00000KT 10SM CLR 12/11 A3016 640 96 400 000/00 RMK AO2
14837KMSN MSN20020904043009309/04/02 04:30:31  5-MIN KMSN 041030Z 00000KT 10SM CLR 11/11 A3016 640 100 400 000/00 RMK AO2
14837KMSN MSN20020904043509309/04/02 04:35:31  5-MIN KMSN 041035Z 00000KT 10SM CLR 11/11 A3017 640 100 400 000/00 RMK AO2
14837KMSN MSN20020904044009209/04/02 04:40:31  5-MIN KMSN 041040Z 00000KT 10SM CLR 12/11 A3017 640 96 400 000/00 RMK AO2
14837KMSN MSN20020904044509209/04/02 04:45:31  5-MIN KMSN 041045Z 00000KT 9SM CLR 11/11 A3017 640 100 400 000/00 RMK AO2
14837KMSN MSN20020904045010809/04/02 04:50:31  5-MIN KMSN 041050Z 00000KT 9SM CLR 12/10 A3017 640 89 400 000/00 RMK AO2 SLP214 T01170100
14837KMSN MSN20020904045509209/04/02 04:55:31  5-MIN KMSN 041055Z 00000KT 10SM CLR 11/10 A3017 630 93 400 000/00 RMK AO2
14837KMSN MSN20020904050009209/04/02 05:00:31  5-MIN KMSN 041100Z 00000KT 10SM CLR 11/10 A3017 630 96 300 000/00 RMK AO2
14837KMSN MSN20020904050509209/04/02 05:05:31  5-MIN KMSN 041105Z 00000KT 10SM CLR 11/10 A3017 630 93 400 000/00 RMK AO2
14837KMSN MSN20020904051009209/04/02 05:10:31  5-MIN KMSN 041110Z 00000KT 10SM CLR 11/11 A3017 630 96 400 000/00 RMK AO2
14837KMSN MSN20020904051509109/04/02 05:15:31  5-MIN KMSN 041115Z 00000KT 9SM CLR 11/11 A3018 630 96 400 000/00 RMK AO2
14837KMSN MSN20020904052009309/04/02 05:20:31  5-MIN KMSN 041120Z 00000KT 10SM CLR 11/11 A3018 630 100 300 000/00 RMK AO2
14837KMSN MSN20020904052509309/04/02 05:25:31  5-MIN KMSN 041125Z 00000KT 10SM CLR 11/11 A3018 620 100 300 000/00 RMK AO2
14837KMSN MSN20020904053009709/04/02 05:30:31  5-MIN KMSN 041130Z 00000KT 10SM MIFG CLR 12/11 A3018 620 96 400 000/00 RMK AO2
14837KMSN MSN20020904053509809/04/02 05:35:31  5-MIN KMSN 041135Z 00000KT 10SM MIFG CLR 11/11 A3019 620 100 300 000/00 RMK AO2
14837KMSN MSN20020904054009709/04/02 05:40:31  5-MIN KMSN 041140Z 00000KT 10SM MIFG CLR 11/11 A3019 620 96 300 000/00 RMK AO2
14837KMSN MSN20020904054509709/04/02 05:45:31  5-MIN KMSN 041145Z 00000KT 10SM MIFG CLR 11/11 A3019 620 96 300 000/00 RMK AO2
14837KMSN MSN20020904055013209/04/02 05:50:31  5-MIN KMSN 041150Z 00000KT 10SM MIFG CLR 11/11 A3019 610 96 300 000/00 RMK AO2 SLP223 T01110106 10150 20106 52010
14837KMSN MSN20020904055509609/04/02 05:55:31  5-MIN KMSN 041155Z 00000KT 5SM MIFG CLR 11/11 A3019 610 96 300 000/00 RMK AO2
14837KMSN MSN20020904060009609/04/02 06:00:31  5-MIN KMSN 041200Z 00000KT 6SM MIFG CLR 11/11 A3019 610 96 300 000/00 RMK AO2
14837KMSN MSN20020904060509709/04/02 06:05:31  5-MIN KMSN 041205Z 00000KT 7SM MIFG CLR 11/11 A3020 610 100 300 000/00 RMK AO2
14837KMSN MSN20020904061009609/04/02 06:10:31  5-MIN KMSN 041210Z 00000KT 8SM MIFG CLR 12/11 A3020 610 96 400 000/00 RMK AO2
14837KMSN MSN20020904061509209/04/02 06:15:31  5-MIN KMSN 041215Z 00000KT 10SM CLR 12/11 A3020 610 93 500 000/00 RMK AO2
14837KMSN MSN20020904062009209/04/02 06:20:31  5-MIN KMSN 041220Z 00000KT 10SM CLR 13/12 A3020 610 93 500 000/00 RMK AO2
14837KMSN MSN20020904062509209/04/02 06:25:31  5-MIN KMSN 041225Z 00000KT 10SM CLR 13/12 A3020 600 93 600 000/00 RMK AO2
14837KMSN MSN20020904063009209/04/02 06:30:31  5-MIN KMSN 041230Z 00000KT 10SM CLR 13/12 A3020 600 93 600 000/00 RMK AO2
14837KMSN MSN20020904063509209/04/02 06:35:31  5-MIN KMSN 041235Z 02003KT 10SM CLR 13/12 A3020 600 93 600 020/03 RMK AO2
14837KMSN MSN20020904064009209/04/02 06:40:31  5-MIN KMSN 041240Z 00000KT 10SM CLR 14/12 A3021 600 90 700 000/00 RMK AO2
14837KMSN MSN20020904064509209/04/02 06:45:31  5-MIN KMSN 041245Z 00000KT 10SM CLR 14/13 A3021 600 93 700 000/00 RMK AO2
14837KMSN MSN20020904065010909/04/02 06:50:31  5-MIN KMSN 041250Z 00000KT 10SM CLR 14/13 A3021 600 93 700 000/00 RMK AO2 SLP228 T01440133
14837KMSN MSN20020904065509209/04/02 06:55:31  5-MIN KMSN 041255Z 00000KT 10SM CLR 16/13 A3021 600 86 800 000/00 RMK AO2
14837KMSN MSN20020904070009209/04/02 07:00:31  5-MIN KMSN 041300Z 00000KT 10SM CLR 16/13 A3020 600 86 800 000/00 RMK AO2
14837KMSN MSN20020904070509209/04/02 07:05:31  5-MIN KMSN 041305Z 00000KT 10SM CLR 16/14 A3020 600 90 800 000/00 RMK AO2
14837KMSN MSN20020904071009209/04/02 07:10:31  5-MIN KMSN 041310Z 00000KT 10SM CLR 16/14 A3021 600 86 900 000/00 RMK AO2
14837KMSN MSN20020904071509309/04/02 07:15:31  5-MIN KMSN 041315Z 00000KT 10SM CLR 17/14 A3021 600 83 1000 000/00 RMK AO2
14837KMSN MSN20020904072009309/04/02 07:20:31  5-MIN KMSN 041320Z 00000KT 10SM CLR 17/14 A3021 600 80 1000 000/00 RMK AO2
14837KMSN MSN20020904072509309/04/02 07:25:31  5-MIN KMSN 041325Z 00000KT 10SM CLR 17/14 A3021 600 80 1000 000/00 RMK AO2
14837KMSN MSN20020904073009309/04/02 07:30:31  5-MIN KMSN 041330Z 00000KT 10SM CLR 18/14 A3021 600 78 1100 000/00 RMK AO2
14837KMSN MSN20020904073509309/04/02 07:35:31  5-MIN KMSN 041335Z 00000KT 10SM CLR 18/14 A3021 600 78 1100 000/00 RMK AO2
14837KMSN MSN20020904074009309/04/02 07:40:31  5-MIN KMSN 041340Z 00000KT 10SM CLR 18/14 A3021 600 75 1200 000/00 RMK AO2
14837KMSN MSN20020904074509309/04/02 07:45:31  5-MIN KMSN 041345Z 00000KT 10SM CLR 19/14 A3021 590 72 1200 000/00 RMK AO2
14837KMSN MSN20020904075011009/04/02 07:50:31  5-MIN KMSN 041350Z 00000KT 10SM CLR 19/13 A3021 590 70 1200 000/00 RMK AO2 SLP229 T01890133
14837KMSN MSN20020904075509309/04/02 07:55:31  5-MIN KMSN 041355Z 34003KT 10SM CLR 19/13 A3021 590 67 1300 340/03 RMK AO2
14837KMSN MSN20020904080009309/04/02 08:00:31  5-MIN KMSN 041400Z 00000KT 10SM CLR 19/13 A3022 590 67 1300 000/00 RMK AO2
14837KMSN MSN20020904080509309/04/02 08:05:31  5-MIN KMSN 041405Z 00000KT 10SM CLR 19/14 A3022 590 70 1300 000/00 RMK AO2
14837KMSN MSN20020904081009309/04/02 08:10:31  5-MIN KMSN 041410Z 36004KT 10SM CLR 20/14 A3022 590 70 1300 360/04 RMK AO2
14837KMSN MSN20020904081509309/04/02 08:15:31  5-MIN KMSN 041415Z 01005KT 10SM CLR 20/14 A3022 590 67 1300 360/05 RMK AO2
14837KMSN MSN20020904082009309/04/02 08:20:31  5-MIN KMSN 041420Z 36004KT 10SM CLR 21/14 A3022 590 65 1400 350/04 RMK AO2
14837KMSN MSN20020904082509309/04/02 08:25:31  5-MIN KMSN 041425Z VRB03KT 10SM CLR 21/14 A3022 590 65 1400 VRB/03 RMK AO2
14837KMSN MSN20020904083009309/04/02 08:30:31  5-MIN KMSN 041430Z 36004KT 10SM CLR 21/14 A3022 590 63 1500 360/04 RMK AO2
14837KMSN MSN20020904083509309/04/02 08:35:31  5-MIN KMSN 041435Z 36005KT 10SM CLR 21/14 A3022 580 63 1500 360/05 RMK AO2
14837KMSN MSN20020904084009309/04/02 08:40:31  5-MIN KMSN 041440Z 01005KT 10SM CLR 22/14 A3022 580 63 1500 010/05 RMK AO2
14837KMSN MSN20020904084509309/04/02 08:45:31  5-MIN KMSN 041445Z 03004KT 10SM CLR 21/14 A3022 580 63 1500 030/04 RMK AO2
14837KMSN MSN20020904085011609/04/02 08:50:31  5-MIN KMSN 041450Z 02004KT 10SM CLR 22/14 A3023 580 61 1500 020/04 RMK AO2 SLP233 T02170139 53018
14837KMSN MSN20020904085509309/04/02 08:55:31  5-MIN KMSN 041455Z VRB03KT 10SM CLR 22/14 A3023 580 61 1500 VRB/03 RMK AO2
14837KMSN MSN20020904090009309/04/02 09:00:31  5-MIN KMSN 041500Z 36003KT 10SM CLR 22/14 A3023 580 61 1600 360/03 RMK AO2
14837KMSN MSN20020904090509309/04/02 09:05:31  5-MIN KMSN 041505Z 00000KT 10SM CLR 22/14 A3023 580 59 1600 000/00 RMK AO2
14837KMSN MSN20020904091009309/04/02 09:10:31  5-MIN KMSN 041510Z 00000KT 10SM CLR 22/14 A3023 580 63 1500 000/00 RMK AO2
14837KMSN MSN20020904091509309/04/02 09:15:31  5-MIN KMSN 041515Z 00000KT 10SM CLR 22/14 A3023 580 63 1500 000/00 RMK AO2
14837KMSN MSN20020904092009309/04/02 09:20:31  5-MIN KMSN 041520Z 00000KT 10SM CLR 22/14 A3023 580 59 1600 000/00 RMK AO2
14837KMSN MSN20020904092509309/04/02 09:25:31  5-MIN KMSN 041525Z 00000KT 10SM CLR 22/14 A3023 580 61 1600 000/00 RMK AO2
14837KMSN MSN20020904093009309/04/02 09:30:31  5-MIN KMSN 041530Z 17003KT 10SM CLR 22/14 A3023 580 61 1600 170/03 RMK AO2
14837KMSN MSN20020904093509309/04/02 09:35:31  5-MIN KMSN 041535Z VRB04KT 10SM CLR 22/14 A3023 580 59 1600 VRB/04 RMK AO2
14837KMSN MSN20020904094009309/04/02 09:40:31  5-MIN KMSN 041540Z 00000KT 10SM CLR 22/14 A3023 580 59 1600 000/00 RMK AO2
14837KMSN MSN20020904094509309/04/02 09:45:31  5-MIN KMSN 041545Z 00000KT 10SM CLR 23/14 A3023 580 57 1700 000/00 RMK AO2
14837KMSN MSN20020904095011009/04/02 09:50:31  5-MIN KMSN 041550Z 00000KT 10SM CLR 23/13 A3023 580 53 1700 000/00 RMK AO2 SLP234 T02330133
14837KMSN MSN20020904095509309/04/02 09:55:31  5-MIN KMSN 041555Z 00000KT 10SM CLR 23/13 A3023 580 51 1700 000/00 RMK AO2
14837KMSN MSN20020904100009309/04/02 10:00:31  5-MIN KMSN 041600Z 00000KT 10SM CLR 23/13 A3023 580 53 1700 000/00 RMK AO2
14837KMSN MSN20020904100509309/04/02 10:05:31  5-MIN KMSN 041605Z 00000KT 10SM CLR 23/13 A3023 580 53 1700 000/00 RMK AO2
14837KMSN MSN20020904101009309/04/02 10:10:31  5-MIN KMSN 041610Z 13003KT 10SM CLR 24/14 A3023 580 53 1800 130/03 RMK AO2
14837KMSN MSN20020904101509309/04/02 10:15:31  5-MIN KMSN 041615Z VRB03KT 10SM CLR 24/13 A3023 580 51 1800 VRB/03 RMK AO2
14837KMSN MSN20020904102009309/04/02 10:20:31  5-MIN KMSN 041620Z 00000KT 10SM CLR 23/13 A3023 580 51 1700 000/00 RMK AO2
14837KMSN MSN20020904102509309/04/02 10:25:31  5-MIN KMSN 041625Z 11003KT 10SM CLR 24/13 A3023 580 49 1800 110/03 RMK AO2
14837KMSN MSN20020904103009309/04/02 10:30:31  5-MIN KMSN 041630Z 00000KT 10SM CLR 24/14 A3023 580 51 1800 000/00 RMK AO2
14837KMSN MSN20020904103509309/04/02 10:35:31  5-MIN KMSN 041635Z 00000KT 10SM CLR 24/14 A3023 580 51 1800 000/00 RMK AO2
14837KMSN MSN20020904104009309/04/02 10:40:31  5-MIN KMSN 041640Z VRB03KT 10SM CLR 24/14 A3023 580 53 1800 VRB/03 RMK AO2
14837KMSN MSN20020904104509309/04/02 10:45:31  5-MIN KMSN 041645Z VRB03KT 10SM CLR 24/14 A3023 580 53 1800 VRB/03 RMK AO2
14837KMSN MSN20020904105011009/04/02 10:50:31  5-MIN KMSN 041650Z 13003KT 10SM CLR 24/14 A3023 580 51 1800 130/03 RMK AO2 SLP234 T02440139
14837KMSN MSN20020904105509309/04/02 10:55:31  5-MIN KMSN 041655Z 00000KT 10SM CLR 25/14 A3023 580 49 1900 000/00 RMK AO2
14837KMSN MSN20020904110009309/04/02 11:00:31  5-MIN KMSN 041700Z VRB03KT 10SM CLR 26/14 A3023 580 48 2000 VRB/03 RMK AO2
14837KMSN MSN20020904110509309/04/02 11:05:31  5-MIN KMSN 041705Z VRB03KT 10SM CLR 25/13 A3023 580 48 1900 VRB/03 RMK AO2
14837KMSN MSN20020904111009309/04/02 11:10:31  5-MIN KMSN 041710Z 00000KT 10SM CLR 25/13 A3023 580 46 1900 000/00 RMK AO2
14837KMSN MSN20020904111509309/04/02 11:15:31  5-MIN KMSN 041715Z VRB04KT 10SM CLR 25/13 A3023 580 48 1900 VRB/04 RMK AO2
14837KMSN MSN20020904112009309/04/02 11:20:31  5-MIN KMSN 041720Z 26005KT 10SM CLR 26/13 A3023 580 46 2000 260/05 RMK AO2
14837KMSN MSN20020904112509309/04/02 11:25:31  5-MIN KMSN 041725Z 00000KT 10SM CLR 25/13 A3023 580 46 1900 000/00 RMK AO2
14837KMSN MSN20020904113009309/04/02 11:30:31  5-MIN KMSN 041730Z 00000KT 10SM CLR 26/13 A3023 580 44 2000 000/00 RMK AO2
14837KMSN MSN20020904113509309/04/02 11:35:31  5-MIN KMSN 041735Z VRB04KT 10SM CLR 26/13 A3023 580 46 2000 VRB/04 RMK AO2
14837KMSN MSN20020904114009309/04/02 11:40:31  5-MIN KMSN 041740Z 27003KT 10SM CLR 25/13 A3023 580 48 1900 270/03 RMK AO2
14837KMSN MSN20020904114509309/04/02 11:45:31  5-MIN KMSN 041745Z VRB03KT 10SM CLR 26/14 A3023 580 46 2000 VRB/03 RMK AO2
14837KMSN MSN20020904115012809/04/02 11:50:31  5-MIN KMSN 041750Z 35004KT 10SM CLR 26/14 A3023 580 48 2000 350/04 RMK AO2 SLP233 T02610144 10261 20111 51012
14837KMSN MSN20020904115509309/04/02 11:55:31  5-MIN KMSN 041755Z 33005KT 10SM CLR 27/14 A3023 580 46 2100 330/05 RMK AO2
14837KMSN MSN20020904120009309/04/02 12:00:31  5-MIN KMSN 041800Z VRB04KT 10SM CLR 26/15 A3023 580 50 2000 VRB/04 RMK AO2
14837KMSN MSN20020904120509309/04/02 12:05:31  5-MIN KMSN 041805Z VRB03KT 10SM CLR 26/14 A3022 580 46 2000 VRB/03 RMK AO2
14837KMSN MSN20020904121009309/04/02 12:10:31  5-MIN KMSN 041810Z 00000KT 10SM CLR 26/14 A3022 580 46 2000 000/00 RMK AO2
14837KMSN MSN20020904121509309/04/02 12:15:31  5-MIN KMSN 041815Z 00000KT 10SM CLR 27/15 A3022 580 48 2100 000/00 RMK AO2
14837KMSN MSN20020904122009309/04/02 12:20:31  5-MIN KMSN 041820Z 32005KT 10SM CLR 27/15 A3022 590 48 2100 310/05 RMK AO2
14837KMSN MSN20020904122509309/04/02 12:25:31  5-MIN KMSN 041825Z 26003KT 10SM CLR 26/14 A3022 590 46 2000 260/03 RMK AO2
14837KMSN MSN20020904123009309/04/02 12:30:31  5-MIN KMSN 041830Z VRB03KT 10SM CLR 27/14 A3022 590 46 2100 VRB/03 RMK AO2
14837KMSN MSN20020904123509309/04/02 12:35:31  5-MIN KMSN 041835Z 00000KT 10SM CLR 27/13 A3022 590 43 2100 000/00 RMK AO2
14837KMSN MSN20020904124009309/04/02 12:40:31  5-MIN KMSN 041840Z 28007KT 10SM CLR 27/13 A3022 590 43 2100 280/07 RMK AO2
14837KMSN MSN20020904124509309/04/02 12:45:31  5-MIN KMSN 041845Z VRB03KT 10SM CLR 27/13 A3022 590 43 2100 VRB/03 RMK AO2
14837KMSN MSN20020904125011009/04/02 12:50:31  5-MIN KMSN 041850Z 31007KT 10SM CLR 27/13 A3022 590 42 2200 310/07 RMK AO2 SLP229 T02720133
14837KMSN MSN20020904125509309/04/02 12:55:31  5-MIN KMSN 041855Z 35005KT 10SM CLR 27/13 A3022 590 40 2200 350/05 RMK AO2
14837KMSN MSN20020904130010909/04/02 13:00:31  5-MIN KMSN 041900Z 33007KT 290V010 10SM CLR 28/14 A3022 590 42 2200 320/07 290V010 RMK AO2
14837KMSN MSN20020904130509309/04/02 13:05:31  5-MIN KMSN 041905Z 27005KT 10SM CLR 27/13 A3022 590 42 2200 270/05 RMK AO2
14837KMSN MSN20020904131009309/04/02 13:10:31  5-MIN KMSN 041910Z VRB05KT 10SM CLR 27/13 A3021 590 42 2200 VRB/05 RMK AO2
14837KMSN MSN20020904131509309/04/02 13:15:31  5-MIN KMSN 041915Z VRB05KT 10SM CLR 27/13 A3021 600 42 2200 VRB/05 RMK AO2
14837KMSN MSN20020904132009309/04/02 13:20:31  5-MIN KMSN 041920Z VRB04KT 10SM CLR 28/13 A3021 600 40 2200 VRB/04 RMK AO2
14837KMSN MSN20020904132509309/04/02 13:25:31  5-MIN KMSN 041925Z VRB04KT 10SM CLR 28/13 A3021 600 40 2200 VRB/04 RMK AO2
14837KMSN MSN20020904133009309/04/02 13:30:31  5-MIN KMSN 041930Z 32006KT 10SM CLR 28/13 A3021 600 40 2200 310/06 RMK AO2
14837KMSN MSN20020904133509309/04/02 13:35:31  5-MIN KMSN 041935Z VRB05KT 10SM CLR 28/14 A3021 600 42 2200 VRB/05 RMK AO2
14837KMSN MSN20020904134009309/04/02 13:40:31  5-MIN KMSN 041940Z VRB03KT 10SM CLR 28/13 A3021 600 40 2200 VRB/03 RMK AO2
14837KMSN MSN20020904134509309/04/02 13:45:31  5-MIN KMSN 041945Z VRB05KT 10SM CLR 28/13 A3020 600 40 2200 VRB/05 RMK AO2
14837KMSN MSN20020904135011009/04/02 13:50:31  5-MIN KMSN 041950Z 01006KT 10SM CLR 28/14 A3020 600 42 2300 010/06 RMK AO2 SLP225 T02780139
14837KMSN MSN20020904135509309/04/02 13:55:31  5-MIN KMSN 041955Z 31004KT 10SM CLR 27/13 A3020 610 42 2200 310/04 RMK AO2
14837KMSN MSN20020904140009309/04/02 14:00:31  5-MIN KMSN 042000Z VRB06KT 10SM CLR 28/14 A3020 610 42 2300 VRB/06 RMK AO2
14837KMSN MSN20020904140509309/04/02 14:05:31  5-MIN KMSN 042005Z 31006KT 10SM CLR 27/13 A3020 610 42 2200 310/06 RMK AO2
14837KMSN MSN20020904141009309/04/02 14:10:31  5-MIN KMSN 042010Z 34005KT 10SM CLR 28/13 A3020 610 40 2300 340/05 RMK AO2
14837KMSN MSN20020904141509309/04/02 14:15:31  5-MIN KMSN 042015Z VRB06KT 10SM CLR 28/13 A3020 610 40 2300 VRB/06 RMK AO2
14837KMSN MSN20020904142009309/04/02 14:20:31  5-MIN KMSN 042020Z 32006KT 10SM CLR 28/13 A3020 610 40 2300 320/06 RMK AO2
14837KMSN MSN20020904142509309/04/02 14:25:31  5-MIN KMSN 042025Z 31005KT 10SM CLR 28/14 A3020 610 42 2300 310/05 RMK AO2
14837KMSN MSN20020904143009309/04/02 14:30:31  5-MIN KMSN 042030Z 02005KT 10SM CLR 28/13 A3020 610 40 2300 010/05 RMK AO2
14837KMSN MSN20020904143509309/04/02 14:35:31  5-MIN KMSN 042035Z 34006KT 10SM CLR 28/14 A3020 610 42 2300 340/06 RMK AO2
14837KMSN MSN20020904144009309/04/02 14:40:31  5-MIN KMSN 042040Z 36006KT 10SM CLR 28/14 A3020 610 43 2300 360/06 RMK AO2
14837KMSN MSN20020904144509309/04/02 14:45:31  5-MIN KMSN 042045Z 34006KT 10SM CLR 28/14 A3020 610 42 2300 330/06 RMK AO2
14837KMSN MSN20020904145011609/04/02 14:50:31  5-MIN KMSN 042050Z 35005KT 10SM CLR 28/14 A3019 610 42 2300 350/05 RMK AO2 SLP222 T02780139 58000
14837KMSN MSN20020904145509309/04/02 14:55:31  5-MIN KMSN 042055Z 36004KT 10SM CLR 28/14 A3019 610 42 2300 360/04 RMK AO2
14837KMSN MSN20020904150009309/04/02 15:00:31  5-MIN KMSN 042100Z 34006KT 10SM CLR 28/14 A3019 610 42 2300 340/06 RMK AO2
14837KMSN MSN20020904150509309/04/02 15:05:31  5-MIN KMSN 042105Z VRB03KT 10SM CLR 28/13 A3019 610 40 2300 VRB/03 RMK AO2
14837KMSN MSN20020904151009309/04/02 15:10:31  5-MIN KMSN 042110Z 31003KT 10SM CLR 28/14 A3019 610 42 2300 310/03 RMK AO2
14837KMSN MSN20020904151509309/04/02 15:15:31  5-MIN KMSN 042115Z 30006KT 10SM CLR 28/14 A3019 610 42 2300 300/06 RMK AO2
14837KMSN MSN20020904152009309/04/02 15:20:31  5-MIN KMSN 042120Z 30006KT 10SM CLR 28/14 A3019 610 42 2300 300/06 RMK AO2
14837KMSN MSN20020904152509309/04/02 15:25:31  5-MIN KMSN 042125Z VRB04KT 10SM CLR 27/14 A3019 610 43 2200 VRB/04 RMK AO2
14837KMSN MSN20020904153009309/04/02 15:30:31  5-MIN KMSN 042130Z VRB03KT 10SM CLR 28/14 A3019 610 43 2300 VRB/03 RMK AO2
14837KMSN MSN20020904153509309/04/02 15:35:31  5-MIN KMSN 042135Z 31003KT 10SM CLR 28/14 A3019 610 43 2300 310/03 RMK AO2
14837KMSN MSN20020904154009309/04/02 15:40:31  5-MIN KMSN 042140Z VRB04KT 10SM CLR 28/15 A3019 610 45 2300 VRB/04 RMK AO2
14837KMSN MSN20020904154509309/04/02 15:45:31  5-MIN KMSN 042145Z 33003KT 10SM CLR 28/14 A3019 610 43 2300 330/03 RMK AO2
14837KMSN MSN20020904155011009/04/02 15:50:31  5-MIN KMSN 042150Z 35003KT 10SM CLR 28/14 A3019 610 42 2300 350/03 RMK AO2 SLP222 T02830144
14837KMSN MSN20020904155509309/04/02 15:55:31  5-MIN KMSN 042155Z 34004KT 10SM CLR 28/14 A3019 610 43 2300 340/04 RMK AO2
14837KMSN MSN20020904160009309/04/02 16:00:31  5-MIN KMSN 042200Z 32003KT 10SM CLR 28/14 A3019 610 42 2300 310/03 RMK AO2
14837KMSN MSN20020904160509309/04/02 16:05:31  5-MIN KMSN 042205Z VRB04KT 10SM CLR 28/14 A3019 610 43 2300 VRB/04 RMK AO2
14837KMSN MSN20020904161009309/04/02 16:10:31  5-MIN KMSN 042210Z 35004KT 10SM CLR 28/15 A3019 610 45 2300 350/04 RMK AO2
14837KMSN MSN20020904161509309/04/02 16:15:31  5-MIN KMSN 042215Z 36004KT 10SM CLR 28/14 A3019 610 43 2300 360/04 RMK AO2
14837KMSN MSN20020904162009309/04/02 16:20:31  5-MIN KMSN 042220Z 35004KT 10SM CLR 28/14 A3019 620 43 2300 350/04 RMK AO2
14837KMSN MSN20020904162509309/04/02 16:25:31  5-MIN KMSN 042225Z 35004KT 10SM CLR 28/14 A3019 620 43 2300 350/04 RMK AO2
14837KMSN MSN20020904163009309/04/02 16:30:31  5-MIN KMSN 042230Z 35003KT 10SM CLR 28/14 A3019 610 43 2300 350/03 RMK AO2
14837KMSN MSN20020904163509309/04/02 16:35:31  5-MIN KMSN 042235Z 36004KT 10SM CLR 28/15 A3019 610 45 2300 360/04 RMK AO2
14837KMSN MSN20020904164009309/04/02 16:40:31  5-MIN KMSN 042240Z 34004KT 10SM CLR 28/15 A3019 610 45 2300 340/04 RMK AO2
14837KMSN MSN20020904164509309/04/02 16:45:31  5-MIN KMSN 042245Z 34003KT 10SM CLR 27/15 A3019 610 46 2200 340/03 RMK AO2
14837KMSN MSN20020904165011009/04/02 16:50:31  5-MIN KMSN 042250Z 34004KT 10SM CLR 27/15 A3019 610 46 2200 340/04 RMK AO2 SLP221 T02720150
14837KMSN MSN20020904165509309/04/02 16:55:31  5-MIN KMSN 042255Z 00000KT 10SM CLR 27/15 A3019 610 46 2200 000/00 RMK AO2
14837KMSN MSN20020904170009309/04/02 17:00:31  5-MIN KMSN 042300Z 34003KT 10SM CLR 27/16 A3019 620 48 2200 340/03 RMK AO2
14837KMSN MSN20020904170509309/04/02 17:05:31  5-MIN KMSN 042305Z 00000KT 10SM CLR 27/16 A3019 620 48 2200 000/00 RMK AO2
14837KMSN MSN20020904171009309/04/02 17:10:31  5-MIN KMSN 042310Z 00000KT 10SM CLR 27/17 A3019 620 53 2100 000/00 RMK AO2
14837KMSN MSN20020904171509309/04/02 17:15:31  5-MIN KMSN 042315Z 00000KT 10SM CLR 27/17 A3019 620 55 2100 000/00 RMK AO2
14837KMSN MSN20020904172009309/04/02 17:20:31  5-MIN KMSN 042320Z 00000KT 10SM CLR 27/17 A3018 620 53 2100 000/00 RMK AO2
14837KMSN MSN20020904172509309/04/02 17:25:31  5-MIN KMSN 042325Z 00000KT 10SM CLR 26/17 A3019 620 57 2000 000/00 RMK AO2
14837KMSN MSN20020904173009309/04/02 17:30:31  5-MIN KMSN 042330Z 00000KT 10SM CLR 24/17 A3018 620 61 1900 000/00 RMK AO2
14837KMSN MSN20020904173509309/04/02 17:35:31  5-MIN KMSN 042335Z 00000KT 10SM CLR 24/17 A3018 620 63 1800 000/00 RMK AO2
14837KMSN MSN20020904174009309/04/02 17:40:31  5-MIN KMSN 042340Z 00000KT 10SM CLR 24/17 A3018 620 61 1900 000/00 RMK AO2
14837KMSN MSN20020904174509309/04/02 17:45:31  5-MIN KMSN 042345Z 00000KT 10SM CLR 24/17 A3018 620 63 1800 000/00 RMK AO2
14837KMSN MSN20020904175012809/04/02 17:50:31  5-MIN KMSN 042350Z 00000KT 10SM CLR 24/17 A3018 620 63 1800 000/00 RMK AO2 SLP219 T02390167 10283 20233 56010
14837KMSN MSN20020904175509309/04/02 17:55:31  5-MIN KMSN 042355Z 00000KT 10SM CLR 23/16 A3018 620 63 1800 000/00 RMK AO2
14837KMSN MSN20020904180009309/04/02 18:00:31  5-MIN KMSN 050000Z 00000KT 10SM CLR 23/17 A3018 620 68 1700 000/00 RMK AO2
14837KMSN MSN20020904180509309/04/02 18:05:31  5-MIN KMSN 050005Z 00000KT 10SM CLR 22/17 A3018 620 70 1600 000/00 RMK AO2
14837KMSN MSN20020904181009309/04/02 18:10:31  5-MIN KMSN 050010Z 00000KT 10SM CLR 22/17 A3018 620 75 1600 000/00 RMK AO2
14837KMSN MSN20020904181509309/04/02 18:15:31  5-MIN KMSN 050015Z 00000KT 10SM CLR 21/17 A3018 620 78 1500 000/00 RMK AO2
14837KMSN MSN20020904182009309/04/02 18:20:31  5-MIN KMSN 050020Z 00000KT 10SM CLR 21/17 A3019 620 81 1500 000/00 RMK AO2
14837KMSN MSN20020904182509309/04/02 18:25:31  5-MIN KMSN 050025Z 00000KT 10SM CLR 21/17 A3019 620 78 1500 000/00 RMK AO2
14837KMSN MSN20020904183009309/04/02 18:30:31  5-MIN KMSN 050030Z 00000KT 10SM CLR 21/18 A3019 620 84 1400 000/00 RMK AO2
14837KMSN MSN20020904183509309/04/02 18:35:31  5-MIN KMSN 050035Z 00000KT 10SM CLR 21/18 A3019 620 84 1400 000/00 RMK AO2
14837KMSN MSN20020904184009309/04/02 18:40:31  5-MIN KMSN 050040Z 00000KT 10SM CLR 21/17 A3019 620 81 1400 000/00 RMK AO2
14837KMSN MSN20020904184509309/04/02 18:45:31  5-MIN KMSN 050045Z 00000KT 10SM CLR 20/17 A3019 620 84 1400 000/00 RMK AO2
14837KMSN MSN20020904185011009/04/02 18:50:31  5-MIN KMSN 050050Z 00000KT 10SM CLR 20/17 A3019 620 84 1400 000/00 RMK AO2 SLP222 T02000172
14837KMSN MSN20020904185509309/04/02 18:55:31  5-MIN KMSN 050055Z 00000KT 10SM CLR 20/17 A3019 620 84 1400 000/00 RMK AO2
14837KMSN MSN20020904190009309/04/02 19:00:31  5-MIN KMSN 050100Z 00000KT 10SM CLR 19/17 A3019 620 87 1300 000/00 RMK AO2
14837KMSN MSN20020904190509309/04/02 19:05:31  5-MIN KMSN 050105Z 00000KT 10SM CLR 19/17 A3019 620 87 1300 000/00 RMK AO2
14837KMSN MSN20020904191009309/04/02 19:10:31  5-MIN KMSN 050110Z 00000KT 10SM CLR 19/17 A3019 620 84 1300 000/00 RMK AO2
14837KMSN MSN20020904191509309/04/02 19:15:31  5-MIN KMSN 050115Z 00000KT 10SM CLR 19/17 A3019 620 84 1300 000/00 RMK AO2
14837KMSN MSN20020904192009309/04/02 19:20:31  5-MIN KMSN 050120Z 00000KT 10SM CLR 19/17 A3019 610 84 1300 000/00 RMK AO2
14837KMSN MSN20020904192509309/04/02 19:25:31  5-MIN KMSN 050125Z 00000KT 10SM CLR 18/17 A3019 610 90 1200 000/00 RMK AO2
14837KMSN MSN20020904193009309/04/02 19:30:31  5-MIN KMSN 050130Z 00000KT 10SM CLR 19/17 A3019 620 87 1300 000/00 RMK AO2
14837KMSN MSN20020904193509309/04/02 19:35:31  5-MIN KMSN 050135Z 00000KT 10SM CLR 18/17 A3019 610 90 1200 000/00 RMK AO2
14837KMSN MSN20020904194009309/04/02 19:40:31  5-MIN KMSN 050140Z 00000KT 10SM CLR 18/17 A3019 610 93 1100 000/00 RMK AO2
14837KMSN MSN20020904194509309/04/02 19:45:31  5-MIN KMSN 050145Z 00000KT 10SM CLR 18/16 A3019 610 90 1100 000/00 RMK AO2
14837KMSN MSN20020904195011009/04/02 19:50:31  5-MIN KMSN 050150Z 00000KT 10SM CLR 18/16 A3019 610 90 1100 000/00 RMK AO2 SLP223 T01780161
14837KMSN MSN20020904195509309/04/02 19:55:31  5-MIN KMSN 050155Z 00000KT 10SM CLR 18/16 A3019 610 87 1200 000/00 RMK AO2
14837KMSN MSN20020904200009309/04/02 20:00:31  5-MIN KMSN 050200Z 00000KT 10SM CLR 18/16 A3019 610 87 1200 000/00 RMK AO2
14837KMSN MSN20020904200509309/04/02 20:05:31  5-MIN KMSN 050205Z 00000KT 10SM CLR 19/16 A3019 610 84 1200 000/00 RMK AO2
14837KMSN MSN20020904201009309/04/02 20:10:31  5-MIN KMSN 050210Z 00000KT 10SM CLR 18/16 A3020 610 87 1200 000/00 RMK AO2
14837KMSN MSN20020904201509309/04/02 20:15:31  5-MIN KMSN 050215Z 00000KT 10SM CLR 18/16 A3019 610 90 1100 000/00 RMK AO2
14837KMSN MSN20020904202009309/04/02 20:20:31  5-MIN KMSN 050220Z 00000KT 10SM CLR 18/16 A3020 610 87 1100 000/00 RMK AO2
14837KMSN MSN20020904202509309/04/02 20:25:31  5-MIN KMSN 050225Z 00000KT 10SM CLR 17/16 A3020 610 90 1100 000/00 RMK AO2
14837KMSN MSN20020904203009309/04/02 20:30:31  5-MIN KMSN 050230Z 00000KT 10SM CLR 17/16 A3020 610 90 1100 000/00 RMK AO2
14837KMSN MSN20020904203509309/04/02 20:35:31  5-MIN KMSN 050235Z 00000KT 10SM CLR 17/16 A3020 610 90 1100 000/00 RMK AO2
14837KMSN MSN20020904204009309/04/02 20:40:31  5-MIN KMSN 050240Z 00000KT 10SM CLR 17/16 A3020 610 90 1000 000/00 RMK AO2
14837KMSN MSN20020904204509309/04/02 20:45:31  5-MIN KMSN 050245Z 00000KT 10SM CLR 17/16 A3020 610 93 1000 000/00 RMK AO2
14837KMSN MSN20020904205011609/04/02 20:50:31  5-MIN KMSN 050250Z 00000KT 10SM CLR 17/16 A3020 610 93 1000 000/00 RMK AO2 SLP224 T01670156 58003
14837KMSN MSN20020904205509309/04/02 20:55:31  5-MIN KMSN 050255Z 00000KT 10SM CLR 17/16 A3020 610 93 1000 000/00 RMK AO2
14837KMSN MSN20020904210009309/04/02 21:00:31  5-MIN KMSN 050300Z 00000KT 10SM CLR 17/16 A3020 610 93 1000 000/00 RMK AO2
14837KMSN MSN20020904210509309/04/02 21:05:31  5-MIN KMSN 050305Z 00000KT 10SM CLR 17/16 A3020 610 93 1000 000/00 RMK AO2
14837KMSN MSN20020904211009309/04/02 21:10:31  5-MIN KMSN 050310Z 00000KT 10SM CLR 17/15 A3020 610 90 1000 000/00 RMK AO2
14837KMSN MSN20020904211509309/04/02 21:15:31  5-MIN KMSN 050315Z 00000KT 10SM CLR 17/15 A3020 600 87 1000 000/00 RMK AO2
14837KMSN MSN20020904212009309/04/02 21:20:31  5-MIN KMSN 050320Z 00000KT 10SM CLR 17/15 A3020 600 90 1000 000/00 RMK AO2
14837KMSN MSN20020904212509309/04/02 21:25:31  5-MIN KMSN 050325Z 00000KT 10SM CLR 17/16 A3021 600 90 1000 000/00 RMK AO2
14837KMSN MSN20020904213009309/04/02 21:30:31  5-MIN KMSN 050330Z 00000KT 10SM CLR 17/15 A3021 600 90 1000 000/00 RMK AO2
14837KMSN MSN20020904213509309/04/02 21:35:31  5-MIN KMSN 050335Z 00000KT 10SM CLR 17/15 A3021 600 90 1000 000/00 RMK AO2
14837KMSN MSN20020904214009309/04/02 21:40:31  5-MIN KMSN 050340Z 00000KT 10SM CLR 17/15 A3021 600 90 1000 000/00 RMK AO2
14837KMSN MSN20020904214509209/04/02 21:45:31  5-MIN KMSN 050345Z 00000KT 10SM CLR 16/15 A3021 600 93 900 000/00 RMK AO2
14837KMSN MSN20020904215010909/04/02 21:50:31  5-MIN KMSN 050350Z 00000KT 10SM CLR 16/15 A3021 600 93 900 000/00 RMK AO2 SLP227 T01610150
14837KMSN MSN20020904215509209/04/02 21:55:31  5-MIN KMSN 050355Z 00000KT 10SM CLR 16/15 A3021 600 93 900 000/00 RMK AO2
14837KMSN MSN20020904220009209/04/02 22:00:31  5-MIN KMSN 050400Z 00000KT 10SM CLR 16/15 A3021 600 93 900 000/00 RMK AO2
14837KMSN MSN20020904220509209/04/02 22:05:31  5-MIN KMSN 050405Z 00000KT 10SM CLR 16/15 A3021 600 96 800 000/00 RMK AO2
14837KMSN MSN20020904221009209/04/02 22:10:31  5-MIN KMSN 050410Z 00000KT 10SM CLR 16/15 A3021 600 93 900 000/00 RMK AO2
14837KMSN MSN20020904221509209/04/02 22:15:31  5-MIN KMSN 050415Z 00000KT 10SM CLR 16/15 A3021 600 93 900 000/00 RMK AO2
14837KMSN MSN20020904222009209/04/02 22:20:31  5-MIN KMSN 050420Z 00000KT 10SM CLR 16/15 A3021 600 96 800 000/00 RMK AO2
14837KMSN MSN20020904222509209/04/02 22:25:31  5-MIN KMSN 050425Z 00000KT 10SM CLR 16/15 A3021 600 96 800 000/00 RMK AO2
14837KMSN MSN20020904223009209/04/02 22:30:31  5-MIN KMSN 050430Z 00000KT 10SM CLR 15/14 A3021 600 96 800 000/00 RMK AO2
14837KMSN MSN20020904223509209/04/02 22:35:31  5-MIN KMSN 050435Z 00000KT 10SM CLR 16/15 A3020 600 96 800 000/00 RMK AO2
14837KMSN MSN20020904224009209/04/02 22:40:31  5-MIN KMSN 050440Z 00000KT 10SM CLR 16/15 A3020 600 96 800 000/00 RMK AO2
14837KMSN MSN20020904224509209/04/02 22:45:31  5-MIN KMSN 050445Z 00000KT 10SM CLR 16/15 A3020 600 96 900 000/00 RMK AO2
14837KMSN MSN20020904225010909/04/02 22:50:31  5-MIN KMSN 050450Z 00000KT 10SM CLR 16/15 A3020 600 96 900 000/00 RMK AO2 SLP225 T01560150
14837KMSN MSN20020904225509209/04/02 22:55:31  5-MIN KMSN 050455Z 00000KT 10SM CLR 16/15 A3020 600 96 900 000/00 RMK AO2
14837KMSN MSN20020904230009209/04/02 23:00:31  5-MIN KMSN 050500Z 00000KT 10SM CLR 16/15 A3020 610 93 900 000/00 RMK AO2
14837KMSN MSN20020904230509209/04/02 23:05:31  5-MIN KMSN 050505Z 00000KT 10SM CLR 16/15 A3020 610 96 900 000/00 RMK AO2
14837KMSN MSN20020904231009209/04/02 23:10:31  5-MIN KMSN 050510Z 00000KT 10SM CLR 16/15 A3020 600 93 900 000/00 RMK AO2
14837KMSN MSN20020904231509209/04/02 23:15:31  5-MIN KMSN 050515Z 00000KT 10SM CLR 15/14 A3020 600 96 800 000/00 RMK AO2
14837KMSN MSN20020904232009109/04/02 23:20:31  5-MIN KMSN 050520Z 00000KT 9SM CLR 15/14 A3020 610 96 800 000/00 RMK AO2
14837KMSN MSN20020904232509209/04/02 23:25:31  5-MIN KMSN 050525Z 00000KT 10SM CLR 15/14 A3020 610 96 800 000/00 RMK AO2
14837KMSN MSN20020904233009309/04/02 23:30:31  5-MIN KMSN 050530Z 00000KT 10SM CLR 15/15 A3020 610 100 800 000/00 RMK AO2
14837KMSN MSN20020904233509209/04/02 23:35:31  5-MIN KMSN 050535Z 00000KT 10SM CLR 16/15 A3020 610 96 900 000/00 RMK AO2
14837KMSN MSN20020904234009209/04/02 23:40:31  5-MIN KMSN 050540Z 00000KT 10SM CLR 15/14 A3020 600 96 800 000/00 RMK AO2
14837KMSN MSN20020904234509209/04/02 23:45:31  5-MIN KMSN 050545Z 00000KT 10SM CLR 15/14 A3020 600 96 800 000/00 RMK AO2
14837KMSN MSN20020904235013709/04/02 23:50:31  5-MIN KMSN 050550Z 00000KT 10SM CLR 15/14 A3020 600 96 800 000/00 RMK AO2 SLP225 T01500144 10239 20150 402830106 52005
14837KMSN MSN20020904235509209/04/02 23:55:31  5-MIN KMSN 050555Z 00000KT 10SM CLR 15/14 A3020 600 96 800 000/00 RMK AO2
14837KMSN MSN20020905000009309/05/02 00:00:31  5-MIN KMSN 050600Z 00000KT 10SM CLR 14/14 A3020 600 100 700 000/00 RMK AO2
14837KMSN MSN20020905000509309/05/02 00:05:31  5-MIN KMSN 050605Z 00000KT 10SM CLR 14/14 A3020 600 100 700 000/00 RMK AO2
14837KMSN MSN20020905001009309/05/02 00:10:31  5-MIN KMSN 050610Z 00000KT 10SM CLR 14/14 A3020 600 100 700 000/00 RMK AO2
14837KMSN MSN20020905001509209/05/02 00:15:31  5-MIN KMSN 050615Z 00000KT 10SM CLR 15/14 A3020 610 96 800 000/00 RMK AO2
14837KMSN MSN20020905002009209/05/02 00:20:31  5-MIN KMSN 050620Z 00000KT 10SM CLR 15/14 A3020 610 96 800 000/00 RMK AO2
14837KMSN MSN20020905002509209/05/02 00:25:31  5-MIN KMSN 050625Z 07003KT 10SM CLR 14/13 A3020 610 93 700 070/03 RMK AO2
14837KMSN MSN20020905003009209/05/02 00:30:31  5-MIN KMSN 050630Z 06003KT 10SM CLR 14/13 A3020 610 93 700 060/03 RMK AO2
14837KMSN MSN20020905003509209/05/02 00:35:31  5-MIN KMSN 050635Z 06003KT 10SM CLR 14/13 A3020 610 96 700 060/03 RMK AO2
14837KMSN MSN20020905004009209/05/02 00:40:31  5-MIN KMSN 050640Z 07004KT 10SM CLR 14/13 A3020 610 93 700 070/04 RMK AO2
14837KMSN MSN20020905004509209/05/02 00:45:31  5-MIN KMSN 050645Z 07003KT 10SM CLR 14/13 A3019 610 93 700 070/03 RMK AO2
14837KMSN MSN20020905005010909/05/02 00:50:31  5-MIN KMSN 050650Z 06003KT 10SM CLR 14/13 A3019 610 93 700 060/03 RMK AO2 SLP222 T01390128
14837KMSN MSN20020905005509209/05/02 00:55:31  5-MIN KMSN 050655Z 03003KT 10SM CLR 14/13 A3019 610 93 700 030/03 RMK AO2
14837KMSN MSN20020905010009209/05/02 01:00:31  5-MIN KMSN 050700Z 00000KT 10SM CLR 14/13 A3019 610 96 700 000/00 RMK AO2
14837KMSN MSN20020905010509209/05/02 01:05:31  5-MIN KMSN 050705Z 00000KT 10SM CLR 15/14 A3019 610 93 800 000/00 RMK AO2
14837KMSN MSN20020905011009209/05/02 01:10:31  5-MIN KMSN 050710Z 00000KT 10SM CLR 15/14 A3019 610 93 800 000/00 RMK AO2
14837KMSN MSN20020905011509209/05/02 01:15:31  5-MIN KMSN 050715Z 00000KT 10SM CLR 15/14 A3019 610 93 800 000/00 RMK AO2
14837KMSN MSN20020905012009209/05/02 01:20:31  5-MIN KMSN 050720Z 00000KT 10SM CLR 14/13 A3019 610 93 700 000/00 RMK AO2
14837KMSN MSN20020905012509209/05/02 01:25:31  5-MIN KMSN 050725Z 22003KT 10SM CLR 14/13 A3019 610 93 700 220/03 RMK AO2
14837KMSN MSN20020905013009109/05/02 01:30:31  5-MIN KMSN 050730Z 20004KT 9SM CLR 14/13 A3019 620 96 700 190/04 RMK AO2
14837KMSN MSN20020905013509109/05/02 01:35:31  5-MIN KMSN 050735Z 19004KT 9SM CLR 14/13 A3019 610 96 700 190/04 RMK AO2
14837KMSN MSN20020905014009209/05/02 01:40:31  5-MIN KMSN 050740Z 20003KT 10SM CLR 15/14 A3019 620 93 800 200/03 RMK AO2
14837KMSN MSN20020905014509209/05/02 01:45:31  5-MIN KMSN 050745Z VRB04KT 10SM CLR 16/14 A3019 620 90 900 VRB/04 RMK AO2
14837KMSN MSN20020905015011009/05/02 01:50:31  5-MIN KMSN 050750Z 18004KT 10SM CLR 17/14 A3019 610 83 1000 170/04 RMK AO2 SLP220 T01670139
14837KMSN MSN20020905015509209/05/02 01:55:31  5-MIN KMSN 050755Z 00000KT 10SM CLR 16/14 A3019 610 86 900 000/00 RMK AO2
14837KMSN MSN20020905020009209/05/02 02:00:31  5-MIN KMSN 050800Z 00000KT 10SM CLR 16/14 A3019 610 90 900 000/00 RMK AO2
14837KMSN MSN20020905020509209/05/02 02:05:31  5-MIN KMSN 050805Z 00000KT 10SM CLR 16/14 A3019 620 90 900 000/00 RMK AO2
14837KMSN MSN20020905021009209/05/02 02:10:31  5-MIN KMSN 050810Z 00000KT 10SM CLR 15/14 A3019 620 96 800 000/00 RMK AO2
14837KMSN MSN20020905021509209/05/02 02:15:31  5-MIN KMSN 050815Z 00000KT 10SM CLR 15/14 A3019 620 96 800 000/00 RMK AO2
14837KMSN MSN20020905022009109/05/02 02:20:31  5-MIN KMSN 050820Z 00000KT 9SM CLR 15/14 A3019 620 96 800 000/00 RMK AO2
14837KMSN MSN20020905022509109/05/02 02:25:31  5-MIN KMSN 050825Z 00000KT 9SM CLR 14/14 A3019 620 96 700 000/00 RMK AO2
14837KMSN MSN20020905023009209/05/02 02:30:31  5-MIN KMSN 050830Z 00000KT 10SM CLR 14/13 A3019 620 93 700 000/00 RMK AO2
14837KMSN MSN20020905023509209/05/02 02:35:31  5-MIN KMSN 050835Z 00000KT 10SM CLR 14/14 A3019 620 96 700 000/00 RMK AO2
14837KMSN MSN20020905024009209/05/02 02:40:31  5-MIN KMSN 050840Z 00000KT 10SM CLR 14/14 A3019 620 96 700 000/00 RMK AO2
14837KMSN MSN20020905024509209/05/02 02:45:31  5-MIN KMSN 050845Z 00000KT 10SM CLR 14/13 A3019 620 96 700 000/00 RMK AO2
14837KMSN MSN20020905025011509/05/02 02:50:31  5-MIN KMSN 050850Z 00000KT 10SM CLR 15/13 A3019 620 90 800 000/00 RMK AO2 SLP218 T01500133 51002
14837KMSN MSN20020905025509209/05/02 02:55:31  5-MIN KMSN 050855Z 00000KT 10SM CLR 14/13 A3019 620 90 700 000/00 RMK AO2
14837KMSN MSN20020905030009209/05/02 03:00:31  5-MIN KMSN 050900Z 00000KT 10SM CLR 14/13 A3019 620 93 700 000/00 RMK AO2
14837KMSN MSN20020905030509209/05/02 03:05:31  5-MIN KMSN 050905Z 00000KT 10SM CLR 15/13 A3019 610 90 800 000/00 RMK AO2
14837KMSN MSN20020905031009209/05/02 03:10:31  5-MIN KMSN 050910Z 00000KT 10SM CLR 14/13 A3019 610 93 700 000/00 RMK AO2
14837KMSN MSN20020905031509209/05/02 03:15:31  5-MIN KMSN 050915Z 00000KT 10SM CLR 15/13 A3019 610 90 800 000/00 RMK AO2
14837KMSN MSN20020905032009209/05/02 03:20:31  5-MIN KMSN 050920Z 00000KT 10SM CLR 14/13 A3019 610 96 700 000/00 RMK AO2
14837KMSN MSN20020905032509209/05/02 03:25:31  5-MIN KMSN 050925Z 00000KT 10SM CLR 14/13 A3019 610 96 700 000/00 RMK AO2
14837KMSN MSN20020905033009109/05/02 03:30:31  5-MIN KMSN 050930Z 00000KT 7SM CLR 14/13 A3019 610 96 700 000/00 RMK AO2
14837KMSN MSN20020905033509409/05/02 03:35:31  5-MIN KMSN 050935Z 00000KT 5SM BR CLR 14/13 A3019 610 96 700 000/00 RMK AO2
14837KMSN MSN20020905034009109/05/02 03:40:31  5-MIN KMSN 050940Z 00000KT 7SM CLR 14/13 A3019 610 93 700 000/00 RMK AO2
14837KMSN MSN20020905034509109/05/02 03:45:31  5-MIN KMSN 050945Z 00000KT 8SM CLR 13/13 A3019 610 96 600 000/00 RMK AO2
14837KMSN MSN20020905035011209/05/02 03:50:31  5-MIN KMSN 050950Z 00000KT 6SM BR CLR 13/13 A3019 610 100 500 000/00 RMK AO2 SLP221 T01280128
14837KMSN MSN20020905035509409/05/02 03:55:31  5-MIN KMSN 050955Z 00000KT 5SM BR CLR 13/12 A3019 610 96 500 000/00 RMK AO2
14837KMSN MSN20020905040009409/05/02 04:00:31  5-MIN KMSN 051000Z 00000KT 5SM BR CLR 13/12 A3020 610 96 500 000/00 RMK AO2
14837KMSN MSN20020905040509409/05/02 04:05:31  5-MIN KMSN 051005Z 00000KT 5SM BR CLR 13/12 A3020 610 96 500 000/00 RMK AO2
14837KMSN MSN20020905041009509/05/02 04:10:31  5-MIN KMSN 051010Z 00000KT 6SM BR CLR 13/13 A3020 610 100 500 000/00 RMK AO2
14837KMSN MSN20020905041509209/05/02 04:15:31  5-MIN KMSN 051015Z 00000KT 7SM CLR 13/13 A3020 610 100 500 000/00 RMK AO2
14837KMSN MSN20020905042009109/05/02 04:20:31  5-MIN KMSN 051020Z 00000KT 8SM CLR 13/13 A3020 610 96 600 000/00 RMK AO2
14837KMSN MSN20020905042509309/05/02 04:25:31  5-MIN KMSN 051025Z 00000KT 10SM CLR 12/12 A3020 610 100 500 000/00 RMK AO2
14837KMSN MSN20020905043009209/05/02 04:30:31  5-MIN KMSN 051030Z 00000KT 10SM CLR 13/12 A3020 610 96 500 000/00 RMK AO2
14837KMSN MSN20020905043509109/05/02 04:35:31  5-MIN KMSN 051035Z 00000KT 8SM CLR 12/12 A3020 610 96 500 000/00 RMK AO2
14837KMSN MSN20020905044009509/05/02 04:40:31  5-MIN KMSN 051040Z 00000KT 6SM BR CLR 12/12 A3020 600 100 400 000/00 RMK AO2
14837KMSN MSN20020905044509509/05/02 04:45:31  5-MIN KMSN 051045Z 00000KT 6SM BR CLR 12/12 A3020 600 100 400 000/00 RMK AO2
14837KMSN MSN20020905045011009/05/02 04:50:31  5-MIN KMSN 051050Z 00000KT 10SM CLR 12/12 A3020 600 100 500 000/00 RMK AO2 SLP225 T01220122
14837KMSN MSN20020905045509109/05/02 04:55:31  5-MIN KMSN 051055Z 00000KT 8SM CLR 12/12 A3020 610 96 500 000/00 RMK AO2
14837KMSN MSN20020905050009109/05/02 05:00:31  5-MIN KMSN 051100Z 00000KT 9SM CLR 12/12 A3020 610 96 500 000/00 RMK AO2
14837KMSN MSN20020905050509109/05/02 05:05:31  5-MIN KMSN 051105Z 00000KT 9SM CLR 12/11 A3020 610 96 400 000/00 RMK AO2
14837KMSN MSN20020905051009109/05/02 05:10:31  5-MIN KMSN 051110Z 00000KT 9SM CLR 12/11 A3020 600 93 500 000/00 RMK AO2
14837KMSN MSN20020905051509209/05/02 05:15:31  5-MIN KMSN 051115Z 00000KT 10SM CLR 12/12 A3020 600 96 500 000/00 RMK AO2
14837KMSN MSN20020905052009209/05/02 05:20:31  5-MIN KMSN 051120Z 00000KT 8SM CLR 12/12 A3021 600 100 400 000/00 RMK AO2
14837KMSN MSN20020905052509409/05/02 05:25:31  5-MIN KMSN 051125Z 00000KT 5SM BR CLR 12/12 A3021 600 96 500 000/00 RMK AO2
14837KMSN MSN20020905053009409/05/02 05:30:31  5-MIN KMSN 051130Z 00000KT 5SM BR CLR 12/12 A3021 600 96 500 000/00 RMK AO2
14837KMSN MSN20020905053509409/05/02 05:35:31  5-MIN KMSN 051135Z 00000KT 3SM BR CLR 12/12 A3021 600 96 400 000/00 RMK AO2
14837KMSN MSN20020905054009109/05/02 05:40:31  5-MIN KMSN 051140Z 00000KT 9SM CLR 12/12 A3021 600 96 400 000/00 RMK AO2
14837KMSN MSN20020905054509709/05/02 05:45:31  5-MIN KMSN 051145Z 00000KT 10SM MIFG CLR 12/12 A3021 600 96 400 000/00 RMK AO2
14837KMSN MSN20020905055013109/05/02 05:50:31  5-MIN KMSN 051150Z 00000KT 7SM MIFG CLR 12/12 A3021 600 96 400 000/00 RMK AO2 SLP229 T01220117 10167 20117 56005
14837KMSN MSN20020905055509709/05/02 05:55:31  5-MIN KMSN 051155Z 00000KT 10SM MIFG CLR 12/12 A3021 590 96 400 000/00 RMK AO2
14837KMSN MSN20020905060009709/05/02 06:00:31  5-MIN KMSN 051200Z 00000KT 10SM MIFG CLR 13/12 A3022 590 96 500 000/00 RMK AO2
14837KMSN MSN20020905060509709/05/02 06:05:31  5-MIN KMSN 051205Z 03003KT 10SM MIFG CLR 12/12 A3022 590 96 400 020/03 RMK AO2
14837KMSN MSN20020905061009709/05/02 06:10:31  5-MIN KMSN 051210Z 06003KT 10SM MIFG CLR 12/12 A3022 590 96 400 060/03 RMK AO2
14837KMSN MSN20020905061509709/05/02 06:15:31  5-MIN KMSN 051215Z 00000KT 10SM MIFG CLR 13/12 A3022 590 93 500 000/00 RMK AO2
14837KMSN MSN20020905062009709/05/02 06:20:31  5-MIN KMSN 051220Z 00000KT 10SM MIFG CLR 13/12 A3022 590 93 600 000/00 RMK AO2
14837KMSN MSN20020905062509709/05/02 06:25:31  5-MIN KMSN 051225Z 00000KT 10SM MIFG CLR 13/12 A3022 590 93 600 000/00 RMK AO2
14837KMSN MSN20020905063009209/05/02 06:30:31  5-MIN KMSN 051230Z 00000KT 10SM CLR 14/12 A3022 590 90 600 000/00 RMK AO2
14837KMSN MSN20020905063509209/05/02 06:35:31  5-MIN KMSN 051235Z 00000KT 10SM CLR 15/13 A3022 590 90 800 000/00 RMK AO2
14837KMSN MSN20020905064009209/05/02 06:40:31  5-MIN KMSN 051240Z 00000KT 10SM CLR 16/14 A3022 590 90 800 000/00 RMK AO2
14837KMSN MSN20020905064509209/05/02 06:45:31  5-MIN KMSN 051245Z 00000KT 10SM CLR 16/14 A3022 590 90 800 000/00 RMK AO2
14837KMSN MSN20020905065011009/05/02 06:50:31  5-MIN KMSN 051250Z 13004KT 10SM CLR 17/15 A3022 590 90 1000 130/04 RMK AO2 SLP231 T01670150
14837KMSN MSN20020905065509309/05/02 06:55:31  5-MIN KMSN 051255Z VRB04KT 10SM CLR 18/15 A3022 590 83 1100 VRB/04 RMK AO2
14837KMSN MSN20020905070009309/05/02 07:00:31  5-MIN KMSN 051300Z 16007KT 10SM CLR 18/14 A3022 590 81 1100 160/07 RMK AO2
14837KMSN MSN20020905070509309/05/02 07:05:31  5-MIN KMSN 051305Z 16007KT 10SM CLR 18/15 A3022 590 83 1100 160/07 RMK AO2
14837KMSN MSN20020905071009309/05/02 07:10:31  5-MIN KMSN 051310Z 17008KT 10SM CLR 18/15 A3022 590 81 1200 170/08 RMK AO2
14837KMSN MSN20020905071509309/05/02 07:15:31  5-MIN KMSN 051315Z 17008KT 10SM CLR 18/15 A3022 590 81 1200 170/08 RMK AO2
14837KMSN MSN20020905072009309/05/02 07:20:31  5-MIN KMSN 051320Z 16007KT 10SM CLR 18/15 A3022 590 81 1200 160/07 RMK AO2
14837KMSN MSN20020905072509309/05/02 07:25:31  5-MIN KMSN 051325Z 16006KT 10SM CLR 18/15 A3022 590 81 1200 150/06 RMK AO2
14837KMSN MSN20020905073009309/05/02 07:30:31  5-MIN KMSN 051330Z 15006KT 10SM CLR 19/16 A3023 580 81 1200 150/06 RMK AO2
14837KMSN MSN20020905073509309/05/02 07:35:31  5-MIN KMSN 051335Z 15006KT 10SM CLR 19/16 A3023 580 81 1200 150/06 RMK AO2
14837KMSN MSN20020905074009309/05/02 07:40:31  5-MIN KMSN 051340Z 15006KT 10SM CLR 19/16 A3023 570 81 1300 150/06 RMK AO2
14837KMSN MSN20020905074509309/05/02 07:45:31  5-MIN KMSN 051345Z 16008KT 10SM CLR 19/16 A3024 570 81 1200 160/08 RMK AO2
14837KMSN MSN20020905075011009/05/02 07:50:31  5-MIN KMSN 051350Z 17008KT 10SM CLR 19/16 A3024 570 81 1200 170/08 RMK AO2 SLP238 T01890156
14837KMSN MSN20020905075509309/05/02 07:55:31  5-MIN KMSN 051355Z 17006KT 10SM CLR 19/16 A3024 570 81 1200 170/06 RMK AO2
14837KMSN MSN20020905080009309/05/02 08:00:31  5-MIN KMSN 051400Z 16008KT 10SM CLR 19/16 A3024 570 78 1300 160/08 RMK AO2
14837KMSN MSN20020905080509309/05/02 08:05:31  5-MIN KMSN 051405Z 16006KT 10SM CLR 19/16 A3024 570 78 1300 160/06 RMK AO2
14837KMSN MSN20020905081009309/05/02 08:10:31  5-MIN KMSN 051410Z 14006KT 10SM CLR 19/16 A3024 570 78 1300 140/06 RMK AO2
14837KMSN MSN20020905081509309/05/02 08:15:31  5-MIN KMSN 051415Z 17005KT 10SM CLR 19/16 A3024 570 78 1300 170/05 RMK AO2
14837KMSN MSN20020905082009309/05/02 08:20:31  5-MIN KMSN 051420Z 16005KT 10SM CLR 20/16 A3024 570 78 1300 160/05 RMK AO2
14837KMSN MSN20020905082509309/05/02 08:25:31  5-MIN KMSN 051425Z 18005KT 10SM CLR 20/16 A3024 570 78 1300 180/05 RMK AO2
14837KMSN MSN20020905083009309/05/02 08:30:31  5-MIN KMSN 051430Z 18007KT 10SM CLR 21/16 A3024 570 75 1400 180/07 RMK AO2
14837KMSN MSN20020905083509309/05/02 08:35:31  5-MIN KMSN 051435Z 18008KT 10SM CLR 21/16 A3024 570 75 1400 180/08 RMK AO2
14837KMSN MSN20020905084009309/05/02 08:40:31  5-MIN KMSN 051440Z 17007KT 10SM CLR 21/16 A3024 570 75 1400 170/07 RMK AO2
14837KMSN MSN20020905084509309/05/02 08:45:31  5-MIN KMSN 051445Z 16009KT 10SM CLR 21/16 A3024 570 73 1500 160/09 RMK AO2
14837KMSN MSN20020905085011909/05/02 08:50:31  5-MIN KMSN 051450Z 17009KT 10SM FEW030 21/16 A3024 570 73 1500 170/09 RMK AO2 SLP237 T02110161 53008
14837KMSN MSN20020905085509309/05/02 08:55:31  5-MIN KMSN 051455Z 18008KT 10SM CLR 21/16 A3023 570 73 1500 180/08 RMK AO2
14837KMSN MSN20020905090009309/05/02 09:00:31  5-MIN KMSN 051500Z 18008KT 10SM CLR 21/16 A3024 570 73 1500 170/08 RMK AO2
14837KMSN MSN20020905090509309/05/02 09:05:31  5-MIN KMSN 051505Z 17006KT 10SM CLR 22/16 A3024 570 70 1500 170/06 RMK AO2
14837KMSN MSN20020905091009309/05/02 09:10:31  5-MIN KMSN 051510Z 16009KT 10SM CLR 22/16 A3024 570 70 1500 160/09 RMK AO2
14837KMSN MSN20020905091509309/05/02 09:15:31  5-MIN KMSN 051515Z 16007KT 10SM CLR 21/16 A3024 570 73 1500 150/07 RMK AO2
14837KMSN MSN20020905092009309/05/02 09:20:31  5-MIN KMSN 051520Z 16006KT 10SM CLR 22/16 A3024 570 70 1500 160/06 RMK AO2
14837KMSN MSN20020905092509309/05/02 09:25:31  5-MIN KMSN 051525Z 15007KT 10SM CLR 22/16 A3024 570 68 1600 150/07 RMK AO2
14837KMSN MSN20020905093009609/05/02 09:30:31  5-MIN KMSN 051530Z 18007KT 10SM FEW030 22/16 A3024 570 68 1600 180/07 RMK AO2
14837KMSN MSN20020905093509609/05/02 09:35:31  5-MIN KMSN 051535Z 15007KT 10SM FEW030 22/16 A3024 570 68 1600 150/07 RMK AO2
14837KMSN MSN20020905094009609/05/02 09:40:31  5-MIN KMSN 051540Z 18007KT 10SM FEW030 22/16 A3024 570 68 1600 180/07 RMK AO2
14837KMSN MSN20020905094509609/05/02 09:45:31  5-MIN KMSN 051545Z 18006KT 10SM FEW030 22/16 A3024 570 65 1600 180/06 RMK AO2
14837KMSN MSN20020905095011309/05/02 09:50:31  5-MIN KMSN 051550Z 16007KT 10SM FEW030 22/16 A3024 570 65 1600 160/07 RMK AO2 SLP237 T02220156
14837KMSN MSN20020905095509309/05/02 09:55:31  5-MIN KMSN 051555Z 19004KT 10SM CLR 23/16 A3024 570 63 1600 190/04 RMK AO2
14837KMSN MSN20020905100009609/05/02 10:00:31  5-MIN KMSN 051600Z 18004KT 10SM FEW030 23/15 A3025 560 61 1600 180/04 RMK AO2
14837KMSN MSN20020905100509609/05/02 10:05:31  5-MIN KMSN 051605Z 18005KT 10SM FEW030 23/15 A3025 560 61 1600 180/05 RMK AO2
14837KMSN MSN20020905101009609/05/02 10:10:31  5-MIN KMSN 051610Z 17004KT 10SM FEW030 23/15 A3025 560 61 1600 170/04 RMK AO2
14837KMSN MSN20020905101509609/05/02 10:15:31  5-MIN KMSN 051615Z 15004KT 10SM FEW030 23/15 A3025 560 61 1600 150/04 RMK AO2
14837KMSN MSN20020905102009609/05/02 10:20:31  5-MIN KMSN 051620Z VRB05KT 10SM FEW030 23/15 A3025 560 59 1700 VRB/05 RMK AO2
14837KMSN MSN20020905102509609/05/02 10:25:31  5-MIN KMSN 051625Z VRB03KT 10SM FEW030 23/15 A3025 560 59 1700 VRB/03 RMK AO2
14837KMSN MSN20020905103009609/05/02 10:30:31  5-MIN KMSN 051630Z VRB03KT 10SM FEW030 23/15 A3025 560 59 1700 VRB/03 RMK AO2
14837KMSN MSN20020905103509609/05/02 10:35:31  5-MIN KMSN 051635Z VRB04KT 10SM FEW030 24/15 A3025 560 57 1800 VRB/04 RMK AO2
14837KMSN MSN20020905104009609/05/02 10:40:31  5-MIN KMSN 051640Z VRB03KT 10SM FEW030 23/14 A3024 570 57 1700 VRB/03 RMK AO2
14837KMSN MSN20020905104509609/05/02 10:45:31  5-MIN KMSN 051645Z VRB04KT 10SM FEW030 23/14 A3024 570 57 1700 VRB/04 RMK AO2
14837KMSN MSN20020905105011309/05/02 10:50:31  5-MIN KMSN 051650Z VRB06KT 10SM FEW030 24/14 A3024 570 55 1800 VRB/06 RMK AO2 SLP236 T02390144
14837KMSN MSN20020905105509609/05/02 10:55:31  5-MIN KMSN 051655Z 16005KT 10SM FEW040 24/14 A3024 570 55 1800 160/05 RMK AO2
14837KMSN MSN20020905110009609/05/02 11:00:31  5-MIN KMSN 051700Z 17006KT 10SM FEW040 24/14 A3023 580 53 1800 160/06 RMK AO2
14837KMSN MSN20020905110509609/05/02 11:05:31  5-MIN KMSN 051705Z VRB05KT 10SM FEW040 24/14 A3023 580 53 1800 VRB/05 RMK AO2
14837KMSN MSN20020905111009609/05/02 11:10:31  5-MIN KMSN 051710Z VRB03KT 10SM FEW040 24/14 A3023 580 53 1800 VRB/03 RMK AO2
14837KMSN MSN20020905111509609/05/02 11:15:31  5-MIN KMSN 051715Z VRB03KT 10SM FEW040 24/14 A3023 580 55 1800 VRB/03 RMK AO2
14837KMSN MSN20020905112009609/05/02 11:20:31  5-MIN KMSN 051720Z 14004KT 10SM FEW040 24/14 A3023 580 53 1800 140/04 RMK AO2
14837KMSN MSN20020905112509609/05/02 11:25:31  5-MIN KMSN 051725Z 16003KT 10SM FEW040 25/14 A3023 580 49 1900 160/03 RMK AO2
14837KMSN MSN20020905113009609/05/02 11:30:31  5-MIN KMSN 051730Z 18006KT 10SM FEW040 25/13 A3023 580 48 1900 180/06 RMK AO2
14837KMSN MSN20020905113509609/05/02 11:35:31  5-MIN KMSN 051735Z 19004KT 10SM FEW040 25/13 A3022 590 46 1900 190/04 RMK AO2
14837KMSN MSN20020905114009609/05/02 11:40:31  5-MIN KMSN 051740Z VRB04KT 10SM FEW040 25/13 A3022 590 46 1900 VRB/04 RMK AO2
14837KMSN MSN20020905114509609/05/02 11:45:31  5-MIN KMSN 051745Z 15005KT 10SM FEW040 25/14 A3022 590 49 1900 150/05 RMK AO2
14837KMSN MSN20020905115013109/05/02 11:50:31  5-MIN KMSN 051750Z 11005KT 10SM FEW040 25/15 A3022 590 53 1900 110/05 RMK AO2 SLP230 T02500150 10250 20122 50007
14837KMSN MSN20020905115509309/05/02 11:55:31  5-MIN KMSN 051755Z VRB03KT 10SM CLR 25/14 A3021 590 51 1900 VRB/03 RMK AO2
14837KMSN MSN20020905120009309/05/02 12:00:31  5-MIN KMSN 051800Z 11005KT 10SM CLR 25/14 A3021 600 51 1900 110/05 RMK AO2
14837KMSN MSN20020905120509309/05/02 12:05:31  5-MIN KMSN 051805Z 15007KT 10SM CLR 26/14 A3021 600 49 2000 150/07 RMK AO2
14837KMSN MSN20020905121009309/05/02 12:10:31  5-MIN KMSN 051810Z 13005KT 10SM CLR 26/14 A3021 600 48 2000 130/05 RMK AO2
14837KMSN MSN20020905121509309/05/02 12:15:31  5-MIN KMSN 051815Z 12005KT 10SM CLR 26/14 A3021 600 48 2000 120/05 RMK AO2
14837KMSN MSN20020905122009309/05/02 12:20:31  5-MIN KMSN 051820Z 14005KT 10SM CLR 26/14 A3020 600 48 2000 140/05 RMK AO2
14837KMSN MSN20020905122509309/05/02 12:25:31  5-MIN KMSN 051825Z 19006KT 10SM CLR 26/14 A3020 600 48 2000 180/06 RMK AO2
14837KMSN MSN20020905123009309/05/02 12:30:31  5-MIN KMSN 051830Z 19007KT 10SM CLR 26/13 A3020 600 46 2000 190/07 RMK AO2
14837KMSN MSN20020905123509309/05/02 12:35:31  5-MIN KMSN 051835Z 16005KT 10SM CLR 26/13 A3020 600 44 2000 160/05 RMK AO2
14837KMSN MSN20020905124009309/05/02 12:40:31  5-MIN KMSN 051840Z VRB03KT 10SM CLR 26/13 A3020 600 44 2000 VRB/03 RMK AO2
14837KMSN MSN20020905124509309/05/02 12:45:31  5-MIN KMSN 051845Z 19005KT 10SM CLR 26/13 A3020 610 46 2000 190/05 RMK AO2
14837KMSN MSN20020905125011009/05/02 12:50:31  5-MIN KMSN 051850Z 00000KT 10SM CLR 26/13 A3020 610 44 2100 000/00 RMK AO2 SLP223 T02610133
14837KMSN MSN20020905125509309/05/02 12:55:31  5-MIN KMSN 051855Z VRB05KT 10SM CLR 26/15 A3019 610 50 2100 VRB/05 RMK AO2
14837KMSN MSN20020905130009309/05/02 13:00:31  5-MIN KMSN 051900Z VRB03KT 10SM CLR 26/14 A3019 610 48 2000 VRB/03 RMK AO2
14837KMSN MSN20020905130509309/05/02 13:05:31  5-MIN KMSN 051905Z 14004KT 10SM CLR 26/14 A3019 610 46 2100 140/04 RMK AO2
14837KMSN MSN20020905131009309/05/02 13:10:31  5-MIN KMSN 051910Z VRB04KT 10SM CLR 27/14 A3019 610 45 2100 VRB/04 RMK AO2
14837KMSN MSN20020905131509309/05/02 13:15:31  5-MIN KMSN 051915Z 00000KT 10SM CLR 26/14 A3019 620 46 2100 000/00 RMK AO2
14837KMSN MSN20020905132009309/05/02 13:20:31  5-MIN KMSN 051920Z VRB05KT 10SM CLR 26/14 A3019 620 46 2100 VRB/05 RMK AO2
14837KMSN MSN20020905132509309/05/02 13:25:31  5-MIN KMSN 051925Z 10006KT 10SM CLR 26/14 A3019 620 46 2100 100/06 RMK AO2
14837KMSN MSN20020905133009309/05/02 13:30:31  5-MIN KMSN 051930Z 12006KT 10SM CLR 27/14 A3019 620 45 2100 120/06 RMK AO2
14837KMSN MSN20020905133509309/05/02 13:35:31  5-MIN KMSN 051935Z 13006KT 10SM CLR 27/13 A3019 620 43 2100 130/06 RMK AO2
14837KMSN MSN20020905134009309/05/02 13:40:31  5-MIN KMSN 051940Z VRB03KT 10SM CLR 27/13 A3018 620 43 2100 VRB/03 RMK AO2
14837KMSN MSN20020905134509309/05/02 13:45:31  5-MIN KMSN 051945Z VRB06KT 10SM CLR 27/13 A3018 620 43 2100 VRB/06 RMK AO2
14837KMSN MSN20020905135011009/05/02 13:50:31  5-MIN KMSN 051950Z VRB03KT 10SM CLR 27/13 A3018 620 43 2100 VRB/03 RMK AO2 SLP217 T02670133
14837KMSN MSN20020905135509309/05/02 13:55:31  5-MIN KMSN 051955Z 12007KT 10SM CLR 27/14 A3018 620 46 2200 120/07 RMK AO2
14837KMSN MSN20020905140009309/05/02 14:00:31  5-MIN KMSN 052000Z 12006KT 10SM CLR 27/14 A3018 620 45 2200 120/06 RMK AO2
14837KMSN MSN20020905140509309/05/02 14:05:31  5-MIN KMSN 052005Z 11009KT 10SM CLR 27/14 A3018 620 46 2200 110/09 RMK AO2
14837KMSN MSN20020905141009309/05/02 14:10:31  5-MIN KMSN 052010Z 10008KT 10SM CLR 27/14 A3018 630 46 2200 100/08 RMK AO2
14837KMSN MSN20020905141509309/05/02 14:15:31  5-MIN KMSN 052015Z 14007KT 10SM CLR 27/15 A3018 630 48 2200 140/07 RMK AO2
14837KMSN MSN20020905142009309/05/02 14:20:31  5-MIN KMSN 052020Z 13009KT 10SM CLR 27/15 A3018 630 48 2200 130/09 RMK AO2
14837KMSN MSN20020905142509309/05/02 14:25:31  5-MIN KMSN 052025Z 11006KT 10SM CLR 27/14 A3018 630 45 2200 110/06 RMK AO2
14837KMSN MSN20020905143009309/05/02 14:30:31  5-MIN KMSN 052030Z 12007KT 10SM CLR 27/14 A3018 630 45 2200 120/07 RMK AO2
14837KMSN MSN20020905143509309/05/02 14:35:31  5-MIN KMSN 052035Z 13006KT 10SM CLR 27/13 A3018 630 43 2200 130/06 RMK AO2
14837KMSN MSN20020905144009309/05/02 14:40:31  5-MIN KMSN 052040Z 11008KT 10SM CLR 27/14 A3017 630 45 2200 110/08 RMK AO2
14837KMSN MSN20020905144509309/05/02 14:45:31  5-MIN KMSN 052045Z 13007KT 10SM CLR 27/13 A3017 630 43 2200 120/07 RMK AO2
14837KMSN MSN20020905145011609/05/02 14:50:31  5-MIN KMSN 052050Z 10007KT 10SM CLR 27/13 A3017 630 43 2200 100/07 RMK AO2 SLP213 T02670133 58007
14837KMSN MSN20020905145509309/05/02 14:55:31  5-MIN KMSN 052055Z 13007KT 10SM CLR 27/13 A3017 640 43 2200 130/07 RMK AO2
14837KMSN MSN20020905150009309/05/02 15:00:31  5-MIN KMSN 052100Z 14007KT 10SM CLR 27/13 A3017 640 43 2200 130/07 RMK AO2
14837KMSN MSN20020905150509309/05/02 15:05:31  5-MIN KMSN 052105Z 11005KT 10SM CLR 27/14 A3017 640 45 2200 110/05 RMK AO2
14837KMSN MSN20020905151009309/05/02 15:10:31  5-MIN KMSN 052110Z 14004KT 10SM CLR 27/13 A3016 640 43 2200 140/04 RMK AO2
14837KMSN MSN20020905151509309/05/02 15:15:31  5-MIN KMSN 052115Z 13007KT 10SM CLR 27/14 A3016 640 46 2200 130/07 RMK AO2
14837KMSN MSN20020905152009309/05/02 15:20:31  5-MIN KMSN 052120Z 13008KT 10SM CLR 27/14 A3016 640 46 2200 120/08 RMK AO2
14837KMSN MSN20020905152509309/05/02 15:25:31  5-MIN KMSN 052125Z 14008KT 10SM CLR 27/15 A3016 640 48 2200 140/08 RMK AO2
14837KMSN MSN20020905153009309/05/02 15:30:31  5-MIN KMSN 052130Z 14007KT 10SM CLR 27/15 A3016 640 48 2200 140/07 RMK AO2
14837KMSN MSN20020905153509309/05/02 15:35:31  5-MIN KMSN 052135Z 11008KT 10SM CLR 27/15 A3016 650 48 2200 100/08 RMK AO2
14837KMSN MSN20020905154009309/05/02 15:40:31  5-MIN KMSN 052140Z 11009KT 10SM CLR 27/16 A3016 650 50 2200 110/09 RMK AO2
14837KMSN MSN20020905154509309/05/02 15:45:31  5-MIN KMSN 052145Z 11009KT 10SM CLR 26/15 A3016 650 50 2100 110/09 RMK AO2
14837KMSN MSN20020905155011009/05/02 15:50:31  5-MIN KMSN 052150Z 09007KT 10SM CLR 26/14 A3016 650 48 2100 090/07 RMK AO2 SLP210 T02610144
14837KMSN MSN20020905155509309/05/02 15:55:31  5-MIN KMSN 052155Z 14008KT 10SM CLR 26/15 A3016 650 50 2100 140/08 RMK AO2
14837KMSN MSN20020905160009309/05/02 16:00:31  5-MIN KMSN 052200Z 12007KT 10SM CLR 26/14 A3016 640 48 2100 120/07 RMK AO2
14837KMSN MSN20020905160509309/05/02 16:05:31  5-MIN KMSN 052205Z 10009KT 10SM CLR 26/14 A3016 650 46 2100 100/09 RMK AO2
14837KMSN MSN20020905161009309/05/02 16:10:31  5-MIN KMSN 052210Z 13010KT 10SM CLR 26/14 A3016 650 48 2100 120/10 RMK AO2
14837KMSN MSN20020905161509309/05/02 16:15:31  5-MIN KMSN 052215Z 12007KT 10SM CLR 26/14 A3016 650 46 2100 120/07 RMK AO2
14837KMSN MSN20020905162009309/05/02 16:20:31  5-MIN KMSN 052220Z 12009KT 10SM CLR 26/14 A3015 650 46 2100 120/09 RMK AO2
14837KMSN MSN20020905162509309/05/02 16:25:31  5-MIN KMSN 052225Z 11009KT 10SM CLR 26/14 A3015 650 48 2100 110/09 RMK AO2
14837KMSN MSN20020905163009309/05/02 16:30:31  5-MIN KMSN 052230Z 13009KT 10SM CLR 26/14 A3015 650 46 2100 130/09 RMK AO2
14837KMSN MSN20020905163509309/05/02 16:35:31  5-MIN KMSN 052235Z 13007KT 10SM CLR 26/14 A3015 650 48 2100 130/07 RMK AO2
14837KMSN MSN20020905164009309/05/02 16:40:31  5-MIN KMSN 052240Z 11010KT 10SM CLR 26/14 A3015 650 49 2100 110/10 RMK AO2
14837KMSN MSN20020905164509309/05/02 16:45:31  5-MIN KMSN 052245Z 11010KT 10SM CLR 26/14 A3014 660 49 2100 100/10 RMK AO2
14837KMSN MSN20020905165011009/05/02 16:50:31  5-MIN KMSN 052250Z 12007KT 10SM CLR 26/14 A3014 660 49 2100 120/07 RMK AO2 SLP205 T02560144
14837KMSN MSN20020905165509309/05/02 16:55:31  5-MIN KMSN 052255Z 12011KT 10SM CLR 26/14 A3014 660 49 2100 120/11 RMK AO2
14837KMSN MSN20020905170009309/05/02 17:00:31  5-MIN KMSN 052300Z 13012KT 10SM CLR 26/14 A3014 660 49 2100 120/12 RMK AO2
14837KMSN MSN20020905170509309/05/02 17:05:31  5-MIN KMSN 052305Z 12011KT 10SM CLR 25/14 A3014 660 51 2000 120/11 RMK AO2
14837KMSN MSN20020905171009309/05/02 17:10:31  5-MIN KMSN 052310Z 13010KT 10SM CLR 25/14 A3014 660 49 2000 130/10 RMK AO2
14837KMSN MSN20020905171509309/05/02 17:15:31  5-MIN KMSN 052315Z 12009KT 10SM CLR 25/14 A3014 660 49 2000 120/09 RMK AO2
14837KMSN MSN20020905172009309/05/02 17:20:31  5-MIN KMSN 052320Z 13011KT 10SM CLR 25/14 A3014 670 51 2000 130/11 RMK AO2
14837KMSN MSN20020905172509309/05/02 17:25:31  5-MIN KMSN 052325Z 13012KT 10SM CLR 24/14 A3014 670 53 2000 130/12 RMK AO2
14837KMSN MSN20020905173009309/05/02 17:30:31  5-MIN KMSN 052330Z 13009KT 10SM CLR 24/15 A3013 670 55 2000 130/09 RMK AO2
14837KMSN MSN20020905173509309/05/02 17:35:31  5-MIN KMSN 052335Z 12009KT 10SM CLR 24/15 A3013 670 55 2000 120/09 RMK AO2
14837KMSN MSN20020905174009309/05/02 17:40:31  5-MIN KMSN 052340Z 13010KT 10SM CLR 24/15 A3013 670 55 2000 130/10 RMK AO2
14837KMSN MSN20020905174509309/05/02 17:45:31  5-MIN KMSN 052345Z 13010KT 10SM CLR 24/16 A3013 670 59 1900 130/10 RMK AO2
14837KMSN MSN20020905175012809/05/02 17:50:31  5-MIN KMSN 052350Z 13010KT 10SM CLR 24/15 A3013 670 57 1900 120/10 RMK AO2 SLP200 T02390150 10267 20239 56015
14837KMSN MSN20020905175509309/05/02 17:55:31  5-MIN KMSN 052355Z 12010KT 10SM CLR 24/15 A3012 680 57 1900 120/10 RMK AO2
14837KMSN MSN20020905180009309/05/02 18:00:31  5-MIN KMSN 060000Z 13009KT 10SM CLR 23/15 A3012 680 59 1800 130/09 RMK AO2
14837KMSN MSN20020905180509309/05/02 18:05:31  5-MIN KMSN 060005Z 13010KT 10SM CLR 23/15 A3013 670 61 1800 130/10 RMK AO2
14837KMSN MSN20020905181009309/05/02 18:10:31  5-MIN KMSN 060010Z 13009KT 10SM CLR 23/15 A3013 670 59 1800 130/09 RMK AO2
14837KMSN MSN20020905181509309/05/02 18:15:31  5-MIN KMSN 060015Z 13010KT 10SM CLR 23/14 A3013 670 57 1800 130/10 RMK AO2
14837KMSN MSN20020905182009309/05/02 18:20:31  5-MIN KMSN 060020Z 13011KT 10SM CLR 23/15 A3013 680 61 1800 130/11 RMK AO2
14837KMSN MSN20020905182509309/05/02 18:25:31  5-MIN KMSN 060025Z 13010KT 10SM CLR 23/15 A3012 680 61 1800 130/10 RMK AO2
14837KMSN MSN20020905183009309/05/02 18:30:31  5-MIN KMSN 060030Z 13009KT 10SM CLR 22/15 A3012 680 63 1700 130/09 RMK AO2
14837KMSN MSN20020905183509309/05/02 18:35:31  5-MIN KMSN 060035Z 13011KT 10SM CLR 22/15 A3012 680 63 1700 130/11 RMK AO2
14837KMSN MSN20020905184009309/05/02 18:40:31  5-MIN KMSN 060040Z 13010KT 10SM CLR 22/15 A3012 680 63 1700 130/10 RMK AO2
14837KMSN MSN20020905184509309/05/02 18:45:31  5-MIN KMSN 060045Z 13010KT 10SM CLR 22/15 A3012 680 63 1700 130/10 RMK AO2
14837KMSN MSN20020905185011009/05/02 18:50:31  5-MIN KMSN 060050Z 13009KT 10SM CLR 22/15 A3013 680 65 1600 130/09 RMK AO2 SLP198 T02170150
14837KMSN MSN20020905185509309/05/02 18:55:31  5-MIN KMSN 060055Z 14008KT 10SM CLR 22/15 A3013 670 65 1600 130/08 RMK AO2
14837KMSN MSN20020905190009309/05/02 19:00:31  5-MIN KMSN 060100Z 13009KT 10SM CLR 21/15 A3013 670 68 1600 130/09 RMK AO2
14837KMSN MSN20020905190509309/05/02 19:05:31  5-MIN KMSN 060105Z 13009KT 10SM CLR 21/14 A3013 670 65 1600 130/09 RMK AO2
14837KMSN MSN20020905191009309/05/02 19:10:31  5-MIN KMSN 060110Z 13011KT 10SM CLR 21/14 A3013 670 65 1600 130/11 RMK AO2
14837KMSN MSN20020905191509309/05/02 19:15:31  5-MIN KMSN 060115Z 13009KT 10SM CLR 21/14 A3013 670 65 1600 130/09 RMK AO2
14837KMSN MSN20020905192009309/05/02 19:20:31  5-MIN KMSN 060120Z 13011KT 10SM CLR 21/14 A3014 670 65 1600 130/11 RMK AO2
14837KMSN MSN20020905192509309/05/02 19:25:31  5-MIN KMSN 060125Z 13012KT 10SM CLR 21/14 A3013 670 65 1600 130/12 RMK AO2
14837KMSN MSN20020905193009309/05/02 19:30:31  5-MIN KMSN 060130Z 13011KT 10SM CLR 21/14 A3013 670 65 1500 130/11 RMK AO2
14837KMSN MSN20020905193509309/05/02 19:35:31  5-MIN KMSN 060135Z 13011KT 10SM CLR 21/14 A3014 670 65 1500 130/11 RMK AO2
14837KMSN MSN20020905194009309/05/02 19:40:31  5-MIN KMSN 060140Z 13012KT 10SM CLR 21/14 A3013 670 65 1500 130/12 RMK AO2
14837KMSN MSN20020905194509309/05/02 19:45:31  5-MIN KMSN 060145Z 13011KT 10SM CLR 21/14 A3013 670 65 1500 130/11 RMK AO2
14837KMSN MSN20020905195011009/05/02 19:50:31  5-MIN KMSN 060150Z 13011KT 10SM CLR 21/14 A3013 670 65 1500 130/11 RMK AO2 SLP201 T02060139
14837KMSN MSN20020905195509309/05/02 19:55:31  5-MIN KMSN 060155Z 13009KT 10SM CLR 20/14 A3013 670 67 1400 130/09 RMK AO2
14837KMSN MSN20020905200009309/05/02 20:00:31  5-MIN KMSN 060200Z 13011KT 10SM CLR 20/14 A3013 670 67 1400 130/11 RMK AO2
14837KMSN MSN20020905200509309/05/02 20:05:31  5-MIN KMSN 060205Z 13010KT 10SM CLR 20/13 A3013 670 65 1400 130/10 RMK AO2
14837KMSN MSN20020905201009309/05/02 20:10:31  5-MIN KMSN 060210Z 13010KT 10SM CLR 19/13 A3014 670 65 1400 130/10 RMK AO2
14837KMSN MSN20020905201509309/05/02 20:15:31  5-MIN KMSN 060215Z 13010KT 10SM CLR 19/13 A3014 660 65 1400 130/10 RMK AO2
14837KMSN MSN20020905202009309/05/02 20:20:31  5-MIN KMSN 060220Z 13008KT 10SM CLR 19/13 A3014 660 65 1400 130/08 RMK AO2
14837KMSN MSN20020905202509309/05/02 20:25:31  5-MIN KMSN 060225Z 13008KT 10SM CLR 19/13 A3014 660 70 1300 130/08 RMK AO2
14837KMSN MSN20020905203009309/05/02 20:30:31  5-MIN KMSN 060230Z 13008KT 10SM CLR 19/13 A3014 670 70 1300 130/08 RMK AO2
14837KMSN MSN20020905203509309/05/02 20:35:31  5-MIN KMSN 060235Z 14008KT 10SM CLR 19/13 A3013 670 70 1300 140/08 RMK AO2
14837KMSN MSN20020905204009309/05/02 20:40:31  5-MIN KMSN 060240Z 14008KT 10SM CLR 18/13 A3013 670 72 1300 140/08 RMK AO2
14837KMSN MSN20020905204509309/05/02 20:45:31  5-MIN KMSN 060245Z 15007KT 10SM CLR 18/13 A3014 670 72 1300 140/07 RMK AO2
14837KMSN MSN20020905205011609/05/02 20:50:31  5-MIN KMSN 060250Z 15008KT 10SM CLR 18/13 A3013 670 70 1300 140/08 RMK AO2 SLP201 T01830128 58015
14837KMSN MSN20020905205509309/05/02 20:55:31  5-MIN KMSN 060255Z 15007KT 10SM CLR 18/13 A3013 670 72 1300 150/07 RMK AO2
14837KMSN MSN20020905210009309/05/02 21:00:31  5-MIN KMSN 060300Z 16008KT 10SM CLR 18/13 A3014 670 72 1300 160/08 RMK AO2
14837KMSN MSN20020905210509309/05/02 21:05:31  5-MIN KMSN 060305Z 16007KT 10SM CLR 18/13 A3013 670 72 1300 160/07 RMK AO2
14837KMSN MSN20020905211009309/05/02 21:10:31  5-MIN KMSN 060310Z 16007KT 10SM CLR 18/13 A3013 670 72 1300 160/07 RMK AO2
14837KMSN MSN20020905211509309/05/02 21:15:31  5-MIN KMSN 060315Z 16007KT 10SM CLR 18/13 A3013 670 72 1300 160/07 RMK AO2
14837KMSN MSN20020905212009309/05/02 21:20:31  5-MIN KMSN 060320Z 16007KT 10SM CLR 18/13 A3013 670 72 1300 160/07 RMK AO2
14837KMSN MSN20020905212509309/05/02 21:25:31  5-MIN KMSN 060325Z 16006KT 10SM CLR 18/13 A3013 670 75 1200 160/06 RMK AO2
14837KMSN MSN20020905213009309/05/02 21:30:31  5-MIN KMSN 060330Z 16007KT 10SM CLR 18/13 A3013 670 72 1300 160/07 RMK AO2
14837KMSN MSN20020905213509309/05/02 21:35:31  5-MIN KMSN 060335Z 16007KT 10SM CLR 18/13 A3014 670 75 1200 150/07 RMK AO2
14837KMSN MSN20020905214009309/05/02 21:40:31  5-MIN KMSN 060340Z 16007KT 10SM CLR 18/13 A3014 670 75 1200 160/07 RMK AO2
14837KMSN MSN20020905214509309/05/02 21:45:31  5-MIN KMSN 060345Z 16007KT 10SM CLR 18/13 A3013 670 75 1200 160/07 RMK AO2
14837KMSN MSN20020905215011009/05/02 21:50:31  5-MIN KMSN 060350Z 16008KT 10SM CLR 18/13 A3013 670 75 1200 160/08 RMK AO2 SLP200 T01780133
14837KMSN MSN20020905215509309/05/02 21:55:31  5-MIN KMSN 060355Z 16008KT 10SM CLR 18/13 A3013 670 75 1200 160/08 RMK AO2
14837KMSN MSN20020905220009309/05/02 22:00:31  5-MIN KMSN 060400Z 17007KT 10SM CLR 18/13 A3013 670 72 1300 160/07 RMK AO2
14837KMSN MSN20020905220509309/05/02 22:05:31  5-MIN KMSN 060405Z 16008KT 10SM CLR 18/13 A3013 670 75 1200 160/08 RMK AO2
14837KMSN MSN20020905221009309/05/02 22:10:31  5-MIN KMSN 060410Z 16008KT 10SM CLR 17/13 A3013 670 78 1100 160/08 RMK AO2
14837KMSN MSN20020905221509309/05/02 22:15:31  5-MIN KMSN 060415Z 16007KT 10SM CLR 17/14 A3013 670 80 1100 160/07 RMK AO2
14837KMSN MSN20020905222009309/05/02 22:20:31  5-MIN KMSN 060420Z 16007KT 10SM CLR 17/14 A3013 670 80 1100 160/07 RMK AO2
14837KMSN MSN20020905222509309/05/02 22:25:31  5-MIN KMSN 060425Z 17006KT 10SM CLR 18/14 A3013 670 78 1200 170/06 RMK AO2
14837KMSN MSN20020905223009309/05/02 22:30:31  5-MIN KMSN 060430Z 17006KT 10SM CLR 17/14 A3013 670 80 1100 170/06 RMK AO2
14837KMSN MSN20020905223509309/05/02 22:35:31  5-MIN KMSN 060435Z 17006KT 10SM CLR 17/14 A3013 670 80 1100 170/06 RMK AO2
14837KMSN MSN20020905224009309/05/02 22:40:31  5-MIN KMSN 060440Z 18006KT 10SM CLR 17/14 A3013 670 80 1100 180/06 RMK AO2
14837KMSN MSN20020905224509309/05/02 22:45:31  5-MIN KMSN 060445Z 17005KT 10SM CLR 18/14 A3013 670 78 1200 170/05 RMK AO2
14837KMSN MSN20020905225011009/05/02 22:50:31  5-MIN KMSN 060450Z 16004KT 10SM CLR 17/13 A3013 670 78 1100 160/04 RMK AO2 SLP199 T01720133
14837KMSN MSN20020905225509309/05/02 22:55:31  5-MIN KMSN 060455Z 16004KT 10SM CLR 17/13 A3013 670 78 1100 160/04 RMK AO2
14837KMSN MSN20020905230009309/05/02 23:00:31  5-MIN KMSN 060500Z 17004KT 10SM CLR 17/13 A3013 670 80 1100 160/04 RMK AO2
14837KMSN MSN20020905230509309/05/02 23:05:31  5-MIN KMSN 060505Z 17003KT 10SM CLR 17/13 A3012 680 80 1100 170/03 RMK AO2
14837KMSN MSN20020905231009309/05/02 23:10:31  5-MIN KMSN 060510Z 16004KT 10SM CLR 17/13 A3012 680 80 1100 160/04 RMK AO2
14837KMSN MSN20020905231509309/05/02 23:15:31  5-MIN KMSN 060515Z 16005KT 10SM CLR 17/13 A3012 680 77 1100 160/05 RMK AO2
14837KMSN MSN20020905232009309/05/02 23:20:31  5-MIN KMSN 060520Z 16005KT 10SM CLR 17/13 A3012 680 77 1100 160/05 RMK AO2
14837KMSN MSN20020905232509309/05/02 23:25:31  5-MIN KMSN 060525Z 16005KT 10SM CLR 17/13 A3013 680 77 1100 160/05 RMK AO2
14837KMSN MSN20020905233009309/05/02 23:30:31  5-MIN KMSN 060530Z 17005KT 10SM CLR 17/13 A3013 670 77 1100 170/05 RMK AO2
14837KMSN MSN20020905233509309/05/02 23:35:31  5-MIN KMSN 060535Z 17003KT 10SM CLR 17/13 A3013 670 77 1100 170/03 RMK AO2
14837KMSN MSN20020905234009309/05/02 23:40:31  5-MIN KMSN 060540Z 17004KT 10SM CLR 17/13 A3013 680 77 1100 160/04 RMK AO2
14837KMSN MSN20020905234509309/05/02 23:45:31  5-MIN KMSN 060545Z 16006KT 10SM CLR 17/13 A3012 680 77 1100 160/06 RMK AO2
14837KMSN MSN20020905235013809/05/02 23:50:31  5-MIN KMSN 060550Z 16006KT 10SM CLR 16/13 A3012 680 80 1000 160/06 RMK AO2 SLP197 T01610128 10239 20161 402670117 52003
14837KMSN MSN20020905235509209/05/02 23:55:31  5-MIN KMSN 060555Z 15006KT 10SM CLR 16/13 A3012 680 83 900 150/06 RMK AO2
14837KMSN MSN20020906000009209/06/02 00:00:31  5-MIN KMSN 060600Z 16006KT 10SM CLR 16/13 A3012 680 83 900 150/06 RMK AO2
14837KMSN MSN20020906000509309/06/02 00:05:31  5-MIN KMSN 060605Z 16005KT 10SM CLR 16/13 A3012 680 80 1000 160/05 RMK AO2
14837KMSN MSN20020906001009209/06/02 00:10:31  5-MIN KMSN 060610Z 17004KT 10SM CLR 15/12 A3012 680 83 900 170/04 RMK AO2
14837KMSN MSN20020906001509209/06/02 00:15:31  5-MIN KMSN 060615Z 17003KT 10SM CLR 15/13 A3012 680 86 900 170/03 RMK AO2
14837KMSN MSN20020906002009209/06/02 00:20:31  5-MIN KMSN 060620Z 16003KT 10SM CLR 15/13 A3012 680 86 900 160/03 RMK AO2
14837KMSN MSN20020906002509209/06/02 00:25:31  5-MIN KMSN 060625Z 00000KT 10SM CLR 15/13 A3012 680 86 900 000/00 RMK AO2
14837KMSN MSN20020906003009209/06/02 00:30:31  5-MIN KMSN 060630Z 00000KT 10SM CLR 15/13 A3012 680 86 900 000/00 RMK AO2
14837KMSN MSN20020906003509209/06/02 00:35:31  5-MIN KMSN 060635Z 00000KT 10SM CLR 15/13 A3012 680 86 900 000/00 RMK AO2
14837KMSN MSN20020906004009209/06/02 00:40:31  5-MIN KMSN 060640Z 00000KT 10SM CLR 14/13 A3012 680 90 800 000/00 RMK AO2
14837KMSN MSN20020906004509209/06/02 00:45:31  5-MIN KMSN 060645Z 00000KT 10SM CLR 14/13 A3011 690 93 800 000/00 RMK AO2
14837KMSN MSN20020906005010909/06/02 00:50:31  5-MIN KMSN 060650Z 00000KT 10SM CLR 14/13 A3012 680 93 800 000/00 RMK AO2 SLP195 T01390128
14837KMSN MSN20020906005509209/06/02 00:55:31  5-MIN KMSN 060655Z 00000KT 10SM CLR 14/13 A3012 680 93 800 000/00 RMK AO2
14837KMSN MSN20020906010009209/06/02 01:00:31  5-MIN KMSN 060700Z 00000KT 10SM CLR 14/13 A3012 680 96 800 000/00 RMK AO2
14837KMSN MSN20020906010509209/06/02 01:05:31  5-MIN KMSN 060705Z 00000KT 10SM CLR 14/13 A3011 690 93 800 000/00 RMK AO2
14837KMSN MSN20020906011009209/06/02 01:10:31  5-MIN KMSN 060710Z 00000KT 10SM CLR 14/13 A3011 690 96 800 000/00 RMK AO2
14837KMSN MSN20020906011509209/06/02 01:15:31  5-MIN KMSN 060715Z 00000KT 10SM CLR 13/12 A3011 690 96 600 000/00 RMK AO2
14837KMSN MSN20020906012009209/06/02 01:20:31  5-MIN KMSN 060720Z 00000KT 10SM CLR 13/13 A3011 690 96 700 000/00 RMK AO2
14837KMSN MSN20020906012509209/06/02 01:25:31  5-MIN KMSN 060725Z 00000KT 10SM CLR 14/13 A3011 690 93 800 000/00 RMK AO2
14837KMSN MSN20020906013009209/06/02 01:30:31  5-MIN KMSN 060730Z 00000KT 10SM CLR 14/13 A3011 690 93 800 000/00 RMK AO2
14837KMSN MSN20020906013509209/06/02 01:35:31  5-MIN KMSN 060735Z 12003KT 10SM CLR 14/13 A3011 690 90 800 120/03 RMK AO2
14837KMSN MSN20020906014009209/06/02 01:40:31  5-MIN KMSN 060740Z 11003KT 10SM CLR 13/12 A3011 690 93 700 110/03 RMK AO2
14837KMSN MSN20020906014509209/06/02 01:45:31  5-MIN KMSN 060745Z 00000KT 10SM CLR 13/12 A3011 690 93 700 000/00 RMK AO2
14837KMSN MSN20020906015010909/06/02 01:50:31  5-MIN KMSN 060750Z 00000KT 10SM CLR 13/13 A3011 690 96 700 000/00 RMK AO2 SLP192 T01330128
14837KMSN MSN20020906015509209/06/02 01:55:31  5-MIN KMSN 060755Z 00000KT 10SM CLR 14/13 A3010 690 93 800 000/00 RMK AO2
14837KMSN MSN20020906020009209/06/02 02:00:31  5-MIN KMSN 060800Z 00000KT 10SM CLR 14/13 A3011 690 93 800 000/00 RMK AO2
14837KMSN MSN20020906020509209/06/02 02:05:31  5-MIN KMSN 060805Z 00000KT 10SM CLR 14/13 A3010 690 93 800 000/00 RMK AO2
14837KMSN MSN20020906021009209/06/02 02:10:31  5-MIN KMSN 060810Z 00000KT 10SM CLR 14/13 A3010 690 93 800 000/00 RMK AO2
14837KMSN MSN20020906021509209/06/02 02:15:31  5-MIN KMSN 060815Z 00000KT 10SM CLR 13/13 A3011 690 96 700 000/00 RMK AO2
14837KMSN MSN20020906022009209/06/02 02:20:31  5-MIN KMSN 060820Z 00000KT 10SM CLR 13/12 A3010 700 93 700 000/00 RMK AO2
14837KMSN MSN20020906022509209/06/02 02:25:31  5-MIN KMSN 060825Z 13003KT 10SM CLR 13/12 A3010 700 93 700 130/03 RMK AO2
14837KMSN MSN20020906023009209/06/02 02:30:31  5-MIN KMSN 060830Z 14004KT 10SM CLR 14/12 A3009 700 90 800 140/04 RMK AO2
14837KMSN MSN20020906023509209/06/02 02:35:31  5-MIN KMSN 060835Z 16005KT 10SM CLR 14/13 A3010 700 93 800 160/05 RMK AO2
14837KMSN MSN20020906024009209/06/02 02:40:31  5-MIN KMSN 060840Z 16004KT 10SM CLR 14/13 A3009 700 93 800 160/04 RMK AO2
14837KMSN MSN20020906024509209/06/02 02:45:31  5-MIN KMSN 060845Z 16004KT 10SM CLR 13/12 A3009 700 93 700 160/04 RMK AO2
14837KMSN MSN20020906025011509/06/02 02:50:31  5-MIN KMSN 060850Z 15004KT 10SM CLR 14/13 A3009 710 93 800 150/04 RMK AO2 SLP187 T01440133 58004
14837KMSN MSN20020906025509209/06/02 02:55:31  5-MIN KMSN 060855Z 16005KT 10SM CLR 15/13 A3009 710 90 900 150/05 RMK AO2
14837KMSN MSN20020906030009209/06/02 03:00:31  5-MIN KMSN 060900Z 16004KT 10SM CLR 15/13 A3009 710 90 900 160/04 RMK AO2
14837KMSN MSN20020906030509209/06/02 03:05:31  5-MIN KMSN 060905Z 16004KT 10SM CLR 15/13 A3009 710 90 900 160/04 RMK AO2
14837KMSN MSN20020906031009209/06/02 03:10:31  5-MIN KMSN 060910Z 16004KT 10SM CLR 15/13 A3009 710 90 900 160/04 RMK AO2
14837KMSN MSN20020906031509209/06/02 03:15:31  5-MIN KMSN 060915Z 16004KT 10SM CLR 15/14 A3008 710 93 900 160/04 RMK AO2
14837KMSN MSN20020906032009209/06/02 03:20:31  5-MIN KMSN 060920Z 16005KT 10SM CLR 14/13 A3008 720 93 900 160/05 RMK AO2
14837KMSN MSN20020906032509209/06/02 03:25:31  5-MIN KMSN 060925Z 17003KT 10SM CLR 15/14 A3009 710 93 900 170/03 RMK AO2
14837KMSN MSN20020906033009109/06/02 03:30:31  5-MIN KMSN 060930Z 16003KT 9SM CLR 14/13 A3009 710 93 800 160/03 RMK AO2
14837KMSN MSN20020906033509109/06/02 03:35:31  5-MIN KMSN 060935Z 00000KT 8SM CLR 14/13 A3009 710 96 800 000/00 RMK AO2
14837KMSN MSN20020906034009109/06/02 03:40:31  5-MIN KMSN 060940Z 16004KT 8SM CLR 14/14 A3009 710 96 800 160/04 RMK AO2
14837KMSN MSN20020906034509109/06/02 03:45:31  5-MIN KMSN 060945Z 00000KT 8SM CLR 14/14 A3009 710 96 800 000/00 RMK AO2
14837KMSN MSN20020906035010809/06/02 03:50:31  5-MIN KMSN 060950Z 00000KT 7SM CLR 14/13 A3009 700 96 800 000/00 RMK AO2 SLP188 T01390133
14837KMSN MSN20020906035509409/06/02 03:55:31  5-MIN KMSN 060955Z 00000KT 6SM BR CLR 13/13 A3010 700 96 700 000/00 RMK AO2
14837KMSN MSN20020906040009409/06/02 04:00:31  5-MIN KMSN 061000Z 33003KT 5SM BR CLR 13/12 A3010 700 96 600 330/03 RMK AO2
14837KMSN MSN20020906040509409/06/02 04:05:31  5-MIN KMSN 061005Z 00000KT 5SM BR CLR 13/12 A3010 690 96 600 000/00 RMK AO2
14837KMSN MSN20020906041009409/06/02 04:10:31  5-MIN KMSN 061010Z 00000KT 4SM BR CLR 13/12 A3010 700 96 600 000/00 RMK AO2
14837KMSN MSN20020906041509409/06/02 04:15:31  5-MIN KMSN 061015Z 00000KT 5SM BR CLR 13/12 A3010 700 96 600 000/00 RMK AO2
14837KMSN MSN20020906042009409/06/02 04:20:31  5-MIN KMSN 061020Z 00000KT 6SM BR CLR 12/11 A3011 690 96 500 000/00 RMK AO2
14837KMSN MSN20020906042509109/06/02 04:25:31  5-MIN KMSN 061025Z 00000KT 7SM CLR 13/12 A3011 690 93 600 000/00 RMK AO2
14837KMSN MSN20020906043009409/06/02 04:30:31  5-MIN KMSN 061030Z 00000KT 5SM BR CLR 13/12 A3011 690 96 600 000/00 RMK AO2
14837KMSN MSN20020906043509409/06/02 04:35:31  5-MIN KMSN 061035Z 00000KT 3SM BR CLR 13/12 A3011 690 96 600 000/00 RMK AO2
14837KMSN MSN20020906044010809/06/02 04:40:31  5-MIN KMSN 061040Z 00000KT 1 1/4SM BR CLR 13/12 A3011 690 96 600 000/00 RMK AO2 VIS 1/2V4
14837KMSN MSN20020906044509709/06/02 04:45:31  5-MIN KMSN 061045Z 00000KT 1/2SM FG CLR 12/12 A3011 690 100 600 000/00 RMK AO2
14837KMSN MSN20020906045011709/06/02 04:50:31  5-MIN KMSN 061050Z 00000KT 3SM MIFG BR CLR 12/12 A3011 690 100 600 000/00 RMK AO2 SLP195 T01220122
14837KMSN MSN20020906045511009/06/02 04:55:31  5-MIN KMSN 061055Z 00000KT 3SM MIFG BR CLR 12/12 A3011 690 100 600 000/00 RMK AO2 TWR VIS 7
14837KMSN MSN20020906050011009/06/02 05:00:31  5-MIN KMSN 061100Z 00000KT 3SM MIFG BR CLR 13/13 A3011 690 100 600 000/00 RMK AO2 TWR VIS 7
14837KMSN MSN20020906050510909/06/02 05:05:31  5-MIN KMSN 061105Z 00000KT 3SM MIFG BR CLR 13/12 A3011 690 96 600 000/00 RMK AO2 TWR VIS 7
14837KMSN MSN20020906051010909/06/02 05:10:31  5-MIN KMSN 061110Z 00000KT 3SM MIFG BR CLR 13/13 A3011 690 96 700 000/00 RMK AO2 TWR VIS 7
14837KMSN MSN20020906051511009/06/02 05:15:31  5-MIN KMSN 061115Z 00000KT 3SM MIFG BR CLR 13/13 A3010 690 100 600 000/00 RMK AO2 TWR VIS 7
14837KMSN MSN20020906052010009/06/02 05:20:31  5-MIN KMSN 061120Z 00000KT 4SM BCFG BR CLR 12/12 A3011 690 100 600 000/00 RMK AO2
14837KMSN MSN20020906052509909/06/02 05:25:31  5-MIN KMSN 061125Z 00000KT 4SM BCFG BR CLR 12/11 A3011 690 96 500 000/00 RMK AO2
14837KMSN MSN20020906053010009/06/02 05:30:31  5-MIN KMSN 061130Z 00000KT 4SM BCFG BR CLR 12/12 A3011 690 100 600 000/00 RMK AO2
14837KMSN MSN20020906053510009/06/02 05:35:31  5-MIN KMSN 061135Z 00000KT 4SM BCFG BR CLR 12/12 A3011 690 100 500 000/00 RMK AO2
14837KMSN MSN20020906054010009/06/02 05:40:31  5-MIN KMSN 061140Z 00000KT 4SM BCFG BR CLR 12/12 A3011 690 100 600 000/00 RMK AO2
14837KMSN MSN20020906054509509/06/02 05:45:31  5-MIN KMSN 061145Z 00000KT 5SM BR CLR 12/12 A3011 690 100 600 000/00 RMK AO2
14837KMSN MSN20020906055012909/06/02 05:50:31  5-MIN KMSN 061150Z 00000KT 5SM BR CLR 13/12 A3011 690 96 600 000/00 RMK AO2 SLP194 T01280122 10161 20117 58010
14837KMSN MSN20020906055509409/06/02 05:55:31  5-MIN KMSN 061155Z 00000KT 5SM BR CLR 13/13 A3011 690 96 700 000/00 RMK AO2
14837KMSN MSN20020906060009409/06/02 06:00:31  5-MIN KMSN 061200Z 00000KT 5SM BR CLR 13/13 A3012 680 96 700 000/00 RMK AO2
14837KMSN MSN20020906060509409/06/02 06:05:31  5-MIN KMSN 061205Z 00000KT 5SM BR CLR 13/13 A3012 680 96 700 000/00 RMK AO2
14837KMSN MSN20020906061009509/06/02 06:10:31  5-MIN KMSN 061210Z 00000KT 5SM BR CLR 13/13 A3012 680 100 700 000/00 RMK AO2
14837KMSN MSN20020906061509409/06/02 06:15:31  5-MIN KMSN 061215Z 00000KT 5SM BR CLR 14/13 A3012 680 96 800 000/00 RMK AO2
14837KMSN MSN20020906062009409/06/02 06:20:31  5-MIN KMSN 061220Z 00000KT 3SM BR CLR 13/13 A3012 680 96 700 000/00 RMK AO2
14837KMSN MSN20020906062509409/06/02 06:25:31  5-MIN KMSN 061225Z 00000KT 3SM BR CLR 14/13 A3012 680 96 700 000/00 RMK AO2
14837KMSN MSN20020906063009409/06/02 06:30:31  5-MIN KMSN 061230Z 00000KT 3SM BR CLR 14/14 A3012 680 96 800 000/00 RMK AO2
14837KMSN MSN20020906063509409/06/02 06:35:31  5-MIN KMSN 061235Z 11003KT 3SM BR CLR 16/14 A3012 680 93 900 110/03 RMK AO2
14837KMSN MSN20020906064009509/06/02 06:40:31  5-MIN KMSN 061240Z 11005KT 3SM BR CLR 16/15 A3012 680 93 1000 110/05 RMK AO2
14837KMSN MSN20020906064509509/06/02 06:45:31  5-MIN KMSN 061245Z 11005KT 3SM BR CLR 16/15 A3012 680 93 1000 110/05 RMK AO2
14837KMSN MSN20020906065012209/06/02 06:50:31  5-MIN KMSN 061250Z 13006KT 3SM BR CLR 17/16 A3013 680 93 1100 130/06 RMK AO2 TWR VIS 5 SLP198 T01670156
14837KMSN MSN20020906065509509/06/02 06:55:31  5-MIN KMSN 061255Z 14006KT 4SM BR CLR 17/16 A3013 670 93 1100 130/06 RMK AO2
14837KMSN MSN20020906070009509/06/02 07:00:31  5-MIN KMSN 061300Z 15005KT 4SM BR CLR 17/16 A3013 670 90 1100 150/05 RMK AO2
14837KMSN MSN20020906070509509/06/02 07:05:31  5-MIN KMSN 061305Z 15006KT 4SM BR CLR 17/16 A3013 670 90 1100 150/06 RMK AO2
14837KMSN MSN20020906071009509/06/02 07:10:31  5-MIN KMSN 061310Z 16004KT 5SM BR CLR 18/16 A3013 670 87 1200 160/04 RMK AO2
14837KMSN MSN20020906071509509/06/02 07:15:31  5-MIN KMSN 061315Z 16004KT 5SM BR CLR 18/16 A3014 660 90 1200 160/04 RMK AO2
14837KMSN MSN20020906072009509/06/02 07:20:31  5-MIN KMSN 061320Z VRB03KT 5SM BR CLR 18/16 A3014 660 87 1200 VRB/03 RMK AO2
14837KMSN MSN20020906072509509/06/02 07:25:31  5-MIN KMSN 061325Z 12003KT 6SM BR CLR 18/16 A3014 660 87 1200 120/03 RMK AO2
14837KMSN MSN20020906073009509/06/02 07:30:31  5-MIN KMSN 061330Z VRB03KT 6SM HZ CLR 19/16 A3015 660 84 1300 VRB/03 RMK AO2
14837KMSN MSN20020906073509209/06/02 07:35:31  5-MIN KMSN 061335Z 00000KT 7SM CLR 19/16 A3015 660 81 1300 000/00 RMK AO2
14837KMSN MSN20020906074009209/06/02 07:40:31  5-MIN KMSN 061340Z 00000KT 7SM CLR 19/16 A3015 650 84 1300 000/00 RMK AO2
14837KMSN MSN20020906074509209/06/02 07:45:31  5-MIN KMSN 061345Z 14003KT 7SM CLR 19/16 A3015 650 84 1300 130/03 RMK AO2
14837KMSN MSN20020906075010909/06/02 07:50:31  5-MIN KMSN 061350Z VRB03KT 7SM CLR 19/16 A3015 660 81 1400 VRB/03 RMK AO2 SLP205 T01940161
14837KMSN MSN20020906075509209/06/02 07:55:31  5-MIN KMSN 061355Z 00000KT 8SM CLR 20/16 A3015 660 78 1400 000/00 RMK AO2
14837KMSN MSN20020906080009209/06/02 08:00:31  5-MIN KMSN 061400Z VRB03KT 9SM CLR 20/16 A3015 660 75 1400 VRB/03 RMK AO2
14837KMSN MSN20020906080509309/06/02 08:05:31  5-MIN KMSN 061405Z 00000KT 10SM CLR 21/17 A3015 650 78 1500 000/00 RMK AO2
14837KMSN MSN20020906081009309/06/02 08:10:31  5-MIN KMSN 061410Z 24004KT 10SM CLR 21/16 A3015 650 75 1500 240/04 RMK AO2
14837KMSN MSN20020906081509309/06/02 08:15:31  5-MIN KMSN 061415Z 21004KT 10SM CLR 21/16 A3015 650 73 1500 210/04 RMK AO2
14837KMSN MSN20020906082009309/06/02 08:20:31  5-MIN KMSN 061420Z 21004KT 10SM CLR 21/16 A3015 650 73 1500 210/04 RMK AO2
14837KMSN MSN20020906082509309/06/02 08:25:31  5-MIN KMSN 061425Z 22005KT 10SM CLR 20/16 A3015 650 75 1400 220/05 RMK AO2
14837KMSN MSN20020906083009309/06/02 08:30:31  5-MIN KMSN 061430Z 23005KT 10SM CLR 20/16 A3015 650 75 1400 230/05 RMK AO2
14837KMSN MSN20020906083509309/06/02 08:35:31  5-MIN KMSN 061435Z 22004KT 10SM CLR 20/16 A3016 650 75 1400 220/04 RMK AO2
14837KMSN MSN20020906084009309/06/02 08:40:31  5-MIN KMSN 061440Z 22003KT 10SM CLR 20/16 A3015 650 75 1400 220/03 RMK AO2
14837KMSN MSN20020906084509309/06/02 08:45:31  5-MIN KMSN 061445Z 28005KT 10SM CLR 20/16 A3016 650 75 1400 280/05 RMK AO2
14837KMSN MSN20020906085011609/06/02 08:50:31  5-MIN KMSN 061450Z VRB03KT 10SM CLR 20/16 A3015 650 75 1400 VRB/03 RMK AO2 SLP208 T02000156 51007
14837KMSN MSN20020906085509309/06/02 08:55:31  5-MIN KMSN 061455Z VRB03KT 10SM CLR 20/16 A3015 650 75 1400 VRB/03 RMK AO2
14837KMSN MSN20020906090009309/06/02 09:00:31  5-MIN KMSN 061500Z 21003KT 10SM CLR 21/16 A3015 650 75 1500 210/03 RMK AO2
14837KMSN MSN20020906090509309/06/02 09:05:31  5-MIN KMSN 061505Z 17004KT 10SM CLR 21/16 A3014 660 73 1600 170/04 RMK AO2
14837KMSN MSN20020906091009309/06/02 09:10:31  5-MIN KMSN 061510Z VRB03KT 10SM CLR 21/16 A3015 650 73 1600 VRB/03 RMK AO2
14837KMSN MSN20020906091509309/06/02 09:15:31  5-MIN KMSN 061515Z 14004KT 10SM CLR 21/16 A3014 660 73 1600 140/04 RMK AO2
14837KMSN MSN20020906092009309/06/02 09:20:31  5-MIN KMSN 061520Z 18004KT 10SM CLR 21/17 A3015 660 75 1600 180/04 RMK AO2
14837KMSN MSN20020906092509309/06/02 09:25:31  5-MIN KMSN 061525Z VRB03KT 10SM CLR 21/17 A3015 660 75 1600 VRB/03 RMK AO2
14837KMSN MSN20020906093009309/06/02 09:30:31  5-MIN KMSN 061530Z 13003KT 10SM CLR 22/17 A3014 660 73 1600 130/03 RMK AO2
14837KMSN MSN20020906093509309/06/02 09:35:31  5-MIN KMSN 061535Z 16004KT 10SM CLR 22/17 A3014 660 73 1600 160/04 RMK AO2
14837KMSN MSN20020906094009309/06/02 09:40:31  5-MIN KMSN 061540Z 16004KT 10SM CLR 22/17 A3014 660 73 1600 160/04 RMK AO2
14837KMSN MSN20020906094509309/06/02 09:45:31  5-MIN KMSN 061545Z 25005KT 10SM CLR 22/16 A3014 660 68 1700 250/05 RMK AO2
14837KMSN MSN20020906095011009/06/02 09:50:31  5-MIN KMSN 061550Z 22006KT 10SM CLR 22/16 A3014 660 68 1700 220/06 RMK AO2 SLP202 T02220161
14837KMSN MSN20020906095509309/06/02 09:55:31  5-MIN KMSN 061555Z VRB06KT 10SM CLR 22/16 A3014 660 65 1700 VRB/06 RMK AO2
14837KMSN MSN20020906100009309/06/02 10:00:31  5-MIN KMSN 061600Z 20005KT 10SM CLR 22/16 A3013 670 65 1700 200/05 RMK AO2
14837KMSN MSN20020906100509309/06/02 10:05:31  5-MIN KMSN 061605Z VRB04KT 10SM CLR 23/16 A3013 670 63 1800 VRB/04 RMK AO2
14837KMSN MSN20020906101009309/06/02 10:10:31  5-MIN KMSN 061610Z 22007KT 10SM CLR 23/16 A3013 670 63 1800 220/07 RMK AO2
14837KMSN MSN20020906101509309/06/02 10:15:31  5-MIN KMSN 061615Z 22006KT 10SM CLR 23/16 A3014 670 61 1800 220/06 RMK AO2
14837KMSN MSN20020906102009309/06/02 10:20:31  5-MIN KMSN 061620Z 22005KT 10SM CLR 23/16 A3013 670 63 1800 220/05 RMK AO2
14837KMSN MSN20020906102509309/06/02 10:25:31  5-MIN KMSN 061625Z 23007KT 10SM CLR 23/16 A3012 680 63 1800 230/07 RMK AO2
14837KMSN MSN20020906103009309/06/02 10:30:31  5-MIN KMSN 061630Z 19006KT 10SM CLR 24/16 A3012 680 59 1900 190/06 RMK AO2
14837KMSN MSN20020906103509309/06/02 10:35:31  5-MIN KMSN 061635Z 19007KT 10SM CLR 24/16 A3011 690 59 1900 190/07 RMK AO2
14837KMSN MSN20020906104009309/06/02 10:40:31  5-MIN KMSN 061640Z 22005KT 10SM CLR 24/16 A3011 690 57 2000 210/05 RMK AO2
14837KMSN MSN20020906104510909/06/02 10:45:31  5-MIN KMSN 061645Z 18007KT 150V220 10SM CLR 24/16 A3010 700 57 2000 170/07 150V220 RMK AO2
14837KMSN MSN20020906105011009/06/02 10:50:31  5-MIN KMSN 061650Z 15007KT 10SM CLR 25/16 A3010 700 57 2100 150/07 RMK AO2 SLP189 T02500161
14837KMSN MSN20020906105510009/06/02 10:55:31  5-MIN KMSN 061655Z 14009KT 10SM CLR 25/17 A3009 710 59 2100 140/09 RMK AO2 PRESFR
14837KMSN MSN20020906110009309/06/02 11:00:31  5-MIN KMSN 061700Z 16011KT 10SM CLR 25/16 A3009 710 57 2100 160/11 RMK AO2
14837KMSN MSN20020906110509309/06/02 11:05:31  5-MIN KMSN 061705Z 15011KT 10SM CLR 25/16 A3008 710 57 2100 150/11 RMK AO2
14837KMSN MSN20020906111009309/06/02 11:10:31  5-MIN KMSN 061710Z 16012KT 10SM CLR 25/16 A3008 720 57 2100 160/12 RMK AO2
14837KMSN MSN20020906111509309/06/02 11:15:31  5-MIN KMSN 061715Z 16013KT 10SM CLR 25/16 A3007 730 55 2100 160/13 RMK AO2
14837KMSN MSN20020906112010009/06/02 11:20:31  5-MIN KMSN 061720Z 17012KT 10SM CLR 25/16 A3006 730 55 2100 170/12 RMK AO2 PRESFR
14837KMSN MSN20020906112509309/06/02 11:25:31  5-MIN KMSN 061725Z 16012KT 10SM CLR 25/16 A3006 740 57 2100 150/12 RMK AO2
14837KMSN MSN20020906113010009/06/02 11:30:31  5-MIN KMSN 061730Z 14016KT 10SM CLR 26/16 A3005 740 55 2200 140/16 RMK AO2 PRESFR
14837KMSN MSN20020906113510009/06/02 11:35:31  5-MIN KMSN 061735Z 15016KT 10SM CLR 26/16 A3005 750 53 2200 150/16 RMK AO2 PRESFR
14837KMSN MSN20020906114009309/06/02 11:40:31  5-MIN KMSN 061740Z 16016KT 10SM CLR 26/15 A3005 750 50 2200 160/16 RMK AO2
14837KMSN MSN20020906114509309/06/02 11:45:31  5-MIN KMSN 061745Z 16015KT 10SM CLR 26/15 A3004 750 50 2200 160/15 RMK AO2
14837KMSN MSN20020906115013509/06/02 11:50:31  5-MIN KMSN 061750Z 15016KT 10SM CLR 27/16 A3003 770 50 2300 150/16 RMK AO2 PRESFR SLP164 T02670156 10267 20128 51013
14837KMSN MSN20020906115509909/06/02 11:55:31  5-MIN KMSN 061755Z 16017G24KT 10SM CLR 26/15 A3004 760 50 2300 150/17G24 RMK AO2
14837KMSN MSN20020906120009909/06/02 12:00:31  5-MIN KMSN 061800Z 17015G24KT 10SM CLR 27/16 A3004 760 50 2300 170/15G24 RMK AO2
14837KMSN MSN20020906120509309/06/02 12:05:31  5-MIN KMSN 061805Z 16015KT 10SM CLR 27/16 A3003 760 52 2300 150/15 RMK AO2
14837KMSN MSN20020906121009309/06/02 12:10:31  5-MIN KMSN 061810Z 15017KT 10SM CLR 27/16 A3003 760 48 2400 150/17 RMK AO2
14837KMSN MSN20020906121509909/06/02 12:15:31  5-MIN KMSN 061815Z 16016G21KT 10SM CLR 27/15 A3003 770 46 2400 160/16G21 RMK AO2
14837KMSN MSN20020906122009909/06/02 12:20:31  5-MIN KMSN 061820Z 15015G21KT 10SM CLR 27/16 A3003 770 48 2400 150/15G21 RMK AO2
14837KMSN MSN20020906122509909/06/02 12:25:31  5-MIN KMSN 061825Z 15015G22KT 10SM CLR 28/15 A3002 770 45 2500 150/15G22 RMK AO2
14837KMSN MSN20020906123009909/06/02 12:30:31  5-MIN KMSN 061830Z 14015G22KT 10SM CLR 28/15 A3002 770 45 2500 140/15G22 RMK AO2
14837KMSN MSN20020906123509309/06/02 12:35:31  5-MIN KMSN 061835Z 15014KT 10SM CLR 27/15 A3003 760 46 2400 150/14 RMK AO2
14837KMSN MSN20020906124009909/06/02 12:40:31  5-MIN KMSN 061840Z 16016G21KT 10SM CLR 28/15 A3003 770 45 2400 160/16G21 RMK AO2
14837KMSN MSN20020906124509309/06/02 12:45:31  5-MIN KMSN 061845Z 16014KT 10SM CLR 28/15 A3003 770 43 2500 160/14 RMK AO2
14837KMSN MSN20020906125011609/06/02 12:50:31  5-MIN KMSN 061850Z 16016G21KT 10SM CLR 28/16 A3002 770 45 2500 160/16G21 RMK AO2 SLP163 T02830156
14837KMSN MSN20020906125509909/06/02 12:55:31  5-MIN KMSN 061855Z 18015G21KT 10SM CLR 28/15 A3002 770 45 2500 180/15G21 RMK AO2
14837KMSN MSN20020906130009309/06/02 13:00:31  5-MIN KMSN 061900Z 17016KT 10SM CLR 27/16 A3002 770 48 2400 170/16 RMK AO2
14837KMSN MSN20020906130509309/06/02 13:05:31  5-MIN KMSN 061905Z 17018KT 10SM CLR 27/15 A3003 770 46 2400 170/18 RMK AO2
14837KMSN MSN20020906131009309/06/02 13:10:31  5-MIN KMSN 061910Z 17015KT 10SM CLR 27/15 A3003 770 46 2400 170/15 RMK AO2
14837KMSN MSN20020906131509309/06/02 13:15:31  5-MIN KMSN 061915Z 18013KT 10SM CLR 28/16 A3003 760 46 2400 180/13 RMK AO2
14837KMSN MSN20020906132009309/06/02 13:20:31  5-MIN KMSN 061920Z 17013KT 10SM CLR 28/16 A3003 760 46 2400 170/13 RMK AO2
14837KMSN MSN20020906132509309/06/02 13:25:31  5-MIN KMSN 061925Z 17012KT 10SM CLR 28/16 A3003 760 46 2400 170/12 RMK AO2
14837KMSN MSN20020906133009309/06/02 13:30:31  5-MIN KMSN 061930Z 18011KT 10SM CLR 28/16 A3003 760 46 2400 180/11 RMK AO2
14837KMSN MSN20020906133509909/06/02 13:35:31  5-MIN KMSN 061935Z 19013G16KT 10SM CLR 28/16 A3003 760 45 2500 180/13G16 RMK AO2
14837KMSN MSN20020906134009909/06/02 13:40:31  5-MIN KMSN 061940Z 17012G16KT 10SM CLR 28/16 A3003 760 48 2400 170/12G16 RMK AO2
14837KMSN MSN20020906134509309/06/02 13:45:31  5-MIN KMSN 061945Z 17013KT 10SM CLR 28/16 A3003 760 45 2500 170/13 RMK AO2
14837KMSN MSN20020906135011609/06/02 13:50:31  5-MIN KMSN 061950Z 18011G17KT 10SM CLR 28/16 A3003 760 45 2500 180/11G17 RMK AO2 SLP165 T02830156
14837KMSN MSN20020906135509909/06/02 13:55:31  5-MIN KMSN 061955Z 18010G16KT 10SM CLR 28/15 A3003 760 45 2400 180/10G16 RMK AO2
14837KMSN MSN20020906140009309/06/02 14:00:31  5-MIN KMSN 062000Z 17011KT 10SM CLR 28/15 A3003 760 45 2400 170/11 RMK AO2
14837KMSN MSN20020906140509309/06/02 14:05:31  5-MIN KMSN 062005Z 18011KT 10SM CLR 28/15 A3003 760 43 2500 180/11 RMK AO2
14837KMSN MSN20020906141009309/06/02 14:10:31  5-MIN KMSN 062010Z 19009KT 10SM CLR 28/16 A3003 760 45 2500 190/09 RMK AO2
14837KMSN MSN20020906141509309/06/02 14:15:31  5-MIN KMSN 062015Z 18012KT 10SM CLR 28/14 A3003 760 42 2500 180/12 RMK AO2
14837KMSN MSN20020906142009309/06/02 14:20:31  5-MIN KMSN 062020Z 19009KT 10SM CLR 28/15 A3003 760 43 2500 190/09 RMK AO2
14837KMSN MSN20020906142509309/06/02 14:25:31  5-MIN KMSN 062025Z 17012KT 10SM CLR 28/15 A3003 760 43 2500 170/12 RMK AO2
14837KMSN MSN20020906143009309/06/02 14:30:31  5-MIN KMSN 062030Z 17013KT 10SM CLR 28/15 A3003 770 43 2500 170/13 RMK AO2
14837KMSN MSN20020906143509309/06/02 14:35:31  5-MIN KMSN 062035Z 17012KT 10SM CLR 28/15 A3003 770 43 2500 170/12 RMK AO2
14837KMSN MSN20020906144009309/06/02 14:40:31  5-MIN KMSN 062040Z 17012KT 10SM CLR 28/15 A3003 770 43 2500 170/12 RMK AO2
14837KMSN MSN20020906144509309/06/02 14:45:31  5-MIN KMSN 062045Z 18010KT 10SM CLR 28/15 A3003 760 43 2500 180/10 RMK AO2
14837KMSN MSN20020906145011609/06/02 14:50:31  5-MIN KMSN 062050Z 19010KT 10SM CLR 28/16 A3003 760 45 2500 190/10 RMK AO2 SLP165 T02830156 58040
14837KMSN MSN20020906145509909/06/02 14:55:31  5-MIN KMSN 062055Z 19010G15KT 10SM CLR 28/15 A3003 760 43 2500 190/10G15 RMK AO2
14837KMSN MSN20020906150009909/06/02 15:00:31  5-MIN KMSN 062100Z 20009G15KT 10SM CLR 28/15 A3003 760 43 2500 200/09G15 RMK AO2
14837KMSN MSN20020906150509309/06/02 15:05:31  5-MIN KMSN 062105Z 19010KT 10SM CLR 28/14 A3003 760 42 2500 190/10 RMK AO2
14837KMSN MSN20020908213009209/08/02 21:30:31  5-MIN KMSN 090330Z 00000KT 8SM CLR 22/21 A3016 640 93 1600 000/00 RMK AO2
14837KMSN MSN20020908213509209/08/02 21:35:31  5-MIN KMSN 090335Z 00000KT 7SM CLR 22/21 A3016 640 90 1700 000/00 RMK AO2
14837KMSN MSN20020908214009209/08/02 21:40:31  5-MIN KMSN 090340Z 00000KT 7SM CLR 22/21 A3016 640 93 1600 000/00 RMK AO2
14837KMSN MSN20020908214509209/08/02 21:45:31  5-MIN KMSN 090345Z 00000KT 7SM CLR 22/21 A3016 640 93 1600 000/00 RMK AO2
14837KMSN MSN20020908215010909/08/02 21:50:31  5-MIN KMSN 090350Z 00000KT 7SM CLR 21/21 A3016 640 97 1500 000/00 RMK AO2 SLP209 T02110206
14837KMSN MSN20020908215509509/08/02 21:55:31  5-MIN KMSN 090355Z 00000KT 6SM BR CLR 21/20 A3016 640 93 1500 000/00 RMK AO2
14837KMSN MSN20020908220009509/08/02 22:00:31  5-MIN KMSN 090400Z 00000KT 6SM BR CLR 21/20 A3016 640 93 1500 000/00 RMK AO2
14837KMSN MSN20020908220509509/08/02 22:05:31  5-MIN KMSN 090405Z 00000KT 6SM BR CLR 21/20 A3016 640 93 1500 000/00 RMK AO2
14837KMSN MSN20020908221009509/08/02 22:10:31  5-MIN KMSN 090410Z 18003KT 6SM BR CLR 22/20 A3016 640 87 1700 180/03 RMK AO2
14837KMSN MSN20020908221509509/08/02 22:15:31  5-MIN KMSN 090415Z 00000KT 6SM BR CLR 21/20 A3017 640 93 1500 000/00 RMK AO2
14837KMSN MSN20020908222009509/08/02 22:20:31  5-MIN KMSN 090420Z 00000KT 6SM BR CLR 21/20 A3017 640 93 1500 000/00 RMK AO2
14837KMSN MSN20020908222509509/08/02 22:25:31  5-MIN KMSN 090425Z 00000KT 6SM BR CLR 21/20 A3017 640 97 1500 000/00 RMK AO2
14837KMSN MSN20020908223009509/08/02 22:30:31  5-MIN KMSN 090430Z 00000KT 6SM BR CLR 21/20 A3017 640 97 1500 000/00 RMK AO2
14837KMSN MSN20020908223509509/08/02 22:35:31  5-MIN KMSN 090435Z 00000KT 6SM BR CLR 21/20 A3016 640 97 1500 000/00 RMK AO2
14837KMSN MSN20020908224009509/08/02 22:40:31  5-MIN KMSN 090440Z 00000KT 6SM BR CLR 21/20 A3016 640 93 1500 000/00 RMK AO2
14837KMSN MSN20020908224509209/08/02 22:45:31  5-MIN KMSN 090445Z 21003KT 7SM CLR 21/21 A3017 640 97 1500 210/03 RMK AO2
14837KMSN MSN20020908225010909/08/02 22:50:31  5-MIN KMSN 090450Z 21003KT 7SM CLR 22/21 A3016 640 90 1700 210/03 RMK AO2 SLP209 T02220206
14837KMSN MSN20020908225509209/08/02 22:55:31  5-MIN KMSN 090455Z 21003KT 7SM CLR 22/20 A3016 640 90 1600 210/03 RMK AO2
14837KMSN MSN20020908230009209/08/02 23:00:31  5-MIN KMSN 090500Z 00000KT 7SM CLR 21/20 A3016 640 93 1500 000/00 RMK AO2
14837KMSN MSN20020908230509209/08/02 23:05:31  5-MIN KMSN 090505Z 00000KT 7SM CLR 22/21 A3016 640 90 1700 000/00 RMK AO2
14837KMSN MSN20020908231009209/08/02 23:10:31  5-MIN KMSN 090510Z 00000KT 7SM CLR 23/21 A3016 640 87 1700 000/00 RMK AO2
14837KMSN MSN20020908231509209/08/02 23:15:31  5-MIN KMSN 090515Z 00000KT 7SM CLR 22/21 A3016 640 90 1700 000/00 RMK AO2
14837KMSN MSN20020908232009209/08/02 23:20:31  5-MIN KMSN 090520Z 00000KT 7SM CLR 22/21 A3016 640 90 1700 000/00 RMK AO2
14837KMSN MSN20020908232509209/08/02 23:25:31  5-MIN KMSN 090525Z 00000KT 7SM CLR 22/21 A3016 640 93 1600 000/00 RMK AO2
14837KMSN MSN20020908233009209/08/02 23:30:31  5-MIN KMSN 090530Z 00000KT 7SM CLR 22/20 A3016 640 90 1600 000/00 RMK AO2
14837KMSN MSN20020908233509509/08/02 23:35:31  5-MIN KMSN 090535Z 00000KT 6SM BR CLR 22/20 A3016 640 90 1600 000/00 RMK AO2
14837KMSN MSN20020908234009509/08/02 23:40:31  5-MIN KMSN 090540Z 00000KT 6SM BR CLR 22/19 A3016 640 87 1600 000/00 RMK AO2
14837KMSN MSN20020908234509209/08/02 23:45:31  5-MIN KMSN 090545Z 00000KT 7SM CLR 21/19 A3016 640 90 1500 000/00 RMK AO2
14837KMSN MSN20020908235014009/08/02 23:50:31  5-MIN KMSN 090550Z 00000KT 6SM BR CLR 21/19 A3016 640 90 1500 000/00 RMK AO2 SLP209 T02110194 10283 20206 403220144 53007
14837KMSN MSN20020908235509509/08/02 23:55:31  5-MIN KMSN 090555Z 00000KT 6SM BR CLR 21/19 A3016 640 93 1500 000/00 RMK AO2
14837KMSN MSN20020909000009509/09/02 00:00:31  5-MIN KMSN 090600Z 00000KT 6SM BR CLR 21/19 A3017 640 93 1500 000/00 RMK AO2
14837KMSN MSN20020909000509509/09/02 00:05:31  5-MIN KMSN 090605Z 00000KT 6SM BR CLR 21/20 A3017 640 93 1500 000/00 RMK AO2
14837KMSN MSN20020909001009509/09/02 00:10:31  5-MIN KMSN 090610Z 00000KT 6SM BR CLR 21/20 A3017 640 93 1500 000/00 RMK AO2
14837KMSN MSN20020909001509509/09/02 00:15:31  5-MIN KMSN 090615Z 00000KT 6SM BR CLR 21/19 A3016 640 93 1500 000/00 RMK AO2
14837KMSN MSN20020909002009509/09/02 00:20:31  5-MIN KMSN 090620Z 00000KT 6SM BR CLR 21/19 A3016 640 90 1500 000/00 RMK AO2
14837KMSN MSN20020909002509509/09/02 00:25:31  5-MIN KMSN 090625Z 17003KT 6SM BR CLR 22/19 A3016 640 87 1600 160/03 RMK AO2
14837KMSN MSN20020909003009209/09/02 00:30:31  5-MIN KMSN 090630Z 00000KT 7SM CLR 21/19 A3016 640 93 1500 000/00 RMK AO2
14837KMSN MSN20020909003509209/09/02 00:35:31  5-MIN KMSN 090635Z 18003KT 7SM CLR 22/20 A3016 640 90 1600 170/03 RMK AO2
14837KMSN MSN20020909004009209/09/02 00:40:31  5-MIN KMSN 090640Z 17003KT 7SM CLR 22/20 A3016 640 90 1600 170/03 RMK AO2
14837KMSN MSN20020909004509209/09/02 00:45:31  5-MIN KMSN 090645Z 00000KT 7SM CLR 22/19 A3016 640 87 1600 000/00 RMK AO2
14837KMSN MSN20020909005010909/09/02 00:50:31  5-MIN KMSN 090650Z 00000KT 7SM CLR 22/20 A3016 640 90 1600 000/00 RMK AO2 SLP206 T02170200
14837KMSN MSN20020909005509209/09/02 00:55:31  5-MIN KMSN 090655Z 00000KT 7SM CLR 22/20 A3016 640 90 1600 000/00 RMK AO2
14837KMSN MSN20020909010009209/09/02 01:00:31  5-MIN KMSN 090700Z 00000KT 7SM CLR 21/20 A3016 640 93 1500 000/00 RMK AO2
14837KMSN MSN20020909010509509/09/02 01:05:31  5-MIN KMSN 090705Z 00000KT 6SM BR CLR 21/19 A3016 640 90 1500 000/00 RMK AO2
14837KMSN MSN20020909011009209/09/02 01:10:31  5-MIN KMSN 090710Z 00000KT 7SM CLR 21/20 A3016 640 93 1500 000/00 RMK AO2
14837KMSN MSN20020909011509209/09/02 01:15:31  5-MIN KMSN 090715Z 00000KT 7SM CLR 22/20 A3016 640 90 1600 000/00 RMK AO2
14837KMSN MSN20020909012009209/09/02 01:20:31  5-MIN KMSN 090720Z 18003KT 7SM CLR 22/20 A3016 650 90 1600 180/03 RMK AO2
14837KMSN MSN20020909012509209/09/02 01:25:31  5-MIN KMSN 090725Z 17003KT 7SM CLR 21/20 A3016 650 93 1500 170/03 RMK AO2
14837KMSN MSN20020909013009209/09/02 01:30:31  5-MIN KMSN 090730Z 19003KT 7SM CLR 21/19 A3016 650 93 1500 190/03 RMK AO2
14837KMSN MSN20020909013509209/09/02 01:35:31  5-MIN KMSN 090735Z 00000KT 7SM CLR 21/19 A3016 650 90 1500 000/00 RMK AO2
14837KMSN MSN20020909014009509/09/02 01:40:31  5-MIN KMSN 090740Z 00000KT 6SM BR CLR 20/19 A3016 650 97 1400 000/00 RMK AO2
14837KMSN MSN20020909014509509/09/02 01:45:31  5-MIN KMSN 090745Z 00000KT 6SM BR CLR 21/20 A3016 650 93 1500 000/00 RMK AO2
14837KMSN MSN20020909015011209/09/02 01:50:31  5-MIN KMSN 090750Z 00000KT 6SM BR CLR 21/20 A3016 650 93 1500 000/00 RMK AO2 SLP205 T02110200
14837KMSN MSN20020909015509509/09/02 01:55:31  5-MIN KMSN 090755Z 00000KT 6SM BR CLR 21/19 A3015 650 93 1500 000/00 RMK AO2
14837KMSN MSN20020909020009509/09/02 02:00:31  5-MIN KMSN 090800Z 00000KT 6SM BR CLR 21/19 A3015 650 93 1500 000/00 RMK AO2
14837KMSN MSN20020909020509509/09/02 02:05:31  5-MIN KMSN 090805Z 00000KT 6SM BR CLR 21/19 A3015 650 93 1500 000/00 RMK AO2
14837KMSN MSN20020909021009509/09/02 02:10:31  5-MIN KMSN 090810Z 00000KT 6SM BR CLR 21/19 A3015 650 93 1500 000/00 RMK AO2
14837KMSN MSN20020909021509509/09/02 02:15:31  5-MIN KMSN 090815Z 00000KT 6SM BR CLR 20/19 A3016 650 97 1400 000/00 RMK AO2
14837KMSN MSN20020909022009509/09/02 02:20:31  5-MIN KMSN 090820Z 00000KT 6SM BR CLR 21/19 A3016 650 93 1500 000/00 RMK AO2
14837KMSN MSN20020909022509509/09/02 02:25:31  5-MIN KMSN 090825Z 00000KT 5SM BR CLR 21/20 A3016 650 97 1500 000/00 RMK AO2
14837KMSN MSN20020909023009509/09/02 02:30:31  5-MIN KMSN 090830Z 00000KT 5SM BR CLR 20/19 A3016 650 97 1400 000/00 RMK AO2
14837KMSN MSN20020909023509509/09/02 02:35:31  5-MIN KMSN 090835Z 00000KT 5SM BR CLR 20/19 A3016 650 97 1400 000/00 RMK AO2
14837KMSN MSN20020909024009509/09/02 02:40:31  5-MIN KMSN 090840Z 00000KT 4SM BR CLR 20/19 A3016 650 97 1400 000/00 RMK AO2
14837KMSN MSN20020909024509509/09/02 02:45:31  5-MIN KMSN 090845Z 00000KT 5SM BR CLR 20/19 A3015 650 97 1400 000/00 RMK AO2
14837KMSN MSN20020909025011809/09/02 02:50:31  5-MIN KMSN 090850Z 17003KT 6SM BR CLR 21/19 A3015 650 93 1500 170/03 RMK AO2 SLP205 T02060194 51003
14837KMSN MSN20020909025509509/09/02 02:55:31  5-MIN KMSN 090855Z 00000KT 6SM BR CLR 20/19 A3015 650 97 1400 000/00 RMK AO2
14837KMSN MSN20020909030009509/09/02 03:00:31  5-MIN KMSN 090900Z 00000KT 5SM BR CLR 21/20 A3015 650 97 1500 000/00 RMK AO2
14837KMSN MSN20020909030509509/09/02 03:05:31  5-MIN KMSN 090905Z 00000KT 5SM BR CLR 19/19 A3015 650 97 1400 000/00 RMK AO2
14837KMSN MSN20020909031009509/09/02 03:10:31  5-MIN KMSN 090910Z 00000KT 5SM BR CLR 20/19 A3015 650 93 1400 000/00 RMK AO2
14837KMSN MSN20020909031509509/09/02 03:15:31  5-MIN KMSN 090915Z 01003KT 4SM BR CLR 20/19 A3015 650 97 1400 010/03 RMK AO2
14837KMSN MSN20020909032009509/09/02 03:20:31  5-MIN KMSN 090920Z 00000KT 3SM BR CLR 19/19 A3015 650 97 1400 000/00 RMK AO2
14837KMSN MSN20020909032509609/09/02 03:25:31  5-MIN KMSN 090925Z 00000KT 3SM BR CLR 19/19 A3015 650 100 1400 000/00 RMK AO2
14837KMSN MSN20020909033009509/09/02 03:30:31  5-MIN KMSN 090930Z 00000KT 4SM BR CLR 19/19 A3015 650 97 1400 000/00 RMK AO2
14837KMSN MSN20020909033509509/09/02 03:35:31  5-MIN KMSN 090935Z 00000KT 5SM BR CLR 20/19 A3015 650 93 1400 000/00 RMK AO2
14837KMSN MSN20020909034009509/09/02 03:40:31  5-MIN KMSN 090940Z 00000KT 5SM BR CLR 20/19 A3015 650 93 1400 000/00 RMK AO2
14837KMSN MSN20020909034509509/09/02 03:45:31  5-MIN KMSN 090945Z 00000KT 3SM BR CLR 20/19 A3015 650 97 1400 000/00 RMK AO2
14837KMSN MSN20020909035011209/09/02 03:50:31  5-MIN KMSN 090950Z 00000KT 6SM BR CLR 20/19 A3015 650 97 1400 000/00 RMK AO2 SLP204 T02000194
14837KMSN MSN20020909035509609/09/02 03:55:31  5-MIN KMSN 090955Z 00000KT 4SM BR CLR 20/20 A3015 650 100 1400 000/00 RMK AO2
14837KMSN MSN20020909040009609/09/02 04:00:31  5-MIN KMSN 091000Z 00000KT 4SM BR CLR 19/19 A3015 650 100 1400 000/00 RMK AO2
14837KMSN MSN20020909040509609/09/02 04:05:31  5-MIN KMSN 091005Z 00000KT 4SM BR CLR 19/19 A3015 650 100 1400 000/00 RMK AO2
14837KMSN MSN20020909041009509/09/02 04:10:31  5-MIN KMSN 091010Z VRB03KT 4SM BR CLR 19/18 A3015 650 97 1300 VRB/03 RMK AO2
14837KMSN MSN20020909041509509/09/02 04:15:31  5-MIN KMSN 091015Z 00000KT 4SM BR CLR 20/19 A3015 650 93 1400 000/00 RMK AO2
14837KMSN MSN20020909042009509/09/02 04:20:31  5-MIN KMSN 091020Z 00000KT 4SM BR CLR 19/18 A3015 650 93 1400 000/00 RMK AO2
14837KMSN MSN20020909042509509/09/02 04:25:31  5-MIN KMSN 091025Z 19004KT 4SM BR CLR 19/19 A3015 650 97 1400 190/04 RMK AO2
14837KMSN MSN20020909043009509/09/02 04:30:31  5-MIN KMSN 091030Z 19004KT 4SM BR CLR 21/19 A3015 650 90 1600 190/04 RMK AO2
14837KMSN MSN20020909043509209/09/02 04:35:31  5-MIN KMSN 091035Z 19004KT 7SM CLR 23/20 A3015 650 84 1700 190/04 RMK AO2
14837KMSN MSN20020909044009209/09/02 04:40:31  5-MIN KMSN 091040Z 21003KT 8SM CLR 22/20 A3015 650 87 1700 210/03 RMK AO2
14837KMSN MSN20020909044509209/09/02 04:45:31  5-MIN KMSN 091045Z 22004KT 8SM CLR 22/20 A3015 650 87 1700 220/04 RMK AO2
14837KMSN MSN20020909045010909/09/02 04:50:31  5-MIN KMSN 091050Z 22005KT 8SM CLR 22/20 A3015 650 87 1700 220/05 RMK AO2 SLP205 T02220200
14837KMSN MSN20020909045509209/09/02 04:55:31  5-MIN KMSN 091055Z 22006KT 8SM CLR 23/20 A3015 650 84 1700 220/06 RMK AO2
14837KMSN MSN20020909050009209/09/02 05:00:31  5-MIN KMSN 091100Z 22006KT 8SM CLR 23/20 A3015 650 81 1800 220/06 RMK AO2
14837KMSN MSN20020909050509209/09/02 05:05:31  5-MIN KMSN 091105Z 22005KT 8SM CLR 23/20 A3015 650 81 1800 220/05 RMK AO2
14837KMSN MSN20020909051009209/09/02 05:10:31  5-MIN KMSN 091110Z 22004KT 8SM CLR 23/20 A3015 650 84 1700 220/04 RMK AO2
14837KMSN MSN20020909051509209/09/02 05:15:31  5-MIN KMSN 091115Z 22005KT 8SM CLR 23/20 A3015 650 84 1700 220/05 RMK AO2
14837KMSN MSN20020909052009209/09/02 05:20:31  5-MIN KMSN 091120Z 23003KT 8SM CLR 22/20 A3016 650 90 1600 220/03 RMK AO2
14837KMSN MSN20020909052509209/09/02 05:25:31  5-MIN KMSN 091125Z 00000KT 7SM CLR 22/20 A3016 640 90 1600 000/00 RMK AO2
14837KMSN MSN20020909053009209/09/02 05:30:31  5-MIN KMSN 091130Z 23003KT 7SM CLR 22/20 A3016 640 90 1600 230/03 RMK AO2
14837KMSN MSN20020909053509209/09/02 05:35:31  5-MIN KMSN 091135Z 23003KT 7SM CLR 22/20 A3016 650 90 1600 230/03 RMK AO2
14837KMSN MSN20020909054009509/09/02 05:40:31  5-MIN KMSN 091140Z 22005KT 6SM BR CLR 22/20 A3016 640 87 1700 220/05 RMK AO2
14837KMSN MSN20020909054509509/09/02 05:45:31  5-MIN KMSN 091145Z 21003KT 6SM HZ CLR 23/20 A3016 640 84 1700 210/03 RMK AO2
14837KMSN MSN20020909055013009/09/02 05:50:31  5-MIN KMSN 091150Z 21004KT 6SM BR CLR 22/20 A3016 640 87 1700 210/04 RMK AO2 SLP208 T02220200 10233 20189 56003
14837KMSN MSN20020909055509509/09/02 05:55:31  5-MIN KMSN 091155Z 22004KT 6SM HZ CLR 23/20 A3016 640 84 1700 220/04 RMK AO2
14837KMSN MSN20020909060009509/09/02 06:00:31  5-MIN KMSN 091200Z 23003KT 6SM HZ CLR 23/20 A3016 640 84 1700 220/03 RMK AO2
14837KMSN MSN20020909060509509/09/02 06:05:31  5-MIN KMSN 091205Z 22005KT 6SM HZ CLR 23/20 A3016 640 81 1800 210/05 RMK AO2
14837KMSN MSN20020909061009509/09/02 06:10:31  5-MIN KMSN 091210Z 21005KT 6SM HZ CLR 23/20 A3016 650 81 1800 210/05 RMK AO2
14837KMSN MSN20020909061509209/09/02 06:15:31  5-MIN KMSN 091215Z 23006KT 7SM CLR 23/20 A3016 650 81 1800 230/06 RMK AO2
14837KMSN MSN20020909062009509/09/02 06:20:31  5-MIN KMSN 091220Z VRB04KT 6SM HZ CLR 23/20 A3016 650 81 1800 VRB/04 RMK AO2
14837KMSN MSN20020909062509209/09/02 06:25:31  5-MIN KMSN 091225Z 22004KT 7SM CLR 23/20 A3016 650 81 1800 220/04 RMK AO2
14837KMSN MSN20020909063009509/09/02 06:30:31  5-MIN KMSN 091230Z 23004KT 6SM HZ CLR 23/20 A3016 650 81 1800 220/04 RMK AO2
14837KMSN MSN20020909063509509/09/02 06:35:31  5-MIN KMSN 091235Z 23003KT 6SM HZ CLR 23/21 A3016 650 84 1800 230/03 RMK AO2
14837KMSN MSN20020909064009509/09/02 06:40:31  5-MIN KMSN 091240Z 00000KT 6SM HZ CLR 24/21 A3016 650 81 1900 000/00 RMK AO2
14837KMSN MSN20020909064509509/09/02 06:45:31  5-MIN KMSN 091245Z 00000KT 6SM HZ CLR 24/21 A3016 640 81 1900 000/00 RMK AO2
14837KMSN MSN20020909065010909/09/02 06:50:31  5-MIN KMSN 091250Z 23003KT 7SM CLR 24/21 A3016 640 81 1900 230/03 RMK AO2 SLP208 T02390206
14837KMSN MSN20020909065509209/09/02 06:55:31  5-MIN KMSN 091255Z VRB03KT 7SM CLR 24/21 A3016 640 81 1900 VRB/03 RMK AO2
14837KMSN MSN20020909070009209/09/02 07:00:31  5-MIN KMSN 091300Z 22004KT 7SM CLR 24/21 A3016 640 81 1900 220/04 RMK AO2
14837KMSN MSN20020909070509209/09/02 07:05:31  5-MIN KMSN 091305Z 22005KT 7SM CLR 24/21 A3016 640 81 1900 220/05 RMK AO2
14837KMSN MSN20020909071009209/09/02 07:10:31  5-MIN KMSN 091310Z VRB04KT 7SM CLR 24/21 A3016 640 78 1900 VRB/04 RMK AO2
14837KMSN MSN20020909071509209/09/02 07:15:31  5-MIN KMSN 091315Z 24005KT 7SM CLR 24/21 A3016 640 78 1900 240/05 RMK AO2
14837KMSN MSN20020909072009209/09/02 07:20:31  5-MIN KMSN 091320Z VRB03KT 7SM CLR 24/21 A3016 640 78 1900 VRB/03 RMK AO2
14837KMSN MSN20020909072509209/09/02 07:25:31  5-MIN KMSN 091325Z 00000KT 7SM CLR 24/21 A3016 640 78 1900 000/00 RMK AO2
14837KMSN MSN20020909073009209/09/02 07:30:31  5-MIN KMSN 091330Z 22003KT 7SM CLR 25/21 A3016 640 76 2000 220/03 RMK AO2
14837KMSN MSN20020909073509209/09/02 07:35:31  5-MIN KMSN 091335Z 00000KT 7SM CLR 25/21 A3016 640 76 2000 000/00 RMK AO2
14837KMSN MSN20020909074009209/09/02 07:40:31  5-MIN KMSN 091340Z VRB04KT 7SM CLR 26/21 A3016 640 73 2100 VRB/04 RMK AO2
14837KMSN MSN20020909074509209/09/02 07:45:31  5-MIN KMSN 091345Z 00000KT 7SM CLR 26/21 A3016 650 73 2100 000/00 RMK AO2
14837KMSN MSN20020909075010909/09/02 07:50:31  5-MIN KMSN 091350Z 17005KT 8SM CLR 26/21 A3016 650 73 2100 170/05 RMK AO2 SLP207 T02560206
14837KMSN MSN20020909075509209/09/02 07:55:31  5-MIN KMSN 091355Z 18006KT 8SM CLR 26/21 A3016 650 73 2100 180/06 RMK AO2
14837KMSN MSN20020909080009209/09/02 08:00:31  5-MIN KMSN 091400Z VRB04KT 8SM CLR 26/21 A3016 650 73 2100 VRB/04 RMK AO2
14837KMSN MSN20020909080509209/09/02 08:05:31  5-MIN KMSN 091405Z VRB04KT 8SM CLR 26/21 A3016 650 71 2100 VRB/04 RMK AO2
14837KMSN MSN20020909081009209/09/02 08:10:31  5-MIN KMSN 091410Z VRB04KT 8SM CLR 26/21 A3016 650 71 2100 VRB/04 RMK AO2
14837KMSN MSN20020909081509209/09/02 08:15:31  5-MIN KMSN 091415Z 20004KT 8SM CLR 26/21 A3016 650 71 2100 200/04 RMK AO2
14837KMSN MSN20020909082009309/09/02 08:20:31  5-MIN KMSN 091420Z VRB03KT 10SM CLR 26/21 A3016 650 71 2100 VRB/03 RMK AO2
14837KMSN MSN20020909082509309/09/02 08:25:31  5-MIN KMSN 091425Z VRB04KT 10SM CLR 26/21 A3016 650 71 2100 VRB/04 RMK AO2
14837KMSN MSN20020909083009309/09/02 08:30:31  5-MIN KMSN 091430Z 23006KT 10SM CLR 26/21 A3016 650 71 2100 230/06 RMK AO2
14837KMSN MSN20020909083509309/09/02 08:35:31  5-MIN KMSN 091435Z VRB05KT 10SM CLR 26/21 A3016 650 71 2100 VRB/05 RMK AO2
14837KMSN MSN20020909084009309/09/02 08:40:31  5-MIN KMSN 091440Z 21006KT 10SM CLR 26/21 A3016 650 71 2100 210/06 RMK AO2
14837KMSN MSN20020909084509309/09/02 08:45:31  5-MIN KMSN 091445Z 23004KT 10SM CLR 26/20 A3016 650 68 2100 230/04 RMK AO2
14837KMSN MSN20020909085011609/09/02 08:50:31  5-MIN KMSN 091450Z 21004KT 10SM CLR 27/21 A3016 650 69 2200 210/04 RMK AO2 SLP207 T02670206 53002
14837KMSN MSN20020909085509309/09/02 08:55:31  5-MIN KMSN 091455Z 22005KT 10SM CLR 27/21 A3016 650 69 2200 220/05 RMK AO2
14837KMSN MSN20020909090009309/09/02 09:00:31  5-MIN KMSN 091500Z VRB04KT 10SM CLR 27/20 A3016 650 66 2200 VRB/04 RMK AO2
14837KMSN MSN20020909090509309/09/02 09:05:31  5-MIN KMSN 091505Z 23003KT 10SM CLR 27/21 A3016 650 69 2200 230/03 RMK AO2
14837KMSN MSN20020909091009309/09/02 09:10:31  5-MIN KMSN 091510Z VRB04KT 10SM CLR 27/21 A3015 650 66 2200 VRB/04 RMK AO2
14837KMSN MSN20020909091509309/09/02 09:15:31  5-MIN KMSN 091515Z VRB03KT 10SM CLR 27/21 A3015 650 69 2200 VRB/03 RMK AO2
14837KMSN MSN20020909092009309/09/02 09:20:31  5-MIN KMSN 091520Z 20005KT 10SM CLR 27/21 A3015 650 66 2200 200/05 RMK AO2
14837KMSN MSN20020909092509309/09/02 09:25:31  5-MIN KMSN 091525Z VRB05KT 10SM CLR 27/21 A3015 650 66 2200 VRB/05 RMK AO2
14837KMSN MSN20020909093009309/09/02 09:30:31  5-MIN KMSN 091530Z 20005KT 10SM CLR 28/21 A3015 650 64 2300 200/05 RMK AO2
14837KMSN MSN20020909093509309/09/02 09:35:31  5-MIN KMSN 091535Z 22005KT 10SM CLR 28/21 A3015 650 64 2300 220/05 RMK AO2
14837KMSN MSN20020909094009309/09/02 09:40:31  5-MIN KMSN 091540Z VRB04KT 10SM CLR 28/21 A3015 650 64 2300 VRB/04 RMK AO2
14837KMSN MSN20020909094509309/09/02 09:45:31  5-MIN KMSN 091545Z VRB03KT 10SM CLR 28/21 A3015 660 64 2300 VRB/03 RMK AO2
14837KMSN MSN20020909095011009/09/02 09:50:31  5-MIN KMSN 091550Z 21005KT 10SM CLR 28/21 A3015 650 62 2400 210/05 RMK AO2 SLP203 T02830206
14837KMSN MSN20020909095509309/09/02 09:55:31  5-MIN KMSN 091555Z 22005KT 10SM CLR 28/20 A3015 650 60 2400 220/05 RMK AO2
14837KMSN MSN20020909100009309/09/02 10:00:31  5-MIN KMSN 091600Z 21005KT 10SM CLR 28/21 A3015 660 62 2400 210/05 RMK AO2
14837KMSN MSN20020909100509309/09/02 10:05:31  5-MIN KMSN 091605Z 22006KT 10SM CLR 29/20 A3015 660 58 2400 220/06 RMK AO2
14837KMSN MSN20020909101009309/09/02 10:10:31  5-MIN KMSN 091610Z 23004KT 10SM CLR 28/20 A3014 660 60 2400 230/04 RMK AO2
14837KMSN MSN20020909101509309/09/02 10:15:31  5-MIN KMSN 091615Z VRB03KT 10SM CLR 29/21 A3014 660 60 2400 VRB/03 RMK AO2
14837KMSN MSN20020909102009309/09/02 10:20:31  5-MIN KMSN 091620Z 23004KT 10SM CLR 29/21 A3014 660 58 2500 230/04 RMK AO2
14837KMSN MSN20020909102509309/09/02 10:25:31  5-MIN KMSN 091625Z 23005KT 10SM CLR 29/20 A3014 660 58 2400 230/05 RMK AO2
14837KMSN MSN20020909103009309/09/02 10:30:31  5-MIN KMSN 091630Z 21006KT 10SM CLR 29/20 A3014 660 56 2500 210/06 RMK AO2
14837KMSN MSN20020909103509309/09/02 10:35:31  5-MIN KMSN 091635Z 23006KT 10SM CLR 29/21 A3014 660 58 2500 230/06 RMK AO2
14837KMSN MSN20020909104009309/09/02 10:40:31  5-MIN KMSN 091640Z 25006KT 10SM CLR 29/20 A3014 660 56 2500 250/06 RMK AO2
14837KMSN MSN20020909104509309/09/02 10:45:31  5-MIN KMSN 091645Z 22007KT 10SM CLR 29/20 A3014 670 56 2500 210/07 RMK AO2
14837KMSN MSN20020909105011009/09/02 10:50:31  5-MIN KMSN 091650Z VRB05KT 10SM CLR 29/20 A3014 670 56 2500 VRB/05 RMK AO2 SLP199 T02940200
14837KMSN MSN20020909105509309/09/02 10:55:31  5-MIN KMSN 091655Z 22006KT 10SM CLR 30/20 A3014 670 54 2600 220/06 RMK AO2
14837KMSN MSN20020909110009309/09/02 11:00:31  5-MIN KMSN 091700Z 23006KT 10SM CLR 30/19 A3013 670 52 2600 220/06 RMK AO2
14837KMSN MSN20020909110509309/09/02 11:05:31  5-MIN KMSN 091705Z VRB05KT 10SM CLR 30/19 A3013 670 52 2600 VRB/05 RMK AO2
14837KMSN MSN20020909111009609/09/02 11:10:31  5-MIN KMSN 091710Z 22006KT 10SM FEW040 30/20 A3013 670 54 2600 210/06 RMK AO2
14837KMSN MSN20020909111509609/09/02 11:15:31  5-MIN KMSN 091715Z VRB06KT 10SM FEW040 30/19 A3013 670 52 2600 VRB/06 RMK AO2
14837KMSN MSN20020909112009609/09/02 11:20:31  5-MIN KMSN 091720Z VRB05KT 10SM FEW040 31/20 A3013 670 52 2600 VRB/05 RMK AO2
14837KMSN MSN20020909112509609/09/02 11:25:31  5-MIN KMSN 091725Z VRB05KT 10SM FEW040 31/19 A3013 670 51 2600 VRB/05 RMK AO2
14837KMSN MSN20020909113009609/09/02 11:30:31  5-MIN KMSN 091730Z VRB06KT 10SM FEW040 31/20 A3013 670 52 2600 VRB/06 RMK AO2
14837KMSN MSN20020909113511209/09/02 11:35:31  5-MIN KMSN 091735Z 24007KT 190V260 10SM FEW040 31/19 A3013 670 51 2600 240/07 190V260 RMK AO2
14837KMSN MSN20020909114009609/09/02 11:40:31  5-MIN KMSN 091740Z 23007KT 10SM FEW040 31/19 A3013 670 51 2600 230/07 RMK AO2
14837KMSN MSN20020909114509609/09/02 11:45:31  5-MIN KMSN 091745Z VRB05KT 10SM FEW040 31/19 A3012 680 49 2600 VRB/05 RMK AO2
14837KMSN MSN20020909115013109/09/02 11:50:31  5-MIN KMSN 091750Z VRB06KT 10SM FEW040 31/19 A3012 680 49 2700 VRB/06 RMK AO2 SLP195 T03110194 10311 20222 58002
14837KMSN MSN20020909115509609/09/02 11:55:31  5-MIN KMSN 091755Z 22006KT 10SM FEW045 31/19 A3012 680 49 2600 220/06 RMK AO2
14837KMSN MSN20020909120009609/09/02 12:00:31  5-MIN KMSN 091800Z 19006KT 10SM FEW045 31/19 A3012 680 49 2700 190/06 RMK AO2
14837KMSN MSN20020909120509609/09/02 12:05:31  5-MIN KMSN 091805Z 23006KT 10SM FEW045 31/19 A3012 680 49 2700 230/06 RMK AO2
14837KMSN MSN20020909121009609/09/02 12:10:31  5-MIN KMSN 091810Z 26006KT 10SM FEW045 31/19 A3012 680 49 2700 260/06 RMK AO2
14837KMSN MSN20020909121509609/09/02 12:15:31  5-MIN KMSN 091815Z 26006KT 10SM FEW045 31/19 A3012 680 49 2700 260/06 RMK AO2
14837KMSN MSN20020909122009609/09/02 12:20:31  5-MIN KMSN 091820Z 24006KT 10SM SCT045 31/19 A3012 680 49 2700 240/06 RMK AO2
14837KMSN MSN20020909122509609/09/02 12:25:31  5-MIN KMSN 091825Z 22006KT 10SM SCT045 31/19 A3012 680 51 2700 220/06 RMK AO2
14837KMSN MSN20020909123009609/09/02 12:30:31  5-MIN KMSN 091830Z 23006KT 10SM SCT045 31/19 A3012 680 51 2700 230/06 RMK AO2
14837KMSN MSN20020909123511209/09/02 12:35:31  5-MIN KMSN 091835Z 27008KT 230V300 10SM SCT045 31/19 A3012 680 49 2700 260/08 230V300 RMK AO2
14837KMSN MSN20020909124009609/09/02 12:40:31  5-MIN KMSN 091840Z VRB06KT 10SM SCT055 31/19 A3011 690 49 2700 VRB/06 RMK AO2
14837KMSN MSN20020909124509609/09/02 12:45:31  5-MIN KMSN 091845Z 22007KT 10SM SCT055 31/19 A3011 690 49 2700 220/07 RMK AO2
14837KMSN MSN20020909125011309/09/02 12:50:31  5-MIN KMSN 091850Z 24008KT 10SM SCT055 31/19 A3011 690 49 2700 240/08 RMK AO2 SLP191 T03060189
14837KMSN MSN20020909125509609/09/02 12:55:31  5-MIN KMSN 091855Z 22005KT 10SM FEW055 31/19 A3011 690 49 2700 220/05 RMK AO2
14837KMSN MSN20020909130009609/09/02 13:00:31  5-MIN KMSN 091900Z 22008KT 10SM SCT055 31/19 A3011 690 47 2700 220/08 RMK AO2
14837KMSN MSN20020909130509609/09/02 13:05:31  5-MIN KMSN 091905Z VRB05KT 10SM SCT055 31/19 A3011 690 49 2700 VRB/05 RMK AO2
14837KMSN MSN20020909131009609/09/02 13:10:31  5-MIN KMSN 091910Z 23006KT 10SM SCT055 31/19 A3010 700 49 2700 230/06 RMK AO2
14837KMSN MSN20020909131511209/09/02 13:15:31  5-MIN KMSN 091915Z 25007KT 200V280 10SM SCT055 31/19 A3010 700 47 2700 250/07 200V280 RMK AO2
14837KMSN MSN20020909132009609/09/02 13:20:31  5-MIN KMSN 091920Z 24007KT 10SM SCT055 32/19 A3010 700 46 2800 240/07 RMK AO2
14837KMSN MSN20020909132509609/09/02 13:25:31  5-MIN KMSN 091925Z 25009KT 10SM SCT055 31/18 A3010 700 46 2700 250/09 RMK AO2
14837KMSN MSN20020909133009609/09/02 13:30:31  5-MIN KMSN 091930Z 23008KT 10SM SCT055 31/18 A3009 700 46 2700 230/08 RMK AO2
14837KMSN MSN20020909133509609/09/02 13:35:31  5-MIN KMSN 091935Z VRB06KT 10SM SCT055 31/18 A3009 710 46 2700 VRB/06 RMK AO2
14837KMSN MSN20020909134009609/09/02 13:40:31  5-MIN KMSN 091940Z 23007KT 10SM SCT055 32/18 A3009 710 44 2800 220/07 RMK AO2
14837KMSN MSN20020909134509609/09/02 13:45:31  5-MIN KMSN 091945Z 21008KT 10SM SCT055 31/18 A3009 710 46 2800 210/08 RMK AO2
14837KMSN MSN20020909135011309/09/02 13:50:31  5-MIN KMSN 091950Z 20007KT 10SM SCT055 32/18 A3008 710 43 2800 200/07 RMK AO2 SLP180 T03170178
14837KMSN MSN20020909135509309/09/02 13:55:31  5-MIN KMSN 091955Z 21007KT 10SM CLR 32/18 A3008 710 44 2800 210/07 RMK AO2
14837KMSN MSN20020909140009609/09/02 14:00:31  5-MIN KMSN 092000Z 22007KT 10SM FEW055 32/18 A3008 720 43 2800 220/07 RMK AO2
14837KMSN MSN20020909140509609/09/02 14:05:31  5-MIN KMSN 092005Z 23007KT 10SM FEW055 31/18 A3008 720 44 2800 230/07 RMK AO2
14837KMSN MSN20020909141009609/09/02 14:10:31  5-MIN KMSN 092010Z 23007KT 10SM FEW055 31/18 A3008 720 46 2800 230/07 RMK AO2
14837KMSN MSN20020909141509609/09/02 14:15:31  5-MIN KMSN 092015Z 23007KT 10SM FEW055 32/18 A3008 720 44 2800 230/07 RMK AO2
14837KMSN MSN20020909142009609/09/02 14:20:31  5-MIN KMSN 092020Z VRB05KT 10SM FEW055 32/18 A3008 720 44 2800 VRB/05 RMK AO2
14837KMSN MSN20020909142509609/09/02 14:25:31  5-MIN KMSN 092025Z VRB06KT 10SM FEW055 32/18 A3008 720 44 2800 VRB/06 RMK AO2
14837KMSN MSN20020909143009609/09/02 14:30:31  5-MIN KMSN 092030Z VRB06KT 10SM FEW055 31/18 A3008 720 46 2800 VRB/06 RMK AO2
14837KMSN MSN20020909143509609/09/02 14:35:31  5-MIN KMSN 092035Z 22007KT 10SM FEW055 31/18 A3008 720 46 2800 220/07 RMK AO2
14837KMSN MSN20020909144009609/09/02 14:40:31  5-MIN KMSN 092040Z 23006KT 10SM FEW055 31/18 A3007 720 46 2800 230/06 RMK AO2
14837KMSN MSN20020909144509609/09/02 14:45:31  5-MIN KMSN 092045Z 22006KT 10SM FEW055 31/18 A3007 720 46 2800 220/06 RMK AO2
14837KMSN MSN20020909145011909/09/02 14:50:31  5-MIN KMSN 092050Z VRB06KT 10SM FEW055 31/18 A3007 720 46 2800 VRB/06 RMK AO2 SLP177 T03110183 58010
14837KMSN MSN20020909145511209/09/02 14:55:31  5-MIN KMSN 092055Z 22007KT 180V260 10SM FEW055 31/18 A3007 720 44 2800 220/07 180V260 RMK AO2
14837KMSN MSN20020909150009609/09/02 15:00:31  5-MIN KMSN 092100Z 22006KT 10SM FEW055 31/18 A3007 720 46 2800 220/06 RMK AO2
14837KMSN MSN20020909150509609/09/02 15:05:31  5-MIN KMSN 092105Z 22006KT 10SM FEW055 31/18 A3007 730 44 2800 220/06 RMK AO2
14837KMSN MSN20020909151009609/09/02 15:10:31  5-MIN KMSN 092110Z 22008KT 10SM FEW055 31/18 A3007 730 44 2800 220/08 RMK AO2
14837KMSN MSN20020909151509609/09/02 15:15:31  5-MIN KMSN 092115Z VRB04KT 10SM FEW055 31/18 A3007 730 44 2800 VRB/04 RMK AO2
14837KMSN MSN20020909152009609/09/02 15:20:31  5-MIN KMSN 092120Z 22007KT 10SM FEW055 31/18 A3007 730 44 2800 220/07 RMK AO2
14837KMSN MSN20020909152509609/09/02 15:25:31  5-MIN KMSN 092125Z 22005KT 10SM FEW055 31/18 A3006 730 44 2800 220/05 RMK AO2
14837KMSN MSN20020909153009609/09/02 15:30:31  5-MIN KMSN 092130Z 21008KT 10SM FEW055 31/17 A3006 730 42 2800 210/08 RMK AO2
14837KMSN MSN20020909153509609/09/02 15:35:31  5-MIN KMSN 092135Z 22006KT 10SM FEW055 31/18 A3006 740 46 2800 220/06 RMK AO2
14837KMSN MSN20020909154009609/09/02 15:40:31  5-MIN KMSN 092140Z 24007KT 10SM FEW055 31/18 A3006 740 44 2800 240/07 RMK AO2
14837KMSN MSN20020909154509609/09/02 15:45:31  5-MIN KMSN 092145Z 22006KT 10SM FEW055 31/18 A3006 740 44 2800 220/06 RMK AO2
14837KMSN MSN20020909155011309/09/02 15:50:31  5-MIN KMSN 092150Z VRB04KT 10SM FEW055 31/18 A3006 740 46 2800 VRB/04 RMK AO2 SLP173 T03110183
14837KMSN MSN20020909155509309/09/02 15:55:31  5-MIN KMSN 092155Z 24006KT 10SM CLR 31/19 A3006 740 49 2700 240/06 RMK AO2
14837KMSN MSN20020909160009309/09/02 16:00:31  5-MIN KMSN 092200Z VRB05KT 10SM CLR 31/19 A3006 740 49 2700 VRB/05 RMK AO2
14837KMSN MSN20020909160509309/09/02 16:05:31  5-MIN KMSN 092205Z 23005KT 10SM CLR 31/19 A3006 740 49 2700 230/05 RMK AO2
14837KMSN MSN20020909161009309/09/02 16:10:31  5-MIN KMSN 092210Z 23005KT 10SM CLR 31/19 A3006 740 49 2700 230/05 RMK AO2
14837KMSN MSN20020909161509309/09/02 16:15:31  5-MIN KMSN 092215Z VRB06KT 10SM CLR 31/19 A3006 740 49 2700 VRB/06 RMK AO2
14837KMSN MSN20020909162009309/09/02 16:20:31  5-MIN KMSN 092220Z 22006KT 10SM CLR 31/19 A3006 740 49 2700 220/06 RMK AO2
14837KMSN MSN20020909162509609/09/02 16:25:31  5-MIN KMSN 092225Z VRB05KT 10SM FEW055 31/19 A3006 740 49 2700 VRB/05 RMK AO2
14837KMSN MSN20020909163009609/09/02 16:30:31  5-MIN KMSN 092230Z 22006KT 10SM FEW055 30/19 A3006 740 51 2700 220/06 RMK AO2
14837KMSN MSN20020909163509609/09/02 16:35:31  5-MIN KMSN 092235Z 23004KT 10SM FEW055 30/19 A3006 740 52 2700 220/04 RMK AO2
14837KMSN MSN20020909164009609/09/02 16:40:31  5-MIN KMSN 092240Z 22007KT 10SM FEW055 30/19 A3006 740 52 2700 220/07 RMK AO2
14837KMSN MSN20020909164509609/09/02 16:45:31  5-MIN KMSN 092245Z 23005KT 10SM FEW055 30/19 A3006 740 52 2700 220/05 RMK AO2
14837KMSN MSN20020909165011309/09/02 16:50:31  5-MIN KMSN 092250Z 23006KT 10SM FEW055 30/19 A3006 740 52 2700 230/06 RMK AO2 SLP173 T03000194
14837KMSN MSN20020909165509609/09/02 16:55:31  5-MIN KMSN 092255Z 22005KT 10SM FEW055 30/19 A3006 740 52 2700 220/05 RMK AO2
14837KMSN MSN20020909170009609/09/02 17:00:31  5-MIN KMSN 092300Z 22006KT 10SM FEW055 29/19 A3006 740 54 2600 220/06 RMK AO2
14837KMSN MSN20020909170509609/09/02 17:05:31  5-MIN KMSN 092305Z 22006KT 10SM FEW055 29/20 A3006 740 56 2600 220/06 RMK AO2
14837KMSN MSN20020909171009609/09/02 17:10:31  5-MIN KMSN 092310Z 23006KT 10SM FEW055 29/20 A3006 730 56 2600 230/06 RMK AO2
14837KMSN MSN20020909171509609/09/02 17:15:31  5-MIN KMSN 092315Z 23005KT 10SM FEW055 29/20 A3006 730 56 2600 230/05 RMK AO2
14837KMSN MSN20020909172009609/09/02 17:20:31  5-MIN KMSN 092320Z 23005KT 10SM FEW055 29/20 A3006 740 56 2600 230/05 RMK AO2
14837KMSN MSN20020909172509609/09/02 17:25:31  5-MIN KMSN 092325Z 23004KT 10SM FEW055 29/20 A3006 740 56 2600 230/04 RMK AO2
14837KMSN MSN20020909173009609/09/02 17:30:31  5-MIN KMSN 092330Z 22004KT 10SM FEW055 29/20 A3006 740 58 2500 220/04 RMK AO2
14837KMSN MSN20020909173509309/09/02 17:35:31  5-MIN KMSN 092335Z 22004KT 10SM CLR 29/20 A3006 740 58 2500 220/04 RMK AO2
14837KMSN MSN20020909174009309/09/02 17:40:31  5-MIN KMSN 092340Z 22005KT 10SM CLR 29/20 A3006 740 58 2500 220/05 RMK AO2
14837KMSN MSN20020909174509309/09/02 17:45:31  5-MIN KMSN 092345Z 22005KT 10SM CLR 29/20 A3005 740 58 2500 220/05 RMK AO2
14837KMSN MSN20020909175012809/09/02 17:50:31  5-MIN KMSN 092350Z 22004KT 10SM CLR 29/20 A3005 740 58 2500 220/04 RMK AO2 SLP171 T02890200 10317 20283 56017
14837KMSN MSN20020909175509309/09/02 17:55:31  5-MIN KMSN 092355Z 21005KT 10SM CLR 28/20 A3005 740 60 2500 210/05 RMK AO2
14837KMSN MSN20020909180009309/09/02 18:00:31  5-MIN KMSN 100000Z 22004KT 10SM CLR 28/20 A3005 740 60 2500 210/04 RMK AO2
14837KMSN MSN20020909180509309/09/02 18:05:31  5-MIN KMSN 100005Z 22005KT 10SM CLR 28/19 A3005 750 58 2500 220/05 RMK AO2
14837KMSN MSN20020909181009309/09/02 18:10:31  5-MIN KMSN 100010Z 22005KT 10SM CLR 28/19 A3005 750 58 2500 220/05 RMK AO2
14837KMSN MSN20020909181509309/09/02 18:15:31  5-MIN KMSN 100015Z 22004KT 10SM CLR 28/19 A3005 750 58 2500 220/04 RMK AO2
14837KMSN MSN20020909182009309/09/02 18:20:31  5-MIN KMSN 100020Z 22004KT 10SM CLR 28/19 A3005 740 60 2400 220/04 RMK AO2
14837KMSN MSN20020909182509309/09/02 18:25:31  5-MIN KMSN 100025Z 22004KT 10SM CLR 28/20 A3005 740 62 2400 220/04 RMK AO2
14837KMSN MSN20020909183009309/09/02 18:30:31  5-MIN KMSN 100030Z 23004KT 10SM CLR 27/20 A3005 740 64 2400 230/04 RMK AO2
14837KMSN MSN20020909183509309/09/02 18:35:31  5-MIN KMSN 100035Z 23003KT 10SM CLR 27/20 A3005 740 66 2300 230/03 RMK AO2
14837KMSN MSN20020909184009309/09/02 18:40:31  5-MIN KMSN 100040Z 23003KT 10SM CLR 26/20 A3005 740 71 2200 230/03 RMK AO2
14837KMSN MSN20020909184509309/09/02 18:45:31  5-MIN KMSN 100045Z 24003KT 10SM CLR 26/20 A3005 740 68 2200 240/03 RMK AO2
14837KMSN MSN20020909185011009/09/02 18:50:31  5-MIN KMSN 100050Z 24004KT 10SM CLR 26/20 A3005 740 68 2200 240/04 RMK AO2 SLP171 T02610200
14837KMSN MSN20020909185509309/09/02 18:55:31  5-MIN KMSN 100055Z 23003KT 10SM CLR 26/20 A3005 740 68 2200 230/03 RMK AO2
14837KMSN MSN20020909190009309/09/02 19:00:31  5-MIN KMSN 100100Z 23004KT 10SM CLR 26/20 A3005 740 68 2200 230/04 RMK AO2
14837KMSN MSN20020909190509309/09/02 19:05:31  5-MIN KMSN 100105Z 23004KT 10SM CLR 26/20 A3005 740 71 2200 230/04 RMK AO2
14837KMSN MSN20020909191009309/09/02 19:10:31  5-MIN KMSN 100110Z 22004KT 10SM CLR 25/20 A3005 740 73 2100 220/04 RMK AO2
14837KMSN MSN20020909191509309/09/02 19:15:31  5-MIN KMSN 100115Z 22004KT 10SM CLR 26/21 A3005 740 73 2200 220/04 RMK AO2
14837KMSN MSN20020909192009309/09/02 19:20:31  5-MIN KMSN 100120Z 23003KT 10SM CLR 25/21 A3006 740 76 2100 230/03 RMK AO2
14837KMSN MSN20020909192509309/09/02 19:25:31  5-MIN KMSN 100125Z 22004KT 10SM CLR 25/21 A3005 740 76 2100 220/04 RMK AO2
14837KMSN MSN20020909193009309/09/02 19:30:31  5-MIN KMSN 100130Z 22004KT 10SM CLR 25/21 A3006 740 76 2100 220/04 RMK AO2
14837KMSN MSN20020909193509309/09/02 19:35:31  5-MIN KMSN 100135Z 22004KT 10SM CLR 25/21 A3006 740 76 2100 220/04 RMK AO2
14837KMSN MSN20020909194009309/09/02 19:40:31  5-MIN KMSN 100140Z 22005KT 10SM CLR 26/21 A3006 740 71 2200 220/05 RMK AO2
14837KMSN MSN20020909194509309/09/02 19:45:31  5-MIN KMSN 100145Z 22005KT 10SM CLR 26/21 A3006 740 73 2200 220/05 RMK AO2
14837KMSN MSN20020909195011009/09/02 19:50:31  5-MIN KMSN 100150Z 22005KT 10SM CLR 26/21 A3006 740 71 2200 220/05 RMK AO2 SLP172 T02610206
14837KMSN MSN20020909195509309/09/02 19:55:31  5-MIN KMSN 100155Z 22005KT 10SM CLR 26/21 A3006 740 71 2200 220/05 RMK AO2
14837KMSN MSN20020909200009309/09/02 20:00:31  5-MIN KMSN 100200Z 22005KT 10SM CLR 26/21 A3006 740 73 2200 220/05 RMK AO2
14837KMSN MSN20020909200509309/09/02 20:05:31  5-MIN KMSN 100205Z 22005KT 10SM CLR 26/21 A3005 740 71 2200 210/05 RMK AO2
14837KMSN MSN20020909201009309/09/02 20:10:31  5-MIN KMSN 100210Z 22005KT 10SM CLR 26/21 A3005 740 71 2200 220/05 RMK AO2
14837KMSN MSN20020909201509309/09/02 20:15:31  5-MIN KMSN 100215Z 22005KT 10SM CLR 26/21 A3005 740 73 2200 220/05 RMK AO2
14837KMSN MSN20020909202009209/09/02 20:20:31  5-MIN KMSN 100220Z 22005KT 9SM CLR 26/21 A3005 740 73 2200 210/05 RMK AO2
14837KMSN MSN20020909202509209/09/02 20:25:31  5-MIN KMSN 100225Z 22005KT 9SM CLR 26/21 A3005 740 73 2200 220/05 RMK AO2
14837KMSN MSN20020909203009209/09/02 20:30:31  5-MIN KMSN 100230Z 22006KT 9SM CLR 26/21 A3005 740 71 2200 220/06 RMK AO2
14837KMSN MSN20020909203509209/09/02 20:35:31  5-MIN KMSN 100235Z 22006KT 9SM CLR 26/21 A3005 740 73 2200 220/06 RMK AO2
14837KMSN MSN20020909204009209/09/02 20:40:31  5-MIN KMSN 100240Z 22005KT 9SM CLR 26/21 A3005 740 71 2200 220/05 RMK AO2
14837KMSN MSN20020909204509209/09/02 20:45:31  5-MIN KMSN 100245Z 21004KT 9SM CLR 26/21 A3005 740 73 2200 210/04 RMK AO2
14837KMSN MSN20020909205011509/09/02 20:50:31  5-MIN KMSN 100250Z 21004KT 9SM CLR 25/21 A3005 740 76 2100 210/04 RMK AO2 SLP170 T02500206 56006
14837KMSN MSN20020909205509209/09/02 20:55:31  5-MIN KMSN 100255Z 21004KT 9SM CLR 25/21 A3005 740 79 2100 210/04 RMK AO2
14837KMSN MSN20020909210009209/09/02 21:00:31  5-MIN KMSN 100300Z 22004KT 8SM CLR 24/21 A3005 740 81 2000 210/04 RMK AO2
14837KMSN MSN20020911202009509/11/02 20:20:31  5-MIN KMSN 120220Z 00000KT 10SM FEW070 14/12 A3011 690 86 800 000/00 RMK AO2
14837KMSN MSN20020911202509509/11/02 20:25:31  5-MIN KMSN 120225Z 00000KT 10SM FEW070 14/12 A3011 690 86 800 000/00 RMK AO2
14837KMSN MSN20020911203009509/11/02 20:30:31  5-MIN KMSN 120230Z 00000KT 10SM FEW070 14/12 A3010 690 90 800 000/00 RMK AO2
14837KMSN MSN20020911203509509/11/02 20:35:31  5-MIN KMSN 120235Z 00000KT 10SM FEW070 14/12 A3010 690 86 800 000/00 RMK AO2
14837KMSN MSN20020911204009509/11/02 20:40:31  5-MIN KMSN 120240Z 00000KT 10SM FEW070 13/12 A3010 690 89 700 000/00 RMK AO2
14837KMSN MSN20020911204509509/11/02 20:45:31  5-MIN KMSN 120245Z 00000KT 10SM FEW070 13/12 A3011 690 89 700 000/00 RMK AO2
14837KMSN MSN20020911205011809/11/02 20:50:31  5-MIN KMSN 120250Z 00000KT 10SM FEW070 13/12 A3011 690 89 700 000/00 RMK AO2 SLP194 T01330117 56006
14837KMSN MSN20020911205509509/11/02 20:55:31  5-MIN KMSN 120255Z 00000KT 10SM FEW070 13/12 A3011 690 89 700 000/00 RMK AO2
14837KMSN MSN20020911210009509/11/02 21:00:31  5-MIN KMSN 120300Z 00000KT 10SM FEW070 13/12 A3011 690 89 700 000/00 RMK AO2
14837KMSN MSN20020911210509509/11/02 21:05:31  5-MIN KMSN 120305Z 00000KT 10SM FEW070 13/12 A3011 690 89 700 000/00 RMK AO2
14837KMSN MSN20020911211009509/11/02 21:10:31  5-MIN KMSN 120310Z 00000KT 10SM FEW070 13/11 A3010 690 86 700 000/00 RMK AO2
14837KMSN MSN20020911211509509/11/02 21:15:31  5-MIN KMSN 120315Z 00000KT 10SM FEW070 13/11 A3010 700 86 700 000/00 RMK AO2
14837KMSN MSN20020911212009509/11/02 21:20:31  5-MIN KMSN 120320Z 00000KT 10SM FEW070 13/12 A3010 700 89 700 000/00 RMK AO2
14837KMSN MSN20020911212509509/11/02 21:25:31  5-MIN KMSN 120325Z 00000KT 10SM FEW070 13/12 A3010 700 89 700 000/00 RMK AO2
14837KMSN MSN20020911213009509/11/02 21:30:31  5-MIN KMSN 120330Z 00000KT 10SM FEW070 13/11 A3010 700 89 600 000/00 RMK AO2
14837KMSN MSN20020911213509509/11/02 21:35:31  5-MIN KMSN 120335Z 00000KT 10SM FEW070 13/11 A3010 700 89 600 000/00 RMK AO2
14837KMSN MSN20020911214009509/11/02 21:40:31  5-MIN KMSN 120340Z 00000KT 10SM FEW070 12/11 A3010 700 93 600 000/00 RMK AO2
14837KMSN MSN20020911214509509/11/02 21:45:31  5-MIN KMSN 120345Z 00000KT 10SM FEW070 12/11 A3010 700 93 600 000/00 RMK AO2
14837KMSN MSN20020911215011209/11/02 21:50:31  5-MIN KMSN 120350Z 00000KT 10SM FEW090 13/11 A3010 700 86 600 000/00 RMK AO2 SLP192 T01280106
14837KMSN MSN20020911215509509/11/02 21:55:31  5-MIN KMSN 120355Z 00000KT 10SM FEW090 12/11 A3010 700 89 600 000/00 RMK AO2
14837KMSN MSN20020911220009509/11/02 22:00:31  5-MIN KMSN 120400Z 00000KT 10SM FEW090 12/11 A3010 700 89 600 000/00 RMK AO2
14837KMSN MSN20020911220509509/11/02 22:05:31  5-MIN KMSN 120405Z 00000KT 10SM FEW090 12/11 A3010 700 89 600 000/00 RMK AO2
14837KMSN MSN20020911221009509/11/02 22:10:31  5-MIN KMSN 120410Z 00000KT 10SM FEW090 12/11 A3010 690 93 500 000/00 RMK AO2
14837KMSN MSN20020911221509509/11/02 22:15:31  5-MIN KMSN 120415Z 00000KT 10SM FEW090 12/11 A3010 690 93 600 000/00 RMK AO2
14837KMSN MSN20020911222009509/11/02 22:20:31  5-MIN KMSN 120420Z 00000KT 10SM FEW090 12/11 A3011 690 96 500 000/00 RMK AO2
14837KMSN MSN20020911222509509/11/02 22:25:31  5-MIN KMSN 120425Z 00000KT 10SM FEW090 12/11 A3011 690 93 600 000/00 RMK AO2
14837KMSN MSN20020911223009509/11/02 22:30:31  5-MIN KMSN 120430Z 00000KT 10SM FEW090 13/11 A3010 690 86 600 000/00 RMK AO2
14837KMSN MSN20020911223509509/11/02 22:35:31  5-MIN KMSN 120435Z 00000KT 10SM FEW090 12/11 A3010 690 93 500 000/00 RMK AO2
14837KMSN MSN20020911224009509/11/02 22:40:31  5-MIN KMSN 120440Z 00000KT 10SM FEW090 12/11 A3011 690 93 500 000/00 RMK AO2
14837KMSN MSN20020911224509509/11/02 22:45:31  5-MIN KMSN 120445Z 00000KT 10SM FEW090 12/11 A3011 690 93 500 000/00 RMK AO2
14837KMSN MSN20020911225011209/11/02 22:50:31  5-MIN KMSN 120450Z 00000KT 10SM FEW110 12/11 A3010 690 93 600 000/00 RMK AO2 SLP193 T01220111
14837KMSN MSN20020911225509509/11/02 22:55:31  5-MIN KMSN 120455Z 00000KT 10SM FEW110 12/11 A3010 690 93 500 000/00 RMK AO2
14837KMSN MSN20020911230009509/11/02 23:00:31  5-MIN KMSN 120500Z 00000KT 10SM FEW110 12/11 A3011 690 93 500 000/00 RMK AO2
14837KMSN MSN20020911230509509/11/02 23:05:31  5-MIN KMSN 120505Z 00000KT 10SM FEW110 11/11 A3011 690 96 400 000/00 RMK AO2
14837KMSN MSN20020911231009509/11/02 23:10:31  5-MIN KMSN 120510Z 00000KT 10SM FEW110 12/11 A3010 700 93 600 000/00 RMK AO2
14837KMSN MSN20020911231509509/11/02 23:15:31  5-MIN KMSN 120515Z 00000KT 10SM FEW110 12/11 A3010 700 93 500 000/00 RMK AO2
14837KMSN MSN20020911232009509/11/02 23:20:31  5-MIN KMSN 120520Z 00000KT 10SM FEW110 12/11 A3010 700 93 500 000/00 RMK AO2
14837KMSN MSN20020911232509509/11/02 23:25:31  5-MIN KMSN 120525Z 00000KT 10SM FEW110 12/11 A3010 700 93 600 000/00 RMK AO2
14837KMSN MSN20020911233009209/11/02 23:30:31  5-MIN KMSN 120530Z 00000KT 10SM CLR 12/11 A3010 700 93 500 000/00 RMK AO2
14837KMSN MSN20020911233509209/11/02 23:35:31  5-MIN KMSN 120535Z 00000KT 10SM CLR 11/11 A3010 700 96 400 000/00 RMK AO2
14837KMSN MSN20020911234009209/11/02 23:40:31  5-MIN KMSN 120540Z 00000KT 10SM CLR 11/11 A3010 700 96 400 000/00 RMK AO2
14837KMSN MSN20020911234509209/11/02 23:45:31  5-MIN KMSN 120545Z 00000KT 10SM CLR 11/11 A3010 700 96 400 000/00 RMK AO2
14837KMSN MSN20020911235013709/11/02 23:50:31  5-MIN KMSN 120550Z 00000KT 10SM CLR 11/11 A3010 700 96 400 000/00 RMK AO2 SLP192 T01110106 10172 20111 402440083 51007
14837KMSN MSN20020911235509209/11/02 23:55:31  5-MIN KMSN 120555Z 00000KT 10SM CLR 11/11 A3010 700 96 400 000/00 RMK AO2
14837KMSN MSN20020912000009209/12/02 00:00:31  5-MIN KMSN 120600Z 00000KT 10SM CLR 11/10 A3010 700 96 400 000/00 RMK AO2
14837KMSN MSN20020912000509209/12/02 00:05:31  5-MIN KMSN 120605Z 00000KT 10SM CLR 11/11 A3010 700 96 400 000/00 RMK AO2
14837KMSN MSN20020912001009209/12/02 00:10:31  5-MIN KMSN 120610Z 00000KT 10SM CLR 11/11 A3010 700 96 400 000/00 RMK AO2
14837KMSN MSN20020912001509209/12/02 00:15:31  5-MIN KMSN 120615Z 00000KT 10SM CLR 11/10 A3010 700 96 400 000/00 RMK AO2
14837KMSN MSN20020912002009209/12/02 00:20:31  5-MIN KMSN 120620Z 00000KT 10SM CLR 11/10 A3010 700 96 400 000/00 RMK AO2
14837KMSN MSN20020912002509209/12/02 00:25:31  5-MIN KMSN 120625Z 00000KT 10SM CLR 11/10 A3010 690 96 400 000/00 RMK AO2
14837KMSN MSN20020912003009209/12/02 00:30:31  5-MIN KMSN 120630Z 00000KT 10SM CLR 11/10 A3010 700 96 400 000/00 RMK AO2
14837KMSN MSN20020912003509209/12/02 00:35:31  5-MIN KMSN 120635Z 00000KT 10SM CLR 11/10 A3010 690 96 400 000/00 RMK AO2
14837KMSN MSN20020912004009209/12/02 00:40:31  5-MIN KMSN 120640Z 00000KT 10SM CLR 11/11 A3010 700 96 400 000/00 RMK AO2
14837KMSN MSN20020912004509109/12/02 00:45:31  5-MIN KMSN 120645Z 00000KT 9SM CLR 11/10 A3010 700 96 400 000/00 RMK AO2
14837KMSN MSN20020912005011009/12/02 00:50:31  5-MIN KMSN 120650Z 00000KT 10SM CLR 10/10 A3010 700 100 300 000/00 RMK AO2 SLP192 T01000100
14837KMSN MSN20020912005509109/12/02 00:55:31  5-MIN KMSN 120655Z 00000KT 9SM CLR 11/10 A3010 700 96 400 000/00 RMK AO2
14837KMSN MSN20020912010009209/12/02 01:00:31  5-MIN KMSN 120700Z 00000KT 10SM CLR 11/10 A3010 700 96 400 000/00 RMK AO2
14837KMSN MSN20020912010509209/12/02 01:05:31  5-MIN KMSN 120705Z 00000KT 9SM CLR 10/10 A3010 700 100 300 000/00 RMK AO2
14837KMSN MSN20020912011009109/12/02 01:10:31  5-MIN KMSN 120710Z 00000KT 9SM CLR 11/10 A3010 700 96 400 000/00 RMK AO2
14837KMSN MSN20020912011509109/12/02 01:15:31  5-MIN KMSN 120715Z 00000KT 9SM CLR 11/11 A3010 700 96 400 000/00 RMK AO2
14837KMSN MSN20020912012009109/12/02 01:20:31  5-MIN KMSN 120720Z 00000KT 9SM CLR 11/10 A3010 700 96 400 000/00 RMK AO2
14837KMSN MSN20020912012509209/12/02 01:25:31  5-MIN KMSN 120725Z 00000KT 8SM CLR 10/10 A3010 700 100 300 000/00 RMK AO2
14837KMSN MSN20020912013009109/12/02 01:30:31  5-MIN KMSN 120730Z 00000KT 9SM CLR 11/10 A3010 700 96 400 000/00 RMK AO2
14837KMSN MSN20020912013509109/12/02 01:35:31  5-MIN KMSN 120735Z 00000KT 9SM CLR 11/10 A3010 700 96 400 000/00 RMK AO2
14837KMSN MSN20020912014009209/12/02 01:40:31  5-MIN KMSN 120740Z 00000KT 9SM CLR 10/10 A3010 700 100 300 000/00 RMK AO2
14837KMSN MSN20020912014509209/12/02 01:45:31  5-MIN KMSN 120745Z 00000KT 7SM CLR 10/10 A3010 700 100 300 000/00 RMK AO2
14837KMSN MSN20020912015010909/12/02 01:50:31  5-MIN KMSN 120750Z 00000KT 7SM CLR 10/10 A3010 700 100 300 000/00 RMK AO2 SLP192 T01000100
14837KMSN MSN20020912015509509/12/02 01:55:31  5-MIN KMSN 120755Z 00000KT 6SM BR CLR 10/10 A3010 700 100 300 000/00 RMK AO2
14837KMSN MSN20020912020009109/12/02 02:00:31  5-MIN KMSN 120800Z 00000KT 7SM CLR 11/10 A3010 700 96 400 000/00 RMK AO2
14837KMSN MSN20020912020509209/12/02 02:05:31  5-MIN KMSN 120805Z 00000KT 7SM CLR 10/10 A3010 700 100 300 000/00 RMK AO2
14837KMSN MSN20020912021009509/12/02 02:10:31  5-MIN KMSN 120810Z 00000KT 6SM BR CLR 10/10 A3010 700 100 300 000/00 RMK AO2
14837KMSN MSN20020912021509509/12/02 02:15:31  5-MIN KMSN 120815Z 00000KT 6SM BR CLR 10/10 A3010 700 100 300 000/00 RMK AO2
14837KMSN MSN20020912022009409/12/02 02:20:31  5-MIN KMSN 120820Z 00000KT 6SM BR CLR 10/09 A3010 700 96 300 000/00 RMK AO2
14837KMSN MSN20020912022509409/12/02 02:25:31  5-MIN KMSN 120825Z 00000KT 5SM BR CLR 10/09 A3010 700 96 300 000/00 RMK AO2
14837KMSN MSN20020912023009409/12/02 02:30:31  5-MIN KMSN 120830Z 00000KT 5SM BR CLR 10/09 A3010 700 96 300 000/00 RMK AO2
14837KMSN MSN20020912023509509/12/02 02:35:31  5-MIN KMSN 120835Z 00000KT 5SM BR CLR 09/09 A3010 700 100 200 000/00 RMK AO2
14837KMSN MSN20020912024009409/12/02 02:40:31  5-MIN KMSN 120840Z 00000KT 5SM BR CLR 10/09 A3010 700 96 300 000/00 RMK AO2
14837KMSN MSN20020912024509509/12/02 02:45:31  5-MIN KMSN 120845Z 00000KT 3SM BR CLR 09/09 A3010 700 100 200 000/00 RMK AO2
14837KMSN MSN20020912025011709/12/02 02:50:31  5-MIN KMSN 120850Z 00000KT 4SM BR CLR 10/09 A3010 700 96 300 000/00 RMK AO2 SLP191 T01000094 56001
14837KMSN MSN20020912025509409/12/02 02:55:31  5-MIN KMSN 120855Z 00000KT 4SM BR CLR 10/09 A3010 700 96 300 000/00 RMK AO2
14837KMSN MSN20020912030009509/12/02 03:00:31  5-MIN KMSN 120900Z 00000KT 4SM BR CLR 09/09 A3010 700 100 200 000/00 RMK AO2
14837KMSN MSN20020912030509509/12/02 03:05:31  5-MIN KMSN 120905Z 00000KT 4SM BR CLR 09/09 A3010 700 100 200 000/00 RMK AO2
14837KMSN MSN20020912031009509/12/02 03:10:31  5-MIN KMSN 120910Z 00000KT 4SM BR CLR 09/09 A3010 700 100 200 000/00 RMK AO2
14837KMSN MSN20020912031509509/12/02 03:15:31  5-MIN KMSN 120915Z 00000KT 4SM BR CLR 09/09 A3010 700 100 200 000/00 RMK AO2
14837KMSN MSN20020912032009509/12/02 03:20:31  5-MIN KMSN 120920Z 00000KT 4SM BR CLR 09/09 A3010 700 100 200 000/00 RMK AO2
14837KMSN MSN20020912032509509/12/02 03:25:31  5-MIN KMSN 120925Z 00000KT 4SM BR CLR 09/09 A3010 700 100 200 000/00 RMK AO2
14837KMSN MSN20020912033009509/12/02 03:30:31  5-MIN KMSN 120930Z 00000KT 4SM BR CLR 10/10 A3010 700 100 300 000/00 RMK AO2
14837KMSN MSN20020912033509509/12/02 03:35:31  5-MIN KMSN 120935Z 00000KT 4SM BR CLR 09/09 A3010 700 100 200 000/00 RMK AO2
14837KMSN MSN20020912034009409/12/02 03:40:31  5-MIN KMSN 120940Z 00000KT 4SM BR CLR 09/09 A3010 700 96 200 000/00 RMK AO2
14837KMSN MSN20020912034509509/12/02 03:45:31  5-MIN KMSN 120945Z 00000KT 4SM BR CLR 09/09 A3010 700 100 200 000/00 RMK AO2
14837KMSN MSN20020912035011109/12/02 03:50:31  5-MIN KMSN 120950Z 00000KT 3SM BR CLR 09/09 A3010 700 96 200 000/00 RMK AO2 SLP191 T00940089
14837KMSN MSN20020912035509409/12/02 03:55:31  5-MIN KMSN 120955Z 00000KT 4SM BR CLR 10/09 A3010 700 96 300 000/00 RMK AO2
14837KMSN MSN20020912040009909/12/02 04:00:31  5-MIN KMSN 121000Z 00000KT 1 3/4SM BR CLR 09/09 A3010 700 100 200 000/00 RMK AO2
14837KMSN MSN20020912040509509/12/02 04:05:31  5-MIN KMSN 121005Z 00000KT 4SM BR CLR 09/09 A3010 700 100 200 000/00 RMK AO2
14837KMSN MSN20020912041009409/12/02 04:10:31  5-MIN KMSN 121010Z 00000KT 4SM BR CLR 09/09 A3010 700 96 200 000/00 RMK AO2
14837KMSN MSN20020912041509509/12/02 04:15:31  5-MIN KMSN 121015Z 00000KT 4SM BR CLR 09/09 A3010 700 100 200 000/00 RMK AO2
14837KMSN MSN20020912042009509/12/02 04:20:31  5-MIN KMSN 121020Z 00000KT 4SM BR CLR 09/09 A3010 700 100 200 000/00 RMK AO2
14837KMSN MSN20020912042509509/12/02 04:25:31  5-MIN KMSN 121025Z 00000KT 4SM BR CLR 09/09 A3010 700 100 200 000/00 RMK AO2
14837KMSN MSN20020912043009509/12/02 04:30:31  5-MIN KMSN 121030Z 00000KT 4SM BR CLR 09/09 A3010 700 100 200 000/00 RMK AO2
14837KMSN MSN20020912043509509/12/02 04:35:31  5-MIN KMSN 121035Z 00000KT 4SM BR CLR 09/09 A3011 690 100 200 000/00 RMK AO2
14837KMSN MSN20020912044009109/12/02 04:40:31  5-MIN KMSN 121040Z 00000KT 7SM CLR 09/08 A3011 690 96 200 000/00 RMK AO2
14837KMSN MSN20020912044509209/12/02 04:45:31  5-MIN KMSN 121045Z 00000KT 7SM CLR 09/09 A3011 690 100 200 000/00 RMK AO2
14837KMSN MSN20020912045011409/12/02 04:50:31  5-MIN KMSN 121050Z 00000KT 7SM MIFG CLR 09/09 A3011 690 100 200 000/00 RMK AO2 SLP197 T00890089
14837KMSN MSN20020912045509709/12/02 04:55:31  5-MIN KMSN 121055Z 00000KT 4SM MIFG CLR 09/09 A3011 690 100 200 000/00 RMK AO2
14837KMSN MSN20020912050009709/12/02 05:00:31  5-MIN KMSN 121100Z 00000KT 4SM MIFG CLR 09/09 A3011 690 100 200 000/00 RMK AO2
14837KMSN MSN20020912050509709/12/02 05:05:31  5-MIN KMSN 121105Z 00000KT 5SM MIFG CLR 09/09 A3011 690 100 200 000/00 RMK AO2
14837KMSN MSN20020912051009709/12/02 05:10:31  5-MIN KMSN 121110Z 00000KT 7SM MIFG CLR 09/09 A3011 690 100 200 000/00 RMK AO2
14837KMSN MSN20020912051509709/12/02 05:15:31  5-MIN KMSN 121115Z 00000KT 7SM MIFG CLR 09/09 A3011 690 100 200 000/00 RMK AO2
14837KMSN MSN20020912052009709/12/02 05:20:31  5-MIN KMSN 121120Z 00000KT 6SM MIFG CLR 09/09 A3011 680 100 200 000/00 RMK AO2
14837KMSN MSN20020912052509709/12/02 05:25:31  5-MIN KMSN 121125Z 00000KT 4SM MIFG CLR 09/09 A3012 680 100 200 000/00 RMK AO2
14837KMSN MSN20020912053009709/12/02 05:30:31  5-MIN KMSN 121130Z 00000KT 3SM MIFG CLR 08/08 A3012 680 100 100 000/00 RMK AO2
14837KMSN MSN20020912053509609/12/02 05:35:31  5-MIN KMSN 121135Z 00000KT 4SM MIFG CLR 09/08 A3012 680 96 200 000/00 RMK AO2
14837KMSN MSN20020912054009709/12/02 05:40:31  5-MIN KMSN 121140Z 00000KT 3SM MIFG CLR 08/08 A3012 680 100 100 000/00 RMK AO2
14837KMSN MSN20020912054509609/12/02 05:45:31  5-MIN KMSN 121145Z 00000KT 5SM MIFG CLR 09/08 A3012 680 96 200 000/00 RMK AO2
14837KMSN MSN20020912055013109/12/02 05:50:31  5-MIN KMSN 121150Z 00000KT 5SM MIFG CLR 09/08 A3012 680 96 200 000/00 RMK AO2 SLP200 T00890083 10111 20083 57001
14837KMSN MSN20020912055511209/12/02 05:55:31  5-MIN KMSN 121155Z 00000KT 2 1/2SM MIFG CLR 09/09 A3012 680 100 100 000/00 RMK AO2 TWR VIS 10
14837KMSN MSN20020912060009609/12/02 06:00:31  5-MIN KMSN 121200Z 00000KT 4SM MIFG CLR 09/08 A3012 680 96 100 000/00 RMK AO2
14837KMSN MSN20020912060509209/12/02 06:05:31  5-MIN KMSN 121205Z 00000KT 7SM CLR 09/09 A3012 680 100 100 000/00 RMK AO2
14837KMSN MSN20020912061009209/12/02 06:10:31  5-MIN KMSN 121210Z 01003KT 7SM CLR 09/09 A3012 680 100 100 010/03 RMK AO2
14837KMSN MSN20020912061509209/12/02 06:15:31  5-MIN KMSN 121215Z 00000KT 7SM CLR 09/09 A3012 680 100 100 000/00 RMK AO2
14837KMSN MSN20020912062009209/12/02 06:20:31  5-MIN KMSN 121220Z 00000KT 7SM CLR 09/09 A3013 680 100 200 000/00 RMK AO2
14837KMSN MSN20020912062509109/12/02 06:25:31  5-MIN KMSN 121225Z 00000KT 7SM CLR 10/09 A3013 680 96 300 000/00 RMK AO2
14837KMSN MSN20020912063009309/12/02 06:30:31  5-MIN KMSN 121230Z 00000KT 10SM CLR 10/10 A3013 670 100 300 000/00 RMK AO2
14837KMSN MSN20020912063509309/12/02 06:35:31  5-MIN KMSN 121235Z 00000KT 10SM CLR 11/11 A3013 670 100 300 000/00 RMK AO2
14837KMSN MSN20020912064009209/12/02 06:40:31  5-MIN KMSN 121240Z 00000KT 10SM CLR 11/11 A3013 670 96 400 000/00 RMK AO2
14837KMSN MSN20020912064509209/12/02 06:45:31  5-MIN KMSN 121245Z 00000KT 10SM CLR 12/11 A3013 670 96 500 000/00 RMK AO2
14837KMSN MSN20020912065010909/12/02 06:50:31  5-MIN KMSN 121250Z 00000KT 10SM CLR 12/11 A3013 670 93 500 000/00 RMK AO2 SLP203 T01220111
14837KMSN MSN20020912065509109/12/02 06:55:31  5-MIN KMSN 121255Z 00000KT 7SM CLR 13/11 A3013 670 89 600 000/00 RMK AO2
14837KMSN MSN20020912070009109/12/02 07:00:31  5-MIN KMSN 121300Z 00000KT 9SM CLR 13/11 A3013 670 89 600 000/00 RMK AO2
14837KMSN MSN20020912070509209/12/02 07:05:31  5-MIN KMSN 121305Z 00000KT 10SM CLR 13/12 A3013 670 89 700 000/00 RMK AO2
14837KMSN MSN20020912071009209/12/02 07:10:31  5-MIN KMSN 121310Z 00000KT 10SM CLR 14/12 A3013 670 86 700 000/00 RMK AO2
14837KMSN MSN20020912071509209/12/02 07:15:31  5-MIN KMSN 121315Z 00000KT 10SM CLR 14/12 A3013 670 83 800 000/00 RMK AO2
14837KMSN MSN20020912072009209/12/02 07:20:31  5-MIN KMSN 121320Z 00000KT 10SM CLR 14/12 A3013 670 86 800 000/00 RMK AO2
14837KMSN MSN20020912072509209/12/02 07:25:31  5-MIN KMSN 121325Z 00000KT 10SM CLR 15/13 A3012 680 86 900 000/00 RMK AO2
14837KMSN MSN20020912073009209/12/02 07:30:31  5-MIN KMSN 121330Z 00000KT 10SM CLR 16/12 A3012 680 80 900 000/00 RMK AO2
14837KMSN MSN20020912073509309/12/02 07:35:31  5-MIN KMSN 121335Z 00000KT 10SM CLR 16/12 A3012 680 77 1000 000/00 RMK AO2
14837KMSN MSN20020912074009309/12/02 07:40:31  5-MIN KMSN 121340Z 00000KT 10SM CLR 16/13 A3012 680 80 1000 000/00 RMK AO2
14837KMSN MSN20020912074509309/12/02 07:45:31  5-MIN KMSN 121345Z 00000KT 10SM CLR 17/13 A3012 680 77 1100 000/00 RMK AO2
14837KMSN MSN20020912075011009/12/02 07:50:31  5-MIN KMSN 121350Z 00000KT 10SM CLR 17/13 A3012 680 78 1100 000/00 RMK AO2 SLP200 T01720133
14837KMSN MSN20020912075509309/12/02 07:55:31  5-MIN KMSN 121355Z 00000KT 10SM CLR 18/13 A3012 680 75 1200 000/00 RMK AO2
14837KMSN MSN20020912080009309/12/02 08:00:31  5-MIN KMSN 121400Z 00000KT 10SM CLR 18/14 A3012 680 78 1200 000/00 RMK AO2
14837KMSN MSN20020912080509309/12/02 08:05:31  5-MIN KMSN 121405Z 00000KT 10SM CLR 18/13 A3012 680 72 1300 000/00 RMK AO2
14837KMSN MSN20020912081009309/12/02 08:10:31  5-MIN KMSN 121410Z 24003KT 10SM CLR 19/12 A3012 680 65 1300 240/03 RMK AO2
14837KMSN MSN20020912081509309/12/02 08:15:31  5-MIN KMSN 121415Z 24003KT 10SM CLR 19/11 A3012 680 60 1300 240/03 RMK AO2
14837KMSN MSN20020912082009309/12/02 08:20:31  5-MIN KMSN 121420Z 00000KT 10SM CLR 19/12 A3012 680 60 1400 000/00 RMK AO2
14837KMSN MSN20020912082509309/12/02 08:25:31  5-MIN KMSN 121425Z VRB04KT 10SM CLR 19/11 A3012 680 58 1400 VRB/04 RMK AO2
14837KMSN MSN20020912083009309/12/02 08:30:31  5-MIN KMSN 121430Z 24003KT 10SM CLR 19/11 A3012 680 58 1400 230/03 RMK AO2
14837KMSN MSN20020912083509309/12/02 08:35:31  5-MIN KMSN 121435Z 24005KT 10SM CLR 20/11 A3012 680 56 1500 240/05 RMK AO2
14837KMSN MSN20020912084009309/12/02 08:40:31  5-MIN KMSN 121440Z 23004KT 10SM CLR 20/11 A3012 680 56 1500 230/04 RMK AO2
14837KMSN MSN20020912084509309/12/02 08:45:31  5-MIN KMSN 121445Z 25004KT 10SM CLR 20/11 A3012 680 56 1500 250/04 RMK AO2
14837KMSN MSN20020912085011609/12/02 08:50:31  5-MIN KMSN 121450Z VRB03KT 10SM CLR 21/12 A3012 680 56 1500 VRB/03 RMK AO2 SLP198 T02060117 53007
14837KMSN MSN20020912085509309/12/02 08:55:31  5-MIN KMSN 121455Z VRB05KT 10SM CLR 21/12 A3012 680 56 1500 VRB/05 RMK AO2
14837KMSN MSN20020912090009309/12/02 09:00:31  5-MIN KMSN 121500Z 22006KT 10SM CLR 21/11 A3012 680 54 1500 220/06 RMK AO2
14837KMSN MSN20020912090509309/12/02 09:05:31  5-MIN KMSN 121505Z VRB05KT 10SM CLR 21/11 A3012 680 52 1600 VRB/05 RMK AO2
14837KMSN MSN20020912091009309/12/02 09:10:31  5-MIN KMSN 121510Z 22005KT 10SM CLR 21/11 A3012 680 52 1600 220/05 RMK AO2
14837KMSN MSN20020912091509909/12/02 09:15:31  5-MIN KMSN 121515Z 22006KT 10SM CLR 21/11 A3012 680 50 1600 220/06 RMK AO2 PNO $
14837KMSN MSN20020912092009909/12/02 09:20:31  5-MIN KMSN 121520Z 23006KT 10SM CLR 21/11 A3011 690 50 1600 230/06 RMK AO2 PNO $
14837KMSN MSN20020912092510209/12/02 09:25:31  5-MIN KMSN 121525Z 25005KT 10SM FEW045 22/11 A3011 690 49 1700 250/05 RMK AO2 PNO $
14837KMSN MSN20020912093010209/12/02 09:30:31  5-MIN KMSN 121530Z 22006KT 10SM FEW045 22/12 A3011 690 54 1700 220/06 RMK AO2 PNO $
14837KMSN MSN20020912093510209/12/02 09:35:31  5-MIN KMSN 121535Z 22006KT 10SM FEW045 22/12 A3011 690 54 1700 220/06 RMK AO2 PNO $
14837KMSN MSN20020912094010209/12/02 09:40:31  5-MIN KMSN 121540Z 24006KT 10SM FEW045 22/12 A3011 690 54 1700 240/06 RMK AO2 PNO $
14837KMSN MSN20020912094510209/12/02 09:45:31  5-MIN KMSN 121545Z 23006KT 10SM FEW045 22/11 A3011 690 49 1700 230/06 RMK AO2 PNO $
14837KMSN MSN20020912095011909/12/02 09:50:31  5-MIN KMSN 121550Z 25007KT 10SM FEW045 22/10 A3011 690 45 1700 250/07 RMK AO2 SLP195 T02220100 PNO $
14837KMSN MSN20020912095510209/12/02 09:55:31  5-MIN KMSN 121555Z 23006KT 10SM FEW045 22/10 A3011 690 45 1700 230/06 RMK AO2 PNO $
14837KMSN MSN20020912100010209/12/02 10:00:31  5-MIN KMSN 121600Z 23007KT 10SM FEW045 22/10 A3011 690 45 1700 230/07 RMK AO2 PNO $
14837KMSN MSN20020912100510209/12/02 10:05:31  5-MIN KMSN 121605Z 24006KT 10SM FEW045 22/10 A3011 690 47 1700 240/06 RMK AO2 PNO $
14837KMSN MSN20020912101010209/12/02 10:10:31  5-MIN KMSN 121610Z 22006KT 10SM FEW045 22/10 A3011 690 47 1700 220/06 RMK AO2 PNO $
14837KMSN MSN20020912101510209/12/02 10:15:31  5-MIN KMSN 121615Z VRB05KT 10SM FEW045 22/10 A3011 690 47 1700 VRB/05 RMK AO2 PNO $
14837KMSN MSN20020912102010209/12/02 10:20:31  5-MIN KMSN 121620Z 23007KT 10SM FEW045 22/09 A3011 690 43 1700 230/07 RMK AO2 PNO $
14837KMSN MSN20020912102510209/12/02 10:25:31  5-MIN KMSN 121625Z VRB04KT 10SM FEW045 22/10 A3010 700 45 1700 VRB/04 RMK AO2 PNO $
14837KMSN MSN20020912103010209/12/02 10:30:31  5-MIN KMSN 121630Z VRB04KT 10SM FEW045 22/10 A3010 700 45 1700 VRB/04 RMK AO2 PNO $
14837KMSN MSN20020912103510209/12/02 10:35:31  5-MIN KMSN 121635Z 26007KT 10SM SCT045 22/09 A3010 700 45 1700 250/07 RMK AO2 PNO $
14837KMSN MSN20020912104010209/12/02 10:40:31  5-MIN KMSN 121640Z VRB06KT 10SM SCT045 22/10 A3010 700 47 1700 VRB/06 RMK AO2 PNO $
14837KMSN MSN20020912104510209/12/02 10:45:31  5-MIN KMSN 121645Z VRB05KT 10SM SCT045 22/10 A3010 700 45 1700 VRB/05 RMK AO2 PNO $
14837KMSN MSN20020912105011909/12/02 10:50:31  5-MIN KMSN 121650Z 23005KT 10SM SCT060 22/09 A3009 700 45 1700 230/05 RMK AO2 SLP190 T02170094 PNO $
14837KMSN MSN20020912105510209/12/02 10:55:31  5-MIN KMSN 121655Z VRB04KT 10SM SCT060 22/10 A3009 710 45 1700 VRB/04 RMK AO2 PNO $
14837KMSN MSN20020912110010209/12/02 11:00:31  5-MIN KMSN 121700Z VRB06KT 10SM FEW060 22/09 A3009 710 43 1800 VRB/06 RMK AO2 PNO $
14837KMSN MSN20020912110510209/12/02 11:05:31  5-MIN KMSN 121705Z 23008KT 10SM FEW060 23/10 A3009 710 44 1800 230/08 RMK AO2 PNO $
14837KMSN MSN20020912111010209/12/02 11:10:31  5-MIN KMSN 121710Z 22009KT 10SM FEW060 23/09 A3009 710 42 1800 220/09 RMK AO2 PNO $
14837KMSN MSN20020912111511809/12/02 11:15:31  5-MIN KMSN 121715Z 22009KT 180V250 10SM FEW060 23/09 A3008 710 42 1800 220/09 180V250 RMK AO2 PNO $
14837KMSN MSN20020912112009909/12/02 11:20:31  5-MIN KMSN 121720Z 22009KT 10SM CLR 23/09 A3008 710 42 1800 210/09 RMK AO2 PNO $
14837KMSN MSN20020912112509909/12/02 11:25:31  5-MIN KMSN 121725Z 22007KT 10SM CLR 23/09 A3008 720 42 1800 220/07 RMK AO2 PNO $
14837KMSN MSN20020912113010209/12/02 11:30:31  5-MIN KMSN 121730Z 23009KT 10SM FEW060 23/10 A3008 720 42 1900 230/09 RMK AO2 PNO $
14837KMSN MSN20020912113511809/12/02 11:35:31  5-MIN KMSN 121735Z 23008KT 200V260 10SM FEW060 23/09 A3008 720 40 1800 230/08 200V260 RMK AO2 PNO $
14837KMSN MSN20020912114010209/12/02 11:40:31  5-MIN KMSN 121740Z 24008KT 10SM FEW060 23/09 A3008 720 41 1900 240/08 RMK AO2 PNO $
14837KMSN MSN20020912114511809/12/02 11:45:31  5-MIN KMSN 121745Z 24009KT 210V270 10SM FEW060 23/09 A3008 720 41 1900 240/09 210V270 RMK AO2 PNO $
14837KMSN MSN20020912115014309/12/02 11:50:31  5-MIN KMSN 121750Z 22008KT 10SM FEW060 23/09 A3008 720 41 1900 210/08 RMK AO2 SLP185 6//// T02330094 10233 20083 50000 PNO $
14837KMSN MSN20020912115509909/12/02 11:55:31  5-MIN KMSN 121755Z VRB06KT 10SM CLR 23/09 A3007 720 41 1900 VRB/06 RMK AO2 PNO $
14837KMSN MSN20020912120010209/12/02 12:00:31  5-MIN KMSN 121800Z 22008KT 10SM FEW060 23/09 A3007 720 39 1900 220/08 RMK AO2 PNO $
14837KMSN MSN20020912120510209/12/02 12:05:31  5-MIN KMSN 121805Z 23008KT 10SM FEW060 23/09 A3007 720 39 1900 230/08 RMK AO2 PNO $
14837KMSN MSN20020912121010209/12/02 12:10:31  5-MIN KMSN 121810Z 23008KT 10SM FEW060 23/09 A3007 720 41 1900 230/08 RMK AO2 PNO $
14837KMSN MSN20020912121511809/12/02 12:15:31  5-MIN KMSN 121815Z 23009KT 190V260 10SM FEW060 23/09 A3007 720 41 1900 220/09 190V260 RMK AO2 PNO $
14837KMSN MSN20020912122011809/12/02 12:20:31  5-MIN KMSN 121820Z 24007KT 210V280 10SM FEW060 23/09 A3007 730 41 1900 240/07 210V280 RMK AO2 PNO $
14837KMSN MSN20020912122511809/12/02 12:25:31  5-MIN KMSN 121825Z 23008KT 190V280 10SM FEW060 23/09 A3007 730 41 1900 230/08 190V280 RMK AO2 PNO $
14837KMSN MSN20020912123010209/12/02 12:30:31  5-MIN KMSN 121830Z VRB06KT 10SM FEW060 23/09 A3007 730 41 1900 VRB/06 RMK AO2 PNO $
14837KMSN MSN20020912123510209/12/02 12:35:31  5-MIN KMSN 121835Z 22009KT 10SM FEW060 23/09 A3007 730 41 1900 210/09 RMK AO2 PNO $
14837KMSN MSN20020912124010209/12/02 12:40:31  5-MIN KMSN 121840Z 23007KT 10SM FEW060 23/09 A3007 730 41 1900 230/07 RMK AO2 PNO $
14837KMSN MSN20020912124510209/12/02 12:45:31  5-MIN KMSN 121845Z VRB06KT 10SM FEW060 24/09 A3007 730 39 2000 VRB/06 RMK AO2 PNO $
14837KMSN MSN20020912125011909/12/02 12:50:31  5-MIN KMSN 121850Z 23007KT 10SM SCT060 24/10 A3007 730 41 2000 230/07 RMK AO2 SLP181 T02390100 PNO $
14837KMSN MSN20020912125510209/12/02 12:55:31  5-MIN KMSN 121855Z 23008KT 10SM FEW060 24/09 A3007 730 39 2000 230/08 RMK AO2 PNO $
14837KMSN MSN20020912130010209/12/02 13:00:31  5-MIN KMSN 121900Z VRB05KT 10SM FEW060 23/09 A3006 730 39 1900 VRB/05 RMK AO2 PNO $
14837KMSN MSN20020912130511809/12/02 13:05:31  5-MIN KMSN 121905Z 23008KT 200V260 10SM FEW060 24/09 A3006 730 39 2000 220/08 200V260 RMK AO2 PNO $
14837KMSN MSN20020912131011409/12/02 13:10:31  5-MIN KMSN 121910Z 23009KT 200V260 10SM FEW060 24/09 A3006 730 38 2000 230/09 200V260 RMK AO2 $
14837KMSN MSN20020912131511209/12/02 13:15:31  5-MIN KMSN 121915Z 22007KT 190V270 10SM FEW060 24/09 A3006 730 39 2000 220/07 190V270 RMK AO2
14837KMSN MSN20020912132009609/12/02 13:20:31  5-MIN KMSN 121920Z 23007KT 10SM FEW060 24/09 A3006 730 39 2000 230/07 RMK AO2
14837KMSN MSN20020912132509609/12/02 13:25:31  5-MIN KMSN 121925Z 22007KT 10SM FEW060 23/09 A3006 730 41 1900 220/07 RMK AO2
14837KMSN MSN20020912133009609/12/02 13:30:31  5-MIN KMSN 121930Z VRB05KT 10SM FEW060 24/09 A3006 740 39 2000 VRB/05 RMK AO2
14837KMSN MSN20020912133511209/12/02 13:35:31  5-MIN KMSN 121935Z 24007KT 210V290 10SM FEW060 24/10 A3006 740 41 2000 240/07 210V290 RMK AO2
14837KMSN MSN20020912134009609/12/02 13:40:31  5-MIN KMSN 121940Z 22009KT 10SM FEW060 23/09 A3006 740 41 1900 220/09 RMK AO2
14837KMSN MSN20020912134509609/12/02 13:45:31  5-MIN KMSN 121945Z 21007KT 10SM FEW060 24/09 A3006 740 39 2000 210/07 RMK AO2
14837KMSN MSN20020912135011309/12/02 13:50:31  5-MIN KMSN 121950Z VRB05KT 10SM FEW060 24/09 A3006 740 39 2000 VRB/05 RMK AO2 SLP177 T02390094
14837KMSN MSN20020912135509609/12/02 13:55:31  5-MIN KMSN 121955Z 22007KT 10SM FEW060 24/10 A3006 740 41 2000 210/07 RMK AO2
14837KMSN MSN20020912140011209/12/02 14:00:31  5-MIN KMSN 122000Z 22007KT 200V260 10SM FEW060 24/10 A3005 740 41 2000 220/07 200V260 RMK AO2
14837KMSN MSN20020912140509609/12/02 14:05:31  5-MIN KMSN 122005Z 20008KT 10SM FEW060 24/09 A3005 740 39 2000 200/08 RMK AO2
14837KMSN MSN20020912141009609/12/02 14:10:31  5-MIN KMSN 122010Z VRB06KT 10SM FEW060 24/10 A3005 740 41 2000 VRB/06 RMK AO2
14837KMSN MSN20020912141511209/12/02 14:15:31  5-MIN KMSN 122015Z 22008KT 170V250 10SM FEW060 24/09 A3005 750 39 2000 220/08 170V250 RMK AO2
14837KMSN MSN20020912142011209/12/02 14:20:31  5-MIN KMSN 122020Z 23008KT 200V270 10SM FEW060 24/10 A3005 750 41 2000 230/08 200V270 RMK AO2
14837KMSN MSN20020912142509609/12/02 14:25:31  5-MIN KMSN 122025Z 22008KT 10SM FEW060 24/09 A3005 750 39 2000 220/08 RMK AO2
14837KMSN MSN20020912143009609/12/02 14:30:31  5-MIN KMSN 122030Z 21007KT 10SM FEW060 24/09 A3005 750 39 2000 210/07 RMK AO2
14837KMSN MSN20020912143509609/12/02 14:35:31  5-MIN KMSN 122035Z 22008KT 10SM FEW060 24/09 A3005 750 39 2000 220/08 RMK AO2
14837KMSN MSN20020912144009609/12/02 14:40:31  5-MIN KMSN 122040Z 24009KT 10SM FEW060 24/09 A3005 750 39 2000 240/09 RMK AO2
14837KMSN MSN20020912144509609/12/02 14:45:31  5-MIN KMSN 122045Z 23007KT 10SM FEW060 24/09 A3005 750 39 2000 230/07 RMK AO2
14837KMSN MSN20020912145011909/12/02 14:50:31  5-MIN KMSN 122050Z VRB05KT 10SM FEW060 24/10 A3005 740 41 2000 VRB/05 RMK AO2 SLP175 T02390100 58014
14837KMSN MSN20020912145509609/12/02 14:55:31  5-MIN KMSN 122055Z 25006KT 10SM FEW060 24/10 A3005 740 39 2000 250/06 RMK AO2
14837KMSN MSN20020912150011209/12/02 15:00:31  5-MIN KMSN 122100Z 24008KT 210V290 10SM FEW060 24/09 A3005 750 39 2000 240/08 210V290 RMK AO2
14837KMSN MSN20020912150511209/12/02 15:05:31  5-MIN KMSN 122105Z 23007KT 200V260 10SM FEW060 24/10 A3005 750 41 2000 230/07 200V260 RMK AO2
14837KMSN MSN20020912151011209/12/02 15:10:31  5-MIN KMSN 122110Z 25008KT 200V270 10SM FEW060 24/09 A3005 740 39 2000 250/08 200V270 RMK AO2
14837KMSN MSN20020912151509609/12/02 15:15:31  5-MIN KMSN 122115Z VRB06KT 10SM FEW060 23/09 A3005 750 41 1900 VRB/06 RMK AO2
14837KMSN MSN20020912152009609/12/02 15:20:31  5-MIN KMSN 122120Z 23005KT 10SM FEW060 24/09 A3005 750 39 2000 230/05 RMK AO2
14837KMSN MSN20020912152509609/12/02 15:25:31  5-MIN KMSN 122125Z 23007KT 10SM FEW060 24/10 A3005 750 41 2000 230/07 RMK AO2
14837KMSN MSN20020912153009609/12/02 15:30:31  5-MIN KMSN 122130Z 22008KT 10SM FEW060 24/10 A3005 750 41 2000 220/08 RMK AO2
14837KMSN MSN20020912153509609/12/02 15:35:31  5-MIN KMSN 122135Z 23007KT 10SM FEW060 23/09 A3005 750 41 1900 230/07 RMK AO2
14837KMSN MSN20020912154009609/12/02 15:40:31  5-MIN KMSN 122140Z VRB06KT 10SM FEW060 23/10 A3004 750 42 1900 VRB/06 RMK AO2
14837KMSN MSN20020912154509609/12/02 15:45:31  5-MIN KMSN 122145Z 22008KT 10SM FEW060 24/10 A3004 750 41 2000 220/08 RMK AO2
14837KMSN MSN20020912155011309/12/02 15:50:31  5-MIN KMSN 122150Z VRB06KT 10SM FEW060 24/11 A3004 750 42 2000 VRB/06 RMK AO2 SLP172 T02390106
14837KMSN MSN20020912155509609/12/02 15:55:31  5-MIN KMSN 122155Z VRB06KT 10SM FEW060 23/10 A3004 750 42 1900 VRB/06 RMK AO2
14837KMSN MSN20020912160009609/12/02 16:00:31  5-MIN KMSN 122200Z VRB06KT 10SM FEW060 23/10 A3004 750 42 1900 VRB/06 RMK AO2
14837KMSN MSN20020912160510909/12/02 16:05:31  5-MIN KMSN 122205Z 23007KT 200V260 10SM CLR 23/09 A3004 750 42 1900 230/07 200V260 RMK AO2
14837KMSN MSN20020912161009309/12/02 16:10:31  5-MIN KMSN 122210Z VRB05KT 10SM CLR 23/10 A3004 750 42 1900 VRB/05 RMK AO2
14837KMSN MSN20020912161509609/12/02 16:15:31  5-MIN KMSN 122215Z VRB04KT 10SM FEW060 23/10 A3004 760 42 1900 VRB/04 RMK AO2
14837KMSN MSN20020912162009609/12/02 16:20:31  5-MIN KMSN 122220Z VRB06KT 10SM FEW060 23/10 A3004 760 42 1900 VRB/06 RMK AO2
14837KMSN MSN20020912162509609/12/02 16:25:31  5-MIN KMSN 122225Z VRB06KT 10SM FEW060 23/10 A3004 760 42 1900 VRB/06 RMK AO2
14837KMSN MSN20020912163009609/12/02 16:30:31  5-MIN KMSN 122230Z VRB03KT 10SM FEW060 23/10 A3004 760 42 1900 VRB/03 RMK AO2
14837KMSN MSN20020912163509609/12/02 16:35:31  5-MIN KMSN 122235Z VRB05KT 10SM FEW060 23/10 A3003 760 42 1900 VRB/05 RMK AO2
14837KMSN MSN20020912164009609/12/02 16:40:31  5-MIN KMSN 122240Z 23006KT 10SM FEW060 23/10 A3003 760 42 1900 230/06 RMK AO2
14837KMSN MSN20020912164509609/12/02 16:45:31  5-MIN KMSN 122245Z VRB05KT 10SM FEW060 23/10 A3003 770 44 1900 VRB/05 RMK AO2
14837KMSN MSN20020912165011309/12/02 16:50:31  5-MIN KMSN 122250Z 23005KT 10SM FEW060 23/10 A3003 770 44 1900 220/05 RMK AO2 SLP167 T02280100
14837KMSN MSN20020912165509309/12/02 16:55:31  5-MIN KMSN 122255Z VRB06KT 10SM CLR 23/10 A3003 760 44 1900 VRB/06 RMK AO2
14837KMSN MSN20020912170009309/12/02 17:00:31  5-MIN KMSN 122300Z VRB05KT 10SM CLR 23/10 A3003 760 44 1900 VRB/05 RMK AO2
14837KMSN MSN20020912170509309/12/02 17:05:31  5-MIN KMSN 122305Z 26006KT 10SM CLR 22/10 A3003 760 45 1800 260/06 RMK AO2
14837KMSN MSN20020912171009309/12/02 17:10:31  5-MIN KMSN 122310Z VRB03KT 10SM CLR 22/10 A3003 760 45 1800 VRB/03 RMK AO2
14837KMSN MSN20020912171509309/12/02 17:15:31  5-MIN KMSN 122315Z 26004KT 10SM CLR 22/10 A3003 760 45 1800 260/04 RMK AO2
14837KMSN MSN20020912172009309/12/02 17:20:31  5-MIN KMSN 122320Z 00000KT 10SM CLR 22/10 A3003 760 45 1800 000/00 RMK AO2
14837KMSN MSN20020912172509309/12/02 17:25:31  5-MIN KMSN 122325Z 27004KT 10SM CLR 22/11 A3003 760 49 1800 270/04 RMK AO2
14837KMSN MSN20020912173009309/12/02 17:30:31  5-MIN KMSN 122330Z 26003KT 10SM CLR 21/11 A3003 770 50 1700 250/03 RMK AO2
14837KMSN MSN20020912173509309/12/02 17:35:31  5-MIN KMSN 122335Z 26003KT 10SM CLR 22/10 A3003 770 47 1800 260/03 RMK AO2
14837KMSN MSN20020912174009309/12/02 17:40:31  5-MIN KMSN 122340Z 00000KT 10SM CLR 21/11 A3003 760 50 1700 000/00 RMK AO2
14837KMSN MSN20020912174509309/12/02 17:45:31  5-MIN KMSN 122345Z 00000KT 10SM CLR 21/11 A3003 760 52 1600 000/00 RMK AO2
14837KMSN MSN20020912175012809/12/02 17:50:31  5-MIN KMSN 122350Z 00000KT 10SM CLR 20/11 A3003 760 56 1600 000/00 RMK AO2 SLP169 T02000111 10244 20200 56009
14837KMSN MSN20020912175509309/12/02 17:55:31  5-MIN KMSN 122355Z 00000KT 10SM CLR 20/11 A3003 770 56 1600 000/00 RMK AO2
14837KMSN MSN20020912180009309/12/02 18:00:31  5-MIN KMSN 130000Z 29003KT 10SM CLR 19/11 A3003 760 60 1400 290/03 RMK AO2
14837KMSN MSN20020912180509309/12/02 18:05:31  5-MIN KMSN 130005Z 00000KT 10SM CLR 18/12 A3003 770 69 1300 000/00 RMK AO2
14837KMSN MSN20020912181009309/12/02 18:10:31  5-MIN KMSN 130010Z 00000KT 10SM CLR 18/12 A3003 770 67 1300 000/00 RMK AO2
14837KMSN MSN20020912181509309/12/02 18:15:31  5-MIN KMSN 130015Z 00000KT 10SM CLR 17/12 A3003 770 69 1200 000/00 RMK AO2
14837KMSN MSN20020912182009309/12/02 18:20:31  5-MIN KMSN 130020Z 00000KT 10SM CLR 17/12 A3003 760 69 1200 000/00 RMK AO2
14837KMSN MSN20020912182509309/12/02 18:25:31  5-MIN KMSN 130025Z 00000KT 10SM CLR 17/12 A3003 760 72 1200 000/00 RMK AO2
14837KMSN MSN20020912183009309/12/02 18:30:31  5-MIN KMSN 130030Z 00000KT 10SM CLR 17/12 A3003 760 72 1200 000/00 RMK AO2
14837KMSN MSN20020912183509309/12/02 18:35:31  5-MIN KMSN 130035Z 00000KT 10SM CLR 17/12 A3003 760 75 1200 000/00 RMK AO2
14837KMSN MSN20020912184009309/12/02 18:40:31  5-MIN KMSN 130040Z 00000KT 10SM CLR 17/12 A3003 760 72 1200 000/00 RMK AO2
14837KMSN MSN20020912184509309/12/02 18:45:31  5-MIN KMSN 130045Z 00000KT 10SM CLR 17/12 A3003 760 75 1200 000/00 RMK AO2
14837KMSN MSN20020912185011009/12/02 18:50:31  5-MIN KMSN 130050Z 00000KT 10SM CLR 16/12 A3003 760 77 1100 000/00 RMK AO2 SLP170 T01610122
14837KMSN MSN20020912185509309/12/02 18:55:31  5-MIN KMSN 130055Z 00000KT 10SM CLR 16/12 A3003 760 77 1000 000/00 RMK AO2
14837KMSN MSN20020912190009309/12/02 19:00:31  5-MIN KMSN 130100Z 22003KT 10SM CLR 16/12 A3003 760 75 1100 220/03 RMK AO2
14837KMSN MSN20020912190509309/12/02 19:05:31  5-MIN KMSN 130105Z 22004KT 10SM CLR 17/12 A3003 760 72 1200 220/04 RMK AO2
14837KMSN MSN20020912191009309/12/02 19:10:31  5-MIN KMSN 130110Z 22003KT 10SM CLR 16/12 A3003 760 75 1100 220/03 RMK AO2
14837KMSN MSN20020912191509309/12/02 19:15:31  5-MIN KMSN 130115Z 22003KT 10SM CLR 16/12 A3004 760 77 1000 220/03 RMK AO2
14837KMSN MSN20020912192009309/12/02 19:20:31  5-MIN KMSN 130120Z 23003KT 10SM CLR 17/12 A3004 760 72 1200 230/03 RMK AO2
14837KMSN MSN20020912192509309/12/02 19:25:31  5-MIN KMSN 130125Z 23004KT 10SM CLR 17/12 A3004 760 72 1200 230/04 RMK AO2
14837KMSN MSN20020912193009309/12/02 19:30:31  5-MIN KMSN 130130Z 24003KT 10SM CLR 15/12 A3004 760 80 1000 240/03 RMK AO2
14837KMSN MSN20020912193509309/12/02 19:35:31  5-MIN KMSN 130135Z 24003KT 10SM CLR 15/12 A3004 760 80 1000 240/03 RMK AO2
14837KMSN MSN20020912194009309/12/02 19:40:31  5-MIN KMSN 130140Z 24003KT 10SM CLR 16/12 A3004 760 77 1000 240/03 RMK AO2
14837KMSN MSN20020912194509309/12/02 19:45:31  5-MIN KMSN 130145Z 23003KT 10SM CLR 16/12 A3004 750 77 1000 230/03 RMK AO2
14837KMSN MSN20020912195011009/12/02 19:50:31  5-MIN KMSN 130150Z 22003KT 10SM CLR 16/12 A3004 760 77 1000 220/03 RMK AO2 SLP171 T01560117
14837KMSN MSN20020912195509309/12/02 19:55:31  5-MIN KMSN 130155Z 23003KT 10SM CLR 15/12 A3004 750 80 1000 230/03 RMK AO2
14837KMSN MSN20020912200009309/12/02 20:00:31  5-MIN KMSN 130200Z 23003KT 10SM CLR 15/12 A3004 750 80 1000 230/03 RMK AO2
14837KMSN MSN20020912200509309/12/02 20:05:31  5-MIN KMSN 130205Z 23003KT 10SM CLR 15/12 A3004 750 83 1000 230/03 RMK AO2
14837KMSN MSN20020912201009209/12/02 20:10:31  5-MIN KMSN 130210Z 22003KT 10SM CLR 14/12 A3004 750 83 900 220/03 RMK AO2
14837KMSN MSN20020912201509309/12/02 20:15:31  5-MIN KMSN 130215Z 22004KT 10SM CLR 15/12 A3004 750 83 1000 220/04 RMK AO2
14837KMSN MSN20020912202009309/12/02 20:20:31  5-MIN KMSN 130220Z 22003KT 10SM CLR 15/12 A3004 750 83 1000 220/03 RMK AO2
14837KMSN MSN20020912202509309/12/02 20:25:31  5-MIN KMSN 130225Z 22003KT 10SM CLR 15/12 A3004 750 83 1000 220/03 RMK AO2
14837KMSN MSN20020912203009309/12/02 20:30:31  5-MIN KMSN 130230Z 23003KT 10SM CLR 16/12 A3004 750 80 1000 230/03 RMK AO2
14837KMSN MSN20020912203509309/12/02 20:35:31  5-MIN KMSN 130235Z 00000KT 10SM CLR 15/12 A3005 750 83 1000 000/00 RMK AO2
14837KMSN MSN20020912204009309/12/02 20:40:31  5-MIN KMSN 130240Z 00000KT 10SM CLR 16/12 A3005 750 80 1000 000/00 RMK AO2
14837KMSN MSN20020912204509309/12/02 20:45:31  5-MIN KMSN 130245Z 00000KT 10SM CLR 16/12 A3005 750 77 1000 000/00 RMK AO2
14837KMSN MSN20020912205011609/12/02 20:50:31  5-MIN KMSN 130250Z 00000KT 10SM CLR 15/12 A3005 750 80 1000 000/00 RMK AO2 SLP173 T01500117 56007
14837KMSN MSN20020912205509309/12/02 20:55:31  5-MIN KMSN 130255Z 00000KT 10SM CLR 15/12 A3005 750 83 1000 000/00 RMK AO2
14837KMSN MSN20020912210009309/12/02 21:00:31  5-MIN KMSN 130300Z 00000KT 10SM CLR 15/12 A3005 750 83 1000 000/00 RMK AO2
14837KMSN MSN20020912210509309/12/02 21:05:31  5-MIN KMSN 130305Z 00000KT 10SM CLR 16/12 A3005 750 80 1000 000/00 RMK AO2
14837KMSN MSN20020912211009309/12/02 21:10:31  5-MIN KMSN 130310Z 00000KT 10SM CLR 15/12 A3005 750 83 1000 000/00 RMK AO2
14837KMSN MSN20020912211509309/12/02 21:15:31  5-MIN KMSN 130315Z 00000KT 10SM CLR 15/12 A3005 750 83 1000 000/00 RMK AO2
14837KMSN MSN20020912212009209/12/02 21:20:31  5-MIN KMSN 130320Z 00000KT 10SM CLR 14/12 A3004 750 86 900 000/00 RMK AO2
14837KMSN MSN20020912212509209/12/02 21:25:31  5-MIN KMSN 130325Z 00000KT 10SM CLR 14/12 A3004 750 86 900 000/00 RMK AO2
14837KMSN MSN20020912213009309/12/02 21:30:31  5-MIN KMSN 130330Z 00000KT 10SM CLR 15/12 A3004 760 83 1000 000/00 RMK AO2
14837KMSN MSN20020912213509309/12/02 21:35:31  5-MIN KMSN 130335Z 00000KT 10SM CLR 15/12 A3004 760 80 1000 000/00 RMK AO2
14837KMSN MSN20020912214009309/12/02 21:40:31  5-MIN KMSN 130340Z 00000KT 10SM CLR 15/12 A3004 750 80 1000 000/00 RMK AO2
14837KMSN MSN20020912214509209/12/02 21:45:31  5-MIN KMSN 130345Z 00000KT 10SM CLR 14/12 A3004 750 86 900 000/00 RMK AO2
14837KMSN MSN20020912215010909/12/02 21:50:31  5-MIN KMSN 130350Z 00000KT 10SM CLR 14/12 A3004 750 86 800 000/00 RMK AO2 SLP172 T01390117
14837KMSN MSN20020912215509209/12/02 21:55:31  5-MIN KMSN 130355Z 00000KT 10SM CLR 14/12 A3005 750 86 800 000/00 RMK AO2
14837KMSN MSN20020912220009209/12/02 22:00:31  5-MIN KMSN 130400Z 00000KT 10SM CLR 14/12 A3004 750 86 800 000/00 RMK AO2
14837KMSN MSN20020912220509209/12/02 22:05:31  5-MIN KMSN 130405Z 00000KT 10SM CLR 13/12 A3004 750 89 800 000/00 RMK AO2
14837KMSN MSN20020912221009209/12/02 22:10:31  5-MIN KMSN 130410Z 00000KT 10SM CLR 14/12 A3004 750 86 800 000/00 RMK AO2
14837KMSN MSN20020912221509209/12/02 22:15:31  5-MIN KMSN 130415Z 00000KT 10SM CLR 14/12 A3004 750 86 800 000/00 RMK AO2
14837KMSN MSN20020912222009209/12/02 22:20:31  5-MIN KMSN 130420Z 00000KT 10SM CLR 13/12 A3004 750 89 800 000/00 RMK AO2
14837KMSN MSN20020912222509209/12/02 22:25:31  5-MIN KMSN 130425Z 22003KT 10SM CLR 13/12 A3004 750 89 800 220/03 RMK AO2
14837KMSN MSN20020912223009209/12/02 22:30:31  5-MIN KMSN 130430Z 21003KT 10SM CLR 14/12 A3004 750 86 800 210/03 RMK AO2
14837KMSN MSN20020912223509209/12/02 22:35:31  5-MIN KMSN 130435Z 21003KT 10SM CLR 14/12 A3004 750 83 900 210/03 RMK AO2
14837KMSN MSN20020912224009209/12/02 22:40:31  5-MIN KMSN 130440Z 00000KT 10SM CLR 13/12 A3004 750 89 800 000/00 RMK AO2
14837KMSN MSN20020912224509209/12/02 22:45:31  5-MIN KMSN 130445Z 00000KT 10SM CLR 14/11 A3004 750 83 800 000/00 RMK AO2
14837KMSN MSN20020912225010909/12/02 22:50:31  5-MIN KMSN 130450Z 00000KT 10SM CLR 13/11 A3004 750 83 800 000/00 RMK AO2 SLP171 T01330106
14837KMSN MSN20020912225509209/12/02 22:55:31  5-MIN KMSN 130455Z 00000KT 10SM CLR 13/11 A3004 750 86 800 000/00 RMK AO2
14837KMSN MSN20020912230009209/12/02 23:00:31  5-MIN KMSN 130500Z 00000KT 10SM CLR 13/11 A3004 750 86 800 000/00 RMK AO2
14837KMSN MSN20020912230509209/12/02 23:05:31  5-MIN KMSN 130505Z 00000KT 10SM CLR 13/12 A3004 750 89 800 000/00 RMK AO2
14837KMSN MSN20020912231009209/12/02 23:10:31  5-MIN KMSN 130510Z 00000KT 10SM CLR 13/12 A3004 760 89 800 000/00 RMK AO2
14837KMSN MSN20020912231509209/12/02 23:15:31  5-MIN KMSN 130515Z 00000KT 10SM CLR 13/12 A3004 760 89 800 000/00 RMK AO2
14837KMSN MSN20020912232009209/12/02 23:20:31  5-MIN KMSN 130520Z 00000KT 10SM CLR 13/12 A3003 760 89 800 000/00 RMK AO2
14837KMSN MSN20020912232509209/12/02 23:25:31  5-MIN KMSN 130525Z 00000KT 10SM CLR 13/12 A3003 760 93 700 000/00 RMK AO2
14837KMSN MSN20020912233009209/12/02 23:30:31  5-MIN KMSN 130530Z 00000KT 10SM CLR 13/12 A3003 760 89 800 000/00 RMK AO2
14837KMSN MSN20020912233509209/12/02 23:35:31  5-MIN KMSN 130535Z 00000KT 10SM CLR 13/12 A3003 760 89 800 000/00 RMK AO2
14837KMSN MSN20020912234009209/12/02 23:40:31  5-MIN KMSN 130540Z 00000KT 10SM CLR 13/12 A3003 760 89 800 000/00 RMK AO2
14837KMSN MSN20020912234509209/12/02 23:45:31  5-MIN KMSN 130545Z 00000KT 10SM CLR 13/12 A3003 760 89 800 000/00 RMK AO2
14837KMSN MSN20020912235013709/12/02 23:50:31  5-MIN KMSN 130550Z 00000KT 10SM CLR 13/12 A3003 760 93 700 000/00 RMK AO2 SLP168 T01280117 10200 20128 402440083 53007
14837KMSN MSN20020912235509209/12/02 23:55:31  5-MIN KMSN 130555Z 00000KT 10SM CLR 13/12 A3003 760 93 700 000/00 RMK AO2
14837KMSN MSN20020913000009209/13/02 00:00:31  5-MIN KMSN 130600Z 00000KT 10SM CLR 12/11 A3003 760 93 600 000/00 RMK AO2
14837KMSN MSN20020913000509209/13/02 00:05:31  5-MIN KMSN 130605Z 00000KT 10SM CLR 12/11 A3003 760 93 600 000/00 RMK AO2
14837KMSN MSN20020913001009209/13/02 00:10:31  5-MIN KMSN 130610Z 00000KT 10SM CLR 12/11 A3003 760 89 600 000/00 RMK AO2
14837KMSN MSN20020913001509209/13/02 00:15:31  5-MIN KMSN 130615Z 00000KT 10SM CLR 12/11 A3003 760 89 600 000/00 RMK AO2
14837KMSN MSN20020913002009209/13/02 00:20:31  5-MIN KMSN 130620Z 00000KT 10SM CLR 13/11 A3003 760 86 700 000/00 RMK AO2
14837KMSN MSN20020913002509209/13/02 00:25:31  5-MIN KMSN 130625Z 00000KT 10SM CLR 13/11 A3003 760 89 700 000/00 RMK AO2
14837KMSN MSN20020913003009209/13/02 00:30:31  5-MIN KMSN 130630Z 00000KT 10SM CLR 13/11 A3003 760 89 700 000/00 RMK AO2
14837KMSN MSN20020913003509209/13/02 00:35:31  5-MIN KMSN 130635Z 00000KT 10SM CLR 13/11 A3003 760 89 700 000/00 RMK AO2
14837KMSN MSN20020913004009209/13/02 00:40:31  5-MIN KMSN 130640Z 00000KT 10SM CLR 12/11 A3003 760 93 600 000/00 RMK AO2
14837KMSN MSN20020913004509209/13/02 00:45:31  5-MIN KMSN 130645Z 00000KT 10SM CLR 13/11 A3003 760 89 700 000/00 RMK AO2
14837KMSN MSN20020913005010909/13/02 00:50:31  5-MIN KMSN 130650Z 00000KT 10SM CLR 12/11 A3003 760 89 600 000/00 RMK AO2 SLP168 T01220106
14837KMSN MSN20020913005509209/13/02 00:55:31  5-MIN KMSN 130655Z 00000KT 10SM CLR 13/10 A3003 760 83 700 000/00 RMK AO2
14837KMSN MSN20020913010009209/13/02 01:00:31  5-MIN KMSN 130700Z 00000KT 10SM CLR 13/10 A3003 760 83 700 000/00 RMK AO2
14837KMSN MSN20020913010509209/13/02 01:05:31  5-MIN KMSN 130705Z 22003KT 10SM CLR 13/10 A3003 760 80 800 220/03 RMK AO2
14837KMSN MSN20020913011009309/13/02 01:10:31  5-MIN KMSN 130710Z 22004KT 10SM CLR 15/10 A3003 770 72 1000 220/04 RMK AO2
14837KMSN MSN20020913011509309/13/02 01:15:31  5-MIN KMSN 130715Z 22005KT 10SM CLR 16/11 A3003 770 72 1100 220/05 RMK AO2
14837KMSN MSN20020913012009309/13/02 01:20:31  5-MIN KMSN 130720Z VRB03KT 10SM CLR 16/11 A3002 770 72 1100 VRB/03 RMK AO2
14837KMSN MSN20020913012509309/13/02 01:25:31  5-MIN KMSN 130725Z 22004KT 10SM CLR 16/11 A3002 770 72 1100 220/04 RMK AO2
14837KMSN MSN20020913013009309/13/02 01:30:31  5-MIN KMSN 130730Z VRB03KT 10SM CLR 16/11 A3002 770 69 1100 VRB/03 RMK AO2
14837KMSN MSN20020913013509209/13/02 01:35:31  5-MIN KMSN 130735Z 00000KT 10SM CLR 13/10 A3002 770 80 800 000/00 RMK AO2
14837KMSN MSN20020913014009209/13/02 01:40:31  5-MIN KMSN 130740Z 00000KT 10SM CLR 13/09 A3002 780 80 700 000/00 RMK AO2
14837KMSN MSN20020913014509209/13/02 01:45:31  5-MIN KMSN 130745Z 00000KT 10SM CLR 12/09 A3001 780 83 700 000/00 RMK AO2
14837KMSN MSN20020913015010909/13/02 01:50:31  5-MIN KMSN 130750Z 00000KT 10SM CLR 12/09 A3002 780 86 600 000/00 RMK AO2 SLP162 T01170094
14837KMSN MSN20020913015509209/13/02 01:55:31  5-MIN KMSN 130755Z 11003KT 10SM CLR 12/09 A3002 780 83 700 110/03 RMK AO2
14837KMSN MSN20020913020009209/13/02 02:00:31  5-MIN KMSN 130800Z 00000KT 10SM CLR 12/09 A3002 780 83 700 000/00 RMK AO2
14837KMSN MSN20020913020509209/13/02 02:05:31  5-MIN KMSN 130805Z 00000KT 10SM CLR 13/10 A3002 780 83 700 000/00 RMK AO2
14837KMSN MSN20020913021009209/13/02 02:10:31  5-MIN KMSN 130810Z 00000KT 10SM CLR 13/11 A3002 780 86 700 000/00 RMK AO2
14837KMSN MSN20020913021509209/13/02 02:15:31  5-MIN KMSN 130815Z 00000KT 10SM CLR 13/11 A3002 780 86 700 000/00 RMK AO2
14837KMSN MSN20020913022009209/13/02 02:20:31  5-MIN KMSN 130820Z 00000KT 10SM CLR 13/11 A3002 770 86 700 000/00 RMK AO2
14837KMSN MSN20020913022509209/13/02 02:25:31  5-MIN KMSN 130825Z 00000KT 10SM CLR 13/11 A3002 770 86 700 000/00 RMK AO2
14837KMSN MSN20020913023009209/13/02 02:30:31  5-MIN KMSN 130830Z 00000KT 10SM CLR 13/10 A3002 770 83 700 000/00 RMK AO2
14837KMSN MSN20020913023509209/13/02 02:35:31  5-MIN KMSN 130835Z 00000KT 10SM CLR 13/10 A3002 770 83 700 000/00 RMK AO2
14837KMSN MSN20020913024009209/13/02 02:40:31  5-MIN KMSN 130840Z 00000KT 10SM CLR 13/10 A3002 770 83 700 000/00 RMK AO2
14837KMSN MSN20020913024509209/13/02 02:45:31  5-MIN KMSN 130845Z 00000KT 10SM CLR 12/10 A3002 770 86 700 000/00 RMK AO2
14837KMSN MSN20020913025011509/13/02 02:50:31  5-MIN KMSN 130850Z 00000KT 10SM CLR 12/10 A3002 770 86 700 000/00 RMK AO2 SLP164 T01220100 58005
14837KMSN MSN20020913025509209/13/02 02:55:31  5-MIN KMSN 130855Z 00000KT 10SM CLR 12/11 A3002 770 89 700 000/00 RMK AO2
14837KMSN MSN20020913030009209/13/02 03:00:31  5-MIN KMSN 130900Z 00000KT 10SM CLR 12/10 A3002 770 86 700 000/00 RMK AO2
14837KMSN MSN20020913030509209/13/02 03:05:31  5-MIN KMSN 130905Z 00000KT 10SM CLR 12/10 A3002 770 86 700 000/00 RMK AO2
14837KMSN MSN20020913031009209/13/02 03:10:31  5-MIN KMSN 130910Z 00000KT 10SM CLR 12/10 A3002 770 86 700 000/00 RMK AO2
14837KMSN MSN20020913031509209/13/02 03:15:31  5-MIN KMSN 130915Z 00000KT 10SM CLR 12/10 A3002 770 86 700 000/00 RMK AO2
14837KMSN MSN20020913032009209/13/02 03:20:31  5-MIN KMSN 130920Z 00000KT 10SM CLR 12/10 A3002 770 89 600 000/00 RMK AO2
14837KMSN MSN20020913032509209/13/02 03:25:31  5-MIN KMSN 130925Z 00000KT 10SM CLR 12/10 A3002 770 89 600 000/00 RMK AO2
14837KMSN MSN20020913033009109/13/02 03:30:31  5-MIN KMSN 130930Z 00000KT 8SM CLR 12/11 A3002 770 93 600 000/00 RMK AO2
14837KMSN MSN20020913033509109/13/02 03:35:31  5-MIN KMSN 130935Z 00000KT 7SM CLR 11/11 A3002 770 96 500 000/00 RMK AO2
14837KMSN MSN20020913034009109/13/02 03:40:31  5-MIN KMSN 130940Z 00000KT 7SM CLR 11/10 A3003 770 93 500 000/00 RMK AO2
14837KMSN MSN20020913034509109/13/02 03:45:31  5-MIN KMSN 130945Z 00000KT 8SM CLR 11/10 A3003 770 93 500 000/00 RMK AO2
14837KMSN MSN20020913035010809/13/02 03:50:31  5-MIN KMSN 130950Z 00000KT 8SM CLR 11/10 A3003 770 93 500 000/00 RMK AO2 SLP166 T01110100
14837KMSN MSN20020913035509109/13/02 03:55:31  5-MIN KMSN 130955Z 00000KT 8SM CLR 12/10 A3003 760 89 600 000/00 RMK AO2
14837KMSN MSN20020913040009109/13/02 04:00:31  5-MIN KMSN 131000Z 00000KT 9SM CLR 12/10 A3003 760 89 600 000/00 RMK AO2
14837KMSN MSN20020913040509109/13/02 04:05:31  5-MIN KMSN 131005Z 00000KT 9SM CLR 12/10 A3003 760 89 600 000/00 RMK AO2
14837KMSN MSN20020913041009209/13/02 04:10:31  5-MIN KMSN 131010Z 00000KT 10SM CLR 11/10 A3003 760 93 500 000/00 RMK AO2
14837KMSN MSN20020913041509209/13/02 04:15:31  5-MIN KMSN 131015Z 00000KT 10SM CLR 11/10 A3003 760 93 500 000/00 RMK AO2
14837KMSN MSN20020913042009209/13/02 04:20:31  5-MIN KMSN 131020Z 00000KT 10SM CLR 12/11 A3003 760 93 600 000/00 RMK AO2
14837KMSN MSN20020913042509209/13/02 04:25:31  5-MIN KMSN 131025Z 00000KT 10SM CLR 12/10 A3003 760 89 600 000/00 RMK AO2
14837KMSN MSN20020913043009209/13/02 04:30:31  5-MIN KMSN 131030Z 00000KT 10SM CLR 12/10 A3003 760 89 600 000/00 RMK AO2
14837KMSN MSN20020913043509209/13/02 04:35:31  5-MIN KMSN 131035Z 00000KT 10SM CLR 11/09 A3003 760 89 500 000/00 RMK AO2
14837KMSN MSN20020913044009209/13/02 04:40:31  5-MIN KMSN 131040Z 00000KT 10SM CLR 11/09 A3003 760 89 500 000/00 RMK AO2
14837KMSN MSN20020913044509209/13/02 04:45:31  5-MIN KMSN 131045Z 00000KT 10SM CLR 12/09 A3003 760 86 600 000/00 RMK AO2
14837KMSN MSN20020913045010909/13/02 04:50:31  5-MIN KMSN 131050Z 00000KT 10SM CLR 12/09 A3003 760 86 600 000/00 RMK AO2 SLP168 T01170094
14837KMSN MSN20020913045509209/13/02 04:55:31  5-MIN KMSN 131055Z 00000KT 10SM CLR 11/09 A3003 760 89 500 000/00 RMK AO2
14837KMSN MSN20020913050009209/13/02 05:00:31  5-MIN KMSN 131100Z 00000KT 10SM CLR 11/10 A3003 760 96 500 000/00 RMK AO2
14837KMSN MSN20020913050509109/13/02 05:05:31  5-MIN KMSN 131105Z 00000KT 9SM CLR 11/09 A3003 760 93 500 000/00 RMK AO2
14837KMSN MSN20020913051009109/13/02 05:10:31  5-MIN KMSN 131110Z 00000KT 9SM CLR 11/10 A3003 760 96 400 000/00 RMK AO2
14837KMSN MSN20020913051509209/13/02 05:15:31  5-MIN KMSN 131115Z 00000KT 10SM CLR 11/10 A3003 760 93 500 000/00 RMK AO2
14837KMSN MSN20020913052009109/13/02 05:20:31  5-MIN KMSN 131120Z 00000KT 9SM CLR 11/10 A3003 760 96 400 000/00 RMK AO2
14837KMSN MSN20020913052509109/13/02 05:25:31  5-MIN KMSN 131125Z 00000KT 8SM CLR 10/09 A3004 760 96 400 000/00 RMK AO2
14837KMSN MSN20020913053009209/13/02 05:30:31  5-MIN KMSN 131130Z 00000KT 10SM CLR 10/09 A3004 760 96 400 000/00 RMK AO2
14837KMSN MSN20020913053509209/13/02 05:35:31  5-MIN KMSN 131135Z 00000KT 10SM CLR 10/09 A3004 760 96 400 000/00 RMK AO2
14837KMSN MSN20020913054009209/13/02 05:40:31  5-MIN KMSN 131140Z 00000KT 10SM CLR 11/09 A3004 750 93 400 000/00 RMK AO2
14837KMSN MSN20020913054509209/13/02 05:45:31  5-MIN KMSN 131145Z 00000KT 10SM CLR 11/09 A3004 750 93 400 000/00 RMK AO2
14837KMSN MSN20020913055012709/13/02 05:50:31  5-MIN KMSN 131150Z 00000KT 10SM CLR 11/09 A3004 750 93 400 000/00 RMK AO2 SLP173 T01060094 10161 20100 55004
14837KMSN MSN20020913055509109/13/02 05:55:31  5-MIN KMSN 131155Z 00000KT 8SM CLR 11/10 A3004 750 96 400 000/00 RMK AO2
14837KMSN MSN20020913060009109/13/02 06:00:31  5-MIN KMSN 131200Z 00000KT 8SM CLR 11/09 A3004 750 93 400 000/00 RMK AO2
14837KMSN MSN20020913060509109/13/02 06:05:31  5-MIN KMSN 131205Z 00000KT 8SM CLR 11/10 A3004 750 96 400 000/00 RMK AO2
14837KMSN MSN20020913061009109/13/02 06:10:31  5-MIN KMSN 131210Z 00000KT 8SM CLR 11/09 A3005 750 93 400 000/00 RMK AO2
14837KMSN MSN20020913061509109/13/02 06:15:31  5-MIN KMSN 131215Z 00000KT 8SM CLR 11/09 A3005 750 93 400 000/00 RMK AO2
14837KMSN MSN20020913062009109/13/02 06:20:31  5-MIN KMSN 131220Z 00000KT 7SM CLR 11/10 A3005 750 93 500 000/00 RMK AO2
14837KMSN MSN20020913062509109/13/02 06:25:31  5-MIN KMSN 131225Z 00000KT 7SM CLR 11/10 A3005 750 93 500 000/00 RMK AO2
14837KMSN MSN20020913063009109/13/02 06:30:31  5-MIN KMSN 131230Z 00000KT 7SM CLR 12/10 A3005 750 89 600 000/00 RMK AO2
14837KMSN MSN20020913063509109/13/02 06:35:31  5-MIN KMSN 131235Z 00000KT 8SM CLR 12/10 A3005 750 89 600 000/00 RMK AO2
14837KMSN MSN20020913064009109/13/02 06:40:31  5-MIN KMSN 131240Z 00000KT 9SM CLR 12/11 A3005 740 89 600 000/00 RMK AO2
14837KMSN MSN20020913064509109/13/02 06:45:31  5-MIN KMSN 131245Z 00000KT 8SM CLR 13/11 A3005 750 89 700 000/00 RMK AO2
14837KMSN MSN20020913065010809/13/02 06:50:31  5-MIN KMSN 131250Z 00000KT 8SM CLR 13/11 A3005 740 86 800 000/00 RMK AO2 SLP176 T01330111
14837KMSN MSN20020913065509109/13/02 06:55:31  5-MIN KMSN 131255Z 00000KT 8SM CLR 14/11 A3005 740 83 800 000/00 RMK AO2
14837KMSN MSN20020913070009109/13/02 07:00:31  5-MIN KMSN 131300Z 00000KT 8SM CLR 14/12 A3005 740 83 900 000/00 RMK AO2
14837KMSN MSN20020913070509209/13/02 07:05:31  5-MIN KMSN 131305Z 00000KT 8SM CLR 15/12 A3005 740 80 1000 000/00 RMK AO2
14837KMSN MSN20020913071009209/13/02 07:10:31  5-MIN KMSN 131310Z 00000KT 8SM CLR 15/12 A3005 740 83 1000 000/00 RMK AO2
14837KMSN MSN20020913071509209/13/02 07:15:31  5-MIN KMSN 131315Z 00000KT 9SM CLR 15/13 A3006 740 86 1000 000/00 RMK AO2
14837KMSN MSN20020913072009209/13/02 07:20:31  5-MIN KMSN 131320Z 00000KT 9SM CLR 16/13 A3005 740 83 1000 000/00 RMK AO2
14837KMSN MSN20020913072509209/13/02 07:25:31  5-MIN KMSN 131325Z 00000KT 9SM CLR 16/13 A3005 740 80 1100 000/00 RMK AO2
14837KMSN MSN20020913073009209/13/02 07:30:31  5-MIN KMSN 131330Z 00000KT 9SM CLR 17/13 A3005 740 77 1100 000/00 RMK AO2
14837KMSN MSN20020913073509309/13/02 07:35:31  5-MIN KMSN 131335Z 00000KT 10SM CLR 17/12 A3005 740 75 1100 000/00 RMK AO2
14837KMSN MSN20020913074009309/13/02 07:40:31  5-MIN KMSN 131340Z 00000KT 10SM CLR 17/12 A3005 740 72 1200 000/00 RMK AO2
14837KMSN MSN20020913074509309/13/02 07:45:31  5-MIN KMSN 131345Z 00000KT 10SM CLR 18/12 A3005 740 67 1300 000/00 RMK AO2
14837KMSN MSN20020913075011009/13/02 07:50:31  5-MIN KMSN 131350Z 00000KT 10SM CLR 18/12 A3006 740 65 1300 000/00 RMK AO2 SLP176 T01830117
14837KMSN MSN20020913075509309/13/02 07:55:31  5-MIN KMSN 131355Z 00000KT 10SM CLR 18/12 A3006 740 67 1300 000/00 RMK AO2
14837KMSN MSN20020913080009309/13/02 08:00:31  5-MIN KMSN 131400Z VRB03KT 10SM CLR 18/12 A3006 740 65 1300 VRB/03 RMK AO2
14837KMSN MSN20020913080509309/13/02 08:05:31  5-MIN KMSN 131405Z 24004KT 10SM CLR 19/11 A3006 740 60 1400 230/04 RMK AO2
14837KMSN MSN20020913081009309/13/02 08:10:31  5-MIN KMSN 131410Z 23005KT 10SM CLR 19/11 A3006 740 60 1400 220/05 RMK AO2
14837KMSN MSN20020913081509309/13/02 08:15:31  5-MIN KMSN 131415Z VRB03KT 10SM CLR 19/11 A3006 740 60 1400 VRB/03 RMK AO2
14837KMSN MSN20020913082009309/13/02 08:20:31  5-MIN KMSN 131420Z 23003KT 10SM CLR 19/11 A3006 740 58 1500 230/03 RMK AO2
14837KMSN MSN20020913082509309/13/02 08:25:31  5-MIN KMSN 131425Z 22003KT 10SM CLR 19/12 A3006 740 60 1500 220/03 RMK AO2
14837KMSN MSN20020913083009309/13/02 08:30:31  5-MIN KMSN 131430Z 22005KT 10SM CLR 19/11 A3006 740 58 1500 220/05 RMK AO2
14837KMSN MSN20020913083509309/13/02 08:35:31  5-MIN KMSN 131435Z 22005KT 10SM CLR 19/11 A3006 740 58 1500 220/05 RMK AO2
14837KMSN MSN20020913084009309/13/02 08:40:31  5-MIN KMSN 131440Z 23005KT 10SM CLR 19/11 A3006 740 58 1500 230/05 RMK AO2
14837KMSN MSN20020913084509309/13/02 08:45:31  5-MIN KMSN 131445Z 23004KT 10SM CLR 19/11 A3006 740 58 1500 230/04 RMK AO2
14837KMSN MSN20020913085011609/13/02 08:50:31  5-MIN KMSN 131450Z 24004KT 10SM CLR 19/12 A3005 740 60 1500 240/04 RMK AO2 SLP176 T01940117 53007
14837KMSN MSN20020913085509309/13/02 08:55:31  5-MIN KMSN 131455Z VRB03KT 10SM CLR 20/12 A3005 740 58 1500 VRB/03 RMK AO2
14837KMSN MSN20020913090009309/13/02 09:00:31  5-MIN KMSN 131500Z 22004KT 10SM CLR 20/12 A3005 740 58 1500 210/04 RMK AO2
14837KMSN MSN20020913090509309/13/02 09:05:31  5-MIN KMSN 131505Z 23004KT 10SM CLR 21/12 A3005 740 56 1600 230/04 RMK AO2
14837KMSN MSN20020913091009309/13/02 09:10:31  5-MIN KMSN 131510Z 23004KT 10SM CLR 21/11 A3005 740 54 1600 230/04 RMK AO2
14837KMSN MSN20020913091509309/13/02 09:15:31  5-MIN KMSN 131515Z VRB05KT 10SM CLR 21/11 A3005 740 54 1600 VRB/05 RMK AO2
14837KMSN MSN20020913092009309/13/02 09:20:31  5-MIN KMSN 131520Z 23004KT 10SM CLR 21/11 A3005 740 54 1600 230/04 RMK AO2
14837KMSN MSN20020913092509309/13/02 09:25:31  5-MIN KMSN 131525Z 22005KT 10SM CLR 21/12 A3005 740 54 1700 220/05 RMK AO2
14837KMSN MSN20020913093009309/13/02 09:30:31  5-MIN KMSN 131530Z VRB04KT 10SM CLR 21/11 A3005 750 52 1700 VRB/04 RMK AO2
14837KMSN MSN20020913093509309/13/02 09:35:31  5-MIN KMSN 131535Z VRB03KT 10SM CLR 22/12 A3005 750 51 1800 VRB/03 RMK AO2
14837KMSN MSN20020913094009309/13/02 09:40:31  5-MIN KMSN 131540Z 24005KT 10SM CLR 22/11 A3004 750 49 1800 240/05 RMK AO2
14837KMSN MSN20020913094509309/13/02 09:45:31  5-MIN KMSN 131545Z VRB04KT 10SM CLR 22/11 A3004 750 49 1700 VRB/04 RMK AO2
14837KMSN MSN20020913095011009/13/02 09:50:31  5-MIN KMSN 131550Z VRB05KT 10SM CLR 22/11 A3004 760 49 1800 VRB/05 RMK AO2 SLP170 T02220111
14837KMSN MSN20020913095509309/13/02 09:55:31  5-MIN KMSN 131555Z VRB05KT 10SM CLR 23/11 A3004 760 47 1900 VRB/05 RMK AO2
14837KMSN MSN20020913100009309/13/02 10:00:31  5-MIN KMSN 131600Z 22005KT 10SM CLR 22/11 A3004 760 47 1800 210/05 RMK AO2
14837KMSN MSN20020913100509309/13/02 10:05:31  5-MIN KMSN 131605Z 22005KT 10SM CLR 22/11 A3003 760 47 1800 220/05 RMK AO2
14837KMSN MSN20020913101009309/13/02 10:10:31  5-MIN KMSN 131610Z 22005KT 10SM CLR 23/11 A3003 760 47 1900 220/05 RMK AO2
14837KMSN MSN20020913101509309/13/02 10:15:31  5-MIN KMSN 131615Z 22006KT 10SM CLR 23/11 A3003 760 45 1900 220/06 RMK AO2
14837KMSN MSN20020913102009309/13/02 10:20:31  5-MIN KMSN 131620Z 22006KT 10SM CLR 22/10 A3003 760 45 1800 220/06 RMK AO2
14837KMSN MSN20020913102509309/13/02 10:25:31  5-MIN KMSN 131625Z 21005KT 10SM CLR 22/10 A3003 760 45 1800 210/05 RMK AO2
14837KMSN MSN20020913103009309/13/02 10:30:31  5-MIN KMSN 131630Z 22005KT 10SM CLR 22/10 A3003 770 45 1800 220/05 RMK AO2
14837KMSN MSN20020913103509309/13/02 10:35:31  5-MIN KMSN 131635Z 24004KT 10SM CLR 22/11 A3002 770 47 1800 230/04 RMK AO2
14837KMSN MSN20020913104009309/13/02 10:40:31  5-MIN KMSN 131640Z VRB04KT 10SM CLR 22/11 A3003 770 47 1800 VRB/04 RMK AO2
14837KMSN MSN20020913104509309/13/02 10:45:31  5-MIN KMSN 131645Z VRB04KT 10SM CLR 23/10 A3002 770 44 1900 VRB/04 RMK AO2
14837KMSN MSN20020913105011009/13/02 10:50:31  5-MIN KMSN 131650Z VRB04KT 10SM CLR 23/11 A3002 770 45 1900 VRB/04 RMK AO2 SLP164 T02280106
14837KMSN MSN20020913105509309/13/02 10:55:31  5-MIN KMSN 131655Z VRB05KT 10SM CLR 23/11 A3002 770 45 2000 VRB/05 RMK AO2
14837KMSN MSN20020913110009309/13/02 11:00:31  5-MIN KMSN 131700Z VRB03KT 10SM CLR 24/11 A3002 770 42 2000 VRB/03 RMK AO2
14837KMSN MSN20020913110510909/13/02 11:05:31  5-MIN KMSN 131705Z 22007KT 190V260 10SM CLR 23/11 A3002 770 44 2000 220/07 190V260 RMK AO2
14837KMSN MSN20020913111010909/13/02 11:10:31  5-MIN KMSN 131710Z 26008KT 210V280 10SM CLR 23/10 A3002 770 42 2000 250/08 210V280 RMK AO2
14837KMSN MSN20020913111510909/13/02 11:15:31  5-MIN KMSN 131715Z 27007KT 230V300 10SM CLR 23/11 A3002 770 44 2000 270/07 230V300 RMK AO2
14837KMSN MSN20020913112009309/13/02 11:20:31  5-MIN KMSN 131720Z 24005KT 10SM CLR 23/10 A3002 770 42 2000 240/05 RMK AO2
14837KMSN MSN20020913112509309/13/02 11:25:31  5-MIN KMSN 131725Z 29005KT 10SM CLR 23/10 A3002 770 42 2000 290/05 RMK AO2
14837KMSN MSN20020913113009309/13/02 11:30:31  5-MIN KMSN 131730Z VRB05KT 10SM CLR 23/11 A3002 770 44 2000 VRB/05 RMK AO2
14837KMSN MSN20020913113509309/13/02 11:35:31  5-MIN KMSN 131735Z 22006KT 10SM CLR 23/10 A3002 770 42 2000 220/06 RMK AO2
14837KMSN MSN20020913114009309/13/02 11:40:31  5-MIN KMSN 131740Z 28004KT 10SM CLR 23/11 A3002 770 44 2000 280/04 RMK AO2
14837KMSN MSN20020913114509309/13/02 11:45:31  5-MIN KMSN 131745Z 27006KT 10SM CLR 23/11 A3002 770 44 2000 270/06 RMK AO2
14837KMSN MSN20020913115012809/13/02 11:50:31  5-MIN KMSN 131750Z 22007KT 10SM CLR 23/11 A3002 770 44 2000 220/07 RMK AO2 SLP163 T02330106 10239 20106 50003
14837KMSN MSN20020913115509309/13/02 11:55:31  5-MIN KMSN 131755Z 22005KT 10SM CLR 23/10 A3002 770 44 1900 220/05 RMK AO2
14837KMSN MSN20020913120009309/13/02 12:00:31  5-MIN KMSN 131800Z 22006KT 10SM CLR 23/10 A3002 780 42 2000 220/06 RMK AO2
14837KMSN MSN20020913120509309/13/02 12:05:31  5-MIN KMSN 131805Z VRB06KT 10SM CLR 23/10 A3002 780 42 2000 VRB/06 RMK AO2
14837KMSN MSN20020913121009309/13/02 12:10:31  5-MIN KMSN 131810Z VRB05KT 10SM CLR 23/11 A3001 780 45 1900 VRB/05 RMK AO2
14837KMSN MSN20020913121509309/13/02 12:15:31  5-MIN KMSN 131815Z 22008KT 10SM CLR 23/10 A3001 780 44 1900 220/08 RMK AO2
14837KMSN MSN20020913122009309/13/02 12:20:31  5-MIN KMSN 131820Z 22007KT 10SM CLR 23/11 A3001 780 45 1900 220/07 RMK AO2
14837KMSN MSN20020913122509309/13/02 12:25:31  5-MIN KMSN 131825Z 19007KT 10SM CLR 23/11 A3001 780 44 2000 190/07 RMK AO2
14837KMSN MSN20020913123010909/13/02 12:30:31  5-MIN KMSN 131830Z 20007KT 170V250 10SM CLR 24/11 A3001 780 44 2000 200/07 170V250 RMK AO2
14837KMSN MSN20020913123509309/13/02 12:35:31  5-MIN KMSN 131835Z 22008KT 10SM CLR 23/11 A3001 780 45 2000 220/08 RMK AO2
14837KMSN MSN20020913124009309/13/02 12:40:31  5-MIN KMSN 131840Z 22006KT 10SM CLR 23/10 A3001 780 44 1900 220/06 RMK AO2
14837KMSN MSN20020913124509309/13/02 12:45:31  5-MIN KMSN 131845Z 20007KT 10SM CLR 23/11 A3001 780 45 1900 200/07 RMK AO2
14837KMSN MSN20020913125011309/13/02 12:50:31  5-MIN KMSN 131850Z 22006KT 10SM FEW100 23/11 A3001 780 45 1900 220/06 RMK AO2 SLP160 T02280106
14837KMSN MSN20020913125509309/13/02 12:55:31  5-MIN KMSN 131855Z 19007KT 10SM CLR 23/10 A3001 780 44 1900 190/07 RMK AO2
14837KMSN MSN20020913130009309/13/02 13:00:31  5-MIN KMSN 131900Z 22007KT 10SM CLR 23/10 A3001 780 42 2000 220/07 RMK AO2
14837KMSN MSN20020913130509309/13/02 13:05:31  5-MIN KMSN 131905Z 22007KT 10SM CLR 23/10 A3001 780 44 1900 220/07 RMK AO2
14837KMSN MSN20020913131009309/13/02 13:10:31  5-MIN KMSN 131910Z 22007KT 10SM CLR 23/10 A3001 790 44 1900 220/07 RMK AO2
14837KMSN MSN20020913131509309/13/02 13:15:31  5-MIN KMSN 131915Z 23007KT 10SM CLR 23/10 A3001 790 44 1900 230/07 RMK AO2
14837KMSN MSN20020913132009309/13/02 13:20:31  5-MIN KMSN 131920Z 22006KT 10SM CLR 22/10 A3000 790 45 1800 220/06 RMK AO2
14837KMSN MSN20020913132509309/13/02 13:25:31  5-MIN KMSN 131925Z 19008KT 10SM CLR 23/10 A3000 790 44 1900 190/08 RMK AO2
14837KMSN MSN20020913133009309/13/02 13:30:31  5-MIN KMSN 131930Z 21006KT 10SM CLR 23/10 A3000 790 44 1900 210/06 RMK AO2
14837KMSN MSN20020913133510909/13/02 13:35:31  5-MIN KMSN 131935Z 22007KT 200V300 10SM CLR 22/10 A3000 790 45 1900 220/07 200V300 RMK AO2
14837KMSN MSN20020913134009309/13/02 13:40:31  5-MIN KMSN 131940Z VRB05KT 10SM CLR 22/10 A3000 790 45 1900 VRB/05 RMK AO2
14837KMSN MSN20020913134509309/13/02 13:45:31  5-MIN KMSN 131945Z 26006KT 10SM CLR 22/10 A3000 790 45 1900 260/06 RMK AO2
14837KMSN MSN20020913135011009/13/02 13:50:31  5-MIN KMSN 131950Z VRB06KT 10SM CLR 22/10 A3000 790 47 1800 VRB/06 RMK AO2 SLP157 T02170100
14837KMSN MSN20020913135509309/13/02 13:55:31  5-MIN KMSN 131955Z 22006KT 10SM CLR 22/11 A2999 800 49 1800 220/06 RMK AO2
14837KMSN MSN20020913140009309/13/02 14:00:31  5-MIN KMSN 132000Z 22005KT 10SM CLR 22/11 A3000 800 47 1900 210/05 RMK AO2
14837KMSN MSN20020913140509309/13/02 14:05:31  5-MIN KMSN 132005Z VRB04KT 10SM CLR 23/11 A2999 800 45 2000 VRB/04 RMK AO2
14837KMSN MSN20020913141009309/13/02 14:10:31  5-MIN KMSN 132010Z 22007KT 10SM CLR 23/11 A2999 800 45 2000 220/07 RMK AO2
14837KMSN MSN20020913141509309/13/02 14:15:31  5-MIN KMSN 132015Z 19008KT 10SM CLR 23/10 A2999 800 44 1900 190/08 RMK AO2
14837KMSN MSN20020913142009309/13/02 14:20:31  5-MIN KMSN 132020Z 20007KT 10SM CLR 23/11 A2999 800 45 1900 200/07 RMK AO2
14837KMSN MSN20020913142509309/13/02 14:25:31  5-MIN KMSN 132025Z 26005KT 10SM CLR 23/11 A2999 800 44 2000 260/05 RMK AO2
14837KMSN MSN20020913143009309/13/02 14:30:31  5-MIN KMSN 132030Z 19005KT 10SM CLR 23/11 A2999 800 44 2000 190/05 RMK AO2
14837KMSN MSN20020913143509309/13/02 14:35:31  5-MIN KMSN 132035Z 23008KT 10SM CLR 23/10 A2999 800 44 1900 230/08 RMK AO2
14837KMSN MSN20020913144009309/13/02 14:40:31  5-MIN KMSN 132040Z 21005KT 10SM CLR 23/11 A2999 800 45 1900 210/05 RMK AO2
14837KMSN MSN20020913144509309/13/02 14:45:31  5-MIN KMSN 132045Z VRB06KT 10SM CLR 22/10 A2998 810 45 1900 VRB/06 RMK AO2
14837KMSN MSN20020913145011609/13/02 14:50:31  5-MIN KMSN 132050Z 23004KT 10SM CLR 22/11 A2998 810 47 1900 230/04 RMK AO2 SLP152 T02220106 56012
14837KMSN MSN20020913145509309/13/02 14:55:31  5-MIN KMSN 132055Z 21006KT 10SM CLR 23/10 A2998 810 44 1900 210/06 RMK AO2
14837KMSN MSN20020913150009609/13/02 15:00:31  5-MIN KMSN 132100Z 20006KT 10SM FEW110 23/10 A2998 810 42 2000 200/06 RMK AO2
14837KMSN MSN20020913150509609/13/02 15:05:31  5-MIN KMSN 132105Z 20005KT 10SM FEW110 22/10 A2998 810 45 1900 200/05 RMK AO2
14837KMSN MSN20020913151009609/13/02 15:10:31  5-MIN KMSN 132110Z 23004KT 10SM FEW110 23/11 A2998 810 45 1900 230/04 RMK AO2
14837KMSN MSN20020913151509609/13/02 15:15:31  5-MIN KMSN 132115Z 20008KT 10SM FEW110 23/11 A2998 810 47 1900 200/08 RMK AO2
14837KMSN MSN20020913152009609/13/02 15:20:31  5-MIN KMSN 132120Z 24006KT 10SM FEW110 23/11 A2998 810 45 1900 240/06 RMK AO2
14837KMSN MSN20020913152509609/13/02 15:25:31  5-MIN KMSN 132125Z 21006KT 10SM FEW110 22/11 A2998 810 49 1900 210/06 RMK AO2
14837KMSN MSN20020913153009609/13/02 15:30:31  5-MIN KMSN 132130Z VRB04KT 10SM FEW110 22/11 A2998 810 49 1900 VRB/04 RMK AO2
14837KMSN MSN20020913153509609/13/02 15:35:31  5-MIN KMSN 132135Z 22004KT 10SM FEW110 22/11 A2998 810 49 1900 220/04 RMK AO2
14837KMSN MSN20020913154011209/13/02 15:40:31  5-MIN KMSN 132140Z 23007KT 190V260 10SM FEW110 23/11 A2998 810 47 1900 220/07 190V260 RMK AO2
14837KMSN MSN20020913154509609/13/02 15:45:31  5-MIN KMSN 132145Z 22008KT 10SM FEW110 23/10 A2998 810 44 1900 220/08 RMK AO2
14837KMSN MSN20020913155011309/13/02 15:50:31  5-MIN KMSN 132150Z 23006KT 10SM FEW110 23/11 A2997 810 45 1900 230/06 RMK AO2 SLP149 T02280106
14837KMSN MSN20020913155509309/13/02 15:55:31  5-MIN KMSN 132155Z 20005KT 10SM CLR 23/11 A2997 810 45 1900 200/05 RMK AO2
14837KMSN MSN20020913160009309/13/02 16:00:31  5-MIN KMSN 132200Z VRB06KT 10SM CLR 23/11 A2997 820 44 2000 VRB/06 RMK AO2
14837KMSN MSN20020913160509309/13/02 16:05:31  5-MIN KMSN 132205Z 22005KT 10SM CLR 22/10 A2997 820 45 1900 220/05 RMK AO2
14837KMSN MSN20020913161009309/13/02 16:10:31  5-MIN KMSN 132210Z 24005KT 10SM CLR 22/10 A2997 820 47 1800 240/05 RMK AO2
14837KMSN MSN20020913161509609/13/02 16:15:31  5-MIN KMSN 132215Z 23005KT 10SM FEW110 22/10 A2997 820 47 1800 230/05 RMK AO2
14837KMSN MSN20020913162009609/13/02 16:20:31  5-MIN KMSN 132220Z 23003KT 10SM FEW110 22/11 A2997 820 49 1800 230/03 RMK AO2
14837KMSN MSN20020913162509609/13/02 16:25:31  5-MIN KMSN 132225Z 23003KT 10SM FEW110 22/11 A2997 820 49 1800 230/03 RMK AO2
14837KMSN MSN20020913163009609/13/02 16:30:31  5-MIN KMSN 132230Z 00000KT 10SM FEW110 22/11 A2997 820 50 1800 000/00 RMK AO2
14837KMSN MSN20020913163509609/13/02 16:35:31  5-MIN KMSN 132235Z 26003KT 10SM FEW110 22/12 A2997 820 51 1900 260/03 RMK AO2
14837KMSN MSN20020913164009609/13/02 16:40:31  5-MIN KMSN 132240Z 00000KT 10SM FEW110 22/12 A2997 820 51 1900 000/00 RMK AO2
14837KMSN MSN20020913164509609/13/02 16:45:31  5-MIN KMSN 132245Z 00000KT 10SM FEW110 23/11 A2997 820 45 2000 000/00 RMK AO2
14837KMSN MSN20020913165011309/13/02 16:50:31  5-MIN KMSN 132250Z 00000KT 10SM FEW110 23/11 A2996 820 47 2000 000/00 RMK AO2 SLP146 T02280111
14837KMSN MSN20020913165509309/13/02 16:55:31  5-MIN KMSN 132255Z 00000KT 10SM CLR 22/11 A2996 820 49 1900 000/00 RMK AO2
14837KMSN MSN20020913170009609/13/02 17:00:31  5-MIN KMSN 132300Z VRB03KT 10SM FEW110 22/11 A2996 830 49 1900 VRB/03 RMK AO2
14837KMSN MSN20020913170509609/13/02 17:05:31  5-MIN KMSN 132305Z 21003KT 10SM FEW110 22/11 A2996 830 50 1800 210/03 RMK AO2
14837KMSN MSN20020913171009609/13/02 17:10:31  5-MIN KMSN 132310Z 00000KT 10SM FEW110 22/11 A2996 830 50 1800 000/00 RMK AO2
14837KMSN MSN20020913171509609/13/02 17:15:31  5-MIN KMSN 132315Z 00000KT 10SM FEW110 21/12 A2996 830 58 1700 000/00 RMK AO2
14837KMSN MSN20020913172009609/13/02 17:20:31  5-MIN KMSN 132320Z 00000KT 10SM FEW110 21/12 A2996 830 56 1700 000/00 RMK AO2
14837KMSN MSN20020913172509609/13/02 17:25:31  5-MIN KMSN 132325Z 00000KT 10SM FEW110 20/12 A2996 830 60 1600 000/00 RMK AO2
14837KMSN MSN20020913173009609/13/02 17:30:31  5-MIN KMSN 132330Z 21003KT 10SM FEW110 20/12 A2996 830 60 1600 210/03 RMK AO2
14837KMSN MSN20020913173509609/13/02 17:35:31  5-MIN KMSN 132335Z VRB03KT 10SM FEW110 20/12 A2996 830 58 1600 VRB/03 RMK AO2
14837KMSN MSN20020913174009609/13/02 17:40:31  5-MIN KMSN 132340Z 19003KT 10SM FEW110 20/12 A2995 830 58 1600 190/03 RMK AO2
14837KMSN MSN20020913174509609/13/02 17:45:31  5-MIN KMSN 132345Z 00000KT 10SM FEW110 18/12 A2995 830 67 1500 000/00 RMK AO2
14837KMSN MSN20020913175013109/13/02 17:50:31  5-MIN KMSN 132350Z 00000KT 10SM FEW110 18/13 A2995 830 70 1500 000/00 RMK AO2 SLP143 T01830128 10239 20183 58013
14837KMSN MSN20020913175509309/13/02 17:55:31  5-MIN KMSN 132355Z 00000KT 10SM CLR 18/13 A2995 840 75 1400 000/00 RMK AO2
14837KMSN MSN20020913180009309/13/02 18:00:31  5-MIN KMSN 140000Z 00000KT 10SM CLR 17/13 A2995 840 75 1300 000/00 RMK AO2
14837KMSN MSN20020913180509309/13/02 18:05:31  5-MIN KMSN 140005Z 00000KT 10SM CLR 17/13 A2995 840 75 1300 000/00 RMK AO2
14837KMSN MSN20020913181009309/13/02 18:10:31  5-MIN KMSN 140010Z 21003KT 10SM CLR 17/13 A2995 840 75 1300 210/03 RMK AO2
14837KMSN MSN20020913181509309/13/02 18:15:31  5-MIN KMSN 140015Z 00000KT 10SM CLR 17/13 A2995 840 80 1300 000/00 RMK AO2
14837KMSN MSN20020913182009309/13/02 18:20:31  5-MIN KMSN 140020Z 00000KT 10SM CLR 17/12 A2995 840 75 1300 000/00 RMK AO2
14837KMSN MSN20020913182509309/13/02 18:25:31  5-MIN KMSN 140025Z 00000KT 10SM CLR 16/13 A2995 840 80 1200 000/00 RMK AO2
14837KMSN MSN20020913183009609/13/02 18:30:31  5-MIN KMSN 140030Z 00000KT 10SM FEW110 16/13 A2995 840 80 1200 000/00 RMK AO2
14837KMSN MSN20020913183509609/13/02 18:35:31  5-MIN KMSN 140035Z 00000KT 10SM FEW110 16/13 A2995 840 80 1200 000/00 RMK AO2
14837KMSN MSN20020913184009609/13/02 18:40:31  5-MIN KMSN 140040Z 00000KT 10SM FEW110 16/13 A2995 840 80 1200 000/00 RMK AO2
14837KMSN MSN20020913184509609/13/02 18:45:31  5-MIN KMSN 140045Z 00000KT 10SM FEW110 16/13 A2995 840 80 1200 000/00 RMK AO2
14837KMSN MSN20020913185011309/13/02 18:50:31  5-MIN KMSN 140050Z 00000KT 10SM FEW110 16/13 A2995 840 80 1200 000/00 RMK AO2 SLP140 T01610128
14837KMSN MSN20020913185509609/13/02 18:55:31  5-MIN KMSN 140055Z 00000KT 10SM FEW110 16/13 A2995 840 80 1200 000/00 RMK AO2
14837KMSN MSN20020913190009609/13/02 19:00:31  5-MIN KMSN 140100Z 00000KT 10SM FEW110 16/13 A2995 840 80 1200 000/00 RMK AO2
14837KMSN MSN20020913190509609/13/02 19:05:31  5-MIN KMSN 140105Z 00000KT 10SM FEW110 16/12 A2995 840 77 1200 000/00 RMK AO2
14837KMSN MSN20020913191009609/13/02 19:10:31  5-MIN KMSN 140110Z 00000KT 10SM FEW110 16/12 A2995 840 77 1200 000/00 RMK AO2
14837KMSN MSN20020913191509609/13/02 19:15:31  5-MIN KMSN 140115Z 00000KT 10SM FEW110 16/12 A2995 840 80 1100 000/00 RMK AO2
14837KMSN MSN20020913192009609/13/02 19:20:31  5-MIN KMSN 140120Z 00000KT 10SM FEW110 15/12 A2995 840 83 1100 000/00 RMK AO2
14837KMSN MSN20020913192509609/13/02 19:25:31  5-MIN KMSN 140125Z 00000KT 10SM FEW110 15/12 A2995 840 83 1100 000/00 RMK AO2
14837KMSN MSN20020913193009609/13/02 19:30:31  5-MIN KMSN 140130Z 00000KT 10SM FEW110 15/12 A2995 840 83 1100 000/00 RMK AO2
14837KMSN MSN20020913193509609/13/02 19:35:31  5-MIN KMSN 140135Z 00000KT 10SM FEW110 15/12 A2995 840 83 1100 000/00 RMK AO2
14837KMSN MSN20020913194009609/13/02 19:40:31  5-MIN KMSN 140140Z 00000KT 10SM FEW110 14/12 A2995 840 83 1000 000/00 RMK AO2
14837KMSN MSN20020913194509509/13/02 19:45:31  5-MIN KMSN 140145Z 00000KT 10SM FEW110 14/12 A2995 840 90 900 000/00 RMK AO2
14837KMSN MSN20020913195011309/13/02 19:50:31  5-MIN KMSN 140150Z 00000KT 10SM FEW110 14/12 A2995 840 86 1000 000/00 RMK AO2 SLP140 T01440122
14837KMSN MSN20020913195509309/13/02 19:55:31  5-MIN KMSN 140155Z 00000KT 10SM CLR 14/12 A2995 840 83 1000 000/00 RMK AO2
14837KMSN MSN20020913200009309/13/02 20:00:31  5-MIN KMSN 140200Z 00000KT 10SM CLR 15/12 A2995 840 80 1100 000/00 RMK AO2
14837KMSN MSN20020913200509309/13/02 20:05:31  5-MIN KMSN 140205Z 00000KT 10SM CLR 14/12 A2995 840 86 1000 000/00 RMK AO2
14837KMSN MSN20020913201009309/13/02 20:10:31  5-MIN KMSN 140210Z 00000KT 10SM CLR 14/12 A2995 840 83 1000 000/00 RMK AO2
14837KMSN MSN20020913201509309/13/02 20:15:31  5-MIN KMSN 140215Z 00000KT 10SM CLR 14/12 A2995 840 83 1000 000/00 RMK AO2
14837KMSN MSN20020913202009309/13/02 20:20:31  5-MIN KMSN 140220Z 00000KT 10SM CLR 14/12 A2995 840 83 1000 000/00 RMK AO2
14837KMSN MSN20020913202509309/13/02 20:25:31  5-MIN KMSN 140225Z 00000KT 10SM CLR 14/12 A2994 840 83 1000 000/00 RMK AO2
14837KMSN MSN20020913203009309/13/02 20:30:31  5-MIN KMSN 140230Z 00000KT 10SM CLR 14/12 A2994 840 86 1000 000/00 RMK AO2
14837KMSN MSN20020913203509209/13/02 20:35:31  5-MIN KMSN 140235Z 00000KT 10SM CLR 14/12 A2994 840 90 900 000/00 RMK AO2
14837KMSN MSN20020913204009209/13/02 20:40:31  5-MIN KMSN 140240Z 00000KT 10SM CLR 14/12 A2994 840 86 900 000/00 RMK AO2
14837KMSN MSN20020913204509309/13/02 20:45:31  5-MIN KMSN 140245Z 00000KT 10SM CLR 14/12 A2994 840 86 1000 000/00 RMK AO2
14837KMSN MSN20020913205011909/13/02 20:50:31  5-MIN KMSN 140250Z 00000KT 10SM FEW120 14/12 A2994 840 86 1000 000/00 RMK AO2 SLP138 T01390117 58010
14837KMSN MSN20020913205509509/13/02 20:55:31  5-MIN KMSN 140255Z 00000KT 10SM SCT120 14/12 A2994 840 86 900 000/00 RMK AO2
14837KMSN MSN20020913210009609/13/02 21:00:31  5-MIN KMSN 140300Z 00000KT 10SM SCT120 14/12 A2994 840 86 1000 000/00 RMK AO2
14837KMSN MSN20020913210509609/13/02 21:05:31  5-MIN KMSN 140305Z 00000KT 10SM SCT120 14/12 A2994 840 86 1000 000/00 RMK AO2
14837KMSN MSN20020913211009509/13/02 21:10:31  5-MIN KMSN 140310Z 00000KT 10SM BKN120 14/12 A2994 840 90 900 000/00 RMK AO2
14837KMSN MSN20020913211509609/13/02 21:15:31  5-MIN KMSN 140315Z 00000KT 10SM BKN120 14/12 A2995 840 86 1000 000/00 RMK AO2
14837KMSN MSN20020913212009609/13/02 21:20:31  5-MIN KMSN 140320Z 00000KT 10SM BKN120 15/12 A2994 840 83 1100 000/00 RMK AO2
14837KMSN MSN20020913212509609/13/02 21:25:31  5-MIN KMSN 140325Z 00000KT 10SM BKN120 15/12 A2995 840 83 1100 000/00 RMK AO2
14837KMSN MSN20020913213009609/13/02 21:30:31  5-MIN KMSN 140330Z 00000KT 10SM BKN120 14/12 A2994 840 86 1000 000/00 RMK AO2
14837KMSN MSN20020913213509609/13/02 21:35:31  5-MIN KMSN 140335Z 00000KT 10SM SCT120 15/11 A2995 840 77 1100 000/00 RMK AO2
14837KMSN MSN20020913214009609/13/02 21:40:31  5-MIN KMSN 140340Z 00000KT 10SM SCT120 15/12 A2995 840 80 1100 000/00 RMK AO2
14837KMSN MSN20020913214509609/13/02 21:45:31  5-MIN KMSN 140345Z 16004KT 10SM FEW120 16/11 A2994 840 72 1200 160/04 RMK AO2
14837KMSN MSN20020913215011309/13/02 21:50:31  5-MIN KMSN 140350Z 16004KT 10SM FEW110 17/11 A2994 840 67 1300 160/04 RMK AO2 SLP136 T01720111
14837KMSN MSN20020913215509309/13/02 21:55:31  5-MIN KMSN 140355Z 17004KT 10SM CLR 18/11 A2994 850 64 1400 170/04 RMK AO2
14837KMSN MSN20020913220009609/13/02 22:00:31  5-MIN KMSN 140400Z 17003KT 10SM FEW120 18/11 A2994 850 60 1500 170/03 RMK AO2
14837KMSN MSN20020913220509609/13/02 22:05:31  5-MIN KMSN 140405Z 17005KT 10SM FEW120 18/11 A2994 850 60 1500 160/05 RMK AO2
14837KMSN MSN20020913221009609/13/02 22:10:31  5-MIN KMSN 140410Z 17005KT 10SM SCT120 18/11 A2994 850 64 1400 170/05 RMK AO2
14837KMSN MSN20020913221509609/13/02 22:15:31  5-MIN KMSN 140415Z 17005KT 10SM SCT120 18/11 A2994 850 62 1500 170/05 RMK AO2
14837KMSN MSN20020913222009609/13/02 22:20:31  5-MIN KMSN 140420Z 18005KT 10SM SCT120 18/11 A2993 850 62 1500 180/05 RMK AO2
14837KMSN MSN20020913222509609/13/02 22:25:31  5-MIN KMSN 140425Z 18005KT 10SM SCT120 18/11 A2993 850 62 1500 180/05 RMK AO2
14837KMSN MSN20020913223009609/13/02 22:30:31  5-MIN KMSN 140430Z 18004KT 10SM BKN110 18/11 A2993 850 62 1500 170/04 RMK AO2
14837KMSN MSN20020913223509609/13/02 22:35:31  5-MIN KMSN 140435Z 18005KT 10SM BKN110 18/12 A2993 850 65 1500 180/05 RMK AO2
14837KMSN MSN20020913224009609/13/02 22:40:31  5-MIN KMSN 140440Z 17004KT 10SM BKN110 18/12 A2993 860 65 1500 170/04 RMK AO2
14837KMSN MSN20020913224509609/13/02 22:45:31  5-MIN KMSN 140445Z 17005KT 10SM BKN110 18/12 A2992 860 65 1500 170/05 RMK AO2
14837KMSN MSN20020913225011309/13/02 22:50:31  5-MIN KMSN 140450Z 17005KT 10SM BKN110 18/12 A2992 860 65 1500 170/05 RMK AO2 SLP129 T01830117
14837KMSN MSN20020913225509609/13/02 22:55:31  5-MIN KMSN 140455Z 16005KT 10SM BKN110 18/12 A2992 870 65 1500 160/05 RMK AO2
14837KMSN MSN20020913230009609/13/02 23:00:31  5-MIN KMSN 140500Z 16008KT 10SM BKN110 18/12 A2992 870 67 1400 160/08 RMK AO2
14837KMSN MSN20020913230509609/13/02 23:05:31  5-MIN KMSN 140505Z 16007KT 10SM SCT110 18/11 A2992 870 62 1500 160/07 RMK AO2
14837KMSN MSN20020913231009609/13/02 23:10:31  5-MIN KMSN 140510Z 16008KT 10SM SCT110 18/11 A2991 870 62 1500 150/08 RMK AO2
14837KMSN MSN20020913231509609/13/02 23:15:31  5-MIN KMSN 140515Z 16007KT 10SM FEW110 18/11 A2991 870 62 1500 160/07 RMK AO2
14837KMSN MSN20020913232009309/13/02 23:20:31  5-MIN KMSN 140520Z 16007KT 10SM CLR 18/11 A2991 880 62 1500 160/07 RMK AO2
14837KMSN MSN20020913232509309/13/02 23:25:31  5-MIN KMSN 140525Z 16006KT 10SM CLR 18/11 A2991 880 64 1400 160/06 RMK AO2
14837KMSN MSN20020913233009309/13/02 23:30:31  5-MIN KMSN 140530Z 17007KT 10SM CLR 18/11 A2990 880 62 1500 160/07 RMK AO2
14837KMSN MSN20020913233509309/13/02 23:35:31  5-MIN KMSN 140535Z 17007KT 10SM CLR 18/11 A2990 880 62 1500 170/07 RMK AO2
14837KMSN MSN20020913234009309/13/02 23:40:31  5-MIN KMSN 140540Z 18006KT 10SM CLR 18/11 A2991 880 62 1500 170/06 RMK AO2
14837KMSN MSN20020913234509609/13/02 23:45:31  5-MIN KMSN 140545Z 18006KT 10SM FEW110 18/11 A2991 880 62 1500 180/06 RMK AO2
14837KMSN MSN20020913235014109/13/02 23:50:31  5-MIN KMSN 140550Z 17005KT 10SM FEW110 18/11 A2991 880 62 1500 170/05 RMK AO2 SLP123 T01830111 10183 20139 402390100 58003
14837KMSN MSN20020913235509609/13/02 23:55:31  5-MIN KMSN 140555Z 17005KT 10SM FEW110 18/11 A2991 880 64 1400 170/05 RMK AO2
14837KMSN MSN20020914000009609/14/02 00:00:31  5-MIN KMSN 140600Z 17004KT 10SM FEW110 18/11 A2991 880 62 1500 170/04 RMK AO2
14837KMSN MSN20020914000509609/14/02 00:05:31  5-MIN KMSN 140605Z 17004KT 10SM FEW110 18/11 A2991 880 62 1500 160/04 RMK AO2
14837KMSN MSN20020914001009609/14/02 00:10:31  5-MIN KMSN 140610Z 16003KT 10SM FEW110 18/12 A2990 880 67 1400 160/03 RMK AO2
14837KMSN MSN20020914001509609/14/02 00:15:31  5-MIN KMSN 140615Z 17004KT 10SM FEW110 17/12 A2990 880 69 1400 160/04 RMK AO2
14837KMSN MSN20020914002009609/14/02 00:20:31  5-MIN KMSN 140620Z 16004KT 10SM FEW110 18/12 A2991 880 67 1400 160/04 RMK AO2
14837KMSN MSN20020914002509609/14/02 00:25:31  5-MIN KMSN 140625Z 16004KT 10SM FEW110 18/12 A2991 880 67 1400 160/04 RMK AO2
14837KMSN MSN20020914003009609/14/02 00:30:31  5-MIN KMSN 140630Z 16004KT 10SM FEW110 18/12 A2991 880 67 1400 160/04 RMK AO2
14837KMSN MSN20020914003509609/14/02 00:35:31  5-MIN KMSN 140635Z 18003KT 10SM FEW110 18/12 A2991 880 69 1400 170/03 RMK AO2
14837KMSN MSN20020914004009609/14/02 00:40:31  5-MIN KMSN 140640Z 17004KT 10SM FEW110 18/12 A2991 880 69 1400 170/04 RMK AO2
14837KMSN MSN20020914004509609/14/02 00:45:31  5-MIN KMSN 140645Z 17003KT 10SM FEW110 17/12 A2991 870 72 1400 170/03 RMK AO2
14837KMSN MSN20020914005011309/14/02 00:50:31  5-MIN KMSN 140650Z 17004KT 10SM FEW110 17/12 A2991 870 72 1400 160/04 RMK AO2 SLP125 T01720122
14837KMSN MSN20020914005509609/14/02 00:55:31  5-MIN KMSN 140655Z 17004KT 10SM BKN110 18/12 A2991 870 69 1400 170/04 RMK AO2
14837KMSN MSN20020914010009609/14/02 01:00:31  5-MIN KMSN 140700Z 17004KT 10SM BKN110 18/12 A2991 880 69 1400 170/04 RMK AO2
14837KMSN MSN20020914010509609/14/02 01:05:31  5-MIN KMSN 140705Z 17005KT 10SM BKN110 18/12 A2991 880 69 1400 170/05 RMK AO2
14837KMSN MSN20020914011009609/14/02 01:10:31  5-MIN KMSN 140710Z 17005KT 10SM BKN100 18/12 A2991 880 69 1400 170/05 RMK AO2
14837KMSN MSN20020914011509609/14/02 01:15:31  5-MIN KMSN 140715Z 17005KT 10SM BKN110 18/12 A2991 880 69 1400 170/05 RMK AO2
14837KMSN MSN20020914012009609/14/02 01:20:31  5-MIN KMSN 140720Z 17005KT 10SM BKN110 18/12 A2991 880 69 1400 170/05 RMK AO2
14837KMSN MSN20020914012509609/14/02 01:25:31  5-MIN KMSN 140725Z 18006KT 10SM BKN110 18/12 A2991 870 65 1500 180/06 RMK AO2
14837KMSN MSN20020914013009609/14/02 01:30:31  5-MIN KMSN 140730Z 18006KT 10SM BKN110 18/12 A2991 880 65 1500 180/06 RMK AO2
14837KMSN MSN20020914013509609/14/02 01:35:31  5-MIN KMSN 140735Z 18006KT 10SM BKN120 18/12 A2991 870 65 1500 180/06 RMK AO2
14837KMSN MSN20020914014009609/14/02 01:40:31  5-MIN KMSN 140740Z 17006KT 10SM BKN120 18/12 A2991 870 67 1400 170/06 RMK AO2
14837KMSN MSN20020914014509609/14/02 01:45:31  5-MIN KMSN 140745Z 18005KT 10SM BKN120 18/12 A2991 870 67 1400 180/05 RMK AO2
14837KMSN MSN20020914015011309/14/02 01:50:31  5-MIN KMSN 140750Z 18005KT 10SM BKN120 18/12 A2991 880 67 1400 170/05 RMK AO2 SLP124 T01780117
14837KMSN MSN20020914015509609/14/02 01:55:31  5-MIN KMSN 140755Z 17005KT 10SM BKN120 17/12 A2991 880 69 1400 170/05 RMK AO2
14837KMSN MSN20020914020009609/14/02 02:00:31  5-MIN KMSN 140800Z 16005KT 10SM SCT120 17/12 A2990 880 69 1400 160/05 RMK AO2
14837KMSN MSN20020914020509609/14/02 02:05:31  5-MIN KMSN 140805Z 16005KT 10SM SCT120 17/12 A2990 880 69 1400 160/05 RMK AO2
14837KMSN MSN20020914021009609/14/02 02:10:31  5-MIN KMSN 140810Z 16005KT 10SM SCT120 17/12 A2990 880 72 1300 160/05 RMK AO2
14837KMSN MSN20020914021509609/14/02 02:15:31  5-MIN KMSN 140815Z 16006KT 10SM FEW120 17/12 A2990 880 69 1400 160/06 RMK AO2
14837KMSN MSN20020914022009609/14/02 02:20:31  5-MIN KMSN 140820Z 16006KT 10SM FEW120 17/12 A2990 880 69 1400 160/06 RMK AO2
14837KMSN MSN20020914022509609/14/02 02:25:31  5-MIN KMSN 140825Z 17005KT 10SM SCT120 17/12 A2990 880 69 1400 160/05 RMK AO2
14837KMSN MSN20020914023009609/14/02 02:30:31  5-MIN KMSN 140830Z 17004KT 10SM BKN120 17/12 A2990 880 69 1400 160/04 RMK AO2
14837KMSN MSN20020914023509609/14/02 02:35:31  5-MIN KMSN 140835Z 17004KT 10SM BKN120 18/12 A2990 880 67 1500 170/04 RMK AO2
14837KMSN MSN20020914024009609/14/02 02:40:31  5-MIN KMSN 140840Z 16004KT 10SM BKN120 18/12 A2990 880 67 1500 160/04 RMK AO2
14837KMSN MSN20020914024509609/14/02 02:45:31  5-MIN KMSN 140845Z 16004KT 10SM OVC120 17/12 A2990 880 69 1400 160/04 RMK AO2
14837KMSN MSN20020914025011909/14/02 02:50:31  5-MIN KMSN 140850Z 16004KT 10SM BKN120 17/12 A2990 880 69 1400 160/04 RMK AO2 SLP121 T01720117 58012
14837KMSN MSN20020914025509609/14/02 02:55:31  5-MIN KMSN 140855Z 15004KT 10SM BKN120 17/12 A2990 890 69 1400 150/04 RMK AO2
14837KMSN MSN20020914030009609/14/02 03:00:31  5-MIN KMSN 140900Z 15005KT 10SM BKN120 17/12 A2990 890 69 1400 150/05 RMK AO2
14837KMSN MSN20020914030509609/14/02 03:05:31  5-MIN KMSN 140905Z 16004KT 10SM BKN120 17/12 A2990 890 69 1400 160/04 RMK AO2
14837KMSN MSN20020914031009609/14/02 03:10:31  5-MIN KMSN 140910Z 16004KT 10SM BKN120 17/12 A2990 890 72 1300 160/04 RMK AO2
14837KMSN MSN20020914031509609/14/02 03:15:31  5-MIN KMSN 140915Z 16004KT 10SM SCT120 17/12 A2990 890 72 1300 160/04 RMK AO2
14837KMSN MSN20020914032009609/14/02 03:20:31  5-MIN KMSN 140920Z 00000KT 10SM BKN120 17/12 A2990 890 72 1300 000/00 RMK AO2
14837KMSN MSN20020914032509609/14/02 03:25:31  5-MIN KMSN 140925Z 17004KT 10SM BKN120 17/12 A2989 890 72 1300 170/04 RMK AO2
14837KMSN MSN20020914033009609/14/02 03:30:31  5-MIN KMSN 140930Z 18003KT 10SM BKN120 17/11 A2990 890 67 1400 180/03 RMK AO2
14837KMSN MSN20020914033509609/14/02 03:35:31  5-MIN KMSN 140935Z VRB04KT 10SM BKN120 17/11 A2989 890 67 1400 VRB/04 RMK AO2
14837KMSN MSN20020914034009609/14/02 03:40:31  5-MIN KMSN 140940Z 17004KT 10SM SCT120 17/12 A2989 890 72 1300 170/04 RMK AO2
14837KMSN MSN20020914034509609/14/02 03:45:31  5-MIN KMSN 140945Z 18004KT 10SM SCT120 18/11 A2989 890 64 1500 180/04 RMK AO2
14837KMSN MSN20020914035011309/14/02 03:50:31  5-MIN KMSN 140950Z 17003KT 10SM BKN120 18/11 A2989 890 64 1500 170/03 RMK AO2 SLP119 T01780111
14837KMSN MSN20020914035509609/14/02 03:55:31  5-MIN KMSN 140955Z 17004KT 10SM SCT120 18/11 A2989 890 64 1500 170/04 RMK AO2
14837KMSN MSN20020914040009609/14/02 04:00:31  5-MIN KMSN 141000Z VRB03KT 10SM SCT120 17/11 A2989 890 67 1400 VRB/03 RMK AO2
14837KMSN MSN20020914040509609/14/02 04:05:31  5-MIN KMSN 141005Z 19003KT 10SM BKN110 17/11 A2989 890 67 1400 190/03 RMK AO2
14837KMSN MSN20020914041009609/14/02 04:10:31  5-MIN KMSN 141010Z 00000KT 10SM BKN110 17/11 A2989 890 67 1400 000/00 RMK AO2
14837KMSN MSN20020914041509609/14/02 04:15:31  5-MIN KMSN 141015Z 00000KT 10SM BKN110 17/11 A2989 890 67 1400 000/00 RMK AO2
14837KMSN MSN20020914042009609/14/02 04:20:31  5-MIN KMSN 141020Z 00000KT 10SM BKN110 17/12 A2989 890 72 1300 000/00 RMK AO2
14837KMSN MSN20020914042509609/14/02 04:25:31  5-MIN KMSN 141025Z 00000KT 10SM OVC110 17/11 A2989 890 67 1400 000/00 RMK AO2
14837KMSN MSN20020914043009609/14/02 04:30:31  5-MIN KMSN 141030Z 00000KT 10SM OVC110 17/12 A2989 890 69 1400 000/00 RMK AO2
14837KMSN MSN20020914043509609/14/02 04:35:31  5-MIN KMSN 141035Z 16004KT 10SM OVC110 17/11 A2989 890 67 1400 160/04 RMK AO2
14837KMSN MSN20020914044009609/14/02 04:40:31  5-MIN KMSN 141040Z 16004KT 10SM OVC110 17/12 A2989 890 72 1300 150/04 RMK AO2
14837KMSN MSN20020914044509609/14/02 04:45:31  5-MIN KMSN 141045Z 17004KT 10SM OVC110 17/12 A2989 890 72 1300 160/04 RMK AO2
14837KMSN MSN20020914045011309/14/02 04:50:31  5-MIN KMSN 141050Z 16003KT 10SM BKN110 17/12 A2989 890 69 1400 160/03 RMK AO2 SLP120 T01720117
14837KMSN MSN20020914045509609/14/02 04:55:31  5-MIN KMSN 141055Z 17003KT 10SM OVC110 17/11 A2990 890 67 1400 170/03 RMK AO2
14837KMSN MSN20020914050009609/14/02 05:00:31  5-MIN KMSN 141100Z 16004KT 10SM OVC110 17/11 A2990 890 69 1300 160/04 RMK AO2
14837KMSN MSN20020914050509609/14/02 05:05:31  5-MIN KMSN 141105Z 16004KT 10SM OVC100 17/11 A2989 890 67 1400 160/04 RMK AO2
14837KMSN MSN20020914051009609/14/02 05:10:31  5-MIN KMSN 141110Z 16003KT 10SM OVC100 17/11 A2990 890 67 1400 160/03 RMK AO2
14837KMSN MSN20020914051509609/14/02 05:15:31  5-MIN KMSN 141115Z 00000KT 10SM OVC110 17/11 A2990 890 67 1400 000/00 RMK AO2
14837KMSN MSN20020914052010309/14/02 05:20:31  5-MIN KMSN 141120Z 00000KT 10SM FEW080 OVC110 16/12 A2990 890 75 1300 000/00 RMK AO2
14837KMSN MSN20020914052510309/14/02 05:25:31  5-MIN KMSN 141125Z 19004KT 10SM FEW080 OVC110 17/12 A2990 880 72 1300 180/04 RMK AO2
14837KMSN MSN20020914053010309/14/02 05:30:31  5-MIN KMSN 141130Z 18003KT 10SM FEW080 BKN110 17/11 A2990 880 69 1300 180/03 RMK AO2
14837KMSN MSN20020914053510309/14/02 05:35:31  5-MIN KMSN 141135Z 18004KT 10SM FEW080 BKN110 17/11 A2990 880 67 1400 180/04 RMK AO2
14837KMSN MSN20020914054010309/14/02 05:40:31  5-MIN KMSN 141140Z 17004KT 10SM FEW080 BKN110 17/11 A2990 880 67 1400 170/04 RMK AO2
14837KMSN MSN20020914054510309/14/02 05:45:31  5-MIN KMSN 141145Z 18004KT 10SM BKN080 BKN120 17/11 A2990 880 67 1400 170/04 RMK AO2
14837KMSN MSN20020914055013809/14/02 05:50:31  5-MIN KMSN 141150Z 16004KT 10SM BKN080 BKN120 17/11 A2990 880 67 1400 160/04 RMK AO2 SLP123 T01720111 10183 20161 58002
14837KMSN MSN20020914055509609/14/02 05:55:31  5-MIN KMSN 141155Z 18004KT 10SM BKN080 17/11 A2990 880 67 1400 180/04 RMK AO2
14837KMSN MSN20020914060009609/14/02 06:00:31  5-MIN KMSN 141200Z 19004KT 10SM BKN080 17/11 A2990 880 67 1400 190/04 RMK AO2
14837KMSN MSN20020914060509609/14/02 06:05:31  5-MIN KMSN 141205Z 18005KT 10SM OVC080 17/11 A2990 880 67 1400 180/05 RMK AO2
14837KMSN MSN20020914061009609/14/02 06:10:31  5-MIN KMSN 141210Z 19005KT 10SM BKN080 17/11 A2990 880 67 1400 180/05 RMK AO2
14837KMSN MSN20020914061509609/14/02 06:15:31  5-MIN KMSN 141215Z 18004KT 10SM BKN080 17/11 A2990 880 67 1400 180/04 RMK AO2
14837KMSN MSN20020914062009609/14/02 06:20:31  5-MIN KMSN 141220Z 18005KT 10SM BKN080 17/11 A2990 880 67 1400 180/05 RMK AO2
14837KMSN MSN20020914062509609/14/02 06:25:31  5-MIN KMSN 141225Z VRB05KT 10SM BKN080 17/11 A2990 880 67 1400 VRB/05 RMK AO2
14837KMSN MSN20020914063010309/14/02 06:30:31  5-MIN KMSN 141230Z 17004KT 10SM BKN080 BKN090 17/11 A2990 880 67 1400 170/04 RMK AO2
14837KMSN MSN20020914063510309/14/02 06:35:31  5-MIN KMSN 141235Z 18004KT 10SM BKN080 OVC100 17/11 A2990 880 67 1400 180/04 RMK AO2
14837KMSN MSN20020914064010309/14/02 06:40:31  5-MIN KMSN 141240Z 16004KT 10SM BKN080 OVC100 17/11 A2990 890 67 1400 160/04 RMK AO2
14837KMSN MSN20020914064510309/14/02 06:45:31  5-MIN KMSN 141245Z 20004KT 10SM BKN080 OVC100 17/12 A2990 880 69 1400 200/04 RMK AO2
14837KMSN MSN20020914065012009/14/02 06:50:31  5-MIN KMSN 141250Z 21004KT 10SM BKN085 OVC100 18/11 A2990 880 64 1400 210/04 RMK AO2 SLP125 T01780111
14837KMSN MSN20020914065509609/14/02 06:55:31  5-MIN KMSN 141255Z 18005KT 10SM OVC085 18/11 A2990 880 64 1500 180/05 RMK AO2
14837KMSN MSN20020914070010309/14/02 07:00:31  5-MIN KMSN 141300Z 18005KT 10SM BKN090 OVC100 18/11 A2990 880 62 1500 180/05 RMK AO2
14837KMSN MSN20020914070509609/14/02 07:05:31  5-MIN KMSN 141305Z 18005KT 10SM BKN090 18/11 A2990 880 64 1500 180/05 RMK AO2
14837KMSN MSN20020914071009609/14/02 07:10:31  5-MIN KMSN 141310Z 22004KT 10SM BKN095 18/11 A2990 880 62 1500 220/04 RMK AO2
14837KMSN MSN20020914071509609/14/02 07:15:31  5-MIN KMSN 141315Z VRB04KT 10SM BKN095 18/11 A2990 880 62 1500 VRB/04 RMK AO2
14837KMSN MSN20020914072009609/14/02 07:20:31  5-MIN KMSN 141320Z VRB03KT 10SM BKN095 18/11 A2990 880 62 1500 VRB/03 RMK AO2
14837KMSN MSN20020914072509609/14/02 07:25:31  5-MIN KMSN 141325Z 21005KT 10SM BKN095 19/11 A2990 880 58 1600 200/05 RMK AO2
14837KMSN MSN20020914073009609/14/02 07:30:31  5-MIN KMSN 141330Z 20005KT 10SM BKN095 19/11 A2990 880 58 1600 200/05 RMK AO2
14837KMSN MSN20020914073509609/14/02 07:35:31  5-MIN KMSN 141335Z 18006KT 10SM BKN095 19/11 A2990 890 60 1600 180/06 RMK AO2
14837KMSN MSN20020914074010309/14/02 07:40:31  5-MIN KMSN 141340Z 18007KT 10SM FEW070 BKN095 19/11 A2990 880 58 1600 180/07 RMK AO2
14837KMSN MSN20020914074510309/14/02 07:45:31  5-MIN KMSN 141345Z 19006KT 10SM FEW070 BKN090 19/11 A2990 880 58 1600 180/06 RMK AO2
14837KMSN MSN20020914075012009/14/02 07:50:31  5-MIN KMSN 141350Z VRB05KT 10SM FEW070 SCT090 19/11 A2990 880 58 1600 VRB/05 RMK AO2 SLP123 T01890106
14837KMSN MSN20020914075510309/14/02 07:55:31  5-MIN KMSN 141355Z 22005KT 10SM FEW070 SCT090 19/11 A2990 880 60 1600 210/05 RMK AO2
14837KMSN MSN20020914080009609/14/02 08:00:31  5-MIN KMSN 141400Z 22005KT 10SM BKN075 19/11 A2990 880 58 1600 220/05 RMK AO2
14837KMSN MSN20020914080509609/14/02 08:05:31  5-MIN KMSN 141405Z 20004KT 10SM BKN075 19/11 A2990 880 58 1600 200/04 RMK AO2
14837KMSN MSN20020914081009609/14/02 08:10:31  5-MIN KMSN 141410Z 20004KT 10SM BKN075 19/11 A2990 890 60 1600 200/04 RMK AO2
14837KMSN MSN20020914081509609/14/02 08:15:31  5-MIN KMSN 141415Z 18005KT 10SM SCT075 19/11 A2990 890 60 1600 180/05 RMK AO2
14837KMSN MSN20020914082009609/14/02 08:20:31  5-MIN KMSN 141420Z 17007KT 10SM SCT075 19/11 A2990 890 60 1600 170/07 RMK AO2
14837KMSN MSN20020914082509609/14/02 08:25:31  5-MIN KMSN 141425Z 18005KT 10SM FEW075 19/11 A2990 890 60 1600 180/05 RMK AO2
14837KMSN MSN20020914083009609/14/02 08:30:31  5-MIN KMSN 141430Z 21004KT 10SM FEW075 18/12 A2990 880 65 1500 210/04 RMK AO2
14837KMSN MSN20020914083509309/14/02 08:35:31  5-MIN KMSN 141435Z 21005KT 10SM CLR 18/12 A2991 880 65 1500 210/05 RMK AO2
14837KMSN MSN20020914084009309/14/02 08:40:31  5-MIN KMSN 141440Z 21004KT 10SM CLR 19/12 A2991 880 62 1600 210/04 RMK AO2
14837KMSN MSN20020914084509309/14/02 08:45:31  5-MIN KMSN 141445Z 22003KT 10SM CLR 19/12 A2991 880 62 1600 210/03 RMK AO2
14837KMSN MSN20020914085011909/14/02 08:50:31  5-MIN KMSN 141450Z 21005KT 10SM FEW070 19/11 A2990 880 60 1600 210/05 RMK AO2 SLP125 T01890111 53001
14837KMSN MSN20020914085509309/14/02 08:55:31  5-MIN KMSN 141455Z VRB05KT 10SM CLR 19/11 A2990 880 60 1600 VRB/05 RMK AO2
14837KMSN MSN20020914090009309/14/02 09:00:31  5-MIN KMSN 141500Z 23005KT 10SM CLR 19/11 A2990 880 58 1600 230/05 RMK AO2
14837KMSN MSN20020914090509309/14/02 09:05:31  5-MIN KMSN 141505Z 23004KT 10SM CLR 19/11 A2990 880 60 1600 220/04 RMK AO2
14837KMSN MSN20020914091009309/14/02 09:10:31  5-MIN KMSN 141510Z 22004KT 10SM CLR 19/11 A2990 880 58 1600 220/04 RMK AO2
14837KMSN MSN20020914091509309/14/02 09:15:31  5-MIN KMSN 141515Z 21005KT 10SM CLR 19/11 A2990 880 58 1600 210/05 RMK AO2
14837KMSN MSN20020914092009309/14/02 09:20:31  5-MIN KMSN 141520Z 22005KT 10SM CLR 19/12 A2990 880 60 1600 220/05 RMK AO2
14837KMSN MSN20020914092509309/14/02 09:25:31  5-MIN KMSN 141525Z 20003KT 10SM CLR 19/11 A2990 880 58 1600 200/03 RMK AO2
14837KMSN MSN20020914093009309/14/02 09:30:31  5-MIN KMSN 141530Z 23003KT 10SM CLR 19/12 A2990 880 60 1600 230/03 RMK AO2
14837KMSN MSN20020914093509309/14/02 09:35:31  5-MIN KMSN 141535Z 21004KT 10SM CLR 20/12 A2990 890 58 1700 210/04 RMK AO2
14837KMSN MSN20020914094009309/14/02 09:40:31  5-MIN KMSN 141540Z VRB04KT 10SM CLR 20/12 A2990 890 58 1700 VRB/04 RMK AO2
14837KMSN MSN20020914094509609/14/02 09:45:31  5-MIN KMSN 141545Z 19004KT 10SM FEW100 21/13 A2989 890 60 1800 190/04 RMK AO2
14837KMSN MSN20020914095011309/14/02 09:50:31  5-MIN KMSN 141550Z 18004KT 10SM SCT100 21/12 A2989 890 56 1800 180/04 RMK AO2 SLP120 T02060117
14837KMSN MSN20020914095509609/14/02 09:55:31  5-MIN KMSN 141555Z VRB04KT 10SM FEW100 21/12 A2989 890 56 1800 VRB/04 RMK AO2
14837KMSN MSN20020914100009609/14/02 10:00:31  5-MIN KMSN 141600Z 13003KT 10SM FEW100 21/12 A2988 900 58 1800 130/03 RMK AO2
14837KMSN MSN20020914100509609/14/02 10:05:31  5-MIN KMSN 141605Z 18005KT 10SM SCT100 21/12 A2988 900 58 1800 180/05 RMK AO2
14837KMSN MSN20020914101009609/14/02 10:10:31  5-MIN KMSN 141610Z VRB03KT 10SM SCT100 21/12 A2988 900 58 1800 VRB/03 RMK AO2
14837KMSN MSN20020914101509609/14/02 10:15:31  5-MIN KMSN 141615Z 23003KT 10SM FEW100 21/12 A2988 900 58 1800 230/03 RMK AO2
14837KMSN MSN20020914102009609/14/02 10:20:31  5-MIN KMSN 141620Z 16003KT 10SM FEW100 21/12 A2988 900 58 1800 160/03 RMK AO2
14837KMSN MSN20020914102509609/14/02 10:25:31  5-MIN KMSN 141625Z 20005KT 10SM FEW100 21/12 A2988 900 58 1800 200/05 RMK AO2
14837KMSN MSN20020914103009609/14/02 10:30:31  5-MIN KMSN 141630Z VRB04KT 10SM SCT095 21/12 A2988 900 58 1800 VRB/04 RMK AO2
14837KMSN MSN20020914103509609/14/02 10:35:31  5-MIN KMSN 141635Z 24003KT 10SM SCT090 21/13 A2989 900 60 1800 240/03 RMK AO2
14837KMSN MSN20020914104009609/14/02 10:40:31  5-MIN KMSN 141640Z 24004KT 10SM BKN085 21/12 A2989 900 58 1800 240/04 RMK AO2
14837KMSN MSN20020914104509609/14/02 10:45:31  5-MIN KMSN 141645Z 23005KT 10SM BKN085 21/13 A2989 890 60 1800 220/05 RMK AO2
14837KMSN MSN20020914105011309/14/02 10:50:31  5-MIN KMSN 141650Z 22005KT 10SM BKN085 21/13 A2989 900 60 1800 220/05 RMK AO2 SLP117 T02060128
14837KMSN MSN20020914105509609/14/02 10:55:31  5-MIN KMSN 141655Z 23005KT 10SM BKN085 21/13 A2988 900 60 1800 230/05 RMK AO2
14837KMSN MSN20020914110009609/14/02 11:00:31  5-MIN KMSN 141700Z 00000KT 10SM SCT080 21/13 A2988 900 60 1800 000/00 RMK AO2
14837KMSN MSN20020914110509609/14/02 11:05:31  5-MIN KMSN 141705Z VRB03KT 10SM SCT080 21/12 A2988 900 56 1900 VRB/03 RMK AO2
14837KMSN MSN20020914111009609/14/02 11:10:31  5-MIN KMSN 141710Z 23003KT 10SM FEW080 21/13 A2988 900 58 1900 230/03 RMK AO2
14837KMSN MSN20020914111509309/14/02 11:15:31  5-MIN KMSN 141715Z VRB05KT 10SM CLR 21/13 A2988 900 61 1900 VRB/05 RMK AO2
14837KMSN MSN20020914112009609/14/02 11:20:31  5-MIN KMSN 141720Z 23004KT 10SM FEW080 21/13 A2988 900 60 1800 230/04 RMK AO2
14837KMSN MSN20020914112509609/14/02 11:25:31  5-MIN KMSN 141725Z 25003KT 10SM SCT075 21/13 A2988 900 60 1800 250/03 RMK AO2
14837KMSN MSN20020914113010309/14/02 11:30:31  5-MIN KMSN 141730Z 26003KT 10SM FEW060 BKN075 20/13 A2988 900 65 1700 260/03 RMK AO2
14837KMSN MSN20020914113510309/14/02 11:35:31  5-MIN KMSN 141735Z VRB03KT 10SM FEW055 BKN075 20/13 A2988 900 65 1700 VRB/03 RMK AO2
14837KMSN MSN20020914114011909/14/02 11:40:31  5-MIN KMSN 141740Z 00000KT 10SM -RA FEW050 BKN075 20/13 A2988 900 65 1700 000/00 RMK AO2 RAB36 P0000
14837KMSN MSN20020914114511809/14/02 11:45:31  5-MIN KMSN 141745Z 00000KT 10SM FEW050 OVC070 20/14 A2987 910 67 1700 000/00 RMK AO2 RAB36E45 P0000
14837KMSN MSN20020914115015909/14/02 11:50:31  5-MIN KMSN 141750Z 00000KT 10SM SCT050 BKN070 20/14 A2988 910 67 1700 000/00 RMK AO2 RAB36E45 SLP113 P0000 60000 T02000139 10211 20172 55000
14837KMSN MSN20020914115510309/14/02 11:55:31  5-MIN KMSN 141755Z 00000KT 10SM FEW050 OVC070 19/16 A2987 910 78 1700 000/00 RMK AO2
14837KMSN MSN20020914120010309/14/02 12:00:31  5-MIN KMSN 141800Z 00000KT 10SM FEW048 OVC070 19/16 A2988 910 81 1700 000/00 RMK AO2
14837KMSN MSN20020914120509609/14/02 12:05:31  5-MIN KMSN 141805Z 00000KT 10SM OVC070 19/16 A2987 910 78 1700 000/00 RMK AO2
14837KMSN MSN20020914121009509/14/02 12:10:31  5-MIN KMSN 141810Z 00000KT 9SM OVC065 19/15 A2987 910 75 1700 000/00 RMK AO2
14837KMSN MSN20020914121509609/14/02 12:15:31  5-MIN KMSN 141815Z 00000KT 10SM OVC065 19/15 A2988 910 78 1600 000/00 RMK AO2
14837KMSN MSN20020914122009609/14/02 12:20:31  5-MIN KMSN 141820Z 00000KT 10SM OVC065 19/16 A2987 910 78 1700 000/00 RMK AO2
14837KMSN MSN20020914122509609/14/02 12:25:31  5-MIN KMSN 141825Z 00000KT 10SM OVC065 20/15 A2987 910 72 1700 000/00 RMK AO2
14837KMSN MSN20020914123009609/14/02 12:30:31  5-MIN KMSN 141830Z 00000KT 10SM OVC065 21/14 A2987 910 65 1800 000/00 RMK AO2
14837KMSN MSN20020914123509609/14/02 12:35:31  5-MIN KMSN 141835Z 00000KT 10SM OVC065 21/14 A2987 910 65 1800 000/00 RMK AO2
14837KMSN MSN20020914124009609/14/02 12:40:31  5-MIN KMSN 141840Z 00000KT 10SM BKN065 20/14 A2987 910 70 1700 000/00 RMK AO2
14837KMSN MSN20020914124511009/14/02 12:45:31  5-MIN KMSN 141845Z 00000KT 10SM BKN065 BKN080 BKN100 21/14 A2987 910 67 1800 000/00 RMK AO2
14837KMSN MSN20020914125012709/14/02 12:50:31  5-MIN KMSN 141850Z 00000KT 10SM BKN065 BKN080 BKN100 21/15 A2987 910 70 1800 000/00 RMK AO2 SLP112 T02060150
14837KMSN MSN20020914125511009/14/02 12:55:31  5-MIN KMSN 141855Z 00000KT 10SM BKN065 BKN080 BKN095 21/15 A2987 910 68 1900 000/00 RMK AO2
14837KMSN MSN20020914130010309/14/02 13:00:31  5-MIN KMSN 141900Z 00000KT 10SM SCT070 BKN095 21/15 A2987 910 68 1900 000/00 RMK AO2
14837KMSN MSN20020914130510309/14/02 13:05:31  5-MIN KMSN 141905Z 00000KT 10SM SCT070 BKN090 22/14 A2986 920 63 1900 000/00 RMK AO2
14837KMSN MSN20020914131010309/14/02 13:10:31  5-MIN KMSN 141910Z 00000KT 10SM SCT070 OVC090 21/14 A2986 920 63 1900 000/00 RMK AO2
14837KMSN MSN20020914131510309/14/02 13:15:31  5-MIN KMSN 141915Z 00000KT 10SM BKN070 OVC090 22/14 A2986 920 63 1900 000/00 RMK AO2
14837KMSN MSN20020914132010309/14/02 13:20:31  5-MIN KMSN 141920Z 27003KT 10SM BKN065 OVC090 21/14 A2986 920 65 1900 270/03 RMK AO2
14837KMSN MSN20020914132510309/14/02 13:25:31  5-MIN KMSN 141925Z 00000KT 10SM BKN065 OVC085 21/14 A2986 920 65 1900 000/00 RMK AO2
14837KMSN MSN20020914133009609/14/02 13:30:31  5-MIN KMSN 141930Z 00000KT 10SM OVC070 21/16 A2986 920 75 1800 000/00 RMK AO2
14837KMSN MSN20020914133509609/14/02 13:35:31  5-MIN KMSN 141935Z 00000KT 10SM OVC065 21/16 A2986 920 75 1800 000/00 RMK AO2
14837KMSN MSN20020914134009609/14/02 13:40:31  5-MIN KMSN 141940Z 28003KT 10SM OVC065 20/16 A2986 920 78 1800 280/03 RMK AO2
14837KMSN MSN20020914134510309/14/02 13:45:31  5-MIN KMSN 141945Z 28003KT 10SM BKN065 OVC100 20/16 A2987 920 75 1800 280/03 RMK AO2
14837KMSN MSN20020914135011909/14/02 13:50:31  5-MIN KMSN 141950Z 00000KT 9SM BKN065 OVC100 20/16 A2987 910 75 1700 000/00 RMK AO2 SLP111 T02000156
14837KMSN MSN20020914135511209/14/02 13:55:31  5-MIN KMSN 141955Z 31003KT 7SM -RA FEW040 OVC060 20/17 A2987 910 81 1700 310/03 RMK AO2 P0000
14837KMSN MSN20020914140012709/14/02 14:00:31  5-MIN KMSN 142000Z 00000KT 8SM -DZ SCT037 OVC060 20/17 A2987 910 81 1700 000/00 RMK AO2 RAE1958DZB1958 P0000
14837KMSN MSN20020914140512709/14/02 14:05:31  5-MIN KMSN 142005Z 30003KT 7SM -DZ SCT035 OVC060 20/17 A2987 910 81 1700 290/03 RMK AO2 RAE1958DZB1958 P0000
14837KMSN MSN20020914141012309/14/02 14:10:31  5-MIN KMSN 142010Z 00000KT 6SM -RA SCT035 OVC060 20/17 A2987 910 81 1700 000/00 RMK AO2 DZB1958E06 P0000
14837KMSN MSN20020914141512309/14/02 14:15:31  5-MIN KMSN 142015Z 00000KT 8SM -RA SCT038 OVC060 19/17 A2987 910 84 1700 000/00 RMK AO2 DZB1958E06 P0000
14837KMSN MSN20020914142012409/14/02 14:20:31  5-MIN KMSN 142020Z 00000KT 8SM SCT036 OVC060 19/17 A2987 910 84 1700 000/00 RMK AO2 RAE17DZB1958E06 P0000
14837KMSN MSN20020914142512709/14/02 14:25:31  5-MIN KMSN 142025Z 00000KT 6SM HZ FEW037 OVC060 20/17 A2986 920 84 1800 000/00 RMK AO2 RAE17DZB1958E06 P0000
14837KMSN MSN20020914143012709/14/02 14:30:31  5-MIN KMSN 142030Z 00000KT 6SM BR FEW039 OVC060 19/17 A2987 910 87 1700 000/00 RMK AO2 RAE17DZB1958E06 P0000
14837KMSN MSN20020914143512709/14/02 14:35:31  5-MIN KMSN 142035Z 00000KT 6SM BR FEW043 OVC055 19/17 A2987 910 87 1700 000/00 RMK AO2 RAE17DZB1958E06 P0000
14837KMSN MSN20020914144012709/14/02 14:40:31  5-MIN KMSN 142040Z 00000KT 6SM HZ FEW043 OVC055 19/17 A2987 910 84 1700 000/00 RMK AO2 RAE17DZB1958E06 P0000
14837KMSN MSN20020914144512709/14/02 14:45:31  5-MIN KMSN 142045Z VRB03KT 6SM BR FEW040 OVC050 19/17 A2987 910 87 1700 VRB/03 RMK AO2 RAE17DZB1958E06 P0000
14837KMSN MSN20020914145014909/14/02 14:50:31  5-MIN KMSN 142050Z 00000KT 5SM HZ OVC050 19/17 A2987 910 84 1700 000/00 RMK AO2 RAE17DZB1958E06 SLP112 P0000 60000 T01940167 56009
14837KMSN MSN20020914145509809/14/02 14:55:31  5-MIN KMSN 142055Z 31003KT 6SM HZ OVC050 19/17 A2987 910 84 1700 310/03 RMK AO2
14837KMSN MSN20020914150009809/14/02 15:00:31  5-MIN KMSN 142100Z VRB03KT 6SM HZ OVC050 19/16 A2987 910 81 1700 VRB/03 RMK AO2
14837KMSN MSN20020914150510509/14/02 15:05:31  5-MIN KMSN 142105Z VRB03KT 6SM HZ FEW038 OVC050 19/16 A2987 910 84 1600 VRB/03 RMK AO2
14837KMSN MSN20020914151010209/14/02 15:10:31  5-MIN KMSN 142110Z 29006KT 7SM SCT038 OVC050 19/16 A2987 910 81 1600 290/06 RMK AO2
14837KMSN MSN20020914151510209/14/02 15:15:31  5-MIN KMSN 142115Z 31003KT 7SM SCT038 OVC050 19/16 A2987 910 81 1600 310/03 RMK AO2
14837KMSN MSN20020914152010209/14/02 15:20:31  5-MIN KMSN 142120Z 29004KT 7SM SCT038 OVC050 19/15 A2987 910 78 1600 290/04 RMK AO2
14837KMSN MSN20020914152511809/14/02 15:25:31  5-MIN KMSN 142125Z 31004KT 6SM -RA BKN042 OVC050 19/15 A2987 910 78 1600 300/04 RMK AO2 RAB25 P0000
14837KMSN MSN20020914153011809/14/02 15:30:31  5-MIN KMSN 142130Z 32006KT 5SM -RA SCT040 OVC050 18/16 A2987 910 84 1500 320/06 RMK AO2 RAB25 P0001
14837KMSN MSN20020914153512109/14/02 15:35:31  5-MIN KMSN 142135Z 31005KT 5SM -RA BR FEW039 OVC050 18/16 A2988 900 90 1500 300/05 RMK AO2 RAB25 P0001
14837KMSN MSN20020914154012109/14/02 15:40:31  5-MIN KMSN 142140Z 32005KT 5SM -RA BR FEW031 OVC050 18/16 A2988 900 90 1500 320/05 RMK AO2 RAB25 P0001
14837KMSN MSN20020914154512009/14/02 15:45:31  5-MIN KMSN 142145Z VRB04KT 5SM BR FEW031 OVC048 18/16 A2988 900 90 1500 VRB/04 RMK AO2 RAB25E44 P0001
14837KMSN MSN20020914155015709/14/02 15:50:31  5-MIN KMSN 142150Z 32004KT 2 1/2SM -DZ SCT031 OVC050 18/16 A2988 900 90 1500 320/04 RMK AO2 SFC VIS 4 RAB25E44DZB49 SLP115 P0001 T01780161
14837KMSN MSN20020914155512609/14/02 15:55:31  5-MIN KMSN 142155Z 32003KT 2 1/2SM -DZ SCT033 OVC050 17/16 A2988 900 93 1400 320/03 RMK AO2 SFC VIS 3 P0000
14837KMSN MSN20020914160013409/14/02 16:00:31  5-MIN KMSN 142200Z 31003KT 2 1/2SM -RA BR SCT035 OVC050 17/16 A2988 900 93 1400 310/03 RMK AO2 DZE2158RAB2158 P0000
14837KMSN MSN20020914160513009/14/02 16:05:31  5-MIN KMSN 142205Z 31003KT 2 1/2SM -DZ BR FEW035 OVC050 17/16 A2988 900 93 1400 310/03 RMK AO2 RAB2158E03 P0000
14837KMSN MSN20020914161014009/14/02 16:10:31  5-MIN KMSN 142210Z 00000KT 2 1/2SM -DZ BR FEW035 OVC050 17/16 A2989 900 93 1400 000/00 RMK AO2 SFC VIS 3 RAB2158E03 P0000
14837KMSN MSN20020914161514109/14/02 16:15:31  5-MIN KMSN 142215Z 00000KT 2 1/2SM BR FEW035 OVC048 17/17 A2989 890 96 1400 000/00 RMK AO2 SFC VIS 3 DZE11RAB2158E03 P0000
14837KMSN MSN20020914162013409/14/02 16:20:31  5-MIN KMSN 142220Z 00000KT 2 1/2SM BR OVC048 18/17 A2989 890 93 1500 000/00 RMK AO2 SFC VIS 3 DZE11RAB2158E03 P0000
14837KMSN MSN20020914162513409/14/02 16:25:31  5-MIN KMSN 142225Z 29003KT 2 1/2SM BR OVC048 18/17 A2989 890 93 1500 290/03 RMK AO2 SFC VIS 3 DZE11RAB2158E03 P0000
14837KMSN MSN20020914163013409/14/02 16:30:31  5-MIN KMSN 142230Z 00000KT 2 1/2SM BR OVC045 17/16 A2990 890 93 1400 000/00 RMK AO2 SFC VIS 3 DZE11RAB2158E03 P0000
14837KMSN MSN20020914163513109/14/02 16:35:31  5-MIN KMSN 142235Z 00000KT 2 1/2SM -DZ BR OVC043 17/16 A2990 890 93 1400 000/00 RMK AO2 DZE11B33RAB2158E03 P0001
14837KMSN MSN20020914164013109/14/02 16:40:31  5-MIN KMSN 142240Z 00000KT 2 1/2SM -DZ BR OVC043 17/16 A2990 890 93 1400 000/00 RMK AO2 DZE11B33RAB2158E03 P0001
14837KMSN MSN20020914164513809/14/02 16:45:31  5-MIN KMSN 142245Z 28003KT 2 1/2SM -DZ BR FEW018 OVC041 17/17 A2990 880 96 1400 280/03 RMK AO2 DZE11B33RAB2158E03 P0001
14837KMSN MSN20020914165017209/14/02 16:50:31  5-MIN KMSN 142250Z VRB03KT 1 1/2SM -DZ BR FEW018 BKN035 OVC043 17/17 A2990 880 96 1400 VRB/03 RMK AO2 SFC VIS 2 DZE11B33RAB2158E03 SLP124 P0001 T01720167
14837KMSN MSN20020914165512609/14/02 16:55:31  5-MIN KMSN 142255Z VRB04KT 2 1/2SM -DZ BR FEW028 BKN034 OVC041 17/17 A2990 880 96 1400 VRB/04 RMK AO2 P0000
14837KMSN MSN20020914170012609/14/02 17:00:31  5-MIN KMSN 142300Z 29004KT 3SM BR SCT028 BKN034 OVC041 18/17 A2990 880 93 1400 290/04 RMK AO2 DZE2256 P0000
14837KMSN MSN20020914170512609/14/02 17:05:31  5-MIN KMSN 142305Z VRB04KT 3SM BR BKN028 BKN034 OVC041 18/16 A2990 880 90 1400 VRB/04 RMK AO2 DZE2256 P0000
14837KMSN MSN20020914171012909/14/02 17:10:31  5-MIN KMSN 142310Z VRB04KT 3SM BR BKN026 OVC034 18/16 A2991 880 90 1400 VRB/04 RMK AO2 SFC VIS 4 DZE2256 P0000
14837KMSN MSN20020914171512909/14/02 17:15:31  5-MIN KMSN 142315Z 28005KT 3SM BR BKN022 OVC026 18/16 A2991 880 90 1400 280/05 RMK AO2 SFC VIS 4 DZE2256 P0000
14837KMSN MSN20020914172012909/14/02 17:20:31  5-MIN KMSN 142320Z 28004KT 3SM BR BKN020 OVC026 18/16 A2991 870 90 1400 280/04 RMK AO2 SFC VIS 4 DZE2256 P0000
14837KMSN MSN20020914172512909/14/02 17:25:31  5-MIN KMSN 142325Z 00000KT 3SM BR BKN020 OVC026 17/16 A2991 870 93 1400 000/00 RMK AO2 SFC VIS 4 DZE2256 P0000
14837KMSN MSN20020914173012609/14/02 17:30:31  5-MIN KMSN 142330Z VRB04KT 3SM -DZ BR BKN018 OVC026 17/16 A2991 870 93 1400 VRB/04 RMK AO2 DZE2256B30 P0000
14837KMSN MSN20020914173513309/14/02 17:35:31  5-MIN KMSN 142335Z VRB04KT 2 1/2SM -DZ BR OVC018 17/16 A2991 870 93 1400 VRB/04 RMK AO2 TWR VIS 3 DZE2256B30 P0000
14837KMSN MSN20020914174011809/14/02 17:40:31  5-MIN KMSN 142340Z 28005KT 3SM BR OVC018 17/16 A2991 870 93 1400 280/05 RMK AO2 DZE2256B30E39 P0000
14837KMSN MSN20020914174511809/14/02 17:45:31  5-MIN KMSN 142345Z VRB04KT 3SM BR OVC018 17/16 A2991 870 93 1400 VRB/04 RMK AO2 DZE2256B30E39 P0000
14837KMSN MSN20020914175015909/14/02 17:50:31  5-MIN KMSN 142350Z 29003KT 3SM BR OVC016 17/16 A2992 870 93 1400 290/03 RMK AO2 DZE2256B30E39 SLP130 P0000 60002 T01720161 10217 20172 55002
14837KMSN MSN20020914175509809/14/02 17:55:31  5-MIN KMSN 142355Z 28003KT 3SM BR OVC016 17/16 A2992 860 93 1400 280/03 RMK AO2
14837KMSN MSN20020914180010509/14/02 18:00:31  5-MIN KMSN 150000Z 29004KT 3SM BR BKN016 OVC022 17/16 A2992 860 93 1400 290/04 RMK AO2
14837KMSN MSN20020914180511209/14/02 18:05:31  5-MIN KMSN 150005Z VRB03KT 3SM BR FEW013 BKN019 OVC031 17/16 A2992 860 93 1400 VRB/03 RMK AO2
14837KMSN MSN20020914181012609/14/02 18:10:31  5-MIN KMSN 150010Z 30003KT 2 1/2SM BR BKN016 BKN023 OVC033 17/16 A2992 860 93 1400 300/03 RMK AO2 TWR VIS 3
14837KMSN MSN20020914181511609/14/02 18:15:31  5-MIN KMSN 150015Z 29003KT 2 1/2SM BR SCT016 SCT023 OVC035 17/16 A2992 860 93 1400 290/03 RMK AO2
14837KMSN MSN20020914182011609/14/02 18:20:31  5-MIN KMSN 150020Z 29003KT 2 1/2SM BR FEW016 SCT023 OVC035 17/16 A2993 860 93 1400 290/03 RMK AO2
14837KMSN MSN20020914182511609/14/02 18:25:31  5-MIN KMSN 150025Z VRB03KT 2 1/2SM BR FEW019 BKN035 OVC085 17/16 A2993 860 93 1400 VRB/03 RMK AO2
14837KMSN MSN20020914183010909/14/02 18:30:31  5-MIN KMSN 150030Z VRB03KT 2 1/2SM BR BKN035 OVC090 17/16 A2993 850 93 1400 VRB/03 RMK AO2
14837KMSN MSN20020914183511909/14/02 18:35:31  5-MIN KMSN 150035Z 00000KT 2 1/2SM BR SCT035 OVC090 17/16 A2993 860 93 1400 000/00 RMK AO2 SFC VIS 3
14837KMSN MSN20020914184011909/14/02 18:40:31  5-MIN KMSN 150040Z 00000KT 2 1/2SM BR SCT035 OVC090 17/16 A2993 850 93 1400 000/00 RMK AO2 SFC VIS 3
14837KMSN MSN20020914184511909/14/02 18:45:31  5-MIN KMSN 150045Z 00000KT 2 1/2SM BR FEW035 OVC090 17/16 A2993 850 93 1400 000/00 RMK AO2 SFC VIS 3
14837KMSN MSN20020914185012209/14/02 18:50:31  5-MIN KMSN 150050Z 00000KT 3SM BR FEW035 SCT090 17/17 A2994 850 96 1300 000/00 RMK AO2 SLP135 T01720167
14837KMSN MSN20020914185509809/14/02 18:55:31  5-MIN KMSN 150055Z 00000KT 3SM BR SCT090 17/16 A2994 840 96 1300 000/00 RMK AO2
14837KMSN MSN20020914190009809/14/02 19:00:31  5-MIN KMSN 150100Z 27003KT 3SM BR SCT090 17/16 A2994 840 96 1300 270/03 RMK AO2
14837KMSN MSN20020914190510509/14/02 19:05:31  5-MIN KMSN 150105Z 00000KT 3SM BR FEW013 SCT090 17/16 A2994 840 96 1300 000/00 RMK AO2
14837KMSN MSN20020914191010509/14/02 19:10:31  5-MIN KMSN 150110Z 00000KT 3SM BR FEW013 SCT090 17/16 A2994 840 96 1300 000/00 RMK AO2
14837KMSN MSN20020914191510509/14/02 19:15:31  5-MIN KMSN 150115Z 00000KT 3SM BR FEW013 SCT090 17/16 A2995 840 96 1300 000/00 RMK AO2
14837KMSN MSN20020914192010509/14/02 19:20:31  5-MIN KMSN 150120Z 00000KT 3SM BR FEW013 SCT090 17/16 A2995 840 96 1300 000/00 RMK AO2
14837KMSN MSN20020914192510509/14/02 19:25:31  5-MIN KMSN 150125Z VRB03KT 3SM BR SCT012 BKN020 17/16 A2995 840 96 1300 VRB/03 RMK AO2
14837KMSN MSN20020914193010509/14/02 19:30:31  5-MIN KMSN 150130Z 00000KT 3SM BR BKN015 BKN020 17/16 A2995 830 96 1300 000/00 RMK AO2
14837KMSN MSN20020914193510509/14/02 19:35:31  5-MIN KMSN 150135Z 00000KT 3SM BR BKN015 OVC020 17/16 A2995 830 96 1300 000/00 RMK AO2
14837KMSN MSN20020914194010509/14/02 19:40:31  5-MIN KMSN 150140Z 30003KT 3SM BR BKN015 OVC020 17/16 A2996 830 93 1300 300/03 RMK AO2
14837KMSN MSN20020914194509809/14/02 19:45:31  5-MIN KMSN 150145Z 00000KT 3SM BR OVC015 17/16 A2996 830 93 1300 000/00 RMK AO2
14837KMSN MSN20020914195012809/14/02 19:50:31  5-MIN KMSN 150150Z 00000KT 3SM BR BKN015 OVC023 17/16 A2996 830 93 1300 000/00 RMK AO2 SLP142 P0001 T01720161
14837KMSN MSN20020914195511209/14/02 19:55:31  5-MIN KMSN 150155Z 00000KT 3SM BR BKN015 BKN023 OVC038 17/16 A2996 830 93 1300 000/00 RMK AO2
14837KMSN MSN20020914200011209/14/02 20:00:31  5-MIN KMSN 150200Z 00000KT 3SM BR SCT015 BKN023 OVC038 17/16 A2996 830 96 1300 000/00 RMK AO2
14837KMSN MSN20020914200511209/14/02 20:05:31  5-MIN KMSN 150205Z 00000KT 3SM BR BKN015 BKN023 OVC038 17/16 A2996 830 96 1300 000/00 RMK AO2
14837KMSN MSN20020914201011209/14/02 20:10:31  5-MIN KMSN 150210Z 31003KT 3SM BR SCT012 BKN017 OVC038 17/16 A2996 820 96 1300 310/03 RMK AO2
14837KMSN MSN20020914201512209/14/02 20:15:31  5-MIN KMSN 150215Z 32004KT 3SM BR BKN012 BKN024 OVC038 17/16 A2997 820 96 1200 320/04 RMK AO2 TWR VIS 4
14837KMSN MSN20020914202012209/14/02 20:20:31  5-MIN KMSN 150220Z 31004KT 3SM BR BKN012 BKN024 OVC037 17/16 A2997 820 93 1300 310/04 RMK AO2 TWR VIS 4
14837KMSN MSN20020914202510509/14/02 20:25:31  5-MIN KMSN 150225Z 31004KT 4SM BR BKN012 OVC024 17/16 A2997 820 93 1300 310/04 RMK AO2
14837KMSN MSN20020914203010509/14/02 20:30:31  5-MIN KMSN 150230Z 32004KT 4SM BR BKN012 OVC024 17/16 A2997 810 93 1300 320/04 RMK AO2
14837KMSN MSN20020914203511209/14/02 20:35:31  5-MIN KMSN 150235Z 32004KT 4SM BR SCT012 BKN024 OVC034 17/16 A2998 810 96 1200 320/04 RMK AO2
14837KMSN MSN20020914204011209/14/02 20:40:31  5-MIN KMSN 150240Z 31005KT 4SM BR SCT012 BKN024 OVC032 17/16 A2998 810 96 1200 310/05 RMK AO2
14837KMSN MSN20020914204511209/14/02 20:45:31  5-MIN KMSN 150245Z 32005KT 4SM BR FEW012 SCT024 OVC032 17/16 A2998 810 93 1300 320/05 RMK AO2
14837KMSN MSN20020914205014109/14/02 20:50:31  5-MIN KMSN 150250Z 32005KT 4SM BR FEW010 BKN028 OVC032 17/16 A2998 810 93 1300 320/05 RMK AO2 SLP150 60001 T01720161 53017
14837KMSN MSN20020914205509809/14/02 20:55:31  5-MIN KMSN 150255Z 33005KT 4SM BR OVC030 17/16 A2998 810 93 1300 330/05 RMK AO2
14837KMSN MSN20020914210009809/14/02 21:00:31  5-MIN KMSN 150300Z 32004KT 4SM BR OVC030 17/16 A2998 800 93 1300 320/04 RMK AO2
14837KMSN MSN20020914210509809/14/02 21:05:31  5-MIN KMSN 150305Z 33005KT 4SM BR OVC030 17/16 A2999 800 93 1300 330/05 RMK AO2
14837KMSN MSN20020914211009809/14/02 21:10:31  5-MIN KMSN 150310Z 33005KT 4SM BR OVC030 17/16 A2999 800 93 1300 330/05 RMK AO2
14837KMSN MSN20020914211509809/14/02 21:15:31  5-MIN KMSN 150315Z 33006KT 5SM BR OVC030 17/16 A2999 800 93 1300 330/06 RMK AO2
14837KMSN MSN20020914212009809/14/02 21:20:31  5-MIN KMSN 150320Z 34005KT 5SM BR OVC030 17/16 A2999 800 93 1300 340/05 RMK AO2
14837KMSN MSN20020914212509809/14/02 21:25:31  5-MIN KMSN 150325Z 34005KT 5SM BR OVC032 17/16 A2999 800 93 1300 340/05 RMK AO2
14837KMSN MSN20020914213010509/14/02 21:30:31  5-MIN KMSN 150330Z 33006KT 5SM BR BKN034 OVC070 17/16 A3000 790 93 1300 330/06 RMK AO2
14837KMSN MSN20020914213511209/14/02 21:35:31  5-MIN KMSN 150335Z 33006KT 5SM BR SCT032 BKN039 OVC070 17/16 A3000 790 93 1200 330/06 RMK AO2
14837KMSN MSN20020914214010509/14/02 21:40:31  5-MIN KMSN 150340Z 34006KT 5SM BR BKN035 OVC070 17/16 A3000 790 93 1200 340/06 RMK AO2
14837KMSN MSN20020914214510509/14/02 21:45:31  5-MIN KMSN 150345Z 34005KT 5SM BR SCT035 OVC070 17/16 A3000 790 93 1200 340/05 RMK AO2
14837KMSN MSN20020914215012209/14/02 21:50:31  5-MIN KMSN 150350Z 33005KT 5SM BR FEW037 BKN070 17/16 A3000 790 93 1200 330/05 RMK AO2 SLP158 T01670156
14837KMSN MSN20020914215510509/14/02 21:55:31  5-MIN KMSN 150355Z 33006KT 6SM BR FEW037 BKN070 17/16 A3001 780 93 1200 330/06 RMK AO2
14837KMSN MSN20020914220010509/14/02 22:00:31  5-MIN KMSN 150400Z 33005KT 6SM BR FEW037 BKN070 17/16 A3001 780 93 1200 330/05 RMK AO2
14837KMSN MSN20020914220510509/14/02 22:05:31  5-MIN KMSN 150405Z 32004KT 6SM BR FEW037 BKN070 17/16 A3001 780 93 1200 320/04 RMK AO2
14837KMSN MSN20020914221010509/14/02 22:10:31  5-MIN KMSN 150410Z 34005KT 6SM BR FEW037 BKN070 17/16 A3001 780 93 1200 340/05 RMK AO2
14837KMSN MSN20020914221510509/14/02 22:15:31  5-MIN KMSN 150415Z 33004KT 6SM BR FEW037 BKN070 17/16 A3001 780 93 1200 330/04 RMK AO2
14837KMSN MSN20020914222010509/14/02 22:20:31  5-MIN KMSN 150420Z 34004KT 6SM BR FEW037 BKN070 17/16 A3001 780 93 1200 330/04 RMK AO2
14837KMSN MSN20020914222510509/14/02 22:25:31  5-MIN KMSN 150425Z 33004KT 6SM BR FEW037 BKN070 17/16 A3002 780 93 1200 330/04 RMK AO2
14837KMSN MSN20020914223010509/14/02 22:30:31  5-MIN KMSN 150430Z 33004KT 6SM BR FEW037 BKN070 17/16 A3002 780 93 1200 330/04 RMK AO2
14837KMSN MSN20020914223510509/14/02 22:35:31  5-MIN KMSN 150435Z 33004KT 6SM BR FEW037 BKN070 17/16 A3002 770 93 1200 330/04 RMK AO2
14837KMSN MSN20020914224010509/14/02 22:40:31  5-MIN KMSN 150440Z 34005KT 6SM BR FEW037 BKN070 17/16 A3002 770 93 1200 340/05 RMK AO2
14837KMSN MSN20020914224510509/14/02 22:45:31  5-MIN KMSN 150445Z 34006KT 6SM BR FEW037 BKN070 17/16 A3002 770 93 1200 340/06 RMK AO2
14837KMSN MSN20020914225012209/14/02 22:50:31  5-MIN KMSN 150450Z 34005KT 6SM BR BKN013 BKN018 17/16 A3002 770 93 1200 340/05 RMK AO2 SLP164 T01670156
14837KMSN MSN20020914225511209/14/02 22:55:31  5-MIN KMSN 150455Z 35006KT 6SM BR FEW010 BKN013 BKN025 17/16 A3002 770 93 1200 340/06 RMK AO2
14837KMSN MSN20020914230011209/14/02 23:00:31  5-MIN KMSN 150500Z 34006KT 6SM BR FEW010 BKN013 BKN025 17/16 A3002 770 93 1200 340/06 RMK AO2
14837KMSN MSN20020914230511209/14/02 23:05:31  5-MIN KMSN 150505Z 34005KT 6SM BR FEW010 BKN013 BKN025 17/16 A3003 770 93 1200 340/05 RMK AO2
14837KMSN MSN20020914231011209/14/02 23:10:31  5-MIN KMSN 150510Z VRB05KT 6SM BR FEW010 BKN013 BKN025 17/16 A3003 760 93 1200 VRB/05 RMK AO2
14837KMSN MSN20020914231511209/14/02 23:15:31  5-MIN KMSN 150515Z 34004KT 6SM BR FEW010 BKN013 BKN025 17/16 A3003 760 93 1200 340/04 RMK AO2
14837KMSN MSN20020914232011209/14/02 23:20:31  5-MIN KMSN 150520Z 35004KT 6SM BR FEW010 BKN013 BKN025 17/16 A3003 760 93 1200 350/04 RMK AO2
14837KMSN MSN20020914232511209/14/02 23:25:31  5-MIN KMSN 150525Z 34004KT 6SM BR FEW010 BKN013 BKN025 17/16 A3003 760 93 1200 340/04 RMK AO2
14837KMSN MSN20020914233011209/14/02 23:30:31  5-MIN KMSN 150530Z 35005KT 6SM BR FEW010 BKN013 BKN025 17/16 A3003 760 93 1200 340/05 RMK AO2
14837KMSN MSN20020914233509809/14/02 23:35:31  5-MIN KMSN 150535Z 35006KT 6SM BR OVC010 17/16 A3003 760 93 1200 350/06 RMK AO2
14837KMSN MSN20020914234009809/14/02 23:40:31  5-MIN KMSN 150540Z 36008KT 6SM BR OVC012 17/16 A3003 760 93 1200 360/08 RMK AO2
14837KMSN MSN20020914234510209/14/02 23:45:31  5-MIN KMSN 150545Z 36009KT 7SM BKN012 OVC017 17/15 A3003 760 90 1200 360/09 RMK AO2
14837KMSN MSN20020914235015309/14/02 23:50:31  5-MIN KMSN 150550Z 36007KT 7SM BKN012 OVC017 17/15 A3004 760 90 1200 360/07 RMK AO2 SLP169 60001 T01670150 10172 20167 402170161 53020
14837KMSN MSN20020914235509509/14/02 23:55:31  5-MIN KMSN 150555Z 36009KT 7SM OVC013 17/15 A3004 760 90 1200 360/09 RMK AO2
14837KMSN MSN20020915000010209/15/02 00:00:31  5-MIN KMSN 150600Z 36009KT 7SM BKN013 OVC017 17/15 A3004 760 90 1200 360/09 RMK AO2
14837KMSN MSN20020915000510209/15/02 00:05:31  5-MIN KMSN 150605Z 36010KT 7SM BKN013 OVC017 17/15 A3004 750 90 1200 360/10 RMK AO2
14837KMSN MSN20020915001009509/15/02 00:10:31  5-MIN KMSN 150610Z 01011KT 8SM OVC013 16/15 A3004 750 93 1100 010/11 RMK AO2
14837KMSN MSN20020915001509509/15/02 00:15:31  5-MIN KMSN 150615Z 02012KT 9SM OVC015 16/14 A3004 750 90 1100 020/12 RMK AO2
14837KMSN MSN20020915002010309/15/02 00:20:31  5-MIN KMSN 150620Z 01010KT 10SM BKN013 OVC019 16/14 A3004 750 86 1100 010/10 RMK AO2
14837KMSN MSN20020915002510909/15/02 00:25:31  5-MIN KMSN 150625Z 01016G20KT 10SM BKN013 OVC019 16/13 A3005 750 86 1000 010/16G20 RMK AO2
14837KMSN MSN20020915003010909/15/02 00:30:31  5-MIN KMSN 150630Z 02016G20KT 10SM BKN015 OVC021 15/13 A3005 740 86 1000 020/16G20 RMK AO2
14837KMSN MSN20020915003510309/15/02 00:35:31  5-MIN KMSN 150635Z 01015KT 10SM BKN013 OVC021 15/12 A3006 740 83 1000 010/15 RMK AO2
14837KMSN MSN20020915004010209/15/02 00:40:31  5-MIN KMSN 150640Z 01013KT 10SM BKN013 OVC021 14/12 A3006 730 86 900 010/13 RMK AO2
14837KMSN MSN20020915004510209/15/02 00:45:31  5-MIN KMSN 150645Z 01009KT 10SM BKN011 OVC021 14/12 A3006 730 86 900 010/09 RMK AO2
14837KMSN MSN20020915005011909/15/02 00:50:31  5-MIN KMSN 150650Z 01010KT 10SM BKN011 OVC021 14/13 A3006 730 90 900 010/10 RMK AO2 SLP178 T01440128
14837KMSN MSN20020915005511409/15/02 00:55:31  5-MIN KMSN 150655Z 01009KT 10SM BKN011 OVC021 14/13 A3006 730 90 900 360/09 RMK AO2 CIG 009V015
14837KMSN MSN20020915010010709/15/02 01:00:31  5-MIN KMSN 150700Z 36011KT 10SM OVC011 14/13 A3007 730 93 800 360/11 RMK AO2 CIG 008V015
14837KMSN MSN20020915010510709/15/02 01:05:31  5-MIN KMSN 150705Z 36009KT 10SM OVC009 14/13 A3007 730 90 900 360/09 RMK AO2 CIG 008V012
14837KMSN MSN20020915011010709/15/02 01:10:31  5-MIN KMSN 150710Z 36010KT 10SM OVC009 14/13 A3007 730 93 800 360/10 RMK AO2 CIG 008V012
14837KMSN MSN20020915011510709/15/02 01:15:31  5-MIN KMSN 150715Z 01011KT 10SM OVC009 14/13 A3007 730 93 800 010/11 RMK AO2 CIG 008V012
14837KMSN MSN20020915012011409/15/02 01:20:31  5-MIN KMSN 150720Z 01010KT 10SM BKN011 OVC014 14/13 A3007 720 93 800 010/10 RMK AO2 CIG 008V013
14837KMSN MSN20020915012510209/15/02 01:25:31  5-MIN KMSN 150725Z 01010KT 10SM SCT009 OVC014 14/13 A3008 720 90 900 010/10 RMK AO2
14837KMSN MSN20020915013010209/15/02 01:30:31  5-MIN KMSN 150730Z 01010KT 10SM FEW009 OVC014 14/12 A3008 720 86 900 360/10 RMK AO2
14837KMSN MSN20020915013510209/15/02 01:35:31  5-MIN KMSN 150735Z 36010KT 10SM BKN013 OVC019 14/12 A3008 720 86 900 360/10 RMK AO2
14837KMSN MSN20020915014010209/15/02 01:40:31  5-MIN KMSN 150740Z 36009KT 10SM BKN015 OVC021 14/12 A3008 720 90 800 360/09 RMK AO2
14837KMSN MSN20020915014510209/15/02 01:45:31  5-MIN KMSN 150745Z 01008KT 10SM SCT015 OVC021 14/12 A3008 710 90 800 010/08 RMK AO2
14837KMSN MSN20020915015011909/15/02 01:50:31  5-MIN KMSN 150750Z 01011KT 10SM SCT018 OVC023 14/12 A3008 710 90 800 010/11 RMK AO2 SLP186 T01390122
14837KMSN MSN20020915015510209/15/02 01:55:31  5-MIN KMSN 150755Z 02011KT 10SM SCT021 BKN027 14/12 A3008 710 86 800 020/11 RMK AO2
14837KMSN MSN20020915020010209/15/02 02:00:31  5-MIN KMSN 150800Z 01013KT 10SM SCT021 BKN027 14/11 A3009 710 83 800 010/13 RMK AO2
14837KMSN MSN20020915020510209/15/02 02:05:31  5-MIN KMSN 150805Z 01010KT 10SM SCT021 BKN027 14/11 A3009 710 83 800 010/10 RMK AO2
14837KMSN MSN20020915021010209/15/02 02:10:31  5-MIN KMSN 150810Z 03013KT 10SM SCT021 BKN027 13/11 A3009 710 83 700 030/13 RMK AO2
14837KMSN MSN20020915021510809/15/02 02:15:31  5-MIN KMSN 150815Z 03013G19KT 10SM SCT021 BKN027 13/09 A3009 710 77 700 030/13G19 RMK AO2
14837KMSN MSN20020915022010809/15/02 02:20:31  5-MIN KMSN 150820Z 03012G19KT 10SM SCT021 BKN027 13/09 A3009 710 77 700 020/12G19 RMK AO2
14837KMSN MSN20020915022510209/15/02 02:25:31  5-MIN KMSN 150825Z 02012KT 10SM SCT021 BKN027 13/09 A3009 710 77 700 020/12 RMK AO2
14837KMSN MSN20020915023010209/15/02 02:30:31  5-MIN KMSN 150830Z 01010KT 10SM SCT021 BKN027 13/09 A3009 710 80 600 010/10 RMK AO2
14837KMSN MSN20020915023510209/15/02 02:35:31  5-MIN KMSN 150835Z 36009KT 10SM SCT021 BKN027 12/09 A3009 700 83 600 360/09 RMK AO2
14837KMSN MSN20020915024010209/15/02 02:40:31  5-MIN KMSN 150840Z 36008KT 10SM SCT021 BKN027 12/09 A3010 700 83 600 360/08 RMK AO2
14837KMSN MSN20020915024510209/15/02 02:45:31  5-MIN KMSN 150845Z 36007KT 10SM SCT021 BKN027 12/09 A3010 700 83 600 360/07 RMK AO2
14837KMSN MSN20020915025012509/15/02 02:50:31  5-MIN KMSN 150850Z 36007KT 10SM FEW023 SCT065 12/09 A3010 700 86 500 360/07 RMK AO2 SLP192 T01170094 51019
14837KMSN MSN20020915025509509/15/02 02:55:31  5-MIN KMSN 150855Z 35005KT 10SM FEW065 12/09 A3010 700 86 500 350/05 RMK AO2
14837KMSN MSN20020915030009509/15/02 03:00:31  5-MIN KMSN 150900Z 34005KT 10SM FEW065 12/09 A3010 700 86 500 340/05 RMK AO2
14837KMSN MSN20020915030509509/15/02 03:05:31  5-MIN KMSN 150905Z 34005KT 10SM FEW065 12/09 A3010 700 86 500 340/05 RMK AO2
14837KMSN MSN20020915031009509/15/02 03:10:31  5-MIN KMSN 150910Z 34004KT 10SM FEW065 12/10 A3010 700 89 500 340/04 RMK AO2
14837KMSN MSN20020915031509209/15/02 03:15:31  5-MIN KMSN 150915Z 34004KT 10SM CLR 12/10 A3010 690 89 500 340/04 RMK AO2
14837KMSN MSN20020915032009209/15/02 03:20:31  5-MIN KMSN 150920Z 34004KT 10SM CLR 12/10 A3011 690 89 500 340/04 RMK AO2
14837KMSN MSN20020915032509209/15/02 03:25:31  5-MIN KMSN 150925Z 34004KT 10SM CLR 11/10 A3011 690 93 400 340/04 RMK AO2
14837KMSN MSN20020915033009509/15/02 03:30:31  5-MIN KMSN 150930Z 35005KT 10SM FEW065 12/10 A3011 690 89 500 350/05 RMK AO2
14837KMSN MSN20020915033509509/15/02 03:35:31  5-MIN KMSN 150935Z 34004KT 10SM FEW065 11/10 A3011 690 93 400 340/04 RMK AO2
14837KMSN MSN20020915034009509/15/02 03:40:31  5-MIN KMSN 150940Z 34004KT 10SM FEW065 11/10 A3012 680 93 400 340/04 RMK AO2
14837KMSN MSN20020915034509509/15/02 03:45:31  5-MIN KMSN 150945Z 34005KT 10SM FEW065 11/10 A3012 680 93 400 340/05 RMK AO2
14837KMSN MSN20020915035011209/15/02 03:50:31  5-MIN KMSN 150950Z 35005KT 10SM FEW065 11/10 A3012 680 93 400 340/05 RMK AO2 SLP201 T01110100
14837KMSN MSN20020915035509509/15/02 03:55:31  5-MIN KMSN 150955Z 34004KT 10SM FEW031 11/10 A3012 680 93 400 340/04 RMK AO2
14837KMSN MSN20020915040009509/15/02 04:00:31  5-MIN KMSN 151000Z 34005KT 10SM FEW031 11/10 A3012 680 93 400 340/05 RMK AO2
14837KMSN MSN20020915040509509/15/02 04:05:31  5-MIN KMSN 151005Z 33005KT 10SM FEW031 11/10 A3012 680 93 400 330/05 RMK AO2
14837KMSN MSN20020915041009509/15/02 04:10:31  5-MIN KMSN 151010Z 33005KT 10SM FEW031 11/10 A3012 680 93 400 330/05 RMK AO2
14837KMSN MSN20020915041509509/15/02 04:15:31  5-MIN KMSN 151015Z 33005KT 10SM FEW031 11/10 A3012 680 93 400 330/05 RMK AO2
14837KMSN MSN20020915042009209/15/02 04:20:31  5-MIN KMSN 151020Z 33006KT 10SM CLR 11/10 A3013 670 96 300 330/06 RMK AO2
14837KMSN MSN20020915042509209/15/02 04:25:31  5-MIN KMSN 151025Z 33005KT 10SM CLR 11/10 A3013 670 93 400 330/05 RMK AO2
14837KMSN MSN20020915043009209/15/02 04:30:31  5-MIN KMSN 151030Z 34006KT 10SM CLR 11/10 A3013 670 93 400 340/06 RMK AO2
14837KMSN MSN20020915043509209/15/02 04:35:31  5-MIN KMSN 151035Z 34005KT 10SM CLR 11/10 A3013 670 96 300 330/05 RMK AO2
14837KMSN MSN20020915044009209/15/02 04:40:31  5-MIN KMSN 151040Z 34005KT 10SM CLR 11/10 A3013 670 96 300 340/05 RMK AO2
14837KMSN MSN20020915044509509/15/02 04:45:31  5-MIN KMSN 151045Z 34005KT 10SM FEW030 11/10 A3014 670 96 300 340/05 RMK AO2
14837KMSN MSN20020915045011209/15/02 04:50:31  5-MIN KMSN 151050Z 33005KT 10SM FEW030 11/10 A3014 660 96 300 330/05 RMK AO2 SLP206 T01060100
14837KMSN MSN20020915045509209/15/02 04:55:31  5-MIN KMSN 151055Z 34005KT 10SM CLR 11/09 A3014 660 93 300 340/05 RMK AO2
14837KMSN MSN20020915050009509/15/02 05:00:31  5-MIN KMSN 151100Z 34007KT 10SM FEW030 11/09 A3014 660 93 300 330/07 RMK AO2
14837KMSN MSN20020915050509509/15/02 05:05:31  5-MIN KMSN 151105Z 35006KT 10SM FEW030 11/09 A3014 660 93 300 340/06 RMK AO2
14837KMSN MSN20020915051009509/15/02 05:10:31  5-MIN KMSN 151110Z 35006KT 10SM FEW030 11/09 A3014 660 93 300 350/06 RMK AO2
14837KMSN MSN20020915051509509/15/02 05:15:31  5-MIN KMSN 151115Z 35007KT 10SM FEW030 10/09 A3015 660 96 300 350/07 RMK AO2
14837KMSN MSN20020915052009509/15/02 05:20:31  5-MIN KMSN 151120Z 36006KT 10SM FEW030 10/09 A3015 650 96 300 350/06 RMK AO2
14837KMSN MSN20020915052509509/15/02 05:25:31  5-MIN KMSN 151125Z 36006KT 10SM FEW030 10/09 A3015 650 93 300 360/06 RMK AO2
14837KMSN MSN20020915053009509/15/02 05:30:31  5-MIN KMSN 151130Z 36006KT 10SM FEW065 10/09 A3015 650 93 200 360/06 RMK AO2
14837KMSN MSN20020915053509509/15/02 05:35:31  5-MIN KMSN 151135Z 36006KT 10SM FEW065 10/09 A3015 650 93 200 360/06 RMK AO2
14837KMSN MSN20020915054009509/15/02 05:40:31  5-MIN KMSN 151140Z 36006KT 10SM FEW065 10/09 A3015 650 93 200 360/06 RMK AO2
14837KMSN MSN20020915054509509/15/02 05:45:31  5-MIN KMSN 151145Z 36006KT 10SM FEW065 10/09 A3015 650 93 200 360/06 RMK AO2
14837KMSN MSN20020915055013609/15/02 05:50:31  5-MIN KMSN 151150Z 36006KT 10SM FEW080 10/09 A3015 650 93 200 350/06 RMK AO2 SLP212 70002 T01000089 10167 20100 51020
14837KMSN MSN20020915055509509/15/02 05:55:31  5-MIN KMSN 151155Z 35006KT 10SM FEW080 10/09 A3016 650 93 200 350/06 RMK AO2
14837KMSN MSN20020915060009509/15/02 06:00:31  5-MIN KMSN 151200Z 35006KT 10SM FEW080 10/09 A3016 650 93 200 350/06 RMK AO2
14837KMSN MSN20020915060509509/15/02 06:05:31  5-MIN KMSN 151205Z 35007KT 10SM FEW080 10/09 A3016 650 93 200 350/07 RMK AO2
14837KMSN MSN20020915061009509/15/02 06:10:31  5-MIN KMSN 151210Z 35006KT 10SM FEW080 10/09 A3016 650 93 200 350/06 RMK AO2
14837KMSN MSN20020915061509509/15/02 06:15:31  5-MIN KMSN 151215Z 35007KT 10SM FEW080 10/09 A3016 640 93 200 350/07 RMK AO2
14837KMSN MSN20020915062009509/15/02 06:20:31  5-MIN KMSN 151220Z 35006KT 10SM FEW080 10/09 A3016 640 93 200 350/06 RMK AO2
14837KMSN MSN20020915062509509/15/02 06:25:31  5-MIN KMSN 151225Z 35008KT 10SM FEW080 10/09 A3016 640 93 200 350/08 RMK AO2
14837KMSN MSN20020915063009509/15/02 06:30:31  5-MIN KMSN 151230Z 35007KT 10SM FEW080 10/08 A3016 640 89 200 350/07 RMK AO2
14837KMSN MSN20020915063509509/15/02 06:35:31  5-MIN KMSN 151235Z 35007KT 10SM FEW080 11/09 A3016 640 89 300 350/07 RMK AO2
14837KMSN MSN20020915064009209/15/02 06:40:31  5-MIN KMSN 151240Z 36007KT 10SM CLR 11/09 A3017 640 89 300 360/07 RMK AO2
14837KMSN MSN20020915064509109/15/02 06:45:31  5-MIN KMSN 151245Z 36007KT 8SM CLR 11/09 A3017 640 89 300 360/07 RMK AO2
14837KMSN MSN20020915065010909/15/02 06:50:31  5-MIN KMSN 151250Z 36007KT 10SM CLR 11/09 A3017 630 89 300 360/07 RMK AO2 SLP217 T01060089
14837KMSN MSN20020915065509209/15/02 06:55:31  5-MIN KMSN 151255Z 36007KT 10SM CLR 11/09 A3017 630 89 300 360/07 RMK AO2
14837KMSN MSN20020915070009209/15/02 07:00:31  5-MIN KMSN 151300Z 36009KT 10SM CLR 11/09 A3017 630 86 400 360/09 RMK AO2
14837KMSN MSN20020915070509209/15/02 07:05:31  5-MIN KMSN 151305Z 01008KT 10SM CLR 11/09 A3017 630 86 400 010/08 RMK AO2
14837KMSN MSN20020915071009209/15/02 07:10:31  5-MIN KMSN 151310Z 01010KT 10SM CLR 12/09 A3017 630 83 400 010/10 RMK AO2
14837KMSN MSN20020915071509209/15/02 07:15:31  5-MIN KMSN 151315Z 01010KT 10SM CLR 12/09 A3017 630 86 400 010/10 RMK AO2
14837KMSN MSN20020915072009209/15/02 07:20:31  5-MIN KMSN 151320Z 01008KT 10SM CLR 12/09 A3017 630 83 400 010/08 RMK AO2
14837KMSN MSN20020915072509209/15/02 07:25:31  5-MIN KMSN 151325Z 01007KT 10SM CLR 12/09 A3017 630 86 400 010/07 RMK AO2
14837KMSN MSN20020915073009209/15/02 07:30:31  5-MIN KMSN 151330Z 01009KT 10SM CLR 12/09 A3017 630 83 500 010/09 RMK AO2
14837KMSN MSN20020915073509209/15/02 07:35:31  5-MIN KMSN 151335Z 01008KT 10SM CLR 12/09 A3017 630 83 500 010/08 RMK AO2
14837KMSN MSN20020915074009209/15/02 07:40:31  5-MIN KMSN 151340Z 01010KT 10SM CLR 13/09 A3018 630 80 600 010/10 RMK AO2
14837KMSN MSN20020915074509209/15/02 07:45:31  5-MIN KMSN 151345Z 36009KT 10SM CLR 13/09 A3018 630 80 600 360/09 RMK AO2
14837KMSN MSN20020915075010909/15/02 07:50:31  5-MIN KMSN 151350Z 01010KT 10SM CLR 13/09 A3018 630 80 600 010/10 RMK AO2 SLP219 T01280094
14837KMSN MSN20020915075509209/15/02 07:55:31  5-MIN KMSN 151355Z 36009KT 10SM CLR 13/10 A3018 630 80 600 360/09 RMK AO2
14837KMSN MSN20020915080009209/15/02 08:00:31  5-MIN KMSN 151400Z 02011KT 10SM CLR 13/10 A3018 630 80 600 020/11 RMK AO2
14837KMSN MSN20020915080509209/15/02 08:05:31  5-MIN KMSN 151405Z 01009KT 10SM CLR 13/10 A3018 630 80 600 010/09 RMK AO2
14837KMSN MSN20020915081009209/15/02 08:10:31  5-MIN KMSN 151410Z 02008KT 10SM CLR 14/10 A3018 630 77 700 020/08 RMK AO2
14837KMSN MSN20020915081509209/15/02 08:15:31  5-MIN KMSN 151415Z 01010KT 10SM CLR 14/10 A3018 630 77 700 010/10 RMK AO2
14837KMSN MSN20020915082009209/15/02 08:20:31  5-MIN KMSN 151420Z 01008KT 10SM CLR 14/10 A3018 630 74 700 010/08 RMK AO2
14837KMSN MSN20020915082509809/15/02 08:25:31  5-MIN KMSN 151425Z 02010G15KT 10SM CLR 14/10 A3018 620 74 700 020/10G15 RMK AO2
14837KMSN MSN20020915083009209/15/02 08:30:31  5-MIN KMSN 151430Z 02010KT 10SM CLR 14/11 A3018 630 77 700 020/10 RMK AO2
14837KMSN MSN20020915083509209/15/02 08:35:31  5-MIN KMSN 151435Z 03010KT 10SM CLR 15/11 A3018 630 74 800 030/10 RMK AO2
14837KMSN MSN20020915084009209/15/02 08:40:31  5-MIN KMSN 151440Z 03008KT 10SM CLR 15/11 A3018 620 74 800 030/08 RMK AO2
14837KMSN MSN20020915084509209/15/02 08:45:31  5-MIN KMSN 151445Z 04009KT 10SM CLR 16/11 A3018 630 72 900 040/09 RMK AO2
14837KMSN MSN20020915085011809/15/02 08:50:31  5-MIN KMSN 151450Z 01010KT 10SM FEW060 16/11 A3018 620 72 900 010/10 RMK AO2 SLP219 T01560106 51019
14837KMSN MSN20020915085509209/15/02 08:55:31  5-MIN KMSN 151455Z 03010KT 10SM CLR 16/11 A3018 620 72 900 030/10 RMK AO2
14837KMSN MSN20020915090009209/15/02 09:00:31  5-MIN KMSN 151500Z 05009KT 10SM CLR 16/11 A3018 620 74 900 050/09 RMK AO2
14837KMSN MSN20020915090509209/15/02 09:05:31  5-MIN KMSN 151505Z 02010KT 10SM CLR 16/11 A3018 620 72 900 020/10 RMK AO2
14837KMSN MSN20020915091009209/15/02 09:10:31  5-MIN KMSN 151510Z 03009KT 10SM CLR 16/11 A3018 620 72 900 020/09 RMK AO2
14837KMSN MSN20020915091509209/15/02 09:15:31  5-MIN KMSN 151515Z 01009KT 10SM CLR 16/11 A3018 620 72 900 010/09 RMK AO2
14837KMSN MSN20020915092009609/15/02 09:20:31  5-MIN KMSN 151520Z 01010KT 10SM FEW021 17/11 A3018 620 69 1000 010/10 RMK AO2
14837KMSN MSN20020915092509609/15/02 09:25:31  5-MIN KMSN 151525Z 02012KT 10SM FEW021 17/12 A3018 620 72 1000 010/12 RMK AO2
14837KMSN MSN20020915093009309/15/02 09:30:31  5-MIN KMSN 151530Z 02011KT 10SM CLR 17/11 A3018 620 69 1000 020/11 RMK AO2
14837KMSN MSN20020915093509309/15/02 09:35:31  5-MIN KMSN 151535Z 03011KT 10SM CLR 17/11 A3018 630 69 1000 030/11 RMK AO2
14837KMSN MSN20020915094009609/15/02 09:40:31  5-MIN KMSN 151540Z 03009KT 10SM FEW022 17/11 A3018 620 67 1100 030/09 RMK AO2
14837KMSN MSN20020915094509609/15/02 09:45:31  5-MIN KMSN 151545Z 01010KT 10SM FEW022 17/11 A3018 620 69 1000 010/10 RMK AO2
14837KMSN MSN20020915095011309/15/02 09:50:31  5-MIN KMSN 151550Z 04009KT 10SM SCT022 17/11 A3018 620 67 1100 040/09 RMK AO2 SLP219 T01720111
14837KMSN MSN20020915095509609/15/02 09:55:31  5-MIN KMSN 151555Z 04010KT 10SM SCT022 18/12 A3018 620 65 1200 040/10 RMK AO2
14837KMSN MSN20020915100009609/15/02 10:00:31  5-MIN KMSN 151600Z 01010KT 10SM FEW022 17/11 A3018 620 67 1100 010/10 RMK AO2
14837KMSN MSN20020915100509609/15/02 10:05:31  5-MIN KMSN 151605Z 06010KT 10SM SCT022 18/11 A3018 620 64 1100 060/10 RMK AO2
14837KMSN MSN20020915101009609/15/02 10:10:31  5-MIN KMSN 151610Z 02008KT 10SM BKN024 18/11 A3018 620 64 1100 020/08 RMK AO2
14837KMSN MSN20020915101509609/15/02 10:15:31  5-MIN KMSN 151615Z 05009KT 10SM BKN024 19/12 A3018 630 62 1300 050/09 RMK AO2
14837KMSN MSN20020915102009609/15/02 10:20:31  5-MIN KMSN 151620Z 03009KT 10SM BKN024 18/11 A3018 630 64 1100 030/09 RMK AO2
14837KMSN MSN20020915102509609/15/02 10:25:31  5-MIN KMSN 151625Z 02010KT 10SM BKN024 18/11 A3018 630 62 1200 020/10 RMK AO2
14837KMSN MSN20020915103009609/15/02 10:30:31  5-MIN KMSN 151630Z 02012KT 10SM BKN026 17/11 A3018 630 67 1100 010/12 RMK AO2
14837KMSN MSN20020915103509609/15/02 10:35:31  5-MIN KMSN 151635Z 02010KT 10SM BKN026 18/11 A3018 630 62 1200 020/10 RMK AO2
14837KMSN MSN20020915104010309/15/02 10:40:31  5-MIN KMSN 151640Z 05008KT 10SM BKN026 BKN034 18/11 A3018 630 62 1200 050/08 RMK AO2
14837KMSN MSN20020915104510309/15/02 10:45:31  5-MIN KMSN 151645Z 06010KT 10SM BKN026 BKN036 19/11 A3018 630 60 1300 060/10 RMK AO2
14837KMSN MSN20020915105012009/15/02 10:50:31  5-MIN KMSN 151650Z 01008KT 10SM BKN028 BKN036 19/12 A3018 630 62 1300 010/08 RMK AO2 SLP217 T01890117
14837KMSN MSN20020915105510309/15/02 10:55:31  5-MIN KMSN 151655Z 02010KT 10SM BKN028 BKN036 18/11 A3018 630 64 1100 020/10 RMK AO2
14837KMSN MSN20020915110010309/15/02 11:00:31  5-MIN KMSN 151700Z 04010KT 10SM SCT028 BKN036 17/11 A3018 620 64 1100 040/10 RMK AO2
14837KMSN MSN20020915110510309/15/02 11:05:31  5-MIN KMSN 151705Z 04011KT 10SM SCT028 BKN036 19/11 A3018 630 60 1300 040/11 RMK AO2
14837KMSN MSN20020915111010309/15/02 11:10:31  5-MIN KMSN 151710Z 04010KT 10SM SCT028 BKN036 19/11 A3018 630 58 1300 040/10 RMK AO2
14837KMSN MSN20020915111510309/15/02 11:15:31  5-MIN KMSN 151715Z 02011KT 10SM SCT028 BKN036 19/11 A3018 630 56 1300 020/11 RMK AO2
14837KMSN MSN20020915112010309/15/02 11:20:31  5-MIN KMSN 151720Z 03010KT 10SM SCT028 BKN036 18/10 A3018 620 58 1200 030/10 RMK AO2
14837KMSN MSN20020915112510309/15/02 11:25:31  5-MIN KMSN 151725Z 03009KT 10SM SCT028 BKN036 18/10 A3018 620 60 1100 030/09 RMK AO2
14837KMSN MSN20020915113010309/15/02 11:30:31  5-MIN KMSN 151730Z 02008KT 10SM SCT028 BKN036 18/10 A3018 620 58 1200 020/08 RMK AO2
14837KMSN MSN20020915113510309/15/02 11:35:31  5-MIN KMSN 151735Z 05007KT 10SM SCT028 BKN036 19/10 A3018 630 54 1300 050/07 RMK AO2
14837KMSN MSN20020915114010909/15/02 11:40:31  5-MIN KMSN 151740Z 04012G15KT 10SM SCT028 BKN036 20/10 A3018 630 52 1400 040/12G15 RMK AO2
14837KMSN MSN20020915114510909/15/02 11:45:31  5-MIN KMSN 151745Z 05009G15KT 10SM SCT028 BKN036 19/10 A3018 630 56 1300 050/09G15 RMK AO2
14837KMSN MSN20020915115014709/15/02 11:50:31  5-MIN KMSN 151750Z 06007KT 020V080 10SM BKN042 19/10 A3017 630 54 1300 060/07 020V080 RMK AO2 SLP216 T01940100 10200 20100 51009
14837KMSN MSN20020915115509609/15/02 11:55:31  5-MIN KMSN 151755Z 01010KT 10SM SCT039 20/10 A3017 630 52 1400 010/10 RMK AO2
14837KMSN MSN20020915120009609/15/02 12:00:31  5-MIN KMSN 151800Z 02011KT 10SM SCT041 19/09 A3017 630 52 1300 020/11 RMK AO2
14837KMSN MSN20020915120509609/15/02 12:05:31  5-MIN KMSN 151805Z 03010KT 10SM BKN043 19/09 A3017 630 54 1300 030/10 RMK AO2
14837KMSN MSN20020915121009609/15/02 12:10:31  5-MIN KMSN 151810Z 04009KT 10SM BKN043 18/09 A3017 630 54 1200 040/09 RMK AO2
14837KMSN MSN20020915121509609/15/02 12:15:31  5-MIN KMSN 151815Z 07007KT 10SM SCT043 19/09 A3017 630 54 1300 070/07 RMK AO2
14837KMSN MSN20020915122009609/15/02 12:20:31  5-MIN KMSN 151820Z 02013KT 10SM BKN041 19/09 A3017 640 50 1300 020/13 RMK AO2
14837KMSN MSN20020915122510209/15/02 12:25:31  5-MIN KMSN 151825Z 03010G15KT 10SM BKN043 19/08 A3017 640 48 1300 030/10G15 RMK AO2
14837KMSN MSN20020915123009609/15/02 12:30:31  5-MIN KMSN 151830Z 04008KT 10SM BKN043 19/08 A3017 640 50 1300 040/08 RMK AO2
14837KMSN MSN20020915123509609/15/02 12:35:31  5-MIN KMSN 151835Z 06009KT 10SM SCT043 20/09 A3016 640 48 1400 060/09 RMK AO2
14837KMSN MSN20020915124009609/15/02 12:40:31  5-MIN KMSN 151840Z 04008KT 10SM SCT043 21/08 A3016 640 45 1500 030/08 RMK AO2
14837KMSN MSN20020915124509609/15/02 12:45:31  5-MIN KMSN 151845Z 04012KT 10SM BKN043 21/09 A3016 640 48 1500 030/12 RMK AO2
14837KMSN MSN20020915125011309/15/02 12:50:31  5-MIN KMSN 151850Z 03008KT 10SM BKN043 19/08 A3016 640 50 1300 030/08 RMK AO2 SLP212 T01890083
14837KMSN MSN20020915125509609/15/02 12:55:31  5-MIN KMSN 151855Z 35006KT 10SM SCT043 20/08 A3016 650 46 1400 350/06 RMK AO2
14837KMSN MSN20020915130009609/15/02 13:00:31  5-MIN KMSN 151900Z 02007KT 10SM FEW043 21/08 A3015 650 45 1500 020/07 RMK AO2
14837KMSN MSN20020915130509609/15/02 13:05:31  5-MIN KMSN 151905Z VRB05KT 10SM SCT043 21/09 A3015 650 45 1600 VRB/05 RMK AO2
14837KMSN MSN20020915131009609/15/02 13:10:31  5-MIN KMSN 151910Z 01011KT 10SM SCT045 21/09 A3015 650 45 1600 360/11 RMK AO2
14837KMSN MSN20020915131509609/15/02 13:15:31  5-MIN KMSN 151915Z 01009KT 10SM SCT045 19/08 A3015 650 48 1400 010/09 RMK AO2
14837KMSN MSN20020915132011209/15/02 13:20:31  5-MIN KMSN 151920Z 04008KT 010V070 10SM FEW045 21/08 A3015 650 43 1600 040/08 010V070 RMK AO2
14837KMSN MSN20020915132509609/15/02 13:25:31  5-MIN KMSN 151925Z 09007KT 10SM FEW045 21/09 A3015 660 46 1500 090/07 RMK AO2
14837KMSN MSN20020915133009609/15/02 13:30:31  5-MIN KMSN 151930Z 02008KT 10SM SCT045 21/08 A3015 660 45 1500 020/08 RMK AO2
14837KMSN MSN20020915133509609/15/02 13:35:31  5-MIN KMSN 151935Z 03010KT 10SM SCT045 20/08 A3015 650 45 1400 030/10 RMK AO2
14837KMSN MSN20020915134009609/15/02 13:40:31  5-MIN KMSN 151940Z 04007KT 10SM FEW045 21/07 A3015 660 41 1500 040/07 RMK AO2
14837KMSN MSN20020915134509609/15/02 13:45:31  5-MIN KMSN 151945Z 35007KT 10SM FEW045 21/08 A3014 660 42 1600 350/07 RMK AO2
14837KMSN MSN20020915135011309/15/02 13:50:31  5-MIN KMSN 151950Z 36004KT 10SM FEW045 21/08 A3014 660 42 1600 360/04 RMK AO2 SLP205 T02110078
14837KMSN MSN20020915135509609/15/02 13:55:31  5-MIN KMSN 151955Z 02009KT 10SM FEW048 21/08 A3014 660 43 1600 020/09 RMK AO2
14837KMSN MSN20020915140009609/15/02 14:00:31  5-MIN KMSN 152000Z 03010KT 10SM FEW050 21/08 A3014 660 43 1500 030/10 RMK AO2
14837KMSN MSN20020915140509309/15/02 14:05:31  5-MIN KMSN 152005Z VRB04KT 10SM CLR 21/08 A3014 660 43 1500 VRB/04 RMK AO2
14837KMSN MSN20020915141009609/15/02 14:10:31  5-MIN KMSN 152010Z VRB06KT 10SM FEW050 21/08 A3014 660 45 1500 VRB/06 RMK AO2
14837KMSN MSN20020915141509609/15/02 14:15:31  5-MIN KMSN 152015Z 01009KT 10SM FEW050 21/08 A3014 660 42 1600 010/09 RMK AO2
14837KMSN MSN20020915142009609/15/02 14:20:31  5-MIN KMSN 152020Z 04006KT 10SM FEW050 21/08 A3014 660 45 1500 040/06 RMK AO2
14837KMSN MSN20020915142509609/15/02 14:25:31  5-MIN KMSN 152025Z 02009KT 10SM SCT050 21/08 A3014 670 43 1600 020/09 RMK AO2
14837KMSN MSN20020915143009609/15/02 14:30:31  5-MIN KMSN 152030Z 02010KT 10SM SCT050 21/08 A3014 660 43 1600 010/10 RMK AO2
14837KMSN MSN20020915143509609/15/02 14:35:31  5-MIN KMSN 152035Z 36006KT 10SM FEW050 21/08 A3014 660 42 1600 360/06 RMK AO2
14837KMSN MSN20020915144009609/15/02 14:40:31  5-MIN KMSN 152040Z 02006KT 10SM SCT050 21/08 A3013 670 42 1600 020/06 RMK AO2
14837KMSN MSN20020915144509609/15/02 14:45:31  5-MIN KMSN 152045Z 02008KT 10SM SCT050 21/08 A3013 670 43 1500 020/08 RMK AO2
14837KMSN MSN20020915145011909/15/02 14:50:31  5-MIN KMSN 152050Z 03009KT 10SM SCT050 21/08 A3013 670 43 1500 030/09 RMK AO2 SLP203 T02060078 58003
14837KMSN MSN20020915145509309/15/02 14:55:31  5-MIN KMSN 152055Z 33005KT 10SM CLR 21/08 A3013 670 43 1500 330/05 RMK AO2
14837KMSN MSN20020915150009309/15/02 15:00:31  5-MIN KMSN 152100Z 35006KT 10SM CLR 21/08 A3013 670 43 1600 350/06 RMK AO2
14837KMSN MSN20020915150509609/15/02 15:05:31  5-MIN KMSN 152105Z 05010KT 10SM FEW048 21/08 A3013 670 43 1600 050/10 RMK AO2
14837KMSN MSN20020915151009609/15/02 15:10:31  5-MIN KMSN 152110Z 06007KT 10SM FEW048 21/08 A3013 670 45 1500 060/07 RMK AO2
14837KMSN MSN20020915151509609/15/02 15:15:31  5-MIN KMSN 152115Z VRB04KT 10SM FEW048 20/08 A3013 670 45 1400 VRB/04 RMK AO2
14837KMSN MSN20020915152009609/15/02 15:20:31  5-MIN KMSN 152120Z 01006KT 10SM FEW048 21/08 A3013 670 45 1500 010/06 RMK AO2
14837KMSN MSN20020915152509609/15/02 15:25:31  5-MIN KMSN 152125Z VRB06KT 10SM FEW048 20/08 A3013 670 45 1500 VRB/06 RMK AO2
14837KMSN MSN20020915153009609/15/02 15:30:31  5-MIN KMSN 152130Z 35006KT 10SM FEW048 21/08 A3013 670 45 1500 340/06 RMK AO2
14837KMSN MSN20020915153509609/15/02 15:35:31  5-MIN KMSN 152135Z VRB04KT 10SM FEW048 21/08 A3013 670 45 1500 VRB/04 RMK AO2
14837KMSN MSN20020915154009609/15/02 15:40:31  5-MIN KMSN 152140Z 01009KT 10SM FEW048 21/08 A3012 680 43 1600 010/09 RMK AO2
14837KMSN MSN20020915154509609/15/02 15:45:31  5-MIN KMSN 152145Z 06006KT 10SM FEW048 21/08 A3012 680 45 1500 060/06 RMK AO2
14837KMSN MSN20020915155011309/15/02 15:50:31  5-MIN KMSN 152150Z 04009KT 10SM FEW048 21/08 A3012 680 43 1500 040/09 RMK AO2 SLP200 T02060078
14837KMSN MSN20020915155509309/15/02 15:55:31  5-MIN KMSN 152155Z 02006KT 10SM CLR 21/08 A3012 680 43 1500 020/06 RMK AO2
14837KMSN MSN20020915160009309/15/02 16:00:31  5-MIN KMSN 152200Z 01009KT 10SM CLR 21/08 A3012 680 43 1500 010/09 RMK AO2
14837KMSN MSN20020915160509309/15/02 16:05:31  5-MIN KMSN 152205Z VRB04KT 10SM CLR 21/08 A3012 680 43 1500 VRB/04 RMK AO2
14837KMSN MSN20020915161009309/15/02 16:10:31  5-MIN KMSN 152210Z 02005KT 10SM CLR 21/07 A3012 680 41 1500 020/05 RMK AO2
14837KMSN MSN20020915161509309/15/02 16:15:31  5-MIN KMSN 152215Z 03008KT 10SM CLR 21/08 A3012 680 43 1500 020/08 RMK AO2
14837KMSN MSN20020915162009309/15/02 16:20:31  5-MIN KMSN 152220Z 03007KT 10SM CLR 20/08 A3012 680 45 1500 030/07 RMK AO2
14837KMSN MSN20020915162509309/15/02 16:25:31  5-MIN KMSN 152225Z 02004KT 10SM CLR 21/08 A3012 680 43 1500 020/04 RMK AO2
14837KMSN MSN20020915163009309/15/02 16:30:31  5-MIN KMSN 152230Z 05008KT 10SM CLR 20/08 A3012 680 45 1500 040/08 RMK AO2
14837KMSN MSN20020915163509309/15/02 16:35:31  5-MIN KMSN 152235Z 02005KT 10SM CLR 20/07 A3012 680 43 1500 020/05 RMK AO2
14837KMSN MSN20020915164009309/15/02 16:40:31  5-MIN KMSN 152240Z VRB04KT 10SM CLR 20/08 A3012 680 45 1500 VRB/04 RMK AO2
14837KMSN MSN20020915164509309/15/02 16:45:31  5-MIN KMSN 152245Z 06008KT 10SM CLR 19/08 A3012 680 46 1400 060/08 RMK AO2
14837KMSN MSN20020915165011009/15/02 16:50:31  5-MIN KMSN 152250Z 06005KT 10SM CLR 19/07 A3012 680 44 1400 060/05 RMK AO2 SLP199 T01940072
14837KMSN MSN20020915165509309/15/02 16:55:31  5-MIN KMSN 152255Z 06007KT 10SM CLR 19/08 A3012 680 46 1400 060/07 RMK AO2
14837KMSN MSN20020915170009309/15/02 17:00:31  5-MIN KMSN 152300Z 06008KT 10SM CLR 19/08 A3012 680 46 1400 050/08 RMK AO2
14837KMSN MSN20020915170509309/15/02 17:05:31  5-MIN KMSN 152305Z 02006KT 10SM CLR 19/08 A3012 680 46 1400 020/06 RMK AO2
14837KMSN MSN20020915171009309/15/02 17:10:31  5-MIN KMSN 152310Z 03006KT 10SM CLR 19/08 A3012 680 48 1400 030/06 RMK AO2
14837KMSN MSN20020915171509309/15/02 17:15:31  5-MIN KMSN 152315Z 04007KT 10SM CLR 19/08 A3013 670 48 1300 040/07 RMK AO2
14837KMSN MSN20020915172009309/15/02 17:20:31  5-MIN KMSN 152320Z 04005KT 10SM CLR 18/07 A3012 680 48 1300 040/05 RMK AO2
14837KMSN MSN20020915172509309/15/02 17:25:31  5-MIN KMSN 152325Z 05006KT 10SM CLR 18/08 A3012 680 50 1300 050/06 RMK AO2
14837KMSN MSN20020915173009609/15/02 17:30:31  5-MIN KMSN 152330Z 05005KT 10SM FEW050 18/08 A3012 680 51 1200 050/05 RMK AO2
14837KMSN MSN20020915173509609/15/02 17:35:31  5-MIN KMSN 152335Z 05004KT 10SM FEW050 17/08 A3012 680 55 1100 040/04 RMK AO2
14837KMSN MSN20020915174009609/15/02 17:40:31  5-MIN KMSN 152340Z 04004KT 10SM FEW050 17/08 A3012 680 53 1100 040/04 RMK AO2
14837KMSN MSN20020915174509609/15/02 17:45:31  5-MIN KMSN 152345Z 06004KT 10SM FEW050 17/08 A3012 680 53 1100 060/04 RMK AO2
14837KMSN MSN20020915175013109/15/02 17:50:31  5-MIN KMSN 152350Z 06003KT 10SM FEW050 17/08 A3012 680 55 1100 060/03 RMK AO2 SLP200 T01670078 10217 20167 56013
14837KMSN MSN20020915175509309/15/02 17:55:31  5-MIN KMSN 152355Z 06003KT 10SM CLR 16/08 A3012 680 57 1000 060/03 RMK AO2
14837KMSN MSN20020915180009209/15/02 18:00:31  5-MIN KMSN 160000Z 05004KT 10SM CLR 16/08 A3012 680 62 900 050/04 RMK AO2
14837KMSN MSN20020915180509209/15/02 18:05:31  5-MIN KMSN 160005Z 05003KT 10SM CLR 16/08 A3012 680 62 900 050/03 RMK AO2
14837KMSN MSN20020915181009209/15/02 18:10:31  5-MIN KMSN 160010Z 00000KT 10SM CLR 15/09 A3012 680 66 900 000/00 RMK AO2
14837KMSN MSN20020915181509209/15/02 18:15:31  5-MIN KMSN 160015Z 00000KT 10SM CLR 14/09 A3012 680 69 800 000/00 RMK AO2
14837KMSN MSN20020915182009209/15/02 18:20:31  5-MIN KMSN 160020Z 00000KT 10SM CLR 14/09 A3012 680 71 700 000/00 RMK AO2
14837KMSN MSN20020915182509209/15/02 18:25:31  5-MIN KMSN 160025Z 00000KT 10SM CLR 13/09 A3012 680 74 700 000/00 RMK AO2
14837KMSN MSN20020915183009209/15/02 18:30:31  5-MIN KMSN 160030Z 00000KT 10SM CLR 13/08 A3012 680 71 700 000/00 RMK AO2
14837KMSN MSN20020915183509209/15/02 18:35:31  5-MIN KMSN 160035Z 00000KT 10SM CLR 14/09 A3012 680 71 700 000/00 RMK AO2
14837KMSN MSN20020915184009209/15/02 18:40:31  5-MIN KMSN 160040Z 00000KT 10SM CLR 14/09 A3012 680 71 700 000/00 RMK AO2
14837KMSN MSN20020915184509209/15/02 18:45:31  5-MIN KMSN 160045Z 00000KT 10SM CLR 13/09 A3012 680 77 600 000/00 RMK AO2
14837KMSN MSN20020915185010909/15/02 18:50:31  5-MIN KMSN 160050Z 00000KT 10SM CLR 12/09 A3012 680 80 500 000/00 RMK AO2 SLP203 T01220089
14837KMSN MSN20020915185509209/15/02 18:55:31  5-MIN KMSN 160055Z 00000KT 10SM CLR 12/08 A3013 670 77 500 000/00 RMK AO2
14837KMSN MSN20020915190009209/15/02 19:00:31  5-MIN KMSN 160100Z 00000KT 10SM CLR 12/09 A3013 670 80 500 000/00 RMK AO2
14837KMSN MSN20020915190509209/15/02 19:05:31  5-MIN KMSN 160105Z 00000KT 10SM CLR 12/08 A3013 670 80 500 000/00 RMK AO2
14837KMSN MSN20020915191009209/15/02 19:10:31  5-MIN KMSN 160110Z 00000KT 10SM CLR 12/08 A3013 680 77 500 000/00 RMK AO2
14837KMSN MSN20020915191509209/15/02 19:15:31  5-MIN KMSN 160115Z 00000KT 10SM CLR 12/09 A3013 670 83 500 000/00 RMK AO2
14837KMSN MSN20020915192009209/15/02 19:20:31  5-MIN KMSN 160120Z 00000KT 10SM CLR 12/08 A3013 670 80 500 000/00 RMK AO2
14837KMSN MSN20020915192509209/15/02 19:25:31  5-MIN KMSN 160125Z 00000KT 10SM CLR 11/08 A3013 670 83 400 000/00 RMK AO2
14837KMSN MSN20020915193009209/15/02 19:30:31  5-MIN KMSN 160130Z 00000KT 10SM CLR 11/08 A3013 670 83 400 000/00 RMK AO2
14837KMSN MSN20020915193509209/15/02 19:35:31  5-MIN KMSN 160135Z 00000KT 10SM CLR 11/08 A3013 670 83 400 000/00 RMK AO2
14837KMSN MSN20020915194009209/15/02 19:40:31  5-MIN KMSN 160140Z 00000KT 10SM CLR 11/08 A3013 670 83 400 000/00 RMK AO2
14837KMSN MSN20020915194509209/15/02 19:45:31  5-MIN KMSN 160145Z 00000KT 10SM CLR 11/08 A3013 670 83 400 000/00 RMK AO2
14837KMSN MSN20020915195010909/15/02 19:50:31  5-MIN KMSN 160150Z 00000KT 10SM CLR 11/08 A3013 670 86 300 000/00 RMK AO2 SLP205 T01060083
14837KMSN MSN20020915195509209/15/02 19:55:31  5-MIN KMSN 160155Z 00000KT 10SM CLR 11/08 A3013 670 86 300 000/00 RMK AO2
14837KMSN MSN20020915200009209/15/02 20:00:31  5-MIN KMSN 160200Z 00000KT 10SM CLR 11/08 A3013 670 86 300 000/00 RMK AO2
14837KMSN MSN20020915200509209/15/02 20:05:31  5-MIN KMSN 160205Z 00000KT 10SM CLR 10/08 A3013 670 89 300 000/00 RMK AO2
14837KMSN MSN20020915201009209/15/02 20:10:31  5-MIN KMSN 160210Z 00000KT 10SM CLR 11/08 A3013 670 86 300 000/00 RMK AO2
14837KMSN MSN20020915201509209/15/02 20:15:31  5-MIN KMSN 160215Z 00000KT 10SM CLR 11/08 A3013 670 86 300 000/00 RMK AO2
14837KMSN MSN20020915202009209/15/02 20:20:31  5-MIN KMSN 160220Z 00000KT 10SM CLR 10/08 A3013 670 89 300 000/00 RMK AO2
14837KMSN MSN20020915202509209/15/02 20:25:31  5-MIN KMSN 160225Z 00000KT 10SM CLR 10/08 A3013 670 89 300 000/00 RMK AO2
14837KMSN MSN20020915203009209/15/02 20:30:31  5-MIN KMSN 160230Z 32003KT 10SM CLR 10/08 A3014 660 89 300 320/03 RMK AO2
14837KMSN MSN20020915203509209/15/02 20:35:31  5-MIN KMSN 160235Z 32003KT 10SM CLR 10/08 A3014 660 89 300 320/03 RMK AO2
14837KMSN MSN20020915204009209/15/02 20:40:31  5-MIN KMSN 160240Z 00000KT 10SM CLR 10/08 A3014 660 89 300 000/00 RMK AO2
14837KMSN MSN20020915204509209/15/02 20:45:31  5-MIN KMSN 160245Z 00000KT 10SM CLR 10/08 A3014 660 89 300 000/00 RMK AO2
14837KMSN MSN20020915205011509/15/02 20:50:31  5-MIN KMSN 160250Z 00000KT 10SM CLR 10/08 A3014 660 89 300 000/00 RMK AO2 SLP207 T01000083 56006
14837KMSN MSN20020915205509209/15/02 20:55:31  5-MIN KMSN 160255Z 00000KT 10SM CLR 10/08 A3014 660 89 300 000/00 RMK AO2
14837KMSN MSN20020915210009209/15/02 21:00:31  5-MIN KMSN 160300Z 00000KT 10SM CLR 10/08 A3014 660 89 300 000/00 RMK AO2
14837KMSN MSN20020915210509209/15/02 21:05:31  5-MIN KMSN 160305Z 00000KT 10SM CLR 10/08 A3014 660 89 300 000/00 RMK AO2
14837KMSN MSN20020915211009209/15/02 21:10:31  5-MIN KMSN 160310Z 00000KT 10SM CLR 10/08 A3014 660 89 300 000/00 RMK AO2
14837KMSN MSN20020915211509209/15/02 21:15:31  5-MIN KMSN 160315Z 00000KT 10SM CLR 10/08 A3014 660 89 300 000/00 RMK AO2
14837KMSN MSN20020915212009209/15/02 21:20:31  5-MIN KMSN 160320Z 00000KT 10SM CLR 09/08 A3014 660 93 200 000/00 RMK AO2
14837KMSN MSN20020915212509209/15/02 21:25:31  5-MIN KMSN 160325Z 00000KT 10SM CLR 09/08 A3015 660 93 200 000/00 RMK AO2
14837KMSN MSN20020915213009209/15/02 21:30:31  5-MIN KMSN 160330Z 00000KT 10SM CLR 09/08 A3014 660 93 200 000/00 RMK AO2
14837KMSN MSN20020915213509209/15/02 21:35:31  5-MIN KMSN 160335Z 00000KT 10SM CLR 10/08 A3014 660 89 300 000/00 RMK AO2
14837KMSN MSN20020915214009209/15/02 21:40:31  5-MIN KMSN 160340Z 00000KT 10SM CLR 09/08 A3014 660 93 200 000/00 RMK AO2
14837KMSN MSN20020915214509209/15/02 21:45:31  5-MIN KMSN 160345Z 00000KT 10SM CLR 10/08 A3014 660 89 300 000/00 RMK AO2
14837KMSN MSN20020915215010909/15/02 21:50:31  5-MIN KMSN 160350Z 00000KT 10SM CLR 09/08 A3014 660 93 200 000/00 RMK AO2 SLP207 T00940083
14837KMSN MSN20020915215509209/15/02 21:55:31  5-MIN KMSN 160355Z 00000KT 10SM CLR 09/08 A3014 660 93 200 000/00 RMK AO2
14837KMSN MSN20020915220009209/15/02 22:00:31  5-MIN KMSN 160400Z 00000KT 10SM CLR 09/08 A3014 660 93 200 000/00 RMK AO2
14837KMSN MSN20020915220509209/15/02 22:05:31  5-MIN KMSN 160405Z 00000KT 10SM CLR 10/08 A3014 660 89 300 000/00 RMK AO2
14837KMSN MSN20020915221009209/15/02 22:10:31  5-MIN KMSN 160410Z 00000KT 10SM CLR 09/08 A3014 660 93 200 000/00 RMK AO2
14837KMSN MSN20020915221509209/15/02 22:15:31  5-MIN KMSN 160415Z 00000KT 10SM CLR 09/08 A3014 660 93 200 000/00 RMK AO2
14837KMSN MSN20020915222009209/15/02 22:20:31  5-MIN KMSN 160420Z 00000KT 10SM CLR 09/08 A3014 660 93 200 000/00 RMK AO2
14837KMSN MSN20020915222509209/15/02 22:25:31  5-MIN KMSN 160425Z 00000KT 10SM CLR 09/08 A3014 660 93 200 000/00 RMK AO2
14837KMSN MSN20020915223009209/15/02 22:30:31  5-MIN KMSN 160430Z 00000KT 10SM CLR 09/08 A3014 660 93 200 000/00 RMK AO2
14837KMSN MSN20020915223509209/15/02 22:35:31  5-MIN KMSN 160435Z 00000KT 10SM CLR 09/08 A3014 660 96 100 000/00 RMK AO2
14837KMSN MSN20020915224009209/15/02 22:40:31  5-MIN KMSN 160440Z 00000KT 10SM CLR 09/08 A3014 660 93 200 000/00 RMK AO2
14837KMSN MSN20020915224509209/15/02 22:45:31  5-MIN KMSN 160445Z 00000KT 10SM CLR 09/08 A3014 660 96 100 000/00 RMK AO2
14837KMSN MSN20020915225010909/15/02 22:50:31  5-MIN KMSN 160450Z 00000KT 10SM CLR 09/08 A3014 670 96 100 000/00 RMK AO2 SLP206 T00890083
14837KMSN MSN20020915225509209/15/02 22:55:31  5-MIN KMSN 160455Z 00000KT 10SM CLR 09/08 A3013 670 96 100 000/00 RMK AO2
14837KMSN MSN20020915230009209/15/02 23:00:31  5-MIN KMSN 160500Z 00000KT 10SM CLR 09/08 A3013 670 93 200 000/00 RMK AO2
14837KMSN MSN20020915230509209/15/02 23:05:31  5-MIN KMSN 160505Z 00000KT 10SM CLR 09/08 A3013 670 96 100 000/00 RMK AO2
14837KMSN MSN20020915231009209/15/02 23:10:31  5-MIN KMSN 160510Z 00000KT 10SM CLR 09/08 A3013 670 96 100 000/00 RMK AO2
14837KMSN MSN20020915231509209/15/02 23:15:31  5-MIN KMSN 160515Z 00000KT 10SM CLR 09/08 A3013 670 93 200 000/00 RMK AO2
14837KMSN MSN20020915232009209/15/02 23:20:31  5-MIN KMSN 160520Z 00000KT 10SM CLR 09/08 A3013 670 93 200 000/00 RMK AO2
14837KMSN MSN20020915232509209/15/02 23:25:31  5-MIN KMSN 160525Z 00000KT 10SM CLR 09/08 A3012 680 93 200 000/00 RMK AO2
14837KMSN MSN20020915233009209/15/02 23:30:31  5-MIN KMSN 160530Z 00000KT 10SM CLR 09/07 A3012 680 86 200 000/00 RMK AO2
14837KMSN MSN20020915233509209/15/02 23:35:31  5-MIN KMSN 160535Z 00000KT 10SM CLR 09/07 A3013 680 86 100 000/00 RMK AO2
14837KMSN MSN20020915234009209/15/02 23:40:31  5-MIN KMSN 160540Z 00000KT 10SM CLR 09/07 A3013 670 86 100 000/00 RMK AO2
14837KMSN MSN20020915234509209/15/02 23:45:31  5-MIN KMSN 160545Z 00000KT 10SM CLR 09/07 A3013 670 86 100 000/00 RMK AO2
14837KMSN MSN20020915235013709/15/02 23:50:31  5-MIN KMSN 160550Z 00000KT 10SM CLR 09/07 A3012 680 89 100 000/00 RMK AO2 SLP202 T00890072 10161 20089 402170089 51007
14837KMSN MSN20020915235509209/15/02 23:55:31  5-MIN KMSN 160555Z 00000KT 10SM CLR 09/08 A3012 680 93 100 000/00 RMK AO2
14837KMSN MSN20020916000009209/16/02 00:00:31  5-MIN KMSN 160600Z 00000KT 10SM CLR 09/07 A3012 680 89 100 000/00 RMK AO2
14837KMSN MSN20020916000509209/16/02 00:05:31  5-MIN KMSN 160605Z 00000KT 10SM CLR 09/08 A3012 680 93 100 000/00 RMK AO2
14837KMSN MSN20020916001009209/16/02 00:10:31  5-MIN KMSN 160610Z 00000KT 10SM CLR 08/08 A3012 680 96 100 000/00 RMK AO2
14837KMSN MSN20020916001509209/16/02 00:15:31  5-MIN KMSN 160615Z 00000KT 10SM CLR 08/07 A3012 680 93 100 000/00 RMK AO2
14837KMSN MSN20020916002008909/16/02 00:20:31  5-MIN KMSN 160620Z 00000KT 8SM CLR 08/07 A3012 680 96 0 000/00 RMK AO2
14837KMSN MSN20020916002509109/16/02 00:25:31  5-MIN KMSN 160625Z 00000KT 7SM CLR 08/07 A3012 680 93 100 000/00 RMK AO2
14837KMSN MSN20020916003008909/16/02 00:30:31  5-MIN KMSN 160630Z 00000KT 7SM CLR 08/07 A3012 680 96 0 000/00 RMK AO2
14837KMSN MSN20020916003508909/16/02 00:35:31  5-MIN KMSN 160635Z 00000KT 7SM CLR 08/07 A3012 680 96 0 000/00 RMK AO2
14837KMSN MSN20020916004008909/16/02 00:40:31  5-MIN KMSN 160640Z 00000KT 7SM CLR 08/07 A3013 670 96 0 000/00 RMK AO2
14837KMSN MSN20020916004509209/16/02 00:45:31  5-MIN KMSN 160645Z 00000KT 6SM BR CLR 07/07 A3013 670 96 0 000/00 RMK AO2
14837KMSN MSN20020916005010609/16/02 00:50:31  5-MIN KMSN 160650Z 00000KT 9SM CLR 08/07 A3013 670 93 0 000/00 RMK AO2 SLP203 T00780067
14837KMSN MSN20020916005509209/16/02 00:55:31  5-MIN KMSN 160655Z 00000KT 5SM BR CLR 08/07 A3013 680 93 0 000/00 RMK AO2
14837KMSN MSN20020916010008909/16/02 01:00:31  5-MIN KMSN 160700Z 00000KT 7SM CLR 08/07 A3012 680 96 0 000/00 RMK AO2
14837KMSN MSN20020916010508909/16/02 01:05:31  5-MIN KMSN 160705Z 00000KT 9SM CLR 08/07 A3012 680 93 0 000/00 RMK AO2
14837KMSN MSN20020916011009209/16/02 01:10:31  5-MIN KMSN 160710Z 00000KT 6SM BR CLR 07/07 A3012 680 96 0 000/00 RMK AO2
14837KMSN MSN20020916011509609/16/02 01:15:31  5-MIN KMSN 160715Z 00000KT 5SM BR CLR 07/07 A3012 680 100 -100 000/00 RMK AO2
14837KMSN MSN20020916012009509/16/02 01:20:31  5-MIN KMSN 160720Z 00000KT 5SM BR CLR 07/06 A3012 680 96 -100 000/00 RMK AO2
14837KMSN MSN20020916012509209/16/02 01:25:31  5-MIN KMSN 160725Z 00000KT 5SM BR CLR 07/07 A3012 680 96 0 000/00 RMK AO2
14837KMSN MSN20020916013009209/16/02 01:30:31  5-MIN KMSN 160730Z 00000KT 6SM BR CLR 07/07 A3012 680 96 0 000/00 RMK AO2
14837KMSN MSN20020916013508909/16/02 01:35:31  5-MIN KMSN 160735Z 00000KT 8SM CLR 07/07 A3012 680 96 0 000/00 RMK AO2
14837KMSN MSN20020916014008909/16/02 01:40:31  5-MIN KMSN 160740Z 00000KT 7SM CLR 07/07 A3012 680 96 0 000/00 RMK AO2
14837KMSN MSN20020916014509509/16/02 01:45:31  5-MIN KMSN 160745Z 00000KT 5SM BR CLR 07/06 A3012 680 96 -100 000/00 RMK AO2
14837KMSN MSN20020916015010609/16/02 01:50:31  5-MIN KMSN 160750Z 00000KT 8SM CLR 07/07 A3012 680 96 0 000/00 RMK AO2 SLP201 T00720067
14837KMSN MSN20020916015509209/16/02 01:55:31  5-MIN KMSN 160755Z 00000KT 6SM BR CLR 07/07 A3012 680 96 0 000/00 RMK AO2
14837KMSN MSN20020916020010609/16/02 02:00:31  5-MIN KMSN 160800Z 00000KT 1 1/4SM BR CLR 07/07 A3012 680 96 0 000/00 RMK AO2 VIS 1/4V5
14837KMSN MSN20020916020508909/16/02 02:05:31  5-MIN KMSN 160805Z 00000KT 8SM CLR 07/07 A3012 680 96 0 000/00 RMK AO2
14837KMSN MSN20020916021009209/16/02 02:10:31  5-MIN KMSN 160810Z 00000KT 8SM CLR 06/06 A3012 680 96 -100 000/00 RMK AO2
14837KMSN MSN20020916021509209/16/02 02:15:31  5-MIN KMSN 160815Z 00000KT 8SM CLR 07/06 A3012 680 93 -100 000/00 RMK AO2
14837KMSN MSN20020916022009209/16/02 02:20:31  5-MIN KMSN 160820Z 00000KT 8SM CLR 07/06 A3012 680 93 -100 000/00 RMK AO2
14837KMSN MSN20020916022509209/16/02 02:25:31  5-MIN KMSN 160825Z 00000KT 8SM CLR 07/06 A3012 680 93 -100 000/00 RMK AO2
14837KMSN MSN20020916023009209/16/02 02:30:31  5-MIN KMSN 160830Z 00000KT 8SM CLR 07/06 A3012 680 96 -100 000/00 RMK AO2
14837KMSN MSN20020916023509209/16/02 02:35:31  5-MIN KMSN 160835Z 00000KT 8SM CLR 07/06 A3012 680 93 -100 000/00 RMK AO2
14837KMSN MSN20020916024009209/16/02 02:40:31  5-MIN KMSN 160840Z 00000KT 8SM CLR 07/06 A3012 680 93 -100 000/00 RMK AO2
14837KMSN MSN20020916024509209/16/02 02:45:31  5-MIN KMSN 160845Z 00000KT 8SM CLR 07/06 A3012 680 93 -100 000/00 RMK AO2
14837KMSN MSN20020916025011509/16/02 02:50:31  5-MIN KMSN 160850Z 00000KT 8SM CLR 07/06 A3012 680 96 -100 000/00 RMK AO2 SLP200 T00670061 58005
14837KMSN MSN20020916025509209/16/02 02:55:31  5-MIN KMSN 160855Z 00000KT 9SM CLR 07/06 A3012 680 96 -100 000/00 RMK AO2
14837KMSN MSN20020916030009209/16/02 03:00:31  5-MIN KMSN 160900Z 00000KT 9SM CLR 07/06 A3012 680 96 -100 000/00 RMK AO2
14837KMSN MSN20020916030509309/16/02 03:05:31  5-MIN KMSN 160905Z 00000KT 9SM CLR 06/06 A3011 690 100 -100 000/00 RMK AO2
14837KMSN MSN20020916031009209/16/02 03:10:31  5-MIN KMSN 160910Z 00000KT 9SM CLR 07/06 A3011 690 96 -100 000/00 RMK AO2
14837KMSN MSN20020916031509209/16/02 03:15:31  5-MIN KMSN 160915Z 00000KT 9SM CLR 07/06 A3011 690 96 -100 000/00 RMK AO2
14837KMSN MSN20020916032009209/16/02 03:20:31  5-MIN KMSN 160920Z 00000KT 9SM CLR 06/06 A3011 690 96 -100 000/00 RMK AO2
14837KMSN MSN20020916032509209/16/02 03:25:31  5-MIN KMSN 160925Z 00000KT 9SM CLR 06/06 A3011 690 96 -100 000/00 RMK AO2
14837KMSN MSN20020916033009509/16/02 03:30:31  5-MIN KMSN 160930Z 00000KT 5SM BR CLR 06/06 A3011 690 96 -100 000/00 RMK AO2
14837KMSN MSN20020916033509209/16/02 03:35:31  5-MIN KMSN 160935Z 00000KT 7SM CLR 06/06 A3011 690 96 -100 000/00 RMK AO2
14837KMSN MSN20020916034009209/16/02 03:40:31  5-MIN KMSN 160940Z 00000KT 8SM CLR 06/06 A3011 690 96 -100 000/00 RMK AO2
14837KMSN MSN20020916034509209/16/02 03:45:31  5-MIN KMSN 160945Z 00000KT 8SM CLR 06/06 A3012 680 96 -100 000/00 RMK AO2
14837KMSN MSN20020916035010909/16/02 03:50:31  5-MIN KMSN 160950Z 00000KT 9SM CLR 06/05 A3012 680 96 -200 000/00 RMK AO2 SLP199 T00560050
14837KMSN MSN20020916035509209/16/02 03:55:31  5-MIN KMSN 160955Z 00000KT 8SM CLR 06/05 A3012 680 96 -200 000/00 RMK AO2
14837KMSN MSN20020916040009209/16/02 04:00:31  5-MIN KMSN 161000Z 00000KT 7SM CLR 06/05 A3012 680 96 -200 000/00 RMK AO2
14837KMSN MSN20020916040509209/16/02 04:05:31  5-MIN KMSN 161005Z 00000KT 8SM CLR 06/05 A3012 680 96 -200 000/00 RMK AO2
14837KMSN MSN20020916041009209/16/02 04:10:31  5-MIN KMSN 161010Z 00000KT 7SM CLR 06/05 A3012 680 96 -200 000/00 RMK AO2
14837KMSN MSN20020916041509209/16/02 04:15:31  5-MIN KMSN 161015Z 00000KT 8SM CLR 06/05 A3012 680 96 -200 000/00 RMK AO2
14837KMSN MSN20020916042009209/16/02 04:20:31  5-MIN KMSN 161020Z 00000KT 7SM CLR 06/05 A3012 680 96 -200 000/00 RMK AO2
14837KMSN MSN20020916042509209/16/02 04:25:31  5-MIN KMSN 161025Z 00000KT 8SM CLR 06/05 A3013 680 96 -200 000/00 RMK AO2
14837KMSN MSN20020916043009209/16/02 04:30:31  5-MIN KMSN 161030Z 00000KT 8SM CLR 06/05 A3012 680 96 -200 000/00 RMK AO2
14837KMSN MSN20020916043509209/16/02 04:35:31  5-MIN KMSN 161035Z 00000KT 8SM CLR 06/05 A3013 680 96 -200 000/00 RMK AO2
14837KMSN MSN20020916044009209/16/02 04:40:31  5-MIN KMSN 161040Z 00000KT 7SM CLR 06/05 A3013 680 96 -200 000/00 RMK AO2
14837KMSN MSN20020916044509509/16/02 04:45:31  5-MIN KMSN 161045Z 00000KT 6SM BR CLR 06/05 A3012 680 96 -200 000/00 RMK AO2
14837KMSN MSN20020916045010909/16/02 04:50:31  5-MIN KMSN 161050Z 00000KT 9SM CLR 06/05 A3013 680 96 -200 000/00 RMK AO2 SLP203 T00560050
14837KMSN MSN20020916045509509/16/02 04:55:31  5-MIN KMSN 161055Z 00000KT 5SM BR CLR 06/05 A3012 680 96 -200 000/00 RMK AO2
14837KMSN MSN20020916050009509/16/02 05:00:31  5-MIN KMSN 161100Z 00000KT 5SM BR CLR 06/05 A3012 680 96 -200 000/00 RMK AO2
14837KMSN MSN20020916050509509/16/02 05:05:31  5-MIN KMSN 161105Z 00000KT 5SM BR CLR 06/05 A3013 680 96 -200 000/00 RMK AO2
14837KMSN MSN20020916051009509/16/02 05:10:31  5-MIN KMSN 161110Z 00000KT 4SM BR CLR 05/04 A3013 670 96 -300 000/00 RMK AO2
14837KMSN MSN20020916051509509/16/02 05:15:31  5-MIN KMSN 161115Z 00000KT 4SM BR CLR 06/05 A3012 680 96 -200 000/00 RMK AO2
14837KMSN MSN20020916052010009/16/02 05:20:31  5-MIN KMSN 161120Z 00000KT 5SM MIFG BR CLR 05/04 A3012 680 96 -300 000/00 RMK AO2
14837KMSN MSN20020916052510009/16/02 05:25:31  5-MIN KMSN 161125Z 00000KT 5SM MIFG BR CLR 05/04 A3013 680 96 -300 000/00 RMK AO2
14837KMSN MSN20020916053010009/16/02 05:30:31  5-MIN KMSN 161130Z 00000KT 5SM MIFG BR CLR 06/05 A3013 670 96 -200 000/00 RMK AO2
14837KMSN MSN20020916053510009/16/02 05:35:31  5-MIN KMSN 161135Z 00000KT 5SM MIFG BR CLR 06/05 A3013 670 96 -200 000/00 RMK AO2
14837KMSN MSN20020916054010009/16/02 05:40:31  5-MIN KMSN 161140Z 00000KT 5SM MIFG BR CLR 06/05 A3013 670 96 -200 000/00 RMK AO2
14837KMSN MSN20020916054510009/16/02 05:45:31  5-MIN KMSN 161145Z 00000KT 5SM MIFG BR CLR 06/05 A3013 670 96 -200 000/00 RMK AO2
14837KMSN MSN20020916055013509/16/02 05:50:31  5-MIN KMSN 161150Z 00000KT 7SM MIFG BR CLR 06/05 A3013 670 96 -200 000/00 RMK AO2 SLP205 T00560050 10089 20050 58002
14837KMSN MSN20020916055510009/16/02 05:55:31  5-MIN KMSN 161155Z 00000KT 6SM MIFG BR CLR 06/05 A3013 670 96 -200 000/00 RMK AO2
14837KMSN MSN20020916060010009/16/02 06:00:31  5-MIN KMSN 161200Z 00000KT 8SM MIFG BR CLR 06/05 A3013 670 96 -200 000/00 RMK AO2
14837KMSN MSN20020916060510009/16/02 06:05:31  5-MIN KMSN 161205Z 00000KT 5SM MIFG BR CLR 06/05 A3014 670 96 -200 000/00 RMK AO2
14837KMSN MSN20020916061010009/16/02 06:10:31  5-MIN KMSN 161210Z 00000KT 4SM MIFG BR CLR 06/05 A3014 660 96 -200 000/00 RMK AO2
14837KMSN MSN20020916061510009/16/02 06:15:31  5-MIN KMSN 161215Z 00000KT 7SM MIFG BR CLR 06/05 A3014 670 93 -200 000/00 RMK AO2
14837KMSN MSN20020916062010109/16/02 06:20:31  5-MIN KMSN 161220Z 00000KT 10SM MIFG BR CLR 06/04 A3014 660 89 -200 000/00 RMK AO2
14837KMSN MSN20020916062510109/16/02 06:25:31  5-MIN KMSN 161225Z 00000KT 10SM MIFG BR CLR 06/05 A3014 670 93 -200 000/00 RMK AO2
14837KMSN MSN20020916063009809/16/02 06:30:31  5-MIN KMSN 161230Z 00000KT 10SM MIFG BR CLR 07/06 A3014 660 89 0 000/00 RMK AO2
14837KMSN MSN20020916063509809/16/02 06:35:31  5-MIN KMSN 161235Z 00000KT 10SM MIFG BR CLR 07/06 A3014 660 93 0 000/00 RMK AO2
14837KMSN MSN20020916064009809/16/02 06:40:31  5-MIN KMSN 161240Z 00000KT 10SM MIFG BR CLR 08/07 A3014 660 93 0 000/00 RMK AO2
14837KMSN MSN20020916064509209/16/02 06:45:31  5-MIN KMSN 161245Z 00000KT 10SM CLR 08/07 A3014 660 89 100 000/00 RMK AO2
14837KMSN MSN20020916065010909/16/02 06:50:31  5-MIN KMSN 161250Z 00000KT 10SM CLR 09/07 A3014 660 89 100 000/00 RMK AO2 SLP210 T00890072
14837KMSN MSN20020916065509209/16/02 06:55:31  5-MIN KMSN 161255Z 00000KT 10SM CLR 09/08 A3014 660 89 200 000/00 RMK AO2
14837KMSN MSN20020916070009209/16/02 07:00:31  5-MIN KMSN 161300Z 00000KT 10SM CLR 10/08 A3014 660 89 300 000/00 RMK AO2
14837KMSN MSN20020916070509209/16/02 07:05:31  5-MIN KMSN 161305Z 00000KT 10SM CLR 10/08 A3014 660 89 300 000/00 RMK AO2
14837KMSN MSN20020916071009209/16/02 07:10:31  5-MIN KMSN 161310Z 00000KT 10SM CLR 11/09 A3015 660 89 300 000/00 RMK AO2
14837KMSN MSN20020916071509209/16/02 07:15:31  5-MIN KMSN 161315Z 00000KT 10SM CLR 11/09 A3015 650 89 400 000/00 RMK AO2
14837KMSN MSN20020916072009209/16/02 07:20:31  5-MIN KMSN 161320Z 00000KT 10SM CLR 12/09 A3015 650 86 500 000/00 RMK AO2
14837KMSN MSN20020916072509209/16/02 07:25:31  5-MIN KMSN 161325Z 00000KT 10SM CLR 12/09 A3015 660 86 500 000/00 RMK AO2
14837KMSN MSN20020916073009209/16/02 07:30:31  5-MIN KMSN 161330Z 00000KT 10SM CLR 12/10 A3015 650 86 500 000/00 RMK AO2
14837KMSN MSN20020916073509209/16/02 07:35:31  5-MIN KMSN 161335Z 00000KT 10SM CLR 13/10 A3015 650 83 600 000/00 RMK AO2
14837KMSN MSN20020916074009209/16/02 07:40:31  5-MIN KMSN 161340Z 00000KT 10SM CLR 13/10 A3015 650 83 600 000/00 RMK AO2
14837KMSN MSN20020916074509209/16/02 07:45:31  5-MIN KMSN 161345Z 00000KT 10SM CLR 13/10 A3015 660 80 700 000/00 RMK AO2
14837KMSN MSN20020916075010909/16/02 07:50:31  5-MIN KMSN 161350Z 00000KT 10SM CLR 14/11 A3015 660 80 700 000/00 RMK AO2 SLP210 T01390106
14837KMSN MSN20020916075509209/16/02 07:55:31  5-MIN KMSN 161355Z VRB05KT 10SM CLR 14/11 A3015 660 77 800 VRB/05 RMK AO2
14837KMSN MSN20020916080009209/16/02 08:00:31  5-MIN KMSN 161400Z 22006KT 10SM CLR 16/10 A3015 660 69 900 220/06 RMK AO2
14837KMSN MSN20020916080509209/16/02 08:05:31  5-MIN KMSN 161405Z 21007KT 10SM CLR 16/10 A3015 660 69 900 210/07 RMK AO2
14837KMSN MSN20020916081009209/16/02 08:10:31  5-MIN KMSN 161410Z 22007KT 10SM CLR 16/10 A3015 660 69 900 220/07 RMK AO2
14837KMSN MSN20020916081509209/16/02 08:15:31  5-MIN KMSN 161415Z 21005KT 10SM CLR 16/10 A3015 660 69 900 210/05 RMK AO2
14837KMSN MSN20020916082009309/16/02 08:20:31  5-MIN KMSN 161420Z 21008KT 10SM CLR 16/10 A3015 650 67 1000 210/08 RMK AO2
14837KMSN MSN20020916082509309/16/02 08:25:31  5-MIN KMSN 161425Z 20006KT 10SM CLR 16/11 A3015 660 69 1000 200/06 RMK AO2
14837KMSN MSN20020916083009309/16/02 08:30:31  5-MIN KMSN 161430Z 24005KT 10SM CLR 16/11 A3014 660 69 1000 240/05 RMK AO2
14837KMSN MSN20020916083509309/16/02 08:35:31  5-MIN KMSN 161435Z VRB04KT 10SM CLR 17/11 A3014 660 67 1000 VRB/04 RMK AO2
14837KMSN MSN20020916084009309/16/02 08:40:31  5-MIN KMSN 161440Z VRB04KT 10SM CLR 17/11 A3014 660 67 1100 VRB/04 RMK AO2
14837KMSN MSN20020916084509309/16/02 08:45:31  5-MIN KMSN 161445Z VRB06KT 10SM CLR 17/11 A3014 660 64 1100 VRB/06 RMK AO2
14837KMSN MSN20020916085011609/16/02 08:50:31  5-MIN KMSN 161450Z 18007KT 10SM CLR 17/11 A3014 660 64 1100 180/07 RMK AO2 SLP207 T01720106 53004
14837KMSN MSN20020916085509309/16/02 08:55:31  5-MIN KMSN 161455Z 19005KT 10SM CLR 17/11 A3014 660 64 1100 190/05 RMK AO2
14837KMSN MSN20020916090009309/16/02 09:00:31  5-MIN KMSN 161500Z 18005KT 10SM CLR 18/11 A3014 660 64 1200 180/05 RMK AO2
14837KMSN MSN20020916090509309/16/02 09:05:31  5-MIN KMSN 161505Z VRB04KT 10SM CLR 18/11 A3014 660 62 1200 VRB/04 RMK AO2
14837KMSN MSN20020916091009309/16/02 09:10:31  5-MIN KMSN 161510Z VRB03KT 10SM CLR 18/11 A3014 660 62 1200 VRB/03 RMK AO2
14837KMSN MSN20020916091509309/16/02 09:15:31  5-MIN KMSN 161515Z 18005KT 10SM CLR 18/11 A3014 660 62 1200 180/05 RMK AO2
14837KMSN MSN20020916092009309/16/02 09:20:31  5-MIN KMSN 161520Z 19005KT 10SM CLR 18/11 A3014 660 60 1200 190/05 RMK AO2
14837KMSN MSN20020916092509309/16/02 09:25:31  5-MIN KMSN 161525Z 19005KT 10SM CLR 18/11 A3014 670 60 1300 190/05 RMK AO2
14837KMSN MSN20020916093009309/16/02 09:30:31  5-MIN KMSN 161530Z 20006KT 10SM CLR 18/11 A3014 660 60 1200 200/06 RMK AO2
14837KMSN MSN20020916093509309/16/02 09:35:31  5-MIN KMSN 161535Z VRB04KT 10SM CLR 18/11 A3014 660 60 1200 VRB/04 RMK AO2
14837KMSN MSN20020916094009309/16/02 09:40:31  5-MIN KMSN 161540Z VRB03KT 10SM CLR 19/10 A3014 660 56 1300 VRB/03 RMK AO2
14837KMSN MSN20020916094509309/16/02 09:45:31  5-MIN KMSN 161545Z 22006KT 10SM CLR 19/09 A3014 660 54 1300 220/06 RMK AO2
14837KMSN MSN20020916095011009/16/02 09:50:31  5-MIN KMSN 161550Z 19006KT 10SM CLR 19/10 A3014 660 56 1300 190/06 RMK AO2 SLP206 T01890100
14837KMSN MSN20020916095509309/16/02 09:55:31  5-MIN KMSN 161555Z 24006KT 10SM CLR 19/09 A3014 660 52 1400 240/06 RMK AO2
14837KMSN MSN20020916100009309/16/02 10:00:31  5-MIN KMSN 161600Z 24006KT 10SM CLR 18/09 A3014 660 54 1200 240/06 RMK AO2
14837KMSN MSN20020916100509309/16/02 10:05:31  5-MIN KMSN 161605Z VRB04KT 10SM CLR 19/09 A3014 660 52 1400 VRB/04 RMK AO2
14837KMSN MSN20020916101009309/16/02 10:10:31  5-MIN KMSN 161610Z 26006KT 10SM CLR 19/08 A3014 660 46 1400 260/06 RMK AO2
14837KMSN MSN20020916101509309/16/02 10:15:31  5-MIN KMSN 161615Z VRB06KT 10SM CLR 19/09 A3013 670 50 1400 VRB/06 RMK AO2
14837KMSN MSN20020916102009309/16/02 10:20:31  5-MIN KMSN 161620Z 22006KT 10SM CLR 19/07 A3013 670 44 1400 220/06 RMK AO2
14837KMSN MSN20020916102509309/16/02 10:25:31  5-MIN KMSN 161625Z VRB05KT 10SM CLR 19/08 A3014 670 48 1400 VRB/05 RMK AO2
14837KMSN MSN20020916103009309/16/02 10:30:31  5-MIN KMSN 161630Z VRB04KT 10SM CLR 19/07 A3013 670 44 1400 VRB/04 RMK AO2
14837KMSN MSN20020916103509309/16/02 10:35:31  5-MIN KMSN 161635Z 21005KT 10SM CLR 20/08 A3013 670 45 1400 210/05 RMK AO2
14837KMSN MSN20020916104009309/16/02 10:40:31  5-MIN KMSN 161640Z VRB05KT 10SM CLR 20/09 A3013 670 48 1400 VRB/05 RMK AO2
14837KMSN MSN20020916104509309/16/02 10:45:31  5-MIN KMSN 161645Z VRB04KT 10SM CLR 20/08 A3013 670 46 1400 VRB/04 RMK AO2
14837KMSN MSN20020916105011009/16/02 10:50:31  5-MIN KMSN 161650Z 28006KT 10SM CLR 20/09 A3013 670 48 1400 280/06 RMK AO2 SLP204 T02000089
14837KMSN MSN20020916105509309/16/02 10:55:31  5-MIN KMSN 161655Z 27006KT 10SM CLR 20/09 A3013 670 48 1500 260/06 RMK AO2
14837KMSN MSN20020916110009309/16/02 11:00:31  5-MIN KMSN 161700Z 19006KT 10SM CLR 21/09 A3013 670 46 1500 190/06 RMK AO2
14837KMSN MSN20020916110509309/16/02 11:05:31  5-MIN KMSN 161705Z VRB05KT 10SM CLR 20/08 A3013 680 46 1500 VRB/05 RMK AO2
14837KMSN MSN20020916111009309/16/02 11:10:31  5-MIN KMSN 161710Z 19007KT 10SM CLR 21/08 A3012 680 43 1600 190/07 RMK AO2
14837KMSN MSN20020916111509309/16/02 11:15:31  5-MIN KMSN 161715Z VRB04KT 10SM CLR 21/08 A3012 680 43 1600 VRB/04 RMK AO2
14837KMSN MSN20020916112009309/16/02 11:20:31  5-MIN KMSN 161720Z VRB05KT 10SM CLR 21/08 A3012 680 43 1600 VRB/05 RMK AO2
14837KMSN MSN20020916112509309/16/02 11:25:31  5-MIN KMSN 161725Z 21006KT 10SM CLR 21/08 A3012 680 43 1600 210/06 RMK AO2
14837KMSN MSN20020916113009309/16/02 11:30:31  5-MIN KMSN 161730Z VRB04KT 10SM CLR 21/08 A3012 680 42 1600 VRB/04 RMK AO2
14837KMSN MSN20020916113509309/16/02 11:35:31  5-MIN KMSN 161735Z VRB05KT 10SM CLR 22/08 A3012 680 40 1700 VRB/05 RMK AO2
14837KMSN MSN20020916114009309/16/02 11:40:31  5-MIN KMSN 161740Z VRB06KT 10SM CLR 22/08 A3011 690 40 1700 VRB/06 RMK AO2
14837KMSN MSN20020916114509309/16/02 11:45:31  5-MIN KMSN 161745Z 23005KT 10SM CLR 22/08 A3011 690 40 1700 230/05 RMK AO2
14837KMSN MSN20020916115012809/16/02 11:50:31  5-MIN KMSN 161750Z VRB05KT 10SM CLR 22/08 A3011 690 40 1700 VRB/05 RMK AO2 SLP196 T02170078 10217 20056 50004
14837KMSN MSN20020916115509309/16/02 11:55:31  5-MIN KMSN 161755Z 26007KT 10SM CLR 22/07 A3011 690 39 1700 260/07 RMK AO2
14837KMSN MSN20020916120009309/16/02 12:00:31  5-MIN KMSN 161800Z VRB05KT 10SM CLR 22/07 A3011 690 39 1700 VRB/05 RMK AO2
14837KMSN MSN20020916120509309/16/02 12:05:31  5-MIN KMSN 161805Z 26005KT 10SM CLR 22/07 A3011 690 37 1700 260/05 RMK AO2
14837KMSN MSN20020916121009309/16/02 12:10:31  5-MIN KMSN 161810Z VRB05KT 10SM CLR 22/07 A3010 700 37 1700 VRB/05 RMK AO2
14837KMSN MSN20020916121509309/16/02 12:15:31  5-MIN KMSN 161815Z 19007KT 10SM CLR 22/07 A3010 700 37 1700 190/07 RMK AO2
14837KMSN MSN20020916122009309/16/02 12:20:31  5-MIN KMSN 161820Z 23006KT 10SM CLR 22/07 A3010 700 37 1700 230/06 RMK AO2
14837KMSN MSN20020916122509309/16/02 12:25:31  5-MIN KMSN 161825Z 18007KT 10SM CLR 22/07 A3010 700 36 1700 180/07 RMK AO2
14837KMSN MSN20020916123009309/16/02 12:30:31  5-MIN KMSN 161830Z VRB05KT 10SM CLR 22/07 A3010 700 37 1700 VRB/05 RMK AO2
14837KMSN MSN20020916123509309/16/02 12:35:31  5-MIN KMSN 161835Z 19007KT 10SM CLR 23/08 A3010 700 37 1800 190/07 RMK AO2
14837KMSN MSN20020916124009309/16/02 12:40:31  5-MIN KMSN 161840Z VRB06KT 10SM CLR 23/07 A3009 700 35 1800 VRB/06 RMK AO2
14837KMSN MSN20020916124509309/16/02 12:45:31  5-MIN KMSN 161845Z 19006KT 10SM CLR 23/07 A3009 710 36 1800 190/06 RMK AO2
14837KMSN MSN20020916125011009/16/02 12:50:31  5-MIN KMSN 161850Z VRB05KT 10SM CLR 23/08 A3009 710 37 1800 VRB/05 RMK AO2 SLP190 T02280078
14837KMSN MSN20020916125509309/16/02 12:55:31  5-MIN KMSN 161855Z 23006KT 10SM CLR 23/07 A3009 710 35 1800 230/06 RMK AO2
14837KMSN MSN20020916130009309/16/02 13:00:31  5-MIN KMSN 161900Z VRB06KT 10SM CLR 23/07 A3009 710 35 1800 VRB/06 RMK AO2
14837KMSN MSN20020916130509309/16/02 13:05:31  5-MIN KMSN 161905Z VRB05KT 10SM CLR 23/07 A3009 710 36 1800 VRB/05 RMK AO2
14837KMSN MSN20020916131009309/16/02 13:10:31  5-MIN KMSN 161910Z VRB03KT 10SM CLR 23/07 A3008 710 36 1800 VRB/03 RMK AO2
14837KMSN MSN20020916131509309/16/02 13:15:31  5-MIN KMSN 161915Z 23006KT 10SM CLR 23/07 A3008 710 35 1900 230/06 RMK AO2
14837KMSN MSN20020916132010909/16/02 13:20:31  5-MIN KMSN 161920Z 25007KT 220V290 10SM CLR 23/07 A3008 710 35 1800 250/07 220V290 RMK AO2
14837KMSN MSN20020916132509309/16/02 13:25:31  5-MIN KMSN 161925Z VRB05KT 10SM CLR 23/07 A3008 710 35 1900 VRB/05 RMK AO2
14837KMSN MSN20020916133009309/16/02 13:30:31  5-MIN KMSN 161930Z VRB06KT 10SM CLR 23/07 A3008 720 33 1900 VRB/06 RMK AO2
14837KMSN MSN20020916133509309/16/02 13:35:31  5-MIN KMSN 161935Z VRB06KT 10SM CLR 23/07 A3008 720 33 1900 VRB/06 RMK AO2
14837KMSN MSN20020916134009309/16/02 13:40:31  5-MIN KMSN 161940Z 21008KT 10SM CLR 23/07 A3008 720 33 1900 210/08 RMK AO2
14837KMSN MSN20020916134509309/16/02 13:45:31  5-MIN KMSN 161945Z VRB05KT 10SM CLR 23/07 A3007 720 33 1900 VRB/05 RMK AO2
14837KMSN MSN20020916135011009/16/02 13:50:31  5-MIN KMSN 161950Z 25005KT 10SM CLR 23/07 A3007 720 33 1900 250/05 RMK AO2 SLP183 T02330067
14837KMSN MSN20020916135509309/16/02 13:55:31  5-MIN KMSN 161955Z 24006KT 10SM CLR 23/07 A3007 730 35 1900 240/06 RMK AO2
14837KMSN MSN20020916140009309/16/02 14:00:31  5-MIN KMSN 162000Z VRB05KT 10SM CLR 23/07 A3007 730 35 1900 VRB/05 RMK AO2
14837KMSN MSN20020916140509309/16/02 14:05:31  5-MIN KMSN 162005Z 23005KT 10SM CLR 23/07 A3007 730 35 1900 230/05 RMK AO2
14837KMSN MSN20020916141009309/16/02 14:10:31  5-MIN KMSN 162010Z 22007KT 10SM CLR 24/08 A3007 730 35 2000 220/07 RMK AO2
14837KMSN MSN20020916141509309/16/02 14:15:31  5-MIN KMSN 162015Z VRB06KT 10SM CLR 24/08 A3006 730 35 2000 VRB/06 RMK AO2
14837KMSN MSN20020916142009309/16/02 14:20:31  5-MIN KMSN 162020Z 23006KT 10SM CLR 24/08 A3006 730 35 2000 230/06 RMK AO2
14837KMSN MSN20020916142509309/16/02 14:25:31  5-MIN KMSN 162025Z VRB06KT 10SM CLR 24/08 A3006 730 35 2000 VRB/06 RMK AO2
14837KMSN MSN20020916143009309/16/02 14:30:31  5-MIN KMSN 162030Z 23008KT 10SM CLR 24/07 A3006 740 34 2000 230/08 RMK AO2
14837KMSN MSN20020916143509309/16/02 14:35:31  5-MIN KMSN 162035Z VRB05KT 10SM CLR 24/07 A3006 730 34 2000 VRB/05 RMK AO2
14837KMSN MSN20020916144009309/16/02 14:40:31  5-MIN KMSN 162040Z VRB06KT 10SM CLR 24/07 A3006 740 34 2000 VRB/06 RMK AO2
14837KMSN MSN20020916144509309/16/02 14:45:31  5-MIN KMSN 162045Z 23009KT 10SM CLR 24/07 A3006 730 32 2000 230/09 RMK AO2
14837KMSN MSN20020916145011609/16/02 14:50:31  5-MIN KMSN 162050Z 23008KT 10SM CLR 24/07 A3006 740 32 2000 230/08 RMK AO2 SLP178 T02390067 58010
14837KMSN MSN20020916145509309/16/02 14:55:31  5-MIN KMSN 162055Z 23007KT 10SM CLR 24/07 A3006 740 32 2000 230/07 RMK AO2
14837KMSN MSN20020916150009309/16/02 15:00:31  5-MIN KMSN 162100Z 23007KT 10SM CLR 24/07 A3005 740 32 2000 230/07 RMK AO2
14837KMSN MSN20020916150510909/16/02 15:05:31  5-MIN KMSN 162105Z 24007KT 200V260 10SM CLR 24/07 A3005 740 34 2000 240/07 200V260 RMK AO2
14837KMSN MSN20020916151009309/16/02 15:10:31  5-MIN KMSN 162110Z 22008KT 10SM CLR 24/07 A3005 750 34 2000 220/08 RMK AO2
14837KMSN MSN20020916151509309/16/02 15:15:31  5-MIN KMSN 162115Z VRB05KT 10SM CLR 24/07 A3005 750 34 2000 VRB/05 RMK AO2
14837KMSN MSN20020916152009309/16/02 15:20:31  5-MIN KMSN 162120Z 22006KT 10SM CLR 24/08 A3004 750 35 2000 220/06 RMK AO2
14837KMSN MSN20020916152509309/16/02 15:25:31  5-MIN KMSN 162125Z 23008KT 10SM CLR 23/07 A3004 750 35 1900 230/08 RMK AO2
14837KMSN MSN20020916153009309/16/02 15:30:31  5-MIN KMSN 162130Z 23006KT 10SM CLR 24/08 A3004 750 35 2000 230/06 RMK AO2
14837KMSN MSN20020916153509309/16/02 15:35:31  5-MIN KMSN 162135Z 22006KT 10SM CLR 24/08 A3004 750 35 2000 220/06 RMK AO2
14837KMSN MSN20020916154009309/16/02 15:40:31  5-MIN KMSN 162140Z 24007KT 10SM CLR 24/07 A3004 750 34 2000 240/07 RMK AO2
14837KMSN MSN20020916154509309/16/02 15:45:31  5-MIN KMSN 162145Z 23007KT 10SM CLR 23/08 A3004 750 36 1900 230/07 RMK AO2
14837KMSN MSN20020916155011009/16/02 15:50:31  5-MIN KMSN 162150Z 23006KT 10SM CLR 24/08 A3004 750 36 2000 230/06 RMK AO2 SLP172 T02390083
14837KMSN MSN20020916155509309/16/02 15:55:31  5-MIN KMSN 162155Z VRB05KT 10SM CLR 24/08 A3004 750 36 2000 VRB/05 RMK AO2
14837KMSN MSN20020916160009309/16/02 16:00:31  5-MIN KMSN 162200Z 22006KT 10SM CLR 23/08 A3004 750 38 1900 220/06 RMK AO2
14837KMSN MSN20020916160509309/16/02 16:05:31  5-MIN KMSN 162205Z VRB05KT 10SM CLR 24/08 A3004 750 36 2000 VRB/05 RMK AO2
14837KMSN MSN20020916161009309/16/02 16:10:31  5-MIN KMSN 162210Z 22006KT 10SM CLR 24/08 A3004 750 36 2000 220/06 RMK AO2
14837KMSN MSN20020916161509309/16/02 16:15:31  5-MIN KMSN 162215Z 23005KT 10SM CLR 24/09 A3004 760 38 2000 230/05 RMK AO2
14837KMSN MSN20020916162009309/16/02 16:20:31  5-MIN KMSN 162220Z 21009KT 10SM CLR 23/09 A3004 750 39 1900 210/09 RMK AO2
14837KMSN MSN20020916162509309/16/02 16:25:31  5-MIN KMSN 162225Z 22007KT 10SM CLR 23/08 A3004 760 38 1900 220/07 RMK AO2
14837KMSN MSN20020916163009309/16/02 16:30:31  5-MIN KMSN 162230Z 23005KT 10SM CLR 23/09 A3004 760 39 1900 230/05 RMK AO2
14837KMSN MSN20020916163509309/16/02 16:35:31  5-MIN KMSN 162235Z 22006KT 10SM CLR 23/09 A3004 760 39 1900 220/06 RMK AO2
14837KMSN MSN20020916164009309/16/02 16:40:31  5-MIN KMSN 162240Z 21006KT 10SM CLR 23/08 A3004 760 38 1900 210/06 RMK AO2
14837KMSN MSN20020916164509309/16/02 16:45:31  5-MIN KMSN 162245Z VRB06KT 10SM CLR 23/09 A3004 760 39 1900 VRB/06 RMK AO2
14837KMSN MSN20020916165011009/16/02 16:50:31  5-MIN KMSN 162250Z 20006KT 10SM CLR 23/08 A3004 760 38 1900 200/06 RMK AO2 SLP172 T02330083
14837KMSN MSN20020916165509309/16/02 16:55:31  5-MIN KMSN 162255Z 21006KT 10SM CLR 23/09 A3003 760 39 1900 210/06 RMK AO2
14837KMSN MSN20020916170009309/16/02 17:00:31  5-MIN KMSN 162300Z 21006KT 10SM CLR 23/08 A3003 760 39 1900 210/06 RMK AO2
14837KMSN MSN20020916170509309/16/02 17:05:31  5-MIN KMSN 162305Z 22006KT 10SM CLR 23/08 A3003 760 39 1900 220/06 RMK AO2
14837KMSN MSN20020916171009309/16/02 17:10:31  5-MIN KMSN 162310Z 22006KT 10SM CLR 23/09 A3003 760 40 1900 210/06 RMK AO2
14837KMSN MSN20020916171509309/16/02 17:15:31  5-MIN KMSN 162315Z 22008KT 10SM CLR 23/08 A3003 760 39 1900 220/08 RMK AO2
14837KMSN MSN20020916172009309/16/02 17:20:31  5-MIN KMSN 162320Z 22006KT 10SM CLR 22/09 A3003 760 42 1800 220/06 RMK AO2
14837KMSN MSN20020916172510909/16/02 17:25:31  5-MIN KMSN 162325Z 21007KT 180V240 10SM CLR 22/09 A3003 770 42 1800 210/07 180V240 RMK AO2
14837KMSN MSN20020916173009309/16/02 17:30:31  5-MIN KMSN 162330Z 21006KT 10SM CLR 22/09 A3003 770 42 1800 210/06 RMK AO2
14837KMSN MSN20020916173509309/16/02 17:35:31  5-MIN KMSN 162335Z 21005KT 10SM CLR 22/09 A3002 770 42 1800 210/05 RMK AO2
14837KMSN MSN20020916174009309/16/02 17:40:31  5-MIN KMSN 162340Z 22005KT 10SM CLR 22/09 A3002 770 43 1800 220/05 RMK AO2
14837KMSN MSN20020916174509309/16/02 17:45:31  5-MIN KMSN 162345Z 21007KT 10SM CLR 22/09 A3002 770 43 1800 210/07 RMK AO2
14837KMSN MSN20020916175012809/16/02 17:50:31  5-MIN KMSN 162350Z 22006KT 10SM CLR 22/09 A3002 770 43 1800 220/06 RMK AO2 SLP167 T02170089 10239 20217 56017
14837KMSN MSN20020916175509309/16/02 17:55:31  5-MIN KMSN 162355Z 22005KT 10SM CLR 22/09 A3002 770 45 1800 220/05 RMK AO2
14837KMSN MSN20020916180009309/16/02 18:00:31  5-MIN KMSN 170000Z 21004KT 10SM CLR 21/09 A3002 770 47 1700 210/04 RMK AO2
14837KMSN MSN20020916180509309/16/02 18:05:31  5-MIN KMSN 170005Z 21006KT 10SM CLR 21/09 A3002 770 47 1700 210/06 RMK AO2
14837KMSN MSN20020916181009309/16/02 18:10:31  5-MIN KMSN 170010Z 21004KT 10SM CLR 21/09 A3002 770 47 1700 210/04 RMK AO2
14837KMSN MSN20020916181509309/16/02 18:15:31  5-MIN KMSN 170015Z 21004KT 10SM CLR 21/09 A3002 780 48 1600 210/04 RMK AO2
14837KMSN MSN20020916182009309/16/02 18:20:31  5-MIN KMSN 170020Z 21004KT 10SM CLR 21/09 A3002 770 48 1600 210/04 RMK AO2
14837KMSN MSN20020916182509309/16/02 18:25:31  5-MIN KMSN 170025Z 21004KT 10SM CLR 21/10 A3002 770 50 1600 210/04 RMK AO2
14837KMSN MSN20020916183009309/16/02 18:30:31  5-MIN KMSN 170030Z 21004KT 10SM CLR 21/10 A3002 770 50 1600 210/04 RMK AO2
14837KMSN MSN20020916183509309/16/02 18:35:31  5-MIN KMSN 170035Z 21004KT 10SM CLR 21/10 A3002 770 50 1600 200/04 RMK AO2
14837KMSN MSN20020916184009309/16/02 18:40:31  5-MIN KMSN 170040Z 20004KT 10SM CLR 20/10 A3002 770 52 1600 200/04 RMK AO2
14837KMSN MSN20020916184509309/16/02 18:45:31  5-MIN KMSN 170045Z 20003KT 10SM CLR 20/10 A3002 770 52 1600 200/03 RMK AO2
14837KMSN MSN20020916185011009/16/02 18:50:31  5-MIN KMSN 170050Z 20004KT 10SM CLR 21/10 A3002 770 50 1600 200/04 RMK AO2 SLP166 T02060100
14837KMSN MSN20020916185509309/16/02 18:55:31  5-MIN KMSN 170055Z 00000KT 10SM CLR 20/10 A3002 770 52 1600 000/00 RMK AO2
14837KMSN MSN20020916190009309/16/02 19:00:31  5-MIN KMSN 170100Z 21003KT 10SM CLR 20/11 A3002 770 54 1600 210/03 RMK AO2
14837KMSN MSN20020916190509309/16/02 19:05:31  5-MIN KMSN 170105Z 22003KT 10SM CLR 19/11 A3002 770 56 1500 220/03 RMK AO2
14837KMSN MSN20020916191009309/16/02 19:10:31  5-MIN KMSN 170110Z 21004KT 10SM CLR 19/11 A3002 770 58 1400 210/04 RMK AO2
14837KMSN MSN20020916191509309/16/02 19:15:31  5-MIN KMSN 170115Z 22003KT 10SM CLR 19/11 A3002 770 58 1400 210/03 RMK AO2
14837KMSN MSN20020916192009309/16/02 19:20:31  5-MIN KMSN 170120Z 21003KT 10SM CLR 18/11 A3003 770 60 1400 210/03 RMK AO2
14837KMSN MSN20020916192509309/16/02 19:25:31  5-MIN KMSN 170125Z 21004KT 10SM CLR 19/11 A3003 760 58 1400 210/04 RMK AO2
14837KMSN MSN20020916193009309/16/02 19:30:31  5-MIN KMSN 170130Z 21004KT 10SM CLR 19/11 A3003 760 58 1400 210/04 RMK AO2
14837KMSN MSN20020916193509309/16/02 19:35:31  5-MIN KMSN 170135Z 22003KT 10SM CLR 19/11 A3003 760 58 1400 220/03 RMK AO2
14837KMSN MSN20020916194009309/16/02 19:40:31  5-MIN KMSN 170140Z 22003KT 10SM CLR 19/11 A3003 760 58 1400 220/03 RMK AO2
14837KMSN MSN20020916194509309/16/02 19:45:31  5-MIN KMSN 170145Z 21003KT 10SM CLR 18/11 A3003 760 60 1400 210/03 RMK AO2
14837KMSN MSN20020916195011009/16/02 19:50:31  5-MIN KMSN 170150Z 21004KT 10SM CLR 19/11 A3003 760 58 1400 210/04 RMK AO2 SLP168 T01890106
14837KMSN MSN20020916195509309/16/02 19:55:31  5-MIN KMSN 170155Z 22004KT 10SM CLR 18/11 A3003 760 60 1400 220/04 RMK AO2
14837KMSN MSN20020916200009309/16/02 20:00:31  5-MIN KMSN 170200Z 22005KT 10SM CLR 19/11 A3003 760 58 1400 220/05 RMK AO2
14837KMSN MSN20020916200509309/16/02 20:05:31  5-MIN KMSN 170205Z 21005KT 10SM CLR 19/11 A3003 760 58 1400 210/05 RMK AO2
14837KMSN MSN20020916201009309/16/02 20:10:31  5-MIN KMSN 170210Z 22006KT 10SM CLR 19/11 A3003 770 58 1400 210/06 RMK AO2
14837KMSN MSN20020916201509309/16/02 20:15:31  5-MIN KMSN 170215Z 22004KT 10SM CLR 19/11 A3003 760 58 1400 220/04 RMK AO2
14837KMSN MSN20020916202009309/16/02 20:20:31  5-MIN KMSN 170220Z 21004KT 10SM CLR 19/11 A3003 760 58 1400 210/04 RMK AO2
14837KMSN MSN20020916202509309/16/02 20:25:31  5-MIN KMSN 170225Z 22004KT 10SM CLR 19/11 A3003 760 58 1400 210/04 RMK AO2
14837KMSN MSN20020916203009309/16/02 20:30:31  5-MIN KMSN 170230Z 21003KT 10SM CLR 19/11 A3003 760 58 1400 210/03 RMK AO2
14837KMSN MSN20020916203509309/16/02 20:35:31  5-MIN KMSN 170235Z 22004KT 10SM CLR 18/11 A3003 760 60 1400 220/04 RMK AO2
14837KMSN MSN20020916204009309/16/02 20:40:31  5-MIN KMSN 170240Z 20004KT 10SM CLR 18/11 A3003 760 60 1400 200/04 RMK AO2
14837KMSN MSN20020916204509309/16/02 20:45:31  5-MIN KMSN 170245Z 21004KT 10SM CLR 18/11 A3003 760 60 1400 200/04 RMK AO2
14837KMSN MSN20020916205011609/16/02 20:50:31  5-MIN KMSN 170250Z 21003KT 10SM CLR 19/11 A3003 760 58 1400 210/03 RMK AO2 SLP167 T01890106 56012
14837KMSN MSN20020916205509309/16/02 20:55:31  5-MIN KMSN 170255Z 19004KT 10SM CLR 19/11 A3003 760 58 1400 190/04 RMK AO2
14837KMSN MSN20020916210009309/16/02 21:00:31  5-MIN KMSN 170300Z 20004KT 10SM CLR 19/11 A3003 760 58 1400 200/04 RMK AO2
14837KMSN MSN20020916210509309/16/02 21:05:31  5-MIN KMSN 170305Z 19004KT 10SM CLR 18/11 A3003 760 62 1400 190/04 RMK AO2
14837KMSN MSN20020916211009309/16/02 21:10:31  5-MIN KMSN 170310Z 20004KT 10SM CLR 18/11 A3003 760 62 1400 200/04 RMK AO2
14837KMSN MSN20020916211509309/16/02 21:15:31  5-MIN KMSN 170315Z 20004KT 10SM CLR 18/11 A3003 760 62 1400 200/04 RMK AO2
14837KMSN MSN20020916212009309/16/02 21:20:31  5-MIN KMSN 170320Z 20003KT 10SM CLR 18/11 A3003 760 62 1400 200/03 RMK AO2
14837KMSN MSN20020916212509309/16/02 21:25:31  5-MIN KMSN 170325Z 20003KT 10SM CLR 18/12 A3003 760 65 1400 200/03 RMK AO2
14837KMSN MSN20020916213009309/16/02 21:30:31  5-MIN KMSN 170330Z 20004KT 10SM CLR 18/12 A3003 760 65 1400 200/04 RMK AO2
14837KMSN MSN20020916213509309/16/02 21:35:31  5-MIN KMSN 170335Z 20003KT 10SM CLR 18/11 A3003 760 60 1400 190/03 RMK AO2
14837KMSN MSN20020916214009309/16/02 21:40:31  5-MIN KMSN 170340Z 20003KT 10SM CLR 18/11 A3004 760 64 1300 200/03 RMK AO2
14837KMSN MSN20020916214509309/16/02 21:45:31  5-MIN KMSN 170345Z 20003KT 10SM CLR 18/11 A3004 760 64 1300 200/03 RMK AO2
14837KMSN MSN20020916215011009/16/02 21:50:31  5-MIN KMSN 170350Z 20004KT 10SM CLR 18/11 A3004 760 64 1300 200/04 RMK AO2 SLP169 T01780111
14837KMSN MSN20020916215509309/16/02 21:55:31  5-MIN KMSN 170355Z 21004KT 10SM CLR 18/11 A3004 760 62 1300 210/04 RMK AO2
14837KMSN MSN20020916220009309/16/02 22:00:31  5-MIN KMSN 170400Z 20003KT 10SM CLR 17/11 A3004 760 69 1200 200/03 RMK AO2
14837KMSN MSN20020916220509309/16/02 22:05:31  5-MIN KMSN 170405Z 20003KT 10SM CLR 16/11 A3004 750 72 1100 200/03 RMK AO2
14837KMSN MSN20020916221009309/16/02 22:10:31  5-MIN KMSN 170410Z 00000KT 10SM CLR 16/11 A3004 750 72 1000 000/00 RMK AO2
14837KMSN MSN20020916221509309/16/02 22:15:31  5-MIN KMSN 170415Z 00000KT 10SM CLR 15/10 A3004 750 72 1000 000/00 RMK AO2
14837KMSN MSN20020916222009209/16/02 22:20:31  5-MIN KMSN 170420Z 00000KT 10SM CLR 14/10 A3004 760 74 900 000/00 RMK AO2
14837KMSN MSN20020916222509209/16/02 22:25:31  5-MIN KMSN 170425Z 00000KT 10SM CLR 14/10 A3004 760 74 900 000/00 RMK AO2
14837KMSN MSN20020916223009209/16/02 22:30:31  5-MIN KMSN 170430Z 00000KT 10SM CLR 14/10 A3003 760 74 900 000/00 RMK AO2
14837KMSN MSN20020916223509209/16/02 22:35:31  5-MIN KMSN 170435Z 00000KT 10SM CLR 14/10 A3004 760 74 900 000/00 RMK AO2
14837KMSN MSN20020916224009209/16/02 22:40:31  5-MIN KMSN 170440Z 00000KT 10SM CLR 14/09 A3004 760 74 800 000/00 RMK AO2
14837KMSN MSN20020916224509209/16/02 22:45:31  5-MIN KMSN 170445Z 00000KT 10SM CLR 14/10 A3004 760 74 900 000/00 RMK AO2
14837KMSN MSN20020916225010909/16/02 22:50:31  5-MIN KMSN 170450Z 00000KT 10SM CLR 14/11 A3004 760 80 800 000/00 RMK AO2 SLP171 T01390106
14837KMSN MSN20020916225509209/16/02 22:55:31  5-MIN KMSN 170455Z 00000KT 10SM CLR 14/10 A3004 760 77 800 000/00 RMK AO2
14837KMSN MSN20020916230009209/16/02 23:00:31  5-MIN KMSN 170500Z 00000KT 10SM CLR 13/10 A3004 760 80 800 000/00 RMK AO2
14837KMSN MSN20020916230509209/16/02 23:05:31  5-MIN KMSN 170505Z 00000KT 10SM CLR 13/10 A3004 760 80 800 000/00 RMK AO2
14837KMSN MSN20020916231009209/16/02 23:10:31  5-MIN KMSN 170510Z 00000KT 10SM CLR 13/10 A3004 750 83 700 000/00 RMK AO2
14837KMSN MSN20020916231509209/16/02 23:15:31  5-MIN KMSN 170515Z 00000KT 10SM CLR 13/10 A3004 750 83 700 000/00 RMK AO2
14837KMSN MSN20020916232009209/16/02 23:20:31  5-MIN KMSN 170520Z 00000KT 10SM CLR 13/11 A3004 760 86 700 000/00 RMK AO2
14837KMSN MSN20020916232509209/16/02 23:25:31  5-MIN KMSN 170525Z 00000KT 10SM CLR 13/11 A3004 760 86 700 000/00 RMK AO2
14837KMSN MSN20020916233009209/16/02 23:30:31  5-MIN KMSN 170530Z 00000KT 10SM CLR 13/10 A3004 760 83 700 000/00 RMK AO2
14837KMSN MSN20020916233509209/16/02 23:35:31  5-MIN KMSN 170535Z 00000KT 10SM CLR 12/10 A3004 760 86 600 000/00 RMK AO2
14837KMSN MSN20020916234009209/16/02 23:40:31  5-MIN KMSN 170540Z 00000KT 10SM CLR 12/10 A3004 760 86 600 000/00 RMK AO2
14837KMSN MSN20020916234509209/16/02 23:45:31  5-MIN KMSN 170545Z 00000KT 10SM CLR 12/10 A3004 760 86 600 000/00 RMK AO2
14837KMSN MSN20020916235013709/16/02 23:50:31  5-MIN KMSN 170550Z 00000KT 10SM CLR 12/10 A3004 760 89 600 000/00 RMK AO2 SLP170 T01170100 10217 20117 402390050 52003
14837KMSN MSN20020916235509209/16/02 23:55:31  5-MIN KMSN 170555Z 00000KT 10SM CLR 12/10 A3004 760 89 600 000/00 RMK AO2
14837KMSN MSN20020917000009209/17/02 00:00:31  5-MIN KMSN 170600Z 00000KT 10SM CLR 12/11 A3004 760 93 600 000/00 RMK AO2
14837KMSN MSN20020917000509209/17/02 00:05:31  5-MIN KMSN 170605Z 00000KT 10SM CLR 12/11 A3003 760 93 600 000/00 RMK AO2
14837KMSN MSN20020917001009209/17/02 00:10:31  5-MIN KMSN 170610Z 00000KT 10SM CLR 12/11 A3003 760 93 600 000/00 RMK AO2
14837KMSN MSN20020917001509209/17/02 00:15:31  5-MIN KMSN 170615Z 00000KT 10SM CLR 12/10 A3004 760 89 600 000/00 RMK AO2
14837KMSN MSN20020917002009209/17/02 00:20:31  5-MIN KMSN 170620Z 00000KT 10SM CLR 12/10 A3004 760 89 600 000/00 RMK AO2
14837KMSN MSN20020917002509209/17/02 00:25:31  5-MIN KMSN 170625Z 00000KT 10SM CLR 12/10 A3004 760 86 600 000/00 RMK AO2
14837KMSN MSN20020917003009209/17/02 00:30:31  5-MIN KMSN 170630Z 00000KT 10SM CLR 12/10 A3004 760 89 600 000/00 RMK AO2
14837KMSN MSN20020917003509209/17/02 00:35:31  5-MIN KMSN 170635Z 00000KT 10SM CLR 11/10 A3004 760 93 500 000/00 RMK AO2
14837KMSN MSN20020917004009209/17/02 00:40:31  5-MIN KMSN 170640Z 00000KT 10SM CLR 11/10 A3004 760 93 500 000/00 RMK AO2
14837KMSN MSN20020917004509209/17/02 00:45:31  5-MIN KMSN 170645Z 00000KT 10SM CLR 12/10 A3004 760 89 600 000/00 RMK AO2
14837KMSN MSN20020917005010909/17/02 00:50:31  5-MIN KMSN 170650Z 00000KT 10SM CLR 11/10 A3004 750 93 500 000/00 RMK AO2 SLP171 T01110100
14837KMSN MSN20020917005509209/17/02 00:55:31  5-MIN KMSN 170655Z 00000KT 10SM CLR 12/10 A3004 750 89 600 000/00 RMK AO2
14837KMSN MSN20020917010009209/17/02 01:00:31  5-MIN KMSN 170700Z 00000KT 10SM CLR 12/10 A3004 760 89 600 000/00 RMK AO2
14837KMSN MSN20020917010509209/17/02 01:05:31  5-MIN KMSN 170705Z 00000KT 10SM CLR 12/10 A3004 760 89 600 000/00 RMK AO2
14837KMSN MSN20020917011009209/17/02 01:10:31  5-MIN KMSN 170710Z 00000KT 10SM CLR 11/10 A3004 760 93 500 000/00 RMK AO2
14837KMSN MSN20020917011509209/17/02 01:15:31  5-MIN KMSN 170715Z 00000KT 10SM CLR 11/10 A3004 760 93 500 000/00 RMK AO2
14837KMSN MSN20020917012009209/17/02 01:20:31  5-MIN KMSN 170720Z 00000KT 10SM CLR 12/10 A3004 760 89 600 000/00 RMK AO2
14837KMSN MSN20020917012509209/17/02 01:25:31  5-MIN KMSN 170725Z 00000KT 10SM CLR 11/10 A3004 760 93 500 000/00 RMK AO2
14837KMSN MSN20020917013009209/17/02 01:30:31  5-MIN KMSN 170730Z 00000KT 10SM CLR 11/10 A3004 760 93 500 000/00 RMK AO2
14837KMSN MSN20020917013509209/17/02 01:35:31  5-MIN KMSN 170735Z 00000KT 10SM CLR 12/10 A3004 760 89 600 000/00 RMK AO2
14837KMSN MSN20020917014009209/17/02 01:40:31  5-MIN KMSN 170740Z 00000KT 10SM CLR 11/10 A3004 760 93 500 000/00 RMK AO2
14837KMSN MSN20020917014509209/17/02 01:45:31  5-MIN KMSN 170745Z 00000KT 10SM CLR 11/10 A3004 760 93 500 000/00 RMK AO2
14837KMSN MSN20020917015010909/17/02 01:50:31  5-MIN KMSN 170750Z 00000KT 10SM CLR 11/10 A3003 760 93 500 000/00 RMK AO2 SLP169 T01110100
14837KMSN MSN20020917015509209/17/02 01:55:31  5-MIN KMSN 170755Z 00000KT 10SM CLR 11/10 A3003 760 93 500 000/00 RMK AO2
14837KMSN MSN20020917020009209/17/02 02:00:31  5-MIN KMSN 170800Z 00000KT 10SM CLR 11/10 A3003 760 93 500 000/00 RMK AO2
14837KMSN MSN20020917020509209/17/02 02:05:31  5-MIN KMSN 170805Z 00000KT 10SM CLR 11/10 A3003 760 93 500 000/00 RMK AO2
14837KMSN MSN20020917021009209/17/02 02:10:31  5-MIN KMSN 170810Z 00000KT 10SM CLR 11/10 A3003 760 93 500 000/00 RMK AO2
14837KMSN MSN20020917021509209/17/02 02:15:31  5-MIN KMSN 170815Z 00000KT 10SM CLR 11/10 A3003 760 96 500 000/00 RMK AO2
14837KMSN MSN20020917022009209/17/02 02:20:31  5-MIN KMSN 170820Z 00000KT 10SM CLR 11/09 A3003 760 89 500 000/00 RMK AO2
14837KMSN MSN20020917022509209/17/02 02:25:31  5-MIN KMSN 170825Z 00000KT 10SM CLR 11/09 A3003 770 89 500 000/00 RMK AO2
14837KMSN MSN20020917023009209/17/02 02:30:31  5-MIN KMSN 170830Z 00000KT 10SM CLR 11/09 A3003 770 93 500 000/00 RMK AO2
14837KMSN MSN20020917023509209/17/02 02:35:31  5-MIN KMSN 170835Z 00000KT 10SM CLR 11/10 A3003 770 96 500 000/00 RMK AO2
14837KMSN MSN20020917024009209/17/02 02:40:31  5-MIN KMSN 170840Z 15003KT 10SM CLR 12/09 A3003 770 86 600 150/03 RMK AO2
14837KMSN MSN20020917024509209/17/02 02:45:31  5-MIN KMSN 170845Z 16003KT 10SM CLR 12/09 A3003 770 86 600 160/03 RMK AO2
14837KMSN MSN20020917025011509/17/02 02:50:31  5-MIN KMSN 170850Z 00000KT 10SM CLR 12/10 A3003 760 86 700 000/00 RMK AO2 SLP166 T01220100 50002
14837KMSN MSN20020917025509209/17/02 02:55:31  5-MIN KMSN 170855Z 17003KT 10SM CLR 11/09 A3003 760 89 500 170/03 RMK AO2
14837KMSN MSN20020917030009209/17/02 03:00:31  5-MIN KMSN 170900Z 17003KT 10SM CLR 11/09 A3003 760 86 500 170/03 RMK AO2
14837KMSN MSN20020917030509209/17/02 03:05:31  5-MIN KMSN 170905Z 16003KT 10SM CLR 11/09 A3003 760 89 500 160/03 RMK AO2
14837KMSN MSN20020917031009209/17/02 03:10:31  5-MIN KMSN 170910Z 00000KT 10SM CLR 11/09 A3003 760 86 500 000/00 RMK AO2
14837KMSN MSN20020917031509209/17/02 03:15:31  5-MIN KMSN 170915Z 00000KT 10SM CLR 11/09 A3003 760 86 500 000/00 RMK AO2
14837KMSN MSN20020917032009209/17/02 03:20:31  5-MIN KMSN 170920Z 00000KT 10SM CLR 11/09 A3003 760 86 500 000/00 RMK AO2
14837KMSN MSN20020917032509209/17/02 03:25:31  5-MIN KMSN 170925Z 00000KT 10SM CLR 11/09 A3003 760 89 500 000/00 RMK AO2
14837KMSN MSN20020917033009209/17/02 03:30:31  5-MIN KMSN 170930Z 00000KT 10SM CLR 11/09 A3003 760 93 400 000/00 RMK AO2
14837KMSN MSN20020917033509209/17/02 03:35:31  5-MIN KMSN 170935Z 00000KT 10SM CLR 10/09 A3003 760 96 400 000/00 RMK AO2
14837KMSN MSN20020917034009109/17/02 03:40:31  5-MIN KMSN 170940Z 00000KT 9SM CLR 10/09 A3004 760 96 400 000/00 RMK AO2
14837KMSN MSN20020917034509109/17/02 03:45:31  5-MIN KMSN 170945Z 00000KT 9SM CLR 10/09 A3004 760 96 400 000/00 RMK AO2
14837KMSN MSN20020917035010909/17/02 03:50:31  5-MIN KMSN 170950Z 00000KT 10SM CLR 11/09 A3004 760 93 400 000/00 RMK AO2 SLP170 T01060094
14837KMSN MSN20020917035509109/17/02 03:55:31  5-MIN KMSN 170955Z 00000KT 8SM CLR 10/09 A3004 760 96 400 000/00 RMK AO2
14837KMSN MSN20020917040009109/17/02 04:00:31  5-MIN KMSN 171000Z 00000KT 8SM CLR 10/09 A3004 760 96 400 000/00 RMK AO2
14837KMSN MSN20020917040509109/17/02 04:05:31  5-MIN KMSN 171005Z 00000KT 9SM CLR 11/09 A3004 760 93 400 000/00 RMK AO2
14837KMSN MSN20020917041009109/17/02 04:10:31  5-MIN KMSN 171010Z 00000KT 9SM CLR 10/09 A3003 760 96 400 000/00 RMK AO2
14837KMSN MSN20020917041509109/17/02 04:15:31  5-MIN KMSN 171015Z 00000KT 9SM CLR 10/08 A3004 760 89 400 000/00 RMK AO2
14837KMSN MSN20020917042009209/17/02 04:20:31  5-MIN KMSN 171020Z 00000KT 10SM CLR 09/08 A3004 750 93 300 000/00 RMK AO2
14837KMSN MSN20020917042509209/17/02 04:25:31  5-MIN KMSN 171025Z 00000KT 10SM CLR 10/09 A3004 750 96 400 000/00 RMK AO2
14837KMSN MSN20020917043009209/17/02 04:30:31  5-MIN KMSN 171030Z 00000KT 10SM CLR 11/09 A3004 750 93 400 000/00 RMK AO2
14837KMSN MSN20020917043509209/17/02 04:35:31  5-MIN KMSN 171035Z 00000KT 10SM CLR 10/09 A3004 750 93 400 000/00 RMK AO2
14837KMSN MSN20020917044009109/17/02 04:40:31  5-MIN KMSN 171040Z 00000KT 8SM CLR 10/09 A3004 750 96 400 000/00 RMK AO2
14837KMSN MSN20020917044509409/17/02 04:45:31  5-MIN KMSN 171045Z 00000KT 6SM BR CLR 09/09 A3004 750 96 300 000/00 RMK AO2
14837KMSN MSN20020917045010909/17/02 04:50:31  5-MIN KMSN 171050Z 00000KT 10SM CLR 10/09 A3004 750 96 400 000/00 RMK AO2 SLP172 T01000094
14837KMSN MSN20020917045509409/17/02 04:55:31  5-MIN KMSN 171055Z 00000KT 6SM BR CLR 09/09 A3004 750 96 300 000/00 RMK AO2
14837KMSN MSN20020917050009409/17/02 05:00:31  5-MIN KMSN 171100Z 00000KT 6SM BR CLR 10/09 A3004 750 96 400 000/00 RMK AO2
14837KMSN MSN20020917050509409/17/02 05:05:31  5-MIN KMSN 171105Z 00000KT 6SM BR CLR 10/09 A3004 750 96 400 000/00 RMK AO2
14837KMSN MSN20020917051009409/17/02 05:10:31  5-MIN KMSN 171110Z 00000KT 6SM BR CLR 10/09 A3004 750 96 400 000/00 RMK AO2
14837KMSN MSN20020917051509409/17/02 05:15:31  5-MIN KMSN 171115Z 00000KT 5SM BR CLR 09/09 A3004 750 96 300 000/00 RMK AO2
14837KMSN MSN20020917052009409/17/02 05:20:31  5-MIN KMSN 171120Z 00000KT 4SM BR CLR 09/09 A3005 750 96 300 000/00 RMK AO2
14837KMSN MSN20020917052509409/17/02 05:25:31  5-MIN KMSN 171125Z 00000KT 4SM BR CLR 10/09 A3005 750 96 400 000/00 RMK AO2
14837KMSN MSN20020917053009209/17/02 05:30:31  5-MIN KMSN 171130Z 00000KT 10SM CLR 10/09 A3005 750 96 400 000/00 RMK AO2
14837KMSN MSN20020917053509209/17/02 05:35:31  5-MIN KMSN 171135Z 00000KT 10SM CLR 09/09 A3005 750 96 300 000/00 RMK AO2
14837KMSN MSN20020917054009209/17/02 05:40:31  5-MIN KMSN 171140Z 00000KT 10SM CLR 10/09 A3005 750 96 400 000/00 RMK AO2
14837KMSN MSN20020917054509209/17/02 05:45:31  5-MIN KMSN 171145Z 00000KT 10SM CLR 09/09 A3005 750 96 300 000/00 RMK AO2
14837KMSN MSN20020917055012709/17/02 05:50:31  5-MIN KMSN 171150Z 00000KT 10SM CLR 09/09 A3005 740 96 300 000/00 RMK AO2 SLP176 T00940089 10122 20094 58003
14837KMSN MSN20020917055509209/17/02 05:55:31  5-MIN KMSN 171155Z 00000KT 10SM CLR 09/09 A3005 740 96 300 000/00 RMK AO2
14837KMSN MSN20020917060009209/17/02 06:00:31  5-MIN KMSN 171200Z 00000KT 10SM CLR 09/09 A3005 740 96 300 000/00 RMK AO2
14837KMSN MSN20020917060509209/17/02 06:05:31  5-MIN KMSN 171205Z 00000KT 10SM CLR 09/09 A3005 740 96 300 000/00 RMK AO2
14837KMSN MSN20020917061009209/17/02 06:10:31  5-MIN KMSN 171210Z 00000KT 10SM CLR 10/09 A3006 740 96 400 000/00 RMK AO2
14837KMSN MSN20020917061509209/17/02 06:15:31  5-MIN KMSN 171215Z 00000KT 10SM CLR 11/09 A3006 740 93 400 000/00 RMK AO2
14837KMSN MSN20020917062009209/17/02 06:20:31  5-MIN KMSN 171220Z 00000KT 10SM CLR 11/10 A3006 740 93 500 000/00 RMK AO2
14837KMSN MSN20020917062509209/17/02 06:25:31  5-MIN KMSN 171225Z 00000KT 10SM CLR 12/10 A3006 740 89 600 000/00 RMK AO2
14837KMSN MSN20020917063009209/17/02 06:30:31  5-MIN KMSN 171230Z 00000KT 10SM CLR 12/10 A3006 740 89 600 000/00 RMK AO2
14837KMSN MSN20020917063509209/17/02 06:35:31  5-MIN KMSN 171235Z 00000KT 10SM CLR 12/10 A3006 740 86 600 000/00 RMK AO2
14837KMSN MSN20020917064009209/17/02 06:40:31  5-MIN KMSN 171240Z 00000KT 10SM CLR 12/11 A3006 740 89 600 000/00 RMK AO2
14837KMSN MSN20020917064509209/17/02 06:45:31  5-MIN KMSN 171245Z 00000KT 10SM CLR 13/11 A3006 730 89 700 000/00 RMK AO2
14837KMSN MSN20020917065010909/17/02 06:50:31  5-MIN KMSN 171250Z 00000KT 10SM CLR 13/11 A3006 730 86 700 000/00 RMK AO2 SLP178 T01330111
14837KMSN MSN20020917065509109/17/02 06:55:31  5-MIN KMSN 171255Z 00000KT 8SM CLR 13/11 A3006 730 86 700 000/00 RMK AO2
14837KMSN MSN20020917070009109/17/02 07:00:31  5-MIN KMSN 171300Z 00000KT 8SM CLR 14/12 A3007 730 86 800 000/00 RMK AO2
14837KMSN MSN20020917070509109/17/02 07:05:31  5-MIN KMSN 171305Z 00000KT 8SM CLR 14/12 A3007 730 83 900 000/00 RMK AO2
14837KMSN MSN20020917071009209/17/02 07:10:31  5-MIN KMSN 171310Z 00000KT 10SM CLR 15/12 A3007 730 83 900 000/00 RMK AO2
14837KMSN MSN20020917071509309/17/02 07:15:31  5-MIN KMSN 171315Z 00000KT 10SM CLR 16/12 A3007 730 80 1000 000/00 RMK AO2
14837KMSN MSN20020917072009309/17/02 07:20:31  5-MIN KMSN 171320Z 00000KT 10SM CLR 16/13 A3007 730 80 1100 000/00 RMK AO2
14837KMSN MSN20020917072509309/17/02 07:25:31  5-MIN KMSN 171325Z 00000KT 10SM CLR 17/13 A3007 730 77 1100 000/00 RMK AO2
14837KMSN MSN20020917073009309/17/02 07:30:31  5-MIN KMSN 171330Z 00000KT 10SM CLR 17/13 A3007 730 78 1200 000/00 RMK AO2
14837KMSN MSN20020917073509309/17/02 07:35:31  5-MIN KMSN 171335Z 00000KT 10SM CLR 18/13 A3007 730 75 1300 000/00 RMK AO2
14837KMSN MSN20020917074009309/17/02 07:40:31  5-MIN KMSN 171340Z 00000KT 10SM CLR 18/13 A3007 730 72 1300 000/00 RMK AO2
14837KMSN MSN20020917074509309/17/02 07:45:31  5-MIN KMSN 171345Z 22003KT 10SM CLR 18/13 A3007 730 72 1300 220/03 RMK AO2
14837KMSN MSN20020917075011009/17/02 07:50:31  5-MIN KMSN 171350Z VRB04KT 10SM CLR 19/13 A3007 730 67 1400 VRB/04 RMK AO2 SLP180 T01890128
14837KMSN MSN20020917075509309/17/02 07:55:31  5-MIN KMSN 171355Z 23004KT 10SM CLR 19/13 A3007 730 70 1400 230/04 RMK AO2
14837KMSN MSN20020917080009309/17/02 08:00:31  5-MIN KMSN 171400Z VRB03KT 10SM CLR 19/13 A3007 730 67 1400 VRB/03 RMK AO2
14837KMSN MSN20020917080509309/17/02 08:05:31  5-MIN KMSN 171405Z 22003KT 10SM CLR 19/13 A3007 730 67 1500 220/03 RMK AO2
14837KMSN MSN20020917081009309/17/02 08:10:31  5-MIN KMSN 171410Z VRB04KT 10SM CLR 19/13 A3007 730 67 1500 VRB/04 RMK AO2
14837KMSN MSN20020917081509309/17/02 08:15:31  5-MIN KMSN 171415Z VRB03KT 10SM CLR 19/13 A3007 730 65 1500 VRB/03 RMK AO2
14837KMSN MSN20020917082009309/17/02 08:20:31  5-MIN KMSN 171420Z 19005KT 10SM CLR 20/13 A3007 720 63 1500 190/05 RMK AO2
14837KMSN MSN20020917082509309/17/02 08:25:31  5-MIN KMSN 171425Z 19004KT 10SM CLR 20/13 A3007 730 63 1500 190/04 RMK AO2
14837KMSN MSN20020917083009309/17/02 08:30:31  5-MIN KMSN 171430Z 22004KT 10SM CLR 20/13 A3007 730 63 1500 220/04 RMK AO2
14837KMSN MSN20020917083509309/17/02 08:35:31  5-MIN KMSN 171435Z 20005KT 10SM CLR 20/13 A3007 730 63 1500 200/05 RMK AO2
14837KMSN MSN20020917084009309/17/02 08:40:31  5-MIN KMSN 171440Z 22005KT 10SM CLR 21/13 A3007 730 63 1600 220/05 RMK AO2
14837KMSN MSN20020917084509309/17/02 08:45:31  5-MIN KMSN 171445Z VRB05KT 10SM CLR 21/13 A3006 730 60 1600 VRB/05 RMK AO2
14837KMSN MSN20020917085011609/17/02 08:50:31  5-MIN KMSN 171450Z VRB05KT 10SM CLR 21/13 A3006 730 61 1700 VRB/05 RMK AO2 SLP177 T02110133 51007
14837KMSN MSN20020917085509309/17/02 08:55:31  5-MIN KMSN 171455Z VRB05KT 10SM CLR 21/13 A3006 730 61 1700 VRB/05 RMK AO2
14837KMSN MSN20020917090009309/17/02 09:00:31  5-MIN KMSN 171500Z 19004KT 10SM CLR 21/13 A3006 740 61 1700 190/04 RMK AO2
14837KMSN MSN20020917090509309/17/02 09:05:31  5-MIN KMSN 171505Z 20005KT 10SM CLR 22/13 A3006 740 58 1700 200/05 RMK AO2
14837KMSN MSN20020917091009309/17/02 09:10:31  5-MIN KMSN 171510Z VRB04KT 10SM CLR 22/13 A3006 740 58 1700 VRB/04 RMK AO2
14837KMSN MSN20020917091509309/17/02 09:15:31  5-MIN KMSN 171515Z 23006KT 10SM CLR 22/13 A3006 740 56 1800 230/06 RMK AO2
14837KMSN MSN20020917092009309/17/02 09:20:31  5-MIN KMSN 171520Z 25004KT 10SM CLR 22/13 A3005 740 56 1700 250/04 RMK AO2
14837KMSN MSN20020917092509309/17/02 09:25:31  5-MIN KMSN 171525Z VRB05KT 10SM CLR 22/13 A3005 740 56 1800 VRB/05 RMK AO2
14837KMSN MSN20020917093009309/17/02 09:30:31  5-MIN KMSN 171530Z 24006KT 10SM CLR 22/13 A3005 750 54 1800 240/06 RMK AO2
14837KMSN MSN20020917093509309/17/02 09:35:31  5-MIN KMSN 171535Z VRB05KT 10SM CLR 22/13 A3005 750 56 1700 VRB/05 RMK AO2
14837KMSN MSN20020917094009309/17/02 09:40:31  5-MIN KMSN 171540Z 23006KT 10SM CLR 22/13 A3005 750 54 1800 230/06 RMK AO2
14837KMSN MSN20020917094509309/17/02 09:45:31  5-MIN KMSN 171545Z 22005KT 10SM CLR 22/13 A3005 750 54 1800 220/05 RMK AO2
14837KMSN MSN20020917095011009/17/02 09:50:31  5-MIN KMSN 171550Z 23005KT 10SM CLR 22/13 A3005 750 54 1800 230/05 RMK AO2 SLP171 T02220128
14837KMSN MSN20020917095509309/17/02 09:55:31  5-MIN KMSN 171555Z 24006KT 10SM CLR 22/13 A3004 750 56 1800 240/06 RMK AO2
14837KMSN MSN20020917100009609/17/02 10:00:31  5-MIN KMSN 171600Z 23006KT 10SM FEW050 23/13 A3004 750 55 1900 230/06 RMK AO2
14837KMSN MSN20020917100509609/17/02 10:05:31  5-MIN KMSN 171605Z 23005KT 10SM FEW050 23/13 A3004 750 55 1900 230/05 RMK AO2
14837KMSN MSN20020917101009609/17/02 10:10:31  5-MIN KMSN 171610Z 24007KT 10SM FEW050 23/13 A3004 750 53 1900 240/07 RMK AO2
14837KMSN MSN20020917101509609/17/02 10:15:31  5-MIN KMSN 171615Z 23005KT 10SM FEW050 23/13 A3004 750 55 1900 230/05 RMK AO2
14837KMSN MSN20020917102009309/17/02 10:20:31  5-MIN KMSN 171620Z 26005KT 10SM CLR 23/13 A3004 760 53 1900 250/05 RMK AO2
14837KMSN MSN20020917102509309/17/02 10:25:31  5-MIN KMSN 171625Z 21006KT 10SM CLR 23/13 A3004 760 53 1900 210/06 RMK AO2
14837KMSN MSN20020917103009309/17/02 10:30:31  5-MIN KMSN 171630Z 21007KT 10SM CLR 23/13 A3003 760 51 1900 210/07 RMK AO2
14837KMSN MSN20020917103509309/17/02 10:35:31  5-MIN KMSN 171635Z 22005KT 10SM CLR 24/13 A3003 760 49 2000 220/05 RMK AO2
14837KMSN MSN20020917104009309/17/02 10:40:31  5-MIN KMSN 171640Z 22007KT 10SM CLR 24/13 A3003 760 49 2000 220/07 RMK AO2
14837KMSN MSN20020917104509309/17/02 10:45:31  5-MIN KMSN 171645Z VRB05KT 10SM CLR 24/13 A3003 770 49 2000 VRB/05 RMK AO2
14837KMSN MSN20020917105011009/17/02 10:50:31  5-MIN KMSN 171650Z VRB05KT 10SM CLR 24/13 A3002 770 49 2000 VRB/05 RMK AO2 SLP165 T02390128
14837KMSN MSN20020917105509309/17/02 10:55:31  5-MIN KMSN 171655Z 19007KT 10SM CLR 24/13 A3002 770 49 2000 190/07 RMK AO2
14837KMSN MSN20020917110010909/17/02 11:00:31  5-MIN KMSN 171700Z 23007KT 190V270 10SM CLR 24/13 A3002 770 47 2100 230/07 190V270 RMK AO2
14837KMSN MSN20020917110509309/17/02 11:05:31  5-MIN KMSN 171705Z 18010KT 10SM CLR 25/13 A3002 770 46 2100 180/10 RMK AO2
14837KMSN MSN20020917111009309/17/02 11:10:31  5-MIN KMSN 171710Z 18012KT 10SM CLR 25/12 A3002 770 44 2100 170/12 RMK AO2
14837KMSN MSN20020917111510909/17/02 11:15:31  5-MIN KMSN 171715Z 18007KT 160V220 10SM CLR 25/12 A3002 780 44 2100 180/07 160V220 RMK AO2
14837KMSN MSN20020917112009309/17/02 11:20:31  5-MIN KMSN 171720Z VRB06KT 10SM CLR 25/13 A3001 780 46 2200 VRB/06 RMK AO2
14837KMSN MSN20020917112509309/17/02 11:25:31  5-MIN KMSN 171725Z VRB06KT 10SM CLR 25/13 A3001 780 48 2200 VRB/06 RMK AO2
14837KMSN MSN20020917113009309/17/02 11:30:31  5-MIN KMSN 171730Z 17008KT 10SM CLR 25/12 A3001 780 44 2200 170/08 RMK AO2
14837KMSN MSN20020917113509309/17/02 11:35:31  5-MIN KMSN 171735Z 18010KT 10SM CLR 26/12 A3001 780 43 2200 180/10 RMK AO2
14837KMSN MSN20020917114009309/17/02 11:40:31  5-MIN KMSN 171740Z 17011KT 10SM CLR 25/12 A3001 780 44 2200 170/11 RMK AO2
14837KMSN MSN20020917114509309/17/02 11:45:31  5-MIN KMSN 171745Z 22007KT 10SM CLR 26/12 A3001 780 43 2200 220/07 RMK AO2
14837KMSN MSN20020917115013409/17/02 11:50:31  5-MIN KMSN 171750Z 17012G18KT 10SM CLR 26/13 A3001 790 43 2300 170/12G18 RMK AO2 SLP159 T02610128 10261 20094 50004
14837KMSN MSN20020917115509909/17/02 11:55:31  5-MIN KMSN 171755Z 18010G18KT 10SM CLR 26/12 A3000 790 43 2200 180/10G18 RMK AO2
14837KMSN MSN20020917120009309/17/02 12:00:31  5-MIN KMSN 171800Z 17009KT 10SM CLR 25/12 A3000 790 44 2200 170/09 RMK AO2
14837KMSN MSN20020917120509909/17/02 12:05:31  5-MIN KMSN 171805Z 16010G15KT 10SM CLR 26/12 A3000 790 43 2200 160/10G15 RMK AO2
14837KMSN MSN20020917121009309/17/02 12:10:31  5-MIN KMSN 171810Z 19008KT 10SM CLR 25/12 A3000 790 44 2200 190/08 RMK AO2
14837KMSN MSN20020917121509309/17/02 12:15:31  5-MIN KMSN 171815Z 21006KT 10SM CLR 26/12 A2999 800 43 2200 210/06 RMK AO2
14837KMSN MSN20020917122009909/17/02 12:20:31  5-MIN KMSN 171820Z 18011G14KT 10SM CLR 26/12 A2999 800 41 2200 180/11G14 RMK AO2
14837KMSN MSN20020917122509909/17/02 12:25:31  5-MIN KMSN 171825Z 16006G14KT 10SM CLR 25/12 A2999 800 44 2200 160/06G14 RMK AO2
14837KMSN MSN20020917123010909/17/02 12:30:31  5-MIN KMSN 171830Z 18008KT 160V220 10SM CLR 26/12 A2999 800 43 2200 180/08 160V220 RMK AO2
14837KMSN MSN20020917123509309/17/02 12:35:31  5-MIN KMSN 171835Z 20008KT 10SM CLR 26/12 A2999 800 41 2200 200/08 RMK AO2
14837KMSN MSN20020917124009309/17/02 12:40:31  5-MIN KMSN 171840Z 20009KT 10SM CLR 26/12 A2998 810 43 2200 200/09 RMK AO2
14837KMSN MSN20020917124509309/17/02 12:45:31  5-MIN KMSN 171845Z 19006KT 10SM CLR 26/12 A2998 810 43 2300 190/06 RMK AO2
14837KMSN MSN20020917125011009/17/02 12:50:31  5-MIN KMSN 171850Z 15008KT 10SM CLR 26/12 A2998 810 43 2300 150/08 RMK AO2 SLP150 T02560122
14837KMSN MSN20020917125509909/17/02 12:55:31  5-MIN KMSN 171855Z 16010G14KT 10SM CLR 26/12 A2997 810 41 2300 150/10G14 RMK AO2
14837KMSN MSN20020917130009309/17/02 13:00:31  5-MIN KMSN 171900Z 17008KT 10SM CLR 26/12 A2997 820 41 2300 170/08 RMK AO2
14837KMSN MSN20020917130509309/17/02 13:05:31  5-MIN KMSN 171905Z 16007KT 10SM CLR 25/11 A2997 820 41 2200 160/07 RMK AO2
14837KMSN MSN20020917131009309/17/02 13:10:31  5-MIN KMSN 171910Z 15007KT 10SM CLR 25/11 A2997 820 41 2200 150/07 RMK AO2
14837KMSN MSN20020917131509309/17/02 13:15:31  5-MIN KMSN 171915Z 19006KT 10SM CLR 25/12 A2997 820 43 2200 190/06 RMK AO2
14837KMSN MSN20020917132009309/17/02 13:20:31  5-MIN KMSN 171920Z 17008KT 10SM CLR 25/12 A2997 820 43 2200 170/08 RMK AO2
14837KMSN MSN20020917132509309/17/02 13:25:31  5-MIN KMSN 171925Z 19009KT 10SM CLR 25/12 A2996 820 44 2200 190/09 RMK AO2
14837KMSN MSN20020917133009309/17/02 13:30:31  5-MIN KMSN 171930Z 15011KT 10SM CLR 25/12 A2996 820 44 2200 150/11 RMK AO2
14837KMSN MSN20020917133509309/17/02 13:35:31  5-MIN KMSN 171935Z 18009KT 10SM CLR 25/12 A2996 830 44 2200 180/09 RMK AO2
14837KMSN MSN20020917134009309/17/02 13:40:31  5-MIN KMSN 171940Z 17010KT 10SM CLR 25/12 A2996 830 44 2200 170/10 RMK AO2
14837KMSN MSN20020917134509309/17/02 13:45:31  5-MIN KMSN 171945Z 17007KT 10SM CLR 25/12 A2996 830 44 2200 170/07 RMK AO2
14837KMSN MSN20020917135011009/17/02 13:50:31  5-MIN KMSN 171950Z 18007KT 10SM CLR 25/12 A2996 830 44 2200 180/07 RMK AO2 SLP143 T02500122
14837KMSN MSN20020917135509309/17/02 13:55:31  5-MIN KMSN 171955Z 20005KT 10SM CLR 26/13 A2996 830 44 2300 200/05 RMK AO2
14837KMSN MSN20020917140009309/17/02 14:00:31  5-MIN KMSN 172000Z 18008KT 10SM CLR 26/13 A2995 830 44 2300 180/08 RMK AO2
14837KMSN MSN20020917140509309/17/02 14:05:31  5-MIN KMSN 172005Z 17006KT 10SM CLR 26/12 A2995 830 43 2300 170/06 RMK AO2
14837KMSN MSN20020917141009309/17/02 14:10:31  5-MIN KMSN 172010Z 17008KT 10SM CLR 26/12 A2995 830 43 2300 170/08 RMK AO2
14837KMSN MSN20020917141510909/17/02 14:15:31  5-MIN KMSN 172015Z 19007KT 130V250 10SM CLR 26/12 A2995 840 43 2300 190/07 130V250 RMK AO2
14837KMSN MSN20020917142009309/17/02 14:20:31  5-MIN KMSN 172020Z 17009KT 10SM CLR 26/12 A2995 840 43 2300 170/09 RMK AO2
14837KMSN MSN20020917142509309/17/02 14:25:31  5-MIN KMSN 172025Z 19010KT 10SM CLR 25/12 A2995 840 43 2200 190/10 RMK AO2
14837KMSN MSN20020917143009309/17/02 14:30:31  5-MIN KMSN 172030Z 17009KT 10SM CLR 25/12 A2994 840 43 2200 170/09 RMK AO2
14837KMSN MSN20020917143509309/17/02 14:35:31  5-MIN KMSN 172035Z 18007KT 10SM CLR 25/12 A2994 840 44 2200 180/07 RMK AO2
14837KMSN MSN20020917144009309/17/02 14:40:31  5-MIN KMSN 172040Z 16008KT 10SM CLR 25/12 A2994 850 44 2200 160/08 RMK AO2
14837KMSN MSN20020917144509309/17/02 14:45:31  5-MIN KMSN 172045Z 17006KT 10SM CLR 24/12 A2994 850 46 2200 170/06 RMK AO2
14837KMSN MSN20020917145011609/17/02 14:50:31  5-MIN KMSN 172050Z 16007KT 10SM CLR 24/13 A2994 850 47 2200 160/07 RMK AO2 SLP135 T02440128 57019
14837KMSN MSN20020917145509309/17/02 14:55:31  5-MIN KMSN 172055Z 17006KT 10SM CLR 24/12 A2994 850 46 2200 170/06 RMK AO2
14837KMSN MSN20020917150009309/17/02 15:00:31  5-MIN KMSN 172100Z 18006KT 10SM CLR 24/12 A2993 850 46 2200 180/06 RMK AO2
14837KMSN MSN20020917150509309/17/02 15:05:31  5-MIN KMSN 172105Z 18007KT 10SM CLR 24/12 A2993 850 46 2200 180/07 RMK AO2
14837KMSN MSN20020917151009309/17/02 15:10:31  5-MIN KMSN 172110Z 20006KT 10SM CLR 24/13 A2993 850 47 2200 200/06 RMK AO2
14837KMSN MSN20020917151509309/17/02 15:15:31  5-MIN KMSN 172115Z 19008KT 10SM CLR 25/13 A2994 850 46 2200 190/08 RMK AO2
14837KMSN MSN20020917152009309/17/02 15:20:31  5-MIN KMSN 172120Z 19008KT 10SM CLR 24/12 A2994 850 46 2200 190/08 RMK AO2
14837KMSN MSN20020917152509309/17/02 15:25:31  5-MIN KMSN 172125Z 17007KT 10SM CLR 24/12 A2994 850 46 2200 160/07 RMK AO2
14837KMSN MSN20020917153009309/17/02 15:30:31  5-MIN KMSN 172130Z 19009KT 10SM CLR 24/12 A2993 850 46 2200 190/09 RMK AO2
14837KMSN MSN20020917153509309/17/02 15:35:31  5-MIN KMSN 172135Z 18009KT 10SM CLR 24/12 A2993 860 47 2100 180/09 RMK AO2
14837KMSN MSN20020917154009309/17/02 15:40:31  5-MIN KMSN 172140Z 18007KT 10SM CLR 24/13 A2993 860 47 2200 180/07 RMK AO2
14837KMSN MSN20020917154509309/17/02 15:45:31  5-MIN KMSN 172145Z 17007KT 10SM CLR 24/13 A2993 850 47 2200 170/07 RMK AO2
14837KMSN MSN20020917155011009/17/02 15:50:31  5-MIN KMSN 172150Z 18008KT 10SM CLR 24/13 A2993 850 47 2200 180/08 RMK AO2 SLP133 T02440128
14837KMSN MSN20020917155509309/17/02 15:55:31  5-MIN KMSN 172155Z 17010KT 10SM CLR 24/12 A2993 850 46 2200 170/10 RMK AO2
14837KMSN MSN20020917160009309/17/02 16:00:31  5-MIN KMSN 172200Z 16009KT 10SM CLR 24/12 A2993 860 46 2200 160/09 RMK AO2
14837KMSN MSN20020917160509309/17/02 16:05:31  5-MIN KMSN 172205Z 18009KT 10SM CLR 24/13 A2993 860 47 2200 180/09 RMK AO2
14837KMSN MSN20020917161009309/17/02 16:10:31  5-MIN KMSN 172210Z 15008KT 10SM CLR 24/13 A2993 850 47 2200 150/08 RMK AO2
14837KMSN MSN20020917161509309/17/02 16:15:31  5-MIN KMSN 172215Z 19008KT 10SM CLR 24/13 A2993 850 47 2200 190/08 RMK AO2
14837KMSN MSN20020917162009309/17/02 16:20:31  5-MIN KMSN 172220Z 19008KT 10SM CLR 24/13 A2993 860 47 2200 180/08 RMK AO2
14837KMSN MSN20020917162509309/17/02 16:25:31  5-MIN KMSN 172225Z 18008KT 10SM CLR 24/12 A2993 860 46 2200 180/08 RMK AO2
14837KMSN MSN20020917163009309/17/02 16:30:31  5-MIN KMSN 172230Z 17007KT 10SM CLR 24/13 A2993 860 47 2200 170/07 RMK AO2
14837KMSN MSN20020917163509309/17/02 16:35:31  5-MIN KMSN 172235Z 18007KT 10SM CLR 24/13 A2993 860 47 2200 180/07 RMK AO2
14837KMSN MSN20020917164009309/17/02 16:40:31  5-MIN KMSN 172240Z 18009KT 10SM CLR 24/13 A2992 860 49 2100 180/09 RMK AO2
14837KMSN MSN20020917164509309/17/02 16:45:31  5-MIN KMSN 172245Z 17007KT 10SM CLR 24/12 A2992 860 47 2100 170/07 RMK AO2
14837KMSN MSN20020917165011009/17/02 16:50:31  5-MIN KMSN 172250Z 18007KT 10SM CLR 24/12 A2992 860 47 2100 180/07 RMK AO2 SLP131 T02390122
14837KMSN MSN20020917165509309/17/02 16:55:31  5-MIN KMSN 172255Z 17006KT 10SM CLR 24/12 A2992 860 47 2100 170/06 RMK AO2
14837KMSN MSN20020917170009309/17/02 17:00:31  5-MIN KMSN 172300Z 18006KT 10SM CLR 23/12 A2992 860 49 2100 170/06 RMK AO2
14837KMSN MSN20020917170509309/17/02 17:05:31  5-MIN KMSN 172305Z 17006KT 10SM CLR 23/13 A2992 870 51 2100 170/06 RMK AO2
14837KMSN MSN20020917171009309/17/02 17:10:31  5-MIN KMSN 172310Z 18006KT 10SM CLR 23/13 A2992 860 53 2000 180/06 RMK AO2
14837KMSN MSN20020917171509309/17/02 17:15:31  5-MIN KMSN 172315Z 17005KT 10SM CLR 23/13 A2992 860 53 2100 170/05 RMK AO2
14837KMSN MSN20020917172009309/17/02 17:20:31  5-MIN KMSN 172320Z 17006KT 10SM CLR 23/13 A2992 860 55 2000 160/06 RMK AO2
14837KMSN MSN20020917172509309/17/02 17:25:31  5-MIN KMSN 172325Z 17008KT 10SM CLR 23/13 A2992 860 55 2000 170/08 RMK AO2
14837KMSN MSN20020917173009309/17/02 17:30:31  5-MIN KMSN 172330Z 18006KT 10SM CLR 23/13 A2992 870 55 2000 180/06 RMK AO2
14837KMSN MSN20020917173509309/17/02 17:35:31  5-MIN KMSN 172335Z 18006KT 10SM CLR 23/13 A2992 870 53 2000 170/06 RMK AO2
14837KMSN MSN20020917174009309/17/02 17:40:31  5-MIN KMSN 172340Z 18006KT 10SM CLR 22/13 A2992 870 54 1900 180/06 RMK AO2
14837KMSN MSN20020917174509309/17/02 17:45:31  5-MIN KMSN 172345Z 18006KT 10SM CLR 22/13 A2992 870 54 1900 180/06 RMK AO2
14837KMSN MSN20020917175012809/17/02 17:50:31  5-MIN KMSN 172350Z 18005KT 10SM CLR 22/12 A2992 870 52 1900 180/05 RMK AO2 SLP130 T02220122 10261 20222 56023
14837KMSN MSN20020917175509309/17/02 17:55:31  5-MIN KMSN 172355Z 17004KT 10SM CLR 22/12 A2992 870 54 1900 170/04 RMK AO2
14837KMSN MSN20020917180009309/17/02 18:00:31  5-MIN KMSN 180000Z 18004KT 10SM CLR 21/13 A2991 870 58 1800 180/04 RMK AO2
14837KMSN MSN20020917180509309/17/02 18:05:31  5-MIN KMSN 180005Z 18004KT 10SM CLR 21/13 A2991 870 58 1800 180/04 RMK AO2
14837KMSN MSN20020917181009309/17/02 18:10:31  5-MIN KMSN 180010Z 16006KT 10SM CLR 21/13 A2991 870 60 1800 160/06 RMK AO2
14837KMSN MSN20020917181509309/17/02 18:15:31  5-MIN KMSN 180015Z 16006KT 10SM CLR 21/13 A2991 870 60 1800 160/06 RMK AO2
14837KMSN MSN20020917182009309/17/02 18:20:31  5-MIN KMSN 180020Z 17007KT 10SM CLR 21/13 A2991 870 58 1800 170/07 RMK AO2
14837KMSN MSN20020917182509309/17/02 18:25:31  5-MIN KMSN 180025Z 17006KT 10SM CLR 21/13 A2991 870 58 1800 170/06 RMK AO2
14837KMSN MSN20020917183009309/17/02 18:30:31  5-MIN KMSN 180030Z 17006KT 10SM CLR 21/13 A2991 870 58 1800 170/06 RMK AO2
14837KMSN MSN20020917183509309/17/02 18:35:31  5-MIN KMSN 180035Z 16007KT 10SM CLR 21/13 A2991 870 58 1800 160/07 RMK AO2
14837KMSN MSN20020917184009309/17/02 18:40:31  5-MIN KMSN 180040Z 16008KT 10SM CLR 21/12 A2991 870 56 1800 160/08 RMK AO2
14837KMSN MSN20020917184509309/17/02 18:45:31  5-MIN KMSN 180045Z 16007KT 10SM CLR 21/12 A2991 870 58 1800 160/07 RMK AO2
14837KMSN MSN20020917185011009/17/02 18:50:31  5-MIN KMSN 180050Z 17006KT 10SM CLR 21/12 A2991 870 58 1800 160/06 RMK AO2 SLP127 T02060122
14837KMSN MSN20020917185509309/17/02 18:55:31  5-MIN KMSN 180055Z 17005KT 10SM CLR 21/12 A2991 870 58 1800 170/05 RMK AO2
14837KMSN MSN20020917190009309/17/02 19:00:31  5-MIN KMSN 180100Z 17005KT 10SM CLR 21/12 A2991 870 58 1800 170/05 RMK AO2
14837KMSN MSN20020917190509309/17/02 19:05:31  5-MIN KMSN 180105Z 17005KT 10SM CLR 21/12 A2991 870 58 1800 170/05 RMK AO2
14837KMSN MSN20020917191009309/17/02 19:10:31  5-MIN KMSN 180110Z 17005KT 10SM CLR 20/12 A2991 870 60 1700 170/05 RMK AO2
14837KMSN MSN20020917191509309/17/02 19:15:31  5-MIN KMSN 180115Z 17005KT 10SM CLR 20/12 A2991 870 60 1700 160/05 RMK AO2
14837KMSN MSN20020917192009309/17/02 19:20:31  5-MIN KMSN 180120Z 17005KT 10SM CLR 20/12 A2991 870 60 1700 170/05 RMK AO2
14837KMSN MSN20020917192509309/17/02 19:25:31  5-MIN KMSN 180125Z 17004KT 10SM CLR 20/12 A2991 870 60 1700 160/04 RMK AO2
14837KMSN MSN20020917193009309/17/02 19:30:31  5-MIN KMSN 180130Z 16004KT 10SM CLR 20/12 A2991 870 60 1700 150/04 RMK AO2
14837KMSN MSN20020917193509309/17/02 19:35:31  5-MIN KMSN 180135Z 13006KT 10SM CLR 19/13 A2991 870 65 1600 130/06 RMK AO2
14837KMSN MSN20020917194009309/17/02 19:40:31  5-MIN KMSN 180140Z 14005KT 10SM CLR 19/13 A2991 870 67 1600 130/05 RMK AO2
14837KMSN MSN20020917194509309/17/02 19:45:31  5-MIN KMSN 180145Z 15005KT 10SM CLR 18/13 A2991 870 70 1500 150/05 RMK AO2
14837KMSN MSN20020917195011009/17/02 19:50:31  5-MIN KMSN 180150Z 00000KT 10SM CLR 17/13 A2991 870 77 1300 000/00 RMK AO2 SLP127 T01670128
14837KMSN MSN20020917195509309/17/02 19:55:31  5-MIN KMSN 180155Z 00000KT 10SM CLR 17/13 A2991 870 77 1300 000/00 RMK AO2
14837KMSN MSN20020917200009309/17/02 20:00:31  5-MIN KMSN 180200Z 00000KT 10SM CLR 17/13 A2991 870 77 1300 000/00 RMK AO2
14837KMSN MSN20020917200509309/17/02 20:05:31  5-MIN KMSN 180205Z 00000KT 10SM CLR 17/13 A2991 870 77 1300 000/00 RMK AO2
14837KMSN MSN20020917201009309/17/02 20:10:31  5-MIN KMSN 180210Z 00000KT 10SM CLR 17/13 A2991 870 77 1300 000/00 RMK AO2
14837KMSN MSN20020917201509309/17/02 20:15:31  5-MIN KMSN 180215Z 00000KT 10SM CLR 17/13 A2991 880 77 1300 000/00 RMK AO2
14837KMSN MSN20020917202009309/17/02 20:20:31  5-MIN KMSN 180220Z 00000KT 10SM CLR 17/13 A2991 880 77 1300 000/00 RMK AO2
14837KMSN MSN20020917202509309/17/02 20:25:31  5-MIN KMSN 180225Z 00000KT 10SM CLR 17/13 A2991 880 77 1300 000/00 RMK AO2
14837KMSN MSN20020917203009309/17/02 20:30:31  5-MIN KMSN 180230Z 00000KT 10SM CLR 16/13 A2991 880 80 1200 000/00 RMK AO2
14837KMSN MSN20020917203509309/17/02 20:35:31  5-MIN KMSN 180235Z 00000KT 10SM CLR 17/13 A2990 880 77 1300 000/00 RMK AO2
14837KMSN MSN20020917204009309/17/02 20:40:31  5-MIN KMSN 180240Z 00000KT 10SM CLR 17/13 A2990 880 77 1300 000/00 RMK AO2
14837KMSN MSN20020917204509309/17/02 20:45:31  5-MIN KMSN 180245Z 00000KT 10SM CLR 17/13 A2991 880 77 1300 000/00 RMK AO2
14837KMSN MSN20020917205011609/17/02 20:50:31  5-MIN KMSN 180250Z 00000KT 10SM CLR 16/13 A2991 870 80 1200 000/00 RMK AO2 SLP126 T01610128 57006
14837KMSN MSN20020917205509309/17/02 20:55:31  5-MIN KMSN 180255Z 00000KT 10SM CLR 16/13 A2991 880 80 1300 000/00 RMK AO2
14837KMSN MSN20020917210009309/17/02 21:00:31  5-MIN KMSN 180300Z 00000KT 10SM CLR 16/12 A2991 880 80 1200 000/00 RMK AO2
14837KMSN MSN20020917210509309/17/02 21:05:31  5-MIN KMSN 180305Z 00000KT 10SM CLR 16/12 A2991 880 80 1200 000/00 RMK AO2
14837KMSN MSN20020917211009309/17/02 21:10:31  5-MIN KMSN 180310Z 00000KT 10SM CLR 16/12 A2991 880 80 1200 000/00 RMK AO2
14837KMSN MSN20020917211509309/17/02 21:15:31  5-MIN KMSN 180315Z 00000KT 10SM CLR 16/12 A2991 880 80 1200 000/00 RMK AO2
14837KMSN MSN20020917212009309/17/02 21:20:31  5-MIN KMSN 180320Z 00000KT 10SM CLR 16/12 A2991 880 77 1300 000/00 RMK AO2
14837KMSN MSN20020917212509309/17/02 21:25:31  5-MIN KMSN 180325Z 00000KT 10SM CLR 16/12 A2991 880 77 1300 000/00 RMK AO2
14837KMSN MSN20020917213009309/17/02 21:30:31  5-MIN KMSN 180330Z 00000KT 10SM CLR 15/12 A2991 880 83 1100 000/00 RMK AO2
14837KMSN MSN20020917213509309/17/02 21:35:31  5-MIN KMSN 180335Z 00000KT 10SM CLR 16/12 A2991 880 80 1200 000/00 RMK AO2
14837KMSN MSN20020917214009309/17/02 21:40:31  5-MIN KMSN 180340Z 00000KT 10SM CLR 16/12 A2991 880 80 1200 000/00 RMK AO2
14837KMSN MSN20020917214509309/17/02 21:45:31  5-MIN KMSN 180345Z 15004KT 10SM CLR 16/12 A2991 880 80 1200 150/04 RMK AO2
14837KMSN MSN20020917215011009/17/02 21:50:31  5-MIN KMSN 180350Z 15003KT 10SM CLR 16/12 A2990 880 77 1300 140/03 RMK AO2 SLP123 T01610122
14837KMSN MSN20020917215509309/17/02 21:55:31  5-MIN KMSN 180355Z 00000KT 10SM CLR 16/12 A2990 880 80 1200 000/00 RMK AO2
14837KMSN MSN20020917220009309/17/02 22:00:31  5-MIN KMSN 180400Z 00000KT 10SM CLR 16/12 A2990 880 80 1200 000/00 RMK AO2
14837KMSN MSN20020917220509309/17/02 22:05:31  5-MIN KMSN 180405Z 00000KT 10SM CLR 15/12 A2990 880 83 1100 000/00 RMK AO2
14837KMSN MSN20020917221009309/17/02 22:10:31  5-MIN KMSN 180410Z 00000KT 10SM CLR 15/12 A2990 880 83 1100 000/00 RMK AO2
14837KMSN MSN20020917221509309/17/02 22:15:31  5-MIN KMSN 180415Z 00000KT 10SM CLR 15/12 A2990 880 83 1100 000/00 RMK AO2
14837KMSN MSN20020917222009309/17/02 22:20:31  5-MIN KMSN 180420Z 00000KT 10SM CLR 14/12 A2990 880 86 1100 000/00 RMK AO2
14837KMSN MSN20020917222509309/17/02 22:25:31  5-MIN KMSN 180425Z 00000KT 10SM CLR 15/12 A2990 890 83 1100 000/00 RMK AO2
14837KMSN MSN20020917223009309/17/02 22:30:31  5-MIN KMSN 180430Z 00000KT 10SM CLR 15/12 A2990 890 83 1100 000/00 RMK AO2
14837KMSN MSN20020917223509309/17/02 22:35:31  5-MIN KMSN 180435Z 00000KT 10SM CLR 15/12 A2990 890 83 1100 000/00 RMK AO2
14837KMSN MSN20020917224009309/17/02 22:40:31  5-MIN KMSN 180440Z 00000KT 10SM CLR 16/13 A2990 890 83 1200 000/00 RMK AO2
14837KMSN MSN20020917224509309/17/02 22:45:31  5-MIN KMSN 180445Z 00000KT 10SM CLR 15/12 A2990 890 83 1100 000/00 RMK AO2
14837KMSN MSN20020917225011009/17/02 22:50:31  5-MIN KMSN 180450Z 00000KT 10SM CLR 16/12 A2990 890 80 1200 000/00 RMK AO2 SLP120 T01560122
14837KMSN MSN20020917225509209/17/02 22:55:31  5-MIN KMSN 180455Z 00000KT 8SM CLR 15/12 A2990 880 83 1100 000/00 RMK AO2
14837KMSN MSN20020917230009209/17/02 23:00:31  5-MIN KMSN 180500Z 00000KT 8SM CLR 15/13 A2990 890 86 1100 000/00 RMK AO2
14837KMSN MSN20020917230509209/17/02 23:05:31  5-MIN KMSN 180505Z 00000KT 8SM CLR 16/12 A2990 890 80 1200 000/00 RMK AO2
14837KMSN MSN20020917231009209/17/02 23:10:31  5-MIN KMSN 180510Z 00000KT 8SM CLR 15/12 A2989 890 83 1100 000/00 RMK AO2
14837KMSN MSN20020917231509209/17/02 23:15:31  5-MIN KMSN 180515Z 00000KT 8SM CLR 14/12 A2989 890 86 1100 000/00 RMK AO2
14837KMSN MSN20020917232009209/17/02 23:20:31  5-MIN KMSN 180520Z 00000KT 8SM CLR 15/12 A2989 890 83 1100 000/00 RMK AO2
14837KMSN MSN20020917232509209/17/02 23:25:31  5-MIN KMSN 180525Z 00000KT 8SM CLR 14/12 A2988 900 86 1100 000/00 RMK AO2
14837KMSN MSN20020917233009209/17/02 23:30:31  5-MIN KMSN 180530Z 00000KT 8SM CLR 15/12 A2988 900 83 1100 000/00 RMK AO2
14837KMSN MSN20020917233509209/17/02 23:35:31  5-MIN KMSN 180535Z 11003KT 8SM CLR 15/12 A2989 900 83 1100 110/03 RMK AO2
14837KMSN MSN20020917234009209/17/02 23:40:31  5-MIN KMSN 180540Z 12003KT 8SM CLR 15/12 A2989 900 83 1100 120/03 RMK AO2
14837KMSN MSN20020917234509209/17/02 23:45:31  5-MIN KMSN 180545Z 11003KT 8SM CLR 15/12 A2988 900 80 1100 110/03 RMK AO2
14837KMSN MSN20020917235013709/17/02 23:50:31  5-MIN KMSN 180550Z 10003KT 8SM CLR 16/12 A2988 900 77 1200 100/03 RMK AO2 SLP115 T01560117 10217 20144 402610094 56003
14837KMSN MSN20020917235509209/17/02 23:55:31  5-MIN KMSN 180555Z 10003KT 8SM CLR 15/12 A2988 900 80 1100 100/03 RMK AO2
14837KMSN MSN20020918000009209/18/02 00:00:31  5-MIN KMSN 180600Z 00000KT 7SM CLR 15/12 A2988 900 80 1100 000/00 RMK AO2
14837KMSN MSN20020918000509209/18/02 00:05:31  5-MIN KMSN 180605Z 00000KT 7SM CLR 16/12 A2988 900 80 1200 000/00 RMK AO2
14837KMSN MSN20020918001009209/18/02 00:10:31  5-MIN KMSN 180610Z 00000KT 7SM CLR 16/12 A2988 900 80 1200 000/00 RMK AO2
14837KMSN MSN20020918001509209/18/02 00:15:31  5-MIN KMSN 180615Z 00000KT 7SM CLR 16/12 A2987 910 77 1300 000/00 RMK AO2
14837KMSN MSN20020918002009209/18/02 00:20:31  5-MIN KMSN 180620Z 00000KT 8SM CLR 16/12 A2987 910 77 1300 000/00 RMK AO2
14837KMSN MSN20020918002509209/18/02 00:25:31  5-MIN KMSN 180625Z 00000KT 8SM CLR 16/12 A2987 910 77 1300 000/00 RMK AO2
14837KMSN MSN20020918003009209/18/02 00:30:31  5-MIN KMSN 180630Z 00000KT 8SM CLR 16/12 A2987 910 80 1200 000/00 RMK AO2
14837KMSN MSN20020918003509209/18/02 00:35:31  5-MIN KMSN 180635Z 00000KT 8SM CLR 16/12 A2987 910 80 1200 000/00 RMK AO2
14837KMSN MSN20020918004009209/18/02 00:40:31  5-MIN KMSN 180640Z 13003KT 8SM CLR 16/12 A2988 910 77 1300 130/03 RMK AO2
14837KMSN MSN20020918004509209/18/02 00:45:31  5-MIN KMSN 180645Z 12003KT 8SM CLR 16/12 A2988 910 77 1300 120/03 RMK AO2
14837KMSN MSN20020918005010909/18/02 00:50:31  5-MIN KMSN 180650Z 00000KT 8SM CLR 16/12 A2988 910 77 1300 000/00 RMK AO2 SLP112 T01610122
14837KMSN MSN20020918005509209/18/02 00:55:31  5-MIN KMSN 180655Z 00000KT 8SM CLR 15/12 A2987 910 83 1200 000/00 RMK AO2
14837KMSN MSN20020918010009209/18/02 01:00:31  5-MIN KMSN 180700Z 00000KT 8SM CLR 16/12 A2987 910 80 1200 000/00 RMK AO2
14837KMSN MSN20020918010509209/18/02 01:05:31  5-MIN KMSN 180705Z 00000KT 8SM CLR 15/12 A2987 910 83 1200 000/00 RMK AO2
14837KMSN MSN20020918011009209/18/02 01:10:31  5-MIN KMSN 180710Z 00000KT 8SM CLR 16/12 A2987 910 80 1200 000/00 RMK AO2
14837KMSN MSN20020918011509209/18/02 01:15:31  5-MIN KMSN 180715Z 00000KT 8SM CLR 16/12 A2987 910 80 1200 000/00 RMK AO2
14837KMSN MSN20020918012009209/18/02 01:20:31  5-MIN KMSN 180720Z 00000KT 8SM CLR 16/12 A2987 910 80 1200 000/00 RMK AO2
14837KMSN MSN20020918012509209/18/02 01:25:31  5-MIN KMSN 180725Z 00000KT 8SM CLR 16/12 A2987 910 77 1300 000/00 RMK AO2
14837KMSN MSN20020918013009209/18/02 01:30:31  5-MIN KMSN 180730Z 00000KT 7SM CLR 16/12 A2987 910 77 1300 000/00 RMK AO2
14837KMSN MSN20020918013509209/18/02 01:35:31  5-MIN KMSN 180735Z 00000KT 7SM CLR 16/12 A2986 920 77 1300 000/00 RMK AO2
14837KMSN MSN20020918014009209/18/02 01:40:31  5-MIN KMSN 180740Z 00000KT 7SM CLR 16/12 A2986 920 77 1300 000/00 RMK AO2
14837KMSN MSN20020918014509209/18/02 01:45:31  5-MIN KMSN 180745Z 36003KT 7SM CLR 15/12 A2985 930 83 1200 360/03 RMK AO2
14837KMSN MSN20020918015011209/18/02 01:50:31  5-MIN KMSN 180750Z 01004KT 6SM HZ CLR 15/12 A2985 930 83 1200 010/04 RMK AO2 SLP105 T01500122
14837KMSN MSN20020918015509509/18/02 01:55:31  5-MIN KMSN 180755Z 00000KT 6SM BR CLR 14/12 A2986 920 86 1100 000/00 RMK AO2
14837KMSN MSN20020918020009509/18/02 02:00:31  5-MIN KMSN 180800Z 00000KT 6SM BR CLR 14/12 A2986 920 86 1100 000/00 RMK AO2
14837KMSN MSN20020918020509509/18/02 02:05:31  5-MIN KMSN 180805Z 29003KT 6SM BR CLR 14/12 A2986 920 90 1000 290/03 RMK AO2
14837KMSN MSN20020918021009509/18/02 02:10:31  5-MIN KMSN 180810Z 00000KT 6SM BR CLR 14/12 A2986 920 90 1000 000/00 RMK AO2
14837KMSN MSN20020918021509509/18/02 02:15:31  5-MIN KMSN 180815Z 00000KT 6SM BR CLR 14/12 A2985 930 86 1100 000/00 RMK AO2
14837KMSN MSN20020918022009509/18/02 02:20:31  5-MIN KMSN 180820Z 00000KT 6SM HZ CLR 15/12 A2985 930 83 1200 000/00 RMK AO2
14837KMSN MSN20020918022509509/18/02 02:25:31  5-MIN KMSN 180825Z 00000KT 6SM BR CLR 14/12 A2985 930 86 1100 000/00 RMK AO2
14837KMSN MSN20020918023009809/18/02 02:30:31  5-MIN KMSN 180830Z 05003KT 6SM BR FEW120 14/12 A2985 930 86 1100 050/03 RMK AO2
14837KMSN MSN20020918023509809/18/02 02:35:31  5-MIN KMSN 180835Z 00000KT 6SM BR SCT120 14/12 A2985 930 86 1100 000/00 RMK AO2
14837KMSN MSN20020918024009809/18/02 02:40:31  5-MIN KMSN 180840Z 00000KT 5SM BR SCT120 14/12 A2985 930 90 1100 000/00 RMK AO2
14837KMSN MSN20020918024509809/18/02 02:45:31  5-MIN KMSN 180845Z 00000KT 5SM BR BKN120 14/12 A2985 930 86 1100 000/00 RMK AO2
14837KMSN MSN20020918025012109/18/02 02:50:31  5-MIN KMSN 180850Z 00000KT 5SM BR BKN120 14/12 A2984 930 86 1100 000/00 RMK AO2 SLP103 T01440122 58009
14837KMSN MSN20020918025509809/18/02 02:55:31  5-MIN KMSN 180855Z 00000KT 5SM BR BKN120 14/12 A2984 930 86 1100 000/00 RMK AO2
14837KMSN MSN20020918030009809/18/02 03:00:31  5-MIN KMSN 180900Z 00000KT 5SM BR BKN120 14/13 A2985 930 90 1100 000/00 RMK AO2
14837KMSN MSN20020918030509809/18/02 03:05:31  5-MIN KMSN 180905Z 00000KT 5SM BR BKN120 14/12 A2985 930 86 1100 000/00 RMK AO2
14837KMSN MSN20020918031009809/18/02 03:10:31  5-MIN KMSN 180910Z 00000KT 5SM BR BKN110 14/12 A2984 930 86 1100 000/00 RMK AO2
14837KMSN MSN20020918031509809/18/02 03:15:31  5-MIN KMSN 180915Z 00000KT 5SM BR BKN110 14/13 A2985 930 90 1100 000/00 RMK AO2
14837KMSN MSN20020918032009809/18/02 03:20:31  5-MIN KMSN 180920Z 00000KT 5SM HZ BKN110 15/12 A2984 940 83 1200 000/00 RMK AO2
14837KMSN MSN20020918032509809/18/02 03:25:31  5-MIN KMSN 180925Z 00000KT 5SM HZ BKN110 15/12 A2984 940 83 1200 000/00 RMK AO2
14837KMSN MSN20020918033009809/18/02 03:30:31  5-MIN KMSN 180930Z 00000KT 5SM BR OVC110 15/13 A2984 940 86 1200 000/00 RMK AO2
14837KMSN MSN20020918033509809/18/02 03:35:31  5-MIN KMSN 180935Z 00000KT 5SM HZ OVC110 15/12 A2984 940 83 1200 000/00 RMK AO2
14837KMSN MSN20020918034009809/18/02 03:40:31  5-MIN KMSN 180940Z 00000KT 5SM BR OVC110 15/13 A2984 940 86 1200 000/00 RMK AO2
14837KMSN MSN20020918034509809/18/02 03:45:31  5-MIN KMSN 180945Z 00000KT 4SM BR OVC110 15/13 A2984 940 86 1200 000/00 RMK AO2
14837KMSN MSN20020918035011509/18/02 03:50:31  5-MIN KMSN 180950Z 00000KT 5SM BR OVC100 14/13 A2983 940 90 1100 000/00 RMK AO2 SLP099 T01440128
14837KMSN MSN20020918035509809/18/02 03:55:31  5-MIN KMSN 180955Z 00000KT 4SM BR OVC100 15/13 A2983 950 86 1200 000/00 RMK AO2
14837KMSN MSN20020918040009809/18/02 04:00:31  5-MIN KMSN 181000Z 16003KT 4SM HZ OVC100 16/13 A2983 950 83 1300 160/03 RMK AO2
14837KMSN MSN20020918040511109/18/02 04:05:31  5-MIN KMSN 181005Z 17004KT 5SM -RA OVC100 16/13 A2983 950 83 1300 170/04 RMK AO2 RAB02 P0000
14837KMSN MSN20020918041011409/18/02 04:10:31  5-MIN KMSN 181010Z 17003KT 5SM -RA BR OVC100 16/13 A2983 950 86 1300 170/03 RMK AO2 RAB02 P0000
14837KMSN MSN20020918041511809/18/02 04:15:31  5-MIN KMSN 181015Z 16004KT 5SM -RA FEW060 OVC100 16/13 A2983 950 83 1300 160/04 RMK AO2 RAB02 P0000
14837KMSN MSN20020918042012109/18/02 04:20:31  5-MIN KMSN 181020Z 17004KT 4SM -RA BR FEW060 OVC100 16/14 A2983 950 86 1300 170/04 RMK AO2 RAB02 P0000
14837KMSN MSN20020918042512809/18/02 04:25:31  5-MIN KMSN 181025Z 16004KT 4SM -RA BR FEW060 SCT075 BKN100 16/14 A2982 950 86 1300 160/04 RMK AO2 RAB02 P0000
14837KMSN MSN20020918043012809/18/02 04:30:31  5-MIN KMSN 181030Z 15003KT 4SM -RA BR FEW055 SCT075 BKN110 16/14 A2982 950 86 1300 150/03 RMK AO2 RAB02 P0000
14837KMSN MSN20020918043512009/18/02 04:35:31  5-MIN KMSN 181035Z 14003KT 4SM BR FEW060 BKN110 16/14 A2982 960 86 1300 140/03 RMK AO2 RAB02E33 P0000
14837KMSN MSN20020918044012009/18/02 04:40:31  5-MIN KMSN 181040Z 00000KT 4SM BR FEW055 BKN110 16/14 A2982 960 86 1300 000/00 RMK AO2 RAB02E33 P0000
14837KMSN MSN20020918044512009/18/02 04:45:31  5-MIN KMSN 181045Z 07003KT 5SM BR FEW055 BKN110 16/14 A2982 960 90 1300 060/03 RMK AO2 RAB02E33 P0000
14837KMSN MSN20020918045013009/18/02 04:50:31  5-MIN KMSN 181050Z 08003KT 4SM BR BKN110 15/14 A2982 960 93 1200 080/03 RMK AO2 RAB02E33 SLP093 P0000 T01500139
14837KMSN MSN20020918045509809/18/02 04:55:31  5-MIN KMSN 181055Z 00000KT 3SM BR BKN110 15/14 A2981 960 93 1200 000/00 RMK AO2
14837KMSN MSN20020918050010509/18/02 05:00:31  5-MIN KMSN 181100Z 09003KT 3SM BR FEW070 BKN110 16/14 A2981 960 90 1300 090/03 RMK AO2
14837KMSN MSN20020918050512109/18/02 05:05:31  5-MIN KMSN 181105Z 09003KT 3SM -RA BR SCT065 BKN110 16/14 A2981 970 90 1300 090/03 RMK AO2 RAB02 P0000
14837KMSN MSN20020918051012109/18/02 05:10:31  5-MIN KMSN 181110Z 10004KT 3SM -RA BR SCT050 BKN110 16/14 A2981 970 90 1400 100/04 RMK AO2 RAB02 P0000
14837KMSN MSN20020918051512109/18/02 05:15:31  5-MIN KMSN 181115Z 09004KT 3SM -RA BR BKN050 BKN110 16/14 A2981 970 93 1300 090/04 RMK AO2 RAB02 P0001
14837KMSN MSN20020918052012109/18/02 05:20:31  5-MIN KMSN 181120Z 00000KT 3SM -RA BR BKN050 BKN110 16/14 A2981 970 90 1300 000/00 RMK AO2 RAB02 P0001
14837KMSN MSN20020918052511409/18/02 05:25:31  5-MIN KMSN 181125Z 08003KT 3SM -RA BR BKN048 16/14 A2980 970 93 1300 080/03 RMK AO2 RAB02 P0001
14837KMSN MSN20020918053011409/18/02 05:30:31  5-MIN KMSN 181130Z 09004KT 3SM -RA BR BKN048 16/14 A2981 970 90 1300 090/04 RMK AO2 RAB02 P0001
14837KMSN MSN20020918053511409/18/02 05:35:31  5-MIN KMSN 181135Z 11004KT 3SM -RA BR BKN048 16/14 A2981 970 93 1300 110/04 RMK AO2 RAB02 P0001
14837KMSN MSN20020918054011309/18/02 05:40:31  5-MIN KMSN 181140Z 11005KT 3SM BR SCT046 16/14 A2981 970 93 1300 110/05 RMK AO2 RAB02E37 P0001
14837KMSN MSN20020918054511309/18/02 05:45:31  5-MIN KMSN 181145Z 12005KT 3SM BR SCT046 16/14 A2981 970 90 1300 120/05 RMK AO2 RAB02E37 P0001
14837KMSN MSN20020918055017409/18/02 05:50:31  5-MIN KMSN 181150Z 13004KT 2 1/2SM BR FEW050 16/14 A2981 970 90 1300 130/04 RMK AO2 TWR VIS 3 RAB02E37 SLP092 P0001 60001 70001 T01560139 10161 20139 58013
14837KMSN MSN20020918055509809/18/02 05:55:31  5-MIN KMSN 181155Z 13004KT 3SM BR FEW075 16/14 A2981 970 86 1400 130/04 RMK AO2
14837KMSN MSN20020918060009809/18/02 06:00:31  5-MIN KMSN 181200Z 14005KT 3SM BR FEW120 16/14 A2980 970 86 1400 140/05 RMK AO2
14837KMSN MSN20020918062512809/18/02 06:25:31  5-MIN KMSN 181225Z 13004KT 2 1/2SM -RA BR BKN100 16/14 A2980 980 86 1400 120/04 RMK AO2 TWR VIS 3 RAB11 P0000
14837KMSN MSN20020918063012709/18/02 06:30:31  5-MIN KMSN 181230Z 11004KT 2 1/2SM BR BKN100 16/14 A2980 980 90 1400 110/04 RMK AO2 TWR VIS 3 RAB11E28 P0000
14837KMSN MSN20020918063512709/18/02 06:35:31  5-MIN KMSN 181235Z 11004KT 2 1/2SM BR OVC100 16/14 A2979 980 90 1400 110/04 RMK AO2 TWR VIS 3 RAB11E28 P0000
14837KMSN MSN20020918064012709/18/02 06:40:31  5-MIN KMSN 181240Z 11005KT 2 1/2SM BR OVC110 16/14 A2979 980 90 1400 110/05 RMK AO2 TWR VIS 3 RAB11E28 P0000
14837KMSN MSN20020918064512709/18/02 06:45:31  5-MIN KMSN 181245Z 12004KT 2 1/2SM BR OVC110 16/14 A2979 980 90 1400 120/04 RMK AO2 TWR VIS 3 RAB11E28 P0000
14837KMSN MSN20020918065014409/18/02 06:50:31  5-MIN KMSN 181250Z 14003KT 2 1/2SM BR OVC110 16/14 A2979 980 90 1400 140/03 RMK AO2 TWR VIS 3 RAB11E28 SLP087 P0000 T01610144
14837KMSN MSN20020918065511209/18/02 06:55:31  5-MIN KMSN 181255Z 15003KT 2 1/2SM BR BKN100 16/14 A2980 980 90 1400 150/03 RMK AO2 TWR VIS 3
14837KMSN MSN20020918070011209/18/02 07:00:31  5-MIN KMSN 181300Z 17004KT 2 1/2SM BR BKN100 17/14 A2980 980 86 1400 160/04 RMK AO2 TWR VIS 3
14837KMSN MSN20020918070511209/18/02 07:05:31  5-MIN KMSN 181305Z 19004KT 2 1/2SM BR BKN100 17/14 A2980 970 86 1400 190/04 RMK AO2 TWR VIS 3
14837KMSN MSN20020918071011209/18/02 07:10:31  5-MIN KMSN 181310Z 18003KT 2 1/2SM BR BKN100 17/14 A2980 970 86 1400 180/03 RMK AO2 TWR VIS 3
14837KMSN MSN20020918071511209/18/02 07:15:31  5-MIN KMSN 181315Z 22003KT 2 1/2SM BR BKN100 17/14 A2980 970 86 1400 220/03 RMK AO2 TWR VIS 3
14837KMSN MSN20020918072011209/18/02 07:20:31  5-MIN KMSN 181320Z 00000KT 2 1/2SM BR SCT110 17/14 A2981 970 86 1400 000/00 RMK AO2 TWR VIS 3
14837KMSN MSN20020918072511209/18/02 07:25:31  5-MIN KMSN 181325Z 00000KT 2 1/2SM BR BKN110 17/15 A2981 970 90 1400 000/00 RMK AO2 TWR VIS 3
14837KMSN MSN20020918073011209/18/02 07:30:31  5-MIN KMSN 181330Z 00000KT 2 1/2SM BR BKN110 17/14 A2981 970 86 1400 000/00 RMK AO2 TWR VIS 3
14837KMSN MSN20020918073511209/18/02 07:35:31  5-MIN KMSN 181335Z 15003KT 2 1/2SM BR BKN110 17/15 A2981 970 90 1400 150/03 RMK AO2 TWR VIS 3
14837KMSN MSN20020918074011209/18/02 07:40:31  5-MIN KMSN 181340Z 00000KT 2 1/2SM BR BKN110 17/15 A2981 970 90 1400 000/00 RMK AO2 TWR VIS 3
14837KMSN MSN20020918074511209/18/02 07:45:31  5-MIN KMSN 181345Z 00000KT 2 1/2SM BR BKN110 17/15 A2981 970 87 1500 000/00 RMK AO2 TWR VIS 3
14837KMSN MSN20020918075012909/18/02 07:50:31  5-MIN KMSN 181350Z 15003KT 2 1/2SM BR OVC110 17/15 A2981 960 87 1500 150/03 RMK AO2 TWR VIS 3 SLP094 T01720150
14837KMSN MSN20020918075510509/18/02 07:55:31  5-MIN KMSN 181355Z 18003KT 3SM BR SCT090 BKN110 17/15 A2982 960 87 1500 180/03 RMK AO2
14837KMSN MSN20020918080010509/18/02 08:00:31  5-MIN KMSN 181400Z 00000KT 3SM BR SCT090 BKN110 17/15 A2982 960 87 1500 000/00 RMK AO2
14837KMSN MSN20020918080510509/18/02 08:05:31  5-MIN KMSN 181405Z 00000KT 3SM BR SCT090 BKN110 17/16 A2981 960 90 1500 000/00 RMK AO2
14837KMSN MSN20020918081010509/18/02 08:10:31  5-MIN KMSN 181410Z 00000KT 3SM BR SCT090 BKN110 17/15 A2981 960 87 1500 000/00 RMK AO2
14837KMSN MSN20020918081510509/18/02 08:15:31  5-MIN KMSN 181415Z 00000KT 3SM BR SCT090 BKN110 17/16 A2981 970 90 1500 000/00 RMK AO2
14837KMSN MSN20020918082010509/18/02 08:20:31  5-MIN KMSN 181420Z 00000KT 3SM BR SCT090 BKN110 18/16 A2981 970 87 1600 000/00 RMK AO2
14837KMSN MSN20020918082510509/18/02 08:25:31  5-MIN KMSN 181425Z 00000KT 3SM BR SCT090 BKN110 18/16 A2980 970 87 1600 000/00 RMK AO2
14837KMSN MSN20020918083010509/18/02 08:30:31  5-MIN KMSN 181430Z 00000KT 3SM BR SCT090 BKN110 18/16 A2980 970 87 1600 000/00 RMK AO2
14837KMSN MSN20020918083511509/18/02 08:35:31  5-MIN KMSN 181435Z 17003KT 3SM HZ SCT085 BKN110 18/16 A2981 970 84 1600 160/03 RMK AO2 SFC VIS 4
14837KMSN MSN20020918084010509/18/02 08:40:31  5-MIN KMSN 181440Z 14003KT 4SM HZ SCT085 SCT110 19/16 A2981 970 84 1700 140/03 RMK AO2
14837KMSN MSN20020918084510509/18/02 08:45:31  5-MIN KMSN 181445Z 19003KT 4SM HZ FEW090 SCT110 19/16 A2980 970 84 1700 190/03 RMK AO2
14837KMSN MSN20020918085012709/18/02 08:50:31  5-MIN KMSN 181450Z 00000KT 5SM HZ SCT095 19/16 A2981 970 84 1700 000/00 RMK AO2 SLP090 60000 T01890161 56012
14837KMSN MSN20020918085509809/18/02 08:55:31  5-MIN KMSN 181455Z 15004KT 5SM HZ SCT110 19/16 A2980 970 84 1700 150/04 RMK AO2
14837KMSN MSN20020918090009809/18/02 09:00:31  5-MIN KMSN 181500Z 17004KT 5SM HZ SCT110 19/16 A2980 970 81 1800 170/04 RMK AO2
14837KMSN MSN20020918090509809/18/02 09:05:31  5-MIN KMSN 181505Z 13004KT 5SM HZ SCT046 19/16 A2980 980 81 1800 130/04 RMK AO2
14837KMSN MSN20020918091009809/18/02 09:10:31  5-MIN KMSN 181510Z VRB03KT 5SM HZ SCT046 20/16 A2980 980 78 1800 VRB/03 RMK AO2
14837KMSN MSN20020918091509809/18/02 09:15:31  5-MIN KMSN 181515Z 00000KT 5SM HZ SCT046 19/16 A2980 980 78 1800 000/00 RMK AO2
14837KMSN MSN20020918092009809/18/02 09:20:31  5-MIN KMSN 181520Z 00000KT 5SM HZ SCT046 20/16 A2980 980 78 1800 000/00 RMK AO2
14837KMSN MSN20020918092509809/18/02 09:25:31  5-MIN KMSN 181525Z 00000KT 5SM HZ SCT046 21/16 A2980 980 73 1900 000/00 RMK AO2
14837KMSN MSN20020918093009809/18/02 09:30:31  5-MIN KMSN 181530Z 00000KT 5SM HZ SCT046 21/16 A2980 980 73 1900 000/00 RMK AO2
14837KMSN MSN20020918093509809/18/02 09:35:31  5-MIN KMSN 181535Z 00000KT 6SM HZ FEW045 21/16 A2980 980 70 2000 000/00 RMK AO2
14837KMSN MSN20020918094009509/18/02 09:40:31  5-MIN KMSN 181540Z 00000KT 7SM FEW045 21/16 A2979 980 70 2000 000/00 RMK AO2
14837KMSN MSN20020918094509509/18/02 09:45:31  5-MIN KMSN 181545Z 08003KT 8SM FEW045 21/16 A2979 990 70 2000 080/03 RMK AO2
14837KMSN MSN20020918095011209/18/02 09:50:31  5-MIN KMSN 181550Z 00000KT 8SM FEW045 21/16 A2979 980 70 2000 000/00 RMK AO2 SLP086 T02110156
14837KMSN MSN20020918095509209/18/02 09:55:31  5-MIN KMSN 181555Z 13004KT 8SM CLR 22/16 A2979 990 68 2000 130/04 RMK AO2
14837KMSN MSN20020918100009209/18/02 10:00:31  5-MIN KMSN 181600Z 00000KT 8SM CLR 22/16 A2979 980 68 2000 000/00 RMK AO2
14837KMSN MSN20020918100509209/18/02 10:05:31  5-MIN KMSN 181605Z 15004KT 8SM CLR 22/16 A2979 980 65 2100 150/04 RMK AO2
14837KMSN MSN20020918101009209/18/02 10:10:31  5-MIN KMSN 181610Z 18006KT 8SM CLR 22/16 A2980 970 65 2100 180/06 RMK AO2
14837KMSN MSN20020918101509309/18/02 10:15:31  5-MIN KMSN 181615Z 17008KT 10SM CLR 22/16 A2980 970 65 2100 170/08 RMK AO2
14837KMSN MSN20020918102009609/18/02 10:20:31  5-MIN KMSN 181620Z 19007KT 10SM FEW040 22/16 A2980 980 65 2100 190/07 RMK AO2
14837KMSN MSN20020918102509609/18/02 10:25:31  5-MIN KMSN 181625Z 18008KT 10SM FEW040 22/16 A2980 980 65 2100 170/08 RMK AO2
14837KMSN MSN20020918103009609/18/02 10:30:31  5-MIN KMSN 181630Z 19006KT 10SM SCT045 22/16 A2979 980 65 2100 190/06 RMK AO2
14837KMSN MSN20020918103509609/18/02 10:35:31  5-MIN KMSN 181635Z 17008KT 10SM SCT045 22/16 A2979 990 65 2100 170/08 RMK AO2
14837KMSN MSN20020918104009609/18/02 10:40:31  5-MIN KMSN 181640Z 17008KT 10SM SCT045 23/16 A2979 990 65 2200 170/08 RMK AO2
14837KMSN MSN20020918104509609/18/02 10:45:31  5-MIN KMSN 181645Z 18007KT 10SM SCT045 23/16 A2978 990 61 2200 180/07 RMK AO2
14837KMSN MSN20020918105011309/18/02 10:50:31  5-MIN KMSN 181650Z VRB05KT 10SM SCT028 23/16 A2978 990 61 2200 VRB/05 RMK AO2 SLP082 T02330156
14837KMSN MSN20020918105509709/18/02 10:55:31  5-MIN KMSN 181655Z 17008KT 10SM SCT028 23/16 A2978 1000 61 2200 170/08 RMK AO2
14837KMSN MSN20020918110009609/18/02 11:00:31  5-MIN KMSN 181700Z 18007KT 10SM SCT028 23/16 A2978 990 61 2200 180/07 RMK AO2
14837KMSN MSN20020918110511309/18/02 11:05:31  5-MIN KMSN 181705Z 19008KT 160V220 10SM SCT028 24/16 A2978 1000 59 2300 190/08 160V220 RMK AO2
14837KMSN MSN20020918111009709/18/02 11:10:31  5-MIN KMSN 181710Z 16008KT 10SM SCT028 24/16 A2977 1000 61 2300 160/08 RMK AO2
14837KMSN MSN20020918111509709/18/02 11:15:31  5-MIN KMSN 181715Z 17008KT 10SM SCT028 24/16 A2977 1000 59 2400 170/08 RMK AO2
14837KMSN MSN20020918112009709/18/02 11:20:31  5-MIN KMSN 181720Z 19007KT 10SM SCT030 23/16 A2977 1000 61 2200 190/07 RMK AO2
14837KMSN MSN20020918112509709/18/02 11:25:31  5-MIN KMSN 181725Z 18008KT 10SM SCT030 24/16 A2977 1000 59 2400 180/08 RMK AO2
14837KMSN MSN20020918113009709/18/02 11:30:31  5-MIN KMSN 181730Z 16012KT 10SM BKN030 24/16 A2977 1010 59 2300 160/12 RMK AO2
14837KMSN MSN20020918113509709/18/02 11:35:31  5-MIN KMSN 181735Z 17011KT 10SM BKN033 24/16 A2977 1010 59 2400 170/11 RMK AO2
14837KMSN MSN20020918114009709/18/02 11:40:31  5-MIN KMSN 181740Z 17011KT 10SM BKN033 24/16 A2977 1010 59 2300 170/11 RMK AO2
14837KMSN MSN20020918114509709/18/02 11:45:31  5-MIN KMSN 181745Z 16011KT 10SM BKN033 25/16 A2976 1010 57 2400 160/11 RMK AO2
14837KMSN MSN20020918115013809/18/02 11:50:31  5-MIN KMSN 181750Z 19010KT 10SM BKN033 24/16 A2977 1010 57 2400 190/10 RMK AO2 SLP076 60000 T02440156 10250 20161 56002
14837KMSN MSN20020918115509609/18/02 11:55:31  5-MIN KMSN 181755Z 17010KT 9SM OVC033 23/16 A2976 1010 61 2200 170/10 RMK AO2
14837KMSN MSN20020918120009709/18/02 12:00:31  5-MIN KMSN 181800Z 18010KT 10SM OVC033 24/16 A2976 1010 59 2300 180/10 RMK AO2
14837KMSN MSN20020918120509709/18/02 12:05:31  5-MIN KMSN 181805Z 18009KT 10SM BKN033 24/16 A2976 1010 59 2300 180/09 RMK AO2
14837KMSN MSN20020918121009709/18/02 12:10:31  5-MIN KMSN 181810Z 17010KT 10SM BKN033 24/16 A2976 1020 59 2300 170/10 RMK AO2
14837KMSN MSN20020918121509709/18/02 12:15:31  5-MIN KMSN 181815Z 17011KT 10SM BKN033 23/16 A2975 1020 61 2300 170/11 RMK AO2
14837KMSN MSN20020918122009709/18/02 12:20:31  5-MIN KMSN 181820Z 18012KT 10SM BKN033 24/16 A2975 1020 59 2300 180/12 RMK AO2
14837KMSN MSN20020918122509709/18/02 12:25:31  5-MIN KMSN 181825Z 19011KT 10SM FEW033 24/16 A2975 1030 59 2300 190/11 RMK AO2
14837KMSN MSN20020918123009709/18/02 12:30:31  5-MIN KMSN 181830Z 17012KT 10SM FEW033 24/16 A2974 1030 59 2300 170/12 RMK AO2
14837KMSN MSN20020918123509709/18/02 12:35:31  5-MIN KMSN 181835Z 17009KT 10SM FEW080 23/16 A2974 1030 61 2300 170/09 RMK AO2
14837KMSN MSN20020918124009709/18/02 12:40:31  5-MIN KMSN 181840Z 17013KT 10SM SCT080 24/16 A2974 1030 59 2400 170/13 RMK AO2
14837KMSN MSN20020918124509609/18/02 12:45:31  5-MIN KMSN 181845Z 17013KT 9SM BKN080 23/16 A2973 1040 61 2300 170/13 RMK AO2
14837KMSN MSN20020918125011409/18/02 12:50:31  5-MIN KMSN 181850Z 18011KT 10SM BKN080 23/16 A2974 1040 61 2300 170/11 RMK AO2 SLP066 T02330156
14837KMSN MSN20020918125510409/18/02 12:55:31  5-MIN KMSN 181855Z 17013KT 10SM FEW060 BKN080 23/16 A2974 1030 61 2300 170/13 RMK AO2
14837KMSN MSN20020918130010409/18/02 13:00:31  5-MIN KMSN 181900Z 18012KT 10SM FEW060 SCT080 24/16 A2974 1040 59 2300 180/12 RMK AO2
14837KMSN MSN20020918130510409/18/02 13:05:31  5-MIN KMSN 181905Z 18014KT 10SM FEW055 SCT080 23/16 A2974 1030 61 2300 180/14 RMK AO2
14837KMSN MSN20020918131010409/18/02 13:10:31  5-MIN KMSN 181910Z 18011KT 10SM FEW055 BKN080 23/16 A2974 1040 61 2300 180/11 RMK AO2
14837KMSN MSN20020918131510409/18/02 13:15:31  5-MIN KMSN 181915Z 18012KT 10SM FEW055 BKN080 23/16 A2973 1040 63 2200 180/12 RMK AO2
14837KMSN MSN20020918132010409/18/02 13:20:31  5-MIN KMSN 181920Z 18012KT 10SM FEW055 BKN080 23/16 A2973 1040 63 2200 180/12 RMK AO2
14837KMSN MSN20020918132510409/18/02 13:25:31  5-MIN KMSN 181925Z 16014KT 10SM FEW055 BKN080 23/16 A2973 1040 63 2300 160/14 RMK AO2
14837KMSN MSN20020918133010409/18/02 13:30:31  5-MIN KMSN 181930Z 17012KT 10SM FEW055 BKN080 23/16 A2973 1040 63 2300 170/12 RMK AO2
14837KMSN MSN20020918133509409/18/02 13:35:31  5-MIN KMSN 181935Z 16013KT 10SM CLR 23/16 A2972 1050 63 2300 160/13 RMK AO2
14837KMSN MSN20020918134009709/18/02 13:40:31  5-MIN KMSN 181940Z 17012KT 10SM FEW080 23/17 A2972 1050 66 2300 170/12 RMK AO2
14837KMSN MSN20020918134510309/18/02 13:45:31  5-MIN KMSN 181945Z 18013G18KT 10SM FEW080 23/17 A2972 1050 66 2300 180/13G18 RMK AO2
14837KMSN MSN20020918135012009/18/02 13:50:31  5-MIN KMSN 181950Z 18012G18KT 10SM FEW080 23/17 A2972 1050 66 2300 180/12G18 RMK AO2 SLP059 T02330167
14837KMSN MSN20020918135509409/18/02 13:55:31  5-MIN KMSN 181955Z 17012KT 10SM CLR 23/17 A2971 1060 66 2300 160/12 RMK AO2
14837KMSN MSN20020918140009309/18/02 14:00:31  5-MIN KMSN 182000Z 18012KT 8SM CLR 23/17 A2971 1060 66 2300 180/12 RMK AO2
14837KMSN MSN20020918140509309/18/02 14:05:31  5-MIN KMSN 182005Z 18013KT 8SM CLR 23/17 A2972 1050 68 2200 180/13 RMK AO2
14837KMSN MSN20020918141009309/18/02 14:10:31  5-MIN KMSN 182010Z 16014KT 8SM CLR 23/16 A2971 1060 65 2200 160/14 RMK AO2
14837KMSN MSN20020918141509309/18/02 14:15:31  5-MIN KMSN 182015Z 16012KT 8SM CLR 23/17 A2971 1060 68 2200 160/12 RMK AO2
14837KMSN MSN20020918142009409/18/02 14:20:31  5-MIN KMSN 182020Z 16011KT 10SM CLR 23/17 A2970 1070 68 2300 160/11 RMK AO2
14837KMSN MSN20020918142509409/18/02 14:25:31  5-MIN KMSN 182025Z 16011KT 10SM CLR 23/17 A2970 1070 66 2300 160/11 RMK AO2
14837KMSN MSN20020918143009409/18/02 14:30:31  5-MIN KMSN 182030Z 17012KT 10SM CLR 23/17 A2970 1070 66 2300 160/12 RMK AO2
14837KMSN MSN20020918143510009/18/02 14:35:31  5-MIN KMSN 182035Z 15014G18KT 10SM CLR 23/17 A2969 1070 66 2300 150/14G18 RMK AO2
14837KMSN MSN20020918144009409/18/02 14:40:31  5-MIN KMSN 182040Z 16013KT 10SM CLR 23/17 A2970 1070 66 2300 160/13 RMK AO2
14837KMSN MSN20020918144509409/18/02 14:45:31  5-MIN KMSN 182045Z 16013KT 10SM CLR 23/17 A2970 1070 66 2300 160/13 RMK AO2
14837KMSN MSN20020918145012009/18/02 14:50:31  5-MIN KMSN 182050Z 17011KT 10SM SCT080 23/17 A2970 1070 66 2300 170/11 RMK AO2 SLP053 T02330167 56013
14837KMSN MSN20020918145509609/18/02 14:55:31  5-MIN KMSN 182055Z 17013KT 9SM FEW080 23/17 A2969 1070 66 2300 170/13 RMK AO2
14837KMSN MSN20020918150009609/18/02 15:00:31  5-MIN KMSN 182100Z 17011KT 9SM FEW080 23/17 A2969 1070 66 2300 170/11 RMK AO2
14837KMSN MSN20020918150509609/18/02 15:05:31  5-MIN KMSN 182105Z 17010KT 9SM FEW080 23/17 A2969 1080 68 2300 170/10 RMK AO2
14837KMSN MSN20020918151009609/18/02 15:10:31  5-MIN KMSN 182110Z 16012KT 9SM FEW080 23/17 A2969 1070 68 2300 160/12 RMK AO2
14837KMSN MSN20020918151509609/18/02 15:15:31  5-MIN KMSN 182115Z 16010KT 9SM FEW080 23/17 A2969 1070 68 2300 160/10 RMK AO2
14837KMSN MSN20020918152009609/18/02 15:20:31  5-MIN KMSN 182120Z 16011KT 9SM FEW027 23/17 A2970 1070 68 2300 160/11 RMK AO2
14837KMSN MSN20020918152509609/18/02 15:25:31  5-MIN KMSN 182125Z 17009KT 9SM SCT027 23/17 A2970 1070 68 2300 170/09 RMK AO2
14837KMSN MSN20020918153011109/18/02 15:30:31  5-MIN KMSN 182130Z 17010KT 9SM SCT027 23/18 A2969 1070 70 2300 170/10 RMK AO2 RAB26E30 P0000
14837KMSN MSN20020918153511109/18/02 15:35:31  5-MIN KMSN 182135Z 17010KT 9SM FEW027 23/18 A2969 1080 70 2300 160/10 RMK AO2 RAB26E30 P0000
14837KMSN MSN20020918154011209/18/02 15:40:31  5-MIN KMSN 182140Z 18008KT 9SM -RA FEW027 23/18 A2969 1070 70 2300 180/08 RMK AO2 RAB26 P0000
14837KMSN MSN20020918154511309/18/02 15:45:31  5-MIN KMSN 182145Z 17010KT 10SM -RA SCT027 23/18 A2969 1080 70 2300 170/10 RMK AO2 RAB26 P0000
14837KMSN MSN20020918155012909/18/02 15:50:31  5-MIN KMSN 182150Z 17008KT 10SM SCT027 23/18 A2969 1080 70 2300 170/08 RMK AO2 RAB26E49 SLP051 P0000 T02330178
14837KMSN MSN20020918155509609/18/02 15:55:31  5-MIN KMSN 182155Z 17009KT 9SM FEW025 23/18 A2969 1080 70 2300 160/09 RMK AO2
14837KMSN MSN20020918160009609/18/02 16:00:31  5-MIN KMSN 182200Z 17008KT 8SM FEW027 23/18 A2969 1080 70 2300 170/08 RMK AO2
14837KMSN MSN20020918160509609/18/02 16:05:31  5-MIN KMSN 182205Z 17011KT 8SM FEW027 23/18 A2969 1080 70 2300 170/11 RMK AO2
14837KMSN MSN20020918161009609/18/02 16:10:31  5-MIN KMSN 182210Z 16013KT 7SM FEW027 23/18 A2970 1070 76 2300 160/13 RMK AO2
14837KMSN MSN20020918161509909/18/02 16:15:31  5-MIN KMSN 182215Z 17012KT 6SM HZ FEW025 23/18 A2970 1070 76 2300 170/12 RMK AO2
14837KMSN MSN20020918162009909/18/02 16:20:31  5-MIN KMSN 182220Z 18011KT 6SM HZ FEW025 23/18 A2970 1070 76 2300 180/11 RMK AO2
14837KMSN MSN20020918162509909/18/02 16:25:31  5-MIN KMSN 182225Z 18009KT 6SM HZ FEW023 23/18 A2970 1070 76 2300 180/09 RMK AO2
14837KMSN MSN20020918163009909/18/02 16:30:31  5-MIN KMSN 182230Z 17008KT 6SM HZ FEW023 23/18 A2970 1070 76 2300 170/08 RMK AO2
14837KMSN MSN20020918163509909/18/02 16:35:31  5-MIN KMSN 182235Z 16009KT 5SM HZ SCT021 22/18 A2970 1070 78 2200 160/09 RMK AO2
14837KMSN MSN20020918164010609/18/02 16:40:31  5-MIN KMSN 182240Z 16011KT 5SM HZ FEW021 SCT025 22/18 A2970 1070 78 2200 160/11 RMK AO2
14837KMSN MSN20020918164509909/18/02 16:45:31  5-MIN KMSN 182245Z 15010KT 5SM HZ FEW021 22/18 A2970 1070 78 2200 150/10 RMK AO2
14837KMSN MSN20020918165011609/18/02 16:50:31  5-MIN KMSN 182250Z 18008KT 5SM HZ FEW021 22/18 A2970 1070 78 2200 180/08 RMK AO2 SLP055 T02220183
14837KMSN MSN20020918165509909/18/02 16:55:31  5-MIN KMSN 182255Z 17008KT 5SM HZ FEW019 22/18 A2970 1070 78 2200 170/08 RMK AO2
14837KMSN MSN20020918170009909/18/02 17:00:31  5-MIN KMSN 182300Z 17008KT 4SM HZ FEW019 22/18 A2970 1070 78 2200 170/08 RMK AO2
14837KMSN MSN20020918170509909/18/02 17:05:31  5-MIN KMSN 182305Z 16007KT 4SM HZ FEW017 22/18 A2970 1070 78 2200 160/07 RMK AO2
14837KMSN MSN20020918171009909/18/02 17:10:31  5-MIN KMSN 182310Z 14007KT 3SM HZ FEW017 22/18 A2970 1070 78 2200 140/07 RMK AO2
14837KMSN MSN20020918171509909/18/02 17:15:31  5-MIN KMSN 182315Z 14008KT 3SM HZ FEW017 22/18 A2969 1070 81 2100 130/08 RMK AO2
14837KMSN MSN20020918172009909/18/02 17:20:31  5-MIN KMSN 182320Z 13007KT 3SM HZ FEW017 22/18 A2969 1080 81 2100 130/07 RMK AO2
14837KMSN MSN20020918172509909/18/02 17:25:31  5-MIN KMSN 182325Z 13008KT 3SM HZ FEW017 22/18 A2969 1080 81 2100 130/08 RMK AO2
14837KMSN MSN20020918173009609/18/02 17:30:31  5-MIN KMSN 182330Z 13005KT 3SM HZ CLR 22/18 A2969 1080 81 2100 130/05 RMK AO2
14837KMSN MSN20020918173509609/18/02 17:35:31  5-MIN KMSN 182335Z 14006KT 3SM HZ CLR 22/18 A2969 1080 81 2100 140/06 RMK AO2
14837KMSN MSN20020918174009609/18/02 17:40:31  5-MIN KMSN 182340Z 13007KT 3SM HZ CLR 22/18 A2969 1080 81 2100 130/07 RMK AO2
14837KMSN MSN20020918174509609/18/02 17:45:31  5-MIN KMSN 182345Z 13007KT 3SM HZ CLR 22/18 A2969 1080 81 2100 130/07 RMK AO2
14837KMSN MSN20020918175013709/18/02 17:50:31  5-MIN KMSN 182350Z 13006KT 3SM HZ CLR 21/18 A2969 1080 84 2100 120/06 RMK AO2 SLP051 60000 T02110183 10244 20211 56024
14837KMSN MSN20020918175509609/18/02 17:55:31  5-MIN KMSN 182355Z 13006KT 4SM HZ CLR 21/18 A2969 1080 84 2100 130/06 RMK AO2
14837KMSN MSN20020918180009609/18/02 18:00:31  5-MIN KMSN 190000Z 13008KT 3SM HZ CLR 21/18 A2969 1080 84 2100 130/08 RMK AO2
14837KMSN MSN20020918180509609/18/02 18:05:31  5-MIN KMSN 190005Z 13007KT 3SM HZ CLR 21/18 A2969 1080 84 2100 130/07 RMK AO2
14837KMSN MSN20020918181009609/18/02 18:10:31  5-MIN KMSN 190010Z 12005KT 3SM HZ CLR 21/18 A2969 1080 84 2100 120/05 RMK AO2
14837KMSN MSN20020918181509609/18/02 18:15:31  5-MIN KMSN 190015Z 13006KT 3SM HZ CLR 21/18 A2969 1080 84 2100 130/06 RMK AO2
14837KMSN MSN20020918182009609/18/02 18:20:31  5-MIN KMSN 190020Z 12005KT 3SM BR CLR 21/18 A2969 1080 87 2000 120/05 RMK AO2
14837KMSN MSN20020918182509609/18/02 18:25:31  5-MIN KMSN 190025Z 12006KT 3SM BR CLR 21/18 A2969 1080 87 2000 120/06 RMK AO2
14837KMSN MSN20020918183009609/18/02 18:30:31  5-MIN KMSN 190030Z 12006KT 3SM BR CLR 21/18 A2969 1080 87 2000 120/06 RMK AO2
14837KMSN MSN20020918183509609/18/02 18:35:31  5-MIN KMSN 190035Z 10007KT 4SM BR CLR 21/18 A2969 1080 87 2000 100/07 RMK AO2
14837KMSN MSN20020918184009609/18/02 18:40:31  5-MIN KMSN 190040Z 10007KT 4SM BR CLR 20/18 A2969 1080 90 2000 100/07 RMK AO2
14837KMSN MSN20020918184509609/18/02 18:45:31  5-MIN KMSN 190045Z 11006KT 4SM BR CLR 20/18 A2969 1080 90 1900 110/06 RMK AO2
14837KMSN MSN20020918185011309/18/02 18:50:31  5-MIN KMSN 190050Z 11005KT 4SM BR CLR 20/18 A2969 1080 90 2000 110/05 RMK AO2 SLP051 T02000183
14837KMSN MSN20020918185509609/18/02 18:55:31  5-MIN KMSN 190055Z 12006KT 4SM BR CLR 20/18 A2969 1080 90 2000 120/06 RMK AO2
14837KMSN MSN20020918190009609/18/02 19:00:31  5-MIN KMSN 190100Z 12006KT 4SM BR CLR 20/18 A2969 1080 90 2000 120/06 RMK AO2
14837KMSN MSN20020918190509909/18/02 19:05:31  5-MIN KMSN 190105Z 13006KT 4SM BR FEW100 20/18 A2969 1080 90 2000 120/06 RMK AO2
14837KMSN MSN20020918191009909/18/02 19:10:31  5-MIN KMSN 190110Z 12006KT 4SM BR SCT100 20/18 A2968 1080 90 2000 120/06 RMK AO2
14837KMSN MSN20020918191509909/18/02 19:15:31  5-MIN KMSN 190115Z 12005KT 4SM BR BKN100 20/18 A2968 1080 90 2000 120/05 RMK AO2
14837KMSN MSN20020918192009909/18/02 19:20:31  5-MIN KMSN 190120Z 10005KT 4SM BR BKN100 20/18 A2968 1090 90 2000 100/05 RMK AO2
14837KMSN MSN20020918192509909/18/02 19:25:31  5-MIN KMSN 190125Z 11005KT 4SM BR SCT100 20/18 A2968 1080 90 2000 110/05 RMK AO2
14837KMSN MSN20020918193009909/18/02 19:30:31  5-MIN KMSN 190130Z 11005KT 4SM BR SCT100 20/18 A2968 1080 90 2000 110/05 RMK AO2
14837KMSN MSN20020918193509909/18/02 19:35:31  5-MIN KMSN 190135Z 12005KT 4SM BR SCT100 20/18 A2968 1090 90 2000 120/05 RMK AO2
14837KMSN MSN20020918194009909/18/02 19:40:31  5-MIN KMSN 190140Z 11005KT 4SM BR FEW100 20/18 A2968 1090 90 2000 110/05 RMK AO2
14837KMSN MSN20020918194509609/18/02 19:45:31  5-MIN KMSN 190145Z 11006KT 4SM BR CLR 20/18 A2968 1090 90 2000 110/06 RMK AO2
14837KMSN MSN20020918195011309/18/02 19:50:31  5-MIN KMSN 190150Z 12007KT 4SM BR CLR 20/18 A2967 1090 90 2000 120/07 RMK AO2 SLP045 T02000183
14837KMSN MSN20020918195509609/18/02 19:55:31  5-MIN KMSN 190155Z 11009KT 4SM BR CLR 21/18 A2967 1100 87 2000 110/09 RMK AO2
14837KMSN MSN20020918200009609/18/02 20:00:31  5-MIN KMSN 190200Z 11007KT 4SM BR CLR 20/18 A2967 1100 90 2000 110/07 RMK AO2
14837KMSN MSN20020918200509609/18/02 20:05:31  5-MIN KMSN 190205Z 14007KT 4SM BR CLR 20/18 A2968 1090 90 2000 140/07 RMK AO2
14837KMSN MSN20020918201009609/18/02 20:10:31  5-MIN KMSN 190210Z VRB05KT 4SM BR CLR 20/18 A2969 1080 90 2000 VRB/05 RMK AO2
14837KMSN MSN20020918201509609/18/02 20:15:31  5-MIN KMSN 190215Z 15007KT 4SM BR CLR 21/18 A2969 1080 87 2000 150/07 RMK AO2
14837KMSN MSN20020918202009609/18/02 20:20:31  5-MIN KMSN 190220Z 17004KT 4SM BR CLR 21/18 A2969 1080 87 2000 170/04 RMK AO2
14837KMSN MSN20020918202509609/18/02 20:25:31  5-MIN KMSN 190225Z 16006KT 4SM BR CLR 21/18 A2969 1080 87 2000 160/06 RMK AO2
14837KMSN MSN20020918203009609/18/02 20:30:31  5-MIN KMSN 190230Z 16005KT 4SM BR CLR 20/18 A2969 1080 90 1900 160/05 RMK AO2
14837KMSN MSN20020918203509609/18/02 20:35:31  5-MIN KMSN 190235Z 17005KT 4SM BR CLR 21/18 A2969 1080 87 2000 170/05 RMK AO2
14837KMSN MSN20020918204009609/18/02 20:40:31  5-MIN KMSN 190240Z 15006KT 4SM BR CLR 20/18 A2968 1090 90 2000 150/06 RMK AO2
14837KMSN MSN20020918204509609/18/02 20:45:31  5-MIN KMSN 190245Z 14005KT 4SM BR CLR 20/18 A2968 1090 90 2000 140/05 RMK AO2
14837KMSN MSN20020918205011909/18/02 20:50:31  5-MIN KMSN 190250Z 18004KT 4SM BR CLR 20/18 A2968 1090 90 2000 170/04 RMK AO2 SLP047 T02000183 58002
14837KMSN MSN20020918205509909/18/02 20:55:31  5-MIN KMSN 190255Z 16005KT 4SM BR FEW090 20/18 A2968 1090 90 2000 160/05 RMK AO2
14837KMSN MSN20020918210009909/18/02 21:00:31  5-MIN KMSN 190300Z 15006KT 4SM BR SCT090 20/18 A2967 1100 90 2000 150/06 RMK AO2
14837KMSN MSN20020918210509909/18/02 21:05:31  5-MIN KMSN 190305Z 14008KT 4SM BR SCT090 21/19 A2967 1100 90 2000 140/08 RMK AO2
14837KMSN MSN20020918211009909/18/02 21:10:31  5-MIN KMSN 190310Z 14010KT 4SM BR BKN090 21/19 A2966 1110 87 2100 140/10 RMK AO2
14837KMSN MSN20020918211509909/18/02 21:15:31  5-MIN KMSN 190315Z 14010KT 4SM BR BKN090 21/19 A2966 1110 87 2100 140/10 RMK AO2
14837KMSN MSN20020918212009909/18/02 21:20:31  5-MIN KMSN 190320Z 14010KT 4SM BR BKN085 21/19 A2966 1110 87 2100 140/10 RMK AO2
14837KMSN MSN20020918212509909/18/02 21:25:31  5-MIN KMSN 190325Z 14009KT 4SM BR BKN085 21/19 A2966 1110 87 2100 140/09 RMK AO2
14837KMSN MSN20020918213009909/18/02 21:30:31  5-MIN KMSN 190330Z 15009KT 4SM BR BKN085 21/19 A2966 1110 87 2100 140/09 RMK AO2
14837KMSN MSN20020918213509909/18/02 21:35:31  5-MIN KMSN 190335Z 15011KT 4SM BR BKN085 21/19 A2966 1110 87 2100 140/11 RMK AO2
14837KMSN MSN20020918214009909/18/02 21:40:31  5-MIN KMSN 190340Z 15010KT 4SM HZ BKN085 22/19 A2966 1110 84 2200 150/10 RMK AO2
14837KMSN MSN20020918214510609/18/02 21:45:31  5-MIN KMSN 190345Z 15012KT 4SM BR FEW034 BKN085 22/19 A2966 1110 87 2200 150/12 RMK AO2
14837KMSN MSN20020918215012309/18/02 21:50:31  5-MIN KMSN 190350Z 16010KT 5SM BR FEW034 BKN085 22/19 A2966 1110 87 2200 150/10 RMK AO2 SLP038 T02170194
14837KMSN MSN20020918215510609/18/02 21:55:31  5-MIN KMSN 190355Z 15011KT 5SM BR FEW034 BKN090 22/19 A2965 1110 87 2200 150/11 RMK AO2
14837KMSN MSN20020918220010609/18/02 22:00:31  5-MIN KMSN 190400Z 16011KT 5SM BR FEW034 BKN090 22/19 A2965 1120 87 2200 150/11 RMK AO2
14837KMSN MSN20020918220510609/18/02 22:05:31  5-MIN KMSN 190405Z 16010KT 5SM BR FEW034 BKN090 22/19 A2965 1110 87 2200 160/10 RMK AO2
14837KMSN MSN20020918221010609/18/02 22:10:31  5-MIN KMSN 190410Z 16013KT 5SM BR FEW034 BKN090 22/19 A2965 1110 87 2200 160/13 RMK AO2
14837KMSN MSN20020918221510609/18/02 22:15:31  5-MIN KMSN 190415Z 16011KT 5SM BR FEW034 BKN090 22/19 A2965 1120 87 2200 160/11 RMK AO2
14837KMSN MSN20020918222010609/18/02 22:20:31  5-MIN KMSN 190420Z 15013KT 5SM BR FEW034 BKN090 22/19 A2964 1130 87 2200 150/13 RMK AO2
14837KMSN MSN20020918222510609/18/02 22:25:31  5-MIN KMSN 190425Z 16011KT 5SM BR FEW034 BKN090 22/19 A2964 1130 87 2200 150/11 RMK AO2
14837KMSN MSN20020918223010609/18/02 22:30:31  5-MIN KMSN 190430Z 16009KT 5SM BR FEW034 BKN090 22/19 A2964 1130 87 2200 160/09 RMK AO2
14837KMSN MSN20020918223510609/18/02 22:35:31  5-MIN KMSN 190435Z 17009KT 5SM BR FEW034 BKN090 22/19 A2964 1130 87 2200 160/09 RMK AO2
14837KMSN MSN20020918224009909/18/02 22:40:31  5-MIN KMSN 190440Z 17009KT 5SM BR SCT090 22/19 A2964 1120 87 2200 170/09 RMK AO2
14837KMSN MSN20020918224509909/18/02 22:45:31  5-MIN KMSN 190445Z 17009KT 5SM BR SCT090 22/19 A2964 1120 87 2200 170/09 RMK AO2
14837KMSN MSN20020918225011609/18/02 22:50:31  5-MIN KMSN 190450Z 17008KT 4SM BR FEW090 22/19 A2965 1120 87 2200 170/08 RMK AO2 SLP033 T02170194
14837KMSN MSN20020918225509909/18/02 22:55:31  5-MIN KMSN 190455Z 18008KT 4SM BR FEW090 22/19 A2965 1110 87 2200 180/08 RMK AO2
14837KMSN MSN20020918230009909/18/02 23:00:31  5-MIN KMSN 190500Z 17009KT 4SM BR FEW090 22/19 A2965 1120 87 2200 170/09 RMK AO2
14837KMSN MSN20020918230509909/18/02 23:05:31  5-MIN KMSN 190505Z 16009KT 4SM BR FEW090 22/19 A2965 1120 87 2200 160/09 RMK AO2
14837KMSN MSN20020918231009909/18/02 23:10:31  5-MIN KMSN 190510Z 16009KT 4SM BR FEW090 22/19 A2965 1120 87 2200 160/09 RMK AO2
14837KMSN MSN20020918231509909/18/02 23:15:31  5-MIN KMSN 190515Z 17008KT 4SM BR FEW090 22/19 A2965 1120 87 2200 170/08 RMK AO2
14837KMSN MSN20020918232009909/18/02 23:20:31  5-MIN KMSN 190520Z 17007KT 4SM BR FEW090 22/19 A2965 1120 87 2200 170/07 RMK AO2
14837KMSN MSN20020918232509909/18/02 23:25:31  5-MIN KMSN 190525Z 16007KT 4SM BR FEW090 22/19 A2965 1120 87 2200 160/07 RMK AO2
14837KMSN MSN20020918233009909/18/02 23:30:31  5-MIN KMSN 190530Z 17008KT 4SM BR FEW090 22/19 A2965 1120 87 2200 160/08 RMK AO2
14837KMSN MSN20020918233509909/18/02 23:35:31  5-MIN KMSN 190535Z 17008KT 4SM HZ SCT095 22/19 A2965 1120 84 2300 170/08 RMK AO2
14837KMSN MSN20020918234010309/18/02 23:40:31  5-MIN KMSN 190540Z 17009KT 7SM FEW065 BKN095 22/19 A2965 1120 84 2300 170/09 RMK AO2
14837KMSN MSN20020918234510309/18/02 23:45:31  5-MIN KMSN 190545Z 17009KT 7SM FEW065 BKN090 22/19 A2964 1120 84 2300 170/09 RMK AO2
14837KMSN MSN20020918235015509/18/02 23:50:31  5-MIN KMSN 190550Z 17010KT 7SM FEW065 SCT080 BKN095 22/19 A2964 1130 84 2300 170/10 RMK AO2 SLP030 T02220194 10222 20194 402500139 55003
14837KMSN MSN20020918235510309/18/02 23:55:31  5-MIN KMSN 190555Z 16012KT 7SM SCT075 BKN095 22/19 A2963 1130 84 2300 160/12 RMK AO2
14837KMSN MSN20020919000010309/19/02 00:00:31  5-MIN KMSN 190600Z 18011KT 8SM SCT070 BKN090 22/19 A2964 1120 84 2300 170/11 RMK AO2
14837KMSN MSN20020919000514609/19/02 00:05:31  5-MIN KMSN 190605Z 18010KT 8SM TS FEW031 BKN070 OVC090 22/19 A2964 1120 84 2300 180/10 RMK AO2 TSB02 FRQ LTGIC OHD TS OHD MOV E
14837KMSN MSN20020919001016009/19/02 00:10:31  5-MIN KMSN 190610Z 17012KT 6SM -TSRA SCT033 BKN075 OVC095 22/19 A2964 1130 84 2300 170/12 RMK AO2 TSB02RAB08 FRQ LTGIC OHD TS OHD MOV E P0001
14837KMSN MSN20020919001516509/19/02 00:15:31  5-MIN KMSN 190615Z 18015G20KT 3SM TSRA SCT021 BKN033 OVC095 22/19 A2965 1120 84 2300 180/15G20 RMK AO2 TSB02RAB08 FRQ LTGIC OHD TS OHD MOV E P0009
14837KMSN MSN20020919002017509/19/02 00:20:31  5-MIN KMSN 190620Z 17014G20KT 1 3/4SM +TSRA BR SCT013 BKN035 OVC075 22/20 A2964 1120 90 2200 170/14G20 RMK AO2 TSB02RAB08 FRQ LTGICCC OHD TS OHD MOV E P0018
14837KMSN MSN20020919002516509/19/02 00:25:31  5-MIN KMSN 190625Z 17013KT 2SM -TSRA BR SCT011 BKN036 OVC070 22/20 A2964 1120 90 2200 170/13 RMK AO2 TSB02RAB08 FRQ LTGICCC OHD TS OHD MOV E P0018
14837KMSN MSN20020919003016409/19/02 00:30:31  5-MIN KMSN 190630Z 16015KT 3SM TSRA BR SCT016 BKN036 OVC070 22/20 A2964 1120 90 2200 160/15 RMK AO2 TSB02RAB08 FRQ LTGICCC OHD TS OHD MOV E P0020
14837KMSN MSN20020919003517509/19/02 00:35:31  5-MIN KMSN 190635Z 18010G19KT 1 3/4SM +TSRA BR SCT014 BKN021 OVC055 21/20 A2964 1120 93 2100 180/10G19 RMK AO2 TSB02RAB08 FRQ LTGICCC OHD TS OHD MOV E P0037
14837KMSN MSN20020919004016909/19/02 00:40:31  5-MIN KMSN 190640Z 18010KT 1 1/4SM +TSRA BR BKN010 BKN018 OVC060 21/20 A2964 1120 93 2100 180/10 RMK AO2 TSB02RAB08 FRQ LTGICCC OHD TS OHD MOV E P0044
14837KMSN MSN20020919004516409/19/02 00:45:31  5-MIN KMSN 190645Z 16006KT 2SM TSRA BR SCT008 BKN020 OVC070 21/20 A2964 1130 93 2100 160/06 RMK AO2 TSB02RAB08 FRQ LTGICCC OHD TS OHD MOV E P0044
14837KMSN MSN20020919005018209/19/02 00:50:31  5-MIN KMSN 190650Z 14008KT 5SM -TSRA BR SCT012 BKN040 OVC090 21/20 A2963 1130 93 2100 140/08 RMK AO2 TSB02RAB08 SLP030 FRQ LTGICCC OHD TS OHD MOV E P0045 T02110200
14837KMSN MSN20020919005515409/19/02 00:55:31  5-MIN KMSN 190655Z 14009KT 5SM -TSRA BR SCT012 BKN048 OVC060 21/20 A2963 1130 93 2100 140/09 RMK AO2 FRQ LTGICCC OHD TS OHD MOV E P0000
14837KMSN MSN20020919010015409/19/02 01:00:31  5-MIN KMSN 190700Z 15008KT 6SM -TSRA BR FEW009 BKN021 OVC060 21/20 A2963 1130 93 2100 150/08 RMK AO2 FRQ LTGICCC OHD TS OHD MOV E P0000
14837KMSN MSN20020919010515409/19/02 01:05:31  5-MIN KMSN 190705Z 15009KT 6SM -TSRA BR FEW009 BKN021 OVC060 21/20 A2963 1130 93 2100 150/09 RMK AO2 FRQ LTGICCC OHD TS OHD MOV E P0000
14837KMSN MSN20020919011015109/19/02 01:10:31  5-MIN KMSN 190710Z 16008KT 7SM -TSRA BKN019 BKN024 OVC060 21/20 A2963 1130 93 2100 160/08 RMK AO2 FRQ LTGICCC OHD TS OHD MOV E P0000
14837KMSN MSN20020919011512009/19/02 01:15:31  5-MIN KMSN 190715Z 16010KT 7SM BKN021 OVC060 21/20 A2963 1130 93 2100 160/10 RMK AO2 TSE15RAE13 P0000
14837KMSN MSN20020919012012009/19/02 01:20:31  5-MIN KMSN 190720Z 16012KT 7SM BKN019 OVC060 21/20 A2963 1130 93 2100 160/12 RMK AO2 TSE15RAE13 P0001
14837KMSN MSN20020919012511509/19/02 01:25:31  5-MIN KMSN 190725Z 16013KT 6SM -RA BR OVC019 21/20 A2963 1140 93 2100 160/13 RMK AO2 TSE15 P0001
14837KMSN MSN20020919013011509/19/02 01:30:31  5-MIN KMSN 190730Z 16014KT 6SM -RA BR OVC019 21/19 A2962 1140 90 2200 160/14 RMK AO2 TSE15 P0001
14837KMSN MSN20020919013511209/19/02 01:35:31  5-MIN KMSN 190735Z 15013KT 7SM -RA OVC019 21/19 A2962 1150 90 2200 150/13 RMK AO2 TSE15 P0001
14837KMSN MSN20020919014012009/19/02 01:40:31  5-MIN KMSN 190740Z 16015KT 7SM OVC019 21/19 A2961 1150 90 2200 150/15 RMK AO2 TSE15RAE40 PRESFR P0001
14837KMSN MSN20020919014512909/19/02 01:45:31  5-MIN KMSN 190745Z 16014KT 6SM -RA BR BKN017 OVC031 21/19 A2959 1170 90 2200 150/14 RMK AO2 TSE15 PRESFR P0002
14837KMSN MSN20020919015015409/19/02 01:50:31  5-MIN KMSN 190750Z 16017KT 5SM -RA BR BKN017 OVC049 21/19 A2961 1150 90 2200 160/17 RMK AO2 TSE15 SLP021 FRQ LTG DSNT N P0002 T02110194
14837KMSN MSN20020919015514709/19/02 01:55:31  5-MIN KMSN 190755Z 17019G26KT 6SM -RA BR FEW015 SCT020 OVC065 21/19 A2959 1170 90 2200 170/19G26 RMK AO2 PK WND 16026/0754 P0001
14837KMSN MSN20020919020019209/19/02 02:00:31  5-MIN KMSN 190800Z 16014G26KT 6SM -TSRA BR FEW013 SCT018 OVC070 21/19 A2958 1180 90 2200 160/14G26 RMK AO2 PK WND 16026/0754 TSB0757 PRESFR FRQ LTGIC OHD TS OHD MOV NE P0001
14837KMSN MSN20020919020518209/19/02 02:05:31  5-MIN KMSN 190805Z 15013G24KT 7SM -TSRA FEW013 OVC060 21/19 A2956 1200 90 2200 150/13G24 RMK AO2 PK WND 16026/0754 TSB0757 PRESFR FRQ LTGIC OHD TS OHD MOV NE P0001
14837KMSN MSN20020919021016909/19/02 02:10:31  5-MIN KMSN 190810Z 16010KT 8SM -TSRA FEW013 OVC060 21/19 A2955 1200 90 2200 160/10 RMK AO2 PK WND 16026/0754 TSB0757 FRQ LTGIC OHD TS OHD MOV NE P0001
14837KMSN MSN20020919021516209/19/02 02:15:31  5-MIN KMSN 190815Z 22008KT 8SM -TSRA OVC065 21/19 A2960 1160 90 2200 220/08 RMK AO2 PK WND 16026/0754 TSB0757 FRQ LTGIC OHD TS OHD MOV NE P0001
14837KMSN MSN20020919022017609/19/02 02:20:31  5-MIN KMSN 190820Z 21007KT 9SM -TSRA FEW012 OVC060 21/19 A2963 1140 90 2100 210/07 RMK AO2 PK WND 16026/0754 TSB0757 PRESRR FRQ LTGIC OHD TS OHD MOV NE P0001
14837KMSN MSN20020919022517109/19/02 02:25:31  5-MIN KMSN 190825Z 21007KT 9SM TS SCT012 OVC060 21/19 A2964 1130 90 2100 210/07 RMK AO2 PK WND 16026/0754 TSB0757RAE24 FRQ LTGIC OHD TS OHD MOV NE P0001
14837KMSN MSN20020919023014309/19/02 02:30:31  5-MIN KMSN 190830Z 20009KT 9SM BKN012 OVC060 21/19 A2964 1120 93 2100 200/09 RMK AO2 PK WND 16026/0754 TSB0757E26RAE24 P0001
14837KMSN MSN20020919023514909/19/02 02:35:31  5-MIN KMSN 190835Z 19007KT 8SM -RA SCT012 BKN017 OVC060 21/19 A2965 1120 93 2100 190/07 RMK AO2 PK WND 16026/0754 TSB0757E26 P0001
14837KMSN MSN20020919024014909/19/02 02:40:31  5-MIN KMSN 190840Z 18009KT 8SM -RA BKN012 BKN045 OVC055 21/19 A2965 1120 93 2100 180/09 RMK AO2 PK WND 16026/0754 TSB0757E26 P0002
14837KMSN MSN20020919024514909/19/02 02:45:31  5-MIN KMSN 190845Z 19010KT 7SM -RA BKN012 BKN018 OVC044 21/19 A2965 1120 93 2100 190/10 RMK AO2 PK WND 16026/0754 TSB0757E26 P0002
14837KMSN MSN20020919025021609/19/02 02:50:31  5-MIN KMSN 190850Z 19010KT 6SM -TSRA BR BKN012 BKN018 OVC042 21/19 A2965 1110 93 2100 190/10 RMK AO2 PK WND 16026/0754 TSB0757E26B46 SLP036 FRQ LTGICCC OHD TS OHD MOV NE P0003 60050 T02060194 56015
14837KMSN MSN20020919025513109/19/02 02:55:31  5-MIN KMSN 190855Z 19010G20KT 6SM -TSRA BR SCT012 BKN037 OVC046 21/19 A2965 1120 90 2100 190/10G20 RMK AO2 P0000
14837KMSN MSN20020919030017309/19/02 03:00:31  5-MIN KMSN 190900Z 22008G20KT 6SM -TSRA BR BKN014 BKN040 OVC060 21/19 A2965 1110 93 2100 220/08G20 RMK AO2 CIG 010V021 FRQ LTGICCC OHD TS OHD MOV NE P0001
14837KMSN MSN20020919030515509/19/02 03:05:31  5-MIN KMSN 190905Z VRB04KT 3SM +TSRA BR BKN012 BKN019 OVC042 21/19 A2965 1110 93 2100 VRB/04 RMK AO2 FRQ LTGICCC OHD TS OHD MOV NE P0004
14837KMSN MSN20020919031016609/19/02 03:10:31  5-MIN KMSN 190910Z 16004KT 3SM TSRA BR SCT010 BKN018 OVC040 21/19 A2965 1120 93 2100 160/04 RMK AO2 CIG 012V030 FRQ LTGICCC OHD TS OHD MOV NE P0005
14837KMSN MSN20020919031516609/19/02 03:15:31  5-MIN KMSN 190915Z 18007KT 3SM TSRA BR BKN010 BKN019 OVC040 21/19 A2966 1100 93 2000 180/07 RMK AO2 CIG 006V014 FRQ LTGICCC OHD TS OHD MOV NE P0006
14837KMSN MSN20020919032017309/19/02 03:20:31  5-MIN KMSN 190920Z 22005KT 3SM TSRA BR BKN008 BKN013 OVC040 21/20 A2967 1090 97 2000 220/05 RMK AO2 CIG 005V008 PRESRR FRQ LTGICCC OHD TS OHD MOV NE P0008
14837KMSN MSN20020919032515909/19/02 03:25:31  5-MIN KMSN 190925Z 25004KT 3SM TSRA BR BKN008 OVC015 21/20 A2967 1100 97 2000 250/04 RMK AO2 CIG 005V011 FRQ LTGICCC OHD TS OHD MOV NE P0010
14837KMSN MSN20020919033016009/19/02 03:30:31  5-MIN KMSN 190930Z VRB04KT 3SM -TSRA BR BKN006 OVC013 21/20 A2966 1110 97 2000 VRB/04 RMK AO2 CIG 005V009 FRQ LTGICCC OHD TS OHD MOV NE P0010
14837KMSN MSN20020919033515409/19/02 03:35:31  5-MIN KMSN 190935Z 21006KT 4SM TSRA BR BKN006 BKN013 OVC030 21/20 A2966 1110 97 2000 200/06 RMK AO2 FRQ LTGICCC OHD TS OHD MOV NE P0012
14837KMSN MSN20020919034014709/19/02 03:40:31  5-MIN KMSN 190940Z 20005KT 4SM TSRA BR BKN008 OVC037 21/19 A2965 1110 93 2100 200/05 RMK AO2 FRQ LTGICCC OHD TS OHD MOV NE P0013
14837KMSN MSN20020919034516209/19/02 03:45:31  5-MIN KMSN 190945Z 19005KT 5SM -TSRA BR SCT006 SCT010 OVC042 21/19 A2964 1120 93 2100 190/05 RMK AO2 PRESFR FRQ LTGICCC OHD TS OHD MOV NE P0014
14837KMSN MSN20020919035016509/19/02 03:50:31  5-MIN KMSN 190950Z 19006KT 5SM -TSRA BR FEW008 OVC040 21/19 A2964 1120 93 2100 190/06 RMK AO2 SLP034 FRQ LTGICCC OHD TS OHD MOV NE P0015 T02060194
14837KMSN MSN20020919035512209/19/02 03:55:31  5-MIN KMSN 190955Z 17007KT 7SM -TSRA FEW008 BKN038 OVC060 21/19 A2964 1120 93 2100 170/07 RMK AO2 P0000
14837KMSN MSN20020919040012209/19/02 04:00:31  5-MIN KMSN 191000Z 13004KT 7SM -TSRA BKN042 OVC100 21/19 A2961 1150 93 2100 130/04 RMK AO2 PRESFR P0001
14837KMSN MSN20020919040515209/19/02 04:05:31  5-MIN KMSN 191005Z 11007KT 7SM -TSRA BKN044 OVC110 21/19 A2959 1170 93 2100 110/07 RMK AO2 PRESFR FRQ LTGCCIC OHD TS OHD MOV NE P0001
14837KMSN MSN20020919041015209/19/02 04:10:31  5-MIN KMSN 191010Z 10010KT 7SM -TSRA BKN042 OVC110 20/19 A2958 1180 97 2100 100/10 RMK AO2 PRESFR FRQ LTGCCIC OHD TS OHD MOV NE P0002
14837KMSN MSN20020919041514509/19/02 04:15:31  5-MIN KMSN 191015Z 15011KT 8SM -TSRA BKN048 BKN110 20/19 A2961 1160 97 2000 150/11 RMK AO2 FRQ LTGCCIC OHD TS OHD MOV NE P0002
14837KMSN MSN20020919042012009/19/02 04:20:31  5-MIN KMSN 191020Z 15011KT 10SM -RA BKN060 BKN110 21/19 A2961 1150 90 2100 150/11 RMK AO2 TSE17 P0002
14837KMSN MSN20020919042512809/19/02 04:25:31  5-MIN KMSN 191025Z 17008KT 10SM SCT065 BKN110 21/19 A2962 1140 90 2100 170/08 RMK AO2 TSE17RAE22 PRESRR P0002
14837KMSN MSN20020919043013009/19/02 04:30:31  5-MIN KMSN 191030Z 17007KT 10SM SCT060 21/19 A2962 1140 90 2100 170/07 RMK AO2 TSE17RAE22 OCNL LTG DSNT E P0002
14837KMSN MSN20020919043513709/19/02 04:35:31  5-MIN KMSN 191035Z 16007KT 10SM SCT070 SCT110 20/19 A2961 1150 93 2000 160/07 RMK AO2 TSE17RAE22 OCNL LTG DSNT E P0002
14837KMSN MSN20020919044013009/19/02 04:40:31  5-MIN KMSN 191040Z 14006KT 10SM FEW090 20/19 A2961 1150 93 2000 140/06 RMK AO2 TSE17RAE22 OCNL LTG DSNT E P0002
14837KMSN MSN20020919044513109/19/02 04:45:31  5-MIN KMSN 191045Z 14006KT 10SM FEW090 20/19 A2961 1150 93 2000 140/06 RMK AO2 TSE17RAE22 OCNL LTG DSNT NE P0002
14837KMSN MSN20020919045014809/19/02 04:50:31  5-MIN KMSN 191050Z 15007KT 10SM FEW110 20/19 A2961 1160 97 2000 150/07 RMK AO2 TSE17RAE22 SLP021 OCNL LTG DSNT NE P0002 T02000194
14837KMSN MSN20020919045509709/19/02 04:55:31  5-MIN KMSN 191055Z 15008KT 10SM FEW100 20/19 A2960 1160 97 2000 150/08 RMK AO2
14837KMSN MSN20020919050009709/19/02 05:00:31  5-MIN KMSN 191100Z 15010KT 10SM FEW110 21/19 A2960 1160 93 2100 150/10 RMK AO2
14837KMSN MSN20020919050509709/19/02 05:05:31  5-MIN KMSN 191105Z 15010KT 10SM FEW110 21/19 A2960 1160 93 2100 150/10 RMK AO2
14837KMSN MSN20020919051009709/19/02 05:10:31  5-MIN KMSN 191110Z 15011KT 10SM SCT110 21/19 A2960 1170 93 2100 150/11 RMK AO2
14837KMSN MSN20020919051509709/19/02 05:15:31  5-MIN KMSN 191115Z 15011KT 10SM BKN110 21/19 A2960 1170 93 2100 150/11 RMK AO2
14837KMSN MSN20020919052009609/19/02 05:20:31  5-MIN KMSN 191120Z 15013KT 9SM BKN110 21/19 A2960 1160 93 2100 150/13 RMK AO2
14837KMSN MSN20020919052510309/19/02 05:25:31  5-MIN KMSN 191125Z 16012KT 8SM FEW006 BKN110 21/19 A2960 1160 93 2100 160/12 RMK AO2
14837KMSN MSN20020919053010309/19/02 05:30:31  5-MIN KMSN 191130Z 16012KT 7SM SCT006 BKN110 21/19 A2961 1160 93 2100 160/12 RMK AO2
14837KMSN MSN20020919053511809/19/02 05:35:31  5-MIN KMSN 191135Z 15013KT 6SM BR BKN006 OVC110 21/20 A2960 1160 97 2100 150/13 RMK AO2 CIG 005V009
14837KMSN MSN20020919054010609/19/02 05:40:31  5-MIN KMSN 191140Z 15013KT 6SM BR BKN006 OVC110 21/20 A2960 1160 97 2100 150/13 RMK AO2
14837KMSN MSN20020919054510609/19/02 05:45:31  5-MIN KMSN 191145Z 16012KT 5SM BR BKN006 OVC110 21/20 A2960 1160 93 2200 160/12 RMK AO2
14837KMSN MSN20020919055014609/19/02 05:50:31  5-MIN KMSN 191150Z 16012KT 5SM BR OVC006 21/20 A2961 1160 93 2200 160/12 RMK AO2 SLP020 60067 70067 T02110200 10222 20200 53006
14837KMSN MSN20020919055512109/19/02 05:55:31  5-MIN KMSN 191155Z 16013KT 3SM BR OVC006 21/20 A2961 1150 93 2200 160/13 RMK AO2 SFC VIS 5 CIG 005V009
14837KMSN MSN20020919060010909/19/02 06:00:31  5-MIN KMSN 191200Z 15012KT 3SM BR OVC006 21/20 A2961 1150 93 2200 150/12 RMK AO2 SFC VIS 4
14837KMSN MSN20020919060510909/19/02 06:05:31  5-MIN KMSN 191205Z 16013KT 3SM BR OVC006 21/20 A2961 1150 93 2200 160/13 RMK AO2 SFC VIS 3
14837KMSN MSN20020919061010909/19/02 06:10:31  5-MIN KMSN 191210Z 18010KT 3SM BR OVC006 21/20 A2961 1150 93 2200 180/10 RMK AO2 SFC VIS 3
14837KMSN MSN20020919061510909/19/02 06:15:31  5-MIN KMSN 191215Z 18010KT 3SM BR OVC006 21/20 A2962 1140 93 2200 180/10 RMK AO2 SFC VIS 4
14837KMSN MSN20020919062010909/19/02 06:20:31  5-MIN KMSN 191220Z 17011KT 3SM BR OVC006 21/20 A2962 1140 93 2200 170/11 RMK AO2 SFC VIS 3
14837KMSN MSN20020919062510909/19/02 06:25:31  5-MIN KMSN 191225Z 17010KT 3SM BR OVC006 21/20 A2962 1140 93 2200 170/10 RMK AO2 SFC VIS 3
14837KMSN MSN20020919063009909/19/02 06:30:31  5-MIN KMSN 191230Z 17012KT 3SM BR OVC006 21/20 A2962 1140 93 2200 170/12 RMK AO2
14837KMSN MSN20020919063511309/19/02 06:35:31  5-MIN KMSN 191235Z 17011KT 2 1/2SM BR OVC006 21/20 A2962 1140 93 2200 170/11 RMK AO2 SFC VIS 3
14837KMSN MSN20020919064011309/19/02 06:40:31  5-MIN KMSN 191240Z 17011KT 2 1/2SM BR OVC006 21/20 A2962 1140 93 2200 170/11 RMK AO2 SFC VIS 3
14837KMSN MSN20020919064511309/19/02 06:45:31  5-MIN KMSN 191245Z 17012KT 2 1/2SM BR OVC006 21/20 A2962 1140 93 2200 170/12 RMK AO2 SFC VIS 3
14837KMSN MSN20020919065013009/19/02 06:50:31  5-MIN KMSN 191250Z 17011KT 2 1/2SM BR OVC006 22/21 A2962 1140 93 2200 170/11 RMK AO2 SFC VIS 3 SLP026 T02170206
14837KMSN MSN20020919065511309/19/02 06:55:31  5-MIN KMSN 191255Z 18010KT 2 1/2SM BR OVC006 22/21 A2962 1140 93 2200 170/10 RMK AO2 SFC VIS 3
14837KMSN MSN20020919070012509/19/02 07:00:31  5-MIN KMSN 191300Z 18009KT 2 1/2SM BR OVC006 22/21 A2962 1140 93 2200 180/09 RMK AO2 SFC VIS 3 CIG 005V010
14837KMSN MSN20020919070512509/19/02 07:05:31  5-MIN KMSN 191305Z 18010KT 2 1/2SM BR OVC006 22/21 A2963 1140 93 2200 180/10 RMK AO2 SFC VIS 3 CIG 005V009
14837KMSN MSN20020919071013209/19/02 07:10:31  5-MIN KMSN 191310Z 18009KT 2 1/2SM BR BKN006 OVC010 22/21 A2963 1130 93 2200 180/09 RMK AO2 SFC VIS 3 CIG 005V009
14837KMSN MSN20020919071512509/19/02 07:15:31  5-MIN KMSN 191315Z 18009KT 2 1/2SM BR OVC008 22/21 A2963 1130 93 2200 180/09 RMK AO2 SFC VIS 4 CIG 005V012
14837KMSN MSN20020919072012509/19/02 07:20:31  5-MIN KMSN 191320Z 19008KT 2 1/2SM BR OVC008 22/21 A2963 1130 93 2200 180/08 RMK AO2 SFC VIS 4 CIG 006V012
14837KMSN MSN20020919072512509/19/02 07:25:31  5-MIN KMSN 191325Z 17007KT 2 1/2SM BR OVC008 22/21 A2963 1140 90 2300 170/07 RMK AO2 SFC VIS 4 CIG 006V010
14837KMSN MSN20020919073012509/19/02 07:30:31  5-MIN KMSN 191330Z 17009KT 2 1/2SM BR OVC008 22/21 A2962 1140 90 2300 160/09 RMK AO2 SFC VIS 4 CIG 006V014
14837KMSN MSN20020919073512509/19/02 07:35:31  5-MIN KMSN 191335Z 17010KT 2 1/2SM BR OVC008 22/21 A2963 1140 90 2300 170/10 RMK AO2 SFC VIS 4 CIG 006V014
14837KMSN MSN20020919074012509/19/02 07:40:31  5-MIN KMSN 191340Z 18009KT 2 1/2SM BR OVC008 22/21 A2963 1130 90 2300 180/09 RMK AO2 SFC VIS 4 CIG 006V010
14837KMSN MSN20020919074512509/19/02 07:45:31  5-MIN KMSN 191345Z 17009KT 2 1/2SM BR OVC008 22/21 A2963 1130 90 2300 170/09 RMK AO2 SFC VIS 4 CIG 006V012
14837KMSN MSN20020919075012809/19/02 07:50:31  5-MIN KMSN 191350Z 17010KT 4SM BR OVC008 22/21 A2963 1130 90 2300 170/10 RMK AO2 CIG 006V010 SLP029 T02220206
14837KMSN MSN20020919075511109/19/02 07:55:31  5-MIN KMSN 191355Z 18009KT 4SM BR OVC008 22/21 A2963 1130 90 2300 180/09 RMK AO2 CIG 006V011
14837KMSN MSN20020919080011109/19/02 08:00:31  5-MIN KMSN 191400Z 18010KT 4SM BR OVC008 22/21 A2963 1130 93 2300 180/10 RMK AO2 CIG 006V010
14837KMSN MSN20020919080511109/19/02 08:05:31  5-MIN KMSN 191405Z 18009KT 4SM BR OVC008 23/21 A2963 1130 90 2300 180/09 RMK AO2 CIG 006V012
14837KMSN MSN20020919081011109/19/02 08:10:31  5-MIN KMSN 191410Z 19008KT 4SM BR OVC008 23/21 A2963 1130 90 2300 190/08 RMK AO2 CIG 007V011
14837KMSN MSN20020919081511109/19/02 08:15:31  5-MIN KMSN 191415Z 18007KT 4SM BR OVC010 23/21 A2963 1130 90 2300 180/07 RMK AO2 CIG 007V014
14837KMSN MSN20020919082011809/19/02 08:20:31  5-MIN KMSN 191420Z 19009KT 4SM BR BKN010 OVC017 23/21 A2963 1130 90 2300 180/09 RMK AO2 CIG 007V014
14837KMSN MSN20020919082511809/19/02 08:25:31  5-MIN KMSN 191425Z 18008KT 5SM BR BKN010 OVC017 23/21 A2963 1130 90 2300 180/08 RMK AO2 CIG 007V012
14837KMSN MSN20020919083011109/19/02 08:30:31  5-MIN KMSN 191430Z 18007KT 5SM BR OVC010 23/21 A2963 1130 90 2300 180/07 RMK AO2 CIG 007V014
14837KMSN MSN20020919083509909/19/02 08:35:31  5-MIN KMSN 191435Z 18010KT 5SM BR OVC010 23/21 A2963 1130 87 2400 180/10 RMK AO2
14837KMSN MSN20020919084011109/19/02 08:40:31  5-MIN KMSN 191440Z 18008KT 5SM BR OVC010 23/21 A2963 1130 90 2300 180/08 RMK AO2 CIG 008V014
14837KMSN MSN20020919084511109/19/02 08:45:31  5-MIN KMSN 191445Z 18008KT 5SM BR OVC010 23/21 A2963 1130 87 2400 180/08 RMK AO2 CIG 008V013
14837KMSN MSN20020919085013409/19/02 08:50:31  5-MIN KMSN 191450Z 18008KT 5SM BR OVC010 23/21 A2963 1130 87 2400 180/08 RMK AO2 CIG 008V013 SLP029 T02330211 55015
14837KMSN MSN20020919085509909/19/02 08:55:31  5-MIN KMSN 191455Z 18009KT 5SM BR OVC012 23/22 A2963 1140 90 2400 180/09 RMK AO2
14837KMSN MSN20020919090009909/19/02 09:00:31  5-MIN KMSN 191500Z 17011KT 5SM BR OVC012 24/22 A2962 1140 87 2500 160/11 RMK AO2
14837KMSN MSN20020919090510509/19/02 09:05:31  5-MIN KMSN 191505Z 18011G16KT 5SM BR OVC012 24/22 A2962 1140 87 2500 180/11G16 RMK AO2
14837KMSN MSN20020919091009909/19/02 09:10:31  5-MIN KMSN 191510Z 17012KT 6SM HZ OVC012 24/22 A2962 1140 84 2500 170/12 RMK AO2
14837KMSN MSN20020919091509909/19/02 09:15:31  5-MIN KMSN 191515Z 17015KT 6SM HZ OVC012 24/22 A2962 1150 84 2500 170/15 RMK AO2
14837KMSN MSN20020919092009909/19/02 09:20:31  5-MIN KMSN 191520Z 17015KT 6SM HZ BKN012 24/22 A2961 1150 84 2500 170/15 RMK AO2
14837KMSN MSN20020919092509909/19/02 09:25:31  5-MIN KMSN 191525Z 18013KT 6SM HZ SCT012 24/22 A2961 1150 84 2500 180/13 RMK AO2
14837KMSN MSN20020919093009909/19/02 09:30:31  5-MIN KMSN 191530Z 17012KT 6SM HZ BKN012 24/21 A2961 1150 81 2500 170/12 RMK AO2
14837KMSN MSN20020919093509909/19/02 09:35:31  5-MIN KMSN 191535Z 17010KT 6SM HZ BKN014 24/22 A2961 1160 84 2600 170/10 RMK AO2
14837KMSN MSN20020919094009909/19/02 09:40:31  5-MIN KMSN 191540Z 18011KT 6SM HZ BKN014 24/22 A2960 1160 84 2600 180/11 RMK AO2
14837KMSN MSN20020919094509909/19/02 09:45:31  5-MIN KMSN 191545Z 18010KT 6SM HZ BKN014 24/21 A2961 1160 81 2600 170/10 RMK AO2
14837KMSN MSN20020919095011609/19/02 09:50:31  5-MIN KMSN 191550Z 18008KT 6SM HZ BKN014 24/22 A2961 1160 84 2600 180/08 RMK AO2 SLP019 T02440217
14837KMSN MSN20020919095509909/19/02 09:55:31  5-MIN KMSN 191555Z 17011KT 6SM HZ BKN014 25/22 A2960 1160 81 2600 170/11 RMK AO2
14837KMSN MSN20020919100009909/19/02 10:00:31  5-MIN KMSN 191600Z 18010KT 6SM HZ BKN014 25/22 A2961 1160 81 2600 180/10 RMK AO2
14837KMSN MSN20020919100509609/19/02 10:05:31  5-MIN KMSN 191605Z 18010KT 7SM BKN014 25/22 A2960 1160 81 2600 180/10 RMK AO2
14837KMSN MSN20020919101009609/19/02 10:10:31  5-MIN KMSN 191610Z 16010KT 7SM BKN014 25/22 A2960 1160 81 2600 160/10 RMK AO2
14837KMSN MSN20020919101509609/19/02 10:15:31  5-MIN KMSN 191615Z 18011KT 7SM BKN016 25/21 A2960 1160 79 2600 180/11 RMK AO2
14837KMSN MSN20020919102009609/19/02 10:20:31  5-MIN KMSN 191620Z 17013KT 7SM BKN016 25/21 A2960 1160 79 2600 170/13 RMK AO2
14837KMSN MSN20020919102509609/19/02 10:25:31  5-MIN KMSN 191625Z 19011KT 7SM BKN016 25/21 A2961 1160 79 2600 180/11 RMK AO2
14837KMSN MSN20020919103009609/19/02 10:30:31  5-MIN KMSN 191630Z 18011KT 7SM BKN016 25/21 A2961 1150 79 2600 170/11 RMK AO2
14837KMSN MSN20020919103509609/19/02 10:35:31  5-MIN KMSN 191635Z 18011KT 7SM BKN016 25/22 A2961 1150 81 2600 180/11 RMK AO2
14837KMSN MSN20020919104010309/19/02 10:40:31  5-MIN KMSN 191640Z 18013KT 7SM FEW016 BKN080 26/21 A2961 1160 76 2700 180/13 RMK AO2
14837KMSN MSN20020919104510309/19/02 10:45:31  5-MIN KMSN 191645Z 18012KT 7SM FEW016 BKN080 26/21 A2961 1150 76 2700 180/12 RMK AO2
14837KMSN MSN20020919105012009/19/02 10:50:31  5-MIN KMSN 191650Z 18011KT 8SM SCT019 BKN080 26/21 A2961 1150 76 2700 180/11 RMK AO2 SLP020 T02560211
14837KMSN MSN20020919105511009/19/02 10:55:31  5-MIN KMSN 191655Z 19008KT 8SM SCT019 SCT026 BKN032 26/21 A2961 1160 76 2700 190/08 RMK AO2
14837KMSN MSN20020919110011009/19/02 11:00:31  5-MIN KMSN 191700Z 19010KT 8SM SCT021 BKN026 BKN032 26/22 A2960 1160 79 2700 190/10 RMK AO2
14837KMSN MSN20020919110511009/19/02 11:05:31  5-MIN KMSN 191705Z 20010KT 9SM SCT021 BKN026 BKN032 26/21 A2960 1160 73 2700 200/10 RMK AO2
14837KMSN MSN20020919111012709/19/02 11:10:31  5-MIN KMSN 191710Z 20008KT 170V230 10SM SCT021 BKN026 BKN032 26/21 A2959 1170 73 2800 200/08 170V230 RMK AO2
14837KMSN MSN20020919111511109/19/02 11:15:31  5-MIN KMSN 191715Z 17013KT 10SM SCT021 BKN027 BKN031 27/21 A2959 1170 71 2800 170/13 RMK AO2
14837KMSN MSN20020919112011109/19/02 11:20:31  5-MIN KMSN 191720Z 19009KT 10SM SCT021 BKN027 BKN031 27/21 A2959 1170 71 2800 190/09 RMK AO2
14837KMSN MSN20020919112510409/19/02 11:25:31  5-MIN KMSN 191725Z 20007KT 10SM SCT023 BKN027 27/21 A2959 1170 71 2800 200/07 RMK AO2
14837KMSN MSN20020919113010409/19/02 11:30:31  5-MIN KMSN 191730Z 20008KT 10SM SCT023 BKN028 26/21 A2960 1170 71 2700 200/08 RMK AO2
14837KMSN MSN20020919113511709/19/02 11:35:31  5-MIN KMSN 191735Z 18012G17KT 10SM FEW023 SCT028 SCT110 26/20 A2960 1170 68 2800 180/12G17 RMK AO2
14837KMSN MSN20020919114011709/19/02 11:40:31  5-MIN KMSN 191740Z 19008G17KT 10SM FEW023 SCT028 SCT100 26/20 A2959 1170 71 2700 190/08G17 RMK AO2
14837KMSN MSN20020919114510409/19/02 11:45:31  5-MIN KMSN 191745Z 20008KT 10SM FEW023 SCT100 26/19 A2960 1170 68 2700 200/08 RMK AO2
14837KMSN MSN20020919115013909/19/02 11:50:31  5-MIN KMSN 191750Z 20007KT 10SM SCT023 BKN100 26/20 A2960 1170 71 2700 200/07 RMK AO2 SLP016 T02560200 10267 20211 50007
14837KMSN MSN20020919115510409/19/02 11:55:31  5-MIN KMSN 191755Z 20008KT 10SM SCT028 BKN100 26/19 A2959 1170 66 2800 200/08 RMK AO2
14837KMSN MSN20020919120010409/19/02 12:00:31  5-MIN KMSN 191800Z 22006KT 10SM SCT028 BKN100 26/20 A2959 1170 68 2800 220/06 RMK AO2
14837KMSN MSN20020919120510409/19/02 12:05:31  5-MIN KMSN 191805Z 20009KT 10SM SCT028 BKN100 26/20 A2960 1170 68 2700 200/09 RMK AO2
14837KMSN MSN20020919121010409/19/02 12:10:31  5-MIN KMSN 191810Z 20008KT 10SM SCT025 BKN080 26/20 A2960 1160 71 2700 200/08 RMK AO2
14837KMSN MSN20020919121510409/19/02 12:15:31  5-MIN KMSN 191815Z 21009KT 10SM SCT025 BKN080 25/19 A2960 1160 71 2600 210/09 RMK AO2
14837KMSN MSN20020919122010409/19/02 12:20:31  5-MIN KMSN 191820Z 21008KT 10SM SCT032 BKN075 25/19 A2960 1160 71 2600 200/08 RMK AO2
14837KMSN MSN20020919122512009/19/02 12:25:31  5-MIN KMSN 191825Z 23009KT 10SM -RA SCT032 BKN075 25/19 A2960 1160 71 2600 230/09 RMK AO2 RAB23 P0000
14837KMSN MSN20020919123014109/19/02 12:30:31  5-MIN KMSN 191830Z 23011G19KT 2SM RA FEW029 BKN050 OVC075 24/18 A2961 1150 71 2500 230/11G19 RMK AO2 SFC VIS 5 RAB23 P0002
14837KMSN MSN20020919123514109/19/02 12:35:31  5-MIN KMSN 191835Z 22011G19KT 3SM RA SCT019 BKN039 OVC075 22/19 A2961 1150 81 2300 220/11G19 RMK AO2 TWR VIS 4 RAB23 P0008
14837KMSN MSN20020919124014609/19/02 12:40:31  5-MIN KMSN 191840Z 19009G16KT 3SM RA BR BKN017 BKN030 OVC075 22/19 A2961 1150 87 2200 190/09G16 RMK AO2 TWR VIS 4 RAB23 P0013 $
14837KMSN MSN20020919124514409/19/02 12:45:31  5-MIN KMSN 191845Z 19010KT 2 1/2SM RA BR BKN017 BKN030 OVC050 21/19 A2960 1160 87 2200 190/10 RMK AO2 TWR VIS 4 RAB23 P0016 $
14837KMSN MSN20020919125014809/19/02 12:50:31  5-MIN KMSN 191850Z 19009KT 6SM -RA BR BKN015 BKN038 BKN050 21/19 A2959 1170 87 2200 180/09 RMK AO2 RAB23 SLP016 P0019 T02110189 $
14837KMSN MSN20020919125512209/19/02 12:55:31  5-MIN KMSN 191855Z 20005KT 8SM -RA BKN015 BKN038 21/19 A2959 1180 90 2200 200/05 RMK AO2 PRESFR P0000 $
14837KMSN MSN20020919130010809/19/02 13:00:31  5-MIN KMSN 191900Z 21005KT 8SM -RA BKN015 22/20 A2958 1180 90 2300 210/05 RMK AO2 P0000 $
14837KMSN MSN20020919130511109/19/02 13:05:31  5-MIN KMSN 191905Z 21005KT 10SM BKN015 22/20 A2958 1180 90 2300 210/05 RMK AO2 RAE01 P0000 $
14837KMSN MSN20020919131011109/19/02 13:10:31  5-MIN KMSN 191910Z VRB04KT 10SM BKN015 22/20 A2958 1180 87 2300 VRB/04 RMK AO2 RAE01 P0000 $
14837KMSN MSN20020919131511109/19/02 13:15:31  5-MIN KMSN 191915Z 19004KT 10SM SCT013 22/20 A2958 1180 87 2300 190/04 RMK AO2 RAE01 P0000 $
14837KMSN MSN20020919132011109/19/02 13:20:31  5-MIN KMSN 191920Z VRB04KT 10SM FEW013 23/21 A2958 1180 87 2400 VRB/04 RMK AO2 RAE01 P0000 $
14837KMSN MSN20020919132511109/19/02 13:25:31  5-MIN KMSN 191925Z VRB04KT 10SM FEW013 22/20 A2957 1190 87 2300 VRB/04 RMK AO2 RAE01 P0000 $
14837KMSN MSN20020919133010809/19/02 13:30:31  5-MIN KMSN 191930Z 20004KT 10SM CLR 23/20 A2958 1180 84 2400 200/04 RMK AO2 RAE01 P0000 $
14837KMSN MSN20020919133510809/19/02 13:35:31  5-MIN KMSN 191935Z 20005KT 10SM CLR 23/21 A2958 1180 87 2400 200/05 RMK AO2 RAE01 P0000 $
14837KMSN MSN20020919134010809/19/02 13:40:31  5-MIN KMSN 191940Z 20005KT 10SM CLR 23/20 A2958 1180 84 2400 200/05 RMK AO2 RAE01 P0000 $
14837KMSN MSN20020919134510809/19/02 13:45:31  5-MIN KMSN 191945Z 20004KT 10SM CLR 23/21 A2958 1180 87 2400 200/04 RMK AO2 RAE01 P0000 $
14837KMSN MSN20020919135012809/19/02 13:50:31  5-MIN KMSN 191950Z 20006KT 10SM FEW030 23/21 A2958 1180 87 2400 200/06 RMK AO2 RAE01 SLP012 P0000 T02280206 $
14837KMSN MSN20020919135510609/19/02 13:55:31  5-MIN KMSN 191955Z 20005KT 10SM SCT030 BKN110 23/20 A2958 1180 84 2400 200/05 RMK AO2 $
14837KMSN MSN20020919140010609/19/02 14:00:31  5-MIN KMSN 192000Z 21006KT 10SM SCT030 BKN110 23/20 A2958 1180 81 2500 210/06 RMK AO2 $
14837KMSN MSN20020919140510609/19/02 14:05:31  5-MIN KMSN 192005Z 21006KT 10SM BKN043 BKN110 23/20 A2959 1170 81 2400 210/06 RMK AO2 $
14837KMSN MSN20020919141009909/19/02 14:10:31  5-MIN KMSN 192010Z 20005KT 10SM BKN041 23/20 A2958 1180 81 2400 200/05 RMK AO2 $
14837KMSN MSN20020919141509909/19/02 14:15:31  5-MIN KMSN 192015Z 20005KT 10SM BKN041 24/21 A2958 1180 81 2500 200/05 RMK AO2 $
14837KMSN MSN20020919142009909/19/02 14:20:31  5-MIN KMSN 192020Z 19007KT 10SM BKN041 24/21 A2958 1180 81 2500 190/07 RMK AO2 $
14837KMSN MSN20020919142509909/19/02 14:25:31  5-MIN KMSN 192025Z 20008KT 10SM BKN041 24/19 A2958 1190 76 2500 200/08 RMK AO2 $
14837KMSN MSN20020919143009909/19/02 14:30:31  5-MIN KMSN 192030Z 22006KT 10SM BKN041 24/20 A2958 1190 78 2500 220/06 RMK AO2 $
14837KMSN MSN20020919143509909/19/02 14:35:31  5-MIN KMSN 192035Z 20004KT 10SM BKN036 24/20 A2957 1190 78 2500 200/04 RMK AO2 $
14837KMSN MSN20020919144009909/19/02 14:40:31  5-MIN KMSN 192040Z 21007KT 10SM SCT030 24/20 A2957 1190 78 2500 210/07 RMK AO2 $
14837KMSN MSN20020919144509909/19/02 14:45:31  5-MIN KMSN 192045Z VRB05KT 10SM BKN030 24/21 A2957 1190 78 2600 VRB/05 RMK AO2 $
14837KMSN MSN20020919145012809/19/02 14:50:31  5-MIN KMSN 192050Z 20006KT 10SM SCT030 25/20 A2957 1190 73 2700 200/06 RMK AO2 SLP008 60019 T02500200 56012 $
14837KMSN MSN20020919145509909/19/02 14:55:31  5-MIN KMSN 192055Z 20008KT 10SM SCT030 24/20 A2957 1190 76 2600 200/08 RMK AO2 $
14837KMSN MSN20020919150009909/19/02 15:00:31  5-MIN KMSN 192100Z 19007KT 10SM SCT030 24/20 A2957 1190 76 2600 190/07 RMK AO2 $
14837KMSN MSN20020919150509909/19/02 15:05:31  5-MIN KMSN 192105Z 20008KT 10SM SCT030 24/19 A2957 1190 73 2600 200/08 RMK AO2 $
14837KMSN MSN20020919151009909/19/02 15:10:31  5-MIN KMSN 192110Z 20008KT 10SM FEW030 24/20 A2957 1190 76 2600 200/08 RMK AO2 $
14837KMSN MSN20020919151509909/19/02 15:15:31  5-MIN KMSN 192115Z 20010KT 10SM FEW032 24/20 A2956 1200 76 2600 190/10 RMK AO2 $
14837KMSN MSN20020919152009909/19/02 15:20:31  5-MIN KMSN 192120Z 21008KT 10SM FEW032 24/20 A2956 1200 76 2600 210/08 RMK AO2 $
14837KMSN MSN20020919152509909/19/02 15:25:31  5-MIN KMSN 192125Z 19007KT 10SM FEW032 25/20 A2956 1200 73 2700 190/07 RMK AO2 $
14837KMSN MSN20020919153010509/19/02 15:30:31  5-MIN KMSN 192130Z 20010G14KT 10SM FEW032 25/20 A2956 1200 73 2700 200/10G14 RMK AO2 $
14837KMSN MSN20020919153511809/19/02 15:35:31  5-MIN KMSN 192135Z 21009G14KT 160V230 10SM CLR 25/19 A2956 1200 71 2700 210/09G14 160V230 RMK AO2 $
14837KMSN MSN20020919154009909/19/02 15:40:31  5-MIN KMSN 192140Z 19007KT 10SM FEW032 25/19 A2955 1210 71 2700 190/07 RMK AO2 $
14837KMSN MSN20020919154509909/19/02 15:45:31  5-MIN KMSN 192145Z 21008KT 10SM FEW032 25/19 A2955 1210 71 2700 210/08 RMK AO2 $
14837KMSN MSN20020919155013209/19/02 15:50:31  5-MIN KMSN 192150Z 21008KT 170V240 10SM FEW032 25/19 A2955 1210 71 2700 210/08 170V240 RMK AO2 SLP001 T02500194 $
14837KMSN MSN20020919155509609/19/02 15:55:31  5-MIN KMSN 192155Z 22008KT 10SM CLR 24/19 A2956 1200 73 2600 220/08 RMK AO2 $
14837KMSN MSN20020919160009909/19/02 16:00:31  5-MIN KMSN 192200Z 22010KT 10SM FEW033 24/19 A2956 1200 73 2600 210/10 RMK AO2 $
14837KMSN MSN20020919160509909/19/02 16:05:31  5-MIN KMSN 192205Z 22008KT 10SM SCT036 24/19 A2956 1200 73 2600 220/08 RMK AO2 $
14837KMSN MSN20020919161010609/19/02 16:10:31  5-MIN KMSN 192210Z 22008KT 10SM SCT033 SCT040 24/19 A2957 1190 73 2600 220/08 RMK AO2 $
14837KMSN MSN20020919161510609/19/02 16:15:31  5-MIN KMSN 192215Z 21007KT 10SM SCT033 BKN040 24/19 A2957 1190 73 2600 210/07 RMK AO2 $
14837KMSN MSN20020919162011509/19/02 16:20:31  5-MIN KMSN 192220Z 21007KT 170V230 10SM SCT036 24/19 A2957 1190 71 2600 210/07 170V230 RMK AO2 $
14837KMSN MSN20020919162511309/19/02 16:25:31  5-MIN KMSN 192225Z 22009KT 10SM FEW033 SCT042 BKN060 24/19 A2957 1190 71 2600 210/09 RMK AO2 $
14837KMSN MSN20020919163011309/19/02 16:30:31  5-MIN KMSN 192230Z 21008KT 10SM FEW033 SCT042 BKN060 24/19 A2957 1190 71 2600 210/08 RMK AO2 $
14837KMSN MSN20020919163510609/19/02 16:35:31  5-MIN KMSN 192235Z 21009KT 10SM FEW033 SCT060 24/19 A2957 1190 71 2600 210/09 RMK AO2 $
14837KMSN MSN20020919164009909/19/02 16:40:31  5-MIN KMSN 192240Z 21007KT 10SM FEW040 24/19 A2957 1190 71 2600 210/07 RMK AO2 $
14837KMSN MSN20020919164510509/19/02 16:45:31  5-MIN KMSN 192245Z 21012G15KT 10SM FEW060 24/19 A2957 1190 71 2600 210/12G15 RMK AO2 $
14837KMSN MSN20020919165012909/19/02 16:50:31  5-MIN KMSN 192250Z 21009G15KT 10SM FEW032 SCT060 24/19 A2958 1180 71 2600 210/09G15 RMK AO2 SLP011 T02440189 $
14837KMSN MSN20020919165510209/19/02 16:55:31  5-MIN KMSN 192255Z 21008G15KT 10SM CLR 24/19 A2958 1180 71 2600 210/08G15 RMK AO2 $
14837KMSN MSN20020919170009909/19/02 17:00:31  5-MIN KMSN 192300Z 22008KT 10SM FEW032 24/19 A2958 1180 71 2600 220/08 RMK AO2 $
14837KMSN MSN20020919170509909/19/02 17:05:31  5-MIN KMSN 192305Z 22007KT 10SM FEW032 24/19 A2958 1180 73 2500 220/07 RMK AO2 $
14837KMSN MSN20020919171009909/19/02 17:10:31  5-MIN KMSN 192310Z 23006KT 10SM FEW032 24/19 A2958 1180 73 2500 230/06 RMK AO2 $
14837KMSN MSN20020919171510609/19/02 17:15:31  5-MIN KMSN 192315Z 22006KT 10SM FEW032 SCT075 24/19 A2958 1180 73 2500 220/06 RMK AO2 $
14837KMSN MSN20020919172010609/19/02 17:20:31  5-MIN KMSN 192320Z 22007KT 10SM FEW032 SCT075 24/19 A2958 1180 73 2500 220/07 RMK AO2 $
14837KMSN MSN20020919172510609/19/02 17:25:31  5-MIN KMSN 192325Z 22007KT 10SM FEW032 BKN070 24/19 A2958 1180 73 2500 220/07 RMK AO2 $
14837KMSN MSN20020919173010609/19/02 17:30:31  5-MIN KMSN 192330Z 23006KT 10SM FEW032 BKN070 24/19 A2959 1170 73 2500 230/06 RMK AO2 $
14837KMSN MSN20020919173511309/19/02 17:35:31  5-MIN KMSN 192335Z 23004KT 10SM FEW032 SCT047 BKN070 24/19 A2959 1170 73 2500 230/04 RMK AO2 $
14837KMSN MSN20020919174011309/19/02 17:40:31  5-MIN KMSN 192340Z 23005KT 10SM FEW032 SCT047 BKN070 24/19 A2959 1170 73 2500 220/05 RMK AO2 $
14837KMSN MSN20020919174511309/19/02 17:45:31  5-MIN KMSN 192345Z VRB05KT 10SM FEW032 SCT047 BKN070 24/18 A2959 1170 71 2500 VRB/05 RMK AO2 $
14837KMSN MSN20020919175015409/19/02 17:50:31  5-MIN KMSN 192350Z 23007KT 10SM FEW032 BKN047 BKN070 23/18 A2960 1170 73 2400 230/07 RMK AO2 SLP017 60019 T02330183 10261 20211 58007 $
14837KMSN MSN20020919175510609/19/02 17:55:31  5-MIN KMSN 192355Z 23007KT 10SM BKN045 OVC055 23/18 A2960 1160 73 2400 230/07 RMK AO2 $
14837KMSN MSN20020919180009909/19/02 18:00:31  5-MIN KMSN 200000Z 22008KT 10SM OVC045 23/18 A2960 1160 73 2400 220/08 RMK AO2 $
14837KMSN MSN20020919180509909/19/02 18:05:31  5-MIN KMSN 200005Z 21007KT 10SM OVC045 23/18 A2960 1160 76 2400 210/07 RMK AO2 $
14837KMSN MSN20020919181009909/19/02 18:10:31  5-MIN KMSN 200010Z 21007KT 10SM OVC045 23/18 A2960 1160 76 2400 210/07 RMK AO2 $
14837KMSN MSN20020919181509909/19/02 18:15:31  5-MIN KMSN 200015Z 23007KT 10SM OVC045 23/18 A2961 1160 76 2400 230/07 RMK AO2 $
14837KMSN MSN20020919182010609/19/02 18:20:31  5-MIN KMSN 200020Z 22008KT 10SM BKN045 OVC075 23/18 A2961 1160 76 2400 220/08 RMK AO2 $
14837KMSN MSN20020919182510609/19/02 18:25:31  5-MIN KMSN 200025Z 22006KT 10SM SCT047 OVC075 23/18 A2961 1150 76 2400 220/06 RMK AO2 $
14837KMSN MSN20020919183011309/19/02 18:30:31  5-MIN KMSN 200030Z 22005KT 10SM FEW033 SCT047 OVC075 23/18 A2961 1150 76 2400 220/05 RMK AO2 $
14837KMSN MSN20020919183511309/19/02 18:35:31  5-MIN KMSN 200035Z 21005KT 10SM FEW033 BKN047 OVC075 23/19 A2962 1150 78 2400 210/05 RMK AO2 $
14837KMSN MSN20020919184011309/19/02 18:40:31  5-MIN KMSN 200040Z 22007KT 10SM FEW031 BKN047 OVC075 23/19 A2962 1150 78 2300 220/07 RMK AO2 $
14837KMSN MSN20020919184511309/19/02 18:45:31  5-MIN KMSN 200045Z 22006KT 10SM FEW031 BKN043 OVC075 23/19 A2962 1150 78 2400 220/06 RMK AO2 $
14837KMSN MSN20020919185013009/19/02 18:50:31  5-MIN KMSN 200050Z 22005KT 10SM FEW031 BKN043 OVC075 22/19 A2962 1150 81 2300 220/05 RMK AO2 SLP025 T02220189 $
14837KMSN MSN20020919185511309/19/02 18:55:31  5-MIN KMSN 200055Z 22007KT 10SM FEW031 BKN047 OVC070 22/19 A2962 1140 81 2300 220/07 RMK AO2 $
14837KMSN MSN20020919190011309/19/02 19:00:31  5-MIN KMSN 200100Z 22005KT 10SM FEW031 SCT047 OVC070 22/19 A2962 1140 81 2300 220/05 RMK AO2 $
14837KMSN MSN20020919190511309/19/02 19:05:31  5-MIN KMSN 200105Z 22006KT 10SM FEW039 BKN048 OVC070 22/19 A2963 1140 81 2300 220/06 RMK AO2 $
14837KMSN MSN20020919191011309/19/02 19:10:31  5-MIN KMSN 200110Z 22006KT 10SM SCT037 BKN048 OVC070 22/19 A2963 1130 81 2300 220/06 RMK AO2 $
14837KMSN MSN20020919191511309/19/02 19:15:31  5-MIN KMSN 200115Z 22005KT 10SM SCT037 BKN048 OVC065 22/19 A2963 1130 81 2300 220/05 RMK AO2 $
14837KMSN MSN20020919192011309/19/02 19:20:31  5-MIN KMSN 200120Z VRB05KT 10SM SCT037 BKN044 OVC065 22/19 A2963 1140 81 2300 VRB/05 RMK AO2 $
14837KMSN MSN20020919192511309/19/02 19:25:31  5-MIN KMSN 200125Z 22006KT 10SM SCT037 BKN047 OVC060 22/19 A2963 1140 81 2300 220/06 RMK AO2 $
14837KMSN MSN20020919193010609/19/02 19:30:31  5-MIN KMSN 200130Z 22005KT 10SM BKN039 OVC050 22/19 A2963 1130 81 2300 220/05 RMK AO2 $
14837KMSN MSN20020919193510609/19/02 19:35:31  5-MIN KMSN 200135Z 21005KT 10SM BKN039 OVC050 22/19 A2963 1140 81 2300 210/05 RMK AO2 $
14837KMSN MSN20020919194011309/19/02 19:40:31  5-MIN KMSN 200140Z VRB05KT 10SM FEW036 BKN047 OVC060 22/19 A2963 1130 81 2300 VRB/05 RMK AO2 $
14837KMSN MSN20020919194511309/19/02 19:45:31  5-MIN KMSN 200145Z VRB04KT 10SM FEW043 BKN050 BKN060 22/19 A2963 1130 81 2300 VRB/04 RMK AO2 $
14837KMSN MSN20020919195013009/19/02 19:50:31  5-MIN KMSN 200150Z 23003KT 10SM FEW043 BKN055 OVC065 22/19 A2963 1130 81 2300 230/03 RMK AO2 SLP029 T02220189 $
14837KMSN MSN20020919195511309/19/02 19:55:31  5-MIN KMSN 200155Z 23005KT 10SM FEW047 BKN055 OVC065 22/19 A2963 1130 81 2300 230/05 RMK AO2 $
14837KMSN MSN20020919200010609/19/02 20:00:31  5-MIN KMSN 200200Z VRB05KT 10SM BKN055 OVC065 22/19 A2963 1130 81 2300 VRB/05 RMK AO2 $
14837KMSN MSN20020919200510609/19/02 20:05:31  5-MIN KMSN 200205Z VRB04KT 10SM BKN050 OVC060 22/19 A2963 1130 81 2300 VRB/04 RMK AO2 $
14837KMSN MSN20020919201010609/19/02 20:10:31  5-MIN KMSN 200210Z VRB04KT 10SM FEW042 OVC050 22/19 A2964 1130 81 2300 VRB/04 RMK AO2 $
14837KMSN MSN20020919201510609/19/02 20:15:31  5-MIN KMSN 200215Z 23005KT 10SM FEW042 OVC050 22/19 A2963 1140 81 2300 230/05 RMK AO2 $
14837KMSN MSN20020919202010609/19/02 20:20:31  5-MIN KMSN 200220Z VRB04KT 10SM FEW042 OVC050 22/19 A2963 1130 84 2200 VRB/04 RMK AO2 $
14837KMSN MSN20020919202509909/19/02 20:25:31  5-MIN KMSN 200225Z VRB03KT 10SM OVC048 22/19 A2964 1130 84 2200 VRB/03 RMK AO2 $
14837KMSN MSN20020919203010609/19/02 20:30:31  5-MIN KMSN 200230Z VRB03KT 10SM SCT043 OVC050 22/19 A2964 1130 84 2200 VRB/03 RMK AO2 $
14837KMSN MSN20020919203509909/19/02 20:35:31  5-MIN KMSN 200235Z 27005KT 10SM OVC047 22/19 A2963 1130 84 2200 270/05 RMK AO2 $
14837KMSN MSN20020919204009909/19/02 20:40:31  5-MIN KMSN 200240Z VRB03KT 10SM OVC047 22/19 A2963 1130 84 2200 VRB/03 RMK AO2 $
14837KMSN MSN20020919204509909/19/02 20:45:31  5-MIN KMSN 200245Z VRB03KT 10SM OVC047 22/19 A2963 1130 84 2200 VRB/03 RMK AO2 $
14837KMSN MSN20020919205012909/19/02 20:50:31  5-MIN KMSN 200250Z VRB03KT 10SM BKN047 OVC060 21/19 A2963 1140 87 2200 VRB/03 RMK AO2 SLP027 T02110189 53009 $
14837KMSN MSN20020919205510609/19/02 20:55:31  5-MIN KMSN 200255Z 24003KT 10SM BKN047 OVC060 21/19 A2963 1140 87 2100 240/03 RMK AO2 $
14837KMSN MSN20020919210010609/19/02 21:00:31  5-MIN KMSN 200300Z VRB03KT 10SM SCT047 OVC060 21/19 A2963 1130 87 2100 VRB/03 RMK AO2 $
14837KMSN MSN20020919210510609/19/02 21:05:31  5-MIN KMSN 200305Z 23003KT 10SM SCT047 OVC060 21/19 A2963 1130 87 2100 230/03 RMK AO2 $
14837KMSN MSN20020919211010609/19/02 21:10:31  5-MIN KMSN 200310Z 00000KT 10SM BKN046 OVC060 21/19 A2964 1130 87 2100 000/00 RMK AO2 $
14837KMSN MSN20020919211510609/19/02 21:15:31  5-MIN KMSN 200315Z 23003KT 10SM BKN044 OVC060 21/19 A2964 1120 87 2100 220/03 RMK AO2 $
14837KMSN MSN20020919212011309/19/02 21:20:31  5-MIN KMSN 200320Z 23003KT 10SM BKN042 BKN050 OVC060 21/19 A2964 1120 90 2100 230/03 RMK AO2 $
14837KMSN MSN20020919212510609/19/02 21:25:31  5-MIN KMSN 200325Z 22003KT 10SM BKN042 OVC050 21/19 A2964 1120 90 2100 220/03 RMK AO2 $
14837KMSN MSN20020919213010609/19/02 21:30:31  5-MIN KMSN 200330Z 23005KT 10SM BKN042 OVC050 21/19 A2964 1120 90 2100 230/05 RMK AO2 $
14837KMSN MSN20020919213510609/19/02 21:35:31  5-MIN KMSN 200335Z 23004KT 10SM BKN044 OVC055 21/19 A2963 1130 87 2100 230/04 RMK AO2 $
14837KMSN MSN20020919214010609/19/02 21:40:31  5-MIN KMSN 200340Z 00000KT 10SM BKN042 OVC049 21/19 A2963 1130 87 2100 000/00 RMK AO2 $
14837KMSN MSN20020919214510609/19/02 21:45:31  5-MIN KMSN 200345Z 00000KT 10SM BKN042 OVC049 21/19 A2964 1130 87 2100 000/00 RMK AO2 $
14837KMSN MSN20020919215012309/19/02 21:50:31  5-MIN KMSN 200350Z 22003KT 10SM BKN042 OVC049 21/19 A2963 1130 87 2100 220/03 RMK AO2 SLP029 T02110189 $
14837KMSN MSN20020919215510609/19/02 21:55:31  5-MIN KMSN 200355Z 00000KT 10SM BKN039 OVC050 21/19 A2964 1130 87 2100 000/00 RMK AO2 $
14837KMSN MSN20020919220010609/19/02 22:00:31  5-MIN KMSN 200400Z 22003KT 10SM BKN039 OVC050 21/19 A2964 1130 87 2100 220/03 RMK AO2 $
14837KMSN MSN20020919220509909/19/02 22:05:31  5-MIN KMSN 200405Z 22003KT 10SM OVC039 21/19 A2963 1130 87 2100 220/03 RMK AO2 $
14837KMSN MSN20020919221009909/19/02 22:10:31  5-MIN KMSN 200410Z 21003KT 10SM OVC037 21/19 A2963 1130 87 2100 210/03 RMK AO2 $
14837KMSN MSN20020919221509909/19/02 22:15:31  5-MIN KMSN 200415Z 22003KT 10SM OVC037 21/19 A2964 1130 87 2100 220/03 RMK AO2 $
14837KMSN MSN20020919222009909/19/02 22:20:31  5-MIN KMSN 200420Z 00000KT 10SM OVC035 21/19 A2964 1130 87 2100 000/00 RMK AO2 $
14837KMSN MSN20020919222509909/19/02 22:25:31  5-MIN KMSN 200425Z 00000KT 10SM OVC035 22/19 A2964 1130 84 2200 000/00 RMK AO2 $
14837KMSN MSN20020919223010609/19/02 22:30:31  5-MIN KMSN 200430Z 00000KT 10SM BKN035 OVC048 22/19 A2964 1130 84 2200 000/00 RMK AO2 $
14837KMSN MSN20020919223510609/19/02 22:35:31  5-MIN KMSN 200435Z 00000KT 10SM BKN035 OVC048 21/19 A2964 1120 87 2100 000/00 RMK AO2 $
14837KMSN MSN20020919224009909/19/02 22:40:31  5-MIN KMSN 200440Z 16004KT 10SM OVC035 21/19 A2964 1130 87 2100 160/04 RMK AO2 $
14837KMSN MSN20020919224509909/19/02 22:45:31  5-MIN KMSN 200445Z 15004KT 10SM OVC035 21/19 A2964 1130 87 2100 150/04 RMK AO2 $
14837KMSN MSN20020919225011609/19/02 22:50:31  5-MIN KMSN 200450Z 16003KT 10SM OVC033 21/19 A2964 1130 87 2100 160/03 RMK AO2 SLP030 T02110189 $
14837KMSN MSN20020919225509909/19/02 22:55:31  5-MIN KMSN 200455Z 18003KT 10SM OVC033 21/19 A2964 1120 87 2100 180/03 RMK AO2 $
14837KMSN MSN20020919230009909/19/02 23:00:31  5-MIN KMSN 200500Z 18004KT 10SM OVC033 21/19 A2964 1120 87 2100 180/04 RMK AO2 $
14837KMSN MSN20020919230509909/19/02 23:05:31  5-MIN KMSN 200505Z 17004KT 10SM OVC033 21/19 A2964 1130 90 2100 170/04 RMK AO2 $
14837KMSN MSN20020919231009909/19/02 23:10:31  5-MIN KMSN 200510Z 17004KT 10SM OVC033 21/19 A2963 1130 90 2100 170/04 RMK AO2 $
14837KMSN MSN20020919231509909/19/02 23:15:31  5-MIN KMSN 200515Z 16004KT 10SM OVC033 21/19 A2963 1140 87 2100 150/04 RMK AO2 $
14837KMSN MSN20020919232009909/19/02 23:20:31  5-MIN KMSN 200520Z 16004KT 10SM OVC033 21/19 A2963 1130 87 2100 160/04 RMK AO2 $
14837KMSN MSN20020919232509909/19/02 23:25:31  5-MIN KMSN 200525Z 18005KT 10SM OVC031 21/19 A2963 1130 87 2100 180/05 RMK AO2 $
14837KMSN MSN20020919233009909/19/02 23:30:31  5-MIN KMSN 200530Z 18005KT 10SM OVC031 21/19 A2964 1130 87 2100 180/05 RMK AO2 $
14837KMSN MSN20020919233509909/19/02 23:35:31  5-MIN KMSN 200535Z 19005KT 10SM OVC031 21/19 A2964 1130 87 2100 180/05 RMK AO2 $
14837KMSN MSN20020919234009909/19/02 23:40:31  5-MIN KMSN 200540Z 18003KT 10SM OVC031 21/19 A2964 1130 87 2100 180/03 RMK AO2 $
14837KMSN MSN20020919234509909/19/02 23:45:31  5-MIN KMSN 200545Z 17005KT 10SM OVC031 21/19 A2963 1130 87 2100 160/05 RMK AO2 $
14837KMSN MSN20020919235014409/19/02 23:50:31  5-MIN KMSN 200550Z 17005KT 10SM OVC031 21/19 A2963 1130 87 2100 170/05 RMK AO2 SLP029 T02110189 10233 20211 402670200 50009 $
14837KMSN MSN20020919235509909/19/02 23:55:31  5-MIN KMSN 200555Z 17004KT 10SM OVC031 21/19 A2963 1130 87 2100 170/04 RMK AO2 $
14837KMSN MSN20020920000009909/20/02 00:00:31  5-MIN KMSN 200600Z 17004KT 10SM OVC031 21/19 A2963 1140 87 2100 170/04 RMK AO2 $
14837KMSN MSN20020920000509909/20/02 00:05:31  5-MIN KMSN 200605Z 15004KT 10SM OVC029 21/19 A2962 1140 90 2100 150/04 RMK AO2 $
14837KMSN MSN20020920001009909/20/02 00:10:31  5-MIN KMSN 200610Z 16005KT 10SM OVC029 21/19 A2963 1140 90 2100 160/05 RMK AO2 $
14837KMSN MSN20020920001509909/20/02 00:15:31  5-MIN KMSN 200615Z 17004KT 10SM OVC029 21/19 A2963 1140 90 2100 170/04 RMK AO2 $
14837KMSN MSN20020920002009909/20/02 00:20:31  5-MIN KMSN 200620Z 14006KT 10SM OVC029 21/19 A2962 1140 87 2200 140/06 RMK AO2 $
14837KMSN MSN20020920002509909/20/02 00:25:31  5-MIN KMSN 200625Z 15007KT 10SM OVC029 21/19 A2962 1140 90 2100 150/07 RMK AO2 $
14837KMSN MSN20020920003009909/20/02 00:30:31  5-MIN KMSN 200630Z 16006KT 10SM OVC027 21/19 A2962 1140 90 2100 160/06 RMK AO2 $
14837KMSN MSN20020920003509909/20/02 00:35:31  5-MIN KMSN 200635Z 17006KT 10SM OVC027 21/19 A2962 1140 90 2100 170/06 RMK AO2 $
14837KMSN MSN20020920004009909/20/02 00:40:31  5-MIN KMSN 200640Z 16005KT 10SM OVC027 21/19 A2962 1140 90 2100 160/05 RMK AO2 $
14837KMSN MSN20020920004510609/20/02 00:45:31  5-MIN KMSN 200645Z 17004KT 10SM BKN027 OVC035 21/19 A2962 1140 90 2100 170/04 RMK AO2 $
14837KMSN MSN20020920005012309/20/02 00:50:31  5-MIN KMSN 200650Z 16006KT 10SM BKN027 OVC033 21/19 A2962 1140 90 2100 160/06 RMK AO2 SLP026 T02060189 $
14837KMSN MSN20020920005510609/20/02 00:55:31  5-MIN KMSN 200655Z 15006KT 10SM BKN029 OVC033 21/19 A2961 1150 90 2100 140/06 RMK AO2 $
14837KMSN MSN20020920010011309/20/02 01:00:31  5-MIN KMSN 200700Z 14005KT 10SM BKN029 BKN033 OVC120 21/19 A2961 1150 90 2100 140/05 RMK AO2 $
14837KMSN MSN20020920010511309/20/02 01:05:31  5-MIN KMSN 200705Z 16006KT 10SM BKN029 BKN033 OVC120 21/19 A2962 1140 90 2100 160/06 RMK AO2 $
14837KMSN MSN20020920011011309/20/02 01:10:31  5-MIN KMSN 200710Z 18006KT 10SM BKN029 BKN033 OVC120 21/19 A2963 1130 90 2100 180/06 RMK AO2 $
14837KMSN MSN20020920011510609/20/02 01:15:31  5-MIN KMSN 200715Z 17006KT 10SM BKN027 OVC032 21/19 A2962 1140 90 2100 170/06 RMK AO2 $
14837KMSN MSN20020920012010609/20/02 01:20:31  5-MIN KMSN 200720Z 15006KT 10SM BKN027 OVC120 21/19 A2962 1150 90 2100 150/06 RMK AO2 $
14837KMSN MSN20020920012510609/20/02 01:25:31  5-MIN KMSN 200725Z 14006KT 10SM BKN027 OVC032 21/19 A2961 1150 90 2100 140/06 RMK AO2 $
14837KMSN MSN20020920013010609/20/02 01:30:31  5-MIN KMSN 200730Z 14005KT 10SM BKN027 BKN120 21/19 A2961 1150 90 2100 140/05 RMK AO2 $
14837KMSN MSN20020920013509909/20/02 01:35:31  5-MIN KMSN 200735Z 16005KT 10SM BKN027 21/18 A2961 1160 87 2100 150/05 RMK AO2 $
14837KMSN MSN20020920014010609/20/02 01:40:31  5-MIN KMSN 200740Z 14006KT 10SM SCT027 BKN050 21/18 A2960 1160 87 2100 140/06 RMK AO2 $
14837KMSN MSN20020920014511309/20/02 01:45:31  5-MIN KMSN 200745Z 16004KT 10SM FEW027 SCT032 BKN050 21/18 A2961 1150 87 2100 150/04 RMK AO2 $
14837KMSN MSN20020920015013009/20/02 01:50:31  5-MIN KMSN 200750Z 17005KT 10SM SCT030 BKN050 BKN100 21/19 A2961 1150 90 2100 170/05 RMK AO2 SLP022 T02060189 $
14837KMSN MSN20020920015511309/20/02 01:55:31  5-MIN KMSN 200755Z 16004KT 10SM BKN030 BKN050 BKN100 21/19 A2961 1150 90 2100 160/04 RMK AO2 $
14837KMSN MSN20020920020011309/20/02 02:00:31  5-MIN KMSN 200800Z 17005KT 10SM SCT030 SCT050 BKN100 21/19 A2961 1160 90 2100 170/05 RMK AO2 $
14837KMSN MSN20020920020511309/20/02 02:05:31  5-MIN KMSN 200805Z 16005KT 10SM SCT030 SCT050 BKN100 21/19 A2960 1160 90 2100 160/05 RMK AO2 $
14837KMSN MSN20020920031512509/20/02 03:15:31  5-MIN KMSN 200915Z 15006KT 10SM SCT011 BKN034 OVC060 20/19 A2959 1170 93 2100 150/06 RMK AO2 RAE09 P0001 $
14837KMSN MSN20020920032012409/20/02 03:20:31  5-MIN KMSN 200920Z 15007KT 9SM BKN009 BKN022 OVC049 20/19 A2959 1170 93 2100 150/07 RMK AO2 RAE09 P0001 $
14837KMSN MSN20020920032512509/20/02 03:25:31  5-MIN KMSN 200925Z 13006KT 6SM -RA BR BKN009 BKN034 OVC060 20/19 A2958 1180 93 2100 130/06 RMK AO2 P0002 $
14837KMSN MSN20020920033012509/20/02 03:30:31  5-MIN KMSN 200930Z 15007KT 6SM -RA BR BKN009 BKN034 OVC045 20/19 A2958 1180 93 2100 150/07 RMK AO2 P0002 $
14837KMSN MSN20020920033511709/20/02 03:35:31  5-MIN KMSN 200935Z 15007KT 9SM BKN009 OVC034 21/19 A2958 1180 93 2100 150/07 RMK AO2 RAE34 P0002 $
14837KMSN MSN20020920034011009/20/02 03:40:31  5-MIN KMSN 200940Z 16007KT 8SM OVC009 21/19 A2959 1180 93 2100 160/07 RMK AO2 RAE34 P0002 $
14837KMSN MSN20020920034511009/20/02 03:45:31  5-MIN KMSN 200945Z 15008KT 8SM OVC009 21/19 A2958 1180 93 2100 150/08 RMK AO2 RAE34 P0002 $
14837KMSN MSN20020920035012709/20/02 03:50:31  5-MIN KMSN 200950Z 14007KT 7SM OVC009 21/19 A2958 1180 93 2100 140/07 RMK AO2 RAE34 SLP010 P0002 T02060194 $
14837KMSN MSN20020920035511109/20/02 03:55:31  5-MIN KMSN 200955Z 15007KT 6SM -RA BR OVC009 21/19 A2958 1180 93 2100 150/07 RMK AO2 P0000 $
14837KMSN MSN20020920040011109/20/02 04:00:31  5-MIN KMSN 201000Z 15006KT 4SM -RA BR OVC009 21/19 A2957 1190 93 2100 150/06 RMK AO2 P0000 $
14837KMSN MSN20020920040512309/20/02 04:05:31  5-MIN KMSN 201005Z 15007KT 4SM -RA BR OVC007 21/19 A2957 1190 93 2100 150/07 RMK AO2 CIG 005V010 P0001 $
14837KMSN MSN20020920041013009/20/02 04:10:31  5-MIN KMSN 201010Z 15007KT 4SM -RA BR BKN007 OVC013 21/19 A2957 1190 93 2100 150/07 RMK AO2 CIG 005V011 P0001 $
14837KMSN MSN20020920041513009/20/02 04:15:31  5-MIN KMSN 201015Z 14008KT 5SM -RA BR BKN007 OVC013 21/19 A2957 1190 93 2200 140/08 RMK AO2 CIG 005V011 P0001 $
14837KMSN MSN20020920042013209/20/02 04:20:31  5-MIN KMSN 201020Z 15007KT 6SM BR BKN007 OVC013 21/19 A2957 1190 93 2100 150/07 RMK AO2 RAE18 CIG 005V009 P0001 $
14837KMSN MSN20020920042512509/20/02 04:25:31  5-MIN KMSN 201025Z 15007KT 4SM BR OVC007 21/19 A2957 1190 93 2200 150/07 RMK AO2 RAE18 CIG 005V012 P0001 $
14837KMSN MSN20020920043012309/20/02 04:30:31  5-MIN KMSN 201030Z 15008KT 5SM -RA BR OVC009 21/19 A2957 1190 93 2200 150/08 RMK AO2 CIG 005V012 P0001 $
14837KMSN MSN20020920043512309/20/02 04:35:31  5-MIN KMSN 201035Z 15007KT 5SM -RA BR OVC009 21/19 A2957 1190 93 2200 150/07 RMK AO2 CIG 005V012 P0001 $
14837KMSN MSN20020920044013009/20/02 04:40:31  5-MIN KMSN 201040Z 15007KT 6SM -RA BR BKN009 OVC017 21/19 A2957 1190 93 2200 150/07 RMK AO2 CIG 005V013 P0001 $
14837KMSN MSN20020920044513209/20/02 04:45:31  5-MIN KMSN 201045Z 15007KT 6SM BR BKN009 OVC017 21/19 A2956 1200 93 2200 150/07 RMK AO2 RAE44 CIG 005V013 P0001 $
14837KMSN MSN20020920045015409/20/02 04:50:31  5-MIN KMSN 201050Z 15008KT 4SM -RA BR BKN009 BKN014 OVC019 21/20 A2957 1190 97 2200 150/08 RMK AO2 CIG 005V012 SLP006 P0002 T02060200 $
14837KMSN MSN20020920045513709/20/02 04:55:31  5-MIN KMSN 201055Z 16008KT 3SM -RA BR BKN009 BKN014 OVC020 21/20 A2956 1190 97 2200 160/08 RMK AO2 CIG 004V012 P0000 $
14837KMSN MSN20020920050011809/20/02 05:00:31  5-MIN KMSN 201100Z 16008KT 4SM -RA BR SCT009 OVC016 21/20 A2957 1190 97 2200 160/08 RMK AO2 P0001 $
14837KMSN MSN20020920050511809/20/02 05:05:31  5-MIN KMSN 201105Z 16009KT 5SM -RA BR SCT009 OVC016 21/20 A2957 1190 97 2200 160/09 RMK AO2 P0001 $
14837KMSN MSN20020920051012509/20/02 05:10:31  5-MIN KMSN 201110Z 16008KT 6SM -RA BR FEW007 BKN012 OVC022 21/20 A2957 1190 97 2200 160/08 RMK AO2 P0001 $
14837KMSN MSN20020920051512509/20/02 05:15:31  5-MIN KMSN 201115Z 17007KT 6SM -RA BR SCT009 BKN012 OVC018 21/20 A2957 1190 97 2200 160/07 RMK AO2 P0001 $
14837KMSN MSN20020920052012509/20/02 05:20:31  5-MIN KMSN 201120Z 16007KT 6SM -RA BR BKN009 BKN012 OVC018 21/20 A2957 1190 93 2200 160/07 RMK AO2 P0001 $
14837KMSN MSN20020920052512409/20/02 05:25:31  5-MIN KMSN 201125Z 17007KT 7SM BKN009 BKN012 OVC018 21/20 A2957 1190 93 2200 170/07 RMK AO2 RAE21 P0001 $
14837KMSN MSN20020920053013209/20/02 05:30:31  5-MIN KMSN 201130Z 16007KT 6SM BR BKN007 OVC012 21/20 A2957 1190 93 2200 160/07 RMK AO2 RAE21 CIG 005V009 P0001 $
14837KMSN MSN20020920053513009/20/02 05:35:31  5-MIN KMSN 201135Z 16006KT 6SM -RA BR BKN007 OVC012 21/20 A2957 1190 93 2200 160/06 RMK AO2 CIG 005V009 P0001 $
14837KMSN MSN20020920054013009/20/02 05:40:31  5-MIN KMSN 201140Z 18008KT 3SM -RA BR BKN007 OVC012 21/20 A2957 1190 93 2200 180/08 RMK AO2 CIG 005V009 P0002 $
14837KMSN MSN20020920054512309/20/02 05:45:31  5-MIN KMSN 201145Z 18009KT 3SM +RA BR OVC007 21/20 A2958 1180 93 2200 180/09 RMK AO2 CIG 005V012 P0010 $
14837KMSN MSN20020920055018309/20/02 05:50:31  5-MIN KMSN 201150Z 19005KT 1 1/4SM +RA BR BKN007 OVC015 21/20 A2957 1190 97 2100 180/05 RMK AO2 TWR VIS 1 1/2 SLP009 P0017 60022 70041 T02060200 10211 20200 58013 $
14837KMSN MSN20020920055513609/20/02 05:55:31  5-MIN KMSN 201155Z 16008KT 1 1/4SM +RA BR BKN007 OVC015 21/20 A2957 1190 93 2200 160/08 RMK AO2 TWR VIS 1 1/2 P0003 $
14837KMSN MSN20020920060012409/20/02 06:00:31  5-MIN KMSN 201200Z 19007KT 1 1/2SM RA BR OVC007 21/20 A2958 1180 97 2100 190/07 RMK AO2 SFC VIS 2 P0004 $
14837KMSN MSN20020920060513209/20/02 06:05:31  5-MIN KMSN 201205Z 18008KT 1 1/2SM -RA BR BKN007 OVC015 21/20 A2958 1180 93 2200 180/08 RMK AO2 SFC VIS 3 P0004 $
14837KMSN MSN20020920061011809/20/02 06:10:31  5-MIN KMSN 201210Z 19008KT 6SM -RA BR BKN007 OVC012 21/20 A2958 1180 93 2200 190/08 RMK AO2 P0004 $
14837KMSN MSN20020920061512009/20/02 06:15:31  5-MIN KMSN 201215Z 18008KT 4SM BR SCT007 OVC012 21/20 A2958 1180 93 2200 180/08 RMK AO2 RAE14 P0004 $
14837KMSN MSN20020920062013009/20/02 06:20:31  5-MIN KMSN 201220Z 18008KT 4SM -RA BR BKN007 OVC013 21/20 A2958 1180 93 2200 180/08 RMK AO2 CIG 004V010 P0004 $
14837KMSN MSN20020920062513009/20/02 06:25:31  5-MIN KMSN 201225Z 18008KT 4SM -RA BR BKN010 OVC015 21/20 A2958 1180 93 2200 180/08 RMK AO2 CIG 005V013 P0004 $
14837KMSN MSN20020920063012909/20/02 06:30:31  5-MIN KMSN 201230Z 18011KT 7SM BKN010 OVC015 21/20 A2958 1180 93 2200 170/11 RMK AO2 RAE29 CIG 006V013 P0004 $
14837KMSN MSN20020920063512009/20/02 06:35:31  5-MIN KMSN 201235Z 17009KT 6SM BR SCT010 OVC015 21/20 A2957 1190 93 2200 170/09 RMK AO2 RAE29 P0004 $
14837KMSN MSN20020920064012009/20/02 06:40:31  5-MIN KMSN 201240Z 17009KT 6SM BR SCT010 OVC015 21/20 A2957 1190 93 2200 170/09 RMK AO2 RAE29 P0004 $
14837KMSN MSN20020920064513209/20/02 06:45:31  5-MIN KMSN 201245Z 17008KT 5SM BR BKN010 OVC015 21/20 A2957 1190 93 2200 170/08 RMK AO2 RAE29 CIG 007V013 P0004 $
14837KMSN MSN20020920065013709/20/02 06:50:31  5-MIN KMSN 201250Z 17009KT 5SM BR SCT010 OVC015 21/20 A2957 1190 93 2200 170/09 RMK AO2 RAE29 SLP010 P0004 T02110200 $
14837KMSN MSN20020920065510809/20/02 06:55:31  5-MIN KMSN 201255Z 17010KT 5SM BR SCT010 OVC015 21/20 A2957 1190 93 2200 170/10 RMK AO2 $
14837KMSN MSN20020920070010809/20/02 07:00:31  5-MIN KMSN 201300Z 16011KT 5SM BR FEW009 OVC012 21/20 A2957 1190 93 2200 160/11 RMK AO2 $
14837KMSN MSN20020920070512009/20/02 07:05:31  5-MIN KMSN 201305Z 17009KT 5SM BR BKN009 OVC015 21/20 A2957 1190 93 2200 170/09 RMK AO2 CIG 008V012 $
14837KMSN MSN20020920071010809/20/02 07:10:31  5-MIN KMSN 201310Z 18009KT 6SM BR BKN011 OVC017 21/20 A2956 1200 93 2200 180/09 RMK AO2 $
14837KMSN MSN20020920071510809/20/02 07:15:31  5-MIN KMSN 201315Z 17008KT 6SM BR BKN011 OVC017 21/20 A2957 1190 93 2200 170/08 RMK AO2 $
14837KMSN MSN20020920072012209/20/02 07:20:31  5-MIN KMSN 201320Z 17008KT 6SM -RA BR BKN013 OVC021 21/20 A2956 1200 93 2200 170/08 RMK AO2 RAB18 P0000
14837KMSN MSN20020920072513409/20/02 07:25:31  5-MIN KMSN 201325Z 17008KT 5SM -RA BR BKN010 OVC015 21/19 A2956 1200 90 2200 170/08 RMK AO2 RAB18 CIG 008V013 P0000
14837KMSN MSN20020920073012909/20/02 07:30:31  5-MIN KMSN 201330Z 17009KT 5SM -RA BR BKN012 BKN022 OVC034 21/20 A2956 1200 93 2200 170/09 RMK AO2 RAB18 P0000
14837KMSN MSN20020920073512909/20/02 07:35:31  5-MIN KMSN 201335Z 17008KT 5SM -RA BR BKN010 BKN016 OVC034 21/19 A2956 1200 90 2200 170/08 RMK AO2 RAB18 P0000
14837KMSN MSN20020920074012909/20/02 07:40:31  5-MIN KMSN 201340Z 18008KT 5SM -RA BR BKN012 BKN021 OVC085 21/19 A2956 1200 90 2200 180/08 RMK AO2 RAB18 P0000
14837KMSN MSN20020920074512909/20/02 07:45:31  5-MIN KMSN 201345Z 16008KT 6SM -RA BR SCT012 BKN017 OVC085 21/19 A2956 1200 90 2200 160/08 RMK AO2 RAB18 P0000
14837KMSN MSN20020920075014609/20/02 07:50:31  5-MIN KMSN 201350Z 18009KT 5SM -RA BR FEW012 BKN017 OVC085 21/20 A2956 1200 93 2200 180/09 RMK AO2 RAB18 SLP003 P0000 T02110200
14837KMSN MSN20020920075512309/20/02 07:55:31  5-MIN KMSN 201355Z 17008KT 4SM -RA BR FEW012 BKN017 OVC085 21/19 A2956 1200 90 2200 170/08 RMK AO2 P0001
14837KMSN MSN20020920080012309/20/02 08:00:31  5-MIN KMSN 201400Z 17008KT 4SM -RA BR BKN015 BKN032 OVC085 21/19 A2956 1200 90 2200 170/08 RMK AO2 P0001
14837KMSN MSN20020920080512309/20/02 08:05:31  5-MIN KMSN 201405Z 16009KT 4SM -RA BR BKN013 BKN017 OVC080 21/20 A2955 1200 93 2200 160/09 RMK AO2 P0001
14837KMSN MSN20020920081011309/20/02 08:10:31  5-MIN KMSN 201410Z 16008KT 2 1/2SM -RA BR OVC013 21/19 A2955 1210 93 2200 160/08 RMK AO2 P0003
14837KMSN MSN20020920081511609/20/02 08:15:31  5-MIN KMSN 201415Z 15010KT 3SM -RA BR SCT010 OVC015 21/19 A2955 1210 93 2200 150/10 RMK AO2 P0003
14837KMSN MSN20020920082012309/20/02 08:20:31  5-MIN KMSN 201420Z 16012KT 3SM -RA BR SCT010 BKN015 OVC060 21/19 A2956 1200 93 2200 160/12 RMK AO2 P0004
14837KMSN MSN20020920082512209/20/02 08:25:31  5-MIN KMSN 201425Z 19009KT 4SM RA BR BKN012 BKN025 OVC060 21/19 A2956 1200 93 2200 180/09 RMK AO2 P0005
14837KMSN MSN20020920083012209/20/02 08:30:31  5-MIN KMSN 201430Z 17008KT 3SM RA BR SCT012 BKN025 OVC060 21/19 A2955 1210 90 2200 170/08 RMK AO2 P0006
14837KMSN MSN20020920083512309/20/02 08:35:31  5-MIN KMSN 201435Z 18011KT 4SM -RA BR SCT012 BKN025 OVC060 21/19 A2956 1200 90 2200 180/11 RMK AO2 P0006
14837KMSN MSN20020920084012209/20/02 08:40:31  5-MIN KMSN 201440Z 19011KT 9SM SCT012 BKN028 OVC060 21/18 A2956 1200 87 2200 180/11 RMK AO2 RAE40 P0006
14837KMSN MSN20020920084512309/20/02 08:45:31  5-MIN KMSN 201445Z 19009KT 10SM SCT012 BKN028 OVC060 21/18 A2955 1210 84 2200 180/09 RMK AO2 RAE40 P0006
14837KMSN MSN20020920085015209/20/02 08:50:31  5-MIN KMSN 201450Z 19006KT 10SM FEW016 BKN040 OVC049 20/18 A2955 1210 87 2100 180/06 RMK AO2 RAE40 SLP003 P0006 60010 T02000178 55006
14837KMSN MSN20020920085510409/20/02 08:55:31  5-MIN KMSN 201455Z 19007KT 10SM SCT037 OVC049 21/18 A2955 1200 87 2200 190/07 RMK AO2
14837KMSN MSN20020920090012409/20/02 09:00:31  5-MIN KMSN 201500Z 20007KT 5SM -RA BR BKN036 OVC049 20/18 A2956 1200 87 2100 200/07 RMK AO2 RAB1459 P0001
14837KMSN MSN20020920090512409/20/02 09:05:31  5-MIN KMSN 201505Z 20006KT 2SM -RA BR BKN036 OVC049 20/18 A2957 1190 90 2100 200/06 RMK AO2 RAB1459 P0002
14837KMSN MSN20020920091014509/20/02 09:10:31  5-MIN KMSN 201510Z 18010KT 1 3/4SM -RA BR FEW018 OVC036 20/18 A2957 1190 90 2100 180/10 RMK AO2 TWR VIS 2 RAB1459 PRESRR P0006
14837KMSN MSN20020920091514509/20/02 09:15:31  5-MIN KMSN 201515Z 18009KT 1 1/4SM +RA BR SCT013 BKN034 OVC049 19/18 A2957 1190 93 2000 180/09 RMK AO2 TWR VIS 2 RAB1459 P0011
14837KMSN MSN20020920092013109/20/02 09:20:31  5-MIN KMSN 201520Z 18012KT 2SM -RA BR SCT017 BKN034 OVC047 19/18 A2957 1190 93 2000 180/12 RMK AO2 RAB1459 P0011
14837KMSN MSN20020920092513109/20/02 09:25:31  5-MIN KMSN 201525Z 17010KT 2SM -RA BR SCT019 BKN034 OVC048 19/18 A2956 1200 93 2000 170/10 RMK AO2 RAB1459 P0012
14837KMSN MSN20020920093013109/20/02 09:30:31  5-MIN KMSN 201530Z 19009KT 4SM -RA BR SCT019 BKN034 OVC050 19/18 A2956 1200 90 2000 180/09 RMK AO2 RAB1459 P0012
14837KMSN MSN20020920093512709/20/02 09:35:31  5-MIN KMSN 201535Z 18007KT 9SM SCT019 SCT034 OVC050 19/18 A2956 1200 90 2000 180/07 RMK AO2 RAB1459E33 P0012
14837KMSN MSN20020920094012109/20/02 09:40:31  5-MIN KMSN 201540Z 20007KT 10SM FEW019 BKN050 19/18 A2955 1210 90 2000 200/07 RMK AO2 RAB1459E33 P0012
14837KMSN MSN20020920094512109/20/02 09:45:31  5-MIN KMSN 201545Z 19006KT 10SM FEW025 OVC050 19/18 A2955 1210 90 2000 180/06 RMK AO2 RAB1459E33 P0012
14837KMSN MSN20020920095013809/20/02 09:50:31  5-MIN KMSN 201550Z 19006KT 10SM FEW023 OVC050 19/18 A2955 1200 90 2000 190/06 RMK AO2 RAB1459E33 SLP004 P0012 T01940178
14837KMSN MSN20020920095509709/20/02 09:55:31  5-MIN KMSN 201555Z 19007KT 10SM OVC050 19/18 A2955 1210 90 2000 190/07 RMK AO2
14837KMSN MSN20020920100009709/20/02 10:00:31  5-MIN KMSN 201600Z 18006KT 10SM OVC050 19/18 A2955 1210 90 2000 180/06 RMK AO2
14837KMSN MSN20020920100509709/20/02 10:05:31  5-MIN KMSN 201605Z 19004KT 10SM OVC050 19/18 A2955 1210 90 2000 190/04 RMK AO2
14837KMSN MSN20020920101010409/20/02 10:10:31  5-MIN KMSN 201610Z 19004KT 10SM FEW015 OVC050 19/18 A2955 1210 93 2000 190/04 RMK AO2
14837KMSN MSN20020920101511009/20/02 10:15:31  5-MIN KMSN 201615Z 20004KT 8SM FEW015 SCT025 OVC050 19/18 A2955 1210 93 2100 200/04 RMK AO2
14837KMSN MSN20020920102011009/20/02 10:20:31  5-MIN KMSN 201620Z VRB04KT 8SM SCT015 BKN050 OVC060 19/18 A2954 1220 93 2100 VRB/04 RMK AO2
14837KMSN MSN20020920102510309/20/02 10:25:31  5-MIN KMSN 201625Z 22006KT 9SM SCT015 OVC055 20/18 A2954 1220 90 2100 210/06 RMK AO2
14837KMSN MSN20020920103011109/20/02 10:30:31  5-MIN KMSN 201630Z 20007KT 10SM BKN015 BKN024 OVC055 20/18 A2954 1220 87 2100 200/07 RMK AO2
14837KMSN MSN20020920103511109/20/02 10:35:31  5-MIN KMSN 201635Z VRB05KT 10SM BKN016 BKN024 OVC055 20/18 A2954 1220 90 2100 VRB/05 RMK AO2
14837KMSN MSN20020920104011109/20/02 10:40:31  5-MIN KMSN 201640Z 22006KT 10SM BKN016 BKN024 OVC060 20/18 A2953 1220 90 2100 220/06 RMK AO2
14837KMSN MSN20020920104509709/20/02 10:45:31  5-MIN KMSN 201645Z VRB05KT 10SM OVC016 20/18 A2953 1220 87 2100 VRB/05 RMK AO2
14837KMSN MSN20020920105011409/20/02 10:50:31  5-MIN KMSN 201650Z 22006KT 10SM OVC016 20/18 A2953 1220 87 2100 220/06 RMK AO2 SLP997 T02000178
14837KMSN MSN20020920105509709/20/02 10:55:31  5-MIN KMSN 201655Z 21005KT 10SM OVC016 20/18 A2954 1220 87 2100 210/05 RMK AO2
14837KMSN MSN20020920110009709/20/02 11:00:31  5-MIN KMSN 201700Z VRB05KT 10SM OVC016 20/18 A2953 1230 90 2100 VRB/05 RMK AO2
14837KMSN MSN20020920110509709/20/02 11:05:31  5-MIN KMSN 201705Z 21005KT 10SM OVC016 20/18 A2953 1230 90 2100 210/05 RMK AO2
14837KMSN MSN20020920111009709/20/02 11:10:31  5-MIN KMSN 201710Z 18009KT 10SM BKN016 21/18 A2953 1230 87 2200 180/09 RMK AO2
14837KMSN MSN20020920111510409/20/02 11:15:31  5-MIN KMSN 201715Z 20006KT 10SM BKN016 OVC020 21/18 A2953 1230 84 2300 200/06 RMK AO2
14837KMSN MSN20020920112010309/20/02 11:20:31  5-MIN KMSN 201720Z 20009G14KT 10SM OVC016 21/18 A2952 1230 84 2300 200/09G14 RMK AO2
14837KMSN MSN20020920112510409/20/02 11:25:31  5-MIN KMSN 201725Z 21008KT 10SM BKN016 OVC022 21/18 A2952 1240 84 2300 200/08 RMK AO2
14837KMSN MSN20020920113010409/20/02 11:30:31  5-MIN KMSN 201730Z 19009KT 10SM BKN016 OVC024 22/18 A2952 1240 81 2300 190/09 RMK AO2
14837KMSN MSN20020920113511109/20/02 11:35:31  5-MIN KMSN 201735Z 22008KT 10SM BKN016 BKN024 BKN042 22/18 A2952 1230 81 2300 210/08 RMK AO2
14837KMSN MSN20020920114012709/20/02 11:40:31  5-MIN KMSN 201740Z 22009KT 200V260 10SM SCT016 BKN024 BKN042 21/18 A2952 1240 81 2300 220/09 200V260 RMK AO2
14837KMSN MSN20020920114513209/20/02 11:45:31  5-MIN KMSN 201745Z 22009G14KT 7SM -RA SCT016 BKN024 BKN042 21/18 A2952 1240 84 2200 220/09G14 RMK AO2 RAB43 P0000
14837KMSN MSN20020920115018609/20/02 11:50:31  5-MIN KMSN 201750Z 23008G14KT 3SM -RA BR SCT016 BKN024 BKN049 20/18 A2952 1240 87 2100 220/08G14 RMK AO2 TWR VIS 4 RAB43 SLP992 P0002 60024 T02000178 10217 20194 58006
14837KMSN MSN20020920115512509/20/02 11:55:31  5-MIN KMSN 201755Z 21010KT 5SM -RA BR FEW016 BKN026 OVC060 19/18 A2952 1240 90 2100 210/10 RMK AO2 P0000 $
14837KMSN MSN20020920120012609/20/02 12:00:31  5-MIN KMSN 201800Z 22010KT 7SM SCT014 BKN026 OVC060 19/18 A2952 1240 90 2100 220/10 RMK AO2 RAE1757 P0000 $
14837KMSN MSN20020920120514309/20/02 12:05:31  5-MIN KMSN 201805Z 23009KT 200V260 10SM SCT011 BKN023 OVC044 19/18 A2952 1230 90 2100 230/09 200V260 RMK AO2 RAE1757 P0000 $
14837KMSN MSN20020920121012709/20/02 12:10:31  5-MIN KMSN 201810Z 23009KT 10SM SCT013 BKN023 OVC044 19/17 A2953 1230 87 2100 230/09 RMK AO2 RAE1757 P0000 $
14837KMSN MSN20020920121513109/20/02 12:15:31  5-MIN KMSN 201815Z 24010G17KT 10SM SCT013 BKN025 OVC070 19/17 A2953 1230 87 2100 240/10G17 RMK AO2 RAE1757 P0000
14837KMSN MSN20020920122014709/20/02 12:20:31  5-MIN KMSN 201820Z 22007G17KT 170V290 10SM FEW011 BKN025 OVC070 19/17 A2953 1230 87 2100 220/07G17 170V290 RMK AO2 RAE1757 P0000
14837KMSN MSN20020920122512509/20/02 12:25:31  5-MIN KMSN 201825Z 22010KT 10SM SCT013 BKN023 OVC070 19/17 A2953 1230 87 2100 220/10 RMK AO2 RAE1757 P0000
14837KMSN MSN20020920123012509/20/02 12:30:31  5-MIN KMSN 201830Z 23008KT 10SM BKN015 BKN023 OVC070 19/17 A2952 1230 87 2100 230/08 RMK AO2 RAE1757 P0000
14837KMSN MSN20020920123514109/20/02 12:35:31  5-MIN KMSN 201835Z 22008KT 190V250 10SM SCT015 BKN023 OVC070 20/17 A2953 1230 84 2100 220/08 190V250 RMK AO2 RAE1757 P0000
14837KMSN MSN20020920124012509/20/02 12:40:31  5-MIN KMSN 201840Z 24009KT 10SM SCT017 BKN023 OVC070 19/17 A2953 1230 84 2100 240/09 RMK AO2 RAE1757 P0000
14837KMSN MSN20020920124514009/20/02 12:45:31  5-MIN KMSN 201845Z 24010G15KT 200V260 10SM BKN017 OVC025 19/17 A2953 1230 84 2100 240/10G15 200V260 RMK AO2 RAE1757 P0000
14837KMSN MSN20020920125015709/20/02 12:50:31  5-MIN KMSN 201850Z 24010G16KT 190V280 10SM SCT017 OVC025 19/16 A2952 1240 81 2100 240/10G16 190V280 RMK AO2 RAE1757 SLP992 P0000 T01940161
14837KMSN MSN20020920125511009/20/02 12:55:31  5-MIN KMSN 201855Z 22010G16KT 10SM SCT017 OVC025 19/16 A2952 1230 81 2100 220/10G16 RMK AO2
14837KMSN MSN20020920130011009/20/02 13:00:31  5-MIN KMSN 201900Z 22007G16KT 10SM SCT017 OVC025 19/16 A2951 1240 84 2000 220/07G16 RMK AO2
14837KMSN MSN20020920130511009/20/02 13:05:31  5-MIN KMSN 201905Z 23009G16KT 10SM SCT018 OVC025 19/16 A2951 1250 81 2100 220/09G16 RMK AO2
14837KMSN MSN20020920131010409/20/02 13:10:31  5-MIN KMSN 201910Z 22008KT 10SM FEW018 OVC027 19/16 A2950 1250 81 2100 210/08 RMK AO2
14837KMSN MSN20020920131509709/20/02 13:15:31  5-MIN KMSN 201915Z 22010KT 10SM OVC025 19/16 A2952 1240 81 2000 210/10 RMK AO2
14837KMSN MSN20020920132009709/20/02 13:20:31  5-MIN KMSN 201920Z 21012KT 10SM OVC025 19/16 A2952 1230 81 2000 210/12 RMK AO2
14837KMSN MSN20020920132510409/20/02 13:25:31  5-MIN KMSN 201925Z 22008KT 10SM FEW018 OVC027 19/16 A2952 1230 84 2000 220/08 RMK AO2
14837KMSN MSN20020920133011009/20/02 13:30:31  5-MIN KMSN 201930Z 22011G16KT 10SM FEW018 OVC027 19/16 A2953 1230 81 2000 220/11G16 RMK AO2
14837KMSN MSN20020920133513309/20/02 13:35:31  5-MIN KMSN 201935Z 22010G16KT 200V260 10SM FEW020 BKN027 OVC035 19/16 A2953 1230 81 2000 220/10G16 200V260 RMK AO2
14837KMSN MSN20020920134013309/20/02 13:40:31  5-MIN KMSN 201940Z 22007G16KT 180V250 10SM FEW020 BKN027 OVC035 19/16 A2953 1230 81 2000 220/07G16 180V250 RMK AO2
14837KMSN MSN20020920134511109/20/02 13:45:31  5-MIN KMSN 201945Z 23009KT 10SM FEW017 BKN026 OVC035 19/15 A2953 1230 78 2000 230/09 RMK AO2
14837KMSN MSN20020920135013709/20/02 13:50:31  5-MIN KMSN 201950Z 22010KT 10SM -RA BKN020 OVC028 19/15 A2953 1230 78 2000 220/10 RMK AO2 RAB49 SLP995 P0000 T01890150
14837KMSN MSN20020920135511409/20/02 13:55:31  5-MIN KMSN 201955Z 21009KT 10SM -RA BKN021 OVC028 19/16 A2953 1220 81 2000 210/09 RMK AO2 P0000
14837KMSN MSN20020920140013109/20/02 14:00:31  5-MIN KMSN 202000Z 24010G16KT 10SM BKN021 BKN026 OVC033 18/15 A2953 1220 81 1900 240/10G16 RMK AO2 RAE1959 P0000
14837KMSN MSN20020920140512409/20/02 14:05:31  5-MIN KMSN 202005Z 22009G16KT 10SM BKN021 OVC026 18/15 A2954 1220 81 1900 220/09G16 RMK AO2 RAE1959 P0000
14837KMSN MSN20020920141012409/20/02 14:10:31  5-MIN KMSN 202010Z 24010G20KT 10SM BKN021 OVC029 18/15 A2954 1220 81 1900 240/10G20 RMK AO2 RAE1959 P0000
14837KMSN MSN20020920141514009/20/02 14:15:31  5-MIN KMSN 202015Z 24008G20KT 180V270 10SM SCT021 OVC030 18/15 A2954 1220 81 1900 240/08G20 180V270 RMK AO2 RAE1959 P0000
14837KMSN MSN20020920142014109/20/02 14:20:31  5-MIN KMSN 202020Z 23008KT 200V260 10SM FEW019 SCT024 OVC030 18/14 A2954 1220 78 1900 230/08 200V260 RMK AO2 RAE1959 P0000
14837KMSN MSN20020920142514109/20/02 14:25:31  5-MIN KMSN 202025Z 22008KT 170V250 10SM FEW019 BKN029 OVC034 19/15 A2954 1220 78 2000 220/08 170V250 RMK AO2 RAE1959 P0000
14837KMSN MSN20020920143012509/20/02 14:30:31  5-MIN KMSN 202030Z 22009KT 10SM FEW021 SCT028 OVC035 19/15 A2954 1220 78 2000 220/09 RMK AO2 RAE1959 P0000
14837KMSN MSN20020920143511809/20/02 14:35:31  5-MIN KMSN 202035Z 22009KT 10SM SCT032 OVC042 19/14 A2954 1220 75 2000 220/09 RMK AO2 RAE1959 P0000
14837KMSN MSN20020920144012509/20/02 14:40:31  5-MIN KMSN 202040Z 23010KT 10SM FEW029 BKN036 OVC046 19/15 A2953 1220 78 2000 230/10 RMK AO2 RAE1959 P0000
14837KMSN MSN20020920144512409/20/02 14:45:31  5-MIN KMSN 202045Z VRB06G14KT 10SM SCT032 OVC042 19/14 A2954 1220 75 2000 VRB/06G14 RMK AO2 RAE1959 P0000
14837KMSN MSN20020920145017009/20/02 14:50:31  5-MIN KMSN 202050Z 24009KT 210V280 10SM FEW023 BKN036 OVC046 19/14 A2954 1210 75 2000 240/09 210V280 RMK AO2 RAE1959 SLP000 P0000 60000 T01890144 58011
14837KMSN MSN20020920145514309/20/02 14:55:31  5-MIN KMSN 202055Z 23010KT 200V270 10SM -RA SCT023 BKN030 OVC046 19/14 A2954 1210 75 2000 230/10 200V270 RMK AO2 RAB55 P0000
14837KMSN MSN20020920150012809/20/02 15:00:31  5-MIN KMSN 202100Z 22008KT 8SM -RA SCT022 BKN037 OVC046 18/15 A2955 1210 81 1900 220/08 RMK AO2 RAB2055 P0000
14837KMSN MSN20020920150512709/20/02 15:05:31  5-MIN KMSN 202105Z 22008KT 8SM SCT022 SCT029 OVC037 18/14 A2955 1210 78 1900 220/08 RMK AO2 RAB2055E02 P0000
14837KMSN MSN20020920151012809/20/02 15:10:31  5-MIN KMSN 202110Z 22006KT 10SM FEW022 SCT029 OVC037 18/15 A2954 1220 81 1900 220/06 RMK AO2 RAB2055E02 P0000
14837KMSN MSN20020920151512809/20/02 15:15:31  5-MIN KMSN 202115Z 23005KT 10SM FEW022 BKN039 BKN048 19/15 A2954 1220 78 2000 230/05 RMK AO2 RAB2055E02 P0000
14837KMSN MSN20020920152014409/20/02 15:20:31  5-MIN KMSN 202120Z 22008KT 200V260 10SM FEW022 BKN039 BKN046 19/15 A2953 1230 78 2000 220/08 200V260 RMK AO2 RAB2055E02 P0000
14837KMSN MSN20020920152512109/20/02 15:25:31  5-MIN KMSN 202125Z 23008KT 10SM SCT039 SCT045 19/14 A2954 1220 75 2000 230/08 RMK AO2 RAB2055E02 P0000
14837KMSN MSN20020920153012109/20/02 15:30:31  5-MIN KMSN 202130Z 21007KT 10SM FEW039 SCT045 19/15 A2954 1210 75 2100 210/07 RMK AO2 RAB2055E02 P0000
14837KMSN MSN20020920153512009/20/02 15:35:31  5-MIN KMSN 202135Z 22010G15KT 10SM FEW041 19/14 A2955 1210 75 2000 220/10G15 RMK AO2 RAB2055E02 P0000
14837KMSN MSN20020920154012009/20/02 15:40:31  5-MIN KMSN 202140Z 21009G15KT 10SM FEW045 19/14 A2955 1200 75 2000 210/09G15 RMK AO2 RAB2055E02 P0000
14837KMSN MSN20020920154511109/20/02 15:45:31  5-MIN KMSN 202145Z 20007KT 10SM CLR 19/15 A2956 1200 78 2000 200/07 RMK AO2 RAB2055E02 P0000
14837KMSN MSN20020920155013109/20/02 15:50:31  5-MIN KMSN 202150Z 20007KT 10SM FEW023 19/15 A2955 1210 78 2000 200/07 RMK AO2 RAB2055E02 SLP004 P0000 T01890150
14837KMSN MSN20020920155509709/20/02 15:55:31  5-MIN KMSN 202155Z 20009KT 10SM FEW023 19/14 A2956 1200 72 2000 200/09 RMK AO2
14837KMSN MSN20020920160009709/20/02 16:00:31  5-MIN KMSN 202200Z 21008KT 10SM FEW023 19/14 A2955 1210 72 2000 200/08 RMK AO2
14837KMSN MSN20020920160509709/20/02 16:05:31  5-MIN KMSN 202205Z 21009KT 10SM FEW023 19/14 A2956 1200 72 2000 210/09 RMK AO2
14837KMSN MSN20020920161009709/20/02 16:10:31  5-MIN KMSN 202210Z 21009KT 10SM FEW023 19/14 A2956 1200 72 2000 200/09 RMK AO2
14837KMSN MSN20020920161510309/20/02 16:15:31  5-MIN KMSN 202215Z 22009G15KT 10SM BKN024 19/14 A2956 1200 72 2000 220/09G15 RMK AO2
14837KMSN MSN20020920162009709/20/02 16:20:31  5-MIN KMSN 202220Z 21009KT 10SM BKN024 19/14 A2956 1200 75 2000 210/09 RMK AO2
14837KMSN MSN20020920162509709/20/02 16:25:31  5-MIN KMSN 202225Z 21007KT 10SM BKN024 19/14 A2957 1190 75 2000 210/07 RMK AO2
14837KMSN MSN20020920163010409/20/02 16:30:31  5-MIN KMSN 202230Z 21009KT 10SM SCT024 BKN033 19/14 A2956 1190 75 2000 210/09 RMK AO2
14837KMSN MSN20020920163511109/20/02 16:35:31  5-MIN KMSN 202235Z 22008KT 10SM BKN024 BKN033 BKN040 19/14 A2956 1200 75 2000 210/08 RMK AO2
14837KMSN MSN20020920164011109/20/02 16:40:31  5-MIN KMSN 202240Z 21009KT 10SM SCT025 BKN033 BKN042 19/14 A2956 1200 75 2000 210/09 RMK AO2
14837KMSN MSN20020920164511109/20/02 16:45:31  5-MIN KMSN 202245Z 21008KT 10SM SCT023 SCT028 BKN033 19/14 A2956 1190 75 2000 210/08 RMK AO2
14837KMSN MSN20020920165012809/20/02 16:50:31  5-MIN KMSN 202250Z 22009KT 10SM SCT025 BKN033 BKN042 19/14 A2956 1200 75 2000 220/09 RMK AO2 SLP007 T01890144
14837KMSN MSN20020920165511109/20/02 16:55:31  5-MIN KMSN 202255Z 22011KT 10SM SCT025 BKN042 BKN110 19/14 A2957 1190 75 2000 210/11 RMK AO2
14837KMSN MSN20020920170011709/20/02 17:00:31  5-MIN KMSN 202300Z 21011G15KT 10SM FEW025 SCT040 BKN110 19/14 A2957 1190 75 2000 210/11G15 RMK AO2
14837KMSN MSN20020920170510409/20/02 17:05:31  5-MIN KMSN 202305Z 22009KT 10SM FEW025 BKN110 19/14 A2957 1190 75 2000 220/09 RMK AO2
14837KMSN MSN20020920171011109/20/02 17:10:31  5-MIN KMSN 202310Z 22009KT 10SM FEW025 SCT070 BKN110 19/14 A2957 1190 75 2000 220/09 RMK AO2
14837KMSN MSN20020920171511709/20/02 17:15:31  5-MIN KMSN 202315Z 22008G15KT 10SM FEW023 BKN065 OVC110 19/14 A2957 1190 75 2000 220/08G15 RMK AO2
14837KMSN MSN20020920172011009/20/02 17:20:31  5-MIN KMSN 202320Z 22007KT 9SM FEW025 BKN065 OVC110 19/14 A2957 1190 75 2000 220/07 RMK AO2
14837KMSN MSN20020920172514809/20/02 17:25:31  5-MIN KMSN 202325Z 24009G15KT 210V270 6SM -RA SCT020 BKN034 OVC100 18/14 A2958 1180 78 1900 240/09G15 210V270 RMK AO2 RAB22 P0000
14837KMSN MSN20020920173013409/20/02 17:30:31  5-MIN KMSN 202330Z 24010G17KT 6SM HZ FEW020 BKN065 OVC075 18/15 A2958 1180 83 1800 230/10G17 RMK AO2 RAB22E27 P0000
14837KMSN MSN20020920173513409/20/02 17:35:31  5-MIN KMSN 202335Z 24007G17KT 6SM HZ FEW020 SCT036 OVC075 17/14 A2958 1180 83 1700 240/07G17 RMK AO2 RAB22E27 P0000
14837KMSN MSN20020920174012609/20/02 17:40:31  5-MIN KMSN 202340Z 23006KT 6SM -RA FEW020 SCT060 BKN075 17/14 A2959 1180 86 1700 230/06 RMK AO2 RAB22 P0000
14837KMSN MSN20020920174512609/20/02 17:45:31  5-MIN KMSN 202345Z 22007KT 8SM -RA FEW020 SCT055 OVC080 17/15 A2959 1170 90 1700 220/07 RMK AO2 RAB22 P0000
14837KMSN MSN20020920175016709/20/02 17:50:31  5-MIN KMSN 202350Z VRB05KT 10SM FEW020 SCT060 OVC080 17/15 A2959 1170 90 1700 VRB/05 RMK AO2 RAB22E48 SLP017 P0000 60000 T01670150 10200 20167 53008
14837KMSN MSN20020920175510409/20/02 17:55:31  5-MIN KMSN 202355Z 23006KT 10SM FEW060 BKN080 17/15 A2959 1170 90 1700 230/06 RMK AO2
14837KMSN MSN20020920180010409/20/02 18:00:31  5-MIN KMSN 210000Z 22006KT 10SM FEW060 BKN080 17/15 A2959 1170 87 1700 220/06 RMK AO2
14837KMSN MSN20020920180511109/20/02 18:05:31  5-MIN KMSN 210005Z 23007KT 10SM FEW038 SCT060 OVC085 17/15 A2960 1170 87 1700 220/07 RMK AO2
14837KMSN MSN20020920181011109/20/02 18:10:31  5-MIN KMSN 210010Z VRB06KT 10SM SCT038 SCT065 OVC085 17/15 A2959 1170 87 1700 VRB/06 RMK AO2
14837KMSN MSN20020920181511109/20/02 18:15:31  5-MIN KMSN 210015Z 22006KT 10SM FEW038 SCT075 OVC090 17/15 A2960 1160 87 1700 220/06 RMK AO2
14837KMSN MSN20020920182010409/20/02 18:20:31  5-MIN KMSN 210020Z VRB06KT 10SM FEW038 OVC090 17/15 A2960 1160 87 1700 VRB/06 RMK AO2
14837KMSN MSN20020920182510409/20/02 18:25:31  5-MIN KMSN 210025Z 21005KT 10SM FEW038 OVC090 17/16 A2960 1160 90 1700 210/05 RMK AO2
14837KMSN MSN20020920183010409/20/02 18:30:31  5-MIN KMSN 210030Z 22005KT 10SM FEW038 BKN090 17/16 A2960 1160 90 1700 210/05 RMK AO2
14837KMSN MSN20020920183510409/20/02 18:35:31  5-MIN KMSN 210035Z 22005KT 10SM FEW012 BKN090 17/15 A2961 1150 87 1700 220/05 RMK AO2
14837KMSN MSN20020920184011109/20/02 18:40:31  5-MIN KMSN 210040Z VRB05KT 10SM FEW012 BKN090 BKN110 17/15 A2961 1150 87 1700 VRB/05 RMK AO2
14837KMSN MSN20020920184511109/20/02 18:45:31  5-MIN KMSN 210045Z 23006KT 10SM FEW014 SCT090 BKN110 17/15 A2961 1150 87 1700 230/06 RMK AO2
14837KMSN MSN20020920185014409/20/02 18:50:31  5-MIN KMSN 210050Z 24007KT 210V270 10SM FEW014 SCT090 BKN110 17/15 A2962 1150 87 1700 240/07 210V270 RMK AO2 SLP025 T01720150
14837KMSN MSN20020920185512709/20/02 18:55:31  5-MIN KMSN 210055Z 24008KT 210V280 10SM FEW014 BKN090 BKN110 17/15 A2962 1140 87 1700 240/08 210V280 RMK AO2
14837KMSN MSN20020920190012709/20/02 19:00:31  5-MIN KMSN 210100Z 24008KT 210V270 10SM FEW014 BKN090 OVC110 17/15 A2962 1140 87 1700 240/08 210V270 RMK AO2
14837KMSN MSN20020920190513309/20/02 19:05:31  5-MIN KMSN 210105Z 24009G15KT 220V290 10SM FEW014 BKN090 OVC110 17/15 A2963 1140 87 1700 240/09G15 220V290 RMK AO2
14837KMSN MSN20020920191013309/20/02 19:10:31  5-MIN KMSN 210110Z 24007G15KT 220V280 10SM FEW014 BKN090 OVC110 17/15 A2963 1130 87 1700 240/07G15 220V280 RMK AO2
14837KMSN MSN20020920191511109/20/02 19:15:31  5-MIN KMSN 210115Z 25008KT 10SM FEW014 BKN043 OVC090 17/15 A2963 1130 87 1700 250/08 RMK AO2
14837KMSN MSN20020920192012009/20/02 19:20:31  5-MIN KMSN 210120Z 24008KT 210V280 10SM BKN043 OVC090 17/15 A2963 1130 87 1700 240/08 210V280 RMK AO2
14837KMSN MSN20020920192510409/20/02 19:25:31  5-MIN KMSN 210125Z 23008KT 10SM BKN043 OVC085 17/15 A2964 1130 87 1700 230/08 RMK AO2
14837KMSN MSN20020920193010409/20/02 19:30:31  5-MIN KMSN 210130Z VRB06KT 10SM BKN043 OVC085 17/15 A2964 1130 87 1700 VRB/06 RMK AO2
14837KMSN MSN20020920193510409/20/02 19:35:31  5-MIN KMSN 210135Z VRB06KT 10SM SCT043 BKN085 17/15 A2964 1130 87 1700 VRB/06 RMK AO2
14837KMSN MSN20020920194010409/20/02 19:40:31  5-MIN KMSN 210140Z VRB06KT 10SM SCT045 BKN085 17/15 A2964 1120 87 1700 VRB/06 RMK AO2
14837KMSN MSN20020920194510409/20/02 19:45:31  5-MIN KMSN 210145Z VRB06KT 10SM FEW045 BKN085 17/15 A2964 1120 87 1700 VRB/06 RMK AO2
14837KMSN MSN20020920195012109/20/02 19:50:31  5-MIN KMSN 210150Z 22006KT 10SM FEW045 BKN085 17/15 A2964 1120 87 1700 220/06 RMK AO2 SLP035 T01720150
14837KMSN MSN20020920195511309/20/02 19:55:31  5-MIN KMSN 210155Z 22007KT 190V250 10SM BKN085 17/15 A2965 1120 87 1700 220/07 190V250 RMK AO2
14837KMSN MSN20020920200010409/20/02 20:00:31  5-MIN KMSN 210200Z 22008KT 10SM FEW020 BKN080 17/15 A2965 1110 87 1700 220/08 RMK AO2
14837KMSN MSN20020920200512009/20/02 20:05:31  5-MIN KMSN 210205Z 22007KT 190V250 10SM FEW020 BKN080 17/15 A2965 1110 87 1700 220/07 190V250 RMK AO2
14837KMSN MSN20020920201010409/20/02 20:10:31  5-MIN KMSN 210210Z 22009KT 10SM FEW020 BKN090 17/15 A2965 1110 87 1700 220/09 RMK AO2
14837KMSN MSN20020920201510409/20/02 20:15:31  5-MIN KMSN 210215Z 22007KT 10SM FEW020 BKN090 17/15 A2966 1110 87 1700 220/07 RMK AO2
14837KMSN MSN20020920202010409/20/02 20:20:31  5-MIN KMSN 210220Z 23007KT 10SM FEW020 BKN090 17/15 A2966 1110 87 1700 220/07 RMK AO2
14837KMSN MSN20020920202510409/20/02 20:25:31  5-MIN KMSN 210225Z 23007KT 10SM FEW020 BKN090 17/15 A2966 1110 87 1700 220/07 RMK AO2
14837KMSN MSN20020920203010409/20/02 20:30:31  5-MIN KMSN 210230Z 23008KT 10SM FEW020 BKN090 17/15 A2965 1110 87 1700 230/08 RMK AO2
14837KMSN MSN20020920203510409/20/02 20:35:31  5-MIN KMSN 210235Z 22008KT 10SM FEW020 BKN090 17/15 A2966 1110 87 1700 220/08 RMK AO2
14837KMSN MSN20020920204009709/20/02 20:40:31  5-MIN KMSN 210240Z 22007KT 10SM OVC090 17/15 A2966 1110 87 1700 220/07 RMK AO2
14837KMSN MSN20020920204509709/20/02 20:45:31  5-MIN KMSN 210245Z 22006KT 10SM OVC090 17/15 A2966 1110 87 1700 220/06 RMK AO2
14837KMSN MSN20020920205012009/20/02 20:50:31  5-MIN KMSN 210250Z 21006KT 10SM OVC090 17/15 A2966 1110 87 1700 210/06 RMK AO2 SLP040 T01720150 53015
14837KMSN MSN20020920205509709/20/02 20:55:31  5-MIN KMSN 210255Z VRB05KT 10SM OVC090 17/15 A2966 1110 87 1700 VRB/05 RMK AO2
14837KMSN MSN20020920210011309/20/02 21:00:31  5-MIN KMSN 210300Z 22007KT 180V260 10SM OVC090 17/15 A2966 1110 87 1700 220/07 180V260 RMK AO2
14837KMSN MSN20020920210509709/20/02 21:05:31  5-MIN KMSN 210305Z VRB06KT 10SM OVC085 17/15 A2966 1100 87 1700 VRB/06 RMK AO2
14837KMSN MSN20020920211009709/20/02 21:10:31  5-MIN KMSN 210310Z 21005KT 10SM OVC085 17/15 A2966 1100 87 1700 210/05 RMK AO2
14837KMSN MSN20020920211509709/20/02 21:15:31  5-MIN KMSN 210315Z 22007KT 10SM OVC085 17/14 A2966 1100 83 1700 220/07 RMK AO2
14837KMSN MSN20020920212009709/20/02 21:20:31  5-MIN KMSN 210320Z 22006KT 10SM OVC085 17/14 A2966 1100 83 1700 210/06 RMK AO2
14837KMSN MSN20020920212509709/20/02 21:25:31  5-MIN KMSN 210325Z 22007KT 10SM OVC085 17/14 A2966 1100 83 1700 220/07 RMK AO2
14837KMSN MSN20020920213009709/20/02 21:30:31  5-MIN KMSN 210330Z 21009KT 10SM BKN085 17/14 A2966 1100 83 1700 210/09 RMK AO2
14837KMSN MSN20020920213509709/20/02 21:35:31  5-MIN KMSN 210335Z 22008KT 10SM FEW085 17/14 A2967 1100 80 1700 210/08 RMK AO2
14837KMSN MSN20020920214009709/20/02 21:40:31  5-MIN KMSN 210340Z 21008KT 10SM FEW085 17/14 A2967 1100 80 1700 210/08 RMK AO2
14837KMSN MSN20020920214509709/20/02 21:45:31  5-MIN KMSN 210345Z 22008KT 10SM FEW085 17/14 A2967 1100 80 1700 220/08 RMK AO2
14837KMSN MSN20020920215011409/20/02 21:50:31  5-MIN KMSN 210350Z 22007KT 10SM FEW085 17/14 A2967 1100 80 1700 220/07 RMK AO2 SLP043 T01720139
14837KMSN MSN20020920215509409/20/02 21:55:31  5-MIN KMSN 210355Z 22006KT 10SM CLR 17/14 A2967 1100 83 1600 220/06 RMK AO2
14837KMSN MSN20020920220009409/20/02 22:00:31  5-MIN KMSN 210400Z 21009KT 10SM CLR 17/14 A2967 1100 83 1600 210/09 RMK AO2
14837KMSN MSN20020920220509409/20/02 22:05:31  5-MIN KMSN 210405Z 22007KT 10SM CLR 17/14 A2967 1090 83 1600 220/07 RMK AO2
14837KMSN MSN20020920221009409/20/02 22:10:31  5-MIN KMSN 210410Z 22009KT 10SM CLR 17/14 A2967 1090 83 1600 210/09 RMK AO2
14837KMSN MSN20020920221509409/20/02 22:15:31  5-MIN KMSN 210415Z 21008KT 10SM CLR 17/14 A2968 1090 83 1600 210/08 RMK AO2
14837KMSN MSN20020920222009409/20/02 22:20:31  5-MIN KMSN 210420Z 22008KT 10SM CLR 17/14 A2968 1090 83 1600 220/08 RMK AO2
14837KMSN MSN20020920222510009/20/02 22:25:31  5-MIN KMSN 210425Z 21010G14KT 10SM CLR 17/14 A2968 1090 83 1600 210/10G14 RMK AO2
14837KMSN MSN20020920223009409/20/02 22:30:31  5-MIN KMSN 210430Z 22010KT 10SM CLR 17/14 A2968 1090 83 1600 220/10 RMK AO2
14837KMSN MSN20020920223509409/20/02 22:35:31  5-MIN KMSN 210435Z 22008KT 10SM CLR 17/14 A2968 1090 80 1600 220/08 RMK AO2
14837KMSN MSN20020920224009409/20/02 22:40:31  5-MIN KMSN 210440Z 21008KT 10SM CLR 17/14 A2968 1090 83 1600 210/08 RMK AO2
14837KMSN MSN20020920224509409/20/02 22:45:31  5-MIN KMSN 210445Z 21009KT 10SM CLR 17/14 A2968 1080 83 1600 210/09 RMK AO2
14837KMSN MSN20020920225011109/20/02 22:50:31  5-MIN KMSN 210450Z 21009KT 10SM CLR 17/14 A2968 1080 83 1600 210/09 RMK AO2 SLP049 T01670139
14837KMSN MSN20020920225509409/20/02 22:55:31  5-MIN KMSN 210455Z 22008KT 10SM CLR 17/14 A2969 1080 83 1600 210/08 RMK AO2
14837KMSN MSN20020920230009409/20/02 23:00:31  5-MIN KMSN 210500Z 21009KT 10SM CLR 17/14 A2969 1080 83 1600 210/09 RMK AO2
14837KMSN MSN20020920230509409/20/02 23:05:31  5-MIN KMSN 210505Z 22009KT 10SM CLR 17/14 A2969 1080 83 1600 220/09 RMK AO2
14837KMSN MSN20020920231010009/20/02 23:10:31  5-MIN KMSN 210510Z 21008G15KT 10SM CLR 17/13 A2968 1080 80 1600 210/08G15 RMK AO2
14837KMSN MSN20020920231509409/20/02 23:15:31  5-MIN KMSN 210515Z 21008KT 10SM CLR 17/13 A2969 1080 80 1600 210/08 RMK AO2
14837KMSN MSN20020920232009409/20/02 23:20:31  5-MIN KMSN 210520Z 21007KT 10SM CLR 17/13 A2969 1080 80 1600 210/07 RMK AO2
14837KMSN MSN20020920232509409/20/02 23:25:31  5-MIN KMSN 210525Z 21007KT 10SM CLR 17/13 A2969 1080 80 1600 210/07 RMK AO2
14837KMSN MSN20020920233009409/20/02 23:30:31  5-MIN KMSN 210530Z 21008KT 10SM CLR 17/13 A2969 1080 80 1600 210/08 RMK AO2
14837KMSN MSN20020920233509409/20/02 23:35:31  5-MIN KMSN 210535Z 21007KT 10SM CLR 17/13 A2969 1080 80 1600 210/07 RMK AO2
14837KMSN MSN20020920234009409/20/02 23:40:31  5-MIN KMSN 210540Z 21007KT 10SM CLR 17/13 A2969 1080 80 1600 210/07 RMK AO2
14837KMSN MSN20020920234509409/20/02 23:45:31  5-MIN KMSN 210545Z 21008KT 10SM CLR 17/13 A2969 1080 80 1600 210/08 RMK AO2
14837KMSN MSN20020920235013909/20/02 23:50:31  5-MIN KMSN 210550Z 21007KT 10SM CLR 17/13 A2969 1080 80 1600 210/07 RMK AO2 SLP050 T01670133 10172 20167 402170167 51023
14837KMSN MSN20020920235510009/20/02 23:55:31  5-MIN KMSN 210555Z 21007G14KT 10SM CLR 17/13 A2969 1080 80 1600 210/07G14 RMK AO2
14837KMSN MSN20020921000010009/21/02 00:00:31  5-MIN KMSN 210600Z 21008G14KT 10SM CLR 17/13 A2969 1080 80 1600 210/08G14 RMK AO2
14837KMSN MSN20020921000509409/21/02 00:05:31  5-MIN KMSN 210605Z 21008KT 10SM CLR 16/13 A2969 1070 83 1500 210/08 RMK AO2
14837KMSN MSN20020921001009409/21/02 00:10:31  5-MIN KMSN 210610Z 21007KT 10SM CLR 16/13 A2969 1070 83 1500 210/07 RMK AO2
14837KMSN MSN20020921001509409/21/02 00:15:31  5-MIN KMSN 210615Z 22006KT 10SM CLR 16/13 A2970 1070 83 1500 220/06 RMK AO2
14837KMSN MSN20020921002009409/21/02 00:20:31  5-MIN KMSN 210620Z 22006KT 10SM CLR 16/13 A2970 1070 80 1500 220/06 RMK AO2
14837KMSN MSN20020921002509409/21/02 00:25:31  5-MIN KMSN 210625Z 22008KT 10SM CLR 16/13 A2970 1070 80 1500 210/08 RMK AO2
14837KMSN MSN20020921003009409/21/02 00:30:31  5-MIN KMSN 210630Z 22007KT 10SM CLR 16/13 A2970 1070 80 1500 220/07 RMK AO2
14837KMSN MSN20020921003509409/21/02 00:35:31  5-MIN KMSN 210635Z 21007KT 10SM CLR 16/13 A2970 1070 80 1500 210/07 RMK AO2
14837KMSN MSN20020921004009409/21/02 00:40:31  5-MIN KMSN 210640Z 21007KT 10SM CLR 17/13 A2970 1070 77 1500 210/07 RMK AO2
14837KMSN MSN20020921004509409/21/02 00:45:31  5-MIN KMSN 210645Z 21007KT 10SM CLR 16/13 A2971 1060 80 1500 210/07 RMK AO2
14837KMSN MSN20020921005011109/21/02 00:50:31  5-MIN KMSN 210650Z 21006KT 10SM CLR 16/13 A2971 1060 80 1500 210/06 RMK AO2 SLP057 T01610128
14837KMSN MSN20020921005509409/21/02 00:55:31  5-MIN KMSN 210655Z 21006KT 10SM CLR 16/12 A2971 1060 77 1500 210/06 RMK AO2
14837KMSN MSN20020921010009409/21/02 01:00:31  5-MIN KMSN 210700Z 21007KT 10SM CLR 16/12 A2971 1060 77 1500 210/07 RMK AO2
14837KMSN MSN20020921010509409/21/02 01:05:31  5-MIN KMSN 210705Z 22007KT 10SM CLR 16/12 A2971 1060 77 1500 210/07 RMK AO2
14837KMSN MSN20020921011009409/21/02 01:10:31  5-MIN KMSN 210710Z 21007KT 10SM CLR 16/12 A2971 1060 77 1500 210/07 RMK AO2
14837KMSN MSN20020921011509409/21/02 01:15:31  5-MIN KMSN 210715Z 21007KT 10SM CLR 16/12 A2971 1060 77 1500 210/07 RMK AO2
14837KMSN MSN20020921012009409/21/02 01:20:31  5-MIN KMSN 210720Z 21006KT 10SM CLR 16/12 A2971 1060 77 1500 210/06 RMK AO2
14837KMSN MSN20020921012509409/21/02 01:25:31  5-MIN KMSN 210725Z 21007KT 10SM CLR 16/12 A2971 1060 75 1500 210/07 RMK AO2
14837KMSN MSN20020921013009409/21/02 01:30:31  5-MIN KMSN 210730Z 21007KT 10SM CLR 16/12 A2972 1050 75 1500 210/07 RMK AO2
14837KMSN MSN20020921013509409/21/02 01:35:31  5-MIN KMSN 210735Z 21006KT 10SM CLR 16/12 A2972 1050 75 1500 210/06 RMK AO2
14837KMSN MSN20020921014009409/21/02 01:40:31  5-MIN KMSN 210740Z 21007KT 10SM CLR 16/12 A2972 1050 75 1500 210/07 RMK AO2
14837KMSN MSN20020921014509409/21/02 01:45:31  5-MIN KMSN 210745Z 21008KT 10SM CLR 16/12 A2972 1050 75 1500 210/08 RMK AO2
14837KMSN MSN20020921015011109/21/02 01:50:31  5-MIN KMSN 210750Z 21007KT 10SM CLR 16/11 A2972 1050 72 1500 210/07 RMK AO2 SLP060 T01610111
14837KMSN MSN20020921015509409/21/02 01:55:31  5-MIN KMSN 210755Z 22007KT 10SM CLR 16/11 A2972 1050 72 1500 220/07 RMK AO2
14837KMSN MSN20020921020009409/21/02 02:00:31  5-MIN KMSN 210800Z 22006KT 10SM CLR 16/11 A2972 1050 72 1500 220/06 RMK AO2
14837KMSN MSN20020921020509409/21/02 02:05:31  5-MIN KMSN 210805Z 21006KT 10SM CLR 16/12 A2973 1040 75 1500 210/06 RMK AO2
14837KMSN MSN20020921021009409/21/02 02:10:31  5-MIN KMSN 210810Z 22007KT 10SM CLR 16/12 A2973 1040 75 1500 220/07 RMK AO2
14837KMSN MSN20020921021509409/21/02 02:15:31  5-MIN KMSN 210815Z 22008KT 10SM CLR 16/12 A2973 1040 75 1500 220/08 RMK AO2
14837KMSN MSN20020921022011609/21/02 02:20:31  5-MIN KMSN 210820Z 22007G15KT 200V260 10SM CLR 17/12 A2973 1040 72 1500 220/07G15 200V260 RMK AO2
14837KMSN MSN20020921022510009/21/02 02:25:31  5-MIN KMSN 210825Z 23007G15KT 10SM CLR 16/12 A2973 1040 75 1500 230/07G15 RMK AO2
14837KMSN MSN20020921023009409/21/02 02:30:31  5-MIN KMSN 210830Z 23007KT 10SM CLR 16/12 A2973 1040 75 1400 230/07 RMK AO2
14837KMSN MSN20020921023509409/21/02 02:35:31  5-MIN KMSN 210835Z 23007KT 10SM CLR 16/11 A2973 1040 72 1400 230/07 RMK AO2
14837KMSN MSN20020921024009409/21/02 02:40:31  5-MIN KMSN 210840Z 22006KT 10SM CLR 16/11 A2974 1030 72 1400 220/06 RMK AO2
14837KMSN MSN20020921024509409/21/02 02:45:31  5-MIN KMSN 210845Z 23006KT 10SM CLR 16/11 A2974 1030 72 1400 230/06 RMK AO2
14837KMSN MSN20020921025011709/21/02 02:50:31  5-MIN KMSN 210850Z 23005KT 10SM CLR 16/11 A2974 1030 72 1400 230/05 RMK AO2 SLP069 T01610111 51009
14837KMSN MSN20020921025509409/21/02 02:55:31  5-MIN KMSN 210855Z VRB04KT 10SM CLR 16/11 A2975 1030 72 1400 VRB/04 RMK AO2
14837KMSN MSN20020921030009409/21/02 03:00:31  5-MIN KMSN 210900Z VRB04KT 10SM CLR 16/11 A2975 1020 72 1400 VRB/04 RMK AO2
14837KMSN MSN20020921030509409/21/02 03:05:31  5-MIN KMSN 210905Z VRB04KT 10SM CLR 16/11 A2975 1020 72 1400 VRB/04 RMK AO2
14837KMSN MSN20020921031009409/21/02 03:10:31  5-MIN KMSN 210910Z 26006KT 10SM CLR 16/10 A2976 1020 69 1400 260/06 RMK AO2
14837KMSN MSN20020921031509409/21/02 03:15:31  5-MIN KMSN 210915Z 25005KT 10SM CLR 15/10 A2976 1010 72 1300 250/05 RMK AO2
14837KMSN MSN20020921032009409/21/02 03:20:31  5-MIN KMSN 210920Z VRB05KT 10SM CLR 15/10 A2976 1010 72 1300 VRB/05 RMK AO2
14837KMSN MSN20020921032509409/21/02 03:25:31  5-MIN KMSN 210925Z VRB05KT 10SM CLR 15/10 A2977 1010 72 1300 VRB/05 RMK AO2
14837KMSN MSN20020921033009409/21/02 03:30:31  5-MIN KMSN 210930Z 26007KT 10SM CLR 15/10 A2977 1000 72 1300 260/07 RMK AO2
14837KMSN MSN20020921033509409/21/02 03:35:31  5-MIN KMSN 210935Z VRB06KT 10SM CLR 15/10 A2977 1000 72 1300 VRB/06 RMK AO2
14837KMSN MSN20020921034009409/21/02 03:40:31  5-MIN KMSN 210940Z 26006KT 10SM CLR 15/10 A2978 1000 72 1300 260/06 RMK AO2
14837KMSN MSN20020921034509309/21/02 03:45:31  5-MIN KMSN 210945Z VRB06KT 10SM CLR 14/10 A2978 990 74 1200 VRB/06 RMK AO2
14837KMSN MSN20020921035011009/21/02 03:50:31  5-MIN KMSN 210950Z 27006KT 10SM CLR 14/10 A2978 990 74 1200 270/06 RMK AO2 SLP084 T01440100
14837KMSN MSN20020921035509309/21/02 03:55:31  5-MIN KMSN 210955Z VRB05KT 10SM CLR 14/10 A2979 990 74 1200 VRB/05 RMK AO2
14837KMSN MSN20020921040009309/21/02 04:00:31  5-MIN KMSN 211000Z VRB06KT 10SM CLR 14/10 A2979 980 74 1200 VRB/06 RMK AO2
14837KMSN MSN20020921040509309/21/02 04:05:31  5-MIN KMSN 211005Z VRB05KT 10SM CLR 14/10 A2980 980 74 1200 VRB/05 RMK AO2
14837KMSN MSN20020921041009309/21/02 04:10:31  5-MIN KMSN 211010Z VRB05KT 10SM CLR 14/10 A2980 980 74 1200 VRB/05 RMK AO2
14837KMSN MSN20020921041509309/21/02 04:15:31  5-MIN KMSN 211015Z VRB05KT 10SM CLR 14/10 A2980 980 74 1200 VRB/05 RMK AO2
14837KMSN MSN20020921042009309/21/02 04:20:31  5-MIN KMSN 211020Z VRB04KT 10SM CLR 14/10 A2981 970 74 1200 VRB/04 RMK AO2
14837KMSN MSN20020921042509309/21/02 04:25:31  5-MIN KMSN 211025Z 27005KT 10SM CLR 14/10 A2981 970 77 1100 270/05 RMK AO2
14837KMSN MSN20020921043009309/21/02 04:30:31  5-MIN KMSN 211030Z VRB04KT 10SM CLR 14/10 A2981 970 77 1100 VRB/04 RMK AO2
14837KMSN MSN20020921043509309/21/02 04:35:31  5-MIN KMSN 211035Z VRB05KT 10SM CLR 14/10 A2981 970 77 1100 VRB/05 RMK AO2
14837KMSN MSN20020921044009309/21/02 04:40:31  5-MIN KMSN 211040Z VRB05KT 10SM CLR 13/10 A2981 960 80 1000 VRB/05 RMK AO2
14837KMSN MSN20020921044509309/21/02 04:45:31  5-MIN KMSN 211045Z VRB04KT 10SM CLR 13/10 A2982 960 80 1000 VRB/04 RMK AO2
14837KMSN MSN20020921045011009/21/02 04:50:31  5-MIN KMSN 211050Z VRB04KT 10SM CLR 14/10 A2982 960 77 1100 VRB/04 RMK AO2 SLP096 T01390100
14837KMSN MSN20020921045509309/21/02 04:55:31  5-MIN KMSN 211055Z VRB04KT 10SM CLR 13/10 A2982 950 80 1000 VRB/04 RMK AO2
14837KMSN MSN20020921050009309/21/02 05:00:31  5-MIN KMSN 211100Z 28005KT 10SM CLR 13/10 A2983 950 80 1000 280/05 RMK AO2
14837KMSN MSN20020921050509309/21/02 05:05:31  5-MIN KMSN 211105Z 29004KT 10SM CLR 13/10 A2983 950 80 1000 290/04 RMK AO2
14837KMSN MSN20020921051009309/21/02 05:10:31  5-MIN KMSN 211110Z 28004KT 10SM CLR 13/10 A2983 950 80 1000 280/04 RMK AO2
14837KMSN MSN20020921051509309/21/02 05:15:31  5-MIN KMSN 211115Z 28004KT 10SM CLR 13/10 A2984 940 80 1000 280/04 RMK AO2
14837KMSN MSN20020921052009309/21/02 05:20:31  5-MIN KMSN 211120Z VRB03KT 10SM CLR 13/10 A2984 940 80 1000 VRB/03 RMK AO2
14837KMSN MSN20020921052509309/21/02 05:25:31  5-MIN KMSN 211125Z VRB03KT 10SM CLR 13/10 A2984 940 80 1000 VRB/03 RMK AO2
14837KMSN MSN20020921053009309/21/02 05:30:31  5-MIN KMSN 211130Z VRB04KT 10SM CLR 13/10 A2984 940 80 1000 VRB/04 RMK AO2
14837KMSN MSN20020921053509209/21/02 05:35:31  5-MIN KMSN 211135Z 00000KT 10SM CLR 13/10 A2984 940 83 900 000/00 RMK AO2
14837KMSN MSN20020921054009209/21/02 05:40:31  5-MIN KMSN 211140Z VRB03KT 10SM CLR 13/10 A2984 930 83 900 VRB/03 RMK AO2
14837KMSN MSN20020921054509209/21/02 05:45:31  5-MIN KMSN 211145Z 26003KT 10SM CLR 13/10 A2985 930 83 900 260/03 RMK AO2
14837KMSN MSN20020921055013309/21/02 05:50:31  5-MIN KMSN 211150Z 00000KT 10SM CLR 13/11 A2985 930 86 900 000/00 RMK AO2 SLP108 70024 T01280106 10167 20128 53020
14837KMSN MSN20020921055509209/21/02 05:55:31  5-MIN KMSN 211155Z 00000KT 10SM CLR 13/11 A2986 920 86 900 000/00 RMK AO2
14837KMSN MSN20020921060009209/21/02 06:00:31  5-MIN KMSN 211200Z 00000KT 10SM CLR 13/11 A2986 920 86 900 000/00 RMK AO2
14837KMSN MSN20020921060509209/21/02 06:05:31  5-MIN KMSN 211205Z 29003KT 10SM CLR 13/11 A2986 920 86 900 290/03 RMK AO2
14837KMSN MSN20020921061009209/21/02 06:10:31  5-MIN KMSN 211210Z 29003KT 10SM CLR 13/11 A2986 920 86 900 290/03 RMK AO2
14837KMSN MSN20020921061509209/21/02 06:15:31  5-MIN KMSN 211215Z VRB04KT 10SM CLR 13/11 A2987 910 86 900 VRB/04 RMK AO2
14837KMSN MSN20020921062009209/21/02 06:20:31  5-MIN KMSN 211220Z 28004KT 10SM CLR 13/11 A2987 910 86 900 280/04 RMK AO2
14837KMSN MSN20020921062509309/21/02 06:25:31  5-MIN KMSN 211225Z 29005KT 10SM CLR 13/11 A2987 910 83 1000 290/05 RMK AO2
14837KMSN MSN20020921063009309/21/02 06:30:31  5-MIN KMSN 211230Z 29005KT 10SM CLR 13/11 A2988 910 83 1000 290/05 RMK AO2
14837KMSN MSN20020921063509309/21/02 06:35:31  5-MIN KMSN 211235Z 29004KT 10SM CLR 13/11 A2988 900 83 1000 290/04 RMK AO2
14837KMSN MSN20020921064009309/21/02 06:40:31  5-MIN KMSN 211240Z 28003KT 10SM CLR 13/11 A2988 900 83 1000 280/03 RMK AO2
14837KMSN MSN20020921064509309/21/02 06:45:31  5-MIN KMSN 211245Z VRB04KT 10SM CLR 14/11 A2988 900 80 1000 VRB/04 RMK AO2
14837KMSN MSN20020921065011009/21/02 06:50:31  5-MIN KMSN 211250Z 00000KT 10SM CLR 14/11 A2988 900 80 1000 000/00 RMK AO2 SLP119 T01390106
14837KMSN MSN20020921065509309/21/02 06:55:31  5-MIN KMSN 211255Z 00000KT 10SM CLR 14/11 A2989 900 83 1000 000/00 RMK AO2
14837KMSN MSN20020921070009309/21/02 07:00:31  5-MIN KMSN 211300Z VRB03KT 10SM CLR 14/11 A2989 890 80 1000 VRB/03 RMK AO2
14837KMSN MSN20020921070509309/21/02 07:05:31  5-MIN KMSN 211305Z 00000KT 10SM CLR 14/11 A2989 890 80 1100 000/00 RMK AO2
14837KMSN MSN20020921071009309/21/02 07:10:31  5-MIN KMSN 211310Z 28003KT 10SM CLR 14/11 A2989 890 77 1100 280/03 RMK AO2
14837KMSN MSN20020921071509309/21/02 07:15:31  5-MIN KMSN 211315Z VRB04KT 10SM CLR 14/11 A2989 890 77 1100 VRB/04 RMK AO2
14837KMSN MSN20020921072009309/21/02 07:20:31  5-MIN KMSN 211320Z VRB03KT 10SM CLR 14/11 A2989 890 77 1100 VRB/03 RMK AO2
14837KMSN MSN20020921072509309/21/02 07:25:31  5-MIN KMSN 211325Z 31004KT 10SM CLR 14/11 A2989 890 77 1100 310/04 RMK AO2
14837KMSN MSN20020921073009309/21/02 07:30:31  5-MIN KMSN 211330Z VRB04KT 10SM CLR 15/11 A2990 890 74 1100 VRB/04 RMK AO2
14837KMSN MSN20020921073509309/21/02 07:35:31  5-MIN KMSN 211335Z 30004KT 10SM CLR 15/11 A2990 880 77 1100 300/04 RMK AO2
14837KMSN MSN20020921074009309/21/02 07:40:31  5-MIN KMSN 211340Z 33004KT 10SM CLR 16/11 A2990 880 74 1200 330/04 RMK AO2
14837KMSN MSN20020921074509309/21/02 07:45:31  5-MIN KMSN 211345Z 31005KT 10SM CLR 16/11 A2991 880 72 1200 310/05 RMK AO2
14837KMSN MSN20020921075012609/21/02 07:50:31  5-MIN KMSN 211350Z 31007KT 290V350 10SM CLR 16/11 A2991 870 72 1200 310/07 290V350 RMK AO2 SLP127 T01560106
14837KMSN MSN20020921075509309/21/02 07:55:31  5-MIN KMSN 211355Z VRB05KT 10SM CLR 16/10 A2991 870 69 1200 VRB/05 RMK AO2
14837KMSN MSN20020921080009309/21/02 08:00:31  5-MIN KMSN 211400Z VRB04KT 10SM CLR 16/09 A2991 870 67 1200 VRB/04 RMK AO2
14837KMSN MSN20020921080509309/21/02 08:05:31  5-MIN KMSN 211405Z 35004KT 10SM CLR 16/09 A2991 870 64 1200 350/04 RMK AO2
14837KMSN MSN20020921081009309/21/02 08:10:31  5-MIN KMSN 211410Z VRB05KT 10SM CLR 16/09 A2992 860 64 1200 VRB/05 RMK AO2
14837KMSN MSN20020921081509309/21/02 08:15:31  5-MIN KMSN 211415Z 30007KT 10SM CLR 16/09 A2992 860 64 1200 300/07 RMK AO2
14837KMSN MSN20020921082009309/21/02 08:20:31  5-MIN KMSN 211420Z 32006KT 10SM CLR 16/09 A2993 860 64 1200 320/06 RMK AO2
14837KMSN MSN20020921082509309/21/02 08:25:31  5-MIN KMSN 211425Z VRB06KT 10SM CLR 17/09 A2993 860 62 1300 VRB/06 RMK AO2
14837KMSN MSN20020921083009309/21/02 08:30:31  5-MIN KMSN 211430Z 32004KT 10SM CLR 17/09 A2992 860 60 1300 320/04 RMK AO2
14837KMSN MSN20020921083509309/21/02 08:35:31  5-MIN KMSN 211435Z 01006KT 10SM CLR 17/09 A2992 860 60 1300 010/06 RMK AO2
14837KMSN MSN20020921084009309/21/02 08:40:31  5-MIN KMSN 211440Z 35005KT 10SM CLR 17/08 A2992 870 57 1300 350/05 RMK AO2
14837KMSN MSN20020921084509309/21/02 08:45:31  5-MIN KMSN 211445Z 31004KT 10SM CLR 17/08 A2992 870 57 1300 310/04 RMK AO2
14837KMSN MSN20020921085011609/21/02 08:50:31  5-MIN KMSN 211450Z 32005KT 10SM CLR 17/08 A2992 870 57 1300 320/05 RMK AO2 SLP130 T01670083 51037
14837KMSN MSN20020921085509309/21/02 08:55:31  5-MIN KMSN 211455Z 33005KT 10SM CLR 17/08 A2992 860 55 1300 330/05 RMK AO2
14837KMSN MSN20020921090009309/21/02 09:00:31  5-MIN KMSN 211500Z 36006KT 10SM CLR 17/08 A2992 870 53 1400 350/06 RMK AO2
14837KMSN MSN20020921090509309/21/02 09:05:31  5-MIN KMSN 211505Z VRB06KT 10SM CLR 17/08 A2992 870 55 1400 VRB/06 RMK AO2
14837KMSN MSN20020921091009309/21/02 09:10:31  5-MIN KMSN 211510Z VRB06KT 10SM CLR 17/08 A2992 870 55 1400 VRB/06 RMK AO2
14837KMSN MSN20020921091509309/21/02 09:15:31  5-MIN KMSN 211515Z VRB06KT 10SM CLR 17/08 A2992 870 53 1400 VRB/06 RMK AO2
14837KMSN MSN20020921092009309/21/02 09:20:31  5-MIN KMSN 211520Z 32006KT 10SM CLR 17/08 A2992 870 53 1400 320/06 RMK AO2
14837KMSN MSN20020921092509309/21/02 09:25:31  5-MIN KMSN 211525Z 33005KT 10SM CLR 17/08 A2992 860 53 1400 330/05 RMK AO2
14837KMSN MSN20020921093009309/21/02 09:30:31  5-MIN KMSN 211530Z 34006KT 10SM CLR 18/08 A2992 860 51 1400 340/06 RMK AO2
14837KMSN MSN20020921093509309/21/02 09:35:31  5-MIN KMSN 211535Z VRB04KT 10SM CLR 18/08 A2992 860 51 1400 VRB/04 RMK AO2
14837KMSN MSN20020921094009309/21/02 09:40:31  5-MIN KMSN 211540Z VRB05KT 10SM CLR 18/07 A2993 860 48 1500 VRB/05 RMK AO2
14837KMSN MSN20020921094509309/21/02 09:45:31  5-MIN KMSN 211545Z 32009KT 10SM CLR 18/07 A2993 850 46 1500 320/09 RMK AO2
14837KMSN MSN20020921095011009/21/02 09:50:31  5-MIN KMSN 211550Z 33008KT 10SM CLR 18/06 A2993 850 46 1400 330/08 RMK AO2 SLP133 T01780061
14837KMSN MSN20020921095509309/21/02 09:55:31  5-MIN KMSN 211555Z 35007KT 10SM CLR 18/06 A2993 850 42 1500 350/07 RMK AO2
14837KMSN MSN20020921100009309/21/02 10:00:31  5-MIN KMSN 211600Z 01009KT 10SM CLR 18/06 A2993 850 44 1500 360/09 RMK AO2
14837KMSN MSN20020921100509309/21/02 10:05:31  5-MIN KMSN 211605Z 34007KT 10SM CLR 18/06 A2993 850 44 1500 340/07 RMK AO2
14837KMSN MSN20020921101009309/21/02 10:10:31  5-MIN KMSN 211610Z 35005KT 10SM CLR 18/06 A2993 850 44 1500 350/05 RMK AO2
14837KMSN MSN20020921101509309/21/02 10:15:31  5-MIN KMSN 211615Z VRB06KT 10SM CLR 19/06 A2994 850 43 1500 VRB/06 RMK AO2
14837KMSN MSN20020921102009309/21/02 10:20:31  5-MIN KMSN 211620Z 32006KT 10SM CLR 19/06 A2994 850 41 1500 320/06 RMK AO2
14837KMSN MSN20020921102509309/21/02 10:25:31  5-MIN KMSN 211625Z 34007KT 10SM CLR 19/06 A2994 850 41 1500 340/07 RMK AO2
14837KMSN MSN20020921103009309/21/02 10:30:31  5-MIN KMSN 211630Z 34007KT 10SM CLR 19/06 A2994 850 41 1500 340/07 RMK AO2
14837KMSN MSN20020921103509309/21/02 10:35:31  5-MIN KMSN 211635Z VRB06KT 10SM CLR 19/05 A2994 850 39 1500 VRB/06 RMK AO2
14837KMSN MSN20020921104009309/21/02 10:40:31  5-MIN KMSN 211640Z VRB04KT 10SM CLR 19/04 A2994 850 38 1500 VRB/04 RMK AO2
14837KMSN MSN20020921104509309/21/02 10:45:31  5-MIN KMSN 211645Z 34006KT 10SM CLR 19/06 A2993 850 41 1500 340/06 RMK AO2
14837KMSN MSN20020921105011009/21/02 10:50:31  5-MIN KMSN 211650Z VRB04KT 10SM CLR 19/05 A2993 850 39 1500 VRB/04 RMK AO2 SLP134 T01890050
14837KMSN MSN20020921105509309/21/02 10:55:31  5-MIN KMSN 211655Z VRB03KT 10SM CLR 19/06 A2993 850 43 1500 VRB/03 RMK AO2
14837KMSN MSN20020921110009309/21/02 11:00:31  5-MIN KMSN 211700Z VRB04KT 10SM CLR 19/06 A2993 850 41 1600 VRB/04 RMK AO2
14837KMSN MSN20020921110509309/21/02 11:05:31  5-MIN KMSN 211705Z VRB05KT 10SM CLR 19/05 A2994 850 39 1500 VRB/05 RMK AO2
14837KMSN MSN20020921111009309/21/02 11:10:31  5-MIN KMSN 211710Z 34005KT 10SM CLR 19/05 A2994 850 39 1500 340/05 RMK AO2
14837KMSN MSN20020921111509309/21/02 11:15:31  5-MIN KMSN 211715Z 30006KT 10SM CLR 19/06 A2994 850 40 1600 300/06 RMK AO2
14837KMSN MSN20020921112009309/21/02 11:20:31  5-MIN KMSN 211720Z VRB05KT 10SM CLR 19/05 A2994 850 38 1600 VRB/05 RMK AO2
14837KMSN MSN20020921112509309/21/02 11:25:31  5-MIN KMSN 211725Z 33006KT 10SM CLR 19/05 A2995 840 38 1600 330/06 RMK AO2
14837KMSN MSN20020921113009309/21/02 11:30:31  5-MIN KMSN 211730Z VRB05KT 10SM CLR 20/04 A2994 840 35 1700 VRB/05 RMK AO2
14837KMSN MSN20020921113509309/21/02 11:35:31  5-MIN KMSN 211735Z VRB04KT 10SM CLR 20/05 A2994 840 37 1700 VRB/04 RMK AO2
14837KMSN MSN20020921114009309/21/02 11:40:31  5-MIN KMSN 211740Z 28006KT 10SM CLR 19/04 A2995 840 35 1600 280/06 RMK AO2
14837KMSN MSN20020921114509309/21/02 11:45:31  5-MIN KMSN 211745Z VRB06KT 10SM CLR 19/04 A2995 840 35 1600 VRB/06 RMK AO2
14837KMSN MSN20020921115013109/21/02 11:50:31  5-MIN KMSN 211750Z VRB05KT 10SM FEW095 20/06 A2995 840 38 1700 VRB/05 RMK AO2 SLP140 T02000056 10200 20128 51021
14837KMSN MSN20020921115509609/21/02 11:55:31  5-MIN KMSN 211755Z 34005KT 10SM FEW095 20/06 A2995 840 40 1700 330/05 RMK AO2
14837KMSN MSN20020921120009609/21/02 12:00:31  5-MIN KMSN 211800Z 31008KT 10SM SCT095 20/06 A2995 840 38 1700 300/08 RMK AO2
14837KMSN MSN20020921120509609/21/02 12:05:31  5-MIN KMSN 211805Z 30007KT 10SM SCT100 20/06 A2995 830 38 1700 300/07 RMK AO2
14837KMSN MSN20020921121009609/21/02 12:10:31  5-MIN KMSN 211810Z VRB05KT 10SM BKN100 20/06 A2995 840 38 1700 VRB/05 RMK AO2
14837KMSN MSN20020921121511209/21/02 12:15:31  5-MIN KMSN 211815Z 31007KT 270V340 10SM BKN100 20/05 A2995 840 37 1700 310/07 270V340 RMK AO2
14837KMSN MSN20020921122011209/21/02 12:20:31  5-MIN KMSN 211820Z 29008KT 270V340 10SM SCT100 21/06 A2995 840 37 1700 290/08 270V340 RMK AO2
14837KMSN MSN20020921122509609/21/02 12:25:31  5-MIN KMSN 211825Z VRB06KT 10SM SCT100 20/06 A2995 840 38 1700 VRB/06 RMK AO2
14837KMSN MSN20020921123011209/21/02 12:30:31  5-MIN KMSN 211830Z 32009KT 300V010 10SM FEW100 21/06 A2994 840 37 1700 320/09 300V010 RMK AO2
14837KMSN MSN20020921123509609/21/02 12:35:31  5-MIN KMSN 211835Z 32010KT 10SM FEW100 21/06 A2994 840 37 1700 320/10 RMK AO2
14837KMSN MSN20020921124011509/21/02 12:40:31  5-MIN KMSN 211840Z 30009G15KT 270V330 10SM CLR 21/06 A2994 840 38 1700 300/09G15 270V330 RMK AO2
14837KMSN MSN20020921124509909/21/02 12:45:31  5-MIN KMSN 211845Z 32007G15KT 10SM CLR 21/06 A2995 840 37 1700 310/07G15 RMK AO2
14837KMSN MSN20020921125011309/21/02 12:50:31  5-MIN KMSN 211850Z 32010KT 10SM FEW100 21/06 A2995 840 37 1700 320/10 RMK AO2 SLP138 T02060056
14837KMSN MSN20020921125509309/21/02 12:55:31  5-MIN KMSN 211855Z 32012KT 10SM CLR 19/05 A2995 840 39 1500 320/12 RMK AO2
14837KMSN MSN20020921130009309/21/02 13:00:31  5-MIN KMSN 211900Z 32010KT 10SM CLR 19/05 A2995 840 39 1500 320/10 RMK AO2
14837KMSN MSN20020921130509609/21/02 13:05:31  5-MIN KMSN 211905Z 32008KT 10SM FEW100 18/06 A2995 840 42 1500 320/08 RMK AO2
14837KMSN MSN20020921131009609/21/02 13:10:31  5-MIN KMSN 211910Z 31006KT 10SM FEW100 18/05 A2995 840 41 1500 310/06 RMK AO2
14837KMSN MSN20020921131509609/21/02 13:15:31  5-MIN KMSN 211915Z 30008KT 10SM FEW100 19/05 A2995 830 39 1500 300/08 RMK AO2
14837KMSN MSN20020921132009609/21/02 13:20:31  5-MIN KMSN 211920Z 32008KT 10SM FEW100 19/05 A2995 830 39 1500 320/08 RMK AO2
14837KMSN MSN20020921132509609/21/02 13:25:31  5-MIN KMSN 211925Z 34007KT 10SM FEW100 19/06 A2995 840 40 1600 340/07 RMK AO2
14837KMSN MSN20020921133009609/21/02 13:30:31  5-MIN KMSN 211930Z 31007KT 10SM FEW100 19/05 A2995 830 39 1500 310/07 RMK AO2
14837KMSN MSN20020921133509609/21/02 13:35:31  5-MIN KMSN 211935Z 33007KT 10SM FEW100 19/05 A2995 830 39 1500 330/07 RMK AO2
14837KMSN MSN20020921134011209/21/02 13:40:31  5-MIN KMSN 211940Z 31008KT 280V350 10SM FEW100 19/04 A2996 830 38 1500 310/08 280V350 RMK AO2
14837KMSN MSN20020921134510209/21/02 13:45:31  5-MIN KMSN 211945Z 32011G14KT 10SM FEW100 19/04 A2996 830 36 1500 320/11G14 RMK AO2
14837KMSN MSN20020921135011909/21/02 13:50:31  5-MIN KMSN 211950Z 31009G14KT 10SM FEW100 19/04 A2996 830 36 1500 310/09G14 RMK AO2 SLP143 T01890039
14837KMSN MSN20020921135509309/21/02 13:55:31  5-MIN KMSN 211955Z 31008KT 10SM CLR 19/04 A2996 830 38 1500 310/08 RMK AO2
14837KMSN MSN20020921140009309/21/02 14:00:31  5-MIN KMSN 212000Z 31006KT 10SM CLR 19/05 A2996 830 39 1500 310/06 RMK AO2
14837KMSN MSN20020921140509309/21/02 14:05:31  5-MIN KMSN 212005Z 34007KT 10SM CLR 19/04 A2996 830 38 1500 330/07 RMK AO2
14837KMSN MSN20020921141009309/21/02 14:10:31  5-MIN KMSN 212010Z 33006KT 10SM CLR 19/04 A2996 830 38 1500 330/06 RMK AO2
14837KMSN MSN20020921141509309/21/02 14:15:31  5-MIN KMSN 212015Z 30008KT 10SM CLR 19/05 A2996 830 39 1500 300/08 RMK AO2
14837KMSN MSN20020921142009309/21/02 14:20:31  5-MIN KMSN 212020Z 32006KT 10SM CLR 19/04 A2996 830 36 1500 320/06 RMK AO2
14837KMSN MSN20020921142509309/21/02 14:25:31  5-MIN KMSN 212025Z 34005KT 10SM CLR 19/04 A2996 830 37 1600 330/05 RMK AO2
14837KMSN MSN20020921143009309/21/02 14:30:31  5-MIN KMSN 212030Z 36009KT 10SM CLR 19/04 A2996 830 37 1600 360/09 RMK AO2
14837KMSN MSN20020921143509309/21/02 14:35:31  5-MIN KMSN 212035Z VRB05KT 10SM CLR 19/05 A2995 830 39 1500 VRB/05 RMK AO2
14837KMSN MSN20020921144009309/21/02 14:40:31  5-MIN KMSN 212040Z 31005KT 10SM CLR 19/04 A2995 840 38 1500 310/05 RMK AO2
14837KMSN MSN20020921144509309/21/02 14:45:31  5-MIN KMSN 212045Z 32005KT 10SM CLR 19/04 A2995 840 38 1500 320/05 RMK AO2
14837KMSN MSN20020921145011609/21/02 14:50:31  5-MIN KMSN 212050Z 33008KT 10SM CLR 19/04 A2995 840 37 1600 330/08 RMK AO2 SLP140 T01940044 53010
14837KMSN MSN20020921145509309/21/02 14:55:31  5-MIN KMSN 212055Z 33006KT 10SM CLR 19/05 A2995 830 38 1600 330/06 RMK AO2
14837KMSN MSN20020921150009309/21/02 15:00:31  5-MIN KMSN 212100Z 34008KT 10SM CLR 19/04 A2996 830 38 1500 340/08 RMK AO2
14837KMSN MSN20020921150509309/21/02 15:05:31  5-MIN KMSN 212105Z 34009KT 10SM CLR 18/04 A2996 830 39 1500 340/09 RMK AO2
14837KMSN MSN20020921151009309/21/02 15:10:31  5-MIN KMSN 212110Z 33008KT 10SM CLR 18/04 A2996 830 39 1400 330/08 RMK AO2
14837KMSN MSN20020921151509309/21/02 15:15:31  5-MIN KMSN 212115Z 34007KT 10SM CLR 18/04 A2996 830 39 1400 340/07 RMK AO2
14837KMSN MSN20020921152009609/21/02 15:20:31  5-MIN KMSN 212120Z 34006KT 10SM FEW100 18/04 A2996 830 41 1400 340/06 RMK AO2
14837KMSN MSN20020921152509609/21/02 15:25:31  5-MIN KMSN 212125Z 33006KT 10SM FEW100 18/04 A2996 830 41 1400 330/06 RMK AO2
14837KMSN MSN20020921153009609/21/02 15:30:31  5-MIN KMSN 212130Z 33007KT 10SM FEW100 18/04 A2996 820 41 1400 330/07 RMK AO2
14837KMSN MSN20020921153509609/21/02 15:35:31  5-MIN KMSN 212135Z 34006KT 10SM FEW100 17/04 A2997 820 42 1300 340/06 RMK AO2
14837KMSN MSN20020921154011209/21/02 15:40:31  5-MIN KMSN 212140Z 32010KT 10SM -RA FEW100 17/05 A2997 820 44 1300 320/10 RMK AO2 RAB40 P0000
14837KMSN MSN20020921154511209/21/02 15:45:31  5-MIN KMSN 212145Z 33008KT 10SM -RA FEW100 17/06 A2998 810 47 1200 330/08 RMK AO2 RAB40 P0000
14837KMSN MSN20020921155012909/21/02 15:50:31  5-MIN KMSN 212150Z 33008KT 10SM -RA FEW100 17/06 A2998 810 47 1200 330/08 RMK AO2 RAB40 SLP153 P0000 T01670056
14837KMSN MSN20020921155511309/21/02 15:55:31  5-MIN KMSN 212155Z 32008KT 10SM -RA FEW095 16/06 A2999 800 51 1200 320/08 RMK AO2 PRESRR P0000
14837KMSN MSN20020921160011309/21/02 16:00:31  5-MIN KMSN 212200Z 32008KT 10SM -RA FEW100 16/06 A3000 790 49 1100 320/08 RMK AO2 PRESRR P0000
14837KMSN MSN20020921160510609/21/02 16:05:31  5-MIN KMSN 212205Z 32007KT 10SM -RA FEW095 16/06 A3000 790 51 1100 320/07 RMK AO2 P0000
14837KMSN MSN20020921161010609/21/02 16:10:31  5-MIN KMSN 212210Z 32010KT 10SM -RA FEW095 16/06 A3000 790 51 1100 320/10 RMK AO2 P0000
14837KMSN MSN20020921161510609/21/02 16:15:31  5-MIN KMSN 212215Z 32008KT 10SM -RA SCT095 16/06 A3001 780 51 1100 320/08 RMK AO2 P0000
14837KMSN MSN20020921162010609/21/02 16:20:31  5-MIN KMSN 212220Z 32008KT 10SM -RA SCT095 16/06 A3001 780 51 1100 310/08 RMK AO2 P0000
14837KMSN MSN20020921162510609/21/02 16:25:31  5-MIN KMSN 212225Z 33008KT 10SM -RA SCT095 15/06 A3001 780 53 1000 330/08 RMK AO2 P0000
14837KMSN MSN20020921163010609/21/02 16:30:31  5-MIN KMSN 212230Z 33007KT 10SM -RA SCT095 15/06 A3001 780 53 1000 330/07 RMK AO2 P0000
14837KMSN MSN20020921163510809/21/02 16:35:31  5-MIN KMSN 212235Z 33007KT 10SM SCT100 15/06 A3001 780 55 1000 330/07 RMK AO2 RAE35 P0000
14837KMSN MSN20020921164010809/21/02 16:40:31  5-MIN KMSN 212240Z 32006KT 10SM BKN095 15/06 A3002 780 53 1000 320/06 RMK AO2 RAE35 P0000
14837KMSN MSN20020921164511209/21/02 16:45:31  5-MIN KMSN 212245Z 31009G14KT 10SM -RA BKN090 15/06 A3002 770 53 1000 310/09G14 RMK AO2 P0000
14837KMSN MSN20020921165012809/21/02 16:50:31  5-MIN KMSN 212250Z 33008G14KT 10SM -RA BKN095 14/06 A3002 770 55 900 330/08G14 RMK AO2 SLP166 P0000 T01440056
14837KMSN MSN20020921165511209/21/02 16:55:31  5-MIN KMSN 212255Z 33006KT 10SM -RA FEW060 BKN095 14/05 A3002 770 53 900 330/06 RMK AO2 P0000
14837KMSN MSN20020921170010509/21/02 17:00:31  5-MIN KMSN 212300Z 33005KT 10SM -RA BKN095 14/06 A3002 770 55 900 330/05 RMK AO2 P0000
14837KMSN MSN20020921170510509/21/02 17:05:31  5-MIN KMSN 212305Z 32005KT 10SM -RA SCT095 14/06 A3002 770 57 900 320/05 RMK AO2 P0000
14837KMSN MSN20020921171011409/21/02 17:10:31  5-MIN KMSN 212310Z 32005KT 10SM FEW095 SCT120 14/06 A3002 770 57 900 320/05 RMK AO2 RAE08 P0000
14837KMSN MSN20020921171511409/21/02 17:15:31  5-MIN KMSN 212315Z 32006KT 10SM FEW100 SCT120 14/06 A3003 770 57 900 320/06 RMK AO2 RAE08 P0000
14837KMSN MSN20020921172011409/21/02 17:20:31  5-MIN KMSN 212320Z 33006KT 10SM FEW100 SCT120 14/06 A3002 770 57 900 320/06 RMK AO2 RAE08 P0000
14837KMSN MSN20020921172511409/21/02 17:25:31  5-MIN KMSN 212325Z 32006KT 10SM SCT100 SCT120 14/06 A3003 770 57 900 310/06 RMK AO2 RAE08 P0000
14837KMSN MSN20020921173012109/21/02 17:30:31  5-MIN KMSN 212330Z 32007KT 10SM -RA SCT100 BKN120 14/06 A3002 770 59 900 320/07 RMK AO2 RAE08B28 P0000
14837KMSN MSN20020921173512109/21/02 17:35:31  5-MIN KMSN 212335Z 32005KT 10SM -RA SCT100 BKN120 13/06 A3003 760 61 800 320/05 RMK AO2 RAE08B28 P0000
14837KMSN MSN20020921174012009/21/02 17:40:31  5-MIN KMSN 212340Z 32006KT 10SM BKN100 BKN120 13/06 A3003 760 61 800 320/06 RMK AO2 RAE08B28E40 P0000
14837KMSN MSN20020921174512109/21/02 17:45:31  5-MIN KMSN 212345Z 31005KT 10SM -RA SCT100 BKN120 13/07 A3003 760 64 800 310/05 RMK AO2 RAE08B28 P0000
14837KMSN MSN20020921175016109/21/02 17:50:31  5-MIN KMSN 212350Z 32006KT 10SM BKN100 BKN120 14/06 A3003 760 59 800 320/06 RMK AO2 RAE08B28E48 SLP171 P0000 60000 T01390061 10206 20133 50000
14837KMSN MSN20020921175509509/21/02 17:55:31  5-MIN KMSN 212355Z 31006KT 10SM BKN100 14/06 A3003 760 59 800 310/06 RMK AO2
14837KMSN MSN20020921180009509/21/02 18:00:31  5-MIN KMSN 220000Z 31005KT 10SM BKN095 14/06 A3003 760 57 800 310/05 RMK AO2
14837KMSN MSN20020921180509509/21/02 18:05:31  5-MIN KMSN 220005Z VRB03KT 10SM BKN090 14/06 A3003 770 57 900 VRB/03 RMK AO2
14837KMSN MSN20020921181009509/21/02 18:10:31  5-MIN KMSN 220010Z 31004KT 10SM OVC090 14/06 A3003 760 57 900 310/04 RMK AO2
14837KMSN MSN20020921181509509/21/02 18:15:31  5-MIN KMSN 220015Z 00000KT 10SM OVC090 14/06 A3003 760 59 900 000/00 RMK AO2
14837KMSN MSN20020921182009509/21/02 18:20:31  5-MIN KMSN 220020Z 31004KT 10SM OVC090 14/06 A3003 760 59 800 310/04 RMK AO2
14837KMSN MSN20020921182509509/21/02 18:25:31  5-MIN KMSN 220025Z 31003KT 10SM OVC090 14/06 A3003 760 59 800 310/03 RMK AO2
14837KMSN MSN20020921183009509/21/02 18:30:31  5-MIN KMSN 220030Z 30004KT 10SM OVC090 13/06 A3004 760 61 800 300/04 RMK AO2
14837KMSN MSN20020921183509509/21/02 18:35:31  5-MIN KMSN 220035Z 30004KT 10SM OVC090 14/06 A3003 760 59 800 300/04 RMK AO2
14837KMSN MSN20020921184009509/21/02 18:40:31  5-MIN KMSN 220040Z 30004KT 10SM OVC090 14/06 A3003 760 57 800 300/04 RMK AO2
14837KMSN MSN20020921184509509/21/02 18:45:31  5-MIN KMSN 220045Z 30004KT 10SM OVC090 13/06 A3004 760 59 800 300/04 RMK AO2
14837KMSN MSN20020921185011209/21/02 18:50:31  5-MIN KMSN 220050Z 29004KT 10SM OVC090 13/06 A3003 760 59 800 290/04 RMK AO2 SLP171 T01330056
14837KMSN MSN20020921185509509/21/02 18:55:31  5-MIN KMSN 220055Z 28003KT 10SM OVC090 13/06 A3004 760 59 800 280/03 RMK AO2
14837KMSN MSN20020921190009509/21/02 19:00:31  5-MIN KMSN 220100Z 27003KT 10SM OVC090 13/06 A3004 760 59 800 270/03 RMK AO2
14837KMSN MSN20020921190509509/21/02 19:05:31  5-MIN KMSN 220105Z 29003KT 10SM OVC095 13/06 A3004 760 59 800 290/03 RMK AO2
14837KMSN MSN20020921191009509/21/02 19:10:31  5-MIN KMSN 220110Z 30004KT 10SM OVC090 13/06 A3003 760 59 800 300/04 RMK AO2
14837KMSN MSN20020921191509509/21/02 19:15:31  5-MIN KMSN 220115Z 29003KT 10SM OVC095 13/06 A3003 760 59 800 290/03 RMK AO2
14837KMSN MSN20020921192009509/21/02 19:20:31  5-MIN KMSN 220120Z 28003KT 10SM OVC095 13/05 A3003 760 57 800 280/03 RMK AO2
14837KMSN MSN20020921192509509/21/02 19:25:31  5-MIN KMSN 220125Z 28003KT 10SM OVC090 13/06 A3003 760 59 800 280/03 RMK AO2
14837KMSN MSN20020921193009509/21/02 19:30:31  5-MIN KMSN 220130Z 00000KT 10SM OVC090 13/06 A3003 760 59 800 000/00 RMK AO2
14837KMSN MSN20020921193509509/21/02 19:35:31  5-MIN KMSN 220135Z 29003KT 10SM OVC090 13/06 A3003 760 59 800 290/03 RMK AO2
14837KMSN MSN20020921194009509/21/02 19:40:31  5-MIN KMSN 220140Z 28003KT 10SM OVC090 13/06 A3003 760 63 700 280/03 RMK AO2
14837KMSN MSN20020921194509509/21/02 19:45:31  5-MIN KMSN 220145Z 00000KT 10SM OVC095 13/06 A3003 760 61 700 000/00 RMK AO2
14837KMSN MSN20020921195011209/21/02 19:50:31  5-MIN KMSN 220150Z 00000KT 10SM OVC095 13/06 A3004 760 61 700 000/00 RMK AO2 SLP172 T01280056
14837KMSN MSN20020921195509509/21/02 19:55:31  5-MIN KMSN 220155Z 00000KT 10SM OVC095 13/06 A3004 760 59 800 000/00 RMK AO2
14837KMSN MSN20020921200009509/21/02 20:00:31  5-MIN KMSN 220200Z 30003KT 10SM OVC095 13/06 A3004 760 61 700 300/03 RMK AO2
14837KMSN MSN20020921200509509/21/02 20:05:31  5-MIN KMSN 220205Z 00000KT 10SM OVC095 13/06 A3004 760 63 700 000/00 RMK AO2
14837KMSN MSN20020921201009509/21/02 20:10:31  5-MIN KMSN 220210Z 30003KT 10SM OVC095 13/06 A3004 750 63 700 300/03 RMK AO2
14837KMSN MSN20020921201510209/21/02 20:15:31  5-MIN KMSN 220215Z 30004KT 10SM BKN095 OVC110 13/06 A3004 750 63 700 300/04 RMK AO2
14837KMSN MSN20020921202010209/21/02 20:20:31  5-MIN KMSN 220220Z 29005KT 10SM BKN095 OVC120 13/06 A3004 750 61 700 290/05 RMK AO2
14837KMSN MSN20020921202510209/21/02 20:25:31  5-MIN KMSN 220225Z 29004KT 10SM BKN095 OVC120 13/06 A3005 750 61 700 290/04 RMK AO2
14837KMSN MSN20020921203010209/21/02 20:30:31  5-MIN KMSN 220230Z 29004KT 10SM SCT095 OVC120 13/06 A3005 750 61 700 290/04 RMK AO2
14837KMSN MSN20020921203510209/21/02 20:35:31  5-MIN KMSN 220235Z 30005KT 10SM FEW095 OVC120 13/06 A3005 750 63 700 300/05 RMK AO2
14837KMSN MSN20020921204010909/21/02 20:40:31  5-MIN KMSN 220240Z 29005KT 10SM FEW100 OVC120 13/06 A3005 740 61 700 290/05 RMK AO2 BINOVC
14837KMSN MSN20020921204510209/21/02 20:45:31  5-MIN KMSN 220245Z 29005KT 10SM OVC120 13/06 A3005 740 63 700 290/05 RMK AO2 BINOVC
14837KMSN MSN20020921205012509/21/02 20:50:31  5-MIN KMSN 220250Z 29005KT 10SM OVC120 12/06 A3005 740 66 600 290/05 RMK AO2 SLP177 BINOVC T01220061 51026
14837KMSN MSN20020921205509509/21/02 20:55:31  5-MIN KMSN 220255Z 29005KT 10SM BKN120 12/06 A3005 750 66 600 290/05 RMK AO2
14837KMSN MSN20020921210009509/21/02 21:00:31  5-MIN KMSN 220300Z 30005KT 10SM BKN120 12/06 A3005 740 63 600 300/05 RMK AO2
14837KMSN MSN20020921210509509/21/02 21:05:31  5-MIN KMSN 220305Z VRB05KT 10SM SCT120 12/06 A3006 740 66 600 VRB/05 RMK AO2
14837KMSN MSN20020921211009509/21/02 21:10:31  5-MIN KMSN 220310Z 29006KT 10SM SCT120 12/06 A3006 740 66 600 290/06 RMK AO2
14837KMSN MSN20020921211509509/21/02 21:15:31  5-MIN KMSN 220315Z VRB05KT 10SM SCT120 12/06 A3006 740 66 600 VRB/05 RMK AO2
14837KMSN MSN20020921212009509/21/02 21:20:31  5-MIN KMSN 220320Z 29006KT 10SM SCT120 12/06 A3006 740 68 600 290/06 RMK AO2
14837KMSN MSN20020921212509509/21/02 21:25:31  5-MIN KMSN 220325Z 29006KT 10SM SCT120 12/06 A3006 740 68 600 290/06 RMK AO2
14837KMSN MSN20020921213009509/21/02 21:30:31  5-MIN KMSN 220330Z 29005KT 10SM SCT120 12/06 A3006 740 66 600 290/05 RMK AO2
14837KMSN MSN20020921213509509/21/02 21:35:31  5-MIN KMSN 220335Z 29005KT 10SM SCT120 12/06 A3006 740 68 600 290/05 RMK AO2
14837KMSN MSN20020921214009509/21/02 21:40:31  5-MIN KMSN 220340Z 30005KT 10SM SCT120 12/06 A3006 740 66 600 300/05 RMK AO2
14837KMSN MSN20020921214509509/21/02 21:45:31  5-MIN KMSN 220345Z VRB05KT 10SM SCT120 12/06 A3005 740 66 600 VRB/05 RMK AO2
14837KMSN MSN20020921215011209/21/02 21:50:31  5-MIN KMSN 220350Z 29006KT 10SM SCT120 12/06 A3006 740 66 600 290/06 RMK AO2 SLP178 T01170056
14837KMSN MSN20020921215509209/21/02 21:55:31  5-MIN KMSN 220355Z 29006KT 10SM CLR 12/06 A3006 740 66 600 290/06 RMK AO2
14837KMSN MSN20020921220009509/21/02 22:00:31  5-MIN KMSN 220400Z 29006KT 10SM BKN120 12/06 A3006 730 66 500 290/06 RMK AO2
14837KMSN MSN20020921220509509/21/02 22:05:31  5-MIN KMSN 220405Z 29007KT 10SM BKN120 12/06 A3006 730 66 600 290/07 RMK AO2
14837KMSN MSN20020921221009509/21/02 22:10:31  5-MIN KMSN 220410Z 29005KT 10SM BKN120 12/06 A3006 740 68 600 290/05 RMK AO2
14837KMSN MSN20020921221509509/21/02 22:15:31  5-MIN KMSN 220415Z 29006KT 10SM BKN120 12/06 A3006 740 68 600 290/06 RMK AO2
14837KMSN MSN20020921222009509/21/02 22:20:31  5-MIN KMSN 220420Z 29007KT 10SM BKN120 12/06 A3006 740 68 600 290/07 RMK AO2
14837KMSN MSN20020921222509509/21/02 22:25:31  5-MIN KMSN 220425Z 29008KT 10SM BKN120 12/06 A3006 740 68 600 290/08 RMK AO2
14837KMSN MSN20020921223009509/21/02 22:30:31  5-MIN KMSN 220430Z 29007KT 10SM BKN120 12/06 A3006 740 68 600 290/07 RMK AO2
14837KMSN MSN20020921223509509/21/02 22:35:31  5-MIN KMSN 220435Z 29006KT 10SM BKN120 12/06 A3006 740 68 600 290/06 RMK AO2
14837KMSN MSN20020921224009209/21/02 22:40:31  5-MIN KMSN 220440Z 29005KT 10SM CLR 12/06 A3006 730 68 500 290/05 RMK AO2
14837KMSN MSN20020921224509209/21/02 22:45:31  5-MIN KMSN 220445Z 29006KT 10SM CLR 12/06 A3006 730 68 600 290/06 RMK AO2
14837KMSN MSN20020921225010909/21/02 22:50:31  5-MIN KMSN 220450Z 28005KT 10SM CLR 11/06 A3007 730 71 500 280/05 RMK AO2 SLP181 T01110061
14837KMSN MSN20020921225509209/21/02 22:55:31  5-MIN KMSN 220455Z VRB05KT 10SM CLR 11/06 A3006 730 71 500 VRB/05 RMK AO2
14837KMSN MSN20020921230009209/21/02 23:00:31  5-MIN KMSN 220500Z VRB04KT 10SM CLR 11/06 A3006 730 68 500 VRB/04 RMK AO2
14837KMSN MSN20020921230509209/21/02 23:05:31  5-MIN KMSN 220505Z VRB04KT 10SM CLR 11/06 A3006 730 68 500 VRB/04 RMK AO2
14837KMSN MSN20020921231009209/21/02 23:10:31  5-MIN KMSN 220510Z 28005KT 10SM CLR 11/06 A3006 740 68 500 280/05 RMK AO2
14837KMSN MSN20020921231509209/21/02 23:15:31  5-MIN KMSN 220515Z VRB04KT 10SM CLR 11/06 A3006 740 68 500 VRB/04 RMK AO2
14837KMSN MSN20020921232009209/21/02 23:20:31  5-MIN KMSN 220520Z 28004KT 10SM CLR 11/06 A3006 730 68 500 280/04 RMK AO2
14837KMSN MSN20020921232509209/21/02 23:25:31  5-MIN KMSN 220525Z 28003KT 10SM CLR 11/06 A3006 730 71 500 270/03 RMK AO2
14837KMSN MSN20020921233009209/21/02 23:30:31  5-MIN KMSN 220530Z VRB03KT 10SM CLR 11/06 A3007 730 71 500 VRB/03 RMK AO2
14837KMSN MSN20020921233509209/21/02 23:35:31  5-MIN KMSN 220535Z 31004KT 10SM CLR 11/06 A3006 730 71 500 300/04 RMK AO2
14837KMSN MSN20020921234009209/21/02 23:40:31  5-MIN KMSN 220540Z VRB05KT 10SM CLR 11/06 A3006 730 71 500 VRB/05 RMK AO2
14837KMSN MSN20020921234509209/21/02 23:45:31  5-MIN KMSN 220545Z VRB03KT 10SM CLR 11/06 A3006 730 71 500 VRB/03 RMK AO2
14837KMSN MSN20020921235013709/21/02 23:50:31  5-MIN KMSN 220550Z 29004KT 10SM CLR 11/06 A3006 730 71 500 290/04 RMK AO2 SLP180 T01110061 10139 20111 402060111 53005
14837KMSN MSN20020921235509209/21/02 23:55:31  5-MIN KMSN 220555Z VRB03KT 10SM CLR 11/06 A3006 730 71 500 VRB/03 RMK AO2
14837KMSN MSN20020922000009209/22/02 00:00:31  5-MIN KMSN 220600Z VRB05KT 10SM CLR 11/06 A3006 730 71 500 VRB/05 RMK AO2
14837KMSN MSN20020922000509209/22/02 00:05:31  5-MIN KMSN 220605Z VRB04KT 10SM CLR 11/06 A3006 740 71 500 VRB/04 RMK AO2
14837KMSN MSN20020922001009209/22/02 00:10:31  5-MIN KMSN 220610Z VRB04KT 10SM CLR 11/06 A3006 730 71 500 VRB/04 RMK AO2
14837KMSN MSN20020922001509209/22/02 00:15:31  5-MIN KMSN 220615Z 30004KT 10SM CLR 11/06 A3007 730 68 500 290/04 RMK AO2
14837KMSN MSN20020922002009509/22/02 00:20:31  5-MIN KMSN 220620Z VRB05KT 10SM FEW110 11/06 A3007 730 68 500 VRB/05 RMK AO2
14837KMSN MSN20020922002509509/22/02 00:25:31  5-MIN KMSN 220625Z 29004KT 10SM SCT110 11/06 A3007 720 68 500 290/04 RMK AO2
14837KMSN MSN20020922003009509/22/02 00:30:31  5-MIN KMSN 220630Z 29004KT 10SM SCT110 11/06 A3007 720 68 500 290/04 RMK AO2
14837KMSN MSN20020922003509509/22/02 00:35:31  5-MIN KMSN 220635Z 30005KT 10SM SCT110 11/06 A3007 730 68 500 300/05 RMK AO2
14837KMSN MSN20020922004009509/22/02 00:40:31  5-MIN KMSN 220640Z 29004KT 10SM SCT110 11/06 A3007 730 71 500 290/04 RMK AO2
14837KMSN MSN20020922004509509/22/02 00:45:31  5-MIN KMSN 220645Z VRB04KT 10SM SCT110 11/06 A3007 730 71 500 VRB/04 RMK AO2
14837KMSN MSN20020922005011209/22/02 00:50:31  5-MIN KMSN 220650Z VRB03KT 10SM SCT110 11/06 A3007 730 71 500 VRB/03 RMK AO2 SLP180 T01110061
14837KMSN MSN20020922005509509/22/02 00:55:31  5-MIN KMSN 220655Z VRB05KT 10SM SCT110 11/06 A3007 730 71 500 VRB/05 RMK AO2
14837KMSN MSN20020922010009509/22/02 01:00:31  5-MIN KMSN 220700Z VRB04KT 10SM BKN110 11/06 A3007 730 71 500 VRB/04 RMK AO2
14837KMSN MSN20020922010509509/22/02 01:05:31  5-MIN KMSN 220705Z 00000KT 10SM BKN110 11/06 A3007 730 71 500 000/00 RMK AO2
14837KMSN MSN20020922011009509/22/02 01:10:31  5-MIN KMSN 220710Z VRB03KT 10SM BKN110 11/06 A3007 730 71 500 VRB/03 RMK AO2
14837KMSN MSN20020922011509509/22/02 01:15:31  5-MIN KMSN 220715Z VRB03KT 10SM BKN110 11/06 A3006 730 71 500 VRB/03 RMK AO2
14837KMSN MSN20020922012009509/22/02 01:20:31  5-MIN KMSN 220720Z 00000KT 10SM SCT110 11/06 A3007 730 71 500 000/00 RMK AO2
14837KMSN MSN20020922012509509/22/02 01:25:31  5-MIN KMSN 220725Z 00000KT 10SM SCT110 11/06 A3007 730 71 500 000/00 RMK AO2
14837KMSN MSN20020922013009509/22/02 01:30:31  5-MIN KMSN 220730Z 00000KT 10SM SCT110 11/07 A3007 720 74 500 000/00 RMK AO2
14837KMSN MSN20020922013509509/22/02 01:35:31  5-MIN KMSN 220735Z VRB03KT 10SM SCT110 11/07 A3007 720 74 500 VRB/03 RMK AO2
14837KMSN MSN20020922014009509/22/02 01:40:31  5-MIN KMSN 220740Z VRB03KT 10SM SCT110 11/07 A3008 720 74 500 VRB/03 RMK AO2
14837KMSN MSN20020922014509509/22/02 01:45:31  5-MIN KMSN 220745Z VRB04KT 10SM BKN100 11/07 A3008 720 74 500 VRB/04 RMK AO2
14837KMSN MSN20020922015011209/22/02 01:50:31  5-MIN KMSN 220750Z 00000KT 10SM BKN100 11/07 A3008 720 74 500 000/00 RMK AO2 SLP185 T01110067
14837KMSN MSN20020922015509509/22/02 01:55:31  5-MIN KMSN 220755Z 00000KT 10SM BKN100 11/07 A3008 720 74 500 000/00 RMK AO2
14837KMSN MSN20020922020009509/22/02 02:00:31  5-MIN KMSN 220800Z 22003KT 10SM BKN100 11/07 A3008 720 74 500 220/03 RMK AO2
14837KMSN MSN20020922020509509/22/02 02:05:31  5-MIN KMSN 220805Z 00000KT 10SM BKN110 11/07 A3008 720 77 500 000/00 RMK AO2
14837KMSN MSN20020922021009509/22/02 02:10:31  5-MIN KMSN 220810Z VRB03KT 10SM BKN110 11/07 A3007 730 77 500 VRB/03 RMK AO2
14837KMSN MSN20020922021509509/22/02 02:15:31  5-MIN KMSN 220815Z 00000KT 10SM BKN100 11/07 A3007 730 77 500 000/00 RMK AO2
14837KMSN MSN20020922022009509/22/02 02:20:31  5-MIN KMSN 220820Z 00000KT 10SM BKN100 11/07 A3007 730 77 500 000/00 RMK AO2
14837KMSN MSN20020922022509509/22/02 02:25:31  5-MIN KMSN 220825Z 00000KT 10SM BKN100 11/07 A3008 720 77 500 000/00 RMK AO2
14837KMSN MSN20020922023010209/22/02 02:30:31  5-MIN KMSN 220830Z 22004KT 10SM BKN095 OVC110 11/07 A3009 710 77 500 220/04 RMK AO2
14837KMSN MSN20020922023510209/22/02 02:35:31  5-MIN KMSN 220835Z VRB04KT 10SM BKN090 OVC110 11/07 A3008 710 77 500 VRB/04 RMK AO2
14837KMSN MSN20020922024010209/22/02 02:40:31  5-MIN KMSN 220840Z 00000KT 10SM BKN090 OVC110 11/07 A3009 710 77 500 000/00 RMK AO2
14837KMSN MSN20020922024510209/22/02 02:45:31  5-MIN KMSN 220845Z 25003KT 10SM SCT090 OVC110 11/07 A3009 710 77 400 250/03 RMK AO2
14837KMSN MSN20020922025012509/22/02 02:50:31  5-MIN KMSN 220850Z 00000KT 10SM SCT090 OVC110 11/07 A3009 710 77 400 000/00 RMK AO2 SLP190 T01110072 50005
14837KMSN MSN20020922025510209/22/02 02:55:31  5-MIN KMSN 220855Z 00000KT 10SM SCT085 BKN110 11/07 A3008 720 77 500 000/00 RMK AO2
14837KMSN MSN20020922030010209/22/02 03:00:31  5-MIN KMSN 220900Z 00000KT 10SM FEW080 BKN110 11/07 A3007 720 77 500 000/00 RMK AO2
14837KMSN MSN20020922030509509/22/02 03:05:31  5-MIN KMSN 220905Z 00000KT 10SM SCT110 11/07 A3007 720 77 500 000/00 RMK AO2
14837KMSN MSN20020922031009509/22/02 03:10:31  5-MIN KMSN 220910Z 00000KT 10SM FEW110 11/07 A3007 730 77 500 000/00 RMK AO2
14837KMSN MSN20020922031509509/22/02 03:15:31  5-MIN KMSN 220915Z 00000KT 10SM FEW110 11/07 A3007 730 77 500 000/00 RMK AO2
14837KMSN MSN20020922032009509/22/02 03:20:31  5-MIN KMSN 220920Z 00000KT 10SM FEW110 11/07 A3007 730 80 400 000/00 RMK AO2
14837KMSN MSN20020922032509509/22/02 03:25:31  5-MIN KMSN 220925Z 00000KT 10SM FEW120 11/07 A3008 720 80 400 000/00 RMK AO2
14837KMSN MSN20020922033009209/22/02 03:30:31  5-MIN KMSN 220930Z 00000KT 10SM CLR 11/07 A3007 730 80 400 000/00 RMK AO2
14837KMSN MSN20020922033509209/22/02 03:35:31  5-MIN KMSN 220935Z 00000KT 10SM CLR 11/07 A3007 730 80 400 000/00 RMK AO2
14837KMSN MSN20020922034009509/22/02 03:40:31  5-MIN KMSN 220940Z 00000KT 10SM FEW120 11/07 A3007 730 80 400 000/00 RMK AO2
14837KMSN MSN20020922034509509/22/02 03:45:31  5-MIN KMSN 220945Z 00000KT 10SM FEW120 11/07 A3007 730 80 400 000/00 RMK AO2
14837KMSN MSN20020922035010909/22/02 03:50:31  5-MIN KMSN 220950Z 24003KT 10SM CLR 11/07 A3008 720 80 400 240/03 RMK AO2 SLP186 T01060072
14837KMSN MSN20020922035509209/22/02 03:55:31  5-MIN KMSN 220955Z 00000KT 10SM CLR 11/07 A3007 720 80 400 000/00 RMK AO2
14837KMSN MSN20020922040009209/22/02 04:00:31  5-MIN KMSN 221000Z 00000KT 10SM CLR 11/07 A3007 730 80 400 000/00 RMK AO2
14837KMSN MSN20020922040509209/22/02 04:05:31  5-MIN KMSN 221005Z VRB03KT 10SM CLR 11/07 A3008 720 80 400 VRB/03 RMK AO2
14837KMSN MSN20020922041009209/22/02 04:10:31  5-MIN KMSN 221010Z 00000KT 10SM CLR 11/07 A3007 730 80 400 000/00 RMK AO2
14837KMSN MSN20020922041509209/22/02 04:15:31  5-MIN KMSN 221015Z 00000KT 10SM CLR 11/07 A3008 720 80 400 000/00 RMK AO2
14837KMSN MSN20020922042009209/22/02 04:20:31  5-MIN KMSN 221020Z VRB03KT 10SM CLR 11/07 A3007 730 80 400 VRB/03 RMK AO2
14837KMSN MSN20020922042509209/22/02 04:25:31  5-MIN KMSN 221025Z 00000KT 10SM CLR 11/07 A3006 730 80 400 000/00 RMK AO2
14837KMSN MSN20020922043009209/22/02 04:30:31  5-MIN KMSN 221030Z VRB04KT 10SM CLR 11/07 A3008 720 80 400 VRB/04 RMK AO2
14837KMSN MSN20020922043509209/22/02 04:35:31  5-MIN KMSN 221035Z 30004KT 10SM CLR 10/07 A3008 720 83 300 300/04 RMK AO2
14837KMSN MSN20020922044009209/22/02 04:40:31  5-MIN KMSN 221040Z VRB03KT 10SM CLR 10/07 A3008 720 83 300 VRB/03 RMK AO2
14837KMSN MSN20020922044509209/22/02 04:45:31  5-MIN KMSN 221045Z VRB04KT 10SM CLR 10/07 A3008 720 83 300 VRB/04 RMK AO2
14837KMSN MSN20020922045010909/22/02 04:50:31  5-MIN KMSN 221050Z 27003KT 10SM CLR 10/07 A3009 710 83 300 270/03 RMK AO2 SLP191 T01000072
14837KMSN MSN20020922045509209/22/02 04:55:31  5-MIN KMSN 221055Z 00000KT 10SM CLR 10/07 A3008 720 83 300 000/00 RMK AO2
14837KMSN MSN20020922050009209/22/02 05:00:31  5-MIN KMSN 221100Z 27004KT 10SM CLR 10/07 A3008 720 83 300 270/04 RMK AO2
14837KMSN MSN20020922050509209/22/02 05:05:31  5-MIN KMSN 221105Z VRB04KT 10SM CLR 10/07 A3008 720 83 300 VRB/04 RMK AO2
14837KMSN MSN20020922051009209/22/02 05:10:31  5-MIN KMSN 221110Z 29003KT 10SM CLR 10/07 A3008 720 83 300 290/03 RMK AO2
14837KMSN MSN20020922051509209/22/02 05:15:31  5-MIN KMSN 221115Z VRB03KT 10SM CLR 09/07 A3008 720 86 300 VRB/03 RMK AO2
14837KMSN MSN20020922052009209/22/02 05:20:31  5-MIN KMSN 221120Z VRB03KT 10SM CLR 09/07 A3008 720 86 300 VRB/03 RMK AO2
14837KMSN MSN20020922052509209/22/02 05:25:31  5-MIN KMSN 221125Z 27003KT 10SM CLR 10/07 A3008 710 83 300 270/03 RMK AO2
14837KMSN MSN20020922053009209/22/02 05:30:31  5-MIN KMSN 221130Z 29004KT 10SM CLR 09/07 A3008 720 86 300 290/04 RMK AO2
14837KMSN MSN20020922053509209/22/02 05:35:31  5-MIN KMSN 221135Z 29003KT 10SM CLR 09/07 A3008 720 86 300 280/03 RMK AO2
14837KMSN MSN20020922054009209/22/02 05:40:31  5-MIN KMSN 221140Z VRB03KT 10SM CLR 09/07 A3009 710 86 300 VRB/03 RMK AO2
14837KMSN MSN20020922054509209/22/02 05:45:31  5-MIN KMSN 221145Z 00000KT 10SM CLR 09/07 A3008 710 86 300 000/00 RMK AO2
14837KMSN MSN20020922055012709/22/02 05:50:31  5-MIN KMSN 221150Z 00000KT 10SM CLR 09/07 A3009 710 86 300 000/00 RMK AO2 SLP190 T00940072 10111 20094 53007
14837KMSN MSN20020922055509209/22/02 05:55:31  5-MIN KMSN 221155Z 00000KT 10SM CLR 09/07 A3008 710 86 300 000/00 RMK AO2
14837KMSN MSN20020922060009209/22/02 06:00:31  5-MIN KMSN 221200Z 00000KT 10SM CLR 09/07 A3009 710 86 300 000/00 RMK AO2
14837KMSN MSN20020922060509209/22/02 06:05:31  5-MIN KMSN 221205Z 00000KT 10SM CLR 09/07 A3009 710 89 200 000/00 RMK AO2
14837KMSN MSN20020922061009209/22/02 06:10:31  5-MIN KMSN 221210Z 28003KT 10SM CLR 09/07 A3009 710 86 200 280/03 RMK AO2
14837KMSN MSN20020922061509209/22/02 06:15:31  5-MIN KMSN 221215Z 29003KT 10SM CLR 09/07 A3009 710 86 200 290/03 RMK AO2
14837KMSN MSN20020922062009209/22/02 06:20:31  5-MIN KMSN 221220Z 00000KT 10SM CLR 09/07 A3009 710 86 200 000/00 RMK AO2
14837KMSN MSN20020922062509209/22/02 06:25:31  5-MIN KMSN 221225Z 00000KT 10SM CLR 09/07 A3009 710 89 200 000/00 RMK AO2
14837KMSN MSN20020922063009209/22/02 06:30:31  5-MIN KMSN 221230Z 00000KT 10SM CLR 09/07 A3009 710 86 200 000/00 RMK AO2
14837KMSN MSN20020922063509209/22/02 06:35:31  5-MIN KMSN 221235Z 27003KT 10SM CLR 08/07 A3009 710 89 100 270/03 RMK AO2
14837KMSN MSN20020922064009209/22/02 06:40:31  5-MIN KMSN 221240Z 27003KT 10SM CLR 09/07 A3009 710 86 200 270/03 RMK AO2
14837KMSN MSN20020922064509209/22/02 06:45:31  5-MIN KMSN 221245Z 27003KT 10SM CLR 09/07 A3009 710 89 200 270/03 RMK AO2
14837KMSN MSN20020922065010909/22/02 06:50:31  5-MIN KMSN 221250Z 29003KT 10SM CLR 08/07 A3009 710 89 100 290/03 RMK AO2 SLP192 T00830067
14837KMSN MSN20020922065509209/22/02 06:55:31  5-MIN KMSN 221255Z 29004KT 10SM CLR 08/07 A3009 710 89 100 290/04 RMK AO2
14837KMSN MSN20020922070009209/22/02 07:00:31  5-MIN KMSN 221300Z 29004KT 10SM CLR 09/07 A3009 700 86 200 290/04 RMK AO2
14837KMSN MSN20020922070509209/22/02 07:05:31  5-MIN KMSN 221305Z 29003KT 10SM CLR 09/07 A3009 710 86 200 290/03 RMK AO2
14837KMSN MSN20020922071009209/22/02 07:10:31  5-MIN KMSN 221310Z 29006KT 10SM CLR 09/07 A3009 710 86 300 290/06 RMK AO2
14837KMSN MSN20020922071509209/22/02 07:15:31  5-MIN KMSN 221315Z 28006KT 10SM CLR 10/07 A3009 710 83 300 280/06 RMK AO2
14837KMSN MSN20020922072009209/22/02 07:20:31  5-MIN KMSN 221320Z 28008KT 10SM CLR 10/07 A3009 710 83 300 280/08 RMK AO2
14837KMSN MSN20020922072509209/22/02 07:25:31  5-MIN KMSN 221325Z 30007KT 10SM CLR 10/07 A3009 710 83 300 300/07 RMK AO2
14837KMSN MSN20020922073009209/22/02 07:30:31  5-MIN KMSN 221330Z 29007KT 10SM CLR 11/07 A3009 710 80 400 290/07 RMK AO2
14837KMSN MSN20020922073509209/22/02 07:35:31  5-MIN KMSN 221335Z 29006KT 10SM CLR 11/07 A3009 700 80 400 290/06 RMK AO2
14837KMSN MSN20020922074009209/22/02 07:40:31  5-MIN KMSN 221340Z 29006KT 10SM CLR 11/07 A3010 700 80 400 280/06 RMK AO2
14837KMSN MSN20020922074509209/22/02 07:45:31  5-MIN KMSN 221345Z VRB06KT 10SM CLR 11/07 A3009 700 77 400 VRB/06 RMK AO2
14837KMSN MSN20020922075011209/22/02 07:50:31  5-MIN KMSN 221350Z 29006KT 10SM FEW080 12/07 A3009 700 74 500 290/06 RMK AO2 SLP192 T01170072
14837KMSN MSN20020922075509509/22/02 07:55:31  5-MIN KMSN 221355Z 30006KT 10SM SCT080 12/07 A3009 700 74 500 300/06 RMK AO2
14837KMSN MSN20020922080009509/22/02 08:00:31  5-MIN KMSN 221400Z 29008KT 10SM SCT080 12/07 A3009 700 71 500 290/08 RMK AO2
14837KMSN MSN20020922080509509/22/02 08:05:31  5-MIN KMSN 221405Z 30007KT 10SM FEW080 12/07 A3009 710 68 600 300/07 RMK AO2
14837KMSN MSN20020922081009509/22/02 08:10:31  5-MIN KMSN 221410Z 29007KT 10SM FEW080 12/07 A3009 700 68 600 290/07 RMK AO2
14837KMSN MSN20020922081509509/22/02 08:15:31  5-MIN KMSN 221415Z VRB06KT 10SM FEW080 13/07 A3009 710 66 600 VRB/06 RMK AO2
14837KMSN MSN20020922082009509/22/02 08:20:31  5-MIN KMSN 221420Z 28006KT 10SM FEW080 13/06 A3009 710 63 600 280/06 RMK AO2
14837KMSN MSN20020922082509209/22/02 08:25:31  5-MIN KMSN 221425Z 26006KT 10SM CLR 13/06 A3009 700 63 600 260/06 RMK AO2
14837KMSN MSN20020922083009209/22/02 08:30:31  5-MIN KMSN 221430Z VRB05KT 10SM CLR 13/06 A3010 700 63 600 VRB/05 RMK AO2
14837KMSN MSN20020922083509209/22/02 08:35:31  5-MIN KMSN 221435Z 30008KT 10SM CLR 13/06 A3010 700 59 700 300/08 RMK AO2
14837KMSN MSN20020922084009209/22/02 08:40:31  5-MIN KMSN 221440Z 30008KT 10SM CLR 13/05 A3010 700 57 700 300/08 RMK AO2
14837KMSN MSN20020922084509209/22/02 08:45:31  5-MIN KMSN 221445Z VRB06KT 10SM CLR 14/05 A3010 700 55 800 VRB/06 RMK AO2
14837KMSN MSN20020922085011809/22/02 08:50:31  5-MIN KMSN 221450Z 30009KT 10SM FEW080 14/04 A3010 700 52 800 300/09 RMK AO2 SLP193 T01390044 53001
14837KMSN MSN20020922085510809/22/02 08:55:31  5-MIN KMSN 221455Z 30008KT 270V340 10SM CLR 14/03 A3010 700 48 800 290/08 270V340 RMK AO2
14837KMSN MSN20020922090009209/22/02 09:00:31  5-MIN KMSN 221500Z VRB06KT 10SM CLR 14/04 A3010 700 49 800 VRB/06 RMK AO2
14837KMSN MSN20020922090509209/22/02 09:05:31  5-MIN KMSN 221505Z 31009KT 10SM CLR 14/04 A3010 700 49 800 310/09 RMK AO2
14837KMSN MSN20020922091009809/22/02 09:10:31  5-MIN KMSN 221510Z 30008G15KT 10SM CLR 14/03 A3010 700 45 800 300/08G15 RMK AO2
14837KMSN MSN20020922091509809/22/02 09:15:31  5-MIN KMSN 221515Z 31008G15KT 10SM CLR 14/03 A3010 700 47 800 310/08G15 RMK AO2
14837KMSN MSN20020922092010809/22/02 09:20:31  5-MIN KMSN 221520Z 28007KT 250V310 10SM CLR 14/03 A3010 700 47 800 280/07 250V310 RMK AO2
14837KMSN MSN20020922092509209/22/02 09:25:31  5-MIN KMSN 221525Z 29008KT 10SM CLR 14/03 A3010 700 47 800 290/08 RMK AO2
14837KMSN MSN20020922093009209/22/02 09:30:31  5-MIN KMSN 221530Z 28007KT 10SM CLR 14/03 A3010 700 45 800 280/07 RMK AO2
14837KMSN MSN20020922093510809/22/02 09:35:31  5-MIN KMSN 221535Z 30008KT 260V330 10SM CLR 14/03 A3010 700 45 800 300/08 260V330 RMK AO2
14837KMSN MSN20020922094010809/22/02 09:40:31  5-MIN KMSN 221540Z 27007KT 230V290 10SM CLR 15/04 A3010 700 47 900 270/07 230V290 RMK AO2
14837KMSN MSN20020922094509509/22/02 09:45:31  5-MIN KMSN 221545Z 30008KT 10SM FEW065 15/03 A3010 700 45 900 300/08 RMK AO2
14837KMSN MSN20020922095013409/22/02 09:50:31  5-MIN KMSN 221550Z 30008G15KT 260V330 10SM FEW065 15/03 A3010 700 45 900 300/08G15 260V330 RMK AO2 SLP193 T01500033
14837KMSN MSN20020922095509809/22/02 09:55:31  5-MIN KMSN 221555Z 29010G15KT 10SM CLR 15/03 A3010 700 45 900 290/10G15 RMK AO2
14837KMSN MSN20020922100011209/22/02 10:00:31  5-MIN KMSN 221600Z 31007KT 270V350 10SM FEW050 16/04 A3010 700 45 1000 310/07 270V350 RMK AO2
14837KMSN MSN20020922100511209/22/02 10:05:31  5-MIN KMSN 221605Z 28010KT 240V320 10SM FEW050 16/04 A3010 700 45 1000 280/10 240V320 RMK AO2
14837KMSN MSN20020922101010209/22/02 10:10:31  5-MIN KMSN 221610Z 27009G15KT 10SM FEW050 16/03 A3010 700 43 1000 270/09G15 RMK AO2
14837KMSN MSN20020922101510109/22/02 10:15:31  5-MIN KMSN 221615Z 27010G16KT 10SM FEW050 15/02 A3010 700 42 900 270/10G16 RMK AO2
14837KMSN MSN20020922102010209/22/02 10:20:31  5-MIN KMSN 221620Z 29009G16KT 10SM FEW050 16/03 A3010 700 42 1000 290/09G16 RMK AO2
14837KMSN MSN20020922102510109/22/02 10:25:31  5-MIN KMSN 221625Z 29009G15KT 10SM FEW050 15/03 A3010 700 43 900 290/09G15 RMK AO2
14837KMSN MSN20020922103009809/22/02 10:30:31  5-MIN KMSN 221630Z 30013G17KT 10SM CLR 15/02 A3010 700 40 900 300/13G17 RMK AO2
14837KMSN MSN20020922103510109/22/02 10:35:31  5-MIN KMSN 221635Z 30013G18KT 10SM FEW060 15/02 A3010 700 40 900 300/13G18 RMK AO2
14837KMSN MSN20020922104011709/22/02 10:40:31  5-MIN KMSN 221640Z 29009G18KT 250V310 10SM FEW060 15/02 A3010 700 42 900 280/09G18 250V310 RMK AO2
14837KMSN MSN20020922104509509/22/02 10:45:31  5-MIN KMSN 221645Z 28008KT 10SM FEW060 15/02 A3009 700 42 900 280/08 RMK AO2
14837KMSN MSN20020922105011909/22/02 10:50:31  5-MIN KMSN 221650Z 29009G15KT 10SM BKN060 16/03 A3009 710 42 1000 290/09G15 RMK AO2 SLP191 T01560028
14837KMSN MSN20020922105510209/22/02 10:55:31  5-MIN KMSN 221655Z 30007G15KT 10SM SCT055 16/03 A3009 710 42 1000 290/07G15 RMK AO2
14837KMSN MSN20020922110009609/22/02 11:00:31  5-MIN KMSN 221700Z 27008KT 10SM BKN055 16/03 A3009 710 42 1000 270/08 RMK AO2
14837KMSN MSN20020922110510209/22/02 11:05:31  5-MIN KMSN 221705Z 26013G19KT 10SM BKN060 16/02 A3009 710 39 1000 260/13G19 RMK AO2
14837KMSN MSN20020922111010209/22/02 11:10:31  5-MIN KMSN 221710Z 25010G19KT 10SM BKN060 16/02 A3008 710 39 1000 250/10G19 RMK AO2
14837KMSN MSN20020922111511809/22/02 11:15:31  5-MIN KMSN 221715Z 27009G17KT 240V310 10SM SCT055 16/02 A3008 710 39 1100 270/09G17 240V310 RMK AO2
14837KMSN MSN20020922112011809/22/02 11:20:31  5-MIN KMSN 221720Z 29009G17KT 250V310 10SM SCT060 16/02 A3008 710 40 1000 290/09G17 250V310 RMK AO2
14837KMSN MSN20020922112510209/22/02 11:25:31  5-MIN KMSN 221725Z 30008G16KT 10SM SCT060 16/02 A3008 720 39 1100 300/08G16 RMK AO2
14837KMSN MSN20020922113010209/22/02 11:30:31  5-MIN KMSN 221730Z 30011G18KT 10SM SCT060 16/02 A3008 720 39 1100 300/11G18 RMK AO2
14837KMSN MSN20020922113511809/22/02 11:35:31  5-MIN KMSN 221735Z 30009G18KT 210V320 10SM SCT060 16/03 A3008 720 40 1100 300/09G18 210V320 RMK AO2
14837KMSN MSN20020922114011209/22/02 11:40:31  5-MIN KMSN 221740Z 24009KT 210V290 10SM SCT060 16/03 A3008 720 40 1100 240/09 210V290 RMK AO2
14837KMSN MSN20020922114511809/22/02 11:45:31  5-MIN KMSN 221745Z 28008G15KT 250V330 10SM SCT060 16/02 A3007 720 40 1000 280/08G15 250V330 RMK AO2
14837KMSN MSN20020922115015309/22/02 11:50:31  5-MIN KMSN 221750Z 29011G15KT 250V310 10SM BKN060 16/02 A3008 720 39 1100 280/11G15 250V310 RMK AO2 SLP185 T01610022 10161 20083 53004
14837KMSN MSN20020922115511809/22/02 11:55:31  5-MIN KMSN 221755Z 28008G16KT 260V320 10SM SCT060 16/02 A3007 720 39 1100 280/08G16 260V320 RMK AO2
14837KMSN MSN20020922120011809/22/02 12:00:31  5-MIN KMSN 221800Z 27008G16KT 240V330 10SM FEW060 17/02 A3007 720 37 1100 270/08G16 240V330 RMK AO2
14837KMSN MSN20020922120511809/22/02 12:05:31  5-MIN KMSN 221805Z 30007G17KT 270V020 10SM FEW060 16/02 A3007 720 37 1100 300/07G17 270V020 RMK AO2
14837KMSN MSN20020922121011809/22/02 12:10:31  5-MIN KMSN 221810Z 30007G17KT 260V340 10SM SCT060 17/02 A3007 720 37 1100 300/07G17 260V340 RMK AO2
14837KMSN MSN20020922121510209/22/02 12:15:31  5-MIN KMSN 221815Z 28013G20KT 10SM SCT065 16/02 A3008 720 39 1100 280/13G20 RMK AO2
14837KMSN MSN20020922122011809/22/02 12:20:31  5-MIN KMSN 221820Z 27010G20KT 240V310 10SM FEW065 16/02 A3007 720 39 1100 270/10G20 240V310 RMK AO2
14837KMSN MSN20020922122509509/22/02 12:25:31  5-MIN KMSN 221825Z 25009KT 10SM SCT065 15/01 A3007 720 38 900 250/09 RMK AO2
14837KMSN MSN20020922123011809/22/02 12:30:31  5-MIN KMSN 221830Z 27008G16KT 230V300 10SM BKN065 16/02 A3007 730 39 1100 270/08G16 230V300 RMK AO2
14837KMSN MSN20020922123511809/22/02 12:35:31  5-MIN KMSN 221835Z 25008G17KT 210V290 10SM BKN065 17/03 A3007 730 39 1100 250/08G17 210V290 RMK AO2
14837KMSN MSN20020922124010209/22/02 12:40:31  5-MIN KMSN 221840Z 27008G17KT 10SM BKN060 17/02 A3007 730 37 1100 270/08G17 RMK AO2
14837KMSN MSN20020922124510209/22/02 12:45:31  5-MIN KMSN 221845Z 29010G16KT 10SM BKN070 16/02 A3007 730 37 1100 290/10G16 RMK AO2
14837KMSN MSN20020922125011309/22/02 12:50:31  5-MIN KMSN 221850Z 29010KT 10SM BKN065 16/02 A3007 720 40 1000 290/10 RMK AO2 SLP184 T01560022
14837KMSN MSN20020922125510909/22/02 12:55:31  5-MIN KMSN 221855Z 29012G16KT 10SM BKN065 BKN075 16/02 A3007 720 39 1000 290/12G16 RMK AO2
14837KMSN MSN20020922130010109/22/02 13:00:31  5-MIN KMSN 221900Z 28012G17KT 10SM BKN070 15/02 A3007 730 40 900 280/12G17 RMK AO2
14837KMSN MSN20020922130510109/22/02 13:05:31  5-MIN KMSN 221905Z 29008G17KT 10SM SCT070 15/02 A3007 720 40 900 290/08G17 RMK AO2
14837KMSN MSN20020922131012509/22/02 13:10:31  5-MIN KMSN 221910Z 26008G16KT 210V320 10SM SCT060 BKN075 16/03 A3007 730 40 1100 260/08G16 210V320 RMK AO2
14837KMSN MSN20020922131510209/22/02 13:15:31  5-MIN KMSN 221915Z 30010G15KT 10SM BKN060 16/03 A3007 730 40 1100 300/10G15 RMK AO2
14837KMSN MSN20020922132011809/22/02 13:20:31  5-MIN KMSN 221920Z 29014G19KT 260V320 10SM BKN060 16/02 A3007 730 39 1100 290/14G19 260V320 RMK AO2
14837KMSN MSN20020922132511809/22/02 13:25:31  5-MIN KMSN 221925Z 27013G19KT 210V300 10SM SCT060 16/01 A3007 730 36 1100 270/13G19 210V300 RMK AO2
14837KMSN MSN20020922133010209/22/02 13:30:31  5-MIN KMSN 221930Z 28014G20KT 10SM SCT060 16/01 A3007 730 36 1100 270/14G20 RMK AO2
14837KMSN MSN20020922133510109/22/02 13:35:31  5-MIN KMSN 221935Z 27009G20KT 10SM SCT065 15/01 A3007 720 37 900 270/09G20 RMK AO2
14837KMSN MSN20020922134010809/22/02 13:40:31  5-MIN KMSN 221940Z 26011G16KT 10SM SCT070 SCT080 15/01 A3007 720 38 900 260/11G16 RMK AO2
14837KMSN MSN20020922134512409/22/02 13:45:31  5-MIN KMSN 221945Z 27010G16KT 230V310 10SM SCT070 BKN080 15/01 A3007 720 38 900 270/10G16 230V310 RMK AO2
14837KMSN MSN20020922135014209/22/02 13:50:31  5-MIN KMSN 221950Z 28013G19KT 250V310 10SM SCT070 BKN080 16/01 A3007 720 37 1000 280/13G19 250V310 RMK AO2 SLP185 T01560011
14837KMSN MSN20020922135511809/22/02 13:55:31  5-MIN KMSN 221955Z 28013G19KT 240V300 10SM BKN070 16/01 A3007 720 37 1000 280/13G19 240V300 RMK AO2
14837KMSN MSN20020922140011709/22/02 14:00:31  5-MIN KMSN 222000Z 27010G16KT 230V300 10SM BKN070 15/01 A3007 720 38 900 270/10G16 230V300 RMK AO2
14837KMSN MSN20020922140509509/22/02 14:05:31  5-MIN KMSN 222005Z 27008KT 10SM BKN070 15/01 A3008 720 38 900 270/08 RMK AO2
14837KMSN MSN20020922141010109/22/02 14:10:31  5-MIN KMSN 222010Z 27009G14KT 10SM SCT075 15/02 A3008 720 40 900 270/09G14 RMK AO2
14837KMSN MSN20020922141510109/22/02 14:15:31  5-MIN KMSN 222015Z 29011G14KT 10SM BKN070 15/02 A3008 720 42 900 290/11G14 RMK AO2
14837KMSN MSN20020922142011709/22/02 14:20:31  5-MIN KMSN 222020Z 29010G18KT 270V330 10SM BKN070 15/02 A3007 720 40 900 290/10G18 270V330 RMK AO2
14837KMSN MSN20020922142510109/22/02 14:25:31  5-MIN KMSN 222025Z 27009G18KT 10SM BKN070 14/02 A3007 720 41 900 270/09G18 RMK AO2
14837KMSN MSN20020922143009509/22/02 14:30:31  5-MIN KMSN 222030Z 27009KT 10SM SCT070 15/02 A3007 720 40 900 270/09 RMK AO2
14837KMSN MSN20020922143511809/22/02 14:35:31  5-MIN KMSN 222035Z 27011G18KT 230V290 10SM FEW070 16/01 A3007 730 37 1000 260/11G18 230V290 RMK AO2
14837KMSN MSN20020922144010209/22/02 14:40:31  5-MIN KMSN 222040Z 27011G18KT 10SM SCT070 16/01 A3007 730 37 1000 260/11G18 RMK AO2
14837KMSN MSN20020922144511809/22/02 14:45:31  5-MIN KMSN 222045Z 29013G20KT 250V310 10SM BKN070 16/01 A3007 720 36 1100 290/13G20 250V310 RMK AO2
14837KMSN MSN20020922145012509/22/02 14:50:31  5-MIN KMSN 222050Z 27010G20KT 10SM BKN070 16/01 A3007 730 36 1100 270/10G20 RMK AO2 SLP184 T01610011 58008
14837KMSN MSN20020922145510209/22/02 14:55:31  5-MIN KMSN 222055Z 27011G19KT 10SM BKN070 16/01 A3008 720 34 1100 270/11G19 RMK AO2
14837KMSN MSN20020922150011809/22/02 15:00:31  5-MIN KMSN 222100Z 28008G19KT 240V310 10SM BKN065 16/01 A3008 720 36 1100 280/08G19 240V310 RMK AO2
14837KMSN MSN20020922150510209/22/02 15:05:31  5-MIN KMSN 222105Z 29011G20KT 10SM BKN065 16/01 A3008 720 36 1100 280/11G20 RMK AO2
14837KMSN MSN20020922151010209/22/02 15:10:31  5-MIN KMSN 222110Z 30013G20KT 10SM OVC070 16/01 A3008 720 37 1000 290/13G20 RMK AO2
14837KMSN MSN20020922151510109/22/02 15:15:31  5-MIN KMSN 222115Z 30011G19KT 10SM OVC070 15/01 A3008 720 38 900 300/11G19 RMK AO2
14837KMSN MSN20020922152010209/22/02 15:20:31  5-MIN KMSN 222120Z 30011G16KT 10SM OVC065 16/01 A3008 710 37 1000 300/11G16 RMK AO2
14837KMSN MSN20020922152511809/22/02 15:25:31  5-MIN KMSN 222125Z 29011G16KT 260V330 10SM BKN065 16/01 A3008 710 37 1000 290/11G16 260V330 RMK AO2
14837KMSN MSN20020922153010209/22/02 15:30:31  5-MIN KMSN 222130Z 30010G16KT 10SM BKN065 16/02 A3009 710 39 1000 300/10G16 RMK AO2
14837KMSN MSN20020922153510109/22/02 15:35:31  5-MIN KMSN 222135Z 30012G17KT 10SM BKN065 15/01 A3009 710 38 900 300/12G17 RMK AO2
14837KMSN MSN20020922154010109/22/02 15:40:31  5-MIN KMSN 222140Z 28010G17KT 10SM BKN065 14/01 A3009 710 40 800 280/10G17 RMK AO2
14837KMSN MSN20020922154510109/22/02 15:45:31  5-MIN KMSN 222145Z 29009G17KT 10SM SCT065 15/01 A3009 710 38 900 290/09G17 RMK AO2
14837KMSN MSN20020922155011809/22/02 15:50:31  5-MIN KMSN 222150Z 28013G19KT 10SM SCT065 15/01 A3009 710 37 900 280/13G19 RMK AO2 SLP191 T01500006
14837KMSN MSN20020922155511709/22/02 15:55:31  5-MIN KMSN 222155Z 27011G19KT 240V310 10SM SCT070 15/00 A3009 710 35 900 270/11G19 240V310 RMK AO2
14837KMSN MSN20020922160010109/22/02 16:00:31  5-MIN KMSN 222200Z 28010G16KT 10SM SCT070 15/01 A3009 700 37 900 270/10G16 RMK AO2
14837KMSN MSN20020922160509509/22/02 16:05:31  5-MIN KMSN 222205Z 28009KT 10SM SCT070 15/01 A3009 700 37 900 280/09 RMK AO2
14837KMSN MSN20020922161009509/22/02 16:10:31  5-MIN KMSN 222210Z 28009KT 10SM SCT070 15/01 A3009 700 37 900 280/09 RMK AO2
14837KMSN MSN20020922161510109/22/02 16:15:31  5-MIN KMSN 222215Z 28008G16KT 10SM SCT070 15/01 A3009 700 37 900 280/08G16 RMK AO2
14837KMSN MSN20020922162010109/22/02 16:20:31  5-MIN KMSN 222220Z 29008G16KT 10SM SCT070 15/01 A3009 700 38 900 290/08G16 RMK AO2
14837KMSN MSN20020922162509509/22/02 16:25:31  5-MIN KMSN 222225Z 28006KT 10SM SCT070 15/01 A3009 710 38 900 280/06 RMK AO2
14837KMSN MSN20020922163011109/22/02 16:30:31  5-MIN KMSN 222230Z 28007KT 250V320 10SM SCT070 15/01 A3009 700 38 900 270/07 250V320 RMK AO2
14837KMSN MSN20020922163510109/22/02 16:35:31  5-MIN KMSN 222235Z 28009G16KT 10SM SCT070 14/01 A3010 700 38 800 280/09G16 RMK AO2
14837KMSN MSN20020922164010109/22/02 16:40:31  5-MIN KMSN 222240Z 29010G18KT 10SM SCT070 14/01 A3010 700 38 800 290/10G18 RMK AO2
14837KMSN MSN20020922164510109/22/02 16:45:31  5-MIN KMSN 222245Z 28008G18KT 10SM SCT070 14/01 A3009 710 38 800 280/08G18 RMK AO2
14837KMSN MSN20020922165011209/22/02 16:50:31  5-MIN KMSN 222250Z 28009KT 10SM FEW060 14/01 A3009 700 38 800 280/09 RMK AO2 SLP193 T01440006
14837KMSN MSN20020922165509509/22/02 16:55:31  5-MIN KMSN 222255Z 28009KT 10SM FEW060 14/01 A3009 700 40 800 280/09 RMK AO2
14837KMSN MSN20020922170009509/22/02 17:00:31  5-MIN KMSN 222300Z 29007KT 10SM FEW060 14/01 A3009 700 40 800 290/07 RMK AO2
14837KMSN MSN20020922170509509/22/02 17:05:31  5-MIN KMSN 222305Z 29009KT 10SM FEW060 14/01 A3009 700 41 800 290/09 RMK AO2
14837KMSN MSN20020922171011709/22/02 17:10:31  5-MIN KMSN 222310Z 29009G14KT 260V330 10SM FEW060 14/01 A3009 700 41 800 290/09G14 260V330 RMK AO2
14837KMSN MSN20020922171509509/22/02 17:15:31  5-MIN KMSN 222315Z 30007KT 10SM FEW060 14/01 A3010 700 40 800 300/07 RMK AO2
14837KMSN MSN20020922172011109/22/02 17:20:31  5-MIN KMSN 222320Z 28008KT 250V310 10SM FEW060 13/01 A3010 700 43 700 280/08 250V310 RMK AO2
14837KMSN MSN20020922172509509/22/02 17:25:31  5-MIN KMSN 222325Z 28006KT 10SM FEW060 13/01 A3010 700 43 700 280/06 RMK AO2
14837KMSN MSN20020922173009509/22/02 17:30:31  5-MIN KMSN 222330Z 29006KT 10SM FEW060 13/01 A3010 700 43 700 280/06 RMK AO2
14837KMSN MSN20020922173509509/22/02 17:35:31  5-MIN KMSN 222335Z 28008KT 10SM FEW060 13/01 A3010 700 44 600 280/08 RMK AO2
14837KMSN MSN20020922174009509/22/02 17:40:31  5-MIN KMSN 222340Z 29007KT 10SM FEW060 13/01 A3010 700 44 600 290/07 RMK AO2
14837KMSN MSN20020922174509509/22/02 17:45:31  5-MIN KMSN 222345Z 28007KT 10SM FEW060 13/01 A3010 700 44 600 280/07 RMK AO2
14837KMSN MSN20020922175012709/22/02 17:50:31  5-MIN KMSN 222350Z 29004KT 10SM CLR 12/01 A3010 700 46 600 290/04 RMK AO2 SLP196 T01220011 10167 20122 53000
14837KMSN MSN20020922175509209/22/02 17:55:31  5-MIN KMSN 222355Z 29006KT 10SM CLR 12/01 A3010 700 46 600 280/06 RMK AO2
14837KMSN MSN20020922180009209/22/02 18:00:31  5-MIN KMSN 230000Z 28004KT 10SM CLR 12/02 A3010 700 50 500 280/04 RMK AO2
14837KMSN MSN20020922180509209/22/02 18:05:31  5-MIN KMSN 230005Z VRB04KT 10SM CLR 12/02 A3010 700 50 500 VRB/04 RMK AO2
14837KMSN MSN20020922181009209/22/02 18:10:31  5-MIN KMSN 230010Z 00000KT 10SM CLR 12/02 A3011 690 50 500 000/00 RMK AO2
14837KMSN MSN20020922181509209/22/02 18:15:31  5-MIN KMSN 230015Z 28005KT 10SM CLR 12/02 A3011 690 52 500 280/05 RMK AO2
14837KMSN MSN20020922182009209/22/02 18:20:31  5-MIN KMSN 230020Z 28006KT 10SM CLR 12/02 A3011 690 52 500 270/06 RMK AO2
14837KMSN MSN20020922182509209/22/02 18:25:31  5-MIN KMSN 230025Z VRB03KT 10SM CLR 12/02 A3011 680 50 500 VRB/03 RMK AO2
14837KMSN MSN20020922183009209/22/02 18:30:31  5-MIN KMSN 230030Z 29004KT 10SM CLR 11/02 A3012 680 54 400 290/04 RMK AO2
14837KMSN MSN20020922183509209/22/02 18:35:31  5-MIN KMSN 230035Z VRB04KT 10SM CLR 11/02 A3012 680 56 400 VRB/04 RMK AO2
14837KMSN MSN20020922184009209/22/02 18:40:31  5-MIN KMSN 230040Z 30004KT 10SM CLR 11/02 A3012 680 54 400 290/04 RMK AO2
14837KMSN MSN20020922184509209/22/02 18:45:31  5-MIN KMSN 230045Z 29004KT 10SM CLR 11/02 A3012 680 56 300 290/04 RMK AO2
14837KMSN MSN20020922185010909/22/02 18:50:31  5-MIN KMSN 230050Z 30004KT 10SM CLR 11/02 A3012 680 56 300 300/04 RMK AO2 SLP205 T01060022
14837KMSN MSN20020922185509209/22/02 18:55:31  5-MIN KMSN 230055Z VRB04KT 10SM CLR 11/02 A3012 680 56 300 VRB/04 RMK AO2
14837KMSN MSN20020922190009209/22/02 19:00:31  5-MIN KMSN 230100Z 29004KT 10SM CLR 10/03 A3013 670 60 300 290/04 RMK AO2
14837KMSN MSN20020922190509209/22/02 19:05:31  5-MIN KMSN 230105Z 29003KT 10SM CLR 10/02 A3013 670 58 300 290/03 RMK AO2
14837KMSN MSN20020922191009209/22/02 19:10:31  5-MIN KMSN 230110Z 28003KT 10SM CLR 10/03 A3013 670 60 300 280/03 RMK AO2
14837KMSN MSN20020922191509209/22/02 19:15:31  5-MIN KMSN 230115Z 27003KT 10SM CLR 09/03 A3013 670 65 200 260/03 RMK AO2
14837KMSN MSN20020922192009209/22/02 19:20:31  5-MIN KMSN 230120Z 00000KT 10SM CLR 09/04 A3013 670 71 100 000/00 RMK AO2
14837KMSN MSN20020922192509209/22/02 19:25:31  5-MIN KMSN 230125Z 00000KT 10SM CLR 08/04 A3013 670 73 100 000/00 RMK AO2
14837KMSN MSN20020922193009209/22/02 19:30:31  5-MIN KMSN 230130Z 26003KT 10SM CLR 08/04 A3013 670 73 100 260/03 RMK AO2
14837KMSN MSN20020922193509209/22/02 19:35:31  5-MIN KMSN 230135Z 00000KT 10SM CLR 09/04 A3014 660 71 100 000/00 RMK AO2
14837KMSN MSN20020922194009209/22/02 19:40:31  5-MIN KMSN 230140Z VRB03KT 10SM CLR 08/04 A3014 660 73 100 VRB/03 RMK AO2
14837KMSN MSN20020922194509009/22/02 19:45:31  5-MIN KMSN 230145Z VRB03KT 10SM CLR 08/04 A3014 660 76 0 VRB/03 RMK AO2
14837KMSN MSN20020922195010909/22/02 19:50:31  5-MIN KMSN 230150Z VRB03KT 10SM CLR 08/03 A3014 660 70 100 VRB/03 RMK AO2 SLP209 T00830033
14837KMSN MSN20020922195509009/22/02 19:55:31  5-MIN KMSN 230155Z VRB03KT 10SM CLR 07/04 A3014 660 79 0 VRB/03 RMK AO2
14837KMSN MSN20020922200009009/22/02 20:00:31  5-MIN KMSN 230200Z 00000KT 10SM CLR 08/04 A3014 660 76 0 000/00 RMK AO2
14837KMSN MSN20020922200509009/22/02 20:05:31  5-MIN KMSN 230205Z 00000KT 10SM CLR 08/04 A3014 660 76 0 000/00 RMK AO2
14837KMSN MSN20020922201009009/22/02 20:10:31  5-MIN KMSN 230210Z 00000KT 10SM CLR 08/04 A3014 660 76 0 000/00 RMK AO2
14837KMSN MSN20020922201509009/22/02 20:15:31  5-MIN KMSN 230215Z 00000KT 10SM CLR 08/04 A3014 660 76 0 000/00 RMK AO2
14837KMSN MSN20020922202009009/22/02 20:20:31  5-MIN KMSN 230220Z 00000KT 10SM CLR 08/04 A3014 660 76 0 000/00 RMK AO2
14837KMSN MSN20020922202509009/22/02 20:25:31  5-MIN KMSN 230225Z 26003KT 10SM CLR 07/04 A3014 660 79 0 260/03 RMK AO2
14837KMSN MSN20020922203009309/22/02 20:30:31  5-MIN KMSN 230230Z 26003KT 10SM CLR 07/04 A3014 660 86 -100 260/03 RMK AO2
14837KMSN MSN20020922203509009/22/02 20:35:31  5-MIN KMSN 230235Z 00000KT 10SM CLR 07/04 A3014 660 79 0 000/00 RMK AO2
14837KMSN MSN20020922204009009/22/02 20:40:31  5-MIN KMSN 230240Z 25003KT 10SM CLR 07/04 A3014 660 82 0 250/03 RMK AO2
14837KMSN MSN20020922204509009/22/02 20:45:31  5-MIN KMSN 230245Z 25003KT 10SM CLR 07/04 A3014 660 82 0 250/03 RMK AO2
14837KMSN MSN20020922205011309/22/02 20:50:31  5-MIN KMSN 230250Z 00000KT 10SM CLR 07/04 A3014 660 79 0 000/00 RMK AO2 SLP210 T00720039 51008
14837KMSN MSN20020922205509309/22/02 20:55:31  5-MIN KMSN 230255Z 27003KT 10SM CLR 07/04 A3014 660 82 -100 270/03 RMK AO2
14837KMSN MSN20020922210009009/22/02 21:00:31  5-MIN KMSN 230300Z 00000KT 10SM CLR 07/04 A3015 660 79 0 000/00 RMK AO2
14837KMSN MSN20020922210509009/22/02 21:05:31  5-MIN KMSN 230305Z 00000KT 10SM CLR 07/04 A3015 660 79 0 000/00 RMK AO2
14837KMSN MSN20020922211009009/22/02 21:10:31  5-MIN KMSN 230310Z 00000KT 10SM CLR 07/04 A3015 650 79 0 000/00 RMK AO2
14837KMSN MSN20020922211509309/22/02 21:15:31  5-MIN KMSN 230315Z 00000KT 10SM CLR 07/04 A3015 650 82 -100 000/00 RMK AO2
14837KMSN MSN20020922212009009/22/02 21:20:31  5-MIN KMSN 230320Z 25003KT 10SM CLR 08/04 A3015 650 73 0 250/03 RMK AO2
14837KMSN MSN20020922212509009/22/02 21:25:31  5-MIN KMSN 230325Z VRB04KT 10SM CLR 08/04 A3015 650 73 0 VRB/04 RMK AO2
14837KMSN MSN20020922213009009/22/02 21:30:31  5-MIN KMSN 230330Z 26004KT 10SM CLR 08/03 A3015 650 70 0 260/04 RMK AO2
14837KMSN MSN20020922213509209/22/02 21:35:31  5-MIN KMSN 230335Z 26004KT 10SM CLR 09/03 A3016 650 68 100 260/04 RMK AO2
14837KMSN MSN20020922214009009/22/02 21:40:31  5-MIN KMSN 230340Z 27003KT 10SM CLR 08/03 A3016 650 70 0 270/03 RMK AO2
14837KMSN MSN20020922214509009/22/02 21:45:31  5-MIN KMSN 230345Z 25003KT 10SM CLR 08/03 A3016 650 73 0 250/03 RMK AO2
14837KMSN MSN20020922215010709/22/02 21:50:31  5-MIN KMSN 230350Z 00000KT 10SM CLR 07/03 A3016 640 76 0 000/00 RMK AO2 SLP216 T00720033
14837KMSN MSN20020922215509309/22/02 21:55:31  5-MIN KMSN 230355Z 00000KT 10SM CLR 07/03 A3016 640 79 -100 000/00 RMK AO2
14837KMSN MSN20020922220009309/22/02 22:00:31  5-MIN KMSN 230400Z 00000KT 10SM CLR 07/03 A3016 640 79 -100 000/00 RMK AO2
14837KMSN MSN20020922220509309/22/02 22:05:31  5-MIN KMSN 230405Z 00000KT 10SM CLR 06/03 A3016 640 82 -200 000/00 RMK AO2
14837KMSN MSN20020922221009309/22/02 22:10:31  5-MIN KMSN 230410Z 00000KT 10SM CLR 07/03 A3016 640 79 -100 000/00 RMK AO2
14837KMSN MSN20020922221509309/22/02 22:15:31  5-MIN KMSN 230415Z 28003KT 10SM CLR 07/03 A3016 640 79 -100 280/03 RMK AO2
14837KMSN MSN20020922222009309/22/02 22:20:31  5-MIN KMSN 230420Z 28003KT 10SM CLR 07/03 A3016 640 76 -100 280/03 RMK AO2
14837KMSN MSN20020922222509309/22/02 22:25:31  5-MIN KMSN 230425Z 00000KT 10SM CLR 07/03 A3016 640 73 -100 000/00 RMK AO2
14837KMSN MSN20020922223009309/22/02 22:30:31  5-MIN KMSN 230430Z 00000KT 10SM CLR 07/03 A3016 640 76 -100 000/00 RMK AO2
14837KMSN MSN20020922223509309/22/02 22:35:31  5-MIN KMSN 230435Z 00000KT 10SM CLR 07/03 A3016 640 79 -100 000/00 RMK AO2
14837KMSN MSN20020922224009309/22/02 22:40:31  5-MIN KMSN 230440Z 27003KT 10SM CLR 07/03 A3016 640 79 -100 270/03 RMK AO2
14837KMSN MSN20020922224509309/22/02 22:45:31  5-MIN KMSN 230445Z 27003KT 10SM CLR 07/03 A3016 640 79 -100 260/03 RMK AO2
14837KMSN MSN20020922225011009/22/02 22:50:31  5-MIN KMSN 230450Z 00000KT 10SM CLR 06/03 A3016 640 82 -200 000/00 RMK AO2 SLP216 T00610033
14837KMSN MSN20020922225509309/22/02 22:55:31  5-MIN KMSN 230455Z 00000KT 10SM CLR 06/03 A3016 640 82 -200 000/00 RMK AO2
14837KMSN MSN20020922230009309/22/02 23:00:31  5-MIN KMSN 230500Z 00000KT 10SM CLR 06/03 A3016 640 82 -200 000/00 RMK AO2
14837KMSN MSN20020922230509309/22/02 23:05:31  5-MIN KMSN 230505Z 00000KT 10SM CLR 07/03 A3016 640 79 -100 000/00 RMK AO2
14837KMSN MSN20020922231009309/22/02 23:10:31  5-MIN KMSN 230510Z 00000KT 10SM CLR 07/03 A3016 640 79 -100 000/00 RMK AO2
14837KMSN MSN20020922231509309/22/02 23:15:31  5-MIN KMSN 230515Z 00000KT 10SM CLR 07/03 A3016 640 79 -100 000/00 RMK AO2
14837KMSN MSN20020922232009309/22/02 23:20:31  5-MIN KMSN 230520Z 00000KT 10SM CLR 06/03 A3016 640 82 -200 000/00 RMK AO2
14837KMSN MSN20020922232509309/22/02 23:25:31  5-MIN KMSN 230525Z 00000KT 10SM CLR 06/03 A3016 640 82 -200 000/00 RMK AO2
14837KMSN MSN20020922233009309/22/02 23:30:31  5-MIN KMSN 230530Z 00000KT 10SM CLR 07/03 A3016 640 79 -100 000/00 RMK AO2
14837KMSN MSN20020922233509309/22/02 23:35:31  5-MIN KMSN 230535Z 00000KT 10SM CLR 06/03 A3016 640 79 -200 000/00 RMK AO2
14837KMSN MSN20020922234009309/22/02 23:40:31  5-MIN KMSN 230540Z 00000KT 10SM CLR 06/03 A3016 640 79 -200 000/00 RMK AO2
14837KMSN MSN20020922234509309/22/02 23:45:31  5-MIN KMSN 230545Z 00000KT 10SM CLR 06/03 A3016 640 79 -200 000/00 RMK AO2
14837KMSN MSN20020922235013809/22/02 23:50:31  5-MIN KMSN 230550Z 00000KT 10SM CLR 06/03 A3016 640 82 -300 000/00 RMK AO2 SLP217 T00560028 10122 20056 401670056 51014
14837KMSN MSN20020922235509309/22/02 23:55:31  5-MIN KMSN 230555Z 00000KT 10SM CLR 06/03 A3016 640 82 -300 000/00 RMK AO2
14837KMSN MSN20020923000009309/23/02 00:00:31  5-MIN KMSN 230600Z 00000KT 10SM CLR 06/03 A3016 640 82 -300 000/00 RMK AO2
14837KMSN MSN20020923000509309/23/02 00:05:31  5-MIN KMSN 230605Z 00000KT 10SM CLR 06/03 A3016 640 82 -300 000/00 RMK AO2
14837KMSN MSN20020923001009309/23/02 00:10:31  5-MIN KMSN 230610Z 00000KT 10SM CLR 06/03 A3017 640 82 -300 000/00 RMK AO2
14837KMSN MSN20020923001509309/23/02 00:15:31  5-MIN KMSN 230615Z 00000KT 10SM CLR 05/03 A3017 640 85 -300 000/00 RMK AO2
14837KMSN MSN20020923002009309/23/02 00:20:31  5-MIN KMSN 230620Z 00000KT 10SM CLR 05/03 A3017 640 85 -300 000/00 RMK AO2
14837KMSN MSN20020923002509309/23/02 00:25:31  5-MIN KMSN 230625Z 00000KT 10SM CLR 05/03 A3017 640 85 -300 000/00 RMK AO2
14837KMSN MSN20020923003009309/23/02 00:30:31  5-MIN KMSN 230630Z 00000KT 10SM CLR 05/03 A3017 640 85 -300 000/00 RMK AO2
14837KMSN MSN20020923003509309/23/02 00:35:31  5-MIN KMSN 230635Z 00000KT 10SM CLR 04/03 A3017 640 89 -400 000/00 RMK AO2
14837KMSN MSN20020923004009309/23/02 00:40:31  5-MIN KMSN 230640Z 00000KT 10SM CLR 04/03 A3017 630 89 -400 000/00 RMK AO2
14837KMSN MSN20020923004509309/23/02 00:45:31  5-MIN KMSN 230645Z 00000KT 10SM CLR 04/03 A3017 630 92 -400 000/00 RMK AO2
14837KMSN MSN20020923005011009/23/02 00:50:31  5-MIN KMSN 230650Z 00000KT 10SM CLR 04/03 A3017 630 92 -400 000/00 RMK AO2 SLP221 T00440033
14837KMSN MSN20020923005509309/23/02 00:55:31  5-MIN KMSN 230655Z 00000KT 10SM CLR 04/03 A3018 630 92 -400 000/00 RMK AO2
14837KMSN MSN20020923010009309/23/02 01:00:31  5-MIN KMSN 230700Z 00000KT 10SM CLR 04/03 A3018 630 92 -500 000/00 RMK AO2
14837KMSN MSN20020923010509309/23/02 01:05:31  5-MIN KMSN 230705Z 00000KT 10SM CLR 04/03 A3017 630 92 -500 000/00 RMK AO2
14837KMSN MSN20020923011009309/23/02 01:10:31  5-MIN KMSN 230710Z 00000KT 10SM CLR 04/03 A3017 630 92 -500 000/00 RMK AO2
14837KMSN MSN20020923011509309/23/02 01:15:31  5-MIN KMSN 230715Z 00000KT 10SM CLR 04/03 A3017 630 92 -500 000/00 RMK AO2
14837KMSN MSN20020923012009309/23/02 01:20:31  5-MIN KMSN 230720Z 00000KT 10SM CLR 04/03 A3017 630 92 -500 000/00 RMK AO2
14837KMSN MSN20020923012509309/23/02 01:25:31  5-MIN KMSN 230725Z 00000KT 10SM CLR 04/03 A3017 630 92 -400 000/00 RMK AO2
14837KMSN MSN20020923013009309/23/02 01:30:31  5-MIN KMSN 230730Z 00000KT 10SM CLR 04/03 A3017 630 96 -500 000/00 RMK AO2
14837KMSN MSN20020923013509309/23/02 01:35:31  5-MIN KMSN 230735Z 00000KT 10SM CLR 04/03 A3017 630 92 -400 000/00 RMK AO2
14837KMSN MSN20020923014009309/23/02 01:40:31  5-MIN KMSN 230740Z 00000KT 10SM CLR 04/03 A3017 630 96 -500 000/00 RMK AO2
14837KMSN MSN20020923014509309/23/02 01:45:31  5-MIN KMSN 230745Z 00000KT 10SM CLR 04/03 A3017 630 92 -500 000/00 RMK AO2
14837KMSN MSN20020923015011009/23/02 01:50:31  5-MIN KMSN 230750Z 00000KT 10SM CLR 03/03 A3017 630 96 -500 000/00 RMK AO2 SLP221 T00330028
14837KMSN MSN20020923015509309/23/02 01:55:31  5-MIN KMSN 230755Z 00000KT 10SM CLR 03/03 A3017 630 96 -500 000/00 RMK AO2
14837KMSN MSN20020923020009309/23/02 02:00:31  5-MIN KMSN 230800Z 00000KT 10SM CLR 04/03 A3017 630 92 -500 000/00 RMK AO2
14837KMSN MSN20020923020509309/23/02 02:05:31  5-MIN KMSN 230805Z 00000KT 10SM CLR 04/03 A3017 630 96 -500 000/00 RMK AO2
14837KMSN MSN20020923021009309/23/02 02:10:31  5-MIN KMSN 230810Z 00000KT 10SM CLR 04/03 A3017 630 92 -500 000/00 RMK AO2
14837KMSN MSN20020923021509309/23/02 02:15:31  5-MIN KMSN 230815Z 00000KT 10SM CLR 04/03 A3017 630 92 -500 000/00 RMK AO2
14837KMSN MSN20020923022009309/23/02 02:20:31  5-MIN KMSN 230820Z 00000KT 10SM CLR 04/03 A3017 640 96 -500 000/00 RMK AO2
14837KMSN MSN20020923022509309/23/02 02:25:31  5-MIN KMSN 230825Z 00000KT 10SM CLR 04/03 A3017 640 92 -500 000/00 RMK AO2
14837KMSN MSN20020923023009309/23/02 02:30:31  5-MIN KMSN 230830Z 00000KT 10SM CLR 04/03 A3017 640 92 -500 000/00 RMK AO2
14837KMSN MSN20020923023509309/23/02 02:35:31  5-MIN KMSN 230835Z 00000KT 10SM CLR 03/03 A3017 630 96 -500 000/00 RMK AO2
14837KMSN MSN20020923024009309/23/02 02:40:31  5-MIN KMSN 230840Z 00000KT 10SM CLR 03/03 A3017 630 96 -500 000/00 RMK AO2
14837KMSN MSN20020923024509309/23/02 02:45:31  5-MIN KMSN 230845Z 00000KT 10SM CLR 03/03 A3017 640 96 -500 000/00 RMK AO2
14837KMSN MSN20020923025011609/23/02 02:50:31  5-MIN KMSN 230850Z 00000KT 10SM CLR 04/03 A3017 630 92 -500 000/00 RMK AO2 SLP219 T00390028 51007
14837KMSN MSN20020923025509309/23/02 02:55:31  5-MIN KMSN 230855Z 00000KT 10SM CLR 03/03 A3017 630 96 -500 000/00 RMK AO2
14837KMSN MSN20020923030009309/23/02 03:00:31  5-MIN KMSN 230900Z 00000KT 10SM CLR 03/03 A3017 630 96 -500 000/00 RMK AO2
14837KMSN MSN20020923030509309/23/02 03:05:31  5-MIN KMSN 230905Z 00000KT 10SM CLR 04/03 A3017 630 92 -500 000/00 RMK AO2
14837KMSN MSN20020923031009309/23/02 03:10:31  5-MIN KMSN 230910Z 00000KT 10SM CLR 03/03 A3017 640 96 -500 000/00 RMK AO2
14837KMSN MSN20020923031509309/23/02 03:15:31  5-MIN KMSN 230915Z 00000KT 10SM CLR 03/03 A3017 640 96 -500 000/00 RMK AO2
14837KMSN MSN20020923032009309/23/02 03:20:31  5-MIN KMSN 230920Z 00000KT 10SM CLR 03/03 A3017 640 96 -500 000/00 RMK AO2
14837KMSN MSN20020923032509309/23/02 03:25:31  5-MIN KMSN 230925Z 00000KT 10SM CLR 03/03 A3017 640 96 -500 000/00 RMK AO2
14837KMSN MSN20020923033009309/23/02 03:30:31  5-MIN KMSN 230930Z 00000KT 10SM CLR 03/03 A3016 640 96 -500 000/00 RMK AO2
14837KMSN MSN20020923033509309/23/02 03:35:31  5-MIN KMSN 230935Z 00000KT 10SM CLR 03/03 A3016 640 96 -500 000/00 RMK AO2
14837KMSN MSN20020923034009309/23/02 03:40:31  5-MIN KMSN 230940Z 00000KT 10SM CLR 03/03 A3016 640 96 -500 000/00 RMK AO2
14837KMSN MSN20020923034509309/23/02 03:45:31  5-MIN KMSN 230945Z 00000KT 10SM CLR 03/03 A3016 640 96 -500 000/00 RMK AO2
14837KMSN MSN20020923035011009/23/02 03:50:31  5-MIN KMSN 230950Z 00000KT 10SM CLR 03/03 A3016 640 96 -500 000/00 RMK AO2 SLP218 T00330028
14837KMSN MSN20020923035509309/23/02 03:55:31  5-MIN KMSN 230955Z 00000KT 10SM CLR 03/03 A3016 640 96 -500 000/00 RMK AO2
14837KMSN MSN20020923040009309/23/02 04:00:31  5-MIN KMSN 231000Z 00000KT 10SM CLR 04/03 A3016 640 92 -500 000/00 RMK AO2
14837KMSN MSN20020923040509309/23/02 04:05:31  5-MIN KMSN 231005Z 00000KT 10SM CLR 03/03 A3016 640 96 -500 000/00 RMK AO2
14837KMSN MSN20020923041009309/23/02 04:10:31  5-MIN KMSN 231010Z 00000KT 10SM CLR 03/03 A3016 640 96 -500 000/00 RMK AO2
14837KMSN MSN20020923041509309/23/02 04:15:31  5-MIN KMSN 231015Z 00000KT 10SM CLR 03/03 A3016 640 96 -500 000/00 RMK AO2
14837KMSN MSN20020923042009309/23/02 04:20:31  5-MIN KMSN 231020Z 00000KT 10SM CLR 03/03 A3016 640 96 -500 000/00 RMK AO2
14837KMSN MSN20020923042509309/23/02 04:25:31  5-MIN KMSN 231025Z 00000KT 10SM CLR 04/03 A3016 640 92 -500 000/00 RMK AO2
14837KMSN MSN20020923043009309/23/02 04:30:31  5-MIN KMSN 231030Z 00000KT 10SM CLR 04/03 A3016 650 92 -500 000/00 RMK AO2
14837KMSN MSN20020923043509309/23/02 04:35:31  5-MIN KMSN 231035Z 00000KT 10SM CLR 04/03 A3016 640 92 -500 000/00 RMK AO2
14837KMSN MSN20020923044009309/23/02 04:40:31  5-MIN KMSN 231040Z 00000KT 10SM CLR 04/03 A3016 640 92 -500 000/00 RMK AO2
14837KMSN MSN20020923044509309/23/02 04:45:31  5-MIN KMSN 231045Z 00000KT 10SM CLR 04/03 A3016 640 92 -500 000/00 RMK AO2
14837KMSN MSN20020923045011009/23/02 04:50:31  5-MIN KMSN 231050Z 00000KT 10SM CLR 04/03 A3016 640 92 -500 000/00 RMK AO2 SLP217 T00390028
14837KMSN MSN20020923045509309/23/02 04:55:31  5-MIN KMSN 231055Z 19003KT 10SM CLR 04/03 A3016 640 92 -500 190/03 RMK AO2
14837KMSN MSN20020923050009309/23/02 05:00:31  5-MIN KMSN 231100Z 00000KT 10SM CLR 04/03 A3016 640 92 -500 000/00 RMK AO2
14837KMSN MSN20020923050509309/23/02 05:05:31  5-MIN KMSN 231105Z 00000KT 10SM CLR 05/03 A3016 640 89 -300 000/00 RMK AO2
14837KMSN MSN20020923051009309/23/02 05:10:31  5-MIN KMSN 231110Z 00000KT 10SM CLR 06/03 A3016 640 85 -300 000/00 RMK AO2
14837KMSN MSN20020923051509309/23/02 05:15:31  5-MIN KMSN 231115Z 19003KT 10SM CLR 05/03 A3016 640 89 -300 190/03 RMK AO2
14837KMSN MSN20020923052009309/23/02 05:20:31  5-MIN KMSN 231120Z 19003KT 10SM CLR 06/04 A3016 640 89 -300 190/03 RMK AO2
14837KMSN MSN20020923052509309/23/02 05:25:31  5-MIN KMSN 231125Z 19004KT 10SM CLR 06/03 A3017 640 85 -300 190/04 RMK AO2
14837KMSN MSN20020923053009309/23/02 05:30:31  5-MIN KMSN 231130Z 20004KT 10SM CLR 07/03 A3017 640 79 -100 200/04 RMK AO2
14837KMSN MSN20020923053509309/23/02 05:35:31  5-MIN KMSN 231135Z 20004KT 10SM CLR 07/03 A3017 640 76 -100 200/04 RMK AO2
14837KMSN MSN20020923054009309/23/02 05:40:31  5-MIN KMSN 231140Z 20004KT 10SM CLR 07/03 A3017 640 76 -100 200/04 RMK AO2
14837KMSN MSN20020923054509309/23/02 05:45:31  5-MIN KMSN 231145Z 19005KT 10SM CLR 07/03 A3017 640 76 -100 190/05 RMK AO2
14837KMSN MSN20020923055012509/23/02 05:50:31  5-MIN KMSN 231150Z 19005KT 10SM CLR 08/03 A3017 640 73 0 190/05 RMK AO2 SLP218 T00780033 10078 20033 50003
14837KMSN MSN20020923055509009/23/02 05:55:31  5-MIN KMSN 231155Z 19005KT 10SM CLR 08/03 A3017 640 73 0 190/05 RMK AO2
14837KMSN MSN20020923060009009/23/02 06:00:31  5-MIN KMSN 231200Z 18005KT 10SM CLR 08/04 A3017 640 76 0 180/05 RMK AO2
14837KMSN MSN20020923060509009/23/02 06:05:31  5-MIN KMSN 231205Z 18006KT 10SM CLR 08/04 A3017 640 76 0 180/06 RMK AO2
14837KMSN MSN20020923061009009/23/02 06:10:31  5-MIN KMSN 231210Z 18006KT 10SM CLR 08/04 A3017 640 76 0 180/06 RMK AO2
14837KMSN MSN20020923061509009/23/02 06:15:31  5-MIN KMSN 231215Z 18006KT 10SM CLR 08/04 A3017 640 76 0 180/06 RMK AO2
14837KMSN MSN20020923062009009/23/02 06:20:31  5-MIN KMSN 231220Z 19006KT 10SM CLR 08/04 A3017 640 76 0 180/06 RMK AO2
14837KMSN MSN20020923062509009/23/02 06:25:31  5-MIN KMSN 231225Z 19005KT 10SM CLR 08/04 A3017 640 73 0 180/05 RMK AO2
14837KMSN MSN20020923063009009/23/02 06:30:31  5-MIN KMSN 231230Z 19005KT 10SM CLR 08/04 A3017 640 73 0 190/05 RMK AO2
14837KMSN MSN20020923063509009/23/02 06:35:31  5-MIN KMSN 231235Z 19004KT 10SM CLR 08/04 A3017 640 73 0 190/04 RMK AO2
14837KMSN MSN20020923064009209/23/02 06:40:31  5-MIN KMSN 231240Z 19004KT 10SM CLR 09/04 A3017 640 71 100 190/04 RMK AO2
14837KMSN MSN20020923064509209/23/02 06:45:31  5-MIN KMSN 231245Z 18004KT 10SM CLR 09/04 A3017 640 73 100 180/04 RMK AO2
14837KMSN MSN20020923065010709/23/02 06:50:31  5-MIN KMSN 231250Z 16005KT 10SM CLR 08/05 A3016 640 79 0 160/05 RMK AO2 SLP218 T00830050
14837KMSN MSN20020923065509009/23/02 06:55:31  5-MIN KMSN 231255Z 16006KT 10SM CLR 08/05 A3016 640 79 0 160/06 RMK AO2
14837KMSN MSN20020923070009209/23/02 07:00:31  5-MIN KMSN 231300Z 17005KT 10SM CLR 09/05 A3016 640 76 100 160/05 RMK AO2
14837KMSN MSN20020923070509209/23/02 07:05:31  5-MIN KMSN 231305Z 17005KT 10SM CLR 09/05 A3016 640 74 200 170/05 RMK AO2
14837KMSN MSN20020923071009209/23/02 07:10:31  5-MIN KMSN 231310Z 18006KT 10SM CLR 10/04 A3016 650 65 200 180/06 RMK AO2
14837KMSN MSN20020923071509209/23/02 07:15:31  5-MIN KMSN 231315Z 18007KT 10SM CLR 10/03 A3015 650 63 200 180/07 RMK AO2
14837KMSN MSN20020923072009209/23/02 07:20:31  5-MIN KMSN 231320Z 19007KT 10SM CLR 11/03 A3015 650 58 300 180/07 RMK AO2
14837KMSN MSN20020923072509209/23/02 07:25:31  5-MIN KMSN 231325Z 19008KT 10SM CLR 11/04 A3016 650 63 300 190/08 RMK AO2
14837KMSN MSN20020923073009209/23/02 07:30:31  5-MIN KMSN 231330Z 19006KT 10SM CLR 11/03 A3016 650 58 400 190/06 RMK AO2
14837KMSN MSN20020923073509209/23/02 07:35:31  5-MIN KMSN 231335Z 19005KT 10SM CLR 11/04 A3016 650 61 400 190/05 RMK AO2
14837KMSN MSN20020923074009209/23/02 07:40:31  5-MIN KMSN 231340Z 19004KT 10SM CLR 11/03 A3016 640 58 400 190/04 RMK AO2
14837KMSN MSN20020923074509209/23/02 07:45:31  5-MIN KMSN 231345Z 20006KT 10SM CLR 12/04 A3016 640 58 400 200/06 RMK AO2
14837KMSN MSN20020923075010909/23/02 07:50:31  5-MIN KMSN 231350Z 18006KT 10SM CLR 12/03 A3016 640 56 400 180/06 RMK AO2 SLP216 T01170033
14837KMSN MSN20020923075509209/23/02 07:55:31  5-MIN KMSN 231355Z 19008KT 10SM CLR 12/03 A3016 640 56 400 190/08 RMK AO2
14837KMSN MSN20020923080009209/23/02 08:00:31  5-MIN KMSN 231400Z 19006KT 10SM CLR 12/03 A3016 640 54 400 190/06 RMK AO2
14837KMSN MSN20020923080509209/23/02 08:05:31  5-MIN KMSN 231405Z 19005KT 10SM CLR 12/03 A3016 650 52 500 190/05 RMK AO2
14837KMSN MSN20020923081009209/23/02 08:10:31  5-MIN KMSN 231410Z 21006KT 10SM CLR 13/03 A3016 650 50 600 210/06 RMK AO2
14837KMSN MSN20020923081509209/23/02 08:15:31  5-MIN KMSN 231415Z 19006KT 10SM CLR 13/03 A3015 650 50 600 190/06 RMK AO2
14837KMSN MSN20020923082009209/23/02 08:20:31  5-MIN KMSN 231420Z 18006KT 10SM CLR 13/03 A3015 650 50 600 180/06 RMK AO2
14837KMSN MSN20020923082509209/23/02 08:25:31  5-MIN KMSN 231425Z 20005KT 10SM CLR 13/03 A3015 650 50 600 200/05 RMK AO2
14837KMSN MSN20020923083010809/23/02 08:30:31  5-MIN KMSN 231430Z 18008KT 160V220 10SM CLR 13/03 A3015 650 50 600 180/08 160V220 RMK AO2
14837KMSN MSN20020923083509209/23/02 08:35:31  5-MIN KMSN 231435Z 18007KT 10SM CLR 13/03 A3015 650 50 600 180/07 RMK AO2
14837KMSN MSN20020923084010809/23/02 08:40:31  5-MIN KMSN 231440Z 21007KT 170V240 10SM CLR 14/03 A3015 650 48 700 210/07 170V240 RMK AO2
14837KMSN MSN20020923084509809/23/02 08:45:31  5-MIN KMSN 231445Z 20009G14KT 10SM CLR 14/03 A3015 650 48 700 200/09G14 RMK AO2
14837KMSN MSN20020923085012109/23/02 08:50:31  5-MIN KMSN 231450Z 19006G14KT 10SM CLR 14/03 A3014 660 47 800 190/06G14 RMK AO2 SLP211 T01440033 55002
14837KMSN MSN20020923085509209/23/02 08:55:31  5-MIN KMSN 231455Z 19012KT 10SM CLR 14/03 A3015 660 45 800 190/12 RMK AO2
14837KMSN MSN20020923090009509/23/02 09:00:31  5-MIN KMSN 231500Z 18011KT 10SM FEW100 14/03 A3015 660 45 800 180/11 RMK AO2
14837KMSN MSN20020923090509509/23/02 09:05:31  5-MIN KMSN 231505Z 18012KT 10SM SCT100 14/03 A3014 660 45 800 170/12 RMK AO2
14837KMSN MSN20020923091009509/23/02 09:10:31  5-MIN KMSN 231510Z 18013KT 10SM SCT100 15/03 A3014 670 43 900 180/13 RMK AO2
14837KMSN MSN20020923091509509/23/02 09:15:31  5-MIN KMSN 231515Z 19010KT 10SM BKN100 15/02 A3013 670 42 900 190/10 RMK AO2
14837KMSN MSN20020923092009509/23/02 09:20:31  5-MIN KMSN 231520Z 19011KT 10SM SCT100 15/03 A3013 670 43 900 190/11 RMK AO2
14837KMSN MSN20020923092509509/23/02 09:25:31  5-MIN KMSN 231525Z 19010KT 10SM FEW100 15/03 A3013 670 43 900 190/10 RMK AO2
14837KMSN MSN20020923093009509/23/02 09:30:31  5-MIN KMSN 231530Z 21010KT 10SM FEW100 15/03 A3013 670 43 900 210/10 RMK AO2
14837KMSN MSN20020923093509509/23/02 09:35:31  5-MIN KMSN 231535Z 21009KT 10SM FEW100 16/03 A3013 670 43 900 210/09 RMK AO2
14837KMSN MSN20020923094010209/23/02 09:40:31  5-MIN KMSN 231540Z 21009G14KT 10SM FEW100 16/03 A3013 670 42 1000 210/09G14 RMK AO2
14837KMSN MSN20020923094509509/23/02 09:45:31  5-MIN KMSN 231545Z 18010KT 10SM FEW100 16/03 A3012 680 43 900 180/10 RMK AO2
14837KMSN MSN20020923095011309/23/02 09:50:31  5-MIN KMSN 231550Z 19013KT 10SM FEW100 16/04 A3012 680 44 1000 190/13 RMK AO2 SLP203 T01610039
14837KMSN MSN20020923095509609/23/02 09:55:31  5-MIN KMSN 231555Z 19007KT 10SM FEW100 17/04 A3012 680 44 1100 190/07 RMK AO2
14837KMSN MSN20020923100009609/23/02 10:00:31  5-MIN KMSN 231600Z 18011KT 10SM FEW100 17/04 A3012 680 44 1100 180/11 RMK AO2
14837KMSN MSN20020923100509609/23/02 10:05:31  5-MIN KMSN 231605Z 18012KT 10SM FEW100 17/04 A3013 670 44 1100 180/12 RMK AO2
14837KMSN MSN20020923101009609/23/02 10:10:31  5-MIN KMSN 231610Z 19007KT 10SM FEW100 16/04 A3013 670 44 1000 190/07 RMK AO2
14837KMSN MSN20020923101509609/23/02 10:15:31  5-MIN KMSN 231615Z 22010KT 10SM FEW100 16/03 A3012 680 42 1000 220/10 RMK AO2
14837KMSN MSN20020923102009609/23/02 10:20:31  5-MIN KMSN 231620Z 20008KT 10SM FEW100 16/04 A3012 680 44 1000 200/08 RMK AO2
14837KMSN MSN20020923102510209/23/02 10:25:31  5-MIN KMSN 231625Z 20010G16KT 10SM SCT100 16/03 A3012 680 42 1000 200/10G16 RMK AO2
14837KMSN MSN20020923103009609/23/02 10:30:31  5-MIN KMSN 231630Z 20010KT 10SM BKN100 17/03 A3012 680 40 1100 200/10 RMK AO2
14837KMSN MSN20020923103509609/23/02 10:35:31  5-MIN KMSN 231635Z 22007KT 10SM BKN100 17/03 A3012 680 40 1100 220/07 RMK AO2
14837KMSN MSN20020923104011209/23/02 10:40:31  5-MIN KMSN 231640Z 22007KT 190V250 10SM BKN100 16/04 A3011 690 44 1000 220/07 190V250 RMK AO2
14837KMSN MSN20020923104511209/23/02 10:45:31  5-MIN KMSN 231645Z 19009KT 160V230 10SM BKN100 16/03 A3011 690 42 1000 190/09 160V230 RMK AO2
14837KMSN MSN20020923105011309/23/02 10:50:31  5-MIN KMSN 231650Z 18012KT 10SM BKN100 16/03 A3010 700 42 1000 180/12 RMK AO2 SLP197 T01610033
14837KMSN MSN20020923105509609/23/02 10:55:31  5-MIN KMSN 231655Z 18009KT 10SM BKN100 16/04 A3010 700 44 1000 180/09 RMK AO2
14837KMSN MSN20020923110009609/23/02 11:00:31  5-MIN KMSN 231700Z 18013KT 10SM BKN100 16/04 A3009 710 44 1000 180/13 RMK AO2
14837KMSN MSN20020923110509609/23/02 11:05:31  5-MIN KMSN 231705Z 18010KT 10SM BKN100 16/03 A3009 710 42 1000 180/10 RMK AO2
14837KMSN MSN20020923111010209/23/02 11:10:31  5-MIN KMSN 231710Z 18014G17KT 10SM BKN100 16/03 A3009 710 42 1000 180/14G17 RMK AO2
14837KMSN MSN20020923111509609/23/02 11:15:31  5-MIN KMSN 231715Z 18012KT 10SM BKN100 16/03 A3009 710 43 1000 180/12 RMK AO2
14837KMSN MSN20020923112010209/23/02 11:20:31  5-MIN KMSN 231720Z 18012G19KT 10SM BKN100 16/03 A3009 710 43 1000 180/12G19 RMK AO2
14837KMSN MSN20020923112510209/23/02 11:25:31  5-MIN KMSN 231725Z 18016G19KT 10SM OVC100 16/03 A3009 710 43 1000 180/16G19 RMK AO2
14837KMSN MSN20020923113010209/23/02 11:30:31  5-MIN KMSN 231730Z 18013G20KT 10SM OVC100 16/03 A3008 720 43 1000 180/13G20 RMK AO2
14837KMSN MSN20020923113510209/23/02 11:35:31  5-MIN KMSN 231735Z 18014G20KT 10SM OVC100 16/03 A3008 720 42 1100 180/14G20 RMK AO2
14837KMSN MSN20020923114010209/23/02 11:40:31  5-MIN KMSN 231740Z 18013G19KT 10SM OVC100 16/04 A3008 720 44 1100 180/13G19 RMK AO2
14837KMSN MSN20020923114510209/23/02 11:45:31  5-MIN KMSN 231745Z 18012G20KT 10SM OVC095 16/03 A3007 720 42 1100 180/12G20 RMK AO2
14837KMSN MSN20020923115013709/23/02 11:50:31  5-MIN KMSN 231750Z 19014G20KT 10SM OVC095 16/03 A3007 720 42 1100 190/14G20 RMK AO2 SLP186 T01610033 10167 20078 58007
14837KMSN MSN20020923115510209/23/02 11:55:31  5-MIN KMSN 231755Z 19013G19KT 10SM OVC095 16/03 A3007 720 42 1100 190/13G19 RMK AO2
14837KMSN MSN20020923120010209/23/02 12:00:31  5-MIN KMSN 231800Z 19015G21KT 10SM OVC090 16/03 A3007 730 42 1100 190/15G21 RMK AO2
14837KMSN MSN20020923120510209/23/02 12:05:31  5-MIN KMSN 231805Z 18017G22KT 10SM OVC090 16/03 A3006 730 42 1100 180/17G22 RMK AO2
14837KMSN MSN20020923121010209/23/02 12:10:31  5-MIN KMSN 231810Z 19017G22KT 10SM OVC090 16/03 A3006 740 40 1100 190/17G22 RMK AO2
14837KMSN MSN20020923121510209/23/02 12:15:31  5-MIN KMSN 231815Z 18018G23KT 10SM OVC090 16/03 A3005 740 40 1100 180/18G23 RMK AO2
14837KMSN MSN20020923122010209/23/02 12:20:31  5-MIN KMSN 231820Z 17019G23KT 10SM OVC090 16/03 A3005 750 40 1100 170/19G23 RMK AO2
14837KMSN MSN20020923122510209/23/02 12:25:31  5-MIN KMSN 231825Z 18017G24KT 10SM OVC090 16/03 A3004 750 40 1100 180/17G24 RMK AO2
14837KMSN MSN20020923123010209/23/02 12:30:31  5-MIN KMSN 231830Z 18014G24KT 10SM OVC090 16/03 A3004 750 40 1100 180/14G24 RMK AO2
14837KMSN MSN20020923123510209/23/02 12:35:31  5-MIN KMSN 231835Z 18017G23KT 10SM OVC090 17/02 A3004 750 37 1200 180/17G23 RMK AO2
14837KMSN MSN20020923124010209/23/02 12:40:31  5-MIN KMSN 231840Z 19017G23KT 10SM BKN090 17/03 A3004 750 39 1200 190/17G23 RMK AO2
14837KMSN MSN20020923124510209/23/02 12:45:31  5-MIN KMSN 231845Z 18018G24KT 10SM BKN085 17/03 A3004 750 39 1200 180/18G24 RMK AO2
14837KMSN MSN20020923125013509/23/02 12:50:31  5-MIN KMSN 231850Z 18016G24KT 10SM -RA OVC085 16/03 A3004 750 40 1100 180/16G24 RMK AO2 RAB49 SLP175 P0000 T01610028
14837KMSN MSN20020923125511209/23/02 12:55:31  5-MIN KMSN 231855Z 19016G25KT 10SM -RA BKN080 16/03 A3004 750 40 1100 190/16G25 RMK AO2 P0000
14837KMSN MSN20020923130012309/23/02 13:00:31  5-MIN KMSN 231900Z 19014G25KT 10SM FEW060 BKN080 16/03 A3004 750 40 1100 180/14G25 RMK AO2 RAE1859 P0000
14837KMSN MSN20020923130512309/23/02 13:05:31  5-MIN KMSN 231905Z 20010G21KT 10SM FEW060 OVC080 16/04 A3005 750 44 1100 200/10G21 RMK AO2 RAE1859 P0000
14837KMSN MSN20020923131012309/23/02 13:10:31  5-MIN KMSN 231910Z 19013G17KT 10SM FEW060 BKN085 17/03 A3005 750 40 1200 190/13G17 RMK AO2 RAE1859 P0000
14837KMSN MSN20020923131512309/23/02 13:15:31  5-MIN KMSN 231915Z 20010G20KT 10SM FEW060 BKN090 17/03 A3005 740 40 1200 200/10G20 RMK AO2 RAE1859 P0000
14837KMSN MSN20020923132011609/23/02 13:20:31  5-MIN KMSN 231920Z 18011G20KT 10SM OVC090 17/04 A3005 750 42 1200 180/11G20 RMK AO2 RAE1859 P0000
14837KMSN MSN20020923132511609/23/02 13:25:31  5-MIN KMSN 231925Z 19009G17KT 10SM OVC095 17/04 A3005 750 42 1200 180/09G17 RMK AO2 RAE1859 P0000
14837KMSN MSN20020923133011009/23/02 13:30:31  5-MIN KMSN 231930Z 21010KT 10SM BKN095 17/04 A3005 750 41 1200 210/10 RMK AO2 RAE1859 P0000
14837KMSN MSN20020923133511609/23/02 13:35:31  5-MIN KMSN 231935Z 20012G18KT 10SM OVC100 17/04 A3004 750 41 1200 200/12G18 RMK AO2 RAE1859 P0000
14837KMSN MSN20020923134011609/23/02 13:40:31  5-MIN KMSN 231940Z 20011G18KT 10SM BKN100 17/04 A3005 750 42 1200 200/11G18 RMK AO2 RAE1859 P0000
14837KMSN MSN20020923134511609/23/02 13:45:31  5-MIN KMSN 231945Z 21009G17KT 10SM BKN100 17/04 A3005 750 42 1200 210/09G17 RMK AO2 RAE1859 P0000
14837KMSN MSN20020923135013309/23/02 13:50:31  5-MIN KMSN 231950Z 20010G17KT 10SM BKN100 17/04 A3004 750 42 1200 200/10G17 RMK AO2 RAE1859 SLP176 P0000 T01720044
14837KMSN MSN20020923135510209/23/02 13:55:31  5-MIN KMSN 231955Z 20013G18KT 10SM BKN110 18/04 A3004 750 41 1300 200/13G18 RMK AO2
14837KMSN MSN20020923140010209/23/02 14:00:31  5-MIN KMSN 232000Z 19015G18KT 10SM BKN110 18/04 A3004 750 39 1400 190/15G18 RMK AO2
14837KMSN MSN20020923140510209/23/02 14:05:31  5-MIN KMSN 232005Z 20011G19KT 10SM BKN110 18/05 A3004 760 41 1400 200/11G19 RMK AO2
14837KMSN MSN20020923141010209/23/02 14:10:31  5-MIN KMSN 232010Z 20011G19KT 10SM BKN110 18/04 A3003 760 39 1400 200/11G19 RMK AO2
14837KMSN MSN20020923141511609/23/02 14:15:31  5-MIN KMSN 232015Z 20014G21KT 10SM FEW065 SCT085 BKN110 18/04 A3003 760 41 1300 200/14G21 RMK AO2
14837KMSN MSN20020923142013209/23/02 14:20:31  5-MIN KMSN 232020Z 21010G21KT 170V240 10SM FEW065 BKN090 BKN110 18/05 A3003 760 41 1400 210/10G21 170V240 RMK AO2
14837KMSN MSN20020923142510909/23/02 14:25:31  5-MIN KMSN 232025Z 20012G17KT 10SM FEW065 SCT090 18/04 A3003 770 39 1400 200/12G17 RMK AO2
14837KMSN MSN20020923143011609/23/02 14:30:31  5-MIN KMSN 232030Z 22010G18KT 10SM FEW065 SCT085 SCT110 19/04 A3003 770 38 1400 220/10G18 RMK AO2
14837KMSN MSN20020923143511609/23/02 14:35:31  5-MIN KMSN 232035Z 22013G18KT 10SM FEW065 SCT085 SCT110 18/05 A3003 770 41 1400 220/13G18 RMK AO2
14837KMSN MSN20020923144010909/23/02 14:40:31  5-MIN KMSN 232040Z 20012G20KT 10SM BKN065 BKN085 18/05 A3002 770 42 1300 200/12G20 RMK AO2
14837KMSN MSN20020923144510909/23/02 14:45:31  5-MIN KMSN 232045Z 21015G20KT 10SM BKN060 BKN090 18/05 A3003 770 41 1400 210/15G20 RMK AO2
14837KMSN MSN20020923145013809/23/02 14:50:31  5-MIN KMSN 232050Z 21009G21KT 10SM BKN060 BKN080 18/04 A3002 770 39 1400 210/09G21 RMK AO2 SLP170 60000 T01830044 58024
14837KMSN MSN20020923145510909/23/02 14:55:31  5-MIN KMSN 232055Z 22013G21KT 10SM SCT065 BKN075 19/05 A3002 770 39 1400 220/13G21 RMK AO2
14837KMSN MSN20020923150010909/23/02 15:00:31  5-MIN KMSN 232100Z 22011G19KT 10SM SCT065 BKN085 18/05 A3002 780 41 1400 220/11G19 RMK AO2
14837KMSN MSN20020923150510909/23/02 15:05:31  5-MIN KMSN 232105Z 21011G16KT 10SM SCT065 BKN085 18/06 A3001 780 42 1400 210/11G16 RMK AO2
14837KMSN MSN20020923151010909/23/02 15:10:31  5-MIN KMSN 232110Z 22011G19KT 10SM SCT065 BKN085 18/05 A3001 780 41 1400 220/11G19 RMK AO2
14837KMSN MSN20020923151510909/23/02 15:15:31  5-MIN KMSN 232115Z 22013G20KT 10SM SCT065 BKN085 19/06 A3001 780 41 1500 220/13G20 RMK AO2
14837KMSN MSN20020923152010909/23/02 15:20:31  5-MIN KMSN 232120Z 22013G20KT 10SM SCT070 BKN085 19/06 A3001 780 40 1500 220/13G20 RMK AO2
14837KMSN MSN20020923152510909/23/02 15:25:31  5-MIN KMSN 232125Z 22013G20KT 10SM FEW065 BKN085 19/06 A3001 780 41 1500 220/13G20 RMK AO2
14837KMSN MSN20020923153010909/23/02 15:30:31  5-MIN KMSN 232130Z 22013G20KT 10SM SCT070 SCT090 19/06 A3001 780 40 1500 210/13G20 RMK AO2
14837KMSN MSN20020923153510909/23/02 15:35:31  5-MIN KMSN 232135Z 24012G21KT 10SM FEW070 SCT085 19/06 A3001 780 40 1500 230/12G21 RMK AO2
14837KMSN MSN20020923154010209/23/02 15:40:31  5-MIN KMSN 232140Z 25014G22KT 10SM SCT065 19/04 A3001 780 38 1500 250/14G22 RMK AO2
14837KMSN MSN20020923154511809/23/02 15:45:31  5-MIN KMSN 232145Z 24010G22KT 200V260 10SM SCT065 19/04 A3001 780 36 1500 240/10G22 200V260 RMK AO2
14837KMSN MSN20020923155011909/23/02 15:50:31  5-MIN KMSN 232150Z 25008G19KT 10SM SCT065 19/04 A3002 780 38 1500 250/08G19 RMK AO2 SLP167 T01890044
14837KMSN MSN20020923155510209/23/02 15:55:31  5-MIN KMSN 232155Z 25011G19KT 10SM SCT065 19/03 A3002 770 35 1400 250/11G19 RMK AO2
14837KMSN MSN20020923160010209/23/02 16:00:31  5-MIN KMSN 232200Z 26012G19KT 10SM SCT065 19/01 A3002 770 30 1400 260/12G19 RMK AO2
14837KMSN MSN20020923160510209/23/02 16:05:31  5-MIN KMSN 232205Z 26011G21KT 10SM SCT065 19/00 A3002 770 28 1400 260/11G21 RMK AO2
14837KMSN MSN20020923161012009/23/02 16:10:31  5-MIN KMSN 232210Z 26015G27KT 10SM SCT065 18/01 A3003 770 30 1400 260/15G27 RMK AO2 PK WND 26027/2207
14837KMSN MSN20020923161512009/23/02 16:15:31  5-MIN KMSN 232215Z 26013G27KT 10SM SCT065 18/00 A3003 760 30 1300 260/13G27 RMK AO2 PK WND 26027/2207
14837KMSN MSN20020923162012009/23/02 16:20:31  5-MIN KMSN 232220Z 27012G23KT 10SM SCT065 18/01 A3003 760 31 1300 270/12G23 RMK AO2 PK WND 26027/2207
14837KMSN MSN20020923162513609/23/02 16:25:31  5-MIN KMSN 232225Z 26009G17KT 220V290 10SM FEW065 18/02 A3004 760 35 1300 260/09G17 220V290 RMK AO2 PK WND 26027/2207
14837KMSN MSN20020923163012009/23/02 16:30:31  5-MIN KMSN 232230Z 28015G22KT 10SM FEW065 17/03 A3004 750 39 1200 280/15G22 RMK AO2 PK WND 26027/2207
14837KMSN MSN20020923163512009/23/02 16:35:31  5-MIN KMSN 232235Z 28009G22KT 10SM FEW065 17/04 A3004 750 41 1200 280/09G22 RMK AO2 PK WND 26027/2207
14837KMSN MSN20020923164013609/23/02 16:40:31  5-MIN KMSN 232240Z 27013G22KT 220V290 10SM FEW065 17/04 A3005 750 44 1200 270/13G22 220V290 RMK AO2 PK WND 26027/2207
14837KMSN MSN20020923164512009/23/02 16:45:31  5-MIN KMSN 232245Z 28014G24KT 10SM FEW065 16/04 A3005 740 44 1100 280/14G24 RMK AO2 PK WND 26027/2207
14837KMSN MSN20020923165013709/23/02 16:50:31  5-MIN KMSN 232250Z 29016G24KT 10SM FEW065 16/04 A3005 740 44 1100 290/16G24 RMK AO2 PK WND 26027/2207 SLP179 T01610039
14837KMSN MSN20020923165509909/23/02 16:55:31  5-MIN KMSN 232255Z 29012G23KT 10SM CLR 16/04 A3006 740 45 1000 280/12G23 RMK AO2
14837KMSN MSN20020923170009909/23/02 17:00:31  5-MIN KMSN 232300Z 28014G23KT 10SM CLR 16/04 A3006 740 45 1000 280/14G23 RMK AO2
14837KMSN MSN20020923170509809/23/02 17:05:31  5-MIN KMSN 232305Z 28013G22KT 10SM CLR 15/03 A3006 730 45 900 280/13G22 RMK AO2
14837KMSN MSN20020923171009809/23/02 17:10:31  5-MIN KMSN 232310Z 28010G22KT 10SM CLR 15/03 A3006 730 45 900 280/10G22 RMK AO2
14837KMSN MSN20020923171509809/23/02 17:15:31  5-MIN KMSN 232315Z 28014G20KT 10SM CLR 15/03 A3007 730 45 900 280/14G20 RMK AO2
14837KMSN MSN20020923172009809/23/02 17:20:31  5-MIN KMSN 232320Z 28010G20KT 10SM CLR 14/03 A3007 730 47 900 280/10G20 RMK AO2
14837KMSN MSN20020923172509809/23/02 17:25:31  5-MIN KMSN 232325Z 28012G21KT 10SM CLR 14/03 A3007 730 47 900 280/12G21 RMK AO2
14837KMSN MSN20020923173009809/23/02 17:30:31  5-MIN KMSN 232330Z 28011G21KT 10SM CLR 14/03 A3008 720 45 900 280/11G21 RMK AO2
14837KMSN MSN20020923173509809/23/02 17:35:31  5-MIN KMSN 232335Z 28010G21KT 10SM CLR 14/03 A3008 720 47 800 280/10G21 RMK AO2
14837KMSN MSN20020923174009809/23/02 17:40:31  5-MIN KMSN 232340Z 27015G22KT 10SM CLR 14/03 A3008 710 47 800 270/15G22 RMK AO2
14837KMSN MSN20020923174510109/23/02 17:45:31  5-MIN KMSN 232345Z 28010G22KT 10SM FEW065 13/03 A3008 710 48 700 280/10G22 RMK AO2
14837KMSN MSN20020923175015809/23/02 17:50:31  5-MIN KMSN 232350Z 27008G16KT 240V320 10SM FEW065 13/03 A3009 710 50 700 270/08G16 240V320 RMK AO2 SLP191 60000 T01330033 10194 20133 56016
14837KMSN MSN20020923175509809/23/02 17:55:31  5-MIN KMSN 232355Z 28008G17KT 10SM CLR 13/03 A3009 710 50 700 280/08G17 RMK AO2
14837KMSN MSN20020923180009809/23/02 18:00:31  5-MIN KMSN 240000Z 28010G17KT 10SM CLR 13/03 A3009 700 50 700 280/10G17 RMK AO2
14837KMSN MSN20020923180509509/23/02 18:05:31  5-MIN KMSN 240005Z 28010KT 10SM FEW065 13/03 A3010 700 52 600 280/10 RMK AO2
14837KMSN MSN20020923181011709/23/02 18:10:31  5-MIN KMSN 240010Z 27012G18KT 240V300 10SM FEW065 13/03 A3010 700 50 600 270/12G18 240V300 RMK AO2
14837KMSN MSN20020923181510109/23/02 18:15:31  5-MIN KMSN 240015Z 26010G20KT 10SM FEW065 13/03 A3010 690 50 600 260/10G20 RMK AO2
14837KMSN MSN20020923182011709/23/02 18:20:31  5-MIN KMSN 240020Z 27008G20KT 240V300 10SM FEW055 13/03 A3011 690 50 600 270/08G20 240V300 RMK AO2
14837KMSN MSN20020923182511709/23/02 18:25:31  5-MIN KMSN 240025Z 28007G16KT 240V310 10SM FEW055 13/03 A3011 690 50 600 270/07G16 240V310 RMK AO2
14837KMSN MSN20020923183011109/23/02 18:30:31  5-MIN KMSN 240030Z 28007KT 230V310 10SM FEW055 12/03 A3011 690 52 600 280/07 230V310 RMK AO2
14837KMSN MSN20020923183509509/23/02 18:35:31  5-MIN KMSN 240035Z 29007KT 10SM FEW055 12/03 A3012 680 52 600 290/07 RMK AO2
14837KMSN MSN20020923184010109/23/02 18:40:31  5-MIN KMSN 240040Z 28010G15KT 10SM FEW055 12/03 A3012 680 52 600 280/10G15 RMK AO2
14837KMSN MSN20020923184510109/23/02 18:45:31  5-MIN KMSN 240045Z 29012G18KT 10SM FEW055 12/03 A3012 680 52 500 290/12G18 RMK AO2
14837KMSN MSN20020923185013109/23/02 18:50:31  5-MIN KMSN 240050Z 27009G18KT 230V300 10SM CLR 12/03 A3012 680 54 500 270/09G18 230V300 RMK AO2 SLP204 T01170028
14837KMSN MSN20020923185511409/23/02 18:55:31  5-MIN KMSN 240055Z 27010G16KT 220V290 10SM CLR 12/03 A3013 670 54 500 270/10G16 220V290 RMK AO2
14837KMSN MSN20020923190009809/23/02 19:00:31  5-MIN KMSN 240100Z 28009G16KT 10SM CLR 12/03 A3013 670 54 500 280/09G16 RMK AO2
14837KMSN MSN20020923190509809/23/02 19:05:31  5-MIN KMSN 240105Z 28009G15KT 10SM CLR 12/03 A3013 670 54 500 280/09G15 RMK AO2
14837KMSN MSN20020923191009809/23/02 19:10:31  5-MIN KMSN 240110Z 28011G15KT 10SM CLR 11/03 A3014 660 56 400 280/11G15 RMK AO2
14837KMSN MSN20020923191509809/23/02 19:15:31  5-MIN KMSN 240115Z 29011G19KT 10SM CLR 11/03 A3014 660 56 400 290/11G19 RMK AO2
14837KMSN MSN20020923192011409/23/02 19:20:31  5-MIN KMSN 240120Z 27010G19KT 220V290 10SM CLR 11/03 A3014 660 56 400 270/10G19 220V290 RMK AO2
14837KMSN MSN20020923192511409/23/02 19:25:31  5-MIN KMSN 240125Z 28010G16KT 250V310 10SM CLR 11/03 A3015 660 56 400 280/10G16 250V310 RMK AO2
14837KMSN MSN20020923193009809/23/02 19:30:31  5-MIN KMSN 240130Z 28011G17KT 10SM CLR 11/03 A3015 650 58 300 280/11G17 RMK AO2
14837KMSN MSN20020923193511709/23/02 19:35:31  5-MIN KMSN 240135Z 28010G17KT 250V330 10SM FEW040 11/03 A3015 650 58 300 280/10G17 250V330 RMK AO2
14837KMSN MSN20020923194009509/23/02 19:40:31  5-MIN KMSN 240140Z 28009KT 10SM FEW040 11/03 A3015 650 58 300 280/09 RMK AO2
14837KMSN MSN20020923194511109/23/02 19:45:31  5-MIN KMSN 240145Z 28009KT 260V340 10SM FEW040 10/03 A3016 650 60 200 280/09 260V340 RMK AO2
14837KMSN MSN20020923195011809/23/02 19:50:31  5-MIN KMSN 240150Z 30011G18KT 10SM FEW045 10/03 A3016 640 60 200 300/11G18 RMK AO2 SLP216 T01000028
14837KMSN MSN20020923195510109/23/02 19:55:31  5-MIN KMSN 240155Z 29011G20KT 10SM SCT043 10/02 A3016 640 58 200 290/11G20 RMK AO2
14837KMSN MSN20020923200010109/23/02 20:00:31  5-MIN KMSN 240200Z 29012G20KT 10SM SCT043 10/02 A3016 640 58 200 290/12G20 RMK AO2
14837KMSN MSN20020923200510109/23/02 20:05:31  5-MIN KMSN 240205Z 30009G18KT 10SM FEW043 10/02 A3016 640 58 200 300/09G18 RMK AO2
14837KMSN MSN20020923201009509/23/02 20:10:31  5-MIN KMSN 240210Z 30007KT 10SM SCT043 10/02 A3016 640 58 200 300/07 RMK AO2
14837KMSN MSN20020923201509509/23/02 20:15:31  5-MIN KMSN 240215Z 29007KT 10SM BKN043 10/02 A3016 640 58 200 290/07 RMK AO2
14837KMSN MSN20020923202009509/23/02 20:20:31  5-MIN KMSN 240220Z 29009KT 10SM BKN041 10/02 A3016 640 58 200 290/09 RMK AO2
14837KMSN MSN20020923202511109/23/02 20:25:31  5-MIN KMSN 240225Z 28008KT 250V320 10SM BKN041 10/02 A3017 640 58 200 280/08 250V320 RMK AO2
14837KMSN MSN20020923203011109/23/02 20:30:31  5-MIN KMSN 240230Z 29007KT 250V320 10SM BKN041 10/02 A3017 640 58 200 290/07 250V320 RMK AO2
14837KMSN MSN20020923203509509/23/02 20:35:31  5-MIN KMSN 240235Z 29009KT 10SM OVC039 10/02 A3017 630 58 200 290/09 RMK AO2
14837KMSN MSN20020923204009509/23/02 20:40:31  5-MIN KMSN 240240Z 29010KT 10SM OVC039 10/02 A3017 630 58 200 280/10 RMK AO2
14837KMSN MSN20020923204511709/23/02 20:45:31  5-MIN KMSN 240245Z 30012G16KT 260V320 10SM BKN039 10/02 A3017 630 58 200 290/12G16 260V320 RMK AO2
14837KMSN MSN20020923205012409/23/02 20:50:31  5-MIN KMSN 240250Z 32010G18KT 10SM BKN039 10/02 A3017 630 56 200 310/10G18 RMK AO2 SLP220 T01000017 53022
14837KMSN MSN20020923205510109/23/02 20:55:31  5-MIN KMSN 240255Z 31011G18KT 10SM OVC039 10/02 A3018 630 58 200 300/11G18 RMK AO2
14837KMSN MSN20020923210010109/23/02 21:00:31  5-MIN KMSN 240300Z 29008G17KT 10SM OVC039 10/02 A3018 630 58 200 290/08G17 RMK AO2
14837KMSN MSN20020923210509509/23/02 21:05:31  5-MIN KMSN 240305Z 29009KT 10SM OVC039 09/02 A3018 630 60 200 290/09 RMK AO2
14837KMSN MSN20020923211009509/23/02 21:10:31  5-MIN KMSN 240310Z 28008KT 10SM OVC039 09/02 A3018 620 60 100 280/08 RMK AO2
14837KMSN MSN20020923211510109/23/02 21:15:31  5-MIN KMSN 240315Z 28010G15KT 10SM OVC039 09/02 A3018 620 60 100 280/10G15 RMK AO2
14837KMSN MSN20020923212010109/23/02 21:20:31  5-MIN KMSN 240320Z 29009G15KT 10SM OVC039 09/03 A3019 620 63 100 290/09G15 RMK AO2
14837KMSN MSN20020923212510109/23/02 21:25:31  5-MIN KMSN 240325Z 29011G16KT 10SM OVC039 09/03 A3019 620 63 100 290/11G16 RMK AO2
14837KMSN MSN20020923213010109/23/02 21:30:31  5-MIN KMSN 240330Z 28010G16KT 10SM OVC037 09/03 A3019 620 65 100 280/10G16 RMK AO2
14837KMSN MSN20020923213510109/23/02 21:35:31  5-MIN KMSN 240335Z 28010G16KT 10SM OVC035 09/03 A3019 610 65 100 280/10G16 RMK AO2
14837KMSN MSN20020923214009509/23/02 21:40:31  5-MIN KMSN 240340Z 28009KT 10SM OVC035 09/03 A3019 610 65 100 280/09 RMK AO2
14837KMSN MSN20020923214511109/23/02 21:45:31  5-MIN KMSN 240345Z 30010KT 270V340 10SM BKN035 09/03 A3020 610 65 100 300/10 270V340 RMK AO2
14837KMSN MSN20020923215011609/23/02 21:50:31  5-MIN KMSN 240350Z 30012G18KT 10SM BKN035 08/02 A3020 610 65 0 300/12G18 RMK AO2 SLP229 T00830022
14837KMSN MSN20020923215509909/23/02 21:55:31  5-MIN KMSN 240355Z 30009G18KT 10SM BKN033 08/02 A3020 600 68 0 290/09G18 RMK AO2
14837KMSN MSN20020923220009909/23/02 22:00:31  5-MIN KMSN 240400Z 31009G16KT 10SM SCT033 08/02 A3020 600 68 0 310/09G16 RMK AO2
14837KMSN MSN20020923220509909/23/02 22:05:31  5-MIN KMSN 240405Z 31011G16KT 10SM FEW031 08/02 A3021 600 68 0 310/11G16 RMK AO2
14837KMSN MSN20020923221010209/23/02 22:10:31  5-MIN KMSN 240410Z 32009G15KT 10SM FEW031 07/02 A3021 600 70 -100 310/09G15 RMK AO2
14837KMSN MSN20020923221509309/23/02 22:15:31  5-MIN KMSN 240415Z 31010KT 10SM CLR 07/02 A3021 600 70 -100 310/10 RMK AO2
14837KMSN MSN20020923222009909/23/02 22:20:31  5-MIN KMSN 240420Z 32012G16KT 10SM CLR 07/02 A3021 600 70 -100 320/12G16 RMK AO2
14837KMSN MSN20020923222510209/23/02 22:25:31  5-MIN KMSN 240425Z 31008G16KT 10SM FEW035 07/02 A3021 600 70 -100 310/08G16 RMK AO2
14837KMSN MSN20020923223009609/23/02 22:30:31  5-MIN KMSN 240430Z 31008KT 10SM FEW035 07/02 A3021 600 70 -100 310/08 RMK AO2
14837KMSN MSN20020923223509609/23/02 22:35:31  5-MIN KMSN 240435Z 31008KT 10SM FEW035 07/02 A3021 600 73 -200 310/08 RMK AO2
14837KMSN MSN20020923224009609/23/02 22:40:31  5-MIN KMSN 240440Z 30009KT 10SM FEW035 07/02 A3021 590 73 -200 300/09 RMK AO2
14837KMSN MSN20020923224509609/23/02 22:45:31  5-MIN KMSN 240445Z 30008KT 10SM FEW035 07/02 A3021 590 73 -200 290/08 RMK AO2
14837KMSN MSN20020923225012909/23/02 22:50:31  5-MIN KMSN 240450Z 29008KT 260V330 10SM FEW035 07/02 A3021 590 73 -200 290/08 260V330 RMK AO2 SLP233 T00670022
14837KMSN MSN20020923225510909/23/02 22:55:31  5-MIN KMSN 240455Z 30007KT 270V340 10SM CLR 07/02 A3022 590 70 -200 300/07 270V340 RMK AO2
14837KMSN MSN20020923230009309/23/02 23:00:31  5-MIN KMSN 240500Z 30009KT 10SM CLR 07/02 A3022 590 70 -200 300/09 RMK AO2
14837KMSN MSN20020923230509309/23/02 23:05:31  5-MIN KMSN 240505Z 31007KT 10SM CLR 07/02 A3022 590 70 -200 310/07 RMK AO2
14837KMSN MSN20020923231009309/23/02 23:10:31  5-MIN KMSN 240510Z 31009KT 10SM CLR 07/02 A3022 590 73 -200 310/09 RMK AO2
14837KMSN MSN20020923231509309/23/02 23:15:31  5-MIN KMSN 240515Z 31009KT 10SM CLR 07/02 A3022 590 70 -200 310/09 RMK AO2
14837KMSN MSN20020923232009309/23/02 23:20:31  5-MIN KMSN 240520Z 31009KT 10SM CLR 07/02 A3022 590 70 -200 310/09 RMK AO2
14837KMSN MSN20020923232510909/23/02 23:25:31  5-MIN KMSN 240525Z 31007KT 280V340 10SM CLR 07/02 A3022 590 70 -200 310/07 280V340 RMK AO2
14837KMSN MSN20020923233009309/23/02 23:30:31  5-MIN KMSN 240530Z 31007KT 10SM CLR 07/02 A3022 590 70 -200 310/07 RMK AO2
14837KMSN MSN20020923233509309/23/02 23:35:31  5-MIN KMSN 240535Z VRB06KT 10SM CLR 06/02 A3023 580 73 -300 VRB/06 RMK AO2
14837KMSN MSN20020923234009309/23/02 23:40:31  5-MIN KMSN 240540Z 32007KT 10SM CLR 07/02 A3023 580 70 -200 320/07 RMK AO2
14837KMSN MSN20020923234509309/23/02 23:45:31  5-MIN KMSN 240545Z 32006KT 10SM CLR 06/02 A3023 580 73 -300 320/06 RMK AO2
14837KMSN MSN20020923235013809/23/02 23:50:31  5-MIN KMSN 240550Z VRB05KT 10SM CLR 07/02 A3023 580 70 -200 VRB/05 RMK AO2 SLP240 T00670017 10133 20061 401940033 51028
14837KMSN MSN20020923235509309/23/02 23:55:31  5-MIN KMSN 240555Z 31007KT 10SM CLR 06/02 A3023 580 73 -300 310/07 RMK AO2
14837KMSN MSN20020924000009309/24/02 00:00:31  5-MIN KMSN 240600Z 31006KT 10SM CLR 06/02 A3023 580 76 -300 310/06 RMK AO2
14837KMSN MSN20020924000509309/24/02 00:05:31  5-MIN KMSN 240605Z 30005KT 10SM CLR 06/02 A3024 570 76 -300 300/05 RMK AO2
14837KMSN MSN20020924001009309/24/02 00:10:31  5-MIN KMSN 240610Z 29007KT 10SM CLR 06/02 A3024 570 76 -300 290/07 RMK AO2
14837KMSN MSN20020924001509309/24/02 00:15:31  5-MIN KMSN 240615Z 29005KT 10SM CLR 06/02 A3024 570 76 -300 290/05 RMK AO2
14837KMSN MSN20020924002009309/24/02 00:20:31  5-MIN KMSN 240620Z 29006KT 10SM CLR 06/02 A3024 570 76 -300 290/06 RMK AO2
14837KMSN MSN20020924002509309/24/02 00:25:31  5-MIN KMSN 240625Z 30005KT 10SM CLR 06/02 A3025 560 79 -400 300/05 RMK AO2
14837KMSN MSN20020924003009309/24/02 00:30:31  5-MIN KMSN 240630Z 30004KT 10SM CLR 06/02 A3025 560 79 -400 300/04 RMK AO2
14837KMSN MSN20020924003509309/24/02 00:35:31  5-MIN KMSN 240635Z VRB04KT 10SM CLR 06/02 A3025 560 79 -400 VRB/04 RMK AO2
14837KMSN MSN20020924004009309/24/02 00:40:31  5-MIN KMSN 240640Z 29005KT 10SM CLR 06/02 A3025 560 79 -400 280/05 RMK AO2
14837KMSN MSN20020924004509309/24/02 00:45:31  5-MIN KMSN 240645Z 28004KT 10SM CLR 06/02 A3025 560 79 -400 280/04 RMK AO2
14837KMSN MSN20020924005011009/24/02 00:50:31  5-MIN KMSN 240650Z 28003KT 10SM CLR 05/02 A3026 560 82 -400 280/03 RMK AO2 SLP249 T00500022
14837KMSN MSN20020924005509309/24/02 00:55:31  5-MIN KMSN 240655Z VRB03KT 10SM CLR 05/02 A3026 550 82 -400 VRB/03 RMK AO2
14837KMSN MSN20020924010009309/24/02 01:00:31  5-MIN KMSN 240700Z 27004KT 10SM CLR 05/02 A3026 550 82 -400 270/04 RMK AO2
14837KMSN MSN20020924010509309/24/02 01:05:31  5-MIN KMSN 240705Z VRB04KT 10SM CLR 05/02 A3026 550 82 -400 VRB/04 RMK AO2
14837KMSN MSN20020924011009309/24/02 01:10:31  5-MIN KMSN 240710Z VRB04KT 10SM CLR 05/02 A3026 550 82 -400 VRB/04 RMK AO2
14837KMSN MSN20020924011509309/24/02 01:15:31  5-MIN KMSN 240715Z VRB03KT 10SM CLR 05/02 A3026 550 82 -400 VRB/03 RMK AO2
14837KMSN MSN20020924012009309/24/02 01:20:31  5-MIN KMSN 240720Z 28003KT 10SM CLR 04/02 A3026 550 85 -500 280/03 RMK AO2
14837KMSN MSN20020924012509309/24/02 01:25:31  5-MIN KMSN 240725Z 27003KT 10SM CLR 04/02 A3027 550 85 -500 270/03 RMK AO2
14837KMSN MSN20020924013009309/24/02 01:30:31  5-MIN KMSN 240730Z 28004KT 10SM CLR 04/02 A3027 540 82 -500 280/04 RMK AO2
14837KMSN MSN20020924013509309/24/02 01:35:31  5-MIN KMSN 240735Z 30003KT 10SM CLR 04/02 A3027 540 82 -500 300/03 RMK AO2
14837KMSN MSN20020924014009309/24/02 01:40:31  5-MIN KMSN 240740Z 31004KT 10SM CLR 04/02 A3027 540 82 -500 310/04 RMK AO2
14837KMSN MSN20020924014509309/24/02 01:45:31  5-MIN KMSN 240745Z 31004KT 10SM CLR 04/02 A3027 550 85 -600 310/04 RMK AO2
14837KMSN MSN20020924015011009/24/02 01:50:31  5-MIN KMSN 240750Z 31004KT 10SM CLR 04/02 A3027 540 85 -600 310/04 RMK AO2 SLP253 T00390017
14837KMSN MSN20020924015509309/24/02 01:55:31  5-MIN KMSN 240755Z 30005KT 10SM CLR 04/02 A3027 550 85 -600 300/05 RMK AO2
14837KMSN MSN20020924020009309/24/02 02:00:31  5-MIN KMSN 240800Z 30005KT 10SM CLR 04/02 A3027 540 85 -600 300/05 RMK AO2
14837KMSN MSN20020924020509309/24/02 02:05:31  5-MIN KMSN 240805Z 30005KT 10SM CLR 04/02 A3027 540 85 -600 300/05 RMK AO2
14837KMSN MSN20020924021009309/24/02 02:10:31  5-MIN KMSN 240810Z 30005KT 10SM CLR 04/02 A3027 540 85 -600 300/05 RMK AO2
14837KMSN MSN20020924021509309/24/02 02:15:31  5-MIN KMSN 240815Z VRB04KT 10SM CLR 04/02 A3027 540 85 -600 VRB/04 RMK AO2
14837KMSN MSN20020924022009309/24/02 02:20:31  5-MIN KMSN 240820Z 30004KT 10SM CLR 04/02 A3027 540 89 -600 300/04 RMK AO2
14837KMSN MSN20020924022509309/24/02 02:25:31  5-MIN KMSN 240825Z 30004KT 10SM CLR 04/02 A3027 540 85 -500 300/04 RMK AO2
14837KMSN MSN20020924023009309/24/02 02:30:31  5-MIN KMSN 240830Z 30005KT 10SM CLR 04/02 A3027 540 89 -600 300/05 RMK AO2
14837KMSN MSN20020924023509309/24/02 02:35:31  5-MIN KMSN 240835Z 30005KT 10SM CLR 04/02 A3028 540 85 -600 300/05 RMK AO2
14837KMSN MSN20020924024009309/24/02 02:40:31  5-MIN KMSN 240840Z 30005KT 10SM CLR 04/02 A3028 540 85 -600 300/05 RMK AO2
14837KMSN MSN20020924024509309/24/02 02:45:31  5-MIN KMSN 240845Z 31005KT 10SM CLR 04/02 A3028 540 85 -600 310/05 RMK AO2
14837KMSN MSN20020924025011609/24/02 02:50:31  5-MIN KMSN 240850Z 30005KT 10SM CLR 04/02 A3028 540 85 -600 300/05 RMK AO2 SLP256 T00390017 51019
14837KMSN MSN20020924025509309/24/02 02:55:31  5-MIN KMSN 240855Z 30005KT 10SM CLR 04/02 A3028 530 85 -600 300/05 RMK AO2
14837KMSN MSN20020924030009309/24/02 03:00:31  5-MIN KMSN 240900Z 31004KT 10SM CLR 04/02 A3028 530 85 -600 310/04 RMK AO2
14837KMSN MSN20020924030509309/24/02 03:05:31  5-MIN KMSN 240905Z 32005KT 10SM CLR 04/02 A3028 530 85 -600 310/05 RMK AO2
14837KMSN MSN20020924031009309/24/02 03:10:31  5-MIN KMSN 240910Z 31005KT 10SM CLR 03/02 A3028 530 89 -700 310/05 RMK AO2
14837KMSN MSN20020924031509309/24/02 03:15:31  5-MIN KMSN 240915Z 31005KT 10SM CLR 04/02 A3028 530 89 -600 310/05 RMK AO2
14837KMSN MSN20020924032009309/24/02 03:20:31  5-MIN KMSN 240920Z 32006KT 10SM CLR 04/02 A3028 530 89 -600 320/06 RMK AO2
14837KMSN MSN20020924032509309/24/02 03:25:31  5-MIN KMSN 240925Z 32004KT 10SM CLR 04/02 A3028 530 89 -600 320/04 RMK AO2
14837KMSN MSN20020924033009309/24/02 03:30:31  5-MIN KMSN 240930Z 32005KT 10SM CLR 03/02 A3028 530 89 -700 320/05 RMK AO2
14837KMSN MSN20020924033509309/24/02 03:35:31  5-MIN KMSN 240935Z 33006KT 10SM CLR 04/02 A3028 530 85 -600 320/06 RMK AO2
14837KMSN MSN20020924034009309/24/02 03:40:31  5-MIN KMSN 240940Z 32005KT 10SM CLR 04/02 A3028 530 85 -600 320/05 RMK AO2
14837KMSN MSN20020924034509309/24/02 03:45:31  5-MIN KMSN 240945Z 31004KT 10SM CLR 03/02 A3029 530 89 -700 310/04 RMK AO2
14837KMSN MSN20020924035011009/24/02 03:50:31  5-MIN KMSN 240950Z 30004KT 10SM CLR 03/02 A3029 520 89 -700 300/04 RMK AO2 SLP260 T00330017
14837KMSN MSN20020924035509309/24/02 03:55:31  5-MIN KMSN 240955Z 31003KT 10SM CLR 03/02 A3029 530 89 -700 300/03 RMK AO2
14837KMSN MSN20020924040009309/24/02 04:00:31  5-MIN KMSN 241000Z 00000KT 10SM CLR 03/02 A3029 530 89 -700 000/00 RMK AO2
14837KMSN MSN20020924040509309/24/02 04:05:31  5-MIN KMSN 241005Z 00000KT 10SM CLR 03/02 A3029 520 92 -700 000/00 RMK AO2
14837KMSN MSN20020924041009309/24/02 04:10:31  5-MIN KMSN 241010Z 00000KT 10SM CLR 02/01 A3029 520 92 -800 000/00 RMK AO2
14837KMSN MSN20020924041509309/24/02 04:15:31  5-MIN KMSN 241015Z 00000KT 10SM CLR 02/01 A3029 520 89 -800 000/00 RMK AO2
14837KMSN MSN20020924042009309/24/02 04:20:31  5-MIN KMSN 241020Z 00000KT 10SM CLR 02/01 A3029 520 92 -800 000/00 RMK AO2
14837KMSN MSN20020924042509309/24/02 04:25:31  5-MIN KMSN 241025Z 00000KT 10SM CLR 03/01 A3029 520 89 -700 000/00 RMK AO2
14837KMSN MSN20020924043009309/24/02 04:30:31  5-MIN KMSN 241030Z 00000KT 10SM CLR 03/01 A3029 520 89 -700 000/00 RMK AO2
14837KMSN MSN20020924043509309/24/02 04:35:31  5-MIN KMSN 241035Z 00000KT 10SM CLR 02/01 A3029 520 92 -800 000/00 RMK AO2
14837KMSN MSN20020924044009309/24/02 04:40:31  5-MIN KMSN 241040Z 00000KT 10SM CLR 02/01 A3029 520 92 -800 000/00 RMK AO2
14837KMSN MSN20020924044509309/24/02 04:45:31  5-MIN KMSN 241045Z 00000KT 10SM CLR 03/01 A3030 520 89 -700 000/00 RMK AO2
14837KMSN MSN20020924045011009/24/02 04:50:31  5-MIN KMSN 241050Z 00000KT 10SM CLR 02/01 A3030 520 92 -800 000/00 RMK AO2 SLP264 T00220011
14837KMSN MSN20020924045509309/24/02 04:55:31  5-MIN KMSN 241055Z 00000KT 10SM CLR 02/01 A3030 510 92 -800 000/00 RMK AO2
14837KMSN MSN20020924050009309/24/02 05:00:31  5-MIN KMSN 241100Z 00000KT 10SM CLR 02/01 A3030 510 92 -800 000/00 RMK AO2
14837KMSN MSN20020924050509309/24/02 05:05:31  5-MIN KMSN 241105Z 00000KT 10SM CLR 02/01 A3030 510 92 -800 000/00 RMK AO2
14837KMSN MSN20020924051009309/24/02 05:10:31  5-MIN KMSN 241110Z 00000KT 10SM CLR 02/01 A3030 510 92 -900 000/00 RMK AO2
14837KMSN MSN20020924051509309/24/02 05:15:31  5-MIN KMSN 241115Z 00000KT 10SM CLR 02/01 A3030 510 96 -900 000/00 RMK AO2
14837KMSN MSN20020924052009309/24/02 05:20:31  5-MIN KMSN 241120Z 00000KT 10SM CLR 02/01 A3030 510 92 -900 000/00 RMK AO2
14837KMSN MSN20020924052509309/24/02 05:25:31  5-MIN KMSN 241125Z 00000KT 10SM CLR 02/01 A3031 510 92 -800 000/00 RMK AO2
14837KMSN MSN20020924053009309/24/02 05:30:31  5-MIN KMSN 241130Z 00000KT 10SM CLR 02/01 A3031 500 96 -900 000/00 RMK AO2
14837KMSN MSN20020924053509309/24/02 05:35:31  5-MIN KMSN 241135Z 19003KT 10SM CLR 02/02 A3032 500 96 -800 190/03 RMK AO2
14837KMSN MSN20020924054009309/24/02 05:40:31  5-MIN KMSN 241140Z 22004KT 10SM CLR 03/02 A3032 500 92 -800 220/04 RMK AO2
14837KMSN MSN20020924054509309/24/02 05:45:31  5-MIN KMSN 241145Z 23004KT 10SM CLR 02/01 A3032 500 92 -800 230/04 RMK AO2
14837KMSN MSN20020924055012809/24/02 05:50:31  5-MIN KMSN 241150Z 23004KT 10SM CLR 02/01 A3032 490 92 -900 230/04 RMK AO2 SLP273 T00220011 10061 20011 51015
14837KMSN MSN20020924055509309/24/02 05:55:31  5-MIN KMSN 241155Z 23004KT 10SM CLR 03/02 A3033 490 92 -800 230/04 RMK AO2
14837KMSN MSN20020924060009309/24/02 06:00:31  5-MIN KMSN 241200Z 23003KT 10SM CLR 03/02 A3033 490 92 -800 230/03 RMK AO2
14837KMSN MSN20020924060509309/24/02 06:05:31  5-MIN KMSN 241205Z 25003KT 10SM CLR 02/01 A3033 490 92 -900 250/03 RMK AO2
14837KMSN MSN20020924061009309/24/02 06:10:31  5-MIN KMSN 241210Z 25003KT 10SM CLR 03/02 A3033 480 92 -700 250/03 RMK AO2
14837KMSN MSN20020924061509309/24/02 06:15:31  5-MIN KMSN 241215Z 25004KT 10SM CLR 04/02 A3033 480 89 -700 250/04 RMK AO2
14837KMSN MSN20020924062009309/24/02 06:20:31  5-MIN KMSN 241220Z 26004KT 10SM CLR 04/02 A3034 480 89 -700 260/04 RMK AO2
14837KMSN MSN20020924062509309/24/02 06:25:31  5-MIN KMSN 241225Z 27003KT 10SM CLR 04/02 A3033 480 89 -700 270/03 RMK AO2
14837KMSN MSN20020924063009309/24/02 06:30:31  5-MIN KMSN 241230Z 00000KT 10SM CLR 04/02 A3034 480 89 -700 000/00 RMK AO2
14837KMSN MSN20020924063509309/24/02 06:35:31  5-MIN KMSN 241235Z 26004KT 10SM CLR 04/03 A3034 480 92 -700 250/04 RMK AO2
14837KMSN MSN20020924064009309/24/02 06:40:31  5-MIN KMSN 241240Z 00000KT 10SM CLR 05/03 A3034 480 89 -500 000/00 RMK AO2
14837KMSN MSN20020924064509309/24/02 06:45:31  5-MIN KMSN 241245Z VRB03KT 10SM CLR 05/03 A3034 480 89 -500 VRB/03 RMK AO2
14837KMSN MSN20020924065011009/24/02 06:50:31  5-MIN KMSN 241250Z 25003KT 10SM CLR 06/03 A3034 480 85 -500 250/03 RMK AO2 SLP279 T00560033
14837KMSN MSN20020924065509309/24/02 06:55:31  5-MIN KMSN 241255Z 00000KT 10SM CLR 06/03 A3034 480 85 -500 000/00 RMK AO2
14837KMSN MSN20020924070009309/24/02 07:00:31  5-MIN KMSN 241300Z VRB04KT 10SM CLR 06/03 A3034 480 85 -500 VRB/04 RMK AO2
14837KMSN MSN20020924070509309/24/02 07:05:31  5-MIN KMSN 241305Z 00000KT 10SM CLR 06/04 A3034 480 86 -400 000/00 RMK AO2
14837KMSN MSN20020924071009309/24/02 07:10:31  5-MIN KMSN 241310Z 27003KT 10SM CLR 06/03 A3034 480 82 -400 260/03 RMK AO2
14837KMSN MSN20020924071509309/24/02 07:15:31  5-MIN KMSN 241315Z VRB03KT 10SM CLR 06/03 A3034 480 82 -400 VRB/03 RMK AO2
14837KMSN MSN20020924072009309/24/02 07:20:31  5-MIN KMSN 241320Z VRB04KT 10SM CLR 06/03 A3034 480 82 -400 VRB/04 RMK AO2
14837KMSN MSN20020924072509309/24/02 07:25:31  5-MIN KMSN 241325Z VRB03KT 10SM CLR 07/03 A3034 480 79 -300 VRB/03 RMK AO2
14837KMSN MSN20020924073009309/24/02 07:30:31  5-MIN KMSN 241330Z VRB03KT 10SM CLR 07/03 A3034 480 79 -300 VRB/03 RMK AO2
14837KMSN MSN20020924073509309/24/02 07:35:31  5-MIN KMSN 241335Z 00000KT 10SM CLR 07/04 A3034 480 79 -300 000/00 RMK AO2
14837KMSN MSN20020924074009309/24/02 07:40:31  5-MIN KMSN 241340Z VRB03KT 10SM CLR 07/03 A3034 480 79 -300 VRB/03 RMK AO2
14837KMSN MSN20020924074509309/24/02 07:45:31  5-MIN KMSN 241345Z 30004KT 10SM CLR 07/03 A3034 480 76 -300 300/04 RMK AO2
14837KMSN MSN20020924075011009/24/02 07:50:31  5-MIN KMSN 241350Z 00000KT 10SM CLR 07/03 A3034 480 76 -300 000/00 RMK AO2 SLP278 T00720033
14837KMSN MSN20020924075509309/24/02 07:55:31  5-MIN KMSN 241355Z 00000KT 10SM CLR 07/03 A3034 480 76 -300 000/00 RMK AO2
14837KMSN MSN20020924080009309/24/02 08:00:31  5-MIN KMSN 241400Z 00000KT 10SM CLR 08/04 A3035 470 76 -200 000/00 RMK AO2
14837KMSN MSN20020924080509309/24/02 08:05:31  5-MIN KMSN 241405Z 00000KT 10SM CLR 08/04 A3035 470 76 -200 000/00 RMK AO2
14837KMSN MSN20020924081009309/24/02 08:10:31  5-MIN KMSN 241410Z VRB03KT 10SM CLR 08/04 A3035 470 73 -100 VRB/03 RMK AO2
14837KMSN MSN20020924081509309/24/02 08:15:31  5-MIN KMSN 241415Z 00000KT 10SM CLR 08/04 A3035 470 76 -100 000/00 RMK AO2
14837KMSN MSN20020924082009309/24/02 08:20:31  5-MIN KMSN 241420Z 00000KT 10SM CLR 09/04 A3035 470 71 -100 000/00 RMK AO2
14837KMSN MSN20020924082509309/24/02 08:25:31  5-MIN KMSN 241425Z 00000KT 10SM CLR 09/04 A3035 460 73 -100 000/00 RMK AO2
14837KMSN MSN20020924083009309/24/02 08:30:31  5-MIN KMSN 241430Z 31003KT 10SM CLR 09/04 A3036 460 73 -100 310/03 RMK AO2
14837KMSN MSN20020924083509009/24/02 08:35:31  5-MIN KMSN 241435Z VRB03KT 10SM CLR 09/04 A3036 460 68 0 VRB/03 RMK AO2
14837KMSN MSN20020924084009009/24/02 08:40:31  5-MIN KMSN 241440Z VRB04KT 10SM CLR 09/04 A3036 460 71 0 VRB/04 RMK AO2
14837KMSN MSN20020924084509009/24/02 08:45:31  5-MIN KMSN 241445Z 35003KT 10SM CLR 09/04 A3036 460 71 0 350/03 RMK AO2
14837KMSN MSN20020924085011309/24/02 08:50:31  5-MIN KMSN 241450Z 34004KT 10SM CLR 09/04 A3035 470 71 0 340/04 RMK AO2 SLP282 T00940044 53016
14837KMSN MSN20020924085509009/24/02 08:55:31  5-MIN KMSN 241455Z 30005KT 10SM CLR 09/04 A3035 460 71 0 300/05 RMK AO2
14837KMSN MSN20020924090009009/24/02 09:00:31  5-MIN KMSN 241500Z VRB04KT 10SM CLR 09/04 A3036 460 68 0 VRB/04 RMK AO2
14837KMSN MSN20020924090509009/24/02 09:05:31  5-MIN KMSN 241505Z 28005KT 10SM CLR 09/04 A3036 460 71 0 280/05 RMK AO2
14837KMSN MSN20020924091009009/24/02 09:10:31  5-MIN KMSN 241510Z VRB03KT 10SM CLR 10/04 A3036 460 68 0 VRB/03 RMK AO2
14837KMSN MSN20020924091509009/24/02 09:15:31  5-MIN KMSN 241515Z VRB05KT 10SM CLR 10/04 A3036 460 68 0 VRB/05 RMK AO2
14837KMSN MSN20020924092009009/24/02 09:20:31  5-MIN KMSN 241520Z VRB04KT 10SM CLR 10/04 A3036 460 65 0 VRB/04 RMK AO2
14837KMSN MSN20020924092509209/24/02 09:25:31  5-MIN KMSN 241525Z 31006KT 10SM CLR 11/04 A3036 460 66 100 310/06 RMK AO2
14837KMSN MSN20020924093009209/24/02 09:30:31  5-MIN KMSN 241530Z VRB04KT 10SM CLR 11/04 A3036 460 63 100 VRB/04 RMK AO2
14837KMSN MSN20020924093509209/24/02 09:35:31  5-MIN KMSN 241535Z 33005KT 10SM CLR 11/04 A3036 460 63 100 330/05 RMK AO2
14837KMSN MSN20020924094009209/24/02 09:40:31  5-MIN KMSN 241540Z VRB05KT 10SM CLR 11/04 A3036 460 61 100 VRB/05 RMK AO2
14837KMSN MSN20020924094509209/24/02 09:45:31  5-MIN KMSN 241545Z 33006KT 10SM CLR 11/04 A3036 460 61 100 330/06 RMK AO2
14837KMSN MSN20020924095010909/24/02 09:50:31  5-MIN KMSN 241550Z 31005KT 10SM CLR 11/04 A3035 470 61 200 310/05 RMK AO2 SLP282 T01110039
14837KMSN MSN20020924095509209/24/02 09:55:31  5-MIN KMSN 241555Z VRB04KT 10SM CLR 11/03 A3035 470 58 200 VRB/04 RMK AO2
14837KMSN MSN20020924100009209/24/02 10:00:31  5-MIN KMSN 241600Z 00000KT 10SM CLR 11/04 A3035 470 61 200 000/00 RMK AO2
14837KMSN MSN20020924100509209/24/02 10:05:31  5-MIN KMSN 241605Z 29004KT 10SM CLR 12/04 A3035 470 58 200 290/04 RMK AO2
14837KMSN MSN20020924101009209/24/02 10:10:31  5-MIN KMSN 241610Z 33005KT 10SM CLR 12/03 A3035 470 56 200 330/05 RMK AO2
14837KMSN MSN20020924101509209/24/02 10:15:31  5-MIN KMSN 241615Z VRB03KT 10SM CLR 12/03 A3035 470 56 200 VRB/03 RMK AO2
14837KMSN MSN20020924102009209/24/02 10:20:31  5-MIN KMSN 241620Z VRB04KT 10SM CLR 12/04 A3035 470 56 300 VRB/04 RMK AO2
14837KMSN MSN20020924102509209/24/02 10:25:31  5-MIN KMSN 241625Z VRB04KT 10SM CLR 12/03 A3035 470 54 300 VRB/04 RMK AO2
14837KMSN MSN20020924103009509/24/02 10:30:31  5-MIN KMSN 241630Z 27005KT 10SM FEW040 12/03 A3035 470 54 300 270/05 RMK AO2
14837KMSN MSN20020924103509509/24/02 10:35:31  5-MIN KMSN 241635Z VRB03KT 10SM FEW040 12/03 A3035 470 54 300 VRB/03 RMK AO2
14837KMSN MSN20020924104009509/24/02 10:40:31  5-MIN KMSN 241640Z 00000KT 10SM FEW040 13/03 A3035 470 52 400 000/00 RMK AO2
14837KMSN MSN20020924104509509/24/02 10:45:31  5-MIN KMSN 241645Z VRB03KT 10SM FEW040 13/04 A3035 470 54 400 VRB/03 RMK AO2
14837KMSN MSN20020924105011209/24/02 10:50:31  5-MIN KMSN 241650Z 25004KT 10SM FEW040 13/03 A3035 470 52 400 250/04 RMK AO2 SLP281 T01280033
14837KMSN MSN20020924105509509/24/02 10:55:31  5-MIN KMSN 241655Z 25003KT 10SM FEW040 13/03 A3035 470 50 400 250/03 RMK AO2
14837KMSN MSN20020924110009509/24/02 11:00:31  5-MIN KMSN 241700Z 00000KT 10SM FEW040 13/02 A3035 470 48 400 000/00 RMK AO2
14837KMSN MSN20020924110509509/24/02 11:05:31  5-MIN KMSN 241705Z VRB03KT 10SM FEW040 13/03 A3035 470 50 400 VRB/03 RMK AO2
14837KMSN MSN20020924111009509/24/02 11:10:31  5-MIN KMSN 241710Z VRB04KT 10SM FEW040 13/04 A3035 470 52 400 VRB/04 RMK AO2
14837KMSN MSN20020924111509509/24/02 11:15:31  5-MIN KMSN 241715Z 16006KT 10SM FEW040 13/04 A3035 470 52 400 160/06 RMK AO2
14837KMSN MSN20020924112009509/24/02 11:20:31  5-MIN KMSN 241720Z 15008KT 10SM FEW040 13/04 A3035 470 52 400 150/08 RMK AO2
14837KMSN MSN20020924112509509/24/02 11:25:31  5-MIN KMSN 241725Z VRB04KT 10SM FEW040 13/04 A3035 470 52 400 VRB/04 RMK AO2
14837KMSN MSN20020924113009509/24/02 11:30:31  5-MIN KMSN 241730Z 00000KT 10SM FEW040 13/03 A3034 480 50 400 000/00 RMK AO2
14837KMSN MSN20020924113509509/24/02 11:35:31  5-MIN KMSN 241735Z VRB04KT 10SM FEW040 14/04 A3034 480 50 500 VRB/04 RMK AO2
14837KMSN MSN20020924114009509/24/02 11:40:31  5-MIN KMSN 241740Z VRB04KT 10SM FEW040 14/03 A3034 480 48 500 VRB/04 RMK AO2
14837KMSN MSN20020924114509509/24/02 11:45:31  5-MIN KMSN 241745Z VRB04KT 10SM FEW040 13/03 A3034 480 50 400 VRB/04 RMK AO2
14837KMSN MSN20020924115013009/24/02 11:50:31  5-MIN KMSN 241750Z 23005KT 10SM FEW040 13/03 A3034 480 48 400 230/05 RMK AO2 SLP277 T01330028 10139 20022 51010
14837KMSN MSN20020924115509509/24/02 11:55:31  5-MIN KMSN 241755Z 18004KT 10SM FEW040 13/02 A3034 480 46 400 180/04 RMK AO2
14837KMSN MSN20020924120009509/24/02 12:00:31  5-MIN KMSN 241800Z VRB04KT 10SM FEW040 14/03 A3033 480 47 500 VRB/04 RMK AO2
14837KMSN MSN20020924120509509/24/02 12:05:31  5-MIN KMSN 241805Z 21006KT 10SM FEW040 13/02 A3033 480 46 400 210/06 RMK AO2
14837KMSN MSN20020924121009509/24/02 12:10:31  5-MIN KMSN 241810Z 18003KT 10SM FEW040 14/02 A3033 490 45 500 180/03 RMK AO2
14837KMSN MSN20020924121509509/24/02 12:15:31  5-MIN KMSN 241815Z 00000KT 10SM FEW040 14/02 A3033 490 43 500 000/00 RMK AO2
14837KMSN MSN20020924122009509/24/02 12:20:31  5-MIN KMSN 241820Z VRB05KT 10SM FEW040 14/02 A3033 490 43 500 VRB/05 RMK AO2
14837KMSN MSN20020924122509509/24/02 12:25:31  5-MIN KMSN 241825Z VRB04KT 10SM FEW040 14/02 A3032 490 43 500 VRB/04 RMK AO2
14837KMSN MSN20020924123009509/24/02 12:30:31  5-MIN KMSN 241830Z 21006KT 10SM FEW040 14/02 A3032 490 41 600 210/06 RMK AO2
14837KMSN MSN20020924123509509/24/02 12:35:31  5-MIN KMSN 241835Z 20007KT 10SM FEW040 14/02 A3032 490 43 500 200/07 RMK AO2
14837KMSN MSN20020924124009509/24/02 12:40:31  5-MIN KMSN 241840Z 21004KT 10SM FEW040 14/02 A3032 490 43 500 210/04 RMK AO2
14837KMSN MSN20020924124509509/24/02 12:45:31  5-MIN KMSN 241845Z VRB04KT 10SM FEW055 14/02 A3032 500 43 600 VRB/04 RMK AO2
14837KMSN MSN20020924125011209/24/02 12:50:31  5-MIN KMSN 241850Z VRB06KT 10SM FEW055 14/02 A3032 500 43 600 VRB/06 RMK AO2 SLP270 T01440022
14837KMSN MSN20020924125509209/24/02 12:55:31  5-MIN KMSN 241855Z VRB04KT 10SM CLR 14/02 A3032 500 43 600 VRB/04 RMK AO2
14837KMSN MSN20020924130009509/24/02 13:00:31  5-MIN KMSN 241900Z VRB04KT 10SM FEW055 14/02 A3032 500 43 600 VRB/04 RMK AO2
14837KMSN MSN20020924130509509/24/02 13:05:31  5-MIN KMSN 241905Z 17004KT 10SM FEW055 14/02 A3032 500 43 600 170/04 RMK AO2
14837KMSN MSN20020924131009509/24/02 13:10:31  5-MIN KMSN 241910Z VRB05KT 10SM FEW055 14/02 A3032 500 43 600 VRB/05 RMK AO2
14837KMSN MSN20020924131509509/24/02 13:15:31  5-MIN KMSN 241915Z VRB05KT 10SM FEW055 14/02 A3031 500 43 600 VRB/05 RMK AO2
14837KMSN MSN20020924132009509/24/02 13:20:31  5-MIN KMSN 241920Z VRB04KT 10SM FEW055 14/02 A3031 510 43 600 VRB/04 RMK AO2
14837KMSN MSN20020924132509509/24/02 13:25:31  5-MIN KMSN 241925Z VRB06KT 10SM FEW055 14/02 A3031 510 43 600 VRB/06 RMK AO2
14837KMSN MSN20020924133009509/24/02 13:30:31  5-MIN KMSN 241930Z 25004KT 10SM FEW055 14/02 A3031 510 41 600 240/04 RMK AO2
14837KMSN MSN20020924133509509/24/02 13:35:31  5-MIN KMSN 241935Z VRB05KT 10SM FEW055 15/02 A3031 510 42 700 VRB/05 RMK AO2
14837KMSN MSN20020924134009509/24/02 13:40:31  5-MIN KMSN 241940Z VRB05KT 10SM FEW055 15/02 A3031 510 42 700 VRB/05 RMK AO2
14837KMSN MSN20020924134509509/24/02 13:45:31  5-MIN KMSN 241945Z VRB03KT 10SM FEW055 15/02 A3031 510 40 700 VRB/03 RMK AO2
14837KMSN MSN20020924135011209/24/02 13:50:31  5-MIN KMSN 241950Z 26004KT 10SM FEW055 15/02 A3031 510 40 700 260/04 RMK AO2 SLP267 T01500017
14837KMSN MSN20020924135509209/24/02 13:55:31  5-MIN KMSN 241955Z VRB04KT 10SM CLR 15/02 A3031 510 42 700 VRB/04 RMK AO2
14837KMSN MSN20020924140009509/24/02 14:00:31  5-MIN KMSN 242000Z 23005KT 10SM FEW055 15/02 A3030 510 40 700 220/05 RMK AO2
14837KMSN MSN20020924140509509/24/02 14:05:31  5-MIN KMSN 242005Z 18005KT 10SM FEW055 15/02 A3030 510 42 700 180/05 RMK AO2
14837KMSN MSN20020924141009509/24/02 14:10:31  5-MIN KMSN 242010Z 00000KT 10SM FEW055 16/02 A3030 520 39 700 000/00 RMK AO2
14837KMSN MSN20020924141509509/24/02 14:15:31  5-MIN KMSN 242015Z VRB03KT 10SM FEW055 15/02 A3030 520 40 700 VRB/03 RMK AO2
14837KMSN MSN20020924142009509/24/02 14:20:31  5-MIN KMSN 242020Z 14007KT 10SM FEW055 16/02 A3029 520 39 700 140/07 RMK AO2
14837KMSN MSN20020924142509509/24/02 14:25:31  5-MIN KMSN 242025Z VRB03KT 10SM FEW055 16/03 A3029 520 42 700 VRB/03 RMK AO2
14837KMSN MSN20020924143009509/24/02 14:30:31  5-MIN KMSN 242030Z VRB05KT 10SM FEW055 16/03 A3029 520 42 700 VRB/05 RMK AO2
14837KMSN MSN20020924143509509/24/02 14:35:31  5-MIN KMSN 242035Z 15004KT 10SM FEW055 16/03 A3029 520 42 800 140/04 RMK AO2
14837KMSN MSN20020924144009509/24/02 14:40:31  5-MIN KMSN 242040Z VRB06KT 10SM FEW055 16/03 A3029 530 42 800 VRB/06 RMK AO2
14837KMSN MSN20020924144509509/24/02 14:45:31  5-MIN KMSN 242045Z VRB05KT 10SM FEW055 16/03 A3029 530 42 800 VRB/05 RMK AO2
14837KMSN MSN20020924145011809/24/02 14:50:31  5-MIN KMSN 242050Z 18005KT 10SM FEW055 16/02 A3028 530 40 800 180/05 RMK AO2 SLP258 T01560022 58006
14837KMSN MSN20020924145509209/24/02 14:55:31  5-MIN KMSN 242055Z VRB04KT 10SM CLR 16/03 A3028 530 42 800 VRB/04 RMK AO2
14837KMSN MSN20020924150009209/24/02 15:00:31  5-MIN KMSN 242100Z 17007KT 10SM CLR 16/03 A3028 530 42 800 170/07 RMK AO2
14837KMSN MSN20020924150509209/24/02 15:05:31  5-MIN KMSN 242105Z 18006KT 10SM CLR 16/02 A3029 530 40 800 180/06 RMK AO2
14837KMSN MSN20020924151009209/24/02 15:10:31  5-MIN KMSN 242110Z 16005KT 10SM CLR 16/02 A3028 530 40 800 160/05 RMK AO2
14837KMSN MSN20020924151509209/24/02 15:15:31  5-MIN KMSN 242115Z 17006KT 10SM CLR 16/03 A3028 530 42 800 170/06 RMK AO2
14837KMSN MSN20020924152009209/24/02 15:20:31  5-MIN KMSN 242120Z 18009KT 10SM CLR 16/03 A3028 530 42 800 180/09 RMK AO2
14837KMSN MSN20020924152509209/24/02 15:25:31  5-MIN KMSN 242125Z 17006KT 10SM CLR 16/03 A3028 530 42 800 170/06 RMK AO2
14837KMSN MSN20020924153009209/24/02 15:30:31  5-MIN KMSN 242130Z 17004KT 10SM CLR 16/02 A3029 530 39 800 170/04 RMK AO2
14837KMSN MSN20020924153509209/24/02 15:35:31  5-MIN KMSN 242135Z VRB05KT 10SM CLR 16/02 A3028 530 40 800 VRB/05 RMK AO2
14837KMSN MSN20020924154009209/24/02 15:40:31  5-MIN KMSN 242140Z VRB04KT 10SM CLR 16/03 A3029 530 42 800 VRB/04 RMK AO2
14837KMSN MSN20020924154509209/24/02 15:45:31  5-MIN KMSN 242145Z 17008KT 10SM CLR 16/03 A3029 530 40 800 170/08 RMK AO2
14837KMSN MSN20020924155010909/24/02 15:50:31  5-MIN KMSN 242150Z 19006KT 10SM CLR 16/02 A3029 530 40 800 190/06 RMK AO2 SLP260 T01560022
14837KMSN MSN20020924155510809/24/02 15:55:31  5-MIN KMSN 242155Z 21007KT 160V230 10SM CLR 16/02 A3029 530 39 800 210/07 160V230 RMK AO2
14837KMSN MSN20020924160009209/24/02 16:00:31  5-MIN KMSN 242200Z 22008KT 10SM CLR 16/02 A3029 530 39 800 220/08 RMK AO2
14837KMSN MSN20020924160509209/24/02 16:05:31  5-MIN KMSN 242205Z 21004KT 10SM CLR 16/02 A3029 530 39 800 210/04 RMK AO2
14837KMSN MSN20020924161009209/24/02 16:10:31  5-MIN KMSN 242210Z 19006KT 10SM CLR 16/02 A3028 530 39 800 190/06 RMK AO2
14837KMSN MSN20020924162009209/24/02 16:20:31  5-MIN KMSN 242220Z 19006KT 10SM CLR 16/02 A3028 530 39 800 190/06 RMK AO2
14837KMSN MSN20020924162509209/24/02 16:25:31  5-MIN KMSN 242225Z 22006KT 10SM CLR 16/01 A3028 530 37 800 220/06 RMK AO2
14837KMSN MSN20020924163009209/24/02 16:30:31  5-MIN KMSN 242230Z VRB03KT 10SM CLR 15/02 A3028 530 40 700 VRB/03 RMK AO2
14837KMSN MSN20020924163509209/24/02 16:35:31  5-MIN KMSN 242235Z 17005KT 10SM CLR 16/02 A3028 540 39 800 170/05 RMK AO2
14837KMSN MSN20020924164009209/24/02 16:40:31  5-MIN KMSN 242240Z 18006KT 10SM CLR 15/02 A3027 540 40 700 180/06 RMK AO2
14837KMSN MSN20020924164509209/24/02 16:45:31  5-MIN KMSN 242245Z 18006KT 10SM CLR 15/02 A3028 540 42 700 180/06 RMK AO2
14837KMSN MSN20020924165010909/24/02 16:50:31  5-MIN KMSN 242250Z 17006KT 10SM CLR 15/02 A3027 540 42 700 170/06 RMK AO2 SLP256 T01500022
14837KMSN MSN20020924165509209/24/02 16:55:31  5-MIN KMSN 242255Z VRB04KT 10SM CLR 15/02 A3027 540 42 700 VRB/04 RMK AO2
14837KMSN MSN20020924170009209/24/02 17:00:31  5-MIN KMSN 242300Z VRB03KT 10SM CLR 14/03 A3027 540 45 600 VRB/03 RMK AO2
14837KMSN MSN20020924170509209/24/02 17:05:31  5-MIN KMSN 242305Z 17006KT 10SM CLR 14/02 A3027 540 43 600 170/06 RMK AO2
14837KMSN MSN20020924171009209/24/02 17:10:31  5-MIN KMSN 242310Z 17007KT 10SM CLR 14/02 A3027 540 43 600 170/07 RMK AO2
14837KMSN MSN20020924171509209/24/02 17:15:31  5-MIN KMSN 242315Z 18006KT 10SM CLR 14/03 A3027 540 45 600 180/06 RMK AO2
14837KMSN MSN20020924172009209/24/02 17:20:31  5-MIN KMSN 242320Z VRB03KT 10SM CLR 14/03 A3027 540 47 600 VRB/03 RMK AO2
14837KMSN MSN20020924172509209/24/02 17:25:31  5-MIN KMSN 242325Z 18006KT 10SM CLR 14/03 A3027 540 47 600 180/06 RMK AO2
14837KMSN MSN20020924173009209/24/02 17:30:31  5-MIN KMSN 242330Z 18006KT 10SM CLR 14/02 A3027 540 45 600 180/06 RMK AO2
14837KMSN MSN20020924173509209/24/02 17:35:31  5-MIN KMSN 242335Z 20003KT 10SM CLR 13/03 A3027 540 48 500 200/03 RMK AO2
14837KMSN MSN20020924174009209/24/02 17:40:31  5-MIN KMSN 242340Z 20003KT 10SM CLR 13/03 A3027 540 48 500 200/03 RMK AO2
14837KMSN MSN20020924174509209/24/02 17:45:31  5-MIN KMSN 242345Z 20003KT 10SM CLR 13/02 A3027 540 46 500 200/03 RMK AO2
14837KMSN MSN20020924175012709/24/02 17:50:31  5-MIN KMSN 242350Z 20004KT 10SM CLR 13/02 A3027 540 46 500 200/04 RMK AO2 SLP255 T01330022 10161 20133 58018
14837KMSN MSN20020924175509209/24/02 17:55:31  5-MIN KMSN 242355Z 20004KT 10SM CLR 13/02 A3027 540 46 500 200/04 RMK AO2
14837KMSN MSN20020924180009209/24/02 18:00:31  5-MIN KMSN 250000Z 21003KT 10SM CLR 13/02 A3027 540 46 500 210/03 RMK AO2
14837KMSN MSN20020924180509209/24/02 18:05:31  5-MIN KMSN 250005Z 20003KT 10SM CLR 13/03 A3027 550 50 400 200/03 RMK AO2
14837KMSN MSN20020924181009209/24/02 18:10:31  5-MIN KMSN 250010Z 19004KT 10SM CLR 13/03 A3026 550 50 500 190/04 RMK AO2
14837KMSN MSN20020924181509209/24/02 18:15:31  5-MIN KMSN 250015Z 00000KT 10SM CLR 12/03 A3027 540 54 400 000/00 RMK AO2
14837KMSN MSN20020924182009209/24/02 18:20:31  5-MIN KMSN 250020Z 00000KT 10SM CLR 12/03 A3027 540 56 300 000/00 RMK AO2
14837KMSN MSN20020924182509209/24/02 18:25:31  5-MIN KMSN 250025Z 00000KT 10SM CLR 11/04 A3027 540 61 200 000/00 RMK AO2
14837KMSN MSN20020924183009209/24/02 18:30:31  5-MIN KMSN 250030Z 00000KT 10SM CLR 11/04 A3027 540 66 200 000/00 RMK AO2
14837KMSN MSN20020924183509209/24/02 18:35:31  5-MIN KMSN 250035Z 00000KT 10SM CLR 10/04 A3027 540 68 100 000/00 RMK AO2
14837KMSN MSN20020924184009209/24/02 18:40:31  5-MIN KMSN 250040Z 00000KT 10SM CLR 11/04 A3027 540 66 200 000/00 RMK AO2
14837KMSN MSN20020924184509209/24/02 18:45:31  5-MIN KMSN 250045Z 00000KT 10SM CLR 10/05 A3027 540 71 100 000/00 RMK AO2
14837KMSN MSN20020924185010909/24/02 18:50:31  5-MIN KMSN 250050Z 17003KT 10SM CLR 11/04 A3027 540 66 200 170/03 RMK AO2 SLP255 T01060044
14837KMSN MSN20020924185509209/24/02 18:55:31  5-MIN KMSN 250055Z 00000KT 10SM CLR 10/04 A3027 540 68 100 000/00 RMK AO2
14837KMSN MSN20020924190009209/24/02 19:00:31  5-MIN KMSN 250100Z 00000KT 10SM CLR 10/04 A3026 550 68 100 000/00 RMK AO2
14837KMSN MSN20020924190509209/24/02 19:05:31  5-MIN KMSN 250105Z 00000KT 10SM CLR 10/04 A3027 550 68 100 000/00 RMK AO2
14837KMSN MSN20020924191009009/24/02 19:10:31  5-MIN KMSN 250110Z 00000KT 10SM CLR 09/04 A3027 540 71 0 000/00 RMK AO2
14837KMSN MSN20020924191509009/24/02 19:15:31  5-MIN KMSN 250115Z 00000KT 10SM CLR 08/04 A3027 550 76 0 000/00 RMK AO2
14837KMSN MSN20020924192009009/24/02 19:20:31  5-MIN KMSN 250120Z 19003KT 10SM CLR 08/05 A3027 550 79 0 190/03 RMK AO2
14837KMSN MSN20020924192509009/24/02 19:25:31  5-MIN KMSN 250125Z 16005KT 10SM CLR 09/04 A3027 550 71 0 160/05 RMK AO2
14837KMSN MSN20020924193009209/24/02 19:30:31  5-MIN KMSN 250130Z 16005KT 10SM CLR 11/04 A3027 550 61 300 160/05 RMK AO2
14837KMSN MSN20020924193509209/24/02 19:35:31  5-MIN KMSN 250135Z 17005KT 10SM CLR 11/03 A3026 550 58 300 160/05 RMK AO2
14837KMSN MSN20020924194009209/24/02 19:40:31  5-MIN KMSN 250140Z 17006KT 10SM CLR 11/03 A3026 550 58 300 170/06 RMK AO2
14837KMSN MSN20020924194509209/24/02 19:45:31  5-MIN KMSN 250145Z 17005KT 10SM CLR 12/03 A3026 550 56 300 170/05 RMK AO2
14837KMSN MSN20020924195010909/24/02 19:50:31  5-MIN KMSN 250150Z 17006KT 10SM CLR 12/03 A3026 550 56 300 170/06 RMK AO2 SLP251 T01170033
14837KMSN MSN20020924195509209/24/02 19:55:31  5-MIN KMSN 250155Z 17005KT 10SM CLR 11/04 A3026 550 61 300 170/05 RMK AO2
14837KMSN MSN20020924200009209/24/02 20:00:31  5-MIN KMSN 250200Z 18005KT 10SM CLR 11/04 A3027 550 61 300 180/05 RMK AO2
14837KMSN MSN20020924200509209/24/02 20:05:31  5-MIN KMSN 250205Z 18005KT 10SM CLR 11/04 A3026 550 61 300 180/05 RMK AO2
14837KMSN MSN20020924201009209/24/02 20:10:31  5-MIN KMSN 250210Z 17005KT 10SM CLR 11/04 A3026 550 61 300 170/05 RMK AO2
14837KMSN MSN20020924201509209/24/02 20:15:31  5-MIN KMSN 250215Z 17005KT 10SM CLR 11/04 A3026 550 61 300 170/05 RMK AO2
14837KMSN MSN20020924202009209/24/02 20:20:31  5-MIN KMSN 250220Z 17005KT 10SM CLR 11/04 A3026 550 61 300 170/05 RMK AO2
14837KMSN MSN20020924202509209/24/02 20:25:31  5-MIN KMSN 250225Z 17005KT 10SM CLR 11/04 A3027 540 63 200 170/05 RMK AO2
14837KMSN MSN20020924203009209/24/02 20:30:31  5-MIN KMSN 250230Z 17004KT 10SM CLR 11/04 A3026 550 61 300 170/04 RMK AO2
14837KMSN MSN20020924203509209/24/02 20:35:31  5-MIN KMSN 250235Z 17004KT 10SM CLR 11/04 A3026 550 63 200 170/04 RMK AO2
14837KMSN MSN20020924204009209/24/02 20:40:31  5-MIN KMSN 250240Z 16004KT 10SM CLR 11/04 A3026 550 63 200 160/04 RMK AO2
14837KMSN MSN20020924204509209/24/02 20:45:31  5-MIN KMSN 250245Z 17004KT 10SM CLR 11/04 A3026 550 63 200 170/04 RMK AO2
14837KMSN MSN20020924205011509/24/02 20:50:31  5-MIN KMSN 250250Z 17004KT 10SM CLR 11/04 A3026 550 63 200 170/04 RMK AO2 SLP251 T01060039 58005
14837KMSN MSN20020924205509209/24/02 20:55:31  5-MIN KMSN 250255Z 17004KT 10SM CLR 11/04 A3026 550 63 200 170/04 RMK AO2
14837KMSN MSN20020924210009209/24/02 21:00:31  5-MIN KMSN 250300Z 17005KT 10SM CLR 11/04 A3026 550 63 200 170/05 RMK AO2
14837KMSN MSN20020924210509209/24/02 21:05:31  5-MIN KMSN 250305Z 18004KT 10SM CLR 11/04 A3026 550 63 200 180/04 RMK AO2
14837KMSN MSN20020924211009209/24/02 21:10:31  5-MIN KMSN 250310Z 17004KT 10SM CLR 11/04 A3026 550 63 200 170/04 RMK AO2
14837KMSN MSN20020924211509209/24/02 21:15:31  5-MIN KMSN 250315Z 17004KT 10SM CLR 11/04 A3027 540 63 200 170/04 RMK AO2
14837KMSN MSN20020924212009009/24/02 21:20:31  5-MIN KMSN 250320Z 18003KT 10SM CLR 09/04 A3027 540 71 0 170/03 RMK AO2
14837KMSN MSN20020924212509209/24/02 21:25:31  5-MIN KMSN 250325Z 17005KT 10SM CLR 10/04 A3027 540 68 100 170/05 RMK AO2
14837KMSN MSN20020924213009209/24/02 21:30:31  5-MIN KMSN 250330Z 16005KT 10SM CLR 10/04 A3027 540 65 100 160/05 RMK AO2
14837KMSN MSN20020924213509209/24/02 21:35:31  5-MIN KMSN 250335Z 17005KT 10SM CLR 10/04 A3027 540 65 100 170/05 RMK AO2
14837KMSN MSN20020924214009209/24/02 21:40:31  5-MIN KMSN 250340Z 16006KT 10SM CLR 10/04 A3027 540 65 100 160/06 RMK AO2
14837KMSN MSN20020924214509209/24/02 21:45:31  5-MIN KMSN 250345Z 17005KT 10SM CLR 10/04 A3027 540 65 100 170/05 RMK AO2
14837KMSN MSN20020924215010909/24/02 21:50:31  5-MIN KMSN 250350Z 17006KT 10SM CLR 11/04 A3027 540 63 200 170/06 RMK AO2 SLP254 T01060039
14837KMSN MSN20020924215509209/24/02 21:55:31  5-MIN KMSN 250355Z 17006KT 10SM CLR 11/04 A3028 540 63 200 170/06 RMK AO2
14837KMSN MSN20020924220009209/24/02 22:00:31  5-MIN KMSN 250400Z 17006KT 10SM CLR 11/04 A3028 540 63 200 160/06 RMK AO2
14837KMSN MSN20020924220509209/24/02 22:05:31  5-MIN KMSN 250405Z 16006KT 10SM CLR 10/04 A3028 540 65 100 160/06 RMK AO2
14837KMSN MSN20020924221009209/24/02 22:10:31  5-MIN KMSN 250410Z 16006KT 10SM CLR 10/04 A3028 540 65 100 160/06 RMK AO2
14837KMSN MSN20020924221509009/24/02 22:15:31  5-MIN KMSN 250415Z 15007KT 10SM CLR 09/04 A3028 540 71 0 150/07 RMK AO2
14837KMSN MSN20020924222009009/24/02 22:20:31  5-MIN KMSN 250420Z 15007KT 10SM CLR 09/04 A3028 540 71 0 150/07 RMK AO2
14837KMSN MSN20020924222509009/24/02 22:25:31  5-MIN KMSN 250425Z 15007KT 10SM CLR 09/04 A3028 530 68 0 150/07 RMK AO2
14837KMSN MSN20020924223009209/24/02 22:30:31  5-MIN KMSN 250430Z 16008KT 10SM CLR 10/03 A3028 530 63 100 160/08 RMK AO2
14837KMSN MSN20020924223509509/24/02 22:35:31  5-MIN KMSN 250435Z 15008KT 10SM FEW100 10/03 A3028 530 63 100 150/08 RMK AO2
14837KMSN MSN20020924224009509/24/02 22:40:31  5-MIN KMSN 250440Z 15008KT 10SM SCT100 10/03 A3028 530 63 100 150/08 RMK AO2
14837KMSN MSN20020924224509509/24/02 22:45:31  5-MIN KMSN 250445Z 15008KT 10SM BKN100 10/03 A3028 540 63 100 150/08 RMK AO2
14837KMSN MSN20020924225011209/24/02 22:50:31  5-MIN KMSN 250450Z 16008KT 10SM BKN100 10/04 A3028 540 65 100 160/08 RMK AO2 SLP255 T01000039
14837KMSN MSN20020924225509509/24/02 22:55:31  5-MIN KMSN 250455Z 16009KT 10SM BKN100 10/04 A3028 530 65 100 160/09 RMK AO2
14837KMSN MSN20020924230009509/24/02 23:00:31  5-MIN KMSN 250500Z 17008KT 10SM OVC100 10/04 A3029 530 65 100 160/08 RMK AO2
14837KMSN MSN20020924230509509/24/02 23:05:31  5-MIN KMSN 250505Z 17006KT 10SM OVC100 10/04 A3029 530 68 100 170/06 RMK AO2
14837KMSN MSN20020924231009509/24/02 23:10:31  5-MIN KMSN 250510Z 17006KT 10SM OVC100 10/04 A3029 520 68 100 170/06 RMK AO2
14837KMSN MSN20020924231510209/24/02 23:15:31  5-MIN KMSN 250515Z 19003KT 10SM OVC100 10/04 A3030 510 68 100 190/03 RMK AO2 PRESRR
14837KMSN MSN20020924232010209/24/02 23:20:31  5-MIN KMSN 250520Z 24003KT 10SM OVC100 10/04 A3031 500 68 100 240/03 RMK AO2 PRESRR
14837KMSN MSN20020924232510009/24/02 23:25:31  5-MIN KMSN 250525Z 32005KT 10SM OVC100 10/05 A3033 490 71 0 320/05 RMK AO2 PRESRR
14837KMSN MSN20020924233010009/24/02 23:30:31  5-MIN KMSN 250530Z 33007KT 10SM OVC100 10/05 A3034 480 71 0 330/07 RMK AO2 PRESRR
14837KMSN MSN20020924233509309/24/02 23:35:31  5-MIN KMSN 250535Z 32003KT 10SM OVC100 10/05 A3033 490 71 0 320/03 RMK AO2
14837KMSN MSN20020924234009309/24/02 23:40:31  5-MIN KMSN 250540Z 00000KT 10SM OVC100 10/04 A3033 490 68 0 000/00 RMK AO2
14837KMSN MSN20020924234510009/24/02 23:45:31  5-MIN KMSN 250545Z 00000KT 10SM BKN100 OVC110 10/04 A3033 480 68 0 000/00 RMK AO2
14837KMSN MSN20020924235014509/24/02 23:50:31  5-MIN KMSN 250550Z 00000KT 10SM BKN100 OVC110 09/05 A3033 490 74 0 000/00 RMK AO2 SLP273 T00940050 10133 20083 401610011 55003
14837KMSN MSN20020924235510009/24/02 23:55:31  5-MIN KMSN 250555Z 00000KT 10SM BKN100 BKN120 09/05 A3032 490 74 0 000/00 RMK AO2
14837KMSN MSN20020925000010009/25/02 00:00:31  5-MIN KMSN 250600Z 00000KT 10SM BKN100 OVC120 09/05 A3032 490 74 0 000/00 RMK AO2
14837KMSN MSN20020925000510009/25/02 00:05:31  5-MIN KMSN 250605Z 00000KT 10SM BKN100 OVC120 09/05 A3032 490 74 0 000/00 RMK AO2
14837KMSN MSN20020925001009309/25/02 00:10:31  5-MIN KMSN 250610Z 00000KT 10SM BKN100 09/05 A3033 490 74 0 000/00 RMK AO2
14837KMSN MSN20020925001509309/25/02 00:15:31  5-MIN KMSN 250615Z 13003KT 10SM BKN100 09/05 A3032 500 74 0 130/03 RMK AO2
14837KMSN MSN20020925002009309/25/02 00:20:31  5-MIN KMSN 250620Z 13003KT 10SM BKN100 09/05 A3032 500 74 0 130/03 RMK AO2
14837KMSN MSN20020925002509309/25/02 00:25:31  5-MIN KMSN 250625Z 14004KT 10SM OVC100 09/06 A3032 500 76 0 140/04 RMK AO2
14837KMSN MSN20020925003009309/25/02 00:30:31  5-MIN KMSN 250630Z 14004KT 10SM OVC100 09/06 A3032 500 76 0 140/04 RMK AO2
14837KMSN MSN20020925003509309/25/02 00:35:31  5-MIN KMSN 250635Z 13005KT 10SM BKN100 09/06 A3032 500 76 0 130/05 RMK AO2
14837KMSN MSN20020925004009309/25/02 00:40:31  5-MIN KMSN 250640Z 13004KT 10SM BKN100 09/06 A3032 500 76 0 130/04 RMK AO2
14837KMSN MSN20020925004509309/25/02 00:45:31  5-MIN KMSN 250645Z 16004KT 10SM SCT100 09/06 A3032 500 76 0 160/04 RMK AO2
14837KMSN MSN20020925005011209/25/02 00:50:31  5-MIN KMSN 250650Z 15006KT 10SM SCT100 10/06 A3031 500 74 100 150/06 RMK AO2 SLP267 T01000056
14837KMSN MSN20020925005510209/25/02 00:55:31  5-MIN KMSN 250655Z 15007KT 10SM FEW095 SCT120 10/06 A3031 500 74 100 140/07 RMK AO2
14837KMSN MSN20020925010010209/25/02 01:00:31  5-MIN KMSN 250700Z 16006KT 10SM SCT090 SCT120 10/06 A3031 500 74 100 160/06 RMK AO2
14837KMSN MSN20020925010509509/25/02 01:05:31  5-MIN KMSN 250705Z 14005KT 10SM BKN090 10/06 A3031 510 77 100 140/05 RMK AO2
14837KMSN MSN20020925011009509/25/02 01:10:31  5-MIN KMSN 250710Z 13005KT 10SM BKN090 10/06 A3031 510 77 100 130/05 RMK AO2
14837KMSN MSN20020925011509509/25/02 01:15:31  5-MIN KMSN 250715Z 13006KT 10SM BKN090 10/06 A3031 510 77 100 130/06 RMK AO2
14837KMSN MSN20020925012009509/25/02 01:20:31  5-MIN KMSN 250720Z 13006KT 10SM OVC090 10/06 A3030 510 77 100 130/06 RMK AO2
14837KMSN MSN20020925012509509/25/02 01:25:31  5-MIN KMSN 250725Z 14007KT 10SM OVC090 10/06 A3030 510 77 100 130/07 RMK AO2
14837KMSN MSN20020925013009509/25/02 01:30:31  5-MIN KMSN 250730Z 14007KT 10SM OVC090 10/06 A3030 510 77 100 140/07 RMK AO2
14837KMSN MSN20020925013509509/25/02 01:35:31  5-MIN KMSN 250735Z 16007KT 10SM OVC090 10/06 A3030 510 77 100 150/07 RMK AO2
14837KMSN MSN20020925014009509/25/02 01:40:31  5-MIN KMSN 250740Z 16007KT 10SM OVC090 10/06 A3030 510 77 100 150/07 RMK AO2
14837KMSN MSN20020925014509509/25/02 01:45:31  5-MIN KMSN 250745Z 15007KT 10SM OVC090 10/06 A3030 520 77 100 150/07 RMK AO2
14837KMSN MSN20020925015011209/25/02 01:50:31  5-MIN KMSN 250750Z 14006KT 10SM OVC090 10/06 A3030 520 77 100 140/06 RMK AO2 SLP262 T01000061
14837KMSN MSN20020925015509509/25/02 01:55:31  5-MIN KMSN 250755Z 15004KT 10SM OVC090 10/06 A3030 520 77 100 150/04 RMK AO2
14837KMSN MSN20020925020009509/25/02 02:00:31  5-MIN KMSN 250800Z 16004KT 10SM OVC090 10/06 A3030 510 77 100 160/04 RMK AO2
14837KMSN MSN20020925020509509/25/02 02:05:31  5-MIN KMSN 250805Z 16004KT 10SM OVC090 10/06 A3030 510 77 100 160/04 RMK AO2
14837KMSN MSN20020925021009509/25/02 02:10:31  5-MIN KMSN 250810Z 16004KT 10SM OVC095 10/06 A3030 520 77 100 160/04 RMK AO2
14837KMSN MSN20020925021509509/25/02 02:15:31  5-MIN KMSN 250815Z 15005KT 10SM OVC095 10/06 A3029 520 77 100 150/05 RMK AO2
14837KMSN MSN20020925022009509/25/02 02:20:31  5-MIN KMSN 250820Z 15005KT 10SM OVC090 10/06 A3029 520 77 100 150/05 RMK AO2
14837KMSN MSN20020925022509509/25/02 02:25:31  5-MIN KMSN 250825Z 14006KT 10SM OVC090 10/06 A3029 530 77 100 140/06 RMK AO2
14837KMSN MSN20020925023009509/25/02 02:30:31  5-MIN KMSN 250830Z 13004KT 10SM OVC095 10/06 A3029 530 77 100 130/04 RMK AO2
14837KMSN MSN20020925023510209/25/02 02:35:31  5-MIN KMSN 250835Z 15006KT 10SM BKN100 OVC110 10/06 A3029 520 77 100 150/06 RMK AO2
14837KMSN MSN20020925024010209/25/02 02:40:31  5-MIN KMSN 250840Z 16006KT 10SM BKN100 OVC120 10/06 A3029 520 77 100 150/06 RMK AO2
14837KMSN MSN20020925024510209/25/02 02:45:31  5-MIN KMSN 250845Z 16007KT 10SM SCT090 OVC110 10/06 A3029 530 77 100 160/07 RMK AO2
14837KMSN MSN20020925025011809/25/02 02:50:31  5-MIN KMSN 250850Z 16007KT 10SM BKN100 10/06 A3029 520 74 100 160/07 RMK AO2 SLP259 T01000056 53021
14837KMSN MSN20020925025509509/25/02 02:55:31  5-MIN KMSN 250855Z 16006KT 10SM BKN110 10/06 A3029 530 74 100 160/06 RMK AO2
14837KMSN MSN20020925030009309/25/02 03:00:31  5-MIN KMSN 250900Z 15007KT 10SM SCT110 09/06 A3029 530 79 0 150/07 RMK AO2
14837KMSN MSN20020925030509309/25/02 03:05:31  5-MIN KMSN 250905Z 16005KT 10SM SCT110 09/06 A3029 520 79 0 160/05 RMK AO2
14837KMSN MSN20020925031009309/25/02 03:10:31  5-MIN KMSN 250910Z 16005KT 10SM SCT110 09/06 A3029 530 79 0 160/05 RMK AO2
14837KMSN MSN20020925031509309/25/02 03:15:31  5-MIN KMSN 250915Z 15007KT 10SM SCT120 09/06 A3028 530 79 0 150/07 RMK AO2
14837KMSN MSN20020925032009309/25/02 03:20:31  5-MIN KMSN 250920Z 15006KT 10SM FEW120 09/06 A3028 530 79 0 140/06 RMK AO2
14837KMSN MSN20020925032509309/25/02 03:25:31  5-MIN KMSN 250925Z 15007KT 10SM FEW120 09/06 A3029 530 79 0 150/07 RMK AO2
14837KMSN MSN20020925033009309/25/02 03:30:31  5-MIN KMSN 250930Z 16006KT 10SM FEW120 09/06 A3029 530 76 0 160/06 RMK AO2
14837KMSN MSN20020925033509309/25/02 03:35:31  5-MIN KMSN 250935Z 17006KT 10SM FEW120 09/06 A3029 520 76 0 170/06 RMK AO2
14837KMSN MSN20020925034009009/25/02 03:40:31  5-MIN KMSN 250940Z 17006KT 10SM CLR 09/06 A3029 520 76 0 160/06 RMK AO2
14837KMSN MSN20020925034509009/25/02 03:45:31  5-MIN KMSN 250945Z 17007KT 10SM CLR 09/06 A3029 520 79 0 160/07 RMK AO2
14837KMSN MSN20020925035010709/25/02 03:50:31  5-MIN KMSN 250950Z 18006KT 10SM CLR 09/06 A3030 520 79 0 180/06 RMK AO2 SLP261 T00940061
14837KMSN MSN20020925035509009/25/02 03:55:31  5-MIN KMSN 250955Z 18005KT 10SM CLR 09/06 A3030 520 79 0 180/05 RMK AO2
14837KMSN MSN20020925040009009/25/02 04:00:31  5-MIN KMSN 251000Z 18004KT 10SM CLR 09/06 A3030 520 79 0 180/04 RMK AO2
14837KMSN MSN20020925040509009/25/02 04:05:31  5-MIN KMSN 251005Z 17004KT 10SM CLR 09/06 A3030 520 79 0 170/04 RMK AO2
14837KMSN MSN20020925041009009/25/02 04:10:31  5-MIN KMSN 251010Z 15005KT 10SM CLR 09/06 A3029 520 79 0 150/05 RMK AO2
14837KMSN MSN20020925041509009/25/02 04:15:31  5-MIN KMSN 251015Z 16004KT 10SM CLR 09/06 A3029 520 83 0 160/04 RMK AO2
14837KMSN MSN20020925042009309/25/02 04:20:31  5-MIN KMSN 251020Z 15004KT 10SM FEW110 09/06 A3029 520 79 0 150/04 RMK AO2
14837KMSN MSN20020925042509309/25/02 04:25:31  5-MIN KMSN 251025Z 15005KT 10SM FEW100 09/06 A3029 520 79 0 150/05 RMK AO2
14837KMSN MSN20020925043010009/25/02 04:30:31  5-MIN KMSN 251030Z 16005KT 10SM SCT090 SCT110 09/07 A3030 520 83 0 160/05 RMK AO2
14837KMSN MSN20020925043510209/25/02 04:35:31  5-MIN KMSN 251035Z 15006KT 10SM BKN080 BKN100 10/07 A3029 530 80 100 150/06 RMK AO2
14837KMSN MSN20020925044011609/25/02 04:40:31  5-MIN KMSN 251040Z 15007KT 10SM -RA BKN085 BKN110 09/07 A3028 530 83 0 150/07 RMK AO2 RAB36 P0000
14837KMSN MSN20020925044511809/25/02 04:45:31  5-MIN KMSN 251045Z 16008KT 10SM -RA BKN090 BKN110 10/07 A3028 530 80 100 160/08 RMK AO2 RAB36 P0000
14837KMSN MSN20020925045012709/25/02 04:50:31  5-MIN KMSN 251050Z 18008KT 10SM OVC090 10/07 A3029 530 80 100 180/08 RMK AO2 RAB36E46 SLP259 P0000 T01000067
14837KMSN MSN20020925045509509/25/02 04:55:31  5-MIN KMSN 251055Z 17009KT 10SM OVC090 10/07 A3028 530 80 100 170/09 RMK AO2
14837KMSN MSN20020925050009509/25/02 05:00:31  5-MIN KMSN 251100Z 16008KT 10SM OVC090 10/07 A3028 540 80 100 160/08 RMK AO2
14837KMSN MSN20020925050511709/25/02 05:05:31  5-MIN KMSN 251105Z 16011KT 9SM -RA BKN085 OVC110 10/07 A3027 540 83 100 160/11 RMK AO2 RAB02 P0000
14837KMSN MSN20020925051011809/25/02 05:10:31  5-MIN KMSN 251110Z 16011KT 10SM -RA BKN080 OVC100 10/07 A3027 540 83 100 160/11 RMK AO2 RAB02 P0000
14837KMSN MSN20020925051511709/25/02 05:15:31  5-MIN KMSN 251115Z 16009KT 10SM SCT080 OVC100 10/07 A3027 540 83 100 160/09 RMK AO2 RAB02E13 P0000
14837KMSN MSN20020925052011709/25/02 05:20:31  5-MIN KMSN 251120Z 16011KT 10SM SCT080 BKN100 10/07 A3027 540 80 100 160/11 RMK AO2 RAB02E13 P0000
14837KMSN MSN20020925052511709/25/02 05:25:31  5-MIN KMSN 251125Z 16009KT 10SM SCT080 BKN100 10/07 A3026 550 83 100 150/09 RMK AO2 RAB02E13 P0000
14837KMSN MSN20020925053011709/25/02 05:30:31  5-MIN KMSN 251130Z 16009KT 10SM SCT080 BKN100 10/07 A3027 550 83 100 160/09 RMK AO2 RAB02E13 P0000
14837KMSN MSN20020925053512509/25/02 05:35:31  5-MIN KMSN 251135Z 15008KT 10SM SCT080 BKN100 10/07 A3027 550 83 100 150/08 RMK AO2 RAB02E13 VIRGA E P0000
14837KMSN MSN20020925054012509/25/02 05:40:31  5-MIN KMSN 251140Z 19007KT 10SM SCT080 BKN100 10/07 A3028 530 83 100 190/07 RMK AO2 RAB02E13 VIRGA E P0000
14837KMSN MSN20020925054512509/25/02 05:45:31  5-MIN KMSN 251145Z 19006KT 10SM SCT080 BKN100 10/07 A3029 530 83 100 190/06 RMK AO2 RAB02E13 VIRGA E P0000
14837KMSN MSN20020925055015909/25/02 05:50:31  5-MIN KMSN 251150Z 18006KT 10SM BKN100 11/07 A3028 530 80 200 180/06 RMK AO2 RAB02E13 SLP257 VIRGA E P0000 60000 T01060072 10106 20089 56012
14837KMSN MSN20020925055509509/25/02 05:55:31  5-MIN KMSN 251155Z 18007KT 10SM OVC100 11/07 A3028 530 80 200 180/07 RMK AO2
14837KMSN MSN20020925060009509/25/02 06:00:31  5-MIN KMSN 251200Z 18006KT 10SM OVC100 11/07 A3028 530 80 200 180/06 RMK AO2
14837KMSN MSN20020925060509509/25/02 06:05:31  5-MIN KMSN 251205Z 18007KT 10SM OVC110 11/07 A3028 530 80 200 180/07 RMK AO2
14837KMSN MSN20020925061009509/25/02 06:10:31  5-MIN KMSN 251210Z 16009KT 10SM OVC110 11/07 A3028 540 80 200 160/09 RMK AO2
14837KMSN MSN20020925061509509/25/02 06:15:31  5-MIN KMSN 251215Z 17009KT 10SM OVC110 11/07 A3028 540 80 200 170/09 RMK AO2
14837KMSN MSN20020925062009509/25/02 06:20:31  5-MIN KMSN 251220Z 17009KT 10SM OVC110 11/07 A3028 540 77 200 170/09 RMK AO2
14837KMSN MSN20020925062509509/25/02 06:25:31  5-MIN KMSN 251225Z 17007KT 10SM OVC110 11/07 A3028 540 77 200 170/07 RMK AO2
14837KMSN MSN20020925063009509/25/02 06:30:31  5-MIN KMSN 251230Z 16008KT 10SM OVC110 11/07 A3027 540 74 200 160/08 RMK AO2
14837KMSN MSN20020925063509509/25/02 06:35:31  5-MIN KMSN 251235Z 16009KT 10SM OVC110 11/07 A3027 540 74 200 160/09 RMK AO2
14837KMSN MSN20020925064009509/25/02 06:40:31  5-MIN KMSN 251240Z 17010KT 10SM OVC100 11/07 A3027 540 74 200 170/10 RMK AO2
14837KMSN MSN20020925064509509/25/02 06:45:31  5-MIN KMSN 251245Z 17009KT 10SM OVC100 11/07 A3027 540 74 200 170/09 RMK AO2
14837KMSN MSN20020925065011209/25/02 06:50:31  5-MIN KMSN 251250Z 17011KT 10SM BKN100 12/07 A3027 540 71 300 170/11 RMK AO2 SLP254 T01170067
14837KMSN MSN20020925065509509/25/02 06:55:31  5-MIN KMSN 251255Z 17011KT 10SM OVC110 12/07 A3027 540 71 300 160/11 RMK AO2
14837KMSN MSN20020925070009509/25/02 07:00:31  5-MIN KMSN 251300Z 16011KT 10SM BKN110 12/07 A3027 540 74 300 160/11 RMK AO2
14837KMSN MSN20020925070509509/25/02 07:05:31  5-MIN KMSN 251305Z 17012KT 10SM BKN110 12/07 A3027 540 74 300 170/12 RMK AO2
14837KMSN MSN20020925071009509/25/02 07:10:31  5-MIN KMSN 251310Z 17010KT 10SM BKN110 12/07 A3027 550 74 300 170/10 RMK AO2
14837KMSN MSN20020925071509509/25/02 07:15:31  5-MIN KMSN 251315Z 17011KT 10SM OVC110 12/07 A3026 550 74 300 170/11 RMK AO2
14837KMSN MSN20020925072009509/25/02 07:20:31  5-MIN KMSN 251320Z 16011KT 10SM OVC110 12/07 A3026 550 74 300 160/11 RMK AO2
14837KMSN MSN20020925072509509/25/02 07:25:31  5-MIN KMSN 251325Z 16008KT 10SM OVC110 12/07 A3026 550 74 300 160/08 RMK AO2
14837KMSN MSN20020925073009509/25/02 07:30:31  5-MIN KMSN 251330Z 17008KT 10SM BKN110 12/07 A3026 550 71 400 170/08 RMK AO2
14837KMSN MSN20020925073509509/25/02 07:35:31  5-MIN KMSN 251335Z 18009KT 10SM BKN110 12/07 A3027 550 71 400 180/09 RMK AO2
14837KMSN MSN20020925074009509/25/02 07:40:31  5-MIN KMSN 251340Z 17011KT 10SM BKN110 12/07 A3027 550 71 400 170/11 RMK AO2
14837KMSN MSN20020925074509509/25/02 07:45:31  5-MIN KMSN 251345Z 17009KT 10SM BKN110 12/07 A3027 550 71 400 170/09 RMK AO2
14837KMSN MSN20020925075011209/25/02 07:50:31  5-MIN KMSN 251350Z 16009KT 10SM BKN110 13/07 A3027 550 69 400 160/09 RMK AO2 SLP251 T01280072
14837KMSN MSN20020925075509509/25/02 07:55:31  5-MIN KMSN 251355Z 17008KT 10SM BKN110 13/08 A3027 550 71 500 160/08 RMK AO2
14837KMSN MSN20020925080009509/25/02 08:00:31  5-MIN KMSN 251400Z 16008KT 10SM BKN110 13/08 A3026 550 71 500 160/08 RMK AO2
14837KMSN MSN20020925080509509/25/02 08:05:31  5-MIN KMSN 251405Z 16012KT 10SM BKN110 13/08 A3026 560 69 500 160/12 RMK AO2
14837KMSN MSN20020925081009509/25/02 08:10:31  5-MIN KMSN 251410Z 16011KT 10SM BKN110 13/07 A3025 560 66 500 160/11 RMK AO2
14837KMSN MSN20020925081509509/25/02 08:15:31  5-MIN KMSN 251415Z 18013KT 10SM OVC110 14/07 A3026 550 64 600 170/13 RMK AO2
14837KMSN MSN20020925082009509/25/02 08:20:31  5-MIN KMSN 251420Z 17013KT 10SM OVC110 14/07 A3026 550 61 600 170/13 RMK AO2
14837KMSN MSN20020925082509509/25/02 08:25:31  5-MIN KMSN 251425Z 17014KT 10SM OVC110 14/07 A3026 550 61 700 170/14 RMK AO2
14837KMSN MSN20020925083009509/25/02 08:30:31  5-MIN KMSN 251430Z 17013KT 10SM BKN110 15/07 A3026 560 59 700 170/13 RMK AO2
14837KMSN MSN20020925083509509/25/02 08:35:31  5-MIN KMSN 251435Z 17013KT 10SM BKN110 14/07 A3026 560 61 700 170/13 RMK AO2
14837KMSN MSN20020925084009509/25/02 08:40:31  5-MIN KMSN 251440Z 17014KT 10SM BKN110 15/07 A3025 560 59 700 170/14 RMK AO2
14837KMSN MSN20020925084509509/25/02 08:45:31  5-MIN KMSN 251445Z 17013KT 10SM BKN110 15/07 A3025 560 59 700 170/13 RMK AO2
14837KMSN MSN20020925085011809/25/02 08:50:31  5-MIN KMSN 251450Z 18013KT 10SM BKN110 16/07 A3025 560 57 800 170/13 RMK AO2 SLP246 T01560072 58002
14837KMSN MSN20020925085509509/25/02 08:55:31  5-MIN KMSN 251455Z 17013KT 10SM SCT110 15/07 A3025 560 59 700 170/13 RMK AO2
14837KMSN MSN20020925090009509/25/02 09:00:31  5-MIN KMSN 251500Z 16015KT 10SM SCT110 16/08 A3025 560 59 800 160/15 RMK AO2
14837KMSN MSN20020925090509509/25/02 09:05:31  5-MIN KMSN 251505Z 18013KT 10SM BKN110 15/08 A3025 570 62 700 180/13 RMK AO2
14837KMSN MSN20020925091010109/25/02 09:10:31  5-MIN KMSN 251510Z 18014G18KT 10SM BKN110 16/07 A3024 570 55 800 180/14G18 RMK AO2
14837KMSN MSN20020925091509509/25/02 09:15:31  5-MIN KMSN 251515Z 18014KT 10SM BKN110 16/07 A3024 570 57 800 180/14 RMK AO2
14837KMSN MSN20020925092009509/25/02 09:20:31  5-MIN KMSN 251520Z 18015KT 10SM BKN110 16/07 A3024 570 55 800 170/15 RMK AO2
14837KMSN MSN20020925092509509/25/02 09:25:31  5-MIN KMSN 251525Z 16013KT 10SM BKN110 16/07 A3025 560 55 800 160/13 RMK AO2
14837KMSN MSN20020925093009509/25/02 09:30:31  5-MIN KMSN 251530Z 18011KT 10SM BKN110 16/07 A3025 560 55 900 180/11 RMK AO2
14837KMSN MSN20020925093509509/25/02 09:35:31  5-MIN KMSN 251535Z 18012KT 10SM BKN110 16/07 A3025 560 55 800 180/12 RMK AO2
14837KMSN MSN20020925094009509/25/02 09:40:31  5-MIN KMSN 251540Z 18010KT 10SM BKN110 16/07 A3025 560 53 900 180/10 RMK AO2
14837KMSN MSN20020925094509509/25/02 09:45:31  5-MIN KMSN 251545Z 18010KT 10SM BKN110 17/07 A3024 570 53 900 180/10 RMK AO2
14837KMSN MSN20020925095011209/25/02 09:50:31  5-MIN KMSN 251550Z 19010KT 10SM SCT110 17/06 A3025 560 49 900 190/10 RMK AO2 SLP243 T01670061
14837KMSN MSN20020925095509509/25/02 09:55:31  5-MIN KMSN 251555Z 18010KT 10SM FEW110 17/07 A3025 560 51 900 170/10 RMK AO2
14837KMSN MSN20020925100009509/25/02 10:00:31  5-MIN KMSN 251600Z 17012KT 10SM FEW110 17/07 A3025 560 51 900 170/12 RMK AO2
14837KMSN MSN20020925100509609/25/02 10:05:31  5-MIN KMSN 251605Z 18011KT 10SM FEW110 17/07 A3025 560 49 1000 180/11 RMK AO2
14837KMSN MSN20020925101009609/25/02 10:10:31  5-MIN KMSN 251610Z 19013KT 10SM FEW110 18/07 A3024 570 48 1100 190/13 RMK AO2
14837KMSN MSN20020925101509609/25/02 10:15:31  5-MIN KMSN 251615Z 18012KT 10SM FEW110 17/07 A3024 570 49 1000 180/12 RMK AO2
14837KMSN MSN20020925102009609/25/02 10:20:31  5-MIN KMSN 251620Z 19011KT 10SM FEW110 18/06 A3024 570 46 1100 190/11 RMK AO2
14837KMSN MSN20020925102509609/25/02 10:25:31  5-MIN KMSN 251625Z 19011KT 10SM FEW110 18/06 A3023 580 46 1100 190/11 RMK AO2
14837KMSN MSN20020925103009609/25/02 10:30:31  5-MIN KMSN 251630Z 19013KT 10SM FEW100 18/06 A3023 580 46 1100 190/13 RMK AO2
14837KMSN MSN20020925103509609/25/02 10:35:31  5-MIN KMSN 251635Z 19011KT 10SM FEW100 18/06 A3023 580 46 1100 190/11 RMK AO2
14837KMSN MSN20020925104009609/25/02 10:40:31  5-MIN KMSN 251640Z 19010KT 10SM FEW100 18/06 A3023 580 44 1100 190/10 RMK AO2
14837KMSN MSN20020925104509609/25/02 10:45:31  5-MIN KMSN 251645Z 17013KT 10SM SCT100 18/06 A3023 580 44 1100 160/13 RMK AO2
14837KMSN MSN20020925105011309/25/02 10:50:31  5-MIN KMSN 251650Z 18014KT 10SM BKN110 18/06 A3023 580 44 1100 180/14 RMK AO2 SLP237 T01780056
14837KMSN MSN20020925105509609/25/02 10:55:31  5-MIN KMSN 251655Z 17014KT 10SM BKN110 18/06 A3022 590 44 1100 170/14 RMK AO2
14837KMSN MSN20020925110009609/25/02 11:00:31  5-MIN KMSN 251700Z 18014KT 10SM SCT110 18/06 A3023 580 44 1100 180/14 RMK AO2
14837KMSN MSN20020925110509609/25/02 11:05:31  5-MIN KMSN 251705Z 18013KT 10SM SCT110 18/06 A3022 580 44 1200 180/13 RMK AO2
14837KMSN MSN20020925111009609/25/02 11:10:31  5-MIN KMSN 251710Z 18013KT 10SM SCT110 18/06 A3022 590 42 1200 180/13 RMK AO2
14837KMSN MSN20020925111509609/25/02 11:15:31  5-MIN KMSN 251715Z 18009KT 10SM SCT110 18/06 A3022 590 42 1200 180/09 RMK AO2
14837KMSN MSN20020925112009609/25/02 11:20:31  5-MIN KMSN 251720Z 18012KT 10SM SCT110 18/06 A3022 590 42 1200 180/12 RMK AO2
14837KMSN MSN20020925112509609/25/02 11:25:31  5-MIN KMSN 251725Z 17013KT 10SM SCT110 19/06 A3021 590 41 1200 170/13 RMK AO2
14837KMSN MSN20020925113009609/25/02 11:30:31  5-MIN KMSN 251730Z 19012KT 10SM SCT110 19/06 A3021 590 41 1200 190/12 RMK AO2
14837KMSN MSN20020925113509609/25/02 11:35:31  5-MIN KMSN 251735Z 18011KT 10SM SCT110 19/05 A3021 600 39 1200 180/11 RMK AO2
14837KMSN MSN20020925114009609/25/02 11:40:31  5-MIN KMSN 251740Z 18012KT 10SM FEW110 19/06 A3021 600 41 1200 180/12 RMK AO2
14837KMSN MSN20020925114509609/25/02 11:45:31  5-MIN KMSN 251745Z 18013KT 10SM FEW110 19/05 A3021 600 39 1200 180/13 RMK AO2
14837KMSN MSN20020925115013109/25/02 11:50:31  5-MIN KMSN 251750Z 17011KT 10SM FEW110 19/06 A3020 600 41 1200 170/11 RMK AO2 SLP229 T01890056 10189 20106 58010
14837KMSN MSN20020925115509609/25/02 11:55:31  5-MIN KMSN 251755Z 20008KT 10SM SCT110 19/06 A3021 600 41 1200 200/08 RMK AO2
14837KMSN MSN20020925120009609/25/02 12:00:31  5-MIN KMSN 251800Z 19010KT 10SM FEW110 19/05 A3021 600 39 1200 190/10 RMK AO2
14837KMSN MSN20020925120509609/25/02 12:05:31  5-MIN KMSN 251805Z 19010KT 10SM FEW110 19/06 A3020 600 41 1200 190/10 RMK AO2
14837KMSN MSN20020925121009609/25/02 12:10:31  5-MIN KMSN 251810Z 18010KT 10SM SCT110 19/06 A3020 610 41 1200 180/10 RMK AO2
14837KMSN MSN20020925121509609/25/02 12:15:31  5-MIN KMSN 251815Z 18010KT 10SM BKN110 19/06 A3020 610 43 1200 180/10 RMK AO2
14837KMSN MSN20020925122009609/25/02 12:20:31  5-MIN KMSN 251820Z 18012KT 10SM BKN110 20/07 A3020 610 41 1400 180/12 RMK AO2
14837KMSN MSN20020925122509609/25/02 12:25:31  5-MIN KMSN 251825Z 18010KT 10SM BKN110 19/06 A3019 610 43 1200 180/10 RMK AO2
14837KMSN MSN20020925123009609/25/02 12:30:31  5-MIN KMSN 251830Z 18010KT 10SM BKN110 19/07 A3019 620 43 1300 180/10 RMK AO2
14837KMSN MSN20020925123509609/25/02 12:35:31  5-MIN KMSN 251835Z 17011KT 10SM SCT110 19/06 A3019 620 41 1300 170/11 RMK AO2
14837KMSN MSN20020925124010309/25/02 12:40:31  5-MIN KMSN 251840Z 18008KT 10SM SCT110 19/06 A3018 630 43 1300 180/08 RMK AO2 PRESFR
14837KMSN MSN20020925124509609/25/02 12:45:31  5-MIN KMSN 251845Z 18010KT 10SM SCT110 19/07 A3018 630 43 1300 180/10 RMK AO2
14837KMSN MSN20020925125011309/25/02 12:50:31  5-MIN KMSN 251850Z 17012KT 10SM SCT110 20/07 A3017 630 41 1400 160/12 RMK AO2 SLP218 T02000067
14837KMSN MSN20020925125509309/25/02 12:55:31  5-MIN KMSN 251855Z 19010KT 10SM CLR 20/07 A3017 630 41 1400 190/10 RMK AO2
14837KMSN MSN20020925130009609/25/02 13:00:31  5-MIN KMSN 251900Z 17009KT 10SM FEW110 20/07 A3017 630 41 1400 170/09 RMK AO2
14837KMSN MSN20020925130509609/25/02 13:05:31  5-MIN KMSN 251905Z 16011KT 10SM FEW110 20/06 A3017 640 40 1400 160/11 RMK AO2
14837KMSN MSN20020925131009609/25/02 13:10:31  5-MIN KMSN 251910Z 16011KT 10SM FEW110 21/07 A3017 640 40 1500 160/11 RMK AO2
14837KMSN MSN20020925131511209/25/02 13:15:31  5-MIN KMSN 251915Z 18008KT 140V210 10SM FEW110 20/07 A3016 640 41 1400 180/08 140V210 RMK AO2
14837KMSN MSN20020925132009609/25/02 13:20:31  5-MIN KMSN 251920Z 19009KT 10SM FEW110 21/06 A3016 640 38 1500 190/09 RMK AO2
14837KMSN MSN20020925132509609/25/02 13:25:31  5-MIN KMSN 251925Z 16012KT 10SM FEW110 21/06 A3016 640 38 1500 160/12 RMK AO2
14837KMSN MSN20020925133009609/25/02 13:30:31  5-MIN KMSN 251930Z 19008KT 10SM FEW110 21/06 A3016 650 37 1500 190/08 RMK AO2
14837KMSN MSN20020925133509609/25/02 13:35:31  5-MIN KMSN 251935Z 18011KT 10SM FEW110 21/06 A3015 650 37 1500 180/11 RMK AO2
14837KMSN MSN20020925134009609/25/02 13:40:31  5-MIN KMSN 251940Z 17010KT 10SM FEW110 21/06 A3015 650 38 1500 170/10 RMK AO2
14837KMSN MSN20020925134509609/25/02 13:45:31  5-MIN KMSN 251945Z 18008KT 10SM FEW110 21/06 A3015 650 38 1500 180/08 RMK AO2
14837KMSN MSN20020925135011009/25/02 13:50:31  5-MIN KMSN 251950Z 19010KT 10SM CLR 21/06 A3015 650 37 1500 180/10 RMK AO2 SLP209 T02060056
14837KMSN MSN20020925135510909/25/02 13:55:31  5-MIN KMSN 251955Z 17008KT 150V210 10SM CLR 21/06 A3014 660 38 1500 170/08 150V210 RMK AO2
14837KMSN MSN20020925140009309/25/02 14:00:31  5-MIN KMSN 252000Z 17010KT 10SM CLR 21/06 A3014 660 37 1600 170/10 RMK AO2
14837KMSN MSN20020925140509309/25/02 14:05:31  5-MIN KMSN 252005Z 17010KT 10SM CLR 21/06 A3014 660 38 1500 170/10 RMK AO2
14837KMSN MSN20020925141009309/25/02 14:10:31  5-MIN KMSN 252010Z 19011KT 10SM CLR 21/06 A3013 670 37 1500 190/11 RMK AO2
14837KMSN MSN20020925141509309/25/02 14:15:31  5-MIN KMSN 252015Z 17011KT 10SM CLR 21/06 A3013 670 38 1500 170/11 RMK AO2
14837KMSN MSN20020925142009309/25/02 14:20:31  5-MIN KMSN 252020Z 18009KT 10SM CLR 21/06 A3013 670 37 1600 180/09 RMK AO2
14837KMSN MSN20020925142509309/25/02 14:25:31  5-MIN KMSN 252025Z 18009KT 10SM CLR 21/06 A3013 670 37 1600 180/09 RMK AO2
14837KMSN MSN20020925143009309/25/02 14:30:31  5-MIN KMSN 252030Z 18012KT 10SM CLR 21/06 A3013 670 37 1600 180/12 RMK AO2
14837KMSN MSN20020925143509309/25/02 14:35:31  5-MIN KMSN 252035Z 19012KT 10SM CLR 21/06 A3012 680 37 1600 190/12 RMK AO2
14837KMSN MSN20020925144009309/25/02 14:40:31  5-MIN KMSN 252040Z 17011KT 10SM CLR 21/06 A3012 680 37 1600 170/11 RMK AO2
14837KMSN MSN20020925144509309/25/02 14:45:31  5-MIN KMSN 252045Z 18009KT 10SM CLR 21/06 A3012 680 37 1600 180/09 RMK AO2
14837KMSN MSN20020925145011609/25/02 14:50:31  5-MIN KMSN 252050Z 17010KT 10SM CLR 21/07 A3012 680 38 1600 170/10 RMK AO2 SLP198 T02110067 58015
14837KMSN MSN20020925145509309/25/02 14:55:31  5-MIN KMSN 252055Z 19012KT 10SM CLR 21/06 A3012 680 37 1600 190/12 RMK AO2
14837KMSN MSN20020925150009309/25/02 15:00:31  5-MIN KMSN 252100Z 18009KT 10SM CLR 21/07 A3011 690 38 1600 170/09 RMK AO2
14837KMSN MSN20020925150509309/25/02 15:05:31  5-MIN KMSN 252105Z 16012KT 10SM CLR 22/07 A3011 690 39 1700 160/12 RMK AO2
14837KMSN MSN20020925151009309/25/02 15:10:31  5-MIN KMSN 252110Z 17011KT 10SM CLR 22/07 A3011 690 39 1700 170/11 RMK AO2
14837KMSN MSN20020925151509309/25/02 15:15:31  5-MIN KMSN 252115Z 17010KT 10SM CLR 22/07 A3011 690 39 1700 170/10 RMK AO2
14837KMSN MSN20020925152009309/25/02 15:20:31  5-MIN KMSN 252120Z 18008KT 10SM CLR 22/07 A3011 690 39 1700 180/08 RMK AO2
14837KMSN MSN20020925152509309/25/02 15:25:31  5-MIN KMSN 252125Z 17009KT 10SM CLR 22/07 A3011 690 39 1700 170/09 RMK AO2
14837KMSN MSN20020925153009209/25/02 15:30:31  5-MIN KMSN 252130Z 17010KT 9SM CLR 22/07 A3011 690 39 1700 170/10 RMK AO2
14837KMSN MSN20020925153509309/25/02 15:35:31  5-MIN KMSN 252135Z 17011KT 10SM CLR 22/07 A3011 690 37 1700 170/11 RMK AO2
14837KMSN MSN20020925154009309/25/02 15:40:31  5-MIN KMSN 252140Z 19008KT 10SM CLR 22/07 A3012 680 37 1700 190/08 RMK AO2
14837KMSN MSN20020925154509309/25/02 15:45:31  5-MIN KMSN 252145Z 19008KT 10SM CLR 22/07 A3012 680 37 1700 190/08 RMK AO2
14837KMSN MSN20020925155011009/25/02 15:50:31  5-MIN KMSN 252150Z 18009KT 10SM CLR 22/07 A3012 680 39 1700 180/09 RMK AO2 SLP198 T02170072
14837KMSN MSN20020925155509309/25/02 15:55:31  5-MIN KMSN 252155Z 18009KT 10SM CLR 22/07 A3012 680 37 1700 180/09 RMK AO2
14837KMSN MSN20020925160009309/25/02 16:00:31  5-MIN KMSN 252200Z 17009KT 10SM CLR 21/07 A3012 680 38 1600 170/09 RMK AO2
14837KMSN MSN20020925160509309/25/02 16:05:31  5-MIN KMSN 252205Z 18010KT 10SM CLR 22/07 A3012 680 37 1700 180/10 RMK AO2
14837KMSN MSN20020925161009309/25/02 16:10:31  5-MIN KMSN 252210Z 18009KT 10SM CLR 21/07 A3012 680 40 1600 180/09 RMK AO2
14837KMSN MSN20020925161509309/25/02 16:15:31  5-MIN KMSN 252215Z 17009KT 10SM CLR 21/07 A3012 680 40 1600 170/09 RMK AO2
14837KMSN MSN20020925162009309/25/02 16:20:31  5-MIN KMSN 252220Z 19009KT 10SM CLR 22/07 A3012 680 39 1700 190/09 RMK AO2
14837KMSN MSN20020925162509309/25/02 16:25:31  5-MIN KMSN 252225Z 18009KT 10SM CLR 22/07 A3012 680 39 1700 180/09 RMK AO2
14837KMSN MSN20020925163009309/25/02 16:30:31  5-MIN KMSN 252230Z 19007KT 10SM CLR 21/07 A3012 680 40 1600 180/07 RMK AO2
14837KMSN MSN20020925163509309/25/02 16:35:31  5-MIN KMSN 252235Z 20005KT 10SM CLR 21/07 A3012 680 40 1600 200/05 RMK AO2
14837KMSN MSN20020925164009309/25/02 16:40:31  5-MIN KMSN 252240Z 21004KT 10SM CLR 21/08 A3012 680 42 1600 210/04 RMK AO2
14837KMSN MSN20020925164509309/25/02 16:45:31  5-MIN KMSN 252245Z 19006KT 10SM CLR 21/07 A3012 680 40 1600 190/06 RMK AO2
14837KMSN MSN20020925165011309/25/02 16:50:31  5-MIN KMSN 252250Z 20004KT 10SM FEW100 21/07 A3012 680 41 1500 200/04 RMK AO2 SLP200 T02060072
14837KMSN MSN20020925165509609/25/02 16:55:31  5-MIN KMSN 252255Z 21004KT 10SM FEW100 20/08 A3012 680 45 1500 210/04 RMK AO2
14837KMSN MSN20020925170009609/25/02 17:00:31  5-MIN KMSN 252300Z 19004KT 10SM FEW100 20/07 A3012 680 43 1500 190/04 RMK AO2
14837KMSN MSN20020925170509609/25/02 17:05:31  5-MIN KMSN 252305Z 20003KT 10SM FEW100 20/07 A3012 680 43 1500 200/03 RMK AO2
14837KMSN MSN20020925171009609/25/02 17:10:31  5-MIN KMSN 252310Z 19004KT 10SM FEW100 20/08 A3012 680 45 1500 190/04 RMK AO2
14837KMSN MSN20020925171509609/25/02 17:15:31  5-MIN KMSN 252315Z 18005KT 10SM FEW100 19/08 A3012 680 48 1400 180/05 RMK AO2
14837KMSN MSN20020925172009609/25/02 17:20:31  5-MIN KMSN 252320Z 17006KT 10SM FEW100 19/08 A3012 680 48 1400 160/06 RMK AO2
14837KMSN MSN20020925172509609/25/02 17:25:31  5-MIN KMSN 252325Z 17005KT 10SM FEW100 19/09 A3012 680 50 1400 170/05 RMK AO2
14837KMSN MSN20020925173009609/25/02 17:30:31  5-MIN KMSN 252330Z 17005KT 10SM FEW100 19/08 A3012 680 48 1400 170/05 RMK AO2
14837KMSN MSN20020925173509309/25/02 17:35:31  5-MIN KMSN 252335Z 16005KT 10SM CLR 19/09 A3012 680 52 1300 160/05 RMK AO2
14837KMSN MSN20020925174009609/25/02 17:40:31  5-MIN KMSN 252340Z 16005KT 10SM SCT100 19/08 A3012 680 50 1300 160/05 RMK AO2
14837KMSN MSN20020925174509609/25/02 17:45:31  5-MIN KMSN 252345Z VRB03KT 10SM SCT100 19/08 A3012 680 50 1300 VRB/03 RMK AO2
14837KMSN MSN20020925175013109/25/02 17:50:31  5-MIN KMSN 252350Z 00000KT 10SM SCT100 18/09 A3011 690 54 1300 000/00 RMK AO2 SLP198 T01830089 10217 20183 56029
14837KMSN MSN20020925175509609/25/02 17:55:31  5-MIN KMSN 252355Z 15004KT 10SM FEW100 18/09 A3011 690 54 1300 150/04 RMK AO2
14837KMSN MSN20020925180009309/25/02 18:00:31  5-MIN KMSN 260000Z 14004KT 10SM CLR 19/08 A3011 690 50 1300 140/04 RMK AO2
14837KMSN MSN20020925180509309/25/02 18:05:31  5-MIN KMSN 260005Z 13003KT 10SM CLR 18/08 A3010 690 53 1200 120/03 RMK AO2
14837KMSN MSN20020925181009309/25/02 18:10:31  5-MIN KMSN 260010Z 13003KT 10SM CLR 17/09 A3010 700 60 1100 130/03 RMK AO2
14837KMSN MSN20020925181509609/25/02 18:15:31  5-MIN KMSN 260015Z 14003KT 10SM FEW100 16/09 A3010 700 62 1000 140/03 RMK AO2
14837KMSN MSN20020925182009609/25/02 18:20:31  5-MIN KMSN 260020Z 00000KT 10SM FEW100 16/09 A3010 700 67 1000 000/00 RMK AO2
14837KMSN MSN20020925182509609/25/02 18:25:31  5-MIN KMSN 260025Z 16004KT 10SM FEW100 16/09 A3010 700 67 1000 160/04 RMK AO2
14837KMSN MSN20020925183009609/25/02 18:30:31  5-MIN KMSN 260030Z 16005KT 10SM FEW100 16/09 A3010 700 62 1000 160/05 RMK AO2
14837KMSN MSN20020925183509609/25/02 18:35:31  5-MIN KMSN 260035Z 17006KT 10SM FEW100 17/08 A3010 700 55 1200 160/06 RMK AO2
14837KMSN MSN20020925184009609/25/02 18:40:31  5-MIN KMSN 260040Z 17006KT 10SM FEW100 18/08 A3010 700 53 1200 160/06 RMK AO2
14837KMSN MSN20020925184509609/25/02 18:45:31  5-MIN KMSN 260045Z 18006KT 10SM FEW100 18/08 A3010 700 53 1200 180/06 RMK AO2
14837KMSN MSN20020925185011009/25/02 18:50:31  5-MIN KMSN 260050Z 17007KT 10SM CLR 18/08 A3009 700 53 1200 170/07 RMK AO2 SLP191 T01780083
14837KMSN MSN20020925185509309/25/02 18:55:31  5-MIN KMSN 260055Z 17007KT 10SM CLR 18/08 A3009 710 53 1200 170/07 RMK AO2
14837KMSN MSN20020925190009309/25/02 19:00:31  5-MIN KMSN 260100Z 18006KT 10SM CLR 17/08 A3009 700 55 1200 180/06 RMK AO2
14837KMSN MSN20020925190509309/25/02 19:05:31  5-MIN KMSN 260105Z 17006KT 10SM CLR 17/08 A3010 700 55 1200 170/06 RMK AO2
14837KMSN MSN20020925191009309/25/02 19:10:31  5-MIN KMSN 260110Z 17006KT 10SM CLR 18/08 A3010 700 53 1200 170/06 RMK AO2
14837KMSN MSN20020925191509309/25/02 19:15:31  5-MIN KMSN 260115Z 17005KT 10SM CLR 18/08 A3010 700 51 1200 170/05 RMK AO2
14837KMSN MSN20020925192009309/25/02 19:20:31  5-MIN KMSN 260120Z 17005KT 10SM CLR 18/08 A3009 700 51 1200 170/05 RMK AO2
14837KMSN MSN20020925192509309/25/02 19:25:31  5-MIN KMSN 260125Z 17005KT 10SM CLR 17/08 A3009 700 55 1200 170/05 RMK AO2
14837KMSN MSN20020925193009309/25/02 19:30:31  5-MIN KMSN 260130Z 17003KT 10SM CLR 17/08 A3010 700 53 1200 170/03 RMK AO2
14837KMSN MSN20020925193509309/25/02 19:35:31  5-MIN KMSN 260135Z 17003KT 10SM CLR 17/08 A3009 700 53 1200 170/03 RMK AO2
14837KMSN MSN20020925194009309/25/02 19:40:31  5-MIN KMSN 260140Z VRB03KT 10SM CLR 17/08 A3009 700 53 1200 VRB/03 RMK AO2
14837KMSN MSN20020925194509309/25/02 19:45:31  5-MIN KMSN 260145Z 00000KT 10SM CLR 16/08 A3010 700 62 1000 000/00 RMK AO2
14837KMSN MSN20020925195010909/25/02 19:50:31  5-MIN KMSN 260150Z 00000KT 10SM CLR 14/09 A3010 700 69 800 000/00 RMK AO2 SLP192 T01440089
14837KMSN MSN20020925195509209/25/02 19:55:31  5-MIN KMSN 260155Z 00000KT 10SM CLR 14/09 A3010 700 69 800 000/00 RMK AO2
14837KMSN MSN20020925200009209/25/02 20:00:31  5-MIN KMSN 260200Z 00000KT 10SM CLR 14/09 A3010 700 69 800 000/00 RMK AO2
14837KMSN MSN20020925200509209/25/02 20:05:31  5-MIN KMSN 260205Z 00000KT 10SM CLR 14/09 A3010 700 72 800 000/00 RMK AO2
14837KMSN MSN20020925201009209/25/02 20:10:31  5-MIN KMSN 260210Z 00000KT 10SM CLR 14/10 A3010 700 74 800 000/00 RMK AO2
14837KMSN MSN20020925201509209/25/02 20:15:31  5-MIN KMSN 260215Z 00000KT 10SM CLR 14/10 A3009 700 74 800 000/00 RMK AO2
14837KMSN MSN20020925202009209/25/02 20:20:31  5-MIN KMSN 260220Z 00000KT 10SM CLR 14/10 A3009 700 74 800 000/00 RMK AO2
14837KMSN MSN20020925202509209/25/02 20:25:31  5-MIN KMSN 260225Z 00000KT 10SM CLR 15/10 A3009 710 72 900 000/00 RMK AO2
14837KMSN MSN20020925203009209/25/02 20:30:31  5-MIN KMSN 260230Z 14003KT 10SM CLR 15/09 A3009 710 69 900 140/03 RMK AO2
14837KMSN MSN20020925203509209/25/02 20:35:31  5-MIN KMSN 260235Z 15003KT 10SM CLR 15/09 A3009 710 69 900 150/03 RMK AO2
14837KMSN MSN20020925204009209/25/02 20:40:31  5-MIN KMSN 260240Z 15006KT 10SM CLR 15/10 A3008 710 72 900 150/06 RMK AO2
14837KMSN MSN20020925204509609/25/02 20:45:31  5-MIN KMSN 260245Z 15007KT 10SM FEW120 16/09 A3008 720 62 1100 140/07 RMK AO2
14837KMSN MSN20020925205011909/25/02 20:50:31  5-MIN KMSN 260250Z 16007KT 10SM SCT120 17/08 A3008 710 57 1100 160/07 RMK AO2 SLP186 T01670083 58001
14837KMSN MSN20020925205509609/25/02 20:55:31  5-MIN KMSN 260255Z 15008KT 10SM SCT120 17/08 A3008 720 55 1200 150/08 RMK AO2
14837KMSN MSN20020925210009609/25/02 21:00:31  5-MIN KMSN 260300Z 16009KT 10SM SCT120 17/08 A3008 720 53 1200 160/09 RMK AO2
14837KMSN MSN20020925210509609/25/02 21:05:31  5-MIN KMSN 260305Z 16009KT 10SM SCT120 17/08 A3008 720 53 1200 160/09 RMK AO2
14837KMSN MSN20020925211009609/25/02 21:10:31  5-MIN KMSN 260310Z 18005KT 10SM SCT120 17/08 A3009 710 53 1200 180/05 RMK AO2
14837KMSN MSN20020925211509609/25/02 21:15:31  5-MIN KMSN 260315Z 17005KT 10SM FEW120 17/08 A3008 710 53 1200 170/05 RMK AO2
14837KMSN MSN20020925212009609/25/02 21:20:31  5-MIN KMSN 260320Z 16006KT 10SM SCT120 17/08 A3008 710 55 1200 160/06 RMK AO2
14837KMSN MSN20020925212509609/25/02 21:25:31  5-MIN KMSN 260325Z 15008KT 10SM SCT120 17/08 A3007 730 55 1200 140/08 RMK AO2
14837KMSN MSN20020925213011009/25/02 21:30:31  5-MIN KMSN 260330Z 13011KT 10SM FEW090 BKN110 17/08 A3006 740 57 1100 130/11 RMK AO2 PRESFR
14837KMSN MSN20020925213509609/25/02 21:35:31  5-MIN KMSN 260335Z 14011KT 10SM BKN110 17/08 A3005 740 53 1200 140/11 RMK AO2
14837KMSN MSN20020925214009609/25/02 21:40:31  5-MIN KMSN 260340Z 15008KT 10SM BKN110 17/07 A3005 740 51 1200 150/08 RMK AO2
14837KMSN MSN20020925214509609/25/02 21:45:31  5-MIN KMSN 260345Z 16008KT 10SM BKN110 17/07 A3006 730 49 1200 160/08 RMK AO2
14837KMSN MSN20020925215011309/25/02 21:50:31  5-MIN KMSN 260350Z 18006KT 10SM BKN110 17/07 A3007 730 49 1200 180/06 RMK AO2 SLP180 T01720067
14837KMSN MSN20020925215509609/25/02 21:55:31  5-MIN KMSN 260355Z 18004KT 10SM SCT110 17/07 A3007 730 49 1200 180/04 RMK AO2
14837KMSN MSN20020925220009609/25/02 22:00:31  5-MIN KMSN 260400Z VRB04KT 10SM FEW110 17/07 A3007 720 49 1200 VRB/04 RMK AO2
14837KMSN MSN20020925220509609/25/02 22:05:31  5-MIN KMSN 260405Z 24004KT 10SM FEW110 17/07 A3008 710 51 1100 240/04 RMK AO2
14837KMSN MSN20020925221009609/25/02 22:10:31  5-MIN KMSN 260410Z 00000KT 10SM FEW110 17/07 A3008 720 51 1100 000/00 RMK AO2
14837KMSN MSN20020925221509309/25/02 22:15:31  5-MIN KMSN 260415Z 17005KT 10SM CLR 17/07 A3008 720 51 1100 170/05 RMK AO2
14837KMSN MSN20020925222009609/25/02 22:20:31  5-MIN KMSN 260420Z 16006KT 10SM FEW120 16/07 A3008 720 53 1100 160/06 RMK AO2
14837KMSN MSN20020925222509609/25/02 22:25:31  5-MIN KMSN 260425Z 16005KT 10SM FEW120 16/07 A3008 720 57 1000 160/05 RMK AO2
14837KMSN MSN20020925223009609/25/02 22:30:31  5-MIN KMSN 260430Z 16005KT 10SM FEW120 16/07 A3008 720 57 1000 160/05 RMK AO2
14837KMSN MSN20020925223509509/25/02 22:35:31  5-MIN KMSN 260435Z 16006KT 10SM FEW120 14/07 A3008 720 61 900 150/06 RMK AO2
14837KMSN MSN20020925224009509/25/02 22:40:31  5-MIN KMSN 260440Z 16005KT 10SM FEW120 14/07 A3008 720 61 900 160/05 RMK AO2
14837KMSN MSN20020925224509509/25/02 22:45:31  5-MIN KMSN 260445Z 17003KT 10SM FEW120 14/08 A3008 720 66 800 160/03 RMK AO2
14837KMSN MSN20020925225011209/25/02 22:50:31  5-MIN KMSN 260450Z 00000KT 10SM FEW120 14/08 A3007 720 66 800 000/00 RMK AO2 SLP183 T01390078
14837KMSN MSN20020925225509209/25/02 22:55:31  5-MIN KMSN 260455Z 14004KT 10SM CLR 14/07 A3007 720 61 900 140/04 RMK AO2
14837KMSN MSN20020925230009209/25/02 23:00:31  5-MIN KMSN 260500Z 14006KT 10SM CLR 14/07 A3007 730 64 800 140/06 RMK AO2
14837KMSN MSN20020925230509209/25/02 23:05:31  5-MIN KMSN 260505Z 14006KT 10SM CLR 14/07 A3006 730 64 800 140/06 RMK AO2
14837KMSN MSN20020925231009209/25/02 23:10:31  5-MIN KMSN 260510Z 14005KT 10SM CLR 14/08 A3006 730 64 900 140/05 RMK AO2
14837KMSN MSN20020925231509209/25/02 23:15:31  5-MIN KMSN 260515Z 14005KT 10SM CLR 14/08 A3006 730 64 900 140/05 RMK AO2
14837KMSN MSN20020925232009209/25/02 23:20:31  5-MIN KMSN 260520Z 16004KT 10SM CLR 15/07 A3007 730 59 900 160/04 RMK AO2
14837KMSN MSN20020925232509209/25/02 23:25:31  5-MIN KMSN 260525Z 16005KT 10SM CLR 14/08 A3007 730 64 900 160/05 RMK AO2
14837KMSN MSN20020925233009209/25/02 23:30:31  5-MIN KMSN 260530Z 18004KT 10SM CLR 14/08 A3007 730 64 900 180/04 RMK AO2
14837KMSN MSN20020925233509209/25/02 23:35:31  5-MIN KMSN 260535Z 17004KT 10SM CLR 14/07 A3006 730 61 900 170/04 RMK AO2
14837KMSN MSN20020925234009209/25/02 23:40:31  5-MIN KMSN 260540Z 16006KT 10SM CLR 14/07 A3006 730 61 900 160/06 RMK AO2
14837KMSN MSN20020925234509209/25/02 23:45:31  5-MIN KMSN 260545Z 16006KT 10SM CLR 14/08 A3006 740 64 900 160/06 RMK AO2
14837KMSN MSN20020925235013709/25/02 23:50:31  5-MIN KMSN 260550Z 16006KT 10SM CLR 14/08 A3006 740 66 800 160/06 RMK AO2 SLP177 T01390078 10189 20139 402170089 56010
14837KMSN MSN20020925235509209/25/02 23:55:31  5-MIN KMSN 260555Z 17005KT 10SM CLR 14/08 A3006 740 64 900 170/05 RMK AO2
14837KMSN MSN20020926000009209/26/02 00:00:31  5-MIN KMSN 260600Z 17004KT 10SM CLR 14/08 A3006 740 64 900 170/04 RMK AO2
14837KMSN MSN20020926000509209/26/02 00:05:31  5-MIN KMSN 260605Z 18005KT 10SM CLR 14/08 A3006 740 64 900 180/05 RMK AO2
14837KMSN MSN20020926001009209/26/02 00:10:31  5-MIN KMSN 260610Z 17005KT 10SM CLR 14/08 A3006 740 64 900 170/05 RMK AO2
14837KMSN MSN20020926001509209/26/02 00:15:31  5-MIN KMSN 260615Z 16007KT 10SM CLR 14/08 A3005 740 64 900 160/07 RMK AO2
14837KMSN MSN20020926002009209/26/02 00:20:31  5-MIN KMSN 260620Z 16008KT 10SM CLR 14/08 A3005 740 64 900 160/08 RMK AO2
14837KMSN MSN20020926002509509/26/02 00:25:31  5-MIN KMSN 260625Z 17007KT 10SM FEW120 14/08 A3005 740 64 900 170/07 RMK AO2
14837KMSN MSN20020926003009509/26/02 00:30:31  5-MIN KMSN 260630Z 17005KT 10SM FEW120 14/08 A3005 740 64 900 170/05 RMK AO2
14837KMSN MSN20020926003509509/26/02 00:35:31  5-MIN KMSN 260635Z 18005KT 10SM FEW120 14/08 A3005 740 64 900 180/05 RMK AO2
14837KMSN MSN20020926004009509/26/02 00:40:31  5-MIN KMSN 260640Z 17006KT 10SM FEW120 14/08 A3005 740 64 900 170/06 RMK AO2
14837KMSN MSN20020926004509509/26/02 00:45:31  5-MIN KMSN 260645Z 16007KT 10SM FEW120 14/08 A3005 750 66 900 160/07 RMK AO2
14837KMSN MSN20020926005011209/26/02 00:50:31  5-MIN KMSN 260650Z 16007KT 10SM FEW120 14/08 A3005 750 69 800 160/07 RMK AO2 SLP173 T01390083
14837KMSN MSN20020926005509509/26/02 00:55:31  5-MIN KMSN 260655Z 16007KT 10SM FEW120 14/08 A3004 750 66 900 160/07 RMK AO2
14837KMSN MSN20020926010009509/26/02 01:00:31  5-MIN KMSN 260700Z 17007KT 10SM FEW120 14/08 A3004 750 69 800 160/07 RMK AO2
14837KMSN MSN20020926010509509/26/02 01:05:31  5-MIN KMSN 260705Z 18006KT 10SM FEW120 14/08 A3005 750 66 900 170/06 RMK AO2
14837KMSN MSN20020926011009509/26/02 01:10:31  5-MIN KMSN 260710Z 17006KT 10SM FEW120 14/08 A3004 750 66 900 170/06 RMK AO2
14837KMSN MSN20020926011509209/26/02 01:15:31  5-MIN KMSN 260715Z 18007KT 10SM CLR 14/08 A3005 740 66 900 180/07 RMK AO2
14837KMSN MSN20020926012009309/26/02 01:20:31  5-MIN KMSN 260720Z 18008KT 10SM CLR 15/08 A3005 740 64 1000 180/08 RMK AO2
14837KMSN MSN20020926012509209/26/02 01:25:31  5-MIN KMSN 260725Z 16007KT 10SM CLR 14/08 A3005 750 66 900 160/07 RMK AO2
14837KMSN MSN20020926013009209/26/02 01:30:31  5-MIN KMSN 260730Z 16006KT 10SM CLR 14/08 A3004 750 69 800 160/06 RMK AO2
14837KMSN MSN20020926013509509/26/02 01:35:31  5-MIN KMSN 260735Z 15005KT 10SM FEW100 14/08 A3004 750 69 800 150/05 RMK AO2
14837KMSN MSN20020926014009509/26/02 01:40:31  5-MIN KMSN 260740Z VRB03KT 10SM SCT100 14/08 A3005 740 69 800 VRB/03 RMK AO2
14837KMSN MSN20020926014509509/26/02 01:45:31  5-MIN KMSN 260745Z VRB03KT 10SM FEW100 14/09 A3005 740 71 800 VRB/03 RMK AO2
14837KMSN MSN20020926015011209/26/02 01:50:31  5-MIN KMSN 260750Z 18006KT 10SM FEW100 14/08 A3005 740 69 800 180/06 RMK AO2 SLP176 T01390083
14837KMSN MSN20020926015509509/26/02 01:55:31  5-MIN KMSN 260755Z 18006KT 10SM FEW100 14/08 A3005 750 69 800 180/06 RMK AO2
14837KMSN MSN20020926020009509/26/02 02:00:31  5-MIN KMSN 260800Z 17005KT 10SM FEW100 14/08 A3005 750 69 800 170/05 RMK AO2
14837KMSN MSN20020926020509209/26/02 02:05:31  5-MIN KMSN 260805Z 18005KT 10SM CLR 13/08 A3004 750 71 800 180/05 RMK AO2
14837KMSN MSN20020926021009209/26/02 02:10:31  5-MIN KMSN 260810Z 17005KT 10SM CLR 13/08 A3004 750 71 800 170/05 RMK AO2
14837KMSN MSN20020926021509209/26/02 02:15:31  5-MIN KMSN 260815Z 17004KT 10SM CLR 13/08 A3004 750 71 800 170/04 RMK AO2
14837KMSN MSN20020926022009209/26/02 02:20:31  5-MIN KMSN 260820Z 18004KT 10SM CLR 13/08 A3004 750 74 700 170/04 RMK AO2
14837KMSN MSN20020926022509209/26/02 02:25:31  5-MIN KMSN 260825Z 15003KT 10SM CLR 12/08 A3004 750 77 600 150/03 RMK AO2
14837KMSN MSN20020926023009209/26/02 02:30:31  5-MIN KMSN 260830Z 15003KT 10SM CLR 13/08 A3004 760 74 700 140/03 RMK AO2
14837KMSN MSN20020926023509209/26/02 02:35:31  5-MIN KMSN 260835Z 14003KT 10SM CLR 12/08 A3004 760 77 600 140/03 RMK AO2
14837KMSN MSN20020926024009209/26/02 02:40:31  5-MIN KMSN 260840Z 14003KT 10SM CLR 12/08 A3004 760 77 600 140/03 RMK AO2
14837KMSN MSN20020926024509209/26/02 02:45:31  5-MIN KMSN 260845Z 00000KT 10SM CLR 12/08 A3004 760 77 600 000/00 RMK AO2
14837KMSN MSN20020926025011509/26/02 02:50:31  5-MIN KMSN 260850Z 00000KT 10SM CLR 12/08 A3004 760 80 600 000/00 RMK AO2 SLP170 T01170083 58008
14837KMSN MSN20020926025509209/26/02 02:55:31  5-MIN KMSN 260855Z 00000KT 10SM CLR 12/08 A3004 760 80 600 000/00 RMK AO2
14837KMSN MSN20020926030009209/26/02 03:00:31  5-MIN KMSN 260900Z 00000KT 10SM CLR 12/08 A3003 760 77 600 000/00 RMK AO2
14837KMSN MSN20020926030509209/26/02 03:05:31  5-MIN KMSN 260905Z 00000KT 10SM CLR 12/09 A3004 760 80 600 000/00 RMK AO2
14837KMSN MSN20020926031009209/26/02 03:10:31  5-MIN KMSN 260910Z 00000KT 10SM CLR 11/09 A3004 760 86 500 000/00 RMK AO2
14837KMSN MSN20020926031509209/26/02 03:15:31  5-MIN KMSN 260915Z 00000KT 10SM CLR 11/09 A3004 760 89 400 000/00 RMK AO2
14837KMSN MSN20020926032009209/26/02 03:20:31  5-MIN KMSN 260920Z 00000KT 10SM CLR 11/09 A3004 760 89 400 000/00 RMK AO2
14837KMSN MSN20020926032509209/26/02 03:25:31  5-MIN KMSN 260925Z 00000KT 10SM CLR 11/09 A3003 760 89 400 000/00 RMK AO2
14837KMSN MSN20020926033009209/26/02 03:30:31  5-MIN KMSN 260930Z 00000KT 10SM CLR 11/09 A3003 760 89 400 000/00 RMK AO2
14837KMSN MSN20020926033509209/26/02 03:35:31  5-MIN KMSN 260935Z 00000KT 10SM CLR 11/08 A3003 760 86 400 000/00 RMK AO2
14837KMSN MSN20020926034009209/26/02 03:40:31  5-MIN KMSN 260940Z 00000KT 10SM CLR 10/09 A3003 760 93 400 000/00 RMK AO2
14837KMSN MSN20020926034509209/26/02 03:45:31  5-MIN KMSN 260945Z 00000KT 10SM CLR 10/08 A3003 760 89 400 000/00 RMK AO2
14837KMSN MSN20020926035010909/26/02 03:50:31  5-MIN KMSN 260950Z 00000KT 10SM CLR 10/08 A3003 760 89 400 000/00 RMK AO2 SLP169 T01000083
14837KMSN MSN20020926035509209/26/02 03:55:31  5-MIN KMSN 260955Z 00000KT 10SM CLR 10/08 A3003 760 89 400 000/00 RMK AO2
14837KMSN MSN20020926040009209/26/02 04:00:31  5-MIN KMSN 261000Z 00000KT 10SM CLR 11/08 A3003 760 86 500 000/00 RMK AO2
14837KMSN MSN20020926040509209/26/02 04:05:31  5-MIN KMSN 261005Z 00000KT 10SM CLR 10/08 A3003 760 89 400 000/00 RMK AO2
14837KMSN MSN20020926041009109/26/02 04:10:31  5-MIN KMSN 261010Z 00000KT 9SM CLR 09/08 A3003 770 93 300 000/00 RMK AO2
14837KMSN MSN20020926041509109/26/02 04:15:31  5-MIN KMSN 261015Z 00000KT 9SM CLR 09/08 A3002 770 93 300 000/00 RMK AO2
14837KMSN MSN20020926042009109/26/02 04:20:31  5-MIN KMSN 261020Z 00000KT 9SM CLR 10/08 A3002 770 89 400 000/00 RMK AO2
14837KMSN MSN20020926042509109/26/02 04:25:31  5-MIN KMSN 261025Z 00000KT 9SM CLR 10/08 A3002 770 89 400 000/00 RMK AO2
14837KMSN MSN20020926043009209/26/02 04:30:31  5-MIN KMSN 261030Z 00000KT 10SM CLR 10/08 A3002 770 89 400 000/00 RMK AO2
14837KMSN MSN20020926043509209/26/02 04:35:31  5-MIN KMSN 261035Z 00000KT 10SM CLR 10/08 A3002 770 89 400 000/00 RMK AO2
14837KMSN MSN20020926044009209/26/02 04:40:31  5-MIN KMSN 261040Z 00000KT 10SM CLR 10/08 A3002 770 86 400 000/00 RMK AO2
14837KMSN MSN20020926044509209/26/02 04:45:31  5-MIN KMSN 261045Z 00000KT 10SM CLR 09/08 A3002 770 89 300 000/00 RMK AO2
14837KMSN MSN20020926045010809/26/02 04:50:31  5-MIN KMSN 261050Z 00000KT 9SM CLR 09/08 A3002 770 93 300 000/00 RMK AO2 SLP166 T00890078
14837KMSN MSN20020926045509109/26/02 04:55:31  5-MIN KMSN 261055Z 00000KT 9SM CLR 09/08 A3002 770 93 300 000/00 RMK AO2
14837KMSN MSN20020926050009109/26/02 05:00:31  5-MIN KMSN 261100Z 00000KT 9SM CLR 09/08 A3002 770 93 300 000/00 RMK AO2
14837KMSN MSN20020926050509109/26/02 05:05:31  5-MIN KMSN 261105Z 00000KT 9SM CLR 09/08 A3002 770 93 300 000/00 RMK AO2
14837KMSN MSN20020926051009109/26/02 05:10:31  5-MIN KMSN 261110Z 00000KT 9SM CLR 09/08 A3002 770 93 300 000/00 RMK AO2
14837KMSN MSN20020926051509109/26/02 05:15:31  5-MIN KMSN 261115Z 00000KT 8SM CLR 09/08 A3002 770 93 300 000/00 RMK AO2
14837KMSN MSN20020926052009109/26/02 05:20:31  5-MIN KMSN 261120Z 00000KT 8SM CLR 09/08 A3002 770 93 300 000/00 RMK AO2
14837KMSN MSN20020926052509109/26/02 05:25:31  5-MIN KMSN 261125Z 00000KT 8SM CLR 09/08 A3002 770 89 300 000/00 RMK AO2
14837KMSN MSN20020926053009109/26/02 05:30:31  5-MIN KMSN 261130Z 00000KT 9SM CLR 09/08 A3002 770 93 300 000/00 RMK AO2
14837KMSN MSN20020926053509109/26/02 05:35:31  5-MIN KMSN 261135Z 00000KT 9SM CLR 09/08 A3002 770 89 300 000/00 RMK AO2
14837KMSN MSN20020926054009109/26/02 05:40:31  5-MIN KMSN 261140Z 00000KT 9SM CLR 09/08 A3002 780 93 300 000/00 RMK AO2
14837KMSN MSN20020926054509109/26/02 05:45:31  5-MIN KMSN 261145Z 00000KT 9SM CLR 09/08 A3002 780 93 300 000/00 RMK AO2
14837KMSN MSN20020926055012609/26/02 05:50:31  5-MIN KMSN 261150Z 00000KT 8SM CLR 08/08 A3002 770 96 200 000/00 RMK AO2 SLP166 T00830078 10150 20083 58007
14837KMSN MSN20020926055509109/26/02 05:55:31  5-MIN KMSN 261155Z 00000KT 7SM CLR 08/08 A3002 780 96 200 000/00 RMK AO2
14837KMSN MSN20020926060009109/26/02 06:00:31  5-MIN KMSN 261200Z 00000KT 7SM CLR 09/08 A3001 780 93 300 000/00 RMK AO2
14837KMSN MSN20020926060509109/26/02 06:05:31  5-MIN KMSN 261205Z 00000KT 7SM CLR 09/08 A3001 780 93 300 000/00 RMK AO2
14837KMSN MSN20020926061009109/26/02 06:10:31  5-MIN KMSN 261210Z 00000KT 7SM CLR 09/08 A3001 780 93 300 000/00 RMK AO2
14837KMSN MSN20020926061509109/26/02 06:15:31  5-MIN KMSN 261215Z 00000KT 7SM CLR 09/08 A3001 780 93 300 000/00 RMK AO2
14837KMSN MSN20020926062009109/26/02 06:20:31  5-MIN KMSN 261220Z 00000KT 7SM CLR 09/08 A3001 780 93 300 000/00 RMK AO2
14837KMSN MSN20020926062509109/26/02 06:25:31  5-MIN KMSN 261225Z 00000KT 7SM CLR 09/08 A3001 780 89 300 000/00 RMK AO2
14837KMSN MSN20020926063009109/26/02 06:30:31  5-MIN KMSN 261230Z 00000KT 7SM CLR 09/07 A3001 790 86 300 000/00 RMK AO2
14837KMSN MSN20020926063509409/26/02 06:35:31  5-MIN KMSN 261235Z 00000KT 6SM BR CLR 10/08 A3000 790 86 400 000/00 RMK AO2
14837KMSN MSN20020926064009409/26/02 06:40:31  5-MIN KMSN 261240Z 00000KT 6SM BR CLR 10/08 A3000 790 86 400 000/00 RMK AO2
14837KMSN MSN20020926064509109/26/02 06:45:31  5-MIN KMSN 261245Z 00000KT 9SM CLR 10/08 A3000 790 89 400 000/00 RMK AO2
14837KMSN MSN20020926065010909/26/02 06:50:31  5-MIN KMSN 261250Z 00000KT 10SM CLR 11/09 A3000 790 89 500 000/00 RMK AO2 SLP158 T01060089
14837KMSN MSN20020926065509409/26/02 06:55:31  5-MIN KMSN 261255Z 00000KT 6SM BR CLR 11/09 A3000 790 86 600 000/00 RMK AO2
14837KMSN MSN20020926070009409/26/02 07:00:31  5-MIN KMSN 261300Z 00000KT 6SM HZ CLR 12/09 A3000 790 83 600 000/00 RMK AO2
14837KMSN MSN20020926070509209/26/02 07:05:31  5-MIN KMSN 261305Z 00000KT 10SM CLR 12/09 A3000 790 83 600 000/00 RMK AO2
14837KMSN MSN20020926071009209/26/02 07:10:31  5-MIN KMSN 261310Z 00000KT 10SM CLR 12/09 A3000 790 83 700 000/00 RMK AO2
14837KMSN MSN20020926071509209/26/02 07:15:31  5-MIN KMSN 261315Z 00000KT 10SM CLR 13/09 A3000 790 77 800 000/00 RMK AO2
14837KMSN MSN20020926072009209/26/02 07:20:31  5-MIN KMSN 261320Z 00000KT 10SM CLR 12/09 A3000 790 80 700 000/00 RMK AO2
14837KMSN MSN20020926072509209/26/02 07:25:31  5-MIN KMSN 261325Z 00000KT 10SM CLR 12/09 A3000 790 80 700 000/00 RMK AO2
14837KMSN MSN20020926073009209/26/02 07:30:31  5-MIN KMSN 261330Z 15003KT 10SM CLR 12/09 A3000 790 83 600 140/03 RMK AO2
14837KMSN MSN20020926073509209/26/02 07:35:31  5-MIN KMSN 261335Z 14004KT 10SM CLR 12/09 A3000 790 80 700 140/04 RMK AO2
14837KMSN MSN20020926074009209/26/02 07:40:31  5-MIN KMSN 261340Z 14003KT 10SM CLR 13/09 A3000 790 80 800 140/03 RMK AO2
14837KMSN MSN20020926074509209/26/02 07:45:31  5-MIN KMSN 261345Z 13003KT 10SM CLR 14/10 A2999 800 77 900 130/03 RMK AO2
14837KMSN MSN20020926075010909/26/02 07:50:31  5-MIN KMSN 261350Z 15004KT 10SM CLR 14/10 A2999 800 77 900 140/04 RMK AO2 SLP156 T01390100
14837KMSN MSN20020926075509409/26/02 07:55:31  5-MIN KMSN 261355Z 16005KT 6SM HZ CLR 14/10 A2999 800 77 900 160/05 RMK AO2
14837KMSN MSN20020926080009309/26/02 08:00:31  5-MIN KMSN 261400Z 17005KT 10SM CLR 14/09 A2999 800 72 1000 170/05 RMK AO2
14837KMSN MSN20020926080509309/26/02 08:05:31  5-MIN KMSN 261405Z 17005KT 10SM CLR 14/10 A2999 800 74 1000 170/05 RMK AO2
14837KMSN MSN20020926081009309/26/02 08:10:31  5-MIN KMSN 261410Z VRB04KT 10SM CLR 15/10 A2999 800 72 1000 VRB/04 RMK AO2
14837KMSN MSN20020926081509309/26/02 08:15:31  5-MIN KMSN 261415Z 16005KT 10SM CLR 15/10 A2999 800 72 1000 160/05 RMK AO2
14837KMSN MSN20020926082009309/26/02 08:20:31  5-MIN KMSN 261420Z 16004KT 10SM CLR 16/10 A2999 800 69 1100 160/04 RMK AO2
14837KMSN MSN20020926082509309/26/02 08:25:31  5-MIN KMSN 261425Z 16005KT 10SM CLR 16/10 A2999 800 69 1100 160/05 RMK AO2
14837KMSN MSN20020926083009309/26/02 08:30:31  5-MIN KMSN 261430Z 15004KT 10SM CLR 16/10 A2999 800 67 1200 150/04 RMK AO2
14837KMSN MSN20020926083509309/26/02 08:35:31  5-MIN KMSN 261435Z 17005KT 10SM CLR 16/10 A2999 800 67 1200 170/05 RMK AO2
14837KMSN MSN20020926084009309/26/02 08:40:31  5-MIN KMSN 261440Z 16006KT 10SM CLR 16/10 A2999 800 67 1200 160/06 RMK AO2
14837KMSN MSN20020926084509309/26/02 08:45:31  5-MIN KMSN 261445Z 16006KT 10SM CLR 17/10 A2999 800 64 1200 160/06 RMK AO2
14837KMSN MSN20020926085011609/26/02 08:50:31  5-MIN KMSN 261450Z 16006KT 10SM CLR 17/10 A2999 800 64 1200 150/06 RMK AO2 SLP153 T01670100 58006
14837KMSN MSN20020926085509309/26/02 08:55:31  5-MIN KMSN 261455Z 16006KT 10SM CLR 17/10 A2999 800 64 1200 160/06 RMK AO2
14837KMSN MSN20020926090009309/26/02 09:00:31  5-MIN KMSN 261500Z 15005KT 10SM CLR 17/11 A2999 800 64 1300 150/05 RMK AO2
14837KMSN MSN20020926090509309/26/02 09:05:31  5-MIN KMSN 261505Z 17007KT 10SM CLR 17/10 A2998 810 62 1300 170/07 RMK AO2
14837KMSN MSN20020926091009309/26/02 09:10:31  5-MIN KMSN 261510Z 17005KT 10SM CLR 17/09 A2998 810 60 1300 170/05 RMK AO2
14837KMSN MSN20020926091509309/26/02 09:15:31  5-MIN KMSN 261515Z 16006KT 10SM CLR 18/10 A2998 810 60 1400 160/06 RMK AO2
14837KMSN MSN20020926092009309/26/02 09:20:31  5-MIN KMSN 261520Z 16006KT 10SM CLR 18/10 A2998 810 58 1400 160/06 RMK AO2
14837KMSN MSN20020926092509309/26/02 09:25:31  5-MIN KMSN 261525Z 17005KT 10SM CLR 18/10 A2998 810 58 1400 170/05 RMK AO2
14837KMSN MSN20020926093009309/26/02 09:30:31  5-MIN KMSN 261530Z 20003KT 10SM CLR 19/09 A2998 810 54 1500 200/03 RMK AO2
14837KMSN MSN20020926093509309/26/02 09:35:31  5-MIN KMSN 261535Z 18004KT 10SM CLR 19/10 A2998 810 56 1500 180/04 RMK AO2
14837KMSN MSN20020926094009309/26/02 09:40:31  5-MIN KMSN 261540Z 17004KT 10SM CLR 19/10 A2998 810 56 1500 170/04 RMK AO2
14837KMSN MSN20020926094509309/26/02 09:45:31  5-MIN KMSN 261545Z 14004KT 10SM CLR 19/10 A2998 810 54 1600 140/04 RMK AO2
14837KMSN MSN20020926095011009/26/02 09:50:31  5-MIN KMSN 261550Z 18004KT 10SM CLR 19/10 A2998 810 54 1600 180/04 RMK AO2 SLP150 T01940100
14837KMSN MSN20020926095509309/26/02 09:55:31  5-MIN KMSN 261555Z VRB05KT 10SM CLR 20/10 A2998 810 52 1600 VRB/05 RMK AO2
14837KMSN MSN20020926100009309/26/02 10:00:31  5-MIN KMSN 261600Z 18004KT 10SM CLR 20/09 A2998 810 50 1600 180/04 RMK AO2
14837KMSN MSN20020926100509309/26/02 10:05:31  5-MIN KMSN 261605Z VRB03KT 10SM CLR 20/09 A2998 810 48 1600 VRB/03 RMK AO2
14837KMSN MSN20020926101009309/26/02 10:10:31  5-MIN KMSN 261610Z VRB04KT 10SM CLR 21/09 A2998 810 48 1700 VRB/04 RMK AO2
14837KMSN MSN20020926101509309/26/02 10:15:31  5-MIN KMSN 261615Z VRB03KT 10SM CLR 21/09 A2998 810 46 1700 VRB/03 RMK AO2
14837KMSN MSN20020926102009309/26/02 10:20:31  5-MIN KMSN 261620Z VRB03KT 10SM CLR 21/09 A2998 810 46 1700 VRB/03 RMK AO2
14837KMSN MSN20020926102509309/26/02 10:25:31  5-MIN KMSN 261625Z 21005KT 10SM CLR 21/08 A2998 810 45 1700 210/05 RMK AO2
14837KMSN MSN20020926103009309/26/02 10:30:31  5-MIN KMSN 261630Z 24004KT 10SM CLR 21/08 A2998 810 45 1700 240/04 RMK AO2
14837KMSN MSN20020926103509309/26/02 10:35:31  5-MIN KMSN 261635Z 22004KT 10SM CLR 21/08 A2998 810 43 1700 220/04 RMK AO2
14837KMSN MSN20020926104009309/26/02 10:40:31  5-MIN KMSN 261640Z 00000KT 10SM CLR 21/08 A2998 810 43 1800 000/00 RMK AO2
14837KMSN MSN20020926104509309/26/02 10:45:31  5-MIN KMSN 261645Z VRB05KT 10SM CLR 22/08 A2997 810 40 1800 VRB/05 RMK AO2
14837KMSN MSN20020926105011009/26/02 10:50:31  5-MIN KMSN 261650Z VRB04KT 10SM CLR 21/07 A2997 820 40 1800 VRB/04 RMK AO2 SLP147 T02110072
14837KMSN MSN20020926105509309/26/02 10:55:31  5-MIN KMSN 261655Z 21004KT 10SM CLR 21/07 A2997 820 38 1800 210/04 RMK AO2
14837KMSN MSN20020926110009309/26/02 11:00:31  5-MIN KMSN 261700Z 21005KT 10SM CLR 22/07 A2996 820 37 1800 210/05 RMK AO2
14837KMSN MSN20020926110509309/26/02 11:05:31  5-MIN KMSN 261705Z VRB03KT 10SM CLR 22/07 A2996 820 39 1800 VRB/03 RMK AO2
14837KMSN MSN20020926111009309/26/02 11:10:31  5-MIN KMSN 261710Z VRB04KT 10SM CLR 22/08 A2996 820 39 1900 VRB/04 RMK AO2
14837KMSN MSN20020926111509309/26/02 11:15:31  5-MIN KMSN 261715Z VRB04KT 10SM CLR 22/08 A2996 830 39 1900 VRB/04 RMK AO2
14837KMSN MSN20020926112009309/26/02 11:20:31  5-MIN KMSN 261720Z VRB04KT 10SM CLR 22/08 A2996 830 40 1900 VRB/04 RMK AO2
14837KMSN MSN20020926112509609/26/02 11:25:31  5-MIN KMSN 261725Z 00000KT 10SM SCT100 22/08 A2996 830 39 1900 000/00 RMK AO2
14837KMSN MSN20020926113009609/26/02 11:30:31  5-MIN KMSN 261730Z 17005KT 10SM SCT100 22/07 A2995 830 37 1900 170/05 RMK AO2
14837KMSN MSN20020926113509609/26/02 11:35:31  5-MIN KMSN 261735Z 15005KT 10SM SCT100 22/07 A2995 840 37 1900 150/05 RMK AO2
14837KMSN MSN20020926114009609/26/02 11:40:31  5-MIN KMSN 261740Z 19004KT 10SM SCT100 22/07 A2995 840 36 1900 190/04 RMK AO2
14837KMSN MSN20020926114509609/26/02 11:45:31  5-MIN KMSN 261745Z VRB03KT 10SM SCT100 22/07 A2994 840 36 1900 VRB/03 RMK AO2
14837KMSN MSN20020926115013109/26/02 11:50:31  5-MIN KMSN 261750Z VRB03KT 10SM SCT100 23/07 A2994 840 35 2000 VRB/03 RMK AO2 SLP138 T02280067 10228 20083 56009
14837KMSN MSN20020926115509309/26/02 11:55:31  5-MIN KMSN 261755Z VRB03KT 10SM CLR 22/06 A2994 840 35 1900 VRB/03 RMK AO2
14837KMSN MSN20020926120009309/26/02 12:00:31  5-MIN KMSN 261800Z 00000KT 10SM CLR 23/06 A2994 840 33 2000 000/00 RMK AO2
14837KMSN MSN20020926120509309/26/02 12:05:31  5-MIN KMSN 261805Z VRB03KT 10SM CLR 23/06 A2994 850 31 2000 VRB/03 RMK AO2
14837KMSN MSN20020926121009309/26/02 12:10:31  5-MIN KMSN 261810Z VRB05KT 10SM CLR 23/06 A2993 850 32 2100 VRB/05 RMK AO2
14837KMSN MSN20020926121509309/26/02 12:15:31  5-MIN KMSN 261815Z 21004KT 10SM CLR 23/06 A2993 860 32 2000 210/04 RMK AO2
14837KMSN MSN20020926122009309/26/02 12:20:31  5-MIN KMSN 261820Z 20004KT 10SM CLR 23/07 A2993 860 35 2000 200/04 RMK AO2
14837KMSN MSN20020926122509309/26/02 12:25:31  5-MIN KMSN 261825Z VRB03KT 10SM CLR 23/06 A2993 860 32 2000 VRB/03 RMK AO2
14837KMSN MSN20020926123009309/26/02 12:30:31  5-MIN KMSN 261830Z VRB04KT 10SM CLR 23/05 A2992 860 30 2100 VRB/04 RMK AO2
14837KMSN MSN20020926123509309/26/02 12:35:31  5-MIN KMSN 261835Z 24003KT 10SM CLR 23/05 A2992 860 30 2100 230/03 RMK AO2
14837KMSN MSN20020926124009309/26/02 12:40:31  5-MIN KMSN 261840Z 00000KT 10SM CLR 23/05 A2992 860 31 2000 000/00 RMK AO2
14837KMSN MSN20020926124509309/26/02 12:45:31  5-MIN KMSN 261845Z 24004KT 10SM CLR 23/06 A2992 870 31 2100 230/04 RMK AO2
14837KMSN MSN20020926125011009/26/02 12:50:31  5-MIN KMSN 261850Z 27004KT 10SM CLR 23/04 A2991 870 29 2100 270/04 RMK AO2 SLP127 T02330044
14837KMSN MSN20020926125509309/26/02 12:55:31  5-MIN KMSN 261855Z 24003KT 10SM CLR 23/04 A2991 880 28 2100 240/03 RMK AO2
14837KMSN MSN20020926130009309/26/02 13:00:31  5-MIN KMSN 261900Z VRB04KT 10SM CLR 24/05 A2991 880 29 2100 VRB/04 RMK AO2
14837KMSN MSN20020926130509309/26/02 13:05:31  5-MIN KMSN 261905Z VRB04KT 10SM CLR 23/05 A2990 880 30 2100 VRB/04 RMK AO2
14837KMSN MSN20020926131009309/26/02 13:10:31  5-MIN KMSN 261910Z 13003KT 10SM CLR 23/06 A2990 880 32 2100 130/03 RMK AO2
14837KMSN MSN20020926131509309/26/02 13:15:31  5-MIN KMSN 261915Z 00000KT 10SM CLR 24/06 A2990 880 31 2200 000/00 RMK AO2
14837KMSN MSN20020926132009309/26/02 13:20:31  5-MIN KMSN 261920Z 11004KT 10SM CLR 24/06 A2990 890 31 2200 110/04 RMK AO2
14837KMSN MSN20020926132509309/26/02 13:25:31  5-MIN KMSN 261925Z 08004KT 10SM CLR 24/06 A2989 890 30 2200 080/04 RMK AO2
14837KMSN MSN20020926133009309/26/02 13:30:31  5-MIN KMSN 261930Z 03004KT 10SM CLR 24/06 A2989 890 31 2200 030/04 RMK AO2
14837KMSN MSN20020926133509309/26/02 13:35:31  5-MIN KMSN 261935Z 00000KT 10SM CLR 24/05 A2989 900 29 2200 000/00 RMK AO2
14837KMSN MSN20020926134009309/26/02 13:40:31  5-MIN KMSN 261940Z 00000KT 10SM CLR 24/06 A2989 890 31 2200 000/00 RMK AO2
14837KMSN MSN20020926134509309/26/02 13:45:31  5-MIN KMSN 261945Z 08003KT 10SM CLR 24/06 A2989 900 31 2200 080/03 RMK AO2
14837KMSN MSN20020926135011009/26/02 13:50:31  5-MIN KMSN 261950Z VRB03KT 10SM CLR 24/06 A2989 900 31 2200 VRB/03 RMK AO2 SLP118 T02390061
14837KMSN MSN20020926135509309/26/02 13:55:31  5-MIN KMSN 261955Z VRB03KT 10SM CLR 24/06 A2988 900 31 2200 VRB/03 RMK AO2
14837KMSN MSN20020926140009309/26/02 14:00:31  5-MIN KMSN 262000Z VRB03KT 10SM CLR 24/06 A2988 900 31 2200 VRB/03 RMK AO2
14837KMSN MSN20020926140509309/26/02 14:05:31  5-MIN KMSN 262005Z 04004KT 10SM CLR 24/06 A2988 910 30 2200 040/04 RMK AO2
14837KMSN MSN20020926141009309/26/02 14:10:31  5-MIN KMSN 262010Z 00000KT 10SM CLR 24/05 A2987 910 29 2200 000/00 RMK AO2
14837KMSN MSN20020926141509309/26/02 14:15:31  5-MIN KMSN 262015Z VRB03KT 10SM CLR 24/06 A2987 910 30 2200 VRB/03 RMK AO2
14837KMSN MSN20020926142009309/26/02 14:20:31  5-MIN KMSN 262020Z 35004KT 10SM CLR 24/06 A2987 910 30 2200 350/04 RMK AO2
14837KMSN MSN20020926142509309/26/02 14:25:31  5-MIN KMSN 262025Z VRB03KT 10SM CLR 24/07 A2987 910 31 2200 VRB/03 RMK AO2
14837KMSN MSN20020926143009309/26/02 14:30:31  5-MIN KMSN 262030Z 30004KT 10SM CLR 24/07 A2987 910 32 2200 300/04 RMK AO2
14837KMSN MSN20020926143509309/26/02 14:35:31  5-MIN KMSN 262035Z 27003KT 10SM CLR 24/06 A2987 910 31 2200 260/03 RMK AO2
14837KMSN MSN20020926144009309/26/02 14:40:31  5-MIN KMSN 262040Z 00000KT 10SM CLR 24/06 A2987 910 31 2200 000/00 RMK AO2
14837KMSN MSN20020926144509309/26/02 14:45:31  5-MIN KMSN 262045Z 00000KT 10SM CLR 24/06 A2987 910 29 2300 000/00 RMK AO2
14837KMSN MSN20020926145011609/26/02 14:50:31  5-MIN KMSN 262050Z 01004KT 10SM CLR 24/06 A2987 910 29 2300 010/04 RMK AO2 SLP111 T02440056 58014
14837KMSN MSN20020926145509309/26/02 14:55:31  5-MIN KMSN 262055Z 00000KT 10SM CLR 24/06 A2986 920 30 2200 000/00 RMK AO2
14837KMSN MSN20020926150009309/26/02 15:00:31  5-MIN KMSN 262100Z 00000KT 10SM CLR 24/06 A2986 920 30 2300 000/00 RMK AO2
14837KMSN MSN20020926150509309/26/02 15:05:31  5-MIN KMSN 262105Z 00000KT 10SM CLR 24/05 A2986 920 29 2200 000/00 RMK AO2
14837KMSN MSN20020926151009309/26/02 15:10:31  5-MIN KMSN 262110Z 05003KT 10SM CLR 24/06 A2985 930 30 2300 050/03 RMK AO2
14837KMSN MSN20020926151509309/26/02 15:15:31  5-MIN KMSN 262115Z 07003KT 10SM CLR 24/05 A2985 930 29 2200 070/03 RMK AO2
14837KMSN MSN20020926152009309/26/02 15:20:31  5-MIN KMSN 262120Z 00000KT 10SM CLR 24/06 A2985 930 30 2200 000/00 RMK AO2
14837KMSN MSN20020926152509309/26/02 15:25:31  5-MIN KMSN 262125Z 00000KT 10SM CLR 24/06 A2985 930 29 2300 000/00 RMK AO2
14837KMSN MSN20020926153009309/26/02 15:30:31  5-MIN KMSN 262130Z 00000KT 10SM CLR 24/04 A2985 930 27 2300 000/00 RMK AO2
14837KMSN MSN20020926153509309/26/02 15:35:31  5-MIN KMSN 262135Z 00000KT 10SM CLR 24/06 A2984 940 30 2300 000/00 RMK AO2
14837KMSN MSN20020926154009309/26/02 15:40:31  5-MIN KMSN 262140Z 00000KT 10SM CLR 24/06 A2984 940 29 2300 000/00 RMK AO2
14837KMSN MSN20020926154509309/26/02 15:45:31  5-MIN KMSN 262145Z 03003KT 10SM CLR 24/06 A2984 940 30 2300 030/03 RMK AO2
14837KMSN MSN20020926155011009/26/02 15:50:31  5-MIN KMSN 262150Z 00000KT 10SM CLR 24/07 A2984 940 32 2200 000/00 RMK AO2 SLP104 T02390067
14837KMSN MSN20020926155509309/26/02 15:55:31  5-MIN KMSN 262155Z 05005KT 10SM CLR 24/08 A2984 940 35 2200 050/05 RMK AO2
14837KMSN MSN20020926160009309/26/02 16:00:31  5-MIN KMSN 262200Z 06004KT 10SM CLR 23/08 A2984 940 36 2200 060/04 RMK AO2
14837KMSN MSN20020926160509309/26/02 16:05:31  5-MIN KMSN 262205Z 08003KT 10SM CLR 23/07 A2984 940 33 2200 080/03 RMK AO2
14837KMSN MSN20020926161009309/26/02 16:10:31  5-MIN KMSN 262210Z 07005KT 10SM CLR 24/07 A2984 930 34 2200 070/05 RMK AO2
14837KMSN MSN20020926161509309/26/02 16:15:31  5-MIN KMSN 262215Z 04005KT 10SM CLR 23/08 A2985 930 36 2200 040/05 RMK AO2
14837KMSN MSN20020926162009309/26/02 16:20:31  5-MIN KMSN 262220Z 04005KT 10SM CLR 23/08 A2985 930 39 2100 040/05 RMK AO2
14837KMSN MSN20020926162509309/26/02 16:25:31  5-MIN KMSN 262225Z 06004KT 10SM CLR 23/09 A2985 930 40 2100 060/04 RMK AO2
14837KMSN MSN20020926163009309/26/02 16:30:31  5-MIN KMSN 262230Z 07004KT 10SM CLR 23/09 A2985 930 42 2100 070/04 RMK AO2
14837KMSN MSN20020926163509309/26/02 16:35:31  5-MIN KMSN 262235Z 07004KT 10SM CLR 23/09 A2985 930 42 2100 070/04 RMK AO2
14837KMSN MSN20020926164009309/26/02 16:40:31  5-MIN KMSN 262240Z 08006KT 10SM CLR 22/09 A2985 930 43 2000 080/06 RMK AO2
14837KMSN MSN20020926164509309/26/02 16:45:31  5-MIN KMSN 262245Z 08006KT 10SM CLR 22/08 A2985 930 40 2000 080/06 RMK AO2
14837KMSN MSN20020926165011009/26/02 16:50:31  5-MIN KMSN 262250Z 08006KT 10SM CLR 22/09 A2985 930 45 2000 080/06 RMK AO2 SLP108 T02170094
14837KMSN MSN20020926165509309/26/02 16:55:31  5-MIN KMSN 262255Z 07005KT 10SM CLR 21/09 A2985 930 47 1900 070/05 RMK AO2
14837KMSN MSN20020926170009309/26/02 17:00:31  5-MIN KMSN 262300Z 07005KT 10SM CLR 21/09 A2985 930 48 1800 070/05 RMK AO2
14837KMSN MSN20020926170509309/26/02 17:05:31  5-MIN KMSN 262305Z 05005KT 10SM CLR 21/09 A2985 930 48 1800 050/05 RMK AO2
14837KMSN MSN20020926171009309/26/02 17:10:31  5-MIN KMSN 262310Z 05004KT 10SM CLR 19/11 A2985 930 56 1700 040/04 RMK AO2
14837KMSN MSN20020926171509309/26/02 17:15:31  5-MIN KMSN 262315Z 01005KT 10SM CLR 19/10 A2985 930 54 1700 010/05 RMK AO2
14837KMSN MSN20020926172009309/26/02 17:20:31  5-MIN KMSN 262320Z 04011KT 10SM CLR 19/11 A2985 930 58 1600 040/11 RMK AO2
14837KMSN MSN20020926172509309/26/02 17:25:31  5-MIN KMSN 262325Z 04008KT 10SM CLR 19/12 A2986 920 60 1700 030/08 RMK AO2
14837KMSN MSN20020926173009309/26/02 17:30:31  5-MIN KMSN 262330Z 04009KT 10SM CLR 19/12 A2985 920 62 1600 040/09 RMK AO2
14837KMSN MSN20020926173509309/26/02 17:35:31  5-MIN KMSN 262335Z 05010KT 10SM CLR 18/12 A2985 930 67 1600 050/10 RMK AO2
14837KMSN MSN20020926174009309/26/02 17:40:31  5-MIN KMSN 262340Z 04009KT 10SM CLR 18/12 A2985 930 69 1500 040/09 RMK AO2
14837KMSN MSN20020926174509309/26/02 17:45:31  5-MIN KMSN 262345Z 04007KT 10SM CLR 17/12 A2985 930 72 1400 040/07 RMK AO2
14837KMSN MSN20020926175012809/26/02 17:50:31  5-MIN KMSN 262350Z 05007KT 10SM CLR 17/12 A2985 930 72 1400 050/07 RMK AO2 SLP110 T01720122 10244 20172 56026
14837KMSN MSN20020926175509309/26/02 17:55:31  5-MIN KMSN 262355Z 04008KT 10SM CLR 17/12 A2985 930 75 1400 040/08 RMK AO2
14837KMSN MSN20020926180009309/26/02 18:00:31  5-MIN KMSN 270000Z 04008KT 10SM CLR 17/12 A2985 930 75 1400 030/08 RMK AO2
14837KMSN MSN20020926180509309/26/02 18:05:31  5-MIN KMSN 270005Z 04008KT 10SM CLR 17/12 A2985 930 75 1400 030/08 RMK AO2
14837KMSN MSN20020926181009309/26/02 18:10:31  5-MIN KMSN 270010Z 03008KT 10SM CLR 16/12 A2985 930 77 1300 030/08 RMK AO2
14837KMSN MSN20020926181509209/26/02 18:15:31  5-MIN KMSN 270015Z 04009KT 9SM CLR 16/12 A2985 930 77 1300 040/09 RMK AO2
14837KMSN MSN20020926182009209/26/02 18:20:31  5-MIN KMSN 270020Z 03006KT 9SM CLR 16/12 A2985 930 77 1300 030/06 RMK AO2
14837KMSN MSN20020926182509209/26/02 18:25:31  5-MIN KMSN 270025Z 01008KT 9SM CLR 16/12 A2985 930 80 1300 010/08 RMK AO2
14837KMSN MSN20020926183009209/26/02 18:30:31  5-MIN KMSN 270030Z 35006KT 8SM CLR 16/12 A2986 920 80 1200 350/06 RMK AO2
14837KMSN MSN20020926183509209/26/02 18:35:31  5-MIN KMSN 270035Z 34005KT 8SM CLR 16/12 A2986 920 80 1200 340/05 RMK AO2
14837KMSN MSN20020926184009209/26/02 18:40:31  5-MIN KMSN 270040Z 35006KT 8SM CLR 16/12 A2986 920 80 1200 350/06 RMK AO2
14837KMSN MSN20020926184509209/26/02 18:45:31  5-MIN KMSN 270045Z 36007KT 8SM CLR 15/12 A2986 920 83 1200 360/07 RMK AO2
14837KMSN MSN20020926185010909/26/02 18:50:31  5-MIN KMSN 270050Z 01008KT 7SM CLR 15/12 A2986 920 83 1200 010/08 RMK AO2 SLP113 T01500122
14837KMSN MSN20020926185509209/26/02 18:55:31  5-MIN KMSN 270055Z 02009KT 7SM CLR 15/12 A2986 920 83 1200 020/09 RMK AO2
14837KMSN MSN20020926190009209/26/02 19:00:31  5-MIN KMSN 270100Z 02010KT 7SM CLR 15/12 A2986 920 83 1200 020/10 RMK AO2
14837KMSN MSN20020926190509209/26/02 19:05:31  5-MIN KMSN 270105Z 02011KT 7SM CLR 15/12 A2986 920 83 1200 020/11 RMK AO2
14837KMSN MSN20020926191009509/26/02 19:10:31  5-MIN KMSN 270110Z 02010KT 6SM HZ CLR 15/12 A2986 920 83 1200 020/10 RMK AO2
14837KMSN MSN20020926191509509/26/02 19:15:31  5-MIN KMSN 270115Z 02010KT 6SM HZ CLR 15/12 A2986 920 83 1200 010/10 RMK AO2
14837KMSN MSN20020926192009509/26/02 19:20:31  5-MIN KMSN 270120Z 02010KT 6SM BR CLR 14/12 A2986 920 86 1100 020/10 RMK AO2
14837KMSN MSN20020926192509509/26/02 19:25:31  5-MIN KMSN 270125Z 01010KT 6SM BR CLR 14/12 A2986 920 86 1100 010/10 RMK AO2
14837KMSN MSN20020926193009509/26/02 19:30:31  5-MIN KMSN 270130Z 02010KT 6SM BR CLR 14/12 A2986 920 86 1100 020/10 RMK AO2
14837KMSN MSN20020926193509509/26/02 19:35:31  5-MIN KMSN 270135Z 02010KT 5SM BR CLR 14/12 A2986 920 90 1000 020/10 RMK AO2
14837KMSN MSN20020926194009509/26/02 19:40:31  5-MIN KMSN 270140Z 03009KT 5SM BR CLR 14/12 A2987 910 90 1000 030/09 RMK AO2
14837KMSN MSN20020926194509509/26/02 19:45:31  5-MIN KMSN 270145Z 02011KT 5SM BR CLR 14/12 A2987 910 86 1000 020/11 RMK AO2
14837KMSN MSN20020926195011209/26/02 19:50:31  5-MIN KMSN 270150Z 02011KT 6SM BR CLR 13/12 A2987 910 89 1000 020/11 RMK AO2 SLP115 T01330117
14837KMSN MSN20020926195509509/26/02 19:55:31  5-MIN KMSN 270155Z 01007KT 5SM BR CLR 13/12 A2987 910 89 1000 010/07 RMK AO2
14837KMSN MSN20020926200009409/26/02 20:00:31  5-MIN KMSN 270200Z 01012KT 4SM BR CLR 13/12 A2987 910 93 900 360/12 RMK AO2
14837KMSN MSN20020926200509409/26/02 20:05:31  5-MIN KMSN 270205Z 36008KT 4SM BR CLR 13/12 A2988 900 93 900 360/08 RMK AO2
14837KMSN MSN20020926201009409/26/02 20:10:31  5-MIN KMSN 270210Z 35007KT 4SM BR CLR 13/11 A2988 900 89 900 350/07 RMK AO2
14837KMSN MSN20020926201509409/26/02 20:15:31  5-MIN KMSN 270215Z 01007KT 4SM BR CLR 12/11 A2988 900 93 800 360/07 RMK AO2
14837KMSN MSN20020926202009409/26/02 20:20:31  5-MIN KMSN 270220Z 02009KT 4SM BR CLR 12/11 A2988 900 93 800 010/09 RMK AO2
14837KMSN MSN20020926202509709/26/02 20:25:31  5-MIN KMSN 270225Z 02008KT 4SM BR FEW008 12/11 A2988 900 93 800 010/08 RMK AO2
14837KMSN MSN20020926203009709/26/02 20:30:31  5-MIN KMSN 270230Z 02009KT 5SM BR FEW008 12/11 A2988 900 93 800 020/09 RMK AO2
14837KMSN MSN20020926203509709/26/02 20:35:31  5-MIN KMSN 270235Z 02010KT 5SM BR FEW008 12/11 A2988 900 93 800 020/10 RMK AO2
14837KMSN MSN20020926204009709/26/02 20:40:31  5-MIN KMSN 270240Z 02011KT 5SM BR FEW008 12/11 A2988 900 93 800 020/11 RMK AO2
14837KMSN MSN20020926204509709/26/02 20:45:31  5-MIN KMSN 270245Z 02011KT 5SM BR SCT008 12/11 A2988 900 93 800 020/11 RMK AO2
14837KMSN MSN20020926205012009/26/02 20:50:31  5-MIN KMSN 270250Z 02009KT 5SM BR BKN006 12/11 A2988 900 93 800 020/09 RMK AO2 SLP118 T01220111 55005
14837KMSN MSN20020926205509709/26/02 20:55:31  5-MIN KMSN 270255Z 02009KT 4SM BR BKN006 12/11 A2988 900 93 800 020/09 RMK AO2
14837KMSN MSN20020926210009709/26/02 21:00:31  5-MIN KMSN 270300Z 02010KT 4SM BR BKN006 12/11 A2988 900 93 800 020/10 RMK AO2
14837KMSN MSN20020926210509709/26/02 21:05:31  5-MIN KMSN 270305Z 03010KT 4SM BR BKN006 12/11 A2988 900 93 800 020/10 RMK AO2
14837KMSN MSN20020926211009709/26/02 21:10:31  5-MIN KMSN 270310Z 03008KT 4SM BR BKN006 12/11 A2988 900 93 800 030/08 RMK AO2
14837KMSN MSN20020926211509709/26/02 21:15:31  5-MIN KMSN 270315Z 03008KT 4SM BR BKN006 12/11 A2988 900 93 800 030/08 RMK AO2
14837KMSN MSN20020926212009709/26/02 21:20:31  5-MIN KMSN 270320Z 03007KT 4SM BR BKN006 12/11 A2988 910 93 800 030/07 RMK AO2
14837KMSN MSN20020926212509709/26/02 21:25:31  5-MIN KMSN 270325Z 03007KT 4SM BR OVC006 12/11 A2987 910 93 800 030/07 RMK AO2
14837KMSN MSN20020926213009709/26/02 21:30:31  5-MIN KMSN 270330Z 04007KT 4SM BR BKN006 12/11 A2987 910 93 800 030/07 RMK AO2
14837KMSN MSN20020926213509709/26/02 21:35:31  5-MIN KMSN 270335Z 04005KT 3SM BR BKN006 12/11 A2987 910 96 800 040/05 RMK AO2
14837KMSN MSN20020926214009709/26/02 21:40:31  5-MIN KMSN 270340Z 04006KT 3SM BR BKN006 12/11 A2987 910 96 800 040/06 RMK AO2
14837KMSN MSN20020926214509709/26/02 21:45:31  5-MIN KMSN 270345Z 04006KT 3SM BR BKN006 12/11 A2987 910 93 800 040/06 RMK AO2
14837KMSN MSN20020926215011409/26/02 21:50:31  5-MIN KMSN 270350Z 03008KT 3SM BR BKN006 12/11 A2987 910 96 800 030/08 RMK AO2 SLP114 T01170111
14837KMSN MSN20020926215509709/26/02 21:55:31  5-MIN KMSN 270355Z 03007KT 3SM BR BKN006 12/11 A2987 920 93 800 030/07 RMK AO2
14837KMSN MSN20020926220009709/26/02 22:00:31  5-MIN KMSN 270400Z 04009KT 3SM BR BKN006 12/11 A2986 920 93 800 040/09 RMK AO2
14837KMSN MSN20020926220509709/26/02 22:05:31  5-MIN KMSN 270405Z 05008KT 3SM BR OVC006 12/11 A2986 920 93 800 050/08 RMK AO2
14837KMSN MSN20020926221009709/26/02 22:10:31  5-MIN KMSN 270410Z 06008KT 3SM BR OVC006 12/11 A2986 920 93 800 060/08 RMK AO2
14837KMSN MSN20020926221509709/26/02 22:15:31  5-MIN KMSN 270415Z 05008KT 3SM BR OVC006 12/11 A2986 920 93 800 050/08 RMK AO2
14837KMSN MSN20020926222009709/26/02 22:20:31  5-MIN KMSN 270420Z 05008KT 3SM BR OVC006 12/11 A2986 920 93 800 050/08 RMK AO2
14837KMSN MSN20020926222509709/26/02 22:25:31  5-MIN KMSN 270425Z 05007KT 3SM BR OVC006 12/11 A2986 920 93 800 050/07 RMK AO2
14837KMSN MSN20020926223009709/26/02 22:30:31  5-MIN KMSN 270430Z 04007KT 3SM BR OVC006 12/11 A2986 920 93 900 040/07 RMK AO2
14837KMSN MSN20020926223509709/26/02 22:35:31  5-MIN KMSN 270435Z 04007KT 3SM BR OVC006 12/11 A2986 920 93 900 040/07 RMK AO2
14837KMSN MSN20020926224009709/26/02 22:40:31  5-MIN KMSN 270440Z 04007KT 3SM BR OVC006 12/11 A2986 920 93 900 040/07 RMK AO2
14837KMSN MSN20020926224509709/26/02 22:45:31  5-MIN KMSN 270445Z 03008KT 3SM BR OVC006 12/11 A2986 920 93 900 030/08 RMK AO2
14837KMSN MSN20020926225011409/26/02 22:50:31  5-MIN KMSN 270450Z 02008KT 3SM BR OVC006 12/11 A2986 920 93 800 020/08 RMK AO2 SLP110 T01220111
14837KMSN MSN20020926225509709/26/02 22:55:31  5-MIN KMSN 270455Z 02008KT 3SM BR OVC006 12/11 A2986 920 93 800 020/08 RMK AO2
14837KMSN MSN20020926230009709/26/02 23:00:31  5-MIN KMSN 270500Z 03009KT 3SM BR OVC006 12/11 A2986 920 93 800 030/09 RMK AO2
14837KMSN MSN20020926230509709/26/02 23:05:31  5-MIN KMSN 270505Z 05009KT 3SM BR OVC006 12/11 A2986 920 93 800 050/09 RMK AO2
14837KMSN MSN20020926231009709/26/02 23:10:31  5-MIN KMSN 270510Z 04008KT 3SM BR OVC006 12/11 A2986 920 93 800 040/08 RMK AO2
14837KMSN MSN20020926231509709/26/02 23:15:31  5-MIN KMSN 270515Z 04007KT 3SM BR OVC006 12/11 A2986 920 93 900 040/07 RMK AO2
14837KMSN MSN20020926232009709/26/02 23:20:31  5-MIN KMSN 270520Z 05010KT 3SM BR OVC006 12/11 A2985 930 93 900 050/10 RMK AO2
14837KMSN MSN20020926232509709/26/02 23:25:31  5-MIN KMSN 270525Z 05007KT 3SM BR OVC006 12/11 A2985 930 93 900 050/07 RMK AO2
14837KMSN MSN20020926233009709/26/02 23:30:31  5-MIN KMSN 270530Z 04008KT 3SM BR OVC006 12/11 A2985 930 93 900 040/08 RMK AO2
14837KMSN MSN20020926233509709/26/02 23:35:31  5-MIN KMSN 270535Z 05006KT 3SM BR OVC006 12/11 A2985 930 93 900 050/06 RMK AO2
14837KMSN MSN20020926234009709/26/02 23:40:31  5-MIN KMSN 270540Z 03009KT 3SM BR OVC006 12/11 A2985 930 93 900 030/09 RMK AO2
14837KMSN MSN20020926234509709/26/02 23:45:31  5-MIN KMSN 270545Z 03007KT 3SM BR OVC006 12/11 A2985 930 93 900 030/07 RMK AO2
14837KMSN MSN20020926235014209/26/02 23:50:31  5-MIN KMSN 270550Z 02007KT 3SM BR OVC006 12/11 A2985 930 93 900 020/07 RMK AO2 SLP105 T01220111 10172 20117 402440083 53009
14837KMSN MSN20020926235509709/26/02 23:55:31  5-MIN KMSN 270555Z 02009KT 3SM BR OVC006 12/11 A2985 930 93 900 020/09 RMK AO2
14837KMSN MSN20020927000009709/27/02 00:00:31  5-MIN KMSN 270600Z 03009KT 3SM BR OVC006 12/11 A2985 930 89 900 020/09 RMK AO2
14837KMSN MSN20020927000509709/27/02 00:05:31  5-MIN KMSN 270605Z 01008KT 3SM BR OVC006 12/11 A2985 930 93 900 010/08 RMK AO2
14837KMSN MSN20020927001009709/27/02 00:10:31  5-MIN KMSN 270610Z 02007KT 3SM BR OVC006 12/11 A2985 930 93 900 010/07 RMK AO2
14837KMSN MSN20020927001509709/27/02 00:15:31  5-MIN KMSN 270615Z 03008KT 3SM BR OVC006 12/11 A2985 930 93 900 020/08 RMK AO2
14837KMSN MSN20020927002009709/27/02 00:20:31  5-MIN KMSN 270620Z 03009KT 3SM BR OVC006 12/11 A2984 940 89 900 030/09 RMK AO2
14837KMSN MSN20020927002509709/27/02 00:25:31  5-MIN KMSN 270625Z 04010KT 3SM BR OVC006 12/11 A2984 940 89 900 040/10 RMK AO2
14837KMSN MSN20020927003009709/27/02 00:30:31  5-MIN KMSN 270630Z 02009KT 3SM BR OVC006 12/11 A2984 940 89 900 020/09 RMK AO2
14837KMSN MSN20020927003509709/27/02 00:35:31  5-MIN KMSN 270635Z 03009KT 3SM BR OVC006 12/11 A2984 930 89 900 020/09 RMK AO2
14837KMSN MSN20020927004009709/27/02 00:40:31  5-MIN KMSN 270640Z 01009KT 3SM BR OVC006 12/11 A2985 930 93 900 010/09 RMK AO2
14837KMSN MSN20020927004509709/27/02 00:45:31  5-MIN KMSN 270645Z 03009KT 3SM BR OVC006 12/11 A2984 940 89 900 030/09 RMK AO2
14837KMSN MSN20020927005011409/27/02 00:50:31  5-MIN KMSN 270650Z 02010KT 3SM BR OVC006 12/11 A2984 940 89 900 020/10 RMK AO2 SLP103 T01220106
14837KMSN MSN20020927005509709/27/02 00:55:31  5-MIN KMSN 270655Z 02009KT 3SM BR OVC006 12/11 A2984 940 93 900 020/09 RMK AO2
14837KMSN MSN20020927010009709/27/02 01:00:31  5-MIN KMSN 270700Z 03009KT 3SM BR OVC006 12/11 A2984 940 93 900 030/09 RMK AO2
14837KMSN MSN20020927010509709/27/02 01:05:31  5-MIN KMSN 270705Z 04008KT 3SM BR OVC006 12/11 A2984 940 93 900 040/08 RMK AO2
14837KMSN MSN20020927011009709/27/02 01:10:31  5-MIN KMSN 270710Z 03008KT 3SM BR OVC006 12/11 A2984 940 93 900 030/08 RMK AO2
14837KMSN MSN20020927011509709/27/02 01:15:31  5-MIN KMSN 270715Z 03007KT 3SM BR OVC006 12/11 A2984 940 93 900 020/07 RMK AO2
14837KMSN MSN20020927012009709/27/02 01:20:31  5-MIN KMSN 270720Z 03007KT 3SM BR OVC006 12/11 A2984 940 93 900 030/07 RMK AO2
14837KMSN MSN20020927012509709/27/02 01:25:31  5-MIN KMSN 270725Z 04007KT 3SM BR OVC006 12/11 A2983 950 93 900 040/07 RMK AO2
14837KMSN MSN20020927013009709/27/02 01:30:31  5-MIN KMSN 270730Z 05007KT 3SM BR OVC006 12/11 A2982 950 93 900 050/07 RMK AO2
14837KMSN MSN20020927013509709/27/02 01:35:31  5-MIN KMSN 270735Z 05007KT 3SM BR OVC006 12/11 A2982 960 93 900 050/07 RMK AO2
14837KMSN MSN20020927014009709/27/02 01:40:31  5-MIN KMSN 270740Z 06007KT 4SM BR OVC006 12/11 A2982 950 93 900 060/07 RMK AO2
14837KMSN MSN20020927014510909/27/02 01:45:31  5-MIN KMSN 270745Z 05009KT 4SM BR OVC006 12/11 A2982 960 93 900 050/09 RMK AO2 CIG 006V011
14837KMSN MSN20020927015012609/27/02 01:50:31  5-MIN KMSN 270750Z 03006KT 4SM BR OVC008 12/11 A2982 960 93 900 030/06 RMK AO2 CIG 006V011 SLP095 T01220111
14837KMSN MSN20020927015511009/27/02 01:55:31  5-MIN KMSN 270755Z 04007KT 4SM BR OVC008 13/11 A2982 960 89 1000 030/07 RMK AO2 CIG 006V011
14837KMSN MSN20020927020009809/27/02 02:00:31  5-MIN KMSN 270800Z 02008KT 4SM BR OVC008 13/11 A2982 960 89 1000 020/08 RMK AO2
14837KMSN MSN20020927020511009/27/02 02:05:31  5-MIN KMSN 270805Z 02006KT 4SM BR OVC008 13/11 A2982 950 89 1000 020/06 RMK AO2 CIG 007V012
14837KMSN MSN20020927021010909/27/02 02:10:31  5-MIN KMSN 270810Z 03007KT 4SM BR OVC008 13/11 A2983 950 86 900 030/07 RMK AO2 CIG 008V012
14837KMSN MSN20020927021511009/27/02 02:15:31  5-MIN KMSN 270815Z 04006KT 5SM BR OVC008 13/11 A2983 950 86 1000 040/06 RMK AO2 CIG 008V012
14837KMSN MSN20020927022011009/27/02 02:20:31  5-MIN KMSN 270820Z 04008KT 5SM BR OVC008 13/11 A2982 960 86 1000 030/08 RMK AO2 CIG 008V013
14837KMSN MSN20020927022511009/27/02 02:25:31  5-MIN KMSN 270825Z 04008KT 5SM BR OVC008 13/11 A2982 960 86 1000 040/08 RMK AO2 CIG 008V013
14837KMSN MSN20020927023011009/27/02 02:30:31  5-MIN KMSN 270830Z 02007KT 4SM BR OVC008 13/11 A2982 960 86 1000 020/07 RMK AO2 CIG 008V013
14837KMSN MSN20020927023511009/27/02 02:35:31  5-MIN KMSN 270835Z 01006KT 4SM BR OVC008 13/11 A2983 950 89 1000 010/06 RMK AO2 CIG 008V013
14837KMSN MSN20020927024009809/27/02 02:40:31  5-MIN KMSN 270840Z 02009KT 4SM BR OVC008 13/11 A2982 950 89 1000 020/09 RMK AO2
14837KMSN MSN20020927024509809/27/02 02:45:31  5-MIN KMSN 270845Z 01007KT 4SM BR OVC008 13/11 A2982 950 89 1000 010/07 RMK AO2
14837KMSN MSN20020927025012109/27/02 02:50:31  5-MIN KMSN 270850Z 36007KT 4SM BR OVC008 13/11 A2983 950 89 1000 360/07 RMK AO2 SLP098 T01280111 56010
14837KMSN MSN20020927025509709/27/02 02:55:31  5-MIN KMSN 270855Z 35009KT 4SM BR OVC008 13/11 A2983 950 86 900 350/09 RMK AO2
14837KMSN MSN20020927030009709/27/02 03:00:31  5-MIN KMSN 270900Z 35009KT 4SM BR OVC008 12/11 A2983 950 89 900 350/09 RMK AO2
14837KMSN MSN20020927030510909/27/02 03:05:31  5-MIN KMSN 270905Z 36008KT 4SM BR OVC008 12/11 A2983 940 89 900 350/08 RMK AO2 CIG 007V011
14837KMSN MSN20020927031010909/27/02 03:10:31  5-MIN KMSN 270910Z 36010KT 4SM BR OVC008 12/11 A2983 950 89 900 360/10 RMK AO2 CIG 006V011
14837KMSN MSN20020927031510909/27/02 03:15:31  5-MIN KMSN 270915Z 36011KT 4SM BR OVC008 12/11 A2983 950 93 800 360/11 RMK AO2 CIG 005V011
14837KMSN MSN20020927032011609/27/02 03:20:31  5-MIN KMSN 270920Z 01011KT 3SM BR BKN006 OVC009 12/11 A2982 950 93 800 010/11 RMK AO2 CIG 005V008
14837KMSN MSN20020927032510909/27/02 03:25:31  5-MIN KMSN 270925Z 01012KT 3SM BR OVC006 12/11 A2982 960 93 800 010/12 RMK AO2 CIG 004V008
14837KMSN MSN20020927033010909/27/02 03:30:31  5-MIN KMSN 270930Z 36012KT 3SM BR OVC004 12/11 A2982 950 93 800 360/12 RMK AO2 CIG 003V007
14837KMSN MSN20020927033509709/27/02 03:35:31  5-MIN KMSN 270935Z 01012KT 3SM BR OVC004 11/11 A2982 960 96 800 010/12 RMK AO2
14837KMSN MSN20020927034010109/27/02 03:40:31  5-MIN KMSN 270940Z 01012KT 2 1/2SM BR OVC004 11/11 A2982 950 96 800 010/12 RMK AO2
14837KMSN MSN20020927034510109/27/02 03:45:31  5-MIN KMSN 270945Z 01012KT 2 1/2SM BR OVC004 11/11 A2982 950 96 800 010/12 RMK AO2
14837KMSN MSN20020927035011809/27/02 03:50:31  5-MIN KMSN 270950Z 01010KT 2 1/2SM BR OVC004 11/11 A2982 950 96 800 010/10 RMK AO2 SLP097 T01110106
14837KMSN MSN20020927035510109/27/02 03:55:31  5-MIN KMSN 270955Z 02014KT 2 1/2SM BR OVC004 11/11 A2983 950 96 800 010/14 RMK AO2
14837KMSN MSN20020927040010109/27/02 04:00:31  5-MIN KMSN 271000Z 36009KT 2 1/2SM BR OVC004 11/10 A2983 950 93 700 360/09 RMK AO2
14837KMSN MSN20020927040510109/27/02 04:05:31  5-MIN KMSN 271005Z 36011KT 2 1/2SM BR OVC004 11/10 A2983 940 93 700 360/11 RMK AO2
14837KMSN MSN20020927041010109/27/02 04:10:31  5-MIN KMSN 271010Z 36009KT 2 1/2SM BR OVC004 11/10 A2983 940 93 700 360/09 RMK AO2
14837KMSN MSN20020927041510109/27/02 04:15:31  5-MIN KMSN 271015Z 01010KT 2 1/2SM BR OVC004 11/10 A2983 950 96 700 360/10 RMK AO2
14837KMSN MSN20020927042010109/27/02 04:20:31  5-MIN KMSN 271020Z 01011KT 2 1/2SM BR OVC004 11/10 A2984 940 96 700 010/11 RMK AO2
14837KMSN MSN20020927042510109/27/02 04:25:31  5-MIN KMSN 271025Z 36007KT 2 1/2SM BR OVC004 11/10 A2984 940 96 700 360/07 RMK AO2
14837KMSN MSN20020927043009709/27/02 04:30:31  5-MIN KMSN 271030Z 36010KT 2SM BR OVC004 11/10 A2984 940 96 700 360/10 RMK AO2
14837KMSN MSN20020927043509709/27/02 04:35:31  5-MIN KMSN 271035Z 01010KT 2SM BR OVC004 11/10 A2984 940 96 700 010/10 RMK AO2
14837KMSN MSN20020927044009709/27/02 04:40:31  5-MIN KMSN 271040Z 36008KT 2SM BR OVC004 11/10 A2985 930 96 700 360/08 RMK AO2
14837KMSN MSN20020927044509709/27/02 04:45:31  5-MIN KMSN 271045Z 36010KT 2SM BR OVC004 11/10 A2985 930 96 700 360/10 RMK AO2
14837KMSN MSN20020927045013009/27/02 04:50:31  5-MIN KMSN 271050Z 01011KT 2SM -DZ BR OVC004 11/10 A2984 940 96 700 010/11 RMK AO2 SLP104 DZB35 P0000 T01060100
14837KMSN MSN20020927045510709/27/02 04:55:31  5-MIN KMSN 271055Z 01009KT 2SM -DZ BR OVC004 11/10 A2985 930 96 700 010/09 RMK AO2 P0000
14837KMSN MSN20020927050010709/27/02 05:00:31  5-MIN KMSN 271100Z 01008KT 2SM -DZ BR OVC004 11/10 A2985 930 96 700 010/08 RMK AO2 P0000
14837KMSN MSN20020927050510709/27/02 05:05:31  5-MIN KMSN 271105Z 02009KT 2SM -DZ BR OVC004 11/10 A2985 930 96 700 020/09 RMK AO2 P0000
14837KMSN MSN20020927051010709/27/02 05:10:31  5-MIN KMSN 271110Z 02011KT 2SM -DZ BR OVC004 11/10 A2984 930 96 700 020/11 RMK AO2 P0000
14837KMSN MSN20020927051510709/27/02 05:15:31  5-MIN KMSN 271115Z 01010KT 2SM -DZ BR OVC004 11/10 A2985 930 96 700 010/10 RMK AO2 P0000
14837KMSN MSN20020927052011109/27/02 05:20:31  5-MIN KMSN 271120Z 36010KT 1 1/4SM -DZ BR OVC004 11/10 A2985 930 96 700 360/10 RMK AO2 P0000
14837KMSN MSN20020927052512509/27/02 05:25:31  5-MIN KMSN 271125Z 01011KT 1 1/4SM -DZ BR OVC004 11/10 A2984 930 96 700 010/11 RMK AO2 TWR VIS 1 1/2 P0000
14837KMSN MSN20020927053012509/27/02 05:30:31  5-MIN KMSN 271130Z 01009KT 1 1/4SM -DZ BR OVC004 11/10 A2985 930 96 700 010/09 RMK AO2 TWR VIS 1 1/2 P0000
14837KMSN MSN20020927053512509/27/02 05:35:31  5-MIN KMSN 271135Z 01010KT 1 1/4SM -DZ BR OVC002 11/10 A2985 930 96 700 010/10 RMK AO2 TWR VIS 1 1/2 P0000
14837KMSN MSN20020927054012509/27/02 05:40:31  5-MIN KMSN 271140Z 01009KT 1 1/4SM -DZ BR OVC002 11/10 A2985 930 96 700 010/09 RMK AO2 TWR VIS 1 1/2 P0000
14837KMSN MSN20020927054512509/27/02 05:45:31  5-MIN KMSN 271145Z 03010KT 1 1/4SM -DZ BR OVC002 11/10 A2984 940 96 700 030/10 RMK AO2 TWR VIS 1 1/2 P0000
14837KMSN MSN20020927055016609/27/02 05:50:31  5-MIN KMSN 271150Z 03009KT 1 1/4SM -DZ BR OVC002 11/10 A2984 940 96 700 030/09 RMK AO2 TWR VIS 1 1/2 SLP106 P0000 60000 T01060100 10128 20106 55007
14837KMSN MSN20020927055512109/27/02 05:55:31  5-MIN KMSN 271155Z 03009KT 1SM -DZ BR OVC002 11/10 A2984 940 96 700 030/09 RMK AO2 TWR VIS 1 1/4 P0000
14837KMSN MSN20020927060012109/27/02 06:00:31  5-MIN KMSN 271200Z 03009KT 1SM -DZ BR OVC002 11/10 A2985 930 96 700 030/09 RMK AO2 TWR VIS 1 1/4 P0000
14837KMSN MSN20020927060512509/27/02 06:05:31  5-MIN KMSN 271205Z 03010KT 1 1/4SM -DZ BR OVC002 11/10 A2985 930 96 700 030/10 RMK AO2 SFC VIS 1 1/2 P0000
14837KMSN MSN20020927061012509/27/02 06:10:31  5-MIN KMSN 271210Z 02008KT 1 1/4SM -DZ BR OVC002 11/10 A2984 930 96 700 020/08 RMK AO2 SFC VIS 1 1/2 P0000
14837KMSN MSN20020927061512709/27/02 06:15:31  5-MIN KMSN 271215Z 03010KT 1 1/4SM BR OVC002 11/10 A2985 930 96 700 020/10 RMK AO2 SFC VIS 1 1/2 DZE13 P0000
14837KMSN MSN20020927062012709/27/02 06:20:31  5-MIN KMSN 271220Z 02010KT 1 1/4SM BR OVC002 11/10 A2985 930 96 700 020/10 RMK AO2 SFC VIS 1 1/2 DZE13 P0000
14837KMSN MSN20020927062512309/27/02 06:25:31  5-MIN KMSN 271225Z 02009KT 1 1/4SM BR OVC002 11/10 A2985 930 96 700 010/09 RMK AO2 SFC VIS 2 DZE13 P0000
14837KMSN MSN20020927063012309/27/02 06:30:31  5-MIN KMSN 271230Z 36007KT 1 1/4SM BR OVC002 11/10 A2985 930 96 700 360/07 RMK AO2 SFC VIS 2 DZE13 P0000
14837KMSN MSN20020927063512309/27/02 06:35:31  5-MIN KMSN 271235Z 01009KT 1 1/4SM BR OVC002 11/10 A2985 930 96 700 010/09 RMK AO2 SFC VIS 2 DZE13 P0000
14837KMSN MSN20020927064012309/27/02 06:40:31  5-MIN KMSN 271240Z 01010KT 1 1/4SM BR OVC002 11/10 A2986 920 96 700 010/10 RMK AO2 SFC VIS 2 DZE13 P0000
14837KMSN MSN20020927064512309/27/02 06:45:31  5-MIN KMSN 271245Z 01011KT 2SM BR OVC002 11/10 A2986 920 96 600 010/11 RMK AO2 SFC VIS 2 1/2 DZE13 P0000
14837KMSN MSN20020927065012609/27/02 06:50:31  5-MIN KMSN 271250Z 02009KT 2SM BR OVC004 11/10 A2986 920 96 600 010/09 RMK AO2 DZE13 SLP112 P0000 T01060100
14837KMSN MSN20020927065511109/27/02 06:55:31  5-MIN KMSN 271255Z 03010KT 2SM BR OVC004 11/10 A2986 920 96 700 030/10 RMK AO2 SFC VIS 2 1/2
14837KMSN MSN20020927070011109/27/02 07:00:31  5-MIN KMSN 271300Z 03010KT 2SM BR OVC004 11/10 A2985 930 96 700 030/10 RMK AO2 SFC VIS 2 1/2
14837KMSN MSN20020927070511109/27/02 07:05:31  5-MIN KMSN 271305Z 03010KT 2SM BR OVC004 11/10 A2985 930 96 700 030/10 RMK AO2 SFC VIS 2 1/2
14837KMSN MSN20020927071011109/27/02 07:10:31  5-MIN KMSN 271310Z 03011KT 2SM BR OVC004 11/10 A2986 920 96 700 030/11 RMK AO2 SFC VIS 2 1/2
14837KMSN MSN20020927071510709/27/02 07:15:31  5-MIN KMSN 271315Z 02011KT 2SM BR OVC004 11/10 A2986 920 96 600 010/11 RMK AO2 SFC VIS 3
14837KMSN MSN20020927072011909/27/02 07:20:31  5-MIN KMSN 271320Z 03010KT 2SM BR OVC004 11/10 A2986 920 96 700 020/10 RMK AO2 SFC VIS 3 CIG 003V008
14837KMSN MSN20020927072511909/27/02 07:25:31  5-MIN KMSN 271325Z 02008KT 2SM BR OVC004 11/10 A2986 920 96 600 020/08 RMK AO2 SFC VIS 4 CIG 003V008
14837KMSN MSN20020927073011909/27/02 07:30:31  5-MIN KMSN 271330Z 01007KT 2SM BR OVC004 11/10 A2986 920 93 700 010/07 RMK AO2 SFC VIS 4 CIG 003V008
14837KMSN MSN20020927073510709/27/02 07:35:31  5-MIN KMSN 271335Z 01008KT 2SM BR OVC006 11/10 A2986 920 93 700 010/08 RMK AO2 SFC VIS 4
14837KMSN MSN20020927074010709/27/02 07:40:31  5-MIN KMSN 271340Z 02008KT 3SM BR OVC006 11/09 A2986 920 89 700 020/08 RMK AO2 SFC VIS 5
14837KMSN MSN20020927074510709/27/02 07:45:31  5-MIN KMSN 271345Z 02011KT 3SM BR OVC006 11/09 A2986 920 93 600 020/11 RMK AO2 SFC VIS 5
14837KMSN MSN20020927075011409/27/02 07:50:31  5-MIN KMSN 271350Z 03011KT 5SM BR OVC006 11/09 A2986 920 93 600 030/11 RMK AO2 SLP114 T01060094
14837KMSN MSN20020927075509709/27/02 07:55:31  5-MIN KMSN 271355Z 02010KT 5SM BR OVC006 11/09 A2986 920 89 700 020/10 RMK AO2
14837KMSN MSN20020927080009709/27/02 08:00:31  5-MIN KMSN 271400Z 02010KT 5SM BR OVC006 11/09 A2986 920 93 600 020/10 RMK AO2
14837KMSN MSN20020927080509709/27/02 08:05:31  5-MIN KMSN 271405Z 01012KT 5SM BR OVC006 11/09 A2986 920 89 700 010/12 RMK AO2
14837KMSN MSN20020927081009709/27/02 08:10:31  5-MIN KMSN 271410Z 02012KT 5SM BR OVC006 11/09 A2986 920 93 600 020/12 RMK AO2
14837KMSN MSN20020927081509709/27/02 08:15:31  5-MIN KMSN 271415Z 02011KT 5SM BR OVC006 11/09 A2986 920 89 700 020/11 RMK AO2
14837KMSN MSN20020927082009709/27/02 08:20:31  5-MIN KMSN 271420Z 02011KT 5SM BR OVC008 11/09 A2986 920 86 700 010/11 RMK AO2
14837KMSN MSN20020927082509709/27/02 08:25:31  5-MIN KMSN 271425Z 36010KT 5SM BR OVC008 11/09 A2987 910 93 600 360/10 RMK AO2
14837KMSN MSN20020927083009709/27/02 08:30:31  5-MIN KMSN 271430Z 36009KT 5SM BR OVC008 11/09 A2987 910 89 600 360/09 RMK AO2
14837KMSN MSN20020927083509709/27/02 08:35:31  5-MIN KMSN 271435Z 36011KT 5SM BR OVC008 11/09 A2987 910 89 600 360/11 RMK AO2
14837KMSN MSN20020927084009709/27/02 08:40:31  5-MIN KMSN 271440Z 01011KT 6SM BR OVC008 11/09 A2988 910 89 600 010/11 RMK AO2
14837KMSN MSN20020927084509709/27/02 08:45:31  5-MIN KMSN 271445Z 02013KT 6SM BR OVC008 11/09 A2987 910 89 600 020/13 RMK AO2
14837KMSN MSN20020927085013809/27/02 08:50:31  5-MIN KMSN 271450Z 02010KT 6SM BR OVC008 11/09 A2987 910 86 700 020/10 RMK AO2 CIG 007V010 SLP118 60000 T01110089 50005
14837KMSN MSN20020927085509709/27/02 08:55:31  5-MIN KMSN 271455Z 01010KT 6SM BR OVC008 11/09 A2988 900 89 700 010/10 RMK AO2
14837KMSN MSN20020927090009709/27/02 09:00:31  5-MIN KMSN 271500Z 35007KT 6SM BR OVC008 11/09 A2987 910 86 700 350/07 RMK AO2
14837KMSN MSN20020927090510309/27/02 09:05:31  5-MIN KMSN 271505Z 02013G16KT 6SM BR OVC008 11/09 A2987 910 86 700 010/13G16 RMK AO2
14837KMSN MSN20020927091009409/27/02 09:10:31  5-MIN KMSN 271510Z 02009KT 7SM OVC008 11/09 A2987 910 86 700 020/09 RMK AO2
14837KMSN MSN20020927091509409/27/02 09:15:31  5-MIN KMSN 271515Z 01012KT 7SM OVC008 11/09 A2987 910 86 700 010/12 RMK AO2
14837KMSN MSN20020927092009409/27/02 09:20:31  5-MIN KMSN 271520Z 02011KT 7SM OVC008 11/09 A2987 910 86 700 010/11 RMK AO2
14837KMSN MSN20020927092509409/27/02 09:25:31  5-MIN KMSN 271525Z 02011KT 7SM OVC008 11/09 A2987 910 86 700 020/11 RMK AO2
14837KMSN MSN20020927093009409/27/02 09:30:31  5-MIN KMSN 271530Z 03012KT 7SM OVC008 11/09 A2988 910 86 700 030/12 RMK AO2
14837KMSN MSN20020927093509409/27/02 09:35:31  5-MIN KMSN 271535Z 03010KT 7SM OVC008 11/09 A2987 910 86 700 030/10 RMK AO2
14837KMSN MSN20020927094009409/27/02 09:40:31  5-MIN KMSN 271540Z 03010KT 7SM OVC010 11/09 A2987 910 86 700 030/10 RMK AO2
14837KMSN MSN20020927094509409/27/02 09:45:31  5-MIN KMSN 271545Z 02011KT 7SM OVC010 12/09 A2988 910 86 800 020/11 RMK AO2
14837KMSN MSN20020927095011109/27/02 09:50:31  5-MIN KMSN 271550Z 02010KT 7SM OVC010 12/09 A2988 900 86 800 010/10 RMK AO2 SLP119 T01170094
14837KMSN MSN20020927095509409/27/02 09:55:31  5-MIN KMSN 271555Z 01008KT 8SM OVC010 12/09 A2988 900 86 800 010/08 RMK AO2
14837KMSN MSN20020927100009409/27/02 10:00:31  5-MIN KMSN 271600Z 02009KT 7SM OVC010 12/09 A2988 910 83 800 020/09 RMK AO2
14837KMSN MSN20020927100509409/27/02 10:05:31  5-MIN KMSN 271605Z 03009KT 8SM OVC010 12/09 A2988 910 86 800 030/09 RMK AO2
14837KMSN MSN20020927101009409/27/02 10:10:31  5-MIN KMSN 271610Z 02010KT 8SM OVC010 12/09 A2988 910 83 800 020/10 RMK AO2
14837KMSN MSN20020927101509409/27/02 10:15:31  5-MIN KMSN 271615Z 03008KT 8SM OVC010 12/09 A2988 900 86 800 030/08 RMK AO2
14837KMSN MSN20020927102009409/27/02 10:20:31  5-MIN KMSN 271620Z 03008KT 7SM OVC010 12/09 A2988 900 86 800 030/08 RMK AO2
14837KMSN MSN20020927102509409/27/02 10:25:31  5-MIN KMSN 271625Z 01010KT 7SM OVC010 12/09 A2988 900 86 800 010/10 RMK AO2
14837KMSN MSN20020927103009409/27/02 10:30:31  5-MIN KMSN 271630Z 01010KT 8SM OVC010 12/09 A2988 900 83 800 010/10 RMK AO2
14837KMSN MSN20020927103509409/27/02 10:35:31  5-MIN KMSN 271635Z 02010KT 8SM OVC010 12/09 A2989 900 86 800 020/10 RMK AO2
14837KMSN MSN20020927104009409/27/02 10:40:31  5-MIN KMSN 271640Z 02008KT 8SM OVC010 12/09 A2989 890 86 700 020/08 RMK AO2
14837KMSN MSN20020927104509409/27/02 10:45:31  5-MIN KMSN 271645Z 01008KT 8SM OVC010 12/09 A2989 900 83 800 010/08 RMK AO2
14837KMSN MSN20020927105011209/27/02 10:50:31  5-MIN KMSN 271650Z 03008KT 10SM OVC010 12/09 A2989 890 83 800 030/08 RMK AO2 SLP122 T01220094
14837KMSN MSN20020927105509409/27/02 10:55:31  5-MIN KMSN 271655Z 03009KT 8SM OVC010 12/09 A2989 890 83 800 030/09 RMK AO2
14837KMSN MSN20020927110009409/27/02 11:00:31  5-MIN KMSN 271700Z 02008KT 8SM OVC010 12/09 A2989 890 83 800 020/08 RMK AO2
14837KMSN MSN20020927110509409/27/02 11:05:31  5-MIN KMSN 271705Z 03009KT 8SM OVC010 12/09 A2989 890 86 700 030/09 RMK AO2
14837KMSN MSN20020927111009409/27/02 11:10:31  5-MIN KMSN 271710Z 02011KT 8SM OVC012 12/09 A2989 890 83 800 020/11 RMK AO2
14837KMSN MSN20020927111509409/27/02 11:15:31  5-MIN KMSN 271715Z 03009KT 8SM OVC012 12/09 A2990 890 83 800 020/09 RMK AO2
14837KMSN MSN20020927112009409/27/02 11:20:31  5-MIN KMSN 271720Z 36010KT 8SM OVC012 12/09 A2990 890 83 800 360/10 RMK AO2
14837KMSN MSN20020927112509409/27/02 11:25:31  5-MIN KMSN 271725Z 01011KT 8SM OVC012 12/09 A2990 880 83 800 010/11 RMK AO2
14837KMSN MSN20020927113009409/27/02 11:30:31  5-MIN KMSN 271730Z 01010KT 8SM OVC012 12/09 A2990 880 83 800 010/10 RMK AO2
14837KMSN MSN20020927113509409/27/02 11:35:31  5-MIN KMSN 271735Z 01011KT 8SM OVC012 12/09 A2990 880 83 800 360/11 RMK AO2
14837KMSN MSN20020927114009509/27/02 11:40:31  5-MIN KMSN 271740Z 36011KT 10SM OVC012 12/09 A2990 880 83 800 360/11 RMK AO2
14837KMSN MSN20020927114509509/27/02 11:45:31  5-MIN KMSN 271745Z 01011KT 10SM OVC012 12/09 A2990 880 83 800 010/11 RMK AO2
14837KMSN MSN20020927115013609/27/02 11:50:31  5-MIN KMSN 271750Z 01009KT 10SM OVC012 13/09 A2990 880 80 900 010/09 RMK AO2 SLP127 60000 T01280094 10128 20106 51011
14837KMSN MSN20020927115509409/27/02 11:55:31  5-MIN KMSN 271755Z 36008KT 9SM OVC012 12/09 A2990 880 83 800 360/08 RMK AO2
14837KMSN MSN20020927120009509/27/02 12:00:31  5-MIN KMSN 271800Z 36008KT 10SM OVC012 12/09 A2990 880 83 800 350/08 RMK AO2
14837KMSN MSN20020927120509509/27/02 12:05:31  5-MIN KMSN 271805Z 36010KT 10SM OVC012 13/09 A2990 880 80 900 360/10 RMK AO2
14837KMSN MSN20020927121009509/27/02 12:10:31  5-MIN KMSN 271810Z 34008KT 10SM OVC012 13/09 A2990 880 80 900 340/08 RMK AO2
14837KMSN MSN20020927121509509/27/02 12:15:31  5-MIN KMSN 271815Z 02008KT 10SM OVC012 13/09 A2990 880 80 900 010/08 RMK AO2
14837KMSN MSN20020927122009509/27/02 12:20:31  5-MIN KMSN 271820Z 35010KT 10SM OVC012 13/09 A2990 880 80 900 350/10 RMK AO2
14837KMSN MSN20020927122509509/27/02 12:25:31  5-MIN KMSN 271825Z 01009KT 10SM OVC012 13/10 A2990 880 80 900 010/09 RMK AO2
14837KMSN MSN20020927123009509/27/02 12:30:31  5-MIN KMSN 271830Z 01011KT 10SM OVC014 13/10 A2990 880 80 900 010/11 RMK AO2
14837KMSN MSN20020927123509509/27/02 12:35:31  5-MIN KMSN 271835Z 36009KT 10SM OVC014 13/09 A2990 880 80 900 360/09 RMK AO2
14837KMSN MSN20020927124009509/27/02 12:40:31  5-MIN KMSN 271840Z 36011KT 10SM OVC014 13/09 A2990 880 80 900 360/11 RMK AO2
14837KMSN MSN20020927124509509/27/02 12:45:31  5-MIN KMSN 271845Z 35009KT 10SM OVC014 13/09 A2990 880 80 900 350/09 RMK AO2
14837KMSN MSN20020927125011209/27/02 12:50:31  5-MIN KMSN 271850Z 01013KT 10SM OVC014 13/09 A2990 880 80 900 010/13 RMK AO2 SLP128 T01280094
14837KMSN MSN20020927125509509/27/02 12:55:31  5-MIN KMSN 271855Z 02010KT 10SM OVC014 13/09 A2990 880 80 900 020/10 RMK AO2
14837KMSN MSN20020927130009509/27/02 13:00:31  5-MIN KMSN 271900Z 35010KT 10SM OVC014 13/09 A2990 880 80 900 350/10 RMK AO2
14837KMSN MSN20020927130509509/27/02 13:05:31  5-MIN KMSN 271905Z 01011KT 10SM OVC014 13/09 A2990 880 77 900 010/11 RMK AO2
14837KMSN MSN20020927131009509/27/02 13:10:31  5-MIN KMSN 271910Z 36010KT 10SM OVC014 13/09 A2990 880 77 900 360/10 RMK AO2
14837KMSN MSN20020927131509509/27/02 13:15:31  5-MIN KMSN 271915Z 01011KT 10SM OVC014 13/10 A2990 880 80 900 360/11 RMK AO2
14837KMSN MSN20020927132010309/27/02 13:20:31  5-MIN KMSN 271920Z 01011KT 10SM BKN014 OVC080 14/10 A2990 880 77 1000 010/11 RMK AO2
14837KMSN MSN20020927132510309/27/02 13:25:31  5-MIN KMSN 271925Z 02007KT 10SM BKN014 OVC080 14/09 A2991 880 74 1000 020/07 RMK AO2
14837KMSN MSN20020927133010309/27/02 13:30:31  5-MIN KMSN 271930Z 02009KT 10SM BKN016 BKN080 14/10 A2991 880 77 1000 010/09 RMK AO2
14837KMSN MSN20020927133510309/27/02 13:35:31  5-MIN KMSN 271935Z 03008KT 10SM BKN016 BKN080 14/09 A2991 880 74 1000 030/08 RMK AO2
14837KMSN MSN20020927134010309/27/02 13:40:31  5-MIN KMSN 271940Z 36006KT 10SM BKN016 BKN080 14/10 A2991 880 77 1000 360/06 RMK AO2
14837KMSN MSN20020927134509609/27/02 13:45:31  5-MIN KMSN 271945Z 02010KT 10SM OVC018 14/10 A2991 870 74 1100 020/10 RMK AO2
14837KMSN MSN20020927135011309/27/02 13:50:31  5-MIN KMSN 271950Z 01008KT 10SM OVC018 14/10 A2991 880 77 1000 010/08 RMK AO2 SLP128 T01390100
14837KMSN MSN20020927135509609/27/02 13:55:31  5-MIN KMSN 271955Z 01010KT 10SM OVC018 14/10 A2991 880 74 1100 010/10 RMK AO2
14837KMSN MSN20020927140009609/27/02 14:00:31  5-MIN KMSN 272000Z 01009KT 10SM OVC020 14/10 A2991 870 74 1100 010/09 RMK AO2
14837KMSN MSN20020927140509609/27/02 14:05:31  5-MIN KMSN 272005Z 03010KT 10SM OVC020 14/10 A2991 870 74 1100 030/10 RMK AO2
14837KMSN MSN20020927141010309/27/02 14:10:31  5-MIN KMSN 272010Z 01010KT 10SM BKN020 OVC070 14/10 A2991 870 74 1100 010/10 RMK AO2
14837KMSN MSN20020927141509609/27/02 14:15:31  5-MIN KMSN 272015Z 02008KT 10SM OVC020 14/10 A2991 870 77 1000 020/08 RMK AO2
14837KMSN MSN20020927142009609/27/02 14:20:31  5-MIN KMSN 272020Z 01012KT 10SM OVC022 14/09 A2991 870 74 1000 010/12 RMK AO2
14837KMSN MSN20020927142509609/27/02 14:25:31  5-MIN KMSN 272025Z 01010KT 10SM OVC022 14/09 A2991 870 74 1000 010/10 RMK AO2
14837KMSN MSN20020927143009609/27/02 14:30:31  5-MIN KMSN 272030Z 02008KT 10SM OVC022 14/09 A2991 870 74 1000 020/08 RMK AO2
14837KMSN MSN20020927143509609/27/02 14:35:31  5-MIN KMSN 272035Z 01009KT 10SM OVC022 14/10 A2991 870 74 1000 010/09 RMK AO2
14837KMSN MSN20020927144009609/27/02 14:40:31  5-MIN KMSN 272040Z 36008KT 10SM OVC022 15/10 A2992 870 72 1100 360/08 RMK AO2
14837KMSN MSN20020927144509609/27/02 14:45:31  5-MIN KMSN 272045Z 02012KT 10SM OVC022 14/09 A2992 870 72 1000 020/12 RMK AO2
14837KMSN MSN20020927145011909/27/02 14:50:31  5-MIN KMSN 272050Z 02011KT 10SM OVC022 14/09 A2992 870 72 1000 020/11 RMK AO2 SLP132 T01440094 53008
14837KMSN MSN20020927145509609/27/02 14:55:31  5-MIN KMSN 272055Z 01013KT 10SM OVC022 15/10 A2992 860 72 1100 010/13 RMK AO2
14837KMSN MSN20020927150009609/27/02 15:00:31  5-MIN KMSN 272100Z 02013KT 10SM OVC024 14/09 A2992 860 72 1000 020/13 RMK AO2
14837KMSN MSN20020927150510309/27/02 15:05:31  5-MIN KMSN 272105Z 02011KT 10SM BKN024 OVC070 14/09 A2992 860 72 1000 020/11 RMK AO2
14837KMSN MSN20020927151010309/27/02 15:10:31  5-MIN KMSN 272110Z 01011KT 10SM BKN024 OVC070 14/09 A2993 860 72 1000 010/11 RMK AO2
14837KMSN MSN20020927151510309/27/02 15:15:31  5-MIN KMSN 272115Z 01011KT 10SM BKN024 OVC070 14/09 A2993 860 72 1000 010/11 RMK AO2
14837KMSN MSN20020927152010309/27/02 15:20:31  5-MIN KMSN 272120Z 01009KT 10SM BKN024 OVC070 14/09 A2993 850 72 1000 010/09 RMK AO2
14837KMSN MSN20020927152510309/27/02 15:25:31  5-MIN KMSN 272125Z 02011KT 10SM BKN024 OVC070 14/09 A2993 850 72 1000 020/11 RMK AO2
14837KMSN MSN20020927153010309/27/02 15:30:31  5-MIN KMSN 272130Z 01008KT 10SM BKN024 OVC070 14/09 A2994 850 72 1000 360/08 RMK AO2
14837KMSN MSN20020927153509609/27/02 15:35:31  5-MIN KMSN 272135Z 01010KT 10SM OVC024 14/09 A2994 850 72 1000 360/10 RMK AO2
14837KMSN MSN20020927154009609/27/02 15:40:31  5-MIN KMSN 272140Z 36009KT 10SM OVC024 14/09 A2994 850 72 1000 360/09 RMK AO2
14837KMSN MSN20020927154510309/27/02 15:45:31  5-MIN KMSN 272145Z 01010KT 10SM BKN024 OVC070 14/09 A2994 850 72 1000 010/10 RMK AO2
14837KMSN MSN20020927155012009/27/02 15:50:31  5-MIN KMSN 272150Z 36008KT 10SM BKN024 OVC070 14/09 A2994 840 72 1000 360/08 RMK AO2 SLP141 T01440094
14837KMSN MSN20020927155510309/27/02 15:55:31  5-MIN KMSN 272155Z 01009KT 10SM SCT024 OVC070 14/09 A2994 840 72 1000 010/09 RMK AO2
14837KMSN MSN20020927160010309/27/02 16:00:31  5-MIN KMSN 272200Z 36009KT 10SM FEW024 OVC070 14/09 A2995 840 69 1000 360/09 RMK AO2
14837KMSN MSN20020927160511009/27/02 16:05:31  5-MIN KMSN 272205Z 02009KT 10SM FEW024 BKN070 OVC085 14/09 A2995 840 69 1000 010/09 RMK AO2
14837KMSN MSN20020927161011009/27/02 16:10:31  5-MIN KMSN 272210Z 01009KT 10SM FEW024 BKN070 BKN085 14/09 A2995 840 72 1000 010/09 RMK AO2
14837KMSN MSN20020927161511009/27/02 16:15:31  5-MIN KMSN 272215Z 01008KT 10SM FEW024 BKN070 BKN085 14/09 A2995 830 69 1000 010/08 RMK AO2
14837KMSN MSN20020927162010909/27/02 16:20:31  5-MIN KMSN 272220Z 04007KT 10SM FEW024 BKN070 BKN085 14/09 A2996 830 71 900 030/07 RMK AO2
14837KMSN MSN20020927162510909/27/02 16:25:31  5-MIN KMSN 272225Z 01008KT 10SM FEW024 BKN070 BKN085 14/09 A2996 830 71 900 010/08 RMK AO2
14837KMSN MSN20020927163010309/27/02 16:30:31  5-MIN KMSN 272230Z 02008KT 10SM SCT024 BKN070 14/09 A2996 830 69 1000 020/08 RMK AO2
14837KMSN MSN20020927163510309/27/02 16:35:31  5-MIN KMSN 272235Z 01008KT 10SM SCT024 BKN070 14/09 A2996 830 69 1000 010/08 RMK AO2
14837KMSN MSN20020927164010309/27/02 16:40:31  5-MIN KMSN 272240Z 04009KT 10SM SCT045 BKN070 14/08 A2996 830 66 1000 040/09 RMK AO2
14837KMSN MSN20020927164510309/27/02 16:45:31  5-MIN KMSN 272245Z 03007KT 10SM FEW045 BKN065 14/08 A2996 820 66 1000 030/07 RMK AO2
14837KMSN MSN20020927165011909/27/02 16:50:31  5-MIN KMSN 272250Z 03005KT 10SM FEW045 OVC065 14/08 A2996 820 69 900 030/05 RMK AO2 SLP149 T01390083
14837KMSN MSN20020927165510209/27/02 16:55:31  5-MIN KMSN 272255Z 03005KT 10SM FEW045 BKN065 14/08 A2997 820 69 900 030/05 RMK AO2
14837KMSN MSN20020927170010209/27/02 17:00:31  5-MIN KMSN 272300Z 03006KT 10SM FEW045 BKN065 14/08 A2997 820 69 900 020/06 RMK AO2
14837KMSN MSN20020927170509509/27/02 17:05:31  5-MIN KMSN 272305Z 02009KT 10SM BKN065 14/08 A2997 820 69 900 020/09 RMK AO2
14837KMSN MSN20020927171009509/27/02 17:10:31  5-MIN KMSN 272310Z 02006KT 10SM BKN065 13/08 A2998 810 71 800 020/06 RMK AO2
14837KMSN MSN20020927171509509/27/02 17:15:31  5-MIN KMSN 272315Z 02008KT 10SM BKN065 14/08 A2998 810 66 900 020/08 RMK AO2
14837KMSN MSN20020927172009509/27/02 17:20:31  5-MIN KMSN 272320Z 01006KT 10SM BKN065 13/08 A2998 810 69 800 360/06 RMK AO2
14837KMSN MSN20020927172510209/27/02 17:25:31  5-MIN KMSN 272325Z 01006KT 10SM SCT045 OVC065 13/08 A2998 810 69 800 010/06 RMK AO2
14837KMSN MSN20020927173010209/27/02 17:30:31  5-MIN KMSN 272330Z 01006KT 10SM BKN045 OVC065 13/08 A2999 800 69 800 010/06 RMK AO2
14837KMSN MSN20020927173510209/27/02 17:35:31  5-MIN KMSN 272335Z 01005KT 10SM BKN045 OVC065 13/08 A2999 800 71 800 360/05 RMK AO2
14837KMSN MSN20020927174010209/27/02 17:40:31  5-MIN KMSN 272340Z 36003KT 10SM BKN045 BKN065 13/08 A2999 800 71 800 360/03 RMK AO2
14837KMSN MSN20020927174510209/27/02 17:45:31  5-MIN KMSN 272345Z 00000KT 10SM BKN045 BKN065 13/08 A2999 800 71 800 000/00 RMK AO2
14837KMSN MSN20020927175013709/27/02 17:50:31  5-MIN KMSN 272350Z 03003KT 10SM BKN045 BKN080 13/08 A2999 800 71 800 030/03 RMK AO2 SLP158 T01280078 10150 20122 53006
14837KMSN MSN20020927175510909/27/02 17:55:31  5-MIN KMSN 272355Z 04005KT 10SM BKN045 BKN065 OVC080 13/08 A2999 800 71 800 040/05 RMK AO2
14837KMSN MSN20020927180010909/27/02 18:00:31  5-MIN KMSN 280000Z 03004KT 10SM SCT045 BKN065 OVC080 12/08 A2999 800 74 700 030/04 RMK AO2
14837KMSN MSN20020927180510909/27/02 18:05:31  5-MIN KMSN 280005Z 35003KT 10SM FEW045 BKN065 OVC080 12/08 A3000 790 74 700 350/03 RMK AO2
14837KMSN MSN20020927181010909/27/02 18:10:31  5-MIN KMSN 280010Z 35003KT 10SM FEW045 BKN065 OVC080 12/08 A3000 790 77 600 350/03 RMK AO2
14837KMSN MSN20020927181510909/27/02 18:15:31  5-MIN KMSN 280015Z 01003KT 10SM FEW045 BKN065 BKN080 12/08 A3000 790 80 600 010/03 RMK AO2
14837KMSN MSN20020927182010209/27/02 18:20:31  5-MIN KMSN 280020Z 36003KT 10SM BKN065 BKN080 12/08 A3000 790 80 600 360/03 RMK AO2
14837KMSN MSN20020927182510209/27/02 18:25:31  5-MIN KMSN 280025Z 01004KT 10SM SCT065 BKN080 12/08 A3000 790 80 600 010/04 RMK AO2
14837KMSN MSN20020927183010209/27/02 18:30:31  5-MIN KMSN 280030Z 04004KT 10SM SCT065 BKN080 12/08 A2999 800 77 600 040/04 RMK AO2
14837KMSN MSN20020927183510209/27/02 18:35:31  5-MIN KMSN 280035Z 03004KT 10SM BKN065 BKN080 11/08 A2999 800 80 600 030/04 RMK AO2
14837KMSN MSN20020927184010209/27/02 18:40:31  5-MIN KMSN 280040Z 03005KT 10SM BKN065 BKN080 11/08 A3000 790 80 600 030/05 RMK AO2
14837KMSN MSN20020927184510209/27/02 18:45:31  5-MIN KMSN 280045Z 04005KT 10SM BKN065 BKN080 11/08 A3000 790 80 600 040/05 RMK AO2
14837KMSN MSN20020927185011909/27/02 18:50:31  5-MIN KMSN 280050Z 03005KT 10SM SCT065 BKN075 10/07 A3000 790 83 400 030/05 RMK AO2 SLP162 T01000072
14837KMSN MSN20020927185510209/27/02 18:55:31  5-MIN KMSN 280055Z 00000KT 10SM SCT065 BKN075 11/07 A3001 790 80 500 000/00 RMK AO2
14837KMSN MSN20020927190010209/27/02 19:00:31  5-MIN KMSN 280100Z 00000KT 10SM SCT065 SCT075 11/08 A3001 780 83 500 000/00 RMK AO2
14837KMSN MSN20020927190509509/27/02 19:05:31  5-MIN KMSN 280105Z 00000KT 10SM SCT070 11/08 A3001 780 83 500 000/00 RMK AO2
14837KMSN MSN20020927191009509/27/02 19:10:31  5-MIN KMSN 280110Z 00000KT 10SM FEW075 10/07 A3001 780 83 400 000/00 RMK AO2
14837KMSN MSN20020927191509509/27/02 19:15:31  5-MIN KMSN 280115Z 00000KT 10SM FEW075 09/07 A3002 780 86 300 000/00 RMK AO2
14837KMSN MSN20020927192009209/27/02 19:20:31  5-MIN KMSN 280120Z 00000KT 10SM CLR 09/07 A3002 770 86 300 000/00 RMK AO2
14837KMSN MSN20020927192509209/27/02 19:25:31  5-MIN KMSN 280125Z 00000KT 10SM CLR 09/07 A3002 770 86 300 000/00 RMK AO2
14837KMSN MSN20020927193009509/27/02 19:30:31  5-MIN KMSN 280130Z 00000KT 10SM FEW065 09/07 A3002 770 89 300 000/00 RMK AO2
14837KMSN MSN20020927193509509/27/02 19:35:31  5-MIN KMSN 280135Z 00000KT 10SM FEW065 09/07 A3002 770 89 300 000/00 RMK AO2
14837KMSN MSN20020927194009509/27/02 19:40:31  5-MIN KMSN 280140Z 00000KT 10SM FEW065 09/07 A3002 770 89 300 000/00 RMK AO2
14837KMSN MSN20020927194509509/27/02 19:45:31  5-MIN KMSN 280145Z 00000KT 10SM FEW065 09/07 A3002 770 89 300 000/00 RMK AO2
14837KMSN MSN20020927195011209/27/02 19:50:31  5-MIN KMSN 280150Z 00000KT 10SM FEW065 09/07 A3002 770 89 300 000/00 RMK AO2 SLP170 T00890072
14837KMSN MSN20020927195509509/27/02 19:55:31  5-MIN KMSN 280155Z 00000KT 10SM BKN060 09/07 A3002 770 89 300 000/00 RMK AO2
14837KMSN MSN20020927200009509/27/02 20:00:31  5-MIN KMSN 280200Z 00000KT 10SM OVC060 09/07 A3002 770 89 300 000/00 RMK AO2
14837KMSN MSN20020927200509509/27/02 20:05:31  5-MIN KMSN 280205Z 00000KT 10SM BKN060 09/07 A3003 770 89 300 000/00 RMK AO2
14837KMSN MSN20020927201009509/27/02 20:10:31  5-MIN KMSN 280210Z 00000KT 10SM BKN060 08/07 A3003 770 93 200 000/00 RMK AO2
14837KMSN MSN20020927201509509/27/02 20:15:31  5-MIN KMSN 280215Z 00000KT 10SM SCT055 08/07 A3003 760 93 200 000/00 RMK AO2
14837KMSN MSN20020927202009509/27/02 20:20:31  5-MIN KMSN 280220Z 00000KT 10SM SCT055 08/07 A3003 760 93 200 000/00 RMK AO2
14837KMSN MSN20020927202509509/27/02 20:25:31  5-MIN KMSN 280225Z 00000KT 10SM FEW055 08/07 A3003 760 93 200 000/00 RMK AO2
14837KMSN MSN20020927203009209/27/02 20:30:31  5-MIN KMSN 280230Z 00000KT 10SM CLR 08/07 A3003 760 93 200 000/00 RMK AO2
14837KMSN MSN20020927203509509/27/02 20:35:31  5-MIN KMSN 280235Z 00000KT 10SM FEW070 08/07 A3003 760 93 200 000/00 RMK AO2
14837KMSN MSN20020927204009509/27/02 20:40:31  5-MIN KMSN 280240Z 00000KT 10SM FEW070 08/07 A3004 760 93 100 000/00 RMK AO2
14837KMSN MSN20020927204509509/27/02 20:45:31  5-MIN KMSN 280245Z 00000KT 10SM FEW070 08/07 A3004 760 93 100 000/00 RMK AO2
14837KMSN MSN20020927205011809/27/02 20:50:31  5-MIN KMSN 280250Z 00000KT 10SM SCT050 08/07 A3004 760 93 100 000/00 RMK AO2 SLP175 T00780067 53023
14837KMSN MSN20020927205509509/27/02 20:55:31  5-MIN KMSN 280255Z 00000KT 10SM SCT055 08/07 A3004 760 93 100 000/00 RMK AO2
14837KMSN MSN20020927210009509/27/02 21:00:31  5-MIN KMSN 280300Z 00000KT 10SM BKN055 08/07 A3004 760 93 100 000/00 RMK AO2
14837KMSN MSN20020927210509209/27/02 21:05:31  5-MIN KMSN 280305Z 00000KT 9SM SCT055 07/07 A3004 750 96 0 000/00 RMK AO2
14837KMSN MSN20020927211009209/27/02 21:10:31  5-MIN KMSN 280310Z 00000KT 9SM SCT055 07/06 A3004 750 93 0 000/00 RMK AO2
14837KMSN MSN20020927211509209/27/02 21:15:31  5-MIN KMSN 280315Z 00000KT 8SM BKN055 07/07 A3004 750 96 0 000/00 RMK AO2
14837KMSN MSN20020927212009209/27/02 21:20:31  5-MIN KMSN 280320Z 00000KT 8SM BKN055 07/07 A3004 750 96 0 000/00 RMK AO2
14837KMSN MSN20020927212509209/27/02 21:25:31  5-MIN KMSN 280325Z 00000KT 8SM BKN055 07/07 A3004 750 96 0 000/00 RMK AO2
14837KMSN MSN20020927213009209/27/02 21:30:31  5-MIN KMSN 280330Z 00000KT 8SM BKN055 07/07 A3004 750 96 0 000/00 RMK AO2
14837KMSN MSN20020927213509209/27/02 21:35:31  5-MIN KMSN 280335Z 00000KT 8SM BKN055 07/06 A3004 750 93 0 000/00 RMK AO2
14837KMSN MSN20020927214009209/27/02 21:40:31  5-MIN KMSN 280340Z 00000KT 7SM SCT055 07/06 A3004 750 93 0 000/00 RMK AO2
14837KMSN MSN20020927214509209/27/02 21:45:31  5-MIN KMSN 280345Z 00000KT 7SM SCT055 07/07 A3004 750 96 0 000/00 RMK AO2
14837KMSN MSN20020927215010909/27/02 21:50:31  5-MIN KMSN 280350Z 00000KT 8SM FEW055 07/06 A3004 750 93 0 000/00 RMK AO2 SLP178 T00720061
14837KMSN MSN20020927215509209/27/02 21:55:31  5-MIN KMSN 280355Z 00000KT 9SM FEW055 07/07 A3005 750 96 0 000/00 RMK AO2
14837KMSN MSN20020927220009209/27/02 22:00:31  5-MIN KMSN 280400Z 00000KT 7SM FEW055 07/06 A3005 750 96 0 000/00 RMK AO2
14837KMSN MSN20020927220509509/27/02 22:05:31  5-MIN KMSN 280405Z 00000KT 7SM FEW055 06/06 A3005 750 96 -100 000/00 RMK AO2
14837KMSN MSN20020927221009509/27/02 22:10:31  5-MIN KMSN 280410Z 00000KT 7SM FEW055 06/06 A3005 740 96 -100 000/00 RMK AO2
14837KMSN MSN20020927221509509/27/02 22:15:31  5-MIN KMSN 280415Z 00000KT 7SM FEW055 06/06 A3005 740 96 -100 000/00 RMK AO2
14837KMSN MSN20020927222009509/27/02 22:20:31  5-MIN KMSN 280420Z 00000KT 7SM FEW055 06/06 A3005 740 96 -100 000/00 RMK AO2
14837KMSN MSN20020927222509509/27/02 22:25:31  5-MIN KMSN 280425Z 00000KT 7SM FEW055 06/06 A3005 740 96 -100 000/00 RMK AO2
14837KMSN MSN20020927223009509/27/02 22:30:31  5-MIN KMSN 280430Z 00000KT 7SM FEW055 06/06 A3006 740 96 -100 000/00 RMK AO2
14837KMSN MSN20020927223509509/27/02 22:35:31  5-MIN KMSN 280435Z 00000KT 7SM FEW055 06/06 A3005 740 96 -100 000/00 RMK AO2
14837KMSN MSN20020927224009509/27/02 22:40:31  5-MIN KMSN 280440Z 00000KT 7SM FEW050 06/06 A3006 740 96 -100 000/00 RMK AO2
14837KMSN MSN20020927224509509/27/02 22:45:31  5-MIN KMSN 280445Z 00000KT 7SM FEW050 06/06 A3006 740 96 -100 000/00 RMK AO2
14837KMSN MSN20020927225011609/27/02 22:50:31  5-MIN KMSN 280450Z 00000KT 7SM BR FEW050 06/06 A3006 740 100 -100 000/00 RMK AO2 SLP182 T00560056
14837KMSN MSN20020927225509509/27/02 22:55:31  5-MIN KMSN 280455Z 00000KT 5SM BR CLR 06/06 A3006 740 96 -100 000/00 RMK AO2
14837KMSN MSN20020927230009309/27/02 23:00:31  5-MIN KMSN 280500Z 00000KT 10SM CLR 06/06 A3006 740 96 -100 000/00 RMK AO2
14837KMSN MSN20020927230509309/27/02 23:05:31  5-MIN KMSN 280505Z 00000KT 10SM CLR 06/06 A3006 740 96 -100 000/00 RMK AO2
14837KMSN MSN20020927231009409/27/02 23:10:31  5-MIN KMSN 280510Z 00000KT 10SM CLR 06/06 A3006 730 100 -100 000/00 RMK AO2
14837KMSN MSN20020927231509409/27/02 23:15:31  5-MIN KMSN 280515Z 00000KT 10SM CLR 06/06 A3006 730 100 -100 000/00 RMK AO2
14837KMSN MSN20020927232009409/27/02 23:20:31  5-MIN KMSN 280520Z 00000KT 10SM CLR 06/06 A3006 730 100 -100 000/00 RMK AO2
14837KMSN MSN20020927232509309/27/02 23:25:31  5-MIN KMSN 280525Z 00000KT 10SM CLR 06/05 A3006 730 96 -100 000/00 RMK AO2
14837KMSN MSN20020927233009309/27/02 23:30:31  5-MIN KMSN 280530Z 00000KT 10SM CLR 06/05 A3006 730 96 -100 000/00 RMK AO2
14837KMSN MSN20020927233509309/27/02 23:35:31  5-MIN KMSN 280535Z 00000KT 10SM CLR 06/05 A3007 730 96 -100 000/00 RMK AO2
14837KMSN MSN20020927234009309/27/02 23:40:31  5-MIN KMSN 280540Z 00000KT 10SM CLR 06/05 A3007 730 96 -100 000/00 RMK AO2
14837KMSN MSN20020927234509309/27/02 23:45:31  5-MIN KMSN 280545Z 00000KT 10SM CLR 05/04 A3007 730 96 -200 000/00 RMK AO2
14837KMSN MSN20020927235013809/27/02 23:50:31  5-MIN KMSN 280550Z 00000KT 10SM CLR 05/04 A3007 730 96 -200 000/00 RMK AO2 SLP186 T00500044 10128 20050 401500050 53015
14837KMSN MSN20020927235509309/27/02 23:55:31  5-MIN KMSN 280555Z 00000KT 10SM CLR 05/04 A3007 730 96 -200 000/00 RMK AO2
14837KMSN MSN20020928000009309/28/02 00:00:31  5-MIN KMSN 280600Z 00000KT 10SM CLR 05/04 A3007 720 96 -200 000/00 RMK AO2
14837KMSN MSN20020928000509309/28/02 00:05:31  5-MIN KMSN 280605Z 00000KT 10SM CLR 05/04 A3008 720 96 -200 000/00 RMK AO2
14837KMSN MSN20020928001009309/28/02 00:10:31  5-MIN KMSN 280610Z 00000KT 10SM CLR 05/04 A3008 720 96 -200 000/00 RMK AO2
14837KMSN MSN20020928001509309/28/02 00:15:31  5-MIN KMSN 280615Z 00000KT 10SM CLR 05/04 A3008 720 96 -200 000/00 RMK AO2
14837KMSN MSN20020928002009409/28/02 00:20:31  5-MIN KMSN 280620Z 00000KT 10SM CLR 05/05 A3008 720 100 -200 000/00 RMK AO2
14837KMSN MSN20020928002509309/28/02 00:25:31  5-MIN KMSN 280625Z 00000KT 10SM CLR 06/05 A3008 710 96 -200 000/00 RMK AO2
14837KMSN MSN20020928003009409/28/02 00:30:31  5-MIN KMSN 280630Z 00000KT 10SM CLR 05/05 A3008 710 100 -200 000/00 RMK AO2
14837KMSN MSN20020928003509409/28/02 00:35:31  5-MIN KMSN 280635Z 00000KT 10SM CLR 04/04 A3008 710 100 -300 000/00 RMK AO2
14837KMSN MSN20020928004009309/28/02 00:40:31  5-MIN KMSN 280640Z 00000KT 10SM CLR 05/04 A3008 710 96 -200 000/00 RMK AO2
14837KMSN MSN20020928004509309/28/02 00:45:31  5-MIN KMSN 280645Z 00000KT 10SM CLR 05/04 A3009 710 96 -200 000/00 RMK AO2
14837KMSN MSN20020928005011009/28/02 00:50:31  5-MIN KMSN 280650Z 00000KT 10SM CLR 05/04 A3009 710 96 -200 000/00 RMK AO2 SLP193 T00500044
14837KMSN MSN20020928005509309/28/02 00:55:31  5-MIN KMSN 280655Z 00000KT 10SM CLR 05/04 A3009 710 96 -200 000/00 RMK AO2
14837KMSN MSN20020928010009309/28/02 01:00:31  5-MIN KMSN 280700Z 00000KT 10SM CLR 05/04 A3009 710 96 -200 000/00 RMK AO2
14837KMSN MSN20020928010509409/28/02 01:05:31  5-MIN KMSN 280705Z 00000KT 10SM CLR 04/04 A3010 700 100 -300 000/00 RMK AO2
14837KMSN MSN20020928011009409/28/02 01:10:31  5-MIN KMSN 280710Z 00000KT 10SM CLR 04/04 A3010 700 100 -300 000/00 RMK AO2
14837KMSN MSN20020928011509309/28/02 01:15:31  5-MIN KMSN 280715Z 00000KT 10SM CLR 05/04 A3009 700 96 -200 000/00 RMK AO2
14837KMSN MSN20020928012009309/28/02 01:20:31  5-MIN KMSN 280720Z 00000KT 10SM CLR 05/04 A3009 700 96 -200 000/00 RMK AO2
14837KMSN MSN20020928012509309/28/02 01:25:31  5-MIN KMSN 280725Z 00000KT 10SM CLR 05/04 A3009 710 96 -200 000/00 RMK AO2
14837KMSN MSN20020928013009309/28/02 01:30:31  5-MIN KMSN 280730Z 00000KT 10SM CLR 04/04 A3009 700 96 -300 000/00 RMK AO2
14837KMSN MSN20020928013509309/28/02 01:35:31  5-MIN KMSN 280735Z 00000KT 10SM CLR 04/04 A3009 700 96 -300 000/00 RMK AO2
14837KMSN MSN20020928014009309/28/02 01:40:31  5-MIN KMSN 280740Z 00000KT 10SM CLR 04/04 A3009 700 96 -300 000/00 RMK AO2
14837KMSN MSN20020928014509409/28/02 01:45:31  5-MIN KMSN 280745Z 00000KT 10SM CLR 04/04 A3009 700 100 -300 000/00 RMK AO2
14837KMSN MSN20020928015011009/28/02 01:50:31  5-MIN KMSN 280750Z 00000KT 10SM CLR 04/04 A3009 710 96 -300 000/00 RMK AO2 SLP194 T00440039
14837KMSN MSN20020928015509309/28/02 01:55:31  5-MIN KMSN 280755Z 00000KT 10SM CLR 04/04 A3009 710 96 -300 000/00 RMK AO2
14837KMSN MSN20020928020009309/28/02 02:00:31  5-MIN KMSN 280800Z 00000KT 10SM CLR 04/04 A3009 710 96 -300 000/00 RMK AO2
14837KMSN MSN20020928020509409/28/02 02:05:31  5-MIN KMSN 280805Z 00000KT 10SM CLR 04/04 A3009 710 100 -400 000/00 RMK AO2
14837KMSN MSN20020928021009309/28/02 02:10:31  5-MIN KMSN 280810Z 00000KT 10SM CLR 04/04 A3009 710 96 -300 000/00 RMK AO2
14837KMSN MSN20020928021509309/28/02 02:15:31  5-MIN KMSN 280815Z 00000KT 10SM CLR 04/04 A3009 700 96 -300 000/00 RMK AO2
14837KMSN MSN20020928022009309/28/02 02:20:31  5-MIN KMSN 280820Z 00000KT 10SM CLR 04/04 A3010 700 96 -300 000/00 RMK AO2
14837KMSN MSN20020928022509309/28/02 02:25:31  5-MIN KMSN 280825Z 00000KT 10SM CLR 04/04 A3010 700 96 -300 000/00 RMK AO2
14837KMSN MSN20020928023009409/28/02 02:30:31  5-MIN KMSN 280830Z 00000KT 10SM CLR 04/04 A3010 700 100 -300 000/00 RMK AO2
14837KMSN MSN20020928023509309/28/02 02:35:31  5-MIN KMSN 280835Z 00000KT 10SM CLR 04/04 A3010 700 96 -300 000/00 RMK AO2
14837KMSN MSN20020928024009409/28/02 02:40:31  5-MIN KMSN 280840Z 00000KT 10SM CLR 04/04 A3010 690 100 -400 000/00 RMK AO2
14837KMSN MSN20020928024509409/28/02 02:45:31  5-MIN KMSN 280845Z 31003KT 10SM CLR 04/04 A3011 690 100 -400 310/03 RMK AO2
14837KMSN MSN20020928025011609/28/02 02:50:31  5-MIN KMSN 280850Z 32003KT 10SM CLR 04/03 A3011 690 96 -400 320/03 RMK AO2 SLP199 T00390033 53010
14837KMSN MSN20020928025509309/28/02 02:55:31  5-MIN KMSN 280855Z 00000KT 10SM CLR 04/04 A3011 690 96 -300 000/00 RMK AO2
14837KMSN MSN20020928030009309/28/02 03:00:31  5-MIN KMSN 280900Z 00000KT 10SM CLR 04/03 A3011 690 96 -400 000/00 RMK AO2
14837KMSN MSN20020928030509409/28/02 03:05:31  5-MIN KMSN 280905Z 00000KT 10SM CLR 04/04 A3011 690 100 -400 000/00 RMK AO2
14837KMSN MSN20020928031009309/28/02 03:10:31  5-MIN KMSN 280910Z 00000KT 10SM CLR 04/04 A3011 690 96 -300 000/00 RMK AO2
14837KMSN MSN20020928031509309/28/02 03:15:31  5-MIN KMSN 280915Z 00000KT 10SM CLR 04/03 A3011 690 96 -400 000/00 RMK AO2
14837KMSN MSN20020928032009309/28/02 03:20:31  5-MIN KMSN 280920Z 00000KT 10SM CLR 04/03 A3011 690 96 -400 000/00 RMK AO2
14837KMSN MSN20020928032509309/28/02 03:25:31  5-MIN KMSN 280925Z 00000KT 10SM CLR 04/03 A3011 690 96 -400 000/00 RMK AO2
14837KMSN MSN20020928033009409/28/02 03:30:31  5-MIN KMSN 280930Z 00000KT 10SM CLR 04/04 A3011 680 100 -400 000/00 RMK AO2
14837KMSN MSN20020928033509309/28/02 03:35:31  5-MIN KMSN 280935Z 00000KT 10SM CLR 04/03 A3012 680 96 -400 000/00 RMK AO2
14837KMSN MSN20020928034009309/28/02 03:40:31  5-MIN KMSN 280940Z 00000KT 10SM CLR 04/03 A3012 680 96 -400 000/00 RMK AO2
14837KMSN MSN20020928034509309/28/02 03:45:31  5-MIN KMSN 280945Z 00000KT 10SM CLR 04/03 A3012 680 96 -400 000/00 RMK AO2
14837KMSN MSN20020928035011009/28/02 03:50:31  5-MIN KMSN 280950Z 00000KT 10SM CLR 04/03 A3012 680 96 -400 000/00 RMK AO2 SLP203 T00390033
14837KMSN MSN20020928035509309/28/02 03:55:31  5-MIN KMSN 280955Z 00000KT 10SM CLR 04/03 A3012 680 96 -400 000/00 RMK AO2
14837KMSN MSN20020928040009309/28/02 04:00:31  5-MIN KMSN 281000Z 00000KT 10SM CLR 04/03 A3012 680 96 -400 000/00 RMK AO2
14837KMSN MSN20020928040509309/28/02 04:05:31  5-MIN KMSN 281005Z 00000KT 10SM CLR 04/03 A3012 680 96 -400 000/00 RMK AO2
14837KMSN MSN20020928041009309/28/02 04:10:31  5-MIN KMSN 281010Z 00000KT 10SM CLR 04/03 A3013 670 96 -400 000/00 RMK AO2
14837KMSN MSN20020928041509409/28/02 04:15:31  5-MIN KMSN 281015Z 00000KT 10SM CLR 03/03 A3013 670 100 -500 000/00 RMK AO2
14837KMSN MSN20020928042009409/28/02 04:20:31  5-MIN KMSN 281020Z 00000KT 10SM CLR 03/03 A3013 670 100 -500 000/00 RMK AO2
14837KMSN MSN20020928042509309/28/02 04:25:31  5-MIN KMSN 281025Z 33003KT 10SM CLR 04/03 A3013 670 96 -400 330/03 RMK AO2
14837KMSN MSN20020928043009309/28/02 04:30:31  5-MIN KMSN 281030Z 00000KT 10SM CLR 04/03 A3013 670 96 -400 000/00 RMK AO2
14837KMSN MSN20020928043509309/28/02 04:35:31  5-MIN KMSN 281035Z 00000KT 10SM CLR 04/03 A3013 670 96 -400 000/00 RMK AO2
14837KMSN MSN20020928044009309/28/02 04:40:31  5-MIN KMSN 281040Z 00000KT 10SM CLR 04/03 A3014 660 96 -400 000/00 RMK AO2
14837KMSN MSN20020928044509309/28/02 04:45:31  5-MIN KMSN 281045Z 30003KT 10SM CLR 04/03 A3014 660 96 -400 300/03 RMK AO2
14837KMSN MSN20020928045011109/28/02 04:50:31  5-MIN KMSN 281050Z 32003KT 10SM CLR 04/04 A3014 660 100 -400 320/03 RMK AO2 SLP211 T00390039
14837KMSN MSN20020928045509309/28/02 04:55:31  5-MIN KMSN 281055Z 34003KT 10SM CLR 04/03 A3014 660 96 -400 340/03 RMK AO2
14837KMSN MSN20020928050009409/28/02 05:00:31  5-MIN KMSN 281100Z 00000KT 10SM CLR 04/04 A3014 660 100 -400 000/00 RMK AO2
14837KMSN MSN20020928050509309/28/02 05:05:31  5-MIN KMSN 281105Z 00000KT 10SM CLR 04/03 A3014 660 96 -400 000/00 RMK AO2
14837KMSN MSN20020928051009309/28/02 05:10:31  5-MIN KMSN 281110Z 00000KT 10SM CLR 04/03 A3015 660 96 -400 000/00 RMK AO2
14837KMSN MSN20020928051509209/28/02 05:15:31  5-MIN KMSN 281115Z 00000KT 7SM CLR 04/03 A3015 650 96 -400 000/00 RMK AO2
14837KMSN MSN20020928052009309/28/02 05:20:31  5-MIN KMSN 281120Z 00000KT 7SM CLR 04/04 A3015 660 100 -400 000/00 RMK AO2
14837KMSN MSN20020928052510009/28/02 05:25:31  5-MIN KMSN 281125Z 01003KT 6SM BR BCFG CLR 04/03 A3014 660 96 -400 010/03 RMK AO2
14837KMSN MSN20020928053010009/28/02 05:30:31  5-MIN KMSN 281130Z 36004KT 6SM BR BCFG CLR 03/03 A3014 660 96 -500 360/04 RMK AO2
14837KMSN MSN20020928053510009/28/02 05:35:31  5-MIN KMSN 281135Z 00000KT 6SM BR BCFG CLR 03/03 A3015 660 96 -500 000/00 RMK AO2
14837KMSN MSN20020928054010009/28/02 05:40:31  5-MIN KMSN 281140Z 00000KT 6SM BR BCFG CLR 04/03 A3015 650 96 -400 000/00 RMK AO2
14837KMSN MSN20020928054510009/28/02 05:45:31  5-MIN KMSN 281145Z 00000KT 6SM BR BCFG CLR 04/03 A3015 650 96 -400 000/00 RMK AO2
14837KMSN MSN20020928055013609/28/02 05:50:31  5-MIN KMSN 281150Z 00000KT 6SM BR BCFG CLR 03/03 A3015 650 100 -500 000/00 RMK AO2 SLP215 T00330033 10056 20033 51013
14837KMSN MSN20020928055510109/28/02 05:55:31  5-MIN KMSN 281155Z 00000KT 6SM BR BCFG CLR 03/03 A3015 650 100 -500 000/00 RMK AO2
14837KMSN MSN20020928060009209/28/02 06:00:31  5-MIN KMSN 281200Z 00000KT 8SM CLR 04/03 A3016 650 96 -500 000/00 RMK AO2
14837KMSN MSN20020928060509309/28/02 06:05:31  5-MIN KMSN 281205Z 00000KT 8SM CLR 04/04 A3016 650 100 -500 000/00 RMK AO2
14837KMSN MSN20020928061009209/28/02 06:10:31  5-MIN KMSN 281210Z 00000KT 8SM CLR 04/03 A3016 650 96 -500 000/00 RMK AO2
14837KMSN MSN20020928061509309/28/02 06:15:31  5-MIN KMSN 281215Z VRB03KT 8SM CLR 03/03 A3016 640 100 -500 VRB/03 RMK AO2
14837KMSN MSN20020928062009209/28/02 06:20:31  5-MIN KMSN 281220Z 03003KT 8SM CLR 04/03 A3016 640 96 -500 030/03 RMK AO2
14837KMSN MSN20020928062509209/28/02 06:25:31  5-MIN KMSN 281225Z 00000KT 8SM CLR 04/03 A3016 650 96 -500 000/00 RMK AO2
14837KMSN MSN20020928063009309/28/02 06:30:31  5-MIN KMSN 281230Z 05003KT 8SM CLR 04/04 A3016 650 100 -500 040/03 RMK AO2
14837KMSN MSN20020928063509209/28/02 06:35:31  5-MIN KMSN 281235Z 00000KT 8SM CLR 04/04 A3016 650 96 -400 000/00 RMK AO2
14837KMSN MSN20020928064009309/28/02 06:40:31  5-MIN KMSN 281240Z 01003KT 10SM CLR 05/04 A3016 640 96 -300 010/03 RMK AO2
14837KMSN MSN20020928064509309/28/02 06:45:31  5-MIN KMSN 281245Z 36003KT 10SM CLR 05/04 A3016 640 96 -300 360/03 RMK AO2
14837KMSN MSN20020928065011009/28/02 06:50:31  5-MIN KMSN 281250Z 36003KT 10SM CLR 06/05 A3016 640 96 -300 360/03 RMK AO2 SLP219 T00560050
14837KMSN MSN20020928065509309/28/02 06:55:31  5-MIN KMSN 281255Z 00000KT 10SM CLR 07/06 A3017 640 93 -100 000/00 RMK AO2
14837KMSN MSN20020928070009209/28/02 07:00:31  5-MIN KMSN 281300Z 01003KT 9SM CLR 07/06 A3017 640 93 -100 010/03 RMK AO2
14837KMSN MSN20020928070508909/28/02 07:05:31  5-MIN KMSN 281305Z 00000KT 9SM CLR 08/06 A3017 640 89 0 000/00 RMK AO2
14837KMSN MSN20020928071009009/28/02 07:10:31  5-MIN KMSN 281310Z 00000KT 10SM CLR 08/06 A3017 640 86 0 000/00 RMK AO2
14837KMSN MSN20020928071509209/28/02 07:15:31  5-MIN KMSN 281315Z 00000KT 10SM CLR 09/07 A3017 640 86 100 000/00 RMK AO2
14837KMSN MSN20020928072009209/28/02 07:20:31  5-MIN KMSN 281320Z 00000KT 10SM CLR 09/07 A3017 640 86 100 000/00 RMK AO2
14837KMSN MSN20020928072509209/28/02 07:25:31  5-MIN KMSN 281325Z 00000KT 10SM CLR 09/07 A3016 640 86 100 000/00 RMK AO2
14837KMSN MSN20020928073009209/28/02 07:30:31  5-MIN KMSN 281330Z 00000KT 10SM CLR 09/07 A3017 640 86 200 000/00 RMK AO2
14837KMSN MSN20020928073509209/28/02 07:35:31  5-MIN KMSN 281335Z 00000KT 10SM CLR 10/07 A3017 640 83 200 000/00 RMK AO2
14837KMSN MSN20020928074009209/28/02 07:40:31  5-MIN KMSN 281340Z 00000KT 10SM CLR 11/08 A3017 640 83 300 000/00 RMK AO2
14837KMSN MSN20020928074509209/28/02 07:45:31  5-MIN KMSN 281345Z 00000KT 10SM CLR 11/08 A3017 640 83 300 000/00 RMK AO2
14837KMSN MSN20020928075010909/28/02 07:50:31  5-MIN KMSN 281350Z 00000KT 10SM CLR 11/08 A3017 640 83 400 000/00 RMK AO2 SLP218 T01110083
14837KMSN MSN20020928075509209/28/02 07:55:31  5-MIN KMSN 281355Z 00000KT 10SM CLR 12/08 A3017 640 80 400 000/00 RMK AO2
14837KMSN MSN20020928080009209/28/02 08:00:31  5-MIN KMSN 281400Z 09005KT 10SM CLR 12/09 A3017 640 80 500 090/05 RMK AO2
14837KMSN MSN20020928080509209/28/02 08:05:31  5-MIN KMSN 281405Z 10005KT 10SM CLR 12/09 A3017 640 80 500 100/05 RMK AO2
14837KMSN MSN20020928081009209/28/02 08:10:31  5-MIN KMSN 281410Z 11008KT 10SM CLR 12/09 A3017 640 80 500 110/08 RMK AO2
14837KMSN MSN20020928081509209/28/02 08:15:31  5-MIN KMSN 281415Z 12009KT 10SM CLR 12/09 A3017 640 80 500 120/09 RMK AO2
14837KMSN MSN20020928082009209/28/02 08:20:31  5-MIN KMSN 281420Z 12007KT 10SM CLR 13/08 A3017 640 74 600 110/07 RMK AO2
14837KMSN MSN20020928082509209/28/02 08:25:31  5-MIN KMSN 281425Z 12007KT 10SM CLR 13/09 A3016 640 77 600 120/07 RMK AO2
14837KMSN MSN20020928083009209/28/02 08:30:31  5-MIN KMSN 281430Z 13008KT 10SM CLR 14/09 A3017 640 71 700 130/08 RMK AO2
14837KMSN MSN20020928083509209/28/02 08:35:31  5-MIN KMSN 281435Z 13009KT 10SM CLR 14/09 A3016 640 71 700 130/09 RMK AO2
14837KMSN MSN20020928084009209/28/02 08:40:31  5-MIN KMSN 281440Z 13009KT 10SM CLR 14/08 A3016 640 69 700 130/09 RMK AO2
14837KMSN MSN20020928084509209/28/02 08:45:31  5-MIN KMSN 281445Z 14012KT 10SM CLR 14/09 A3016 640 71 700 140/12 RMK AO2
14837KMSN MSN20020928085011509/28/02 08:50:31  5-MIN KMSN 281450Z 13010KT 10SM CLR 14/09 A3017 640 69 800 130/10 RMK AO2 SLP218 T01440089 52014
14837KMSN MSN20020928085509209/28/02 08:55:31  5-MIN KMSN 281455Z 14008KT 10SM CLR 14/09 A3017 630 69 800 140/08 RMK AO2
14837KMSN MSN20020928090009209/28/02 09:00:31  5-MIN KMSN 281500Z 14011KT 10SM CLR 15/09 A3017 630 66 800 140/11 RMK AO2
14837KMSN MSN20020928090509209/28/02 09:05:31  5-MIN KMSN 281505Z 14010KT 10SM CLR 15/09 A3017 640 66 800 140/10 RMK AO2
14837KMSN MSN20020928091009209/28/02 09:10:31  5-MIN KMSN 281510Z 14011KT 10SM CLR 15/09 A3017 640 66 800 140/11 RMK AO2
14837KMSN MSN20020928091509209/28/02 09:15:31  5-MIN KMSN 281515Z 13011KT 10SM CLR 16/09 A3017 640 64 900 120/11 RMK AO2
14837KMSN MSN20020928092009209/28/02 09:20:31  5-MIN KMSN 281520Z 14009KT 10SM CLR 16/09 A3016 640 64 900 140/09 RMK AO2
14837KMSN MSN20020928092509909/28/02 09:25:31  5-MIN KMSN 281525Z 14012G16KT 10SM CLR 16/09 A3016 640 64 1000 140/12G16 RMK AO2
14837KMSN MSN20020928093009909/28/02 09:30:31  5-MIN KMSN 281530Z 13013G16KT 10SM CLR 16/09 A3016 640 62 1000 130/13G16 RMK AO2
14837KMSN MSN20020928093509309/28/02 09:35:31  5-MIN KMSN 281535Z 16011KT 10SM CLR 16/09 A3016 640 62 1000 150/11 RMK AO2
14837KMSN MSN20020928094009309/28/02 09:40:31  5-MIN KMSN 281540Z 15012KT 10SM CLR 17/09 A3016 640 60 1000 150/12 RMK AO2
14837KMSN MSN20020928094509309/28/02 09:45:31  5-MIN KMSN 281545Z 14014KT 10SM CLR 17/09 A3016 640 60 1000 140/14 RMK AO2
14837KMSN MSN20020928095011009/28/02 09:50:31  5-MIN KMSN 281550Z 14013KT 10SM CLR 17/08 A3017 640 55 1100 140/13 RMK AO2 SLP218 T01720083
14837KMSN MSN20020928095509309/28/02 09:55:31  5-MIN KMSN 281555Z 16011KT 10SM CLR 17/09 A3017 630 57 1100 160/11 RMK AO2
14837KMSN MSN20020928100009309/28/02 10:00:31  5-MIN KMSN 281600Z 15014KT 10SM CLR 17/09 A3017 640 57 1100 150/14 RMK AO2
14837KMSN MSN20020928100509309/28/02 10:05:31  5-MIN KMSN 281605Z 16013KT 10SM CLR 17/09 A3017 640 57 1100 160/13 RMK AO2
14837KMSN MSN20020928101009309/28/02 10:10:31  5-MIN KMSN 281610Z 15011KT 10SM CLR 17/09 A3017 640 57 1100 150/11 RMK AO2
14837KMSN MSN20020928101509309/28/02 10:15:31  5-MIN KMSN 281615Z 14010KT 10SM CLR 17/09 A3016 640 57 1100 140/10 RMK AO2
14837KMSN MSN20020928102009309/28/02 10:20:31  5-MIN KMSN 281620Z 17011KT 10SM CLR 17/09 A3016 650 60 1100 170/11 RMK AO2
14837KMSN MSN20020928102509309/28/02 10:25:31  5-MIN KMSN 281625Z 15011KT 10SM CLR 18/09 A3016 650 58 1200 150/11 RMK AO2
14837KMSN MSN20020928103009309/28/02 10:30:31  5-MIN KMSN 281630Z 15011KT 10SM CLR 17/09 A3015 650 60 1100 150/11 RMK AO2
14837KMSN MSN20020928103509309/28/02 10:35:31  5-MIN KMSN 281635Z 16011KT 10SM CLR 18/09 A3015 650 58 1200 160/11 RMK AO2
14837KMSN MSN20020928104009309/28/02 10:40:31  5-MIN KMSN 281640Z 16012KT 10SM CLR 18/09 A3015 660 58 1200 150/12 RMK AO2
14837KMSN MSN20020928104509309/28/02 10:45:31  5-MIN KMSN 281645Z 15012KT 10SM CLR 18/10 A3015 660 60 1200 150/12 RMK AO2
14837KMSN MSN20020928105011009/28/02 10:50:31  5-MIN KMSN 281650Z 16010KT 10SM CLR 18/10 A3015 660 58 1200 150/10 RMK AO2 SLP210 T01830100
14837KMSN MSN20020928105509309/28/02 10:55:31  5-MIN KMSN 281655Z 14011KT 10SM CLR 18/10 A3014 660 58 1200 140/11 RMK AO2
14837KMSN MSN20020928110009309/28/02 11:00:31  5-MIN KMSN 281700Z 18010KT 10SM CLR 18/10 A3014 660 58 1200 180/10 RMK AO2
14837KMSN MSN20020928110509909/28/02 11:05:31  5-MIN KMSN 281705Z 15012G15KT 10SM CLR 19/10 A3013 670 56 1300 150/12G15 RMK AO2
14837KMSN MSN20020928111009909/28/02 11:10:31  5-MIN KMSN 281710Z 16008G15KT 10SM CLR 18/10 A3013 670 58 1300 160/08G15 RMK AO2
14837KMSN MSN20020928111509309/28/02 11:15:31  5-MIN KMSN 281715Z 18008KT 10SM CLR 19/10 A3013 670 56 1300 180/08 RMK AO2
14837KMSN MSN20020928112009309/28/02 11:20:31  5-MIN KMSN 281720Z 17009KT 10SM CLR 19/10 A3013 670 56 1300 170/09 RMK AO2
14837KMSN MSN20020928112509309/28/02 11:25:31  5-MIN KMSN 281725Z 16008KT 10SM CLR 18/10 A3013 670 58 1300 160/08 RMK AO2
14837KMSN MSN20020928113009309/28/02 11:30:31  5-MIN KMSN 281730Z 18007KT 10SM CLR 19/10 A3013 670 56 1300 170/07 RMK AO2
14837KMSN MSN20020928113509309/28/02 11:35:31  5-MIN KMSN 281735Z 15009KT 10SM CLR 19/10 A3013 670 56 1300 150/09 RMK AO2
14837KMSN MSN20020928114009309/28/02 11:40:31  5-MIN KMSN 281740Z 16009KT 10SM CLR 19/10 A3012 680 56 1300 160/09 RMK AO2
14837KMSN MSN20020928114509309/28/02 11:45:31  5-MIN KMSN 281745Z 16008KT 10SM CLR 19/11 A3012 680 58 1300 160/08 RMK AO2
14837KMSN MSN20020928115012809/28/02 11:50:31  5-MIN KMSN 281750Z 20007KT 10SM CLR 19/11 A3012 680 56 1400 200/07 RMK AO2 SLP201 T01940106 10194 20033 51005
14837KMSN MSN20020928115509309/28/02 11:55:31  5-MIN KMSN 281755Z 17008KT 10SM CLR 19/10 A3011 690 54 1400 170/08 RMK AO2
14837KMSN MSN20020928120009309/28/02 12:00:31  5-MIN KMSN 281800Z 16010KT 10SM CLR 20/11 A3011 690 54 1500 150/10 RMK AO2
14837KMSN MSN20020928120509309/28/02 12:05:31  5-MIN KMSN 281805Z 20008KT 10SM CLR 19/10 A3011 690 54 1400 200/08 RMK AO2
14837KMSN MSN20020928121009309/28/02 12:10:31  5-MIN KMSN 281810Z 17007KT 10SM CLR 19/10 A3011 690 54 1400 170/07 RMK AO2
14837KMSN MSN20020928121509309/28/02 12:15:31  5-MIN KMSN 281815Z 21008KT 10SM CLR 20/11 A3011 690 54 1500 200/08 RMK AO2
14837KMSN MSN20020928122009309/28/02 12:20:31  5-MIN KMSN 281820Z 19006KT 10SM CLR 19/10 A3011 690 56 1300 190/06 RMK AO2
14837KMSN MSN20020928122509609/28/02 12:25:31  5-MIN KMSN 281825Z 17006KT 10SM FEW039 19/11 A3011 690 58 1300 170/06 RMK AO2
14837KMSN MSN20020928123010309/28/02 12:30:31  5-MIN KMSN 281830Z 17009KT 10SM SCT039 BKN047 19/11 A3011 690 56 1400 170/09 RMK AO2
14837KMSN MSN20020928123510309/28/02 12:35:31  5-MIN KMSN 281835Z 17008KT 10SM BKN039 BKN047 19/11 A3011 690 58 1300 170/08 RMK AO2
14837KMSN MSN20020928124010309/28/02 12:40:31  5-MIN KMSN 281840Z VRB04KT 10SM BKN039 BKN047 19/11 A3011 690 58 1300 VRB/04 RMK AO2
14837KMSN MSN20020928124510309/28/02 12:45:31  5-MIN KMSN 281845Z 22006KT 10SM BKN037 OVC047 19/11 A3010 700 60 1400 220/06 RMK AO2
14837KMSN MSN20020928125011309/28/02 12:50:31  5-MIN KMSN 281850Z 21007KT 10SM OVC037 19/11 A3010 700 58 1400 210/07 RMK AO2 SLP194 T01940111
14837KMSN MSN20020928125509609/28/02 12:55:31  5-MIN KMSN 281855Z 20007KT 10SM OVC037 19/11 A3010 700 58 1400 190/07 RMK AO2
14837KMSN MSN20020928130009609/28/02 13:00:31  5-MIN KMSN 281900Z 21007KT 10SM OVC037 19/11 A3010 700 58 1400 210/07 RMK AO2
14837KMSN MSN20020928130510309/28/02 13:05:31  5-MIN KMSN 281905Z 22006KT 10SM BKN037 OVC060 19/11 A3009 700 58 1400 220/06 RMK AO2
14837KMSN MSN20020928131010209/28/02 13:10:31  5-MIN KMSN 281910Z 21008KT 9SM BKN037 OVC060 19/11 A3009 710 58 1400 210/08 RMK AO2
14837KMSN MSN20020928131510209/28/02 13:15:31  5-MIN KMSN 281915Z 20004KT 9SM BKN037 OVC060 19/11 A3009 710 58 1400 200/04 RMK AO2
14837KMSN MSN20020928132010209/28/02 13:20:31  5-MIN KMSN 281920Z 24004KT 9SM SCT037 OVC065 19/11 A3009 710 58 1400 240/04 RMK AO2
14837KMSN MSN20020928132510209/28/02 13:25:31  5-MIN KMSN 281925Z VRB06KT 9SM SCT037 OVC065 19/12 A3009 710 60 1400 VRB/06 RMK AO2
14837KMSN MSN20020928133010209/28/02 13:30:31  5-MIN KMSN 281930Z 20007KT 9SM FEW037 OVC060 19/11 A3009 710 58 1400 190/07 RMK AO2
14837KMSN MSN20020928133510209/28/02 13:35:31  5-MIN KMSN 281935Z VRB05KT 8SM FEW037 OVC065 20/11 A3008 710 56 1500 VRB/05 RMK AO2
14837KMSN MSN20020928134009509/28/02 13:40:31  5-MIN KMSN 281940Z 23005KT 9SM OVC065 19/12 A3008 720 60 1400 230/05 RMK AO2
14837KMSN MSN20020928134509509/28/02 13:45:31  5-MIN KMSN 281945Z 21005KT 8SM OVC065 19/12 A3008 720 60 1400 210/05 RMK AO2
14837KMSN MSN20020928135011309/28/02 13:50:31  5-MIN KMSN 281950Z 19007KT 10SM OVC065 20/12 A3008 720 58 1500 190/07 RMK AO2 SLP187 T02000117
14837KMSN MSN20020928135509509/28/02 13:55:31  5-MIN KMSN 281955Z VRB06KT 9SM BKN065 20/12 A3008 720 58 1500 VRB/06 RMK AO2
14837KMSN MSN20020928140011109/28/02 14:00:31  5-MIN KMSN 282000Z 19007KT 150V210 9SM SCT065 20/12 A3008 720 58 1500 190/07 150V210 RMK AO2
14837KMSN MSN20020928140509509/28/02 14:05:31  5-MIN KMSN 282005Z 19009KT 9SM SCT065 20/12 A3007 720 58 1500 190/09 RMK AO2
14837KMSN MSN20020928141009509/28/02 14:10:31  5-MIN KMSN 282010Z 19006KT 8SM FEW065 20/12 A3007 720 58 1500 190/06 RMK AO2
14837KMSN MSN20020928141509509/28/02 14:15:31  5-MIN KMSN 282015Z 20006KT 8SM FEW065 20/12 A3007 720 58 1500 200/06 RMK AO2
14837KMSN MSN20020928142009509/28/02 14:20:31  5-MIN KMSN 282020Z 20007KT 8SM FEW037 20/12 A3008 720 58 1500 200/07 RMK AO2
14837KMSN MSN20020928142509509/28/02 14:25:31  5-MIN KMSN 282025Z 21006KT 8SM FEW037 20/12 A3008 720 58 1500 200/06 RMK AO2
14837KMSN MSN20020928143009509/28/02 14:30:31  5-MIN KMSN 282030Z 23005KT 8SM SCT037 19/12 A3008 720 60 1400 220/05 RMK AO2
14837KMSN MSN20020928143509509/28/02 14:35:31  5-MIN KMSN 282035Z VRB04KT 8SM BKN037 19/12 A3008 720 60 1400 VRB/04 RMK AO2
14837KMSN MSN20020928144009509/28/02 14:40:31  5-MIN KMSN 282040Z 20005KT 7SM BKN037 19/12 A3007 720 62 1400 200/05 RMK AO2
14837KMSN MSN20020928144509509/28/02 14:45:31  5-MIN KMSN 282045Z VRB04KT 7SM BKN037 19/12 A3007 730 60 1500 VRB/04 RMK AO2
14837KMSN MSN20020928145012509/28/02 14:50:31  5-MIN KMSN 282050Z 23005KT 9SM BKN037 BKN065 20/12 A3007 730 60 1500 230/05 RMK AO2 SLP183 T02000122 58017
14837KMSN MSN20020928145510209/28/02 14:55:31  5-MIN KMSN 282055Z 24003KT 7SM FEW037 BKN065 19/12 A3006 730 62 1500 240/03 RMK AO2
14837KMSN MSN20020928150010209/28/02 15:00:31  5-MIN KMSN 282100Z 18004KT 7SM FEW037 BKN065 19/12 A3006 730 60 1500 180/04 RMK AO2
14837KMSN MSN20020928150510209/28/02 15:05:31  5-MIN KMSN 282105Z 17005KT 7SM FEW037 BKN065 19/12 A3006 740 62 1500 170/05 RMK AO2
14837KMSN MSN20020928151010209/28/02 15:10:31  5-MIN KMSN 282110Z 19004KT 7SM FEW037 BKN065 19/12 A3006 730 62 1500 190/04 RMK AO2
14837KMSN MSN20020928151510209/28/02 15:15:31  5-MIN KMSN 282115Z 00000KT 7SM FEW037 BKN065 19/12 A3006 730 62 1500 000/00 RMK AO2
14837KMSN MSN20020928152010509/28/02 15:20:31  5-MIN KMSN 282120Z 20004KT 6SM HZ FEW037 BKN065 20/12 A3006 730 60 1500 200/04 RMK AO2
14837KMSN MSN20020928152510209/28/02 15:25:31  5-MIN KMSN 282125Z 17004KT 7SM FEW037 BKN065 20/12 A3006 730 60 1500 170/04 RMK AO2
14837KMSN MSN20020928153010209/28/02 15:30:31  5-MIN KMSN 282130Z VRB04KT 7SM FEW037 BKN065 20/13 A3006 730 63 1500 VRB/04 RMK AO2
14837KMSN MSN20020928153510209/28/02 15:35:31  5-MIN KMSN 282135Z 19004KT 7SM FEW037 BKN065 20/12 A3006 730 60 1500 190/04 RMK AO2
14837KMSN MSN20020928154010209/28/02 15:40:31  5-MIN KMSN 282140Z 16005KT 7SM FEW037 BKN065 20/13 A3006 740 63 1500 160/05 RMK AO2
14837KMSN MSN20020928154510209/28/02 15:45:31  5-MIN KMSN 282145Z 17006KT 7SM FEW049 BKN065 20/12 A3006 740 60 1500 170/06 RMK AO2
14837KMSN MSN20020928155011909/28/02 15:50:31  5-MIN KMSN 282150Z 17004KT 8SM FEW049 BKN065 19/12 A3006 740 60 1500 160/04 RMK AO2 SLP180 T01940117
14837KMSN MSN20020928155510209/28/02 15:55:31  5-MIN KMSN 282155Z 18004KT 7SM FEW042 SCT049 19/12 A3006 740 62 1500 180/04 RMK AO2
14837KMSN MSN20020928160010209/28/02 16:00:31  5-MIN KMSN 282200Z 18003KT 7SM SCT042 BKN049 19/12 A3006 740 60 1500 180/03 RMK AO2
14837KMSN MSN20020928160510209/28/02 16:05:31  5-MIN KMSN 282205Z 00000KT 7SM SCT042 BKN049 19/12 A3006 740 62 1500 000/00 RMK AO2
14837KMSN MSN20020928161010209/28/02 16:10:31  5-MIN KMSN 282210Z 00000KT 7SM SCT042 BKN049 19/13 A3006 740 67 1400 000/00 RMK AO2
14837KMSN MSN20020928161510509/28/02 16:15:31  5-MIN KMSN 282215Z 14004KT 6SM HZ BKN045 BKN055 19/12 A3006 740 62 1500 140/04 RMK AO2
14837KMSN MSN20020928162009509/28/02 16:20:31  5-MIN KMSN 282220Z 16003KT 7SM BKN047 19/12 A3006 730 62 1500 150/03 RMK AO2
14837KMSN MSN20020928162509509/28/02 16:25:31  5-MIN KMSN 282225Z 00000KT 7SM BKN047 18/13 A3006 730 72 1300 000/00 RMK AO2
14837KMSN MSN20020928163009809/28/02 16:30:31  5-MIN KMSN 282230Z 00000KT 6SM HZ OVC047 19/13 A3006 730 70 1400 000/00 RMK AO2
14837KMSN MSN20020928163510509/28/02 16:35:31  5-MIN KMSN 282235Z 17003KT 6SM HZ BKN047 BKN060 19/13 A3006 730 67 1400 170/03 RMK AO2
14837KMSN MSN20020928164010509/28/02 16:40:31  5-MIN KMSN 282240Z 00000KT 6SM HZ BKN047 BKN060 19/13 A3006 730 67 1400 000/00 RMK AO2
14837KMSN MSN20020928164510509/28/02 16:45:31  5-MIN KMSN 282245Z 17004KT 6SM HZ BKN047 BKN060 18/13 A3006 740 72 1300 170/04 RMK AO2
14837KMSN MSN20020928165011909/28/02 16:50:31  5-MIN KMSN 282250Z 16003KT 7SM SCT047 SCT060 19/12 A3006 730 65 1400 160/03 RMK AO2 SLP181 T01890122
14837KMSN MSN20020928165510209/28/02 16:55:31  5-MIN KMSN 282255Z 13004KT 7SM FEW047 SCT060 18/13 A3006 740 70 1300 130/04 RMK AO2
14837KMSN MSN20020928170009509/28/02 17:00:31  5-MIN KMSN 282300Z 12005KT 7SM FEW047 18/13 A3006 740 70 1300 120/05 RMK AO2
14837KMSN MSN20020928170509509/28/02 17:05:31  5-MIN KMSN 282305Z 12004KT 7SM FEW060 18/12 A3006 740 67 1300 120/04 RMK AO2
14837KMSN MSN20020928171009509/28/02 17:10:31  5-MIN KMSN 282310Z 12004KT 7SM FEW060 18/12 A3006 740 67 1300 120/04 RMK AO2
14837KMSN MSN20020928171509509/28/02 17:15:31  5-MIN KMSN 282315Z 11004KT 7SM FEW060 18/13 A3006 740 70 1300 110/04 RMK AO2
14837KMSN MSN20020928172009509/28/02 17:20:31  5-MIN KMSN 282320Z 10003KT 7SM FEW060 18/12 A3007 730 69 1300 100/03 RMK AO2
14837KMSN MSN20020928172509509/28/02 17:25:31  5-MIN KMSN 282325Z 00000KT 7SM SCT060 17/13 A3007 730 75 1200 000/00 RMK AO2
14837KMSN MSN20020928173009809/28/02 17:30:31  5-MIN KMSN 282330Z 00000KT 6SM HZ BKN060 16/13 A3007 720 83 1100 000/00 RMK AO2
14837KMSN MSN20020928173509809/28/02 17:35:31  5-MIN KMSN 282335Z 00000KT 5SM HZ BKN060 17/13 A3007 720 80 1100 000/00 RMK AO2
14837KMSN MSN20020928174010509/28/02 17:40:31  5-MIN KMSN 282340Z 00000KT 6SM HZ BKN060 BKN075 17/13 A3007 730 80 1100 000/00 RMK AO2
14837KMSN MSN20020928174510509/28/02 17:45:31  5-MIN KMSN 282345Z 00000KT 6SM HZ BKN060 BKN075 17/13 A3007 730 80 1100 000/00 RMK AO2
14837KMSN MSN20020928175014009/28/02 17:50:31  5-MIN KMSN 282350Z 04003KT 6SM HZ SCT060 BKN075 17/13 A3007 730 80 1100 040/03 RMK AO2 SLP184 T01670133 10200 20161 56017
14837KMSN MSN20020928175509809/28/02 17:55:31  5-MIN KMSN 282355Z 03004KT 6SM HZ BKN070 17/13 A3007 730 80 1100 030/04 RMK AO2
14837KMSN MSN20020928180009809/28/02 18:00:31  5-MIN KMSN 290000Z 04005KT 6SM HZ BKN070 16/13 A3006 730 80 1100 040/05 RMK AO2
14837KMSN MSN20020928180509809/28/02 18:05:31  5-MIN KMSN 290005Z 05004KT 6SM HZ SCT070 16/12 A3006 730 77 1100 050/04 RMK AO2
14837KMSN MSN20020928181009509/28/02 18:10:31  5-MIN KMSN 290010Z 05006KT 7SM FEW070 16/12 A3006 740 77 1100 050/06 RMK AO2
14837KMSN MSN20020928181509509/28/02 18:15:31  5-MIN KMSN 290015Z 06005KT 7SM FEW070 16/12 A3006 740 80 1000 060/05 RMK AO2
14837KMSN MSN20020928182009809/28/02 18:20:31  5-MIN KMSN 290020Z 05004KT 6SM HZ SCT070 16/13 A3006 740 83 1000 050/04 RMK AO2
14837KMSN MSN20020928182509809/28/02 18:25:31  5-MIN KMSN 290025Z 06005KT 6SM HZ BKN065 16/13 A3006 740 83 1000 060/05 RMK AO2
14837KMSN MSN20020928183009809/28/02 18:30:31  5-MIN KMSN 290030Z 07004KT 6SM HZ BKN070 16/13 A3006 740 80 1100 070/04 RMK AO2
14837KMSN MSN20020928183509809/28/02 18:35:31  5-MIN KMSN 290035Z 09004KT 6SM HZ BKN070 16/13 A3005 740 83 1000 090/04 RMK AO2
14837KMSN MSN20020928184009809/28/02 18:40:31  5-MIN KMSN 290040Z 12004KT 6SM HZ BKN065 16/12 A3005 740 77 1100 110/04 RMK AO2
14837KMSN MSN20020928184509809/28/02 18:45:31  5-MIN KMSN 290045Z 11004KT 6SM HZ BKN065 16/12 A3005 750 77 1100 110/04 RMK AO2
14837KMSN MSN20020928185011209/28/02 18:50:31  5-MIN KMSN 290050Z 12005KT 7SM SCT070 16/12 A3005 750 77 1100 120/05 RMK AO2 SLP178 T01610122
14837KMSN MSN20020928185509509/28/02 18:55:31  5-MIN KMSN 290055Z 10004KT 7SM SCT070 17/12 A3005 740 75 1200 100/04 RMK AO2
14837KMSN MSN20020928190009709/28/02 19:00:31  5-MIN KMSN 290100Z 35003KT 6SM BR FEW065 14/12 A3006 740 86 900 340/03 RMK AO2
14837KMSN MSN20020928190509809/28/02 19:05:31  5-MIN KMSN 290105Z 03004KT 6SM BR SCT065 15/13 A3005 750 86 1000 030/04 RMK AO2
14837KMSN MSN20020928191009809/28/02 19:10:31  5-MIN KMSN 290110Z 04003KT 6SM HZ FEW065 16/12 A3005 740 80 1000 040/03 RMK AO2
14837KMSN MSN20020928191510509/28/02 19:15:31  5-MIN KMSN 290115Z 05003KT 6SM HZ FEW065 SCT120 16/12 A3005 740 80 1000 050/03 RMK AO2
14837KMSN MSN20020928192010509/28/02 19:20:31  5-MIN KMSN 290120Z 06003KT 6SM HZ FEW065 BKN120 16/12 A3005 740 80 1000 060/03 RMK AO2
14837KMSN MSN20020928192510409/28/02 19:25:31  5-MIN KMSN 290125Z 00000KT 6SM BR SCT065 BKN120 14/12 A3006 740 86 900 000/00 RMK AO2
14837KMSN MSN20020928193010409/28/02 19:30:31  5-MIN KMSN 290130Z 00000KT 6SM BR BKN065 BKN120 14/12 A3006 740 86 900 000/00 RMK AO2
14837KMSN MSN20020928193510409/28/02 19:35:31  5-MIN KMSN 290135Z 00000KT 6SM HZ BKN065 BKN120 15/12 A3006 740 83 900 000/00 RMK AO2
14837KMSN MSN20020928194010409/28/02 19:40:31  5-MIN KMSN 290140Z 00000KT 6SM BR BKN060 OVC110 15/13 A3006 740 86 900 000/00 RMK AO2
14837KMSN MSN20020928194510409/28/02 19:45:31  5-MIN KMSN 290145Z 00000KT 6SM BR SCT065 OVC110 15/13 A3006 740 86 900 000/00 RMK AO2
14837KMSN MSN20020928195011809/28/02 19:50:31  5-MIN KMSN 290150Z 01003KT 7SM BKN060 OVC110 15/13 A3006 740 86 900 010/03 RMK AO2 SLP180 T01500128
14837KMSN MSN20020928195510409/28/02 19:55:31  5-MIN KMSN 290155Z 02003KT 6SM BR BKN060 OVC110 15/13 A3006 730 86 900 020/03 RMK AO2
14837KMSN MSN20020928200010409/28/02 20:00:31  5-MIN KMSN 290200Z 36003KT 6SM BR BKN060 OVC110 15/13 A3007 730 86 900 360/03 RMK AO2
14837KMSN MSN20020928200510409/28/02 20:05:31  5-MIN KMSN 290205Z 02004KT 6SM BR BKN060 OVC110 15/13 A3006 730 86 900 020/04 RMK AO2
14837KMSN MSN20020928201010509/28/02 20:10:31  5-MIN KMSN 290210Z 02004KT 6SM HZ BKN060 OVC110 16/13 A3006 730 83 1000 010/04 RMK AO2
14837KMSN MSN20020928201510509/28/02 20:15:31  5-MIN KMSN 290215Z 36006KT 6SM HZ SCT060 OVC110 16/13 A3006 730 83 1000 360/06 RMK AO2
14837KMSN MSN20020928202010509/28/02 20:20:31  5-MIN KMSN 290220Z 34004KT 6SM HZ SCT060 OVC110 16/13 A3007 730 83 1000 330/04 RMK AO2
14837KMSN MSN20020928202510509/28/02 20:25:31  5-MIN KMSN 290225Z 34003KT 6SM HZ FEW060 OVC100 16/13 A3007 730 83 1000 340/03 RMK AO2
14837KMSN MSN20020928203010509/28/02 20:30:31  5-MIN KMSN 290230Z 33003KT 6SM HZ SCT060 OVC100 16/13 A3008 720 83 1000 330/03 RMK AO2
14837KMSN MSN20020928203511209/28/02 20:35:31  5-MIN KMSN 290235Z 00000KT 6SM HZ SCT055 BKN085 OVC100 16/13 A3008 720 83 1000 000/00 RMK AO2
14837KMSN MSN20020928204011109/28/02 20:40:31  5-MIN KMSN 290240Z 34003KT 6SM BR SCT060 BKN085 OVC100 15/13 A3008 720 86 900 340/03 RMK AO2
14837KMSN MSN20020928204512509/28/02 20:45:31  5-MIN KMSN 290245Z 33003KT 6SM -RA SCT060 BKN080 OVC100 16/13 A3009 710 83 1000 330/03 RMK AO2 RAB42 P0000
14837KMSN MSN20020928205015609/28/02 20:50:31  5-MIN KMSN 290250Z 32003KT 6SM -RA BR BKN060 BKN080 OVC100 15/13 A3009 700 86 900 320/03 RMK AO2 RAB42 SLP191 P0000 60000 T01500128 53001
14837KMSN MSN20020928205511209/28/02 20:55:31  5-MIN KMSN 290255Z 30003KT 5SM -RA BKN060 OVC080 16/13 A3010 700 83 1000 300/03 RMK AO2 P0000
14837KMSN MSN20020928210011509/28/02 21:00:31  5-MIN KMSN 290300Z 00000KT 4SM -RA BR BKN060 OVC080 16/13 A3010 700 86 1000 000/00 RMK AO2 P0001
14837KMSN MSN20020928210511509/28/02 21:05:31  5-MIN KMSN 290305Z 00000KT 3SM -RA BR BKN060 OVC085 16/13 A3009 710 86 1000 000/00 RMK AO2 P0001
14837KMSN MSN20020928211011409/28/02 21:10:31  5-MIN KMSN 290310Z 00000KT 4SM -RA BR BKN060 OVC085 15/13 A3008 720 90 900 000/00 RMK AO2 P0001
14837KMSN MSN20020928211512909/28/02 21:15:31  5-MIN KMSN 290315Z 12004KT 4SM -RA BR BKN045 BKN060 OVC090 16/14 A3008 720 90 1000 110/04 RMK AO2 PRESFR P0002
14837KMSN MSN20020928212012809/28/02 21:20:31  5-MIN KMSN 290320Z 12004KT 3SM -RA BR BKN037 BKN060 OVC090 15/14 A3007 730 96 900 110/04 RMK AO2 PRESFR P0003
14837KMSN MSN20020928212512809/28/02 21:25:31  5-MIN KMSN 290325Z 12005KT 3SM -RA BR BKN035 BKN060 OVC085 15/14 A3006 730 96 900 120/05 RMK AO2 PRESFR P0003
14837KMSN MSN20020928213012209/28/02 21:30:31  5-MIN KMSN 290330Z 12005KT 3SM -RA BR BKN033 OVC060 16/14 A3006 740 90 1000 120/05 RMK AO2 PRESFR P0003
14837KMSN MSN20020928213511509/28/02 21:35:31  5-MIN KMSN 290335Z 12005KT 4SM -RA BR BKN033 OVC110 16/14 A3006 740 90 1000 120/05 RMK AO2 P0003
14837KMSN MSN20020928214011509/28/02 21:40:31  5-MIN KMSN 290340Z 14004KT 4SM -RA BR BKN031 OVC110 16/14 A3006 740 90 1000 140/04 RMK AO2 P0003
14837KMSN MSN20020928214511509/28/02 21:45:31  5-MIN KMSN 290345Z 16003KT 4SM -RA BR BKN034 OVC110 16/14 A3006 730 86 1100 160/03 RMK AO2 P0004
14837KMSN MSN20020928215013209/28/02 21:50:31  5-MIN KMSN 290350Z 15005KT 4SM -RA BR BKN038 OVC110 16/14 A3006 730 86 1100 150/05 RMK AO2 SLP179 P0004 T01610139
14837KMSN MSN20020928215511509/28/02 21:55:31  5-MIN KMSN 290355Z 12006KT 4SM -RA BR BKN042 OVC110 16/14 A3006 730 86 1100 120/06 RMK AO2 P0000
14837KMSN MSN20020928220011509/28/02 22:00:31  5-MIN KMSN 290400Z 10004KT 4SM -RA BR SCT049 OVC110 16/14 A3006 730 90 1000 090/04 RMK AO2 P0000
14837KMSN MSN20020928220511509/28/02 22:05:31  5-MIN KMSN 290405Z 09004KT 3SM -RA BR BKN049 OVC110 16/14 A3007 730 90 1000 080/04 RMK AO2 P0000
14837KMSN MSN20020928221011509/28/02 22:10:31  5-MIN KMSN 290410Z 09003KT 3SM -RA BR BKN039 OVC110 16/14 A3007 720 90 1000 080/03 RMK AO2 P0001
14837KMSN MSN20020928221511509/28/02 22:15:31  5-MIN KMSN 290415Z 07003KT 3SM -RA BR BKN039 OVC100 16/14 A3007 730 90 1000 070/03 RMK AO2 P0001
14837KMSN MSN20020928222011509/28/02 22:20:31  5-MIN KMSN 290420Z 09004KT 3SM -RA BR SCT037 OVC100 16/14 A3007 730 93 1000 090/04 RMK AO2 P0002
14837KMSN MSN20020928222511509/28/02 22:25:31  5-MIN KMSN 290425Z 11004KT 3SM -RA BR SCT037 OVC100 16/14 A3007 730 93 1000 110/04 RMK AO2 P0002
14837KMSN MSN20020928223011409/28/02 22:30:31  5-MIN KMSN 290430Z 12004KT 3SM -RA BR FEW031 OVC100 15/14 A3007 730 96 900 120/04 RMK AO2 P0002
14837KMSN MSN20020928223511909/28/02 22:35:31  5-MIN KMSN 290435Z 15003KT 2 1/2SM -RA BR FEW028 OVC100 16/14 A3007 720 93 1000 150/03 RMK AO2 P0002
14837KMSN MSN20020928224011509/28/02 22:40:31  5-MIN KMSN 290440Z 14004KT 3SM -RA BR FEW055 OVC100 16/14 A3007 720 93 1000 140/04 RMK AO2 P0002
14837KMSN MSN20020928224511709/28/02 22:45:31  5-MIN KMSN 290445Z 13004KT 3SM BR SCT080 OVC100 16/14 A3007 730 93 1000 130/04 RMK AO2 RAE45 P0002
14837KMSN MSN20020928225013809/28/02 22:50:31  5-MIN KMSN 290450Z 13005KT 2 1/2SM BR SCT075 OVC110 16/14 A3007 730 93 1000 130/05 RMK AO2 RAE45 SLP181 P0002 T01560144
14837KMSN MSN20020928225511909/28/02 22:55:31  5-MIN KMSN 290455Z 13005KT 2 1/2SM -RA BR FEW070 OVC110 16/14 A3007 730 90 1100 130/05 RMK AO2 P0000
14837KMSN MSN20020928230011909/28/02 23:00:31  5-MIN KMSN 290500Z 11003KT 2 1/2SM -RA BR FEW075 OVC100 16/14 A3007 730 90 1100 110/03 RMK AO2 P0000
14837KMSN MSN20020928230512109/28/02 23:05:31  5-MIN KMSN 290505Z 09003KT 2 1/2SM BR FEW075 OVC100 16/14 A3007 730 90 1100 090/03 RMK AO2 RAE03 P0000
14837KMSN MSN20020928231011709/28/02 23:10:31  5-MIN KMSN 290510Z 00000KT 2SM BR FEW075 OVC100 16/14 A3007 730 93 1000 000/00 RMK AO2 RAE03 P0000
14837KMSN MSN20020928231511409/28/02 23:15:31  5-MIN KMSN 290515Z 09003KT 2 1/2SM BR OVC100 16/14 A3006 730 93 1000 090/03 RMK AO2 RAE03 P0000
14837KMSN MSN20020928232011409/28/02 23:20:31  5-MIN KMSN 290520Z 00000KT 2 1/2SM BR OVC100 16/14 A3007 730 93 1000 000/00 RMK AO2 RAE03 P0000
14837KMSN MSN20020928232511309/28/02 23:25:31  5-MIN KMSN 290525Z 00000KT 2 1/2SM BR OVC100 15/14 A3007 730 96 900 000/00 RMK AO2 RAE03 P0000
14837KMSN MSN20020928233011009/28/02 23:30:31  5-MIN KMSN 290530Z 00000KT 2SM BR OVC100 16/14 A3006 730 93 1000 000/00 RMK AO2 RAE03 P0000
14837KMSN MSN20020928233511009/28/02 23:35:31  5-MIN KMSN 290535Z 10003KT 2SM BR OVC100 16/14 A3006 740 93 1000 100/03 RMK AO2 RAE03 P0000
14837KMSN MSN20020928234011409/28/02 23:40:31  5-MIN KMSN 290540Z 09004KT 1 1/2SM BR OVC100 16/14 A3005 740 93 1000 090/04 RMK AO2 RAE03 P0000
14837KMSN MSN20020928234511409/28/02 23:45:31  5-MIN KMSN 290545Z 07005KT 1 1/2SM BR OVC100 15/14 A3005 740 96 1000 070/05 RMK AO2 RAE03 P0000
14837KMSN MSN20020928235016509/28/02 23:50:31  5-MIN KMSN 290550Z 06006KT 1 1/2SM BR OVC100 15/14 A3005 750 96 1000 060/06 RMK AO2 RAE03 SLP174 P0000 60006 T01500144 10167 20144 402000033 53010
14837KMSN MSN20020928235510209/28/02 23:55:31  5-MIN KMSN 290555Z 06005KT 1 1/4SM BR BKN100 15/14 A3005 740 96 1000 060/05 RMK AO2
14837KMSN MSN20020929000010909/29/02 00:00:31  5-MIN KMSN 290600Z 06005KT 1 1/4SM BR BKN100 OVC110 15/14 A3005 750 96 1000 060/05 RMK AO2
14837KMSN MSN20020929000510909/29/02 00:05:31  5-MIN KMSN 290605Z 07005KT 1 1/2SM BR BKN090 OVC110 15/14 A3005 750 96 1000 070/05 RMK AO2
14837KMSN MSN20020929001010909/29/02 00:10:31  5-MIN KMSN 290610Z 09005KT 1 1/2SM BR BKN090 OVC110 15/14 A3004 750 96 1000 090/05 RMK AO2
14837KMSN MSN20020929001510909/29/02 00:15:31  5-MIN KMSN 290615Z 10006KT 1 1/4SM BR BKN090 OVC110 15/14 A3004 760 96 1000 100/06 RMK AO2
14837KMSN MSN20020929002010909/29/02 00:20:31  5-MIN KMSN 290620Z 11006KT 1 1/2SM BR BKN090 OVC110 15/14 A3004 760 96 1000 110/06 RMK AO2
14837KMSN MSN20020929002510909/29/02 00:25:31  5-MIN KMSN 290625Z 13004KT 1 1/2SM BR SCT085 OVC110 15/14 A3004 750 96 1000 130/04 RMK AO2
14837KMSN MSN20020929003010909/29/02 00:30:31  5-MIN KMSN 290630Z 12005KT 1 1/2SM BR FEW085 OVC110 15/14 A3004 750 96 1000 120/05 RMK AO2
14837KMSN MSN20020929003510909/29/02 00:35:31  5-MIN KMSN 290635Z 13006KT 1 1/2SM BR FEW085 OVC110 15/14 A3004 750 96 1000 130/06 RMK AO2
14837KMSN MSN20020929004012509/29/02 00:40:31  5-MIN KMSN 290640Z 13006KT 1 1/2SM -RA BR FEW085 OVC100 16/14 A3004 750 93 1000 130/06 RMK AO2 RAB40 P0000
14837KMSN MSN20020929004512509/29/02 00:45:31  5-MIN KMSN 290645Z 12006KT 1 3/4SM -RA BR FEW085 OVC100 16/14 A3004 750 93 1000 120/06 RMK AO2 RAB40 P0000
14837KMSN MSN20020929005013509/29/02 00:50:31  5-MIN KMSN 290650Z 13006KT 1 3/4SM -RA BR OVC100 16/14 A3004 760 93 1000 130/06 RMK AO2 RAB40 SLP170 P0000 T01560144
14837KMSN MSN20020929005513209/29/02 00:55:31  5-MIN KMSN 290655Z 12006KT 1 1/2SM -RA BR FEW060 BKN095 OVC110 16/14 A3004 760 93 1000 120/06 RMK AO2 RAB55 P0001
14837KMSN MSN20020929010013409/29/02 01:00:31  5-MIN KMSN 290700Z 13005KT 1 3/4SM -RA BR SCT055 BKN090 OVC110 16/14 A3004 750 93 1000 130/05 RMK AO2 RAB0655 P0001
14837KMSN MSN20020929010512709/29/02 01:05:31  5-MIN KMSN 290705Z 10005KT 1 3/4SM -RA BR BKN048 OVC100 16/14 A3004 750 93 1000 100/05 RMK AO2 RAB0655 P0001
14837KMSN MSN20020929011012709/29/02 01:10:31  5-MIN KMSN 290710Z 07003KT 1 3/4SM -RA BR BKN045 OVC090 16/14 A3005 750 93 1000 070/03 RMK AO2 RAB0655 P0002
14837KMSN MSN20020929011517809/29/02 01:15:31  5-MIN KMSN 290715Z 01006KT 1 1/2SM -TSRA BR BKN045 BKN060 OVC085 16/14 A3006 740 93 1000 010/06 RMK AO2 TSB11RAB0655 PRESRR OCNL LTGICCA OHD TS OHD MOV E P0004
14837KMSN MSN20020929012016309/29/02 01:20:31  5-MIN KMSN 290720Z 02008KT 1 1/2SM TSRA BR SCT047 OVC060 16/14 A3006 740 93 1000 020/08 RMK AO2 TSB11RAB0655 OCNL LTGICCA OHD TS OHD MOV E P0005
14837KMSN MSN20020929012516309/29/02 01:25:31  5-MIN KMSN 290725Z 03007KT 1 1/2SM TSRA BR SCT041 OVC060 16/14 A3006 740 93 1000 030/07 RMK AO2 TSB11RAB0655 OCNL LTGICCA OHD TS OHD MOV E P0006
14837KMSN MSN20020929013016209/29/02 01:30:31  5-MIN KMSN 290730Z 06005KT 1 1/2SM TSRA BR FEW041 OVC060 16/14 A3006 730 93 1000 060/05 RMK AO2 TSB11RAB0655 FRQ LTGICCA OHD TS OHD MOV E P0007
14837KMSN MSN20020929013516209/29/02 01:35:31  5-MIN KMSN 290735Z 10004KT 1 1/2SM TSRA BR FEW030 OVC060 16/14 A3006 730 93 1000 100/04 RMK AO2 TSB11RAB0655 FRQ LTGICCA OHD TS OHD MOV E P0009
14837KMSN MSN20020929014016309/29/02 01:40:31  5-MIN KMSN 290740Z 10006KT 1 1/4SM +TSRA BR SCT021 OVC060 16/14 A3005 740 93 1000 100/06 RMK AO2 TSB11RAB0655 FRQ LTGICCA OHD TS OHD MOV E P0015
14837KMSN MSN20020929014515809/29/02 01:45:31  5-MIN KMSN 290745Z 11005KT 1SM TSRA BR SCT019 OVC060 16/14 A3005 740 93 1000 110/05 RMK AO2 TSB11RAB0655 FRQ LTGICCA OHD TS OHD MOV E P0017
14837KMSN MSN20020929015017909/29/02 01:50:31  5-MIN KMSN 290750Z 11005KT 1 1/4SM TSRA BR SCT019 OVC065 16/14 A3006 740 93 1000 110/05 RMK AO2 TSB11RAB0655 SLP176 FRQ LTGICCA OHD TS OHD MOV E P0017 T01560144
14837KMSN MSN20020929015515709/29/02 01:55:31  5-MIN KMSN 290755Z 11007KT 1 1/4SM -TSRA BR SCT019 BKN055 OVC085 16/14 A3006 740 93 1000 110/07 RMK AO2 FRQ LTGICCA OHD TS OHD MOV E P0000
14837KMSN MSN20020929020015709/29/02 02:00:31  5-MIN KMSN 290800Z 10007KT 1 1/4SM -TSRA BR SCT027 BKN065 OVC080 16/14 A3006 740 93 1000 100/07 RMK AO2 FRQ LTGICCA OHD TS OHD MOV E P0001
14837KMSN MSN20020929020515709/29/02 02:05:31  5-MIN KMSN 290805Z 10006KT 1 1/4SM -TSRA BR SCT031 BKN055 OVC070 16/14 A3006 730 93 1000 100/06 RMK AO2 FRQ LTGICCA OHD TS OHD MOV E P0001
14837KMSN MSN20020929021015709/29/02 02:10:31  5-MIN KMSN 290810Z 09005KT 1 1/2SM -TSRA BR SCT033 BKN070 OVC100 16/14 A3006 740 93 1000 090/05 RMK AO2 FRQ LTGICCA OHD TS OHD MOV E P0002
14837KMSN MSN20020929021515709/29/02 02:15:31  5-MIN KMSN 290815Z 08003KT 1 1/2SM -TSRA BR SCT033 BKN065 OVC100 16/14 A3006 740 93 1000 070/03 RMK AO2 FRQ LTGICCA OHD TS OHD MOV E P0003
14837KMSN MSN20020929022015809/29/02 02:20:31  5-MIN KMSN 290820Z 08004KT 1 1/4SM -TSRA BR BKN031 BKN070 OVC100 15/14 A3006 740 96 1000 080/04 RMK AO2 OCNL LTGICCA OHD TS OHD MOV E P0004
14837KMSN MSN20020929022515809/29/02 02:25:31  5-MIN KMSN 290825Z 11003KT 1 1/4SM -TSRA BR BKN029 BKN065 OVC100 15/14 A3005 740 96 1000 110/03 RMK AO2 OCNL LTGICCA OHD TS OHD MOV E P0005
14837KMSN MSN20020929023015109/29/02 02:30:31  5-MIN KMSN 290830Z 14006KT 1 1/4SM -TSRA BR BKN027 OVC100 15/14 A3006 740 96 1000 140/06 RMK AO2 OCNL LTGICCA OHD TS OHD MOV E P0006
14837KMSN MSN20020929023515109/29/02 02:35:31  5-MIN KMSN 290835Z 15006KT 1 1/2SM -TSRA BR BKN025 OVC100 16/14 A3006 740 93 1000 150/06 RMK AO2 OCNL LTGICCA OHD TS OHD MOV E P0007
14837KMSN MSN20020929024014409/29/02 02:40:31  5-MIN KMSN 290840Z 14006KT 1 1/2SM -TSRA BR OVC025 16/14 A3006 740 93 1000 140/06 RMK AO2 OCNL LTGICCA OHD TS OHD MOV E P0007
14837KMSN MSN20020929024514409/29/02 02:45:31  5-MIN KMSN 290845Z 14006KT 1 1/2SM -TSRA BR OVC025 16/14 A3006 740 93 1000 130/06 RMK AO2 OCNL LTGICCA OHD TS OHD MOV E P0008
14837KMSN MSN20020929025018009/29/02 02:50:31  5-MIN KMSN 290850Z 13007KT 1 1/2SM -TSRA BR BKN025 OVC095 16/14 A3006 740 93 1000 120/07 RMK AO2 SLP176 OCNL LTGICCA OHD TS OHD MOV E P0009 60027 T01560144 56015
14837KMSN MSN20020929025512109/29/02 02:55:31  5-MIN KMSN 290855Z 11007KT 1 1/4SM -TSRA BR BKN025 OVC046 16/14 A3005 750 93 1000 110/07 RMK AO2 P0000
14837KMSN MSN20020929030015109/29/02 03:00:31  5-MIN KMSN 290900Z 10007KT 1 1/4SM -TSRA BR BKN023 OVC100 15/14 A3005 750 96 1000 100/07 RMK AO2 OCNL LTGICCA OHD TS OHD MOV E P0001
14837KMSN MSN20020929030515109/29/02 03:05:31  5-MIN KMSN 290905Z 11008KT 1 1/4SM -TSRA BR BKN023 OVC100 15/14 A3004 750 96 1000 110/08 RMK AO2 OCNL LTGICCA OHD TS OHD MOV E P0001
14837KMSN MSN20020929031015109/29/02 03:10:31  5-MIN KMSN 290910Z 12010KT 1 1/4SM -TSRA BR BKN023 BKN100 15/14 A3004 750 96 1000 120/10 RMK AO2 OCNL LTGICCA OHD TS OHD MOV E P0001
14837KMSN MSN20020929031514609/29/02 03:15:31  5-MIN KMSN 290915Z 13008KT 1 1/2SM -TSRA BR BKN023 15/14 A3004 750 96 1000 130/08 RMK AO2 OCNL LTGICCA VC E TS VC E MOV E P0001
14837KMSN MSN20020929032015609/29/02 03:20:31  5-MIN KMSN 290920Z 13006KT 1 1/2SM TS BR SCT021 BKN110 15/14 A3004 750 96 1000 130/06 RMK AO2 RAE19 OCNL LTGICCA VC E TS VC E MOV E P0001
14837KMSN MSN20020929032514609/29/02 03:25:31  5-MIN KMSN 290925Z 12007KT 1 1/2SM BR SCT021 BKN100 15/14 A3004 760 96 1000 120/07 RMK AO2 TSE21RAE19 LTG DSNT E TS MOV E P0001
14837KMSN MSN20020929033014609/29/02 03:30:31  5-MIN KMSN 290930Z 12007KT 1 1/2SM BR FEW021 BKN100 15/14 A3003 760 96 1000 120/07 RMK AO2 TSE21RAE19 LTG DSNT E TS MOV E P0001
14837KMSN MSN20020929033514609/29/02 03:35:31  5-MIN KMSN 290935Z 12008KT 1 1/2SM BR FEW046 SCT110 15/14 A3003 770 96 1000 120/08 RMK AO2 TSE21RAE19 LTG DSNT E TS MOV E P0001
14837KMSN MSN20020929034013909/29/02 03:40:31  5-MIN KMSN 290940Z 13009KT 1 3/4SM BR BKN110 16/14 A3003 770 93 1100 130/09 RMK AO2 TSE21RAE19 LTG DSNT E TS MOV E P0001
14837KMSN MSN20020929034513509/29/02 03:45:31  5-MIN KMSN 290945Z 12009KT 2SM BR BKN100 16/15 A3002 770 96 1100 120/09 RMK AO2 TSE21RAE19 LTG DSNT E TS MOV E P0001
14837KMSN MSN20020929035015509/29/02 03:50:31  5-MIN KMSN 290950Z 11008KT 2SM BR BKN100 16/15 A3002 770 96 1100 110/08 RMK AO2 TSE21RAE19 SLP164 LTG DSNT E-SE TS MOV E P0001 T01560150
14837KMSN MSN20020929035509809/29/02 03:55:31  5-MIN KMSN 290955Z 11008KT 2SM BR BKN100 16/15 A3002 770 96 1100 110/08 RMK AO2
14837KMSN MSN20020929040010509/29/02 04:00:31  5-MIN KMSN 291000Z 15009KT 2SM BR FEW007 BKN100 16/15 A3003 760 96 1000 140/09 RMK AO2
14837KMSN MSN20020929040512109/29/02 04:05:31  5-MIN KMSN 291005Z 14009KT 2 1/2SM BR SCT007 BKN100 16/15 A3003 760 96 1000 140/09 RMK AO2 LTG DSNT SE
14837KMSN MSN20020929041012109/29/02 04:10:31  5-MIN KMSN 291010Z 13009KT 2 1/2SM BR BKN007 OVC100 16/15 A3003 760 96 1000 130/09 RMK AO2 LTG DSNT SE
14837KMSN MSN20020929041510909/29/02 04:15:31  5-MIN KMSN 291015Z 13008KT 2 1/2SM BR BKN007 BKN090 16/15 A3004 760 96 1000 130/08 RMK AO2
14837KMSN MSN20020929042010909/29/02 04:20:31  5-MIN KMSN 291020Z 13009KT 2 1/2SM BR BKN007 OVC095 16/15 A3004 760 96 1000 130/09 RMK AO2
14837KMSN MSN20020929042510209/29/02 04:25:31  5-MIN KMSN 291025Z 14009KT 2 1/2SM BR OVC007 16/15 A3003 760 96 1000 130/09 RMK AO2
14837KMSN MSN20020929043015109/29/02 04:30:31  5-MIN KMSN 291030Z 13008KT 3SM -TSRA BR OVC007 16/15 A3004 760 96 1000 130/08 RMK AO2 TSB26RAB30 OCNL LTGIC VC W TS VC W MOV E P0000
14837KMSN MSN20020929043515809/29/02 04:35:31  5-MIN KMSN 291035Z 12008KT 3SM -TSRA BR BKN007 OVC033 16/15 A3003 760 96 1000 120/08 RMK AO2 TSB26RAB30 OCNL LTGIC VC W TS VC W MOV E P0001
14837KMSN MSN20020929044015809/29/02 04:40:31  5-MIN KMSN 291040Z 13008KT 2 1/2SM TSRA BR BKN007 OVC027 16/15 A3004 750 96 1000 130/08 RMK AO2 TSB26RAB30 FRQ LTGIC OHD TS OHD MOV E P0004
14837KMSN MSN20020929044515809/29/02 04:45:31  5-MIN KMSN 291045Z 12007KT 2 1/2SM TSRA BR BKN007 OVC022 16/15 A3004 750 96 1000 120/07 RMK AO2 TSB26RAB30 FRQ LTGIC OHD TS OHD MOV E P0005
14837KMSN MSN20020929045017709/29/02 04:50:31  5-MIN KMSN 291050Z 13010KT 2 1/2SM +TSRA BR SCT007 OVC020 16/15 A3004 760 96 1000 130/10 RMK AO2 TSB26RAB30 SLP171 CONS LTGIC OHD TS OHD MOV E P0009 T01560150
14837KMSN MSN20020929045512309/29/02 04:55:31  5-MIN KMSN 291055Z 13011KT 2SM TSRA BR SCT007 BKN018 OVC100 16/15 A3003 760 96 1000 130/11 RMK AO2 P0001
14837KMSN MSN20020929050012809/29/02 05:00:31  5-MIN KMSN 291100Z 11009KT 2 1/2SM -TSRA BR FEW007 BKN020 OVC100 16/15 A3003 770 96 1100 110/09 RMK AO2 P0001
14837KMSN MSN20020929050513409/29/02 05:05:31  5-MIN KMSN 291105Z 11012G17KT 2 1/2SM -TSRA BR FEW007 BKN020 OVC100 16/15 A3003 770 93 1100 110/12G17 RMK AO2 P0001
14837KMSN MSN20020929051015109/29/02 05:10:31  5-MIN KMSN 291110Z 12011KT 3SM -TSRA BR FEW006 BKN060 OVC100 16/15 A3003 760 93 1100 110/11 RMK AO2 FRQ LTGIC OHD TS OHD MOV E P0001
14837KMSN MSN20020929051515709/29/02 05:15:31  5-MIN KMSN 291115Z 11006KT 3SM TS BR FEW014 BKN055 OVC100 16/15 A3003 760 93 1100 110/06 RMK AO2 RAE11 OCNL LTGIC VC W TS VC W MOV E P0001
14837KMSN MSN20020929052015909/29/02 05:20:31  5-MIN KMSN 291120Z 11005KT 3SM TS BR BKN050 BKN060 OVC100 16/15 A3003 760 93 1100 110/05 RMK AO2 RAE11 OCNL LTGCGIC VC W TS VC W MOV E P0001
14837KMSN MSN20020929052515909/29/02 05:25:31  5-MIN KMSN 291125Z 14004KT 3SM TS BR BKN050 BKN060 OVC095 16/15 A3003 760 93 1100 130/04 RMK AO2 RAE11 OCNL LTGCGIC VC W TS VC W MOV E P0001
14837KMSN MSN20020929053014509/29/02 05:30:31  5-MIN KMSN 291130Z 14006KT 3SM BR BKN050 BKN060 16/15 A3003 760 93 1100 140/06 RMK AO2 TSE27RAE11 LTG DSNT E-SE TS MOV E P0001
14837KMSN MSN20020929053514509/29/02 05:35:31  5-MIN KMSN 291135Z 13010KT 3SM BR SCT050 BKN060 16/15 A3004 760 93 1100 130/10 RMK AO2 TSE27RAE11 LTG DSNT E-SE TS MOV E P0001
14837KMSN MSN20020929054014509/29/02 05:40:31  5-MIN KMSN 291140Z 13011KT 3SM BR SCT050 SCT085 16/15 A3004 750 93 1100 130/11 RMK AO2 TSE27RAE11 LTG DSNT E-SE TS MOV E P0001
14837KMSN MSN20020929054513109/29/02 05:45:31  5-MIN KMSN 291145Z 13009KT 3SM BR FEW050 SCT090 16/15 A3004 750 93 1100 130/09 RMK AO2 TSE27RAE11 TS MOV E P0001
14837KMSN MSN20020929055018209/29/02 05:50:31  5-MIN KMSN 291150Z 14009KT 2 1/2SM BR FEW050 SCT085 16/15 A3004 760 96 1000 140/09 RMK AO2 TSE27RAE11 SLP170 TS MOV E P0001 60039 70045 T01560150 10161 20150 55000
14837KMSN MSN20020929055510209/29/02 05:55:31  5-MIN KMSN 291155Z 14008KT 2 1/2SM BR FEW080 16/15 A3004 760 96 1000 140/08 RMK AO2
14837KMSN MSN20020929060010909/29/02 06:00:31  5-MIN KMSN 291200Z 15007KT 2 1/2SM BR FEW050 SCT080 16/15 A3004 760 96 1000 150/07 RMK AO2
14837KMSN MSN20020929060510909/29/02 06:05:31  5-MIN KMSN 291205Z 14006KT 2 1/2SM BR FEW050 SCT080 16/15 A3004 760 96 1000 140/06 RMK AO2
14837KMSN MSN20020929061010209/29/02 06:10:31  5-MIN KMSN 291210Z 15007KT 2 1/2SM BR FEW080 16/14 A3004 760 93 1000 150/07 RMK AO2
14837KMSN MSN20020929061510209/29/02 06:15:31  5-MIN KMSN 291215Z 14009KT 2 1/2SM BR FEW080 16/15 A3003 760 96 1000 140/09 RMK AO2
14837KMSN MSN20020929062010209/29/02 06:20:31  5-MIN KMSN 291220Z 14010KT 2 1/2SM BR FEW080 16/15 A3003 760 96 1000 140/10 RMK AO2
14837KMSN MSN20020929062510209/29/02 06:25:31  5-MIN KMSN 291225Z 14009KT 2 1/2SM BR FEW006 16/15 A3003 760 96 1000 140/09 RMK AO2
14837KMSN MSN20020929063010909/29/02 06:30:31  5-MIN KMSN 291230Z 14008KT 2 1/2SM BR FEW006 SCT080 16/15 A3003 770 96 1000 140/08 RMK AO2
14837KMSN MSN20020929063510209/29/02 06:35:31  5-MIN KMSN 291235Z 14008KT 2 1/2SM BR FEW080 16/15 A3003 760 96 1000 140/08 RMK AO2
14837KMSN MSN20020929064010209/29/02 06:40:31  5-MIN KMSN 291240Z 15008KT 2 1/2SM BR FEW080 16/15 A3003 760 96 1000 140/08 RMK AO2
14837KMSN MSN20020929064511209/29/02 06:45:31  5-MIN KMSN 291245Z 15006KT 2 1/2SM BR FEW080 16/15 A3003 760 93 1100 150/06 RMK AO2 SFC VIS 3
14837KMSN MSN20020929065012909/29/02 06:50:31  5-MIN KMSN 291250Z 15007KT 2 1/2SM BR FEW080 16/15 A3003 760 93 1100 150/07 RMK AO2 SFC VIS 3 SLP169 T01610150
14837KMSN MSN20020929065510909/29/02 06:55:31  5-MIN KMSN 291255Z 16007KT 2 1/2SM BR CLR 16/15 A3004 760 93 1100 160/07 RMK AO2 SFC VIS 3
14837KMSN MSN20020929070009509/29/02 07:00:31  5-MIN KMSN 291300Z 17008KT 4SM BR CLR 16/15 A3004 750 93 1100 170/08 RMK AO2
14837KMSN MSN20020929070509509/29/02 07:05:31  5-MIN KMSN 291305Z 16009KT 4SM BR CLR 16/15 A3004 750 93 1100 160/09 RMK AO2
14837KMSN MSN20020929071009509/29/02 07:10:31  5-MIN KMSN 291310Z 16008KT 4SM BR CLR 16/15 A3004 750 93 1100 160/08 RMK AO2
14837KMSN MSN20020929071509509/29/02 07:15:31  5-MIN KMSN 291315Z 15010KT 4SM BR CLR 16/15 A3004 750 93 1100 150/10 RMK AO2
14837KMSN MSN20020929072009509/29/02 07:20:31  5-MIN KMSN 291320Z 16011KT 4SM BR CLR 17/15 A3004 750 90 1200 160/11 RMK AO2
14837KMSN MSN20020929072509509/29/02 07:25:31  5-MIN KMSN 291325Z 16011KT 4SM BR CLR 17/15 A3004 760 90 1200 160/11 RMK AO2
14837KMSN MSN20020929073009509/29/02 07:30:31  5-MIN KMSN 291330Z 15013KT 4SM BR CLR 17/15 A3004 760 90 1200 150/13 RMK AO2
14837KMSN MSN20020929073509509/29/02 07:35:31  5-MIN KMSN 291335Z 15012KT 4SM BR CLR 17/15 A3004 760 87 1200 150/12 RMK AO2
14837KMSN MSN20020929074009509/29/02 07:40:31  5-MIN KMSN 291340Z 16011KT 4SM BR CLR 17/16 A3004 750 90 1200 160/11 RMK AO2
14837KMSN MSN20020929074509509/29/02 07:45:31  5-MIN KMSN 291345Z 16011KT 4SM BR CLR 17/16 A3004 750 90 1200 160/11 RMK AO2
14837KMSN MSN20020929075011209/29/02 07:50:31  5-MIN KMSN 291350Z 16012KT 5SM BR CLR 18/16 A3005 750 87 1300 160/12 RMK AO2 SLP174 T01780156
14837KMSN MSN20020929075509809/29/02 07:55:31  5-MIN KMSN 291355Z 16012KT 5SM BR FEW095 18/16 A3005 740 87 1300 160/12 RMK AO2
14837KMSN MSN20020929080009509/29/02 08:00:31  5-MIN KMSN 291400Z 16011KT 7SM SCT095 18/16 A3005 750 87 1300 160/11 RMK AO2
14837KMSN MSN20020929080509509/29/02 08:05:31  5-MIN KMSN 291405Z 17011KT 7SM FEW095 17/16 A3005 750 90 1200 170/11 RMK AO2
14837KMSN MSN20020929081009809/29/02 08:10:31  5-MIN KMSN 291410Z 17011KT 5SM BR FEW095 18/16 A3005 740 87 1300 160/11 RMK AO2
14837KMSN MSN20020929081509809/29/02 08:15:31  5-MIN KMSN 291415Z 16010KT 5SM HZ FEW095 18/16 A3005 750 84 1400 160/10 RMK AO2
14837KMSN MSN20020929082009809/29/02 08:20:31  5-MIN KMSN 291420Z 16012KT 5SM BR FEW095 18/16 A3005 750 87 1400 160/12 RMK AO2
14837KMSN MSN20020929082509809/29/02 08:25:31  5-MIN KMSN 291425Z 16013KT 5SM HZ FEW095 19/16 A3004 750 84 1400 160/13 RMK AO2
14837KMSN MSN20020929083009509/29/02 08:30:31  5-MIN KMSN 291430Z 16010KT 5SM HZ CLR 19/16 A3004 750 84 1400 160/10 RMK AO2
14837KMSN MSN20020929083509509/29/02 08:35:31  5-MIN KMSN 291435Z 16010KT 5SM HZ CLR 19/16 A3004 750 84 1400 160/10 RMK AO2
14837KMSN MSN20020929084009509/29/02 08:40:31  5-MIN KMSN 291440Z 15011KT 5SM HZ CLR 19/16 A3004 760 84 1400 150/11 RMK AO2
14837KMSN MSN20020929084509509/29/02 08:45:31  5-MIN KMSN 291445Z 15010KT 5SM HZ CLR 19/16 A3003 760 81 1500 150/10 RMK AO2
14837KMSN MSN20020929085011809/29/02 08:50:31  5-MIN KMSN 291450Z 16012KT 5SM HZ CLR 19/16 A3003 770 84 1400 160/12 RMK AO2 SLP167 T01890161 55004
14837KMSN MSN20020929085509509/29/02 08:55:31  5-MIN KMSN 291455Z 15012KT 5SM HZ CLR 19/16 A3002 770 84 1400 150/12 RMK AO2
14837KMSN MSN20020929090009509/29/02 09:00:31  5-MIN KMSN 291500Z 15011KT 5SM HZ CLR 19/16 A3003 770 84 1400 150/11 RMK AO2
14837KMSN MSN20020929090509509/29/02 09:05:31  5-MIN KMSN 291505Z 16014KT 5SM HZ CLR 19/16 A3003 760 84 1400 160/14 RMK AO2
14837KMSN MSN20020929091009509/29/02 09:10:31  5-MIN KMSN 291510Z 18012KT 5SM HZ CLR 19/16 A3004 760 81 1500 170/12 RMK AO2
14837KMSN MSN20020929091509509/29/02 09:15:31  5-MIN KMSN 291515Z 17014KT 5SM HZ CLR 19/16 A3004 750 81 1500 170/14 RMK AO2
14837KMSN MSN20020929092009509/29/02 09:20:31  5-MIN KMSN 291520Z 16013KT 5SM HZ CLR 19/16 A3004 750 81 1500 160/13 RMK AO2
14837KMSN MSN20020929092509509/29/02 09:25:31  5-MIN KMSN 291525Z 17014KT 5SM HZ CLR 19/16 A3004 750 81 1500 170/14 RMK AO2
14837KMSN MSN20020929093009509/29/02 09:30:31  5-MIN KMSN 291530Z 17010KT 5SM HZ CLR 19/16 A3003 760 81 1500 170/10 RMK AO2
14837KMSN MSN20020929093509509/29/02 09:35:31  5-MIN KMSN 291535Z 17011KT 5SM HZ CLR 19/16 A3004 760 81 1500 170/11 RMK AO2
14837KMSN MSN20020929094009509/29/02 09:40:31  5-MIN KMSN 291540Z 17012KT 5SM HZ CLR 20/16 A3003 760 78 1600 170/12 RMK AO2
14837KMSN MSN20020929094509509/29/02 09:45:31  5-MIN KMSN 291545Z 17014KT 5SM HZ CLR 20/17 A3003 760 81 1600 170/14 RMK AO2
14837KMSN MSN20020929095011209/29/02 09:50:31  5-MIN KMSN 291550Z 16016KT 5SM HZ CLR 21/17 A3003 760 78 1600 160/16 RMK AO2 SLP166 T02060167
14837KMSN MSN20020929095509509/29/02 09:55:31  5-MIN KMSN 291555Z 17015KT 5SM HZ CLR 20/17 A3003 770 81 1600 170/15 RMK AO2
14837KMSN MSN20020929100009509/29/02 10:00:31  5-MIN KMSN 291600Z 16014KT 5SM HZ CLR 19/16 A3002 770 81 1500 160/14 RMK AO2
14837KMSN MSN20020929100509509/29/02 10:05:31  5-MIN KMSN 291605Z 16015KT 5SM HZ CLR 19/16 A3002 780 81 1500 160/15 RMK AO2
14837KMSN MSN20020929101009509/29/02 10:10:31  5-MIN KMSN 291610Z 17016KT 4SM HZ CLR 19/16 A3002 780 81 1500 160/16 RMK AO2
14837KMSN MSN20020929101509809/29/02 10:15:31  5-MIN KMSN 291615Z 16014KT 4SM HZ FEW025 19/16 A3001 780 81 1500 160/14 RMK AO2
14837KMSN MSN20020929102009809/29/02 10:20:31  5-MIN KMSN 291620Z 17016KT 5SM HZ FEW025 20/16 A3001 780 78 1600 160/16 RMK AO2
14837KMSN MSN20020929102509509/29/02 10:25:31  5-MIN KMSN 291625Z 16013KT 5SM HZ CLR 21/17 A3001 780 78 1700 160/13 RMK AO2
14837KMSN MSN20020929103009509/29/02 10:30:31  5-MIN KMSN 291630Z 16012KT 5SM HZ CLR 21/17 A3001 790 78 1700 160/12 RMK AO2
14837KMSN MSN20020929103510509/29/02 10:35:31  5-MIN KMSN 291635Z 16012KT 5SM HZ FEW020 SCT110 21/17 A3000 790 75 1700 160/12 RMK AO2
14837KMSN MSN20020929104010509/29/02 10:40:31  5-MIN KMSN 291640Z 16012KT 5SM HZ FEW020 SCT110 21/17 A3000 790 78 1700 160/12 RMK AO2
14837KMSN MSN20020929104510509/29/02 10:45:31  5-MIN KMSN 291645Z 17013KT 5SM HZ FEW020 SCT110 21/17 A3000 790 78 1700 170/13 RMK AO2
14837KMSN MSN20020929105012209/29/02 10:50:31  5-MIN KMSN 291650Z 17012KT 5SM HZ FEW020 SCT110 21/17 A3000 800 75 1700 170/12 RMK AO2 SLP155 T02110167
14837KMSN MSN20020929105509509/29/02 10:55:31  5-MIN KMSN 291655Z 17010KT 6SM HZ CLR 21/17 A3000 790 75 1700 170/10 RMK AO2
14837KMSN MSN20020929110009809/29/02 11:00:31  5-MIN KMSN 291700Z 17010KT 6SM HZ FEW017 21/17 A3000 790 75 1700 160/10 RMK AO2
14837KMSN MSN20020929110509809/29/02 11:05:31  5-MIN KMSN 291705Z 16011KT 5SM HZ FEW017 21/17 A3000 790 75 1700 160/11 RMK AO2
14837KMSN MSN20020929111009809/29/02 11:10:31  5-MIN KMSN 291710Z 16009KT 5SM HZ SCT017 21/17 A2999 800 75 1700 160/09 RMK AO2
14837KMSN MSN20020929111509809/29/02 11:15:31  5-MIN KMSN 291715Z 17010KT 5SM HZ SCT017 22/17 A2999 800 75 1800 170/10 RMK AO2
14837KMSN MSN20020929112009809/29/02 11:20:31  5-MIN KMSN 291720Z 16013KT 6SM HZ FEW017 22/17 A2999 800 73 1800 160/13 RMK AO2
14837KMSN MSN20020929112509809/29/02 11:25:31  5-MIN KMSN 291725Z 17012KT 6SM HZ FEW017 22/17 A2999 800 73 1800 170/12 RMK AO2
14837KMSN MSN20020929113009809/29/02 11:30:31  5-MIN KMSN 291730Z 18009KT 6SM HZ FEW017 22/17 A2999 800 75 1800 180/09 RMK AO2
14837KMSN MSN20020929113509809/29/02 11:35:31  5-MIN KMSN 291735Z 17011KT 6SM HZ FEW017 22/17 A2999 800 73 1900 160/11 RMK AO2
14837KMSN MSN20020929114009509/29/02 11:40:31  5-MIN KMSN 291740Z 17010KT 6SM HZ CLR 22/17 A2999 800 73 1900 170/10 RMK AO2
14837KMSN MSN20020929114509509/29/02 11:45:31  5-MIN KMSN 291745Z 17009KT 6SM HZ CLR 22/17 A2999 800 70 1900 170/09 RMK AO2
14837KMSN MSN20020929115013009/29/02 11:50:31  5-MIN KMSN 291750Z 17009KT 8SM FEW017 22/17 A2999 800 73 1900 170/09 RMK AO2 SLP153 T02220172 10222 20156 58004
14837KMSN MSN20020929115509209/29/02 11:55:31  5-MIN KMSN 291755Z 16012KT 7SM CLR 23/17 A2999 800 70 1900 160/12 RMK AO2
14837KMSN MSN20020929120009509/29/02 12:00:31  5-MIN KMSN 291800Z 17009KT 7SM FEW017 23/17 A2999 800 70 1900 170/09 RMK AO2
14837KMSN MSN20020929120509509/29/02 12:05:31  5-MIN KMSN 291805Z 18008KT 7SM FEW017 23/18 A2999 800 70 2000 180/08 RMK AO2
14837KMSN MSN20020929121009509/29/02 12:10:31  5-MIN KMSN 291810Z 17007KT 7SM FEW017 22/17 A2998 810 73 1900 170/07 RMK AO2
14837KMSN MSN20020929121510209/29/02 12:15:31  5-MIN KMSN 291815Z 15008KT 7SM FEW017 22/17 A2997 820 73 1900 150/08 RMK AO2 PRESFR
14837KMSN MSN20020929122009509/29/02 12:20:31  5-MIN KMSN 291820Z 18006KT 7SM FEW017 23/18 A2997 820 73 2000 180/06 RMK AO2
14837KMSN MSN20020929122509209/29/02 12:25:31  5-MIN KMSN 291825Z 17010KT 8SM CLR 23/17 A2997 820 68 2000 170/10 RMK AO2
14837KMSN MSN20020929123009209/29/02 12:30:31  5-MIN KMSN 291830Z 17011KT 8SM CLR 23/17 A2997 820 70 1900 160/11 RMK AO2
14837KMSN MSN20020929123509209/29/02 12:35:31  5-MIN KMSN 291835Z 15010KT 8SM CLR 23/18 A2996 830 70 2000 150/10 RMK AO2
14837KMSN MSN20020929124009209/29/02 12:40:31  5-MIN KMSN 291840Z 18009KT 8SM CLR 24/18 A2997 820 71 2100 180/09 RMK AO2
14837KMSN MSN20020929124509209/29/02 12:45:31  5-MIN KMSN 291845Z 18010KT 8SM CLR 24/18 A2998 810 68 2100 170/10 RMK AO2
14837KMSN MSN20020929125010909/29/02 12:50:31  5-MIN KMSN 291850Z 20009KT 8SM CLR 24/18 A2997 820 68 2100 200/09 RMK AO2 SLP147 T02390178
14837KMSN MSN20020929125509809/29/02 12:55:31  5-MIN KMSN 291855Z 18011G15KT 8SM CLR 24/18 A2997 820 68 2100 180/11G15 RMK AO2
14837KMSN MSN20020929130010109/29/02 13:00:31  5-MIN KMSN 291900Z 18010G15KT 8SM FEW020 24/18 A2996 820 68 2100 180/10G15 RMK AO2
14837KMSN MSN20020929130509509/29/02 13:05:31  5-MIN KMSN 291905Z 18011KT 8SM FEW020 24/18 A2996 830 66 2100 180/11 RMK AO2
14837KMSN MSN20020929131009209/29/02 13:10:31  5-MIN KMSN 291910Z 17010KT 8SM CLR 24/18 A2996 830 66 2200 170/10 RMK AO2
14837KMSN MSN20020929131509209/29/02 13:15:31  5-MIN KMSN 291915Z 17011KT 9SM CLR 24/17 A2996 830 63 2200 170/11 RMK AO2
14837KMSN MSN20020929132009209/29/02 13:20:31  5-MIN KMSN 291920Z 18009KT 9SM CLR 24/18 A2996 830 66 2200 170/09 RMK AO2
14837KMSN MSN20020929132509209/29/02 13:25:31  5-MIN KMSN 291925Z 18012KT 9SM CLR 25/18 A2995 830 64 2200 180/12 RMK AO2
14837KMSN MSN20020929133009209/29/02 13:30:31  5-MIN KMSN 291930Z 18008KT 9SM CLR 25/18 A2995 840 64 2200 180/08 RMK AO2
14837KMSN MSN20020929133509309/29/02 13:35:31  5-MIN KMSN 291935Z 20010KT 10SM CLR 25/18 A2996 830 64 2200 190/10 RMK AO2
14837KMSN MSN20020929134009309/29/02 13:40:31  5-MIN KMSN 291940Z 18010KT 10SM CLR 25/18 A2996 830 64 2200 180/10 RMK AO2
14837KMSN MSN20020929134509209/29/02 13:45:31  5-MIN KMSN 291945Z 19009KT 9SM CLR 25/18 A2996 830 64 2200 190/09 RMK AO2
14837KMSN MSN20020929135011009/29/02 13:50:31  5-MIN KMSN 291950Z 19007KT 10SM CLR 25/18 A2995 830 64 2200 190/07 RMK AO2 SLP140 T02500178
14837KMSN MSN20020929135509209/29/02 13:55:31  5-MIN KMSN 291955Z 19009KT 9SM CLR 26/18 A2995 830 61 2300 190/09 RMK AO2
14837KMSN MSN20020929140010909/29/02 14:00:31  5-MIN KMSN 292000Z 20008KT 180V250 10SM CLR 26/18 A2995 830 61 2300 190/08 180V250 RMK AO2
14837KMSN MSN20020929140509309/29/02 14:05:31  5-MIN KMSN 292005Z VRB05KT 10SM CLR 26/18 A2995 830 64 2300 VRB/05 RMK AO2
14837KMSN MSN20020929141009309/29/02 14:10:31  5-MIN KMSN 292010Z 23007KT 10SM CLR 26/18 A2995 830 61 2300 230/07 RMK AO2
14837KMSN MSN20020929141509309/29/02 14:15:31  5-MIN KMSN 292015Z 20006KT 10SM CLR 26/18 A2995 840 61 2300 200/06 RMK AO2
14837KMSN MSN20020929142009309/29/02 14:20:31  5-MIN KMSN 292020Z 22010KT 10SM CLR 26/18 A2995 840 61 2300 220/10 RMK AO2
14837KMSN MSN20020929142509309/29/02 14:25:31  5-MIN KMSN 292025Z 19008KT 10SM CLR 26/18 A2995 840 61 2300 190/08 RMK AO2
14837KMSN MSN20020929143009309/29/02 14:30:31  5-MIN KMSN 292030Z 20008KT 10SM CLR 26/18 A2995 840 62 2400 200/08 RMK AO2
14837KMSN MSN20020929143509309/29/02 14:35:31  5-MIN KMSN 292035Z 21008KT 10SM CLR 26/18 A2995 840 59 2400 210/08 RMK AO2
14837KMSN MSN20020929144009309/29/02 14:40:31  5-MIN KMSN 292040Z 22008KT 10SM CLR 26/18 A2995 840 59 2400 220/08 RMK AO2
14837KMSN MSN20020929144509309/29/02 14:45:31  5-MIN KMSN 292045Z 19006KT 10SM CLR 26/18 A2994 840 62 2400 190/06 RMK AO2
14837KMSN MSN20020929145011609/29/02 14:50:31  5-MIN KMSN 292050Z 22006KT 10SM CLR 26/18 A2994 840 59 2400 210/06 RMK AO2 SLP135 T02610178 58013
14837KMSN MSN20020929145509309/29/02 14:55:31  5-MIN KMSN 292055Z 21005KT 10SM CLR 26/18 A2994 850 62 2400 210/05 RMK AO2
14837KMSN MSN20020929150009309/29/02 15:00:31  5-MIN KMSN 292100Z 21006KT 10SM CLR 26/18 A2994 850 59 2400 210/06 RMK AO2
14837KMSN MSN20020929150509309/29/02 15:05:31  5-MIN KMSN 292105Z 20006KT 10SM CLR 27/18 A2994 850 57 2400 200/06 RMK AO2
14837KMSN MSN20020929151009309/29/02 15:10:31  5-MIN KMSN 292110Z 21008KT 10SM CLR 27/18 A2994 850 57 2400 210/08 RMK AO2
14837KMSN MSN20020929151509309/29/02 15:15:31  5-MIN KMSN 292115Z 21007KT 10SM CLR 27/17 A2994 850 55 2400 210/07 RMK AO2
14837KMSN MSN20020929152009309/29/02 15:20:31  5-MIN KMSN 292120Z 22006KT 10SM CLR 27/18 A2994 850 57 2400 220/06 RMK AO2
14837KMSN MSN20020929152509309/29/02 15:25:31  5-MIN KMSN 292125Z 21007KT 10SM CLR 27/17 A2994 850 55 2400 210/07 RMK AO2
14837KMSN MSN20020929153009309/29/02 15:30:31  5-MIN KMSN 292130Z 22006KT 10SM CLR 27/17 A2994 850 55 2400 220/06 RMK AO2
14837KMSN MSN20020929153509309/29/02 15:35:31  5-MIN KMSN 292135Z 23006KT 10SM CLR 27/18 A2994 850 57 2400 230/06 RMK AO2
14837KMSN MSN20020929154009309/29/02 15:40:31  5-MIN KMSN 292140Z 23005KT 10SM CLR 26/18 A2994 850 59 2400 230/05 RMK AO2
14837KMSN MSN20020929154509309/29/02 15:45:31  5-MIN KMSN 292145Z 23006KT 10SM CLR 26/18 A2994 850 59 2400 220/06 RMK AO2
14837KMSN MSN20020929155011009/29/02 15:50:31  5-MIN KMSN 292150Z 23004KT 10SM CLR 26/18 A2994 850 59 2400 230/04 RMK AO2 SLP134 T02610178
14837KMSN MSN20020929155509309/29/02 15:55:31  5-MIN KMSN 292155Z 23004KT 10SM CLR 26/18 A2994 850 59 2400 230/04 RMK AO2
14837KMSN MSN20020929160009309/29/02 16:00:31  5-MIN KMSN 292200Z 23005KT 10SM CLR 26/18 A2994 850 59 2400 230/05 RMK AO2
14837KMSN MSN20020929160509309/29/02 16:05:31  5-MIN KMSN 292205Z 24004KT 10SM CLR 26/18 A2994 850 62 2400 240/04 RMK AO2
14837KMSN MSN20020929161009309/29/02 16:10:31  5-MIN KMSN 292210Z 24004KT 10SM CLR 26/18 A2993 850 62 2400 240/04 RMK AO2
14837KMSN MSN20020929161509309/29/02 16:15:31  5-MIN KMSN 292215Z 26003KT 10SM CLR 26/18 A2993 850 62 2400 260/03 RMK AO2
14837KMSN MSN20020929162009309/29/02 16:20:31  5-MIN KMSN 292220Z 00000KT 10SM CLR 26/18 A2993 850 64 2300 000/00 RMK AO2
14837KMSN MSN20020929162509309/29/02 16:25:31  5-MIN KMSN 292225Z 00000KT 10SM CLR 26/18 A2993 850 64 2300 000/00 RMK AO2
14837KMSN MSN20020929163009309/29/02 16:30:31  5-MIN KMSN 292230Z 22003KT 10SM CLR 26/18 A2993 850 64 2300 220/03 RMK AO2
14837KMSN MSN20020929163509309/29/02 16:35:31  5-MIN KMSN 292235Z 20003KT 10SM CLR 25/19 A2993 860 68 2200 200/03 RMK AO2
14837KMSN MSN20020929164009309/29/02 16:40:31  5-MIN KMSN 292240Z 00000KT 10SM CLR 25/19 A2993 860 68 2300 000/00 RMK AO2
14837KMSN MSN20020929164509309/29/02 16:45:31  5-MIN KMSN 292245Z 00000KT 10SM CLR 25/19 A2993 860 68 2200 000/00 RMK AO2
14837KMSN MSN20020929165011009/29/02 16:50:31  5-MIN KMSN 292250Z 21003KT 10SM CLR 25/18 A2993 860 66 2200 210/03 RMK AO2 SLP131 T02500183
14837KMSN MSN20020929165509309/29/02 16:55:31  5-MIN KMSN 292255Z 19004KT 10SM CLR 26/18 A2992 860 61 2300 190/04 RMK AO2
14837KMSN MSN20020929170009309/29/02 17:00:31  5-MIN KMSN 292300Z 18004KT 10SM CLR 26/18 A2992 870 61 2300 180/04 RMK AO2
14837KMSN MSN20020929170509309/29/02 17:05:31  5-MIN KMSN 292305Z VRB04KT 10SM CLR 25/18 A2992 870 64 2300 VRB/04 RMK AO2
14837KMSN MSN20020929171009309/29/02 17:10:31  5-MIN KMSN 292310Z 20003KT 10SM CLR 24/18 A2992 870 66 2200 200/03 RMK AO2
14837KMSN MSN20020929171509309/29/02 17:15:31  5-MIN KMSN 292315Z 00000KT 10SM CLR 24/18 A2992 870 68 2100 000/00 RMK AO2
14837KMSN MSN20020929172009309/29/02 17:20:31  5-MIN KMSN 292320Z 00000KT 10SM CLR 23/18 A2992 860 70 2100 000/00 RMK AO2
14837KMSN MSN20020929172509309/29/02 17:25:31  5-MIN KMSN 292325Z 00000KT 10SM CLR 22/18 A2992 860 78 1900 000/00 RMK AO2
14837KMSN MSN20020929173009309/29/02 17:30:31  5-MIN KMSN 292330Z 00000KT 10SM CLR 22/18 A2992 870 81 1900 000/00 RMK AO2
14837KMSN MSN20020929173509309/29/02 17:35:31  5-MIN KMSN 292335Z 00000KT 10SM CLR 22/18 A2992 870 81 1900 000/00 RMK AO2
14837KMSN MSN20020929174009309/29/02 17:40:31  5-MIN KMSN 292340Z 00000KT 10SM CLR 22/18 A2992 870 81 1900 000/00 RMK AO2
14837KMSN MSN20020929174509209/29/02 17:45:31  5-MIN KMSN 292345Z 16003KT 9SM CLR 22/18 A2991 870 81 1900 160/03 RMK AO2
14837KMSN MSN20020929175012709/29/02 17:50:31  5-MIN KMSN 292350Z 16004KT 9SM CLR 22/18 A2991 870 75 1900 160/04 RMK AO2 SLP127 T02220178 10267 20217 56015
14837KMSN MSN20020929175509309/29/02 17:55:31  5-MIN KMSN 292355Z 16005KT 10SM CLR 22/17 A2991 870 75 1900 160/05 RMK AO2
14837KMSN MSN20020929180009309/29/02 18:00:31  5-MIN KMSN 300000Z 17004KT 10SM CLR 22/17 A2991 870 75 1900 170/04 RMK AO2
14837KMSN MSN20020929180509309/29/02 18:05:31  5-MIN KMSN 300005Z 19003KT 10SM CLR 21/18 A2991 870 81 1800 190/03 RMK AO2
14837KMSN MSN20020929181009309/29/02 18:10:31  5-MIN KMSN 300010Z 18004KT 10SM CLR 22/18 A2991 870 78 1900 170/04 RMK AO2
14837KMSN MSN20020929181509309/29/02 18:15:31  5-MIN KMSN 300015Z 17004KT 10SM CLR 22/18 A2991 870 78 1900 170/04 RMK AO2
14837KMSN MSN20020929182009309/29/02 18:20:31  5-MIN KMSN 300020Z 17004KT 10SM CLR 21/18 A2992 870 84 1800 160/04 RMK AO2
14837KMSN MSN20020929182509309/29/02 18:25:31  5-MIN KMSN 300025Z 18003KT 10SM CLR 21/18 A2992 870 81 1800 180/03 RMK AO2
14837KMSN MSN20020929183009309/29/02 18:30:31  5-MIN KMSN 300030Z 17003KT 10SM CLR 21/18 A2991 870 81 1800 170/03 RMK AO2
14837KMSN MSN20020929183509309/29/02 18:35:31  5-MIN KMSN 300035Z 16004KT 10SM CLR 21/17 A2991 870 78 1800 160/04 RMK AO2
14837KMSN MSN20020929184009309/29/02 18:40:31  5-MIN KMSN 300040Z 15004KT 10SM CLR 21/17 A2991 870 78 1800 150/04 RMK AO2
14837KMSN MSN20020929184509309/29/02 18:45:31  5-MIN KMSN 300045Z 00000KT 10SM CLR 20/18 A2992 870 87 1700 000/00 RMK AO2
14837KMSN MSN20020929185011009/29/02 18:50:31  5-MIN KMSN 300050Z 00000KT 10SM CLR 20/17 A2992 870 84 1700 000/00 RMK AO2 SLP129 T02000172
14837KMSN MSN20020929185509309/29/02 18:55:31  5-MIN KMSN 300055Z 00000KT 10SM CLR 19/17 A2992 870 87 1600 000/00 RMK AO2
14837KMSN MSN20020929190009309/29/02 19:00:31  5-MIN KMSN 300100Z 00000KT 10SM CLR 19/17 A2992 870 87 1600 000/00 RMK AO2
14837KMSN MSN20020929190509309/29/02 19:05:31  5-MIN KMSN 300105Z 00000KT 10SM CLR 19/17 A2992 870 87 1600 000/00 RMK AO2
14837KMSN MSN20020929191009309/29/02 19:10:31  5-MIN KMSN 300110Z 00000KT 10SM CLR 19/17 A2992 870 87 1600 000/00 RMK AO2
14837KMSN MSN20020929191509309/29/02 19:15:31  5-MIN KMSN 300115Z 00000KT 10SM CLR 20/17 A2992 870 84 1700 000/00 RMK AO2
14837KMSN MSN20020929192009309/29/02 19:20:31  5-MIN KMSN 300120Z 15003KT 10SM CLR 20/17 A2992 860 84 1700 150/03 RMK AO2
14837KMSN MSN20020929192509309/29/02 19:25:31  5-MIN KMSN 300125Z 17004KT 10SM CLR 21/17 A2992 860 81 1800 170/04 RMK AO2
14837KMSN MSN20020929193009309/29/02 19:30:31  5-MIN KMSN 300130Z 17005KT 10SM CLR 21/17 A2992 860 75 1800 170/05 RMK AO2
14837KMSN MSN20020929193509309/29/02 19:35:31  5-MIN KMSN 300135Z 18005KT 10SM CLR 22/17 A2992 860 70 1900 180/05 RMK AO2
14837KMSN MSN20020929194009309/29/02 19:40:31  5-MIN KMSN 300140Z 19004KT 10SM CLR 21/17 A2992 860 78 1700 180/04 RMK AO2
14837KMSN MSN20020929194509309/29/02 19:45:31  5-MIN KMSN 300145Z 19004KT 10SM CLR 21/17 A2992 860 81 1700 190/04 RMK AO2
14837KMSN MSN20020929195011009/29/02 19:50:31  5-MIN KMSN 300150Z 19004KT 10SM CLR 21/17 A2992 860 81 1700 190/04 RMK AO2 SLP129 T02060172
14837KMSN MSN20020929195509309/29/02 19:55:31  5-MIN KMSN 300155Z 19003KT 10SM CLR 21/17 A2992 860 81 1700 190/03 RMK AO2
14837KMSN MSN20020929200009309/29/02 20:00:31  5-MIN KMSN 300200Z 18005KT 10SM CLR 21/17 A2992 860 78 1800 180/05 RMK AO2
14837KMSN MSN20020929200509309/29/02 20:05:31  5-MIN KMSN 300205Z 18005KT 10SM CLR 22/17 A2992 860 75 1900 180/05 RMK AO2
14837KMSN MSN20020929201009309/29/02 20:10:31  5-MIN KMSN 300210Z 17004KT 10SM CLR 21/17 A2992 860 75 1800 170/04 RMK AO2
14837KMSN MSN20020929201509309/29/02 20:15:31  5-MIN KMSN 300215Z 17004KT 10SM CLR 21/17 A2992 860 75 1800 170/04 RMK AO2
14837KMSN MSN20020929202009309/29/02 20:20:31  5-MIN KMSN 300220Z 17004KT 10SM CLR 21/17 A2992 860 75 1800 170/04 RMK AO2
14837KMSN MSN20020929202509309/29/02 20:25:31  5-MIN KMSN 300225Z 18004KT 10SM CLR 21/17 A2992 860 75 1800 180/04 RMK AO2
14837KMSN MSN20020929203009309/29/02 20:30:31  5-MIN KMSN 300230Z 18004KT 10SM CLR 21/17 A2992 870 75 1800 170/04 RMK AO2
14837KMSN MSN20020929203509309/29/02 20:35:31  5-MIN KMSN 300235Z 17005KT 10SM CLR 21/17 A2992 870 75 1800 170/05 RMK AO2
14837KMSN MSN20020929204009309/29/02 20:40:31  5-MIN KMSN 300240Z 17005KT 10SM CLR 21/17 A2992 870 75 1800 170/05 RMK AO2
14837KMSN MSN20020929204509309/29/02 20:45:31  5-MIN KMSN 300245Z 18004KT 10SM CLR 21/17 A2992 870 75 1800 180/04 RMK AO2
14837KMSN MSN20020929205011609/29/02 20:50:31  5-MIN KMSN 300250Z 17005KT 10SM CLR 21/17 A2992 870 75 1800 170/05 RMK AO2 SLP127 T02110167 58010
14837KMSN MSN20020929205509309/29/02 20:55:31  5-MIN KMSN 300255Z 17005KT 10SM CLR 21/17 A2992 870 75 1800 170/05 RMK AO2
14837KMSN MSN20020929210009309/29/02 21:00:31  5-MIN KMSN 300300Z 16006KT 10SM CLR 21/17 A2991 870 75 1800 160/06 RMK AO2
14837KMSN MSN20020929210509309/29/02 21:05:31  5-MIN KMSN 300305Z 16005KT 10SM CLR 21/16 A2991 870 73 1800 160/05 RMK AO2
14837KMSN MSN20020929211009309/29/02 21:10:31  5-MIN KMSN 300310Z 16005KT 10SM CLR 21/16 A2991 870 73 1800 160/05 RMK AO2
14837KMSN MSN20020929211509309/29/02 21:15:31  5-MIN KMSN 300315Z 17005KT 10SM CLR 22/16 A2991 870 70 1900 170/05 RMK AO2
14837KMSN MSN20020929212009309/29/02 21:20:31  5-MIN KMSN 300320Z 17006KT 10SM CLR 21/17 A2991 870 75 1800 170/06 RMK AO2
14837KMSN MSN20020929212509309/29/02 21:25:31  5-MIN KMSN 300325Z 18007KT 10SM CLR 22/17 A2991 870 73 1900 180/07 RMK AO2
14837KMSN MSN20020929213009309/29/02 21:30:31  5-MIN KMSN 300330Z 18008KT 10SM CLR 22/17 A2991 870 70 2000 180/08 RMK AO2
14837KMSN MSN20020929213509309/29/02 21:35:31  5-MIN KMSN 300335Z 18008KT 10SM CLR 23/17 A2991 880 68 2000 180/08 RMK AO2
14837KMSN MSN20020929214009309/29/02 21:40:31  5-MIN KMSN 300340Z 18008KT 10SM CLR 23/17 A2991 870 68 2000 180/08 RMK AO2
14837KMSN MSN20020929214509309/29/02 21:45:31  5-MIN KMSN 300345Z 18008KT 10SM CLR 23/17 A2991 870 68 2000 180/08 RMK AO2
14837KMSN MSN20020929215011009/29/02 21:50:31  5-MIN KMSN 300350Z 18007KT 10SM CLR 23/17 A2991 880 68 2000 180/07 RMK AO2 SLP123 T02280167
14837KMSN MSN20020929215509309/29/02 21:55:31  5-MIN KMSN 300355Z 18007KT 10SM CLR 23/17 A2991 880 68 2000 180/07 RMK AO2
14837KMSN MSN20020929220009309/29/02 22:00:31  5-MIN KMSN 300400Z 18008KT 10SM CLR 22/17 A2991 880 70 2000 170/08 RMK AO2
14837KMSN MSN20020929220509309/29/02 22:05:31  5-MIN KMSN 300405Z 18008KT 10SM CLR 23/17 A2990 880 68 2000 180/08 RMK AO2
14837KMSN MSN20020929221010909/29/02 22:10:31  5-MIN KMSN 300410Z 18007KT 150V210 10SM CLR 22/17 A2990 880 70 2000 180/07 150V210 RMK AO2
14837KMSN MSN20020929221509309/29/02 22:15:31  5-MIN KMSN 300415Z 18007KT 10SM CLR 22/17 A2990 880 70 2000 180/07 RMK AO2
14837KMSN MSN20020929222009309/29/02 22:20:31  5-MIN KMSN 300420Z 17007KT 10SM CLR 22/17 A2990 880 70 2000 170/07 RMK AO2
14837KMSN MSN20020929222509309/29/02 22:25:31  5-MIN KMSN 300425Z 19007KT 10SM CLR 22/17 A2990 880 70 2000 180/07 RMK AO2
14837KMSN MSN20020929223009309/29/02 22:30:31  5-MIN KMSN 300430Z 19007KT 10SM CLR 22/17 A2990 880 70 2000 190/07 RMK AO2
14837KMSN MSN20020929223509309/29/02 22:35:31  5-MIN KMSN 300435Z 19008KT 10SM CLR 23/17 A2990 880 68 2000 190/08 RMK AO2
14837KMSN MSN20020929224009309/29/02 22:40:31  5-MIN KMSN 300440Z 18009KT 10SM CLR 22/17 A2990 880 70 2000 180/09 RMK AO2
14837KMSN MSN20020929224509309/29/02 22:45:31  5-MIN KMSN 300445Z 19009KT 10SM CLR 22/17 A2990 880 70 2000 190/09 RMK AO2
14837KMSN MSN20020929225011009/29/02 22:50:31  5-MIN KMSN 300450Z 19008KT 10SM CLR 22/17 A2990 880 70 2000 180/08 RMK AO2 SLP121 T02220167
14837KMSN MSN20020929225509309/29/02 22:55:31  5-MIN KMSN 300455Z 19009KT 10SM CLR 22/17 A2990 880 70 2000 190/09 RMK AO2
14837KMSN MSN20020929230009309/29/02 23:00:31  5-MIN KMSN 300500Z 19010KT 10SM CLR 22/17 A2991 880 70 2000 190/10 RMK AO2
14837KMSN MSN20020929230509309/29/02 23:05:31  5-MIN KMSN 300505Z 19011KT 10SM CLR 22/17 A2991 880 73 2000 190/11 RMK AO2
14837KMSN MSN20020929231009309/29/02 23:10:31  5-MIN KMSN 300510Z 19009KT 10SM CLR 22/17 A2991 880 73 2000 190/09 RMK AO2
14837KMSN MSN20020929231509309/29/02 23:15:31  5-MIN KMSN 300515Z 19009KT 10SM CLR 22/17 A2991 880 73 2000 190/09 RMK AO2
14837KMSN MSN20020929232009309/29/02 23:20:31  5-MIN KMSN 300520Z 19009KT 10SM CLR 22/17 A2991 880 73 2000 190/09 RMK AO2
14837KMSN MSN20020929232509309/29/02 23:25:31  5-MIN KMSN 300525Z 19009KT 10SM CLR 22/17 A2991 880 73 2000 190/09 RMK AO2
14837KMSN MSN20020929233009309/29/02 23:30:31  5-MIN KMSN 300530Z 19009KT 10SM CLR 22/17 A2991 870 73 2000 190/09 RMK AO2
14837KMSN MSN20020929233509309/29/02 23:35:31  5-MIN KMSN 300535Z 18009KT 10SM CLR 22/17 A2991 880 73 2000 180/09 RMK AO2
14837KMSN MSN20020929234009309/29/02 23:40:31  5-MIN KMSN 300540Z 19008KT 10SM CLR 22/17 A2991 880 73 2000 190/08 RMK AO2
14837KMSN MSN20020929234509309/29/02 23:45:31  5-MIN KMSN 300545Z 19009KT 10SM CLR 22/17 A2991 880 73 2000 190/09 RMK AO2
14837KMSN MSN20020929235013809/29/02 23:50:31  5-MIN KMSN 300550Z 19008KT 10SM CLR 22/17 A2991 870 73 2000 190/08 RMK AO2 SLP124 T02220172 10228 20194 402670150 50001
14837KMSN MSN20020929235509309/29/02 23:55:31  5-MIN KMSN 300555Z 18008KT 10SM CLR 22/17 A2991 870 73 2000 180/08 RMK AO2
14837KMSN MSN20020930000009309/30/02 00:00:31  5-MIN KMSN 300600Z 18010KT 10SM CLR 23/17 A2991 880 70 2000 180/10 RMK AO2
14837KMSN MSN20020930000509309/30/02 00:05:31  5-MIN KMSN 300605Z 19010KT 10SM CLR 23/17 A2991 880 70 2000 190/10 RMK AO2
14837KMSN MSN20020930001009309/30/02 00:10:31  5-MIN KMSN 300610Z 19010KT 10SM CLR 22/17 A2991 880 73 2000 190/10 RMK AO2
14837KMSN MSN20020930001509309/30/02 00:15:31  5-MIN KMSN 300615Z 18010KT 10SM CLR 22/17 A2991 880 73 2000 180/10 RMK AO2
14837KMSN MSN20020930002009309/30/02 00:20:31  5-MIN KMSN 300620Z 19009KT 10SM CLR 22/17 A2991 870 73 2000 190/09 RMK AO2
14837KMSN MSN20020930002509309/30/02 00:25:31  5-MIN KMSN 300625Z 19007KT 10SM CLR 22/17 A2991 870 73 2000 190/07 RMK AO2
14837KMSN MSN20020930003009309/30/02 00:30:31  5-MIN KMSN 300630Z 20006KT 10SM CLR 22/17 A2991 870 73 1900 200/06 RMK AO2
14837KMSN MSN20020930003509309/30/02 00:35:31  5-MIN KMSN 300635Z 21006KT 10SM CLR 23/17 A2992 870 70 2000 210/06 RMK AO2
14837KMSN MSN20020930004009309/30/02 00:40:31  5-MIN KMSN 300640Z 20006KT 10SM CLR 23/17 A2992 870 70 2000 190/06 RMK AO2
14837KMSN MSN20020930004509309/30/02 00:45:31  5-MIN KMSN 300645Z 21007KT 10SM CLR 23/17 A2992 870 70 2000 210/07 RMK AO2
14837KMSN MSN20020930005011009/30/02 00:50:31  5-MIN KMSN 300650Z 19006KT 10SM CLR 23/17 A2992 870 70 2000 190/06 RMK AO2 SLP125 T02280172
14837KMSN MSN20020930005510909/30/02 00:55:31  5-MIN KMSN 300655Z 20008KT 170V230 10SM CLR 23/17 A2991 870 70 2000 200/08 170V230 RMK AO2
14837KMSN MSN20020930010009309/30/02 01:00:31  5-MIN KMSN 300700Z VRB06KT 10SM CLR 23/17 A2991 870 70 2000 VRB/06 RMK AO2
14837KMSN MSN20020930010509309/30/02 01:05:31  5-MIN KMSN 300705Z 19009KT 10SM CLR 23/17 A2991 870 70 2000 190/09 RMK AO2
14837KMSN MSN20020930011009309/30/02 01:10:31  5-MIN KMSN 300710Z 18007KT 10SM CLR 23/17 A2991 870 70 2000 180/07 RMK AO2
14837KMSN MSN20020930011509309/30/02 01:15:31  5-MIN KMSN 300715Z 18009KT 10SM CLR 23/17 A2991 880 70 2000 180/09 RMK AO2
14837KMSN MSN20020930012009309/30/02 01:20:31  5-MIN KMSN 300720Z 18008KT 10SM CLR 23/17 A2991 880 70 2000 180/08 RMK AO2
14837KMSN MSN20020930012509309/30/02 01:25:31  5-MIN KMSN 300725Z 18007KT 10SM CLR 23/17 A2991 880 70 2000 180/07 RMK AO2
14837KMSN MSN20020930013009309/30/02 01:30:31  5-MIN KMSN 300730Z 18008KT 10SM CLR 22/17 A2991 880 73 2000 180/08 RMK AO2
14837KMSN MSN20020930013509309/30/02 01:35:31  5-MIN KMSN 300735Z 18009KT 10SM CLR 22/17 A2990 880 73 2000 180/09 RMK AO2
14837KMSN MSN20020930014009309/30/02 01:40:31  5-MIN KMSN 300740Z 19007KT 10SM CLR 23/17 A2990 880 70 2000 190/07 RMK AO2
14837KMSN MSN20020930014509309/30/02 01:45:31  5-MIN KMSN 300745Z 19008KT 10SM CLR 23/17 A2990 880 70 2000 190/08 RMK AO2
14837KMSN MSN20020930015011009/30/02 01:50:31  5-MIN KMSN 300750Z 20009KT 10SM CLR 23/17 A2991 880 70 2000 200/09 RMK AO2 SLP121 T02280172
14837KMSN MSN20020930015509309/30/02 01:55:31  5-MIN KMSN 300755Z 22007KT 10SM CLR 23/17 A2991 880 70 2000 220/07 RMK AO2
14837KMSN MSN20020930020009309/30/02 02:00:31  5-MIN KMSN 300800Z VRB04KT 10SM CLR 22/17 A2991 880 73 2000 VRB/04 RMK AO2
14837KMSN MSN20020930020509309/30/02 02:05:31  5-MIN KMSN 300805Z VRB05KT 10SM CLR 22/17 A2991 880 73 2000 VRB/05 RMK AO2
14837KMSN MSN20020930021009309/30/02 02:10:31  5-MIN KMSN 300810Z VRB05KT 10SM CLR 22/17 A2991 870 73 2000 VRB/05 RMK AO2
14837KMSN MSN20020930021509309/30/02 02:15:31  5-MIN KMSN 300815Z VRB04KT 10SM CLR 23/17 A2991 870 70 2000 VRB/04 RMK AO2
14837KMSN MSN20020930022009309/30/02 02:20:31  5-MIN KMSN 300820Z VRB03KT 10SM CLR 22/17 A2992 870 73 1900 VRB/03 RMK AO2
14837KMSN MSN20020930022509309/30/02 02:25:31  5-MIN KMSN 300825Z 33005KT 10SM CLR 22/17 A2992 870 75 1900 330/05 RMK AO2
14837KMSN MSN20020930023009309/30/02 02:30:31  5-MIN KMSN 300830Z 35004KT 10SM CLR 22/17 A2992 860 75 1900 340/04 RMK AO2
14837KMSN MSN20020930023509309/30/02 02:35:31  5-MIN KMSN 300835Z 34005KT 10SM CLR 22/17 A2992 860 75 1900 340/05 RMK AO2
14837KMSN MSN20020930024009309/30/02 02:40:31  5-MIN KMSN 300840Z 33007KT 10SM CLR 22/17 A2993 860 75 1900 330/07 RMK AO2
14837KMSN MSN20020930024509309/30/02 02:45:31  5-MIN KMSN 300845Z 36004KT 10SM CLR 22/17 A2993 860 75 1900 360/04 RMK AO2
14837KMSN MSN20020930025011609/30/02 02:50:31  5-MIN KMSN 300850Z 02003KT 10SM CLR 21/17 A2993 860 78 1800 020/03 RMK AO2 SLP129 T02110172 55002
14837KMSN MSN20020930025509309/30/02 02:55:31  5-MIN KMSN 300855Z 00000KT 10SM CLR 21/17 A2993 860 78 1800 000/00 RMK AO2
14837KMSN MSN20020930030009309/30/02 03:00:31  5-MIN KMSN 300900Z 00000KT 10SM CLR 21/17 A2993 860 78 1800 000/00 RMK AO2
14837KMSN MSN20020930030509309/30/02 03:05:31  5-MIN KMSN 300905Z VRB04KT 10SM CLR 21/17 A2993 860 78 1800 VRB/04 RMK AO2
14837KMSN MSN20020930031009309/30/02 03:10:31  5-MIN KMSN 300910Z VRB03KT 10SM CLR 21/18 A2993 850 84 1700 VRB/03 RMK AO2
14837KMSN MSN20020930031509309/30/02 03:15:31  5-MIN KMSN 300915Z 00000KT 10SM CLR 22/17 A2993 850 75 1900 000/00 RMK AO2
14837KMSN MSN20020930032009309/30/02 03:20:31  5-MIN KMSN 300920Z 24005KT 10SM CLR 21/17 A2993 850 78 1800 240/05 RMK AO2
14837KMSN MSN20020930032509309/30/02 03:25:31  5-MIN KMSN 300925Z 00000KT 10SM CLR 22/17 A2994 850 75 1900 000/00 RMK AO2
14837KMSN MSN20020930033009309/30/02 03:30:31  5-MIN KMSN 300930Z VRB03KT 10SM CLR 22/17 A2993 850 75 1900 VRB/03 RMK AO2
14837KMSN MSN20020930033509309/30/02 03:35:31  5-MIN KMSN 300935Z 21004KT 10SM CLR 21/17 A2993 850 78 1800 210/04 RMK AO2
14837KMSN MSN20020930034009309/30/02 03:40:31  5-MIN KMSN 300940Z 21004KT 10SM CLR 22/17 A2993 860 75 1900 210/04 RMK AO2
14837KMSN MSN20020930034509309/30/02 03:45:31  5-MIN KMSN 300945Z 24004KT 10SM CLR 22/17 A2993 850 75 1900 230/04 RMK AO2
14837KMSN MSN20020930035011009/30/02 03:50:31  5-MIN KMSN 300950Z 21003KT 10SM CLR 22/17 A2994 850 75 1900 210/03 RMK AO2 SLP132 T02170172
14837KMSN MSN20020930035509309/30/02 03:55:31  5-MIN KMSN 300955Z 21003KT 10SM CLR 21/17 A2994 850 78 1800 210/03 RMK AO2
14837KMSN MSN20020930040009309/30/02 04:00:31  5-MIN KMSN 301000Z 00000KT 10SM CLR 21/17 A2994 850 78 1800 000/00 RMK AO2
14837KMSN MSN20020930040509309/30/02 04:05:31  5-MIN KMSN 301005Z 16003KT 10SM CLR 21/17 A2993 850 78 1800 160/03 RMK AO2
14837KMSN MSN20020930041009309/30/02 04:10:31  5-MIN KMSN 301010Z 16004KT 10SM CLR 20/17 A2993 850 84 1700 160/04 RMK AO2
14837KMSN MSN20020930041509309/30/02 04:15:31  5-MIN KMSN 301015Z 17004KT 10SM CLR 21/17 A2993 860 81 1700 170/04 RMK AO2
14837KMSN MSN20020930042009309/30/02 04:20:31  5-MIN KMSN 301020Z 15005KT 10SM CLR 20/17 A2993 860 84 1700 150/05 RMK AO2
14837KMSN MSN20020930042509309/30/02 04:25:31  5-MIN KMSN 301025Z 15006KT 10SM CLR 20/17 A2992 860 84 1700 150/06 RMK AO2
14837KMSN MSN20020930043009209/30/02 04:30:31  5-MIN KMSN 301030Z 16008KT 9SM CLR 20/17 A2992 860 84 1700 160/08 RMK AO2
14837KMSN MSN20020930043509209/30/02 04:35:31  5-MIN KMSN 301035Z 17006KT 9SM CLR 20/17 A2993 860 84 1700 170/06 RMK AO2
14837KMSN MSN20020930044009209/30/02 04:40:31  5-MIN KMSN 301040Z 16007KT 9SM CLR 21/17 A2993 860 81 1700 160/07 RMK AO2
14837KMSN MSN20020930044509509/30/02 04:45:31  5-MIN KMSN 301045Z 17007KT 9SM FEW120 21/17 A2993 860 81 1700 170/07 RMK AO2
14837KMSN MSN20020930045011209/30/02 04:50:31  5-MIN KMSN 301050Z 16007KT 9SM FEW120 21/17 A2993 860 81 1700 160/07 RMK AO2 SLP129 T02060172
14837KMSN MSN20020930045509509/30/02 04:55:31  5-MIN KMSN 301055Z 17007KT 9SM FEW120 21/17 A2993 860 81 1700 170/07 RMK AO2
14837KMSN MSN20020930050009509/30/02 05:00:31  5-MIN KMSN 301100Z 17007KT 9SM FEW120 21/17 A2993 860 81 1700 160/07 RMK AO2
14837KMSN MSN20020930050509509/30/02 05:05:31  5-MIN KMSN 301105Z 16007KT 9SM FEW120 21/17 A2993 860 81 1700 160/07 RMK AO2
14837KMSN MSN20020930051009509/30/02 05:10:31  5-MIN KMSN 301110Z 16010KT 9SM FEW120 20/17 A2993 860 84 1700 160/10 RMK AO2
14837KMSN MSN20020930051509209/30/02 05:15:31  5-MIN KMSN 301115Z 15010KT 9SM CLR 21/17 A2992 860 81 1800 150/10 RMK AO2
14837KMSN MSN20020930052009209/30/02 05:20:31  5-MIN KMSN 301120Z 15011KT 9SM CLR 21/17 A2992 860 81 1800 150/11 RMK AO2
14837KMSN MSN20020930052509309/30/02 05:25:31  5-MIN KMSN 301125Z 16013KT 10SM CLR 21/17 A2992 860 81 1800 160/13 RMK AO2
14837KMSN MSN20020930053009609/30/02 05:30:31  5-MIN KMSN 301130Z 17009KT 10SM FEW120 21/17 A2992 860 81 1700 170/09 RMK AO2
14837KMSN MSN20020930053509609/30/02 05:35:31  5-MIN KMSN 301135Z 17009KT 10SM BKN120 21/17 A2992 860 81 1700 170/09 RMK AO2
14837KMSN MSN20020930054009609/30/02 05:40:31  5-MIN KMSN 301140Z VRB04KT 10SM OVC110 21/17 A2993 860 81 1700 VRB/04 RMK AO2
14837KMSN MSN20020930054509609/30/02 05:45:31  5-MIN KMSN 301145Z 22005KT 10SM OVC110 21/17 A2994 840 81 1700 220/05 RMK AO2
14837KMSN MSN20020930055013109/30/02 05:50:31  5-MIN KMSN 301150Z 18005KT 10SM BKN100 21/17 A2994 850 81 1700 180/05 RMK AO2 SLP133 T02060172 10228 20200 53005
14837KMSN MSN20020930055509609/30/02 05:55:31  5-MIN KMSN 301155Z VRB03KT 10SM FEW100 21/17 A2995 840 81 1700 VRB/03 RMK AO2
14837KMSN MSN20020930060009609/30/02 06:00:31  5-MIN KMSN 301200Z 19005KT 10SM FEW095 20/17 A2994 850 84 1700 190/05 RMK AO2
14837KMSN MSN20020930060509509/30/02 06:05:31  5-MIN KMSN 301205Z 19006KT 9SM FEW095 21/17 A2994 850 81 1700 190/06 RMK AO2
14837KMSN MSN20020930061009209/30/02 06:10:31  5-MIN KMSN 301210Z 17009KT 9SM CLR 20/17 A2994 850 84 1700 170/09 RMK AO2
14837KMSN MSN20020930061509209/30/02 06:15:31  5-MIN KMSN 301215Z 18008KT 8SM CLR 20/17 A2993 850 84 1700 180/08 RMK AO2
14837KMSN MSN20020930062009209/30/02 06:20:31  5-MIN KMSN 301220Z 18007KT 8SM CLR 20/17 A2994 850 84 1700 180/07 RMK AO2
14837KMSN MSN20020930062509209/30/02 06:25:31  5-MIN KMSN 301225Z 22003KT 8SM CLR 20/17 A2994 840 84 1700 210/03 RMK AO2
14837KMSN MSN20020930063009209/30/02 06:30:31  5-MIN KMSN 301230Z 16005KT 8SM CLR 20/17 A2994 850 84 1700 150/05 RMK AO2
14837KMSN MSN20020930063509209/30/02 06:35:31  5-MIN KMSN 301235Z 17005KT 8SM CLR 19/17 A2994 850 87 1600 170/05 RMK AO2
14837KMSN MSN20020930064009209/30/02 06:40:31  5-MIN KMSN 301240Z 17006KT 7SM CLR 19/17 A2993 850 87 1600 170/06 RMK AO2
14837KMSN MSN20020930064509209/30/02 06:45:31  5-MIN KMSN 301245Z 17007KT 7SM CLR 19/17 A2994 850 87 1600 170/07 RMK AO2
14837KMSN MSN20020930065010909/30/02 06:50:31  5-MIN KMSN 301250Z 16006KT 7SM CLR 19/17 A2993 850 87 1600 160/06 RMK AO2 SLP132 T01940172
14837KMSN MSN20020930065509209/30/02 06:55:31  5-MIN KMSN 301255Z 16007KT 7SM CLR 19/17 A2993 850 87 1600 160/07 RMK AO2
14837KMSN MSN20020930070009209/30/02 07:00:31  5-MIN KMSN 301300Z 16006KT 7SM CLR 19/17 A2993 850 87 1600 160/06 RMK AO2
14837KMSN MSN20020930070509309/30/02 07:05:31  5-MIN KMSN 301305Z 17007KT 10SM CLR 19/17 A2993 860 84 1600 170/07 RMK AO2
14837KMSN MSN20020930071009309/30/02 07:10:31  5-MIN KMSN 301310Z 17007KT 10SM CLR 19/17 A2993 860 87 1600 170/07 RMK AO2
14837KMSN MSN20020930071509309/30/02 07:15:31  5-MIN KMSN 301315Z 17008KT 10SM CLR 20/17 A2993 860 81 1700 170/08 RMK AO2
14837KMSN MSN20020930072009309/30/02 07:20:31  5-MIN KMSN 301320Z 17007KT 10SM CLR 20/17 A2993 860 84 1700 170/07 RMK AO2
14837KMSN MSN20020930072509309/30/02 07:25:31  5-MIN KMSN 301325Z 16007KT 10SM CLR 20/17 A2992 860 81 1700 160/07 RMK AO2
14837KMSN MSN20020930073009309/30/02 07:30:31  5-MIN KMSN 301330Z 17009KT 10SM CLR 20/17 A2992 860 81 1700 170/09 RMK AO2
14837KMSN MSN20020930073509309/30/02 07:35:31  5-MIN KMSN 301335Z 17010KT 10SM CLR 20/17 A2992 860 81 1700 170/10 RMK AO2
14837KMSN MSN20020930074009309/30/02 07:40:31  5-MIN KMSN 301340Z 17011KT 10SM CLR 21/17 A2992 870 78 1800 170/11 RMK AO2
14837KMSN MSN20020930074509309/30/02 07:45:31  5-MIN KMSN 301345Z 18010KT 10SM CLR 21/17 A2992 870 78 1800 170/10 RMK AO2
14837KMSN MSN20020930075011009/30/02 07:50:31  5-MIN KMSN 301350Z 18011KT 10SM CLR 21/17 A2992 860 78 1700 180/11 RMK AO2 SLP129 T02060167
14837KMSN MSN20020930075509309/30/02 07:55:31  5-MIN KMSN 301355Z 18010KT 10SM CLR 21/17 A2992 860 78 1700 180/10 RMK AO2
14837KMSN MSN20020930080009309/30/02 08:00:31  5-MIN KMSN 301400Z 18014KT 10SM CLR 21/17 A2992 860 78 1700 180/14 RMK AO2
14837KMSN MSN20020930080509309/30/02 08:05:31  5-MIN KMSN 301405Z 18012KT 10SM CLR 21/17 A2992 870 75 1800 180/12 RMK AO2
14837KMSN MSN20020930081009309/30/02 08:10:31  5-MIN KMSN 301410Z 18011KT 10SM CLR 21/17 A2992 870 75 1800 180/11 RMK AO2
14837KMSN MSN20020930081509609/30/02 08:15:31  5-MIN KMSN 301415Z 18010KT 10SM SCT110 21/17 A2991 870 75 1800 180/10 RMK AO2
14837KMSN MSN20020930082009609/30/02 08:20:31  5-MIN KMSN 301420Z 18011KT 10SM BKN110 21/16 A2991 870 73 1800 180/11 RMK AO2
14837KMSN MSN20020930082509609/30/02 08:25:31  5-MIN KMSN 301425Z 18012KT 10SM BKN110 21/17 A2991 870 75 1800 180/12 RMK AO2
14837KMSN MSN20020930083009609/30/02 08:30:31  5-MIN KMSN 301430Z 19010KT 10SM BKN120 21/16 A2991 880 73 1800 190/10 RMK AO2
14837KMSN MSN20020930083509609/30/02 08:35:31  5-MIN KMSN 301435Z 18010KT 10SM BKN120 22/17 A2991 870 73 1900 180/10 RMK AO2
14837KMSN MSN20020930084009309/30/02 08:40:31  5-MIN KMSN 301440Z 17010KT 10SM CLR 22/17 A2991 880 73 1900 170/10 RMK AO2
14837KMSN MSN20020930084509309/30/02 08:45:31  5-MIN KMSN 301445Z 19009KT 10SM CLR 22/17 A2990 880 70 2000 180/09 RMK AO2
14837KMSN MSN20020930085011609/30/02 08:50:31  5-MIN KMSN 301450Z 19013KT 10SM CLR 22/17 A2991 870 70 2000 180/13 RMK AO2 SLP125 T02220167 51005
14837KMSN MSN20020930085509309/30/02 08:55:31  5-MIN KMSN 301455Z 19010KT 10SM CLR 22/17 A2991 880 73 1900 190/10 RMK AO2
14837KMSN MSN20020930090009309/30/02 09:00:31  5-MIN KMSN 301500Z 18012KT 10SM CLR 22/17 A2990 880 73 1900 170/12 RMK AO2
14837KMSN MSN20020930090509309/30/02 09:05:31  5-MIN KMSN 301505Z 19010KT 10SM CLR 22/16 A2991 870 70 1900 190/10 RMK AO2
14837KMSN MSN20020930091009309/30/02 09:10:31  5-MIN KMSN 301510Z 18011KT 10SM CLR 22/17 A2991 880 73 1900 180/11 RMK AO2
14837KMSN MSN20020930091509309/30/02 09:15:31  5-MIN KMSN 301515Z 18008KT 10SM CLR 22/17 A2991 880 73 1900 180/08 RMK AO2
14837KMSN MSN20020930092009309/30/02 09:20:31  5-MIN KMSN 301520Z 18010KT 10SM CLR 22/17 A2991 880 70 2000 180/10 RMK AO2
14837KMSN MSN20020930092509309/30/02 09:25:31  5-MIN KMSN 301525Z 18008KT 10SM CLR 22/17 A2990 880 70 2000 170/08 RMK AO2
14837KMSN MSN20020930093009309/30/02 09:30:31  5-MIN KMSN 301530Z 17009KT 10SM CLR 22/17 A2990 890 70 2000 170/09 RMK AO2
14837KMSN MSN20020930093509309/30/02 09:35:31  5-MIN KMSN 301535Z 18008KT 10SM CLR 22/17 A2990 890 70 2000 180/08 RMK AO2
14837KMSN MSN20020930094009309/30/02 09:40:31  5-MIN KMSN 301540Z 19008KT 10SM CLR 23/17 A2990 890 68 2000 190/08 RMK AO2
14837KMSN MSN20020930094509309/30/02 09:45:31  5-MIN KMSN 301545Z 19008KT 10SM CLR 23/17 A2990 880 68 2000 190/08 RMK AO2
14837KMSN MSN20020930095011009/30/02 09:50:31  5-MIN KMSN 301550Z 19008KT 10SM CLR 23/17 A2989 890 68 2000 190/08 RMK AO2 SLP118 T02280167
14837KMSN MSN20020930095509309/30/02 09:55:31  5-MIN KMSN 301555Z 18008KT 10SM CLR 23/17 A2989 890 68 2000 180/08 RMK AO2
14837KMSN MSN20020930100009309/30/02 10:00:31  5-MIN KMSN 301600Z 19008KT 10SM CLR 23/17 A2989 890 70 2000 190/08 RMK AO2
14837KMSN MSN20020930100509309/30/02 10:05:31  5-MIN KMSN 301605Z 17008KT 10SM CLR 23/17 A2989 890 70 2000 170/08 RMK AO2
14837KMSN MSN20020930101009309/30/02 10:10:31  5-MIN KMSN 301610Z 18007KT 10SM CLR 23/17 A2989 900 68 2100 180/07 RMK AO2
14837KMSN MSN20020930101509309/30/02 10:15:31  5-MIN KMSN 301615Z 17011KT 10SM CLR 23/17 A2989 890 66 2100 170/11 RMK AO2
14837KMSN MSN20020930102009309/30/02 10:20:31  5-MIN KMSN 301620Z 17008KT 10SM CLR 23/17 A2988 900 68 2100 170/08 RMK AO2
14837KMSN MSN20020930102509309/30/02 10:25:31  5-MIN KMSN 301625Z 18010KT 10SM CLR 23/17 A2988 900 68 2100 180/10 RMK AO2
14837KMSN MSN20020930103009309/30/02 10:30:31  5-MIN KMSN 301630Z 18008KT 10SM CLR 23/17 A2988 900 68 2100 180/08 RMK AO2
14837KMSN MSN20020930103509309/30/02 10:35:31  5-MIN KMSN 301635Z 18009KT 10SM CLR 24/17 A2988 900 63 2200 180/09 RMK AO2
14837KMSN MSN20020930104009309/30/02 10:40:31  5-MIN KMSN 301640Z 18008KT 10SM CLR 24/17 A2988 900 66 2200 180/08 RMK AO2
14837KMSN MSN20020930104509309/30/02 10:45:31  5-MIN KMSN 301645Z 18010KT 10SM CLR 24/17 A2988 900 66 2200 170/10 RMK AO2
14837KMSN MSN20020930105011009/30/02 10:50:31  5-MIN KMSN 301650Z 18012KT 10SM CLR 24/17 A2988 910 66 2200 180/12 RMK AO2 SLP111 T02390172
14837KMSN MSN20020930105509309/30/02 10:55:31  5-MIN KMSN 301655Z 19011KT 10SM CLR 24/17 A2987 910 63 2200 180/11 RMK AO2
14837KMSN MSN20020930110009309/30/02 11:00:31  5-MIN KMSN 301700Z 19010KT 10SM CLR 24/17 A2987 910 63 2200 180/10 RMK AO2
14837KMSN MSN20020930110509309/30/02 11:05:31  5-MIN KMSN 301705Z 18009KT 10SM CLR 24/17 A2987 910 63 2300 180/09 RMK AO2
14837KMSN MSN20020930111009909/30/02 11:10:31  5-MIN KMSN 301710Z 18011G17KT 10SM CLR 24/17 A2987 910 61 2300 180/11G17 RMK AO2
14837KMSN MSN20020930111509309/30/02 11:15:31  5-MIN KMSN 301715Z 18013KT 10SM CLR 25/17 A2986 920 61 2300 180/13 RMK AO2
14837KMSN MSN20020930112009309/30/02 11:20:31  5-MIN KMSN 301720Z 19012KT 10SM CLR 26/17 A2986 920 59 2400 180/12 RMK AO2
14837KMSN MSN20020930112509309/30/02 11:25:31  5-MIN KMSN 301725Z 18013KT 10SM CLR 25/17 A2986 920 61 2300 180/13 RMK AO2
14837KMSN MSN20020930113009309/30/02 11:30:31  5-MIN KMSN 301730Z 18013KT 10SM CLR 26/17 A2986 920 57 2400 180/13 RMK AO2
14837KMSN MSN20020930113509909/30/02 11:35:31  5-MIN KMSN 301735Z 18013G18KT 10SM CLR 26/17 A2986 920 59 2400 180/13G18 RMK AO2
14837KMSN MSN20020930114009309/30/02 11:40:31  5-MIN KMSN 301740Z 18013KT 10SM CLR 26/17 A2986 920 59 2400 180/13 RMK AO2
14837KMSN MSN20020930114509909/30/02 11:45:31  5-MIN KMSN 301745Z 18014G19KT 10SM CLR 26/17 A2986 920 57 2500 180/14G19 RMK AO2
14837KMSN MSN20020930115013409/30/02 11:50:31  5-MIN KMSN 301750Z 18014G22KT 10SM CLR 26/17 A2985 930 55 2500 180/14G22 RMK AO2 SLP104 T02610167 10261 20194 58012
14837KMSN MSN20020930115509909/30/02 11:55:31  5-MIN KMSN 301755Z 17012G22KT 10SM CLR 26/17 A2985 930 57 2500 170/12G22 RMK AO2
14837KMSN MSN20020930120009309/30/02 12:00:31  5-MIN KMSN 301800Z 17012KT 10SM CLR 26/17 A2985 930 57 2500 170/12 RMK AO2
14837KMSN MSN20020930120509309/30/02 12:05:31  5-MIN KMSN 301805Z 17012KT 10SM CLR 27/17 A2984 940 55 2500 170/12 RMK AO2
14837KMSN MSN20020930121009309/30/02 12:10:31  5-MIN KMSN 301810Z 18012KT 10SM CLR 27/17 A2984 940 55 2500 180/12 RMK AO2
14837KMSN MSN20020930121509309/30/02 12:15:31  5-MIN KMSN 301815Z 19014KT 10SM CLR 27/17 A2984 940 52 2600 190/14 RMK AO2
14837KMSN MSN20020930122009909/30/02 12:20:31  5-MIN KMSN 301820Z 19012G20KT 10SM CLR 27/17 A2984 940 52 2600 190/12G20 RMK AO2
14837KMSN MSN20020930122509909/30/02 12:25:31  5-MIN KMSN 301825Z 18013G20KT 10SM CLR 27/17 A2983 950 52 2600 180/13G20 RMK AO2
14837KMSN MSN20020930123009309/30/02 12:30:31  5-MIN KMSN 301830Z 18012KT 10SM CLR 27/17 A2983 950 52 2600 180/12 RMK AO2
14837KMSN MSN20020930123509309/30/02 12:35:31  5-MIN KMSN 301835Z 19012KT 10SM CLR 28/17 A2983 950 52 2700 190/12 RMK AO2
14837KMSN MSN20020930124009909/30/02 12:40:31  5-MIN KMSN 301840Z 18014G18KT 10SM CLR 28/17 A2983 950 50 2700 180/14G18 RMK AO2
14837KMSN MSN20020930124509909/30/02 12:45:31  5-MIN KMSN 301845Z 19010G18KT 10SM CLR 28/17 A2982 950 50 2700 190/10G18 RMK AO2
14837KMSN MSN20020930125011609/30/02 12:50:31  5-MIN KMSN 301850Z 18016G20KT 10SM CLR 28/17 A2982 960 50 2700 180/16G20 RMK AO2 SLP091 T02780167
14837KMSN MSN20020930125509909/30/02 12:55:31  5-MIN KMSN 301855Z 19015G20KT 10SM CLR 28/17 A2982 960 50 2700 190/15G20 RMK AO2
14837KMSN MSN20020930130009909/30/02 13:00:31  5-MIN KMSN 301900Z 18015G20KT 10SM CLR 28/17 A2981 960 50 2700 180/15G20 RMK AO2
14837KMSN MSN20020930130509909/30/02 13:05:31  5-MIN KMSN 301905Z 19015G20KT 10SM CLR 28/16 A2981 960 48 2700 190/15G20 RMK AO2
14837KMSN MSN20020930131009909/30/02 13:10:31  5-MIN KMSN 301910Z 18014G21KT 10SM CLR 28/16 A2981 960 47 2800 180/14G21 RMK AO2
14837KMSN MSN20020930131509909/30/02 13:15:31  5-MIN KMSN 301915Z 19013G21KT 10SM CLR 28/17 A2981 970 48 2800 190/13G21 RMK AO2
14837KMSN MSN20020930132009909/30/02 13:20:31  5-MIN KMSN 301920Z 18018G21KT 10SM CLR 28/17 A2981 970 48 2800 180/18G21 RMK AO2
14837KMSN MSN20020930132509909/30/02 13:25:31  5-MIN KMSN 301925Z 18013G21KT 10SM CLR 28/16 A2981 970 47 2800 180/13G21 RMK AO2
14837KMSN MSN20020930133009909/30/02 13:30:31  5-MIN KMSN 301930Z 19013G19KT 10SM CLR 28/16 A2981 970 47 2800 190/13G19 RMK AO2
14837KMSN MSN20020930133509909/30/02 13:35:31  5-MIN KMSN 301935Z 19016G23KT 10SM CLR 28/16 A2980 970 45 2800 190/16G23 RMK AO2
14837KMSN MSN20020930134009909/30/02 13:40:31  5-MIN KMSN 301940Z 18015G23KT 10SM CLR 28/16 A2980 970 45 2800 180/15G23 RMK AO2
14837KMSN MSN20020930134509909/30/02 13:45:31  5-MIN KMSN 301945Z 19014G23KT 10SM CLR 28/16 A2980 980 45 2800 180/14G23 RMK AO2
14837KMSN MSN20020930135011609/30/02 13:50:31  5-MIN KMSN 301950Z 19014G23KT 10SM CLR 28/16 A2979 980 45 2800 190/14G23 RMK AO2 SLP082 T02830156
14837KMSN MSN20020930135509909/30/02 13:55:31  5-MIN KMSN 301955Z 18016G23KT 10SM CLR 28/16 A2979 980 45 2800 180/16G23 RMK AO2
14837KMSN MSN20020930140009909/30/02 14:00:31  5-MIN KMSN 302000Z 19014G23KT 10SM CLR 29/16 A2979 980 44 2800 190/14G23 RMK AO2
14837KMSN MSN20020930140509909/30/02 14:05:31  5-MIN KMSN 302005Z 19014G22KT 10SM CLR 29/15 A2979 980 42 2800 190/14G22 RMK AO2
14837KMSN MSN20020930141009909/30/02 14:10:31  5-MIN KMSN 302010Z 18017G25KT 10SM CLR 29/15 A2979 980 42 2800 180/17G25 RMK AO2
14837KMSN MSN20020930141509909/30/02 14:15:31  5-MIN KMSN 302015Z 19016G25KT 10SM CLR 29/14 A2979 980 40 2800 190/16G25 RMK AO2
14837KMSN MSN20020930142009909/30/02 14:20:31  5-MIN KMSN 302020Z 19017G25KT 10SM CLR 29/14 A2979 980 40 2800 190/17G25 RMK AO2
14837KMSN MSN20020930142509909/30/02 14:25:31  5-MIN KMSN 302025Z 18015G24KT 10SM CLR 29/15 A2979 980 42 2800 180/15G24 RMK AO2
14837KMSN MSN20020930143009909/30/02 14:30:31  5-MIN KMSN 302030Z 18020G24KT 10SM CLR 29/14 A2979 980 40 2800 180/20G24 RMK AO2
14837KMSN MSN20020930143509909/30/02 14:35:31  5-MIN KMSN 302035Z 18017G24KT 10SM CLR 29/14 A2979 990 40 2800 180/17G24 RMK AO2
14837KMSN MSN20020930144009909/30/02 14:40:31  5-MIN KMSN 302040Z 19018G24KT 10SM CLR 29/14 A2979 990 39 2800 190/18G24 RMK AO2
14837KMSN MSN20020930144509909/30/02 14:45:31  5-MIN KMSN 302045Z 20016G24KT 10SM CLR 28/14 A2979 990 40 2800 200/16G24 RMK AO2
14837KMSN MSN20020930145012209/30/02 14:50:31  5-MIN KMSN 302050Z 19019G24KT 10SM CLR 29/14 A2978 990 40 2800 190/19G24 RMK AO2 SLP079 T02890144 58018
14837KMSN MSN20020930145509909/30/02 14:55:31  5-MIN KMSN 302055Z 19017G24KT 10SM CLR 28/14 A2979 990 40 2800 180/17G24 RMK AO2
14837KMSN MSN20020930150009909/30/02 15:00:31  5-MIN KMSN 302100Z 19015G24KT 10SM CLR 28/14 A2978 990 42 2800 180/15G24 RMK AO2
14837KMSN MSN20020930150509909/30/02 15:05:31  5-MIN KMSN 302105Z 19013G23KT 10SM CLR 28/14 A2978 990 42 2800 190/13G23 RMK AO2
14837KMSN MSN20020930151009909/30/02 15:10:31  5-MIN KMSN 302110Z 19012G23KT 10SM CLR 28/14 A2978 990 42 2800 190/12G23 RMK AO2
14837KMSN MSN20020930151509909/30/02 15:15:31  5-MIN KMSN 302115Z 19014G20KT 10SM CLR 28/14 A2978 990 43 2700 190/14G20 RMK AO2
14837KMSN MSN20020930152009909/30/02 15:20:31  5-MIN KMSN 302120Z 19019G22KT 10SM CLR 28/14 A2978 990 40 2800 190/19G22 RMK AO2
14837KMSN MSN20020930152509909/30/02 15:25:31  5-MIN KMSN 302125Z 19014G23KT 10SM CLR 28/14 A2978 990 40 2800 190/14G23 RMK AO2
14837KMSN MSN20020930153010009/30/02 15:30:31  5-MIN KMSN 302130Z 18015G23KT 10SM CLR 28/14 A2978 1000 40 2800 180/15G23 RMK AO2
14837KMSN MSN20020930153509409/30/02 15:35:31  5-MIN KMSN 302135Z 19015KT 10SM CLR 28/14 A2977 1000 40 2800 190/15 RMK AO2
14837KMSN MSN20020930154009409/30/02 15:40:31  5-MIN KMSN 302140Z 18012KT 10SM CLR 28/14 A2977 1000 40 2800 180/12 RMK AO2
14837KMSN MSN20020930154510009/30/02 15:45:31  5-MIN KMSN 302145Z 18014G19KT 10SM CLR 28/14 A2977 1010 40 2800 180/14G19 RMK AO2
14837KMSN MSN20020930155011709/30/02 15:50:31  5-MIN KMSN 302150Z 18017G23KT 10SM CLR 28/14 A2976 1010 43 2700 180/17G23 RMK AO2 SLP073 T02780144
14837KMSN MSN20020930155510009/30/02 15:55:31  5-MIN KMSN 302155Z 18017G23KT 10SM CLR 28/14 A2976 1010 42 2700 180/17G23 RMK AO2
14837KMSN MSN20020930160010009/30/02 16:00:31  5-MIN KMSN 302200Z 19015G22KT 10SM CLR 28/14 A2976 1010 43 2700 180/15G22 RMK AO2
14837KMSN MSN20020930160510009/30/02 16:05:31  5-MIN KMSN 302205Z 18015G20KT 10SM CLR 28/14 A2977 1010 43 2700 180/15G20 RMK AO2
14837KMSN MSN20020930161010009/30/02 16:10:31  5-MIN KMSN 302210Z 18014G22KT 10SM CLR 28/14 A2977 1000 43 2700 180/14G22 RMK AO2
14837KMSN MSN20020930161510009/30/02 16:15:31  5-MIN KMSN 302215Z 18014G22KT 10SM CLR 28/14 A2977 1000 43 2700 180/14G22 RMK AO2
14837KMSN MSN20020930162010009/30/02 16:20:31  5-MIN KMSN 302220Z 18013G20KT 10SM CLR 27/14 A2977 1000 43 2700 180/13G20 RMK AO2
14837KMSN MSN20020930162510009/30/02 16:25:31  5-MIN KMSN 302225Z 18015G20KT 10SM CLR 27/14 A2978 1000 43 2700 180/15G20 RMK AO2
14837KMSN MSN20020930163009909/30/02 16:30:31  5-MIN KMSN 302230Z 18011G21KT 10SM CLR 27/14 A2978 990 43 2700 180/11G21 RMK AO2
14837KMSN MSN20020930163509909/30/02 16:35:31  5-MIN KMSN 302235Z 18011G21KT 10SM CLR 27/14 A2978 990 46 2600 180/11G21 RMK AO2
14837KMSN MSN20020930164009409/30/02 16:40:31  5-MIN KMSN 302240Z 18012KT 10SM CLR 27/14 A2978 1000 45 2700 180/12 RMK AO2
14837KMSN MSN20020930164509409/30/02 16:45:31  5-MIN KMSN 302245Z 19011KT 10SM CLR 27/14 A2978 1000 46 2600 180/11 RMK AO2
14837KMSN MSN20020930165011309/30/02 16:50:31  5-MIN KMSN 302250Z 18010KT 10SM FEW080 27/14 A2978 990 46 2600 180/10 RMK AO2 SLP079 T02670144
14837KMSN MSN20020930165509609/30/02 16:55:31  5-MIN KMSN 302255Z 19011KT 10SM FEW080 27/14 A2978 990 46 2600 190/11 RMK AO2
14837KMSN MSN20020930170009609/30/02 17:00:31  5-MIN KMSN 302300Z 18010KT 10SM FEW080 27/14 A2978 990 46 2600 180/10 RMK AO2
14837KMSN MSN20020930170509609/30/02 17:05:31  5-MIN KMSN 302305Z 18010KT 10SM FEW080 27/14 A2978 990 46 2600 180/10 RMK AO2
14837KMSN MSN20020930171009609/30/02 17:10:31  5-MIN KMSN 302310Z 18009KT 10SM FEW080 27/14 A2979 990 46 2600 180/09 RMK AO2
14837KMSN MSN20020930171509609/30/02 17:15:31  5-MIN KMSN 302315Z 19007KT 10SM FEW080 27/14 A2979 980 46 2600 190/07 RMK AO2
14837KMSN MSN20020930172009609/30/02 17:20:31  5-MIN KMSN 302320Z 19007KT 10SM FEW080 26/15 A2979 990 50 2500 180/07 RMK AO2
14837KMSN MSN20020930172509609/30/02 17:25:31  5-MIN KMSN 302325Z 17007KT 10SM FEW080 26/15 A2978 990 50 2500 170/07 RMK AO2
14837KMSN MSN20020930173009709/30/02 17:30:31  5-MIN KMSN 302330Z 16011KT 10SM FEW080 25/16 A2977 1010 55 2400 160/11 RMK AO2
14837KMSN MSN20020930173509709/30/02 17:35:31  5-MIN KMSN 302335Z 16010KT 10SM FEW070 25/16 A2977 1010 55 2400 160/10 RMK AO2
14837KMSN MSN20020930174009709/30/02 17:40:31  5-MIN KMSN 302340Z 15010KT 10SM FEW070 25/16 A2976 1010 55 2400 150/10 RMK AO2
14837KMSN MSN20020930174510509/30/02 17:45:31  5-MIN KMSN 302345Z 16010KT 10SM FEW070 25/15 A2976 1010 53 2400 160/10 RMK AO2 VIRGA E
14837KMSN MSN20020930175014009/30/02 17:50:31  5-MIN KMSN 302350Z 17009KT 10SM FEW070 25/16 A2976 1010 55 2400 170/09 RMK AO2 SLP073 VIRGA E T02500156 10289 20250 56022
14837KMSN MSN20020930175509709/30/02 17:55:31  5-MIN KMSN 302355Z 17010KT 10SM FEW070 24/16 A2976 1010 57 2400 170/10 RMK AO2
14837KMSN MSN20020930180009709/30/02 18:00:31  5-MIN KMSN 010000Z 17010KT 10SM FEW070 24/16 A2976 1010 57 2400 170/10 RMK AO2
14837KMSN MSN20020930180509709/30/02 18:05:31  5-MIN KMSN 010005Z 17009KT 10SM FEW070 25/16 A2977 1010 55 2400 170/09 RMK AO2
14837KMSN MSN20020930181009709/30/02 18:10:31  5-MIN KMSN 010010Z 17009KT 10SM FEW070 24/16 A2977 1010 57 2400 170/09 RMK AO2
14837KMSN MSN20020930181509709/30/02 18:15:31  5-MIN KMSN 010015Z 17009KT 10SM FEW070 24/16 A2977 1000 57 2400 170/09 RMK AO2
14837KMSN MSN20020930182009709/30/02 18:20:31  5-MIN KMSN 010020Z 18011KT 10SM FEW070 24/15 A2977 1000 55 2400 180/11 RMK AO2
14837KMSN MSN20020930182509709/30/02 18:25:31  5-MIN KMSN 010025Z 18011KT 10SM FEW070 25/15 A2977 1000 53 2400 180/11 RMK AO2
14837KMSN MSN20020930183009709/30/02 18:30:31  5-MIN KMSN 010030Z 18009KT 10SM FEW070 25/15 A2978 1000 53 2400 180/09 RMK AO2
14837KMSN MSN20020930183509709/30/02 18:35:31  5-MIN KMSN 010035Z 18010KT 10SM FEW070 24/15 A2978 1000 55 2400 180/10 RMK AO2
14837KMSN MSN20020930184009609/30/02 18:40:31  5-MIN KMSN 010040Z 18010KT 10SM FEW070 24/15 A2978 990 55 2300 180/10 RMK AO2
14837KMSN MSN20020930184509309/30/02 18:45:31  5-MIN KMSN 010045Z 19009KT 10SM CLR 24/15 A2979 990 55 2300 180/09 RMK AO2
14837KMSN MSN20020930185011009/30/02 18:50:31  5-MIN KMSN 010050Z 18009KT 10SM CLR 24/15 A2979 990 55 2300 180/09 RMK AO2 SLP082 T02440150
14837KMSN MSN20020930185509309/30/02 18:55:31  5-MIN KMSN 010055Z 18009KT 10SM CLR 24/15 A2978 990 55 2300 180/09 RMK AO2
14837KMSN MSN20020930190009309/30/02 19:00:31  5-MIN KMSN 010100Z 18011KT 10SM CLR 24/15 A2979 990 55 2300 180/11 RMK AO2
14837KMSN MSN20020930190509309/30/02 19:05:31  5-MIN KMSN 010105Z 18009KT 10SM CLR 24/15 A2979 990 55 2300 180/09 RMK AO2
14837KMSN MSN20020930191009309/30/02 19:10:31  5-MIN KMSN 010110Z 18010KT 10SM CLR 24/15 A2979 990 55 2300 180/10 RMK AO2
14837KMSN MSN20020930191509309/30/02 19:15:31  5-MIN KMSN 010115Z 18010KT 10SM CLR 24/15 A2979 990 55 2300 180/10 RMK AO2
14837KMSN MSN20020930192009309/30/02 19:20:31  5-MIN KMSN 010120Z 18010KT 10SM CLR 24/15 A2979 990 57 2300 180/10 RMK AO2
14837KMSN MSN20020930192509309/30/02 19:25:31  5-MIN KMSN 010125Z 18011KT 10SM CLR 24/15 A2979 990 57 2300 180/11 RMK AO2
14837KMSN MSN20020930193009309/30/02 19:30:31  5-MIN KMSN 010130Z 18011KT 10SM CLR 24/15 A2979 990 55 2300 180/11 RMK AO2
14837KMSN MSN20020930193509309/30/02 19:35:31  5-MIN KMSN 010135Z 18012KT 10SM CLR 24/15 A2979 990 55 2300 180/12 RMK AO2
14837KMSN MSN20020930194009309/30/02 19:40:31  5-MIN KMSN 010140Z 18011KT 10SM CLR 24/15 A2979 990 55 2300 180/11 RMK AO2
14837KMSN MSN20020930194509309/30/02 19:45:31  5-MIN KMSN 010145Z 18013KT 10SM CLR 24/15 A2979 990 55 2300 180/13 RMK AO2
14837KMSN MSN20020930195011309/30/02 19:50:31  5-MIN KMSN 010150Z 18013KT 10SM FEW120 24/15 A2979 980 55 2300 180/13 RMK AO2 SLP083 T02440150
14837KMSN MSN20020930195509309/30/02 19:55:31  5-MIN KMSN 010155Z 18011KT 10SM CLR 24/15 A2979 980 55 2300 180/11 RMK AO2
14837KMSN MSN20020930200009309/30/02 20:00:31  5-MIN KMSN 010200Z 18013KT 10SM CLR 24/15 A2979 980 57 2300 180/13 RMK AO2
14837KMSN MSN20020930200509909/30/02 20:05:31  5-MIN KMSN 010205Z 18010G18KT 10SM CLR 24/15 A2979 980 55 2300 180/10G18 RMK AO2
14837KMSN MSN20020930201009909/30/02 20:10:31  5-MIN KMSN 010210Z 18013G18KT 10SM CLR 24/15 A2979 980 57 2300 180/13G18 RMK AO2
14837KMSN MSN20020930201509909/30/02 20:15:31  5-MIN KMSN 010215Z 18013G18KT 10SM CLR 24/15 A2980 980 57 2300 180/13G18 RMK AO2
14837KMSN MSN20020930202009909/30/02 20:20:31  5-MIN KMSN 010220Z 19015G20KT 10SM CLR 24/15 A2980 980 57 2300 190/15G20 RMK AO2
14837KMSN MSN20020930202509909/30/02 20:25:31  5-MIN KMSN 010225Z 19010G20KT 10SM CLR 24/15 A2980 980 57 2300 190/10G20 RMK AO2
14837KMSN MSN20020930203009909/30/02 20:30:31  5-MIN KMSN 010230Z 19015G19KT 10SM CLR 24/15 A2980 980 57 2300 190/15G19 RMK AO2
14837KMSN MSN20020930203509309/30/02 20:35:31  5-MIN KMSN 010235Z 19012KT 10SM CLR 24/15 A2980 980 57 2300 190/12 RMK AO2
14837KMSN MSN20020930204009909/30/02 20:40:31  5-MIN KMSN 010240Z 19013G20KT 10SM CLR 24/15 A2980 970 57 2300 190/13G20 RMK AO2
14837KMSN MSN20020930204509909/30/02 20:45:31  5-MIN KMSN 010245Z 19013G21KT 10SM CLR 24/15 A2980 970 57 2300 190/13G21 RMK AO2
14837KMSN MSN20020930205012209/30/02 20:50:31  5-MIN KMSN 010250Z 19016G21KT 10SM CLR 24/15 A2980 970 57 2300 190/16G21 RMK AO2 SLP086 T02390150 58007
14837KMSN MSN20020930205509909/30/02 20:55:31  5-MIN KMSN 010255Z 19014G20KT 10SM CLR 24/15 A2980 970 57 2300 190/14G20 RMK AO2
14837KMSN MSN20020930210009909/30/02 21:00:31  5-MIN KMSN 010300Z 19013G20KT 10SM CLR 24/15 A2980 970 57 2300 190/13G20 RMK AO2
14837KMSN MSN20020930210509909/30/02 21:05:31  5-MIN KMSN 010305Z 19015G20KT 10SM CLR 24/15 A2980 970 57 2300 190/15G20 RMK AO2
14837KMSN MSN20020930211009909/30/02 21:10:31  5-MIN KMSN 010310Z 19013G19KT 10SM CLR 24/15 A2981 970 57 2300 190/13G19 RMK AO2
14837KMSN MSN20020930211509909/30/02 21:15:31  5-MIN KMSN 010315Z 19014G19KT 10SM CLR 24/15 A2981 970 57 2300 190/14G19 RMK AO2
14837KMSN MSN20020930212009909/30/02 21:20:31  5-MIN KMSN 010320Z 19013G19KT 10SM CLR 24/15 A2981 970 57 2300 190/13G19 RMK AO2
14837KMSN MSN20020930212509909/30/02 21:25:31  5-MIN KMSN 010325Z 19010G19KT 10SM CLR 24/15 A2981 970 57 2300 190/10G19 RMK AO2
14837KMSN MSN20020930213009909/30/02 21:30:31  5-MIN KMSN 010330Z 19014G19KT 10SM CLR 24/14 A2981 970 55 2300 190/14G19 RMK AO2
14837KMSN MSN20020930213509909/30/02 21:35:31  5-MIN KMSN 010335Z 19011G18KT 10SM CLR 24/14 A2981 970 55 2300 190/11G18 RMK AO2
14837KMSN MSN20020930214009909/30/02 21:40:31  5-MIN KMSN 010340Z 19012G20KT 10SM CLR 24/14 A2981 970 55 2300 190/12G20 RMK AO2
14837KMSN MSN20020930214509909/30/02 21:45:31  5-MIN KMSN 010345Z 20013G20KT 10SM CLR 24/14 A2981 970 55 2300 200/13G20 RMK AO2
14837KMSN MSN20020930215011609/30/02 21:50:31  5-MIN KMSN 010350Z 19012G17KT 10SM CLR 24/14 A2981 970 55 2300 190/12G17 RMK AO2 SLP090 T02390144
14837KMSN MSN20020930215509909/30/02 21:55:31  5-MIN KMSN 010355Z 19012G17KT 10SM CLR 24/14 A2981 970 55 2300 190/12G17 RMK AO2
14837KMSN MSN20020930220009309/30/02 22:00:31  5-MIN KMSN 010400Z 19010KT 10SM CLR 24/14 A2981 960 55 2300 190/10 RMK AO2
14837KMSN MSN20020930220509909/30/02 22:05:31  5-MIN KMSN 010405Z 19009G18KT 10SM CLR 24/14 A2981 960 55 2300 190/09G18 RMK AO2
14837KMSN MSN20020930221009909/30/02 22:10:31  5-MIN KMSN 010410Z 19013G18KT 10SM CLR 24/14 A2981 960 55 2300 190/13G18 RMK AO2
14837KMSN MSN20020930221509909/30/02 22:15:31  5-MIN KMSN 010415Z 20011G17KT 10SM CLR 24/14 A2981 960 55 2300 200/11G17 RMK AO2
14837KMSN MSN20020930222009309/30/02 22:20:31  5-MIN KMSN 010420Z 19014KT 10SM CLR 24/14 A2981 960 55 2300 190/14 RMK AO2
14837KMSN MSN20020930222509909/30/02 22:25:31  5-MIN KMSN 010425Z 20013G19KT 10SM CLR 23/14 A2981 960 57 2200 190/13G19 RMK AO2
14837KMSN MSN20020930223009909/30/02 22:30:31  5-MIN KMSN 010430Z 20011G19KT 10SM CLR 23/14 A2981 960 57 2200 200/11G19 RMK AO2
14837KMSN MSN20020930223509909/30/02 22:35:31  5-MIN KMSN 010435Z 19012G18KT 10SM CLR 23/14 A2981 960 57 2200 190/12G18 RMK AO2
14837KMSN MSN20020930224009909/30/02 22:40:31  5-MIN KMSN 010440Z 20010G18KT 10SM CLR 23/14 A2982 960 57 2200 190/10G18 RMK AO2
14837KMSN MSN20020930224509309/30/02 22:45:31  5-MIN KMSN 010445Z 19011KT 10SM CLR 23/14 A2981 960 57 2200 190/11 RMK AO2
14837KMSN MSN20020930225011609/30/02 22:50:31  5-MIN KMSN 010450Z 19010G17KT 10SM CLR 23/14 A2981 960 57 2200 190/10G17 RMK AO2 SLP090 T02330144
14837KMSN MSN20020930225509909/30/02 22:55:31  5-MIN KMSN 010455Z 19012G17KT 10SM CLR 23/14 A2981 960 57 2200 190/12G17 RMK AO2
14837KMSN MSN20020930230009309/30/02 23:00:31  5-MIN KMSN 010500Z 20010KT 10SM CLR 23/14 A2981 960 55 2200 200/10 RMK AO2
14837KMSN MSN20020930230509309/30/02 23:05:31  5-MIN KMSN 010505Z 20008KT 10SM CLR 23/14 A2981 960 55 2200 200/08 RMK AO2
14837KMSN MSN20020930231009909/30/02 23:10:31  5-MIN KMSN 010510Z 20010G18KT 10SM CLR 23/14 A2981 960 55 2200 200/10G18 RMK AO2
14837KMSN MSN20020930231509909/30/02 23:15:31  5-MIN KMSN 010515Z 20008G18KT 10SM CLR 23/14 A2982 960 55 2200 200/08G18 RMK AO2
14837KMSN MSN20020930232009909/30/02 23:20:31  5-MIN KMSN 010520Z 20011G16KT 10SM CLR 23/14 A2982 960 55 2200 200/11G16 RMK AO2
14837KMSN MSN20020930232509909/30/02 23:25:31  5-MIN KMSN 010525Z 20009G17KT 10SM CLR 23/14 A2982 960 57 2100 200/09G17 RMK AO2
14837KMSN MSN20020930233011509/30/02 23:30:31  5-MIN KMSN 010530Z 20008G17KT 170V230 10SM CLR 23/14 A2982 960 57 2100 200/08G17 170V230 RMK AO2
14837KMSN MSN20020930233510209/30/02 23:35:31  5-MIN KMSN 010535Z 20009G15KT 10SM FEW080 23/14 A2982 960 57 2100 200/09G15 RMK AO2
14837KMSN MSN20020930234010209/30/02 23:40:31  5-MIN KMSN 010540Z 20010G15KT 10SM FEW080 23/14 A2982 960 57 2100 190/10G15 RMK AO2
14837KMSN MSN20020930234510209/30/02 23:45:31  5-MIN KMSN 010545Z 20008G15KT 10SM FEW080 23/14 A2982 960 57 2100 200/08G15 RMK AO2
14837KMSN MSN20020930235014109/30/02 23:50:31  5-MIN KMSN 010550Z 21008KT 10SM FEW080 23/14 A2982 960 57 2100 210/08 RMK AO2 SLP093 T02280139 10250 20228 402890194 51013
14837KMSN MSN20020930235509609/30/02 23:55:31  5-MIN KMSN 010555Z 21008KT 10SM FEW080 23/14 A2982 960 57 2100 210/08 RMK AO2
