14837KMSN MSN20060701000009207/01/06 00:00:49  5-MIN KMSN 010600Z 17006KT 7SM CLR 21/16 A3000 790 70 1700 170/06 RMK AO2
14837KMSN MSN20060701000509207/01/06 00:05:31  5-MIN KMSN 010605Z 18006KT 7SM CLR 21/16 A3000 790 73 1700 170/06 RMK AO2
14837KMSN MSN20060701001009207/01/06 00:10:31  5-MIN KMSN 010610Z 18006KT 7SM CLR 21/16 A3000 790 73 1700 170/06 RMK AO2
14837KMSN MSN20060701001509207/01/06 00:15:31  5-MIN KMSN 010615Z 18007KT 7SM CLR 21/16 A3000 790 73 1700 180/07 RMK AO2
14837KMSN MSN20060701002009207/01/06 00:20:31  5-MIN KMSN 010620Z 18007KT 7SM CLR 21/16 A3000 790 70 1700 180/07 RMK AO2
14837KMSN MSN20060701002509207/01/06 00:25:31  5-MIN KMSN 010625Z 18009KT 7SM CLR 21/16 A3000 790 70 1700 180/09 RMK AO2
14837KMSN MSN20060701003009507/01/06 00:30:31  5-MIN KMSN 010630Z 18008KT 7SM FEW037 21/16 A3000 790 70 1700 180/08 RMK AO2
14837KMSN MSN20060701003509507/01/06 00:35:31  5-MIN KMSN 010635Z 17008KT 7SM FEW037 21/16 A3000 790 70 1700 170/08 RMK AO2
14837KMSN MSN20060701004009207/01/06 00:40:31  5-MIN KMSN 010640Z 17006KT 7SM CLR 21/16 A3000 790 70 1700 170/06 RMK AO2
14837KMSN MSN20060701004509207/01/06 00:45:31  5-MIN KMSN 010645Z 17007KT 7SM CLR 21/16 A3000 790 73 1700 170/07 RMK AO2
14837KMSN MSN20060701005010907/01/06 00:50:31  5-MIN KMSN 010650Z 17008KT 7SM CLR 21/16 A3000 790 73 1700 170/08 RMK AO2 SLP153 T02060156
14837KMSN MSN20060701005509207/01/06 00:55:31  5-MIN KMSN 010655Z 17008KT 7SM CLR 21/16 A3000 790 73 1700 170/08 RMK AO2
14837KMSN MSN20060701010009207/01/06 01:00:31  5-MIN KMSN 010700Z 17008KT 7SM CLR 21/16 A2999 800 73 1700 170/08 RMK AO2
14837KMSN MSN20060701010509207/01/06 01:05:31  5-MIN KMSN 010705Z 17008KT 7SM CLR 21/16 A2999 800 73 1700 170/08 RMK AO2
14837KMSN MSN20060701011009207/01/06 01:10:31  5-MIN KMSN 010710Z 18007KT 7SM CLR 21/16 A2999 800 73 1700 180/07 RMK AO2
14837KMSN MSN20060701011509207/01/06 01:15:31  5-MIN KMSN 010715Z 17007KT 7SM CLR 21/16 A2999 800 73 1700 170/07 RMK AO2
14837KMSN MSN20060701012009207/01/06 01:20:31  5-MIN KMSN 010720Z 17008KT 7SM CLR 21/16 A2999 800 73 1700 170/08 RMK AO2
14837KMSN MSN20060701012509207/01/06 01:25:31  5-MIN KMSN 010725Z 17007KT 7SM CLR 21/16 A2999 800 73 1700 170/07 RMK AO2
14837KMSN MSN20060701013009207/01/06 01:30:31  5-MIN KMSN 010730Z 17008KT 7SM CLR 20/16 A2998 810 75 1600 170/08 RMK AO2
14837KMSN MSN20060701013509207/01/06 01:35:31  5-MIN KMSN 010735Z 17008KT 7SM CLR 20/15 A2998 810 72 1600 170/08 RMK AO2
14837KMSN MSN20060701014009207/01/06 01:40:31  5-MIN KMSN 010740Z 17008KT 7SM CLR 20/15 A2998 810 72 1600 170/08 RMK AO2
14837KMSN MSN20060701014509207/01/06 01:45:31  5-MIN KMSN 010745Z 17008KT 7SM CLR 20/15 A2997 820 72 1600 160/08 RMK AO2
14837KMSN MSN20060701015010907/01/06 01:50:31  5-MIN KMSN 010750Z 17008KT 7SM CLR 20/15 A2997 820 72 1600 170/08 RMK AO2 SLP143 T02000150
14837KMSN MSN20060701015509207/01/06 01:55:31  5-MIN KMSN 010755Z 17008KT 7SM CLR 20/16 A2997 820 75 1600 170/08 RMK AO2
14837KMSN MSN20060701020009207/01/06 02:00:31  5-MIN KMSN 010800Z 17007KT 7SM CLR 20/16 A2997 820 75 1600 170/07 RMK AO2
14837KMSN MSN20060701020509207/01/06 02:05:31  5-MIN KMSN 010805Z 17007KT 7SM CLR 19/16 A2997 820 78 1600 170/07 RMK AO2
14837KMSN MSN20060701021009207/01/06 02:10:31  5-MIN KMSN 010810Z 16007KT 7SM CLR 19/16 A2996 820 78 1600 160/07 RMK AO2
14837KMSN MSN20060701021509207/01/06 02:15:31  5-MIN KMSN 010815Z 16007KT 7SM CLR 19/16 A2996 820 78 1600 160/07 RMK AO2
14837KMSN MSN20060701022009207/01/06 02:20:31  5-MIN KMSN 010820Z 17006KT 7SM CLR 19/16 A2996 820 78 1600 170/06 RMK AO2
14837KMSN MSN20060701022509207/01/06 02:25:31  5-MIN KMSN 010825Z 16006KT 7SM CLR 19/16 A2996 830 78 1600 160/06 RMK AO2
14837KMSN MSN20060701023009507/01/06 02:30:31  5-MIN KMSN 010830Z 16005KT 6SM HZ CLR 19/16 A2996 830 81 1500 160/05 RMK AO2
14837KMSN MSN20060701023509507/01/06 02:35:31  5-MIN KMSN 010835Z 16006KT 6SM HZ CLR 19/16 A2996 830 81 1500 160/06 RMK AO2
14837KMSN MSN20060701024009507/01/06 02:40:31  5-MIN KMSN 010840Z 16006KT 6SM HZ CLR 19/16 A2996 830 81 1500 160/06 RMK AO2
14837KMSN MSN20060701024509507/01/06 02:45:31  5-MIN KMSN 010845Z 16006KT 6SM HZ CLR 19/16 A2995 830 81 1500 160/06 RMK AO2
14837KMSN MSN20060701025011807/01/06 02:50:31  5-MIN KMSN 010850Z 16007KT 6SM HZ CLR 19/16 A2995 840 81 1500 160/07 RMK AO2 SLP137 T01890156 56002
14837KMSN MSN20060701025509507/01/06 02:55:31  5-MIN KMSN 010855Z 16008KT 6SM HZ CLR 19/16 A2995 840 81 1500 160/08 RMK AO2
14837KMSN MSN20060701030009507/01/06 03:00:31  5-MIN KMSN 010900Z 16007KT 6SM HZ CLR 19/16 A2995 840 84 1500 160/07 RMK AO2
14837KMSN MSN20060701030509507/01/06 03:05:31  5-MIN KMSN 010905Z 17006KT 6SM HZ CLR 19/16 A2995 840 84 1500 170/06 RMK AO2
14837KMSN MSN20060701031009507/01/06 03:10:31  5-MIN KMSN 010910Z 17006KT 6SM HZ CLR 19/16 A2994 840 81 1600 170/06 RMK AO2
14837KMSN MSN20060701031509507/01/06 03:15:31  5-MIN KMSN 010915Z 17006KT 6SM HZ CLR 19/16 A2994 850 84 1500 170/06 RMK AO2
14837KMSN MSN20060701032009507/01/06 03:20:31  5-MIN KMSN 010920Z 17005KT 6SM HZ CLR 19/16 A2994 850 84 1500 170/05 RMK AO2
14837KMSN MSN20060701032509807/01/06 03:25:31  5-MIN KMSN 010925Z 17006KT 6SM HZ FEW100 19/16 A2994 850 84 1500 170/06 RMK AO2
14837KMSN MSN20060701033009807/01/06 03:30:31  5-MIN KMSN 010930Z 17007KT 6SM HZ SCT100 19/16 A2994 850 81 1600 170/07 RMK AO2
14837KMSN MSN20060701033509807/01/06 03:35:31  5-MIN KMSN 010935Z 17009KT 6SM HZ SCT100 19/16 A2993 850 81 1600 170/09 RMK AO2
14837KMSN MSN20060701034009807/01/06 03:40:31  5-MIN KMSN 010940Z 18007KT 6SM HZ SCT100 19/16 A2993 850 81 1600 180/07 RMK AO2
14837KMSN MSN20060701034509807/01/06 03:45:31  5-MIN KMSN 010945Z 17008KT 6SM HZ SCT100 19/16 A2993 850 81 1600 170/08 RMK AO2
14837KMSN MSN20060701035011207/01/06 03:50:31  5-MIN KMSN 010950Z 18008KT 7SM SCT100 19/17 A2994 850 84 1600 180/08 RMK AO2 SLP132 T01940167
14837KMSN MSN20060701035509807/01/06 03:55:31  5-MIN KMSN 010955Z 18008KT 6SM HZ FEW100 19/17 A2994 850 84 1600 180/08 RMK AO2
14837KMSN MSN20060701040009807/01/06 04:00:31  5-MIN KMSN 011000Z 18007KT 6SM HZ FEW100 20/17 A2994 850 81 1700 180/07 RMK AO2
14837KMSN MSN20060701040509807/01/06 04:05:31  5-MIN KMSN 011005Z 18009KT 6SM HZ FEW100 20/17 A2993 850 81 1700 180/09 RMK AO2
14837KMSN MSN20060701041009507/01/06 04:10:31  5-MIN KMSN 011010Z 18010KT 6SM HZ CLR 20/17 A2993 860 81 1700 180/10 RMK AO2
14837KMSN MSN20060701041509507/01/06 04:15:31  5-MIN KMSN 011015Z 19010KT 5SM HZ CLR 20/17 A2993 850 81 1700 190/10 RMK AO2
14837KMSN MSN20060701042009507/01/06 04:20:31  5-MIN KMSN 011020Z 19008KT 5SM HZ CLR 20/17 A2993 860 81 1700 180/08 RMK AO2
14837KMSN MSN20060701042509507/01/06 04:25:31  5-MIN KMSN 011025Z 18007KT 5SM HZ CLR 20/17 A2993 850 81 1700 180/07 RMK AO2
14837KMSN MSN20060701043009807/01/06 04:30:31  5-MIN KMSN 011030Z 18008KT 4SM HZ FEW100 20/17 A2993 860 81 1700 180/08 RMK AO2
14837KMSN MSN20060701043509807/01/06 04:35:31  5-MIN KMSN 011035Z 18008KT 4SM HZ SCT100 20/17 A2993 860 81 1700 180/08 RMK AO2
14837KMSN MSN20060701044009807/01/06 04:40:31  5-MIN KMSN 011040Z 18008KT 5SM HZ SCT100 20/17 A2993 860 81 1700 170/08 RMK AO2
14837KMSN MSN20060701044509807/01/06 04:45:31  5-MIN KMSN 011045Z 18008KT 5SM HZ BKN100 20/17 A2993 860 81 1700 180/08 RMK AO2
14837KMSN MSN20060701045011207/01/06 04:50:31  5-MIN KMSN 011050Z 18008KT 7SM SCT100 21/17 A2992 860 78 1700 180/08 RMK AO2 SLP127 T02060167
14837KMSN MSN20060701045509807/01/06 04:55:31  5-MIN KMSN 011055Z 17011KT 5SM HZ BKN100 21/17 A2992 870 78 1800 170/11 RMK AO2
14837KMSN MSN20060701050009807/01/06 05:00:31  5-MIN KMSN 011100Z 18010KT 5SM HZ BKN100 21/17 A2992 870 78 1800 170/10 RMK AO2
14837KMSN MSN20060701050509807/01/06 05:05:31  5-MIN KMSN 011105Z 18009KT 6SM HZ SCT100 21/17 A2991 870 78 1800 180/09 RMK AO2
14837KMSN MSN20060701051009807/01/06 05:10:31  5-MIN KMSN 011110Z 18010KT 6SM HZ SCT100 21/17 A2991 870 78 1800 170/10 RMK AO2
14837KMSN MSN20060701051509807/01/06 05:15:31  5-MIN KMSN 011115Z 18010KT 6SM HZ FEW100 21/17 A2991 870 81 1800 170/10 RMK AO2
14837KMSN MSN20060701052009807/01/06 05:20:31  5-MIN KMSN 011120Z 19009KT 6SM HZ FEW110 21/17 A2991 870 78 1800 190/09 RMK AO2
14837KMSN MSN20060701052509507/01/06 05:25:31  5-MIN KMSN 011125Z 18010KT 6SM HZ CLR 21/17 A2991 870 78 1800 180/10 RMK AO2
14837KMSN MSN20060701053009507/01/06 05:30:31  5-MIN KMSN 011130Z 19009KT 6SM HZ CLR 21/17 A2991 870 78 1800 190/09 RMK AO2
14837KMSN MSN20060701053509207/01/06 05:35:31  5-MIN KMSN 011135Z 19007KT 7SM CLR 22/17 A2991 870 75 1900 190/07 RMK AO2
14837KMSN MSN20060701054009207/01/06 05:40:31  5-MIN KMSN 011140Z 19011KT 7SM CLR 22/17 A2991 870 75 1900 190/11 RMK AO2
14837KMSN MSN20060701054511407/01/06 05:45:31  5-MIN KMSN 011145Z 20008G15KT 170V230 7SM CLR 22/17 A2991 870 75 1900 200/08G15 170V230 RMK AO2
14837KMSN MSN20060701055013007/01/06 05:50:31  5-MIN KMSN 011150Z 20009KT 8SM FEW100 22/17 A2991 870 75 1900 190/09 RMK AO2 SLP124 T02170172 10217 20189 58016
14837KMSN MSN20060701055509207/01/06 05:55:31  5-MIN KMSN 011155Z 21009KT 7SM CLR 22/17 A2991 870 75 1900 200/09 RMK AO2
14837KMSN MSN20060701060009507/01/06 06:00:31  5-MIN KMSN 011200Z 20010KT 7SM FEW100 22/17 A2991 880 75 1900 200/10 RMK AO2
14837KMSN MSN20060701060509507/01/06 06:05:31  5-MIN KMSN 011205Z 19009KT 8SM FEW100 22/17 A2991 880 75 1900 190/09 RMK AO2
14837KMSN MSN20060701061009507/01/06 06:10:31  5-MIN KMSN 011210Z 20010KT 8SM FEW100 22/17 A2990 880 73 2000 200/10 RMK AO2
14837KMSN MSN20060701061509507/01/06 06:15:31  5-MIN KMSN 011215Z 19009KT 8SM FEW100 22/17 A2990 880 70 2000 190/09 RMK AO2
14837KMSN MSN20060701062009507/01/06 06:20:31  5-MIN KMSN 011220Z 19010KT 8SM FEW100 22/17 A2990 880 70 2000 190/10 RMK AO2
14837KMSN MSN20060701062509507/01/06 06:25:31  5-MIN KMSN 011225Z 19009KT 8SM FEW100 22/17 A2990 890 70 2000 190/09 RMK AO2
14837KMSN MSN20060701063009507/01/06 06:30:31  5-MIN KMSN 011230Z 19007KT 8SM FEW100 23/17 A2990 880 68 2000 190/07 RMK AO2
14837KMSN MSN20060701063509507/01/06 06:35:31  5-MIN KMSN 011235Z 20007KT 8SM FEW100 23/17 A2990 880 68 2000 200/07 RMK AO2
14837KMSN MSN20060701064009507/01/06 06:40:31  5-MIN KMSN 011240Z 21008KT 9SM FEW100 23/17 A2990 880 68 2000 210/08 RMK AO2
14837KMSN MSN20060701064511107/01/06 06:45:31  5-MIN KMSN 011245Z 22007KT 160V240 9SM FEW100 23/17 A2990 880 66 2100 210/07 160V240 RMK AO2
14837KMSN MSN20060701065011207/01/06 06:50:31  5-MIN KMSN 011250Z 20005KT 9SM FEW100 23/17 A2990 880 66 2100 200/05 RMK AO2 SLP119 T02330167
14837KMSN MSN20060701065509207/01/06 06:55:31  5-MIN KMSN 011255Z 22008KT 9SM CLR 23/17 A2990 880 66 2100 220/08 RMK AO2
14837KMSN MSN20060701070009207/01/06 07:00:31  5-MIN KMSN 011300Z 22008KT 9SM CLR 23/17 A2990 880 66 2100 220/08 RMK AO2
14837KMSN MSN20060701070509207/01/06 07:05:31  5-MIN KMSN 011305Z 21006KT 9SM CLR 23/17 A2990 890 66 2100 210/06 RMK AO2
14837KMSN MSN20060701071009207/01/06 07:10:31  5-MIN KMSN 011310Z 21007KT 9SM CLR 23/17 A2990 890 66 2100 210/07 RMK AO2
14837KMSN MSN20060701071509207/01/06 07:15:31  5-MIN KMSN 011315Z 22006KT 9SM CLR 23/17 A2990 880 66 2100 220/06 RMK AO2
14837KMSN MSN20060701072009207/01/06 07:20:31  5-MIN KMSN 011320Z 22006KT 9SM CLR 23/17 A2990 880 66 2100 220/06 RMK AO2
14837KMSN MSN20060701072509207/01/06 07:25:31  5-MIN KMSN 011325Z 22009KT 9SM CLR 23/17 A2991 880 66 2100 220/09 RMK AO2
14837KMSN MSN20060701073009207/01/06 07:30:31  5-MIN KMSN 011330Z 22008KT 9SM CLR 24/17 A2991 880 63 2100 220/08 RMK AO2
14837KMSN MSN20060701073509207/01/06 07:35:31  5-MIN KMSN 011335Z 21008KT 9SM CLR 24/17 A2990 880 63 2200 210/08 RMK AO2
14837KMSN MSN20060701074009307/01/06 07:40:31  5-MIN KMSN 011340Z 23008KT 10SM CLR 24/17 A2990 880 63 2200 230/08 RMK AO2
14837KMSN MSN20060701074509507/01/06 07:45:31  5-MIN KMSN 011345Z 21008KT 10SM CLR 24/17 A2990 880 63 2200 210/08 RMK AO2 $
14837KMSN MSN20060701075011807/01/06 07:50:31  5-MIN KMSN 011350Z 21009G15KT 10SM CLR 24/17 A2990 890 63 2200 210/09G15 RMK AO2 SLP118 T02390167 $
14837KMSN MSN20060701075509507/01/06 07:55:31  5-MIN KMSN 011355Z 21010KT 10SM CLR 24/17 A2990 890 61 2200 210/10 RMK AO2 $
14837KMSN MSN20060701080009507/01/06 08:00:31  5-MIN KMSN 011400Z 21009KT 10SM CLR 24/17 A2989 890 61 2200 210/09 RMK AO2 $
14837KMSN MSN20060701080511107/01/06 08:05:31  5-MIN KMSN 011405Z 21010KT 180V250 10SM CLR 24/17 A2990 890 61 2200 210/10 180V250 RMK AO2 $
14837KMSN MSN20060701081009507/01/06 08:10:31  5-MIN KMSN 011410Z 22007KT 10SM CLR 24/17 A2990 890 61 2200 220/07 RMK AO2 $
14837KMSN MSN20060701081509307/01/06 08:15:31  5-MIN KMSN 011415Z 22008KT 10SM CLR 24/17 A2990 890 61 2200 210/08 RMK AO2
14837KMSN MSN20060701082009907/01/06 08:20:31  5-MIN KMSN 011420Z 21009G16KT 10SM CLR 24/16 A2989 890 59 2200 210/09G16 RMK AO2
14837KMSN MSN20060701082509907/01/06 08:25:31  5-MIN KMSN 011425Z 21009G16KT 10SM CLR 24/17 A2989 890 61 2200 210/09G16 RMK AO2
14837KMSN MSN20060701083009907/01/06 08:30:31  5-MIN KMSN 011430Z 21011G17KT 10SM CLR 24/16 A2989 890 59 2200 210/11G17 RMK AO2
14837KMSN MSN20060701083509907/01/06 08:35:31  5-MIN KMSN 011435Z 22009G17KT 10SM CLR 24/17 A2989 890 61 2200 220/09G17 RMK AO2
14837KMSN MSN20060701084010907/01/06 08:40:31  5-MIN KMSN 011440Z 22008KT 180V260 10SM CLR 24/17 A2988 900 61 2200 220/08 180V260 RMK AO2
14837KMSN MSN20060701084509907/01/06 08:45:31  5-MIN KMSN 011445Z 21011G16KT 10SM CLR 25/17 A2989 900 61 2300 210/11G16 RMK AO2
14837KMSN MSN20060701085013807/01/06 08:50:31  5-MIN KMSN 011450Z 22009G16KT 190V250 10SM CLR 25/17 A2988 900 59 2300 220/09G16 190V250 RMK AO2 SLP113 T02500167 56013
14837KMSN MSN20060701085509307/01/06 08:55:31  5-MIN KMSN 011455Z 23010KT 10SM CLR 25/17 A2988 900 59 2300 230/10 RMK AO2
14837KMSN MSN20060701090009307/01/06 09:00:31  5-MIN KMSN 011500Z 21007KT 10SM CLR 24/17 A2987 910 61 2200 210/07 RMK AO2
14837KMSN MSN20060701090509307/01/06 09:05:31  5-MIN KMSN 011505Z 21009KT 10SM CLR 25/17 A2987 910 61 2300 210/09 RMK AO2
14837KMSN MSN20060701091009307/01/06 09:10:31  5-MIN KMSN 011510Z 20008KT 10SM CLR 26/18 A2987 910 59 2400 200/08 RMK AO2
14837KMSN MSN20060701091510907/01/06 09:15:31  5-MIN KMSN 011515Z 21008KT 170V240 10SM CLR 26/18 A2987 920 59 2400 210/08 170V240 RMK AO2
14837KMSN MSN20060701092010907/01/06 09:20:31  5-MIN KMSN 011520Z 21009KT 180V240 10SM CLR 26/18 A2986 920 59 2400 200/09 180V240 RMK AO2
14837KMSN MSN20060701092511507/01/06 09:25:31  5-MIN KMSN 011525Z 21011G15KT 190V260 10SM CLR 27/17 A2986 920 55 2500 210/11G15 190V260 RMK AO2
14837KMSN MSN20060701093010907/01/06 09:30:31  5-MIN KMSN 011530Z 21009KT 160V250 10SM CLR 27/17 A2986 920 55 2500 210/09 160V250 RMK AO2
14837KMSN MSN20060701093509907/01/06 09:35:31  5-MIN KMSN 011535Z 22012G16KT 10SM CLR 27/17 A2987 910 55 2500 220/12G16 RMK AO2
14837KMSN MSN20060701094009907/01/06 09:40:31  5-MIN KMSN 011540Z 21012G16KT 10SM CLR 26/17 A2987 910 55 2400 210/12G16 RMK AO2
14837KMSN MSN20060701094509907/01/06 09:45:31  5-MIN KMSN 011545Z 23007G16KT 10SM CLR 27/17 A2988 900 55 2500 230/07G16 RMK AO2
14837KMSN MSN20060701095013207/01/06 09:50:31  5-MIN KMSN 011550Z 22009G16KT 190V260 10SM CLR 27/17 A2988 900 55 2500 220/09G16 190V260 RMK AO2 SLP111 T02670172
14837KMSN MSN20060701095509307/01/06 09:55:31  5-MIN KMSN 011555Z 23010KT 10SM CLR 27/17 A2987 910 55 2500 230/10 RMK AO2
14837KMSN MSN20060701100009907/01/06 10:00:31  5-MIN KMSN 011600Z 23010G18KT 10SM CLR 27/17 A2987 910 54 2600 230/10G18 RMK AO2
14837KMSN MSN20060701100511507/01/06 10:05:31  5-MIN KMSN 011605Z 23009G18KT 190V250 10SM CLR 27/17 A2987 910 54 2600 230/09G18 190V250 RMK AO2
14837KMSN MSN20060701101009907/01/06 10:10:31  5-MIN KMSN 011610Z 23011G17KT 10SM CLR 27/17 A2986 920 54 2600 230/11G17 RMK AO2
14837KMSN MSN20060701101509907/01/06 10:15:31  5-MIN KMSN 011615Z 22009G17KT 10SM CLR 27/17 A2986 920 54 2600 220/09G17 RMK AO2
14837KMSN MSN20060701102011507/01/06 10:20:31  5-MIN KMSN 011620Z 23010G15KT 200V260 10SM CLR 28/17 A2986 920 52 2600 220/10G15 200V260 RMK AO2
14837KMSN MSN20060701102509907/01/06 10:25:31  5-MIN KMSN 011625Z 22012G16KT 10SM CLR 28/17 A2985 930 50 2700 220/12G16 RMK AO2
14837KMSN MSN20060701103009907/01/06 10:30:31  5-MIN KMSN 011630Z 24010G16KT 10SM CLR 28/17 A2985 920 50 2600 230/10G16 RMK AO2
14837KMSN MSN20060701103510907/01/06 10:35:31  5-MIN KMSN 011635Z 22010KT 190V250 10SM CLR 28/17 A2985 930 50 2600 220/10 190V250 RMK AO2
14837KMSN MSN20060701104009907/01/06 10:40:31  5-MIN KMSN 011640Z 23011G17KT 10SM CLR 28/17 A2986 920 50 2600 230/11G17 RMK AO2
14837KMSN MSN20060701104509907/01/06 10:45:31  5-MIN KMSN 011645Z 22011G20KT 10SM CLR 28/17 A2986 920 50 2600 220/11G20 RMK AO2
14837KMSN MSN20060701105011607/01/06 10:50:31  5-MIN KMSN 011650Z 23012G20KT 10SM CLR 28/17 A2986 920 50 2600 230/12G20 RMK AO2 SLP106 T02780167
14837KMSN MSN20060701105511507/01/06 10:55:31  5-MIN KMSN 011655Z 23009G20KT 200V260 10SM CLR 28/17 A2986 920 50 2600 230/09G20 200V260 RMK AO2
14837KMSN MSN20060701110009907/01/06 11:00:31  5-MIN KMSN 011700Z 22013G19KT 10SM CLR 27/17 A2986 920 52 2600 220/13G19 RMK AO2
14837KMSN MSN20060701110509907/01/06 11:05:31  5-MIN KMSN 011705Z 23010G17KT 10SM CLR 27/17 A2986 920 53 2500 230/10G17 RMK AO2
14837KMSN MSN20060701111011507/01/06 11:10:31  5-MIN KMSN 011710Z 23009G15KT 200V280 10SM CLR 27/17 A2986 920 52 2600 230/09G15 200V280 RMK AO2
14837KMSN MSN20060701111509907/01/06 11:15:31  5-MIN KMSN 011715Z 23009G14KT 10SM CLR 27/17 A2985 930 52 2600 230/09G14 RMK AO2
14837KMSN MSN20060701112009907/01/06 11:20:31  5-MIN KMSN 011720Z 22012G15KT 10SM CLR 28/17 A2986 920 52 2600 220/12G15 RMK AO2
14837KMSN MSN20060701112509907/01/06 11:25:31  5-MIN KMSN 011725Z 24009G15KT 10SM CLR 28/17 A2986 920 50 2700 240/09G15 RMK AO2
14837KMSN MSN20060701113009907/01/06 11:30:31  5-MIN KMSN 011730Z 22011G16KT 10SM CLR 28/17 A2985 930 52 2600 220/11G16 RMK AO2
14837KMSN MSN20060701113509907/01/06 11:35:31  5-MIN KMSN 011735Z 21010G16KT 10SM CLR 28/18 A2985 930 52 2700 210/10G16 RMK AO2
14837KMSN MSN20060701114009907/01/06 11:40:31  5-MIN KMSN 011740Z 22011G17KT 10SM CLR 28/17 A2984 930 50 2700 220/11G17 RMK AO2
14837KMSN MSN20060701114511507/01/06 11:45:31  5-MIN KMSN 011745Z 23009G17KT 200V270 10SM CLR 28/17 A2985 930 50 2700 220/09G17 200V270 RMK AO2
14837KMSN MSN20060701115013707/01/06 11:50:31  5-MIN KMSN 011750Z 23011G17KT 10SM FEW050 28/17 A2984 940 50 2700 230/11G17 RMK AO2 SLP100 T02830172 10283 20217 58010
14837KMSN MSN20060701115509907/01/06 11:55:31  5-MIN KMSN 011755Z 23010G17KT 10SM CLR 28/18 A2985 930 52 2700 230/10G17 RMK AO2
14837KMSN MSN20060701120009907/01/06 12:00:31  5-MIN KMSN 011800Z 23011G17KT 10SM CLR 28/17 A2985 930 50 2700 230/11G17 RMK AO2
14837KMSN MSN20060701120509907/01/06 12:05:31  5-MIN KMSN 011805Z 23009G17KT 10SM CLR 29/18 A2984 930 50 2800 230/09G17 RMK AO2
14837KMSN MSN20060701121011507/01/06 12:10:31  5-MIN KMSN 011810Z 24008G16KT 180V290 10SM CLR 29/18 A2984 930 50 2800 240/08G16 180V290 RMK AO2
14837KMSN MSN20060701121509907/01/06 12:15:31  5-MIN KMSN 011815Z 22010G16KT 10SM CLR 29/18 A2984 940 50 2800 220/10G16 RMK AO2
14837KMSN MSN20060701122011507/01/06 12:20:31  5-MIN KMSN 011820Z 23010G16KT 210V280 10SM CLR 29/18 A2984 940 50 2800 230/10G16 210V280 RMK AO2
14837KMSN MSN20060701122511507/01/06 12:25:31  5-MIN KMSN 011825Z 22011G16KT 190V250 10SM CLR 29/18 A2983 950 50 2800 220/11G16 190V250 RMK AO2
14837KMSN MSN20060701123011507/01/06 12:30:31  5-MIN KMSN 011830Z 23009G15KT 190V260 10SM CLR 29/18 A2982 950 50 2900 230/09G15 190V260 RMK AO2
14837KMSN MSN20060701123509907/01/06 12:35:31  5-MIN KMSN 011835Z 22011G15KT 10SM CLR 29/18 A2982 960 50 2900 220/11G15 RMK AO2
14837KMSN MSN20060701124009907/01/06 12:40:31  5-MIN KMSN 011840Z 21009G16KT 10SM CLR 29/18 A2982 950 50 2900 210/09G16 RMK AO2
14837KMSN MSN20060701124509307/01/06 12:45:31  5-MIN KMSN 011845Z VRB06KT 10SM CLR 30/19 A2982 960 51 2900 VRB/06 RMK AO2
14837KMSN MSN20060701125011907/01/06 12:50:31  5-MIN KMSN 011850Z 22012G19KT 10SM FEW050 31/18 A2982 960 47 3000 220/12G19 RMK AO2 SLP092 T03060183
14837KMSN MSN20060701125509907/01/06 12:55:31  5-MIN KMSN 011855Z 23013G19KT 10SM CLR 29/18 A2982 960 49 2900 230/13G19 RMK AO2
14837KMSN MSN20060701130009907/01/06 13:00:31  5-MIN KMSN 011900Z 22012G18KT 10SM CLR 30/18 A2982 960 49 2900 220/12G18 RMK AO2
14837KMSN MSN20060701130511507/01/06 13:05:31  5-MIN KMSN 011905Z 23010G18KT 190V250 10SM CLR 30/18 A2982 960 49 2900 230/10G18 190V250 RMK AO2
14837KMSN MSN20060701131009907/01/06 13:10:31  5-MIN KMSN 011910Z 23012G18KT 10SM CLR 30/18 A2982 960 47 2900 230/12G18 RMK AO2
14837KMSN MSN20060701131511507/01/06 13:15:31  5-MIN KMSN 011915Z 22009G18KT 200V270 10SM CLR 30/18 A2982 950 47 2900 220/09G18 200V270 RMK AO2
14837KMSN MSN20060701132009907/01/06 13:20:31  5-MIN KMSN 011920Z 23011G16KT 10SM CLR 30/18 A2982 950 47 2900 230/11G16 RMK AO2
14837KMSN MSN20060701132509907/01/06 13:25:31  5-MIN KMSN 011925Z 23011G16KT 10SM CLR 30/18 A2983 950 47 2900 230/11G16 RMK AO2
14837KMSN MSN20060701133009907/01/06 13:30:31  5-MIN KMSN 011930Z 24013G20KT 10SM CLR 30/18 A2983 950 47 2900 230/13G20 RMK AO2
14837KMSN MSN20060701133511507/01/06 13:35:31  5-MIN KMSN 011935Z 23011G23KT 200V260 10SM CLR 29/18 A2983 950 49 2900 230/11G23 200V260 RMK AO2
14837KMSN MSN20060701134009907/01/06 13:40:31  5-MIN KMSN 011940Z 23014G23KT 10SM CLR 29/18 A2983 950 49 2900 230/14G23 RMK AO2
14837KMSN MSN20060701134511507/01/06 13:45:31  5-MIN KMSN 011945Z 23012G20KT 200V260 10SM CLR 30/18 A2982 950 47 2900 230/12G20 200V260 RMK AO2
14837KMSN MSN20060701135011907/01/06 13:50:31  5-MIN KMSN 011950Z 23011G19KT 10SM FEW050 31/18 A2983 950 47 3000 230/11G19 RMK AO2 SLP093 T03060183
14837KMSN MSN20060701135509907/01/06 13:55:31  5-MIN KMSN 011955Z 23010G17KT 10SM CLR 30/18 A2983 950 49 2900 230/10G17 RMK AO2
14837KMSN MSN20060701140011507/01/06 14:00:31  5-MIN KMSN 012000Z 24011G18KT 210V280 10SM CLR 31/19 A2983 950 49 3000 240/11G18 210V280 RMK AO2
14837KMSN MSN20060701140511507/01/06 14:05:31  5-MIN KMSN 012005Z 23009G21KT 200V260 10SM CLR 31/18 A2983 950 47 3000 230/09G21 200V260 RMK AO2
14837KMSN MSN20060701141009907/01/06 14:10:31  5-MIN KMSN 012010Z 24011G21KT 10SM CLR 31/19 A2983 950 49 3000 240/11G21 RMK AO2
14837KMSN MSN20060701141509907/01/06 14:15:31  5-MIN KMSN 012015Z 24012G17KT 10SM CLR 30/18 A2983 950 49 2900 240/12G17 RMK AO2
14837KMSN MSN20060701142013307/01/06 14:20:31  5-MIN KMSN 012020Z 23011G26KT 190V250 10SM CLR 30/18 A2983 950 49 2900 230/11G26 190V250 RMK AO2 PK WND 22026/2018
14837KMSN MSN20060701142513307/01/06 14:25:31  5-MIN KMSN 012025Z 24011G26KT 200V280 10SM CLR 30/18 A2983 950 47 2900 240/11G26 200V280 RMK AO2 PK WND 22026/2018
14837KMSN MSN20060701143011707/01/06 14:30:31  5-MIN KMSN 012030Z 23013G21KT 10SM CLR 30/18 A2983 950 47 2900 230/13G21 RMK AO2 PK WND 22026/2018
14837KMSN MSN20060701143513307/01/06 14:35:31  5-MIN KMSN 012035Z 23012G20KT 210V290 10SM CLR 30/18 A2982 950 47 2900 230/12G20 210V290 RMK AO2 PK WND 22026/2018
14837KMSN MSN20060701144011707/01/06 14:40:31  5-MIN KMSN 012040Z 24014G23KT 10SM CLR 30/18 A2982 960 47 2900 240/14G23 RMK AO2 PK WND 22026/2018
14837KMSN MSN20060701144513307/01/06 14:45:31  5-MIN KMSN 012045Z 24009G23KT 200V280 10SM CLR 30/18 A2982 950 47 2900 240/09G23 200V280 RMK AO2 PK WND 22026/2018
14837KMSN MSN20060701145015607/01/06 14:50:31  5-MIN KMSN 012050Z 24011G20KT 210V270 10SM CLR 29/18 A2982 960 50 2900 240/11G20 210V270 RMK AO2 PK WND 22026/2018 SLP093 T02940183 58010
14837KMSN MSN20060701145509907/01/06 14:55:31  5-MIN KMSN 012055Z 24011G17KT 10SM CLR 30/18 A2982 960 49 2900 240/11G17 RMK AO2
14837KMSN MSN20060701150011507/01/06 15:00:31  5-MIN KMSN 012100Z 24011G17KT 200V260 10SM CLR 30/18 A2981 960 49 2900 230/11G17 200V260 RMK AO2
14837KMSN MSN20060701150511507/01/06 15:05:31  5-MIN KMSN 012105Z 24010G17KT 200V270 10SM CLR 31/19 A2981 960 49 3000 240/10G17 200V270 RMK AO2
14837KMSN MSN20060701151011507/01/06 15:10:31  5-MIN KMSN 012110Z 24009G18KT 190V270 10SM CLR 31/19 A2981 970 49 3000 240/09G18 190V270 RMK AO2
14837KMSN MSN20060701151509907/01/06 15:15:31  5-MIN KMSN 012115Z 23011G18KT 10SM CLR 31/18 A2981 970 47 3000 230/11G18 RMK AO2
14837KMSN MSN20060701152009907/01/06 15:20:31  5-MIN KMSN 012120Z 24013G17KT 10SM CLR 31/18 A2981 970 47 3000 240/13G17 RMK AO2
14837KMSN MSN20060701152511507/01/06 15:25:31  5-MIN KMSN 012125Z 23011G17KT 200V270 10SM CLR 30/18 A2981 970 49 2900 230/11G17 200V270 RMK AO2
14837KMSN MSN20060701153011507/01/06 15:30:31  5-MIN KMSN 012130Z 24010G18KT 200V260 10SM CLR 30/18 A2981 970 49 2900 230/10G18 200V260 RMK AO2
14837KMSN MSN20060701153511507/01/06 15:35:31  5-MIN KMSN 012135Z 24008G18KT 200V270 10SM CLR 30/18 A2981 970 49 2900 230/08G18 200V270 RMK AO2
14837KMSN MSN20060701154010907/01/06 15:40:31  5-MIN KMSN 012140Z 23009KT 190V250 10SM CLR 31/19 A2981 970 49 3000 230/09 190V250 RMK AO2
14837KMSN MSN20060701154511507/01/06 15:45:31  5-MIN KMSN 012145Z 23010G16KT 200V260 10SM CLR 31/19 A2980 970 49 3000 230/10G16 200V260 RMK AO2
14837KMSN MSN20060701155011607/01/06 15:50:31  5-MIN KMSN 012150Z 23012G18KT 10SM CLR 31/19 A2980 980 49 3000 220/12G18 RMK AO2 SLP084 T03060189
14837KMSN MSN20060701155509907/01/06 15:55:31  5-MIN KMSN 012155Z 23013G19KT 10SM CLR 31/19 A2980 980 49 3000 230/13G19 RMK AO2
14837KMSN MSN20060701160009907/01/06 16:00:31  5-MIN KMSN 012200Z 22012G19KT 10SM CLR 31/19 A2980 980 49 3000 220/12G19 RMK AO2
14837KMSN MSN20060701160511507/01/06 16:05:31  5-MIN KMSN 012205Z 23007G17KT 200V260 10SM CLR 31/19 A2980 980 49 3000 230/07G17 200V260 RMK AO2
14837KMSN MSN20060701161009907/01/06 16:10:31  5-MIN KMSN 012210Z 24009G16KT 10SM CLR 31/19 A2979 980 49 3000 240/09G16 RMK AO2
14837KMSN MSN20060701161509907/01/06 16:15:31  5-MIN KMSN 012215Z 23009G17KT 10SM CLR 30/19 A2979 980 52 3000 220/09G17 RMK AO2
14837KMSN MSN20060701162009907/01/06 16:20:31  5-MIN KMSN 012220Z 24009G17KT 10SM CLR 31/19 A2980 980 49 3000 240/09G17 RMK AO2
14837KMSN MSN20060701162509907/01/06 16:25:31  5-MIN KMSN 012225Z 23010G18KT 10SM CLR 30/19 A2980 980 51 3000 230/10G18 RMK AO2
14837KMSN MSN20060701163011507/01/06 16:30:31  5-MIN KMSN 012230Z 25010G18KT 210V040 10SM CLR 31/19 A2980 980 49 3000 250/10G18 210V040 RMK AO2
14837KMSN MSN20060701163511507/01/06 16:35:31  5-MIN KMSN 012235Z 23012G18KT 190V260 10SM CLR 31/19 A2980 980 49 3000 230/12G18 190V260 RMK AO2
14837KMSN MSN20060701164009907/01/06 16:40:31  5-MIN KMSN 012240Z 24011G19KT 10SM CLR 31/19 A2980 980 49 3000 240/11G19 RMK AO2
14837KMSN MSN20060701164509907/01/06 16:45:31  5-MIN KMSN 012245Z 23010G19KT 10SM CLR 31/19 A2980 970 49 3000 230/10G19 RMK AO2
14837KMSN MSN20060701165011607/01/06 16:50:31  5-MIN KMSN 012250Z 24012G21KT 10SM CLR 30/19 A2980 970 51 2900 240/12G21 RMK AO2 SLP086 T03000189
14837KMSN MSN20060701165509907/01/06 16:55:31  5-MIN KMSN 012255Z 24011G21KT 10SM CLR 31/18 A2981 970 47 3000 230/11G21 RMK AO2
14837KMSN MSN20060701170011507/01/06 17:00:31  5-MIN KMSN 012300Z 24010G19KT 200V270 10SM CLR 30/18 A2981 970 49 2900 240/10G19 200V270 RMK AO2
14837KMSN MSN20060701170511507/01/06 17:05:31  5-MIN KMSN 012305Z 24009G18KT 200V270 10SM CLR 31/19 A2981 970 49 3000 240/09G18 200V270 RMK AO2
14837KMSN MSN20060701171011507/01/06 17:10:31  5-MIN KMSN 012310Z 24011G18KT 210V290 10SM CLR 31/19 A2981 970 49 3000 240/11G18 210V290 RMK AO2
14837KMSN MSN20060701171509907/01/06 17:15:31  5-MIN KMSN 012315Z 23008G18KT 10SM CLR 30/19 A2981 970 51 2900 230/08G18 RMK AO2
14837KMSN MSN20060701172010907/01/06 17:20:31  5-MIN KMSN 012320Z 23008KT 200V270 10SM CLR 29/19 A2981 970 52 2900 230/08 200V270 RMK AO2
14837KMSN MSN20060701172510907/01/06 17:25:31  5-MIN KMSN 012325Z 24008KT 210V270 10SM CLR 29/19 A2981 970 52 2900 240/08 210V270 RMK AO2
14837KMSN MSN20060701173011507/01/06 17:30:31  5-MIN KMSN 012330Z 24008G14KT 200V270 10SM CLR 29/19 A2981 970 52 2900 240/08G14 200V270 RMK AO2
14837KMSN MSN20060701173511507/01/06 17:35:31  5-MIN KMSN 012335Z 24012G16KT 210V270 10SM CLR 30/19 A2981 970 51 2900 240/12G16 210V270 RMK AO2
14837KMSN MSN20060701174011507/01/06 17:40:31  5-MIN KMSN 012340Z 24008G16KT 200V280 10SM CLR 29/18 A2981 960 50 2900 240/08G16 200V280 RMK AO2
14837KMSN MSN20060701174509907/01/06 17:45:31  5-MIN KMSN 012345Z 25010G17KT 10SM CLR 29/18 A2982 960 50 2900 250/10G17 RMK AO2
14837KMSN MSN20060701175015307/01/06 17:50:31  5-MIN KMSN 012350Z 26009G17KT 220V290 10SM SCT045 29/18 A2982 960 50 2900 250/09G17 220V290 RMK AO2 SLP092 T02940183 10306 20283 56010
14837KMSN MSN20060702035509807/02/06 03:55:31  5-MIN KMSN 020955Z 00000KT 10SM FEW120 21/18 A2996 820 87 1700 000/00 RMK AO2 $
14837KMSN MSN20060702040009807/02/06 04:00:31  5-MIN KMSN 021000Z 00000KT 10SM FEW120 21/18 A2997 820 87 1700 000/00 RMK AO2 $
14837KMSN MSN20060702040509807/02/06 04:05:31  5-MIN KMSN 021005Z 00000KT 10SM FEW120 21/18 A2997 820 87 1700 000/00 RMK AO2 $
14837KMSN MSN20060702041009807/02/06 04:10:31  5-MIN KMSN 021010Z 00000KT 10SM FEW120 21/18 A2997 820 87 1700 000/00 RMK AO2 $
14837KMSN MSN20060702041509807/02/06 04:15:31  5-MIN KMSN 021015Z 00000KT 10SM FEW120 21/18 A2997 820 87 1700 000/00 RMK AO2 $
14837KMSN MSN20060702042009407/02/06 04:20:31  5-MIN KMSN 021020Z 00000KT 9SM CLR 21/18 A2997 820 87 1700 000/00 RMK AO2 $
14837KMSN MSN20060702042509707/02/06 04:25:31  5-MIN KMSN 021025Z VRB03KT 9SM FEW075 21/18 A2997 820 87 1700 VRB/03 RMK AO2 $
14837KMSN MSN20060702043009707/02/06 04:30:31  5-MIN KMSN 021030Z VRB04KT 9SM SCT075 21/18 A2997 820 87 1700 VRB/04 RMK AO2 $
14837KMSN MSN20060702043509707/02/06 04:35:31  5-MIN KMSN 021035Z VRB04KT 9SM SCT075 21/18 A2997 820 87 1700 VRB/04 RMK AO2 $
14837KMSN MSN20060702044009707/02/06 04:40:31  5-MIN KMSN 021040Z 29005KT 9SM SCT075 21/18 A2997 820 87 1700 290/05 RMK AO2 $
14837KMSN MSN20060702044509707/02/06 04:45:31  5-MIN KMSN 021045Z VRB06KT 9SM FEW075 21/18 A2997 820 87 1700 VRB/06 RMK AO2 $
14837KMSN MSN20060702045011407/02/06 04:50:31  5-MIN KMSN 021050Z 29005KT 9SM FEW075 21/18 A2997 820 87 1700 290/05 RMK AO2 SLP143 T02060183 $
14837KMSN MSN20060702045509707/02/06 04:55:31  5-MIN KMSN 021055Z 29005KT 9SM FEW075 21/18 A2997 820 87 1700 290/05 RMK AO2 $
14837KMSN MSN20060702050009707/02/06 05:00:31  5-MIN KMSN 021100Z VRB03KT 9SM FEW075 21/18 A2997 810 87 1700 VRB/03 RMK AO2 $
14837KMSN MSN20060702050509407/02/06 05:05:31  5-MIN KMSN 021105Z VRB03KT 9SM CLR 21/18 A2998 810 87 1700 VRB/03 RMK AO2 $
14837KMSN MSN20060702051009407/02/06 05:10:31  5-MIN KMSN 021110Z 30004KT 9SM CLR 21/18 A2998 810 84 1700 300/04 RMK AO2 $
14837KMSN MSN20060702051509407/02/06 05:15:31  5-MIN KMSN 021115Z VRB05KT 9SM CLR 21/18 A2998 810 84 1700 VRB/05 RMK AO2 $
14837KMSN MSN20060702052009707/02/06 05:20:31  5-MIN KMSN 021120Z VRB05KT 9SM FEW080 21/18 A2998 810 84 1700 VRB/05 RMK AO2 $
14837KMSN MSN20060702052509707/02/06 05:25:31  5-MIN KMSN 021125Z 29005KT 9SM FEW080 21/18 A2998 810 84 1700 290/05 RMK AO2 $
14837KMSN MSN20060702053009707/02/06 05:30:31  5-MIN KMSN 021130Z 30006KT 9SM FEW080 21/18 A2998 810 84 1700 300/06 RMK AO2 $
14837KMSN MSN20060702053509707/02/06 05:35:31  5-MIN KMSN 021135Z 29007KT 9SM FEW080 21/18 A2998 810 84 1700 290/07 RMK AO2 $
14837KMSN MSN20060702054009707/02/06 05:40:31  5-MIN KMSN 021140Z 29007KT 9SM FEW080 22/18 A2998 810 81 1800 290/07 RMK AO2 $
14837KMSN MSN20060702054509807/02/06 05:45:31  5-MIN KMSN 021145Z 29007KT 10SM FEW080 22/18 A2998 810 81 1800 290/07 RMK AO2 $
14837KMSN MSN20060702055013907/02/06 05:50:31  5-MIN KMSN 021150Z 30007KT 10SM FEW080 22/18 A2998 810 81 1800 300/07 RMK AO2 SLP147 70001 T02170183 10222 20206 51008 $
14837KMSN MSN20060702055511107/02/06 05:55:31  5-MIN KMSN 021155Z 29007KT 260V320 10SM CLR 22/18 A2998 810 81 1800 290/07 260V320 RMK AO2 $
14837KMSN MSN20060702060009407/02/06 06:00:31  5-MIN KMSN 021200Z 30006KT 9SM CLR 22/18 A2998 810 81 1800 300/06 RMK AO2 $
14837KMSN MSN20060702060509407/02/06 06:05:31  5-MIN KMSN 021205Z 30006KT 9SM CLR 22/18 A2998 810 81 1800 300/06 RMK AO2 $
14837KMSN MSN20060702061009407/02/06 06:10:31  5-MIN KMSN 021210Z 31007KT 9SM CLR 22/18 A2998 810 81 1800 310/07 RMK AO2 $
14837KMSN MSN20060702061509407/02/06 06:15:31  5-MIN KMSN 021215Z 30005KT 9SM CLR 22/18 A2998 810 81 1800 300/05 RMK AO2 $
14837KMSN MSN20060702062009407/02/06 06:20:31  5-MIN KMSN 021220Z 32004KT 9SM CLR 22/19 A2998 810 84 1800 310/04 RMK AO2 $
14837KMSN MSN20060702062509407/02/06 06:25:31  5-MIN KMSN 021225Z 32004KT 9SM CLR 22/19 A2998 810 84 1800 320/04 RMK AO2 $
14837KMSN MSN20060702063009407/02/06 06:30:31  5-MIN KMSN 021230Z 31005KT 9SM CLR 22/19 A2998 810 84 1800 310/05 RMK AO2 $
14837KMSN MSN20060702063509407/02/06 06:35:31  5-MIN KMSN 021235Z 30005KT 9SM CLR 22/19 A2998 810 81 1900 300/05 RMK AO2 $
14837KMSN MSN20060702064009407/02/06 06:40:31  5-MIN KMSN 021240Z 29004KT 9SM CLR 22/19 A2999 800 81 1900 290/04 RMK AO2 $
14837KMSN MSN20060702064509407/02/06 06:45:31  5-MIN KMSN 021245Z VRB04KT 9SM CLR 22/19 A2999 800 81 1900 VRB/04 RMK AO2 $
14837KMSN MSN20060702065011107/02/06 06:50:31  5-MIN KMSN 021250Z 30004KT 9SM CLR 22/19 A2999 800 81 1900 300/04 RMK AO2 SLP148 T02220189 $
14837KMSN MSN20060702065509407/02/06 06:55:31  5-MIN KMSN 021255Z 30004KT 9SM CLR 22/19 A2999 800 81 1900 300/04 RMK AO2 $
14837KMSN MSN20060702070009407/02/06 07:00:31  5-MIN KMSN 021300Z 31005KT 9SM CLR 22/19 A2999 800 81 1900 310/05 RMK AO2 $
14837KMSN MSN20060702070509407/02/06 07:05:31  5-MIN KMSN 021305Z 30005KT 9SM CLR 23/19 A2999 800 78 1900 300/05 RMK AO2 $
14837KMSN MSN20060702071009407/02/06 07:10:31  5-MIN KMSN 021310Z 30005KT 9SM CLR 23/19 A2999 800 78 1900 300/05 RMK AO2 $
14837KMSN MSN20060702071509407/02/06 07:15:31  5-MIN KMSN 021315Z 30004KT 9SM CLR 23/19 A2999 800 78 1900 300/04 RMK AO2 $
14837KMSN MSN20060702072009407/02/06 07:20:31  5-MIN KMSN 021320Z 30004KT 9SM CLR 23/19 A2999 800 81 1900 300/04 RMK AO2 $
14837KMSN MSN20060702072509407/02/06 07:25:31  5-MIN KMSN 021325Z 30005KT 9SM CLR 23/19 A2999 800 81 1900 300/05 RMK AO2 $
14837KMSN MSN20060702073009407/02/06 07:30:31  5-MIN KMSN 021330Z 28005KT 9SM CLR 23/19 A2999 800 78 1900 280/05 RMK AO2 $
14837KMSN MSN20060702073509407/02/06 07:35:31  5-MIN KMSN 021335Z 29004KT 9SM CLR 23/19 A3000 790 81 1900 290/04 RMK AO2 $
14837KMSN MSN20060702074009407/02/06 07:40:31  5-MIN KMSN 021340Z 29004KT 9SM CLR 23/19 A3000 790 81 1900 290/04 RMK AO2 $
14837KMSN MSN20060702074509407/02/06 07:45:31  5-MIN KMSN 021345Z 28005KT 9SM CLR 23/19 A3000 790 78 2000 280/05 RMK AO2 $
14837KMSN MSN20060702075011107/02/06 07:50:31  5-MIN KMSN 021350Z VRB04KT 9SM CLR 23/19 A3000 790 78 2000 VRB/04 RMK AO2 SLP153 T02330194 $
14837KMSN MSN20060702075509407/02/06 07:55:31  5-MIN KMSN 021355Z VRB05KT 9SM CLR 23/19 A3000 790 78 2000 VRB/05 RMK AO2 $
14837KMSN MSN20060702080009407/02/06 08:00:31  5-MIN KMSN 021400Z 27005KT 9SM CLR 23/19 A3000 790 78 2000 270/05 RMK AO2 $
14837KMSN MSN20060702080509407/02/06 08:05:31  5-MIN KMSN 021405Z 29004KT 9SM CLR 23/19 A3000 790 78 2000 290/04 RMK AO2 $
14837KMSN MSN20060702081009407/02/06 08:10:31  5-MIN KMSN 021410Z 30005KT 9SM CLR 24/19 A3000 790 76 2000 300/05 RMK AO2 $
14837KMSN MSN20060702081509407/02/06 08:15:31  5-MIN KMSN 021415Z 30005KT 9SM CLR 24/19 A3000 790 76 2000 300/05 RMK AO2 $
14837KMSN MSN20060702082009407/02/06 08:20:31  5-MIN KMSN 021420Z 28005KT 9SM CLR 24/19 A3000 790 73 2000 280/05 RMK AO2 $
14837KMSN MSN20060702082509407/02/06 08:25:31  5-MIN KMSN 021425Z 28004KT 9SM CLR 24/19 A3000 790 73 2000 280/04 RMK AO2 $
14837KMSN MSN20060702083009407/02/06 08:30:31  5-MIN KMSN 021430Z VRB03KT 9SM CLR 24/19 A3001 790 76 2000 VRB/03 RMK AO2 $
14837KMSN MSN20060702083509407/02/06 08:35:31  5-MIN KMSN 021435Z VRB04KT 9SM CLR 24/19 A3001 780 73 2100 VRB/04 RMK AO2 $
14837KMSN MSN20060702084009407/02/06 08:40:31  5-MIN KMSN 021440Z 26004KT 9SM CLR 24/19 A3001 780 73 2100 260/04 RMK AO2 $
14837KMSN MSN20060702084509407/02/06 08:45:31  5-MIN KMSN 021445Z 23004KT 9SM CLR 24/19 A3000 790 73 2000 230/04 RMK AO2 $
14837KMSN MSN20060702085011707/02/06 08:50:31  5-MIN KMSN 021450Z 28004KT 8SM CLR 24/19 A3000 790 73 2100 280/04 RMK AO2 SLP155 T02440194 51014 $
14837KMSN MSN20060702085509407/02/06 08:55:31  5-MIN KMSN 021455Z VRB03KT 8SM CLR 24/19 A3001 790 73 2100 VRB/03 RMK AO2 $
14837KMSN MSN20060702090009407/02/06 09:00:31  5-MIN KMSN 021500Z 28004KT 9SM CLR 24/19 A3001 780 73 2100 280/04 RMK AO2 $
14837KMSN MSN20060702090509407/02/06 09:05:31  5-MIN KMSN 021505Z 28003KT 9SM CLR 24/19 A3001 780 71 2100 280/03 RMK AO2 $
14837KMSN MSN20060702091009407/02/06 09:10:31  5-MIN KMSN 021510Z 29005KT 9SM CLR 24/19 A3001 780 71 2100 290/05 RMK AO2 $
14837KMSN MSN20060702091509407/02/06 09:15:31  5-MIN KMSN 021515Z VRB04KT 9SM CLR 24/19 A3001 780 71 2100 VRB/04 RMK AO2 $
14837KMSN MSN20060702092009407/02/06 09:20:31  5-MIN KMSN 021520Z 00000KT 9SM CLR 24/19 A3001 780 73 2100 000/00 RMK AO2 $
14837KMSN MSN20060702092509407/02/06 09:25:31  5-MIN KMSN 021525Z VRB04KT 9SM CLR 24/18 A3001 780 68 2100 VRB/04 RMK AO2 $
14837KMSN MSN20060702093009707/02/06 09:30:31  5-MIN KMSN 021530Z 00000KT 9SM FEW110 25/19 A3001 780 68 2200 000/00 RMK AO2 $
14837KMSN MSN20060702093509707/02/06 09:35:31  5-MIN KMSN 021535Z VRB03KT 9SM SCT100 25/19 A3001 780 68 2200 VRB/03 RMK AO2 $
14837KMSN MSN20060702094009707/02/06 09:40:31  5-MIN KMSN 021540Z 00000KT 9SM SCT100 25/19 A3001 780 68 2200 000/00 RMK AO2 $
14837KMSN MSN20060702094509707/02/06 09:45:31  5-MIN KMSN 021545Z 00000KT 9SM SCT100 24/19 A3001 780 71 2100 000/00 RMK AO2 $
14837KMSN MSN20060702095011407/02/06 09:50:31  5-MIN KMSN 021550Z VRB03KT 9SM SCT100 24/19 A3001 780 71 2100 VRB/03 RMK AO2 SLP158 T02440189 $
14837KMSN MSN20060702095509707/02/06 09:55:31  5-MIN KMSN 021555Z 30003KT 9SM FEW100 24/19 A3001 780 71 2100 300/03 RMK AO2 $
14837KMSN MSN20060702100009707/02/06 10:00:31  5-MIN KMSN 021600Z 26004KT 9SM FEW100 24/19 A3002 780 71 2100 260/04 RMK AO2 $
14837KMSN MSN20060702100509707/02/06 10:05:31  5-MIN KMSN 021605Z VRB04KT 9SM FEW100 24/18 A3002 780 68 2100 VRB/04 RMK AO2 $
14837KMSN MSN20060702101009407/02/06 10:10:31  5-MIN KMSN 021610Z 23005KT 9SM CLR 24/19 A3002 770 71 2100 230/05 RMK AO2 $
14837KMSN MSN20060702101509407/02/06 10:15:31  5-MIN KMSN 021615Z 23004KT 9SM CLR 24/19 A3002 770 71 2100 220/04 RMK AO2 $
14837KMSN MSN20060702102009407/02/06 10:20:31  5-MIN KMSN 021620Z 22006KT 9SM CLR 24/18 A3002 770 68 2100 220/06 RMK AO2 $
14837KMSN MSN20060702102509407/02/06 10:25:31  5-MIN KMSN 021625Z 22004KT 9SM CLR 24/19 A3002 770 71 2100 220/04 RMK AO2 $
14837KMSN MSN20060702103009407/02/06 10:30:31  5-MIN KMSN 021630Z 23005KT 9SM CLR 24/18 A3002 770 68 2100 230/05 RMK AO2 $
14837KMSN MSN20060702103509407/02/06 10:35:31  5-MIN KMSN 021635Z 23005KT 9SM CLR 24/18 A3002 770 68 2100 230/05 RMK AO2 $
14837KMSN MSN20060702104009407/02/06 10:40:31  5-MIN KMSN 021640Z 22006KT 9SM CLR 25/18 A3002 770 64 2100 220/06 RMK AO2 $
14837KMSN MSN20060702104509407/02/06 10:45:31  5-MIN KMSN 021645Z 21005KT 9SM CLR 25/18 A3002 770 66 2100 210/05 RMK AO2 $
14837KMSN MSN20060702105011407/02/06 10:50:31  5-MIN KMSN 021650Z 22008KT 9SM FEW080 24/18 A3002 770 68 2100 220/08 RMK AO2 SLP162 T02440183 $
14837KMSN MSN20060702105509407/02/06 10:55:31  5-MIN KMSN 021655Z 22005KT 9SM CLR 24/18 A3002 770 66 2100 220/05 RMK AO2 $
14837KMSN MSN20060702110009407/02/06 11:00:31  5-MIN KMSN 021700Z 23004KT 9SM CLR 24/18 A3002 770 66 2100 230/04 RMK AO2 $
14837KMSN MSN20060702110509407/02/06 11:05:31  5-MIN KMSN 021705Z 23004KT 9SM CLR 24/18 A3001 780 66 2100 230/04 RMK AO2 $
14837KMSN MSN20060702111009407/02/06 11:10:31  5-MIN KMSN 021710Z 24005KT 9SM CLR 25/18 A3002 770 64 2100 240/05 RMK AO2 $
14837KMSN MSN20060702111509407/02/06 11:15:31  5-MIN KMSN 021715Z 24003KT 9SM CLR 25/17 A3002 780 61 2100 240/03 RMK AO2 $
14837KMSN MSN20060702112009407/02/06 11:20:31  5-MIN KMSN 021720Z 24004KT 9SM CLR 25/18 A3002 770 64 2100 240/04 RMK AO2 $
14837KMSN MSN20060702112509407/02/06 11:25:31  5-MIN KMSN 021725Z 23004KT 9SM CLR 25/18 A3002 770 64 2100 230/04 RMK AO2 $
14837KMSN MSN20060702113009407/02/06 11:30:31  5-MIN KMSN 021730Z 23006KT 9SM CLR 25/18 A3002 770 66 2100 230/06 RMK AO2 $
14837KMSN MSN20060702113509407/02/06 11:35:31  5-MIN KMSN 021735Z 22005KT 8SM CLR 25/18 A3002 780 66 2100 220/05 RMK AO2 $
14837KMSN MSN20060702114011007/02/06 11:40:31  5-MIN KMSN 021740Z 23007KT 200V270 9SM CLR 25/18 A3002 780 66 2100 230/07 200V270 RMK AO2 $
14837KMSN MSN20060702114509407/02/06 11:45:31  5-MIN KMSN 021745Z 23005KT 9SM CLR 25/18 A3001 780 66 2200 230/05 RMK AO2 $
14837KMSN MSN20060702115012907/02/06 11:50:31  5-MIN KMSN 021750Z VRB04KT 9SM CLR 25/18 A3001 780 66 2200 VRB/04 RMK AO2 SLP158 T02500183 10250 20217 53007 $
14837KMSN MSN20060702115509407/02/06 11:55:31  5-MIN KMSN 021755Z VRB03KT 9SM CLR 25/18 A3001 790 66 2200 VRB/03 RMK AO2 $
14837KMSN MSN20060702120009407/02/06 12:00:31  5-MIN KMSN 021800Z VRB04KT 9SM CLR 26/18 A3000 790 64 2200 VRB/04 RMK AO2 $
14837KMSN MSN20060702120509407/02/06 12:05:31  5-MIN KMSN 021805Z VRB03KT 9SM CLR 26/19 A3000 790 66 2200 VRB/03 RMK AO2 $
14837KMSN MSN20060702121009407/02/06 12:10:31  5-MIN KMSN 021810Z VRB05KT 9SM CLR 27/19 A3000 790 62 2400 VRB/05 RMK AO2 $
14837KMSN MSN20060702121509407/02/06 12:15:31  5-MIN KMSN 021815Z 31006KT 9SM CLR 26/19 A3000 790 64 2300 310/06 RMK AO2 $
14837KMSN MSN20060702122009407/02/06 12:20:31  5-MIN KMSN 021820Z VRB03KT 8SM CLR 26/18 A3001 790 62 2300 VRB/03 RMK AO2 $
14837KMSN MSN20060702122509407/02/06 12:25:31  5-MIN KMSN 021825Z VRB06KT 9SM CLR 27/19 A3001 780 62 2300 VRB/06 RMK AO2 $
14837KMSN MSN20060702123009407/02/06 12:30:31  5-MIN KMSN 021830Z 22007KT 9SM CLR 26/19 A3000 790 64 2300 220/07 RMK AO2 $
14837KMSN MSN20060702123509407/02/06 12:35:31  5-MIN KMSN 021835Z 25007KT 9SM CLR 26/19 A3000 790 64 2300 240/07 RMK AO2 $
14837KMSN MSN20060702124009407/02/06 12:40:31  5-MIN KMSN 021840Z VRB04KT 8SM CLR 26/19 A3000 790 66 2200 VRB/04 RMK AO2 $
14837KMSN MSN20060702124509407/02/06 12:45:31  5-MIN KMSN 021845Z VRB06KT 8SM CLR 26/19 A3000 790 66 2300 VRB/06 RMK AO2 $
14837KMSN MSN20060702125011107/02/06 12:50:31  5-MIN KMSN 021850Z 24005KT 8SM CLR 27/19 A3000 790 62 2400 240/05 RMK AO2 SLP155 T02670189 $
14837KMSN MSN20060702125509407/02/06 12:55:31  5-MIN KMSN 021855Z 22007KT 8SM CLR 27/19 A3000 790 60 2400 220/07 RMK AO2 $
14837KMSN MSN20060702130009407/02/06 13:00:31  5-MIN KMSN 021900Z 22007KT 9SM CLR 27/19 A3001 790 62 2300 220/07 RMK AO2 $
14837KMSN MSN20060702130509407/02/06 13:05:31  5-MIN KMSN 021905Z 20008KT 8SM CLR 27/19 A3001 780 62 2300 200/08 RMK AO2 $
14837KMSN MSN20060702131009407/02/06 13:10:31  5-MIN KMSN 021910Z 22009KT 8SM CLR 27/18 A3001 780 58 2400 220/09 RMK AO2 $
14837KMSN MSN20060702131509407/02/06 13:15:31  5-MIN KMSN 021915Z 24007KT 9SM CLR 27/18 A3001 780 58 2400 240/07 RMK AO2 $
14837KMSN MSN20060702132009407/02/06 13:20:31  5-MIN KMSN 021920Z VRB05KT 9SM CLR 27/18 A3001 780 56 2400 VRB/05 RMK AO2 $
14837KMSN MSN20060702132509407/02/06 13:25:31  5-MIN KMSN 021925Z 22005KT 9SM CLR 27/18 A3001 780 56 2400 220/05 RMK AO2 $
14837KMSN MSN20060702133009407/02/06 13:30:31  5-MIN KMSN 021930Z 24006KT 9SM CLR 27/17 A3001 780 54 2400 240/06 RMK AO2 $
14837KMSN MSN20060702133509407/02/06 13:35:31  5-MIN KMSN 021935Z 21008KT 9SM CLR 27/18 A3001 780 56 2400 210/08 RMK AO2 $
14837KMSN MSN20060702134009407/02/06 13:40:31  5-MIN KMSN 021940Z 21007KT 9SM CLR 28/18 A3001 780 56 2500 200/07 RMK AO2 $
14837KMSN MSN20060702134511007/02/06 13:45:31  5-MIN KMSN 021945Z 24007KT 190V260 9SM CLR 28/18 A3001 780 54 2500 240/07 190V260 RMK AO2 $
14837KMSN MSN20060702135013007/02/06 13:50:31  5-MIN KMSN 021950Z 23007KT 200V260 9SM FEW040 28/18 A3001 780 54 2500 230/07 200V260 RMK AO2 SLP158 T02780178 $
14837KMSN MSN20060702135509407/02/06 13:55:31  5-MIN KMSN 021955Z 22006KT 9SM CLR 28/18 A3001 780 54 2500 220/06 RMK AO2 $
14837KMSN MSN20060702140009407/02/06 14:00:31  5-MIN KMSN 022000Z 22008KT 9SM CLR 28/17 A3001 780 52 2500 220/08 RMK AO2 $
14837KMSN MSN20060702140509407/02/06 14:05:31  5-MIN KMSN 022005Z VRB06KT 9SM CLR 28/17 A3002 780 50 2500 VRB/06 RMK AO2 $
14837KMSN MSN20060702141009407/02/06 14:10:31  5-MIN KMSN 022010Z 25005KT 9SM CLR 28/17 A3001 780 52 2500 250/05 RMK AO2 $
14837KMSN MSN20060702141509407/02/06 14:15:31  5-MIN KMSN 022015Z VRB06KT 9SM CLR 28/18 A3001 780 52 2500 VRB/06 RMK AO2 $
14837KMSN MSN20060702142009407/02/06 14:20:31  5-MIN KMSN 022020Z VRB06KT 9SM CLR 28/19 A3001 780 56 2500 VRB/06 RMK AO2 $
14837KMSN MSN20060702142509407/02/06 14:25:31  5-MIN KMSN 022025Z 22007KT 9SM CLR 28/19 A3001 780 56 2500 220/07 RMK AO2 $
14837KMSN MSN20060702143009407/02/06 14:30:31  5-MIN KMSN 022030Z VRB05KT 9SM CLR 28/18 A3001 780 56 2500 VRB/05 RMK AO2 $
14837KMSN MSN20060702143509407/02/06 14:35:31  5-MIN KMSN 022035Z 20006KT 9SM CLR 28/19 A3001 780 56 2500 200/06 RMK AO2 $
14837KMSN MSN20060702144009407/02/06 14:40:31  5-MIN KMSN 022040Z 21005KT 9SM CLR 28/19 A3001 780 56 2500 210/05 RMK AO2 $
14837KMSN MSN20060702144509407/02/06 14:45:31  5-MIN KMSN 022045Z 22008KT 9SM CLR 28/19 A3001 780 58 2500 220/08 RMK AO2 $
14837KMSN MSN20060702145012007/02/06 14:50:31  5-MIN KMSN 022050Z 22009KT 9SM FEW040 28/19 A3002 780 58 2500 220/09 RMK AO2 SLP159 T02780189 50001 $
14837KMSN MSN20060702145511007/02/06 14:55:31  5-MIN KMSN 022055Z 24009KT 190V270 9SM CLR 28/19 A3002 780 58 2500 240/09 190V270 RMK AO2 $
14837KMSN MSN20060702150009407/02/06 15:00:31  5-MIN KMSN 022100Z 24006KT 9SM CLR 28/19 A3002 780 56 2500 240/06 RMK AO2 $
14837KMSN MSN20060702150511307/02/06 15:05:31  5-MIN KMSN 022105Z 23007KT 210V270 9SM FEW040 28/19 A3001 780 58 2500 230/07 210V270 RMK AO2 $
14837KMSN MSN20060702151009707/02/06 15:10:31  5-MIN KMSN 022110Z 22009KT 9SM FEW040 28/19 A3001 780 56 2500 220/09 RMK AO2 $
14837KMSN MSN20060702151509707/02/06 15:15:31  5-MIN KMSN 022115Z 23007KT 9SM FEW040 28/18 A3001 780 54 2500 230/07 RMK AO2 $
14837KMSN MSN20060702152009707/02/06 15:20:31  5-MIN KMSN 022120Z 23008KT 9SM FEW040 28/18 A3001 780 54 2500 230/08 RMK AO2 $
14837KMSN MSN20060702152509707/02/06 15:25:31  5-MIN KMSN 022125Z 22009KT 9SM FEW040 28/19 A3001 780 56 2500 220/09 RMK AO2 $
14837KMSN MSN20060702153009707/02/06 15:30:31  5-MIN KMSN 022130Z VRB06KT 9SM FEW040 28/19 A3001 780 58 2500 VRB/06 RMK AO2 $
14837KMSN MSN20060702153509707/02/06 15:35:31  5-MIN KMSN 022135Z 22008KT 9SM FEW040 28/19 A3001 780 56 2500 220/08 RMK AO2 $
14837KMSN MSN20060702154009707/02/06 15:40:31  5-MIN KMSN 022140Z 24008KT 9SM FEW040 28/19 A3001 780 56 2500 240/08 RMK AO2 $
14837KMSN MSN20060702154509707/02/06 15:45:31  5-MIN KMSN 022145Z 23007KT 9SM FEW040 28/19 A3001 780 56 2500 230/07 RMK AO2 $
14837KMSN MSN20060702155011407/02/06 15:50:31  5-MIN KMSN 022150Z 21010KT 9SM FEW045 28/19 A3001 780 58 2500 210/10 RMK AO2 SLP156 T02830194 $
14837KMSN MSN20060702160509407/02/06 16:05:31  5-MIN KMSN 022205Z VRB06KT 9SM CLR 28/19 A3001 780 58 2500 VRB/06 RMK AO2 $
14837KMSN MSN20060702161011007/02/06 16:10:31  5-MIN KMSN 022210Z 24008KT 180V270 9SM CLR 28/19 A3001 780 58 2500 240/08 180V270 RMK AO2 $
14837KMSN MSN20060702161509707/02/06 16:15:31  5-MIN KMSN 022215Z 23008KT 9SM FEW045 28/19 A3001 780 56 2500 230/08 RMK AO2 $
14837KMSN MSN20060702162009707/02/06 16:20:31  5-MIN KMSN 022220Z 23008KT 9SM FEW045 28/19 A3001 780 58 2500 230/08 RMK AO2 $
14837KMSN MSN20060702162509707/02/06 16:25:31  5-MIN KMSN 022225Z 23009KT 9SM FEW045 28/19 A3001 780 58 2500 230/09 RMK AO2 $
14837KMSN MSN20060702163009707/02/06 16:30:31  5-MIN KMSN 022230Z 22007KT 9SM FEW045 28/19 A3001 780 58 2500 220/07 RMK AO2 $
14837KMSN MSN20060702163509707/02/06 16:35:31  5-MIN KMSN 022235Z 23007KT 9SM FEW045 28/19 A3001 780 58 2500 230/07 RMK AO2 $
14837KMSN MSN20060702164009707/02/06 16:40:31  5-MIN KMSN 022240Z 22008KT 9SM FEW045 28/19 A3001 780 58 2500 220/08 RMK AO2 $
14837KMSN MSN20060702164510307/02/06 16:45:31  5-MIN KMSN 022245Z 23008G15KT 9SM FEW045 28/19 A3001 780 58 2500 230/08G15 RMK AO2 $
14837KMSN MSN20060702165013607/02/06 16:50:31  5-MIN KMSN 022250Z 23007G15KT 210V270 9SM FEW045 28/19 A3001 780 58 2500 230/07G15 210V270 RMK AO2 SLP158 T02780189 $
14837KMSN MSN20060702165509407/02/06 16:55:31  5-MIN KMSN 022255Z 23008KT 9SM CLR 28/19 A3001 780 58 2500 230/08 RMK AO2 $
14837KMSN MSN20060702170009407/02/06 17:00:31  5-MIN KMSN 022300Z 22009KT 9SM CLR 28/18 A3001 780 56 2500 220/09 RMK AO2 $
14837KMSN MSN20060702170511007/02/06 17:05:31  5-MIN KMSN 022305Z 23007KT 200V260 9SM CLR 28/19 A3001 780 58 2500 230/07 200V260 RMK AO2 $
14837KMSN MSN20060702171009407/02/06 17:10:31  5-MIN KMSN 022310Z 23007KT 9SM CLR 28/18 A3001 780 56 2500 230/07 RMK AO2 $
14837KMSN MSN20060702171509407/02/06 17:15:31  5-MIN KMSN 022315Z 24007KT 9SM CLR 27/18 A3001 780 58 2400 240/07 RMK AO2 $
14837KMSN MSN20060702172009407/02/06 17:20:31  5-MIN KMSN 022320Z VRB06KT 9SM CLR 27/19 A3001 780 60 2400 VRB/06 RMK AO2 $
14837KMSN MSN20060702172511007/02/06 17:25:31  5-MIN KMSN 022325Z 25007KT 200V290 9SM CLR 27/18 A3001 780 58 2400 250/07 200V290 RMK AO2 $
14837KMSN MSN20060702173011007/02/06 17:30:31  5-MIN KMSN 022330Z 23007KT 210V280 9SM CLR 27/19 A3001 780 60 2400 230/07 210V280 RMK AO2 $
14837KMSN MSN20060702173511007/02/06 17:35:31  5-MIN KMSN 022335Z 23007KT 210V280 9SM CLR 27/19 A3001 780 60 2400 230/07 210V280 RMK AO2 $
14837KMSN MSN20060702174009407/02/06 17:40:31  5-MIN KMSN 022340Z 22007KT 9SM CLR 27/19 A3001 780 60 2400 220/07 RMK AO2 $
14837KMSN MSN20060702174511007/02/06 17:45:31  5-MIN KMSN 022345Z 24008KT 200V270 9SM CLR 27/18 A3001 780 58 2400 230/08 200V270 RMK AO2 $
14837KMSN MSN20060702175012907/02/06 17:50:31  5-MIN KMSN 022350Z 24006KT 9SM CLR 27/18 A3001 780 58 2400 240/06 RMK AO2 SLP158 T02720183 10289 20250 53002 $
14837KMSN MSN20060702175511007/02/06 17:55:31  5-MIN KMSN 022355Z 23007KT 210V270 9SM CLR 27/19 A3001 780 60 2400 230/07 210V270 RMK AO2 $
14837KMSN MSN20060702180011007/02/06 18:00:31  5-MIN KMSN 030000Z 24007KT 210V270 9SM CLR 27/19 A3001 780 60 2400 240/07 210V270 RMK AO2 $
14837KMSN MSN20060702180509407/02/06 18:05:31  5-MIN KMSN 030005Z VRB06KT 9SM CLR 27/19 A3001 780 60 2400 VRB/06 RMK AO2 $
14837KMSN MSN20060702181009407/02/06 18:10:31  5-MIN KMSN 030010Z VRB06KT 9SM CLR 27/19 A3001 780 60 2400 VRB/06 RMK AO2 $
14837KMSN MSN20060702181509407/02/06 18:15:31  5-MIN KMSN 030015Z 24008KT 9SM CLR 27/19 A3001 780 62 2300 240/08 RMK AO2 $
14837KMSN MSN20060702182009407/02/06 18:20:31  5-MIN KMSN 030020Z 24007KT 9SM CLR 27/19 A3001 780 62 2300 240/07 RMK AO2 $
14837KMSN MSN20060702182509407/02/06 18:25:31  5-MIN KMSN 030025Z VRB06KT 9SM CLR 27/19 A3001 780 62 2300 VRB/06 RMK AO2 $
14837KMSN MSN20060702183011007/02/06 18:30:31  5-MIN KMSN 030030Z 24007KT 220V280 9SM CLR 27/18 A3001 780 60 2300 240/07 220V280 RMK AO2 $
14837KMSN MSN20060702183509407/02/06 18:35:31  5-MIN KMSN 030035Z 23006KT 9SM CLR 27/18 A3001 780 60 2300 230/06 RMK AO2 $
14837KMSN MSN20060702184009407/02/06 18:40:31  5-MIN KMSN 030040Z VRB05KT 9SM CLR 27/18 A3001 780 60 2300 VRB/05 RMK AO2 $
14837KMSN MSN20060702184509407/02/06 18:45:31  5-MIN KMSN 030045Z VRB05KT 9SM CLR 27/19 A3001 780 62 2300 VRB/05 RMK AO2 $
14837KMSN MSN20060702185011107/02/06 18:50:31  5-MIN KMSN 030050Z 23006KT 9SM CLR 26/19 A3001 780 64 2300 230/06 RMK AO2 SLP157 T02610189 $
14837KMSN MSN20060702185509407/02/06 18:55:31  5-MIN KMSN 030055Z 24005KT 9SM CLR 26/19 A3001 780 64 2300 230/05 RMK AO2 $
14837KMSN MSN20060702190009407/02/06 19:00:31  5-MIN KMSN 030100Z 24005KT 9SM CLR 26/19 A3001 780 64 2300 240/05 RMK AO2 $
14837KMSN MSN20060702190509407/02/06 19:05:31  5-MIN KMSN 030105Z 24005KT 9SM CLR 26/18 A3001 780 62 2300 240/05 RMK AO2 $
14837KMSN MSN20060702191009407/02/06 19:10:31  5-MIN KMSN 030110Z 23004KT 9SM CLR 26/18 A3001 780 62 2300 230/04 RMK AO2 $
14837KMSN MSN20060702191509407/02/06 19:15:31  5-MIN KMSN 030115Z VRB04KT 9SM CLR 26/18 A3001 780 64 2200 VRB/04 RMK AO2 $
14837KMSN MSN20060702192009407/02/06 19:20:31  5-MIN KMSN 030120Z 23004KT 9SM CLR 26/18 A3001 780 64 2200 230/04 RMK AO2 $
14837KMSN MSN20060702192509407/02/06 19:25:31  5-MIN KMSN 030125Z VRB06KT 9SM CLR 26/19 A3001 780 66 2200 VRB/06 RMK AO2 $
14837KMSN MSN20060702193009407/02/06 19:30:31  5-MIN KMSN 030130Z VRB04KT 9SM CLR 26/19 A3001 780 66 2200 VRB/04 RMK AO2 $
14837KMSN MSN20060702193509407/02/06 19:35:31  5-MIN KMSN 030135Z 23005KT 9SM CLR 26/19 A3001 780 66 2200 230/05 RMK AO2 $
14837KMSN MSN20060702194009407/02/06 19:40:31  5-MIN KMSN 030140Z 23004KT 9SM CLR 26/19 A3001 780 66 2200 230/04 RMK AO2 $
14837KMSN MSN20060702194509407/02/06 19:45:31  5-MIN KMSN 030145Z 22005KT 9SM CLR 25/19 A3001 780 68 2200 220/05 RMK AO2 $
14837KMSN MSN20060702195011107/02/06 19:50:31  5-MIN KMSN 030150Z VRB04KT 8SM CLR 25/19 A3001 780 68 2200 VRB/04 RMK AO2 SLP158 T02500189 $
14837KMSN MSN20060702195509407/02/06 19:55:31  5-MIN KMSN 030155Z 22004KT 8SM CLR 25/19 A3001 780 68 2200 220/04 RMK AO2 $
14837KMSN MSN20060702200009407/02/06 20:00:31  5-MIN KMSN 030200Z 22004KT 8SM CLR 25/19 A3001 780 68 2200 220/04 RMK AO2 $
14837KMSN MSN20060702200509407/02/06 20:05:31  5-MIN KMSN 030205Z 22005KT 8SM CLR 25/19 A3001 780 68 2200 220/05 RMK AO2 $
14837KMSN MSN20060702201009407/02/06 20:10:31  5-MIN KMSN 030210Z 22005KT 9SM CLR 25/19 A3001 780 68 2200 220/05 RMK AO2 $
14837KMSN MSN20060702201509507/02/06 20:15:31  5-MIN KMSN 030215Z 22005KT 10SM CLR 25/19 A3001 780 68 2200 220/05 RMK AO2 $
14837KMSN MSN20060702202009507/02/06 20:20:31  5-MIN KMSN 030220Z 21004KT 10SM CLR 24/19 A3002 780 71 2100 210/04 RMK AO2 $
14837KMSN MSN20060702202509407/02/06 20:25:31  5-MIN KMSN 030225Z 22005KT 9SM CLR 24/19 A3002 780 71 2100 220/05 RMK AO2 $
14837KMSN MSN20060702203009407/02/06 20:30:31  5-MIN KMSN 030230Z 22005KT 9SM CLR 24/19 A3002 780 71 2100 220/05 RMK AO2 $
14837KMSN MSN20060702203509407/02/06 20:35:31  5-MIN KMSN 030235Z 22004KT 9SM CLR 24/19 A3002 780 71 2100 220/04 RMK AO2 $
14837KMSN MSN20060702204009407/02/06 20:40:31  5-MIN KMSN 030240Z 22004KT 9SM CLR 24/19 A3002 770 71 2100 220/04 RMK AO2 $
14837KMSN MSN20060702204509407/02/06 20:45:31  5-MIN KMSN 030245Z VRB04KT 8SM CLR 24/19 A3002 770 71 2100 VRB/04 RMK AO2 $
14837KMSN MSN20060702205012007/02/06 20:50:31  5-MIN KMSN 030250Z 22003KT 4SM HZ CLR 24/19 A3002 770 73 2000 220/03 RMK AO2 SLP160 T02390189 55001 $
14837KMSN MSN20060702205509407/02/06 20:55:31  5-MIN KMSN 030255Z 22005KT 7SM CLR 24/19 A3002 770 73 2000 220/05 RMK AO2 $
14837KMSN MSN20060702210009407/02/06 21:00:31  5-MIN KMSN 030300Z 23005KT 7SM CLR 24/19 A3002 770 71 2100 220/05 RMK AO2 $
14837KMSN MSN20060702210509407/02/06 21:05:31  5-MIN KMSN 030305Z VRB04KT 9SM CLR 24/19 A3002 770 73 2000 VRB/04 RMK AO2 $
14837KMSN MSN20060702211009407/02/06 21:10:31  5-MIN KMSN 030310Z VRB03KT 9SM CLR 24/19 A3002 770 73 2000 VRB/03 RMK AO2 $
14837KMSN MSN20060702211509407/02/06 21:15:31  5-MIN KMSN 030315Z VRB05KT 9SM CLR 24/19 A3002 770 73 2000 VRB/05 RMK AO2 $
14837KMSN MSN20060702212009407/02/06 21:20:31  5-MIN KMSN 030320Z 22004KT 9SM CLR 23/19 A3002 770 76 2000 220/04 RMK AO2 $
14837KMSN MSN20060702212509407/02/06 21:25:31  5-MIN KMSN 030325Z 23004KT 9SM CLR 23/19 A3002 770 76 2000 230/04 RMK AO2 $
14837KMSN MSN20060702213009407/02/06 21:30:31  5-MIN KMSN 030330Z 23004KT 9SM CLR 23/19 A3003 770 76 1900 220/04 RMK AO2 $
14837KMSN MSN20060702213509407/02/06 21:35:31  5-MIN KMSN 030335Z 23004KT 9SM CLR 23/19 A3003 770 76 1900 230/04 RMK AO2 $
14837KMSN MSN20060702214009407/02/06 21:40:31  5-MIN KMSN 030340Z VRB04KT 9SM CLR 23/19 A3003 770 76 1900 VRB/04 RMK AO2 $
14837KMSN MSN20060702214509407/02/06 21:45:31  5-MIN KMSN 030345Z VRB03KT 9SM CLR 23/19 A3003 760 76 1900 VRB/03 RMK AO2 $
14837KMSN MSN20060702215011107/02/06 21:50:31  5-MIN KMSN 030350Z VRB04KT 9SM CLR 23/19 A3003 770 78 1900 VRB/04 RMK AO2 SLP163 T02280189 $
14837KMSN MSN20060702215509407/02/06 21:55:31  5-MIN KMSN 030355Z VRB05KT 8SM CLR 23/19 A3003 760 76 1900 VRB/05 RMK AO2 $
14837KMSN MSN20060702220009407/02/06 22:00:31  5-MIN KMSN 030400Z VRB06KT 8SM CLR 23/19 A3003 760 76 1900 VRB/06 RMK AO2 $
14837KMSN MSN20060702220509407/02/06 22:05:31  5-MIN KMSN 030405Z VRB04KT 8SM CLR 23/19 A3003 760 76 1900 VRB/04 RMK AO2 $
14837KMSN MSN20060702221009407/02/06 22:10:31  5-MIN KMSN 030410Z 23005KT 8SM CLR 23/19 A3003 760 76 1900 230/05 RMK AO2 $
14837KMSN MSN20060702221509407/02/06 22:15:31  5-MIN KMSN 030415Z VRB04KT 8SM CLR 23/19 A3003 760 76 1900 VRB/04 RMK AO2 $
14837KMSN MSN20060702222009407/02/06 22:20:31  5-MIN KMSN 030420Z VRB03KT 8SM CLR 23/19 A3003 760 76 1900 VRB/03 RMK AO2 $
14837KMSN MSN20060702222509407/02/06 22:25:31  5-MIN KMSN 030425Z VRB04KT 8SM CLR 23/19 A3003 760 76 1900 VRB/04 RMK AO2 $
14837KMSN MSN20060702223009407/02/06 22:30:31  5-MIN KMSN 030430Z VRB04KT 8SM CLR 23/19 A3003 760 76 1900 VRB/04 RMK AO2 $
14837KMSN MSN20060702223509407/02/06 22:35:31  5-MIN KMSN 030435Z VRB03KT 8SM CLR 23/19 A3003 760 76 1900 VRB/03 RMK AO2 $
14837KMSN MSN20060702224009407/02/06 22:40:31  5-MIN KMSN 030440Z VRB03KT 8SM CLR 23/19 A3003 760 76 1900 VRB/03 RMK AO2 $
14837KMSN MSN20060702224509407/02/06 22:45:31  5-MIN KMSN 030445Z VRB03KT 8SM CLR 23/19 A3003 760 78 1900 VRB/03 RMK AO2 $
14837KMSN MSN20060702225011107/02/06 22:50:31  5-MIN KMSN 030450Z 00000KT 8SM CLR 23/19 A3003 760 78 1900 000/00 RMK AO2 SLP164 T02280189 $
14837KMSN MSN20060702225509407/02/06 22:55:31  5-MIN KMSN 030455Z 00000KT 8SM CLR 23/19 A3003 760 78 1900 000/00 RMK AO2 $
14837KMSN MSN20060702230009407/02/06 23:00:31  5-MIN KMSN 030500Z 00000KT 8SM CLR 22/18 A3003 760 78 1800 000/00 RMK AO2 $
14837KMSN MSN20060702230509407/02/06 23:05:31  5-MIN KMSN 030505Z 00000KT 7SM CLR 21/18 A3003 760 84 1700 000/00 RMK AO2 $
14837KMSN MSN20060702231009707/02/06 23:10:31  5-MIN KMSN 030510Z 00000KT 6SM HZ CLR 21/18 A3003 760 84 1600 000/00 RMK AO2 $
14837KMSN MSN20060702231509407/02/06 23:15:31  5-MIN KMSN 030515Z 00000KT 7SM CLR 22/18 A3003 760 81 1700 000/00 RMK AO2 $
14837KMSN MSN20060702232009407/02/06 23:20:31  5-MIN KMSN 030520Z 00000KT 7SM CLR 21/18 A3003 760 87 1600 000/00 RMK AO2 $
14837KMSN MSN20060702232509407/02/06 23:25:31  5-MIN KMSN 030525Z 00000KT 8SM CLR 21/18 A3003 760 84 1700 000/00 RMK AO2 $
14837KMSN MSN20060702233009407/02/06 23:30:31  5-MIN KMSN 030530Z 00000KT 8SM CLR 22/18 A3003 760 81 1800 000/00 RMK AO2 $
14837KMSN MSN20060702233509407/02/06 23:35:31  5-MIN KMSN 030535Z 00000KT 7SM CLR 21/18 A3003 760 81 1700 000/00 RMK AO2 $
14837KMSN MSN20060702234009707/02/06 23:40:31  5-MIN KMSN 030540Z 16003KT 6SM HZ CLR 21/18 A3003 760 84 1700 160/03 RMK AO2 $
14837KMSN MSN20060702234509707/02/06 23:45:31  5-MIN KMSN 030545Z 16003KT 6SM BR CLR 21/18 A3003 770 87 1600 160/03 RMK AO2 $
14837KMSN MSN20060702235014207/02/06 23:50:31  5-MIN KMSN 030550Z 15004KT 6SM BR CLR 21/18 A3002 770 87 1600 150/04 RMK AO2 SLP162 T02060183 10272 20206 402890206 53003 $
14837KMSN MSN20060702235509707/02/06 23:55:31  5-MIN KMSN 030555Z 14003KT 6SM BR CLR 21/18 A3002 770 87 1600 140/03 RMK AO2 $
14837KMSN MSN20060703000009707/03/06 00:00:38  5-MIN KMSN 030600Z 00000KT 6SM BR CLR 20/18 A3003 770 87 1600 000/00 RMK AO2 $
14837KMSN MSN20060703000509707/03/06 00:05:31  5-MIN KMSN 030605Z 00000KT 6SM BR CLR 21/18 A3002 770 87 1600 000/00 RMK AO2 $
14837KMSN MSN20060703001009407/03/06 00:10:31  5-MIN KMSN 030610Z 00000KT 7SM CLR 21/18 A3003 770 87 1600 000/00 RMK AO2 $
14837KMSN MSN20060703001509407/03/06 00:15:32  5-MIN KMSN 030615Z 00000KT 7SM CLR 20/18 A3003 770 90 1600 000/00 RMK AO2 $
14837KMSN MSN20060703002009407/03/06 00:20:31  5-MIN KMSN 030620Z 00000KT 7SM CLR 20/18 A3003 770 90 1600 000/00 RMK AO2 $
14837KMSN MSN20060703002509407/03/06 00:25:31  5-MIN KMSN 030625Z 00000KT 7SM CLR 21/18 A3002 770 84 1700 000/00 RMK AO2 $
14837KMSN MSN20060703003009407/03/06 00:30:31  5-MIN KMSN 030630Z 00000KT 7SM CLR 20/18 A3002 770 90 1600 000/00 RMK AO2 $
14837KMSN MSN20060703003509707/03/06 00:35:31  5-MIN KMSN 030635Z 00000KT 6SM BR CLR 19/18 A3002 770 93 1500 000/00 RMK AO2 $
14837KMSN MSN20060703004009707/03/06 00:40:31  5-MIN KMSN 030640Z 00000KT 6SM BR CLR 20/18 A3002 770 90 1600 000/00 RMK AO2 $
14837KMSN MSN20060703004509707/03/06 00:45:31  5-MIN KMSN 030645Z 00000KT 6SM BR CLR 19/18 A3002 770 93 1500 000/00 RMK AO2 $
14837KMSN MSN20060703005011407/03/06 00:50:31  5-MIN KMSN 030650Z 00000KT 6SM BR CLR 19/18 A3002 770 93 1500 000/00 RMK AO2 SLP160 T01940183 $
14837KMSN MSN20060703005509707/03/06 00:55:31  5-MIN KMSN 030655Z 00000KT 6SM BR CLR 20/18 A3002 780 90 1600 000/00 RMK AO2 $
14837KMSN MSN20060703010009707/03/06 01:00:31  5-MIN KMSN 030700Z 00000KT 6SM BR CLR 20/18 A3002 780 90 1600 000/00 RMK AO2 $
14837KMSN MSN20060703010509707/03/06 01:05:31  5-MIN KMSN 030705Z 00000KT 5SM BR CLR 19/18 A3002 780 93 1500 000/00 RMK AO2 $
14837KMSN MSN20060703011009707/03/06 01:10:31  5-MIN KMSN 030710Z 00000KT 5SM BR CLR 19/18 A3001 780 93 1500 000/00 RMK AO2 $
14837KMSN MSN20060703011509707/03/06 01:15:31  5-MIN KMSN 030715Z 00000KT 5SM BR CLR 19/18 A3001 780 93 1500 000/00 RMK AO2 $
14837KMSN MSN20060703012009707/03/06 01:20:31  5-MIN KMSN 030720Z 00000KT 5SM BR CLR 18/18 A3001 780 96 1400 000/00 RMK AO2 $
14837KMSN MSN20060703012509707/03/06 01:25:31  5-MIN KMSN 030725Z 00000KT 4SM BR CLR 18/18 A3001 780 96 1400 000/00 RMK AO2 $
14837KMSN MSN20060703013009707/03/06 01:30:31  5-MIN KMSN 030730Z 00000KT 4SM BR CLR 18/17 A3001 780 93 1400 000/00 RMK AO2 $
14837KMSN MSN20060703013509707/03/06 01:35:31  5-MIN KMSN 030735Z 00000KT 4SM BR CLR 18/17 A3001 780 93 1400 000/00 RMK AO2 $
14837KMSN MSN20060703014009707/03/06 01:40:31  5-MIN KMSN 030740Z 00000KT 4SM BR CLR 18/17 A3001 780 93 1400 000/00 RMK AO2 $
14837KMSN MSN20060703014509707/03/06 01:45:31  5-MIN KMSN 030745Z 00000KT 4SM BR CLR 18/18 A3002 780 96 1400 000/00 RMK AO2 $
14837KMSN MSN20060703015011407/03/06 01:50:31  5-MIN KMSN 030750Z 00000KT 4SM BR CLR 19/18 A3002 770 93 1400 000/00 RMK AO2 SLP160 T01890178 $
14837KMSN MSN20060703015509707/03/06 01:55:31  5-MIN KMSN 030755Z 00000KT 5SM BR CLR 19/18 A3002 770 93 1400 000/00 RMK AO2 $
14837KMSN MSN20060703020009707/03/06 02:00:31  5-MIN KMSN 030800Z 00000KT 6SM BR CLR 19/18 A3002 770 93 1400 000/00 RMK AO2 $
14837KMSN MSN20060703020509707/03/06 02:05:31  5-MIN KMSN 030805Z 00000KT 5SM BR CLR 19/18 A3003 770 93 1400 000/00 RMK AO2 $
14837KMSN MSN20060703021009707/03/06 02:10:31  5-MIN KMSN 030810Z 00000KT 4SM BR CLR 18/17 A3003 770 93 1400 000/00 RMK AO2 $
14837KMSN MSN20060703021509707/03/06 02:15:31  5-MIN KMSN 030815Z 00000KT 4SM BR CLR 18/17 A3002 770 93 1400 000/00 RMK AO2 $
14837KMSN MSN20060703022009707/03/06 02:20:31  5-MIN KMSN 030820Z 00000KT 4SM BR CLR 18/17 A3002 770 96 1300 000/00 RMK AO2 $
14837KMSN MSN20060703022509707/03/06 02:25:31  5-MIN KMSN 030825Z 00000KT 5SM BR CLR 18/17 A3002 770 96 1300 000/00 RMK AO2 $
14837KMSN MSN20060703023009707/03/06 02:30:31  5-MIN KMSN 030830Z 00000KT 6SM BR CLR 18/17 A3002 770 96 1300 000/00 RMK AO2 $
14837KMSN MSN20060703023509707/03/06 02:35:31  5-MIN KMSN 030835Z 02003KT 6SM BR CLR 17/17 A3002 780 96 1300 020/03 RMK AO2 $
14837KMSN MSN20060703024009707/03/06 02:40:31  5-MIN KMSN 030840Z 03003KT 6SM BR CLR 17/16 A3002 780 93 1300 030/03 RMK AO2 $
14837KMSN MSN20060703024509707/03/06 02:45:31  5-MIN KMSN 030845Z 00000KT 5SM BR CLR 18/17 A3001 780 93 1300 000/00 RMK AO2 $
14837KMSN MSN20060703025012007/03/06 02:50:31  5-MIN KMSN 030850Z 00000KT 4SM BR CLR 18/17 A3001 780 96 1300 000/00 RMK AO2 SLP159 T01780172 50001 $
14837KMSN MSN20060703025509707/03/06 02:55:31  5-MIN KMSN 030855Z 00000KT 4SM BR CLR 18/17 A3002 780 96 1300 000/00 RMK AO2 $
14837KMSN MSN20060703030009707/03/06 03:00:31  5-MIN KMSN 030900Z 00000KT 5SM BR CLR 17/17 A3002 770 96 1300 000/00 RMK AO2 $
14837KMSN MSN20060703030509707/03/06 03:05:31  5-MIN KMSN 030905Z 20003KT 6SM BR CLR 18/17 A3002 770 93 1300 200/03 RMK AO2 $
14837KMSN MSN20060703031009707/03/06 03:10:31  5-MIN KMSN 030910Z 20003KT 6SM BR CLR 18/17 A3002 770 93 1400 200/03 RMK AO2 $
14837KMSN MSN20060703031509407/03/06 03:15:31  5-MIN KMSN 030915Z 19003KT 7SM CLR 19/18 A3003 770 93 1400 190/03 RMK AO2 $
14837KMSN MSN20060703032009407/03/06 03:20:31  5-MIN KMSN 030920Z 18004KT 7SM CLR 18/17 A3003 760 93 1400 170/04 RMK AO2 $
14837KMSN MSN20060703032509407/03/06 03:25:31  5-MIN KMSN 030925Z 20003KT 7SM CLR 18/17 A3003 760 93 1300 200/03 RMK AO2 $
14837KMSN MSN20060703033009407/03/06 03:30:31  5-MIN KMSN 030930Z 00000KT 7SM CLR 19/17 A3003 770 90 1400 000/00 RMK AO2 $
14837KMSN MSN20060703033509707/03/06 03:35:31  5-MIN KMSN 030935Z 17003KT 6SM BR CLR 18/17 A3003 760 93 1300 170/03 RMK AO2 $
14837KMSN MSN20060703034009707/03/06 03:40:31  5-MIN KMSN 030940Z 19003KT 6SM BR CLR 18/17 A3003 760 93 1400 190/03 RMK AO2 $
14837KMSN MSN20060703034509407/03/06 03:45:31  5-MIN KMSN 030945Z 00000KT 7SM CLR 19/18 A3003 760 93 1400 000/00 RMK AO2 $
14837KMSN MSN20060703035011107/03/06 03:50:31  5-MIN KMSN 030950Z 00000KT 7SM CLR 18/17 A3003 760 93 1400 000/00 RMK AO2 SLP165 T01830172 $
14837KMSN MSN20060703035509407/03/06 03:55:31  5-MIN KMSN 030955Z 00000KT 7SM CLR 18/17 A3003 760 93 1400 000/00 RMK AO2 $
14837KMSN MSN20060703040009707/03/06 04:00:31  5-MIN KMSN 031000Z 00000KT 6SM BR CLR 19/18 A3003 760 93 1400 000/00 RMK AO2 $
14837KMSN MSN20060703040509707/03/06 04:05:31  5-MIN KMSN 031005Z 00000KT 5SM BR CLR 18/17 A3003 760 96 1300 000/00 RMK AO2 $
14837KMSN MSN20060703041009707/03/06 04:10:31  5-MIN KMSN 031010Z 00000KT 4SM BR CLR 17/17 A3003 760 96 1200 000/00 RMK AO2 $
14837KMSN MSN20060703041509707/03/06 04:15:31  5-MIN KMSN 031015Z 00000KT 4SM BR CLR 18/17 A3003 770 96 1300 000/00 RMK AO2 $
14837KMSN MSN20060703042009707/03/06 04:20:31  5-MIN KMSN 031020Z 00000KT 4SM BR CLR 18/17 A3003 770 93 1300 000/00 RMK AO2 $
14837KMSN MSN20060703042509707/03/06 04:25:31  5-MIN KMSN 031025Z 15003KT 4SM BR CLR 18/17 A3002 770 96 1300 150/03 RMK AO2 $
14837KMSN MSN20060703043009707/03/06 04:30:31  5-MIN KMSN 031030Z 17003KT 4SM BR CLR 18/17 A3002 770 96 1300 170/03 RMK AO2 $
14837KMSN MSN20060703043509707/03/06 04:35:31  5-MIN KMSN 031035Z 18004KT 4SM BR CLR 18/17 A3002 770 93 1400 180/04 RMK AO2 $
14837KMSN MSN20060703044009707/03/06 04:40:31  5-MIN KMSN 031040Z 18004KT 4SM BR CLR 19/18 A3002 770 93 1400 180/04 RMK AO2 $
14837KMSN MSN20060703044509707/03/06 04:45:31  5-MIN KMSN 031045Z 19005KT 4SM BR CLR 19/18 A3002 770 93 1500 190/05 RMK AO2 $
14837KMSN MSN20060703045011407/03/06 04:50:31  5-MIN KMSN 031050Z 20003KT 4SM BR CLR 20/18 A3002 770 90 1600 200/03 RMK AO2 SLP161 T02000183 $
14837KMSN MSN20060703045509407/03/06 04:55:31  5-MIN KMSN 031055Z 18005KT 7SM CLR 21/19 A3002 780 90 1600 180/05 RMK AO2 $
14837KMSN MSN20060703050009707/03/06 05:00:31  5-MIN KMSN 031100Z 20005KT 6SM BR CLR 21/19 A3002 770 90 1600 200/05 RMK AO2 $
14837KMSN MSN20060703050509407/03/06 05:05:31  5-MIN KMSN 031105Z 21005KT 7SM CLR 21/19 A3002 770 87 1700 210/05 RMK AO2 $
14837KMSN MSN20060703051009407/03/06 05:10:31  5-MIN KMSN 031110Z 20006KT 8SM CLR 21/19 A3002 770 87 1700 200/06 RMK AO2 $
14837KMSN MSN20060703051509407/03/06 05:15:31  5-MIN KMSN 031115Z 21007KT 8SM CLR 21/19 A3002 770 87 1700 200/07 RMK AO2 $
14837KMSN MSN20060703052009407/03/06 05:20:31  5-MIN KMSN 031120Z 20006KT 8SM CLR 21/19 A3002 770 87 1700 200/06 RMK AO2 $
14837KMSN MSN20060703052509407/03/06 05:25:31  5-MIN KMSN 031125Z 20005KT 8SM CLR 21/19 A3002 770 87 1700 200/05 RMK AO2 $
14837KMSN MSN20060703053009407/03/06 05:30:31  5-MIN KMSN 031130Z 22007KT 8SM CLR 21/19 A3002 770 87 1700 220/07 RMK AO2 $
14837KMSN MSN20060703053509407/03/06 05:35:31  5-MIN KMSN 031135Z 22006KT 8SM CLR 21/19 A3002 770 87 1700 220/06 RMK AO2 $
14837KMSN MSN20060703054009407/03/06 05:40:31  5-MIN KMSN 031140Z 21006KT 8SM CLR 21/19 A3002 770 87 1700 210/06 RMK AO2 $
14837KMSN MSN20060703054509407/03/06 05:45:31  5-MIN KMSN 031145Z 21006KT 9SM CLR 21/19 A3002 770 87 1700 210/06 RMK AO2 $
14837KMSN MSN20060703055013207/03/06 05:50:31  5-MIN KMSN 031150Z 20008KT 9SM FEW120 22/19 A3002 770 84 1800 200/08 RMK AO2 SLP160 T02170189 10217 20172 56003 $
14837KMSN MSN20060703055509407/03/06 05:55:31  5-MIN KMSN 031155Z 20009KT 9SM CLR 22/19 A3002 780 84 1800 200/09 RMK AO2 $
14837KMSN MSN20060703060009207/03/06 06:00:31  5-MIN KMSN 031200Z 21006KT 8SM CLR 22/19 A3001 780 84 1800 210/06 RMK AO2
14837KMSN MSN20060703060509207/03/06 06:05:31  5-MIN KMSN 031205Z 20008KT 8SM CLR 22/19 A3001 780 84 1800 200/08 RMK AO2
14837KMSN MSN20060703061009207/03/06 06:10:31  5-MIN KMSN 031210Z 21007KT 8SM CLR 22/19 A3001 780 84 1800 200/07 RMK AO2
14837KMSN MSN20060703061509507/03/06 06:15:31  5-MIN KMSN 031215Z 21007KT 8SM FEW100 22/19 A3001 780 84 1800 200/07 RMK AO2
14837KMSN MSN20060703062009507/03/06 06:20:31  5-MIN KMSN 031220Z 20006KT 8SM FEW100 22/19 A3000 790 84 1800 200/06 RMK AO2
14837KMSN MSN20060703062509507/03/06 06:25:31  5-MIN KMSN 031225Z 21008KT 8SM FEW100 22/19 A3000 790 84 1800 210/08 RMK AO2
14837KMSN MSN20060703063009207/03/06 06:30:31  5-MIN KMSN 031230Z 20006KT 7SM CLR 22/19 A3000 790 84 1800 200/06 RMK AO2
14837KMSN MSN20060703063509207/03/06 06:35:31  5-MIN KMSN 031235Z 20005KT 7SM CLR 22/19 A3000 790 87 1800 200/05 RMK AO2
14837KMSN MSN20060703064009507/03/06 06:40:31  5-MIN KMSN 031240Z VRB06KT 6SM BR CLR 22/19 A3000 790 87 1800 VRB/06 RMK AO2
14837KMSN MSN20060703064509507/03/06 06:45:31  5-MIN KMSN 031245Z 23007KT 6SM BR CLR 22/19 A3001 780 87 1800 230/07 RMK AO2
14837KMSN MSN20060703065012107/03/06 06:50:31  5-MIN KMSN 031250Z 22008G14KT 6SM BR FEW095 22/19 A3001 780 87 1800 220/08G14 RMK AO2 SLP157 T02170194
14837KMSN MSN20060703065510407/03/06 06:55:31  5-MIN KMSN 031255Z 22006G14KT 6SM BR FEW095 22/19 A3001 780 87 1800 220/06G14 RMK AO2
14837KMSN MSN20060703070009507/03/06 07:00:31  5-MIN KMSN 031300Z 21005KT 7SM FEW100 22/19 A3001 780 87 1800 210/05 RMK AO2
14837KMSN MSN20060703070509507/03/06 07:05:31  5-MIN KMSN 031305Z 20007KT 7SM FEW100 22/19 A3001 780 84 1800 200/07 RMK AO2
14837KMSN MSN20060703071011107/03/06 07:10:31  5-MIN KMSN 031310Z 22007KT 190V250 7SM FEW100 22/19 A3001 780 84 1800 220/07 190V250 RMK AO2
14837KMSN MSN20060703071509507/03/06 07:15:31  5-MIN KMSN 031315Z 22006KT 8SM FEW100 22/19 A3001 780 84 1800 220/06 RMK AO2
14837KMSN MSN20060703072009507/03/06 07:20:31  5-MIN KMSN 031320Z VRB05KT 8SM FEW100 22/19 A3001 780 84 1800 VRB/05 RMK AO2
14837KMSN MSN20060703072509507/03/06 07:25:31  5-MIN KMSN 031325Z 20006KT 8SM FEW100 22/19 A3001 780 84 1800 200/06 RMK AO2
14837KMSN MSN20060703073009507/03/06 07:30:31  5-MIN KMSN 031330Z 24005KT 8SM FEW100 22/19 A3001 780 84 1800 240/05 RMK AO2
14837KMSN MSN20060703073509507/03/06 07:35:31  5-MIN KMSN 031335Z 22005KT 8SM FEW100 23/19 A3001 780 81 1900 220/05 RMK AO2
14837KMSN MSN20060703074009507/03/06 07:40:31  5-MIN KMSN 031340Z 22005KT 8SM FEW100 23/19 A3001 780 78 2000 220/05 RMK AO2
14837KMSN MSN20060703074509507/03/06 07:45:31  5-MIN KMSN 031345Z VRB04KT 8SM FEW100 23/19 A3001 790 78 2000 VRB/04 RMK AO2
14837KMSN MSN20060703075011207/03/06 07:50:31  5-MIN KMSN 031350Z 19005KT 9SM FEW100 24/19 A3001 790 76 2000 190/05 RMK AO2 SLP155 T02390194
14837KMSN MSN20060703075509207/03/06 07:55:31  5-MIN KMSN 031355Z VRB04KT 9SM CLR 24/19 A3000 790 76 2000 VRB/04 RMK AO2
14837KMSN MSN20060703080009307/03/06 08:00:31  5-MIN KMSN 031400Z 20007KT 10SM CLR 24/19 A3000 790 76 2000 200/07 RMK AO2
14837KMSN MSN20060703080509307/03/06 08:05:31  5-MIN KMSN 031405Z 20007KT 10SM CLR 24/19 A3000 790 73 2000 190/07 RMK AO2
14837KMSN MSN20060703081009307/03/06 08:10:31  5-MIN KMSN 031410Z 19006KT 10SM CLR 23/19 A3000 790 76 2000 190/06 RMK AO2
14837KMSN MSN20060703081509307/03/06 08:15:31  5-MIN KMSN 031415Z 21004KT 10SM CLR 23/19 A3000 790 76 2000 210/04 RMK AO2
14837KMSN MSN20060703082009307/03/06 08:20:31  5-MIN KMSN 031420Z 21005KT 10SM CLR 24/19 A3000 790 73 2000 200/05 RMK AO2
14837KMSN MSN20060703082509307/03/06 08:25:31  5-MIN KMSN 031425Z 22007KT 10SM CLR 24/19 A3000 790 71 2100 220/07 RMK AO2
14837KMSN MSN20060703083009307/03/06 08:30:31  5-MIN KMSN 031430Z VRB05KT 10SM CLR 24/19 A3000 790 73 2000 VRB/05 RMK AO2
14837KMSN MSN20060703083509307/03/06 08:35:31  5-MIN KMSN 031435Z VRB06KT 10SM CLR 24/19 A3000 790 76 2000 VRB/06 RMK AO2
14837KMSN MSN20060703084009307/03/06 08:40:31  5-MIN KMSN 031440Z VRB05KT 10SM CLR 24/19 A3000 790 73 2100 VRB/05 RMK AO2
14837KMSN MSN20060703084509307/03/06 08:45:31  5-MIN KMSN 031445Z 23007KT 10SM CLR 24/19 A3000 790 71 2100 230/07 RMK AO2
14837KMSN MSN20060703085011607/03/06 08:50:31  5-MIN KMSN 031450Z 21005KT 10SM CLR 25/19 A2999 800 68 2200 200/05 RMK AO2 SLP152 T02500189 50001
14837KMSN MSN20060703085510907/03/06 08:55:31  5-MIN KMSN 031455Z 20007KT 170V230 10SM CLR 25/19 A2999 800 68 2200 200/07 170V230 RMK AO2
14837KMSN MSN20060703090011207/03/06 09:00:31  5-MIN KMSN 031500Z 21007KT 180V240 10SM FEW055 26/19 A2999 800 68 2200 210/07 180V240 RMK AO2
14837KMSN MSN20060703090509607/03/06 09:05:31  5-MIN KMSN 031505Z 23008KT 10SM SCT055 25/19 A2999 800 68 2200 230/08 RMK AO2
14837KMSN MSN20060703091009607/03/06 09:10:31  5-MIN KMSN 031510Z 22007KT 10SM SCT055 26/19 A2999 800 66 2200 220/07 RMK AO2
14837KMSN MSN20060703091509607/03/06 09:15:31  5-MIN KMSN 031515Z 22006KT 10SM SCT055 26/18 A2999 800 64 2200 220/06 RMK AO2
14837KMSN MSN20060703092009607/03/06 09:20:31  5-MIN KMSN 031520Z 22006KT 10SM FEW055 26/18 A2998 800 64 2200 220/06 RMK AO2
14837KMSN MSN20060703092509607/03/06 09:25:31  5-MIN KMSN 031525Z 20007KT 10SM FEW055 26/18 A2998 800 64 2200 200/07 RMK AO2
14837KMSN MSN20060703093009607/03/06 09:30:31  5-MIN KMSN 031530Z 21007KT 10SM FEW055 26/19 A2999 800 64 2300 210/07 RMK AO2
14837KMSN MSN20060703093509307/03/06 09:35:31  5-MIN KMSN 031535Z 20007KT 10SM CLR 26/19 A2999 800 64 2300 200/07 RMK AO2
14837KMSN MSN20060703094010907/03/06 09:40:31  5-MIN KMSN 031540Z 20007KT 170V240 10SM CLR 26/19 A2999 800 64 2300 190/07 170V240 RMK AO2
14837KMSN MSN20060703094509307/03/06 09:45:31  5-MIN KMSN 031545Z VRB06KT 10SM CLR 26/18 A2999 800 62 2300 VRB/06 RMK AO2
14837KMSN MSN20060703095011007/03/06 09:50:31  5-MIN KMSN 031550Z 23006KT 10SM CLR 26/18 A2999 800 62 2300 230/06 RMK AO2 SLP151 T02610183
14837KMSN MSN20060703095509607/03/06 09:55:31  5-MIN KMSN 031555Z VRB05KT 10SM FEW035 27/19 A2999 800 62 2400 VRB/05 RMK AO2
14837KMSN MSN20060703100009607/03/06 10:00:31  5-MIN KMSN 031600Z VRB05KT 10SM FEW035 27/19 A2999 800 62 2400 VRB/05 RMK AO2
14837KMSN MSN20060703100509607/03/06 10:05:31  5-MIN KMSN 031605Z VRB04KT 10SM FEW035 27/19 A2999 800 62 2400 VRB/04 RMK AO2
14837KMSN MSN20060703101009607/03/06 10:10:31  5-MIN KMSN 031610Z VRB05KT 10SM FEW035 27/19 A2999 800 62 2400 VRB/05 RMK AO2
14837KMSN MSN20060703101509607/03/06 10:15:31  5-MIN KMSN 031615Z VRB06KT 10SM FEW035 27/19 A2999 800 62 2400 VRB/06 RMK AO2
14837KMSN MSN20060703102009607/03/06 10:20:31  5-MIN KMSN 031620Z 24009KT 10SM SCT035 27/19 A2999 800 62 2400 240/09 RMK AO2
14837KMSN MSN20060703102509607/03/06 10:25:31  5-MIN KMSN 031625Z 22007KT 10SM SCT035 27/19 A2999 800 62 2400 210/07 RMK AO2
14837KMSN MSN20060703103009607/03/06 10:30:31  5-MIN KMSN 031630Z 23008KT 10SM SCT035 27/19 A2999 800 62 2400 230/08 RMK AO2
14837KMSN MSN20060703103509607/03/06 10:35:31  5-MIN KMSN 031635Z VRB06KT 10SM SCT035 27/19 A2999 800 62 2400 VRB/06 RMK AO2
14837KMSN MSN20060703104009607/03/06 10:40:31  5-MIN KMSN 031640Z 22007KT 10SM BKN035 27/19 A2999 800 62 2400 220/07 RMK AO2
14837KMSN MSN20060703104509607/03/06 10:45:31  5-MIN KMSN 031645Z 22007KT 10SM BKN035 27/20 A2999 800 64 2400 220/07 RMK AO2
14837KMSN MSN20060703105011307/03/06 10:50:31  5-MIN KMSN 031650Z 21007KT 10SM BKN035 27/19 A2999 800 62 2400 210/07 RMK AO2 SLP148 T02720194
14837KMSN MSN20060703105509607/03/06 10:55:31  5-MIN KMSN 031655Z 23008KT 10SM BKN035 27/19 A2999 800 62 2400 230/08 RMK AO2
14837KMSN MSN20060703110009607/03/06 11:00:31  5-MIN KMSN 031700Z 24005KT 10SM BKN035 27/19 A2998 810 62 2400 240/05 RMK AO2
14837KMSN MSN20060703110509607/03/06 11:05:31  5-MIN KMSN 031705Z 24007KT 10SM BKN035 28/21 A2998 810 64 2500 240/07 RMK AO2
14837KMSN MSN20060703111009607/03/06 11:10:31  5-MIN KMSN 031710Z VRB06KT 10SM BKN035 27/20 A2998 810 64 2400 VRB/06 RMK AO2
14837KMSN MSN20060703111509607/03/06 11:15:31  5-MIN KMSN 031715Z 22006KT 10SM BKN035 27/20 A2998 810 66 2400 220/06 RMK AO2
14837KMSN MSN20060703112011007/03/06 11:20:31  5-MIN KMSN 031720Z 21007KT 10SM BKN033 BKN044 BKN075 27/19 A2998 810 64 2400 210/07 RMK AO2
14837KMSN MSN20060703112512607/03/06 11:25:31  5-MIN KMSN 031725Z 22008KT 170V240 10SM BKN033 BKN041 BKN070 27/20 A2998 810 64 2400 220/08 170V240 RMK AO2
14837KMSN MSN20060703113011007/03/06 11:30:31  5-MIN KMSN 031730Z 21010KT 10SM SCT033 SCT042 BKN049 27/20 A2998 810 64 2400 210/10 RMK AO2
14837KMSN MSN20060703113511007/03/06 11:35:31  5-MIN KMSN 031735Z 22007KT 10SM SCT033 SCT042 BKN049 27/19 A2998 810 64 2400 220/07 RMK AO2
14837KMSN MSN20060703114010307/03/06 11:40:31  5-MIN KMSN 031740Z VRB06KT 10SM FEW033 BKN047 27/19 A2997 820 62 2400 VRB/06 RMK AO2
14837KMSN MSN20060703114511007/03/06 11:45:31  5-MIN KMSN 031745Z 21006KT 10SM FEW031 SCT049 BKN075 27/20 A2997 820 64 2400 210/06 RMK AO2
14837KMSN MSN20060703115013807/03/06 11:50:31  5-MIN KMSN 031750Z 22006KT 10SM FEW036 BKN070 27/20 A2997 820 66 2400 220/06 RMK AO2 SLP144 T02670200 10278 20217 58008
14837KMSN MSN20060703115511007/03/06 11:55:31  5-MIN KMSN 031755Z VRB06KT 10SM FEW032 SCT046 BKN070 26/20 A2997 820 68 2300 VRB/06 RMK AO2
14837KMSN MSN20060703120011007/03/06 12:00:31  5-MIN KMSN 031800Z 21006KT 10SM FEW030 SCT041 BKN060 27/20 A2997 820 66 2400 210/06 RMK AO2
14837KMSN MSN20060703120510907/03/06 12:05:31  5-MIN KMSN 031805Z 22004KT 9SM SCT032 SCT043 BKN060 27/20 A2996 820 66 2400 220/04 RMK AO2
14837KMSN MSN20060703121012507/03/06 12:10:31  5-MIN KMSN 031810Z 21005KT 9SM -RA BKN030 BKN043 OVC070 26/20 A2996 820 68 2300 210/05 RMK AO2 RAB08 P0000
14837KMSN MSN20060703121512507/03/06 12:15:31  5-MIN KMSN 031815Z 24006KT 10SM BKN030 BKN043 OVC065 26/20 A2996 820 68 2300 230/06 RMK AO2 RAB08E12 P0000
14837KMSN MSN20060703122011707/03/06 12:20:31  5-MIN KMSN 031820Z 23007KT 9SM BKN030 OVC043 26/20 A2996 820 68 2300 230/07 RMK AO2 RAB08E12 P0000
14837KMSN MSN20060703122512407/03/06 12:25:31  5-MIN KMSN 031825Z VRB05KT 9SM SCT030 BKN043 BKN065 26/20 A2996 820 68 2300 VRB/05 RMK AO2 RAB08E12 P0000
14837KMSN MSN20060703123012507/03/06 12:30:31  5-MIN KMSN 031830Z 25005KT 10SM SCT030 BKN043 BKN070 27/20 A2996 830 66 2400 250/05 RMK AO2 RAB08E12 P0000
14837KMSN MSN20060703123512507/03/06 12:35:31  5-MIN KMSN 031835Z VRB03KT 10SM FEW030 BKN043 BKN070 27/20 A2996 830 66 2400 VRB/03 RMK AO2 RAB08E12 P0000
14837KMSN MSN20060703124012507/03/06 12:40:31  5-MIN KMSN 031840Z VRB05KT 10SM FEW030 SCT043 BKN070 27/21 A2996 830 66 2500 VRB/05 RMK AO2 RAB08E12 P0000
14837KMSN MSN20060703124511107/03/06 12:45:31  5-MIN KMSN 031845Z VRB06KT 10SM FEW043 27/20 A2996 830 66 2400 VRB/06 RMK AO2 RAB08E12 P0000
14837KMSN MSN20060703125012807/03/06 12:50:31  5-MIN KMSN 031850Z VRB06KT 10SM FEW043 27/20 A2996 830 64 2500 VRB/06 RMK AO2 RAB08E12 SLP140 P0000 T02720200
14837KMSN MSN20060703125510307/03/06 12:55:31  5-MIN KMSN 031855Z VRB03KT 10SM SCT043 BKN120 27/21 A2996 830 66 2500 VRB/03 RMK AO2
14837KMSN MSN20060703130010307/03/06 13:00:31  5-MIN KMSN 031900Z VRB06KT 10SM SCT043 BKN120 27/20 A2995 840 66 2400 VRB/06 RMK AO2
14837KMSN MSN20060703130510307/03/06 13:05:31  5-MIN KMSN 031905Z VRB05KT 10SM SCT043 BKN120 27/21 A2995 840 66 2500 VRB/05 RMK AO2
14837KMSN MSN20060703131010307/03/06 13:10:31  5-MIN KMSN 031910Z VRB04KT 10SM SCT043 BKN120 27/21 A2995 840 66 2500 VRB/04 RMK AO2
14837KMSN MSN20060703131510307/03/06 13:15:31  5-MIN KMSN 031915Z VRB05KT 10SM SCT043 BKN120 28/21 A2994 840 64 2500 VRB/05 RMK AO2
14837KMSN MSN20060703132009607/03/06 13:20:31  5-MIN KMSN 031920Z VRB05KT 10SM FEW065 27/20 A2994 840 64 2500 VRB/05 RMK AO2
14837KMSN MSN20060703132509607/03/06 13:25:31  5-MIN KMSN 031925Z 23004KT 10SM FEW065 27/20 A2994 850 64 2500 230/04 RMK AO2
14837KMSN MSN20060703133009607/03/06 13:30:31  5-MIN KMSN 031930Z VRB04KT 10SM FEW065 28/21 A2994 840 64 2500 VRB/04 RMK AO2
14837KMSN MSN20060703133509607/03/06 13:35:31  5-MIN KMSN 031935Z VRB06KT 10SM FEW060 28/21 A2994 850 64 2500 VRB/06 RMK AO2
14837KMSN MSN20060703134009307/03/06 13:40:31  5-MIN KMSN 031940Z 23005KT 10SM CLR 28/21 A2993 850 64 2600 230/05 RMK AO2
14837KMSN MSN20060703134509307/03/06 13:45:31  5-MIN KMSN 031945Z 23004KT 10SM CLR 27/20 A2993 850 64 2500 230/04 RMK AO2
14837KMSN MSN20060703135011007/03/06 13:50:31  5-MIN KMSN 031950Z 26006KT 10SM CLR 28/20 A2994 850 62 2500 260/06 RMK AO2 SLP133 T02780200
14837KMSN MSN20060703135510307/03/06 13:55:31  5-MIN KMSN 031955Z VRB06KT 10SM SCT035 BKN120 27/20 A2994 850 64 2500 VRB/06 RMK AO2
14837KMSN MSN20060703140010307/03/06 14:00:31  5-MIN KMSN 032000Z 23006KT 10SM SCT035 BKN120 28/20 A2994 850 62 2500 230/06 RMK AO2
14837KMSN MSN20060703140510307/03/06 14:05:31  5-MIN KMSN 032005Z 22009KT 10SM SCT035 BKN120 28/21 A2994 850 64 2500 220/09 RMK AO2
14837KMSN MSN20060703141010307/03/06 14:10:31  5-MIN KMSN 032010Z 23008KT 10SM SCT035 BKN120 28/21 A2994 850 64 2500 230/08 RMK AO2
14837KMSN MSN20060703141511807/03/06 14:15:31  5-MIN KMSN 032015Z 21007KT 160V250 9SM SCT035 BKN120 28/21 A2994 850 64 2500 210/07 160V250 RMK AO2
14837KMSN MSN20060703142010207/03/06 14:20:31  5-MIN KMSN 032020Z VRB06KT 9SM SCT035 BKN120 28/21 A2994 840 64 2500 VRB/06 RMK AO2
14837KMSN MSN20060703142510207/03/06 14:25:31  5-MIN KMSN 032025Z VRB05KT 9SM SCT035 BKN120 28/21 A2994 850 64 2500 VRB/05 RMK AO2
14837KMSN MSN20060703143010207/03/06 14:30:31  5-MIN KMSN 032030Z 21006KT 9SM SCT035 BKN120 28/21 A2994 850 64 2500 210/06 RMK AO2
14837KMSN MSN20060703143510207/03/06 14:35:31  5-MIN KMSN 032035Z VRB05KT 9SM FEW035 BKN065 28/21 A2994 840 64 2500 VRB/05 RMK AO2
14837KMSN MSN20060703144010207/03/06 14:40:31  5-MIN KMSN 032040Z 23007KT 9SM FEW035 BKN065 28/21 A2994 840 64 2500 230/07 RMK AO2
14837KMSN MSN20060703144510207/03/06 14:45:31  5-MIN KMSN 032045Z 23006KT 9SM FEW035 BKN065 28/21 A2994 840 64 2500 230/06 RMK AO2
14837KMSN MSN20060703145013107/03/06 14:50:31  5-MIN KMSN 032050Z 22007KT 9SM FEW035 BKN065 28/21 A2994 840 64 2500 220/07 RMK AO2 SLP134 60000 T02780206 58007
14837KMSN MSN20060703145510207/03/06 14:55:31  5-MIN KMSN 032055Z 22007KT 9SM FEW035 SCT065 28/21 A2994 840 64 2500 220/07 RMK AO2
14837KMSN MSN20060703150010207/03/06 15:00:31  5-MIN KMSN 032100Z 21006KT 9SM FEW035 SCT070 28/21 A2994 840 64 2500 210/06 RMK AO2
14837KMSN MSN20060703150510207/03/06 15:05:31  5-MIN KMSN 032105Z 21006KT 9SM FEW035 SCT070 28/21 A2994 840 64 2500 210/06 RMK AO2
14837KMSN MSN20060703151009507/03/06 15:10:31  5-MIN KMSN 032110Z VRB06KT 9SM FEW037 28/21 A2994 840 64 2500 VRB/06 RMK AO2
14837KMSN MSN20060703151511107/03/06 15:15:31  5-MIN KMSN 032115Z 22007KT 180V270 9SM FEW037 28/21 A2994 840 64 2500 220/07 180V270 RMK AO2
14837KMSN MSN20060703152010207/03/06 15:20:31  5-MIN KMSN 032120Z VRB06KT 9SM FEW032 SCT060 28/21 A2994 840 66 2500 VRB/06 RMK AO2
14837KMSN MSN20060703152510207/03/06 15:25:31  5-MIN KMSN 032125Z 23008KT 9SM FEW039 SCT060 28/21 A2994 840 64 2500 230/08 RMK AO2
14837KMSN MSN20060703153010207/03/06 15:30:31  5-MIN KMSN 032130Z 23006KT 9SM FEW039 SCT075 27/21 A2994 840 66 2500 230/06 RMK AO2
14837KMSN MSN20060703153509507/03/06 15:35:31  5-MIN KMSN 032135Z VRB06KT 9SM FEW060 27/21 A2994 840 66 2500 VRB/06 RMK AO2
14837KMSN MSN20060703154009507/03/06 15:40:31  5-MIN KMSN 032140Z 25006KT 9SM FEW060 27/21 A2994 850 66 2500 250/06 RMK AO2
14837KMSN MSN20060703154509507/03/06 15:45:31  5-MIN KMSN 032145Z 23006KT 8SM FEW060 27/21 A2994 850 69 2500 230/06 RMK AO2
14837KMSN MSN20060703155011207/03/06 15:50:31  5-MIN KMSN 032150Z 23006KT 8SM FEW055 27/21 A2994 850 66 2500 230/06 RMK AO2 SLP132 T02720206
14837KMSN MSN20060703155509507/03/06 15:55:31  5-MIN KMSN 032155Z 23008KT 8SM FEW055 27/21 A2994 850 66 2500 230/08 RMK AO2
14837KMSN MSN20060703160009507/03/06 16:00:31  5-MIN KMSN 032200Z VRB06KT 8SM FEW055 27/21 A2993 850 66 2500 VRB/06 RMK AO2
14837KMSN MSN20060703160511107/03/06 16:05:31  5-MIN KMSN 032205Z 23007KT 8SM -RA FEW055 27/21 A2993 850 66 2500 230/07 RMK AO2 RAB04 P0000
14837KMSN MSN20060703161011107/03/06 16:10:31  5-MIN KMSN 032210Z 24006KT 8SM -RA FEW055 27/21 A2993 860 66 2500 240/06 RMK AO2 RAB04 P0000
14837KMSN MSN20060703161511107/03/06 16:15:31  5-MIN KMSN 032215Z VRB03KT 8SM -RA FEW055 27/21 A2993 850 69 2500 VRB/03 RMK AO2 RAB04 P0000
14837KMSN MSN20060703162011007/03/06 16:20:31  5-MIN KMSN 032220Z 23004KT 9SM FEW055 27/21 A2993 850 69 2500 230/04 RMK AO2 RAB04E18 P0000
14837KMSN MSN20060703162511007/03/06 16:25:31  5-MIN KMSN 032225Z VRB04KT 9SM FEW055 27/21 A2993 860 69 2500 VRB/04 RMK AO2 RAB04E18 P0000
14837KMSN MSN20060703163011007/03/06 16:30:31  5-MIN KMSN 032230Z VRB05KT 9SM FEW055 28/21 A2992 860 64 2600 VRB/05 RMK AO2 RAB04E18 P0000
14837KMSN MSN20060703163511007/03/06 16:35:31  5-MIN KMSN 032235Z VRB03KT 9SM FEW055 28/21 A2992 860 66 2600 VRB/03 RMK AO2 RAB04E18 P0000
14837KMSN MSN20060703164011007/03/06 16:40:31  5-MIN KMSN 032240Z 23006KT 8SM FEW055 28/21 A2992 860 64 2600 230/06 RMK AO2 RAB04E18 P0000
14837KMSN MSN20060703164511007/03/06 16:45:31  5-MIN KMSN 032245Z 25005KT 8SM FEW055 28/21 A2992 870 64 2600 250/05 RMK AO2 RAB04E18 P0000
14837KMSN MSN20060703165012707/03/06 16:50:31  5-MIN KMSN 032250Z VRB03KT 8SM FEW055 28/21 A2992 870 66 2600 VRB/03 RMK AO2 RAB04E18 SLP126 P0000 T02780211
14837KMSN MSN20060703165509507/03/06 16:55:31  5-MIN KMSN 032255Z 24006KT 8SM FEW055 27/21 A2992 870 66 2500 240/06 RMK AO2
14837KMSN MSN20060703170009507/03/06 17:00:31  5-MIN KMSN 032300Z 22005KT 8SM FEW055 27/21 A2991 870 69 2500 220/05 RMK AO2
14837KMSN MSN20060703170509507/03/06 17:05:31  5-MIN KMSN 032305Z 24005KT 8SM FEW055 27/21 A2991 870 69 2500 240/05 RMK AO2
14837KMSN MSN20060703171009507/03/06 17:10:31  5-MIN KMSN 032310Z 23005KT 8SM FEW055 28/21 A2991 870 66 2600 230/05 RMK AO2
14837KMSN MSN20060703171509507/03/06 17:15:31  5-MIN KMSN 032315Z 25006KT 8SM FEW055 28/21 A2991 880 66 2600 250/06 RMK AO2
14837KMSN MSN20060703172009507/03/06 17:20:31  5-MIN KMSN 032320Z VRB05KT 8SM FEW055 28/21 A2991 880 66 2600 VRB/05 RMK AO2
14837KMSN MSN20060703172509507/03/06 17:25:31  5-MIN KMSN 032325Z 24007KT 8SM FEW055 27/21 A2991 880 69 2500 240/07 RMK AO2
14837KMSN MSN20060703173009507/03/06 17:30:31  5-MIN KMSN 032330Z VRB05KT 8SM FEW055 27/21 A2990 880 69 2500 VRB/05 RMK AO2
14837KMSN MSN20060703173509507/03/06 17:35:31  5-MIN KMSN 032335Z VRB04KT 7SM FEW055 27/21 A2990 880 69 2500 VRB/04 RMK AO2
14837KMSN MSN20060703174009507/03/06 17:40:31  5-MIN KMSN 032340Z 24004KT 7SM FEW055 27/21 A2990 880 69 2500 240/04 RMK AO2
14837KMSN MSN20060703174509507/03/06 17:45:31  5-MIN KMSN 032345Z 24004KT 7SM FEW055 27/21 A2990 880 69 2500 240/04 RMK AO2
14837KMSN MSN20060703175013607/03/06 17:50:31  5-MIN KMSN 032350Z 24005KT 7SM FEW034 27/21 A2991 880 69 2500 240/05 RMK AO2 SLP122 60000 T02720211 10278 20261 55009
14837KMSN MSN20060703175509507/03/06 17:55:31  5-MIN KMSN 032355Z 22004KT 7SM SCT034 27/21 A2991 880 69 2500 220/04 RMK AO2
14837KMSN MSN20060703180009507/03/06 18:00:31  5-MIN KMSN 040000Z 24004KT 7SM FEW034 27/21 A2991 870 71 2500 230/04 RMK AO2
14837KMSN MSN20060703180509507/03/06 18:05:31  5-MIN KMSN 040005Z VRB05KT 7SM FEW034 27/21 A2991 870 71 2500 VRB/05 RMK AO2
14837KMSN MSN20060703181009507/03/06 18:10:31  5-MIN KMSN 040010Z 22004KT 7SM FEW034 27/21 A2992 870 71 2400 220/04 RMK AO2
14837KMSN MSN20060703181509507/03/06 18:15:31  5-MIN KMSN 040015Z VRB03KT 7SM FEW045 27/21 A2991 870 71 2500 VRB/03 RMK AO2
14837KMSN MSN20060703182009207/03/06 18:20:31  5-MIN KMSN 040020Z 24004KT 7SM CLR 27/21 A2992 870 71 2400 240/04 RMK AO2
14837KMSN MSN20060703182509507/03/06 18:25:31  5-MIN KMSN 040025Z 22005KT 7SM FEW035 27/21 A2991 870 71 2500 220/05 RMK AO2
14837KMSN MSN20060703183009507/03/06 18:30:31  5-MIN KMSN 040030Z VRB05KT 7SM FEW035 27/21 A2991 870 71 2500 VRB/05 RMK AO2
14837KMSN MSN20060703183510207/03/06 18:35:31  5-MIN KMSN 040035Z 23004KT 7SM FEW035 SCT055 27/21 A2991 870 71 2500 230/04 RMK AO2
14837KMSN MSN20060703184010207/03/06 18:40:31  5-MIN KMSN 040040Z VRB04KT 7SM FEW035 SCT055 27/22 A2991 870 73 2500 VRB/04 RMK AO2
14837KMSN MSN20060703184509507/03/06 18:45:31  5-MIN KMSN 040045Z 23005KT 7SM FEW035 27/22 A2992 870 73 2400 230/05 RMK AO2
14837KMSN MSN20060703185011207/03/06 18:50:31  5-MIN KMSN 040050Z VRB04KT 7SM FEW035 27/22 A2992 870 73 2400 VRB/04 RMK AO2 SLP126 T02670217
14837KMSN MSN20060703185509207/03/06 18:55:31  5-MIN KMSN 040055Z 23006KT 7SM CLR 27/22 A2992 870 73 2400 220/06 RMK AO2
14837KMSN MSN20060703190009507/03/06 19:00:31  5-MIN KMSN 040100Z 23005KT 7SM FEW035 27/22 A2992 860 73 2400 230/05 RMK AO2
14837KMSN MSN20060703190509507/03/06 19:05:31  5-MIN KMSN 040105Z 23006KT 7SM FEW035 27/22 A2992 860 73 2400 230/06 RMK AO2
14837KMSN MSN20060703191009507/03/06 19:10:31  5-MIN KMSN 040110Z VRB04KT 7SM FEW035 27/22 A2992 870 73 2400 VRB/04 RMK AO2
14837KMSN MSN20060703191509507/03/06 19:15:31  5-MIN KMSN 040115Z VRB05KT 7SM FEW035 26/22 A2992 870 76 2400 VRB/05 RMK AO2
14837KMSN MSN20060703192009807/03/06 19:20:31  5-MIN KMSN 040120Z 24004KT 6SM HZ FEW050 26/22 A2992 870 76 2400 240/04 RMK AO2
14837KMSN MSN20060703192509807/03/06 19:25:31  5-MIN KMSN 040125Z VRB03KT 6SM HZ FEW050 26/22 A2992 870 76 2400 VRB/03 RMK AO2
14837KMSN MSN20060703193009807/03/06 19:30:31  5-MIN KMSN 040130Z VRB03KT 6SM HZ FEW032 26/22 A2992 870 76 2400 VRB/03 RMK AO2
14837KMSN MSN20060703193509807/03/06 19:35:31  5-MIN KMSN 040135Z VRB04KT 6SM HZ FEW032 26/22 A2991 870 76 2400 VRB/04 RMK AO2
14837KMSN MSN20060703194009807/03/06 19:40:31  5-MIN KMSN 040140Z 00000KT 6SM HZ FEW032 26/22 A2992 870 76 2400 000/00 RMK AO2
14837KMSN MSN20060703194509807/03/06 19:45:31  5-MIN KMSN 040145Z 00000KT 6SM HZ FEW032 26/22 A2992 870 76 2400 000/00 RMK AO2
14837KMSN MSN20060703195012207/03/06 19:50:31  5-MIN KMSN 040150Z 00000KT 6SM HZ SCT027 SCT034 26/22 A2992 870 76 2400 000/00 RMK AO2 SLP125 T02610217
14837KMSN MSN20060703195510507/03/06 19:55:31  5-MIN KMSN 040155Z 00000KT 6SM HZ FEW027 SCT034 26/22 A2992 870 79 2300 000/00 RMK AO2
14837KMSN MSN20060703200010207/03/06 20:00:31  5-MIN KMSN 040200Z VRB03KT 7SM FEW027 SCT034 26/22 A2992 870 79 2300 VRB/03 RMK AO2
14837KMSN MSN20060703200510207/03/06 20:05:31  5-MIN KMSN 040205Z 27003KT 7SM SCT027 BKN034 26/22 A2992 870 79 2300 270/03 RMK AO2
14837KMSN MSN20060703201010207/03/06 20:10:31  5-MIN KMSN 040210Z 00000KT 7SM SCT027 BKN032 26/22 A2992 870 79 2300 000/00 RMK AO2
14837KMSN MSN20060703201510207/03/06 20:15:31  5-MIN KMSN 040215Z VRB03KT 7SM SCT027 BKN032 26/22 A2992 860 79 2300 VRB/03 RMK AO2
14837KMSN MSN20060703202010207/03/06 20:20:31  5-MIN KMSN 040220Z VRB03KT 7SM SCT027 SCT034 26/22 A2992 860 79 2300 VRB/03 RMK AO2
14837KMSN MSN20060703202510207/03/06 20:25:31  5-MIN KMSN 040225Z 30004KT 7SM SCT027 SCT034 25/22 A2992 860 81 2300 300/04 RMK AO2
14837KMSN MSN20060703203010207/03/06 20:30:31  5-MIN KMSN 040230Z 29003KT 7SM SCT027 SCT032 25/22 A2993 860 81 2200 290/03 RMK AO2
14837KMSN MSN20060703203510507/03/06 20:35:31  5-MIN KMSN 040235Z 30003KT 6SM HZ FEW027 SCT032 25/22 A2993 860 81 2200 300/03 RMK AO2
14837KMSN MSN20060703204009807/03/06 20:40:31  5-MIN KMSN 040240Z 30003KT 6SM HZ FEW027 25/22 A2993 860 81 2200 300/03 RMK AO2
14837KMSN MSN20060703204509507/03/06 20:45:31  5-MIN KMSN 040245Z 00000KT 6SM HZ CLR 25/22 A2993 860 81 2200 000/00 RMK AO2
14837KMSN MSN20060703205012107/03/06 20:50:31  5-MIN KMSN 040250Z 00000KT 6SM HZ FEW040 25/22 A2993 860 81 2200 000/00 RMK AO2 SLP128 T02500217 58012
14837KMSN MSN20060703205509507/03/06 20:55:31  5-MIN KMSN 040255Z 00000KT 6SM HZ CLR 24/22 A2993 860 84 2200 000/00 RMK AO2
14837KMSN MSN20060703210009507/03/06 21:00:31  5-MIN KMSN 040300Z 30003KT 6SM BR CLR 24/22 A2993 860 87 2100 300/03 RMK AO2
14837KMSN MSN20060703210509507/03/06 21:05:31  5-MIN KMSN 040305Z 00000KT 6SM BR CLR 24/22 A2993 850 87 2100 000/00 RMK AO2
14837KMSN MSN20060703211009507/03/06 21:10:31  5-MIN KMSN 040310Z 00000KT 6SM BR CLR 24/22 A2993 850 87 2100 000/00 RMK AO2
14837KMSN MSN20060703211509507/03/06 21:15:31  5-MIN KMSN 040315Z 00000KT 6SM BR CLR 24/22 A2993 850 87 2100 000/00 RMK AO2
14837KMSN MSN20060703212009507/03/06 21:20:31  5-MIN KMSN 040320Z 00000KT 5SM BR CLR 24/22 A2994 850 87 2100 000/00 RMK AO2
14837KMSN MSN20060703212509507/03/06 21:25:31  5-MIN KMSN 040325Z 00000KT 5SM BR CLR 24/22 A2994 850 87 2100 000/00 RMK AO2
14837KMSN MSN20060703213009507/03/06 21:30:31  5-MIN KMSN 040330Z 27003KT 5SM BR CLR 24/22 A2994 850 87 2100 270/03 RMK AO2
14837KMSN MSN20060703213509507/03/06 21:35:31  5-MIN KMSN 040335Z VRB03KT 5SM BR CLR 24/22 A2994 850 87 2100 VRB/03 RMK AO2
14837KMSN MSN20060703214009507/03/06 21:40:31  5-MIN KMSN 040340Z 00000KT 5SM HZ CLR 24/21 A2994 850 84 2100 000/00 RMK AO2
14837KMSN MSN20060703214509507/03/06 21:45:31  5-MIN KMSN 040345Z VRB03KT 5SM HZ CLR 24/21 A2994 850 84 2100 VRB/03 RMK AO2
14837KMSN MSN20060703215011207/03/06 21:50:31  5-MIN KMSN 040350Z 30003KT 6SM HZ CLR 24/21 A2994 850 84 2100 300/03 RMK AO2 SLP131 T02390211
14837KMSN MSN20060703215509507/03/06 21:55:31  5-MIN KMSN 040355Z 29003KT 6SM HZ CLR 24/21 A2994 850 84 2100 290/03 RMK AO2
14837KMSN MSN20060703220009507/03/06 22:00:31  5-MIN KMSN 040400Z 00000KT 6SM HZ CLR 24/21 A2994 850 84 2100 000/00 RMK AO2
14837KMSN MSN20060703220509507/03/06 22:05:31  5-MIN KMSN 040405Z 00000KT 6SM HZ CLR 24/21 A2994 850 84 2100 000/00 RMK AO2
14837KMSN MSN20060703221009507/03/06 22:10:31  5-MIN KMSN 040410Z 00000KT 6SM BR CLR 23/21 A2994 850 87 2000 000/00 RMK AO2
14837KMSN MSN20060703221509507/03/06 22:15:31  5-MIN KMSN 040415Z 00000KT 6SM BR CLR 23/21 A2994 850 87 2000 000/00 RMK AO2
14837KMSN MSN20060703222009507/03/06 22:20:31  5-MIN KMSN 040420Z VRB03KT 6SM BR CLR 23/21 A2994 850 87 2000 VRB/03 RMK AO2
14837KMSN MSN20060703222509507/03/06 22:25:31  5-MIN KMSN 040425Z 30003KT 6SM BR CLR 23/21 A2994 850 87 2000 300/03 RMK AO2
14837KMSN MSN20060703223009507/03/06 22:30:31  5-MIN KMSN 040430Z 29003KT 6SM HZ CLR 23/21 A2994 850 84 2000 290/03 RMK AO2
14837KMSN MSN20060703223509507/03/06 22:35:31  5-MIN KMSN 040435Z 00000KT 6SM HZ CLR 23/21 A2994 850 84 2000 000/00 RMK AO2
14837KMSN MSN20060703224009507/03/06 22:40:31  5-MIN KMSN 040440Z 00000KT 6SM HZ CLR 23/21 A2994 840 84 2000 000/00 RMK AO2
14837KMSN MSN20060703224509507/03/06 22:45:31  5-MIN KMSN 040445Z 25003KT 6SM HZ CLR 23/21 A2994 850 84 2000 250/03 RMK AO2
14837KMSN MSN20060703225011207/03/06 22:50:31  5-MIN KMSN 040450Z 00000KT 6SM HZ CLR 23/21 A2994 850 84 2000 000/00 RMK AO2 SLP132 T02330206
14837KMSN MSN20060703225509507/03/06 22:55:31  5-MIN KMSN 040455Z 28003KT 6SM BR CLR 23/21 A2994 850 87 2000 280/03 RMK AO2
14837KMSN MSN20060703230009507/03/06 23:00:31  5-MIN KMSN 040500Z 00000KT 6SM BR CLR 23/21 A2994 850 87 2000 000/00 RMK AO2
14837KMSN MSN20060703230509507/03/06 23:05:31  5-MIN KMSN 040505Z 29003KT 6SM BR CLR 23/21 A2994 850 87 2000 290/03 RMK AO2
14837KMSN MSN20060703231009507/03/06 23:10:31  5-MIN KMSN 040510Z 30003KT 6SM BR CLR 23/21 A2994 850 87 2000 300/03 RMK AO2
14837KMSN MSN20060703231509507/03/06 23:15:31  5-MIN KMSN 040515Z 00000KT 6SM BR CLR 23/21 A2994 850 87 2000 000/00 RMK AO2
14837KMSN MSN20060703232009507/03/06 23:20:31  5-MIN KMSN 040520Z 30004KT 6SM BR CLR 23/21 A2994 850 87 2000 300/04 RMK AO2
14837KMSN MSN20060703232509507/03/06 23:25:31  5-MIN KMSN 040525Z 29003KT 6SM BR CLR 23/21 A2994 850 87 2000 290/03 RMK AO2
14837KMSN MSN20060703233009507/03/06 23:30:31  5-MIN KMSN 040530Z 30003KT 6SM BR CLR 23/21 A2993 850 87 2000 300/03 RMK AO2
14837KMSN MSN20060703233509507/03/06 23:35:31  5-MIN KMSN 040535Z 30003KT 6SM BR CLR 23/21 A2994 850 87 2000 300/03 RMK AO2
14837KMSN MSN20060703234009507/03/06 23:40:31  5-MIN KMSN 040540Z 00000KT 6SM BR CLR 22/21 A2994 850 90 1900 000/00 RMK AO2
14837KMSN MSN20060703234509507/03/06 23:45:31  5-MIN KMSN 040545Z 33003KT 6SM BR CLR 22/21 A2994 850 90 1900 330/03 RMK AO2
14837KMSN MSN20060703235014007/03/06 23:50:31  5-MIN KMSN 040550Z 00000KT 6SM BR CLR 22/21 A2994 850 90 1900 000/00 RMK AO2 SLP133 T02220206 10272 20222 402780172 53007
14837KMSN MSN20060703235509507/03/06 23:55:31  5-MIN KMSN 040555Z 30003KT 6SM BR CLR 22/21 A2994 850 90 1900 300/03 RMK AO2
14837KMSN MSN20060704000009507/04/06 00:00:38  5-MIN KMSN 040600Z 32004KT 6SM BR CLR 23/21 A2994 850 87 2000 320/04 RMK AO2
14837KMSN MSN20060704000509507/04/06 00:05:31  5-MIN KMSN 040605Z 31004KT 6SM BR CLR 23/21 A2994 850 87 2000 300/04 RMK AO2
14837KMSN MSN20060704001009507/04/06 00:10:31  5-MIN KMSN 040610Z 31003KT 6SM BR CLR 22/21 A2994 850 90 1900 310/03 RMK AO2
14837KMSN MSN20060704001509507/04/06 00:15:32  5-MIN KMSN 040615Z 31004KT 6SM BR CLR 23/21 A2994 850 87 2000 300/04 RMK AO2
14837KMSN MSN20060704002009507/04/06 00:20:31  5-MIN KMSN 040620Z 30004KT 6SM BR CLR 22/21 A2994 840 90 1900 300/04 RMK AO2
14837KMSN MSN20060704002509507/04/06 00:25:31  5-MIN KMSN 040625Z 30005KT 6SM BR CLR 23/21 A2994 840 87 2000 300/05 RMK AO2
14837KMSN MSN20060704003009507/04/06 00:30:31  5-MIN KMSN 040630Z 31005KT 6SM BR CLR 23/21 A2994 850 87 2000 310/05 RMK AO2
14837KMSN MSN20060704003509507/04/06 00:35:31  5-MIN KMSN 040635Z 32005KT 6SM BR CLR 23/21 A2994 850 87 2000 320/05 RMK AO2
14837KMSN MSN20060704004009507/04/06 00:40:31  5-MIN KMSN 040640Z 31005KT 6SM BR CLR 23/21 A2994 850 87 2000 310/05 RMK AO2
14837KMSN MSN20060704004509807/04/06 00:45:31  5-MIN KMSN 040645Z 31005KT 6SM BR FEW060 23/21 A2994 840 87 2000 310/05 RMK AO2
14837KMSN MSN20060704005011207/04/06 00:50:31  5-MIN KMSN 040650Z 32005KT 7SM FEW060 22/21 A2994 840 90 1900 320/05 RMK AO2 SLP133 T02220206
14837KMSN MSN20060704005509507/04/06 00:55:31  5-MIN KMSN 040655Z 33006KT 7SM FEW100 22/20 A2994 850 87 1900 330/06 RMK AO2
14837KMSN MSN20060704010009507/04/06 01:00:31  5-MIN KMSN 040700Z 32006KT 7SM FEW100 22/20 A2994 850 87 1900 320/06 RMK AO2
14837KMSN MSN20060704010509207/04/06 01:05:31  5-MIN KMSN 040705Z 32005KT 7SM CLR 22/20 A2994 840 87 1900 320/05 RMK AO2
14837KMSN MSN20060704011009207/04/06 01:10:31  5-MIN KMSN 040710Z 32005KT 8SM CLR 22/19 A2994 850 84 1900 320/05 RMK AO2
14837KMSN MSN20060704011509207/04/06 01:15:31  5-MIN KMSN 040715Z 32004KT 8SM CLR 22/19 A2994 850 84 1900 310/04 RMK AO2
14837KMSN MSN20060704012009207/04/06 01:20:31  5-MIN KMSN 040720Z 31004KT 8SM CLR 22/19 A2994 850 84 1900 310/04 RMK AO2
14837KMSN MSN20060704012509207/04/06 01:25:31  5-MIN KMSN 040725Z 31004KT 8SM CLR 22/19 A2994 840 87 1900 310/04 RMK AO2
14837KMSN MSN20060704013009207/04/06 01:30:31  5-MIN KMSN 040730Z 32006KT 8SM CLR 22/19 A2994 840 81 1900 320/06 RMK AO2
14837KMSN MSN20060704013509207/04/06 01:35:31  5-MIN KMSN 040735Z 32005KT 9SM CLR 22/19 A2994 840 84 1900 320/05 RMK AO2
14837KMSN MSN20060704014009207/04/06 01:40:31  5-MIN KMSN 040740Z 32005KT 9SM CLR 22/18 A2995 840 81 1800 320/05 RMK AO2
14837KMSN MSN20060704014509207/04/06 01:45:31  5-MIN KMSN 040745Z 31005KT 9SM CLR 22/18 A2995 840 81 1800 310/05 RMK AO2
14837KMSN MSN20060704015011007/04/06 01:50:31  5-MIN KMSN 040750Z 32006KT 10SM CLR 22/18 A2995 840 81 1800 320/06 RMK AO2 SLP135 T02170183
14837KMSN MSN20060704015509307/04/06 01:55:31  5-MIN KMSN 040755Z 33005KT 10SM CLR 22/18 A2995 840 78 1800 330/05 RMK AO2
14837KMSN MSN20060704020009307/04/06 02:00:31  5-MIN KMSN 040800Z 32005KT 10SM CLR 21/18 A2995 840 81 1800 320/05 RMK AO2
14837KMSN MSN20060704020509307/04/06 02:05:31  5-MIN KMSN 040805Z 32006KT 10SM CLR 21/18 A2995 840 81 1800 310/06 RMK AO2
14837KMSN MSN20060704021009307/04/06 02:10:31  5-MIN KMSN 040810Z 32005KT 10SM CLR 21/17 A2995 840 78 1800 320/05 RMK AO2
14837KMSN MSN20060704021509307/04/06 02:15:31  5-MIN KMSN 040815Z VRB04KT 10SM CLR 21/17 A2995 830 78 1800 VRB/04 RMK AO2
14837KMSN MSN20060704022009307/04/06 02:20:31  5-MIN KMSN 040820Z 32005KT 10SM CLR 21/17 A2996 830 78 1800 320/05 RMK AO2
14837KMSN MSN20060704022509307/04/06 02:25:31  5-MIN KMSN 040825Z 32006KT 10SM CLR 21/17 A2996 830 78 1700 310/06 RMK AO2
14837KMSN MSN20060704023009307/04/06 02:30:31  5-MIN KMSN 040830Z 32006KT 10SM CLR 21/17 A2996 830 75 1800 320/06 RMK AO2
14837KMSN MSN20060704023509307/04/06 02:35:31  5-MIN KMSN 040835Z 32006KT 10SM CLR 21/17 A2996 830 78 1700 320/06 RMK AO2
14837KMSN MSN20060704024009607/04/06 02:40:31  5-MIN KMSN 040840Z 32006KT 10SM FEW065 21/17 A2996 830 78 1700 310/06 RMK AO2
14837KMSN MSN20060704024509607/04/06 02:45:31  5-MIN KMSN 040845Z 32007KT 10SM SCT065 21/17 A2996 820 78 1700 320/07 RMK AO2
14837KMSN MSN20060704025011907/04/06 02:50:31  5-MIN KMSN 040850Z 33006KT 10SM SCT065 21/17 A2996 820 78 1700 320/06 RMK AO2 SLP141 T02060167 51004
14837KMSN MSN20060704025509607/04/06 02:55:31  5-MIN KMSN 040855Z 33006KT 10SM FEW065 21/17 A2997 820 78 1700 320/06 RMK AO2
14837KMSN MSN20060704030009607/04/06 03:00:31  5-MIN KMSN 040900Z 33006KT 10SM FEW065 20/17 A2997 820 81 1600 330/06 RMK AO2
14837KMSN MSN20060704030509607/04/06 03:05:31  5-MIN KMSN 040905Z 33006KT 10SM FEW065 20/17 A2996 820 81 1600 330/06 RMK AO2
14837KMSN MSN20060704031009607/04/06 03:10:31  5-MIN KMSN 040910Z 33006KT 10SM FEW065 20/17 A2997 820 81 1600 330/06 RMK AO2
14837KMSN MSN20060704031509307/04/06 03:15:31  5-MIN KMSN 040915Z 34006KT 10SM CLR 20/17 A2997 820 81 1600 340/06 RMK AO2
14837KMSN MSN20060704032009307/04/06 03:20:31  5-MIN KMSN 040920Z 34006KT 10SM CLR 19/16 A2997 820 81 1600 340/06 RMK AO2
14837KMSN MSN20060704032509307/04/06 03:25:31  5-MIN KMSN 040925Z 34006KT 10SM CLR 19/16 A2997 820 81 1600 340/06 RMK AO2
14837KMSN MSN20060704033009307/04/06 03:30:31  5-MIN KMSN 040930Z 34006KT 10SM CLR 19/16 A2997 810 81 1600 340/06 RMK AO2
14837KMSN MSN20060704033509307/04/06 03:35:31  5-MIN KMSN 040935Z 34007KT 10SM CLR 19/16 A2998 810 84 1500 340/07 RMK AO2
14837KMSN MSN20060704034009307/04/06 03:40:31  5-MIN KMSN 040940Z 35007KT 10SM CLR 19/16 A2998 810 84 1500 340/07 RMK AO2
14837KMSN MSN20060704034509307/04/06 03:45:31  5-MIN KMSN 040945Z 34007KT 10SM CLR 19/16 A2998 810 84 1500 340/07 RMK AO2
14837KMSN MSN20060704035011007/04/06 03:50:31  5-MIN KMSN 040950Z 34005KT 10SM CLR 19/16 A2998 810 84 1500 340/05 RMK AO2 SLP148 T01890161
14837KMSN MSN20060704035509307/04/06 03:55:31  5-MIN KMSN 040955Z 34006KT 10SM CLR 18/16 A2998 810 87 1400 340/06 RMK AO2
14837KMSN MSN20060704040009307/04/06 04:00:31  5-MIN KMSN 041000Z 34006KT 10SM CLR 18/16 A2999 800 87 1400 340/06 RMK AO2
14837KMSN MSN20060704040509307/04/06 04:05:31  5-MIN KMSN 041005Z 35006KT 10SM CLR 18/16 A2999 800 87 1400 340/06 RMK AO2
14837KMSN MSN20060704041009307/04/06 04:10:31  5-MIN KMSN 041010Z 34005KT 10SM CLR 18/16 A2999 800 84 1400 340/05 RMK AO2
14837KMSN MSN20060704041509307/04/06 04:15:31  5-MIN KMSN 041015Z 34006KT 10SM CLR 18/16 A2999 800 84 1400 340/06 RMK AO2
14837KMSN MSN20060704042009207/04/06 04:20:31  5-MIN KMSN 041020Z 35006KT 9SM CLR 18/16 A2999 800 87 1300 350/06 RMK AO2
14837KMSN MSN20060704042509207/04/06 04:25:31  5-MIN KMSN 041025Z 34007KT 9SM CLR 18/16 A2999 800 87 1300 340/07 RMK AO2
14837KMSN MSN20060704043009207/04/06 04:30:31  5-MIN KMSN 041030Z 34007KT 8SM CLR 18/16 A2999 800 90 1300 340/07 RMK AO2
14837KMSN MSN20060704043509207/04/06 04:35:31  5-MIN KMSN 041035Z 34007KT 9SM CLR 18/16 A3000 790 87 1300 340/07 RMK AO2
14837KMSN MSN20060704044009207/04/06 04:40:31  5-MIN KMSN 041040Z 33006KT 9SM CLR 18/16 A3000 790 87 1300 330/06 RMK AO2
14837KMSN MSN20060704044509207/04/06 04:45:31  5-MIN KMSN 041045Z 34008KT 9SM CLR 18/16 A3000 790 87 1300 340/08 RMK AO2
14837KMSN MSN20060704045010907/04/06 04:50:31  5-MIN KMSN 041050Z 34007KT 9SM CLR 18/16 A3001 790 84 1400 340/07 RMK AO2 SLP155 T01830156
14837KMSN MSN20060704045509207/04/06 04:55:31  5-MIN KMSN 041055Z 34007KT 9SM CLR 18/16 A3001 780 84 1400 340/07 RMK AO2
14837KMSN MSN20060704050009307/04/06 05:00:31  5-MIN KMSN 041100Z 32007KT 10SM CLR 18/16 A3001 780 84 1400 320/07 RMK AO2
14837KMSN MSN20060704050509207/04/06 05:05:31  5-MIN KMSN 041105Z 34007KT 9SM CLR 18/16 A3001 780 84 1400 340/07 RMK AO2
14837KMSN MSN20060704051009207/04/06 05:10:31  5-MIN KMSN 041110Z 33007KT 9SM CLR 18/16 A3001 780 84 1400 330/07 RMK AO2
14837KMSN MSN20060704051509307/04/06 05:15:31  5-MIN KMSN 041115Z 34007KT 10SM CLR 18/16 A3002 770 84 1400 330/07 RMK AO2
14837KMSN MSN20060704052009307/04/06 05:20:31  5-MIN KMSN 041120Z 34008KT 10SM CLR 18/16 A3002 770 84 1400 330/08 RMK AO2
14837KMSN MSN20060704052509307/04/06 05:25:31  5-MIN KMSN 041125Z 34007KT 10SM CLR 18/16 A3002 770 84 1400 340/07 RMK AO2
14837KMSN MSN20060704053009307/04/06 05:30:31  5-MIN KMSN 041130Z 35007KT 10SM CLR 18/16 A3002 770 84 1400 340/07 RMK AO2
14837KMSN MSN20060704053509307/04/06 05:35:31  5-MIN KMSN 041135Z 34007KT 10SM CLR 18/16 A3003 770 84 1400 340/07 RMK AO2
14837KMSN MSN20060704054009307/04/06 05:40:31  5-MIN KMSN 041140Z 34008KT 10SM CLR 18/16 A3003 760 84 1400 340/08 RMK AO2
14837KMSN MSN20060704054509307/04/06 05:45:31  5-MIN KMSN 041145Z 35006KT 10SM CLR 19/15 A3003 760 78 1400 350/06 RMK AO2
14837KMSN MSN20060704055012807/04/06 05:50:31  5-MIN KMSN 041150Z 35007KT 10SM CLR 19/15 A3004 760 78 1400 350/07 RMK AO2 SLP166 T01890150 10228 20178 53008
14837KMSN MSN20060704055509307/04/06 05:55:31  5-MIN KMSN 041155Z 35007KT 10SM CLR 19/15 A3004 750 78 1400 350/07 RMK AO2
14837KMSN MSN20060704060009307/04/06 06:00:31  5-MIN KMSN 041200Z 35007KT 10SM CLR 19/15 A3004 750 78 1400 350/07 RMK AO2
14837KMSN MSN20060704060509207/04/06 06:05:31  5-MIN KMSN 041205Z 35007KT 9SM CLR 19/15 A3004 750 78 1400 350/07 RMK AO2
14837KMSN MSN20060704061009307/04/06 06:10:31  5-MIN KMSN 041210Z 35008KT 10SM CLR 19/15 A3004 750 78 1400 350/08 RMK AO2
14837KMSN MSN20060704061509307/04/06 06:15:31  5-MIN KMSN 041215Z 35008KT 10SM CLR 19/15 A3004 750 78 1400 350/08 RMK AO2
14837KMSN MSN20060704062009307/04/06 06:20:31  5-MIN KMSN 041220Z 34010KT 10SM CLR 19/15 A3004 750 75 1500 340/10 RMK AO2
14837KMSN MSN20060704062509307/04/06 06:25:31  5-MIN KMSN 041225Z 34009KT 10SM CLR 19/14 A3004 750 72 1500 340/09 RMK AO2
14837KMSN MSN20060704063009307/04/06 06:30:31  5-MIN KMSN 041230Z 34009KT 10SM CLR 19/15 A3004 750 75 1500 340/09 RMK AO2
14837KMSN MSN20060704063509307/04/06 06:35:31  5-MIN KMSN 041235Z 34009KT 10SM CLR 19/14 A3004 750 72 1500 340/09 RMK AO2
14837KMSN MSN20060704064009307/04/06 06:40:31  5-MIN KMSN 041240Z 35008KT 10SM CLR 19/14 A3004 750 72 1500 350/08 RMK AO2
14837KMSN MSN20060704064509307/04/06 06:45:31  5-MIN KMSN 041245Z 34006KT 10SM CLR 20/14 A3005 750 70 1500 340/06 RMK AO2
14837KMSN MSN20060704065011007/04/06 06:50:31  5-MIN KMSN 041250Z 34007KT 10SM CLR 20/14 A3005 750 70 1500 340/07 RMK AO2 SLP169 T02000144
14837KMSN MSN20060704065509307/04/06 06:55:31  5-MIN KMSN 041255Z 35008KT 10SM CLR 21/14 A3005 750 67 1600 350/08 RMK AO2
14837KMSN MSN20060704070009307/04/06 07:00:31  5-MIN KMSN 041300Z 35009KT 10SM CLR 21/14 A3005 750 67 1600 350/09 RMK AO2
14837KMSN MSN20060704070509307/04/06 07:05:31  5-MIN KMSN 041305Z 35006KT 10SM CLR 21/14 A3005 740 67 1600 350/06 RMK AO2
14837KMSN MSN20060704071009307/04/06 07:10:31  5-MIN KMSN 041310Z 35009KT 10SM CLR 21/14 A3005 740 67 1600 350/09 RMK AO2
14837KMSN MSN20060704071509307/04/06 07:15:31  5-MIN KMSN 041315Z 35009KT 10SM CLR 21/14 A3005 740 67 1600 340/09 RMK AO2
14837KMSN MSN20060704072009307/04/06 07:20:31  5-MIN KMSN 041320Z 36008KT 10SM CLR 21/14 A3005 740 67 1600 360/08 RMK AO2
14837KMSN MSN20060704072509307/04/06 07:25:31  5-MIN KMSN 041325Z 36011KT 10SM CLR 21/14 A3005 740 65 1700 360/11 RMK AO2
14837KMSN MSN20060704073009307/04/06 07:30:31  5-MIN KMSN 041330Z 01008KT 10SM CLR 21/14 A3006 740 63 1700 010/08 RMK AO2
14837KMSN MSN20060704073509307/04/06 07:35:31  5-MIN KMSN 041335Z 01011KT 10SM CLR 21/14 A3006 740 63 1700 010/11 RMK AO2
14837KMSN MSN20060704074009307/04/06 07:40:31  5-MIN KMSN 041340Z 01010KT 10SM CLR 21/13 A3006 740 61 1700 010/10 RMK AO2
14837KMSN MSN20060704074509307/04/06 07:45:31  5-MIN KMSN 041345Z 01010KT 10SM CLR 22/13 A3006 730 58 1700 010/10 RMK AO2
14837KMSN MSN20060704075010907/04/06 07:50:31  5-MIN KMSN 041350Z 01011KT 9SM CLR 22/13 A3006 730 58 1700 010/11 RMK AO2 SLP175 T02170133
14837KMSN MSN20060704075509207/04/06 07:55:31  5-MIN KMSN 041355Z 01008KT 9SM CLR 22/13 A3006 730 58 1700 010/08 RMK AO2
14837KMSN MSN20060704080009207/04/06 08:00:31  5-MIN KMSN 041400Z 36008KT 9SM CLR 22/13 A3006 730 56 1800 360/08 RMK AO2
14837KMSN MSN20060704080509207/04/06 08:05:31  5-MIN KMSN 041405Z 01011KT 9SM CLR 22/13 A3006 730 56 1800 010/11 RMK AO2
14837KMSN MSN20060704081009207/04/06 08:10:31  5-MIN KMSN 041410Z 36010KT 9SM CLR 22/13 A3006 730 56 1800 360/10 RMK AO2
14837KMSN MSN20060704081509207/04/06 08:15:31  5-MIN KMSN 041415Z 01009KT 9SM CLR 22/13 A3006 730 54 1800 010/09 RMK AO2
14837KMSN MSN20060704082009207/04/06 08:20:31  5-MIN KMSN 041420Z 36010KT 9SM CLR 22/13 A3007 730 56 1800 360/10 RMK AO2
14837KMSN MSN20060704082509207/04/06 08:25:31  5-MIN KMSN 041425Z 01011KT 9SM CLR 22/13 A3006 730 54 1800 010/11 RMK AO2
14837KMSN MSN20060704083009207/04/06 08:30:31  5-MIN KMSN 041430Z 01011KT 9SM CLR 22/13 A3006 730 56 1800 010/11 RMK AO2
14837KMSN MSN20060704083509207/04/06 08:35:31  5-MIN KMSN 041435Z 36010KT 9SM CLR 22/13 A3007 730 56 1800 360/10 RMK AO2
14837KMSN MSN20060704084009207/04/06 08:40:31  5-MIN KMSN 041440Z 36008KT 9SM CLR 23/13 A3007 730 53 1800 360/08 RMK AO2
14837KMSN MSN20060704084509207/04/06 08:45:31  5-MIN KMSN 041445Z 36009KT 9SM CLR 23/13 A3006 730 55 1800 350/09 RMK AO2
14837KMSN MSN20060704085011507/04/06 08:50:31  5-MIN KMSN 041450Z 01010KT 9SM CLR 23/13 A3006 730 55 1800 010/10 RMK AO2 SLP175 T02280133 53024
14837KMSN MSN20060704085509207/04/06 08:55:31  5-MIN KMSN 041455Z 36009KT 9SM CLR 23/13 A3006 730 55 1800 360/09 RMK AO2
14837KMSN MSN20060704090009207/04/06 09:00:31  5-MIN KMSN 041500Z 36009KT 9SM CLR 23/13 A3006 730 55 1800 360/09 RMK AO2
14837KMSN MSN20060704090509207/04/06 09:05:31  5-MIN KMSN 041505Z 35008KT 9SM CLR 23/13 A3006 730 53 1900 350/08 RMK AO2
14837KMSN MSN20060704091009207/04/06 09:10:31  5-MIN KMSN 041510Z 01010KT 9SM CLR 23/13 A3006 730 53 1900 010/10 RMK AO2
14837KMSN MSN20060704091509207/04/06 09:15:31  5-MIN KMSN 041515Z 01010KT 9SM CLR 23/13 A3006 730 55 1800 010/10 RMK AO2
14837KMSN MSN20060704092009207/04/06 09:20:31  5-MIN KMSN 041520Z 02008KT 9SM CLR 23/13 A3006 730 53 1900 020/08 RMK AO2
14837KMSN MSN20060704092509207/04/06 09:25:31  5-MIN KMSN 041525Z 34009KT 9SM CLR 23/13 A3006 740 53 1900 340/09 RMK AO2
14837KMSN MSN20060704093009207/04/06 09:30:31  5-MIN KMSN 041530Z 36007KT 9SM CLR 23/13 A3006 740 51 1900 350/07 RMK AO2
14837KMSN MSN20060704093509207/04/06 09:35:31  5-MIN KMSN 041535Z 34009KT 9SM CLR 23/13 A3006 730 53 1900 340/09 RMK AO2
14837KMSN MSN20060704094009207/04/06 09:40:31  5-MIN KMSN 041540Z 01009KT 9SM CLR 23/13 A3006 730 53 1900 010/09 RMK AO2
14837KMSN MSN20060704094509207/04/06 09:45:31  5-MIN KMSN 041545Z 33007KT 9SM CLR 24/14 A3006 730 53 2000 330/07 RMK AO2
14837KMSN MSN20060704095010907/04/06 09:50:31  5-MIN KMSN 041550Z 01009KT 9SM CLR 24/14 A3006 730 55 2000 010/09 RMK AO2 SLP176 T02390144
14837KMSN MSN20060704095509207/04/06 09:55:31  5-MIN KMSN 041555Z 01009KT 9SM CLR 24/14 A3007 730 53 2000 010/09 RMK AO2
14837KMSN MSN20060704100009207/04/06 10:00:31  5-MIN KMSN 041600Z 34008KT 9SM CLR 23/13 A3007 730 53 1900 340/08 RMK AO2
14837KMSN MSN20060704100509207/04/06 10:05:31  5-MIN KMSN 041605Z 34008KT 9SM CLR 24/13 A3007 730 51 2000 340/08 RMK AO2
14837KMSN MSN20060704101009207/04/06 10:10:31  5-MIN KMSN 041610Z 35008KT 9SM CLR 24/13 A3007 730 51 2000 350/08 RMK AO2
14837KMSN MSN20060704101509207/04/06 10:15:31  5-MIN KMSN 041615Z 33008KT 9SM CLR 24/13 A3007 730 51 2000 330/08 RMK AO2
14837KMSN MSN20060704102009207/04/06 10:20:31  5-MIN KMSN 041620Z 33008KT 9SM CLR 24/13 A3007 730 51 2000 330/08 RMK AO2
14837KMSN MSN20060704102509207/04/06 10:25:31  5-MIN KMSN 041625Z 34008KT 9SM CLR 24/13 A3007 730 49 2000 340/08 RMK AO2
14837KMSN MSN20060704103009207/04/06 10:30:31  5-MIN KMSN 041630Z 36006KT 9SM CLR 24/13 A3007 730 51 2000 360/06 RMK AO2
14837KMSN MSN20060704103509207/04/06 10:35:31  5-MIN KMSN 041635Z 33007KT 9SM CLR 24/13 A3007 730 51 2000 330/07 RMK AO2
14837KMSN MSN20060704104009207/04/06 10:40:31  5-MIN KMSN 041640Z 34006KT 9SM CLR 24/13 A3007 730 49 2000 340/06 RMK AO2
14837KMSN MSN20060704104509207/04/06 10:45:31  5-MIN KMSN 041645Z 34007KT 9SM CLR 24/13 A3007 730 51 2000 340/07 RMK AO2
14837KMSN MSN20060704105010907/04/06 10:50:31  5-MIN KMSN 041650Z 34007KT 8SM CLR 24/13 A3007 730 49 2000 340/07 RMK AO2 SLP177 T02440133
14837KMSN MSN20060704105509507/04/06 10:55:31  5-MIN KMSN 041655Z 32007KT 8SM FEW045 24/13 A3007 730 49 2000 320/07 RMK AO2
14837KMSN MSN20060704110009507/04/06 11:00:31  5-MIN KMSN 041700Z 36009KT 8SM FEW045 24/13 A3007 730 47 2000 360/09 RMK AO2
14837KMSN MSN20060704110509507/04/06 11:05:31  5-MIN KMSN 041705Z 34008KT 8SM FEW045 24/13 A3007 720 47 2000 340/08 RMK AO2
14837KMSN MSN20060704111009507/04/06 11:10:31  5-MIN KMSN 041710Z VRB06KT 8SM FEW045 24/13 A3007 720 47 2000 VRB/06 RMK AO2
14837KMSN MSN20060704111509507/04/06 11:15:31  5-MIN KMSN 041715Z 01011KT 8SM FEW045 24/13 A3007 730 47 2000 010/11 RMK AO2
14837KMSN MSN20060704112009507/04/06 11:20:31  5-MIN KMSN 041720Z 35008KT 8SM FEW045 25/13 A3007 730 48 2100 350/08 RMK AO2
14837KMSN MSN20060704112509507/04/06 11:25:31  5-MIN KMSN 041725Z 35008KT 8SM FEW045 25/13 A3007 730 48 2100 350/08 RMK AO2
14837KMSN MSN20060704113009507/04/06 11:30:31  5-MIN KMSN 041730Z 34004KT 8SM FEW045 25/13 A3007 730 48 2100 340/04 RMK AO2
14837KMSN MSN20060704113509507/04/06 11:35:31  5-MIN KMSN 041735Z 30007KT 8SM FEW045 25/14 A3007 730 49 2100 300/07 RMK AO2
14837KMSN MSN20060704114010107/04/06 11:40:31  5-MIN KMSN 041740Z 32011G14KT 8SM FEW045 25/13 A3007 730 46 2100 320/11G14 RMK AO2
14837KMSN MSN20060704114510107/04/06 11:45:31  5-MIN KMSN 041745Z 34007G14KT 8SM FEW045 24/13 A3007 730 47 2000 340/07G14 RMK AO2
14837KMSN MSN20060704115013007/04/06 11:50:31  5-MIN KMSN 041750Z 34010KT 8SM FEW045 26/13 A3007 730 44 2200 340/10 RMK AO2 SLP177 T02560128 10256 20189 51008
14837KMSN MSN20060704115509507/04/06 11:55:31  5-MIN KMSN 041755Z 33010KT 8SM SCT050 25/12 A3007 730 44 2100 330/10 RMK AO2
14837KMSN MSN20060704120009507/04/06 12:00:31  5-MIN KMSN 041800Z 32006KT 8SM SCT050 24/13 A3007 730 47 2000 320/06 RMK AO2
14837KMSN MSN20060704120509507/04/06 12:05:31  5-MIN KMSN 041805Z 33005KT 8SM SCT050 25/12 A3007 730 44 2100 330/05 RMK AO2
14837KMSN MSN20060704121009507/04/06 12:10:31  5-MIN KMSN 041810Z 31009KT 8SM SCT050 25/13 A3007 730 46 2100 310/09 RMK AO2
14837KMSN MSN20060704121509507/04/06 12:15:31  5-MIN KMSN 041815Z 33007KT 8SM SCT050 25/13 A3007 730 46 2100 330/07 RMK AO2
14837KMSN MSN20060704122009507/04/06 12:20:31  5-MIN KMSN 041820Z 32006KT 8SM SCT050 25/13 A3007 730 46 2100 320/06 RMK AO2
14837KMSN MSN20060704122509507/04/06 12:25:31  5-MIN KMSN 041825Z 33007KT 8SM SCT050 25/13 A3007 730 48 2100 330/07 RMK AO2
14837KMSN MSN20060704123009507/04/06 12:30:31  5-MIN KMSN 041830Z 32007KT 8SM SCT050 26/13 A3007 730 46 2200 320/07 RMK AO2
14837KMSN MSN20060704123509507/04/06 12:35:31  5-MIN KMSN 041835Z 33006KT 8SM SCT050 26/13 A3006 730 44 2200 330/06 RMK AO2
14837KMSN MSN20060704124009507/04/06 12:40:31  5-MIN KMSN 041840Z 33009KT 8SM SCT050 26/12 A3006 730 43 2200 330/09 RMK AO2
14837KMSN MSN20060704124509507/04/06 12:45:31  5-MIN KMSN 041845Z 35008KT 8SM SCT050 26/12 A3006 730 41 2200 350/08 RMK AO2
14837KMSN MSN20060704125011207/04/06 12:50:31  5-MIN KMSN 041850Z 01008KT 8SM SCT050 26/12 A3007 730 43 2200 010/08 RMK AO2 SLP176 T02560122
14837KMSN MSN20060704125511107/04/06 12:55:31  5-MIN KMSN 041855Z 35008KT 290V010 8SM FEW055 26/12 A3007 730 43 2200 350/08 290V010 RMK AO2
14837KMSN MSN20060704130009507/04/06 13:00:31  5-MIN KMSN 041900Z 31008KT 9SM FEW055 26/12 A3006 730 43 2200 300/08 RMK AO2
14837KMSN MSN20060704130509507/04/06 13:05:31  5-MIN KMSN 041905Z 34009KT 9SM FEW055 26/12 A3007 730 43 2200 340/09 RMK AO2
14837KMSN MSN20060704131009507/04/06 13:10:31  5-MIN KMSN 041910Z 30007KT 9SM FEW055 26/13 A3006 730 43 2200 300/07 RMK AO2
14837KMSN MSN20060704131509507/04/06 13:15:31  5-MIN KMSN 041915Z 31008KT 9SM FEW055 26/12 A3006 730 43 2200 310/08 RMK AO2
14837KMSN MSN20060704132011107/04/06 13:20:31  5-MIN KMSN 041920Z 32007KT 290V360 9SM FEW055 26/12 A3006 730 41 2200 320/07 290V360 RMK AO2
14837KMSN MSN20060704132509507/04/06 13:25:31  5-MIN KMSN 041925Z 36007KT 9SM SCT055 26/12 A3006 730 40 2200 360/07 RMK AO2
14837KMSN MSN20060704133009507/04/06 13:30:31  5-MIN KMSN 041930Z 36009KT 9SM SCT055 26/12 A3006 740 43 2200 360/09 RMK AO2
14837KMSN MSN20060704133509507/04/06 13:35:31  5-MIN KMSN 041935Z 34008KT 9SM SCT055 26/12 A3006 740 41 2200 340/08 RMK AO2
14837KMSN MSN20060704134009507/04/06 13:40:31  5-MIN KMSN 041940Z 33011KT 9SM SCT055 25/12 A3006 740 43 2100 330/11 RMK AO2
14837KMSN MSN20060704134509507/04/06 13:45:31  5-MIN KMSN 041945Z 35008KT 9SM SCT055 26/12 A3006 740 41 2200 350/08 RMK AO2
14837KMSN MSN20060704135011207/04/06 13:50:31  5-MIN KMSN 041950Z 35009KT 9SM SCT055 26/12 A3006 740 41 2200 350/09 RMK AO2 SLP174 T02610122
14837KMSN MSN20060704135509507/04/06 13:55:31  5-MIN KMSN 041955Z 34007KT 9SM SCT055 26/12 A3006 740 41 2200 340/07 RMK AO2
14837KMSN MSN20060704140009507/04/06 14:00:31  5-MIN KMSN 042000Z 35006KT 9SM SCT055 25/12 A3006 740 43 2100 350/06 RMK AO2
14837KMSN MSN20060704140509507/04/06 14:05:31  5-MIN KMSN 042005Z 32008KT 9SM SCT055 25/12 A3006 740 44 2100 320/08 RMK AO2
14837KMSN MSN20060704141009507/04/06 14:10:31  5-MIN KMSN 042010Z 34005KT 9SM SCT055 24/12 A3006 740 46 2000 340/05 RMK AO2
14837KMSN MSN20060704141509507/04/06 14:15:31  5-MIN KMSN 042015Z 33005KT 9SM SCT055 26/12 A3006 740 43 2200 330/05 RMK AO2
14837KMSN MSN20060704142009507/04/06 14:20:31  5-MIN KMSN 042020Z 35007KT 9SM SCT055 26/12 A3006 740 41 2200 350/07 RMK AO2
14837KMSN MSN20060704142509507/04/06 14:25:31  5-MIN KMSN 042025Z 31006KT 9SM SCT055 25/12 A3006 740 44 2100 310/06 RMK AO2
14837KMSN MSN20060704143009507/04/06 14:30:31  5-MIN KMSN 042030Z 33005KT 9SM SCT055 25/12 A3005 740 44 2100 330/05 RMK AO2
14837KMSN MSN20060704143509507/04/06 14:35:31  5-MIN KMSN 042035Z 34006KT 9SM SCT055 25/12 A3005 740 44 2100 340/06 RMK AO2
14837KMSN MSN20060704144009507/04/06 14:40:31  5-MIN KMSN 042040Z 35007KT 9SM SCT055 24/13 A3005 740 47 2000 340/07 RMK AO2
14837KMSN MSN20060704144509507/04/06 14:45:31  5-MIN KMSN 042045Z 32008KT 9SM SCT055 26/13 A3005 740 44 2200 320/08 RMK AO2
14837KMSN MSN20060704145011807/04/06 14:50:31  5-MIN KMSN 042050Z 33006KT 9SM SCT055 25/13 A3005 750 46 2100 330/06 RMK AO2 SLP170 T02500128 50002
14837KMSN MSN20060704145509507/04/06 14:55:31  5-MIN KMSN 042055Z 34008KT 9SM SCT060 26/12 A3004 750 43 2200 340/08 RMK AO2
14837KMSN MSN20060704150009607/04/06 15:00:31  5-MIN KMSN 042100Z 01007KT 10SM FEW055 26/12 A3004 750 41 2200 010/07 RMK AO2
14837KMSN MSN20060704150509607/04/06 15:05:31  5-MIN KMSN 042105Z 34007KT 10SM FEW055 26/12 A3004 750 40 2200 340/07 RMK AO2
14837KMSN MSN20060704151009307/04/06 15:10:31  5-MIN KMSN 042110Z 34010KT 10SM CLR 26/12 A3004 750 41 2200 330/10 RMK AO2
14837KMSN MSN20060704151509607/04/06 15:15:31  5-MIN KMSN 042115Z 34008KT 10SM FEW055 26/12 A3004 750 40 2200 340/08 RMK AO2
14837KMSN MSN20060704152009607/04/06 15:20:31  5-MIN KMSN 042120Z 36008KT 10SM FEW055 26/12 A3004 750 40 2200 360/08 RMK AO2
14837KMSN MSN20060704152509607/04/06 15:25:31  5-MIN KMSN 042125Z 32007KT 10SM FEW055 26/12 A3004 750 40 2200 310/07 RMK AO2
14837KMSN MSN20060704153009607/04/06 15:30:31  5-MIN KMSN 042130Z 34006KT 10SM FEW055 26/11 A3004 760 38 2200 340/06 RMK AO2
14837KMSN MSN20060704153509607/04/06 15:35:31  5-MIN KMSN 042135Z 36008KT 10SM FEW055 26/11 A3004 750 38 2200 360/08 RMK AO2
14837KMSN MSN20060704154009607/04/06 15:40:31  5-MIN KMSN 042140Z 36008KT 10SM FEW055 26/11 A3004 750 38 2200 360/08 RMK AO2
14837KMSN MSN20060704154509607/04/06 15:45:31  5-MIN KMSN 042145Z 36008KT 10SM FEW055 26/10 A3004 760 36 2300 360/08 RMK AO2
14837KMSN MSN20060704155011307/04/06 15:50:31  5-MIN KMSN 042150Z 35005KT 10SM FEW055 26/12 A3004 760 40 2300 350/05 RMK AO2 SLP166 T02610117
14837KMSN MSN20060704155509607/04/06 15:55:31  5-MIN KMSN 042155Z 01008KT 10SM FEW055 26/11 A3004 760 40 2200 010/08 RMK AO2
14837KMSN MSN20060704160009607/04/06 16:00:31  5-MIN KMSN 042200Z 36006KT 10SM FEW055 26/11 A3004 760 38 2200 360/06 RMK AO2
14837KMSN MSN20060704160509607/04/06 16:05:31  5-MIN KMSN 042205Z 35006KT 10SM FEW055 26/11 A3004 760 38 2200 350/06 RMK AO2
14837KMSN MSN20060704161009607/04/06 16:10:31  5-MIN KMSN 042210Z 35010KT 10SM FEW055 25/12 A3004 750 43 2100 350/10 RMK AO2
14837KMSN MSN20060704161509607/04/06 16:15:31  5-MIN KMSN 042215Z 34007KT 10SM FEW055 25/12 A3004 750 43 2100 340/07 RMK AO2
14837KMSN MSN20060704162009607/04/06 16:20:31  5-MIN KMSN 042220Z 35006KT 10SM FEW055 26/11 A3004 750 40 2200 350/06 RMK AO2
14837KMSN MSN20060704162511207/04/06 16:25:31  5-MIN KMSN 042225Z 34007KT 300V360 10SM FEW055 26/12 A3004 750 40 2200 340/07 300V360 RMK AO2
14837KMSN MSN20060704163009607/04/06 16:30:31  5-MIN KMSN 042230Z 34010KT 10SM FEW055 26/11 A3004 750 40 2200 340/10 RMK AO2
14837KMSN MSN20060704163509607/04/06 16:35:31  5-MIN KMSN 042235Z 34007KT 10SM FEW055 26/11 A3004 750 40 2200 340/07 RMK AO2
14837KMSN MSN20060704164009607/04/06 16:40:31  5-MIN KMSN 042240Z 34009KT 10SM FEW055 26/11 A3004 750 40 2200 340/09 RMK AO2
14837KMSN MSN20060704164509607/04/06 16:45:31  5-MIN KMSN 042245Z 34007KT 10SM FEW055 24/11 A3004 750 42 2100 340/07 RMK AO2
14837KMSN MSN20060704165011307/04/06 16:50:31  5-MIN KMSN 042250Z 34007KT 10SM FEW055 24/11 A3004 760 42 2100 340/07 RMK AO2 SLP167 T02440111
14837KMSN MSN20060704165509607/04/06 16:55:31  5-MIN KMSN 042255Z 34007KT 10SM FEW065 25/12 A3004 760 43 2100 340/07 RMK AO2
14837KMSN MSN20060704170009307/04/06 17:00:31  5-MIN KMSN 042300Z 35007KT 10SM CLR 25/12 A3003 760 43 2100 350/07 RMK AO2
14837KMSN MSN20060704170509607/04/06 17:05:31  5-MIN KMSN 042305Z 35008KT 10SM FEW055 25/12 A3003 760 43 2100 350/08 RMK AO2
14837KMSN MSN20060704171009607/04/06 17:10:31  5-MIN KMSN 042310Z 34010KT 10SM FEW055 24/12 A3004 760 46 2100 340/10 RMK AO2
14837KMSN MSN20060704171509607/04/06 17:15:31  5-MIN KMSN 042315Z 35009KT 10SM FEW055 24/12 A3004 760 44 2100 350/09 RMK AO2
14837KMSN MSN20060704172009607/04/06 17:20:31  5-MIN KMSN 042320Z 35011KT 10SM FEW055 24/12 A3003 760 44 2100 350/11 RMK AO2
14837KMSN MSN20060704172509607/04/06 17:25:31  5-MIN KMSN 042325Z 35010KT 10SM FEW055 24/12 A3003 760 44 2100 350/10 RMK AO2
14837KMSN MSN20060704173009607/04/06 17:30:31  5-MIN KMSN 042330Z 35009KT 10SM FEW055 24/11 A3004 760 44 2000 340/09 RMK AO2
14837KMSN MSN20060704173509607/04/06 17:35:31  5-MIN KMSN 042335Z 34008KT 10SM FEW055 24/11 A3003 760 44 2000 340/08 RMK AO2
14837KMSN MSN20060704174009607/04/06 17:40:31  5-MIN KMSN 042340Z 34010KT 10SM FEW055 24/11 A3003 760 42 2000 340/10 RMK AO2
14837KMSN MSN20060704174509607/04/06 17:45:31  5-MIN KMSN 042345Z 34009KT 10SM FEW055 23/11 A3003 760 44 1900 340/09 RMK AO2
14837KMSN MSN20060704175013107/04/06 17:50:31  5-MIN KMSN 042350Z 35008KT 10SM FEW065 23/11 A3003 760 44 1900 350/08 RMK AO2 SLP165 T02330106 10261 20233 58007
14837KMSN MSN20060704175509307/04/06 17:55:31  5-MIN KMSN 042355Z 34007KT 10SM CLR 23/11 A3003 760 45 1900 340/07 RMK AO2
14837KMSN MSN20060704180009607/04/06 18:00:31  5-MIN KMSN 050000Z 34007KT 10SM FEW065 23/11 A3003 760 47 1900 340/07 RMK AO2
14837KMSN MSN20060704180509607/04/06 18:05:31  5-MIN KMSN 050005Z 34007KT 10SM FEW065 23/11 A3003 760 47 1900 340/07 RMK AO2
14837KMSN MSN20060704181009607/04/06 18:10:31  5-MIN KMSN 050010Z 34007KT 10SM FEW065 23/12 A3004 760 49 1900 340/07 RMK AO2
14837KMSN MSN20060704181509607/04/06 18:15:31  5-MIN KMSN 050015Z 34005KT 10SM FEW065 23/12 A3004 750 49 1900 330/05 RMK AO2
14837KMSN MSN20060704182009607/04/06 18:20:31  5-MIN KMSN 050020Z 33005KT 10SM FEW065 23/12 A3004 750 49 1900 330/05 RMK AO2
14837KMSN MSN20060704182509607/04/06 18:25:31  5-MIN KMSN 050025Z 33005KT 10SM FEW065 23/12 A3004 750 49 1900 330/05 RMK AO2
14837KMSN MSN20060704183009607/04/06 18:30:31  5-MIN KMSN 050030Z 34005KT 10SM FEW065 23/12 A3005 750 49 1900 340/05 RMK AO2
14837KMSN MSN20060704183509607/04/06 18:35:31  5-MIN KMSN 050035Z 33005KT 10SM FEW065 23/12 A3005 750 49 1900 330/05 RMK AO2
14837KMSN MSN20060704184009607/04/06 18:40:31  5-MIN KMSN 050040Z 34006KT 10SM FEW065 23/12 A3005 750 51 1900 340/06 RMK AO2
14837KMSN MSN20060704184509607/04/06 18:45:31  5-MIN KMSN 050045Z 33006KT 10SM FEW065 23/12 A3005 740 51 1900 330/06 RMK AO2
14837KMSN MSN20060704185011307/04/06 18:50:31  5-MIN KMSN 050050Z 34005KT 10SM FEW065 22/12 A3005 740 52 1800 340/05 RMK AO2 SLP172 T02220122
14837KMSN MSN20060704185509307/04/06 18:55:31  5-MIN KMSN 050055Z 33005KT 10SM CLR 22/12 A3005 740 51 1800 330/05 RMK AO2
14837KMSN MSN20060704190009607/04/06 19:00:31  5-MIN KMSN 050100Z 33004KT 10SM FEW065 22/12 A3005 740 54 1700 330/04 RMK AO2
14837KMSN MSN20060704190509607/04/06 19:05:31  5-MIN KMSN 050105Z 33004KT 10SM FEW065 22/12 A3005 740 54 1700 330/04 RMK AO2
14837KMSN MSN20060704191009607/04/06 19:10:31  5-MIN KMSN 050110Z 33004KT 10SM FEW065 22/12 A3005 740 54 1700 330/04 RMK AO2
14837KMSN MSN20060704191509607/04/06 19:15:31  5-MIN KMSN 050115Z 33003KT 10SM FEW065 22/12 A3006 740 54 1700 330/03 RMK AO2
14837KMSN MSN20060704192009607/04/06 19:20:31  5-MIN KMSN 050120Z 33003KT 10SM FEW065 21/12 A3006 740 56 1700 330/03 RMK AO2
14837KMSN MSN20060704192509607/04/06 19:25:31  5-MIN KMSN 050125Z 00000KT 10SM FEW060 21/12 A3006 740 58 1600 000/00 RMK AO2
14837KMSN MSN20060704193009607/04/06 19:30:31  5-MIN KMSN 050130Z 00000KT 10SM FEW060 20/13 A3006 730 63 1500 000/00 RMK AO2
14837KMSN MSN20060704193509607/04/06 19:35:31  5-MIN KMSN 050135Z 00000KT 10SM FEW060 21/13 A3006 730 58 1700 000/00 RMK AO2
14837KMSN MSN20060704194009607/04/06 19:40:31  5-MIN KMSN 050140Z 00000KT 10SM FEW060 21/13 A3006 730 60 1600 000/00 RMK AO2
14837KMSN MSN20060704194509607/04/06 19:45:31  5-MIN KMSN 050145Z 00000KT 10SM FEW060 20/13 A3007 730 63 1500 000/00 RMK AO2
14837KMSN MSN20060704195011307/04/06 19:50:31  5-MIN KMSN 050150Z 00000KT 10SM SCT065 19/12 A3007 730 62 1500 000/00 RMK AO2 SLP178 T01940122
14837KMSN MSN20060704195509607/04/06 19:55:31  5-MIN KMSN 050155Z 00000KT 10SM BKN065 19/12 A3007 730 62 1500 000/00 RMK AO2
14837KMSN MSN20060704200009607/04/06 20:00:31  5-MIN KMSN 050200Z 00000KT 10SM SCT065 20/13 A3007 720 63 1500 000/00 RMK AO2
14837KMSN MSN20060704200509607/04/06 20:05:31  5-MIN KMSN 050205Z 01003KT 10SM SCT065 20/13 A3007 720 63 1500 010/03 RMK AO2
14837KMSN MSN20060704201009607/04/06 20:10:31  5-MIN KMSN 050210Z 36003KT 10SM SCT065 20/13 A3007 720 63 1500 360/03 RMK AO2
14837KMSN MSN20060704201509607/04/06 20:15:31  5-MIN KMSN 050215Z 35003KT 10SM SCT065 19/13 A3008 720 65 1400 350/03 RMK AO2
14837KMSN MSN20060704202009607/04/06 20:20:31  5-MIN KMSN 050220Z 35003KT 10SM SCT065 19/13 A3008 720 70 1400 340/03 RMK AO2
14837KMSN MSN20060704202509607/04/06 20:25:31  5-MIN KMSN 050225Z 34003KT 10SM BKN070 19/13 A3008 710 67 1400 340/03 RMK AO2
14837KMSN MSN20060704203009607/04/06 20:30:31  5-MIN KMSN 050230Z 33003KT 10SM BKN070 19/12 A3009 710 65 1400 330/03 RMK AO2
14837KMSN MSN20060704203509607/04/06 20:35:31  5-MIN KMSN 050235Z 33003KT 10SM BKN070 18/12 A3009 710 67 1300 330/03 RMK AO2
14837KMSN MSN20060704204009607/04/06 20:40:31  5-MIN KMSN 050240Z 33003KT 10SM BKN070 18/12 A3009 710 69 1200 330/03 RMK AO2
14837KMSN MSN20060704204509607/04/06 20:45:31  5-MIN KMSN 050245Z 34003KT 10SM BKN070 18/12 A3009 700 67 1300 340/03 RMK AO2
14837KMSN MSN20060704205011907/04/06 20:50:31  5-MIN KMSN 050250Z 34003KT 10SM BKN070 18/12 A3009 700 67 1300 340/03 RMK AO2 SLP188 T01830122 56005
14837KMSN MSN20060704205509607/04/06 20:55:31  5-MIN KMSN 050255Z 35004KT 10SM OVC070 18/12 A3010 700 67 1300 350/04 RMK AO2
14837KMSN MSN20060704210009607/04/06 21:00:31  5-MIN KMSN 050300Z 35004KT 10SM BKN070 18/13 A3010 700 72 1200 350/04 RMK AO2
14837KMSN MSN20060704210509607/04/06 21:05:31  5-MIN KMSN 050305Z 34004KT 10SM BKN070 18/13 A3010 700 70 1300 340/04 RMK AO2
14837KMSN MSN20060704211009607/04/06 21:10:31  5-MIN KMSN 050310Z 34004KT 10SM BKN070 18/13 A3010 700 72 1300 340/04 RMK AO2
14837KMSN MSN20060704211509607/04/06 21:15:31  5-MIN KMSN 050315Z 33003KT 10SM BKN070 18/13 A3010 700 75 1200 330/03 RMK AO2
14837KMSN MSN20060704212009607/04/06 21:20:31  5-MIN KMSN 050320Z 33004KT 10SM BKN070 18/13 A3010 700 70 1300 330/04 RMK AO2
14837KMSN MSN20060704212509607/04/06 21:25:31  5-MIN KMSN 050325Z 35004KT 10SM BKN070 18/12 A3010 700 67 1300 350/04 RMK AO2
14837KMSN MSN20060704213009607/04/06 21:30:31  5-MIN KMSN 050330Z 34004KT 10SM BKN070 18/13 A3010 700 72 1200 340/04 RMK AO2
14837KMSN MSN20060704213509607/04/06 21:35:31  5-MIN KMSN 050335Z 35003KT 10SM BKN070 17/13 A3010 690 77 1100 350/03 RMK AO2
14837KMSN MSN20060704214009607/04/06 21:40:31  5-MIN KMSN 050340Z 34004KT 10SM BKN070 17/13 A3010 690 75 1200 340/04 RMK AO2
14837KMSN MSN20060704214509607/04/06 21:45:31  5-MIN KMSN 050345Z 34005KT 10SM BKN070 17/13 A3011 690 75 1200 330/05 RMK AO2
14837KMSN MSN20060704215011307/04/06 21:50:31  5-MIN KMSN 050350Z 33005KT 10SM BKN070 18/12 A3011 690 69 1200 330/05 RMK AO2 SLP191 T01780122
14837KMSN MSN20060704215509607/04/06 21:55:31  5-MIN KMSN 050355Z 33005KT 10SM SCT070 18/12 A3011 690 69 1200 330/05 RMK AO2
14837KMSN MSN20060704220009607/04/06 22:00:31  5-MIN KMSN 050400Z 33005KT 10SM SCT070 18/12 A3011 690 69 1200 330/05 RMK AO2
14837KMSN MSN20060704220509607/04/06 22:05:31  5-MIN KMSN 050405Z 33006KT 10SM SCT070 18/12 A3011 690 69 1200 330/06 RMK AO2
14837KMSN MSN20060704221009607/04/06 22:10:31  5-MIN KMSN 050410Z 34005KT 10SM SCT070 18/12 A3011 690 69 1200 340/05 RMK AO2
14837KMSN MSN20060704221509607/04/06 22:15:31  5-MIN KMSN 050415Z 34005KT 10SM FEW070 18/12 A3011 690 69 1200 340/05 RMK AO2
14837KMSN MSN20060704222009607/04/06 22:20:31  5-MIN KMSN 050420Z 33006KT 10SM FEW070 17/12 A3011 690 72 1100 330/06 RMK AO2
14837KMSN MSN20060704222509607/04/06 22:25:31  5-MIN KMSN 050425Z 34006KT 10SM FEW070 17/12 A3011 690 72 1200 330/06 RMK AO2
14837KMSN MSN20060704223009607/04/06 22:30:31  5-MIN KMSN 050430Z 33005KT 10SM FEW070 17/12 A3011 690 72 1200 330/05 RMK AO2
14837KMSN MSN20060704223509307/04/06 22:35:31  5-MIN KMSN 050435Z 33006KT 10SM CLR 17/12 A3011 690 69 1100 330/06 RMK AO2
14837KMSN MSN20060704224009607/04/06 22:40:31  5-MIN KMSN 050440Z 34005KT 10SM FEW070 17/12 A3011 690 69 1200 340/05 RMK AO2
14837KMSN MSN20060704224509607/04/06 22:45:31  5-MIN KMSN 050445Z 34006KT 10SM FEW070 17/12 A3011 690 69 1100 340/06 RMK AO2
14837KMSN MSN20060704225011307/04/06 22:50:31  5-MIN KMSN 050450Z 34006KT 10SM FEW070 17/12 A3011 690 69 1100 340/06 RMK AO2 SLP193 T01720117
14837KMSN MSN20060704225509607/04/06 22:55:31  5-MIN KMSN 050455Z 34004KT 10SM FEW070 17/12 A3011 690 69 1100 330/04 RMK AO2
14837KMSN MSN20060704230009607/04/06 23:00:31  5-MIN KMSN 050500Z 34005KT 10SM SCT070 17/12 A3012 680 72 1100 340/05 RMK AO2
14837KMSN MSN20060704230509607/04/06 23:05:31  5-MIN KMSN 050505Z 34005KT 10SM SCT070 17/12 A3012 680 72 1100 340/05 RMK AO2
14837KMSN MSN20060704231009607/04/06 23:10:31  5-MIN KMSN 050510Z 34005KT 10SM SCT070 17/12 A3012 680 72 1100 340/05 RMK AO2
14837KMSN MSN20060704231509607/04/06 23:15:31  5-MIN KMSN 050515Z 34005KT 10SM FEW070 17/12 A3012 680 75 1100 340/05 RMK AO2
14837KMSN MSN20060704232009607/04/06 23:20:31  5-MIN KMSN 050520Z 35006KT 10SM FEW070 17/12 A3012 680 72 1100 350/06 RMK AO2
14837KMSN MSN20060704232509607/04/06 23:25:31  5-MIN KMSN 050525Z 35006KT 10SM FEW070 16/12 A3012 680 75 1000 350/06 RMK AO2
14837KMSN MSN20060704233009307/04/06 23:30:31  5-MIN KMSN 050530Z 36007KT 10SM CLR 16/12 A3012 680 75 1000 360/07 RMK AO2
14837KMSN MSN20060704233509307/04/06 23:35:31  5-MIN KMSN 050535Z 36006KT 10SM CLR 16/12 A3012 680 75 1000 360/06 RMK AO2
14837KMSN MSN20060704234009307/04/06 23:40:31  5-MIN KMSN 050540Z 36006KT 10SM CLR 16/11 A3012 680 72 1000 360/06 RMK AO2
14837KMSN MSN20060704234509307/04/06 23:45:31  5-MIN KMSN 050545Z 36006KT 10SM CLR 16/11 A3012 680 72 1000 360/06 RMK AO2
14837KMSN MSN20060704235014107/04/06 23:50:31  5-MIN KMSN 050550Z 36006KT 10SM FEW070 16/11 A3013 680 69 1000 360/06 RMK AO2 SLP197 T01610106 10233 20161 402610161 53022
14837KMSN MSN20060704235509307/04/06 23:55:31  5-MIN KMSN 050555Z 36006KT 10SM CLR 16/11 A3013 670 69 1000 360/06 RMK AO2
14837KMSN MSN20060705000009307/05/06 00:00:38  5-MIN KMSN 050600Z 01006KT 10SM CLR 16/11 A3013 670 69 1000 360/06 RMK AO2
14837KMSN MSN20060705000509307/05/06 00:05:31  5-MIN KMSN 050605Z 01005KT 10SM CLR 16/11 A3013 670 69 1000 010/05 RMK AO2
14837KMSN MSN20060705001009207/05/06 00:10:31  5-MIN KMSN 050610Z 01004KT 10SM CLR 16/10 A3013 670 69 900 010/04 RMK AO2
14837KMSN MSN20060705001509207/05/06 00:15:32  5-MIN KMSN 050615Z 03004KT 10SM CLR 15/10 A3013 670 72 900 030/04 RMK AO2
14837KMSN MSN20060705002009207/05/06 00:20:31  5-MIN KMSN 050620Z 02003KT 10SM CLR 16/10 A3013 670 69 900 020/03 RMK AO2
14837KMSN MSN20060705002509307/05/06 00:25:31  5-MIN KMSN 050625Z 02003KT 10SM CLR 16/10 A3013 670 67 1000 020/03 RMK AO2
14837KMSN MSN20060705003009307/05/06 00:30:31  5-MIN KMSN 050630Z 01004KT 10SM CLR 16/10 A3013 670 67 1000 010/04 RMK AO2
14837KMSN MSN20060705003509507/05/06 00:35:31  5-MIN KMSN 050635Z 34004KT 10SM FEW070 16/10 A3013 670 69 900 340/04 RMK AO2
14837KMSN MSN20060705004009507/05/06 00:40:31  5-MIN KMSN 050640Z 34004KT 10SM FEW070 16/10 A3013 670 69 900 330/04 RMK AO2
14837KMSN MSN20060705004509207/05/06 00:45:31  5-MIN KMSN 050645Z 34003KT 10SM CLR 16/10 A3013 670 69 900 340/03 RMK AO2
14837KMSN MSN20060705005010907/05/06 00:50:31  5-MIN KMSN 050650Z 34003KT 10SM CLR 16/10 A3013 670 69 900 340/03 RMK AO2 SLP199 T01560100
14837KMSN MSN20060705005509207/05/06 00:55:31  5-MIN KMSN 050655Z 33003KT 10SM CLR 15/10 A3013 670 72 900 330/03 RMK AO2
14837KMSN MSN20060705010009207/05/06 01:00:31  5-MIN KMSN 050700Z 34003KT 10SM CLR 14/10 A3013 670 74 800 340/03 RMK AO2
14837KMSN MSN20060705010509207/05/06 01:05:31  5-MIN KMSN 050705Z 34003KT 10SM CLR 15/10 A3013 670 72 900 340/03 RMK AO2
14837KMSN MSN20060705011009207/05/06 01:10:31  5-MIN KMSN 050710Z 34003KT 10SM CLR 14/10 A3013 670 77 700 340/03 RMK AO2
14837KMSN MSN20060705011509207/05/06 01:15:31  5-MIN KMSN 050715Z 35004KT 10SM CLR 14/10 A3013 670 77 700 350/04 RMK AO2
14837KMSN MSN20060705012009507/05/06 01:20:31  5-MIN KMSN 050720Z 35003KT 10SM FEW070 14/11 A3013 670 80 700 350/03 RMK AO2
14837KMSN MSN20060705012509507/05/06 01:25:31  5-MIN KMSN 050725Z 36003KT 10SM FEW070 14/11 A3013 670 80 700 360/03 RMK AO2
14837KMSN MSN20060705013009507/05/06 01:30:31  5-MIN KMSN 050730Z 34005KT 10SM FEW070 14/10 A3013 670 74 800 330/05 RMK AO2
14837KMSN MSN20060705013509507/05/06 01:35:31  5-MIN KMSN 050735Z 34003KT 10SM SCT070 14/10 A3013 670 74 800 340/03 RMK AO2
14837KMSN MSN20060705014009507/05/06 01:40:31  5-MIN KMSN 050740Z 34003KT 10SM SCT070 14/10 A3013 670 77 700 340/03 RMK AO2
14837KMSN MSN20060705014509507/05/06 01:45:31  5-MIN KMSN 050745Z 35003KT 10SM SCT070 14/10 A3013 670 74 800 350/03 RMK AO2
14837KMSN MSN20060705015011207/05/06 01:50:31  5-MIN KMSN 050750Z 35004KT 10SM SCT070 14/10 A3013 670 74 800 350/04 RMK AO2 SLP200 T01440100
14837KMSN MSN20060705015509507/05/06 01:55:31  5-MIN KMSN 050755Z 01005KT 10SM SCT070 14/10 A3013 670 77 700 010/05 RMK AO2
14837KMSN MSN20060705020009507/05/06 02:00:31  5-MIN KMSN 050800Z 36004KT 10SM SCT070 14/10 A3013 670 74 800 360/04 RMK AO2
14837KMSN MSN20060705020509507/05/06 02:05:31  5-MIN KMSN 050805Z 34004KT 10SM SCT070 13/10 A3013 670 80 700 340/04 RMK AO2
14837KMSN MSN20060705021009507/05/06 02:10:31  5-MIN KMSN 050810Z 00000KT 10SM FEW070 14/10 A3013 670 77 700 000/00 RMK AO2
14837KMSN MSN20060705021509507/05/06 02:15:31  5-MIN KMSN 050815Z 00000KT 10SM FEW070 14/10 A3013 670 77 700 000/00 RMK AO2
14837KMSN MSN20060705022009507/05/06 02:20:31  5-MIN KMSN 050820Z 36003KT 10SM FEW070 14/10 A3013 670 77 700 360/03 RMK AO2
14837KMSN MSN20060705022509507/05/06 02:25:31  5-MIN KMSN 050825Z 02003KT 10SM FEW070 14/10 A3013 670 74 800 020/03 RMK AO2
14837KMSN MSN20060705023009507/05/06 02:30:31  5-MIN KMSN 050830Z 05003KT 10SM FEW075 14/11 A3013 670 77 800 040/03 RMK AO2
14837KMSN MSN20060705023509507/05/06 02:35:31  5-MIN KMSN 050835Z 00000KT 10SM SCT075 14/11 A3013 670 77 800 000/00 RMK AO2
14837KMSN MSN20060705024009507/05/06 02:40:31  5-MIN KMSN 050840Z 00000KT 10SM SCT075 14/11 A3013 670 80 700 000/00 RMK AO2
14837KMSN MSN20060705024509507/05/06 02:45:31  5-MIN KMSN 050845Z 00000KT 10SM BKN075 13/10 A3013 670 83 600 000/00 RMK AO2
14837KMSN MSN20060705025011807/05/06 02:50:31  5-MIN KMSN 050850Z 00000KT 10SM BKN075 13/11 A3013 670 83 700 000/00 RMK AO2 SLP200 T01330106 53010
14837KMSN MSN20060705025509507/05/06 02:55:31  5-MIN KMSN 050855Z 00000KT 10SM BKN075 14/11 A3013 670 80 700 000/00 RMK AO2
14837KMSN MSN20060705030009507/05/06 03:00:31  5-MIN KMSN 050900Z 00000KT 10SM BKN075 13/11 A3013 670 83 700 000/00 RMK AO2
14837KMSN MSN20060705030509507/05/06 03:05:31  5-MIN KMSN 050905Z 00000KT 10SM BKN075 14/11 A3013 670 83 700 000/00 RMK AO2
14837KMSN MSN20060705031009507/05/06 03:10:31  5-MIN KMSN 050910Z 00000KT 10SM BKN075 13/11 A3013 670 83 700 000/00 RMK AO2
14837KMSN MSN20060705031509507/05/06 03:15:31  5-MIN KMSN 050915Z 00000KT 10SM BKN075 13/11 A3013 670 86 700 000/00 RMK AO2
14837KMSN MSN20060705032009507/05/06 03:20:31  5-MIN KMSN 050920Z 00000KT 10SM BKN075 13/11 A3013 670 86 700 000/00 RMK AO2
14837KMSN MSN20060705032509507/05/06 03:25:31  5-MIN KMSN 050925Z 00000KT 10SM BKN075 13/11 A3013 670 86 700 000/00 RMK AO2
14837KMSN MSN20060705033009507/05/06 03:30:31  5-MIN KMSN 050930Z 00000KT 10SM BKN075 13/11 A3013 670 86 600 000/00 RMK AO2
14837KMSN MSN20060705033509507/05/06 03:35:31  5-MIN KMSN 050935Z 00000KT 10SM BKN075 12/11 A3014 660 93 500 000/00 RMK AO2
14837KMSN MSN20060705034009507/05/06 03:40:31  5-MIN KMSN 050940Z 00000KT 10SM BKN075 12/11 A3014 670 89 500 000/00 RMK AO2
14837KMSN MSN20060705034509507/05/06 03:45:31  5-MIN KMSN 050945Z 00000KT 10SM BKN075 12/11 A3014 660 89 500 000/00 RMK AO2
14837KMSN MSN20060705035011207/05/06 03:50:31  5-MIN KMSN 050950Z 00000KT 10SM SCT075 12/11 A3014 660 93 500 000/00 RMK AO2 SLP202 T01220111
14837KMSN MSN20060705035509507/05/06 03:55:31  5-MIN KMSN 050955Z 33003KT 10SM SCT075 12/11 A3014 670 93 500 330/03 RMK AO2
14837KMSN MSN20060705040009507/05/06 04:00:31  5-MIN KMSN 051000Z 00000KT 10SM FEW075 12/11 A3014 670 93 500 000/00 RMK AO2
14837KMSN MSN20060705040509507/05/06 04:05:31  5-MIN KMSN 051005Z 00000KT 10SM FEW075 12/11 A3013 670 93 500 000/00 RMK AO2
14837KMSN MSN20060705041009207/05/06 04:10:31  5-MIN KMSN 051010Z 00000KT 10SM CLR 12/11 A3014 670 93 500 000/00 RMK AO2
14837KMSN MSN20060705041509207/05/06 04:15:31  5-MIN KMSN 051015Z 00000KT 10SM CLR 12/11 A3014 670 93 500 000/00 RMK AO2
14837KMSN MSN20060705042009107/05/06 04:20:31  5-MIN KMSN 051020Z 32003KT 9SM CLR 12/11 A3014 660 93 500 320/03 RMK AO2
14837KMSN MSN20060705042509207/05/06 04:25:31  5-MIN KMSN 051025Z 00000KT 10SM CLR 12/11 A3014 660 93 500 000/00 RMK AO2
14837KMSN MSN20060705043009207/05/06 04:30:31  5-MIN KMSN 051030Z 32004KT 10SM CLR 12/11 A3014 660 93 500 320/04 RMK AO2
14837KMSN MSN20060705043509107/05/06 04:35:31  5-MIN KMSN 051035Z 00000KT 9SM CLR 12/11 A3014 660 93 500 000/00 RMK AO2
14837KMSN MSN20060705044009107/05/06 04:40:31  5-MIN KMSN 051040Z 34003KT 8SM CLR 12/11 A3014 660 93 500 340/03 RMK AO2
14837KMSN MSN20060705044509107/05/06 04:45:31  5-MIN KMSN 051045Z 00000KT 8SM CLR 12/11 A3014 660 93 500 000/00 RMK AO2
14837KMSN MSN20060705045010807/05/06 04:50:31  5-MIN KMSN 051050Z 32003KT 7SM CLR 12/11 A3014 660 93 500 320/03 RMK AO2 SLP204 T01170106
14837KMSN MSN20060705045509107/05/06 04:55:31  5-MIN KMSN 051055Z 00000KT 8SM CLR 12/11 A3014 660 93 500 000/00 RMK AO2
14837KMSN MSN20060705050009107/05/06 05:00:31  5-MIN KMSN 051100Z 00000KT 8SM CLR 12/11 A3014 660 93 500 000/00 RMK AO2
14837KMSN MSN20060705050509107/05/06 05:05:31  5-MIN KMSN 051105Z 00000KT 7SM CLR 12/11 A3014 660 93 500 000/00 RMK AO2
14837KMSN MSN20060705051009107/05/06 05:10:31  5-MIN KMSN 051110Z 00000KT 8SM CLR 12/11 A3015 660 93 500 000/00 RMK AO2
14837KMSN MSN20060705051509107/05/06 05:15:31  5-MIN KMSN 051115Z 00000KT 8SM CLR 12/11 A3015 650 93 500 000/00 RMK AO2
14837KMSN MSN20060705052009107/05/06 05:20:31  5-MIN KMSN 051120Z 00000KT 8SM CLR 13/11 A3015 650 89 600 000/00 RMK AO2
14837KMSN MSN20060705052509107/05/06 05:25:31  5-MIN KMSN 051125Z 00000KT 8SM CLR 13/11 A3015 650 89 600 000/00 RMK AO2
14837KMSN MSN20060705053009107/05/06 05:30:31  5-MIN KMSN 051130Z 00000KT 8SM CLR 13/12 A3016 650 93 600 000/00 RMK AO2
14837KMSN MSN20060705053509107/05/06 05:35:31  5-MIN KMSN 051135Z 00000KT 8SM CLR 13/12 A3016 650 89 600 000/00 RMK AO2
14837KMSN MSN20060705054009107/05/06 05:40:31  5-MIN KMSN 051140Z 35004KT 8SM CLR 14/12 A3016 640 90 700 350/04 RMK AO2
14837KMSN MSN20060705054509107/05/06 05:45:31  5-MIN KMSN 051145Z 36004KT 8SM CLR 14/12 A3016 640 86 700 360/04 RMK AO2
14837KMSN MSN20060705055012607/05/06 05:50:31  5-MIN KMSN 051150Z 36004KT 8SM CLR 14/12 A3016 640 86 700 350/04 RMK AO2 SLP212 T01390117 10161 20111 52002
14837KMSN MSN20060705055509107/05/06 05:55:31  5-MIN KMSN 051155Z 35003KT 7SM CLR 14/12 A3016 640 86 700 350/03 RMK AO2
14837KMSN MSN20060705060009107/05/06 06:00:31  5-MIN KMSN 051200Z 34003KT 8SM CLR 14/12 A3017 640 90 700 340/03 RMK AO2
14837KMSN MSN20060705060509107/05/06 06:05:31  5-MIN KMSN 051205Z 34003KT 8SM CLR 14/12 A3017 640 86 800 340/03 RMK AO2
14837KMSN MSN20060705061009107/05/06 06:10:31  5-MIN KMSN 051210Z 34003KT 8SM CLR 15/12 A3017 640 83 800 340/03 RMK AO2
14837KMSN MSN20060705061509107/05/06 06:15:31  5-MIN KMSN 051215Z 00000KT 8SM CLR 15/12 A3017 640 83 800 000/00 RMK AO2
14837KMSN MSN20060705062009107/05/06 06:20:31  5-MIN KMSN 051220Z 00000KT 7SM CLR 16/13 A3017 640 83 900 000/00 RMK AO2
14837KMSN MSN20060705062509107/05/06 06:25:31  5-MIN KMSN 051225Z 00000KT 7SM CLR 16/13 A3017 630 83 900 000/00 RMK AO2
14837KMSN MSN20060705063009207/05/06 06:30:31  5-MIN KMSN 051230Z 00000KT 7SM CLR 16/13 A3017 630 80 1000 000/00 RMK AO2
14837KMSN MSN20060705063509207/05/06 06:35:31  5-MIN KMSN 051235Z 00000KT 7SM CLR 16/13 A3017 630 83 1000 000/00 RMK AO2
14837KMSN MSN20060705064009207/05/06 06:40:31  5-MIN KMSN 051240Z 00000KT 8SM CLR 17/13 A3017 630 77 1000 000/00 RMK AO2
14837KMSN MSN20060705064509207/05/06 06:45:31  5-MIN KMSN 051245Z 00000KT 8SM CLR 17/13 A3017 630 78 1100 000/00 RMK AO2
14837KMSN MSN20060705065010907/05/06 06:50:31  5-MIN KMSN 051250Z 00000KT 9SM CLR 17/13 A3018 630 75 1100 000/00 RMK AO2 SLP215 T01720128
14837KMSN MSN20060705065509207/05/06 06:55:31  5-MIN KMSN 051255Z 00000KT 9SM CLR 18/13 A3018 630 72 1100 000/00 RMK AO2
14837KMSN MSN20060705070009207/05/06 07:00:31  5-MIN KMSN 051300Z 00000KT 9SM CLR 18/13 A3018 630 72 1100 000/00 RMK AO2
14837KMSN MSN20060705070509307/05/06 07:05:31  5-MIN KMSN 051305Z 00000KT 10SM CLR 18/13 A3018 630 70 1200 000/00 RMK AO2
14837KMSN MSN20060705071009307/05/06 07:10:31  5-MIN KMSN 051310Z 00000KT 10SM CLR 18/13 A3018 630 72 1200 000/00 RMK AO2
14837KMSN MSN20060705071509307/05/06 07:15:31  5-MIN KMSN 051315Z 00000KT 10SM CLR 18/13 A3018 630 70 1200 000/00 RMK AO2
14837KMSN MSN20060705072009307/05/06 07:20:31  5-MIN KMSN 051320Z 00000KT 10SM CLR 18/13 A3018 630 70 1200 000/00 RMK AO2
14837KMSN MSN20060705072509307/05/06 07:25:31  5-MIN KMSN 051325Z 00000KT 10SM CLR 19/13 A3018 630 70 1300 000/00 RMK AO2
14837KMSN MSN20060705073009307/05/06 07:30:31  5-MIN KMSN 051330Z 00000KT 10SM CLR 19/13 A3018 630 67 1300 000/00 RMK AO2
14837KMSN MSN20060705073509207/05/06 07:35:31  5-MIN KMSN 051335Z 00000KT 9SM CLR 19/13 A3018 630 70 1300 000/00 RMK AO2
14837KMSN MSN20060705074009207/05/06 07:40:31  5-MIN KMSN 051340Z 00000KT 9SM CLR 19/13 A3018 620 67 1300 000/00 RMK AO2
14837KMSN MSN20060705074509207/05/06 07:45:31  5-MIN KMSN 051345Z 00000KT 9SM CLR 20/13 A3018 620 65 1400 000/00 RMK AO2
14837KMSN MSN20060705075010907/05/06 07:50:31  5-MIN KMSN 051350Z 00000KT 9SM CLR 19/13 A3018 620 67 1300 000/00 RMK AO2 SLP218 T01940133
14837KMSN MSN20060705075509207/05/06 07:55:31  5-MIN KMSN 051355Z 00000KT 9SM CLR 20/13 A3018 620 65 1400 000/00 RMK AO2
14837KMSN MSN20060705080009207/05/06 08:00:31  5-MIN KMSN 051400Z 00000KT 9SM CLR 21/13 A3018 620 63 1500 000/00 RMK AO2
14837KMSN MSN20060705080509207/05/06 08:05:31  5-MIN KMSN 051405Z 00000KT 9SM CLR 21/13 A3018 620 63 1500 000/00 RMK AO2
14837KMSN MSN20060705081009307/05/06 08:10:31  5-MIN KMSN 051410Z 00000KT 10SM CLR 21/13 A3019 620 63 1500 000/00 RMK AO2
14837KMSN MSN20060705081509307/05/06 08:15:31  5-MIN KMSN 051415Z 34003KT 10SM CLR 21/14 A3019 620 63 1500 340/03 RMK AO2
14837KMSN MSN20060705082009307/05/06 08:20:31  5-MIN KMSN 051420Z VRB04KT 10SM CLR 21/13 A3019 620 61 1500 VRB/04 RMK AO2
14837KMSN MSN20060705082509307/05/06 08:25:31  5-MIN KMSN 051425Z 00000KT 10SM CLR 21/13 A3019 620 58 1500 000/00 RMK AO2
14837KMSN MSN20060705083009307/05/06 08:30:31  5-MIN KMSN 051430Z 31005KT 10SM CLR 22/13 A3019 620 56 1600 310/05 RMK AO2
14837KMSN MSN20060705083509307/05/06 08:35:31  5-MIN KMSN 051435Z VRB03KT 10SM CLR 22/11 A3019 620 50 1600 VRB/03 RMK AO2
14837KMSN MSN20060705084009307/05/06 08:40:31  5-MIN KMSN 051440Z 32005KT 10SM CLR 22/10 A3019 620 47 1600 310/05 RMK AO2
14837KMSN MSN20060705084509307/05/06 08:45:31  5-MIN KMSN 051445Z 00000KT 10SM CLR 22/11 A3019 620 49 1600 000/00 RMK AO2
14837KMSN MSN20060705085011607/05/06 08:50:31  5-MIN KMSN 051450Z 35004KT 10SM CLR 22/09 A3019 620 43 1600 350/04 RMK AO2 SLP220 T02220094 53010
14837KMSN MSN20060705085509307/05/06 08:55:31  5-MIN KMSN 051455Z 00000KT 10SM CLR 22/08 A3019 620 40 1600 000/00 RMK AO2
14837KMSN MSN20060705090009307/05/06 09:00:31  5-MIN KMSN 051500Z VRB05KT 10SM CLR 22/11 A3019 620 49 1600 VRB/05 RMK AO2
14837KMSN MSN20060705090509307/05/06 09:05:31  5-MIN KMSN 051505Z 02005KT 10SM CLR 22/11 A3019 620 47 1600 020/05 RMK AO2
14837KMSN MSN20060705091009307/05/06 09:10:31  5-MIN KMSN 051510Z VRB04KT 10SM CLR 22/11 A3019 620 47 1600 VRB/04 RMK AO2
14837KMSN MSN20060705091509307/05/06 09:15:31  5-MIN KMSN 051515Z 01006KT 10SM CLR 22/11 A3019 610 47 1600 010/06 RMK AO2
14837KMSN MSN20060705092009307/05/06 09:20:31  5-MIN KMSN 051520Z 04006KT 10SM CLR 23/09 A3019 610 42 1700 040/06 RMK AO2
14837KMSN MSN20060705092509607/05/06 09:25:31  5-MIN KMSN 051525Z 02005KT 10SM FEW050 23/10 A3019 610 44 1700 020/05 RMK AO2
14837KMSN MSN20060705093009607/05/06 09:30:31  5-MIN KMSN 051530Z 31007KT 10SM FEW050 23/10 A3019 610 44 1700 310/07 RMK AO2
14837KMSN MSN20060705093509607/05/06 09:35:31  5-MIN KMSN 051535Z 33007KT 10SM FEW050 23/09 A3019 610 42 1700 330/07 RMK AO2
14837KMSN MSN20060705094009607/05/06 09:40:31  5-MIN KMSN 051540Z 34007KT 10SM FEW050 23/09 A3019 610 40 1700 340/07 RMK AO2
14837KMSN MSN20060705094509607/05/06 09:45:31  5-MIN KMSN 051545Z 02007KT 10SM FEW050 23/09 A3019 610 39 1800 020/07 RMK AO2
14837KMSN MSN20060705095011307/05/06 09:50:31  5-MIN KMSN 051550Z 33008KT 10SM FEW050 23/09 A3019 610 39 1800 330/08 RMK AO2 SLP222 T02330089
14837KMSN MSN20060705095509607/05/06 09:55:31  5-MIN KMSN 051555Z 34005KT 10SM SCT055 23/08 A3019 610 39 1700 340/05 RMK AO2
14837KMSN MSN20060705100009607/05/06 10:00:31  5-MIN KMSN 051600Z 01007KT 10SM SCT055 23/08 A3019 620 38 1800 010/07 RMK AO2
14837KMSN MSN20060705100510207/05/06 10:05:31  5-MIN KMSN 051605Z 01011G15KT 10SM SCT055 24/09 A3019 620 38 1800 010/11G15 RMK AO2
14837KMSN MSN20060705101009607/05/06 10:10:31  5-MIN KMSN 051610Z 01011KT 10SM SCT055 24/09 A3019 620 38 1800 010/11 RMK AO2
14837KMSN MSN20060705101509607/05/06 10:15:31  5-MIN KMSN 051615Z 01005KT 10SM SCT055 23/08 A3019 610 38 1800 010/05 RMK AO2
14837KMSN MSN20060705102009607/05/06 10:20:31  5-MIN KMSN 051620Z 33006KT 10SM SCT055 24/09 A3019 610 38 1800 330/06 RMK AO2
14837KMSN MSN20060705102509607/05/06 10:25:31  5-MIN KMSN 051625Z 31006KT 10SM SCT055 23/08 A3019 620 36 1800 310/06 RMK AO2
14837KMSN MSN20060705103009607/05/06 10:30:31  5-MIN KMSN 051630Z VRB06KT 10SM SCT055 23/08 A3019 610 38 1800 VRB/06 RMK AO2
14837KMSN MSN20060705103509607/05/06 10:35:31  5-MIN KMSN 051635Z 36006KT 10SM BKN065 23/09 A3019 610 40 1700 360/06 RMK AO2
14837KMSN MSN20060705104009607/05/06 10:40:31  5-MIN KMSN 051640Z 34009KT 10SM BKN065 24/08 A3019 610 36 1800 330/09 RMK AO2
14837KMSN MSN20060705104509607/05/06 10:45:31  5-MIN KMSN 051645Z 35008KT 10SM BKN065 23/08 A3019 610 38 1800 350/08 RMK AO2
14837KMSN MSN20060705105011307/05/06 10:50:31  5-MIN KMSN 051650Z VRB05KT 10SM BKN065 24/08 A3019 610 36 1800 VRB/05 RMK AO2 SLP221 T02390083
14837KMSN MSN20060705105509607/05/06 10:55:31  5-MIN KMSN 051655Z 33008KT 10SM BKN065 23/08 A3020 610 39 1700 330/08 RMK AO2
14837KMSN MSN20060705110009607/05/06 11:00:31  5-MIN KMSN 051700Z VRB06KT 10SM BKN065 24/08 A3019 610 36 1800 VRB/06 RMK AO2
14837KMSN MSN20060705110509607/05/06 11:05:31  5-MIN KMSN 051705Z 02008KT 10SM BKN065 24/09 A3019 610 36 1900 020/08 RMK AO2
14837KMSN MSN20060705111009607/05/06 11:10:31  5-MIN KMSN 051710Z VRB05KT 10SM BKN065 24/09 A3019 610 36 1900 VRB/05 RMK AO2
14837KMSN MSN20060705111509607/05/06 11:15:31  5-MIN KMSN 051715Z 30007KT 10SM BKN065 23/08 A3019 610 38 1800 300/07 RMK AO2
14837KMSN MSN20060705112009607/05/06 11:20:31  5-MIN KMSN 051720Z VRB05KT 10SM BKN065 23/08 A3019 620 39 1700 VRB/05 RMK AO2
14837KMSN MSN20060705112509607/05/06 11:25:31  5-MIN KMSN 051725Z 35007KT 10SM BKN065 24/09 A3019 620 36 1900 350/07 RMK AO2
14837KMSN MSN20060705113009607/05/06 11:30:31  5-MIN KMSN 051730Z 35008KT 10SM BKN065 24/09 A3019 620 36 1900 350/08 RMK AO2
14837KMSN MSN20060705113509607/05/06 11:35:31  5-MIN KMSN 051735Z 32008KT 10SM BKN065 23/08 A3019 620 38 1800 320/08 RMK AO2
14837KMSN MSN20060705114009607/05/06 11:40:31  5-MIN KMSN 051740Z 34006KT 10SM BKN065 24/08 A3019 620 36 1800 340/06 RMK AO2
14837KMSN MSN20060705114509607/05/06 11:45:31  5-MIN KMSN 051745Z 33007KT 10SM BKN065 24/09 A3019 620 38 1800 330/07 RMK AO2
14837KMSN MSN20060705115013707/05/06 11:50:31  5-MIN KMSN 051750Z 31006G14KT 10SM BKN065 23/08 A3019 620 38 1800 310/06G14 RMK AO2 SLP219 T02330083 10250 20139 51009
14837KMSN MSN20060705115509607/05/06 11:55:31  5-MIN KMSN 051755Z VRB05KT 10SM BKN070 24/09 A3018 620 38 1800 VRB/05 RMK AO2
14837KMSN MSN20060705120009607/05/06 12:00:31  5-MIN KMSN 051800Z VRB04KT 10SM BKN070 24/09 A3018 620 38 1800 VRB/04 RMK AO2
14837KMSN MSN20060705120511207/05/06 12:05:31  5-MIN KMSN 051805Z 31007KT 250V340 10SM BKN070 23/09 A3018 620 41 1800 310/07 250V340 RMK AO2
14837KMSN MSN20060705121009607/05/06 12:10:31  5-MIN KMSN 051810Z 32007KT 10SM BKN070 24/09 A3018 620 38 1900 320/07 RMK AO2
14837KMSN MSN20060705121509607/05/06 12:15:31  5-MIN KMSN 051815Z VRB03KT 10SM SCT070 24/09 A3018 620 38 1800 VRB/03 RMK AO2
14837KMSN MSN20060705122010307/05/06 12:20:31  5-MIN KMSN 051820Z 36008KT 10SM FEW065 SCT080 24/10 A3018 630 39 1900 360/08 RMK AO2
14837KMSN MSN20060705122510307/05/06 12:25:31  5-MIN KMSN 051825Z VRB03KT 10SM FEW070 SCT080 24/09 A3018 630 36 1900 VRB/03 RMK AO2
14837KMSN MSN20060705123009607/05/06 12:30:31  5-MIN KMSN 051830Z 33007KT 10SM FEW065 25/09 A3017 630 37 2000 330/07 RMK AO2
14837KMSN MSN20060705123510207/05/06 12:35:31  5-MIN KMSN 051835Z 35011G15KT 10SM FEW060 23/09 A3017 630 39 1800 350/11G15 RMK AO2
14837KMSN MSN20060705124010207/05/06 12:40:31  5-MIN KMSN 051840Z 31008G15KT 10SM SCT060 23/09 A3017 630 39 1800 310/08G15 RMK AO2
14837KMSN MSN20060705124510307/05/06 12:45:31  5-MIN KMSN 051845Z 30010KT 10SM SCT065 SCT080 24/09 A3017 630 38 1900 300/10 RMK AO2
14837KMSN MSN20060705125012007/05/06 12:50:31  5-MIN KMSN 051850Z 32009KT 10SM SCT065 BKN085 24/09 A3017 630 38 1900 320/09 RMK AO2 SLP214 T02440094
14837KMSN MSN20060705125510307/05/06 12:55:31  5-MIN KMSN 051855Z 31010KT 10SM SCT065 BKN085 24/09 A3017 630 38 1800 310/10 RMK AO2
14837KMSN MSN20060705130010307/05/06 13:00:31  5-MIN KMSN 051900Z 34006KT 10SM SCT070 BKN080 23/09 A3017 640 41 1800 340/06 RMK AO2
14837KMSN MSN20060705130510307/05/06 13:05:31  5-MIN KMSN 051905Z 34006KT 10SM FEW070 SCT085 25/09 A3017 640 37 2000 340/06 RMK AO2
14837KMSN MSN20060705131010307/05/06 13:10:31  5-MIN KMSN 051910Z 36008KT 10SM FEW070 SCT085 24/09 A3016 640 36 1900 360/08 RMK AO2
14837KMSN MSN20060705131509607/05/06 13:15:31  5-MIN KMSN 051915Z 31007KT 10SM SCT080 24/09 A3016 640 38 1900 310/07 RMK AO2
14837KMSN MSN20060705132009607/05/06 13:20:31  5-MIN KMSN 051920Z 33008KT 10SM FEW075 25/09 A3016 640 37 2000 320/08 RMK AO2
14837KMSN MSN20060705132509607/05/06 13:25:31  5-MIN KMSN 051925Z VRB04KT 10SM FEW080 25/09 A3016 640 35 2000 VRB/04 RMK AO2
14837KMSN MSN20060705133009607/05/06 13:30:31  5-MIN KMSN 051930Z 33008KT 10SM FEW080 26/09 A3016 640 34 2100 320/08 RMK AO2
14837KMSN MSN20060705133509607/05/06 13:35:31  5-MIN KMSN 051935Z 35009KT 10SM SCT080 26/08 A3016 640 33 2000 350/09 RMK AO2
14837KMSN MSN20060705134009607/05/06 13:40:31  5-MIN KMSN 051940Z 36011KT 10SM SCT080 24/08 A3016 640 34 1900 360/11 RMK AO2
14837KMSN MSN20060705134510207/05/06 13:45:31  5-MIN KMSN 051945Z 35009G15KT 10SM SCT080 24/08 A3016 640 35 1900 340/09G15 RMK AO2
14837KMSN MSN20060705135011307/05/06 13:50:31  5-MIN KMSN 051950Z 33010KT 10SM SCT080 26/08 A3016 640 33 2000 320/10 RMK AO2 SLP210 T02560083
14837KMSN MSN20060705135510307/05/06 13:55:31  5-MIN KMSN 051955Z 36008KT 10SM SCT065 BKN080 25/08 A3016 640 34 2000 360/08 RMK AO2
14837KMSN MSN20060705140010307/05/06 14:00:31  5-MIN KMSN 052000Z VRB06KT 10SM SCT065 BKN080 26/08 A3016 640 33 2000 VRB/06 RMK AO2
14837KMSN MSN20060705140510307/05/06 14:05:31  5-MIN KMSN 052005Z 34007KT 10SM SCT065 BKN080 25/08 A3016 640 33 2000 340/07 RMK AO2
14837KMSN MSN20060705141010307/05/06 14:10:31  5-MIN KMSN 052010Z 31009KT 10SM SCT065 BKN080 24/08 A3016 640 36 1900 310/09 RMK AO2
14837KMSN MSN20060705141510307/05/06 14:15:31  5-MIN KMSN 052015Z 32008KT 10SM SCT065 BKN080 24/08 A3016 650 36 1900 320/08 RMK AO2
14837KMSN MSN20060705142010307/05/06 14:20:31  5-MIN KMSN 052020Z 32005KT 10SM SCT065 BKN080 24/08 A3016 650 35 1900 320/05 RMK AO2
14837KMSN MSN20060705142510307/05/06 14:25:31  5-MIN KMSN 052025Z 34004KT 10SM SCT065 BKN080 25/09 A3016 650 35 2000 340/04 RMK AO2
14837KMSN MSN20060705143010307/05/06 14:30:31  5-MIN KMSN 052030Z 34006KT 10SM SCT065 BKN080 26/09 A3015 650 34 2100 340/06 RMK AO2
14837KMSN MSN20060705143510307/05/06 14:35:31  5-MIN KMSN 052035Z 30005KT 10SM SCT065 BKN080 25/09 A3015 650 35 2000 300/05 RMK AO2
14837KMSN MSN20060705144010307/05/06 14:40:31  5-MIN KMSN 052040Z 36007KT 10SM SCT065 BKN080 25/09 A3015 650 35 2000 360/07 RMK AO2
14837KMSN MSN20060705144510307/05/06 14:45:31  5-MIN KMSN 052045Z 35006KT 10SM SCT065 BKN080 24/08 A3015 650 35 1900 350/06 RMK AO2
14837KMSN MSN20060705145012607/05/06 14:50:31  5-MIN KMSN 052050Z 33005KT 10SM SCT065 BKN080 24/09 A3015 650 36 1900 330/05 RMK AO2 SLP208 T02440089 58002
14837KMSN MSN20060705145509607/05/06 14:55:31  5-MIN KMSN 052055Z 33006KT 10SM FEW075 26/09 A3015 650 34 2100 330/06 RMK AO2
14837KMSN MSN20060705150009607/05/06 15:00:31  5-MIN KMSN 052100Z VRB03KT 10SM SCT075 26/08 A3015 660 33 2100 VRB/03 RMK AO2
14837KMSN MSN20060705150509607/05/06 15:05:31  5-MIN KMSN 052105Z 30010KT 10SM BKN075 26/08 A3015 660 32 2100 300/10 RMK AO2
14837KMSN MSN20060705151011907/05/06 15:10:31  5-MIN KMSN 052110Z 28008KT 250V310 10SM BKN075 BKN085 25/08 A3014 660 33 2000 280/08 250V310 RMK AO2
14837KMSN MSN20060705151509607/05/06 15:15:31  5-MIN KMSN 052115Z 31008KT 10SM BKN075 26/08 A3014 660 33 2100 310/08 RMK AO2
14837KMSN MSN20060705152009607/05/06 15:20:31  5-MIN KMSN 052120Z 30006KT 10SM SCT075 24/08 A3014 660 34 1900 300/06 RMK AO2
14837KMSN MSN20060705152509607/05/06 15:25:31  5-MIN KMSN 052125Z 34005KT 10SM SCT075 25/08 A3014 660 34 2000 340/05 RMK AO2
14837KMSN MSN20060705153009607/05/06 15:30:31  5-MIN KMSN 052130Z VRB03KT 10SM SCT075 26/08 A3014 660 32 2100 VRB/03 RMK AO2
14837KMSN MSN20060705153509607/05/06 15:35:31  5-MIN KMSN 052135Z 33006KT 10SM SCT075 26/09 A3014 660 34 2100 330/06 RMK AO2
14837KMSN MSN20060705154009607/05/06 15:40:31  5-MIN KMSN 052140Z VRB03KT 10SM SCT075 26/08 A3014 660 33 2100 VRB/03 RMK AO2
14837KMSN MSN20060705154509607/05/06 15:45:31  5-MIN KMSN 052145Z 36005KT 10SM SCT075 26/09 A3014 660 34 2100 360/05 RMK AO2
14837KMSN MSN20060705155011307/05/06 15:50:31  5-MIN KMSN 052150Z 31006KT 10SM FEW075 25/09 A3014 660 35 2000 310/06 RMK AO2 SLP204 T02500089
14837KMSN MSN20060705155509607/05/06 15:55:31  5-MIN KMSN 052155Z 34006KT 10SM FEW075 24/09 A3014 660 39 1900 340/06 RMK AO2
14837KMSN MSN20060705160009607/05/06 16:00:31  5-MIN KMSN 052200Z 35005KT 10SM FEW075 24/08 A3014 670 35 2000 350/05 RMK AO2
14837KMSN MSN20060705160509607/05/06 16:05:31  5-MIN KMSN 052205Z 34004KT 10SM FEW070 24/08 A3013 670 36 1900 340/04 RMK AO2
14837KMSN MSN20060705161009607/05/06 16:10:31  5-MIN KMSN 052210Z 35004KT 10SM SCT080 26/08 A3014 670 33 2100 350/04 RMK AO2
14837KMSN MSN20060705161509607/05/06 16:15:31  5-MIN KMSN 052215Z 31009KT 10SM SCT080 26/08 A3013 670 33 2100 310/09 RMK AO2
14837KMSN MSN20060705162009607/05/06 16:20:31  5-MIN KMSN 052220Z 32006KT 10SM SCT080 26/08 A3014 670 33 2100 320/06 RMK AO2
14837KMSN MSN20060705162509607/05/06 16:25:31  5-MIN KMSN 052225Z 35008KT 10SM SCT080 24/08 A3013 670 35 2000 350/08 RMK AO2
14837KMSN MSN20060705163009607/05/06 16:30:31  5-MIN KMSN 052230Z 33008KT 10SM SCT080 24/08 A3013 670 36 1900 330/08 RMK AO2
14837KMSN MSN20060705163509607/05/06 16:35:31  5-MIN KMSN 052235Z 32005KT 10SM SCT080 23/08 A3013 670 36 1800 320/05 RMK AO2
14837KMSN MSN20060705164010307/05/06 16:40:31  5-MIN KMSN 052240Z 33005KT 10SM SCT080 BKN095 24/08 A3013 670 36 1900 330/05 RMK AO2
14837KMSN MSN20060705164510307/05/06 16:45:31  5-MIN KMSN 052245Z 32005KT 10SM SCT080 BKN095 24/09 A3013 670 36 2000 320/05 RMK AO2
14837KMSN MSN20060705165012007/05/06 16:50:31  5-MIN KMSN 052250Z 33006KT 10SM SCT080 BKN095 24/09 A3013 670 39 1900 330/06 RMK AO2 SLP201 T02390094
14837KMSN MSN20060705165510307/05/06 16:55:31  5-MIN KMSN 052255Z 35006KT 10SM BKN075 BKN095 24/09 A3013 670 38 1900 350/06 RMK AO2
14837KMSN MSN20060705170010307/05/06 17:00:31  5-MIN KMSN 052300Z 34006KT 10SM BKN075 OVC095 23/09 A3013 670 41 1800 340/06 RMK AO2
14837KMSN MSN20060705170510307/05/06 17:05:31  5-MIN KMSN 052305Z 35003KT 10SM BKN075 OVC095 23/09 A3013 670 41 1800 340/03 RMK AO2
14837KMSN MSN20060705171010307/05/06 17:10:31  5-MIN KMSN 052310Z 35005KT 10SM BKN075 BKN100 25/10 A3013 670 38 2000 350/05 RMK AO2
14837KMSN MSN20060705171510307/05/06 17:15:31  5-MIN KMSN 052315Z 35005KT 10SM SCT075 BKN100 24/10 A3013 670 39 2000 350/05 RMK AO2
14837KMSN MSN20060705172010307/05/06 17:20:31  5-MIN KMSN 052320Z 34006KT 10SM SCT075 OVC100 24/09 A3013 670 38 2000 340/06 RMK AO2
14837KMSN MSN20060705172510307/05/06 17:25:31  5-MIN KMSN 052325Z 34006KT 10SM SCT075 OVC100 24/09 A3013 670 39 1900 340/06 RMK AO2
14837KMSN MSN20060705173010307/05/06 17:30:31  5-MIN KMSN 052330Z 33006KT 10SM FEW075 BKN100 24/10 A3013 670 39 2000 330/06 RMK AO2
14837KMSN MSN20060705173509607/05/06 17:35:31  5-MIN KMSN 052335Z 33005KT 10SM BKN100 25/11 A3013 670 39 2000 330/05 RMK AO2
14837KMSN MSN20060705174009607/05/06 17:40:31  5-MIN KMSN 052340Z 35009KT 10SM BKN100 25/09 A3013 670 37 2000 350/09 RMK AO2
14837KMSN MSN20060705174509607/05/06 17:45:31  5-MIN KMSN 052345Z 03009KT 10SM BKN100 24/09 A3013 670 38 2000 030/09 RMK AO2
14837KMSN MSN20060705175013107/05/06 17:50:31  5-MIN KMSN 052350Z 04008KT 10SM FEW100 24/09 A3013 670 38 1900 040/08 RMK AO2 SLP202 T02390089 10261 20233 57011
14837KMSN MSN20060705175509607/05/06 17:55:31  5-MIN KMSN 052355Z 04007KT 10SM FEW100 24/09 A3013 670 39 1900 040/07 RMK AO2
14837KMSN MSN20060705180009607/05/06 18:00:31  5-MIN KMSN 060000Z 04007KT 10SM FEW100 24/09 A3013 670 39 1900 040/07 RMK AO2
14837KMSN MSN20060705180509307/05/06 18:05:31  5-MIN KMSN 060005Z 04007KT 10SM CLR 24/09 A3013 670 39 1900 040/07 RMK AO2
14837KMSN MSN20060705181009607/05/06 18:10:31  5-MIN KMSN 060010Z 04006KT 10SM FEW100 23/09 A3013 670 41 1800 040/06 RMK AO2
14837KMSN MSN20060705181509607/05/06 18:15:31  5-MIN KMSN 060015Z 04005KT 10SM FEW100 23/10 A3014 670 42 1800 040/05 RMK AO2
14837KMSN MSN20060705182009607/05/06 18:20:31  5-MIN KMSN 060020Z 02003KT 10SM FEW100 23/10 A3014 660 42 1800 020/03 RMK AO2
14837KMSN MSN20060705182509607/05/06 18:25:31  5-MIN KMSN 060025Z 00000KT 10SM FEW100 23/11 A3014 660 44 1800 000/00 RMK AO2
14837KMSN MSN20060705183009607/05/06 18:30:31  5-MIN KMSN 060030Z 00000KT 10SM FEW100 23/11 A3014 660 45 1800 000/00 RMK AO2
14837KMSN MSN20060705183509607/05/06 18:35:31  5-MIN KMSN 060035Z 00000KT 10SM FEW100 23/12 A3014 660 49 1800 000/00 RMK AO2
14837KMSN MSN20060705184009607/05/06 18:40:31  5-MIN KMSN 060040Z 35003KT 10SM FEW100 22/12 A3014 660 51 1700 350/03 RMK AO2
14837KMSN MSN20060705184509607/05/06 18:45:31  5-MIN KMSN 060045Z 00000KT 10SM FEW100 22/11 A3014 660 49 1700 000/00 RMK AO2
14837KMSN MSN20060705185011307/05/06 18:50:31  5-MIN KMSN 060050Z 00000KT 10SM FEW100 22/11 A3014 660 49 1700 000/00 RMK AO2 SLP204 T02220111
14837KMSN MSN20060705185509607/05/06 18:55:31  5-MIN KMSN 060055Z 00000KT 10SM FEW100 21/12 A3014 660 54 1600 000/00 RMK AO2
14837KMSN MSN20060705190009607/05/06 19:00:31  5-MIN KMSN 060100Z 00000KT 10SM FEW100 21/12 A3014 660 58 1500 000/00 RMK AO2
14837KMSN MSN20060705190509607/05/06 19:05:31  5-MIN KMSN 060105Z 00000KT 10SM FEW100 21/12 A3014 660 56 1500 000/00 RMK AO2
14837KMSN MSN20060705191009607/05/06 19:10:31  5-MIN KMSN 060110Z 00000KT 10SM FEW100 21/12 A3014 660 56 1500 000/00 RMK AO2
14837KMSN MSN20060705191509607/05/06 19:15:31  5-MIN KMSN 060115Z 00000KT 10SM FEW100 21/12 A3014 660 56 1500 000/00 RMK AO2
14837KMSN MSN20060705192009607/05/06 19:20:31  5-MIN KMSN 060120Z 00000KT 10SM FEW100 19/12 A3014 660 60 1400 000/00 RMK AO2
14837KMSN MSN20060705192509607/05/06 19:25:31  5-MIN KMSN 060125Z 00000KT 10SM FEW100 20/12 A3014 660 58 1400 000/00 RMK AO2
14837KMSN MSN20060705193009607/05/06 19:30:31  5-MIN KMSN 060130Z 00000KT 10SM FEW100 20/12 A3014 660 60 1400 000/00 RMK AO2
14837KMSN MSN20060705193509607/05/06 19:35:31  5-MIN KMSN 060135Z 00000KT 10SM FEW100 19/12 A3014 660 60 1400 000/00 RMK AO2
14837KMSN MSN20060705194009607/05/06 19:40:31  5-MIN KMSN 060140Z 00000KT 10SM FEW100 18/12 A3014 660 65 1200 000/00 RMK AO2
14837KMSN MSN20060705194509607/05/06 19:45:31  5-MIN KMSN 060145Z 00000KT 10SM FEW100 18/12 A3014 660 65 1200 000/00 RMK AO2
14837KMSN MSN20060705195011307/05/06 19:50:31  5-MIN KMSN 060150Z 00000KT 10SM FEW100 18/12 A3014 660 67 1200 000/00 RMK AO2 SLP204 T01780117
14837KMSN MSN20060705195509607/05/06 19:55:31  5-MIN KMSN 060155Z 00000KT 10SM FEW100 18/12 A3014 660 65 1200 000/00 RMK AO2
14837KMSN MSN20060705200009607/05/06 20:00:31  5-MIN KMSN 060200Z 00000KT 10SM FEW100 18/11 A3014 660 62 1200 000/00 RMK AO2
14837KMSN MSN20060705200509607/05/06 20:05:31  5-MIN KMSN 060205Z 00000KT 10SM FEW100 18/12 A3014 660 67 1200 000/00 RMK AO2
14837KMSN MSN20060705201009607/05/06 20:10:31  5-MIN KMSN 060210Z 00000KT 10SM FEW100 18/12 A3014 660 67 1200 000/00 RMK AO2
14837KMSN MSN20060705201509607/05/06 20:15:31  5-MIN KMSN 060215Z 00000KT 10SM FEW100 18/12 A3014 660 67 1200 000/00 RMK AO2
14837KMSN MSN20060705202009307/05/06 20:20:31  5-MIN KMSN 060220Z 00000KT 10SM CLR 17/12 A3015 660 72 1000 000/00 RMK AO2
14837KMSN MSN20060705202509307/05/06 20:25:31  5-MIN KMSN 060225Z 00000KT 10SM CLR 17/11 A3015 650 69 1000 000/00 RMK AO2
14837KMSN MSN20060705203009307/05/06 20:30:31  5-MIN KMSN 060230Z 00000KT 10SM CLR 17/12 A3015 650 72 1000 000/00 RMK AO2
14837KMSN MSN20060705203509307/05/06 20:35:31  5-MIN KMSN 060235Z 00000KT 10SM CLR 17/11 A3015 650 69 1000 000/00 RMK AO2
14837KMSN MSN20060705204009307/05/06 20:40:31  5-MIN KMSN 060240Z 28003KT 10SM CLR 17/11 A3016 650 67 1100 280/03 RMK AO2
14837KMSN MSN20060705204509207/05/06 20:45:31  5-MIN KMSN 060245Z 00000KT 10SM CLR 16/11 A3016 650 74 900 000/00 RMK AO2
14837KMSN MSN20060705205011607/05/06 20:50:31  5-MIN KMSN 060250Z 00000KT 10SM CLR 16/11 A3016 650 72 1000 000/00 RMK AO2 SLP209 T01610111 55006
14837KMSN MSN20060705205509307/05/06 20:55:31  5-MIN KMSN 060255Z 00000KT 10SM CLR 16/12 A3016 640 75 1000 000/00 RMK AO2
14837KMSN MSN20060705210009307/05/06 21:00:31  5-MIN KMSN 060300Z 00000KT 10SM CLR 16/12 A3016 640 75 1000 000/00 RMK AO2
14837KMSN MSN20060705210509307/05/06 21:05:31  5-MIN KMSN 060305Z 00000KT 10SM CLR 17/11 A3016 640 69 1000 000/00 RMK AO2
14837KMSN MSN20060705211009307/05/06 21:10:31  5-MIN KMSN 060310Z 00000KT 10SM CLR 17/11 A3017 640 64 1100 000/00 RMK AO2
14837KMSN MSN20060705211509307/05/06 21:15:31  5-MIN KMSN 060315Z 00000KT 10SM CLR 16/11 A3017 640 72 1000 000/00 RMK AO2
14837KMSN MSN20060705212009307/05/06 21:20:31  5-MIN KMSN 060320Z 00000KT 10SM CLR 16/11 A3017 640 72 1000 000/00 RMK AO2
14837KMSN MSN20060705212509307/05/06 21:25:31  5-MIN KMSN 060325Z 00000KT 10SM CLR 17/11 A3017 630 67 1000 000/00 RMK AO2
14837KMSN MSN20060705213009307/05/06 21:30:31  5-MIN KMSN 060330Z 00000KT 10SM CLR 17/11 A3017 630 67 1000 000/00 RMK AO2
14837KMSN MSN20060705213509207/05/06 21:35:31  5-MIN KMSN 060335Z 00000KT 10SM CLR 16/11 A3018 630 69 900 000/00 RMK AO2
14837KMSN MSN20060705214009207/05/06 21:40:31  5-MIN KMSN 060340Z 00000KT 10SM CLR 16/11 A3018 630 72 900 000/00 RMK AO2
14837KMSN MSN20060705214509207/05/06 21:45:31  5-MIN KMSN 060345Z 00000KT 10SM CLR 16/11 A3018 630 72 900 000/00 RMK AO2
14837KMSN MSN20060705215010907/05/06 21:50:31  5-MIN KMSN 060350Z 00000KT 10SM CLR 16/12 A3018 630 75 900 000/00 RMK AO2 SLP217 T01610117
14837KMSN MSN20060705215509207/05/06 21:55:31  5-MIN KMSN 060355Z 00000KT 10SM CLR 16/12 A3018 630 77 900 000/00 RMK AO2
14837KMSN MSN20060705220009207/05/06 22:00:31  5-MIN KMSN 060400Z 00000KT 10SM CLR 15/12 A3018 630 83 800 000/00 RMK AO2
14837KMSN MSN20060705220509207/05/06 22:05:31  5-MIN KMSN 060405Z 00000KT 10SM CLR 16/12 A3018 620 77 900 000/00 RMK AO2
14837KMSN MSN20060705221009207/05/06 22:10:31  5-MIN KMSN 060410Z 00000KT 10SM CLR 16/11 A3018 620 74 900 000/00 RMK AO2
14837KMSN MSN20060705221509207/05/06 22:15:31  5-MIN KMSN 060415Z 00000KT 10SM CLR 15/11 A3018 630 77 800 000/00 RMK AO2
14837KMSN MSN20060705222009207/05/06 22:20:31  5-MIN KMSN 060420Z 00000KT 10SM CLR 15/11 A3018 620 77 800 000/00 RMK AO2
14837KMSN MSN20060705222509207/05/06 22:25:31  5-MIN KMSN 060425Z 00000KT 10SM CLR 16/11 A3018 620 74 900 000/00 RMK AO2
14837KMSN MSN20060705223009207/05/06 22:30:31  5-MIN KMSN 060430Z 00000KT 10SM CLR 15/11 A3018 620 77 800 000/00 RMK AO2
14837KMSN MSN20060705223509207/05/06 22:35:31  5-MIN KMSN 060435Z 00000KT 10SM CLR 15/11 A3018 620 77 800 000/00 RMK AO2
14837KMSN MSN20060705224009207/05/06 22:40:31  5-MIN KMSN 060440Z 00000KT 10SM CLR 15/11 A3018 620 77 800 000/00 RMK AO2
14837KMSN MSN20060705224509207/05/06 22:45:31  5-MIN KMSN 060445Z 00000KT 10SM CLR 14/11 A3019 620 80 700 000/00 RMK AO2
14837KMSN MSN20060705225010907/05/06 22:50:31  5-MIN KMSN 060450Z 00000KT 10SM CLR 14/11 A3019 620 80 700 000/00 RMK AO2 SLP220 T01440111
14837KMSN MSN20060705225509207/05/06 22:55:31  5-MIN KMSN 060455Z 00000KT 10SM CLR 14/11 A3019 620 80 700 000/00 RMK AO2
14837KMSN MSN20060705230009207/05/06 23:00:31  5-MIN KMSN 060500Z 00000KT 10SM CLR 14/11 A3019 620 80 700 000/00 RMK AO2
14837KMSN MSN20060705230509207/05/06 23:05:31  5-MIN KMSN 060505Z 00000KT 10SM CLR 15/12 A3019 620 80 800 000/00 RMK AO2
14837KMSN MSN20060705231009207/05/06 23:10:31  5-MIN KMSN 060510Z 00000KT 10SM CLR 15/12 A3019 620 83 800 000/00 RMK AO2
14837KMSN MSN20060705231509207/05/06 23:15:31  5-MIN KMSN 060515Z 00000KT 10SM CLR 15/12 A3019 610 83 800 000/00 RMK AO2
14837KMSN MSN20060705232009207/05/06 23:20:31  5-MIN KMSN 060520Z 00000KT 10SM CLR 15/12 A3019 610 83 800 000/00 RMK AO2
14837KMSN MSN20060705232509207/05/06 23:25:31  5-MIN KMSN 060525Z 00000KT 10SM CLR 14/12 A3019 610 86 700 000/00 RMK AO2
14837KMSN MSN20060705233009207/05/06 23:30:31  5-MIN KMSN 060530Z 00000KT 10SM CLR 14/12 A3019 610 83 700 000/00 RMK AO2
14837KMSN MSN20060705233509207/05/06 23:35:31  5-MIN KMSN 060535Z 00000KT 10SM CLR 14/12 A3019 610 86 700 000/00 RMK AO2
14837KMSN MSN20060705234009207/05/06 23:40:31  5-MIN KMSN 060540Z 00000KT 10SM CLR 14/12 A3020 610 86 700 000/00 RMK AO2
14837KMSN MSN20060705234509207/05/06 23:45:31  5-MIN KMSN 060545Z 00000KT 10SM CLR 14/12 A3020 610 86 700 000/00 RMK AO2
14837KMSN MSN20060705235013707/05/06 23:50:31  5-MIN KMSN 060550Z 00000KT 10SM CLR 14/12 A3020 610 86 700 000/00 RMK AO2 SLP223 T01390117 10239 20139 402610111 53009
14837KMSN MSN20060705235509207/05/06 23:55:31  5-MIN KMSN 060555Z 00000KT 10SM CLR 14/12 A3020 610 83 700 000/00 RMK AO2
14837KMSN MSN20060706000009207/06/06 00:00:38  5-MIN KMSN 060600Z 00000KT 10SM CLR 14/12 A3020 610 83 700 000/00 RMK AO2
14837KMSN MSN20060706000509207/06/06 00:05:31  5-MIN KMSN 060605Z 00000KT 10SM CLR 14/12 A3020 610 86 700 000/00 RMK AO2
14837KMSN MSN20060706001009207/06/06 00:10:31  5-MIN KMSN 060610Z 00000KT 10SM CLR 14/12 A3020 610 86 700 000/00 RMK AO2
14837KMSN MSN20060706001509207/06/06 00:15:31  5-MIN KMSN 060615Z 00000KT 10SM CLR 16/12 A3020 610 75 900 000/00 RMK AO2
14837KMSN MSN20060706002009207/06/06 00:20:31  5-MIN KMSN 060620Z 00000KT 10SM CLR 15/12 A3020 610 80 800 000/00 RMK AO2
14837KMSN MSN20060706002509207/06/06 00:25:31  5-MIN KMSN 060625Z 00000KT 10SM CLR 16/12 A3020 610 77 900 000/00 RMK AO2
14837KMSN MSN20060706003009207/06/06 00:30:31  5-MIN KMSN 060630Z 00000KT 10SM CLR 14/11 A3020 600 80 700 000/00 RMK AO2
14837KMSN MSN20060706003509207/06/06 00:35:31  5-MIN KMSN 060635Z 00000KT 10SM CLR 14/12 A3020 600 83 700 000/00 RMK AO2
14837KMSN MSN20060706004009207/06/06 00:40:31  5-MIN KMSN 060640Z 00000KT 10SM CLR 14/11 A3021 600 83 700 000/00 RMK AO2
14837KMSN MSN20060706004509507/06/06 00:45:31  5-MIN KMSN 060645Z VRB03KT 10SM FEW095 14/11 A3021 600 83 600 VRB/03 RMK AO2
14837KMSN MSN20060706005011207/06/06 00:50:31  5-MIN KMSN 060650Z 29004KT 10SM SCT095 16/12 A3021 600 77 800 290/04 RMK AO2 SLP227 T01560117
14837KMSN MSN20060706005509507/06/06 00:55:31  5-MIN KMSN 060655Z 29004KT 10SM BKN095 16/12 A3021 600 77 800 290/04 RMK AO2
14837KMSN MSN20060706010009507/06/06 01:00:31  5-MIN KMSN 060700Z 30003KT 10SM BKN095 16/12 A3021 600 77 800 300/03 RMK AO2
14837KMSN MSN20060706010509507/06/06 01:05:31  5-MIN KMSN 060705Z 00000KT 10SM BKN095 16/12 A3021 600 77 800 000/00 RMK AO2
14837KMSN MSN20060706011009507/06/06 01:10:31  5-MIN KMSN 060710Z 33003KT 10SM BKN095 15/12 A3021 600 80 800 330/03 RMK AO2
14837KMSN MSN20060706011509507/06/06 01:15:31  5-MIN KMSN 060715Z 31004KT 10SM BKN095 14/12 A3021 600 83 700 310/04 RMK AO2
14837KMSN MSN20060706012009507/06/06 01:20:31  5-MIN KMSN 060720Z 00000KT 10SM BKN090 14/12 A3021 600 83 700 000/00 RMK AO2
14837KMSN MSN20060706012509507/06/06 01:25:31  5-MIN KMSN 060725Z 33003KT 10SM BKN090 14/12 A3021 590 86 600 330/03 RMK AO2
14837KMSN MSN20060706013009507/06/06 01:30:31  5-MIN KMSN 060730Z 02004KT 10SM SCT090 13/12 A3021 590 89 600 010/04 RMK AO2
14837KMSN MSN20060706013509507/06/06 01:35:31  5-MIN KMSN 060735Z 02004KT 10SM FEW090 13/11 A3021 590 86 600 020/04 RMK AO2
14837KMSN MSN20060706014010207/06/06 01:40:31  5-MIN KMSN 060740Z 02003KT 10SM SCT080 SCT095 13/11 A3022 590 86 600 020/03 RMK AO2
14837KMSN MSN20060706014510207/06/06 01:45:31  5-MIN KMSN 060745Z 00000KT 10SM SCT075 SCT095 13/11 A3022 590 86 600 000/00 RMK AO2
14837KMSN MSN20060706015011907/06/06 01:50:31  5-MIN KMSN 060750Z 00000KT 10SM SCT075 SCT095 14/12 A3022 590 86 600 000/00 RMK AO2 SLP229 T01390117
14837KMSN MSN20060706015509507/06/06 01:55:31  5-MIN KMSN 060755Z 00000KT 10SM SCT075 14/12 A3021 590 83 700 000/00 RMK AO2
14837KMSN MSN20060706020009507/06/06 02:00:31  5-MIN KMSN 060800Z 00000KT 10SM FEW075 14/12 A3021 590 83 700 000/00 RMK AO2
14837KMSN MSN20060706020509507/06/06 02:05:31  5-MIN KMSN 060805Z 00000KT 10SM FEW075 14/12 A3022 590 86 600 000/00 RMK AO2
14837KMSN MSN20060706021009507/06/06 02:10:31  5-MIN KMSN 060810Z 00000KT 10SM FEW075 14/12 A3022 590 90 600 000/00 RMK AO2
14837KMSN MSN20060706021509507/06/06 02:15:31  5-MIN KMSN 060815Z 00000KT 10SM FEW075 14/12 A3022 590 86 600 000/00 RMK AO2
14837KMSN MSN20060706022009207/06/06 02:20:31  5-MIN KMSN 060820Z 00000KT 10SM CLR 13/12 A3022 590 89 600 000/00 RMK AO2
14837KMSN MSN20060706022509207/06/06 02:25:31  5-MIN KMSN 060825Z 00000KT 10SM CLR 13/12 A3022 590 89 600 000/00 RMK AO2
14837KMSN MSN20060706023009207/06/06 02:30:31  5-MIN KMSN 060830Z 00000KT 10SM CLR 13/12 A3022 590 89 600 000/00 RMK AO2
14837KMSN MSN20060706023509507/06/06 02:35:31  5-MIN KMSN 060835Z 00000KT 10SM FEW080 13/12 A3022 590 89 600 000/00 RMK AO2
14837KMSN MSN20060706024009507/06/06 02:40:31  5-MIN KMSN 060840Z 00000KT 10SM SCT080 13/12 A3022 590 89 600 000/00 RMK AO2
14837KMSN MSN20060706024509507/06/06 02:45:31  5-MIN KMSN 060845Z 00000KT 10SM BKN080 13/12 A3022 590 89 600 000/00 RMK AO2
14837KMSN MSN20060706025011807/06/06 02:50:31  5-MIN KMSN 060850Z 00000KT 10SM BKN080 13/12 A3022 580 89 600 000/00 RMK AO2 SLP233 T01330117 51012
14837KMSN MSN20060706025509407/06/06 02:55:31  5-MIN KMSN 060855Z 00000KT 9SM BKN080 13/12 A3022 580 93 500 000/00 RMK AO2
14837KMSN MSN20060706030009407/06/06 03:00:31  5-MIN KMSN 060900Z 00000KT 9SM BKN080 13/12 A3022 590 93 500 000/00 RMK AO2
14837KMSN MSN20060706030509407/06/06 03:05:31  5-MIN KMSN 060905Z 00000KT 9SM BKN080 13/12 A3022 590 93 600 000/00 RMK AO2
14837KMSN MSN20060706031009507/06/06 03:10:31  5-MIN KMSN 060910Z 00000KT 10SM BKN080 14/12 A3022 590 86 600 000/00 RMK AO2
14837KMSN MSN20060706031509507/06/06 03:15:31  5-MIN KMSN 060915Z 00000KT 10SM BKN085 14/12 A3023 580 86 600 000/00 RMK AO2
14837KMSN MSN20060706032009507/06/06 03:20:31  5-MIN KMSN 060920Z 00000KT 10SM BKN085 13/12 A3023 580 89 600 000/00 RMK AO2
14837KMSN MSN20060706032509407/06/06 03:25:31  5-MIN KMSN 060925Z 00000KT 9SM BKN080 13/12 A3023 580 93 600 000/00 RMK AO2
14837KMSN MSN20060706033009407/06/06 03:30:31  5-MIN KMSN 060930Z 00000KT 9SM BKN080 13/12 A3023 580 89 600 000/00 RMK AO2
14837KMSN MSN20060706033509407/06/06 03:35:31  5-MIN KMSN 060935Z 00000KT 9SM OVC080 13/12 A3023 580 93 600 000/00 RMK AO2
14837KMSN MSN20060706034009507/06/06 03:40:31  5-MIN KMSN 060940Z 00000KT 10SM BKN080 14/12 A3023 580 90 600 000/00 RMK AO2
14837KMSN MSN20060706034509407/06/06 03:45:31  5-MIN KMSN 060945Z 36004KT 9SM BKN085 14/12 A3024 570 90 600 360/04 RMK AO2
14837KMSN MSN20060706035011107/06/06 03:50:31  5-MIN KMSN 060950Z 00000KT 9SM BKN085 13/12 A3024 570 89 500 000/00 RMK AO2 SLP236 T01330117
14837KMSN MSN20060706035509407/06/06 03:55:31  5-MIN KMSN 060955Z 00000KT 9SM BKN085 13/12 A3024 570 89 600 000/00 RMK AO2
14837KMSN MSN20060706040009407/06/06 04:00:31  5-MIN KMSN 061000Z 00000KT 9SM BKN090 13/12 A3024 570 89 500 000/00 RMK AO2
14837KMSN MSN20060706040509407/06/06 04:05:31  5-MIN KMSN 061005Z 00000KT 9SM BKN090 13/12 A3024 570 89 500 000/00 RMK AO2
14837KMSN MSN20060706041009407/06/06 04:10:31  5-MIN KMSN 061010Z 00000KT 8SM BKN090 13/12 A3024 570 93 500 000/00 RMK AO2
14837KMSN MSN20060706041509407/06/06 04:15:31  5-MIN KMSN 061015Z 00000KT 7SM SCT090 13/12 A3024 570 93 500 000/00 RMK AO2
14837KMSN MSN20060706042009707/06/06 04:20:31  5-MIN KMSN 061020Z 00000KT 6SM BR FEW085 12/12 A3024 570 96 400 000/00 RMK AO2
14837KMSN MSN20060706042509707/06/06 04:25:31  5-MIN KMSN 061025Z 00000KT 6SM BR FEW085 12/12 A3025 560 96 400 000/00 RMK AO2
14837KMSN MSN20060706043009407/06/06 04:30:31  5-MIN KMSN 061030Z 00000KT 6SM BR CLR 12/11 A3025 560 93 400 000/00 RMK AO2
14837KMSN MSN20060706043509107/06/06 04:35:31  5-MIN KMSN 061035Z 00000KT 7SM CLR 13/12 A3025 560 93 500 000/00 RMK AO2
14837KMSN MSN20060706044009107/06/06 04:40:31  5-MIN KMSN 061040Z 00000KT 7SM CLR 12/12 A3025 560 96 400 000/00 RMK AO2
14837KMSN MSN20060706044509707/06/06 04:45:31  5-MIN KMSN 061045Z 00000KT 6SM BR FEW075 12/11 A3025 560 93 400 000/00 RMK AO2
14837KMSN MSN20060706045011407/06/06 04:50:31  5-MIN KMSN 061050Z 00000KT 6SM BR SCT080 12/12 A3025 560 96 400 000/00 RMK AO2 SLP241 T01220117
14837KMSN MSN20060706045509707/06/06 04:55:31  5-MIN KMSN 061055Z 00000KT 6SM BR FEW080 12/12 A3025 560 96 400 000/00 RMK AO2
14837KMSN MSN20060706050009707/06/06 05:00:31  5-MIN KMSN 061100Z 00000KT 6SM BR FEW075 13/12 A3025 560 93 500 000/00 RMK AO2
14837KMSN MSN20060706050509407/06/06 05:05:31  5-MIN KMSN 061105Z 00000KT 7SM FEW075 13/11 A3026 560 89 500 000/00 RMK AO2
14837KMSN MSN20060706051009407/06/06 05:10:31  5-MIN KMSN 061110Z 00000KT 9SM FEW080 13/11 A3026 560 86 500 000/00 RMK AO2
14837KMSN MSN20060706051509407/06/06 05:15:31  5-MIN KMSN 061115Z 00000KT 9SM FEW080 13/11 A3026 550 86 500 000/00 RMK AO2
14837KMSN MSN20060706052009107/06/06 05:20:31  5-MIN KMSN 061120Z 00000KT 8SM CLR 13/12 A3026 550 89 500 000/00 RMK AO2
14837KMSN MSN20060706052509107/06/06 05:25:31  5-MIN KMSN 061125Z 00000KT 7SM CLR 13/12 A3026 550 93 500 000/00 RMK AO2
14837KMSN MSN20060706053009107/06/06 05:30:31  5-MIN KMSN 061130Z 00000KT 7SM CLR 13/12 A3026 550 93 500 000/00 RMK AO2
14837KMSN MSN20060706053509107/06/06 05:35:31  5-MIN KMSN 061135Z 00000KT 7SM CLR 13/12 A3026 550 93 500 000/00 RMK AO2
14837KMSN MSN20060706054009407/06/06 05:40:31  5-MIN KMSN 061140Z 00000KT 6SM BR CLR 14/12 A3027 550 90 600 000/00 RMK AO2
14837KMSN MSN20060706054509407/06/06 05:45:31  5-MIN KMSN 061145Z 00000KT 6SM BR CLR 14/13 A3027 540 93 600 000/00 RMK AO2
14837KMSN MSN20060706055012607/06/06 05:50:31  5-MIN KMSN 061150Z 00000KT 7SM CLR 14/13 A3027 550 90 600 000/00 RMK AO2 SLP246 T01440128 10161 20122 51009
14837KMSN MSN20060706055509107/06/06 05:55:31  5-MIN KMSN 061155Z 00000KT 7SM CLR 16/13 A3027 550 86 800 000/00 RMK AO2
14837KMSN MSN20060706060009107/06/06 06:00:31  5-MIN KMSN 061200Z 00000KT 7SM CLR 16/13 A3027 550 83 800 000/00 RMK AO2
14837KMSN MSN20060706060509107/06/06 06:05:31  5-MIN KMSN 061205Z 00000KT 7SM CLR 16/14 A3027 540 86 800 000/00 RMK AO2
14837KMSN MSN20060706061009107/06/06 06:10:31  5-MIN KMSN 061210Z 00000KT 8SM CLR 17/14 A3027 540 83 900 000/00 RMK AO2
14837KMSN MSN20060706061509107/06/06 06:15:31  5-MIN KMSN 061215Z 00000KT 8SM CLR 17/14 A3027 540 83 900 000/00 RMK AO2
14837KMSN MSN20060706062009207/06/06 06:20:31  5-MIN KMSN 061220Z 00000KT 8SM CLR 17/13 A3027 540 78 1000 000/00 RMK AO2
14837KMSN MSN20060706062509207/06/06 06:25:31  5-MIN KMSN 061225Z 00000KT 9SM CLR 18/14 A3027 540 78 1000 000/00 RMK AO2
14837KMSN MSN20060706063009207/06/06 06:30:31  5-MIN KMSN 061230Z 00000KT 9SM CLR 18/14 A3027 540 78 1000 000/00 RMK AO2
14837KMSN MSN20060706063509207/06/06 06:35:31  5-MIN KMSN 061235Z 00000KT 9SM CLR 18/14 A3027 540 78 1000 000/00 RMK AO2
14837KMSN MSN20060706064009207/06/06 06:40:31  5-MIN KMSN 061240Z 00000KT 9SM CLR 18/14 A3027 540 75 1100 000/00 RMK AO2
14837KMSN MSN20060706064509207/06/06 06:45:31  5-MIN KMSN 061245Z 00000KT 9SM CLR 19/14 A3027 540 72 1200 000/00 RMK AO2
14837KMSN MSN20060706065010907/06/06 06:50:31  5-MIN KMSN 061250Z 02003KT 9SM CLR 19/14 A3028 540 72 1200 020/03 RMK AO2 SLP249 T01890139
14837KMSN MSN20060706065509207/06/06 06:55:31  5-MIN KMSN 061255Z 01003KT 9SM CLR 19/13 A3028 540 70 1200 360/03 RMK AO2
14837KMSN MSN20060706070009207/06/06 07:00:31  5-MIN KMSN 061300Z 01003KT 9SM CLR 19/14 A3028 530 70 1200 360/03 RMK AO2
14837KMSN MSN20060706070509207/06/06 07:05:31  5-MIN KMSN 061305Z 01004KT 9SM CLR 19/14 A3028 540 70 1200 010/04 RMK AO2
14837KMSN MSN20060706071009307/06/06 07:10:31  5-MIN KMSN 061310Z 01003KT 10SM CLR 19/14 A3028 530 70 1200 010/03 RMK AO2
14837KMSN MSN20060706071509307/06/06 07:15:31  5-MIN KMSN 061315Z 00000KT 10SM CLR 19/13 A3028 530 67 1200 000/00 RMK AO2
14837KMSN MSN20060706072009307/06/06 07:20:31  5-MIN KMSN 061320Z 00000KT 10SM CLR 20/14 A3028 530 67 1300 000/00 RMK AO2
14837KMSN MSN20060706072509307/06/06 07:25:31  5-MIN KMSN 061325Z 00000KT 10SM CLR 20/14 A3028 530 67 1300 000/00 RMK AO2
14837KMSN MSN20060706073009307/06/06 07:30:31  5-MIN KMSN 061330Z 00000KT 10SM CLR 21/14 A3028 530 67 1300 000/00 RMK AO2
14837KMSN MSN20060706073509307/06/06 07:35:31  5-MIN KMSN 061335Z 00000KT 10SM CLR 20/14 A3029 530 67 1300 000/00 RMK AO2
14837KMSN MSN20060706074009307/06/06 07:40:31  5-MIN KMSN 061340Z 00000KT 10SM CLR 21/13 A3029 530 63 1300 000/00 RMK AO2
14837KMSN MSN20060706074509307/06/06 07:45:31  5-MIN KMSN 061345Z 00000KT 10SM CLR 21/12 A3029 530 56 1400 000/00 RMK AO2
14837KMSN MSN20060706075011007/06/06 07:50:31  5-MIN KMSN 061350Z 00000KT 10SM CLR 21/12 A3029 520 56 1400 000/00 RMK AO2 SLP255 T02110122
14837KMSN MSN20060706075509307/06/06 07:55:31  5-MIN KMSN 061355Z 00000KT 10SM CLR 21/12 A3029 520 54 1400 000/00 RMK AO2
14837KMSN MSN20060706080009307/06/06 08:00:31  5-MIN KMSN 061400Z 00000KT 10SM CLR 22/13 A3029 520 56 1500 000/00 RMK AO2
14837KMSN MSN20060706080509307/06/06 08:05:31  5-MIN KMSN 061405Z 00000KT 10SM CLR 22/13 A3030 520 58 1500 000/00 RMK AO2
14837KMSN MSN20060706081009307/06/06 08:10:31  5-MIN KMSN 061410Z 00000KT 10SM CLR 21/13 A3030 520 61 1400 000/00 RMK AO2
14837KMSN MSN20060706081509307/06/06 08:15:31  5-MIN KMSN 061415Z 00000KT 10SM CLR 22/13 A3030 520 58 1500 000/00 RMK AO2
14837KMSN MSN20060706082009307/06/06 08:20:31  5-MIN KMSN 061420Z 00000KT 10SM CLR 22/13 A3030 520 58 1500 000/00 RMK AO2
14837KMSN MSN20060706082509307/06/06 08:25:31  5-MIN KMSN 061425Z 33003KT 10SM CLR 22/13 A3030 520 56 1500 330/03 RMK AO2
14837KMSN MSN20060706083009307/06/06 08:30:31  5-MIN KMSN 061430Z 00000KT 10SM CLR 22/13 A3030 510 58 1400 000/00 RMK AO2
14837KMSN MSN20060706083509307/06/06 08:35:31  5-MIN KMSN 061435Z VRB03KT 10SM CLR 22/13 A3030 510 56 1500 VRB/03 RMK AO2
14837KMSN MSN20060706084009307/06/06 08:40:31  5-MIN KMSN 061440Z 35003KT 10SM CLR 22/13 A3030 510 56 1500 350/03 RMK AO2
14837KMSN MSN20060706084509307/06/06 08:45:31  5-MIN KMSN 061445Z VRB03KT 10SM CLR 23/14 A3030 520 57 1600 VRB/03 RMK AO2
14837KMSN MSN20060706085011607/06/06 08:50:31  5-MIN KMSN 061450Z 01004KT 10SM CLR 23/13 A3030 520 51 1600 360/04 RMK AO2 SLP257 T02330128 53014
14837KMSN MSN20060706085509307/06/06 08:55:31  5-MIN KMSN 061455Z 33003KT 10SM CLR 23/13 A3030 520 51 1600 330/03 RMK AO2
14837KMSN MSN20060706090009307/06/06 09:00:31  5-MIN KMSN 061500Z 35003KT 10SM CLR 23/13 A3030 520 53 1600 350/03 RMK AO2
14837KMSN MSN20060706090509307/06/06 09:05:31  5-MIN KMSN 061505Z 00000KT 10SM CLR 23/12 A3030 520 49 1600 000/00 RMK AO2
14837KMSN MSN20060706091009307/06/06 09:10:31  5-MIN KMSN 061510Z VRB04KT 10SM CLR 24/13 A3030 520 49 1700 VRB/04 RMK AO2
14837KMSN MSN20060706091509307/06/06 09:15:31  5-MIN KMSN 061515Z 33004KT 10SM CLR 24/13 A3030 520 49 1700 330/04 RMK AO2
14837KMSN MSN20060706092009307/06/06 09:20:31  5-MIN KMSN 061520Z 34003KT 10SM CLR 24/13 A3029 520 49 1700 340/03 RMK AO2
14837KMSN MSN20060706092509307/06/06 09:25:31  5-MIN KMSN 061525Z VRB05KT 10SM CLR 24/13 A3029 520 47 1800 VRB/05 RMK AO2
14837KMSN MSN20060706093009307/06/06 09:30:31  5-MIN KMSN 061530Z VRB04KT 10SM CLR 24/11 A3029 520 42 1800 VRB/04 RMK AO2
14837KMSN MSN20060706093509307/06/06 09:35:31  5-MIN KMSN 061535Z VRB05KT 10SM CLR 25/11 A3029 520 41 1800 VRB/05 RMK AO2
14837KMSN MSN20060706094009307/06/06 09:40:31  5-MIN KMSN 061540Z 35004KT 10SM CLR 25/11 A3029 520 41 1800 350/04 RMK AO2
14837KMSN MSN20060706094509307/06/06 09:45:31  5-MIN KMSN 061545Z 00000KT 10SM CLR 24/11 A3029 520 41 1800 000/00 RMK AO2
14837KMSN MSN20060706095011007/06/06 09:50:31  5-MIN KMSN 061550Z VRB06KT 10SM CLR 26/12 A3029 520 41 1900 VRB/06 RMK AO2 SLP254 T02560117
14837KMSN MSN20060706095509307/06/06 09:55:31  5-MIN KMSN 061555Z 05006KT 10SM CLR 25/10 A3029 520 38 1800 050/06 RMK AO2
14837KMSN MSN20060706100009307/06/06 10:00:31  5-MIN KMSN 061600Z VRB05KT 10SM CLR 25/09 A3029 520 35 1800 VRB/05 RMK AO2
14837KMSN MSN20060706100509307/06/06 10:05:31  5-MIN KMSN 061605Z 04004KT 10SM CLR 26/10 A3030 520 37 1900 040/04 RMK AO2
14837KMSN MSN20060706101009307/06/06 10:10:31  5-MIN KMSN 061610Z 36005KT 10SM CLR 26/09 A3029 520 35 1900 360/05 RMK AO2
14837KMSN MSN20060706101509307/06/06 10:15:31  5-MIN KMSN 061615Z 03005KT 10SM CLR 26/09 A3029 520 35 1900 030/05 RMK AO2
14837KMSN MSN20060706102009307/06/06 10:20:31  5-MIN KMSN 061620Z VRB03KT 10SM CLR 25/09 A3029 520 35 1800 VRB/03 RMK AO2
14837KMSN MSN20060706102509307/06/06 10:25:31  5-MIN KMSN 061625Z VRB05KT 10SM CLR 26/11 A3029 520 37 2000 VRB/05 RMK AO2
14837KMSN MSN20060706103009307/06/06 10:30:31  5-MIN KMSN 061630Z 02007KT 10SM CLR 26/10 A3029 520 36 2000 010/07 RMK AO2
14837KMSN MSN20060706103509307/06/06 10:35:31  5-MIN KMSN 061635Z 05007KT 10SM CLR 26/09 A3029 520 35 1900 050/07 RMK AO2
14837KMSN MSN20060706104009307/06/06 10:40:31  5-MIN KMSN 061640Z 05003KT 10SM CLR 26/09 A3029 520 34 1900 050/03 RMK AO2
14837KMSN MSN20060706104509307/06/06 10:45:31  5-MIN KMSN 061645Z VRB04KT 10SM CLR 26/09 A3029 520 35 1900 VRB/04 RMK AO2
14837KMSN MSN20060706105011007/06/06 10:50:31  5-MIN KMSN 061650Z VRB06KT 10SM CLR 26/09 A3029 520 34 2000 VRB/06 RMK AO2 SLP255 T02610094
14837KMSN MSN20060706105509307/06/06 10:55:31  5-MIN KMSN 061655Z 02004KT 10SM CLR 26/09 A3029 520 34 1900 020/04 RMK AO2
14837KMSN MSN20060706110009307/06/06 11:00:31  5-MIN KMSN 061700Z 36005KT 10SM CLR 26/10 A3029 530 36 2000 360/05 RMK AO2
14837KMSN MSN20060706110509307/06/06 11:05:31  5-MIN KMSN 061705Z VRB03KT 10SM CLR 26/09 A3029 520 34 2000 VRB/03 RMK AO2
14837KMSN MSN20060706111009307/06/06 11:10:31  5-MIN KMSN 061710Z 06006KT 10SM CLR 26/11 A3029 530 37 2000 060/06 RMK AO2
14837KMSN MSN20060706111509307/06/06 11:15:31  5-MIN KMSN 061715Z VRB03KT 10SM CLR 26/11 A3029 530 38 1900 VRB/03 RMK AO2
14837KMSN MSN20060706112009307/06/06 11:20:31  5-MIN KMSN 061720Z 04006KT 10SM CLR 27/11 A3029 530 36 2000 040/06 RMK AO2
14837KMSN MSN20060706112509307/06/06 11:25:31  5-MIN KMSN 061725Z VRB05KT 10SM CLR 27/11 A3028 530 36 2000 VRB/05 RMK AO2
14837KMSN MSN20060706113009307/06/06 11:30:31  5-MIN KMSN 061730Z 05007KT 10SM CLR 27/10 A3028 530 34 2000 050/07 RMK AO2
14837KMSN MSN20060706113509307/06/06 11:35:31  5-MIN KMSN 061735Z 08007KT 10SM CLR 27/10 A3028 530 34 2000 080/07 RMK AO2
14837KMSN MSN20060706114010907/06/06 11:40:31  5-MIN KMSN 061740Z 09007KT 060V130 10SM CLR 26/10 A3029 530 36 2000 090/07 060V130 RMK AO2
14837KMSN MSN20060706114509307/06/06 11:45:31  5-MIN KMSN 061745Z VRB04KT 10SM CLR 26/10 A3029 530 37 1900 VRB/04 RMK AO2
14837KMSN MSN20060706115013107/06/06 11:50:31  5-MIN KMSN 061750Z VRB04KT 10SM FEW070 27/10 A3029 530 34 2000 VRB/04 RMK AO2 SLP253 T02670100 10267 20156 51010
14837KMSN MSN20060706115509607/06/06 11:55:31  5-MIN KMSN 061755Z VRB04KT 10SM FEW070 27/10 A3029 530 33 2100 VRB/04 RMK AO2
14837KMSN MSN20060706120009607/06/06 12:00:31  5-MIN KMSN 061800Z 08006KT 10SM FEW070 27/10 A3029 530 34 2000 070/06 RMK AO2
14837KMSN MSN20060706120509307/06/06 12:05:31  5-MIN KMSN 061805Z 10007KT 10SM CLR 27/10 A3029 530 34 2000 100/07 RMK AO2
14837KMSN MSN20060706121009307/06/06 12:10:31  5-MIN KMSN 061810Z 09008KT 10SM CLR 27/10 A3029 530 34 2000 090/08 RMK AO2
14837KMSN MSN20060706121509307/06/06 12:15:31  5-MIN KMSN 061815Z 11005KT 10SM CLR 26/10 A3029 530 36 2000 110/05 RMK AO2
14837KMSN MSN20060706122009307/06/06 12:20:31  5-MIN KMSN 061820Z VRB05KT 10SM CLR 27/10 A3028 530 34 2000 VRB/05 RMK AO2
14837KMSN MSN20060706122509307/06/06 12:25:31  5-MIN KMSN 061825Z 00000KT 10SM CLR 27/10 A3028 530 33 2100 000/00 RMK AO2
14837KMSN MSN20060706123009307/06/06 12:30:31  5-MIN KMSN 061830Z VRB03KT 10SM CLR 27/10 A3028 530 34 2000 VRB/03 RMK AO2
14837KMSN MSN20060706123509307/06/06 12:35:31  5-MIN KMSN 061835Z VRB03KT 10SM CLR 27/09 A3028 530 33 2000 VRB/03 RMK AO2
14837KMSN MSN20060706124009607/06/06 12:40:31  5-MIN KMSN 061840Z 08005KT 10SM FEW070 27/09 A3028 530 32 2100 080/05 RMK AO2
14837KMSN MSN20060706124509607/06/06 12:45:31  5-MIN KMSN 061845Z VRB05KT 10SM FEW070 27/10 A3029 530 34 2000 VRB/05 RMK AO2
14837KMSN MSN20060706125011307/06/06 12:50:31  5-MIN KMSN 061850Z VRB03KT 10SM FEW070 27/10 A3029 530 33 2100 VRB/03 RMK AO2 SLP252 T02720100
14837KMSN MSN20060706125509607/06/06 12:55:31  5-MIN KMSN 061855Z 00000KT 10SM FEW070 27/09 A3029 530 32 2100 000/00 RMK AO2
14837KMSN MSN20060706130009607/06/06 13:00:31  5-MIN KMSN 061900Z 00000KT 10SM SCT070 27/09 A3029 530 33 2000 000/00 RMK AO2
14837KMSN MSN20060706130509607/06/06 13:05:31  5-MIN KMSN 061905Z 08005KT 10SM SCT070 27/09 A3029 520 33 2000 080/05 RMK AO2
14837KMSN MSN20060706131009607/06/06 13:10:31  5-MIN KMSN 061910Z VRB04KT 10SM SCT070 27/09 A3029 520 33 2000 VRB/04 RMK AO2
14837KMSN MSN20060706131509607/06/06 13:15:31  5-MIN KMSN 061915Z 09005KT 10SM SCT070 27/10 A3029 520 34 2000 080/05 RMK AO2
14837KMSN MSN20060706132009607/06/06 13:20:31  5-MIN KMSN 061920Z 12006KT 10SM SCT070 26/10 A3029 520 36 2000 120/06 RMK AO2
14837KMSN MSN20060706132509607/06/06 13:25:31  5-MIN KMSN 061925Z 00000KT 10SM SCT070 26/09 A3029 520 33 2000 000/00 RMK AO2
14837KMSN MSN20060706133009607/06/06 13:30:31  5-MIN KMSN 061930Z 00000KT 10SM SCT070 27/09 A3029 520 32 2000 000/00 RMK AO2
14837KMSN MSN20060706133509607/06/06 13:35:31  5-MIN KMSN 061935Z VRB03KT 10SM BKN070 28/11 A3029 530 33 2200 VRB/03 RMK AO2
14837KMSN MSN20060706134009607/06/06 13:40:31  5-MIN KMSN 061940Z VRB04KT 10SM BKN070 27/10 A3029 530 33 2100 VRB/04 RMK AO2
14837KMSN MSN20060706134509607/06/06 13:45:31  5-MIN KMSN 061945Z 02006KT 10SM BKN070 28/11 A3029 530 33 2200 020/06 RMK AO2
14837KMSN MSN20060706135011307/06/06 13:50:31  5-MIN KMSN 061950Z VRB05KT 10SM BKN070 27/09 A3028 530 33 2000 VRB/05 RMK AO2 SLP252 T02670094
14837KMSN MSN20060706135509607/06/06 13:55:31  5-MIN KMSN 061955Z VRB04KT 10SM FEW070 27/09 A3028 530 32 2100 VRB/04 RMK AO2
14837KMSN MSN20060706140009607/06/06 14:00:31  5-MIN KMSN 062000Z VRB05KT 10SM FEW070 28/10 A3028 530 32 2200 VRB/05 RMK AO2
14837KMSN MSN20060706140509607/06/06 14:05:31  5-MIN KMSN 062005Z 00000KT 10SM FEW070 27/09 A3028 530 31 2100 000/00 RMK AO2
14837KMSN MSN20060706141009607/06/06 14:10:31  5-MIN KMSN 062010Z 00000KT 10SM FEW070 27/09 A3028 530 31 2100 000/00 RMK AO2
14837KMSN MSN20060706141509607/06/06 14:15:31  5-MIN KMSN 062015Z 24005KT 10SM FEW070 27/09 A3028 540 32 2000 240/05 RMK AO2
14837KMSN MSN20060706142009607/06/06 14:20:31  5-MIN KMSN 062020Z 24005KT 10SM FEW070 27/09 A3028 540 33 2000 240/05 RMK AO2
14837KMSN MSN20060706142509607/06/06 14:25:31  5-MIN KMSN 062025Z 00000KT 10SM FEW070 27/09 A3027 540 31 2100 000/00 RMK AO2
14837KMSN MSN20060706143009607/06/06 14:30:31  5-MIN KMSN 062030Z 00000KT 10SM FEW070 27/09 A3028 540 32 2100 000/00 RMK AO2
14837KMSN MSN20060706143509607/06/06 14:35:31  5-MIN KMSN 062035Z VRB03KT 10SM FEW070 28/10 A3027 540 32 2200 VRB/03 RMK AO2
14837KMSN MSN20060706144009607/06/06 14:40:31  5-MIN KMSN 062040Z VRB04KT 10SM FEW070 28/10 A3028 540 32 2200 VRB/04 RMK AO2
14837KMSN MSN20060706144509607/06/06 14:45:31  5-MIN KMSN 062045Z VRB05KT 10SM FEW070 28/11 A3028 540 32 2200 VRB/05 RMK AO2
14837KMSN MSN20060706145011907/06/06 14:50:31  5-MIN KMSN 062050Z 00000KT 10SM FEW070 28/10 A3027 540 32 2200 000/00 RMK AO2 SLP249 T02780100 56004
14837KMSN MSN20060706145509607/06/06 14:55:31  5-MIN KMSN 062055Z 00000KT 10SM FEW070 28/09 A3027 540 31 2200 000/00 RMK AO2
14837KMSN MSN20060706150009607/06/06 15:00:31  5-MIN KMSN 062100Z 08005KT 10SM FEW070 27/11 A3027 540 34 2100 070/05 RMK AO2
14837KMSN MSN20060706150509607/06/06 15:05:31  5-MIN KMSN 062105Z 00000KT 10SM FEW070 27/10 A3027 540 34 2000 000/00 RMK AO2
14837KMSN MSN20060706151009607/06/06 15:10:31  5-MIN KMSN 062110Z 00000KT 10SM FEW070 27/10 A3028 540 33 2100 000/00 RMK AO2
14837KMSN MSN20060706151509607/06/06 15:15:31  5-MIN KMSN 062115Z VRB04KT 10SM FEW070 27/10 A3027 540 33 2100 VRB/04 RMK AO2
14837KMSN MSN20060706152009607/06/06 15:20:31  5-MIN KMSN 062120Z VRB03KT 10SM FEW070 27/10 A3027 540 34 2000 VRB/03 RMK AO2
14837KMSN MSN20060706152509607/06/06 15:25:31  5-MIN KMSN 062125Z VRB03KT 10SM FEW070 27/10 A3027 540 33 2100 VRB/03 RMK AO2
14837KMSN MSN20060706153009607/06/06 15:30:31  5-MIN KMSN 062130Z VRB04KT 10SM FEW070 27/11 A3027 540 34 2100 VRB/04 RMK AO2
14837KMSN MSN20060706153509607/06/06 15:35:31  5-MIN KMSN 062135Z 23005KT 10SM FEW070 27/10 A3027 540 33 2100 230/05 RMK AO2
14837KMSN MSN20060706154009607/06/06 15:40:31  5-MIN KMSN 062140Z 27004KT 10SM FEW070 27/10 A3027 540 33 2100 270/04 RMK AO2
14837KMSN MSN20060706154509607/06/06 15:45:31  5-MIN KMSN 062145Z 27004KT 10SM FEW070 27/10 A3027 540 33 2100 270/04 RMK AO2
14837KMSN MSN20060706155011307/06/06 15:50:31  5-MIN KMSN 062150Z 28005KT 10SM FEW070 26/09 A3027 540 34 2000 280/05 RMK AO2 SLP248 T02610094
14837KMSN MSN20060706155509607/06/06 15:55:31  5-MIN KMSN 062155Z VRB03KT 10SM SCT075 27/09 A3027 540 33 2100 VRB/03 RMK AO2
14837KMSN MSN20060706160009607/06/06 16:00:31  5-MIN KMSN 062200Z VRB03KT 10SM FEW075 27/09 A3027 540 33 2100 VRB/03 RMK AO2
14837KMSN MSN20060706160509607/06/06 16:05:31  5-MIN KMSN 062205Z VRB03KT 10SM FEW075 27/09 A3027 540 32 2100 VRB/03 RMK AO2
14837KMSN MSN20060706161009607/06/06 16:10:31  5-MIN KMSN 062210Z 00000KT 10SM FEW075 27/10 A3027 540 33 2100 000/00 RMK AO2
14837KMSN MSN20060706161509607/06/06 16:15:31  5-MIN KMSN 062215Z VRB04KT 10SM FEW075 27/10 A3027 540 33 2100 VRB/04 RMK AO2
14837KMSN MSN20060706162009607/06/06 16:20:31  5-MIN KMSN 062220Z 07004KT 10SM FEW075 27/11 A3027 540 34 2100 070/04 RMK AO2
14837KMSN MSN20060706162509607/06/06 16:25:31  5-MIN KMSN 062225Z 05004KT 10SM FEW075 27/11 A3027 540 34 2100 050/04 RMK AO2
14837KMSN MSN20060706163009607/06/06 16:30:31  5-MIN KMSN 062230Z VRB03KT 10SM FEW075 28/10 A3027 540 32 2200 VRB/03 RMK AO2
14837KMSN MSN20060706163509607/06/06 16:35:31  5-MIN KMSN 062235Z VRB03KT 10SM FEW075 27/10 A3027 540 33 2100 VRB/03 RMK AO2
14837KMSN MSN20060706164009607/06/06 16:40:31  5-MIN KMSN 062240Z VRB04KT 10SM FEW075 27/11 A3027 540 36 2100 VRB/04 RMK AO2
14837KMSN MSN20060706164509607/06/06 16:45:31  5-MIN KMSN 062245Z 17004KT 10SM FEW075 27/11 A3027 540 36 2100 170/04 RMK AO2
14837KMSN MSN20060706165011307/06/06 16:50:31  5-MIN KMSN 062250Z 14007KT 10SM FEW075 27/11 A3027 550 37 2100 140/07 RMK AO2 SLP246 T02670111
14837KMSN MSN20060706165509607/06/06 16:55:31  5-MIN KMSN 062255Z 16008KT 10SM FEW070 26/11 A3027 550 38 2000 160/08 RMK AO2
14837KMSN MSN20060706170009607/06/06 17:00:31  5-MIN KMSN 062300Z 16005KT 10SM FEW070 26/11 A3027 550 37 2000 160/05 RMK AO2
14837KMSN MSN20060706170509607/06/06 17:05:31  5-MIN KMSN 062305Z 14005KT 10SM FEW070 26/11 A3027 550 38 2000 140/05 RMK AO2
14837KMSN MSN20060706171009607/06/06 17:10:31  5-MIN KMSN 062310Z 14006KT 10SM FEW070 26/11 A3026 550 38 2000 140/06 RMK AO2
14837KMSN MSN20060706171509607/06/06 17:15:31  5-MIN KMSN 062315Z VRB04KT 10SM FEW070 26/11 A3026 550 37 2000 VRB/04 RMK AO2
14837KMSN MSN20060706172009607/06/06 17:20:31  5-MIN KMSN 062320Z 12005KT 10SM FEW070 26/11 A3026 550 37 2000 120/05 RMK AO2
14837KMSN MSN20060706172509607/06/06 17:25:31  5-MIN KMSN 062325Z 16005KT 10SM FEW070 26/11 A3026 550 38 2000 150/05 RMK AO2
14837KMSN MSN20060706173009607/06/06 17:30:31  5-MIN KMSN 062330Z 12003KT 10SM FEW070 26/11 A3026 550 38 1900 120/03 RMK AO2
14837KMSN MSN20060706173509607/06/06 17:35:31  5-MIN KMSN 062335Z 14006KT 10SM FEW070 26/11 A3026 550 40 1900 140/06 RMK AO2
14837KMSN MSN20060706174009607/06/06 17:40:31  5-MIN KMSN 062340Z 11005KT 10SM FEW070 26/11 A3026 550 38 1900 110/05 RMK AO2
14837KMSN MSN20060706174509607/06/06 17:45:31  5-MIN KMSN 062345Z VRB04KT 10SM FEW070 26/11 A3026 550 40 1900 VRB/04 RMK AO2
14837KMSN MSN20060706175013107/06/06 17:50:31  5-MIN KMSN 062350Z VRB05KT 10SM FEW070 26/11 A3026 550 40 1900 VRB/05 RMK AO2 SLP246 T02560111 10283 20256 58004
14837KMSN MSN20060706175509307/06/06 17:55:31  5-MIN KMSN 062355Z 17006KT 10SM CLR 26/11 A3026 550 40 1900 170/06 RMK AO2
14837KMSN MSN20060706180009307/06/06 18:00:31  5-MIN KMSN 070000Z 17009KT 10SM CLR 26/11 A3026 550 40 1900 170/09 RMK AO2
14837KMSN MSN20060706180509307/06/06 18:05:31  5-MIN KMSN 070005Z 16008KT 10SM CLR 25/11 A3026 550 39 1900 160/08 RMK AO2
14837KMSN MSN20060706181009307/06/06 18:10:31  5-MIN KMSN 070010Z 18007KT 10SM CLR 25/11 A3026 550 39 1900 180/07 RMK AO2
14837KMSN MSN20060706181509307/06/06 18:15:31  5-MIN KMSN 070015Z 19006KT 10SM CLR 25/11 A3026 550 41 1900 190/06 RMK AO2
14837KMSN MSN20060706182009307/06/06 18:20:31  5-MIN KMSN 070020Z 19006KT 10SM CLR 25/11 A3026 550 39 1900 190/06 RMK AO2
14837KMSN MSN20060706182509307/06/06 18:25:31  5-MIN KMSN 070025Z 19007KT 10SM CLR 25/11 A3027 550 39 1900 190/07 RMK AO2
14837KMSN MSN20060706183009307/06/06 18:30:31  5-MIN KMSN 070030Z 18006KT 10SM CLR 25/11 A3027 550 39 1900 180/06 RMK AO2
14837KMSN MSN20060706183509307/06/06 18:35:31  5-MIN KMSN 070035Z 19006KT 10SM CLR 24/11 A3027 550 41 1800 190/06 RMK AO2
14837KMSN MSN20060706184009307/06/06 18:40:31  5-MIN KMSN 070040Z 18006KT 10SM CLR 24/11 A3026 550 42 1800 180/06 RMK AO2
14837KMSN MSN20060706184509307/06/06 18:45:31  5-MIN KMSN 070045Z 18006KT 10SM CLR 24/11 A3026 550 41 1800 180/06 RMK AO2
14837KMSN MSN20060706185011007/06/06 18:50:31  5-MIN KMSN 070050Z 19005KT 10SM CLR 24/11 A3027 550 41 1800 190/05 RMK AO2 SLP245 T02440106
14837KMSN MSN20060707045509207/07/06 04:55:31  5-MIN KMSN 071055Z 00000KT 10SM CLR 13/12 A3033 480 93 400 000/00 RMK AO2
14837KMSN MSN20060707050009207/07/06 05:00:31  5-MIN KMSN 071100Z 00000KT 10SM CLR 13/12 A3033 480 93 400 000/00 RMK AO2
14837KMSN MSN20060707050509207/07/06 05:05:31  5-MIN KMSN 071105Z 00000KT 10SM CLR 13/12 A3033 480 89 400 000/00 RMK AO2
14837KMSN MSN20060707051009207/07/06 05:10:31  5-MIN KMSN 071110Z 00000KT 10SM CLR 13/12 A3034 480 89 400 000/00 RMK AO2
14837KMSN MSN20060707051509207/07/06 05:15:31  5-MIN KMSN 071115Z 00000KT 10SM CLR 14/12 A3034 480 86 500 000/00 RMK AO2
14837KMSN MSN20060707052009207/07/06 05:20:31  5-MIN KMSN 071120Z 00000KT 10SM CLR 14/12 A3034 480 83 600 000/00 RMK AO2
14837KMSN MSN20060707052509207/07/06 05:25:31  5-MIN KMSN 071125Z 00000KT 10SM CLR 14/12 A3034 480 83 600 000/00 RMK AO2
14837KMSN MSN20060707053009207/07/06 05:30:31  5-MIN KMSN 071130Z 00000KT 10SM CLR 14/12 A3034 480 83 600 000/00 RMK AO2
14837KMSN MSN20060707053509207/07/06 05:35:31  5-MIN KMSN 071135Z 00000KT 10SM CLR 14/12 A3034 480 83 600 000/00 RMK AO2
14837KMSN MSN20060707054009207/07/06 05:40:31  5-MIN KMSN 071140Z 00000KT 10SM CLR 14/12 A3034 480 83 600 000/00 RMK AO2
14837KMSN MSN20060707054509207/07/06 05:45:31  5-MIN KMSN 071145Z 00000KT 10SM CLR 15/12 A3034 480 83 600 000/00 RMK AO2
14837KMSN MSN20060707055012707/07/06 05:50:31  5-MIN KMSN 071150Z 00000KT 10SM CLR 15/13 A3034 480 86 600 000/00 RMK AO2 SLP271 T01500128 10189 20128 53007
14837KMSN MSN20060707055509207/07/06 05:55:31  5-MIN KMSN 071155Z 00000KT 10SM CLR 16/13 A3034 480 86 700 000/00 RMK AO2
14837KMSN MSN20060707060009207/07/06 06:00:31  5-MIN KMSN 071200Z 00000KT 10SM CLR 16/13 A3034 480 86 700 000/00 RMK AO2
14837KMSN MSN20060707060509207/07/06 06:05:31  5-MIN KMSN 071205Z 00000KT 10SM CLR 17/14 A3034 480 83 800 000/00 RMK AO2
14837KMSN MSN20060707061009207/07/06 06:10:31  5-MIN KMSN 071210Z 00000KT 10SM CLR 17/14 A3034 480 83 800 000/00 RMK AO2
14837KMSN MSN20060707061509207/07/06 06:15:31  5-MIN KMSN 071215Z 00000KT 10SM CLR 17/14 A3033 480 83 900 000/00 RMK AO2
14837KMSN MSN20060707062009307/07/06 06:20:31  5-MIN KMSN 071220Z 00000KT 10SM CLR 18/14 A3033 480 78 1000 000/00 RMK AO2
14837KMSN MSN20060707062509307/07/06 06:25:31  5-MIN KMSN 071225Z 00000KT 10SM CLR 18/14 A3033 480 75 1000 000/00 RMK AO2
14837KMSN MSN20060707063009307/07/06 06:30:31  5-MIN KMSN 071230Z 00000KT 10SM CLR 18/14 A3033 480 78 1000 000/00 RMK AO2
14837KMSN MSN20060707063509307/07/06 06:35:31  5-MIN KMSN 071235Z 00000KT 10SM CLR 19/15 A3033 480 78 1100 000/00 RMK AO2
14837KMSN MSN20060707064009307/07/06 06:40:31  5-MIN KMSN 071240Z 00000KT 10SM CLR 19/14 A3034 480 72 1200 000/00 RMK AO2
14837KMSN MSN20060707064509307/07/06 06:45:31  5-MIN KMSN 071245Z 00000KT 10SM CLR 19/14 A3034 480 70 1200 000/00 RMK AO2
14837KMSN MSN20060707065011007/07/06 06:50:31  5-MIN KMSN 071250Z 00000KT 10SM CLR 20/14 A3034 480 67 1200 000/00 RMK AO2 SLP270 T02000139
14837KMSN MSN20060707065509307/07/06 06:55:31  5-MIN KMSN 071255Z 00000KT 10SM CLR 20/14 A3034 480 70 1200 000/00 RMK AO2
14837KMSN MSN20060707070009307/07/06 07:00:31  5-MIN KMSN 071300Z 22004KT 10SM CLR 21/14 A3034 480 65 1300 220/04 RMK AO2
14837KMSN MSN20060707070509307/07/06 07:05:31  5-MIN KMSN 071305Z 00000KT 10SM CLR 21/13 A3034 480 63 1300 000/00 RMK AO2
14837KMSN MSN20060707071009307/07/06 07:10:31  5-MIN KMSN 071310Z 00000KT 10SM CLR 21/13 A3034 480 63 1300 000/00 RMK AO2
14837KMSN MSN20060707071509307/07/06 07:15:31  5-MIN KMSN 071315Z 00000KT 10SM CLR 21/13 A3034 480 61 1300 000/00 RMK AO2
14837KMSN MSN20060707072009307/07/06 07:20:31  5-MIN KMSN 071320Z 00000KT 10SM CLR 21/13 A3034 480 61 1300 000/00 RMK AO2
14837KMSN MSN20060707072509307/07/06 07:25:31  5-MIN KMSN 071325Z 00000KT 10SM CLR 21/14 A3034 480 63 1300 000/00 RMK AO2
14837KMSN MSN20060707073009307/07/06 07:30:31  5-MIN KMSN 071330Z 22005KT 10SM CLR 21/13 A3034 480 61 1300 220/05 RMK AO2
14837KMSN MSN20060707073509307/07/06 07:35:31  5-MIN KMSN 071335Z 25005KT 10SM CLR 21/13 A3034 480 58 1300 250/05 RMK AO2
14837KMSN MSN20060707074009307/07/06 07:40:31  5-MIN KMSN 071340Z 23004KT 10SM CLR 21/13 A3034 480 58 1300 230/04 RMK AO2
14837KMSN MSN20060707074509307/07/06 07:45:31  5-MIN KMSN 071345Z VRB03KT 10SM CLR 22/13 A3034 480 58 1400 VRB/03 RMK AO2
14837KMSN MSN20060707075011007/07/06 07:50:31  5-MIN KMSN 071350Z 21004KT 10SM CLR 22/13 A3034 480 58 1400 210/04 RMK AO2 SLP269 T02170133
14837KMSN MSN20060707075509307/07/06 07:55:31  5-MIN KMSN 071355Z VRB04KT 10SM CLR 22/13 A3034 480 54 1500 VRB/04 RMK AO2
14837KMSN MSN20060707080009307/07/06 08:00:31  5-MIN KMSN 071400Z 25005KT 10SM CLR 22/13 A3034 480 54 1500 250/05 RMK AO2
14837KMSN MSN20060707080509307/07/06 08:05:31  5-MIN KMSN 071405Z VRB04KT 10SM CLR 22/13 A3034 480 54 1500 VRB/04 RMK AO2
14837KMSN MSN20060707081009307/07/06 08:10:31  5-MIN KMSN 071410Z VRB05KT 10SM CLR 23/13 A3034 480 53 1500 VRB/05 RMK AO2
14837KMSN MSN20060707081509307/07/06 08:15:31  5-MIN KMSN 071415Z 24006KT 10SM CLR 23/13 A3034 480 53 1500 240/06 RMK AO2
14837KMSN MSN20060707082009307/07/06 08:20:31  5-MIN KMSN 071420Z 23006KT 10SM CLR 23/12 A3034 480 51 1500 230/06 RMK AO2
14837KMSN MSN20060707082509307/07/06 08:25:31  5-MIN KMSN 071425Z 22005KT 10SM CLR 22/12 A3034 480 52 1500 210/05 RMK AO2
14837KMSN MSN20060707083009307/07/06 08:30:31  5-MIN KMSN 071430Z VRB04KT 10SM CLR 23/13 A3033 480 53 1500 VRB/04 RMK AO2
14837KMSN MSN20060707083509307/07/06 08:35:31  5-MIN KMSN 071435Z 22005KT 10SM CLR 23/12 A3033 480 51 1500 220/05 RMK AO2
14837KMSN MSN20060707084009307/07/06 08:40:31  5-MIN KMSN 071440Z 21005KT 10SM CLR 23/12 A3033 490 51 1500 210/05 RMK AO2
14837KMSN MSN20060707084509307/07/06 08:45:31  5-MIN KMSN 071445Z 22005KT 10SM CLR 23/12 A3033 490 51 1500 210/05 RMK AO2
14837KMSN MSN20060707085011607/07/06 08:50:31  5-MIN KMSN 071450Z 24005KT 10SM CLR 23/13 A3033 490 51 1600 240/05 RMK AO2 SLP266 T02330128 51009
14837KMSN MSN20060707085509307/07/06 08:55:31  5-MIN KMSN 071455Z VRB04KT 10SM CLR 23/13 A3033 490 51 1600 VRB/04 RMK AO2
14837KMSN MSN20060707090009307/07/06 09:00:31  5-MIN KMSN 071500Z VRB04KT 10SM CLR 24/13 A3033 490 51 1700 VRB/04 RMK AO2
14837KMSN MSN20060707090509307/07/06 09:05:31  5-MIN KMSN 071505Z VRB04KT 10SM CLR 24/13 A3033 490 49 1700 VRB/04 RMK AO2
14837KMSN MSN20060707091009307/07/06 09:10:31  5-MIN KMSN 071510Z 22007KT 10SM CLR 23/13 A3033 490 51 1600 220/07 RMK AO2
14837KMSN MSN20060707091509307/07/06 09:15:31  5-MIN KMSN 071515Z 22006KT 10SM CLR 24/13 A3032 490 49 1700 220/06 RMK AO2
14837KMSN MSN20060707092009307/07/06 09:20:31  5-MIN KMSN 071520Z 24006KT 10SM CLR 24/13 A3032 490 49 1700 240/06 RMK AO2
14837KMSN MSN20060707092509307/07/06 09:25:31  5-MIN KMSN 071525Z 25007KT 10SM CLR 24/12 A3032 490 47 1700 240/07 RMK AO2
14837KMSN MSN20060707093010907/07/06 09:30:31  5-MIN KMSN 071530Z 24007KT 220V280 10SM CLR 24/13 A3032 490 49 1700 240/07 220V280 RMK AO2
14837KMSN MSN20060707093509307/07/06 09:35:31  5-MIN KMSN 071535Z 22005KT 10SM CLR 24/13 A3032 490 47 1700 220/05 RMK AO2
14837KMSN MSN20060707094009307/07/06 09:40:31  5-MIN KMSN 071540Z 23006KT 10SM CLR 24/13 A3032 490 47 1700 230/06 RMK AO2
14837KMSN MSN20060707094509307/07/06 09:45:31  5-MIN KMSN 071545Z VRB04KT 10SM CLR 24/13 A3032 490 49 1700 VRB/04 RMK AO2
14837KMSN MSN20060707095011007/07/06 09:50:31  5-MIN KMSN 071550Z VRB05KT 10SM CLR 25/13 A3032 490 46 1800 VRB/05 RMK AO2 SLP265 T02500128
14837KMSN MSN20060707095509307/07/06 09:55:31  5-MIN KMSN 071555Z 22005KT 10SM CLR 25/13 A3032 490 46 1800 220/05 RMK AO2
14837KMSN MSN20060707100009307/07/06 10:00:31  5-MIN KMSN 071600Z 22005KT 10SM CLR 25/13 A3032 490 46 1800 210/05 RMK AO2
14837KMSN MSN20060707100509307/07/06 10:05:31  5-MIN KMSN 071605Z VRB05KT 10SM CLR 26/13 A3032 500 44 1900 VRB/05 RMK AO2
14837KMSN MSN20060707101009307/07/06 10:10:31  5-MIN KMSN 071610Z VRB06KT 10SM CLR 25/13 A3032 500 46 1800 VRB/06 RMK AO2
14837KMSN MSN20060707101509307/07/06 10:15:31  5-MIN KMSN 071615Z VRB05KT 10SM CLR 26/13 A3032 500 44 1900 VRB/05 RMK AO2
14837KMSN MSN20060707102009307/07/06 10:20:31  5-MIN KMSN 071620Z 23006KT 10SM CLR 26/13 A3032 500 44 1900 230/06 RMK AO2
14837KMSN MSN20060707102509307/07/06 10:25:31  5-MIN KMSN 071625Z 25006KT 10SM CLR 26/13 A3032 500 44 1900 250/06 RMK AO2
14837KMSN MSN20060707103009307/07/06 10:30:31  5-MIN KMSN 071630Z 28005KT 10SM CLR 26/13 A3032 500 44 1900 280/05 RMK AO2
14837KMSN MSN20060707103509307/07/06 10:35:31  5-MIN KMSN 071635Z VRB04KT 10SM CLR 26/13 A3032 500 44 1900 VRB/04 RMK AO2
14837KMSN MSN20060707104009307/07/06 10:40:31  5-MIN KMSN 071640Z 00000KT 10SM CLR 26/13 A3031 500 43 1900 000/00 RMK AO2
14837KMSN MSN20060707104509307/07/06 10:45:31  5-MIN KMSN 071645Z VRB04KT 10SM CLR 27/13 A3031 500 43 2000 VRB/04 RMK AO2
14837KMSN MSN20060707105011007/07/06 10:50:31  5-MIN KMSN 071650Z VRB04KT 10SM CLR 26/13 A3031 510 44 1900 VRB/04 RMK AO2 SLP260 T02610133
14837KMSN MSN20060707105509307/07/06 10:55:31  5-MIN KMSN 071655Z VRB06KT 10SM CLR 26/13 A3031 510 44 1900 VRB/06 RMK AO2
14837KMSN MSN20060707110009307/07/06 11:00:31  5-MIN KMSN 071700Z VRB04KT 10SM CLR 26/13 A3031 510 43 1900 VRB/04 RMK AO2
14837KMSN MSN20060707110509307/07/06 11:05:31  5-MIN KMSN 071705Z VRB05KT 10SM CLR 26/13 A3031 510 43 1900 VRB/05 RMK AO2
14837KMSN MSN20060707111009307/07/06 11:10:31  5-MIN KMSN 071710Z 23005KT 10SM CLR 26/13 A3031 510 43 1900 230/05 RMK AO2
14837KMSN MSN20060707111509307/07/06 11:15:31  5-MIN KMSN 071715Z VRB04KT 10SM CLR 26/13 A3031 510 43 1900 VRB/04 RMK AO2
14837KMSN MSN20060707112009307/07/06 11:20:31  5-MIN KMSN 071720Z VRB04KT 10SM CLR 26/13 A3030 510 43 2000 VRB/04 RMK AO2
14837KMSN MSN20060707112509307/07/06 11:25:31  5-MIN KMSN 071725Z VRB05KT 10SM CLR 27/13 A3030 510 41 2000 VRB/05 RMK AO2
14837KMSN MSN20060707113010907/07/06 11:30:31  5-MIN KMSN 071730Z 20008KT 140V250 10SM CLR 27/12 A3030 510 40 2000 200/08 140V250 RMK AO2
14837KMSN MSN20060707113509307/07/06 11:35:31  5-MIN KMSN 071735Z 16008KT 10SM CLR 26/11 A3030 510 38 2000 160/08 RMK AO2
14837KMSN MSN20060707114009307/07/06 11:40:31  5-MIN KMSN 071740Z 19009KT 10SM CLR 27/12 A3030 510 38 2000 190/09 RMK AO2
14837KMSN MSN20060707114509307/07/06 11:45:31  5-MIN KMSN 071745Z 17008KT 10SM CLR 27/11 A3030 510 37 2000 170/08 RMK AO2
14837KMSN MSN20060707115014407/07/06 11:50:31  5-MIN KMSN 071750Z 19008KT 140V230 10SM CLR 26/12 A3030 510 41 2000 190/08 140V230 RMK AO2 SLP257 T02610122 10267 20156 58004
14837KMSN MSN20060707115509607/07/06 11:55:31  5-MIN KMSN 071755Z 21008KT 10SM FEW055 27/11 A3030 520 36 2000 210/08 RMK AO2
14837KMSN MSN20060707120009607/07/06 12:00:31  5-MIN KMSN 071800Z 18008KT 10SM FEW055 27/11 A3030 520 37 2000 180/08 RMK AO2
14837KMSN MSN20060707120511207/07/06 12:05:31  5-MIN KMSN 071805Z 19008KT 170V230 10SM FEW055 27/12 A3030 520 38 2000 190/08 170V230 RMK AO2
14837KMSN MSN20060707121011207/07/06 12:10:31  5-MIN KMSN 071810Z 17008KT 130V200 10SM FEW055 27/12 A3030 520 37 2100 170/08 130V200 RMK AO2
14837KMSN MSN20060707121509607/07/06 12:15:31  5-MIN KMSN 071815Z 17009KT 10SM FEW055 27/12 A3030 520 37 2100 170/09 RMK AO2
14837KMSN MSN20060707122009607/07/06 12:20:31  5-MIN KMSN 071820Z 17009KT 10SM FEW055 27/12 A3030 520 38 2000 170/09 RMK AO2
14837KMSN MSN20060707122509607/07/06 12:25:31  5-MIN KMSN 071825Z 18006KT 10SM FEW055 27/12 A3029 520 38 2000 170/06 RMK AO2
14837KMSN MSN20060707123009607/07/06 12:30:31  5-MIN KMSN 071830Z 15007KT 10SM FEW055 27/12 A3029 520 38 2000 150/07 RMK AO2
14837KMSN MSN20060707123509607/07/06 12:35:31  5-MIN KMSN 071835Z 17009KT 10SM FEW055 27/11 A3029 530 36 2100 170/09 RMK AO2
14837KMSN MSN20060707124009607/07/06 12:40:31  5-MIN KMSN 071840Z 15012KT 10SM FEW055 27/11 A3028 530 36 2000 150/12 RMK AO2
14837KMSN MSN20060707124510207/07/06 12:45:31  5-MIN KMSN 071845Z 17010G14KT 10SM FEW055 27/11 A3028 530 36 2100 170/10G14 RMK AO2
14837KMSN MSN20060707125011307/07/06 12:50:31  5-MIN KMSN 071850Z 13009KT 10SM FEW060 27/12 A3028 530 38 2000 130/09 RMK AO2 SLP250 T02670117
14837KMSN MSN20060707125509607/07/06 12:55:31  5-MIN KMSN 071855Z 16006KT 10SM FEW060 27/12 A3028 540 37 2100 160/06 RMK AO2
14837KMSN MSN20060707130011207/07/06 13:00:31  5-MIN KMSN 071900Z 17009KT 130V190 10SM FEW060 27/12 A3028 540 37 2100 170/09 130V190 RMK AO2
14837KMSN MSN20060707130509607/07/06 13:05:31  5-MIN KMSN 071905Z 17010KT 10SM FEW060 27/12 A3027 540 37 2100 170/10 RMK AO2
14837KMSN MSN20060707131009607/07/06 13:10:31  5-MIN KMSN 071910Z 18011KT 10SM FEW060 28/12 A3028 540 36 2200 180/11 RMK AO2
14837KMSN MSN20060707131511207/07/06 13:15:31  5-MIN KMSN 071915Z 20007KT 170V240 10SM FEW060 27/11 A3028 540 34 2100 200/07 170V240 RMK AO2
14837KMSN MSN20060707132009607/07/06 13:20:31  5-MIN KMSN 071920Z 18010KT 10SM FEW060 27/11 A3028 540 34 2100 180/10 RMK AO2
14837KMSN MSN20060707132511207/07/06 13:25:31  5-MIN KMSN 071925Z 19009KT 160V230 10SM FEW060 27/11 A3027 540 36 2100 190/09 160V230 RMK AO2
14837KMSN MSN20060707133011207/07/06 13:30:31  5-MIN KMSN 071930Z 21008KT 160V230 10SM FEW060 28/12 A3027 540 36 2200 200/08 160V230 RMK AO2
14837KMSN MSN20060707133509607/07/06 13:35:31  5-MIN KMSN 071935Z 18009KT 10SM FEW060 27/11 A3027 540 34 2100 180/09 RMK AO2
14837KMSN MSN20060707134010207/07/06 13:40:31  5-MIN KMSN 071940Z 20007G19KT 10SM FEW060 27/11 A3027 540 34 2100 200/07G19 RMK AO2
14837KMSN MSN20060707134510207/07/06 13:45:31  5-MIN KMSN 071945Z 19010G19KT 10SM FEW060 28/12 A3027 540 36 2200 190/10G19 RMK AO2
14837KMSN MSN20060707135011307/07/06 13:50:31  5-MIN KMSN 071950Z 17006KT 10SM FEW060 28/11 A3027 540 35 2200 170/06 RMK AO2 SLP247 T02780111
14837KMSN MSN20060707135509307/07/06 13:55:31  5-MIN KMSN 071955Z 17008KT 10SM CLR 27/12 A3027 540 37 2100 170/08 RMK AO2
14837KMSN MSN20060707140009607/07/06 14:00:31  5-MIN KMSN 072000Z 20010KT 10SM FEW060 28/11 A3027 540 33 2200 190/10 RMK AO2
14837KMSN MSN20060707140509607/07/06 14:05:31  5-MIN KMSN 072005Z 17008KT 10SM FEW060 27/11 A3027 540 34 2100 170/08 RMK AO2
14837KMSN MSN20060707141009607/07/06 14:10:31  5-MIN KMSN 072010Z 17010KT 10SM FEW060 27/11 A3027 540 36 2100 170/10 RMK AO2
14837KMSN MSN20060707141511207/07/06 14:15:31  5-MIN KMSN 072015Z 18009KT 150V220 10SM FEW060 27/11 A3027 540 34 2100 180/09 150V220 RMK AO2
14837KMSN MSN20060707142010207/07/06 14:20:31  5-MIN KMSN 072020Z 16011G15KT 10SM FEW060 27/12 A3027 540 37 2100 160/11G15 RMK AO2
14837KMSN MSN20060707142510207/07/06 14:25:31  5-MIN KMSN 072025Z 16011G15KT 10SM FEW060 27/11 A3027 550 36 2100 160/11G15 RMK AO2
14837KMSN MSN20060707143009607/07/06 14:30:31  5-MIN KMSN 072030Z 17008KT 10SM FEW060 27/12 A3026 550 37 2100 170/08 RMK AO2
14837KMSN MSN20060707143511807/07/06 14:35:31  5-MIN KMSN 072035Z 18011G17KT 130V230 10SM FEW060 27/12 A3026 550 37 2100 180/11G17 130V230 RMK AO2
14837KMSN MSN20060707144010207/07/06 14:40:31  5-MIN KMSN 072040Z 19007G17KT 10SM FEW060 28/10 A3026 550 32 2200 190/07G17 RMK AO2
14837KMSN MSN20060707144509607/07/06 14:45:31  5-MIN KMSN 072045Z 16007KT 10SM FEW060 28/11 A3026 550 35 2200 160/07 RMK AO2
14837KMSN MSN20060707145014107/07/06 14:50:31  5-MIN KMSN 072050Z 19011G15KT 160V220 10SM FEW060 28/11 A3026 550 35 2200 190/11G15 160V220 RMK AO2 SLP242 T02780111 58008
14837KMSN MSN20060707145509307/07/06 14:55:31  5-MIN KMSN 072055Z 17007KT 10SM CLR 27/11 A3026 550 34 2100 170/07 RMK AO2
14837KMSN MSN20060707150009307/07/06 15:00:31  5-MIN KMSN 072100Z 17011KT 10SM CLR 27/11 A3025 560 34 2100 170/11 RMK AO2
14837KMSN MSN20060707150509307/07/06 15:05:31  5-MIN KMSN 072105Z 19008KT 10SM CLR 27/11 A3025 560 34 2100 190/08 RMK AO2
14837KMSN MSN20060707151010907/07/06 15:10:31  5-MIN KMSN 072110Z 21008KT 170V240 10SM CLR 27/10 A3025 560 33 2100 210/08 170V240 RMK AO2
14837KMSN MSN20060707151509307/07/06 15:15:31  5-MIN KMSN 072115Z 21009KT 10SM CLR 27/10 A3025 560 33 2100 210/09 RMK AO2
14837KMSN MSN20060707152009307/07/06 15:20:31  5-MIN KMSN 072120Z 19010KT 10SM CLR 28/11 A3025 560 33 2200 180/10 RMK AO2
14837KMSN MSN20060707152509307/07/06 15:25:31  5-MIN KMSN 072125Z 16011KT 10SM CLR 27/11 A3025 560 36 2100 160/11 RMK AO2
14837KMSN MSN20060707153009307/07/06 15:30:31  5-MIN KMSN 072130Z 17010KT 10SM CLR 27/11 A3025 570 34 2100 170/10 RMK AO2
14837KMSN MSN20060707153510907/07/06 15:35:31  5-MIN KMSN 072135Z 18009KT 150V230 10SM CLR 27/12 A3025 560 37 2100 180/09 150V230 RMK AO2
14837KMSN MSN20060707154009307/07/06 15:40:31  5-MIN KMSN 072140Z 19007KT 10SM CLR 27/10 A3024 570 33 2100 190/07 RMK AO2
14837KMSN MSN20060707154509307/07/06 15:45:31  5-MIN KMSN 072145Z 22009KT 10SM CLR 27/11 A3024 570 34 2100 220/09 RMK AO2
14837KMSN MSN20060707155011007/07/06 15:50:31  5-MIN KMSN 072150Z 19010KT 10SM CLR 27/09 A3024 570 31 2100 190/10 RMK AO2 SLP238 T02720089
14837KMSN MSN20060707155509307/07/06 15:55:31  5-MIN KMSN 072155Z 18010KT 10SM CLR 27/09 A3024 570 32 2100 180/10 RMK AO2
14837KMSN MSN20060707160009307/07/06 16:00:31  5-MIN KMSN 072200Z 17010KT 10SM CLR 27/11 A3024 570 34 2100 170/10 RMK AO2
14837KMSN MSN20060707160509307/07/06 16:05:31  5-MIN KMSN 072205Z VRB06KT 10SM CLR 27/10 A3024 570 33 2100 VRB/06 RMK AO2
14837KMSN MSN20060707161009307/07/06 16:10:31  5-MIN KMSN 072210Z 18008KT 10SM CLR 27/10 A3023 570 33 2200 180/08 RMK AO2
14837KMSN MSN20060707161509307/07/06 16:15:31  5-MIN KMSN 072215Z 17010KT 10SM CLR 27/10 A3023 580 33 2200 170/10 RMK AO2
14837KMSN MSN20060707162009307/07/06 16:20:31  5-MIN KMSN 072220Z 17010KT 10SM CLR 27/10 A3023 580 34 2100 170/10 RMK AO2
14837KMSN MSN20060707162509307/07/06 16:25:31  5-MIN KMSN 072225Z 17012KT 10SM CLR 27/11 A3023 580 37 2100 170/12 RMK AO2
14837KMSN MSN20060707163009307/07/06 16:30:31  5-MIN KMSN 072230Z 17009KT 10SM CLR 27/11 A3023 580 36 2100 170/09 RMK AO2
14837KMSN MSN20060707163509307/07/06 16:35:31  5-MIN KMSN 072235Z 18011KT 10SM CLR 27/11 A3023 580 36 2200 180/11 RMK AO2
14837KMSN MSN20060707164009307/07/06 16:40:31  5-MIN KMSN 072240Z 21007KT 10SM CLR 27/11 A3023 580 37 2100 210/07 RMK AO2
14837KMSN MSN20060707164509307/07/06 16:45:31  5-MIN KMSN 072245Z 19009KT 10SM CLR 27/11 A3023 580 36 2100 190/09 RMK AO2
14837KMSN MSN20060707165011007/07/06 16:50:31  5-MIN KMSN 072250Z 18009KT 10SM CLR 27/11 A3023 580 37 2100 180/09 RMK AO2 SLP233 T02670111
14837KMSN MSN20060707165509307/07/06 16:55:31  5-MIN KMSN 072255Z 20008KT 10SM CLR 27/11 A3023 580 36 2100 190/08 RMK AO2
14837KMSN MSN20060707170009307/07/06 17:00:31  5-MIN KMSN 072300Z 19008KT 10SM CLR 27/11 A3023 580 36 2100 190/08 RMK AO2
14837KMSN MSN20060707170509307/07/06 17:05:31  5-MIN KMSN 072305Z 21006KT 10SM CLR 27/11 A3023 580 37 2100 210/06 RMK AO2
14837KMSN MSN20060707171009307/07/06 17:10:31  5-MIN KMSN 072310Z 18009KT 10SM CLR 27/11 A3022 590 37 2100 180/09 RMK AO2
14837KMSN MSN20060707171509307/07/06 17:15:31  5-MIN KMSN 072315Z 18010KT 10SM CLR 26/11 A3022 590 40 2000 170/10 RMK AO2
14837KMSN MSN20060707172009307/07/06 17:20:31  5-MIN KMSN 072320Z 19008KT 10SM CLR 26/11 A3022 590 38 2000 190/08 RMK AO2
14837KMSN MSN20060707172509307/07/06 17:25:31  5-MIN KMSN 072325Z 19008KT 10SM CLR 26/11 A3022 590 40 2000 190/08 RMK AO2
14837KMSN MSN20060707173009307/07/06 17:30:31  5-MIN KMSN 072330Z 19009KT 10SM CLR 26/11 A3022 590 40 2000 190/09 RMK AO2
14837KMSN MSN20060707173509307/07/06 17:35:31  5-MIN KMSN 072335Z 22007KT 10SM CLR 26/11 A3022 590 40 2000 210/07 RMK AO2
14837KMSN MSN20060707174009307/07/06 17:40:31  5-MIN KMSN 072340Z 19008KT 10SM CLR 26/11 A3022 590 40 2000 190/08 RMK AO2
14837KMSN MSN20060707174509307/07/06 17:45:31  5-MIN KMSN 072345Z 19009KT 10SM CLR 25/12 A3022 590 43 1900 190/09 RMK AO2
14837KMSN MSN20060707175012807/07/06 17:50:31  5-MIN KMSN 072350Z 19010KT 10SM CLR 26/12 A3022 590 41 2000 190/10 RMK AO2 SLP230 T02560117 10278 20250 56014
14837KMSN MSN20060707175509307/07/06 17:55:31  5-MIN KMSN 072355Z 18010KT 10SM CLR 25/12 A3022 590 43 1900 180/10 RMK AO2
14837KMSN MSN20060707180009307/07/06 18:00:31  5-MIN KMSN 080000Z 18010KT 10SM CLR 25/12 A3022 590 43 1900 180/10 RMK AO2
14837KMSN MSN20060707180509307/07/06 18:05:31  5-MIN KMSN 080005Z 19010KT 10SM CLR 26/12 A3022 590 41 2000 180/10 RMK AO2
14837KMSN MSN20060707181009307/07/06 18:10:31  5-MIN KMSN 080010Z 18009KT 10SM CLR 25/12 A3022 590 43 1900 180/09 RMK AO2
14837KMSN MSN20060707181509307/07/06 18:15:31  5-MIN KMSN 080015Z 18009KT 10SM CLR 25/12 A3022 590 43 1900 180/09 RMK AO2
14837KMSN MSN20060707182009307/07/06 18:20:31  5-MIN KMSN 080020Z 19009KT 10SM CLR 25/12 A3022 590 43 1900 190/09 RMK AO2
14837KMSN MSN20060707182509307/07/06 18:25:31  5-MIN KMSN 080025Z 18008KT 10SM CLR 25/12 A3022 590 44 1900 180/08 RMK AO2
14837KMSN MSN20060707183009307/07/06 18:30:31  5-MIN KMSN 080030Z 18007KT 10SM CLR 25/12 A3022 590 43 1900 180/07 RMK AO2
14837KMSN MSN20060707183509307/07/06 18:35:31  5-MIN KMSN 080035Z 19007KT 10SM CLR 25/12 A3022 590 43 1900 190/07 RMK AO2
14837KMSN MSN20060707184009307/07/06 18:40:31  5-MIN KMSN 080040Z 20005KT 10SM CLR 25/12 A3022 590 43 1900 200/05 RMK AO2
14837KMSN MSN20060707184509307/07/06 18:45:31  5-MIN KMSN 080045Z 20007KT 10SM CLR 25/11 A3022 590 41 1900 200/07 RMK AO2
14837KMSN MSN20060707185011007/07/06 18:50:31  5-MIN KMSN 080050Z 20008KT 10SM CLR 25/11 A3022 590 41 1900 190/08 RMK AO2 SLP227 T02500111
14837KMSN MSN20060707185509307/07/06 18:55:31  5-MIN KMSN 080055Z 22005KT 10SM CLR 25/11 A3022 590 41 1900 220/05 RMK AO2
14837KMSN MSN20060707190009307/07/06 19:00:31  5-MIN KMSN 080100Z 21006KT 10SM CLR 24/12 A3022 590 44 1900 210/06 RMK AO2
14837KMSN MSN20060707190509307/07/06 19:05:31  5-MIN KMSN 080105Z 21005KT 10SM CLR 24/12 A3022 590 44 1900 210/05 RMK AO2
14837KMSN MSN20060707191009307/07/06 19:10:31  5-MIN KMSN 080110Z 21005KT 10SM CLR 24/12 A3021 590 46 1800 210/05 RMK AO2
14837KMSN MSN20060707191509307/07/06 19:15:31  5-MIN KMSN 080115Z 21005KT 10SM CLR 24/12 A3021 600 46 1800 210/05 RMK AO2
14837KMSN MSN20060707192009307/07/06 19:20:31  5-MIN KMSN 080120Z 20006KT 10SM CLR 24/12 A3021 600 46 1800 200/06 RMK AO2
14837KMSN MSN20060707192509307/07/06 19:25:31  5-MIN KMSN 080125Z 21005KT 10SM CLR 24/12 A3021 600 46 1800 210/05 RMK AO2
14837KMSN MSN20060707193009307/07/06 19:30:31  5-MIN KMSN 080130Z 22004KT 10SM CLR 24/12 A3021 600 47 1800 220/04 RMK AO2
14837KMSN MSN20060707193509307/07/06 19:35:31  5-MIN KMSN 080135Z 21003KT 10SM CLR 23/12 A3021 600 49 1700 210/03 RMK AO2
14837KMSN MSN20060707194009307/07/06 19:40:31  5-MIN KMSN 080140Z 22005KT 10SM CLR 23/12 A3021 600 49 1700 220/05 RMK AO2
14837KMSN MSN20060707194509307/07/06 19:45:31  5-MIN KMSN 080145Z 22003KT 10SM CLR 23/12 A3021 600 49 1700 220/03 RMK AO2
14837KMSN MSN20060707195011007/07/06 19:50:31  5-MIN KMSN 080150Z 22004KT 10SM CLR 23/12 A3021 600 49 1700 220/04 RMK AO2 SLP224 T02330122
14837KMSN MSN20060707195509307/07/06 19:55:31  5-MIN KMSN 080155Z 22003KT 10SM CLR 23/12 A3021 600 51 1700 220/03 RMK AO2
14837KMSN MSN20060707200009307/07/06 20:00:31  5-MIN KMSN 080200Z 22003KT 10SM CLR 23/12 A3021 600 51 1700 220/03 RMK AO2
14837KMSN MSN20060707200509307/07/06 20:05:31  5-MIN KMSN 080205Z 21003KT 10SM CLR 23/12 A3021 600 51 1700 210/03 RMK AO2
14837KMSN MSN20060707201009307/07/06 20:10:31  5-MIN KMSN 080210Z 21003KT 10SM CLR 23/12 A3021 600 51 1700 210/03 RMK AO2
14837KMSN MSN20060707201509307/07/06 20:15:31  5-MIN KMSN 080215Z 21003KT 10SM CLR 23/12 A3021 600 51 1700 210/03 RMK AO2
14837KMSN MSN20060707202009307/07/06 20:20:31  5-MIN KMSN 080220Z 00000KT 10SM CLR 22/13 A3021 600 56 1500 000/00 RMK AO2
14837KMSN MSN20060707202509307/07/06 20:25:31  5-MIN KMSN 080225Z 00000KT 10SM CLR 21/13 A3021 600 58 1500 000/00 RMK AO2
14837KMSN MSN20060707203009307/07/06 20:30:31  5-MIN KMSN 080230Z 00000KT 10SM CLR 21/13 A3021 590 58 1500 000/00 RMK AO2
14837KMSN MSN20060707203509307/07/06 20:35:31  5-MIN KMSN 080235Z 18004KT 10SM CLR 21/13 A3022 590 58 1500 180/04 RMK AO2
14837KMSN MSN20060707204009307/07/06 20:40:31  5-MIN KMSN 080240Z 18005KT 10SM CLR 21/13 A3022 590 63 1400 180/05 RMK AO2
14837KMSN MSN20060707204509307/07/06 20:45:31  5-MIN KMSN 080245Z 18005KT 10SM CLR 21/13 A3022 590 61 1500 180/05 RMK AO2
14837KMSN MSN20060707205011607/07/06 20:50:31  5-MIN KMSN 080250Z 18005KT 10SM CLR 21/14 A3021 600 63 1500 180/05 RMK AO2 SLP227 T02110139 56014
14837KMSN MSN20060707205509307/07/06 20:55:31  5-MIN KMSN 080255Z 17006KT 10SM CLR 21/14 A3021 600 65 1400 170/06 RMK AO2
14837KMSN MSN20060707210009307/07/06 21:00:31  5-MIN KMSN 080300Z 18005KT 10SM CLR 21/14 A3021 600 65 1400 180/05 RMK AO2
14837KMSN MSN20060707210509307/07/06 21:05:31  5-MIN KMSN 080305Z 18005KT 10SM CLR 21/14 A3021 600 65 1400 180/05 RMK AO2
14837KMSN MSN20060707211009307/07/06 21:10:31  5-MIN KMSN 080310Z 18004KT 10SM CLR 21/14 A3021 590 65 1400 180/04 RMK AO2
14837KMSN MSN20060707211509307/07/06 21:15:31  5-MIN KMSN 080315Z 17004KT 10SM CLR 20/14 A3021 590 67 1400 170/04 RMK AO2
14837KMSN MSN20060707212009307/07/06 21:20:31  5-MIN KMSN 080320Z 18005KT 10SM CLR 20/14 A3021 590 67 1400 180/05 RMK AO2
14837KMSN MSN20060707212509307/07/06 21:25:31  5-MIN KMSN 080325Z 18005KT 10SM CLR 21/14 A3021 590 65 1400 180/05 RMK AO2
14837KMSN MSN20060707213009307/07/06 21:30:31  5-MIN KMSN 080330Z 18004KT 10SM CLR 21/14 A3021 590 65 1400 180/04 RMK AO2
14837KMSN MSN20060707213509307/07/06 21:35:31  5-MIN KMSN 080335Z 18004KT 10SM CLR 20/14 A3022 590 67 1400 170/04 RMK AO2
14837KMSN MSN20060707214009307/07/06 21:40:31  5-MIN KMSN 080340Z 18005KT 10SM CLR 20/14 A3021 590 67 1400 180/05 RMK AO2
14837KMSN MSN20060707214509307/07/06 21:45:31  5-MIN KMSN 080345Z 19005KT 10SM CLR 20/14 A3022 590 67 1400 180/05 RMK AO2
14837KMSN MSN20060707215011007/07/06 21:50:31  5-MIN KMSN 080350Z 18005KT 10SM CLR 20/14 A3021 590 67 1400 180/05 RMK AO2 SLP227 T02000139
14837KMSN MSN20060707215509307/07/06 21:55:31  5-MIN KMSN 080355Z 19004KT 10SM CLR 20/14 A3021 590 67 1400 190/04 RMK AO2
14837KMSN MSN20060707220009307/07/06 22:00:31  5-MIN KMSN 080400Z 18005KT 10SM CLR 20/14 A3021 590 67 1400 180/05 RMK AO2
14837KMSN MSN20060707220509307/07/06 22:05:31  5-MIN KMSN 080405Z 19005KT 10SM CLR 20/14 A3021 590 67 1400 190/05 RMK AO2
14837KMSN MSN20060707221009307/07/06 22:10:31  5-MIN KMSN 080410Z 00000KT 10SM CLR 19/14 A3021 590 70 1300 000/00 RMK AO2
14837KMSN MSN20060707221509307/07/06 22:15:31  5-MIN KMSN 080415Z 21003KT 10SM CLR 20/13 A3021 590 65 1400 210/03 RMK AO2
14837KMSN MSN20060707222009307/07/06 22:20:31  5-MIN KMSN 080420Z VRB03KT 10SM CLR 21/13 A3021 600 63 1400 VRB/03 RMK AO2
14837KMSN MSN20060707222509307/07/06 22:25:31  5-MIN KMSN 080425Z 20003KT 10SM CLR 21/13 A3021 600 63 1400 190/03 RMK AO2
14837KMSN MSN20060707223009307/07/06 22:30:31  5-MIN KMSN 080430Z 00000KT 10SM CLR 20/13 A3021 600 65 1400 000/00 RMK AO2
14837KMSN MSN20060707223509307/07/06 22:35:31  5-MIN KMSN 080435Z 20004KT 10SM CLR 20/13 A3021 590 63 1400 200/04 RMK AO2
14837KMSN MSN20060707224009307/07/06 22:40:31  5-MIN KMSN 080440Z 19003KT 10SM CLR 21/13 A3021 590 60 1400 190/03 RMK AO2
14837KMSN MSN20060707224509307/07/06 22:45:31  5-MIN KMSN 080445Z 19004KT 10SM CLR 20/13 A3021 590 63 1400 190/04 RMK AO2
14837KMSN MSN20060707225011007/07/06 22:50:31  5-MIN KMSN 080450Z 00000KT 10SM CLR 19/13 A3021 590 65 1300 000/00 RMK AO2 SLP227 T01940128
14837KMSN MSN20060707225509307/07/06 22:55:31  5-MIN KMSN 080455Z 00000KT 10SM CLR 19/13 A3021 590 65 1300 000/00 RMK AO2
14837KMSN MSN20060707230009307/07/06 23:00:31  5-MIN KMSN 080500Z 19004KT 10SM CLR 19/13 A3021 600 65 1300 180/04 RMK AO2
14837KMSN MSN20060707230509307/07/06 23:05:31  5-MIN KMSN 080505Z 19005KT 10SM CLR 19/12 A3021 590 62 1300 180/05 RMK AO2
14837KMSN MSN20060707231009307/07/06 23:10:31  5-MIN KMSN 080510Z 18005KT 10SM CLR 19/12 A3021 600 65 1200 180/05 RMK AO2
14837KMSN MSN20060707231509307/07/06 23:15:31  5-MIN KMSN 080515Z 18004KT 10SM CLR 19/12 A3021 600 65 1200 180/04 RMK AO2
14837KMSN MSN20060707232009307/07/06 23:20:31  5-MIN KMSN 080520Z 18004KT 10SM CLR 18/12 A3021 600 67 1200 180/04 RMK AO2
14837KMSN MSN20060707232509307/07/06 23:25:31  5-MIN KMSN 080525Z 18003KT 10SM CLR 18/12 A3021 600 67 1200 180/03 RMK AO2
14837KMSN MSN20060707233009307/07/06 23:30:31  5-MIN KMSN 080530Z 18004KT 10SM CLR 18/12 A3021 600 67 1200 180/04 RMK AO2
14837KMSN MSN20060707233509307/07/06 23:35:31  5-MIN KMSN 080535Z 18003KT 10SM CLR 17/13 A3021 590 75 1000 180/03 RMK AO2
14837KMSN MSN20060707234009307/07/06 23:40:31  5-MIN KMSN 080540Z 00000KT 10SM CLR 17/12 A3022 590 75 1000 000/00 RMK AO2
14837KMSN MSN20060707234509207/07/06 23:45:31  5-MIN KMSN 080545Z 00000KT 10SM CLR 16/12 A3022 590 80 800 000/00 RMK AO2
14837KMSN MSN20060707235013707/07/06 23:50:31  5-MIN KMSN 080550Z 00000KT 10SM CLR 16/12 A3021 590 80 800 000/00 RMK AO2 SLP228 T01560122 10256 20156 402780128 55002
14837KMSN MSN20060707235509207/07/06 23:55:31  5-MIN KMSN 080555Z 00000KT 10SM CLR 16/12 A3021 590 80 800 000/00 RMK AO2
14837KMSN MSN20060708000009207/08/06 00:00:38  5-MIN KMSN 080600Z 00000KT 10SM CLR 16/12 A3021 590 77 900 000/00 RMK AO2
14837KMSN MSN20060708000509307/08/06 00:05:31  5-MIN KMSN 080605Z 00000KT 10SM CLR 17/13 A3021 600 77 1000 000/00 RMK AO2
14837KMSN MSN20060708001009207/08/06 00:10:31  5-MIN KMSN 080610Z 00000KT 10SM CLR 16/13 A3021 600 80 900 000/00 RMK AO2
14837KMSN MSN20060708001509207/08/06 00:15:32  5-MIN KMSN 080615Z 00000KT 10SM CLR 16/12 A3021 600 80 800 000/00 RMK AO2
14837KMSN MSN20060708002009207/08/06 00:20:31  5-MIN KMSN 080620Z 00000KT 10SM CLR 15/12 A3021 600 83 800 000/00 RMK AO2
14837KMSN MSN20060708002509207/08/06 00:25:31  5-MIN KMSN 080625Z 00000KT 10SM CLR 15/12 A3021 600 83 800 000/00 RMK AO2
14837KMSN MSN20060708003009207/08/06 00:30:31  5-MIN KMSN 080630Z 00000KT 10SM CLR 15/12 A3021 600 83 800 000/00 RMK AO2
14837KMSN MSN20060708003509207/08/06 00:35:31  5-MIN KMSN 080635Z 00000KT 10SM CLR 15/12 A3021 600 83 800 000/00 RMK AO2
14837KMSN MSN20060708004009207/08/06 00:40:31  5-MIN KMSN 080640Z 00000KT 10SM CLR 16/12 A3021 590 80 800 000/00 RMK AO2
14837KMSN MSN20060708004509207/08/06 00:45:31  5-MIN KMSN 080645Z 00000KT 10SM CLR 16/12 A3021 590 80 800 000/00 RMK AO2
14837KMSN MSN20060708005010907/08/06 00:50:31  5-MIN KMSN 080650Z 00000KT 10SM CLR 16/12 A3021 600 77 800 000/00 RMK AO2 SLP226 T01560117
14837KMSN MSN20060708005509207/08/06 00:55:31  5-MIN KMSN 080655Z 00000KT 10SM CLR 16/12 A3021 600 80 800 000/00 RMK AO2
14837KMSN MSN20060708010009207/08/06 01:00:31  5-MIN KMSN 080700Z 00000KT 10SM CLR 16/12 A3021 600 77 900 000/00 RMK AO2
14837KMSN MSN20060708010509207/08/06 01:05:31  5-MIN KMSN 080705Z 00000KT 10SM CLR 16/12 A3021 600 77 800 000/00 RMK AO2
14837KMSN MSN20060708011009207/08/06 01:10:31  5-MIN KMSN 080710Z 00000KT 10SM CLR 15/12 A3020 600 80 800 000/00 RMK AO2
14837KMSN MSN20060708011509207/08/06 01:15:31  5-MIN KMSN 080715Z 00000KT 10SM CLR 15/11 A3020 600 77 800 000/00 RMK AO2
14837KMSN MSN20060708012009207/08/06 01:20:31  5-MIN KMSN 080720Z 00000KT 10SM CLR 14/11 A3020 610 80 700 000/00 RMK AO2
14837KMSN MSN20060708012509207/08/06 01:25:31  5-MIN KMSN 080725Z 00000KT 10SM CLR 14/11 A3020 610 80 700 000/00 RMK AO2
14837KMSN MSN20060708013009207/08/06 01:30:31  5-MIN KMSN 080730Z 00000KT 10SM CLR 15/12 A3019 610 80 800 000/00 RMK AO2
14837KMSN MSN20060708013509207/08/06 01:35:31  5-MIN KMSN 080735Z 00000KT 10SM CLR 14/12 A3019 610 86 700 000/00 RMK AO2
14837KMSN MSN20060708014009207/08/06 01:40:31  5-MIN KMSN 080740Z 00000KT 10SM CLR 14/12 A3019 610 86 700 000/00 RMK AO2
14837KMSN MSN20060708014509207/08/06 01:45:31  5-MIN KMSN 080745Z 00000KT 10SM CLR 14/12 A3019 620 86 700 000/00 RMK AO2
14837KMSN MSN20060708015010907/08/06 01:50:31  5-MIN KMSN 080750Z 00000KT 10SM CLR 14/12 A3019 620 86 700 000/00 RMK AO2 SLP218 T01390117
14837KMSN MSN20060708015509207/08/06 01:55:31  5-MIN KMSN 080755Z 00000KT 10SM CLR 14/12 A3019 620 86 700 000/00 RMK AO2
14837KMSN MSN20060708020009207/08/06 02:00:31  5-MIN KMSN 080800Z 18003KT 10SM CLR 14/12 A3019 620 83 700 170/03 RMK AO2
14837KMSN MSN20060708020509207/08/06 02:05:31  5-MIN KMSN 080805Z 18003KT 10SM CLR 15/12 A3019 620 80 800 180/03 RMK AO2
14837KMSN MSN20060708021009207/08/06 02:10:31  5-MIN KMSN 080810Z 18004KT 10SM CLR 16/12 A3019 620 77 900 180/04 RMK AO2
14837KMSN MSN20060708021509207/08/06 02:15:31  5-MIN KMSN 080815Z 18005KT 10SM CLR 16/12 A3019 620 77 900 180/05 RMK AO2
14837KMSN MSN20060708022009307/08/06 02:20:31  5-MIN KMSN 080820Z 18004KT 10SM CLR 17/12 A3018 620 72 1000 180/04 RMK AO2
14837KMSN MSN20060708022509207/08/06 02:25:31  5-MIN KMSN 080825Z 19004KT 10SM CLR 16/12 A3018 620 75 900 190/04 RMK AO2
14837KMSN MSN20060708023009307/08/06 02:30:31  5-MIN KMSN 080830Z 18004KT 10SM CLR 17/12 A3018 620 72 1000 180/04 RMK AO2
14837KMSN MSN20060708023509207/08/06 02:35:31  5-MIN KMSN 080835Z 17004KT 10SM CLR 16/12 A3018 630 75 900 170/04 RMK AO2
14837KMSN MSN20060708024009207/08/06 02:40:31  5-MIN KMSN 080840Z 19003KT 10SM CLR 15/12 A3018 630 80 800 190/03 RMK AO2
14837KMSN MSN20060708024509207/08/06 02:45:31  5-MIN KMSN 080845Z 19003KT 10SM CLR 14/12 A3018 620 83 700 190/03 RMK AO2
14837KMSN MSN20060708025011507/08/06 02:50:31  5-MIN KMSN 080850Z 00000KT 10SM CLR 14/12 A3018 630 83 800 000/00 RMK AO2 SLP214 T01440117 51001
14837KMSN MSN20060708025509207/08/06 02:55:31  5-MIN KMSN 080855Z 00000KT 10SM CLR 14/12 A3018 630 83 700 000/00 RMK AO2
14837KMSN MSN20060708030009207/08/06 03:00:31  5-MIN KMSN 080900Z 00000KT 10SM CLR 13/12 A3018 620 89 600 000/00 RMK AO2
14837KMSN MSN20060708030509207/08/06 03:05:31  5-MIN KMSN 080905Z 00000KT 10SM CLR 13/12 A3019 620 89 600 000/00 RMK AO2
14837KMSN MSN20060708031009207/08/06 03:10:31  5-MIN KMSN 080910Z 00000KT 10SM CLR 14/12 A3019 620 86 700 000/00 RMK AO2
14837KMSN MSN20060708031509207/08/06 03:15:31  5-MIN KMSN 080915Z 00000KT 10SM CLR 15/12 A3019 620 83 800 000/00 RMK AO2
14837KMSN MSN20060708032009207/08/06 03:20:31  5-MIN KMSN 080920Z 00000KT 10SM CLR 14/12 A3019 610 86 700 000/00 RMK AO2
14837KMSN MSN20060708032509207/08/06 03:25:31  5-MIN KMSN 080925Z 00000KT 10SM CLR 15/12 A3019 610 80 800 000/00 RMK AO2
14837KMSN MSN20060708033009207/08/06 03:30:31  5-MIN KMSN 080930Z 19003KT 10SM CLR 16/12 A3019 620 77 900 190/03 RMK AO2
14837KMSN MSN20060708033509207/08/06 03:35:31  5-MIN KMSN 080935Z 18003KT 10SM CLR 16/12 A3019 610 75 900 180/03 RMK AO2
14837KMSN MSN20060708034009307/08/06 03:40:31  5-MIN KMSN 080940Z 17003KT 10SM CLR 17/12 A3019 610 72 1000 170/03 RMK AO2
14837KMSN MSN20060708034509307/08/06 03:45:31  5-MIN KMSN 080945Z 00000KT 10SM CLR 17/12 A3020 610 72 1000 000/00 RMK AO2
14837KMSN MSN20060708035010907/08/06 03:50:31  5-MIN KMSN 080950Z 00000KT 10SM CLR 14/11 A3020 610 83 700 000/00 RMK AO2 SLP222 T01390111
14837KMSN MSN20060708035509207/08/06 03:55:31  5-MIN KMSN 080955Z 00000KT 10SM CLR 14/11 A3019 610 83 700 000/00 RMK AO2
14837KMSN MSN20060708040009207/08/06 04:00:31  5-MIN KMSN 081000Z 00000KT 10SM CLR 14/12 A3019 620 86 700 000/00 RMK AO2
14837KMSN MSN20060708040509207/08/06 04:05:31  5-MIN KMSN 081005Z 00000KT 10SM CLR 15/11 A3019 620 77 800 000/00 RMK AO2
14837KMSN MSN20060708041009207/08/06 04:10:31  5-MIN KMSN 081010Z 00000KT 10SM CLR 15/11 A3019 620 77 800 000/00 RMK AO2
14837KMSN MSN20060708041509207/08/06 04:15:31  5-MIN KMSN 081015Z 15004KT 10SM CLR 14/11 A3019 620 80 700 150/04 RMK AO2
14837KMSN MSN20060708042009207/08/06 04:20:31  5-MIN KMSN 081020Z 15004KT 10SM CLR 15/11 A3019 620 77 800 150/04 RMK AO2
14837KMSN MSN20060708042509207/08/06 04:25:31  5-MIN KMSN 081025Z 00000KT 10SM CLR 16/12 A3019 620 77 900 000/00 RMK AO2
14837KMSN MSN20060708043009207/08/06 04:30:31  5-MIN KMSN 081030Z 18003KT 10SM CLR 16/12 A3019 620 77 900 180/03 RMK AO2
14837KMSN MSN20060708043509207/08/06 04:35:31  5-MIN KMSN 081035Z 19003KT 10SM CLR 16/12 A3019 620 77 900 190/03 RMK AO2
14837KMSN MSN20060708044009207/08/06 04:40:31  5-MIN KMSN 081040Z 19004KT 10SM CLR 16/12 A3019 620 77 900 190/04 RMK AO2
14837KMSN MSN20060708044509207/08/06 04:45:31  5-MIN KMSN 081045Z 19003KT 10SM CLR 16/12 A3019 620 77 900 190/03 RMK AO2
14837KMSN MSN20060708045011007/08/06 04:50:31  5-MIN KMSN 081050Z 00000KT 10SM CLR 17/12 A3019 620 75 1000 000/00 RMK AO2 SLP219 T01670122
14837KMSN MSN20060708045509307/08/06 04:55:31  5-MIN KMSN 081055Z 00000KT 10SM CLR 17/12 A3019 620 75 1000 000/00 RMK AO2
14837KMSN MSN20060708050009307/08/06 05:00:31  5-MIN KMSN 081100Z 00000KT 10SM CLR 17/12 A3019 620 72 1100 000/00 RMK AO2
14837KMSN MSN20060708050509307/08/06 05:05:31  5-MIN KMSN 081105Z 18003KT 10SM CLR 17/12 A3019 620 75 1000 180/03 RMK AO2
14837KMSN MSN20060708051009307/08/06 05:10:31  5-MIN KMSN 081110Z 00000KT 10SM CLR 17/12 A3019 620 75 1000 000/00 RMK AO2
14837KMSN MSN20060708051509307/08/06 05:15:31  5-MIN KMSN 081115Z 00000KT 10SM CLR 17/12 A3018 620 75 1000 000/00 RMK AO2
14837KMSN MSN20060708052009207/08/06 05:20:31  5-MIN KMSN 081120Z 16004KT 10SM CLR 16/12 A3018 630 77 900 160/04 RMK AO2
14837KMSN MSN20060708052509307/08/06 05:25:31  5-MIN KMSN 081125Z 16005KT 10SM CLR 17/12 A3018 630 75 1000 160/05 RMK AO2
14837KMSN MSN20060708053009307/08/06 05:30:31  5-MIN KMSN 081130Z 18005KT 10SM CLR 17/13 A3018 620 77 1000 180/05 RMK AO2
14837KMSN MSN20060708053509307/08/06 05:35:31  5-MIN KMSN 081135Z 19004KT 10SM CLR 17/13 A3018 620 75 1100 180/04 RMK AO2
14837KMSN MSN20060708054009307/08/06 05:40:31  5-MIN KMSN 081140Z 18005KT 10SM CLR 17/13 A3018 620 75 1100 180/05 RMK AO2
14837KMSN MSN20060708054509307/08/06 05:45:31  5-MIN KMSN 081145Z 21004KT 10SM CLR 17/13 A3018 620 75 1100 200/04 RMK AO2
14837KMSN MSN20060708055012807/08/06 05:50:31  5-MIN KMSN 081150Z 19003KT 10SM CLR 18/13 A3018 620 72 1100 180/03 RMK AO2 SLP217 T01780128 10178 20133 58013
14837KMSN MSN20060708055509307/08/06 05:55:31  5-MIN KMSN 081155Z 00000KT 10SM CLR 18/13 A3018 620 72 1100 000/00 RMK AO2
14837KMSN MSN20060708060009307/08/06 06:00:31  5-MIN KMSN 081200Z 00000KT 10SM CLR 18/13 A3018 620 70 1200 000/00 RMK AO2
14837KMSN MSN20060708060509207/08/06 06:05:31  5-MIN KMSN 081205Z 00000KT 9SM CLR 19/13 A3018 620 70 1300 000/00 RMK AO2
14837KMSN MSN20060708061009207/08/06 06:10:31  5-MIN KMSN 081210Z 00000KT 9SM CLR 19/13 A3018 620 70 1300 000/00 RMK AO2
14837KMSN MSN20060708061509307/08/06 06:15:31  5-MIN KMSN 081215Z 18006KT 10SM CLR 19/13 A3018 630 65 1300 180/06 RMK AO2
14837KMSN MSN20060708062009307/08/06 06:20:31  5-MIN KMSN 081220Z 19006KT 10SM CLR 19/13 A3018 630 65 1300 190/06 RMK AO2
14837KMSN MSN20060708062509307/08/06 06:25:31  5-MIN KMSN 081225Z 18007KT 10SM CLR 19/13 A3018 630 65 1300 180/07 RMK AO2
14837KMSN MSN20060708063009307/08/06 06:30:31  5-MIN KMSN 081230Z 18007KT 10SM CLR 19/13 A3018 630 65 1300 180/07 RMK AO2
14837KMSN MSN20060708063509307/08/06 06:35:31  5-MIN KMSN 081235Z 18007KT 10SM CLR 20/13 A3018 630 63 1400 180/07 RMK AO2
14837KMSN MSN20060708064009307/08/06 06:40:31  5-MIN KMSN 081240Z 19008KT 10SM CLR 21/13 A3017 630 63 1500 190/08 RMK AO2
14837KMSN MSN20060708064509307/08/06 06:45:31  5-MIN KMSN 081245Z 19007KT 10SM CLR 21/13 A3017 630 63 1500 190/07 RMK AO2
14837KMSN MSN20060708065011007/08/06 06:50:31  5-MIN KMSN 081250Z 19006KT 10SM CLR 21/13 A3017 630 61 1500 190/06 RMK AO2 SLP213 T02110133
14837KMSN MSN20060708065509307/08/06 06:55:31  5-MIN KMSN 081255Z VRB05KT 10SM CLR 21/13 A3017 630 61 1500 VRB/05 RMK AO2
14837KMSN MSN20060708070009307/08/06 07:00:31  5-MIN KMSN 081300Z 19005KT 10SM CLR 22/13 A3018 630 58 1600 190/05 RMK AO2
14837KMSN MSN20060708070509307/08/06 07:05:31  5-MIN KMSN 081305Z VRB06KT 10SM CLR 22/14 A3018 630 61 1600 VRB/06 RMK AO2
14837KMSN MSN20060708071010907/08/06 07:10:31  5-MIN KMSN 081310Z 23008KT 190V260 10SM CLR 22/14 A3018 630 61 1600 230/08 190V260 RMK AO2
14837KMSN MSN20060708071509307/08/06 07:15:31  5-MIN KMSN 081315Z 23008KT 10SM CLR 22/13 A3017 630 58 1600 230/08 RMK AO2
14837KMSN MSN20060708072009307/08/06 07:20:31  5-MIN KMSN 081320Z 22010KT 10SM CLR 22/14 A3017 630 61 1600 220/10 RMK AO2
14837KMSN MSN20060708072509307/08/06 07:25:31  5-MIN KMSN 081325Z 22006KT 10SM CLR 22/14 A3017 630 61 1600 220/06 RMK AO2
14837KMSN MSN20060708073009307/08/06 07:30:31  5-MIN KMSN 081330Z VRB06KT 10SM CLR 22/14 A3017 630 59 1700 VRB/06 RMK AO2
14837KMSN MSN20060708073509307/08/06 07:35:31  5-MIN KMSN 081335Z 21007KT 10SM CLR 22/14 A3017 630 59 1700 210/07 RMK AO2
14837KMSN MSN20060708074009307/08/06 07:40:31  5-MIN KMSN 081340Z 22009KT 10SM CLR 22/14 A3017 630 59 1700 220/09 RMK AO2
14837KMSN MSN20060708074509307/08/06 07:45:31  5-MIN KMSN 081345Z 21009KT 10SM CLR 23/14 A3017 630 57 1700 210/09 RMK AO2
14837KMSN MSN20060708075011007/08/06 07:50:31  5-MIN KMSN 081350Z 21009KT 10SM CLR 23/14 A3017 640 57 1700 210/09 RMK AO2 SLP211 T02280139
14837KMSN MSN20060708075509307/08/06 07:55:31  5-MIN KMSN 081355Z 22008KT 10SM CLR 22/14 A3017 640 59 1700 220/08 RMK AO2
14837KMSN MSN20060708080009307/08/06 08:00:31  5-MIN KMSN 081400Z 22007KT 10SM CLR 23/14 A3017 640 57 1700 220/07 RMK AO2
14837KMSN MSN20060708080510907/08/06 08:05:31  5-MIN KMSN 081405Z 22009KT 190V250 10SM CLR 23/14 A3016 640 55 1800 220/09 190V250 RMK AO2
14837KMSN MSN20060708081009307/08/06 08:10:31  5-MIN KMSN 081410Z 20007KT 10SM CLR 23/14 A3016 640 55 1800 200/07 RMK AO2
14837KMSN MSN20060708081509307/08/06 08:15:31  5-MIN KMSN 081415Z 21010KT 10SM CLR 23/14 A3016 650 55 1800 210/10 RMK AO2
14837KMSN MSN20060708082009307/08/06 08:20:31  5-MIN KMSN 081420Z 21009KT 10SM CLR 23/14 A3016 650 55 1800 210/09 RMK AO2
14837KMSN MSN20060708082509307/08/06 08:25:31  5-MIN KMSN 081425Z 22007KT 10SM CLR 24/14 A3015 650 53 1900 220/07 RMK AO2
14837KMSN MSN20060708083009307/08/06 08:30:31  5-MIN KMSN 081430Z 20007KT 10SM CLR 24/14 A3016 650 53 1900 200/07 RMK AO2
14837KMSN MSN20060708083509307/08/06 08:35:31  5-MIN KMSN 081435Z 21009KT 10SM CLR 24/14 A3016 650 55 1900 210/09 RMK AO2
14837KMSN MSN20060708084010907/08/06 08:40:31  5-MIN KMSN 081440Z 21010KT 180V240 10SM CLR 24/14 A3015 650 55 1900 210/10 180V240 RMK AO2
14837KMSN MSN20060708084509307/08/06 08:45:31  5-MIN KMSN 081445Z 22009KT 10SM CLR 24/14 A3015 650 53 1900 220/09 RMK AO2
14837KMSN MSN20060708085011607/08/06 08:50:31  5-MIN KMSN 081450Z 20009KT 10SM CLR 24/14 A3015 650 53 1900 200/09 RMK AO2 SLP204 T02440144 50002
14837KMSN MSN20060708085509307/08/06 08:55:31  5-MIN KMSN 081455Z 22008KT 10SM CLR 24/14 A3015 650 53 1900 220/08 RMK AO2
14837KMSN MSN20060708090009307/08/06 09:00:31  5-MIN KMSN 081500Z 20008KT 10SM CLR 24/14 A3015 650 53 1900 200/08 RMK AO2
14837KMSN MSN20060708090509307/08/06 09:05:31  5-MIN KMSN 081505Z 21010KT 10SM CLR 24/14 A3015 650 53 1900 210/10 RMK AO2
14837KMSN MSN20060708091009307/08/06 09:10:31  5-MIN KMSN 081510Z 23011KT 10SM CLR 25/14 A3015 660 51 2000 230/11 RMK AO2
14837KMSN MSN20060708091510907/08/06 09:15:31  5-MIN KMSN 081515Z 23008KT 180V250 10SM CLR 25/14 A3015 660 51 2000 230/08 180V250 RMK AO2
14837KMSN MSN20060708092009307/08/06 09:20:31  5-MIN KMSN 081520Z 22008KT 10SM CLR 26/15 A3015 650 51 2100 220/08 RMK AO2
14837KMSN MSN20060708092509307/08/06 09:25:31  5-MIN KMSN 081525Z 24009KT 10SM CLR 26/15 A3015 660 51 2100 240/09 RMK AO2
14837KMSN MSN20060708093009907/08/06 09:30:31  5-MIN KMSN 081530Z 23012G16KT 10SM CLR 26/14 A3015 660 48 2100 230/12G16 RMK AO2
14837KMSN MSN20060708093509907/08/06 09:35:31  5-MIN KMSN 081535Z 23007G17KT 10SM CLR 26/14 A3015 660 48 2100 230/07G17 RMK AO2
14837KMSN MSN20060708094009907/08/06 09:40:31  5-MIN KMSN 081540Z 23012G17KT 10SM CLR 26/14 A3015 660 48 2100 230/12G17 RMK AO2
14837KMSN MSN20060708094509907/08/06 09:45:31  5-MIN KMSN 081545Z 21010G17KT 10SM CLR 26/14 A3014 660 46 2100 210/10G17 RMK AO2
14837KMSN MSN20060708095011907/08/06 09:50:31  5-MIN KMSN 081550Z 21011G16KT 10SM FEW050 27/14 A3014 660 45 2200 210/11G16 RMK AO2 SLP203 T02670139
14837KMSN MSN20060708095509907/08/06 09:55:31  5-MIN KMSN 081555Z 21010G17KT 10SM CLR 27/14 A3014 660 45 2200 210/10G17 RMK AO2
14837KMSN MSN20060708100009907/08/06 10:00:31  5-MIN KMSN 081600Z 23011G17KT 10SM CLR 27/14 A3014 660 45 2200 230/11G17 RMK AO2
14837KMSN MSN20060708100509907/08/06 10:05:31  5-MIN KMSN 081605Z 23010G16KT 10SM CLR 26/14 A3014 660 46 2100 230/10G16 RMK AO2
14837KMSN MSN20060708101011507/08/06 10:10:31  5-MIN KMSN 081610Z 23009G16KT 200V270 10SM CLR 26/14 A3013 670 46 2100 230/09G16 200V270 RMK AO2
14837KMSN MSN20060708101509907/08/06 10:15:31  5-MIN KMSN 081615Z 21007G14KT 10SM CLR 26/14 A3013 670 46 2100 210/07G14 RMK AO2
14837KMSN MSN20060708102010907/08/06 10:20:31  5-MIN KMSN 081620Z 24009KT 210V290 10SM CLR 27/14 A3013 670 46 2200 240/09 210V290 RMK AO2
14837KMSN MSN20060708102509307/08/06 10:25:31  5-MIN KMSN 081625Z VRB06KT 10SM CLR 27/14 A3013 680 45 2200 VRB/06 RMK AO2
14837KMSN MSN20060708103009307/08/06 10:30:31  5-MIN KMSN 081630Z 23007KT 10SM CLR 27/14 A3012 680 45 2300 230/07 RMK AO2
14837KMSN MSN20060708103510907/08/06 10:35:31  5-MIN KMSN 081635Z 22008KT 200V260 10SM CLR 26/14 A3012 680 46 2200 220/08 200V260 RMK AO2
14837KMSN MSN20060708104009907/08/06 10:40:31  5-MIN KMSN 081640Z 23011G15KT 10SM CLR 26/14 A3012 680 46 2200 230/11G15 RMK AO2
14837KMSN MSN20060708104509907/08/06 10:45:31  5-MIN KMSN 081645Z 23009G15KT 10SM CLR 27/13 A3012 680 43 2200 230/09G15 RMK AO2
14837KMSN MSN20060708105012907/08/06 10:50:31  5-MIN KMSN 081650Z 23010KT 190V260 10SM FEW050 27/13 A3011 690 43 2200 230/10 190V260 RMK AO2 SLP192 T02670133
14837KMSN MSN20060708105509307/08/06 10:55:31  5-MIN KMSN 081655Z 23011KT 10SM CLR 27/14 A3011 690 43 2300 230/11 RMK AO2
14837KMSN MSN20060708110009907/08/06 11:00:31  5-MIN KMSN 081700Z 24009G15KT 10SM CLR 27/13 A3011 690 42 2300 240/09G15 RMK AO2
14837KMSN MSN20060708110511507/08/06 11:05:31  5-MIN KMSN 081705Z 24009G15KT 200V260 10SM CLR 27/14 A3011 690 43 2300 230/09G15 200V260 RMK AO2
14837KMSN MSN20060708111010907/08/06 11:10:31  5-MIN KMSN 081710Z 24009KT 190V270 10SM CLR 27/14 A3011 690 43 2300 240/09 190V270 RMK AO2
14837KMSN MSN20060708111509907/08/06 11:15:31  5-MIN KMSN 081715Z 25010G15KT 10SM CLR 27/14 A3011 690 43 2300 250/10G15 RMK AO2
14837KMSN MSN20060708112009907/08/06 11:20:31  5-MIN KMSN 081720Z 22009G15KT 10SM CLR 27/14 A3011 690 45 2300 220/09G15 RMK AO2
14837KMSN MSN20060708112510907/08/06 11:25:31  5-MIN KMSN 081725Z 23009KT 200V270 10SM CLR 27/14 A3010 690 45 2300 230/09 200V270 RMK AO2
14837KMSN MSN20060708113009307/08/06 11:30:31  5-MIN KMSN 081730Z 26009KT 10SM CLR 27/14 A3010 700 45 2300 260/09 RMK AO2
14837KMSN MSN20060708113510907/08/06 11:35:31  5-MIN KMSN 081735Z 25011KT 220V280 10SM CLR 27/14 A3010 700 45 2300 240/11 220V280 RMK AO2
14837KMSN MSN20060708114011507/08/06 11:40:31  5-MIN KMSN 081740Z 24010G15KT 210V280 10SM CLR 28/14 A3010 700 43 2400 240/10G15 210V280 RMK AO2
14837KMSN MSN20060708114509307/08/06 11:45:31  5-MIN KMSN 081745Z 23009KT 10SM CLR 27/14 A3009 700 45 2300 230/09 RMK AO2
14837KMSN MSN20060708115014707/08/06 11:50:31  5-MIN KMSN 081750Z 26010KT 230V290 10SM FEW050 27/14 A3009 700 45 2300 260/10 230V290 RMK AO2 SLP187 T02720144 10278 20178 58011
14837KMSN MSN20060708115510907/08/06 11:55:31  5-MIN KMSN 081755Z 24007KT 200V280 10SM CLR 28/14 A3009 710 43 2400 240/07 200V280 RMK AO2
14837KMSN MSN20060708120010907/08/06 12:00:31  5-MIN KMSN 081800Z 25008KT 210V300 10SM CLR 28/14 A3009 710 43 2400 240/08 210V300 RMK AO2
14837KMSN MSN20060708120510907/08/06 12:05:31  5-MIN KMSN 081805Z 24009KT 200V270 10SM CLR 27/14 A3009 710 43 2300 240/09 200V270 RMK AO2
14837KMSN MSN20060708121009307/08/06 12:10:31  5-MIN KMSN 081810Z 22007KT 10SM CLR 28/14 A3008 720 43 2400 220/07 RMK AO2
14837KMSN MSN20060708121510907/08/06 12:15:31  5-MIN KMSN 081815Z 22008KT 180V250 10SM CLR 28/14 A3008 720 42 2400 220/08 180V250 RMK AO2
14837KMSN MSN20060708122009307/08/06 12:20:31  5-MIN KMSN 081820Z 22011KT 10SM CLR 28/14 A3008 720 40 2500 220/11 RMK AO2
14837KMSN MSN20060708122509307/08/06 12:25:31  5-MIN KMSN 081825Z 20008KT 10SM CLR 28/14 A3007 720 42 2400 200/08 RMK AO2
14837KMSN MSN20060708123009307/08/06 12:30:31  5-MIN KMSN 081830Z 21011KT 10SM CLR 29/14 A3007 730 39 2500 210/11 RMK AO2
14837KMSN MSN20060708123510907/08/06 12:35:31  5-MIN KMSN 081835Z 23009KT 200V270 10SM CLR 28/14 A3007 730 40 2500 230/09 200V270 RMK AO2
14837KMSN MSN20060708124010907/08/06 12:40:31  5-MIN KMSN 081840Z 23008KT 190V270 10SM CLR 28/14 A3007 730 40 2500 230/08 190V270 RMK AO2
14837KMSN MSN20060708124510907/08/06 12:45:31  5-MIN KMSN 081845Z 22008KT 170V250 10SM CLR 28/14 A3006 730 40 2500 220/08 170V250 RMK AO2
14837KMSN MSN20060708125011907/08/06 12:50:31  5-MIN KMSN 081850Z 23009G16KT 10SM FEW055 28/14 A3006 730 40 2500 230/09G16 RMK AO2 SLP175 T02830139
14837KMSN MSN20060708125511507/08/06 12:55:31  5-MIN KMSN 081855Z 23009G16KT 170V280 10SM CLR 28/14 A3006 740 40 2500 230/09G16 170V280 RMK AO2
14837KMSN MSN20060708130009907/08/06 13:00:31  5-MIN KMSN 081900Z 24010G15KT 10SM CLR 28/14 A3006 740 40 2500 240/10G15 RMK AO2
14837KMSN MSN20060708130511507/08/06 13:05:31  5-MIN KMSN 081905Z 21009G15KT 180V240 10SM CLR 29/14 A3005 740 39 2500 210/09G15 180V240 RMK AO2
14837KMSN MSN20060708131009907/08/06 13:10:31  5-MIN KMSN 081910Z VRB06G14KT 10SM CLR 29/14 A3005 740 39 2600 VRB/06G14 RMK AO2
14837KMSN MSN20060708131509307/08/06 13:15:31  5-MIN KMSN 081915Z 23008KT 10SM CLR 28/14 A3005 740 42 2500 230/08 RMK AO2
14837KMSN MSN20060708132009307/08/06 13:20:31  5-MIN KMSN 081920Z 23010KT 10SM CLR 28/14 A3005 750 42 2500 230/10 RMK AO2
14837KMSN MSN20060708132509907/08/06 13:25:31  5-MIN KMSN 081925Z 23010G16KT 10SM CLR 29/14 A3005 750 39 2500 230/10G16 RMK AO2
14837KMSN MSN20060708133009907/08/06 13:30:31  5-MIN KMSN 081930Z VRB06G16KT 10SM CLR 29/14 A3005 750 39 2600 VRB/06G16 RMK AO2
14837KMSN MSN20060708133509307/08/06 13:35:31  5-MIN KMSN 081935Z 23006KT 10SM CLR 29/14 A3005 750 40 2600 230/06 RMK AO2
14837KMSN MSN20060708134010907/08/06 13:40:31  5-MIN KMSN 081940Z 24008KT 210V270 10SM CLR 29/14 A3005 750 40 2600 240/08 210V270 RMK AO2
14837KMSN MSN20060708134509307/08/06 13:45:31  5-MIN KMSN 081945Z VRB06KT 10SM CLR 28/14 A3005 750 42 2500 VRB/06 RMK AO2
14837KMSN MSN20060708135011607/08/06 13:50:31  5-MIN KMSN 081950Z 23007G14KT 10SM CLR 28/15 A3005 750 43 2500 230/07G14 RMK AO2 SLP170 T02830150
14837KMSN MSN20060708135509307/08/06 13:55:31  5-MIN KMSN 081955Z 23009KT 10SM CLR 28/14 A3004 750 43 2400 230/09 RMK AO2
14837KMSN MSN20060708140009307/08/06 14:00:31  5-MIN KMSN 082000Z 23009KT 10SM CLR 28/14 A3004 750 43 2400 230/09 RMK AO2
14837KMSN MSN20060708140509307/08/06 14:05:31  5-MIN KMSN 082005Z 23007KT 10SM CLR 28/14 A3004 750 42 2400 230/07 RMK AO2
14837KMSN MSN20060708141009307/08/06 14:10:31  5-MIN KMSN 082010Z 23009KT 10SM CLR 27/14 A3004 750 45 2400 230/09 RMK AO2
14837KMSN MSN20060708141509307/08/06 14:15:31  5-MIN KMSN 082015Z 24007KT 10SM CLR 27/14 A3005 750 43 2400 240/07 RMK AO2
14837KMSN MSN20060708142009307/08/06 14:20:31  5-MIN KMSN 082020Z 23007KT 10SM CLR 27/14 A3004 750 45 2400 230/07 RMK AO2
14837KMSN MSN20060708142510907/08/06 14:25:31  5-MIN KMSN 082025Z 24008KT 200V280 10SM CLR 27/14 A3004 750 45 2400 240/08 200V280 RMK AO2
14837KMSN MSN20060708143009307/08/06 14:30:31  5-MIN KMSN 082030Z VRB06KT 10SM CLR 27/15 A3004 750 46 2400 VRB/06 RMK AO2
14837KMSN MSN20060708143511207/08/06 14:35:31  5-MIN KMSN 082035Z 24008KT 220V300 10SM FEW110 27/15 A3004 750 46 2400 240/08 220V300 RMK AO2
14837KMSN MSN20060708144011207/08/06 14:40:31  5-MIN KMSN 082040Z 23007KT 200V280 10SM FEW110 27/15 A3004 750 46 2400 230/07 200V280 RMK AO2
14837KMSN MSN20060708144511207/08/06 14:45:31  5-MIN KMSN 082045Z 24008KT 210V270 10SM FEW110 27/15 A3004 750 46 2400 230/08 210V270 RMK AO2
14837KMSN MSN20060708145013507/08/06 14:50:31  5-MIN KMSN 082050Z 23007KT 190V270 10SM FEW110 27/15 A3004 760 46 2400 230/07 190V270 RMK AO2 SLP167 T02720150 58018
14837KMSN MSN20060708145511207/08/06 14:55:31  5-MIN KMSN 082055Z 23009KT 190V260 10SM FEW110 27/15 A3004 760 46 2400 230/09 190V260 RMK AO2
14837KMSN MSN20060708150009607/08/06 15:00:31  5-MIN KMSN 082100Z 22007KT 10SM FEW110 27/14 A3003 760 45 2400 220/07 RMK AO2
14837KMSN MSN20060708150509607/08/06 15:05:31  5-MIN KMSN 082105Z 23010KT 10SM FEW100 27/15 A3003 760 46 2400 230/10 RMK AO2
14837KMSN MSN20060708151009607/08/06 15:10:31  5-MIN KMSN 082110Z 23008KT 10SM SCT100 27/14 A3003 760 45 2400 230/08 RMK AO2
14837KMSN MSN20060708151509607/08/06 15:15:31  5-MIN KMSN 082115Z 22009KT 10SM SCT100 27/15 A3003 760 46 2400 220/09 RMK AO2
14837KMSN MSN20060708152009607/08/06 15:20:31  5-MIN KMSN 082120Z 24009KT 10SM SCT100 27/14 A3003 770 45 2400 240/09 RMK AO2
14837KMSN MSN20060708152509607/08/06 15:25:31  5-MIN KMSN 082125Z 24007KT 10SM BKN100 27/14 A3003 760 46 2300 230/07 RMK AO2
14837KMSN MSN20060708153011207/08/06 15:30:31  5-MIN KMSN 082130Z 23008KT 210V290 10SM BKN100 27/15 A3003 760 48 2300 230/08 210V290 RMK AO2
14837KMSN MSN20060708153510207/08/06 15:35:31  5-MIN KMSN 082135Z 23008G16KT 10SM BKN100 27/14 A3003 760 46 2300 230/08G16 RMK AO2
14837KMSN MSN20060708154010207/08/06 15:40:31  5-MIN KMSN 082140Z 24007G16KT 10SM BKN100 27/14 A3003 760 46 2300 240/07G16 RMK AO2
14837KMSN MSN20060708154511207/08/06 15:45:31  5-MIN KMSN 082145Z 23009KT 190V260 10SM BKN100 27/15 A3003 760 48 2300 230/09 190V260 RMK AO2
14837KMSN MSN20060708155011307/08/06 15:50:31  5-MIN KMSN 082150Z 23009KT 10SM BKN095 26/14 A3003 770 48 2300 230/09 RMK AO2 SLP165 T02610144
14837KMSN MSN20060708155510607/08/06 15:55:31  5-MIN KMSN 082155Z 23007KT 10SM -RA BKN100 26/14 A3003 770 48 2300 220/07 RMK AO2 P0000
14837KMSN MSN20060708160012207/08/06 16:00:31  5-MIN KMSN 082200Z 22007KT 190V250 10SM -RA BKN100 26/14 A3003 770 48 2300 220/07 190V250 RMK AO2 P0000
14837KMSN MSN20060708160510807/08/06 16:05:31  5-MIN KMSN 082205Z 23007KT 10SM OVC100 26/14 A3003 770 48 2300 230/07 RMK AO2 RAE05 P0000
14837KMSN MSN20060708161010807/08/06 16:10:31  5-MIN KMSN 082210Z VRB05KT 10SM BKN100 26/15 A3003 770 50 2300 VRB/05 RMK AO2 RAE05 P0000
14837KMSN MSN20060708161511507/08/06 16:15:31  5-MIN KMSN 082215Z 22006KT 10SM BKN095 BKN110 26/15 A3003 770 50 2300 220/06 RMK AO2 RAE05 P0000
14837KMSN MSN20060708162010607/08/06 16:20:31  5-MIN KMSN 082220Z 23005KT 10SM -RA BKN100 26/15 A3003 770 50 2300 230/05 RMK AO2 P0000
14837KMSN MSN20060708162511307/08/06 16:25:31  5-MIN KMSN 082225Z 23008KT 10SM -RA SCT100 BKN110 26/15 A3002 770 50 2300 230/08 RMK AO2 P0000
14837KMSN MSN20060708163011507/08/06 16:30:31  5-MIN KMSN 082230Z 22007KT 10SM FEW090 SCT110 26/15 A3002 770 50 2300 220/07 RMK AO2 RAE28 P0000
14837KMSN MSN20060708163512407/08/06 16:35:31  5-MIN KMSN 082235Z 23007KT 190V250 10SM FEW090 26/15 A3002 780 50 2300 230/07 190V250 RMK AO2 RAE28 P0000
14837KMSN MSN20060708164010807/08/06 16:40:31  5-MIN KMSN 082240Z 22009KT 10SM FEW110 26/15 A3002 780 50 2300 220/09 RMK AO2 RAE28 P0000
14837KMSN MSN20060708164513007/08/06 16:45:31  5-MIN KMSN 082245Z 24008KT 190V260 8SM -RA FEW023 26/16 A3002 770 51 2300 230/08 190V260 RMK AO2 RAE28B45 P0000
14837KMSN MSN20060708165014507/08/06 16:50:31  5-MIN KMSN 082250Z 24007KT 8SM -RA FEW025 SCT095 BKN120 25/16 A3002 770 57 2100 240/07 RMK AO2 RAE28B45 SLP162 P0000 T02500161
14837KMSN MSN20060708165511107/08/06 16:55:31  5-MIN KMSN 082255Z 26009G14KT 7SM -RA SCT017 24/16 A3002 770 61 2000 260/09G14 RMK AO2 P0000
14837KMSN MSN20060708170012507/08/06 17:00:31  5-MIN KMSN 082300Z 23007G14KT 9SM -RA SCT017 SCT095 BKN120 23/17 A3002 770 66 2000 230/07G14 RMK AO2 P0000
14837KMSN MSN20060708170511907/08/06 17:05:31  5-MIN KMSN 082305Z 23005KT 8SM -RA SCT017 SCT095 BKN120 23/17 A3002 770 66 2000 230/05 RMK AO2 P0000
14837KMSN MSN20060708171011907/08/06 17:10:31  5-MIN KMSN 082310Z VRB05KT 6SM -RA SCT018 SCT095 BKN120 23/17 A3002 770 70 1900 VRB/05 RMK AO2 P0000
14837KMSN MSN20060708171511907/08/06 17:15:31  5-MIN KMSN 082315Z 22005KT 8SM -RA SCT018 SCT095 BKN120 23/17 A3002 780 70 1900 220/05 RMK AO2 P0000
14837KMSN MSN20060708172012207/08/06 17:20:31  5-MIN KMSN 082320Z 23006KT 10SM FEW018 SCT095 BKN120 23/17 A3001 780 68 2000 220/06 RMK AO2 RAE19 P0000
14837KMSN MSN20060708172512207/08/06 17:25:31  5-MIN KMSN 082325Z 23006KT 10SM FEW018 SCT095 BKN120 23/17 A3002 780 68 2000 230/06 RMK AO2 RAE19 P0000
14837KMSN MSN20060708173012207/08/06 17:30:31  5-MIN KMSN 082330Z 23005KT 10SM FEW018 SCT095 BKN120 24/18 A3002 770 68 2000 220/05 RMK AO2 RAE19 P0000
14837KMSN MSN20060708173513807/08/06 17:35:31  5-MIN KMSN 082335Z 23007KT 180V290 10SM FEW018 SCT095 BKN120 24/17 A3002 770 66 2000 230/07 180V290 RMK AO2 RAE19 P0000
14837KMSN MSN20060708174014407/08/06 17:40:31  5-MIN KMSN 082340Z 23008G16KT 200V280 10SM FEW070 SCT095 BKN120 24/17 A3002 770 66 2000 230/08G16 200V280 RMK AO2 RAE19 P0000
14837KMSN MSN20060708174512807/08/06 17:45:31  5-MIN KMSN 082345Z 23008G16KT 10SM FEW070 SCT095 BKN120 24/18 A3001 780 68 2000 230/08G16 RMK AO2 RAE19 P0000
14837KMSN MSN20060708175016307/08/06 17:50:31  5-MIN KMSN 082350Z VRB05KT 10SM FEW070 SCT095 BKN120 24/18 A3001 780 68 2000 VRB/05 RMK AO2 RAE19 SLP159 P0000 60000 T02390178 10294 20228 56019
14837KMSN MSN20060708175509607/08/06 17:55:31  5-MIN KMSN 082355Z 21005KT 10SM BKN080 24/18 A3001 780 68 2000 210/05 RMK AO2
14837KMSN MSN20060708180009607/08/06 18:00:31  5-MIN KMSN 090000Z 22006KT 10SM BKN085 24/17 A3001 780 66 2000 220/06 RMK AO2
14837KMSN MSN20060708180509607/08/06 18:05:31  5-MIN KMSN 090005Z 21007KT 10SM SCT085 24/17 A3001 780 66 2000 210/07 RMK AO2
14837KMSN MSN20060708181009607/08/06 18:10:31  5-MIN KMSN 090010Z 21007KT 10SM SCT085 24/17 A3001 780 63 2000 210/07 RMK AO2
14837KMSN MSN20060708181510307/08/06 18:15:31  5-MIN KMSN 090015Z 23004KT 10SM SCT065 BKN085 23/17 A3001 780 66 2000 230/04 RMK AO2
14837KMSN MSN20060708182010307/08/06 18:20:31  5-MIN KMSN 090020Z 20005KT 10SM BKN065 BKN085 23/17 A3001 780 66 2000 200/05 RMK AO2
14837KMSN MSN20060708182510307/08/06 18:25:31  5-MIN KMSN 090025Z 21005KT 10SM BKN065 BKN085 24/17 A3001 780 63 2000 210/05 RMK AO2
14837KMSN MSN20060708183009607/08/06 18:30:31  5-MIN KMSN 090030Z 21004KT 10SM BKN065 24/17 A3001 780 63 2000 210/04 RMK AO2
14837KMSN MSN20060708183509607/08/06 18:35:31  5-MIN KMSN 090035Z 21007KT 10SM OVC065 24/17 A3001 780 63 2000 210/07 RMK AO2
14837KMSN MSN20060708184009607/08/06 18:40:31  5-MIN KMSN 090040Z 20005KT 10SM OVC065 24/17 A3001 780 63 2000 200/05 RMK AO2
14837KMSN MSN20060708184509607/08/06 18:45:31  5-MIN KMSN 090045Z 21006KT 10SM OVC065 24/17 A3001 780 63 2000 210/06 RMK AO2
14837KMSN MSN20060708185012007/08/06 18:50:31  5-MIN KMSN 090050Z 21006KT 10SM BKN060 BKN085 24/17 A3001 790 63 2000 210/06 RMK AO2 SLP156 T02390167
14837KMSN MSN20060708185509607/08/06 18:55:31  5-MIN KMSN 090055Z 22005KT 10SM OVC060 24/16 A3001 790 61 2000 220/05 RMK AO2
14837KMSN MSN20060708190009607/08/06 19:00:31  5-MIN KMSN 090100Z 22006KT 10SM OVC060 24/16 A3000 790 61 2000 220/06 RMK AO2
14837KMSN MSN20060708190509607/08/06 19:05:31  5-MIN KMSN 090105Z 21007KT 10SM OVC060 24/16 A3000 790 61 2000 210/07 RMK AO2
14837KMSN MSN20060708191009607/08/06 19:10:31  5-MIN KMSN 090110Z 19005KT 10SM OVC060 24/16 A3000 790 61 2000 190/05 RMK AO2
14837KMSN MSN20060708191509607/08/06 19:15:31  5-MIN KMSN 090115Z 20004KT 10SM OVC060 24/16 A3000 790 61 2000 200/04 RMK AO2
14837KMSN MSN20060708192009607/08/06 19:20:31  5-MIN KMSN 090120Z 19007KT 10SM OVC060 24/16 A3000 790 61 2000 190/07 RMK AO2
14837KMSN MSN20060708192509607/08/06 19:25:31  5-MIN KMSN 090125Z 19007KT 10SM BKN060 23/16 A3000 790 63 2000 190/07 RMK AO2
14837KMSN MSN20060708193009607/08/06 19:30:31  5-MIN KMSN 090130Z 19005KT 10SM BKN060 23/16 A3000 790 63 2000 190/05 RMK AO2
14837KMSN MSN20060708193509607/08/06 19:35:31  5-MIN KMSN 090135Z 19006KT 10SM BKN060 23/16 A2999 800 63 2000 190/06 RMK AO2
14837KMSN MSN20060708194009607/08/06 19:40:31  5-MIN KMSN 090140Z 19006KT 10SM BKN060 23/16 A2999 800 63 2000 190/06 RMK AO2
14837KMSN MSN20060708194509607/08/06 19:45:31  5-MIN KMSN 090145Z 19007KT 10SM BKN060 23/16 A2999 800 63 2000 190/07 RMK AO2
14837KMSN MSN20060708195011307/08/06 19:50:31  5-MIN KMSN 090150Z 21004KT 10SM BKN060 23/16 A2999 800 63 2000 200/04 RMK AO2 SLP151 T02330161
14837KMSN MSN20060708195509607/08/06 19:55:31  5-MIN KMSN 090155Z 19006KT 10SM OVC055 23/16 A2999 800 63 2000 190/06 RMK AO2
14837KMSN MSN20060708200009607/08/06 20:00:31  5-MIN KMSN 090200Z 19006KT 10SM OVC055 23/16 A2999 800 63 2000 190/06 RMK AO2
14837KMSN MSN20060708200509607/08/06 20:05:31  5-MIN KMSN 090205Z 00000KT 10SM OVC055 23/16 A2999 800 63 2000 000/00 RMK AO2
14837KMSN MSN20060708201009607/08/06 20:10:31  5-MIN KMSN 090210Z 21004KT 10SM OVC050 23/16 A2999 800 63 2000 210/04 RMK AO2
14837KMSN MSN20060708201509607/08/06 20:15:31  5-MIN KMSN 090215Z 21003KT 10SM OVC050 23/16 A2999 800 63 2000 200/03 RMK AO2
14837KMSN MSN20060708202009607/08/06 20:20:31  5-MIN KMSN 090220Z 18005KT 10SM OVC050 23/17 A2999 800 66 2000 180/05 RMK AO2
14837KMSN MSN20060708202509607/08/06 20:25:31  5-MIN KMSN 090225Z 18005KT 10SM OVC050 23/17 A2999 800 66 2000 180/05 RMK AO2
14837KMSN MSN20060708203009607/08/06 20:30:31  5-MIN KMSN 090230Z 18005KT 10SM OVC050 23/17 A2999 800 66 2000 180/05 RMK AO2
14837KMSN MSN20060708203509607/08/06 20:35:31  5-MIN KMSN 090235Z 19005KT 10SM OVC050 23/17 A2999 800 66 2000 190/05 RMK AO2
14837KMSN MSN20060708204009607/08/06 20:40:31  5-MIN KMSN 090240Z VRB03KT 10SM OVC050 23/17 A2999 800 68 1900 VRB/03 RMK AO2
14837KMSN MSN20060708204509607/08/06 20:45:31  5-MIN KMSN 090245Z 18004KT 10SM OVC050 23/17 A2999 800 68 1900 180/04 RMK AO2
14837KMSN MSN20060708205011907/08/06 20:50:31  5-MIN KMSN 090250Z 18004KT 10SM SCT055 23/17 A2999 800 68 1900 180/04 RMK AO2 SLP150 T02280167 58008
14837KMSN MSN20060708205509607/08/06 20:55:31  5-MIN KMSN 090255Z VRB03KT 10SM BKN050 23/17 A2999 800 68 1900 VRB/03 RMK AO2
14837KMSN MSN20060708210009607/08/06 21:00:31  5-MIN KMSN 090300Z VRB03KT 10SM SCT050 22/17 A2999 800 70 1900 VRB/03 RMK AO2
14837KMSN MSN20060708210509607/08/06 21:05:31  5-MIN KMSN 090305Z 00000KT 10SM SCT050 22/17 A2999 800 70 1900 000/00 RMK AO2
14837KMSN MSN20060708211009607/08/06 21:10:31  5-MIN KMSN 090310Z 00000KT 10SM FEW050 23/17 A2999 800 68 1900 000/00 RMK AO2
14837KMSN MSN20060708211509307/08/06 21:15:31  5-MIN KMSN 090315Z VRB03KT 10SM CLR 22/17 A2999 800 70 1900 VRB/03 RMK AO2
14837KMSN MSN20060708212009307/08/06 21:20:31  5-MIN KMSN 090320Z VRB03KT 10SM CLR 22/17 A2999 800 73 1900 VRB/03 RMK AO2
14837KMSN MSN20060708212509307/08/06 21:25:31  5-MIN KMSN 090325Z VRB03KT 10SM CLR 23/17 A2999 800 70 1900 VRB/03 RMK AO2
14837KMSN MSN20060708213009307/08/06 21:30:31  5-MIN KMSN 090330Z 20004KT 10SM CLR 23/17 A2999 800 70 1900 200/04 RMK AO2
14837KMSN MSN20060708213509307/08/06 21:35:31  5-MIN KMSN 090335Z 21004KT 10SM CLR 23/17 A2999 800 70 1900 210/04 RMK AO2
14837KMSN MSN20060708214009307/08/06 21:40:31  5-MIN KMSN 090340Z 21005KT 10SM CLR 23/17 A2999 800 70 1900 210/05 RMK AO2
14837KMSN MSN20060708214509307/08/06 21:45:31  5-MIN KMSN 090345Z 22004KT 10SM CLR 23/17 A2999 800 70 1900 220/04 RMK AO2
14837KMSN MSN20060708215011007/08/06 21:50:31  5-MIN KMSN 090350Z VRB03KT 10SM CLR 23/17 A2999 800 70 1900 VRB/03 RMK AO2 SLP148 T02280172
14837KMSN MSN20060708215509307/08/06 21:55:31  5-MIN KMSN 090355Z 21005KT 10SM CLR 23/17 A2998 810 70 1900 210/05 RMK AO2
14837KMSN MSN20060708220009307/08/06 22:00:31  5-MIN KMSN 090400Z 21005KT 10SM CLR 23/17 A2998 810 70 1900 210/05 RMK AO2
14837KMSN MSN20060708220509307/08/06 22:05:31  5-MIN KMSN 090405Z 21005KT 10SM CLR 23/17 A2998 810 70 1900 210/05 RMK AO2
14837KMSN MSN20060708221009307/08/06 22:10:31  5-MIN KMSN 090410Z 22005KT 10SM CLR 23/17 A2998 810 70 1900 220/05 RMK AO2
14837KMSN MSN20060708221509307/08/06 22:15:31  5-MIN KMSN 090415Z 22006KT 10SM CLR 23/17 A2998 810 70 1900 220/06 RMK AO2
14837KMSN MSN20060708222009307/08/06 22:20:31  5-MIN KMSN 090420Z 21005KT 10SM CLR 23/17 A2997 810 70 1900 210/05 RMK AO2
14837KMSN MSN20060708222509307/08/06 22:25:31  5-MIN KMSN 090425Z 22005KT 10SM CLR 22/17 A2997 810 73 1900 220/05 RMK AO2
14837KMSN MSN20060708223009307/08/06 22:30:31  5-MIN KMSN 090430Z 22005KT 10SM CLR 22/17 A2997 820 73 1900 220/05 RMK AO2
14837KMSN MSN20060708223509307/08/06 22:35:31  5-MIN KMSN 090435Z 23006KT 10SM CLR 22/17 A2997 820 73 1900 230/06 RMK AO2
14837KMSN MSN20060708224009307/08/06 22:40:31  5-MIN KMSN 090440Z 21005KT 10SM CLR 22/17 A2997 820 73 1900 210/05 RMK AO2
14837KMSN MSN20060708224509307/08/06 22:45:31  5-MIN KMSN 090445Z 22007KT 10SM CLR 22/17 A2997 820 73 1900 220/07 RMK AO2
14837KMSN MSN20060708225011007/08/06 22:50:31  5-MIN KMSN 090450Z 22006KT 10SM CLR 22/17 A2996 820 73 1900 220/06 RMK AO2 SLP142 T02220172
14837KMSN MSN20060708225509307/08/06 22:55:31  5-MIN KMSN 090455Z VRB05KT 10SM CLR 22/17 A2996 820 73 1900 VRB/05 RMK AO2
14837KMSN MSN20060708230009307/08/06 23:00:31  5-MIN KMSN 090500Z 22006KT 10SM CLR 22/17 A2996 820 70 1900 210/06 RMK AO2
14837KMSN MSN20060708230509307/08/06 23:05:31  5-MIN KMSN 090505Z 22007KT 10SM CLR 22/17 A2996 820 70 1900 210/07 RMK AO2
14837KMSN MSN20060708231009307/08/06 23:10:31  5-MIN KMSN 090510Z 21005KT 10SM CLR 22/17 A2996 820 70 1900 210/05 RMK AO2
14837KMSN MSN20060708231509307/08/06 23:15:31  5-MIN KMSN 090515Z 22006KT 10SM CLR 22/17 A2996 830 70 1900 210/06 RMK AO2
14837KMSN MSN20060708232009307/08/06 23:20:31  5-MIN KMSN 090520Z 21005KT 10SM CLR 22/17 A2996 830 70 1900 210/05 RMK AO2
14837KMSN MSN20060708232509307/08/06 23:25:31  5-MIN KMSN 090525Z 21006KT 10SM CLR 22/17 A2996 830 70 1900 210/06 RMK AO2
14837KMSN MSN20060708233009307/08/06 23:30:31  5-MIN KMSN 090530Z 21006KT 10SM CLR 22/17 A2996 830 70 1900 210/06 RMK AO2
14837KMSN MSN20060708233509307/08/06 23:35:31  5-MIN KMSN 090535Z 21005KT 10SM CLR 22/17 A2996 830 70 1900 210/05 RMK AO2
14837KMSN MSN20060708234009307/08/06 23:40:31  5-MIN KMSN 090540Z 21005KT 10SM CLR 22/17 A2996 830 70 1900 210/05 RMK AO2
14837KMSN MSN20060708234509307/08/06 23:45:31  5-MIN KMSN 090545Z 21006KT 10SM CLR 22/17 A2996 830 70 1900 210/06 RMK AO2
14837KMSN MSN20060708235013807/08/06 23:50:31  5-MIN KMSN 090550Z 22007KT 10SM CLR 22/17 A2996 830 70 1900 220/07 RMK AO2 SLP139 T02220167 10239 20217 402940133 55007
14837KMSN MSN20060708235509307/08/06 23:55:31  5-MIN KMSN 090555Z 22006KT 10SM CLR 22/17 A2996 830 70 1900 220/06 RMK AO2
14837KMSN MSN20060709000009307/09/06 00:00:38  5-MIN KMSN 090600Z 21006KT 10SM CLR 22/17 A2995 830 70 1900 210/06 RMK AO2
14837KMSN MSN20060709000509307/09/06 00:05:31  5-MIN KMSN 090605Z 22006KT 10SM CLR 22/17 A2995 830 70 1900 210/06 RMK AO2
14837KMSN MSN20060709001009307/09/06 00:10:31  5-MIN KMSN 090610Z 22007KT 10SM CLR 22/17 A2995 830 73 1800 220/07 RMK AO2
14837KMSN MSN20060709001509307/09/06 00:15:32  5-MIN KMSN 090615Z 21006KT 10SM CLR 22/17 A2995 830 70 1900 210/06 RMK AO2
14837KMSN MSN20060709002009307/09/06 00:20:31  5-MIN KMSN 090620Z 22008KT 10SM CLR 22/17 A2996 830 70 1900 220/08 RMK AO2
14837KMSN MSN20060709002509307/09/06 00:25:31  5-MIN KMSN 090625Z 21006KT 10SM CLR 22/17 A2995 830 73 1800 210/06 RMK AO2
14837KMSN MSN20060709003009307/09/06 00:30:31  5-MIN KMSN 090630Z 21006KT 10SM CLR 22/17 A2995 840 73 1800 210/06 RMK AO2
14837KMSN MSN20060709003509307/09/06 00:35:31  5-MIN KMSN 090635Z 21006KT 10SM CLR 22/17 A2995 840 73 1800 210/06 RMK AO2
14837KMSN MSN20060709004009307/09/06 00:40:31  5-MIN KMSN 090640Z 21007KT 10SM CLR 22/17 A2995 840 73 1800 210/07 RMK AO2
14837KMSN MSN20060709004509307/09/06 00:45:31  5-MIN KMSN 090645Z 22007KT 10SM CLR 22/17 A2994 840 73 1900 220/07 RMK AO2
14837KMSN MSN20060709005011007/09/06 00:50:31  5-MIN KMSN 090650Z 22006KT 10SM CLR 22/17 A2994 840 73 1900 220/06 RMK AO2 SLP133 T02170167
14837KMSN MSN20060709005509307/09/06 00:55:31  5-MIN KMSN 090655Z 22008KT 10SM CLR 22/16 A2994 850 70 1900 220/08 RMK AO2
14837KMSN MSN20060709010009307/09/06 01:00:31  5-MIN KMSN 090700Z 22007KT 10SM CLR 22/16 A2994 850 70 1900 220/07 RMK AO2
14837KMSN MSN20060709010509307/09/06 01:05:31  5-MIN KMSN 090705Z 21007KT 10SM CLR 22/16 A2993 850 70 1900 210/07 RMK AO2
14837KMSN MSN20060709011010907/09/06 01:10:31  5-MIN KMSN 090710Z 22008KT 190V250 10SM CLR 22/16 A2993 850 70 1900 220/08 190V250 RMK AO2
14837KMSN MSN20060709011509307/09/06 01:15:31  5-MIN KMSN 090715Z 22006KT 10SM CLR 21/17 A2993 850 75 1800 220/06 RMK AO2
14837KMSN MSN20060709012009307/09/06 01:20:31  5-MIN KMSN 090720Z 22007KT 10SM CLR 21/17 A2993 850 75 1800 220/07 RMK AO2
14837KMSN MSN20060709012509307/09/06 01:25:31  5-MIN KMSN 090725Z 21005KT 10SM CLR 21/17 A2993 860 75 1800 210/05 RMK AO2
14837KMSN MSN20060709013009307/09/06 01:30:31  5-MIN KMSN 090730Z VRB05KT 10SM CLR 21/17 A2993 860 75 1800 VRB/05 RMK AO2
14837KMSN MSN20060709013509307/09/06 01:35:31  5-MIN KMSN 090735Z 23005KT 10SM CLR 21/17 A2993 860 75 1800 220/05 RMK AO2
14837KMSN MSN20060709014009307/09/06 01:40:31  5-MIN KMSN 090740Z 22006KT 10SM CLR 21/17 A2993 860 75 1800 220/06 RMK AO2
14837KMSN MSN20060709014509307/09/06 01:45:31  5-MIN KMSN 090745Z VRB05KT 10SM CLR 21/17 A2993 860 75 1800 VRB/05 RMK AO2
14837KMSN MSN20060709015010907/09/06 01:50:31  5-MIN KMSN 090750Z VRB06KT 9SM CLR 21/17 A2993 860 75 1800 VRB/06 RMK AO2 SLP129 T02110167
14837KMSN MSN20060709015509207/09/06 01:55:31  5-MIN KMSN 090755Z 22005KT 9SM CLR 21/17 A2993 860 75 1800 220/05 RMK AO2
14837KMSN MSN20060709020009207/09/06 02:00:31  5-MIN KMSN 090800Z 22004KT 9SM CLR 21/17 A2993 860 75 1800 220/04 RMK AO2
14837KMSN MSN20060709020509207/09/06 02:05:31  5-MIN KMSN 090805Z VRB06KT 9SM CLR 21/17 A2993 860 75 1800 VRB/06 RMK AO2
14837KMSN MSN20060709021009207/09/06 02:10:31  5-MIN KMSN 090810Z 23006KT 9SM CLR 21/17 A2993 860 78 1700 230/06 RMK AO2
14837KMSN MSN20060709021509207/09/06 02:15:31  5-MIN KMSN 090815Z 22005KT 9SM CLR 21/17 A2993 860 78 1700 220/05 RMK AO2
14837KMSN MSN20060709022009207/09/06 02:20:31  5-MIN KMSN 090820Z 22006KT 9SM CLR 21/17 A2992 860 78 1700 220/06 RMK AO2
14837KMSN MSN20060709022509207/09/06 02:25:31  5-MIN KMSN 090825Z 21005KT 9SM CLR 21/17 A2992 860 78 1700 210/05 RMK AO2
14837KMSN MSN20060709023009207/09/06 02:30:31  5-MIN KMSN 090830Z 22006KT 9SM CLR 21/17 A2992 860 78 1700 220/06 RMK AO2
14837KMSN MSN20060709023509207/09/06 02:35:31  5-MIN KMSN 090835Z 23006KT 9SM CLR 21/17 A2992 860 78 1700 230/06 RMK AO2
14837KMSN MSN20060709024009207/09/06 02:40:31  5-MIN KMSN 090840Z 22007KT 9SM CLR 21/17 A2992 860 78 1800 220/07 RMK AO2
14837KMSN MSN20060709024509207/09/06 02:45:31  5-MIN KMSN 090845Z VRB05KT 9SM CLR 21/17 A2992 870 78 1800 VRB/05 RMK AO2
14837KMSN MSN20060709025011507/09/06 02:50:31  5-MIN KMSN 090850Z 22005KT 9SM CLR 21/17 A2992 870 78 1800 220/05 RMK AO2 SLP126 T02060167 56011
14837KMSN MSN20060709025509207/09/06 02:55:31  5-MIN KMSN 090855Z 22005KT 9SM CLR 21/17 A2992 870 78 1800 220/05 RMK AO2
14837KMSN MSN20060709030009207/09/06 03:00:31  5-MIN KMSN 090900Z VRB06KT 9SM CLR 21/17 A2991 870 78 1800 VRB/06 RMK AO2
14837KMSN MSN20060709030509207/09/06 03:05:31  5-MIN KMSN 090905Z 23007KT 9SM CLR 21/17 A2992 870 78 1800 230/07 RMK AO2
14837KMSN MSN20060709031009207/09/06 03:10:31  5-MIN KMSN 090910Z VRB04KT 9SM CLR 21/17 A2992 870 78 1800 VRB/04 RMK AO2
14837KMSN MSN20060709031509207/09/06 03:15:31  5-MIN KMSN 090915Z 23007KT 9SM CLR 21/17 A2992 870 78 1800 230/07 RMK AO2
14837KMSN MSN20060709032009207/09/06 03:20:31  5-MIN KMSN 090920Z VRB05KT 9SM CLR 20/17 A2991 870 81 1700 VRB/05 RMK AO2
14837KMSN MSN20060709032509207/09/06 03:25:31  5-MIN KMSN 090925Z 23005KT 9SM CLR 21/17 A2991 870 78 1800 220/05 RMK AO2
14837KMSN MSN20060709033009207/09/06 03:30:31  5-MIN KMSN 090930Z 22005KT 9SM CLR 20/17 A2991 870 81 1700 220/05 RMK AO2
14837KMSN MSN20060709033509207/09/06 03:35:31  5-MIN KMSN 090935Z VRB04KT 9SM CLR 20/17 A2991 870 81 1700 VRB/04 RMK AO2
14837KMSN MSN20060709034009207/09/06 03:40:31  5-MIN KMSN 090940Z 22003KT 8SM CLR 20/17 A2991 870 81 1700 220/03 RMK AO2
14837KMSN MSN20060709034509207/09/06 03:45:31  5-MIN KMSN 090945Z 22005KT 8SM CLR 20/17 A2991 880 81 1700 220/05 RMK AO2
14837KMSN MSN20060709035010907/09/06 03:50:31  5-MIN KMSN 090950Z VRB04KT 8SM CLR 20/17 A2990 880 81 1700 VRB/04 RMK AO2 SLP121 T02000167
14837KMSN MSN20060709035509207/09/06 03:55:31  5-MIN KMSN 090955Z 23004KT 8SM CLR 20/17 A2990 880 81 1700 230/04 RMK AO2
14837KMSN MSN20060709040009207/09/06 04:00:31  5-MIN KMSN 091000Z 21005KT 8SM CLR 20/17 A2990 880 81 1700 210/05 RMK AO2
14837KMSN MSN20060709040509207/09/06 04:05:31  5-MIN KMSN 091005Z VRB05KT 8SM CLR 20/17 A2990 880 81 1700 VRB/05 RMK AO2
14837KMSN MSN20060709041009207/09/06 04:10:31  5-MIN KMSN 091010Z 23005KT 8SM CLR 20/17 A2990 880 81 1700 220/05 RMK AO2
14837KMSN MSN20060709041509207/09/06 04:15:31  5-MIN KMSN 091015Z VRB04KT 8SM CLR 20/17 A2990 880 81 1700 VRB/04 RMK AO2
14837KMSN MSN20060709042009207/09/06 04:20:31  5-MIN KMSN 091020Z VRB05KT 8SM CLR 20/17 A2990 880 81 1700 VRB/05 RMK AO2
14837KMSN MSN20060709042509207/09/06 04:25:31  5-MIN KMSN 091025Z VRB03KT 8SM CLR 20/17 A2990 880 81 1700 VRB/03 RMK AO2
14837KMSN MSN20060709043009207/09/06 04:30:31  5-MIN KMSN 091030Z VRB05KT 7SM CLR 20/17 A2991 880 81 1700 VRB/05 RMK AO2
14837KMSN MSN20060709043509207/09/06 04:35:31  5-MIN KMSN 091035Z 22006KT 7SM CLR 20/17 A2991 880 81 1700 220/06 RMK AO2
14837KMSN MSN20060709044009207/09/06 04:40:31  5-MIN KMSN 091040Z VRB06KT 7SM CLR 20/17 A2991 880 81 1700 VRB/06 RMK AO2
14837KMSN MSN20060709044509207/09/06 04:45:31  5-MIN KMSN 091045Z 23006KT 7SM CLR 20/17 A2991 880 81 1700 230/06 RMK AO2
14837KMSN MSN20060709045010907/09/06 04:50:31  5-MIN KMSN 091050Z 23007KT 7SM CLR 20/17 A2991 880 81 1700 220/07 RMK AO2 SLP122 T02000167
14837KMSN MSN20060709045509207/09/06 04:55:31  5-MIN KMSN 091055Z 22005KT 7SM CLR 20/17 A2991 880 81 1700 220/05 RMK AO2
14837KMSN MSN20060709050009207/09/06 05:00:31  5-MIN KMSN 091100Z 22007KT 7SM CLR 20/17 A2991 880 81 1700 220/07 RMK AO2
14837KMSN MSN20060709050509207/09/06 05:05:31  5-MIN KMSN 091105Z 22005KT 7SM CLR 20/17 A2991 880 81 1700 220/05 RMK AO2
14837KMSN MSN20060709051009207/09/06 05:10:31  5-MIN KMSN 091110Z 22005KT 7SM CLR 20/17 A2991 880 81 1700 220/05 RMK AO2
14837KMSN MSN20060709051509207/09/06 05:15:31  5-MIN KMSN 091115Z VRB04KT 7SM CLR 20/17 A2991 880 81 1700 VRB/04 RMK AO2
14837KMSN MSN20060709052009207/09/06 05:20:31  5-MIN KMSN 091120Z VRB05KT 7SM CLR 20/17 A2991 880 81 1700 VRB/05 RMK AO2
14837KMSN MSN20060709052509207/09/06 05:25:31  5-MIN KMSN 091125Z VRB05KT 7SM CLR 20/17 A2990 880 81 1700 VRB/05 RMK AO2
14837KMSN MSN20060709053009207/09/06 05:30:31  5-MIN KMSN 091130Z 22005KT 7SM CLR 20/17 A2990 880 81 1700 220/05 RMK AO2
14837KMSN MSN20060709053510807/09/06 05:35:31  5-MIN KMSN 091135Z 22007KT 190V260 7SM CLR 21/17 A2990 880 78 1800 220/07 190V260 RMK AO2
14837KMSN MSN20060709054009207/09/06 05:40:31  5-MIN KMSN 091140Z VRB04KT 7SM CLR 21/17 A2990 880 78 1800 VRB/04 RMK AO2
14837KMSN MSN20060709054509207/09/06 05:45:31  5-MIN KMSN 091145Z VRB04KT 7SM CLR 21/17 A2991 880 78 1800 VRB/04 RMK AO2
14837KMSN MSN20060709055012707/09/06 05:50:31  5-MIN KMSN 091150Z VRB06KT 7SM CLR 21/17 A2991 870 78 1800 VRB/06 RMK AO2 SLP124 T02060167 10222 20200 56013
14837KMSN MSN20060709055509207/09/06 05:55:31  5-MIN KMSN 091155Z VRB05KT 7SM CLR 21/17 A2991 870 78 1800 VRB/05 RMK AO2
14837KMSN MSN20060709060009207/09/06 06:00:31  5-MIN KMSN 091200Z VRB04KT 7SM CLR 21/17 A2991 870 78 1800 VRB/04 RMK AO2
14837KMSN MSN20060709060509207/09/06 06:05:31  5-MIN KMSN 091205Z VRB03KT 7SM CLR 21/17 A2991 880 81 1800 VRB/03 RMK AO2
14837KMSN MSN20060709061009207/09/06 06:10:31  5-MIN KMSN 091210Z VRB04KT 7SM CLR 21/17 A2991 880 78 1800 VRB/04 RMK AO2
14837KMSN MSN20060709061509207/09/06 06:15:31  5-MIN KMSN 091215Z VRB04KT 8SM CLR 21/17 A2991 880 78 1800 VRB/04 RMK AO2
14837KMSN MSN20060709062009207/09/06 06:20:31  5-MIN KMSN 091220Z VRB03KT 8SM CLR 21/17 A2991 880 78 1800 VRB/03 RMK AO2
14837KMSN MSN20060709062509207/09/06 06:25:31  5-MIN KMSN 091225Z VRB03KT 8SM CLR 22/17 A2990 880 75 1900 VRB/03 RMK AO2
14837KMSN MSN20060709063009207/09/06 06:30:31  5-MIN KMSN 091230Z VRB05KT 8SM CLR 22/17 A2991 880 75 1900 VRB/05 RMK AO2
14837KMSN MSN20060709063509207/09/06 06:35:31  5-MIN KMSN 091235Z VRB03KT 8SM CLR 22/17 A2991 880 75 1900 VRB/03 RMK AO2
14837KMSN MSN20060709064009207/09/06 06:40:31  5-MIN KMSN 091240Z VRB05KT 8SM CLR 22/17 A2991 880 75 1900 VRB/05 RMK AO2
14837KMSN MSN20060709064509207/09/06 06:45:31  5-MIN KMSN 091245Z 23005KT 8SM CLR 22/17 A2991 880 75 1900 230/05 RMK AO2
14837KMSN MSN20060709065010907/09/06 06:50:31  5-MIN KMSN 091250Z VRB06KT 8SM CLR 22/17 A2991 880 75 1900 VRB/06 RMK AO2 SLP122 T02170172
14837KMSN MSN20060709065509207/09/06 06:55:31  5-MIN KMSN 091255Z VRB06KT 8SM CLR 22/17 A2991 880 75 1900 VRB/06 RMK AO2
14837KMSN MSN20060709070009207/09/06 07:00:31  5-MIN KMSN 091300Z VRB04KT 8SM CLR 22/18 A2991 880 78 1900 VRB/04 RMK AO2
14837KMSN MSN20060709070509207/09/06 07:05:31  5-MIN KMSN 091305Z VRB05KT 8SM CLR 22/18 A2991 870 75 2000 VRB/05 RMK AO2
14837KMSN MSN20060709071009207/09/06 07:10:31  5-MIN KMSN 091310Z VRB05KT 8SM CLR 22/18 A2991 880 75 2000 VRB/05 RMK AO2
14837KMSN MSN20060709071509207/09/06 07:15:31  5-MIN KMSN 091315Z VRB05KT 8SM CLR 22/18 A2991 880 75 2000 VRB/05 RMK AO2
14837KMSN MSN20060709072009207/09/06 07:20:31  5-MIN KMSN 091320Z VRB06KT 8SM CLR 23/18 A2990 880 73 2000 VRB/06 RMK AO2
14837KMSN MSN20060709072509207/09/06 07:25:31  5-MIN KMSN 091325Z VRB06KT 8SM CLR 23/18 A2991 880 73 2000 VRB/06 RMK AO2
14837KMSN MSN20060709073009207/09/06 07:30:31  5-MIN KMSN 091330Z 24007KT 8SM CLR 23/18 A2991 880 73 2000 230/07 RMK AO2
14837KMSN MSN20060709073510807/09/06 07:35:31  5-MIN KMSN 091335Z 23007KT 210V270 8SM CLR 23/18 A2991 870 73 2000 230/07 210V270 RMK AO2
14837KMSN MSN20060709074009207/09/06 07:40:31  5-MIN KMSN 091340Z 22006KT 8SM CLR 23/18 A2991 870 76 2000 220/06 RMK AO2
14837KMSN MSN20060709074509207/09/06 07:45:31  5-MIN KMSN 091345Z VRB05KT 9SM CLR 23/18 A2991 870 73 2100 VRB/05 RMK AO2
14837KMSN MSN20060709075010907/09/06 07:50:31  5-MIN KMSN 091350Z VRB06KT 9SM CLR 23/18 A2991 870 73 2100 VRB/06 RMK AO2 SLP124 T02330183
14837KMSN MSN20060709075509207/09/06 07:55:31  5-MIN KMSN 091355Z VRB04KT 9SM CLR 24/18 A2991 870 71 2100 VRB/04 RMK AO2
14837KMSN MSN20060709080009207/09/06 08:00:31  5-MIN KMSN 091400Z VRB05KT 9SM CLR 24/18 A2991 880 68 2100 VRB/05 RMK AO2
14837KMSN MSN20060709080509207/09/06 08:05:31  5-MIN KMSN 091405Z VRB06KT 9SM CLR 24/18 A2991 880 68 2100 VRB/06 RMK AO2
14837KMSN MSN20060709081009207/09/06 08:10:31  5-MIN KMSN 091410Z 24004KT 9SM CLR 24/18 A2991 880 68 2200 240/04 RMK AO2
14837KMSN MSN20060709081509207/09/06 08:15:31  5-MIN KMSN 091415Z VRB05KT 9SM CLR 24/18 A2991 880 68 2200 VRB/05 RMK AO2
14837KMSN MSN20060709082009207/09/06 08:20:31  5-MIN KMSN 091420Z 23004KT 9SM CLR 24/18 A2991 880 68 2200 230/04 RMK AO2
14837KMSN MSN20060709082509207/09/06 08:25:31  5-MIN KMSN 091425Z 22006KT 9SM CLR 24/18 A2991 880 68 2200 220/06 RMK AO2
14837KMSN MSN20060709083009207/09/06 08:30:31  5-MIN KMSN 091430Z VRB04KT 9SM CLR 24/18 A2990 880 68 2200 VRB/04 RMK AO2
14837KMSN MSN20060709083509307/09/06 08:35:31  5-MIN KMSN 091435Z 21004KT 10SM CLR 25/19 A2990 880 68 2300 210/04 RMK AO2
14837KMSN MSN20060709084009307/09/06 08:40:31  5-MIN KMSN 091440Z 23006KT 10SM CLR 25/19 A2990 880 68 2300 230/06 RMK AO2
14837KMSN MSN20060709084509307/09/06 08:45:31  5-MIN KMSN 091445Z 22007KT 10SM CLR 25/19 A2990 880 68 2300 220/07 RMK AO2
14837KMSN MSN20060709085013207/09/06 08:50:31  5-MIN KMSN 091450Z 22007KT 200V260 10SM CLR 25/18 A2990 880 66 2300 220/07 200V260 RMK AO2 SLP119 T02500183 55002
14837KMSN MSN20060709085509307/09/06 08:55:31  5-MIN KMSN 091455Z 22007KT 10SM CLR 26/18 A2990 880 64 2300 220/07 RMK AO2
14837KMSN MSN20060709090009307/09/06 09:00:31  5-MIN KMSN 091500Z 24007KT 10SM CLR 25/18 A2990 890 66 2300 240/07 RMK AO2
14837KMSN MSN20060709090510907/09/06 09:05:31  5-MIN KMSN 091505Z 22007KT 180V250 10SM CLR 26/18 A2990 890 64 2300 220/07 180V250 RMK AO2
14837KMSN MSN20060709091009307/09/06 09:10:31  5-MIN KMSN 091510Z VRB06KT 10SM CLR 26/18 A2990 890 64 2300 VRB/06 RMK AO2
14837KMSN MSN20060709091509307/09/06 09:15:31  5-MIN KMSN 091515Z VRB04KT 10SM CLR 27/19 A2990 890 62 2500 VRB/04 RMK AO2
14837KMSN MSN20060709092009307/09/06 09:20:31  5-MIN KMSN 091520Z 24005KT 10SM CLR 27/19 A2990 890 62 2500 240/05 RMK AO2
14837KMSN MSN20060709092509307/09/06 09:25:31  5-MIN KMSN 091525Z VRB05KT 10SM CLR 27/19 A2990 890 62 2500 VRB/05 RMK AO2
14837KMSN MSN20060709093009307/09/06 09:30:31  5-MIN KMSN 091530Z VRB05KT 10SM CLR 27/19 A2990 890 62 2500 VRB/05 RMK AO2
14837KMSN MSN20060709093509307/09/06 09:35:31  5-MIN KMSN 091535Z VRB06KT 10SM CLR 27/18 A2990 890 60 2500 VRB/06 RMK AO2
14837KMSN MSN20060709094009307/09/06 09:40:31  5-MIN KMSN 091540Z 22007KT 10SM CLR 27/19 A2989 890 62 2500 220/07 RMK AO2
14837KMSN MSN20060709094509307/09/06 09:45:31  5-MIN KMSN 091545Z VRB04KT 10SM CLR 27/19 A2989 890 60 2500 VRB/04 RMK AO2
14837KMSN MSN20060709095012907/09/06 09:50:31  5-MIN KMSN 091550Z 28007KT 220V320 10SM FEW040 28/18 A2990 890 56 2600 280/07 220V320 RMK AO2 SLP117 T02780183
14837KMSN MSN20060709095510907/09/06 09:55:31  5-MIN KMSN 091555Z 26008KT 220V290 10SM CLR 27/18 A2990 890 58 2500 250/08 220V290 RMK AO2
14837KMSN MSN20060709100009307/09/06 10:00:31  5-MIN KMSN 091600Z 29010KT 10SM CLR 28/18 A2990 890 54 2600 290/10 RMK AO2
14837KMSN MSN20060709100511507/09/06 10:05:31  5-MIN KMSN 091605Z 26009G14KT 230V300 10SM CLR 28/18 A2990 890 54 2600 260/09G14 230V300 RMK AO2
14837KMSN MSN20060709101009907/09/06 10:10:31  5-MIN KMSN 091610Z 30009G14KT 10SM CLR 28/18 A2989 890 54 2600 300/09G14 RMK AO2
14837KMSN MSN20060709101509307/09/06 10:15:31  5-MIN KMSN 091615Z VRB06KT 10SM CLR 28/18 A2989 890 54 2700 VRB/06 RMK AO2
14837KMSN MSN20060709102010907/09/06 10:20:31  5-MIN KMSN 091620Z 29007KT 260V320 10SM CLR 28/18 A2989 890 54 2700 290/07 260V320 RMK AO2
14837KMSN MSN20060709102510907/09/06 10:25:31  5-MIN KMSN 091625Z 28007KT 230V300 10SM CLR 28/18 A2989 890 52 2700 280/07 230V300 RMK AO2
14837KMSN MSN20060709103009307/09/06 10:30:31  5-MIN KMSN 091630Z 27010KT 10SM CLR 28/18 A2989 890 52 2700 270/10 RMK AO2
14837KMSN MSN20060709103509307/09/06 10:35:31  5-MIN KMSN 091635Z VRB06KT 10SM CLR 28/18 A2989 890 52 2700 VRB/06 RMK AO2
14837KMSN MSN20060709104010907/09/06 10:40:31  5-MIN KMSN 091640Z 26007KT 240V310 10SM CLR 29/18 A2989 890 50 2700 260/07 240V310 RMK AO2
14837KMSN MSN20060709104510907/09/06 10:45:31  5-MIN KMSN 091645Z 26010KT 230V300 10SM CLR 29/17 A2989 890 48 2700 260/10 230V300 RMK AO2
14837KMSN MSN20060709105011007/09/06 10:50:31  5-MIN KMSN 091650Z 29010KT 10SM CLR 29/17 A2989 890 47 2700 290/10 RMK AO2 SLP115 T02890167
14837KMSN MSN20060709105509307/09/06 10:55:31  5-MIN KMSN 091655Z 28010KT 10SM CLR 29/17 A2989 890 47 2700 280/10 RMK AO2
14837KMSN MSN20060709110011507/09/06 11:00:31  5-MIN KMSN 091700Z 28009G15KT 240V310 10SM CLR 29/16 A2989 890 45 2700 280/09G15 240V310 RMK AO2
14837KMSN MSN20060709110511507/09/06 11:05:31  5-MIN KMSN 091705Z 25008G15KT 210V280 10SM CLR 29/16 A2989 900 42 2800 250/08G15 210V280 RMK AO2
14837KMSN MSN20060709111011507/09/06 11:10:31  5-MIN KMSN 091710Z 28010G15KT 240V320 10SM CLR 29/16 A2989 900 42 2800 280/10G15 240V320 RMK AO2
14837KMSN MSN20060709111509907/09/06 11:15:31  5-MIN KMSN 091715Z 30009G15KT 10SM CLR 29/15 A2989 900 41 2800 290/09G15 RMK AO2
14837KMSN MSN20060709112009907/09/06 11:20:31  5-MIN KMSN 091720Z 29009G16KT 10SM CLR 29/15 A2989 900 41 2800 280/09G16 RMK AO2
14837KMSN MSN20060709112511507/09/06 11:25:31  5-MIN KMSN 091725Z 26008G16KT 200V280 10SM CLR 29/16 A2988 900 42 2800 260/08G16 200V280 RMK AO2
14837KMSN MSN20060709113009907/09/06 11:30:31  5-MIN KMSN 091730Z 30011G15KT 10SM CLR 30/15 A2988 900 39 2900 300/11G15 RMK AO2
14837KMSN MSN20060709113509907/09/06 11:35:31  5-MIN KMSN 091735Z 29012G15KT 10SM CLR 30/15 A2988 900 39 2900 290/12G15 RMK AO2
14837KMSN MSN20060709114010907/09/06 11:40:31  5-MIN KMSN 091740Z 28009KT 250V320 10SM CLR 29/15 A2988 900 41 2800 280/09 250V320 RMK AO2
14837KMSN MSN20060709114510907/09/06 11:45:31  5-MIN KMSN 091745Z 27010KT 220V300 10SM CLR 30/15 A2988 900 39 2900 270/10 220V300 RMK AO2
14837KMSN MSN20060709115013107/09/06 11:50:31  5-MIN KMSN 091750Z 28010KT 10SM FEW060 30/14 A2988 900 36 2900 280/10 RMK AO2 SLP111 T03000139 10300 20206 58004
14837KMSN MSN20060709115510907/09/06 11:55:31  5-MIN KMSN 091755Z 27008KT 240V310 10SM CLR 30/15 A2988 910 39 2900 270/08 240V310 RMK AO2
14837KMSN MSN20060709120009307/09/06 12:00:31  5-MIN KMSN 091800Z 28008KT 10SM CLR 30/15 A2987 910 39 2900 280/08 RMK AO2
14837KMSN MSN20060709120510907/09/06 12:05:31  5-MIN KMSN 091805Z 25007KT 190V290 10SM CLR 30/16 A2987 910 42 2900 250/07 190V290 RMK AO2
14837KMSN MSN20060709121010907/09/06 12:10:31  5-MIN KMSN 091810Z 26008KT 240V310 10SM CLR 30/15 A2987 910 39 2900 260/08 240V310 RMK AO2
14837KMSN MSN20060709121510907/09/06 12:15:31  5-MIN KMSN 091815Z 27009KT 240V300 10SM CLR 31/14 A2987 910 37 2900 270/09 240V300 RMK AO2
14837KMSN MSN20060709122009307/09/06 12:20:31  5-MIN KMSN 091820Z VRB06KT 10SM CLR 30/14 A2987 920 38 2900 VRB/06 RMK AO2
14837KMSN MSN20060709122509307/09/06 12:25:31  5-MIN KMSN 091825Z VRB05KT 10SM CLR 31/16 A2986 920 39 2900 VRB/05 RMK AO2
14837KMSN MSN20060709123010907/09/06 12:30:31  5-MIN KMSN 091830Z 25007KT 220V300 10SM CLR 31/16 A2986 920 38 3000 250/07 220V300 RMK AO2
14837KMSN MSN20060709123510907/09/06 12:35:31  5-MIN KMSN 091835Z 24007KT 200V310 10SM CLR 31/14 A2986 920 35 3000 240/07 200V310 RMK AO2
14837KMSN MSN20060709215509607/09/06 21:55:31  5-MIN KMSN 100355Z 06008KT 10SM BKN043 21/17 A2992 860 75 1800 060/08 RMK AO2
14837KMSN MSN20060709220009607/09/06 22:00:31  5-MIN KMSN 100400Z 06005KT 10SM BKN043 21/17 A2992 860 75 1800 060/05 RMK AO2
14837KMSN MSN20060709220509607/09/06 22:05:31  5-MIN KMSN 100405Z 06007KT 10SM BKN043 21/17 A2992 860 75 1800 060/07 RMK AO2
14837KMSN MSN20060709221009607/09/06 22:10:31  5-MIN KMSN 100410Z 05009KT 10SM OVC043 21/17 A2992 860 75 1800 050/09 RMK AO2
14837KMSN MSN20060709221509607/09/06 22:15:31  5-MIN KMSN 100415Z 06008KT 10SM OVC043 21/17 A2992 870 75 1800 050/08 RMK AO2
14837KMSN MSN20060709222009607/09/06 22:20:31  5-MIN KMSN 100420Z 06010KT 10SM BKN043 21/17 A2992 870 75 1800 060/10 RMK AO2
14837KMSN MSN20060709222509607/09/06 22:25:31  5-MIN KMSN 100425Z 06007KT 10SM BKN043 21/17 A2992 860 78 1800 060/07 RMK AO2
14837KMSN MSN20060709223009607/09/06 22:30:31  5-MIN KMSN 100430Z 07011KT 10SM BKN043 21/17 A2992 860 78 1800 070/11 RMK AO2
14837KMSN MSN20060709223509607/09/06 22:35:31  5-MIN KMSN 100435Z 06008KT 10SM BKN043 21/17 A2992 860 78 1800 060/08 RMK AO2
14837KMSN MSN20060709224009607/09/06 22:40:31  5-MIN KMSN 100440Z 07009KT 10SM BKN045 21/17 A2992 860 78 1800 070/09 RMK AO2
14837KMSN MSN20060709224509607/09/06 22:45:31  5-MIN KMSN 100445Z 06009KT 10SM BKN045 21/17 A2992 860 78 1800 060/09 RMK AO2
14837KMSN MSN20060709225011307/09/06 22:50:31  5-MIN KMSN 100450Z 06007KT 10SM OVC045 21/17 A2992 860 78 1800 060/07 RMK AO2 SLP126 T02060167
14837KMSN MSN20060709225509607/09/06 22:55:31  5-MIN KMSN 100455Z 05007KT 10SM OVC045 21/17 A2992 860 78 1800 050/07 RMK AO2
14837KMSN MSN20060709230009607/09/06 23:00:31  5-MIN KMSN 100500Z 05009KT 10SM OVC045 21/17 A2992 860 78 1800 050/09 RMK AO2
14837KMSN MSN20060709230509607/09/06 23:05:31  5-MIN KMSN 100505Z 05009KT 10SM OVC045 21/17 A2992 860 78 1700 050/09 RMK AO2
14837KMSN MSN20060709231009607/09/06 23:10:31  5-MIN KMSN 100510Z 05009KT 10SM OVC045 21/16 A2992 860 75 1700 050/09 RMK AO2
14837KMSN MSN20060709231509607/09/06 23:15:31  5-MIN KMSN 100515Z 05008KT 10SM OVC045 21/16 A2992 860 75 1700 050/08 RMK AO2
14837KMSN MSN20060709232009607/09/06 23:20:31  5-MIN KMSN 100520Z 07009KT 10SM OVC047 21/16 A2992 860 75 1700 060/09 RMK AO2
14837KMSN MSN20060709232509607/09/06 23:25:31  5-MIN KMSN 100525Z 06008KT 10SM OVC047 20/16 A2993 860 78 1700 060/08 RMK AO2
14837KMSN MSN20060709233009607/09/06 23:30:31  5-MIN KMSN 100530Z 07007KT 10SM OVC047 20/16 A2993 850 78 1700 070/07 RMK AO2
14837KMSN MSN20060709233509607/09/06 23:35:31  5-MIN KMSN 100535Z 07007KT 10SM OVC047 20/16 A2993 850 78 1700 070/07 RMK AO2
14837KMSN MSN20060709234009607/09/06 23:40:31  5-MIN KMSN 100540Z 08008KT 10SM OVC047 20/16 A2993 850 75 1700 080/08 RMK AO2
14837KMSN MSN20060709234509607/09/06 23:45:31  5-MIN KMSN 100545Z 08009KT 10SM OVC047 19/15 A2993 850 75 1600 080/09 RMK AO2
14837KMSN MSN20060709235014107/09/06 23:50:31  5-MIN KMSN 100550Z 08007KT 10SM OVC047 19/15 A2994 850 75 1600 080/07 RMK AO2 SLP131 T01940150 10294 20194 403220194 53029
14837KMSN MSN20060709235509607/09/06 23:55:31  5-MIN KMSN 100555Z 07007KT 10SM OVC047 19/15 A2994 850 75 1600 070/07 RMK AO2
14837KMSN MSN20060710000009607/10/06 00:00:38  5-MIN KMSN 100600Z 08006KT 10SM BKN049 19/15 A2994 850 78 1500 080/06 RMK AO2
14837KMSN MSN20060710000510307/10/06 00:05:31  5-MIN KMSN 100605Z 08007KT 10SM BKN049 BKN070 19/15 A2994 840 78 1500 080/07 RMK AO2
14837KMSN MSN20060710001010307/10/06 00:10:31  5-MIN KMSN 100610Z 08007KT 10SM BKN049 BKN070 18/14 A2994 840 78 1500 070/07 RMK AO2
14837KMSN MSN20060710001510307/10/06 00:15:32  5-MIN KMSN 100615Z 07007KT 10SM SCT049 BKN075 18/14 A2995 840 78 1500 070/07 RMK AO2
14837KMSN MSN20060710002010307/10/06 00:20:31  5-MIN KMSN 100620Z 07007KT 10SM SCT049 SCT070 18/14 A2994 840 78 1500 070/07 RMK AO2
14837KMSN MSN20060710002510307/10/06 00:25:31  5-MIN KMSN 100625Z 07007KT 10SM FEW049 SCT070 18/14 A2994 850 81 1400 070/07 RMK AO2
14837KMSN MSN20060710003009607/10/06 00:30:31  5-MIN KMSN 100630Z 07007KT 10SM FEW049 18/14 A2994 850 81 1400 070/07 RMK AO2
14837KMSN MSN20060710003509607/10/06 00:35:31  5-MIN KMSN 100635Z 07006KT 10SM FEW049 18/14 A2994 850 81 1400 070/06 RMK AO2
14837KMSN MSN20060710004009307/10/06 00:40:31  5-MIN KMSN 100640Z 07006KT 10SM CLR 17/14 A2994 850 83 1300 070/06 RMK AO2
14837KMSN MSN20060710004509307/10/06 00:45:31  5-MIN KMSN 100645Z 07006KT 10SM CLR 17/14 A2994 850 83 1300 070/06 RMK AO2
14837KMSN MSN20060710005011007/10/06 00:50:31  5-MIN KMSN 100650Z 07006KT 10SM CLR 17/14 A2994 850 83 1300 070/06 RMK AO2 SLP133 T01720144
14837KMSN MSN20060710005509307/10/06 00:55:31  5-MIN KMSN 100655Z 07006KT 10SM CLR 17/14 A2994 850 86 1300 070/06 RMK AO2
14837KMSN MSN20060710010009307/10/06 01:00:31  5-MIN KMSN 100700Z 08005KT 10SM CLR 17/14 A2994 850 86 1300 080/05 RMK AO2
14837KMSN MSN20060710010509307/10/06 01:05:31  5-MIN KMSN 100705Z 08004KT 10SM CLR 17/14 A2994 850 83 1300 080/04 RMK AO2
14837KMSN MSN20060710011009307/10/06 01:10:31  5-MIN KMSN 100710Z 09004KT 10SM CLR 17/14 A2994 850 86 1300 090/04 RMK AO2
14837KMSN MSN20060710011509307/10/06 01:15:31  5-MIN KMSN 100715Z 09004KT 10SM CLR 17/14 A2994 850 86 1300 090/04 RMK AO2
14837KMSN MSN20060710012009307/10/06 01:20:31  5-MIN KMSN 100720Z 08005KT 10SM CLR 17/14 A2994 850 86 1300 080/05 RMK AO2
14837KMSN MSN20060710012509307/10/06 01:25:31  5-MIN KMSN 100725Z 09005KT 10SM CLR 17/14 A2993 850 86 1300 090/05 RMK AO2
14837KMSN MSN20060710013009307/10/06 01:30:31  5-MIN KMSN 100730Z 07004KT 10SM CLR 17/14 A2993 850 83 1300 070/04 RMK AO2
14837KMSN MSN20060710013509307/10/06 01:35:31  5-MIN KMSN 100735Z 07003KT 10SM CLR 17/14 A2993 850 83 1300 070/03 RMK AO2
14837KMSN MSN20060710014009307/10/06 01:40:31  5-MIN KMSN 100740Z 05003KT 10SM CLR 16/14 A2993 850 86 1200 050/03 RMK AO2
14837KMSN MSN20060710014509307/10/06 01:45:31  5-MIN KMSN 100745Z 00000KT 10SM CLR 16/14 A2993 850 86 1200 000/00 RMK AO2
14837KMSN MSN20060710015011007/10/06 01:50:31  5-MIN KMSN 100750Z 00000KT 10SM CLR 16/14 A2994 850 86 1200 000/00 RMK AO2 SLP132 T01610139
14837KMSN MSN20060710015509307/10/06 01:55:31  5-MIN KMSN 100755Z 01004KT 10SM CLR 16/14 A2994 850 90 1200 010/04 RMK AO2
14837KMSN MSN20060710020009307/10/06 02:00:31  5-MIN KMSN 100800Z 03006KT 10SM CLR 16/13 A2994 850 86 1200 030/06 RMK AO2
14837KMSN MSN20060710020509307/10/06 02:05:31  5-MIN KMSN 100805Z 04007KT 10SM CLR 16/13 A2994 850 83 1200 030/07 RMK AO2
14837KMSN MSN20060710021009307/10/06 02:10:31  5-MIN KMSN 100810Z 04006KT 10SM CLR 16/13 A2994 850 83 1100 040/06 RMK AO2
14837KMSN MSN20060710021509307/10/06 02:15:31  5-MIN KMSN 100815Z 04006KT 10SM CLR 16/13 A2994 850 83 1100 040/06 RMK AO2
14837KMSN MSN20060710022009307/10/06 02:20:31  5-MIN KMSN 100820Z 04005KT 10SM CLR 16/13 A2994 850 83 1200 040/05 RMK AO2
14837KMSN MSN20060710022509307/10/06 02:25:31  5-MIN KMSN 100825Z 04005KT 10SM CLR 15/13 A2994 850 86 1100 040/05 RMK AO2
14837KMSN MSN20060710023009307/10/06 02:30:31  5-MIN KMSN 100830Z 04005KT 10SM CLR 15/12 A2994 850 83 1100 040/05 RMK AO2
14837KMSN MSN20060710023509307/10/06 02:35:31  5-MIN KMSN 100835Z 04004KT 10SM CLR 15/12 A2994 850 83 1100 040/04 RMK AO2
14837KMSN MSN20060710024009307/10/06 02:40:31  5-MIN KMSN 100840Z 04005KT 10SM CLR 15/12 A2994 850 83 1100 040/05 RMK AO2
14837KMSN MSN20060710024509307/10/06 02:45:31  5-MIN KMSN 100845Z 04005KT 10SM CLR 15/12 A2994 850 83 1100 030/05 RMK AO2
14837KMSN MSN20060710025011607/10/06 02:50:31  5-MIN KMSN 100850Z 05005KT 10SM CLR 15/12 A2994 850 83 1100 050/05 RMK AO2 SLP133 T01500122 53007
14837KMSN MSN20060710025509307/10/06 02:55:31  5-MIN KMSN 100855Z 06006KT 10SM CLR 16/12 A2994 850 80 1100 050/06 RMK AO2
14837KMSN MSN20060710030009307/10/06 03:00:31  5-MIN KMSN 100900Z 06006KT 10SM CLR 15/12 A2994 850 83 1100 060/06 RMK AO2
14837KMSN MSN20060710030509307/10/06 03:05:31  5-MIN KMSN 100905Z 07004KT 10SM CLR 16/12 A2994 850 80 1200 060/04 RMK AO2
14837KMSN MSN20060710031009307/10/06 03:10:31  5-MIN KMSN 100910Z 06006KT 10SM CLR 16/12 A2994 850 80 1200 060/06 RMK AO2
14837KMSN MSN20060710031509307/10/06 03:15:31  5-MIN KMSN 100915Z 06005KT 10SM CLR 16/13 A2994 850 83 1100 060/05 RMK AO2
14837KMSN MSN20060710032009307/10/06 03:20:31  5-MIN KMSN 100920Z 06006KT 10SM CLR 15/12 A2994 850 83 1100 060/06 RMK AO2
14837KMSN MSN20060710032509307/10/06 03:25:31  5-MIN KMSN 100925Z 06004KT 10SM CLR 15/12 A2994 850 83 1100 060/04 RMK AO2
14837KMSN MSN20060710033009307/10/06 03:30:31  5-MIN KMSN 100930Z 07005KT 10SM CLR 15/12 A2994 850 83 1100 060/05 RMK AO2
14837KMSN MSN20060710033509307/10/06 03:35:31  5-MIN KMSN 100935Z 05004KT 10SM CLR 15/12 A2994 840 83 1100 050/04 RMK AO2
14837KMSN MSN20060710034009307/10/06 03:40:31  5-MIN KMSN 100940Z 05004KT 10SM CLR 15/12 A2995 840 83 1100 050/04 RMK AO2
14837KMSN MSN20060710034509307/10/06 03:45:31  5-MIN KMSN 100945Z 07005KT 10SM CLR 15/12 A2995 840 83 1100 070/05 RMK AO2
14837KMSN MSN20060710035011007/10/06 03:50:31  5-MIN KMSN 100950Z 06004KT 10SM CLR 15/12 A2995 840 83 1100 060/04 RMK AO2 SLP136 T01500122
14837KMSN MSN20060710035509307/10/06 03:55:31  5-MIN KMSN 100955Z 00000KT 10SM CLR 15/12 A2995 840 83 1100 000/00 RMK AO2
14837KMSN MSN20060710040009307/10/06 04:00:31  5-MIN KMSN 101000Z 05004KT 10SM CLR 15/12 A2995 840 83 1100 040/04 RMK AO2
14837KMSN MSN20060710040509307/10/06 04:05:31  5-MIN KMSN 101005Z 04006KT 10SM CLR 14/12 A2995 840 86 1000 040/06 RMK AO2
14837KMSN MSN20060710041009307/10/06 04:10:31  5-MIN KMSN 101010Z 04006KT 10SM CLR 15/12 A2995 840 83 1100 040/06 RMK AO2
14837KMSN MSN20060710041509307/10/06 04:15:31  5-MIN KMSN 101015Z 04004KT 10SM CLR 14/12 A2995 840 86 1000 040/04 RMK AO2
14837KMSN MSN20060710042009307/10/06 04:20:31  5-MIN KMSN 101020Z 04005KT 10SM CLR 14/12 A2995 830 86 1000 040/05 RMK AO2
14837KMSN MSN20060710042509307/10/06 04:25:31  5-MIN KMSN 101025Z 03004KT 10SM CLR 14/12 A2995 830 86 1000 030/04 RMK AO2
14837KMSN MSN20060710043009307/10/06 04:30:31  5-MIN KMSN 101030Z 03005KT 10SM CLR 14/12 A2996 830 86 1000 030/05 RMK AO2
14837KMSN MSN20060710043509307/10/06 04:35:31  5-MIN KMSN 101035Z 03004KT 10SM CLR 14/12 A2996 830 86 1000 030/04 RMK AO2
14837KMSN MSN20060710044009307/10/06 04:40:31  5-MIN KMSN 101040Z 03004KT 10SM CLR 14/12 A2996 830 86 1000 030/04 RMK AO2
14837KMSN MSN20060710044509307/10/06 04:45:31  5-MIN KMSN 101045Z 04005KT 10SM CLR 14/12 A2996 830 86 1000 040/05 RMK AO2
14837KMSN MSN20060710045011007/10/06 04:50:31  5-MIN KMSN 101050Z 04005KT 10SM CLR 14/12 A2996 820 86 1000 040/05 RMK AO2 SLP143 T01440122
14837KMSN MSN20060710045509307/10/06 04:55:31  5-MIN KMSN 101055Z 04006KT 10SM CLR 14/12 A2997 820 86 1000 040/06 RMK AO2
14837KMSN MSN20060710050009307/10/06 05:00:31  5-MIN KMSN 101100Z 05005KT 10SM CLR 14/12 A2996 820 86 1000 040/05 RMK AO2
14837KMSN MSN20060710050509307/10/06 05:05:31  5-MIN KMSN 101105Z 05007KT 10SM CLR 15/12 A2997 820 83 1100 050/07 RMK AO2
14837KMSN MSN20060710051009307/10/06 05:10:31  5-MIN KMSN 101110Z 04007KT 10SM CLR 15/13 A2997 820 86 1100 040/07 RMK AO2
14837KMSN MSN20060710051509307/10/06 05:15:31  5-MIN KMSN 101115Z 05007KT 10SM CLR 15/13 A2997 820 86 1000 050/07 RMK AO2
14837KMSN MSN20060710052009307/10/06 05:20:31  5-MIN KMSN 101120Z 05009KT 10SM CLR 15/13 A2997 820 86 1000 050/09 RMK AO2
14837KMSN MSN20060710052509307/10/06 05:25:31  5-MIN KMSN 101125Z 04007KT 10SM CLR 15/12 A2998 810 83 1000 040/07 RMK AO2
14837KMSN MSN20060710053009307/10/06 05:30:31  5-MIN KMSN 101130Z 04009KT 10SM CLR 15/13 A2997 820 86 1000 040/09 RMK AO2
14837KMSN MSN20060710053509307/10/06 05:35:31  5-MIN KMSN 101135Z 05010KT 10SM CLR 15/12 A2998 810 83 1000 040/10 RMK AO2
14837KMSN MSN20060710054009307/10/06 05:40:31  5-MIN KMSN 101140Z 04009KT 10SM CLR 15/13 A2998 810 86 1000 040/09 RMK AO2
14837KMSN MSN20060710054509307/10/06 05:45:31  5-MIN KMSN 101145Z 05010KT 10SM CLR 15/12 A2998 810 83 1000 050/10 RMK AO2
14837KMSN MSN20060710055012807/10/06 05:50:31  5-MIN KMSN 101150Z 05010KT 10SM CLR 15/12 A2998 810 83 1000 050/10 RMK AO2 SLP147 T01500122 10194 20144 53001
14837KMSN MSN20060710055509307/10/06 05:55:31  5-MIN KMSN 101155Z 06008KT 10SM CLR 15/12 A2998 810 83 1000 060/08 RMK AO2
14837KMSN MSN20060710060009307/10/06 06:00:31  5-MIN KMSN 101200Z 06009KT 10SM CLR 15/12 A2998 810 83 1000 060/09 RMK AO2
14837KMSN MSN20060710060509307/10/06 06:05:31  5-MIN KMSN 101205Z 07009KT 10SM CLR 15/12 A2998 810 83 1000 070/09 RMK AO2
14837KMSN MSN20060710061009607/10/06 06:10:31  5-MIN KMSN 101210Z 07008KT 10SM FEW009 15/12 A2999 800 83 1000 070/08 RMK AO2
14837KMSN MSN20060710061509507/10/06 06:15:31  5-MIN KMSN 101215Z 08008KT 9SM SCT009 14/12 A2999 800 86 1000 080/08 RMK AO2
14837KMSN MSN20060710062009507/10/06 06:20:31  5-MIN KMSN 101220Z 07007KT 8SM BKN009 15/13 A2999 800 86 1000 070/07 RMK AO2
14837KMSN MSN20060710062509507/10/06 06:25:31  5-MIN KMSN 101225Z 07007KT 8SM BKN009 15/13 A2999 800 86 1000 070/07 RMK AO2
14837KMSN MSN20060710063009507/10/06 06:30:31  5-MIN KMSN 101230Z 05007KT 8SM BKN009 15/12 A2999 800 83 1000 040/07 RMK AO2
14837KMSN MSN20060710063509507/10/06 06:35:31  5-MIN KMSN 101235Z 06007KT 9SM OVC009 15/13 A2999 800 86 1000 060/07 RMK AO2
14837KMSN MSN20060710064009507/10/06 06:40:31  5-MIN KMSN 101240Z 09009KT 9SM OVC009 15/13 A2999 800 86 1000 080/09 RMK AO2
14837KMSN MSN20060710064509607/10/06 06:45:31  5-MIN KMSN 101245Z 07008KT 10SM OVC009 16/13 A2999 800 83 1100 070/08 RMK AO2
14837KMSN MSN20060710065011307/10/06 06:50:31  5-MIN KMSN 101250Z 09010KT 10SM BKN009 16/13 A2999 800 83 1100 080/10 RMK AO2 SLP151 T01560128
14837KMSN MSN20060710065509607/10/06 06:55:31  5-MIN KMSN 101255Z 08009KT 10SM OVC009 16/12 A2999 800 80 1100 080/09 RMK AO2
14837KMSN MSN20060710070009607/10/06 07:00:31  5-MIN KMSN 101300Z 08009KT 10SM OVC009 15/12 A3000 790 83 1000 080/09 RMK AO2
14837KMSN MSN20060710070509607/10/06 07:05:31  5-MIN KMSN 101305Z 08009KT 10SM OVC009 15/12 A3000 790 83 1000 080/09 RMK AO2
14837KMSN MSN20060710071009507/10/06 07:10:31  5-MIN KMSN 101310Z 09011KT 10SM OVC009 14/12 A3001 780 86 900 090/11 RMK AO2
14837KMSN MSN20060710071509507/10/06 07:15:31  5-MIN KMSN 101315Z 09010KT 10SM OVC009 14/12 A3001 780 86 900 090/10 RMK AO2
14837KMSN MSN20060710072009507/10/06 07:20:31  5-MIN KMSN 101320Z 09009KT 10SM OVC009 14/12 A3001 780 86 900 090/09 RMK AO2
14837KMSN MSN20060710072509607/10/06 07:25:31  5-MIN KMSN 101325Z 10008KT 10SM OVC009 15/12 A3001 780 83 1000 100/08 RMK AO2
14837KMSN MSN20060710073009607/10/06 07:30:31  5-MIN KMSN 101330Z 09009KT 10SM OVC009 15/12 A3001 780 83 1000 090/09 RMK AO2
14837KMSN MSN20060710073509607/10/06 07:35:31  5-MIN KMSN 101335Z 09011KT 10SM OVC009 15/12 A3001 780 83 1000 090/11 RMK AO2
14837KMSN MSN20060710074009607/10/06 07:40:31  5-MIN KMSN 101340Z 09008KT 10SM OVC009 15/12 A3001 780 83 1000 090/08 RMK AO2
14837KMSN MSN20060710074509607/10/06 07:45:31  5-MIN KMSN 101345Z 09008KT 10SM BKN010 15/12 A3001 780 83 1000 090/08 RMK AO2
14837KMSN MSN20060710075011307/10/06 07:50:31  5-MIN KMSN 101350Z 07007KT 10SM BKN010 15/12 A3001 780 83 1000 070/07 RMK AO2 SLP160 T01500122
14837KMSN MSN20060710075510807/10/06 07:55:31  5-MIN KMSN 101355Z 07008KT 10SM OVC010 15/12 A3001 780 83 1000 070/08 RMK AO2 CIG 007V012
14837KMSN MSN20060710080010807/10/06 08:00:31  5-MIN KMSN 101400Z 06008KT 10SM OVC010 15/12 A3001 780 83 1000 060/08 RMK AO2 CIG 007V012
14837KMSN MSN20060710080510807/10/06 08:05:31  5-MIN KMSN 101405Z 06009KT 10SM OVC010 16/12 A3001 780 80 1100 050/09 RMK AO2 CIG 007V012
14837KMSN MSN20060710081010807/10/06 08:10:31  5-MIN KMSN 101410Z 04009KT 10SM OVC010 16/12 A3001 780 80 1100 040/09 RMK AO2 CIG 007V012
14837KMSN MSN20060710081510807/10/06 08:15:31  5-MIN KMSN 101415Z 09010KT 10SM OVC010 16/12 A3001 780 80 1100 090/10 RMK AO2 CIG 007V012
14837KMSN MSN20060710082010807/10/06 08:20:31  5-MIN KMSN 101420Z 06009KT 10SM OVC010 16/13 A3001 780 80 1100 060/09 RMK AO2 CIG 007V012
14837KMSN MSN20060710082509607/10/06 08:25:31  5-MIN KMSN 101425Z 06007KT 10SM OVC010 17/13 A3001 780 77 1200 060/07 RMK AO2
14837KMSN MSN20060710083011407/10/06 08:30:31  5-MIN KMSN 101430Z 10006G14KT 10SM OVC010 17/13 A3001 780 77 1200 100/06G14 RMK AO2 CIG 009V013
14837KMSN MSN20060710083509607/10/06 08:35:31  5-MIN KMSN 101435Z 09008KT 10SM OVC010 17/13 A3001 780 77 1200 090/08 RMK AO2
14837KMSN MSN20060710084009607/10/06 08:40:31  5-MIN KMSN 101440Z 08006KT 10SM OVC010 17/13 A3001 780 77 1200 080/06 RMK AO2
14837KMSN MSN20060710084509607/10/06 08:45:31  5-MIN KMSN 101445Z 08009KT 10SM OVC012 17/13 A3001 780 75 1300 080/09 RMK AO2
14837KMSN MSN20060710085011907/10/06 08:50:31  5-MIN KMSN 101450Z 09008KT 10SM BKN012 17/13 A3001 780 78 1300 080/08 RMK AO2 SLP159 T01720133 53014
14837KMSN MSN20060710085509607/10/06 08:55:31  5-MIN KMSN 101455Z 09008KT 10SM BKN012 17/13 A3001 780 77 1200 090/08 RMK AO2
14837KMSN MSN20060710090009607/10/06 09:00:31  5-MIN KMSN 101500Z 09008KT 10SM BKN012 17/13 A3001 780 78 1300 090/08 RMK AO2
14837KMSN MSN20060710090509607/10/06 09:05:31  5-MIN KMSN 101505Z 09007KT 10SM BKN012 17/13 A3001 780 75 1300 090/07 RMK AO2
14837KMSN MSN20060710091009607/10/06 09:10:31  5-MIN KMSN 101510Z 11007KT 10SM BKN012 17/13 A3001 780 77 1200 100/07 RMK AO2
14837KMSN MSN20060710091509607/10/06 09:15:31  5-MIN KMSN 101515Z VRB06KT 10SM BKN012 18/13 A3001 780 72 1300 VRB/06 RMK AO2
14837KMSN MSN20060710092009607/10/06 09:20:31  5-MIN KMSN 101520Z 09008KT 10SM BKN014 18/13 A3000 790 75 1300 090/08 RMK AO2
14837KMSN MSN20060710092509607/10/06 09:25:31  5-MIN KMSN 101525Z 06005KT 10SM SCT015 18/13 A3000 790 72 1300 060/05 RMK AO2
14837KMSN MSN20060710093009607/10/06 09:30:31  5-MIN KMSN 101530Z 10009KT 10SM SCT015 18/13 A3000 790 75 1300 090/09 RMK AO2
14837KMSN MSN20060710093509607/10/06 09:35:31  5-MIN KMSN 101535Z VRB06KT 10SM SCT015 18/13 A3000 790 72 1300 VRB/06 RMK AO2
14837KMSN MSN20060710094009607/10/06 09:40:31  5-MIN KMSN 101540Z 08009KT 10SM FEW015 18/13 A3000 790 72 1400 080/09 RMK AO2
14837KMSN MSN20060710094509607/10/06 09:45:31  5-MIN KMSN 101545Z VRB05KT 10SM FEW016 18/13 A3000 790 72 1400 VRB/05 RMK AO2
14837KMSN MSN20060710095011307/10/06 09:50:31  5-MIN KMSN 101550Z 09007KT 10SM FEW016 19/13 A3000 790 70 1500 090/07 RMK AO2 SLP156 T01890133
14837KMSN MSN20060710095509607/10/06 09:55:31  5-MIN KMSN 101555Z 10006KT 10SM FEW020 19/13 A3000 790 70 1500 100/06 RMK AO2
14837KMSN MSN20060710100009607/10/06 10:00:31  5-MIN KMSN 101600Z 07008KT 10SM FEW020 19/13 A3000 790 70 1500 060/08 RMK AO2
14837KMSN MSN20060710100509307/10/06 10:05:31  5-MIN KMSN 101605Z 08005KT 10SM CLR 19/13 A3000 790 70 1500 080/05 RMK AO2
14837KMSN MSN20060710101009307/10/06 10:10:31  5-MIN KMSN 101610Z 08008KT 10SM CLR 19/14 A3000 790 70 1500 080/08 RMK AO2
14837KMSN MSN20060710101509307/10/06 10:15:31  5-MIN KMSN 101615Z 12006KT 10SM CLR 20/13 A3000 790 65 1600 120/06 RMK AO2
14837KMSN MSN20060710102009307/10/06 10:20:31  5-MIN KMSN 101620Z 08006KT 10SM CLR 20/14 A3000 790 67 1600 080/06 RMK AO2
14837KMSN MSN20060710102509307/10/06 10:25:31  5-MIN KMSN 101625Z 06005KT 10SM CLR 19/13 A3000 790 67 1500 060/05 RMK AO2
14837KMSN MSN20060710103009307/10/06 10:30:31  5-MIN KMSN 101630Z VRB04KT 10SM CLR 20/13 A3000 790 65 1600 VRB/04 RMK AO2
14837KMSN MSN20060710103509307/10/06 10:35:31  5-MIN KMSN 101635Z 08008KT 10SM CLR 21/14 A3000 790 65 1700 070/08 RMK AO2
14837KMSN MSN20060710104009307/10/06 10:40:31  5-MIN KMSN 101640Z 08007KT 10SM CLR 21/14 A3000 790 65 1700 080/07 RMK AO2
14837KMSN MSN20060710104509307/10/06 10:45:31  5-MIN KMSN 101645Z 00000KT 10SM CLR 21/14 A2999 800 65 1700 000/00 RMK AO2
14837KMSN MSN20060710105011007/10/06 10:50:31  5-MIN KMSN 101650Z 09006KT 10SM CLR 21/14 A2999 800 65 1700 090/06 RMK AO2 SLP153 T02060139
14837KMSN MSN20060710105509307/10/06 10:55:31  5-MIN KMSN 101655Z 09004KT 10SM CLR 21/13 A2999 800 63 1700 090/04 RMK AO2
14837KMSN MSN20060710110009307/10/06 11:00:31  5-MIN KMSN 101700Z VRB05KT 10SM CLR 21/14 A2999 800 63 1700 VRB/05 RMK AO2
14837KMSN MSN20060710110509307/10/06 11:05:31  5-MIN KMSN 101705Z VRB04KT 10SM CLR 21/14 A2999 800 63 1700 VRB/04 RMK AO2
14837KMSN MSN20060710111009307/10/06 11:10:31  5-MIN KMSN 101710Z 07007KT 10SM CLR 22/14 A2999 800 61 1800 070/07 RMK AO2
14837KMSN MSN20060710111509307/10/06 11:15:31  5-MIN KMSN 101715Z 10007KT 10SM CLR 22/14 A2999 800 61 1800 100/07 RMK AO2
14837KMSN MSN20060710112009307/10/06 11:20:31  5-MIN KMSN 101720Z 09005KT 10SM CLR 21/13 A2999 800 61 1700 090/05 RMK AO2
14837KMSN MSN20060710112509307/10/06 11:25:31  5-MIN KMSN 101725Z VRB05KT 10SM CLR 22/14 A2999 800 61 1800 VRB/05 RMK AO2
14837KMSN MSN20060710113009307/10/06 11:30:31  5-MIN KMSN 101730Z 07007KT 10SM CLR 22/14 A2999 800 61 1800 070/07 RMK AO2
14837KMSN MSN20060710113509307/10/06 11:35:31  5-MIN KMSN 101735Z VRB06KT 10SM CLR 22/14 A2999 800 61 1800 VRB/06 RMK AO2
14837KMSN MSN20060710114009307/10/06 11:40:31  5-MIN KMSN 101740Z VRB04KT 10SM CLR 22/14 A2999 800 61 1800 VRB/04 RMK AO2
14837KMSN MSN20060710114509307/10/06 11:45:31  5-MIN KMSN 101745Z 07007KT 10SM CLR 22/14 A2999 800 61 1800 070/07 RMK AO2
14837KMSN MSN20060710115012807/10/06 11:50:31  5-MIN KMSN 101750Z 11004KT 10SM CLR 22/14 A2999 800 61 1800 110/04 RMK AO2 SLP152 T02170139 10222 20144 50010
14837KMSN MSN20060710115509307/10/06 11:55:31  5-MIN KMSN 101755Z VRB05KT 10SM CLR 22/14 A2999 800 61 1900 VRB/05 RMK AO2
14837KMSN MSN20060710120009307/10/06 12:00:31  5-MIN KMSN 101800Z VRB05KT 10SM CLR 23/14 A2999 800 59 1900 VRB/05 RMK AO2
14837KMSN MSN20060710120509307/10/06 12:05:31  5-MIN KMSN 101805Z VRB06KT 10SM CLR 23/14 A2998 810 59 1900 VRB/06 RMK AO2
14837KMSN MSN20060710121009307/10/06 12:10:31  5-MIN KMSN 101810Z VRB05KT 10SM CLR 23/14 A2998 810 57 2000 VRB/05 RMK AO2
14837KMSN MSN20060710121509307/10/06 12:15:31  5-MIN KMSN 101815Z VRB04KT 10SM CLR 23/14 A2998 810 59 1900 VRB/04 RMK AO2
14837KMSN MSN20060710122009307/10/06 12:20:31  5-MIN KMSN 101820Z 09004KT 10SM CLR 23/14 A2998 810 59 1900 090/04 RMK AO2
14837KMSN MSN20060710122510907/10/06 12:25:31  5-MIN KMSN 101825Z 09007KT 040V130 10SM CLR 23/15 A2998 810 59 2000 090/07 040V130 RMK AO2
14837KMSN MSN20060710123009307/10/06 12:30:31  5-MIN KMSN 101830Z VRB05KT 10SM CLR 23/15 A2998 810 59 2000 VRB/05 RMK AO2
14837KMSN MSN20060710123509307/10/06 12:35:31  5-MIN KMSN 101835Z 15007KT 10SM CLR 23/15 A2998 810 59 2000 150/07 RMK AO2
14837KMSN MSN20060710124009307/10/06 12:40:31  5-MIN KMSN 101840Z 13007KT 10SM CLR 23/15 A2998 810 59 2000 130/07 RMK AO2
14837KMSN MSN20060710124509307/10/06 12:45:31  5-MIN KMSN 101845Z 11007KT 10SM CLR 24/15 A2998 810 57 2100 110/07 RMK AO2
14837KMSN MSN20060710125011007/10/06 12:50:31  5-MIN KMSN 101850Z 12006KT 10SM CLR 24/15 A2998 810 57 2100 120/06 RMK AO2 SLP148 T02390150
14837KMSN MSN20060710125509307/10/06 12:55:31  5-MIN KMSN 101855Z 06006KT 10SM CLR 24/15 A2998 810 57 2100 060/06 RMK AO2
14837KMSN MSN20060710130009307/10/06 13:00:31  5-MIN KMSN 101900Z VRB05KT 10SM CLR 24/15 A2998 810 57 2100 VRB/05 RMK AO2
14837KMSN MSN20060710130509307/10/06 13:05:31  5-MIN KMSN 101905Z VRB05KT 10SM CLR 25/16 A2997 810 55 2200 VRB/05 RMK AO2
14837KMSN MSN20060710131009307/10/06 13:10:31  5-MIN KMSN 101910Z 05007KT 10SM CLR 24/15 A2997 810 55 2100 050/07 RMK AO2
14837KMSN MSN20060710131510907/10/06 13:15:31  5-MIN KMSN 101915Z 10008KT 050V150 10SM CLR 25/16 A2997 820 55 2200 100/08 050V150 RMK AO2
14837KMSN MSN20060710132009307/10/06 13:20:31  5-MIN KMSN 101920Z 05008KT 10SM CLR 24/15 A2997 820 55 2100 050/08 RMK AO2
14837KMSN MSN20060710132509307/10/06 13:25:31  5-MIN KMSN 101925Z 05007KT 10SM CLR 25/15 A2997 820 53 2200 050/07 RMK AO2
14837KMSN MSN20060710133009307/10/06 13:30:31  5-MIN KMSN 101930Z 08007KT 10SM CLR 25/16 A2997 820 55 2200 080/07 RMK AO2
14837KMSN MSN20060710133509307/10/06 13:35:31  5-MIN KMSN 101935Z VRB04KT 10SM CLR 24/15 A2997 820 55 2100 VRB/04 RMK AO2
14837KMSN MSN20060710134009307/10/06 13:40:31  5-MIN KMSN 101940Z 07009KT 10SM CLR 25/16 A2997 820 57 2200 070/09 RMK AO2
14837KMSN MSN20060710134509307/10/06 13:45:31  5-MIN KMSN 101945Z 08008KT 10SM CLR 25/16 A2997 820 55 2200 080/08 RMK AO2
14837KMSN MSN20060710135011007/10/06 13:50:31  5-MIN KMSN 101950Z VRB06KT 10SM CLR 25/16 A2997 820 55 2200 VRB/06 RMK AO2 SLP144 T02500156
14837KMSN MSN20060710135509607/10/06 13:55:31  5-MIN KMSN 101955Z 10008KT 10SM FEW040 26/16 A2997 820 55 2300 100/08 RMK AO2
14837KMSN MSN20060710140009607/10/06 14:00:31  5-MIN KMSN 102000Z 06004KT 10SM FEW040 25/16 A2996 830 57 2200 060/04 RMK AO2
14837KMSN MSN20060710140511207/10/06 14:05:31  5-MIN KMSN 102005Z 11008KT 080V150 10SM FEW040 26/16 A2996 820 55 2300 110/08 080V150 RMK AO2
14837KMSN MSN20060710141009607/10/06 14:10:31  5-MIN KMSN 102010Z 15008KT 10SM FEW040 25/16 A2996 820 57 2200 150/08 RMK AO2
14837KMSN MSN20060710141509607/10/06 14:15:31  5-MIN KMSN 102015Z VRB05KT 10SM FEW040 25/16 A2996 820 57 2200 VRB/05 RMK AO2
14837KMSN MSN20060710142009607/10/06 14:20:31  5-MIN KMSN 102020Z VRB05KT 10SM FEW040 26/16 A2996 820 55 2300 VRB/05 RMK AO2
14837KMSN MSN20060710142511207/10/06 14:25:31  5-MIN KMSN 102025Z 17008KT 130V200 10SM FEW040 25/16 A2997 820 57 2200 170/08 130V200 RMK AO2
14837KMSN MSN20060710143009607/10/06 14:30:31  5-MIN KMSN 102030Z 15008KT 10SM FEW040 24/16 A2996 820 57 2100 150/08 RMK AO2
14837KMSN MSN20060710143509607/10/06 14:35:31  5-MIN KMSN 102035Z 10005KT 10SM FEW040 25/16 A2997 820 57 2200 100/05 RMK AO2
14837KMSN MSN20060710144009607/10/06 14:40:31  5-MIN KMSN 102040Z VRB04KT 10SM FEW040 24/16 A2997 820 57 2100 VRB/04 RMK AO2
14837KMSN MSN20060710144509607/10/06 14:45:31  5-MIN KMSN 102045Z 15008KT 10SM FEW040 25/16 A2997 820 55 2200 150/08 RMK AO2
14837KMSN MSN20060710145012607/10/06 14:50:31  5-MIN KMSN 102050Z 15008KT 10SM FEW040 SCT075 24/16 A2997 820 57 2100 150/08 RMK AO2 SLP144 T02440156 56007
14837KMSN MSN20060710145509607/10/06 14:55:31  5-MIN KMSN 102055Z 14006KT 10SM FEW075 24/15 A2996 820 57 2100 140/06 RMK AO2
14837KMSN MSN20060710150009607/10/06 15:00:31  5-MIN KMSN 102100Z 14007KT 10SM FEW075 24/16 A2996 830 57 2100 140/07 RMK AO2
14837KMSN MSN20060710150509607/10/06 15:05:31  5-MIN KMSN 102105Z 11007KT 10SM FEW075 24/16 A2996 830 57 2100 110/07 RMK AO2
14837KMSN MSN20060710151009607/10/06 15:10:31  5-MIN KMSN 102110Z 14008KT 10SM FEW075 24/16 A2996 830 59 2100 140/08 RMK AO2
14837KMSN MSN20060710151509607/10/06 15:15:31  5-MIN KMSN 102115Z 14007KT 10SM FEW075 24/16 A2996 830 57 2200 140/07 RMK AO2
14837KMSN MSN20060710152009607/10/06 15:20:31  5-MIN KMSN 102120Z 12007KT 10SM FEW080 24/16 A2996 830 57 2200 120/07 RMK AO2
14837KMSN MSN20060710152509607/10/06 15:25:31  5-MIN KMSN 102125Z 12007KT 10SM FEW080 24/15 A2996 830 57 2100 120/07 RMK AO2
14837KMSN MSN20060710153009607/10/06 15:30:31  5-MIN KMSN 102130Z 13007KT 10SM FEW080 24/16 A2995 840 57 2200 130/07 RMK AO2
14837KMSN MSN20060710153509607/10/06 15:35:31  5-MIN KMSN 102135Z 15006KT 10SM FEW075 24/16 A2995 840 59 2100 140/06 RMK AO2
14837KMSN MSN20060710154009307/10/06 15:40:31  5-MIN KMSN 102140Z 11006KT 10SM CLR 24/15 A2995 840 57 2100 110/06 RMK AO2
14837KMSN MSN20060710154509307/10/06 15:45:31  5-MIN KMSN 102145Z 13007KT 10SM CLR 24/16 A2995 830 59 2100 130/07 RMK AO2
14837KMSN MSN20060710155011007/10/06 15:50:31  5-MIN KMSN 102150Z 14007KT 10SM CLR 24/16 A2995 830 57 2200 140/07 RMK AO2 SLP139 T02440156
14837KMSN MSN20060710155509307/10/06 15:55:31  5-MIN KMSN 102155Z 12007KT 10SM CLR 25/16 A2995 840 55 2200 110/07 RMK AO2
14837KMSN MSN20060710160009307/10/06 16:00:31  5-MIN KMSN 102200Z 13007KT 10SM CLR 24/16 A2995 840 57 2200 130/07 RMK AO2
14837KMSN MSN20060710160509607/10/06 16:05:31  5-MIN KMSN 102205Z 10008KT 10SM FEW065 24/16 A2995 840 57 2200 100/08 RMK AO2
14837KMSN MSN20060710161009607/10/06 16:10:31  5-MIN KMSN 102210Z 11008KT 10SM FEW065 24/16 A2995 840 59 2200 110/08 RMK AO2
14837KMSN MSN20060710161509607/10/06 16:15:31  5-MIN KMSN 102215Z VRB05KT 10SM FEW065 24/16 A2995 840 61 2100 VRB/05 RMK AO2
14837KMSN MSN20060710162009607/10/06 16:20:31  5-MIN KMSN 102220Z 13008KT 10SM FEW070 24/17 A2994 840 61 2200 120/08 RMK AO2
14837KMSN MSN20060710162509607/10/06 16:25:31  5-MIN KMSN 102225Z 12006KT 10SM FEW070 24/17 A2994 840 61 2200 120/06 RMK AO2
14837KMSN MSN20060710163009607/10/06 16:30:31  5-MIN KMSN 102230Z 14008KT 10SM FEW070 24/17 A2994 840 61 2200 140/08 RMK AO2
14837KMSN MSN20060710163509607/10/06 16:35:31  5-MIN KMSN 102235Z 16007KT 10SM FEW070 24/16 A2994 850 59 2200 160/07 RMK AO2
14837KMSN MSN20060710164009307/10/06 16:40:31  5-MIN KMSN 102240Z VRB06KT 10SM CLR 24/16 A2994 850 59 2200 VRB/06 RMK AO2
14837KMSN MSN20060710164509307/10/06 16:45:31  5-MIN KMSN 102245Z 13005KT 10SM CLR 24/16 A2994 850 61 2100 130/05 RMK AO2
14837KMSN MSN20060710165011007/10/06 16:50:31  5-MIN KMSN 102250Z 16008KT 10SM CLR 24/16 A2994 850 61 2100 160/08 RMK AO2 SLP134 T02390161
14837KMSN MSN20060710165509307/10/06 16:55:31  5-MIN KMSN 102255Z 13009KT 10SM CLR 24/16 A2994 850 59 2100 130/09 RMK AO2
14837KMSN MSN20060710170009307/10/06 17:00:31  5-MIN KMSN 102300Z 14008KT 10SM CLR 24/16 A2994 850 59 2100 140/08 RMK AO2
14837KMSN MSN20060710170509307/10/06 17:05:31  5-MIN KMSN 102305Z 12007KT 10SM CLR 24/16 A2993 850 59 2100 120/07 RMK AO2
14837KMSN MSN20060710171009307/10/06 17:10:31  5-MIN KMSN 102310Z 13008KT 10SM CLR 24/16 A2993 850 59 2200 120/08 RMK AO2
14837KMSN MSN20060710171509307/10/06 17:15:31  5-MIN KMSN 102315Z 15008KT 10SM CLR 24/16 A2993 850 61 2100 150/08 RMK AO2
14837KMSN MSN20060710172009307/10/06 17:20:31  5-MIN KMSN 102320Z 15007KT 10SM CLR 23/16 A2994 850 61 2100 150/07 RMK AO2
14837KMSN MSN20060710172509307/10/06 17:25:31  5-MIN KMSN 102325Z 13007KT 10SM CLR 23/16 A2994 850 61 2000 130/07 RMK AO2
14837KMSN MSN20060710173009307/10/06 17:30:31  5-MIN KMSN 102330Z 12008KT 10SM CLR 23/16 A2994 850 61 2000 120/08 RMK AO2
14837KMSN MSN20060710173509307/10/06 17:35:31  5-MIN KMSN 102335Z 14008KT 10SM CLR 23/16 A2994 850 61 2000 140/08 RMK AO2
14837KMSN MSN20060710174009307/10/06 17:40:31  5-MIN KMSN 102340Z 13006KT 10SM CLR 23/16 A2994 850 63 2000 130/06 RMK AO2
14837KMSN MSN20060710174509307/10/06 17:45:31  5-MIN KMSN 102345Z 10008KT 10SM CLR 23/16 A2994 850 63 2000 100/08 RMK AO2
14837KMSN MSN20060710175012807/10/06 17:50:31  5-MIN KMSN 102350Z 13005KT 10SM CLR 23/16 A2994 850 61 2000 130/05 RMK AO2 SLP135 T02330156 10256 20222 56007
14837KMSN MSN20060710175509307/10/06 17:55:31  5-MIN KMSN 102355Z 12007KT 10SM CLR 23/16 A2994 850 63 2000 120/07 RMK AO2
14837KMSN MSN20060710180009307/10/06 18:00:31  5-MIN KMSN 110000Z 11006KT 10SM CLR 23/16 A2994 850 63 2000 110/06 RMK AO2
14837KMSN MSN20060710180509307/10/06 18:05:31  5-MIN KMSN 110005Z 11008KT 10SM CLR 23/16 A2994 850 63 2000 110/08 RMK AO2
14837KMSN MSN20060710181009307/10/06 18:10:31  5-MIN KMSN 110010Z 14007KT 10SM CLR 23/16 A2994 850 65 2000 140/07 RMK AO2
14837KMSN MSN20060710181509307/10/06 18:15:31  5-MIN KMSN 110015Z 12008KT 10SM CLR 23/16 A2994 850 65 2000 120/08 RMK AO2
14837KMSN MSN20060710182009307/10/06 18:20:31  5-MIN KMSN 110020Z 13007KT 10SM CLR 23/16 A2994 850 65 2000 130/07 RMK AO2
14837KMSN MSN20060710182509307/10/06 18:25:31  5-MIN KMSN 110025Z 13007KT 10SM CLR 23/16 A2994 850 65 2000 120/07 RMK AO2
14837KMSN MSN20060710183009307/10/06 18:30:31  5-MIN KMSN 110030Z 13006KT 10SM CLR 22/16 A2994 850 68 1900 130/06 RMK AO2
14837KMSN MSN20060710183509307/10/06 18:35:31  5-MIN KMSN 110035Z 12008KT 10SM CLR 22/16 A2993 850 68 1900 120/08 RMK AO2
14837KMSN MSN20060710184009307/10/06 18:40:31  5-MIN KMSN 110040Z 11007KT 10SM CLR 22/16 A2994 850 68 1900 110/07 RMK AO2
14837KMSN MSN20060710184509307/10/06 18:45:31  5-MIN KMSN 110045Z 11008KT 10SM CLR 22/16 A2994 850 68 1900 110/08 RMK AO2
14837KMSN MSN20060710185011007/10/06 18:50:31  5-MIN KMSN 110050Z 11008KT 10SM CLR 22/16 A2994 850 68 1900 110/08 RMK AO2 SLP137 T02220161
14837KMSN MSN20060710185509307/10/06 18:55:31  5-MIN KMSN 110055Z 11007KT 10SM CLR 22/16 A2994 840 68 1900 110/07 RMK AO2
14837KMSN MSN20060710190009307/10/06 19:00:31  5-MIN KMSN 110100Z 11008KT 10SM CLR 22/16 A2994 850 68 1900 110/08 RMK AO2
14837KMSN MSN20060710190509307/10/06 19:05:31  5-MIN KMSN 110105Z 12008KT 10SM CLR 22/16 A2994 840 68 1900 120/08 RMK AO2
14837KMSN MSN20060710191009307/10/06 19:10:31  5-MIN KMSN 110110Z 13007KT 10SM CLR 22/16 A2994 840 68 1900 130/07 RMK AO2
14837KMSN MSN20060710191509307/10/06 19:15:31  5-MIN KMSN 110115Z 12007KT 10SM CLR 22/16 A2994 840 68 1900 120/07 RMK AO2
14837KMSN MSN20060710192009307/10/06 19:20:31  5-MIN KMSN 110120Z 12009KT 10SM CLR 22/16 A2994 840 68 1900 120/09 RMK AO2
14837KMSN MSN20060710192509307/10/06 19:25:31  5-MIN KMSN 110125Z 12008KT 10SM CLR 22/16 A2995 840 70 1900 110/08 RMK AO2
14837KMSN MSN20060710193009307/10/06 19:30:31  5-MIN KMSN 110130Z 12010KT 10SM CLR 22/16 A2994 840 70 1900 120/10 RMK AO2
14837KMSN MSN20060710193509307/10/06 19:35:31  5-MIN KMSN 110135Z 13008KT 10SM CLR 22/16 A2994 840 70 1900 120/08 RMK AO2
14837KMSN MSN20060710194009307/10/06 19:40:31  5-MIN KMSN 110140Z 14008KT 10SM CLR 22/16 A2994 840 68 1900 140/08 RMK AO2
14837KMSN MSN20060710194509307/10/06 19:45:31  5-MIN KMSN 110145Z 13009KT 10SM CLR 22/16 A2994 840 68 1900 120/09 RMK AO2
14837KMSN MSN20060710195011007/10/06 19:50:31  5-MIN KMSN 110150Z 13008KT 10SM CLR 22/16 A2994 840 68 1900 130/08 RMK AO2 SLP137 T02170156
14837KMSN MSN20060710195509307/10/06 19:55:31  5-MIN KMSN 110155Z 13008KT 10SM CLR 21/16 A2995 840 70 1800 130/08 RMK AO2
14837KMSN MSN20060710200009307/10/06 20:00:31  5-MIN KMSN 110200Z 13009KT 10SM CLR 21/16 A2995 840 70 1800 120/09 RMK AO2
14837KMSN MSN20060710200509307/10/06 20:05:31  5-MIN KMSN 110205Z 11008KT 10SM CLR 21/16 A2994 840 70 1800 110/08 RMK AO2
14837KMSN MSN20060710201009307/10/06 20:10:31  5-MIN KMSN 110210Z 11010KT 10SM CLR 21/16 A2995 840 73 1700 110/10 RMK AO2
14837KMSN MSN20060710201509307/10/06 20:15:31  5-MIN KMSN 110215Z 12008KT 10SM CLR 21/16 A2995 840 73 1700 120/08 RMK AO2
14837KMSN MSN20060710202009307/10/06 20:20:31  5-MIN KMSN 110220Z 12007KT 10SM CLR 21/16 A2995 830 73 1700 120/07 RMK AO2
14837KMSN MSN20060710202509307/10/06 20:25:31  5-MIN KMSN 110225Z 11010KT 10SM CLR 21/16 A2996 830 73 1700 110/10 RMK AO2
14837KMSN MSN20060710203009307/10/06 20:30:31  5-MIN KMSN 110230Z 12009KT 10SM CLR 21/16 A2996 830 73 1700 120/09 RMK AO2
14837KMSN MSN20060710203509307/10/06 20:35:31  5-MIN KMSN 110235Z 11011KT 10SM CLR 21/16 A2996 830 73 1700 110/11 RMK AO2
14837KMSN MSN20060710204009307/10/06 20:40:31  5-MIN KMSN 110240Z 12011KT 10SM CLR 20/16 A2996 820 75 1600 120/11 RMK AO2
14837KMSN MSN20060710204509307/10/06 20:45:31  5-MIN KMSN 110245Z 13008KT 10SM CLR 20/15 A2997 820 72 1600 130/08 RMK AO2
14837KMSN MSN20060710205011607/10/06 20:50:31  5-MIN KMSN 110250Z 14010KT 10SM CLR 20/15 A2997 820 72 1600 130/10 RMK AO2 SLP145 T02000150 55008
14837KMSN MSN20060710205509307/10/06 20:55:31  5-MIN KMSN 110255Z 13010KT 10SM CLR 20/15 A2997 820 72 1600 130/10 RMK AO2
14837KMSN MSN20060710210009307/10/06 21:00:31  5-MIN KMSN 110300Z 12009KT 10SM CLR 20/14 A2997 820 70 1600 120/09 RMK AO2
14837KMSN MSN20060710210509307/10/06 21:05:31  5-MIN KMSN 110305Z 12008KT 10SM CLR 19/14 A2997 820 72 1600 120/08 RMK AO2
14837KMSN MSN20060710211009307/10/06 21:10:31  5-MIN KMSN 110310Z 13009KT 10SM CLR 19/14 A2997 820 70 1600 130/09 RMK AO2
14837KMSN MSN20060710211509307/10/06 21:15:31  5-MIN KMSN 110315Z 14009KT 10SM CLR 19/13 A2997 820 67 1600 140/09 RMK AO2
14837KMSN MSN20060710212009307/10/06 21:20:31  5-MIN KMSN 110320Z 13011KT 10SM CLR 19/13 A2997 820 67 1600 130/11 RMK AO2
14837KMSN MSN20060710212509307/10/06 21:25:31  5-MIN KMSN 110325Z 12009KT 10SM CLR 19/13 A2997 820 67 1600 120/09 RMK AO2
14837KMSN MSN20060710213009307/10/06 21:30:31  5-MIN KMSN 110330Z 13008KT 10SM CLR 19/13 A2997 820 67 1600 120/08 RMK AO2
14837KMSN MSN20060710213509607/10/06 21:35:31  5-MIN KMSN 110335Z 14009KT 10SM FEW070 19/13 A2997 810 65 1600 140/09 RMK AO2
14837KMSN MSN20060710214009607/10/06 21:40:31  5-MIN KMSN 110340Z 13008KT 10SM FEW070 19/13 A2997 810 65 1600 130/08 RMK AO2
14837KMSN MSN20060710214509307/10/06 21:45:31  5-MIN KMSN 110345Z 14007KT 10SM CLR 19/13 A2997 810 67 1500 130/07 RMK AO2
14837KMSN MSN20060710215011307/10/06 21:50:31  5-MIN KMSN 110350Z 14008KT 10SM FEW075 19/13 A2997 820 67 1500 140/08 RMK AO2 SLP147 T01890128
14837KMSN MSN20060710215509307/10/06 21:55:31  5-MIN KMSN 110355Z 13009KT 10SM CLR 19/13 A2997 820 70 1500 130/09 RMK AO2
14837KMSN MSN20060710220009307/10/06 22:00:31  5-MIN KMSN 110400Z 12006KT 10SM CLR 19/13 A2997 820 70 1500 120/06 RMK AO2
14837KMSN MSN20060710220509307/10/06 22:05:31  5-MIN KMSN 110405Z 13007KT 10SM CLR 19/13 A2997 820 70 1500 130/07 RMK AO2
14837KMSN MSN20060710221009307/10/06 22:10:31  5-MIN KMSN 110410Z 12011KT 10SM CLR 19/13 A2997 820 70 1500 120/11 RMK AO2
14837KMSN MSN20060710221509307/10/06 22:15:31  5-MIN KMSN 110415Z 12010KT 10SM CLR 19/13 A2997 820 70 1500 120/10 RMK AO2
14837KMSN MSN20060710222009307/10/06 22:20:31  5-MIN KMSN 110420Z 11006KT 10SM CLR 19/13 A2997 820 70 1500 110/06 RMK AO2
14837KMSN MSN20060710222509307/10/06 22:25:31  5-MIN KMSN 110425Z 12007KT 10SM CLR 18/14 A2997 820 75 1400 120/07 RMK AO2
14837KMSN MSN20060710223009307/10/06 22:30:31  5-MIN KMSN 110430Z 13007KT 10SM CLR 18/13 A2997 810 72 1400 130/07 RMK AO2
14837KMSN MSN20060710223509307/10/06 22:35:31  5-MIN KMSN 110435Z 13006KT 10SM CLR 18/13 A2997 810 72 1400 130/06 RMK AO2
14837KMSN MSN20060710224009607/10/06 22:40:31  5-MIN KMSN 110440Z 13009KT 10SM SCT027 18/13 A2997 810 72 1400 130/09 RMK AO2
14837KMSN MSN20060710224509607/10/06 22:45:31  5-MIN KMSN 110445Z 13010KT 10SM BKN027 18/13 A2997 820 72 1400 120/10 RMK AO2
14837KMSN MSN20060710225011307/10/06 22:50:31  5-MIN KMSN 110450Z 13010KT 10SM BKN027 18/13 A2997 820 72 1400 130/10 RMK AO2 SLP144 T01830133
14837KMSN MSN20060710225509607/10/06 22:55:31  5-MIN KMSN 110455Z 12008KT 10SM BKN027 18/13 A2996 820 72 1400 120/08 RMK AO2
14837KMSN MSN20060710230010307/10/06 23:00:31  5-MIN KMSN 110500Z 10008KT 10SM BKN027 BKN032 18/14 A2996 830 75 1400 100/08 RMK AO2
14837KMSN MSN20060710230510307/10/06 23:05:31  5-MIN KMSN 110505Z 16009KT 10SM BKN027 BKN032 18/14 A2997 810 75 1400 160/09 RMK AO2
14837KMSN MSN20060710231009607/10/06 23:10:31  5-MIN KMSN 110510Z 14008KT 10SM BKN027 18/14 A2997 820 75 1400 140/08 RMK AO2
14837KMSN MSN20060710231510307/10/06 23:15:31  5-MIN KMSN 110515Z 12008KT 10SM BKN025 OVC030 18/13 A2996 830 72 1400 120/08 RMK AO2
14837KMSN MSN20060710232010307/10/06 23:20:31  5-MIN KMSN 110520Z 12007KT 10SM BKN022 OVC030 18/13 A2996 830 72 1500 110/07 RMK AO2
14837KMSN MSN20060710232509607/10/06 23:25:31  5-MIN KMSN 110525Z 08007KT 10SM BKN022 18/13 A2996 830 72 1500 080/07 RMK AO2
14837KMSN MSN20060710233009607/10/06 23:30:31  5-MIN KMSN 110530Z 10003KT 10SM BKN022 18/14 A2996 830 75 1500 100/03 RMK AO2
14837KMSN MSN20060710233509607/10/06 23:35:31  5-MIN KMSN 110535Z 11007KT 10SM BKN022 18/13 A2996 830 72 1400 110/07 RMK AO2
14837KMSN MSN20060710234009607/10/06 23:40:31  5-MIN KMSN 110540Z 11007KT 10SM BKN022 18/13 A2996 830 72 1500 110/07 RMK AO2
14837KMSN MSN20060710234509607/10/06 23:45:31  5-MIN KMSN 110545Z 10008KT 10SM BKN022 18/13 A2996 830 75 1400 100/08 RMK AO2
14837KMSN MSN20060710235014107/10/06 23:50:31  5-MIN KMSN 110550Z 11008KT 10SM BKN022 18/13 A2996 830 75 1400 110/08 RMK AO2 SLP142 T01780133 10233 20178 402560144 53008
14837KMSN MSN20060710235509607/10/06 23:55:31  5-MIN KMSN 110555Z 13010KT 10SM BKN020 18/13 A2996 820 75 1400 130/10 RMK AO2
14837KMSN MSN20060711000009607/11/06 00:00:38  5-MIN KMSN 110600Z 13008KT 10SM BKN020 18/13 A2997 820 75 1400 130/08 RMK AO2
14837KMSN MSN20060711000509607/11/06 00:05:31  5-MIN KMSN 110605Z 14008KT 10SM OVC020 18/13 A2997 820 75 1400 130/08 RMK AO2
14837KMSN MSN20060711001009607/11/06 00:10:31  5-MIN KMSN 110610Z 12007KT 10SM OVC020 18/13 A2997 820 75 1400 120/07 RMK AO2
14837KMSN MSN20060711001509607/11/06 00:15:31  5-MIN KMSN 110615Z 12007KT 10SM OVC020 18/13 A2996 820 75 1400 120/07 RMK AO2
14837KMSN MSN20060711002010307/11/06 00:20:31  5-MIN KMSN 110620Z 10006KT 10SM BKN020 OVC026 18/13 A2996 830 75 1400 100/06 RMK AO2
14837KMSN MSN20060711002510307/11/06 00:25:31  5-MIN KMSN 110625Z 10008KT 10SM BKN020 OVC025 18/13 A2996 830 75 1400 100/08 RMK AO2
14837KMSN MSN20060711003010307/11/06 00:30:31  5-MIN KMSN 110630Z 11007KT 10SM SCT020 BKN025 18/13 A2996 830 75 1400 100/07 RMK AO2
14837KMSN MSN20060711003510307/11/06 00:35:31  5-MIN KMSN 110635Z 10008KT 10SM BKN020 BKN028 17/13 A2995 830 78 1300 100/08 RMK AO2
14837KMSN MSN20060711004010307/11/06 00:40:31  5-MIN KMSN 110640Z 12006KT 10SM BKN020 BKN028 17/13 A2996 830 78 1300 120/06 RMK AO2
14837KMSN MSN20060711004510307/11/06 00:45:31  5-MIN KMSN 110645Z 12006KT 10SM BKN020 BKN028 17/13 A2996 830 78 1300 120/06 RMK AO2
14837KMSN MSN20060711005012007/11/06 00:50:31  5-MIN KMSN 110650Z 15007KT 10SM BKN020 BKN028 17/13 A2996 830 78 1300 150/07 RMK AO2 SLP142 T01720133
14837KMSN MSN20060711005509607/11/06 00:55:31  5-MIN KMSN 110655Z 15007KT 10SM BKN020 18/13 A2996 830 75 1400 150/07 RMK AO2
14837KMSN MSN20060711010009607/11/06 01:00:31  5-MIN KMSN 110700Z 12006KT 10SM BKN020 17/13 A2996 830 78 1300 120/06 RMK AO2
14837KMSN MSN20060711010509607/11/06 01:05:31  5-MIN KMSN 110705Z 10006KT 10SM OVC020 17/13 A2995 840 78 1300 100/06 RMK AO2
14837KMSN MSN20060711011009607/11/06 01:10:31  5-MIN KMSN 110710Z 11007KT 10SM BKN020 17/13 A2995 840 78 1300 110/07 RMK AO2
14837KMSN MSN20060711011510307/11/06 01:15:31  5-MIN KMSN 110715Z 11007KT 10SM BKN020 BKN060 17/13 A2995 830 78 1300 110/07 RMK AO2
14837KMSN MSN20060711012011007/11/06 01:20:31  5-MIN KMSN 110720Z 13008KT 10SM SCT020 BKN048 BKN060 17/13 A2995 830 78 1300 130/08 RMK AO2
14837KMSN MSN20060711012511007/11/06 01:25:31  5-MIN KMSN 110725Z 12008KT 10SM FEW020 BKN048 BKN060 17/13 A2995 840 78 1300 120/08 RMK AO2
14837KMSN MSN20060711013011007/11/06 01:30:31  5-MIN KMSN 110730Z 14006KT 10SM FEW018 SCT049 BKN055 17/13 A2995 830 78 1300 140/06 RMK AO2
14837KMSN MSN20060711013511007/11/06 01:35:31  5-MIN KMSN 110735Z 12005KT 10SM FEW038 BKN049 BKN060 17/13 A2995 830 78 1300 120/05 RMK AO2
14837KMSN MSN20060711014010307/11/06 01:40:31  5-MIN KMSN 110740Z 12006KT 10SM FEW038 BKN049 17/13 A2995 830 78 1300 120/06 RMK AO2
14837KMSN MSN20060711014510307/11/06 01:45:31  5-MIN KMSN 110745Z 13005KT 10SM FEW038 BKN049 17/13 A2996 830 78 1300 130/05 RMK AO2
14837KMSN MSN20060711015012007/11/06 01:50:31  5-MIN KMSN 110750Z 13005KT 10SM FEW040 BKN049 17/13 A2996 830 78 1300 120/05 RMK AO2 SLP140 T01720133
14837KMSN MSN20060711015511007/11/06 01:55:31  5-MIN KMSN 110755Z 12006KT 10SM FEW040 BKN049 BKN065 17/13 A2996 830 78 1300 120/06 RMK AO2
14837KMSN MSN20060711020010307/11/06 02:00:31  5-MIN KMSN 110800Z 12004KT 10SM BKN047 BKN070 17/13 A2996 830 78 1300 120/04 RMK AO2
14837KMSN MSN20060711020511007/11/06 02:05:31  5-MIN KMSN 110805Z 13005KT 10SM FEW035 BKN047 BKN060 17/13 A2996 830 78 1300 130/05 RMK AO2
14837KMSN MSN20060711021011007/11/06 02:10:31  5-MIN KMSN 110810Z 10005KT 10SM FEW035 BKN047 OVC060 17/13 A2995 830 78 1300 100/05 RMK AO2
14837KMSN MSN20060711021511007/11/06 02:15:31  5-MIN KMSN 110815Z 12006KT 10SM FEW035 BKN047 BKN060 17/13 A2995 830 78 1300 120/06 RMK AO2
14837KMSN MSN20060711022011007/11/06 02:20:31  5-MIN KMSN 110820Z 11005KT 10SM FEW035 BKN047 BKN055 17/13 A2995 830 80 1300 110/05 RMK AO2
14837KMSN MSN20060711022511007/11/06 02:25:31  5-MIN KMSN 110825Z 12005KT 10SM FEW035 BKN045 BKN060 17/13 A2996 830 80 1300 120/05 RMK AO2
14837KMSN MSN20060711023010307/11/06 02:30:31  5-MIN KMSN 110830Z 14004KT 10SM FEW035 BKN047 17/13 A2996 830 80 1300 140/04 RMK AO2
14837KMSN MSN20060711023510307/11/06 02:35:31  5-MIN KMSN 110835Z 11004KT 10SM FEW035 SCT047 17/13 A2996 830 80 1300 110/04 RMK AO2
14837KMSN MSN20060711024009607/11/06 02:40:31  5-MIN KMSN 110840Z 10005KT 10SM FEW035 17/13 A2995 830 80 1300 100/05 RMK AO2
14837KMSN MSN20060711024509607/11/06 02:45:31  5-MIN KMSN 110845Z 10006KT 10SM FEW048 17/13 A2995 830 80 1300 100/06 RMK AO2
14837KMSN MSN20060711025011907/11/06 02:50:31  5-MIN KMSN 110850Z 10005KT 10SM FEW048 17/13 A2995 840 80 1300 100/05 RMK AO2 SLP139 T01670133 58003
14837KMSN MSN20060711025509307/11/06 02:55:31  5-MIN KMSN 110855Z 11005KT 10SM CLR 17/13 A2995 840 80 1300 110/05 RMK AO2
14837KMSN MSN20060711030009307/11/06 03:00:31  5-MIN KMSN 110900Z 11005KT 10SM CLR 17/13 A2995 840 80 1300 110/05 RMK AO2
14837KMSN MSN20060711030509307/11/06 03:05:31  5-MIN KMSN 110905Z 10004KT 10SM CLR 17/13 A2995 840 80 1300 100/04 RMK AO2
14837KMSN MSN20060711031009307/11/06 03:10:31  5-MIN KMSN 110910Z 10004KT 10SM CLR 17/13 A2995 840 80 1300 100/04 RMK AO2
14837KMSN MSN20060711031509307/11/06 03:15:31  5-MIN KMSN 110915Z 08003KT 10SM CLR 17/13 A2995 840 80 1300 080/03 RMK AO2
14837KMSN MSN20060711032009307/11/06 03:20:31  5-MIN KMSN 110920Z 08003KT 10SM CLR 17/13 A2994 840 80 1300 080/03 RMK AO2
14837KMSN MSN20060711032509307/11/06 03:25:31  5-MIN KMSN 110925Z 08004KT 10SM CLR 16/13 A2994 850 83 1200 080/04 RMK AO2
14837KMSN MSN20060711033009307/11/06 03:30:31  5-MIN KMSN 110930Z 09004KT 10SM CLR 16/13 A2994 850 83 1200 090/04 RMK AO2
14837KMSN MSN20060711033509307/11/06 03:35:31  5-MIN KMSN 110935Z 08004KT 10SM CLR 16/13 A2994 850 83 1200 080/04 RMK AO2
14837KMSN MSN20060711034009307/11/06 03:40:31  5-MIN KMSN 110940Z 10004KT 10SM CLR 16/13 A2994 850 83 1200 100/04 RMK AO2
14837KMSN MSN20060711034509307/11/06 03:45:31  5-MIN KMSN 110945Z 10007KT 10SM CLR 17/13 A2994 850 80 1300 100/07 RMK AO2
14837KMSN MSN20060711035011007/11/06 03:50:31  5-MIN KMSN 110950Z 10006KT 10SM CLR 17/13 A2994 850 80 1300 100/06 RMK AO2 SLP135 T01670133
14837KMSN MSN20060711035509307/11/06 03:55:31  5-MIN KMSN 110955Z 11003KT 10SM CLR 16/13 A2994 850 83 1200 110/03 RMK AO2
14837KMSN MSN20060711040009307/11/06 04:00:31  5-MIN KMSN 111000Z 09003KT 10SM CLR 16/13 A2994 850 83 1200 090/03 RMK AO2
14837KMSN MSN20060711040509307/11/06 04:05:31  5-MIN KMSN 111005Z 07005KT 10SM CLR 17/13 A2994 850 80 1300 070/05 RMK AO2
14837KMSN MSN20060711041009307/11/06 04:10:31  5-MIN KMSN 111010Z 07004KT 10SM CLR 17/13 A2994 850 80 1300 060/04 RMK AO2
14837KMSN MSN20060711041509307/11/06 04:15:31  5-MIN KMSN 111015Z 07003KT 10SM CLR 16/13 A2994 850 83 1200 070/03 RMK AO2
14837KMSN MSN20060711042009307/11/06 04:20:31  5-MIN KMSN 111020Z 12004KT 10SM CLR 16/13 A2995 840 83 1200 120/04 RMK AO2
14837KMSN MSN20060711042509307/11/06 04:25:31  5-MIN KMSN 111025Z 13004KT 10SM CLR 16/13 A2994 840 83 1200 130/04 RMK AO2
14837KMSN MSN20060711043009307/11/06 04:30:31  5-MIN KMSN 111030Z 12006KT 10SM CLR 16/13 A2994 850 83 1200 120/06 RMK AO2
14837KMSN MSN20060711043509307/11/06 04:35:31  5-MIN KMSN 111035Z 12007KT 10SM CLR 16/13 A2994 840 83 1200 120/07 RMK AO2
14837KMSN MSN20060711044010907/11/06 04:40:31  5-MIN KMSN 111040Z 13006KT 10SM -RA CLR 16/13 A2994 840 83 1200 120/06 RMK AO2 RAB38 P0000
14837KMSN MSN20060711044511207/11/06 04:45:31  5-MIN KMSN 111045Z 11005KT 10SM -RA FEW015 16/14 A2994 840 86 1200 110/05 RMK AO2 RAB38 P0000
14837KMSN MSN20060711045012907/11/06 04:50:31  5-MIN KMSN 111050Z 11005KT 10SM -RA FEW015 16/14 A2995 840 86 1200 110/05 RMK AO2 RAB38 SLP137 P0000 T01610139
14837KMSN MSN20060711045509607/11/06 04:55:31  5-MIN KMSN 111055Z 11005KT 10SM SCT015 16/13 A2995 840 83 1200 110/05 RMK AO2
14837KMSN MSN20060711050009607/11/06 05:00:31  5-MIN KMSN 111100Z 11005KT 10SM BKN015 16/13 A2995 840 83 1200 110/05 RMK AO2
14837KMSN MSN20060711050509607/11/06 05:05:31  5-MIN KMSN 111105Z 10004KT 10SM BKN015 16/14 A2995 840 86 1200 100/04 RMK AO2
14837KMSN MSN20060711051009607/11/06 05:10:31  5-MIN KMSN 111110Z 09004KT 10SM BKN013 17/14 A2995 840 83 1300 090/04 RMK AO2
14837KMSN MSN20060711051509607/11/06 05:15:31  5-MIN KMSN 111115Z 08004KT 10SM BKN013 17/14 A2995 840 83 1300 080/04 RMK AO2
14837KMSN MSN20060711052009607/11/06 05:20:31  5-MIN KMSN 111120Z 07005KT 10SM OVC013 17/14 A2995 840 83 1300 070/05 RMK AO2
14837KMSN MSN20060711052509607/11/06 05:25:31  5-MIN KMSN 111125Z 06005KT 10SM OVC011 16/14 A2994 840 86 1200 060/05 RMK AO2
14837KMSN MSN20060711053011107/11/06 05:30:31  5-MIN KMSN 111130Z 06005KT 9SM -RA OVC011 16/14 A2995 840 86 1200 060/05 RMK AO2 RAB29 P0000
14837KMSN MSN20060711053511207/11/06 05:35:31  5-MIN KMSN 111135Z 07004KT 10SM -RA OVC011 16/14 A2995 840 86 1200 070/04 RMK AO2 RAB29 P0000
14837KMSN MSN20060711054011107/11/06 05:40:31  5-MIN KMSN 111140Z 07004KT 10SM OVC011 16/14 A2995 840 86 1200 070/04 RMK AO2 RAB29E39 P0000
14837KMSN MSN20060711054511107/11/06 05:45:31  5-MIN KMSN 111145Z 07004KT 10SM OVC011 17/14 A2995 840 83 1300 070/04 RMK AO2 RAB29E39 P0000
14837KMSN MSN20060711055015207/11/06 05:50:31  5-MIN KMSN 111150Z 06004KT 10SM OVC011 17/14 A2995 840 83 1300 060/04 RMK AO2 RAB29E39 SLP138 P0000 60000 T01670139 10178 20161 58004
14837KMSN MSN20060711055509607/11/06 05:55:31  5-MIN KMSN 111155Z 07003KT 10SM OVC011 17/14 A2995 840 83 1300 070/03 RMK AO2
14837KMSN MSN20060711060009607/11/06 06:00:31  5-MIN KMSN 111200Z 07004KT 10SM OVC011 17/14 A2995 840 83 1300 070/04 RMK AO2
14837KMSN MSN20060711060509607/11/06 06:05:31  5-MIN KMSN 111205Z 06004KT 10SM OVC011 17/14 A2995 840 83 1300 060/04 RMK AO2
14837KMSN MSN20060711061009607/11/06 06:10:31  5-MIN KMSN 111210Z 06006KT 10SM OVC011 17/14 A2995 840 83 1300 060/06 RMK AO2
14837KMSN MSN20060711061509607/11/06 06:15:31  5-MIN KMSN 111215Z 07005KT 10SM OVC011 17/14 A2995 840 83 1300 070/05 RMK AO2
14837KMSN MSN20060711062011207/11/06 06:20:31  5-MIN KMSN 111220Z 08005KT 10SM -RA OVC011 17/14 A2995 840 83 1300 080/05 RMK AO2 RAB16 P0000
14837KMSN MSN20060711062511107/11/06 06:25:31  5-MIN KMSN 111225Z 08005KT 9SM -RA OVC011 17/14 A2995 840 83 1300 080/05 RMK AO2 RAB16 P0000
14837KMSN MSN20060711063011107/11/06 06:30:31  5-MIN KMSN 111230Z 08006KT 9SM -RA OVC011 17/14 A2995 840 83 1300 080/06 RMK AO2 RAB16 P0000
14837KMSN MSN20060711063511107/11/06 06:35:31  5-MIN KMSN 111235Z 08005KT 7SM -RA OVC011 17/14 A2995 840 86 1300 080/05 RMK AO2 RAB16 P0000
14837KMSN MSN20060711064011407/11/06 06:40:31  5-MIN KMSN 111240Z 10004KT 6SM -RA BR OVC011 17/14 A2995 840 86 1300 100/04 RMK AO2 RAB16 P0001
14837KMSN MSN20060711064511407/11/06 06:45:31  5-MIN KMSN 111245Z 11005KT 6SM -RA BR OVC011 17/14 A2995 840 86 1300 110/05 RMK AO2 RAB16 P0001
14837KMSN MSN20060711065013107/11/06 06:50:31  5-MIN KMSN 111250Z 10005KT 5SM -RA BR OVC011 17/14 A2995 840 86 1300 100/05 RMK AO2 RAB16 SLP137 P0001 T01670144
14837KMSN MSN20060711065510807/11/06 06:55:31  5-MIN KMSN 111255Z 08004KT 5SM -RA BR OVC011 17/14 A2995 840 86 1300 080/04 RMK AO2 P0001
14837KMSN MSN20060711070010807/11/06 07:00:31  5-MIN KMSN 111300Z 08005KT 6SM -RA BR OVC011 17/14 A2995 840 86 1300 080/05 RMK AO2 P0001
14837KMSN MSN20060711070510507/11/06 07:05:31  5-MIN KMSN 111305Z 08005KT 7SM -RA OVC011 17/14 A2995 840 86 1300 080/05 RMK AO2 P0001
14837KMSN MSN20060711071010807/11/06 07:10:31  5-MIN KMSN 111310Z 08004KT 6SM -RA BR OVC011 17/14 A2995 840 86 1300 080/04 RMK AO2 P0001
14837KMSN MSN20060711071510807/11/06 07:15:31  5-MIN KMSN 111315Z 09005KT 6SM -RA BR OVC011 17/15 A2995 840 90 1300 090/05 RMK AO2 P0001
14837KMSN MSN20060711072010807/11/06 07:20:31  5-MIN KMSN 111320Z 10004KT 6SM -RA BR OVC011 17/15 A2995 840 90 1300 090/04 RMK AO2 P0001
14837KMSN MSN20060711072510707/11/06 07:25:31  5-MIN KMSN 111325Z 11003KT 7SM OVC011 17/15 A2995 840 90 1300 110/03 RMK AO2 RAE25 P0001
14837KMSN MSN20060711073010707/11/06 07:30:31  5-MIN KMSN 111330Z 10004KT 8SM OVC011 17/15 A2994 840 90 1300 090/04 RMK AO2 RAE25 P0001
14837KMSN MSN20060711073510507/11/06 07:35:31  5-MIN KMSN 111335Z 10005KT 7SM -RA OVC011 17/15 A2995 840 90 1300 100/05 RMK AO2 P0001
14837KMSN MSN20060711074010807/11/06 07:40:31  5-MIN KMSN 111340Z 11005KT 6SM -RA BR OVC011 17/15 A2995 840 90 1300 100/05 RMK AO2 P0001
14837KMSN MSN20060711074510807/11/06 07:45:31  5-MIN KMSN 111345Z 11006KT 4SM -RA BR OVC011 17/15 A2995 840 90 1300 110/06 RMK AO2 P0002
14837KMSN MSN20060711075012507/11/06 07:50:31  5-MIN KMSN 111350Z 11007KT 4SM -RA BR OVC011 17/15 A2995 840 90 1300 110/07 RMK AO2 SLP137 P0003 T01670150
14837KMSN MSN20060711075512207/11/06 07:55:31  5-MIN KMSN 111355Z 09005KT 3SM -RA BR BKN011 BKN015 OVC050 17/15 A2995 840 90 1300 090/05 RMK AO2 P0000
14837KMSN MSN20060711080013607/11/06 08:00:31  5-MIN KMSN 111400Z 08004KT 2SM -RA BR BKN011 BKN015 OVC050 17/15 A2994 840 90 1300 080/04 RMK AO2 TWR VIS 2 1/2 P0002
14837KMSN MSN20060711080512907/11/06 08:05:31  5-MIN KMSN 111405Z 08004KT 1 1/2SM -RA BR BKN011 OVC050 17/16 A2994 840 93 1300 080/04 RMK AO2 TWR VIS 2 P0005
14837KMSN MSN20060711081011507/11/06 08:10:31  5-MIN KMSN 111410Z 05004KT 2SM +RA BR BKN009 OVC050 16/15 A2994 840 93 1200 050/04 RMK AO2 P0011
14837KMSN MSN20060711081511407/11/06 08:15:31  5-MIN KMSN 111415Z 06004KT 2SM RA BR BKN009 OVC050 17/16 A2994 840 93 1300 060/04 RMK AO2 P0014
14837KMSN MSN20060711082012107/11/06 08:20:31  5-MIN KMSN 111420Z 08005KT 4SM RA BR FEW007 BKN011 OVC050 17/16 A2995 840 93 1300 080/05 RMK AO2 P0015
14837KMSN MSN20060711082511507/11/06 08:25:31  5-MIN KMSN 111425Z 06004KT 4SM -RA BR SCT007 OVC011 17/16 A2995 840 93 1300 060/04 RMK AO2 P0016
14837KMSN MSN20060711083011507/11/06 08:30:31  5-MIN KMSN 111430Z 04003KT 4SM -RA BR BKN007 OVC011 17/16 A2995 840 93 1300 040/03 RMK AO2 P0016
14837KMSN MSN20060711083511907/11/06 08:35:31  5-MIN KMSN 111435Z 00000KT 2 1/2SM -RA BR BKN007 OVC011 17/16 A2995 840 93 1300 000/00 RMK AO2 P0017
14837KMSN MSN20060711084012907/11/06 08:40:31  5-MIN KMSN 111440Z 00000KT 2 1/2SM -RA BR BKN007 OVC013 17/16 A2995 840 93 1300 000/00 RMK AO2 SFC VIS 3 P0018
14837KMSN MSN20060711084512207/11/06 08:45:31  5-MIN KMSN 111445Z 00000KT 2 1/2SM -RA BR OVC007 17/16 A2995 830 93 1300 000/00 RMK AO2 SFC VIS 3 P0018
14837KMSN MSN20060711085015007/11/06 08:50:31  5-MIN KMSN 111450Z 00000KT 2SM RA BR OVC005 17/16 A2995 840 93 1300 000/00 RMK AO2 TWR VIS 2 1/2 SLP140 P0019 60024 T01670156 55000
14837KMSN MSN20060711085512807/11/06 08:55:31  5-MIN KMSN 111455Z 00000KT 2SM RA BR BKN005 OVC009 17/16 A2995 840 93 1300 000/00 RMK AO2 TWR VIS 2 1/2 P0001
14837KMSN MSN20060711090011407/11/06 09:00:31  5-MIN KMSN 111500Z 07003KT 2SM RA BR BKN005 OVC009 17/16 A2995 840 96 1300 070/03 RMK AO2 P0003
14837KMSN MSN20060711090511407/11/06 09:05:31  5-MIN KMSN 111505Z 05004KT 2SM RA BR BKN005 OVC009 17/16 A2995 840 93 1300 050/04 RMK AO2 P0005
14837KMSN MSN20060711091011907/11/06 09:10:31  5-MIN KMSN 111510Z 09005KT 1 3/4SM +RA BR BKN005 OVC009 17/16 A2995 840 93 1300 090/05 RMK AO2 P0006
14837KMSN MSN20060711091511907/11/06 09:15:31  5-MIN KMSN 111515Z 09005KT 1 3/4SM +RA BR BKN005 OVC009 17/16 A2995 840 93 1300 090/05 RMK AO2 P0009
14837KMSN MSN20060711092013307/11/06 09:20:31  5-MIN KMSN 111520Z 06005KT 1 1/4SM +RA BR BKN005 OVC009 17/16 A2994 840 93 1300 060/05 RMK AO2 TWR VIS 1 3/4 P0012
14837KMSN MSN20060711092513307/11/06 09:25:31  5-MIN KMSN 111525Z 03005KT 1 1/4SM +RA BR BKN005 OVC009 17/16 A2994 840 93 1300 030/05 RMK AO2 TWR VIS 1 3/4 P0017
14837KMSN MSN20060711093012207/11/06 09:30:31  5-MIN KMSN 111530Z 04005KT 1SM +RA BR OVC007 17/16 A2994 840 93 1300 040/05 RMK AO2 TWR VIS 1 3/4 P0023
14837KMSN MSN20060711093514007/11/06 09:35:31  5-MIN KMSN 111535Z 04003KT 1 1/2SM +RA BR BKN007 BKN026 OVC033 17/16 A2994 850 93 1300 040/03 RMK AO2 TWR VIS 1 3/4 P0027
14837KMSN MSN20060711094014007/11/06 09:40:31  5-MIN KMSN 111540Z 04005KT 1 1/2SM +RA BR SCT007 BKN025 OVC033 17/16 A2994 850 93 1300 040/05 RMK AO2 TWR VIS 1 3/4 P0030
14837KMSN MSN20060711094513507/11/06 09:45:31  5-MIN KMSN 111545Z 05005KT 1 3/4SM RA BR FEW004 SCT007 OVC033 17/16 A2994 840 96 1300 050/05 RMK AO2 SFC VIS 2 P0032
14837KMSN MSN20060711095015207/11/06 09:50:31  5-MIN KMSN 111550Z 06004KT 1 3/4SM RA BR SCT006 BKN027 OVC033 17/16 A2994 840 96 1300 060/04 RMK AO2 SFC VIS 2 SLP137 P0033 T01670161
14837KMSN MSN20060711095513507/11/06 09:55:31  5-MIN KMSN 111555Z 05005KT 2SM RA BR BKN006 BKN027 OVC033 17/16 A2994 850 96 1300 040/05 RMK AO2 SFC VIS 2 1/2 P0001
14837KMSN MSN20060711100013707/11/06 10:00:31  5-MIN KMSN 111600Z 06005KT 2SM -RA BR BKN004 OVC035 17/16 A2994 840 96 1300 050/05 RMK AO2 SFC VIS 3 CIG 003V008 P0002
14837KMSN MSN20060711100514407/11/06 10:05:31  5-MIN KMSN 111605Z 03005KT 2SM -RA BR BKN004 BKN030 OVC035 17/16 A2994 840 96 1300 030/05 RMK AO2 SFC VIS 3 CIG 003V008 P0003
14837KMSN MSN20060711101012707/11/06 10:10:31  5-MIN KMSN 111610Z 04007KT 4SM -RA BR BKN004 OVC008 17/16 A2994 850 96 1300 030/07 RMK AO2 CIG 003V007 P0003
14837KMSN MSN20060711101512707/11/06 10:15:31  5-MIN KMSN 111615Z 04005KT 4SM -RA BR BKN004 OVC008 17/16 A2994 840 93 1300 030/05 RMK AO2 CIG 003V007 P0004
14837KMSN MSN20060711102011507/11/06 10:20:31  5-MIN KMSN 111620Z 04005KT 3SM -RA BR BKN004 OVC008 17/16 A2994 840 96 1300 040/05 RMK AO2 P0004
14837KMSN MSN20060711102512707/11/06 10:25:31  5-MIN KMSN 111625Z 03006KT 3SM -RA BR BKN006 OVC013 17/16 A2994 840 96 1300 030/06 RMK AO2 CIG 003V009 P0005
14837KMSN MSN20060711103012707/11/06 10:30:31  5-MIN KMSN 111630Z 04005KT 3SM -RA BR BKN006 OVC013 17/16 A2994 840 96 1300 040/05 RMK AO2 CIG 003V009 P0006
14837KMSN MSN20060711103512307/11/06 10:35:31  5-MIN KMSN 111635Z 09006KT 1 1/2SM RA BR OVC006 17/16 A2995 840 96 1300 090/06 RMK AO2 CIG 003V009 P0006
14837KMSN MSN20060711104012407/11/06 10:40:31  5-MIN KMSN 111640Z 10006KT 1 1/4SM +RA BR OVC006 17/16 A2995 840 96 1300 090/06 RMK AO2 CIG 003V009 P0009
14837KMSN MSN20060711104512307/11/06 10:45:31  5-MIN KMSN 111645Z 08005KT 1 1/4SM RA BR OVC006 17/16 A2995 840 96 1300 080/05 RMK AO2 CIG 003V009 P0011
14837KMSN MSN20060711105013507/11/06 10:50:31  5-MIN KMSN 111650Z 07005KT 1 3/4SM RA BR BKN006 OVC023 17/16 A2995 840 96 1300 070/05 RMK AO2 SLP139 P0013 T01670161
14837KMSN MSN20060711105511407/11/06 10:55:31  5-MIN KMSN 111655Z 06005KT 2SM RA BR BKN006 OVC023 17/16 A2995 840 96 1300 060/05 RMK AO2 P0001
14837KMSN MSN20060711110012507/11/06 11:00:31  5-MIN KMSN 111700Z 07005KT 1 3/4SM RA BR BKN006 BKN010 OVC023 17/16 A2995 840 96 1300 060/05 RMK AO2 P0003
14837KMSN MSN20060711110512607/11/06 11:05:31  5-MIN KMSN 111705Z 06006KT 1 1/4SM +RA BR SCT006 BKN010 OVC023 17/16 A2994 840 96 1300 060/06 RMK AO2 P0007
14837KMSN MSN20060711111012607/11/06 11:10:31  5-MIN KMSN 111710Z 06006KT 1 1/2SM +RA BR FEW004 BKN010 OVC020 17/16 A2994 850 96 1300 060/06 RMK AO2 P0014
14837KMSN MSN20060711111512607/11/06 11:15:31  5-MIN KMSN 111715Z 07007KT 1 1/2SM +RA BR FEW004 BKN014 OVC020 17/16 A2994 850 96 1300 060/07 RMK AO2 P0018
14837KMSN MSN20060711112012607/11/06 11:20:31  5-MIN KMSN 111720Z 07008KT 1 1/2SM +RA BR FEW004 BKN014 OVC021 17/16 A2994 850 96 1300 070/08 RMK AO2 P0023
14837KMSN MSN20060711112511907/11/06 11:25:31  5-MIN KMSN 111725Z 07006KT 1 1/2SM +RA BR FEW009 OVC016 17/16 A2994 850 96 1300 070/06 RMK AO2 P0029
14837KMSN MSN20060711113013307/11/06 11:30:31  5-MIN KMSN 111730Z 06006KT 1 1/2SM +RA BR FEW009 OVC016 17/16 A2994 850 96 1300 060/06 RMK AO2 SFC VIS 1 3/4 P0032
14837KMSN MSN20060711113514007/11/06 11:35:31  5-MIN KMSN 111735Z 04007KT 1 1/4SM +RA BR FEW004 SCT012 OVC016 17/16 A2994 850 96 1300 040/07 RMK AO2 TWR VIS 1 1/2 P0036
14837KMSN MSN20060711114014007/11/06 11:40:31  5-MIN KMSN 111740Z 05007KT 1 1/4SM +RA BR FEW004 BKN016 OVC021 17/16 A2994 850 96 1300 050/07 RMK AO2 TWR VIS 1 1/2 P0042
14837KMSN MSN20060711114514007/11/06 11:45:31  5-MIN KMSN 111745Z 05008KT 1 1/4SM +RA BR FEW009 BKN015 OVC020 17/16 A2994 850 96 1300 050/08 RMK AO2 TWR VIS 1 1/2 P0050
14837KMSN MSN20060711115018107/11/06 11:50:31  5-MIN KMSN 111750Z 06007KT 1 1/4SM +RA BR FEW009 BKN015 OVC020 17/16 A2994 850 96 1300 050/07 RMK AO2 TWR VIS 1 1/2 SLP137 P0056 60130 T01670161 10167 20161 55000
14837KMSN MSN20060711115514007/11/06 11:55:31  5-MIN KMSN 111755Z 06006KT 1 1/4SM +RA BR BKN011 BKN017 OVC022 17/16 A2994 840 96 1300 060/06 RMK AO2 TWR VIS 1 1/2 P0002
14837KMSN MSN20060711120011907/11/06 12:00:31  5-MIN KMSN 111800Z 05004KT 1 1/2SM +RA BR FEW007 OVC013 17/16 A2994 840 96 1300 050/04 RMK AO2 P0006
14837KMSN MSN20060711120511907/11/06 12:05:31  5-MIN KMSN 111805Z 00000KT 1 1/2SM +RA BR BKN013 OVC021 17/16 A2994 840 96 1300 000/00 RMK AO2 P0010
14837KMSN MSN20060711121012607/11/06 12:10:31  5-MIN KMSN 111810Z 04003KT 1 1/2SM +RA BR BKN013 BKN020 OVC026 17/16 A2994 840 96 1300 040/03 RMK AO2 P0015
14837KMSN MSN20060711121512607/11/06 12:15:31  5-MIN KMSN 111815Z 03004KT 1 1/2SM +RA BR FEW007 BKN013 OVC026 17/16 A2995 840 96 1300 030/04 RMK AO2 P0021
14837KMSN MSN20060711122014007/11/06 12:20:31  5-MIN KMSN 111820Z 36005KT 1 1/4SM +RA BR SCT007 BKN013 OVC020 17/16 A2995 840 96 1300 360/05 RMK AO2 TWR VIS 1 1/2 P0025
14837KMSN MSN20060711122515207/11/06 12:25:31  5-MIN KMSN 111825Z 35005KT 1 1/4SM +RA BR BKN006 BKN013 OVC020 17/16 A2995 840 96 1300 350/05 RMK AO2 TWR VIS 1 1/2 CIG 002V008 P0030
14837KMSN MSN20060711123015207/11/06 12:30:31  5-MIN KMSN 111830Z 35005KT 1 1/4SM +RA BR FEW002 BKN006 OVC020 17/16 A2995 840 96 1300 350/05 RMK AO2 TWR VIS 1 1/2 CIG 005V009 P0036
14837KMSN MSN20060711123514007/11/06 12:35:31  5-MIN KMSN 111835Z 36005KT 1 1/4SM +RA BR FEW002 BKN006 OVC012 17/16 A2995 840 96 1300 360/05 RMK AO2 TWR VIS 1 1/2 P0041
14837KMSN MSN20060711124013807/11/06 12:40:31  5-MIN KMSN 111840Z 02004KT 1 1/4SM +RA BR OVC006 17/16 A2995 840 96 1300 020/04 RMK AO2 TWR VIS 1 1/2 CIG 002V009 P0045
14837KMSN MSN20060711124513807/11/06 12:45:31  5-MIN KMSN 111845Z 06004KT 1 1/4SM +RA BR OVC006 17/16 A2995 840 96 1300 060/04 RMK AO2 TWR VIS 1 1/2 CIG 002V008 P0048
14837KMSN MSN20060711125014307/11/06 12:50:31  5-MIN KMSN 111850Z 06005KT 1 1/4SM +RA BR OVC006 17/17 A2994 840 96 1300 060/05 RMK AO2 TWR VIS 1 1/2 SLP138 P0052 T01720167
14837KMSN MSN20060711125511207/11/06 12:55:31  5-MIN KMSN 111855Z 09005KT 1 1/2SM +RA BR OVC006 17/17 A2994 850 96 1300 090/05 RMK AO2 P0002
14837KMSN MSN20060711130011207/11/06 13:00:31  5-MIN KMSN 111900Z 10007KT 1 1/2SM +RA BR OVC006 17/17 A2994 840 96 1300 100/07 RMK AO2 P0005
14837KMSN MSN20060711130513307/11/06 13:05:31  5-MIN KMSN 111905Z 12005KT 1 1/2SM +RA BR BKN004 OVC008 17/17 A2994 850 96 1300 120/05 RMK AO2 SFC VIS 1 3/4 P0008
14837KMSN MSN20060711131012807/11/06 13:10:31  5-MIN KMSN 111910Z 11005KT 2SM RA BR BKN006 OVC009 17/17 A2994 840 96 1300 110/05 RMK AO2 TWR VIS 2 1/2 P0010
14837KMSN MSN20060711131512107/11/06 13:15:31  5-MIN KMSN 111915Z 09003KT 2SM RA BR OVC006 17/17 A2994 840 96 1300 090/03 RMK AO2 TWR VIS 2 1/2 P0011
14837KMSN MSN20060711132011107/11/06 13:20:31  5-MIN KMSN 111920Z 06003KT 2 1/2SM RA BR OVC006 17/17 A2994 850 96 1300 060/03 RMK AO2 P0013
14837KMSN MSN20060711132511107/11/06 13:25:31  5-MIN KMSN 111925Z 05003KT 2 1/2SM RA BR OVC006 17/17 A2994 850 96 1300 050/03 RMK AO2 P0013
14837KMSN MSN20060711133012107/11/06 13:30:31  5-MIN KMSN 111930Z 01004KT 2SM RA BR OVC006 17/17 A2994 840 96 1300 010/04 RMK AO2 TWR VIS 2 1/2 P0017
14837KMSN MSN20060711133512107/11/06 13:35:31  5-MIN KMSN 111935Z 36004KT 2SM RA BR OVC006 17/17 A2995 840 96 1300 360/04 RMK AO2 TWR VIS 2 1/2 P0020
14837KMSN MSN20060711134013307/11/06 13:40:31  5-MIN KMSN 111940Z 04003KT 2SM RA BR OVC006 17/17 A2994 840 96 1300 040/03 RMK AO2 TWR VIS 2 1/2 CIG 004V009 P0020
14837KMSN MSN20060711134513407/11/06 13:45:31  5-MIN KMSN 111945Z 09007KT 2SM +RA BR OVC006 17/17 A2993 850 96 1400 090/07 RMK AO2 TWR VIS 2 1/2 CIG 004V009 P0024
14837KMSN MSN20060711135013607/11/06 13:50:31  5-MIN KMSN 111950Z 10008KT 2SM RA BR OVC006 18/17 A2993 850 93 1400 100/08 RMK AO2 CIG 004V009 SLP134 P0027 T01780167
14837KMSN MSN20060711135513707/11/06 13:55:31  5-MIN KMSN 111955Z 09007KT 2SM -RA BR BKN006 OVC014 18/17 A2994 850 93 1400 090/07 RMK AO2 SFC VIS 3 CIG 004V010 P0001
14837KMSN MSN20060711140013707/11/06 14:00:31  5-MIN KMSN 112000Z VRB03KT 2SM -RA BR BKN006 OVC014 18/17 A2995 840 93 1400 VRB/03 RMK AO2 SFC VIS 5 CIG 004V010 P0001
14837KMSN MSN20060711140512407/11/06 14:05:31  5-MIN KMSN 112005Z 01005KT 7SM -RA BKN006 OVC014 18/17 A2995 840 93 1400 010/05 RMK AO2 CIG 005V010 P0001
14837KMSN MSN20060711141011907/11/06 14:10:31  5-MIN KMSN 112010Z 35006KT 8SM OVC006 18/17 A2995 840 93 1400 350/06 RMK AO2 RAE10 CIG 004V010 P0001
14837KMSN MSN20060711141511707/11/06 14:15:31  5-MIN KMSN 112015Z 02007KT 9SM -RA OVC006 18/17 A2995 840 93 1400 010/07 RMK AO2 CIG 004V010 P0001
14837KMSN MSN20060711142012507/11/06 14:20:31  5-MIN KMSN 112020Z 05008KT 10SM -RA BKN006 OVC014 18/17 A2994 850 93 1400 050/08 RMK AO2 CIG 004V010 P0001
14837KMSN MSN20060711142513207/11/06 14:25:31  5-MIN KMSN 112025Z 07010KT 10SM -RA BKN006 BKN014 OVC037 18/17 A2993 860 93 1500 070/10 RMK AO2 CIG 004V010 P0001
14837KMSN MSN20060711143011507/11/06 14:30:31  5-MIN KMSN 112030Z 06009KT 10SM BKN006 BKN039 19/17 A2993 860 90 1500 060/09 RMK AO2 RAE27 P0001
14837KMSN MSN20060711143512207/11/06 14:35:31  5-MIN KMSN 112035Z 07008KT 10SM SCT006 BKN023 BKN039 19/17 A2993 860 90 1500 060/08 RMK AO2 RAE27 P0001
14837KMSN MSN20060711144012207/11/06 14:40:31  5-MIN KMSN 112040Z 05008KT 10SM SCT006 BKN023 OVC038 18/17 A2993 850 90 1500 050/08 RMK AO2 RAE27 P0001
14837KMSN MSN20060711144512207/11/06 14:45:31  5-MIN KMSN 112045Z 04007KT 10SM BKN008 BKN023 OVC038 19/17 A2994 850 90 1500 040/07 RMK AO2 RAE27 P0001
14837KMSN MSN20060711145015107/11/06 14:50:31  5-MIN KMSN 112050Z 03009KT 10SM BKN008 BKN023 OVC038 18/17 A2994 850 93 1500 030/09 RMK AO2 RAE27 SLP136 P0001 60082 T01830172 58001
14837KMSN MSN20060711145511007/11/06 14:55:31  5-MIN KMSN 112055Z 04008KT 10SM BKN008 BKN023 OVC040 18/17 A2994 850 90 1500 040/08 RMK AO2
14837KMSN MSN20060711150011507/11/06 15:00:31  5-MIN KMSN 112100Z 04008KT 10SM BKN008 OVC023 19/17 A2993 850 90 1500 040/08 RMK AO2 CIG 006V011
14837KMSN MSN20060711150510807/11/06 15:05:31  5-MIN KMSN 112105Z 05008KT 10SM OVC008 19/17 A2993 850 90 1500 050/08 RMK AO2 CIG 006V011
14837KMSN MSN20060711151010807/11/06 15:10:31  5-MIN KMSN 112110Z 04008KT 10SM OVC008 18/17 A2994 850 93 1500 040/08 RMK AO2 CIG 005V011
14837KMSN MSN20060711151510807/11/06 15:15:31  5-MIN KMSN 112115Z 04007KT 10SM OVC008 18/17 A2993 850 90 1500 040/07 RMK AO2 CIG 005V011
14837KMSN MSN20060711152010807/11/06 15:20:31  5-MIN KMSN 112120Z 06007KT 10SM OVC008 18/17 A2993 850 90 1500 050/07 RMK AO2 CIG 005V011
14837KMSN MSN20060711152510807/11/06 15:25:31  5-MIN KMSN 112125Z 06007KT 10SM OVC008 18/17 A2993 850 90 1500 060/07 RMK AO2 CIG 005V010
14837KMSN MSN20060711153009607/11/06 15:30:31  5-MIN KMSN 112130Z 07009KT 10SM OVC008 18/17 A2993 860 90 1500 070/09 RMK AO2
14837KMSN MSN20060711153509607/11/06 15:35:31  5-MIN KMSN 112135Z 06010KT 10SM OVC008 19/17 A2993 860 90 1500 060/10 RMK AO2
14837KMSN MSN20060711154009607/11/06 15:40:31  5-MIN KMSN 112140Z 06008KT 10SM OVC008 19/17 A2993 860 90 1600 060/08 RMK AO2
14837KMSN MSN20060711154509607/11/06 15:45:31  5-MIN KMSN 112145Z 06009KT 10SM OVC008 19/17 A2993 860 90 1600 060/09 RMK AO2
14837KMSN MSN20060711155011307/11/06 15:50:31  5-MIN KMSN 112150Z 06009KT 10SM OVC008 19/17 A2993 860 87 1600 060/09 RMK AO2 SLP132 T01940172
14837KMSN MSN20060711155510807/11/06 15:55:31  5-MIN KMSN 112155Z 05008KT 10SM OVC008 19/18 A2993 860 90 1600 050/08 RMK AO2 CIG 006V011
14837KMSN MSN20060711160009607/11/06 16:00:31  5-MIN KMSN 112200Z 04008KT 10SM OVC008 19/17 A2993 860 87 1600 040/08 RMK AO2
14837KMSN MSN20060711160509607/11/06 16:05:31  5-MIN KMSN 112205Z 03007KT 10SM OVC008 19/17 A2993 850 90 1500 030/07 RMK AO2
14837KMSN MSN20060711161009607/11/06 16:10:31  5-MIN KMSN 112210Z 03006KT 10SM OVC008 19/17 A2993 860 90 1500 030/06 RMK AO2
14837KMSN MSN20060711161509607/11/06 16:15:31  5-MIN KMSN 112215Z 03006KT 10SM OVC008 19/17 A2993 860 90 1600 030/06 RMK AO2
14837KMSN MSN20060711162009607/11/06 16:20:31  5-MIN KMSN 112220Z 04008KT 10SM OVC008 19/17 A2993 860 87 1600 040/08 RMK AO2
14837KMSN MSN20060711162509607/11/06 16:25:31  5-MIN KMSN 112225Z 04006KT 10SM OVC008 19/17 A2992 860 87 1600 040/06 RMK AO2
14837KMSN MSN20060711163009607/11/06 16:30:31  5-MIN KMSN 112230Z 03006KT 10SM OVC008 19/17 A2992 860 90 1600 030/06 RMK AO2
14837KMSN MSN20060711163509607/11/06 16:35:31  5-MIN KMSN 112235Z 03006KT 10SM OVC008 19/17 A2992 860 87 1600 030/06 RMK AO2
14837KMSN MSN20060711164009607/11/06 16:40:31  5-MIN KMSN 112240Z 04006KT 10SM OVC010 19/17 A2992 860 87 1600 040/06 RMK AO2
14837KMSN MSN20060711164509607/11/06 16:45:31  5-MIN KMSN 112245Z 04006KT 10SM OVC010 19/17 A2992 860 87 1600 040/06 RMK AO2
14837KMSN MSN20060711165011307/11/06 16:50:31  5-MIN KMSN 112250Z 03007KT 10SM OVC010 19/17 A2992 870 87 1600 030/07 RMK AO2 SLP129 T01940172
14837KMSN MSN20060711165509607/11/06 16:55:31  5-MIN KMSN 112255Z 03008KT 10SM OVC010 19/17 A2992 870 87 1600 030/08 RMK AO2
14837KMSN MSN20060711170009607/11/06 17:00:31  5-MIN KMSN 112300Z 03008KT 10SM OVC010 19/17 A2992 870 90 1600 030/08 RMK AO2
14837KMSN MSN20060711170509607/11/06 17:05:31  5-MIN KMSN 112305Z 04007KT 10SM OVC010 19/17 A2992 870 90 1600 040/07 RMK AO2
14837KMSN MSN20060711171009607/11/06 17:10:31  5-MIN KMSN 112310Z 04008KT 10SM OVC010 19/17 A2992 870 87 1600 040/08 RMK AO2
14837KMSN MSN20060711171510807/11/06 17:15:31  5-MIN KMSN 112315Z 04007KT 10SM OVC008 19/17 A2992 860 87 1600 040/07 RMK AO2 CIG 007V010
14837KMSN MSN20060711172010807/11/06 17:20:31  5-MIN KMSN 112320Z 04006KT 10SM OVC008 19/17 A2992 860 87 1600 040/06 RMK AO2 CIG 007V010
14837KMSN MSN20060711172509607/11/06 17:25:31  5-MIN KMSN 112325Z 04007KT 10SM OVC008 19/17 A2993 860 87 1600 040/07 RMK AO2
14837KMSN MSN20060711173009607/11/06 17:30:31  5-MIN KMSN 112330Z 03005KT 10SM OVC008 19/17 A2993 860 87 1600 030/05 RMK AO2
14837KMSN MSN20060711173509607/11/06 17:35:31  5-MIN KMSN 112335Z 03006KT 10SM OVC008 19/17 A2993 860 90 1600 030/06 RMK AO2
14837KMSN MSN20060711174009507/11/06 17:40:31  5-MIN KMSN 112340Z 04007KT 9SM OVC008 19/17 A2993 860 90 1500 040/07 RMK AO2
14837KMSN MSN20060711174509507/11/06 17:45:31  5-MIN KMSN 112345Z 04007KT 7SM OVC008 19/17 A2993 860 90 1500 040/07 RMK AO2
14837KMSN MSN20060711175013907/11/06 17:50:31  5-MIN KMSN 112350Z 03007KT 6SM BR OVC008 19/17 A2993 850 90 1500 030/07 RMK AO2 SLP134 60082 T01890172 10194 20167 55001
14837KMSN MSN20060711175509807/11/06 17:55:31  5-MIN KMSN 112355Z 03006KT 6SM BR OVC008 18/17 A2993 850 93 1500 030/06 RMK AO2
14837KMSN MSN20060711180009807/11/06 18:00:31  5-MIN KMSN 120000Z 04006KT 6SM BR OVC006 18/17 A2993 850 90 1500 040/06 RMK AO2
14837KMSN MSN20060711180509807/11/06 18:05:31  5-MIN KMSN 120005Z 03007KT 6SM BR OVC006 18/17 A2993 850 90 1500 030/07 RMK AO2
14837KMSN MSN20060711181009807/11/06 18:10:31  5-MIN KMSN 120010Z 03006KT 6SM BR OVC006 18/17 A2993 850 90 1500 030/06 RMK AO2
14837KMSN MSN20060711181509807/11/06 18:15:31  5-MIN KMSN 120015Z 04006KT 6SM BR OVC006 18/17 A2993 850 90 1500 040/06 RMK AO2
14837KMSN MSN20060711182009807/11/06 18:20:31  5-MIN KMSN 120020Z 04006KT 6SM BR OVC006 18/17 A2993 850 90 1500 040/06 RMK AO2
14837KMSN MSN20060711182509807/11/06 18:25:31  5-MIN KMSN 120025Z 03006KT 6SM BR OVC006 18/17 A2993 860 90 1500 030/06 RMK AO2
14837KMSN MSN20060711183009807/11/06 18:30:31  5-MIN KMSN 120030Z 04006KT 6SM BR OVC008 18/17 A2993 860 90 1500 030/06 RMK AO2
14837KMSN MSN20060711183509807/11/06 18:35:31  5-MIN KMSN 120035Z 04006KT 6SM BR OVC008 19/17 A2993 850 87 1500 040/06 RMK AO2
14837KMSN MSN20060711184009507/11/06 18:40:31  5-MIN KMSN 120040Z 04007KT 7SM OVC008 18/17 A2993 850 90 1500 040/07 RMK AO2
14837KMSN MSN20060711184509507/11/06 18:45:31  5-MIN KMSN 120045Z 04006KT 7SM OVC008 18/17 A2993 850 90 1500 040/06 RMK AO2
14837KMSN MSN20060711185011207/11/06 18:50:31  5-MIN KMSN 120050Z 03006KT 8SM OVC008 19/17 A2993 850 87 1500 030/06 RMK AO2 SLP134 T01890167
14837KMSN MSN20060711185509507/11/06 18:55:31  5-MIN KMSN 120055Z 04004KT 8SM OVC008 19/17 A2993 850 87 1500 040/04 RMK AO2
14837KMSN MSN20060711190009507/11/06 19:00:31  5-MIN KMSN 120100Z 05004KT 8SM OVC010 19/17 A2993 850 87 1500 050/04 RMK AO2
14837KMSN MSN20060711190509507/11/06 19:05:31  5-MIN KMSN 120105Z 04004KT 8SM OVC010 19/17 A2993 850 87 1500 040/04 RMK AO2
14837KMSN MSN20060711191009507/11/06 19:10:31  5-MIN KMSN 120110Z 04005KT 8SM OVC010 19/17 A2993 850 87 1500 040/05 RMK AO2
14837KMSN MSN20060711191509507/11/06 19:15:31  5-MIN KMSN 120115Z 05004KT 8SM OVC010 19/17 A2993 850 87 1500 040/04 RMK AO2
14837KMSN MSN20060711192009507/11/06 19:20:31  5-MIN KMSN 120120Z 05006KT 8SM OVC010 19/17 A2993 860 87 1500 050/06 RMK AO2
14837KMSN MSN20060711192509507/11/06 19:25:31  5-MIN KMSN 120125Z 05006KT 8SM OVC010 19/17 A2993 860 87 1500 050/06 RMK AO2
14837KMSN MSN20060711193009507/11/06 19:30:31  5-MIN KMSN 120130Z 05006KT 8SM OVC010 19/17 A2993 860 87 1500 040/06 RMK AO2
14837KMSN MSN20060711193509507/11/06 19:35:31  5-MIN KMSN 120135Z 04006KT 8SM OVC010 19/17 A2993 860 87 1500 040/06 RMK AO2
14837KMSN MSN20060711194009507/11/06 19:40:31  5-MIN KMSN 120140Z 03006KT 9SM OVC010 19/17 A2993 860 87 1600 030/06 RMK AO2
14837KMSN MSN20060711194509507/11/06 19:45:31  5-MIN KMSN 120145Z 03006KT 9SM OVC010 19/17 A2993 860 87 1500 030/06 RMK AO2
14837KMSN MSN20060711195011207/11/06 19:50:31  5-MIN KMSN 120150Z 03005KT 9SM OVC010 19/17 A2993 850 87 1500 020/05 RMK AO2 SLP134 T01890167
14837KMSN MSN20060711195509507/11/06 19:55:31  5-MIN KMSN 120155Z 04003KT 9SM OVC010 19/17 A2994 850 87 1500 030/03 RMK AO2
14837KMSN MSN20060711200009507/11/06 20:00:31  5-MIN KMSN 120200Z 04003KT 9SM OVC010 19/17 A2994 850 87 1500 040/03 RMK AO2
14837KMSN MSN20060711200509507/11/06 20:05:31  5-MIN KMSN 120205Z 00000KT 9SM OVC010 19/17 A2994 840 90 1500 000/00 RMK AO2
14837KMSN MSN20060711201009507/11/06 20:10:31  5-MIN KMSN 120210Z 02003KT 9SM OVC012 19/17 A2995 840 87 1500 020/03 RMK AO2
14837KMSN MSN20060711201509507/11/06 20:15:31  5-MIN KMSN 120215Z 02003KT 9SM OVC012 19/17 A2995 840 90 1500 020/03 RMK AO2
14837KMSN MSN20060711202009507/11/06 20:20:31  5-MIN KMSN 120220Z 00000KT 9SM OVC012 19/17 A2995 830 90 1500 000/00 RMK AO2
14837KMSN MSN20060711202509507/11/06 20:25:31  5-MIN KMSN 120225Z 00000KT 9SM OVC012 19/17 A2995 830 90 1500 000/00 RMK AO2
14837KMSN MSN20060711203009507/11/06 20:30:31  5-MIN KMSN 120230Z 00000KT 9SM OVC012 19/17 A2995 830 90 1500 000/00 RMK AO2
14837KMSN MSN20060711203509507/11/06 20:35:31  5-MIN KMSN 120235Z 00000KT 9SM OVC010 19/17 A2995 830 87 1500 000/00 RMK AO2
14837KMSN MSN20060711204009507/11/06 20:40:31  5-MIN KMSN 120240Z 00000KT 9SM OVC010 19/17 A2995 830 84 1600 000/00 RMK AO2
14837KMSN MSN20060711204509507/11/06 20:45:31  5-MIN KMSN 120245Z 00000KT 9SM OVC010 19/17 A2995 840 90 1500 000/00 RMK AO2
14837KMSN MSN20060711205011807/11/06 20:50:31  5-MIN KMSN 120250Z 00000KT 9SM OVC012 19/17 A2995 840 90 1500 000/00 RMK AO2 SLP140 T01890172 55002
14837KMSN MSN20060711205509507/11/06 20:55:31  5-MIN KMSN 120255Z 00000KT 9SM OVC012 19/17 A2995 830 90 1500 000/00 RMK AO2
14837KMSN MSN20060711210009507/11/06 21:00:31  5-MIN KMSN 120300Z 00000KT 9SM OVC012 19/17 A2995 830 87 1600 000/00 RMK AO2
14837KMSN MSN20060711210509507/11/06 21:05:31  5-MIN KMSN 120305Z 00000KT 9SM OVC012 19/17 A2996 830 90 1500 000/00 RMK AO2
14837KMSN MSN20060711211009507/11/06 21:10:31  5-MIN KMSN 120310Z 00000KT 8SM OVC014 19/17 A2996 830 87 1600 000/00 RMK AO2
14837KMSN MSN20060711211509507/11/06 21:15:31  5-MIN KMSN 120315Z 00000KT 8SM OVC014 19/17 A2996 830 87 1600 000/00 RMK AO2
14837KMSN MSN20060711212009507/11/06 21:20:31  5-MIN KMSN 120320Z 36003KT 8SM OVC014 19/17 A2996 830 90 1500 360/03 RMK AO2
14837KMSN MSN20060711212509507/11/06 21:25:31  5-MIN KMSN 120325Z 00000KT 8SM OVC014 19/17 A2996 830 90 1500 000/00 RMK AO2
14837KMSN MSN20060711213009507/11/06 21:30:31  5-MIN KMSN 120330Z 00000KT 7SM OVC014 19/17 A2996 830 90 1500 000/00 RMK AO2
14837KMSN MSN20060711213509507/11/06 21:35:31  5-MIN KMSN 120335Z 34003KT 7SM OVC014 19/17 A2995 830 90 1500 340/03 RMK AO2
14837KMSN MSN20060711214009507/11/06 21:40:31  5-MIN KMSN 120340Z 34004KT 7SM OVC014 19/17 A2996 830 90 1500 340/04 RMK AO2
14837KMSN MSN20060711214509507/11/06 21:45:31  5-MIN KMSN 120345Z 34003KT 7SM OVC014 19/17 A2996 830 90 1500 340/03 RMK AO2
14837KMSN MSN20060711215011207/11/06 21:50:31  5-MIN KMSN 120350Z 34003KT 7SM OVC014 19/17 A2996 830 90 1500 340/03 RMK AO2 SLP142 T01890172
14837KMSN MSN20060711215509507/11/06 21:55:31  5-MIN KMSN 120355Z 35003KT 7SM OVC014 19/17 A2996 830 90 1500 350/03 RMK AO2
14837KMSN MSN20060711220009507/11/06 22:00:31  5-MIN KMSN 120400Z 34003KT 7SM OVC014 19/17 A2996 830 90 1500 340/03 RMK AO2
14837KMSN MSN20060711220509507/11/06 22:05:31  5-MIN KMSN 120405Z 35004KT 7SM OVC014 19/17 A2996 830 90 1500 350/04 RMK AO2
14837KMSN MSN20060711221009507/11/06 22:10:31  5-MIN KMSN 120410Z 02005KT 7SM OVC014 19/17 A2996 830 90 1500 020/05 RMK AO2
14837KMSN MSN20060711221509507/11/06 22:15:31  5-MIN KMSN 120415Z 02006KT 8SM OVC012 19/17 A2995 830 87 1500 020/06 RMK AO2
14837KMSN MSN20060711222009507/11/06 22:20:31  5-MIN KMSN 120420Z 03006KT 8SM OVC012 19/17 A2995 830 87 1500 030/06 RMK AO2
14837KMSN MSN20060711222509507/11/06 22:25:31  5-MIN KMSN 120425Z 03004KT 9SM OVC012 19/16 A2995 830 84 1500 030/04 RMK AO2
14837KMSN MSN20060711223009507/11/06 22:30:31  5-MIN KMSN 120430Z 03005KT 8SM OVC012 19/16 A2995 840 84 1500 030/05 RMK AO2
14837KMSN MSN20060711223509507/11/06 22:35:31  5-MIN KMSN 120435Z 03004KT 8SM OVC012 19/16 A2995 840 84 1500 020/04 RMK AO2
14837KMSN MSN20060711224009507/11/06 22:40:31  5-MIN KMSN 120440Z 02004KT 8SM OVC010 19/17 A2995 840 87 1500 020/04 RMK AO2
14837KMSN MSN20060711224509507/11/06 22:45:31  5-MIN KMSN 120445Z 36003KT 8SM OVC010 19/17 A2995 840 87 1500 360/03 RMK AO2
14837KMSN MSN20060711225012407/11/06 22:50:31  5-MIN KMSN 120450Z 36003KT 8SM OVC010 19/17 A2995 840 87 1500 350/03 RMK AO2 CIG 009V014 SLP139 T01890167
14837KMSN MSN20060711225510207/11/06 22:55:31  5-MIN KMSN 120455Z 00000KT 8SM BKN010 OVC016 19/17 A2995 840 87 1500 000/00 RMK AO2
14837KMSN MSN20060711230009507/11/06 23:00:31  5-MIN KMSN 120500Z 00000KT 7SM OVC010 18/17 A2995 840 90 1500 000/00 RMK AO2
14837KMSN MSN20060711230509507/11/06 23:05:31  5-MIN KMSN 120505Z 00000KT 7SM OVC010 18/17 A2995 830 90 1500 000/00 RMK AO2
14837KMSN MSN20060711231009507/11/06 23:10:31  5-MIN KMSN 120510Z 00000KT 7SM OVC010 18/17 A2995 840 90 1500 000/00 RMK AO2
14837KMSN MSN20060711231509507/11/06 23:15:31  5-MIN KMSN 120515Z 00000KT 7SM OVC010 19/17 A2995 840 87 1500 000/00 RMK AO2
14837KMSN MSN20060711232009807/11/06 23:20:31  5-MIN KMSN 120520Z 34003KT 6SM BR OVC012 18/17 A2995 840 90 1500 340/03 RMK AO2
14837KMSN MSN20060711232509807/11/06 23:25:31  5-MIN KMSN 120525Z 34003KT 6SM BR OVC012 18/17 A2995 830 90 1500 340/03 RMK AO2
14837KMSN MSN20060711233009807/11/06 23:30:31  5-MIN KMSN 120530Z 00000KT 6SM BR OVC014 18/17 A2995 830 90 1500 000/00 RMK AO2
14837KMSN MSN20060711233509507/11/06 23:35:31  5-MIN KMSN 120535Z 33003KT 7SM OVC014 18/17 A2995 830 90 1500 330/03 RMK AO2
14837KMSN MSN20060711234009507/11/06 23:40:31  5-MIN KMSN 120540Z 34003KT 7SM OVC014 18/17 A2995 830 90 1500 330/03 RMK AO2
14837KMSN MSN20060711234509507/11/06 23:45:31  5-MIN KMSN 120545Z 00000KT 7SM OVC014 18/17 A2995 830 90 1500 000/00 RMK AO2
14837KMSN MSN20060711235010507/11/06 23:50:31  5-MIN KMSN 120550Z 00000KT 7SM OVC016 18/17 A2995 830 90 1500 000/00 RMK AO2 401940161
14837KMSN MSN20060711235509507/11/06 23:55:31  5-MIN KMSN 120555Z 00000KT 7SM OVC016 18/17 A2996 830 90 1500 000/00 RMK AO2
14837KMSN MSN20060712000009507/12/06 00:00:38  5-MIN KMSN 120600Z 00000KT 8SM OVC016 18/16 A2996 830 90 1400 000/00 RMK AO2
14837KMSN MSN20060712000509507/12/06 00:05:31  5-MIN KMSN 120605Z 00000KT 7SM BKN016 18/16 A2996 830 90 1400 000/00 RMK AO2
14837KMSN MSN20060712001009507/12/06 00:10:31  5-MIN KMSN 120610Z 00000KT 7SM BKN016 18/16 A2996 830 90 1400 000/00 RMK AO2
14837KMSN MSN20060712001509507/12/06 00:15:34  5-MIN KMSN 120615Z 00000KT 7SM BKN016 18/16 A2996 830 90 1400 000/00 RMK AO2
14837KMSN MSN20060712002009507/12/06 00:20:31  5-MIN KMSN 120620Z 35003KT 7SM BKN016 18/16 A2996 830 90 1400 350/03 RMK AO2
14837KMSN MSN20060712002509507/12/06 00:25:31  5-MIN KMSN 120625Z 36004KT 7SM BKN016 18/17 A2996 830 93 1400 360/04 RMK AO2
14837KMSN MSN20060712003010207/12/06 00:30:31  5-MIN KMSN 120630Z 36004KT 7SM BKN014 BKN020 18/17 A2996 830 93 1400 360/04 RMK AO2
14837KMSN MSN20060712003510507/12/06 00:35:31  5-MIN KMSN 120635Z 36003KT 6SM BR BKN016 OVC020 18/17 A2996 830 93 1400 360/03 RMK AO2
14837KMSN MSN20060712004010507/12/06 00:40:31  5-MIN KMSN 120640Z 35003KT 6SM BR BKN014 OVC020 18/17 A2995 830 93 1400 350/03 RMK AO2
14837KMSN MSN20060712004510507/12/06 00:45:31  5-MIN KMSN 120645Z 00000KT 6SM BR BKN014 OVC020 18/17 A2995 840 93 1400 000/00 RMK AO2
14837KMSN MSN20060712005012207/12/06 00:50:31  5-MIN KMSN 120650Z 35003KT 6SM BR BKN014 OVC020 18/17 A2995 840 93 1400 350/03 RMK AO2 SLP140 T01780167
14837KMSN MSN20060712005510507/12/06 00:55:31  5-MIN KMSN 120655Z 34003KT 6SM BR BKN014 OVC020 18/16 A2995 840 90 1400 340/03 RMK AO2
14837KMSN MSN20060712010010207/12/06 01:00:31  5-MIN KMSN 120700Z 00000KT 7SM SCT010 OVC017 18/17 A2995 840 93 1400 000/00 RMK AO2
14837KMSN MSN20060712010510207/12/06 01:05:31  5-MIN KMSN 120705Z 00000KT 7SM BKN010 OVC017 18/17 A2995 840 93 1400 000/00 RMK AO2
14837KMSN MSN20060712011010907/12/06 01:10:31  5-MIN KMSN 120710Z 00000KT 7SM BKN010 BKN014 OVC019 18/17 A2995 840 93 1400 000/00 RMK AO2
14837KMSN MSN20060712011510207/12/06 01:15:31  5-MIN KMSN 120715Z 03003KT 8SM BKN010 OVC017 18/17 A2995 830 90 1500 030/03 RMK AO2
14837KMSN MSN20060712012009507/12/06 01:20:31  5-MIN KMSN 120720Z 03005KT 9SM OVC008 18/17 A2995 840 90 1500 030/05 RMK AO2
14837KMSN MSN20060712012509607/12/06 01:25:31  5-MIN KMSN 120725Z 03005KT 10SM OVC008 19/17 A2995 840 87 1500 030/05 RMK AO2
14837KMSN MSN20060712013010707/12/06 01:30:31  5-MIN KMSN 120730Z 02004KT 9SM OVC008 19/17 A2995 840 87 1500 020/04 RMK AO2 CIG 007V011
14837KMSN MSN20060712013510707/12/06 01:35:31  5-MIN KMSN 120735Z 03004KT 9SM OVC008 19/17 A2995 840 87 1500 020/04 RMK AO2 CIG 007V011
14837KMSN MSN20060712014010707/12/06 01:40:31  5-MIN KMSN 120740Z 02004KT 9SM OVC008 19/16 A2995 840 84 1500 020/04 RMK AO2 CIG 007V011
14837KMSN MSN20060712014509607/12/06 01:45:31  5-MIN KMSN 120745Z 34003KT 10SM OVC008 19/16 A2995 840 84 1500 340/03 RMK AO2
14837KMSN MSN20060712015011207/12/06 01:50:31  5-MIN KMSN 120750Z 33003KT 9SM OVC008 18/17 A2995 840 90 1500 330/03 RMK AO2 SLP140 T01830167
14837KMSN MSN20060712015510707/12/06 01:55:31  5-MIN KMSN 120755Z 33004KT 9SM OVC008 18/17 A2995 840 90 1500 330/04 RMK AO2 CIG 007V011
14837KMSN MSN20060712020009507/12/06 02:00:31  5-MIN KMSN 120800Z 35004KT 9SM OVC008 18/17 A2995 840 90 1500 350/04 RMK AO2
14837KMSN MSN20060712020509507/12/06 02:05:31  5-MIN KMSN 120805Z 35004KT 9SM OVC008 18/16 A2995 840 87 1500 350/04 RMK AO2
14837KMSN MSN20060712021010707/12/06 02:10:31  5-MIN KMSN 120810Z 36004KT 9SM OVC008 18/17 A2995 840 90 1500 360/04 RMK AO2 CIG 007V011
14837KMSN MSN20060712021510707/12/06 02:15:31  5-MIN KMSN 120815Z 35003KT 9SM OVC010 18/17 A2995 840 90 1500 350/03 RMK AO2 CIG 007V012
14837KMSN MSN20060712022010707/12/06 02:20:31  5-MIN KMSN 120820Z 35003KT 9SM OVC010 18/17 A2995 840 90 1500 350/03 RMK AO2 CIG 007V012
14837KMSN MSN20060712022509507/12/06 02:25:31  5-MIN KMSN 120825Z 36004KT 9SM OVC010 18/17 A2995 840 90 1500 360/04 RMK AO2
14837KMSN MSN20060712023009507/12/06 02:30:31  5-MIN KMSN 120830Z 01004KT 9SM OVC010 18/17 A2995 840 90 1500 010/04 RMK AO2
14837KMSN MSN20060712023509507/12/06 02:35:31  5-MIN KMSN 120835Z 04004KT 8SM OVC010 18/17 A2995 840 90 1500 040/04 RMK AO2
14837KMSN MSN20060712024009507/12/06 02:40:31  5-MIN KMSN 120840Z 03006KT 8SM OVC010 18/16 A2995 840 87 1500 030/06 RMK AO2
14837KMSN MSN20060712024510707/12/06 02:45:31  5-MIN KMSN 120845Z 03005KT 8SM OVC010 18/16 A2995 840 87 1500 030/05 RMK AO2 CIG 008V012
14837KMSN MSN20060712025013007/12/06 02:50:31  5-MIN KMSN 120850Z 03005KT 8SM OVC010 18/16 A2995 840 87 1500 030/05 RMK AO2 CIG 007V012 SLP140 T01830161 53001
14837KMSN MSN20060712025510707/12/06 02:55:31  5-MIN KMSN 120855Z 03003KT 8SM OVC010 18/16 A2995 840 87 1500 030/03 RMK AO2 CIG 007V011
14837KMSN MSN20060712030009507/12/06 03:00:31  5-MIN KMSN 120900Z 04004KT 8SM OVC010 18/16 A2995 840 87 1500 040/04 RMK AO2
14837KMSN MSN20060712030509507/12/06 03:05:31  5-MIN KMSN 120905Z 04004KT 8SM OVC010 18/16 A2995 840 87 1500 030/04 RMK AO2
14837KMSN MSN20060712031009507/12/06 03:10:31  5-MIN KMSN 120910Z 04003KT 8SM OVC010 18/16 A2995 840 87 1500 030/03 RMK AO2
14837KMSN MSN20060712031509507/12/06 03:15:31  5-MIN KMSN 120915Z 00000KT 8SM OVC010 18/17 A2995 840 90 1500 000/00 RMK AO2
14837KMSN MSN20060712032009507/12/06 03:20:31  5-MIN KMSN 120920Z 00000KT 8SM OVC010 18/17 A2995 830 90 1500 000/00 RMK AO2
14837KMSN MSN20060712032509507/12/06 03:25:31  5-MIN KMSN 120925Z 00000KT 8SM OVC010 18/17 A2996 830 90 1500 000/00 RMK AO2
14837KMSN MSN20060712033009507/12/06 03:30:31  5-MIN KMSN 120930Z 00000KT 7SM OVC010 18/17 A2996 830 90 1500 000/00 RMK AO2
14837KMSN MSN20060712033509507/12/06 03:35:31  5-MIN KMSN 120935Z 32003KT 7SM OVC010 18/17 A2996 830 90 1500 320/03 RMK AO2
14837KMSN MSN20060712034009507/12/06 03:40:31  5-MIN KMSN 120940Z 00000KT 7SM OVC010 18/17 A2996 830 90 1400 000/00 RMK AO2
14837KMSN MSN20060712034509507/12/06 03:45:31  5-MIN KMSN 120945Z 00000KT 7SM OVC010 18/17 A2996 830 90 1400 000/00 RMK AO2
14837KMSN MSN20060712035011207/12/06 03:50:31  5-MIN KMSN 120950Z 00000KT 8SM OVC010 18/17 A2996 830 90 1400 000/00 RMK AO2 SLP143 T01830167
14837KMSN MSN20060712035509507/12/06 03:55:31  5-MIN KMSN 120955Z 00000KT 7SM OVC010 18/17 A2996 830 90 1500 000/00 RMK AO2
14837KMSN MSN20060712040009507/12/06 04:00:31  5-MIN KMSN 121000Z 32003KT 7SM OVC010 18/17 A2996 830 90 1400 320/03 RMK AO2
14837KMSN MSN20060712040509507/12/06 04:05:31  5-MIN KMSN 121005Z 29003KT 7SM OVC010 18/17 A2996 820 90 1400 290/03 RMK AO2
14837KMSN MSN20060712041009507/12/06 04:10:31  5-MIN KMSN 121010Z 32003KT 7SM OVC010 18/17 A2996 820 90 1400 310/03 RMK AO2
14837KMSN MSN20060712041509507/12/06 04:15:31  5-MIN KMSN 121015Z 30003KT 7SM OVC010 18/17 A2997 820 90 1400 300/03 RMK AO2
14837KMSN MSN20060712042009507/12/06 04:20:31  5-MIN KMSN 121020Z 00000KT 7SM OVC010 18/17 A2997 820 90 1400 000/00 RMK AO2
14837KMSN MSN20060712042509507/12/06 04:25:31  5-MIN KMSN 121025Z 00000KT 7SM OVC010 18/17 A2997 820 90 1400 000/00 RMK AO2
14837KMSN MSN20060712043009507/12/06 04:30:31  5-MIN KMSN 121030Z 00000KT 7SM OVC010 18/17 A2997 820 90 1400 000/00 RMK AO2
14837KMSN MSN20060712043510507/12/06 04:35:31  5-MIN KMSN 121035Z 00000KT 6SM BR BKN010 OVC016 18/17 A2998 810 90 1400 000/00 RMK AO2
14837KMSN MSN20060712044010507/12/06 04:40:31  5-MIN KMSN 121040Z 34005KT 6SM BR BKN010 OVC018 18/17 A2997 810 90 1400 340/05 RMK AO2
14837KMSN MSN20060712044510507/12/06 04:45:31  5-MIN KMSN 121045Z 35005KT 6SM BR SCT010 OVC018 18/17 A2997 820 90 1400 350/05 RMK AO2
14837KMSN MSN20060712045010507/12/06 04:50:31  5-MIN KMSN 121050Z 34006KT 5SM BR SCT010 OVC018 18/17 A2997 810 90 1400 340/06 RMK AO2
14837KMSN MSN20060712045510507/12/06 04:55:31  5-MIN KMSN 121055Z 35005KT 4SM BR FEW010 OVC018 18/17 A2997 820 90 1400 340/05 RMK AO2
14837KMSN MSN20060712050010507/12/06 05:00:31  5-MIN KMSN 121100Z 34004KT 4SM BR FEW010 OVC018 18/17 A2997 810 90 1400 340/04 RMK AO2
14837KMSN MSN20060712050509807/12/06 05:05:31  5-MIN KMSN 121105Z 34003KT 4SM BR OVC018 18/17 A2998 810 90 1400 340/03 RMK AO2
14837KMSN MSN20060712051009807/12/06 05:10:31  5-MIN KMSN 121110Z 34004KT 4SM BR OVC018 18/17 A2998 810 90 1400 340/04 RMK AO2
14837KMSN MSN20060712051509807/12/06 05:15:31  5-MIN KMSN 121115Z 34005KT 4SM BR OVC018 18/17 A2998 810 90 1400 340/05 RMK AO2
14837KMSN MSN20060712052010507/12/06 05:20:31  5-MIN KMSN 121120Z 34004KT 4SM BR BKN018 OVC024 18/17 A2998 810 90 1400 340/04 RMK AO2
14837KMSN MSN20060712052510507/12/06 05:25:31  5-MIN KMSN 121125Z 35004KT 4SM BR BKN016 OVC024 18/17 A2998 810 90 1400 350/04 RMK AO2
14837KMSN MSN20060712053010507/12/06 05:30:31  5-MIN KMSN 121130Z 35004KT 4SM BR BKN016 OVC024 18/17 A2998 810 90 1400 350/04 RMK AO2
14837KMSN MSN20060712053510507/12/06 05:35:31  5-MIN KMSN 121135Z 35005KT 4SM BR SCT016 OVC024 18/17 A2998 810 90 1400 350/05 RMK AO2
14837KMSN MSN20060712054010507/12/06 05:40:31  5-MIN KMSN 121140Z 36005KT 4SM BR SCT016 OVC024 18/17 A2997 810 90 1400 360/05 RMK AO2
14837KMSN MSN20060712054509807/12/06 05:45:31  5-MIN KMSN 121145Z 36005KT 5SM BR OVC022 19/17 A2997 820 90 1500 350/05 RMK AO2
14837KMSN MSN20060712055013907/12/06 05:50:31  5-MIN KMSN 121150Z 36006KT 5SM BR BKN022 19/17 A2997 820 90 1500 360/06 RMK AO2 SLP146 70214 T01890172 10189 20178 56001
14837KMSN MSN20060712055509807/12/06 05:55:31  5-MIN KMSN 121155Z 01007KT 5SM BR BKN022 19/17 A2997 820 90 1500 010/07 RMK AO2
14837KMSN MSN20060712060009807/12/06 06:00:31  5-MIN KMSN 121200Z 01006KT 4SM BR BKN022 19/17 A2997 820 87 1600 360/06 RMK AO2
14837KMSN MSN20060712060509807/12/06 06:05:31  5-MIN KMSN 121205Z 36005KT 4SM BR BKN022 19/17 A2998 810 87 1600 360/05 RMK AO2
14837KMSN MSN20060712061009807/12/06 06:10:31  5-MIN KMSN 121210Z 36004KT 4SM BR BKN022 19/17 A2998 810 87 1600 360/04 RMK AO2
14837KMSN MSN20060712061509807/12/06 06:15:31  5-MIN KMSN 121215Z 35004KT 4SM BR BKN022 19/17 A2998 810 87 1600 350/04 RMK AO2
14837KMSN MSN20060712062009807/12/06 06:20:31  5-MIN KMSN 121220Z 36005KT 4SM BR BKN022 19/17 A2998 810 87 1600 360/05 RMK AO2
14837KMSN MSN20060712062509807/12/06 06:25:31  5-MIN KMSN 121225Z 36005KT 4SM BR BKN022 19/17 A2998 800 87 1500 360/05 RMK AO2
14837KMSN MSN20060712063009807/12/06 06:30:31  5-MIN KMSN 121230Z 36005KT 4SM BR BKN022 19/17 A2999 800 87 1500 360/05 RMK AO2
14837KMSN MSN20060712063509807/12/06 06:35:31  5-MIN KMSN 121235Z 36005KT 4SM BR BKN022 20/18 A2999 800 87 1600 360/05 RMK AO2
14837KMSN MSN20060712064009807/12/06 06:40:31  5-MIN KMSN 121240Z 01005KT 4SM BR BKN022 20/18 A2999 800 87 1600 010/05 RMK AO2
14837KMSN MSN20060712064509807/12/06 06:45:31  5-MIN KMSN 121245Z 01004KT 4SM BR BKN022 20/18 A2999 800 87 1600 010/04 RMK AO2
14837KMSN MSN20060712065011507/12/06 06:50:31  5-MIN KMSN 121250Z 03004KT 5SM HZ BKN022 21/18 A2999 800 84 1700 030/04 RMK AO2 SLP153 T02060178
14837KMSN MSN20060712065509807/12/06 06:55:31  5-MIN KMSN 121255Z VRB04KT 5SM HZ BKN022 21/18 A2999 800 84 1700 VRB/04 RMK AO2
14837KMSN MSN20060712070009807/12/06 07:00:31  5-MIN KMSN 121300Z 02005KT 5SM HZ SCT022 21/18 A3000 790 84 1700 020/05 RMK AO2
14837KMSN MSN20060712070509807/12/06 07:05:31  5-MIN KMSN 121305Z 02006KT 4SM HZ FEW022 22/18 A3000 790 81 1800 020/06 RMK AO2
14837KMSN MSN20060712071009807/12/06 07:10:31  5-MIN KMSN 121310Z 04008KT 4SM HZ FEW022 22/18 A3000 790 81 1800 040/08 RMK AO2
14837KMSN MSN20060712071509807/12/06 07:15:31  5-MIN KMSN 121315Z 36007KT 5SM HZ FEW022 22/18 A3000 790 81 1800 360/07 RMK AO2
14837KMSN MSN20060712072009507/12/06 07:20:31  5-MIN KMSN 121320Z 03008KT 5SM HZ CLR 22/18 A3000 790 81 1800 030/08 RMK AO2
14837KMSN MSN20060712072509807/12/06 07:25:31  5-MIN KMSN 121325Z 01006KT 5SM HZ BKN022 22/18 A3000 790 81 1800 010/06 RMK AO2
14837KMSN MSN20060712073009807/12/06 07:30:31  5-MIN KMSN 121330Z 01007KT 5SM HZ BKN022 21/18 A3001 780 84 1700 010/07 RMK AO2
14837KMSN MSN20060712073510507/12/06 07:35:31  5-MIN KMSN 121335Z 01007KT 5SM HZ FEW010 BKN020 21/18 A3001 780 84 1700 010/07 RMK AO2
14837KMSN MSN20060712074009807/12/06 07:40:31  5-MIN KMSN 121340Z 03005KT 5SM HZ BKN018 21/18 A3001 780 84 1700 030/05 RMK AO2
14837KMSN MSN20060712074510507/12/06 07:45:31  5-MIN KMSN 121345Z 03005KT 5SM HZ FEW010 BKN018 22/18 A3001 780 81 1800 030/05 RMK AO2
14837KMSN MSN20060712075012907/12/06 07:50:31  5-MIN KMSN 121350Z 04006KT 5SM HZ FEW010 BKN018 BKN100 22/18 A3001 780 81 1800 040/06 RMK AO2 SLP160 T02170183
14837KMSN MSN20060712075511207/12/06 07:55:31  5-MIN KMSN 121355Z 05006KT 5SM HZ FEW010 BKN018 BKN023 22/19 A3001 780 84 1800 050/06 RMK AO2
14837KMSN MSN20060712080010507/12/06 08:00:31  5-MIN KMSN 121400Z 03006KT 5SM HZ BKN016 BKN022 22/19 A3002 780 84 1800 030/06 RMK AO2
14837KMSN MSN20060712080510507/12/06 08:05:31  5-MIN KMSN 121405Z 02006KT 5SM HZ FEW012 BKN022 22/19 A3002 770 84 1800 020/06 RMK AO2
14837KMSN MSN20060712081010507/12/06 08:10:31  5-MIN KMSN 121410Z 03004KT 5SM HZ FEW012 BKN022 22/19 A3001 780 84 1800 030/04 RMK AO2
14837KMSN MSN20060712081510507/12/06 08:15:31  5-MIN KMSN 121415Z 04005KT 5SM HZ FEW012 BKN022 22/19 A3001 780 81 1800 030/05 RMK AO2
14837KMSN MSN20060712082010507/12/06 08:20:31  5-MIN KMSN 121420Z 02007KT 5SM HZ FEW012 OVC022 22/19 A3001 780 81 1800 020/07 RMK AO2
14837KMSN MSN20060712082509807/12/06 08:25:31  5-MIN KMSN 121425Z 02007KT 6SM HZ BKN022 23/19 A3001 780 78 1900 020/07 RMK AO2
14837KMSN MSN20060712083009807/12/06 08:30:31  5-MIN KMSN 121430Z 04007KT 6SM HZ BKN022 23/19 A3001 780 78 2000 040/07 RMK AO2
14837KMSN MSN20060712083509807/12/06 08:35:31  5-MIN KMSN 121435Z 05007KT 6SM HZ SCT022 23/19 A3001 780 81 1900 050/07 RMK AO2
14837KMSN MSN20060712084009807/12/06 08:40:31  5-MIN KMSN 121440Z 06006KT 6SM HZ SCT022 23/19 A3001 780 81 1900 060/06 RMK AO2
14837KMSN MSN20060712084509807/12/06 08:45:31  5-MIN KMSN 121445Z 05004KT 6SM HZ FEW022 23/19 A3001 780 78 2000 050/04 RMK AO2
14837KMSN MSN20060712085012107/12/06 08:50:31  5-MIN KMSN 121450Z 03008KT 6SM HZ FEW022 24/19 A3001 780 76 2000 030/08 RMK AO2 SLP159 T02390194 50003
14837KMSN MSN20060712085510507/12/06 08:55:31  5-MIN KMSN 121455Z 06005KT 6SM HZ FEW018 SCT110 23/19 A3001 780 76 2000 060/05 RMK AO2
14837KMSN MSN20060712090009807/12/06 09:00:31  5-MIN KMSN 121500Z 06007KT 6SM HZ SCT018 24/19 A3001 780 76 2000 060/07 RMK AO2
14837KMSN MSN20060712090509807/12/06 09:05:31  5-MIN KMSN 121505Z VRB04KT 6SM HZ SCT018 24/19 A3001 780 76 2000 VRB/04 RMK AO2
14837KMSN MSN20060712091009807/12/06 09:10:31  5-MIN KMSN 121510Z VRB05KT 6SM HZ SCT016 24/20 A3001 780 76 2100 VRB/05 RMK AO2
14837KMSN MSN20060712091509807/12/06 09:15:31  5-MIN KMSN 121515Z 05006KT 6SM HZ BKN016 24/19 A3001 780 73 2100 050/06 RMK AO2
14837KMSN MSN20060712092009807/12/06 09:20:31  5-MIN KMSN 121520Z VRB03KT 6SM HZ BKN016 24/19 A3001 780 76 2000 VRB/03 RMK AO2
14837KMSN MSN20060712092509807/12/06 09:25:31  5-MIN KMSN 121525Z 04006KT 6SM HZ BKN016 24/19 A3002 780 73 2100 040/06 RMK AO2
14837KMSN MSN20060712093009807/12/06 09:30:31  5-MIN KMSN 121530Z 08004KT 6SM HZ BKN018 24/19 A3002 780 76 2000 080/04 RMK AO2
14837KMSN MSN20060712093509807/12/06 09:35:31  5-MIN KMSN 121535Z 04004KT 6SM HZ BKN018 24/20 A3002 770 78 2000 040/04 RMK AO2
14837KMSN MSN20060712094010507/12/06 09:40:31  5-MIN KMSN 121540Z 06006KT 6SM HZ BKN018 BKN023 24/19 A3002 770 76 2000 050/06 RMK AO2
14837KMSN MSN20060712094510507/12/06 09:45:31  5-MIN KMSN 121545Z 06008KT 6SM HZ BKN018 OVC023 24/20 A3002 770 76 2100 060/08 RMK AO2
14837KMSN MSN20060712095011507/12/06 09:50:31  5-MIN KMSN 121550Z 05007KT 6SM HZ OVC018 24/20 A3002 770 78 2000 050/07 RMK AO2 SLP163 T02390200
14837KMSN MSN20060712095510507/12/06 09:55:31  5-MIN KMSN 121555Z 06006KT 6SM HZ BKN018 OVC024 25/20 A3002 770 73 2100 060/06 RMK AO2
14837KMSN MSN20060712100010507/12/06 10:00:31  5-MIN KMSN 121600Z 06006KT 6SM HZ BKN016 OVC024 25/20 A3002 770 73 2100 060/06 RMK AO2
14837KMSN MSN20060712100510507/12/06 10:05:31  5-MIN KMSN 121605Z 04008KT 6SM HZ BKN016 OVC024 25/20 A3002 770 73 2100 040/08 RMK AO2
14837KMSN MSN20060712101010507/12/06 10:10:31  5-MIN KMSN 121610Z VRB05KT 6SM HZ BKN018 BKN024 25/21 A3002 770 76 2100 VRB/05 RMK AO2
14837KMSN MSN20060712101510507/12/06 10:15:31  5-MIN KMSN 121615Z 08008KT 5SM HZ BKN018 BKN024 25/21 A3002 770 76 2100 070/08 RMK AO2
14837KMSN MSN20060712102010507/12/06 10:20:31  5-MIN KMSN 121620Z 07007KT 5SM HZ BKN018 BKN024 25/20 A3002 770 73 2100 070/07 RMK AO2
14837KMSN MSN20060712102510507/12/06 10:25:31  5-MIN KMSN 121625Z 06006KT 5SM HZ SCT018 BKN024 25/20 A3002 770 73 2100 060/06 RMK AO2
14837KMSN MSN20060712103009807/12/06 10:30:31  5-MIN KMSN 121630Z 05008KT 5SM HZ BKN018 25/20 A3002 770 73 2100 050/08 RMK AO2
14837KMSN MSN20060712103509807/12/06 10:35:31  5-MIN KMSN 121635Z 06007KT 6SM HZ SCT018 25/20 A3002 770 73 2100 060/07 RMK AO2
14837KMSN MSN20060712104009807/12/06 10:40:31  5-MIN KMSN 121640Z 07008KT 6SM HZ BKN020 26/20 A3002 770 71 2200 070/08 RMK AO2
14837KMSN MSN20060712104509807/12/06 10:45:31  5-MIN KMSN 121645Z 05007KT 5SM HZ BKN020 26/20 A3002 770 71 2200 050/07 RMK AO2
14837KMSN MSN20060712105011507/12/06 10:50:31  5-MIN KMSN 121650Z 07007KT 6SM HZ BKN020 26/20 A3002 770 71 2200 070/07 RMK AO2 SLP161 T02560200
14837KMSN MSN20060712105509807/12/06 10:55:31  5-MIN KMSN 121655Z 08009KT 6SM HZ BKN020 26/21 A3002 770 71 2300 080/09 RMK AO2
14837KMSN MSN20060712110009807/12/06 11:00:31  5-MIN KMSN 121700Z 07010KT 6SM HZ BKN020 26/19 A3002 770 66 2300 070/10 RMK AO2
14837KMSN MSN20060712110509807/12/06 11:05:31  5-MIN KMSN 121705Z 07009KT 6SM HZ SCT022 26/20 A3002 770 68 2300 070/09 RMK AO2
14837KMSN MSN20060712111009807/12/06 11:10:31  5-MIN KMSN 121710Z 08008KT 6SM HZ SCT022 26/20 A3002 770 68 2300 070/08 RMK AO2
14837KMSN MSN20060712111509807/12/06 11:15:31  5-MIN KMSN 121715Z 09009KT 6SM HZ SCT022 27/20 A3002 770 66 2300 080/09 RMK AO2
14837KMSN MSN20060712112009807/12/06 11:20:31  5-MIN KMSN 121720Z 08010KT 6SM HZ SCT022 27/20 A3002 780 66 2300 070/10 RMK AO2
14837KMSN MSN20060712112509807/12/06 11:25:31  5-MIN KMSN 121725Z 08008KT 6SM HZ SCT022 27/20 A3002 780 66 2300 070/08 RMK AO2
14837KMSN MSN20060712113009807/12/06 11:30:31  5-MIN KMSN 121730Z 08008KT 6SM HZ SCT022 27/20 A3002 780 66 2300 080/08 RMK AO2
14837KMSN MSN20060712113509807/12/06 11:35:31  5-MIN KMSN 121735Z 09009KT 6SM HZ SCT022 27/20 A3001 780 66 2300 090/09 RMK AO2
14837KMSN MSN20060712114009807/12/06 11:40:31  5-MIN KMSN 121740Z 08007KT 6SM HZ SCT022 27/20 A3001 780 66 2300 080/07 RMK AO2
14837KMSN MSN20060712114509507/12/06 11:45:31  5-MIN KMSN 121745Z 04008KT 7SM SCT025 27/20 A3001 780 64 2400 040/08 RMK AO2
14837KMSN MSN20060712115013007/12/06 11:50:31  5-MIN KMSN 121750Z 05009KT 7SM SCT025 27/20 A3001 780 64 2400 050/09 RMK AO2 SLP158 T02720200 10272 20189 50014
14837KMSN MSN20060712115509507/12/06 11:55:31  5-MIN KMSN 121755Z 08008KT 7SM SCT025 27/20 A3001 780 64 2400 080/08 RMK AO2
14837KMSN MSN20060712120009507/12/06 12:00:31  5-MIN KMSN 121800Z 07009KT 7SM SCT025 27/20 A3001 780 66 2300 070/09 RMK AO2
14837KMSN MSN20060712120509507/12/06 12:05:31  5-MIN KMSN 121805Z 06007KT 7SM BKN027 27/20 A3001 780 66 2300 060/07 RMK AO2
14837KMSN MSN20060712121009507/12/06 12:10:31  5-MIN KMSN 121810Z 06009KT 7SM BKN027 27/20 A3001 780 64 2400 060/09 RMK AO2
14837KMSN MSN20060712121509807/12/06 12:15:31  5-MIN KMSN 121815Z 07008KT 6SM HZ BKN027 27/21 A3001 780 69 2300 070/08 RMK AO2
14837KMSN MSN20060712122009807/12/06 12:20:31  5-MIN KMSN 121820Z 07009KT 6SM HZ BKN027 27/20 A3001 780 66 2300 070/09 RMK AO2
14837KMSN MSN20060712122509807/12/06 12:25:31  5-MIN KMSN 121825Z 08008KT 6SM HZ BKN027 27/20 A3001 780 66 2300 080/08 RMK AO2
14837KMSN MSN20060712123009807/12/06 12:30:31  5-MIN KMSN 121830Z 08007KT 6SM HZ FEW027 27/20 A3001 790 64 2400 080/07 RMK AO2
14837KMSN MSN20060712123509507/12/06 12:35:31  5-MIN KMSN 121835Z 07009KT 7SM SCT027 27/20 A3001 780 64 2400 070/09 RMK AO2
14837KMSN MSN20060712124009507/12/06 12:40:31  5-MIN KMSN 121840Z 10010KT 7SM SCT027 27/20 A3001 780 64 2400 100/10 RMK AO2
14837KMSN MSN20060712124509507/12/06 12:45:31  5-MIN KMSN 121845Z 09009KT 7SM SCT027 27/19 A3001 780 62 2400 090/09 RMK AO2
14837KMSN MSN20060712125011207/12/06 12:50:31  5-MIN KMSN 121850Z 10009KT 7SM SCT027 27/20 A3001 780 64 2400 100/09 RMK AO2 SLP156 T02720200
14837KMSN MSN20060712125509507/12/06 12:55:31  5-MIN KMSN 121855Z 09008KT 7SM SCT029 27/19 A3001 780 62 2400 090/08 RMK AO2
14837KMSN MSN20060712130009507/12/06 13:00:31  5-MIN KMSN 121900Z 09006KT 7SM SCT029 27/19 A3000 790 62 2400 090/06 RMK AO2
14837KMSN MSN20060712130509507/12/06 13:05:31  5-MIN KMSN 121905Z 09009KT 7SM SCT029 28/19 A3000 790 60 2500 090/09 RMK AO2
14837KMSN MSN20060712131009507/12/06 13:10:31  5-MIN KMSN 121910Z 07007KT 7SM BKN030 27/19 A3000 790 62 2400 070/07 RMK AO2
14837KMSN MSN20060712131511107/12/06 13:15:31  5-MIN KMSN 121915Z 06007KT 360V100 7SM BKN030 27/19 A3000 790 62 2400 060/07 360V100 RMK AO2
14837KMSN MSN20060712132009507/12/06 13:20:31  5-MIN KMSN 121920Z 07008KT 7SM BKN030 28/20 A3000 790 62 2500 060/08 RMK AO2
14837KMSN MSN20060712132509507/12/06 13:25:31  5-MIN KMSN 121925Z 06008KT 7SM BKN030 28/20 A3000 790 62 2500 060/08 RMK AO2
14837KMSN MSN20060712133009507/12/06 13:30:31  5-MIN KMSN 121930Z 08006KT 7SM BKN030 28/20 A3000 790 62 2500 080/06 RMK AO2
14837KMSN MSN20060712133509507/12/06 13:35:31  5-MIN KMSN 121935Z 09008KT 7SM BKN030 28/20 A3000 790 62 2500 090/08 RMK AO2
14837KMSN MSN20060712134009507/12/06 13:40:31  5-MIN KMSN 121940Z 07007KT 7SM BKN030 27/19 A3000 790 62 2400 070/07 RMK AO2
14837KMSN MSN20060712134509507/12/06 13:45:31  5-MIN KMSN 121945Z 09007KT 7SM BKN030 28/20 A3000 790 62 2500 090/07 RMK AO2
14837KMSN MSN20060712135011207/12/06 13:50:31  5-MIN KMSN 121950Z 07007KT 7SM BKN030 27/19 A3000 800 62 2400 070/07 RMK AO2 SLP152 T02720194
14837KMSN MSN20060712135509507/12/06 13:55:31  5-MIN KMSN 121955Z 08008KT 7SM BKN033 28/20 A2999 800 60 2500 080/08 RMK AO2
14837KMSN MSN20060712140011107/12/06 14:00:31  5-MIN KMSN 122000Z 08008KT 050V120 7SM BKN033 28/20 A2999 800 62 2500 080/08 050V120 RMK AO2
14837KMSN MSN20060712140509507/12/06 14:05:31  5-MIN KMSN 122005Z 07007KT 7SM BKN033 28/20 A2999 800 60 2500 070/07 RMK AO2
14837KMSN MSN20060712141009507/12/06 14:10:31  5-MIN KMSN 122010Z 06006KT 7SM BKN033 28/20 A2999 800 60 2500 060/06 RMK AO2
14837KMSN MSN20060712141509507/12/06 14:15:31  5-MIN KMSN 122015Z 08008KT 7SM BKN033 28/20 A2999 800 60 2600 080/08 RMK AO2
14837KMSN MSN20060712142009507/12/06 14:20:31  5-MIN KMSN 122020Z 06007KT 7SM BKN033 28/19 A2999 800 58 2600 060/07 RMK AO2
14837KMSN MSN20060712142509507/12/06 14:25:31  5-MIN KMSN 122025Z 08008KT 7SM BKN033 28/20 A2999 800 60 2600 080/08 RMK AO2
14837KMSN MSN20060712143009507/12/06 14:30:31  5-MIN KMSN 122030Z 07005KT 8SM BKN033 28/19 A2999 800 58 2600 070/05 RMK AO2
14837KMSN MSN20060712143509507/12/06 14:35:31  5-MIN KMSN 122035Z 06006KT 8SM BKN033 29/20 A2998 800 58 2600 060/06 RMK AO2
14837KMSN MSN20060712144009507/12/06 14:40:31  5-MIN KMSN 122040Z 09007KT 7SM SCT033 28/20 A2999 800 62 2500 090/07 RMK AO2
14837KMSN MSN20060712144509507/12/06 14:45:31  5-MIN KMSN 122045Z VRB06KT 7SM SCT033 28/19 A2998 810 60 2500 VRB/06 RMK AO2
14837KMSN MSN20060712145011807/12/06 14:50:31  5-MIN KMSN 122050Z 06005KT 7SM SCT033 29/20 A2998 810 58 2600 060/05 RMK AO2 SLP148 T02890200 58000
14837KMSN MSN20060712145509507/12/06 14:55:31  5-MIN KMSN 122055Z 07006KT 8SM FEW033 29/20 A2998 810 58 2600 070/06 RMK AO2
14837KMSN MSN20060712150009507/12/06 15:00:31  5-MIN KMSN 122100Z 08008KT 8SM SCT033 28/19 A2998 810 56 2600 080/08 RMK AO2
14837KMSN MSN20060712150509507/12/06 15:05:31  5-MIN KMSN 122105Z 06006KT 8SM SCT033 28/19 A2998 810 58 2600 060/06 RMK AO2
14837KMSN MSN20060712151009507/12/06 15:10:31  5-MIN KMSN 122110Z 08008KT 8SM SCT033 29/19 A2998 810 56 2600 070/08 RMK AO2
14837KMSN MSN20060712151509507/12/06 15:15:31  5-MIN KMSN 122115Z 07006KT 8SM SCT033 28/19 A2997 810 58 2600 070/06 RMK AO2
14837KMSN MSN20060712152009507/12/06 15:20:31  5-MIN KMSN 122120Z 08006KT 8SM SCT033 28/19 A2997 810 56 2600 070/06 RMK AO2
14837KMSN MSN20060712152509507/12/06 15:25:31  5-MIN KMSN 122125Z 09010KT 8SM SCT033 29/19 A2997 810 56 2600 090/10 RMK AO2
14837KMSN MSN20060712153009507/12/06 15:30:31  5-MIN KMSN 122130Z 09005KT 8SM SCT033 28/19 A2997 820 56 2600 090/05 RMK AO2
14837KMSN MSN20060712153509507/12/06 15:35:31  5-MIN KMSN 122135Z 07006KT 8SM SCT033 28/19 A2997 820 58 2600 070/06 RMK AO2
14837KMSN MSN20060712154009507/12/06 15:40:31  5-MIN KMSN 122140Z 08006KT 8SM SCT033 29/19 A2997 820 56 2600 080/06 RMK AO2
14837KMSN MSN20060712154509507/12/06 15:45:31  5-MIN KMSN 122145Z 08006KT 8SM SCT033 28/19 A2997 820 58 2600 080/06 RMK AO2
14837KMSN MSN20060712155011907/12/06 15:50:31  5-MIN KMSN 122150Z 07006KT 8SM FEW033 SCT046 28/19 A2997 820 58 2600 070/06 RMK AO2 SLP143 T02830194
14837KMSN MSN20060712155510207/12/06 15:55:31  5-MIN KMSN 122155Z 10005KT 8SM FEW038 SCT046 29/19 A2997 820 56 2600 100/05 RMK AO2
14837KMSN MSN20060712160010207/12/06 16:00:31  5-MIN KMSN 122200Z 07006KT 8SM FEW038 SCT046 29/19 A2996 820 56 2600 070/06 RMK AO2
14837KMSN MSN20060712160510207/12/06 16:05:31  5-MIN KMSN 122205Z 08007KT 8SM FEW038 SCT046 28/19 A2996 820 56 2600 080/07 RMK AO2
14837KMSN MSN20060712161010207/12/06 16:10:31  5-MIN KMSN 122210Z 11006KT 8SM FEW038 SCT046 28/19 A2996 820 58 2600 110/06 RMK AO2
14837KMSN MSN20060712161510207/12/06 16:15:31  5-MIN KMSN 122215Z 06006KT 8SM FEW038 SCT046 28/19 A2996 820 58 2600 050/06 RMK AO2
14837KMSN MSN20060712162010207/12/06 16:20:31  5-MIN KMSN 122220Z 05005KT 8SM FEW038 SCT046 29/19 A2996 820 56 2600 040/05 RMK AO2
14837KMSN MSN20060712162510207/12/06 16:25:31  5-MIN KMSN 122225Z 08007KT 8SM FEW038 SCT046 28/19 A2997 820 58 2600 080/07 RMK AO2
14837KMSN MSN20060712163010207/12/06 16:30:31  5-MIN KMSN 122230Z 08006KT 8SM FEW038 SCT046 28/19 A2997 820 58 2600 080/06 RMK AO2
14837KMSN MSN20060712163510207/12/06 16:35:31  5-MIN KMSN 122235Z 09006KT 8SM FEW038 SCT046 28/19 A2996 820 58 2600 090/06 RMK AO2
14837KMSN MSN20060712164010207/12/06 16:40:31  5-MIN KMSN 122240Z VRB04KT 8SM FEW038 SCT046 28/19 A2996 820 58 2600 VRB/04 RMK AO2
14837KMSN MSN20060712164510207/12/06 16:45:31  5-MIN KMSN 122245Z 08004KT 7SM FEW038 SCT046 29/20 A2996 820 58 2600 080/04 RMK AO2
14837KMSN MSN20060712165011207/12/06 16:50:31  5-MIN KMSN 122250Z 10006KT 7SM FEW038 28/19 A2996 820 58 2600 100/06 RMK AO2 SLP141 T02830194
14837KMSN MSN20060712165509507/12/06 16:55:31  5-MIN KMSN 122255Z 08006KT 7SM FEW038 28/19 A2996 820 58 2600 080/06 RMK AO2
14837KMSN MSN20060712170009207/12/06 17:00:31  5-MIN KMSN 122300Z 11006KT 7SM CLR 28/19 A2996 820 58 2600 100/06 RMK AO2
14837KMSN MSN20060712170509507/12/06 17:05:31  5-MIN KMSN 122305Z 07004KT 7SM FEW038 28/19 A2996 820 58 2600 070/04 RMK AO2
14837KMSN MSN20060712171009507/12/06 17:10:31  5-MIN KMSN 122310Z 10008KT 7SM FEW038 28/19 A2997 820 58 2600 100/08 RMK AO2
14837KMSN MSN20060712171509507/12/06 17:15:31  5-MIN KMSN 122315Z 08006KT 7SM FEW038 28/19 A2997 820 60 2500 080/06 RMK AO2
14837KMSN MSN20060712172009507/12/06 17:20:31  5-MIN KMSN 122320Z 06008KT 7SM FEW038 28/19 A2997 820 60 2500 060/08 RMK AO2
14837KMSN MSN20060712172509507/12/06 17:25:31  5-MIN KMSN 122325Z 06006KT 7SM FEW038 28/19 A2997 820 58 2600 060/06 RMK AO2
14837KMSN MSN20060712173009507/12/06 17:30:31  5-MIN KMSN 122330Z 06005KT 7SM FEW038 28/19 A2997 820 58 2600 060/05 RMK AO2
14837KMSN MSN20060712173509507/12/06 17:35:31  5-MIN KMSN 122335Z 07005KT 7SM FEW038 28/20 A2997 820 62 2500 070/05 RMK AO2
14837KMSN MSN20060712174009507/12/06 17:40:31  5-MIN KMSN 122340Z 08006KT 7SM FEW038 28/19 A2997 820 60 2500 080/06 RMK AO2
14837KMSN MSN20060712174509507/12/06 17:45:31  5-MIN KMSN 122345Z 08005KT 7SM FEW038 28/20 A2997 820 62 2500 080/05 RMK AO2
14837KMSN MSN20060712175013007/12/06 17:50:31  5-MIN KMSN 122350Z 11007KT 7SM FEW038 28/19 A2997 820 60 2500 110/07 RMK AO2 SLP143 T02780194 10289 20261 58009
14837KMSN MSN20060712175509507/12/06 17:55:31  5-MIN KMSN 122355Z 10004KT 7SM FEW038 28/20 A2997 820 62 2500 100/04 RMK AO2
14837KMSN MSN20060712180009507/12/06 18:00:31  5-MIN KMSN 130000Z 09008KT 7SM FEW038 28/20 A2997 820 62 2500 090/08 RMK AO2
14837KMSN MSN20060712180509507/12/06 18:05:31  5-MIN KMSN 130005Z 10005KT 7SM FEW046 27/20 A2997 820 64 2500 100/05 RMK AO2
14837KMSN MSN20060712181009507/12/06 18:10:31  5-MIN KMSN 130010Z 08006KT 7SM FEW046 27/20 A2997 820 64 2400 080/06 RMK AO2
14837KMSN MSN20060712181509507/12/06 18:15:31  5-MIN KMSN 130015Z 09007KT 7SM FEW046 27/19 A2997 820 62 2400 080/07 RMK AO2
14837KMSN MSN20060712182009807/12/06 18:20:31  5-MIN KMSN 130020Z 07004KT 6SM HZ FEW046 27/19 A2997 820 62 2400 070/04 RMK AO2
14837KMSN MSN20060712182509807/12/06 18:25:31  5-MIN KMSN 130025Z 08004KT 6SM HZ FEW046 27/20 A2997 820 64 2400 070/04 RMK AO2
14837KMSN MSN20060712183009807/12/06 18:30:31  5-MIN KMSN 130030Z 08005KT 6SM HZ FEW046 27/20 A2997 810 64 2400 080/05 RMK AO2
14837KMSN MSN20060712183509807/12/06 18:35:31  5-MIN KMSN 130035Z 10005KT 6SM HZ FEW046 27/20 A2997 810 64 2400 100/05 RMK AO2
14837KMSN MSN20060712184009807/12/06 18:40:31  5-MIN KMSN 130040Z 11004KT 6SM HZ FEW046 27/20 A2998 810 64 2400 110/04 RMK AO2
14837KMSN MSN20060712184509807/12/06 18:45:31  5-MIN KMSN 130045Z 12004KT 6SM HZ FEW046 27/20 A2998 810 66 2400 120/04 RMK AO2
14837KMSN MSN20060712185011207/12/06 18:50:31  5-MIN KMSN 130050Z 10006KT 7SM FEW038 26/20 A2998 810 68 2300 100/06 RMK AO2 SLP146 T02610200
14837KMSN MSN20060712185509807/12/06 18:55:31  5-MIN KMSN 130055Z 10006KT 5SM HZ FEW041 26/19 A2998 810 66 2300 100/06 RMK AO2
14837KMSN MSN20060712190009807/12/06 19:00:31  5-MIN KMSN 130100Z 10006KT 5SM HZ FEW037 26/19 A2998 810 66 2300 100/06 RMK AO2
14837KMSN MSN20060712190509807/12/06 19:05:31  5-MIN KMSN 130105Z 10005KT 5SM HZ FEW037 26/19 A2998 810 68 2300 100/05 RMK AO2
14837KMSN MSN20060712191009807/12/06 19:10:31  5-MIN KMSN 130110Z 10005KT 5SM HZ FEW037 26/19 A2998 810 68 2300 100/05 RMK AO2
14837KMSN MSN20060712191509507/12/06 19:15:31  5-MIN KMSN 130115Z 09004KT 5SM HZ CLR 26/19 A2998 810 68 2300 090/04 RMK AO2
14837KMSN MSN20060712192009507/12/06 19:20:31  5-MIN KMSN 130120Z 08003KT 5SM HZ CLR 26/19 A2998 810 68 2300 080/03 RMK AO2
14837KMSN MSN20060712192509507/12/06 19:25:31  5-MIN KMSN 130125Z 09003KT 5SM HZ CLR 26/19 A2998 810 68 2300 090/03 RMK AO2
14837KMSN MSN20060712193009507/12/06 19:30:31  5-MIN KMSN 130130Z 09003KT 6SM HZ CLR 25/19 A2998 810 71 2200 090/03 RMK AO2
14837KMSN MSN20060712193509507/12/06 19:35:31  5-MIN KMSN 130135Z 08003KT 6SM HZ CLR 24/19 A2998 810 73 2100 080/03 RMK AO2
14837KMSN MSN20060712194009507/12/06 19:40:31  5-MIN KMSN 130140Z 08003KT 6SM HZ CLR 24/19 A2998 810 76 2100 080/03 RMK AO2
14837KMSN MSN20060712194509507/12/06 19:45:31  5-MIN KMSN 130145Z 00000KT 6SM HZ CLR 24/19 A2998 810 76 2100 000/00 RMK AO2
14837KMSN MSN20060712195011207/12/06 19:50:31  5-MIN KMSN 130150Z 08003KT 5SM HZ CLR 24/19 A2998 810 76 2100 080/03 RMK AO2 SLP146 T02390194
14837KMSN MSN20060712195509507/12/06 19:55:31  5-MIN KMSN 130155Z 08003KT 5SM HZ CLR 23/19 A2998 810 78 2000 080/03 RMK AO2
14837KMSN MSN20060712200009507/12/06 20:00:31  5-MIN KMSN 130200Z 09003KT 5SM HZ CLR 23/19 A2998 810 78 2000 090/03 RMK AO2
14837KMSN MSN20060712200509507/12/06 20:05:31  5-MIN KMSN 130205Z 09003KT 5SM HZ CLR 23/19 A2998 810 78 2000 090/03 RMK AO2
14837KMSN MSN20060712201009507/12/06 20:10:31  5-MIN KMSN 130210Z 08003KT 5SM HZ CLR 23/19 A2998 810 78 2000 080/03 RMK AO2
14837KMSN MSN20060712201509507/12/06 20:15:31  5-MIN KMSN 130215Z VRB03KT 5SM HZ CLR 23/19 A2999 800 81 1900 VRB/03 RMK AO2
14837KMSN MSN20060712202009507/12/06 20:20:31  5-MIN KMSN 130220Z 08003KT 5SM HZ CLR 23/19 A2999 800 78 2000 080/03 RMK AO2
14837KMSN MSN20060712202509507/12/06 20:25:31  5-MIN KMSN 130225Z 09003KT 5SM HZ CLR 23/19 A2999 800 78 2000 090/03 RMK AO2
14837KMSN MSN20060712203009507/12/06 20:30:31  5-MIN KMSN 130230Z 11006KT 5SM HZ CLR 23/19 A2999 800 81 1900 110/06 RMK AO2
14837KMSN MSN20060712203509507/12/06 20:35:31  5-MIN KMSN 130235Z 11006KT 5SM HZ CLR 23/19 A2999 800 78 2000 110/06 RMK AO2
14837KMSN MSN20060712204009507/12/06 20:40:31  5-MIN KMSN 130240Z 11006KT 5SM HZ CLR 23/19 A2999 800 78 2000 110/06 RMK AO2
14837KMSN MSN20060712204509507/12/06 20:45:31  5-MIN KMSN 130245Z 11006KT 5SM HZ CLR 23/19 A2999 800 81 1900 110/06 RMK AO2
14837KMSN MSN20060712205011507/12/06 20:50:31  5-MIN KMSN 130250Z 11005KT 7SM CLR 23/19 A3000 790 81 1900 110/05 RMK AO2 SLP153 T02280194 55005
14837KMSN MSN20060712205509507/12/06 20:55:31  5-MIN KMSN 130255Z 12005KT 6SM HZ CLR 23/19 A3000 790 81 1900 110/05 RMK AO2
14837KMSN MSN20060712210009507/12/06 21:00:31  5-MIN KMSN 130300Z 11005KT 6SM HZ CLR 23/19 A3000 790 81 1900 110/05 RMK AO2
14837KMSN MSN20060712210509507/12/06 21:05:31  5-MIN KMSN 130305Z 11005KT 6SM HZ CLR 23/19 A3000 790 81 1900 110/05 RMK AO2
14837KMSN MSN20060712211009507/12/06 21:10:31  5-MIN KMSN 130310Z 10005KT 6SM HZ CLR 23/19 A3000 790 81 1900 100/05 RMK AO2
14837KMSN MSN20060712211509507/12/06 21:15:31  5-MIN KMSN 130315Z 10005KT 6SM HZ CLR 22/19 A3000 790 84 1800 100/05 RMK AO2
14837KMSN MSN20060712212009507/12/06 21:20:31  5-MIN KMSN 130320Z 11005KT 6SM HZ CLR 22/19 A3000 790 84 1800 110/05 RMK AO2
14837KMSN MSN20060712212509507/12/06 21:25:31  5-MIN KMSN 130325Z 11005KT 6SM HZ CLR 23/19 A3001 790 78 1900 110/05 RMK AO2
14837KMSN MSN20060712213009507/12/06 21:30:31  5-MIN KMSN 130330Z 11005KT 6SM HZ CLR 22/19 A3001 780 81 1800 110/05 RMK AO2
14837KMSN MSN20060712213509507/12/06 21:35:31  5-MIN KMSN 130335Z 11007KT 6SM HZ CLR 22/19 A3001 790 81 1800 100/07 RMK AO2
14837KMSN MSN20060712214009507/12/06 21:40:31  5-MIN KMSN 130340Z 11007KT 6SM HZ CLR 22/19 A3001 790 81 1800 110/07 RMK AO2
14837KMSN MSN20060712214509507/12/06 21:45:31  5-MIN KMSN 130345Z 11006KT 6SM HZ CLR 22/19 A3001 790 81 1800 110/06 RMK AO2
14837KMSN MSN20060712215011207/12/06 21:50:31  5-MIN KMSN 130350Z 11006KT 6SM HZ CLR 22/18 A3001 790 78 1800 110/06 RMK AO2 SLP156 T02220183
14837KMSN MSN20060712215509507/12/06 21:55:31  5-MIN KMSN 130355Z 11006KT 6SM HZ CLR 22/18 A3001 790 78 1800 110/06 RMK AO2
14837KMSN MSN20060712220009507/12/06 22:00:31  5-MIN KMSN 130400Z 11006KT 6SM HZ CLR 22/18 A3001 780 81 1800 110/06 RMK AO2
14837KMSN MSN20060712220509507/12/06 22:05:31  5-MIN KMSN 130405Z 11006KT 6SM HZ CLR 22/18 A3001 780 81 1800 110/06 RMK AO2
14837KMSN MSN20060712221009507/12/06 22:10:31  5-MIN KMSN 130410Z 11006KT 6SM HZ CLR 22/18 A3001 780 81 1800 110/06 RMK AO2
14837KMSN MSN20060712221509507/12/06 22:15:31  5-MIN KMSN 130415Z 10006KT 6SM HZ CLR 22/18 A3001 780 81 1800 100/06 RMK AO2
14837KMSN MSN20060712222009507/12/06 22:20:31  5-MIN KMSN 130420Z 10006KT 6SM HZ CLR 22/18 A3001 780 81 1800 100/06 RMK AO2
14837KMSN MSN20060712222509507/12/06 22:25:31  5-MIN KMSN 130425Z 10006KT 6SM HZ CLR 22/18 A3001 780 81 1800 100/06 RMK AO2
14837KMSN MSN20060712223009507/12/06 22:30:31  5-MIN KMSN 130430Z 10006KT 6SM HZ CLR 22/18 A3001 790 81 1800 100/06 RMK AO2
14837KMSN MSN20060712223509507/12/06 22:35:31  5-MIN KMSN 130435Z 10005KT 6SM HZ CLR 22/18 A3001 780 81 1800 100/05 RMK AO2
14837KMSN MSN20060712224009507/12/06 22:40:31  5-MIN KMSN 130440Z 11005KT 6SM HZ CLR 22/18 A3001 780 81 1800 110/05 RMK AO2
14837KMSN MSN20060712224509507/12/06 22:45:31  5-MIN KMSN 130445Z 10004KT 6SM HZ CLR 22/18 A3001 790 81 1800 100/04 RMK AO2
14837KMSN MSN20060712225011207/12/06 22:50:31  5-MIN KMSN 130450Z 11004KT 6SM HZ CLR 22/18 A3001 780 81 1800 100/04 RMK AO2 SLP156 T02170183
14837KMSN MSN20060712225509507/12/06 22:55:31  5-MIN KMSN 130455Z 10003KT 6SM HZ CLR 22/18 A3001 780 81 1800 090/03 RMK AO2
14837KMSN MSN20060712230009507/12/06 23:00:31  5-MIN KMSN 130500Z 10003KT 6SM HZ CLR 22/18 A3001 780 81 1800 100/03 RMK AO2
14837KMSN MSN20060712230509507/12/06 23:05:31  5-MIN KMSN 130505Z 11003KT 6SM HZ CLR 22/18 A3001 780 81 1800 110/03 RMK AO2
14837KMSN MSN20060712231009507/12/06 23:10:31  5-MIN KMSN 130510Z 11003KT 6SM HZ CLR 22/18 A3001 780 81 1800 110/03 RMK AO2
14837KMSN MSN20060712231509707/12/06 23:15:31  5-MIN KMSN 130515Z 11003KT 6SM HZ CLR 22/18 A3001 780 81 1800 110/03 RMK AO2 $
14837KMSN MSN20060712232009707/12/06 23:20:31  5-MIN KMSN 130520Z 11003KT 6SM HZ CLR 22/18 A3001 780 81 1800 110/03 RMK AO2 $
14837KMSN MSN20060712232509707/12/06 23:25:31  5-MIN KMSN 130525Z 11003KT 6SM HZ CLR 22/18 A3001 780 81 1800 110/03 RMK AO2 $
14837KMSN MSN20060712233009707/12/06 23:30:31  5-MIN KMSN 130530Z 10004KT 6SM HZ CLR 22/18 A3001 780 78 1800 100/04 RMK AO2 $
14837KMSN MSN20060712233509707/12/06 23:35:31  5-MIN KMSN 130535Z 10004KT 6SM HZ CLR 21/18 A3001 780 81 1700 100/04 RMK AO2 $
14837KMSN MSN20060712234009707/12/06 23:40:31  5-MIN KMSN 130540Z 10004KT 6SM HZ CLR 21/18 A3001 780 81 1700 100/04 RMK AO2 $
14837KMSN MSN20060712234509707/12/06 23:45:31  5-MIN KMSN 130545Z 10004KT 6SM HZ CLR 21/18 A3001 780 81 1700 090/04 RMK AO2 $
14837KMSN MSN20060712235014207/12/06 23:50:31  5-MIN KMSN 130550Z 09003KT 6SM HZ CLR 22/18 A3001 780 78 1800 090/03 RMK AO2 SLP156 T02170178 10278 20211 402890178 53010 $
14837KMSN MSN20060712235509707/12/06 23:55:31  5-MIN KMSN 130555Z 10003KT 6SM HZ CLR 21/18 A3000 790 81 1700 100/03 RMK AO2 $
14837KMSN MSN20060713000009707/13/06 00:00:38  5-MIN KMSN 130600Z 10003KT 6SM HZ CLR 21/18 A3000 790 84 1700 100/03 RMK AO2 $
14837KMSN MSN20060713000509707/13/06 00:05:31  5-MIN KMSN 130605Z 13003KT 6SM HZ CLR 20/17 A3000 790 84 1600 120/03 RMK AO2 $
14837KMSN MSN20060713001009707/13/06 00:10:31  5-MIN KMSN 130610Z 13004KT 5SM BR CLR 20/18 A3000 790 87 1600 130/04 RMK AO2 $
14837KMSN MSN20060713001509707/13/06 00:15:32  5-MIN KMSN 130615Z 14004KT 6SM HZ CLR 21/18 A3000 790 84 1700 140/04 RMK AO2 $
14837KMSN MSN20060713002009707/13/06 00:20:31  5-MIN KMSN 130620Z 16003KT 6SM HZ CLR 21/18 A3000 790 81 1700 160/03 RMK AO2 $
14837KMSN MSN20060713002509507/13/06 00:25:31  5-MIN KMSN 130625Z 00000KT 5SM HZ CLR 20/17 A3000 790 84 1600 000/00 RMK AO2
14837KMSN MSN20060713003009507/13/06 00:30:31  5-MIN KMSN 130630Z 00000KT 5SM BR CLR 19/17 A3001 780 87 1500 000/00 RMK AO2
14837KMSN MSN20060713003509507/13/06 00:35:31  5-MIN KMSN 130635Z 00000KT 4SM BR CLR 19/17 A3001 780 90 1500 000/00 RMK AO2
14837KMSN MSN20060713004009507/13/06 00:40:31  5-MIN KMSN 130640Z 17005KT 4SM BR CLR 19/18 A3001 780 90 1500 170/05 RMK AO2
14837KMSN MSN20060713004509507/13/06 00:45:31  5-MIN KMSN 130645Z 16005KT 5SM HZ CLR 21/18 A3001 790 84 1700 160/05 RMK AO2
14837KMSN MSN20060713005011207/13/06 00:50:31  5-MIN KMSN 130650Z 18003KT 5SM BR CLR 21/18 A3001 790 87 1700 180/03 RMK AO2 SLP156 T02060183
14837KMSN MSN20060713005509507/13/06 00:55:31  5-MIN KMSN 130655Z 00000KT 5SM BR CLR 20/18 A3001 790 87 1600 000/00 RMK AO2
14837KMSN MSN20060713010009507/13/06 01:00:31  5-MIN KMSN 130700Z 00000KT 4SM BR CLR 19/18 A3001 790 93 1500 000/00 RMK AO2
14837KMSN MSN20060713010509507/13/06 01:05:31  5-MIN KMSN 130705Z 19004KT 4SM BR CLR 19/18 A3001 780 93 1500 180/04 RMK AO2
14837KMSN MSN20060713011009507/13/06 01:10:31  5-MIN KMSN 130710Z 19005KT 4SM BR CLR 20/18 A3001 780 90 1600 190/05 RMK AO2
14837KMSN MSN20060713011509507/13/06 01:15:31  5-MIN KMSN 130715Z 19006KT 5SM BR CLR 21/18 A3001 780 87 1600 180/06 RMK AO2
14837KMSN MSN20060713012009507/13/06 01:20:31  5-MIN KMSN 130720Z 18006KT 5SM BR CLR 21/18 A3001 780 87 1600 180/06 RMK AO2
14837KMSN MSN20060713012509507/13/06 01:25:31  5-MIN KMSN 130725Z 18006KT 4SM BR CLR 21/18 A3001 780 87 1600 180/06 RMK AO2
14837KMSN MSN20060713013009507/13/06 01:30:31  5-MIN KMSN 130730Z 18007KT 4SM BR CLR 20/18 A3001 780 90 1600 180/07 RMK AO2
14837KMSN MSN20060713013509507/13/06 01:35:31  5-MIN KMSN 130735Z 18006KT 4SM BR CLR 20/18 A3001 780 90 1600 180/06 RMK AO2
14837KMSN MSN20060713014009507/13/06 01:40:31  5-MIN KMSN 130740Z 18005KT 4SM BR CLR 20/18 A3001 790 90 1600 180/05 RMK AO2
14837KMSN MSN20060713014509507/13/06 01:45:31  5-MIN KMSN 130745Z 18006KT 4SM BR CLR 20/18 A3000 790 90 1600 180/06 RMK AO2
14837KMSN MSN20060713015011207/13/06 01:50:31  5-MIN KMSN 130750Z 18006KT 5SM BR CLR 20/18 A3000 790 90 1600 180/06 RMK AO2 SLP154 T02000183
14837KMSN MSN20060713015509507/13/06 01:55:31  5-MIN KMSN 130755Z 18006KT 4SM BR CLR 20/18 A3000 790 90 1600 180/06 RMK AO2
14837KMSN MSN20060713020009507/13/06 02:00:31  5-MIN KMSN 130800Z 18006KT 4SM BR CLR 20/19 A3000 790 93 1600 180/06 RMK AO2
14837KMSN MSN20060713020509507/13/06 02:05:31  5-MIN KMSN 130805Z 18006KT 4SM BR CLR 20/19 A3000 790 93 1600 180/06 RMK AO2
14837KMSN MSN20060713021009507/13/06 02:10:31  5-MIN KMSN 130810Z 18005KT 4SM BR CLR 20/19 A3000 790 93 1600 180/05 RMK AO2
14837KMSN MSN20060713021509507/13/06 02:15:31  5-MIN KMSN 130815Z 18006KT 3SM BR CLR 20/19 A3000 790 93 1600 180/06 RMK AO2
14837KMSN MSN20060713022009507/13/06 02:20:31  5-MIN KMSN 130820Z 18005KT 3SM BR CLR 20/19 A3000 790 93 1600 180/05 RMK AO2
14837KMSN MSN20060713022509507/13/06 02:25:31  5-MIN KMSN 130825Z 18004KT 3SM BR CLR 20/19 A3000 790 93 1600 180/04 RMK AO2
14837KMSN MSN20060713023009507/13/06 02:30:31  5-MIN KMSN 130830Z 00000KT 3SM BR CLR 20/18 A3000 790 90 1600 000/00 RMK AO2
14837KMSN MSN20060713023509507/13/06 02:35:31  5-MIN KMSN 130835Z 00000KT 3SM BR CLR 19/18 A3000 790 93 1500 000/00 RMK AO2
14837KMSN MSN20060713024009507/13/06 02:40:31  5-MIN KMSN 130840Z 16003KT 3SM BR CLR 19/18 A3000 790 93 1500 160/03 RMK AO2
14837KMSN MSN20060713024509507/13/06 02:45:31  5-MIN KMSN 130845Z 16003KT 3SM BR CLR 19/18 A3000 790 93 1500 160/03 RMK AO2
14837KMSN MSN20060713025011807/13/06 02:50:31  5-MIN KMSN 130850Z 16003KT 4SM BR CLR 19/18 A3001 780 93 1500 160/03 RMK AO2 SLP156 T01940183 50002
14837KMSN MSN20060713025509507/13/06 02:55:31  5-MIN KMSN 130855Z 16003KT 3SM BR CLR 19/18 A3001 790 93 1500 160/03 RMK AO2
14837KMSN MSN20060713030009507/13/06 03:00:31  5-MIN KMSN 130900Z 16003KT 3SM BR CLR 19/18 A3001 780 93 1500 160/03 RMK AO2
14837KMSN MSN20060713030509507/13/06 03:05:31  5-MIN KMSN 130905Z 00000KT 4SM BR CLR 18/18 A3001 780 96 1400 000/00 RMK AO2
14837KMSN MSN20060713031009507/13/06 03:10:31  5-MIN KMSN 130910Z 00000KT 4SM BR CLR 18/17 A3001 780 93 1400 000/00 RMK AO2
14837KMSN MSN20060713031509507/13/06 03:15:31  5-MIN KMSN 130915Z 00000KT 4SM BR CLR 18/17 A3001 780 93 1400 000/00 RMK AO2
14837KMSN MSN20060713032009507/13/06 03:20:31  5-MIN KMSN 130920Z 00000KT 4SM BR CLR 18/18 A3001 780 96 1400 000/00 RMK AO2
14837KMSN MSN20060713032509507/13/06 03:25:31  5-MIN KMSN 130925Z 36003KT 4SM BR CLR 18/17 A3001 780 96 1300 360/03 RMK AO2
14837KMSN MSN20060713033009507/13/06 03:30:31  5-MIN KMSN 130930Z 34003KT 4SM BR CLR 18/17 A3001 780 96 1300 340/03 RMK AO2
14837KMSN MSN20060713033509507/13/06 03:35:31  5-MIN KMSN 130935Z 33003KT 4SM BR CLR 18/17 A3001 780 96 1300 330/03 RMK AO2
14837KMSN MSN20060713034009907/13/06 03:40:31  5-MIN KMSN 130940Z 00000KT 1 1/2SM BR CLR 18/17 A3001 780 96 1300 000/00 RMK AO2
14837KMSN MSN20060713034509907/13/06 03:45:31  5-MIN KMSN 130945Z 00000KT 1 1/2SM BR CLR 18/17 A3001 780 96 1300 000/00 RMK AO2
14837KMSN MSN20060713035011607/13/06 03:50:31  5-MIN KMSN 130950Z 00000KT 1 3/4SM BR CLR 18/17 A3001 780 96 1300 000/00 RMK AO2 SLP157 T01780172
14837KMSN MSN20060713035509907/13/06 03:55:31  5-MIN KMSN 130955Z 00000KT 1 3/4SM BR CLR 18/17 A3001 780 96 1300 000/00 RMK AO2
14837KMSN MSN20060713040009907/13/06 04:00:31  5-MIN KMSN 131000Z 00000KT 1 3/4SM BR CLR 18/17 A3002 780 96 1300 000/00 RMK AO2
14837KMSN MSN20060713040509907/13/06 04:05:31  5-MIN KMSN 131005Z 00000KT 1 3/4SM BR CLR 18/17 A3002 770 96 1300 000/00 RMK AO2
14837KMSN MSN20060713041009907/13/06 04:10:31  5-MIN KMSN 131010Z 00000KT 1 1/4SM BR CLR 18/17 A3002 780 96 1300 000/00 RMK AO2
14837KMSN MSN20060713041509507/13/06 04:15:31  5-MIN KMSN 131015Z 34003KT 1SM BR CLR 18/17 A3002 780 96 1300 340/03 RMK AO2
14837KMSN MSN20060713042009507/13/06 04:20:31  5-MIN KMSN 131020Z 00000KT 1SM BR CLR 17/17 A3002 780 96 1300 000/00 RMK AO2
14837KMSN MSN20060713042509507/13/06 04:25:31  5-MIN KMSN 131025Z 36003KT 1SM BR CLR 17/16 A3002 780 96 1200 360/03 RMK AO2
14837KMSN MSN20060713043010707/13/06 04:30:31  5-MIN KMSN 131030Z 34003KT 1/2SM FG FEW001 SCT009 17/16 A3002 770 96 1200 340/03 RMK AO2
14837KMSN MSN20060713043510707/13/06 04:35:31  5-MIN KMSN 131035Z 33004KT 1/2SM FG FEW001 BKN009 17/16 A3002 770 96 1200 330/04 RMK AO2
14837KMSN MSN20060713044010807/13/06 04:40:31  5-MIN KMSN 131040Z 00000KT 1/2SM FG FEW001 BKN009 17/17 A3002 770 100 1200 000/00 RMK AO2
14837KMSN MSN20060713044510707/13/06 04:45:31  5-MIN KMSN 131045Z 00000KT 1/2SM FG FEW001 BKN009 17/17 A3002 770 96 1300 000/00 RMK AO2
14837KMSN MSN20060713045010707/13/06 04:50:31  5-MIN KMSN 131050Z 36003KT 3/4SM BR FEW001 SCT009 17/17 A3002 770 96 1300 360/03 RMK AO2
14837KMSN MSN20060713045510707/13/06 04:55:31  5-MIN KMSN 131055Z 00000KT 3/4SM BR FEW001 BKN009 17/17 A3002 770 96 1300 000/00 RMK AO2
14837KMSN MSN20060713050012007/13/06 05:00:31  5-MIN KMSN 131100Z 00000KT 1/2SM FG FEW001 BKN009 17/17 A3002 770 100 1200 000/00 RMK AO2 TWR VIS 3/4
14837KMSN MSN20060713050510707/13/06 05:05:31  5-MIN KMSN 131105Z 00000KT 3/4SM BR FEW001 SCT007 17/16 A3002 770 96 1200 000/00 RMK AO2
14837KMSN MSN20060713051010107/13/06 05:10:31  5-MIN KMSN 131110Z 00000KT 3/4SM BR FEW001 17/17 A3002 770 100 1200 000/00 RMK AO2
14837KMSN MSN20060713051510707/13/06 05:15:31  5-MIN KMSN 131115Z 00000KT 3/4SM BR FEW001 SCT007 17/17 A3002 770 96 1300 000/00 RMK AO2
14837KMSN MSN20060713052010707/13/06 05:20:31  5-MIN KMSN 131120Z 00000KT 3/4SM BR FEW001 SCT007 17/17 A3002 770 96 1300 000/00 RMK AO2
14837KMSN MSN20060713052510207/13/06 05:25:31  5-MIN KMSN 131125Z 00000KT 1 1/4SM BR FEW006 17/17 A3002 770 96 1300 000/00 RMK AO2
14837KMSN MSN20060713053010207/13/06 05:30:31  5-MIN KMSN 131130Z 00000KT 1 1/4SM BR FEW006 18/17 A3002 770 96 1300 000/00 RMK AO2
14837KMSN MSN20060713053509907/13/06 05:35:31  5-MIN KMSN 131135Z 00000KT 1 1/4SM BR CLR 18/17 A3002 770 96 1300 000/00 RMK AO2
14837KMSN MSN20060713054010907/13/06 05:40:31  5-MIN KMSN 131140Z 00000KT 1 1/4SM BR CLR 18/17 A3002 770 96 1300 000/00 RMK AO2 SFC VIS 2
14837KMSN MSN20060713054509507/13/06 05:45:31  5-MIN KMSN 131145Z 00000KT 2SM BR CLR 18/18 A3002 770 96 1400 000/00 RMK AO2
14837KMSN MSN20060713055013007/13/06 05:50:31  5-MIN KMSN 131150Z 00000KT 2SM BR CLR 18/18 A3002 770 96 1400 000/00 RMK AO2 SLP161 T01830178 10211 20167 51004
14837KMSN MSN20060713055509507/13/06 05:55:31  5-MIN KMSN 131155Z 00000KT 2SM BR CLR 19/18 A3002 770 93 1400 000/00 RMK AO2
14837KMSN MSN20060713060009507/13/06 06:00:31  5-MIN KMSN 131200Z 00000KT 2SM BR CLR 19/18 A3002 770 93 1400 000/00 RMK AO2
14837KMSN MSN20060713060509507/13/06 06:05:31  5-MIN KMSN 131205Z 00000KT 2SM BR CLR 19/18 A3002 770 90 1500 000/00 RMK AO2
14837KMSN MSN20060713061009507/13/06 06:10:31  5-MIN KMSN 131210Z 00000KT 2SM BR CLR 20/18 A3002 780 90 1600 000/00 RMK AO2
14837KMSN MSN20060713061509507/13/06 06:15:31  5-MIN KMSN 131215Z 00000KT 2SM BR CLR 20/18 A3002 770 90 1600 000/00 RMK AO2
14837KMSN MSN20060713062009507/13/06 06:20:31  5-MIN KMSN 131220Z 00000KT 2SM BR CLR 21/18 A3002 770 87 1600 000/00 RMK AO2
14837KMSN MSN20060713062509507/13/06 06:25:31  5-MIN KMSN 131225Z 00000KT 2SM BR CLR 21/18 A3002 770 87 1600 000/00 RMK AO2
14837KMSN MSN20060713063009507/13/06 06:30:31  5-MIN KMSN 131230Z 00000KT 2SM BR CLR 21/18 A3002 770 87 1600 000/00 RMK AO2
14837KMSN MSN20060713063509507/13/06 06:35:31  5-MIN KMSN 131235Z 00000KT 2SM BR CLR 21/19 A3002 770 87 1700 000/00 RMK AO2
14837KMSN MSN20060713064010507/13/06 06:40:31  5-MIN KMSN 131240Z 00000KT 2SM BR CLR 21/19 A3002 770 87 1700 000/00 RMK AO2 SFC VIS 3
14837KMSN MSN20060713064510507/13/06 06:45:31  5-MIN KMSN 131245Z 00000KT 2SM HZ CLR 22/18 A3002 770 81 1800 000/00 RMK AO2 SFC VIS 3
14837KMSN MSN20060713065010507/13/06 06:50:31  5-MIN KMSN 131250Z 00000KT 3SM HZ CLR 22/18 A3002 770 81 1800 000/00 RMK AO2 TWR VIS 4
14837KMSN MSN20060713065510507/13/06 06:55:31  5-MIN KMSN 131255Z 00000KT 3SM HZ CLR 22/18 A3002 770 81 1800 000/00 RMK AO2 TWR VIS 4
14837KMSN MSN20060713070010507/13/06 07:00:31  5-MIN KMSN 131300Z 00000KT 3SM HZ CLR 22/19 A3002 770 81 1800 000/00 RMK AO2 TWR VIS 4
14837KMSN MSN20060713070510507/13/06 07:05:31  5-MIN KMSN 131305Z 00000KT 3SM HZ CLR 22/19 A3002 770 81 1800 000/00 RMK AO2 TWR VIS 4
14837KMSN MSN20060713071010507/13/06 07:10:31  5-MIN KMSN 131310Z 00000KT 3SM HZ CLR 22/19 A3002 770 81 1800 000/00 RMK AO2 TWR VIS 4
14837KMSN MSN20060713071509507/13/06 07:15:31  5-MIN KMSN 131315Z 00000KT 4SM HZ CLR 22/18 A3002 770 78 1800 000/00 RMK AO2
14837KMSN MSN20060713072009507/13/06 07:20:31  5-MIN KMSN 131320Z VRB03KT 4SM HZ CLR 22/19 A3002 770 81 1800 VRB/03 RMK AO2
14837KMSN MSN20060713072509507/13/06 07:25:31  5-MIN KMSN 131325Z VRB03KT 4SM HZ CLR 23/19 A3002 770 78 1900 VRB/03 RMK AO2
14837KMSN MSN20060713073009507/13/06 07:30:31  5-MIN KMSN 131330Z 19003KT 4SM HZ CLR 23/19 A3003 770 76 1900 190/03 RMK AO2
14837KMSN MSN20060713073509507/13/06 07:35:31  5-MIN KMSN 131335Z 00000KT 4SM HZ CLR 23/19 A3003 770 76 1900 000/00 RMK AO2
14837KMSN MSN20060713074009507/13/06 07:40:31  5-MIN KMSN 131340Z VRB03KT 4SM HZ CLR 23/19 A3003 770 76 1900 VRB/03 RMK AO2
14837KMSN MSN20060713074509507/13/06 07:45:31  5-MIN KMSN 131345Z 00000KT 4SM HZ CLR 23/19 A3003 770 76 1900 000/00 RMK AO2
14837KMSN MSN20060713075011207/13/06 07:50:31  5-MIN KMSN 131350Z 00000KT 4SM HZ CLR 24/19 A3003 760 73 2000 000/00 RMK AO2 SLP164 T02390189
14837KMSN MSN20060713075509507/13/06 07:55:31  5-MIN KMSN 131355Z 00000KT 5SM HZ CLR 24/18 A3003 770 71 2000 000/00 RMK AO2
14837KMSN MSN20060713080009507/13/06 08:00:31  5-MIN KMSN 131400Z VRB03KT 5SM HZ CLR 24/19 A3003 760 73 2000 VRB/03 RMK AO2
14837KMSN MSN20060713080509507/13/06 08:05:31  5-MIN KMSN 131405Z 17003KT 5SM HZ CLR 24/19 A3003 760 73 2000 170/03 RMK AO2
14837KMSN MSN20060713081009507/13/06 08:10:31  5-MIN KMSN 131410Z 13004KT 5SM HZ CLR 24/19 A3003 760 73 2000 130/04 RMK AO2
14837KMSN MSN20060713081509507/13/06 08:15:31  5-MIN KMSN 131415Z 14006KT 5SM HZ CLR 24/19 A3003 760 71 2100 140/06 RMK AO2
14837KMSN MSN20060713082009507/13/06 08:20:31  5-MIN KMSN 131420Z 16004KT 5SM HZ CLR 24/19 A3003 760 71 2100 160/04 RMK AO2
14837KMSN MSN20060713082509507/13/06 08:25:31  5-MIN KMSN 131425Z 00000KT 5SM HZ CLR 24/19 A3003 760 71 2100 000/00 RMK AO2
14837KMSN MSN20060713083009507/13/06 08:30:31  5-MIN KMSN 131430Z 13006KT 6SM HZ CLR 25/19 A3003 760 68 2100 120/06 RMK AO2
14837KMSN MSN20060713083509507/13/06 08:35:31  5-MIN KMSN 131435Z 15006KT 6SM HZ CLR 25/19 A3003 770 71 2100 150/06 RMK AO2
14837KMSN MSN20060713084009507/13/06 08:40:31  5-MIN KMSN 131440Z 17006KT 6SM HZ CLR 25/19 A3003 770 71 2100 170/06 RMK AO2
14837KMSN MSN20060713084509207/13/06 08:45:31  5-MIN KMSN 131445Z 17007KT 7SM CLR 26/19 A3003 770 68 2200 170/07 RMK AO2
14837KMSN MSN20060713085011507/13/06 08:50:31  5-MIN KMSN 131450Z 16006KT 7SM CLR 26/19 A3002 770 68 2200 160/06 RMK AO2 SLP162 T02560194 51003
14837KMSN MSN20060713085509507/13/06 08:55:31  5-MIN KMSN 131455Z 17007KT 7SM FEW025 26/19 A3002 770 68 2200 170/07 RMK AO2
14837KMSN MSN20060713090010207/13/06 09:00:31  5-MIN KMSN 131500Z 17008KT 7SM SCT025 SCT030 25/19 A3002 770 71 2100 170/08 RMK AO2
14837KMSN MSN20060713090510207/13/06 09:05:31  5-MIN KMSN 131505Z 19008KT 7SM BKN025 BKN030 26/19 A3002 770 68 2200 190/08 RMK AO2
14837KMSN MSN20060713091009507/13/06 09:10:31  5-MIN KMSN 131510Z 17007KT 7SM BKN027 26/19 A3002 770 68 2200 170/07 RMK AO2
14837KMSN MSN20060713091509507/13/06 09:15:31  5-MIN KMSN 131515Z 20006KT 7SM BKN027 26/19 A3002 770 68 2200 190/06 RMK AO2
14837KMSN MSN20060713092009507/13/06 09:20:31  5-MIN KMSN 131520Z 19008KT 7SM OVC027 26/19 A3002 770 68 2200 190/08 RMK AO2
14837KMSN MSN20060713092509507/13/06 09:25:31  5-MIN KMSN 131525Z 18006KT 7SM OVC027 26/19 A3003 770 68 2200 180/06 RMK AO2
14837KMSN MSN20060713093010207/13/06 09:30:31  5-MIN KMSN 131530Z 16007KT 7SM BKN025 OVC031 26/20 A3002 770 68 2300 160/07 RMK AO2
14837KMSN MSN20060713093509507/13/06 09:35:31  5-MIN KMSN 131535Z 16008KT 7SM BKN028 27/20 A3002 770 66 2300 160/08 RMK AO2
14837KMSN MSN20060713094009507/13/06 09:40:31  5-MIN KMSN 131540Z 17006KT 7SM BKN028 27/20 A3002 770 66 2300 170/06 RMK AO2
14837KMSN MSN20060713094510207/13/06 09:45:31  5-MIN KMSN 131545Z 17008KT 7SM SCT025 BKN030 27/21 A3002 770 69 2300 170/08 RMK AO2
14837KMSN MSN20060713095011907/13/06 09:50:31  5-MIN KMSN 131550Z 17009KT 8SM BKN025 BKN030 27/20 A3002 770 66 2300 170/09 RMK AO2 SLP160 T02670200
14837KMSN MSN20060713095510207/13/06 09:55:31  5-MIN KMSN 131555Z 19006KT 8SM SCT025 BKN030 27/20 A3002 780 66 2300 190/06 RMK AO2
14837KMSN MSN20060713100009507/13/06 10:00:31  5-MIN KMSN 131600Z 13008KT 8SM SCT025 27/21 A3002 780 66 2400 130/08 RMK AO2
14837KMSN MSN20060713100509507/13/06 10:05:31  5-MIN KMSN 131605Z 17010KT 8SM BKN025 26/20 A3001 780 68 2300 170/10 RMK AO2
14837KMSN MSN20060713101009507/13/06 10:10:31  5-MIN KMSN 131610Z 15008KT 8SM BKN025 27/21 A3002 780 69 2300 150/08 RMK AO2
14837KMSN MSN20060713101510207/13/06 10:15:31  5-MIN KMSN 131615Z 16010KT 8SM BKN027 BKN033 27/21 A3002 780 66 2400 150/10 RMK AO2
14837KMSN MSN20060713102010207/13/06 10:20:31  5-MIN KMSN 131620Z 15008KT 7SM BKN027 BKN036 26/20 A3001 780 68 2300 150/08 RMK AO2
14837KMSN MSN20060713102510207/13/06 10:25:31  5-MIN KMSN 131625Z 16009KT 7SM SCT027 BKN036 27/20 A3002 780 66 2300 160/09 RMK AO2
14837KMSN MSN20060713103010207/13/06 10:30:31  5-MIN KMSN 131630Z 15006KT 8SM BKN027 BKN036 26/20 A3002 780 68 2300 150/06 RMK AO2
14837KMSN MSN20060713103510207/13/06 10:35:31  5-MIN KMSN 131635Z 18008KT 8SM BKN027 BKN036 27/20 A3002 770 66 2300 180/08 RMK AO2
14837KMSN MSN20060713104010207/13/06 10:40:31  5-MIN KMSN 131640Z 15007KT 8SM SCT027 BKN038 27/21 A3002 770 66 2400 140/07 RMK AO2
14837KMSN MSN20060713104510907/13/06 10:45:31  5-MIN KMSN 131645Z 16010KT 8SM FEW027 SCT035 SCT042 27/20 A3002 770 64 2400 160/10 RMK AO2
14837KMSN MSN20060713105011907/13/06 10:50:31  5-MIN KMSN 131650Z 17007KT 8SM SCT029 BKN038 27/20 A3002 770 66 2300 170/07 RMK AO2 SLP160 T02670200
14837KMSN MSN20060713105510207/13/06 10:55:31  5-MIN KMSN 131655Z 17009KT 8SM SCT029 BKN038 27/21 A3002 780 66 2400 170/09 RMK AO2
14837KMSN MSN20060713110010207/13/06 11:00:31  5-MIN KMSN 131700Z 17010KT 8SM FEW029 BKN040 27/20 A3001 780 66 2300 170/10 RMK AO2
14837KMSN MSN20060713110510207/13/06 11:05:31  5-MIN KMSN 131705Z 14009KT 8SM FEW029 BKN038 27/20 A3001 780 66 2300 140/09 RMK AO2
14837KMSN MSN20060713111010207/13/06 11:10:31  5-MIN KMSN 131710Z 20006KT 8SM FEW029 BKN038 27/20 A3001 780 66 2300 190/06 RMK AO2
14837KMSN MSN20060713111510207/13/06 11:15:31  5-MIN KMSN 131715Z 16009KT 8SM SCT029 BKN040 28/21 A3001 780 64 2500 160/09 RMK AO2
14837KMSN MSN20060713112010207/13/06 11:20:31  5-MIN KMSN 131720Z 17007KT 8SM FEW029 BKN038 28/21 A3001 780 64 2500 170/07 RMK AO2
14837KMSN MSN20060713112510207/13/06 11:25:31  5-MIN KMSN 131725Z 14005KT 7SM BKN034 BKN043 27/21 A3001 780 66 2400 140/05 RMK AO2
14837KMSN MSN20060713113010807/13/06 11:30:31  5-MIN KMSN 131730Z 14010G16KT 7SM BKN034 BKN043 28/21 A3001 780 64 2500 140/10G16 RMK AO2
14837KMSN MSN20060713113510807/13/06 11:35:31  5-MIN KMSN 131735Z 15010G16KT 7SM SCT032 SCT043 28/21 A3001 780 62 2500 150/10G16 RMK AO2
14837KMSN MSN20060713114009507/13/06 11:40:31  5-MIN KMSN 131740Z 17009KT 7SM FEW032 28/20 A3001 780 62 2500 170/09 RMK AO2
14837KMSN MSN20060713114509507/13/06 11:45:31  5-MIN KMSN 131745Z 16009KT 8SM BKN032 28/20 A3001 780 60 2500 160/09 RMK AO2
14837KMSN MSN20060713115013007/13/06 11:50:31  5-MIN KMSN 131750Z 14009KT 8SM BKN032 27/19 A3001 790 62 2400 140/09 RMK AO2 SLP156 T02720194 10283 20217 50000
14837KMSN MSN20060713115509507/13/06 11:55:31  5-MIN KMSN 131755Z 14008KT 8SM SCT034 28/20 A3000 790 62 2500 140/08 RMK AO2
14837KMSN MSN20060713120009507/13/06 12:00:31  5-MIN KMSN 131800Z 14007KT 8SM SCT036 28/20 A3000 790 62 2500 140/07 RMK AO2
14837KMSN MSN20060713120509507/13/06 12:05:31  5-MIN KMSN 131805Z 16008KT 8SM SCT036 28/20 A3000 790 62 2500 160/08 RMK AO2
14837KMSN MSN20060713121009507/13/06 12:10:31  5-MIN KMSN 131810Z 17010KT 8SM SCT036 28/20 A2999 800 60 2500 160/10 RMK AO2
14837KMSN MSN20060713121509507/13/06 12:15:31  5-MIN KMSN 131815Z 16008KT 9SM SCT036 28/19 A2999 800 58 2500 150/08 RMK AO2
14837KMSN MSN20060713122009507/13/06 12:20:31  5-MIN KMSN 131820Z 15010KT 9SM SCT041 28/19 A2999 800 60 2500 150/10 RMK AO2
14837KMSN MSN20060713122509507/13/06 12:25:31  5-MIN KMSN 131825Z 16010KT 9SM SCT042 29/20 A2999 800 58 2600 160/10 RMK AO2
14837KMSN MSN20060713123009507/13/06 12:30:31  5-MIN KMSN 131830Z 16010KT 9SM FEW039 29/20 A2999 800 58 2600 160/10 RMK AO2
14837KMSN MSN20060713123509507/13/06 12:35:31  5-MIN KMSN 131835Z 17008KT 9SM BKN042 29/20 A2999 800 58 2600 170/08 RMK AO2
14837KMSN MSN20060713124009507/13/06 12:40:31  5-MIN KMSN 131840Z 17009KT 9SM BKN042 29/20 A2999 800 58 2600 170/09 RMK AO2
14837KMSN MSN20060713124510307/13/06 12:45:31  5-MIN KMSN 131845Z 13010KT 10SM SCT039 BKN047 29/20 A2999 800 58 2600 130/10 RMK AO2
14837KMSN MSN20060713125011907/13/06 12:50:31  5-MIN KMSN 131850Z 12010KT 9SM SCT039 BKN047 28/20 A2999 800 60 2600 120/10 RMK AO2 SLP150 T02830200
14837KMSN MSN20060713125509607/13/06 12:55:31  5-MIN KMSN 131855Z 12009KT 10SM SCT039 28/20 A2999 800 60 2600 120/09 RMK AO2
14837KMSN MSN20060713130009607/13/06 13:00:31  5-MIN KMSN 131900Z 11007KT 10SM SCT039 28/19 A2998 800 58 2600 110/07 RMK AO2
14837KMSN MSN20060713130509607/13/06 13:05:31  5-MIN KMSN 131905Z 15010KT 10SM SCT039 29/20 A2998 810 56 2700 150/10 RMK AO2
14837KMSN MSN20060713131009607/13/06 13:10:31  5-MIN KMSN 131910Z 17009KT 10SM FEW039 29/20 A2998 810 56 2700 170/09 RMK AO2
14837KMSN MSN20060713131509607/13/06 13:15:31  5-MIN KMSN 131915Z 13010KT 10SM SCT042 29/19 A2998 810 54 2700 120/10 RMK AO2
14837KMSN MSN20060713132009607/13/06 13:20:31  5-MIN KMSN 131920Z 12010KT 10SM BKN042 29/19 A2998 810 56 2600 120/10 RMK AO2
14837KMSN MSN20060713132509607/13/06 13:25:31  5-MIN KMSN 131925Z 12010KT 10SM BKN042 28/19 A2998 810 56 2600 120/10 RMK AO2
14837KMSN MSN20060713133009607/13/06 13:30:31  5-MIN KMSN 131930Z 13011KT 10SM BKN042 29/19 A2998 810 56 2600 130/11 RMK AO2
14837KMSN MSN20060713133509607/13/06 13:35:31  5-MIN KMSN 131935Z 12007KT 10SM BKN042 28/19 A2998 810 58 2600 120/07 RMK AO2
14837KMSN MSN20060713134009607/13/06 13:40:31  5-MIN KMSN 131940Z 15011KT 10SM BKN042 28/19 A2998 810 58 2600 140/11 RMK AO2
14837KMSN MSN20060713134509607/13/06 13:45:31  5-MIN KMSN 131945Z 14008KT 10SM BKN042 28/19 A2997 820 58 2500 130/08 RMK AO2
14837KMSN MSN20060713135011307/13/06 13:50:31  5-MIN KMSN 131950Z 15010KT 10SM BKN042 29/19 A2997 820 54 2700 150/10 RMK AO2 SLP143 T02940194
14837KMSN MSN20060713135510307/13/06 13:55:31  5-MIN KMSN 131955Z 16010KT 10SM FEW042 SCT050 29/19 A2997 820 54 2700 160/10 RMK AO2
14837KMSN MSN20060713140010307/13/06 14:00:31  5-MIN KMSN 132000Z 14010KT 10SM FEW042 SCT050 29/19 A2997 820 56 2600 140/10 RMK AO2
14837KMSN MSN20060713140510307/13/06 14:05:31  5-MIN KMSN 132005Z 11008KT 10SM FEW043 SCT050 29/19 A2997 820 56 2600 110/08 RMK AO2
14837KMSN MSN20060713141010307/13/06 14:10:31  5-MIN KMSN 132010Z 13010KT 10SM SCT043 SCT050 29/19 A2996 820 56 2600 130/10 RMK AO2
14837KMSN MSN20060713141510307/13/06 14:15:31  5-MIN KMSN 132015Z 12010KT 10SM SCT043 SCT050 29/19 A2996 820 56 2600 120/10 RMK AO2
14837KMSN MSN20060713142009607/13/06 14:20:31  5-MIN KMSN 132020Z 13008KT 10SM SCT043 29/20 A2996 820 56 2700 130/08 RMK AO2
14837KMSN MSN20060713142510307/13/06 14:25:31  5-MIN KMSN 132025Z 13011KT 10SM SCT043 SCT055 29/20 A2996 830 58 2600 130/11 RMK AO2
14837KMSN MSN20060713143010307/13/06 14:30:31  5-MIN KMSN 132030Z 15010KT 10SM SCT043 BKN055 29/19 A2996 830 56 2600 150/10 RMK AO2
14837KMSN MSN20060713143510307/13/06 14:35:31  5-MIN KMSN 132035Z 14010KT 10SM BKN043 BKN055 29/19 A2996 830 54 2700 130/10 RMK AO2
14837KMSN MSN20060713144010307/13/06 14:40:31  5-MIN KMSN 132040Z 15007KT 10SM SCT045 BKN060 30/19 A2996 830 52 2800 150/07 RMK AO2
14837KMSN MSN20060713160509607/13/06 16:05:31  5-MIN KMSN 132205Z 15008KT 10SM FEW044 28/19 A2994 850 58 2600 150/08 RMK AO2
14837KMSN MSN20060713161009607/13/06 16:10:31  5-MIN KMSN 132210Z 13008KT 10SM FEW044 29/19 A2994 850 54 2700 130/08 RMK AO2
14837KMSN MSN20060713161509607/13/06 16:15:31  5-MIN KMSN 132215Z 15009KT 10SM FEW044 29/19 A2994 850 54 2700 150/09 RMK AO2
14837KMSN MSN20060713162009607/13/06 16:20:31  5-MIN KMSN 132220Z 14005KT 10SM FEW044 29/20 A2993 850 56 2700 140/05 RMK AO2
14837KMSN MSN20060713162509607/13/06 16:25:31  5-MIN KMSN 132225Z 14009KT 10SM FEW044 29/20 A2993 860 56 2700 140/09 RMK AO2
14837KMSN MSN20060713163009607/13/06 16:30:31  5-MIN KMSN 132230Z 14009KT 10SM FEW044 29/19 A2993 860 54 2700 140/09 RMK AO2
14837KMSN MSN20060713163509607/13/06 16:35:31  5-MIN KMSN 132235Z 14008KT 10SM FEW044 29/20 A2992 860 58 2700 140/08 RMK AO2
14837KMSN MSN20060713164009607/13/06 16:40:31  5-MIN KMSN 132240Z 11009KT 10SM FEW044 29/20 A2992 860 56 2700 110/09 RMK AO2
14837KMSN MSN20060713164509607/13/06 16:45:31  5-MIN KMSN 132245Z 13008KT 10SM FEW044 29/20 A2992 860 58 2700 120/08 RMK AO2
14837KMSN MSN20060713165011307/13/06 16:50:31  5-MIN KMSN 132250Z 13007KT 10SM FEW044 29/20 A2992 860 58 2700 130/07 RMK AO2 SLP127 T02890200
14837KMSN MSN20060713165509607/13/06 16:55:31  5-MIN KMSN 132255Z 13008KT 10SM FEW044 29/20 A2992 870 58 2700 130/08 RMK AO2
14837KMSN MSN20060713170009307/13/06 17:00:31  5-MIN KMSN 132300Z 14007KT 10SM CLR 29/20 A2991 870 58 2700 140/07 RMK AO2
14837KMSN MSN20060713170509607/13/06 17:05:31  5-MIN KMSN 132305Z 14009KT 10SM FEW044 29/19 A2991 870 56 2700 140/09 RMK AO2
14837KMSN MSN20060713171009607/13/06 17:10:31  5-MIN KMSN 132310Z 13006KT 10SM FEW044 28/19 A2991 880 58 2600 130/06 RMK AO2
14837KMSN MSN20060713171509607/13/06 17:15:31  5-MIN KMSN 132315Z 14008KT 10SM FEW044 29/19 A2991 870 56 2700 140/08 RMK AO2
14837KMSN MSN20060713172009607/13/06 17:20:31  5-MIN KMSN 132320Z 13006KT 10SM FEW044 29/20 A2991 870 58 2700 130/06 RMK AO2
14837KMSN MSN20060713172509607/13/06 17:25:31  5-MIN KMSN 132325Z 15008KT 10SM FEW044 29/20 A2991 880 58 2700 150/08 RMK AO2
14837KMSN MSN20060713173009607/13/06 17:30:31  5-MIN KMSN 132330Z 12009KT 10SM FEW044 29/19 A2991 880 56 2700 120/09 RMK AO2
14837KMSN MSN20060713173509607/13/06 17:35:31  5-MIN KMSN 132335Z 12009KT 10SM FEW044 28/19 A2991 880 58 2600 120/09 RMK AO2
14837KMSN MSN20060713174009607/13/06 17:40:31  5-MIN KMSN 132340Z 13009KT 10SM FEW044 28/20 A2990 880 60 2600 120/09 RMK AO2
14837KMSN MSN20060713174509607/13/06 17:45:31  5-MIN KMSN 132345Z 13010KT 10SM FEW044 28/20 A2990 880 60 2700 130/10 RMK AO2
14837KMSN MSN20060713175013107/13/06 17:50:31  5-MIN KMSN 132350Z 13009KT 10SM FEW044 28/20 A2989 890 60 2700 130/09 RMK AO2 SLP117 T02830200 10300 20278 56015
14837KMSN MSN20060713175509307/13/06 17:55:31  5-MIN KMSN 132355Z 13010KT 10SM CLR 28/20 A2989 890 60 2700 120/10 RMK AO2
14837KMSN MSN20060713180009307/13/06 18:00:31  5-MIN KMSN 140000Z 13010KT 10SM CLR 28/20 A2989 890 60 2700 130/10 RMK AO2
14837KMSN MSN20060713180509307/13/06 18:05:31  5-MIN KMSN 140005Z 14009KT 10SM CLR 28/19 A2989 890 58 2700 140/09 RMK AO2
14837KMSN MSN20060713181009607/13/06 18:10:31  5-MIN KMSN 140010Z 14008KT 10SM FEW042 28/20 A2989 890 60 2700 140/08 RMK AO2
14837KMSN MSN20060713181509607/13/06 18:15:31  5-MIN KMSN 140015Z 12008KT 10SM SCT042 28/20 A2989 890 60 2700 120/08 RMK AO2
14837KMSN MSN20060713182009607/13/06 18:20:31  5-MIN KMSN 140020Z 12009KT 10SM FEW042 28/20 A2989 890 60 2700 120/09 RMK AO2
14837KMSN MSN20060713182509607/13/06 18:25:31  5-MIN KMSN 140025Z 12010KT 10SM FEW042 28/20 A2989 900 62 2600 120/10 RMK AO2
14837KMSN MSN20060713183009607/13/06 18:30:31  5-MIN KMSN 140030Z 13009KT 10SM FEW042 28/20 A2989 890 62 2600 130/09 RMK AO2
14837KMSN MSN20060713183509607/13/06 18:35:31  5-MIN KMSN 140035Z 13008KT 10SM FEW042 28/20 A2989 900 62 2600 130/08 RMK AO2
14837KMSN MSN20060713184009507/13/06 18:40:31  5-MIN KMSN 140040Z 13009KT 9SM FEW042 27/20 A2989 900 64 2500 130/09 RMK AO2
14837KMSN MSN20060713184509507/13/06 18:45:31  5-MIN KMSN 140045Z 16007KT 9SM FEW042 27/20 A2989 890 64 2500 150/07 RMK AO2
14837KMSN MSN20060713185011207/13/06 18:50:31  5-MIN KMSN 140050Z 15007KT 9SM FEW042 27/20 A2989 890 64 2500 140/07 RMK AO2 SLP116 T02720200
14837KMSN MSN20060713185509507/13/06 18:55:31  5-MIN KMSN 140055Z 15006KT 9SM FEW040 27/21 A2989 890 66 2500 150/06 RMK AO2
14837KMSN MSN20060713190009507/13/06 19:00:31  5-MIN KMSN 140100Z 16006KT 8SM FEW042 27/21 A2989 890 66 2500 160/06 RMK AO2
14837KMSN MSN20060713190509507/13/06 19:05:31  5-MIN KMSN 140105Z 17007KT 8SM FEW040 27/20 A2990 880 64 2500 170/07 RMK AO2
14837KMSN MSN20060713191009507/13/06 19:10:31  5-MIN KMSN 140110Z 17006KT 8SM SCT040 28/21 A2990 880 64 2600 170/06 RMK AO2
14837KMSN MSN20060713191510207/13/06 19:15:31  5-MIN KMSN 140115Z 17005KT 8SM SCT040 SCT060 28/21 A2990 880 64 2600 170/05 RMK AO2
14837KMSN MSN20060713192009507/13/06 19:20:31  5-MIN KMSN 140120Z 17005KT 8SM FEW040 27/21 A2990 890 69 2500 170/05 RMK AO2
14837KMSN MSN20060713192509507/13/06 19:25:31  5-MIN KMSN 140125Z 18005KT 7SM FEW040 27/21 A2990 880 69 2500 170/05 RMK AO2
14837KMSN MSN20060713193009507/13/06 19:30:31  5-MIN KMSN 140130Z 18005KT 7SM FEW040 27/21 A2990 880 69 2500 180/05 RMK AO2
14837KMSN MSN20060713193509507/13/06 19:35:31  5-MIN KMSN 140135Z 18004KT 7SM FEW040 27/21 A2990 880 69 2500 180/04 RMK AO2
14837KMSN MSN20060713194009507/13/06 19:40:31  5-MIN KMSN 140140Z 17005KT 7SM FEW039 27/21 A2990 880 69 2500 170/05 RMK AO2
14837KMSN MSN20060713194509507/13/06 19:45:31  5-MIN KMSN 140145Z 17004KT 7SM FEW041 26/21 A2991 880 71 2400 170/04 RMK AO2
14837KMSN MSN20060713195011207/13/06 19:50:31  5-MIN KMSN 140150Z 17005KT 7SM FEW041 26/21 A2991 880 71 2400 170/05 RMK AO2 SLP121 T02610206
14837KMSN MSN20060713195509507/13/06 19:55:31  5-MIN KMSN 140155Z 17006KT 8SM FEW041 26/21 A2991 880 71 2400 170/06 RMK AO2
14837KMSN MSN20060713200009507/13/06 20:00:31  5-MIN KMSN 140200Z 19006KT 8SM FEW041 27/21 A2991 870 69 2500 180/06 RMK AO2
14837KMSN MSN20060713200509507/13/06 20:05:31  5-MIN KMSN 140205Z 18005KT 8SM FEW041 27/21 A2991 870 69 2500 180/05 RMK AO2
14837KMSN MSN20060713201009507/13/06 20:10:31  5-MIN KMSN 140210Z 18005KT 8SM FEW041 26/21 A2991 870 71 2400 180/05 RMK AO2
14837KMSN MSN20060713201509507/13/06 20:15:31  5-MIN KMSN 140215Z 18006KT 8SM FEW042 26/21 A2991 870 73 2400 180/06 RMK AO2
14837KMSN MSN20060713202009507/13/06 20:20:31  5-MIN KMSN 140220Z 16006KT 8SM FEW042 26/21 A2991 880 76 2300 160/06 RMK AO2
14837KMSN MSN20060713202509507/13/06 20:25:31  5-MIN KMSN 140225Z 17006KT 7SM FEW042 26/21 A2991 880 76 2300 170/06 RMK AO2
14837KMSN MSN20060713203009507/13/06 20:30:31  5-MIN KMSN 140230Z 17006KT 7SM FEW042 26/21 A2991 880 76 2300 170/06 RMK AO2
14837KMSN MSN20060713203509507/13/06 20:35:31  5-MIN KMSN 140235Z 17006KT 8SM FEW042 26/21 A2991 880 76 2300 170/06 RMK AO2
14837KMSN MSN20060713204009507/13/06 20:40:31  5-MIN KMSN 140240Z 17005KT 8SM FEW042 26/21 A2991 880 76 2300 170/05 RMK AO2
14837KMSN MSN20060713204509507/13/06 20:45:31  5-MIN KMSN 140245Z 17005KT 7SM FEW042 26/21 A2991 880 76 2300 170/05 RMK AO2
14837KMSN MSN20060713205011807/13/06 20:50:31  5-MIN KMSN 140250Z 19006KT 7SM FEW042 26/21 A2991 870 73 2300 190/06 RMK AO2 SLP122 T02560206 58022
14837KMSN MSN20060713205509207/13/06 20:55:31  5-MIN KMSN 140255Z 19005KT 8SM CLR 26/21 A2991 870 73 2300 190/05 RMK AO2
14837KMSN MSN20060713210009207/13/06 21:00:31  5-MIN KMSN 140300Z 19005KT 8SM CLR 26/21 A2991 870 73 2300 190/05 RMK AO2
14837KMSN MSN20060713210509207/13/06 21:05:31  5-MIN KMSN 140305Z 19004KT 8SM CLR 26/21 A2991 870 73 2300 190/04 RMK AO2
14837KMSN MSN20060713211009207/13/06 21:10:31  5-MIN KMSN 140310Z 18004KT 8SM CLR 26/21 A2991 870 73 2300 180/04 RMK AO2
14837KMSN MSN20060713211509207/13/06 21:15:31  5-MIN KMSN 140315Z 19003KT 8SM CLR 26/21 A2991 870 73 2300 190/03 RMK AO2
14837KMSN MSN20060713212009507/13/06 21:20:31  5-MIN KMSN 140320Z 18003KT 8SM FEW080 25/21 A2991 870 76 2300 180/03 RMK AO2
14837KMSN MSN20060713212509507/13/06 21:25:31  5-MIN KMSN 140325Z 18004KT 8SM SCT075 25/21 A2992 870 79 2300 180/04 RMK AO2
14837KMSN MSN20060713213009507/13/06 21:30:31  5-MIN KMSN 140330Z 15004KT 8SM BKN075 25/21 A2992 870 79 2300 150/04 RMK AO2
14837KMSN MSN20060713213509507/13/06 21:35:31  5-MIN KMSN 140335Z 09004KT 7SM FEW075 24/21 A2992 870 78 2200 090/04 RMK AO2
14837KMSN MSN20060713214009507/13/06 21:40:31  5-MIN KMSN 140340Z 12007KT 7SM FEW075 23/21 A2991 870 84 2100 120/07 RMK AO2
14837KMSN MSN20060713214509807/13/06 21:45:31  5-MIN KMSN 140345Z 13007KT 6SM HZ FEW075 24/21 A2992 870 84 2100 130/07 RMK AO2
14837KMSN MSN20060713215011207/13/06 21:50:31  5-MIN KMSN 140350Z 13006KT 6SM HZ CLR 24/21 A2992 870 84 2100 130/06 RMK AO2 SLP124 T02390211
14837KMSN MSN20060713215509507/13/06 21:55:31  5-MIN KMSN 140355Z 13008KT 6SM HZ CLR 24/21 A2992 860 84 2100 130/08 RMK AO2
14837KMSN MSN20060713220009507/13/06 22:00:31  5-MIN KMSN 140400Z 14008KT 6SM HZ CLR 24/21 A2992 860 81 2200 140/08 RMK AO2
14837KMSN MSN20060713220509507/13/06 22:05:31  5-MIN KMSN 140405Z 15006KT 6SM HZ CLR 24/21 A2992 860 81 2100 140/06 RMK AO2
14837KMSN MSN20060713221009507/13/06 22:10:31  5-MIN KMSN 140410Z 15009KT 6SM HZ CLR 24/21 A2992 860 81 2100 150/09 RMK AO2
14837KMSN MSN20060713221509207/13/06 22:15:31  5-MIN KMSN 140415Z 16008KT 7SM CLR 24/21 A2993 860 81 2100 150/08 RMK AO2
14837KMSN MSN20060713222009207/13/06 22:20:31  5-MIN KMSN 140420Z 15008KT 7SM CLR 24/21 A2993 860 81 2100 150/08 RMK AO2
14837KMSN MSN20060713222509207/13/06 22:25:31  5-MIN KMSN 140425Z 16008KT 7SM CLR 24/21 A2993 860 81 2100 160/08 RMK AO2
14837KMSN MSN20060713223009207/13/06 22:30:31  5-MIN KMSN 140430Z 15007KT 8SM CLR 24/21 A2992 860 81 2100 150/07 RMK AO2
14837KMSN MSN20060713223509207/13/06 22:35:31  5-MIN KMSN 140435Z 15008KT 8SM CLR 24/20 A2992 860 78 2100 150/08 RMK AO2
14837KMSN MSN20060713224009207/13/06 22:40:31  5-MIN KMSN 140440Z 15007KT 8SM CLR 24/20 A2992 860 78 2100 150/07 RMK AO2
14837KMSN MSN20060713224509207/13/06 22:45:31  5-MIN KMSN 140445Z 16008KT 8SM CLR 24/20 A2992 860 78 2100 150/08 RMK AO2
14837KMSN MSN20060713225010907/13/06 22:50:31  5-MIN KMSN 140450Z 15007KT 8SM CLR 24/20 A2992 870 78 2100 150/07 RMK AO2 SLP125 T02390200
14837KMSN MSN20060713225509207/13/06 22:55:31  5-MIN KMSN 140455Z 16006KT 8SM CLR 23/20 A2992 870 81 2100 160/06 RMK AO2
14837KMSN MSN20060713230009207/13/06 23:00:31  5-MIN KMSN 140500Z 15007KT 8SM CLR 23/20 A2991 870 81 2100 150/07 RMK AO2
14837KMSN MSN20060713230509207/13/06 23:05:31  5-MIN KMSN 140505Z 15007KT 8SM CLR 23/20 A2991 880 81 2100 150/07 RMK AO2
14837KMSN MSN20060713231009207/13/06 23:10:31  5-MIN KMSN 140510Z 15007KT 8SM CLR 23/20 A2991 880 81 2100 150/07 RMK AO2
14837KMSN MSN20060713231509507/13/06 23:15:31  5-MIN KMSN 140515Z 15010KT 8SM FEW026 23/20 A2990 880 81 2100 150/10 RMK AO2
14837KMSN MSN20060713232009507/13/06 23:20:31  5-MIN KMSN 140520Z 15009KT 8SM SCT026 24/20 A2990 890 78 2200 150/09 RMK AO2
14837KMSN MSN20060713232510207/13/06 23:25:31  5-MIN KMSN 140525Z 15007KT 8SM SCT026 BKN032 23/20 A2989 890 81 2100 150/07 RMK AO2
14837KMSN MSN20060713233010207/13/06 23:30:31  5-MIN KMSN 140530Z 15008KT 8SM SCT026 SCT032 23/20 A2989 890 81 2100 150/08 RMK AO2
14837KMSN MSN20060713233509507/13/06 23:35:31  5-MIN KMSN 140535Z 15007KT 8SM SCT026 23/20 A2989 890 81 2100 150/07 RMK AO2
14837KMSN MSN20060713234009507/13/06 23:40:31  5-MIN KMSN 140540Z 15007KT 7SM FEW026 23/20 A2989 890 81 2100 150/07 RMK AO2
14837KMSN MSN20060713234509507/13/06 23:45:31  5-MIN KMSN 140545Z 16007KT 7SM FEW026 23/20 A2990 890 81 2100 160/07 RMK AO2
14837KMSN MSN20060713235014007/13/06 23:50:31  5-MIN KMSN 140550Z 16006KT 7SM FEW024 23/20 A2989 890 81 2100 160/06 RMK AO2 SLP117 T02330200 10283 20233 403000167 53006
14837KMSN MSN20060713235509507/13/06 23:55:31  5-MIN KMSN 140555Z 16006KT 7SM FEW024 23/20 A2989 890 81 2100 160/06 RMK AO2
14837KMSN MSN20060714000009207/14/06 00:00:38  5-MIN KMSN 140600Z 15006KT 7SM CLR 23/20 A2989 890 84 2000 150/06 RMK AO2
14837KMSN MSN20060714000509207/14/06 00:05:31  5-MIN KMSN 140605Z 15006KT 7SM CLR 23/20 A2989 890 84 2000 150/06 RMK AO2
14837KMSN MSN20060714001009507/14/06 00:10:31  5-MIN KMSN 140610Z 15007KT 6SM HZ CLR 23/20 A2989 890 84 2000 150/07 RMK AO2
14837KMSN MSN20060714001509507/14/06 00:15:32  5-MIN KMSN 140615Z 14006KT 6SM BR CLR 23/21 A2989 890 87 2000 140/06 RMK AO2
14837KMSN MSN20060714002009507/14/06 00:20:31  5-MIN KMSN 140620Z 13004KT 6SM HZ CLR 23/20 A2989 890 84 2000 130/04 RMK AO2
14837KMSN MSN20060714002509507/14/06 00:25:31  5-MIN KMSN 140625Z 14005KT 6SM HZ CLR 23/20 A2989 890 84 2000 140/05 RMK AO2
14837KMSN MSN20060714003009507/14/06 00:30:31  5-MIN KMSN 140630Z 14005KT 6SM BR CLR 22/20 A2990 890 87 2000 140/05 RMK AO2
14837KMSN MSN20060714003509507/14/06 00:35:31  5-MIN KMSN 140635Z 13006KT 6SM HZ CLR 23/20 A2990 890 84 2000 130/06 RMK AO2
14837KMSN MSN20060714004009507/14/06 00:40:31  5-MIN KMSN 140640Z 14004KT 6SM BR CLR 22/20 A2989 890 87 2000 140/04 RMK AO2
14837KMSN MSN20060714004509507/14/06 00:45:31  5-MIN KMSN 140645Z 13005KT 6SM BR CLR 22/20 A2989 890 87 2000 130/05 RMK AO2
14837KMSN MSN20060714005011207/14/06 00:50:31  5-MIN KMSN 140650Z 14004KT 5SM BR CLR 22/20 A2989 890 87 2000 140/04 RMK AO2 SLP116 T02220200
14837KMSN MSN20060714005509507/14/06 00:55:31  5-MIN KMSN 140655Z 14004KT 5SM BR CLR 22/20 A2989 890 87 2000 140/04 RMK AO2
14837KMSN MSN20060714010009507/14/06 01:00:31  5-MIN KMSN 140700Z 13004KT 5SM BR CLR 22/20 A2989 890 87 2000 130/04 RMK AO2
14837KMSN MSN20060714010509507/14/06 01:05:31  5-MIN KMSN 140705Z 13004KT 5SM BR CLR 22/20 A2989 890 87 2000 130/04 RMK AO2
14837KMSN MSN20060714011009507/14/06 01:10:31  5-MIN KMSN 140710Z 13003KT 5SM BR CLR 22/20 A2989 890 87 2000 120/03 RMK AO2
14837KMSN MSN20060714011509507/14/06 01:15:31  5-MIN KMSN 140715Z 10003KT 5SM BR CLR 22/20 A2989 890 87 2000 100/03 RMK AO2
14837KMSN MSN20060714012009507/14/06 01:20:31  5-MIN KMSN 140720Z 10004KT 5SM BR CLR 22/20 A2989 890 87 2000 100/04 RMK AO2
14837KMSN MSN20060714012509507/14/06 01:25:31  5-MIN KMSN 140725Z 11004KT 5SM BR CLR 22/20 A2988 900 87 2000 100/04 RMK AO2
14837KMSN MSN20060714013009507/14/06 01:30:31  5-MIN KMSN 140730Z 10003KT 5SM BR CLR 22/20 A2988 900 90 1900 100/03 RMK AO2
14837KMSN MSN20060714013509807/14/06 01:35:31  5-MIN KMSN 140735Z 09003KT 4SM BR FEW047 22/20 A2988 900 90 1900 090/03 RMK AO2
14837KMSN MSN20060714014009807/14/06 01:40:31  5-MIN KMSN 140740Z 00000KT 4SM BR SCT047 22/20 A2988 900 87 2000 000/00 RMK AO2
14837KMSN MSN20060714014510507/14/06 01:45:31  5-MIN KMSN 140745Z 00000KT 4SM BR FEW039 SCT047 22/20 A2988 900 87 2000 000/00 RMK AO2
14837KMSN MSN20060714015012207/14/06 01:50:31  5-MIN KMSN 140750Z 00000KT 4SM BR SCT039 BKN047 22/20 A2988 900 90 1900 000/00 RMK AO2 SLP112 T02170200
14837KMSN MSN20060714015510507/14/06 01:55:31  5-MIN KMSN 140755Z 00000KT 4SM BR SCT037 BKN049 22/20 A2988 900 87 2000 000/00 RMK AO2
14837KMSN MSN20060714020011207/14/06 02:00:31  5-MIN KMSN 140800Z 08003KT 4SM BR SCT037 BKN047 BKN055 22/20 A2988 900 87 2000 080/03 RMK AO2
14837KMSN MSN20060714020510507/14/06 02:05:31  5-MIN KMSN 140805Z 07004KT 4SM BR FEW037 BKN047 22/20 A2988 910 90 1900 070/04 RMK AO2
14837KMSN MSN20060714021010507/14/06 02:10:31  5-MIN KMSN 140810Z 09004KT 4SM BR SCT040 BKN050 22/20 A2988 910 90 1900 090/04 RMK AO2
14837KMSN MSN20060714021511207/14/06 02:15:31  5-MIN KMSN 140815Z 09004KT 4SM BR SCT040 BKN047 BKN055 22/20 A2987 910 90 1900 090/04 RMK AO2
14837KMSN MSN20060714022011207/14/06 02:20:31  5-MIN KMSN 140820Z 11005KT 4SM BR BKN040 BKN047 BKN055 22/20 A2987 910 90 1900 110/05 RMK AO2
14837KMSN MSN20060714022510507/14/06 02:25:31  5-MIN KMSN 140825Z 13004KT 4SM BR BKN040 BKN050 22/21 A2987 910 93 1900 130/04 RMK AO2
14837KMSN MSN20060714023010507/14/06 02:30:31  5-MIN KMSN 140830Z 12004KT 4SM BR SCT040 BKN047 22/21 A2986 920 93 1900 120/04 RMK AO2
14837KMSN MSN20060714023509807/14/06 02:35:31  5-MIN KMSN 140835Z 12004KT 4SM BR SCT040 22/20 A2985 920 90 2000 110/04 RMK AO2
14837KMSN MSN20060714024009807/14/06 02:40:31  5-MIN KMSN 140840Z 10004KT 4SM BR SCT040 22/20 A2985 930 90 2000 100/04 RMK AO2
14837KMSN MSN20060714024509807/14/06 02:45:31  5-MIN KMSN 140845Z 10003KT 4SM BR FEW040 22/20 A2985 930 90 2000 100/03 RMK AO2
14837KMSN MSN20060714025012107/14/06 02:50:31  5-MIN KMSN 140850Z 11004KT 4SM BR FEW040 22/20 A2985 930 90 2000 110/04 RMK AO2 SLP101 T02170200 58006
14837KMSN MSN20060714025509507/14/06 02:55:31  5-MIN KMSN 140855Z 11004KT 4SM BR CLR 21/20 A2985 930 93 1900 110/04 RMK AO2
14837KMSN MSN20060714030009507/14/06 03:00:31  5-MIN KMSN 140900Z 13005KT 4SM BR CLR 21/20 A2985 930 93 1900 130/05 RMK AO2
14837KMSN MSN20060714030509507/14/06 03:05:31  5-MIN KMSN 140905Z 14004KT 4SM BR CLR 22/20 A2985 930 90 2000 140/04 RMK AO2
14837KMSN MSN20060714031009507/14/06 03:10:31  5-MIN KMSN 140910Z 15004KT 4SM BR CLR 22/20 A2986 920 90 2000 150/04 RMK AO2
14837KMSN MSN20060714031509507/14/06 03:15:31  5-MIN KMSN 140915Z 15005KT 4SM BR CLR 22/20 A2986 920 90 1900 150/05 RMK AO2
14837KMSN MSN20060714032009507/14/06 03:20:31  5-MIN KMSN 140920Z 14005KT 4SM BR CLR 22/20 A2986 920 90 1900 140/05 RMK AO2
14837KMSN MSN20060714032509507/14/06 03:25:31  5-MIN KMSN 140925Z 14004KT 4SM BR CLR 22/20 A2986 920 90 1900 140/04 RMK AO2
14837KMSN MSN20060714033009507/14/06 03:30:31  5-MIN KMSN 140930Z 00000KT 4SM BR CLR 22/21 A2986 920 93 1900 000/00 RMK AO2
14837KMSN MSN20060714033509507/14/06 03:35:31  5-MIN KMSN 140935Z 12003KT 4SM BR CLR 22/20 A2986 920 90 2000 120/03 RMK AO2
14837KMSN MSN20060714034009507/14/06 03:40:31  5-MIN KMSN 140940Z 11005KT 4SM BR CLR 22/20 A2985 920 90 2000 110/05 RMK AO2
14837KMSN MSN20060714034509507/14/06 03:45:31  5-MIN KMSN 140945Z 11005KT 3SM BR CLR 21/20 A2985 930 93 1900 110/05 RMK AO2
14837KMSN MSN20060714035011207/14/06 03:50:31  5-MIN KMSN 140950Z 11005KT 3SM BR CLR 21/20 A2985 930 93 1900 110/05 RMK AO2 SLP102 T02110200
14837KMSN MSN20060714035509507/14/06 03:55:31  5-MIN KMSN 140955Z 10003KT 3SM BR CLR 21/20 A2985 930 93 1900 100/03 RMK AO2
14837KMSN MSN20060714040009507/14/06 04:00:31  5-MIN KMSN 141000Z 13004KT 3SM BR CLR 21/20 A2986 920 93 1900 120/04 RMK AO2
14837KMSN MSN20060714040509507/14/06 04:05:31  5-MIN KMSN 141005Z 12003KT 3SM BR CLR 21/19 A2985 930 90 1900 120/03 RMK AO2
14837KMSN MSN20060714041009507/14/06 04:10:31  5-MIN KMSN 141010Z 00000KT 3SM BR CLR 21/20 A2986 920 97 1800 000/00 RMK AO2
14837KMSN MSN20060714041509507/14/06 04:15:31  5-MIN KMSN 141015Z 24003KT 3SM BR CLR 21/19 A2986 920 93 1800 240/03 RMK AO2
14837KMSN MSN20060714042009507/14/06 04:20:31  5-MIN KMSN 141020Z 18003KT 3SM BR CLR 21/20 A2986 920 93 1900 180/03 RMK AO2
14837KMSN MSN20060714042509507/14/06 04:25:31  5-MIN KMSN 141025Z 00000KT 3SM BR CLR 22/20 A2986 920 90 1900 000/00 RMK AO2
14837KMSN MSN20060714043010207/14/06 04:30:31  5-MIN KMSN 141030Z 18003KT 2 1/2SM BR FEW080 21/20 A2986 920 93 1900 180/03 RMK AO2
14837KMSN MSN20060714043510907/14/06 04:35:31  5-MIN KMSN 141035Z VRB03KT 2 1/2SM BR FEW019 SCT080 22/21 A2986 920 93 1900 VRB/03 RMK AO2
14837KMSN MSN20060714044010207/14/06 04:40:31  5-MIN KMSN 141040Z 30003KT 2 1/2SM BR SCT019 22/21 A2987 910 93 1900 300/03 RMK AO2
14837KMSN MSN20060714044510907/14/06 04:45:31  5-MIN KMSN 141045Z 00000KT 2 1/2SM BR SCT019 BKN075 22/21 A2987 910 93 1900 000/00 RMK AO2
14837KMSN MSN20060714045012607/14/06 04:50:31  5-MIN KMSN 141050Z 00000KT 2 1/2SM BR SCT019 BKN075 22/21 A2987 910 90 2000 000/00 RMK AO2 SLP107 T02220206
14837KMSN MSN20060714045510507/14/06 04:55:31  5-MIN KMSN 141055Z 00000KT 2SM BR SCT019 BKN075 22/21 A2987 910 90 2000 000/00 RMK AO2
14837KMSN MSN20060714050010507/14/06 05:00:31  5-MIN KMSN 141100Z 00000KT 2SM BR BKN019 BKN070 22/21 A2987 910 93 1900 000/00 RMK AO2
14837KMSN MSN20060714050510507/14/06 05:05:31  5-MIN KMSN 141105Z 00000KT 2SM BR BKN019 BKN070 21/20 A2987 910 93 1900 000/00 RMK AO2
14837KMSN MSN20060714051010507/14/06 05:10:31  5-MIN KMSN 141110Z 00000KT 2SM BR BKN019 BKN070 22/21 A2987 910 93 1900 000/00 RMK AO2
14837KMSN MSN20060714051510507/14/06 05:15:31  5-MIN KMSN 141115Z 00000KT 2SM BR BKN019 BKN070 22/21 A2988 900 93 1900 000/00 RMK AO2
14837KMSN MSN20060714052010507/14/06 05:20:31  5-MIN KMSN 141120Z 00000KT 2SM BR BKN019 BKN070 22/21 A2988 900 90 2000 000/00 RMK AO2
14837KMSN MSN20060714052510507/14/06 05:25:31  5-MIN KMSN 141125Z 00000KT 2SM BR BKN019 BKN070 23/21 A2988 900 90 2100 000/00 RMK AO2
14837KMSN MSN20060714053010507/14/06 05:30:31  5-MIN KMSN 141130Z 00000KT 2SM BR BKN019 BKN070 22/21 A2988 900 93 2000 000/00 RMK AO2
14837KMSN MSN20060714053510507/14/06 05:35:31  5-MIN KMSN 141135Z 00000KT 2SM BR BKN019 BKN070 22/21 A2988 900 93 2000 000/00 RMK AO2
14837KMSN MSN20060714054010507/14/06 05:40:31  5-MIN KMSN 141140Z 16003KT 2SM BR BKN019 BKN070 22/21 A2988 900 93 2000 160/03 RMK AO2
14837KMSN MSN20060714054510507/14/06 05:45:31  5-MIN KMSN 141145Z 15005KT 2SM BR BKN019 BKN070 23/21 A2988 910 90 2100 150/05 RMK AO2
14837KMSN MSN20060714055014007/14/06 05:50:31  5-MIN KMSN 141150Z 13005KT 2SM BR BKN019 BKN070 22/21 A2988 900 93 2000 130/05 RMK AO2 SLP111 T02220211 10233 20206 58016
14837KMSN MSN20060714055511607/14/06 05:55:31  5-MIN KMSN 141155Z 16006KT 2 1/2SM BR FEW020 SCT026 OVC040 23/21 A2988 900 90 2100 160/06 RMK AO2
14837KMSN MSN20060714060010907/14/06 06:00:31  5-MIN KMSN 141200Z 15007KT 2 1/2SM BR FEW017 OVC042 23/21 A2988 900 90 2100 150/07 RMK AO2
14837KMSN MSN20060714060512607/14/06 06:05:31  5-MIN KMSN 141205Z 15009KT 2 1/2SM BR FEW020 BKN042 OVC055 23/21 A2988 910 90 2100 150/09 RMK AO2 SFC VIS 3
14837KMSN MSN20060714061012607/14/06 06:10:31  5-MIN KMSN 141210Z 14009KT 2 1/2SM BR FEW020 BKN042 OVC055 23/21 A2987 910 87 2100 140/09 RMK AO2 SFC VIS 3
14837KMSN MSN20060714061512607/14/06 06:15:31  5-MIN KMSN 141215Z 14008KT 2 1/2SM BR FEW020 BKN042 OVC055 23/21 A2987 910 87 2100 140/08 RMK AO2 SFC VIS 3
14837KMSN MSN20060714062012607/14/06 06:20:31  5-MIN KMSN 141220Z 14008KT 2 1/2SM BR FEW020 BKN042 OVC055 22/21 A2987 910 90 2000 130/08 RMK AO2 SFC VIS 3
14837KMSN MSN20060714062512207/14/06 06:25:31  5-MIN KMSN 141225Z 12008KT 3SM BR FEW044 SCT060 BKN080 22/21 A2986 920 90 2000 120/08 RMK AO2 SFC VIS 4
14837KMSN MSN20060714063012207/14/06 06:30:31  5-MIN KMSN 141230Z 12009KT 3SM BR FEW044 SCT060 BKN080 22/21 A2986 920 90 2000 110/09 RMK AO2 SFC VIS 4
14837KMSN MSN20060714063512207/14/06 06:35:31  5-MIN KMSN 141235Z 10007KT 3SM BR FEW044 SCT060 BKN080 22/21 A2986 920 90 2000 100/07 RMK AO2 SFC VIS 4
14837KMSN MSN20060714064012207/14/06 06:40:31  5-MIN KMSN 141240Z 09007KT 3SM BR FEW044 SCT060 BKN080 22/21 A2986 920 90 2000 090/07 RMK AO2 SFC VIS 4
14837KMSN MSN20060714064511507/14/06 06:45:31  5-MIN KMSN 141245Z 07007KT 3SM BR FEW060 BKN110 23/21 A2986 920 87 2100 070/07 RMK AO2 SFC VIS 5
14837KMSN MSN20060714065013207/14/06 06:50:31  5-MIN KMSN 141250Z 07005KT 3SM BR FEW060 BKN110 23/21 A2985 920 87 2100 070/05 RMK AO2 SFC VIS 5 SLP103 T02280206
14837KMSN MSN20060714065510807/14/06 06:55:31  5-MIN KMSN 141255Z 08006KT 3SM BR FEW110 22/21 A2985 930 90 2000 080/06 RMK AO2 SFC VIS 6
14837KMSN MSN20060714070010507/14/06 07:00:31  5-MIN KMSN 141300Z 09008KT 6SM BR FEW090 SCT110 22/21 A2986 920 90 2000 090/08 RMK AO2
14837KMSN MSN20060714070509507/14/06 07:05:31  5-MIN KMSN 141305Z 11010KT 7SM BKN100 22/21 A2986 920 90 2000 110/10 RMK AO2
14837KMSN MSN20060714071009507/14/06 07:10:31  5-MIN KMSN 141310Z 11007KT 8SM BKN100 22/21 A2986 920 90 2000 110/07 RMK AO2
14837KMSN MSN20060714071511107/14/06 07:15:31  5-MIN KMSN 141315Z 12007KT 9SM -RA SCT100 22/20 A2986 920 87 2000 120/07 RMK AO2 RAB13 P0000
14837KMSN MSN20060714072011207/14/06 07:20:31  5-MIN KMSN 141320Z 24006KT 10SM -RA SCT100 22/20 A2988 910 87 2000 240/06 RMK AO2 RAB13 P0000
14837KMSN MSN20060714072511807/14/06 07:25:31  5-MIN KMSN 141325Z 22005KT 9SM -RA FEW010 SCT100 22/21 A2987 910 90 2000 220/05 RMK AO2 RAB13 P0000
14837KMSN MSN20060714073012107/14/06 07:30:31  5-MIN KMSN 141330Z 22004KT 6SM -RA BR FEW010 SCT100 23/21 A2987 910 87 2100 220/04 RMK AO2 RAB13 P0000
14837KMSN MSN20060714073511407/14/06 07:35:31  5-MIN KMSN 141335Z 24005KT 6SM -RA BR FEW035 22/21 A2987 910 90 2000 240/05 RMK AO2 RAB13 P0000
14837KMSN MSN20060714074012107/14/06 07:40:31  5-MIN KMSN 141340Z 21004KT 6SM -RA BR FEW035 OVC110 23/21 A2987 910 87 2100 210/04 RMK AO2 RAB13 P0000
14837KMSN MSN20060714074512107/14/06 07:45:31  5-MIN KMSN 141345Z 19006KT 6SM -RA BR FEW035 OVC110 23/21 A2987 910 90 2100 190/06 RMK AO2 RAB13 P0000
14837KMSN MSN20060714075013507/14/06 07:50:31  5-MIN KMSN 141350Z 19005KT 7SM -RA FEW047 OVC110 22/21 A2987 910 90 2000 190/05 RMK AO2 RAB13 SLP109 P0000 T02220206
14837KMSN MSN20060714075510807/14/06 07:55:31  5-MIN KMSN 141355Z 18005KT 6SM -RA BR FEW041 23/21 A2987 910 90 2100 180/05 RMK AO2 P0000
14837KMSN MSN20060714080010807/14/06 08:00:31  5-MIN KMSN 141400Z 18006KT 6SM -RA BR FEW041 23/21 A2987 910 90 2100 180/06 RMK AO2 P0000
14837KMSN MSN20060714080510507/14/06 08:05:31  5-MIN KMSN 141405Z 21005KT 6SM -RA BR CLR 22/21 A2987 910 93 2000 210/05 RMK AO2 P0000
14837KMSN MSN20060714081010707/14/06 08:10:31  5-MIN KMSN 141410Z 22005KT 6SM BR CLR 22/21 A2987 910 90 2000 220/05 RMK AO2 RAE06 P0000
14837KMSN MSN20060714081511007/14/06 08:15:31  5-MIN KMSN 141415Z 20004KT 6SM BR OVC120 22/21 A2988 900 90 2000 200/04 RMK AO2 RAE06 P0000
14837KMSN MSN20060714082011007/14/06 08:20:31  5-MIN KMSN 141420Z 19005KT 6SM BR OVC120 23/21 A2988 910 90 2100 190/05 RMK AO2 RAE06 P0000
14837KMSN MSN20060714082511007/14/06 08:25:31  5-MIN KMSN 141425Z 18005KT 6SM BR OVC120 23/21 A2988 910 90 2100 180/05 RMK AO2 RAE06 P0000
14837KMSN MSN20060714083011007/14/06 08:30:31  5-MIN KMSN 141430Z 18006KT 6SM BR OVC120 23/21 A2988 900 87 2100 180/06 RMK AO2 RAE06 P0000
14837KMSN MSN20060714083511007/14/06 08:35:31  5-MIN KMSN 141435Z 22003KT 6SM BR OVC120 23/21 A2988 900 87 2000 210/03 RMK AO2 RAE06 P0000
14837KMSN MSN20060714084010707/14/06 08:40:31  5-MIN KMSN 141440Z 23005KT 7SM OVC120 23/21 A2988 900 90 2000 230/05 RMK AO2 RAE06 P0000
14837KMSN MSN20060714084510707/14/06 08:45:31  5-MIN KMSN 141445Z 27004KT 7SM OVC120 23/21 A2989 890 87 2000 260/04 RMK AO2 RAE06 P0000
14837KMSN MSN20060714085013607/14/06 08:50:31  5-MIN KMSN 141450Z 25005KT 7SM OVC120 23/21 A2990 890 87 2000 250/05 RMK AO2 RAE06 SLP119 P0000 60000 T02280206 53011
14837KMSN MSN20060714085509507/14/06 08:55:31  5-MIN KMSN 141455Z VRB04KT 7SM FEW008 23/21 A2990 880 87 2000 VRB/04 RMK AO2
14837KMSN MSN20060714090009507/14/06 09:00:31  5-MIN KMSN 141500Z VRB04KT 7SM FEW010 23/21 A2990 880 87 2000 VRB/04 RMK AO2
14837KMSN MSN20060714090509507/14/06 09:05:31  5-MIN KMSN 141505Z VRB06KT 7SM FEW010 23/21 A2990 880 87 2000 VRB/06 RMK AO2
14837KMSN MSN20060714091009507/14/06 09:10:31  5-MIN KMSN 141510Z 24006KT 9SM FEW010 23/20 A2990 880 81 2100 240/06 RMK AO2
14837KMSN MSN20060714091509607/14/06 09:15:31  5-MIN KMSN 141515Z VRB04KT 10SM FEW010 23/19 A2990 880 81 2000 VRB/04 RMK AO2
14837KMSN MSN20060714092009607/14/06 09:20:31  5-MIN KMSN 141520Z 24006KT 10SM FEW010 23/19 A2990 880 78 2100 240/06 RMK AO2
14837KMSN MSN20060714092509307/14/06 09:25:31  5-MIN KMSN 141525Z VRB05KT 10SM CLR 23/20 A2990 880 81 2100 VRB/05 RMK AO2
14837KMSN MSN20060714093009307/14/06 09:30:31  5-MIN KMSN 141530Z VRB06KT 10SM CLR 23/20 A2990 880 81 2100 VRB/06 RMK AO2
14837KMSN MSN20060714093509307/14/06 09:35:31  5-MIN KMSN 141535Z 23005KT 10SM CLR 23/21 A2990 880 84 2100 230/05 RMK AO2
14837KMSN MSN20060714094009507/14/06 09:40:31  5-MIN KMSN 141540Z 24006KT 9SM FEW010 23/21 A2990 880 84 2100 240/06 RMK AO2
14837KMSN MSN20060714094509507/14/06 09:45:31  5-MIN KMSN 141545Z 23004KT 8SM SCT010 24/21 A2990 880 84 2200 230/04 RMK AO2
14837KMSN MSN20060714095011907/14/06 09:50:31  5-MIN KMSN 141550Z 25005KT 7SM SCT010 OVC120 24/21 A2990 880 84 2200 250/05 RMK AO2 SLP120 T02390211
14837KMSN MSN20060714095510507/14/06 09:55:31  5-MIN KMSN 141555Z VRB04KT 6SM HZ SCT010 BKN018 24/21 A2990 880 84 2200 VRB/04 RMK AO2
14837KMSN MSN20060714100010507/14/06 10:00:31  5-MIN KMSN 141600Z VRB03KT 5SM HZ SCT010 BKN018 24/22 A2990 880 84 2200 VRB/03 RMK AO2
14837KMSN MSN20060714100511207/14/06 10:05:31  5-MIN KMSN 141605Z VRB06KT 5SM HZ SCT010 BKN018 OVC120 25/22 A2990 880 81 2300 VRB/06 RMK AO2
14837KMSN MSN20060714101010507/14/06 10:10:31  5-MIN KMSN 141610Z VRB04KT 5SM HZ BKN010 OVC018 25/22 A2990 880 81 2300 VRB/04 RMK AO2
14837KMSN MSN20060714101510507/14/06 10:15:31  5-MIN KMSN 141615Z VRB05KT 5SM HZ BKN012 OVC018 25/22 A2990 880 81 2300 VRB/05 RMK AO2
14837KMSN MSN20060714102010507/14/06 10:20:31  5-MIN KMSN 141620Z 28005KT 5SM HZ BKN014 OVC018 26/22 A2990 880 79 2300 280/05 RMK AO2
14837KMSN MSN20060714102510507/14/06 10:25:31  5-MIN KMSN 141625Z VRB06KT 5SM HZ BKN014 OVC018 26/22 A2990 880 79 2300 VRB/06 RMK AO2
14837KMSN MSN20060714103009807/14/06 10:30:31  5-MIN KMSN 141630Z VRB04KT 6SM HZ OVC016 26/22 A2990 880 79 2300 VRB/04 RMK AO2
14837KMSN MSN20060714103509507/14/06 10:35:31  5-MIN KMSN 141635Z 30008KT 7SM OVC016 26/22 A2990 880 76 2400 300/08 RMK AO2
14837KMSN MSN20060714104010207/14/06 10:40:31  5-MIN KMSN 141640Z VRB06KT 7SM BKN016 OVC022 26/22 A2990 880 79 2300 VRB/06 RMK AO2
14837KMSN MSN20060714104510207/14/06 10:45:31  5-MIN KMSN 141645Z VRB06KT 7SM BKN016 BKN022 27/22 A2990 880 76 2500 VRB/06 RMK AO2
14837KMSN MSN20060714105011207/14/06 10:50:31  5-MIN KMSN 141650Z VRB05KT 7SM BKN016 27/22 A2990 890 73 2500 VRB/05 RMK AO2 SLP118 T02670217
14837KMSN MSN20060714105509507/14/06 10:55:31  5-MIN KMSN 141655Z 30006KT 8SM BKN018 27/21 A2990 890 71 2500 300/06 RMK AO2
14837KMSN MSN20060714110009507/14/06 11:00:31  5-MIN KMSN 141700Z 29007KT 8SM SCT018 27/22 A2990 890 71 2500 290/07 RMK AO2
14837KMSN MSN20060714110509507/14/06 11:05:31  5-MIN KMSN 141705Z 30005KT 9SM SCT018 27/21 A2990 890 69 2500 300/05 RMK AO2
14837KMSN MSN20060714111009507/14/06 11:10:31  5-MIN KMSN 141710Z 29007KT 9SM FEW018 27/21 A2990 880 66 2500 290/07 RMK AO2
14837KMSN MSN20060714111509507/14/06 11:15:31  5-MIN KMSN 141715Z VRB05KT 9SM FEW018 27/21 A2990 890 69 2500 VRB/05 RMK AO2
14837KMSN MSN20060714112009207/14/06 11:20:31  5-MIN KMSN 141720Z 28007KT 9SM CLR 28/21 A2990 890 66 2600 280/07 RMK AO2
14837KMSN MSN20060714112509507/14/06 11:25:31  5-MIN KMSN 141725Z 32008KT 9SM FEW018 28/21 A2990 890 66 2600 320/08 RMK AO2
14837KMSN MSN20060714113009607/14/06 11:30:31  5-MIN KMSN 141730Z VRB06KT 10SM FEW018 28/21 A2990 890 66 2600 VRB/06 RMK AO2
14837KMSN MSN20060714113509607/14/06 11:35:31  5-MIN KMSN 141735Z VRB05KT 10SM FEW018 28/21 A2990 890 66 2600 VRB/05 RMK AO2
14837KMSN MSN20060714114009607/14/06 11:40:31  5-MIN KMSN 141740Z VRB06KT 10SM FEW018 28/21 A2990 890 64 2700 VRB/06 RMK AO2
14837KMSN MSN20060714114511207/14/06 11:45:31  5-MIN KMSN 141745Z 32007KT 280V350 10SM FEW018 28/21 A2990 890 64 2700 320/07 280V350 RMK AO2
14837KMSN MSN20060714115014307/14/06 11:50:31  5-MIN KMSN 141750Z 33011G16KT 10SM FEW018 28/21 A2990 890 64 2600 320/11G16 RMK AO2 SLP117 60000 T02780206 10283 20222 53006
14837KMSN MSN20060714115511807/14/06 11:55:31  5-MIN KMSN 141755Z 31008G16KT 280V350 10SM FEW028 28/20 A2990 890 60 2700 310/08G16 280V350 RMK AO2
14837KMSN MSN20060714120009607/14/06 12:00:31  5-MIN KMSN 141800Z 33008KT 10SM FEW028 28/20 A2989 890 60 2700 320/08 RMK AO2
14837KMSN MSN20060714120511207/14/06 12:05:31  5-MIN KMSN 141805Z 29010KT 270V330 10SM FEW028 29/21 A2989 890 60 2700 290/10 270V330 RMK AO2
14837KMSN MSN20060714121009607/14/06 12:10:31  5-MIN KMSN 141810Z 31009KT 10SM FEW028 29/20 A2989 890 58 2700 310/09 RMK AO2
14837KMSN MSN20060714121509607/14/06 12:15:31  5-MIN KMSN 141815Z 31010KT 10SM FEW030 29/19 A2990 890 56 2700 310/10 RMK AO2
14837KMSN MSN20060714122009307/14/06 12:20:31  5-MIN KMSN 141820Z 33010KT 10SM CLR 29/19 A2990 890 56 2700 330/10 RMK AO2
14837KMSN MSN20060714122509607/14/06 12:25:31  5-MIN KMSN 141825Z 32009KT 10SM FEW030 29/20 A2990 890 58 2700 320/09 RMK AO2
14837KMSN MSN20060714123009607/14/06 12:30:31  5-MIN KMSN 141830Z 31009KT 10SM FEW030 29/20 A2990 890 58 2700 310/09 RMK AO2
14837KMSN MSN20060714123509607/14/06 12:35:31  5-MIN KMSN 141835Z 32007KT 10SM FEW030 29/19 A2990 890 56 2700 320/07 RMK AO2
14837KMSN MSN20060714124010207/14/06 12:40:31  5-MIN KMSN 141840Z 31010G16KT 10SM FEW030 29/20 A2990 890 56 2800 310/10G16 RMK AO2
14837KMSN MSN20060714124510207/14/06 12:45:31  5-MIN KMSN 141845Z 32010G16KT 10SM FEW030 29/20 A2990 890 56 2800 320/10G16 RMK AO2
14837KMSN MSN20060714125011307/14/06 12:50:31  5-MIN KMSN 141850Z 31010KT 10SM FEW030 29/19 A2990 890 54 2800 310/10 RMK AO2 SLP118 T02940194
14837KMSN MSN20060714125509307/14/06 12:55:31  5-MIN KMSN 141855Z 30010KT 10SM CLR 29/19 A2990 880 52 2800 300/10 RMK AO2
14837KMSN MSN20060714130009307/14/06 13:00:31  5-MIN KMSN 141900Z 32010KT 10SM CLR 29/19 A2990 890 52 2800 320/10 RMK AO2
14837KMSN MSN20060714130509907/14/06 13:05:31  5-MIN KMSN 141905Z 33011G15KT 10SM CLR 29/18 A2990 890 50 2800 330/11G15 RMK AO2
14837KMSN MSN20060714131011207/14/06 13:10:31  5-MIN KMSN 141910Z 32008KT 280V340 10SM FEW030 29/18 A2990 890 50 2800 310/08 280V340 RMK AO2
14837KMSN MSN20060714131509607/14/06 13:15:31  5-MIN KMSN 141915Z 32009KT 10SM FEW030 29/19 A2990 890 52 2800 320/09 RMK AO2
14837KMSN MSN20060714132009607/14/06 13:20:31  5-MIN KMSN 141920Z 32009KT 10SM FEW030 29/18 A2990 890 50 2800 320/09 RMK AO2
14837KMSN MSN20060714132509607/14/06 13:25:31  5-MIN KMSN 141925Z 33009KT 10SM FEW030 30/19 A2989 890 51 2800 330/09 RMK AO2
14837KMSN MSN20060714133011207/14/06 13:30:31  5-MIN KMSN 141930Z 32009KT 290V350 10SM FEW030 30/19 A2989 890 52 2800 320/09 290V350 RMK AO2
14837KMSN MSN20060714133509607/14/06 13:35:31  5-MIN KMSN 141935Z 32009KT 10SM FEW030 30/19 A2989 890 51 2800 320/09 RMK AO2
14837KMSN MSN20060714134009607/14/06 13:40:31  5-MIN KMSN 141940Z 32011KT 10SM FEW030 30/19 A2989 890 51 2800 320/11 RMK AO2
14837KMSN MSN20060714134509607/14/06 13:45:31  5-MIN KMSN 141945Z 33012KT 10SM FEW030 30/19 A2989 890 51 2800 330/12 RMK AO2
14837KMSN MSN20060714135011907/14/06 13:50:31  5-MIN KMSN 141950Z 31006G14KT 10SM FEW030 30/19 A2989 890 51 2800 310/06G14 RMK AO2 SLP117 T03000189
14837KMSN MSN20060714135509907/14/06 13:55:31  5-MIN KMSN 141955Z 30010G15KT 10SM CLR 31/19 A2989 890 49 2900 300/10G15 RMK AO2
14837KMSN MSN20060714140009907/14/06 14:00:31  5-MIN KMSN 142000Z 31009G15KT 10SM CLR 30/18 A2989 890 47 2800 310/09G15 RMK AO2
14837KMSN MSN20060714140509307/14/06 14:05:31  5-MIN KMSN 142005Z 31009KT 10SM CLR 30/18 A2989 890 47 2800 310/09 RMK AO2
14837KMSN MSN20060714141009307/14/06 14:10:31  5-MIN KMSN 142010Z 33011KT 10SM CLR 31/19 A2989 890 49 2900 330/11 RMK AO2
14837KMSN MSN20060714141509307/14/06 14:15:31  5-MIN KMSN 142015Z 32009KT 10SM CLR 30/18 A2989 890 49 2800 320/09 RMK AO2
14837KMSN MSN20060714142009307/14/06 14:20:31  5-MIN KMSN 142020Z 31010KT 10SM CLR 31/19 A2989 890 49 2900 310/10 RMK AO2
14837KMSN MSN20060714142509907/14/06 14:25:31  5-MIN KMSN 142025Z 30009G14KT 10SM CLR 30/19 A2989 890 51 2800 300/09G14 RMK AO2
14837KMSN MSN20060714143009907/14/06 14:30:31  5-MIN KMSN 142030Z 32011G14KT 10SM CLR 30/19 A2989 890 51 2800 320/11G14 RMK AO2
14837KMSN MSN20060714143509307/14/06 14:35:31  5-MIN KMSN 142035Z 30008KT 10SM CLR 31/19 A2989 890 51 2900 300/08 RMK AO2
14837KMSN MSN20060714144009607/14/06 14:40:31  5-MIN KMSN 142040Z 32008KT 10SM FEW040 31/19 A2989 890 49 2900 320/08 RMK AO2
14837KMSN MSN20060714144509607/14/06 14:45:31  5-MIN KMSN 142045Z 31008KT 10SM FEW040 31/19 A2989 890 49 2900 310/08 RMK AO2
14837KMSN MSN20060714145011907/14/06 14:50:31  5-MIN KMSN 142050Z 31009KT 10SM FEW040 31/19 A2989 890 51 2900 310/09 RMK AO2 SLP116 T03060194 58001
14837KMSN MSN20060714145509307/14/06 14:55:31  5-MIN KMSN 142055Z 32009KT 10SM CLR 31/19 A2989 890 49 2900 310/09 RMK AO2
14837KMSN MSN20060714150009307/14/06 15:00:31  5-MIN KMSN 142100Z 32008KT 10SM CLR 31/18 A2989 890 47 2900 320/08 RMK AO2
14837KMSN MSN20060714150509607/14/06 15:05:31  5-MIN KMSN 142105Z 32009KT 10SM FEW040 31/19 A2989 890 49 2900 320/09 RMK AO2
14837KMSN MSN20060714151009607/14/06 15:10:31  5-MIN KMSN 142110Z 32011KT 10SM FEW040 31/18 A2989 890 47 2900 320/11 RMK AO2
14837KMSN MSN20060714151509607/14/06 15:15:31  5-MIN KMSN 142115Z 31011KT 10SM FEW040 30/18 A2989 890 47 2800 310/11 RMK AO2
14837KMSN MSN20060714152009607/14/06 15:20:31  5-MIN KMSN 142120Z 32007KT 10SM FEW040 30/18 A2989 890 47 2800 320/07 RMK AO2
14837KMSN MSN20060714152509607/14/06 15:25:31  5-MIN KMSN 142125Z VRB06KT 10SM FEW040 31/18 A2989 890 47 2900 VRB/06 RMK AO2
14837KMSN MSN20060714153009607/14/06 15:30:31  5-MIN KMSN 142130Z 27008KT 10SM FEW040 31/18 A2989 890 47 2900 270/08 RMK AO2
14837KMSN MSN20060714153509607/14/06 15:35:31  5-MIN KMSN 142135Z 28009KT 10SM FEW040 30/18 A2989 890 49 2800 280/09 RMK AO2
14837KMSN MSN20060714154009607/14/06 15:40:31  5-MIN KMSN 142140Z VRB05KT 10SM FEW040 30/18 A2989 890 49 2800 VRB/05 RMK AO2
14837KMSN MSN20060714154509607/14/06 15:45:31  5-MIN KMSN 142145Z 32009KT 10SM FEW040 31/19 A2989 890 49 3000 310/09 RMK AO2
14837KMSN MSN20060714155011307/14/06 15:50:31  5-MIN KMSN 142150Z 31009KT 10SM FEW040 31/18 A2989 890 47 2900 310/09 RMK AO2 SLP116 T03060183
14837KMSN MSN20060714155509307/14/06 15:55:31  5-MIN KMSN 142155Z 29005KT 10SM CLR 31/18 A2989 890 47 2900 290/05 RMK AO2
14837KMSN MSN20060714160009307/14/06 16:00:31  5-MIN KMSN 142200Z 28008KT 10SM CLR 31/18 A2989 890 47 2900 280/08 RMK AO2
14837KMSN MSN20060714160509607/14/06 16:05:31  5-MIN KMSN 142205Z 30008KT 10SM FEW040 31/18 A2989 890 47 2900 300/08 RMK AO2
14837KMSN MSN20060714161009607/14/06 16:10:31  5-MIN KMSN 142210Z 31007KT 10SM FEW040 31/18 A2989 890 47 2900 310/07 RMK AO2
14837KMSN MSN20060714161509607/14/06 16:15:31  5-MIN KMSN 142215Z 29007KT 10SM FEW040 31/19 A2989 890 49 2900 290/07 RMK AO2
14837KMSN MSN20060714162009607/14/06 16:20:31  5-MIN KMSN 142220Z 31007KT 10SM FEW040 31/18 A2990 890 47 2900 300/07 RMK AO2
14837KMSN MSN20060714162509607/14/06 16:25:31  5-MIN KMSN 142225Z 30009KT 10SM FEW040 31/18 A2989 890 47 2900 300/09 RMK AO2
14837KMSN MSN20060714163009607/14/06 16:30:31  5-MIN KMSN 142230Z 30008KT 10SM FEW040 31/18 A2989 890 47 2900 300/08 RMK AO2
14837KMSN MSN20060714163511207/14/06 16:35:31  5-MIN KMSN 142235Z 28009KT 250V310 10SM FEW040 31/18 A2989 890 47 2900 280/09 250V310 RMK AO2
14837KMSN MSN20060714164009607/14/06 16:40:31  5-MIN KMSN 142240Z 29007KT 10SM FEW040 31/18 A2989 890 47 2900 290/07 RMK AO2
14837KMSN MSN20060714164509607/14/06 16:45:31  5-MIN KMSN 142245Z 29008KT 10SM FEW040 31/18 A2989 890 47 2900 290/08 RMK AO2
14837KMSN MSN20060714165012907/14/06 16:50:31  5-MIN KMSN 142250Z 29007KT 250V320 10SM FEW040 31/18 A2989 890 47 2900 290/07 250V320 RMK AO2 SLP115 T03060183
14837KMSN MSN20060714165509307/14/06 16:55:31  5-MIN KMSN 142255Z 29008KT 10SM CLR 31/18 A2989 890 47 2900 290/08 RMK AO2
14837KMSN MSN20060714170009607/14/06 17:00:31  5-MIN KMSN 142300Z 29006KT 10SM FEW040 31/18 A2990 890 47 2900 290/06 RMK AO2
14837KMSN MSN20060714170511207/14/06 17:05:31  5-MIN KMSN 142305Z 27008KT 250V310 10SM FEW040 31/19 A2990 890 49 2900 270/08 250V310 RMK AO2
14837KMSN MSN20060714171009607/14/06 17:10:31  5-MIN KMSN 142310Z VRB06KT 10SM FEW040 30/18 A2990 890 49 2800 VRB/06 RMK AO2
14837KMSN MSN20060714171509607/14/06 17:15:31  5-MIN KMSN 142315Z VRB06KT 10SM FEW040 30/19 A2990 890 51 2800 VRB/06 RMK AO2
14837KMSN MSN20060714172009607/14/06 17:20:31  5-MIN KMSN 142320Z 29007KT 10SM FEW040 30/18 A2989 890 49 2800 290/07 RMK AO2
14837KMSN MSN20060714172509607/14/06 17:25:31  5-MIN KMSN 142325Z VRB06KT 10SM FEW040 30/18 A2989 890 49 2800 VRB/06 RMK AO2
14837KMSN MSN20060714173009607/14/06 17:30:31  5-MIN KMSN 142330Z 29008KT 10SM FEW040 30/18 A2990 890 49 2800 290/08 RMK AO2
14837KMSN MSN20060714173509607/14/06 17:35:31  5-MIN KMSN 142335Z 30008KT 10SM FEW040 30/19 A2990 890 51 2800 300/08 RMK AO2
14837KMSN MSN20060714174009607/14/06 17:40:31  5-MIN KMSN 142340Z 28006KT 10SM FEW040 30/18 A2990 880 49 2800 280/06 RMK AO2
14837KMSN MSN20060714174509607/14/06 17:45:31  5-MIN KMSN 142345Z 28007KT 10SM FEW040 30/18 A2990 880 49 2800 280/07 RMK AO2
14837KMSN MSN20060714175013107/14/06 17:50:31  5-MIN KMSN 142350Z VRB05KT 10SM FEW040 30/19 A2990 880 51 2800 VRB/05 RMK AO2 SLP119 T03000189 10311 20283 58001
14837KMSN MSN20060714175509307/14/06 17:55:31  5-MIN KMSN 142355Z 30006KT 10SM CLR 30/19 A2990 880 51 2800 290/06 RMK AO2
14837KMSN MSN20060714180010907/14/06 18:00:31  5-MIN KMSN 150000Z 28007KT 240V310 10SM CLR 29/19 A2990 880 54 2800 280/07 240V310 RMK AO2
14837KMSN MSN20060714180509307/14/06 18:05:31  5-MIN KMSN 150005Z VRB04KT 10SM CLR 29/19 A2991 880 54 2800 VRB/04 RMK AO2
14837KMSN MSN20060714181009307/14/06 18:10:31  5-MIN KMSN 150010Z 28006KT 10SM CLR 29/19 A2991 880 54 2800 280/06 RMK AO2
14837KMSN MSN20060714181509307/14/06 18:15:31  5-MIN KMSN 150015Z VRB06KT 10SM CLR 29/19 A2991 880 54 2800 VRB/06 RMK AO2
14837KMSN MSN20060714182009307/14/06 18:20:31  5-MIN KMSN 150020Z 29006KT 10SM CLR 29/19 A2991 870 54 2800 290/06 RMK AO2
14837KMSN MSN20060714182509307/14/06 18:25:31  5-MIN KMSN 150025Z VRB05KT 10SM CLR 29/19 A2991 870 54 2700 VRB/05 RMK AO2
14837KMSN MSN20060714183009607/14/06 18:30:31  5-MIN KMSN 150030Z 29006KT 10SM FEW045 29/19 A2991 870 54 2700 280/06 RMK AO2
14837KMSN MSN20060714183509607/14/06 18:35:31  5-MIN KMSN 150035Z VRB06KT 10SM FEW045 29/19 A2991 870 54 2700 VRB/06 RMK AO2
14837KMSN MSN20060714184009607/14/06 18:40:31  5-MIN KMSN 150040Z VRB05KT 10SM FEW045 29/19 A2992 870 54 2700 VRB/05 RMK AO2
14837KMSN MSN20060714184509607/14/06 18:45:31  5-MIN KMSN 150045Z VRB05KT 10SM FEW045 29/19 A2992 870 54 2700 VRB/05 RMK AO2
14837KMSN MSN20060714185011307/14/06 18:50:31  5-MIN KMSN 150050Z VRB05KT 10SM FEW045 28/19 A2992 870 56 2600 VRB/05 RMK AO2 SLP125 T02830189
14837KMSN MSN20060714185509307/14/06 18:55:31  5-MIN KMSN 150055Z VRB03KT 10SM CLR 28/19 A2992 870 56 2600 VRB/03 RMK AO2
14837KMSN MSN20060714190009607/14/06 19:00:31  5-MIN KMSN 150100Z VRB04KT 10SM FEW045 28/19 A2992 870 56 2600 VRB/04 RMK AO2
14837KMSN MSN20060714190509607/14/06 19:05:31  5-MIN KMSN 150105Z VRB04KT 10SM FEW045 28/19 A2992 870 60 2600 VRB/04 RMK AO2
14837KMSN MSN20060714191009607/14/06 19:10:31  5-MIN KMSN 150110Z VRB03KT 10SM FEW045 28/19 A2992 870 58 2600 VRB/03 RMK AO2
14837KMSN MSN20060714191509607/14/06 19:15:31  5-MIN KMSN 150115Z VRB03KT 10SM FEW045 28/19 A2992 860 60 2600 VRB/03 RMK AO2
14837KMSN MSN20060714192009607/14/06 19:20:31  5-MIN KMSN 150120Z 27003KT 10SM FEW045 28/19 A2992 860 60 2600 270/03 RMK AO2
14837KMSN MSN20060714192509607/14/06 19:25:31  5-MIN KMSN 150125Z 28004KT 10SM FEW045 27/19 A2992 860 62 2500 280/04 RMK AO2
14837KMSN MSN20060714193009607/14/06 19:30:31  5-MIN KMSN 150130Z VRB04KT 10SM FEW045 27/19 A2992 860 62 2500 VRB/04 RMK AO2
14837KMSN MSN20060714193509607/14/06 19:35:31  5-MIN KMSN 150135Z VRB04KT 10SM FEW045 27/19 A2993 860 62 2500 VRB/04 RMK AO2
14837KMSN MSN20060714194009607/14/06 19:40:31  5-MIN KMSN 150140Z VRB03KT 10SM FEW045 27/19 A2993 860 62 2500 VRB/03 RMK AO2
14837KMSN MSN20060714194509607/14/06 19:45:31  5-MIN KMSN 150145Z 25004KT 10SM FEW045 27/19 A2993 850 62 2500 250/04 RMK AO2
14837KMSN MSN20060714195011307/14/06 19:50:31  5-MIN KMSN 150150Z VRB04KT 10SM FEW045 27/19 A2993 850 62 2500 VRB/04 RMK AO2 SLP130 T02720194
14837KMSN MSN20060714195509307/14/06 19:55:31  5-MIN KMSN 150155Z VRB04KT 10SM CLR 27/19 A2993 850 64 2400 VRB/04 RMK AO2
14837KMSN MSN20060714200009307/14/06 20:00:31  5-MIN KMSN 150200Z VRB03KT 10SM CLR 27/19 A2993 850 64 2400 VRB/03 RMK AO2
14837KMSN MSN20060714200509607/14/06 20:05:31  5-MIN KMSN 150205Z VRB03KT 10SM FEW045 27/19 A2994 850 64 2400 VRB/03 RMK AO2
14837KMSN MSN20060714201009607/14/06 20:10:31  5-MIN KMSN 150210Z VRB03KT 10SM FEW045 26/19 A2994 850 66 2400 VRB/03 RMK AO2
14837KMSN MSN20060714201509607/14/06 20:15:31  5-MIN KMSN 150215Z 00000KT 10SM FEW045 26/19 A2994 850 66 2400 000/00 RMK AO2
14837KMSN MSN20060714202009607/14/06 20:20:31  5-MIN KMSN 150220Z 25003KT 10SM FEW045 26/19 A2994 850 66 2400 250/03 RMK AO2
14837KMSN MSN20060714202509607/14/06 20:25:31  5-MIN KMSN 150225Z 00000KT 10SM FEW045 26/19 A2994 840 66 2400 000/00 RMK AO2
14837KMSN MSN20060714203009307/14/06 20:30:31  5-MIN KMSN 150230Z 00000KT 10SM CLR 26/19 A2994 840 66 2400 000/00 RMK AO2
14837KMSN MSN20060714203509307/14/06 20:35:31  5-MIN KMSN 150235Z 00000KT 10SM CLR 26/19 A2995 840 66 2400 000/00 RMK AO2
14837KMSN MSN20060714204009307/14/06 20:40:31  5-MIN KMSN 150240Z VRB03KT 10SM CLR 26/19 A2995 840 66 2300 VRB/03 RMK AO2
14837KMSN MSN20060714204509307/14/06 20:45:31  5-MIN KMSN 150245Z 25003KT 10SM CLR 26/19 A2995 830 68 2300 250/03 RMK AO2
14837KMSN MSN20060714205011607/14/06 20:50:31  5-MIN KMSN 150250Z 00000KT 10SM CLR 26/19 A2995 830 66 2300 000/00 RMK AO2 SLP138 T02610194 53003
14837KMSN MSN20060714205509307/14/06 20:55:31  5-MIN KMSN 150255Z VRB03KT 10SM CLR 26/19 A2995 830 68 2300 VRB/03 RMK AO2
14837KMSN MSN20060714210009307/14/06 21:00:31  5-MIN KMSN 150300Z 26003KT 10SM CLR 26/19 A2996 830 68 2300 260/03 RMK AO2
14837KMSN MSN20060714210509307/14/06 21:05:31  5-MIN KMSN 150305Z VRB04KT 10SM CLR 25/19 A2996 830 71 2200 VRB/04 RMK AO2
14837KMSN MSN20060714211009307/14/06 21:10:31  5-MIN KMSN 150310Z 26003KT 10SM CLR 25/19 A2996 830 71 2200 260/03 RMK AO2
14837KMSN MSN20060714211509307/14/06 21:15:31  5-MIN KMSN 150315Z VRB03KT 10SM CLR 26/20 A2996 820 71 2300 VRB/03 RMK AO2
14837KMSN MSN20060714212009307/14/06 21:20:31  5-MIN KMSN 150320Z 00000KT 10SM CLR 25/19 A2996 820 71 2200 000/00 RMK AO2
14837KMSN MSN20060714212509307/14/06 21:25:31  5-MIN KMSN 150325Z VRB03KT 10SM CLR 25/20 A2997 820 73 2200 VRB/03 RMK AO2
14837KMSN MSN20060714213009307/14/06 21:30:31  5-MIN KMSN 150330Z 00000KT 10SM CLR 25/20 A2997 820 73 2200 000/00 RMK AO2
14837KMSN MSN20060714213509307/14/06 21:35:31  5-MIN KMSN 150335Z 00000KT 10SM CLR 25/20 A2997 820 73 2200 000/00 RMK AO2
14837KMSN MSN20060714214009307/14/06 21:40:31  5-MIN KMSN 150340Z 00000KT 10SM CLR 24/20 A2997 820 76 2100 000/00 RMK AO2
14837KMSN MSN20060714214509307/14/06 21:45:31  5-MIN KMSN 150345Z 00000KT 10SM CLR 25/20 A2997 820 73 2200 000/00 RMK AO2
14837KMSN MSN20060714215011007/14/06 21:50:31  5-MIN KMSN 150350Z 00000KT 10SM CLR 25/20 A2997 820 73 2200 000/00 RMK AO2 SLP142 T02500200
14837KMSN MSN20060714215509307/14/06 21:55:31  5-MIN KMSN 150355Z 00000KT 10SM CLR 24/20 A2997 820 76 2100 000/00 RMK AO2
14837KMSN MSN20060714220009307/14/06 22:00:31  5-MIN KMSN 150400Z 00000KT 10SM CLR 24/20 A2997 820 78 2100 000/00 RMK AO2
14837KMSN MSN20060714220509307/14/06 22:05:31  5-MIN KMSN 150405Z 00000KT 10SM CLR 24/20 A2997 820 76 2100 000/00 RMK AO2
14837KMSN MSN20060714221009307/14/06 22:10:31  5-MIN KMSN 150410Z 00000KT 10SM CLR 24/20 A2997 820 76 2100 000/00 RMK AO2
14837KMSN MSN20060714221509307/14/06 22:15:31  5-MIN KMSN 150415Z 00000KT 10SM CLR 24/20 A2997 820 78 2100 000/00 RMK AO2
14837KMSN MSN20060714222009307/14/06 22:20:31  5-MIN KMSN 150420Z 00000KT 10SM CLR 24/20 A2997 820 76 2100 000/00 RMK AO2
14837KMSN MSN20060714222509307/14/06 22:25:31  5-MIN KMSN 150425Z 00000KT 10SM CLR 24/20 A2998 810 76 2100 000/00 RMK AO2
14837KMSN MSN20060714223009307/14/06 22:30:31  5-MIN KMSN 150430Z 00000KT 10SM CLR 24/20 A2998 810 76 2100 000/00 RMK AO2
14837KMSN MSN20060714223509307/14/06 22:35:31  5-MIN KMSN 150435Z 00000KT 10SM CLR 24/20 A2998 810 76 2100 000/00 RMK AO2
14837KMSN MSN20060714224009307/14/06 22:40:31  5-MIN KMSN 150440Z VRB03KT 10SM CLR 24/21 A2998 810 78 2100 VRB/03 RMK AO2
14837KMSN MSN20060714224509307/14/06 22:45:31  5-MIN KMSN 150445Z VRB03KT 10SM CLR 24/21 A2998 810 78 2100 VRB/03 RMK AO2
14837KMSN MSN20060714225011007/14/06 22:50:31  5-MIN KMSN 150450Z VRB03KT 10SM CLR 24/21 A2998 810 78 2100 VRB/03 RMK AO2 SLP144 T02440206
14837KMSN MSN20060714225509307/14/06 22:55:31  5-MIN KMSN 150455Z 27004KT 10SM CLR 24/21 A2998 810 78 2100 270/04 RMK AO2
14837KMSN MSN20060714230009307/14/06 23:00:31  5-MIN KMSN 150500Z VRB03KT 10SM CLR 24/21 A2998 810 78 2100 VRB/03 RMK AO2
14837KMSN MSN20060714230509307/14/06 23:05:31  5-MIN KMSN 150505Z VRB03KT 10SM CLR 24/21 A2998 810 78 2100 VRB/03 RMK AO2
14837KMSN MSN20060714231009307/14/06 23:10:31  5-MIN KMSN 150510Z VRB03KT 10SM CLR 24/21 A2998 810 78 2100 VRB/03 RMK AO2
14837KMSN MSN20060714231509307/14/06 23:15:31  5-MIN KMSN 150515Z VRB04KT 10SM CLR 24/21 A2998 810 78 2100 VRB/04 RMK AO2
14837KMSN MSN20060714232009307/14/06 23:20:31  5-MIN KMSN 150520Z VRB03KT 10SM CLR 24/21 A2998 810 78 2100 VRB/03 RMK AO2
14837KMSN MSN20060714232509307/14/06 23:25:31  5-MIN KMSN 150525Z VRB03KT 10SM CLR 24/21 A2998 810 78 2100 VRB/03 RMK AO2
14837KMSN MSN20060714233009307/14/06 23:30:31  5-MIN KMSN 150530Z VRB04KT 10SM CLR 24/21 A2998 810 78 2100 VRB/04 RMK AO2
14837KMSN MSN20060714233509307/14/06 23:35:31  5-MIN KMSN 150535Z VRB03KT 10SM CLR 24/21 A2998 810 78 2100 VRB/03 RMK AO2
14837KMSN MSN20060714234009307/14/06 23:40:31  5-MIN KMSN 150540Z 00000KT 10SM CLR 24/21 A2998 810 78 2100 000/00 RMK AO2
14837KMSN MSN20060714234509307/14/06 23:45:31  5-MIN KMSN 150545Z VRB03KT 10SM CLR 24/21 A2998 810 78 2100 VRB/03 RMK AO2
14837KMSN MSN20060714235013807/14/06 23:50:31  5-MIN KMSN 150550Z VRB03KT 10SM CLR 24/21 A2998 800 78 2100 VRB/03 RMK AO2 SLP148 T02440206 10300 20239 403110206 53018
14837KMSN MSN20060714235509307/14/06 23:55:31  5-MIN KMSN 150555Z VRB03KT 10SM CLR 24/21 A2998 800 78 2100 VRB/03 RMK AO2
14837KMSN MSN20060715000009307/15/06 00:00:38  5-MIN KMSN 150600Z 00000KT 10SM CLR 24/21 A2999 800 78 2100 000/00 RMK AO2
14837KMSN MSN20060715000509307/15/06 00:05:31  5-MIN KMSN 150605Z 00000KT 10SM CLR 24/21 A2999 800 78 2100 000/00 RMK AO2
14837KMSN MSN20060715001009307/15/06 00:10:31  5-MIN KMSN 150610Z 00000KT 10SM CLR 24/21 A2999 800 78 2100 000/00 RMK AO2
14837KMSN MSN20060715001509307/15/06 00:15:33  5-MIN KMSN 150615Z VRB04KT 10SM CLR 24/21 A2999 800 81 2100 VRB/04 RMK AO2
14837KMSN MSN20060715002009307/15/06 00:20:31  5-MIN KMSN 150620Z VRB03KT 10SM CLR 24/21 A2999 800 81 2100 VRB/03 RMK AO2
14837KMSN MSN20060715002509307/15/06 00:25:31  5-MIN KMSN 150625Z VRB04KT 10SM CLR 24/21 A2999 800 81 2100 VRB/04 RMK AO2
14837KMSN MSN20060715003009307/15/06 00:30:31  5-MIN KMSN 150630Z 30005KT 10SM CLR 24/21 A2999 800 84 2100 300/05 RMK AO2
14837KMSN MSN20060715003509307/15/06 00:35:31  5-MIN KMSN 150635Z 30006KT 10SM CLR 24/21 A2999 800 84 2100 300/06 RMK AO2
14837KMSN MSN20060715004009307/15/06 00:40:31  5-MIN KMSN 150640Z VRB05KT 10SM CLR 24/21 A2999 800 84 2100 VRB/05 RMK AO2
14837KMSN MSN20060715004509307/15/06 00:45:31  5-MIN KMSN 150645Z VRB05KT 10SM CLR 24/21 A2999 800 84 2100 VRB/05 RMK AO2
14837KMSN MSN20060715005011007/15/06 00:50:31  5-MIN KMSN 150650Z VRB05KT 10SM CLR 24/21 A2999 800 84 2100 VRB/05 RMK AO2 SLP147 T02390211
14837KMSN MSN20060715005509307/15/06 00:55:31  5-MIN KMSN 150655Z VRB05KT 10SM CLR 24/21 A2999 800 84 2100 VRB/05 RMK AO2
14837KMSN MSN20060715010009307/15/06 01:00:31  5-MIN KMSN 150700Z VRB05KT 10SM CLR 24/21 A2999 800 84 2100 VRB/05 RMK AO2
14837KMSN MSN20060715010509307/15/06 01:05:31  5-MIN KMSN 150705Z 30005KT 10SM CLR 24/21 A2999 800 84 2100 300/05 RMK AO2
14837KMSN MSN20060715011009307/15/06 01:10:31  5-MIN KMSN 150710Z VRB04KT 10SM CLR 24/21 A2999 800 84 2100 VRB/04 RMK AO2
14837KMSN MSN20060715011509307/15/06 01:15:31  5-MIN KMSN 150715Z VRB04KT 10SM CLR 24/21 A2999 800 84 2100 VRB/04 RMK AO2
14837KMSN MSN20060715012009307/15/06 01:20:31  5-MIN KMSN 150720Z VRB03KT 10SM CLR 24/21 A2999 800 84 2100 VRB/03 RMK AO2
14837KMSN MSN20060715012509307/15/06 01:25:31  5-MIN KMSN 150725Z VRB03KT 10SM CLR 23/21 A2999 800 87 2000 VRB/03 RMK AO2
14837KMSN MSN20060715013009307/15/06 01:30:31  5-MIN KMSN 150730Z VRB03KT 10SM CLR 23/21 A2999 800 87 2000 VRB/03 RMK AO2
14837KMSN MSN20060715013509307/15/06 01:35:31  5-MIN KMSN 150735Z VRB03KT 10SM CLR 23/21 A2999 800 87 2000 VRB/03 RMK AO2
14837KMSN MSN20060715014009307/15/06 01:40:31  5-MIN KMSN 150740Z VRB03KT 10SM CLR 23/21 A2999 800 87 2000 VRB/03 RMK AO2
14837KMSN MSN20060715014509307/15/06 01:45:31  5-MIN KMSN 150745Z VRB03KT 10SM CLR 23/21 A2999 800 87 2000 VRB/03 RMK AO2
14837KMSN MSN20060715015011007/15/06 01:50:31  5-MIN KMSN 150750Z VRB03KT 10SM CLR 23/21 A2999 800 87 2000 VRB/03 RMK AO2 SLP148 T02330211
14837KMSN MSN20060715015509307/15/06 01:55:31  5-MIN KMSN 150755Z VRB03KT 10SM CLR 23/21 A2999 800 84 2000 VRB/03 RMK AO2
14837KMSN MSN20060715020009307/15/06 02:00:31  5-MIN KMSN 150800Z VRB03KT 10SM CLR 23/21 A2999 800 87 2000 VRB/03 RMK AO2
14837KMSN MSN20060715020509307/15/06 02:05:31  5-MIN KMSN 150805Z VRB03KT 10SM CLR 23/21 A2999 800 87 2000 VRB/03 RMK AO2
14837KMSN MSN20060715021009307/15/06 02:10:31  5-MIN KMSN 150810Z VRB03KT 10SM CLR 23/21 A2999 800 87 2000 VRB/03 RMK AO2
14837KMSN MSN20060715021509307/15/06 02:15:31  5-MIN KMSN 150815Z VRB03KT 10SM CLR 23/21 A3000 800 87 2000 VRB/03 RMK AO2
14837KMSN MSN20060715022009307/15/06 02:20:31  5-MIN KMSN 150820Z VRB04KT 10SM CLR 23/21 A3000 790 87 2000 VRB/04 RMK AO2
14837KMSN MSN20060715022509307/15/06 02:25:31  5-MIN KMSN 150825Z VRB03KT 10SM CLR 23/21 A3000 790 90 1900 VRB/03 RMK AO2
14837KMSN MSN20060715023009307/15/06 02:30:31  5-MIN KMSN 150830Z VRB04KT 10SM CLR 23/21 A3000 790 90 1900 VRB/04 RMK AO2
14837KMSN MSN20060715023509307/15/06 02:35:31  5-MIN KMSN 150835Z VRB03KT 10SM CLR 23/21 A3000 790 90 1900 VRB/03 RMK AO2
14837KMSN MSN20060715024009307/15/06 02:40:31  5-MIN KMSN 150840Z 31004KT 10SM CLR 23/21 A3000 790 90 1900 300/04 RMK AO2
14837KMSN MSN20060715024509307/15/06 02:45:31  5-MIN KMSN 150845Z 30004KT 10SM CLR 23/21 A3000 790 90 1900 300/04 RMK AO2
14837KMSN MSN20060715025011607/15/06 02:50:31  5-MIN KMSN 150850Z VRB04KT 10SM CLR 23/21 A3000 790 90 1900 VRB/04 RMK AO2 SLP153 T02280211 51010
14837KMSN MSN20060715025509307/15/06 02:55:31  5-MIN KMSN 150855Z VRB03KT 10SM CLR 23/21 A3001 790 90 1900 VRB/03 RMK AO2
14837KMSN MSN20060715030009307/15/06 03:00:31  5-MIN KMSN 150900Z VRB03KT 10SM CLR 23/21 A3001 780 87 1900 VRB/03 RMK AO2
14837KMSN MSN20060715030509307/15/06 03:05:31  5-MIN KMSN 150905Z 31004KT 10SM CLR 23/21 A3001 780 90 1900 310/04 RMK AO2
14837KMSN MSN20060715031009307/15/06 03:10:31  5-MIN KMSN 150910Z 30004KT 10SM CLR 23/21 A3001 780 87 1900 300/04 RMK AO2
14837KMSN MSN20060715031509307/15/06 03:15:31  5-MIN KMSN 150915Z VRB03KT 10SM CLR 23/21 A3001 780 87 1900 VRB/03 RMK AO2
14837KMSN MSN20060715032009307/15/06 03:20:31  5-MIN KMSN 150920Z 30004KT 10SM CLR 23/21 A3002 780 87 1900 300/04 RMK AO2
14837KMSN MSN20060715032509307/15/06 03:25:31  5-MIN KMSN 150925Z VRB04KT 10SM CLR 23/21 A3002 770 87 1900 VRB/04 RMK AO2
14837KMSN MSN20060715033009307/15/06 03:30:31  5-MIN KMSN 150930Z VRB04KT 10SM CLR 23/21 A3002 780 87 1900 VRB/04 RMK AO2
14837KMSN MSN20060715033509307/15/06 03:35:31  5-MIN KMSN 150935Z 00000KT 10SM CLR 23/21 A3002 770 87 1900 000/00 RMK AO2
14837KMSN MSN20060715034009307/15/06 03:40:31  5-MIN KMSN 150940Z 00000KT 10SM CLR 23/21 A3002 770 87 1900 000/00 RMK AO2
14837KMSN MSN20060715034509307/15/06 03:45:31  5-MIN KMSN 150945Z VRB03KT 10SM CLR 23/21 A3002 770 87 1900 VRB/03 RMK AO2
14837KMSN MSN20060715035011007/15/06 03:50:31  5-MIN KMSN 150950Z 30003KT 10SM CLR 23/21 A3002 770 87 1900 300/03 RMK AO2 SLP159 T02280206
14837KMSN MSN20060715035509307/15/06 03:55:31  5-MIN KMSN 150955Z 34004KT 10SM CLR 23/21 A3003 770 87 1900 340/04 RMK AO2
14837KMSN MSN20060715040009307/15/06 04:00:31  5-MIN KMSN 151000Z 33004KT 10SM CLR 22/21 A3003 770 90 1800 330/04 RMK AO2
14837KMSN MSN20060715040509307/15/06 04:05:31  5-MIN KMSN 151005Z 28004KT 10SM CLR 22/21 A3003 770 90 1800 280/04 RMK AO2
14837KMSN MSN20060715041009307/15/06 04:10:31  5-MIN KMSN 151010Z VRB03KT 10SM CLR 22/21 A3003 760 90 1800 VRB/03 RMK AO2
14837KMSN MSN20060715041509307/15/06 04:15:31  5-MIN KMSN 151015Z 00000KT 10SM CLR 22/21 A3003 760 90 1800 000/00 RMK AO2
14837KMSN MSN20060715042009307/15/06 04:20:31  5-MIN KMSN 151020Z 00000KT 10SM CLR 22/20 A3003 760 90 1800 000/00 RMK AO2
14837KMSN MSN20060715042509307/15/06 04:25:31  5-MIN KMSN 151025Z 00000KT 10SM CLR 22/20 A3003 760 90 1700 000/00 RMK AO2
14837KMSN MSN20060715043009307/15/06 04:30:31  5-MIN KMSN 151030Z 00000KT 10SM CLR 22/21 A3004 760 90 1800 000/00 RMK AO2
14837KMSN MSN20060715043509307/15/06 04:35:31  5-MIN KMSN 151035Z 00000KT 10SM CLR 22/20 A3004 760 90 1700 000/00 RMK AO2
14837KMSN MSN20060715044009307/15/06 04:40:31  5-MIN KMSN 151040Z 00000KT 10SM CLR 22/20 A3004 750 90 1700 000/00 RMK AO2
14837KMSN MSN20060715044509307/15/06 04:45:31  5-MIN KMSN 151045Z 00000KT 10SM CLR 22/21 A3004 750 90 1800 000/00 RMK AO2
14837KMSN MSN20060715045011007/15/06 04:50:31  5-MIN KMSN 151050Z 26003KT 10SM CLR 22/21 A3004 750 90 1800 260/03 RMK AO2 SLP166 T02220206
14837KMSN MSN20060715045509307/15/06 04:55:31  5-MIN KMSN 151055Z 00000KT 10SM CLR 22/21 A3004 750 93 1700 000/00 RMK AO2
14837KMSN MSN20060715050009307/15/06 05:00:31  5-MIN KMSN 151100Z 00000KT 10SM CLR 22/21 A3005 750 93 1700 000/00 RMK AO2
14837KMSN MSN20060715050509307/15/06 05:05:31  5-MIN KMSN 151105Z 00000KT 10SM CLR 22/21 A3005 750 93 1700 000/00 RMK AO2
14837KMSN MSN20060715051009307/15/06 05:10:31  5-MIN KMSN 151110Z 00000KT 10SM CLR 22/21 A3005 750 90 1800 000/00 RMK AO2
14837KMSN MSN20060715051509307/15/06 05:15:31  5-MIN KMSN 151115Z 00000KT 10SM CLR 22/21 A3005 750 90 1800 000/00 RMK AO2
14837KMSN MSN20060715052009307/15/06 05:20:31  5-MIN KMSN 151120Z 00000KT 10SM CLR 22/21 A3005 750 90 1800 000/00 RMK AO2
14837KMSN MSN20060715052509307/15/06 05:25:31  5-MIN KMSN 151125Z 30003KT 10SM CLR 22/20 A3005 750 87 1800 300/03 RMK AO2
14837KMSN MSN20060715053009307/15/06 05:30:31  5-MIN KMSN 151130Z 00000KT 10SM CLR 22/20 A3005 740 87 1800 000/00 RMK AO2
14837KMSN MSN20060715053509307/15/06 05:35:31  5-MIN KMSN 151135Z 00000KT 10SM CLR 23/21 A3005 740 87 1900 000/00 RMK AO2
14837KMSN MSN20060715054009207/15/06 05:40:31  5-MIN KMSN 151140Z 00000KT 9SM CLR 23/21 A3005 740 87 1900 000/00 RMK AO2
14837KMSN MSN20060715054509207/15/06 05:45:31  5-MIN KMSN 151145Z 00000KT 9SM CLR 23/21 A3005 740 87 1900 000/00 RMK AO2
14837KMSN MSN20060715055012807/15/06 05:50:31  5-MIN KMSN 151150Z 00000KT 10SM CLR 23/21 A3006 740 87 1900 000/00 RMK AO2 SLP171 T02280206 10244 20217 53006
14837KMSN MSN20060715055509307/15/06 05:55:31  5-MIN KMSN 151155Z 00000KT 10SM CLR 23/21 A3006 740 84 1900 000/00 RMK AO2
14837KMSN MSN20060715060009307/15/06 06:00:31  5-MIN KMSN 151200Z 30004KT 10SM CLR 23/21 A3006 740 84 1900 300/04 RMK AO2
14837KMSN MSN20060715060509307/15/06 06:05:31  5-MIN KMSN 151205Z 30003KT 10SM CLR 24/21 A3006 730 81 2000 300/03 RMK AO2
14837KMSN MSN20060715061009307/15/06 06:10:31  5-MIN KMSN 151210Z VRB03KT 10SM CLR 24/21 A3007 730 81 2000 VRB/03 RMK AO2
14837KMSN MSN20060715061509307/15/06 06:15:31  5-MIN KMSN 151215Z 30004KT 10SM CLR 24/21 A3007 730 81 2000 300/04 RMK AO2
14837KMSN MSN20060715062009307/15/06 06:20:31  5-MIN KMSN 151220Z 30003KT 10SM CLR 24/21 A3007 730 81 2000 300/03 RMK AO2
14837KMSN MSN20060715062509307/15/06 06:25:31  5-MIN KMSN 151225Z VRB04KT 10SM CLR 24/21 A3007 730 78 2000 VRB/04 RMK AO2
14837KMSN MSN20060715063009307/15/06 06:30:31  5-MIN KMSN 151230Z 30005KT 10SM CLR 24/21 A3007 730 78 2000 300/05 RMK AO2
14837KMSN MSN20060715063509307/15/06 06:35:31  5-MIN KMSN 151235Z 30004KT 10SM CLR 24/21 A3007 730 78 2000 300/04 RMK AO2
14837KMSN MSN20060715064009307/15/06 06:40:31  5-MIN KMSN 151240Z 31004KT 10SM CLR 24/21 A3007 730 78 2000 310/04 RMK AO2
14837KMSN MSN20060715064509307/15/06 06:45:31  5-MIN KMSN 151245Z 32005KT 10SM CLR 24/21 A3007 730 78 2000 320/05 RMK AO2
14837KMSN MSN20060715065011007/15/06 06:50:31  5-MIN KMSN 151250Z VRB04KT 10SM CLR 25/21 A3007 730 76 2100 VRB/04 RMK AO2 SLP176 T02500206
14837KMSN MSN20060715065509307/15/06 06:55:31  5-MIN KMSN 151255Z 31004KT 10SM CLR 25/21 A3007 720 79 2100 310/04 RMK AO2
14837KMSN MSN20060715070009307/15/06 07:00:31  5-MIN KMSN 151300Z 32003KT 10SM CLR 25/21 A3008 720 76 2100 320/03 RMK AO2
14837KMSN MSN20060715070509307/15/06 07:05:31  5-MIN KMSN 151305Z 32005KT 10SM CLR 26/21 A3008 720 76 2100 320/05 RMK AO2
14837KMSN MSN20060715071009307/15/06 07:10:31  5-MIN KMSN 151310Z 32005KT 10SM CLR 26/21 A3008 720 73 2100 320/05 RMK AO2
14837KMSN MSN20060715071509307/15/06 07:15:31  5-MIN KMSN 151315Z 31006KT 10SM CLR 26/21 A3008 720 71 2200 310/06 RMK AO2
14837KMSN MSN20060715072009307/15/06 07:20:31  5-MIN KMSN 151320Z 32006KT 10SM CLR 26/21 A3008 720 71 2200 320/06 RMK AO2
14837KMSN MSN20060715072509307/15/06 07:25:31  5-MIN KMSN 151325Z 32006KT 10SM CLR 26/21 A3008 720 71 2200 310/06 RMK AO2
14837KMSN MSN20060715073009307/15/06 07:30:31  5-MIN KMSN 151330Z 32007KT 10SM CLR 27/21 A3008 720 69 2300 320/07 RMK AO2
14837KMSN MSN20060715073509307/15/06 07:35:31  5-MIN KMSN 151335Z 32007KT 10SM CLR 27/20 A3008 710 66 2300 320/07 RMK AO2
14837KMSN MSN20060715074009307/15/06 07:40:31  5-MIN KMSN 151340Z 32007KT 10SM CLR 27/20 A3008 710 66 2300 320/07 RMK AO2
14837KMSN MSN20060715074509307/15/06 07:45:31  5-MIN KMSN 151345Z 32005KT 10SM CLR 27/20 A3008 710 66 2300 320/05 RMK AO2
14837KMSN MSN20060715075011007/15/06 07:50:31  5-MIN KMSN 151350Z VRB04KT 10SM CLR 27/21 A3009 710 66 2300 VRB/04 RMK AO2 SLP181 T02720206
14837KMSN MSN20060715075509307/15/06 07:55:31  5-MIN KMSN 151355Z 31006KT 10SM CLR 27/20 A3009 710 64 2300 310/06 RMK AO2
14837KMSN MSN20060715080009307/15/06 08:00:31  5-MIN KMSN 151400Z 31004KT 10SM CLR 27/20 A3009 710 64 2300 300/04 RMK AO2
14837KMSN MSN20060715080509307/15/06 08:05:31  5-MIN KMSN 151405Z 32004KT 10SM CLR 27/20 A3009 710 64 2300 320/04 RMK AO2
14837KMSN MSN20060715081009307/15/06 08:10:31  5-MIN KMSN 151410Z 31006KT 10SM CLR 27/20 A3009 710 64 2300 310/06 RMK AO2
14837KMSN MSN20060715081509307/15/06 08:15:31  5-MIN KMSN 151415Z 32005KT 10SM CLR 27/20 A3009 710 64 2300 320/05 RMK AO2
14837KMSN MSN20060715082009307/15/06 08:20:31  5-MIN KMSN 151420Z 33004KT 10SM CLR 28/20 A3009 700 62 2400 330/04 RMK AO2
14837KMSN MSN20060715082509307/15/06 08:25:31  5-MIN KMSN 151425Z 33006KT 10SM CLR 28/20 A3009 700 62 2400 330/06 RMK AO2
14837KMSN MSN20060715083009307/15/06 08:30:31  5-MIN KMSN 151430Z 32006KT 10SM CLR 28/20 A3009 710 62 2400 320/06 RMK AO2
14837KMSN MSN20060715083509307/15/06 08:35:31  5-MIN KMSN 151435Z 31005KT 10SM CLR 28/19 A3009 710 58 2400 310/05 RMK AO2
14837KMSN MSN20060715084009307/15/06 08:40:31  5-MIN KMSN 151440Z 32005KT 10SM CLR 28/20 A3009 700 60 2400 320/05 RMK AO2
14837KMSN MSN20060715084509307/15/06 08:45:31  5-MIN KMSN 151445Z 32005KT 10SM CLR 28/20 A3009 700 60 2400 320/05 RMK AO2
14837KMSN MSN20060715085011607/15/06 08:50:31  5-MIN KMSN 151450Z 30005KT 10SM CLR 28/19 A3010 700 58 2400 290/05 RMK AO2 SLP184 T02830194 51017
14837KMSN MSN20060715085509307/15/06 08:55:31  5-MIN KMSN 151455Z 32005KT 10SM CLR 28/19 A3010 700 58 2400 320/05 RMK AO2
14837KMSN MSN20060715090009307/15/06 09:00:31  5-MIN KMSN 151500Z 33006KT 10SM CLR 29/19 A3010 700 56 2500 330/06 RMK AO2
14837KMSN MSN20060715090509307/15/06 09:05:31  5-MIN KMSN 151505Z 33005KT 10SM CLR 29/20 A3010 700 58 2500 330/05 RMK AO2
14837KMSN MSN20060715091009307/15/06 09:10:31  5-MIN KMSN 151510Z VRB03KT 10SM CLR 29/21 A3010 700 60 2500 VRB/03 RMK AO2
14837KMSN MSN20060715091509307/15/06 09:15:31  5-MIN KMSN 151515Z VRB04KT 10SM CLR 29/21 A3010 700 58 2600 VRB/04 RMK AO2
14837KMSN MSN20060715092009307/15/06 09:20:31  5-MIN KMSN 151520Z 29005KT 10SM CLR 29/20 A3010 700 56 2600 290/05 RMK AO2
14837KMSN MSN20060715092509307/15/06 09:25:31  5-MIN KMSN 151525Z 00000KT 10SM CLR 29/20 A3010 700 56 2600 000/00 RMK AO2
14837KMSN MSN20060715093009307/15/06 09:30:31  5-MIN KMSN 151530Z 29004KT 10SM CLR 29/20 A3010 700 56 2600 290/04 RMK AO2
14837KMSN MSN20060715093509307/15/06 09:35:31  5-MIN KMSN 151535Z VRB03KT 10SM CLR 29/21 A3010 700 58 2600 VRB/03 RMK AO2
14837KMSN MSN20060715094009307/15/06 09:40:31  5-MIN KMSN 151540Z 30004KT 10SM CLR 30/20 A3010 700 54 2600 300/04 RMK AO2
14837KMSN MSN20060715094509307/15/06 09:45:31  5-MIN KMSN 151545Z VRB05KT 10SM CLR 30/20 A3010 700 54 2600 VRB/05 RMK AO2
14837KMSN MSN20060715095011007/15/06 09:50:31  5-MIN KMSN 151550Z 00000KT 10SM CLR 30/20 A3010 700 54 2600 000/00 RMK AO2 SLP187 T03000200
14837KMSN MSN20060715095509307/15/06 09:55:31  5-MIN KMSN 151555Z VRB04KT 10SM CLR 31/21 A3010 700 54 2700 VRB/04 RMK AO2
14837KMSN MSN20060715100009307/15/06 10:00:31  5-MIN KMSN 151600Z VRB04KT 10SM CLR 30/21 A3010 700 56 2600 VRB/04 RMK AO2
14837KMSN MSN20060715100509307/15/06 10:05:31  5-MIN KMSN 151605Z 27005KT 10SM CLR 31/21 A3010 700 54 2700 270/05 RMK AO2
14837KMSN MSN20060715101009307/15/06 10:10:31  5-MIN KMSN 151610Z 28005KT 10SM CLR 31/20 A3010 700 52 2700 270/05 RMK AO2
14837KMSN MSN20060715101509307/15/06 10:15:31  5-MIN KMSN 151615Z 00000KT 10SM CLR 31/20 A3010 700 52 2700 000/00 RMK AO2
14837KMSN MSN20060715102009307/15/06 10:20:31  5-MIN KMSN 151620Z VRB04KT 10SM CLR 31/20 A3010 700 52 2700 VRB/04 RMK AO2
14837KMSN MSN20060715102509307/15/06 10:25:31  5-MIN KMSN 151625Z 30004KT 10SM CLR 31/19 A3010 700 51 2700 300/04 RMK AO2
14837KMSN MSN20060715103009307/15/06 10:30:31  5-MIN KMSN 151630Z VRB03KT 10SM CLR 31/20 A3010 700 52 2700 VRB/03 RMK AO2
14837KMSN MSN20060715103509307/15/06 10:35:31  5-MIN KMSN 151635Z 31006KT 10SM CLR 31/20 A3010 700 51 2700 310/06 RMK AO2
14837KMSN MSN20060715104009307/15/06 10:40:31  5-MIN KMSN 151640Z 28003KT 10SM CLR 31/19 A3010 700 47 2700 280/03 RMK AO2
14837KMSN MSN20060715104509307/15/06 10:45:31  5-MIN KMSN 151645Z VRB04KT 10SM CLR 31/19 A3010 700 49 2700 VRB/04 RMK AO2
14837KMSN MSN20060715105011007/15/06 10:50:31  5-MIN KMSN 151650Z 29007KT 10SM CLR 31/19 A3010 700 49 2700 290/07 RMK AO2 SLP187 T03110194
14837KMSN MSN20060715105509307/15/06 10:55:31  5-MIN KMSN 151655Z 00000KT 10SM CLR 32/19 A3010 700 47 2800 000/00 RMK AO2
14837KMSN MSN20060715110009307/15/06 11:00:31  5-MIN KMSN 151700Z VRB04KT 10SM CLR 32/20 A3010 700 49 2800 VRB/04 RMK AO2
14837KMSN MSN20060715110509307/15/06 11:05:31  5-MIN KMSN 151705Z VRB06KT 10SM CLR 32/20 A3010 700 49 2800 VRB/06 RMK AO2
14837KMSN MSN20060715111009307/15/06 11:10:31  5-MIN KMSN 151710Z VRB04KT 10SM CLR 31/19 A3010 700 49 2700 VRB/04 RMK AO2
14837KMSN MSN20060715111509307/15/06 11:15:31  5-MIN KMSN 151715Z VRB05KT 10SM CLR 32/19 A3009 700 46 2800 VRB/05 RMK AO2
14837KMSN MSN20060715112009307/15/06 11:20:31  5-MIN KMSN 151720Z VRB04KT 10SM CLR 32/19 A3009 700 46 2800 VRB/04 RMK AO2
14837KMSN MSN20060715112509307/15/06 11:25:31  5-MIN KMSN 151725Z 26004KT 10SM CLR 32/19 A3009 710 47 2800 260/04 RMK AO2
14837KMSN MSN20060715113009307/15/06 11:30:31  5-MIN KMSN 151730Z VRB05KT 10SM CLR 32/19 A3009 710 47 2800 VRB/05 RMK AO2
14837KMSN MSN20060715113509307/15/06 11:35:31  5-MIN KMSN 151735Z 25007KT 10SM CLR 32/19 A3009 710 47 2800 250/07 RMK AO2
14837KMSN MSN20060715114009307/15/06 11:40:31  5-MIN KMSN 151740Z VRB04KT 10SM CLR 32/19 A3009 710 46 2800 VRB/04 RMK AO2
14837KMSN MSN20060715114509307/15/06 11:45:31  5-MIN KMSN 151745Z VRB05KT 10SM CLR 32/19 A3009 710 47 2800 VRB/05 RMK AO2
14837KMSN MSN20060715115012807/15/06 11:50:31  5-MIN KMSN 151750Z VRB06KT 10SM CLR 32/18 A3009 710 43 2800 VRB/06 RMK AO2 SLP182 T03170178 10317 20233 51013
14837KMSN MSN20060715115509307/15/06 11:55:31  5-MIN KMSN 151755Z VRB05KT 10SM CLR 32/18 A3009 710 44 2800 VRB/05 RMK AO2
14837KMSN MSN20060715120009307/15/06 12:00:31  5-MIN KMSN 151800Z VRB04KT 10SM CLR 32/19 A3009 710 44 2900 VRB/04 RMK AO2
14837KMSN MSN20060715120509307/15/06 12:05:31  5-MIN KMSN 151805Z 27006KT 10SM CLR 32/18 A3009 710 43 2900 260/06 RMK AO2
14837KMSN MSN20060715121009307/15/06 12:10:31  5-MIN KMSN 151810Z 24005KT 10SM CLR 32/19 A3009 710 44 2900 240/05 RMK AO2
14837KMSN MSN20060715121510907/15/06 12:15:31  5-MIN KMSN 151815Z 22007KT 190V270 10SM CLR 32/19 A3008 710 44 2900 220/07 190V270 RMK AO2
14837KMSN MSN20060715122009307/15/06 12:20:31  5-MIN KMSN 151820Z 21007KT 10SM CLR 32/19 A3008 710 44 2900 210/07 RMK AO2
14837KMSN MSN20060715122509307/15/06 12:25:31  5-MIN KMSN 151825Z 22006KT 10SM CLR 32/18 A3008 710 43 2900 220/06 RMK AO2
14837KMSN MSN20060715123009307/15/06 12:30:31  5-MIN KMSN 151830Z VRB04KT 10SM CLR 32/18 A3008 710 43 2900 VRB/04 RMK AO2
14837KMSN MSN20060715123509307/15/06 12:35:31  5-MIN KMSN 151835Z VRB05KT 10SM CLR 33/19 A3008 710 44 2900 VRB/05 RMK AO2
14837KMSN MSN20060715124009307/15/06 12:40:31  5-MIN KMSN 151840Z 22006KT 10SM CLR 33/19 A3008 720 43 2900 220/06 RMK AO2
14837KMSN MSN20060715124509307/15/06 12:45:31  5-MIN KMSN 151845Z 22006KT 10SM CLR 33/18 A3008 720 41 2900 220/06 RMK AO2
14837KMSN MSN20060715125011007/15/06 12:50:31  5-MIN KMSN 151850Z VRB06KT 10SM CLR 32/18 A3008 720 43 2900 VRB/06 RMK AO2 SLP178 T03220183
14837KMSN MSN20060715125509307/15/06 12:55:31  5-MIN KMSN 151855Z 21007KT 10SM CLR 33/19 A3008 720 43 2900 210/07 RMK AO2
14837KMSN MSN20060715130009307/15/06 13:00:31  5-MIN KMSN 151900Z 22007KT 10SM CLR 33/18 A3008 720 41 2900 220/07 RMK AO2
14837KMSN MSN20060715130509307/15/06 13:05:31  5-MIN KMSN 151905Z 21006KT 10SM CLR 33/18 A3008 720 41 2900 210/06 RMK AO2
14837KMSN MSN20060715131009307/15/06 13:10:31  5-MIN KMSN 151910Z 21007KT 10SM CLR 33/19 A3007 720 43 2900 210/07 RMK AO2
14837KMSN MSN20060715131510907/15/06 13:15:31  5-MIN KMSN 151915Z 21007KT 170V230 10SM CLR 33/18 A3007 720 41 2900 210/07 170V230 RMK AO2
14837KMSN MSN20060715132009307/15/06 13:20:31  5-MIN KMSN 151920Z 21007KT 10SM CLR 33/18 A3007 720 40 3000 210/07 RMK AO2
14837KMSN MSN20060715132509307/15/06 13:25:31  5-MIN KMSN 151925Z VRB05KT 10SM CLR 33/18 A3007 730 41 3000 VRB/05 RMK AO2
14837KMSN MSN20060715133009307/15/06 13:30:31  5-MIN KMSN 151930Z VRB05KT 10SM CLR 33/18 A3007 730 41 3000 VRB/05 RMK AO2
14837KMSN MSN20060715133509307/15/06 13:35:31  5-MIN KMSN 151935Z VRB06KT 10SM CLR 33/18 A3007 730 41 3000 VRB/06 RMK AO2
14837KMSN MSN20060715134009307/15/06 13:40:31  5-MIN KMSN 151940Z VRB04KT 10SM CLR 33/19 A3007 730 42 3000 VRB/04 RMK AO2
14837KMSN MSN20060715134509307/15/06 13:45:31  5-MIN KMSN 151945Z VRB04KT 10SM CLR 33/19 A3007 730 42 3000 VRB/04 RMK AO2
14837KMSN MSN20060715135011007/15/06 13:50:31  5-MIN KMSN 151950Z VRB04KT 10SM CLR 33/19 A3007 730 42 3000 VRB/04 RMK AO2 SLP174 T03330189
14837KMSN MSN20060715135509307/15/06 13:55:31  5-MIN KMSN 151955Z VRB05KT 10SM CLR 33/17 A3007 730 39 3000 VRB/05 RMK AO2
14837KMSN MSN20060715140009307/15/06 14:00:31  5-MIN KMSN 152000Z VRB04KT 10SM CLR 33/18 A3006 730 40 3000 VRB/04 RMK AO2
14837KMSN MSN20060715140509307/15/06 14:05:31  5-MIN KMSN 152005Z 24005KT 10SM CLR 33/17 A3006 730 37 3000 240/05 RMK AO2
14837KMSN MSN20060715141009307/15/06 14:10:31  5-MIN KMSN 152010Z VRB04KT 10SM CLR 33/17 A3006 730 37 3000 VRB/04 RMK AO2
14837KMSN MSN20060715141509307/15/06 14:15:31  5-MIN KMSN 152015Z 23006KT 10SM CLR 33/18 A3006 730 40 3000 230/06 RMK AO2
14837KMSN MSN20060715142009307/15/06 14:20:31  5-MIN KMSN 152020Z 25007KT 10SM CLR 33/18 A3006 730 39 3000 250/07 RMK AO2
14837KMSN MSN20060715142509307/15/06 14:25:31  5-MIN KMSN 152025Z 24009KT 10SM CLR 33/18 A3006 730 39 3000 240/09 RMK AO2
14837KMSN MSN20060715143009307/15/06 14:30:31  5-MIN KMSN 152030Z 23006KT 10SM CLR 33/18 A3006 730 40 3000 230/06 RMK AO2
14837KMSN MSN20060715143509307/15/06 14:35:31  5-MIN KMSN 152035Z VRB06KT 10SM CLR 33/19 A3006 730 42 3000 VRB/06 RMK AO2
14837KMSN MSN20060715144010907/15/06 14:40:31  5-MIN KMSN 152040Z 24007KT 210V270 10SM CLR 33/18 A3006 730 40 3000 240/07 210V270 RMK AO2
14837KMSN MSN20060715144510907/15/06 14:45:31  5-MIN KMSN 152045Z 24008KT 200V270 10SM CLR 33/18 A3006 730 40 3000 240/08 200V270 RMK AO2
14837KMSN MSN20060715145011607/15/06 14:50:31  5-MIN KMSN 152050Z 25007KT 10SM CLR 33/18 A3006 730 40 3000 240/07 RMK AO2 SLP172 T03330183 58002
14837KMSN MSN20060715145510907/15/06 14:55:31  5-MIN KMSN 152055Z 24007KT 210V270 10SM CLR 33/18 A3006 730 40 3000 240/07 210V270 RMK AO2
14837KMSN MSN20060715150009307/15/06 15:00:31  5-MIN KMSN 152100Z 23007KT 10SM CLR 33/18 A3006 740 40 3000 230/07 RMK AO2
14837KMSN MSN20060715150509307/15/06 15:05:31  5-MIN KMSN 152105Z 23008KT 10SM CLR 33/18 A3006 740 40 3000 230/08 RMK AO2
14837KMSN MSN20060715151010907/15/06 15:10:31  5-MIN KMSN 152110Z 24008KT 200V270 10SM CLR 33/18 A3006 740 40 3000 240/08 200V270 RMK AO2
14837KMSN MSN20060715151509307/15/06 15:15:31  5-MIN KMSN 152115Z VRB05KT 10SM CLR 33/18 A3006 740 40 3000 VRB/05 RMK AO2
14837KMSN MSN20060715152009307/15/06 15:20:31  5-MIN KMSN 152120Z VRB05KT 10SM CLR 33/18 A3005 740 40 3000 VRB/05 RMK AO2
14837KMSN MSN20060715152510907/15/06 15:25:31  5-MIN KMSN 152125Z 23007KT 210V270 10SM CLR 33/18 A3005 740 40 3000 230/07 210V270 RMK AO2
14837KMSN MSN20060715153009307/15/06 15:30:31  5-MIN KMSN 152130Z 26006KT 10SM CLR 33/18 A3005 740 39 3000 260/06 RMK AO2
14837KMSN MSN20060715153509307/15/06 15:35:31  5-MIN KMSN 152135Z VRB06KT 10SM CLR 33/18 A3006 740 40 3000 VRB/06 RMK AO2
14837KMSN MSN20060715154010907/15/06 15:40:31  5-MIN KMSN 152140Z 24007KT 200V280 10SM CLR 33/20 A3005 740 46 3000 240/07 200V280 RMK AO2
14837KMSN MSN20060715154510907/15/06 15:45:31  5-MIN KMSN 152145Z 25007KT 220V280 10SM CLR 33/20 A3005 740 46 3000 250/07 220V280 RMK AO2
14837KMSN MSN20060715155011007/15/06 15:50:31  5-MIN KMSN 152150Z 23006KT 10SM CLR 33/20 A3005 740 46 3000 230/06 RMK AO2 SLP170 T03280200
14837KMSN MSN20060715155509307/15/06 15:55:31  5-MIN KMSN 152155Z VRB04KT 10SM CLR 33/20 A3005 740 46 3000 VRB/04 RMK AO2
14837KMSN MSN20060715160009307/15/06 16:00:31  5-MIN KMSN 152200Z 23007KT 10SM CLR 33/19 A3005 740 44 3000 220/07 RMK AO2
14837KMSN MSN20060715160509307/15/06 16:05:31  5-MIN KMSN 152205Z 22007KT 10SM CLR 33/19 A3005 740 44 3000 220/07 RMK AO2
14837KMSN MSN20060715161010907/15/06 16:10:31  5-MIN KMSN 152210Z 23007KT 210V300 10SM CLR 32/19 A3005 740 46 2900 230/07 210V300 RMK AO2
14837KMSN MSN20060715161509307/15/06 16:15:31  5-MIN KMSN 152215Z 22005KT 10SM CLR 32/19 A3005 740 46 2900 220/05 RMK AO2
14837KMSN MSN20060715162009307/15/06 16:20:31  5-MIN KMSN 152220Z 24007KT 10SM CLR 32/19 A3005 740 46 2900 240/07 RMK AO2
14837KMSN MSN20060715162509307/15/06 16:25:31  5-MIN KMSN 152225Z 24008KT 10SM CLR 32/19 A3005 740 44 2900 240/08 RMK AO2
14837KMSN MSN20060715163009307/15/06 16:30:31  5-MIN KMSN 152230Z 23008KT 10SM CLR 32/18 A3005 740 43 2900 230/08 RMK AO2
14837KMSN MSN20060715163509307/15/06 16:35:31  5-MIN KMSN 152235Z 23007KT 10SM CLR 32/19 A3005 740 44 2900 230/07 RMK AO2
14837KMSN MSN20060715164009307/15/06 16:40:31  5-MIN KMSN 152240Z VRB06KT 10SM CLR 32/19 A3005 750 46 2900 VRB/06 RMK AO2
14837KMSN MSN20060715164509307/15/06 16:45:31  5-MIN KMSN 152245Z 24006KT 10SM CLR 32/19 A3005 750 46 2900 240/06 RMK AO2
14837KMSN MSN20060715165011007/15/06 16:50:31  5-MIN KMSN 152250Z VRB06KT 10SM CLR 32/19 A3005 750 46 2900 VRB/06 RMK AO2 SLP168 T03220194
14837KMSN MSN20060715165509307/15/06 16:55:31  5-MIN KMSN 152255Z VRB06KT 10SM CLR 32/20 A3005 750 48 2900 VRB/06 RMK AO2
14837KMSN MSN20060715170009307/15/06 17:00:31  5-MIN KMSN 152300Z VRB06KT 10SM CLR 32/21 A3004 750 51 2900 VRB/06 RMK AO2
14837KMSN MSN20060715170509307/15/06 17:05:31  5-MIN KMSN 152305Z VRB06KT 10SM CLR 32/20 A3004 750 49 2900 VRB/06 RMK AO2
14837KMSN MSN20060715171009307/15/06 17:10:31  5-MIN KMSN 152310Z 22005KT 10SM CLR 32/21 A3004 750 51 2900 220/05 RMK AO2
14837KMSN MSN20060715171510907/15/06 17:15:31  5-MIN KMSN 152315Z 22007KT 190V250 10SM CLR 32/21 A3004 750 51 2900 220/07 190V250 RMK AO2
14837KMSN MSN20060715172009307/15/06 17:20:31  5-MIN KMSN 152320Z VRB06KT 10SM CLR 32/21 A3004 750 53 2900 VRB/06 RMK AO2
14837KMSN MSN20060715172509307/15/06 17:25:31  5-MIN KMSN 152325Z 23005KT 10SM CLR 32/20 A3004 750 49 2900 230/05 RMK AO2
14837KMSN MSN20060715173009307/15/06 17:30:31  5-MIN KMSN 152330Z 23006KT 10SM CLR 31/20 A3004 760 51 2800 230/06 RMK AO2
14837KMSN MSN20060715173509307/15/06 17:35:31  5-MIN KMSN 152335Z 23007KT 10SM CLR 31/19 A3004 760 49 2800 230/07 RMK AO2
14837KMSN MSN20060715174009307/15/06 17:40:31  5-MIN KMSN 152340Z 23008KT 10SM CLR 31/19 A3004 760 49 2800 230/08 RMK AO2
14837KMSN MSN20060715174509307/15/06 17:45:31  5-MIN KMSN 152345Z VRB06KT 10SM CLR 31/19 A3004 760 49 2800 VRB/06 RMK AO2
14837KMSN MSN20060715175012807/15/06 17:50:31  5-MIN KMSN 152350Z 22007KT 10SM CLR 31/19 A3004 760 49 2800 220/07 RMK AO2 SLP164 T03110194 10339 20311 56010
14837KMSN MSN20060715175509307/15/06 17:55:31  5-MIN KMSN 152355Z 23007KT 10SM CLR 31/19 A3004 760 49 2800 220/07 RMK AO2
14837KMSN MSN20060715180009307/15/06 18:00:31  5-MIN KMSN 160000Z 23006KT 10SM CLR 31/20 A3004 760 51 2800 230/06 RMK AO2
14837KMSN MSN20060715180509307/15/06 18:05:31  5-MIN KMSN 160005Z 23005KT 10SM CLR 31/20 A3004 760 51 2800 230/05 RMK AO2
14837KMSN MSN20060715181009307/15/06 18:10:31  5-MIN KMSN 160010Z 23005KT 10SM CLR 31/21 A3004 750 54 2700 230/05 RMK AO2
14837KMSN MSN20060715181509307/15/06 18:15:31  5-MIN KMSN 160015Z VRB05KT 10SM CLR 31/21 A3004 760 54 2700 VRB/05 RMK AO2
14837KMSN MSN20060715182009307/15/06 18:20:31  5-MIN KMSN 160020Z VRB04KT 10SM CLR 31/21 A3004 760 54 2700 VRB/04 RMK AO2
14837KMSN MSN20060715182509307/15/06 18:25:31  5-MIN KMSN 160025Z VRB04KT 10SM CLR 31/21 A3004 760 56 2700 VRB/04 RMK AO2
14837KMSN MSN20060715183009307/15/06 18:30:31  5-MIN KMSN 160030Z VRB04KT 10SM CLR 31/21 A3004 750 56 2700 VRB/04 RMK AO2
14837KMSN MSN20060715183509307/15/06 18:35:31  5-MIN KMSN 160035Z VRB05KT 10SM CLR 31/21 A3004 750 56 2700 VRB/05 RMK AO2
14837KMSN MSN20060715184009307/15/06 18:40:31  5-MIN KMSN 160040Z 23004KT 10SM CLR 30/21 A3004 750 58 2700 230/04 RMK AO2
14837KMSN MSN20060715184509307/15/06 18:45:31  5-MIN KMSN 160045Z 24004KT 10SM CLR 30/21 A3004 750 58 2700 230/04 RMK AO2
14837KMSN MSN20060715185011007/15/06 18:50:31  5-MIN KMSN 160050Z 22006KT 10SM CLR 30/21 A3004 760 58 2700 220/06 RMK AO2 SLP165 T03000211
14837KMSN MSN20060715185509307/15/06 18:55:31  5-MIN KMSN 160055Z 23004KT 10SM CLR 30/21 A3004 760 58 2700 230/04 RMK AO2
14837KMSN MSN20060715190009307/15/06 19:00:31  5-MIN KMSN 160100Z 23006KT 10SM CLR 30/21 A3004 750 58 2700 230/06 RMK AO2
14837KMSN MSN20060715190509307/15/06 19:05:31  5-MIN KMSN 160105Z 22006KT 10SM CLR 30/21 A3004 760 58 2700 220/06 RMK AO2
14837KMSN MSN20060715191009307/15/06 19:10:31  5-MIN KMSN 160110Z 23005KT 10SM CLR 29/21 A3004 760 58 2600 230/05 RMK AO2
14837KMSN MSN20060715191509307/15/06 19:15:31  5-MIN KMSN 160115Z 23005KT 10SM CLR 29/21 A3004 750 58 2600 230/05 RMK AO2
14837KMSN MSN20060715192009307/15/06 19:20:31  5-MIN KMSN 160120Z 23004KT 10SM CLR 29/21 A3004 750 58 2600 230/04 RMK AO2
14837KMSN MSN20060715192509307/15/06 19:25:31  5-MIN KMSN 160125Z 23005KT 10SM CLR 29/21 A3004 750 58 2600 230/05 RMK AO2
14837KMSN MSN20060715193009307/15/06 19:30:31  5-MIN KMSN 160130Z 23004KT 10SM CLR 29/21 A3004 750 60 2600 230/04 RMK AO2
14837KMSN MSN20060715193509307/15/06 19:35:31  5-MIN KMSN 160135Z 23005KT 10SM CLR 29/21 A3004 750 60 2600 230/05 RMK AO2
14837KMSN MSN20060715194009307/15/06 19:40:31  5-MIN KMSN 160140Z 23005KT 10SM CLR 29/21 A3004 750 60 2600 220/05 RMK AO2
14837KMSN MSN20060715194509307/15/06 19:45:31  5-MIN KMSN 160145Z 22005KT 10SM CLR 29/21 A3004 750 60 2600 220/05 RMK AO2
14837KMSN MSN20060715195011007/15/06 19:50:31  5-MIN KMSN 160150Z 23005KT 10SM CLR 28/21 A3004 750 62 2500 230/05 RMK AO2 SLP165 T02830206
14837KMSN MSN20060715195509307/15/06 19:55:31  5-MIN KMSN 160155Z 23005KT 10SM CLR 29/21 A3004 750 60 2600 230/05 RMK AO2
14837KMSN MSN20060715200009307/15/06 20:00:31  5-MIN KMSN 160200Z 23005KT 10SM CLR 28/20 A3004 750 60 2500 230/05 RMK AO2
14837KMSN MSN20060715200509307/15/06 20:05:31  5-MIN KMSN 160205Z 22004KT 10SM CLR 28/20 A3004 750 60 2500 220/04 RMK AO2
14837KMSN MSN20060715201009307/15/06 20:10:31  5-MIN KMSN 160210Z 23004KT 10SM CLR 28/20 A3004 750 60 2500 220/04 RMK AO2
14837KMSN MSN20060715201509307/15/06 20:15:31  5-MIN KMSN 160215Z 23004KT 10SM CLR 28/20 A3004 750 60 2500 230/04 RMK AO2
14837KMSN MSN20060715202009307/15/06 20:20:31  5-MIN KMSN 160220Z 22004KT 10SM CLR 28/20 A3005 750 62 2400 220/04 RMK AO2
14837KMSN MSN20060715202509307/15/06 20:25:31  5-MIN KMSN 160225Z 22005KT 10SM CLR 28/20 A3005 750 62 2400 220/05 RMK AO2
14837KMSN MSN20060715203009307/15/06 20:30:31  5-MIN KMSN 160230Z 23004KT 10SM CLR 28/20 A3005 750 62 2400 230/04 RMK AO2
14837KMSN MSN20060715203509307/15/06 20:35:31  5-MIN KMSN 160235Z 23004KT 10SM CLR 28/20 A3005 740 62 2400 230/04 RMK AO2
14837KMSN MSN20060715204009307/15/06 20:40:31  5-MIN KMSN 160240Z 23004KT 10SM CLR 27/20 A3005 740 64 2400 230/04 RMK AO2
14837KMSN MSN20060715204509307/15/06 20:45:31  5-MIN KMSN 160245Z 23004KT 10SM CLR 27/20 A3005 740 64 2400 230/04 RMK AO2
14837KMSN MSN20060715205011607/15/06 20:50:31  5-MIN KMSN 160250Z 23004KT 10SM CLR 27/20 A3005 740 64 2400 230/04 RMK AO2 SLP170 T02720200 58008
14837KMSN MSN20060715205509307/15/06 20:55:31  5-MIN KMSN 160255Z 22003KT 10SM CLR 27/20 A3005 740 64 2400 220/03 RMK AO2
14837KMSN MSN20060715210009307/15/06 21:00:31  5-MIN KMSN 160300Z 22003KT 10SM CLR 27/21 A3006 740 66 2400 220/03 RMK AO2
14837KMSN MSN20060715210509307/15/06 21:05:31  5-MIN KMSN 160305Z 21003KT 10SM CLR 28/21 A3006 740 64 2400 210/03 RMK AO2
14837KMSN MSN20060715211009307/15/06 21:10:31  5-MIN KMSN 160310Z 21003KT 10SM CLR 27/21 A3006 740 66 2400 210/03 RMK AO2
14837KMSN MSN20060715211509307/15/06 21:15:31  5-MIN KMSN 160315Z 20003KT 10SM CLR 27/21 A3006 740 66 2400 200/03 RMK AO2
14837KMSN MSN20060715212009307/15/06 21:20:31  5-MIN KMSN 160320Z 20003KT 10SM CLR 27/21 A3006 740 66 2400 200/03 RMK AO2
14837KMSN MSN20060715212509307/15/06 21:25:31  5-MIN KMSN 160325Z 20004KT 10SM CLR 27/21 A3005 740 69 2300 200/04 RMK AO2
14837KMSN MSN20060715213009307/15/06 21:30:31  5-MIN KMSN 160330Z 20004KT 10SM CLR 27/21 A3005 740 69 2300 200/04 RMK AO2
14837KMSN MSN20060715213509307/15/06 21:35:31  5-MIN KMSN 160335Z 20003KT 10SM CLR 27/21 A3005 740 66 2400 200/03 RMK AO2
14837KMSN MSN20060715214009307/15/06 21:40:31  5-MIN KMSN 160340Z 20004KT 10SM CLR 27/21 A3005 740 66 2400 200/04 RMK AO2
14837KMSN MSN20060715214509307/15/06 21:45:31  5-MIN KMSN 160345Z 20004KT 10SM CLR 27/21 A3006 740 66 2400 200/04 RMK AO2
14837KMSN MSN20060715215011007/15/06 21:50:31  5-MIN KMSN 160350Z 21003KT 10SM CLR 27/21 A3006 740 66 2400 200/03 RMK AO2 SLP170 T02720206
14837KMSN MSN20060715215509307/15/06 21:55:31  5-MIN KMSN 160355Z 20005KT 10SM CLR 27/21 A3006 740 66 2400 200/05 RMK AO2
14837KMSN MSN20060715220009307/15/06 22:00:31  5-MIN KMSN 160400Z 20004KT 10SM CLR 27/21 A3006 740 69 2300 200/04 RMK AO2
14837KMSN MSN20060715220509307/15/06 22:05:31  5-MIN KMSN 160405Z 20004KT 10SM CLR 27/21 A3006 740 69 2400 200/04 RMK AO2
14837KMSN MSN20060715221009307/15/06 22:10:31  5-MIN KMSN 160410Z 20004KT 10SM CLR 27/21 A3005 740 71 2300 200/04 RMK AO2
14837KMSN MSN20060715221509307/15/06 22:15:31  5-MIN KMSN 160415Z 20004KT 10SM CLR 27/21 A3005 740 71 2300 200/04 RMK AO2
14837KMSN MSN20060715222009307/15/06 22:20:31  5-MIN KMSN 160420Z 19005KT 10SM CLR 27/21 A3005 740 71 2300 190/05 RMK AO2
14837KMSN MSN20060715222509307/15/06 22:25:31  5-MIN KMSN 160425Z 19005KT 10SM CLR 26/21 A3005 740 76 2200 190/05 RMK AO2
14837KMSN MSN20060715223009307/15/06 22:30:31  5-MIN KMSN 160430Z 19005KT 10SM CLR 26/21 A3005 740 76 2200 190/05 RMK AO2
14837KMSN MSN20060715223509307/15/06 22:35:31  5-MIN KMSN 160435Z 20004KT 10SM CLR 26/21 A3005 740 73 2200 200/04 RMK AO2
14837KMSN MSN20060715224009307/15/06 22:40:31  5-MIN KMSN 160440Z 20005KT 10SM CLR 26/21 A3005 750 73 2200 200/05 RMK AO2
14837KMSN MSN20060715224509307/15/06 22:45:31  5-MIN KMSN 160445Z 21004KT 10SM CLR 26/21 A3005 750 73 2200 210/04 RMK AO2
14837KMSN MSN20060715225011007/15/06 22:50:31  5-MIN KMSN 160450Z 21005KT 10SM CLR 26/21 A3005 750 73 2200 210/05 RMK AO2 SLP167 T02610211
14837KMSN MSN20060715225509307/15/06 22:55:31  5-MIN KMSN 160455Z 21004KT 10SM CLR 27/21 A3005 750 71 2300 210/04 RMK AO2
14837KMSN MSN20060715230009307/15/06 23:00:31  5-MIN KMSN 160500Z 22005KT 10SM CLR 26/21 A3005 750 73 2200 220/05 RMK AO2
14837KMSN MSN20060715230509307/15/06 23:05:31  5-MIN KMSN 160505Z 22004KT 10SM CLR 26/21 A3005 750 73 2200 220/04 RMK AO2
14837KMSN MSN20060715231009307/15/06 23:10:31  5-MIN KMSN 160510Z 21004KT 10SM CLR 26/21 A3004 750 73 2200 210/04 RMK AO2
14837KMSN MSN20060715231509307/15/06 23:15:31  5-MIN KMSN 160515Z 22005KT 10SM CLR 26/22 A3004 750 76 2200 220/05 RMK AO2
14837KMSN MSN20060715232009307/15/06 23:20:31  5-MIN KMSN 160520Z VRB03KT 10SM CLR 26/22 A3004 750 76 2200 VRB/03 RMK AO2
14837KMSN MSN20060715232509307/15/06 23:25:31  5-MIN KMSN 160525Z 21004KT 10SM CLR 26/22 A3004 750 76 2200 210/04 RMK AO2
14837KMSN MSN20060715233009307/15/06 23:30:31  5-MIN KMSN 160530Z 20004KT 10SM CLR 26/22 A3004 750 76 2200 200/04 RMK AO2
14837KMSN MSN20060715233509307/15/06 23:35:31  5-MIN KMSN 160535Z 20004KT 10SM CLR 26/22 A3004 750 76 2200 200/04 RMK AO2
14837KMSN MSN20060715234009307/15/06 23:40:31  5-MIN KMSN 160540Z VRB04KT 10SM CLR 26/22 A3004 750 76 2200 VRB/04 RMK AO2
14837KMSN MSN20060715234509307/15/06 23:45:31  5-MIN KMSN 160545Z 21003KT 10SM CLR 26/22 A3004 750 76 2200 210/03 RMK AO2
14837KMSN MSN20060715235013807/15/06 23:50:31  5-MIN KMSN 160550Z 21004KT 10SM CLR 26/22 A3004 750 79 2200 210/04 RMK AO2 SLP164 T02560217 10311 20250 403390217 53006
14837KMSN MSN20060715235509307/15/06 23:55:31  5-MIN KMSN 160555Z 21004KT 10SM CLR 26/22 A3004 750 76 2200 210/04 RMK AO2
14837KMSN MSN20060716000009307/16/06 00:00:38  5-MIN KMSN 160600Z 21005KT 10SM CLR 26/22 A3004 750 76 2200 210/05 RMK AO2
14837KMSN MSN20060716000509307/16/06 00:05:31  5-MIN KMSN 160605Z 21003KT 10SM CLR 26/22 A3004 750 76 2200 210/03 RMK AO2
14837KMSN MSN20060716001009307/16/06 00:10:31  5-MIN KMSN 160610Z 20004KT 10SM CLR 26/22 A3004 760 76 2200 200/04 RMK AO2
14837KMSN MSN20060716001509307/16/06 00:15:32  5-MIN KMSN 160615Z VRB05KT 10SM CLR 26/22 A3004 750 79 2200 VRB/05 RMK AO2
14837KMSN MSN20060716002009307/16/06 00:20:31  5-MIN KMSN 160620Z 21007KT 10SM CLR 26/22 A3004 750 76 2200 210/07 RMK AO2
14837KMSN MSN20060716002509307/16/06 00:25:31  5-MIN KMSN 160625Z 21006KT 10SM CLR 26/22 A3004 760 76 2200 210/06 RMK AO2
14837KMSN MSN20060716003009307/16/06 00:30:31  5-MIN KMSN 160630Z 21008KT 10SM CLR 26/22 A3004 760 76 2300 210/08 RMK AO2
14837KMSN MSN20060716003509307/16/06 00:35:31  5-MIN KMSN 160635Z 20007KT 10SM CLR 26/22 A3003 760 76 2300 200/07 RMK AO2
14837KMSN MSN20060716004009307/16/06 00:40:31  5-MIN KMSN 160640Z 21006KT 10SM CLR 26/22 A3004 760 76 2300 210/06 RMK AO2
14837KMSN MSN20060716004509307/16/06 00:45:31  5-MIN KMSN 160645Z 21006KT 10SM CLR 26/22 A3004 760 76 2300 210/06 RMK AO2
14837KMSN MSN20060716005011007/16/06 00:50:31  5-MIN KMSN 160650Z 21006KT 10SM CLR 26/22 A3003 760 79 2200 210/06 RMK AO2 SLP163 T02560217
14837KMSN MSN20060716005509307/16/06 00:55:31  5-MIN KMSN 160655Z 21006KT 10SM CLR 26/22 A3003 760 79 2200 210/06 RMK AO2
14837KMSN MSN20060716010009307/16/06 01:00:31  5-MIN KMSN 160700Z 21007KT 10SM CLR 26/22 A3003 760 79 2200 210/07 RMK AO2
14837KMSN MSN20060716010509307/16/06 01:05:31  5-MIN KMSN 160705Z 21007KT 10SM CLR 26/22 A3003 760 76 2300 210/07 RMK AO2
14837KMSN MSN20060716011009307/16/06 01:10:31  5-MIN KMSN 160710Z 22007KT 10SM CLR 26/22 A3003 760 76 2300 220/07 RMK AO2
14837KMSN MSN20060716011509307/16/06 01:15:31  5-MIN KMSN 160715Z 21007KT 10SM CLR 26/22 A3003 760 76 2300 210/07 RMK AO2
14837KMSN MSN20060716012009307/16/06 01:20:31  5-MIN KMSN 160720Z 21008KT 10SM CLR 26/22 A3003 760 76 2300 210/08 RMK AO2
14837KMSN MSN20060716012509307/16/06 01:25:31  5-MIN KMSN 160725Z 21007KT 10SM CLR 26/22 A3003 760 76 2300 210/07 RMK AO2
14837KMSN MSN20060716013009307/16/06 01:30:31  5-MIN KMSN 160730Z 22007KT 10SM CLR 26/22 A3003 760 79 2200 220/07 RMK AO2
14837KMSN MSN20060716013509307/16/06 01:35:31  5-MIN KMSN 160735Z 22006KT 10SM CLR 26/22 A3003 760 79 2200 220/06 RMK AO2
14837KMSN MSN20060716014009307/16/06 01:40:31  5-MIN KMSN 160740Z 22008KT 10SM CLR 26/22 A3003 760 79 2200 210/08 RMK AO2
14837KMSN MSN20060716014509307/16/06 01:45:31  5-MIN KMSN 160745Z 22009KT 10SM CLR 26/22 A3003 760 79 2200 220/09 RMK AO2
14837KMSN MSN20060716015011007/16/06 01:50:31  5-MIN KMSN 160750Z 22007KT 10SM CLR 26/21 A3003 760 76 2200 220/07 RMK AO2 SLP161 T02560211
14837KMSN MSN20060716015509307/16/06 01:55:31  5-MIN KMSN 160755Z 22006KT 10SM CLR 26/21 A3003 760 76 2200 220/06 RMK AO2
14837KMSN MSN20060716020009307/16/06 02:00:31  5-MIN KMSN 160800Z 22007KT 10SM CLR 25/21 A3003 760 79 2100 220/07 RMK AO2
14837KMSN MSN20060716020509307/16/06 02:05:31  5-MIN KMSN 160805Z VRB06KT 10SM CLR 25/21 A3003 760 79 2100 VRB/06 RMK AO2
14837KMSN MSN20060716021010907/16/06 02:10:31  5-MIN KMSN 160810Z 22007KT 190V260 10SM CLR 25/22 A3003 760 81 2100 220/07 190V260 RMK AO2
14837KMSN MSN20060716021509307/16/06 02:15:31  5-MIN KMSN 160815Z 22006KT 10SM CLR 25/22 A3003 760 81 2100 220/06 RMK AO2
14837KMSN MSN20060716022009307/16/06 02:20:31  5-MIN KMSN 160820Z 22006KT 10SM CLR 25/22 A3003 760 81 2100 220/06 RMK AO2
14837KMSN MSN20060716022509307/16/06 02:25:31  5-MIN KMSN 160825Z 22006KT 10SM CLR 25/22 A3003 760 81 2100 220/06 RMK AO2
14837KMSN MSN20060716023009307/16/06 02:30:31  5-MIN KMSN 160830Z 22006KT 10SM CLR 25/22 A3003 770 81 2100 220/06 RMK AO2
14837KMSN MSN20060716023509307/16/06 02:35:31  5-MIN KMSN 160835Z VRB06KT 10SM CLR 25/22 A3003 770 81 2100 VRB/06 RMK AO2
14837KMSN MSN20060716024009307/16/06 02:40:31  5-MIN KMSN 160840Z 22006KT 10SM CLR 25/22 A3003 770 81 2100 220/06 RMK AO2
14837KMSN MSN20060716024509307/16/06 02:45:31  5-MIN KMSN 160845Z 22007KT 10SM CLR 25/22 A3002 770 81 2100 220/07 RMK AO2
14837KMSN MSN20060716025011607/16/06 02:50:31  5-MIN KMSN 160850Z 22007KT 10SM CLR 25/22 A3002 770 81 2100 220/07 RMK AO2 SLP158 T02500217 58005
14837KMSN MSN20060716025509307/16/06 02:55:31  5-MIN KMSN 160855Z 22007KT 10SM CLR 25/22 A3002 770 81 2100 220/07 RMK AO2
14837KMSN MSN20060716030009307/16/06 03:00:31  5-MIN KMSN 160900Z 22006KT 10SM CLR 25/22 A3002 780 81 2100 210/06 RMK AO2
14837KMSN MSN20060716030509307/16/06 03:05:31  5-MIN KMSN 160905Z 22007KT 10SM CLR 24/22 A3002 780 84 2100 220/07 RMK AO2
14837KMSN MSN20060716031009307/16/06 03:10:31  5-MIN KMSN 160910Z 22007KT 10SM CLR 24/22 A3002 780 84 2100 220/07 RMK AO2
14837KMSN MSN20060716031509307/16/06 03:15:31  5-MIN KMSN 160915Z 22008KT 10SM CLR 25/22 A3002 780 81 2100 220/08 RMK AO2
14837KMSN MSN20060716032009307/16/06 03:20:31  5-MIN KMSN 160920Z 22007KT 10SM CLR 25/22 A3002 780 81 2100 220/07 RMK AO2
14837KMSN MSN20060716032509307/16/06 03:25:31  5-MIN KMSN 160925Z 22009KT 10SM CLR 24/22 A3002 770 84 2100 220/09 RMK AO2
14837KMSN MSN20060716033009307/16/06 03:30:31  5-MIN KMSN 160930Z 22008KT 10SM CLR 24/22 A3002 770 84 2100 220/08 RMK AO2
14837KMSN MSN20060716033509307/16/06 03:35:31  5-MIN KMSN 160935Z 22008KT 10SM CLR 24/22 A3003 770 84 2100 220/08 RMK AO2
14837KMSN MSN20060716034009307/16/06 03:40:31  5-MIN KMSN 160940Z 22006KT 10SM CLR 24/22 A3003 760 84 2100 220/06 RMK AO2
14837KMSN MSN20060716034509307/16/06 03:45:31  5-MIN KMSN 160945Z 23005KT 10SM CLR 24/22 A3004 760 84 2100 230/05 RMK AO2
14837KMSN MSN20060716035011007/16/06 03:50:31  5-MIN KMSN 160950Z 22007KT 10SM CLR 24/22 A3004 760 84 2100 220/07 RMK AO2 SLP164 T02440217
14837KMSN MSN20060716035509307/16/06 03:55:31  5-MIN KMSN 160955Z 22007KT 10SM CLR 24/22 A3004 750 84 2100 220/07 RMK AO2
14837KMSN MSN20060716040009307/16/06 04:00:31  5-MIN KMSN 161000Z 21005KT 10SM CLR 24/21 A3004 750 81 2100 210/05 RMK AO2
14837KMSN MSN20060716040509307/16/06 04:05:31  5-MIN KMSN 161005Z 21005KT 10SM CLR 24/21 A3004 760 81 2100 210/05 RMK AO2
14837KMSN MSN20060716041009307/16/06 04:10:31  5-MIN KMSN 161010Z 21005KT 10SM CLR 24/21 A3004 750 81 2100 210/05 RMK AO2
14837KMSN MSN20060716041509307/16/06 04:15:31  5-MIN KMSN 161015Z 20005KT 10SM CLR 24/21 A3004 750 81 2100 200/05 RMK AO2
14837KMSN MSN20060716042009307/16/06 04:20:31  5-MIN KMSN 161020Z 21005KT 10SM CLR 24/21 A3004 750 81 2100 210/05 RMK AO2
14837KMSN MSN20060716042509307/16/06 04:25:31  5-MIN KMSN 161025Z 20005KT 10SM CLR 24/21 A3004 750 81 2100 200/05 RMK AO2
14837KMSN MSN20060716043009307/16/06 04:30:31  5-MIN KMSN 161030Z 20007KT 10SM CLR 24/21 A3004 750 81 2100 200/07 RMK AO2
14837KMSN MSN20060716043509307/16/06 04:35:31  5-MIN KMSN 161035Z 20007KT 10SM CLR 24/21 A3004 750 81 2100 200/07 RMK AO2
14837KMSN MSN20060716044009307/16/06 04:40:31  5-MIN KMSN 161040Z 20007KT 10SM CLR 24/21 A3005 750 81 2100 200/07 RMK AO2
14837KMSN MSN20060716044509307/16/06 04:45:31  5-MIN KMSN 161045Z 20008KT 10SM CLR 24/21 A3005 750 81 2100 200/08 RMK AO2
14837KMSN MSN20060716045011007/16/06 04:50:31  5-MIN KMSN 161050Z 20007KT 10SM CLR 24/21 A3004 750 81 2100 200/07 RMK AO2 SLP167 T02440211
14837KMSN MSN20060716045509307/16/06 04:55:31  5-MIN KMSN 161055Z 20006KT 10SM CLR 24/21 A3005 750 81 2100 200/06 RMK AO2
14837KMSN MSN20060716050009307/16/06 05:00:31  5-MIN KMSN 161100Z 20006KT 10SM CLR 24/21 A3004 750 81 2100 200/06 RMK AO2
14837KMSN MSN20060716050509307/16/06 05:05:31  5-MIN KMSN 161105Z 21007KT 10SM CLR 24/21 A3004 750 81 2100 210/07 RMK AO2
14837KMSN MSN20060716051009307/16/06 05:10:31  5-MIN KMSN 161110Z 21006KT 10SM CLR 24/21 A3004 750 81 2100 200/06 RMK AO2
14837KMSN MSN20060716051509307/16/06 05:15:31  5-MIN KMSN 161115Z 22007KT 10SM CLR 24/21 A3004 750 81 2100 210/07 RMK AO2
14837KMSN MSN20060716052009307/16/06 05:20:31  5-MIN KMSN 161120Z 21006KT 10SM CLR 25/21 A3004 750 79 2100 210/06 RMK AO2
14837KMSN MSN20060716052509307/16/06 05:25:31  5-MIN KMSN 161125Z 22006KT 10SM CLR 25/21 A3004 750 79 2100 210/06 RMK AO2
14837KMSN MSN20060716053009307/16/06 05:30:31  5-MIN KMSN 161130Z VRB05KT 10SM CLR 25/21 A3004 750 79 2100 VRB/05 RMK AO2
14837KMSN MSN20060716053509307/16/06 05:35:31  5-MIN KMSN 161135Z 22007KT 10SM CLR 25/21 A3004 760 79 2100 220/07 RMK AO2
14837KMSN MSN20060716054010907/16/06 05:40:31  5-MIN KMSN 161140Z 22007KT 180V240 10SM CLR 26/21 A3004 750 76 2200 220/07 180V240 RMK AO2
14837KMSN MSN20060716054509307/16/06 05:45:31  5-MIN KMSN 161145Z 22007KT 10SM CLR 26/21 A3004 750 76 2200 220/07 RMK AO2
14837KMSN MSN20060716055012807/16/06 05:50:31  5-MIN KMSN 161150Z 21006KT 10SM CLR 26/21 A3004 750 76 2200 210/06 RMK AO2 SLP165 T02560211 10261 20244 58007
14837KMSN MSN20060716055509307/16/06 05:55:31  5-MIN KMSN 161155Z 21006KT 10SM CLR 26/21 A3004 750 76 2200 210/06 RMK AO2
14837KMSN MSN20060716060009307/16/06 06:00:31  5-MIN KMSN 161200Z 22007KT 10SM CLR 26/21 A3004 750 76 2200 210/07 RMK AO2
14837KMSN MSN20060716060509307/16/06 06:05:31  5-MIN KMSN 161205Z 22008KT 10SM CLR 26/21 A3004 750 73 2200 220/08 RMK AO2
14837KMSN MSN20060716061009307/16/06 06:10:31  5-MIN KMSN 161210Z 22008KT 10SM CLR 26/21 A3005 750 73 2200 220/08 RMK AO2
14837KMSN MSN20060716061509307/16/06 06:15:31  5-MIN KMSN 161215Z 22010KT 10SM CLR 26/21 A3005 750 73 2200 220/10 RMK AO2
14837KMSN MSN20060716062009307/16/06 06:20:31  5-MIN KMSN 161220Z 22009KT 10SM CLR 26/21 A3005 750 73 2200 220/09 RMK AO2
14837KMSN MSN20060716062509307/16/06 06:25:31  5-MIN KMSN 161225Z 22008KT 10SM CLR 26/21 A3005 750 73 2200 220/08 RMK AO2
14837KMSN MSN20060716063009307/16/06 06:30:31  5-MIN KMSN 161230Z 22008KT 10SM CLR 26/21 A3005 750 73 2200 220/08 RMK AO2
14837KMSN MSN20060716063509307/16/06 06:35:31  5-MIN KMSN 161235Z 23008KT 10SM CLR 26/21 A3005 750 73 2200 230/08 RMK AO2
14837KMSN MSN20060716064009307/16/06 06:40:31  5-MIN KMSN 161240Z 23009KT 10SM CLR 26/21 A3005 740 73 2200 230/09 RMK AO2
14837KMSN MSN20060716064510907/16/06 06:45:31  5-MIN KMSN 161245Z 22007KT 180V240 10SM CLR 26/21 A3005 740 73 2200 220/07 180V240 RMK AO2
14837KMSN MSN20060716065011007/16/06 06:50:31  5-MIN KMSN 161250Z 22006KT 10SM CLR 26/21 A3005 740 73 2200 220/06 RMK AO2 SLP170 T02610211
14837KMSN MSN20060716065510907/16/06 06:55:31  5-MIN KMSN 161255Z 22007KT 180V240 10SM CLR 26/21 A3005 740 73 2200 220/07 180V240 RMK AO2
14837KMSN MSN20060716070009307/16/06 07:00:31  5-MIN KMSN 161300Z 23006KT 10SM CLR 27/21 A3005 740 71 2300 230/06 RMK AO2
14837KMSN MSN20060716070509307/16/06 07:05:31  5-MIN KMSN 161305Z 22006KT 10SM CLR 27/21 A3005 740 71 2300 220/06 RMK AO2
14837KMSN MSN20060716071009307/16/06 07:10:31  5-MIN KMSN 161310Z 23008KT 10SM CLR 27/21 A3005 750 71 2300 230/08 RMK AO2
14837KMSN MSN20060716071509307/16/06 07:15:31  5-MIN KMSN 161315Z 22008KT 10SM CLR 27/21 A3005 750 71 2300 220/08 RMK AO2
14837KMSN MSN20060716072009307/16/06 07:20:31  5-MIN KMSN 161320Z 23008KT 10SM CLR 27/22 A3005 750 73 2300 230/08 RMK AO2
14837KMSN MSN20060716072509307/16/06 07:25:31  5-MIN KMSN 161325Z 21007KT 10SM CLR 27/21 A3005 750 71 2300 210/07 RMK AO2
14837KMSN MSN20060716073009307/16/06 07:30:31  5-MIN KMSN 161330Z 23009KT 10SM CLR 27/21 A3005 750 71 2300 220/09 RMK AO2
14837KMSN MSN20060716073509307/16/06 07:35:31  5-MIN KMSN 161335Z 23007KT 10SM CLR 27/21 A3005 750 71 2300 230/07 RMK AO2
14837KMSN MSN20060716074009307/16/06 07:40:31  5-MIN KMSN 161340Z 24005KT 10SM CLR 27/22 A3005 740 71 2400 240/05 RMK AO2
14837KMSN MSN20060716074509307/16/06 07:45:31  5-MIN KMSN 161345Z 23006KT 10SM CLR 27/22 A3006 740 71 2400 230/06 RMK AO2
14837KMSN MSN20060716075011007/16/06 07:50:31  5-MIN KMSN 161350Z 22007KT 10SM CLR 27/22 A3006 740 71 2400 220/07 RMK AO2 SLP172 T02720217
14837KMSN MSN20060716075509307/16/06 07:55:31  5-MIN KMSN 161355Z 23006KT 10SM CLR 27/22 A3005 740 71 2400 220/06 RMK AO2
14837KMSN MSN20060716080009307/16/06 08:00:31  5-MIN KMSN 161400Z 22007KT 10SM CLR 27/22 A3006 740 71 2400 220/07 RMK AO2
14837KMSN MSN20060716080509307/16/06 08:05:31  5-MIN KMSN 161405Z 22006KT 10SM CLR 28/22 A3006 740 69 2400 220/06 RMK AO2
14837KMSN MSN20060716081009907/16/06 08:10:31  5-MIN KMSN 161410Z VRB06G14KT 10SM CLR 28/22 A3006 740 69 2400 VRB/06G14 RMK AO2
14837KMSN MSN20060716081509907/16/06 08:15:31  5-MIN KMSN 161415Z 23006G14KT 10SM CLR 28/22 A3006 740 69 2400 220/06G14 RMK AO2
14837KMSN MSN20060716082009307/16/06 08:20:31  5-MIN KMSN 161420Z 22006KT 10SM CLR 28/22 A3006 740 69 2400 220/06 RMK AO2
14837KMSN MSN20060716082509307/16/06 08:25:31  5-MIN KMSN 161425Z 22008KT 10SM CLR 28/22 A3006 740 69 2400 220/08 RMK AO2
14837KMSN MSN20060716083009307/16/06 08:30:31  5-MIN KMSN 161430Z 24008KT 10SM CLR 28/22 A3005 740 69 2400 240/08 RMK AO2
14837KMSN MSN20060716083509307/16/06 08:35:31  5-MIN KMSN 161435Z 22008KT 10SM CLR 28/22 A3005 740 69 2400 220/08 RMK AO2
14837KMSN MSN20060716084009307/16/06 08:40:31  5-MIN KMSN 161440Z 24006KT 10SM CLR 28/22 A3006 740 66 2500 240/06 RMK AO2
14837KMSN MSN20060716084509307/16/06 08:45:31  5-MIN KMSN 161445Z 25007KT 10SM CLR 28/22 A3006 740 66 2500 240/07 RMK AO2
14837KMSN MSN20060716085013207/16/06 08:50:31  5-MIN KMSN 161450Z 23008KT 200V260 10SM CLR 28/22 A3006 740 66 2500 230/08 200V260 RMK AO2 SLP171 T02830217 50007
14837KMSN MSN20060716085509307/16/06 08:55:31  5-MIN KMSN 161455Z 23007KT 10SM CLR 28/22 A3006 740 66 2500 230/07 RMK AO2
14837KMSN MSN20060716090009307/16/06 09:00:31  5-MIN KMSN 161500Z 23007KT 10SM CLR 28/22 A3005 740 66 2500 230/07 RMK AO2
14837KMSN MSN20060716090510907/16/06 09:05:31  5-MIN KMSN 161505Z 23008KT 200V260 10SM CLR 29/22 A3005 740 64 2500 230/08 200V260 RMK AO2
14837KMSN MSN20060716091009307/16/06 09:10:31  5-MIN KMSN 161510Z 22010KT 10SM CLR 29/21 A3005 750 62 2500 220/10 RMK AO2
14837KMSN MSN20060716091509307/16/06 09:15:31  5-MIN KMSN 161515Z VRB05KT 10SM CLR 29/22 A3005 750 62 2600 VRB/05 RMK AO2
14837KMSN MSN20060716092009307/16/06 09:20:31  5-MIN KMSN 161520Z 22006KT 10SM CLR 29/22 A3005 740 62 2600 220/06 RMK AO2
14837KMSN MSN20060716092509307/16/06 09:25:31  5-MIN KMSN 161525Z VRB05KT 10SM CLR 29/22 A3005 740 62 2600 VRB/05 RMK AO2
14837KMSN MSN20060716093009307/16/06 09:30:31  5-MIN KMSN 161530Z VRB06KT 10SM CLR 29/22 A3006 740 62 2600 VRB/06 RMK AO2
14837KMSN MSN20060716093509307/16/06 09:35:31  5-MIN KMSN 161535Z 24007KT 10SM CLR 29/22 A3007 730 62 2600 240/07 RMK AO2
14837KMSN MSN20060716094009307/16/06 09:40:31  5-MIN KMSN 161540Z 23008KT 10SM CLR 29/22 A3007 730 62 2600 230/08 RMK AO2
14837KMSN MSN20060716094509307/16/06 09:45:31  5-MIN KMSN 161545Z 22006KT 10SM CLR 29/22 A3006 730 62 2600 220/06 RMK AO2
14837KMSN MSN20060716095012607/16/06 09:50:31  5-MIN KMSN 161550Z 23007KT 210V270 10SM CLR 30/22 A3006 730 60 2700 230/07 210V270 RMK AO2 SLP173 T03000217
14837KMSN MSN20060716095509307/16/06 09:55:31  5-MIN KMSN 161555Z 23007KT 10SM CLR 30/22 A3006 730 60 2700 230/07 RMK AO2
14837KMSN MSN20060716100009307/16/06 10:00:31  5-MIN KMSN 161600Z 23008KT 10SM CLR 29/22 A3006 730 62 2600 230/08 RMK AO2
14837KMSN MSN20060716100509307/16/06 10:05:31  5-MIN KMSN 161605Z 24007KT 10SM CLR 30/21 A3006 730 58 2700 240/07 RMK AO2
14837KMSN MSN20060716101009307/16/06 10:10:31  5-MIN KMSN 161610Z 23007KT 10SM CLR 30/21 A3006 730 58 2700 230/07 RMK AO2
14837KMSN MSN20060716101509307/16/06 10:15:31  5-MIN KMSN 161615Z 24008KT 10SM CLR 30/21 A3006 740 58 2700 240/08 RMK AO2
14837KMSN MSN20060716102010907/16/06 10:20:31  5-MIN KMSN 161620Z 24007KT 210V280 10SM CLR 30/21 A3006 740 58 2700 230/07 210V280 RMK AO2
14837KMSN MSN20060716102509307/16/06 10:25:31  5-MIN KMSN 161625Z 23007KT 10SM CLR 30/21 A3006 740 58 2700 220/07 RMK AO2
14837KMSN MSN20060716103009307/16/06 10:30:31  5-MIN KMSN 161630Z 22008KT 10SM CLR 30/21 A3006 740 58 2700 220/08 RMK AO2
14837KMSN MSN20060716103509307/16/06 10:35:31  5-MIN KMSN 161635Z 23008KT 10SM CLR 30/21 A3005 740 56 2700 230/08 RMK AO2
14837KMSN MSN20060716104009307/16/06 10:40:31  5-MIN KMSN 161640Z 23008KT 10SM CLR 29/21 A3005 740 58 2600 230/08 RMK AO2
14837KMSN MSN20060716104509307/16/06 10:45:31  5-MIN KMSN 161645Z 23006KT 10SM CLR 29/21 A3005 740 60 2600 230/06 RMK AO2
14837KMSN MSN20060716105012607/16/06 10:50:31  5-MIN KMSN 161650Z 21008KT 180V250 10SM CLR 31/21 A3005 740 56 2700 210/08 180V250 RMK AO2 SLP170 T03060211
14837KMSN MSN20060716105509307/16/06 10:55:31  5-MIN KMSN 161655Z 21009KT 10SM CLR 31/21 A3005 750 53 2800 210/09 RMK AO2
14837KMSN MSN20060716110009307/16/06 11:00:31  5-MIN KMSN 161700Z 23010KT 10SM CLR 31/20 A3005 750 52 2700 230/10 RMK AO2
14837KMSN MSN20060716110509907/16/06 11:05:31  5-MIN KMSN 161705Z 22008G15KT 10SM CLR 31/21 A3004 750 53 2800 220/08G15 RMK AO2
14837KMSN MSN20060716111009307/16/06 11:10:31  5-MIN KMSN 161710Z 24009KT 10SM CLR 31/21 A3004 750 54 2700 230/09 RMK AO2
14837KMSN MSN20060716111509307/16/06 11:15:31  5-MIN KMSN 161715Z 21010KT 10SM CLR 32/21 A3004 750 53 2900 210/10 RMK AO2
14837KMSN MSN20060716112009307/16/06 11:20:31  5-MIN KMSN 161720Z 22006KT 10SM CLR 31/21 A3005 750 54 2800 220/06 RMK AO2
14837KMSN MSN20060716112509307/16/06 11:25:31  5-MIN KMSN 161725Z 20012KT 10SM CLR 31/21 A3004 750 53 2800 200/12 RMK AO2
14837KMSN MSN20060716113009307/16/06 11:30:31  5-MIN KMSN 161730Z 22009KT 10SM CLR 31/20 A3004 750 51 2800 220/09 RMK AO2
14837KMSN MSN20060716113510907/16/06 11:35:31  5-MIN KMSN 161735Z 23009KT 190V250 10SM CLR 31/20 A3004 750 51 2800 230/09 190V250 RMK AO2
14837KMSN MSN20060716114009307/16/06 11:40:31  5-MIN KMSN 161740Z 21010KT 10SM CLR 31/20 A3004 750 51 2800 210/10 RMK AO2
14837KMSN MSN20060716114510907/16/06 11:45:31  5-MIN KMSN 161745Z 22008KT 150V250 10SM CLR 31/21 A3004 750 53 2800 210/08 150V250 RMK AO2
14837KMSN MSN20060716115012807/16/06 11:50:31  5-MIN KMSN 161750Z VRB06KT 10SM CLR 31/21 A3004 750 53 2800 VRB/06 RMK AO2 SLP167 T03110206 10317 20256 51005
14837KMSN MSN20060716115509307/16/06 11:55:31  5-MIN KMSN 161755Z VRB06KT 10SM CLR 32/22 A3004 750 55 2900 VRB/06 RMK AO2
14837KMSN MSN20060716120009307/16/06 12:00:31  5-MIN KMSN 161800Z 24008KT 10SM CLR 32/21 A3004 750 53 2900 240/08 RMK AO2
14837KMSN MSN20060716120510907/16/06 12:05:31  5-MIN KMSN 161805Z 20008KT 180V240 10SM CLR 32/21 A3004 760 53 2900 200/08 180V240 RMK AO2
14837KMSN MSN20060716121009307/16/06 12:10:31  5-MIN KMSN 161810Z 23009KT 10SM CLR 32/22 A3003 760 55 2900 230/09 RMK AO2
14837KMSN MSN20060716121510907/16/06 12:15:31  5-MIN KMSN 161815Z 20008KT 180V240 10SM CLR 32/21 A3003 760 53 2900 200/08 180V240 RMK AO2
14837KMSN MSN20060716122009307/16/06 12:20:31  5-MIN KMSN 161820Z 21010KT 10SM CLR 32/21 A3003 760 51 2900 210/10 RMK AO2
14837KMSN MSN20060716122509907/16/06 12:25:31  5-MIN KMSN 161825Z VRB05G14KT 10SM CLR 32/22 A3003 760 55 2900 VRB/05G14 RMK AO2
14837KMSN MSN20060716123009907/16/06 12:30:31  5-MIN KMSN 161830Z 23007G14KT 10SM CLR 32/22 A3003 760 55 2900 230/07G14 RMK AO2
14837KMSN MSN20060716123509307/16/06 12:35:31  5-MIN KMSN 161835Z VRB06KT 10SM CLR 32/22 A3003 760 55 2900 VRB/06 RMK AO2
14837KMSN MSN20060716124011507/16/06 12:40:31  5-MIN KMSN 161840Z 23008G15KT 210V270 10SM CLR 32/22 A3003 770 55 2900 230/08G15 210V270 RMK AO2
14837KMSN MSN20060716124511507/16/06 12:45:31  5-MIN KMSN 161845Z 23007G15KT 180V270 10SM CLR 32/22 A3002 770 53 2900 230/07G15 180V270 RMK AO2
14837KMSN MSN20060716125011007/16/06 12:50:31  5-MIN KMSN 161850Z 24009KT 10SM CLR 32/22 A3002 770 55 2900 240/09 RMK AO2 SLP158 T03170217
14837KMSN MSN20060716125509907/16/06 12:55:31  5-MIN KMSN 161855Z 22007G15KT 10SM CLR 32/22 A3002 770 55 2900 220/07G15 RMK AO2
14837KMSN MSN20060716130009907/16/06 13:00:31  5-MIN KMSN 161900Z 23008G15KT 10SM CLR 32/22 A3002 780 55 3000 230/08G15 RMK AO2
14837KMSN MSN20060716130509307/16/06 13:05:31  5-MIN KMSN 161905Z 22008KT 10SM CLR 32/22 A3001 780 55 3000 220/08 RMK AO2
14837KMSN MSN20060716131009907/16/06 13:10:31  5-MIN KMSN 161910Z 22009G17KT 10SM CLR 32/22 A3001 780 53 3000 220/09G17 RMK AO2
14837KMSN MSN20060716131509907/16/06 13:15:31  5-MIN KMSN 161915Z 23010G17KT 10SM CLR 32/22 A3001 780 53 3000 230/10G17 RMK AO2
14837KMSN MSN20060716132010907/16/06 13:20:31  5-MIN KMSN 161920Z 22007KT 190V260 10SM CLR 32/22 A3001 780 53 3000 220/07 190V260 RMK AO2
14837KMSN MSN20060716132509307/16/06 13:25:31  5-MIN KMSN 161925Z 25009KT 10SM CLR 32/22 A3001 780 55 3000 250/09 RMK AO2
14837KMSN MSN20060716133009907/16/06 13:30:31  5-MIN KMSN 161930Z 21013G16KT 10SM CLR 32/22 A3001 780 55 3000 210/13G16 RMK AO2
14837KMSN MSN20060716133509907/16/06 13:35:31  5-MIN KMSN 161935Z 22009G16KT 10SM CLR 33/22 A3001 790 51 3000 220/09G16 RMK AO2
14837KMSN MSN20060716134011507/16/06 13:40:31  5-MIN KMSN 161940Z 21008G15KT 190V270 10SM CLR 33/22 A3000 790 53 3000 210/08G15 190V270 RMK AO2
14837KMSN MSN20060716134510907/16/06 13:45:31  5-MIN KMSN 161945Z 23007KT 200V290 10SM CLR 33/22 A3000 790 53 3000 230/07 200V290 RMK AO2
14837KMSN MSN20060716135011007/16/06 13:50:31  5-MIN KMSN 161950Z 23007KT 10SM CLR 32/22 A3000 790 53 3000 220/07 RMK AO2 SLP150 T03220217
14837KMSN MSN20060716135509907/16/06 13:55:31  5-MIN KMSN 161955Z 22008G14KT 10SM CLR 33/22 A3000 800 51 3000 220/08G14 RMK AO2
14837KMSN MSN20060716140010907/16/06 14:00:31  5-MIN KMSN 162000Z 22008KT 180V250 10SM CLR 33/21 A2999 800 49 3000 220/08 180V250 RMK AO2
14837KMSN MSN20060716140509907/16/06 14:05:31  5-MIN KMSN 162005Z 24010G14KT 10SM CLR 33/21 A2999 800 49 3000 240/10G14 RMK AO2
14837KMSN MSN20060716141011507/16/06 14:10:31  5-MIN KMSN 162010Z 24007G14KT 190V260 10SM CLR 33/21 A2999 800 48 3000 240/07G14 190V260 RMK AO2
14837KMSN MSN20060716141509307/16/06 14:15:31  5-MIN KMSN 162015Z 23007KT 10SM CLR 33/21 A2999 800 48 3000 230/07 RMK AO2
14837KMSN MSN20060716142009307/16/06 14:20:31  5-MIN KMSN 162020Z 24011KT 10SM CLR 33/21 A2999 800 48 3000 240/11 RMK AO2
14837KMSN MSN20060716142510907/16/06 14:25:31  5-MIN KMSN 162025Z 23008KT 190V260 10SM CLR 32/21 A2999 800 51 3000 230/08 190V260 RMK AO2
14837KMSN MSN20060716143009307/16/06 14:30:31  5-MIN KMSN 162030Z 24007KT 10SM CLR 33/21 A2999 800 49 3000 240/07 RMK AO2
14837KMSN MSN20060716143510907/16/06 14:35:31  5-MIN KMSN 162035Z 23008KT 200V280 10SM CLR 32/21 A2998 810 51 3000 230/08 200V280 RMK AO2
14837KMSN MSN20060716144009307/16/06 14:40:31  5-MIN KMSN 162040Z 21008KT 10SM CLR 33/21 A2998 810 49 3100 210/08 RMK AO2
14837KMSN MSN20060716144509307/16/06 14:45:31  5-MIN KMSN 162045Z 23011KT 10SM CLR 33/21 A2997 820 49 3100 220/11 RMK AO2
14837KMSN MSN20060716145011607/16/06 14:50:31  5-MIN KMSN 162050Z 23010KT 10SM CLR 32/21 A2998 810 51 3000 230/10 RMK AO2 SLP142 T03220211 58005
14837KMSN MSN20060716145509307/16/06 14:55:31  5-MIN KMSN 162055Z 23011KT 10SM CLR 33/21 A2998 810 49 3100 230/11 RMK AO2
14837KMSN MSN20060716150009307/16/06 15:00:31  5-MIN KMSN 162100Z 23009KT 10SM CLR 32/21 A2998 810 49 3000 230/09 RMK AO2
14837KMSN MSN20060716150509307/16/06 15:05:31  5-MIN KMSN 162105Z 22011KT 10SM CLR 33/21 A2997 820 49 3100 220/11 RMK AO2
14837KMSN MSN20060716151009907/16/06 15:10:31  5-MIN KMSN 162110Z 21011G15KT 10SM CLR 33/21 A2996 820 48 3100 210/11G15 RMK AO2
14837KMSN MSN20060716151510907/16/06 15:15:31  5-MIN KMSN 162115Z 21010KT 180V250 10SM CLR 33/21 A2996 830 49 3100 210/10 180V250 RMK AO2
14837KMSN MSN20060716152009307/16/06 15:20:31  5-MIN KMSN 162120Z 22008KT 10SM CLR 33/21 A2996 830 49 3100 220/08 RMK AO2
14837KMSN MSN20060716152509307/16/06 15:25:31  5-MIN KMSN 162125Z 22007KT 10SM CLR 33/21 A2996 830 49 3100 220/07 RMK AO2
14837KMSN MSN20060716153009307/16/06 15:30:31  5-MIN KMSN 162130Z 21008KT 10SM CLR 33/21 A2996 820 48 3100 210/08 RMK AO2
14837KMSN MSN20060716153509307/16/06 15:35:31  5-MIN KMSN 162135Z 22008KT 10SM CLR 33/20 A2996 820 46 3100 220/08 RMK AO2
14837KMSN MSN20060716154009307/16/06 15:40:31  5-MIN KMSN 162140Z 22010KT 10SM CLR 32/20 A2996 830 48 3000 220/10 RMK AO2
14837KMSN MSN20060716154509307/16/06 15:45:31  5-MIN KMSN 162145Z 22012KT 10SM CLR 32/20 A2996 830 48 3000 220/12 RMK AO2
14837KMSN MSN20060716155011007/16/06 15:50:31  5-MIN KMSN 162150Z 23008KT 10SM CLR 32/21 A2996 830 49 3000 230/08 RMK AO2 SLP139 T03220206
14837KMSN MSN20060716155509307/16/06 15:55:31  5-MIN KMSN 162155Z 22009KT 10SM CLR 32/21 A2996 830 49 3000 220/09 RMK AO2
14837KMSN MSN20060716160009907/16/06 16:00:31  5-MIN KMSN 162200Z 22009G15KT 10SM CLR 32/21 A2996 830 49 3000 220/09G15 RMK AO2
14837KMSN MSN20060716160511507/16/06 16:05:31  5-MIN KMSN 162205Z 23008G15KT 210V270 10SM CLR 32/21 A2996 830 51 3000 230/08G15 210V270 RMK AO2
14837KMSN MSN20060716161010207/16/06 16:10:31  5-MIN KMSN 162210Z 23010G17KT 10SM FEW050 32/21 A2996 830 49 3000 230/10G17 RMK AO2
14837KMSN MSN20060716161510207/16/06 16:15:31  5-MIN KMSN 162215Z 23010G17KT 10SM FEW050 32/21 A2995 830 49 3000 230/10G17 RMK AO2
14837KMSN MSN20060716162009607/16/06 16:20:31  5-MIN KMSN 162220Z 22012KT 10SM FEW050 32/21 A2996 830 49 3000 220/12 RMK AO2
14837KMSN MSN20060716162510207/16/06 16:25:31  5-MIN KMSN 162225Z 23009G15KT 10SM FEW050 32/21 A2996 830 49 3000 230/09G15 RMK AO2
14837KMSN MSN20060716163010207/16/06 16:30:31  5-MIN KMSN 162230Z 23009G15KT 10SM FEW050 32/21 A2995 830 51 3000 230/09G15 RMK AO2
14837KMSN MSN20060716163511807/16/06 16:35:31  5-MIN KMSN 162235Z 23010G16KT 190V250 10SM FEW050 31/21 A2995 840 53 2900 230/10G16 190V250 RMK AO2
14837KMSN MSN20060716164010207/16/06 16:40:31  5-MIN KMSN 162240Z 23010G16KT 10SM FEW050 31/20 A2995 830 51 2900 220/10G16 RMK AO2
14837KMSN MSN20060716164510207/16/06 16:45:31  5-MIN KMSN 162245Z 22011G15KT 10SM FEW050 32/21 A2995 840 51 3000 220/11G15 RMK AO2
14837KMSN MSN20060716165011307/16/06 16:50:31  5-MIN KMSN 162250Z 23009KT 10SM FEW050 32/21 A2995 840 51 3000 230/09 RMK AO2 SLP135 T03170206
14837KMSN MSN20060716165510907/16/06 16:55:31  5-MIN KMSN 162255Z 23010KT 200V270 10SM CLR 32/20 A2995 830 49 3000 230/10 200V270 RMK AO2
14837KMSN MSN20060716170009907/16/06 17:00:31  5-MIN KMSN 162300Z 23009G15KT 10SM CLR 31/20 A2995 830 51 2900 230/09G15 RMK AO2
14837KMSN MSN20060716170509907/16/06 17:05:31  5-MIN KMSN 162305Z 23011G15KT 10SM CLR 31/21 A2995 830 53 2900 220/11G15 RMK AO2
14837KMSN MSN20060716171009307/16/06 17:10:31  5-MIN KMSN 162310Z 23008KT 10SM CLR 31/21 A2996 830 53 2900 230/08 RMK AO2
14837KMSN MSN20060716171510007/16/06 17:15:31  5-MIN KMSN 162315Z VRB05KT 10SM CLR 31/21 A2997 810 53 2900 VRB/05 RMK AO2 PRESRR
14837KMSN MSN20060716172010007/16/06 17:20:31  5-MIN KMSN 162320Z 29007KT 10SM CLR 32/21 A2998 810 53 2900 290/07 RMK AO2 PRESRR
14837KMSN MSN20060716172509307/16/06 17:25:31  5-MIN KMSN 162325Z VRB05KT 10SM CLR 32/21 A2998 810 53 2900 VRB/05 RMK AO2
14837KMSN MSN20060716173009307/16/06 17:30:31  5-MIN KMSN 162330Z VRB05KT 10SM CLR 31/21 A2998 810 54 2900 VRB/05 RMK AO2
14837KMSN MSN20060716173509307/16/06 17:35:31  5-MIN KMSN 162335Z VRB04KT 10SM CLR 31/21 A2998 810 54 2900 VRB/04 RMK AO2
14837KMSN MSN20060716174009307/16/06 17:40:31  5-MIN KMSN 162340Z VRB03KT 10SM CLR 31/21 A2998 810 54 2900 VRB/03 RMK AO2
14837KMSN MSN20060716174509307/16/06 17:45:31  5-MIN KMSN 162345Z VRB04KT 10SM CLR 31/21 A2998 810 53 2900 VRB/04 RMK AO2
14837KMSN MSN20060716175013107/16/06 17:50:31  5-MIN KMSN 162350Z VRB04KT 10SM FEW050 31/21 A2998 810 53 2900 VRB/04 RMK AO2 SLP145 T03110206 10328 20311 56021
14837KMSN MSN20060716175509307/16/06 17:55:31  5-MIN KMSN 162355Z VRB04KT 10SM CLR 31/21 A2998 810 53 2900 VRB/04 RMK AO2
14837KMSN MSN20060716180009307/16/06 18:00:31  5-MIN KMSN 170000Z VRB03KT 10SM CLR 31/21 A2998 810 56 2800 VRB/03 RMK AO2
14837KMSN MSN20060716180509307/16/06 18:05:31  5-MIN KMSN 170005Z VRB05KT 10SM CLR 31/21 A2997 810 54 2800 VRB/05 RMK AO2
14837KMSN MSN20060716181009307/16/06 18:10:31  5-MIN KMSN 170010Z VRB05KT 10SM CLR 31/21 A2997 820 54 2800 VRB/05 RMK AO2
14837KMSN MSN20060716181509607/16/06 18:15:31  5-MIN KMSN 170015Z 23006KT 10SM FEW050 31/21 A2997 820 54 2800 230/06 RMK AO2
14837KMSN MSN20060716182009607/16/06 18:20:31  5-MIN KMSN 170020Z 23004KT 10SM FEW050 30/21 A2997 820 56 2800 230/04 RMK AO2
14837KMSN MSN20060716182509607/16/06 18:25:31  5-MIN KMSN 170025Z 00000KT 10SM FEW050 30/21 A2997 820 56 2800 000/00 RMK AO2
14837KMSN MSN20060716183009607/16/06 18:30:31  5-MIN KMSN 170030Z 00000KT 10SM FEW050 30/21 A2997 820 58 2800 000/00 RMK AO2
14837KMSN MSN20060716183509607/16/06 18:35:31  5-MIN KMSN 170035Z 24003KT 10SM FEW040 30/21 A2997 820 58 2800 240/03 RMK AO2
14837KMSN MSN20060716184009607/16/06 18:40:31  5-MIN KMSN 170040Z VRB03KT 10SM FEW040 30/21 A2997 820 58 2800 VRB/03 RMK AO2
14837KMSN MSN20060716184509607/16/06 18:45:31  5-MIN KMSN 170045Z 23003KT 10SM FEW040 30/21 A2997 820 58 2800 230/03 RMK AO2
14837KMSN MSN20060716185011007/16/06 18:50:31  5-MIN KMSN 170050Z 22004KT 10SM CLR 29/21 A2997 820 60 2700 220/04 RMK AO2 SLP140 T02940211
14837KMSN MSN20060716185509307/16/06 18:55:31  5-MIN KMSN 170055Z 23004KT 10SM CLR 29/21 A2997 820 60 2700 230/04 RMK AO2
14837KMSN MSN20060716190009307/16/06 19:00:31  5-MIN KMSN 170100Z 23005KT 10SM CLR 29/21 A2997 820 60 2700 230/05 RMK AO2
14837KMSN MSN20060716190509307/16/06 19:05:31  5-MIN KMSN 170105Z 23004KT 10SM CLR 29/21 A2997 820 62 2600 230/04 RMK AO2
14837KMSN MSN20060716191009307/16/06 19:10:31  5-MIN KMSN 170110Z 22005KT 10SM CLR 29/21 A2996 830 62 2600 220/05 RMK AO2
14837KMSN MSN20060716191509307/16/06 19:15:31  5-MIN KMSN 170115Z 22005KT 10SM CLR 29/21 A2996 830 62 2600 220/05 RMK AO2
14837KMSN MSN20060716192009307/16/06 19:20:31  5-MIN KMSN 170120Z 22005KT 10SM CLR 29/21 A2996 830 62 2700 220/05 RMK AO2
14837KMSN MSN20060716192509307/16/06 19:25:31  5-MIN KMSN 170125Z 21005KT 10SM CLR 29/21 A2995 840 60 2700 210/05 RMK AO2
14837KMSN MSN20060716193009307/16/06 19:30:31  5-MIN KMSN 170130Z 21004KT 10SM CLR 29/21 A2995 840 62 2700 210/04 RMK AO2
14837KMSN MSN20060716193509307/16/06 19:35:31  5-MIN KMSN 170135Z 21004KT 10SM CLR 29/21 A2995 840 62 2700 210/04 RMK AO2
14837KMSN MSN20060716194009307/16/06 19:40:31  5-MIN KMSN 170140Z 21004KT 10SM CLR 29/21 A2995 840 62 2700 210/04 RMK AO2
14837KMSN MSN20060716194509307/16/06 19:45:31  5-MIN KMSN 170145Z 21004KT 10SM CLR 28/21 A2995 840 64 2600 210/04 RMK AO2
14837KMSN MSN20060716195011007/16/06 19:50:31  5-MIN KMSN 170150Z 21004KT 10SM CLR 28/22 A2995 840 66 2600 210/04 RMK AO2 SLP134 T02830217
14837KMSN MSN20060716195509307/16/06 19:55:31  5-MIN KMSN 170155Z 21005KT 10SM CLR 29/22 A2995 840 64 2700 210/05 RMK AO2
14837KMSN MSN20060716200009307/16/06 20:00:31  5-MIN KMSN 170200Z 21006KT 10SM CLR 29/22 A2994 840 64 2700 210/06 RMK AO2
14837KMSN MSN20060716200509307/16/06 20:05:31  5-MIN KMSN 170205Z 21006KT 10SM CLR 29/22 A2995 840 64 2700 210/06 RMK AO2
14837KMSN MSN20060716201009307/16/06 20:10:31  5-MIN KMSN 170210Z 21006KT 10SM CLR 29/22 A2994 840 64 2700 200/06 RMK AO2
14837KMSN MSN20060716201509307/16/06 20:15:31  5-MIN KMSN 170215Z 20009KT 10SM CLR 29/22 A2994 840 64 2700 200/09 RMK AO2
14837KMSN MSN20060716202009307/16/06 20:20:31  5-MIN KMSN 170220Z 20009KT 10SM CLR 29/21 A2994 840 62 2700 200/09 RMK AO2
14837KMSN MSN20060716202509307/16/06 20:25:31  5-MIN KMSN 170225Z 21008KT 10SM CLR 29/21 A2994 840 60 2700 210/08 RMK AO2
14837KMSN MSN20060716203009307/16/06 20:30:31  5-MIN KMSN 170230Z 20009KT 10SM CLR 29/21 A2994 840 60 2700 200/09 RMK AO2
14837KMSN MSN20060716203509307/16/06 20:35:31  5-MIN KMSN 170235Z 21007KT 10SM CLR 29/21 A2994 840 60 2700 210/07 RMK AO2
14837KMSN MSN20060716204009307/16/06 20:40:31  5-MIN KMSN 170240Z 21009KT 10SM CLR 29/21 A2994 840 60 2700 210/09 RMK AO2
14837KMSN MSN20060716204509307/16/06 20:45:31  5-MIN KMSN 170245Z 20009KT 10SM CLR 29/21 A2994 840 60 2700 200/09 RMK AO2
14837KMSN MSN20060716205011607/16/06 20:50:31  5-MIN KMSN 170250Z 21009KT 10SM CLR 29/21 A2994 840 60 2700 210/09 RMK AO2 SLP131 T02890206 53000
14837KMSN MSN20060716205509307/16/06 20:55:31  5-MIN KMSN 170255Z 21008KT 10SM CLR 29/21 A2994 850 60 2700 200/08 RMK AO2
14837KMSN MSN20060716210009307/16/06 21:00:31  5-MIN KMSN 170300Z 20009KT 10SM CLR 29/20 A2994 850 58 2700 200/09 RMK AO2
14837KMSN MSN20060716210509307/16/06 21:05:31  5-MIN KMSN 170305Z 21008KT 10SM CLR 28/20 A2994 850 60 2600 200/08 RMK AO2
14837KMSN MSN20060716211009307/16/06 21:10:31  5-MIN KMSN 170310Z 20009KT 10SM CLR 28/20 A2994 850 60 2600 200/09 RMK AO2
14837KMSN MSN20060716211509307/16/06 21:15:31  5-MIN KMSN 170315Z 20007KT 10SM CLR 28/20 A2994 850 60 2600 200/07 RMK AO2
14837KMSN MSN20060716212009307/16/06 21:20:31  5-MIN KMSN 170320Z 19008KT 10SM CLR 28/20 A2994 840 60 2600 190/08 RMK AO2
14837KMSN MSN20060716212509307/16/06 21:25:31  5-MIN KMSN 170325Z 19008KT 10SM CLR 28/20 A2994 840 62 2500 190/08 RMK AO2
14837KMSN MSN20060716213009307/16/06 21:30:31  5-MIN KMSN 170330Z 20007KT 10SM CLR 28/21 A2994 840 64 2500 200/07 RMK AO2
14837KMSN MSN20060716213509307/16/06 21:35:31  5-MIN KMSN 170335Z 19008KT 10SM CLR 28/21 A2994 840 64 2500 190/08 RMK AO2
14837KMSN MSN20060716214009307/16/06 21:40:31  5-MIN KMSN 170340Z 19008KT 10SM CLR 28/21 A2994 840 64 2500 190/08 RMK AO2
14837KMSN MSN20060716214509307/16/06 21:45:31  5-MIN KMSN 170345Z 19009KT 10SM CLR 28/21 A2994 850 64 2500 190/09 RMK AO2
14837KMSN MSN20060716215011007/16/06 21:50:31  5-MIN KMSN 170350Z 19009KT 10SM CLR 28/21 A2994 850 66 2500 190/09 RMK AO2 SLP130 T02780211
14837KMSN MSN20060716215509307/16/06 21:55:31  5-MIN KMSN 170355Z 19009KT 10SM CLR 28/21 A2994 850 66 2500 190/09 RMK AO2
14837KMSN MSN20060716220009307/16/06 22:00:31  5-MIN KMSN 170400Z 19008KT 10SM CLR 27/21 A2994 850 69 2500 190/08 RMK AO2
14837KMSN MSN20060716220509307/16/06 22:05:31  5-MIN KMSN 170405Z 19008KT 10SM CLR 27/21 A2994 850 69 2500 190/08 RMK AO2
14837KMSN MSN20060716221009307/16/06 22:10:31  5-MIN KMSN 170410Z 19009KT 10SM CLR 28/21 A2993 850 66 2600 190/09 RMK AO2
14837KMSN MSN20060716221509307/16/06 22:15:31  5-MIN KMSN 170415Z 19009KT 10SM CLR 28/22 A2993 850 69 2600 190/09 RMK AO2
14837KMSN MSN20060716222009307/16/06 22:20:31  5-MIN KMSN 170420Z 19009KT 10SM CLR 27/22 A2993 850 71 2500 190/09 RMK AO2
14837KMSN MSN20060716222509307/16/06 22:25:31  5-MIN KMSN 170425Z 19008KT 10SM CLR 28/22 A2993 850 69 2600 190/08 RMK AO2
14837KMSN MSN20060716223009307/16/06 22:30:31  5-MIN KMSN 170430Z 19009KT 10SM CLR 28/22 A2993 850 69 2600 190/09 RMK AO2
14837KMSN MSN20060716223509307/16/06 22:35:31  5-MIN KMSN 170435Z 19008KT 10SM CLR 27/22 A2993 850 71 2500 190/08 RMK AO2
14837KMSN MSN20060716224009307/16/06 22:40:31  5-MIN KMSN 170440Z 19007KT 10SM CLR 28/22 A2993 850 69 2600 190/07 RMK AO2
14837KMSN MSN20060716224509307/16/06 22:45:31  5-MIN KMSN 170445Z 20009KT 10SM CLR 28/22 A2993 850 69 2600 200/09 RMK AO2
14837KMSN MSN20060716225011007/16/06 22:50:31  5-MIN KMSN 170450Z 19009KT 10SM CLR 28/22 A2993 860 69 2600 190/09 RMK AO2 SLP126 T02780217
14837KMSN MSN20060716225509307/16/06 22:55:31  5-MIN KMSN 170455Z 20010KT 10SM CLR 28/21 A2992 860 66 2600 200/10 RMK AO2
14837KMSN MSN20060716230009307/16/06 23:00:31  5-MIN KMSN 170500Z 20008KT 10SM CLR 28/21 A2992 860 66 2600 200/08 RMK AO2
14837KMSN MSN20060716230509307/16/06 23:05:31  5-MIN KMSN 170505Z 20005KT 10SM CLR 28/21 A2993 860 66 2600 200/05 RMK AO2
14837KMSN MSN20060716231009307/16/06 23:10:31  5-MIN KMSN 170510Z VRB04KT 10SM CLR 28/21 A2993 860 66 2600 VRB/04 RMK AO2
14837KMSN MSN20060716231509307/16/06 23:15:31  5-MIN KMSN 170515Z 20007KT 10SM CLR 28/21 A2992 860 66 2600 200/07 RMK AO2
14837KMSN MSN20060716232009307/16/06 23:20:31  5-MIN KMSN 170520Z 20008KT 10SM CLR 28/21 A2992 860 66 2600 190/08 RMK AO2
14837KMSN MSN20060716232509307/16/06 23:25:31  5-MIN KMSN 170525Z 19008KT 10SM CLR 28/21 A2992 860 66 2600 190/08 RMK AO2
14837KMSN MSN20060716233009307/16/06 23:30:31  5-MIN KMSN 170530Z 20005KT 10SM CLR 28/21 A2993 860 66 2600 200/05 RMK AO2
14837KMSN MSN20060716233509307/16/06 23:35:31  5-MIN KMSN 170535Z 22006KT 10SM CLR 28/21 A2993 860 66 2600 220/06 RMK AO2
14837KMSN MSN20060716234009307/16/06 23:40:31  5-MIN KMSN 170540Z 21007KT 10SM CLR 28/21 A2993 860 66 2600 210/07 RMK AO2
14837KMSN MSN20060716234509307/16/06 23:45:31  5-MIN KMSN 170545Z 21006KT 10SM CLR 28/21 A2993 860 66 2600 210/06 RMK AO2
14837KMSN MSN20060716235013807/16/06 23:50:31  5-MIN KMSN 170550Z 21009KT 10SM CLR 28/21 A2993 860 66 2600 210/09 RMK AO2 SLP126 T02780211 10311 20272 403280244 56012
14837KMSN MSN20060716235509307/16/06 23:55:31  5-MIN KMSN 170555Z 19009KT 10SM CLR 28/21 A2993 860 66 2600 190/09 RMK AO2
14837KMSN MSN20060717000009307/17/06 00:00:38  5-MIN KMSN 170600Z 19009KT 10SM CLR 28/21 A2993 860 66 2600 190/09 RMK AO2
14837KMSN MSN20060717000509307/17/06 00:05:31  5-MIN KMSN 170605Z 19007KT 10SM CLR 27/21 A2993 860 69 2500 190/07 RMK AO2
14837KMSN MSN20060717001009307/17/06 00:10:31  5-MIN KMSN 170610Z 19010KT 10SM CLR 27/21 A2993 860 69 2500 190/10 RMK AO2
14837KMSN MSN20060717001509307/17/06 00:15:31  5-MIN KMSN 170615Z 19007KT 10SM CLR 27/21 A2993 860 69 2500 190/07 RMK AO2
14837KMSN MSN20060717002009307/17/06 00:20:31  5-MIN KMSN 170620Z 20008KT 10SM CLR 27/21 A2993 860 69 2500 200/08 RMK AO2
14837KMSN MSN20060717002509307/17/06 00:25:31  5-MIN KMSN 170625Z 20008KT 10SM CLR 27/21 A2993 860 69 2500 200/08 RMK AO2
14837KMSN MSN20060717003009307/17/06 00:30:31  5-MIN KMSN 170630Z 20008KT 10SM CLR 27/21 A2993 860 69 2500 200/08 RMK AO2
14837KMSN MSN20060717003509307/17/06 00:35:31  5-MIN KMSN 170635Z 19009KT 10SM CLR 27/21 A2993 860 69 2500 190/09 RMK AO2
14837KMSN MSN20060717004009307/17/06 00:40:31  5-MIN KMSN 170640Z 20008KT 10SM CLR 27/21 A2993 860 69 2500 200/08 RMK AO2
14837KMSN MSN20060717004509907/17/06 00:45:31  5-MIN KMSN 170645Z 20006G14KT 10SM CLR 27/21 A2993 860 69 2500 200/06G14 RMK AO2
14837KMSN MSN20060717005011007/17/06 00:50:31  5-MIN KMSN 170650Z 19006KT 10SM CLR 27/21 A2993 860 69 2500 190/06 RMK AO2 SLP126 T02720211
14837KMSN MSN20060717005509307/17/06 00:55:31  5-MIN KMSN 170655Z 20008KT 10SM CLR 27/21 A2993 860 71 2400 200/08 RMK AO2
14837KMSN MSN20060717010009307/17/06 01:00:31  5-MIN KMSN 170700Z 21004KT 10SM CLR 27/21 A2993 850 71 2400 200/04 RMK AO2
14837KMSN MSN20060717010509307/17/06 01:05:31  5-MIN KMSN 170705Z 21005KT 10SM CLR 27/21 A2993 850 71 2400 210/05 RMK AO2
14837KMSN MSN20060717011009307/17/06 01:10:31  5-MIN KMSN 170710Z VRB05KT 10SM CLR 27/21 A2994 850 71 2400 VRB/05 RMK AO2
14837KMSN MSN20060717011509307/17/06 01:15:31  5-MIN KMSN 170715Z VRB04KT 10SM CLR 27/21 A2994 850 71 2400 VRB/04 RMK AO2
14837KMSN MSN20060717012009307/17/06 01:20:31  5-MIN KMSN 170720Z 21005KT 10SM CLR 26/21 A2994 850 73 2400 210/05 RMK AO2
14837KMSN MSN20060717012509307/17/06 01:25:31  5-MIN KMSN 170725Z VRB04KT 10SM CLR 26/21 A2994 850 73 2400 VRB/04 RMK AO2
14837KMSN MSN20060717013009307/17/06 01:30:31  5-MIN KMSN 170730Z 22004KT 10SM CLR 26/21 A2994 850 73 2400 220/04 RMK AO2
14837KMSN MSN20060717013509307/17/06 01:35:31  5-MIN KMSN 170735Z 21004KT 10SM CLR 26/21 A2994 850 73 2400 210/04 RMK AO2
14837KMSN MSN20060717014009307/17/06 01:40:31  5-MIN KMSN 170740Z 22004KT 10SM CLR 26/21 A2994 850 73 2400 210/04 RMK AO2
14837KMSN MSN20060717014509307/17/06 01:45:31  5-MIN KMSN 170745Z 21005KT 10SM CLR 26/21 A2994 850 73 2400 210/05 RMK AO2
14837KMSN MSN20060717015011007/17/06 01:50:31  5-MIN KMSN 170750Z 20005KT 10SM CLR 26/21 A2994 850 73 2400 200/05 RMK AO2 SLP130 T02610211
14837KMSN MSN20060717015509307/17/06 01:55:31  5-MIN KMSN 170755Z 20006KT 10SM CLR 26/21 A2994 850 73 2400 200/06 RMK AO2
14837KMSN MSN20060717020009307/17/06 02:00:31  5-MIN KMSN 170800Z 21006KT 10SM CLR 26/21 A2994 840 73 2400 210/06 RMK AO2
14837KMSN MSN20060717020509307/17/06 02:05:31  5-MIN KMSN 170805Z 20005KT 10SM CLR 26/21 A2994 840 71 2400 200/05 RMK AO2
14837KMSN MSN20060717021009307/17/06 02:10:31  5-MIN KMSN 170810Z 19005KT 10SM CLR 26/21 A2994 840 71 2400 190/05 RMK AO2
14837KMSN MSN20060717021509307/17/06 02:15:31  5-MIN KMSN 170815Z 20005KT 10SM CLR 26/21 A2994 840 71 2400 200/05 RMK AO2
14837KMSN MSN20060717022009307/17/06 02:20:31  5-MIN KMSN 170820Z 19006KT 10SM CLR 26/21 A2994 850 71 2400 190/06 RMK AO2
14837KMSN MSN20060717022509307/17/06 02:25:31  5-MIN KMSN 170825Z 19006KT 10SM CLR 26/21 A2994 850 71 2400 190/06 RMK AO2
14837KMSN MSN20060717023009307/17/06 02:30:31  5-MIN KMSN 170830Z 20005KT 10SM CLR 26/21 A2994 850 71 2400 200/05 RMK AO2
14837KMSN MSN20060717023509307/17/06 02:35:31  5-MIN KMSN 170835Z VRB05KT 10SM CLR 26/21 A2994 850 71 2400 VRB/05 RMK AO2
14837KMSN MSN20060717024009307/17/06 02:40:31  5-MIN KMSN 170840Z 20005KT 10SM CLR 26/21 A2994 850 71 2400 200/05 RMK AO2
14837KMSN MSN20060717024509307/17/06 02:45:31  5-MIN KMSN 170845Z 20005KT 10SM CLR 26/20 A2994 850 68 2400 200/05 RMK AO2
14837KMSN MSN20060717025011607/17/06 02:50:31  5-MIN KMSN 170850Z 18006KT 10SM CLR 26/21 A2994 850 73 2300 180/06 RMK AO2 SLP129 T02560206 55005
14837KMSN MSN20060717025509307/17/06 02:55:31  5-MIN KMSN 170855Z 19007KT 10SM CLR 26/21 A2994 850 73 2300 190/07 RMK AO2
14837KMSN MSN20060717030009307/17/06 03:00:31  5-MIN KMSN 170900Z 19007KT 10SM CLR 26/21 A2994 850 73 2300 190/07 RMK AO2
14837KMSN MSN20060717030509307/17/06 03:05:31  5-MIN KMSN 170905Z 20006KT 10SM CLR 26/21 A2994 840 71 2400 200/06 RMK AO2
14837KMSN MSN20060717031009307/17/06 03:10:31  5-MIN KMSN 170910Z 20006KT 10SM CLR 26/21 A2994 840 71 2400 200/06 RMK AO2
14837KMSN MSN20060717031509307/17/06 03:15:31  5-MIN KMSN 170915Z 19005KT 10SM CLR 26/20 A2994 840 68 2400 190/05 RMK AO2
14837KMSN MSN20060717032009307/17/06 03:20:31  5-MIN KMSN 170920Z 19004KT 10SM CLR 26/20 A2995 840 68 2400 190/04 RMK AO2
14837KMSN MSN20060717032509307/17/06 03:25:31  5-MIN KMSN 170925Z 18005KT 10SM CLR 26/21 A2995 840 73 2300 180/05 RMK AO2
14837KMSN MSN20060717033009307/17/06 03:30:31  5-MIN KMSN 170930Z 18005KT 10SM CLR 25/21 A2995 840 76 2200 170/05 RMK AO2
14837KMSN MSN20060717033509307/17/06 03:35:31  5-MIN KMSN 170935Z 17006KT 10SM CLR 25/21 A2994 840 76 2200 170/06 RMK AO2
14837KMSN MSN20060717034009307/17/06 03:40:31  5-MIN KMSN 170940Z 18007KT 10SM CLR 25/21 A2994 840 76 2200 180/07 RMK AO2
14837KMSN MSN20060717034509307/17/06 03:45:31  5-MIN KMSN 170945Z 19006KT 10SM CLR 25/21 A2994 840 76 2200 180/06 RMK AO2
14837KMSN MSN20060717035011007/17/06 03:50:31  5-MIN KMSN 170950Z 19005KT 10SM CLR 25/21 A2994 840 76 2200 190/05 RMK AO2 SLP132 T02500206
14837KMSN MSN20060717035509307/17/06 03:55:31  5-MIN KMSN 170955Z 18005KT 10SM CLR 25/21 A2995 840 76 2200 180/05 RMK AO2
14837KMSN MSN20060717040009307/17/06 04:00:31  5-MIN KMSN 171000Z 19005KT 10SM CLR 25/21 A2995 840 76 2200 190/05 RMK AO2
14837KMSN MSN20060717040509307/17/06 04:05:31  5-MIN KMSN 171005Z 18006KT 10SM CLR 26/20 A2995 840 71 2300 180/06 RMK AO2
14837KMSN MSN20060717041009307/17/06 04:10:31  5-MIN KMSN 171010Z 18006KT 10SM CLR 25/21 A2995 840 76 2200 180/06 RMK AO2
14837KMSN MSN20060717041509307/17/06 04:15:31  5-MIN KMSN 171015Z 19005KT 10SM CLR 25/21 A2995 840 76 2200 190/05 RMK AO2
14837KMSN MSN20060717042009307/17/06 04:20:31  5-MIN KMSN 171020Z 22007KT 10SM CLR 25/21 A2995 840 76 2200 220/07 RMK AO2
14837KMSN MSN20060717042509307/17/06 04:25:31  5-MIN KMSN 171025Z VRB06KT 10SM CLR 25/21 A2995 840 76 2200 VRB/06 RMK AO2
14837KMSN MSN20060717043009307/17/06 04:30:31  5-MIN KMSN 171030Z 22007KT 10SM CLR 25/21 A2995 840 76 2200 220/07 RMK AO2
14837KMSN MSN20060717043509307/17/06 04:35:31  5-MIN KMSN 171035Z VRB06KT 10SM CLR 25/21 A2994 840 76 2200 VRB/06 RMK AO2
14837KMSN MSN20060717044009307/17/06 04:40:31  5-MIN KMSN 171040Z VRB06KT 10SM CLR 25/21 A2995 840 76 2200 VRB/06 RMK AO2
14837KMSN MSN20060717044509307/17/06 04:45:31  5-MIN KMSN 171045Z 17007KT 10SM CLR 25/21 A2994 840 76 2200 170/07 RMK AO2
14837KMSN MSN20060717045011007/17/06 04:50:31  5-MIN KMSN 171050Z 18007KT 10SM CLR 25/21 A2994 840 76 2200 180/07 RMK AO2 SLP132 T02500206
14837KMSN MSN20060717045509307/17/06 04:55:31  5-MIN KMSN 171055Z 18008KT 10SM CLR 24/21 A2994 850 78 2200 180/08 RMK AO2
14837KMSN MSN20060717050009207/17/06 05:00:31  5-MIN KMSN 171100Z 18008KT 9SM CLR 24/21 A2994 850 78 2200 180/08 RMK AO2
14837KMSN MSN20060717050509207/17/06 05:05:31  5-MIN KMSN 171105Z 18009KT 9SM CLR 24/21 A2994 850 78 2200 180/09 RMK AO2
14837KMSN MSN20060717051009207/17/06 05:10:31  5-MIN KMSN 171110Z 18009KT 9SM CLR 25/21 A2994 850 76 2200 180/09 RMK AO2
14837KMSN MSN20060717051509207/17/06 05:15:31  5-MIN KMSN 171115Z 18009KT 9SM CLR 24/21 A2994 850 78 2200 180/09 RMK AO2
14837KMSN MSN20060717052009207/17/06 05:20:31  5-MIN KMSN 171120Z 19006KT 9SM CLR 25/21 A2994 840 76 2200 190/06 RMK AO2
14837KMSN MSN20060717052509207/17/06 05:25:31  5-MIN KMSN 171125Z 19005KT 9SM CLR 25/21 A2994 850 76 2200 190/05 RMK AO2
14837KMSN MSN20060717053009207/17/06 05:30:31  5-MIN KMSN 171130Z 19007KT 9SM CLR 25/21 A2994 850 76 2200 190/07 RMK AO2
14837KMSN MSN20060717053509207/17/06 05:35:31  5-MIN KMSN 171135Z 20007KT 9SM CLR 25/21 A2994 850 76 2200 200/07 RMK AO2
14837KMSN MSN20060717054009207/17/06 05:40:31  5-MIN KMSN 171140Z 20008KT 9SM CLR 26/21 A2994 850 73 2300 200/08 RMK AO2
14837KMSN MSN20060717054509207/17/06 05:45:31  5-MIN KMSN 171145Z 19006KT 9SM CLR 26/21 A2994 850 73 2300 190/06 RMK AO2
14837KMSN MSN20060717055012707/17/06 05:50:31  5-MIN KMSN 171150Z VRB05KT 9SM CLR 26/21 A2994 850 73 2300 VRB/05 RMK AO2 SLP130 T02560206 10278 20244 51003
14837KMSN MSN20060717055509207/17/06 05:55:31  5-MIN KMSN 171155Z 20007KT 9SM CLR 26/21 A2994 850 73 2300 200/07 RMK AO2
14837KMSN MSN20060717060009207/17/06 06:00:31  5-MIN KMSN 171200Z 21006KT 9SM CLR 26/20 A2994 850 71 2300 210/06 RMK AO2
14837KMSN MSN20060717060509207/17/06 06:05:31  5-MIN KMSN 171205Z 21008KT 9SM CLR 26/20 A2993 850 71 2300 210/08 RMK AO2
14837KMSN MSN20060717061009207/17/06 06:10:31  5-MIN KMSN 171210Z 21007KT 9SM CLR 26/20 A2993 850 71 2300 210/07 RMK AO2
14837KMSN MSN20060717061509207/17/06 06:15:31  5-MIN KMSN 171215Z 21007KT 9SM CLR 26/21 A2994 850 71 2400 210/07 RMK AO2
14837KMSN MSN20060717062009207/17/06 06:20:31  5-MIN KMSN 171220Z 20009KT 9SM CLR 26/21 A2993 850 71 2400 200/09 RMK AO2
14837KMSN MSN20060717062509207/17/06 06:25:31  5-MIN KMSN 171225Z 21009KT 9SM CLR 26/21 A2994 850 71 2400 210/09 RMK AO2
14837KMSN MSN20060717063009207/17/06 06:30:31  5-MIN KMSN 171230Z 20008KT 9SM CLR 26/21 A2993 850 71 2400 200/08 RMK AO2
14837KMSN MSN20060717063509207/17/06 06:35:31  5-MIN KMSN 171235Z 20008KT 9SM CLR 26/21 A2993 850 71 2400 200/08 RMK AO2
14837KMSN MSN20060717064009207/17/06 06:40:31  5-MIN KMSN 171240Z 21010KT 9SM CLR 26/21 A2993 850 71 2400 210/10 RMK AO2
14837KMSN MSN20060717064509207/17/06 06:45:31  5-MIN KMSN 171245Z 20009KT 9SM CLR 27/21 A2993 860 69 2400 200/09 RMK AO2
14837KMSN MSN20060717065010907/17/06 06:50:31  5-MIN KMSN 171250Z 21009KT 9SM CLR 27/21 A2993 860 69 2400 200/09 RMK AO2 SLP127 T02670206
14837KMSN MSN20060717065509207/17/06 06:55:31  5-MIN KMSN 171255Z 20010KT 9SM CLR 27/21 A2992 860 71 2400 200/10 RMK AO2
14837KMSN MSN20060717070009207/17/06 07:00:31  5-MIN KMSN 171300Z 21008KT 9SM CLR 27/21 A2993 860 69 2400 210/08 RMK AO2
14837KMSN MSN20060717070509207/17/06 07:05:31  5-MIN KMSN 171305Z 21011KT 8SM CLR 27/21 A2992 860 71 2400 210/11 RMK AO2
14837KMSN MSN20060717071009207/17/06 07:10:31  5-MIN KMSN 171310Z 21007KT 8SM CLR 26/21 A2992 860 73 2400 210/07 RMK AO2
14837KMSN MSN20060717071509207/17/06 07:15:31  5-MIN KMSN 171315Z 21009KT 8SM CLR 27/21 A2992 870 71 2400 210/09 RMK AO2
14837KMSN MSN20060717072009207/17/06 07:20:31  5-MIN KMSN 171320Z 22009KT 8SM CLR 27/21 A2992 870 69 2500 220/09 RMK AO2
14837KMSN MSN20060717072509207/17/06 07:25:31  5-MIN KMSN 171325Z 22010KT 8SM CLR 27/21 A2992 870 69 2500 220/10 RMK AO2
14837KMSN MSN20060717073009807/17/06 07:30:31  5-MIN KMSN 171330Z 21009G15KT 8SM CLR 27/22 A2991 870 71 2500 210/09G15 RMK AO2
14837KMSN MSN20060717073509207/17/06 07:35:31  5-MIN KMSN 171335Z 22008KT 8SM CLR 27/22 A2992 870 71 2500 220/08 RMK AO2
14837KMSN MSN20060717074009207/17/06 07:40:31  5-MIN KMSN 171340Z 22009KT 8SM CLR 27/22 A2992 870 73 2400 220/09 RMK AO2
14837KMSN MSN20060717074509207/17/06 07:45:31  5-MIN KMSN 171345Z 21009KT 8SM CLR 27/22 A2991 870 71 2500 210/09 RMK AO2
14837KMSN MSN20060717075010907/17/06 07:50:31  5-MIN KMSN 171350Z 22010KT 8SM CLR 28/22 A2991 870 69 2600 220/10 RMK AO2 SLP121 T02780217
14837KMSN MSN20060717075509207/17/06 07:55:31  5-MIN KMSN 171355Z 22010KT 8SM CLR 28/22 A2991 870 69 2600 220/10 RMK AO2
14837KMSN MSN20060717080009807/17/06 08:00:31  5-MIN KMSN 171400Z 22009G16KT 8SM CLR 28/22 A2991 870 69 2600 220/09G16 RMK AO2
14837KMSN MSN20060717080509807/17/06 08:05:31  5-MIN KMSN 171405Z 21010G16KT 8SM CLR 28/22 A2991 880 69 2600 210/10G16 RMK AO2
14837KMSN MSN20060717081009207/17/06 08:10:31  5-MIN KMSN 171410Z 21011KT 8SM CLR 28/22 A2990 880 69 2700 210/11 RMK AO2
14837KMSN MSN20060717081509207/17/06 08:15:31  5-MIN KMSN 171415Z 22007KT 8SM CLR 28/22 A2990 880 69 2600 220/07 RMK AO2
14837KMSN MSN20060717082009207/17/06 08:20:31  5-MIN KMSN 171420Z 23008KT 8SM CLR 29/22 A2991 880 67 2700 230/08 RMK AO2
14837KMSN MSN20060717082509207/17/06 08:25:31  5-MIN KMSN 171425Z 22008KT 8SM CLR 29/23 A2991 880 69 2700 220/08 RMK AO2
14837KMSN MSN20060717083009207/17/06 08:30:31  5-MIN KMSN 171430Z 21009KT 8SM CLR 28/22 A2991 880 69 2600 210/09 RMK AO2
14837KMSN MSN20060717083509207/17/06 08:35:31  5-MIN KMSN 171435Z 21010KT 8SM CLR 29/22 A2990 880 67 2700 200/10 RMK AO2
14837KMSN MSN20060717084009207/17/06 08:40:31  5-MIN KMSN 171440Z 20010KT 8SM CLR 29/23 A2990 890 69 2700 200/10 RMK AO2
14837KMSN MSN20060717084509207/17/06 08:45:31  5-MIN KMSN 171445Z 22009KT 8SM CLR 29/23 A2989 890 67 2800 220/09 RMK AO2
14837KMSN MSN20060717085011507/17/06 08:50:31  5-MIN KMSN 171450Z 22007KT 8SM CLR 29/23 A2989 890 67 2800 220/07 RMK AO2 SLP115 T02940228 50000
14837KMSN MSN20060717085509207/17/06 08:55:31  5-MIN KMSN 171455Z 21009KT 8SM CLR 29/23 A2989 890 67 2800 210/09 RMK AO2
14837KMSN MSN20060717090009207/17/06 09:00:31  5-MIN KMSN 171500Z 21010KT 8SM CLR 29/23 A2989 890 67 2800 210/10 RMK AO2
14837KMSN MSN20060717090509207/17/06 09:05:31  5-MIN KMSN 171505Z 20009KT 8SM CLR 30/23 A2989 890 65 2800 200/09 RMK AO2
14837KMSN MSN20060717091009207/17/06 09:10:31  5-MIN KMSN 171510Z 20009KT 8SM CLR 30/23 A2989 890 67 2900 200/09 RMK AO2
14837KMSN MSN20060717091509207/17/06 09:15:31  5-MIN KMSN 171515Z 20011KT 8SM CLR 30/23 A2989 900 67 2900 200/11 RMK AO2
14837KMSN MSN20060717092009207/17/06 09:20:31  5-MIN KMSN 171520Z 20009KT 8SM CLR 31/23 A2988 900 65 2900 200/09 RMK AO2
14837KMSN MSN20060717092509207/17/06 09:25:31  5-MIN KMSN 171525Z 20010KT 8SM CLR 31/23 A2988 900 62 2900 200/10 RMK AO2
14837KMSN MSN20060717093009207/17/06 09:30:31  5-MIN KMSN 171530Z 22010KT 8SM CLR 31/23 A2988 900 65 2900 210/10 RMK AO2
14837KMSN MSN20060717093509207/17/06 09:35:31  5-MIN KMSN 171535Z 20009KT 8SM CLR 31/23 A2988 900 65 2900 200/09 RMK AO2
14837KMSN MSN20060717094009207/17/06 09:40:31  5-MIN KMSN 171540Z 21008KT 8SM CLR 31/23 A2988 900 63 3000 210/08 RMK AO2
14837KMSN MSN20060717094509207/17/06 09:45:31  5-MIN KMSN 171545Z 22009KT 8SM CLR 31/23 A2989 900 63 3000 220/09 RMK AO2
14837KMSN MSN20060717095010907/17/06 09:50:31  5-MIN KMSN 171550Z 21010KT 8SM CLR 31/23 A2988 900 63 3000 210/10 RMK AO2 SLP111 T03110233
14837KMSN MSN20060717095509207/17/06 09:55:31  5-MIN KMSN 171555Z 21010KT 8SM CLR 32/23 A2988 900 61 3000 210/10 RMK AO2
14837KMSN MSN20060717100009207/17/06 10:00:31  5-MIN KMSN 171600Z 21009KT 9SM CLR 32/23 A2988 900 61 3000 210/09 RMK AO2
14837KMSN MSN20060717100509207/17/06 10:05:31  5-MIN KMSN 171605Z 21009KT 9SM CLR 32/23 A2988 900 61 3000 210/09 RMK AO2
14837KMSN MSN20060717101009207/17/06 10:10:31  5-MIN KMSN 171610Z 21009KT 9SM CLR 32/23 A2988 900 61 3000 210/09 RMK AO2
14837KMSN MSN20060717101509207/17/06 10:15:31  5-MIN KMSN 171615Z 21008KT 9SM CLR 32/23 A2988 900 61 3000 210/08 RMK AO2
14837KMSN MSN20060717102010807/17/06 10:20:31  5-MIN KMSN 171620Z 22008KT 190V250 9SM CLR 32/23 A2988 900 59 3100 220/08 190V250 RMK AO2
14837KMSN MSN20060717102509207/17/06 10:25:31  5-MIN KMSN 171625Z 22011KT 9SM CLR 32/23 A2988 900 59 3100 220/11 RMK AO2
14837KMSN MSN20060717103009207/17/06 10:30:31  5-MIN KMSN 171630Z 21010KT 9SM CLR 32/23 A2988 900 59 3100 210/10 RMK AO2
14837KMSN MSN20060717103509207/17/06 10:35:31  5-MIN KMSN 171635Z 22010KT 9SM CLR 32/23 A2988 900 59 3100 210/10 RMK AO2
14837KMSN MSN20060717104009307/17/06 10:40:31  5-MIN KMSN 171640Z 20012KT 10SM CLR 32/23 A2988 900 59 3100 200/12 RMK AO2
14837KMSN MSN20060717104509207/17/06 10:45:31  5-MIN KMSN 171645Z 21008KT 9SM CLR 33/23 A2988 900 57 3200 210/08 RMK AO2
14837KMSN MSN20060717105012607/17/06 10:50:31  5-MIN KMSN 171650Z 21010KT 180V250 10SM CLR 33/23 A2988 900 57 3200 210/10 180V250 RMK AO2 SLP110 T03280233
14837KMSN MSN20060717105511507/17/06 10:55:31  5-MIN KMSN 171655Z 20010G16KT 180V240 10SM CLR 33/23 A2988 910 57 3200 200/10G16 180V240 RMK AO2
14837KMSN MSN20060717110009307/17/06 11:00:31  5-MIN KMSN 171700Z 22012KT 10SM CLR 33/23 A2988 910 57 3200 220/12 RMK AO2
14837KMSN MSN20060717110509907/17/06 11:05:31  5-MIN KMSN 171705Z 22007G16KT 10SM CLR 33/23 A2987 910 55 3200 220/07G16 RMK AO2
14837KMSN MSN20060717111010907/17/06 11:10:31  5-MIN KMSN 171710Z 23007KT 190V250 10SM CLR 33/23 A2987 910 55 3200 230/07 190V250 RMK AO2
14837KMSN MSN20060717111511507/17/06 11:15:31  5-MIN KMSN 171715Z 24009G15KT 190V260 10SM CLR 33/24 A2988 910 57 3200 240/09G15 190V260 RMK AO2
14837KMSN MSN20060717112011507/17/06 11:20:31  5-MIN KMSN 171720Z 23007G15KT 200V260 10SM CLR 33/23 A2987 910 57 3200 230/07G15 200V260 RMK AO2
14837KMSN MSN20060717112509307/17/06 11:25:31  5-MIN KMSN 171725Z 23006KT 10SM CLR 33/23 A2987 910 57 3200 230/06 RMK AO2
14837KMSN MSN20060717113009307/17/06 11:30:31  5-MIN KMSN 171730Z 23010KT 10SM CLR 33/23 A2987 910 55 3200 230/10 RMK AO2
14837KMSN MSN20060717113510907/17/06 11:35:31  5-MIN KMSN 171735Z 24008KT 180V270 10SM CLR 33/23 A2987 910 55 3200 240/08 180V270 RMK AO2
14837KMSN MSN20060717114009907/17/06 11:40:31  5-MIN KMSN 171740Z 24008G15KT 10SM CLR 33/24 A2988 910 57 3200 240/08G15 RMK AO2
14837KMSN MSN20060717114511507/17/06 11:45:31  5-MIN KMSN 171745Z 25008G15KT 200V310 10SM CLR 33/23 A2988 900 57 3200 250/08G15 200V310 RMK AO2
14837KMSN MSN20060717115015307/17/06 11:50:31  5-MIN KMSN 171750Z 25010G15KT 210V300 10SM FEW100 33/23 A2989 900 57 3200 250/10G15 210V300 RMK AO2 SLP112 T03280233 10333 20256 58015
14837KMSN MSN20060717115510907/17/06 11:55:31  5-MIN KMSN 171755Z 24010G15KT 10SM FEW110 32/23 A2990 890 58 3000 240/10G15 RMK AO2 PRESRR
14837KMSN MSN20060717120012507/17/06 12:00:31  5-MIN KMSN 171800Z 26009G15KT 220V290 10SM FEW042 SCT110 32/23 A2990 890 58 3000 260/09G15 220V290 RMK AO2
14837KMSN MSN20060717120512507/17/06 12:05:31  5-MIN KMSN 171805Z 25008G19KT 220V290 10SM SCT040 SCT110 32/23 A2990 890 61 3000 250/08G19 220V290 RMK AO2
14837KMSN MSN20060717121012407/17/06 12:10:31  5-MIN KMSN 171810Z 27007G19KT 230V300 9SM SCT040 BKN110 31/23 A2990 880 63 3000 270/07G19 230V300 RMK AO2
14837KMSN MSN20060717121510807/17/06 12:15:31  5-MIN KMSN 171815Z 27012G18KT 9SM SCT040 BKN110 31/23 A2989 890 63 3000 270/12G18 RMK AO2
14837KMSN MSN20060717122012407/17/06 12:20:31  5-MIN KMSN 171820Z 27007G18KT 240V310 9SM SCT040 SCT110 31/24 A2989 890 65 3000 270/07G18 240V310 RMK AO2
14837KMSN MSN20060717122511707/17/06 12:25:31  5-MIN KMSN 171825Z 27008G14KT 230V310 9SM SCT040 31/23 A2989 900 63 3000 270/08G14 230V310 RMK AO2
14837KMSN MSN20060717123011707/17/06 12:30:31  5-MIN KMSN 171830Z 25007G14KT 200V310 9SM FEW040 32/24 A2988 900 63 3000 240/07G14 200V310 RMK AO2
14837KMSN MSN20060717123510207/17/06 12:35:31  5-MIN KMSN 171835Z VRB06KT 9SM FEW040 32/24 A2987 910 63 3100 VRB/06 RMK AO2 PRESFR
14837KMSN MSN20060717124009907/17/06 12:40:31  5-MIN KMSN 171840Z 24008KT 9SM CLR 32/24 A2987 920 61 3100 230/08 RMK AO2 PRESFR
14837KMSN MSN20060717124509907/17/06 12:45:31  5-MIN KMSN 171845Z 23008KT 9SM CLR 32/24 A2986 920 63 3100 230/08 RMK AO2 PRESFR
14837KMSN MSN20060717125010907/17/06 12:50:31  5-MIN KMSN 171850Z 23007KT 9SM CLR 32/24 A2986 920 63 3100 230/07 RMK AO2 SLP102 T03170239
14837KMSN MSN20060717125509207/17/06 12:55:31  5-MIN KMSN 171855Z 22009KT 9SM CLR 32/24 A2985 930 63 3100 220/09 RMK AO2
14837KMSN MSN20060717130009207/17/06 13:00:31  5-MIN KMSN 171900Z 23011KT 9SM CLR 32/24 A2985 930 61 3100 230/11 RMK AO2
14837KMSN MSN20060717130509807/17/06 13:05:31  5-MIN KMSN 171905Z 23010KT 9SM CLR 32/24 A2985 930 61 3100 230/10 RMK AO2 P0001
14837KMSN MSN20060717131009807/17/06 13:10:31  5-MIN KMSN 171910Z 22010G17KT 9SM CLR 33/24 A2985 930 59 3200 220/10G17 RMK AO2
14837KMSN MSN20060717131509807/17/06 13:15:31  5-MIN KMSN 171915Z 24009G17KT 9SM CLR 32/24 A2985 930 61 3100 240/09G17 RMK AO2
14837KMSN MSN20060717132009207/17/06 13:20:31  5-MIN KMSN 171920Z 24009KT 9SM CLR 33/24 A2985 930 59 3200 240/09 RMK AO2
14837KMSN MSN20060717132510807/17/06 13:25:31  5-MIN KMSN 171925Z 24008KT 200V280 9SM CLR 32/24 A2985 930 61 3100 240/08 200V280 RMK AO2
14837KMSN MSN20060717133010807/17/06 13:30:31  5-MIN KMSN 171930Z 22007KT 180V250 9SM CLR 33/24 A2985 930 59 3200 220/07 180V250 RMK AO2
14837KMSN MSN20060717133509207/17/06 13:35:31  5-MIN KMSN 171935Z 21010KT 9SM CLR 33/24 A2985 930 57 3300 210/10 RMK AO2
14837KMSN MSN20060717134009207/17/06 13:40:31  5-MIN KMSN 171940Z 22009KT 9SM CLR 33/24 A2985 930 59 3300 220/09 RMK AO2
14837KMSN MSN20060717134509207/17/06 13:45:31  5-MIN KMSN 171945Z 22010KT 9SM CLR 33/24 A2985 930 59 3200 220/10 RMK AO2
14837KMSN MSN20060717135012907/17/06 13:50:31  5-MIN KMSN 171950Z 23008KT 200V280 10SM FEW110 33/24 A2985 930 57 3300 230/08 200V280 RMK AO2 SLP099 T03330239
14837KMSN MSN20060717135509807/17/06 13:55:31  5-MIN KMSN 171955Z 23009G14KT 9SM CLR 33/24 A2985 930 59 3200 220/09G14 RMK AO2
14837KMSN MSN20060717140009307/17/06 14:00:31  5-MIN KMSN 172000Z 23008KT 10SM CLR 33/23 A2985 930 57 3200 230/08 RMK AO2
14837KMSN MSN20060717140509207/17/06 14:05:31  5-MIN KMSN 172005Z 25009KT 9SM CLR 33/24 A2985 930 59 3200 250/09 RMK AO2
14837KMSN MSN20060717141010807/17/06 14:10:31  5-MIN KMSN 172010Z 24007KT 190V280 9SM CLR 33/24 A2985 930 59 3200 240/07 190V280 RMK AO2
14837KMSN MSN20060717141510807/17/06 14:15:31  5-MIN KMSN 172015Z 23007KT 210V270 9SM CLR 33/24 A2985 930 59 3200 230/07 210V270 RMK AO2
14837KMSN MSN20060717142009207/17/06 14:20:31  5-MIN KMSN 172020Z 23007KT 9SM CLR 33/24 A2985 930 59 3300 230/07 RMK AO2
14837KMSN MSN20060717142509207/17/06 14:25:31  5-MIN KMSN 172025Z VRB05KT 9SM CLR 33/24 A2985 930 57 3300 VRB/05 RMK AO2
14837KMSN MSN20060717143009307/17/06 14:30:31  5-MIN KMSN 172030Z VRB06KT 10SM CLR 33/24 A2985 930 57 3300 VRB/06 RMK AO2
14837KMSN MSN20060717143510907/17/06 14:35:31  5-MIN KMSN 172035Z 24008KT 200V270 10SM CLR 33/24 A2985 930 57 3300 240/08 200V270 RMK AO2
14837KMSN MSN20060717144009307/17/06 14:40:31  5-MIN KMSN 172040Z 24009KT 10SM CLR 33/24 A2985 930 59 3300 230/09 RMK AO2
14837KMSN MSN20060717144509307/17/06 14:45:31  5-MIN KMSN 172045Z 23008KT 10SM CLR 33/24 A2985 930 59 3300 230/08 RMK AO2
14837KMSN MSN20060717145011607/17/06 14:50:31  5-MIN KMSN 172050Z VRB06KT 10SM CLR 33/24 A2986 920 59 3300 VRB/06 RMK AO2 SLP102 T03330244 55001
14837KMSN MSN20060717145509307/17/06 14:55:31  5-MIN KMSN 172055Z VRB06KT 10SM CLR 33/24 A2986 920 57 3200 VRB/06 RMK AO2
14837KMSN MSN20060717150010907/17/06 15:00:31  5-MIN KMSN 172100Z 23007KT 200V260 10SM CLR 33/23 A2986 920 55 3200 230/07 200V260 RMK AO2
14837KMSN MSN20060717150509607/17/06 15:05:31  5-MIN KMSN 172105Z 22006KT 10SM FEW060 33/24 A2986 920 57 3300 220/06 RMK AO2
14837KMSN MSN20060717151009607/17/06 15:10:31  5-MIN KMSN 172110Z 23009KT 10SM FEW060 33/24 A2985 930 57 3300 230/09 RMK AO2
14837KMSN MSN20060717151509607/17/06 15:15:31  5-MIN KMSN 172115Z 22009KT 10SM FEW060 33/23 A2985 930 55 3300 220/09 RMK AO2
14837KMSN MSN20060717152009607/17/06 15:20:31  5-MIN KMSN 172120Z 23007KT 10SM FEW060 33/24 A2985 930 57 3300 230/07 RMK AO2
14837KMSN MSN20060717152509607/17/06 15:25:31  5-MIN KMSN 172125Z 23009KT 10SM FEW060 33/24 A2986 920 59 3200 230/09 RMK AO2
14837KMSN MSN20060717153011807/17/06 15:30:31  5-MIN KMSN 172130Z 24010G15KT 200V270 10SM FEW060 33/23 A2986 920 57 3200 230/10G15 200V270 RMK AO2
14837KMSN MSN20060717153511807/17/06 15:35:31  5-MIN KMSN 172135Z 24008G15KT 210V270 10SM FEW060 33/23 A2986 920 55 3200 240/08G15 210V270 RMK AO2
14837KMSN MSN20060717154011807/17/06 15:40:31  5-MIN KMSN 172140Z 24011G15KT 210V280 10SM FEW060 33/22 A2986 920 53 3200 240/11G15 210V280 RMK AO2
14837KMSN MSN20060717154510207/17/06 15:45:31  5-MIN KMSN 172145Z 24008G16KT 10SM FEW060 33/22 A2986 920 53 3200 240/08G16 RMK AO2
14837KMSN MSN20060717155013507/17/06 15:50:31  5-MIN KMSN 172150Z 24009G16KT 200V280 10SM FEW060 33/23 A2985 930 53 3300 240/09G16 200V280 RMK AO2 SLP101 T03330228
14837KMSN MSN20060717155510207/17/06 15:55:31  5-MIN KMSN 172155Z 23011G16KT 10SM FEW060 33/22 A2985 930 53 3200 230/11G16 RMK AO2
14837KMSN MSN20060717160011807/17/06 16:00:31  5-MIN KMSN 172200Z 24008G16KT 220V280 10SM FEW060 33/21 A2985 930 49 3200 240/08G16 220V280 RMK AO2
14837KMSN MSN20060717160510207/17/06 16:05:31  5-MIN KMSN 172205Z 25009G14KT 10SM FEW060 33/22 A2985 930 51 3200 250/09G14 RMK AO2
14837KMSN MSN20060717161011207/17/06 16:10:31  5-MIN KMSN 172210Z 24008KT 210V290 10SM FEW060 33/22 A2985 930 53 3200 240/08 210V290 RMK AO2
14837KMSN MSN20060717161511207/17/06 16:15:31  5-MIN KMSN 172215Z 23009KT 210V270 10SM FEW060 33/23 A2985 930 55 3200 230/09 210V270 RMK AO2
14837KMSN MSN20060717162010207/17/06 16:20:31  5-MIN KMSN 172220Z 24009G14KT 10SM FEW060 33/23 A2984 940 55 3200 240/09G14 RMK AO2
14837KMSN MSN20060717162510207/17/06 16:25:31  5-MIN KMSN 172225Z 23008G14KT 10SM FEW060 33/23 A2984 940 57 3200 230/08G14 RMK AO2
14837KMSN MSN20060717163010207/17/06 16:30:31  5-MIN KMSN 172230Z 23007G15KT 10SM FEW060 33/23 A2983 940 57 3200 230/07G15 RMK AO2
14837KMSN MSN20060717163510207/17/06 16:35:31  5-MIN KMSN 172235Z 23008G15KT 10SM FEW060 33/23 A2983 950 57 3200 230/08G15 RMK AO2
14837KMSN MSN20060717164009607/17/06 16:40:31  5-MIN KMSN 172240Z 23008KT 10SM FEW060 32/23 A2983 950 59 3200 230/08 RMK AO2
14837KMSN MSN20060717164511207/17/06 16:45:31  5-MIN KMSN 172245Z 23008KT 210V280 10SM FEW060 32/23 A2983 950 59 3200 230/08 210V280 RMK AO2
14837KMSN MSN20060717165011307/17/06 16:50:31  5-MIN KMSN 172250Z 23006KT 10SM FEW060 32/24 A2983 950 61 3200 230/06 RMK AO2 SLP091 T03220239
14837KMSN MSN20060717165509607/17/06 16:55:31  5-MIN KMSN 172255Z 24008KT 10SM FEW060 32/24 A2982 950 61 3200 240/08 RMK AO2
14837KMSN MSN20060717170009607/17/06 17:00:31  5-MIN KMSN 172300Z 24008KT 10SM FEW060 32/23 A2982 960 59 3200 240/08 RMK AO2
14837KMSN MSN20060717170509607/17/06 17:05:31  5-MIN KMSN 172305Z 22009KT 10SM FEW060 32/24 A2982 960 61 3200 220/09 RMK AO2
14837KMSN MSN20060717171009607/17/06 17:10:31  5-MIN KMSN 172310Z 23008KT 10SM FEW060 32/24 A2982 960 61 3200 230/08 RMK AO2
14837KMSN MSN20060717171509507/17/06 17:15:31  5-MIN KMSN 172315Z VRB05KT 9SM FEW060 32/24 A2982 960 61 3200 VRB/05 RMK AO2
14837KMSN MSN20060717172009607/17/06 17:20:31  5-MIN KMSN 172320Z 23008KT 10SM FEW060 32/24 A2982 960 61 3200 230/08 RMK AO2
14837KMSN MSN20060717172509507/17/06 17:25:31  5-MIN KMSN 172325Z 24007KT 9SM FEW060 32/24 A2982 960 61 3200 240/07 RMK AO2
14837KMSN MSN20060717173009507/17/06 17:30:31  5-MIN KMSN 172330Z VRB06KT 9SM FEW060 32/24 A2982 950 61 3200 VRB/06 RMK AO2
14837KMSN MSN20060717173509507/17/06 17:35:31  5-MIN KMSN 172335Z 24006KT 9SM FEW060 32/24 A2982 950 63 3100 240/06 RMK AO2
14837KMSN MSN20060717174009507/17/06 17:40:31  5-MIN KMSN 172340Z VRB06KT 9SM FEW060 32/24 A2982 960 63 3100 VRB/06 RMK AO2
14837KMSN MSN20060717174509507/17/06 17:45:31  5-MIN KMSN 172345Z 23007KT 9SM FEW060 32/24 A2982 950 63 3100 230/07 RMK AO2
14837KMSN MSN20060717175013107/17/06 17:50:31  5-MIN KMSN 172350Z 23007KT 10SM FEW060 32/24 A2983 950 63 3100 230/07 RMK AO2 SLP092 T03170239 10333 20311 55011
14837KMSN MSN20060717175509607/17/06 17:55:31  5-MIN KMSN 172355Z VRB04KT 10SM FEW050 32/23 A2983 950 61 3100 VRB/04 RMK AO2
14837KMSN MSN20060717180009607/17/06 18:00:31  5-MIN KMSN 180000Z 24005KT 10SM FEW050 32/23 A2983 950 61 3100 240/05 RMK AO2
14837KMSN MSN20060717180509607/17/06 18:05:31  5-MIN KMSN 180005Z VRB06KT 10SM FEW050 32/23 A2983 950 61 3100 VRB/06 RMK AO2
14837KMSN MSN20060717181009607/17/06 18:10:31  5-MIN KMSN 180010Z VRB05KT 10SM FEW050 32/23 A2983 950 58 3100 VRB/05 RMK AO2
14837KMSN MSN20060717181509607/17/06 18:15:31  5-MIN KMSN 180015Z 23006KT 10SM FEW050 32/22 A2983 950 56 3100 230/06 RMK AO2
14837KMSN MSN20060717182009607/17/06 18:20:31  5-MIN KMSN 180020Z 22006KT 10SM FEW050 31/23 A2983 940 60 3000 220/06 RMK AO2
14837KMSN MSN20060717182509607/17/06 18:25:31  5-MIN KMSN 180025Z VRB04KT 10SM FEW050 31/23 A2983 950 60 3000 VRB/04 RMK AO2
14837KMSN MSN20060717183009607/17/06 18:30:31  5-MIN KMSN 180030Z VRB06KT 10SM FEW050 31/23 A2983 950 60 3000 VRB/06 RMK AO2
14837KMSN MSN20060717183509607/17/06 18:35:31  5-MIN KMSN 180035Z VRB06KT 10SM FEW050 31/23 A2984 940 60 3000 VRB/06 RMK AO2
14837KMSN MSN20060717184009607/17/06 18:40:31  5-MIN KMSN 180040Z 22005KT 10SM FEW050 31/22 A2984 940 58 3000 220/05 RMK AO2
14837KMSN MSN20060717184509607/17/06 18:45:31  5-MIN KMSN 180045Z VRB05KT 10SM FEW050 31/22 A2984 940 60 3000 VRB/05 RMK AO2
14837KMSN MSN20060717185011307/17/06 18:50:31  5-MIN KMSN 180050Z VRB06KT 10SM FEW050 31/22 A2985 930 60 3000 VRB/06 RMK AO2 SLP098 T03060222
14837KMSN MSN20060717185509607/17/06 18:55:31  5-MIN KMSN 180055Z 23006KT 10SM FEW050 31/22 A2985 930 60 3000 230/06 RMK AO2
14837KMSN MSN20060717190009607/17/06 19:00:31  5-MIN KMSN 180100Z VRB05KT 10SM FEW050 31/22 A2984 930 60 3000 VRB/05 RMK AO2
14837KMSN MSN20060717190509607/17/06 19:05:31  5-MIN KMSN 180105Z 23006KT 10SM FEW050 30/22 A2985 930 62 2900 230/06 RMK AO2
14837KMSN MSN20060717191009607/17/06 19:10:31  5-MIN KMSN 180110Z VRB05KT 10SM FEW050 31/22 A2986 920 60 2900 VRB/05 RMK AO2
14837KMSN MSN20060717191509607/17/06 19:15:31  5-MIN KMSN 180115Z VRB05KT 10SM FEW050 30/22 A2986 920 62 2900 VRB/05 RMK AO2
14837KMSN MSN20060717192009607/17/06 19:20:31  5-MIN KMSN 180120Z VRB06KT 10SM FEW050 30/22 A2986 920 62 2900 VRB/06 RMK AO2
14837KMSN MSN20060717192509607/17/06 19:25:31  5-MIN KMSN 180125Z VRB05KT 10SM FEW050 30/22 A2986 920 62 2900 VRB/05 RMK AO2
14837KMSN MSN20060717193009607/17/06 19:30:31  5-MIN KMSN 180130Z VRB05KT 10SM FEW050 30/22 A2986 920 62 2900 VRB/05 RMK AO2
14837KMSN MSN20060717193509607/17/06 19:35:31  5-MIN KMSN 180135Z 24005KT 10SM FEW050 30/22 A2986 920 62 2900 240/05 RMK AO2
14837KMSN MSN20060717194009607/17/06 19:40:31  5-MIN KMSN 180140Z 23006KT 10SM FEW050 30/22 A2986 920 62 2900 230/06 RMK AO2
14837KMSN MSN20060717194509607/17/06 19:45:31  5-MIN KMSN 180145Z 23006KT 10SM FEW050 30/22 A2986 920 60 2900 230/06 RMK AO2
14837KMSN MSN20060717195011307/17/06 19:50:31  5-MIN KMSN 180150Z VRB05KT 10SM FEW050 30/22 A2986 920 60 2900 VRB/05 RMK AO2 SLP102 T03000217
14837KMSN MSN20060717195509607/17/06 19:55:31  5-MIN KMSN 180155Z 23005KT 10SM FEW060 29/22 A2986 920 62 2800 230/05 RMK AO2
14837KMSN MSN20060717200009607/17/06 20:00:31  5-MIN KMSN 180200Z VRB05KT 10SM FEW060 29/22 A2986 920 62 2800 VRB/05 RMK AO2
14837KMSN MSN20060717200509607/17/06 20:05:31  5-MIN KMSN 180205Z VRB05KT 10SM FEW060 30/22 A2986 920 60 2900 VRB/05 RMK AO2
14837KMSN MSN20060717201009607/17/06 20:10:31  5-MIN KMSN 180210Z VRB03KT 10SM FEW060 29/21 A2986 920 60 2800 VRB/03 RMK AO2
14837KMSN MSN20060717201509607/17/06 20:15:31  5-MIN KMSN 180215Z VRB06KT 10SM FEW060 29/21 A2986 920 60 2800 VRB/06 RMK AO2
14837KMSN MSN20060717202009607/17/06 20:20:31  5-MIN KMSN 180220Z VRB04KT 10SM FEW060 29/21 A2987 910 60 2800 VRB/04 RMK AO2
14837KMSN MSN20060717202509607/17/06 20:25:31  5-MIN KMSN 180225Z VRB04KT 10SM FEW060 29/21 A2987 910 60 2800 VRB/04 RMK AO2
14837KMSN MSN20060717203009607/17/06 20:30:31  5-MIN KMSN 180230Z VRB05KT 10SM FEW060 29/21 A2987 910 60 2800 VRB/05 RMK AO2
14837KMSN MSN20060717203509607/17/06 20:35:31  5-MIN KMSN 180235Z VRB05KT 10SM FEW060 29/21 A2987 910 60 2800 VRB/05 RMK AO2
14837KMSN MSN20060717204009607/17/06 20:40:31  5-MIN KMSN 180240Z VRB06KT 10SM FEW060 29/21 A2987 910 60 2800 VRB/06 RMK AO2
14837KMSN MSN20060717204509607/17/06 20:45:31  5-MIN KMSN 180245Z 30005KT 10SM FEW060 29/21 A2987 910 62 2800 300/05 RMK AO2
14837KMSN MSN20060717205011907/17/06 20:50:31  5-MIN KMSN 180250Z 30006KT 10SM FEW080 29/21 A2987 910 62 2800 300/06 RMK AO2 SLP106 T02890211 55009
14837KMSN MSN20060717205509607/17/06 20:55:31  5-MIN KMSN 180255Z 29006KT 10SM FEW080 28/21 A2987 910 64 2700 290/06 RMK AO2
14837KMSN MSN20060717210009607/17/06 21:00:31  5-MIN KMSN 180300Z 30006KT 10SM SCT080 28/21 A2987 910 64 2700 290/06 RMK AO2
14837KMSN MSN20060717210511207/17/06 21:05:31  5-MIN KMSN 180305Z 30007KT 270V330 10SM BKN080 28/21 A2987 910 64 2700 300/07 270V330 RMK AO2
14837KMSN MSN20060717211009607/17/06 21:10:31  5-MIN KMSN 180310Z 30007KT 10SM BKN080 28/21 A2987 910 64 2700 300/07 RMK AO2
14837KMSN MSN20060717211509607/17/06 21:15:31  5-MIN KMSN 180315Z 32009KT 10SM BKN080 28/21 A2987 910 64 2700 320/09 RMK AO2
14837KMSN MSN20060717212010207/17/06 21:20:31  5-MIN KMSN 180320Z 34014G21KT 10SM SCT080 28/21 A2988 900 64 2700 340/14G21 RMK AO2
14837KMSN MSN20060717212510207/17/06 21:25:31  5-MIN KMSN 180325Z 35013G21KT 10SM SCT080 28/21 A2988 900 64 2700 350/13G21 RMK AO2
14837KMSN MSN20060717213011307/17/06 21:30:31  5-MIN KMSN 180330Z 01016G21KT 10SM SCT085 28/21 A2989 900 66 2600 010/16G21 RMK AO2 WSHFT 0316
14837KMSN MSN20060717213512007/17/06 21:35:31  5-MIN KMSN 180335Z 02016G21KT 10SM FEW085 28/21 A2989 890 64 2600 020/16G21 RMK AO2 WSHFT 0316 PRESRR
14837KMSN MSN20060717214010707/17/06 21:40:31  5-MIN KMSN 180340Z 02014KT 10SM FEW085 27/20 A2990 880 64 2500 020/14 RMK AO2 WSHFT 0316
14837KMSN MSN20060717214511407/17/06 21:45:31  5-MIN KMSN 180345Z 03015KT 10SM FEW085 27/20 A2991 880 64 2500 020/15 RMK AO2 WSHFT 0316 PRESRR
14837KMSN MSN20060717215012407/17/06 21:50:31  5-MIN KMSN 180350Z 03013KT 10SM FEW085 27/20 A2991 870 64 2500 030/13 RMK AO2 WSHFT 0316 SLP120 T02720200
14837KMSN MSN20060717215509607/17/06 21:55:31  5-MIN KMSN 180355Z 03014KT 10SM FEW090 27/20 A2991 870 66 2500 030/14 RMK AO2
14837KMSN MSN20060717220010307/17/06 22:00:31  5-MIN KMSN 180400Z 03013KT 10SM FEW080 27/20 A2993 860 66 2400 030/13 RMK AO2 PRESRR
14837KMSN MSN20060717220509607/17/06 22:05:31  5-MIN KMSN 180405Z 04012KT 10SM SCT080 27/19 A2993 850 64 2400 040/12 RMK AO2
14837KMSN MSN20060717221010307/17/06 22:10:31  5-MIN KMSN 180410Z 03010KT 10SM SCT080 26/19 A2994 850 66 2400 030/10 RMK AO2 PRESRR
14837KMSN MSN20060717221509607/17/06 22:15:31  5-MIN KMSN 180415Z 04012KT 10SM SCT085 26/19 A2994 850 66 2400 040/12 RMK AO2
14837KMSN MSN20060717222009607/17/06 22:20:31  5-MIN KMSN 180420Z 04011KT 10SM SCT090 26/19 A2994 840 66 2400 040/11 RMK AO2
14837KMSN MSN20060717222509607/17/06 22:25:31  5-MIN KMSN 180425Z 03010KT 10SM SCT090 26/19 A2994 840 66 2300 030/10 RMK AO2
14837KMSN MSN20060717223009607/17/06 22:30:31  5-MIN KMSN 180430Z 04009KT 10SM SCT090 26/19 A2995 840 66 2300 030/09 RMK AO2
14837KMSN MSN20060717223509607/17/06 22:35:31  5-MIN KMSN 180435Z 03010KT 10SM SCT090 26/19 A2995 830 66 2300 030/10 RMK AO2
14837KMSN MSN20060717224009607/17/06 22:40:31  5-MIN KMSN 180440Z 03010KT 10SM FEW095 26/19 A2995 830 66 2300 030/10 RMK AO2
14837KMSN MSN20060717224509607/17/06 22:45:31  5-MIN KMSN 180445Z 03009KT 10SM FEW090 25/19 A2996 830 68 2200 030/09 RMK AO2
14837KMSN MSN20060717225011307/17/06 22:50:31  5-MIN KMSN 180450Z 03010KT 10SM SCT085 25/19 A2996 830 68 2200 030/10 RMK AO2 SLP137 T02500189
14837KMSN MSN20060717225509607/17/06 22:55:31  5-MIN KMSN 180455Z 03008KT 10SM FEW085 25/19 A2996 830 68 2200 030/08 RMK AO2
14837KMSN MSN20060717230009607/17/06 23:00:31  5-MIN KMSN 180500Z 03009KT 10SM FEW080 25/19 A2996 820 68 2200 030/09 RMK AO2
14837KMSN MSN20060717230509607/17/06 23:05:31  5-MIN KMSN 180505Z 04009KT 10SM FEW080 24/19 A2997 820 71 2100 030/09 RMK AO2
14837KMSN MSN20060717231009607/17/06 23:10:31  5-MIN KMSN 180510Z 03009KT 10SM FEW080 24/18 A2997 820 68 2100 030/09 RMK AO2
14837KMSN MSN20060717231509607/17/06 23:15:31  5-MIN KMSN 180515Z 03009KT 10SM FEW080 24/18 A2998 810 68 2100 030/09 RMK AO2
14837KMSN MSN20060717232009607/17/06 23:20:31  5-MIN KMSN 180520Z 03009KT 10SM FEW070 24/18 A2998 810 68 2100 030/09 RMK AO2
14837KMSN MSN20060717232509607/17/06 23:25:31  5-MIN KMSN 180525Z 04010KT 10SM FEW070 24/18 A2998 810 68 2100 040/10 RMK AO2
14837KMSN MSN20060717233009607/17/06 23:30:31  5-MIN KMSN 180530Z 03011KT 10SM FEW070 24/18 A2999 800 71 2100 030/11 RMK AO2
14837KMSN MSN20060717233509607/17/06 23:35:31  5-MIN KMSN 180535Z 04011KT 10SM FEW070 24/18 A2999 800 71 2000 040/11 RMK AO2
14837KMSN MSN20060717234009607/17/06 23:40:31  5-MIN KMSN 180540Z 04009KT 10SM FEW070 24/18 A3000 790 71 2000 040/09 RMK AO2
14837KMSN MSN20060717234510307/17/06 23:45:31  5-MIN KMSN 180545Z 04011KT 10SM FEW070 SCT085 23/18 A3000 790 73 2000 040/11 RMK AO2
14837KMSN MSN20060717235014107/17/06 23:50:31  5-MIN KMSN 180550Z 03011KT 10SM FEW070 23/18 A3000 790 73 2000 030/11 RMK AO2 SLP153 T02330183 10317 20233 403330233 51013
14837KMSN MSN20060717235509607/17/06 23:55:31  5-MIN KMSN 180555Z 04011KT 10SM FEW070 23/18 A3001 780 73 2000 040/11 RMK AO2
14837KMSN MSN20060718000009607/18/06 00:00:38  5-MIN KMSN 180600Z 05012KT 10SM FEW070 23/18 A3001 780 76 1900 050/12 RMK AO2
14837KMSN MSN20060718000510207/18/06 00:05:31  5-MIN KMSN 180605Z 05014G18KT 10SM FEW070 23/18 A3001 780 73 2000 050/14G18 RMK AO2
14837KMSN MSN20060718001010207/18/06 00:10:31  5-MIN KMSN 180610Z 06011G18KT 10SM FEW070 23/18 A3001 780 76 1900 060/11G18 RMK AO2
14837KMSN MSN20060718001509607/18/06 00:15:32  5-MIN KMSN 180615Z 06010KT 10SM FEW070 23/18 A3001 780 73 1900 060/10 RMK AO2
14837KMSN MSN20060718002009607/18/06 00:20:31  5-MIN KMSN 180620Z 06012KT 10SM FEW070 23/18 A3001 780 73 1900 060/12 RMK AO2
14837KMSN MSN20060718002509607/18/06 00:25:31  5-MIN KMSN 180625Z 06009KT 10SM FEW070 23/18 A3001 780 73 1900 060/09 RMK AO2
14837KMSN MSN20060718003009607/18/06 00:30:31  5-MIN KMSN 180630Z 06012KT 10SM FEW070 22/17 A3002 780 73 1800 060/12 RMK AO2
14837KMSN MSN20060718003509307/18/06 00:35:31  5-MIN KMSN 180635Z 06012KT 10SM CLR 22/17 A3002 780 73 1800 060/12 RMK AO2
14837KMSN MSN20060718004009307/18/06 00:40:31  5-MIN KMSN 180640Z 06011KT 10SM CLR 22/17 A3002 770 70 1800 060/11 RMK AO2
14837KMSN MSN20060718004509607/18/06 00:45:31  5-MIN KMSN 180645Z 06010KT 10SM FEW090 22/17 A3002 770 70 1800 060/10 RMK AO2
14837KMSN MSN20060718005011307/18/06 00:50:31  5-MIN KMSN 180650Z 06009KT 10SM FEW090 22/16 A3002 770 68 1800 060/09 RMK AO2 SLP158 T02220161
14837KMSN MSN20060718005509607/18/06 00:55:31  5-MIN KMSN 180655Z 05010KT 10SM FEW090 22/16 A3002 770 70 1800 050/10 RMK AO2
14837KMSN MSN20060718010009607/18/06 01:00:31  5-MIN KMSN 180700Z 06010KT 10SM FEW090 22/16 A3002 770 70 1800 060/10 RMK AO2
14837KMSN MSN20060718010509607/18/06 01:05:31  5-MIN KMSN 180705Z 05008KT 10SM FEW090 22/16 A3002 770 68 1800 050/08 RMK AO2
14837KMSN MSN20060718011009607/18/06 01:10:31  5-MIN KMSN 180710Z 06007KT 10SM FEW090 21/16 A3002 770 70 1700 050/07 RMK AO2
14837KMSN MSN20060718011509307/18/06 01:15:31  5-MIN KMSN 180715Z 05008KT 10SM CLR 21/16 A3002 770 70 1700 050/08 RMK AO2
14837KMSN MSN20060718012009307/18/06 01:20:31  5-MIN KMSN 180720Z 04007KT 10SM CLR 21/16 A3002 770 70 1700 040/07 RMK AO2
14837KMSN MSN20060718012509307/18/06 01:25:31  5-MIN KMSN 180725Z 04007KT 10SM CLR 21/16 A3002 770 73 1600 040/07 RMK AO2
14837KMSN MSN20060718013009307/18/06 01:30:31  5-MIN KMSN 180730Z 04007KT 10SM CLR 21/16 A3002 770 73 1600 030/07 RMK AO2
14837KMSN MSN20060718013509307/18/06 01:35:31  5-MIN KMSN 180735Z 03007KT 10SM CLR 21/16 A3002 770 73 1600 030/07 RMK AO2
14837KMSN MSN20060718014009307/18/06 01:40:31  5-MIN KMSN 180740Z 03007KT 10SM CLR 21/16 A3002 770 73 1600 030/07 RMK AO2
14837KMSN MSN20060718014509307/18/06 01:45:31  5-MIN KMSN 180745Z 03006KT 10SM CLR 20/16 A3003 770 75 1600 030/06 RMK AO2
14837KMSN MSN20060718015011007/18/06 01:50:31  5-MIN KMSN 180750Z 03006KT 10SM CLR 20/16 A3003 770 75 1600 030/06 RMK AO2 SLP161 T02000156
14837KMSN MSN20060718015509307/18/06 01:55:31  5-MIN KMSN 180755Z 03006KT 10SM CLR 20/15 A3003 760 72 1600 030/06 RMK AO2
14837KMSN MSN20060718020009307/18/06 02:00:31  5-MIN KMSN 180800Z 02006KT 10SM CLR 19/15 A3003 760 75 1500 020/06 RMK AO2
14837KMSN MSN20060718020509307/18/06 02:05:31  5-MIN KMSN 180805Z 01006KT 10SM CLR 19/15 A3003 760 78 1400 010/06 RMK AO2
14837KMSN MSN20060718021009307/18/06 02:10:31  5-MIN KMSN 180810Z 01006KT 10SM CLR 19/15 A3003 760 78 1400 010/06 RMK AO2
14837KMSN MSN20060718021509307/18/06 02:15:31  5-MIN KMSN 180815Z 01006KT 10SM CLR 19/15 A3003 760 78 1400 360/06 RMK AO2
14837KMSN MSN20060718022009307/18/06 02:20:31  5-MIN KMSN 180820Z 36005KT 10SM CLR 19/15 A3003 760 78 1400 360/05 RMK AO2
14837KMSN MSN20060718022509307/18/06 02:25:31  5-MIN KMSN 180825Z 36004KT 10SM CLR 19/15 A3004 760 78 1400 360/04 RMK AO2
14837KMSN MSN20060718023009307/18/06 02:30:31  5-MIN KMSN 180830Z 01004KT 10SM CLR 18/15 A3004 760 81 1400 010/04 RMK AO2
14837KMSN MSN20060718023509307/18/06 02:35:31  5-MIN KMSN 180835Z 36004KT 10SM CLR 18/15 A3004 750 81 1400 360/04 RMK AO2
14837KMSN MSN20060718024009307/18/06 02:40:31  5-MIN KMSN 180840Z 01004KT 10SM CLR 18/15 A3004 750 81 1400 360/04 RMK AO2
14837KMSN MSN20060718024509307/18/06 02:45:31  5-MIN KMSN 180845Z 36004KT 10SM CLR 18/15 A3004 750 81 1400 360/04 RMK AO2
14837KMSN MSN20060718025011607/18/06 02:50:31  5-MIN KMSN 180850Z 36004KT 10SM CLR 18/14 A3004 750 78 1400 360/04 RMK AO2 SLP166 T01830144 53045
14837KMSN MSN20060718025509307/18/06 02:55:31  5-MIN KMSN 180855Z 36004KT 10SM CLR 18/14 A3004 750 78 1400 360/04 RMK AO2
14837KMSN MSN20060718030009307/18/06 03:00:31  5-MIN KMSN 180900Z 36005KT 10SM CLR 18/14 A3004 750 78 1400 360/05 RMK AO2
14837KMSN MSN20060718030509307/18/06 03:05:31  5-MIN KMSN 180905Z 36005KT 10SM CLR 18/14 A3004 750 78 1400 360/05 RMK AO2
14837KMSN MSN20060718031009307/18/06 03:10:31  5-MIN KMSN 180910Z 36005KT 10SM CLR 18/14 A3004 750 81 1300 360/05 RMK AO2
14837KMSN MSN20060718031509307/18/06 03:15:31  5-MIN KMSN 180915Z 35005KT 10SM CLR 18/14 A3005 750 81 1300 350/05 RMK AO2
14837KMSN MSN20060718032009307/18/06 03:20:31  5-MIN KMSN 180920Z 35005KT 10SM CLR 17/14 A3005 750 83 1200 350/05 RMK AO2
14837KMSN MSN20060718032509307/18/06 03:25:31  5-MIN KMSN 180925Z 36005KT 10SM CLR 17/14 A3005 740 83 1200 350/05 RMK AO2
14837KMSN MSN20060718033009307/18/06 03:30:31  5-MIN KMSN 180930Z 35005KT 10SM CLR 17/14 A3005 740 83 1200 350/05 RMK AO2
14837KMSN MSN20060718033509307/18/06 03:35:31  5-MIN KMSN 180935Z 35004KT 10SM CLR 18/14 A3005 740 81 1300 350/04 RMK AO2
14837KMSN MSN20060718034009307/18/06 03:40:31  5-MIN KMSN 180940Z 36004KT 10SM CLR 18/14 A3006 740 81 1300 350/04 RMK AO2
14837KMSN MSN20060718034509307/18/06 03:45:31  5-MIN KMSN 180945Z 35004KT 10SM CLR 18/14 A3006 740 81 1300 350/04 RMK AO2
14837KMSN MSN20060718035011007/18/06 03:50:31  5-MIN KMSN 180950Z 36004KT 10SM CLR 17/14 A3006 740 83 1200 350/04 RMK AO2 SLP172 T01720144
14837KMSN MSN20060718035509307/18/06 03:55:31  5-MIN KMSN 180955Z 36005KT 10SM CLR 17/14 A3006 740 83 1200 360/05 RMK AO2
14837KMSN MSN20060718040009307/18/06 04:00:31  5-MIN KMSN 181000Z 35005KT 10SM CLR 17/14 A3006 740 83 1200 350/05 RMK AO2
14837KMSN MSN20060718040509307/18/06 04:05:31  5-MIN KMSN 181005Z 35005KT 10SM CLR 17/14 A3006 740 83 1200 350/05 RMK AO2
14837KMSN MSN20060718041009307/18/06 04:10:31  5-MIN KMSN 181010Z 35005KT 10SM CLR 17/14 A3006 730 83 1200 350/05 RMK AO2
14837KMSN MSN20060718041509307/18/06 04:15:31  5-MIN KMSN 181015Z 35004KT 10SM CLR 17/14 A3006 730 83 1200 350/04 RMK AO2
14837KMSN MSN20060718042009307/18/06 04:20:31  5-MIN KMSN 181020Z 35004KT 10SM CLR 17/14 A3006 730 83 1200 350/04 RMK AO2
14837KMSN MSN20060718042509307/18/06 04:25:31  5-MIN KMSN 181025Z 35005KT 10SM CLR 17/14 A3006 730 86 1100 350/05 RMK AO2
14837KMSN MSN20060718043009307/18/06 04:30:31  5-MIN KMSN 181030Z 35004KT 10SM CLR 17/14 A3007 730 86 1100 350/04 RMK AO2
14837KMSN MSN20060718043509307/18/06 04:35:31  5-MIN KMSN 181035Z 35004KT 10SM CLR 17/14 A3007 730 86 1100 350/04 RMK AO2
14837KMSN MSN20060718044009307/18/06 04:40:31  5-MIN KMSN 181040Z 35005KT 10SM CLR 17/14 A3007 730 86 1100 340/05 RMK AO2
14837KMSN MSN20060718044509307/18/06 04:45:31  5-MIN KMSN 181045Z 34004KT 10SM CLR 17/14 A3007 730 83 1100 340/04 RMK AO2
14837KMSN MSN20060718045011007/18/06 04:50:31  5-MIN KMSN 181050Z 33003KT 10SM CLR 17/14 A3007 720 86 1100 330/03 RMK AO2 SLP178 T01670144
14837KMSN MSN20060718045509307/18/06 04:55:31  5-MIN KMSN 181055Z 00000KT 10SM CLR 16/14 A3007 720 90 1100 000/00 RMK AO2
14837KMSN MSN20060718050009307/18/06 05:00:31  5-MIN KMSN 181100Z 00000KT 10SM CLR 17/14 A3007 720 86 1100 000/00 RMK AO2
14837KMSN MSN20060718050509307/18/06 05:05:31  5-MIN KMSN 181105Z 00000KT 10SM CLR 17/14 A3008 720 86 1100 000/00 RMK AO2
14837KMSN MSN20060718051009907/18/06 05:10:31  5-MIN KMSN 181110Z 00000KT 10SM CLR 16/14 A3008 720 90 1100 000/00 RMK AO2 P0003
14837KMSN MSN20060718051509907/18/06 05:15:31  5-MIN KMSN 181115Z 00000KT 10SM CLR 17/14 A3008 720 86 1100 000/00 RMK AO2 P0003
14837KMSN MSN20060718052009907/18/06 05:20:31  5-MIN KMSN 181120Z 00000KT 10SM CLR 17/14 A3008 720 86 1100 000/00 RMK AO2 P0003
14837KMSN MSN20060718052509907/18/06 05:25:31  5-MIN KMSN 181125Z 00000KT 10SM CLR 17/14 A3008 720 83 1200 000/00 RMK AO2 P0003
14837KMSN MSN20060718053009907/18/06 05:30:31  5-MIN KMSN 181130Z 31003KT 10SM CLR 17/14 A3008 720 86 1100 310/03 RMK AO2 P0003
14837KMSN MSN20060718053509907/18/06 05:35:31  5-MIN KMSN 181135Z 00000KT 10SM CLR 17/14 A3008 720 83 1200 000/00 RMK AO2 P0003
14837KMSN MSN20060718054009907/18/06 05:40:31  5-MIN KMSN 181140Z 00000KT 10SM CLR 17/15 A3008 710 87 1200 000/00 RMK AO2 P0003
14837KMSN MSN20060718054509907/18/06 05:45:31  5-MIN KMSN 181145Z 00000KT 10SM CLR 18/15 A3009 710 83 1200 000/00 RMK AO2 P0003
14837KMSN MSN20060718055012807/18/06 05:50:31  5-MIN KMSN 181150Z 32003KT 10SM CLR 18/16 A3009 710 84 1300 320/03 RMK AO2 SLP183 T01830156 10233 20161 53012
14837KMSN MSN20060718055509307/18/06 05:55:31  5-MIN KMSN 181155Z 00000KT 10SM CLR 18/16 A3009 710 84 1300 000/00 RMK AO2
14837KMSN MSN20060718060009307/18/06 06:00:31  5-MIN KMSN 181200Z 00000KT 10SM CLR 19/16 A3009 710 81 1400 000/00 RMK AO2
14837KMSN MSN20060718060509307/18/06 06:05:31  5-MIN KMSN 181205Z 34003KT 10SM CLR 19/16 A3009 710 78 1400 340/03 RMK AO2
14837KMSN MSN20060718061009307/18/06 06:10:31  5-MIN KMSN 181210Z 00000KT 10SM CLR 19/16 A3009 700 78 1400 000/00 RMK AO2
14837KMSN MSN20060718061509307/18/06 06:15:31  5-MIN KMSN 181215Z 00000KT 10SM CLR 19/16 A3009 700 81 1400 000/00 RMK AO2
14837KMSN MSN20060718062009307/18/06 06:20:31  5-MIN KMSN 181220Z 35003KT 10SM CLR 20/16 A3009 700 78 1500 350/03 RMK AO2
14837KMSN MSN20060718062509307/18/06 06:25:31  5-MIN KMSN 181225Z 35003KT 10SM CLR 20/16 A3010 700 78 1500 350/03 RMK AO2
14837KMSN MSN20060718063009307/18/06 06:30:31  5-MIN KMSN 181230Z 00000KT 10SM CLR 20/16 A3009 700 78 1500 000/00 RMK AO2
14837KMSN MSN20060718063509307/18/06 06:35:31  5-MIN KMSN 181235Z 00000KT 10SM CLR 21/16 A3010 700 73 1600 000/00 RMK AO2
14837KMSN MSN20060718064009307/18/06 06:40:31  5-MIN KMSN 181240Z 00000KT 10SM CLR 21/16 A3010 700 75 1600 000/00 RMK AO2
14837KMSN MSN20060718064509307/18/06 06:45:31  5-MIN KMSN 181245Z 35003KT 10SM CLR 21/16 A3010 700 73 1600 350/03 RMK AO2
14837KMSN MSN20060718065011007/18/06 06:50:31  5-MIN KMSN 181250Z 35003KT 10SM CLR 21/16 A3010 700 73 1600 350/03 RMK AO2 SLP186 T02110161
14837KMSN MSN20060718065509307/18/06 06:55:31  5-MIN KMSN 181255Z 35003KT 10SM CLR 21/16 A3010 700 70 1600 350/03 RMK AO2
14837KMSN MSN20060718070009307/18/06 07:00:31  5-MIN KMSN 181300Z 35004KT 10SM CLR 21/16 A3010 700 73 1600 350/04 RMK AO2
14837KMSN MSN20060718070509307/18/06 07:05:31  5-MIN KMSN 181305Z 35004KT 10SM CLR 22/16 A3010 700 70 1700 350/04 RMK AO2
14837KMSN MSN20060718071009307/18/06 07:10:31  5-MIN KMSN 181310Z 34003KT 10SM CLR 22/16 A3010 700 70 1700 340/03 RMK AO2
14837KMSN MSN20060718071509307/18/06 07:15:31  5-MIN KMSN 181315Z 33003KT 10SM CLR 22/16 A3010 700 70 1700 320/03 RMK AO2
14837KMSN MSN20060718072009307/18/06 07:20:31  5-MIN KMSN 181320Z 35003KT 10SM CLR 22/16 A3010 690 68 1700 350/03 RMK AO2
14837KMSN MSN20060718072509307/18/06 07:25:31  5-MIN KMSN 181325Z 33004KT 10SM CLR 23/16 A3011 690 63 1800 330/04 RMK AO2
14837KMSN MSN20060718073009307/18/06 07:30:31  5-MIN KMSN 181330Z 34004KT 10SM CLR 23/16 A3011 690 65 1800 340/04 RMK AO2
14837KMSN MSN20060718073509307/18/06 07:35:31  5-MIN KMSN 181335Z VRB04KT 10SM CLR 23/16 A3011 690 65 1800 VRB/04 RMK AO2
14837KMSN MSN20060718074009307/18/06 07:40:31  5-MIN KMSN 181340Z 36004KT 10SM CLR 23/16 A3011 690 65 1800 360/04 RMK AO2
14837KMSN MSN20060718074509307/18/06 07:45:31  5-MIN KMSN 181345Z 36004KT 10SM CLR 23/16 A3011 690 63 1900 360/04 RMK AO2
14837KMSN MSN20060718075011007/18/06 07:50:31  5-MIN KMSN 181350Z 34004KT 10SM CLR 23/16 A3011 690 63 1900 340/04 RMK AO2 SLP189 T02330161
14837KMSN MSN20060718075509307/18/06 07:55:31  5-MIN KMSN 181355Z 01003KT 10SM CLR 23/16 A3011 690 63 1900 360/03 RMK AO2
14837KMSN MSN20060718080009307/18/06 08:00:31  5-MIN KMSN 181400Z 36004KT 10SM CLR 24/16 A3011 690 61 1900 360/04 RMK AO2
14837KMSN MSN20060718080509307/18/06 08:05:31  5-MIN KMSN 181405Z 36004KT 10SM CLR 24/16 A3011 690 61 1900 360/04 RMK AO2
14837KMSN MSN20060718081009307/18/06 08:10:31  5-MIN KMSN 181410Z 35004KT 10SM CLR 24/16 A3011 690 61 1900 350/04 RMK AO2
14837KMSN MSN20060718081509307/18/06 08:15:31  5-MIN KMSN 181415Z 36004KT 10SM CLR 24/16 A3011 690 59 2000 360/04 RMK AO2
14837KMSN MSN20060718082009307/18/06 08:20:31  5-MIN KMSN 181420Z 36004KT 10SM CLR 24/17 A3011 690 61 2000 360/04 RMK AO2
14837KMSN MSN20060718082509307/18/06 08:25:31  5-MIN KMSN 181425Z 36004KT 10SM CLR 24/16 A3011 680 59 2000 350/04 RMK AO2
14837KMSN MSN20060718083009307/18/06 08:30:31  5-MIN KMSN 181430Z 35005KT 10SM CLR 24/16 A3011 690 59 2000 350/05 RMK AO2
14837KMSN MSN20060718083509307/18/06 08:35:31  5-MIN KMSN 181435Z 03005KT 10SM CLR 25/16 A3011 690 55 2000 030/05 RMK AO2
14837KMSN MSN20060718084009307/18/06 08:40:31  5-MIN KMSN 181440Z 06005KT 10SM CLR 25/15 A3011 690 53 2000 060/05 RMK AO2
14837KMSN MSN20060718084509307/18/06 08:45:31  5-MIN KMSN 181445Z 03005KT 10SM CLR 26/16 A3011 680 53 2100 030/05 RMK AO2
14837KMSN MSN20060718085011607/18/06 08:50:31  5-MIN KMSN 181450Z 05005KT 10SM CLR 25/15 A3012 680 53 2000 050/05 RMK AO2 SLP192 T02500150 51015
14837KMSN MSN20060718085509307/18/06 08:55:31  5-MIN KMSN 181455Z 07004KT 10SM CLR 26/14 A3012 680 49 2100 070/04 RMK AO2
14837KMSN MSN20060718090009307/18/06 09:00:31  5-MIN KMSN 181500Z 05006KT 10SM CLR 26/15 A3012 680 51 2100 050/06 RMK AO2
14837KMSN MSN20060718090509307/18/06 09:05:31  5-MIN KMSN 181505Z 04006KT 10SM CLR 26/15 A3012 680 51 2100 040/06 RMK AO2
14837KMSN MSN20060718091009307/18/06 09:10:31  5-MIN KMSN 181510Z 05008KT 10SM CLR 26/15 A3012 680 50 2200 050/08 RMK AO2
14837KMSN MSN20060718091509307/18/06 09:15:31  5-MIN KMSN 181515Z 06006KT 10SM CLR 26/14 A3012 680 49 2100 060/06 RMK AO2
14837KMSN MSN20060718092009307/18/06 09:20:31  5-MIN KMSN 181520Z 04007KT 10SM CLR 26/15 A3012 680 50 2200 040/07 RMK AO2
14837KMSN MSN20060718092509307/18/06 09:25:31  5-MIN KMSN 181525Z 04008KT 10SM CLR 26/14 A3012 680 48 2200 030/08 RMK AO2
14837KMSN MSN20060718093009307/18/06 09:30:31  5-MIN KMSN 181530Z 05006KT 10SM CLR 26/14 A3012 680 48 2200 050/06 RMK AO2
14837KMSN MSN20060718093509307/18/06 09:35:31  5-MIN KMSN 181535Z 05009KT 10SM CLR 27/15 A3012 680 48 2200 050/09 RMK AO2
14837KMSN MSN20060718094009307/18/06 09:40:31  5-MIN KMSN 181540Z 04008KT 10SM CLR 26/14 A3012 680 48 2200 040/08 RMK AO2
14837KMSN MSN20060718094509307/18/06 09:45:31  5-MIN KMSN 181545Z 08008KT 10SM CLR 27/13 A3012 680 43 2200 080/08 RMK AO2
14837KMSN MSN20060718095011007/18/06 09:50:31  5-MIN KMSN 181550Z 07011KT 10SM CLR 27/13 A3012 680 41 2200 070/11 RMK AO2 SLP192 T02670128
14837KMSN MSN20060718095509307/18/06 09:55:31  5-MIN KMSN 181555Z 09008KT 10SM CLR 27/13 A3012 680 43 2200 090/08 RMK AO2
14837KMSN MSN20060718100009207/18/06 10:00:31  5-MIN KMSN 181600Z 08010KT 9SM CLR 27/13 A3012 680 41 2200 080/10 RMK AO2
14837KMSN MSN20060718100509207/18/06 10:05:31  5-MIN KMSN 181605Z 08012KT 8SM CLR 27/13 A3012 680 43 2200 080/12 RMK AO2
14837KMSN MSN20060718101009207/18/06 10:10:31  5-MIN KMSN 181610Z 09009KT 8SM CLR 27/13 A3012 680 43 2200 090/09 RMK AO2
14837KMSN MSN20060718101509207/18/06 10:15:31  5-MIN KMSN 181615Z 08009KT 8SM CLR 27/14 A3012 680 45 2200 080/09 RMK AO2
14837KMSN MSN20060718102009207/18/06 10:20:31  5-MIN KMSN 181620Z 10009KT 8SM CLR 27/14 A3012 680 45 2200 090/09 RMK AO2
14837KMSN MSN20060718102509207/18/06 10:25:31  5-MIN KMSN 181625Z 09010KT 7SM CLR 27/14 A3012 680 45 2200 090/10 RMK AO2
14837KMSN MSN20060718103009207/18/06 10:30:31  5-MIN KMSN 181630Z 09009KT 7SM CLR 27/14 A3013 670 45 2200 090/09 RMK AO2
14837KMSN MSN20060718103509207/18/06 10:35:31  5-MIN KMSN 181635Z 06009KT 8SM CLR 27/14 A3013 670 45 2200 060/09 RMK AO2
14837KMSN MSN20060718104009207/18/06 10:40:31  5-MIN KMSN 181640Z 09008KT 8SM CLR 27/13 A3013 670 43 2200 090/08 RMK AO2
14837KMSN MSN20060718104509507/18/06 10:45:31  5-MIN KMSN 181645Z 09010KT 6SM HZ CLR 27/13 A3013 670 41 2200 090/10 RMK AO2
14837KMSN MSN20060718105011207/18/06 10:50:31  5-MIN KMSN 181650Z 09009KT 6SM HZ CLR 27/14 A3013 670 45 2200 090/09 RMK AO2 SLP196 T02670139
14837KMSN MSN20060718105509207/18/06 10:55:31  5-MIN KMSN 181655Z 09010KT 7SM CLR 27/14 A3013 670 45 2200 090/10 RMK AO2
14837KMSN MSN20060718110009207/18/06 11:00:31  5-MIN KMSN 181700Z 09010KT 7SM CLR 27/14 A3013 670 45 2200 090/10 RMK AO2
14837KMSN MSN20060718110509507/18/06 11:05:31  5-MIN KMSN 181705Z 08010KT 6SM HZ CLR 27/13 A3013 670 43 2200 080/10 RMK AO2
14837KMSN MSN20060718111009507/18/06 11:10:31  5-MIN KMSN 181710Z 08011KT 6SM HZ CLR 27/13 A3013 670 43 2200 080/11 RMK AO2
14837KMSN MSN20060718111509507/18/06 11:15:31  5-MIN KMSN 181715Z 10008KT 6SM HZ CLR 27/13 A3013 670 43 2200 100/08 RMK AO2
14837KMSN MSN20060718112009207/18/06 11:20:31  5-MIN KMSN 181720Z 10009KT 7SM CLR 27/14 A3013 670 45 2200 100/09 RMK AO2
14837KMSN MSN20060718112509207/18/06 11:25:31  5-MIN KMSN 181725Z 07011KT 7SM CLR 27/14 A3013 670 45 2300 070/11 RMK AO2
14837KMSN MSN20060718113009507/18/06 11:30:31  5-MIN KMSN 181730Z 08006KT 6SM HZ CLR 27/14 A3013 670 43 2300 080/06 RMK AO2
14837KMSN MSN20060718113509207/18/06 11:35:31  5-MIN KMSN 181735Z 10011KT 7SM CLR 27/14 A3013 670 45 2300 100/11 RMK AO2
14837KMSN MSN20060718114009207/18/06 11:40:31  5-MIN KMSN 181740Z 09007KT 7SM CLR 27/14 A3013 670 46 2200 090/07 RMK AO2
14837KMSN MSN20060718114509207/18/06 11:45:31  5-MIN KMSN 181745Z 07009KT 7SM CLR 28/15 A3013 670 45 2300 070/09 RMK AO2
14837KMSN MSN20060718115012707/18/06 11:50:31  5-MIN KMSN 181750Z 07008KT 7SM CLR 28/15 A3013 670 45 2300 070/08 RMK AO2 SLP198 T02780150 10278 20183 51010
14837KMSN MSN20060718115509507/18/06 11:55:31  5-MIN KMSN 181755Z 08008KT 6SM HZ CLR 27/14 A3013 670 43 2300 080/08 RMK AO2
14837KMSN MSN20060718120009507/18/06 12:00:31  5-MIN KMSN 181800Z 08008KT 6SM HZ CLR 27/14 A3013 670 45 2300 080/08 RMK AO2
14837KMSN MSN20060718120509507/18/06 12:05:31  5-MIN KMSN 181805Z 10009KT 5SM HZ CLR 27/14 A3013 670 45 2200 100/09 RMK AO2
14837KMSN MSN20060718121009507/18/06 12:10:31  5-MIN KMSN 181810Z 08008KT 5SM HZ CLR 27/15 A3013 670 46 2300 080/08 RMK AO2
14837KMSN MSN20060718121509507/18/06 12:15:31  5-MIN KMSN 181815Z 08010KT 5SM HZ CLR 27/14 A3013 670 45 2300 080/10 RMK AO2
14837KMSN MSN20060718122009507/18/06 12:20:31  5-MIN KMSN 181820Z 09009KT 5SM HZ CLR 27/14 A3013 670 43 2300 090/09 RMK AO2
14837KMSN MSN20060718122509507/18/06 12:25:31  5-MIN KMSN 181825Z 09010KT 4SM HZ CLR 27/14 A3013 670 45 2300 090/10 RMK AO2
14837KMSN MSN20060718123009507/18/06 12:30:31  5-MIN KMSN 181830Z 08010KT 5SM HZ CLR 27/14 A3013 670 43 2300 080/10 RMK AO2
14837KMSN MSN20060718123509507/18/06 12:35:31  5-MIN KMSN 181835Z 09009KT 5SM HZ CLR 27/15 A3013 670 46 2300 090/09 RMK AO2
14837KMSN MSN20060718124009507/18/06 12:40:31  5-MIN KMSN 181840Z 08006KT 5SM HZ CLR 27/14 A3013 670 45 2200 080/06 RMK AO2
14837KMSN MSN20060718124509507/18/06 12:45:31  5-MIN KMSN 181845Z 09011KT 5SM HZ CLR 27/14 A3013 670 45 2300 090/11 RMK AO2
14837KMSN MSN20060718125011207/18/06 12:50:31  5-MIN KMSN 181850Z 08009KT 5SM HZ CLR 27/14 A3013 670 45 2300 080/09 RMK AO2 SLP197 T02720144
14837KMSN MSN20060718125511107/18/06 12:55:31  5-MIN KMSN 181855Z 05008KT 020V100 5SM HZ CLR 27/15 A3013 670 46 2300 050/08 020V100 RMK AO2
14837KMSN MSN20060718130010107/18/06 13:00:31  5-MIN KMSN 181900Z 08010G16KT 5SM HZ CLR 28/15 A3013 670 45 2300 080/10G16 RMK AO2
14837KMSN MSN20060718130510107/18/06 13:05:31  5-MIN KMSN 181905Z 07008G16KT 4SM HZ CLR 28/14 A3012 680 43 2300 070/08G16 RMK AO2
14837KMSN MSN20060718131009507/18/06 13:10:31  5-MIN KMSN 181910Z 07008KT 4SM HZ CLR 27/14 A3012 680 45 2300 070/08 RMK AO2
14837KMSN MSN20060718131509507/18/06 13:15:31  5-MIN KMSN 181915Z 08011KT 5SM HZ CLR 27/15 A3012 680 46 2300 080/11 RMK AO2
14837KMSN MSN20060718132009507/18/06 13:20:31  5-MIN KMSN 181920Z 09010KT 5SM HZ CLR 27/14 A3012 680 45 2300 090/10 RMK AO2
14837KMSN MSN20060718132509507/18/06 13:25:31  5-MIN KMSN 181925Z 08009KT 4SM HZ CLR 27/14 A3012 680 45 2300 070/09 RMK AO2
14837KMSN MSN20060718133009507/18/06 13:30:31  5-MIN KMSN 181930Z 08008KT 4SM HZ CLR 27/14 A3012 680 45 2300 080/08 RMK AO2
14837KMSN MSN20060718133509507/18/06 13:35:31  5-MIN KMSN 181935Z 09008KT 4SM HZ CLR 27/14 A3012 680 45 2300 090/08 RMK AO2
14837KMSN MSN20060718134009507/18/06 13:40:31  5-MIN KMSN 181940Z 08010KT 5SM HZ CLR 27/15 A3012 680 46 2300 080/10 RMK AO2
14837KMSN MSN20060718134509507/18/06 13:45:31  5-MIN KMSN 181945Z 05010KT 5SM HZ CLR 27/14 A3011 680 45 2300 050/10 RMK AO2
14837KMSN MSN20060718135011207/18/06 13:50:31  5-MIN KMSN 181950Z 07008KT 5SM HZ CLR 27/14 A3011 690 45 2300 070/08 RMK AO2 SLP192 T02720144
14837KMSN MSN20060718135509507/18/06 13:55:31  5-MIN KMSN 181955Z 08010KT 5SM HZ CLR 28/14 A3011 690 43 2400 080/10 RMK AO2
14837KMSN MSN20060718140009507/18/06 14:00:31  5-MIN KMSN 182000Z 06009KT 5SM HZ CLR 27/14 A3011 690 45 2300 060/09 RMK AO2
14837KMSN MSN20060718140509507/18/06 14:05:31  5-MIN KMSN 182005Z 09008KT 5SM HZ CLR 28/14 A3011 690 43 2400 090/08 RMK AO2
14837KMSN MSN20060718141009507/18/06 14:10:31  5-MIN KMSN 182010Z 07010KT 5SM HZ CLR 28/15 A3011 690 45 2400 070/10 RMK AO2
14837KMSN MSN20060718141509507/18/06 14:15:31  5-MIN KMSN 182015Z 09009KT 5SM HZ CLR 27/14 A3011 690 45 2300 090/09 RMK AO2
14837KMSN MSN20060718142009507/18/06 14:20:31  5-MIN KMSN 182020Z 08008KT 5SM HZ CLR 27/15 A3011 690 46 2300 080/08 RMK AO2
14837KMSN MSN20060718142509507/18/06 14:25:31  5-MIN KMSN 182025Z 09007KT 5SM HZ CLR 27/14 A3011 690 45 2300 090/07 RMK AO2
14837KMSN MSN20060718143009507/18/06 14:30:31  5-MIN KMSN 182030Z 08010KT 5SM HZ CLR 28/15 A3011 690 45 2400 070/10 RMK AO2
14837KMSN MSN20060718143509507/18/06 14:35:31  5-MIN KMSN 182035Z 08006KT 5SM HZ CLR 27/15 A3011 690 46 2300 070/06 RMK AO2
14837KMSN MSN20060718144009507/18/06 14:40:31  5-MIN KMSN 182040Z 06009KT 5SM HZ CLR 28/15 A3011 690 45 2400 060/09 RMK AO2
14837KMSN MSN20060718144509507/18/06 14:45:31  5-MIN KMSN 182045Z VRB04KT 5SM HZ CLR 28/14 A3011 690 43 2400 VRB/04 RMK AO2
14837KMSN MSN20060718145011807/18/06 14:50:31  5-MIN KMSN 182050Z 07006KT 6SM HZ CLR 28/14 A3011 690 43 2400 060/06 RMK AO2 SLP191 T02780144 53003
14837KMSN MSN20060718145509507/18/06 14:55:31  5-MIN KMSN 182055Z 08010KT 5SM HZ CLR 28/15 A3011 690 45 2400 080/10 RMK AO2
14837KMSN MSN20060718150009507/18/06 15:00:31  5-MIN KMSN 182100Z 08007KT 5SM HZ CLR 28/15 A3011 690 45 2400 080/07 RMK AO2
14837KMSN MSN20060718150509507/18/06 15:05:31  5-MIN KMSN 182105Z 09006KT 6SM HZ CLR 27/14 A3011 690 45 2300 090/06 RMK AO2
14837KMSN MSN20060718151009507/18/06 15:10:31  5-MIN KMSN 182110Z 03006KT 6SM HZ CLR 28/15 A3011 690 45 2400 030/06 RMK AO2
14837KMSN MSN20060718151509507/18/06 15:15:31  5-MIN KMSN 182115Z 03004KT 6SM HZ CLR 28/14 A3011 680 42 2300 030/04 RMK AO2
14837KMSN MSN20060718152009507/18/06 15:20:31  5-MIN KMSN 182120Z 05007KT 6SM HZ CLR 28/15 A3012 680 43 2400 050/07 RMK AO2
14837KMSN MSN20060718152509507/18/06 15:25:31  5-MIN KMSN 182125Z 07008KT 6SM HZ CLR 28/15 A3011 690 45 2400 070/08 RMK AO2
14837KMSN MSN20060718153009507/18/06 15:30:31  5-MIN KMSN 182130Z 05008KT 6SM HZ CLR 28/15 A3011 690 45 2400 050/08 RMK AO2
14837KMSN MSN20060718153509207/18/06 15:35:31  5-MIN KMSN 182135Z 05007KT 7SM CLR 28/15 A3011 690 43 2400 050/07 RMK AO2
14837KMSN MSN20060718154009207/18/06 15:40:31  5-MIN KMSN 182140Z VRB06KT 7SM CLR 28/15 A3011 690 43 2400 VRB/06 RMK AO2
14837KMSN MSN20060718154509207/18/06 15:45:31  5-MIN KMSN 182145Z 05007KT 7SM CLR 28/15 A3011 690 45 2400 050/07 RMK AO2
14837KMSN MSN20060718155010907/18/06 15:50:31  5-MIN KMSN 182150Z 05007KT 7SM CLR 28/14 A3011 690 43 2400 050/07 RMK AO2 SLP192 T02780144
14837KMSN MSN20060718155509207/18/06 15:55:31  5-MIN KMSN 182155Z 05007KT 7SM CLR 28/14 A3011 690 43 2400 050/07 RMK AO2
14837KMSN MSN20060718160009207/18/06 16:00:31  5-MIN KMSN 182200Z 08008KT 7SM CLR 28/15 A3011 690 45 2400 080/08 RMK AO2
14837KMSN MSN20060718160509207/18/06 16:05:31  5-MIN KMSN 182205Z 11006KT 7SM CLR 27/14 A3011 690 45 2300 110/06 RMK AO2
14837KMSN MSN20060718161009207/18/06 16:10:31  5-MIN KMSN 182210Z 10006KT 7SM CLR 27/14 A3010 700 45 2300 100/06 RMK AO2
14837KMSN MSN20060718161509207/18/06 16:15:31  5-MIN KMSN 182215Z 08009KT 7SM CLR 28/15 A3010 700 45 2400 080/09 RMK AO2
14837KMSN MSN20060718162009207/18/06 16:20:31  5-MIN KMSN 182220Z 08008KT 7SM CLR 27/15 A3010 700 46 2300 070/08 RMK AO2
14837KMSN MSN20060718162509207/18/06 16:25:31  5-MIN KMSN 182225Z 09005KT 8SM CLR 27/14 A3010 700 45 2300 090/05 RMK AO2
14837KMSN MSN20060718163009207/18/06 16:30:31  5-MIN KMSN 182230Z 07008KT 8SM CLR 27/14 A3010 700 45 2300 070/08 RMK AO2
14837KMSN MSN20060718163509207/18/06 16:35:31  5-MIN KMSN 182235Z 08008KT 8SM CLR 27/14 A3010 700 45 2300 080/08 RMK AO2
14837KMSN MSN20060718164009207/18/06 16:40:31  5-MIN KMSN 182240Z 07008KT 8SM CLR 27/14 A3010 700 45 2300 070/08 RMK AO2
14837KMSN MSN20060718164509207/18/06 16:45:31  5-MIN KMSN 182245Z 06007KT 8SM CLR 27/14 A3009 710 43 2300 060/07 RMK AO2
14837KMSN MSN20060718165010907/18/06 16:50:31  5-MIN KMSN 182250Z 07007KT 8SM CLR 27/14 A3009 710 45 2300 070/07 RMK AO2 SLP186 T02720144
14837KMSN MSN20060718165509207/18/06 16:55:31  5-MIN KMSN 182255Z 10008KT 8SM CLR 27/14 A3009 710 45 2300 100/08 RMK AO2
14837KMSN MSN20060718170009207/18/06 17:00:31  5-MIN KMSN 182300Z 08007KT 8SM CLR 27/14 A3009 710 46 2300 080/07 RMK AO2
14837KMSN MSN20060718170509207/18/06 17:05:31  5-MIN KMSN 182305Z VRB04KT 8SM CLR 27/14 A3009 710 46 2300 VRB/04 RMK AO2
14837KMSN MSN20060718171009207/18/06 17:10:31  5-MIN KMSN 182310Z 08007KT 8SM CLR 27/14 A3009 710 46 2300 070/07 RMK AO2
14837KMSN MSN20060718171509207/18/06 17:15:31  5-MIN KMSN 182315Z 07007KT 9SM CLR 26/15 A3009 710 50 2200 070/07 RMK AO2
14837KMSN MSN20060718172009207/18/06 17:20:31  5-MIN KMSN 182320Z 06007KT 9SM CLR 27/15 A3010 700 48 2200 060/07 RMK AO2
14837KMSN MSN20060718172509207/18/06 17:25:31  5-MIN KMSN 182325Z 08005KT 9SM CLR 27/15 A3010 700 48 2200 080/05 RMK AO2
14837KMSN MSN20060718173009207/18/06 17:30:31  5-MIN KMSN 182330Z 07005KT 9SM CLR 27/16 A3010 700 50 2200 070/05 RMK AO2
14837KMSN MSN20060718173509207/18/06 17:35:31  5-MIN KMSN 182335Z 07006KT 9SM CLR 26/15 A3010 700 51 2100 070/06 RMK AO2
14837KMSN MSN20060718174009207/18/06 17:40:31  5-MIN KMSN 182340Z 06006KT 9SM CLR 26/16 A3010 700 53 2100 060/06 RMK AO2
14837KMSN MSN20060718174509307/18/06 17:45:31  5-MIN KMSN 182345Z 06007KT 10SM CLR 26/16 A3010 700 53 2100 050/07 RMK AO2
14837KMSN MSN20060718175012807/18/06 17:50:31  5-MIN KMSN 182350Z 07007KT 10SM CLR 26/16 A3009 710 51 2200 060/07 RMK AO2 SLP186 T02610156 10283 20256 57006
14837KMSN MSN20060718175509307/18/06 17:55:31  5-MIN KMSN 182355Z 07007KT 10SM CLR 27/15 A3009 710 48 2300 070/07 RMK AO2
14837KMSN MSN20060718180009307/18/06 18:00:31  5-MIN KMSN 190000Z 08006KT 10SM CLR 27/16 A3009 710 50 2300 080/06 RMK AO2
14837KMSN MSN20060718180509307/18/06 18:05:31  5-MIN KMSN 190005Z 07006KT 10SM CLR 27/16 A3009 700 50 2200 070/06 RMK AO2
14837KMSN MSN20060718181009307/18/06 18:10:31  5-MIN KMSN 190010Z 08007KT 10SM CLR 26/16 A3009 710 51 2200 080/07 RMK AO2
14837KMSN MSN20060718181509307/18/06 18:15:31  5-MIN KMSN 190015Z 09008KT 10SM CLR 26/15 A3009 710 50 2200 090/08 RMK AO2
14837KMSN MSN20060718182009307/18/06 18:20:31  5-MIN KMSN 190020Z 10006KT 10SM CLR 26/14 A3009 710 48 2200 100/06 RMK AO2
14837KMSN MSN20060718182509307/18/06 18:25:31  5-MIN KMSN 190025Z 10007KT 10SM CLR 26/15 A3009 710 51 2100 100/07 RMK AO2
14837KMSN MSN20060718183009307/18/06 18:30:31  5-MIN KMSN 190030Z 11008KT 10SM CLR 25/15 A3009 710 53 2100 100/08 RMK AO2
14837KMSN MSN20060718183509307/18/06 18:35:31  5-MIN KMSN 190035Z 11009KT 10SM CLR 25/15 A3009 710 53 2100 110/09 RMK AO2
14837KMSN MSN20060718184009307/18/06 18:40:31  5-MIN KMSN 190040Z 11009KT 10SM CLR 24/14 A3009 710 53 2000 110/09 RMK AO2
14837KMSN MSN20060718184509307/18/06 18:45:31  5-MIN KMSN 190045Z 12009KT 10SM CLR 24/14 A3009 710 51 2000 120/09 RMK AO2
14837KMSN MSN20060718185011007/18/06 18:50:31  5-MIN KMSN 190050Z 12009KT 10SM CLR 24/14 A3009 710 51 2000 120/09 RMK AO2 SLP184 T02440139
14837KMSN MSN20060718185509307/18/06 18:55:31  5-MIN KMSN 190055Z 11008KT 10SM CLR 24/14 A3009 710 51 2000 110/08 RMK AO2
14837KMSN MSN20060718190009307/18/06 19:00:31  5-MIN KMSN 190100Z 10007KT 10SM CLR 24/14 A3009 710 55 1900 100/07 RMK AO2
14837KMSN MSN20060718190509307/18/06 19:05:31  5-MIN KMSN 190105Z 10009KT 10SM CLR 23/15 A3009 710 59 1900 100/09 RMK AO2
14837KMSN MSN20060718191009307/18/06 19:10:31  5-MIN KMSN 190110Z 11010KT 10SM CLR 23/15 A3009 710 59 1900 110/10 RMK AO2
14837KMSN MSN20060718191509307/18/06 19:15:31  5-MIN KMSN 190115Z 11009KT 10SM CLR 24/14 A3009 710 55 1900 110/09 RMK AO2
14837KMSN MSN20060718192009307/18/06 19:20:31  5-MIN KMSN 190120Z 11008KT 10SM CLR 23/14 A3010 700 57 1900 100/08 RMK AO2
14837KMSN MSN20060718192509307/18/06 19:25:31  5-MIN KMSN 190125Z 11008KT 10SM CLR 23/14 A3010 700 57 1900 110/08 RMK AO2
14837KMSN MSN20060718193009307/18/06 19:30:31  5-MIN KMSN 190130Z 10008KT 10SM CLR 23/14 A3009 710 59 1800 100/08 RMK AO2
14837KMSN MSN20060718193509307/18/06 19:35:31  5-MIN KMSN 190135Z 11008KT 10SM CLR 23/14 A3009 710 59 1800 110/08 RMK AO2
14837KMSN MSN20060718194009307/18/06 19:40:31  5-MIN KMSN 190140Z 11009KT 10SM CLR 23/14 A3008 710 59 1800 110/09 RMK AO2
14837KMSN MSN20060718194509307/18/06 19:45:31  5-MIN KMSN 190145Z 10010KT 10SM CLR 23/14 A3009 710 57 1800 100/10 RMK AO2
14837KMSN MSN20060718195011007/18/06 19:50:31  5-MIN KMSN 190150Z 11010KT 10SM CLR 22/13 A3009 710 56 1800 110/10 RMK AO2 SLP184 T02220133
14837KMSN MSN20060718195509307/18/06 19:55:31  5-MIN KMSN 190155Z 11009KT 10SM CLR 22/13 A3009 710 56 1700 110/09 RMK AO2
14837KMSN MSN20060718200009307/18/06 20:00:31  5-MIN KMSN 190200Z 11008KT 10SM CLR 22/13 A3009 710 56 1700 110/08 RMK AO2
14837KMSN MSN20060718200509307/18/06 20:05:31  5-MIN KMSN 190205Z 12008KT 10SM CLR 22/13 A3009 710 56 1700 120/08 RMK AO2
14837KMSN MSN20060718201009307/18/06 20:10:31  5-MIN KMSN 190210Z 13009KT 10SM CLR 21/13 A3008 720 58 1600 130/09 RMK AO2
14837KMSN MSN20060718201509307/18/06 20:15:31  5-MIN KMSN 190215Z 13008KT 10SM CLR 22/12 A3009 710 54 1700 130/08 RMK AO2
14837KMSN MSN20060718202009307/18/06 20:20:31  5-MIN KMSN 190220Z 12007KT 10SM CLR 22/12 A3009 700 54 1700 120/07 RMK AO2
14837KMSN MSN20060718202509607/18/06 20:25:31  5-MIN KMSN 190225Z 11007KT 10SM FEW032 21/12 A3010 700 58 1600 110/07 RMK AO2
14837KMSN MSN20060718203009607/18/06 20:30:31  5-MIN KMSN 190230Z 12008KT 10SM FEW032 21/12 A3009 700 58 1600 120/08 RMK AO2
14837KMSN MSN20060718203509607/18/06 20:35:31  5-MIN KMSN 190235Z 12007KT 10SM FEW032 20/12 A3010 700 60 1500 120/07 RMK AO2
14837KMSN MSN20060718204009607/18/06 20:40:31  5-MIN KMSN 190240Z 12008KT 10SM FEW032 20/12 A3010 700 60 1500 120/08 RMK AO2
14837KMSN MSN20060718204509607/18/06 20:45:31  5-MIN KMSN 190245Z 12007KT 10SM FEW032 21/12 A3010 700 56 1500 120/07 RMK AO2
14837KMSN MSN20060718205011607/18/06 20:50:31  5-MIN KMSN 190250Z 13008KT 10SM CLR 20/12 A3009 700 58 1500 120/08 RMK AO2 SLP186 T02000117 57007
14837KMSN MSN20060718205509307/18/06 20:55:31  5-MIN KMSN 190255Z 13006KT 10SM CLR 20/12 A3010 700 58 1500 130/06 RMK AO2
14837KMSN MSN20060718210009307/18/06 21:00:31  5-MIN KMSN 190300Z 12006KT 10SM CLR 20/12 A3010 700 58 1500 120/06 RMK AO2
14837KMSN MSN20060718210509307/18/06 21:05:31  5-MIN KMSN 190305Z 11006KT 10SM CLR 20/12 A3011 690 58 1500 100/06 RMK AO2
14837KMSN MSN20060718211009307/18/06 21:10:31  5-MIN KMSN 190310Z 09005KT 10SM CLR 20/12 A3011 690 58 1500 090/05 RMK AO2
14837KMSN MSN20060718211509307/18/06 21:15:31  5-MIN KMSN 190315Z 05003KT 10SM CLR 19/12 A3011 690 60 1400 050/03 RMK AO2
14837KMSN MSN20060718212009307/18/06 21:20:31  5-MIN KMSN 190320Z 00000KT 10SM CLR 19/12 A3012 680 65 1300 000/00 RMK AO2
14837KMSN MSN20060718212509307/18/06 21:25:31  5-MIN KMSN 190325Z 00000KT 10SM CLR 19/12 A3012 680 62 1300 000/00 RMK AO2
14837KMSN MSN20060718213009307/18/06 21:30:31  5-MIN KMSN 190330Z 00000KT 10SM CLR 18/12 A3013 670 67 1200 000/00 RMK AO2
14837KMSN MSN20060718213509307/18/06 21:35:31  5-MIN KMSN 190335Z 00000KT 10SM CLR 17/12 A3013 670 69 1100 000/00 RMK AO2
14837KMSN MSN20060718214009307/18/06 21:40:31  5-MIN KMSN 190340Z 00000KT 10SM CLR 18/12 A3013 670 67 1200 000/00 RMK AO2
14837KMSN MSN20060718214509307/18/06 21:45:31  5-MIN KMSN 190345Z 00000KT 10SM CLR 18/12 A3013 670 69 1200 000/00 RMK AO2
14837KMSN MSN20060718215011007/18/06 21:50:31  5-MIN KMSN 190350Z 00000KT 10SM CLR 18/13 A3013 670 72 1200 000/00 RMK AO2 SLP199 T01780128
14837KMSN MSN20060718215509307/18/06 21:55:31  5-MIN KMSN 190355Z 00000KT 10SM CLR 18/13 A3013 670 72 1200 000/00 RMK AO2
14837KMSN MSN20060718220009307/18/06 22:00:31  5-MIN KMSN 190400Z 00000KT 10SM CLR 17/13 A3013 670 75 1100 000/00 RMK AO2
14837KMSN MSN20060718220509307/18/06 22:05:31  5-MIN KMSN 190405Z 00000KT 10SM CLR 17/12 A3013 670 69 1100 000/00 RMK AO2
14837KMSN MSN20060718221009307/18/06 22:10:31  5-MIN KMSN 190410Z 00000KT 10SM CLR 18/12 A3013 680 69 1200 000/00 RMK AO2
14837KMSN MSN20060718221509307/18/06 22:15:31  5-MIN KMSN 190415Z 00000KT 10SM CLR 17/12 A3013 670 72 1100 000/00 RMK AO2
14837KMSN MSN20060718222009307/18/06 22:20:31  5-MIN KMSN 190420Z 00000KT 10SM CLR 17/12 A3012 680 72 1100 000/00 RMK AO2
14837KMSN MSN20060718222509307/18/06 22:25:31  5-MIN KMSN 190425Z 00000KT 10SM CLR 17/13 A3012 680 75 1100 000/00 RMK AO2
14837KMSN MSN20060718223009307/18/06 22:30:31  5-MIN KMSN 190430Z 00000KT 10SM CLR 17/13 A3013 670 77 1100 000/00 RMK AO2
14837KMSN MSN20060718223509307/18/06 22:35:31  5-MIN KMSN 190435Z 00000KT 10SM CLR 16/13 A3013 670 80 1000 000/00 RMK AO2
14837KMSN MSN20060718224009307/18/06 22:40:31  5-MIN KMSN 190440Z 00000KT 10SM CLR 16/13 A3013 670 80 1000 000/00 RMK AO2
14837KMSN MSN20060718224509307/18/06 22:45:31  5-MIN KMSN 190445Z 00000KT 10SM CLR 16/13 A3013 670 80 1000 000/00 RMK AO2
14837KMSN MSN20060718225011007/18/06 22:50:31  5-MIN KMSN 190450Z 00000KT 10SM CLR 17/13 A3013 670 80 1100 000/00 RMK AO2 SLP197 T01670133
14837KMSN MSN20060718225509307/18/06 22:55:31  5-MIN KMSN 190455Z 00000KT 10SM CLR 16/13 A3013 670 83 1000 000/00 RMK AO2
14837KMSN MSN20060718230009307/18/06 23:00:31  5-MIN KMSN 190500Z 00000KT 10SM CLR 16/13 A3013 680 83 1000 000/00 RMK AO2
14837KMSN MSN20060718230509307/18/06 23:05:31  5-MIN KMSN 190505Z 00000KT 10SM CLR 16/14 A3013 670 86 1000 000/00 RMK AO2
14837KMSN MSN20060718231009207/18/06 23:10:31  5-MIN KMSN 190510Z 00000KT 10SM CLR 16/13 A3013 670 86 900 000/00 RMK AO2
14837KMSN MSN20060718231509207/18/06 23:15:31  5-MIN KMSN 190515Z 00000KT 10SM CLR 16/13 A3013 670 86 900 000/00 RMK AO2
14837KMSN MSN20060718232009207/18/06 23:20:31  5-MIN KMSN 190520Z 00000KT 10SM CLR 16/13 A3013 670 86 900 000/00 RMK AO2
14837KMSN MSN20060718232509307/18/06 23:25:31  5-MIN KMSN 190525Z 00000KT 10SM CLR 16/13 A3013 670 80 1000 000/00 RMK AO2
14837KMSN MSN20060718233009307/18/06 23:30:31  5-MIN KMSN 190530Z 00000KT 10SM CLR 17/13 A3012 680 77 1100 000/00 RMK AO2
14837KMSN MSN20060718233509307/18/06 23:35:31  5-MIN KMSN 190535Z 14003KT 10SM CLR 17/13 A3012 680 77 1100 140/03 RMK AO2
14837KMSN MSN20060718234009307/18/06 23:40:31  5-MIN KMSN 190540Z 16004KT 10SM CLR 17/13 A3012 680 77 1100 160/04 RMK AO2
14837KMSN MSN20060718234509307/18/06 23:45:31  5-MIN KMSN 190545Z 16005KT 10SM CLR 18/12 A3012 680 69 1200 160/05 RMK AO2
14837KMSN MSN20060718235013807/18/06 23:50:31  5-MIN KMSN 190550Z 16005KT 10SM CLR 17/11 A3012 680 67 1100 160/05 RMK AO2 SLP193 T01720111 10267 20156 402830156 53002
14837KMSN MSN20060718235509307/18/06 23:55:31  5-MIN KMSN 190555Z 16005KT 10SM CLR 18/11 A3011 690 64 1200 160/05 RMK AO2
14837KMSN MSN20060719000009307/19/06 00:00:38  5-MIN KMSN 190600Z 18004KT 10SM CLR 18/11 A3011 690 64 1200 170/04 RMK AO2
14837KMSN MSN20060719000509307/19/06 00:05:31  5-MIN KMSN 190605Z 16003KT 10SM CLR 17/12 A3011 690 69 1100 160/03 RMK AO2
14837KMSN MSN20060719001009307/19/06 00:10:31  5-MIN KMSN 190610Z 17004KT 10SM CLR 17/11 A3011 690 67 1200 160/04 RMK AO2
14837KMSN MSN20060719001509307/19/06 00:15:31  5-MIN KMSN 190615Z 16004KT 10SM CLR 18/11 A3011 690 64 1200 160/04 RMK AO2
14837KMSN MSN20060719002009307/19/06 00:20:31  5-MIN KMSN 190620Z 00000KT 10SM CLR 17/11 A3011 690 69 1100 000/00 RMK AO2
14837KMSN MSN20060719002509207/19/06 00:25:31  5-MIN KMSN 190625Z 00000KT 10SM CLR 15/11 A3011 690 77 900 000/00 RMK AO2
14837KMSN MSN20060719003009207/19/06 00:30:31  5-MIN KMSN 190630Z 00000KT 10SM CLR 15/12 A3011 690 83 900 000/00 RMK AO2
14837KMSN MSN20060719003509207/19/06 00:35:31  5-MIN KMSN 190635Z 00000KT 10SM CLR 14/12 A3011 690 83 800 000/00 RMK AO2
14837KMSN MSN20060719004009207/19/06 00:40:31  5-MIN KMSN 190640Z 00000KT 10SM CLR 15/12 A3011 690 83 900 000/00 RMK AO2
14837KMSN MSN20060719004509307/19/06 00:45:31  5-MIN KMSN 190645Z 00000KT 10SM CLR 16/12 A3011 690 75 1000 000/00 RMK AO2
14837KMSN MSN20060719005011007/19/06 00:50:31  5-MIN KMSN 190650Z 00000KT 10SM CLR 16/12 A3011 690 77 1000 000/00 RMK AO2 SLP193 T01560117
14837KMSN MSN20060719005509207/19/06 00:55:31  5-MIN KMSN 190655Z 00000KT 10SM CLR 15/12 A3011 690 80 900 000/00 RMK AO2
14837KMSN MSN20060719010009307/19/06 01:00:31  5-MIN KMSN 190700Z 00000KT 10SM CLR 16/12 A3011 690 75 1000 000/00 RMK AO2
14837KMSN MSN20060719010509307/19/06 01:05:31  5-MIN KMSN 190705Z 00000KT 10SM CLR 16/12 A3010 690 75 1000 000/00 RMK AO2
14837KMSN MSN20060719011009307/19/06 01:10:31  5-MIN KMSN 190710Z 00000KT 10SM CLR 16/11 A3010 700 72 1000 000/00 RMK AO2
14837KMSN MSN20060719011509307/19/06 01:15:31  5-MIN KMSN 190715Z 00000KT 10SM CLR 16/11 A3010 700 74 1000 000/00 RMK AO2
14837KMSN MSN20060719012009207/19/06 01:20:31  5-MIN KMSN 190720Z 00000KT 10SM CLR 15/11 A3010 700 77 900 000/00 RMK AO2
14837KMSN MSN20060719012509207/19/06 01:25:31  5-MIN KMSN 190725Z 00000KT 10SM CLR 15/11 A3010 700 77 900 000/00 RMK AO2
14837KMSN MSN20060719013009207/19/06 01:30:31  5-MIN KMSN 190730Z 00000KT 10SM CLR 15/12 A3010 700 83 900 000/00 RMK AO2
14837KMSN MSN20060719013509207/19/06 01:35:31  5-MIN KMSN 190735Z 01003KT 10SM CLR 15/12 A3010 700 83 900 010/03 RMK AO2
14837KMSN MSN20060719014009207/19/06 01:40:31  5-MIN KMSN 190740Z 00000KT 10SM CLR 14/12 A3010 700 83 800 000/00 RMK AO2
14837KMSN MSN20060719014509207/19/06 01:45:31  5-MIN KMSN 190745Z 00000KT 10SM CLR 14/12 A3010 700 86 800 000/00 RMK AO2
14837KMSN MSN20060719015010907/19/06 01:50:31  5-MIN KMSN 190750Z 00000KT 10SM CLR 14/12 A3009 700 86 800 000/00 RMK AO2 SLP187 T01440122
14837KMSN MSN20060719015509207/19/06 01:55:31  5-MIN KMSN 190755Z 00000KT 10SM CLR 14/12 A3010 700 86 800 000/00 RMK AO2
14837KMSN MSN20060719020009207/19/06 02:00:31  5-MIN KMSN 190800Z 00000KT 10SM CLR 14/12 A3010 700 90 800 000/00 RMK AO2
14837KMSN MSN20060719020509207/19/06 02:05:31  5-MIN KMSN 190805Z 00000KT 10SM CLR 14/12 A3010 700 83 800 000/00 RMK AO2
14837KMSN MSN20060719021009207/19/06 02:10:31  5-MIN KMSN 190810Z 00000KT 10SM CLR 14/11 A3010 700 83 800 000/00 RMK AO2
14837KMSN MSN20060719021509207/19/06 02:15:31  5-MIN KMSN 190815Z 00000KT 10SM CLR 14/11 A3010 700 83 800 000/00 RMK AO2
14837KMSN MSN20060719022009207/19/06 02:20:31  5-MIN KMSN 190820Z 04003KT 10SM CLR 14/11 A3009 700 80 800 030/03 RMK AO2
14837KMSN MSN20060719022509207/19/06 02:25:31  5-MIN KMSN 190825Z 00000KT 10SM CLR 14/11 A3009 700 83 800 000/00 RMK AO2
14837KMSN MSN20060719023009207/19/06 02:30:31  5-MIN KMSN 190830Z 00000KT 10SM CLR 14/12 A3009 710 83 800 000/00 RMK AO2
14837KMSN MSN20060719023509207/19/06 02:35:31  5-MIN KMSN 190835Z 00000KT 10SM CLR 14/12 A3009 710 86 800 000/00 RMK AO2
14837KMSN MSN20060719024009207/19/06 02:40:31  5-MIN KMSN 190840Z 00000KT 10SM CLR 14/11 A3009 700 83 800 000/00 RMK AO2
14837KMSN MSN20060719024509207/19/06 02:45:31  5-MIN KMSN 190845Z 00000KT 10SM CLR 14/11 A3009 710 83 800 000/00 RMK AO2
14837KMSN MSN20060719025011507/19/06 02:50:31  5-MIN KMSN 190850Z 00000KT 10SM CLR 14/12 A3009 710 86 800 000/00 RMK AO2 SLP186 T01390117 50005
14837KMSN MSN20060719025509207/19/06 02:55:31  5-MIN KMSN 190855Z 00000KT 10SM CLR 14/12 A3009 710 90 800 000/00 RMK AO2
14837KMSN MSN20060719030009207/19/06 03:00:31  5-MIN KMSN 190900Z 00000KT 10SM CLR 14/13 A3009 710 93 800 000/00 RMK AO2
14837KMSN MSN20060719030509207/19/06 03:05:31  5-MIN KMSN 190905Z 00000KT 10SM CLR 14/12 A3009 710 90 800 000/00 RMK AO2
14837KMSN MSN20060719031009207/19/06 03:10:31  5-MIN KMSN 190910Z 00000KT 10SM CLR 14/12 A3009 710 90 800 000/00 RMK AO2
14837KMSN MSN20060719031509207/19/06 03:15:31  5-MIN KMSN 190915Z 00000KT 10SM CLR 13/12 A3009 710 89 700 000/00 RMK AO2
14837KMSN MSN20060719032009207/19/06 03:20:31  5-MIN KMSN 190920Z 00000KT 10SM CLR 13/12 A3009 710 89 700 000/00 RMK AO2
14837KMSN MSN20060719032509207/19/06 03:25:31  5-MIN KMSN 190925Z 00000KT 10SM CLR 13/12 A3009 700 89 700 000/00 RMK AO2
14837KMSN MSN20060719033009207/19/06 03:30:31  5-MIN KMSN 190930Z 00000KT 10SM CLR 13/12 A3009 700 89 700 000/00 RMK AO2
14837KMSN MSN20060719033509207/19/06 03:35:31  5-MIN KMSN 190935Z 00000KT 10SM CLR 13/12 A3009 710 89 700 000/00 RMK AO2
14837KMSN MSN20060719034009207/19/06 03:40:31  5-MIN KMSN 190940Z 00000KT 10SM CLR 13/12 A3009 710 89 700 000/00 RMK AO2
14837KMSN MSN20060719034509207/19/06 03:45:31  5-MIN KMSN 190945Z 00000KT 10SM CLR 14/12 A3009 710 86 800 000/00 RMK AO2
14837KMSN MSN20060719035010907/19/06 03:50:31  5-MIN KMSN 190950Z 00000KT 10SM CLR 14/12 A3009 710 86 800 000/00 RMK AO2 SLP185 T01390117
14837KMSN MSN20060719035509207/19/06 03:55:31  5-MIN KMSN 190955Z VRB03KT 10SM CLR 14/12 A3009 710 86 800 VRB/03 RMK AO2
14837KMSN MSN20060719040009207/19/06 04:00:31  5-MIN KMSN 191000Z 12004KT 10SM CLR 15/11 A3008 710 77 900 120/04 RMK AO2
14837KMSN MSN20060719040509207/19/06 04:05:31  5-MIN KMSN 191005Z 12005KT 10SM CLR 15/11 A3008 710 77 900 120/05 RMK AO2
14837KMSN MSN20060719041009307/19/06 04:10:31  5-MIN KMSN 191010Z 12003KT 10SM CLR 16/12 A3008 710 75 1100 120/03 RMK AO2
14837KMSN MSN20060719041509307/19/06 04:15:31  5-MIN KMSN 191015Z 12004KT 10SM CLR 16/12 A3008 710 75 1100 120/04 RMK AO2
14837KMSN MSN20060719042009307/19/06 04:20:31  5-MIN KMSN 191020Z 11003KT 10SM CLR 17/12 A3009 710 72 1100 110/03 RMK AO2
14837KMSN MSN20060719042509307/19/06 04:25:31  5-MIN KMSN 191025Z 11004KT 10SM CLR 17/12 A3009 710 72 1100 100/04 RMK AO2
14837KMSN MSN20060719043009307/19/06 04:30:31  5-MIN KMSN 191030Z 11004KT 10SM CLR 17/12 A3009 710 75 1100 110/04 RMK AO2
14837KMSN MSN20060719043509307/19/06 04:35:31  5-MIN KMSN 191035Z 12003KT 10SM CLR 16/12 A3008 710 77 1100 120/03 RMK AO2
14837KMSN MSN20060719044009307/19/06 04:40:31  5-MIN KMSN 191040Z 14004KT 10SM CLR 16/12 A3008 710 77 1100 140/04 RMK AO2
14837KMSN MSN20060719044509307/19/06 04:45:31  5-MIN KMSN 191045Z 15003KT 10SM CLR 16/12 A3008 710 77 1100 150/03 RMK AO2
14837KMSN MSN20060719045011007/19/06 04:50:31  5-MIN KMSN 191050Z 00000KT 10SM CLR 17/12 A3009 710 75 1100 000/00 RMK AO2 SLP184 T01670122
14837KMSN MSN20060719045509607/19/06 04:55:31  5-MIN KMSN 191055Z 16004KT 10SM FEW020 16/12 A3008 710 77 1100 160/04 RMK AO2
14837KMSN MSN20060719050009607/19/06 05:00:31  5-MIN KMSN 191100Z 16005KT 10SM FEW020 17/13 A3008 710 77 1100 160/05 RMK AO2
14837KMSN MSN20060719050509607/19/06 05:05:31  5-MIN KMSN 191105Z 15006KT 10SM FEW020 17/13 A3008 720 78 1200 150/06 RMK AO2
14837KMSN MSN20060719051009607/19/06 05:10:31  5-MIN KMSN 191110Z 15007KT 10SM FEW020 17/13 A3008 720 78 1200 150/07 RMK AO2
14837KMSN MSN20060719051509607/19/06 05:15:31  5-MIN KMSN 191115Z 14007KT 10SM FEW020 17/13 A3008 710 78 1200 140/07 RMK AO2
14837KMSN MSN20060719052009607/19/06 05:20:31  5-MIN KMSN 191120Z 15006KT 10SM FEW020 17/13 A3008 710 78 1200 150/06 RMK AO2
14837KMSN MSN20060719052509307/19/06 05:25:31  5-MIN KMSN 191125Z 14004KT 10SM CLR 17/13 A3008 710 78 1200 140/04 RMK AO2
14837KMSN MSN20060719053009307/19/06 05:30:31  5-MIN KMSN 191130Z 13005KT 10SM CLR 18/13 A3008 710 75 1200 130/05 RMK AO2
14837KMSN MSN20060719053509307/19/06 05:35:31  5-MIN KMSN 191135Z 13005KT 10SM CLR 18/14 A3008 720 78 1200 130/05 RMK AO2
14837KMSN MSN20060719054009307/19/06 05:40:31  5-MIN KMSN 191140Z 13005KT 10SM CLR 18/14 A3008 720 78 1300 130/05 RMK AO2
14837KMSN MSN20060719054509307/19/06 05:45:31  5-MIN KMSN 191145Z 12006KT 10SM CLR 18/14 A3008 720 81 1300 120/06 RMK AO2
14837KMSN MSN20060719055012807/19/06 05:50:31  5-MIN KMSN 191150Z 13006KT 10SM CLR 18/14 A3008 720 81 1300 130/06 RMK AO2 SLP180 T01780144 10178 20133 58007
14837KMSN MSN20060719055509307/19/06 05:55:31  5-MIN KMSN 191155Z 13005KT 10SM CLR 18/14 A3008 720 78 1300 130/05 RMK AO2
14837KMSN MSN20060719060009307/19/06 06:00:31  5-MIN KMSN 191200Z 14004KT 10SM CLR 18/14 A3008 720 78 1300 130/04 RMK AO2
14837KMSN MSN20060719060509307/19/06 06:05:31  5-MIN KMSN 191205Z 13004KT 10SM CLR 19/15 A3008 710 78 1400 130/04 RMK AO2
14837KMSN MSN20060719061009307/19/06 06:10:31  5-MIN KMSN 191210Z 13004KT 10SM CLR 19/15 A3009 710 75 1400 130/04 RMK AO2
14837KMSN MSN20060719061509307/19/06 06:15:31  5-MIN KMSN 191215Z 14004KT 10SM CLR 19/16 A3009 710 78 1400 130/04 RMK AO2
14837KMSN MSN20060719062009307/19/06 06:20:31  5-MIN KMSN 191220Z 15007KT 10SM CLR 20/16 A3009 710 75 1500 140/07 RMK AO2
14837KMSN MSN20060719062509307/19/06 06:25:31  5-MIN KMSN 191225Z 13006KT 10SM CLR 20/16 A3009 710 75 1500 130/06 RMK AO2
14837KMSN MSN20060719063009307/19/06 06:30:31  5-MIN KMSN 191230Z 14006KT 10SM CLR 20/16 A3010 700 78 1500 140/06 RMK AO2
14837KMSN MSN20060719063509307/19/06 06:35:31  5-MIN KMSN 191235Z 15005KT 10SM CLR 20/16 A3010 700 78 1500 150/05 RMK AO2
14837KMSN MSN20060719064009307/19/06 06:40:31  5-MIN KMSN 191240Z 14006KT 10SM CLR 21/16 A3009 700 75 1600 140/06 RMK AO2
14837KMSN MSN20060719064509307/19/06 06:45:31  5-MIN KMSN 191245Z 15006KT 10SM CLR 21/17 A3009 700 78 1600 150/06 RMK AO2
14837KMSN MSN20060719065011007/19/06 06:50:31  5-MIN KMSN 191250Z 15006KT 10SM CLR 21/17 A3009 710 78 1600 150/06 RMK AO2 SLP184 T02060167
14837KMSN MSN20060719065509307/19/06 06:55:31  5-MIN KMSN 191255Z 15005KT 10SM CLR 21/17 A3009 710 75 1600 150/05 RMK AO2
14837KMSN MSN20060719070009307/19/06 07:00:31  5-MIN KMSN 191300Z 14005KT 10SM CLR 21/17 A3009 710 78 1600 140/05 RMK AO2
14837KMSN MSN20060719070509307/19/06 07:05:31  5-MIN KMSN 191305Z 15005KT 10SM CLR 22/17 A3010 700 75 1700 150/05 RMK AO2
14837KMSN MSN20060719071009307/19/06 07:10:31  5-MIN KMSN 191310Z 16009KT 10SM CLR 22/18 A3009 700 75 1700 160/09 RMK AO2
14837KMSN MSN20060719071509307/19/06 07:15:31  5-MIN KMSN 191315Z 16008KT 10SM CLR 22/18 A3009 700 75 1700 160/08 RMK AO2
14837KMSN MSN20060719072009307/19/06 07:20:31  5-MIN KMSN 191320Z 16007KT 10SM CLR 22/18 A3009 710 75 1700 160/07 RMK AO2
14837KMSN MSN20060719072509207/19/06 07:25:31  5-MIN KMSN 191325Z 17008KT 9SM CLR 23/18 A3009 700 76 1800 160/08 RMK AO2
14837KMSN MSN20060719073009507/19/06 07:30:31  5-MIN KMSN 191330Z 16006KT 9SM FEW024 23/18 A3009 700 76 1800 160/06 RMK AO2
14837KMSN MSN20060719073509507/19/06 07:35:31  5-MIN KMSN 191335Z 16007KT 9SM SCT024 23/18 A3010 700 76 1800 160/07 RMK AO2
14837KMSN MSN20060719074009507/19/06 07:40:31  5-MIN KMSN 191340Z 17008KT 9SM BKN024 23/19 A3009 700 76 1900 170/08 RMK AO2
14837KMSN MSN20060719074509507/19/06 07:45:31  5-MIN KMSN 191345Z 18007KT 9SM BKN024 23/19 A3009 710 78 1800 180/07 RMK AO2
14837KMSN MSN20060719075011207/19/06 07:50:31  5-MIN KMSN 191350Z 17009KT 9SM BKN024 23/19 A3009 710 76 1900 170/09 RMK AO2 SLP185 T02330189
14837KMSN MSN20060719075510107/19/06 07:55:31  5-MIN KMSN 191355Z 17013G17KT 9SM BKN024 24/19 A3008 710 76 1900 170/13G17 RMK AO2
14837KMSN MSN20060719080010107/19/06 08:00:31  5-MIN KMSN 191400Z 17012G17KT 9SM BKN024 24/19 A3008 720 76 1900 160/12G17 RMK AO2
14837KMSN MSN20060719080509507/19/06 08:05:31  5-MIN KMSN 191405Z 16012KT 9SM BKN024 24/19 A3007 720 76 2000 160/12 RMK AO2
14837KMSN MSN20060719081009507/19/06 08:10:31  5-MIN KMSN 191410Z 17012KT 9SM BKN024 24/19 A3007 730 76 2000 160/12 RMK AO2
14837KMSN MSN20060719081509507/19/06 08:15:31  5-MIN KMSN 191415Z 17011KT 9SM SCT024 24/19 A3007 730 76 2000 170/11 RMK AO2
14837KMSN MSN20060719082009507/19/06 08:20:31  5-MIN KMSN 191420Z 16012KT 9SM SCT024 24/19 A3006 730 73 2000 160/12 RMK AO2
14837KMSN MSN20060719082509507/19/06 08:25:31  5-MIN KMSN 191425Z 15013KT 9SM FEW024 24/19 A3006 740 73 2000 150/13 RMK AO2
14837KMSN MSN20060719083009507/19/06 08:30:31  5-MIN KMSN 191430Z 17012KT 8SM FEW024 24/19 A3006 740 73 2000 170/12 RMK AO2
14837KMSN MSN20060719083509507/19/06 08:35:31  5-MIN KMSN 191435Z 16012KT 9SM FEW024 25/19 A3006 740 71 2100 160/12 RMK AO2
14837KMSN MSN20060719084009207/19/06 08:40:31  5-MIN KMSN 191440Z 16012KT 9SM CLR 25/20 A3005 740 73 2100 160/12 RMK AO2
14837KMSN MSN20060719084509207/19/06 08:45:31  5-MIN KMSN 191445Z 16012KT 8SM CLR 26/20 A3005 740 71 2200 160/12 RMK AO2
14837KMSN MSN20060719085011507/19/06 08:50:31  5-MIN KMSN 191450Z 16012KT 8SM CLR 26/20 A3005 740 71 2200 160/12 RMK AO2 SLP171 T02560200 58005
14837KMSN MSN20060719085509507/19/06 08:55:31  5-MIN KMSN 191455Z 16013KT 8SM SCT025 26/20 A3005 750 71 2200 160/13 RMK AO2
14837KMSN MSN20060719090009507/19/06 09:00:31  5-MIN KMSN 191500Z 15012KT 8SM SCT021 26/20 A3005 740 68 2200 150/12 RMK AO2
14837KMSN MSN20060719090510207/19/06 09:05:31  5-MIN KMSN 191505Z 18010KT 8SM SCT021 BKN027 26/20 A3005 740 71 2200 180/10 RMK AO2
14837KMSN MSN20060719091010207/19/06 09:10:31  5-MIN KMSN 191510Z 18012KT 8SM SCT021 BKN027 25/20 A3005 740 73 2100 180/12 RMK AO2
14837KMSN MSN20060719091510207/19/06 09:15:31  5-MIN KMSN 191515Z 17012KT 8SM SCT021 SCT026 26/20 A3005 750 71 2200 170/12 RMK AO2
14837KMSN MSN20060719092010207/19/06 09:20:31  5-MIN KMSN 191520Z 17013KT 7SM SCT021 BKN026 26/20 A3004 750 71 2200 170/13 RMK AO2
14837KMSN MSN20060719092510807/19/06 09:25:31  5-MIN KMSN 191525Z 17011KT 7SM SCT021 BKN026 26/20 A3004 760 68 2200 170/11 RMK AO2 P0001
14837KMSN MSN20060719093011507/19/06 09:30:31  5-MIN KMSN 191530Z 15014KT 7SM SCT021 BKN026 27/21 A3003 760 69 2300 150/14 RMK AO2 PRESFR P0001
14837KMSN MSN20060719093510807/19/06 09:35:31  5-MIN KMSN 191535Z 18013KT 7SM SCT021 BKN026 26/21 A3003 770 71 2300 170/13 RMK AO2 P0001
14837KMSN MSN20060719094010807/19/06 09:40:31  5-MIN KMSN 191540Z 17013KT 7SM SCT021 BKN026 26/21 A3002 770 71 2300 170/13 RMK AO2 P0001
14837KMSN MSN20060719094510107/19/06 09:45:31  5-MIN KMSN 191545Z 16010KT 7SM BKN021 26/20 A3003 770 68 2300 160/10 RMK AO2 P0001
14837KMSN MSN20060719095011207/19/06 09:50:31  5-MIN KMSN 191550Z 18013KT 7SM BKN021 27/21 A3003 770 69 2300 170/13 RMK AO2 SLP164 T02670206
14837KMSN MSN20060719095509507/19/06 09:55:31  5-MIN KMSN 191555Z 17014KT 7SM SCT025 27/20 A3002 770 66 2300 170/14 RMK AO2
14837KMSN MSN20060719100009507/19/06 10:00:31  5-MIN KMSN 191600Z 17014KT 7SM BKN025 27/20 A3002 770 66 2300 170/14 RMK AO2
14837KMSN MSN20060719100509507/19/06 10:05:31  5-MIN KMSN 191605Z 16015KT 7SM BKN025 27/21 A3002 770 66 2400 160/15 RMK AO2
14837KMSN MSN20060719101009507/19/06 10:10:31  5-MIN KMSN 191610Z 17013KT 7SM BKN025 27/21 A3002 770 66 2400 160/13 RMK AO2
14837KMSN MSN20060719101509507/19/06 10:15:31  5-MIN KMSN 191615Z 16013KT 7SM BKN025 27/21 A3002 770 66 2400 160/13 RMK AO2
14837KMSN MSN20060719102010107/19/06 10:20:31  5-MIN KMSN 191620Z 19010G18KT 7SM BKN025 27/21 A3003 770 69 2300 190/10G18 RMK AO2
14837KMSN MSN20060719102510107/19/06 10:25:31  5-MIN KMSN 191625Z 18012G17KT 7SM SCT025 27/20 A3002 770 66 2300 180/12G17 RMK AO2
14837KMSN MSN20060719103009507/19/06 10:30:31  5-MIN KMSN 191630Z 16011KT 7SM BKN025 27/21 A3003 770 66 2400 160/11 RMK AO2
14837KMSN MSN20060719103509507/19/06 10:35:31  5-MIN KMSN 191635Z 19012KT 7SM BKN025 27/21 A3004 760 66 2400 190/12 RMK AO2
14837KMSN MSN20060719104009507/19/06 10:40:31  5-MIN KMSN 191640Z 19013KT 7SM BKN025 27/20 A3004 750 64 2400 190/13 RMK AO2
14837KMSN MSN20060719104509507/19/06 10:45:31  5-MIN KMSN 191645Z 19012KT 7SM BKN025 27/20 A3004 750 64 2400 190/12 RMK AO2
14837KMSN MSN20060719105011207/19/06 10:50:31  5-MIN KMSN 191650Z 19010KT 7SM BKN025 27/21 A3005 740 69 2300 190/10 RMK AO2 SLP172 T02670206
14837KMSN MSN20060719105509507/19/06 10:55:31  5-MIN KMSN 191655Z 18011KT 7SM SCT028 27/21 A3005 740 66 2400 180/11 RMK AO2
14837KMSN MSN20060719110009507/19/06 11:00:31  5-MIN KMSN 191700Z 16009KT 7SM SCT028 27/21 A3004 750 66 2400 160/09 RMK AO2
14837KMSN MSN20060719110509507/19/06 11:05:31  5-MIN KMSN 191705Z 17012KT 7SM FEW028 27/21 A3004 750 69 2300 170/12 RMK AO2
14837KMSN MSN20060719111009507/19/06 11:10:31  5-MIN KMSN 191710Z 16010KT 7SM FEW030 27/20 A3005 750 66 2300 160/10 RMK AO2
14837KMSN MSN20060719111509507/19/06 11:15:31  5-MIN KMSN 191715Z 19009KT 7SM FEW032 27/20 A3005 740 66 2300 190/09 RMK AO2
14837KMSN MSN20060719112009207/19/06 11:20:31  5-MIN KMSN 191720Z 18009KT 7SM CLR 27/20 A3006 740 66 2300 180/09 RMK AO2
14837KMSN MSN20060719112509507/19/06 11:25:31  5-MIN KMSN 191725Z 18009KT 7SM SCT030 27/20 A3006 730 66 2300 180/09 RMK AO2
14837KMSN MSN20060719113010207/19/06 11:30:31  5-MIN KMSN 191730Z 19008KT 7SM SCT030 27/20 A3007 720 66 2300 190/08 RMK AO2 PRESRR
14837KMSN MSN20060719113510207/19/06 11:35:31  5-MIN KMSN 191735Z 19008KT 7SM SCT030 27/20 A3008 710 66 2300 190/08 RMK AO2 PRESRR
14837KMSN MSN20060719114009507/19/06 11:40:31  5-MIN KMSN 191740Z VRB04KT 7SM SCT030 27/20 A3009 710 66 2300 VRB/04 RMK AO2
14837KMSN MSN20060719114510207/19/06 11:45:31  5-MIN KMSN 191745Z 24007KT 7SM SCT030 27/21 A3012 680 69 2200 240/07 RMK AO2 PRESRR
14837KMSN MSN20060719115014307/19/06 11:50:31  5-MIN KMSN 191750Z 28008KT 7SM SCT030 26/20 A3015 650 68 2100 280/08 RMK AO2 PRESRR SLP207 60001 T02610200 10272 20178 58009
14837KMSN MSN20060719115511207/19/06 11:55:31  5-MIN KMSN 191755Z 29009KT 6SM HZ BKN030 BKN039 26/21 A3017 640 71 2100 290/09 RMK AO2 PRESRR
14837KMSN MSN20060719120010507/19/06 12:00:31  5-MIN KMSN 191800Z 29006KT 6SM HZ BKN030 BKN037 26/21 A3017 640 71 2100 290/06 RMK AO2
14837KMSN MSN20060719120510507/19/06 12:05:31  5-MIN KMSN 191805Z 30009KT 6SM HZ SCT030 BKN037 26/21 A3017 630 71 2100 300/09 RMK AO2
14837KMSN MSN20060719121011207/19/06 12:10:31  5-MIN KMSN 191810Z 30010KT 6SM HZ SCT030 BKN037 BKN070 26/21 A3018 630 71 2100 300/10 RMK AO2
14837KMSN MSN20060719121511207/19/06 12:15:31  5-MIN KMSN 191815Z 30009KT 6SM HZ SCT030 SCT037 BKN070 26/21 A3018 630 73 2000 300/09 RMK AO2
14837KMSN MSN20060719122011207/19/06 12:20:31  5-MIN KMSN 191820Z VRB06KT 6SM HZ FEW030 SCT037 BKN070 26/21 A3017 640 73 2000 VRB/06 RMK AO2
14837KMSN MSN20060719122511207/19/06 12:25:31  5-MIN KMSN 191825Z VRB06KT 6SM HZ FEW034 SCT055 SCT070 26/21 A3016 650 73 2100 VRB/06 RMK AO2
14837KMSN MSN20060719123009807/19/06 12:30:31  5-MIN KMSN 191830Z 30006KT 6SM HZ FEW036 26/21 A3015 650 73 2100 290/06 RMK AO2
14837KMSN MSN20060719123509807/19/06 12:35:31  5-MIN KMSN 191835Z 00000KT 6SM HZ FEW065 26/21 A3014 660 73 2100 000/00 RMK AO2
14837KMSN MSN20060719124009807/19/06 12:40:31  5-MIN KMSN 191840Z 00000KT 6SM HZ FEW060 26/21 A3013 670 73 2100 000/00 RMK AO2
14837KMSN MSN20060719124509507/19/06 12:45:31  5-MIN KMSN 191845Z 00000KT 6SM HZ CLR 26/21 A3012 680 73 2100 000/00 RMK AO2
14837KMSN MSN20060719125011207/19/06 12:50:31  5-MIN KMSN 191850Z 00000KT 6SM HZ CLR 25/21 A3012 680 76 2000 000/00 RMK AO2 SLP196 T02500206
14837KMSN MSN20060719125510507/19/06 12:55:31  5-MIN KMSN 191855Z 00000KT 6SM HZ FEW030 BKN120 25/21 A3012 680 76 2000 000/00 RMK AO2
14837KMSN MSN20060719130010507/19/06 13:00:31  5-MIN KMSN 191900Z 00000KT 6SM HZ FEW030 BKN120 25/21 A3011 690 76 2000 000/00 RMK AO2
14837KMSN MSN20060719130510507/19/06 13:05:31  5-MIN KMSN 191905Z 00000KT 5SM HZ FEW030 BKN120 25/21 A3012 680 79 2000 000/00 RMK AO2
14837KMSN MSN20060719131009507/19/06 13:10:31  5-MIN KMSN 191910Z 00000KT 5SM HZ CLR 25/21 A3011 690 76 2000 000/00 RMK AO2
14837KMSN MSN20060719131509507/19/06 13:15:31  5-MIN KMSN 191915Z 00000KT 5SM HZ CLR 25/21 A3011 690 79 2000 000/00 RMK AO2
14837KMSN MSN20060719132009507/19/06 13:20:31  5-MIN KMSN 191920Z 00000KT 5SM HZ CLR 25/21 A3011 690 79 2000 000/00 RMK AO2
14837KMSN MSN20060719132509507/19/06 13:25:31  5-MIN KMSN 191925Z 00000KT 6SM HZ CLR 25/21 A3011 690 76 2000 000/00 RMK AO2
14837KMSN MSN20060719133011107/19/06 13:30:31  5-MIN KMSN 191930Z 00000KT 6SM -RA BKN120 25/21 A3011 690 79 2000 000/00 RMK AO2 RAB29 P0000
14837KMSN MSN20060719133515307/19/06 13:35:31  5-MIN KMSN 191935Z 23003KT 6SM -TSRA FEW080 OVC120 24/21 A3011 690 81 2000 230/03 RMK AO2 TSB33RAB29 OCNL LTGIC OHD TS OHD MOV E P0000
14837KMSN MSN20060719134015307/19/06 13:40:31  5-MIN KMSN 191940Z 25003KT 6SM -TSRA FEW080 OVC120 24/21 A3012 680 78 2000 250/03 RMK AO2 TSB33RAB29 OCNL LTGIC OHD TS OHD MOV E P0000
14837KMSN MSN20060719134515307/19/06 13:45:31  5-MIN KMSN 191945Z 00000KT 6SM -TSRA FEW080 OVC120 25/21 A3011 690 76 2000 000/00 RMK AO2 TSB33RAB29 OCNL LTGIC OHD TS OHD MOV E P0000
14837KMSN MSN20060719135017007/19/06 13:50:31  5-MIN KMSN 191950Z VRB03KT 6SM -TSRA FEW080 OVC120 25/21 A3011 690 76 2000 VRB/03 RMK AO2 TSB33RAB29 SLP194 OCNL LTGIC OHD TS OHD MOV E P0000 T02500206
14837KMSN MSN20060719135510707/19/06 13:55:31  5-MIN KMSN 191955Z 23004KT 6SM -TSRA BKN120 25/21 A3011 690 76 2000 230/04 RMK AO2 P0000
14837KMSN MSN20060719140013507/19/06 14:00:31  5-MIN KMSN 192000Z 23004KT 5SM -TSRA BKN120 25/21 A3010 700 76 2100 230/04 RMK AO2 OCNL LTGIC OHD TS OHD MOV E P0000
14837KMSN MSN20060719140514207/19/06 14:05:31  5-MIN KMSN 192005Z 19005KT 5SM -TSRA BKN120 25/21 A3008 710 79 2100 180/05 RMK AO2 PRESFR OCNL LTGIC OHD TS OHD MOV E P0000
14837KMSN MSN20060719141014207/19/06 14:10:31  5-MIN KMSN 192010Z 16007KT 4SM -TSRA SCT021 25/21 A3006 740 79 2100 160/07 RMK AO2 PRESFR OCNL LTGIC OHD TS OHD MOV E P0000
14837KMSN MSN20060719141513507/19/06 14:15:31  5-MIN KMSN 192015Z 14005KT 3SM -TSRA SCT019 24/22 A3006 740 84 2000 140/05 RMK AO2 OCNL LTGIC OHD TS OHD MOV E P0001
14837KMSN MSN20060719142011107/19/06 14:20:31  5-MIN KMSN 192020Z 14003KT 4SM -RA SCT019 24/22 A3007 730 84 2000 140/03 RMK AO2 TSE20 P0001
14837KMSN MSN20060719142511107/19/06 14:25:31  5-MIN KMSN 192025Z 24004KT 4SM -RA FEW019 24/22 A3007 720 84 2000 230/04 RMK AO2 TSE20 P0001
14837KMSN MSN20060719143011807/19/06 14:30:31  5-MIN KMSN 192030Z 17004KT 4SM -RA FEW019 BKN100 24/22 A3006 740 84 2000 170/04 RMK AO2 TSE20 P0001
14837KMSN MSN20060719143511107/19/06 14:35:31  5-MIN KMSN 192035Z 17004KT 4SM -RA FEW017 24/22 A3005 750 84 2000 170/04 RMK AO2 TSE20 P0001
14837KMSN MSN20060719144011807/19/06 14:40:31  5-MIN KMSN 192040Z 14006KT 4SM -RA FEW017 25/22 A3003 760 81 2100 140/06 RMK AO2 TSE20 PRESFR P0001
14837KMSN MSN20060719144511507/19/06 14:45:31  5-MIN KMSN 192045Z 14010KT 4SM -RA CLR 25/22 A3001 780 81 2200 140/10 RMK AO2 TSE20 PRESFR P0001
14837KMSN MSN20060719145015407/19/06 14:50:31  5-MIN KMSN 192050Z 14013KT 4SM -RA FEW080 SCT120 24/22 A3000 790 84 2100 140/13 RMK AO2 TSE20 PRESFR SLP157 P0001 60001 T02440217 53038
14837KMSN MSN20060719145510507/19/06 14:55:31  5-MIN KMSN 192055Z 14011KT 4SM -RA SCT120 24/22 A3000 790 84 2100 140/11 RMK AO2 P0000
14837KMSN MSN20060719150011207/19/06 15:00:31  5-MIN KMSN 192100Z 13012KT 4SM -RA SCT120 24/22 A2999 800 87 2100 120/12 RMK AO2 PRESFR P0000
14837KMSN MSN20060719150510507/19/06 15:05:31  5-MIN KMSN 192105Z 12011KT 4SM -RA SCT120 24/22 A2999 800 84 2100 120/11 RMK AO2 P0000
14837KMSN MSN20060719151011707/19/06 15:10:31  5-MIN KMSN 192110Z VRB06KT 4SM HZ FEW120 24/22 A3004 760 84 2100 VRB/06 RMK AO2 RAE06 PRESRR P0000
14837KMSN MSN20060719151511707/19/06 15:15:31  5-MIN KMSN 192115Z 26004KT 4SM HZ FEW120 25/22 A3005 740 81 2100 260/04 RMK AO2 RAE06 PRESRR P0000
14837KMSN MSN20060719152011707/19/06 15:20:31  5-MIN KMSN 192120Z 19003KT 4SM HZ FEW120 24/22 A3006 740 84 2000 190/03 RMK AO2 RAE06 PRESRR P0000
14837KMSN MSN20060719152511407/19/06 15:25:31  5-MIN KMSN 192125Z 14004KT 4SM -RA FEW120 24/22 A3005 740 84 2000 140/04 RMK AO2 RAE06B23 P0000
14837KMSN MSN20060719153011407/19/06 15:30:31  5-MIN KMSN 192130Z 11005KT 4SM -RA FEW120 24/22 A3003 760 84 2100 110/05 RMK AO2 RAE06B23 P0000
14837KMSN MSN20060719153511407/19/06 15:35:31  5-MIN KMSN 192135Z 12009KT 4SM -RA FEW120 24/22 A3000 790 87 2000 120/09 RMK AO2 RAE06B23 P0001
14837KMSN MSN20060719154011407/19/06 15:40:31  5-MIN KMSN 192140Z 10018KT 3SM -RA FEW120 24/22 A2993 860 90 2100 100/18 RMK AO2 RAE06B23 P0001
14837KMSN MSN20060719154512007/19/06 15:45:31  5-MIN KMSN 192145Z 12014G19KT 3SM -RA FEW120 24/22 A2992 860 87 2100 110/14G19 RMK AO2 RAE06B23 P0001
14837KMSN MSN20060719155014707/19/06 15:50:31  5-MIN KMSN 192150Z 16012G19KT 3SM -RA FEW120 24/22 A2994 850 87 2100 160/12G19 RMK AO2 TWR VIS 4 RAE06B23 SLP136 P0001 T02390217
14837KMSN MSN20060719155513307/19/06 15:55:31  5-MIN KMSN 192155Z 17014KT 3SM -RA FEW017 SCT110 24/22 A2995 830 90 2100 170/14 RMK AO2 WSHFT 2141 TWR VIS 4 P0000
14837KMSN MSN20060719160014007/19/06 16:00:31  5-MIN KMSN 192200Z VRB06KT 3SM -RA FEW017 SCT110 24/22 A2998 800 90 2100 VRB/06 RMK AO2 WSHFT 2141 TWR VIS 4 PRESRR P0000
14837KMSN MSN20060719160514007/19/06 16:05:31  5-MIN KMSN 192205Z 00000KT 3SM -RA FEW017 SCT110 24/22 A3000 790 87 2000 000/00 RMK AO2 WSHFT 2141 TWR VIS 4 PRESRR P0000
14837KMSN MSN20060719161012807/19/06 16:10:31  5-MIN KMSN 192210Z 00000KT 4SM HZ FEW017 SCT110 24/22 A3000 790 84 2100 000/00 RMK AO2 WSHFT 2141 RAE08 P0000
14837KMSN MSN20060719161512307/19/06 16:15:31  5-MIN KMSN 192215Z 30006KT 4SM -RA FEW017 SCT110 24/22 A3003 770 84 2100 300/06 RMK AO2 WSHFT 2141 P0000
14837KMSN MSN20060719162012307/19/06 16:20:31  5-MIN KMSN 192220Z VRB04KT 4SM -RA FEW017 SCT110 24/22 A3004 760 84 2100 VRB/04 RMK AO2 WSHFT 2141 P0000
14837KMSN MSN20060719162512307/19/06 16:25:31  5-MIN KMSN 192225Z VRB03KT 4SM -RA FEW017 SCT110 24/22 A3002 770 87 2000 VRB/03 RMK AO2 WSHFT 2141 P0000
14837KMSN MSN20060719163012307/19/06 16:30:31  5-MIN KMSN 192230Z 19006KT 4SM -RA FEW017 SCT110 24/22 A3001 780 87 2000 190/06 RMK AO2 WSHFT 2141 P0000
14837KMSN MSN20060719163513307/19/06 16:35:31  5-MIN KMSN 192235Z VRB04KT 3SM -RA FEW017 SCT110 24/22 A3000 790 84 2100 VRB/04 RMK AO2 WSHFT 2141 TWR VIS 4 P0000
14837KMSN MSN20060719164013307/19/06 16:40:31  5-MIN KMSN 192240Z 00000KT 3SM -RA FEW017 SCT110 24/22 A2999 800 90 2100 000/00 RMK AO2 WSHFT 2141 TWR VIS 4 P0000
14837KMSN MSN20060719164514007/19/06 16:45:31  5-MIN KMSN 192245Z 21004KT 3SM -RA FEW017 SCT060 SCT075 24/22 A3000 790 90 2000 200/04 RMK AO2 WSHFT 2141 TWR VIS 4 P0000
14837KMSN MSN20060719165015707/19/06 16:50:31  5-MIN KMSN 192250Z 17007KT 3SM -RA FEW017 SCT060 SCT075 24/22 A3000 790 90 2000 170/07 RMK AO2 WSHFT 2141 TWR VIS 4 SLP155 P0000 T02390222
14837KMSN MSN20060719165510507/19/06 16:55:31  5-MIN KMSN 192255Z 17008KT 4SM -RA FEW060 24/22 A2999 800 87 2100 170/08 RMK AO2 P0000
14837KMSN MSN20060719170012207/19/06 17:00:31  5-MIN KMSN 192300Z 00000KT 3SM BR FEW050 24/22 A3000 790 87 2100 000/00 RMK AO2 TWR VIS 4 RAE2258 P0000
14837KMSN MSN20060719170511907/19/06 17:05:31  5-MIN KMSN 192305Z 00000KT 3SM BR CLR 24/22 A3000 790 87 2100 000/00 RMK AO2 TWR VIS 4 RAE2258 P0000
14837KMSN MSN20060719171011907/19/06 17:10:31  5-MIN KMSN 192310Z 16008KT 3SM BR CLR 24/22 A2999 800 87 2100 160/08 RMK AO2 TWR VIS 4 RAE2258 P0000
14837KMSN MSN20060719171511207/19/06 17:15:31  5-MIN KMSN 192315Z 17007KT 4SM BR FEW048 24/22 A2999 800 87 2100 170/07 RMK AO2 RAE2258 P0000
14837KMSN MSN20060719172011207/19/06 17:20:31  5-MIN KMSN 192320Z 17008KT 4SM HZ FEW048 25/22 A2999 800 84 2200 170/08 RMK AO2 RAE2258 P0000
14837KMSN MSN20060719172511207/19/06 17:25:31  5-MIN KMSN 192325Z 18009KT 4SM HZ FEW048 25/22 A2999 800 84 2200 180/09 RMK AO2 RAE2258 P0000
14837KMSN MSN20060719173011207/19/06 17:30:31  5-MIN KMSN 192330Z 18009KT 4SM HZ FEW048 25/22 A2999 800 84 2200 180/09 RMK AO2 RAE2258 P0000
14837KMSN MSN20060719173511207/19/06 17:35:31  5-MIN KMSN 192335Z 19008KT 4SM HZ FEW048 25/22 A2999 800 81 2200 190/08 RMK AO2 RAE2258 P0000
14837KMSN MSN20060719174011207/19/06 17:40:31  5-MIN KMSN 192340Z 18008KT 4SM HZ FEW048 25/22 A2999 800 81 2200 180/08 RMK AO2 RAE2258 P0000
14837KMSN MSN20060719174511207/19/06 17:45:31  5-MIN KMSN 192345Z 19008KT 4SM HZ FEW048 25/22 A3000 800 81 2200 190/08 RMK AO2 RAE2258 P0000
14837KMSN MSN20060719175015307/19/06 17:50:31  5-MIN KMSN 192350Z 19007KT 4SM HZ FEW048 25/22 A2999 800 84 2200 190/07 RMK AO2 RAE2258 SLP150 P0000 60002 T02500222 10261 20239 58054
14837KMSN MSN20060719175509507/19/06 17:55:31  5-MIN KMSN 192355Z 19007KT 4SM HZ CLR 25/22 A2998 810 84 2200 190/07 RMK AO2
14837KMSN MSN20060719180009807/19/06 18:00:31  5-MIN KMSN 200000Z 19008KT 4SM HZ FEW050 25/22 A2998 810 84 2200 190/08 RMK AO2
14837KMSN MSN20060719180510507/19/06 18:05:31  5-MIN KMSN 200005Z 18008KT 4SM HZ FEW050 25/22 A2997 820 84 2200 180/08 RMK AO2 PRESFR
14837KMSN MSN20060719181010507/19/06 18:10:31  5-MIN KMSN 200010Z 19009KT 4SM HZ FEW050 25/22 A2996 820 84 2200 180/09 RMK AO2 PRESFR
14837KMSN MSN20060719181509807/19/06 18:15:31  5-MIN KMSN 200015Z 19008KT 4SM BR FEW050 24/22 A2996 830 87 2100 180/08 RMK AO2
14837KMSN MSN20060719182010807/19/06 18:20:31  5-MIN KMSN 200020Z 20006KT 3SM BR FEW050 24/22 A2996 820 87 2100 200/06 RMK AO2 TWR VIS 4
14837KMSN MSN20060719182510807/19/06 18:25:31  5-MIN KMSN 200025Z 21006KT 3SM HZ FEW050 25/22 A2996 830 81 2200 210/06 RMK AO2 TWR VIS 4
14837KMSN MSN20060719183010807/19/06 18:30:31  5-MIN KMSN 200030Z 19011KT 3SM BR FEW050 24/22 A2995 830 87 2200 190/11 RMK AO2 TWR VIS 4
14837KMSN MSN20060719183510807/19/06 18:35:31  5-MIN KMSN 200035Z 18011KT 3SM BR FEW050 24/22 A2995 840 87 2200 180/11 RMK AO2 TWR VIS 4
14837KMSN MSN20060719184010807/19/06 18:40:31  5-MIN KMSN 200040Z 19013KT 3SM BR FEW050 24/22 A2995 840 87 2200 190/13 RMK AO2 TWR VIS 4
14837KMSN MSN20060719184510807/19/06 18:45:31  5-MIN KMSN 200045Z 19012KT 3SM BR FEW120 24/22 A2995 840 87 2200 190/12 RMK AO2 TWR VIS 4
14837KMSN MSN20060719185012507/19/06 18:50:31  5-MIN KMSN 200050Z 19012KT 3SM BR FEW045 24/22 A2994 840 87 2200 190/12 RMK AO2 TWR VIS 4 SLP134 T02440222
14837KMSN MSN20060719185510807/19/06 18:55:31  5-MIN KMSN 200055Z 18014KT 3SM BR FEW045 24/22 A2994 850 87 2200 180/14 RMK AO2 TWR VIS 4
14837KMSN MSN20060719190010807/19/06 19:00:31  5-MIN KMSN 200100Z 19014KT 3SM BR FEW045 24/22 A2994 850 87 2200 190/14 RMK AO2 TWR VIS 4
14837KMSN MSN20060719190510807/19/06 19:05:31  5-MIN KMSN 200105Z 18012KT 3SM HZ FEW045 25/22 A2993 850 81 2200 180/12 RMK AO2 TWR VIS 4
14837KMSN MSN20060719191010807/19/06 19:10:31  5-MIN KMSN 200110Z 18011KT 3SM HZ FEW045 25/22 A2994 850 81 2200 180/11 RMK AO2 TWR VIS 4
14837KMSN MSN20060719191511407/19/06 19:15:31  5-MIN KMSN 200115Z 19011G19KT 3SM HZ FEW045 25/22 A2995 840 81 2200 190/11G19 RMK AO2 TWR VIS 4
14837KMSN MSN20060719192011407/19/06 19:20:31  5-MIN KMSN 200120Z 18011G19KT 3SM HZ FEW045 25/22 A2995 840 81 2200 180/11G19 RMK AO2 TWR VIS 4
14837KMSN MSN20060719192510807/19/06 19:25:31  5-MIN KMSN 200125Z 18010KT 3SM HZ FEW045 25/22 A2995 840 81 2200 180/10 RMK AO2 TWR VIS 4
14837KMSN MSN20060719193010807/19/06 19:30:31  5-MIN KMSN 200130Z 17011KT 3SM HZ FEW045 25/22 A2994 840 81 2200 170/11 RMK AO2 TWR VIS 4
14837KMSN MSN20060719193510807/19/06 19:35:31  5-MIN KMSN 200135Z 16010KT 3SM HZ FEW045 24/22 A2994 850 84 2200 160/10 RMK AO2 TWR VIS 4
14837KMSN MSN20060719194010807/19/06 19:40:31  5-MIN KMSN 200140Z 17010KT 3SM HZ FEW045 24/22 A2995 840 84 2200 170/10 RMK AO2 TWR VIS 4
14837KMSN MSN20060719194510807/19/06 19:45:31  5-MIN KMSN 200145Z 18009KT 3SM HZ FEW060 24/22 A2995 840 84 2200 170/09 RMK AO2 TWR VIS 4
14837KMSN MSN20060719195013707/19/06 19:50:31  5-MIN KMSN 200150Z 16010KT 3SM HZ FEW060 24/22 A2994 840 84 2200 160/10 RMK AO2 TWR VIS 4 SLP134 LTG DSNT NW T02440217
14837KMSN MSN20060719195513107/19/06 19:55:31  5-MIN KMSN 200155Z 18009KT 4SM TS FEW060 24/22 A2995 830 84 2200 180/09 RMK AO2 OCNL LTGIC VC NW TS VC NW MOV SE
14837KMSN MSN20060719200013807/19/06 20:00:31  5-MIN KMSN 200200Z VRB05KT 4SM TS FEW060 25/22 A2998 810 81 2200 VRB/05 RMK AO2 PRESRR OCNL LTGIC VC NW TS VC NW MOV SE
14837KMSN MSN20060719200514807/19/06 20:05:31  5-MIN KMSN 200205Z 32015G20KT 5SM TS FEW060 SCT110 25/22 A3005 750 81 2100 310/15G20 RMK AO2 PRESRR FRQ LTGICCA OHD TS OHD MOV SE
14837KMSN MSN20060719201016307/19/06 20:10:31  5-MIN KMSN 200210Z 32015G24KT 3SM -TSRA FEW060 SCT110 25/21 A3005 740 79 2100 320/15G24 RMK AO2 RAB09 PRESRR FRQ LTGICCA OHD TS OHD MOV SE P0000
14837KMSN MSN20060719201515907/19/06 20:15:31  5-MIN KMSN 200215Z VRB05G24KT 2SM TSRA SCT021 BKN110 24/21 A3004 760 81 2000 VRB/05G24 RMK AO2 RAB09 FRQ LTGCGICCA OHD TS OHD MOV SE P0002 $
14837KMSN MSN20060719202016107/19/06 20:20:31  5-MIN KMSN 200220Z 13012KT 3SM -TSRA SCT023 BKN045 BKN110 24/20 A2998 810 78 2100 130/12 RMK AO2 RAB09 FRQ LTGCGICCA OHD TS OHD MOV SE P0010 $
14837KMSN MSN20060719202516107/19/06 20:25:31  5-MIN KMSN 200225Z 16012KT 3SM -TSRA BKN027 BKN045 OVC110 23/21 A2996 830 84 2000 160/12 RMK AO2 RAB09 FRQ LTGCGICCA OHD TS OHD MOV SE P0010 $
14837KMSN MSN20060719203015407/19/06 20:30:31  5-MIN KMSN 200230Z 20011KT 6SM -TSRA BKN027 BKN110 23/21 A2997 820 84 2000 200/11 RMK AO2 RAB09 FRQ LTGCGICCA OHD TS OHD MOV SE P0012 $
14837KMSN MSN20060719203516807/19/06 20:35:31  5-MIN KMSN 200235Z 19013KT 8SM TS SCT025 BKN100 23/21 A2997 820 84 2000 190/13 RMK AO2 WSHFT 0219 RAB09E34 OCNL LTGCGICCA VC SE TS VC SE MOV SE P0012
14837KMSN MSN20060719204016107/19/06 20:40:31  5-MIN KMSN 200240Z 19011KT 8SM TS SCT022 23/21 A2996 820 84 2000 180/11 RMK AO2 WSHFT 0219 RAB09E34 OCNL LTGCGICCA VC SE TS VC SE MOV SE P0012
14837KMSN MSN20060719204516107/19/06 20:45:31  5-MIN KMSN 200245Z 19010KT 8SM TS FEW030 23/21 A2996 830 84 2000 190/10 RMK AO2 WSHFT 0219 RAB09E34 OCNL LTGCGICCA VC SE TS VC SE MOV SE P0012
14837KMSN MSN20060719205013807/19/06 20:50:31  5-MIN KMSN 200250Z 20009KT 8SM FEW026 24/21 A2996 830 81 2100 200/09 RMK AO2 WSHFT 0219 TSE49RAB09E34 LTG DSNT SE P0012
14837KMSN MSN20060719205510407/19/06 20:55:31  5-MIN KMSN 200255Z 20007KT 7SM CLR 24/21 A2996 830 84 2100 200/07 RMK AO2 LTG DSNT SE
14837KMSN MSN20060719210010707/19/06 21:00:31  5-MIN KMSN 200300Z 19010KT 7SM FEW025 24/21 A2995 840 84 2100 190/10 RMK AO2 LTG DSNT SE
14837KMSN MSN20060719210512307/19/06 21:05:31  5-MIN KMSN 200305Z 20010KT 7SM -RA FEW025 24/21 A2995 830 84 2100 200/10 RMK AO2 RAB02 LTG DSNT SE P0000
14837KMSN MSN20060719211011107/19/06 21:10:31  5-MIN KMSN 200310Z VRB06KT 5SM -RA FEW031 24/21 A2995 830 84 2100 VRB/06 RMK AO2 RAB02 P0000
14837KMSN MSN20060719211511107/19/06 21:15:31  5-MIN KMSN 200315Z VRB04KT 5SM -RA FEW034 24/21 A2996 830 84 2100 VRB/04 RMK AO2 RAB02 P0001
14837KMSN MSN20060719212011307/19/06 21:20:31  5-MIN KMSN 200320Z 20005KT 5SM HZ FEW034 24/21 A2996 830 84 2100 200/05 RMK AO2 RAB02E16 P0001
14837KMSN MSN20060719212511307/19/06 21:25:31  5-MIN KMSN 200325Z 20008KT 5SM BR FEW034 24/22 A2996 830 87 2100 200/08 RMK AO2 RAB02E16 P0001
14837KMSN MSN20060719213011307/19/06 21:30:31  5-MIN KMSN 200330Z 20008KT 5SM BR FEW023 24/22 A2996 830 87 2100 200/08 RMK AO2 RAB02E16 P0001
14837KMSN MSN20060719213511007/19/06 21:35:31  5-MIN KMSN 200335Z 20007KT 5SM BR CLR 24/22 A2995 830 87 2100 200/07 RMK AO2 RAB02E16 P0001
14837KMSN MSN20060719214011007/19/06 21:40:31  5-MIN KMSN 200340Z 22006KT 5SM BR CLR 24/22 A2996 830 87 2100 210/06 RMK AO2 RAB02E16 P0001
14837KMSN MSN20060719214511007/19/06 21:45:31  5-MIN KMSN 200345Z 21006KT 5SM HZ CLR 24/21 A2995 840 84 2100 210/06 RMK AO2 RAB02E16 P0001
14837KMSN MSN20060719215013007/19/06 21:50:31  5-MIN KMSN 200350Z 20008KT 5SM HZ FEW034 24/21 A2994 840 84 2100 200/08 RMK AO2 RAB02E16 SLP133 P0001 T02390211
14837KMSN MSN20060719215509507/19/06 21:55:31  5-MIN KMSN 200355Z 20005KT 4SM HZ CLR 24/21 A2994 850 84 2100 200/05 RMK AO2
14837KMSN MSN20060719220009507/19/06 22:00:31  5-MIN KMSN 200400Z 21006KT 4SM HZ CLR 24/21 A2994 850 84 2100 210/06 RMK AO2
14837KMSN MSN20060719220509507/19/06 22:05:31  5-MIN KMSN 200405Z 21006KT 4SM HZ CLR 24/21 A2994 850 84 2100 210/06 RMK AO2
14837KMSN MSN20060719221009507/19/06 22:10:31  5-MIN KMSN 200410Z 21006KT 4SM HZ CLR 24/21 A2994 850 84 2100 210/06 RMK AO2
14837KMSN MSN20060719221509507/19/06 22:15:31  5-MIN KMSN 200415Z 20007KT 4SM HZ CLR 24/21 A2993 860 84 2100 200/07 RMK AO2
14837KMSN MSN20060719222009507/19/06 22:20:31  5-MIN KMSN 200420Z 21007KT 5SM HZ CLR 24/21 A2993 860 84 2100 210/07 RMK AO2
14837KMSN MSN20060719222509507/19/06 22:25:31  5-MIN KMSN 200425Z 21007KT 5SM HZ CLR 24/21 A2993 860 84 2100 210/07 RMK AO2
14837KMSN MSN20060719223009507/19/06 22:30:31  5-MIN KMSN 200430Z 21006KT 5SM HZ CLR 24/21 A2993 860 84 2100 210/06 RMK AO2
14837KMSN MSN20060719223509507/19/06 22:35:31  5-MIN KMSN 200435Z 22007KT 5SM HZ CLR 24/21 A2992 860 81 2100 220/07 RMK AO2
14837KMSN MSN20060719224009507/19/06 22:40:31  5-MIN KMSN 200440Z 21007KT 5SM HZ CLR 24/21 A2992 870 81 2100 210/07 RMK AO2
14837KMSN MSN20060719224509507/19/06 22:45:31  5-MIN KMSN 200445Z 21005KT 5SM HZ CLR 24/21 A2991 870 81 2100 210/05 RMK AO2
14837KMSN MSN20060719225011207/19/06 22:50:31  5-MIN KMSN 200450Z 21004KT 5SM HZ CLR 23/21 A2992 870 84 2100 210/04 RMK AO2 SLP124 T02330206
14837KMSN MSN20060719225509507/19/06 22:55:31  5-MIN KMSN 200455Z 21005KT 5SM HZ CLR 23/21 A2992 870 84 2100 210/05 RMK AO2
14837KMSN MSN20060719230009507/19/06 23:00:31  5-MIN KMSN 200500Z 22004KT 5SM HZ CLR 23/21 A2992 860 84 2100 220/04 RMK AO2
14837KMSN MSN20060719230509507/19/06 23:05:31  5-MIN KMSN 200505Z VRB03KT 5SM HZ CLR 23/21 A2992 870 84 2100 VRB/03 RMK AO2
14837KMSN MSN20060719231009507/19/06 23:10:31  5-MIN KMSN 200510Z 00000KT 5SM HZ CLR 24/21 A2992 860 81 2100 000/00 RMK AO2
14837KMSN MSN20060719231509507/19/06 23:15:31  5-MIN KMSN 200515Z 00000KT 5SM HZ CLR 24/21 A2993 860 81 2100 000/00 RMK AO2
14837KMSN MSN20060719232009507/19/06 23:20:31  5-MIN KMSN 200520Z 00000KT 5SM HZ CLR 23/20 A2993 860 81 2100 000/00 RMK AO2
14837KMSN MSN20060719232509507/19/06 23:25:31  5-MIN KMSN 200525Z 35004KT 5SM HZ CLR 23/20 A2993 860 84 2000 340/04 RMK AO2
14837KMSN MSN20060719233009507/19/06 23:30:31  5-MIN KMSN 200530Z 02004KT 4SM BR CLR 22/21 A2993 860 90 1900 010/04 RMK AO2
14837KMSN MSN20060719233509507/19/06 23:35:31  5-MIN KMSN 200535Z 00000KT 4SM BR CLR 22/21 A2992 860 93 1900 000/00 RMK AO2
14837KMSN MSN20060719234009807/19/06 23:40:31  5-MIN KMSN 200540Z 00000KT 3SM BR FEW070 22/21 A2993 860 93 1900 000/00 RMK AO2
14837KMSN MSN20060719234509807/19/06 23:45:31  5-MIN KMSN 200545Z 00000KT 3SM BR FEW070 22/21 A2992 860 93 1900 000/00 RMK AO2
14837KMSN MSN20060719235016107/19/06 23:50:31  5-MIN KMSN 200550Z 07003KT 3SM BR SCT065 22/21 A2993 860 93 1900 070/03 RMK AO2 SLP129 DSNT LTG NW 60013 T02170206 10250 20217 402720133 55008
14837KMSN MSN20060719235509807/19/06 23:55:31  5-MIN KMSN 200555Z 03003KT 3SM BR SCT065 22/21 A2993 860 93 1900 030/03 RMK AO2
14837KMSN MSN20060720000010507/20/06 00:00:38  5-MIN KMSN 200600Z 05004KT 3SM BR SCT065 SCT075 22/21 A2992 860 93 1900 050/04 RMK AO2
14837KMSN MSN20060720000509807/20/06 00:05:31  5-MIN KMSN 200605Z 05004KT 3SM BR BKN070 22/21 A2992 860 90 1900 050/04 RMK AO2
14837KMSN MSN20060720001010507/20/06 00:10:31  5-MIN KMSN 200610Z 08004KT 3SM HZ BKN065 BKN075 23/21 A2992 860 84 2100 080/04 RMK AO2
14837KMSN MSN20060720001509807/20/06 00:15:33  5-MIN KMSN 200615Z VRB03KT 4SM BR BKN065 22/21 A2992 870 90 1900 VRB/03 RMK AO2
14837KMSN MSN20060720002009807/20/06 00:20:31  5-MIN KMSN 200620Z 15003KT 4SM BR BKN065 22/21 A2991 870 90 1900 150/03 RMK AO2
14837KMSN MSN20060720002509807/20/06 00:25:31  5-MIN KMSN 200625Z 11004KT 4SM BR BKN065 22/21 A2992 870 90 1900 110/04 RMK AO2
14837KMSN MSN20060720003009807/20/06 00:30:31  5-MIN KMSN 200630Z 07005KT 4SM BR OVC065 22/21 A2992 860 90 1900 070/05 RMK AO2
14837KMSN MSN20060720003509807/20/06 00:35:31  5-MIN KMSN 200635Z VRB04KT 4SM BR BKN065 22/21 A2992 860 90 1900 VRB/04 RMK AO2
14837KMSN MSN20060720004009807/20/06 00:40:31  5-MIN KMSN 200640Z 11007KT 5SM HZ BKN065 23/20 A2991 870 81 2100 110/07 RMK AO2
14837KMSN MSN20060720004511307/20/06 00:45:31  5-MIN KMSN 200645Z 13007KT 6SM HZ SCT065 23/20 A2990 890 84 2000 130/07 RMK AO2 FRQ LTG DSNT N
14837KMSN MSN20060720005013007/20/06 00:50:31  5-MIN KMSN 200650Z 16007KT 6SM HZ SCT065 23/20 A2989 890 84 2000 160/07 RMK AO2 SLP117 FRQ LTG DSNT N T02280200
14837KMSN MSN20060720005509807/20/06 00:55:31  5-MIN KMSN 200655Z 14007KT 6SM HZ SCT065 23/20 A2990 890 81 2100 140/07 RMK AO2
14837KMSN MSN20060720010009807/20/06 01:00:31  5-MIN KMSN 200700Z 18008KT 5SM HZ SCT065 23/20 A2991 870 84 2000 180/08 RMK AO2
14837KMSN MSN20060720010510507/20/06 01:05:31  5-MIN KMSN 200705Z 19004KT 5SM HZ BKN065 23/20 A2992 860 81 2100 180/04 RMK AO2 PRESRR
14837KMSN MSN20060720011009807/20/06 01:10:31  5-MIN KMSN 200710Z 15007KT 6SM HZ BKN065 23/20 A2990 880 81 2100 150/07 RMK AO2
14837KMSN MSN20060720011509807/20/06 01:15:31  5-MIN KMSN 200715Z 13005KT 5SM BR BKN065 23/21 A2991 880 87 2000 130/05 RMK AO2
14837KMSN MSN20060720012011807/20/06 01:20:31  5-MIN KMSN 200720Z 14005KT 5SM -RA BKN065 OVC100 23/21 A2991 870 87 2000 130/05 RMK AO2 RAB19 P0000
14837KMSN MSN20060720012513407/20/06 01:25:31  5-MIN KMSN 200725Z 25004KT 5SM -RA BKN065 OVC100 23/21 A2994 850 87 2000 250/04 RMK AO2 RAB19 CONS LTG DSNT N P0000
14837KMSN MSN20060720013013707/20/06 01:30:31  5-MIN KMSN 200730Z 22004KT 4SM -RA BR BKN065 OVC100 23/21 A2993 860 87 2000 220/04 RMK AO2 RAB19 CONS LTG DSNT N P0000
14837KMSN MSN20060720013516407/20/06 01:35:31  5-MIN KMSN 200735Z 25004KT 3SM -TSRA BR FEW037 BKN065 OVC100 23/21 A2994 840 87 2000 240/04 RMK AO2 TSB34RAB19 CONS LTGCC OHD TS OHD MOV SE P0000
14837KMSN MSN20060720014017707/20/06 01:40:31  5-MIN KMSN 200740Z 31016G23KT 3SM -TSRA BR SCT035 BKN065 OVC100 23/21 A3004 760 87 1900 310/16G23 RMK AO2 TSB34RAB19 PRESRR CONS LTGCC OHD TS OHD MOV SE P0002
14837KMSN MSN20060720014520107/20/06 01:45:31  5-MIN KMSN 200745Z 32026G46KT 1/2SM TSRA FG SQ FEW010 BKN045 OVC065 21/19 A3008 710 90 1600 320/26G46 RMK AO2 PK WND 30046/0742 TSB34RAB19 PRESRR CONS LTGCGIC OHD TS OHD MOV SE P0002
14837KMSN MSN20060720015018607/20/06 01:50:31  5-MIN KMSN 200750Z 33028G46KT 1SM +TSRA BR SQ BKN014 BKN065 19/18 A3007 730 93 1500 330/28G46 RMK AO2 PK WND 30046/0742 TSB34RAB19 CONS LTGCGIC OHD TS OHD MOV SE P0033
14837KMSN MSN20060720015516307/20/06 01:55:31  5-MIN KMSN 200755Z 34019G41KT 1SM +TSRA BR BKN014 OVC070 19/18 A3005 750 97 1400 340/19G41 RMK AO2 WSHFT 0740 CONS LTGIC OHD TS OHD MOV SE P0000
14837KMSN MSN20060720020017407/20/06 02:00:31  5-MIN KMSN 200800Z 35018G31KT 3SM +TSRA BR OVC018 19/18 A3003 770 97 1400 350/18G31 RMK AO2 PK WND 35030/0756 WSHFT 0740 CONS LTGIC OHD TS OHD MOV SE P0005
14837KMSN MSN20060720020517307/20/06 02:05:31  5-MIN KMSN 200805Z 35015G30KT 3SM TSRA BR OVC018 19/18 A3003 770 93 1500 350/15G30 RMK AO2 PK WND 35030/0756 WSHFT 0740 CONS LTGIC OHD TS OHD MOV SE P0010
14837KMSN MSN20060720021017307/20/06 02:10:31  5-MIN KMSN 200810Z 35013G26KT 5SM TSRA BR OVC023 19/18 A3002 770 93 1500 350/13G26 RMK AO2 PK WND 35030/0756 WSHFT 0740 CONS LTGIC OHD TS OHD MOV SE P0011
14837KMSN MSN20060720021517107/20/06 02:15:31  5-MIN KMSN 200815Z 35009G20KT 9SM -TSRA OVC033 19/18 A3003 770 93 1500 350/09G20 RMK AO2 PK WND 35030/0756 WSHFT 0740 CONS LTGIC OHD TS OHD MOV SE P0011
14837KMSN MSN20060720022016507/20/06 02:20:31  5-MIN KMSN 200820Z 34007KT 9SM -TSRA OVC035 19/18 A3003 760 93 1500 340/07 RMK AO2 PK WND 35030/0756 WSHFT 0740 CONS LTGIC OHD TS OHD MOV SE P0012
14837KMSN MSN20060720022516507/20/06 02:25:31  5-MIN KMSN 200825Z VRB05KT 8SM -TSRA OVC037 19/18 A3003 760 93 1500 VRB/05 RMK AO2 PK WND 35030/0756 WSHFT 0740 CONS LTGIC OHD TS OHD MOV SE P0012
14837KMSN MSN20060720023016507/20/06 02:30:31  5-MIN KMSN 200830Z 29005KT 7SM -TSRA OVC039 19/18 A3004 750 93 1500 290/05 RMK AO2 PK WND 35030/0756 WSHFT 0740 CONS LTGIC OHD TS OHD MOV SE P0013
14837KMSN MSN20060720023516707/20/06 02:35:31  5-MIN KMSN 200835Z 30005KT 6SM -TSRA BR OVC039 19/18 A3005 750 93 1500 300/05 RMK AO2 PK WND 35030/0756 WSHFT 0740 FRQ LTGCC OHD TS OHD MOV SE P0014
14837KMSN MSN20060720024016707/20/06 02:40:31  5-MIN KMSN 200840Z 31004KT 6SM -TSRA BR OVC039 19/18 A3004 750 93 1500 310/04 RMK AO2 PK WND 35030/0756 WSHFT 0740 FRQ LTGCC OHD TS OHD MOV SE P0015
14837KMSN MSN20060720024516707/20/06 02:45:31  5-MIN KMSN 200845Z 33004KT 5SM -TSRA BR OVC035 19/18 A3003 760 93 1500 330/04 RMK AO2 PK WND 35030/0756 WSHFT 0740 FRQ LTGCC OHD TS OHD MOV SE P0015
14837KMSN MSN20060720025019807/20/06 02:50:31  5-MIN KMSN 200850Z 00000KT 5SM -TSRA BR OVC033 19/18 A3003 760 93 1500 000/00 RMK AO2 PK WND 35030/0756 WSHFT 0740 SLP164 FRQ LTGCCCA OHD TS OHD MOV SE P0017 60064 T01940183 55010
14837KMSN MSN20060720025511707/20/06 02:55:31  5-MIN KMSN 200855Z 00000KT 5SM -TSRA BR OVC031 19/18 A3002 770 93 1500 000/00 RMK AO2 PRESFR P0000
14837KMSN MSN20060720030014007/20/06 03:00:31  5-MIN KMSN 200900Z 10004KT 6SM -TSRA BR OVC029 19/18 A3001 780 93 1500 100/04 RMK AO2 FRQ LTGICCA OHD TS OHD MOV SE P0002
14837KMSN MSN20060720030514407/20/06 03:05:31  5-MIN KMSN 200905Z 12009KT 8SM -TSRA OVC029 19/18 A3000 790 93 1500 120/09 RMK AO2 PRESFR FRQ LTGICCA OHD TS OHD MOV SE P0002
14837KMSN MSN20060720031014407/20/06 03:10:31  5-MIN KMSN 200910Z 13010KT 8SM -TSRA OVC033 19/18 A2998 810 93 1600 130/10 RMK AO2 PRESFR FRQ LTGICCA OHD TS OHD MOV SE P0003
14837KMSN MSN20060720031514407/20/06 03:15:31  5-MIN KMSN 200915Z 12013KT 8SM -TSRA OVC038 19/18 A2995 840 93 1600 110/13 RMK AO2 PRESFR FRQ LTGICCA OHD TS OHD MOV SE P0003
14837KMSN MSN20060720032014407/20/06 03:20:31  5-MIN KMSN 200920Z 12016KT 8SM -TSRA OVC042 19/19 A2992 860 97 1600 120/16 RMK AO2 PRESFR FRQ LTGICCA OHD TS OHD MOV SE P0004
14837KMSN MSN20060720032515107/20/06 03:25:31  5-MIN KMSN 200925Z 12016KT 8SM -TSRA BKN040 OVC065 19/18 A2991 880 93 1600 120/16 RMK AO2 PRESFR FRQ LTGICCA OHD TS OHD MOV SE P0004
14837KMSN MSN20060720033014507/20/06 03:30:31  5-MIN KMSN 200930Z 11011KT 10SM -TSRA BKN042 OVC070 19/18 A2994 850 93 1600 110/11 RMK AO2 FRQ LTGICCA OHD TS OHD MOV SE P0005
14837KMSN MSN20060720033515407/20/06 03:35:31  5-MIN KMSN 200935Z 15007KT 120V190 10SM -TSRA BKN048 20/18 A2995 830 90 1700 150/07 120V190 RMK AO2 FRQ LTGICCA OHD TS OHD MOV SE P0006
14837KMSN MSN20060720034014707/20/06 03:40:31  5-MIN KMSN 200940Z 24006KT 5SM -TSRA BR BKN050 20/18 A2999 800 90 1600 240/06 RMK AO2 PRESRR FRQ LTGICCA OHD TS OHD MOV SE P0006
14837KMSN MSN20060720034514007/20/06 03:45:31  5-MIN KMSN 200945Z 20007KT 4SM -TSRA BR BKN055 20/18 A2999 800 90 1600 200/07 RMK AO2 FRQ LTGCGCA OHD TS OHD MOV SE P0006
14837KMSN MSN20060720035016407/20/06 03:50:31  5-MIN KMSN 200950Z 20007KT 6SM -TSRA BR BKN055 BKN120 20/18 A2999 800 90 1600 200/07 RMK AO2 SLP151 FRQ LTGCGCA OHD TS OHD MOV SE P0006 T02000183
14837KMSN MSN20060720035511407/20/06 03:55:31  5-MIN KMSN 200955Z VRB04KT 9SM -TSRA SCT055 BKN120 20/18 A3000 790 90 1600 VRB/04 RMK AO2 P0001
14837KMSN MSN20060720040014307/20/06 04:00:31  5-MIN KMSN 201000Z 33005KT 10SM -TSRA FEW055 SCT120 20/18 A3000 790 90 1600 330/05 RMK AO2 FRQ LTGCA OHD TS OHD MOV SE P0001
14837KMSN MSN20060720040514307/20/06 04:05:31  5-MIN KMSN 201005Z VRB03KT 10SM -TSRA FEW055 SCT110 19/18 A2999 800 93 1500 VRB/03 RMK AO2 FRQ LTGCA OHD TS OHD MOV SE P0001
14837KMSN MSN20060720041014307/20/06 04:10:31  5-MIN KMSN 201010Z 00000KT 10SM -TSRA FEW055 SCT110 20/18 A3000 790 90 1600 000/00 RMK AO2 FRQ LTGCA OHD TS OHD MOV SE P0001
14837KMSN MSN20060720041514307/20/06 04:15:31  5-MIN KMSN 201015Z 03006KT 10SM -TSRA FEW045 BKN110 19/18 A2999 800 93 1500 030/06 RMK AO2 FRQ LTGCA OHD TS OHD MOV SE P0001
14837KMSN MSN20060720042014307/20/06 04:20:31  5-MIN KMSN 201020Z 00000KT 10SM -TSRA FEW060 BKN110 19/19 A2999 800 97 1500 000/00 RMK AO2 FRQ LTGCA OHD TS OHD MOV SE P0001
14837KMSN MSN20060720042514307/20/06 04:25:31  5-MIN KMSN 201025Z 09005KT 10SM -TSRA FEW075 BKN100 19/18 A2998 810 93 1600 090/05 RMK AO2 FRQ LTGCA OHD TS OHD MOV SE P0001
14837KMSN MSN20060720043015007/20/06 04:30:31  5-MIN KMSN 201030Z 12006KT 10SM -TSRA FEW043 SCT060 BKN100 19/19 A2998 810 97 1600 120/06 RMK AO2 FRQ LTGCA OHD TS OHD MOV SE P0001
14837KMSN MSN20060720043515207/20/06 04:35:31  5-MIN KMSN 201035Z 15008KT 10SM -RA FEW043 SCT060 BKN070 19/19 A2997 820 97 1600 150/08 RMK AO2 TSE34 FRQ LTG DSNT NE TS MOV SE P0001
14837KMSN MSN20060720044015207/20/06 04:40:31  5-MIN KMSN 201040Z 16006KT 10SM -RA FEW060 SCT075 BKN100 20/19 A2996 820 93 1600 160/06 RMK AO2 TSE34 FRQ LTG DSNT NE TS MOV SE P0001
14837KMSN MSN20060720044515307/20/06 04:45:31  5-MIN KMSN 201045Z 16008KT 10SM FEW065 SCT100 SCT120 20/19 A2995 840 93 1700 160/08 RMK AO2 TSE34RAE42 FRQ LTG DSNT NE TS MOV SE P0001
14837KMSN MSN20060720045014707/20/06 04:50:31  5-MIN KMSN 201050Z 16007KT 10SM FEW060 SCT120 20/18 A2993 850 90 1700 160/07 RMK AO2 TSE34RAE42 SLP132 TS MOV SE P0007 T02000183
14837KMSN MSN20060720045510307/20/06 04:55:31  5-MIN KMSN 201055Z 16008KT 10SM FEW050 20/18 A2993 860 90 1700 160/08 RMK AO2 PRESFR
14837KMSN MSN20060720050009607/20/06 05:00:31  5-MIN KMSN 201100Z 17007KT 10SM FEW085 20/18 A2994 850 90 1700 170/07 RMK AO2
14837KMSN MSN20060720050509607/20/06 05:05:31  5-MIN KMSN 201105Z 16008KT 10SM FEW085 20/18 A2993 850 90 1700 160/08 RMK AO2
14837KMSN MSN20060720051009607/20/06 05:10:31  5-MIN KMSN 201110Z 18009KT 10SM FEW080 20/19 A2995 840 93 1700 180/09 RMK AO2
14837KMSN MSN20060720051510307/20/06 05:15:31  5-MIN KMSN 201115Z 19010KT 10SM SCT080 20/19 A2997 820 93 1600 190/10 RMK AO2 PRESRR
14837KMSN MSN20060720052010307/20/06 05:20:31  5-MIN KMSN 201120Z 20011KT 10SM BKN080 20/19 A2998 810 93 1600 200/11 RMK AO2 PRESRR
14837KMSN MSN20060720052510307/20/06 05:25:31  5-MIN KMSN 201125Z 18010KT 10SM FEW006 BKN080 21/19 A2997 820 90 1700 180/10 RMK AO2
14837KMSN MSN20060720053010907/20/06 05:30:31  5-MIN KMSN 201130Z 18009G16KT 10SM BKN006 BKN080 20/19 A2995 830 93 1600 180/09G16 RMK AO2
14837KMSN MSN20060720053510907/20/06 05:35:31  5-MIN KMSN 201135Z 17006G16KT 10SM BKN006 BKN080 20/19 A2996 830 93 1600 170/06G16 RMK AO2
14837KMSN MSN20060720054010307/20/06 05:40:31  5-MIN KMSN 201140Z 22004KT 10SM BKN006 BKN080 20/19 A2998 810 93 1600 220/04 RMK AO2
14837KMSN MSN20060720054515607/20/06 05:45:31  5-MIN KMSN 201145Z 29008KT 10SM TS SCT008 BKN075 OVC090 20/19 A3001 780 93 1600 290/08 RMK AO2 TSB41 PRESRR FRQ LTGCA VC W TS VC W MOV SE
14837KMSN MSN20060720055019107/20/06 05:50:31  5-MIN KMSN 201150Z 30007KT 2 1/2SM TSRA BR SCT008 BKN075 OVC090 20/19 A3003 770 93 1600 300/07 RMK AO2 TSB41RAB46 PRESRR FRQ LTGCA OHD TS OHD MOV SE P0000 60079 70094 P0000
14837KMSN MSN20060720055517507/20/06 05:55:31  5-MIN KMSN 201155Z 19006KT 1SM +TSRA BR BKN010 BKN070 OVC090 20/19 A2998 810 93 1600 190/06 RMK AO2 TSB41RAB46 FRQ LTGCA OHD TS OHD MOV SE P0005 60084 70099
14837KMSN MSN20060720060018807/20/06 06:00:31  5-MIN KMSN 201200Z 19011KT 2SM TSRA BR BKN010 BKN075 BKN090 20/19 A2999 800 93 1600 190/11 RMK AO2 TWR VIS 3 TSB1141RAB1146 FRQ LTGCA OHD TS OHD MOV SE P0026 60105 70120
14837KMSN MSN20060720060518607/20/06 06:05:31  5-MIN KMSN 201205Z 19012KT 3SM -TSRA BR FEW008 SCT015 BKN070 20/19 A2997 820 93 1600 190/12 RMK AO2 TSB1141RAB1146 PRESFR FRQ LTGCA OHD TS OHD MOV SE P0026 60105 70120
14837KMSN MSN20060720061016207/20/06 06:10:31  5-MIN KMSN 201210Z 20010KT 3SM SCT013 SCT075 20/19 A2997 820 93 1600 200/10 RMK AO2 SFC VIS 10 TSB1141E07RAB1146E09 TS MOV SE P0027 60106 70121
14837KMSN MSN20060720061518707/20/06 06:15:31  5-MIN KMSN 201215Z 20007KT 10SM SCT022 SCT110 20/19 A2998 800 93 1600 200/07 RMK AO2 TSB1141E07RAB1146E09 SLP150 TS MOV SE P0027 60106 70121 T02000189 10206 20194 55014
14837KMSN MSN20060720062019407/20/06 06:20:31  5-MIN KMSN 201220Z VRB05KT 10SM FEW022 SCT080 SCT110 20/19 A2998 810 93 1600 VRB/05 RMK AO2 TSB1141E07RAB1146E09 SLP149 TS MOV SE P0027 60106 70121 T02000189 10206 20194 55014
14837KMSN MSN20060720062518707/20/06 06:25:31  5-MIN KMSN 201225Z 00000KT 10SM FEW037 SCT110 20/19 A2998 810 93 1600 000/00 RMK AO2 TSB1141E07RAB1146E09 SLP148 TS MOV SE P0027 60106 70121 T02000189 10206 20194 55014
14837KMSN MSN20060720063018707/20/06 06:30:31  5-MIN KMSN 201230Z 33004KT 10SM FEW080 SCT110 20/18 A2998 800 90 1600 330/04 RMK AO2 TSB1141E07RAB1146E09 SLP149 TS MOV SE P0027 60106 70121 T02000183 10206 20194 55014
14837KMSN MSN20060720063518707/20/06 06:35:31  5-MIN KMSN 201235Z 33003KT 10SM FEW080 BKN110 20/18 A2999 800 90 1600 330/03 RMK AO2 TSB1141E07RAB1146E09 SLP151 TS MOV SE P0027 60106 70121 T02000183 10206 20194 55014
14837KMSN MSN20060720064018707/20/06 06:40:31  5-MIN KMSN 201240Z 34003KT 10SM FEW090 BKN110 20/19 A2999 800 93 1600 340/03 RMK AO2 TSB1141E07RAB1146E09 SLP151 TS MOV SE P0027 60106 70121 T02000189 10206 20194 55014
14837KMSN MSN20060720064515907/20/06 06:45:31  5-MIN KMSN 201245Z 29003KT 10SM SCT090 BKN110 20/19 A3000 790 93 1600 290/03 RMK AO2 TSB1141E07RAB1146E09 SLP155 T02000189 10206 20194 55014
14837KMSN MSN20060720065014107/20/06 06:50:31  5-MIN KMSN 201250Z 30003KT 10SM SCT090 BKN110 20/19 A3000 790 93 1600 300/03 RMK AO2 TSB1141E07RAB1146E09 SLP156 T02000189
14837KMSN MSN20060720065511007/20/06 06:55:31  5-MIN KMSN 201255Z 31003KT 10SM FEW013 BKN090 OVC110 20/19 A3001 790 93 1600 310/03 RMK AO2
14837KMSN MSN20060720070011007/20/06 07:00:31  5-MIN KMSN 201300Z VRB03KT 10SM SCT013 BKN090 OVC110 20/18 A3000 790 90 1600 VRB/03 RMK AO2
14837KMSN MSN20060720070511007/20/06 07:05:31  5-MIN KMSN 201305Z 36006KT 10SM SCT013 BKN090 BKN110 20/19 A2999 800 93 1600 360/06 RMK AO2
14837KMSN MSN20060720071011007/20/06 07:10:31  5-MIN KMSN 201310Z 36005KT 10SM FEW013 SCT090 BKN110 20/19 A2999 800 93 1600 360/05 RMK AO2
14837KMSN MSN20060720071511007/20/06 07:15:31  5-MIN KMSN 201315Z 01004KT 10SM FEW013 SCT080 BKN110 20/19 A3000 790 93 1600 010/04 RMK AO2
14837KMSN MSN20060720072011007/20/06 07:20:31  5-MIN KMSN 201320Z 01005KT 10SM FEW013 SCT080 BKN110 20/19 A3000 790 93 1600 360/05 RMK AO2
14837KMSN MSN20060720072511007/20/06 07:25:31  5-MIN KMSN 201325Z 36003KT 10SM FEW011 SCT090 BKN110 20/19 A3000 790 93 1600 360/03 RMK AO2
14837KMSN MSN20060720073010307/20/06 07:30:31  5-MIN KMSN 201330Z 35004KT 10SM SCT090 BKN110 20/19 A3000 790 93 1600 350/04 RMK AO2
14837KMSN MSN20060720073510307/20/06 07:35:31  5-MIN KMSN 201335Z 36004KT 10SM FEW090 SCT110 20/19 A3001 780 93 1600 350/04 RMK AO2
14837KMSN MSN20060720074009607/20/06 07:40:31  5-MIN KMSN 201340Z 01003KT 10SM FEW017 20/19 A3001 780 93 1600 360/03 RMK AO2
14837KMSN MSN20060720074510307/20/06 07:45:31  5-MIN KMSN 201345Z 35003KT 10SM FEW015 SCT090 20/19 A3001 780 93 1600 350/03 RMK AO2
14837KMSN MSN20060720075012007/20/06 07:50:31  5-MIN KMSN 201350Z 00000KT 10SM FEW015 SCT090 21/19 A3001 780 93 1600 000/00 RMK AO2 SLP158 T02060194
14837KMSN MSN20060720075510307/20/06 07:55:31  5-MIN KMSN 201355Z 00000KT 10SM FEW015 BKN090 21/19 A3001 780 93 1600 000/00 RMK AO2
14837KMSN MSN20060720080010307/20/06 08:00:31  5-MIN KMSN 201400Z 00000KT 10SM FEW015 BKN090 21/19 A3001 780 93 1600 000/00 RMK AO2
14837KMSN MSN20060720080510307/20/06 08:05:31  5-MIN KMSN 201405Z 00000KT 10SM FEW015 BKN090 21/19 A3001 780 93 1600 000/00 RMK AO2
14837KMSN MSN20060720081009607/20/06 08:10:31  5-MIN KMSN 201410Z 00000KT 10SM BKN012 21/19 A3002 780 93 1600 000/00 RMK AO2
14837KMSN MSN20060720081509607/20/06 08:15:31  5-MIN KMSN 201415Z 00000KT 10SM BKN012 21/19 A3001 780 93 1600 000/00 RMK AO2
14837KMSN MSN20060720082009607/20/06 08:20:31  5-MIN KMSN 201420Z 00000KT 10SM BKN012 21/19 A3001 780 90 1600 000/00 RMK AO2
14837KMSN MSN20060720082509607/20/06 08:25:31  5-MIN KMSN 201425Z 00000KT 10SM OVC012 21/19 A3001 780 90 1700 000/00 RMK AO2
14837KMSN MSN20060720083009607/20/06 08:30:31  5-MIN KMSN 201430Z 00000KT 10SM OVC012 21/19 A3002 780 87 1700 000/00 RMK AO2
14837KMSN MSN20060720083509607/20/06 08:35:31  5-MIN KMSN 201435Z 00000KT 10SM OVC012 21/19 A3002 770 87 1700 000/00 RMK AO2
14837KMSN MSN20060720084009607/20/06 08:40:31  5-MIN KMSN 201440Z 18003KT 10SM OVC012 22/19 A3002 770 87 1800 180/03 RMK AO2
14837KMSN MSN20060720084509607/20/06 08:45:31  5-MIN KMSN 201445Z 18003KT 10SM OVC012 21/19 A3002 770 87 1700 180/03 RMK AO2
14837KMSN MSN20060720085012507/20/06 08:50:31  5-MIN KMSN 201450Z VRB03KT 10SM OVC012 22/19 A3002 770 87 1800 VRB/03 RMK AO2 SLP160 60027 T02170194 55014
14837KMSN MSN20060720085509607/20/06 08:55:31  5-MIN KMSN 201455Z VRB04KT 10SM OVC012 22/20 A3002 770 87 1800 VRB/04 RMK AO2
14837KMSN MSN20060720090009607/20/06 09:00:31  5-MIN KMSN 201500Z 27003KT 10SM OVC012 22/19 A3002 770 84 1800 270/03 RMK AO2
14837KMSN MSN20060720090509607/20/06 09:05:31  5-MIN KMSN 201505Z VRB04KT 10SM OVC010 22/20 A3002 770 87 1800 VRB/04 RMK AO2
14837KMSN MSN20060720091010807/20/06 09:10:31  5-MIN KMSN 201510Z VRB04KT 10SM OVC010 22/19 A3002 770 84 1800 VRB/04 RMK AO2 CIG 008V012
14837KMSN MSN20060720091510807/20/06 09:15:31  5-MIN KMSN 201515Z 24005KT 10SM OVC010 22/19 A3002 770 87 1800 240/05 RMK AO2 CIG 008V012
14837KMSN MSN20060720092010807/20/06 09:20:31  5-MIN KMSN 201520Z 00000KT 10SM OVC010 22/19 A3002 770 84 1800 000/00 RMK AO2 CIG 008V013
14837KMSN MSN20060720092510807/20/06 09:25:31  5-MIN KMSN 201525Z 23006KT 10SM OVC010 22/19 A3002 780 84 1800 230/06 RMK AO2 CIG 008V013
14837KMSN MSN20060720093010807/20/06 09:30:31  5-MIN KMSN 201530Z 22004KT 10SM OVC010 22/19 A3002 770 84 1800 220/04 RMK AO2 CIG 008V013
14837KMSN MSN20060720093510807/20/06 09:35:31  5-MIN KMSN 201535Z 24005KT 10SM OVC010 22/20 A3002 770 87 1800 230/05 RMK AO2 CIG 008V013
14837KMSN MSN20060720094010807/20/06 09:40:31  5-MIN KMSN 201540Z VRB05KT 10SM OVC010 22/20 A3002 770 87 1800 VRB/05 RMK AO2 CIG 009V013
14837KMSN MSN20060720094510807/20/06 09:45:31  5-MIN KMSN 201545Z VRB04KT 10SM OVC010 22/19 A3002 770 84 1800 VRB/04 RMK AO2 CIG 009V013
14837KMSN MSN20060720095012007/20/06 09:50:31  5-MIN KMSN 201550Z VRB05KT 10SM BKN010 OVC030 22/20 A3002 770 87 1800 VRB/05 RMK AO2 SLP161 T02220200
14837KMSN MSN20060720095511007/20/06 09:55:31  5-MIN KMSN 201555Z VRB06KT 10SM BKN010 BKN022 OVC030 23/19 A3002 770 81 1900 VRB/06 RMK AO2
14837KMSN MSN20060720100011007/20/06 10:00:31  5-MIN KMSN 201600Z VRB04KT 10SM BKN010 BKN022 OVC030 23/20 A3002 770 84 1900 VRB/04 RMK AO2
14837KMSN MSN20060720100511007/20/06 10:05:31  5-MIN KMSN 201605Z 22006KT 10SM SCT010 BKN022 BKN030 23/20 A3002 770 81 2000 210/06 RMK AO2
14837KMSN MSN20060720101011007/20/06 10:10:31  5-MIN KMSN 201610Z 21005KT 10SM BKN010 BKN022 BKN030 23/20 A3002 770 81 2000 210/05 RMK AO2
14837KMSN MSN20060720101511007/20/06 10:15:31  5-MIN KMSN 201615Z 23005KT 10SM SCT010 BKN022 BKN030 23/20 A3002 770 81 2000 230/05 RMK AO2
14837KMSN MSN20060720102010307/20/06 10:20:31  5-MIN KMSN 201620Z 22006KT 10SM FEW012 OVC022 23/20 A3002 770 81 2000 220/06 RMK AO2
14837KMSN MSN20060720102510307/20/06 10:25:31  5-MIN KMSN 201625Z 23005KT 10SM FEW012 OVC024 23/20 A3002 770 81 2000 230/05 RMK AO2
14837KMSN MSN20060720103010307/20/06 10:30:31  5-MIN KMSN 201630Z VRB04KT 10SM FEW012 OVC024 23/20 A3002 770 81 2000 VRB/04 RMK AO2
14837KMSN MSN20060720103509607/20/06 10:35:31  5-MIN KMSN 201635Z VRB04KT 10SM OVC024 24/21 A3002 770 81 2000 VRB/04 RMK AO2
14837KMSN MSN20060720104009607/20/06 10:40:31  5-MIN KMSN 201640Z VRB04KT 10SM OVC024 24/20 A3002 770 78 2000 VRB/04 RMK AO2
14837KMSN MSN20060720104510307/20/06 10:45:31  5-MIN KMSN 201645Z 26005KT 10SM BKN024 OVC029 24/20 A3002 770 78 2000 260/05 RMK AO2
14837KMSN MSN20060720105012007/20/06 10:50:31  5-MIN KMSN 201650Z 23006KT 10SM BKN024 OVC029 24/20 A3002 770 78 2000 230/06 RMK AO2 SLP161 T02390200
14837KMSN MSN20060720105509607/20/06 10:55:31  5-MIN KMSN 201655Z 24004KT 10SM OVC027 24/20 A3002 770 78 2000 240/04 RMK AO2
14837KMSN MSN20060720110010307/20/06 11:00:31  5-MIN KMSN 201700Z 24005KT 10SM BKN024 OVC029 24/20 A3002 770 78 2000 240/05 RMK AO2
14837KMSN MSN20060720110509607/20/06 11:05:31  5-MIN KMSN 201705Z VRB05KT 10SM OVC027 24/20 A3002 770 78 2000 VRB/05 RMK AO2
14837KMSN MSN20060720111009607/20/06 11:10:31  5-MIN KMSN 201710Z 22004KT 10SM OVC027 24/21 A3002 770 81 2000 220/04 RMK AO2
14837KMSN MSN20060720111510307/20/06 11:15:31  5-MIN KMSN 201715Z VRB03KT 10SM FEW016 OVC027 24/21 A3002 770 81 2000 VRB/03 RMK AO2
14837KMSN MSN20060720112011007/20/06 11:20:31  5-MIN KMSN 201720Z VRB03KT 10SM SCT016 BKN025 OVC030 24/21 A3002 770 78 2100 VRB/03 RMK AO2
14837KMSN MSN20060720112510307/20/06 11:25:31  5-MIN KMSN 201725Z VRB04KT 10SM SCT016 OVC027 24/21 A3002 770 78 2100 VRB/04 RMK AO2
14837KMSN MSN20060720113010307/20/06 11:30:31  5-MIN KMSN 201730Z 31004KT 10SM FEW016 OVC027 24/20 A3002 770 78 2000 310/04 RMK AO2
14837KMSN MSN20060720113510307/20/06 11:35:31  5-MIN KMSN 201735Z 31004KT 10SM FEW016 OVC027 24/21 A3002 770 81 2000 300/04 RMK AO2
14837KMSN MSN20060720114010307/20/06 11:40:31  5-MIN KMSN 201740Z 32005KT 10SM SCT016 OVC027 24/21 A3002 770 81 2000 310/05 RMK AO2
14837KMSN MSN20060720114511007/20/06 11:45:31  5-MIN KMSN 201745Z VRB04KT 10SM FEW016 BKN021 OVC027 24/21 A3002 770 81 2000 VRB/04 RMK AO2
14837KMSN MSN20060720115014407/20/06 11:50:31  5-MIN KMSN 201750Z 29004KT 10SM BKN019 OVC027 24/21 A3002 770 81 2000 290/04 RMK AO2 SLP162 60027 T02390206 10244 20200 51015
14837KMSN MSN20060720115510307/20/06 11:55:31  5-MIN KMSN 201755Z 32006KT 10SM BKN017 OVC025 24/21 A3002 770 81 2000 310/06 RMK AO2
14837KMSN MSN20060720120010307/20/06 12:00:31  5-MIN KMSN 201800Z VRB03KT 10SM BKN017 OVC025 24/21 A3002 770 78 2100 VRB/03 RMK AO2
14837KMSN MSN20060720120509607/20/06 12:05:31  5-MIN KMSN 201805Z 30004KT 10SM OVC020 24/20 A3002 770 78 2000 290/04 RMK AO2
14837KMSN MSN20060720121009607/20/06 12:10:31  5-MIN KMSN 201810Z VRB04KT 10SM OVC018 24/20 A3002 770 78 2000 VRB/04 RMK AO2
14837KMSN MSN20060720121509607/20/06 12:15:31  5-MIN KMSN 201815Z 29003KT 10SM OVC018 24/20 A3002 770 78 2000 290/03 RMK AO2
14837KMSN MSN20060720122009607/20/06 12:20:31  5-MIN KMSN 201820Z 00000KT 10SM OVC018 24/21 A3002 770 81 2000 000/00 RMK AO2
14837KMSN MSN20060720122509607/20/06 12:25:31  5-MIN KMSN 201825Z VRB03KT 10SM OVC018 24/21 A3002 770 81 2000 VRB/03 RMK AO2
14837KMSN MSN20060720123009607/20/06 12:30:31  5-MIN KMSN 201830Z 29003KT 10SM OVC018 24/21 A3002 770 81 2000 290/03 RMK AO2
14837KMSN MSN20060720123509607/20/06 12:35:31  5-MIN KMSN 201835Z VRB03KT 10SM OVC018 24/20 A3002 770 78 2000 VRB/03 RMK AO2
14837KMSN MSN20060720124009607/20/06 12:40:31  5-MIN KMSN 201840Z VRB03KT 10SM OVC018 24/21 A3002 770 81 2000 VRB/03 RMK AO2
14837KMSN MSN20060720124509607/20/06 12:45:31  5-MIN KMSN 201845Z VRB03KT 10SM OVC018 24/21 A3002 770 81 2000 VRB/03 RMK AO2
14837KMSN MSN20060720125011307/20/06 12:50:31  5-MIN KMSN 201850Z 00000KT 10SM OVC018 24/20 A3002 770 78 2000 000/00 RMK AO2 SLP161 T02390200
14837KMSN MSN20060720125509607/20/06 12:55:31  5-MIN KMSN 201855Z 27003KT 10SM OVC018 24/21 A3002 770 81 2000 270/03 RMK AO2
14837KMSN MSN20060720130009607/20/06 13:00:31  5-MIN KMSN 201900Z 00000KT 10SM OVC020 24/21 A3002 770 81 2000 000/00 RMK AO2
14837KMSN MSN20060720130509607/20/06 13:05:31  5-MIN KMSN 201905Z 21003KT 10SM OVC020 24/21 A3002 770 81 2000 210/03 RMK AO2
14837KMSN MSN20060720131009607/20/06 13:10:31  5-MIN KMSN 201910Z 00000KT 10SM OVC020 24/21 A3002 770 81 2000 000/00 RMK AO2
14837KMSN MSN20060720131509607/20/06 13:15:31  5-MIN KMSN 201915Z 00000KT 10SM OVC020 24/21 A3002 770 78 2100 000/00 RMK AO2
14837KMSN MSN20060720132009607/20/06 13:20:31  5-MIN KMSN 201920Z 20004KT 10SM OVC020 24/21 A3002 780 78 2100 190/04 RMK AO2
14837KMSN MSN20060720132509607/20/06 13:25:31  5-MIN KMSN 201925Z 20003KT 10SM OVC020 24/21 A3002 780 78 2100 200/03 RMK AO2
14837KMSN MSN20060720133009607/20/06 13:30:31  5-MIN KMSN 201930Z 00000KT 10SM OVC020 24/21 A3001 780 78 2100 000/00 RMK AO2
14837KMSN MSN20060720133509607/20/06 13:35:31  5-MIN KMSN 201935Z 20005KT 10SM OVC020 24/21 A3001 780 78 2100 200/05 RMK AO2
14837KMSN MSN20060720134009607/20/06 13:40:31  5-MIN KMSN 201940Z 20005KT 10SM OVC020 24/21 A3001 780 78 2100 200/05 RMK AO2
14837KMSN MSN20060720134509607/20/06 13:45:31  5-MIN KMSN 201945Z 20004KT 10SM OVC020 24/21 A3001 780 78 2100 200/04 RMK AO2
14837KMSN MSN20060720135012007/20/06 13:50:31  5-MIN KMSN 201950Z 23003KT 10SM BKN022 OVC026 24/21 A3001 780 78 2100 230/03 RMK AO2 SLP158 T02440206
14837KMSN MSN20060720135510307/20/06 13:55:31  5-MIN KMSN 201955Z 24003KT 10SM BKN022 OVC026 24/21 A3001 780 78 2100 240/03 RMK AO2
14837KMSN MSN20060720140010307/20/06 14:00:31  5-MIN KMSN 202000Z 22003KT 10SM BKN022 OVC026 24/21 A3002 780 78 2100 220/03 RMK AO2
14837KMSN MSN20060720140510307/20/06 14:05:31  5-MIN KMSN 202005Z 00000KT 10SM BKN022 OVC026 24/21 A3002 780 81 2000 000/00 RMK AO2
14837KMSN MSN20060720141009607/20/06 14:10:31  5-MIN KMSN 202010Z 00000KT 10SM OVC022 24/21 A3002 780 78 2100 000/00 RMK AO2
14837KMSN MSN20060720141509607/20/06 14:15:31  5-MIN KMSN 202015Z 21003KT 10SM OVC022 24/21 A3002 770 78 2100 210/03 RMK AO2
14837KMSN MSN20060720142009607/20/06 14:20:31  5-MIN KMSN 202020Z 00000KT 10SM OVC022 24/21 A3002 770 78 2100 000/00 RMK AO2
14837KMSN MSN20060720142510307/20/06 14:25:31  5-MIN KMSN 202025Z 00000KT 10SM BKN022 OVC028 24/21 A3002 780 78 2100 000/00 RMK AO2
14837KMSN MSN20060720143010307/20/06 14:30:31  5-MIN KMSN 202030Z 00000KT 10SM BKN024 OVC034 25/21 A3001 780 79 2200 000/00 RMK AO2
14837KMSN MSN20060720143511007/20/06 14:35:31  5-MIN KMSN 202035Z 16004KT 10SM FEW020 BKN024 OVC036 26/21 A3001 780 76 2200 160/04 RMK AO2
14837KMSN MSN20060720144010307/20/06 14:40:31  5-MIN KMSN 202040Z VRB03KT 10SM SCT024 BKN036 26/21 A3001 780 76 2200 VRB/03 RMK AO2
14837KMSN MSN20060720144510307/20/06 14:45:31  5-MIN KMSN 202045Z VRB03KT 10SM SCT024 SCT036 26/21 A3001 780 73 2300 VRB/03 RMK AO2
14837KMSN MSN20060720145012607/20/06 14:50:31  5-MIN KMSN 202050Z 16003KT 10SM FEW024 SCT038 26/21 A3001 780 73 2300 160/03 RMK AO2 SLP157 T02610211 53001
14837KMSN MSN20060720145509607/20/06 14:55:31  5-MIN KMSN 202055Z 00000KT 10SM FEW027 26/21 A3001 780 73 2300 000/00 RMK AO2
14837KMSN MSN20060720150009607/20/06 15:00:31  5-MIN KMSN 202100Z 12003KT 10SM FEW036 26/21 A3001 780 73 2300 120/03 RMK AO2
14837KMSN MSN20060720150509607/20/06 15:05:31  5-MIN KMSN 202105Z VRB03KT 10SM FEW024 26/21 A3001 790 73 2300 VRB/03 RMK AO2
14837KMSN MSN20060720151009607/20/06 15:10:31  5-MIN KMSN 202110Z 09003KT 10SM FEW024 27/21 A3000 790 71 2300 090/03 RMK AO2
14837KMSN MSN20060720151509607/20/06 15:15:31  5-MIN KMSN 202115Z 00000KT 10SM FEW024 26/21 A3000 790 73 2300 000/00 RMK AO2
14837KMSN MSN20060720152009607/20/06 15:20:31  5-MIN KMSN 202120Z 00000KT 10SM FEW024 27/21 A3000 790 69 2300 000/00 RMK AO2
14837KMSN MSN20060720152509607/20/06 15:25:31  5-MIN KMSN 202125Z 21004KT 10SM FEW024 26/21 A3001 790 71 2300 210/04 RMK AO2
14837KMSN MSN20060720153009607/20/06 15:30:31  5-MIN KMSN 202130Z 00000KT 10SM FEW024 26/21 A3001 790 71 2300 000/00 RMK AO2
14837KMSN MSN20060720153509607/20/06 15:35:31  5-MIN KMSN 202135Z 00000KT 10SM FEW024 27/21 A3000 790 69 2300 000/00 RMK AO2
14837KMSN MSN20060720154009607/20/06 15:40:31  5-MIN KMSN 202140Z 19003KT 10SM FEW024 26/21 A3001 790 71 2300 190/03 RMK AO2
14837KMSN MSN20060720154509607/20/06 15:45:31  5-MIN KMSN 202145Z VRB03KT 10SM FEW024 27/21 A3000 790 69 2400 VRB/03 RMK AO2
14837KMSN MSN20060720155011307/20/06 15:50:31  5-MIN KMSN 202150Z 15004KT 10SM FEW028 27/21 A3000 790 69 2400 150/04 RMK AO2 SLP155 T02670206
14837KMSN MSN20060720155509607/20/06 15:55:31  5-MIN KMSN 202155Z 16003KT 10SM FEW034 27/21 A3000 790 69 2400 160/03 RMK AO2
14837KMSN MSN20060720160009607/20/06 16:00:31  5-MIN KMSN 202200Z 15004KT 10SM FEW034 27/21 A3000 790 69 2400 150/04 RMK AO2
14837KMSN MSN20060720160509607/20/06 16:05:31  5-MIN KMSN 202205Z VRB04KT 10SM SCT032 27/21 A3000 790 69 2400 VRB/04 RMK AO2
14837KMSN MSN20060720161010307/20/06 16:10:31  5-MIN KMSN 202210Z VRB03KT 10SM SCT028 SCT034 27/21 A3000 790 69 2400 VRB/03 RMK AO2
14837KMSN MSN20060720161510307/20/06 16:15:31  5-MIN KMSN 202215Z VRB05KT 10SM SCT028 SCT034 27/21 A3000 790 69 2400 VRB/05 RMK AO2
14837KMSN MSN20060720162010307/20/06 16:20:31  5-MIN KMSN 202220Z 18005KT 10SM SCT028 SCT034 27/21 A3000 790 66 2400 180/05 RMK AO2
14837KMSN MSN20060720162510307/20/06 16:25:31  5-MIN KMSN 202225Z 19005KT 10SM SCT028 SCT034 27/21 A3000 790 69 2400 190/05 RMK AO2
14837KMSN MSN20060720163010307/20/06 16:30:31  5-MIN KMSN 202230Z 23004KT 10SM SCT028 SCT034 27/21 A3000 790 66 2400 230/04 RMK AO2
14837KMSN MSN20060720163510307/20/06 16:35:31  5-MIN KMSN 202235Z 21003KT 10SM SCT028 SCT034 27/21 A3000 790 69 2400 210/03 RMK AO2
14837KMSN MSN20060720164010307/20/06 16:40:31  5-MIN KMSN 202240Z 00000KT 10SM SCT028 SCT034 27/21 A3000 790 66 2400 000/00 RMK AO2
14837KMSN MSN20060720164510307/20/06 16:45:31  5-MIN KMSN 202245Z 18003KT 10SM SCT028 SCT034 28/21 A2999 800 66 2500 180/03 RMK AO2
14837KMSN MSN20060720165012007/20/06 16:50:31  5-MIN KMSN 202250Z VRB03KT 10SM SCT028 SCT034 28/21 A2999 800 66 2500 VRB/03 RMK AO2 SLP151 T02780211
14837KMSN MSN20060720165510307/20/06 16:55:31  5-MIN KMSN 202255Z 23003KT 10SM FEW028 SCT034 27/21 A2999 800 66 2400 230/03 RMK AO2
14837KMSN MSN20060720170010307/20/06 17:00:31  5-MIN KMSN 202300Z 00000KT 10SM FEW028 SCT034 27/21 A2999 800 66 2400 000/00 RMK AO2
14837KMSN MSN20060720170510307/20/06 17:05:31  5-MIN KMSN 202305Z 25003KT 10SM FEW028 SCT034 27/21 A2999 800 66 2400 250/03 RMK AO2
14837KMSN MSN20060720171009607/20/06 17:10:31  5-MIN KMSN 202310Z 25003KT 10SM FEW034 27/21 A2999 800 66 2400 250/03 RMK AO2
14837KMSN MSN20060720171509607/20/06 17:15:31  5-MIN KMSN 202315Z 23003KT 10SM FEW034 27/21 A2999 800 66 2400 230/03 RMK AO2
14837KMSN MSN20060720172009607/20/06 17:20:31  5-MIN KMSN 202320Z 22003KT 10SM FEW034 27/21 A2999 800 66 2400 220/03 RMK AO2
14837KMSN MSN20060720172509607/20/06 17:25:31  5-MIN KMSN 202325Z 23003KT 10SM FEW034 27/21 A2999 800 69 2400 230/03 RMK AO2
14837KMSN MSN20060720173009607/20/06 17:30:31  5-MIN KMSN 202330Z 23003KT 10SM FEW034 27/21 A2999 800 66 2400 230/03 RMK AO2
14837KMSN MSN20060720173509607/20/06 17:35:31  5-MIN KMSN 202335Z 23003KT 10SM FEW034 27/21 A2999 800 66 2400 230/03 RMK AO2
14837KMSN MSN20060720174009607/20/06 17:40:31  5-MIN KMSN 202340Z 23003KT 10SM FEW034 27/21 A3000 790 69 2400 230/03 RMK AO2
14837KMSN MSN20060720174509607/20/06 17:45:31  5-MIN KMSN 202345Z 00000KT 10SM FEW034 27/21 A3000 790 66 2400 000/00 RMK AO2
14837KMSN MSN20060720175013107/20/06 17:50:31  5-MIN KMSN 202350Z 25003KT 10SM FEW034 27/21 A3000 790 66 2400 250/03 RMK AO2 SLP154 T02720206 10278 20239 58004
14837KMSN MSN20060720175509307/20/06 17:55:31  5-MIN KMSN 202355Z 23003KT 10SM CLR 27/21 A3000 790 71 2400 230/03 RMK AO2
14837KMSN MSN20060720180009307/20/06 18:00:31  5-MIN KMSN 210000Z 00000KT 10SM CLR 27/21 A3000 790 69 2400 000/00 RMK AO2
14837KMSN MSN20060720180509607/20/06 18:05:31  5-MIN KMSN 210005Z 00000KT 10SM FEW034 27/21 A3000 790 69 2400 000/00 RMK AO2
14837KMSN MSN20060720181009607/20/06 18:10:31  5-MIN KMSN 210010Z 23003KT 10SM FEW034 27/21 A3000 790 71 2400 230/03 RMK AO2
14837KMSN MSN20060720181509607/20/06 18:15:31  5-MIN KMSN 210015Z 00000KT 10SM FEW034 26/21 A3000 790 73 2300 000/00 RMK AO2
14837KMSN MSN20060720182009607/20/06 18:20:31  5-MIN KMSN 210020Z 00000KT 10SM FEW034 26/21 A3000 790 73 2300 000/00 RMK AO2
14837KMSN MSN20060720182509607/20/06 18:25:31  5-MIN KMSN 210025Z 00000KT 10SM FEW034 26/21 A3000 790 76 2200 000/00 RMK AO2
14837KMSN MSN20060720183009607/20/06 18:30:31  5-MIN KMSN 210030Z 22003KT 10SM FEW034 26/21 A3000 790 73 2300 220/03 RMK AO2
14837KMSN MSN20060720183509607/20/06 18:35:31  5-MIN KMSN 210035Z 23003KT 10SM FEW034 26/21 A3000 790 73 2300 220/03 RMK AO2
14837KMSN MSN20060720184009607/20/06 18:40:31  5-MIN KMSN 210040Z 21003KT 10SM FEW110 26/21 A2999 800 73 2300 210/03 RMK AO2
14837KMSN MSN20060720184509607/20/06 18:45:31  5-MIN KMSN 210045Z 19004KT 10SM FEW110 26/21 A2999 800 73 2300 190/04 RMK AO2
14837KMSN MSN20060720185011307/20/06 18:50:31  5-MIN KMSN 210050Z 19004KT 10SM FEW110 26/21 A3000 790 73 2300 190/04 RMK AO2 SLP153 T02610211
14837KMSN MSN20060720185509607/20/06 18:55:31  5-MIN KMSN 210055Z 00000KT 10SM FEW110 26/21 A3000 790 76 2200 000/00 RMK AO2
14837KMSN MSN20060720190009607/20/06 19:00:31  5-MIN KMSN 210100Z 00000KT 10SM FEW110 26/21 A3000 790 76 2200 000/00 RMK AO2
14837KMSN MSN20060720190509607/20/06 19:05:31  5-MIN KMSN 210105Z 00000KT 10SM FEW110 25/21 A3000 800 79 2200 000/00 RMK AO2
14837KMSN MSN20060720191009607/20/06 19:10:31  5-MIN KMSN 210110Z 18004KT 10SM FEW110 26/22 A3000 790 79 2200 180/04 RMK AO2
14837KMSN MSN20060720191509607/20/06 19:15:31  5-MIN KMSN 210115Z 00000KT 10SM FEW110 25/22 A3000 790 81 2200 000/00 RMK AO2
14837KMSN MSN20060720192009607/20/06 19:20:31  5-MIN KMSN 210120Z 00000KT 10SM FEW110 26/22 A3000 790 79 2200 000/00 RMK AO2
14837KMSN MSN20060720192509607/20/06 19:25:31  5-MIN KMSN 210125Z 00000KT 10SM FEW110 25/22 A2999 800 81 2200 000/00 RMK AO2
14837KMSN MSN20060720193009607/20/06 19:30:31  5-MIN KMSN 210130Z 00000KT 10SM FEW110 25/22 A2999 800 81 2200 000/00 RMK AO2
14837KMSN MSN20060720193509607/20/06 19:35:31  5-MIN KMSN 210135Z 00000KT 10SM FEW110 25/22 A2999 800 81 2200 000/00 RMK AO2
14837KMSN MSN20060720194009607/20/06 19:40:31  5-MIN KMSN 210140Z 00000KT 10SM FEW110 25/22 A2999 800 81 2200 000/00 RMK AO2
14837KMSN MSN20060720194509607/20/06 19:45:31  5-MIN KMSN 210145Z 20003KT 10SM FEW110 25/22 A2999 800 81 2200 200/03 RMK AO2
14837KMSN MSN20060720195011307/20/06 19:50:31  5-MIN KMSN 210150Z 00000KT 10SM FEW110 25/22 A2999 800 81 2200 000/00 RMK AO2 SLP151 T02500217
14837KMSN MSN20060720195509307/20/06 19:55:31  5-MIN KMSN 210155Z 00000KT 10SM CLR 24/22 A2999 800 84 2100 000/00 RMK AO2
14837KMSN MSN20060720200009307/20/06 20:00:31  5-MIN KMSN 210200Z 20003KT 10SM CLR 24/22 A2999 800 84 2100 200/03 RMK AO2
14837KMSN MSN20060720200509307/20/06 20:05:31  5-MIN KMSN 210205Z 00000KT 10SM CLR 24/22 A3000 800 84 2100 000/00 RMK AO2
14837KMSN MSN20060720201009307/20/06 20:10:31  5-MIN KMSN 210210Z 00000KT 10SM CLR 24/22 A3000 790 87 2000 000/00 RMK AO2
14837KMSN MSN20060720201509307/20/06 20:15:31  5-MIN KMSN 210215Z 00000KT 10SM CLR 23/22 A3000 790 90 2000 000/00 RMK AO2
14837KMSN MSN20060720202009207/20/06 20:20:31  5-MIN KMSN 210220Z 00000KT 9SM CLR 23/21 A3000 790 90 1900 000/00 RMK AO2
14837KMSN MSN20060720202509207/20/06 20:25:31  5-MIN KMSN 210225Z 00000KT 9SM CLR 23/22 A3001 790 90 2000 000/00 RMK AO2
14837KMSN MSN20060720203009307/20/06 20:30:31  5-MIN KMSN 210230Z 21003KT 10SM CLR 23/22 A3001 780 93 1900 210/03 RMK AO2
14837KMSN MSN20060720203509307/20/06 20:35:31  5-MIN KMSN 210235Z 00000KT 10SM CLR 23/22 A3001 780 90 2000 000/00 RMK AO2
14837KMSN MSN20060720204009307/20/06 20:40:31  5-MIN KMSN 210240Z 00000KT 10SM CLR 24/22 A3001 780 87 2000 000/00 RMK AO2
14837KMSN MSN20060720204509207/20/06 20:45:31  5-MIN KMSN 210245Z 00000KT 9SM CLR 23/21 A3002 780 90 1900 000/00 RMK AO2
14837KMSN MSN20060720205011607/20/06 20:50:31  5-MIN KMSN 210250Z 20003KT 10SM CLR 23/22 A3002 770 90 2000 200/03 RMK AO2 SLP160 T02330217 55003
14837KMSN MSN20060720205509307/20/06 20:55:31  5-MIN KMSN 210255Z 00000KT 10SM CLR 23/22 A3002 770 90 2000 000/00 RMK AO2
14837KMSN MSN20060720210009307/20/06 21:00:31  5-MIN KMSN 210300Z 00000KT 10SM CLR 23/21 A3002 770 90 1900 000/00 RMK AO2
14837KMSN MSN20060720210509307/20/06 21:05:31  5-MIN KMSN 210305Z 00000KT 10SM CLR 23/22 A3002 770 90 2000 000/00 RMK AO2
14837KMSN MSN20060720211009207/20/06 21:10:31  5-MIN KMSN 210310Z 00000KT 9SM CLR 22/21 A3002 770 93 1800 000/00 RMK AO2
14837KMSN MSN20060720211509207/20/06 21:15:31  5-MIN KMSN 210315Z 00000KT 9SM CLR 22/21 A3002 770 93 1800 000/00 RMK AO2
14837KMSN MSN20060720212009207/20/06 21:20:31  5-MIN KMSN 210320Z 00000KT 9SM CLR 22/21 A3002 770 90 1800 000/00 RMK AO2
14837KMSN MSN20060720212509207/20/06 21:25:31  5-MIN KMSN 210325Z 00000KT 9SM CLR 22/21 A3002 770 90 1800 000/00 RMK AO2
14837KMSN MSN20060720213009207/20/06 21:30:31  5-MIN KMSN 210330Z 00000KT 9SM CLR 22/21 A3002 770 93 1800 000/00 RMK AO2
14837KMSN MSN20060720213509207/20/06 21:35:31  5-MIN KMSN 210335Z 00000KT 8SM CLR 22/21 A3002 770 93 1800 000/00 RMK AO2
14837KMSN MSN20060720214009207/20/06 21:40:31  5-MIN KMSN 210340Z 00000KT 7SM CLR 22/21 A3002 770 93 1800 000/00 RMK AO2
14837KMSN MSN20060720214509207/20/06 21:45:31  5-MIN KMSN 210345Z 25003KT 7SM CLR 22/21 A3002 770 97 1800 250/03 RMK AO2
14837KMSN MSN20060720215010907/20/06 21:50:31  5-MIN KMSN 210350Z 00000KT 8SM CLR 21/21 A3003 770 97 1700 000/00 RMK AO2 SLP164 T02110206
14837KMSN MSN20060720215509207/20/06 21:55:31  5-MIN KMSN 210355Z 00000KT 8SM CLR 21/21 A3003 770 97 1700 000/00 RMK AO2
14837KMSN MSN20060720220009207/20/06 22:00:31  5-MIN KMSN 210400Z 29003KT 8SM CLR 21/21 A3003 760 97 1700 290/03 RMK AO2
14837KMSN MSN20060720220509207/20/06 22:05:31  5-MIN KMSN 210405Z 00000KT 8SM CLR 21/21 A3003 760 97 1700 000/00 RMK AO2
14837KMSN MSN20060720221009207/20/06 22:10:31  5-MIN KMSN 210410Z 29003KT 8SM CLR 21/21 A3003 760 97 1700 290/03 RMK AO2
14837KMSN MSN20060720221509207/20/06 22:15:31  5-MIN KMSN 210415Z 28003KT 8SM CLR 21/21 A3003 760 97 1700 280/03 RMK AO2
14837KMSN MSN20060720222009207/20/06 22:20:31  5-MIN KMSN 210420Z 00000KT 8SM CLR 21/20 A3003 770 93 1700 000/00 RMK AO2
14837KMSN MSN20060720222509207/20/06 22:25:31  5-MIN KMSN 210425Z 00000KT 8SM CLR 21/20 A3003 760 93 1700 000/00 RMK AO2
14837KMSN MSN20060720223009207/20/06 22:30:31  5-MIN KMSN 210430Z 00000KT 8SM CLR 21/20 A3003 760 93 1700 000/00 RMK AO2
14837KMSN MSN20060720223509207/20/06 22:35:31  5-MIN KMSN 210435Z 00000KT 8SM CLR 21/20 A3003 760 97 1600 000/00 RMK AO2
14837KMSN MSN20060720224009207/20/06 22:40:31  5-MIN KMSN 210440Z 26003KT 8SM CLR 21/20 A3003 760 97 1600 260/03 RMK AO2
14837KMSN MSN20060720224509207/20/06 22:45:31  5-MIN KMSN 210445Z 00000KT 8SM CLR 21/20 A3003 760 93 1700 000/00 RMK AO2
14837KMSN MSN20060720225010907/20/06 22:50:31  5-MIN KMSN 210450Z 00000KT 8SM CLR 21/20 A3003 760 93 1700 000/00 RMK AO2 SLP163 T02110200
14837KMSN MSN20060720225509307/20/06 22:55:31  5-MIN KMSN 210455Z 00000KT 10SM CLR 21/19 A3003 760 90 1700 000/00 RMK AO2
14837KMSN MSN20060720230009307/20/06 23:00:31  5-MIN KMSN 210500Z 00000KT 10SM CLR 21/19 A3003 770 90 1700 000/00 RMK AO2
14837KMSN MSN20060720230509207/20/06 23:05:31  5-MIN KMSN 210505Z 00000KT 7SM CLR 21/19 A3003 770 93 1600 000/00 RMK AO2
14837KMSN MSN20060720231009507/20/06 23:10:31  5-MIN KMSN 210510Z 00000KT 6SM BR CLR 19/19 A3002 770 97 1500 000/00 RMK AO2
14837KMSN MSN20060720231509207/20/06 23:15:31  5-MIN KMSN 210515Z 00000KT 8SM CLR 20/19 A3002 770 93 1600 000/00 RMK AO2
14837KMSN MSN20060720232009307/20/06 23:20:31  5-MIN KMSN 210520Z 00000KT 10SM CLR 20/19 A3002 770 97 1600 000/00 RMK AO2
14837KMSN MSN20060720232509207/20/06 23:25:31  5-MIN KMSN 210525Z 00000KT 9SM CLR 20/19 A3003 770 93 1600 000/00 RMK AO2
14837KMSN MSN20060720233009307/20/06 23:30:31  5-MIN KMSN 210530Z 00000KT 10SM CLR 19/19 A3003 760 97 1500 000/00 RMK AO2
14837KMSN MSN20060720233509307/20/06 23:35:31  5-MIN KMSN 210535Z 00000KT 10SM CLR 20/18 A3003 770 90 1600 000/00 RMK AO2
14837KMSN MSN20060720234009307/20/06 23:40:31  5-MIN KMSN 210540Z 00000KT 10SM CLR 20/18 A3003 770 90 1600 000/00 RMK AO2
14837KMSN MSN20060720234509307/20/06 23:45:31  5-MIN KMSN 210545Z 00000KT 10SM CLR 20/18 A3003 770 90 1600 000/00 RMK AO2
14837KMSN MSN20060720235013807/20/06 23:50:31  5-MIN KMSN 210550Z 00000KT 10SM CLR 19/18 A3003 770 93 1500 000/00 RMK AO2 SLP164 T01940183 10267 20194 402780189 53006
14837KMSN MSN20060720235509207/20/06 23:55:31  5-MIN KMSN 210555Z 00000KT 8SM CLR 19/18 A3003 770 97 1400 000/00 RMK AO2
14837KMSN MSN20060721000009507/21/06 00:00:38  5-MIN KMSN 210600Z 00000KT 4SM BR CLR 19/18 A3002 770 93 1500 000/00 RMK AO2
14837KMSN MSN20060721000509507/21/06 00:05:31  5-MIN KMSN 210605Z 02005KT 4SM BR CLR 19/18 A3002 770 97 1400 020/05 RMK AO2
14837KMSN MSN20060721001009207/21/06 00:10:31  5-MIN KMSN 210610Z 04003KT 8SM CLR 19/18 A3002 770 97 1400 040/03 RMK AO2
14837KMSN MSN20060721001509307/21/06 00:15:38  5-MIN KMSN 210615Z 01003KT 10SM CLR 19/18 A3003 770 97 1400 360/03 RMK AO2
14837KMSN MSN20060721002009207/21/06 00:20:31  5-MIN KMSN 210620Z 01004KT 9SM CLR 19/18 A3003 770 97 1400 360/04 RMK AO2
14837KMSN MSN20060721002509207/21/06 00:25:31  5-MIN KMSN 210625Z 01003KT 9SM CLR 19/18 A3003 770 93 1500 010/03 RMK AO2
14837KMSN MSN20060721003009207/21/06 00:30:31  5-MIN KMSN 210630Z 01003KT 9SM CLR 19/18 A3002 770 93 1500 010/03 RMK AO2
14837KMSN MSN20060721003509207/21/06 00:35:31  5-MIN KMSN 210635Z 03004KT 9SM CLR 19/18 A3002 770 90 1500 030/04 RMK AO2
14837KMSN MSN20060721004009307/21/06 00:40:31  5-MIN KMSN 210640Z 02005KT 10SM CLR 19/18 A3003 760 90 1500 020/05 RMK AO2
14837KMSN MSN20060721004509307/21/06 00:45:31  5-MIN KMSN 210645Z 02005KT 10SM CLR 20/18 A3003 760 87 1600 020/05 RMK AO2
14837KMSN MSN20060721005010907/21/06 00:50:31  5-MIN KMSN 210650Z 05008KT 9SM CLR 20/18 A3003 760 90 1600 050/08 RMK AO2 SLP166 T02000183
14837KMSN MSN20060721005509207/21/06 00:55:31  5-MIN KMSN 210655Z 06009KT 7SM CLR 21/19 A3004 760 90 1700 060/09 RMK AO2
14837KMSN MSN20060723183009607/23/06 18:30:31  5-MIN KMSN 240030Z 18009KT 10SM FEW055 26/16 A2990 880 55 2300 180/09 RMK AO2
14837KMSN MSN20060723183509607/23/06 18:35:31  5-MIN KMSN 240035Z 18010KT 10SM FEW055 26/16 A2990 880 55 2300 180/10 RMK AO2
14837KMSN MSN20060723184009607/23/06 18:40:31  5-MIN KMSN 240040Z 19010KT 10SM FEW055 26/16 A2991 880 55 2300 190/10 RMK AO2
14837KMSN MSN20060723184509607/23/06 18:45:31  5-MIN KMSN 240045Z 19008KT 10SM FEW055 26/16 A2991 880 55 2300 190/08 RMK AO2
14837KMSN MSN20060723185011307/23/06 18:50:31  5-MIN KMSN 240050Z 18008KT 10SM FEW055 25/16 A2991 880 57 2300 180/08 RMK AO2 SLP123 T02500161
14837KMSN MSN20060723185509307/23/06 18:55:31  5-MIN KMSN 240055Z 19010KT 10SM CLR 25/16 A2991 880 57 2300 190/10 RMK AO2
14837KMSN MSN20060723190009307/23/06 19:00:31  5-MIN KMSN 240100Z 19009KT 10SM CLR 25/16 A2991 880 57 2300 190/09 RMK AO2
14837KMSN MSN20060723190509307/23/06 19:05:31  5-MIN KMSN 240105Z 19008KT 10SM CLR 25/16 A2991 880 57 2300 190/08 RMK AO2
14837KMSN MSN20060723191009307/23/06 19:10:31  5-MIN KMSN 240110Z 18008KT 10SM CLR 25/16 A2991 880 57 2300 180/08 RMK AO2
14837KMSN MSN20060723191509307/23/06 19:15:31  5-MIN KMSN 240115Z 18009KT 10SM CLR 25/16 A2991 880 57 2300 180/09 RMK AO2
14837KMSN MSN20060723192009307/23/06 19:20:31  5-MIN KMSN 240120Z 19008KT 10SM CLR 24/16 A2991 880 59 2200 190/08 RMK AO2
14837KMSN MSN20060723192509307/23/06 19:25:31  5-MIN KMSN 240125Z 19008KT 10SM CLR 24/16 A2990 880 59 2200 190/08 RMK AO2
14837KMSN MSN20060723193009307/23/06 19:30:31  5-MIN KMSN 240130Z 18008KT 10SM CLR 24/17 A2991 880 61 2200 180/08 RMK AO2
14837KMSN MSN20060723193509307/23/06 19:35:31  5-MIN KMSN 240135Z 18010KT 10SM CLR 24/17 A2991 880 61 2200 180/10 RMK AO2
14837KMSN MSN20060723194009307/23/06 19:40:31  5-MIN KMSN 240140Z 19009KT 10SM CLR 24/17 A2991 880 61 2200 190/09 RMK AO2
14837KMSN MSN20060723194509307/23/06 19:45:31  5-MIN KMSN 240145Z 19008KT 10SM CLR 24/17 A2991 880 63 2100 180/08 RMK AO2
14837KMSN MSN20060723195011007/23/06 19:50:31  5-MIN KMSN 240150Z 19007KT 10SM CLR 24/17 A2991 880 63 2100 180/07 RMK AO2 SLP123 T02390167
14837KMSN MSN20060723195509307/23/06 19:55:31  5-MIN KMSN 240155Z 19009KT 10SM CLR 24/17 A2991 880 63 2100 180/09 RMK AO2
14837KMSN MSN20060723200009307/23/06 20:00:31  5-MIN KMSN 240200Z 19008KT 10SM CLR 24/17 A2991 870 63 2100 190/08 RMK AO2
14837KMSN MSN20060723200509307/23/06 20:05:31  5-MIN KMSN 240205Z 19009KT 10SM CLR 24/17 A2991 870 63 2100 190/09 RMK AO2
14837KMSN MSN20060723201009307/23/06 20:10:31  5-MIN KMSN 240210Z 19008KT 10SM CLR 24/17 A2991 870 63 2100 180/08 RMK AO2
14837KMSN MSN20060723201509307/23/06 20:15:31  5-MIN KMSN 240215Z 19008KT 10SM CLR 23/17 A2991 870 66 2100 190/08 RMK AO2
14837KMSN MSN20060723202009307/23/06 20:20:31  5-MIN KMSN 240220Z 18007KT 10SM CLR 23/17 A2991 870 66 2100 180/07 RMK AO2
14837KMSN MSN20060723202509307/23/06 20:25:31  5-MIN KMSN 240225Z 17006KT 10SM CLR 23/17 A2992 870 68 2100 170/06 RMK AO2
14837KMSN MSN20060723203009307/23/06 20:30:31  5-MIN KMSN 240230Z 18007KT 10SM CLR 23/17 A2992 870 70 2000 180/07 RMK AO2
14837KMSN MSN20060723203509307/23/06 20:35:31  5-MIN KMSN 240235Z 18006KT 10SM CLR 23/17 A2992 870 70 2000 180/06 RMK AO2
14837KMSN MSN20060723204009307/23/06 20:40:31  5-MIN KMSN 240240Z 18007KT 10SM CLR 23/17 A2992 870 70 2000 180/07 RMK AO2
14837KMSN MSN20060723204509307/23/06 20:45:31  5-MIN KMSN 240245Z 18006KT 10SM CLR 23/17 A2992 870 70 2000 180/06 RMK AO2
14837KMSN MSN20060723205011607/23/06 20:50:31  5-MIN KMSN 240250Z 18008KT 10SM CLR 23/17 A2991 870 70 2000 180/08 RMK AO2 SLP125 T02280172 56011
14837KMSN MSN20060723205509307/23/06 20:55:31  5-MIN KMSN 240255Z 19007KT 10SM CLR 23/17 A2991 870 70 2000 190/07 RMK AO2
14837KMSN MSN20060723210009307/23/06 21:00:31  5-MIN KMSN 240300Z 19007KT 10SM CLR 23/17 A2991 870 70 2000 190/07 RMK AO2
14837KMSN MSN20060723210509307/23/06 21:05:31  5-MIN KMSN 240305Z 19009KT 10SM CLR 23/17 A2991 870 68 2000 180/09 RMK AO2
14837KMSN MSN20060723211009307/23/06 21:10:31  5-MIN KMSN 240310Z 19008KT 10SM CLR 23/17 A2991 870 68 2000 190/08 RMK AO2
14837KMSN MSN20060723211509307/23/06 21:15:31  5-MIN KMSN 240315Z 19008KT 10SM CLR 23/17 A2991 880 68 2000 190/08 RMK AO2
14837KMSN MSN20060723212009307/23/06 21:20:31  5-MIN KMSN 240320Z 19008KT 10SM CLR 23/17 A2991 880 68 2000 190/08 RMK AO2
14837KMSN MSN20060723212509307/23/06 21:25:31  5-MIN KMSN 240325Z 19007KT 10SM CLR 23/17 A2991 870 68 2000 190/07 RMK AO2
14837KMSN MSN20060723213009307/23/06 21:30:31  5-MIN KMSN 240330Z 19007KT 10SM CLR 23/17 A2991 870 68 2000 190/07 RMK AO2
14837KMSN MSN20060723213509307/23/06 21:35:31  5-MIN KMSN 240335Z 19007KT 10SM CLR 23/17 A2991 870 68 2000 180/07 RMK AO2
14837KMSN MSN20060723214009307/23/06 21:40:31  5-MIN KMSN 240340Z 19007KT 10SM CLR 23/17 A2991 870 68 2000 180/07 RMK AO2
14837KMSN MSN20060723214509307/23/06 21:45:31  5-MIN KMSN 240345Z 18006KT 10SM CLR 23/17 A2991 870 68 2000 180/06 RMK AO2
14837KMSN MSN20060723215011007/23/06 21:50:31  5-MIN KMSN 240350Z 18006KT 10SM CLR 22/17 A2991 870 70 1900 180/06 RMK AO2 SLP124 T02220167
14837KMSN MSN20060723215509307/23/06 21:55:31  5-MIN KMSN 240355Z 18006KT 10SM CLR 22/17 A2991 870 70 1900 180/06 RMK AO2
14837KMSN MSN20060723220009307/23/06 22:00:31  5-MIN KMSN 240400Z 18006KT 10SM CLR 22/17 A2991 870 73 1900 180/06 RMK AO2
14837KMSN MSN20060723220509307/23/06 22:05:31  5-MIN KMSN 240405Z 18006KT 10SM CLR 22/17 A2991 870 73 1900 180/06 RMK AO2
14837KMSN MSN20060723221009307/23/06 22:10:31  5-MIN KMSN 240410Z 18007KT 10SM CLR 22/17 A2991 870 73 1900 180/07 RMK AO2
14837KMSN MSN20060723221509607/23/06 22:15:31  5-MIN KMSN 240415Z 18007KT 10SM FEW060 22/17 A2991 870 73 1900 180/07 RMK AO2
14837KMSN MSN20060723222009607/23/06 22:20:31  5-MIN KMSN 240420Z 18006KT 10SM FEW060 22/17 A2991 870 73 1900 180/06 RMK AO2
14837KMSN MSN20060723222509607/23/06 22:25:31  5-MIN KMSN 240425Z 18006KT 10SM FEW055 22/17 A2991 880 73 1900 180/06 RMK AO2
14837KMSN MSN20060723223009607/23/06 22:30:31  5-MIN KMSN 240430Z 18007KT 10SM FEW060 22/17 A2991 880 73 1900 180/07 RMK AO2
14837KMSN MSN20060723223509607/23/06 22:35:31  5-MIN KMSN 240435Z 18007KT 10SM FEW060 22/17 A2991 880 73 1900 180/07 RMK AO2
14837KMSN MSN20060723224009607/23/06 22:40:31  5-MIN KMSN 240440Z 18006KT 10SM FEW060 22/17 A2991 870 73 1900 180/06 RMK AO2
14837KMSN MSN20060723224509607/23/06 22:45:31  5-MIN KMSN 240445Z 18008KT 10SM FEW060 22/17 A2991 870 73 1900 180/08 RMK AO2
14837KMSN MSN20060723225011307/23/06 22:50:31  5-MIN KMSN 240450Z 18007KT 10SM FEW060 22/17 A2991 880 73 1900 180/07 RMK AO2 SLP123 T02170167
14837KMSN MSN20060723225509607/23/06 22:55:31  5-MIN KMSN 240455Z 18008KT 10SM SCT055 22/17 A2991 880 73 1900 180/08 RMK AO2
14837KMSN MSN20060723230009607/23/06 23:00:31  5-MIN KMSN 240500Z 18007KT 10SM BKN055 22/17 A2991 880 73 1900 180/07 RMK AO2
14837KMSN MSN20060723230509607/23/06 23:05:31  5-MIN KMSN 240505Z 18007KT 10SM BKN055 22/17 A2991 880 73 1900 180/07 RMK AO2
14837KMSN MSN20060723231009607/23/06 23:10:31  5-MIN KMSN 240510Z 18007KT 10SM BKN055 22/17 A2990 880 73 1900 180/07 RMK AO2
14837KMSN MSN20060723231510307/23/06 23:15:31  5-MIN KMSN 240515Z 18008KT 10SM BKN060 BKN070 22/17 A2990 880 73 1900 180/08 RMK AO2
14837KMSN MSN20060723232010307/23/06 23:20:31  5-MIN KMSN 240520Z 18007KT 10SM BKN060 BKN080 22/17 A2990 880 73 1900 180/07 RMK AO2
14837KMSN MSN20060723232510307/23/06 23:25:31  5-MIN KMSN 240525Z 19008KT 10SM BKN060 BKN070 22/16 A2990 880 70 1900 190/08 RMK AO2
14837KMSN MSN20060723233010307/23/06 23:30:31  5-MIN KMSN 240530Z 18008KT 10SM BKN060 BKN070 22/16 A2990 890 70 1900 180/08 RMK AO2
14837KMSN MSN20060723233509607/23/06 23:35:31  5-MIN KMSN 240535Z 19007KT 10SM BKN060 22/16 A2989 890 70 1900 190/07 RMK AO2
14837KMSN MSN20060723234009607/23/06 23:40:31  5-MIN KMSN 240540Z 19007KT 10SM SCT060 22/16 A2989 890 70 1900 190/07 RMK AO2
14837KMSN MSN20060723234510307/23/06 23:45:31  5-MIN KMSN 240545Z 19007KT 10SM FEW060 SCT070 22/16 A2989 890 70 1900 180/07 RMK AO2
14837KMSN MSN20060723235014107/23/06 23:50:31  5-MIN KMSN 240550Z 18008KT 10SM FEW060 22/16 A2989 890 70 1900 180/08 RMK AO2 SLP116 T02170161 10261 20217 402720122 53003
14837KMSN MSN20060723235509607/23/06 23:55:31  5-MIN KMSN 240555Z 19008KT 10SM FEW060 22/16 A2989 890 70 1900 190/08 RMK AO2
14837KMSN MSN20060724000009307/24/06 00:00:38  5-MIN KMSN 240600Z 19008KT 10SM CLR 22/16 A2989 890 70 1900 190/08 RMK AO2
14837KMSN MSN20060724000509307/24/06 00:05:31  5-MIN KMSN 240605Z 19009KT 10SM CLR 22/16 A2989 900 70 1900 190/09 RMK AO2
14837KMSN MSN20060724001009307/24/06 00:10:31  5-MIN KMSN 240610Z 18008KT 10SM CLR 22/16 A2988 900 70 1900 180/08 RMK AO2
14837KMSN MSN20060724001509307/24/06 00:15:32  5-MIN KMSN 240615Z 19009KT 10SM CLR 22/16 A2988 900 70 1900 190/09 RMK AO2
14837KMSN MSN20060724002009307/24/06 00:20:31  5-MIN KMSN 240620Z 19008KT 10SM CLR 22/16 A2988 900 70 1900 190/08 RMK AO2
14837KMSN MSN20060724002509307/24/06 00:25:31  5-MIN KMSN 240625Z 19009KT 10SM CLR 22/16 A2988 900 68 2000 190/09 RMK AO2
14837KMSN MSN20060724003009907/24/06 00:30:31  5-MIN KMSN 240630Z 19007G14KT 10SM CLR 22/16 A2988 900 68 2000 190/07G14 RMK AO2
14837KMSN MSN20060724003509307/24/06 00:35:31  5-MIN KMSN 240635Z 20009KT 10SM CLR 22/16 A2988 900 68 2000 190/09 RMK AO2
14837KMSN MSN20060724004009307/24/06 00:40:31  5-MIN KMSN 240640Z 19009KT 10SM CLR 22/16 A2988 900 68 2000 190/09 RMK AO2
14837KMSN MSN20060724004509607/24/06 00:45:31  5-MIN KMSN 240645Z 19012KT 10SM FEW100 22/16 A2988 900 68 2000 190/12 RMK AO2
14837KMSN MSN20060724005011307/24/06 00:50:31  5-MIN KMSN 240650Z 19010KT 10SM BKN100 22/16 A2988 900 68 2000 190/10 RMK AO2 SLP113 T02220161
14837KMSN MSN20060724005509607/24/06 00:55:31  5-MIN KMSN 240655Z 19010KT 10SM BKN100 22/16 A2988 900 68 2000 190/10 RMK AO2
14837KMSN MSN20060724010009607/24/06 01:00:31  5-MIN KMSN 240700Z 19010KT 10SM BKN100 22/16 A2988 900 68 2000 190/10 RMK AO2
14837KMSN MSN20060724010509607/24/06 01:05:31  5-MIN KMSN 240705Z 19011KT 10SM BKN100 22/16 A2988 900 68 2000 190/11 RMK AO2
14837KMSN MSN20060724011009607/24/06 01:10:31  5-MIN KMSN 240710Z 19009KT 10SM BKN100 22/16 A2988 900 68 2000 190/09 RMK AO2
14837KMSN MSN20060724011509607/24/06 01:15:31  5-MIN KMSN 240715Z 20007KT 10SM BKN100 22/16 A2988 900 68 2000 190/07 RMK AO2
14837KMSN MSN20060724012009607/24/06 01:20:31  5-MIN KMSN 240720Z 19009KT 10SM BKN100 22/16 A2988 900 70 1900 190/09 RMK AO2
14837KMSN MSN20060724012509607/24/06 01:25:31  5-MIN KMSN 240725Z 19009KT 10SM BKN100 22/16 A2987 910 70 1900 190/09 RMK AO2
14837KMSN MSN20060724013009607/24/06 01:30:31  5-MIN KMSN 240730Z 19010KT 10SM SCT100 22/16 A2987 910 70 1900 190/10 RMK AO2
14837KMSN MSN20060724013509607/24/06 01:35:31  5-MIN KMSN 240735Z 19009KT 10SM SCT100 22/16 A2987 910 70 1900 190/09 RMK AO2
14837KMSN MSN20060724014009607/24/06 01:40:31  5-MIN KMSN 240740Z 19008KT 10SM SCT100 22/16 A2987 910 70 1900 190/08 RMK AO2
14837KMSN MSN20060724014509607/24/06 01:45:31  5-MIN KMSN 240745Z 19009KT 10SM FEW100 22/16 A2987 920 70 1900 190/09 RMK AO2
14837KMSN MSN20060724015011307/24/06 01:50:31  5-MIN KMSN 240750Z 19008KT 10SM FEW110 21/16 A2986 920 73 1900 190/08 RMK AO2 SLP107 T02110161
14837KMSN MSN20060724015509607/24/06 01:55:31  5-MIN KMSN 240755Z 19010KT 10SM FEW110 21/16 A2986 920 73 1900 190/10 RMK AO2
14837KMSN MSN20060724020009607/24/06 02:00:31  5-MIN KMSN 240800Z 19009KT 10SM FEW110 21/16 A2986 920 73 1900 190/09 RMK AO2
14837KMSN MSN20060724020509607/24/06 02:05:31  5-MIN KMSN 240805Z 19010KT 10SM FEW110 21/17 A2986 920 75 1900 190/10 RMK AO2
14837KMSN MSN20060724021009607/24/06 02:10:31  5-MIN KMSN 240810Z 19010KT 10SM FEW110 21/17 A2985 930 75 1900 190/10 RMK AO2
14837KMSN MSN20060724021509607/24/06 02:15:31  5-MIN KMSN 240815Z 19008KT 10SM FEW110 21/17 A2985 930 75 1900 190/08 RMK AO2
14837KMSN MSN20060724022009307/24/06 02:20:31  5-MIN KMSN 240820Z 19009KT 10SM CLR 21/17 A2985 930 75 1900 190/09 RMK AO2
14837KMSN MSN20060724022509307/24/06 02:25:31  5-MIN KMSN 240825Z 19009KT 10SM CLR 21/17 A2985 930 75 1900 190/09 RMK AO2
14837KMSN MSN20060724023009307/24/06 02:30:31  5-MIN KMSN 240830Z 20008KT 10SM CLR 21/17 A2985 930 75 1900 200/08 RMK AO2
14837KMSN MSN20060724023509307/24/06 02:35:31  5-MIN KMSN 240835Z 19008KT 10SM CLR 21/17 A2985 930 75 1900 190/08 RMK AO2
14837KMSN MSN20060724024009307/24/06 02:40:31  5-MIN KMSN 240840Z 19007KT 10SM CLR 21/17 A2985 930 78 1800 190/07 RMK AO2
14837KMSN MSN20060724024509307/24/06 02:45:31  5-MIN KMSN 240845Z 20007KT 10SM CLR 21/17 A2985 930 78 1800 200/07 RMK AO2
14837KMSN MSN20060724025011907/24/06 02:50:31  5-MIN KMSN 240850Z 19009KT 10SM FEW110 21/17 A2984 940 78 1800 190/09 RMK AO2 SLP101 T02060167 58007
14837KMSN MSN20060724025509307/24/06 02:55:31  5-MIN KMSN 240855Z 20008KT 10SM CLR 21/17 A2984 930 78 1800 200/08 RMK AO2
14837KMSN MSN20060724030009307/24/06 03:00:31  5-MIN KMSN 240900Z 20009KT 10SM CLR 21/17 A2984 940 78 1800 190/09 RMK AO2
14837KMSN MSN20060724030509307/24/06 03:05:31  5-MIN KMSN 240905Z 20008KT 10SM CLR 21/17 A2984 940 78 1800 200/08 RMK AO2
14837KMSN MSN20060724031009307/24/06 03:10:31  5-MIN KMSN 240910Z 20007KT 10SM CLR 21/17 A2984 940 78 1800 200/07 RMK AO2
14837KMSN MSN20060724031509307/24/06 03:15:31  5-MIN KMSN 240915Z 21007KT 10SM CLR 21/17 A2984 940 78 1800 200/07 RMK AO2
14837KMSN MSN20060724032009307/24/06 03:20:31  5-MIN KMSN 240920Z 20007KT 10SM CLR 21/17 A2984 940 78 1800 200/07 RMK AO2
14837KMSN MSN20060724032509307/24/06 03:25:31  5-MIN KMSN 240925Z 20008KT 10SM CLR 21/17 A2984 940 78 1800 200/08 RMK AO2
14837KMSN MSN20060724033009307/24/06 03:30:31  5-MIN KMSN 240930Z 20007KT 10SM CLR 21/17 A2984 940 78 1800 190/07 RMK AO2
14837KMSN MSN20060724033510307/24/06 03:35:31  5-MIN KMSN 240935Z 20007KT 10SM FEW065 SCT095 21/17 A2984 940 78 1800 200/07 RMK AO2
14837KMSN MSN20060724034010307/24/06 03:40:31  5-MIN KMSN 240940Z 20009KT 10SM FEW065 SCT090 21/17 A2984 940 75 1900 200/09 RMK AO2
14837KMSN MSN20060724034509607/24/06 03:45:31  5-MIN KMSN 240945Z 19009KT 10SM FEW065 21/17 A2984 940 75 1900 190/09 RMK AO2
14837KMSN MSN20060724035012907/24/06 03:50:31  5-MIN KMSN 240950Z 19007KT 10SM SCT065 21/17 A2984 940 75 1900 190/07 RMK AO2 SLP098 CONS LTG DSNT N T02110167
14837KMSN MSN20060724035510307/24/06 03:55:31  5-MIN KMSN 240955Z 20007KT 10SM FEW065 SCT100 21/17 A2984 940 75 1900 200/07 RMK AO2
14837KMSN MSN20060724040010307/24/06 04:00:31  5-MIN KMSN 241000Z 20007KT 10SM FEW065 SCT095 21/17 A2984 940 75 1900 200/07 RMK AO2
14837KMSN MSN20060724040510307/24/06 04:05:31  5-MIN KMSN 241005Z 21006KT 10SM SCT095 BKN120 21/17 A2984 940 75 1900 210/06 RMK AO2
14837KMSN MSN20060724041010307/24/06 04:10:31  5-MIN KMSN 241010Z 20008KT 10SM BKN095 BKN120 21/17 A2984 940 75 1900 200/08 RMK AO2
14837KMSN MSN20060724041512207/24/06 04:15:31  5-MIN KMSN 241015Z 20009KT 10SM BKN095 BKN110 21/17 A2984 940 78 1900 200/09 RMK AO2 CONS LTG DSNT N-NE
14837KMSN MSN20060724042012207/24/06 04:20:31  5-MIN KMSN 241020Z 19007KT 10SM BKN095 BKN120 21/17 A2984 940 75 1900 190/07 RMK AO2 CONS LTG DSNT N-NE
14837KMSN MSN20060724042512207/24/06 04:25:31  5-MIN KMSN 241025Z 20007KT 10SM BKN090 BKN120 21/17 A2984 940 78 1900 200/07 RMK AO2 CONS LTG DSNT N-NE
14837KMSN MSN20060724043011407/24/06 04:30:31  5-MIN KMSN 241030Z 19007KT 10SM SCT090 21/17 A2984 940 78 1900 190/07 RMK AO2 FRQ LTG DSNT N-NE
14837KMSN MSN20060724043511407/24/06 04:35:31  5-MIN KMSN 241035Z 19008KT 10SM SCT090 21/17 A2983 950 78 1900 190/08 RMK AO2 FRQ LTG DSNT N-NE
14837KMSN MSN20060724044010307/24/06 04:40:31  5-MIN KMSN 241040Z 21006KT 10SM SCT090 SCT110 21/17 A2983 940 78 1900 210/06 RMK AO2
14837KMSN MSN20060724044510307/24/06 04:45:31  5-MIN KMSN 241045Z 20008KT 10SM FEW090 SCT110 21/17 A2983 940 78 1900 200/08 RMK AO2
14837KMSN MSN20060724045013607/24/06 04:50:31  5-MIN KMSN 241050Z 22009KT 190V260 10SM SCT095 BKN110 22/17 A2984 940 75 2000 220/09 190V260 RMK AO2 SLP098 T02170172
14837KMSN MSN20060724045510907/24/06 04:55:31  5-MIN KMSN 241055Z 19009G14KT 10SM SCT095 BKN110 22/17 A2983 940 75 2000 190/09G14 RMK AO2
14837KMSN MSN20060724050010307/24/06 05:00:31  5-MIN KMSN 241100Z 21007KT 10SM SCT095 BKN110 22/17 A2983 940 75 2000 210/07 RMK AO2
14837KMSN MSN20060724050510307/24/06 05:05:31  5-MIN KMSN 241105Z 21005KT 10SM SCT090 BKN110 22/17 A2984 940 75 2000 210/05 RMK AO2
14837KMSN MSN20060724051010307/24/06 05:10:31  5-MIN KMSN 241110Z 22008KT 10SM BKN095 BKN110 22/17 A2984 940 75 2000 210/08 RMK AO2
14837KMSN MSN20060724051509607/24/06 05:15:31  5-MIN KMSN 241115Z 22007KT 10SM BKN090 22/17 A2983 940 73 2000 220/07 RMK AO2
14837KMSN MSN20060724052009607/24/06 05:20:31  5-MIN KMSN 241120Z 22008KT 10SM BKN090 22/17 A2983 950 73 2000 220/08 RMK AO2
14837KMSN MSN20060724052509607/24/06 05:25:31  5-MIN KMSN 241125Z 22007KT 10SM BKN090 22/17 A2983 950 73 2000 220/07 RMK AO2
14837KMSN MSN20060724053009607/24/06 05:30:31  5-MIN KMSN 241130Z 22010KT 10SM BKN090 22/17 A2983 950 73 2000 220/10 RMK AO2
14837KMSN MSN20060724053509607/24/06 05:35:31  5-MIN KMSN 241135Z 22006KT 10SM BKN090 22/17 A2983 940 73 2000 220/06 RMK AO2
14837KMSN MSN20060724054009607/24/06 05:40:31  5-MIN KMSN 241140Z 22007KT 10SM BKN090 22/17 A2983 950 73 2000 220/07 RMK AO2
14837KMSN MSN20060724054509607/24/06 05:45:31  5-MIN KMSN 241145Z 22010KT 10SM BKN090 22/17 A2983 950 73 2000 220/10 RMK AO2
14837KMSN MSN20060724055013107/24/06 05:50:31  5-MIN KMSN 241150Z 22007KT 10SM BKN090 22/17 A2983 950 73 2000 220/07 RMK AO2 SLP096 T02220172 10222 20206 58015
14837KMSN MSN20060724055509607/24/06 05:55:31  5-MIN KMSN 241155Z 21007KT 10SM BKN090 22/17 A2983 950 73 2000 210/07 RMK AO2
14837KMSN MSN20060724060009607/24/06 06:00:31  5-MIN KMSN 241200Z 22009KT 10SM SCT090 22/17 A2983 950 73 2000 220/09 RMK AO2
14837KMSN MSN20060724060509607/24/06 06:05:31  5-MIN KMSN 241205Z 22008KT 10SM SCT090 22/17 A2983 950 73 2000 220/08 RMK AO2
14837KMSN MSN20060724061009607/24/06 06:10:31  5-MIN KMSN 241210Z 22008KT 10SM FEW090 22/17 A2983 950 73 2000 220/08 RMK AO2
14837KMSN MSN20060724061509607/24/06 06:15:31  5-MIN KMSN 241215Z 23008KT 10SM FEW090 22/17 A2983 950 73 2000 230/08 RMK AO2
14837KMSN MSN20060724062009907/24/06 06:20:31  5-MIN KMSN 241220Z 22011G15KT 10SM CLR 22/17 A2983 950 73 2000 220/11G15 RMK AO2
14837KMSN MSN20060724062509307/24/06 06:25:31  5-MIN KMSN 241225Z 22010KT 10SM CLR 22/17 A2983 950 73 2000 220/10 RMK AO2
14837KMSN MSN20060724063009907/24/06 06:30:31  5-MIN KMSN 241230Z 21009G16KT 10SM CLR 23/17 A2982 950 70 2100 210/09G16 RMK AO2
14837KMSN MSN20060724063509907/24/06 06:35:31  5-MIN KMSN 241235Z 21009G16KT 10SM CLR 23/17 A2982 950 70 2100 210/09G16 RMK AO2
14837KMSN MSN20060724064009907/24/06 06:40:31  5-MIN KMSN 241240Z 21009G15KT 10SM CLR 23/17 A2982 950 70 2100 210/09G15 RMK AO2
14837KMSN MSN20060724064509907/24/06 06:45:31  5-MIN KMSN 241245Z 22008G15KT 10SM CLR 23/17 A2983 950 70 2100 220/08G15 RMK AO2
14837KMSN MSN20060724065011007/24/06 06:50:31  5-MIN KMSN 241250Z 22010KT 10SM CLR 23/17 A2983 950 70 2100 220/10 RMK AO2 SLP094 T02280172
14837KMSN MSN20060724065509907/24/06 06:55:31  5-MIN KMSN 241255Z 22007G14KT 10SM CLR 23/17 A2983 950 70 2100 220/07G14 RMK AO2
14837KMSN MSN20060724070009307/24/06 07:00:31  5-MIN KMSN 241300Z 22010KT 10SM CLR 23/17 A2982 950 70 2100 220/10 RMK AO2
14837KMSN MSN20060724070509307/24/06 07:05:31  5-MIN KMSN 241305Z 23008KT 10SM CLR 23/17 A2982 950 68 2200 230/08 RMK AO2
14837KMSN MSN20060724071009307/24/06 07:10:31  5-MIN KMSN 241310Z 22009KT 10SM CLR 23/17 A2982 960 68 2200 220/09 RMK AO2
14837KMSN MSN20060724071509907/24/06 07:15:31  5-MIN KMSN 241315Z 22009G19KT 10SM CLR 23/17 A2982 960 68 2200 220/09G19 RMK AO2
14837KMSN MSN20060724072009907/24/06 07:20:31  5-MIN KMSN 241320Z 22008G19KT 10SM CLR 23/17 A2982 960 68 2200 220/08G19 RMK AO2
14837KMSN MSN20060724072509607/24/06 07:25:31  5-MIN KMSN 241325Z 22008KT 10SM FEW090 23/17 A2982 960 68 2200 210/08 RMK AO2
14837KMSN MSN20060724073009607/24/06 07:30:31  5-MIN KMSN 241330Z 23007KT 10SM FEW090 23/17 A2982 960 68 2200 230/07 RMK AO2
14837KMSN MSN20060724073509607/24/06 07:35:31  5-MIN KMSN 241335Z 22009KT 10SM FEW090 24/18 A2982 960 68 2200 220/09 RMK AO2
14837KMSN MSN20060724074009607/24/06 07:40:31  5-MIN KMSN 241340Z 22009KT 10SM FEW090 24/18 A2982 960 68 2200 220/09 RMK AO2
14837KMSN MSN20060724074509607/24/06 07:45:31  5-MIN KMSN 241345Z 22009KT 10SM FEW090 24/18 A2982 960 66 2300 220/09 RMK AO2
14837KMSN MSN20060724075012907/24/06 07:50:31  5-MIN KMSN 241350Z 23008KT 200V260 10SM FEW090 24/18 A2982 960 66 2300 220/08 200V260 RMK AO2 SLP091 T02440178
14837KMSN MSN20060724075509307/24/06 07:55:31  5-MIN KMSN 241355Z 23010KT 10SM CLR 24/18 A2982 960 66 2300 230/10 RMK AO2
14837KMSN MSN20060724080009307/24/06 08:00:31  5-MIN KMSN 241400Z 23010KT 10SM CLR 25/18 A2982 960 64 2400 230/10 RMK AO2
14837KMSN MSN20060724080509907/24/06 08:05:31  5-MIN KMSN 241405Z 23006G14KT 10SM CLR 25/18 A2982 960 66 2400 230/06G14 RMK AO2
14837KMSN MSN20060724081009307/24/06 08:10:31  5-MIN KMSN 241410Z 23009KT 10SM CLR 25/18 A2982 960 64 2400 220/09 RMK AO2
14837KMSN MSN20060724081509907/24/06 08:15:31  5-MIN KMSN 241415Z 23007G16KT 10SM CLR 26/18 A2982 960 61 2400 230/07G16 RMK AO2
14837KMSN MSN20060724082009907/24/06 08:20:31  5-MIN KMSN 241420Z 23009G16KT 10SM CLR 26/18 A2981 960 59 2500 230/09G16 RMK AO2
14837KMSN MSN20060724082509907/24/06 08:25:31  5-MIN KMSN 241425Z 22009G14KT 10SM CLR 26/18 A2981 960 59 2500 220/09G14 RMK AO2
14837KMSN MSN20060724083011807/24/06 08:30:31  5-MIN KMSN 241430Z 23010G16KT 200V270 10SM FEW100 26/18 A2981 960 59 2500 230/10G16 200V270 RMK AO2
14837KMSN MSN20060724083511807/24/06 08:35:31  5-MIN KMSN 241435Z 24010G16KT 200V280 10SM FEW100 27/18 A2981 960 60 2600 240/10G16 200V280 RMK AO2
14837KMSN MSN20060724084010207/24/06 08:40:31  5-MIN KMSN 241440Z 24010G15KT 10SM FEW100 26/18 A2981 960 59 2500 240/10G15 RMK AO2
14837KMSN MSN20060724084511807/24/06 08:45:31  5-MIN KMSN 241445Z 24011G16KT 210V280 10SM FEW100 26/18 A2981 960 59 2500 240/11G16 210V280 RMK AO2
14837KMSN MSN20060724085012507/24/06 08:50:31  5-MIN KMSN 241450Z 22008G16KT 10SM SCT100 26/18 A2981 960 59 2500 220/08G16 RMK AO2 SLP090 T02610178 56004
14837KMSN MSN20060724085510207/24/06 08:55:31  5-MIN KMSN 241455Z 23008G15KT 10SM SCT100 27/18 A2981 960 57 2600 230/08G15 RMK AO2
14837KMSN MSN20060724090011207/24/06 09:00:31  5-MIN KMSN 241500Z 23009KT 200V260 10SM SCT100 26/18 A2981 970 59 2500 230/09 200V260 RMK AO2
14837KMSN MSN20060724090511807/24/06 09:05:31  5-MIN KMSN 241505Z 24008G16KT 190V280 10SM SCT100 27/18 A2981 970 57 2600 240/08G16 190V280 RMK AO2
14837KMSN MSN20060724091010207/24/06 09:10:31  5-MIN KMSN 241510Z 24010G16KT 10SM FEW100 27/17 A2981 970 55 2600 240/10G16 RMK AO2
14837KMSN MSN20060724091511807/24/06 09:15:31  5-MIN KMSN 241515Z 23011G16KT 200V270 10SM FEW100 27/18 A2981 970 57 2600 230/11G16 200V270 RMK AO2
14837KMSN MSN20060724092011807/24/06 09:20:31  5-MIN KMSN 241520Z 23010G16KT 200V260 10SM FEW100 27/18 A2981 970 57 2600 230/10G16 200V260 RMK AO2
14837KMSN MSN20060724092510207/24/06 09:25:31  5-MIN KMSN 241525Z 24008G15KT 10SM FEW100 27/18 A2981 970 57 2600 240/08G15 RMK AO2
14837KMSN MSN20060724093011807/24/06 09:30:31  5-MIN KMSN 241530Z 25010G15KT 220V290 10SM FEW100 27/18 A2981 970 56 2600 250/10G15 220V290 RMK AO2
14837KMSN MSN20060724093510207/24/06 09:35:31  5-MIN KMSN 241535Z 24010G15KT 10SM FEW100 27/18 A2981 970 56 2600 240/10G15 RMK AO2
14837KMSN MSN20060724094011507/24/06 09:40:31  5-MIN KMSN 241540Z 24008G22KT 210V280 10SM CLR 27/18 A2981 970 56 2600 230/08G22 210V280 RMK AO2
14837KMSN MSN20060724094509907/24/06 09:45:31  5-MIN KMSN 241545Z 24010G22KT 10SM CLR 27/18 A2981 970 56 2600 240/10G22 RMK AO2
14837KMSN MSN20060724095013207/24/06 09:50:31  5-MIN KMSN 241550Z 23012G17KT 210V270 10SM CLR 27/18 A2981 970 56 2600 230/12G17 210V270 RMK AO2 SLP088 T02720178
14837KMSN MSN20060724095509907/24/06 09:55:31  5-MIN KMSN 241555Z 24013G20KT 10SM CLR 27/18 A2981 970 56 2600 230/13G20 RMK AO2
14837KMSN MSN20060724100011807/24/06 10:00:31  5-MIN KMSN 241600Z 24011G20KT 190V270 10SM FEW100 28/18 A2981 970 54 2700 240/11G20 190V270 RMK AO2
14837KMSN MSN20060724100510207/24/06 10:05:31  5-MIN KMSN 241605Z 24010G18KT 10SM FEW100 27/18 A2981 970 56 2600 240/10G18 RMK AO2
14837KMSN MSN20060724101010207/24/06 10:10:31  5-MIN KMSN 241610Z 24012G18KT 10SM FEW100 28/18 A2981 970 54 2700 240/12G18 RMK AO2
14837KMSN MSN20060724101510207/24/06 10:15:31  5-MIN KMSN 241615Z 23010G18KT 10SM FEW100 28/18 A2981 970 54 2700 230/10G18 RMK AO2
14837KMSN MSN20060724102011807/24/06 10:20:31  5-MIN KMSN 241620Z 25012G18KT 210V280 10SM FEW100 28/18 A2981 970 54 2700 250/12G18 210V280 RMK AO2
14837KMSN MSN20060724102510207/24/06 10:25:31  5-MIN KMSN 241625Z 24013G20KT 10SM FEW100 28/18 A2981 970 54 2700 240/13G20 RMK AO2
14837KMSN MSN20060724103011807/24/06 10:30:31  5-MIN KMSN 241630Z 25010G20KT 220V280 10SM FEW100 28/18 A2981 970 54 2700 250/10G20 220V280 RMK AO2
14837KMSN MSN20060724103511807/24/06 10:35:31  5-MIN KMSN 241635Z 23011G17KT 190V260 10SM FEW100 28/18 A2981 970 56 2700 230/11G17 190V260 RMK AO2
14837KMSN MSN20060724104011807/24/06 10:40:31  5-MIN KMSN 241640Z 24009G15KT 210V290 10SM FEW100 28/18 A2981 970 54 2800 240/09G15 210V290 RMK AO2
14837KMSN MSN20060724104511207/24/06 10:45:31  5-MIN KMSN 241645Z 24009KT 210V290 10SM FEW100 28/19 A2981 970 56 2800 240/09 210V290 RMK AO2
14837KMSN MSN20060724105013507/24/06 10:50:31  5-MIN KMSN 241650Z 23010G16KT 200V260 10SM FEW100 28/18 A2981 970 54 2800 230/10G16 200V260 RMK AO2 SLP086 T02830183
14837KMSN MSN20060724105511807/24/06 10:55:31  5-MIN KMSN 241655Z 24011G16KT 210V270 10SM FEW080 28/18 A2980 970 54 2800 240/11G16 210V270 RMK AO2
14837KMSN MSN20060724110010207/24/06 11:00:31  5-MIN KMSN 241700Z 23010G16KT 10SM FEW080 28/19 A2980 970 56 2800 230/10G16 RMK AO2
14837KMSN MSN20060724110511507/24/06 11:05:31  5-MIN KMSN 241705Z 25009G14KT 220V300 10SM CLR 28/18 A2980 970 54 2800 250/09G14 220V300 RMK AO2
14837KMSN MSN20060724111009907/24/06 11:10:31  5-MIN KMSN 241710Z 25009G15KT 10SM CLR 28/18 A2981 970 54 2800 250/09G15 RMK AO2
14837KMSN MSN20060724111511507/24/06 11:15:31  5-MIN KMSN 241715Z 24010G15KT 220V280 10SM CLR 28/18 A2981 970 54 2800 240/10G15 220V280 RMK AO2
14837KMSN MSN20060724112009307/24/06 11:20:31  5-MIN KMSN 241720Z 24012KT 10SM CLR 29/18 A2981 970 52 2800 240/12 RMK AO2
14837KMSN MSN20060724112511507/24/06 11:25:31  5-MIN KMSN 241725Z 25011G16KT 210V280 10SM CLR 28/18 A2981 970 52 2800 250/11G16 210V280 RMK AO2
14837KMSN MSN20060724113009907/24/06 11:30:31  5-MIN KMSN 241730Z 23008G16KT 10SM CLR 29/18 A2981 970 52 2800 220/08G16 RMK AO2
14837KMSN MSN20060724113511507/24/06 11:35:31  5-MIN KMSN 241735Z 25009G15KT 220V290 10SM CLR 29/19 A2981 970 54 2800 250/09G15 220V290 RMK AO2
14837KMSN MSN20060724114011507/24/06 11:40:31  5-MIN KMSN 241740Z 24010G19KT 210V270 10SM CLR 29/18 A2981 970 52 2800 240/10G19 210V270 RMK AO2
14837KMSN MSN20060724114509907/24/06 11:45:31  5-MIN KMSN 241745Z 24012G19KT 10SM CLR 29/18 A2981 970 52 2800 230/12G19 RMK AO2
14837KMSN MSN20060724115012807/24/06 11:50:31  5-MIN KMSN 241750Z 24010KT 10SM CLR 29/19 A2981 970 54 2800 230/10 RMK AO2 SLP087 T02890189 10289 20222 56005
14837KMSN MSN20060724115509607/24/06 11:55:31  5-MIN KMSN 241755Z 23011KT 10SM FEW040 29/19 A2981 970 54 2800 230/11 RMK AO2
14837KMSN MSN20060724120009607/24/06 12:00:31  5-MIN KMSN 241800Z 24011KT 10SM FEW040 28/18 A2981 970 54 2800 230/11 RMK AO2
14837KMSN MSN20060724120509907/24/06 12:05:31  5-MIN KMSN 241805Z 25009G17KT 10SM CLR 29/18 A2981 970 52 2800 250/09G17 RMK AO2
14837KMSN MSN20060724121009907/24/06 12:10:31  5-MIN KMSN 241810Z 24011G17KT 10SM CLR 29/18 A2981 970 52 2800 240/11G17 RMK AO2
14837KMSN MSN20060724121509907/24/06 12:15:31  5-MIN KMSN 241815Z 23010G17KT 10SM CLR 29/18 A2981 970 52 2800 230/10G17 RMK AO2
14837KMSN MSN20060724122009907/24/06 12:20:31  5-MIN KMSN 241820Z 23013G20KT 10SM CLR 29/18 A2980 970 52 2800 230/13G20 RMK AO2
14837KMSN MSN20060724122511507/24/06 12:25:31  5-MIN KMSN 241825Z 25010G20KT 180V270 10SM CLR 29/18 A2980 970 52 2800 250/10G20 180V270 RMK AO2
14837KMSN MSN20060724123011507/24/06 12:30:31  5-MIN KMSN 241830Z 24010G16KT 210V280 10SM CLR 29/18 A2980 970 52 2800 240/10G16 210V280 RMK AO2
14837KMSN MSN20060724123511507/24/06 12:35:31  5-MIN KMSN 241835Z 26008G16KT 220V330 10SM CLR 29/18 A2981 970 50 2900 260/08G16 220V330 RMK AO2
14837KMSN MSN20060724124011507/24/06 12:40:31  5-MIN KMSN 241840Z 24007G16KT 200V290 10SM CLR 29/19 A2980 970 52 2900 240/07G16 200V290 RMK AO2
14837KMSN MSN20060724124509307/24/06 12:45:31  5-MIN KMSN 241845Z 27009KT 10SM CLR 29/19 A2980 970 52 2900 270/09 RMK AO2
14837KMSN MSN20060724125013207/24/06 12:50:31  5-MIN KMSN 241850Z 26008G15KT 220V290 10SM CLR 29/18 A2980 970 50 2900 260/08G15 220V290 RMK AO2 SLP085 T02940183
14837KMSN MSN20060724125511507/24/06 12:55:31  5-MIN KMSN 241855Z 24009G15KT 210V280 10SM CLR 29/18 A2980 970 50 2900 240/09G15 210V280 RMK AO2
14837KMSN MSN20060724130011507/24/06 13:00:31  5-MIN KMSN 241900Z 28011G17KT 250V310 10SM CLR 29/18 A2980 980 50 2900 280/11G17 250V310 RMK AO2
14837KMSN MSN20060724130511507/24/06 13:05:31  5-MIN KMSN 241905Z 27009G17KT 220V300 10SM CLR 29/18 A2980 980 50 2900 270/09G17 220V300 RMK AO2
14837KMSN MSN20060724131011507/24/06 13:10:31  5-MIN KMSN 241910Z 25007G15KT 210V300 10SM CLR 29/18 A2980 980 49 2900 250/07G15 210V300 RMK AO2
14837KMSN MSN20060724131511507/24/06 13:15:31  5-MIN KMSN 241915Z 25011G15KT 210V280 10SM CLR 29/18 A2980 980 50 2900 240/11G15 210V280 RMK AO2
14837KMSN MSN20060724132009907/24/06 13:20:31  5-MIN KMSN 241920Z 22009G15KT 10SM CLR 29/18 A2980 980 49 2900 220/09G15 RMK AO2
14837KMSN MSN20060724132510907/24/06 13:25:31  5-MIN KMSN 241925Z 26009KT 210V300 10SM CLR 29/18 A2980 980 50 2900 260/09 210V300 RMK AO2
14837KMSN MSN20060724133010907/24/06 13:30:31  5-MIN KMSN 241930Z 23007KT 200V280 10SM CLR 30/18 A2980 980 49 3000 230/07 200V280 RMK AO2
14837KMSN MSN20060724133510907/24/06 13:35:31  5-MIN KMSN 241935Z 22009KT 180V250 10SM CLR 30/19 A2979 980 51 3000 220/09 180V250 RMK AO2
14837KMSN MSN20060724134011507/24/06 13:40:31  5-MIN KMSN 241940Z 23008G16KT 190V260 10SM CLR 29/18 A2979 980 49 2900 230/08G16 190V260 RMK AO2
14837KMSN MSN20060724134511507/24/06 13:45:31  5-MIN KMSN 241945Z 24007G16KT 200V280 10SM CLR 30/18 A2979 990 49 3000 240/07G16 200V280 RMK AO2
14837KMSN MSN20060724135013207/24/06 13:50:31  5-MIN KMSN 241950Z 23008G14KT 190V260 10SM CLR 30/18 A2979 990 49 3000 230/08G14 190V260 RMK AO2 SLP081 T03000183
14837KMSN MSN20060724135509307/24/06 13:55:31  5-MIN KMSN 241955Z VRB06KT 10SM CLR 30/19 A2979 990 51 3000 VRB/06 RMK AO2
14837KMSN MSN20060724140011507/24/06 14:00:31  5-MIN KMSN 242000Z 25010G16KT 220V280 10SM CLR 30/19 A2978 990 51 3000 250/10G16 220V280 RMK AO2
14837KMSN MSN20060724140511507/24/06 14:05:31  5-MIN KMSN 242005Z 25010G17KT 210V290 10SM CLR 29/18 A2978 990 49 2900 250/10G17 210V290 RMK AO2
14837KMSN MSN20060724141011507/24/06 14:10:31  5-MIN KMSN 242010Z 26009G17KT 220V290 10SM CLR 30/18 A2978 990 47 3000 250/09G17 220V290 RMK AO2
14837KMSN MSN20060724141509907/24/06 14:15:31  5-MIN KMSN 242015Z VRB06G16KT 10SM CLR 30/18 A2978 990 49 3000 VRB/06G16 RMK AO2
14837KMSN MSN20060724142010007/24/06 14:20:31  5-MIN KMSN 242020Z 24011G14KT 10SM CLR 30/18 A2978 1000 47 3000 240/11G14 RMK AO2
14837KMSN MSN20060724142509407/24/06 14:25:31  5-MIN KMSN 242025Z 25008KT 10SM CLR 30/18 A2978 1000 47 3000 240/08 RMK AO2
14837KMSN MSN20060724143011007/24/06 14:30:31  5-MIN KMSN 242030Z 25007KT 210V280 10SM CLR 30/18 A2977 1000 49 3000 250/07 210V280 RMK AO2
14837KMSN MSN20060724143510007/24/06 14:35:31  5-MIN KMSN 242035Z 24010G14KT 10SM CLR 30/18 A2977 1000 49 3000 240/10G14 RMK AO2
14837KMSN MSN20060724144011607/24/06 14:40:31  5-MIN KMSN 242040Z 24008G14KT 210V270 10SM CLR 30/19 A2977 1000 51 3000 240/08G14 210V270 RMK AO2
14837KMSN MSN20060724144509407/24/06 14:45:31  5-MIN KMSN 242045Z 24008KT 10SM CLR 30/19 A2977 1010 51 3000 240/08 RMK AO2
14837KMSN MSN20060724145012307/24/06 14:50:31  5-MIN KMSN 242050Z 23009G14KT 10SM CLR 30/18 A2976 1010 49 3000 230/09G14 RMK AO2 SLP073 T03000183 55002
14837KMSN MSN20060724145511007/24/06 14:55:31  5-MIN KMSN 242055Z 23009KT 190V260 10SM CLR 30/18 A2976 1010 49 3000 220/09 190V260 RMK AO2
14837KMSN MSN20060724150009407/24/06 15:00:31  5-MIN KMSN 242100Z 23010KT 10SM CLR 29/18 A2976 1010 49 2900 230/10 RMK AO2
14837KMSN MSN20060724150509407/24/06 15:05:31  5-MIN KMSN 242105Z 23011KT 10SM CLR 30/18 A2976 1010 49 3000 230/11 RMK AO2
14837KMSN MSN20060724151011607/24/06 15:10:31  5-MIN KMSN 242110Z 23007G14KT 180V250 10SM CLR 30/18 A2976 1020 47 3000 220/07G14 180V250 RMK AO2
14837KMSN MSN20060724151511607/24/06 15:15:31  5-MIN KMSN 242115Z 23009G14KT 200V260 10SM CLR 30/18 A2976 1020 47 3000 230/09G14 200V260 RMK AO2
14837KMSN MSN20060724152011607/24/06 15:20:31  5-MIN KMSN 242120Z 23009G17KT 210V270 10SM CLR 30/18 A2976 1020 47 3000 230/09G17 210V270 RMK AO2
14837KMSN MSN20060724152511607/24/06 15:25:31  5-MIN KMSN 242125Z 25011G18KT 220V300 10SM CLR 30/18 A2976 1020 47 3000 250/11G18 220V300 RMK AO2
14837KMSN MSN20060724153011607/24/06 15:30:31  5-MIN KMSN 242130Z 24010G18KT 210V280 10SM CLR 30/18 A2976 1010 47 3000 240/10G18 210V280 RMK AO2
14837KMSN MSN20060724153511607/24/06 15:35:31  5-MIN KMSN 242135Z 25009G15KT 210V280 10SM CLR 30/17 A2976 1010 45 3000 250/09G15 210V280 RMK AO2
14837KMSN MSN20060724154011607/24/06 15:40:31  5-MIN KMSN 242140Z 25009G16KT 210V330 10SM CLR 30/17 A2977 1010 45 3000 250/09G16 210V330 RMK AO2
14837KMSN MSN20060724154511607/24/06 15:45:31  5-MIN KMSN 242145Z 25007G16KT 220V280 10SM CLR 30/17 A2977 1000 45 3000 250/07G16 220V280 RMK AO2
14837KMSN MSN20060724155012707/24/06 15:50:31  5-MIN KMSN 242150Z 24009KT 200V270 10SM CLR 30/18 A2977 1000 47 3000 240/09 200V270 RMK AO2 SLP076 T03000178
14837KMSN MSN20060724155510007/24/06 15:55:31  5-MIN KMSN 242155Z 23009G14KT 10SM CLR 30/18 A2978 1000 47 3000 230/09G14 RMK AO2
14837KMSN MSN20060724160011607/24/06 16:00:31  5-MIN KMSN 242200Z 25007G16KT 220V290 10SM CLR 30/18 A2978 1000 47 3000 250/07G16 220V290 RMK AO2
14837KMSN MSN20060724160511607/24/06 16:05:31  5-MIN KMSN 242205Z 23008G16KT 190V270 10SM CLR 30/18 A2978 1000 47 3000 230/08G16 190V270 RMK AO2
14837KMSN MSN20060724161009907/24/06 16:10:31  5-MIN KMSN 242210Z 26008G15KT 10SM CLR 29/17 A2978 990 47 2900 260/08G15 RMK AO2
14837KMSN MSN20060724161509907/24/06 16:15:31  5-MIN KMSN 242215Z 25010G17KT 10SM CLR 30/17 A2978 990 45 3000 250/10G17 RMK AO2
14837KMSN MSN20060724162009907/24/06 16:20:31  5-MIN KMSN 242220Z 26010G17KT 10SM CLR 29/17 A2978 990 47 2900 260/10G17 RMK AO2
14837KMSN MSN20060724162510907/24/06 16:25:31  5-MIN KMSN 242225Z 25008KT 200V300 10SM CLR 29/17 A2979 990 47 2900 250/08 200V300 RMK AO2
14837KMSN MSN20060724163009907/24/06 16:30:31  5-MIN KMSN 242230Z 26008G17KT 10SM CLR 29/17 A2979 990 47 2900 260/08G17 RMK AO2
14837KMSN MSN20060724163509907/24/06 16:35:31  5-MIN KMSN 242235Z 26009G17KT 10SM CLR 29/17 A2979 980 47 2900 260/09G17 RMK AO2
14837KMSN MSN20060724164009907/24/06 16:40:31  5-MIN KMSN 242240Z 26007G15KT 10SM CLR 29/17 A2980 980 47 2900 260/07G15 RMK AO2
14837KMSN MSN20060724164509907/24/06 16:45:31  5-MIN KMSN 242245Z 26006G15KT 10SM CLR 29/18 A2980 980 49 2900 260/06G15 RMK AO2
14837KMSN MSN20060724165012607/24/06 16:50:31  5-MIN KMSN 242250Z 28007KT 240V320 10SM CLR 29/18 A2980 980 49 2900 270/07 240V320 RMK AO2 SLP084 T02940178
14837KMSN MSN20060724165510907/24/06 16:55:31  5-MIN KMSN 242255Z 26007KT 240V300 10SM CLR 29/18 A2980 980 49 2900 260/07 240V300 RMK AO2
14837KMSN MSN20060724170009307/24/06 17:00:31  5-MIN KMSN 242300Z VRB06KT 10SM CLR 29/18 A2980 980 49 2900 VRB/06 RMK AO2
14837KMSN MSN20060724170509307/24/06 17:05:31  5-MIN KMSN 242305Z 27007KT 10SM CLR 29/18 A2980 980 49 2900 270/07 RMK AO2
14837KMSN MSN20060724171009307/24/06 17:10:31  5-MIN KMSN 242310Z 26006KT 10SM CLR 29/18 A2980 970 52 2800 260/06 RMK AO2
14837KMSN MSN20060724171509307/24/06 17:15:31  5-MIN KMSN 242315Z 27006KT 10SM CLR 29/18 A2980 970 52 2800 270/06 RMK AO2
14837KMSN MSN20060724172009307/24/06 17:20:31  5-MIN KMSN 242320Z 23006KT 10SM CLR 29/18 A2980 970 52 2800 230/06 RMK AO2
14837KMSN MSN20060724172509307/24/06 17:25:31  5-MIN KMSN 242325Z 24005KT 10SM CLR 29/18 A2981 970 52 2800 240/05 RMK AO2
14837KMSN MSN20060724173009307/24/06 17:30:31  5-MIN KMSN 242330Z VRB06KT 10SM CLR 29/18 A2981 970 52 2800 VRB/06 RMK AO2
14837KMSN MSN20060724173509307/24/06 17:35:31  5-MIN KMSN 242335Z VRB05KT 10SM CLR 29/18 A2981 970 52 2800 VRB/05 RMK AO2
14837KMSN MSN20060724174009307/24/06 17:40:31  5-MIN KMSN 242340Z VRB05KT 10SM CLR 28/18 A2981 970 54 2800 VRB/05 RMK AO2
14837KMSN MSN20060724174509307/24/06 17:45:31  5-MIN KMSN 242345Z 24006KT 10SM CLR 28/19 A2981 970 56 2800 230/06 RMK AO2
14837KMSN MSN20060724175012807/24/06 17:50:31  5-MIN KMSN 242350Z 24006KT 10SM CLR 28/19 A2981 970 56 2800 230/06 RMK AO2 SLP089 T02830189 10300 20283 58015
14837KMSN MSN20060724175509307/24/06 17:55:31  5-MIN KMSN 242355Z VRB06KT 10SM CLR 28/19 A2981 960 56 2800 VRB/06 RMK AO2
14837KMSN MSN20060724180009307/24/06 18:00:31  5-MIN KMSN 250000Z 23005KT 10SM CLR 28/19 A2981 960 56 2800 230/05 RMK AO2
14837KMSN MSN20060724180509307/24/06 18:05:31  5-MIN KMSN 250005Z 23006KT 10SM CLR 28/19 A2981 970 58 2700 230/06 RMK AO2
14837KMSN MSN20060724181009307/24/06 18:10:31  5-MIN KMSN 250010Z VRB05KT 10SM CLR 28/19 A2981 960 56 2800 VRB/05 RMK AO2
14837KMSN MSN20060724181509307/24/06 18:15:31  5-MIN KMSN 250015Z 23006KT 10SM CLR 28/18 A2981 960 54 2700 230/06 RMK AO2
14837KMSN MSN20060724182009307/24/06 18:20:31  5-MIN KMSN 250020Z 23006KT 10SM CLR 28/19 A2982 960 58 2700 230/06 RMK AO2
14837KMSN MSN20060724182509307/24/06 18:25:31  5-MIN KMSN 250025Z 22008KT 10SM CLR 28/19 A2982 960 56 2700 210/08 RMK AO2
14837KMSN MSN20060724183009307/24/06 18:30:31  5-MIN KMSN 250030Z 22008KT 10SM CLR 28/19 A2982 960 58 2700 220/08 RMK AO2
14837KMSN MSN20060724183509307/24/06 18:35:31  5-MIN KMSN 250035Z 22008KT 10SM CLR 28/19 A2982 960 60 2700 220/08 RMK AO2
14837KMSN MSN20060724184009307/24/06 18:40:31  5-MIN KMSN 250040Z 22008KT 10SM CLR 28/20 A2981 960 62 2700 220/08 RMK AO2
14837KMSN MSN20060724184509307/24/06 18:45:31  5-MIN KMSN 250045Z 22008KT 10SM CLR 28/20 A2981 960 62 2700 220/08 RMK AO2
14837KMSN MSN20060724185012607/24/06 18:50:31  5-MIN KMSN 250050Z 22007KT 200V260 10SM CLR 27/20 A2982 960 64 2600 220/07 200V260 RMK AO2 SLP091 T02720200
14837KMSN MSN20060724185509307/24/06 18:55:31  5-MIN KMSN 250055Z 22007KT 10SM CLR 27/21 A2982 960 66 2600 220/07 RMK AO2
14837KMSN MSN20060724190009307/24/06 19:00:31  5-MIN KMSN 250100Z 22006KT 10SM CLR 27/21 A2982 950 66 2600 220/06 RMK AO2
14837KMSN MSN20060724190509307/24/06 19:05:31  5-MIN KMSN 250105Z 22008KT 10SM CLR 27/20 A2983 950 64 2600 220/08 RMK AO2
14837KMSN MSN20060724191010907/24/06 19:10:31  5-MIN KMSN 250110Z 21008KT 180V240 10SM CLR 27/20 A2983 950 64 2600 210/08 180V240 RMK AO2
14837KMSN MSN20060724191509307/24/06 19:15:31  5-MIN KMSN 250115Z 22008KT 10SM CLR 27/20 A2983 950 64 2600 220/08 RMK AO2
14837KMSN MSN20060724192009307/24/06 19:20:31  5-MIN KMSN 250120Z 22006KT 10SM CLR 27/20 A2983 950 66 2500 220/06 RMK AO2
14837KMSN MSN20060724192509307/24/06 19:25:31  5-MIN KMSN 250125Z 21007KT 10SM CLR 27/20 A2983 950 66 2500 210/07 RMK AO2
14837KMSN MSN20060724193009307/24/06 19:30:31  5-MIN KMSN 250130Z 21007KT 10SM CLR 27/20 A2983 950 66 2500 200/07 RMK AO2
14837KMSN MSN20060724193510907/24/06 19:35:31  5-MIN KMSN 250135Z 21007KT 180V240 10SM CLR 27/20 A2983 950 66 2500 210/07 180V240 RMK AO2
14837KMSN MSN20060724194009307/24/06 19:40:31  5-MIN KMSN 250140Z 22007KT 10SM CLR 27/20 A2983 950 66 2500 220/07 RMK AO2
14837KMSN MSN20060724194509307/24/06 19:45:31  5-MIN KMSN 250145Z 22007KT 10SM CLR 27/20 A2984 940 66 2500 220/07 RMK AO2
14837KMSN MSN20060724195011007/24/06 19:50:31  5-MIN KMSN 250150Z 22006KT 10SM CLR 27/20 A2984 940 66 2500 220/06 RMK AO2 SLP098 T02670200
14837KMSN MSN20060724195509607/24/06 19:55:31  5-MIN KMSN 250155Z 23005KT 10SM SCT100 27/20 A2984 940 66 2500 230/05 RMK AO2
14837KMSN MSN20060724200009607/24/06 20:00:31  5-MIN KMSN 250200Z 22006KT 10SM BKN100 27/20 A2984 940 66 2500 220/06 RMK AO2
14837KMSN MSN20060724200509607/24/06 20:05:31  5-MIN KMSN 250205Z 23007KT 10SM BKN100 26/20 A2985 930 68 2500 230/07 RMK AO2
14837KMSN MSN20060724201010707/24/06 20:10:31  5-MIN KMSN 250210Z 22007KT 10SM BKN100 27/20 A2984 940 66 2500 220/07 RMK AO2 LTG DSNT W
14837KMSN MSN20060724201510707/24/06 20:15:31  5-MIN KMSN 250215Z 22008KT 10SM BKN100 26/20 A2984 940 68 2500 210/08 RMK AO2 LTG DSNT W
14837KMSN MSN20060724202010707/24/06 20:20:31  5-MIN KMSN 250220Z 22007KT 10SM BKN100 26/20 A2984 940 68 2500 220/07 RMK AO2 LTG DSNT W
14837KMSN MSN20060724202510707/24/06 20:25:31  5-MIN KMSN 250225Z 23007KT 10SM OVC100 26/20 A2984 930 68 2500 230/07 RMK AO2 LTG DSNT W
14837KMSN MSN20060724203010707/24/06 20:30:31  5-MIN KMSN 250230Z 22006KT 10SM OVC100 26/20 A2984 940 68 2500 220/06 RMK AO2 LTG DSNT W
14837KMSN MSN20060724203510707/24/06 20:35:31  5-MIN KMSN 250235Z 23007KT 10SM BKN100 26/20 A2985 930 68 2500 220/07 RMK AO2 LTG DSNT W
14837KMSN MSN20060724204012307/24/06 20:40:31  5-MIN KMSN 250240Z 23009KT 210V280 10SM BKN100 26/20 A2985 930 68 2500 230/09 210V280 RMK AO2 LTG DSNT W
14837KMSN MSN20060724204512307/24/06 20:45:31  5-MIN KMSN 250245Z 23007KT 200V280 10SM BKN100 26/20 A2985 930 68 2500 230/07 200V280 RMK AO2 LTG DSNT W
14837KMSN MSN20060724205013907/24/06 20:50:31  5-MIN KMSN 250250Z 24006KT 10SM TS BKN100 26/20 A2985 930 68 2500 240/06 RMK AO2 TSB48 FRQ LTGICCA VC NW TS VC NW MOV SE
14837KMSN MSN20060724205509907/24/06 20:55:31  5-MIN KMSN 250255Z 25007KT 10SM TS BKN100 26/20 A2986 920 68 2500 250/07 RMK AO2
14837KMSN MSN20060724210013607/24/06 21:00:31  5-MIN KMSN 250300Z 29009G15KT 10SM TS BKN100 26/20 A2987 910 68 2400 280/09G15 RMK AO2 OCNL LTGICCA OHD TS OHD MOV SE
14837KMSN MSN20060724210515707/24/06 21:05:31  5-MIN KMSN 250305Z 31011G17KT 9SM -TSRA FEW034 BKN110 26/20 A2987 910 68 2400 310/11G17 RMK AO2 RAB04 OCNL LTGICCA OHD TS OHD MOV SE P0000
14837KMSN MSN20060724211015707/24/06 21:10:31  5-MIN KMSN 250310Z 32008G17KT 4SM -TSRA SCT030 OVC110 24/20 A2987 910 76 2300 320/08G17 RMK AO2 RAB04 OCNL LTGICCA OHD TS OHD MOV SE P0001
14837KMSN MSN20060724211516407/24/06 21:15:31  5-MIN KMSN 250315Z 32003G17KT 8SM -TSRA SCT040 BKN090 OVC100 23/20 A2987 920 81 2100 320/03G17 RMK AO2 RAB04 OCNL LTGICCA OHD TS OHD MOV SE P0002
14837KMSN MSN20060724212015807/24/06 21:20:31  5-MIN KMSN 250320Z 00000KT 8SM -TSRA SCT046 SCT090 OVC110 23/20 A2987 920 81 2100 000/00 RMK AO2 RAB04 OCNL LTGICCA OHD TS OHD MOV SE P0002
14837KMSN MSN20060724212515807/24/06 21:25:31  5-MIN KMSN 250325Z 00000KT 8SM -TSRA SCT042 BKN100 OVC120 23/21 A2986 920 87 2100 000/00 RMK AO2 RAB04 OCNL LTGICCA OHD TS OHD MOV SE P0002
14837KMSN MSN20060724213015107/24/06 21:30:31  5-MIN KMSN 250330Z 00000KT 8SM -TSRA SCT042 OVC110 23/21 A2986 920 90 2100 000/00 RMK AO2 RAB04 OCNL LTGICCA OHD TS OHD MOV SE P0002
14837KMSN MSN20060724213515107/24/06 21:35:31  5-MIN KMSN 250335Z 22003KT 8SM -TSRA FEW042 BKN110 23/21 A2986 920 87 2100 220/03 RMK AO2 RAB04 OCNL LTGICCA OHD TS OHD MOV SE P0002
14837KMSN MSN20060724214015207/24/06 21:40:31  5-MIN KMSN 250340Z 22004KT 10SM TS FEW060 BKN100 23/21 A2986 920 87 2100 220/04 RMK AO2 RAB04E39 OCNL LTGICCA OHD TS OHD MOV SE P0002
14837KMSN MSN20060724214514507/24/06 21:45:31  5-MIN KMSN 250345Z 22004KT 10SM TS BKN110 23/21 A2986 920 87 2100 220/04 RMK AO2 RAB04E39 OCNL LTGICCA OHD TS OHD MOV SE P0002
14837KMSN MSN20060724215011607/24/06 21:50:31  5-MIN KMSN 250350Z 21004KT 10SM SCT110 23/21 A2986 920 84 2100 210/04 RMK AO2 TSE48RAB04E39 P0002
14837KMSN MSN20060724215509607/24/06 21:55:31  5-MIN KMSN 250355Z 21003KT 10SM FEW110 23/21 A2986 920 84 2100 210/03 RMK AO2
14837KMSN MSN20060724220009607/24/06 22:00:31  5-MIN KMSN 250400Z 22004KT 10SM FEW110 23/21 A2986 920 84 2100 220/04 RMK AO2
14837KMSN MSN20060724220509307/24/06 22:05:31  5-MIN KMSN 250405Z 22003KT 10SM CLR 23/21 A2985 930 84 2100 220/03 RMK AO2
14837KMSN MSN20060724221009607/24/06 22:10:31  5-MIN KMSN 250410Z 23004KT 10SM FEW110 23/21 A2986 920 84 2100 230/04 RMK AO2
14837KMSN MSN20060724221509607/24/06 22:15:31  5-MIN KMSN 250415Z 23003KT 10SM FEW110 23/21 A2986 920 84 2100 230/03 RMK AO2
14837KMSN MSN20060724222009607/24/06 22:20:31  5-MIN KMSN 250420Z 22004KT 10SM FEW110 23/21 A2986 920 84 2100 220/04 RMK AO2
14837KMSN MSN20060724222509607/24/06 22:25:31  5-MIN KMSN 250425Z VRB03KT 10SM FEW110 23/21 A2986 920 84 2100 VRB/03 RMK AO2
14837KMSN MSN20060724223009607/24/06 22:30:31  5-MIN KMSN 250430Z 22005KT 10SM FEW110 24/21 A2986 920 81 2200 220/05 RMK AO2
14837KMSN MSN20060724223509607/24/06 22:35:31  5-MIN KMSN 250435Z 23005KT 10SM FEW110 24/21 A2987 920 81 2200 230/05 RMK AO2
14837KMSN MSN20060724224009607/24/06 22:40:31  5-MIN KMSN 250440Z 23004KT 10SM FEW110 24/21 A2987 910 78 2300 230/04 RMK AO2
14837KMSN MSN20060724224509607/24/06 22:45:31  5-MIN KMSN 250445Z 23004KT 10SM FEW110 24/21 A2987 910 78 2300 230/04 RMK AO2
14837KMSN MSN20060724225011307/24/06 22:50:31  5-MIN KMSN 250450Z 23004KT 10SM SCT120 24/21 A2987 910 78 2300 230/04 RMK AO2 SLP108 T02440206
14837KMSN MSN20060724225509607/24/06 22:55:31  5-MIN KMSN 250455Z 22004KT 10SM BKN120 24/21 A2987 910 78 2300 220/04 RMK AO2
14837KMSN MSN20060724230009607/24/06 23:00:31  5-MIN KMSN 250500Z 23003KT 10SM BKN120 24/21 A2987 910 78 2200 230/03 RMK AO2
14837KMSN MSN20060724230509607/24/06 23:05:31  5-MIN KMSN 250505Z VRB05KT 10SM BKN110 24/21 A2987 910 78 2200 VRB/05 RMK AO2
14837KMSN MSN20060724231009607/24/06 23:10:31  5-MIN KMSN 250510Z VRB05KT 10SM BKN110 24/21 A2987 910 78 2200 VRB/05 RMK AO2
14837KMSN MSN20060724231510307/24/06 23:15:31  5-MIN KMSN 250515Z 23004KT 10SM FEW085 BKN110 24/20 A2987 910 76 2300 230/04 RMK AO2
14837KMSN MSN20060724232010307/24/06 23:20:31  5-MIN KMSN 250520Z 23005KT 10SM SCT090 BKN110 24/20 A2987 910 76 2200 230/05 RMK AO2
14837KMSN MSN20060724232510307/24/06 23:25:31  5-MIN KMSN 250525Z VRB04KT 10SM FEW090 OVC110 24/20 A2987 910 76 2200 VRB/04 RMK AO2
14837KMSN MSN20060724233010307/24/06 23:30:31  5-MIN KMSN 250530Z 23005KT 10SM FEW085 OVC120 24/20 A2987 910 76 2200 230/05 RMK AO2
14837KMSN MSN20060724233510307/24/06 23:35:31  5-MIN KMSN 250535Z VRB05KT 10SM FEW085 BKN120 24/20 A2988 910 76 2200 VRB/05 RMK AO2
14837KMSN MSN20060724234010307/24/06 23:40:31  5-MIN KMSN 250540Z VRB03KT 10SM FEW090 BKN120 24/20 A2988 900 76 2200 VRB/03 RMK AO2
14837KMSN MSN20060724234509607/24/06 23:45:31  5-MIN KMSN 250545Z VRB03KT 10SM BKN120 24/20 A2987 910 76 2200 VRB/03 RMK AO2
14837KMSN MSN20060724235015407/24/06 23:50:31  5-MIN KMSN 250550Z VRB04KT 10SM FEW085 BKN120 24/20 A2988 910 76 2200 VRB/04 RMK AO2 SLP109 60002 T02440200 10283 20228 403000206 53014
14837KMSN MSN20060724235510307/24/06 23:55:31  5-MIN KMSN 250555Z 26004KT 10SM SCT080 BKN110 24/20 A2987 910 78 2200 260/04 RMK AO2
14837KMSN MSN20060725000012107/25/06 00:00:38  5-MIN KMSN 250600Z VRB03KT 10SM -RA SCT075 BKN110 24/19 A2987 910 76 2200 VRB/03 RMK AO2 RAB0556 P0000
14837KMSN MSN20060725000512107/25/06 00:05:31  5-MIN KMSN 250605Z VRB03KT 10SM -RA BKN075 BKN110 24/19 A2987 910 76 2200 VRB/03 RMK AO2 RAB0556 P0000
14837KMSN MSN20060725001012007/25/06 00:10:31  5-MIN KMSN 250610Z VRB04KT 10SM SCT075 BKN120 24/19 A2987 910 71 2200 VRB/04 RMK AO2 RAB0556E06 P0000
14837KMSN MSN20060725001512007/25/06 00:15:32  5-MIN KMSN 250615Z VRB03KT 10SM SCT075 BKN120 24/19 A2987 910 71 2300 VRB/03 RMK AO2 RAB0556E06 P0000
14837KMSN MSN20060725002012007/25/06 00:20:31  5-MIN KMSN 250620Z VRB04KT 10SM FEW070 SCT120 24/19 A2987 910 73 2200 VRB/04 RMK AO2 RAB0556E06 P0000
14837KMSN MSN20060725002512007/25/06 00:25:31  5-MIN KMSN 250625Z VRB04KT 10SM FEW070 SCT120 24/19 A2987 910 71 2300 VRB/04 RMK AO2 RAB0556E06 P0000
14837KMSN MSN20060725003011307/25/06 00:30:31  5-MIN KMSN 250630Z VRB05KT 10SM FEW120 24/19 A2987 910 73 2200 VRB/05 RMK AO2 RAB0556E06 P0000
14837KMSN MSN20060725003511307/25/06 00:35:31  5-MIN KMSN 250635Z 22005KT 10SM FEW120 24/19 A2987 910 73 2200 220/05 RMK AO2 RAB0556E06 P0000
14837KMSN MSN20060725004011007/25/06 00:40:31  5-MIN KMSN 250640Z VRB03KT 10SM CLR 24/19 A2987 910 76 2200 VRB/03 RMK AO2 RAB0556E06 P0000
14837KMSN MSN20060725004511007/25/06 00:45:31  5-MIN KMSN 250645Z 22003KT 10SM CLR 24/19 A2986 920 76 2200 220/03 RMK AO2 RAB0556E06 P0000
14837KMSN MSN20060725005013007/25/06 00:50:31  5-MIN KMSN 250650Z 22006KT 10SM FEW120 24/19 A2986 920 76 2200 210/06 RMK AO2 RAB0556E06 SLP105 P0000 T02390194
14837KMSN MSN20060725005509607/25/06 00:55:31  5-MIN KMSN 250655Z 21006KT 10SM SCT120 24/19 A2986 920 76 2200 210/06 RMK AO2
14837KMSN MSN20060725010009607/25/06 01:00:31  5-MIN KMSN 250700Z 22005KT 10SM BKN120 24/19 A2986 920 76 2200 220/05 RMK AO2
14837KMSN MSN20060725010509607/25/06 01:05:31  5-MIN KMSN 250705Z 23006KT 10SM BKN120 24/19 A2986 920 76 2200 220/06 RMK AO2
14837KMSN MSN20060725011009607/25/06 01:10:31  5-MIN KMSN 250710Z 22006KT 10SM BKN120 24/19 A2986 920 76 2200 220/06 RMK AO2
14837KMSN MSN20060725011509607/25/06 01:15:31  5-MIN KMSN 250715Z 21005KT 10SM OVC120 24/19 A2986 920 76 2200 210/05 RMK AO2
14837KMSN MSN20060725012011907/25/06 01:20:31  5-MIN KMSN 250720Z 22006KT 10SM -RA FEW080 OVC120 24/19 A2986 920 76 2200 220/06 RMK AO2 RAB20 P0000
14837KMSN MSN20060725012511907/25/06 01:25:31  5-MIN KMSN 250725Z 23004KT 10SM -RA SCT070 BKN120 24/19 A2986 920 76 2200 230/04 RMK AO2 RAB20 P0000
14837KMSN MSN20060725013011907/25/06 01:30:31  5-MIN KMSN 250730Z 22006KT 10SM -RA SCT055 BKN120 24/19 A2986 920 76 2200 220/06 RMK AO2 RAB20 P0000
14837KMSN MSN20060725013511907/25/06 01:35:31  5-MIN KMSN 250735Z VRB06KT 10SM -RA SCT060 BKN120 24/19 A2986 920 76 2200 VRB/06 RMK AO2 RAB20 P0000
14837KMSN MSN20060725014011907/25/06 01:40:31  5-MIN KMSN 250740Z VRB04KT 10SM -RA SCT060 BKN120 24/19 A2986 920 76 2200 VRB/04 RMK AO2 RAB20 P0000
14837KMSN MSN20060725014511207/25/06 01:45:31  5-MIN KMSN 250745Z 22006KT 10SM -RA BKN048 24/19 A2986 920 76 2200 220/06 RMK AO2 RAB20 P0000
14837KMSN MSN20060725015012807/25/06 01:50:31  5-MIN KMSN 250750Z 22006KT 9SM -RA BKN055 24/19 A2986 920 76 2200 220/06 RMK AO2 RAB20 SLP103 P0000 T02390194
14837KMSN MSN20060725015510507/25/06 01:55:31  5-MIN KMSN 250755Z 22007KT 9SM -RA BKN065 24/19 A2986 920 76 2200 220/07 RMK AO2 P0000
14837KMSN MSN20060725020011307/25/06 02:00:31  5-MIN KMSN 250800Z 22006KT 10SM -RA BKN070 BKN120 23/19 A2986 920 78 2100 210/06 RMK AO2 P0000
14837KMSN MSN20060725020511307/25/06 02:05:31  5-MIN KMSN 250805Z 22006KT 10SM -RA BKN065 OVC120 23/19 A2986 920 78 2100 220/06 RMK AO2 P0000
14837KMSN MSN20060725021011507/25/06 02:10:31  5-MIN KMSN 250810Z 22005KT 10SM SCT065 OVC110 23/19 A2986 920 78 2100 220/05 RMK AO2 RAE07 P0000
14837KMSN MSN20060725021511507/25/06 02:15:31  5-MIN KMSN 250815Z 22004KT 10SM SCT080 OVC110 23/19 A2986 920 78 2100 220/04 RMK AO2 RAE07 P0000
14837KMSN MSN20060725022011507/25/06 02:20:31  5-MIN KMSN 250820Z 23005KT 10SM FEW080 OVC110 23/19 A2986 920 78 2100 230/05 RMK AO2 RAE07 P0000
14837KMSN MSN20060725022510807/25/06 02:25:31  5-MIN KMSN 250825Z 21004KT 10SM OVC110 23/19 A2986 920 76 2100 210/04 RMK AO2 RAE07 P0000
14837KMSN MSN20060725023010807/25/06 02:30:31  5-MIN KMSN 250830Z 21004KT 10SM OVC110 24/19 A2986 920 73 2200 210/04 RMK AO2 RAE07 P0000
14837KMSN MSN20060725023511507/25/06 02:35:31  5-MIN KMSN 250835Z 22004KT 10SM SCT075 OVC110 24/19 A2986 920 76 2200 220/04 RMK AO2 RAE07 P0000
14837KMSN MSN20060725024011507/25/06 02:40:31  5-MIN KMSN 250840Z 24005KT 10SM SCT065 OVC110 24/19 A2986 920 73 2200 240/05 RMK AO2 RAE07 P0000
14837KMSN MSN20060725024511507/25/06 02:45:31  5-MIN KMSN 250845Z VRB04KT 10SM FEW060 OVC110 24/19 A2986 920 73 2200 VRB/04 RMK AO2 RAE07 P0000
14837KMSN MSN20060725025014407/25/06 02:50:31  5-MIN KMSN 250850Z 24004KT 10SM FEW065 OVC120 24/19 A2986 920 76 2200 240/04 RMK AO2 RAE07 SLP106 P0000 60000 T02390194 53006
14837KMSN MSN20060725025510307/25/06 02:55:31  5-MIN KMSN 250855Z 23004KT 10SM FEW070 BKN120 23/19 A2986 920 78 2100 230/04 RMK AO2
14837KMSN MSN20060725030010307/25/06 03:00:31  5-MIN KMSN 250900Z 27003KT 10SM FEW055 BKN120 23/19 A2987 910 78 2100 270/03 RMK AO2
14837KMSN MSN20060725030509607/25/06 03:05:31  5-MIN KMSN 250905Z VRB03KT 10SM BKN120 23/19 A2987 910 78 2100 VRB/03 RMK AO2
14837KMSN MSN20060725031009607/25/06 03:10:31  5-MIN KMSN 250910Z 22004KT 10SM SCT120 23/19 A2987 910 78 2100 210/04 RMK AO2
14837KMSN MSN20060725031509607/25/06 03:15:31  5-MIN KMSN 250915Z 22006KT 10SM FEW120 23/19 A2987 910 78 2100 220/06 RMK AO2
14837KMSN MSN20060725032009607/25/06 03:20:31  5-MIN KMSN 250920Z 23005KT 10SM FEW120 23/19 A2987 910 78 2100 220/05 RMK AO2
14837KMSN MSN20060725032509607/25/06 03:25:31  5-MIN KMSN 250925Z 21005KT 10SM FEW120 23/19 A2987 910 78 2100 210/05 RMK AO2
14837KMSN MSN20060725033009307/25/06 03:30:31  5-MIN KMSN 250930Z 20006KT 10SM CLR 23/20 A2987 910 81 2100 200/06 RMK AO2
14837KMSN MSN20060725033509307/25/06 03:35:31  5-MIN KMSN 250935Z 21005KT 10SM CLR 23/19 A2987 910 78 2100 210/05 RMK AO2
14837KMSN MSN20060725034009607/25/06 03:40:31  5-MIN KMSN 250940Z 20006KT 10SM FEW100 24/19 A2987 910 76 2200 200/06 RMK AO2
14837KMSN MSN20060725034509607/25/06 03:45:31  5-MIN KMSN 250945Z 20006KT 10SM SCT085 24/19 A2987 910 76 2200 200/06 RMK AO2
14837KMSN MSN20060725035012007/25/06 03:50:31  5-MIN KMSN 250950Z 20006KT 10SM SCT080 BKN120 24/19 A2987 910 76 2200 200/06 RMK AO2 SLP106 T02390194
14837KMSN MSN20060725035511307/25/06 03:55:31  5-MIN KMSN 250955Z 19006KT 10SM -RA SCT075 BKN120 24/19 A2987 910 76 2200 190/06 RMK AO2 P0000
14837KMSN MSN20060725040011307/25/06 04:00:31  5-MIN KMSN 251000Z 19006KT 10SM -RA FEW080 BKN120 24/19 A2987 920 76 2200 190/06 RMK AO2 P0000
14837KMSN MSN20060725040511307/25/06 04:05:31  5-MIN KMSN 251005Z 19005KT 10SM -RA FEW080 BKN120 23/19 A2986 920 78 2100 190/05 RMK AO2 P0000
14837KMSN MSN20060725041011507/25/06 04:10:31  5-MIN KMSN 251010Z 18006KT 10SM FEW075 BKN120 23/19 A2986 920 78 2100 180/06 RMK AO2 RAE07 P0000
14837KMSN MSN20060725041511507/25/06 04:15:31  5-MIN KMSN 251015Z 18005KT 10SM FEW065 BKN120 23/19 A2986 920 78 2100 180/05 RMK AO2 RAE07 P0000
14837KMSN MSN20060725042010807/25/06 04:20:31  5-MIN KMSN 251020Z 20004KT 10SM SCT120 23/19 A2986 920 78 2100 200/04 RMK AO2 RAE07 P0000
14837KMSN MSN20060725042510807/25/06 04:25:31  5-MIN KMSN 251025Z 18005KT 10SM SCT120 23/19 A2986 920 78 2100 180/05 RMK AO2 RAE07 P0000
14837KMSN MSN20060725043010807/25/06 04:30:31  5-MIN KMSN 251030Z 18005KT 10SM FEW120 23/19 A2987 910 78 2100 180/05 RMK AO2 RAE07 P0000
14837KMSN MSN20060725043510507/25/06 04:35:31  5-MIN KMSN 251035Z 18006KT 10SM CLR 23/19 A2987 910 81 2100 180/06 RMK AO2 RAE07 P0000
14837KMSN MSN20060725044010507/25/06 04:40:31  5-MIN KMSN 251040Z 19005KT 10SM CLR 23/19 A2987 910 81 2100 190/05 RMK AO2 RAE07 P0000
14837KMSN MSN20060725044510507/25/06 04:45:31  5-MIN KMSN 251045Z 19006KT 10SM CLR 23/19 A2987 910 81 2100 190/06 RMK AO2 RAE07 P0000
14837KMSN MSN20060725045012207/25/06 04:50:31  5-MIN KMSN 251050Z 19006KT 10SM CLR 23/19 A2987 910 81 2100 190/06 RMK AO2 RAE07 SLP108 P0000 T02280194
14837KMSN MSN20060725045509307/25/06 04:55:31  5-MIN KMSN 251055Z 18006KT 10SM CLR 23/19 A2987 910 78 2100 180/06 RMK AO2
14837KMSN MSN20060725050009307/25/06 05:00:31  5-MIN KMSN 251100Z 19006KT 10SM CLR 23/19 A2987 910 76 2100 190/06 RMK AO2
14837KMSN MSN20060725050509307/25/06 05:05:31  5-MIN KMSN 251105Z 18006KT 10SM CLR 23/19 A2987 910 76 2100 180/06 RMK AO2
14837KMSN MSN20060725051009307/25/06 05:10:31  5-MIN KMSN 251110Z 18006KT 10SM CLR 23/19 A2987 910 76 2100 180/06 RMK AO2
14837KMSN MSN20060725051509307/25/06 05:15:31  5-MIN KMSN 251115Z 20004KT 10SM CLR 23/19 A2987 910 76 2100 200/04 RMK AO2
14837KMSN MSN20060725052009307/25/06 05:20:31  5-MIN KMSN 251120Z 19004KT 10SM CLR 23/19 A2987 910 76 2100 190/04 RMK AO2
14837KMSN MSN20060725052509307/25/06 05:25:31  5-MIN KMSN 251125Z 18006KT 10SM CLR 23/19 A2987 910 76 2100 180/06 RMK AO2
14837KMSN MSN20060725053009307/25/06 05:30:31  5-MIN KMSN 251130Z 18007KT 10SM CLR 23/19 A2987 910 76 2100 180/07 RMK AO2
14837KMSN MSN20060725053509307/25/06 05:35:31  5-MIN KMSN 251135Z 18006KT 10SM CLR 23/19 A2988 900 76 2100 180/06 RMK AO2
14837KMSN MSN20060725054009607/25/06 05:40:31  5-MIN KMSN 251140Z 18007KT 10SM FEW070 23/19 A2988 900 76 2100 180/07 RMK AO2
14837KMSN MSN20060725054509607/25/06 05:45:31  5-MIN KMSN 251145Z 19006KT 10SM SCT070 23/19 A2988 900 76 2100 190/06 RMK AO2
14837KMSN MSN20060725055014307/25/06 05:50:31  5-MIN KMSN 251150Z 21005KT 10SM BKN070 24/19 A2988 900 73 2200 210/05 RMK AO2 SLP112 60000 70002 T02390189 10244 20228 55003
14837KMSN MSN20060725055509607/25/06 05:55:31  5-MIN KMSN 251155Z 21004KT 10SM BKN070 24/19 A2988 900 73 2200 210/04 RMK AO2
14837KMSN MSN20060725060009607/25/06 06:00:31  5-MIN KMSN 251200Z VRB05KT 10SM SCT070 24/19 A2988 900 73 2200 VRB/05 RMK AO2
14837KMSN MSN20060725060509607/25/06 06:05:31  5-MIN KMSN 251205Z 20005KT 10SM SCT070 24/18 A2988 900 71 2200 200/05 RMK AO2
14837KMSN MSN20060725061009607/25/06 06:10:31  5-MIN KMSN 251210Z 21006KT 10SM SCT075 24/18 A2988 900 71 2200 210/06 RMK AO2
14837KMSN MSN20060725061509607/25/06 06:15:31  5-MIN KMSN 251215Z 21005KT 10SM SCT075 24/18 A2988 900 68 2200 210/05 RMK AO2
14837KMSN MSN20060725062009607/25/06 06:20:31  5-MIN KMSN 251220Z 22005KT 10SM FEW075 24/18 A2988 900 71 2200 220/05 RMK AO2
14837KMSN MSN20060725062509607/25/06 06:25:31  5-MIN KMSN 251225Z 22005KT 10SM FEW075 24/18 A2988 900 71 2200 220/05 RMK AO2
14837KMSN MSN20060725063009307/25/06 06:30:31  5-MIN KMSN 251230Z 22005KT 10SM CLR 24/18 A2988 900 71 2200 220/05 RMK AO2
14837KMSN MSN20060725063509307/25/06 06:35:31  5-MIN KMSN 251235Z VRB06KT 10SM CLR 24/18 A2988 900 71 2200 VRB/06 RMK AO2
14837KMSN MSN20060725064009307/25/06 06:40:31  5-MIN KMSN 251240Z VRB04KT 10SM CLR 24/18 A2988 900 71 2200 VRB/04 RMK AO2
14837KMSN MSN20060725064509307/25/06 06:45:31  5-MIN KMSN 251245Z 20007KT 10SM CLR 24/18 A2988 900 71 2200 200/07 RMK AO2
14837KMSN MSN20060725065011007/25/06 06:50:31  5-MIN KMSN 251250Z 20008KT 10SM CLR 24/18 A2988 900 71 2200 190/08 RMK AO2 SLP112 T02390183
14837KMSN MSN20060725065509307/25/06 06:55:31  5-MIN KMSN 251255Z 19006KT 10SM CLR 24/18 A2988 900 71 2200 190/06 RMK AO2
14837KMSN MSN20060725070009307/25/06 07:00:31  5-MIN KMSN 251300Z 19008KT 10SM CLR 24/19 A2988 910 73 2200 180/08 RMK AO2
14837KMSN MSN20060725070509307/25/06 07:05:31  5-MIN KMSN 251305Z 19007KT 10SM CLR 24/19 A2987 910 73 2200 190/07 RMK AO2
14837KMSN MSN20060725071009307/25/06 07:10:31  5-MIN KMSN 251310Z 19007KT 10SM CLR 24/19 A2987 910 73 2200 190/07 RMK AO2
14837KMSN MSN20060725071509607/25/06 07:15:31  5-MIN KMSN 251315Z 20007KT 10SM SCT120 24/19 A2987 910 73 2200 200/07 RMK AO2
14837KMSN MSN20060725072009607/25/06 07:20:31  5-MIN KMSN 251320Z 19006KT 10SM SCT120 24/19 A2987 910 71 2300 190/06 RMK AO2
14837KMSN MSN20060725072509607/25/06 07:25:31  5-MIN KMSN 251325Z 19009KT 10SM SCT120 24/19 A2987 910 71 2300 190/09 RMK AO2
14837KMSN MSN20060725073009607/25/06 07:30:31  5-MIN KMSN 251330Z 19008KT 10SM SCT120 25/19 A2987 910 68 2300 180/08 RMK AO2
14837KMSN MSN20060725073509607/25/06 07:35:31  5-MIN KMSN 251335Z 19010KT 10SM SCT120 25/19 A2987 910 68 2300 190/10 RMK AO2
14837KMSN MSN20060725074011207/25/06 07:40:31  5-MIN KMSN 251340Z 21007KT 180V250 10SM SCT120 25/19 A2987 910 68 2300 210/07 180V250 RMK AO2
14837KMSN MSN20060725074509607/25/06 07:45:31  5-MIN KMSN 251345Z 21006KT 10SM SCT120 25/19 A2987 910 68 2300 210/06 RMK AO2
14837KMSN MSN20060725075011307/25/06 07:50:31  5-MIN KMSN 251350Z 20007KT 10SM SCT120 24/18 A2987 910 68 2300 200/07 RMK AO2 SLP108 T02440183
14837KMSN MSN20060725075511207/25/06 07:55:31  5-MIN KMSN 251355Z 21008KT 170V230 10SM SCT120 25/19 A2987 910 68 2300 210/08 170V230 RMK AO2
14837KMSN MSN20060725080009607/25/06 08:00:31  5-MIN KMSN 251400Z 22007KT 10SM SCT120 25/18 A2987 910 66 2300 220/07 RMK AO2
14837KMSN MSN20060725080509607/25/06 08:05:31  5-MIN KMSN 251405Z 22006KT 10SM SCT120 25/19 A2986 920 68 2300 210/06 RMK AO2
14837KMSN MSN20060725081009607/25/06 08:10:31  5-MIN KMSN 251410Z 21006KT 10SM SCT120 25/19 A2986 920 68 2300 210/06 RMK AO2
14837KMSN MSN20060725081509607/25/06 08:15:31  5-MIN KMSN 251415Z 21007KT 10SM SCT120 26/19 A2987 910 66 2400 210/07 RMK AO2
14837KMSN MSN20060725082009607/25/06 08:20:31  5-MIN KMSN 251420Z 22008KT 10SM SCT120 26/18 A2987 910 64 2400 220/08 RMK AO2
14837KMSN MSN20060725082509607/25/06 08:25:31  5-MIN KMSN 251425Z 21005KT 10SM SCT120 25/19 A2987 910 68 2300 210/05 RMK AO2
14837KMSN MSN20060725083009607/25/06 08:30:31  5-MIN KMSN 251430Z 21006KT 10SM SCT120 25/19 A2987 910 68 2300 210/06 RMK AO2
14837KMSN MSN20060725083509607/25/06 08:35:31  5-MIN KMSN 251435Z 21006KT 10SM SCT120 26/19 A2987 910 66 2400 210/06 RMK AO2
14837KMSN MSN20060725084009607/25/06 08:40:31  5-MIN KMSN 251440Z 20007KT 10SM SCT120 26/19 A2987 910 64 2400 200/07 RMK AO2
14837KMSN MSN20060725084509607/25/06 08:45:31  5-MIN KMSN 251445Z 20008KT 10SM SCT120 26/19 A2987 920 64 2400 200/08 RMK AO2
14837KMSN MSN20060725085013507/25/06 08:50:31  5-MIN KMSN 251450Z 20007KT 170V240 10SM SCT120 27/19 A2986 920 62 2500 200/07 170V240 RMK AO2 SLP105 T02670189 53005
14837KMSN MSN20060725085509607/25/06 08:55:31  5-MIN KMSN 251455Z 20009KT 10SM SCT110 27/18 A2986 920 60 2500 200/09 RMK AO2
14837KMSN MSN20060725090009607/25/06 09:00:31  5-MIN KMSN 251500Z 21009KT 10SM SCT110 26/18 A2986 920 62 2500 210/09 RMK AO2
14837KMSN MSN20060725090509607/25/06 09:05:31  5-MIN KMSN 251505Z 19008KT 10SM SCT110 26/18 A2986 920 62 2500 190/08 RMK AO2
14837KMSN MSN20060725091009607/25/06 09:10:31  5-MIN KMSN 251510Z 20009KT 10SM SCT110 27/18 A2986 920 60 2500 200/09 RMK AO2
14837KMSN MSN20060725091509607/25/06 09:15:31  5-MIN KMSN 251515Z 19008KT 10SM SCT110 27/19 A2986 920 62 2600 190/08 RMK AO2
14837KMSN MSN20060725092009607/25/06 09:20:31  5-MIN KMSN 251520Z 21006KT 10SM SCT110 27/19 A2985 920 62 2600 210/06 RMK AO2
14837KMSN MSN20060725092509607/25/06 09:25:31  5-MIN KMSN 251525Z 20010KT 10SM SCT110 28/19 A2985 930 60 2600 200/10 RMK AO2
14837KMSN MSN20060725093009607/25/06 09:30:31  5-MIN KMSN 251530Z 21007KT 10SM SCT110 28/19 A2985 930 58 2600 210/07 RMK AO2
14837KMSN MSN20060725093509607/25/06 09:35:31  5-MIN KMSN 251535Z 19011KT 10SM SCT110 28/19 A2985 930 58 2600 190/11 RMK AO2
14837KMSN MSN20060725094011207/25/06 09:40:31  5-MIN KMSN 251540Z 22009KT 180V260 10SM SCT110 28/19 A2985 930 58 2600 220/09 180V260 RMK AO2
14837KMSN MSN20060725094509607/25/06 09:45:31  5-MIN KMSN 251545Z 21009KT 10SM SCT110 28/19 A2985 930 58 2600 210/09 RMK AO2
14837KMSN MSN20060725095011307/25/06 09:50:31  5-MIN KMSN 251550Z 19009KT 10SM SCT110 28/19 A2985 930 58 2700 190/09 RMK AO2 SLP102 T02830194
14837KMSN MSN20060725095509607/25/06 09:55:31  5-MIN KMSN 251555Z 21008KT 10SM SCT120 29/19 A2985 930 56 2800 210/08 RMK AO2
14837KMSN MSN20060725100009607/25/06 10:00:31  5-MIN KMSN 251600Z 21008KT 10SM SCT120 28/19 A2985 930 56 2700 210/08 RMK AO2
14837KMSN MSN20060725100509607/25/06 10:05:31  5-MIN KMSN 251605Z 21010KT 10SM SCT120 28/19 A2985 930 56 2700 210/10 RMK AO2
14837KMSN MSN20060725101009607/25/06 10:10:31  5-MIN KMSN 251610Z 22007KT 10SM SCT120 28/19 A2985 930 56 2700 220/07 RMK AO2
14837KMSN MSN20060725101509607/25/06 10:15:31  5-MIN KMSN 251615Z 20009KT 10SM SCT120 29/19 A2985 930 56 2800 200/09 RMK AO2
14837KMSN MSN20060725102009607/25/06 10:20:31  5-MIN KMSN 251620Z 20009KT 10SM SCT120 28/19 A2984 930 56 2700 200/09 RMK AO2
14837KMSN MSN20060725102509607/25/06 10:25:31  5-MIN KMSN 251625Z 21010KT 10SM SCT120 29/19 A2984 930 54 2800 210/10 RMK AO2
14837KMSN MSN20060725103009607/25/06 10:30:31  5-MIN KMSN 251630Z 20011KT 10SM SCT120 28/19 A2984 940 56 2700 200/11 RMK AO2
14837KMSN MSN20060725103509607/25/06 10:35:31  5-MIN KMSN 251635Z 20011KT 10SM SCT120 29/19 A2985 930 54 2800 200/11 RMK AO2
14837KMSN MSN20060725104009607/25/06 10:40:31  5-MIN KMSN 251640Z 21009KT 10SM SCT120 28/18 A2984 940 54 2700 210/09 RMK AO2
14837KMSN MSN20060725104509607/25/06 10:45:31  5-MIN KMSN 251645Z 20008KT 10SM SCT120 28/18 A2984 940 54 2700 200/08 RMK AO2
14837KMSN MSN20060725105011307/25/06 10:50:31  5-MIN KMSN 251650Z 20010KT 10SM SCT120 29/19 A2984 940 54 2800 200/10 RMK AO2 SLP098 T02890189
14837KMSN MSN20060725105509607/25/06 10:55:31  5-MIN KMSN 251655Z 22009KT 10SM FEW120 28/18 A2984 940 54 2700 220/09 RMK AO2
14837KMSN MSN20060725110009607/25/06 11:00:31  5-MIN KMSN 251700Z 21009KT 10SM FEW120 29/19 A2984 940 54 2800 210/09 RMK AO2
14837KMSN MSN20060725110511207/25/06 11:05:31  5-MIN KMSN 251705Z 21008KT 180V240 10SM FEW120 29/19 A2984 940 52 2800 210/08 180V240 RMK AO2
14837KMSN MSN20060725111009607/25/06 11:10:31  5-MIN KMSN 251710Z 20010KT 10SM FEW120 29/19 A2984 940 52 2800 200/10 RMK AO2
14837KMSN MSN20060725111509607/25/06 11:15:31  5-MIN KMSN 251715Z 20009KT 10SM FEW120 29/19 A2984 940 52 2800 200/09 RMK AO2
14837KMSN MSN20060725112009607/25/06 11:20:31  5-MIN KMSN 251720Z 20009KT 10SM FEW120 29/19 A2984 940 52 2800 200/09 RMK AO2
14837KMSN MSN20060725112509607/25/06 11:25:31  5-MIN KMSN 251725Z 19008KT 10SM FEW120 30/19 A2983 950 52 2900 190/08 RMK AO2
14837KMSN MSN20060725113010207/25/06 11:30:31  5-MIN KMSN 251730Z 17013G16KT 10SM FEW120 30/19 A2983 950 52 2900 170/13G16 RMK AO2
14837KMSN MSN20060725113509607/25/06 11:35:31  5-MIN KMSN 251735Z 21009KT 10SM FEW120 30/20 A2983 950 54 2900 210/09 RMK AO2
14837KMSN MSN20060725114010207/25/06 11:40:31  5-MIN KMSN 251740Z 21008G15KT 10SM FEW120 31/19 A2983 940 51 3000 200/08G15 RMK AO2
14837KMSN MSN20060725114509607/25/06 11:45:31  5-MIN KMSN 251745Z 22009KT 10SM FEW120 31/19 A2983 940 51 3000 220/09 RMK AO2
14837KMSN MSN20060725115013107/25/06 11:50:31  5-MIN KMSN 251750Z 21011KT 10SM FEW120 31/19 A2983 950 51 3000 210/11 RMK AO2 SLP095 T03060194 10306 20239 58006
14837KMSN MSN20060725115509907/25/06 11:55:31  5-MIN KMSN 251755Z 20011G18KT 10SM CLR 31/19 A2983 950 49 3000 200/11G18 RMK AO2
14837KMSN MSN20060725120009907/25/06 12:00:31  5-MIN KMSN 251800Z 21010G18KT 10SM CLR 31/19 A2983 950 49 3000 210/10G18 RMK AO2
14837KMSN MSN20060725120509307/25/06 12:05:31  5-MIN KMSN 251805Z 20013KT 10SM CLR 31/19 A2983 950 49 3000 200/13 RMK AO2
14837KMSN MSN20060725121009307/25/06 12:10:31  5-MIN KMSN 251810Z 22011KT 10SM CLR 31/18 A2983 950 47 3000 220/11 RMK AO2
14837KMSN MSN20060725121509307/25/06 12:15:31  5-MIN KMSN 251815Z 21011KT 10SM CLR 31/19 A2983 950 49 3000 210/11 RMK AO2
14837KMSN MSN20060725122009907/25/06 12:20:31  5-MIN KMSN 251820Z 21011G16KT 10SM CLR 31/19 A2982 950 49 3000 210/11G16 RMK AO2
14837KMSN MSN20060725122509907/25/06 12:25:31  5-MIN KMSN 251825Z 21010G16KT 10SM CLR 31/19 A2982 960 51 3000 210/10G16 RMK AO2
14837KMSN MSN20060725123009307/25/06 12:30:31  5-MIN KMSN 251830Z 19013KT 10SM CLR 31/19 A2982 960 49 3000 190/13 RMK AO2
14837KMSN MSN20060725123511507/25/06 12:35:31  5-MIN KMSN 251835Z 22009G15KT 190V250 10SM CLR 31/19 A2982 960 49 3100 220/09G15 190V250 RMK AO2
14837KMSN MSN20060725225515107/25/06 22:55:31  5-MIN KMSN 260455Z 22009G16KT 180V250 2 1/2SM TSRA BR BKN026 BKN047 OVC060 22/20 A2980 980 87 2100 220/09G16 180V250 RMK AO2 P0003 $
14837KMSN MSN20060725230016207/25/06 23:00:31  5-MIN KMSN 260500Z 22007G16KT 2 1/2SM TSRA BKN026 BKN048 OVC060 23/20 A2980 980 84 2100 220/07G16 RMK AO2 OCNL LTGICCA OHD TS OHD MOV E P0004 $
14837KMSN MSN20060725230515907/25/06 23:05:31  5-MIN KMSN 260505Z 23009KT 2 1/2SM TSRA BR BKN028 BKN048 OVC060 22/20 A2980 980 87 2100 230/09 RMK AO2 OCNL LTGICCA OHD TS OHD MOV E P0005 $
14837KMSN MSN20060725231015907/25/06 23:10:31  5-MIN KMSN 260510Z 23007KT 2 1/2SM TSRA BR SCT028 BKN048 OVC060 22/20 A2979 980 87 2100 220/07 RMK AO2 OCNL LTGICCA OHD TS OHD MOV E P0005 $
14837KMSN MSN20060725231515307/25/06 23:15:31  5-MIN KMSN 260515Z 23006KT 3SM -TSRA SCT030 SCT048 OVC065 23/20 A2980 980 84 2100 220/06 RMK AO2 OCNL LTGICCA OHD TS OHD MOV E P0006 $
14837KMSN MSN20060725232015307/25/06 23:20:31  5-MIN KMSN 260520Z 22008KT 3SM -TSRA FEW032 SCT048 OVC060 23/20 A2980 980 84 2100 220/08 RMK AO2 OCNL LTGICCA OHD TS OHD MOV E P0006 $
14837KMSN MSN20060725232515307/25/06 23:25:31  5-MIN KMSN 260525Z 22008KT 3SM -TSRA SCT048 BKN060 OVC075 23/20 A2980 980 84 2100 220/08 RMK AO2 OCNL LTGICCA OHD TS OHD MOV E P0006 $
14837KMSN MSN20060725233015107/25/06 23:30:31  5-MIN KMSN 260530Z 23006KT 10SM -TSRA BKN060 OVC090 23/20 A2980 980 84 2100 230/06 RMK AO2 OCNL LTGICCA VC NE TS VC NE MOV E P0006 $
14837KMSN MSN20060725233516107/25/06 23:35:31  5-MIN KMSN 260535Z 22008KT 10SM TS FEW049 BKN060 OVC085 23/20 A2980 980 84 2100 220/08 RMK AO2 RAE33 OCNL LTGICCA VC NE TS VC NE MOV E P0006 $
14837KMSN MSN20060725234014807/25/06 23:40:31  5-MIN KMSN 260540Z 23006KT 10SM SCT060 OVC085 23/20 A2979 980 84 2100 230/06 RMK AO2 TSE38RAE33 OCNL LTG DSNT NE TS MOV E P0006 $
14837KMSN MSN20060725234514807/25/06 23:45:31  5-MIN KMSN 260545Z 22008KT 10SM FEW055 OVC085 23/20 A2979 980 84 2100 220/08 RMK AO2 TSE38RAE33 OCNL LTG DSNT NE TS MOV E P0006 $
14837KMSN MSN20060725235018207/25/06 23:50:31  5-MIN KMSN 260550Z VRB06KT 10SM FEW060 OVC085 23/20 A2980 980 84 2100 VRB/06 RMK AO2 TSE38RAE33 SLP083 TS MOV E P0006 60006 T02280200 10289 20222 403170222 53006 $
14837KMSN MSN20060725235509807/25/06 23:55:31  5-MIN KMSN 260555Z VRB06KT 10SM OVC090 23/20 A2979 980 84 2200 VRB/06 RMK AO2 $
14837KMSN MSN20060726000011507/26/06 00:00:38  5-MIN KMSN 260600Z VRB06KT 7SM -RA OVC090 23/20 A2979 980 84 2200 VRB/06 RMK AO2 RAB0559 P0000 $
14837KMSN MSN20060726000512507/26/06 00:05:31  5-MIN KMSN 260605Z 22007KT 6SM -RA BR SCT080 OVC100 22/20 A2979 990 87 2100 220/07 RMK AO2 RAB0559 P0000 $
14837KMSN MSN20060726001012507/26/06 00:10:31  5-MIN KMSN 260610Z 23006KT 6SM -RA BR SCT070 OVC090 22/21 A2979 990 90 2100 230/06 RMK AO2 RAB0559 P0000 $
14837KMSN MSN20060726001512907/26/06 00:15:34  5-MIN KMSN 260615Z 22005KT 7SM -RA FEW050 SCT075 OVC095 22/21 A2978 990 90 2100 220/05 RMK AO2 RAB0559 P0000 $
14837KMSN MSN20060726002013507/26/06 00:20:31  5-MIN KMSN 260620Z 23010G15KT 9SM -RA SCT070 BKN090 OVC110 22/21 A2978 990 90 2100 230/10G15 RMK AO2 RAB0559 P0000 $
14837KMSN MSN20060726002513507/26/06 00:25:31  5-MIN KMSN 260625Z 23007G16KT 9SM -RA FEW060 SCT075 BKN100 23/20 A2978 990 84 2200 220/07G16 RMK AO2 RAB0559 P0000 $
14837KMSN MSN20060726003013607/26/06 00:30:31  5-MIN KMSN 260630Z 23009G16KT 10SM SCT070 BKN100 BKN120 23/20 A2978 1000 84 2200 230/09G16 RMK AO2 RAB0559E28 P0000 $
14837KMSN MSN20060726003512907/26/06 00:35:31  5-MIN KMSN 260635Z 23007G15KT 10SM FEW070 SCT110 23/20 A2978 1000 84 2200 230/07G15 RMK AO2 RAB0559E28 P0000 $
14837KMSN MSN20060726004012307/26/06 00:40:31  5-MIN KMSN 260640Z 23006KT 10SM FEW070 SCT110 23/20 A2978 1000 84 2200 230/06 RMK AO2 RAB0559E28 P0000 $
14837KMSN MSN20060726004512207/26/06 00:45:31  5-MIN KMSN 260645Z VRB05KT 9SM FEW065 BKN110 22/20 A2978 1000 87 2100 VRB/05 RMK AO2 RAB0559E28 P0000 $
14837KMSN MSN20060726005013207/26/06 00:50:31  5-MIN KMSN 260650Z 23007KT 9SM BKN100 22/20 A2978 1000 87 2100 230/07 RMK AO2 RAB0559E28 SLP075 P0000 T02220200 $
14837KMSN MSN20060726005510507/26/06 00:55:31  5-MIN KMSN 260655Z VRB05KT 9SM SCT090 BKN110 22/20 A2977 1000 87 2100 VRB/05 RMK AO2 $
14837KMSN MSN20060726010010507/26/06 01:00:31  5-MIN KMSN 260700Z VRB04KT 9SM BKN090 BKN110 22/21 A2977 1000 90 2100 VRB/04 RMK AO2 $
14837KMSN MSN20060726010511207/26/06 01:05:31  5-MIN KMSN 260705Z VRB04KT 8SM FEW080 BKN090 OVC110 22/21 A2977 1000 90 2100 VRB/04 RMK AO2 $
14837KMSN MSN20060726011011207/26/06 01:10:31  5-MIN KMSN 260710Z VRB06KT 9SM FEW080 BKN090 OVC110 22/21 A2977 1010 90 2100 VRB/06 RMK AO2 $
14837KMSN MSN20060726011510507/26/06 01:15:31  5-MIN KMSN 260715Z 21007KT 9SM BKN090 OVC100 22/21 A2976 1010 90 2100 210/07 RMK AO2 $
14837KMSN MSN20060726012010507/26/06 01:20:31  5-MIN KMSN 260720Z 21009KT 9SM SCT080 OVC100 23/21 A2976 1020 87 2200 210/09 RMK AO2 $
14837KMSN MSN20060726012510507/26/06 01:25:31  5-MIN KMSN 260725Z 22007KT 9SM FEW080 OVC100 23/20 A2976 1020 84 2200 220/07 RMK AO2 $
14837KMSN MSN20060726013010507/26/06 01:30:31  5-MIN KMSN 260730Z 22009KT 9SM FEW080 OVC100 23/21 A2976 1020 87 2200 220/09 RMK AO2 $
14837KMSN MSN20060726013510507/26/06 01:35:31  5-MIN KMSN 260735Z 22007KT 9SM FEW080 BKN100 23/20 A2975 1020 84 2200 220/07 RMK AO2 $
14837KMSN MSN20060726014010507/26/06 01:40:31  5-MIN KMSN 260740Z 22008KT 9SM FEW080 BKN100 23/20 A2975 1020 84 2200 220/08 RMK AO2 $
14837KMSN MSN20060726014511107/26/06 01:45:31  5-MIN KMSN 260745Z 22009G14KT 9SM FEW080 BKN100 23/20 A2975 1020 84 2200 220/09G14 RMK AO2 $
14837KMSN MSN20060726015012107/26/06 01:50:31  5-MIN KMSN 260750Z 22008G14KT 9SM BKN100 23/21 A2975 1020 87 2200 220/08G14 RMK AO2 SLP066 T02280206 $
14837KMSN MSN20060726015510507/26/06 01:55:31  5-MIN KMSN 260755Z 22009KT 9SM FEW080 BKN110 23/21 A2975 1030 87 2200 220/09 RMK AO2 $
14837KMSN MSN20060726020012107/26/06 02:00:31  5-MIN KMSN 260800Z 22009KT 190V250 9SM SCT080 BKN110 23/21 A2975 1030 87 2200 220/09 190V250 RMK AO2 $
14837KMSN MSN20060726020510507/26/06 02:05:31  5-MIN KMSN 260805Z 22009KT 8SM BKN085 BKN110 23/21 A2975 1020 84 2300 220/09 RMK AO2 $
14837KMSN MSN20060726021013707/26/06 02:10:31  5-MIN KMSN 260810Z 22008KT 180V240 8SM -RA BKN085 BKN110 23/21 A2975 1020 84 2300 220/08 180V240 RMK AO2 RAB08 P0000 $
14837KMSN MSN20060726021512107/26/06 02:15:31  5-MIN KMSN 260815Z 22010KT 8SM -RA BKN080 BKN100 23/21 A2975 1020 84 2300 220/10 RMK AO2 RAB08 P0000 $
14837KMSN MSN20060726022012107/26/06 02:20:31  5-MIN KMSN 260820Z 22007KT 9SM -RA BKN080 OVC100 23/21 A2975 1020 84 2300 220/07 RMK AO2 RAB08 P0000 $
14837KMSN MSN20060726022511307/26/06 02:25:31  5-MIN KMSN 260825Z 22008KT 9SM OVC080 23/21 A2975 1020 84 2300 220/08 RMK AO2 RAB08E21 P0000 $
14837KMSN MSN20060726023011907/26/06 02:30:31  5-MIN KMSN 260830Z 23008G14KT 9SM OVC080 23/21 A2975 1020 84 2300 220/08G14 RMK AO2 RAB08E21 P0000 $
14837KMSN MSN20060726023512007/26/06 02:35:31  5-MIN KMSN 260835Z 23008KT 9SM BKN080 OVC100 23/20 A2975 1020 81 2300 230/08 RMK AO2 RAB08E21 P0000 $
14837KMSN MSN20060726024012007/26/06 02:40:31  5-MIN KMSN 260840Z 22009KT 9SM BKN080 BKN100 23/20 A2975 1020 84 2200 220/09 RMK AO2 RAB08E21 P0000 $
14837KMSN MSN20060726024511307/26/06 02:45:31  5-MIN KMSN 260845Z 22007KT 9SM BKN080 23/20 A2975 1020 84 2200 220/07 RMK AO2 RAB08E21 P0000 $
14837KMSN MSN20060726025014207/26/06 02:50:31  5-MIN KMSN 260850Z 23009KT 9SM BKN080 23/20 A2976 1020 84 2200 230/09 RMK AO2 RAB08E21 SLP070 P0001 60001 T02280200 58003 $
14837KMSN MSN20060726025509807/26/06 02:55:31  5-MIN KMSN 260855Z 22007KT 9SM BKN085 23/20 A2975 1020 84 2200 220/07 RMK AO2 $
14837KMSN MSN20060726030012107/26/06 03:00:31  5-MIN KMSN 260900Z 22007KT 180V250 9SM FEW080 BKN090 23/20 A2976 1020 84 2200 220/07 180V250 RMK AO2 $
14837KMSN MSN20060726030509807/26/06 03:05:31  5-MIN KMSN 260905Z 24006KT 9SM BKN090 23/20 A2976 1010 84 2200 240/06 RMK AO2 $
14837KMSN MSN20060726031009807/26/06 03:10:31  5-MIN KMSN 260910Z 23008KT 9SM SCT090 23/20 A2976 1020 84 2200 230/08 RMK AO2 $
14837KMSN MSN20060726031509807/26/06 03:15:31  5-MIN KMSN 260915Z VRB06KT 9SM SCT090 23/20 A2976 1010 84 2200 VRB/06 RMK AO2 $
14837KMSN MSN20060726032009807/26/06 03:20:31  5-MIN KMSN 260920Z VRB05KT 9SM SCT090 23/20 A2976 1010 84 2200 VRB/05 RMK AO2 $
14837KMSN MSN20060726032509807/26/06 03:25:31  5-MIN KMSN 260925Z 23006KT 9SM FEW090 23/20 A2976 1010 84 2200 230/06 RMK AO2 $
14837KMSN MSN20060726033009907/26/06 03:30:31  5-MIN KMSN 260930Z 23008KT 10SM FEW090 23/20 A2976 1010 84 2200 230/08 RMK AO2 $
14837KMSN MSN20060726033509607/26/06 03:35:31  5-MIN KMSN 260935Z 22006KT 10SM CLR 23/19 A2976 1010 81 2200 220/06 RMK AO2 $
14837KMSN MSN20060726034009907/26/06 03:40:31  5-MIN KMSN 260940Z 22006KT 10SM FEW018 23/19 A2976 1010 81 2200 220/06 RMK AO2 $
14837KMSN MSN20060726034509907/26/06 03:45:31  5-MIN KMSN 260945Z 22005KT 10SM FEW018 23/19 A2976 1010 81 2200 220/05 RMK AO2 $
14837KMSN MSN20060726035012307/26/06 03:50:31  5-MIN KMSN 260950Z 23008KT 10SM FEW018 OVC110 23/19 A2976 1010 81 2200 230/08 RMK AO2 SLP072 T02280194 $
14837KMSN MSN20060726035509907/26/06 03:55:31  5-MIN KMSN 260955Z 22007KT 10SM FEW016 23/19 A2976 1010 81 2200 220/07 RMK AO2 $
14837KMSN MSN20060726040009907/26/06 04:00:31  5-MIN KMSN 261000Z 22007KT 10SM FEW018 22/19 A2976 1010 84 2100 220/07 RMK AO2 $
14837KMSN MSN20060726040509907/26/06 04:05:31  5-MIN KMSN 261005Z 22006KT 10SM FEW018 22/19 A2976 1010 84 2100 220/06 RMK AO2 $
14837KMSN MSN20060726041009907/26/06 04:10:31  5-MIN KMSN 261010Z 22008KT 10SM FEW016 22/19 A2976 1010 84 2100 220/08 RMK AO2 $
14837KMSN MSN20060726041509907/26/06 04:15:31  5-MIN KMSN 261015Z 22004KT 10SM FEW016 22/19 A2976 1010 84 2100 220/04 RMK AO2 $
14837KMSN MSN20060726042009607/26/06 04:20:31  5-MIN KMSN 261020Z 22008KT 10SM CLR 22/19 A2976 1010 84 2100 220/08 RMK AO2 $
14837KMSN MSN20060726042509607/26/06 04:25:31  5-MIN KMSN 261025Z 23006KT 10SM CLR 22/19 A2976 1010 84 2100 230/06 RMK AO2 $
14837KMSN MSN20060726043009607/26/06 04:30:31  5-MIN KMSN 261030Z 23005KT 10SM CLR 22/19 A2976 1010 84 2100 230/05 RMK AO2 $
14837KMSN MSN20060726043509607/26/06 04:35:31  5-MIN KMSN 261035Z 22006KT 10SM CLR 22/19 A2977 1010 84 2100 210/06 RMK AO2 $
14837KMSN MSN20060726044009907/26/06 04:40:31  5-MIN KMSN 261040Z 22008KT 10SM FEW018 22/19 A2977 1000 84 2100 220/08 RMK AO2 $
14837KMSN MSN20060726044509807/26/06 04:45:31  5-MIN KMSN 261045Z VRB04KT 9SM FEW018 22/19 A2977 1000 84 2100 VRB/04 RMK AO2 $
14837KMSN MSN20060726045011507/26/06 04:50:31  5-MIN KMSN 261050Z VRB05KT 9SM FEW018 22/19 A2977 1010 84 2100 VRB/05 RMK AO2 SLP074 T02220194 $
14837KMSN MSN20060726045509807/26/06 04:55:31  5-MIN KMSN 261055Z VRB06KT 9SM SCT016 22/19 A2977 1010 84 2100 VRB/06 RMK AO2 $
14837KMSN MSN20060726050010507/26/06 05:00:31  5-MIN KMSN 261100Z VRB05KT 9SM FEW016 BKN110 22/19 A2977 1000 84 2100 VRB/05 RMK AO2 $
14837KMSN MSN20060726050510507/26/06 05:05:31  5-MIN KMSN 261105Z 24006KT 8SM FEW016 BKN110 22/19 A2977 1000 84 2100 240/06 RMK AO2 $
14837KMSN MSN20060726051010507/26/06 05:10:31  5-MIN KMSN 261110Z 23006KT 8SM SCT016 BKN110 22/19 A2977 1000 84 2100 230/06 RMK AO2 $
14837KMSN MSN20060726051511207/26/06 05:15:31  5-MIN KMSN 261115Z VRB06KT 7SM BKN018 BKN022 OVC110 22/19 A2977 1000 84 2100 VRB/06 RMK AO2 $
14837KMSN MSN20060726052010507/26/06 05:20:31  5-MIN KMSN 261120Z 22007KT 7SM BKN019 OVC110 22/19 A2977 1000 84 2100 220/07 RMK AO2 $
14837KMSN MSN20060726052510507/26/06 05:25:31  5-MIN KMSN 261125Z 22008KT 7SM BKN019 OVC110 22/19 A2977 1010 84 2100 220/08 RMK AO2 $
14837KMSN MSN20060726053010507/26/06 05:30:31  5-MIN KMSN 261130Z 21006KT 7SM BKN019 OVC110 22/19 A2977 1010 84 2100 210/06 RMK AO2 $
14837KMSN MSN20060726053509607/26/06 05:35:31  5-MIN KMSN 261135Z 22006KT 7SM OVC019 22/19 A2976 1010 84 2100 220/06 RMK AO2
14837KMSN MSN20060726054010307/26/06 05:40:31  5-MIN KMSN 261140Z 22007KT 7SM BKN017 BKN021 22/19 A2977 1000 84 2100 220/07 RMK AO2
14837KMSN MSN20060726054511207/26/06 05:45:31  5-MIN KMSN 261145Z 24007KT 210V280 7SM OVC017 22/19 A2978 1000 84 2100 240/07 210V280 RMK AO2
14837KMSN MSN20060726055014307/26/06 05:50:31  5-MIN KMSN 261150Z 22006KT 7SM OVC017 22/19 A2977 1000 84 2100 220/06 RMK AO2 SLP076 60001 70017 T02220194 10233 20222 55013
14837KMSN MSN20060726055510607/26/06 05:55:31  5-MIN KMSN 261155Z 21008KT 7SM -RA OVC017 22/19 A2977 1000 84 2100 210/08 RMK AO2 P0000
14837KMSN MSN20060726060010607/26/06 06:00:31  5-MIN KMSN 261200Z 21006KT 6SM -RA BKN015 22/19 A2977 1000 84 2100 210/06 RMK AO2 P0000
14837KMSN MSN20060726060512907/26/06 06:05:31  5-MIN KMSN 261205Z 22008KT 180V250 6SM -RA BKN015 BKN100 22/19 A2977 1010 84 2100 220/08 180V250 RMK AO2 P0000
14837KMSN MSN20060726061011607/26/06 06:10:31  5-MIN KMSN 261210Z 20008KT 6SM -RA BR BKN015 BKN100 22/20 A2976 1010 87 2100 200/08 RMK AO2 P0000
14837KMSN MSN20060726061511307/26/06 06:15:31  5-MIN KMSN 261215Z 22007KT 7SM -RA SCT015 BKN100 22/19 A2976 1010 84 2100 220/07 RMK AO2 P0000
14837KMSN MSN20060726062011307/26/06 06:20:31  5-MIN KMSN 261220Z VRB04KT 7SM -RA SCT015 SCT100 22/19 A2977 1010 84 2100 VRB/04 RMK AO2 P0000
14837KMSN MSN20060726062511307/26/06 06:25:31  5-MIN KMSN 261225Z VRB05KT 7SM -RA SCT015 SCT100 22/19 A2977 1010 84 2100 VRB/05 RMK AO2 P0000
14837KMSN MSN20060726063011507/26/06 06:30:31  5-MIN KMSN 261230Z VRB06KT 7SM BKN015 BKN100 22/19 A2977 1000 84 2100 VRB/06 RMK AO2 RAE28 P0000
14837KMSN MSN20060726063510807/26/06 06:35:31  5-MIN KMSN 261235Z VRB04KT 7SM BKN015 22/19 A2978 1000 84 2100 VRB/04 RMK AO2 RAE28 P0000
14837KMSN MSN20060726064011107/26/06 06:40:31  5-MIN KMSN 261240Z 23004KT 6SM HZ BKN013 22/19 A2978 1000 84 2100 230/04 RMK AO2 RAE28 P0000
14837KMSN MSN20060726064510607/26/06 06:45:31  5-MIN KMSN 261245Z VRB04KT 5SM -RA BKN013 22/20 A2978 1000 90 2000 VRB/04 RMK AO2 P0000
14837KMSN MSN20060726065010607/26/06 06:50:31  5-MIN KMSN 261250Z VRB05KT 4SM -RA BKN015 22/20 A2978 1000 90 2000 VRB/05 RMK AO2 P0001
14837KMSN MSN20060726065510607/26/06 06:55:31  5-MIN KMSN 261255Z 23006KT 5SM -RA OVC015 22/20 A2978 1000 90 2000 230/06 RMK AO2 P0000
14837KMSN MSN20060726070013207/26/06 07:00:31  5-MIN KMSN 261300Z 23007KT 200V270 6SM -RA BR BKN012 OVC017 22/20 A2977 1000 90 2000 230/07 200V270 RMK AO2 P0000
14837KMSN MSN20060726070511607/26/06 07:05:31  5-MIN KMSN 261305Z 22005KT 6SM -RA BR BKN012 OVC018 22/20 A2978 1000 90 2000 210/05 RMK AO2 P0000
14837KMSN MSN20060726071011807/26/06 07:10:31  5-MIN KMSN 261310Z 22005KT 6SM BR BKN012 OVC018 22/19 A2978 1000 87 2000 220/05 RMK AO2 RAE08 P0000
14837KMSN MSN20060726071511807/26/06 07:15:31  5-MIN KMSN 261315Z 22006KT 6SM BR BKN012 OVC018 22/20 A2978 1000 90 2000 220/06 RMK AO2 RAE08 P0000
14837KMSN MSN20060726072011107/26/06 07:20:31  5-MIN KMSN 261320Z 24007KT 6SM BR OVC014 22/20 A2978 1000 90 2000 240/07 RMK AO2 RAE08 P0000
14837KMSN MSN20060726072511107/26/06 07:25:31  5-MIN KMSN 261325Z 21007KT 6SM BR BKN012 22/20 A2977 1000 87 2100 210/07 RMK AO2 RAE08 P0000
14837KMSN MSN20060726073010807/26/06 07:30:31  5-MIN KMSN 261330Z 22006KT 7SM BKN012 22/20 A2978 1000 87 2100 220/06 RMK AO2 RAE08 P0000
14837KMSN MSN20060726073510807/26/06 07:35:31  5-MIN KMSN 261335Z VRB04KT 7SM BKN012 22/20 A2978 1000 87 2100 VRB/04 RMK AO2 RAE08 P0000
14837KMSN MSN20060726074010807/26/06 07:40:31  5-MIN KMSN 261340Z 23004KT 7SM BKN012 22/20 A2978 1000 87 2100 230/04 RMK AO2 RAE08 P0000
14837KMSN MSN20060726074512407/26/06 07:45:31  5-MIN KMSN 261345Z 23007KT 200V270 7SM BKN012 22/20 A2978 1000 87 2100 230/07 200V270 RMK AO2 RAE08 P0000
14837KMSN MSN20060726075012507/26/06 07:50:31  5-MIN KMSN 261350Z 23008KT 7SM BKN012 22/19 A2978 1000 84 2100 230/08 RMK AO2 RAE08 SLP077 P0000 T02220194
14837KMSN MSN20060726075509607/26/06 07:55:31  5-MIN KMSN 261355Z 22007KT 8SM BKN012 23/20 A2977 1000 84 2200 220/07 RMK AO2
14837KMSN MSN20060726080009607/26/06 08:00:31  5-MIN KMSN 261400Z 23007KT 8SM SCT012 23/19 A2977 1000 81 2200 230/07 RMK AO2
14837KMSN MSN20060726080509607/26/06 08:05:31  5-MIN KMSN 261405Z 22007KT 8SM BKN012 23/19 A2977 1000 81 2200 220/07 RMK AO2
14837KMSN MSN20060726081011907/26/06 08:10:31  5-MIN KMSN 261410Z 24007KT 210V280 8SM SCT012 BKN100 22/19 A2978 1000 84 2100 240/07 210V280 RMK AO2
14837KMSN MSN20060726081510307/26/06 08:15:31  5-MIN KMSN 261415Z VRB06KT 9SM SCT012 BKN100 23/19 A2978 1000 81 2200 VRB/06 RMK AO2
14837KMSN MSN20060726082010307/26/06 08:20:31  5-MIN KMSN 261420Z VRB04KT 9SM BKN012 BKN100 23/20 A2977 1000 81 2200 VRB/04 RMK AO2
14837KMSN MSN20060726082510307/26/06 08:25:31  5-MIN KMSN 261425Z VRB05KT 9SM BKN012 BKN100 23/20 A2977 1000 81 2200 VRB/05 RMK AO2
14837KMSN MSN20060726083009607/26/06 08:30:31  5-MIN KMSN 261430Z VRB06KT 9SM BKN015 24/20 A2977 1000 78 2300 VRB/06 RMK AO2
14837KMSN MSN20060726083509607/26/06 08:35:31  5-MIN KMSN 261435Z 23007KT 9SM BKN015 23/19 A2977 1000 78 2200 230/07 RMK AO2
14837KMSN MSN20060726084009607/26/06 08:40:31  5-MIN KMSN 261440Z VRB06KT 9SM BKN015 24/20 A2977 1000 78 2300 VRB/06 RMK AO2
14837KMSN MSN20060726084509607/26/06 08:45:31  5-MIN KMSN 261445Z 23006KT 9SM BKN015 23/20 A2977 1000 81 2200 230/06 RMK AO2
14837KMSN MSN20060726085009707/26/06 08:50:31  5-MIN KMSN 261450Z 22006KT 10SM SCT015 24/20 A2977 1000 76 2400 220/06 RMK AO2
14837KMSN MSN20060726085509707/26/06 08:55:31  5-MIN KMSN 261455Z VRB04KT 10SM SCT017 24/20 A2977 1010 78 2300 VRB/04 RMK AO2
14837KMSN MSN20060726090009707/26/06 09:00:31  5-MIN KMSN 261500Z VRB04KT 10SM SCT017 24/20 A2977 1010 76 2400 VRB/04 RMK AO2
14837KMSN MSN20060726090509707/26/06 09:05:31  5-MIN KMSN 261505Z VRB06KT 10SM SCT017 24/20 A2977 1010 78 2300 VRB/06 RMK AO2
14837KMSN MSN20060726091009707/26/06 09:10:31  5-MIN KMSN 261510Z 25006KT 10SM SCT017 24/20 A2976 1010 76 2400 240/06 RMK AO2
14837KMSN MSN20060726091509707/26/06 09:15:31  5-MIN KMSN 261515Z VRB05KT 10SM SCT017 24/20 A2976 1010 76 2400 VRB/05 RMK AO2
14837KMSN MSN20060726092009707/26/06 09:20:31  5-MIN KMSN 261520Z 20006KT 10SM SCT017 24/20 A2976 1010 76 2400 200/06 RMK AO2
14837KMSN MSN20060726092509707/26/06 09:25:31  5-MIN KMSN 261525Z VRB05KT 10SM FEW017 24/20 A2976 1010 76 2400 VRB/05 RMK AO2
14837KMSN MSN20060726093009707/26/06 09:30:31  5-MIN KMSN 261530Z 19006KT 10SM FEW017 25/21 A2976 1010 76 2400 190/06 RMK AO2
14837KMSN MSN20060726093509707/26/06 09:35:31  5-MIN KMSN 261535Z 20007KT 10SM FEW017 25/20 A2976 1010 73 2400 200/07 RMK AO2
14837KMSN MSN20060726094009707/26/06 09:40:31  5-MIN KMSN 261540Z 20007KT 10SM FEW017 25/20 A2976 1010 73 2400 200/07 RMK AO2
14837KMSN MSN20060726094509407/26/06 09:45:31  5-MIN KMSN 261545Z 23006KT 10SM CLR 25/20 A2976 1010 73 2400 230/06 RMK AO2
14837KMSN MSN20060726095011107/26/06 09:50:31  5-MIN KMSN 261550Z 22005KT 10SM CLR 25/20 A2976 1010 73 2400 220/05 RMK AO2 SLP072 T02500200
14837KMSN MSN20060726095509407/26/06 09:55:31  5-MIN KMSN 261555Z 24007KT 10SM CLR 26/20 A2977 1010 71 2500 240/07 RMK AO2
14837KMSN MSN20060726100009707/26/06 10:00:31  5-MIN KMSN 261600Z VRB06KT 10SM FEW022 26/20 A2977 1010 71 2500 VRB/06 RMK AO2
14837KMSN MSN20060726100509707/26/06 10:05:31  5-MIN KMSN 261605Z VRB05KT 10SM FEW022 26/20 A2977 1000 71 2500 VRB/05 RMK AO2
14837KMSN MSN20060726101011307/26/06 10:10:31  5-MIN KMSN 261610Z 21008KT 170V240 10SM FEW022 26/20 A2977 1010 68 2600 210/08 170V240 RMK AO2
14837KMSN MSN20060726101509707/26/06 10:15:31  5-MIN KMSN 261615Z 23008KT 10SM FEW022 27/20 A2977 1010 66 2600 230/08 RMK AO2
14837KMSN MSN20060726102009707/26/06 10:20:31  5-MIN KMSN 261620Z VRB06KT 10SM FEW022 26/20 A2976 1010 68 2600 VRB/06 RMK AO2
14837KMSN MSN20060726102509707/26/06 10:25:31  5-MIN KMSN 261625Z VRB06KT 10SM FEW022 26/20 A2976 1010 68 2600 VRB/06 RMK AO2
14837KMSN MSN20060726103009707/26/06 10:30:31  5-MIN KMSN 261630Z 22007KT 10SM FEW022 26/19 A2976 1010 66 2600 220/07 RMK AO2
14837KMSN MSN20060726103509707/26/06 10:35:31  5-MIN KMSN 261635Z 24007KT 10SM FEW022 26/19 A2976 1010 66 2600 240/07 RMK AO2
14837KMSN MSN20060726104009707/26/06 10:40:31  5-MIN KMSN 261640Z VRB06KT 10SM FEW022 27/20 A2976 1010 66 2600 VRB/06 RMK AO2
14837KMSN MSN20060726104509707/26/06 10:45:31  5-MIN KMSN 261645Z 22007KT 10SM FEW022 27/20 A2976 1010 66 2600 220/07 RMK AO2
14837KMSN MSN20060726105011407/26/06 10:50:31  5-MIN KMSN 261650Z VRB06KT 10SM FEW022 27/21 A2976 1010 69 2600 VRB/06 RMK AO2 SLP072 T02670206
14837KMSN MSN20060726105509707/26/06 10:55:31  5-MIN KMSN 261655Z 21009KT 10SM FEW025 27/21 A2976 1010 69 2600 210/09 RMK AO2
14837KMSN MSN20060726110011307/26/06 11:00:31  5-MIN KMSN 261700Z 23007KT 170V260 10SM FEW025 27/20 A2976 1010 66 2600 230/07 170V260 RMK AO2
14837KMSN MSN20060726110509707/26/06 11:05:31  5-MIN KMSN 261705Z 22007KT 10SM FEW025 27/20 A2976 1010 64 2700 220/07 RMK AO2
14837KMSN MSN20060726111009707/26/06 11:10:31  5-MIN KMSN 261710Z 21009KT 10SM FEW025 27/20 A2976 1010 64 2700 210/09 RMK AO2
14837KMSN MSN20060726111511307/26/06 11:15:31  5-MIN KMSN 261715Z 24008KT 210V270 10SM FEW025 27/20 A2976 1010 64 2700 240/08 210V270 RMK AO2
14837KMSN MSN20060726112009707/26/06 11:20:31  5-MIN KMSN 261720Z VRB05KT 10SM SCT028 27/20 A2976 1010 64 2700 VRB/05 RMK AO2
14837KMSN MSN20060726112509707/26/06 11:25:31  5-MIN KMSN 261725Z 23007KT 10SM SCT028 27/20 A2976 1010 64 2700 230/07 RMK AO2
14837KMSN MSN20060726113009707/26/06 11:30:31  5-MIN KMSN 261730Z VRB04KT 10SM SCT028 28/21 A2976 1010 64 2800 VRB/04 RMK AO2
14837KMSN MSN20060726113509707/26/06 11:35:31  5-MIN KMSN 261735Z 23008KT 10SM SCT028 28/21 A2976 1010 64 2800 230/08 RMK AO2
14837KMSN MSN20060726114009707/26/06 11:40:31  5-MIN KMSN 261740Z 23007KT 10SM SCT028 27/20 A2976 1010 64 2700 230/07 RMK AO2
14837KMSN MSN20060726114509707/26/06 11:45:31  5-MIN KMSN 261745Z 23006KT 10SM SCT028 28/21 A2976 1010 64 2700 230/06 RMK AO2
14837KMSN MSN20060726115013807/26/06 11:50:31  5-MIN KMSN 261750Z VRB05KT 10SM SCT028 28/21 A2976 1010 64 2800 VRB/05 RMK AO2 SLP071 60001 T02780206 10278 20217 58002
14837KMSN MSN20060726115511307/26/06 11:55:31  5-MIN KMSN 261755Z 22007KT 190V250 10SM SCT030 28/21 A2976 1010 64 2800 220/07 190V250 RMK AO2
14837KMSN MSN20060726120011307/26/06 12:00:31  5-MIN KMSN 261800Z 23007KT 210V270 10SM SCT030 28/21 A2976 1020 64 2800 230/07 210V270 RMK AO2
14837KMSN MSN20060726120511307/26/06 12:05:31  5-MIN KMSN 261805Z 24008KT 200V280 10SM SCT030 28/20 A2976 1020 62 2800 240/08 200V280 RMK AO2
14837KMSN MSN20060726121009707/26/06 12:10:31  5-MIN KMSN 261810Z 22008KT 10SM SCT030 28/20 A2975 1020 62 2800 220/08 RMK AO2
14837KMSN MSN20060726121509707/26/06 12:15:31  5-MIN KMSN 261815Z 23006KT 10SM SCT030 28/21 A2975 1020 62 2800 230/06 RMK AO2
14837KMSN MSN20060726122009707/26/06 12:20:31  5-MIN KMSN 261820Z 22008KT 10SM SCT030 28/21 A2975 1020 62 2800 220/08 RMK AO2
14837KMSN MSN20060726122509707/26/06 12:25:31  5-MIN KMSN 261825Z 23009KT 10SM SCT030 28/21 A2975 1020 62 2800 230/09 RMK AO2
14837KMSN MSN20060726123009707/26/06 12:30:31  5-MIN KMSN 261830Z 24008KT 10SM SCT030 28/20 A2975 1020 60 2800 240/08 RMK AO2
14837KMSN MSN20060726123511307/26/06 12:35:31  5-MIN KMSN 261835Z 23008KT 190V260 10SM SCT030 28/21 A2975 1020 62 2800 230/08 190V260 RMK AO2
14837KMSN MSN20060726124011307/26/06 12:40:31  5-MIN KMSN 261840Z 26007KT 220V300 10SM SCT030 28/21 A2975 1020 62 2800 260/07 220V300 RMK AO2
14837KMSN MSN20060726124509707/26/06 12:45:31  5-MIN KMSN 261845Z 23008KT 10SM SCT030 28/20 A2975 1020 60 2800 220/08 RMK AO2
14837KMSN MSN20060726125013007/26/06 12:50:31  5-MIN KMSN 261850Z 24008KT 200V270 10SM SCT030 28/20 A2975 1020 60 2800 240/08 200V270 RMK AO2 SLP068 T02830200
14837KMSN MSN20060726125509707/26/06 12:55:31  5-MIN KMSN 261855Z 22006KT 10SM BKN041 28/21 A2975 1020 62 2800 220/06 RMK AO2
14837KMSN MSN20060726130009707/26/06 13:00:31  5-MIN KMSN 261900Z 24007KT 10SM BKN041 29/21 A2975 1020 60 2900 240/07 RMK AO2
14837KMSN MSN20060726130511307/26/06 13:05:31  5-MIN KMSN 261905Z 25007KT 220V280 10SM BKN041 28/21 A2975 1020 62 2800 240/07 220V280 RMK AO2
14837KMSN MSN20060726131009707/26/06 13:10:31  5-MIN KMSN 261910Z VRB06KT 10SM BKN041 28/21 A2975 1020 62 2800 VRB/06 RMK AO2
14837KMSN MSN20060726131509707/26/06 13:15:31  5-MIN KMSN 261915Z VRB05KT 10SM BKN041 28/21 A2975 1020 62 2800 VRB/05 RMK AO2
14837KMSN MSN20060726132011307/26/06 13:20:31  5-MIN KMSN 261920Z 25007KT 210V280 10SM BKN041 29/21 A2975 1030 62 2900 250/07 210V280 RMK AO2
14837KMSN MSN20060726132509707/26/06 13:25:31  5-MIN KMSN 261925Z VRB06KT 10SM BKN041 29/21 A2975 1030 60 2900 VRB/06 RMK AO2
14837KMSN MSN20060726133011307/26/06 13:30:31  5-MIN KMSN 261930Z 23008KT 210V280 10SM BKN041 29/21 A2975 1030 62 2900 230/08 210V280 RMK AO2
14837KMSN MSN20060726133509707/26/06 13:35:31  5-MIN KMSN 261935Z 21008KT 10SM BKN041 29/21 A2975 1030 60 2900 210/08 RMK AO2
14837KMSN MSN20060726134010407/26/06 13:40:31  5-MIN KMSN 261940Z 23008KT 10SM SCT034 BKN049 29/21 A2975 1030 60 2900 230/08 RMK AO2
14837KMSN MSN20060726134510407/26/06 13:45:31  5-MIN KMSN 261945Z 22009KT 10SM SCT034 BKN049 28/21 A2975 1020 62 2800 220/09 RMK AO2
14837KMSN MSN20060726135012107/26/06 13:50:31  5-MIN KMSN 261950Z 22008KT 10SM SCT034 BKN049 29/21 A2975 1030 60 2900 220/08 RMK AO2 SLP066 T02890206
14837KMSN MSN20060726135510407/26/06 13:55:31  5-MIN KMSN 261955Z VRB06KT 10SM SCT036 BKN049 29/21 A2975 1030 58 3000 VRB/06 RMK AO2
14837KMSN MSN20060726140010407/26/06 14:00:31  5-MIN KMSN 262000Z VRB06KT 10SM SCT036 BKN049 29/21 A2975 1030 60 2900 VRB/06 RMK AO2
14837KMSN MSN20060726140510407/26/06 14:05:31  5-MIN KMSN 262005Z 22006KT 10SM SCT036 BKN049 29/21 A2975 1020 58 2900 220/06 RMK AO2
14837KMSN MSN20060726141010407/26/06 14:10:31  5-MIN KMSN 262010Z 25005KT 10SM SCT036 BKN049 28/21 A2975 1030 62 2800 250/05 RMK AO2
14837KMSN MSN20060726141510407/26/06 14:15:31  5-MIN KMSN 262015Z VRB05KT 10SM SCT036 BKN049 29/21 A2975 1030 62 2900 VRB/05 RMK AO2
14837KMSN MSN20060726142010407/26/06 14:20:31  5-MIN KMSN 262020Z VRB04KT 10SM SCT036 BKN049 29/21 A2974 1030 60 3000 VRB/04 RMK AO2
14837KMSN MSN20060726142509707/26/06 14:25:31  5-MIN KMSN 262025Z 22007KT 10SM SCT041 29/21 A2974 1030 62 2900 220/07 RMK AO2
14837KMSN MSN20060726143009707/26/06 14:30:31  5-MIN KMSN 262030Z 22006KT 10SM SCT041 29/21 A2974 1030 60 2900 220/06 RMK AO2
14837KMSN MSN20060726143509707/26/06 14:35:31  5-MIN KMSN 262035Z 25005KT 10SM SCT041 29/21 A2974 1030 58 3000 240/05 RMK AO2
14837KMSN MSN20060726144011307/26/06 14:40:31  5-MIN KMSN 262040Z 23007KT 200V270 10SM SCT041 29/21 A2974 1030 60 3000 230/07 200V270 RMK AO2
14837KMSN MSN20060726144509707/26/06 14:45:31  5-MIN KMSN 262045Z 23005KT 10SM SCT041 29/21 A2974 1030 58 3000 230/05 RMK AO2
14837KMSN MSN20060726145012007/26/06 14:50:31  5-MIN KMSN 262050Z 23008KT 10SM SCT041 29/21 A2974 1030 58 3000 220/08 RMK AO2 SLP065 T02940206 55002
14837KMSN MSN20060726145509707/26/06 14:55:31  5-MIN KMSN 262055Z 21007KT 10SM SCT038 29/21 A2974 1030 58 3000 210/07 RMK AO2
14837KMSN MSN20060726150009707/26/06 15:00:31  5-MIN KMSN 262100Z 22006KT 10SM SCT038 29/21 A2974 1030 58 3000 220/06 RMK AO2
14837KMSN MSN20060726150509707/26/06 15:05:31  5-MIN KMSN 262105Z 23006KT 10SM SCT038 29/20 A2974 1030 56 3000 230/06 RMK AO2
14837KMSN MSN20060726151009707/26/06 15:10:31  5-MIN KMSN 262110Z VRB06KT 10SM SCT038 29/21 A2974 1030 58 3000 VRB/06 RMK AO2
14837KMSN MSN20060726151509707/26/06 15:15:31  5-MIN KMSN 262115Z 22007KT 10SM SCT038 29/21 A2974 1030 58 3000 210/07 RMK AO2
14837KMSN MSN20060726152009707/26/06 15:20:31  5-MIN KMSN 262120Z VRB04KT 10SM SCT038 30/21 A2974 1030 58 3000 VRB/04 RMK AO2
14837KMSN MSN20060726152509707/26/06 15:25:31  5-MIN KMSN 262125Z 24005KT 10SM SCT038 29/20 A2974 1030 58 2900 240/05 RMK AO2
14837KMSN MSN20060726153009707/26/06 15:30:31  5-MIN KMSN 262130Z 23003KT 10SM SCT038 29/21 A2974 1030 60 2900 230/03 RMK AO2
14837KMSN MSN20060726153509707/26/06 15:35:31  5-MIN KMSN 262135Z 22006KT 10SM SCT038 29/21 A2974 1030 58 3000 220/06 RMK AO2
14837KMSN MSN20060726154009707/26/06 15:40:31  5-MIN KMSN 262140Z 22006KT 10SM SCT038 29/21 A2974 1030 60 2900 220/06 RMK AO2
14837KMSN MSN20060726154510407/26/06 15:45:31  5-MIN KMSN 262145Z VRB04KT 10SM FEW038 BKN045 29/21 A2974 1030 60 2900 VRB/04 RMK AO2
14837KMSN MSN20060726155012107/26/06 15:50:31  5-MIN KMSN 262150Z 22006KT 10SM FEW038 BKN045 29/21 A2974 1030 60 2900 220/06 RMK AO2 SLP065 T02890206
14837KMSN MSN20060726155509707/26/06 15:55:31  5-MIN KMSN 262155Z 24006KT 10SM BKN049 28/21 A2974 1030 62 2800 240/06 RMK AO2
14837KMSN MSN20060726160010407/26/06 16:00:31  5-MIN KMSN 262200Z VRB04KT 10SM FEW045 SCT049 28/21 A2974 1030 62 2800 VRB/04 RMK AO2
14837KMSN MSN20060726160510407/26/06 16:05:31  5-MIN KMSN 262205Z 24006KT 10SM FEW045 BKN049 28/21 A2974 1030 62 2800 240/06 RMK AO2
14837KMSN MSN20060726161010407/26/06 16:10:31  5-MIN KMSN 262210Z 22006KT 10SM FEW045 BKN049 29/21 A2974 1030 58 3000 220/06 RMK AO2
14837KMSN MSN20060726161510407/26/06 16:15:31  5-MIN KMSN 262215Z 23006KT 10SM FEW045 BKN049 29/21 A2974 1030 58 3000 230/06 RMK AO2
14837KMSN MSN20060726162010407/26/06 16:20:31  5-MIN KMSN 262220Z 24006KT 10SM FEW045 BKN049 29/21 A2974 1030 58 3000 230/06 RMK AO2
14837KMSN MSN20060726162510407/26/06 16:25:31  5-MIN KMSN 262225Z 24007KT 10SM FEW045 BKN049 29/20 A2974 1030 56 3000 240/07 RMK AO2
14837KMSN MSN20060726163010407/26/06 16:30:31  5-MIN KMSN 262230Z 24007KT 10SM FEW045 BKN049 29/21 A2974 1030 58 3000 240/07 RMK AO2
14837KMSN MSN20060726163510407/26/06 16:35:31  5-MIN KMSN 262235Z 22006KT 10SM FEW045 BKN049 29/21 A2974 1030 58 3000 220/06 RMK AO2
14837KMSN MSN20060726164010407/26/06 16:40:31  5-MIN KMSN 262240Z 22007KT 10SM FEW045 SCT049 29/21 A2974 1030 58 3000 220/07 RMK AO2
14837KMSN MSN20060726164510407/26/06 16:45:31  5-MIN KMSN 262245Z VRB04KT 10SM FEW045 SCT049 29/21 A2975 1030 60 2900 VRB/04 RMK AO2
14837KMSN MSN20060726165012107/26/06 16:50:31  5-MIN KMSN 262250Z 23004KT 10SM FEW045 SCT049 29/21 A2975 1030 60 2900 230/04 RMK AO2 SLP066 T02890206
14837KMSN MSN20060726165509707/26/06 16:55:31  5-MIN KMSN 262255Z 22005KT 10SM SCT055 29/20 A2974 1030 58 2900 220/05 RMK AO2
14837KMSN MSN20060726170009707/26/06 17:00:31  5-MIN KMSN 262300Z 23005KT 10SM SCT055 29/21 A2974 1030 58 3000 230/05 RMK AO2
14837KMSN MSN20060726170509707/26/06 17:05:31  5-MIN KMSN 262305Z 22005KT 10SM SCT055 29/21 A2974 1030 60 2900 220/05 RMK AO2
14837KMSN MSN20060726171009707/26/06 17:10:31  5-MIN KMSN 262310Z 23005KT 10SM FEW055 29/21 A2974 1030 60 2900 220/05 RMK AO2
14837KMSN MSN20060726171509707/26/06 17:15:31  5-MIN KMSN 262315Z 23007KT 10SM FEW049 29/21 A2974 1030 60 2900 220/07 RMK AO2
14837KMSN MSN20060726172009707/26/06 17:20:31  5-MIN KMSN 262320Z 22006KT 10SM FEW060 29/21 A2974 1030 60 2900 220/06 RMK AO2
14837KMSN MSN20060726172509407/26/06 17:25:31  5-MIN KMSN 262325Z VRB05KT 10SM CLR 29/21 A2974 1030 60 2900 VRB/05 RMK AO2
14837KMSN MSN20060726173009707/26/06 17:30:31  5-MIN KMSN 262330Z 23006KT 10SM FEW049 29/21 A2974 1030 60 2900 230/06 RMK AO2
14837KMSN MSN20060726173509707/26/06 17:35:31  5-MIN KMSN 262335Z 23006KT 10SM FEW049 29/21 A2974 1030 60 2900 230/06 RMK AO2
14837KMSN MSN20060726174009707/26/06 17:40:31  5-MIN KMSN 262340Z 23006KT 10SM FEW049 29/21 A2974 1030 60 2900 230/06 RMK AO2
14837KMSN MSN20060726174509707/26/06 17:45:31  5-MIN KMSN 262345Z 23004KT 10SM FEW049 29/21 A2974 1030 60 2900 230/04 RMK AO2
14837KMSN MSN20060726175013207/26/06 17:50:31  5-MIN KMSN 262350Z 23006KT 10SM FEW049 29/21 A2974 1030 60 2900 230/06 RMK AO2 SLP064 T02890206 10300 20278 56006
14837KMSN MSN20060726175509707/26/06 17:55:31  5-MIN KMSN 262355Z VRB04KT 10SM FEW050 29/21 A2974 1030 60 2900 VRB/04 RMK AO2
14837KMSN MSN20060726180009707/26/06 18:00:31  5-MIN KMSN 270000Z 21004KT 10SM FEW050 29/21 A2974 1030 60 2900 210/04 RMK AO2
14837KMSN MSN20060726180509707/26/06 18:05:31  5-MIN KMSN 270005Z 23005KT 10SM FEW050 29/21 A2974 1030 60 2900 230/05 RMK AO2
14837KMSN MSN20060726181009707/26/06 18:10:31  5-MIN KMSN 270010Z 23004KT 10SM FEW050 29/21 A2974 1030 60 2900 230/04 RMK AO2
14837KMSN MSN20060726181509707/26/06 18:15:31  5-MIN KMSN 270015Z 23004KT 10SM FEW050 28/21 A2974 1030 62 2800 230/04 RMK AO2
14837KMSN MSN20060726182009707/26/06 18:20:31  5-MIN KMSN 270020Z 23005KT 10SM FEW050 28/21 A2974 1030 64 2800 220/05 RMK AO2
14837KMSN MSN20060726182509707/26/06 18:25:31  5-MIN KMSN 270025Z 22004KT 10SM FEW050 28/21 A2974 1030 62 2800 220/04 RMK AO2
14837KMSN MSN20060726183009707/26/06 18:30:31  5-MIN KMSN 270030Z 23004KT 10SM FEW050 28/21 A2974 1030 64 2800 230/04 RMK AO2
14837KMSN MSN20060726183509707/26/06 18:35:31  5-MIN KMSN 270035Z 22005KT 10SM FEW050 28/21 A2974 1030 62 2800 220/05 RMK AO2
14837KMSN MSN20060726184009707/26/06 18:40:31  5-MIN KMSN 270040Z 24004KT 10SM FEW050 28/21 A2974 1030 62 2800 230/04 RMK AO2
14837KMSN MSN20060726184509707/26/06 18:45:31  5-MIN KMSN 270045Z 22004KT 10SM FEW050 28/21 A2974 1030 62 2800 220/04 RMK AO2
14837KMSN MSN20060726185011407/26/06 18:50:31  5-MIN KMSN 270050Z 21004KT 10SM FEW038 28/21 A2974 1030 64 2800 210/04 RMK AO2 SLP066 T02780206
14837KMSN MSN20060726185509407/26/06 18:55:31  5-MIN KMSN 270055Z 23004KT 10SM CLR 28/21 A2974 1030 64 2800 230/04 RMK AO2
14837KMSN MSN20060726190009707/26/06 19:00:31  5-MIN KMSN 270100Z 23005KT 10SM FEW032 28/21 A2974 1030 64 2800 230/05 RMK AO2
14837KMSN MSN20060726190509707/26/06 19:05:31  5-MIN KMSN 270105Z 23004KT 10SM FEW032 28/21 A2975 1030 64 2800 230/04 RMK AO2
14837KMSN MSN20060726191009707/26/06 19:10:31  5-MIN KMSN 270110Z VRB05KT 10SM FEW032 28/21 A2975 1030 64 2800 VRB/05 RMK AO2
14837KMSN MSN20060726191509707/26/06 19:15:31  5-MIN KMSN 270115Z 23005KT 10SM FEW032 27/21 A2975 1030 66 2700 230/05 RMK AO2
14837KMSN MSN20060726192009707/26/06 19:20:31  5-MIN KMSN 270120Z VRB04KT 10SM FEW032 27/21 A2974 1030 66 2700 VRB/04 RMK AO2
14837KMSN MSN20060726192509707/26/06 19:25:31  5-MIN KMSN 270125Z 23004KT 10SM FEW032 27/21 A2974 1030 66 2700 230/04 RMK AO2
14837KMSN MSN20060726193009707/26/06 19:30:31  5-MIN KMSN 270130Z VRB04KT 10SM FEW032 27/21 A2974 1030 66 2700 VRB/04 RMK AO2
14837KMSN MSN20060726193509707/26/06 19:35:31  5-MIN KMSN 270135Z 23003KT 10SM FEW055 27/21 A2974 1030 66 2700 230/03 RMK AO2
14837KMSN MSN20060726194009707/26/06 19:40:31  5-MIN KMSN 270140Z 24003KT 10SM FEW055 27/21 A2974 1030 66 2700 240/03 RMK AO2
14837KMSN MSN20060726194509707/26/06 19:45:31  5-MIN KMSN 270145Z 23004KT 10SM FEW055 27/21 A2974 1030 66 2700 230/04 RMK AO2
14837KMSN MSN20060726195011407/26/06 19:50:31  5-MIN KMSN 270150Z VRB04KT 10SM FEW055 27/21 A2974 1030 69 2600 VRB/04 RMK AO2 SLP067 T02670206
14837KMSN MSN20060726195509707/26/06 19:55:31  5-MIN KMSN 270155Z 23004KT 10SM FEW060 27/21 A2974 1030 71 2600 230/04 RMK AO2
14837KMSN MSN20060726200009707/26/06 20:00:31  5-MIN KMSN 270200Z 23004KT 10SM FEW060 27/21 A2974 1030 71 2600 230/04 RMK AO2
14837KMSN MSN20060726200509707/26/06 20:05:31  5-MIN KMSN 270205Z 23004KT 10SM FEW060 27/21 A2975 1030 71 2600 230/04 RMK AO2
14837KMSN MSN20060726201009707/26/06 20:10:31  5-MIN KMSN 270210Z 23005KT 10SM FEW060 27/21 A2975 1020 71 2600 230/05 RMK AO2
14837KMSN MSN20060726201509707/26/06 20:15:31  5-MIN KMSN 270215Z 23005KT 10SM FEW060 26/21 A2975 1020 73 2600 230/05 RMK AO2
14837KMSN MSN20060726202009707/26/06 20:20:31  5-MIN KMSN 270220Z 23004KT 10SM FEW060 27/21 A2975 1020 71 2600 230/04 RMK AO2
14837KMSN MSN20060726202509707/26/06 20:25:31  5-MIN KMSN 270225Z 23003KT 10SM FEW060 26/21 A2975 1020 73 2600 230/03 RMK AO2
14837KMSN MSN20060726203009707/26/06 20:30:31  5-MIN KMSN 270230Z 22004KT 10SM FEW060 26/21 A2975 1020 73 2600 220/04 RMK AO2
14837KMSN MSN20060726203509707/26/06 20:35:31  5-MIN KMSN 270235Z 22004KT 10SM FEW060 26/21 A2976 1020 73 2600 220/04 RMK AO2
14837KMSN MSN20060726204009707/26/06 20:40:31  5-MIN KMSN 270240Z 23004KT 10SM FEW060 26/21 A2976 1020 73 2600 230/04 RMK AO2
14837KMSN MSN20060726204509707/26/06 20:45:31  5-MIN KMSN 270245Z 23004KT 10SM FEW060 26/21 A2976 1020 73 2600 230/04 RMK AO2
14837KMSN MSN20060726205012007/26/06 20:50:31  5-MIN KMSN 270250Z 22003KT 10SM FEW060 26/21 A2976 1020 76 2500 220/03 RMK AO2 SLP070 T02560211 58000
14837KMSN MSN20060726205509407/26/06 20:55:31  5-MIN KMSN 270255Z 22003KT 10SM CLR 26/21 A2976 1020 73 2600 220/03 RMK AO2
14837KMSN MSN20060726210009707/26/06 21:00:31  5-MIN KMSN 270300Z 22005KT 10SM FEW042 26/21 A2976 1020 73 2600 220/05 RMK AO2
14837KMSN MSN20060726210509707/26/06 21:05:31  5-MIN KMSN 270305Z 22004KT 10SM FEW042 26/21 A2976 1020 73 2600 220/04 RMK AO2
14837KMSN MSN20060726211009707/26/06 21:10:31  5-MIN KMSN 270310Z 22004KT 10SM FEW042 26/21 A2976 1020 73 2600 220/04 RMK AO2
14837KMSN MSN20060726211509707/26/06 21:15:31  5-MIN KMSN 270315Z 22003KT 10SM FEW042 26/21 A2976 1020 73 2600 220/03 RMK AO2
14837KMSN MSN20060726212009707/26/06 21:20:31  5-MIN KMSN 270320Z 00000KT 10SM FEW042 26/21 A2976 1020 73 2600 000/00 RMK AO2
14837KMSN MSN20060726212509707/26/06 21:25:31  5-MIN KMSN 270325Z 00000KT 10SM FEW042 26/21 A2976 1010 76 2500 000/00 RMK AO2
14837KMSN MSN20060726213009707/26/06 21:30:31  5-MIN KMSN 270330Z 22003KT 10SM FEW042 26/21 A2976 1010 76 2500 220/03 RMK AO2
14837KMSN MSN20060726213509707/26/06 21:35:31  5-MIN KMSN 270335Z 22003KT 10SM FEW042 25/21 A2976 1010 79 2400 220/03 RMK AO2
14837KMSN MSN20060726214009707/26/06 21:40:31  5-MIN KMSN 270340Z 22003KT 10SM FEW042 24/21 A2976 1010 81 2400 220/03 RMK AO2
14837KMSN MSN20060726214509707/26/06 21:45:31  5-MIN KMSN 270345Z 00000KT 10SM FEW042 24/21 A2976 1010 81 2400 000/00 RMK AO2
14837KMSN MSN20060726215011407/26/06 21:50:31  5-MIN KMSN 270350Z 00000KT 10SM FEW110 24/21 A2976 1020 81 2400 000/00 RMK AO2 SLP070 T02440211
14837KMSN MSN20060726221009707/26/06 22:10:31  5-MIN KMSN 270410Z 21004KT 10SM FEW110 24/21 A2976 1010 81 2400 210/04 RMK AO2
14837KMSN MSN20060726221509407/26/06 22:15:31  5-MIN KMSN 270415Z 21004KT 10SM CLR 25/21 A2976 1010 79 2400 210/04 RMK AO2
14837KMSN MSN20060726222009407/26/06 22:20:31  5-MIN KMSN 270420Z 20003KT 10SM CLR 26/21 A2976 1010 76 2500 200/03 RMK AO2
14837KMSN MSN20060726222509407/26/06 22:25:31  5-MIN KMSN 270425Z 00000KT 10SM CLR 26/21 A2976 1010 76 2500 000/00 RMK AO2
14837KMSN MSN20060726223009407/26/06 22:30:31  5-MIN KMSN 270430Z 20003KT 10SM CLR 25/21 A2977 1010 79 2400 200/03 RMK AO2
14837KMSN MSN20060726223509407/26/06 22:35:31  5-MIN KMSN 270435Z 20003KT 10SM CLR 25/21 A2976 1010 79 2400 200/03 RMK AO2
14837KMSN MSN20060726224009707/26/06 22:40:31  5-MIN KMSN 270440Z 22003KT 10SM FEW110 25/21 A2977 1010 79 2400 220/03 RMK AO2
14837KMSN MSN20060726224509707/26/06 22:45:31  5-MIN KMSN 270445Z 20003KT 10SM FEW110 24/21 A2977 1000 81 2400 200/03 RMK AO2
14837KMSN MSN20060726225011407/26/06 22:50:31  5-MIN KMSN 270450Z 19004KT 10SM FEW110 25/21 A2977 1000 79 2400 190/04 RMK AO2 SLP075 T02500211
14837KMSN MSN20060726225509707/26/06 22:55:31  5-MIN KMSN 270455Z 18004KT 10SM FEW040 24/21 A2977 1000 81 2400 170/04 RMK AO2
14837KMSN MSN20060726230009707/26/06 23:00:31  5-MIN KMSN 270500Z 20003KT 10SM SCT042 25/21 A2977 1000 79 2400 200/03 RMK AO2
14837KMSN MSN20060726230509707/26/06 23:05:31  5-MIN KMSN 270505Z 21005KT 10SM SCT042 25/21 A2977 1000 79 2400 210/05 RMK AO2
14837KMSN MSN20060726231009707/26/06 23:10:31  5-MIN KMSN 270510Z 21005KT 10SM BKN042 25/21 A2977 1000 79 2400 210/05 RMK AO2
14837KMSN MSN20060726231509707/26/06 23:15:31  5-MIN KMSN 270515Z 21004KT 10SM BKN042 25/22 A2978 1000 81 2400 210/04 RMK AO2
14837KMSN MSN20060726232009707/26/06 23:20:31  5-MIN KMSN 270520Z 22004KT 10SM BKN040 25/22 A2978 1000 81 2400 210/04 RMK AO2
14837KMSN MSN20060726232509707/26/06 23:25:31  5-MIN KMSN 270525Z 22004KT 10SM BKN040 25/22 A2978 1000 81 2400 220/04 RMK AO2
14837KMSN MSN20060726233010307/26/06 23:30:31  5-MIN KMSN 270530Z 23004KT 10SM BKN038 BKN046 25/22 A2978 990 81 2400 220/04 RMK AO2
14837KMSN MSN20060726233510307/26/06 23:35:31  5-MIN KMSN 270535Z 22004KT 10SM BKN036 BKN046 25/22 A2978 990 81 2400 220/04 RMK AO2
14837KMSN MSN20060726234010307/26/06 23:40:31  5-MIN KMSN 270540Z 23004KT 10SM BKN036 BKN046 25/22 A2978 990 81 2400 230/04 RMK AO2
14837KMSN MSN20060726234511007/26/06 23:45:31  5-MIN KMSN 270545Z 23004KT 10SM SCT036 BKN046 BKN110 25/22 A2978 990 81 2400 230/04 RMK AO2
14837KMSN MSN20060726235015507/26/06 23:50:31  5-MIN KMSN 270550Z 22005KT 10SM SCT034 BKN044 BKN110 25/22 A2978 990 81 2400 220/05 RMK AO2 SLP077 T02500217 10289 20239 403000217 53005
14837KMSN MSN20060726235511107/26/06 23:55:31  5-MIN KMSN 270555Z 23003KT 10SM SCT034 BKN044 BKN110 25/22 A2978 1000 81 2400 230/03 RMK AO2
14837KMSN MSN20060727000011107/27/06 00:00:38  5-MIN KMSN 270600Z 23003KT 10SM SCT034 SCT044 BKN110 25/22 A2978 1000 81 2400 230/03 RMK AO2
14837KMSN MSN20060727000511107/27/06 00:05:31  5-MIN KMSN 270605Z VRB03KT 10SM SCT036 SCT044 BKN110 25/22 A2978 1000 81 2400 VRB/03 RMK AO2
14837KMSN MSN20060727001011107/27/06 00:10:31  5-MIN KMSN 270610Z 22003KT 10SM FEW036 SCT044 BKN110 25/22 A2978 1000 81 2400 220/03 RMK AO2
14837KMSN MSN20060727001510407/27/06 00:15:32  5-MIN KMSN 270615Z 00000KT 10SM FEW036 BKN110 25/22 A2978 1000 81 2400 000/00 RMK AO2
14837KMSN MSN20060727002010307/27/06 00:20:31  5-MIN KMSN 270620Z 22004KT 10SM FEW036 BKN110 25/22 A2978 990 81 2400 220/04 RMK AO2
14837KMSN MSN20060727002510307/27/06 00:25:31  5-MIN KMSN 270625Z 22003KT 10SM FEW036 BKN110 25/22 A2978 990 81 2400 220/03 RMK AO2
14837KMSN MSN20060727003009607/27/06 00:30:31  5-MIN KMSN 270630Z 23003KT 10SM BKN110 25/22 A2978 990 81 2400 230/03 RMK AO2
14837KMSN MSN20060727003509607/27/06 00:35:31  5-MIN KMSN 270635Z 00000KT 10SM BKN110 25/22 A2979 990 81 2400 000/00 RMK AO2
14837KMSN MSN20060727004009607/27/06 00:40:31  5-MIN KMSN 270640Z 00000KT 10SM OVC110 24/22 A2978 990 84 2400 000/00 RMK AO2
14837KMSN MSN20060727004509507/27/06 00:45:31  5-MIN KMSN 270645Z 00000KT 9SM OVC110 24/22 A2978 990 84 2400 000/00 RMK AO2
14837KMSN MSN20060727005011207/27/06 00:50:31  5-MIN KMSN 270650Z 00000KT 9SM BKN110 24/22 A2978 990 84 2300 000/00 RMK AO2 SLP078 T02440217
14837KMSN MSN20060727005509507/27/06 00:55:31  5-MIN KMSN 270655Z 00000KT 9SM BKN110 24/22 A2978 990 84 2400 000/00 RMK AO2
14837KMSN MSN20060727010009507/27/06 01:00:31  5-MIN KMSN 270700Z 00000KT 9SM BKN110 24/22 A2978 990 87 2300 000/00 RMK AO2
14837KMSN MSN20060727010509507/27/06 01:05:31  5-MIN KMSN 270705Z 00000KT 9SM BKN110 23/22 A2978 990 90 2200 000/00 RMK AO2
14837KMSN MSN20060727011009507/27/06 01:10:31  5-MIN KMSN 270710Z 00000KT 9SM BKN110 23/22 A2978 990 90 2200 000/00 RMK AO2
14837KMSN MSN20060727011509507/27/06 01:15:31  5-MIN KMSN 270715Z 00000KT 9SM BKN110 23/21 A2978 990 90 2200 000/00 RMK AO2
14837KMSN MSN20060727012009507/27/06 01:20:31  5-MIN KMSN 270720Z 34003KT 9SM BKN110 23/21 A2978 990 90 2200 340/03 RMK AO2
14837KMSN MSN20060727012509507/27/06 01:25:31  5-MIN KMSN 270725Z 33006KT 8SM BKN110 23/21 A2979 980 90 2200 330/06 RMK AO2
14837KMSN MSN20060727013010207/27/06 01:30:31  5-MIN KMSN 270730Z VRB05KT 7SM FEW033 OVC110 23/22 A2979 980 93 2100 VRB/05 RMK AO2
14837KMSN MSN20060727013510207/27/06 01:35:31  5-MIN KMSN 270735Z VRB03KT 8SM SCT033 OVC110 23/22 A2979 990 90 2200 VRB/03 RMK AO2
14837KMSN MSN20060727014010207/27/06 01:40:31  5-MIN KMSN 270740Z 00000KT 9SM BKN033 OVC110 24/22 A2979 990 87 2300 000/00 RMK AO2
14837KMSN MSN20060727014510907/27/06 01:45:31  5-MIN KMSN 270745Z 31007KT 9SM BKN035 BKN043 OVC100 24/21 A2979 980 84 2300 310/07 RMK AO2
14837KMSN MSN20060727015012707/27/06 01:50:31  5-MIN KMSN 270750Z 31009KT 10SM BKN035 BKN043 OVC100 24/20 A2979 980 78 2300 310/09 RMK AO2 SLP080 T02390200
14837KMSN MSN20060727015511707/27/06 01:55:31  5-MIN KMSN 270755Z 31010G14KT 5SM RA BKN035 OVC043 23/19 A2979 990 81 2200 310/10G14 RMK AO2 P0000
14837KMSN MSN20060727020011807/27/06 02:00:31  5-MIN KMSN 270800Z 30009KT 4SM RA FEW027 BKN035 OVC055 22/19 A2979 990 84 2100 300/09 RMK AO2 P0003
14837KMSN MSN20060727020511907/27/06 02:05:31  5-MIN KMSN 270805Z 32008KT 4SM -RA SCT035 BKN043 OVC055 22/19 A2978 990 84 2100 320/08 RMK AO2 P0004
14837KMSN MSN20060727021011907/27/06 02:10:31  5-MIN KMSN 270810Z 32006KT 5SM -RA SCT035 BKN050 OVC060 22/19 A2978 990 84 2100 310/06 RMK AO2 P0005
14837KMSN MSN20060727021511907/27/06 02:15:31  5-MIN KMSN 270815Z 31007KT 7SM -RA FEW037 BKN050 OVC065 22/19 A2978 990 87 2000 310/07 RMK AO2 P0005
14837KMSN MSN20060727022012107/27/06 02:20:31  5-MIN KMSN 270820Z 32006KT 10SM -RA BKN048 BKN070 OVC095 22/19 A2978 1000 87 2000 320/06 RMK AO2 P0005
14837KMSN MSN20060727022512107/27/06 02:25:31  5-MIN KMSN 270825Z 34005KT 10SM -RA SCT050 BKN070 OVC095 22/19 A2977 1000 87 2000 340/05 RMK AO2 P0005
14837KMSN MSN20060727023012007/27/06 02:30:31  5-MIN KMSN 270830Z 36004KT 8SM -RA FEW047 SCT055 OVC095 22/19 A2978 1000 87 2000 360/04 RMK AO2 P0005
14837KMSN MSN20060727023512007/27/06 02:35:31  5-MIN KMSN 270835Z 00000KT 9SM -RA SCT049 BKN070 OVC095 22/20 A2977 1000 90 2000 000/00 RMK AO2 P0005
14837KMSN MSN20060727024012207/27/06 02:40:31  5-MIN KMSN 270840Z 26004KT 9SM BKN049 BKN070 OVC095 22/20 A2978 1000 90 2000 260/04 RMK AO2 RAE39 P0005
14837KMSN MSN20060727024512207/27/06 02:45:31  5-MIN KMSN 270845Z 26004KT 8SM FEW038 BKN049 OVC095 22/21 A2978 1000 93 2000 260/04 RMK AO2 RAE39 P0005
14837KMSN MSN20060727025015107/27/06 02:50:31  5-MIN KMSN 270850Z 24004KT 8SM SCT036 BKN045 OVC095 22/21 A2978 1000 93 2000 240/04 RMK AO2 RAE39 SLP077 P0005 60005 T02170206 53008
14837KMSN MSN20060727025511007/27/06 02:55:31  5-MIN KMSN 270855Z 23004KT 10SM SCT036 BKN049 OVC100 22/21 A2978 990 90 2100 230/04 RMK AO2
14837KMSN MSN20060727030011007/27/06 03:00:31  5-MIN KMSN 270900Z 24003KT 10SM FEW033 BKN050 OVC110 22/21 A2978 990 90 2100 230/03 RMK AO2
14837KMSN MSN20060727030511107/27/06 03:05:31  5-MIN KMSN 270905Z 00000KT 10SM FEW035 BKN046 BKN100 23/20 A2978 1000 84 2200 000/00 RMK AO2
14837KMSN MSN20060727031011007/27/06 03:10:31  5-MIN KMSN 270910Z 00000KT 10SM FEW037 SCT046 BKN110 23/20 A2978 990 84 2200 000/00 RMK AO2
14837KMSN MSN20060727031510307/27/06 03:15:31  5-MIN KMSN 270915Z 09003KT 10SM FEW034 BKN110 23/21 A2978 990 87 2200 090/03 RMK AO2
14837KMSN MSN20060727032010307/27/06 03:20:31  5-MIN KMSN 270920Z 00000KT 10SM FEW044 SCT110 22/20 A2978 990 87 2100 000/00 RMK AO2
14837KMSN MSN20060727032509607/27/06 03:25:31  5-MIN KMSN 270925Z 00000KT 10SM FEW046 22/20 A2978 990 87 2100 000/00 RMK AO2
14837KMSN MSN20060727033009507/27/06 03:30:31  5-MIN KMSN 270930Z 06003KT 9SM FEW100 22/20 A2978 990 90 2000 060/03 RMK AO2
14837KMSN MSN20060727033509607/27/06 03:35:31  5-MIN KMSN 270935Z 00000KT 9SM FEW100 22/20 A2978 1000 90 2000 000/00 RMK AO2
14837KMSN MSN20060727034009307/27/06 03:40:31  5-MIN KMSN 270940Z 00000KT 9SM CLR 22/20 A2978 1000 90 2000 000/00 RMK AO2
14837KMSN MSN20060727034509307/27/06 03:45:31  5-MIN KMSN 270945Z 00000KT 9SM CLR 22/20 A2978 1000 90 2000 000/00 RMK AO2
14837KMSN MSN20060727035011007/27/06 03:50:31  5-MIN KMSN 270950Z 00000KT 9SM CLR 22/20 A2978 1000 90 2000 000/00 RMK AO2 SLP076 T02170200
14837KMSN MSN20060727035509307/27/06 03:55:31  5-MIN KMSN 270955Z 00000KT 8SM CLR 22/20 A2978 1000 90 2000 000/00 RMK AO2
14837KMSN MSN20060727040009307/27/06 04:00:31  5-MIN KMSN 271000Z 00000KT 8SM CLR 22/20 A2978 1000 90 2000 000/00 RMK AO2
14837KMSN MSN20060727040509307/27/06 04:05:31  5-MIN KMSN 271005Z 00000KT 7SM CLR 21/20 A2978 1000 93 2000 000/00 RMK AO2
14837KMSN MSN20060727041009507/27/06 04:10:31  5-MIN KMSN 271010Z 00000KT 6SM BR CLR 21/20 A2978 990 93 2000 000/00 RMK AO2
14837KMSN MSN20060727041509507/27/06 04:15:31  5-MIN KMSN 271015Z 00000KT 5SM BR CLR 21/20 A2978 990 97 1900 000/00 RMK AO2
14837KMSN MSN20060727042009507/27/06 04:20:31  5-MIN KMSN 271020Z 00000KT 4SM BR CLR 21/20 A2978 990 97 1900 000/00 RMK AO2
14837KMSN MSN20060727042509507/27/06 04:25:31  5-MIN KMSN 271025Z 00000KT 3SM BR CLR 21/20 A2979 990 97 1900 000/00 RMK AO2
14837KMSN MSN20060727043009507/27/06 04:30:31  5-MIN KMSN 271030Z 00000KT 3SM BR CLR 21/21 A2978 990 97 2000 000/00 RMK AO2
14837KMSN MSN20060727043509507/27/06 04:35:31  5-MIN KMSN 271035Z 00000KT 5SM BR CLR 21/21 A2979 990 97 2000 000/00 RMK AO2
14837KMSN MSN20060727044009507/27/06 04:40:31  5-MIN KMSN 271040Z 00000KT 5SM BR CLR 21/21 A2979 990 97 2000 000/00 RMK AO2
14837KMSN MSN20060727044509507/27/06 04:45:31  5-MIN KMSN 271045Z 00000KT 5SM BR CLR 21/21 A2979 980 97 2000 000/00 RMK AO2
14837KMSN MSN20060727045011207/27/06 04:50:31  5-MIN KMSN 271050Z 00000KT 4SM BR CLR 21/20 A2979 980 97 1900 000/00 RMK AO2 SLP082 T02060200
14837KMSN MSN20060727045509507/27/06 04:55:31  5-MIN KMSN 271055Z 00000KT 4SM BR CLR 21/21 A2979 980 97 2000 000/00 RMK AO2
14837KMSN MSN20060727050009507/27/06 05:00:31  5-MIN KMSN 271100Z 00000KT 4SM BR CLR 21/20 A2979 980 97 1900 000/00 RMK AO2
14837KMSN MSN20060727050509507/27/06 05:05:31  5-MIN KMSN 271105Z 00000KT 4SM BR CLR 21/21 A2980 980 97 2000 000/00 RMK AO2
14837KMSN MSN20060727051009507/27/06 05:10:31  5-MIN KMSN 271110Z 22003KT 4SM BR CLR 21/21 A2980 980 97 2000 220/03 RMK AO2
14837KMSN MSN20060727051509507/27/06 05:15:31  5-MIN KMSN 271115Z 00000KT 4SM BR CLR 21/20 A2980 980 93 2000 000/00 RMK AO2
14837KMSN MSN20060727052009507/27/06 05:20:31  5-MIN KMSN 271120Z 00000KT 4SM BR CLR 21/21 A2980 970 97 1900 000/00 RMK AO2
14837KMSN MSN20060727052509507/27/06 05:25:31  5-MIN KMSN 271125Z 00000KT 4SM BR CLR 21/21 A2980 970 97 1900 000/00 RMK AO2
14837KMSN MSN20060727053009507/27/06 05:30:31  5-MIN KMSN 271130Z 00000KT 4SM BR CLR 21/20 A2980 970 97 1900 000/00 RMK AO2
14837KMSN MSN20060727053509507/27/06 05:35:31  5-MIN KMSN 271135Z 00000KT 4SM BR CLR 21/20 A2980 970 93 1900 000/00 RMK AO2
14837KMSN MSN20060727054009507/27/06 05:40:31  5-MIN KMSN 271140Z 00000KT 4SM BR CLR 21/21 A2980 970 97 1900 000/00 RMK AO2
14837KMSN MSN20060727054509507/27/06 05:45:31  5-MIN KMSN 271145Z 00000KT 4SM BR CLR 21/21 A2980 970 97 1900 000/00 RMK AO2
14837KMSN MSN20060727055014207/27/06 05:50:31  5-MIN KMSN 271150Z 00000KT 4SM BR CLR 22/21 A2980 970 93 2000 000/00 RMK AO2 SLP086 60005 70006 T02170206 10250 20206 50000
14837KMSN MSN20060727055509507/27/06 05:55:31  5-MIN KMSN 271155Z 00000KT 5SM BR CLR 22/21 A2981 970 93 2100 000/00 RMK AO2
14837KMSN MSN20060727060009507/27/06 06:00:31  5-MIN KMSN 271200Z 00000KT 6SM BR CLR 22/21 A2980 970 90 2100 000/00 RMK AO2
14837KMSN MSN20060727060509507/27/06 06:05:31  5-MIN KMSN 271205Z 00000KT 6SM BR CLR 23/21 A2980 970 90 2100 000/00 RMK AO2
14837KMSN MSN20060727061009507/27/06 06:10:31  5-MIN KMSN 271210Z 00000KT 6SM BR CLR 23/21 A2981 970 87 2200 000/00 RMK AO2
14837KMSN MSN20060727061509507/27/06 06:15:31  5-MIN KMSN 271215Z 00000KT 6SM BR CLR 23/21 A2981 970 87 2200 000/00 RMK AO2
14837KMSN MSN20060727062009507/27/06 06:20:31  5-MIN KMSN 271220Z 00000KT 6SM BR CLR 24/22 A2981 970 87 2300 000/00 RMK AO2
14837KMSN MSN20060727062509507/27/06 06:25:31  5-MIN KMSN 271225Z 00000KT 6SM BR CLR 24/22 A2981 970 87 2300 000/00 RMK AO2
14837KMSN MSN20060727063009507/27/06 06:30:31  5-MIN KMSN 271230Z 00000KT 6SM BR CLR 24/22 A2981 970 87 2300 000/00 RMK AO2
14837KMSN MSN20060727063509507/27/06 06:35:31  5-MIN KMSN 271235Z VRB03KT 6SM HZ CLR 25/22 A2981 970 84 2400 VRB/03 RMK AO2
14837KMSN MSN20060727064009507/27/06 06:40:31  5-MIN KMSN 271240Z 25004KT 5SM BR CLR 24/22 A2981 970 87 2300 240/04 RMK AO2
14837KMSN MSN20060727064509507/27/06 06:45:31  5-MIN KMSN 271245Z 25004KT 5SM BR CLR 24/22 A2981 970 87 2300 250/04 RMK AO2
14837KMSN MSN20060727065011207/27/06 06:50:31  5-MIN KMSN 271250Z VRB05KT 5SM BR CLR 24/22 A2981 970 87 2300 VRB/05 RMK AO2 SLP088 T02440222
14837KMSN MSN20060727065509507/27/06 06:55:31  5-MIN KMSN 271255Z VRB04KT 5SM BR CLR 24/22 A2981 970 87 2300 VRB/04 RMK AO2
14837KMSN MSN20060727070009507/27/06 07:00:31  5-MIN KMSN 271300Z 24004KT 5SM BR CLR 24/22 A2981 970 87 2300 230/04 RMK AO2
14837KMSN MSN20060727070509507/27/06 07:05:31  5-MIN KMSN 271305Z 24003KT 5SM BR CLR 24/22 A2981 960 87 2300 240/03 RMK AO2
14837KMSN MSN20060727071009507/27/06 07:10:31  5-MIN KMSN 271310Z 24003KT 5SM BR CLR 24/22 A2982 960 87 2300 240/03 RMK AO2
14837KMSN MSN20060727071509507/27/06 07:15:31  5-MIN KMSN 271315Z 00000KT 5SM BR CLR 24/22 A2981 960 87 2300 000/00 RMK AO2
14837KMSN MSN20060727072009507/27/06 07:20:31  5-MIN KMSN 271320Z 23003KT 5SM BR CLR 24/22 A2981 960 87 2300 230/03 RMK AO2
14837KMSN MSN20060727072509507/27/06 07:25:31  5-MIN KMSN 271325Z VRB03KT 5SM BR CLR 24/22 A2982 960 87 2300 VRB/03 RMK AO2
14837KMSN MSN20060727073009507/27/06 07:30:31  5-MIN KMSN 271330Z 00000KT 5SM BR CLR 25/23 A2982 960 87 2400 000/00 RMK AO2
14837KMSN MSN20060727073509507/27/06 07:35:31  5-MIN KMSN 271335Z 00000KT 5SM HZ CLR 25/22 A2982 960 84 2400 000/00 RMK AO2
14837KMSN MSN20060727074009507/27/06 07:40:31  5-MIN KMSN 271340Z 00000KT 4SM BR CLR 25/23 A2982 960 87 2400 000/00 RMK AO2
14837KMSN MSN20060727074509507/27/06 07:45:31  5-MIN KMSN 271345Z 00000KT 5SM HZ CLR 26/23 A2982 960 84 2400 000/00 RMK AO2
14837KMSN MSN20060727075011207/27/06 07:50:31  5-MIN KMSN 271350Z 00000KT 5SM HZ CLR 26/23 A2982 960 84 2500 000/00 RMK AO2 SLP090 T02610233
14837KMSN MSN20060727075509507/27/06 07:55:31  5-MIN KMSN 271355Z 00000KT 5SM HZ CLR 26/23 A2982 960 81 2500 000/00 RMK AO2
14837KMSN MSN20060727080009507/27/06 08:00:31  5-MIN KMSN 271400Z 00000KT 5SM HZ CLR 27/23 A2982 960 79 2600 000/00 RMK AO2
14837KMSN MSN20060727080509807/27/06 08:05:31  5-MIN KMSN 271405Z 00000KT 5SM HZ SCT009 26/23 A2982 960 84 2400 000/00 RMK AO2
14837KMSN MSN20060727081009807/27/06 08:10:31  5-MIN KMSN 271410Z 00000KT 5SM HZ BKN009 26/23 A2982 950 81 2500 000/00 RMK AO2
14837KMSN MSN20060727081509807/27/06 08:15:31  5-MIN KMSN 271415Z 00000KT 5SM HZ SCT009 26/23 A2982 950 84 2500 000/00 RMK AO2
14837KMSN MSN20060727082009807/27/06 08:20:31  5-MIN KMSN 271420Z 00000KT 5SM HZ SCT009 27/23 A2983 950 79 2600 000/00 RMK AO2
14837KMSN MSN20060727082509807/27/06 08:25:31  5-MIN KMSN 271425Z 00000KT 5SM HZ SCT011 27/23 A2983 950 79 2500 000/00 RMK AO2
14837KMSN MSN20060727083009807/27/06 08:30:31  5-MIN KMSN 271430Z 00000KT 6SM HZ SCT011 27/23 A2983 950 82 2500 000/00 RMK AO2
14837KMSN MSN20060727083509807/27/06 08:35:31  5-MIN KMSN 271435Z 00000KT 6SM HZ SCT011 27/23 A2983 950 82 2600 000/00 RMK AO2
14837KMSN MSN20060727084009807/27/06 08:40:31  5-MIN KMSN 271440Z 31003KT 6SM HZ SCT011 27/23 A2983 950 79 2600 310/03 RMK AO2
14837KMSN MSN20060727084510507/27/06 08:45:31  5-MIN KMSN 271445Z 00000KT 6SM HZ SCT011 BKN100 27/23 A2983 950 79 2600 000/00 RMK AO2
14837KMSN MSN20060727085012807/27/06 08:50:31  5-MIN KMSN 271450Z 00000KT 6SM HZ SCT011 BKN100 27/23 A2983 950 79 2600 000/00 RMK AO2 SLP094 T02670228 53008
14837KMSN MSN20060727085510207/27/06 08:55:31  5-MIN KMSN 271455Z 00000KT 7SM SCT011 BKN100 26/22 A2982 950 79 2500 000/00 RMK AO2
14837KMSN MSN20060727090010207/27/06 09:00:31  5-MIN KMSN 271500Z 33003KT 7SM FEW013 BKN100 27/22 A2983 950 76 2600 320/03 RMK AO2
14837KMSN MSN20060727090510207/27/06 09:05:31  5-MIN KMSN 271505Z 34004KT 7SM FEW013 SCT100 27/23 A2982 950 79 2600 340/04 RMK AO2
14837KMSN MSN20060727091010507/27/06 09:10:31  5-MIN KMSN 271510Z 35004KT 6SM HZ FEW015 SCT095 27/23 A2983 950 79 2600 350/04 RMK AO2
14837KMSN MSN20060727091510507/27/06 09:15:31  5-MIN KMSN 271515Z 35003KT 6SM HZ FEW015 SCT095 27/23 A2983 950 79 2600 350/03 RMK AO2
14837KMSN MSN20060727092010207/27/06 09:20:31  5-MIN KMSN 271520Z 33003KT 7SM FEW015 SCT095 27/23 A2983 950 79 2500 330/03 RMK AO2
14837KMSN MSN20060727092510207/27/06 09:25:31  5-MIN KMSN 271525Z 00000KT 7SM FEW015 SCT095 27/23 A2982 950 79 2600 000/00 RMK AO2
14837KMSN MSN20060727093009507/27/06 09:30:31  5-MIN KMSN 271530Z 00000KT 7SM FEW060 27/23 A2983 950 79 2600 000/00 RMK AO2
14837KMSN MSN20060727093509507/27/06 09:35:31  5-MIN KMSN 271535Z 00000KT 7SM FEW060 27/23 A2982 950 76 2600 000/00 RMK AO2
14837KMSN MSN20060727094010907/27/06 09:40:31  5-MIN KMSN 271540Z 00000KT 7SM SCT014 SCT060 SCT090 27/23 A2983 950 76 2600 000/00 RMK AO2
14837KMSN MSN20060727094510207/27/06 09:45:31  5-MIN KMSN 271545Z 00000KT 7SM BKN014 BKN095 28/23 A2983 950 76 2700 000/00 RMK AO2
14837KMSN MSN20060727095011907/27/06 09:50:31  5-MIN KMSN 271550Z VRB04KT 7SM BKN016 BKN100 28/23 A2983 950 76 2700 VRB/04 RMK AO2 SLP095 T02780233
14837KMSN MSN20060727095510207/27/06 09:55:31  5-MIN KMSN 271555Z 00000KT 7SM BKN016 BKN020 28/23 A2983 950 74 2700 000/00 RMK AO2
14837KMSN MSN20060727100010207/27/06 10:00:31  5-MIN KMSN 271600Z 00000KT 7SM SCT016 BKN020 28/23 A2983 950 74 2700 000/00 RMK AO2
14837KMSN MSN20060727100509507/27/06 10:05:31  5-MIN KMSN 271605Z 05003KT 7SM BKN018 28/23 A2983 950 76 2700 040/03 RMK AO2
14837KMSN MSN20060727101010207/27/06 10:10:31  5-MIN KMSN 271610Z 00000KT 7SM SCT015 BKN020 29/23 A2983 950 71 2800 000/00 RMK AO2
14837KMSN MSN20060727101510207/27/06 10:15:31  5-MIN KMSN 271615Z 29004KT 8SM SCT015 BKN020 28/23 A2983 950 71 2700 280/04 RMK AO2
14837KMSN MSN20060727102009507/27/06 10:20:31  5-MIN KMSN 271620Z 00000KT 8SM BKN020 28/22 A2983 950 71 2700 000/00 RMK AO2
14837KMSN MSN20060727102509507/27/06 10:25:31  5-MIN KMSN 271625Z 35003KT 8SM BKN020 28/23 A2983 950 74 2700 350/03 RMK AO2
14837KMSN MSN20060727103009507/27/06 10:30:31  5-MIN KMSN 271630Z 01003KT 7SM BKN020 28/23 A2983 950 74 2700 010/03 RMK AO2
14837KMSN MSN20060727103509507/27/06 10:35:31  5-MIN KMSN 271635Z 32004KT 7SM BKN020 28/24 A2983 950 76 2700 320/04 RMK AO2
14837KMSN MSN20060727104010207/27/06 10:40:31  5-MIN KMSN 271640Z 35003KT 7SM BKN020 BKN029 28/23 A2982 960 74 2700 340/03 RMK AO2
14837KMSN MSN20060727104510207/27/06 10:45:31  5-MIN KMSN 271645Z 00000KT 8SM BKN020 BKN029 28/23 A2982 960 74 2700 000/00 RMK AO2
14837KMSN MSN20060727105016407/27/06 10:50:31  5-MIN KMSN 271650Z 00000KT 8SM TS FEW020 SCT024 BKN029 28/23 A2982 950 74 2700 000/00 RMK AO2 TSB48 SLP092 FRQ LTGCGIC OHD TS OHD MOV E T02780228
14837KMSN MSN20060727105514107/27/06 10:55:31  5-MIN KMSN 271655Z VRB03KT 8SM TS FEW018 SCT024 BKN060 28/23 A2982 960 74 2700 VRB/03 RMK AO2 FRQ LTGCGIC OHD TS OHD MOV E
14837KMSN MSN20060727110014107/27/06 11:00:31  5-MIN KMSN 271700Z 00000KT 8SM TS FEW018 SCT030 SCT060 28/23 A2981 960 74 2700 000/00 RMK AO2 FRQ LTGCGIC OHD TS OHD MOV E
14837KMSN MSN20060727110513407/27/06 11:05:31  5-MIN KMSN 271705Z 00000KT 7SM TS FEW023 SCT060 27/23 A2982 960 76 2600 000/00 RMK AO2 FRQ LTGCGIC OHD TS OHD MOV E
14837KMSN MSN20060727111013407/27/06 11:10:31  5-MIN KMSN 271710Z 21011KT 8SM TS FEW021 SCT060 26/21 A2982 950 73 2400 210/11 RMK AO2 FRQ LTGCGIC OHD TS OHD MOV E
14837KMSN MSN20060727111513407/27/06 11:15:31  5-MIN KMSN 271715Z 21009KT 9SM TS SCT021 BKN060 24/18 A2982 960 68 2300 210/09 RMK AO2 FRQ LTGCGIC OHD TS OHD MOV E
14837KMSN MSN20060727112012807/27/06 11:20:31  5-MIN KMSN 271720Z 20009KT 10SM TS BKN021 24/18 A2983 950 66 2300 200/09 RMK AO2 FRQ LTGCGIC OHD TS OHD MOV E
14837KMSN MSN20060727112513507/27/06 11:25:31  5-MIN KMSN 271725Z 22009KT 10SM TS BKN021 24/18 A2984 940 68 2200 220/09 RMK AO2 PRESRR FRQ LTGCGIC OHD TS OHD MOV E
14837KMSN MSN20060727113012807/27/06 11:30:31  5-MIN KMSN 271730Z 21009KT 10SM TS BKN021 23/18 A2984 940 70 2200 210/09 RMK AO2 FRQ LTGCGIC OHD TS OHD MOV E
14837KMSN MSN20060727113514907/27/06 11:35:31  5-MIN KMSN 271735Z 19019G24KT 10SM -TSRA OVC023 23/18 A2983 950 70 2200 190/19G24 RMK AO2 RAB33 FRQ LTGCGIC OHD TS OHD MOV E P0000
14837KMSN MSN20060727114015507/27/06 11:40:31  5-MIN KMSN 271740Z 19014G24KT 7SM -TSRA BKN021 OVC027 22/19 A2983 950 81 2000 190/14G24 RMK AO2 RAB33 FRQ LTGCGIC OHD TS OHD MOV E P0000
14837KMSN MSN20060727114515507/27/06 11:45:31  5-MIN KMSN 271745Z 22012KT 2 1/2SM TSRA BR FEW008 OVC023 21/19 A2984 940 90 1900 220/12 RMK AO2 RAB33 FRQ LTGCGIC OHD TS OHD MOV E P0007
14837KMSN MSN20060727115019907/27/06 11:50:31  5-MIN KMSN 271750Z 22008KT 1SM TSRA BR SCT006 BKN023 OVC028 21/19 A2985 930 87 1900 220/08 RMK AO2 RAB33 SLP102 FRQ LTGCGIC OHD TS OHD MOV E P0024 60024 T02110189 10289 20211 53007
14837KMSN MSN20060727115515807/27/06 11:55:31  5-MIN KMSN 271755Z 23008KT 1 1/4SM TSRA BR BKN006 BKN023 OVC028 21/19 A2984 940 90 1800 230/08 RMK AO2 FRQ LTGCGCCIC OHD TS OHD MOV E P0006
14837KMSN MSN20060727120015107/27/06 12:00:31  5-MIN KMSN 271800Z 26005KT 1 1/2SM TSRA BR BKN004 OVC025 20/19 A2983 950 93 1800 260/05 RMK AO2 FRQ LTGCGCCIC OHD TS OHD MOV E P0022
14837KMSN MSN20060727120514707/27/06 12:05:31  5-MIN KMSN 271805Z 29006KT 3SM -TSRA BR BKN008 OVC027 21/19 A2983 950 90 1900 290/06 RMK AO2 OCNL LTGCGIC OHD TS OHD MOV E P0029
14837KMSN MSN20060727121014407/27/06 12:10:31  5-MIN KMSN 271810Z 33007KT 2 1/2SM -TSRA BR OVC012 21/19 A2983 950 87 1900 320/07 RMK AO2 OCNL LTGCGIC OHD TS OHD MOV E P0031
14837KMSN MSN20060727121514707/27/06 12:15:31  5-MIN KMSN 271815Z VRB05KT 3SM -TSRA BR BKN012 OVC035 21/19 A2984 940 93 1800 VRB/05 RMK AO2 OCNL LTGCGIC OHD TS OHD MOV E P0039
14837KMSN MSN20060727122014707/27/06 12:20:31  5-MIN KMSN 271820Z 28005KT 4SM -TSRA BR BKN015 OVC047 21/19 A2985 930 90 1900 280/05 RMK AO2 OCNL LTGCGIC OHD TS OHD MOV E P0040
14837KMSN MSN20060727122515407/27/06 12:25:31  5-MIN KMSN 271825Z 32006KT 4SM -TSRA BR BKN017 BKN036 OVC055 21/20 A2985 930 93 1900 320/06 RMK AO2 OCNL LTGCGIC OHD TS OHD MOV E P0041
14837KMSN MSN20060727123015407/27/06 12:30:31  5-MIN KMSN 271830Z 31009KT 4SM -TSRA BR SCT026 BKN036 OVC055 21/20 A2985 930 93 1900 310/09 RMK AO2 OCNL LTGCGIC OHD TS OHD MOV E P0041
14837KMSN MSN20060727123515407/27/06 12:35:31  5-MIN KMSN 271835Z 33009KT 3SM -TSRA BR BKN026 BKN045 OVC055 22/21 A2985 930 93 2000 330/09 RMK AO2 OCNL LTGCGIC OHD TS OHD MOV E P0042
14837KMSN MSN20060727124015407/27/06 12:40:31  5-MIN KMSN 271840Z 36006KT 3SM -TSRA BR BKN022 BKN045 OVC055 22/20 A2985 930 90 2000 360/06 RMK AO2 OCNL LTGCGIC OHD TS OHD MOV E P0045
14837KMSN MSN20060727124514707/27/06 12:45:31  5-MIN KMSN 271845Z 12011KT 3SM -TSRA BR BKN020 BKN055 22/21 A2985 930 93 2000 120/11 RMK AO2 OCNL LTGCGIC OHD TS OHD MOV E P0046
14837KMSN MSN20060727125016407/27/06 12:50:31  5-MIN KMSN 271850Z 10011KT 3SM -TSRA BR BKN021 BKN055 22/21 A2985 930 93 2000 100/11 RMK AO2 SLP102 OCNL LTGCGIC OHD TS OHD MOV E P0046 T02170206
14837KMSN MSN20060727125511007/27/06 12:55:31  5-MIN KMSN 271855Z 09007KT 5SM -TSRA BR BKN023 22/20 A2985 930 90 2000 090/07 RMK AO2 P0001
14837KMSN MSN20060727130011007/27/06 13:00:31  5-MIN KMSN 271900Z 11006KT 5SM -TSRA BR BKN018 22/21 A2984 940 90 2000 110/06 RMK AO2 P0001
14837KMSN MSN20060727130511007/27/06 13:05:31  5-MIN KMSN 271905Z 14003KT 6SM -TSRA BR BKN016 22/21 A2984 940 90 2000 130/03 RMK AO2 P0001
14837KMSN MSN20060727131016107/27/06 13:10:31  5-MIN KMSN 271910Z 00000KT 9SM -TSRA SCT016 BKN100 22/21 A2983 940 90 2000 000/00 RMK AO2 TSE08B10 OCNL LTGCGIC VC SE-S TS VC SE-S MOV E P0001
14837KMSN MSN20060727131516107/27/06 13:15:31  5-MIN KMSN 271915Z 18003KT 9SM -TSRA SCT016 BKN100 22/21 A2984 940 90 2000 170/03 RMK AO2 TSE08B10 OCNL LTGCGIC VC SE-S TS VC SE-S MOV E P0001
14837KMSN MSN20060727132016107/27/06 13:20:31  5-MIN KMSN 271920Z 17007KT 9SM -TSRA SCT016 BKN100 22/20 A2985 930 87 2000 170/07 RMK AO2 TSE08B10 OCNL LTGCGIC VC SE-S TS VC SE-S MOV E P0001
14837KMSN MSN20060727132516907/27/06 13:25:31  5-MIN KMSN 271925Z 18006KT 10SM -TSRA FEW020 SCT080 BKN110 22/20 A2985 930 87 2000 180/06 RMK AO2 TSE08B10 OCNL LTGCGIC VC SE-S TS VC SE-S MOV E P0001
14837KMSN MSN20060727133016907/27/06 13:30:31  5-MIN KMSN 271930Z 17008KT 10SM -TSRA FEW020 SCT080 BKN110 22/20 A2986 920 87 2000 170/08 RMK AO2 TSE08B10 OCNL LTGCGIC VC SE-S TS VC SE-S MOV E P0001
14837KMSN MSN20060727133517807/27/06 13:35:31  5-MIN KMSN 271935Z 18010KT 10SM TS FEW020 SCT070 BKN100 22/20 A2987 910 87 2000 180/10 RMK AO2 TSE08B10RAE34 PRESRR OCNL LTGCGIC VC SE-S TS VC SE-S MOV E P0001
14837KMSN MSN20060727134017107/27/06 13:40:31  5-MIN KMSN 271940Z 18008KT 10SM TS FEW020 SCT070 BKN100 22/19 A2986 920 84 2000 170/08 RMK AO2 TSE08B10RAE34 OCNL LTGCGIC VC SE-S TS VC SE-S MOV E P0001
14837KMSN MSN20060727134517107/27/06 13:45:31  5-MIN KMSN 271945Z 18010KT 10SM TS FEW020 SCT070 BKN100 22/19 A2986 920 87 1900 180/10 RMK AO2 TSE08B10RAE34 OCNL LTGCGIC VC SE-S TS VC SE-S MOV E P0001
14837KMSN MSN20060727135014907/27/06 13:50:31  5-MIN KMSN 271950Z 20007KT 10SM -RA FEW020 SCT070 BKN100 22/19 A2986 920 87 2000 190/07 RMK AO2 TSE08B10E49 OCNL LTG DSNT SE P0001
14837KMSN MSN20060727135512007/27/06 13:55:31  5-MIN KMSN 271955Z 18010KT 10SM -RA FEW012 SCT080 BKN120 22/20 A2986 920 90 1900 180/10 RMK AO2 P0000
14837KMSN MSN20060727140012007/27/06 14:00:31  5-MIN KMSN 272000Z 17008KT 10SM -RA FEW012 SCT080 BKN120 22/19 A2985 930 87 2000 170/08 RMK AO2 P0000
14837KMSN MSN20060727140512207/27/06 14:05:31  5-MIN KMSN 272005Z 19006KT 10SM FEW012 SCT080 BKN120 22/20 A2986 920 90 2000 190/06 RMK AO2 RAE01 P0000
14837KMSN MSN20060727141012207/27/06 14:10:31  5-MIN KMSN 272010Z 19006KT 10SM FEW012 SCT080 BKN120 21/19 A2986 920 90 1900 190/06 RMK AO2 RAE01 P0000
14837KMSN MSN20060727141510807/27/06 14:15:31  5-MIN KMSN 272015Z 19006KT 10SM BKN110 21/19 A2986 920 90 1900 190/06 RMK AO2 RAE01 P0000
14837KMSN MSN20060727142010807/27/06 14:20:31  5-MIN KMSN 272020Z 21003KT 10SM BKN110 21/19 A2985 930 90 1900 210/03 RMK AO2 RAE01 P0000
14837KMSN MSN20060727142510807/27/06 14:25:31  5-MIN KMSN 272025Z 20005KT 10SM BKN110 21/19 A2985 930 90 1900 200/05 RMK AO2 RAE01 P0000
14837KMSN MSN20060727143010707/27/06 14:30:31  5-MIN KMSN 272030Z 21007KT 9SM BKN110 22/19 A2985 930 87 2000 200/07 RMK AO2 RAE01 P0000
14837KMSN MSN20060727143511407/27/06 14:35:31  5-MIN KMSN 272035Z 21007KT 9SM -RA BKN110 22/19 A2985 930 87 2000 210/07 RMK AO2 RAE01B31 P0000
14837KMSN MSN20060727144011507/27/06 14:40:31  5-MIN KMSN 272040Z 21004KT 10SM -RA BKN110 22/20 A2985 930 90 2000 210/04 RMK AO2 RAE01B31 P0000
14837KMSN MSN20060727144511507/27/06 14:45:31  5-MIN KMSN 272045Z 21006KT 10SM -RA BKN110 22/20 A2986 920 90 2000 210/06 RMK AO2 RAE01B31 P0000
14837KMSN MSN20060727145014407/27/06 14:50:31  5-MIN KMSN 272050Z 20007KT 10SM -RA BKN110 22/19 A2985 930 87 2000 200/07 RMK AO2 RAE01B31 SLP103 P0000 60047 T02170194 53005
14837KMSN MSN20060727145510607/27/06 14:55:31  5-MIN KMSN 272055Z 18004KT 10SM -RA SCT120 22/20 A2984 940 87 2000 180/04 RMK AO2 P0000
14837KMSN MSN20060727150010607/27/06 15:00:31  5-MIN KMSN 272100Z 18005KT 10SM -RA SCT120 22/19 A2983 950 84 2000 180/05 RMK AO2 P0000
14837KMSN MSN20060727150511507/27/06 15:05:31  5-MIN KMSN 272105Z 14004KT 10SM FEW046 SCT120 22/19 A2983 950 84 2000 140/04 RMK AO2 RAE05 P0000
14837KMSN MSN20060727151011507/27/06 15:10:31  5-MIN KMSN 272110Z 19007KT 10SM FEW046 SCT120 22/20 A2983 950 87 2000 190/07 RMK AO2 RAE05 P0000
14837KMSN MSN20060727151511507/27/06 15:15:31  5-MIN KMSN 272115Z VRB04KT 10SM FEW046 SCT120 23/20 A2983 940 84 2100 VRB/04 RMK AO2 RAE05 P0000
14837KMSN MSN20060727152011307/27/06 15:20:31  5-MIN KMSN 272120Z 00000KT 10SM -RA FEW046 SCT120 23/19 A2983 950 81 2100 000/00 RMK AO2 P0000
14837KMSN MSN20060727152511307/27/06 15:25:31  5-MIN KMSN 272125Z 32006KT 10SM -RA FEW046 SCT120 23/20 A2983 950 81 2200 320/06 RMK AO2 P0000
14837KMSN MSN20060727153011307/27/06 15:30:31  5-MIN KMSN 272130Z 36004KT 10SM -RA FEW046 SCT120 23/20 A2983 950 84 2100 360/04 RMK AO2 P0000
14837KMSN MSN20060727153511507/27/06 15:35:31  5-MIN KMSN 272135Z 00000KT 10SM FEW046 SCT120 23/21 A2983 940 84 2200 000/00 RMK AO2 RAE34 P0000
14837KMSN MSN20060727154011507/27/06 15:40:31  5-MIN KMSN 272140Z 36003KT 10SM FEW046 SCT120 23/21 A2983 950 84 2200 360/03 RMK AO2 RAE34 P0000
14837KMSN MSN20060727154511507/27/06 15:45:31  5-MIN KMSN 272145Z 32004KT 10SM FEW046 SCT120 24/21 A2983 950 81 2200 320/04 RMK AO2 RAE34 P0000
14837KMSN MSN20060727155013207/27/06 15:50:31  5-MIN KMSN 272150Z 00000KT 10SM FEW046 SCT120 23/20 A2983 950 81 2200 000/00 RMK AO2 RAE34 SLP095 P0000 T02330200
14837KMSN MSN20060727155510307/27/06 15:55:31  5-MIN KMSN 272155Z 00000KT 10SM FEW044 SCT120 23/20 A2983 950 81 2200 000/00 RMK AO2
14837KMSN MSN20060727160010307/27/06 16:00:31  5-MIN KMSN 272200Z 00000KT 10SM FEW044 SCT120 23/20 A2983 950 81 2200 000/00 RMK AO2
14837KMSN MSN20060727160510307/27/06 16:05:31  5-MIN KMSN 272205Z 00000KT 10SM FEW044 SCT120 23/21 A2983 950 84 2200 000/00 RMK AO2
14837KMSN MSN20060727161010307/27/06 16:10:31  5-MIN KMSN 272210Z 00000KT 10SM FEW044 SCT120 24/21 A2983 950 81 2200 000/00 RMK AO2
14837KMSN MSN20060727161510307/27/06 16:15:31  5-MIN KMSN 272215Z 00000KT 10SM FEW044 SCT120 23/21 A2983 950 84 2200 000/00 RMK AO2
14837KMSN MSN20060727162010307/27/06 16:20:31  5-MIN KMSN 272220Z 15003KT 10SM FEW044 SCT120 23/20 A2983 940 81 2200 150/03 RMK AO2
14837KMSN MSN20060727162510307/27/06 16:25:31  5-MIN KMSN 272225Z 16005KT 10SM FEW044 SCT120 23/20 A2984 940 81 2200 160/05 RMK AO2
14837KMSN MSN20060727163010307/27/06 16:30:31  5-MIN KMSN 272230Z 15005KT 10SM FEW044 SCT120 23/20 A2984 940 81 2200 150/05 RMK AO2
14837KMSN MSN20060727163510307/27/06 16:35:31  5-MIN KMSN 272235Z 13005KT 10SM FEW044 SCT120 23/21 A2984 940 84 2200 130/05 RMK AO2
14837KMSN MSN20060727164010307/27/06 16:40:31  5-MIN KMSN 272240Z 09007KT 10SM FEW044 SCT120 23/21 A2984 940 84 2200 090/07 RMK AO2
14837KMSN MSN20060727164510307/27/06 16:45:31  5-MIN KMSN 272245Z 09006KT 10SM FEW044 SCT120 23/20 A2984 940 81 2200 090/06 RMK AO2
14837KMSN MSN20060727165012007/27/06 16:50:31  5-MIN KMSN 272250Z 09007KT 10SM FEW044 SCT120 23/20 A2984 940 81 2200 090/07 RMK AO2 SLP101 T02330200
14837KMSN MSN20060727165510307/27/06 16:55:31  5-MIN KMSN 272255Z 10006KT 10SM FEW044 SCT120 23/21 A2984 940 84 2200 100/06 RMK AO2
14837KMSN MSN20060727170010307/27/06 17:00:31  5-MIN KMSN 272300Z 11005KT 10SM FEW044 SCT120 23/21 A2984 940 84 2200 100/05 RMK AO2
14837KMSN MSN20060727170510307/27/06 17:05:31  5-MIN KMSN 272305Z 09005KT 10SM FEW044 SCT120 24/21 A2984 940 81 2200 090/05 RMK AO2
14837KMSN MSN20060727171009607/27/06 17:10:31  5-MIN KMSN 272310Z 13006KT 10SM FEW044 24/21 A2983 950 78 2300 130/06 RMK AO2
14837KMSN MSN20060727171509607/27/06 17:15:31  5-MIN KMSN 272315Z 11006KT 10SM FEW044 24/21 A2982 950 81 2200 110/06 RMK AO2
14837KMSN MSN20060727172009607/27/06 17:20:31  5-MIN KMSN 272320Z 11006KT 10SM FEW044 24/20 A2982 960 78 2200 110/06 RMK AO2
14837KMSN MSN20060727172509607/27/06 17:25:31  5-MIN KMSN 272325Z 11008KT 10SM FEW044 23/20 A2982 960 81 2200 110/08 RMK AO2
14837KMSN MSN20060727173009607/27/06 17:30:31  5-MIN KMSN 272330Z 10006KT 10SM FEW044 23/20 A2982 960 81 2200 100/06 RMK AO2
14837KMSN MSN20060727173509307/27/06 17:35:31  5-MIN KMSN 272335Z 12007KT 10SM CLR 23/20 A2982 960 81 2200 120/07 RMK AO2
14837KMSN MSN20060727174009307/27/06 17:40:31  5-MIN KMSN 272340Z 13005KT 10SM CLR 23/20 A2982 950 81 2200 130/05 RMK AO2
14837KMSN MSN20060727174509307/27/06 17:45:31  5-MIN KMSN 272345Z 13005KT 10SM CLR 23/20 A2983 950 84 2100 130/05 RMK AO2
14837KMSN MSN20060727175013407/27/06 17:50:31  5-MIN KMSN 272350Z 15006KT 10SM CLR 23/20 A2982 950 84 2100 150/06 RMK AO2 SLP095 60047 T02280200 10244 20200 58001
14837KMSN MSN20060727175509307/27/06 17:55:31  5-MIN KMSN 272355Z 14005KT 10SM CLR 23/19 A2982 950 81 2100 140/05 RMK AO2
14837KMSN MSN20060727180009307/27/06 18:00:31  5-MIN KMSN 280000Z 15005KT 10SM CLR 23/20 A2982 950 84 2100 140/05 RMK AO2
14837KMSN MSN20060727180509307/27/06 18:05:31  5-MIN KMSN 280005Z 14007KT 10SM CLR 23/19 A2983 950 81 2100 140/07 RMK AO2
14837KMSN MSN20060727181009307/27/06 18:10:31  5-MIN KMSN 280010Z 17008KT 10SM CLR 23/20 A2982 950 84 2100 170/08 RMK AO2
14837KMSN MSN20060727181509307/27/06 18:15:31  5-MIN KMSN 280015Z 18006KT 10SM CLR 23/19 A2983 950 81 2100 180/06 RMK AO2
14837KMSN MSN20060727182009307/27/06 18:20:31  5-MIN KMSN 280020Z 18006KT 10SM CLR 23/20 A2983 950 81 2200 180/06 RMK AO2
14837KMSN MSN20060727182509307/27/06 18:25:31  5-MIN KMSN 280025Z 18004KT 10SM CLR 23/19 A2983 950 78 2200 180/04 RMK AO2
14837KMSN MSN20060727183009307/27/06 18:30:31  5-MIN KMSN 280030Z 17008KT 10SM CLR 23/19 A2983 950 78 2200 170/08 RMK AO2
14837KMSN MSN20060727183509307/27/06 18:35:31  5-MIN KMSN 280035Z 16008KT 10SM CLR 23/19 A2983 950 78 2200 160/08 RMK AO2
14837KMSN MSN20060727184009307/27/06 18:40:31  5-MIN KMSN 280040Z 18006KT 10SM CLR 23/19 A2983 950 78 2200 180/06 RMK AO2
14837KMSN MSN20060727184509307/27/06 18:45:31  5-MIN KMSN 280045Z 16007KT 10SM CLR 23/19 A2983 950 78 2200 160/07 RMK AO2
14837KMSN MSN20060727185011007/27/06 18:50:31  5-MIN KMSN 280050Z 15006KT 10SM CLR 23/19 A2983 940 81 2100 150/06 RMK AO2 SLP097 T02280194
14837KMSN MSN20060727185509307/27/06 18:55:31  5-MIN KMSN 280055Z 18005KT 10SM CLR 23/19 A2984 940 81 2100 180/05 RMK AO2
14837KMSN MSN20060727190009307/27/06 19:00:31  5-MIN KMSN 280100Z 00000KT 10SM CLR 23/19 A2984 940 81 2100 000/00 RMK AO2
14837KMSN MSN20060727190509307/27/06 19:05:31  5-MIN KMSN 280105Z 23003KT 10SM CLR 23/19 A2984 940 81 2100 230/03 RMK AO2
14837KMSN MSN20060727191009307/27/06 19:10:31  5-MIN KMSN 280110Z 00000KT 10SM CLR 23/19 A2984 940 81 2100 000/00 RMK AO2
14837KMSN MSN20060727191509307/27/06 19:15:31  5-MIN KMSN 280115Z 21003KT 10SM CLR 23/19 A2984 940 81 2100 210/03 RMK AO2
14837KMSN MSN20060727192009307/27/06 19:20:31  5-MIN KMSN 280120Z 21004KT 10SM CLR 23/19 A2984 940 81 2100 210/04 RMK AO2
14837KMSN MSN20060727192509307/27/06 19:25:31  5-MIN KMSN 280125Z 22004KT 10SM CLR 23/19 A2984 940 81 2100 220/04 RMK AO2
14837KMSN MSN20060727193009307/27/06 19:30:31  5-MIN KMSN 280130Z 22003KT 10SM CLR 22/20 A2984 940 87 2000 220/03 RMK AO2
14837KMSN MSN20060727193509307/27/06 19:35:31  5-MIN KMSN 280135Z 23006KT 10SM CLR 22/20 A2984 940 87 2000 220/06 RMK AO2
14837KMSN MSN20060727194009207/27/06 19:40:31  5-MIN KMSN 280140Z 22003KT 9SM CLR 22/19 A2984 940 84 2000 220/03 RMK AO2
14837KMSN MSN20060727194509207/27/06 19:45:31  5-MIN KMSN 280145Z 22004KT 9SM CLR 22/19 A2984 940 84 2000 220/04 RMK AO2
14837KMSN MSN20060727195011007/27/06 19:50:31  5-MIN KMSN 280150Z 20005KT 10SM CLR 22/19 A2984 940 84 2000 200/05 RMK AO2 SLP099 T02220194
14837KMSN MSN20060727195509307/27/06 19:55:31  5-MIN KMSN 280155Z 00000KT 10SM CLR 22/19 A2985 930 84 2000 000/00 RMK AO2
14837KMSN MSN20060727200009307/27/06 20:00:31  5-MIN KMSN 280200Z 00000KT 10SM CLR 22/19 A2985 930 84 2000 000/00 RMK AO2
14837KMSN MSN20060727200509307/27/06 20:05:31  5-MIN KMSN 280205Z 00000KT 10SM CLR 22/19 A2986 920 84 2000 000/00 RMK AO2
14837KMSN MSN20060727201009307/27/06 20:10:31  5-MIN KMSN 280210Z 00000KT 10SM CLR 22/19 A2986 920 84 1900 000/00 RMK AO2
14837KMSN MSN20060727201509307/27/06 20:15:31  5-MIN KMSN 280215Z 00000KT 10SM CLR 22/19 A2987 920 84 1900 000/00 RMK AO2
14837KMSN MSN20060727202009307/27/06 20:20:31  5-MIN KMSN 280220Z 00000KT 10SM CLR 22/19 A2987 910 84 1900 000/00 RMK AO2
14837KMSN MSN20060727202509307/27/06 20:25:31  5-MIN KMSN 280225Z 00000KT 10SM CLR 21/19 A2987 910 87 1900 000/00 RMK AO2
14837KMSN MSN20060727203009307/27/06 20:30:31  5-MIN KMSN 280230Z 00000KT 10SM CLR 21/19 A2987 910 90 1800 000/00 RMK AO2
14837KMSN MSN20060727203509307/27/06 20:35:31  5-MIN KMSN 280235Z 00000KT 10SM CLR 21/19 A2987 910 90 1900 000/00 RMK AO2
14837KMSN MSN20060727204009307/27/06 20:40:31  5-MIN KMSN 280240Z 00000KT 10SM CLR 21/19 A2987 910 93 1800 000/00 RMK AO2
14837KMSN MSN20060727204509307/27/06 20:45:31  5-MIN KMSN 280245Z 00000KT 10SM CLR 21/19 A2987 910 93 1800 000/00 RMK AO2
14837KMSN MSN20060727205011607/27/06 20:50:31  5-MIN KMSN 280250Z 00000KT 10SM CLR 21/19 A2987 910 93 1800 000/00 RMK AO2 SLP110 T02060194 58005
14837KMSN MSN20060727205509307/27/06 20:55:31  5-MIN KMSN 280255Z 00000KT 10SM CLR 20/19 A2987 910 97 1700 000/00 RMK AO2
14837KMSN MSN20060727210009307/27/06 21:00:31  5-MIN KMSN 280300Z 00000KT 10SM CLR 20/19 A2987 910 97 1700 000/00 RMK AO2
14837KMSN MSN20060727210509307/27/06 21:05:31  5-MIN KMSN 280305Z 22003KT 10SM CLR 21/19 A2987 910 93 1800 220/03 RMK AO2
14837KMSN MSN20060727211009307/27/06 21:10:31  5-MIN KMSN 280310Z 21004KT 10SM CLR 21/19 A2987 910 93 1800 210/04 RMK AO2
14837KMSN MSN20060727211509307/27/06 21:15:31  5-MIN KMSN 280315Z 00000KT 10SM CLR 21/19 A2987 910 90 1900 000/00 RMK AO2
14837KMSN MSN20060727212009307/27/06 21:20:31  5-MIN KMSN 280320Z 00000KT 10SM CLR 21/19 A2987 910 90 1900 000/00 RMK AO2
14837KMSN MSN20060727212509307/27/06 21:25:31  5-MIN KMSN 280325Z VRB03KT 10SM CLR 21/19 A2988 910 90 1800 VRB/03 RMK AO2
14837KMSN MSN20060727213009307/27/06 21:30:31  5-MIN KMSN 280330Z 00000KT 10SM CLR 20/18 A2987 910 90 1700 000/00 RMK AO2
14837KMSN MSN20060727213509307/27/06 21:35:31  5-MIN KMSN 280335Z 00000KT 10SM CLR 20/19 A2987 910 93 1700 000/00 RMK AO2
14837KMSN MSN20060727214009307/27/06 21:40:31  5-MIN KMSN 280340Z 22003KT 10SM CLR 21/19 A2987 910 90 1800 220/03 RMK AO2
14837KMSN MSN20060727214509307/27/06 21:45:31  5-MIN KMSN 280345Z 00000KT 10SM CLR 21/19 A2987 910 90 1800 000/00 RMK AO2
14837KMSN MSN20060727215011007/27/06 21:50:31  5-MIN KMSN 280350Z 00000KT 10SM CLR 21/19 A2987 910 90 1900 000/00 RMK AO2 SLP108 T02110194
14837KMSN MSN20060727215509207/27/06 21:55:31  5-MIN KMSN 280355Z 00000KT 9SM CLR 20/19 A2987 920 93 1700 000/00 RMK AO2
14837KMSN MSN20060727220009207/27/06 22:00:31  5-MIN KMSN 280400Z 00000KT 9SM CLR 20/19 A2987 910 93 1700 000/00 RMK AO2
14837KMSN MSN20060727220509307/27/06 22:05:31  5-MIN KMSN 280405Z 00000KT 10SM CLR 20/19 A2987 910 93 1700 000/00 RMK AO2
14837KMSN MSN20060727221009307/27/06 22:10:31  5-MIN KMSN 280410Z 00000KT 10SM CLR 20/19 A2987 910 93 1700 000/00 RMK AO2
14837KMSN MSN20060727221509307/27/06 22:15:31  5-MIN KMSN 280415Z 05005KT 10SM CLR 20/18 A2988 910 90 1700 050/05 RMK AO2
14837KMSN MSN20060727222009307/27/06 22:20:31  5-MIN KMSN 280420Z 06005KT 10SM CLR 19/18 A2988 900 93 1700 050/05 RMK AO2
14837KMSN MSN20060727222509207/27/06 22:25:31  5-MIN KMSN 280425Z 00000KT 9SM CLR 19/18 A2988 900 97 1600 000/00 RMK AO2
14837KMSN MSN20060727223009307/27/06 22:30:31  5-MIN KMSN 280430Z 00000KT 10SM CLR 19/18 A2988 900 93 1700 000/00 RMK AO2
14837KMSN MSN20060727223509207/27/06 22:35:31  5-MIN KMSN 280435Z 00000KT 9SM CLR 20/18 A2988 900 90 1700 000/00 RMK AO2
14837KMSN MSN20060727224009207/27/06 22:40:31  5-MIN KMSN 280440Z 05003KT 8SM CLR 19/18 A2988 900 93 1700 050/03 RMK AO2
14837KMSN MSN20060727224509207/27/06 22:45:31  5-MIN KMSN 280445Z 05003KT 9SM CLR 19/18 A2988 900 93 1700 050/03 RMK AO2
14837KMSN MSN20060727225011007/27/06 22:50:31  5-MIN KMSN 280450Z 00000KT 10SM CLR 19/18 A2988 900 93 1700 000/00 RMK AO2 SLP113 T01940183
14837KMSN MSN20060727225509307/27/06 22:55:31  5-MIN KMSN 280455Z 00000KT 10SM CLR 20/19 A2988 900 93 1700 000/00 RMK AO2
14837KMSN MSN20060727230009307/27/06 23:00:31  5-MIN KMSN 280500Z 00000KT 10SM CLR 20/19 A2988 900 93 1700 000/00 RMK AO2
14837KMSN MSN20060727230509207/27/06 23:05:31  5-MIN KMSN 280505Z 00000KT 9SM CLR 19/19 A2987 910 97 1700 000/00 RMK AO2
14837KMSN MSN20060727231009207/27/06 23:10:31  5-MIN KMSN 280510Z 00000KT 9SM CLR 20/19 A2987 910 93 1700 000/00 RMK AO2
14837KMSN MSN20060727231509307/27/06 23:15:31  5-MIN KMSN 280515Z 00000KT 10SM CLR 20/19 A2987 910 93 1700 000/00 RMK AO2
14837KMSN MSN20060727232009307/27/06 23:20:31  5-MIN KMSN 280520Z 00000KT 10SM CLR 20/19 A2987 910 93 1700 000/00 RMK AO2
14837KMSN MSN20060727232509307/27/06 23:25:31  5-MIN KMSN 280525Z 00000KT 10SM CLR 20/19 A2987 910 93 1700 000/00 RMK AO2
14837KMSN MSN20060727233009307/27/06 23:30:31  5-MIN KMSN 280530Z 00000KT 10SM CLR 20/19 A2987 910 93 1700 000/00 RMK AO2
14837KMSN MSN20060727233509307/27/06 23:35:31  5-MIN KMSN 280535Z 00000KT 10SM CLR 19/18 A2987 910 93 1700 000/00 RMK AO2
14837KMSN MSN20060727234009307/27/06 23:40:31  5-MIN KMSN 280540Z 17003KT 10SM CLR 20/18 A2988 910 90 1700 160/03 RMK AO2
14837KMSN MSN20060727234509307/27/06 23:45:31  5-MIN KMSN 280545Z 19003KT 10SM CLR 20/19 A2988 900 93 1700 190/03 RMK AO2
14837KMSN MSN20060727235013807/27/06 23:50:31  5-MIN KMSN 280550Z 00000KT 10SM CLR 20/19 A2988 900 93 1700 000/00 RMK AO2 SLP114 T02000189 10233 20189 402890189 53015
14837KMSN MSN20060727235509207/27/06 23:55:31  5-MIN KMSN 280555Z 00000KT 9SM CLR 20/19 A2988 900 93 1700 000/00 RMK AO2
14837KMSN MSN20060728000009207/28/06 00:00:38  5-MIN KMSN 280600Z 00000KT 8SM CLR 20/19 A2988 910 93 1700 000/00 RMK AO2
14837KMSN MSN20060728000509207/28/06 00:05:31  5-MIN KMSN 280605Z 00000KT 8SM CLR 21/19 A2988 900 90 1800 000/00 RMK AO2
14837KMSN MSN20060728001009507/28/06 00:10:31  5-MIN KMSN 280610Z 00000KT 6SM BR CLR 19/19 A2988 900 97 1700 000/00 RMK AO2
14837KMSN MSN20060728001509507/28/06 00:15:35  5-MIN KMSN 280615Z 00000KT 6SM BR CLR 19/19 A2988 900 97 1700 000/00 RMK AO2
14837KMSN MSN20060728002009207/28/06 00:20:31  5-MIN KMSN 280620Z 00000KT 7SM CLR 19/18 A2988 900 97 1600 000/00 RMK AO2
14837KMSN MSN20060728002509207/28/06 00:25:31  5-MIN KMSN 280625Z 00000KT 7SM CLR 19/18 A2988 900 97 1600 000/00 RMK AO2
14837KMSN MSN20060728003009207/28/06 00:30:31  5-MIN KMSN 280630Z 00000KT 9SM CLR 19/19 A2988 900 97 1700 000/00 RMK AO2
14837KMSN MSN20060728003509207/28/06 00:35:31  5-MIN KMSN 280635Z 00000KT 8SM CLR 19/19 A2988 900 97 1700 000/00 RMK AO2
14837KMSN MSN20060728004009207/28/06 00:40:31  5-MIN KMSN 280640Z 00000KT 7SM CLR 19/19 A2988 900 97 1700 000/00 RMK AO2
14837KMSN MSN20060728004509207/28/06 00:45:31  5-MIN KMSN 280645Z 00000KT 7SM CLR 19/19 A2988 900 97 1700 000/00 RMK AO2
14837KMSN MSN20060728005010907/28/06 00:50:31  5-MIN KMSN 280650Z 00000KT 7SM CLR 19/19 A2988 900 97 1700 000/00 RMK AO2 SLP114 T01940189
14837KMSN MSN20060728005509607/28/06 00:55:31  5-MIN KMSN 280655Z 00000KT 5SM BR CLR 19/19 A2988 900 100 1600 000/00 RMK AO2
14837KMSN MSN20060728010009507/28/06 01:00:31  5-MIN KMSN 280700Z 00000KT 4SM BR CLR 19/18 A2988 900 97 1600 000/00 RMK AO2
14837KMSN MSN20060728010509507/28/06 01:05:31  5-MIN KMSN 280705Z 00000KT 4SM BR CLR 19/19 A2988 900 97 1700 000/00 RMK AO2
14837KMSN MSN20060728011009507/28/06 01:10:31  5-MIN KMSN 280710Z 00000KT 5SM BR CLR 19/19 A2988 900 97 1700 000/00 RMK AO2
14837KMSN MSN20060728011509507/28/06 01:15:31  5-MIN KMSN 280715Z 18003KT 6SM BR CLR 19/19 A2988 900 97 1700 180/03 RMK AO2
14837KMSN MSN20060728012009207/28/06 01:20:31  5-MIN KMSN 280720Z 00000KT 8SM CLR 19/19 A2988 900 97 1700 000/00 RMK AO2
14837KMSN MSN20060728012509207/28/06 01:25:31  5-MIN KMSN 280725Z 00000KT 8SM CLR 19/19 A2988 900 97 1700 000/00 RMK AO2
14837KMSN MSN20060728013009507/28/06 01:30:31  5-MIN KMSN 280730Z 00000KT 4SM BR CLR 19/18 A2988 900 97 1600 000/00 RMK AO2
14837KMSN MSN20060728013509507/28/06 01:35:31  5-MIN KMSN 280735Z 00000KT 3SM BR CLR 19/19 A2988 900 97 1700 000/00 RMK AO2
14837KMSN MSN20060728014009507/28/06 01:40:31  5-MIN KMSN 280740Z 00000KT 5SM BR CLR 19/19 A2988 900 97 1700 000/00 RMK AO2
14837KMSN MSN20060728014509507/28/06 01:45:31  5-MIN KMSN 280745Z 00000KT 4SM BR CLR 19/18 A2988 900 97 1600 000/00 RMK AO2
14837KMSN MSN20060728015011207/28/06 01:50:31  5-MIN KMSN 280750Z 00000KT 4SM BR CLR 19/18 A2988 900 97 1600 000/00 RMK AO2 SLP115 T01890183
14837KMSN MSN20060728015509207/28/06 01:55:31  5-MIN KMSN 280755Z 00000KT 7SM CLR 19/19 A2988 900 97 1700 000/00 RMK AO2
14837KMSN MSN20060728020009207/28/06 02:00:31  5-MIN KMSN 280800Z 00000KT 7SM CLR 19/19 A2988 900 97 1700 000/00 RMK AO2
14837KMSN MSN20060728020509207/28/06 02:05:31  5-MIN KMSN 280805Z 00000KT 7SM CLR 19/19 A2989 900 97 1700 000/00 RMK AO2
14837KMSN MSN20060728021009207/28/06 02:10:31  5-MIN KMSN 280810Z 00000KT 7SM CLR 19/19 A2989 900 97 1700 000/00 RMK AO2
14837KMSN MSN20060728021509207/28/06 02:15:31  5-MIN KMSN 280815Z 00000KT 7SM CLR 19/18 A2989 890 97 1600 000/00 RMK AO2
14837KMSN MSN20060728022009207/28/06 02:20:31  5-MIN KMSN 280820Z 00000KT 7SM CLR 19/18 A2989 890 97 1600 000/00 RMK AO2
14837KMSN MSN20060728022509707/28/06 02:25:31  5-MIN KMSN 280825Z 00000KT 3/4SM BR CLR 19/18 A2989 890 97 1600 000/00 RMK AO2
14837KMSN MSN20060728023009207/28/06 02:30:31  5-MIN KMSN 280830Z 00000KT 7SM CLR 19/18 A2989 890 97 1600 000/00 RMK AO2
14837KMSN MSN20060728023509207/28/06 02:35:31  5-MIN KMSN 280835Z 00000KT 7SM CLR 19/18 A2989 890 97 1600 000/00 RMK AO2
14837KMSN MSN20060728024009207/28/06 02:40:31  5-MIN KMSN 280840Z 00000KT 8SM CLR 19/18 A2989 890 97 1600 000/00 RMK AO2
14837KMSN MSN20060728024509207/28/06 02:45:31  5-MIN KMSN 280845Z 00000KT 7SM CLR 19/18 A2989 890 97 1600 000/00 RMK AO2
14837KMSN MSN20060728025011807/28/06 02:50:31  5-MIN KMSN 280850Z 00000KT 6SM BR CLR 19/18 A2989 890 97 1600 000/00 RMK AO2 SLP119 T01890183 53002
14837KMSN MSN20060728025509507/28/06 02:55:31  5-MIN KMSN 280855Z 00000KT 3SM BR CLR 19/18 A2989 890 97 1600 000/00 RMK AO2
14837KMSN MSN20060728030009507/28/06 03:00:31  5-MIN KMSN 280900Z 00000KT 4SM BR CLR 19/18 A2989 890 97 1600 000/00 RMK AO2
14837KMSN MSN20060728030509507/28/06 03:05:31  5-MIN KMSN 280905Z 00000KT 4SM BR CLR 19/18 A2990 890 97 1600 000/00 RMK AO2
14837KMSN MSN20060728031009507/28/06 03:10:31  5-MIN KMSN 280910Z 00000KT 4SM BR CLR 19/18 A2990 890 97 1600 000/00 RMK AO2
14837KMSN MSN20060728031509507/28/06 03:15:31  5-MIN KMSN 280915Z 00000KT 4SM BR CLR 19/18 A2990 890 97 1600 000/00 RMK AO2
14837KMSN MSN20060728032009507/28/06 03:20:31  5-MIN KMSN 280920Z 00000KT 4SM BR CLR 19/18 A2990 890 97 1600 000/00 RMK AO2
14837KMSN MSN20060728032509507/28/06 03:25:31  5-MIN KMSN 280925Z 00000KT 4SM BR CLR 19/18 A2990 890 97 1600 000/00 RMK AO2
14837KMSN MSN20060728033009507/28/06 03:30:31  5-MIN KMSN 280930Z 00000KT 4SM BR CLR 19/18 A2990 890 93 1600 000/00 RMK AO2
14837KMSN MSN20060728033509507/28/06 03:35:31  5-MIN KMSN 280935Z 00000KT 6SM BR CLR 19/19 A2990 880 97 1600 000/00 RMK AO2
14837KMSN MSN20060728034009507/28/06 03:40:31  5-MIN KMSN 280940Z 00000KT 3SM BR CLR 19/18 A2990 880 97 1600 000/00 RMK AO2
14837KMSN MSN20060728034509507/28/06 03:45:31  5-MIN KMSN 280945Z 00000KT 4SM BR CLR 19/18 A2990 880 97 1600 000/00 RMK AO2
14837KMSN MSN20060728035011207/28/06 03:50:31  5-MIN KMSN 280950Z 00000KT 4SM BR CLR 19/18 A2990 880 97 1600 000/00 RMK AO2 SLP121 T01890183
14837KMSN MSN20060728035509507/28/06 03:55:31  5-MIN KMSN 280955Z 00000KT 4SM BR CLR 19/18 A2990 890 97 1600 000/00 RMK AO2
14837KMSN MSN20060728040009607/28/06 04:00:31  5-MIN KMSN 281000Z 00000KT 4SM BR CLR 18/18 A2990 890 100 1500 000/00 RMK AO2
14837KMSN MSN20060728040509507/28/06 04:05:31  5-MIN KMSN 281005Z 00000KT 4SM BR CLR 18/18 A2990 890 96 1500 000/00 RMK AO2
14837KMSN MSN20060728041009507/28/06 04:10:31  5-MIN KMSN 281010Z 00000KT 4SM BR CLR 18/18 A2990 880 96 1500 000/00 RMK AO2
14837KMSN MSN20060728041510007/28/06 04:15:31  5-MIN KMSN 281015Z 00000KT 4SM MIFG BR CLR 18/17 A2990 880 93 1500 000/00 RMK AO2
14837KMSN MSN20060728042010007/28/06 04:20:31  5-MIN KMSN 281020Z 00000KT 4SM MIFG BR CLR 18/18 A2990 880 96 1500 000/00 RMK AO2
14837KMSN MSN20060728042510007/28/06 04:25:31  5-MIN KMSN 281025Z 00000KT 4SM MIFG BR CLR 18/17 A2990 880 93 1500 000/00 RMK AO2
14837KMSN MSN20060728043010007/28/06 04:30:31  5-MIN KMSN 281030Z 00000KT 4SM MIFG BR CLR 19/18 A2990 880 93 1600 000/00 RMK AO2
14837KMSN MSN20060728043510007/28/06 04:35:31  5-MIN KMSN 281035Z 00000KT 4SM MIFG BR CLR 19/18 A2990 880 93 1600 000/00 RMK AO2
14837KMSN MSN20060728044010007/28/06 04:40:31  5-MIN KMSN 281040Z 00000KT 4SM MIFG BR CLR 19/18 A2990 880 93 1600 000/00 RMK AO2
14837KMSN MSN20060728044510007/28/06 04:45:31  5-MIN KMSN 281045Z 00000KT 4SM MIFG BR CLR 18/18 A2990 880 96 1500 000/00 RMK AO2
14837KMSN MSN20060728045011707/28/06 04:50:31  5-MIN KMSN 281050Z 00000KT 4SM MIFG BR CLR 18/18 A2991 880 96 1500 000/00 RMK AO2 SLP123 T01830178
14837KMSN MSN20060728045510007/28/06 04:55:31  5-MIN KMSN 281055Z 00000KT 4SM MIFG BR CLR 18/18 A2991 870 96 1500 000/00 RMK AO2
14837KMSN MSN20060728050010007/28/06 05:00:31  5-MIN KMSN 281100Z 00000KT 4SM MIFG BR CLR 18/18 A2991 870 96 1500 000/00 RMK AO2
14837KMSN MSN20060728050510007/28/06 05:05:31  5-MIN KMSN 281105Z 00000KT 4SM BCFG BR CLR 18/18 A2991 870 96 1500 000/00 RMK AO2
14837KMSN MSN20060728051010007/28/06 05:10:31  5-MIN KMSN 281110Z 00000KT 4SM BCFG BR CLR 19/18 A2991 870 97 1600 000/00 RMK AO2
14837KMSN MSN20060728051510007/28/06 05:15:31  5-MIN KMSN 281115Z 00000KT 4SM BCFG BR CLR 19/18 A2991 870 97 1600 000/00 RMK AO2
14837KMSN MSN20060728052010007/28/06 05:20:31  5-MIN KMSN 281120Z 00000KT 4SM BCFG BR CLR 19/18 A2991 870 97 1600 000/00 RMK AO2
14837KMSN MSN20060728052510007/28/06 05:25:31  5-MIN KMSN 281125Z 00000KT 4SM BCFG BR CLR 19/19 A2991 870 97 1600 000/00 RMK AO2
14837KMSN MSN20060728053010007/28/06 05:30:31  5-MIN KMSN 281130Z 00000KT 5SM BCFG BR CLR 19/19 A2991 870 97 1600 000/00 RMK AO2
14837KMSN MSN20060728053510007/28/06 05:35:31  5-MIN KMSN 281135Z 00000KT 6SM BCFG BR CLR 20/19 A2991 870 93 1700 000/00 RMK AO2
14837KMSN MSN20060728054009207/28/06 05:40:31  5-MIN KMSN 281140Z 00000KT 7SM CLR 20/19 A2991 870 93 1700 000/00 RMK AO2
14837KMSN MSN20060728054509507/28/06 05:45:31  5-MIN KMSN 281145Z 00000KT 6SM BR CLR 20/19 A2991 870 97 1700 000/00 RMK AO2
14837KMSN MSN20060728055013607/28/06 05:50:31  5-MIN KMSN 281150Z 00000KT 6SM BR CLR 21/19 A2992 870 93 1800 000/00 RMK AO2 SLP126 70079 T02060194 10206 20183 53005
14837KMSN MSN20060728055509507/28/06 05:55:31  5-MIN KMSN 281155Z 00000KT 6SM BR CLR 21/19 A2992 870 93 1800 000/00 RMK AO2
14837KMSN MSN20060728060009207/28/06 06:00:31  5-MIN KMSN 281200Z 00000KT 7SM CLR 21/20 A2992 870 93 1800 000/00 RMK AO2
14837KMSN MSN20060728060509207/28/06 06:05:31  5-MIN KMSN 281205Z 00000KT 7SM CLR 22/20 A2992 860 90 1900 000/00 RMK AO2
14837KMSN MSN20060728061009507/28/06 06:10:31  5-MIN KMSN 281210Z 00000KT 6SM BR CLR 22/21 A2993 860 90 1900 000/00 RMK AO2
14837KMSN MSN20060728061509507/28/06 06:15:31  5-MIN KMSN 281215Z 00000KT 6SM BR CLR 22/21 A2993 860 90 1900 000/00 RMK AO2
14837KMSN MSN20060728062009507/28/06 06:20:31  5-MIN KMSN 281220Z 00000KT 6SM BR CLR 22/21 A2993 860 90 1900 000/00 RMK AO2
14837KMSN MSN20060728062509207/28/06 06:25:31  5-MIN KMSN 281225Z 00000KT 7SM CLR 23/21 A2993 860 87 2000 000/00 RMK AO2
14837KMSN MSN20060728063009207/28/06 06:30:31  5-MIN KMSN 281230Z 00000KT 7SM CLR 23/21 A2993 860 87 2000 000/00 RMK AO2
14837KMSN MSN20060728063509207/28/06 06:35:31  5-MIN KMSN 281235Z VRB03KT 7SM CLR 23/21 A2993 860 87 2100 VRB/03 RMK AO2
14837KMSN MSN20060728064009207/28/06 06:40:31  5-MIN KMSN 281240Z VRB03KT 8SM CLR 23/21 A2993 860 84 2100 VRB/03 RMK AO2
14837KMSN MSN20060728064509307/28/06 06:45:31  5-MIN KMSN 281245Z 30005KT 10SM CLR 23/21 A2993 850 84 2100 300/05 RMK AO2
14837KMSN MSN20060728065011007/28/06 06:50:31  5-MIN KMSN 281250Z 30003KT 10SM CLR 23/21 A2993 850 84 2100 300/03 RMK AO2 SLP130 T02330206
14837KMSN MSN20060728065509307/28/06 06:55:31  5-MIN KMSN 281255Z VRB03KT 10SM CLR 24/21 A2993 850 81 2100 VRB/03 RMK AO2
14837KMSN MSN20060728070009307/28/06 07:00:31  5-MIN KMSN 281300Z 00000KT 10SM CLR 24/21 A2993 850 84 2100 000/00 RMK AO2
14837KMSN MSN20060728070509307/28/06 07:05:31  5-MIN KMSN 281305Z 33003KT 10SM CLR 24/21 A2994 850 84 2100 320/03 RMK AO2
14837KMSN MSN20060728071009207/28/06 07:10:31  5-MIN KMSN 281310Z 00000KT 9SM CLR 24/21 A2993 850 81 2100 000/00 RMK AO2
14837KMSN MSN20060728071509207/28/06 07:15:31  5-MIN KMSN 281315Z 00000KT 9SM CLR 24/21 A2993 850 78 2200 000/00 RMK AO2
14837KMSN MSN20060728072009307/28/06 07:20:31  5-MIN KMSN 281320Z 00000KT 10SM CLR 24/21 A2993 850 78 2200 000/00 RMK AO2
14837KMSN MSN20060728072509307/28/06 07:25:31  5-MIN KMSN 281325Z 00000KT 10SM CLR 25/21 A2993 850 76 2200 000/00 RMK AO2
14837KMSN MSN20060728073009307/28/06 07:30:31  5-MIN KMSN 281330Z 00000KT 10SM CLR 25/21 A2993 850 76 2200 000/00 RMK AO2
14837KMSN MSN20060728073509307/28/06 07:35:31  5-MIN KMSN 281335Z 00000KT 10SM CLR 25/21 A2993 850 79 2200 000/00 RMK AO2
14837KMSN MSN20060728074009307/28/06 07:40:31  5-MIN KMSN 281340Z 00000KT 10SM CLR 26/21 A2994 850 76 2300 000/00 RMK AO2
14837KMSN MSN20060728074509307/28/06 07:45:31  5-MIN KMSN 281345Z 00000KT 10SM CLR 26/21 A2994 850 76 2300 000/00 RMK AO2
14837KMSN MSN20060728075011007/28/06 07:50:31  5-MIN KMSN 281350Z 00000KT 10SM CLR 26/21 A2994 850 73 2400 000/00 RMK AO2 SLP132 T02610211
14837KMSN MSN20060728075509307/28/06 07:55:31  5-MIN KMSN 281355Z 00000KT 10SM CLR 26/22 A2994 850 76 2400 000/00 RMK AO2
14837KMSN MSN20060728080009307/28/06 08:00:31  5-MIN KMSN 281400Z 00000KT 10SM CLR 27/21 A2994 840 71 2400 000/00 RMK AO2
14837KMSN MSN20060728080509307/28/06 08:05:31  5-MIN KMSN 281405Z 00000KT 10SM CLR 27/21 A2994 840 71 2400 000/00 RMK AO2
14837KMSN MSN20060728081009307/28/06 08:10:31  5-MIN KMSN 281410Z 29003KT 10SM CLR 27/21 A2994 840 69 2500 290/03 RMK AO2
14837KMSN MSN20060728081509307/28/06 08:15:31  5-MIN KMSN 281415Z 31003KT 10SM CLR 27/21 A2994 840 66 2500 310/03 RMK AO2
14837KMSN MSN20060728082009307/28/06 08:20:31  5-MIN KMSN 281420Z 24003KT 10SM CLR 27/22 A2994 840 71 2500 240/03 RMK AO2
14837KMSN MSN20060728082509307/28/06 08:25:31  5-MIN KMSN 281425Z 00000KT 10SM CLR 27/22 A2994 850 73 2400 000/00 RMK AO2
14837KMSN MSN20060728083009307/28/06 08:30:31  5-MIN KMSN 281430Z 00000KT 10SM CLR 27/22 A2994 840 73 2400 000/00 RMK AO2
14837KMSN MSN20060728083509307/28/06 08:35:31  5-MIN KMSN 281435Z 00000KT 10SM CLR 27/22 A2994 840 71 2500 000/00 RMK AO2
14837KMSN MSN20060728084009307/28/06 08:40:31  5-MIN KMSN 281440Z 00000KT 10SM CLR 28/22 A2994 840 69 2500 000/00 RMK AO2
14837KMSN MSN20060728084509307/28/06 08:45:31  5-MIN KMSN 281445Z 22003KT 10SM CLR 28/22 A2994 840 69 2500 220/03 RMK AO2
14837KMSN MSN20060728085011607/28/06 08:50:31  5-MIN KMSN 281450Z 00000KT 10SM CLR 28/22 A2995 840 69 2500 000/00 RMK AO2 SLP135 T02780217 53008
14837KMSN MSN20060728085509307/28/06 08:55:31  5-MIN KMSN 281455Z 00000KT 10SM CLR 28/21 A2995 840 66 2500 000/00 RMK AO2
14837KMSN MSN20060728090009307/28/06 09:00:31  5-MIN KMSN 281500Z 29003KT 10SM CLR 28/21 A2995 840 64 2600 290/03 RMK AO2
14837KMSN MSN20060728090509307/28/06 09:05:31  5-MIN KMSN 281505Z 32003KT 10SM CLR 29/21 A2995 840 60 2700 320/03 RMK AO2
14837KMSN MSN20060728091009307/28/06 09:10:31  5-MIN KMSN 281510Z 26003KT 10SM CLR 29/21 A2995 840 62 2700 260/03 RMK AO2
14837KMSN MSN20060728091509307/28/06 09:15:31  5-MIN KMSN 281515Z 21003KT 10SM CLR 28/22 A2995 840 69 2600 210/03 RMK AO2
14837KMSN MSN20060728092009307/28/06 09:20:31  5-MIN KMSN 281520Z 23004KT 10SM CLR 28/22 A2995 840 69 2600 230/04 RMK AO2
14837KMSN MSN20060728092509307/28/06 09:25:31  5-MIN KMSN 281525Z VRB03KT 10SM CLR 28/22 A2995 840 66 2600 VRB/03 RMK AO2
14837KMSN MSN20060728093009307/28/06 09:30:31  5-MIN KMSN 281530Z VRB03KT 10SM CLR 29/22 A2995 840 64 2700 VRB/03 RMK AO2
14837KMSN MSN20060728093509307/28/06 09:35:31  5-MIN KMSN 281535Z 27006KT 10SM CLR 29/21 A2995 840 60 2700 270/06 RMK AO2
14837KMSN MSN20060728094009307/28/06 09:40:31  5-MIN KMSN 281540Z 25004KT 10SM CLR 29/21 A2995 840 60 2700 250/04 RMK AO2
14837KMSN MSN20060728094509307/28/06 09:45:31  5-MIN KMSN 281545Z VRB04KT 10SM CLR 29/21 A2995 830 60 2700 VRB/04 RMK AO2
14837KMSN MSN20060728095011007/28/06 09:50:31  5-MIN KMSN 281550Z 00000KT 10SM CLR 29/21 A2995 830 60 2700 000/00 RMK AO2 SLP137 T02890206
14837KMSN MSN20060728095509307/28/06 09:55:31  5-MIN KMSN 281555Z 29004KT 10SM CLR 29/21 A2995 830 60 2700 290/04 RMK AO2
14837KMSN MSN20060728100009307/28/06 10:00:31  5-MIN KMSN 281600Z 23004KT 10SM CLR 29/21 A2995 830 60 2700 230/04 RMK AO2
14837KMSN MSN20060728100509307/28/06 10:05:31  5-MIN KMSN 281605Z 23006KT 10SM CLR 29/21 A2995 830 60 2700 230/06 RMK AO2
14837KMSN MSN20060728101009307/28/06 10:10:31  5-MIN KMSN 281610Z VRB04KT 10SM CLR 29/21 A2995 830 60 2700 VRB/04 RMK AO2
14837KMSN MSN20060728101509307/28/06 10:15:31  5-MIN KMSN 281615Z 23005KT 10SM CLR 29/21 A2995 830 60 2700 230/05 RMK AO2
14837KMSN MSN20060728102009307/28/06 10:20:31  5-MIN KMSN 281620Z VRB04KT 10SM CLR 29/21 A2995 830 58 2700 VRB/04 RMK AO2
14837KMSN MSN20060728102509307/28/06 10:25:31  5-MIN KMSN 281625Z 20006KT 10SM CLR 29/21 A2995 830 58 2700 200/06 RMK AO2
14837KMSN MSN20060728103009307/28/06 10:30:31  5-MIN KMSN 281630Z VRB04KT 10SM CLR 29/21 A2996 830 58 2700 VRB/04 RMK AO2
14837KMSN MSN20060728103509307/28/06 10:35:31  5-MIN KMSN 281635Z VRB05KT 10SM CLR 30/21 A2996 830 56 2800 VRB/05 RMK AO2
14837KMSN MSN20060728104009307/28/06 10:40:31  5-MIN KMSN 281640Z 23006KT 10SM CLR 29/20 A2995 830 56 2700 230/06 RMK AO2
14837KMSN MSN20060728104509307/28/06 10:45:31  5-MIN KMSN 281645Z 22005KT 10SM CLR 29/20 A2996 830 56 2700 210/05 RMK AO2
14837KMSN MSN20060728105011007/28/06 10:50:31  5-MIN KMSN 281650Z 21007KT 10SM CLR 29/20 A2996 830 56 2700 210/07 RMK AO2 SLP138 T02940200
14837KMSN MSN20060728105509607/28/06 10:55:31  5-MIN KMSN 281655Z 24005KT 10SM FEW040 29/19 A2996 830 54 2700 240/05 RMK AO2
14837KMSN MSN20060728110009607/28/06 11:00:31  5-MIN KMSN 281700Z VRB06KT 10SM FEW040 30/19 A2996 830 52 2800 VRB/06 RMK AO2
14837KMSN MSN20060728110509607/28/06 11:05:31  5-MIN KMSN 281705Z 24005KT 10SM FEW040 30/19 A2996 830 52 2800 240/05 RMK AO2
14837KMSN MSN20060728111009607/28/06 11:10:31  5-MIN KMSN 281710Z VRB06KT 10SM FEW040 30/20 A2996 830 54 2800 VRB/06 RMK AO2
14837KMSN MSN20060728111509607/28/06 11:15:31  5-MIN KMSN 281715Z VRB05KT 10SM FEW040 30/19 A2996 830 52 2800 VRB/05 RMK AO2
14837KMSN MSN20060728112009607/28/06 11:20:31  5-MIN KMSN 281720Z VRB05KT 10SM FEW040 30/19 A2996 830 52 2800 VRB/05 RMK AO2
14837KMSN MSN20060728112509607/28/06 11:25:31  5-MIN KMSN 281725Z VRB04KT 10SM FEW040 30/20 A2996 830 54 2800 VRB/04 RMK AO2
14837KMSN MSN20060728113009607/28/06 11:30:31  5-MIN KMSN 281730Z 29004KT 10SM FEW040 31/21 A2996 830 54 2800 290/04 RMK AO2
14837KMSN MSN20060728113509607/28/06 11:35:31  5-MIN KMSN 281735Z 23006KT 10SM FEW040 30/20 A2996 830 54 2800 230/06 RMK AO2
14837KMSN MSN20060728114009607/28/06 11:40:31  5-MIN KMSN 281740Z 20007KT 10SM FEW040 30/19 A2996 830 52 2800 200/07 RMK AO2
14837KMSN MSN20060728114509607/28/06 11:45:31  5-MIN KMSN 281745Z 23006KT 10SM FEW040 30/19 A2996 830 51 2800 230/06 RMK AO2
14837KMSN MSN20060728115013107/28/06 11:50:31  5-MIN KMSN 281750Z VRB06KT 10SM FEW040 30/20 A2996 830 54 2800 VRB/06 RMK AO2 SLP138 T03000200 10306 20206 51009
14837KMSN MSN20060728115509607/28/06 11:55:31  5-MIN KMSN 281755Z VRB04KT 10SM FEW042 31/20 A2996 830 52 2800 VRB/04 RMK AO2
14837KMSN MSN20060728120009607/28/06 12:00:31  5-MIN KMSN 281800Z 28007KT 10SM FEW042 31/20 A2996 830 52 2800 280/07 RMK AO2
14837KMSN MSN20060728120509607/28/06 12:05:31  5-MIN KMSN 281805Z 22006KT 10SM FEW042 31/20 A2996 830 52 2800 220/06 RMK AO2
14837KMSN MSN20060728121009607/28/06 12:10:31  5-MIN KMSN 281810Z 23006KT 10SM FEW042 31/20 A2996 830 52 2800 230/06 RMK AO2
14837KMSN MSN20060728121509607/28/06 12:15:31  5-MIN KMSN 281815Z 24006KT 10SM FEW042 31/20 A2996 830 52 2800 230/06 RMK AO2
14837KMSN MSN20060728122009607/28/06 12:20:31  5-MIN KMSN 281820Z 22006KT 10SM FEW042 31/21 A2995 830 54 2800 220/06 RMK AO2
14837KMSN MSN20060728122509607/28/06 12:25:31  5-MIN KMSN 281825Z 23006KT 10SM FEW042 31/21 A2996 830 53 2900 230/06 RMK AO2
14837KMSN MSN20060728123009607/28/06 12:30:31  5-MIN KMSN 281830Z VRB05KT 10SM FEW042 31/21 A2995 830 54 2800 VRB/05 RMK AO2
14837KMSN MSN20060728123511207/28/06 12:35:31  5-MIN KMSN 281835Z 25007KT 200V270 10SM FEW042 31/21 A2996 830 54 2800 240/07 200V270 RMK AO2
14837KMSN MSN20060728124009607/28/06 12:40:31  5-MIN KMSN 281840Z 23005KT 10SM FEW042 31/21 A2996 830 54 2800 230/05 RMK AO2
14837KMSN MSN20060728124509607/28/06 12:45:31  5-MIN KMSN 281845Z 23007KT 10SM FEW042 31/21 A2996 830 54 2800 230/07 RMK AO2
14837KMSN MSN20060728125011307/28/06 12:50:31  5-MIN KMSN 281850Z 25007KT 10SM FEW042 31/20 A2996 830 52 2800 250/07 RMK AO2 SLP138 T03060200
14837KMSN MSN20060728125509607/28/06 12:55:31  5-MIN KMSN 281855Z 23007KT 10SM FEW045 31/20 A2996 830 52 2800 230/07 RMK AO2
14837KMSN MSN20060728130009607/28/06 13:00:31  5-MIN KMSN 281900Z 22006KT 10SM FEW045 31/21 A2996 830 53 2900 220/06 RMK AO2
14837KMSN MSN20060728130509607/28/06 13:05:31  5-MIN KMSN 281905Z 25007KT 10SM FEW045 31/20 A2996 830 52 2800 250/07 RMK AO2
14837KMSN MSN20060728131009607/28/06 13:10:31  5-MIN KMSN 281910Z 24006KT 10SM FEW045 31/21 A2996 830 53 2900 240/06 RMK AO2
14837KMSN MSN20060728131509607/28/06 13:15:31  5-MIN KMSN 281915Z 25006KT 10SM FEW045 31/20 A2995 830 51 2900 250/06 RMK AO2
14837KMSN MSN20060728132009607/28/06 13:20:31  5-MIN KMSN 281920Z 23005KT 10SM FEW045 31/20 A2995 840 51 2900 230/05 RMK AO2
14837KMSN MSN20060728132509607/28/06 13:25:31  5-MIN KMSN 281925Z VRB04KT 10SM FEW045 31/20 A2995 830 51 2900 VRB/04 RMK AO2
14837KMSN MSN20060728133009607/28/06 13:30:31  5-MIN KMSN 281930Z 23008KT 10SM FEW045 31/21 A2996 830 53 2900 230/08 RMK AO2
14837KMSN MSN20060728133509607/28/06 13:35:31  5-MIN KMSN 281935Z 24005KT 10SM FEW045 31/20 A2995 830 51 2900 240/05 RMK AO2
14837KMSN MSN20060728134009607/28/06 13:40:31  5-MIN KMSN 281940Z VRB04KT 10SM FEW045 31/20 A2995 830 51 2900 VRB/04 RMK AO2
14837KMSN MSN20060728134509607/28/06 13:45:31  5-MIN KMSN 281945Z 25007KT 10SM FEW045 31/20 A2995 830 51 2900 240/07 RMK AO2
14837KMSN MSN20060728135011307/28/06 13:50:31  5-MIN KMSN 281950Z VRB05KT 10SM FEW045 31/20 A2995 830 51 2900 VRB/05 RMK AO2 SLP137 T03110200
14837KMSN MSN20060728135509607/28/06 13:55:31  5-MIN KMSN 281955Z VRB06KT 10SM FEW045 31/20 A2996 830 51 2900 VRB/06 RMK AO2
14837KMSN MSN20060728140011207/28/06 14:00:31  5-MIN KMSN 282000Z 23007KT 200V260 10SM FEW045 31/19 A2996 830 49 2900 230/07 200V260 RMK AO2
14837KMSN MSN20060728140509607/28/06 14:05:31  5-MIN KMSN 282005Z 22006KT 10SM FEW045 31/20 A2995 830 51 2900 220/06 RMK AO2
14837KMSN MSN20060728141011207/28/06 14:10:31  5-MIN KMSN 282010Z 23007KT 210V280 10SM FEW045 31/21 A2996 830 53 2900 230/07 210V280 RMK AO2
14837KMSN MSN20060728141509607/28/06 14:15:31  5-MIN KMSN 282015Z 22007KT 10SM FEW045 31/20 A2995 830 51 2900 220/07 RMK AO2
14837KMSN MSN20060728142009607/28/06 14:20:31  5-MIN KMSN 282020Z VRB06KT 10SM FEW045 31/19 A2995 830 49 2900 VRB/06 RMK AO2
14837KMSN MSN20060728142509607/28/06 14:25:31  5-MIN KMSN 282025Z VRB06KT 10SM FEW045 31/20 A2995 830 51 2900 VRB/06 RMK AO2
14837KMSN MSN20060728143009607/28/06 14:30:31  5-MIN KMSN 282030Z VRB05KT 10SM FEW045 32/20 A2995 840 49 3000 VRB/05 RMK AO2
14837KMSN MSN20060728143509607/28/06 14:35:31  5-MIN KMSN 282035Z 21006KT 10SM FEW045 32/19 A2995 840 47 3000 210/06 RMK AO2
14837KMSN MSN20060728144009607/28/06 14:40:31  5-MIN KMSN 282040Z 22007KT 10SM FEW045 32/19 A2995 840 47 3000 220/07 RMK AO2
14837KMSN MSN20060728144509607/28/06 14:45:31  5-MIN KMSN 282045Z 23006KT 10SM FEW045 31/20 A2995 840 51 2900 220/06 RMK AO2
14837KMSN MSN20060728145011907/28/06 14:50:31  5-MIN KMSN 282050Z 24006KT 10SM FEW045 31/20 A2995 840 51 2900 240/06 RMK AO2 SLP136 T03110200 50003
14837KMSN MSN20060728145509607/28/06 14:55:31  5-MIN KMSN 282055Z VRB06KT 10SM FEW045 31/20 A2995 840 51 2900 VRB/06 RMK AO2
14837KMSN MSN20060728150009607/28/06 15:00:31  5-MIN KMSN 282100Z 23006KT 10SM FEW045 31/20 A2995 840 51 2900 230/06 RMK AO2
14837KMSN MSN20060728150511207/28/06 15:05:31  5-MIN KMSN 282105Z 24007KT 210V270 10SM FEW045 31/20 A2995 840 51 2900 240/07 210V270 RMK AO2
14837KMSN MSN20060728151009607/28/06 15:10:31  5-MIN KMSN 282110Z VRB06KT 10SM FEW045 31/20 A2995 840 51 2900 VRB/06 RMK AO2
14837KMSN MSN20060728151509607/28/06 15:15:31  5-MIN KMSN 282115Z 23006KT 10SM FEW045 31/20 A2994 840 51 2900 230/06 RMK AO2
14837KMSN MSN20060728152009607/28/06 15:20:31  5-MIN KMSN 282120Z 23006KT 10SM FEW045 31/19 A2994 840 49 2900 220/06 RMK AO2
14837KMSN MSN20060728152509607/28/06 15:25:31  5-MIN KMSN 282125Z 23006KT 10SM FEW045 31/20 A2994 840 51 2900 230/06 RMK AO2
14837KMSN MSN20060728153009607/28/06 15:30:31  5-MIN KMSN 282130Z VRB04KT 10SM FEW045 32/20 A2994 840 49 3000 VRB/04 RMK AO2
14837KMSN MSN20060728153509607/28/06 15:35:31  5-MIN KMSN 282135Z VRB06KT 10SM FEW045 32/20 A2994 840 49 3000 VRB/06 RMK AO2
14837KMSN MSN20060728154009607/28/06 15:40:31  5-MIN KMSN 282140Z 23006KT 10SM FEW045 31/20 A2995 840 51 2900 230/06 RMK AO2
14837KMSN MSN20060728154509607/28/06 15:45:31  5-MIN KMSN 282145Z VRB06KT 10SM FEW045 31/20 A2994 840 51 2900 VRB/06 RMK AO2
14837KMSN MSN20060728155011007/28/06 15:50:31  5-MIN KMSN 282150Z 23005KT 10SM CLR 31/21 A2994 840 53 2900 230/05 RMK AO2 SLP133 T03110206
14837KMSN MSN20060728155509307/28/06 15:55:31  5-MIN KMSN 282155Z 23005KT 10SM CLR 31/21 A2994 840 53 2900 230/05 RMK AO2
14837KMSN MSN20060728160009307/28/06 16:00:31  5-MIN KMSN 282200Z 23005KT 10SM CLR 31/21 A2994 840 53 2900 230/05 RMK AO2
14837KMSN MSN20060728160509307/28/06 16:05:31  5-MIN KMSN 282205Z VRB06KT 10SM CLR 31/21 A2994 840 53 2900 VRB/06 RMK AO2
14837KMSN MSN20060728161009307/28/06 16:10:31  5-MIN KMSN 282210Z VRB04KT 10SM CLR 31/21 A2994 840 54 2900 VRB/04 RMK AO2
14837KMSN MSN20060728161509307/28/06 16:15:31  5-MIN KMSN 282215Z VRB06KT 10SM CLR 31/21 A2994 840 54 2900 VRB/06 RMK AO2
14837KMSN MSN20060728162009307/28/06 16:20:31  5-MIN KMSN 282220Z 23007KT 10SM CLR 31/21 A2994 840 54 2900 220/07 RMK AO2
14837KMSN MSN20060728162509307/28/06 16:25:31  5-MIN KMSN 282225Z VRB05KT 10SM CLR 31/21 A2994 840 53 2900 VRB/05 RMK AO2
14837KMSN MSN20060728163009307/28/06 16:30:31  5-MIN KMSN 282230Z 22006KT 10SM CLR 31/21 A2994 850 54 2900 220/06 RMK AO2
14837KMSN MSN20060728163509307/28/06 16:35:31  5-MIN KMSN 282235Z 23006KT 10SM CLR 31/21 A2994 850 53 2900 230/06 RMK AO2
14837KMSN MSN20060728164009307/28/06 16:40:31  5-MIN KMSN 282240Z 23006KT 10SM CLR 31/21 A2994 850 56 2900 230/06 RMK AO2
14837KMSN MSN20060728164509307/28/06 16:45:31  5-MIN KMSN 282245Z VRB05KT 10SM CLR 31/21 A2994 850 56 2900 VRB/05 RMK AO2
14837KMSN MSN20060728165011007/28/06 16:50:31  5-MIN KMSN 282250Z VRB05KT 10SM CLR 31/21 A2994 850 56 2900 VRB/05 RMK AO2 SLP132 T03060211
14837KMSN MSN20060728165509307/28/06 16:55:31  5-MIN KMSN 282255Z 23005KT 10SM CLR 31/21 A2993 850 56 2900 230/05 RMK AO2
14837KMSN MSN20060728170009307/28/06 17:00:31  5-MIN KMSN 282300Z 23006KT 10SM CLR 31/21 A2993 850 56 2900 230/06 RMK AO2
14837KMSN MSN20060728170509307/28/06 17:05:31  5-MIN KMSN 282305Z 22006KT 10SM CLR 31/21 A2993 850 56 2900 220/06 RMK AO2
14837KMSN MSN20060728171009307/28/06 17:10:31  5-MIN KMSN 282310Z VRB05KT 10SM CLR 31/21 A2993 850 54 2900 VRB/05 RMK AO2
14837KMSN MSN20060728171509307/28/06 17:15:31  5-MIN KMSN 282315Z 22004KT 10SM CLR 31/21 A2993 850 56 2900 220/04 RMK AO2
14837KMSN MSN20060728172009307/28/06 17:20:31  5-MIN KMSN 282320Z 23005KT 10SM CLR 31/21 A2993 850 56 2900 230/05 RMK AO2
14837KMSN MSN20060728172509307/28/06 17:25:31  5-MIN KMSN 282325Z VRB03KT 10SM CLR 31/21 A2993 850 54 2900 VRB/03 RMK AO2
14837KMSN MSN20060728173009307/28/06 17:30:31  5-MIN KMSN 282330Z 24005KT 10SM CLR 31/21 A2993 850 56 2900 240/05 RMK AO2
14837KMSN MSN20060728173509307/28/06 17:35:31  5-MIN KMSN 282335Z 23004KT 10SM CLR 30/21 A2993 850 58 2800 230/04 RMK AO2
14837KMSN MSN20060728174009307/28/06 17:40:31  5-MIN KMSN 282340Z VRB03KT 10SM CLR 30/21 A2993 850 58 2800 VRB/03 RMK AO2
14837KMSN MSN20060728174509307/28/06 17:45:31  5-MIN KMSN 282345Z 23004KT 10SM CLR 30/21 A2993 850 58 2800 230/04 RMK AO2
14837KMSN MSN20060728175012807/28/06 17:50:31  5-MIN KMSN 282350Z 23005KT 10SM CLR 30/21 A2993 850 58 2800 230/05 RMK AO2 SLP130 T03000211 10317 20300 58002
14837KMSN MSN20060728175509307/28/06 17:55:31  5-MIN KMSN 282355Z VRB03KT 10SM CLR 30/21 A2993 850 58 2800 VRB/03 RMK AO2
14837KMSN MSN20060728180009307/28/06 18:00:31  5-MIN KMSN 290000Z 22005KT 10SM CLR 30/21 A2993 850 58 2800 220/05 RMK AO2
14837KMSN MSN20060728180509307/28/06 18:05:31  5-MIN KMSN 290005Z VRB04KT 10SM CLR 30/21 A2993 850 58 2800 VRB/04 RMK AO2
14837KMSN MSN20060728181009307/28/06 18:10:31  5-MIN KMSN 290010Z 22004KT 10SM CLR 30/21 A2993 850 58 2800 220/04 RMK AO2
14837KMSN MSN20060728181509307/28/06 18:15:31  5-MIN KMSN 290015Z VRB05KT 10SM CLR 30/21 A2993 850 58 2800 VRB/05 RMK AO2
14837KMSN MSN20060728182009307/28/06 18:20:31  5-MIN KMSN 290020Z 23003KT 10SM CLR 29/22 A2993 850 62 2700 230/03 RMK AO2
14837KMSN MSN20060728182509307/28/06 18:25:31  5-MIN KMSN 290025Z 24003KT 10SM CLR 29/22 A2993 860 62 2700 230/03 RMK AO2
14837KMSN MSN20060728183009307/28/06 18:30:31  5-MIN KMSN 290030Z VRB04KT 10SM CLR 29/22 A2993 860 62 2700 VRB/04 RMK AO2
14837KMSN MSN20060728183509307/28/06 18:35:31  5-MIN KMSN 290035Z 00000KT 10SM CLR 29/22 A2993 860 64 2700 000/00 RMK AO2
14837KMSN MSN20060728184009307/28/06 18:40:31  5-MIN KMSN 290040Z VRB03KT 10SM CLR 29/22 A2993 860 67 2700 VRB/03 RMK AO2
14837KMSN MSN20060728184509307/28/06 18:45:31  5-MIN KMSN 290045Z VRB03KT 10SM CLR 29/22 A2993 860 67 2700 VRB/03 RMK AO2
14837KMSN MSN20060728185011007/28/06 18:50:31  5-MIN KMSN 290050Z 23004KT 10SM CLR 29/22 A2993 860 64 2700 230/04 RMK AO2 SLP128 T02890217
14837KMSN MSN20060728185509307/28/06 18:55:31  5-MIN KMSN 290055Z 23003KT 10SM CLR 29/22 A2993 860 67 2700 230/03 RMK AO2
14837KMSN MSN20060728190009307/28/06 19:00:31  5-MIN KMSN 290100Z 23003KT 10SM CLR 29/22 A2993 860 64 2700 230/03 RMK AO2
14837KMSN MSN20060728190509307/28/06 19:05:31  5-MIN KMSN 290105Z 23004KT 10SM CLR 28/22 A2993 860 66 2600 230/04 RMK AO2
14837KMSN MSN20060728191009307/28/06 19:10:31  5-MIN KMSN 290110Z 23004KT 10SM CLR 28/22 A2993 860 66 2600 230/04 RMK AO2
14837KMSN MSN20060728191509307/28/06 19:15:31  5-MIN KMSN 290115Z 23004KT 10SM CLR 28/22 A2993 860 66 2600 230/04 RMK AO2
14837KMSN MSN20060728192009307/28/06 19:20:31  5-MIN KMSN 290120Z 23004KT 10SM CLR 28/22 A2993 860 66 2600 230/04 RMK AO2
14837KMSN MSN20060728192509307/28/06 19:25:31  5-MIN KMSN 290125Z 23004KT 10SM CLR 28/21 A2993 860 64 2600 230/04 RMK AO2
14837KMSN MSN20060728193009307/28/06 19:30:31  5-MIN KMSN 290130Z 23003KT 10SM CLR 28/22 A2993 850 69 2600 230/03 RMK AO2
14837KMSN MSN20060728193509307/28/06 19:35:31  5-MIN KMSN 290135Z 23003KT 10SM CLR 28/22 A2993 850 69 2600 230/03 RMK AO2
14837KMSN MSN20060728194009307/28/06 19:40:31  5-MIN KMSN 290140Z 23004KT 10SM CLR 27/22 A2993 850 71 2500 230/04 RMK AO2
14837KMSN MSN20060728194509307/28/06 19:45:31  5-MIN KMSN 290145Z 24003KT 10SM CLR 27/21 A2994 850 69 2500 240/03 RMK AO2
14837KMSN MSN20060728195011007/28/06 19:50:31  5-MIN KMSN 290150Z 24003KT 10SM CLR 27/21 A2994 850 69 2500 240/03 RMK AO2 SLP130 T02720211
14837KMSN MSN20060728195509307/28/06 19:55:31  5-MIN KMSN 290155Z 23003KT 10SM CLR 27/21 A2994 850 69 2500 230/03 RMK AO2
14837KMSN MSN20060728200009307/28/06 20:00:31  5-MIN KMSN 290200Z 23004KT 10SM CLR 27/21 A2994 850 71 2400 230/04 RMK AO2
14837KMSN MSN20060728200509307/28/06 20:05:31  5-MIN KMSN 290205Z 22003KT 10SM CLR 27/21 A2994 840 71 2400 220/03 RMK AO2
14837KMSN MSN20060728201009307/28/06 20:10:31  5-MIN KMSN 290210Z 00000KT 10SM CLR 27/21 A2994 840 71 2400 000/00 RMK AO2
14837KMSN MSN20060728201509307/28/06 20:15:31  5-MIN KMSN 290215Z 22003KT 10SM CLR 27/21 A2994 840 69 2500 210/03 RMK AO2
14837KMSN MSN20060728202009307/28/06 20:20:31  5-MIN KMSN 290220Z 00000KT 10SM CLR 27/21 A2994 840 71 2400 000/00 RMK AO2
14837KMSN MSN20060728202509307/28/06 20:25:31  5-MIN KMSN 290225Z 22003KT 10SM CLR 26/21 A2995 840 76 2300 220/03 RMK AO2
14837KMSN MSN20060728203009307/28/06 20:30:31  5-MIN KMSN 290230Z 22003KT 10SM CLR 26/21 A2994 840 76 2300 210/03 RMK AO2
14837KMSN MSN20060728203509307/28/06 20:35:31  5-MIN KMSN 290235Z 21003KT 10SM CLR 26/21 A2994 840 73 2400 210/03 RMK AO2
14837KMSN MSN20060728204009307/28/06 20:40:31  5-MIN KMSN 290240Z 20003KT 10SM CLR 26/21 A2994 840 73 2400 200/03 RMK AO2
14837KMSN MSN20060728204509307/28/06 20:45:31  5-MIN KMSN 290245Z 00000KT 10SM CLR 26/21 A2995 840 76 2300 000/00 RMK AO2
14837KMSN MSN20060728205011607/28/06 20:50:31  5-MIN KMSN 290250Z 17003KT 10SM CLR 26/21 A2995 840 76 2300 170/03 RMK AO2 SLP134 T02560211 56005
14837KMSN MSN20060728205509307/28/06 20:55:31  5-MIN KMSN 290255Z 00000KT 10SM CLR 26/21 A2995 840 73 2400 000/00 RMK AO2
14837KMSN MSN20060728210009307/28/06 21:00:31  5-MIN KMSN 290300Z 19003KT 10SM CLR 26/21 A2995 840 76 2300 190/03 RMK AO2
14837KMSN MSN20060728210509307/28/06 21:05:31  5-MIN KMSN 290305Z 00000KT 10SM CLR 24/21 A2994 840 81 2200 000/00 RMK AO2
14837KMSN MSN20060728211009307/28/06 21:10:31  5-MIN KMSN 290310Z 00000KT 10SM CLR 24/21 A2994 840 81 2200 000/00 RMK AO2
14837KMSN MSN20060728211509307/28/06 21:15:31  5-MIN KMSN 290315Z 00000KT 10SM CLR 24/21 A2994 840 81 2200 000/00 RMK AO2
14837KMSN MSN20060728212009307/28/06 21:20:31  5-MIN KMSN 290320Z 19003KT 10SM CLR 25/22 A2994 850 81 2200 190/03 RMK AO2
14837KMSN MSN20060728212509307/28/06 21:25:31  5-MIN KMSN 290325Z 18004KT 10SM CLR 25/22 A2994 840 81 2200 180/04 RMK AO2
14837KMSN MSN20060728213009307/28/06 21:30:31  5-MIN KMSN 290330Z 20003KT 10SM CLR 26/22 A2994 850 79 2300 200/03 RMK AO2
14837KMSN MSN20060728213509307/28/06 21:35:31  5-MIN KMSN 290335Z 20004KT 10SM CLR 26/22 A2994 850 79 2300 200/04 RMK AO2
14837KMSN MSN20060728214009307/28/06 21:40:31  5-MIN KMSN 290340Z 20003KT 10SM CLR 26/22 A2994 850 76 2400 200/03 RMK AO2
14837KMSN MSN20060728214509307/28/06 21:45:31  5-MIN KMSN 290345Z 20004KT 10SM CLR 26/22 A2994 850 76 2400 200/04 RMK AO2
14837KMSN MSN20060728215011007/28/06 21:50:31  5-MIN KMSN 290350Z 21003KT 10SM CLR 26/22 A2994 850 79 2300 200/03 RMK AO2 SLP131 T02560217
14837KMSN MSN20060728215509307/28/06 21:55:31  5-MIN KMSN 290355Z 20004KT 10SM CLR 26/22 A2994 850 76 2400 200/04 RMK AO2
14837KMSN MSN20060728220009307/28/06 22:00:31  5-MIN KMSN 290400Z 17004KT 10SM CLR 26/22 A2994 840 76 2400 170/04 RMK AO2
14837KMSN MSN20060728220509307/28/06 22:05:31  5-MIN KMSN 290405Z 00000KT 10SM CLR 26/22 A2995 840 79 2300 000/00 RMK AO2
14837KMSN MSN20060728221009307/28/06 22:10:31  5-MIN KMSN 290410Z 00000KT 10SM CLR 25/22 A2995 840 81 2200 000/00 RMK AO2
14837KMSN MSN20060728221509307/28/06 22:15:31  5-MIN KMSN 290415Z 00000KT 10SM CLR 24/22 A2996 830 84 2200 000/00 RMK AO2
14837KMSN MSN20060728222009307/28/06 22:20:31  5-MIN KMSN 290420Z 17003KT 10SM CLR 24/22 A2996 830 84 2200 170/03 RMK AO2
14837KMSN MSN20060728222509307/28/06 22:25:31  5-MIN KMSN 290425Z 17003KT 10SM CLR 25/22 A2996 830 81 2200 170/03 RMK AO2
14837KMSN MSN20060728223009307/28/06 22:30:31  5-MIN KMSN 290430Z 00000KT 10SM CLR 24/22 A2996 830 84 2100 000/00 RMK AO2
14837KMSN MSN20060728223509307/28/06 22:35:31  5-MIN KMSN 290435Z 00000KT 10SM CLR 24/22 A2996 830 84 2100 000/00 RMK AO2
14837KMSN MSN20060728224009307/28/06 22:40:31  5-MIN KMSN 290440Z 00000KT 10SM CLR 25/22 A2996 830 84 2200 000/00 RMK AO2
14837KMSN MSN20060728224509307/28/06 22:45:31  5-MIN KMSN 290445Z 20003KT 10SM CLR 25/22 A2996 830 84 2200 200/03 RMK AO2
14837KMSN MSN20060728225011007/28/06 22:50:31  5-MIN KMSN 290450Z 21004KT 10SM CLR 26/22 A2996 820 81 2300 210/04 RMK AO2 SLP140 T02560222
14837KMSN MSN20060728225509307/28/06 22:55:31  5-MIN KMSN 290455Z 21004KT 10SM CLR 26/22 A2996 820 81 2300 210/04 RMK AO2
14837KMSN MSN20060728230009307/28/06 23:00:31  5-MIN KMSN 290500Z 22005KT 10SM CLR 26/22 A2996 820 79 2300 220/05 RMK AO2
14837KMSN MSN20060728230509307/28/06 23:05:31  5-MIN KMSN 290505Z 22004KT 10SM CLR 26/22 A2996 820 79 2300 220/04 RMK AO2
14837KMSN MSN20060728231009307/28/06 23:10:31  5-MIN KMSN 290510Z 21004KT 10SM CLR 26/22 A2996 820 81 2300 210/04 RMK AO2
14837KMSN MSN20060728231509307/28/06 23:15:31  5-MIN KMSN 290515Z 23006KT 10SM CLR 26/22 A2996 820 79 2300 230/06 RMK AO2
14837KMSN MSN20060728232009307/28/06 23:20:31  5-MIN KMSN 290520Z 23005KT 10SM CLR 26/22 A2996 820 79 2300 220/05 RMK AO2
14837KMSN MSN20060728232509307/28/06 23:25:31  5-MIN KMSN 290525Z VRB05KT 10SM CLR 26/22 A2997 820 81 2300 VRB/05 RMK AO2
14837KMSN MSN20060728233009307/28/06 23:30:31  5-MIN KMSN 290530Z 21004KT 10SM CLR 26/22 A2997 820 79 2300 210/04 RMK AO2
14837KMSN MSN20060728233509307/28/06 23:35:31  5-MIN KMSN 290535Z 21004KT 10SM CLR 26/22 A2997 820 79 2300 210/04 RMK AO2
14837KMSN MSN20060728234009307/28/06 23:40:31  5-MIN KMSN 290540Z 21004KT 10SM CLR 26/22 A2997 820 81 2300 210/04 RMK AO2
14837KMSN MSN20060728234509307/28/06 23:45:31  5-MIN KMSN 290545Z 21004KT 10SM CLR 26/22 A2997 820 81 2300 210/04 RMK AO2
14837KMSN MSN20060728235013807/28/06 23:50:31  5-MIN KMSN 290550Z 22004KT 10SM CLR 26/22 A2997 820 79 2300 220/04 RMK AO2 SLP142 T02610222 10300 20239 403170183 53004
14837KMSN MSN20060728235509307/28/06 23:55:31  5-MIN KMSN 290555Z 21005KT 10SM CLR 26/22 A2997 820 79 2300 210/05 RMK AO2
14837KMSN MSN20060729000009307/29/06 00:00:38  5-MIN KMSN 290600Z 22005KT 10SM CLR 26/22 A2997 820 79 2300 220/05 RMK AO2
14837KMSN MSN20060729000509307/29/06 00:05:31  5-MIN KMSN 290605Z 23004KT 10SM CLR 26/22 A2997 810 76 2300 230/04 RMK AO2
14837KMSN MSN20060729001009307/29/06 00:10:31  5-MIN KMSN 290610Z 22004KT 10SM CLR 26/22 A2998 810 76 2300 220/04 RMK AO2
14837KMSN MSN20060729001509307/29/06 00:15:32  5-MIN KMSN 290615Z 22004KT 10SM CLR 26/22 A2998 810 76 2300 220/04 RMK AO2
14837KMSN MSN20060729002009307/29/06 00:20:31  5-MIN KMSN 290620Z 21004KT 10SM CLR 26/22 A2998 810 79 2300 210/04 RMK AO2
14837KMSN MSN20060729002509307/29/06 00:25:31  5-MIN KMSN 290625Z 21004KT 10SM CLR 26/22 A2998 810 79 2300 210/04 RMK AO2
14837KMSN MSN20060729003009307/29/06 00:30:31  5-MIN KMSN 290630Z 21004KT 10SM CLR 26/22 A2998 810 79 2200 210/04 RMK AO2
14837KMSN MSN20060729003509307/29/06 00:35:31  5-MIN KMSN 290635Z 24003KT 10SM CLR 26/22 A2999 800 79 2200 240/03 RMK AO2
14837KMSN MSN20060729004009307/29/06 00:40:31  5-MIN KMSN 290640Z 00000KT 10SM CLR 24/22 A2999 800 84 2100 000/00 RMK AO2
14837KMSN MSN20060729004509307/29/06 00:45:31  5-MIN KMSN 290645Z 00000KT 10SM CLR 24/22 A2999 800 87 2100 000/00 RMK AO2
14837KMSN MSN20060729005011007/29/06 00:50:31  5-MIN KMSN 290650Z 00000KT 10SM CLR 24/22 A2999 800 84 2100 000/00 RMK AO2 SLP147 T02440217
14837KMSN MSN20060729005509307/29/06 00:55:31  5-MIN KMSN 290655Z 00000KT 10SM CLR 23/22 A2999 800 90 2000 000/00 RMK AO2
14837KMSN MSN20060729010009207/29/06 01:00:31  5-MIN KMSN 290700Z 00000KT 9SM CLR 23/22 A2999 800 90 2000 000/00 RMK AO2
14837KMSN MSN20060729010509207/29/06 01:05:31  5-MIN KMSN 290705Z 00000KT 9SM CLR 23/22 A2999 800 90 2000 000/00 RMK AO2
14837KMSN MSN20060729011009307/29/06 01:10:31  5-MIN KMSN 290710Z 00000KT 10SM CLR 24/22 A2999 800 90 2100 000/00 RMK AO2
14837KMSN MSN20060729011509307/29/06 01:15:31  5-MIN KMSN 290715Z 00000KT 10SM CLR 24/22 A2999 800 87 2000 000/00 RMK AO2
14837KMSN MSN20060729012009307/29/06 01:20:31  5-MIN KMSN 290720Z 00000KT 10SM CLR 24/22 A2999 800 84 2100 000/00 RMK AO2
14837KMSN MSN20060729012509307/29/06 01:25:31  5-MIN KMSN 290725Z VRB04KT 10SM CLR 24/22 A2999 800 84 2100 VRB/04 RMK AO2
14837KMSN MSN20060729013009307/29/06 01:30:31  5-MIN KMSN 290730Z VRB04KT 10SM CLR 25/22 A2999 800 84 2200 VRB/04 RMK AO2
14837KMSN MSN20060729013509307/29/06 01:35:31  5-MIN KMSN 290735Z 00000KT 10SM CLR 25/22 A2999 800 84 2200 000/00 RMK AO2
14837KMSN MSN20060729014009307/29/06 01:40:31  5-MIN KMSN 290740Z 00000KT 10SM CLR 25/22 A2999 800 84 2200 000/00 RMK AO2
14837KMSN MSN20060729014509307/29/06 01:45:31  5-MIN KMSN 290745Z 00000KT 10SM CLR 25/22 A2999 800 84 2200 000/00 RMK AO2
14837KMSN MSN20060729015011007/29/06 01:50:31  5-MIN KMSN 290750Z 00000KT 10SM CLR 25/22 A2999 800 84 2200 000/00 RMK AO2 SLP150 T02500222
14837KMSN MSN20060729015509307/29/06 01:55:31  5-MIN KMSN 290755Z 35003KT 10SM CLR 24/22 A3000 800 84 2100 350/03 RMK AO2
14837KMSN MSN20060729020009307/29/06 02:00:31  5-MIN KMSN 290800Z 33003KT 10SM CLR 24/22 A2999 800 87 2000 330/03 RMK AO2
14837KMSN MSN20060729020509207/29/06 02:05:31  5-MIN KMSN 290805Z 00000KT 9SM CLR 23/22 A2999 800 90 2000 000/00 RMK AO2
14837KMSN MSN20060729021009207/29/06 02:10:31  5-MIN KMSN 290810Z 00000KT 8SM CLR 23/22 A2999 800 93 2000 000/00 RMK AO2
14837KMSN MSN20060729021509207/29/06 02:15:31  5-MIN KMSN 290815Z 00000KT 8SM CLR 23/22 A2999 800 90 2000 000/00 RMK AO2
14837KMSN MSN20060729022009207/29/06 02:20:31  5-MIN KMSN 290820Z 35004KT 7SM CLR 23/22 A2999 800 93 1900 350/04 RMK AO2
14837KMSN MSN20060729022509507/29/06 02:25:31  5-MIN KMSN 290825Z 35005KT 6SM BR CLR 22/21 A2999 800 93 1900 350/05 RMK AO2
14837KMSN MSN20060729023009507/29/06 02:30:31  5-MIN KMSN 290830Z 33003KT 6SM BR CLR 22/21 A2999 800 93 1900 330/03 RMK AO2
14837KMSN MSN20060729023509507/29/06 02:35:31  5-MIN KMSN 290835Z 00000KT 6SM BR CLR 23/22 A2999 800 93 1900 000/00 RMK AO2
14837KMSN MSN20060729024009507/29/06 02:40:31  5-MIN KMSN 290840Z 36007KT 6SM BR CLR 23/22 A2999 800 93 1900 360/07 RMK AO2
14837KMSN MSN20060729024509507/29/06 02:45:31  5-MIN KMSN 290845Z 34004KT 6SM BR CLR 22/21 A2999 800 93 1900 340/04 RMK AO2
14837KMSN MSN20060729025011807/29/06 02:50:31  5-MIN KMSN 290850Z 34005KT 6SM BR CLR 22/21 A2999 800 93 1900 340/05 RMK AO2 SLP149 T02220211 53007
14837KMSN MSN20060729025509507/29/06 02:55:31  5-MIN KMSN 290855Z 00000KT 5SM BR CLR 22/21 A2999 800 93 1900 000/00 RMK AO2
14837KMSN MSN20060729030009507/29/06 03:00:31  5-MIN KMSN 290900Z 00000KT 6SM BR CLR 22/21 A2998 810 93 1900 000/00 RMK AO2
14837KMSN MSN20060729030509507/29/06 03:05:31  5-MIN KMSN 290905Z 00000KT 6SM BR CLR 22/21 A2998 810 93 1900 000/00 RMK AO2
14837KMSN MSN20060729031009507/29/06 03:10:31  5-MIN KMSN 290910Z 00000KT 6SM BR CLR 22/21 A2998 810 97 1800 000/00 RMK AO2
14837KMSN MSN20060729031509507/29/06 03:15:31  5-MIN KMSN 290915Z 00000KT 6SM BR CLR 22/21 A2998 810 93 1900 000/00 RMK AO2
14837KMSN MSN20060729032009507/29/06 03:20:31  5-MIN KMSN 290920Z 00000KT 6SM BR CLR 22/21 A2998 810 93 1800 000/00 RMK AO2
14837KMSN MSN20060729032509507/29/06 03:25:31  5-MIN KMSN 290925Z 00000KT 5SM BR CLR 22/21 A2997 810 93 1900 000/00 RMK AO2
14837KMSN MSN20060729033009507/29/06 03:30:31  5-MIN KMSN 290930Z 00000KT 5SM BR CLR 22/21 A2997 820 93 1900 000/00 RMK AO2
14837KMSN MSN20060729033509507/29/06 03:35:31  5-MIN KMSN 290935Z 19003KT 5SM BR CLR 22/21 A2997 820 93 1900 190/03 RMK AO2
14837KMSN MSN20060729034009507/29/06 03:40:31  5-MIN KMSN 290940Z 00000KT 6SM BR CLR 22/21 A2996 820 93 1900 000/00 RMK AO2
14837KMSN MSN20060729034509507/29/06 03:45:31  5-MIN KMSN 290945Z 00000KT 6SM BR CLR 22/21 A2996 820 93 1900 000/00 RMK AO2
14837KMSN MSN20060729035011207/29/06 03:50:31  5-MIN KMSN 290950Z 18003KT 6SM BR CLR 22/21 A2996 830 93 1900 180/03 RMK AO2 SLP139 T02220211
14837KMSN MSN20060729035509507/29/06 03:55:31  5-MIN KMSN 290955Z 00000KT 6SM BR CLR 23/21 A2996 830 90 2000 000/00 RMK AO2
14837KMSN MSN20060729040009507/29/06 04:00:31  5-MIN KMSN 291000Z 00000KT 6SM BR CLR 22/21 A2996 830 93 1800 000/00 RMK AO2
14837KMSN MSN20060729040509507/29/06 04:05:31  5-MIN KMSN 291005Z 00000KT 4SM BR CLR 21/21 A2996 820 97 1800 000/00 RMK AO2
14837KMSN MSN20060729041009507/29/06 04:10:31  5-MIN KMSN 291010Z 00000KT 3SM BR CLR 22/21 A2996 820 93 1800 000/00 RMK AO2
14837KMSN MSN20060729041509507/29/06 04:15:31  5-MIN KMSN 291015Z 22003KT 4SM BR CLR 22/21 A2996 830 93 1800 220/03 RMK AO2
14837KMSN MSN20060729042009507/29/06 04:20:31  5-MIN KMSN 291020Z 21003KT 5SM BR CLR 22/21 A2996 830 97 1800 210/03 RMK AO2
14837KMSN MSN20060729042509507/29/06 04:25:31  5-MIN KMSN 291025Z 22004KT 6SM BR CLR 22/21 A2996 820 93 1900 220/04 RMK AO2
14837KMSN MSN20060729043009507/29/06 04:30:31  5-MIN KMSN 291030Z 24004KT 6SM BR CLR 22/21 A2997 820 93 1900 240/04 RMK AO2
14837KMSN MSN20060729043509507/29/06 04:35:31  5-MIN KMSN 291035Z 22004KT 6SM BR CLR 22/21 A2997 820 93 1900 220/04 RMK AO2
14837KMSN MSN20060729044009207/29/06 04:40:31  5-MIN KMSN 291040Z 00000KT 7SM CLR 23/22 A2997 820 93 2000 000/00 RMK AO2
14837KMSN MSN20060729044509207/29/06 04:45:31  5-MIN KMSN 291045Z 00000KT 7SM CLR 23/22 A2997 820 93 1900 000/00 RMK AO2
14837KMSN MSN20060729045011207/29/06 04:50:31  5-MIN KMSN 291050Z 00000KT 6SM BR CLR 23/22 A2998 810 90 2000 000/00 RMK AO2 SLP143 T02330217
14837KMSN MSN20060729045509807/29/06 04:55:31  5-MIN KMSN 291055Z 00000KT 5SM BR FEW031 22/21 A2998 810 93 1900 000/00 RMK AO2
14837KMSN MSN20060729050009807/29/06 05:00:31  5-MIN KMSN 291100Z 00000KT 4SM BR SCT031 23/22 A2998 810 93 1900 000/00 RMK AO2
14837KMSN MSN20060729050509807/29/06 05:05:31  5-MIN KMSN 291105Z 00000KT 4SM BR SCT031 22/21 A2997 820 93 1900 000/00 RMK AO2
14837KMSN MSN20060729051009807/29/06 05:10:31  5-MIN KMSN 291110Z 00000KT 3SM BR SCT031 22/21 A2997 820 93 1800 000/00 RMK AO2
14837KMSN MSN20060729051509807/29/06 05:15:31  5-MIN KMSN 291115Z 00000KT 6SM BR FEW031 22/21 A2997 820 93 1900 000/00 RMK AO2
14837KMSN MSN20060729052009807/29/06 05:20:31  5-MIN KMSN 291120Z 00000KT 6SM BR FEW031 22/21 A2997 810 93 1900 000/00 RMK AO2
14837KMSN MSN20060729052509807/29/06 05:25:31  5-MIN KMSN 291125Z 00000KT 6SM BR FEW031 22/21 A2997 810 93 1900 000/00 RMK AO2
14837KMSN MSN20060729053009807/29/06 05:30:31  5-MIN KMSN 291130Z 00000KT 6SM BR FEW031 23/22 A2997 820 93 1900 000/00 RMK AO2
14837KMSN MSN20060729053509807/29/06 05:35:31  5-MIN KMSN 291135Z 00000KT 6SM BR FEW031 23/22 A2997 820 90 2000 000/00 RMK AO2
14837KMSN MSN20060729054009807/29/06 05:40:31  5-MIN KMSN 291140Z 00000KT 6SM BR FEW031 23/22 A2997 820 93 2000 000/00 RMK AO2
14837KMSN MSN20060729054509507/29/06 05:45:31  5-MIN KMSN 291145Z 00000KT 5SM BR CLR 24/22 A2998 810 90 2100 000/00 RMK AO2
14837KMSN MSN20060729055013007/29/06 05:50:31  5-MIN KMSN 291150Z 00000KT 6SM BR CLR 23/22 A2998 810 93 2000 000/00 RMK AO2 SLP144 T02330222 10261 20211 50006
14837KMSN MSN20060729055509507/29/06 05:55:31  5-MIN KMSN 291155Z 00000KT 4SM BR CLR 24/22 A2998 810 90 2100 000/00 RMK AO2
14837KMSN MSN20060729060009507/29/06 06:00:31  5-MIN KMSN 291200Z 00000KT 4SM BR CLR 24/23 A2998 810 93 2100 000/00 RMK AO2
14837KMSN MSN20060729060509507/29/06 06:05:31  5-MIN KMSN 291205Z 00000KT 4SM BR CLR 24/23 A2998 810 90 2100 000/00 RMK AO2
14837KMSN MSN20060729061009507/29/06 06:10:31  5-MIN KMSN 291210Z 00000KT 4SM BR CLR 24/23 A2999 800 90 2100 000/00 RMK AO2
14837KMSN MSN20060729061509507/29/06 06:15:31  5-MIN KMSN 291215Z 00000KT 4SM BR CLR 24/23 A2999 800 90 2100 000/00 RMK AO2
14837KMSN MSN20060729062009507/29/06 06:20:31  5-MIN KMSN 291220Z 00000KT 4SM BR CLR 24/23 A2999 800 90 2100 000/00 RMK AO2
14837KMSN MSN20060729062509507/29/06 06:25:31  5-MIN KMSN 291225Z 00000KT 4SM BR CLR 24/23 A2999 800 90 2100 000/00 RMK AO2
14837KMSN MSN20060729063009507/29/06 06:30:31  5-MIN KMSN 291230Z 00000KT 4SM BR CLR 25/23 A2999 800 87 2200 000/00 RMK AO2
14837KMSN MSN20060729063509507/29/06 06:35:31  5-MIN KMSN 291235Z 00000KT 5SM BR CLR 25/23 A2999 800 90 2200 000/00 RMK AO2
14837KMSN MSN20060729064009507/29/06 06:40:31  5-MIN KMSN 291240Z 24003KT 6SM HZ CLR 26/23 A2999 800 84 2200 240/03 RMK AO2
14837KMSN MSN20060729064509207/29/06 06:45:31  5-MIN KMSN 291245Z 24004KT 8SM CLR 26/23 A2999 800 84 2200 230/04 RMK AO2
14837KMSN MSN20060729065010907/29/06 06:50:31  5-MIN KMSN 291250Z 23005KT 9SM CLR 26/23 A2999 800 81 2300 230/05 RMK AO2 SLP147 T02610228
14837KMSN MSN20060729065509207/29/06 06:55:31  5-MIN KMSN 291255Z 23005KT 9SM CLR 26/23 A2998 810 81 2300 230/05 RMK AO2
14837KMSN MSN20060729070009307/29/06 07:00:31  5-MIN KMSN 291300Z VRB05KT 10SM CLR 26/23 A2998 810 81 2300 VRB/05 RMK AO2
14837KMSN MSN20060729070509307/29/06 07:05:31  5-MIN KMSN 291305Z VRB06KT 10SM CLR 26/23 A2997 820 81 2300 VRB/06 RMK AO2
14837KMSN MSN20060729071009307/29/06 07:10:31  5-MIN KMSN 291310Z 22006KT 10SM CLR 26/22 A2997 820 79 2300 220/06 RMK AO2
14837KMSN MSN20060729071509307/29/06 07:15:31  5-MIN KMSN 291315Z 24006KT 10SM CLR 26/22 A2997 820 79 2300 240/06 RMK AO2
14837KMSN MSN20060729072009307/29/06 07:20:31  5-MIN KMSN 291320Z VRB05KT 10SM CLR 27/22 A2998 810 76 2400 VRB/05 RMK AO2
14837KMSN MSN20060729072509307/29/06 07:25:31  5-MIN KMSN 291325Z 23007KT 10SM CLR 26/22 A2998 810 79 2300 230/07 RMK AO2
14837KMSN MSN20060729073009307/29/06 07:30:31  5-MIN KMSN 291330Z VRB06KT 10SM CLR 27/22 A2998 810 76 2400 VRB/06 RMK AO2
14837KMSN MSN20060729073509307/29/06 07:35:31  5-MIN KMSN 291335Z VRB04KT 10SM CLR 27/22 A2998 810 76 2400 VRB/04 RMK AO2
14837KMSN MSN20060729074009307/29/06 07:40:31  5-MIN KMSN 291340Z VRB03KT 10SM CLR 27/22 A2999 800 76 2400 VRB/03 RMK AO2
14837KMSN MSN20060729074509307/29/06 07:45:31  5-MIN KMSN 291345Z VRB03KT 10SM CLR 27/22 A2999 800 74 2400 VRB/03 RMK AO2
14837KMSN MSN20060729075011307/29/06 07:50:31  5-MIN KMSN 291350Z VRB03KT 10SM FEW040 27/23 A2999 800 76 2400 VRB/03 RMK AO2 SLP147 T02720228
14837KMSN MSN20060729075509307/29/06 07:55:31  5-MIN KMSN 291355Z VRB03KT 10SM CLR 28/23 A2998 800 74 2500 VRB/03 RMK AO2
14837KMSN MSN20060729080009307/29/06 08:00:31  5-MIN KMSN 291400Z VRB05KT 10SM CLR 28/23 A2998 810 74 2500 VRB/05 RMK AO2
14837KMSN MSN20060729080509307/29/06 08:05:31  5-MIN KMSN 291405Z VRB04KT 10SM CLR 28/23 A2998 810 74 2500 VRB/04 RMK AO2
14837KMSN MSN20060729081009307/29/06 08:10:31  5-MIN KMSN 291410Z VRB04KT 10SM CLR 28/23 A2998 810 74 2600 VRB/04 RMK AO2
14837KMSN MSN20060729081509307/29/06 08:15:31  5-MIN KMSN 291415Z VRB03KT 10SM CLR 28/23 A2998 810 71 2600 VRB/03 RMK AO2
14837KMSN MSN20060729082009307/29/06 08:20:31  5-MIN KMSN 291420Z VRB04KT 10SM CLR 28/23 A2998 810 74 2600 VRB/04 RMK AO2
14837KMSN MSN20060729082509307/29/06 08:25:31  5-MIN KMSN 291425Z 28004KT 10SM CLR 29/23 A2998 810 69 2600 280/04 RMK AO2
14837KMSN MSN20060729083009307/29/06 08:30:31  5-MIN KMSN 291430Z VRB05KT 10SM CLR 29/23 A2998 810 71 2600 VRB/05 RMK AO2
14837KMSN MSN20060729083509307/29/06 08:35:31  5-MIN KMSN 291435Z VRB05KT 10SM CLR 29/23 A2998 810 71 2600 VRB/05 RMK AO2
14837KMSN MSN20060729084009307/29/06 08:40:31  5-MIN KMSN 291440Z 31006KT 10SM CLR 29/23 A2998 810 69 2700 310/06 RMK AO2
14837KMSN MSN20060729084509307/29/06 08:45:31  5-MIN KMSN 291445Z 29007KT 10SM CLR 29/23 A2998 810 69 2700 290/07 RMK AO2
14837KMSN MSN20060729085013507/29/06 08:50:31  5-MIN KMSN 291450Z 29008KT 270V330 10SM FEW100 29/23 A2998 810 67 2700 290/08 270V330 RMK AO2 SLP144 T02940228 55003
14837KMSN MSN20060729085509607/29/06 08:55:31  5-MIN KMSN 291455Z VRB06KT 10SM FEW100 29/23 A2998 810 69 2700 VRB/06 RMK AO2
14837KMSN MSN20060729090009607/29/06 09:00:31  5-MIN KMSN 291500Z 32005KT 10SM FEW100 29/23 A2999 800 69 2700 320/05 RMK AO2
14837KMSN MSN20060729090509607/29/06 09:05:31  5-MIN KMSN 291505Z VRB05KT 10SM FEW100 30/24 A2999 800 69 2700 VRB/05 RMK AO2
14837KMSN MSN20060729091009607/29/06 09:10:31  5-MIN KMSN 291510Z 29007KT 10SM FEW100 30/24 A2999 800 69 2700 290/07 RMK AO2
14837KMSN MSN20060729091509607/29/06 09:15:31  5-MIN KMSN 291515Z 32008KT 10SM FEW100 30/23 A2999 800 67 2700 310/08 RMK AO2
14837KMSN MSN20060729092010307/29/06 09:20:31  5-MIN KMSN 291520Z 31006KT 10SM FEW040 SCT100 30/23 A2999 800 67 2700 310/06 RMK AO2
14837KMSN MSN20060729092510307/29/06 09:25:31  5-MIN KMSN 291525Z 33008KT 10SM FEW040 SCT100 29/23 A2999 800 69 2700 330/08 RMK AO2
14837KMSN MSN20060729093010307/29/06 09:30:31  5-MIN KMSN 291530Z 34011KT 10SM FEW040 SCT100 29/23 A3000 790 69 2700 340/11 RMK AO2
14837KMSN MSN20060729093510307/29/06 09:35:31  5-MIN KMSN 291535Z 34010KT 10SM SCT040 SCT100 29/23 A3000 790 71 2600 340/10 RMK AO2
14837KMSN MSN20060729094010307/29/06 09:40:31  5-MIN KMSN 291540Z 33008KT 10SM SCT040 SCT100 29/23 A3000 790 71 2600 330/08 RMK AO2
14837KMSN MSN20060729094510307/29/06 09:45:31  5-MIN KMSN 291545Z 33007KT 10SM SCT040 SCT100 29/23 A2999 800 71 2600 330/07 RMK AO2
14837KMSN MSN20060729095012007/29/06 09:50:31  5-MIN KMSN 291550Z 34006KT 10SM SCT040 SCT100 29/23 A2999 800 69 2700 340/06 RMK AO2 SLP149 T02940233
14837KMSN MSN20060729095510307/29/06 09:55:31  5-MIN KMSN 291555Z 01006KT 10SM FEW027 SCT042 30/24 A2999 800 69 2700 360/06 RMK AO2
14837KMSN MSN20060729100009607/29/06 10:00:31  5-MIN KMSN 291600Z 02007KT 10SM FEW027 31/24 A2999 800 67 2800 020/07 RMK AO2
14837KMSN MSN20060729100509607/29/06 10:05:31  5-MIN KMSN 291605Z 36009KT 10SM FEW027 29/21 A2999 800 60 2700 360/09 RMK AO2
14837KMSN MSN20060729101009307/29/06 10:10:31  5-MIN KMSN 291610Z 05008KT 10SM CLR 29/21 A2999 800 60 2700 050/08 RMK AO2
14837KMSN MSN20060729101509307/29/06 10:15:31  5-MIN KMSN 291615Z 04007KT 10SM CLR 30/21 A2999 800 58 2700 030/07 RMK AO2
14837KMSN MSN20060729102009307/29/06 10:20:31  5-MIN KMSN 291620Z 04007KT 10SM CLR 30/22 A2999 800 60 2700 040/07 RMK AO2
14837KMSN MSN20060729102509307/29/06 10:25:31  5-MIN KMSN 291625Z 03008KT 10SM CLR 30/22 A2999 800 60 2700 030/08 RMK AO2
14837KMSN MSN20060729103009307/29/06 10:30:31  5-MIN KMSN 291630Z 04006KT 10SM CLR 30/22 A2999 800 62 2700 040/06 RMK AO2
14837KMSN MSN20060729103509307/29/06 10:35:31  5-MIN KMSN 291635Z 04008KT 10SM CLR 31/22 A2999 800 60 2800 040/08 RMK AO2
14837KMSN MSN20060729104009307/29/06 10:40:31  5-MIN KMSN 291640Z 04008KT 10SM CLR 31/22 A2999 800 60 2800 040/08 RMK AO2
14837KMSN MSN20060729104509307/29/06 10:45:31  5-MIN KMSN 291645Z 02009KT 10SM CLR 31/22 A2999 800 60 2800 020/09 RMK AO2
14837KMSN MSN20060729105011007/29/06 10:50:31  5-MIN KMSN 291650Z 02009KT 10SM CLR 30/21 A3000 790 58 2700 020/09 RMK AO2 SLP151 T03000211
14837KMSN MSN20060729105509307/29/06 10:55:31  5-MIN KMSN 291655Z 02008KT 10SM CLR 30/21 A3000 790 56 2700 020/08 RMK AO2
14837KMSN MSN20060729110009307/29/06 11:00:31  5-MIN KMSN 291700Z 02008KT 10SM CLR 30/20 A3000 790 54 2700 020/08 RMK AO2
14837KMSN MSN20060729110509307/29/06 11:05:31  5-MIN KMSN 291705Z 01007KT 10SM CLR 29/21 A3000 790 58 2700 010/07 RMK AO2
14837KMSN MSN20060729111009307/29/06 11:10:31  5-MIN KMSN 291710Z 02007KT 10SM CLR 30/21 A2999 800 56 2700 020/07 RMK AO2
14837KMSN MSN20060729111509307/29/06 11:15:31  5-MIN KMSN 291715Z 02006KT 10SM CLR 30/21 A2999 800 56 2700 020/06 RMK AO2
14837KMSN MSN20060729112009307/29/06 11:20:31  5-MIN KMSN 291720Z 02005KT 10SM CLR 30/21 A2999 800 56 2700 020/05 RMK AO2
14837KMSN MSN20060729112509307/29/06 11:25:31  5-MIN KMSN 291725Z 03005KT 10SM CLR 30/21 A2999 800 56 2700 030/05 RMK AO2
14837KMSN MSN20060729113009307/29/06 11:30:31  5-MIN KMSN 291730Z 03005KT 10SM CLR 30/21 A2999 800 56 2700 020/05 RMK AO2
14837KMSN MSN20060729113509307/29/06 11:35:31  5-MIN KMSN 291735Z 04003KT 10SM CLR 30/20 A2999 800 54 2700 040/03 RMK AO2
14837KMSN MSN20060729114009307/29/06 11:40:31  5-MIN KMSN 291740Z VRB03KT 10SM CLR 30/20 A2998 810 54 2700 VRB/03 RMK AO2
14837KMSN MSN20060729114509307/29/06 11:45:31  5-MIN KMSN 291745Z 10004KT 10SM CLR 29/21 A2998 810 58 2700 090/04 RMK AO2
14837KMSN MSN20060729115012807/29/06 11:50:31  5-MIN KMSN 291750Z 11003KT 10SM CLR 29/20 A2998 810 56 2700 100/03 RMK AO2 SLP144 T02940200 10306 20239 50001
14837KMSN MSN20060729115509307/29/06 11:55:31  5-MIN KMSN 291755Z 00000KT 10SM CLR 29/19 A2998 810 54 2700 000/00 RMK AO2
14837KMSN MSN20060729120009307/29/06 12:00:31  5-MIN KMSN 291800Z 00000KT 10SM CLR 29/19 A2997 810 54 2700 000/00 RMK AO2
14837KMSN MSN20060729120509307/29/06 12:05:31  5-MIN KMSN 291805Z 00000KT 10SM CLR 31/20 A2997 820 52 2800 000/00 RMK AO2
14837KMSN MSN20060729121009307/29/06 12:10:31  5-MIN KMSN 291810Z 00000KT 10SM CLR 30/21 A2997 820 56 2800 000/00 RMK AO2
14837KMSN MSN20060729121509307/29/06 12:15:31  5-MIN KMSN 291815Z 00000KT 10SM CLR 30/20 A2997 820 54 2800 000/00 RMK AO2
14837KMSN MSN20060729122009307/29/06 12:20:31  5-MIN KMSN 291820Z 00000KT 10SM CLR 30/21 A2997 820 56 2800 000/00 RMK AO2
14837KMSN MSN20060729122509307/29/06 12:25:31  5-MIN KMSN 291825Z 00000KT 10SM CLR 30/21 A2997 820 56 2800 000/00 RMK AO2
14837KMSN MSN20060729123009307/29/06 12:30:31  5-MIN KMSN 291830Z 14005KT 10SM CLR 31/22 A2996 820 58 2800 140/05 RMK AO2
14837KMSN MSN20060729123509307/29/06 12:35:31  5-MIN KMSN 291835Z 15005KT 10SM CLR 30/21 A2996 820 56 2800 150/05 RMK AO2
14837KMSN MSN20060729124009307/29/06 12:40:31  5-MIN KMSN 291840Z 16003KT 10SM CLR 30/22 A2996 820 60 2800 160/03 RMK AO2
14837KMSN MSN20060729124509307/29/06 12:45:31  5-MIN KMSN 291845Z 18006KT 10SM CLR 30/21 A2996 830 56 2800 180/06 RMK AO2
14837KMSN MSN20060729125011007/29/06 12:50:31  5-MIN KMSN 291850Z 15004KT 10SM CLR 30/21 A2996 830 56 2800 150/04 RMK AO2 SLP139 T03000206
14837KMSN MSN20060729125509307/29/06 12:55:31  5-MIN KMSN 291855Z VRB05KT 10SM CLR 31/22 A2996 830 58 2800 VRB/05 RMK AO2
14837KMSN MSN20060729130009307/29/06 13:00:31  5-MIN KMSN 291900Z 18007KT 10SM CLR 31/22 A2996 830 58 2900 180/07 RMK AO2
14837KMSN MSN20060729130509307/29/06 13:05:31  5-MIN KMSN 291905Z 17008KT 10SM CLR 31/22 A2995 830 58 2800 170/08 RMK AO2
14837KMSN MSN20060729131009307/29/06 13:10:31  5-MIN KMSN 291910Z 17007KT 10SM CLR 31/22 A2995 840 56 2900 170/07 RMK AO2
14837KMSN MSN20060729131509307/29/06 13:15:31  5-MIN KMSN 291915Z 18008KT 10SM CLR 31/22 A2994 840 58 2800 170/08 RMK AO2
14837KMSN MSN20060729132009307/29/06 13:20:31  5-MIN KMSN 291920Z 18008KT 10SM CLR 31/22 A2994 840 60 2900 180/08 RMK AO2
14837KMSN MSN20060729132509307/29/06 13:25:31  5-MIN KMSN 291925Z 19010KT 10SM CLR 31/22 A2994 840 58 2900 180/10 RMK AO2
14837KMSN MSN20060729133009307/29/06 13:30:31  5-MIN KMSN 291930Z 19006KT 10SM CLR 30/22 A2994 840 60 2800 190/06 RMK AO2
14837KMSN MSN20060729133509307/29/06 13:35:31  5-MIN KMSN 291935Z 17007KT 10SM CLR 30/22 A2994 840 62 2800 170/07 RMK AO2
14837KMSN MSN20060729134009307/29/06 13:40:31  5-MIN KMSN 291940Z 15006KT 10SM CLR 30/23 A2994 850 65 2800 150/06 RMK AO2
14837KMSN MSN20060729134509307/29/06 13:45:31  5-MIN KMSN 291945Z 19005KT 10SM CLR 30/22 A2994 850 62 2800 190/05 RMK AO2
14837KMSN MSN20060729135011007/29/06 13:50:31  5-MIN KMSN 291950Z 17007KT 10SM CLR 30/22 A2994 850 62 2800 170/07 RMK AO2 SLP131 T03000222
14837KMSN MSN20060729135509307/29/06 13:55:31  5-MIN KMSN 291955Z 18006KT 10SM CLR 31/23 A2994 850 62 2900 180/06 RMK AO2
14837KMSN MSN20060729140009307/29/06 14:00:31  5-MIN KMSN 292000Z 18006KT 10SM CLR 31/23 A2994 850 62 2900 180/06 RMK AO2
14837KMSN MSN20060729140509307/29/06 14:05:31  5-MIN KMSN 292005Z 19005KT 10SM CLR 31/23 A2993 850 62 2900 190/05 RMK AO2
14837KMSN MSN20060729141009307/29/06 14:10:31  5-MIN KMSN 292010Z 23004KT 10SM CLR 31/23 A2993 850 62 2900 230/04 RMK AO2
14837KMSN MSN20060729141509307/29/06 14:15:31  5-MIN KMSN 292015Z 19004KT 10SM CLR 31/22 A2994 850 60 2900 190/04 RMK AO2
14837KMSN MSN20060729142009307/29/06 14:20:31  5-MIN KMSN 292020Z 21005KT 10SM CLR 31/22 A2993 850 58 2900 210/05 RMK AO2
14837KMSN MSN20060729142509307/29/06 14:25:31  5-MIN KMSN 292025Z 23005KT 10SM CLR 31/22 A2994 850 58 2900 230/05 RMK AO2
14837KMSN MSN20060729143009307/29/06 14:30:31  5-MIN KMSN 292030Z VRB03KT 10SM CLR 31/22 A2994 850 58 2900 VRB/03 RMK AO2
14837KMSN MSN20060729143509307/29/06 14:35:31  5-MIN KMSN 292035Z 23005KT 10SM CLR 31/22 A2994 850 60 2900 230/05 RMK AO2
14837KMSN MSN20060729144009307/29/06 14:40:31  5-MIN KMSN 292040Z 22006KT 10SM CLR 32/23 A2994 850 58 3000 210/06 RMK AO2
14837KMSN MSN20060729144509307/29/06 14:45:31  5-MIN KMSN 292045Z 20005KT 10SM CLR 32/23 A2993 850 58 3000 200/05 RMK AO2
14837KMSN MSN20060729145011607/29/06 14:50:31  5-MIN KMSN 292050Z 19007KT 10SM CLR 32/23 A2993 850 58 3000 190/07 RMK AO2 SLP129 T03170228 58001
14837KMSN MSN20060729145509307/29/06 14:55:31  5-MIN KMSN 292055Z 21005KT 10SM CLR 31/23 A2993 860 60 2900 210/05 RMK AO2
14837KMSN MSN20060729150009307/29/06 15:00:31  5-MIN KMSN 292100Z 22005KT 10SM CLR 31/23 A2993 860 60 2900 220/05 RMK AO2
14837KMSN MSN20060729150509307/29/06 15:05:31  5-MIN KMSN 292105Z 23006KT 10SM CLR 31/23 A2992 860 60 2900 230/06 RMK AO2
14837KMSN MSN20060729151009307/29/06 15:10:31  5-MIN KMSN 292110Z 22006KT 10SM CLR 32/23 A2992 860 61 3000 220/06 RMK AO2
14837KMSN MSN20060729151509307/29/06 15:15:31  5-MIN KMSN 292115Z 19009KT 10SM CLR 32/23 A2992 870 61 3000 190/09 RMK AO2
14837KMSN MSN20060729152009307/29/06 15:20:31  5-MIN KMSN 292120Z VRB06KT 10SM CLR 32/23 A2992 860 59 3100 VRB/06 RMK AO2
14837KMSN MSN20060729152509607/29/06 15:25:31  5-MIN KMSN 292125Z 23007KT 10SM FEW040 32/23 A2992 870 59 3100 230/07 RMK AO2
14837KMSN MSN20060729153009607/29/06 15:30:31  5-MIN KMSN 292130Z VRB05KT 10SM FEW040 32/23 A2992 870 59 3100 VRB/05 RMK AO2
14837KMSN MSN20060729153509607/29/06 15:35:31  5-MIN KMSN 292135Z VRB05KT 10SM FEW040 32/24 A2992 870 61 3100 VRB/05 RMK AO2
14837KMSN MSN20060729154009607/29/06 15:40:31  5-MIN KMSN 292140Z 21007KT 10SM FEW045 32/23 A2992 860 57 3100 210/07 RMK AO2
14837KMSN MSN20060729154509607/29/06 15:45:31  5-MIN KMSN 292145Z 20008KT 10SM FEW045 32/23 A2992 860 57 3100 200/08 RMK AO2
14837KMSN MSN20060729155012907/29/06 15:50:31  5-MIN KMSN 292150Z 22007KT 190V250 10SM SCT045 32/23 A2992 860 57 3100 220/07 190V250 RMK AO2 SLP125 T03220228
14837KMSN MSN20060729155509307/29/06 15:55:31  5-MIN KMSN 292155Z 21006KT 10SM CLR 32/22 A2992 860 56 3000 210/06 RMK AO2
14837KMSN MSN20060729160009607/29/06 16:00:31  5-MIN KMSN 292200Z 22005KT 10SM SCT045 32/23 A2991 870 57 3100 220/05 RMK AO2
14837KMSN MSN20060729160509607/29/06 16:05:31  5-MIN KMSN 292205Z 21007KT 10SM SCT045 32/23 A2991 870 59 3100 210/07 RMK AO2
14837KMSN MSN20060729161009607/29/06 16:10:31  5-MIN KMSN 292210Z 22006KT 10SM SCT045 32/23 A2991 880 57 3100 220/06 RMK AO2
14837KMSN MSN20060729161509607/29/06 16:15:31  5-MIN KMSN 292215Z 21010KT 10SM SCT045 32/22 A2991 870 55 3100 210/10 RMK AO2
14837KMSN MSN20060729162009607/29/06 16:20:31  5-MIN KMSN 292220Z 22009KT 10SM SCT045 32/21 A2991 870 51 3100 220/09 RMK AO2
14837KMSN MSN20060729162509607/29/06 16:25:31  5-MIN KMSN 292225Z 23008KT 10SM SCT045 32/22 A2991 870 53 3100 230/08 RMK AO2
14837KMSN MSN20060729163009607/29/06 16:30:31  5-MIN KMSN 292230Z VRB06KT 10SM FEW045 32/22 A2991 870 55 3100 VRB/06 RMK AO2
14837KMSN MSN20060729163509607/29/06 16:35:31  5-MIN KMSN 292235Z 24006KT 10SM FEW045 32/22 A2991 870 55 3100 240/06 RMK AO2
14837KMSN MSN20060729164009607/29/06 16:40:31  5-MIN KMSN 292240Z VRB05KT 10SM FEW045 32/23 A2991 870 57 3100 VRB/05 RMK AO2
14837KMSN MSN20060729164509607/29/06 16:45:31  5-MIN KMSN 292245Z VRB05KT 10SM FEW045 32/22 A2991 870 55 3100 VRB/05 RMK AO2
14837KMSN MSN20060729165011307/29/06 16:50:31  5-MIN KMSN 292250Z 23006KT 10SM FEW045 32/22 A2991 870 55 3100 230/06 RMK AO2 SLP122 T03220222
14837KMSN MSN20060729165509307/29/06 16:55:31  5-MIN KMSN 292255Z 22007KT 10SM CLR 32/22 A2991 870 56 3000 210/07 RMK AO2
14837KMSN MSN20060729170009607/29/06 17:00:31  5-MIN KMSN 292300Z 22007KT 10SM FEW045 32/22 A2991 870 56 3000 220/07 RMK AO2
14837KMSN MSN20060729170509607/29/06 17:05:31  5-MIN KMSN 292305Z 21006KT 10SM FEW045 32/22 A2991 870 56 3000 210/06 RMK AO2
14837KMSN MSN20060729171009607/29/06 17:10:31  5-MIN KMSN 292310Z 19006KT 10SM FEW045 32/23 A2991 880 58 3000 190/06 RMK AO2
14837KMSN MSN20060729171509607/29/06 17:15:31  5-MIN KMSN 292315Z 21005KT 10SM FEW045 32/23 A2991 880 58 3000 210/05 RMK AO2
14837KMSN MSN20060729172009607/29/06 17:20:31  5-MIN KMSN 292320Z 22005KT 10SM FEW045 32/23 A2990 880 58 3000 220/05 RMK AO2
14837KMSN MSN20060729172509607/29/06 17:25:31  5-MIN KMSN 292325Z 21004KT 10SM FEW045 32/23 A2990 880 58 3000 210/04 RMK AO2
14837KMSN MSN20060729173009607/29/06 17:30:31  5-MIN KMSN 292330Z 21004KT 10SM FEW045 31/23 A2990 880 60 3000 210/04 RMK AO2
14837KMSN MSN20060729173509607/29/06 17:35:31  5-MIN KMSN 292335Z 22005KT 10SM FEW045 31/23 A2990 880 60 3000 220/05 RMK AO2
14837KMSN MSN20060729174009607/29/06 17:40:31  5-MIN KMSN 292340Z 22006KT 10SM FEW045 31/23 A2990 880 60 3000 220/06 RMK AO2
14837KMSN MSN20060729174509607/29/06 17:45:31  5-MIN KMSN 292345Z 21004KT 10SM FEW045 31/23 A2990 880 63 3000 210/04 RMK AO2
14837KMSN MSN20060729175013107/29/06 17:50:31  5-MIN KMSN 292350Z 19007KT 10SM FEW045 31/23 A2990 880 63 3000 190/07 RMK AO2 SLP118 T03110233 10328 20294 56015
14837KMSN MSN20060729175509307/29/06 17:55:31  5-MIN KMSN 292355Z 22006KT 10SM CLR 31/23 A2990 880 63 3000 210/06 RMK AO2
14837KMSN MSN20060729180009307/29/06 18:00:31  5-MIN KMSN 300000Z 22006KT 10SM CLR 31/23 A2990 880 63 3000 220/06 RMK AO2
14837KMSN MSN20060729180509307/29/06 18:05:31  5-MIN KMSN 300005Z 22005KT 10SM CLR 31/23 A2990 880 62 2900 220/05 RMK AO2
14837KMSN MSN20060729181009307/29/06 18:10:31  5-MIN KMSN 300010Z 19005KT 10SM CLR 31/23 A2990 890 63 3000 190/05 RMK AO2
14837KMSN MSN20060729181509307/29/06 18:15:31  5-MIN KMSN 300015Z 20006KT 10SM CLR 31/23 A2990 890 63 3000 190/06 RMK AO2
14837KMSN MSN20060729182009607/29/06 18:20:31  5-MIN KMSN 300020Z 21007KT 10SM FEW042 31/23 A2989 890 63 3000 210/07 RMK AO2
14837KMSN MSN20060729182509607/29/06 18:25:31  5-MIN KMSN 300025Z 20006KT 10SM FEW042 31/23 A2989 890 60 3000 200/06 RMK AO2
14837KMSN MSN20060729183009607/29/06 18:30:31  5-MIN KMSN 300030Z 22005KT 10SM FEW042 31/23 A2989 890 62 2900 220/05 RMK AO2
14837KMSN MSN20060729183509607/29/06 18:35:31  5-MIN KMSN 300035Z 23006KT 10SM FEW042 31/23 A2990 890 62 2900 230/06 RMK AO2
14837KMSN MSN20060729184009307/29/06 18:40:31  5-MIN KMSN 300040Z 23005KT 10SM CLR 31/23 A2990 890 62 2900 230/05 RMK AO2
14837KMSN MSN20060729184509607/29/06 18:45:31  5-MIN KMSN 300045Z 22003KT 10SM FEW042 31/23 A2990 890 62 2900 220/03 RMK AO2
14837KMSN MSN20060729185011307/29/06 18:50:31  5-MIN KMSN 300050Z 24003KT 10SM FEW042 30/23 A2990 890 67 2800 240/03 RMK AO2 SLP116 T03000233
14837KMSN MSN20060729185509307/29/06 18:55:31  5-MIN KMSN 300055Z 24003KT 10SM CLR 30/23 A2990 890 65 2800 240/03 RMK AO2
14837KMSN MSN20060729190009307/29/06 19:00:31  5-MIN KMSN 300100Z VRB03KT 10SM CLR 30/23 A2990 880 65 2800 VRB/03 RMK AO2
14837KMSN MSN20060729190509307/29/06 19:05:31  5-MIN KMSN 300105Z 24004KT 10SM CLR 30/23 A2990 880 67 2800 240/04 RMK AO2
14837KMSN MSN20060729191009307/29/06 19:10:31  5-MIN KMSN 300110Z 22005KT 10SM CLR 29/23 A2990 880 69 2800 220/05 RMK AO2
14837KMSN MSN20060729191509307/29/06 19:15:31  5-MIN KMSN 300115Z 22004KT 10SM CLR 29/23 A2990 880 67 2800 220/04 RMK AO2
14837KMSN MSN20060729192009307/29/06 19:20:31  5-MIN KMSN 300120Z 22005KT 10SM CLR 29/23 A2990 880 69 2800 220/05 RMK AO2
14837KMSN MSN20060729192509307/29/06 19:25:31  5-MIN KMSN 300125Z 21004KT 10SM CLR 29/23 A2990 890 69 2800 210/04 RMK AO2
14837KMSN MSN20060729193009307/29/06 19:30:31  5-MIN KMSN 300130Z 21003KT 10SM CLR 29/23 A2990 890 69 2800 210/03 RMK AO2
14837KMSN MSN20060729193509307/29/06 19:35:31  5-MIN KMSN 300135Z 21004KT 10SM CLR 29/23 A2990 880 69 2800 210/04 RMK AO2
14837KMSN MSN20060729194009307/29/06 19:40:31  5-MIN KMSN 300140Z 21005KT 10SM CLR 29/23 A2990 880 69 2800 210/05 RMK AO2
14837KMSN MSN20060729194509307/29/06 19:45:31  5-MIN KMSN 300145Z VRB04KT 10SM CLR 29/23 A2990 880 69 2800 VRB/04 RMK AO2
14837KMSN MSN20060729195011007/29/06 19:50:31  5-MIN KMSN 300150Z 21005KT 10SM CLR 29/23 A2990 880 69 2800 210/05 RMK AO2 SLP118 T02940233
14837KMSN MSN20060729195509307/29/06 19:55:31  5-MIN KMSN 300155Z 22004KT 10SM CLR 29/23 A2990 880 71 2700 220/04 RMK AO2
14837KMSN MSN20060729200009307/29/06 20:00:31  5-MIN KMSN 300200Z 22004KT 10SM CLR 29/23 A2991 880 71 2700 220/04 RMK AO2
14837KMSN MSN20060729200509207/29/06 20:05:31  5-MIN KMSN 300205Z 23004KT 8SM CLR 29/23 A2991 870 71 2700 230/04 RMK AO2
14837KMSN MSN20060729201009507/29/06 20:10:31  5-MIN KMSN 300210Z 23003KT 6SM HZ CLR 29/23 A2991 870 71 2700 220/03 RMK AO2
14837KMSN MSN20060729201509507/29/06 20:15:31  5-MIN KMSN 300215Z 00000KT 6SM HZ CLR 29/23 A2992 870 71 2700 000/00 RMK AO2
14837KMSN MSN20060729202009207/29/06 20:20:31  5-MIN KMSN 300220Z 22004KT 7SM CLR 28/23 A2992 870 74 2600 220/04 RMK AO2
14837KMSN MSN20060729202509207/29/06 20:25:31  5-MIN KMSN 300225Z 00000KT 8SM CLR 28/23 A2992 870 76 2600 000/00 RMK AO2
14837KMSN MSN20060729203009307/29/06 20:30:31  5-MIN KMSN 300230Z 00000KT 10SM CLR 28/23 A2992 860 76 2600 000/00 RMK AO2
14837KMSN MSN20060729203509307/29/06 20:35:31  5-MIN KMSN 300235Z 00000KT 10SM CLR 27/23 A2992 860 79 2500 000/00 RMK AO2
14837KMSN MSN20060729204009307/29/06 20:40:31  5-MIN KMSN 300240Z 00000KT 10SM CLR 28/23 A2992 870 76 2600 000/00 RMK AO2
14837KMSN MSN20060729204509307/29/06 20:45:31  5-MIN KMSN 300245Z 00000KT 10SM CLR 28/23 A2992 860 76 2600 000/00 RMK AO2
14837KMSN MSN20060729205011607/29/06 20:50:31  5-MIN KMSN 300250Z 00000KT 10SM CLR 28/23 A2992 860 76 2600 000/00 RMK AO2 SLP124 T02780233 58010
14837KMSN MSN20060729205509307/29/06 20:55:31  5-MIN KMSN 300255Z 19003KT 10SM CLR 28/23 A2992 870 76 2600 190/03 RMK AO2
14837KMSN MSN20060729210009307/29/06 21:00:31  5-MIN KMSN 300300Z 00000KT 10SM CLR 27/23 A2992 870 79 2500 000/00 RMK AO2
14837KMSN MSN20060729210509307/29/06 21:05:31  5-MIN KMSN 300305Z 00000KT 10SM CLR 27/23 A2992 870 79 2500 000/00 RMK AO2
14837KMSN MSN20060729211009307/29/06 21:10:31  5-MIN KMSN 300310Z 20003KT 10SM CLR 27/23 A2992 870 79 2500 200/03 RMK AO2
14837KMSN MSN20060729211509307/29/06 21:15:31  5-MIN KMSN 300315Z 00000KT 10SM CLR 27/23 A2992 870 82 2400 000/00 RMK AO2
14837KMSN MSN20060729212009207/29/06 21:20:31  5-MIN KMSN 300320Z 00000KT 9SM CLR 27/23 A2992 870 79 2500 000/00 RMK AO2
14837KMSN MSN20060729212509207/29/06 21:25:31  5-MIN KMSN 300325Z 00000KT 9SM CLR 27/23 A2992 870 79 2500 000/00 RMK AO2
14837KMSN MSN20060729213009207/29/06 21:30:31  5-MIN KMSN 300330Z 00000KT 9SM CLR 27/23 A2992 870 79 2500 000/00 RMK AO2
14837KMSN MSN20060729213509207/29/06 21:35:31  5-MIN KMSN 300335Z 00000KT 9SM CLR 27/23 A2992 870 79 2500 000/00 RMK AO2
14837KMSN MSN20060729214009207/29/06 21:40:31  5-MIN KMSN 300340Z 00000KT 9SM CLR 27/23 A2992 870 82 2400 000/00 RMK AO2
14837KMSN MSN20060729214509207/29/06 21:45:31  5-MIN KMSN 300345Z 00000KT 8SM CLR 27/23 A2992 860 79 2500 000/00 RMK AO2
14837KMSN MSN20060729215010907/29/06 21:50:31  5-MIN KMSN 300350Z 00000KT 8SM CLR 27/23 A2992 860 79 2500 000/00 RMK AO2 SLP124 T02720233
14837KMSN MSN20060729215509207/29/06 21:55:31  5-MIN KMSN 300355Z 00000KT 8SM CLR 27/23 A2992 870 79 2500 000/00 RMK AO2
14837KMSN MSN20060729220009207/29/06 22:00:31  5-MIN KMSN 300400Z 00000KT 8SM CLR 27/23 A2992 870 82 2400 000/00 RMK AO2
14837KMSN MSN20060729220509207/29/06 22:05:31  5-MIN KMSN 300405Z 13003KT 8SM CLR 27/23 A2992 870 79 2500 130/03 RMK AO2
14837KMSN MSN20060729221009207/29/06 22:10:31  5-MIN KMSN 300410Z 00000KT 8SM CLR 26/23 A2992 870 81 2400 000/00 RMK AO2
14837KMSN MSN20060729221509207/29/06 22:15:31  5-MIN KMSN 300415Z 00000KT 8SM CLR 26/23 A2992 870 87 2300 000/00 RMK AO2
14837KMSN MSN20060729222009207/29/06 22:20:31  5-MIN KMSN 300420Z 00000KT 8SM CLR 26/23 A2992 870 84 2400 000/00 RMK AO2
14837KMSN MSN20060729222509207/29/06 22:25:31  5-MIN KMSN 300425Z 15003KT 8SM CLR 26/23 A2992 870 84 2400 150/03 RMK AO2
14837KMSN MSN20060729223009207/29/06 22:30:31  5-MIN KMSN 300430Z 00000KT 7SM CLR 26/23 A2992 870 84 2400 000/00 RMK AO2
14837KMSN MSN20060729223509207/29/06 22:35:31  5-MIN KMSN 300435Z 17003KT 7SM CLR 26/23 A2992 870 84 2400 160/03 RMK AO2
14837KMSN MSN20060729224009207/29/06 22:40:31  5-MIN KMSN 300440Z 16004KT 7SM CLR 26/23 A2992 870 87 2300 160/04 RMK AO2
14837KMSN MSN20060729224509207/29/06 22:45:31  5-MIN KMSN 300445Z 16004KT 7SM CLR 27/23 A2992 870 82 2400 160/04 RMK AO2
14837KMSN MSN20060729225010907/29/06 22:50:31  5-MIN KMSN 300450Z 16003KT 7SM CLR 27/23 A2992 870 82 2400 160/03 RMK AO2 SLP124 T02670233
14837KMSN MSN20060729225509207/29/06 22:55:31  5-MIN KMSN 300455Z 17003KT 7SM CLR 27/23 A2992 870 82 2400 170/03 RMK AO2
14837KMSN MSN20060729230009207/29/06 23:00:31  5-MIN KMSN 300500Z 17004KT 7SM CLR 27/23 A2992 870 82 2400 170/04 RMK AO2
14837KMSN MSN20060729230509207/29/06 23:05:31  5-MIN KMSN 300505Z 18005KT 7SM CLR 27/23 A2991 870 82 2500 180/05 RMK AO2
14837KMSN MSN20060729231009207/29/06 23:10:31  5-MIN KMSN 300510Z 18004KT 7SM CLR 27/24 A2991 870 84 2500 170/04 RMK AO2
14837KMSN MSN20060729231509207/29/06 23:15:31  5-MIN KMSN 300515Z 18004KT 7SM CLR 27/24 A2991 870 84 2500 180/04 RMK AO2
14837KMSN MSN20060729232009207/29/06 23:20:31  5-MIN KMSN 300520Z 18004KT 7SM CLR 26/24 A2991 870 87 2400 180/04 RMK AO2
14837KMSN MSN20060729232509207/29/06 23:25:31  5-MIN KMSN 300525Z 18004KT 7SM CLR 26/24 A2991 870 87 2400 180/04 RMK AO2
14837KMSN MSN20060729233009207/29/06 23:30:31  5-MIN KMSN 300530Z 18003KT 7SM CLR 26/24 A2991 880 87 2400 180/03 RMK AO2
14837KMSN MSN20060729233509207/29/06 23:35:31  5-MIN KMSN 300535Z 17004KT 7SM CLR 26/24 A2991 880 87 2400 170/04 RMK AO2
14837KMSN MSN20060729234009207/29/06 23:40:31  5-MIN KMSN 300540Z 17005KT 7SM CLR 26/24 A2990 880 87 2400 170/05 RMK AO2
14837KMSN MSN20060729234509207/29/06 23:45:31  5-MIN KMSN 300545Z 17004KT 7SM CLR 26/23 A2990 880 84 2400 170/04 RMK AO2
14837KMSN MSN20060729235013707/29/06 23:50:31  5-MIN KMSN 300550Z 17004KT 7SM CLR 26/23 A2990 880 84 2400 160/04 RMK AO2 SLP118 T02610233 10311 20256 403280211 53007
14837KMSN MSN20060729235509207/29/06 23:55:31  5-MIN KMSN 300555Z 17003KT 7SM CLR 26/23 A2990 880 84 2400 170/03 RMK AO2
14837KMSN MSN20060730000009207/30/06 00:00:38  5-MIN KMSN 300600Z 17003KT 7SM CLR 26/23 A2990 880 87 2300 170/03 RMK AO2
14837KMSN MSN20060730000509207/30/06 00:05:31  5-MIN KMSN 300605Z 18003KT 7SM CLR 26/23 A2990 890 87 2300 180/03 RMK AO2
14837KMSN MSN20060730001009207/30/06 00:10:31  5-MIN KMSN 300610Z 18003KT 7SM CLR 26/23 A2990 890 87 2300 180/03 RMK AO2
14837KMSN MSN20060730001509207/30/06 00:15:31  5-MIN KMSN 300615Z 00000KT 7SM CLR 26/23 A2990 880 87 2300 000/00 RMK AO2
14837KMSN MSN20060730002009507/30/06 00:20:31  5-MIN KMSN 300620Z 16003KT 6SM BR CLR 26/23 A2990 890 87 2300 160/03 RMK AO2
14837KMSN MSN20060730002509207/30/06 00:25:31  5-MIN KMSN 300625Z 17004KT 7SM CLR 26/23 A2990 890 87 2300 160/04 RMK AO2
14837KMSN MSN20060730003009207/30/06 00:30:31  5-MIN KMSN 300630Z 17004KT 7SM CLR 26/23 A2990 890 87 2300 170/04 RMK AO2
14837KMSN MSN20060730003509207/30/06 00:35:31  5-MIN KMSN 300635Z 18003KT 7SM CLR 26/23 A2989 890 87 2300 180/03 RMK AO2
14837KMSN MSN20060730004009207/30/06 00:40:31  5-MIN KMSN 300640Z 18003KT 7SM CLR 26/23 A2989 890 87 2300 180/03 RMK AO2
14837KMSN MSN20060730004509207/30/06 00:45:31  5-MIN KMSN 300645Z 18005KT 7SM CLR 26/23 A2989 890 87 2400 180/05 RMK AO2
14837KMSN MSN20060730005010907/30/06 00:50:31  5-MIN KMSN 300650Z 18005KT 7SM CLR 26/23 A2989 890 87 2400 180/05 RMK AO2 SLP114 T02560233
14837KMSN MSN20060730005509207/30/06 00:55:31  5-MIN KMSN 300655Z 18005KT 8SM CLR 26/23 A2989 900 84 2400 180/05 RMK AO2
14837KMSN MSN20060730010009207/30/06 01:00:31  5-MIN KMSN 300700Z 18004KT 8SM CLR 26/23 A2989 890 84 2400 180/04 RMK AO2
14837KMSN MSN20060730010509207/30/06 01:05:31  5-MIN KMSN 300705Z 18005KT 8SM CLR 26/23 A2988 900 84 2400 180/05 RMK AO2
14837KMSN MSN20060730011009207/30/06 01:10:31  5-MIN KMSN 300710Z 17004KT 7SM CLR 26/23 A2988 900 84 2400 170/04 RMK AO2
14837KMSN MSN20060730011509207/30/06 01:15:31  5-MIN KMSN 300715Z 17004KT 7SM CLR 25/23 A2988 900 87 2300 170/04 RMK AO2
14837KMSN MSN20060730012009207/30/06 01:20:31  5-MIN KMSN 300720Z 16004KT 7SM CLR 25/23 A2988 900 90 2300 160/04 RMK AO2
14837KMSN MSN20060730012509207/30/06 01:25:31  5-MIN KMSN 300725Z 16004KT 7SM CLR 25/23 A2988 900 87 2300 160/04 RMK AO2
14837KMSN MSN20060730013009207/30/06 01:30:31  5-MIN KMSN 300730Z 17004KT 7SM CLR 25/23 A2988 900 87 2300 170/04 RMK AO2
14837KMSN MSN20060730013509207/30/06 01:35:31  5-MIN KMSN 300735Z 16004KT 7SM CLR 25/23 A2988 910 87 2300 160/04 RMK AO2
14837KMSN MSN20060730014009207/30/06 01:40:31  5-MIN KMSN 300740Z 16004KT 7SM CLR 25/23 A2988 910 87 2300 160/04 RMK AO2
14837KMSN MSN20060730014509207/30/06 01:45:31  5-MIN KMSN 300745Z 17004KT 7SM CLR 25/23 A2987 910 87 2300 170/04 RMK AO2
14837KMSN MSN20060730015010907/30/06 01:50:31  5-MIN KMSN 300750Z 16004KT 7SM CLR 25/23 A2987 910 87 2300 160/04 RMK AO2 SLP108 T02500228
14837KMSN MSN20060730015509207/30/06 01:55:31  5-MIN KMSN 300755Z 16004KT 7SM CLR 25/23 A2987 910 87 2300 160/04 RMK AO2
14837KMSN MSN20060730020009207/30/06 02:00:31  5-MIN KMSN 300800Z 16005KT 7SM CLR 24/23 A2987 910 90 2300 160/05 RMK AO2
14837KMSN MSN20060730020509207/30/06 02:05:31  5-MIN KMSN 300805Z 17004KT 7SM CLR 25/23 A2987 920 87 2300 170/04 RMK AO2
14837KMSN MSN20060730021009207/30/06 02:10:31  5-MIN KMSN 300810Z 18004KT 7SM CLR 25/23 A2986 920 87 2300 180/04 RMK AO2
14837KMSN MSN20060730021509207/30/06 02:15:31  5-MIN KMSN 300815Z 19004KT 8SM CLR 26/23 A2986 920 87 2400 190/04 RMK AO2
14837KMSN MSN20060730022009207/30/06 02:20:31  5-MIN KMSN 300820Z 20004KT 9SM CLR 26/23 A2986 920 84 2400 200/04 RMK AO2
14837KMSN MSN20060730022509207/30/06 02:25:31  5-MIN KMSN 300825Z 19005KT 9SM CLR 26/23 A2986 920 84 2400 190/05 RMK AO2
14837KMSN MSN20060730023009207/30/06 02:30:31  5-MIN KMSN 300830Z 20005KT 9SM CLR 26/23 A2986 920 84 2400 200/05 RMK AO2
14837KMSN MSN20060730023509207/30/06 02:35:31  5-MIN KMSN 300835Z 21005KT 9SM CLR 26/23 A2986 920 84 2400 210/05 RMK AO2
14837KMSN MSN20060730024009207/30/06 02:40:31  5-MIN KMSN 300840Z 20005KT 9SM CLR 26/23 A2986 920 81 2400 200/05 RMK AO2
14837KMSN MSN20060730024509207/30/06 02:45:31  5-MIN KMSN 300845Z 21005KT 9SM CLR 26/23 A2986 920 84 2400 210/05 RMK AO2
14837KMSN MSN20060730025011507/30/06 02:50:31  5-MIN KMSN 300850Z 20006KT 9SM CLR 26/23 A2986 920 84 2400 200/06 RMK AO2 SLP103 T02610233 58006
14837KMSN MSN20060730025509207/30/06 02:55:31  5-MIN KMSN 300855Z 20006KT 9SM CLR 26/23 A2986 920 84 2400 200/06 RMK AO2
14837KMSN MSN20060730030009207/30/06 03:00:31  5-MIN KMSN 300900Z 20006KT 9SM CLR 26/23 A2986 920 84 2500 190/06 RMK AO2
14837KMSN MSN20060730030509207/30/06 03:05:31  5-MIN KMSN 300905Z 20007KT 9SM CLR 26/23 A2986 920 84 2500 200/07 RMK AO2
14837KMSN MSN20060730031009207/30/06 03:10:31  5-MIN KMSN 300910Z 20006KT 9SM CLR 27/23 A2986 920 82 2500 200/06 RMK AO2
14837KMSN MSN20060730031509207/30/06 03:15:31  5-MIN KMSN 300915Z 20006KT 9SM CLR 27/23 A2986 920 82 2500 200/06 RMK AO2
14837KMSN MSN20060730032009507/30/06 03:20:31  5-MIN KMSN 300920Z 21005KT 9SM FEW075 27/23 A2986 920 82 2500 210/05 RMK AO2
14837KMSN MSN20060730032509507/30/06 03:25:31  5-MIN KMSN 300925Z VRB03KT 9SM SCT075 27/23 A2986 920 82 2500 VRB/03 RMK AO2
14837KMSN MSN20060730033009507/30/06 03:30:31  5-MIN KMSN 300930Z 22003KT 9SM BKN075 26/23 A2986 920 84 2400 220/03 RMK AO2
14837KMSN MSN20060730033509507/30/06 03:35:31  5-MIN KMSN 300935Z VRB04KT 9SM BKN080 26/23 A2986 920 84 2400 VRB/04 RMK AO2
14837KMSN MSN20060730034009507/30/06 03:40:31  5-MIN KMSN 300940Z 21004KT 9SM SCT080 26/23 A2986 920 84 2400 210/04 RMK AO2
14837KMSN MSN20060730034509507/30/06 03:45:31  5-MIN KMSN 300945Z 20004KT 9SM SCT080 27/23 A2986 920 82 2500 200/04 RMK AO2
14837KMSN MSN20060730035011207/30/06 03:50:31  5-MIN KMSN 300950Z 20003KT 9SM SCT080 27/23 A2986 920 82 2500 200/03 RMK AO2 SLP105 T02670233
14837KMSN MSN20060730035509507/30/06 03:55:31  5-MIN KMSN 300955Z 20004KT 9SM SCT080 27/23 A2986 920 82 2500 200/04 RMK AO2
14837KMSN MSN20060730040009507/30/06 04:00:31  5-MIN KMSN 301000Z 21005KT 9SM SCT080 27/23 A2986 920 82 2500 200/05 RMK AO2
14837KMSN MSN20060730040509507/30/06 04:05:31  5-MIN KMSN 301005Z 20006KT 9SM SCT075 27/23 A2986 920 82 2500 200/06 RMK AO2
14837KMSN MSN20060730041009507/30/06 04:10:31  5-MIN KMSN 301010Z 20006KT 9SM BKN075 27/23 A2985 930 82 2500 200/06 RMK AO2
14837KMSN MSN20060730041509507/30/06 04:15:31  5-MIN KMSN 301015Z 20006KT 9SM BKN075 27/23 A2985 930 82 2500 200/06 RMK AO2
14837KMSN MSN20060730042009507/30/06 04:20:31  5-MIN KMSN 301020Z 21005KT 9SM SCT075 27/23 A2985 930 82 2500 200/05 RMK AO2
14837KMSN MSN20060730042509507/30/06 04:25:31  5-MIN KMSN 301025Z 20005KT 9SM SCT075 27/23 A2986 920 82 2500 200/05 RMK AO2
14837KMSN MSN20060730043009507/30/06 04:30:31  5-MIN KMSN 301030Z 19005KT 9SM FEW070 26/23 A2986 920 84 2500 190/05 RMK AO2
14837KMSN MSN20060730043509507/30/06 04:35:31  5-MIN KMSN 301035Z 19005KT 8SM FEW070 26/23 A2986 920 84 2500 180/05 RMK AO2
14837KMSN MSN20060730044009507/30/06 04:40:31  5-MIN KMSN 301040Z 18006KT 8SM FEW070 26/23 A2986 920 84 2500 180/06 RMK AO2
14837KMSN MSN20060730044509507/30/06 04:45:31  5-MIN KMSN 301045Z 18006KT 8SM FEW070 26/23 A2985 920 84 2500 180/06 RMK AO2
14837KMSN MSN20060730045011207/30/06 04:50:31  5-MIN KMSN 301050Z 18006KT 8SM FEW070 26/23 A2986 920 84 2500 180/06 RMK AO2 SLP102 T02610233
14837KMSN MSN20060730045509207/30/06 04:55:31  5-MIN KMSN 301055Z 17006KT 8SM CLR 26/23 A2985 930 84 2500 170/06 RMK AO2
14837KMSN MSN20060730050009507/30/06 05:00:31  5-MIN KMSN 301100Z 17005KT 7SM FEW070 26/23 A2986 920 87 2400 170/05 RMK AO2
14837KMSN MSN20060730050509807/30/06 05:05:31  5-MIN KMSN 301105Z 16006KT 6SM BR SCT070 26/23 A2985 930 87 2400 160/06 RMK AO2
14837KMSN MSN20060730051009507/30/06 05:10:31  5-MIN KMSN 301110Z 17007KT 7SM BKN075 26/23 A2985 930 87 2400 170/07 RMK AO2
14837KMSN MSN20060730051509507/30/06 05:15:31  5-MIN KMSN 301115Z 17007KT 7SM SCT075 26/23 A2985 930 87 2400 170/07 RMK AO2
14837KMSN MSN20060730052010507/30/06 05:20:31  5-MIN KMSN 301120Z 16006KT 6SM BR FEW070 SCT085 26/23 A2985 930 87 2400 160/06 RMK AO2
14837KMSN MSN20060730052510507/30/06 05:25:31  5-MIN KMSN 301125Z 16007KT 6SM BR FEW070 SCT085 26/23 A2986 920 87 2400 160/07 RMK AO2
14837KMSN MSN20060730053009807/30/06 05:30:31  5-MIN KMSN 301130Z 16007KT 6SM BR SCT075 26/23 A2986 920 87 2400 160/07 RMK AO2
14837KMSN MSN20060730053509807/30/06 05:35:31  5-MIN KMSN 301135Z 17009KT 6SM BR FEW075 26/23 A2985 930 87 2400 170/09 RMK AO2
14837KMSN MSN20060730054009507/30/06 05:40:31  5-MIN KMSN 301140Z 17007KT 7SM FEW075 26/23 A2985 930 84 2500 170/07 RMK AO2
14837KMSN MSN20060730054509507/30/06 05:45:31  5-MIN KMSN 301145Z 16006KT 7SM FEW075 26/23 A2985 930 84 2500 160/06 RMK AO2
14837KMSN MSN20060730055013007/30/06 05:50:31  5-MIN KMSN 301150Z 16007KT 7SM FEW075 26/23 A2985 930 87 2400 160/07 RMK AO2 SLP102 T02560233 10267 20244 56013
14837KMSN MSN20060730055509207/30/06 05:55:31  5-MIN KMSN 301155Z 16007KT 7SM CLR 26/23 A2985 930 84 2500 160/07 RMK AO2
14837KMSN MSN20060730060009207/30/06 06:00:31  5-MIN KMSN 301200Z 20004KT 7SM CLR 26/23 A2986 920 84 2500 200/04 RMK AO2
14837KMSN MSN20060730060509207/30/06 06:05:31  5-MIN KMSN 301205Z 21004KT 7SM CLR 27/23 A2986 920 82 2500 210/04 RMK AO2
14837KMSN MSN20060730061009207/30/06 06:10:31  5-MIN KMSN 301210Z 22006KT 8SM CLR 27/23 A2986 920 82 2500 220/06 RMK AO2
14837KMSN MSN20060730061509207/30/06 06:15:31  5-MIN KMSN 301215Z 22005KT 8SM CLR 27/23 A2986 920 82 2500 220/05 RMK AO2
14837KMSN MSN20060730062009207/30/06 06:20:31  5-MIN KMSN 301220Z 22006KT 8SM CLR 27/23 A2987 910 79 2600 220/06 RMK AO2
14837KMSN MSN20060730062509207/30/06 06:25:31  5-MIN KMSN 301225Z 22004KT 8SM CLR 27/23 A2987 910 79 2600 220/04 RMK AO2
14837KMSN MSN20060730063009507/30/06 06:30:31  5-MIN KMSN 301230Z 24005KT 8SM FEW085 27/23 A2987 910 79 2600 240/05 RMK AO2
14837KMSN MSN20060730063509507/30/06 06:35:31  5-MIN KMSN 301235Z 24007KT 8SM FEW085 27/23 A2987 910 79 2600 230/07 RMK AO2
14837KMSN MSN20060730064009507/30/06 06:40:31  5-MIN KMSN 301240Z VRB06KT 8SM FEW085 27/23 A2986 920 79 2600 VRB/06 RMK AO2
14837KMSN MSN20060730064509507/30/06 06:45:31  5-MIN KMSN 301245Z 24006KT 8SM FEW085 27/23 A2987 910 79 2600 240/06 RMK AO2
14837KMSN MSN20060730065011207/30/06 06:50:31  5-MIN KMSN 301250Z VRB04KT 8SM FEW085 27/23 A2987 910 82 2500 VRB/04 RMK AO2 SLP109 T02670233
14837KMSN MSN20060730065509507/30/06 06:55:31  5-MIN KMSN 301255Z 25004KT 8SM FEW085 27/23 A2988 900 82 2500 250/04 RMK AO2
14837KMSN MSN20060730070009507/30/06 07:00:31  5-MIN KMSN 301300Z 00000KT 8SM SCT090 27/23 A2988 900 82 2500 000/00 RMK AO2
14837KMSN MSN20060730070510207/30/06 07:05:31  5-MIN KMSN 301305Z 00000KT 8SM FEW070 BKN090 27/23 A2988 900 82 2500 000/00 RMK AO2
14837KMSN MSN20060730071010207/30/06 07:10:31  5-MIN KMSN 301310Z 00000KT 8SM SCT065 BKN090 27/23 A2988 900 82 2500 000/00 RMK AO2
14837KMSN MSN20060730071510207/30/06 07:15:31  5-MIN KMSN 301315Z 23003KT 7SM BKN065 BKN090 27/23 A2988 900 82 2500 230/03 RMK AO2
14837KMSN MSN20060730072010207/30/06 07:20:31  5-MIN KMSN 301320Z 21004KT 7SM BKN070 OVC090 27/23 A2988 900 82 2500 210/04 RMK AO2
14837KMSN MSN20060730072510207/30/06 07:25:31  5-MIN KMSN 301325Z 22003KT 8SM BKN070 OVC090 27/23 A2989 900 82 2500 220/03 RMK AO2
14837KMSN MSN20060730073010907/30/06 07:30:31  5-MIN KMSN 301330Z 36008KT 8SM BKN065 BKN085 27/23 A2990 880 82 2500 360/08 RMK AO2 PRESRR
14837KMSN MSN20060730073512207/30/06 07:35:31  5-MIN KMSN 301335Z 01021G25KT 8SM SCT015 BKN070 BKN080 26/22 A2992 860 81 2300 010/21G25 RMK AO2 PRESRR
14837KMSN MSN20060730074014007/30/06 07:40:31  5-MIN KMSN 301340Z 02025G29KT 9SM SCT015 BKN070 BKN080 24/20 A2993 850 78 2100 010/25G29 RMK AO2 PK WND 02029/1337 PRESRR
14837KMSN MSN20060730074519407/30/06 07:45:31  5-MIN KMSN 301345Z 01021G29KT 10SM TS SCT017 BKN026 OVC080 23/19 A2995 840 76 2000 010/21G29 RMK AO2 PK WND 02029/1337 WSHFT 1331 TSB41 PRESRR OCNL LTGCGCC VC E TS VC E MOV SE
14837KMSN MSN20060730075020207/30/06 07:50:31  5-MIN KMSN 301350Z 03021G27KT 10SM TS SCT019 BKN028 BKN070 23/18 A2993 850 76 2000 030/21G27 RMK AO2 PK WND 02029/1337 WSHFT 1331 TSB41 SLP130 OCNL LTGCGCC OHD TS OHD MOV SE T02280183
14837KMSN MSN20060730075512807/30/06 07:55:31  5-MIN KMSN 301355Z 02015G24KT 10SM -TSRA FEW017 BKN028 OVC070 23/18 A2994 840 76 2000 020/15G24 RMK AO2 P0000
14837KMSN MSN20060730080015507/30/06 08:00:31  5-MIN KMSN 301400Z 03012KT 10SM -TSRA FEW017 BKN028 OVC037 22/18 A2994 850 78 1900 030/12 RMK AO2 OCNL LTGCGICCC OHD TS OHD MOV SE P0000
14837KMSN MSN20060730080515507/30/06 08:05:31  5-MIN KMSN 301405Z 05010KT 10SM -TSRA SCT017 BKN028 OVC037 22/18 A2994 850 78 1900 050/10 RMK AO2 OCNL LTGCGICCC OHD TS OHD MOV SE P0000
14837KMSN MSN20060730081015407/30/06 08:10:31  5-MIN KMSN 301410Z 05013KT 7SM -TSRA SCT017 BKN028 OVC037 22/18 A2993 860 81 1900 050/13 RMK AO2 OCNL LTGCGICCC OHD TS OHD MOV SE P0000
14837KMSN MSN20060730081512507/30/06 08:15:31  5-MIN KMSN 301415Z 05010KT 7SM -RA SCT023 BKN032 BKN041 22/19 A2993 860 84 1900 050/10 RMK AO2 TSE14 P0001
14837KMSN MSN20060730082012607/30/06 08:20:31  5-MIN KMSN 301420Z 05012KT 10SM -RA SCT023 BKN030 BKN038 22/19 A2993 850 84 1900 050/12 RMK AO2 TSE14 P0001
14837KMSN MSN20060730082512607/30/06 08:25:31  5-MIN KMSN 301425Z 06009KT 10SM -RA SCT023 BKN030 BKN038 22/19 A2993 860 84 1900 060/09 RMK AO2 TSE14 P0001
14837KMSN MSN20060730083012007/30/06 08:30:31  5-MIN KMSN 301430Z 06010KT 10SM SCT023 BKN041 22/19 A2993 850 81 1900 060/10 RMK AO2 TSE14RAE26 P0001
14837KMSN MSN20060730083512007/30/06 08:35:31  5-MIN KMSN 301435Z 06009KT 10SM SCT023 BKN041 22/19 A2993 850 81 1900 060/09 RMK AO2 TSE14RAE26 P0001
14837KMSN MSN20060730084012007/30/06 08:40:31  5-MIN KMSN 301440Z 03009KT 10SM SCT023 BKN041 23/19 A2994 840 78 2000 030/09 RMK AO2 TSE14RAE26 P0001
14837KMSN MSN20060730084512007/30/06 08:45:31  5-MIN KMSN 301445Z 03011KT 10SM SCT023 BKN041 23/19 A2994 840 78 2000 030/11 RMK AO2 TSE14RAE26 P0001
14837KMSN MSN20060730085014907/30/06 08:50:31  5-MIN KMSN 301450Z 03011KT 10SM FEW023 BKN041 23/19 A2994 840 78 2000 030/11 RMK AO2 TSE14RAE26 SLP134 P0001 60001 T02280189 58003
14837KMSN MSN20060730085509607/30/06 08:55:31  5-MIN KMSN 301455Z 04011KT 10SM FEW049 23/19 A2994 850 78 2000 040/11 RMK AO2
14837KMSN MSN20060730090010307/30/06 09:00:31  5-MIN KMSN 301500Z 05012KT 10SM FEW023 BKN049 23/19 A2994 850 78 2000 040/12 RMK AO2
14837KMSN MSN20060730090510307/30/06 09:05:31  5-MIN KMSN 301505Z 04012KT 10SM FEW023 BKN049 23/19 A2994 840 78 2000 040/12 RMK AO2
14837KMSN MSN20060730091010307/30/06 09:10:31  5-MIN KMSN 301510Z 04010KT 10SM FEW023 BKN049 23/19 A2994 840 78 2000 040/10 RMK AO2
14837KMSN MSN20060730091510307/30/06 09:15:31  5-MIN KMSN 301515Z 02011KT 10SM FEW023 BKN049 23/19 A2995 840 78 2000 020/11 RMK AO2
14837KMSN MSN20060730092010307/30/06 09:20:31  5-MIN KMSN 301520Z 01010KT 10SM FEW023 BKN049 22/19 A2995 840 81 1900 010/10 RMK AO2
14837KMSN MSN20060730092510307/30/06 09:25:31  5-MIN KMSN 301525Z 02013KT 10SM FEW023 BKN049 22/19 A2994 840 84 1900 020/13 RMK AO2
14837KMSN MSN20060730093009607/30/06 09:30:31  5-MIN KMSN 301530Z 02010KT 10SM BKN049 22/19 A2994 840 81 1900 020/10 RMK AO2
14837KMSN MSN20060730093510307/30/06 09:35:31  5-MIN KMSN 301535Z 05007KT 10SM BKN049 22/19 A2993 860 84 1900 040/07 RMK AO2 PRESFR
14837KMSN MSN20060730094009607/30/06 09:40:31  5-MIN KMSN 301540Z 05008KT 10SM SCT050 22/19 A2993 860 84 1900 050/08 RMK AO2
14837KMSN MSN20060730094509607/30/06 09:45:31  5-MIN KMSN 301545Z 05009KT 10SM SCT050 22/19 A2993 860 84 1900 050/09 RMK AO2
14837KMSN MSN20060730095011307/30/06 09:50:31  5-MIN KMSN 301550Z 06007KT 10SM FEW055 22/19 A2992 860 84 1900 060/07 RMK AO2 SLP126 T02220194
14837KMSN MSN20060730095509607/30/06 09:55:31  5-MIN KMSN 301555Z 06007KT 10SM FEW055 23/19 A2992 870 81 2000 060/07 RMK AO2
14837KMSN MSN20060730100009607/30/06 10:00:31  5-MIN KMSN 301600Z 08007KT 10SM SCT055 23/19 A2991 870 81 2000 080/07 RMK AO2
14837KMSN MSN20060730100509607/30/06 10:05:31  5-MIN KMSN 301605Z 07006KT 10SM SCT055 23/19 A2992 870 78 2100 070/06 RMK AO2
14837KMSN MSN20060730101009607/30/06 10:10:31  5-MIN KMSN 301610Z VRB04KT 10SM SCT055 23/19 A2992 860 76 2100 VRB/04 RMK AO2
14837KMSN MSN20060730101509607/30/06 10:15:31  5-MIN KMSN 301615Z 08006KT 10SM SCT055 23/19 A2992 870 76 2100 080/06 RMK AO2
14837KMSN MSN20060730102009607/30/06 10:20:31  5-MIN KMSN 301620Z 11005KT 10SM SCT055 24/19 A2992 870 76 2100 110/05 RMK AO2
14837KMSN MSN20060730102509607/30/06 10:25:31  5-MIN KMSN 301625Z 10007KT 10SM SCT055 24/19 A2991 870 73 2200 100/07 RMK AO2
14837KMSN MSN20060730103009607/30/06 10:30:31  5-MIN KMSN 301630Z 11004KT 10SM SCT055 24/19 A2991 870 73 2200 110/04 RMK AO2
14837KMSN MSN20060730103509607/30/06 10:35:31  5-MIN KMSN 301635Z 12007KT 10SM SCT055 24/19 A2991 870 73 2200 120/07 RMK AO2
14837KMSN MSN20060730104009607/30/06 10:40:31  5-MIN KMSN 301640Z 13006KT 10SM SCT055 24/19 A2991 870 71 2200 130/06 RMK AO2
14837KMSN MSN20060730104509607/30/06 10:45:31  5-MIN KMSN 301645Z 12005KT 10SM SCT055 24/19 A2991 880 71 2200 120/05 RMK AO2
14837KMSN MSN20060730105011307/30/06 10:50:31  5-MIN KMSN 301650Z 07005KT 10SM SCT055 25/19 A2991 880 68 2300 070/05 RMK AO2 SLP121 T02500189
14837KMSN MSN20060730105509307/30/06 10:55:31  5-MIN KMSN 301655Z VRB04KT 10SM CLR 25/19 A2991 880 71 2300 VRB/04 RMK AO2
14837KMSN MSN20060730110009307/30/06 11:00:31  5-MIN KMSN 301700Z 07007KT 10SM CLR 26/19 A2990 880 68 2300 070/07 RMK AO2
14837KMSN MSN20060730110509307/30/06 11:05:31  5-MIN KMSN 301705Z 11008KT 10SM CLR 26/20 A2990 880 68 2400 110/08 RMK AO2
14837KMSN MSN20060730111009307/30/06 11:10:31  5-MIN KMSN 301710Z 11006KT 10SM CLR 26/19 A2990 880 68 2300 110/06 RMK AO2
14837KMSN MSN20060730111509307/30/06 11:15:31  5-MIN KMSN 301715Z 10007KT 10SM CLR 26/19 A2990 880 68 2300 100/07 RMK AO2
14837KMSN MSN20060730112009307/30/06 11:20:31  5-MIN KMSN 301720Z 11007KT 10SM CLR 26/19 A2989 890 68 2300 110/07 RMK AO2
14837KMSN MSN20060730112509307/30/06 11:25:31  5-MIN KMSN 301725Z 12006KT 10SM CLR 26/19 A2990 890 68 2300 120/06 RMK AO2
14837KMSN MSN20060730113009307/30/06 11:30:31  5-MIN KMSN 301730Z 12006KT 10SM CLR 26/19 A2989 890 66 2400 120/06 RMK AO2
14837KMSN MSN20060730113509307/30/06 11:35:31  5-MIN KMSN 301735Z 10007KT 10SM CLR 26/19 A2989 890 68 2400 100/07 RMK AO2
14837KMSN MSN20060730114009307/30/06 11:40:31  5-MIN KMSN 301740Z 12008KT 10SM CLR 26/19 A2989 900 66 2400 120/08 RMK AO2
14837KMSN MSN20060730114509307/30/06 11:45:31  5-MIN KMSN 301745Z 12009KT 10SM CLR 26/19 A2988 900 64 2400 120/09 RMK AO2
14837KMSN MSN20060730115013407/30/06 11:50:31  5-MIN KMSN 301750Z 15009KT 10SM CLR 26/19 A2988 900 66 2400 150/09 RMK AO2 SLP112 60001 T02610194 10272 20217 50029
14837KMSN MSN20060730115509307/30/06 11:55:31  5-MIN KMSN 301755Z 13008KT 10SM CLR 26/19 A2988 910 64 2400 130/08 RMK AO2
14837KMSN MSN20060730120009307/30/06 12:00:31  5-MIN KMSN 301800Z 14010KT 10SM CLR 26/19 A2987 910 66 2400 140/10 RMK AO2
14837KMSN MSN20060730120509307/30/06 12:05:31  5-MIN KMSN 301805Z 14010KT 10SM CLR 26/19 A2987 910 66 2400 140/10 RMK AO2
14837KMSN MSN20060730121009307/30/06 12:10:31  5-MIN KMSN 301810Z 15008KT 10SM CLR 27/19 A2987 910 64 2500 140/08 RMK AO2
14837KMSN MSN20060730121509307/30/06 12:15:31  5-MIN KMSN 301815Z 16009KT 10SM CLR 27/19 A2987 910 62 2600 160/09 RMK AO2
14837KMSN MSN20060730122009307/30/06 12:20:31  5-MIN KMSN 301820Z 15008KT 10SM CLR 27/19 A2987 910 62 2600 150/08 RMK AO2
14837KMSN MSN20060730122509307/30/06 12:25:31  5-MIN KMSN 301825Z 17009KT 10SM CLR 27/20 A2986 920 64 2600 170/09 RMK AO2
14837KMSN MSN20060730123009307/30/06 12:30:31  5-MIN KMSN 301830Z 18010KT 10SM CLR 27/19 A2986 920 62 2600 180/10 RMK AO2
14837KMSN MSN20060730123509307/30/06 12:35:31  5-MIN KMSN 301835Z 18010KT 10SM CLR 28/19 A2986 920 60 2600 180/10 RMK AO2
14837KMSN MSN20060730124009307/30/06 12:40:31  5-MIN KMSN 301840Z 18010KT 10SM CLR 28/20 A2986 920 62 2600 180/10 RMK AO2
14837KMSN MSN20060730124509307/30/06 12:45:31  5-MIN KMSN 301845Z 18008KT 10SM CLR 28/20 A2986 920 62 2600 180/08 RMK AO2
14837KMSN MSN20060730125011007/30/06 12:50:31  5-MIN KMSN 301850Z 19007KT 10SM CLR 28/20 A2985 930 62 2600 190/07 RMK AO2 SLP102 T02780200
14837KMSN MSN20060730125509307/30/06 12:55:31  5-MIN KMSN 301855Z 17010KT 10SM CLR 28/20 A2986 920 62 2600 170/10 RMK AO2
14837KMSN MSN20060730130009307/30/06 13:00:31  5-MIN KMSN 301900Z 19011KT 10SM CLR 28/20 A2986 920 60 2700 190/11 RMK AO2
14837KMSN MSN20060730130509307/30/06 13:05:31  5-MIN KMSN 301905Z 18008KT 10SM CLR 28/21 A2985 930 62 2700 180/08 RMK AO2
14837KMSN MSN20060730131009307/30/06 13:10:31  5-MIN KMSN 301910Z 17009KT 10SM CLR 28/20 A2985 930 62 2600 170/09 RMK AO2
14837KMSN MSN20060730131509307/30/06 13:15:31  5-MIN KMSN 301915Z 20007KT 10SM CLR 28/20 A2985 930 62 2600 200/07 RMK AO2
14837KMSN MSN20060730132009307/30/06 13:20:31  5-MIN KMSN 301920Z 19009KT 10SM CLR 28/20 A2985 930 62 2600 190/09 RMK AO2
14837KMSN MSN20060730132509307/30/06 13:25:31  5-MIN KMSN 301925Z 18009KT 10SM CLR 28/20 A2985 930 62 2700 170/09 RMK AO2
14837KMSN MSN20060730133009307/30/06 13:30:31  5-MIN KMSN 301930Z 18008KT 10SM CLR 28/20 A2985 930 62 2700 180/08 RMK AO2
14837KMSN MSN20060730133509307/30/06 13:35:31  5-MIN KMSN 301935Z 20009KT 10SM CLR 28/21 A2985 930 62 2700 200/09 RMK AO2
14837KMSN MSN20060730134009307/30/06 13:40:31  5-MIN KMSN 301940Z 19009KT 10SM CLR 28/20 A2985 930 60 2700 190/09 RMK AO2
14837KMSN MSN20060730134509307/30/06 13:45:31  5-MIN KMSN 301945Z 18008KT 10SM CLR 28/21 A2984 930 62 2700 180/08 RMK AO2
14837KMSN MSN20060730135011007/30/06 13:50:31  5-MIN KMSN 301950Z 19009KT 10SM CLR 29/21 A2984 940 60 2800 190/09 RMK AO2 SLP097 T02890206
14837KMSN MSN20060730135509307/30/06 13:55:31  5-MIN KMSN 301955Z 19010KT 10SM CLR 28/21 A2984 940 62 2700 190/10 RMK AO2
14837KMSN MSN20060730140009307/30/06 14:00:31  5-MIN KMSN 302000Z 18008KT 10SM CLR 28/21 A2984 940 62 2700 180/08 RMK AO2
14837KMSN MSN20060730140509307/30/06 14:05:31  5-MIN KMSN 302005Z 20009KT 10SM CLR 29/21 A2984 940 60 2800 200/09 RMK AO2
14837KMSN MSN20060730141009307/30/06 14:10:31  5-MIN KMSN 302010Z 19011KT 10SM CLR 29/21 A2984 940 62 2800 190/11 RMK AO2
14837KMSN MSN20060730141509307/30/06 14:15:31  5-MIN KMSN 302015Z 19009KT 10SM CLR 29/21 A2983 950 60 2900 190/09 RMK AO2
14837KMSN MSN20060730142009307/30/06 14:20:31  5-MIN KMSN 302020Z 18009KT 10SM CLR 29/21 A2983 950 60 2900 180/09 RMK AO2
14837KMSN MSN20060730142509307/30/06 14:25:31  5-MIN KMSN 302025Z 19010KT 10SM CLR 29/21 A2983 950 60 2900 190/10 RMK AO2
14837KMSN MSN20060730143009307/30/06 14:30:31  5-MIN KMSN 302030Z 17010KT 10SM CLR 29/22 A2983 950 62 2900 170/10 RMK AO2
14837KMSN MSN20060730143509307/30/06 14:35:31  5-MIN KMSN 302035Z 18009KT 10SM CLR 29/21 A2983 950 60 2900 180/09 RMK AO2
14837KMSN MSN20060730144009307/30/06 14:40:31  5-MIN KMSN 302040Z 16009KT 10SM CLR 30/21 A2982 950 58 2900 160/09 RMK AO2
14837KMSN MSN20060730144509307/30/06 14:45:31  5-MIN KMSN 302045Z 17008KT 10SM CLR 30/22 A2982 960 60 2900 170/08 RMK AO2
14837KMSN MSN20060730145011607/30/06 14:50:31  5-MIN KMSN 302050Z 19007KT 10SM CLR 31/22 A2982 960 58 3000 190/07 RMK AO2 SLP091 T03060217 58021
14837KMSN MSN20060730145509307/30/06 14:55:31  5-MIN KMSN 302055Z 16009KT 10SM CLR 31/22 A2982 960 58 3000 160/09 RMK AO2
14837KMSN MSN20060730150009307/30/06 15:00:31  5-MIN KMSN 302100Z 16011KT 10SM CLR 31/22 A2981 960 58 3000 160/11 RMK AO2
14837KMSN MSN20060730150509307/30/06 15:05:31  5-MIN KMSN 302105Z 18011KT 10SM CLR 31/22 A2981 970 58 3000 180/11 RMK AO2
14837KMSN MSN20060730151009307/30/06 15:10:31  5-MIN KMSN 302110Z 17011KT 10SM CLR 31/22 A2981 970 58 3000 170/11 RMK AO2
14837KMSN MSN20060730151509307/30/06 15:15:31  5-MIN KMSN 302115Z 19009KT 10SM CLR 31/22 A2981 960 58 3000 190/09 RMK AO2
14837KMSN MSN20060730152009307/30/06 15:20:31  5-MIN KMSN 302120Z 19009KT 10SM CLR 31/21 A2981 970 56 3000 190/09 RMK AO2
14837KMSN MSN20060730152509307/30/06 15:25:31  5-MIN KMSN 302125Z 19008KT 10SM CLR 31/22 A2981 960 58 3000 190/08 RMK AO2
14837KMSN MSN20060730153009307/30/06 15:30:31  5-MIN KMSN 302130Z 16008KT 10SM CLR 31/22 A2982 960 58 3000 160/08 RMK AO2
14837KMSN MSN20060730153509307/30/06 15:35:31  5-MIN KMSN 302135Z 17008KT 10SM CLR 31/22 A2981 960 60 3000 170/08 RMK AO2
14837KMSN MSN20060730154010907/30/06 15:40:31  5-MIN KMSN 302140Z 19007KT 150V220 10SM CLR 31/22 A2981 960 60 3000 190/07 150V220 RMK AO2
14837KMSN MSN20060730154509307/30/06 15:45:31  5-MIN KMSN 302145Z 17007KT 10SM CLR 31/22 A2982 960 60 3000 170/07 RMK AO2
14837KMSN MSN20060730155011007/30/06 15:50:31  5-MIN KMSN 302150Z 15008KT 10SM CLR 31/23 A2982 960 62 3000 150/08 RMK AO2 SLP088 T03060228
14837KMSN MSN20060730155509307/30/06 15:55:31  5-MIN KMSN 302155Z 18007KT 10SM CLR 31/23 A2981 960 62 3000 180/07 RMK AO2
14837KMSN MSN20060730160009307/30/06 16:00:31  5-MIN KMSN 302200Z 16009KT 10SM CLR 31/22 A2981 960 60 3000 160/09 RMK AO2
14837KMSN MSN20060730160509307/30/06 16:05:31  5-MIN KMSN 302205Z 15008KT 10SM CLR 31/23 A2981 970 62 3000 150/08 RMK AO2
14837KMSN MSN20060730161009307/30/06 16:10:31  5-MIN KMSN 302210Z 17007KT 10SM CLR 31/23 A2981 960 62 3000 170/07 RMK AO2
14837KMSN MSN20060730161509307/30/06 16:15:31  5-MIN KMSN 302215Z 16007KT 10SM CLR 31/23 A2982 960 60 3100 160/07 RMK AO2
14837KMSN MSN20060730162009307/30/06 16:20:31  5-MIN KMSN 302220Z 18006KT 10SM CLR 31/23 A2982 960 60 3100 170/06 RMK AO2
14837KMSN MSN20060730162509307/30/06 16:25:31  5-MIN KMSN 302225Z 16007KT 10SM CLR 31/23 A2982 960 60 3100 160/07 RMK AO2
14837KMSN MSN20060730163009307/30/06 16:30:31  5-MIN KMSN 302230Z 16008KT 10SM CLR 31/23 A2982 960 63 3100 160/08 RMK AO2
14837KMSN MSN20060730163509307/30/06 16:35:31  5-MIN KMSN 302235Z 16007KT 10SM CLR 31/23 A2982 960 60 3100 160/07 RMK AO2
14837KMSN MSN20060730164009307/30/06 16:40:31  5-MIN KMSN 302240Z 16008KT 10SM CLR 31/23 A2982 960 63 3100 160/08 RMK AO2
14837KMSN MSN20060730164509307/30/06 16:45:31  5-MIN KMSN 302245Z 16007KT 10SM CLR 31/23 A2982 960 62 3000 160/07 RMK AO2
14837KMSN MSN20060730165011007/30/06 16:50:31  5-MIN KMSN 302250Z 17008KT 10SM CLR 31/23 A2982 960 65 3000 160/08 RMK AO2 SLP089 T03060233
14837KMSN MSN20060730165509307/30/06 16:55:31  5-MIN KMSN 302255Z 16005KT 10SM CLR 31/23 A2981 960 62 3000 160/05 RMK AO2
14837KMSN MSN20060730170009307/30/06 17:00:31  5-MIN KMSN 302300Z 18007KT 10SM CLR 31/23 A2981 960 62 3000 180/07 RMK AO2
14837KMSN MSN20060730170509307/30/06 17:05:31  5-MIN KMSN 302305Z 17008KT 10SM CLR 31/23 A2981 970 65 3000 170/08 RMK AO2
14837KMSN MSN20060730171009307/30/06 17:10:31  5-MIN KMSN 302310Z 18007KT 10SM CLR 31/23 A2981 970 65 3000 180/07 RMK AO2
14837KMSN MSN20060730171509307/30/06 17:15:31  5-MIN KMSN 302315Z 17009KT 10SM CLR 31/23 A2981 970 62 3000 170/09 RMK AO2
14837KMSN MSN20060730172009307/30/06 17:20:31  5-MIN KMSN 302320Z 18009KT 10SM CLR 31/23 A2981 970 65 3000 180/09 RMK AO2
14837KMSN MSN20060730172509307/30/06 17:25:31  5-MIN KMSN 302325Z 18008KT 10SM CLR 31/23 A2981 970 62 3000 180/08 RMK AO2
14837KMSN MSN20060730173009307/30/06 17:30:31  5-MIN KMSN 302330Z 18007KT 10SM CLR 31/23 A2981 970 65 3000 180/07 RMK AO2
14837KMSN MSN20060730173509307/30/06 17:35:31  5-MIN KMSN 302335Z 18009KT 10SM CLR 31/23 A2981 970 65 3000 180/09 RMK AO2
14837KMSN MSN20060730174009307/30/06 17:40:31  5-MIN KMSN 302340Z 18008KT 10SM CLR 31/23 A2980 970 65 3000 180/08 RMK AO2
14837KMSN MSN20060730174509307/30/06 17:45:31  5-MIN KMSN 302345Z 19007KT 10SM CLR 31/23 A2980 970 65 3000 190/07 RMK AO2
14837KMSN MSN20060730175012807/30/06 17:50:31  5-MIN KMSN 302350Z 18007KT 10SM CLR 31/24 A2980 970 67 3000 180/07 RMK AO2 SLP084 T03060239 10311 20261 58020
14837KMSN MSN20060730175509307/30/06 17:55:31  5-MIN KMSN 302355Z 18007KT 10SM CLR 31/24 A2980 970 67 3000 180/07 RMK AO2
14837KMSN MSN20060730180009307/30/06 18:00:31  5-MIN KMSN 310000Z 18009KT 10SM CLR 31/24 A2980 980 67 3000 180/09 RMK AO2
14837KMSN MSN20060730180509307/30/06 18:05:31  5-MIN KMSN 310005Z 18008KT 10SM CLR 30/24 A2980 980 69 2900 180/08 RMK AO2
14837KMSN MSN20060730181009307/30/06 18:10:31  5-MIN KMSN 310010Z 19007KT 10SM CLR 30/24 A2980 980 69 2900 190/07 RMK AO2
14837KMSN MSN20060730181509307/30/06 18:15:31  5-MIN KMSN 310015Z 19006KT 10SM CLR 30/24 A2980 970 69 2900 190/06 RMK AO2
14837KMSN MSN20060730182009307/30/06 18:20:31  5-MIN KMSN 310020Z 18008KT 10SM CLR 30/24 A2980 980 69 3000 180/08 RMK AO2
14837KMSN MSN20060730182509207/30/06 18:25:31  5-MIN KMSN 310025Z 18008KT 9SM CLR 30/24 A2980 970 69 2900 180/08 RMK AO2
14837KMSN MSN20060730183009207/30/06 18:30:31  5-MIN KMSN 310030Z 19007KT 9SM CLR 30/24 A2980 970 69 2900 190/07 RMK AO2
14837KMSN MSN20060730183509207/30/06 18:35:31  5-MIN KMSN 310035Z 19006KT 9SM CLR 30/24 A2980 970 69 2900 180/06 RMK AO2
14837KMSN MSN20060730184009207/30/06 18:40:31  5-MIN KMSN 310040Z 18005KT 9SM CLR 30/24 A2980 970 69 2900 180/05 RMK AO2
14837KMSN MSN20060730184509207/30/06 18:45:31  5-MIN KMSN 310045Z 18006KT 9SM CLR 29/24 A2980 970 74 2900 180/06 RMK AO2
14837KMSN MSN20060730185010907/30/06 18:50:31  5-MIN KMSN 310050Z 19006KT 9SM CLR 29/24 A2981 970 74 2900 190/06 RMK AO2 SLP085 T02940244
14837KMSN MSN20060730185509207/30/06 18:55:31  5-MIN KMSN 310055Z 19006KT 9SM CLR 29/24 A2980 970 74 2900 190/06 RMK AO2
14837KMSN MSN20060730190009207/30/06 19:00:31  5-MIN KMSN 310100Z 19006KT 9SM CLR 29/24 A2980 980 74 2900 190/06 RMK AO2
14837KMSN MSN20060730190509207/30/06 19:05:31  5-MIN KMSN 310105Z 19007KT 9SM CLR 29/24 A2980 980 74 2900 190/07 RMK AO2
14837KMSN MSN20060730191009207/30/06 19:10:31  5-MIN KMSN 310110Z 19006KT 9SM CLR 29/24 A2980 980 74 2900 190/06 RMK AO2
14837KMSN MSN20060730191509207/30/06 19:15:31  5-MIN KMSN 310115Z 19007KT 9SM CLR 29/24 A2980 980 74 2900 190/07 RMK AO2
14837KMSN MSN20060730192009207/30/06 19:20:31  5-MIN KMSN 310120Z 19007KT 8SM CLR 29/24 A2980 980 74 2900 190/07 RMK AO2
14837KMSN MSN20060730192509207/30/06 19:25:31  5-MIN KMSN 310125Z 19006KT 8SM CLR 29/24 A2980 980 76 2800 190/06 RMK AO2
14837KMSN MSN20060730193009207/30/06 19:30:31  5-MIN KMSN 310130Z 19007KT 8SM CLR 29/24 A2980 980 76 2800 190/07 RMK AO2
14837KMSN MSN20060730193509207/30/06 19:35:31  5-MIN KMSN 310135Z 19006KT 8SM CLR 29/25 A2980 980 79 2800 190/06 RMK AO2
14837KMSN MSN20060730194009207/30/06 19:40:31  5-MIN KMSN 310140Z 19006KT 8SM CLR 29/25 A2980 980 79 2800 190/06 RMK AO2
14837KMSN MSN20060730194509207/30/06 19:45:31  5-MIN KMSN 310145Z 19006KT 9SM CLR 29/25 A2980 970 79 2800 190/06 RMK AO2
14837KMSN MSN20060730195010907/30/06 19:50:31  5-MIN KMSN 310150Z 19005KT 9SM CLR 29/25 A2980 970 79 2800 180/05 RMK AO2 SLP085 T02890250
14837KMSN MSN20060730195509207/30/06 19:55:31  5-MIN KMSN 310155Z 18006KT 9SM CLR 29/25 A2980 970 79 2800 180/06 RMK AO2
14837KMSN MSN20060730200009207/30/06 20:00:31  5-MIN KMSN 310200Z 19006KT 9SM CLR 29/25 A2980 970 79 2800 190/06 RMK AO2
14837KMSN MSN20060730200509207/30/06 20:05:31  5-MIN KMSN 310205Z 19007KT 9SM CLR 29/25 A2981 970 79 2800 190/07 RMK AO2
14837KMSN MSN20060730201009207/30/06 20:10:31  5-MIN KMSN 310210Z 19006KT 9SM CLR 29/25 A2981 970 79 2800 190/06 RMK AO2
14837KMSN MSN20060730201509207/30/06 20:15:31  5-MIN KMSN 310215Z 19007KT 9SM CLR 29/25 A2981 970 79 2800 190/07 RMK AO2
14837KMSN MSN20060730202009207/30/06 20:20:31  5-MIN KMSN 310220Z 19006KT 9SM CLR 29/25 A2981 970 79 2800 190/06 RMK AO2
14837KMSN MSN20060730202509207/30/06 20:25:31  5-MIN KMSN 310225Z 19006KT 9SM CLR 29/25 A2981 970 79 2800 190/06 RMK AO2
14837KMSN MSN20060730203009207/30/06 20:30:31  5-MIN KMSN 310230Z 18006KT 9SM CLR 28/25 A2981 960 82 2800 180/06 RMK AO2
14837KMSN MSN20060730203509207/30/06 20:35:31  5-MIN KMSN 310235Z 18006KT 9SM CLR 28/25 A2981 960 82 2800 180/06 RMK AO2
14837KMSN MSN20060730204009207/30/06 20:40:31  5-MIN KMSN 310240Z 18006KT 9SM CLR 28/25 A2981 960 82 2800 180/06 RMK AO2
14837KMSN MSN20060730204509207/30/06 20:45:31  5-MIN KMSN 310245Z 18006KT 8SM CLR 28/25 A2981 960 82 2800 180/06 RMK AO2
14837KMSN MSN20060730205011507/30/06 20:50:31  5-MIN KMSN 310250Z 19007KT 8SM CLR 28/25 A2981 970 82 2800 190/07 RMK AO2 SLP089 T02830250 58005
14837KMSN MSN20060730205509207/30/06 20:55:31  5-MIN KMSN 310255Z 19007KT 8SM CLR 28/25 A2981 970 82 2800 190/07 RMK AO2
14837KMSN MSN20060730210009207/30/06 21:00:31  5-MIN KMSN 310300Z 20005KT 8SM CLR 28/25 A2981 970 82 2800 200/05 RMK AO2
14837KMSN MSN20060730210509207/30/06 21:05:31  5-MIN KMSN 310305Z 19008KT 8SM CLR 28/25 A2981 970 82 2800 190/08 RMK AO2
14837KMSN MSN20060730211009207/30/06 21:10:31  5-MIN KMSN 310310Z 19008KT 8SM CLR 28/26 A2980 970 85 2800 190/08 RMK AO2
14837KMSN MSN20060730211509207/30/06 21:15:31  5-MIN KMSN 310315Z 19007KT 8SM CLR 28/26 A2981 970 85 2800 190/07 RMK AO2
14837KMSN MSN20060730212009207/30/06 21:20:31  5-MIN KMSN 310320Z 19007KT 8SM CLR 28/26 A2981 970 85 2800 190/07 RMK AO2
14837KMSN MSN20060730212509207/30/06 21:25:31  5-MIN KMSN 310325Z 19006KT 8SM CLR 28/26 A2981 970 85 2800 190/06 RMK AO2
14837KMSN MSN20060730213009207/30/06 21:30:31  5-MIN KMSN 310330Z 19006KT 8SM CLR 28/26 A2981 970 85 2800 180/06 RMK AO2
14837KMSN MSN20060730213509207/30/06 21:35:31  5-MIN KMSN 310335Z 18006KT 8SM CLR 28/26 A2980 970 87 2700 180/06 RMK AO2
14837KMSN MSN20060730214009207/30/06 21:40:31  5-MIN KMSN 310340Z 18006KT 7SM CLR 28/26 A2980 970 87 2700 180/06 RMK AO2
14837KMSN MSN20060730214509207/30/06 21:45:31  5-MIN KMSN 310345Z 18005KT 7SM CLR 28/26 A2980 970 87 2700 180/05 RMK AO2
14837KMSN MSN20060730215010907/30/06 21:50:31  5-MIN KMSN 310350Z 18006KT 7SM CLR 28/26 A2981 970 87 2700 180/06 RMK AO2 SLP086 T02780256
14837KMSN MSN20060730215509207/30/06 21:55:31  5-MIN KMSN 310355Z 18006KT 7SM CLR 28/26 A2981 970 87 2700 180/06 RMK AO2
14837KMSN MSN20060730220009207/30/06 22:00:31  5-MIN KMSN 310400Z 18007KT 7SM CLR 28/26 A2981 970 87 2700 180/07 RMK AO2
14837KMSN MSN20060730220509207/30/06 22:05:31  5-MIN KMSN 310405Z 18006KT 7SM CLR 28/26 A2980 970 87 2700 180/06 RMK AO2
14837KMSN MSN20060730221009207/30/06 22:10:31  5-MIN KMSN 310410Z 19006KT 7SM CLR 28/26 A2980 970 87 2700 190/06 RMK AO2
14837KMSN MSN20060730221509207/30/06 22:15:31  5-MIN KMSN 310415Z 19006KT 7SM CLR 28/26 A2980 980 87 2700 190/06 RMK AO2
14837KMSN MSN20060730222009207/30/06 22:20:31  5-MIN KMSN 310420Z 18007KT 7SM CLR 28/26 A2980 980 87 2700 180/07 RMK AO2
14837KMSN MSN20060730222509207/30/06 22:25:31  5-MIN KMSN 310425Z 18006KT 7SM CLR 28/26 A2980 980 87 2700 180/06 RMK AO2
14837KMSN MSN20060730223009207/30/06 22:30:31  5-MIN KMSN 310430Z 18006KT 8SM CLR 28/26 A2980 970 87 2700 180/06 RMK AO2
14837KMSN MSN20060730223509207/30/06 22:35:31  5-MIN KMSN 310435Z 17005KT 8SM CLR 28/26 A2980 970 87 2700 170/05 RMK AO2
14837KMSN MSN20060730224009207/30/06 22:40:31  5-MIN KMSN 310440Z 17005KT 7SM CLR 28/26 A2980 980 87 2700 170/05 RMK AO2
14837KMSN MSN20060730224509207/30/06 22:45:31  5-MIN KMSN 310445Z 17006KT 7SM CLR 28/26 A2980 980 87 2700 170/06 RMK AO2
14837KMSN MSN20060730225010907/30/06 22:50:31  5-MIN KMSN 310450Z 18006KT 7SM CLR 28/26 A2980 980 87 2700 180/06 RMK AO2 SLP083 T02780256
14837KMSN MSN20060730225509207/30/06 22:55:31  5-MIN KMSN 310455Z 18006KT 8SM CLR 28/26 A2980 980 87 2700 170/06 RMK AO2
14837KMSN MSN20060730230009207/30/06 23:00:31  5-MIN KMSN 310500Z 17006KT 8SM CLR 27/25 A2980 980 87 2600 170/06 RMK AO2
14837KMSN MSN20060730230509207/30/06 23:05:31  5-MIN KMSN 310505Z 17006KT 8SM CLR 27/25 A2980 980 87 2600 170/06 RMK AO2
14837KMSN MSN20060730231009207/30/06 23:10:31  5-MIN KMSN 310510Z 18006KT 8SM CLR 27/25 A2979 980 87 2600 170/06 RMK AO2
14837KMSN MSN20060730231509207/30/06 23:15:31  5-MIN KMSN 310515Z 18006KT 8SM CLR 28/25 A2979 980 84 2700 180/06 RMK AO2
14837KMSN MSN20060730232009207/30/06 23:20:31  5-MIN KMSN 310520Z 18006KT 9SM CLR 28/25 A2979 980 84 2700 180/06 RMK AO2
14837KMSN MSN20060730232509207/30/06 23:25:31  5-MIN KMSN 310525Z 18006KT 9SM CLR 28/25 A2979 980 82 2800 180/06 RMK AO2
14837KMSN MSN20060730233009207/30/06 23:30:31  5-MIN KMSN 310530Z 19006KT 9SM CLR 28/25 A2979 990 82 2800 190/06 RMK AO2
14837KMSN MSN20060730233509207/30/06 23:35:31  5-MIN KMSN 310535Z 19006KT 9SM CLR 28/24 A2979 990 79 2800 190/06 RMK AO2
14837KMSN MSN20060730234009307/30/06 23:40:31  5-MIN KMSN 310540Z 19009KT 10SM CLR 28/24 A2978 990 79 2800 190/09 RMK AO2
14837KMSN MSN20060730234509307/30/06 23:45:31  5-MIN KMSN 310545Z 18008KT 10SM CLR 28/24 A2978 990 79 2800 180/08 RMK AO2
14837KMSN MSN20060730235013907/30/06 23:50:31  5-MIN KMSN 310550Z 19008KT 10SM CLR 28/24 A2978 1000 79 2800 190/08 RMK AO2 SLP076 T02830244 10306 20272 403110217 53003
14837KMSN MSN20060730235509407/30/06 23:55:31  5-MIN KMSN 310555Z 19009KT 10SM CLR 28/24 A2978 1000 79 2800 190/09 RMK AO2
14837KMSN MSN20060731000009407/31/06 00:00:38  5-MIN KMSN 310600Z 19007KT 10SM CLR 28/24 A2978 1000 79 2800 190/07 RMK AO2
14837KMSN MSN20060731000509407/31/06 00:05:31  5-MIN KMSN 310605Z 19007KT 10SM CLR 28/24 A2977 1000 79 2800 190/07 RMK AO2
14837KMSN MSN20060731001009407/31/06 00:10:31  5-MIN KMSN 310610Z 19008KT 10SM CLR 28/24 A2977 1000 79 2800 190/08 RMK AO2
14837KMSN MSN20060731001509407/31/06 00:15:32  5-MIN KMSN 310615Z 19008KT 10SM CLR 28/24 A2977 1000 79 2800 190/08 RMK AO2
14837KMSN MSN20060731002009407/31/06 00:20:31  5-MIN KMSN 310620Z 20006KT 10SM CLR 28/24 A2977 1000 79 2800 200/06 RMK AO2
14837KMSN MSN20060731002509407/31/06 00:25:31  5-MIN KMSN 310625Z 22005KT 10SM CLR 28/24 A2977 1000 76 2800 220/05 RMK AO2
14837KMSN MSN20060731003009407/31/06 00:30:31  5-MIN KMSN 310630Z 22006KT 10SM CLR 28/24 A2977 1010 79 2700 220/06 RMK AO2
14837KMSN MSN20060731003509407/31/06 00:35:31  5-MIN KMSN 310635Z 21005KT 10SM CLR 28/24 A2976 1010 79 2700 210/05 RMK AO2
14837KMSN MSN20060731004009407/31/06 00:40:31  5-MIN KMSN 310640Z VRB06KT 10SM CLR 28/24 A2976 1010 79 2700 VRB/06 RMK AO2
14837KMSN MSN20060731004509407/31/06 00:45:31  5-MIN KMSN 310645Z VRB04KT 10SM CLR 28/24 A2976 1010 79 2700 VRB/04 RMK AO2
14837KMSN MSN20060731005011107/31/06 00:50:31  5-MIN KMSN 310650Z 23006KT 10SM CLR 28/24 A2976 1010 79 2800 230/06 RMK AO2 SLP070 T02780239
14837KMSN MSN20060731005509407/31/06 00:55:31  5-MIN KMSN 310655Z 22006KT 10SM CLR 28/24 A2976 1020 79 2800 220/06 RMK AO2
14837KMSN MSN20060731010009407/31/06 01:00:31  5-MIN KMSN 310700Z 22005KT 10SM CLR 28/23 A2976 1020 76 2800 220/05 RMK AO2
14837KMSN MSN20060731010509407/31/06 01:05:31  5-MIN KMSN 310705Z VRB06KT 10SM CLR 28/23 A2976 1020 76 2800 VRB/06 RMK AO2
14837KMSN MSN20060731011009407/31/06 01:10:31  5-MIN KMSN 310710Z VRB04KT 10SM CLR 28/23 A2976 1020 76 2800 VRB/04 RMK AO2
14837KMSN MSN20060731011509407/31/06 01:15:31  5-MIN KMSN 310715Z 21005KT 10SM CLR 28/23 A2976 1020 76 2800 210/05 RMK AO2
14837KMSN MSN20060731012009407/31/06 01:20:31  5-MIN KMSN 310720Z VRB06KT 10SM CLR 28/23 A2976 1020 76 2800 VRB/06 RMK AO2
14837KMSN MSN20060731012509407/31/06 01:25:31  5-MIN KMSN 310725Z VRB05KT 10SM CLR 28/23 A2976 1020 76 2800 VRB/05 RMK AO2
14837KMSN MSN20060731013009407/31/06 01:30:31  5-MIN KMSN 310730Z 22005KT 10SM CLR 27/23 A2976 1020 79 2700 220/05 RMK AO2
14837KMSN MSN20060731013509407/31/06 01:35:31  5-MIN KMSN 310735Z 22005KT 10SM CLR 27/23 A2976 1020 79 2700 220/05 RMK AO2
14837KMSN MSN20060731014009407/31/06 01:40:31  5-MIN KMSN 310740Z 23006KT 10SM CLR 27/23 A2976 1020 79 2700 230/06 RMK AO2
14837KMSN MSN20060731014509407/31/06 01:45:31  5-MIN KMSN 310745Z 23006KT 10SM CLR 27/23 A2976 1020 79 2700 230/06 RMK AO2
14837KMSN MSN20060731015011107/31/06 01:50:31  5-MIN KMSN 310750Z VRB03KT 10SM CLR 27/23 A2976 1020 79 2700 VRB/03 RMK AO2 SLP069 T02720233
14837KMSN MSN20060731015509407/31/06 01:55:31  5-MIN KMSN 310755Z VRB04KT 10SM CLR 27/23 A2976 1010 79 2700 VRB/04 RMK AO2
14837KMSN MSN20060731020009407/31/06 02:00:31  5-MIN KMSN 310800Z VRB04KT 10SM CLR 27/23 A2976 1010 76 2700 VRB/04 RMK AO2
14837KMSN MSN20060731020509407/31/06 02:05:31  5-MIN KMSN 310805Z 22004KT 10SM CLR 27/23 A2976 1020 76 2700 220/04 RMK AO2
14837KMSN MSN20060731021009407/31/06 02:10:31  5-MIN KMSN 310810Z 22004KT 10SM CLR 27/23 A2976 1020 76 2700 220/04 RMK AO2
14837KMSN MSN20060731021509407/31/06 02:15:31  5-MIN KMSN 310815Z 20004KT 10SM CLR 27/23 A2976 1010 76 2700 200/04 RMK AO2
14837KMSN MSN20060731022009407/31/06 02:20:31  5-MIN KMSN 310820Z VRB03KT 10SM CLR 27/23 A2976 1010 76 2700 VRB/03 RMK AO2
14837KMSN MSN20060731022509407/31/06 02:25:31  5-MIN KMSN 310825Z 20004KT 10SM CLR 27/23 A2976 1010 79 2600 200/04 RMK AO2
14837KMSN MSN20060731023009407/31/06 02:30:31  5-MIN KMSN 310830Z 20004KT 10SM CLR 27/23 A2976 1010 79 2600 200/04 RMK AO2
14837KMSN MSN20060731023509407/31/06 02:35:31  5-MIN KMSN 310835Z 19004KT 10SM CLR 27/23 A2976 1010 79 2600 190/04 RMK AO2
14837KMSN MSN20060731024009407/31/06 02:40:31  5-MIN KMSN 310840Z 20004KT 10SM CLR 27/23 A2977 1010 79 2600 200/04 RMK AO2
14837KMSN MSN20060731024509407/31/06 02:45:31  5-MIN KMSN 310845Z 19004KT 10SM CLR 27/22 A2977 1010 76 2600 190/04 RMK AO2
14837KMSN MSN20060731025011707/31/06 02:50:31  5-MIN KMSN 310850Z 18004KT 10SM CLR 25/22 A2977 1000 84 2400 180/04 RMK AO2 SLP073 T02500222 58011
14837KMSN MSN20060731025509407/31/06 02:55:31  5-MIN KMSN 310855Z 16004KT 10SM CLR 25/23 A2977 1000 87 2400 160/04 RMK AO2
14837KMSN MSN20060731030009407/31/06 03:00:31  5-MIN KMSN 310900Z 16005KT 10SM CLR 25/23 A2977 1000 87 2400 150/05 RMK AO2
14837KMSN MSN20060731030509407/31/06 03:05:31  5-MIN KMSN 310905Z 15005KT 10SM CLR 25/23 A2978 1000 87 2400 150/05 RMK AO2
14837KMSN MSN20060731031009407/31/06 03:10:31  5-MIN KMSN 310910Z 16007KT 10SM CLR 24/22 A2978 1000 87 2400 160/07 RMK AO2
14837KMSN MSN20060731031509307/31/06 03:15:31  5-MIN KMSN 310915Z 16006KT 10SM CLR 25/23 A2978 990 87 2400 160/06 RMK AO2
14837KMSN MSN20060731032009307/31/06 03:20:31  5-MIN KMSN 310920Z 17005KT 10SM CLR 25/23 A2978 990 87 2400 170/05 RMK AO2
14837KMSN MSN20060731032509307/31/06 03:25:31  5-MIN KMSN 310925Z 17006KT 10SM CLR 25/23 A2978 990 87 2400 170/06 RMK AO2
14837KMSN MSN20060731033009307/31/06 03:30:31  5-MIN KMSN 310930Z 17006KT 10SM CLR 25/23 A2979 990 87 2400 170/06 RMK AO2
14837KMSN MSN20060731033509307/31/06 03:35:31  5-MIN KMSN 310935Z 17006KT 10SM CLR 25/23 A2979 990 87 2400 170/06 RMK AO2
14837KMSN MSN20060731034009307/31/06 03:40:31  5-MIN KMSN 310940Z 17006KT 10SM CLR 25/23 A2979 980 87 2400 170/06 RMK AO2
14837KMSN MSN20060731034509307/31/06 03:45:31  5-MIN KMSN 310945Z 18005KT 10SM CLR 26/23 A2979 980 84 2500 170/05 RMK AO2
14837KMSN MSN20060731035011007/31/06 03:50:31  5-MIN KMSN 310950Z 18005KT 10SM CLR 26/22 A2979 980 81 2500 180/05 RMK AO2 SLP082 T02560222
14837KMSN MSN20060731035509307/31/06 03:55:31  5-MIN KMSN 310955Z 19005KT 10SM CLR 26/22 A2980 980 81 2500 190/05 RMK AO2
14837KMSN MSN20060731040009307/31/06 04:00:31  5-MIN KMSN 311000Z 18004KT 10SM CLR 26/22 A2979 980 81 2500 180/04 RMK AO2
14837KMSN MSN20060731040509307/31/06 04:05:31  5-MIN KMSN 311005Z 18005KT 10SM CLR 26/22 A2980 980 81 2500 180/05 RMK AO2
14837KMSN MSN20060731041009307/31/06 04:10:31  5-MIN KMSN 311010Z 18005KT 10SM CLR 26/22 A2980 980 81 2500 180/05 RMK AO2
14837KMSN MSN20060731041509307/31/06 04:15:31  5-MIN KMSN 311015Z 18005KT 10SM CLR 25/22 A2980 980 84 2400 180/05 RMK AO2
14837KMSN MSN20060731042009307/31/06 04:20:31  5-MIN KMSN 311020Z 18006KT 10SM CLR 25/22 A2980 980 84 2400 180/06 RMK AO2
14837KMSN MSN20060731042509307/31/06 04:25:31  5-MIN KMSN 311025Z 18006KT 10SM CLR 26/22 A2980 980 81 2500 180/06 RMK AO2
14837KMSN MSN20060731043009307/31/06 04:30:31  5-MIN KMSN 311030Z 18006KT 10SM CLR 26/22 A2980 980 81 2500 180/06 RMK AO2
14837KMSN MSN20060731043509307/31/06 04:35:31  5-MIN KMSN 311035Z 19006KT 10SM CLR 26/22 A2980 980 81 2500 190/06 RMK AO2
14837KMSN MSN20060731044009307/31/06 04:40:31  5-MIN KMSN 311040Z 19007KT 10SM CLR 26/22 A2980 980 81 2500 180/07 RMK AO2
14837KMSN MSN20060731044509307/31/06 04:45:31  5-MIN KMSN 311045Z 19006KT 10SM CLR 26/22 A2980 980 81 2500 190/06 RMK AO2
14837KMSN MSN20060731045011007/31/06 04:50:31  5-MIN KMSN 311050Z 19006KT 10SM CLR 25/22 A2980 980 84 2400 190/06 RMK AO2 SLP084 T02500222
14837KMSN MSN20060731045509307/31/06 04:55:31  5-MIN KMSN 311055Z 20006KT 10SM CLR 25/22 A2980 970 84 2400 190/06 RMK AO2
14837KMSN MSN20060731050009307/31/06 05:00:31  5-MIN KMSN 311100Z 19007KT 10SM CLR 26/22 A2980 970 81 2500 190/07 RMK AO2
14837KMSN MSN20060731050509307/31/06 05:05:31  5-MIN KMSN 311105Z 19006KT 10SM CLR 26/22 A2980 970 81 2500 190/06 RMK AO2
14837KMSN MSN20060731051009307/31/06 05:10:31  5-MIN KMSN 311110Z 19006KT 10SM CLR 26/22 A2980 970 81 2500 180/06 RMK AO2
14837KMSN MSN20060731051509307/31/06 05:15:31  5-MIN KMSN 311115Z 19005KT 10SM CLR 26/22 A2981 970 81 2400 190/05 RMK AO2
14837KMSN MSN20060731052009307/31/06 05:20:31  5-MIN KMSN 311120Z 19005KT 10SM CLR 26/22 A2980 970 81 2500 190/05 RMK AO2
14837KMSN MSN20060731052509307/31/06 05:25:31  5-MIN KMSN 311125Z 20003KT 10SM CLR 26/22 A2980 970 79 2500 200/03 RMK AO2
14837KMSN MSN20060731053009307/31/06 05:30:31  5-MIN KMSN 311130Z VRB03KT 10SM CLR 26/22 A2981 970 79 2500 VRB/03 RMK AO2
14837KMSN MSN20060731053509307/31/06 05:35:31  5-MIN KMSN 311135Z 21003KT 10SM CLR 27/22 A2980 970 76 2600 200/03 RMK AO2
14837KMSN MSN20060731054009307/31/06 05:40:31  5-MIN KMSN 311140Z 20004KT 10SM CLR 27/22 A2981 970 76 2600 200/04 RMK AO2
14837KMSN MSN20060731054509307/31/06 05:45:31  5-MIN KMSN 311145Z 20005KT 10SM CLR 27/22 A2981 970 76 2600 200/05 RMK AO2
14837KMSN MSN20060731055013407/31/06 05:50:31  5-MIN KMSN 311150Z 20004KT 10SM CLR 27/22 A2981 970 76 2600 200/04 RMK AO2 SLP086 70001 T02670222 10283 20244 55002
14837KMSN MSN20060731055509307/31/06 05:55:31  5-MIN KMSN 311155Z 18005KT 10SM CLR 27/22 A2981 970 76 2600 180/05 RMK AO2
14837KMSN MSN20060731060009307/31/06 06:00:31  5-MIN KMSN 311200Z 19005KT 10SM CLR 26/22 A2981 970 79 2500 190/05 RMK AO2
14837KMSN MSN20060731060509307/31/06 06:05:31  5-MIN KMSN 311205Z 20004KT 10SM CLR 27/22 A2981 970 76 2600 190/04 RMK AO2
14837KMSN MSN20060731061009307/31/06 06:10:31  5-MIN KMSN 311210Z 19005KT 10SM CLR 26/22 A2981 960 79 2500 190/05 RMK AO2
14837KMSN MSN20060731061509307/31/06 06:15:31  5-MIN KMSN 311215Z 18005KT 10SM CLR 27/22 A2981 970 76 2600 180/05 RMK AO2
14837KMSN MSN20060731062009307/31/06 06:20:31  5-MIN KMSN 311220Z 18005KT 10SM CLR 27/22 A2981 970 74 2600 180/05 RMK AO2
14837KMSN MSN20060731062509307/31/06 06:25:31  5-MIN KMSN 311225Z 18006KT 10SM CLR 27/23 A2981 970 76 2600 180/06 RMK AO2
14837KMSN MSN20060731063009307/31/06 06:30:31  5-MIN KMSN 311230Z 18007KT 10SM CLR 27/22 A2981 970 74 2600 180/07 RMK AO2
14837KMSN MSN20060731063509307/31/06 06:35:31  5-MIN KMSN 311235Z 18007KT 10SM CLR 27/22 A2981 970 74 2600 180/07 RMK AO2
14837KMSN MSN20060731064009307/31/06 06:40:31  5-MIN KMSN 311240Z 19005KT 10SM CLR 27/23 A2981 970 76 2600 180/05 RMK AO2
14837KMSN MSN20060731064509307/31/06 06:45:31  5-MIN KMSN 311245Z 19005KT 10SM CLR 27/23 A2981 970 76 2600 190/05 RMK AO2
14837KMSN MSN20060731065011007/31/06 06:50:31  5-MIN KMSN 311250Z VRB05KT 10SM CLR 28/23 A2981 970 74 2700 VRB/05 RMK AO2 SLP086 T02780228
14837KMSN MSN20060731065509307/31/06 06:55:31  5-MIN KMSN 311255Z 21004KT 10SM CLR 28/23 A2981 960 71 2800 210/04 RMK AO2
14837KMSN MSN20060731070009307/31/06 07:00:31  5-MIN KMSN 311300Z VRB04KT 10SM CLR 28/23 A2981 960 71 2700 VRB/04 RMK AO2
14837KMSN MSN20060731070509607/31/06 07:05:31  5-MIN KMSN 311305Z 20006KT 10SM FEW100 28/22 A2982 960 69 2700 190/06 RMK AO2
14837KMSN MSN20060731071009607/31/06 07:10:31  5-MIN KMSN 311310Z 22006KT 10SM FEW100 29/23 A2982 960 69 2800 220/06 RMK AO2
14837KMSN MSN20060731071509607/31/06 07:15:31  5-MIN KMSN 311315Z 23005KT 10SM SCT100 29/22 A2982 960 67 2800 230/05 RMK AO2
14837KMSN MSN20060731072009607/31/06 07:20:31  5-MIN KMSN 311320Z 22005KT 10SM FEW100 29/22 A2982 960 67 2800 220/05 RMK AO2
14837KMSN MSN20060731072509607/31/06 07:25:31  5-MIN KMSN 311325Z 21006KT 10SM FEW100 29/22 A2982 960 67 2800 210/06 RMK AO2
14837KMSN MSN20060731073009607/31/06 07:30:31  5-MIN KMSN 311330Z VRB06KT 10SM FEW100 29/22 A2982 960 67 2800 VRB/06 RMK AO2
14837KMSN MSN20060731073509607/31/06 07:35:31  5-MIN KMSN 311335Z 22006KT 10SM FEW100 29/22 A2982 960 67 2800 220/06 RMK AO2
14837KMSN MSN20060731074009307/31/06 07:40:31  5-MIN KMSN 311340Z 22004KT 10SM CLR 29/23 A2982 950 69 2800 220/04 RMK AO2
14837KMSN MSN20060731074509307/31/06 07:45:31  5-MIN KMSN 311345Z 23005KT 10SM CLR 29/22 A2982 950 67 2800 220/05 RMK AO2
14837KMSN MSN20060731075011307/31/06 07:50:31  5-MIN KMSN 311350Z 20005KT 10SM FEW100 29/23 A2982 950 69 2800 200/05 RMK AO2 SLP091 T02890228
14837KMSN MSN20060731075509307/31/06 07:55:31  5-MIN KMSN 311355Z 20007KT 10SM CLR 29/22 A2982 960 64 2800 200/07 RMK AO2
14837KMSN MSN20060731080009307/31/06 08:00:31  5-MIN KMSN 311400Z 21007KT 10SM CLR 29/22 A2982 960 64 2900 200/07 RMK AO2
14837KMSN MSN20060731080509307/31/06 08:05:31  5-MIN KMSN 311405Z VRB05KT 10SM CLR 29/22 A2982 950 64 2900 VRB/05 RMK AO2
14837KMSN MSN20060731081009307/31/06 08:10:31  5-MIN KMSN 311410Z 21006KT 10SM CLR 29/23 A2982 950 69 2800 210/06 RMK AO2
14837KMSN MSN20060731081509307/31/06 08:15:31  5-MIN KMSN 311415Z 20006KT 10SM CLR 29/22 A2982 950 67 2800 200/06 RMK AO2
14837KMSN MSN20060731082009307/31/06 08:20:31  5-MIN KMSN 311420Z 19008KT 10SM CLR 30/23 A2982 950 65 2900 190/08 RMK AO2
14837KMSN MSN20060731082509307/31/06 08:25:31  5-MIN KMSN 311425Z 22008KT 10SM CLR 30/22 A2982 960 62 2900 220/08 RMK AO2
14837KMSN MSN20060731083009307/31/06 08:30:31  5-MIN KMSN 311430Z 21006KT 10SM CLR 31/22 A2982 960 60 3000 210/06 RMK AO2
14837KMSN MSN20060731083509307/31/06 08:35:31  5-MIN KMSN 311435Z 22007KT 10SM CLR 31/22 A2982 960 60 3000 220/07 RMK AO2
14837KMSN MSN20060731084009307/31/06 08:40:31  5-MIN KMSN 311440Z 21007KT 10SM CLR 31/22 A2982 960 60 3000 210/07 RMK AO2
14837KMSN MSN20060731084509307/31/06 08:45:31  5-MIN KMSN 311445Z 20007KT 10SM CLR 31/22 A2982 960 60 3000 200/07 RMK AO2
14837KMSN MSN20060731085011607/31/06 08:50:31  5-MIN KMSN 311450Z 20009KT 10SM CLR 31/23 A2981 960 62 3000 200/09 RMK AO2 SLP088 T03060228 51013
14837KMSN MSN20060731085509307/31/06 08:55:31  5-MIN KMSN 311455Z 19008KT 10SM CLR 31/22 A2981 960 58 3100 190/08 RMK AO2
14837KMSN MSN20060731090009307/31/06 09:00:31  5-MIN KMSN 311500Z 22007KT 10SM CLR 31/22 A2981 960 58 3100 220/07 RMK AO2
14837KMSN MSN20060731090509307/31/06 09:05:31  5-MIN KMSN 311505Z 19010KT 10SM CLR 31/23 A2981 970 60 3100 190/10 RMK AO2
14837KMSN MSN20060731091009307/31/06 09:10:31  5-MIN KMSN 311510Z 21007KT 10SM CLR 31/22 A2981 970 60 3000 210/07 RMK AO2
14837KMSN MSN20060731091509307/31/06 09:15:31  5-MIN KMSN 311515Z 19008KT 10SM CLR 31/22 A2981 970 60 3000 190/08 RMK AO2
14837KMSN MSN20060731092010907/31/06 09:20:31  5-MIN KMSN 311520Z 20007KT 170V230 10SM CLR 31/22 A2981 970 58 3100 200/07 170V230 RMK AO2
14837KMSN MSN20060731092509307/31/06 09:25:31  5-MIN KMSN 311525Z 19010KT 10SM CLR 32/23 A2981 970 58 3100 190/10 RMK AO2
14837KMSN MSN20060731093009307/31/06 09:30:31  5-MIN KMSN 311530Z 19008KT 10SM CLR 32/22 A2981 970 56 3100 190/08 RMK AO2
14837KMSN MSN20060731093509307/31/06 09:35:31  5-MIN KMSN 311535Z 19009KT 10SM CLR 32/23 A2981 970 57 3200 190/09 RMK AO2
14837KMSN MSN20060731094009307/31/06 09:40:31  5-MIN KMSN 311540Z 20007KT 10SM CLR 32/22 A2981 970 56 3100 200/07 RMK AO2
14837KMSN MSN20060731094509307/31/06 09:45:31  5-MIN KMSN 311545Z 21007KT 10SM CLR 32/22 A2981 970 55 3200 210/07 RMK AO2
14837KMSN MSN20060731095011007/31/06 09:50:31  5-MIN KMSN 311550Z 22007KT 10SM CLR 32/22 A2981 970 55 3200 220/07 RMK AO2 SLP085 T03220222
14837KMSN MSN20060731095509307/31/06 09:55:31  5-MIN KMSN 311555Z 21006KT 10SM CLR 32/23 A2981 970 57 3200 210/06 RMK AO2
14837KMSN MSN20060731100009307/31/06 10:00:31  5-MIN KMSN 311600Z 21008KT 10SM CLR 31/22 A2981 970 58 3100 210/08 RMK AO2
14837KMSN MSN20060731100510907/31/06 10:05:31  5-MIN KMSN 311605Z 20009KT 180V260 10SM CLR 32/22 A2980 970 56 3100 190/09 180V260 RMK AO2
14837KMSN MSN20060731101009307/31/06 10:10:31  5-MIN KMSN 311610Z 21007KT 10SM CLR 32/22 A2980 970 55 3200 210/07 RMK AO2
14837KMSN MSN20060731101509307/31/06 10:15:31  5-MIN KMSN 311615Z 19010KT 10SM CLR 33/23 A2980 980 55 3300 190/10 RMK AO2
14837KMSN MSN20060731102009907/31/06 10:20:31  5-MIN KMSN 311620Z 20008G14KT 10SM CLR 33/22 A2980 980 53 3300 200/08G14 RMK AO2
14837KMSN MSN20060731102509907/31/06 10:25:31  5-MIN KMSN 311625Z 20009G14KT 10SM CLR 33/23 A2980 980 55 3300 200/09G14 RMK AO2
14837KMSN MSN20060731103009307/31/06 10:30:31  5-MIN KMSN 311630Z 19011KT 10SM CLR 33/23 A2980 980 55 3300 190/11 RMK AO2
14837KMSN MSN20060731103509307/31/06 10:35:31  5-MIN KMSN 311635Z 22009KT 10SM CLR 33/22 A2980 980 53 3300 220/09 RMK AO2
14837KMSN MSN20060731104009307/31/06 10:40:31  5-MIN KMSN 311640Z 20010KT 10SM CLR 33/23 A2980 980 53 3300 200/10 RMK AO2
14837KMSN MSN20060731104509307/31/06 10:45:31  5-MIN KMSN 311645Z 22008KT 10SM CLR 32/23 A2980 980 58 3100 210/08 RMK AO2
14837KMSN MSN20060731105012607/31/06 10:50:31  5-MIN KMSN 311650Z 21008KT 170V240 10SM CLR 33/22 A2980 980 53 3300 210/08 170V240 RMK AO2 SLP081 T03280222
14837KMSN MSN20060731105509307/31/06 10:55:31  5-MIN KMSN 311655Z 20007KT 10SM CLR 33/23 A2980 980 53 3300 200/07 RMK AO2
14837KMSN MSN20060731110009307/31/06 11:00:31  5-MIN KMSN 311700Z 20009KT 10SM CLR 33/23 A2980 980 53 3300 200/09 RMK AO2
14837KMSN MSN20060731110509307/31/06 11:05:31  5-MIN KMSN 311705Z 20007KT 10SM CLR 33/23 A2980 980 53 3300 200/07 RMK AO2
14837KMSN MSN20060731111009307/31/06 11:10:31  5-MIN KMSN 311710Z 19011KT 10SM CLR 33/23 A2980 980 53 3300 190/11 RMK AO2
14837KMSN MSN20060731111509307/31/06 11:15:31  5-MIN KMSN 311715Z 20010KT 10SM CLR 33/23 A2980 980 53 3300 200/10 RMK AO2
14837KMSN MSN20060731112009307/31/06 11:20:31  5-MIN KMSN 311720Z 20008KT 10SM CLR 33/23 A2979 980 53 3300 200/08 RMK AO2
14837KMSN MSN20060731112509307/31/06 11:25:31  5-MIN KMSN 311725Z 21008KT 10SM CLR 34/23 A2979 980 51 3400 210/08 RMK AO2
14837KMSN MSN20060731113009307/31/06 11:30:31  5-MIN KMSN 311730Z 20006KT 10SM CLR 33/23 A2979 990 55 3300 200/06 RMK AO2
14837KMSN MSN20060731113510907/31/06 11:35:31  5-MIN KMSN 311735Z 21008KT 180V240 10SM CLR 33/23 A2979 990 53 3300 210/08 180V240 RMK AO2
14837KMSN MSN20060731114009907/31/06 11:40:31  5-MIN KMSN 311740Z 21008G15KT 10SM CLR 34/23 A2979 990 51 3400 210/08G15 RMK AO2
14837KMSN MSN20060731114509307/31/06 11:45:31  5-MIN KMSN 311745Z 21010KT 10SM CLR 34/23 A2979 990 51 3400 210/10 RMK AO2
14837KMSN MSN20060731115012807/31/06 11:50:31  5-MIN KMSN 311750Z 19012KT 10SM CLR 34/22 A2979 990 50 3400 190/12 RMK AO2 SLP077 T03390222 10339 20261 50001
14837KMSN MSN20060731115510907/31/06 11:55:31  5-MIN KMSN 311755Z 21009KT 170V230 10SM CLR 34/23 A2978 990 51 3400 200/09 170V230 RMK AO2
14837KMSN MSN20060731120009307/31/06 12:00:31  5-MIN KMSN 311800Z 20009KT 10SM CLR 34/23 A2978 990 53 3400 200/09 RMK AO2
14837KMSN MSN20060731120509907/31/06 12:05:31  5-MIN KMSN 311805Z 21009G15KT 10SM CLR 34/23 A2978 990 51 3400 210/09G15 RMK AO2
14837KMSN MSN20060731121009907/31/06 12:10:31  5-MIN KMSN 311810Z 21011G17KT 10SM CLR 34/22 A2978 990 50 3400 210/11G17 RMK AO2
14837KMSN MSN20060731121509907/31/06 12:15:31  5-MIN KMSN 311815Z 21012G17KT 10SM CLR 34/22 A2979 990 48 3500 210/12G17 RMK AO2
14837KMSN MSN20060731122009307/31/06 12:20:31  5-MIN KMSN 311820Z 22011KT 10SM CLR 34/22 A2978 990 50 3400 220/11 RMK AO2
14837KMSN MSN20060731122509307/31/06 12:25:31  5-MIN KMSN 311825Z 22009KT 10SM CLR 34/22 A2978 990 50 3400 210/09 RMK AO2
14837KMSN MSN20060731123009907/31/06 12:30:31  5-MIN KMSN 311830Z 19013G17KT 10SM CLR 34/22 A2978 990 50 3400 190/13G17 RMK AO2
14837KMSN MSN20060731123509907/31/06 12:35:31  5-MIN KMSN 311835Z 20012G17KT 10SM CLR 34/22 A2978 990 48 3500 200/12G17 RMK AO2
14837KMSN MSN20060731124009307/31/06 12:40:31  5-MIN KMSN 311840Z 21009KT 10SM CLR 34/22 A2978 990 48 3500 210/09 RMK AO2
14837KMSN MSN20060731124509307/31/06 12:45:31  5-MIN KMSN 311845Z 21010KT 10SM CLR 34/23 A2978 990 50 3500 210/10 RMK AO2
14837KMSN MSN20060731125011007/31/06 12:50:31  5-MIN KMSN 311850Z 21010KT 10SM CLR 34/23 A2978 990 50 3500 210/10 RMK AO2 SLP075 T03440228
14837KMSN MSN20060731125509307/31/06 12:55:31  5-MIN KMSN 311855Z 22009KT 10SM CLR 34/22 A2978 990 48 3500 210/09 RMK AO2
14837KMSN MSN20060731130010907/31/06 13:00:31  5-MIN KMSN 311900Z 20012KT 170V240 10SM CLR 34/22 A2978 990 46 3500 200/12 170V240 RMK AO2
14837KMSN MSN20060731130509907/31/06 13:05:31  5-MIN KMSN 311905Z 23009G15KT 10SM CLR 34/22 A2978 990 48 3500 230/09G15 RMK AO2
14837KMSN MSN20060731131009907/31/06 13:10:31  5-MIN KMSN 311910Z 22012G16KT 10SM CLR 34/22 A2978 990 46 3500 220/12G16 RMK AO2
14837KMSN MSN20060731131509907/31/06 13:15:31  5-MIN KMSN 311915Z 20009G16KT 10SM CLR 34/22 A2978 990 46 3500 200/09G16 RMK AO2
14837KMSN MSN20060731132011507/31/06 13:20:31  5-MIN KMSN 311920Z 22010G16KT 180V240 10SM CLR 35/22 A2978 990 47 3500 220/10G16 180V240 RMK AO2
14837KMSN MSN20060731132509907/31/06 13:25:31  5-MIN KMSN 311925Z 20011G18KT 10SM CLR 35/22 A2978 990 47 3500 200/11G18 RMK AO2
14837KMSN MSN20060731133009907/31/06 13:30:31  5-MIN KMSN 311930Z 21011G18KT 10SM CLR 35/21 A2978 990 43 3500 210/11G18 RMK AO2
14837KMSN MSN20060731133509307/31/06 13:35:31  5-MIN KMSN 311935Z 22010KT 10SM CLR 35/21 A2978 990 43 3500 220/10 RMK AO2
14837KMSN MSN20060731134011507/31/06 13:40:31  5-MIN KMSN 311940Z 21010G15KT 180V240 10SM CLR 34/22 A2978 990 48 3500 210/10G15 180V240 RMK AO2
14837KMSN MSN20060731134509907/31/06 13:45:31  5-MIN KMSN 311945Z 22012G15KT 10SM CLR 35/22 A2978 990 45 3500 220/12G15 RMK AO2
14837KMSN MSN20060731135011007/31/06 13:50:31  5-MIN KMSN 311950Z 22011KT 10SM CLR 34/22 A2978 990 46 3500 220/11 RMK AO2 SLP076 T03440217
14837KMSN MSN20060731135510907/31/06 13:55:31  5-MIN KMSN 311955Z 21010KT 190V250 10SM CLR 35/22 A2978 990 45 3500 210/10 190V250 RMK AO2
14837KMSN MSN20060731140009907/31/06 14:00:31  5-MIN KMSN 312000Z 21010G17KT 10SM CLR 34/22 A2978 990 46 3500 210/10G17 RMK AO2
14837KMSN MSN20060731140511507/31/06 14:05:31  5-MIN KMSN 312005Z 22011G17KT 180V250 10SM CLR 35/22 A2978 990 45 3500 220/11G17 180V250 RMK AO2
14837KMSN MSN20060731141009307/31/06 14:10:31  5-MIN KMSN 312010Z 23012KT 10SM CLR 35/21 A2978 990 43 3500 230/12 RMK AO2
14837KMSN MSN20060731141509907/31/06 14:15:31  5-MIN KMSN 312015Z 20012G16KT 10SM CLR 35/21 A2978 990 43 3500 200/12G16 RMK AO2
14837KMSN MSN20060731142009907/31/06 14:20:31  5-MIN KMSN 312020Z 22012G18KT 10SM CLR 35/21 A2978 990 43 3500 210/12G18 RMK AO2
14837KMSN MSN20060731142509907/31/06 14:25:31  5-MIN KMSN 312025Z 21011G18KT 10SM CLR 35/21 A2978 990 43 3500 210/11G18 RMK AO2
14837KMSN MSN20060731143009407/31/06 14:30:31  5-MIN KMSN 312030Z 20012KT 10SM CLR 35/21 A2978 1000 43 3500 200/12 RMK AO2
14837KMSN MSN20060731143510007/31/06 14:35:31  5-MIN KMSN 312035Z 20012G16KT 10SM CLR 35/21 A2978 1000 43 3500 190/12G16 RMK AO2
14837KMSN MSN20060731144010307/31/06 14:40:31  5-MIN KMSN 312040Z 21011G16KT 10SM FEW055 35/21 A2978 1000 43 3500 200/11G16 RMK AO2
14837KMSN MSN20060731144510307/31/06 14:45:31  5-MIN KMSN 312045Z 23011G16KT 10SM FEW055 35/21 A2978 1000 42 3500 220/11G16 RMK AO2
14837KMSN MSN20060731145012607/31/06 14:50:31  5-MIN KMSN 312050Z 22010G16KT 10SM FEW055 34/21 A2978 1000 43 3500 220/10G16 RMK AO2 SLP075 T03440206 58009
14837KMSN MSN20060731145510007/31/06 14:55:31  5-MIN KMSN 312055Z 22009G16KT 10SM CLR 35/21 A2977 1000 43 3500 220/09G16 RMK AO2
14837KMSN MSN20060731150009407/31/06 15:00:31  5-MIN KMSN 312100Z 20011KT 10SM CLR 35/21 A2977 1000 43 3500 200/11 RMK AO2
14837KMSN MSN20060731150509707/31/06 15:05:31  5-MIN KMSN 312105Z 20011KT 10SM FEW055 35/22 A2978 1000 45 3500 200/11 RMK AO2
14837KMSN MSN20060731151010307/31/06 15:10:31  5-MIN KMSN 312110Z 21011G15KT 10SM FEW055 35/22 A2978 1000 45 3500 210/11G15 RMK AO2
14837KMSN MSN20060731151511807/31/06 15:15:31  5-MIN KMSN 312115Z 22012G15KT 180V250 10SM FEW055 35/20 A2978 990 40 3500 220/12G15 180V250 RMK AO2
14837KMSN MSN20060731152010307/31/06 15:20:31  5-MIN KMSN 312120Z 21011G17KT 10SM FEW055 34/20 A2978 1000 42 3500 210/11G17 RMK AO2
14837KMSN MSN20060731152510307/31/06 15:25:31  5-MIN KMSN 312125Z 21010G17KT 10SM FEW055 34/21 A2978 1000 45 3500 210/10G17 RMK AO2
14837KMSN MSN20060731153010307/31/06 15:30:31  5-MIN KMSN 312130Z 20011G17KT 10SM FEW055 35/22 A2978 1000 45 3500 200/11G17 RMK AO2
14837KMSN MSN20060731153510307/31/06 15:35:31  5-MIN KMSN 312135Z 20013G17KT 10SM FEW055 34/21 A2978 1000 45 3500 200/13G17 RMK AO2
14837KMSN MSN20060731154009707/31/06 15:40:31  5-MIN KMSN 312140Z 21009KT 10SM FEW055 34/21 A2978 1000 45 3500 200/09 RMK AO2
14837KMSN MSN20060731154509407/31/06 15:45:31  5-MIN KMSN 312145Z 20009KT 10SM CLR 34/21 A2978 1000 45 3500 200/09 RMK AO2
14837KMSN MSN20060731155011107/31/06 15:50:31  5-MIN KMSN 312150Z 19011KT 10SM CLR 34/21 A2978 1000 45 3500 190/11 RMK AO2 SLP074 T03440211
14837KMSN MSN20060731155509407/31/06 15:55:31  5-MIN KMSN 312155Z 22010KT 10SM CLR 34/21 A2977 1000 45 3500 210/10 RMK AO2
14837KMSN MSN20060731160009407/31/06 16:00:31  5-MIN KMSN 312200Z 21009KT 10SM CLR 34/21 A2977 1000 45 3500 210/09 RMK AO2
14837KMSN MSN20060731160510007/31/06 16:05:31  5-MIN KMSN 312205Z 19011G16KT 10SM CLR 34/21 A2977 1000 45 3500 190/11G16 RMK AO2
14837KMSN MSN20060731161010007/31/06 16:10:31  5-MIN KMSN 312210Z 21009G16KT 10SM CLR 34/21 A2977 1000 45 3500 210/09G16 RMK AO2
14837KMSN MSN20060731161509407/31/06 16:15:31  5-MIN KMSN 312215Z VRB06KT 10SM CLR 34/22 A2977 1000 46 3500 VRB/06 RMK AO2
14837KMSN MSN20060731162009407/31/06 16:20:31  5-MIN KMSN 312220Z 19012KT 10SM CLR 34/22 A2977 1000 46 3500 190/12 RMK AO2
14837KMSN MSN20060731162511007/31/06 16:25:31  5-MIN KMSN 312225Z 21008KT 180V240 10SM CLR 34/22 A2977 1000 48 3400 210/08 180V240 RMK AO2
14837KMSN MSN20060731163010007/31/06 16:30:31  5-MIN KMSN 312230Z 21010G15KT 10SM CLR 34/22 A2977 1000 48 3400 210/10G15 RMK AO2
14837KMSN MSN20060731163509407/31/06 16:35:31  5-MIN KMSN 312235Z 21008KT 10SM CLR 34/22 A2977 1000 46 3500 210/08 RMK AO2
14837KMSN MSN20060731164011607/31/06 16:40:31  5-MIN KMSN 312240Z 22010G18KT 180V240 10SM CLR 34/21 A2977 1000 46 3400 220/10G18 180V240 RMK AO2
14837KMSN MSN20060731164510007/31/06 16:45:31  5-MIN KMSN 312245Z 20008G18KT 10SM CLR 34/22 A2977 1000 48 3400 200/08G18 RMK AO2
14837KMSN MSN20060731165011107/31/06 16:50:31  5-MIN KMSN 312250Z 22009KT 10SM CLR 34/22 A2977 1000 48 3400 220/09 RMK AO2 SLP073 T03390217
14837KMSN MSN20060731165510007/31/06 16:55:31  5-MIN KMSN 312255Z 21010G17KT 10SM CLR 34/22 A2977 1000 48 3400 210/10G17 RMK AO2
14837KMSN MSN20060731170010007/31/06 17:00:31  5-MIN KMSN 312300Z 20011G17KT 10SM CLR 34/22 A2977 1000 48 3400 200/11G17 RMK AO2
14837KMSN MSN20060731170509407/31/06 17:05:31  5-MIN KMSN 312305Z 20012KT 10SM CLR 34/22 A2977 1000 48 3400 200/12 RMK AO2
14837KMSN MSN20060731171010007/31/06 17:10:31  5-MIN KMSN 312310Z 21009G16KT 10SM CLR 34/22 A2977 1000 48 3400 210/09G16 RMK AO2
14837KMSN MSN20060731171509407/31/06 17:15:31  5-MIN KMSN 312315Z 20008KT 10SM CLR 33/22 A2977 1000 50 3300 200/08 RMK AO2
14837KMSN MSN20060731172009407/31/06 17:20:31  5-MIN KMSN 312320Z 20009KT 10SM CLR 33/21 A2977 1000 48 3300 200/09 RMK AO2
14837KMSN MSN20060731172510007/31/06 17:25:31  5-MIN KMSN 312325Z 21010G16KT 10SM CLR 33/21 A2977 1000 48 3300 210/10G16 RMK AO2
14837KMSN MSN20060731173011607/31/06 17:30:31  5-MIN KMSN 312330Z 21010G16KT 180V250 10SM CLR 33/21 A2977 1000 48 3300 210/10G16 180V250 RMK AO2
14837KMSN MSN20060731173510007/31/06 17:35:31  5-MIN KMSN 312335Z 21010G15KT 10SM CLR 33/21 A2977 1000 48 3300 210/10G15 RMK AO2
14837KMSN MSN20060731174009407/31/06 17:40:31  5-MIN KMSN 312340Z 21009KT 10SM CLR 33/21 A2978 1000 48 3300 210/09 RMK AO2
14837KMSN MSN20060731174511007/31/06 17:45:31  5-MIN KMSN 312345Z 21009KT 170V240 10SM CLR 33/21 A2978 1000 48 3300 210/09 170V240 RMK AO2
14837KMSN MSN20060731175013507/31/06 17:50:31  5-MIN KMSN 312350Z 21007G14KT 10SM CLR 33/21 A2978 1000 48 3300 210/07G14 RMK AO2 SLP075 T03330211 10350 20333 58003
14837KMSN MSN20060731175510007/31/06 17:55:31  5-MIN KMSN 312355Z 21007G14KT 10SM CLR 33/21 A2978 1000 49 3300 210/07G14 RMK AO2
14837KMSN MSN20060731180009407/31/06 18:00:31  5-MIN KMSN 010000Z 21007KT 10SM CLR 33/21 A2978 1000 49 3300 210/07 RMK AO2
14837KMSN MSN20060731180510007/31/06 18:05:31  5-MIN KMSN 010005Z 20010G16KT 10SM CLR 33/21 A2978 1000 48 3300 200/10G16 RMK AO2
14837KMSN MSN20060731181010007/31/06 18:10:31  5-MIN KMSN 010010Z 21007G16KT 10SM CLR 33/22 A2978 1000 51 3300 210/07G16 RMK AO2
14837KMSN MSN20060731181509307/31/06 18:15:31  5-MIN KMSN 010015Z 20007KT 10SM CLR 33/22 A2978 990 51 3300 200/07 RMK AO2
14837KMSN MSN20060731182009307/31/06 18:20:31  5-MIN KMSN 010020Z 21008KT 10SM CLR 33/22 A2978 990 51 3300 210/08 RMK AO2
14837KMSN MSN20060731182510907/31/06 18:25:31  5-MIN KMSN 010025Z 21007KT 170V240 10SM CLR 32/22 A2978 990 53 3200 210/07 170V240 RMK AO2
14837KMSN MSN20060731183009307/31/06 18:30:31  5-MIN KMSN 010030Z 21008KT 10SM CLR 32/22 A2978 990 53 3200 210/08 RMK AO2
14837KMSN MSN20060731183509307/31/06 18:35:31  5-MIN KMSN 010035Z 20010KT 10SM CLR 32/22 A2978 990 53 3200 200/10 RMK AO2
14837KMSN MSN20060731184009307/31/06 18:40:31  5-MIN KMSN 010040Z 19008KT 10SM CLR 32/22 A2978 990 53 3200 190/08 RMK AO2
14837KMSN MSN20060731184509407/31/06 18:45:31  5-MIN KMSN 010045Z 19010KT 10SM CLR 32/22 A2978 1000 56 3200 190/10 RMK AO2
14837KMSN MSN20060731185011107/31/06 18:50:31  5-MIN KMSN 010050Z 18009KT 10SM CLR 32/22 A2978 1000 56 3200 180/09 RMK AO2 SLP075 T03170222
14837KMSN MSN20060731185509407/31/06 18:55:31  5-MIN KMSN 010055Z 18009KT 10SM CLR 32/23 A2978 1000 58 3200 180/09 RMK AO2
14837KMSN MSN20060731190009407/31/06 19:00:31  5-MIN KMSN 010100Z 19009KT 10SM CLR 31/23 A2977 1000 60 3100 190/09 RMK AO2
14837KMSN MSN20060731190509407/31/06 19:05:31  5-MIN KMSN 010105Z 18010KT 10SM CLR 31/23 A2977 1000 63 3100 180/10 RMK AO2
14837KMSN MSN20060731191009407/31/06 19:10:31  5-MIN KMSN 010110Z 19009KT 10SM CLR 31/23 A2978 1000 63 3100 190/09 RMK AO2
14837KMSN MSN20060731191509407/31/06 19:15:31  5-MIN KMSN 010115Z 19008KT 10SM CLR 31/24 A2978 1000 65 3100 180/08 RMK AO2
14837KMSN MSN20060731192009407/31/06 19:20:31  5-MIN KMSN 010120Z 19008KT 10SM CLR 31/24 A2977 1000 67 3000 190/08 RMK AO2
14837KMSN MSN20060731192509407/31/06 19:25:31  5-MIN KMSN 010125Z 19009KT 10SM CLR 29/24 A2978 1000 71 2900 190/09 RMK AO2
14837KMSN MSN20060731193009407/31/06 19:30:31  5-MIN KMSN 010130Z 19011KT 10SM CLR 31/24 A2978 1000 67 3000 190/11 RMK AO2
14837KMSN MSN20060731193509407/31/06 19:35:31  5-MIN KMSN 010135Z 19009KT 10SM CLR 31/24 A2978 1000 67 3000 180/09 RMK AO2
14837KMSN MSN20060731194009307/31/06 19:40:31  5-MIN KMSN 010140Z 19008KT 10SM CLR 31/24 A2978 990 67 3000 190/08 RMK AO2
14837KMSN MSN20060731194509307/31/06 19:45:31  5-MIN KMSN 010145Z 19009KT 10SM CLR 31/24 A2978 990 67 3000 190/09 RMK AO2
14837KMSN MSN20060731195011007/31/06 19:50:31  5-MIN KMSN 010150Z 19009KT 10SM CLR 31/24 A2978 990 67 3000 190/09 RMK AO2 SLP077 T03060239
14837KMSN MSN20060731195509307/31/06 19:55:31  5-MIN KMSN 010155Z 19010KT 10SM CLR 31/24 A2978 990 67 3000 190/10 RMK AO2
14837KMSN MSN20060731200009307/31/06 20:00:31  5-MIN KMSN 010200Z 19010KT 10SM CLR 31/24 A2978 990 67 3000 190/10 RMK AO2
14837KMSN MSN20060731200509307/31/06 20:05:31  5-MIN KMSN 010205Z 19009KT 10SM CLR 31/24 A2979 990 67 3000 190/09 RMK AO2
14837KMSN MSN20060731201009307/31/06 20:10:31  5-MIN KMSN 010210Z 19009KT 10SM CLR 31/24 A2979 980 67 3000 180/09 RMK AO2
14837KMSN MSN20060731201509307/31/06 20:15:31  5-MIN KMSN 010215Z 19009KT 10SM CLR 30/24 A2979 980 69 3000 190/09 RMK AO2
14837KMSN MSN20060731202009307/31/06 20:20:31  5-MIN KMSN 010220Z 19010KT 10SM CLR 30/24 A2979 980 69 3000 180/10 RMK AO2
14837KMSN MSN20060731202509307/31/06 20:25:31  5-MIN KMSN 010225Z 19009KT 10SM CLR 30/24 A2980 980 69 3000 180/09 RMK AO2
14837KMSN MSN20060731203009307/31/06 20:30:31  5-MIN KMSN 010230Z 18009KT 10SM CLR 30/24 A2980 980 69 3000 180/09 RMK AO2
14837KMSN MSN20060731203509307/31/06 20:35:31  5-MIN KMSN 010235Z 19009KT 10SM CLR 30/24 A2980 980 69 3000 190/09 RMK AO2
14837KMSN MSN20060731204009307/31/06 20:40:31  5-MIN KMSN 010240Z 18008KT 10SM CLR 30/24 A2980 980 69 3000 180/08 RMK AO2
14837KMSN MSN20060731204509307/31/06 20:45:31  5-MIN KMSN 010245Z 18009KT 10SM CLR 29/24 A2980 970 71 2900 180/09 RMK AO2
14837KMSN MSN20060731205011607/31/06 20:50:31  5-MIN KMSN 010250Z 19009KT 10SM CLR 29/24 A2980 970 71 2900 180/09 RMK AO2 SLP084 T02940239 53001
14837KMSN MSN20060731205509307/31/06 20:55:31  5-MIN KMSN 010255Z 19010KT 10SM CLR 29/24 A2981 970 71 2900 190/10 RMK AO2
14837KMSN MSN20060731210009307/31/06 21:00:31  5-MIN KMSN 010300Z 19009KT 10SM CLR 29/24 A2981 970 71 2900 190/09 RMK AO2
14837KMSN MSN20060731210509307/31/06 21:05:31  5-MIN KMSN 010305Z 19009KT 10SM CLR 29/24 A2981 970 71 2900 190/09 RMK AO2
14837KMSN MSN20060731211009307/31/06 21:10:31  5-MIN KMSN 010310Z 19009KT 10SM CLR 29/24 A2981 970 71 2900 180/09 RMK AO2
14837KMSN MSN20060731211509307/31/06 21:15:31  5-MIN KMSN 010315Z 19008KT 10SM CLR 29/23 A2981 960 69 2900 190/08 RMK AO2
14837KMSN MSN20060731212009307/31/06 21:20:31  5-MIN KMSN 010320Z 19008KT 10SM CLR 29/23 A2981 960 69 2900 190/08 RMK AO2
14837KMSN MSN20060731212509307/31/06 21:25:31  5-MIN KMSN 010325Z 19009KT 10SM CLR 29/23 A2982 960 69 2900 190/09 RMK AO2
14837KMSN MSN20060731213009307/31/06 21:30:31  5-MIN KMSN 010330Z 19009KT 10SM CLR 29/23 A2982 960 69 2900 190/09 RMK AO2
14837KMSN MSN20060731213509307/31/06 21:35:31  5-MIN KMSN 010335Z 19008KT 10SM CLR 29/23 A2982 960 69 2900 190/08 RMK AO2
14837KMSN MSN20060731214009307/31/06 21:40:31  5-MIN KMSN 010340Z 19009KT 10SM CLR 29/23 A2982 960 69 2900 190/09 RMK AO2
14837KMSN MSN20060731214509307/31/06 21:45:31  5-MIN KMSN 010345Z 19009KT 10SM CLR 29/23 A2982 960 69 2900 180/09 RMK AO2
14837KMSN MSN20060731215011007/31/06 21:50:31  5-MIN KMSN 010350Z 18009KT 10SM CLR 29/23 A2982 960 69 2900 180/09 RMK AO2 SLP089 T02940233
14837KMSN MSN20060731215509307/31/06 21:55:31  5-MIN KMSN 010355Z 19009KT 10SM CLR 29/23 A2982 960 71 2800 190/09 RMK AO2
14837KMSN MSN20060731220009307/31/06 22:00:31  5-MIN KMSN 010400Z 19007KT 10SM CLR 29/23 A2982 960 71 2800 180/07 RMK AO2
14837KMSN MSN20060731220509307/31/06 22:05:31  5-MIN KMSN 010405Z 19007KT 10SM CLR 28/23 A2982 960 74 2700 190/07 RMK AO2
14837KMSN MSN20060731221009307/31/06 22:10:31  5-MIN KMSN 010410Z 19007KT 10SM CLR 28/23 A2982 950 74 2700 190/07 RMK AO2
14837KMSN MSN20060731221509307/31/06 22:15:31  5-MIN KMSN 010415Z 19007KT 10SM CLR 29/23 A2982 950 71 2800 190/07 RMK AO2
14837KMSN MSN20060731222009307/31/06 22:20:31  5-MIN KMSN 010420Z 19008KT 10SM CLR 29/23 A2982 950 71 2800 180/08 RMK AO2
14837KMSN MSN20060731222509307/31/06 22:25:31  5-MIN KMSN 010425Z 18008KT 10SM CLR 29/23 A2982 950 71 2800 180/08 RMK AO2
14837KMSN MSN20060731223009307/31/06 22:30:31  5-MIN KMSN 010430Z 19008KT 10SM CLR 29/24 A2982 950 74 2800 190/08 RMK AO2
14837KMSN MSN20060731223509307/31/06 22:35:31  5-MIN KMSN 010435Z 18008KT 10SM CLR 29/23 A2982 950 71 2800 180/08 RMK AO2
14837KMSN MSN20060731224009307/31/06 22:40:31  5-MIN KMSN 010440Z 19008KT 10SM CLR 29/24 A2982 950 74 2800 190/08 RMK AO2
14837KMSN MSN20060731224509307/31/06 22:45:31  5-MIN KMSN 010445Z 19008KT 10SM CLR 28/24 A2982 950 76 2700 190/08 RMK AO2
14837KMSN MSN20060731225011007/31/06 22:50:31  5-MIN KMSN 010450Z 19008KT 10SM CLR 29/24 A2983 950 74 2800 190/08 RMK AO2 SLP091 T02890239
14837KMSN MSN20060731225509307/31/06 22:55:31  5-MIN KMSN 010455Z 19006KT 10SM CLR 29/23 A2983 950 71 2800 190/06 RMK AO2
14837KMSN MSN20060731230009307/31/06 23:00:31  5-MIN KMSN 010500Z 18007KT 10SM CLR 28/23 A2983 950 74 2700 180/07 RMK AO2
14837KMSN MSN20060731230509307/31/06 23:05:31  5-MIN KMSN 010505Z 19008KT 10SM CLR 28/23 A2983 950 74 2700 190/08 RMK AO2
14837KMSN MSN20060731231009307/31/06 23:10:31  5-MIN KMSN 010510Z 19010KT 10SM CLR 28/23 A2983 950 74 2700 190/10 RMK AO2
14837KMSN MSN20060731231509907/31/06 23:15:31  5-MIN KMSN 010515Z 19010G16KT 10SM CLR 28/23 A2982 950 74 2700 190/10G16 RMK AO2
14837KMSN MSN20060731232009907/31/06 23:20:31  5-MIN KMSN 010520Z 19009G16KT 10SM CLR 29/23 A2982 950 71 2800 190/09G16 RMK AO2
14837KMSN MSN20060731232509307/31/06 23:25:31  5-MIN KMSN 010525Z 19009KT 10SM CLR 29/23 A2982 950 71 2800 180/09 RMK AO2
14837KMSN MSN20060731233009307/31/06 23:30:31  5-MIN KMSN 010530Z 19009KT 10SM CLR 29/23 A2983 950 71 2800 190/09 RMK AO2
14837KMSN MSN20060731233509307/31/06 23:35:31  5-MIN KMSN 010535Z 19007KT 10SM CLR 29/23 A2983 950 71 2800 190/07 RMK AO2
14837KMSN MSN20060731234009307/31/06 23:40:31  5-MIN KMSN 010540Z 20008KT 10SM CLR 29/23 A2983 950 71 2800 200/08 RMK AO2
14837KMSN MSN20060731234509307/31/06 23:45:31  5-MIN KMSN 010545Z 20007KT 10SM CLR 28/23 A2983 950 74 2700 200/07 RMK AO2
14837KMSN MSN20060731235013807/31/06 23:50:31  5-MIN KMSN 010550Z 20008KT 10SM CLR 29/23 A2982 950 71 2800 200/08 RMK AO2 SLP090 T02890233 10333 20283 403500244 53010
14837KMSN MSN20060731235509307/31/06 23:55:31  5-MIN KMSN 010555Z 20009KT 10SM CLR 29/23 A2982 950 71 2800 200/09 RMK AO2
