14837KMSN MSN20020101120009901/01/02 12:00:31  5-MIN KMSN 011800Z VRB05KT 10SM FEW120 M08/M14 A3031 510 62 -2200 VRB/05 RMK AO2
14837KMSN MSN20020101120509601/01/02 12:05:31  5-MIN KMSN 011805Z 29006KT 10SM CLR M08/M14 A3031 510 62 -2200 290/06 RMK AO2
14837KMSN MSN20020101121009601/01/02 12:10:31  5-MIN KMSN 011810Z 33006KT 10SM CLR M08/M15 A3031 510 59 -2200 330/06 RMK AO2
14837KMSN MSN20020101121509601/01/02 12:15:31  5-MIN KMSN 011815Z VRB06KT 10SM CLR M08/M14 A3031 510 62 -2200 VRB/06 RMK AO2
14837KMSN MSN20020101122009601/01/02 12:20:31  5-MIN KMSN 011820Z VRB05KT 10SM CLR M08/M14 A3031 510 62 -2200 VRB/05 RMK AO2
14837KMSN MSN20020101122509601/01/02 12:25:31  5-MIN KMSN 011825Z 32006KT 10SM CLR M08/M14 A3031 510 62 -2200 310/06 RMK AO2
14837KMSN MSN20020101123009601/01/02 12:30:31  5-MIN KMSN 011830Z 36007KT 10SM CLR M08/M14 A3031 500 64 -2200 360/07 RMK AO2
14837KMSN MSN20020101123509601/01/02 12:35:31  5-MIN KMSN 011835Z 31005KT 10SM CLR M08/M14 A3031 510 62 -2200 310/05 RMK AO2
14837KMSN MSN20020101124011201/01/02 12:40:31  5-MIN KMSN 011840Z 30007KT 250V330 10SM CLR M08/M14 A3031 510 62 -2200 300/07 250V330 RMK AO2
14837KMSN MSN20020101124509601/01/02 12:45:31  5-MIN KMSN 011845Z 36004KT 10SM CLR M08/M14 A3031 510 62 -2200 360/04 RMK AO2
14837KMSN MSN20020101125011301/01/02 12:50:31  5-MIN KMSN 011850Z 31005KT 10SM CLR M08/M14 A3031 510 62 -2200 300/05 RMK AO2 SLP281 T10831144
14837KMSN MSN20020101125509601/01/02 12:55:31  5-MIN KMSN 011855Z 31005KT 10SM CLR M08/M14 A3031 500 62 -2200 310/05 RMK AO2
14837KMSN MSN20020101130009601/01/02 13:00:31  5-MIN KMSN 011900Z VRB06KT 10SM CLR M08/M14 A3031 500 62 -2200 VRB/06 RMK AO2
14837KMSN MSN20020101130509601/01/02 13:05:31  5-MIN KMSN 011905Z 36005KT 10SM CLR M08/M14 A3031 500 62 -2200 360/05 RMK AO2
14837KMSN MSN20020101131009601/01/02 13:10:31  5-MIN KMSN 011910Z 34006KT 10SM CLR M08/M14 A3031 500 64 -2200 340/06 RMK AO2
14837KMSN MSN20020101131509601/01/02 13:15:31  5-MIN KMSN 011915Z 36006KT 10SM CLR M08/M14 A3031 510 62 -2200 360/06 RMK AO2
14837KMSN MSN20020101132009601/01/02 13:20:31  5-MIN KMSN 011920Z VRB03KT 10SM CLR M08/M14 A3031 500 62 -2200 VRB/03 RMK AO2
14837KMSN MSN20020101132509601/01/02 13:25:31  5-MIN KMSN 011925Z 32003KT 10SM CLR M08/M14 A3031 500 62 -2200 320/03 RMK AO2
14837KMSN MSN20020101133009901/01/02 13:30:31  5-MIN KMSN 011930Z 35004KT 10SM FEW110 M08/M14 A3031 500 62 -2200 350/04 RMK AO2
14837KMSN MSN20020101133509901/01/02 13:35:31  5-MIN KMSN 011935Z 31003KT 10SM FEW110 M08/M14 A3032 500 62 -2200 310/03 RMK AO2
14837KMSN MSN20020101134009901/01/02 13:40:31  5-MIN KMSN 011940Z 01004KT 10SM FEW110 M08/M14 A3032 500 62 -2100 360/04 RMK AO2
14837KMSN MSN20020101134509901/01/02 13:45:31  5-MIN KMSN 011945Z 00000KT 10SM FEW110 M08/M14 A3032 500 62 -2100 000/00 RMK AO2
14837KMSN MSN20020101135011601/01/02 13:50:31  5-MIN KMSN 011950Z 31003KT 10SM FEW110 M08/M14 A3032 500 62 -2100 300/03 RMK AO2 SLP285 T10781139
14837KMSN MSN20020101135509901/01/02 13:55:31  5-MIN KMSN 011955Z 33004KT 10SM FEW110 M08/M14 A3032 490 62 -2100 330/04 RMK AO2
14837KMSN MSN20020101140009601/01/02 14:00:31  5-MIN KMSN 012000Z VRB06KT 10SM CLR M07/M14 A3033 490 59 -2100 VRB/06 RMK AO2
14837KMSN MSN20020101140509601/01/02 14:05:31  5-MIN KMSN 012005Z 35005KT 10SM CLR M07/M13 A3033 490 62 -2100 350/05 RMK AO2
14837KMSN MSN20020101141009601/01/02 14:10:31  5-MIN KMSN 012010Z VRB04KT 10SM CLR M07/M13 A3033 490 62 -2100 VRB/04 RMK AO2
14837KMSN MSN20020101141509601/01/02 14:15:31  5-MIN KMSN 012015Z 36005KT 10SM CLR M07/M13 A3033 490 59 -2000 360/05 RMK AO2
14837KMSN MSN20020101142009601/01/02 14:20:31  5-MIN KMSN 012020Z 30005KT 10SM CLR M07/M13 A3033 480 59 -2000 300/05 RMK AO2
14837KMSN MSN20020101142509601/01/02 14:25:31  5-MIN KMSN 012025Z 01006KT 10SM CLR M07/M13 A3034 480 59 -2000 010/06 RMK AO2
14837KMSN MSN20020101143009601/01/02 14:30:31  5-MIN KMSN 012030Z 35003KT 10SM CLR M07/M13 A3034 480 62 -2100 340/03 RMK AO2
14837KMSN MSN20020101143509601/01/02 14:35:31  5-MIN KMSN 012035Z VRB05KT 10SM CLR M07/M13 A3034 480 59 -2000 VRB/05 RMK AO2
14837KMSN MSN20020101144009601/01/02 14:40:31  5-MIN KMSN 012040Z 33004KT 10SM CLR M07/M13 A3034 480 59 -2000 330/04 RMK AO2
14837KMSN MSN20020101144509901/01/02 14:45:31  5-MIN KMSN 012045Z 01005KT 10SM FEW075 M07/M13 A3034 480 59 -2000 360/05 RMK AO2
14837KMSN MSN20020101145012201/01/02 14:50:31  5-MIN KMSN 012050Z VRB04KT 10SM SCT075 M07/M13 A3035 470 59 -2000 VRB/04 RMK AO2 SLP293 T10671133 50004
14837KMSN MSN20020101145509601/01/02 14:55:31  5-MIN KMSN 012055Z 00000KT 10SM CLR M07/M13 A3035 470 62 -2000 000/00 RMK AO2
14837KMSN MSN20020101150009601/01/02 15:00:31  5-MIN KMSN 012100Z 04003KT 10SM CLR M07/M13 A3035 470 59 -2000 040/03 RMK AO2
14837KMSN MSN20020101150509901/01/02 15:05:31  5-MIN KMSN 012105Z 03005KT 10SM FEW080 M07/M13 A3035 470 59 -2000 030/05 RMK AO2
14837KMSN MSN20020101151009901/01/02 15:10:31  5-MIN KMSN 012110Z VRB05KT 10SM FEW080 M07/M13 A3035 470 59 -2000 VRB/05 RMK AO2
14837KMSN MSN20020101151509901/01/02 15:15:31  5-MIN KMSN 012115Z 34004KT 10SM FEW075 M07/M13 A3035 470 62 -2000 340/04 RMK AO2
14837KMSN MSN20020101152009901/01/02 15:20:31  5-MIN KMSN 012120Z 36006KT 10SM FEW075 M07/M13 A3035 470 65 -2100 360/06 RMK AO2
14837KMSN MSN20020101152509601/01/02 15:25:31  5-MIN KMSN 012125Z 01006KT 10SM CLR M07/M13 A3036 460 62 -2100 010/06 RMK AO2
14837KMSN MSN20020101153009601/01/02 15:30:31  5-MIN KMSN 012130Z 35004KT 10SM CLR M07/M13 A3036 460 65 -2100 350/04 RMK AO2
14837KMSN MSN20020101153509901/01/02 15:35:31  5-MIN KMSN 012135Z 35003KT 10SM FEW075 M07/M13 A3036 460 62 -2100 350/03 RMK AO2
14837KMSN MSN20020101154009901/01/02 15:40:31  5-MIN KMSN 012140Z 01005KT 10SM FEW075 M07/M13 A3036 460 62 -2100 360/05 RMK AO2
14837KMSN MSN20020101154509901/01/02 15:45:31  5-MIN KMSN 012145Z 36004KT 10SM BKN075 M07/M13 A3036 460 62 -2100 350/04 RMK AO2
14837KMSN MSN20020101155011601/01/02 15:50:31  5-MIN KMSN 012150Z 34005KT 10SM BKN075 M07/M13 A3037 460 62 -2100 340/05 RMK AO2 SLP300 T10721133
14837KMSN MSN20020101155509901/01/02 15:55:31  5-MIN KMSN 012155Z 32005KT 10SM BKN075 M07/M13 A3036 460 62 -2100 320/05 RMK AO2
14837KMSN MSN20020101160009901/01/02 16:00:31  5-MIN KMSN 012200Z 33004KT 10SM BKN075 M07/M13 A3036 460 62 -2100 330/04 RMK AO2
14837KMSN MSN20020101160509901/01/02 16:05:31  5-MIN KMSN 012205Z 36005KT 10SM SCT075 M08/M13 A3037 450 64 -2200 350/05 RMK AO2
14837KMSN MSN20020101161009901/01/02 16:10:31  5-MIN KMSN 012210Z 33005KT 10SM SCT075 M08/M13 A3037 450 67 -2200 330/05 RMK AO2
14837KMSN MSN20020101161509901/01/02 16:15:31  5-MIN KMSN 012215Z 32005KT 10SM FEW075 M08/M13 A3037 450 64 -2200 320/05 RMK AO2
14837KMSN MSN20020101162009901/01/02 16:20:31  5-MIN KMSN 012220Z 32005KT 10SM BKN075 M08/M13 A3037 450 64 -2200 320/05 RMK AO2
14837KMSN MSN20020101162509901/01/02 16:25:31  5-MIN KMSN 012225Z 33003KT 10SM BKN075 M08/M13 A3037 450 64 -2200 330/03 RMK AO2
14837KMSN MSN20020101163009901/01/02 16:30:31  5-MIN KMSN 012230Z 32003KT 10SM BKN075 M08/M13 A3037 450 64 -2200 320/03 RMK AO2
14837KMSN MSN20020101163509901/01/02 16:35:31  5-MIN KMSN 012235Z 32004KT 10SM SCT075 M08/M13 A3037 450 67 -2200 320/04 RMK AO2
14837KMSN MSN20020101164009901/01/02 16:40:31  5-MIN KMSN 012240Z 32003KT 10SM SCT075 M08/M14 A3038 450 64 -2300 310/03 RMK AO2
14837KMSN MSN20020101164509901/01/02 16:45:31  5-MIN KMSN 012245Z 30003KT 10SM SCT075 M08/M13 A3038 440 67 -2300 300/03 RMK AO2
14837KMSN MSN20020101165011601/01/02 16:50:31  5-MIN KMSN 012250Z 30003KT 10SM BKN110 M08/M13 A3038 440 70 -2300 300/03 RMK AO2 SLP305 T10831128
14837KMSN MSN20020101165509901/01/02 16:55:31  5-MIN KMSN 012255Z 30003KT 10SM BKN110 M08/M13 A3038 440 67 -2300 300/03 RMK AO2
14837KMSN MSN20020101170009901/01/02 17:00:31  5-MIN KMSN 012300Z 30003KT 10SM BKN110 M08/M14 A3038 440 64 -2300 300/03 RMK AO2
14837KMSN MSN20020101170509901/01/02 17:05:31  5-MIN KMSN 012305Z 30003KT 10SM BKN110 M08/M13 A3038 440 70 -2300 290/03 RMK AO2
14837KMSN MSN20020101171009901/01/02 17:10:31  5-MIN KMSN 012310Z 31003KT 10SM BKN110 M09/M13 A3038 450 70 -2300 300/03 RMK AO2
14837KMSN MSN20020101171509901/01/02 17:15:31  5-MIN KMSN 012315Z 31004KT 10SM BKN110 M09/M13 A3038 450 70 -2300 310/04 RMK AO2
14837KMSN MSN20020101172009901/01/02 17:20:31  5-MIN KMSN 012320Z 32003KT 10SM BKN110 M09/M13 A3038 450 70 -2300 320/03 RMK AO2
14837KMSN MSN20020101172509901/01/02 17:25:31  5-MIN KMSN 012325Z 31003KT 10SM SCT110 M09/M13 A3038 440 70 -2300 310/03 RMK AO2
14837KMSN MSN20020101173009901/01/02 17:30:31  5-MIN KMSN 012330Z 00000KT 10SM SCT110 M09/M13 A3038 440 70 -2300 000/00 RMK AO2
14837KMSN MSN20020101173509901/01/02 17:35:31  5-MIN KMSN 012335Z 32003KT 10SM SCT110 M09/M13 A3038 440 70 -2300 310/03 RMK AO2
14837KMSN MSN20020101174009901/01/02 17:40:31  5-MIN KMSN 012340Z 31003KT 10SM SCT110 M09/M13 A3038 440 70 -2300 300/03 RMK AO2
14837KMSN MSN20020101174509901/01/02 17:45:31  5-MIN KMSN 012345Z 32003KT 10SM FEW110 M09/M13 A3039 430 73 -2400 320/03 RMK AO2
14837KMSN MSN20020101175013401/01/02 17:50:31  5-MIN KMSN 012350Z 31004KT 10SM FEW110 M09/M13 A3039 430 73 -2400 310/04 RMK AO2 SLP309 T10941133 11067 21094 53011
14837KMSN MSN20020101175509601/01/02 17:55:31  5-MIN KMSN 012355Z 32004KT 10SM CLR M09/M13 A3039 430 73 -2400 320/04 RMK AO2
14837KMSN MSN20020101180009601/01/02 18:00:31  5-MIN KMSN 020000Z 32004KT 10SM CLR M09/M13 A3039 430 73 -2400 320/04 RMK AO2
14837KMSN MSN20020101180509601/01/02 18:05:31  5-MIN KMSN 020005Z 31004KT 10SM CLR M09/M13 A3039 430 73 -2400 310/04 RMK AO2
14837KMSN MSN20020101181009601/01/02 18:10:31  5-MIN KMSN 020010Z 31004KT 10SM CLR M09/M13 A3039 430 73 -2400 310/04 RMK AO2
14837KMSN MSN20020101181509601/01/02 18:15:31  5-MIN KMSN 020015Z 00000KT 10SM CLR M09/M14 A3040 430 70 -2400 000/00 RMK AO2
14837KMSN MSN20020101182009601/01/02 18:20:31  5-MIN KMSN 020020Z 00000KT 10SM CLR M09/M13 A3040 420 73 -2400 000/00 RMK AO2
14837KMSN MSN20020101182509601/01/02 18:25:31  5-MIN KMSN 020025Z 00000KT 10SM CLR M09/M13 A3040 420 73 -2400 000/00 RMK AO2
14837KMSN MSN20020101183009601/01/02 18:30:31  5-MIN KMSN 020030Z 00000KT 10SM CLR M09/M13 A3040 420 73 -2400 000/00 RMK AO2
14837KMSN MSN20020101183509601/01/02 18:35:31  5-MIN KMSN 020035Z 00000KT 10SM CLR M11/M13 A3040 420 80 -2600 000/00 RMK AO2
14837KMSN MSN20020101184009601/01/02 18:40:31  5-MIN KMSN 020040Z 00000KT 10SM CLR M11/M13 A3040 420 80 -2600 000/00 RMK AO2
14837KMSN MSN20020101184509601/01/02 18:45:31  5-MIN KMSN 020045Z 00000KT 10SM CLR M11/M13 A3040 420 84 -2700 000/00 RMK AO2
14837KMSN MSN20020101185011301/01/02 18:50:31  5-MIN KMSN 020050Z 29003KT 10SM CLR M11/M13 A3040 420 84 -2700 290/03 RMK AO2 SLP314 T11111133
14837KMSN MSN20020101185509601/01/02 18:55:31  5-MIN KMSN 020055Z 00000KT 10SM CLR M11/M13 A3041 420 84 -2700 000/00 RMK AO2
14837KMSN MSN20020101190009601/01/02 19:00:31  5-MIN KMSN 020100Z 00000KT 10SM CLR M11/M14 A3041 420 80 -2700 000/00 RMK AO2
14837KMSN MSN20020101190509601/01/02 19:05:31  5-MIN KMSN 020105Z 00000KT 10SM CLR M12/M14 A3041 420 84 -2700 000/00 RMK AO2
14837KMSN MSN20020101191009601/01/02 19:10:31  5-MIN KMSN 020110Z 00000KT 10SM CLR M12/M14 A3041 410 80 -2700 000/00 RMK AO2
14837KMSN MSN20020101191509601/01/02 19:15:31  5-MIN KMSN 020115Z 00000KT 10SM CLR M11/M14 A3041 410 80 -2700 000/00 RMK AO2
14837KMSN MSN20020101192009601/01/02 19:20:31  5-MIN KMSN 020120Z 00000KT 10SM CLR M12/M14 A3041 410 84 -2700 000/00 RMK AO2
14837KMSN MSN20020101192509601/01/02 19:25:31  5-MIN KMSN 020125Z 00000KT 10SM CLR M12/M14 A3041 410 84 -2700 000/00 RMK AO2
14837KMSN MSN20020101193009601/01/02 19:30:31  5-MIN KMSN 020130Z 00000KT 10SM CLR M12/M14 A3041 410 84 -2700 000/00 RMK AO2
14837KMSN MSN20020101193509601/01/02 19:35:31  5-MIN KMSN 020135Z 00000KT 10SM CLR M12/M14 A3042 410 87 -2800 000/00 RMK AO2
14837KMSN MSN20020101194009601/01/02 19:40:31  5-MIN KMSN 020140Z 30003KT 10SM CLR M12/M14 A3042 410 84 -2700 300/03 RMK AO2
14837KMSN MSN20020101194509601/01/02 19:45:31  5-MIN KMSN 020145Z 00000KT 10SM CLR M12/M14 A3042 410 84 -2700 000/00 RMK AO2
14837KMSN MSN20020101195011301/01/02 19:50:31  5-MIN KMSN 020150Z 00000KT 10SM CLR M12/M14 A3042 410 84 -2700 000/00 RMK AO2 SLP319 T11171139
14837KMSN MSN20020101195509601/01/02 19:55:31  5-MIN KMSN 020155Z 00000KT 10SM CLR M12/M14 A3042 410 84 -2700 000/00 RMK AO2
14837KMSN MSN20020101200009601/01/02 20:00:31  5-MIN KMSN 020200Z 00000KT 10SM CLR M12/M14 A3042 410 84 -2800 000/00 RMK AO2
14837KMSN MSN20020101200509601/01/02 20:05:31  5-MIN KMSN 020205Z 00000KT 10SM CLR M12/M14 A3042 410 87 -2800 000/00 RMK AO2
14837KMSN MSN20020101201009601/01/02 20:10:31  5-MIN KMSN 020210Z 00000KT 10SM CLR M12/M14 A3042 410 84 -2700 000/00 RMK AO2
14837KMSN MSN20020101201509601/01/02 20:15:31  5-MIN KMSN 020215Z 00000KT 10SM CLR M12/M14 A3042 410 84 -2700 000/00 RMK AO2
14837KMSN MSN20020101202009601/01/02 20:20:31  5-MIN KMSN 020220Z 00000KT 10SM CLR M12/M14 A3042 410 84 -2800 000/00 RMK AO2
14837KMSN MSN20020101202509601/01/02 20:25:31  5-MIN KMSN 020225Z 00000KT 10SM CLR M12/M14 A3042 410 84 -2800 000/00 RMK AO2
14837KMSN MSN20020101203009601/01/02 20:30:31  5-MIN KMSN 020230Z 00000KT 10SM CLR M12/M14 A3042 410 84 -2700 000/00 RMK AO2
14837KMSN MSN20020101203509601/01/02 20:35:31  5-MIN KMSN 020235Z 00000KT 10SM CLR M12/M13 A3042 410 87 -2800 000/00 RMK AO2
14837KMSN MSN20020101204009601/01/02 20:40:31  5-MIN KMSN 020240Z 00000KT 10SM CLR M12/M14 A3042 410 87 -2800 000/00 RMK AO2
14837KMSN MSN20020101204509601/01/02 20:45:31  5-MIN KMSN 020245Z 00000KT 10SM CLR M13/M14 A3042 410 87 -2900 000/00 RMK AO2
14837KMSN MSN20020101205011901/01/02 20:50:31  5-MIN KMSN 020250Z 00000KT 10SM CLR M12/M14 A3042 410 84 -2800 000/00 RMK AO2 SLP320 T11221144 51015
14837KMSN MSN20020101205509601/01/02 20:55:31  5-MIN KMSN 020255Z 00000KT 10SM CLR M12/M15 A3042 410 80 -2800 000/00 RMK AO2
14837KMSN MSN20020101210009601/01/02 21:00:31  5-MIN KMSN 020300Z 00000KT 10SM CLR M12/M14 A3042 410 87 -2800 000/00 RMK AO2
14837KMSN MSN20020101210509601/01/02 21:05:31  5-MIN KMSN 020305Z 00000KT 10SM CLR M13/M14 A3042 410 87 -2900 000/00 RMK AO2
14837KMSN MSN20020101211009601/01/02 21:10:31  5-MIN KMSN 020310Z 00000KT 10SM CLR M13/M14 A3042 410 87 -2900 000/00 RMK AO2
14837KMSN MSN20020101211509601/01/02 21:15:31  5-MIN KMSN 020315Z 00000KT 10SM CLR M13/M14 A3042 410 87 -2900 000/00 RMK AO2
14837KMSN MSN20020101212009601/01/02 21:20:31  5-MIN KMSN 020320Z 00000KT 10SM CLR M13/M14 A3042 410 87 -2900 000/00 RMK AO2
14837KMSN MSN20020101212509601/01/02 21:25:31  5-MIN KMSN 020325Z 00000KT 10SM CLR M12/M14 A3042 410 84 -2800 000/00 RMK AO2
14837KMSN MSN20020101213009601/01/02 21:30:31  5-MIN KMSN 020330Z 00000KT 10SM CLR M13/M14 A3042 410 87 -2900 000/00 RMK AO2
14837KMSN MSN20020101213509501/01/02 21:35:31  5-MIN KMSN 020335Z 00000KT 9SM CLR M13/M14 A3042 410 91 -3000 000/00 RMK AO2
14837KMSN MSN20020101214009601/01/02 21:40:31  5-MIN KMSN 020340Z 01003KT 10SM CLR M13/M14 A3042 410 91 -3000 360/03 RMK AO2
14837KMSN MSN20020101214509601/01/02 21:45:31  5-MIN KMSN 020345Z 00000KT 10SM CLR M13/M15 A3042 410 87 -3000 000/00 RMK AO2
14837KMSN MSN20020101215011301/01/02 21:50:31  5-MIN KMSN 020350Z 00000KT 10SM CLR M13/M15 A3042 410 87 -3000 000/00 RMK AO2 SLP320 T11331150
14837KMSN MSN20020101215509601/01/02 21:55:31  5-MIN KMSN 020355Z 00000KT 10SM CLR M13/M14 A3042 410 91 -3000 000/00 RMK AO2
14837KMSN MSN20020101220009601/01/02 22:00:31  5-MIN KMSN 020400Z 00000KT 10SM CLR M13/M14 A3042 410 87 -2900 000/00 RMK AO2
14837KMSN MSN20020101220509601/01/02 22:05:31  5-MIN KMSN 020405Z 00000KT 10SM CLR M14/M15 A3042 410 91 -3000 000/00 RMK AO2
14837KMSN MSN20020101221009601/01/02 22:10:31  5-MIN KMSN 020410Z 00000KT 10SM CLR M14/M15 A3042 410 91 -3000 000/00 RMK AO2
14837KMSN MSN20020101221509601/01/02 22:15:31  5-MIN KMSN 020415Z 00000KT 10SM CLR M13/M15 A3042 410 87 -3000 000/00 RMK AO2
14837KMSN MSN20020101222009601/01/02 22:20:31  5-MIN KMSN 020420Z 00000KT 10SM CLR M13/M15 A3042 410 87 -3000 000/00 RMK AO2
14837KMSN MSN20020101222509601/01/02 22:25:31  5-MIN KMSN 020425Z 00000KT 10SM CLR M13/M14 A3042 410 91 -3000 000/00 RMK AO2
14837KMSN MSN20020101223009601/01/02 22:30:31  5-MIN KMSN 020430Z 00000KT 10SM CLR M13/M15 A3042 410 87 -3000 000/00 RMK AO2
14837KMSN MSN20020101223509601/01/02 22:35:31  5-MIN KMSN 020435Z 00000KT 10SM CLR M14/M15 A3042 410 91 -3000 000/00 RMK AO2
14837KMSN MSN20020101224009601/01/02 22:40:31  5-MIN KMSN 020440Z 00000KT 10SM CLR M14/M16 A3042 410 87 -3100 000/00 RMK AO2
14837KMSN MSN20020101224509601/01/02 22:45:31  5-MIN KMSN 020445Z 00000KT 10SM CLR M14/M16 A3042 410 91 -3100 000/00 RMK AO2
14837KMSN MSN20020101225011301/01/02 22:50:31  5-MIN KMSN 020450Z 00000KT 10SM CLR M14/M15 A3041 410 91 -3000 000/00 RMK AO2 SLP319 T11391150
14837KMSN MSN20020101225509501/01/02 22:55:31  5-MIN KMSN 020455Z 00000KT 8SM CLR M14/M16 A3042 410 87 -3100 000/00 RMK AO2
14837KMSN MSN20020101230009601/01/02 23:00:31  5-MIN KMSN 020500Z 00000KT 10SM CLR M14/M16 A3041 410 87 -3100 000/00 RMK AO2
14837KMSN MSN20020101230509601/01/02 23:05:31  5-MIN KMSN 020505Z 00000KT 10SM CLR M14/M16 A3041 410 91 -3100 000/00 RMK AO2
14837KMSN MSN20020101231009601/01/02 23:10:31  5-MIN KMSN 020510Z 00000KT 10SM CLR M14/M15 A3041 410 91 -3000 000/00 RMK AO2
14837KMSN MSN20020101231509601/01/02 23:15:31  5-MIN KMSN 020515Z 00000KT 10SM CLR M14/M16 A3041 410 87 -3100 000/00 RMK AO2
14837KMSN MSN20020101232009601/01/02 23:20:31  5-MIN KMSN 020520Z 00000KT 10SM CLR M14/M16 A3041 410 91 -3100 000/00 RMK AO2
14837KMSN MSN20020101232509601/01/02 23:25:31  5-MIN KMSN 020525Z 00000KT 10SM CLR M14/M16 A3041 410 87 -3100 000/00 RMK AO2
14837KMSN MSN20020101233009601/01/02 23:30:31  5-MIN KMSN 020530Z 00000KT 10SM CLR M14/M16 A3041 410 91 -3100 000/00 RMK AO2
14837KMSN MSN20020101233509601/01/02 23:35:31  5-MIN KMSN 020535Z 00000KT 10SM CLR M14/M16 A3041 410 87 -3100 000/00 RMK AO2
14837KMSN MSN20020101234009601/01/02 23:40:31  5-MIN KMSN 020540Z 00000KT 10SM CLR M14/M16 A3041 420 87 -3100 000/00 RMK AO2
14837KMSN MSN20020101234509601/01/02 23:45:31  5-MIN KMSN 020545Z 00000KT 10SM CLR M14/M16 A3041 420 87 -3100 000/00 RMK AO2
14837KMSN MSN20020101235014101/01/02 23:50:31  5-MIN KMSN 020550Z 00000KT 10SM CLR M14/M16 A3041 410 87 -3100 000/00 RMK AO2 SLP317 T11441161 11094 21150 410671150 51009
14837KMSN MSN20020101235509501/01/02 23:55:31  5-MIN KMSN 020555Z 00000KT 8SM CLR M14/M16 A3041 410 87 -3100 000/00 RMK AO2
14837KMSN MSN20020102000009601/02/02 00:00:31  5-MIN KMSN 020600Z 00000KT 10SM CLR M14/M16 A3041 410 91 -3100 000/00 RMK AO2
14837KMSN MSN20020102000509601/02/02 00:05:31  5-MIN KMSN 020605Z 00000KT 10SM CLR M14/M16 A3042 410 91 -3100 000/00 RMK AO2
14837KMSN MSN20020102001009601/02/02 00:10:31  5-MIN KMSN 020610Z 00000KT 10SM CLR M14/M16 A3042 410 87 -3100 000/00 RMK AO2
14837KMSN MSN20020102001509601/02/02 00:15:31  5-MIN KMSN 020615Z 00000KT 10SM CLR M14/M16 A3042 410 87 -3100 000/00 RMK AO2
14837KMSN MSN20020102002009601/02/02 00:20:31  5-MIN KMSN 020620Z 00000KT 10SM CLR M14/M16 A3042 410 87 -3100 000/00 RMK AO2
14837KMSN MSN20020102002509601/02/02 00:25:31  5-MIN KMSN 020625Z 00000KT 10SM CLR M15/M17 A3042 410 87 -3200 000/00 RMK AO2
14837KMSN MSN20020102003009601/02/02 00:30:31  5-MIN KMSN 020630Z 00000KT 10SM CLR M15/M17 A3042 410 87 -3200 000/00 RMK AO2
14837KMSN MSN20020102003509601/02/02 00:35:31  5-MIN KMSN 020635Z 00000KT 10SM CLR M15/M17 A3042 410 87 -3200 000/00 RMK AO2
14837KMSN MSN20020102004009601/02/02 00:40:31  5-MIN KMSN 020640Z 00000KT 10SM CLR M15/M16 A3042 410 91 -3200 000/00 RMK AO2
14837KMSN MSN20020102004509601/02/02 00:45:31  5-MIN KMSN 020645Z 00000KT 10SM CLR M16/M16 A3042 400 96 -3300 000/00 RMK AO2
14837KMSN MSN20020102005011601/02/02 00:50:31  5-MIN KMSN 020650Z 00000KT 10SM FEW100 M16/M17 A3042 400 87 -3300 000/00 RMK AO2 SLP321 T11561172
14837KMSN MSN20020102005509501/02/02 00:55:31  5-MIN KMSN 020655Z 00000KT 8SM CLR M15/M17 A3042 400 87 -3200 000/00 RMK AO2
14837KMSN MSN20020102010009501/02/02 01:00:31  5-MIN KMSN 020700Z 00000KT 8SM CLR M16/M17 A3042 400 87 -3300 000/00 RMK AO2
14837KMSN MSN20020102010509501/02/02 01:05:31  5-MIN KMSN 020705Z 00000KT 8SM CLR M16/M17 A3043 400 87 -3300 000/00 RMK AO2
14837KMSN MSN20020102011009501/02/02 01:10:31  5-MIN KMSN 020710Z 32003KT 8SM CLR M16/M17 A3043 400 87 -3300 320/03 RMK AO2
14837KMSN MSN20020102011509801/02/02 01:15:31  5-MIN KMSN 020715Z 00000KT 8SM FEW028 M16/M17 A3043 400 87 -3300 000/00 RMK AO2
14837KMSN MSN20020102012009801/02/02 01:20:31  5-MIN KMSN 020720Z 00000KT 8SM FEW028 M15/M16 A3043 400 91 -3200 000/00 RMK AO2
14837KMSN MSN20020102012509801/02/02 01:25:31  5-MIN KMSN 020725Z 00000KT 8SM FEW028 M15/M17 A3043 390 83 -3200 000/00 RMK AO2
14837KMSN MSN20020102013009801/02/02 01:30:31  5-MIN KMSN 020730Z 00000KT 9SM FEW028 M16/M17 A3043 390 91 -3300 000/00 RMK AO2
14837KMSN MSN20020102013509901/02/02 01:35:31  5-MIN KMSN 020735Z 00000KT 10SM SCT026 M15/M17 A3043 390 87 -3200 000/00 RMK AO2
14837KMSN MSN20020102014009801/02/02 01:40:31  5-MIN KMSN 020740Z 00000KT 9SM BKN026 M14/M16 A3044 390 87 -3100 000/00 RMK AO2
14837KMSN MSN20020102014509901/02/02 01:45:31  5-MIN KMSN 020745Z 00000KT 10SM BKN026 M14/M17 A3044 390 83 -3100 000/00 RMK AO2
14837KMSN MSN20020102015011601/02/02 01:50:31  5-MIN KMSN 020750Z 00000KT 10SM BKN026 M14/M16 A3044 390 91 -3100 000/00 RMK AO2 SLP326 T11441156
14837KMSN MSN20020102015509801/02/02 01:55:31  5-MIN KMSN 020755Z 00000KT 8SM OVC026 M14/M16 A3044 390 87 -3100 000/00 RMK AO2
14837KMSN MSN20020102020009801/02/02 02:00:31  5-MIN KMSN 020800Z 00000KT 8SM OVC026 M14/M16 A3044 390 87 -3100 000/00 RMK AO2
14837KMSN MSN20020102020509801/02/02 02:05:31  5-MIN KMSN 020805Z 00000KT 9SM BKN026 M14/M16 A3044 390 87 -3100 000/00 RMK AO2
14837KMSN MSN20020102021009801/02/02 02:10:31  5-MIN KMSN 020810Z 00000KT 9SM BKN026 M14/M16 A3044 390 87 -3100 000/00 RMK AO2
14837KMSN MSN20020102021509801/02/02 02:15:31  5-MIN KMSN 020815Z 00000KT 9SM OVC026 M13/M15 A3044 380 87 -3000 000/00 RMK AO2
14837KMSN MSN20020102022009801/02/02 02:20:31  5-MIN KMSN 020820Z 00000KT 9SM OVC028 M13/M14 A3044 380 91 -3000 000/00 RMK AO2
14837KMSN MSN20020102022509801/02/02 02:25:31  5-MIN KMSN 020825Z 00000KT 9SM OVC028 M13/M15 A3044 380 87 -3000 000/00 RMK AO2
14837KMSN MSN20020102023009801/02/02 02:30:31  5-MIN KMSN 020830Z 00000KT 9SM OVC028 M13/M14 A3044 390 87 -2900 000/00 RMK AO2
14837KMSN MSN20020102023509801/02/02 02:35:31  5-MIN KMSN 020835Z 00000KT 9SM OVC028 M13/M15 A3044 380 84 -2900 000/00 RMK AO2
14837KMSN MSN20020102024009801/02/02 02:40:31  5-MIN KMSN 020840Z 00000KT 9SM BKN028 M13/M14 A3044 380 87 -2900 000/00 RMK AO2
14837KMSN MSN20020102024509801/02/02 02:45:31  5-MIN KMSN 020845Z 00000KT 9SM OVC028 M13/M14 A3044 390 87 -2900 000/00 RMK AO2
14837KMSN MSN20020102025012201/02/02 02:50:31  5-MIN KMSN 020850Z 00000KT 10SM BKN028 M13/M14 A3044 390 87 -2900 000/00 RMK AO2 SLP326 T11281144 58002
14837KMSN MSN20020102025509901/02/02 02:55:31  5-MIN KMSN 020855Z 00000KT 10SM OVC028 M13/M14 A3044 390 87 -2900 000/00 RMK AO2
14837KMSN MSN20020102030009801/02/02 03:00:31  5-MIN KMSN 020900Z 00000KT 9SM BKN028 M13/M14 A3044 390 87 -2900 000/00 RMK AO2
14837KMSN MSN20020102030509801/02/02 03:05:31  5-MIN KMSN 020905Z 00000KT 9SM BKN028 M13/M15 A3044 390 87 -3000 000/00 RMK AO2
14837KMSN MSN20020102031009801/02/02 03:10:31  5-MIN KMSN 020910Z 00000KT 9SM BKN028 M13/M15 A3044 390 87 -3000 000/00 RMK AO2
14837KMSN MSN20020102031509801/02/02 03:15:31  5-MIN KMSN 020915Z 00000KT 9SM BKN028 M13/M14 A3044 390 87 -2900 000/00 RMK AO2
14837KMSN MSN20020102032009801/02/02 03:20:31  5-MIN KMSN 020920Z 00000KT 9SM SCT028 M13/M14 A3044 390 91 -3000 000/00 RMK AO2
14837KMSN MSN20020102032509901/02/02 03:25:31  5-MIN KMSN 020925Z 00000KT 10SM SCT028 M13/M15 A3044 390 87 -3000 000/00 RMK AO2
14837KMSN MSN20020102033009901/02/02 03:30:31  5-MIN KMSN 020930Z 00000KT 10SM FEW028 M13/M16 A3044 390 83 -3000 000/00 RMK AO2
14837KMSN MSN20020102033509901/02/02 03:35:31  5-MIN KMSN 020935Z 00000KT 10SM FEW028 M13/M15 A3044 390 87 -3000 000/00 RMK AO2
14837KMSN MSN20020102034009601/02/02 03:40:31  5-MIN KMSN 020940Z 00000KT 10SM CLR M13/M15 A3044 390 87 -3000 000/00 RMK AO2
14837KMSN MSN20020102034509601/02/02 03:45:31  5-MIN KMSN 020945Z 00000KT 10SM CLR M13/M14 A3044 390 87 -2900 000/00 RMK AO2
14837KMSN MSN20020102035011301/02/02 03:50:31  5-MIN KMSN 020950Z 00000KT 10SM CLR M13/M15 A3044 390 87 -3000 000/00 RMK AO2 SLP325 T11331150
14837KMSN MSN20020102035509501/02/02 03:55:31  5-MIN KMSN 020955Z 00000KT 9SM CLR M13/M15 A3044 390 87 -3000 000/00 RMK AO2
14837KMSN MSN20020102040009501/02/02 04:00:31  5-MIN KMSN 021000Z 00000KT 9SM CLR M13/M15 A3043 390 87 -3000 000/00 RMK AO2
14837KMSN MSN20020102040509501/02/02 04:05:31  5-MIN KMSN 021005Z 00000KT 9SM CLR M13/M14 A3043 390 87 -2900 000/00 RMK AO2
14837KMSN MSN20020102041009501/02/02 04:10:31  5-MIN KMSN 021010Z 00000KT 9SM CLR M13/M15 A3043 390 87 -3000 000/00 RMK AO2
14837KMSN MSN20020102041509501/02/02 04:15:31  5-MIN KMSN 021015Z 00000KT 9SM CLR M13/M15 A3043 400 87 -3000 000/00 RMK AO2
14837KMSN MSN20020102042009501/02/02 04:20:31  5-MIN KMSN 021020Z 00000KT 9SM CLR M13/M15 A3043 400 87 -3000 000/00 RMK AO2
14837KMSN MSN20020102042509501/02/02 04:25:31  5-MIN KMSN 021025Z 00000KT 9SM CLR M14/M16 A3043 400 87 -3100 000/00 RMK AO2
14837KMSN MSN20020102043009501/02/02 04:30:31  5-MIN KMSN 021030Z 00000KT 9SM CLR M14/M16 A3043 400 87 -3100 000/00 RMK AO2
14837KMSN MSN20020102043509501/02/02 04:35:31  5-MIN KMSN 021035Z 00000KT 9SM CLR M14/M16 A3043 400 91 -3100 000/00 RMK AO2
14837KMSN MSN20020102044009501/02/02 04:40:31  5-MIN KMSN 021040Z 00000KT 9SM CLR M14/M16 A3043 400 87 -3100 000/00 RMK AO2
14837KMSN MSN20020102044509601/02/02 04:45:31  5-MIN KMSN 021045Z 00000KT 10SM CLR M14/M16 A3043 400 91 -3100 000/00 RMK AO2
14837KMSN MSN20020102045011301/02/02 04:50:31  5-MIN KMSN 021050Z 00000KT 10SM CLR M14/M16 A3043 400 87 -3100 000/00 RMK AO2 SLP323 T11391156
14837KMSN MSN20020102045509501/02/02 04:55:31  5-MIN KMSN 021055Z 00000KT 9SM CLR M14/M16 A3043 400 87 -3100 000/00 RMK AO2
14837KMSN MSN20020102050009501/02/02 05:00:31  5-MIN KMSN 021100Z 00000KT 9SM CLR M14/M16 A3043 390 87 -3100 000/00 RMK AO2
14837KMSN MSN20020102050509501/02/02 05:05:31  5-MIN KMSN 021105Z 00000KT 9SM CLR M14/M16 A3043 390 87 -3100 000/00 RMK AO2
14837KMSN MSN20020102051009501/02/02 05:10:31  5-MIN KMSN 021110Z 00000KT 9SM CLR M14/M16 A3043 390 91 -3100 000/00 RMK AO2
14837KMSN MSN20020102051509501/02/02 05:15:31  5-MIN KMSN 021115Z 00000KT 9SM CLR M14/M15 A3043 390 96 -3100 000/00 RMK AO2
14837KMSN MSN20020102052009501/02/02 05:20:31  5-MIN KMSN 021120Z 00000KT 9SM CLR M14/M15 A3043 390 96 -3100 000/00 RMK AO2
14837KMSN MSN20020102052509501/02/02 05:25:31  5-MIN KMSN 021125Z 00000KT 9SM CLR M15/M17 A3043 400 83 -3200 000/00 RMK AO2
14837KMSN MSN20020102053009501/02/02 05:30:31  5-MIN KMSN 021130Z 00000KT 9SM CLR M15/M17 A3043 390 83 -3200 000/00 RMK AO2
14837KMSN MSN20020102053509501/02/02 05:35:31  5-MIN KMSN 021135Z 00000KT 9SM CLR M16/M17 A3043 390 87 -3300 000/00 RMK AO2
14837KMSN MSN20020102054009501/02/02 05:40:31  5-MIN KMSN 021140Z 00000KT 9SM CLR M15/M17 A3043 390 87 -3200 000/00 RMK AO2
14837KMSN MSN20020102054510201/02/02 05:45:31  5-MIN KMSN 021145Z 00000KT 10SM CLR M15/M17 A3043 390 87 -3200 000/00 RMK AO2 4/001
14837KMSN MSN20020102055013701/02/02 05:50:31  5-MIN KMSN 021150Z 00000KT 10SM CLR M14/M17 A3043 390 83 -3100 000/00 RMK AO2 SLP325 4/001 T11441167 11128 21156 51009
14837KMSN MSN20020102055509501/02/02 05:55:31  5-MIN KMSN 021155Z 00000KT 9SM CLR M15/M17 A3043 390 87 -3200 000/00 RMK AO2
14837KMSN MSN20020102060009501/02/02 06:00:31  5-MIN KMSN 021200Z 00000KT 9SM CLR M14/M17 A3044 390 83 -3100 000/00 RMK AO2
14837KMSN MSN20020102060509501/02/02 06:05:31  5-MIN KMSN 021205Z 00000KT 9SM CLR M14/M17 A3044 390 83 -3100 000/00 RMK AO2
14837KMSN MSN20020102061009501/02/02 06:10:31  5-MIN KMSN 021210Z 00000KT 9SM CLR M15/M17 A3044 390 87 -3200 000/00 RMK AO2
14837KMSN MSN20020102061509501/02/02 06:15:31  5-MIN KMSN 021215Z 00000KT 9SM CLR M15/M17 A3044 390 87 -3200 000/00 RMK AO2
14837KMSN MSN20020102062009501/02/02 06:20:31  5-MIN KMSN 021220Z 00000KT 9SM CLR M15/M17 A3044 390 87 -3200 000/00 RMK AO2
14837KMSN MSN20020102062509801/02/02 06:25:31  5-MIN KMSN 021225Z 00000KT 9SM FEW029 M15/M17 A3044 390 87 -3200 000/00 RMK AO2
14837KMSN MSN20020102063009801/02/02 06:30:31  5-MIN KMSN 021230Z 00000KT 9SM BKN029 M15/M17 A3044 390 87 -3200 000/00 RMK AO2
14837KMSN MSN20020102063509901/02/02 06:35:31  5-MIN KMSN 021235Z 00000KT 10SM BKN029 M15/M17 A3044 390 87 -3200 000/00 RMK AO2
14837KMSN MSN20020102064009901/02/02 06:40:31  5-MIN KMSN 021240Z 00000KT 10SM BKN029 M15/M17 A3044 390 87 -3200 000/00 RMK AO2
14837KMSN MSN20020102064509901/02/02 06:45:31  5-MIN KMSN 021245Z 00000KT 10SM BKN029 M14/M16 A3044 390 87 -3100 000/00 RMK AO2
14837KMSN MSN20020102065011601/02/02 06:50:31  5-MIN KMSN 021250Z 33003KT 10SM OVC029 M14/M16 A3044 390 87 -3100 330/03 RMK AO2 SLP327 T11441161
14837KMSN MSN20020102065509901/02/02 06:55:31  5-MIN KMSN 021255Z 33003KT 10SM SCT029 M14/M17 A3044 390 83 -3100 330/03 RMK AO2
14837KMSN MSN20020102070009901/02/02 07:00:31  5-MIN KMSN 021300Z 00000KT 10SM SCT029 M14/M16 A3044 390 87 -3100 000/00 RMK AO2
14837KMSN MSN20020102070509901/02/02 07:05:31  5-MIN KMSN 021305Z 00000KT 10SM SCT029 M14/M16 A3044 390 87 -3100 000/00 RMK AO2
14837KMSN MSN20020102071009901/02/02 07:10:31  5-MIN KMSN 021310Z 00000KT 10SM SCT029 M14/M16 A3044 390 87 -3100 000/00 RMK AO2
14837KMSN MSN20020102071509901/02/02 07:15:31  5-MIN KMSN 021315Z 00000KT 10SM SCT029 M14/M16 A3044 390 87 -3100 000/00 RMK AO2
14837KMSN MSN20020102072009801/02/02 07:20:31  5-MIN KMSN 021320Z 00000KT 9SM SCT029 M14/M16 A3044 390 87 -3100 000/00 RMK AO2
14837KMSN MSN20020102072509801/02/02 07:25:31  5-MIN KMSN 021325Z 00000KT 9SM FEW029 M15/M16 A3044 390 91 -3200 000/00 RMK AO2
14837KMSN MSN20020102073009801/02/02 07:30:31  5-MIN KMSN 021330Z 00000KT 8SM FEW029 M14/M16 A3044 390 87 -3100 000/00 RMK AO2
14837KMSN MSN20020102073509801/02/02 07:35:31  5-MIN KMSN 021335Z 00000KT 8SM FEW029 M14/M16 A3044 390 87 -3100 000/00 RMK AO2
14837KMSN MSN20020102074009801/02/02 07:40:31  5-MIN KMSN 021340Z 33003KT 8SM FEW029 M14/M16 A3044 390 87 -3100 330/03 RMK AO2
14837KMSN MSN20020102074509801/02/02 07:45:31  5-MIN KMSN 021345Z 32003KT 8SM FEW029 M15/M17 A3044 380 87 -3200 320/03 RMK AO2
14837KMSN MSN20020102075011301/02/02 07:50:31  5-MIN KMSN 021350Z 32003KT 10SM CLR M14/M16 A3045 380 87 -3200 320/03 RMK AO2 SLP330 T11441161
14837KMSN MSN20020102075509501/02/02 07:55:31  5-MIN KMSN 021355Z 00000KT 9SM CLR M14/M16 A3045 380 87 -3200 000/00 RMK AO2
14837KMSN MSN20020102080009601/02/02 08:00:31  5-MIN KMSN 021400Z 00000KT 10SM CLR M14/M16 A3045 380 87 -3100 000/00 RMK AO2
14837KMSN MSN20020102080509601/02/02 08:05:31  5-MIN KMSN 021405Z 00000KT 10SM CLR M14/M16 A3045 380 87 -3100 000/00 RMK AO2
14837KMSN MSN20020102081009601/02/02 08:10:31  5-MIN KMSN 021410Z 00000KT 10SM CLR M14/M16 A3044 380 87 -3100 000/00 RMK AO2
14837KMSN MSN20020102081509601/02/02 08:15:31  5-MIN KMSN 021415Z 00000KT 10SM CLR M13/M15 A3044 380 87 -3000 000/00 RMK AO2
14837KMSN MSN20020102082009601/02/02 08:20:31  5-MIN KMSN 021420Z 00000KT 10SM CLR M13/M15 A3044 380 84 -2900 000/00 RMK AO2
14837KMSN MSN20020102082509601/02/02 08:25:31  5-MIN KMSN 021425Z 00000KT 10SM CLR M13/M14 A3044 390 87 -2900 000/00 RMK AO2
14837KMSN MSN20020102083009601/02/02 08:30:31  5-MIN KMSN 021430Z 00000KT 10SM CLR M12/M14 A3044 390 87 -2900 000/00 RMK AO2
14837KMSN MSN20020102083509601/02/02 08:35:31  5-MIN KMSN 021435Z 00000KT 10SM CLR M12/M13 A3044 380 87 -2800 000/00 RMK AO2
14837KMSN MSN20020102084009601/02/02 08:40:31  5-MIN KMSN 021440Z 00000KT 10SM CLR M12/M13 A3044 380 87 -2800 000/00 RMK AO2
14837KMSN MSN20020102084509601/02/02 08:45:31  5-MIN KMSN 021445Z 00000KT 10SM CLR M12/M13 A3044 380 87 -2800 000/00 RMK AO2
14837KMSN MSN20020102085011901/02/02 08:50:31  5-MIN KMSN 021450Z 00000KT 10SM CLR M11/M13 A3044 380 88 -2700 000/00 RMK AO2 SLP329 T11111128 55002
14837KMSN MSN20020102085509501/02/02 08:55:31  5-MIN KMSN 021455Z 00000KT 9SM CLR M11/M12 A3045 380 88 -2600 000/00 RMK AO2
14837KMSN MSN20020102090009601/02/02 09:00:31  5-MIN KMSN 021500Z 00000KT 10SM CLR M11/M12 A3045 380 88 -2600 000/00 RMK AO2
14837KMSN MSN20020102090509601/02/02 09:05:31  5-MIN KMSN 021505Z 00000KT 10SM CLR M10/M12 A3045 380 88 -2600 000/00 RMK AO2
14837KMSN MSN20020102091009601/02/02 09:10:31  5-MIN KMSN 021510Z 00000KT 10SM CLR M10/M12 A3045 380 88 -2600 000/00 RMK AO2
14837KMSN MSN20020102091509601/02/02 09:15:31  5-MIN KMSN 021515Z 00000KT 10SM CLR M09/M12 A3045 380 84 -2500 000/00 RMK AO2
14837KMSN MSN20020102092009601/02/02 09:20:31  5-MIN KMSN 021520Z 00000KT 10SM CLR M09/M12 A3045 380 84 -2500 000/00 RMK AO2
14837KMSN MSN20020102092509601/02/02 09:25:31  5-MIN KMSN 021525Z 00000KT 10SM CLR M09/M11 A3045 380 84 -2400 000/00 RMK AO2
14837KMSN MSN20020102093009601/02/02 09:30:31  5-MIN KMSN 021530Z 00000KT 10SM CLR M09/M11 A3045 380 84 -2400 000/00 RMK AO2
14837KMSN MSN20020102093509601/02/02 09:35:31  5-MIN KMSN 021535Z 00000KT 10SM CLR M08/M11 A3044 380 84 -2300 000/00 RMK AO2
14837KMSN MSN20020102094009601/02/02 09:40:31  5-MIN KMSN 021540Z 00000KT 10SM CLR M08/M11 A3044 380 84 -2300 000/00 RMK AO2
14837KMSN MSN20020102094509601/02/02 09:45:31  5-MIN KMSN 021545Z 04003KT 10SM CLR M07/M10 A3044 390 81 -2200 040/03 RMK AO2
14837KMSN MSN20020102095011301/02/02 09:50:31  5-MIN KMSN 021550Z 02004KT 10SM CLR M07/M11 A3044 390 77 -2200 020/04 RMK AO2 SLP326 T10721106
14837KMSN MSN20020102095509601/02/02 09:55:31  5-MIN KMSN 021555Z 02004KT 10SM CLR M07/M10 A3044 390 81 -2200 020/04 RMK AO2
14837KMSN MSN20020102100009601/02/02 10:00:31  5-MIN KMSN 021600Z 02005KT 10SM CLR M07/M10 A3044 390 77 -2100 020/05 RMK AO2
14837KMSN MSN20020102100509601/02/02 10:05:31  5-MIN KMSN 021605Z 01008KT 10SM CLR M07/M10 A3044 390 77 -2100 010/08 RMK AO2
14837KMSN MSN20020102101009601/02/02 10:10:31  5-MIN KMSN 021610Z 02007KT 10SM CLR M07/M10 A3044 390 77 -2100 020/07 RMK AO2
14837KMSN MSN20020102101509601/02/02 10:15:31  5-MIN KMSN 021615Z 02008KT 10SM CLR M07/M10 A3044 390 77 -2100 020/08 RMK AO2
14837KMSN MSN20020102102009601/02/02 10:20:31  5-MIN KMSN 021620Z 03007KT 10SM CLR M06/M10 A3044 390 74 -2000 030/07 RMK AO2
14837KMSN MSN20020102102509601/02/02 10:25:31  5-MIN KMSN 021625Z 03007KT 10SM CLR M06/M10 A3043 390 74 -2000 030/07 RMK AO2
14837KMSN MSN20020102103009601/02/02 10:30:31  5-MIN KMSN 021630Z 02007KT 10SM CLR M06/M10 A3043 400 74 -2000 020/07 RMK AO2
14837KMSN MSN20020102103509601/02/02 10:35:31  5-MIN KMSN 021635Z 02005KT 10SM CLR M06/M10 A3043 400 74 -2000 020/05 RMK AO2
14837KMSN MSN20020102104009601/02/02 10:40:31  5-MIN KMSN 021640Z 02005KT 10SM CLR M06/M10 A3042 400 71 -2000 020/05 RMK AO2
14837KMSN MSN20020102104509601/02/02 10:45:31  5-MIN KMSN 021645Z VRB04KT 10SM CLR M06/M10 A3042 400 71 -2000 VRB/04 RMK AO2
14837KMSN MSN20020102105011301/02/02 10:50:31  5-MIN KMSN 021650Z 35006KT 10SM CLR M05/M10 A3042 400 68 -1900 350/06 RMK AO2 SLP319 T10501100
14837KMSN MSN20020102105509601/02/02 10:55:31  5-MIN KMSN 021655Z 35006KT 10SM CLR M05/M09 A3042 410 71 -1900 350/06 RMK AO2
14837KMSN MSN20020102110009601/02/02 11:00:31  5-MIN KMSN 021700Z 36005KT 10SM CLR M05/M10 A3042 410 68 -1900 360/05 RMK AO2
14837KMSN MSN20020102110509601/02/02 11:05:31  5-MIN KMSN 021705Z 02005KT 10SM CLR M05/M10 A3042 410 68 -1900 020/05 RMK AO2
14837KMSN MSN20020102111009601/02/02 11:10:31  5-MIN KMSN 021710Z 02004KT 10SM CLR M05/M10 A3041 410 68 -1900 020/04 RMK AO2
14837KMSN MSN20020102111509601/02/02 11:15:31  5-MIN KMSN 021715Z 33005KT 10SM CLR M05/M10 A3041 410 68 -1900 330/05 RMK AO2
14837KMSN MSN20020102112509601/02/02 11:25:31  5-MIN KMSN 021725Z 32006KT 10SM CLR M05/M10 A3041 420 68 -1900 320/06 RMK AO2
14837KMSN MSN20020102113009601/02/02 11:30:31  5-MIN KMSN 021730Z 32007KT 10SM CLR M05/M11 A3041 420 65 -1900 320/07 RMK AO2
14837KMSN MSN20020102113509601/02/02 11:35:31  5-MIN KMSN 021735Z 34005KT 10SM CLR M05/M11 A3040 420 65 -1900 340/05 RMK AO2
14837KMSN MSN20020102114009601/02/02 11:40:31  5-MIN KMSN 021740Z 32007KT 10SM CLR M05/M11 A3040 420 65 -1900 320/07 RMK AO2
14837KMSN MSN20020102114509601/02/02 11:45:31  5-MIN KMSN 021745Z 02004KT 10SM CLR M05/M10 A3040 430 68 -1900 020/04 RMK AO2
14837KMSN MSN20020102115013101/02/02 11:50:31  5-MIN KMSN 021750Z VRB06KT 10SM CLR M05/M11 A3039 430 65 -1800 VRB/06 RMK AO2 SLP310 T10501106 11044 21150 51004
14837KMSN MSN20020102115509601/02/02 11:55:31  5-MIN KMSN 021755Z 02004KT 10SM CLR M04/M11 A3039 430 62 -1800 020/04 RMK AO2
14837KMSN MSN20020102120009601/02/02 12:00:31  5-MIN KMSN 021800Z VRB04KT 10SM CLR M05/M11 A3039 430 65 -1800 VRB/04 RMK AO2
14837KMSN MSN20020102120509601/02/02 12:05:31  5-MIN KMSN 021805Z 34006KT 10SM CLR M05/M11 A3039 440 65 -1800 340/06 RMK AO2
14837KMSN MSN20020102121009601/02/02 12:10:31  5-MIN KMSN 021810Z 32006KT 10SM CLR M04/M10 A3038 440 65 -1800 320/06 RMK AO2
14837KMSN MSN20020102121509601/02/02 12:15:31  5-MIN KMSN 021815Z VRB05KT 10SM CLR M04/M10 A3038 440 65 -1800 VRB/05 RMK AO2
14837KMSN MSN20020102122009601/02/02 12:20:31  5-MIN KMSN 021820Z 32005KT 10SM CLR M05/M11 A3038 440 65 -1800 310/05 RMK AO2
14837KMSN MSN20020102122509601/02/02 12:25:31  5-MIN KMSN 021825Z 32005KT 10SM CLR M04/M10 A3038 440 65 -1800 320/05 RMK AO2
14837KMSN MSN20020102123009601/02/02 12:30:31  5-MIN KMSN 021830Z 34004KT 10SM CLR M04/M10 A3037 450 65 -1800 340/04 RMK AO2
14837KMSN MSN20020102123509601/02/02 12:35:31  5-MIN KMSN 021835Z 29006KT 10SM CLR M04/M10 A3037 450 65 -1800 280/06 RMK AO2
14837KMSN MSN20020102124009601/02/02 12:40:31  5-MIN KMSN 021840Z 30005KT 10SM CLR M04/M11 A3037 450 62 -1700 300/05 RMK AO2
14837KMSN MSN20020102124509601/02/02 12:45:31  5-MIN KMSN 021845Z VRB05KT 10SM CLR M04/M11 A3037 450 62 -1700 VRB/05 RMK AO2
14837KMSN MSN20020102125011601/02/02 12:50:31  5-MIN KMSN 021850Z VRB03KT 10SM FEW030 M04/M11 A3036 460 62 -1700 VRB/03 RMK AO2 SLP300 T10441106
14837KMSN MSN20020102125509601/02/02 12:55:31  5-MIN KMSN 021855Z 28004KT 10SM CLR M04/M10 A3036 460 65 -1700 280/04 RMK AO2
14837KMSN MSN20020102130009601/02/02 13:00:31  5-MIN KMSN 021900Z 34006KT 10SM CLR M04/M11 A3036 460 60 -1700 340/06 RMK AO2
14837KMSN MSN20020102130509901/02/02 13:05:31  5-MIN KMSN 021905Z 28004KT 10SM FEW030 M04/M10 A3036 460 63 -1700 270/04 RMK AO2
14837KMSN MSN20020102131009901/02/02 13:10:31  5-MIN KMSN 021910Z 30006KT 10SM FEW030 M04/M11 A3035 470 62 -1700 300/06 RMK AO2
14837KMSN MSN20020102131509901/02/02 13:15:31  5-MIN KMSN 021915Z 29006KT 10SM FEW030 M04/M11 A3035 470 62 -1700 290/06 RMK AO2
14837KMSN MSN20020102132009901/02/02 13:20:31  5-MIN KMSN 021920Z VRB06KT 10SM FEW030 M04/M11 A3035 470 60 -1700 VRB/06 RMK AO2
14837KMSN MSN20020102132509901/02/02 13:25:31  5-MIN KMSN 021925Z 32007KT 10SM FEW030 M04/M11 A3035 470 60 -1700 320/07 RMK AO2
14837KMSN MSN20020102133009901/02/02 13:30:31  5-MIN KMSN 021930Z VRB05KT 10SM FEW030 M04/M11 A3035 470 60 -1700 VRB/05 RMK AO2
14837KMSN MSN20020102133509901/02/02 13:35:31  5-MIN KMSN 021935Z 29005KT 10SM FEW030 M04/M11 A3035 470 60 -1600 290/05 RMK AO2
14837KMSN MSN20020102134009901/02/02 13:40:31  5-MIN KMSN 021940Z VRB03KT 10SM FEW030 M03/M11 A3035 470 57 -1600 VRB/03 RMK AO2
14837KMSN MSN20020102134509601/02/02 13:45:31  5-MIN KMSN 021945Z 30004KT 10SM CLR M04/M11 A3034 480 60 -1600 300/04 RMK AO2
14837KMSN MSN20020102135011301/02/02 13:50:31  5-MIN KMSN 021950Z 29006KT 10SM CLR M04/M11 A3034 480 60 -1600 290/06 RMK AO2 SLP292 T10391106
14837KMSN MSN20020102135509601/02/02 13:55:31  5-MIN KMSN 021955Z VRB03KT 10SM CLR M04/M11 A3034 480 60 -1600 VRB/03 RMK AO2
14837KMSN MSN20020102140009601/02/02 14:00:31  5-MIN KMSN 022000Z 30006KT 10SM CLR M03/M10 A3034 480 60 -1600 300/06 RMK AO2
14837KMSN MSN20020102140509601/02/02 14:05:31  5-MIN KMSN 022005Z 32007KT 10SM CLR M03/M11 A3034 480 57 -1600 320/07 RMK AO2
14837KMSN MSN20020102141009601/02/02 14:10:31  5-MIN KMSN 022010Z 32006KT 10SM CLR M03/M11 A3034 480 57 -1600 320/06 RMK AO2
14837KMSN MSN20020102141509601/02/02 14:15:31  5-MIN KMSN 022015Z 29006KT 10SM CLR M04/M11 A3034 480 60 -1600 290/06 RMK AO2
14837KMSN MSN20020102142009601/02/02 14:20:31  5-MIN KMSN 022020Z 31004KT 10SM CLR M03/M11 A3034 480 57 -1600 310/04 RMK AO2
14837KMSN MSN20020102142509601/02/02 14:25:31  5-MIN KMSN 022025Z 31006KT 10SM CLR M03/M11 A3034 480 57 -1600 310/06 RMK AO2
14837KMSN MSN20020102143009601/02/02 14:30:31  5-MIN KMSN 022030Z 33006KT 10SM CLR M03/M11 A3034 480 57 -1600 330/06 RMK AO2
14837KMSN MSN20020102143509601/02/02 14:35:31  5-MIN KMSN 022035Z 30006KT 10SM CLR M03/M11 A3034 480 57 -1600 300/06 RMK AO2
14837KMSN MSN20020102144009601/02/02 14:40:31  5-MIN KMSN 022040Z VRB05KT 10SM CLR M04/M11 A3034 480 60 -1600 VRB/05 RMK AO2
14837KMSN MSN20020102144509601/02/02 14:45:31  5-MIN KMSN 022045Z VRB06KT 10SM CLR M03/M11 A3034 480 57 -1600 VRB/06 RMK AO2
14837KMSN MSN20020102145011901/02/02 14:50:31  5-MIN KMSN 022050Z 29007KT 10SM CLR M04/M11 A3034 480 60 -1600 280/07 RMK AO2 SLP291 T10391106 58018
14837KMSN MSN20020102145509601/02/02 14:55:31  5-MIN KMSN 022055Z 29005KT 10SM CLR M03/M11 A3034 480 57 -1600 280/05 RMK AO2
14837KMSN MSN20020102150009601/02/02 15:00:31  5-MIN KMSN 022100Z VRB04KT 10SM CLR M04/M11 A3034 480 60 -1600 VRB/04 RMK AO2
14837KMSN MSN20020102150509601/02/02 15:05:31  5-MIN KMSN 022105Z VRB05KT 10SM CLR M03/M11 A3034 480 57 -1600 VRB/05 RMK AO2
14837KMSN MSN20020102151009601/02/02 15:10:31  5-MIN KMSN 022110Z 32006KT 10SM CLR M03/M11 A3034 480 57 -1600 320/06 RMK AO2
14837KMSN MSN20020102151509601/02/02 15:15:31  5-MIN KMSN 022115Z 31004KT 10SM CLR M03/M11 A3034 480 57 -1600 310/04 RMK AO2
14837KMSN MSN20020102152009601/02/02 15:20:31  5-MIN KMSN 022120Z 29004KT 10SM CLR M04/M11 A3034 480 60 -1600 290/04 RMK AO2
14837KMSN MSN20020102152509601/02/02 15:25:31  5-MIN KMSN 022125Z 28004KT 10SM CLR M04/M11 A3034 480 60 -1600 280/04 RMK AO2
14837KMSN MSN20020102153009601/02/02 15:30:31  5-MIN KMSN 022130Z 30005KT 10SM CLR M04/M11 A3034 480 60 -1600 300/05 RMK AO2
14837KMSN MSN20020102153509601/02/02 15:35:31  5-MIN KMSN 022135Z 29006KT 10SM CLR M04/M11 A3034 480 60 -1600 290/06 RMK AO2
14837KMSN MSN20020102154009601/02/02 15:40:31  5-MIN KMSN 022140Z 28004KT 10SM CLR M04/M11 A3034 480 60 -1600 280/04 RMK AO2
14837KMSN MSN20020102154509601/02/02 15:45:31  5-MIN KMSN 022145Z VRB05KT 10SM CLR M04/M11 A3034 480 60 -1600 VRB/05 RMK AO2
14837KMSN MSN20020102155011301/02/02 15:50:31  5-MIN KMSN 022150Z 30006KT 10SM CLR M04/M11 A3034 480 60 -1600 300/06 RMK AO2 SLP291 T10391106
14837KMSN MSN20020102155509601/02/02 15:55:31  5-MIN KMSN 022155Z 30005KT 10SM CLR M04/M11 A3034 480 60 -1600 300/05 RMK AO2
14837KMSN MSN20020102160009601/02/02 16:00:31  5-MIN KMSN 022200Z 30007KT 10SM CLR M04/M11 A3034 480 57 -1600 300/07 RMK AO2
14837KMSN MSN20020102160509601/02/02 16:05:31  5-MIN KMSN 022205Z 30005KT 10SM CLR M04/M11 A3034 480 60 -1700 300/05 RMK AO2
14837KMSN MSN20020102161009601/02/02 16:10:31  5-MIN KMSN 022210Z 30005KT 10SM CLR M04/M11 A3034 480 60 -1700 300/05 RMK AO2
14837KMSN MSN20020102161509601/02/02 16:15:31  5-MIN KMSN 022215Z 30005KT 10SM CLR M04/M11 A3034 480 60 -1700 290/05 RMK AO2
14837KMSN MSN20020102162009601/02/02 16:20:31  5-MIN KMSN 022220Z 30004KT 10SM CLR M04/M11 A3034 480 60 -1700 300/04 RMK AO2
14837KMSN MSN20020102162509601/02/02 16:25:31  5-MIN KMSN 022225Z 30005KT 10SM CLR M04/M11 A3034 480 60 -1700 300/05 RMK AO2
14837KMSN MSN20020102163009601/02/02 16:30:31  5-MIN KMSN 022230Z 30004KT 10SM CLR M05/M11 A3034 480 62 -1800 300/04 RMK AO2
14837KMSN MSN20020102163509601/02/02 16:35:31  5-MIN KMSN 022235Z 29003KT 10SM CLR M05/M11 A3034 480 62 -1800 290/03 RMK AO2
14837KMSN MSN20020102164009601/02/02 16:40:31  5-MIN KMSN 022240Z 00000KT 10SM CLR M05/M11 A3034 480 62 -1800 000/00 RMK AO2
14837KMSN MSN20020102164509601/02/02 16:45:31  5-MIN KMSN 022245Z 00000KT 10SM CLR M05/M11 A3034 480 62 -1800 000/00 RMK AO2
14837KMSN MSN20020102165011301/02/02 16:50:31  5-MIN KMSN 022250Z 00000KT 10SM CLR M06/M11 A3034 480 65 -1900 000/00 RMK AO2 SLP291 T10561111
14837KMSN MSN20020102165509601/02/02 16:55:31  5-MIN KMSN 022255Z 00000KT 10SM CLR M06/M11 A3034 480 68 -1900 000/00 RMK AO2
14837KMSN MSN20020102170009601/02/02 17:00:31  5-MIN KMSN 022300Z 00000KT 10SM CLR M06/M11 A3034 480 68 -1900 000/00 RMK AO2
14837KMSN MSN20020102170509601/02/02 17:05:31  5-MIN KMSN 022305Z 00000KT 10SM CLR M07/M11 A3033 480 71 -2000 000/00 RMK AO2
14837KMSN MSN20020102171009601/02/02 17:10:31  5-MIN KMSN 022310Z 00000KT 10SM CLR M07/M11 A3033 480 71 -2000 000/00 RMK AO2
14837KMSN MSN20020102171509601/02/02 17:15:31  5-MIN KMSN 022315Z 00000KT 10SM CLR M07/M12 A3033 490 71 -2100 000/00 RMK AO2
14837KMSN MSN20020102172009601/02/02 17:20:31  5-MIN KMSN 022320Z 00000KT 10SM CLR M07/M11 A3033 490 74 -2100 000/00 RMK AO2
14837KMSN MSN20020102172509601/02/02 17:25:31  5-MIN KMSN 022325Z 00000KT 10SM CLR M07/M12 A3033 490 71 -2100 000/00 RMK AO2
14837KMSN MSN20020102173009601/02/02 17:30:31  5-MIN KMSN 022330Z 00000KT 10SM CLR M08/M12 A3033 490 74 -2100 000/00 RMK AO2
14837KMSN MSN20020102173509601/02/02 17:35:31  5-MIN KMSN 022335Z 00000KT 10SM CLR M08/M12 A3033 490 74 -2100 000/00 RMK AO2
14837KMSN MSN20020102174009601/02/02 17:40:31  5-MIN KMSN 022340Z 29003KT 10SM CLR M08/M12 A3033 490 77 -2200 290/03 RMK AO2
14837KMSN MSN20020102174509601/02/02 17:45:31  5-MIN KMSN 022345Z 00000KT 10SM CLR M08/M12 A3033 490 77 -2200 000/00 RMK AO2
14837KMSN MSN20020102175013701/02/02 17:50:31  5-MIN KMSN 022350Z 00000KT 10SM CLR M08/M12 A3032 490 74 -2100 000/00 RMK AO2 SLP288 4/001 T10781117 11033 21083 56017
14837KMSN MSN20020102175509601/02/02 17:55:31  5-MIN KMSN 022355Z 29003KT 10SM CLR M08/M12 A3032 490 74 -2100 280/03 RMK AO2
14837KMSN MSN20020102180009601/02/02 18:00:31  5-MIN KMSN 030000Z 00000KT 10SM CLR M08/M12 A3032 490 77 -2200 000/00 RMK AO2
14837KMSN MSN20020102180509601/02/02 18:05:31  5-MIN KMSN 030005Z 29003KT 10SM CLR M09/M12 A3033 490 77 -2300 290/03 RMK AO2
14837KMSN MSN20020102181009601/02/02 18:10:31  5-MIN KMSN 030010Z 29003KT 10SM CLR M09/M12 A3033 490 77 -2300 290/03 RMK AO2
14837KMSN MSN20020102181509601/02/02 18:15:31  5-MIN KMSN 030015Z 29003KT 10SM CLR M09/M12 A3033 490 84 -2300 290/03 RMK AO2
14837KMSN MSN20020102182009601/02/02 18:20:31  5-MIN KMSN 030020Z 29003KT 10SM CLR M09/M12 A3033 490 80 -2300 290/03 RMK AO2
14837KMSN MSN20020102182509601/02/02 18:25:31  5-MIN KMSN 030025Z 29004KT 10SM CLR M08/M12 A3033 490 77 -2200 290/04 RMK AO2
14837KMSN MSN20020102183009601/02/02 18:30:31  5-MIN KMSN 030030Z 29003KT 10SM CLR M08/M12 A3033 490 77 -2200 290/03 RMK AO2
14837KMSN MSN20020102183509601/02/02 18:35:31  5-MIN KMSN 030035Z 29003KT 10SM CLR M09/M12 A3033 490 80 -2300 290/03 RMK AO2
14837KMSN MSN20020102184009601/02/02 18:40:31  5-MIN KMSN 030040Z 28003KT 10SM CLR M09/M12 A3033 490 80 -2300 280/03 RMK AO2
14837KMSN MSN20020102184509601/02/02 18:45:31  5-MIN KMSN 030045Z 29003KT 10SM CLR M09/M12 A3033 490 84 -2400 280/03 RMK AO2
14837KMSN MSN20020102185011301/02/02 18:50:31  5-MIN KMSN 030050Z 28003KT 10SM CLR M09/M12 A3033 490 80 -2300 280/03 RMK AO2 SLP289 T10941122
14837KMSN MSN20020102185509601/02/02 18:55:31  5-MIN KMSN 030055Z 28003KT 10SM CLR M09/M12 A3033 490 84 -2300 280/03 RMK AO2
14837KMSN MSN20020102190009601/02/02 19:00:31  5-MIN KMSN 030100Z 27003KT 10SM CLR M09/M12 A3032 490 80 -2300 270/03 RMK AO2
14837KMSN MSN20020102190509601/02/02 19:05:31  5-MIN KMSN 030105Z 28003KT 10SM CLR M08/M12 A3032 490 77 -2200 280/03 RMK AO2
14837KMSN MSN20020102191009601/02/02 19:10:31  5-MIN KMSN 030110Z 28003KT 10SM CLR M09/M12 A3032 500 80 -2300 280/03 RMK AO2
14837KMSN MSN20020102191509601/02/02 19:15:31  5-MIN KMSN 030115Z 29003KT 10SM CLR M09/M12 A3032 500 80 -2300 290/03 RMK AO2
14837KMSN MSN20020102192009601/02/02 19:20:31  5-MIN KMSN 030120Z 28003KT 10SM CLR M09/M12 A3032 500 84 -2300 280/03 RMK AO2
14837KMSN MSN20020102192509601/02/02 19:25:31  5-MIN KMSN 030125Z VRB03KT 10SM CLR M10/M12 A3032 500 84 -2400 VRB/03 RMK AO2
14837KMSN MSN20020102193009601/02/02 19:30:31  5-MIN KMSN 030130Z 26003KT 10SM CLR M09/M12 A3032 500 84 -2300 260/03 RMK AO2
14837KMSN MSN20020102193509601/02/02 19:35:31  5-MIN KMSN 030135Z VRB03KT 10SM CLR M09/M12 A3032 500 80 -2300 VRB/03 RMK AO2
14837KMSN MSN20020102194009601/02/02 19:40:31  5-MIN KMSN 030140Z 00000KT 10SM CLR M09/M12 A3032 500 80 -2300 000/00 RMK AO2
14837KMSN MSN20020102194509601/02/02 19:45:31  5-MIN KMSN 030145Z 00000KT 10SM CLR M09/M12 A3032 500 77 -2300 000/00 RMK AO2
14837KMSN MSN20020102195011301/02/02 19:50:31  5-MIN KMSN 030150Z 00000KT 10SM CLR M09/M12 A3031 500 77 -2300 000/00 RMK AO2 SLP284 T10891122
14837KMSN MSN20020102195509601/02/02 19:55:31  5-MIN KMSN 030155Z 00000KT 10SM CLR M09/M12 A3031 510 80 -2300 000/00 RMK AO2
14837KMSN MSN20020102200009601/02/02 20:00:31  5-MIN KMSN 030200Z 00000KT 10SM CLR M09/M12 A3031 510 77 -2300 000/00 RMK AO2
14837KMSN MSN20020102200509601/02/02 20:05:31  5-MIN KMSN 030205Z 00000KT 10SM CLR M08/M12 A3031 510 77 -2200 000/00 RMK AO2
14837KMSN MSN20020102201009601/02/02 20:10:31  5-MIN KMSN 030210Z 00000KT 10SM CLR M09/M12 A3031 510 80 -2300 000/00 RMK AO2
14837KMSN MSN20020102201509601/02/02 20:15:31  5-MIN KMSN 030215Z 28003KT 10SM CLR M09/M12 A3031 510 80 -2300 270/03 RMK AO2
14837KMSN MSN20020102202009601/02/02 20:20:31  5-MIN KMSN 030220Z 29005KT 10SM CLR M09/M12 A3031 510 77 -2300 280/05 RMK AO2
14837KMSN MSN20020102202509601/02/02 20:25:31  5-MIN KMSN 030225Z 29005KT 10SM CLR M08/M12 A3031 510 74 -2200 290/05 RMK AO2
14837KMSN MSN20020102203009601/02/02 20:30:31  5-MIN KMSN 030230Z 29004KT 10SM CLR M09/M12 A3031 510 77 -2300 290/04 RMK AO2
14837KMSN MSN20020102203509601/02/02 20:35:31  5-MIN KMSN 030235Z 30004KT 10SM CLR M08/M12 A3031 510 74 -2200 300/04 RMK AO2
14837KMSN MSN20020102204009601/02/02 20:40:31  5-MIN KMSN 030240Z VRB04KT 10SM CLR M09/M13 A3031 510 74 -2300 VRB/04 RMK AO2
14837KMSN MSN20020102204509601/02/02 20:45:31  5-MIN KMSN 030245Z VRB03KT 10SM CLR M09/M13 A3031 510 70 -2300 VRB/03 RMK AO2
14837KMSN MSN20020102205011901/02/02 20:50:31  5-MIN KMSN 030250Z VRB04KT 10SM CLR M09/M13 A3031 510 74 -2300 VRB/04 RMK AO2 SLP281 T10891128 58005
14837KMSN MSN20020102205509601/02/02 20:55:31  5-MIN KMSN 030255Z 29004KT 10SM CLR M09/M13 A3031 510 74 -2300 290/04 RMK AO2
14837KMSN MSN20020102210009601/02/02 21:00:31  5-MIN KMSN 030300Z VRB03KT 10SM CLR M09/M13 A3031 510 77 -2300 VRB/03 RMK AO2
14837KMSN MSN20020102210509601/02/02 21:05:31  5-MIN KMSN 030305Z VRB03KT 10SM CLR M09/M13 A3031 510 77 -2300 VRB/03 RMK AO2
14837KMSN MSN20020102211009601/02/02 21:10:31  5-MIN KMSN 030310Z 31003KT 10SM CLR M09/M13 A3031 510 77 -2300 310/03 RMK AO2
14837KMSN MSN20020102211509601/02/02 21:15:31  5-MIN KMSN 030315Z 31003KT 10SM CLR M10/M13 A3031 510 80 -2400 300/03 RMK AO2
14837KMSN MSN20020102212009601/02/02 21:20:31  5-MIN KMSN 030320Z 31003KT 10SM CLR M09/M13 A3030 510 77 -2300 310/03 RMK AO2
14837KMSN MSN20020102212509601/02/02 21:25:31  5-MIN KMSN 030325Z 30003KT 10SM CLR M10/M13 A3030 510 80 -2400 300/03 RMK AO2
14837KMSN MSN20020102213009601/02/02 21:30:31  5-MIN KMSN 030330Z 31004KT 10SM CLR M10/M13 A3030 520 80 -2400 300/04 RMK AO2
14837KMSN MSN20020102213509601/02/02 21:35:31  5-MIN KMSN 030335Z 30004KT 10SM CLR M10/M13 A3030 520 77 -2400 300/04 RMK AO2
14837KMSN MSN20020102214009601/02/02 21:40:31  5-MIN KMSN 030340Z 29004KT 10SM CLR M10/M13 A3030 520 80 -2400 290/04 RMK AO2
14837KMSN MSN20020102214509601/02/02 21:45:31  5-MIN KMSN 030345Z 29004KT 10SM CLR M10/M13 A3030 520 77 -2400 290/04 RMK AO2
14837KMSN MSN20020102215011301/02/02 21:50:31  5-MIN KMSN 030350Z VRB03KT 10SM CLR M10/M13 A3030 520 80 -2400 VRB/03 RMK AO2 SLP276 T11001128
14837KMSN MSN20020102215509601/02/02 21:55:31  5-MIN KMSN 030355Z VRB03KT 10SM CLR M10/M13 A3029 520 77 -2400 VRB/03 RMK AO2
14837KMSN MSN20020102220009601/02/02 22:00:31  5-MIN KMSN 030400Z 27003KT 10SM CLR M10/M13 A3029 520 77 -2400 270/03 RMK AO2
14837KMSN MSN20020102220509601/02/02 22:05:31  5-MIN KMSN 030405Z 27004KT 10SM CLR M10/M13 A3029 520 80 -2400 270/04 RMK AO2
14837KMSN MSN20020102221009601/02/02 22:10:31  5-MIN KMSN 030410Z VRB03KT 10SM CLR M10/M13 A3029 530 80 -2400 VRB/03 RMK AO2
14837KMSN MSN20020102221509601/02/02 22:15:31  5-MIN KMSN 030415Z VRB03KT 10SM CLR M10/M13 A3029 530 77 -2400 VRB/03 RMK AO2
14837KMSN MSN20020102222009601/02/02 22:20:31  5-MIN KMSN 030420Z 00000KT 10SM CLR M09/M13 A3028 530 77 -2300 000/00 RMK AO2
14837KMSN MSN20020102222509601/02/02 22:25:31  5-MIN KMSN 030425Z 26004KT 10SM CLR M10/M13 A3028 530 77 -2400 260/04 RMK AO2
14837KMSN MSN20020102223009601/02/02 22:30:31  5-MIN KMSN 030430Z 26003KT 10SM CLR M11/M13 A3028 530 80 -2400 260/03 RMK AO2
14837KMSN MSN20020102223509601/02/02 22:35:31  5-MIN KMSN 030435Z 27004KT 10SM CLR M11/M13 A3028 530 84 -2500 270/04 RMK AO2
14837KMSN MSN20020102224009601/02/02 22:40:31  5-MIN KMSN 030440Z 28003KT 10SM CLR M11/M13 A3028 530 80 -2400 280/03 RMK AO2
14837KMSN MSN20020102224509601/02/02 22:45:31  5-MIN KMSN 030445Z 28003KT 10SM CLR M11/M13 A3028 530 80 -2400 280/03 RMK AO2
14837KMSN MSN20020102225011301/02/02 22:50:31  5-MIN KMSN 030450Z 27003KT 10SM CLR M10/M13 A3028 540 77 -2400 270/03 RMK AO2 SLP269 T11001133
14837KMSN MSN20020102225509601/02/02 22:55:31  5-MIN KMSN 030455Z 00000KT 10SM CLR M11/M13 A3028 540 84 -2400 000/00 RMK AO2
14837KMSN MSN20020102230009601/02/02 23:00:31  5-MIN KMSN 030500Z 29003KT 10SM CLR M11/M13 A3027 540 84 -2400 290/03 RMK AO2
14837KMSN MSN20020102230509601/02/02 23:05:31  5-MIN KMSN 030505Z 00000KT 10SM CLR M11/M13 A3027 540 80 -2400 000/00 RMK AO2
14837KMSN MSN20020102231009601/02/02 23:10:31  5-MIN KMSN 030510Z 00000KT 10SM CLR M11/M13 A3027 540 80 -2400 000/00 RMK AO2
14837KMSN MSN20020102231509601/02/02 23:15:31  5-MIN KMSN 030515Z 29004KT 10SM CLR M11/M13 A3027 540 80 -2400 290/04 RMK AO2
14837KMSN MSN20020102232009601/02/02 23:20:31  5-MIN KMSN 030520Z 28003KT 10SM CLR M11/M13 A3027 540 80 -2400 280/03 RMK AO2
14837KMSN MSN20020102232509601/02/02 23:25:31  5-MIN KMSN 030525Z 27003KT 10SM CLR M11/M13 A3027 550 80 -2400 270/03 RMK AO2
14837KMSN MSN20020102233009601/02/02 23:30:31  5-MIN KMSN 030530Z 26003KT 10SM CLR M11/M13 A3026 550 80 -2400 260/03 RMK AO2
14837KMSN MSN20020102233509601/02/02 23:35:31  5-MIN KMSN 030535Z 26003KT 10SM CLR M11/M13 A3026 550 80 -2400 260/03 RMK AO2
14837KMSN MSN20020102234009601/02/02 23:40:31  5-MIN KMSN 030540Z 26004KT 10SM CLR M11/M13 A3026 550 80 -2400 250/04 RMK AO2
14837KMSN MSN20020102234509601/02/02 23:45:31  5-MIN KMSN 030545Z 26004KT 10SM CLR M11/M13 A3026 560 80 -2400 260/04 RMK AO2
14837KMSN MSN20020102235014101/02/02 23:50:31  5-MIN KMSN 030550Z 27004KT 10SM CLR M11/M13 A3025 560 80 -2400 270/04 RMK AO2 SLP261 T11061133 11078 21111 410331156 58005
14837KMSN MSN20020102235509601/02/02 23:55:31  5-MIN KMSN 030555Z VRB04KT 10SM CLR M11/M13 A3025 560 80 -2400 VRB/04 RMK AO2
14837KMSN MSN20020103000009601/03/02 00:00:31  5-MIN KMSN 030600Z VRB03KT 10SM CLR M11/M13 A3025 560 80 -2400 VRB/03 RMK AO2
14837KMSN MSN20020103000509601/03/02 00:05:31  5-MIN KMSN 030605Z 27003KT 10SM CLR M11/M14 A3025 560 77 -2400 270/03 RMK AO2
14837KMSN MSN20020103001009601/03/02 00:10:31  5-MIN KMSN 030610Z 26003KT 10SM CLR M11/M13 A3025 560 80 -2400 260/03 RMK AO2
14837KMSN MSN20020103001509601/03/02 00:15:31  5-MIN KMSN 030615Z 25003KT 10SM CLR M11/M13 A3025 560 80 -2400 240/03 RMK AO2
14837KMSN MSN20020103002009601/03/02 00:20:31  5-MIN KMSN 030620Z VRB03KT 10SM CLR M11/M13 A3025 570 80 -2400 VRB/03 RMK AO2
14837KMSN MSN20020103002509601/03/02 00:25:31  5-MIN KMSN 030625Z VRB03KT 10SM CLR M11/M13 A3024 570 80 -2400 VRB/03 RMK AO2
14837KMSN MSN20020103003009601/03/02 00:30:31  5-MIN KMSN 030630Z 00000KT 10SM CLR M11/M14 A3024 570 77 -2400 000/00 RMK AO2
14837KMSN MSN20020103003509601/03/02 00:35:31  5-MIN KMSN 030635Z VRB03KT 10SM CLR M11/M13 A3025 560 80 -2400 VRB/03 RMK AO2
14837KMSN MSN20020103004009601/03/02 00:40:31  5-MIN KMSN 030640Z 00000KT 10SM CLR M11/M13 A3025 560 80 -2400 000/00 RMK AO2
14837KMSN MSN20020103004509601/03/02 00:45:31  5-MIN KMSN 030645Z VRB03KT 10SM CLR M11/M14 A3025 560 77 -2400 VRB/03 RMK AO2
14837KMSN MSN20020103005011301/03/02 00:50:31  5-MIN KMSN 030650Z 28003KT 10SM CLR M11/M14 A3025 560 80 -2500 280/03 RMK AO2 SLP258 T11111139
14837KMSN MSN20020103005509601/03/02 00:55:31  5-MIN KMSN 030655Z 28003KT 10SM CLR M11/M14 A3025 560 77 -2400 280/03 RMK AO2
14837KMSN MSN20020103010009601/03/02 01:00:31  5-MIN KMSN 030700Z 00000KT 10SM CLR M11/M14 A3025 560 80 -2500 000/00 RMK AO2
14837KMSN MSN20020103010509601/03/02 01:05:31  5-MIN KMSN 030705Z 28003KT 10SM CLR M11/M14 A3025 560 80 -2500 280/03 RMK AO2
14837KMSN MSN20020103011009601/03/02 01:10:31  5-MIN KMSN 030710Z 00000KT 10SM CLR M11/M14 A3025 560 80 -2500 000/00 RMK AO2
14837KMSN MSN20020103011509601/03/02 01:15:31  5-MIN KMSN 030715Z 00000KT 10SM CLR M11/M14 A3025 560 80 -2500 000/00 RMK AO2
14837KMSN MSN20020103012009601/03/02 01:20:31  5-MIN KMSN 030720Z 00000KT 10SM CLR M11/M14 A3025 560 77 -2400 000/00 RMK AO2
14837KMSN MSN20020103012509601/03/02 01:25:31  5-MIN KMSN 030725Z 00000KT 10SM CLR M11/M14 A3025 560 80 -2500 000/00 RMK AO2
14837KMSN MSN20020103013009601/03/02 01:30:31  5-MIN KMSN 030730Z VRB03KT 10SM CLR M11/M14 A3025 560 80 -2500 VRB/03 RMK AO2
14837KMSN MSN20020103013509601/03/02 01:35:31  5-MIN KMSN 030735Z 00000KT 10SM CLR M11/M14 A3025 560 80 -2500 000/00 RMK AO2
14837KMSN MSN20020103014009601/03/02 01:40:31  5-MIN KMSN 030740Z 00000KT 10SM CLR M11/M14 A3025 560 77 -2500 000/00 RMK AO2
14837KMSN MSN20020103014509601/03/02 01:45:31  5-MIN KMSN 030745Z 00000KT 10SM CLR M11/M14 A3025 560 77 -2500 000/00 RMK AO2
14837KMSN MSN20020103015011301/03/02 01:50:31  5-MIN KMSN 030750Z 00000KT 10SM CLR M12/M14 A3025 560 80 -2600 000/00 RMK AO2 SLP259 T11171144
14837KMSN MSN20020103015509601/03/02 01:55:31  5-MIN KMSN 030755Z 00000KT 10SM CLR M11/M14 A3025 560 80 -2500 000/00 RMK AO2
14837KMSN MSN20020103020009601/03/02 02:00:31  5-MIN KMSN 030800Z 26003KT 10SM CLR M11/M14 A3025 560 80 -2500 260/03 RMK AO2
14837KMSN MSN20020103020509601/03/02 02:05:31  5-MIN KMSN 030805Z 27003KT 10SM CLR M11/M14 A3025 560 80 -2500 270/03 RMK AO2
14837KMSN MSN20020103021009601/03/02 02:10:31  5-MIN KMSN 030810Z 27003KT 10SM CLR M12/M14 A3025 560 80 -2600 270/03 RMK AO2
14837KMSN MSN20020103021509601/03/02 02:15:31  5-MIN KMSN 030815Z 26003KT 10SM CLR M12/M14 A3025 560 80 -2600 260/03 RMK AO2
14837KMSN MSN20020103022009601/03/02 02:20:31  5-MIN KMSN 030820Z 26004KT 10SM CLR M12/M14 A3025 560 84 -2600 260/04 RMK AO2
14837KMSN MSN20020103022509601/03/02 02:25:31  5-MIN KMSN 030825Z 28003KT 10SM CLR M12/M14 A3025 560 84 -2600 280/03 RMK AO2
14837KMSN MSN20020103023009601/03/02 02:30:31  5-MIN KMSN 030830Z 26003KT 10SM CLR M12/M14 A3025 560 80 -2600 260/03 RMK AO2
14837KMSN MSN20020103023509601/03/02 02:35:31  5-MIN KMSN 030835Z 27003KT 10SM CLR M11/M14 A3025 560 77 -2500 270/03 RMK AO2
14837KMSN MSN20020103024009601/03/02 02:40:31  5-MIN KMSN 030840Z 30003KT 10SM CLR M12/M14 A3025 560 80 -2600 300/03 RMK AO2
14837KMSN MSN20020103024509601/03/02 02:45:31  5-MIN KMSN 030845Z VRB03KT 10SM CLR M12/M14 A3025 560 80 -2600 VRB/03 RMK AO2
14837KMSN MSN20020103025011901/03/02 02:50:31  5-MIN KMSN 030850Z 00000KT 10SM CLR M12/M14 A3025 560 80 -2600 000/00 RMK AO2 SLP259 T11171144 58018
14837KMSN MSN20020103025509601/03/02 02:55:31  5-MIN KMSN 030855Z VRB03KT 10SM CLR M12/M14 A3025 560 84 -2600 VRB/03 RMK AO2
14837KMSN MSN20020103030009601/03/02 03:00:31  5-MIN KMSN 030900Z 29004KT 10SM CLR M12/M14 A3025 560 80 -2600 290/04 RMK AO2
14837KMSN MSN20020103030509601/03/02 03:05:31  5-MIN KMSN 030905Z 29005KT 10SM CLR M12/M14 A3025 560 84 -2600 290/05 RMK AO2
14837KMSN MSN20020103031009601/03/02 03:10:31  5-MIN KMSN 030910Z 29005KT 10SM CLR M12/M14 A3025 560 80 -2600 280/05 RMK AO2
14837KMSN MSN20020103031509601/03/02 03:15:31  5-MIN KMSN 030915Z VRB03KT 10SM CLR M12/M14 A3025 560 84 -2600 VRB/03 RMK AO2
14837KMSN MSN20020103032009601/03/02 03:20:31  5-MIN KMSN 030920Z 00000KT 10SM CLR M12/M14 A3025 560 80 -2600 000/00 RMK AO2
14837KMSN MSN20020103032509601/03/02 03:25:31  5-MIN KMSN 030925Z 28003KT 10SM CLR M12/M14 A3025 560 80 -2600 280/03 RMK AO2
14837KMSN MSN20020103033009601/03/02 03:30:31  5-MIN KMSN 030930Z VRB04KT 10SM CLR M12/M14 A3025 560 80 -2600 VRB/04 RMK AO2
14837KMSN MSN20020103033509601/03/02 03:35:31  5-MIN KMSN 030935Z VRB04KT 10SM CLR M12/M14 A3025 560 80 -2600 VRB/04 RMK AO2
14837KMSN MSN20020103034009601/03/02 03:40:31  5-MIN KMSN 030940Z VRB03KT 10SM CLR M12/M14 A3025 560 80 -2600 VRB/03 RMK AO2
14837KMSN MSN20020103034509601/03/02 03:45:31  5-MIN KMSN 030945Z 00000KT 10SM CLR M12/M14 A3025 560 80 -2600 000/00 RMK AO2
14837KMSN MSN20020103035011301/03/02 03:50:31  5-MIN KMSN 030950Z VRB03KT 10SM CLR M12/M14 A3025 560 80 -2600 VRB/03 RMK AO2 SLP259 T11171144
14837KMSN MSN20020103035509601/03/02 03:55:31  5-MIN KMSN 030955Z 00000KT 10SM CLR M12/M14 A3025 560 80 -2600 000/00 RMK AO2
14837KMSN MSN20020103040009601/03/02 04:00:31  5-MIN KMSN 031000Z 00000KT 10SM CLR M12/M14 A3025 560 80 -2600 000/00 RMK AO2
14837KMSN MSN20020103040509601/03/02 04:05:31  5-MIN KMSN 031005Z 30003KT 10SM CLR M12/M14 A3025 560 80 -2600 300/03 RMK AO2
14837KMSN MSN20020103041009601/03/02 04:10:31  5-MIN KMSN 031010Z 00000KT 10SM CLR M12/M14 A3025 560 84 -2600 000/00 RMK AO2
14837KMSN MSN20020103041509601/03/02 04:15:31  5-MIN KMSN 031015Z 00000KT 10SM CLR M12/M14 A3026 560 84 -2600 000/00 RMK AO2
14837KMSN MSN20020103042009601/03/02 04:20:31  5-MIN KMSN 031020Z 00000KT 10SM CLR M12/M14 A3026 560 84 -2600 000/00 RMK AO2
14837KMSN MSN20020103042509601/03/02 04:25:31  5-MIN KMSN 031025Z 00000KT 10SM CLR M12/M14 A3025 560 84 -2600 000/00 RMK AO2
14837KMSN MSN20020103043009601/03/02 04:30:31  5-MIN KMSN 031030Z 00000KT 10SM CLR M13/M15 A3025 560 84 -2700 000/00 RMK AO2
14837KMSN MSN20020103043509601/03/02 04:35:31  5-MIN KMSN 031035Z 27003KT 10SM CLR M13/M14 A3025 560 87 -2700 270/03 RMK AO2
14837KMSN MSN20020103044009601/03/02 04:40:31  5-MIN KMSN 031040Z 28003KT 10SM CLR M13/M15 A3025 560 84 -2700 280/03 RMK AO2
14837KMSN MSN20020103044509601/03/02 04:45:31  5-MIN KMSN 031045Z 28004KT 10SM CLR M13/M15 A3025 560 84 -2700 280/04 RMK AO2
14837KMSN MSN20020103045011301/03/02 04:50:31  5-MIN KMSN 031050Z 28004KT 10SM CLR M13/M15 A3025 560 84 -2700 280/04 RMK AO2 SLP262 T11281150
14837KMSN MSN20020103045509601/03/02 04:55:31  5-MIN KMSN 031055Z 28003KT 10SM CLR M13/M15 A3026 550 84 -2700 280/03 RMK AO2
14837KMSN MSN20020103050009601/03/02 05:00:31  5-MIN KMSN 031100Z 26003KT 10SM CLR M13/M15 A3026 560 87 -2800 260/03 RMK AO2
14837KMSN MSN20020103050509601/03/02 05:05:31  5-MIN KMSN 031105Z 00000KT 10SM CLR M13/M15 A3025 560 87 -2800 000/00 RMK AO2
14837KMSN MSN20020103051009601/03/02 05:10:31  5-MIN KMSN 031110Z 28003KT 10SM CLR M13/M16 A3025 560 83 -2800 280/03 RMK AO2
14837KMSN MSN20020103051509601/03/02 05:15:31  5-MIN KMSN 031115Z 28004KT 10SM CLR M13/M16 A3025 560 83 -2800 270/04 RMK AO2
14837KMSN MSN20020103052009601/03/02 05:20:31  5-MIN KMSN 031120Z 28003KT 10SM CLR M13/M18 A3026 550 69 -2800 280/03 RMK AO2
14837KMSN MSN20020103052509601/03/02 05:25:31  5-MIN KMSN 031125Z 28004KT 10SM CLR M14/M17 A3026 550 83 -2900 280/04 RMK AO2
14837KMSN MSN20020103053009601/03/02 05:30:31  5-MIN KMSN 031130Z 28004KT 10SM CLR M14/M16 A3026 550 87 -2900 280/04 RMK AO2
14837KMSN MSN20020103053509601/03/02 05:35:31  5-MIN KMSN 031135Z 28004KT 10SM CLR M13/M16 A3026 550 83 -2800 280/04 RMK AO2
14837KMSN MSN20020103054009601/03/02 05:40:31  5-MIN KMSN 031140Z VRB04KT 10SM CLR M13/M15 A3026 550 84 -2700 VRB/04 RMK AO2
14837KMSN MSN20020103054510201/03/02 05:45:31  5-MIN KMSN 031145Z 28004KT 10SM CLR M13/M15 A3027 550 84 -2700 280/04 RMK AO2 4/001
14837KMSN MSN20020103055013701/03/02 05:50:31  5-MIN KMSN 031150Z 28004KT 10SM CLR M13/M15 A3027 540 87 -2800 280/04 RMK AO2 SLP268 4/001 T11331150 11106 21144 55001
14837KMSN MSN20020103055509601/03/02 05:55:31  5-MIN KMSN 031155Z 27004KT 10SM CLR M13/M16 A3027 550 83 -2800 270/04 RMK AO2
14837KMSN MSN20020103060009601/03/02 06:00:31  5-MIN KMSN 031200Z 27005KT 10SM CLR M13/M16 A3026 550 83 -2800 270/05 RMK AO2
14837KMSN MSN20020103060509601/03/02 06:05:31  5-MIN KMSN 031205Z 28004KT 10SM CLR M13/M16 A3027 550 83 -2800 280/04 RMK AO2
14837KMSN MSN20020103061009601/03/02 06:10:31  5-MIN KMSN 031210Z 27004KT 10SM CLR M13/M16 A3027 540 83 -2800 270/04 RMK AO2
14837KMSN MSN20020103061509601/03/02 06:15:31  5-MIN KMSN 031215Z 27004KT 10SM CLR M13/M16 A3027 550 83 -2800 260/04 RMK AO2
14837KMSN MSN20020103062009601/03/02 06:20:31  5-MIN KMSN 031220Z 27005KT 10SM CLR M13/M15 A3026 550 87 -2800 270/05 RMK AO2
14837KMSN MSN20020103062509601/03/02 06:25:31  5-MIN KMSN 031225Z VRB05KT 10SM CLR M13/M15 A3026 550 84 -2700 VRB/05 RMK AO2
14837KMSN MSN20020103063009601/03/02 06:30:31  5-MIN KMSN 031230Z 27004KT 10SM CLR M13/M15 A3027 550 87 -2800 270/04 RMK AO2
14837KMSN MSN20020103063509601/03/02 06:35:31  5-MIN KMSN 031235Z 27004KT 10SM CLR M13/M16 A3027 550 83 -2800 270/04 RMK AO2
14837KMSN MSN20020103064009601/03/02 06:40:31  5-MIN KMSN 031240Z 28003KT 10SM CLR M13/M16 A3027 550 83 -2800 280/03 RMK AO2
14837KMSN MSN20020103064509601/03/02 06:45:31  5-MIN KMSN 031245Z 28004KT 10SM CLR M14/M16 A3027 550 87 -2900 280/04 RMK AO2
14837KMSN MSN20020103065011301/03/02 06:50:31  5-MIN KMSN 031250Z 28004KT 10SM CLR M13/M16 A3027 550 83 -2800 280/04 RMK AO2 SLP268 T11331156
14837KMSN MSN20020103065509601/03/02 06:55:31  5-MIN KMSN 031255Z 28004KT 10SM CLR M13/M15 A3027 540 87 -2800 280/04 RMK AO2
14837KMSN MSN20020103070009601/03/02 07:00:31  5-MIN KMSN 031300Z 28005KT 10SM CLR M13/M15 A3027 540 87 -2800 280/05 RMK AO2
14837KMSN MSN20020103070509601/03/02 07:05:31  5-MIN KMSN 031305Z 28004KT 10SM CLR M13/M15 A3027 540 87 -2800 280/04 RMK AO2
14837KMSN MSN20020103071009601/03/02 07:10:31  5-MIN KMSN 031310Z 28005KT 10SM CLR M13/M15 A3027 550 87 -2800 280/05 RMK AO2
14837KMSN MSN20020103071509601/03/02 07:15:31  5-MIN KMSN 031315Z 28004KT 10SM CLR M13/M15 A3027 550 87 -2800 280/04 RMK AO2
14837KMSN MSN20020103072009601/03/02 07:20:31  5-MIN KMSN 031320Z VRB04KT 10SM CLR M13/M15 A3027 550 87 -2800 VRB/04 RMK AO2
14837KMSN MSN20020103072509601/03/02 07:25:31  5-MIN KMSN 031325Z 27004KT 10SM CLR M13/M16 A3027 550 83 -2800 260/04 RMK AO2
14837KMSN MSN20020103073009601/03/02 07:30:31  5-MIN KMSN 031330Z 28004KT 10SM CLR M13/M16 A3027 540 83 -2800 280/04 RMK AO2
14837KMSN MSN20020103073509601/03/02 07:35:31  5-MIN KMSN 031335Z 28003KT 10SM CLR M14/M16 A3027 540 87 -2900 270/03 RMK AO2
14837KMSN MSN20020103074009601/03/02 07:40:31  5-MIN KMSN 031340Z 28003KT 10SM CLR M13/M15 A3027 540 87 -2800 270/03 RMK AO2
14837KMSN MSN20020103074509601/03/02 07:45:31  5-MIN KMSN 031345Z 27003KT 10SM CLR M13/M16 A3027 540 83 -2800 270/03 RMK AO2
14837KMSN MSN20020103075011301/03/02 07:50:31  5-MIN KMSN 031350Z 28003KT 10SM CLR M13/M16 A3027 540 83 -2800 280/03 RMK AO2 SLP270 T11331156
14837KMSN MSN20020103075509501/03/02 07:55:31  5-MIN KMSN 031355Z 29004KT 8SM CLR M13/M16 A3027 540 83 -2800 290/04 RMK AO2
14837KMSN MSN20020103080009501/03/02 08:00:31  5-MIN KMSN 031400Z VRB04KT 8SM CLR M13/M16 A3027 540 83 -2800 VRB/04 RMK AO2
14837KMSN MSN20020103080509501/03/02 08:05:31  5-MIN KMSN 031405Z 28004KT 9SM CLR M13/M15 A3028 540 87 -2800 280/04 RMK AO2
14837KMSN MSN20020103081009501/03/02 08:10:31  5-MIN KMSN 031410Z 27005KT 9SM CLR M13/M15 A3028 540 84 -2700 270/05 RMK AO2
14837KMSN MSN20020103081509501/03/02 08:15:31  5-MIN KMSN 031415Z 26005KT 9SM CLR M13/M15 A3028 540 84 -2700 260/05 RMK AO2
14837KMSN MSN20020103082009601/03/02 08:20:31  5-MIN KMSN 031420Z VRB04KT 10SM CLR M13/M15 A3028 540 84 -2700 VRB/04 RMK AO2
14837KMSN MSN20020103082509601/03/02 08:25:31  5-MIN KMSN 031425Z 27004KT 10SM CLR M12/M15 A3028 540 80 -2700 270/04 RMK AO2
14837KMSN MSN20020103083009601/03/02 08:30:31  5-MIN KMSN 031430Z 27004KT 10SM CLR M12/M14 A3028 540 84 -2700 270/04 RMK AO2
14837KMSN MSN20020103083509601/03/02 08:35:31  5-MIN KMSN 031435Z VRB04KT 10SM CLR M12/M15 A3028 540 80 -2700 VRB/04 RMK AO2
14837KMSN MSN20020103084009601/03/02 08:40:31  5-MIN KMSN 031440Z VRB03KT 10SM CLR M12/M15 A3028 540 76 -2600 VRB/03 RMK AO2
14837KMSN MSN20020103084509601/03/02 08:45:31  5-MIN KMSN 031445Z 29004KT 10SM CLR M12/M14 A3028 540 80 -2600 290/04 RMK AO2
14837KMSN MSN20020103085011901/03/02 08:50:31  5-MIN KMSN 031450Z 29006KT 10SM CLR M12/M14 A3027 540 80 -2600 290/06 RMK AO2 SLP270 T11171144 53006
14837KMSN MSN20020103085509601/03/02 08:55:31  5-MIN KMSN 031455Z 28005KT 10SM CLR M11/M14 A3027 540 77 -2500 280/05 RMK AO2
14837KMSN MSN20020103090009601/03/02 09:00:31  5-MIN KMSN 031500Z 27004KT 10SM CLR M11/M14 A3027 540 77 -2500 270/04 RMK AO2
14837KMSN MSN20020103090509601/03/02 09:05:31  5-MIN KMSN 031505Z VRB03KT 10SM CLR M11/M14 A3027 540 77 -2500 VRB/03 RMK AO2
14837KMSN MSN20020103091009601/03/02 09:10:31  5-MIN KMSN 031510Z VRB04KT 10SM CLR M11/M14 A3027 540 77 -2500 VRB/04 RMK AO2
14837KMSN MSN20020103091509601/03/02 09:15:31  5-MIN KMSN 031515Z VRB04KT 10SM CLR M11/M14 A3027 540 77 -2400 VRB/04 RMK AO2
14837KMSN MSN20020103092009601/03/02 09:20:31  5-MIN KMSN 031520Z 28005KT 10SM CLR M11/M14 A3027 540 77 -2400 280/05 RMK AO2
14837KMSN MSN20020103092509601/03/02 09:25:31  5-MIN KMSN 031525Z 00000KT 10SM CLR M11/M14 A3027 540 77 -2400 000/00 RMK AO2
14837KMSN MSN20020103093009601/03/02 09:30:31  5-MIN KMSN 031530Z VRB03KT 10SM CLR M10/M14 A3027 550 73 -2400 VRB/03 RMK AO2
14837KMSN MSN20020103093509601/03/02 09:35:31  5-MIN KMSN 031535Z VRB05KT 10SM CLR M10/M14 A3027 540 73 -2400 VRB/05 RMK AO2
14837KMSN MSN20020103094009601/03/02 09:40:31  5-MIN KMSN 031540Z 29004KT 10SM CLR M09/M13 A3027 550 73 -2300 290/04 RMK AO2
14837KMSN MSN20020103094509601/03/02 09:45:31  5-MIN KMSN 031545Z VRB03KT 10SM CLR M09/M13 A3027 550 77 -2300 VRB/03 RMK AO2
14837KMSN MSN20020103095011301/03/02 09:50:31  5-MIN KMSN 031550Z 27006KT 10SM CLR M09/M13 A3027 540 77 -2300 260/06 RMK AO2 SLP267 T10941128
14837KMSN MSN20020103095509601/03/02 09:55:31  5-MIN KMSN 031555Z 26006KT 10SM CLR M09/M13 A3027 540 73 -2300 260/06 RMK AO2
14837KMSN MSN20020103100009601/03/02 10:00:31  5-MIN KMSN 031600Z VRB03KT 10SM CLR M09/M13 A3027 540 70 -2200 VRB/03 RMK AO2
14837KMSN MSN20020103100509601/03/02 10:05:31  5-MIN KMSN 031605Z VRB04KT 10SM CLR M09/M13 A3027 540 74 -2200 VRB/04 RMK AO2
14837KMSN MSN20020103101009601/03/02 10:10:31  5-MIN KMSN 031610Z VRB04KT 10SM CLR M09/M13 A3027 540 74 -2200 VRB/04 RMK AO2
14837KMSN MSN20020103101509601/03/02 10:15:31  5-MIN KMSN 031615Z VRB05KT 10SM CLR M08/M13 A3027 540 70 -2100 VRB/05 RMK AO2
14837KMSN MSN20020103102009601/03/02 10:20:31  5-MIN KMSN 031620Z VRB04KT 10SM CLR M08/M12 A3027 540 74 -2100 VRB/04 RMK AO2
14837KMSN MSN20020103102509601/03/02 10:25:31  5-MIN KMSN 031625Z 26005KT 10SM CLR M08/M13 A3027 540 70 -2100 260/05 RMK AO2
14837KMSN MSN20020103103009601/03/02 10:30:31  5-MIN KMSN 031630Z 29007KT 10SM CLR M08/M13 A3027 540 70 -2100 290/07 RMK AO2
14837KMSN MSN20020103103509601/03/02 10:35:31  5-MIN KMSN 031635Z VRB05KT 10SM CLR M08/M13 A3027 540 70 -2100 VRB/05 RMK AO2
14837KMSN MSN20020103104009601/03/02 10:40:31  5-MIN KMSN 031640Z 27006KT 10SM CLR M08/M13 A3027 540 67 -2100 270/06 RMK AO2
14837KMSN MSN20020103104509601/03/02 10:45:31  5-MIN KMSN 031645Z 28008KT 10SM CLR M08/M13 A3027 550 67 -2100 280/08 RMK AO2
14837KMSN MSN20020103105011301/03/02 10:50:31  5-MIN KMSN 031650Z 30007KT 10SM CLR M08/M12 A3026 550 71 -2100 300/07 RMK AO2 SLP265 T10781122
14837KMSN MSN20020103105511201/03/02 10:55:31  5-MIN KMSN 031655Z 28008KT 250V310 10SM CLR M08/M12 A3026 550 71 -2100 280/08 250V310 RMK AO2
14837KMSN MSN20020103110009601/03/02 11:00:31  5-MIN KMSN 031700Z VRB06KT 10SM CLR M08/M13 A3026 550 67 -2100 VRB/06 RMK AO2
14837KMSN MSN20020103110509601/03/02 11:05:31  5-MIN KMSN 031705Z 29007KT 10SM CLR M07/M12 A3026 560 68 -2000 290/07 RMK AO2
14837KMSN MSN20020103111009601/03/02 11:10:31  5-MIN KMSN 031710Z 28006KT 10SM CLR M07/M13 A3025 560 65 -2000 280/06 RMK AO2
14837KMSN MSN20020103111509601/03/02 11:15:31  5-MIN KMSN 031715Z 28007KT 10SM CLR M07/M13 A3024 570 65 -2000 280/07 RMK AO2
14837KMSN MSN20020103112009601/03/02 11:20:31  5-MIN KMSN 031720Z 27007KT 10SM CLR M07/M13 A3024 570 65 -2000 270/07 RMK AO2
14837KMSN MSN20020103112509601/03/02 11:25:31  5-MIN KMSN 031725Z 29007KT 10SM CLR M07/M12 A3024 570 65 -1900 290/07 RMK AO2
14837KMSN MSN20020103113009601/03/02 11:30:31  5-MIN KMSN 031730Z 28007KT 10SM CLR M07/M12 A3024 570 65 -1900 280/07 RMK AO2
14837KMSN MSN20020103113509601/03/02 11:35:31  5-MIN KMSN 031735Z 28007KT 10SM CLR M07/M12 A3024 570 65 -1900 280/07 RMK AO2
14837KMSN MSN20020103114009601/03/02 11:40:31  5-MIN KMSN 031740Z 28006KT 10SM CLR M07/M12 A3023 570 65 -1900 280/06 RMK AO2
14837KMSN MSN20020103114509601/03/02 11:45:31  5-MIN KMSN 031745Z 29006KT 10SM CLR M07/M12 A3023 580 65 -1900 280/06 RMK AO2
14837KMSN MSN20020103115013101/03/02 11:50:31  5-MIN KMSN 031750Z 26005KT 10SM CLR M07/M12 A3023 580 65 -1900 260/05 RMK AO2 SLP253 T10671122 11067 21139 53002
14837KMSN MSN20020103115509601/03/02 11:55:31  5-MIN KMSN 031755Z 26007KT 10SM CLR M07/M12 A3023 580 65 -1900 260/07 RMK AO2
14837KMSN MSN20020103120009601/03/02 12:00:31  5-MIN KMSN 031800Z 26006KT 10SM CLR M07/M12 A3022 590 65 -1900 260/06 RMK AO2
14837KMSN MSN20020103120509601/03/02 12:05:31  5-MIN KMSN 031805Z 25006KT 10SM CLR M07/M12 A3022 590 65 -1900 250/06 RMK AO2
14837KMSN MSN20020103121011201/03/02 12:10:31  5-MIN KMSN 031810Z 24007KT 200V260 10SM CLR M07/M12 A3022 590 65 -1900 240/07 200V260 RMK AO2
14837KMSN MSN20020103121509601/03/02 12:15:31  5-MIN KMSN 031815Z VRB05KT 10SM CLR M07/M12 A3021 600 65 -1900 VRB/05 RMK AO2
14837KMSN MSN20020103122009601/03/02 12:20:31  5-MIN KMSN 031820Z 27005KT 10SM CLR M06/M12 A3021 600 65 -1800 270/05 RMK AO2
14837KMSN MSN20020103122509601/03/02 12:25:31  5-MIN KMSN 031825Z 23004KT 10SM CLR M06/M12 A3021 600 65 -1800 230/04 RMK AO2
14837KMSN MSN20020103123009601/03/02 12:30:31  5-MIN KMSN 031830Z 21005KT 10SM CLR M06/M12 A3021 600 65 -1800 210/05 RMK AO2
14837KMSN MSN20020103123509601/03/02 12:35:31  5-MIN KMSN 031835Z VRB03KT 10SM CLR M06/M12 A3021 600 62 -1700 VRB/03 RMK AO2
14837KMSN MSN20020103124009601/03/02 12:40:31  5-MIN KMSN 031840Z 23007KT 10SM CLR M06/M11 A3021 600 65 -1700 230/07 RMK AO2
14837KMSN MSN20020103124511201/03/02 12:45:31  5-MIN KMSN 031845Z 22007KT 190V260 10SM CLR M06/M12 A3021 600 62 -1700 220/07 190V260 RMK AO2
14837KMSN MSN20020103125011301/03/02 12:50:31  5-MIN KMSN 031850Z VRB05KT 10SM CLR M05/M11 A3020 610 65 -1700 VRB/05 RMK AO2 SLP244 T10551111
14837KMSN MSN20020103125509601/03/02 12:55:31  5-MIN KMSN 031855Z VRB05KT 10SM CLR M06/M11 A3020 610 65 -1700 VRB/05 RMK AO2
14837KMSN MSN20020103130009601/03/02 13:00:31  5-MIN KMSN 031900Z 21006KT 10SM CLR M06/M11 A3020 610 65 -1700 210/06 RMK AO2
14837KMSN MSN20020103130509601/03/02 13:05:31  5-MIN KMSN 031905Z 26006KT 10SM CLR M05/M11 A3020 610 62 -1600 260/06 RMK AO2
14837KMSN MSN20020103131009601/03/02 13:10:31  5-MIN KMSN 031910Z VRB05KT 10SM CLR M05/M11 A3019 610 62 -1600 VRB/05 RMK AO2
14837KMSN MSN20020103131509601/03/02 13:15:31  5-MIN KMSN 031915Z 21007KT 10SM CLR M05/M11 A3019 620 62 -1600 210/07 RMK AO2
14837KMSN MSN20020103132009601/03/02 13:20:31  5-MIN KMSN 031920Z 21008KT 10SM CLR M05/M11 A3019 620 62 -1600 210/08 RMK AO2
14837KMSN MSN20020103132509601/03/02 13:25:31  5-MIN KMSN 031925Z 21008KT 10SM CLR M05/M11 A3019 620 62 -1600 210/08 RMK AO2
14837KMSN MSN20020103133009601/03/02 13:30:31  5-MIN KMSN 031930Z VRB06KT 10SM CLR M04/M11 A3019 620 60 -1500 VRB/06 RMK AO2
14837KMSN MSN20020103133509601/03/02 13:35:31  5-MIN KMSN 031935Z 24007KT 10SM CLR M04/M11 A3019 620 60 -1500 240/07 RMK AO2
14837KMSN MSN20020103134009601/03/02 13:40:31  5-MIN KMSN 031940Z 21007KT 10SM CLR M04/M11 A3019 620 62 -1500 210/07 RMK AO2
14837KMSN MSN20020103134509601/03/02 13:45:31  5-MIN KMSN 031945Z VRB06KT 10SM CLR M04/M11 A3018 620 62 -1500 VRB/06 RMK AO2
14837KMSN MSN20020103135011301/03/02 13:50:31  5-MIN KMSN 031950Z 23008KT 10SM CLR M04/M11 A3018 620 60 -1500 230/08 RMK AO2 SLP236 T10391106
14837KMSN MSN20020103135509601/03/02 13:55:31  5-MIN KMSN 031955Z 25009KT 10SM CLR M04/M12 A3019 620 57 -1500 250/09 RMK AO2
14837KMSN MSN20020103140009601/03/02 14:00:31  5-MIN KMSN 032000Z VRB06KT 10SM CLR M04/M12 A3019 620 57 -1500 VRB/06 RMK AO2
14837KMSN MSN20020103140509601/03/02 14:05:31  5-MIN KMSN 032005Z 23007KT 10SM CLR M04/M12 A3019 620 57 -1500 230/07 RMK AO2
14837KMSN MSN20020103141009601/03/02 14:10:31  5-MIN KMSN 032010Z 23007KT 10SM CLR M04/M12 A3018 620 57 -1500 230/07 RMK AO2
14837KMSN MSN20020103141509601/03/02 14:15:31  5-MIN KMSN 032015Z 22008KT 10SM CLR M04/M11 A3018 620 57 -1500 220/08 RMK AO2
14837KMSN MSN20020103142009601/03/02 14:20:31  5-MIN KMSN 032020Z 23009KT 10SM CLR M04/M11 A3019 620 57 -1500 230/09 RMK AO2
14837KMSN MSN20020103142511201/03/02 14:25:31  5-MIN KMSN 032025Z 22007KT 200V260 10SM CLR M04/M11 A3019 620 57 -1500 220/07 200V260 RMK AO2
14837KMSN MSN20020103143011201/03/02 14:30:31  5-MIN KMSN 032030Z 24008KT 200V270 10SM CLR M04/M11 A3019 620 57 -1500 240/08 200V270 RMK AO2
14837KMSN MSN20020103143509601/03/02 14:35:31  5-MIN KMSN 032035Z 23008KT 10SM CLR M04/M11 A3019 620 60 -1500 230/08 RMK AO2
14837KMSN MSN20020103144009601/03/02 14:40:31  5-MIN KMSN 032040Z 24007KT 10SM CLR M04/M11 A3019 620 57 -1500 240/07 RMK AO2
14837KMSN MSN20020103144509601/03/02 14:45:31  5-MIN KMSN 032045Z 24009KT 10SM CLR M04/M11 A3019 620 57 -1500 240/09 RMK AO2
14837KMSN MSN20020103145011901/03/02 14:50:31  5-MIN KMSN 032050Z 21007KT 10SM CLR M04/M11 A3018 620 57 -1500 210/07 RMK AO2 SLP236 T10391111 58015
14837KMSN MSN20020103145509601/03/02 14:55:31  5-MIN KMSN 032055Z 23009KT 10SM CLR M04/M11 A3017 630 57 -1500 230/09 RMK AO2
14837KMSN MSN20020103150009601/03/02 15:00:31  5-MIN KMSN 032100Z 22007KT 10SM CLR M04/M11 A3018 630 60 -1500 220/07 RMK AO2
14837KMSN MSN20020103150509601/03/02 15:05:31  5-MIN KMSN 032105Z 22007KT 10SM CLR M04/M11 A3018 630 60 -1500 220/07 RMK AO2
14837KMSN MSN20020103151009601/03/02 15:10:31  5-MIN KMSN 032110Z 22008KT 10SM CLR M04/M11 A3017 630 60 -1500 220/08 RMK AO2
14837KMSN MSN20020103151509601/03/02 15:15:31  5-MIN KMSN 032115Z 23006KT 10SM CLR M04/M11 A3017 630 60 -1500 230/06 RMK AO2
14837KMSN MSN20020103152009601/03/02 15:20:31  5-MIN KMSN 032120Z 22006KT 10SM CLR M04/M11 A3017 630 60 -1500 220/06 RMK AO2
14837KMSN MSN20020103152509601/03/02 15:25:31  5-MIN KMSN 032125Z 23008KT 10SM CLR M04/M11 A3017 630 60 -1500 230/08 RMK AO2
14837KMSN MSN20020103153009601/03/02 15:30:31  5-MIN KMSN 032130Z 24007KT 10SM CLR M04/M11 A3017 640 62 -1500 230/07 RMK AO2
14837KMSN MSN20020103153509601/03/02 15:35:31  5-MIN KMSN 032135Z 20007KT 10SM CLR M04/M11 A3017 630 60 -1400 200/07 RMK AO2
14837KMSN MSN20020103154009601/03/02 15:40:31  5-MIN KMSN 032140Z 21008KT 10SM CLR M04/M11 A3017 630 57 -1400 210/08 RMK AO2
14837KMSN MSN20020103154509601/03/02 15:45:31  5-MIN KMSN 032145Z 22009KT 10SM CLR M04/M11 A3017 630 60 -1500 220/09 RMK AO2
14837KMSN MSN20020103155011301/03/02 15:50:31  5-MIN KMSN 032150Z 22008KT 10SM CLR M04/M11 A3017 630 60 -1500 220/08 RMK AO2 SLP233 T10441111
14837KMSN MSN20020103155509601/03/02 15:55:31  5-MIN KMSN 032155Z 22005KT 10SM CLR M04/M11 A3017 630 60 -1500 220/05 RMK AO2
14837KMSN MSN20020103160009601/03/02 16:00:31  5-MIN KMSN 032200Z 23006KT 10SM CLR M04/M11 A3017 630 60 -1500 230/06 RMK AO2
14837KMSN MSN20020103160509601/03/02 16:05:31  5-MIN KMSN 032205Z 22007KT 10SM CLR M04/M11 A3017 630 62 -1500 220/07 RMK AO2
14837KMSN MSN20020103161009601/03/02 16:10:31  5-MIN KMSN 032210Z 22008KT 10SM CLR M04/M11 A3017 630 60 -1500 210/08 RMK AO2
14837KMSN MSN20020103161509601/03/02 16:15:31  5-MIN KMSN 032215Z 22010KT 10SM CLR M04/M11 A3017 640 62 -1500 210/10 RMK AO2
14837KMSN MSN20020103162009601/03/02 16:20:31  5-MIN KMSN 032220Z 22007KT 10SM CLR M04/M11 A3016 640 62 -1500 220/07 RMK AO2
14837KMSN MSN20020103162509601/03/02 16:25:31  5-MIN KMSN 032225Z 23007KT 10SM CLR M05/M11 A3016 640 65 -1600 220/07 RMK AO2
14837KMSN MSN20020103163009601/03/02 16:30:31  5-MIN KMSN 032230Z 22007KT 10SM CLR M05/M11 A3016 640 65 -1600 220/07 RMK AO2
14837KMSN MSN20020103163509601/03/02 16:35:31  5-MIN KMSN 032235Z 22007KT 10SM CLR M05/M11 A3016 640 65 -1600 220/07 RMK AO2
14837KMSN MSN20020103164009601/03/02 16:40:31  5-MIN KMSN 032240Z 22007KT 10SM CLR M05/M11 A3017 640 65 -1600 220/07 RMK AO2
14837KMSN MSN20020103164509601/03/02 16:45:31  5-MIN KMSN 032245Z 21005KT 10SM CLR M05/M11 A3017 640 65 -1600 210/05 RMK AO2
14837KMSN MSN20020103165011301/03/02 16:50:31  5-MIN KMSN 032250Z 22005KT 10SM CLR M05/M11 A3016 640 65 -1600 220/05 RMK AO2 SLP231 T10501106
14837KMSN MSN20020103165509601/03/02 16:55:31  5-MIN KMSN 032255Z 22005KT 10SM CLR M05/M11 A3017 640 65 -1600 220/05 RMK AO2
14837KMSN MSN20020103170009601/03/02 17:00:31  5-MIN KMSN 032300Z VRB05KT 10SM CLR M05/M10 A3017 640 68 -1600 VRB/05 RMK AO2
14837KMSN MSN20020103170509601/03/02 17:05:31  5-MIN KMSN 032305Z 22005KT 10SM CLR M06/M11 A3017 640 68 -1700 220/05 RMK AO2
14837KMSN MSN20020103171009601/03/02 17:10:31  5-MIN KMSN 032310Z 22006KT 10SM CLR M05/M11 A3017 630 65 -1600 220/06 RMK AO2
14837KMSN MSN20020103171509601/03/02 17:15:31  5-MIN KMSN 032315Z 22006KT 10SM CLR M05/M11 A3017 640 65 -1600 220/06 RMK AO2
14837KMSN MSN20020103172009601/03/02 17:20:31  5-MIN KMSN 032320Z 22007KT 10SM CLR M05/M11 A3017 640 65 -1600 220/07 RMK AO2
14837KMSN MSN20020103172509601/03/02 17:25:31  5-MIN KMSN 032325Z VRB05KT 10SM CLR M06/M11 A3017 640 68 -1700 VRB/05 RMK AO2
14837KMSN MSN20020103173009601/03/02 17:30:31  5-MIN KMSN 032330Z 22007KT 10SM CLR M05/M11 A3017 640 65 -1600 220/07 RMK AO2
14837KMSN MSN20020103173509601/03/02 17:35:31  5-MIN KMSN 032335Z 21007KT 10SM CLR M06/M11 A3016 640 68 -1600 210/07 RMK AO2
14837KMSN MSN20020103174009601/03/02 17:40:31  5-MIN KMSN 032340Z 22007KT 10SM CLR M06/M10 A3016 640 71 -1600 210/07 RMK AO2
14837KMSN MSN20020103174509601/03/02 17:45:31  5-MIN KMSN 032345Z 21008KT 10SM CLR M06/M10 A3016 650 71 -1600 210/08 RMK AO2
14837KMSN MSN20020103175013701/03/02 17:50:31  5-MIN KMSN 032350Z 21006KT 10SM CLR M06/M11 A3016 650 68 -1600 210/06 RMK AO2 SLP229 4/001 T10561106 11039 21067 56017
14837KMSN MSN20020103175509601/03/02 17:55:31  5-MIN KMSN 032355Z 21008KT 10SM CLR M06/M10 A3015 650 71 -1600 210/08 RMK AO2
14837KMSN MSN20020103180009601/03/02 18:00:31  5-MIN KMSN 040000Z 21007KT 10SM CLR M06/M11 A3015 650 68 -1600 210/07 RMK AO2
14837KMSN MSN20020103180509601/03/02 18:05:31  5-MIN KMSN 040005Z 22006KT 10SM CLR M06/M10 A3014 660 71 -1600 210/06 RMK AO2
14837KMSN MSN20020103181009601/03/02 18:10:31  5-MIN KMSN 040010Z 21006KT 10SM CLR M06/M10 A3014 660 71 -1600 210/06 RMK AO2
14837KMSN MSN20020103181509601/03/02 18:15:31  5-MIN KMSN 040015Z 21006KT 10SM CLR M06/M10 A3014 660 71 -1600 210/06 RMK AO2
14837KMSN MSN20020103182009601/03/02 18:20:31  5-MIN KMSN 040020Z 22008KT 10SM CLR M06/M10 A3014 660 71 -1600 220/08 RMK AO2
14837KMSN MSN20020103182509601/03/02 18:25:31  5-MIN KMSN 040025Z 21007KT 10SM CLR M06/M10 A3014 660 71 -1600 210/07 RMK AO2
14837KMSN MSN20020103183009601/03/02 18:30:31  5-MIN KMSN 040030Z 21006KT 10SM CLR M06/M10 A3014 660 71 -1600 200/06 RMK AO2
14837KMSN MSN20020103183509601/03/02 18:35:31  5-MIN KMSN 040035Z 21008KT 10SM CLR M06/M10 A3014 660 71 -1600 210/08 RMK AO2
14837KMSN MSN20020103184009601/03/02 18:40:31  5-MIN KMSN 040040Z 21005KT 10SM CLR M06/M10 A3014 660 74 -1700 210/05 RMK AO2
14837KMSN MSN20020103184509601/03/02 18:45:31  5-MIN KMSN 040045Z 21008KT 10SM CLR M06/M10 A3014 660 74 -1700 210/08 RMK AO2
14837KMSN MSN20020103185011301/03/02 18:50:31  5-MIN KMSN 040050Z 21007KT 10SM CLR M06/M11 A3014 660 68 -1600 210/07 RMK AO2 SLP224 T10561106
14837KMSN MSN20020103185509601/03/02 18:55:31  5-MIN KMSN 040055Z 21006KT 10SM CLR M06/M10 A3014 660 74 -1700 210/06 RMK AO2
14837KMSN MSN20020103190009601/03/02 19:00:31  5-MIN KMSN 040100Z 21008KT 10SM CLR M06/M10 A3014 660 74 -1700 210/08 RMK AO2
14837KMSN MSN20020103190509601/03/02 19:05:31  5-MIN KMSN 040105Z 21006KT 10SM CLR M06/M10 A3014 660 74 -1700 200/06 RMK AO2
14837KMSN MSN20020103191009601/03/02 19:10:31  5-MIN KMSN 040110Z 21008KT 10SM CLR M06/M10 A3014 660 74 -1700 210/08 RMK AO2
14837KMSN MSN20020103191509601/03/02 19:15:31  5-MIN KMSN 040115Z 21007KT 10SM CLR M06/M11 A3014 660 68 -1600 210/07 RMK AO2
14837KMSN MSN20020103192009601/03/02 19:20:31  5-MIN KMSN 040120Z 21006KT 10SM CLR M06/M10 A3014 660 74 -1700 210/06 RMK AO2
14837KMSN MSN20020103192509601/03/02 19:25:31  5-MIN KMSN 040125Z 21006KT 10SM CLR M06/M10 A3014 660 74 -1700 210/06 RMK AO2
14837KMSN MSN20020103193009601/03/02 19:30:31  5-MIN KMSN 040130Z 21007KT 10SM CLR M06/M10 A3014 660 74 -1700 210/07 RMK AO2
14837KMSN MSN20020103193509601/03/02 19:35:31  5-MIN KMSN 040135Z 20007KT 10SM CLR M06/M10 A3013 670 74 -1700 200/07 RMK AO2
14837KMSN MSN20020103194009601/03/02 19:40:31  5-MIN KMSN 040140Z 21008KT 10SM CLR M06/M10 A3013 670 74 -1700 210/08 RMK AO2
14837KMSN MSN20020103194509601/03/02 19:45:31  5-MIN KMSN 040145Z 21006KT 10SM CLR M06/M11 A3013 670 71 -1700 210/06 RMK AO2
14837KMSN MSN20020103195011301/03/02 19:50:31  5-MIN KMSN 040150Z 21006KT 10SM CLR M06/M10 A3013 670 74 -1700 210/06 RMK AO2 SLP220 T10611100
14837KMSN MSN20020103195509601/03/02 19:55:31  5-MIN KMSN 040155Z 20008KT 10SM CLR M06/M10 A3013 670 74 -1700 200/08 RMK AO2
14837KMSN MSN20020103200009601/03/02 20:00:31  5-MIN KMSN 040200Z 21008KT 10SM CLR M06/M10 A3013 680 74 -1700 200/08 RMK AO2
14837KMSN MSN20020103200509601/03/02 20:05:31  5-MIN KMSN 040205Z 20007KT 10SM CLR M06/M10 A3012 680 74 -1700 200/07 RMK AO2
14837KMSN MSN20020103201009601/03/02 20:10:31  5-MIN KMSN 040210Z 20008KT 10SM CLR M06/M10 A3012 680 74 -1700 200/08 RMK AO2
14837KMSN MSN20020103201509601/03/02 20:15:31  5-MIN KMSN 040215Z 20007KT 10SM CLR M06/M10 A3012 680 74 -1700 200/07 RMK AO2
14837KMSN MSN20020103202009601/03/02 20:20:31  5-MIN KMSN 040220Z 20009KT 10SM CLR M06/M10 A3012 680 74 -1700 200/09 RMK AO2
14837KMSN MSN20020103202509601/03/02 20:25:31  5-MIN KMSN 040225Z 20008KT 10SM CLR M06/M10 A3011 680 74 -1700 200/08 RMK AO2
14837KMSN MSN20020103203009601/03/02 20:30:31  5-MIN KMSN 040230Z 20007KT 10SM CLR M06/M10 A3011 690 74 -1700 200/07 RMK AO2
14837KMSN MSN20020103203509601/03/02 20:35:31  5-MIN KMSN 040235Z 20008KT 10SM CLR M06/M10 A3011 690 74 -1700 200/08 RMK AO2
14837KMSN MSN20020103204009601/03/02 20:40:31  5-MIN KMSN 040240Z 20008KT 10SM CLR M06/M10 A3011 690 74 -1700 190/08 RMK AO2
14837KMSN MSN20020103204509601/03/02 20:45:31  5-MIN KMSN 040245Z 20009KT 10SM CLR M06/M10 A3011 690 74 -1700 200/09 RMK AO2
14837KMSN MSN20020103205011901/03/02 20:50:31  5-MIN KMSN 040250Z 20009KT 10SM CLR M06/M10 A3011 690 74 -1700 200/09 RMK AO2 SLP213 T10611100 58007
14837KMSN MSN20020103205509601/03/02 20:55:31  5-MIN KMSN 040255Z 20008KT 10SM CLR M07/M10 A3011 690 77 -1700 200/08 RMK AO2
14837KMSN MSN20020103210009601/03/02 21:00:31  5-MIN KMSN 040300Z 20007KT 10SM CLR M06/M10 A3011 690 74 -1700 190/07 RMK AO2
14837KMSN MSN20020103210509601/03/02 21:05:31  5-MIN KMSN 040305Z 20007KT 10SM CLR M07/M10 A3011 690 77 -1700 200/07 RMK AO2
14837KMSN MSN20020103211009601/03/02 21:10:31  5-MIN KMSN 040310Z 20007KT 10SM CLR M06/M10 A3011 690 74 -1700 200/07 RMK AO2
14837KMSN MSN20020103211509601/03/02 21:15:31  5-MIN KMSN 040315Z 20008KT 10SM CLR M06/M10 A3011 690 74 -1700 200/08 RMK AO2
14837KMSN MSN20020103212009601/03/02 21:20:31  5-MIN KMSN 040320Z 21008KT 10SM CLR M06/M11 A3011 690 71 -1700 200/08 RMK AO2
14837KMSN MSN20020103212509601/03/02 21:25:31  5-MIN KMSN 040325Z 20008KT 10SM CLR M06/M10 A3010 690 74 -1700 200/08 RMK AO2
14837KMSN MSN20020103213009601/03/02 21:30:31  5-MIN KMSN 040330Z 21008KT 10SM CLR M06/M10 A3010 690 74 -1700 200/08 RMK AO2
14837KMSN MSN20020103213509601/03/02 21:35:31  5-MIN KMSN 040335Z 21009KT 10SM CLR M06/M10 A3011 690 74 -1700 210/09 RMK AO2
14837KMSN MSN20020103214009601/03/02 21:40:31  5-MIN KMSN 040340Z 22009KT 10SM CLR M06/M10 A3011 690 71 -1600 220/09 RMK AO2
14837KMSN MSN20020103214509601/03/02 21:45:31  5-MIN KMSN 040345Z 21009KT 10SM CLR M06/M10 A3011 690 74 -1700 210/09 RMK AO2
14837KMSN MSN20020103215011301/03/02 21:50:31  5-MIN KMSN 040350Z 21009KT 10SM CLR M06/M10 A3011 690 74 -1700 210/09 RMK AO2 SLP211 T10611100
14837KMSN MSN20020103215509601/03/02 21:55:31  5-MIN KMSN 040355Z 21008KT 10SM CLR M06/M09 A3010 700 77 -1700 210/08 RMK AO2
14837KMSN MSN20020103220009601/03/02 22:00:31  5-MIN KMSN 040400Z 19009KT 10SM CLR M06/M10 A3010 700 74 -1700 190/09 RMK AO2
14837KMSN MSN20020103220509601/03/02 22:05:31  5-MIN KMSN 040405Z 19010KT 10SM CLR M06/M10 A3010 700 74 -1600 190/10 RMK AO2
14837KMSN MSN20020103221009601/03/02 22:10:31  5-MIN KMSN 040410Z 20008KT 10SM CLR M06/M11 A3009 700 71 -1600 200/08 RMK AO2
14837KMSN MSN20020103221509601/03/02 22:15:31  5-MIN KMSN 040415Z 20009KT 10SM CLR M06/M10 A3009 710 74 -1600 200/09 RMK AO2
14837KMSN MSN20020103222009601/03/02 22:20:31  5-MIN KMSN 040420Z 20010KT 10SM CLR M06/M10 A3009 710 74 -1600 200/10 RMK AO2
14837KMSN MSN20020103222509601/03/02 22:25:31  5-MIN KMSN 040425Z 21009KT 10SM CLR M06/M10 A3009 710 74 -1600 200/09 RMK AO2
14837KMSN MSN20020103223010201/03/02 22:30:31  5-MIN KMSN 040430Z 20009G15KT 10SM CLR M06/M10 A3009 710 74 -1600 200/09G15 RMK AO2
14837KMSN MSN20020103223509601/03/02 22:35:31  5-MIN KMSN 040435Z 20009KT 10SM CLR M06/M10 A3009 710 74 -1600 200/09 RMK AO2
14837KMSN MSN20020103224009601/03/02 22:40:31  5-MIN KMSN 040440Z 20011KT 10SM CLR M06/M10 A3009 710 74 -1600 200/11 RMK AO2
14837KMSN MSN20020103224509601/03/02 22:45:31  5-MIN KMSN 040445Z 20010KT 10SM CLR M06/M10 A3009 710 74 -1600 200/10 RMK AO2
14837KMSN MSN20020103225011301/03/02 22:50:31  5-MIN KMSN 040450Z 21010KT 10SM CLR M06/M10 A3009 710 74 -1600 210/10 RMK AO2 SLP204 T10611100
14837KMSN MSN20020103225510201/03/02 22:55:31  5-MIN KMSN 040455Z 21010G15KT 10SM CLR M06/M10 A3009 710 74 -1600 210/10G15 RMK AO2
14837KMSN MSN20020103230010201/03/02 23:00:31  5-MIN KMSN 040500Z 21007G15KT 10SM CLR M06/M11 A3009 710 71 -1600 210/07G15 RMK AO2
14837KMSN MSN20020103230509601/03/02 23:05:31  5-MIN KMSN 040505Z 22007KT 10SM CLR M06/M10 A3009 710 74 -1600 220/07 RMK AO2
14837KMSN MSN20020103231010201/03/02 23:10:31  5-MIN KMSN 040510Z 22009G18KT 10SM CLR M06/M10 A3008 710 74 -1600 220/09G18 RMK AO2
14837KMSN MSN20020103231510201/03/02 23:15:31  5-MIN KMSN 040515Z 21008G18KT 10SM CLR M06/M10 A3008 720 74 -1600 210/08G18 RMK AO2
14837KMSN MSN20020103232010201/03/02 23:20:31  5-MIN KMSN 040520Z 21008G14KT 10SM CLR M06/M10 A3008 720 74 -1600 210/08G14 RMK AO2
14837KMSN MSN20020103232509601/03/02 23:25:31  5-MIN KMSN 040525Z 21011KT 10SM CLR M06/M10 A3007 720 74 -1600 210/11 RMK AO2
14837KMSN MSN20020103233009601/03/02 23:30:31  5-MIN KMSN 040530Z 22009KT 10SM CLR M06/M10 A3007 720 74 -1600 220/09 RMK AO2
14837KMSN MSN20020103233509601/03/02 23:35:31  5-MIN KMSN 040535Z 21008KT 10SM CLR M06/M11 A3007 730 71 -1600 210/08 RMK AO2
14837KMSN MSN20020103234010201/03/02 23:40:31  5-MIN KMSN 040540Z 22010G17KT 10SM CLR M06/M10 A3007 730 74 -1600 220/10G17 RMK AO2
14837KMSN MSN20020103234510201/03/02 23:45:31  5-MIN KMSN 040545Z 22010G17KT 10SM CLR M06/M11 A3007 730 71 -1600 220/10G17 RMK AO2
14837KMSN MSN20020103235015101/03/02 23:50:31  5-MIN KMSN 040550Z 22009KT 10SM CLR M06/M11 A3007 730 71 -1600 220/09 RMK AO2 SLP197 11056 21067 410391144 T10611106 400221144 58015
14837KMSN MSN20020103235509601/03/02 23:55:31  5-MIN KMSN 040555Z 22012KT 10SM CLR M06/M10 A3007 730 74 -1600 220/12 RMK AO2
14837KMSN MSN20020104000010201/04/02 00:00:31  5-MIN KMSN 040600Z 22010G16KT 10SM CLR M06/M11 A3006 730 71 -1600 220/10G16 RMK AO2
14837KMSN MSN20020104000509601/04/02 00:05:31  5-MIN KMSN 040605Z 22011KT 10SM CLR M06/M11 A3006 740 71 -1600 220/11 RMK AO2
14837KMSN MSN20020104001010201/04/02 00:10:31  5-MIN KMSN 040610Z 22011G17KT 10SM CLR M06/M11 A3006 740 71 -1600 220/11G17 RMK AO2
14837KMSN MSN20020104001510201/04/02 00:15:31  5-MIN KMSN 040615Z 23011G17KT 10SM CLR M06/M11 A3006 740 71 -1600 230/11G17 RMK AO2
14837KMSN MSN20020104002010201/04/02 00:20:31  5-MIN KMSN 040620Z 22012G17KT 10SM CLR M06/M11 A3006 740 71 -1600 220/12G17 RMK AO2
14837KMSN MSN20020104002510201/04/02 00:25:31  5-MIN KMSN 040625Z 23012G17KT 10SM CLR M06/M11 A3006 740 71 -1600 230/12G17 RMK AO2
14837KMSN MSN20020104003010201/04/02 00:30:31  5-MIN KMSN 040630Z 23011G17KT 10SM CLR M06/M11 A3006 740 71 -1600 230/11G17 RMK AO2
14837KMSN MSN20020104003509601/04/02 00:35:31  5-MIN KMSN 040635Z 23010KT 10SM CLR M06/M11 A3005 740 71 -1600 220/10 RMK AO2
14837KMSN MSN20020104004009601/04/02 00:40:31  5-MIN KMSN 040640Z 22010KT 10SM CLR M06/M11 A3005 740 71 -1600 220/10 RMK AO2
14837KMSN MSN20020104004509601/04/02 00:45:31  5-MIN KMSN 040645Z 22010KT 10SM CLR M06/M11 A3005 740 71 -1600 220/10 RMK AO2
14837KMSN MSN20020104005011301/04/02 00:50:31  5-MIN KMSN 040650Z 22012KT 10SM CLR M06/M11 A3005 740 68 -1600 220/12 RMK AO2 SLP190 T10611111
14837KMSN MSN20020104005509601/04/02 00:55:31  5-MIN KMSN 040655Z 21010KT 10SM CLR M06/M11 A3005 740 71 -1600 210/10 RMK AO2
14837KMSN MSN20020104010009601/04/02 01:00:31  5-MIN KMSN 040700Z 22008KT 10SM CLR M06/M11 A3005 750 71 -1600 210/08 RMK AO2
14837KMSN MSN20020104010509601/04/02 01:05:31  5-MIN KMSN 040705Z 21010KT 10SM CLR M06/M11 A3004 750 68 -1600 210/10 RMK AO2
14837KMSN MSN20020104011009601/04/02 01:10:31  5-MIN KMSN 040710Z 22010KT 10SM CLR M06/M11 A3004 750 71 -1600 220/10 RMK AO2
14837KMSN MSN20020104011509601/04/02 01:15:31  5-MIN KMSN 040715Z 22010KT 10SM CLR M06/M11 A3004 750 68 -1600 220/10 RMK AO2
14837KMSN MSN20020104012009601/04/02 01:20:31  5-MIN KMSN 040720Z 22009KT 10SM CLR M06/M11 A3004 750 71 -1600 220/09 RMK AO2
14837KMSN MSN20020104012509601/04/02 01:25:31  5-MIN KMSN 040725Z 22008KT 10SM CLR M06/M11 A3004 750 68 -1600 220/08 RMK AO2
14837KMSN MSN20020104013009601/04/02 01:30:31  5-MIN KMSN 040730Z 22009KT 10SM CLR M06/M11 A3004 750 68 -1600 220/09 RMK AO2
14837KMSN MSN20020104013509601/04/02 01:35:31  5-MIN KMSN 040735Z 22010KT 10SM CLR M06/M11 A3004 760 68 -1600 220/10 RMK AO2
14837KMSN MSN20020104014010201/04/02 01:40:31  5-MIN KMSN 040740Z 22009G14KT 10SM CLR M06/M11 A3003 760 68 -1600 220/09G14 RMK AO2
14837KMSN MSN20020104014510201/04/02 01:45:31  5-MIN KMSN 040745Z 21008G14KT 10SM CLR M06/M11 A3003 760 68 -1600 210/08G14 RMK AO2
14837KMSN MSN20020104015011301/04/02 01:50:31  5-MIN KMSN 040750Z 21008KT 10SM CLR M06/M11 A3003 760 68 -1600 210/08 RMK AO2 SLP183 T10611111
14837KMSN MSN20020104015509601/04/02 01:55:31  5-MIN KMSN 040755Z 22009KT 10SM CLR M06/M11 A3003 760 68 -1600 220/09 RMK AO2
14837KMSN MSN20020104020010201/04/02 02:00:31  5-MIN KMSN 040800Z 22010G15KT 10SM CLR M06/M11 A3003 760 71 -1600 220/10G15 RMK AO2
14837KMSN MSN20020104020509601/04/02 02:05:31  5-MIN KMSN 040805Z 21011KT 10SM CLR M06/M11 A3003 760 68 -1600 210/11 RMK AO2
14837KMSN MSN20020104021009601/04/02 02:10:31  5-MIN KMSN 040810Z 21009KT 10SM CLR M06/M11 A3003 770 68 -1600 210/09 RMK AO2
14837KMSN MSN20020104021509601/04/02 02:15:31  5-MIN KMSN 040815Z 21011KT 10SM CLR M06/M11 A3003 770 68 -1600 210/11 RMK AO2
14837KMSN MSN20020104022009601/04/02 02:20:31  5-MIN KMSN 040820Z 21008KT 10SM CLR M06/M11 A3002 770 68 -1600 210/08 RMK AO2
14837KMSN MSN20020104022509601/04/02 02:25:31  5-MIN KMSN 040825Z 21008KT 10SM CLR M06/M11 A3002 770 68 -1600 210/08 RMK AO2
14837KMSN MSN20020104023009601/04/02 02:30:31  5-MIN KMSN 040830Z 21008KT 10SM CLR M06/M11 A3002 780 68 -1600 210/08 RMK AO2
14837KMSN MSN20020104023510201/04/02 02:35:31  5-MIN KMSN 040835Z 21011G17KT 10SM CLR M06/M11 A3001 780 68 -1600 210/11G17 RMK AO2
14837KMSN MSN20020104024010201/04/02 02:40:31  5-MIN KMSN 040840Z 21010G17KT 10SM CLR M06/M11 A3001 780 68 -1500 210/10G17 RMK AO2
14837KMSN MSN20020104024509601/04/02 02:45:31  5-MIN KMSN 040845Z 21011KT 10SM CLR M06/M11 A3000 790 65 -1500 210/11 RMK AO2
14837KMSN MSN20020104025012501/04/02 02:50:31  5-MIN KMSN 040850Z 21010G16KT 10SM CLR M06/M11 A3000 790 65 -1500 210/10G16 RMK AO2 SLP173 T10561111 58014
14837KMSN MSN20020104025510201/04/02 02:55:31  5-MIN KMSN 040855Z 22010G16KT 10SM CLR M06/M11 A3000 790 65 -1500 220/10G16 RMK AO2
14837KMSN MSN20020104030010201/04/02 03:00:31  5-MIN KMSN 040900Z 21012G17KT 10SM CLR M06/M12 A3000 790 65 -1500 210/12G17 RMK AO2
14837KMSN MSN20020104030510201/04/02 03:05:31  5-MIN KMSN 040905Z 22010G17KT 10SM CLR M06/M12 A3000 790 62 -1500 220/10G17 RMK AO2
14837KMSN MSN20020104031010201/04/02 03:10:31  5-MIN KMSN 040910Z 22011G17KT 10SM CLR M06/M12 A3000 790 62 -1500 220/11G17 RMK AO2
14837KMSN MSN20020104031510201/04/02 03:15:31  5-MIN KMSN 040915Z 22008G17KT 10SM CLR M06/M12 A3000 790 62 -1500 220/08G17 RMK AO2
14837KMSN MSN20020104032010201/04/02 03:20:31  5-MIN KMSN 040920Z 22010G17KT 10SM CLR M06/M12 A2999 800 65 -1500 220/10G17 RMK AO2
14837KMSN MSN20020104032509601/04/02 03:25:31  5-MIN KMSN 040925Z 22011KT 10SM CLR M06/M12 A2999 800 65 -1500 220/11 RMK AO2
14837KMSN MSN20020104033010201/04/02 03:30:31  5-MIN KMSN 040930Z 22012G17KT 10SM CLR M06/M12 A2999 800 65 -1500 210/12G17 RMK AO2
14837KMSN MSN20020104033510201/04/02 03:35:31  5-MIN KMSN 040935Z 22011G17KT 10SM CLR M06/M12 A2999 800 65 -1500 220/11G17 RMK AO2
14837KMSN MSN20020104034010201/04/02 03:40:31  5-MIN KMSN 040940Z 21009G16KT 10SM CLR M06/M12 A2999 800 65 -1500 210/09G16 RMK AO2
14837KMSN MSN20020104034509601/04/02 03:45:31  5-MIN KMSN 040945Z 22008KT 10SM CLR M06/M12 A2998 800 65 -1500 220/08 RMK AO2
14837KMSN MSN20020104035011301/04/02 03:50:31  5-MIN KMSN 040950Z 21009KT 10SM CLR M06/M12 A2998 810 65 -1500 210/09 RMK AO2 SLP166 T10611117
14837KMSN MSN20020104035509601/04/02 03:55:31  5-MIN KMSN 040955Z 21010KT 10SM CLR M06/M12 A2998 810 65 -1500 210/10 RMK AO2
14837KMSN MSN20020104040009601/04/02 04:00:31  5-MIN KMSN 041000Z 21007KT 10SM CLR M06/M12 A2998 810 65 -1500 210/07 RMK AO2
14837KMSN MSN20020104040509601/04/02 04:05:31  5-MIN KMSN 041005Z 21007KT 10SM CLR M06/M12 A2998 810 65 -1500 200/07 RMK AO2
14837KMSN MSN20020104041009601/04/02 04:10:31  5-MIN KMSN 041010Z 22009KT 10SM CLR M06/M12 A2998 810 65 -1500 210/09 RMK AO2
14837KMSN MSN20020104041509601/04/02 04:15:31  5-MIN KMSN 041015Z 20008KT 10SM CLR M06/M12 A2998 810 65 -1500 200/08 RMK AO2
14837KMSN MSN20020104042009601/04/02 04:20:31  5-MIN KMSN 041020Z 21008KT 10SM CLR M06/M11 A2998 810 68 -1500 210/08 RMK AO2
14837KMSN MSN20020104042509601/04/02 04:25:31  5-MIN KMSN 041025Z 21009KT 10SM CLR M07/M12 A2998 810 68 -1600 210/09 RMK AO2
14837KMSN MSN20020104043010201/04/02 04:30:31  5-MIN KMSN 041030Z 20010G16KT 10SM CLR M07/M12 A2997 820 68 -1600 200/10G16 RMK AO2
14837KMSN MSN20020104043510201/04/02 04:35:31  5-MIN KMSN 041035Z 20010G16KT 10SM CLR M07/M12 A2997 820 68 -1600 200/10G16 RMK AO2
14837KMSN MSN20020104044009601/04/02 04:40:31  5-MIN KMSN 041040Z 20011KT 10SM CLR M07/M12 A2996 830 68 -1600 200/11 RMK AO2
14837KMSN MSN20020104044509601/04/02 04:45:31  5-MIN KMSN 041045Z 21007KT 10SM CLR M06/M12 A2996 830 65 -1500 210/07 RMK AO2
14837KMSN MSN20020104045011301/04/02 04:50:31  5-MIN KMSN 041050Z 20009KT 10SM CLR M07/M12 A2996 830 68 -1600 200/09 RMK AO2 SLP158 T10671117
14837KMSN MSN20020104045510201/04/02 04:55:31  5-MIN KMSN 041055Z 21008G16KT 10SM CLR M06/M12 A2996 830 65 -1500 210/08G16 RMK AO2
14837KMSN MSN20020104050010201/04/02 05:00:31  5-MIN KMSN 041100Z 21009G16KT 10SM CLR M07/M12 A2995 830 68 -1600 210/09G16 RMK AO2
14837KMSN MSN20020104050510201/04/02 05:05:31  5-MIN KMSN 041105Z 21009G15KT 10SM CLR M06/M12 A2995 830 65 -1500 210/09G15 RMK AO2
14837KMSN MSN20020104051009601/04/02 05:10:31  5-MIN KMSN 041110Z 21010KT 10SM CLR M06/M11 A2995 840 68 -1500 210/10 RMK AO2
14837KMSN MSN20020104051509601/04/02 05:15:31  5-MIN KMSN 041115Z 22010KT 10SM CLR M07/M11 A2995 840 71 -1600 210/10 RMK AO2
14837KMSN MSN20020104052009601/04/02 05:20:31  5-MIN KMSN 041120Z 20010KT 10SM CLR M07/M13 A2995 840 59 -1500 200/10 RMK AO2
14837KMSN MSN20020104052509601/04/02 05:25:31  5-MIN KMSN 041125Z 21010KT 10SM CLR M06/M12 A2994 840 62 -1500 210/10 RMK AO2
14837KMSN MSN20020104053010201/04/02 05:30:31  5-MIN KMSN 041130Z 22010G17KT 10SM CLR M06/M12 A2994 840 62 -1500 220/10G17 RMK AO2
14837KMSN MSN20020104053510801/04/02 05:35:31  5-MIN KMSN 041135Z 22009G17KT 10SM CLR M06/M12 A2995 840 65 -1500 220/09G17 RMK AO2 4/001
14837KMSN MSN20020104054010801/04/02 05:40:31  5-MIN KMSN 041140Z 22010G15KT 10SM CLR M06/M12 A2995 840 65 -1500 220/10G15 RMK AO2 4/001
14837KMSN MSN20020104054510801/04/02 05:45:31  5-MIN KMSN 041145Z 22009G15KT 10SM CLR M07/M12 A2995 840 68 -1600 220/09G15 RMK AO2 4/001
14837KMSN MSN20020104055013701/04/02 05:50:31  5-MIN KMSN 041150Z 23007KT 10SM CLR M07/M12 A2995 840 68 -1600 230/07 RMK AO2 SLP156 4/001 T10671117 11056 21067 58021
14837KMSN MSN20020104055510201/04/02 05:55:31  5-MIN KMSN 041155Z 22010G15KT 10SM CLR M07/M12 A2995 840 68 -1500 210/10G15 RMK AO2
14837KMSN MSN20020104060009601/04/02 06:00:31  5-MIN KMSN 041200Z 21010KT 10SM CLR M06/M12 A2994 840 65 -1500 210/10 RMK AO2
14837KMSN MSN20020104060509601/04/02 06:05:31  5-MIN KMSN 041205Z 22012KT 10SM CLR M06/M12 A2994 850 65 -1500 220/12 RMK AO2
14837KMSN MSN20020104061009601/04/02 06:10:31  5-MIN KMSN 041210Z 21011KT 10SM CLR M06/M12 A2994 850 65 -1500 210/11 RMK AO2
14837KMSN MSN20020104061509601/04/02 06:15:31  5-MIN KMSN 041215Z 23010KT 10SM CLR M07/M12 A2994 850 68 -1500 220/10 RMK AO2
14837KMSN MSN20020104062010201/04/02 06:20:31  5-MIN KMSN 041220Z 22009G16KT 10SM CLR M07/M12 A2994 850 68 -1500 220/09G16 RMK AO2
14837KMSN MSN20020104062509601/04/02 06:25:31  5-MIN KMSN 041225Z 22009KT 10SM CLR M07/M12 A2994 840 68 -1500 220/09 RMK AO2
14837KMSN MSN20020104063009601/04/02 06:30:31  5-MIN KMSN 041230Z 22009KT 10SM CLR M07/M12 A2994 850 68 -1500 220/09 RMK AO2
14837KMSN MSN20020104063509601/04/02 06:35:31  5-MIN KMSN 041235Z 22010KT 10SM CLR M07/M12 A2994 850 68 -1500 220/10 RMK AO2
14837KMSN MSN20020104064009601/04/02 06:40:31  5-MIN KMSN 041240Z 22010KT 10SM CLR M07/M12 A2994 850 68 -1500 210/10 RMK AO2
14837KMSN MSN20020104064509601/04/02 06:45:31  5-MIN KMSN 041245Z 22009KT 10SM CLR M07/M12 A2994 850 68 -1500 220/09 RMK AO2
14837KMSN MSN20020104065011901/04/02 06:50:31  5-MIN KMSN 041250Z 23009G16KT 10SM CLR M07/M11 A2994 850 71 -1500 230/09G16 RMK AO2 SLP153 T10671111
14837KMSN MSN20020104065510201/04/02 06:55:31  5-MIN KMSN 041255Z 22008G16KT 10SM CLR M07/M12 A2994 850 68 -1500 220/08G16 RMK AO2
14837KMSN MSN20020104070009601/04/02 07:00:31  5-MIN KMSN 041300Z 22011KT 10SM CLR M07/M12 A2994 850 68 -1500 220/11 RMK AO2
14837KMSN MSN20020104070509601/04/02 07:05:31  5-MIN KMSN 041305Z 22008KT 10SM CLR M07/M12 A2994 850 68 -1500 220/08 RMK AO2
14837KMSN MSN20020104071009601/04/02 07:10:31  5-MIN KMSN 041310Z 22009KT 10SM CLR M07/M11 A2994 850 71 -1500 220/09 RMK AO2
14837KMSN MSN20020104071509601/04/02 07:15:31  5-MIN KMSN 041315Z 22008KT 10SM CLR M06/M11 A2994 850 68 -1500 220/08 RMK AO2
14837KMSN MSN20020104072009601/04/02 07:20:31  5-MIN KMSN 041320Z 21008KT 10SM CLR M07/M12 A2994 850 68 -1500 210/08 RMK AO2
14837KMSN MSN20020104072509601/04/02 07:25:31  5-MIN KMSN 041325Z 22008KT 10SM CLR M07/M11 A2994 850 71 -1500 210/08 RMK AO2
14837KMSN MSN20020104073010201/04/02 07:30:31  5-MIN KMSN 041330Z 22007G14KT 10SM CLR M06/M11 A2994 850 68 -1500 220/07G14 RMK AO2
14837KMSN MSN20020104074509501/04/02 07:45:31  5-MIN KMSN 041345Z 21007KT 9SM CLR M07/M12 A2994 850 68 -1500 210/07 RMK AO2
14837KMSN MSN20020104075011301/04/02 07:50:31  5-MIN KMSN 041350Z 21007KT 10SM CLR M07/M11 A2994 850 71 -1500 210/07 RMK AO2 SLP153 T10671111
14837KMSN MSN20020104075509501/04/02 07:55:31  5-MIN KMSN 041355Z 21006KT 9SM CLR M06/M11 A2994 850 68 -1500 200/06 RMK AO2
14837KMSN MSN20020104080009601/04/02 08:00:31  5-MIN KMSN 041400Z 21008KT 10SM CLR M06/M11 A2994 840 68 -1500 210/08 RMK AO2
14837KMSN MSN20020104080509601/04/02 08:05:31  5-MIN KMSN 041405Z VRB06KT 10SM CLR M06/M11 A2994 840 68 -1500 VRB/06 RMK AO2
14837KMSN MSN20020104081009601/04/02 08:10:31  5-MIN KMSN 041410Z VRB06KT 10SM CLR M06/M11 A2995 840 68 -1500 VRB/06 RMK AO2
14837KMSN MSN20020104081511201/04/02 08:15:31  5-MIN KMSN 041415Z 22007KT 180V240 10SM CLR M06/M11 A2995 840 68 -1500 220/07 180V240 RMK AO2
14837KMSN MSN20020104082009601/04/02 08:20:31  5-MIN KMSN 041420Z 21005KT 10SM CLR M06/M11 A2995 840 68 -1500 210/05 RMK AO2
14837KMSN MSN20020104082509601/04/02 08:25:31  5-MIN KMSN 041425Z 22008KT 10SM CLR M06/M11 A2995 840 68 -1500 210/08 RMK AO2
14837KMSN MSN20020104083009601/04/02 08:30:31  5-MIN KMSN 041430Z 21008KT 10SM CLR M06/M11 A2995 840 68 -1500 210/08 RMK AO2
14837KMSN MSN20020104083511201/04/02 08:35:31  5-MIN KMSN 041435Z 21007KT 170V250 10SM CLR M06/M11 A2995 840 71 -1500 210/07 170V250 RMK AO2
14837KMSN MSN20020104084009601/04/02 08:40:31  5-MIN KMSN 041440Z 21006KT 10SM CLR M06/M11 A2995 840 68 -1400 210/06 RMK AO2
14837KMSN MSN20020104084511201/04/02 08:45:31  5-MIN KMSN 041445Z 22008KT 190V260 10SM CLR M06/M11 A2995 840 65 -1400 220/08 190V260 RMK AO2
14837KMSN MSN20020104085011901/04/02 08:50:31  5-MIN KMSN 041450Z 21007KT 10SM CLR M06/M11 A2995 840 68 -1400 210/07 RMK AO2 SLP154 T10561106 56018
14837KMSN MSN20020104085509601/04/02 08:55:31  5-MIN KMSN 041455Z 21009KT 10SM CLR M06/M11 A2994 840 68 -1400 210/09 RMK AO2
14837KMSN MSN20020104090010201/04/02 09:00:31  5-MIN KMSN 041500Z 21008G14KT 10SM CLR M06/M11 A2994 840 68 -1400 210/08G14 RMK AO2
14837KMSN MSN20020104090509601/04/02 09:05:31  5-MIN KMSN 041505Z 22009KT 10SM CLR M05/M11 A2994 840 65 -1300 220/09 RMK AO2
14837KMSN MSN20020104091009601/04/02 09:10:31  5-MIN KMSN 041510Z 22009KT 10SM CLR M05/M11 A2994 850 65 -1300 210/09 RMK AO2
14837KMSN MSN20020104091509601/04/02 09:15:31  5-MIN KMSN 041515Z 22010KT 10SM CLR M05/M11 A2994 850 65 -1300 220/10 RMK AO2
14837KMSN MSN20020104092009601/04/02 09:20:31  5-MIN KMSN 041520Z 21006KT 10SM CLR M05/M11 A2994 850 65 -1300 210/06 RMK AO2
14837KMSN MSN20020104092509601/04/02 09:25:31  5-MIN KMSN 041525Z 22008KT 10SM CLR M05/M11 A2994 840 65 -1300 210/08 RMK AO2
14837KMSN MSN20020104093009601/04/02 09:30:31  5-MIN KMSN 041530Z 21008KT 10SM CLR M04/M10 A2994 850 65 -1300 210/08 RMK AO2
14837KMSN MSN20020104093509601/04/02 09:35:31  5-MIN KMSN 041535Z 22007KT 10SM CLR M04/M10 A2994 850 65 -1300 220/07 RMK AO2
14837KMSN MSN20020104094009601/04/02 09:40:31  5-MIN KMSN 041540Z 21009KT 10SM CLR M04/M10 A2994 850 65 -1300 210/09 RMK AO2
14837KMSN MSN20020104094509601/04/02 09:45:31  5-MIN KMSN 041545Z 22008KT 10SM CLR M04/M10 A2994 850 65 -1300 220/08 RMK AO2
14837KMSN MSN20020104095011301/04/02 09:50:31  5-MIN KMSN 041550Z 22007KT 10SM CLR M04/M10 A2994 850 65 -1300 220/07 RMK AO2 SLP152 T10441100
14837KMSN MSN20020104095509601/04/02 09:55:31  5-MIN KMSN 041555Z 20007KT 10SM CLR M04/M10 A2994 850 63 -1200 200/07 RMK AO2
14837KMSN MSN20020104100011201/04/02 10:00:31  5-MIN KMSN 041600Z 23008KT 190V260 10SM CLR M04/M10 A2994 850 63 -1200 230/08 190V260 RMK AO2
14837KMSN MSN20020104100510201/04/02 10:05:31  5-MIN KMSN 041605Z 22008G15KT 10SM CLR M04/M10 A2994 850 63 -1200 220/08G15 RMK AO2
14837KMSN MSN20020104101010201/04/02 10:10:31  5-MIN KMSN 041610Z 23009G15KT 10SM CLR M04/M10 A2994 850 63 -1200 230/09G15 RMK AO2
14837KMSN MSN20020104101511201/04/02 10:15:31  5-MIN KMSN 041615Z 23009KT 190V270 10SM CLR M04/M09 A2994 850 65 -1200 230/09 190V270 RMK AO2
14837KMSN MSN20020104102009601/04/02 10:20:31  5-MIN KMSN 041620Z 23010KT 10SM CLR M04/M09 A2993 850 65 -1200 230/10 RMK AO2
14837KMSN MSN20020104102510101/04/02 10:25:31  5-MIN KMSN 041625Z 23011G15KT 9SM CLR M04/M09 A2993 850 65 -1200 230/11G15 RMK AO2
14837KMSN MSN20020104103011701/04/02 10:30:31  5-MIN KMSN 041630Z 23008G15KT 190V250 9SM CLR M03/M09 A2993 860 63 -1100 230/08G15 190V250 RMK AO2
14837KMSN MSN20020104103509601/04/02 10:35:31  5-MIN KMSN 041635Z 22008KT 10SM CLR M04/M09 A2993 860 65 -1200 220/08 RMK AO2
14837KMSN MSN20020104104009601/04/02 10:40:31  5-MIN KMSN 041640Z 23011KT 10SM CLR M04/M09 A2993 860 65 -1200 230/11 RMK AO2
14837KMSN MSN20020104104510201/04/02 10:45:31  5-MIN KMSN 041645Z 23009G14KT 10SM CLR M03/M09 A2993 860 63 -1100 220/09G14 RMK AO2
14837KMSN MSN20020104105011901/04/02 10:50:31  5-MIN KMSN 041650Z 22008G14KT 10SM CLR M03/M09 A2992 860 63 -1100 220/08G14 RMK AO2 SLP146 T10331094
14837KMSN MSN20020104105510201/04/02 10:55:31  5-MIN KMSN 041655Z 23010G15KT 10SM CLR M03/M09 A2992 870 65 -1100 230/10G15 RMK AO2
14837KMSN MSN20020104110010201/04/02 11:00:31  5-MIN KMSN 041700Z 23009G15KT 10SM CLR M03/M09 A2992 870 65 -1100 220/09G15 RMK AO2
14837KMSN MSN20020104110509601/04/02 11:05:31  5-MIN KMSN 041705Z 22008KT 10SM CLR M03/M09 A2991 870 63 -1000 220/08 RMK AO2
14837KMSN MSN20020104111010201/04/02 11:10:31  5-MIN KMSN 041710Z 24009G15KT 10SM CLR M03/M09 A2991 880 63 -1000 240/09G15 RMK AO2
14837KMSN MSN20020104111511801/04/02 11:15:31  5-MIN KMSN 041715Z 22007G15KT 200V260 10SM CLR M03/M08 A2991 880 66 -1000 220/07G15 200V260 RMK AO2
14837KMSN MSN20020104112010201/04/02 11:20:31  5-MIN KMSN 041720Z 22010G16KT 10SM CLR M03/M08 A2990 880 66 -1000 220/10G16 RMK AO2
14837KMSN MSN20020104112510101/04/02 11:25:31  5-MIN KMSN 041725Z 22008G16KT 10SM CLR M02/M08 A2990 880 63 -900 220/08G16 RMK AO2
14837KMSN MSN20020104113011101/04/02 11:30:31  5-MIN KMSN 041730Z 23008KT 180V250 10SM CLR M02/M08 A2990 890 63 -900 230/08 180V250 RMK AO2
14837KMSN MSN20020104113509501/04/02 11:35:31  5-MIN KMSN 041735Z 23009KT 10SM CLR M02/M08 A2989 890 63 -900 230/09 RMK AO2
14837KMSN MSN20020104114010101/04/02 11:40:31  5-MIN KMSN 041740Z 22007G14KT 10SM CLR M02/M08 A2990 890 63 -900 220/07G14 RMK AO2
14837KMSN MSN20020104114510101/04/02 11:45:31  5-MIN KMSN 041745Z 22009G16KT 10SM CLR M02/M08 A2989 890 60 -800 220/09G16 RMK AO2
14837KMSN MSN20020104115013601/04/02 11:50:31  5-MIN KMSN 041750Z 23011G16KT 10SM CLR M02/M08 A2989 890 60 -800 230/11G16 RMK AO2 SLP134 T10171083 11017 21067 55000
14837KMSN MSN20020104115510001/04/02 11:55:31  5-MIN KMSN 041755Z 23010G15KT 9SM CLR M02/M08 A2989 890 60 -800 230/10G15 RMK AO2
14837KMSN MSN20020104120010101/04/02 12:00:31  5-MIN KMSN 041800Z 22009G15KT 10SM CLR M02/M08 A2989 890 60 -800 220/09G15 RMK AO2
14837KMSN MSN20020104120511101/04/02 12:05:31  5-MIN KMSN 041805Z 24008KT 200V270 10SM CLR M02/M08 A2988 900 63 -800 230/08 200V270 RMK AO2
14837KMSN MSN20020104121009501/04/02 12:10:31  5-MIN KMSN 041810Z 23009KT 10SM CLR M01/M08 A2988 900 60 -800 230/09 RMK AO2
14837KMSN MSN20020104121509501/04/02 12:15:31  5-MIN KMSN 041815Z 23010KT 10SM CLR M01/M08 A2988 910 60 -800 230/10 RMK AO2
14837KMSN MSN20020104122009501/04/02 12:20:31  5-MIN KMSN 041820Z 24008KT 10SM CLR M01/M08 A2987 910 60 -800 240/08 RMK AO2
14837KMSN MSN20020104122510101/04/02 12:25:31  5-MIN KMSN 041825Z 23009G15KT 10SM CLR M01/M08 A2987 910 60 -800 230/09G15 RMK AO2
14837KMSN MSN20020104123010101/04/02 12:30:31  5-MIN KMSN 041830Z 23009G15KT 10SM CLR M01/M08 A2987 910 60 -700 230/09G15 RMK AO2
14837KMSN MSN20020104123509501/04/02 12:35:31  5-MIN KMSN 041835Z 23009KT 10SM CLR M01/M08 A2987 910 60 -700 230/09 RMK AO2
14837KMSN MSN20020104124009501/04/02 12:40:31  5-MIN KMSN 041840Z 22010KT 10SM CLR M01/M08 A2987 910 60 -700 220/10 RMK AO2
14837KMSN MSN20020104124509501/04/02 12:45:31  5-MIN KMSN 041845Z 22010KT 10SM CLR M01/M08 A2987 920 60 -700 220/10 RMK AO2
14837KMSN MSN20020104125011801/04/02 12:50:31  5-MIN KMSN 041850Z 23009G15KT 10SM CLR M01/M08 A2986 920 60 -700 230/09G15 RMK AO2 SLP124 T10111078
14837KMSN MSN20020104125510101/04/02 12:55:31  5-MIN KMSN 041855Z 23008G15KT 10SM CLR M01/M08 A2986 920 60 -700 230/08G15 RMK AO2
14837KMSN MSN20020104130010101/04/02 13:00:31  5-MIN KMSN 041900Z 23008G15KT 10SM CLR M01/M08 A2986 920 60 -700 230/08G15 RMK AO2
14837KMSN MSN20020104130509501/04/02 13:05:31  5-MIN KMSN 041905Z 23009KT 10SM CLR M01/M08 A2986 920 58 -700 230/09 RMK AO2
14837KMSN MSN20020104131011701/04/02 13:10:31  5-MIN KMSN 041910Z 23009G14KT 200V270 10SM CLR M01/M08 A2986 920 60 -700 230/09G14 200V270 RMK AO2
14837KMSN MSN20020104131510101/04/02 13:15:31  5-MIN KMSN 041915Z VRB06G14KT 10SM CLR M01/M07 A2986 920 61 -700 VRB/06G14 RMK AO2
14837KMSN MSN20020104132009501/04/02 13:20:31  5-MIN KMSN 041920Z 24008KT 10SM CLR M01/M08 A2986 920 60 -700 240/08 RMK AO2
14837KMSN MSN20020104132509501/04/02 13:25:31  5-MIN KMSN 041925Z 23008KT 10SM CLR M01/M07 A2986 920 61 -700 230/08 RMK AO2
14837KMSN MSN20020104133009501/04/02 13:30:31  5-MIN KMSN 041930Z 23007KT 10SM CLR M01/M07 A2986 920 61 -700 230/07 RMK AO2
14837KMSN MSN20020104133509501/04/02 13:35:31  5-MIN KMSN 041935Z 23009KT 10SM CLR M01/M07 A2986 920 61 -700 230/09 RMK AO2
14837KMSN MSN20020104134009501/04/02 13:40:31  5-MIN KMSN 041940Z 24008KT 10SM CLR M01/M07 A2986 920 61 -700 240/08 RMK AO2
14837KMSN MSN20020104134509401/04/02 13:45:31  5-MIN KMSN 041945Z 23009KT 10SM CLR 00/M07 A2986 920 58 -600 230/09 RMK AO2
14837KMSN MSN20020104135011201/04/02 13:50:31  5-MIN KMSN 041950Z 24008KT 10SM CLR M01/M07 A2986 920 61 -700 240/08 RMK AO2 SLP123 T10061072
14837KMSN MSN20020104135510901/04/02 13:55:31  5-MIN KMSN 041955Z 23007KT 180V310 9SM CLR 00/M07 A2986 920 58 -600 230/07 180V310 RMK AO2
14837KMSN MSN20020104140010901/04/02 14:00:31  5-MIN KMSN 042000Z 23009KT 180V270 9SM CLR 00/M07 A2986 920 58 -600 230/09 180V270 RMK AO2
14837KMSN MSN20020104140509401/04/02 14:05:31  5-MIN KMSN 042005Z 22008KT 10SM CLR 00/M07 A2986 920 58 -600 220/08 RMK AO2
14837KMSN MSN20020104141009401/04/02 14:10:31  5-MIN KMSN 042010Z 23008KT 10SM CLR 00/M07 A2986 920 58 -600 220/08 RMK AO2
14837KMSN MSN20020104141509401/04/02 14:15:31  5-MIN KMSN 042015Z 22008KT 10SM CLR 00/M07 A2986 920 58 -600 220/08 RMK AO2
14837KMSN MSN20020104142009401/04/02 14:20:31  5-MIN KMSN 042020Z 22007KT 10SM CLR 00/M07 A2986 920 61 -600 220/07 RMK AO2
14837KMSN MSN20020104142511001/04/02 14:25:31  5-MIN KMSN 042025Z 23007KT 200V270 10SM CLR 00/M07 A2986 920 58 -600 230/07 200V270 RMK AO2
14837KMSN MSN20020104143009401/04/02 14:30:31  5-MIN KMSN 042030Z 23007KT 10SM CLR 00/M07 A2986 920 61 -600 230/07 RMK AO2
14837KMSN MSN20020104143509401/04/02 14:35:31  5-MIN KMSN 042035Z 23007KT 10SM CLR 00/M07 A2986 920 61 -600 230/07 RMK AO2
14837KMSN MSN20020104144009401/04/02 14:40:31  5-MIN KMSN 042040Z 22008KT 10SM CLR 00/M07 A2986 920 61 -600 220/08 RMK AO2
14837KMSN MSN20020104144509401/04/02 14:45:31  5-MIN KMSN 042045Z 22007KT 10SM CLR 00/M07 A2986 920 61 -600 220/07 RMK AO2
14837KMSN MSN20020104145011701/04/02 14:50:31  5-MIN KMSN 042050Z 23006KT 10SM CLR 00/M07 A2986 920 61 -600 230/06 RMK AO2 SLP123 T00001067 58018
14837KMSN MSN20020104145509301/04/02 14:55:31  5-MIN KMSN 042055Z 23007KT 9SM CLR 00/M07 A2986 920 61 -600 220/07 RMK AO2
14837KMSN MSN20020104150009401/04/02 15:00:31  5-MIN KMSN 042100Z 22007KT 10SM CLR 00/M07 A2986 920 61 -600 220/07 RMK AO2
14837KMSN MSN20020104150509401/04/02 15:05:31  5-MIN KMSN 042105Z 22008KT 10SM CLR 01/M07 A2986 920 58 -500 220/08 RMK AO2
14837KMSN MSN20020104151009401/04/02 15:10:31  5-MIN KMSN 042110Z 21008KT 10SM CLR 01/M07 A2986 920 58 -500 210/08 RMK AO2
14837KMSN MSN20020104151509401/04/02 15:15:31  5-MIN KMSN 042115Z 21009KT 10SM CLR 00/M07 A2986 920 61 -600 210/09 RMK AO2
14837KMSN MSN20020104152009401/04/02 15:20:31  5-MIN KMSN 042120Z 22008KT 10SM CLR 00/M07 A2986 920 61 -600 210/08 RMK AO2
14837KMSN MSN20020104152509701/04/02 15:25:31  5-MIN KMSN 042125Z VRB05KT 10SM SCT110 00/M07 A2987 910 61 -600 VRB/05 RMK AO2
14837KMSN MSN20020104153009701/04/02 15:30:31  5-MIN KMSN 042130Z 21007KT 10SM SCT110 00/M07 A2987 910 61 -600 210/07 RMK AO2
14837KMSN MSN20020104153509701/04/02 15:35:31  5-MIN KMSN 042135Z 22007KT 10SM SCT110 00/M07 A2987 910 61 -600 220/07 RMK AO2
14837KMSN MSN20020104154009701/04/02 15:40:31  5-MIN KMSN 042140Z 23006KT 10SM SCT110 00/M06 A2987 910 63 -600 230/06 RMK AO2
14837KMSN MSN20020104154509701/04/02 15:45:31  5-MIN KMSN 042145Z 23006KT 10SM SCT110 00/M06 A2987 910 63 -600 230/06 RMK AO2
14837KMSN MSN20020104155011401/04/02 15:50:31  5-MIN KMSN 042150Z 23007KT 10SM SCT110 00/M06 A2987 910 63 -600 230/07 RMK AO2 SLP126 T00001061
14837KMSN MSN20020104155509701/04/02 15:55:31  5-MIN KMSN 042155Z VRB06KT 10SM FEW120 00/M06 A2987 910 63 -600 VRB/06 RMK AO2
14837KMSN MSN20020104160009701/04/02 16:00:31  5-MIN KMSN 042200Z 22007KT 10SM FEW120 00/M06 A2987 910 63 -600 220/07 RMK AO2
14837KMSN MSN20020104160509701/04/02 16:05:31  5-MIN KMSN 042205Z 22005KT 10SM FEW120 00/M06 A2987 910 63 -600 220/05 RMK AO2
14837KMSN MSN20020104161009701/04/02 16:10:31  5-MIN KMSN 042210Z 22005KT 10SM FEW120 00/M06 A2987 910 63 -600 220/05 RMK AO2
14837KMSN MSN20020104161509701/04/02 16:15:31  5-MIN KMSN 042215Z 22005KT 10SM FEW120 00/M06 A2988 910 63 -600 220/05 RMK AO2
14837KMSN MSN20020104162009701/04/02 16:20:31  5-MIN KMSN 042220Z 22007KT 10SM FEW120 00/M06 A2988 900 63 -600 220/07 RMK AO2
14837KMSN MSN20020104162509701/04/02 16:25:31  5-MIN KMSN 042225Z 23006KT 10SM FEW120 00/M06 A2988 900 63 -600 230/06 RMK AO2
14837KMSN MSN20020104163009701/04/02 16:30:31  5-MIN KMSN 042230Z 23007KT 10SM FEW120 00/M06 A2988 900 63 -600 220/07 RMK AO2
14837KMSN MSN20020104163509701/04/02 16:35:31  5-MIN KMSN 042235Z 22006KT 10SM FEW120 00/M06 A2988 900 63 -600 220/06 RMK AO2
14837KMSN MSN20020104164009701/04/02 16:40:31  5-MIN KMSN 042240Z 22005KT 10SM FEW120 00/M06 A2988 900 63 -600 220/05 RMK AO2
14837KMSN MSN20020104164509401/04/02 16:45:31  5-MIN KMSN 042245Z 22005KT 10SM CLR 00/M06 A2988 900 63 -600 220/05 RMK AO2
14837KMSN MSN20020104165011101/04/02 16:50:31  5-MIN KMSN 042250Z 22005KT 10SM CLR 00/M06 A2988 900 63 -600 220/05 RMK AO2 SLP131 T00001061
14837KMSN MSN20020104165509301/04/02 16:55:31  5-MIN KMSN 042255Z 22005KT 9SM CLR 00/M06 A2988 900 63 -600 210/05 RMK AO2
14837KMSN MSN20020104170009401/04/02 17:00:31  5-MIN KMSN 042300Z VRB05KT 9SM CLR M01/M06 A2988 900 66 -700 VRB/05 RMK AO2
14837KMSN MSN20020104170509401/04/02 17:05:31  5-MIN KMSN 042305Z 22005KT 9SM CLR M01/M06 A2988 900 66 -700 220/05 RMK AO2
14837KMSN MSN20020104171009301/04/02 17:10:31  5-MIN KMSN 042310Z 22007KT 9SM CLR 00/M06 A2988 900 63 -600 220/07 RMK AO2
14837KMSN MSN20020104171509301/04/02 17:15:31  5-MIN KMSN 042315Z 23006KT 9SM CLR 00/M06 A2988 900 63 -600 230/06 RMK AO2
14837KMSN MSN20020104172009301/04/02 17:20:31  5-MIN KMSN 042320Z 22006KT 9SM CLR 00/M06 A2988 900 63 -600 220/06 RMK AO2
14837KMSN MSN20020104172509301/04/02 17:25:31  5-MIN KMSN 042325Z 22007KT 9SM CLR 00/M06 A2988 900 63 -600 220/07 RMK AO2
14837KMSN MSN20020104173009401/04/02 17:30:31  5-MIN KMSN 042330Z 22006KT 9SM CLR M01/M06 A2988 900 66 -700 220/06 RMK AO2
14837KMSN MSN20020104173509401/04/02 17:35:31  5-MIN KMSN 042335Z 22006KT 9SM CLR M01/M06 A2988 900 66 -700 220/06 RMK AO2
14837KMSN MSN20020104174009401/04/02 17:40:31  5-MIN KMSN 042340Z 22007KT 9SM CLR M01/M06 A2988 900 66 -700 220/07 RMK AO2
14837KMSN MSN20020104174509401/04/02 17:45:31  5-MIN KMSN 042345Z 22005KT 9SM CLR M01/M06 A2988 900 66 -700 220/05 RMK AO2
14837KMSN MSN20020104175013001/04/02 17:50:31  5-MIN KMSN 042350Z 22005KT 10SM CLR M01/M06 A2988 900 66 -700 220/05 RMK AO2 SLP131 T10061061 10006 21017 55010
14837KMSN MSN20020104175509401/04/02 17:55:31  5-MIN KMSN 042355Z 22005KT 9SM CLR M01/M06 A2988 900 66 -700 220/05 RMK AO2
14837KMSN MSN20020104180009401/04/02 18:00:31  5-MIN KMSN 050000Z 22004KT 9SM CLR M01/M06 A2988 900 66 -700 220/04 RMK AO2
14837KMSN MSN20020104180509401/04/02 18:05:31  5-MIN KMSN 050005Z 23005KT 9SM CLR M01/M06 A2988 900 66 -700 220/05 RMK AO2
14837KMSN MSN20020104181009401/04/02 18:10:31  5-MIN KMSN 050010Z 23004KT 9SM CLR M01/M06 A2988 900 66 -700 230/04 RMK AO2
14837KMSN MSN20020104181509401/04/02 18:15:31  5-MIN KMSN 050015Z 22004KT 9SM CLR M01/M06 A2988 900 66 -700 220/04 RMK AO2
14837KMSN MSN20020104182009401/04/02 18:20:31  5-MIN KMSN 050020Z 22005KT 9SM CLR M01/M06 A2988 900 66 -700 220/05 RMK AO2
14837KMSN MSN20020104182509701/04/02 18:25:31  5-MIN KMSN 050025Z 22006KT 9SM FEW120 M01/M06 A2988 900 66 -700 220/06 RMK AO2
14837KMSN MSN20020104183009601/04/02 18:30:31  5-MIN KMSN 050030Z 22006KT 9SM FEW120 00/M06 A2988 900 63 -600 220/06 RMK AO2
14837KMSN MSN20020104183509601/04/02 18:35:31  5-MIN KMSN 050035Z 23004KT 9SM FEW120 00/M06 A2988 900 63 -600 220/04 RMK AO2
14837KMSN MSN20020104184009601/04/02 18:40:31  5-MIN KMSN 050040Z 22004KT 9SM FEW120 00/M06 A2989 900 66 -600 220/04 RMK AO2
14837KMSN MSN20020104184509701/04/02 18:45:31  5-MIN KMSN 050045Z VRB06KT 9SM FEW120 M01/M06 A2989 890 69 -700 VRB/06 RMK AO2
14837KMSN MSN20020104185011401/04/02 18:50:31  5-MIN KMSN 050050Z 22005KT 10SM SCT120 00/M06 A2989 890 63 -600 220/05 RMK AO2 SLP133 T00001061
14837KMSN MSN20020104185509601/04/02 18:55:31  5-MIN KMSN 050055Z 22005KT 9SM FEW110 00/M06 A2989 900 66 -600 220/05 RMK AO2
14837KMSN MSN20020104190009601/04/02 19:00:31  5-MIN KMSN 050100Z 22005KT 9SM FEW110 00/M06 A2988 900 66 -600 220/05 RMK AO2
14837KMSN MSN20020104190509601/04/02 19:05:31  5-MIN KMSN 050105Z 22004KT 9SM FEW110 00/M06 A2988 900 66 -600 220/04 RMK AO2
14837KMSN MSN20020104191009301/04/02 19:10:31  5-MIN KMSN 050110Z 22005KT 9SM CLR 00/M06 A2988 900 66 -600 220/05 RMK AO2
14837KMSN MSN20020104191509301/04/02 19:15:31  5-MIN KMSN 050115Z 22005KT 9SM CLR 00/M06 A2988 900 66 -600 220/05 RMK AO2
14837KMSN MSN20020104192009301/04/02 19:20:31  5-MIN KMSN 050120Z 22004KT 9SM CLR 00/M06 A2988 900 66 -600 220/04 RMK AO2
14837KMSN MSN20020104192509301/04/02 19:25:31  5-MIN KMSN 050125Z 22003KT 9SM CLR 00/M06 A2988 900 66 -600 220/03 RMK AO2
14837KMSN MSN20020104193009301/04/02 19:30:31  5-MIN KMSN 050130Z 22005KT 9SM CLR 00/M06 A2988 900 66 -600 220/05 RMK AO2
14837KMSN MSN20020104193509601/04/02 19:35:31  5-MIN KMSN 050135Z VRB03KT 9SM FEW120 00/M06 A2988 900 66 -600 VRB/03 RMK AO2
14837KMSN MSN20020104194009601/04/02 19:40:31  5-MIN KMSN 050140Z 22004KT 9SM SCT120 00/M06 A2988 900 66 -600 220/04 RMK AO2
14837KMSN MSN20020104194509601/04/02 19:45:31  5-MIN KMSN 050145Z 21004KT 9SM BKN120 00/M06 A2988 900 66 -600 210/04 RMK AO2
14837KMSN MSN20020104195011301/04/02 19:50:31  5-MIN KMSN 050150Z 22004KT 9SM BKN110 00/M06 A2988 900 66 -600 220/04 RMK AO2 SLP131 T00001056
14837KMSN MSN20020104195509601/04/02 19:55:31  5-MIN KMSN 050155Z 21003KT 9SM BKN110 00/M06 A2988 900 66 -600 210/03 RMK AO2
14837KMSN MSN20020104200009601/04/02 20:00:31  5-MIN KMSN 050200Z 22003KT 9SM OVC110 00/M06 A2988 900 66 -600 210/03 RMK AO2
14837KMSN MSN20020104200509601/04/02 20:05:31  5-MIN KMSN 050205Z VRB04KT 9SM OVC110 00/M06 A2988 900 66 -600 VRB/04 RMK AO2
14837KMSN MSN20020104201009601/04/02 20:10:31  5-MIN KMSN 050210Z VRB03KT 9SM OVC120 00/M06 A2989 890 66 -600 VRB/03 RMK AO2
14837KMSN MSN20020104201509601/04/02 20:15:31  5-MIN KMSN 050215Z 22003KT 9SM OVC120 00/M06 A2989 890 66 -600 220/03 RMK AO2
14837KMSN MSN20020104202009601/04/02 20:20:31  5-MIN KMSN 050220Z VRB04KT 9SM OVC110 00/M06 A2989 890 66 -600 VRB/04 RMK AO2
14837KMSN MSN20020104202509601/04/02 20:25:31  5-MIN KMSN 050225Z 22004KT 9SM OVC110 00/M06 A2989 890 66 -600 220/04 RMK AO2
14837KMSN MSN20020104203009601/04/02 20:30:31  5-MIN KMSN 050230Z 21003KT 9SM OVC110 00/M06 A2989 890 66 -600 210/03 RMK AO2
14837KMSN MSN20020104203509601/04/02 20:35:31  5-MIN KMSN 050235Z 21003KT 9SM OVC110 00/M05 A2989 890 69 -600 210/03 RMK AO2
14837KMSN MSN20020104204009601/04/02 20:40:31  5-MIN KMSN 050240Z 20003KT 9SM OVC110 00/M06 A2990 890 66 -600 200/03 RMK AO2
14837KMSN MSN20020104204509601/04/02 20:45:31  5-MIN KMSN 050245Z 20004KT 8SM OVC110 00/M06 A2990 890 66 -600 200/04 RMK AO2
14837KMSN MSN20020104205012001/04/02 20:50:31  5-MIN KMSN 050250Z 21004KT 10SM BKN110 00/M06 A2990 890 66 -600 200/04 RMK AO2 SLP135 T00001056 51007
14837KMSN MSN20020104205509601/04/02 20:55:31  5-MIN KMSN 050255Z 20004KT 9SM BKN120 00/M06 A2990 890 66 -600 200/04 RMK AO2
14837KMSN MSN20020104210009601/04/02 21:00:31  5-MIN KMSN 050300Z 21005KT 9SM BKN120 00/M05 A2989 890 69 -600 200/05 RMK AO2
14837KMSN MSN20020104210509601/04/02 21:05:31  5-MIN KMSN 050305Z 20004KT 9SM SCT120 00/M05 A2989 890 69 -600 200/04 RMK AO2
14837KMSN MSN20020104211010301/04/02 21:10:31  5-MIN KMSN 050310Z 20004KT 9SM FEW100 SCT120 00/M05 A2989 890 69 -600 200/04 RMK AO2
14837KMSN MSN20020104211510301/04/02 21:15:31  5-MIN KMSN 050315Z 20004KT 9SM SCT100 BKN120 00/M05 A2989 890 69 -600 200/04 RMK AO2
14837KMSN MSN20020104212010301/04/02 21:20:31  5-MIN KMSN 050320Z 20004KT 8SM SCT100 BKN120 00/M05 A2989 890 69 -600 200/04 RMK AO2
14837KMSN MSN20020104212510301/04/02 21:25:31  5-MIN KMSN 050325Z 20004KT 8SM SCT100 SCT120 00/M05 A2989 890 69 -600 200/04 RMK AO2
14837KMSN MSN20020104213009601/04/02 21:30:31  5-MIN KMSN 050330Z 20004KT 8SM FEW100 00/M05 A2989 890 69 -600 200/04 RMK AO2
14837KMSN MSN20020104213509601/04/02 21:35:31  5-MIN KMSN 050335Z 20004KT 8SM FEW100 00/M05 A2989 890 69 -600 200/04 RMK AO2
14837KMSN MSN20020104214009601/04/02 21:40:31  5-MIN KMSN 050340Z 19005KT 8SM FEW100 00/M05 A2989 890 69 -600 190/05 RMK AO2
14837KMSN MSN20020104214509601/04/02 21:45:31  5-MIN KMSN 050345Z 19005KT 8SM FEW100 00/M05 A2989 890 69 -600 190/05 RMK AO2
14837KMSN MSN20020104215011401/04/02 21:50:31  5-MIN KMSN 050350Z 19005KT 10SM SCT120 00/M05 A2989 900 69 -600 190/05 RMK AO2 SLP131 T00001050
14837KMSN MSN20020104215509601/04/02 21:55:31  5-MIN KMSN 050355Z 19005KT 8SM FEW110 00/M05 A2988 900 69 -600 190/05 RMK AO2
14837KMSN MSN20020104220009601/04/02 22:00:31  5-MIN KMSN 050400Z 19005KT 8SM FEW110 00/M05 A2988 900 69 -600 190/05 RMK AO2
14837KMSN MSN20020104220509301/04/02 22:05:31  5-MIN KMSN 050405Z 19004KT 8SM CLR 00/M05 A2988 900 69 -600 190/04 RMK AO2
14837KMSN MSN20020104221009301/04/02 22:10:31  5-MIN KMSN 050410Z 20004KT 8SM CLR 00/M05 A2988 900 69 -600 200/04 RMK AO2
14837KMSN MSN20020104221509301/04/02 22:15:31  5-MIN KMSN 050415Z 19004KT 8SM CLR 00/M05 A2988 900 69 -600 190/04 RMK AO2
14837KMSN MSN20020104222009301/04/02 22:20:31  5-MIN KMSN 050420Z 20003KT 8SM CLR 00/M05 A2988 900 69 -600 190/03 RMK AO2
14837KMSN MSN20020104222509301/04/02 22:25:31  5-MIN KMSN 050425Z 20003KT 8SM CLR 00/M05 A2988 900 69 -600 200/03 RMK AO2
14837KMSN MSN20020104223009301/04/02 22:30:31  5-MIN KMSN 050430Z 20003KT 8SM CLR 00/M05 A2988 900 69 -600 200/03 RMK AO2
14837KMSN MSN20020104223509301/04/02 22:35:31  5-MIN KMSN 050435Z 19004KT 8SM CLR 00/M05 A2988 900 69 -600 190/04 RMK AO2
14837KMSN MSN20020104224009601/04/02 22:40:31  5-MIN KMSN 050440Z 20004KT 8SM FEW120 00/M05 A2988 900 69 -600 190/04 RMK AO2
14837KMSN MSN20020104224509601/04/02 22:45:31  5-MIN KMSN 050445Z 20003KT 8SM SCT120 00/M05 A2988 900 69 -600 200/03 RMK AO2
14837KMSN MSN20020104225011401/04/02 22:50:31  5-MIN KMSN 050450Z 21003KT 8SM BKN120 M01/M05 A2988 900 72 -700 210/03 RMK AO2 SLP128 T10061050
14837KMSN MSN20020104225509701/04/02 22:55:31  5-MIN KMSN 050455Z 20004KT 8SM BKN120 M01/M05 A2988 910 72 -700 200/04 RMK AO2
14837KMSN MSN20020104230009701/04/02 23:00:31  5-MIN KMSN 050500Z 20005KT 8SM BKN120 M01/M05 A2987 910 72 -700 200/05 RMK AO2
14837KMSN MSN20020104230509601/04/02 23:05:31  5-MIN KMSN 050505Z 20005KT 8SM OVC110 00/M04 A2988 910 72 -600 200/05 RMK AO2
14837KMSN MSN20020104231009601/04/02 23:10:31  5-MIN KMSN 050510Z 20005KT 8SM OVC110 00/M04 A2988 910 72 -600 200/05 RMK AO2
14837KMSN MSN20020104231509601/04/02 23:15:31  5-MIN KMSN 050515Z 21005KT 8SM OVC110 00/M04 A2987 910 72 -600 200/05 RMK AO2
14837KMSN MSN20020104232009601/04/02 23:20:31  5-MIN KMSN 050520Z 21005KT 8SM OVC110 00/M04 A2987 910 72 -600 210/05 RMK AO2
14837KMSN MSN20020104232509601/04/02 23:25:31  5-MIN KMSN 050525Z 21005KT 8SM OVC110 01/M04 A2987 910 69 -500 210/05 RMK AO2
14837KMSN MSN20020104233009601/04/02 23:30:31  5-MIN KMSN 050530Z 21005KT 8SM OVC100 01/M04 A2987 910 69 -500 200/05 RMK AO2
14837KMSN MSN20020104233509601/04/02 23:35:31  5-MIN KMSN 050535Z 19005KT 8SM OVC100 00/M04 A2986 920 72 -600 190/05 RMK AO2
14837KMSN MSN20020104234009601/04/02 23:40:31  5-MIN KMSN 050540Z 20005KT 8SM OVC100 00/M04 A2986 920 72 -600 200/05 RMK AO2
14837KMSN MSN20020104234509601/04/02 23:45:31  5-MIN KMSN 050545Z 20005KT 8SM OVC100 01/M04 A2986 920 69 -500 200/05 RMK AO2
14837KMSN MSN20020104235014201/04/02 23:50:31  5-MIN KMSN 050550Z 21004KT 10SM OVC100 01/M04 A2986 920 69 -500 210/04 RMK AO2 SLP122 T00061044 10006 21006 400061067 53004
14837KMSN MSN20020104235509601/04/02 23:55:31  5-MIN KMSN 050555Z VRB04KT 8SM OVC100 01/M04 A2986 920 69 -500 VRB/04 RMK AO2
14837KMSN MSN20020105000009601/05/02 00:00:31  5-MIN KMSN 050600Z VRB04KT 8SM OVC110 01/M04 A2986 920 69 -500 VRB/04 RMK AO2
14837KMSN MSN20020105000509601/05/02 00:05:31  5-MIN KMSN 050605Z VRB04KT 8SM BKN110 01/M04 A2986 920 69 -500 VRB/04 RMK AO2
14837KMSN MSN20020105001009601/05/02 00:10:31  5-MIN KMSN 050610Z 22006KT 8SM BKN110 01/M04 A2986 920 69 -500 220/06 RMK AO2
14837KMSN MSN20020105001509601/05/02 00:15:31  5-MIN KMSN 050615Z 22006KT 8SM BKN110 01/M04 A2986 920 69 -500 220/06 RMK AO2
14837KMSN MSN20020105002009601/05/02 00:20:31  5-MIN KMSN 050620Z 23005KT 8SM BKN110 01/M04 A2986 920 69 -500 230/05 RMK AO2
14837KMSN MSN20020105002509601/05/02 00:25:31  5-MIN KMSN 050625Z 22006KT 8SM BKN110 01/M04 A2985 930 69 -500 220/06 RMK AO2
14837KMSN MSN20020105003009601/05/02 00:30:31  5-MIN KMSN 050630Z 22006KT 8SM BKN110 01/M04 A2985 930 69 -500 220/06 RMK AO2
14837KMSN MSN20020105003509601/05/02 00:35:31  5-MIN KMSN 050635Z 22005KT 8SM OVC110 01/M04 A2985 930 69 -500 220/05 RMK AO2
14837KMSN MSN20020105004009601/05/02 00:40:31  5-MIN KMSN 050640Z 22005KT 8SM BKN110 01/M04 A2985 930 69 -500 220/05 RMK AO2
14837KMSN MSN20020105004509601/05/02 00:45:31  5-MIN KMSN 050645Z 22006KT 8SM BKN110 01/M04 A2985 930 69 -500 220/06 RMK AO2
14837KMSN MSN20020105005011301/05/02 00:50:31  5-MIN KMSN 050650Z 22005KT 8SM BKN110 01/M04 A2985 930 69 -500 220/05 RMK AO2 SLP116 T00061044
14837KMSN MSN20020105005509601/05/02 00:55:31  5-MIN KMSN 050655Z 23005KT 8SM OVC110 01/M04 A2984 930 69 -500 230/05 RMK AO2
14837KMSN MSN20020105010009601/05/02 01:00:31  5-MIN KMSN 050700Z 22004KT 8SM BKN110 01/M04 A2984 940 69 -500 220/04 RMK AO2
14837KMSN MSN20020105010510301/05/02 01:05:31  5-MIN KMSN 050705Z 22004KT 8SM FEW080 BKN110 01/M04 A2984 940 69 -500 220/04 RMK AO2
14837KMSN MSN20020105011010301/05/02 01:10:31  5-MIN KMSN 050710Z 22004KT 8SM FEW080 BKN110 01/M04 A2985 930 69 -500 220/04 RMK AO2
14837KMSN MSN20020105011511001/05/02 01:15:31  5-MIN KMSN 050715Z 21005KT 8SM FEW080 SCT100 BKN110 01/M04 A2985 930 69 -500 210/05 RMK AO2
14837KMSN MSN20020105012010301/05/02 01:20:31  5-MIN KMSN 050720Z 22005KT 8SM FEW080 BKN100 01/M04 A2985 930 69 -500 220/05 RMK AO2
14837KMSN MSN20020105012510301/05/02 01:25:31  5-MIN KMSN 050725Z 22006KT 8SM FEW080 BKN100 01/M04 A2985 930 69 -500 220/06 RMK AO2
14837KMSN MSN20020105013010301/05/02 01:30:31  5-MIN KMSN 050730Z 22006KT 8SM BKN100 BKN110 01/M04 A2985 930 69 -500 220/06 RMK AO2
14837KMSN MSN20020105013510301/05/02 01:35:31  5-MIN KMSN 050735Z 22005KT 8SM BKN100 OVC110 01/M04 A2986 920 69 -500 220/05 RMK AO2
14837KMSN MSN20020105014010301/05/02 01:40:31  5-MIN KMSN 050740Z 23004KT 8SM BKN095 BKN110 01/M04 A2986 920 69 -500 230/04 RMK AO2
14837KMSN MSN20020105014510301/05/02 01:45:31  5-MIN KMSN 050745Z 23006KT 8SM BKN095 BKN110 01/M04 A2987 910 69 -500 230/06 RMK AO2
14837KMSN MSN20020105015011401/05/02 01:50:31  5-MIN KMSN 050750Z VRB06KT 10SM BKN100 01/M04 A2987 910 72 -500 VRB/06 RMK AO2 SLP125 T00061039
14837KMSN MSN20020105015510401/05/02 01:55:31  5-MIN KMSN 050755Z VRB05KT 10SM BKN100 BKN110 01/M04 A2987 910 72 -500 VRB/05 RMK AO2
14837KMSN MSN20020105020010401/05/02 02:00:31  5-MIN KMSN 050800Z 23005KT 10SM BKN100 BKN110 01/M04 A2987 910 72 -500 230/05 RMK AO2
14837KMSN MSN20020105020510401/05/02 02:05:31  5-MIN KMSN 050805Z 23005KT 10SM BKN100 BKN110 01/M04 A2987 910 72 -500 230/05 RMK AO2
14837KMSN MSN20020105021010401/05/02 02:10:31  5-MIN KMSN 050810Z 24005KT 10SM BKN100 BKN110 01/M04 A2987 910 72 -500 240/05 RMK AO2
14837KMSN MSN20020105021510401/05/02 02:15:31  5-MIN KMSN 050815Z VRB05KT 10SM BKN100 BKN110 01/M04 A2987 910 72 -500 VRB/05 RMK AO2
14837KMSN MSN20020105022009701/05/02 02:20:31  5-MIN KMSN 050820Z 24004KT 10SM BKN100 00/M04 A2986 920 75 -600 230/04 RMK AO2
14837KMSN MSN20020105022509701/05/02 02:25:31  5-MIN KMSN 050825Z 23004KT 10SM BKN100 00/M04 A2987 910 75 -600 230/04 RMK AO2
14837KMSN MSN20020105023009701/05/02 02:30:31  5-MIN KMSN 050830Z VRB03KT 10SM BKN100 00/M04 A2987 910 75 -600 VRB/03 RMK AO2
14837KMSN MSN20020105023509701/05/02 02:35:31  5-MIN KMSN 050835Z 00000KT 10SM BKN100 00/M04 A2987 910 75 -600 000/00 RMK AO2
14837KMSN MSN20020105024009801/05/02 02:40:31  5-MIN KMSN 050840Z 00000KT 10SM BKN100 M01/M04 A2987 910 75 -700 000/00 RMK AO2
14837KMSN MSN20020105024509501/05/02 02:45:31  5-MIN KMSN 050845Z 00000KT 10SM CLR M01/M04 A2988 910 75 -700 000/00 RMK AO2
14837KMSN MSN20020105025011801/05/02 02:50:31  5-MIN KMSN 050850Z VRB03KT 10SM CLR M01/M04 A2988 900 78 -800 VRB/03 RMK AO2 SLP128 T10111044 58012
14837KMSN MSN20020105025509401/05/02 02:55:31  5-MIN KMSN 050855Z 22004KT 7SM CLR M01/M04 A2988 900 78 -800 210/04 RMK AO2
14837KMSN MSN20020105030009501/05/02 03:00:31  5-MIN KMSN 050900Z 22003KT 10SM CLR M01/M04 A2987 910 78 -800 220/03 RMK AO2
14837KMSN MSN20020105030509501/05/02 03:05:31  5-MIN KMSN 050905Z 00000KT 10SM CLR M01/M04 A2987 910 78 -800 000/00 RMK AO2
14837KMSN MSN20020105031009501/05/02 03:10:31  5-MIN KMSN 050910Z VRB04KT 10SM CLR M02/M04 A2988 910 85 -900 VRB/04 RMK AO2
14837KMSN MSN20020105031509501/05/02 03:15:31  5-MIN KMSN 050915Z VRB03KT 10SM CLR M01/M04 A2987 910 81 -700 VRB/03 RMK AO2
14837KMSN MSN20020105032009501/05/02 03:20:31  5-MIN KMSN 050920Z 00000KT 10SM CLR M01/M04 A2986 920 78 -700 000/00 RMK AO2
14837KMSN MSN20020105032509501/05/02 03:25:31  5-MIN KMSN 050925Z 23004KT 10SM CLR M01/M04 A2987 910 78 -700 230/04 RMK AO2
14837KMSN MSN20020105033009501/05/02 03:30:31  5-MIN KMSN 050930Z 22004KT 10SM CLR M02/M04 A2987 910 81 -800 220/04 RMK AO2
14837KMSN MSN20020105033509501/05/02 03:35:31  5-MIN KMSN 050935Z 22003KT 10SM CLR M01/M04 A2986 920 81 -700 220/03 RMK AO2
14837KMSN MSN20020105034009501/05/02 03:40:31  5-MIN KMSN 050940Z 22004KT 10SM CLR M01/M04 A2987 910 78 -700 220/04 RMK AO2
14837KMSN MSN20020105034509501/05/02 03:45:31  5-MIN KMSN 050945Z 23003KT 10SM CLR M01/M04 A2986 920 78 -700 230/03 RMK AO2
14837KMSN MSN20020105035011201/05/02 03:50:31  5-MIN KMSN 050950Z 25004KT 10SM CLR M01/M04 A2986 920 81 -700 250/04 RMK AO2 SLP121 T10111039
14837KMSN MSN20020105035509801/05/02 03:55:31  5-MIN KMSN 050955Z 24004KT 10SM FEW100 M01/M04 A2986 920 81 -700 240/04 RMK AO2
14837KMSN MSN20020105040009801/05/02 04:00:31  5-MIN KMSN 051000Z 23005KT 10SM FEW100 M01/M04 A2986 920 78 -700 230/05 RMK AO2
14837KMSN MSN20020105040509801/05/02 04:05:31  5-MIN KMSN 051005Z 21005KT 10SM FEW100 M01/M04 A2985 930 81 -700 210/05 RMK AO2
14837KMSN MSN20020105041009801/05/02 04:10:31  5-MIN KMSN 051010Z VRB04KT 10SM FEW100 M01/M04 A2986 920 81 -700 VRB/04 RMK AO2
14837KMSN MSN20020105041509801/05/02 04:15:31  5-MIN KMSN 051015Z 22005KT 10SM FEW100 M01/M04 A2986 920 81 -700 210/05 RMK AO2
14837KMSN MSN20020105042009801/05/02 04:20:31  5-MIN KMSN 051020Z 23005KT 10SM FEW100 M01/M04 A2986 920 81 -700 230/05 RMK AO2
14837KMSN MSN20020105042509501/05/02 04:25:31  5-MIN KMSN 051025Z 23004KT 10SM CLR M01/M04 A2985 930 81 -700 220/04 RMK AO2
14837KMSN MSN20020105043009501/05/02 04:30:31  5-MIN KMSN 051030Z 23004KT 10SM CLR M02/M04 A2986 920 85 -800 230/04 RMK AO2
14837KMSN MSN20020105043509501/05/02 04:35:31  5-MIN KMSN 051035Z 22003KT 10SM CLR M02/M04 A2985 930 85 -800 220/03 RMK AO2
14837KMSN MSN20020105044009501/05/02 04:40:31  5-MIN KMSN 051040Z 21004KT 10SM CLR M02/M04 A2986 920 85 -800 210/04 RMK AO2
14837KMSN MSN20020105044509801/05/02 04:45:31  5-MIN KMSN 051045Z 22005KT 10SM FEW090 M01/M04 A2986 920 81 -700 220/05 RMK AO2
14837KMSN MSN20020105045011501/05/02 04:50:31  5-MIN KMSN 051050Z 23004KT 10SM SCT080 M02/M04 A2986 920 85 -800 230/04 RMK AO2 SLP121 T10171039
14837KMSN MSN20020105045509801/05/02 04:55:31  5-MIN KMSN 051055Z 23004KT 10SM BKN080 M01/M04 A2986 920 81 -700 230/04 RMK AO2
14837KMSN MSN20020105050009801/05/02 05:00:31  5-MIN KMSN 051100Z VRB05KT 10SM BKN080 M01/M04 A2986 920 81 -700 VRB/05 RMK AO2
14837KMSN MSN20020105050509801/05/02 05:05:31  5-MIN KMSN 051105Z 24005KT 10SM BKN080 M01/M04 A2986 920 81 -700 240/05 RMK AO2
14837KMSN MSN20020105051009801/05/02 05:10:31  5-MIN KMSN 051110Z 22003KT 10SM OVC085 M01/M04 A2986 920 81 -700 220/03 RMK AO2
14837KMSN MSN20020105051509801/05/02 05:15:31  5-MIN KMSN 051115Z 23004KT 10SM BKN085 M01/M04 A2986 920 81 -700 230/04 RMK AO2
14837KMSN MSN20020105052009801/05/02 05:20:31  5-MIN KMSN 051120Z VRB04KT 10SM BKN085 M01/M04 A2986 920 81 -700 VRB/04 RMK AO2
14837KMSN MSN20020105052509801/05/02 05:25:31  5-MIN KMSN 051125Z VRB04KT 10SM BKN085 M01/M04 A2986 920 81 -700 VRB/04 RMK AO2
14837KMSN MSN20020105053009801/05/02 05:30:31  5-MIN KMSN 051130Z VRB03KT 10SM BKN085 M01/M04 A2986 920 81 -700 VRB/03 RMK AO2
14837KMSN MSN20020105053509701/05/02 05:35:31  5-MIN KMSN 051135Z 23003KT 8SM BKN090 M01/M04 A2986 920 81 -700 230/03 RMK AO2
14837KMSN MSN20020105054009701/05/02 05:40:31  5-MIN KMSN 051140Z 23003KT 8SM BKN090 M01/M04 A2987 920 81 -700 220/03 RMK AO2
14837KMSN MSN20020105054509701/05/02 05:45:31  5-MIN KMSN 051145Z VRB03KT 8SM BKN090 M01/M04 A2987 910 81 -700 VRB/03 RMK AO2
14837KMSN MSN20020105055013201/05/02 05:50:31  5-MIN KMSN 051150Z 00000KT 8SM OVC095 M01/M04 A2986 920 81 -700 000/00 RMK AO2 SLP123 T10111039 10006 21022 53006
14837KMSN MSN20020105055509701/05/02 05:55:31  5-MIN KMSN 051155Z VRB03KT 8SM OVC095 M01/M04 A2986 920 81 -700 VRB/03 RMK AO2
14837KMSN MSN20020105060009701/05/02 06:00:31  5-MIN KMSN 051200Z 00000KT 8SM OVC095 M01/M04 A2987 910 81 -700 000/00 RMK AO2
14837KMSN MSN20020105060509701/05/02 06:05:31  5-MIN KMSN 051205Z VRB03KT 8SM OVC095 M01/M04 A2987 910 81 -700 VRB/03 RMK AO2
14837KMSN MSN20020105061009701/05/02 06:10:31  5-MIN KMSN 051210Z VRB03KT 8SM OVC095 M01/M04 A2987 910 81 -700 VRB/03 RMK AO2
14837KMSN MSN20020105061509701/05/02 06:15:31  5-MIN KMSN 051215Z 22003KT 8SM OVC095 M01/M04 A2987 910 81 -700 220/03 RMK AO2
14837KMSN MSN20020105062009701/05/02 06:20:31  5-MIN KMSN 051220Z VRB03KT 8SM OVC095 M01/M04 A2987 910 81 -700 VRB/03 RMK AO2
14837KMSN MSN20020105062509701/05/02 06:25:31  5-MIN KMSN 051225Z 22003KT 8SM OVC095 M01/M04 A2987 910 81 -700 220/03 RMK AO2
14837KMSN MSN20020105063009701/05/02 06:30:31  5-MIN KMSN 051230Z VRB03KT 8SM OVC100 M01/M04 A2987 910 81 -800 VRB/03 RMK AO2
14837KMSN MSN20020105063509701/05/02 06:35:31  5-MIN KMSN 051235Z 00000KT 8SM OVC100 M01/M04 A2988 900 81 -800 000/00 RMK AO2
14837KMSN MSN20020105064009701/05/02 06:40:31  5-MIN KMSN 051240Z 00000KT 8SM OVC100 M01/M04 A2987 910 81 -800 000/00 RMK AO2
14837KMSN MSN20020105064509701/05/02 06:45:31  5-MIN KMSN 051245Z 00000KT 8SM OVC100 M01/M04 A2988 900 81 -800 000/00 RMK AO2
14837KMSN MSN20020105065011401/05/02 06:50:31  5-MIN KMSN 051250Z 00000KT 8SM OVC100 M01/M04 A2988 910 81 -800 000/00 RMK AO2 SLP127 T10111039
14837KMSN MSN20020105065510001/05/02 06:55:31  5-MIN KMSN 051255Z 26003KT 6SM HZ OVC100 M01/M04 A2988 910 81 -800 260/03 RMK AO2
14837KMSN MSN20020105070009701/05/02 07:00:31  5-MIN KMSN 051300Z VRB03KT 8SM OVC100 M01/M04 A2988 910 81 -800 VRB/03 RMK AO2
14837KMSN MSN20020105070509701/05/02 07:05:31  5-MIN KMSN 051305Z 24004KT 8SM OVC100 M01/M04 A2988 910 81 -800 240/04 RMK AO2
14837KMSN MSN20020105071010001/05/02 07:10:31  5-MIN KMSN 051310Z 28004KT 6SM HZ BKN100 M01/M04 A2988 910 81 -800 270/04 RMK AO2
14837KMSN MSN20020105071510001/05/02 07:15:31  5-MIN KMSN 051315Z 25003KT 6SM HZ BKN100 M01/M04 A2988 900 81 -800 250/03 RMK AO2
14837KMSN MSN20020105072010001/05/02 07:20:31  5-MIN KMSN 051320Z VRB03KT 6SM HZ BKN100 M01/M04 A2988 900 81 -800 VRB/03 RMK AO2
14837KMSN MSN20020105072509701/05/02 07:25:31  5-MIN KMSN 051325Z 25003KT 8SM BKN100 M01/M04 A2988 900 81 -800 250/03 RMK AO2
14837KMSN MSN20020105073009701/05/02 07:30:31  5-MIN KMSN 051330Z 24004KT 8SM BKN100 M01/M04 A2988 900 81 -800 240/04 RMK AO2
14837KMSN MSN20020105073509701/05/02 07:35:31  5-MIN KMSN 051335Z VRB03KT 8SM BKN100 M01/M04 A2988 900 81 -800 VRB/03 RMK AO2
14837KMSN MSN20020105074010001/05/02 07:40:31  5-MIN KMSN 051340Z 22003KT 6SM HZ OVC100 M01/M04 A2988 900 81 -800 220/03 RMK AO2
14837KMSN MSN20020105074510001/05/02 07:45:31  5-MIN KMSN 051345Z 23003KT 5SM BR OVC095 M01/M03 A2988 900 85 -800 230/03 RMK AO2
14837KMSN MSN20020105075012401/05/02 07:50:31  5-MIN KMSN 051350Z 00000KT 6SM BR FEW070 OVC095 M01/M03 A2988 900 85 -800 000/00 RMK AO2 SLP130 T10111033
14837KMSN MSN20020105075510701/05/02 07:55:31  5-MIN KMSN 051355Z 00000KT 5SM BR SCT070 OVC095 M01/M03 A2988 900 85 -800 000/00 RMK AO2
14837KMSN MSN20020105080010701/05/02 08:00:31  5-MIN KMSN 051400Z 00000KT 5SM BR FEW070 OVC095 M01/M03 A2988 900 85 -800 000/00 RMK AO2
14837KMSN MSN20020105080510701/05/02 08:05:31  5-MIN KMSN 051405Z 25003KT 5SM HZ FEW070 OVC095 M01/M03 A2989 900 81 -700 250/03 RMK AO2
14837KMSN MSN20020105081010701/05/02 08:10:31  5-MIN KMSN 051410Z 25003KT 5SM BR FEW070 OVC095 M01/M03 A2989 890 85 -800 250/03 RMK AO2
14837KMSN MSN20020105081510701/05/02 08:15:31  5-MIN KMSN 051415Z VRB03KT 5SM BR FEW070 OVC095 M01/M03 A2989 890 85 -800 VRB/03 RMK AO2
14837KMSN MSN20020105082010701/05/02 08:20:31  5-MIN KMSN 051420Z 24003KT 5SM HZ FEW070 OVC095 M01/M03 A2989 890 81 -700 240/03 RMK AO2
14837KMSN MSN20020105082510001/05/02 08:25:31  5-MIN KMSN 051425Z 24004KT 5SM HZ OVC095 M01/M03 A2989 890 81 -700 240/04 RMK AO2
14837KMSN MSN20020105083010001/05/02 08:30:31  5-MIN KMSN 051430Z 23003KT 5SM HZ OVC090 M01/M03 A2989 890 81 -700 230/03 RMK AO2
14837KMSN MSN20020105083510001/05/02 08:35:31  5-MIN KMSN 051435Z 24005KT 5SM HZ OVC095 M01/M03 A2989 890 81 -700 240/05 RMK AO2
14837KMSN MSN20020105084010001/05/02 08:40:31  5-MIN KMSN 051440Z 24005KT 5SM HZ OVC095 M01/M03 A2990 890 81 -700 240/05 RMK AO2
14837KMSN MSN20020105084510001/05/02 08:45:31  5-MIN KMSN 051445Z VRB04KT 5SM HZ OVC095 M01/M03 A2990 890 81 -700 VRB/04 RMK AO2
14837KMSN MSN20020105085012301/05/02 08:50:31  5-MIN KMSN 051450Z VRB04KT 6SM HZ BKN095 M01/M03 A2990 880 81 -700 VRB/04 RMK AO2 SLP134 T10061033 55005
14837KMSN MSN20020105085510001/05/02 08:55:31  5-MIN KMSN 051455Z 23004KT 5SM HZ OVC095 M01/M03 A2990 880 81 -700 230/04 RMK AO2
14837KMSN MSN20020105090010001/05/02 09:00:31  5-MIN KMSN 051500Z 24005KT 5SM HZ OVC095 M01/M03 A2990 880 81 -700 240/05 RMK AO2
14837KMSN MSN20020105090510001/05/02 09:05:31  5-MIN KMSN 051505Z 25005KT 5SM HZ OVC095 M01/M03 A2990 880 81 -700 250/05 RMK AO2
14837KMSN MSN20020105091009901/05/02 09:10:31  5-MIN KMSN 051510Z 00000KT 5SM HZ OVC095 00/M03 A2990 880 78 -600 000/00 RMK AO2
14837KMSN MSN20020105091509901/05/02 09:15:31  5-MIN KMSN 051515Z 24004KT 5SM HZ OVC095 00/M03 A2990 880 81 -600 240/04 RMK AO2
14837KMSN MSN20020105092010601/05/02 09:20:31  5-MIN KMSN 051520Z 24004KT 5SM HZ FEW013 OVC090 00/M03 A2990 880 81 -600 240/04 RMK AO2
14837KMSN MSN20020105092510601/05/02 09:25:31  5-MIN KMSN 051525Z 23003KT 5SM HZ SCT013 OVC090 00/M03 A2990 880 81 -600 230/03 RMK AO2
14837KMSN MSN20020105093010601/05/02 09:30:31  5-MIN KMSN 051530Z 23003KT 5SM HZ SCT013 OVC090 00/M03 A2990 880 81 -600 230/03 RMK AO2
14837KMSN MSN20020105093510601/05/02 09:35:31  5-MIN KMSN 051535Z 24004KT 5SM HZ SCT013 OVC090 00/M03 A2990 880 81 -600 240/04 RMK AO2
14837KMSN MSN20020105094010601/05/02 09:40:31  5-MIN KMSN 051540Z VRB03KT 5SM HZ SCT013 OVC085 00/M03 A2990 880 81 -600 VRB/03 RMK AO2
14837KMSN MSN20020105094510601/05/02 09:45:31  5-MIN KMSN 051545Z 00000KT 5SM HZ SCT013 OVC085 00/M03 A2990 880 81 -600 000/00 RMK AO2
14837KMSN MSN20020105095012301/05/02 09:50:31  5-MIN KMSN 051550Z VRB03KT 6SM HZ FEW013 BKN085 00/M03 A2990 880 81 -600 VRB/03 RMK AO2 SLP135 T00001028
14837KMSN MSN20020105095510601/05/02 09:55:31  5-MIN KMSN 051555Z 20004KT 5SM HZ FEW013 OVC085 00/M03 A2990 880 81 -600 200/04 RMK AO2
14837KMSN MSN20020105100009901/05/02 10:00:31  5-MIN KMSN 051600Z 21004KT 5SM HZ BKN085 00/M03 A2990 880 81 -600 210/04 RMK AO2
14837KMSN MSN20020105100509901/05/02 10:05:31  5-MIN KMSN 051605Z 23005KT 5SM HZ BKN085 00/M03 A2990 880 81 -600 230/05 RMK AO2
14837KMSN MSN20020105101009901/05/02 10:10:31  5-MIN KMSN 051610Z VRB03KT 5SM HZ OVC080 00/M03 A2990 880 81 -600 VRB/03 RMK AO2
14837KMSN MSN20020105101509901/05/02 10:15:31  5-MIN KMSN 051615Z 23004KT 5SM HZ OVC080 00/M03 A2990 880 81 -600 230/04 RMK AO2
14837KMSN MSN20020105102009901/05/02 10:20:31  5-MIN KMSN 051620Z VRB03KT 5SM HZ OVC080 00/M03 A2990 880 81 -600 VRB/03 RMK AO2
14837KMSN MSN20020105102509901/05/02 10:25:31  5-MIN KMSN 051625Z 23004KT 5SM HZ OVC080 00/M03 A2990 880 81 -600 230/04 RMK AO2
14837KMSN MSN20020105103009901/05/02 10:30:31  5-MIN KMSN 051630Z 22004KT 5SM HZ OVC080 00/M03 A2990 890 81 -600 220/04 RMK AO2
14837KMSN MSN20020105103509901/05/02 10:35:31  5-MIN KMSN 051635Z 22005KT 5SM HZ OVC080 00/M03 A2990 890 81 -600 220/05 RMK AO2
14837KMSN MSN20020105104009901/05/02 10:40:31  5-MIN KMSN 051640Z 21005KT 5SM HZ OVC080 00/M03 A2989 890 78 -600 210/05 RMK AO2
14837KMSN MSN20020105104509901/05/02 10:45:31  5-MIN KMSN 051645Z 21004KT 6SM HZ OVC080 01/M03 A2989 890 78 -600 210/04 RMK AO2
14837KMSN MSN20020105105011601/05/02 10:50:31  5-MIN KMSN 051650Z 21004KT 6SM HZ BKN080 01/M03 A2989 890 78 -600 210/04 RMK AO2 SLP131 T00061028
14837KMSN MSN20020105105509901/05/02 10:55:31  5-MIN KMSN 051655Z VRB03KT 6SM HZ BKN080 01/M03 A2989 900 78 -600 VRB/03 RMK AO2
14837KMSN MSN20020105110009901/05/02 11:00:31  5-MIN KMSN 051700Z 23005KT 6SM HZ BKN080 01/M03 A2989 900 78 -600 220/05 RMK AO2
14837KMSN MSN20020105110509901/05/02 11:05:31  5-MIN KMSN 051705Z 22004KT 6SM HZ BKN085 01/M03 A2988 900 78 -600 220/04 RMK AO2
14837KMSN MSN20020105111009901/05/02 11:10:31  5-MIN KMSN 051710Z 22004KT 6SM HZ BKN080 01/M03 A2988 900 78 -600 210/04 RMK AO2
14837KMSN MSN20020105111509901/05/02 11:15:31  5-MIN KMSN 051715Z 21005KT 6SM HZ BKN080 01/M03 A2988 900 78 -500 210/05 RMK AO2
14837KMSN MSN20020105112009901/05/02 11:20:31  5-MIN KMSN 051720Z 24004KT 6SM HZ OVC080 01/M03 A2988 910 78 -500 240/04 RMK AO2
14837KMSN MSN20020105112509901/05/02 11:25:31  5-MIN KMSN 051725Z 24004KT 6SM HZ OVC085 01/M03 A2987 910 78 -500 240/04 RMK AO2
14837KMSN MSN20020105113009901/05/02 11:30:31  5-MIN KMSN 051730Z 24005KT 6SM HZ BKN085 01/M03 A2987 910 78 -500 230/05 RMK AO2
14837KMSN MSN20020105113509901/05/02 11:35:31  5-MIN KMSN 051735Z 24006KT 6SM HZ BKN085 01/M03 A2987 910 75 -500 240/06 RMK AO2
14837KMSN MSN20020105114009901/05/02 11:40:31  5-MIN KMSN 051740Z 23005KT 6SM HZ BKN090 01/M03 A2988 910 75 -500 230/05 RMK AO2
14837KMSN MSN20020105114509901/05/02 11:45:31  5-MIN KMSN 051745Z 23005KT 6SM HZ BKN090 01/M03 A2987 910 75 -500 230/05 RMK AO2
14837KMSN MSN20020105115013101/05/02 11:50:31  5-MIN KMSN 051750Z 23004KT 7SM BKN100 01/M03 A2987 910 75 -500 230/04 RMK AO2 SLP124 T00111028 10011 21011 53012
14837KMSN MSN20020105115509901/05/02 11:55:31  5-MIN KMSN 051755Z 22006KT 6SM HZ BKN100 01/M03 A2987 910 75 -500 220/06 RMK AO2
14837KMSN MSN20020105120009901/05/02 12:00:31  5-MIN KMSN 051800Z 21006KT 6SM HZ BKN100 01/M03 A2986 920 75 -500 210/06 RMK AO2
14837KMSN MSN20020105120509901/05/02 12:05:31  5-MIN KMSN 051805Z 22006KT 6SM HZ SCT100 01/M03 A2986 920 75 -500 220/06 RMK AO2
14837KMSN MSN20020105121009901/05/02 12:10:31  5-MIN KMSN 051810Z 22005KT 6SM HZ SCT100 01/M03 A2986 920 75 -500 220/05 RMK AO2
14837KMSN MSN20020105121509901/05/02 12:15:31  5-MIN KMSN 051815Z 24005KT 6SM HZ SCT095 02/M03 A2986 920 72 -400 240/05 RMK AO2
14837KMSN MSN20020105122009901/05/02 12:20:31  5-MIN KMSN 051820Z 23005KT 6SM HZ FEW085 01/M03 A2986 920 75 -500 230/05 RMK AO2
14837KMSN MSN20020105122509601/05/02 12:25:31  5-MIN KMSN 051825Z VRB05KT 6SM HZ CLR 02/M03 A2985 930 72 -400 VRB/05 RMK AO2
14837KMSN MSN20020105123009601/05/02 12:30:31  5-MIN KMSN 051830Z 24004KT 6SM HZ CLR 02/M03 A2986 920 72 -400 240/04 RMK AO2
14837KMSN MSN20020105123509601/05/02 12:35:31  5-MIN KMSN 051835Z 23006KT 6SM HZ CLR 02/M03 A2985 930 72 -400 230/06 RMK AO2
14837KMSN MSN20020105124009601/05/02 12:40:31  5-MIN KMSN 051840Z 21005KT 6SM HZ CLR 02/M02 A2985 930 75 -400 210/05 RMK AO2
14837KMSN MSN20020105124509601/05/02 12:45:31  5-MIN KMSN 051845Z 22007KT 6SM HZ CLR 02/M03 A2985 930 72 -400 220/07 RMK AO2
14837KMSN MSN20020105125011001/05/02 12:50:31  5-MIN KMSN 051850Z 23006KT 7SM CLR 02/M03 A2985 930 72 -400 230/06 RMK AO2 SLP115 T00171028
14837KMSN MSN20020105125509601/05/02 12:55:31  5-MIN KMSN 051855Z 25006KT 6SM HZ CLR 02/M02 A2985 930 75 -400 250/06 RMK AO2
14837KMSN MSN20020105130009601/05/02 13:00:31  5-MIN KMSN 051900Z 23006KT 6SM HZ CLR 02/M03 A2985 930 72 -400 230/06 RMK AO2
14837KMSN MSN20020105130509601/05/02 13:05:31  5-MIN KMSN 051905Z 23006KT 6SM HZ CLR 02/M02 A2984 930 75 -400 230/06 RMK AO2
14837KMSN MSN20020105131009601/05/02 13:10:31  5-MIN KMSN 051910Z 24006KT 6SM HZ CLR 02/M02 A2984 940 75 -400 240/06 RMK AO2
14837KMSN MSN20020105131509601/05/02 13:15:31  5-MIN KMSN 051915Z 22006KT 6SM HZ CLR 02/M02 A2984 940 72 -300 220/06 RMK AO2
14837KMSN MSN20020105132009601/05/02 13:20:31  5-MIN KMSN 051920Z 24007KT 6SM HZ CLR 02/M02 A2984 940 72 -300 240/07 RMK AO2
14837KMSN MSN20020105132509601/05/02 13:25:31  5-MIN KMSN 051925Z 23007KT 6SM HZ CLR 02/M02 A2983 940 72 -300 230/07 RMK AO2
14837KMSN MSN20020105133009901/05/02 13:30:31  5-MIN KMSN 051930Z VRB05KT 6SM HZ FEW100 02/M02 A2983 940 72 -300 VRB/05 RMK AO2
14837KMSN MSN20020105133509901/05/02 13:35:31  5-MIN KMSN 051935Z 24005KT 6SM HZ FEW100 02/M02 A2983 940 72 -300 240/05 RMK AO2
14837KMSN MSN20020105134009901/05/02 13:40:31  5-MIN KMSN 051940Z 24004KT 6SM HZ FEW110 02/M02 A2983 940 72 -300 240/04 RMK AO2
14837KMSN MSN20020105134509601/05/02 13:45:31  5-MIN KMSN 051945Z 23007KT 6SM HZ CLR 02/M02 A2983 950 72 -300 230/07 RMK AO2
14837KMSN MSN20020105135011001/05/02 13:50:31  5-MIN KMSN 051950Z VRB05KT 7SM CLR 02/M02 A2983 950 75 -400 VRB/05 RMK AO2 SLP110 T00171022
14837KMSN MSN20020105135509301/05/02 13:55:31  5-MIN KMSN 051955Z 23006KT 6SM CLR 02/M02 A2983 940 75 -400 230/06 RMK AO2
14837KMSN MSN20020105140009301/05/02 14:00:31  5-MIN KMSN 052000Z 23006KT 7SM CLR 02/M02 A2983 940 72 -300 230/06 RMK AO2
14837KMSN MSN20020105140509601/05/02 14:05:31  5-MIN KMSN 052005Z 23004KT 7SM FEW100 02/M02 A2983 940 72 -300 230/04 RMK AO2
14837KMSN MSN20020105141009601/05/02 14:10:31  5-MIN KMSN 052010Z VRB03KT 7SM SCT100 02/M02 A2984 940 72 -300 VRB/03 RMK AO2
14837KMSN MSN20020105141509601/05/02 14:15:31  5-MIN KMSN 052015Z VRB04KT 7SM SCT100 02/M02 A2984 940 72 -300 VRB/04 RMK AO2
14837KMSN MSN20020105142009601/05/02 14:20:31  5-MIN KMSN 052020Z 21005KT 7SM SCT100 02/M02 A2984 940 72 -300 210/05 RMK AO2
14837KMSN MSN20020105142509601/05/02 14:25:31  5-MIN KMSN 052025Z VRB04KT 7SM SCT100 02/M02 A2984 940 72 -300 VRB/04 RMK AO2
14837KMSN MSN20020105143009601/05/02 14:30:31  5-MIN KMSN 052030Z 23005KT 7SM FEW100 02/M02 A2984 940 72 -300 230/05 RMK AO2
14837KMSN MSN20020105143509601/05/02 14:35:31  5-MIN KMSN 052035Z 23005KT 7SM FEW100 02/M02 A2984 940 72 -300 230/05 RMK AO2
14837KMSN MSN20020105144009601/05/02 14:40:31  5-MIN KMSN 052040Z 23005KT 7SM FEW100 02/M02 A2984 940 72 -300 230/05 RMK AO2
14837KMSN MSN20020105144509301/05/02 14:45:31  5-MIN KMSN 052045Z 22005KT 7SM CLR 02/M02 A2984 940 72 -300 220/05 RMK AO2
14837KMSN MSN20020105145011901/05/02 14:50:31  5-MIN KMSN 052050Z 22003KT 8SM FEW120 02/M02 A2984 940 72 -300 220/03 RMK AO2 SLP114 T00221022 58009
14837KMSN MSN20020105145509301/05/02 14:55:31  5-MIN KMSN 052055Z 22005KT 7SM CLR 02/M02 A2984 940 72 -300 220/05 RMK AO2
14837KMSN MSN20020105150009301/05/02 15:00:31  5-MIN KMSN 052100Z 21004KT 7SM CLR 02/M02 A2984 940 72 -300 210/04 RMK AO2
14837KMSN MSN20020105150509301/05/02 15:05:31  5-MIN KMSN 052105Z 22005KT 7SM CLR 02/M02 A2984 940 72 -300 220/05 RMK AO2
14837KMSN MSN20020105151009301/05/02 15:10:31  5-MIN KMSN 052110Z 22005KT 7SM CLR 02/M02 A2984 940 72 -300 220/05 RMK AO2
14837KMSN MSN20020105151509301/05/02 15:15:31  5-MIN KMSN 052115Z 22005KT 7SM CLR 02/M02 A2984 940 72 -300 210/05 RMK AO2
14837KMSN MSN20020105152009301/05/02 15:20:31  5-MIN KMSN 052120Z 21004KT 7SM CLR 02/M02 A2984 940 72 -300 210/04 RMK AO2
14837KMSN MSN20020105152509301/05/02 15:25:31  5-MIN KMSN 052125Z 21006KT 7SM CLR 02/M02 A2984 940 72 -300 210/06 RMK AO2
14837KMSN MSN20020105153009301/05/02 15:30:31  5-MIN KMSN 052130Z 21005KT 7SM CLR 02/M02 A2984 940 72 -300 210/05 RMK AO2
14837KMSN MSN20020105153509301/05/02 15:35:31  5-MIN KMSN 052135Z 22004KT 7SM CLR 02/M02 A2984 940 72 -300 220/04 RMK AO2
14837KMSN MSN20020105154009301/05/02 15:40:31  5-MIN KMSN 052140Z 22004KT 7SM CLR 02/M02 A2984 940 72 -300 220/04 RMK AO2
14837KMSN MSN20020105154509601/05/02 15:45:31  5-MIN KMSN 052145Z 24004KT 7SM FEW110 02/M02 A2984 940 72 -300 230/04 RMK AO2
14837KMSN MSN20020105155011301/05/02 15:50:31  5-MIN KMSN 052150Z 23005KT 8SM SCT110 02/M02 A2984 940 72 -300 230/05 RMK AO2 SLP113 T00221022
14837KMSN MSN20020105155509601/05/02 15:55:31  5-MIN KMSN 052155Z 22004KT 7SM SCT110 02/M02 A2984 940 72 -300 220/04 RMK AO2
14837KMSN MSN20020105160009601/05/02 16:00:31  5-MIN KMSN 052200Z 23005KT 7SM SCT110 02/M02 A2984 940 72 -300 230/05 RMK AO2
14837KMSN MSN20020106120011001/06/02 12:00:31  5-MIN KMSN 061800Z 35011G18KT 10SM BKN033 BKN045 00/M07 A2991 870 58 -700 350/11G18 RMK AO2
14837KMSN MSN20020106120511001/06/02 12:05:31  5-MIN KMSN 061805Z 33011G16KT 10SM BKN035 OVC045 00/M07 A2991 870 58 -700 330/11G16 RMK AO2
14837KMSN MSN20020106121011001/06/02 12:10:31  5-MIN KMSN 061810Z 35012G18KT 10SM BKN035 OVC045 00/M08 A2991 880 56 -700 350/12G18 RMK AO2
14837KMSN MSN20020106121511101/06/02 12:15:31  5-MIN KMSN 061815Z 36015G20KT 10SM BKN035 OVC045 M01/M08 A2991 870 58 -700 360/15G20 RMK AO2
14837KMSN MSN20020106122010301/06/02 12:20:31  5-MIN KMSN 061820Z 01015G20KT 10SM BKN035 00/M07 A2991 870 58 -700 010/15G20 RMK AO2
14837KMSN MSN20020106122509801/06/02 12:25:31  5-MIN KMSN 061825Z 34013KT 10SM BKN035 M01/M08 A2991 870 58 -700 340/13 RMK AO2
14837KMSN MSN20020106123009801/06/02 12:30:31  5-MIN KMSN 061830Z 35011KT 10SM BKN035 M01/M08 A2991 870 58 -700 350/11 RMK AO2
14837KMSN MSN20020106123510401/06/02 12:35:31  5-MIN KMSN 061835Z 35011G17KT 10SM BKN035 M01/M08 A2991 870 58 -700 350/11G17 RMK AO2
14837KMSN MSN20020106124010401/06/02 12:40:31  5-MIN KMSN 061840Z 35014G20KT 10SM BKN035 M01/M08 A2992 870 58 -700 350/14G20 RMK AO2
14837KMSN MSN20020106124510401/06/02 12:45:31  5-MIN KMSN 061845Z 34012G20KT 10SM BKN035 M01/M08 A2992 870 60 -800 340/12G20 RMK AO2
14837KMSN MSN20020106125012101/06/02 12:50:31  5-MIN KMSN 061850Z 35011G18KT 10SM BKN035 M01/M08 A2992 860 58 -700 350/11G18 RMK AO2 SLP143 T10061078
14837KMSN MSN20020106125510401/06/02 12:55:31  5-MIN KMSN 061855Z 35012G17KT 10SM BKN035 M01/M08 A2992 860 60 -800 350/12G17 RMK AO2
14837KMSN MSN20020106130010401/06/02 13:00:31  5-MIN KMSN 061900Z 33010G17KT 10SM BKN035 M01/M08 A2992 860 60 -800 330/10G17 RMK AO2
14837KMSN MSN20020106130509801/06/02 13:05:31  5-MIN KMSN 061905Z 34010KT 10SM BKN035 M01/M08 A2992 860 60 -800 340/10 RMK AO2
14837KMSN MSN20020106131009801/06/02 13:10:31  5-MIN KMSN 061910Z 33011KT 10SM BKN035 M01/M08 A2992 860 60 -800 330/11 RMK AO2
14837KMSN MSN20020106131510401/06/02 13:15:31  5-MIN KMSN 061915Z 33009G17KT 10SM BKN035 M01/M08 A2993 860 60 -800 330/09G17 RMK AO2
14837KMSN MSN20020106132010401/06/02 13:20:31  5-MIN KMSN 061920Z 33009G16KT 10SM BKN031 M01/M08 A2993 860 58 -800 320/09G16 RMK AO2
14837KMSN MSN20020106132509801/06/02 13:25:31  5-MIN KMSN 061925Z 34010KT 10SM BKN031 M01/M08 A2993 860 58 -800 330/10 RMK AO2
14837KMSN MSN20020106133010401/06/02 13:30:31  5-MIN KMSN 061930Z 34010G16KT 10SM BKN033 M01/M08 A2993 860 58 -800 330/10G16 RMK AO2
14837KMSN MSN20020106133510401/06/02 13:35:31  5-MIN KMSN 061935Z 34011G16KT 10SM BKN033 M01/M08 A2993 860 56 -700 330/11G16 RMK AO2
14837KMSN MSN20020106134010401/06/02 13:40:31  5-MIN KMSN 061940Z 34011G16KT 10SM BKN033 M01/M08 A2993 850 56 -800 340/11G16 RMK AO2
14837KMSN MSN20020106134510401/06/02 13:45:31  5-MIN KMSN 061945Z 35010G16KT 10SM BKN033 M01/M08 A2993 850 58 -800 350/10G16 RMK AO2
14837KMSN MSN20020106135012101/06/02 13:50:31  5-MIN KMSN 061950Z 33013G17KT 10SM BKN035 M01/M09 A2994 850 55 -800 330/13G17 RMK AO2 SLP147 T10111089
14837KMSN MSN20020106135510401/06/02 13:55:31  5-MIN KMSN 061955Z 36011G17KT 10SM BKN035 M01/M08 A2994 850 58 -800 350/11G17 RMK AO2
14837KMSN MSN20020106140009801/06/02 14:00:31  5-MIN KMSN 062000Z 36016KT 10SM OVC035 M01/M08 A2994 850 58 -800 360/16 RMK AO2
14837KMSN MSN20020106140510401/06/02 14:05:31  5-MIN KMSN 062005Z 35011G18KT 10SM OVC037 M01/M09 A2994 850 55 -800 350/11G18 RMK AO2
14837KMSN MSN20020106141010401/06/02 14:10:31  5-MIN KMSN 062010Z 35009G18KT 10SM OVC037 M01/M09 A2994 840 55 -800 340/09G18 RMK AO2
14837KMSN MSN20020106141510401/06/02 14:15:31  5-MIN KMSN 062015Z 35010G16KT 10SM OVC037 M01/M09 A2994 840 55 -800 340/10G16 RMK AO2
14837KMSN MSN20020106142010401/06/02 14:20:31  5-MIN KMSN 062020Z 34009G16KT 10SM OVC037 M01/M09 A2994 840 55 -800 340/09G16 RMK AO2
14837KMSN MSN20020106142509801/06/02 14:25:31  5-MIN KMSN 062025Z 33012KT 10SM OVC037 M01/M09 A2995 840 53 -800 330/12 RMK AO2
14837KMSN MSN20020106143009801/06/02 14:30:31  5-MIN KMSN 062030Z 35008KT 10SM OVC037 M01/M09 A2995 840 53 -800 340/08 RMK AO2
14837KMSN MSN20020106143510401/06/02 14:35:31  5-MIN KMSN 062035Z 33011G19KT 10SM BKN037 M01/M09 A2995 840 55 -800 330/11G19 RMK AO2
14837KMSN MSN20020106144010401/06/02 14:40:31  5-MIN KMSN 062040Z 35010G19KT 10SM BKN037 M01/M09 A2995 840 53 -800 340/10G19 RMK AO2
14837KMSN MSN20020106144509801/06/02 14:45:31  5-MIN KMSN 062045Z 34009KT 10SM BKN037 M01/M09 A2995 840 51 -800 340/09 RMK AO2
14837KMSN MSN20020106145012101/06/02 14:50:31  5-MIN KMSN 062050Z 33011KT 10SM BKN037 M01/M10 A2996 830 51 -800 330/11 RMK AO2 SLP154 T10111100 51008
14837KMSN MSN20020106145509801/06/02 14:55:31  5-MIN KMSN 062055Z 33010KT 10SM BKN037 M01/M09 A2996 830 51 -800 330/10 RMK AO2
14837KMSN MSN20020106150009801/06/02 15:00:31  5-MIN KMSN 062100Z 34010KT 10SM BKN037 M01/M10 A2996 830 51 -900 340/10 RMK AO2
14837KMSN MSN20020106150512001/06/02 15:05:31  5-MIN KMSN 062105Z 34012G18KT 300V360 10SM OVC037 M01/M09 A2996 830 53 -900 340/12G18 300V360 RMK AO2
14837KMSN MSN20020106151010401/06/02 15:10:31  5-MIN KMSN 062110Z 35011G18KT 10SM OVC037 M01/M09 A2997 820 53 -900 350/11G18 RMK AO2
14837KMSN MSN20020106151510401/06/02 15:15:31  5-MIN KMSN 062115Z 35013G19KT 10SM BKN037 M01/M09 A2997 820 53 -900 350/13G19 RMK AO2
14837KMSN MSN20020106152010401/06/02 15:20:31  5-MIN KMSN 062120Z 35010G19KT 10SM BKN037 M02/M10 A2997 820 53 -900 350/10G19 RMK AO2
14837KMSN MSN20020106152509801/06/02 15:25:31  5-MIN KMSN 062125Z 35010KT 10SM BKN037 M02/M10 A2997 820 53 -900 350/10 RMK AO2
14837KMSN MSN20020106153010501/06/02 15:30:31  5-MIN KMSN 062130Z 35011G15KT 10SM BKN037 M02/M10 A2997 820 55 -1000 350/11G15 RMK AO2
14837KMSN MSN20020106153509801/06/02 15:35:31  5-MIN KMSN 062135Z 34009KT 10SM BKN037 M02/M10 A2997 820 53 -900 340/09 RMK AO2
14837KMSN MSN20020106154009801/06/02 15:40:31  5-MIN KMSN 062140Z 35012KT 10SM BKN037 M02/M09 A2997 810 55 -900 350/12 RMK AO2
14837KMSN MSN20020106154510401/06/02 15:45:31  5-MIN KMSN 062145Z 35011G16KT 10SM BKN037 M01/M09 A2998 810 53 -900 350/11G16 RMK AO2
14837KMSN MSN20020106155011501/06/02 15:50:31  5-MIN KMSN 062150Z 35007KT 10SM BKN037 M02/M09 A2998 810 55 -900 350/07 RMK AO2 SLP164 T10171094
14837KMSN MSN20020106155509901/06/02 15:55:31  5-MIN KMSN 062155Z 34010KT 10SM BKN037 M02/M09 A2998 810 58 -1000 340/10 RMK AO2
14837KMSN MSN20020106160009901/06/02 16:00:31  5-MIN KMSN 062200Z 34008KT 10SM BKN037 M02/M09 A2999 800 58 -1000 340/08 RMK AO2
14837KMSN MSN20020106160509901/06/02 16:05:31  5-MIN KMSN 062205Z 35008KT 10SM BKN037 M02/M09 A2999 800 58 -1000 350/08 RMK AO2
14837KMSN MSN20020106161009901/06/02 16:10:31  5-MIN KMSN 062210Z 33008KT 10SM BKN037 M02/M09 A2999 800 58 -1000 330/08 RMK AO2
14837KMSN MSN20020106161509901/06/02 16:15:31  5-MIN KMSN 062215Z 34007KT 10SM OVC037 M02/M09 A2999 800 58 -1000 340/07 RMK AO2
14837KMSN MSN20020106162009901/06/02 16:20:31  5-MIN KMSN 062220Z 34008KT 10SM OVC037 M02/M09 A3000 790 58 -1000 340/08 RMK AO2
14837KMSN MSN20020106162509901/06/02 16:25:31  5-MIN KMSN 062225Z 35008KT 10SM OVC037 M02/M09 A3000 790 58 -1000 350/08 RMK AO2
14837KMSN MSN20020106163009901/06/02 16:30:31  5-MIN KMSN 062230Z 34007KT 10SM OVC037 M02/M09 A3000 790 58 -1000 340/07 RMK AO2
14837KMSN MSN20020106163509901/06/02 16:35:31  5-MIN KMSN 062235Z 34007KT 10SM OVC037 M03/M09 A3000 790 60 -1100 340/07 RMK AO2
14837KMSN MSN20020106164009901/06/02 16:40:31  5-MIN KMSN 062240Z 34007KT 10SM OVC037 M03/M09 A3001 790 60 -1100 340/07 RMK AO2
14837KMSN MSN20020106164509901/06/02 16:45:31  5-MIN KMSN 062245Z 34007KT 10SM OVC037 M03/M09 A3001 780 60 -1100 340/07 RMK AO2
14837KMSN MSN20020106165011601/06/02 16:50:31  5-MIN KMSN 062250Z 34008KT 10SM BKN037 M03/M09 A3001 780 60 -1100 340/08 RMK AO2 SLP174 T10281094
14837KMSN MSN20020106165509901/06/02 16:55:31  5-MIN KMSN 062255Z 34007KT 10SM BKN037 M03/M09 A3001 780 63 -1100 340/07 RMK AO2
14837KMSN MSN20020106170009901/06/02 17:00:31  5-MIN KMSN 062300Z 34007KT 10SM BKN037 M03/M09 A3002 780 60 -1100 340/07 RMK AO2
14837KMSN MSN20020106170509901/06/02 17:05:31  5-MIN KMSN 062305Z 34006KT 10SM BKN037 M03/M09 A3002 770 60 -1100 340/06 RMK AO2
14837KMSN MSN20020106171009901/06/02 17:10:31  5-MIN KMSN 062310Z 34009KT 10SM BKN037 M03/M09 A3002 770 60 -1100 340/09 RMK AO2
14837KMSN MSN20020106171509901/06/02 17:15:31  5-MIN KMSN 062315Z 35007KT 10SM BKN037 M03/M09 A3003 770 63 -1200 350/07 RMK AO2
14837KMSN MSN20020106172009901/06/02 17:20:31  5-MIN KMSN 062320Z 35009KT 10SM BKN037 M03/M09 A3003 770 63 -1200 350/09 RMK AO2
14837KMSN MSN20020106172509901/06/02 17:25:31  5-MIN KMSN 062325Z 34009KT 10SM BKN039 M04/M10 A3003 760 63 -1300 340/09 RMK AO2
14837KMSN MSN20020106173009901/06/02 17:30:31  5-MIN KMSN 062330Z 34006KT 10SM BKN039 M04/M10 A3003 760 63 -1300 340/06 RMK AO2
14837KMSN MSN20020106173509901/06/02 17:35:31  5-MIN KMSN 062335Z 34007KT 10SM BKN039 M04/M10 A3003 760 63 -1300 340/07 RMK AO2
14837KMSN MSN20020106174009901/06/02 17:40:31  5-MIN KMSN 062340Z 34008KT 10SM BKN039 M04/M10 A3004 760 65 -1400 340/08 RMK AO2
14837KMSN MSN20020106174509901/06/02 17:45:31  5-MIN KMSN 062345Z 34007KT 10SM BKN039 M04/M10 A3004 750 65 -1400 330/07 RMK AO2
14837KMSN MSN20020106175013401/06/02 17:50:31  5-MIN KMSN 062350Z 34006KT 10SM SCT039 M04/M10 A3004 750 65 -1400 340/06 RMK AO2 SLP185 T10441100 10006 21044 53015
14837KMSN MSN20020106175509901/06/02 17:55:31  5-MIN KMSN 062355Z 34007KT 10SM SCT039 M04/M10 A3004 750 65 -1400 340/07 RMK AO2
14837KMSN MSN20020106180009901/06/02 18:00:31  5-MIN KMSN 070000Z 34008KT 10SM SCT039 M04/M10 A3004 750 65 -1400 330/08 RMK AO2
14837KMSN MSN20020106180509901/06/02 18:05:31  5-MIN KMSN 070005Z 33006KT 10SM FEW039 M05/M11 A3005 750 65 -1400 330/06 RMK AO2
14837KMSN MSN20020106181009601/06/02 18:10:31  5-MIN KMSN 070010Z 33008KT 10SM CLR M05/M11 A3005 740 65 -1500 330/08 RMK AO2
14837KMSN MSN20020106181509601/06/02 18:15:31  5-MIN KMSN 070015Z 33009KT 10SM CLR M05/M11 A3005 740 65 -1500 330/09 RMK AO2
14837KMSN MSN20020106182009601/06/02 18:20:31  5-MIN KMSN 070020Z 33007KT 10SM CLR M05/M11 A3006 740 65 -1500 330/07 RMK AO2
14837KMSN MSN20020106182509601/06/02 18:25:31  5-MIN KMSN 070025Z 33007KT 10SM CLR M05/M11 A3006 740 65 -1500 320/07 RMK AO2
14837KMSN MSN20020106183009601/06/02 18:30:31  5-MIN KMSN 070030Z 33006KT 10SM CLR M06/M11 A3006 730 68 -1500 330/06 RMK AO2
14837KMSN MSN20020106183509601/06/02 18:35:31  5-MIN KMSN 070035Z 32010KT 10SM CLR M06/M11 A3006 730 68 -1500 320/10 RMK AO2
14837KMSN MSN20020106184009601/06/02 18:40:31  5-MIN KMSN 070040Z 32009KT 10SM CLR M06/M11 A3007 730 65 -1500 320/09 RMK AO2
14837KMSN MSN20020106184509601/06/02 18:45:31  5-MIN KMSN 070045Z 32008KT 10SM CLR M06/M11 A3007 730 65 -1500 320/08 RMK AO2
14837KMSN MSN20020106185011301/06/02 18:50:31  5-MIN KMSN 070050Z 32006KT 10SM CLR M06/M11 A3007 730 65 -1500 320/06 RMK AO2 SLP195 T10561111
14837KMSN MSN20020106185509601/06/02 18:55:31  5-MIN KMSN 070055Z 32008KT 10SM CLR M06/M11 A3007 720 68 -1600 320/08 RMK AO2
14837KMSN MSN20020106190009601/06/02 19:00:31  5-MIN KMSN 070100Z 33009KT 10SM CLR M06/M11 A3008 720 65 -1600 330/09 RMK AO2
14837KMSN MSN20020106190509601/06/02 19:05:31  5-MIN KMSN 070105Z 33009KT 10SM CLR M06/M11 A3007 720 65 -1600 330/09 RMK AO2
14837KMSN MSN20020106191009601/06/02 19:10:31  5-MIN KMSN 070110Z 33007KT 10SM CLR M06/M11 A3007 720 65 -1500 330/07 RMK AO2
14837KMSN MSN20020106191509601/06/02 19:15:31  5-MIN KMSN 070115Z 33009KT 10SM CLR M06/M11 A3007 720 68 -1600 330/09 RMK AO2
14837KMSN MSN20020106192009601/06/02 19:20:31  5-MIN KMSN 070120Z 33009KT 10SM CLR M06/M12 A3008 720 65 -1600 330/09 RMK AO2
14837KMSN MSN20020106192509601/06/02 19:25:31  5-MIN KMSN 070125Z 33007KT 10SM CLR M06/M12 A3008 720 65 -1600 330/07 RMK AO2
14837KMSN MSN20020106193009601/06/02 19:30:31  5-MIN KMSN 070130Z 33009KT 10SM CLR M06/M12 A3008 720 65 -1600 330/09 RMK AO2
14837KMSN MSN20020106193509601/06/02 19:35:31  5-MIN KMSN 070135Z 33010KT 10SM CLR M06/M12 A3008 720 65 -1600 330/10 RMK AO2
14837KMSN MSN20020106194009601/06/02 19:40:31  5-MIN KMSN 070140Z 33008KT 10SM CLR M06/M12 A3008 710 65 -1600 330/08 RMK AO2
14837KMSN MSN20020106194509601/06/02 19:45:31  5-MIN KMSN 070145Z 32008KT 10SM CLR M06/M12 A3009 710 65 -1600 320/08 RMK AO2
14837KMSN MSN20020106195011301/06/02 19:50:31  5-MIN KMSN 070150Z 33009KT 10SM CLR M06/M12 A3009 710 65 -1600 320/09 RMK AO2 SLP201 T10611117
14837KMSN MSN20020106195509601/06/02 19:55:31  5-MIN KMSN 070155Z 33009KT 10SM CLR M06/M12 A3009 710 62 -1600 330/09 RMK AO2
14837KMSN MSN20020106200009601/06/02 20:00:31  5-MIN KMSN 070200Z 33008KT 10SM CLR M06/M12 A3009 710 65 -1600 330/08 RMK AO2
14837KMSN MSN20020106200509601/06/02 20:05:31  5-MIN KMSN 070205Z 33008KT 10SM CLR M06/M12 A3009 710 65 -1600 330/08 RMK AO2
14837KMSN MSN20020106201009601/06/02 20:10:31  5-MIN KMSN 070210Z 33009KT 10SM CLR M06/M12 A3009 700 65 -1600 330/09 RMK AO2
14837KMSN MSN20020106201509601/06/02 20:15:31  5-MIN KMSN 070215Z 33009KT 10SM CLR M06/M12 A3009 700 65 -1600 330/09 RMK AO2
14837KMSN MSN20020106202009601/06/02 20:20:31  5-MIN KMSN 070220Z 33008KT 10SM CLR M07/M12 A3009 700 68 -1700 320/08 RMK AO2
14837KMSN MSN20020106202509601/06/02 20:25:31  5-MIN KMSN 070225Z 33008KT 10SM CLR M07/M12 A3009 700 68 -1700 330/08 RMK AO2
14837KMSN MSN20020106203009601/06/02 20:30:31  5-MIN KMSN 070230Z 33009KT 10SM CLR M07/M12 A3010 700 68 -1700 330/09 RMK AO2
14837KMSN MSN20020106203509601/06/02 20:35:31  5-MIN KMSN 070235Z 33007KT 10SM CLR M07/M12 A3010 700 65 -1700 330/07 RMK AO2
14837KMSN MSN20020106204009601/06/02 20:40:31  5-MIN KMSN 070240Z 33007KT 10SM CLR M07/M12 A3010 700 65 -1700 320/07 RMK AO2
14837KMSN MSN20020106204509601/06/02 20:45:31  5-MIN KMSN 070245Z 33007KT 10SM CLR M07/M12 A3010 700 68 -1800 330/07 RMK AO2
14837KMSN MSN20020106205011901/06/02 20:50:31  5-MIN KMSN 070250Z 34009KT 10SM CLR M07/M12 A3010 700 65 -1700 340/09 RMK AO2 SLP205 T10671122 53028
14837KMSN MSN20020106205509601/06/02 20:55:31  5-MIN KMSN 070255Z 34009KT 10SM CLR M07/M12 A3010 700 68 -1800 330/09 RMK AO2
14837KMSN MSN20020106210009601/06/02 21:00:31  5-MIN KMSN 070300Z 33008KT 10SM CLR M07/M12 A3010 700 68 -1800 330/08 RMK AO2
14837KMSN MSN20020106210509601/06/02 21:05:31  5-MIN KMSN 070305Z 33008KT 10SM CLR M07/M12 A3010 700 68 -1800 330/08 RMK AO2
14837KMSN MSN20020106211009601/06/02 21:10:31  5-MIN KMSN 070310Z 34008KT 10SM CLR M07/M12 A3010 700 68 -1800 340/08 RMK AO2
14837KMSN MSN20020106211509601/06/02 21:15:31  5-MIN KMSN 070315Z 33008KT 10SM CLR M07/M12 A3010 690 68 -1800 330/08 RMK AO2
14837KMSN MSN20020106212009601/06/02 21:20:31  5-MIN KMSN 070320Z 33006KT 10SM CLR M07/M12 A3010 690 68 -1800 330/06 RMK AO2
14837KMSN MSN20020106212509601/06/02 21:25:31  5-MIN KMSN 070325Z 33005KT 10SM CLR M08/M12 A3010 690 71 -1900 320/05 RMK AO2
14837KMSN MSN20020106213009601/06/02 21:30:31  5-MIN KMSN 070330Z 33007KT 10SM CLR M08/M12 A3011 690 71 -1900 330/07 RMK AO2
14837KMSN MSN20020106213509601/06/02 21:35:31  5-MIN KMSN 070335Z 33008KT 10SM CLR M08/M12 A3011 690 71 -1900 330/08 RMK AO2
14837KMSN MSN20020106214009601/06/02 21:40:31  5-MIN KMSN 070340Z 33007KT 10SM CLR M08/M12 A3011 690 71 -1900 330/07 RMK AO2
14837KMSN MSN20020106214509601/06/02 21:45:31  5-MIN KMSN 070345Z 33008KT 10SM CLR M08/M12 A3011 690 71 -1900 330/08 RMK AO2
14837KMSN MSN20020106215011301/06/02 21:50:31  5-MIN KMSN 070350Z 34010KT 10SM CLR M08/M12 A3011 690 71 -1900 330/10 RMK AO2 SLP210 T10781122
14837KMSN MSN20020106215509601/06/02 21:55:31  5-MIN KMSN 070355Z 34008KT 10SM CLR M08/M12 A3011 690 71 -1900 330/08 RMK AO2
14837KMSN MSN20020106220009601/06/02 22:00:31  5-MIN KMSN 070400Z 33008KT 10SM CLR M08/M12 A3011 690 71 -1900 330/08 RMK AO2
14837KMSN MSN20020106220509601/06/02 22:05:31  5-MIN KMSN 070405Z 33008KT 10SM CLR M08/M12 A3011 690 71 -1900 330/08 RMK AO2
14837KMSN MSN20020106221009601/06/02 22:10:31  5-MIN KMSN 070410Z 34007KT 10SM CLR M08/M13 A3012 680 67 -1900 330/07 RMK AO2
14837KMSN MSN20020106221509601/06/02 22:15:31  5-MIN KMSN 070415Z 33008KT 10SM CLR M08/M13 A3012 680 67 -1900 330/08 RMK AO2
14837KMSN MSN20020106222009601/06/02 22:20:31  5-MIN KMSN 070420Z 33008KT 10SM CLR M08/M13 A3012 680 67 -1900 330/08 RMK AO2
14837KMSN MSN20020106222509601/06/02 22:25:31  5-MIN KMSN 070425Z 33007KT 10SM CLR M08/M13 A3012 680 70 -2000 330/07 RMK AO2
14837KMSN MSN20020106223009601/06/02 22:30:31  5-MIN KMSN 070430Z 33008KT 10SM CLR M08/M13 A3012 680 70 -2000 330/08 RMK AO2
14837KMSN MSN20020106223509601/06/02 22:35:31  5-MIN KMSN 070435Z 33008KT 10SM CLR M08/M13 A3012 680 70 -2000 330/08 RMK AO2
14837KMSN MSN20020106224009601/06/02 22:40:31  5-MIN KMSN 070440Z 33007KT 10SM CLR M08/M13 A3012 680 70 -2000 330/07 RMK AO2
14837KMSN MSN20020106224509601/06/02 22:45:31  5-MIN KMSN 070445Z 33008KT 10SM CLR M08/M13 A3012 680 70 -2000 330/08 RMK AO2
14837KMSN MSN20020106225011301/06/02 22:50:31  5-MIN KMSN 070450Z 33008KT 10SM CLR M08/M13 A3012 680 70 -2000 320/08 RMK AO2 SLP215 T10831128
14837KMSN MSN20020106225509601/06/02 22:55:31  5-MIN KMSN 070455Z 33007KT 10SM CLR M08/M13 A3012 680 70 -2000 330/07 RMK AO2
14837KMSN MSN20020106230009601/06/02 23:00:31  5-MIN KMSN 070500Z 33007KT 10SM CLR M08/M13 A3012 680 70 -2000 330/07 RMK AO2
14837KMSN MSN20020106230509601/06/02 23:05:31  5-MIN KMSN 070505Z 33009KT 10SM CLR M08/M13 A3012 680 70 -2000 330/09 RMK AO2
14837KMSN MSN20020106231009601/06/02 23:10:31  5-MIN KMSN 070510Z 33008KT 10SM CLR M08/M13 A3012 680 70 -2000 330/08 RMK AO2
14837KMSN MSN20020106231509601/06/02 23:15:31  5-MIN KMSN 070515Z 33007KT 10SM CLR M09/M13 A3012 680 74 -2000 330/07 RMK AO2
14837KMSN MSN20020106232009601/06/02 23:20:31  5-MIN KMSN 070520Z 33008KT 10SM CLR M09/M13 A3012 680 74 -2000 320/08 RMK AO2
14837KMSN MSN20020106232509601/06/02 23:25:31  5-MIN KMSN 070525Z 33007KT 10SM CLR M09/M13 A3012 680 74 -2000 330/07 RMK AO2
14837KMSN MSN20020106233009601/06/02 23:30:31  5-MIN KMSN 070530Z 33008KT 10SM CLR M09/M13 A3012 680 74 -2000 330/08 RMK AO2
14837KMSN MSN20020106233509601/06/02 23:35:31  5-MIN KMSN 070535Z 32006KT 10SM CLR M09/M13 A3012 680 70 -2000 320/06 RMK AO2
14837KMSN MSN20020106234009601/06/02 23:40:31  5-MIN KMSN 070540Z 32007KT 10SM CLR M09/M13 A3013 670 74 -2000 320/07 RMK AO2
14837KMSN MSN20020106234509601/06/02 23:45:31  5-MIN KMSN 070545Z 33008KT 10SM CLR M09/M13 A3013 670 70 -2000 330/08 RMK AO2
14837KMSN MSN20020106235014101/06/02 23:50:31  5-MIN KMSN 070550Z 32009KT 10SM CLR M09/M13 A3013 670 70 -2100 320/09 RMK AO2 SLP218 T10891133 11044 21089 400061089 51020
14837KMSN MSN20020106235509601/06/02 23:55:31  5-MIN KMSN 070555Z 32008KT 10SM CLR M09/M13 A3013 670 74 -2100 320/08 RMK AO2
14837KMSN MSN20020107095011301/07/02 09:50:31  5-MIN KMSN 071550Z VRB06KT 10SM CLR M09/M13 A3018 630 73 -2200 VRB/06 RMK AO2 SLP236 T10941133
14837KMSN MSN20020107095509601/07/02 09:55:31  5-MIN KMSN 071555Z 28006KT 10SM CLR M09/M13 A3018 630 70 -2100 280/06 RMK AO2
14837KMSN MSN20020107100009601/07/02 10:00:31  5-MIN KMSN 071600Z 29004KT 10SM CLR M09/M13 A3018 630 70 -2100 290/04 RMK AO2
14837KMSN MSN20020107100509601/07/02 10:05:31  5-MIN KMSN 071605Z 26005KT 10SM CLR M09/M13 A3017 630 73 -2200 260/05 RMK AO2
14837KMSN MSN20020107101009601/07/02 10:10:31  5-MIN KMSN 071610Z VRB05KT 10SM CLR M09/M13 A3017 640 70 -2100 VRB/05 RMK AO2
14837KMSN MSN20020107101509601/07/02 10:15:31  5-MIN KMSN 071615Z 28006KT 10SM CLR M09/M13 A3017 640 70 -2100 280/06 RMK AO2
14837KMSN MSN20020107102009601/07/02 10:20:31  5-MIN KMSN 071620Z VRB03KT 10SM CLR M08/M13 A3016 640 67 -2000 VRB/03 RMK AO2
14837KMSN MSN20020107102509601/07/02 10:25:31  5-MIN KMSN 071625Z 26005KT 10SM CLR M08/M13 A3016 640 67 -2000 250/05 RMK AO2
14837KMSN MSN20020107103009601/07/02 10:30:31  5-MIN KMSN 071630Z VRB03KT 10SM CLR M08/M13 A3015 650 67 -2000 VRB/03 RMK AO2
14837KMSN MSN20020107103509601/07/02 10:35:31  5-MIN KMSN 071635Z 22005KT 10SM CLR M08/M13 A3015 650 67 -2000 220/05 RMK AO2
14837KMSN MSN20020107104009601/07/02 10:40:31  5-MIN KMSN 071640Z VRB05KT 10SM CLR M08/M13 A3015 660 67 -2000 VRB/05 RMK AO2
14837KMSN MSN20020107104509601/07/02 10:45:31  5-MIN KMSN 071645Z 22004KT 10SM CLR M08/M13 A3014 660 67 -2000 220/04 RMK AO2
14837KMSN MSN20020107105011301/07/02 10:50:31  5-MIN KMSN 071650Z VRB05KT 10SM CLR M08/M13 A3014 660 67 -2000 VRB/05 RMK AO2 SLP222 T10831133
14837KMSN MSN20020107105509601/07/02 10:55:31  5-MIN KMSN 071655Z 25006KT 10SM CLR M08/M13 A3014 660 67 -2000 250/06 RMK AO2
14837KMSN MSN20020107110009601/07/02 11:00:31  5-MIN KMSN 071700Z 26005KT 10SM CLR M08/M13 A3013 670 67 -1900 260/05 RMK AO2
14837KMSN MSN20020107110509601/07/02 11:05:31  5-MIN KMSN 071705Z 22006KT 10SM CLR M08/M13 A3012 680 64 -1900 220/06 RMK AO2
14837KMSN MSN20020107111010301/07/02 11:10:31  5-MIN KMSN 071710Z 23006KT 10SM CLR M08/M13 A3011 690 64 -1900 230/06 RMK AO2 PRESFR
14837KMSN MSN20020107111509601/07/02 11:15:31  5-MIN KMSN 071715Z VRB05KT 10SM CLR M08/M13 A3011 690 64 -1900 VRB/05 RMK AO2
14837KMSN MSN20020107112009601/07/02 11:20:31  5-MIN KMSN 071720Z 21007KT 10SM CLR M07/M13 A3011 690 65 -1800 210/07 RMK AO2
14837KMSN MSN20020107112509601/07/02 11:25:31  5-MIN KMSN 071725Z 19005KT 10SM CLR M07/M13 A3011 690 62 -1800 190/05 RMK AO2
14837KMSN MSN20020107113009601/07/02 11:30:31  5-MIN KMSN 071730Z 23007KT 10SM CLR M07/M13 A3011 690 62 -1800 230/07 RMK AO2
14837KMSN MSN20020107113509601/07/02 11:35:31  5-MIN KMSN 071735Z 23006KT 10SM CLR M07/M13 A3011 690 62 -1800 230/06 RMK AO2
14837KMSN MSN20020107114009601/07/02 11:40:31  5-MIN KMSN 071740Z 24005KT 10SM CLR M07/M13 A3011 690 62 -1800 240/05 RMK AO2
14837KMSN MSN20020107114509601/07/02 11:45:31  5-MIN KMSN 071745Z VRB06KT 10SM CLR M07/M13 A3011 690 62 -1800 VRB/06 RMK AO2
14837KMSN MSN20020107115013101/07/02 11:50:31  5-MIN KMSN 071750Z VRB05KT 10SM CLR M07/M13 A3010 700 62 -1800 VRB/05 RMK AO2 SLP209 T10721133 11072 21133 53017
14837KMSN MSN20020107115509601/07/02 11:55:31  5-MIN KMSN 071755Z 25006KT 10SM CLR M07/M13 A3010 700 62 -1800 250/06 RMK AO2
14837KMSN MSN20020107120009601/07/02 12:00:31  5-MIN KMSN 071800Z 23006KT 10SM CLR M07/M13 A3010 700 62 -1800 220/06 RMK AO2
14837KMSN MSN20020107120509601/07/02 12:05:31  5-MIN KMSN 071805Z 25007KT 10SM CLR M07/M13 A3009 710 59 -1700 250/07 RMK AO2
14837KMSN MSN20020107121009601/07/02 12:10:31  5-MIN KMSN 071810Z 22008KT 10SM CLR M07/M13 A3008 710 59 -1700 220/08 RMK AO2
14837KMSN MSN20020107121509601/07/02 12:15:31  5-MIN KMSN 071815Z 22005KT 10SM CLR M07/M13 A3008 720 59 -1700 220/05 RMK AO2
14837KMSN MSN20020107122010301/07/02 12:20:31  5-MIN KMSN 071820Z 20006KT 10SM CLR M07/M13 A3007 720 62 -1700 200/06 RMK AO2 PRESFR
14837KMSN MSN20020107122509601/07/02 12:25:31  5-MIN KMSN 071825Z 22007KT 10SM CLR M06/M13 A3007 720 57 -1600 220/07 RMK AO2
14837KMSN MSN20020107123009601/07/02 12:30:31  5-MIN KMSN 071830Z 26005KT 10SM CLR M06/M13 A3008 710 59 -1600 260/05 RMK AO2
14837KMSN MSN20020107123509601/07/02 12:35:31  5-MIN KMSN 071835Z 24008KT 10SM CLR M06/M13 A3009 710 57 -1600 240/08 RMK AO2
14837KMSN MSN20020107124009601/07/02 12:40:31  5-MIN KMSN 071840Z 24007KT 10SM CLR M06/M13 A3008 720 59 -1600 240/07 RMK AO2
14837KMSN MSN20020107124509601/07/02 12:45:31  5-MIN KMSN 071845Z 28007KT 10SM CLR M06/M13 A3008 720 57 -1600 280/07 RMK AO2
14837KMSN MSN20020107125012901/07/02 12:50:31  5-MIN KMSN 071850Z 28007KT 260V330 10SM CLR M05/M13 A3007 720 52 -1500 280/07 260V330 RMK AO2 SLP199 T10501133
14837KMSN MSN20020107125509601/07/02 12:55:31  5-MIN KMSN 071855Z 28008KT 10SM CLR M05/M13 A3007 720 55 -1500 270/08 RMK AO2
14837KMSN MSN20020107130009601/07/02 13:00:31  5-MIN KMSN 071900Z VRB06KT 10SM CLR M05/M13 A3007 730 55 -1500 VRB/06 RMK AO2
14837KMSN MSN20020107130511201/07/02 13:05:31  5-MIN KMSN 071905Z 25007KT 210V290 10SM CLR M05/M13 A3006 730 55 -1500 250/07 210V290 RMK AO2
14837KMSN MSN20020107131010301/07/02 13:10:31  5-MIN KMSN 071910Z 29007KT 10SM CLR M05/M13 A3005 740 55 -1500 290/07 RMK AO2 PRESFR
14837KMSN MSN20020107131509601/07/02 13:15:31  5-MIN KMSN 071915Z 24007KT 10SM CLR M05/M13 A3005 740 55 -1500 240/07 RMK AO2
14837KMSN MSN20020107132009601/07/02 13:20:31  5-MIN KMSN 071920Z VRB06KT 10SM CLR M05/M13 A3005 740 55 -1500 VRB/06 RMK AO2
14837KMSN MSN20020107132511201/07/02 13:25:31  5-MIN KMSN 071925Z 22007KT 190V250 10SM CLR M04/M13 A3005 750 52 -1400 220/07 190V250 RMK AO2
14837KMSN MSN20020107133009601/07/02 13:30:31  5-MIN KMSN 071930Z 22009KT 10SM CLR M04/M13 A3004 760 52 -1400 220/09 RMK AO2
14837KMSN MSN20020107133510301/07/02 13:35:31  5-MIN KMSN 071935Z 22006KT 10SM CLR M05/M13 A3003 760 55 -1400 220/06 RMK AO2 PRESFR
14837KMSN MSN20020107134009601/07/02 13:40:31  5-MIN KMSN 071940Z 23007KT 10SM CLR M04/M13 A3003 760 52 -1400 230/07 RMK AO2
14837KMSN MSN20020107134511201/07/02 13:45:31  5-MIN KMSN 071945Z 23007KT 200V270 10SM CLR M04/M13 A3003 760 52 -1400 230/07 200V270 RMK AO2
14837KMSN MSN20020107135011301/07/02 13:50:31  5-MIN KMSN 071950Z 22006KT 10SM CLR M04/M13 A3002 770 52 -1300 220/06 RMK AO2 SLP182 T10441128
14837KMSN MSN20020107135509601/07/02 13:55:31  5-MIN KMSN 071955Z VRB06KT 10SM CLR M04/M13 A3002 770 52 -1300 VRB/06 RMK AO2
14837KMSN MSN20020107140009601/07/02 14:00:31  5-MIN KMSN 072000Z 21006KT 10SM CLR M04/M13 A3002 770 52 -1300 210/06 RMK AO2
14837KMSN MSN20020107140509601/07/02 14:05:31  5-MIN KMSN 072005Z 23008KT 10SM CLR M04/M13 A3002 780 52 -1300 230/08 RMK AO2
14837KMSN MSN20020107141009601/07/02 14:10:31  5-MIN KMSN 072010Z 21006KT 10SM CLR M04/M13 A3001 780 52 -1300 210/06 RMK AO2
14837KMSN MSN20020107141509601/07/02 14:15:31  5-MIN KMSN 072015Z VRB05KT 10SM CLR M04/M13 A3000 790 50 -1300 VRB/05 RMK AO2
14837KMSN MSN20020107142009601/07/02 14:20:31  5-MIN KMSN 072020Z 19007KT 10SM CLR M04/M12 A3000 790 52 -1300 190/07 RMK AO2
14837KMSN MSN20020107142511901/07/02 14:25:31  5-MIN KMSN 072025Z 19007KT 160V220 10SM CLR M04/M13 A2999 800 50 -1200 190/07 160V220 RMK AO2 PRESFR
14837KMSN MSN20020107143009601/07/02 14:30:31  5-MIN KMSN 072030Z 22005KT 10SM CLR M03/M12 A3001 790 50 -1200 220/05 RMK AO2
14837KMSN MSN20020107143509601/07/02 14:35:31  5-MIN KMSN 072035Z VRB05KT 10SM CLR M03/M13 A3000 790 48 -1200 VRB/05 RMK AO2
14837KMSN MSN20020107144009601/07/02 14:40:31  5-MIN KMSN 072040Z 19008KT 10SM CLR M03/M13 A3001 790 48 -1200 190/08 RMK AO2
14837KMSN MSN20020107144509601/07/02 14:45:31  5-MIN KMSN 072045Z VRB04KT 10SM CLR M03/M13 A3001 790 48 -1200 VRB/04 RMK AO2
14837KMSN MSN20020107145011901/07/02 14:50:31  5-MIN KMSN 072050Z 22006KT 10SM CLR M03/M13 A3000 790 46 -1100 220/06 RMK AO2 SLP174 T10281128 58023
14837KMSN MSN20020107145509601/07/02 14:55:31  5-MIN KMSN 072055Z 22006KT 10SM CLR M03/M13 A2999 800 48 -1200 220/06 RMK AO2
14837KMSN MSN20020107150009601/07/02 15:00:31  5-MIN KMSN 072100Z 19009KT 10SM CLR M03/M13 A2999 800 48 -1200 190/09 RMK AO2
14837KMSN MSN20020107150509601/07/02 15:05:31  5-MIN KMSN 072105Z 19006KT 10SM CLR M03/M13 A2998 810 48 -1200 190/06 RMK AO2
14837KMSN MSN20020107151009601/07/02 15:10:31  5-MIN KMSN 072110Z 21005KT 10SM CLR M03/M13 A3000 800 46 -1100 210/05 RMK AO2
14837KMSN MSN20020107151509601/07/02 15:15:31  5-MIN KMSN 072115Z VRB05KT 10SM CLR M03/M12 A3000 790 48 -1100 VRB/05 RMK AO2
14837KMSN MSN20020107152009601/07/02 15:20:31  5-MIN KMSN 072120Z 22007KT 10SM CLR M03/M12 A3000 790 50 -1200 220/07 RMK AO2
14837KMSN MSN20020107152510301/07/02 15:25:31  5-MIN KMSN 072125Z 23007KT 10SM CLR M03/M12 A3002 780 48 -1100 230/07 RMK AO2 PRESRR
14837KMSN MSN20020107153010301/07/02 15:30:31  5-MIN KMSN 072130Z VRB05KT 10SM CLR M03/M12 A3003 770 48 -1100 VRB/05 RMK AO2 PRESRR
14837KMSN MSN20020107153509601/07/02 15:35:31  5-MIN KMSN 072135Z VRB06KT 10SM CLR M03/M12 A3003 770 50 -1200 VRB/06 RMK AO2
14837KMSN MSN20020107154009601/07/02 15:40:31  5-MIN KMSN 072140Z VRB05KT 10SM CLR M03/M12 A3003 760 50 -1200 VRB/05 RMK AO2
14837KMSN MSN20020107154509601/07/02 15:45:31  5-MIN KMSN 072145Z 25006KT 10SM CLR M03/M12 A3003 770 50 -1200 240/06 RMK AO2
14837KMSN MSN20020107155011301/07/02 15:50:31  5-MIN KMSN 072150Z VRB06KT 10SM CLR M03/M12 A3002 770 50 -1200 VRB/06 RMK AO2 SLP181 T10331122
14837KMSN MSN20020107155509601/07/02 15:55:31  5-MIN KMSN 072155Z 22007KT 10SM CLR M03/M12 A3002 770 50 -1200 220/07 RMK AO2
14837KMSN MSN20020107160009601/07/02 16:00:31  5-MIN KMSN 072200Z 22006KT 10SM CLR M03/M12 A3002 770 53 -1200 220/06 RMK AO2
14837KMSN MSN20020107160509601/07/02 16:05:31  5-MIN KMSN 072205Z 22005KT 10SM CLR M03/M12 A3002 770 50 -1200 220/05 RMK AO2
14837KMSN MSN20020107161009601/07/02 16:10:31  5-MIN KMSN 072210Z 21006KT 10SM CLR M03/M12 A3002 770 50 -1200 210/06 RMK AO2
14837KMSN MSN20020107161509601/07/02 16:15:31  5-MIN KMSN 072215Z 20007KT 10SM CLR M03/M12 A3000 790 50 -1200 190/07 RMK AO2
14837KMSN MSN20020107162009601/07/02 16:20:31  5-MIN KMSN 072220Z 20007KT 10SM CLR M03/M12 A3000 790 50 -1200 200/07 RMK AO2
14837KMSN MSN20020107162509601/07/02 16:25:31  5-MIN KMSN 072225Z 22005KT 10SM CLR M03/M12 A3000 790 50 -1200 220/05 RMK AO2
14837KMSN MSN20020107163009601/07/02 16:30:31  5-MIN KMSN 072230Z VRB05KT 10SM CLR M03/M12 A3001 780 50 -1200 VRB/05 RMK AO2
14837KMSN MSN20020107163509601/07/02 16:35:31  5-MIN KMSN 072235Z 20004KT 10SM CLR M04/M12 A3001 790 52 -1300 200/04 RMK AO2
14837KMSN MSN20020107164009601/07/02 16:40:31  5-MIN KMSN 072240Z 22005KT 10SM CLR M04/M12 A3001 780 52 -1300 220/05 RMK AO2
14837KMSN MSN20020107164509601/07/02 16:45:31  5-MIN KMSN 072245Z 21005KT 10SM CLR M04/M12 A3001 780 52 -1300 210/05 RMK AO2
14837KMSN MSN20020107165011301/07/02 16:50:31  5-MIN KMSN 072250Z 21005KT 10SM CLR M04/M12 A3001 780 52 -1300 210/05 RMK AO2 SLP178 T10391122
14837KMSN MSN20020107165509601/07/02 16:55:31  5-MIN KMSN 072255Z 21005KT 10SM CLR M04/M12 A3001 780 52 -1300 210/05 RMK AO2
14837KMSN MSN20020107170009601/07/02 17:00:31  5-MIN KMSN 072300Z 21005KT 10SM CLR M04/M12 A3001 780 52 -1300 210/05 RMK AO2
14837KMSN MSN20020107170509601/07/02 17:05:31  5-MIN KMSN 072305Z 21005KT 10SM CLR M04/M12 A3001 780 52 -1300 210/05 RMK AO2
14837KMSN MSN20020107171009601/07/02 17:10:31  5-MIN KMSN 072310Z 22006KT 10SM CLR M04/M12 A3001 780 52 -1300 220/06 RMK AO2
14837KMSN MSN20020107171509601/07/02 17:15:31  5-MIN KMSN 072315Z 20005KT 10SM CLR M04/M12 A3000 790 55 -1300 200/05 RMK AO2
14837KMSN MSN20020107172009601/07/02 17:20:31  5-MIN KMSN 072320Z 20007KT 10SM CLR M04/M12 A3000 790 55 -1300 200/07 RMK AO2
14837KMSN MSN20020107172509601/07/02 17:25:31  5-MIN KMSN 072325Z 20007KT 10SM CLR M04/M12 A3000 790 55 -1300 200/07 RMK AO2
14837KMSN MSN20020107173009601/07/02 17:30:31  5-MIN KMSN 072330Z 21006KT 10SM CLR M04/M12 A2999 800 55 -1300 200/06 RMK AO2
14837KMSN MSN20020107173509901/07/02 17:35:31  5-MIN KMSN 072335Z 20007KT 10SM FEW110 M04/M12 A2999 800 55 -1300 200/07 RMK AO2
14837KMSN MSN20020107174009901/07/02 17:40:31  5-MIN KMSN 072340Z 20006KT 10SM FEW110 M04/M12 A2999 800 57 -1300 200/06 RMK AO2
14837KMSN MSN20020107174509901/07/02 17:45:31  5-MIN KMSN 072345Z 19009KT 10SM FEW100 M04/M12 A2998 810 57 -1300 190/09 RMK AO2
14837KMSN MSN20020107175014101/07/02 17:50:31  5-MIN KMSN 072350Z 19009KT 10SM SCT110 M04/M12 A2997 820 55 -1300 190/09 RMK AO2 PRESFR SLP165 T10441122 11028 21072 56034
14837KMSN MSN20020107175510601/07/02 17:55:31  5-MIN KMSN 072355Z 20009KT 10SM BKN110 M04/M12 A2996 820 55 -1300 190/09 RMK AO2 PRESFR
14837KMSN MSN20020107180010601/07/02 18:00:31  5-MIN KMSN 080000Z 19010KT 10SM SCT110 M04/M12 A2996 830 55 -1300 190/10 RMK AO2 PRESFR
14837KMSN MSN20020107180510601/07/02 18:05:31  5-MIN KMSN 080005Z 19010KT 10SM SCT110 M04/M12 A2995 840 55 -1300 190/10 RMK AO2 PRESFR
14837KMSN MSN20020107181009901/07/02 18:10:31  5-MIN KMSN 080010Z 19012KT 10SM SCT110 M04/M12 A2995 840 55 -1300 190/12 RMK AO2
14837KMSN MSN20020107181509901/07/02 18:15:31  5-MIN KMSN 080015Z 19009KT 10SM SCT110 M04/M12 A2996 830 55 -1300 190/09 RMK AO2
14837KMSN MSN20020107182009901/07/02 18:20:31  5-MIN KMSN 080020Z 20006KT 10SM FEW110 M05/M12 A2996 830 60 -1300 200/06 RMK AO2
14837KMSN MSN20020107182509901/07/02 18:25:31  5-MIN KMSN 080025Z 19008KT 10SM FEW080 M04/M12 A2995 840 55 -1300 190/08 RMK AO2
14837KMSN MSN20020107183009901/07/02 18:30:31  5-MIN KMSN 080030Z 19010KT 10SM SCT080 M04/M12 A2995 840 57 -1300 190/10 RMK AO2
14837KMSN MSN20020107183509901/07/02 18:35:31  5-MIN KMSN 080035Z 19010KT 10SM FEW080 M05/M12 A2995 840 60 -1300 190/10 RMK AO2
14837KMSN MSN20020107184009901/07/02 18:40:31  5-MIN KMSN 080040Z 20008KT 10SM FEW080 M04/M12 A2995 840 57 -1300 200/08 RMK AO2
14837KMSN MSN20020107184509901/07/02 18:45:31  5-MIN KMSN 080045Z 20008KT 10SM FEW080 M05/M12 A2995 840 57 -1300 200/08 RMK AO2
14837KMSN MSN20020107185011601/07/02 18:50:31  5-MIN KMSN 080050Z 21007KT 10SM FEW080 M05/M12 A2995 840 60 -1300 210/07 RMK AO2 SLP157 T10501117
14837KMSN MSN20020107185509901/07/02 18:55:31  5-MIN KMSN 080055Z 19007KT 10SM FEW080 M05/M12 A2995 840 60 -1300 190/07 RMK AO2
14837KMSN MSN20020107190009601/07/02 19:00:31  5-MIN KMSN 080100Z VRB04KT 10SM CLR M05/M12 A2995 830 60 -1300 VRB/04 RMK AO2
14837KMSN MSN20020107190509601/07/02 19:05:31  5-MIN KMSN 080105Z 21007KT 10SM CLR M05/M12 A2995 830 60 -1300 210/07 RMK AO2
14837KMSN MSN20020107191009601/07/02 19:10:31  5-MIN KMSN 080110Z 20006KT 10SM CLR M04/M12 A2995 830 57 -1300 200/06 RMK AO2
14837KMSN MSN20020107191509601/07/02 19:15:31  5-MIN KMSN 080115Z 20005KT 10SM CLR M05/M12 A2995 840 60 -1300 190/05 RMK AO2
14837KMSN MSN20020107192009601/07/02 19:20:31  5-MIN KMSN 080120Z 20006KT 10SM CLR M05/M12 A2995 840 60 -1300 200/06 RMK AO2
14837KMSN MSN20020107192509601/07/02 19:25:31  5-MIN KMSN 080125Z 19007KT 10SM CLR M05/M12 A2995 840 60 -1300 190/07 RMK AO2
14837KMSN MSN20020107193009601/07/02 19:30:31  5-MIN KMSN 080130Z 20006KT 10SM CLR M05/M12 A2995 840 60 -1300 200/06 RMK AO2
14837KMSN MSN20020107193509601/07/02 19:35:31  5-MIN KMSN 080135Z 20006KT 10SM CLR M05/M12 A2995 840 60 -1300 200/06 RMK AO2
14837KMSN MSN20020107194009601/07/02 19:40:31  5-MIN KMSN 080140Z 20007KT 10SM CLR M05/M12 A2995 840 60 -1300 200/07 RMK AO2
14837KMSN MSN20020107194509601/07/02 19:45:31  5-MIN KMSN 080145Z 21008KT 10SM CLR M05/M12 A2995 840 60 -1300 210/08 RMK AO2
14837KMSN MSN20020107195011301/07/02 19:50:31  5-MIN KMSN 080150Z 21009KT 10SM CLR M05/M12 A2994 840 60 -1300 210/09 RMK AO2 SLP156 T10501117
14837KMSN MSN20020107195511801/07/02 19:55:31  5-MIN KMSN 080155Z 21008G15KT 10SM -SN CLR M05/M12 A2994 850 60 -1300 210/08G15 RMK AO2 SNB54 P0000
14837KMSN MSN20020107200011301/07/02 20:00:31  5-MIN KMSN 080200Z 21010KT 9SM -SN CLR M05/M12 A2994 850 60 -1300 210/10 RMK AO2 SNB0154 P0000
14837KMSN MSN20020107200511801/07/02 20:05:31  5-MIN KMSN 080205Z 21010G16KT 9SM CLR M05/M12 A2994 850 60 -1300 210/10G16 RMK AO2 SNB0154E05 P0000
14837KMSN MSN20020107201011801/07/02 20:10:31  5-MIN KMSN 080210Z 21010G16KT 9SM CLR M05/M12 A2994 850 60 -1300 210/10G16 RMK AO2 SNB0154E05 P0000
14837KMSN MSN20020107201511901/07/02 20:15:31  5-MIN KMSN 080215Z 21009G16KT 10SM CLR M05/M12 A2994 850 60 -1300 210/09G16 RMK AO2 SNB0154E05 P0000
14837KMSN MSN20020107202011401/07/02 20:20:31  5-MIN KMSN 080220Z 21008KT 10SM -SN CLR M05/M12 A2993 850 60 -1300 210/08 RMK AO2 SNB0154 P0000
14837KMSN MSN20020107202511301/07/02 20:25:31  5-MIN KMSN 080225Z 22009KT 9SM -SN CLR M05/M12 A2993 850 60 -1300 220/09 RMK AO2 SNB0154 P0000
14837KMSN MSN20020107203009601/07/02 20:30:31  5-MIN KMSN 080230Z 22010KT 10SM CLR M05/M12 A2993 850 60 -1300 220/10 RMK AO2
14837KMSN MSN20020107203509601/07/02 20:35:31  5-MIN KMSN 080235Z 21008KT 10SM CLR M04/M12 A2993 850 55 -1200 210/08 RMK AO2
14837KMSN MSN20020107204009801/07/02 20:40:31  5-MIN KMSN 080240Z 23007KT 10SM CLR M04/M12 A2993 860 57 -1200 230/07 RMK AO2 $
14837KMSN MSN20020107204510401/07/02 20:45:31  5-MIN KMSN 080245Z 22011G16KT 10SM CLR M04/M12 A2993 860 55 -1200 220/11G16 RMK AO2 $
14837KMSN MSN20020107205012701/07/02 20:50:31  5-MIN KMSN 080250Z 21007G16KT 10SM CLR M04/M12 A2992 860 55 -1200 210/07G16 RMK AO2 SLP148 T10441122 58010 $
14837KMSN MSN20020107205509801/07/02 20:55:31  5-MIN KMSN 080255Z 22009KT 10SM CLR M04/M12 A2992 860 55 -1200 220/09 RMK AO2 $
14837KMSN MSN20020107210010401/07/02 21:00:31  5-MIN KMSN 080300Z 22008G14KT 10SM CLR M04/M12 A2992 860 55 -1200 220/08G14 RMK AO2 $
14837KMSN MSN20020107210509801/07/02 21:05:31  5-MIN KMSN 080305Z 22009KT 10SM CLR M04/M12 A2992 860 55 -1200 220/09 RMK AO2 $
14837KMSN MSN20020107211009801/07/02 21:10:31  5-MIN KMSN 080310Z 22008KT 10SM CLR M04/M12 A2992 860 55 -1200 220/08 RMK AO2 $
14837KMSN MSN20020107211512001/07/02 21:15:31  5-MIN KMSN 080315Z 22010G16KT 10SM -SN CLR M04/M12 A2992 870 55 -1200 220/10G16 RMK AO2 SNB15 P0000 $
14837KMSN MSN20020107212010401/07/02 21:20:31  5-MIN KMSN 080320Z 22010G16KT 10SM CLR M04/M12 A2991 870 55 -1200 220/10G16 RMK AO2 $
14837KMSN MSN20020107212509801/07/02 21:25:31  5-MIN KMSN 080325Z 23010KT 10SM CLR M04/M12 A2991 870 55 -1200 230/10 RMK AO2 $
14837KMSN MSN20020107213009801/07/02 21:30:31  5-MIN KMSN 080330Z 22012KT 10SM CLR M05/M12 A2991 870 57 -1300 220/12 RMK AO2 $
14837KMSN MSN20020107213509801/07/02 21:35:31  5-MIN KMSN 080335Z 22010KT 10SM CLR M04/M12 A2991 870 55 -1200 220/10 RMK AO2 $
14837KMSN MSN20020107214010401/07/02 21:40:31  5-MIN KMSN 080340Z 22012G18KT 10SM CLR M04/M12 A2991 880 57 -1200 220/12G18 RMK AO2 $
14837KMSN MSN20020107214510401/07/02 21:45:31  5-MIN KMSN 080345Z 22011G18KT 10SM CLR M05/M12 A2991 880 57 -1300 220/11G18 RMK AO2 $
14837KMSN MSN20020107215011501/07/02 21:50:31  5-MIN KMSN 080350Z 22010KT 10SM CLR M05/M12 A2991 870 60 -1300 220/10 RMK AO2 SLP144 T10501117 $
14837KMSN MSN20020107215509701/07/02 21:55:31  5-MIN KMSN 080355Z 22009KT 9SM CLR M05/M12 A2991 870 57 -1300 220/09 RMK AO2 $
14837KMSN MSN20020107220010301/07/02 22:00:31  5-MIN KMSN 080400Z 22008G15KT 9SM CLR M05/M12 A2991 870 60 -1300 220/08G15 RMK AO2 $
14837KMSN MSN20020107220510401/07/02 22:05:31  5-MIN KMSN 080405Z 21010G15KT 10SM CLR M05/M12 A2991 880 60 -1300 210/10G15 RMK AO2 $
14837KMSN MSN20020107221009801/07/02 22:10:31  5-MIN KMSN 080410Z 21010KT 10SM CLR M05/M12 A2990 880 60 -1300 210/10 RMK AO2 $
14837KMSN MSN20020107221509801/07/02 22:15:31  5-MIN KMSN 080415Z 21009KT 10SM CLR M05/M12 A2990 880 60 -1300 210/09 RMK AO2 $
14837KMSN MSN20020107222009801/07/02 22:20:31  5-MIN KMSN 080420Z 22009KT 10SM CLR M05/M12 A2990 880 60 -1300 220/09 RMK AO2 $
14837KMSN MSN20020107222509801/07/02 22:25:31  5-MIN KMSN 080425Z 21008KT 10SM CLR M05/M12 A2990 890 60 -1300 210/08 RMK AO2 $
14837KMSN MSN20020107223009801/07/02 22:30:31  5-MIN KMSN 080430Z 21008KT 10SM CLR M05/M12 A2989 890 60 -1300 210/08 RMK AO2 $
14837KMSN MSN20020107223509801/07/02 22:35:31  5-MIN KMSN 080435Z 21009KT 10SM CLR M05/M12 A2989 890 60 -1300 210/09 RMK AO2 $
14837KMSN MSN20020107224009801/07/02 22:40:31  5-MIN KMSN 080440Z 21010KT 10SM CLR M05/M12 A2989 900 60 -1300 210/10 RMK AO2 $
14837KMSN MSN20020107224509801/07/02 22:45:31  5-MIN KMSN 080445Z 21008KT 10SM CLR M05/M11 A2988 900 62 -1300 210/08 RMK AO2 $
14837KMSN MSN20020107225011501/07/02 22:50:31  5-MIN KMSN 080450Z 21010KT 10SM CLR M05/M12 A2988 910 60 -1300 210/10 RMK AO2 SLP131 T10501117 $
14837KMSN MSN20020107225509801/07/02 22:55:31  5-MIN KMSN 080455Z 21008KT 10SM CLR M05/M11 A2987 910 62 -1200 200/08 RMK AO2 $
14837KMSN MSN20020107230009801/07/02 23:00:31  5-MIN KMSN 080500Z 21010KT 10SM CLR M05/M11 A2987 910 62 -1200 210/10 RMK AO2 $
14837KMSN MSN20020107230509801/07/02 23:05:31  5-MIN KMSN 080505Z 21008KT 10SM CLR M05/M11 A2987 910 62 -1200 210/08 RMK AO2 $
14837KMSN MSN20020107231009801/07/02 23:10:31  5-MIN KMSN 080510Z 21009KT 10SM CLR M05/M11 A2986 920 62 -1200 210/09 RMK AO2 $
14837KMSN MSN20020107231509801/07/02 23:15:31  5-MIN KMSN 080515Z 21009KT 10SM CLR M05/M11 A2986 920 62 -1200 200/09 RMK AO2 $
14837KMSN MSN20020107232010401/07/02 23:20:31  5-MIN KMSN 080520Z 20008G16KT 10SM CLR M05/M11 A2986 920 62 -1200 200/08G16 RMK AO2 $
14837KMSN MSN20020107232510401/07/02 23:25:31  5-MIN KMSN 080525Z 20010G16KT 10SM CLR M05/M11 A2986 920 62 -1200 200/10G16 RMK AO2 $
14837KMSN MSN20020107233009801/07/02 23:30:31  5-MIN KMSN 080530Z 21008KT 10SM CLR M05/M11 A2986 920 62 -1200 210/08 RMK AO2 $
14837KMSN MSN20020107233509801/07/02 23:35:31  5-MIN KMSN 080535Z 21009KT 10SM CLR M05/M11 A2986 920 62 -1200 210/09 RMK AO2 $
14837KMSN MSN20020107234009801/07/02 23:40:31  5-MIN KMSN 080540Z 22008KT 10SM CLR M05/M11 A2987 910 62 -1200 220/08 RMK AO2 $
14837KMSN MSN20020107234509801/07/02 23:45:31  5-MIN KMSN 080545Z 22008KT 10SM CLR M05/M11 A2987 910 65 -1200 220/08 RMK AO2 $
14837KMSN MSN20020107235014301/07/02 23:50:31  5-MIN KMSN 080550Z 22008KT 10SM CLR M05/M11 A2987 910 65 -1200 220/08 RMK AO2 SLP128 T10501106 11044 21050 410281133 56014 $
14837KMSN MSN20020107235509801/07/02 23:55:31  5-MIN KMSN 080555Z 22009KT 10SM CLR M05/M11 A2986 920 62 -1200 220/09 RMK AO2 $
14837KMSN MSN20020108000009801/08/02 00:00:31  5-MIN KMSN 080600Z 21008KT 10SM CLR M05/M11 A2986 920 65 -1200 210/08 RMK AO2 $
14837KMSN MSN20020108000509801/08/02 00:05:31  5-MIN KMSN 080605Z 21007KT 10SM CLR M05/M11 A2985 930 65 -1200 210/07 RMK AO2 $
14837KMSN MSN20020108001010501/08/02 00:10:31  5-MIN KMSN 080610Z 22008KT 10SM CLR M05/M11 A2985 930 65 -1200 220/08 RMK AO2 PRESFR $
14837KMSN MSN20020108001510501/08/02 00:15:31  5-MIN KMSN 080615Z 22009KT 10SM CLR M05/M11 A2984 940 65 -1200 220/09 RMK AO2 PRESFR $
14837KMSN MSN20020108002009801/08/02 00:20:31  5-MIN KMSN 080620Z 22008KT 10SM CLR M05/M11 A2984 940 65 -1200 220/08 RMK AO2 $
14837KMSN MSN20020108002509801/08/02 00:25:31  5-MIN KMSN 080625Z 21007KT 10SM CLR M05/M11 A2984 940 65 -1200 210/07 RMK AO2 $
14837KMSN MSN20020108003009801/08/02 00:30:31  5-MIN KMSN 080630Z 21008KT 10SM CLR M05/M11 A2983 950 65 -1200 210/08 RMK AO2 $
14837KMSN MSN20020108003509801/08/02 00:35:31  5-MIN KMSN 080635Z 21007KT 10SM CLR M05/M11 A2983 940 65 -1200 210/07 RMK AO2 $
14837KMSN MSN20020108004009801/08/02 00:40:31  5-MIN KMSN 080640Z 21006KT 10SM CLR M05/M11 A2984 940 65 -1200 210/06 RMK AO2 $
14837KMSN MSN20020108004511401/08/02 00:45:31  5-MIN KMSN 080645Z 20007KT 170V240 10SM CLR M05/M10 A2983 950 68 -1200 200/07 170V240 RMK AO2 $
14837KMSN MSN20020108005011501/08/02 00:50:31  5-MIN KMSN 080650Z 21007KT 10SM CLR M05/M11 A2983 950 65 -1200 210/07 RMK AO2 SLP114 T10501106 $
14837KMSN MSN20020108005509801/08/02 00:55:31  5-MIN KMSN 080655Z 22007KT 10SM CLR M05/M10 A2983 950 68 -1200 220/07 RMK AO2 $
14837KMSN MSN20020108010009801/08/02 01:00:31  5-MIN KMSN 080700Z 22007KT 10SM CLR M05/M11 A2984 940 65 -1200 220/07 RMK AO2 $
14837KMSN MSN20020108010509801/08/02 01:05:31  5-MIN KMSN 080705Z 22007KT 10SM CLR M05/M10 A2985 930 68 -1200 220/07 RMK AO2 $
14837KMSN MSN20020108011009801/08/02 01:10:31  5-MIN KMSN 080710Z 22007KT 10SM CLR M05/M10 A2985 930 68 -1200 210/07 RMK AO2 $
14837KMSN MSN20020108011509801/08/02 01:15:31  5-MIN KMSN 080715Z 22006KT 10SM CLR M05/M10 A2984 940 68 -1200 220/06 RMK AO2 $
14837KMSN MSN20020108012009801/08/02 01:20:31  5-MIN KMSN 080720Z 21008KT 10SM CLR M05/M11 A2984 940 65 -1200 210/08 RMK AO2 $
14837KMSN MSN20020108012509801/08/02 01:25:31  5-MIN KMSN 080725Z 22008KT 10SM CLR M05/M10 A2984 940 68 -1200 220/08 RMK AO2 $
14837KMSN MSN20020108013009801/08/02 01:30:31  5-MIN KMSN 080730Z 22009KT 10SM CLR M04/M10 A2984 940 65 -1100 220/09 RMK AO2 $
14837KMSN MSN20020108013509801/08/02 01:35:31  5-MIN KMSN 080735Z 22009KT 10SM CLR M04/M10 A2983 950 65 -1100 220/09 RMK AO2 $
14837KMSN MSN20020108014009801/08/02 01:40:31  5-MIN KMSN 080740Z 22009KT 10SM CLR M04/M10 A2983 950 65 -1100 220/09 RMK AO2 $
14837KMSN MSN20020108014509801/08/02 01:45:31  5-MIN KMSN 080745Z 22009KT 10SM CLR M05/M10 A2983 950 68 -1200 220/09 RMK AO2 $
14837KMSN MSN20020108015011501/08/02 01:50:31  5-MIN KMSN 080750Z 22007KT 10SM CLR M04/M10 A2983 950 65 -1100 220/07 RMK AO2 SLP113 T10441100 $
14837KMSN MSN20020108015509801/08/02 01:55:31  5-MIN KMSN 080755Z 22007KT 10SM CLR M04/M10 A2983 950 65 -1100 210/07 RMK AO2 $
14837KMSN MSN20020108020009801/08/02 02:00:31  5-MIN KMSN 080800Z 21007KT 10SM CLR M04/M10 A2983 940 65 -1100 210/07 RMK AO2 $
14837KMSN MSN20020108020509801/08/02 02:05:31  5-MIN KMSN 080805Z 21008KT 10SM CLR M04/M10 A2984 940 65 -1100 210/08 RMK AO2 $
14837KMSN MSN20020108021009801/08/02 02:10:31  5-MIN KMSN 080810Z 21008KT 10SM CLR M04/M10 A2984 940 65 -1100 210/08 RMK AO2 $
14837KMSN MSN20020108021509801/08/02 02:15:31  5-MIN KMSN 080815Z 20005KT 10SM CLR M04/M10 A2983 940 65 -1100 200/05 RMK AO2 $
14837KMSN MSN20020108022009801/08/02 02:20:31  5-MIN KMSN 080820Z 22007KT 10SM CLR M04/M10 A2983 940 65 -1100 220/07 RMK AO2 $
14837KMSN MSN20020108022509801/08/02 02:25:31  5-MIN KMSN 080825Z VRB04KT 10SM CLR M04/M10 A2983 950 65 -1100 VRB/04 RMK AO2 $
14837KMSN MSN20020108023009801/08/02 02:30:31  5-MIN KMSN 080830Z 21006KT 10SM CLR M04/M10 A2983 950 65 -1100 210/06 RMK AO2 $
14837KMSN MSN20020108023511401/08/02 02:35:31  5-MIN KMSN 080835Z 20007KT 170V230 10SM CLR M04/M10 A2983 950 65 -1100 200/07 170V230 RMK AO2 $
14837KMSN MSN20020108024009801/08/02 02:40:31  5-MIN KMSN 080840Z 21007KT 10SM CLR M04/M10 A2982 950 65 -1100 210/07 RMK AO2 $
14837KMSN MSN20020108024509801/08/02 02:45:31  5-MIN KMSN 080845Z 21005KT 10SM CLR M04/M10 A2982 960 65 -1100 210/05 RMK AO2 $
14837KMSN MSN20020108025013701/08/02 02:50:31  5-MIN KMSN 080850Z 21007KT 150V260 10SM CLR M04/M10 A2981 960 65 -1100 210/07 150V260 RMK AO2 SLP108 T10441100 57020 $
14837KMSN MSN20020108025509801/08/02 02:55:31  5-MIN KMSN 080855Z 21007KT 10SM CLR M04/M10 A2981 970 65 -1100 210/07 RMK AO2 $
14837KMSN MSN20020108030009801/08/02 03:00:31  5-MIN KMSN 080900Z VRB05KT 10SM CLR M04/M10 A2981 970 65 -1100 VRB/05 RMK AO2 $
14837KMSN MSN20020108030511401/08/02 03:05:31  5-MIN KMSN 080905Z 20007KT 160V220 10SM CLR M04/M10 A2980 970 65 -1100 200/07 160V220 RMK AO2 $
14837KMSN MSN20020108031009801/08/02 03:10:31  5-MIN KMSN 080910Z 20006KT 10SM CLR M04/M10 A2980 980 65 -1100 200/06 RMK AO2 $
14837KMSN MSN20020108031509801/08/02 03:15:31  5-MIN KMSN 080915Z 19005KT 10SM CLR M05/M09 A2980 980 71 -1200 190/05 RMK AO2 $
14837KMSN MSN20020108032009801/08/02 03:20:31  5-MIN KMSN 080920Z 19005KT 10SM CLR M05/M09 A2980 980 71 -1200 190/05 RMK AO2 $
14837KMSN MSN20020108032509801/08/02 03:25:31  5-MIN KMSN 080925Z 19007KT 10SM CLR M04/M09 A2979 980 68 -1100 190/07 RMK AO2 $
14837KMSN MSN20020108033009801/08/02 03:30:31  5-MIN KMSN 080930Z 19006KT 10SM CLR M04/M09 A2979 980 68 -1100 190/06 RMK AO2 $
14837KMSN MSN20020108033509801/08/02 03:35:31  5-MIN KMSN 080935Z 19008KT 10SM CLR M04/M09 A2978 990 68 -1100 180/08 RMK AO2 $
14837KMSN MSN20020108034009901/08/02 03:40:31  5-MIN KMSN 080940Z 19007KT 10SM CLR M04/M09 A2978 1000 68 -1100 190/07 RMK AO2 $
14837KMSN MSN20020108034509801/08/02 03:45:31  5-MIN KMSN 080945Z 20005KT 10SM CLR M04/M09 A2978 990 68 -1100 200/05 RMK AO2 $
14837KMSN MSN20020108035011601/08/02 03:50:31  5-MIN KMSN 080950Z 19006KT 10SM CLR M04/M09 A2978 1000 68 -1100 190/06 RMK AO2 SLP095 T10441094 $
14837KMSN MSN20020108035509901/08/02 03:55:31  5-MIN KMSN 080955Z 19006KT 10SM CLR M05/M09 A2977 1000 71 -1100 190/06 RMK AO2 $
14837KMSN MSN20020108040009901/08/02 04:00:31  5-MIN KMSN 081000Z 19007KT 10SM CLR M05/M09 A2976 1010 71 -1100 190/07 RMK AO2 $
14837KMSN MSN20020108040509901/08/02 04:05:31  5-MIN KMSN 081005Z 20006KT 10SM CLR M05/M09 A2976 1010 71 -1100 200/06 RMK AO2 $
14837KMSN MSN20020108041009901/08/02 04:10:31  5-MIN KMSN 081010Z VRB04KT 10SM CLR M04/M09 A2976 1010 68 -1000 VRB/04 RMK AO2 $
14837KMSN MSN20020108041509901/08/02 04:15:31  5-MIN KMSN 081015Z 20005KT 10SM CLR M04/M09 A2976 1010 68 -1000 190/05 RMK AO2 $
14837KMSN MSN20020108042009901/08/02 04:20:31  5-MIN KMSN 081020Z 20005KT 10SM CLR M04/M09 A2976 1010 68 -1000 200/05 RMK AO2 $
14837KMSN MSN20020108042509901/08/02 04:25:31  5-MIN KMSN 081025Z VRB05KT 10SM CLR M04/M09 A2977 1010 68 -1100 VRB/05 RMK AO2 $
14837KMSN MSN20020108043009901/08/02 04:30:31  5-MIN KMSN 081030Z 20006KT 10SM CLR M04/M09 A2977 1010 68 -1100 200/06 RMK AO2 $
14837KMSN MSN20020108043509901/08/02 04:35:31  5-MIN KMSN 081035Z 20006KT 10SM CLR M05/M09 A2976 1010 71 -1100 200/06 RMK AO2 $
14837KMSN MSN20020108044009901/08/02 04:40:31  5-MIN KMSN 081040Z 20005KT 10SM CLR M05/M09 A2976 1010 71 -1100 200/05 RMK AO2 $
14837KMSN MSN20020108044509901/08/02 04:45:31  5-MIN KMSN 081045Z 20005KT 10SM CLR M05/M09 A2976 1020 71 -1100 200/05 RMK AO2 $
14837KMSN MSN20020108045011601/08/02 04:50:31  5-MIN KMSN 081050Z 21005KT 10SM CLR M05/M09 A2976 1010 71 -1100 210/05 RMK AO2 SLP090 T10501094 $
14837KMSN MSN20020108045509901/08/02 04:55:31  5-MIN KMSN 081055Z 20006KT 10SM CLR M05/M09 A2976 1020 71 -1100 200/06 RMK AO2 $
14837KMSN MSN20020108050009901/08/02 05:00:31  5-MIN KMSN 081100Z 21006KT 10SM CLR M04/M09 A2976 1010 68 -1000 210/06 RMK AO2 $
14837KMSN MSN20020108050509901/08/02 05:05:31  5-MIN KMSN 081105Z 20007KT 10SM CLR M05/M09 A2976 1020 71 -1100 200/07 RMK AO2 $
14837KMSN MSN20020108051009901/08/02 05:10:31  5-MIN KMSN 081110Z 20007KT 10SM CLR M05/M09 A2975 1020 71 -1100 200/07 RMK AO2 $
14837KMSN MSN20020108051509901/08/02 05:15:31  5-MIN KMSN 081115Z 20006KT 10SM CLR M05/M09 A2975 1020 71 -1100 200/06 RMK AO2 $
14837KMSN MSN20020108052009901/08/02 05:20:31  5-MIN KMSN 081120Z 20006KT 10SM CLR M05/M10 A2975 1020 68 -1100 200/06 RMK AO2 $
14837KMSN MSN20020108052509901/08/02 05:25:31  5-MIN KMSN 081125Z 20006KT 10SM CLR M05/M10 A2975 1020 68 -1100 190/06 RMK AO2 $
14837KMSN MSN20020108053009901/08/02 05:30:31  5-MIN KMSN 081130Z 19008KT 10SM CLR M05/M10 A2975 1020 68 -1100 190/08 RMK AO2 $
14837KMSN MSN20020108053509901/08/02 05:35:31  5-MIN KMSN 081135Z 19007KT 10SM CLR M05/M10 A2975 1020 68 -1100 190/07 RMK AO2 $
14837KMSN MSN20020108054009901/08/02 05:40:31  5-MIN KMSN 081140Z 20007KT 10SM CLR M05/M10 A2975 1020 68 -1100 190/07 RMK AO2 $
14837KMSN MSN20020108054509901/08/02 05:45:31  5-MIN KMSN 081145Z 20005KT 10SM CLR M05/M09 A2975 1020 71 -1100 200/05 RMK AO2 $
14837KMSN MSN20020108055013401/08/02 05:50:31  5-MIN KMSN 081150Z 19006KT 10SM CLR M05/M09 A2975 1020 71 -1100 190/06 RMK AO2 SLP089 T10501094 11044 21050 56016 $
14837KMSN MSN20020108055509901/08/02 05:55:31  5-MIN KMSN 081155Z 19005KT 10SM CLR M05/M09 A2975 1020 71 -1100 190/05 RMK AO2 $
14837KMSN MSN20020108060009901/08/02 06:00:31  5-MIN KMSN 081200Z 19005KT 10SM CLR M05/M09 A2975 1020 71 -1100 190/05 RMK AO2 $
14837KMSN MSN20020108060509901/08/02 06:05:31  5-MIN KMSN 081205Z 20004KT 10SM CLR M05/M09 A2976 1010 71 -1100 190/04 RMK AO2 $
14837KMSN MSN20020108061009901/08/02 06:10:31  5-MIN KMSN 081210Z 21005KT 10SM CLR M05/M09 A2976 1010 71 -1100 200/05 RMK AO2 $
14837KMSN MSN20020108061509901/08/02 06:15:31  5-MIN KMSN 081215Z 19004KT 10SM CLR M05/M09 A2976 1010 71 -1100 190/04 RMK AO2 $
14837KMSN MSN20020108062009901/08/02 06:20:31  5-MIN KMSN 081220Z VRB06KT 10SM CLR M05/M09 A2976 1010 71 -1100 VRB/06 RMK AO2 $
14837KMSN MSN20020108062509901/08/02 06:25:31  5-MIN KMSN 081225Z 19005KT 10SM CLR M05/M09 A2976 1010 71 -1100 190/05 RMK AO2 $
14837KMSN MSN20020108063009901/08/02 06:30:31  5-MIN KMSN 081230Z 19007KT 10SM CLR M05/M09 A2976 1020 71 -1100 190/07 RMK AO2 $
14837KMSN MSN20020108063509901/08/02 06:35:31  5-MIN KMSN 081235Z 19007KT 10SM CLR M05/M09 A2975 1020 71 -1100 190/07 RMK AO2 $
14837KMSN MSN20020108064009901/08/02 06:40:31  5-MIN KMSN 081240Z 19008KT 10SM CLR M05/M09 A2975 1020 71 -1100 190/08 RMK AO2 $
14837KMSN MSN20020108064509901/08/02 06:45:31  5-MIN KMSN 081245Z 19008KT 10SM CLR M05/M09 A2975 1020 71 -1100 190/08 RMK AO2 $
14837KMSN MSN20020108065011601/08/02 06:50:31  5-MIN KMSN 081250Z 19006KT 10SM CLR M05/M09 A2975 1020 71 -1100 190/06 RMK AO2 SLP087 T10501094 $
14837KMSN MSN20020108065509901/08/02 06:55:31  5-MIN KMSN 081255Z 19006KT 10SM CLR M05/M09 A2975 1030 71 -1100 190/06 RMK AO2 $
14837KMSN MSN20020108070009901/08/02 07:00:31  5-MIN KMSN 081300Z 19006KT 10SM CLR M05/M09 A2975 1020 71 -1100 190/06 RMK AO2 $
14837KMSN MSN20020108070509901/08/02 07:05:31  5-MIN KMSN 081305Z 20007KT 10SM CLR M05/M09 A2975 1020 71 -1100 200/07 RMK AO2 $
14837KMSN MSN20020108071009901/08/02 07:10:31  5-MIN KMSN 081310Z 19008KT 10SM CLR M05/M09 A2975 1020 71 -1100 190/08 RMK AO2 $
14837KMSN MSN20020108071509901/08/02 07:15:31  5-MIN KMSN 081315Z 19008KT 10SM CLR M05/M09 A2974 1030 71 -1100 190/08 RMK AO2 $
14837KMSN MSN20020108072009901/08/02 07:20:31  5-MIN KMSN 081320Z 19007KT 10SM CLR M05/M09 A2974 1030 71 -1100 190/07 RMK AO2 $
14837KMSN MSN20020108072509801/08/02 07:25:31  5-MIN KMSN 081325Z 20006KT 9SM CLR M05/M09 A2974 1030 71 -1100 200/06 RMK AO2 $
14837KMSN MSN20020108073009801/08/02 07:30:31  5-MIN KMSN 081330Z 19006KT 9SM CLR M05/M09 A2974 1030 71 -1100 190/06 RMK AO2 $
14837KMSN MSN20020108073509801/08/02 07:35:31  5-MIN KMSN 081335Z 19007KT 9SM CLR M05/M09 A2974 1030 71 -1100 190/07 RMK AO2 $
14837KMSN MSN20020108074009801/08/02 07:40:31  5-MIN KMSN 081340Z 19007KT 9SM CLR M05/M09 A2974 1030 71 -1100 190/07 RMK AO2 $
14837KMSN MSN20020108074509801/08/02 07:45:31  5-MIN KMSN 081345Z 20006KT 9SM CLR M05/M09 A2974 1030 74 -1100 200/06 RMK AO2 $
14837KMSN MSN20020108075011601/08/02 07:50:31  5-MIN KMSN 081350Z 20005KT 10SM CLR M05/M09 A2974 1030 74 -1100 200/05 RMK AO2 SLP082 T10501089 $
14837KMSN MSN20020108075509801/08/02 07:55:31  5-MIN KMSN 081355Z 20006KT 9SM CLR M04/M09 A2974 1030 71 -1000 200/06 RMK AO2 $
14837KMSN MSN20020108080009801/08/02 08:00:31  5-MIN KMSN 081400Z 20007KT 9SM CLR M04/M09 A2974 1040 71 -1000 200/07 RMK AO2 $
14837KMSN MSN20020108080509901/08/02 08:05:31  5-MIN KMSN 081405Z 20007KT 10SM CLR M04/M09 A2973 1040 71 -1000 200/07 RMK AO2 $
14837KMSN MSN20020108081009901/08/02 08:10:31  5-MIN KMSN 081410Z 20005KT 10SM CLR M04/M09 A2973 1040 71 -1000 200/05 RMK AO2 $
14837KMSN MSN20020108081509901/08/02 08:15:31  5-MIN KMSN 081415Z 20006KT 10SM CLR M04/M09 A2973 1040 71 -1000 200/06 RMK AO2 $
14837KMSN MSN20020108082009901/08/02 08:20:31  5-MIN KMSN 081420Z 20007KT 10SM CLR M04/M09 A2973 1040 71 -1000 200/07 RMK AO2 $
14837KMSN MSN20020108082509801/08/02 08:25:31  5-MIN KMSN 081425Z 20007KT 10SM CLR M04/M08 A2973 1040 71 -900 200/07 RMK AO2 $
14837KMSN MSN20020108083009801/08/02 08:30:31  5-MIN KMSN 081430Z 20006KT 10SM CLR M04/M09 A2973 1040 68 -900 200/06 RMK AO2 $
14837KMSN MSN20020108083509801/08/02 08:35:31  5-MIN KMSN 081435Z 21008KT 10SM CLR M04/M09 A2973 1040 68 -900 210/08 RMK AO2 $
14837KMSN MSN20020108084009801/08/02 08:40:31  5-MIN KMSN 081440Z 21007KT 10SM CLR M04/M08 A2972 1050 71 -900 210/07 RMK AO2 $
14837KMSN MSN20020108084509801/08/02 08:45:31  5-MIN KMSN 081445Z 21009KT 10SM CLR M04/M09 A2973 1040 68 -900 200/09 RMK AO2 $
14837KMSN MSN20020108093009801/08/02 09:30:31  5-MIN KMSN 081530Z 22010KT 10SM CLR M03/M08 A2973 1040 66 -800 220/10 RMK AO2 $
14837KMSN MSN20020108093510401/08/02 09:35:31  5-MIN KMSN 081535Z 21010G15KT 10SM CLR M02/M08 A2973 1040 63 -700 210/10G15 RMK AO2 $
14837KMSN MSN20020108094010401/08/02 09:40:31  5-MIN KMSN 081540Z 22009G15KT 10SM CLR M02/M08 A2974 1040 63 -700 220/09G15 RMK AO2 $
14837KMSN MSN20020108094509801/08/02 09:45:31  5-MIN KMSN 081545Z 21006KT 10SM CLR M02/M08 A2973 1040 63 -700 210/06 RMK AO2 $
14837KMSN MSN20020108095011501/08/02 09:50:31  5-MIN KMSN 081550Z 21009KT 10SM CLR M02/M08 A2973 1040 60 -700 210/09 RMK AO2 SLP079 T10171083 $
14837KMSN MSN20020108095509801/08/02 09:55:31  5-MIN KMSN 081555Z 22007KT 10SM CLR M02/M08 A2972 1050 60 -600 220/07 RMK AO2 $
14837KMSN MSN20020108100011401/08/02 10:00:31  5-MIN KMSN 081600Z 23007KT 190V250 10SM CLR M02/M08 A2972 1050 63 -600 230/07 190V250 RMK AO2 $
14837KMSN MSN20020108100509801/08/02 10:05:31  5-MIN KMSN 081605Z 23008KT 10SM CLR M02/M08 A2972 1050 63 -600 230/08 RMK AO2 $
14837KMSN MSN20020108101009801/08/02 10:10:31  5-MIN KMSN 081610Z 22008KT 10SM CLR M01/M08 A2972 1050 60 -600 220/08 RMK AO2 $
14837KMSN MSN20020108101509801/08/02 10:15:31  5-MIN KMSN 081615Z 22009KT 10SM CLR M01/M08 A2972 1050 60 -600 220/09 RMK AO2 $
14837KMSN MSN20020108102009801/08/02 10:20:31  5-MIN KMSN 081620Z 21008KT 10SM CLR M01/M08 A2972 1050 60 -600 210/08 RMK AO2 $
14837KMSN MSN20020108102509801/08/02 10:25:31  5-MIN KMSN 081625Z 21007KT 10SM CLR M01/M08 A2972 1050 58 -500 210/07 RMK AO2 $
14837KMSN MSN20020108103009801/08/02 10:30:31  5-MIN KMSN 081630Z VRB06KT 10SM CLR M01/M08 A2971 1060 58 -500 VRB/06 RMK AO2 $
14837KMSN MSN20020108103511301/08/02 10:35:31  5-MIN KMSN 081635Z 22008KT 190V260 10SM CLR 00/M08 A2971 1060 56 -400 220/08 190V260 RMK AO2 $
14837KMSN MSN20020108104009701/08/02 10:40:31  5-MIN KMSN 081640Z 21008KT 10SM CLR 00/M08 A2971 1060 56 -400 210/08 RMK AO2 $
14837KMSN MSN20020108104509701/08/02 10:45:31  5-MIN KMSN 081645Z 22009KT 10SM CLR 00/M08 A2971 1060 56 -400 220/09 RMK AO2 $
14837KMSN MSN20020108105011401/08/02 10:50:31  5-MIN KMSN 081650Z 22007KT 10SM CLR 00/M07 A2970 1070 58 -400 220/07 RMK AO2 SLP068 T00001072 $
14837KMSN MSN20020108105509701/08/02 10:55:31  5-MIN KMSN 081655Z 22006KT 10SM CLR 01/M07 A2970 1070 56 -300 220/06 RMK AO2 $
14837KMSN MSN20020108110009701/08/02 11:00:31  5-MIN KMSN 081700Z 22006KT 10SM CLR 01/M07 A2970 1070 56 -300 220/06 RMK AO2 $
14837KMSN MSN20020108110509701/08/02 11:05:31  5-MIN KMSN 081705Z VRB06KT 10SM CLR 01/M07 A2969 1080 56 -300 VRB/06 RMK AO2 $
14837KMSN MSN20020108111009701/08/02 11:10:31  5-MIN KMSN 081710Z 21009KT 10SM CLR 01/M07 A2969 1080 54 -300 210/09 RMK AO2 $
14837KMSN MSN20020108111509701/08/02 11:15:31  5-MIN KMSN 081715Z 21006KT 10SM CLR 02/M07 A2968 1080 54 -200 200/06 RMK AO2 $
14837KMSN MSN20020108112009701/08/02 11:20:31  5-MIN KMSN 081720Z 21008KT 10SM CLR 02/M07 A2968 1090 54 -200 210/08 RMK AO2 $
14837KMSN MSN20020108112509701/08/02 11:25:31  5-MIN KMSN 081725Z 20007KT 10SM CLR 01/M07 A2968 1090 54 -200 200/07 RMK AO2 $
14837KMSN MSN20020108113009701/08/02 11:30:31  5-MIN KMSN 081730Z 20008KT 10SM CLR 02/M07 A2967 1090 54 -200 200/08 RMK AO2 $
14837KMSN MSN20020108113509701/08/02 11:35:31  5-MIN KMSN 081735Z 21009KT 10SM CLR 02/M07 A2967 1100 54 -200 210/09 RMK AO2 $
14837KMSN MSN20020108114009701/08/02 11:40:31  5-MIN KMSN 081740Z 21006KT 10SM CLR 01/M07 A2966 1100 56 -200 200/06 RMK AO2 $
14837KMSN MSN20020108114509701/08/02 11:45:31  5-MIN KMSN 081745Z 20008KT 10SM CLR 02/M07 A2966 1110 54 -200 200/08 RMK AO2 $
14837KMSN MSN20020108115013201/08/02 11:50:31  5-MIN KMSN 081750Z 21008KT 10SM CLR 01/M07 A2966 1110 56 -200 210/08 RMK AO2 SLP054 T00111067 10017 21050 58011 $
14837KMSN MSN20020108115509701/08/02 11:55:31  5-MIN KMSN 081755Z 20008KT 10SM CLR 02/M07 A2966 1110 52 -100 200/08 RMK AO2 $
14837KMSN MSN20020108120009701/08/02 12:00:31  5-MIN KMSN 081800Z 21008KT 10SM CLR 02/M07 A2966 1110 52 -100 210/08 RMK AO2 $
14837KMSN MSN20020108120509701/08/02 12:05:31  5-MIN KMSN 081805Z 19008KT 10SM CLR 02/M07 A2966 1110 52 -100 190/08 RMK AO2 $
14837KMSN MSN20020108121009701/08/02 12:10:31  5-MIN KMSN 081810Z 20007KT 10SM CLR 02/M06 A2965 1120 54 -100 200/07 RMK AO2 $
14837KMSN MSN20020108121509701/08/02 12:15:31  5-MIN KMSN 081815Z 22009KT 10SM CLR 02/M06 A2965 1120 54 -100 220/09 RMK AO2 $
14837KMSN MSN20020108122010301/08/02 12:20:31  5-MIN KMSN 081820Z 22009G15KT 10SM CLR 02/M06 A2964 1120 54 -100 210/09G15 RMK AO2 $
14837KMSN MSN20020108122510001/08/02 12:25:31  5-MIN KMSN 081825Z 20008G15KT 10SM CLR 03/M06 A2964 1130 52 0 200/08G15 RMK AO2 $
14837KMSN MSN20020108123009401/08/02 12:30:31  5-MIN KMSN 081830Z 22009KT 10SM CLR 03/M06 A2964 1130 52 0 220/09 RMK AO2 $
14837KMSN MSN20020108123509401/08/02 12:35:31  5-MIN KMSN 081835Z 21008KT 10SM CLR 03/M06 A2964 1130 52 0 210/08 RMK AO2 $
14837KMSN MSN20020108124009401/08/02 12:40:31  5-MIN KMSN 081840Z 21010KT 10SM CLR 03/M06 A2964 1130 52 0 210/10 RMK AO2 $
14837KMSN MSN20020108124509401/08/02 12:45:31  5-MIN KMSN 081845Z 23008KT 10SM CLR 03/M06 A2963 1130 52 0 230/08 RMK AO2 $
14837KMSN MSN20020108125011101/08/02 12:50:31  5-MIN KMSN 081850Z 23006KT 10SM CLR 03/M06 A2963 1130 52 0 220/06 RMK AO2 SLP044 T00281061 $
14837KMSN MSN20020108125509401/08/02 12:55:31  5-MIN KMSN 081855Z 21005KT 10SM CLR 03/M06 A2963 1130 52 0 210/05 RMK AO2 $
14837KMSN MSN20020108130009401/08/02 13:00:31  5-MIN KMSN 081900Z 23007KT 10SM CLR 03/M06 A2963 1130 54 0 220/07 RMK AO2 $
14837KMSN MSN20020108130509401/08/02 13:05:31  5-MIN KMSN 081905Z 22008KT 10SM CLR 03/M06 A2963 1130 54 0 220/08 RMK AO2 $
14837KMSN MSN20020108131009401/08/02 13:10:31  5-MIN KMSN 081910Z 21005KT 10SM CLR 03/M06 A2963 1130 52 0 210/05 RMK AO2 $
14837KMSN MSN20020108131509401/08/02 13:15:31  5-MIN KMSN 081915Z 21006KT 10SM CLR 03/M06 A2963 1140 52 0 210/06 RMK AO2 $
14837KMSN MSN20020108132009601/08/02 13:20:31  5-MIN KMSN 081920Z 19006KT 10SM CLR 04/M06 A2962 1140 50 100 190/06 RMK AO2 $
14837KMSN MSN20020108132509601/08/02 13:25:31  5-MIN KMSN 081925Z 20007KT 10SM CLR 04/M06 A2962 1140 50 100 200/07 RMK AO2 $
14837KMSN MSN20020108133009601/08/02 13:30:31  5-MIN KMSN 081930Z 22010KT 10SM CLR 04/M06 A2962 1150 50 100 220/10 RMK AO2 $
14837KMSN MSN20020108133509601/08/02 13:35:31  5-MIN KMSN 081935Z 21007KT 10SM CLR 04/M06 A2961 1150 50 100 210/07 RMK AO2 $
14837KMSN MSN20020108134009601/08/02 13:40:31  5-MIN KMSN 081940Z 21008KT 10SM CLR 04/M05 A2961 1150 52 100 210/08 RMK AO2 $
14837KMSN MSN20020108134509601/08/02 13:45:31  5-MIN KMSN 081945Z 20007KT 10SM CLR 04/M05 A2961 1150 50 200 200/07 RMK AO2 $
14837KMSN MSN20020108135011301/08/02 13:50:31  5-MIN KMSN 081950Z 21005KT 10SM CLR 04/M05 A2961 1150 50 200 200/05 RMK AO2 SLP037 T00441050 $
14837KMSN MSN20020108135509601/08/02 13:55:31  5-MIN KMSN 081955Z 21006KT 10SM CLR 04/M05 A2962 1140 50 200 210/06 RMK AO2 $
14837KMSN MSN20020108140009601/08/02 14:00:31  5-MIN KMSN 082000Z VRB06KT 10SM CLR 05/M05 A2961 1150 48 300 VRB/06 RMK AO2 $
14837KMSN MSN20020108140509601/08/02 14:05:31  5-MIN KMSN 082005Z 22007KT 10SM CLR 04/M05 A2961 1150 50 200 220/07 RMK AO2 $
14837KMSN MSN20020108141009601/08/02 14:10:31  5-MIN KMSN 082010Z 22008KT 10SM CLR 05/M04 A2961 1150 50 300 220/08 RMK AO2 $
14837KMSN MSN20020108141509601/08/02 14:15:31  5-MIN KMSN 082015Z 23006KT 10SM CLR 05/M04 A2962 1150 50 300 230/06 RMK AO2 $
14837KMSN MSN20020108142009601/08/02 14:20:31  5-MIN KMSN 082020Z 21005KT 10SM CLR 05/M04 A2961 1150 50 300 210/05 RMK AO2 $
14837KMSN MSN20020108142509901/08/02 14:25:31  5-MIN KMSN 082025Z 23005KT 10SM BKN120 05/M04 A2962 1150 50 300 230/05 RMK AO2 $
14837KMSN MSN20020108143009901/08/02 14:30:31  5-MIN KMSN 082030Z 23007KT 10SM BKN120 05/M04 A2962 1150 50 300 230/07 RMK AO2 $
14837KMSN MSN20020108143511501/08/02 14:35:31  5-MIN KMSN 082035Z 22007KT 180V250 10SM BKN120 05/M04 A2961 1150 50 300 220/07 180V250 RMK AO2 $
14837KMSN MSN20020108144009601/08/02 14:40:31  5-MIN KMSN 082040Z 21007KT 10SM CLR 04/M04 A2961 1150 52 200 210/07 RMK AO2 $
14837KMSN MSN20020108144509601/08/02 14:45:31  5-MIN KMSN 082045Z 20007KT 10SM CLR 04/M03 A2961 1160 57 200 200/07 RMK AO2 $
14837KMSN MSN20020108145011901/08/02 14:50:31  5-MIN KMSN 082050Z 19007KT 10SM CLR 04/M03 A2961 1160 57 200 190/07 RMK AO2 SLP034 T00441033 58020 $
14837KMSN MSN20020108145509601/08/02 14:55:31  5-MIN KMSN 082055Z 19008KT 10SM CLR 04/M05 A2960 1160 50 200 190/08 RMK AO2 $
14837KMSN MSN20020108150009601/08/02 15:00:31  5-MIN KMSN 082100Z 20007KT 10SM CLR 04/M04 A2961 1160 52 200 200/07 RMK AO2 $
14837KMSN MSN20020108150509601/08/02 15:05:31  5-MIN KMSN 082105Z 20008KT 10SM CLR 04/M04 A2961 1150 52 200 200/08 RMK AO2 $
14837KMSN MSN20020108151009601/08/02 15:10:31  5-MIN KMSN 082110Z 20007KT 10SM CLR 04/M04 A2961 1150 52 200 200/07 RMK AO2 $
14837KMSN MSN20020108151509601/08/02 15:15:31  5-MIN KMSN 082115Z 21006KT 10SM CLR 04/M04 A2961 1150 52 200 210/06 RMK AO2 $
14837KMSN MSN20020108152009601/08/02 15:20:31  5-MIN KMSN 082120Z 21007KT 10SM CLR 04/M04 A2961 1150 52 200 210/07 RMK AO2 $
14837KMSN MSN20020108152509601/08/02 15:25:31  5-MIN KMSN 082125Z 21007KT 10SM CLR 04/M04 A2962 1150 52 200 210/07 RMK AO2 $
14837KMSN MSN20020108153009401/08/02 15:30:31  5-MIN KMSN 082130Z 21007KT 10SM CLR 04/M04 A2962 1150 52 200 210/07 RMK AO2
14837KMSN MSN20020108153509401/08/02 15:35:31  5-MIN KMSN 082135Z 21006KT 10SM CLR 04/M04 A2962 1150 52 200 210/06 RMK AO2
14837KMSN MSN20020108154009401/08/02 15:40:31  5-MIN KMSN 082140Z 20006KT 10SM CLR 04/M04 A2962 1150 52 200 200/06 RMK AO2
14837KMSN MSN20020108154509701/08/02 15:45:31  5-MIN KMSN 082145Z 21008KT 10SM BKN120 04/M04 A2962 1150 55 200 210/08 RMK AO2
14837KMSN MSN20020108155011401/08/02 15:50:31  5-MIN KMSN 082150Z 20006KT 10SM BKN120 04/M04 A2962 1150 55 200 200/06 RMK AO2 SLP037 T00441039
14837KMSN MSN20020108155509701/08/02 15:55:31  5-MIN KMSN 082155Z 20007KT 10SM SCT120 04/M04 A2961 1150 55 200 200/07 RMK AO2
14837KMSN MSN20020108160009701/08/02 16:00:31  5-MIN KMSN 082200Z 21008KT 10SM BKN120 04/M04 A2961 1150 52 200 210/08 RMK AO2
14837KMSN MSN20020108160509701/08/02 16:05:31  5-MIN KMSN 082205Z 21008KT 10SM BKN120 04/M04 A2961 1150 52 200 210/08 RMK AO2
14837KMSN MSN20020108161009701/08/02 16:10:31  5-MIN KMSN 082210Z 21008KT 10SM BKN120 04/M04 A2961 1150 52 200 210/08 RMK AO2
14837KMSN MSN20020108161509701/08/02 16:15:31  5-MIN KMSN 082215Z 21006KT 10SM BKN120 04/M04 A2961 1150 52 200 210/06 RMK AO2
14837KMSN MSN20020108162009701/08/02 16:20:31  5-MIN KMSN 082220Z 21007KT 10SM BKN120 04/M04 A2961 1150 55 200 210/07 RMK AO2
14837KMSN MSN20020108162509701/08/02 16:25:31  5-MIN KMSN 082225Z 20007KT 10SM BKN120 04/M04 A2961 1150 55 200 200/07 RMK AO2
14837KMSN MSN20020108163009701/08/02 16:30:31  5-MIN KMSN 082230Z 20008KT 10SM BKN120 04/M04 A2961 1160 55 200 200/08 RMK AO2
14837KMSN MSN20020108163509701/08/02 16:35:31  5-MIN KMSN 082235Z 21006KT 10SM BKN120 04/M04 A2961 1150 55 200 210/06 RMK AO2
14837KMSN MSN20020108164011301/08/02 16:40:31  5-MIN KMSN 082240Z 21007KT 180V240 10SM BKN120 04/M04 A2961 1150 55 200 210/07 180V240 RMK AO2
14837KMSN MSN20020108164509701/08/02 16:45:31  5-MIN KMSN 082245Z 20006KT 10SM BKN120 04/M04 A2961 1150 55 200 200/06 RMK AO2
14837KMSN MSN20020108165011401/08/02 16:50:31  5-MIN KMSN 082250Z 20007KT 10SM SCT120 04/M04 A2961 1150 55 200 200/07 RMK AO2 SLP036 T00441039
14837KMSN MSN20020108165509401/08/02 16:55:31  5-MIN KMSN 082255Z 20007KT 10SM CLR 04/M04 A2961 1150 55 200 200/07 RMK AO2
14837KMSN MSN20020108170009401/08/02 17:00:31  5-MIN KMSN 082300Z 21006KT 10SM CLR 04/M04 A2961 1150 57 100 210/06 RMK AO2
14837KMSN MSN20020108170509401/08/02 17:05:31  5-MIN KMSN 082305Z 20007KT 10SM CLR 04/M04 A2961 1160 55 200 200/07 RMK AO2
14837KMSN MSN20020108171009401/08/02 17:10:31  5-MIN KMSN 082310Z 20006KT 10SM CLR 04/M04 A2960 1160 57 100 200/06 RMK AO2
14837KMSN MSN20020108171509401/08/02 17:15:31  5-MIN KMSN 082315Z 19007KT 10SM CLR 04/M04 A2960 1160 57 100 190/07 RMK AO2
14837KMSN MSN20020108172009401/08/02 17:20:31  5-MIN KMSN 082320Z 20007KT 10SM CLR 04/M04 A2960 1160 57 100 200/07 RMK AO2
14837KMSN MSN20020108172509401/08/02 17:25:31  5-MIN KMSN 082325Z 20007KT 10SM CLR 04/M04 A2960 1170 57 100 190/07 RMK AO2
14837KMSN MSN20020108173009401/08/02 17:30:31  5-MIN KMSN 082330Z 20007KT 10SM CLR 04/M04 A2960 1170 57 100 200/07 RMK AO2
14837KMSN MSN20020108173509401/08/02 17:35:31  5-MIN KMSN 082335Z 20006KT 10SM CLR 04/M04 A2959 1170 57 100 200/06 RMK AO2
14837KMSN MSN20020108174009401/08/02 17:40:31  5-MIN KMSN 082340Z 20007KT 10SM CLR 04/M04 A2959 1170 57 100 200/07 RMK AO2
14837KMSN MSN20020108174509401/08/02 17:45:31  5-MIN KMSN 082345Z 20007KT 10SM CLR 04/M04 A2959 1170 57 100 200/07 RMK AO2
14837KMSN MSN20020108175012901/08/02 17:50:31  5-MIN KMSN 082350Z 20005KT 10SM CLR 04/M04 A2960 1170 57 100 200/05 RMK AO2 SLP032 T00391039 10056 20017 56019
14837KMSN MSN20020108175509401/08/02 17:55:31  5-MIN KMSN 082355Z 20006KT 10SM CLR 04/M04 A2960 1170 57 100 200/06 RMK AO2
14837KMSN MSN20020108180009401/08/02 18:00:31  5-MIN KMSN 090000Z 20006KT 10SM CLR 04/M03 A2959 1170 59 100 200/06 RMK AO2
14837KMSN MSN20020108180509401/08/02 18:05:31  5-MIN KMSN 090005Z 20007KT 10SM CLR 04/M03 A2959 1170 59 100 190/07 RMK AO2
14837KMSN MSN20020108181009401/08/02 18:10:31  5-MIN KMSN 090010Z 20006KT 10SM CLR 04/M03 A2959 1170 59 100 200/06 RMK AO2
14837KMSN MSN20020108181509401/08/02 18:15:31  5-MIN KMSN 090015Z 20007KT 10SM CLR 04/M03 A2959 1170 59 100 200/07 RMK AO2
14837KMSN MSN20020108182009401/08/02 18:20:31  5-MIN KMSN 090020Z 20006KT 10SM CLR 04/M03 A2959 1170 59 200 200/06 RMK AO2
14837KMSN MSN20020108182509401/08/02 18:25:31  5-MIN KMSN 090025Z 20007KT 10SM CLR 04/M03 A2958 1180 59 200 200/07 RMK AO2
14837KMSN MSN20020108183009401/08/02 18:30:31  5-MIN KMSN 090030Z 20006KT 10SM CLR 04/M03 A2958 1180 57 200 200/06 RMK AO2
14837KMSN MSN20020108183509401/08/02 18:35:31  5-MIN KMSN 090035Z 21007KT 10SM CLR 04/M03 A2958 1180 57 200 210/07 RMK AO2
14837KMSN MSN20020108184009401/08/02 18:40:31  5-MIN KMSN 090040Z 21007KT 10SM CLR 05/M03 A2958 1180 55 300 210/07 RMK AO2
14837KMSN MSN20020108184509401/08/02 18:45:31  5-MIN KMSN 090045Z 21008KT 10SM CLR 04/M03 A2958 1180 57 200 210/08 RMK AO2
14837KMSN MSN20020108185011101/08/02 18:50:31  5-MIN KMSN 090050Z 22009KT 10SM CLR 05/M03 A2958 1180 55 300 210/09 RMK AO2 SLP025 T00501033
14837KMSN MSN20020108185509401/08/02 18:55:31  5-MIN KMSN 090055Z 22009KT 10SM CLR 05/M03 A2958 1180 55 300 220/09 RMK AO2
14837KMSN MSN20020108190009401/08/02 19:00:31  5-MIN KMSN 090100Z 22008KT 10SM CLR 05/M03 A2958 1180 55 300 220/08 RMK AO2
14837KMSN MSN20020108190509401/08/02 19:05:31  5-MIN KMSN 090105Z 22007KT 10SM CLR 05/M03 A2958 1180 57 300 220/07 RMK AO2
14837KMSN MSN20020108191009401/08/02 19:10:31  5-MIN KMSN 090110Z 23006KT 10SM CLR 05/M03 A2958 1180 57 300 230/06 RMK AO2
14837KMSN MSN20020108191509401/08/02 19:15:31  5-MIN KMSN 090115Z 22007KT 10SM CLR 05/M03 A2957 1190 57 300 220/07 RMK AO2
14837KMSN MSN20020108192009401/08/02 19:20:31  5-MIN KMSN 090120Z 22007KT 10SM CLR 05/M03 A2957 1190 57 300 220/07 RMK AO2
14837KMSN MSN20020108192509401/08/02 19:25:31  5-MIN KMSN 090125Z 22009KT 10SM CLR 05/M03 A2957 1190 57 300 220/09 RMK AO2
14837KMSN MSN20020108193010001/08/02 19:30:31  5-MIN KMSN 090130Z 22010G15KT 10SM CLR 05/M03 A2956 1200 57 300 220/10G15 RMK AO2
14837KMSN MSN20020108193509401/08/02 19:35:31  5-MIN KMSN 090135Z 22009KT 10SM CLR 05/M03 A2956 1200 57 300 220/09 RMK AO2
14837KMSN MSN20020108194009401/08/02 19:40:31  5-MIN KMSN 090140Z 22009KT 10SM CLR 05/M03 A2956 1200 57 300 220/09 RMK AO2
14837KMSN MSN20020108194509401/08/02 19:45:31  5-MIN KMSN 090145Z 22008KT 10SM CLR 05/M03 A2956 1200 57 300 220/08 RMK AO2
14837KMSN MSN20020108195011101/08/02 19:50:31  5-MIN KMSN 090150Z 22009KT 10SM CLR 05/M03 A2956 1200 57 300 220/09 RMK AO2 SLP019 T00501028
14837KMSN MSN20020108195509401/08/02 19:55:31  5-MIN KMSN 090155Z 22009KT 10SM CLR 05/M03 A2956 1200 57 300 220/09 RMK AO2
14837KMSN MSN20020108200009401/08/02 20:00:31  5-MIN KMSN 090200Z 22009KT 10SM CLR 05/M03 A2956 1200 57 300 220/09 RMK AO2
14837KMSN MSN20020108200509401/08/02 20:05:31  5-MIN KMSN 090205Z 22009KT 10SM CLR 05/M03 A2955 1210 57 300 220/09 RMK AO2
14837KMSN MSN20020108201009401/08/02 20:10:31  5-MIN KMSN 090210Z 22009KT 10SM CLR 05/M03 A2955 1200 57 300 220/09 RMK AO2
14837KMSN MSN20020108201509401/08/02 20:15:31  5-MIN KMSN 090215Z 22009KT 10SM CLR 06/M02 A2955 1210 57 400 220/09 RMK AO2
14837KMSN MSN20020108202009401/08/02 20:20:31  5-MIN KMSN 090220Z 22008KT 10SM CLR 06/M02 A2956 1200 57 400 220/08 RMK AO2
14837KMSN MSN20020108202509401/08/02 20:25:31  5-MIN KMSN 090225Z 22008KT 10SM CLR 05/M02 A2956 1200 59 300 220/08 RMK AO2
14837KMSN MSN20020108203009401/08/02 20:30:31  5-MIN KMSN 090230Z 22008KT 10SM CLR 06/M02 A2956 1200 57 400 220/08 RMK AO2
14837KMSN MSN20020108203509401/08/02 20:35:31  5-MIN KMSN 090235Z 22007KT 10SM CLR 05/M02 A2956 1200 59 300 220/07 RMK AO2
14837KMSN MSN20020108204009401/08/02 20:40:31  5-MIN KMSN 090240Z 21007KT 10SM CLR 05/M02 A2955 1210 59 300 210/07 RMK AO2
14837KMSN MSN20020108204509401/08/02 20:45:31  5-MIN KMSN 090245Z 22007KT 10SM CLR 05/M02 A2955 1210 59 300 220/07 RMK AO2
14837KMSN MSN20020108205011701/08/02 20:50:31  5-MIN KMSN 090250Z 22008KT 10SM CLR 06/M02 A2956 1200 57 400 220/08 RMK AO2 SLP017 T00561022 58003
14837KMSN MSN20020108205509401/08/02 20:55:31  5-MIN KMSN 090255Z 22007KT 10SM CLR 06/M02 A2955 1200 57 400 220/07 RMK AO2
14837KMSN MSN20020108210009401/08/02 21:00:31  5-MIN KMSN 090300Z 21008KT 10SM CLR 06/M02 A2955 1210 55 500 210/08 RMK AO2
14837KMSN MSN20020108210509401/08/02 21:05:31  5-MIN KMSN 090305Z 22008KT 10SM CLR 06/M02 A2955 1210 57 500 220/08 RMK AO2
14837KMSN MSN20020108211009401/08/02 21:10:31  5-MIN KMSN 090310Z 21009KT 10SM CLR 06/M02 A2954 1220 57 500 210/09 RMK AO2
14837KMSN MSN20020108211509401/08/02 21:15:31  5-MIN KMSN 090315Z 21007KT 10SM CLR 06/M02 A2954 1220 57 500 210/07 RMK AO2
14837KMSN MSN20020108212009401/08/02 21:20:31  5-MIN KMSN 090320Z 22009KT 10SM CLR 06/M02 A2954 1220 57 500 220/09 RMK AO2
14837KMSN MSN20020108212510001/08/02 21:25:31  5-MIN KMSN 090325Z 22010G16KT 10SM CLR 06/M02 A2954 1220 57 500 220/10G16 RMK AO2
14837KMSN MSN20020108213010001/08/02 21:30:31  5-MIN KMSN 090330Z 22010G16KT 10SM CLR 06/M02 A2954 1220 57 500 220/10G16 RMK AO2
14837KMSN MSN20020108213509401/08/02 21:35:31  5-MIN KMSN 090335Z 22009KT 10SM CLR 06/M02 A2954 1220 57 500 220/09 RMK AO2
14837KMSN MSN20020108214009401/08/02 21:40:31  5-MIN KMSN 090340Z 22009KT 10SM CLR 06/M02 A2954 1220 57 500 220/09 RMK AO2
14837KMSN MSN20020108214509401/08/02 21:45:31  5-MIN KMSN 090345Z 22009KT 10SM CLR 06/M02 A2954 1220 57 500 220/09 RMK AO2
14837KMSN MSN20020108215011101/08/02 21:50:31  5-MIN KMSN 090350Z VRB06KT 10SM CLR 06/M02 A2954 1220 57 500 VRB/06 RMK AO2 SLP010 T00611017
14837KMSN MSN20020108215509401/08/02 21:55:31  5-MIN KMSN 090355Z 22007KT 10SM CLR 06/M01 A2954 1220 60 500 220/07 RMK AO2
14837KMSN MSN20020108220009401/08/02 22:00:31  5-MIN KMSN 090400Z 22007KT 10SM CLR 06/M01 A2954 1220 60 500 220/07 RMK AO2
14837KMSN MSN20020108220509401/08/02 22:05:31  5-MIN KMSN 090405Z 21008KT 10SM CLR 06/M01 A2953 1230 60 500 210/08 RMK AO2
14837KMSN MSN20020108221009401/08/02 22:10:31  5-MIN KMSN 090410Z 22009KT 10SM CLR 06/M01 A2953 1230 60 500 220/09 RMK AO2
14837KMSN MSN20020108221509401/08/02 22:15:31  5-MIN KMSN 090415Z 22009KT 10SM CLR 06/M01 A2953 1230 60 500 220/09 RMK AO2
14837KMSN MSN20020108222009401/08/02 22:20:31  5-MIN KMSN 090420Z 22008KT 10SM CLR 07/M01 A2953 1230 57 600 220/08 RMK AO2
14837KMSN MSN20020108222511001/08/02 22:25:31  5-MIN KMSN 090425Z 23007KT 180V250 10SM CLR 06/M01 A2953 1220 60 500 230/07 180V250 RMK AO2
14837KMSN MSN20020108223009401/08/02 22:30:31  5-MIN KMSN 090430Z 22008KT 10SM CLR 06/M01 A2953 1230 60 500 220/08 RMK AO2
14837KMSN MSN20020108223509401/08/02 22:35:31  5-MIN KMSN 090435Z 22008KT 10SM CLR 06/M01 A2953 1220 60 500 220/08 RMK AO2
14837KMSN MSN20020108224009401/08/02 22:40:31  5-MIN KMSN 090440Z 23006KT 10SM CLR 06/M01 A2954 1220 60 500 230/06 RMK AO2
14837KMSN MSN20020108224509401/08/02 22:45:31  5-MIN KMSN 090445Z 23009KT 10SM CLR 06/M01 A2954 1220 60 500 230/09 RMK AO2
14837KMSN MSN20020108225011101/08/02 22:50:31  5-MIN KMSN 090450Z 22008KT 10SM CLR 06/M01 A2954 1220 60 500 220/08 RMK AO2 SLP008 T00611011
14837KMSN MSN20020108225509401/08/02 22:55:31  5-MIN KMSN 090455Z 23009KT 10SM CLR 06/M01 A2953 1230 60 500 220/09 RMK AO2
14837KMSN MSN20020108230009401/08/02 23:00:31  5-MIN KMSN 090500Z 23008KT 10SM CLR 06/M01 A2953 1230 62 500 230/08 RMK AO2
14837KMSN MSN20020108230509401/08/02 23:05:31  5-MIN KMSN 090505Z 23008KT 10SM CLR 06/M01 A2953 1230 62 500 220/08 RMK AO2
14837KMSN MSN20020108231009401/08/02 23:10:31  5-MIN KMSN 090510Z 23008KT 10SM CLR 06/M01 A2953 1220 62 500 220/08 RMK AO2
14837KMSN MSN20020108231509401/08/02 23:15:31  5-MIN KMSN 090515Z 22009KT 10SM CLR 06/M01 A2953 1230 62 500 220/09 RMK AO2
14837KMSN MSN20020108232009401/08/02 23:20:31  5-MIN KMSN 090520Z 23009KT 10SM CLR 06/M01 A2953 1230 62 500 220/09 RMK AO2
14837KMSN MSN20020108232509401/08/02 23:25:31  5-MIN KMSN 090525Z 23008KT 10SM CLR 06/M01 A2953 1230 62 500 230/08 RMK AO2
14837KMSN MSN20020108233009401/08/02 23:30:31  5-MIN KMSN 090530Z 23009KT 10SM CLR 06/M01 A2953 1230 65 400 230/09 RMK AO2
14837KMSN MSN20020108233509401/08/02 23:35:31  5-MIN KMSN 090535Z 22009KT 10SM CLR 06/M01 A2952 1230 62 500 220/09 RMK AO2
14837KMSN MSN20020108234009401/08/02 23:40:31  5-MIN KMSN 090540Z 23008KT 10SM CLR 06/M01 A2952 1230 65 400 230/08 RMK AO2
14837KMSN MSN20020108234509401/08/02 23:45:31  5-MIN KMSN 090545Z 23008KT 10SM CLR 06/M01 A2953 1230 65 400 230/08 RMK AO2
14837KMSN MSN20020108235013901/08/02 23:50:31  5-MIN KMSN 090550Z 23006KT 10SM CLR 06/M01 A2953 1230 65 400 230/06 RMK AO2 SLP006 T00561006 10067 20033 400671050 55012
14837KMSN MSN20020108235509401/08/02 23:55:31  5-MIN KMSN 090555Z 23006KT 10SM CLR 05/M01 A2953 1230 67 400 230/06 RMK AO2
14837KMSN MSN20020109000009401/09/02 00:00:31  5-MIN KMSN 090600Z 22007KT 10SM CLR 05/M01 A2953 1230 67 400 220/07 RMK AO2
14837KMSN MSN20020109000509401/09/02 00:05:31  5-MIN KMSN 090605Z VRB06KT 10SM CLR 05/M01 A2953 1230 67 400 VRB/06 RMK AO2
14837KMSN MSN20020109001009401/09/02 00:10:31  5-MIN KMSN 090610Z 22007KT 10SM CLR 05/M01 A2952 1240 67 400 220/07 RMK AO2
14837KMSN MSN20020109001509401/09/02 00:15:31  5-MIN KMSN 090615Z 22007KT 10SM CLR 05/M01 A2952 1240 67 400 220/07 RMK AO2
14837KMSN MSN20020109002009401/09/02 00:20:31  5-MIN KMSN 090620Z 22007KT 10SM CLR 05/M01 A2952 1240 67 400 220/07 RMK AO2
14837KMSN MSN20020109002509401/09/02 00:25:31  5-MIN KMSN 090625Z 23007KT 10SM CLR 05/M01 A2952 1240 67 400 220/07 RMK AO2
14837KMSN MSN20020109003009301/09/02 00:30:31  5-MIN KMSN 090630Z 22007KT 10SM CLR 05/00 A2952 1240 70 400 220/07 RMK AO2
14837KMSN MSN20020109003509301/09/02 00:35:31  5-MIN KMSN 090635Z 22007KT 10SM CLR 05/00 A2952 1240 70 400 220/07 RMK AO2
14837KMSN MSN20020109004009301/09/02 00:40:31  5-MIN KMSN 090640Z 22007KT 10SM CLR 05/00 A2952 1240 70 400 220/07 RMK AO2
14837KMSN MSN20020109004509301/09/02 00:45:31  5-MIN KMSN 090645Z 22006KT 10SM CLR 05/00 A2951 1240 70 400 220/06 RMK AO2
14837KMSN MSN20020109005011001/09/02 00:50:31  5-MIN KMSN 090650Z 22007KT 10SM CLR 05/00 A2951 1250 70 400 220/07 RMK AO2 SLP000 T00500000
14837KMSN MSN20020109005509301/09/02 00:55:31  5-MIN KMSN 090655Z 23006KT 10SM CLR 05/00 A2951 1250 70 400 230/06 RMK AO2
14837KMSN MSN20020109010009301/09/02 01:00:31  5-MIN KMSN 090700Z 23006KT 10SM CLR 05/00 A2951 1250 70 400 230/06 RMK AO2
14837KMSN MSN20020109010509301/09/02 01:05:31  5-MIN KMSN 090705Z VRB06KT 10SM CLR 05/00 A2951 1250 70 400 VRB/06 RMK AO2
14837KMSN MSN20020109011009301/09/02 01:10:31  5-MIN KMSN 090710Z 24008KT 10SM CLR 06/00 A2951 1250 67 400 240/08 RMK AO2
14837KMSN MSN20020109011509301/09/02 01:15:31  5-MIN KMSN 090715Z 23009KT 10SM CLR 05/00 A2951 1250 70 400 230/09 RMK AO2
14837KMSN MSN20020109012009301/09/02 01:20:31  5-MIN KMSN 090720Z 22007KT 10SM CLR 05/00 A2951 1250 70 400 220/07 RMK AO2
14837KMSN MSN20020109012509301/09/02 01:25:31  5-MIN KMSN 090725Z 22008KT 10SM CLR 05/00 A2951 1250 70 400 220/08 RMK AO2
14837KMSN MSN20020109013009301/09/02 01:30:31  5-MIN KMSN 090730Z 22008KT 10SM CLR 05/00 A2950 1250 70 400 220/08 RMK AO2
14837KMSN MSN20020109013509301/09/02 01:35:31  5-MIN KMSN 090735Z 23006KT 10SM CLR 05/00 A2950 1250 70 400 220/06 RMK AO2
14837KMSN MSN20020109014009301/09/02 01:40:31  5-MIN KMSN 090740Z 24005KT 10SM CLR 05/00 A2951 1240 70 400 240/05 RMK AO2
14837KMSN MSN20020109014509301/09/02 01:45:31  5-MIN KMSN 090745Z 23006KT 10SM CLR 05/00 A2951 1240 70 400 230/06 RMK AO2
14837KMSN MSN20020109015011001/09/02 01:50:31  5-MIN KMSN 090750Z VRB04KT 10SM CLR 04/00 A2951 1240 73 300 VRB/04 RMK AO2 SLP999 T00440000
14837KMSN MSN20020109015509301/09/02 01:55:31  5-MIN KMSN 090755Z 23006KT 10SM CLR 04/00 A2952 1240 73 300 230/06 RMK AO2
14837KMSN MSN20020109020009301/09/02 02:00:31  5-MIN KMSN 090800Z VRB06KT 10SM CLR 04/00 A2952 1240 73 300 VRB/06 RMK AO2
14837KMSN MSN20020109020509301/09/02 02:05:31  5-MIN KMSN 090805Z 23006KT 10SM CLR 04/00 A2952 1240 73 300 230/06 RMK AO2
14837KMSN MSN20020109021009301/09/02 02:10:31  5-MIN KMSN 090810Z 22006KT 10SM CLR 05/00 A2951 1240 70 400 220/06 RMK AO2
14837KMSN MSN20020109021509301/09/02 02:15:31  5-MIN KMSN 090815Z 22007KT 10SM CLR 05/00 A2951 1250 70 400 220/07 RMK AO2
14837KMSN MSN20020109022009301/09/02 02:20:31  5-MIN KMSN 090820Z 24006KT 10SM CLR 05/00 A2951 1240 70 400 230/06 RMK AO2
14837KMSN MSN20020109022509301/09/02 02:25:31  5-MIN KMSN 090825Z VRB06KT 10SM CLR 04/00 A2951 1240 73 300 VRB/06 RMK AO2
14837KMSN MSN20020109023009301/09/02 02:30:31  5-MIN KMSN 090830Z 23007KT 10SM CLR 04/00 A2951 1240 73 300 230/07 RMK AO2
14837KMSN MSN20020109023509301/09/02 02:35:31  5-MIN KMSN 090835Z VRB05KT 10SM CLR 04/00 A2951 1240 73 300 VRB/05 RMK AO2
14837KMSN MSN20020109024009301/09/02 02:40:31  5-MIN KMSN 090840Z VRB05KT 10SM CLR 04/01 A2951 1250 76 300 VRB/05 RMK AO2
14837KMSN MSN20020109024509301/09/02 02:45:31  5-MIN KMSN 090845Z 22006KT 10SM CLR 04/01 A2951 1250 76 300 220/06 RMK AO2
14837KMSN MSN20020109025011601/09/02 02:50:31  5-MIN KMSN 090850Z 23005KT 10SM CLR 05/00 A2951 1250 70 400 230/05 RMK AO2 SLP997 T00500000 56011
14837KMSN MSN20020109025509301/09/02 02:55:31  5-MIN KMSN 090855Z VRB05KT 10SM CLR 04/00 A2950 1250 73 300 VRB/05 RMK AO2
14837KMSN MSN20020109030009301/09/02 03:00:31  5-MIN KMSN 090900Z 23007KT 10SM CLR 04/00 A2950 1250 73 300 230/07 RMK AO2
14837KMSN MSN20020109030509301/09/02 03:05:31  5-MIN KMSN 090905Z 23005KT 10SM CLR 04/00 A2950 1250 73 300 230/05 RMK AO2
14837KMSN MSN20020109031009301/09/02 03:10:31  5-MIN KMSN 090910Z VRB04KT 10SM CLR 04/00 A2950 1260 73 300 VRB/04 RMK AO2
14837KMSN MSN20020109031509301/09/02 03:15:31  5-MIN KMSN 090915Z VRB05KT 10SM CLR 04/00 A2950 1260 73 300 VRB/05 RMK AO2
14837KMSN MSN20020109032009301/09/02 03:20:31  5-MIN KMSN 090920Z VRB06KT 10SM CLR 05/00 A2950 1260 70 400 VRB/06 RMK AO2
14837KMSN MSN20020109032509301/09/02 03:25:31  5-MIN KMSN 090925Z VRB05KT 10SM CLR 05/00 A2950 1260 70 400 VRB/05 RMK AO2
14837KMSN MSN20020109033009301/09/02 03:30:31  5-MIN KMSN 090930Z VRB05KT 10SM CLR 05/00 A2950 1260 70 400 VRB/05 RMK AO2
14837KMSN MSN20020109033509301/09/02 03:35:31  5-MIN KMSN 090935Z VRB06KT 10SM CLR 05/00 A2950 1260 70 400 VRB/06 RMK AO2
14837KMSN MSN20020109034010901/09/02 03:40:31  5-MIN KMSN 090940Z 24007KT 200V330 10SM CLR 05/01 A2950 1260 73 400 240/07 200V330 RMK AO2
14837KMSN MSN20020109034509301/09/02 03:45:31  5-MIN KMSN 090945Z 24006KT 10SM CLR 05/01 A2949 1260 73 400 240/06 RMK AO2
14837KMSN MSN20020109035011001/09/02 03:50:31  5-MIN KMSN 090950Z 25005KT 10SM CLR 05/01 A2949 1260 73 400 250/05 RMK AO2 SLP993 T00500006
14837KMSN MSN20020109035509301/09/02 03:55:31  5-MIN KMSN 090955Z VRB05KT 10SM CLR 06/01 A2950 1260 70 500 VRB/05 RMK AO2
14837KMSN MSN20020109040010901/09/02 04:00:31  5-MIN KMSN 091000Z 25007KT 200V270 10SM CLR 06/01 A2950 1260 70 500 240/07 200V270 RMK AO2
14837KMSN MSN20020109040509301/09/02 04:05:31  5-MIN KMSN 091005Z VRB05KT 10SM CLR 06/01 A2950 1250 70 500 VRB/05 RMK AO2
14837KMSN MSN20020109041009301/09/02 04:10:31  5-MIN KMSN 091010Z 23006KT 10SM CLR 06/01 A2950 1250 70 500 230/06 RMK AO2
14837KMSN MSN20020109041509301/09/02 04:15:31  5-MIN KMSN 091015Z 24005KT 10SM CLR 05/00 A2950 1250 70 400 230/05 RMK AO2
14837KMSN MSN20020109042009301/09/02 04:20:31  5-MIN KMSN 091020Z 23006KT 10SM CLR 06/00 A2950 1250 67 500 230/06 RMK AO2
14837KMSN MSN20020109042509301/09/02 04:25:31  5-MIN KMSN 091025Z 23006KT 10SM CLR 05/00 A2950 1260 70 400 230/06 RMK AO2
14837KMSN MSN20020109043009301/09/02 04:30:31  5-MIN KMSN 091030Z 23006KT 10SM CLR 05/00 A2950 1260 70 400 230/06 RMK AO2
14837KMSN MSN20020109043509301/09/02 04:35:31  5-MIN KMSN 091035Z 24006KT 10SM CLR 05/01 A2950 1260 73 400 240/06 RMK AO2
14837KMSN MSN20020109044009301/09/02 04:40:31  5-MIN KMSN 091040Z 24007KT 10SM CLR 06/01 A2950 1260 70 500 240/07 RMK AO2
14837KMSN MSN20020109044509301/09/02 04:45:31  5-MIN KMSN 091045Z 23007KT 10SM CLR 06/01 A2950 1260 70 500 230/07 RMK AO2
14837KMSN MSN20020109045011001/09/02 04:50:31  5-MIN KMSN 091050Z 23006KT 10SM CLR 06/00 A2949 1260 67 500 230/06 RMK AO2 SLP993 T00560000
14837KMSN MSN20020109045509301/09/02 04:55:31  5-MIN KMSN 091055Z 24006KT 10SM CLR 05/00 A2949 1260 70 400 230/06 RMK AO2
14837KMSN MSN20020109050009301/09/02 05:00:31  5-MIN KMSN 091100Z 24006KT 10SM CLR 06/00 A2950 1260 67 500 240/06 RMK AO2
14837KMSN MSN20020109050509301/09/02 05:05:31  5-MIN KMSN 091105Z 23005KT 10SM CLR 05/00 A2950 1260 70 400 230/05 RMK AO2
14837KMSN MSN20020109051009301/09/02 05:10:31  5-MIN KMSN 091110Z 23005KT 10SM CLR 05/00 A2950 1260 70 400 230/05 RMK AO2
14837KMSN MSN20020109051509301/09/02 05:15:31  5-MIN KMSN 091115Z 22006KT 10SM CLR 05/00 A2950 1260 70 400 220/06 RMK AO2
14837KMSN MSN20020109052009301/09/02 05:20:31  5-MIN KMSN 091120Z 22007KT 10SM CLR 06/00 A2950 1260 67 500 220/07 RMK AO2
14837KMSN MSN20020109052509301/09/02 05:25:31  5-MIN KMSN 091125Z 22007KT 10SM CLR 05/00 A2950 1260 70 400 220/07 RMK AO2
14837KMSN MSN20020109053009301/09/02 05:30:31  5-MIN KMSN 091130Z 22007KT 10SM CLR 06/00 A2949 1260 67 500 220/07 RMK AO2
14837KMSN MSN20020109053509301/09/02 05:35:31  5-MIN KMSN 091135Z 22008KT 10SM CLR 06/00 A2949 1260 67 500 220/08 RMK AO2
14837KMSN MSN20020109054009301/09/02 05:40:31  5-MIN KMSN 091140Z 23009KT 10SM CLR 06/00 A2949 1260 65 500 230/09 RMK AO2
14837KMSN MSN20020109054510901/09/02 05:45:31  5-MIN KMSN 091145Z 25007KT 210V280 10SM CLR 06/00 A2950 1260 67 500 240/07 210V280 RMK AO2
14837KMSN MSN20020109055012801/09/02 05:50:31  5-MIN KMSN 091150Z 26008KT 10SM CLR 07/01 A2950 1250 62 700 260/08 RMK AO2 SLP994 T00720006 10072 20044 56007
14837KMSN MSN20020109055509901/09/02 05:55:31  5-MIN KMSN 091155Z 26011G16KT 10SM CLR 08/01 A2950 1250 60 700 260/11G16 RMK AO2
14837KMSN MSN20020109060009901/09/02 06:00:31  5-MIN KMSN 091200Z 26008G16KT 10SM CLR 08/01 A2951 1250 60 700 260/08G16 RMK AO2
14837KMSN MSN20020109060509301/09/02 06:05:31  5-MIN KMSN 091205Z 26008KT 10SM CLR 08/01 A2951 1250 60 700 260/08 RMK AO2
14837KMSN MSN20020109061010901/09/02 06:10:31  5-MIN KMSN 091210Z 26007KT 220V300 10SM CLR 08/01 A2950 1250 60 700 260/07 220V300 RMK AO2
14837KMSN MSN20020109061509301/09/02 06:15:31  5-MIN KMSN 091215Z 26008KT 10SM CLR 08/01 A2951 1250 60 700 260/08 RMK AO2
14837KMSN MSN20020109062009301/09/02 06:20:31  5-MIN KMSN 091220Z 26009KT 10SM CLR 08/01 A2951 1250 60 700 260/09 RMK AO2
14837KMSN MSN20020109062509301/09/02 06:25:31  5-MIN KMSN 091225Z 27007KT 10SM CLR 08/01 A2951 1240 60 700 270/07 RMK AO2
14837KMSN MSN20020109063009301/09/02 06:30:31  5-MIN KMSN 091230Z 27009KT 10SM CLR 08/01 A2951 1240 60 700 270/09 RMK AO2
14837KMSN MSN20020109063509301/09/02 06:35:31  5-MIN KMSN 091235Z 27007KT 10SM CLR 08/01 A2952 1240 60 700 270/07 RMK AO2
14837KMSN MSN20020109064009301/09/02 06:40:31  5-MIN KMSN 091240Z 27006KT 10SM CLR 08/00 A2952 1240 58 700 270/06 RMK AO2
14837KMSN MSN20020109064509301/09/02 06:45:31  5-MIN KMSN 091245Z 28007KT 10SM CLR 07/00 A2952 1230 60 600 280/07 RMK AO2
14837KMSN MSN20020109065011001/09/02 06:50:31  5-MIN KMSN 091250Z VRB06KT 10SM CLR 07/00 A2952 1230 60 600 VRB/06 RMK AO2 SLP002 T00720000
14837KMSN MSN20020109065509301/09/02 06:55:31  5-MIN KMSN 091255Z VRB06KT 10SM CLR 07/00 A2952 1240 60 600 VRB/06 RMK AO2
14837KMSN MSN20020109070009301/09/02 07:00:31  5-MIN KMSN 091300Z 26006KT 10SM CLR 07/00 A2952 1230 60 600 260/06 RMK AO2
14837KMSN MSN20020109070509301/09/02 07:05:31  5-MIN KMSN 091305Z 27006KT 10SM CLR 07/01 A2952 1230 62 600 270/06 RMK AO2
14837KMSN MSN20020109071009301/09/02 07:10:31  5-MIN KMSN 091310Z 27006KT 10SM CLR 07/01 A2952 1230 62 600 270/06 RMK AO2
14837KMSN MSN20020109071510901/09/02 07:15:31  5-MIN KMSN 091315Z 26007KT 230V290 10SM CLR 08/01 A2953 1230 60 700 260/07 230V290 RMK AO2
14837KMSN MSN20020109072009301/09/02 07:20:31  5-MIN KMSN 091320Z 26009KT 10SM CLR 08/01 A2952 1230 60 700 260/09 RMK AO2
14837KMSN MSN20020109072510901/09/02 07:25:31  5-MIN KMSN 091325Z 27007KT 240V300 10SM CLR 08/01 A2952 1230 60 700 260/07 240V300 RMK AO2
14837KMSN MSN20020109073009301/09/02 07:30:31  5-MIN KMSN 091330Z 26010KT 10SM CLR 08/01 A2952 1230 60 700 260/10 RMK AO2
14837KMSN MSN20020109073510901/09/02 07:35:31  5-MIN KMSN 091335Z 28008KT 230V310 10SM CLR 08/01 A2952 1230 58 800 280/08 230V310 RMK AO2
14837KMSN MSN20020109074009301/09/02 07:40:31  5-MIN KMSN 091340Z 28007KT 10SM CLR 08/01 A2952 1230 60 700 270/07 RMK AO2
14837KMSN MSN20020109074509901/09/02 07:45:31  5-MIN KMSN 091345Z 27010G14KT 10SM CLR 08/01 A2953 1230 60 700 270/10G14 RMK AO2
14837KMSN MSN20020109075011601/09/02 07:50:31  5-MIN KMSN 091350Z 27008G14KT 10SM CLR 08/01 A2952 1230 58 800 270/08G14 RMK AO2 SLP002 T00830006
14837KMSN MSN20020109075511501/09/02 07:55:31  5-MIN KMSN 091355Z 26008G15KT 220V280 10SM CLR 08/01 A2952 1240 60 700 250/08G15 220V280 RMK AO2
14837KMSN MSN20020109080009901/09/02 08:00:31  5-MIN KMSN 091400Z 26008G15KT 10SM CLR 08/01 A2952 1230 60 700 260/08G15 RMK AO2
14837KMSN MSN20020109080510901/09/02 08:05:31  5-MIN KMSN 091405Z 27008KT 240V300 10SM CLR 08/01 A2952 1230 60 700 270/08 240V300 RMK AO2
14837KMSN MSN20020109081009301/09/02 08:10:31  5-MIN KMSN 091410Z 26007KT 10SM CLR 08/01 A2952 1230 60 700 260/07 RMK AO2
14837KMSN MSN20020109081509901/09/02 08:15:31  5-MIN KMSN 091415Z 28009G15KT 10SM CLR 08/01 A2953 1230 60 700 270/09G15 RMK AO2
14837KMSN MSN20020109082009901/09/02 08:20:31  5-MIN KMSN 091420Z 29010G16KT 10SM CLR 08/01 A2954 1220 60 700 290/10G16 RMK AO2
14837KMSN MSN20020109082509901/09/02 08:25:31  5-MIN KMSN 091425Z 27011G16KT 10SM CLR 08/01 A2954 1210 60 700 270/11G16 RMK AO2
14837KMSN MSN20020109083009901/09/02 08:30:31  5-MIN KMSN 091430Z 27008G16KT 10SM CLR 08/01 A2955 1210 60 700 270/08G16 RMK AO2
14837KMSN MSN20020109083509901/09/02 08:35:31  5-MIN KMSN 091435Z 27010G16KT 10SM CLR 08/01 A2954 1220 60 700 270/10G16 RMK AO2
14837KMSN MSN20020109084009901/09/02 08:40:31  5-MIN KMSN 091440Z 27012G16KT 10SM CLR 08/01 A2954 1220 58 700 260/12G16 RMK AO2
14837KMSN MSN20020109084509901/09/02 08:45:31  5-MIN KMSN 091445Z 27011G17KT 10SM CLR 08/01 A2954 1210 58 700 260/11G17 RMK AO2
14837KMSN MSN20020109085012201/09/02 08:50:31  5-MIN KMSN 091450Z 27010G17KT 10SM CLR 08/01 A2955 1210 58 700 270/10G17 RMK AO2 SLP009 T00830006 55001
14837KMSN MSN20020109085509901/09/02 08:55:31  5-MIN KMSN 091455Z 27010G16KT 10SM CLR 08/01 A2955 1210 58 700 270/10G16 RMK AO2
14837KMSN MSN20020109090009901/09/02 09:00:31  5-MIN KMSN 091500Z 27008G16KT 10SM CLR 08/01 A2955 1210 58 700 270/08G16 RMK AO2
14837KMSN MSN20020109090509901/09/02 09:05:31  5-MIN KMSN 091505Z 28010G16KT 10SM CLR 08/01 A2956 1200 60 700 280/10G16 RMK AO2
14837KMSN MSN20020109091009901/09/02 09:10:31  5-MIN KMSN 091510Z 28010G16KT 10SM CLR 08/01 A2956 1200 60 700 280/10G16 RMK AO2
14837KMSN MSN20020109091511501/09/02 09:15:31  5-MIN KMSN 091515Z 27009G16KT 240V310 10SM CLR 08/01 A2955 1210 60 700 270/09G16 240V310 RMK AO2
14837KMSN MSN20020109092009901/09/02 09:20:31  5-MIN KMSN 091520Z 26011G16KT 10SM CLR 08/01 A2955 1210 60 700 260/11G16 RMK AO2
14837KMSN MSN20020109092509301/09/02 09:25:31  5-MIN KMSN 091525Z 27010KT 10SM CLR 09/01 A2956 1200 58 800 270/10 RMK AO2
14837KMSN MSN20020109093009301/09/02 09:30:31  5-MIN KMSN 091530Z 28009KT 10SM CLR 09/01 A2957 1190 58 800 280/09 RMK AO2
14837KMSN MSN20020109093510601/09/02 09:35:31  5-MIN KMSN 091535Z 29008G15KT 10SM CLR 09/01 A2957 1190 58 800 280/08G15 RMK AO2 PRESRR
14837KMSN MSN20020109094009901/09/02 09:40:31  5-MIN KMSN 091540Z 28011G16KT 10SM CLR 09/01 A2958 1180 58 800 280/11G16 RMK AO2
14837KMSN MSN20020109094509901/09/02 09:45:31  5-MIN KMSN 091545Z 28012G17KT 10SM CLR 09/01 A2958 1180 58 800 280/12G17 RMK AO2
14837KMSN MSN20020109095011601/09/02 09:50:31  5-MIN KMSN 091550Z 28013G18KT 10SM CLR 09/01 A2959 1170 58 800 280/13G18 RMK AO2 SLP022 T00890011
14837KMSN MSN20020109095509901/09/02 09:55:31  5-MIN KMSN 091555Z 28010G18KT 10SM CLR 09/01 A2959 1180 58 800 280/10G18 RMK AO2
14837KMSN MSN20020109100010901/09/02 10:00:31  5-MIN KMSN 091600Z 28010KT 250V310 10SM CLR 09/01 A2959 1170 58 800 280/10 250V310 RMK AO2
14837KMSN MSN20020109100509901/09/02 10:05:31  5-MIN KMSN 091605Z 28008G15KT 10SM CLR 09/01 A2959 1180 58 800 280/08G15 RMK AO2
14837KMSN MSN20020109101009301/09/02 10:10:31  5-MIN KMSN 091610Z 28010KT 10SM CLR 09/01 A2959 1170 58 800 280/10 RMK AO2
14837KMSN MSN20020109101509901/09/02 10:15:31  5-MIN KMSN 091615Z 27010G16KT 10SM CLR 09/01 A2959 1170 56 800 270/10G16 RMK AO2
14837KMSN MSN20020109102009901/09/02 10:20:31  5-MIN KMSN 091620Z 27010G16KT 10SM CLR 09/01 A2959 1170 56 800 270/10G16 RMK AO2
14837KMSN MSN20020109102509301/09/02 10:25:31  5-MIN KMSN 091625Z 27011KT 10SM CLR 09/01 A2960 1170 56 800 270/11 RMK AO2
14837KMSN MSN20020109103009301/09/02 10:30:31  5-MIN KMSN 091630Z 27011KT 10SM CLR 09/01 A2960 1160 56 800 270/11 RMK AO2
14837KMSN MSN20020109103509901/09/02 10:35:31  5-MIN KMSN 091635Z 27011G18KT 10SM CLR 09/01 A2960 1170 56 800 270/11G18 RMK AO2
14837KMSN MSN20020109104009901/09/02 10:40:31  5-MIN KMSN 091640Z 26009G18KT 10SM CLR 09/01 A2960 1160 56 800 260/09G18 RMK AO2
14837KMSN MSN20020109104509301/09/02 10:45:31  5-MIN KMSN 091645Z 28008KT 10SM CLR 09/01 A2960 1160 56 800 280/08 RMK AO2
14837KMSN MSN20020109105012601/09/02 10:50:31  5-MIN KMSN 091650Z 27008KT 220V280 10SM CLR 10/06 A2960 1160 74 900 260/08 220V280 RMK AO2 SLP026 T01000056
14837KMSN MSN20020109105509301/09/02 10:55:31  5-MIN KMSN 091655Z 27009KT 10SM CLR 10/06 A2960 1170 77 900 270/09 RMK AO2
14837KMSN MSN20020109110009301/09/02 11:00:31  5-MIN KMSN 091700Z 27007KT 10SM CLR 10/06 A2960 1160 77 900 270/07 RMK AO2
14837KMSN MSN20020109110510901/09/02 11:05:31  5-MIN KMSN 091705Z 28007KT 240V300 10SM CLR 10/06 A2960 1160 77 900 280/07 240V300 RMK AO2
14837KMSN MSN20020109111009901/09/02 11:10:31  5-MIN KMSN 091710Z 27007G14KT 10SM CLR 10/06 A2960 1170 77 900 270/07G14 RMK AO2
14837KMSN MSN20020109111510901/09/02 11:15:31  5-MIN KMSN 091715Z 27007KT 230V290 10SM CLR 10/06 A2960 1170 74 900 260/07 230V290 RMK AO2
14837KMSN MSN20020109112009301/09/02 11:20:31  5-MIN KMSN 091720Z VRB06KT 10SM CLR 10/06 A2959 1170 74 900 VRB/06 RMK AO2
14837KMSN MSN20020109112510901/09/02 11:25:31  5-MIN KMSN 091725Z 27009KT 240V330 10SM CLR 10/06 A2959 1170 74 900 270/09 240V330 RMK AO2
14837KMSN MSN20020109113009301/09/02 11:30:31  5-MIN KMSN 091730Z 26005KT 10SM CLR 10/06 A2959 1170 74 900 260/05 RMK AO2
14837KMSN MSN20020109113509301/09/02 11:35:31  5-MIN KMSN 091735Z VRB06KT 10SM CLR 10/06 A2959 1170 74 900 VRB/06 RMK AO2
14837KMSN MSN20020109114009301/09/02 11:40:31  5-MIN KMSN 091740Z 26006KT 10SM CLR 10/06 A2959 1170 74 900 260/06 RMK AO2
14837KMSN MSN20020109114510901/09/02 11:45:31  5-MIN KMSN 091745Z 26007KT 220V300 10SM CLR 10/06 A2959 1170 74 900 260/07 220V300 RMK AO2
14837KMSN MSN20020109115014501/09/02 11:50:31  5-MIN KMSN 091750Z 27007KT 220V290 10SM CLR 11/07 A2959 1170 74 1000 270/07 220V290 RMK AO2 SLP025 T01110067 10111 20072 53015
14837KMSN MSN20020109115509401/09/02 11:55:31  5-MIN KMSN 091755Z VRB05KT 10SM CLR 11/02 A2959 1170 54 1000 VRB/05 RMK AO2
14837KMSN MSN20020109120009401/09/02 12:00:31  5-MIN KMSN 091800Z VRB06KT 10SM CLR 11/07 A2959 1170 77 1000 VRB/06 RMK AO2
14837KMSN MSN20020109120509401/09/02 12:05:31  5-MIN KMSN 091805Z 27009KT 10SM CLR 11/07 A2959 1170 77 1000 270/09 RMK AO2
14837KMSN MSN20020109121011001/09/02 12:10:31  5-MIN KMSN 091810Z 26008KT 230V290 10SM CLR 11/07 A2959 1170 77 1000 260/08 230V290 RMK AO2
14837KMSN MSN20020109121511001/09/02 12:15:31  5-MIN KMSN 091815Z 27009KT 250V310 10SM CLR 11/02 A2959 1170 54 1000 270/09 250V310 RMK AO2
14837KMSN MSN20020109122009401/09/02 12:20:31  5-MIN KMSN 091820Z 26007KT 10SM CLR 11/02 A2959 1170 54 1000 260/07 RMK AO2
14837KMSN MSN20020109122509401/09/02 12:25:31  5-MIN KMSN 091825Z 27008KT 10SM CLR 11/02 A2959 1170 54 1000 270/08 RMK AO2
14837KMSN MSN20020109123009401/09/02 12:30:31  5-MIN KMSN 091830Z 27009KT 10SM CLR 11/02 A2958 1180 54 1000 270/09 RMK AO2
14837KMSN MSN20020109123509401/09/02 12:35:31  5-MIN KMSN 091835Z 26009KT 10SM CLR 11/02 A2959 1170 54 1000 260/09 RMK AO2
14837KMSN MSN20020109124009401/09/02 12:40:31  5-MIN KMSN 091840Z 27008KT 10SM CLR 11/02 A2959 1170 54 1000 270/08 RMK AO2
14837KMSN MSN20020109124509401/09/02 12:45:31  5-MIN KMSN 091845Z VRB06KT 10SM CLR 11/02 A2959 1170 54 1000 VRB/06 RMK AO2
14837KMSN MSN20020109125012701/09/02 12:50:31  5-MIN KMSN 091850Z 27008KT 230V290 10SM CLR 11/02 A2959 1170 54 1000 260/08 230V290 RMK AO2 SLP023 T01060017
14837KMSN MSN20020109125509401/09/02 12:55:31  5-MIN KMSN 091855Z 26010KT 10SM CLR 11/02 A2959 1170 54 1000 260/10 RMK AO2
14837KMSN MSN20020109130009401/09/02 13:00:31  5-MIN KMSN 091900Z 26008KT 10SM CLR 11/02 A2959 1170 54 1000 260/08 RMK AO2
14837KMSN MSN20020109130509401/09/02 13:05:31  5-MIN KMSN 091905Z VRB06KT 10SM CLR 11/02 A2959 1170 54 1000 VRB/06 RMK AO2
14837KMSN MSN20020109131009401/09/02 13:10:31  5-MIN KMSN 091910Z 26007KT 10SM CLR 11/02 A2959 1170 54 1000 260/07 RMK AO2
14837KMSN MSN20020109131509401/09/02 13:15:31  5-MIN KMSN 091915Z 26008KT 10SM CLR 11/02 A2959 1170 54 1000 260/08 RMK AO2
14837KMSN MSN20020109132011001/09/02 13:20:31  5-MIN KMSN 091920Z 25007KT 220V290 10SM CLR 11/02 A2959 1170 52 1000 250/07 220V290 RMK AO2
14837KMSN MSN20020109132510001/09/02 13:25:31  5-MIN KMSN 091925Z 25008G14KT 10SM CLR 11/02 A2959 1170 52 1000 250/08G14 RMK AO2
14837KMSN MSN20020109133011001/09/02 13:30:31  5-MIN KMSN 091930Z 25007KT 210V280 10SM CLR 11/02 A2960 1170 52 1000 250/07 210V280 RMK AO2
14837KMSN MSN20020109133509401/09/02 13:35:31  5-MIN KMSN 091935Z 26007KT 10SM CLR 11/02 A2959 1170 52 1000 260/07 RMK AO2
14837KMSN MSN20020109134009401/09/02 13:40:31  5-MIN KMSN 091940Z 27009KT 10SM CLR 11/02 A2960 1170 52 1000 260/09 RMK AO2
14837KMSN MSN20020109134509401/09/02 13:45:31  5-MIN KMSN 091945Z 26007KT 10SM CLR 11/02 A2960 1160 52 1000 260/07 RMK AO2
14837KMSN MSN20020109135012701/09/02 13:50:31  5-MIN KMSN 091950Z 26009KT 210V290 10SM CLR 11/02 A2960 1160 52 1000 260/09 210V290 RMK AO2 SLP027 T01110017
14837KMSN MSN20020109135511001/09/02 13:55:31  5-MIN KMSN 091955Z 26007KT 230V310 10SM CLR 11/02 A2960 1160 52 1000 260/07 230V310 RMK AO2
14837KMSN MSN20020109140009401/09/02 14:00:31  5-MIN KMSN 092000Z 26008KT 10SM CLR 12/02 A2960 1160 52 1100 260/08 RMK AO2
14837KMSN MSN20020109140509401/09/02 14:05:31  5-MIN KMSN 092005Z 25007KT 10SM CLR 11/02 A2960 1160 52 1000 250/07 RMK AO2
14837KMSN MSN20020109141010001/09/02 14:10:31  5-MIN KMSN 092010Z 27008G15KT 10SM CLR 11/02 A2960 1160 52 1000 270/08G15 RMK AO2
14837KMSN MSN20020109141510001/09/02 14:15:31  5-MIN KMSN 092015Z 27008G15KT 10SM CLR 11/02 A2961 1160 52 1000 260/08G15 RMK AO2
14837KMSN MSN20020109142009401/09/02 14:20:31  5-MIN KMSN 092020Z 27007KT 10SM CLR 11/02 A2961 1150 52 1000 270/07 RMK AO2
14837KMSN MSN20020109142510001/09/02 14:25:31  5-MIN KMSN 092025Z 27010G16KT 10SM CLR 11/02 A2961 1150 52 1000 260/10G16 RMK AO2
14837KMSN MSN20020109143010001/09/02 14:30:31  5-MIN KMSN 092030Z VRB06G16KT 10SM CLR 11/02 A2961 1150 52 1000 VRB/06G16 RMK AO2
14837KMSN MSN20020109143509401/09/02 14:35:31  5-MIN KMSN 092035Z 26008KT 10SM CLR 11/02 A2961 1150 52 1000 260/08 RMK AO2
14837KMSN MSN20020109144011001/09/02 14:40:31  5-MIN KMSN 092040Z 28009KT 250V310 10SM CLR 11/02 A2962 1150 52 1000 270/09 250V310 RMK AO2
14837KMSN MSN20020109144509901/09/02 14:45:31  5-MIN KMSN 092045Z 28008G15KT 10SM CLR 11/02 A2962 1140 54 900 280/08G15 RMK AO2
14837KMSN MSN20020109145012201/09/02 14:50:31  5-MIN KMSN 092050Z VRB06G15KT 10SM CLR 11/02 A2962 1140 54 900 VRB/06G15 RMK AO2 SLP034 T01060017 50015
14837KMSN MSN20020109145509301/09/02 14:55:31  5-MIN KMSN 092055Z 27008KT 10SM CLR 11/02 A2962 1140 54 900 270/08 RMK AO2
14837KMSN MSN20020109150009301/09/02 15:00:31  5-MIN KMSN 092100Z 27007KT 10SM CLR 11/02 A2962 1140 54 900 270/07 RMK AO2
14837KMSN MSN20020109150509301/09/02 15:05:31  5-MIN KMSN 092105Z 26008KT 10SM CLR 11/02 A2962 1140 54 900 260/08 RMK AO2
14837KMSN MSN20020109151009301/09/02 15:10:31  5-MIN KMSN 092110Z 26008KT 10SM CLR 11/02 A2962 1140 54 900 260/08 RMK AO2
14837KMSN MSN20020109151509301/09/02 15:15:31  5-MIN KMSN 092115Z 25006KT 10SM CLR 11/02 A2962 1140 54 900 250/06 RMK AO2
14837KMSN MSN20020109152009301/09/02 15:20:31  5-MIN KMSN 092120Z 25007KT 10SM CLR 10/02 A2963 1140 56 800 250/07 RMK AO2
14837KMSN MSN20020109152509301/09/02 15:25:31  5-MIN KMSN 092125Z 26008KT 10SM CLR 10/01 A2963 1130 54 800 260/08 RMK AO2
14837KMSN MSN20020109153009301/09/02 15:30:31  5-MIN KMSN 092130Z VRB06KT 10SM CLR 10/01 A2963 1130 54 800 VRB/06 RMK AO2
14837KMSN MSN20020109153509301/09/02 15:35:31  5-MIN KMSN 092135Z VRB06KT 10SM CLR 10/01 A2963 1130 54 800 VRB/06 RMK AO2
14837KMSN MSN20020109154009301/09/02 15:40:31  5-MIN KMSN 092140Z 25008KT 10SM CLR 10/01 A2964 1130 54 800 250/08 RMK AO2
14837KMSN MSN20020109154509301/09/02 15:45:31  5-MIN KMSN 092145Z 26007KT 10SM CLR 10/01 A2964 1130 54 800 250/07 RMK AO2
14837KMSN MSN20020109155012601/09/02 15:50:31  5-MIN KMSN 092150Z 26008KT 220V280 10SM CLR 10/01 A2964 1130 54 800 260/08 220V280 RMK AO2 SLP039 T01000011
14837KMSN MSN20020109155509301/09/02 15:55:31  5-MIN KMSN 092155Z 25008KT 10SM CLR 10/01 A2964 1120 54 800 250/08 RMK AO2
14837KMSN MSN20020109160009301/09/02 16:00:31  5-MIN KMSN 092200Z 25007KT 10SM CLR 10/01 A2964 1120 54 800 250/07 RMK AO2
14837KMSN MSN20020109160510901/09/02 16:05:31  5-MIN KMSN 092205Z 25007KT 180V280 10SM CLR 10/01 A2964 1120 52 800 250/07 180V280 RMK AO2
14837KMSN MSN20020109161009301/09/02 16:10:31  5-MIN KMSN 092210Z VRB05KT 10SM CLR 10/01 A2964 1120 52 800 VRB/05 RMK AO2
14837KMSN MSN20020109161509301/09/02 16:15:31  5-MIN KMSN 092215Z VRB06KT 10SM CLR 09/01 A2965 1120 53 800 VRB/06 RMK AO2
14837KMSN MSN20020109162010901/09/02 16:20:31  5-MIN KMSN 092220Z 25007KT 220V280 10SM CLR 09/01 A2965 1120 53 800 250/07 220V280 RMK AO2
14837KMSN MSN20020109162509301/09/02 16:25:31  5-MIN KMSN 092225Z 25007KT 10SM CLR 09/01 A2965 1120 53 800 250/07 RMK AO2
14837KMSN MSN20020109163009301/09/02 16:30:31  5-MIN KMSN 092230Z VRB06KT 10SM CLR 09/01 A2965 1120 53 800 VRB/06 RMK AO2
14837KMSN MSN20020109163509301/09/02 16:35:31  5-MIN KMSN 092235Z VRB06KT 10SM CLR 09/00 A2965 1120 51 800 VRB/06 RMK AO2
14837KMSN MSN20020109164009301/09/02 16:40:31  5-MIN KMSN 092240Z VRB06KT 10SM CLR 09/00 A2965 1110 51 800 VRB/06 RMK AO2
14837KMSN MSN20020109164509301/09/02 16:45:31  5-MIN KMSN 092245Z 25007KT 10SM CLR 09/00 A2965 1110 51 800 250/07 RMK AO2
14837KMSN MSN20020109165011001/09/02 16:50:31  5-MIN KMSN 092250Z 25007KT 10SM CLR 09/00 A2965 1110 51 700 250/07 RMK AO2 SLP046 T00940000
14837KMSN MSN20020109165509301/09/02 16:55:31  5-MIN KMSN 092255Z VRB06KT 10SM CLR 09/00 A2966 1110 53 700 VRB/06 RMK AO2
14837KMSN MSN20020109170009301/09/02 17:00:31  5-MIN KMSN 092300Z 25006KT 10SM CLR 09/00 A2966 1110 51 700 250/06 RMK AO2
14837KMSN MSN20020109170509301/09/02 17:05:31  5-MIN KMSN 092305Z 26006KT 10SM CLR 09/00 A2966 1110 53 700 260/06 RMK AO2
14837KMSN MSN20020109171009301/09/02 17:10:31  5-MIN KMSN 092310Z 25006KT 10SM CLR 09/00 A2966 1110 53 700 250/06 RMK AO2
14837KMSN MSN20020109171509401/09/02 17:15:31  5-MIN KMSN 092315Z 25007KT 10SM CLR 09/M01 A2966 1110 51 700 250/07 RMK AO2
14837KMSN MSN20020109172009401/09/02 17:20:31  5-MIN KMSN 092320Z 25007KT 10SM CLR 09/M01 A2966 1110 51 700 250/07 RMK AO2
14837KMSN MSN20020109172509401/09/02 17:25:31  5-MIN KMSN 092325Z VRB06KT 10SM CLR 09/M01 A2966 1110 51 700 VRB/06 RMK AO2
14837KMSN MSN20020109173009401/09/02 17:30:31  5-MIN KMSN 092330Z VRB05KT 10SM CLR 09/M01 A2966 1100 51 700 VRB/05 RMK AO2
14837KMSN MSN20020109173509401/09/02 17:35:31  5-MIN KMSN 092335Z VRB05KT 10SM CLR 08/M01 A2967 1100 53 600 VRB/05 RMK AO2
14837KMSN MSN20020109174009401/09/02 17:40:31  5-MIN KMSN 092340Z VRB05KT 10SM CLR 08/M01 A2967 1100 53 600 VRB/05 RMK AO2
14837KMSN MSN20020109174509401/09/02 17:45:31  5-MIN KMSN 092345Z VRB06KT 10SM CLR 08/M01 A2967 1090 53 600 VRB/06 RMK AO2
14837KMSN MSN20020109175012901/09/02 17:50:31  5-MIN KMSN 092350Z VRB06KT 10SM CLR 08/M01 A2968 1090 53 600 VRB/06 RMK AO2 SLP053 T00831006 10117 20083 53008
14837KMSN MSN20020109175509401/09/02 17:55:31  5-MIN KMSN 092355Z 26005KT 10SM CLR 08/M01 A2968 1090 53 600 260/05 RMK AO2
14837KMSN MSN20020109180009401/09/02 18:00:31  5-MIN KMSN 100000Z VRB05KT 10SM CLR 08/M01 A2968 1090 53 600 VRB/05 RMK AO2
14837KMSN MSN20020109180509401/09/02 18:05:31  5-MIN KMSN 100005Z 27005KT 10SM CLR 08/M01 A2968 1080 53 600 270/05 RMK AO2
14837KMSN MSN20020109181009401/09/02 18:10:31  5-MIN KMSN 100010Z 26005KT 10SM CLR 08/M01 A2969 1080 55 500 260/05 RMK AO2
14837KMSN MSN20020109181509401/09/02 18:15:31  5-MIN KMSN 100015Z 26006KT 10SM CLR 08/M01 A2969 1080 55 500 260/06 RMK AO2
14837KMSN MSN20020109182009401/09/02 18:20:31  5-MIN KMSN 100020Z 26007KT 10SM CLR 08/M01 A2969 1080 55 500 260/07 RMK AO2
14837KMSN MSN20020109182509401/09/02 18:25:31  5-MIN KMSN 100025Z 25006KT 10SM CLR 08/M01 A2969 1080 55 500 250/06 RMK AO2
14837KMSN MSN20020109183009401/09/02 18:30:31  5-MIN KMSN 100030Z 25006KT 10SM CLR 08/M01 A2969 1080 55 500 250/06 RMK AO2
14837KMSN MSN20020109183509401/09/02 18:35:31  5-MIN KMSN 100035Z VRB05KT 10SM CLR 08/M01 A2969 1080 55 500 VRB/05 RMK AO2
14837KMSN MSN20020109184009401/09/02 18:40:31  5-MIN KMSN 100040Z VRB06KT 10SM CLR 08/M01 A2969 1080 55 500 VRB/06 RMK AO2
14837KMSN MSN20020109184509401/09/02 18:45:31  5-MIN KMSN 100045Z VRB05KT 10SM CLR 08/M01 A2969 1080 55 500 VRB/05 RMK AO2
14837KMSN MSN20020109185011101/09/02 18:50:31  5-MIN KMSN 100050Z 27007KT 10SM CLR 08/M01 A2969 1080 55 500 270/07 RMK AO2 SLP059 T00781006
14837KMSN MSN20020109185509401/09/02 18:55:31  5-MIN KMSN 100055Z VRB06KT 10SM CLR 08/M01 A2969 1080 55 500 VRB/06 RMK AO2
14837KMSN MSN20020109190009401/09/02 19:00:31  5-MIN KMSN 100100Z 26007KT 10SM CLR 08/M01 A2969 1070 55 500 260/07 RMK AO2
14837KMSN MSN20020109190509401/09/02 19:05:31  5-MIN KMSN 100105Z 27006KT 10SM CLR 07/M01 A2970 1070 57 400 270/06 RMK AO2
14837KMSN MSN20020109191009401/09/02 19:10:31  5-MIN KMSN 100110Z VRB05KT 10SM CLR 07/M01 A2970 1070 57 400 VRB/05 RMK AO2
14837KMSN MSN20020109191509401/09/02 19:15:31  5-MIN KMSN 100115Z VRB05KT 10SM CLR 07/M01 A2970 1070 57 400 VRB/05 RMK AO2
14837KMSN MSN20020109192009401/09/02 19:20:31  5-MIN KMSN 100120Z VRB05KT 10SM CLR 07/M01 A2970 1070 57 400 VRB/05 RMK AO2
14837KMSN MSN20020109192509401/09/02 19:25:31  5-MIN KMSN 100125Z VRB03KT 10SM CLR 07/M01 A2970 1070 57 400 VRB/03 RMK AO2
14837KMSN MSN20020109193009401/09/02 19:30:31  5-MIN KMSN 100130Z VRB04KT 10SM CLR 07/M01 A2970 1070 57 400 VRB/04 RMK AO2
14837KMSN MSN20020109193509401/09/02 19:35:31  5-MIN KMSN 100135Z VRB04KT 10SM CLR 07/M01 A2971 1060 57 400 VRB/04 RMK AO2
14837KMSN MSN20020109194009401/09/02 19:40:31  5-MIN KMSN 100140Z VRB04KT 10SM CLR 07/M01 A2971 1060 60 400 VRB/04 RMK AO2
14837KMSN MSN20020109194509401/09/02 19:45:31  5-MIN KMSN 100145Z VRB05KT 10SM CLR 07/M01 A2971 1060 60 400 VRB/05 RMK AO2
14837KMSN MSN20020109195011101/09/02 19:50:31  5-MIN KMSN 100150Z VRB05KT 10SM CLR 07/M01 A2971 1060 60 400 VRB/05 RMK AO2 SLP064 T00671006
14837KMSN MSN20020109195509401/09/02 19:55:31  5-MIN KMSN 100155Z 27005KT 10SM CLR 07/M01 A2971 1060 60 300 270/05 RMK AO2
14837KMSN MSN20020109200009401/09/02 20:00:31  5-MIN KMSN 100200Z VRB04KT 10SM CLR 07/M01 A2972 1050 60 300 VRB/04 RMK AO2
14837KMSN MSN20020109200509401/09/02 20:05:31  5-MIN KMSN 100205Z VRB03KT 10SM CLR 07/M01 A2972 1050 60 300 VRB/03 RMK AO2
14837KMSN MSN20020109201009401/09/02 20:10:31  5-MIN KMSN 100210Z VRB04KT 10SM CLR 06/M01 A2972 1050 62 300 VRB/04 RMK AO2
14837KMSN MSN20020109201509301/09/02 20:15:31  5-MIN KMSN 100215Z 26005KT 10SM CLR 07/00 A2972 1050 62 300 260/05 RMK AO2
14837KMSN MSN20020109202009301/09/02 20:20:31  5-MIN KMSN 100220Z VRB06KT 10SM CLR 06/00 A2972 1050 65 300 VRB/06 RMK AO2
14837KMSN MSN20020109202509301/09/02 20:25:31  5-MIN KMSN 100225Z VRB05KT 10SM CLR 06/00 A2972 1050 65 300 VRB/05 RMK AO2
14837KMSN MSN20020109203009301/09/02 20:30:31  5-MIN KMSN 100230Z VRB04KT 10SM CLR 06/00 A2973 1040 65 300 VRB/04 RMK AO2
14837KMSN MSN20020109203509301/09/02 20:35:31  5-MIN KMSN 100235Z 27006KT 10SM CLR 06/00 A2973 1040 65 300 270/06 RMK AO2
14837KMSN MSN20020109204009301/09/02 20:40:31  5-MIN KMSN 100240Z 27006KT 10SM CLR 06/00 A2973 1040 65 300 270/06 RMK AO2
14837KMSN MSN20020109204509301/09/02 20:45:31  5-MIN KMSN 100245Z 28006KT 10SM CLR 06/00 A2973 1040 65 300 270/06 RMK AO2
14837KMSN MSN20020109205011601/09/02 20:50:31  5-MIN KMSN 100250Z 28007KT 10SM CLR 06/00 A2973 1040 65 300 280/07 RMK AO2 SLP072 T00610000 53019
14837KMSN MSN20020109205509301/09/02 20:55:31  5-MIN KMSN 100255Z 28005KT 10SM CLR 06/00 A2973 1040 65 300 270/05 RMK AO2
14837KMSN MSN20020109210009301/09/02 21:00:31  5-MIN KMSN 100300Z VRB05KT 10SM CLR 06/00 A2974 1030 65 200 VRB/05 RMK AO2
14837KMSN MSN20020109210509301/09/02 21:05:31  5-MIN KMSN 100305Z 27006KT 10SM CLR 06/00 A2974 1030 65 200 270/06 RMK AO2
14837KMSN MSN20020109211009301/09/02 21:10:31  5-MIN KMSN 100310Z 28005KT 10SM CLR 06/00 A2974 1030 65 200 280/05 RMK AO2
14837KMSN MSN20020109211509301/09/02 21:15:31  5-MIN KMSN 100315Z VRB05KT 10SM CLR 06/00 A2974 1030 67 200 VRB/05 RMK AO2
14837KMSN MSN20020109212009301/09/02 21:20:31  5-MIN KMSN 100320Z 29005KT 10SM CLR 06/00 A2975 1030 67 200 290/05 RMK AO2
14837KMSN MSN20020109212509301/09/02 21:25:31  5-MIN KMSN 100325Z 31004KT 10SM CLR 06/00 A2975 1030 67 200 310/04 RMK AO2
14837KMSN MSN20020109213009301/09/02 21:30:31  5-MIN KMSN 100330Z VRB04KT 10SM CLR 06/00 A2975 1020 67 200 VRB/04 RMK AO2
14837KMSN MSN20020109213509301/09/02 21:35:31  5-MIN KMSN 100335Z 31004KT 10SM CLR 06/00 A2975 1020 67 200 310/04 RMK AO2
14837KMSN MSN20020109214009301/09/02 21:40:31  5-MIN KMSN 100340Z VRB03KT 10SM CLR 06/00 A2975 1020 67 200 VRB/03 RMK AO2
14837KMSN MSN20020109214509301/09/02 21:45:31  5-MIN KMSN 100345Z VRB03KT 10SM CLR 06/00 A2975 1020 67 200 VRB/03 RMK AO2
14837KMSN MSN20020109215011001/09/02 21:50:31  5-MIN KMSN 100350Z VRB03KT 10SM CLR 06/00 A2975 1020 67 200 VRB/03 RMK AO2 SLP080 T00560000
14837KMSN MSN20020109215509301/09/02 21:55:31  5-MIN KMSN 100355Z VRB04KT 10SM CLR 06/00 A2976 1020 67 200 VRB/04 RMK AO2
14837KMSN MSN20020109220009301/09/02 22:00:31  5-MIN KMSN 100400Z 29003KT 10SM CLR 06/00 A2976 1010 67 200 290/03 RMK AO2
14837KMSN MSN20020109220509301/09/02 22:05:31  5-MIN KMSN 100405Z VRB03KT 10SM CLR 05/00 A2976 1010 70 100 VRB/03 RMK AO2
14837KMSN MSN20020109221009301/09/02 22:10:31  5-MIN KMSN 100410Z VRB03KT 10SM CLR 06/00 A2976 1010 67 200 VRB/03 RMK AO2
14837KMSN MSN20020109221509301/09/02 22:15:31  5-MIN KMSN 100415Z VRB03KT 10SM CLR 06/00 A2977 1010 67 100 VRB/03 RMK AO2
14837KMSN MSN20020109222009301/09/02 22:20:31  5-MIN KMSN 100420Z VRB04KT 10SM CLR 05/00 A2977 1000 70 100 VRB/04 RMK AO2
14837KMSN MSN20020109222509301/09/02 22:25:31  5-MIN KMSN 100425Z 00000KT 10SM CLR 05/00 A2977 1000 70 100 000/00 RMK AO2
14837KMSN MSN20020109223009301/09/02 22:30:31  5-MIN KMSN 100430Z VRB04KT 10SM CLR 05/00 A2978 1000 70 100 VRB/04 RMK AO2
14837KMSN MSN20020109223509301/09/02 22:35:31  5-MIN KMSN 100435Z VRB03KT 10SM CLR 05/00 A2978 1000 70 100 VRB/03 RMK AO2
14837KMSN MSN20020109224009201/09/02 22:40:31  5-MIN KMSN 100440Z 28004KT 10SM CLR 05/00 A2978 990 70 100 270/04 RMK AO2
14837KMSN MSN20020109224509201/09/02 22:45:31  5-MIN KMSN 100445Z 28003KT 10SM CLR 04/M01 A2978 1000 70 0 280/03 RMK AO2
14837KMSN MSN20020109225011001/09/02 22:50:31  5-MIN KMSN 100450Z VRB05KT 10SM CLR 05/00 A2978 1000 70 100 VRB/05 RMK AO2 SLP088 T00500000
14837KMSN MSN20020109225509301/09/02 22:55:31  5-MIN KMSN 100455Z VRB03KT 10SM CLR 05/00 A2977 1000 70 100 VRB/03 RMK AO2
14837KMSN MSN20020109230009301/09/02 23:00:31  5-MIN KMSN 100500Z 00000KT 10SM CLR 05/00 A2978 1000 70 100 000/00 RMK AO2
14837KMSN MSN20020109230509101/09/02 23:05:31  5-MIN KMSN 100505Z 00000KT 10SM CLR 04/00 A2978 1000 73 0 000/00 RMK AO2
14837KMSN MSN20020109231009101/09/02 23:10:31  5-MIN KMSN 100510Z VRB03KT 10SM CLR 04/00 A2978 1000 73 0 VRB/03 RMK AO2
14837KMSN MSN20020109231509201/09/02 23:15:31  5-MIN KMSN 100515Z VRB03KT 10SM CLR 05/00 A2978 990 70 100 VRB/03 RMK AO2
14837KMSN MSN20020109232009101/09/02 23:20:31  5-MIN KMSN 100520Z 00000KT 10SM CLR 04/00 A2978 1000 73 0 000/00 RMK AO2
14837KMSN MSN20020109232509201/09/02 23:25:31  5-MIN KMSN 100525Z 00000KT 10SM CLR 04/M01 A2978 1000 70 0 000/00 RMK AO2
14837KMSN MSN20020109233009101/09/02 23:30:31  5-MIN KMSN 100530Z 00000KT 10SM CLR 04/M01 A2978 990 70 0 000/00 RMK AO2
14837KMSN MSN20020109233509101/09/02 23:35:31  5-MIN KMSN 100535Z 00000KT 10SM CLR 04/M01 A2978 990 70 0 000/00 RMK AO2
14837KMSN MSN20020109234009101/09/02 23:40:31  5-MIN KMSN 100540Z 00000KT 10SM CLR 04/M01 A2978 990 73 0 000/00 RMK AO2
14837KMSN MSN20020109234509401/09/02 23:45:31  5-MIN KMSN 100545Z 00000KT 10SM CLR 03/M01 A2978 990 76 -100 000/00 RMK AO2
14837KMSN MSN20020109235013601/09/02 23:50:31  5-MIN KMSN 100550Z 00000KT 10SM CLR 04/M01 A2978 990 73 0 000/00 RMK AO2 SLP089 T00391006 10083 20033 401171056 53018
14837KMSN MSN20020109235509101/09/02 23:55:31  5-MIN KMSN 100555Z VRB03KT 10SM CLR 04/M01 A2978 990 73 0 VRB/03 RMK AO2
14837KMSN MSN20020110000009401/10/02 00:00:31  5-MIN KMSN 100600Z VRB03KT 10SM CLR 03/M01 A2978 990 76 -100 VRB/03 RMK AO2
14837KMSN MSN20020110000509101/10/02 00:05:31  5-MIN KMSN 100605Z 00000KT 10SM CLR 04/M01 A2978 990 73 0 000/00 RMK AO2
14837KMSN MSN20020110001009101/10/02 00:10:31  5-MIN KMSN 100610Z VRB03KT 10SM CLR 04/M01 A2978 990 73 0 VRB/03 RMK AO2
14837KMSN MSN20020110001509101/10/02 00:15:31  5-MIN KMSN 100615Z 00000KT 10SM CLR 04/M01 A2978 990 73 0 000/00 RMK AO2
14837KMSN MSN20020110002009101/10/02 00:20:31  5-MIN KMSN 100620Z 00000KT 10SM CLR 04/M01 A2978 990 73 0 000/00 RMK AO2
14837KMSN MSN20020110002509101/10/02 00:25:31  5-MIN KMSN 100625Z VRB03KT 10SM CLR 04/M01 A2978 990 73 0 VRB/03 RMK AO2
14837KMSN MSN20020110003009101/10/02 00:30:31  5-MIN KMSN 100630Z VRB04KT 10SM CLR 04/M01 A2979 990 73 0 VRB/04 RMK AO2
14837KMSN MSN20020110003509001/10/02 00:35:31  5-MIN KMSN 100635Z VRB04KT 10SM CLR 04/00 A2979 990 76 0 VRB/04 RMK AO2
14837KMSN MSN20020110004009001/10/02 00:40:31  5-MIN KMSN 100640Z VRB03KT 10SM CLR 04/00 A2979 990 76 0 VRB/03 RMK AO2
14837KMSN MSN20020110004509001/10/02 00:45:31  5-MIN KMSN 100645Z VRB04KT 10SM CLR 04/00 A2979 990 76 0 VRB/04 RMK AO2
14837KMSN MSN20020110005010701/10/02 00:50:31  5-MIN KMSN 100650Z VRB04KT 10SM CLR 04/00 A2979 990 76 0 VRB/04 RMK AO2 SLP091 T00390000
14837KMSN MSN20020110005509001/10/02 00:55:31  5-MIN KMSN 100655Z 27005KT 10SM CLR 04/00 A2979 990 73 0 270/05 RMK AO2
14837KMSN MSN20020110010009001/10/02 01:00:31  5-MIN KMSN 100700Z VRB05KT 10SM CLR 04/00 A2979 980 76 0 VRB/05 RMK AO2
14837KMSN MSN20020110010509001/10/02 01:05:31  5-MIN KMSN 100705Z 28006KT 10SM CLR 04/00 A2979 980 76 0 270/06 RMK AO2
14837KMSN MSN20020110011009001/10/02 01:10:31  5-MIN KMSN 100710Z VRB06KT 10SM CLR 04/00 A2979 980 76 0 VRB/06 RMK AO2
14837KMSN MSN20020110011509001/10/02 01:15:31  5-MIN KMSN 100715Z VRB06KT 10SM CLR 04/00 A2979 980 76 0 VRB/06 RMK AO2
14837KMSN MSN20020110012009001/10/02 01:20:31  5-MIN KMSN 100720Z 27006KT 10SM CLR 04/00 A2979 980 76 0 270/06 RMK AO2
14837KMSN MSN20020110012509001/10/02 01:25:31  5-MIN KMSN 100725Z 28005KT 10SM CLR 04/00 A2980 980 76 0 280/05 RMK AO2
14837KMSN MSN20020110013009001/10/02 01:30:31  5-MIN KMSN 100730Z VRB06KT 10SM CLR 04/00 A2980 980 76 0 VRB/06 RMK AO2
14837KMSN MSN20020110013509001/10/02 01:35:31  5-MIN KMSN 100735Z 27006KT 10SM CLR 04/00 A2980 980 76 0 270/06 RMK AO2
14837KMSN MSN20020110014009001/10/02 01:40:31  5-MIN KMSN 100740Z VRB06KT 10SM CLR 04/00 A2980 980 76 0 VRB/06 RMK AO2
14837KMSN MSN20020110014509001/10/02 01:45:31  5-MIN KMSN 100745Z VRB04KT 10SM CLR 04/00 A2980 980 76 0 VRB/04 RMK AO2
14837KMSN MSN20020110015011101/10/02 01:50:31  5-MIN KMSN 100750Z 29005KT 10SM CLR 03/M01 A2980 970 76 -100 290/05 RMK AO2 SLP096 T00331006
14837KMSN MSN20020110015509401/10/02 01:55:31  5-MIN KMSN 100755Z VRB05KT 10SM CLR 03/M01 A2980 970 76 -100 VRB/05 RMK AO2
14837KMSN MSN20020110020009401/10/02 02:00:31  5-MIN KMSN 100800Z VRB03KT 10SM CLR 03/M01 A2980 970 76 -100 VRB/03 RMK AO2
14837KMSN MSN20020110020509401/10/02 02:05:31  5-MIN KMSN 100805Z VRB04KT 10SM CLR 03/M01 A2981 970 76 -100 VRB/04 RMK AO2
14837KMSN MSN20020110021009401/10/02 02:10:31  5-MIN KMSN 100810Z VRB05KT 10SM CLR 03/M01 A2981 970 79 -200 VRB/05 RMK AO2
14837KMSN MSN20020110021509401/10/02 02:15:31  5-MIN KMSN 100815Z 01006KT 10SM CLR 02/M01 A2981 970 82 -300 360/06 RMK AO2
14837KMSN MSN20020110022009401/10/02 02:20:31  5-MIN KMSN 100820Z 36005KT 10SM CLR 02/M01 A2981 970 82 -300 360/05 RMK AO2
14837KMSN MSN20020110022509401/10/02 02:25:31  5-MIN KMSN 100825Z 35004KT 10SM CLR 02/M01 A2981 970 82 -300 350/04 RMK AO2
14837KMSN MSN20020110023009401/10/02 02:30:31  5-MIN KMSN 100830Z 34004KT 10SM CLR 02/M01 A2981 970 82 -300 340/04 RMK AO2
14837KMSN MSN20020110023509301/10/02 02:35:31  5-MIN KMSN 100835Z 33003KT 10SM CLR 02/00 A2981 960 89 -300 320/03 RMK AO2
14837KMSN MSN20020110024009301/10/02 02:40:31  5-MIN KMSN 100840Z 00000KT 10SM CLR 02/00 A2981 970 89 -300 000/00 RMK AO2
14837KMSN MSN20020110024509301/10/02 02:45:31  5-MIN KMSN 100845Z 30003KT 10SM CLR 01/00 A2981 970 96 -500 300/03 RMK AO2
14837KMSN MSN20020110025011701/10/02 02:50:31  5-MIN KMSN 100850Z 30004KT 10SM CLR 00/M02 A2981 970 88 -500 300/04 RMK AO2 SLP099 T00001017 51016
14837KMSN MSN20020110025509401/10/02 02:55:31  5-MIN KMSN 100855Z 31005KT 10SM CLR 00/M02 A2981 970 88 -500 310/05 RMK AO2
14837KMSN MSN20020110030009401/10/02 03:00:31  5-MIN KMSN 100900Z 31004KT 10SM CLR 01/M01 A2981 970 89 -500 310/04 RMK AO2
14837KMSN MSN20020110030509401/10/02 03:05:31  5-MIN KMSN 100905Z 32003KT 10SM CLR 01/M01 A2981 970 89 -500 320/03 RMK AO2
14837KMSN MSN20020110031009401/10/02 03:10:31  5-MIN KMSN 100910Z 32003KT 10SM CLR 01/M01 A2981 970 89 -500 310/03 RMK AO2
14837KMSN MSN20020110031509401/10/02 03:15:31  5-MIN KMSN 100915Z 31003KT 10SM CLR 01/M01 A2981 960 89 -500 310/03 RMK AO2
14837KMSN MSN20020110032009401/10/02 03:20:31  5-MIN KMSN 100920Z 32003KT 10SM CLR 01/M01 A2981 970 89 -500 320/03 RMK AO2
14837KMSN MSN20020110032509401/10/02 03:25:31  5-MIN KMSN 100925Z 31003KT 10SM CLR 01/M01 A2981 970 89 -400 300/03 RMK AO2
14837KMSN MSN20020110033009401/10/02 03:30:31  5-MIN KMSN 100930Z 31003KT 10SM CLR 02/M01 A2981 970 85 -300 310/03 RMK AO2
14837KMSN MSN20020110033509401/10/02 03:35:31  5-MIN KMSN 100935Z 32004KT 10SM CLR 02/M01 A2981 970 85 -300 320/04 RMK AO2
14837KMSN MSN20020110034009401/10/02 03:40:31  5-MIN KMSN 100940Z 32003KT 10SM CLR 02/M01 A2981 970 82 -300 320/03 RMK AO2
14837KMSN MSN20020110034509401/10/02 03:45:31  5-MIN KMSN 100945Z 32003KT 10SM CLR 01/M01 A2981 970 85 -400 320/03 RMK AO2
14837KMSN MSN20020110035011201/10/02 03:50:31  5-MIN KMSN 100950Z 34003KT 10SM CLR M01/M02 A2981 970 88 -600 330/03 RMK AO2 SLP100 T10061022
14837KMSN MSN20020110035509401/10/02 03:55:31  5-MIN KMSN 100955Z 33004KT 10SM CLR 01/M01 A2981 970 85 -400 330/04 RMK AO2
14837KMSN MSN20020110040009401/10/02 04:00:31  5-MIN KMSN 101000Z 33003KT 10SM CLR 01/M02 A2981 970 85 -500 330/03 RMK AO2
14837KMSN MSN20020110040509401/10/02 04:05:31  5-MIN KMSN 101005Z 33003KT 10SM CLR 01/M01 A2981 970 85 -400 320/03 RMK AO2
14837KMSN MSN20020110041009401/10/02 04:10:31  5-MIN KMSN 101010Z 32003KT 10SM CLR 01/M02 A2981 970 82 -400 320/03 RMK AO2
14837KMSN MSN20020110041509401/10/02 04:15:31  5-MIN KMSN 101015Z 31003KT 10SM CLR 01/M01 A2981 970 89 -500 310/03 RMK AO2
14837KMSN MSN20020110042009401/10/02 04:20:31  5-MIN KMSN 101020Z 32004KT 10SM CLR 01/M01 A2981 970 85 -400 320/04 RMK AO2
14837KMSN MSN20020110042509401/10/02 04:25:31  5-MIN KMSN 101025Z 31003KT 10SM CLR 01/M02 A2981 960 85 -500 310/03 RMK AO2
14837KMSN MSN20020110043009401/10/02 04:30:31  5-MIN KMSN 101030Z 31004KT 10SM CLR 01/M02 A2981 960 85 -500 310/04 RMK AO2
14837KMSN MSN20020110043509401/10/02 04:35:31  5-MIN KMSN 101035Z 31005KT 10SM CLR 01/M01 A2982 960 89 -500 310/05 RMK AO2
14837KMSN MSN20020110044009401/10/02 04:40:31  5-MIN KMSN 101040Z 31006KT 10SM CLR 01/M01 A2982 960 89 -500 310/06 RMK AO2
14837KMSN MSN20020110044509401/10/02 04:45:31  5-MIN KMSN 101045Z 30004KT 10SM CLR 01/M01 A2982 950 85 -400 300/04 RMK AO2
14837KMSN MSN20020110045011101/10/02 04:50:31  5-MIN KMSN 101050Z 28004KT 10SM CLR 01/M01 A2982 950 85 -400 280/04 RMK AO2 SLP105 T00111011
14837KMSN MSN20020110045509401/10/02 04:55:31  5-MIN KMSN 101055Z VRB04KT 10SM CLR 01/M01 A2983 950 85 -400 VRB/04 RMK AO2
14837KMSN MSN20020110050009401/10/02 05:00:31  5-MIN KMSN 101100Z 27003KT 10SM CLR 01/M01 A2983 950 85 -400 260/03 RMK AO2
14837KMSN MSN20020110050509401/10/02 05:05:31  5-MIN KMSN 101105Z VRB03KT 10SM CLR 01/M01 A2983 950 85 -400 VRB/03 RMK AO2
14837KMSN MSN20020110051009401/10/02 05:10:31  5-MIN KMSN 101110Z VRB03KT 10SM CLR 01/M01 A2983 950 85 -400 VRB/03 RMK AO2
14837KMSN MSN20020110051509401/10/02 05:15:31  5-MIN KMSN 101115Z 00000KT 10SM CLR 01/M01 A2983 950 85 -400 000/00 RMK AO2
14837KMSN MSN20020110052009401/10/02 05:20:31  5-MIN KMSN 101120Z 25003KT 10SM CLR 01/M01 A2983 950 85 -400 250/03 RMK AO2
14837KMSN MSN20020110052509401/10/02 05:25:31  5-MIN KMSN 101125Z VRB03KT 10SM CLR 01/M01 A2983 940 85 -400 VRB/03 RMK AO2
14837KMSN MSN20020110053009401/10/02 05:30:31  5-MIN KMSN 101130Z 00000KT 10SM CLR 01/M01 A2984 940 85 -400 000/00 RMK AO2
14837KMSN MSN20020110053509401/10/02 05:35:31  5-MIN KMSN 101135Z VRB03KT 10SM CLR 01/M01 A2984 940 89 -500 VRB/03 RMK AO2
14837KMSN MSN20020110054009401/10/02 05:40:31  5-MIN KMSN 101140Z 00000KT 10SM CLR 01/M01 A2984 940 89 -500 000/00 RMK AO2
14837KMSN MSN20020110054509401/10/02 05:45:31  5-MIN KMSN 101145Z VRB03KT 10SM CLR 01/M01 A2984 940 89 -500 VRB/03 RMK AO2
14837KMSN MSN20020110055012901/10/02 05:50:31  5-MIN KMSN 101150Z 25003KT 10SM CLR 01/M02 A2984 930 85 -500 240/03 RMK AO2 SLP112 T00061017 10044 21006 51009
14837KMSN MSN20020110055509401/10/02 05:55:31  5-MIN KMSN 101155Z VRB03KT 10SM CLR 00/M02 A2984 930 88 -600 VRB/03 RMK AO2
14837KMSN MSN20020110060009401/10/02 06:00:31  5-MIN KMSN 101200Z 27004KT 10SM CLR 00/M02 A2985 930 88 -600 270/04 RMK AO2
14837KMSN MSN20020110060509401/10/02 06:05:31  5-MIN KMSN 101205Z 28004KT 10SM CLR 00/M02 A2985 930 88 -600 270/04 RMK AO2
14837KMSN MSN20020110061009401/10/02 06:10:31  5-MIN KMSN 101210Z 28004KT 10SM CLR 00/M02 A2985 930 88 -600 280/04 RMK AO2
14837KMSN MSN20020110061509401/10/02 06:15:31  5-MIN KMSN 101215Z 28005KT 10SM CLR 00/M02 A2985 930 88 -600 280/05 RMK AO2
14837KMSN MSN20020110062009401/10/02 06:20:31  5-MIN KMSN 101220Z 28004KT 10SM CLR 00/M01 A2985 930 92 -600 280/04 RMK AO2
14837KMSN MSN20020110062509401/10/02 06:25:31  5-MIN KMSN 101225Z 28004KT 10SM CLR 00/M02 A2985 930 88 -600 280/04 RMK AO2
14837KMSN MSN20020110063009401/10/02 06:30:31  5-MIN KMSN 101230Z 28004KT 10SM CLR 00/M01 A2985 930 92 -600 280/04 RMK AO2
14837KMSN MSN20020110063509401/10/02 06:35:31  5-MIN KMSN 101235Z 28005KT 10SM CLR 00/M01 A2985 930 92 -600 280/05 RMK AO2
14837KMSN MSN20020110064009401/10/02 06:40:31  5-MIN KMSN 101240Z 29004KT 10SM CLR 00/M01 A2985 930 92 -600 280/04 RMK AO2
14837KMSN MSN20020110064509401/10/02 06:45:31  5-MIN KMSN 101245Z 28004KT 10SM CLR 00/M01 A2985 930 92 -600 280/04 RMK AO2
14837KMSN MSN20020110065011101/10/02 06:50:31  5-MIN KMSN 101250Z 29004KT 10SM CLR 00/M01 A2986 920 92 -600 290/04 RMK AO2 SLP117 T00001011
14837KMSN MSN20020110065509401/10/02 06:55:31  5-MIN KMSN 101255Z 29004KT 10SM CLR 00/M02 A2986 920 88 -600 290/04 RMK AO2
14837KMSN MSN20020110070009401/10/02 07:00:31  5-MIN KMSN 101300Z 30003KT 10SM CLR 00/M02 A2986 920 88 -600 300/03 RMK AO2
14837KMSN MSN20020110070509401/10/02 07:05:31  5-MIN KMSN 101305Z 30003KT 10SM CLR 00/M02 A2986 920 88 -600 300/03 RMK AO2
14837KMSN MSN20020110071009501/10/02 07:10:31  5-MIN KMSN 101310Z VRB03KT 10SM CLR M01/M02 A2986 920 92 -700 VRB/03 RMK AO2
14837KMSN MSN20020110071509401/10/02 07:15:31  5-MIN KMSN 101315Z 00000KT 10SM CLR 00/M02 A2986 920 88 -600 000/00 RMK AO2
14837KMSN MSN20020110072009401/10/02 07:20:31  5-MIN KMSN 101320Z 00000KT 10SM CLR 00/M01 A2986 920 92 -600 000/00 RMK AO2
14837KMSN MSN20020110072509401/10/02 07:25:31  5-MIN KMSN 101325Z 00000KT 10SM CLR 00/M02 A2986 920 88 -600 000/00 RMK AO2
14837KMSN MSN20020110073009401/10/02 07:30:31  5-MIN KMSN 101330Z VRB03KT 10SM CLR 00/M01 A2986 920 92 -600 VRB/03 RMK AO2
14837KMSN MSN20020110073509401/10/02 07:35:31  5-MIN KMSN 101335Z 00000KT 10SM CLR 00/M01 A2986 920 92 -600 000/00 RMK AO2
14837KMSN MSN20020110074009501/10/02 07:40:31  5-MIN KMSN 101340Z 29003KT 10SM CLR M01/M02 A2986 920 92 -700 290/03 RMK AO2
14837KMSN MSN20020110074509401/10/02 07:45:31  5-MIN KMSN 101345Z 29003KT 10SM CLR 00/M01 A2986 920 92 -600 290/03 RMK AO2
14837KMSN MSN20020110075011101/10/02 07:50:31  5-MIN KMSN 101350Z 29003KT 10SM CLR 00/M02 A2986 920 88 -600 290/03 RMK AO2 SLP120 T00001017
14837KMSN MSN20020110075509501/10/02 07:55:31  5-MIN KMSN 101355Z 26003KT 10SM CLR M01/M02 A2987 910 92 -700 260/03 RMK AO2
14837KMSN MSN20020110080009501/10/02 08:00:31  5-MIN KMSN 101400Z 00000KT 10SM CLR M01/M02 A2987 910 92 -700 000/00 RMK AO2
14837KMSN MSN20020110080509401/10/02 08:05:31  5-MIN KMSN 101405Z 00000KT 10SM CLR 00/M01 A2987 910 92 -600 000/00 RMK AO2
14837KMSN MSN20020110081009401/10/02 08:10:31  5-MIN KMSN 101410Z VRB03KT 10SM CLR 00/M02 A2987 910 88 -600 VRB/03 RMK AO2
14837KMSN MSN20020110081509401/10/02 08:15:31  5-MIN KMSN 101415Z 28003KT 10SM CLR 00/M02 A2987 910 88 -600 280/03 RMK AO2
14837KMSN MSN20020110082009401/10/02 08:20:31  5-MIN KMSN 101420Z 27004KT 10SM CLR 00/M01 A2987 910 92 -600 270/04 RMK AO2
14837KMSN MSN20020110082509401/10/02 08:25:31  5-MIN KMSN 101425Z VRB04KT 10SM CLR 00/M01 A2988 900 92 -600 VRB/04 RMK AO2
14837KMSN MSN20020110083009401/10/02 08:30:31  5-MIN KMSN 101430Z 29003KT 10SM CLR 01/M01 A2988 900 89 -500 290/03 RMK AO2
14837KMSN MSN20020110083509401/10/02 08:35:31  5-MIN KMSN 101435Z VRB04KT 10SM CLR 01/M01 A2988 900 89 -500 VRB/04 RMK AO2
14837KMSN MSN20020110084009401/10/02 08:40:31  5-MIN KMSN 101440Z VRB04KT 10SM CLR 01/M01 A2988 900 89 -600 VRB/04 RMK AO2
14837KMSN MSN20020110084509401/10/02 08:45:31  5-MIN KMSN 101445Z VRB03KT 10SM CLR 01/M01 A2988 900 89 -600 VRB/03 RMK AO2
14837KMSN MSN20020110085011701/10/02 08:50:31  5-MIN KMSN 101450Z 29003KT 10SM CLR 01/M01 A2988 900 89 -600 280/03 RMK AO2 SLP126 T00061011 53012
14837KMSN MSN20020110085509701/10/02 08:55:31  5-MIN KMSN 101455Z 00000KT 10SM FEW010 01/M01 A2988 900 89 -500 000/00 RMK AO2
14837KMSN MSN20020110090009701/10/02 09:00:31  5-MIN KMSN 101500Z VRB03KT 10SM SCT010 01/M01 A2989 900 89 -500 VRB/03 RMK AO2
14837KMSN MSN20020110090509701/10/02 09:05:31  5-MIN KMSN 101505Z 27004KT 10SM FEW010 01/M01 A2989 890 89 -500 270/04 RMK AO2
14837KMSN MSN20020110091009701/10/02 09:10:31  5-MIN KMSN 101510Z 27005KT 10SM FEW010 01/M01 A2989 890 89 -500 270/05 RMK AO2
14837KMSN MSN20020110091509701/10/02 09:15:31  5-MIN KMSN 101515Z 25005KT 10SM FEW010 01/M01 A2989 890 89 -500 250/05 RMK AO2
14837KMSN MSN20020110092009701/10/02 09:20:31  5-MIN KMSN 101520Z VRB03KT 10SM FEW010 02/M01 A2989 890 85 -400 VRB/03 RMK AO2
14837KMSN MSN20020110092509701/10/02 09:25:31  5-MIN KMSN 101525Z 26006KT 10SM FEW010 02/M01 A2989 890 85 -400 260/06 RMK AO2
14837KMSN MSN20020110093009701/10/02 09:30:31  5-MIN KMSN 101530Z VRB06KT 10SM FEW010 02/M01 A2989 890 85 -400 VRB/06 RMK AO2
14837KMSN MSN20020110093509701/10/02 09:35:31  5-MIN KMSN 101535Z VRB04KT 10SM FEW010 02/M01 A2989 890 85 -400 VRB/04 RMK AO2
14837KMSN MSN20020110094009601/10/02 09:40:31  5-MIN KMSN 101540Z 27005KT 10SM FEW010 02/00 A2989 890 89 -400 270/05 RMK AO2
14837KMSN MSN20020110094509601/10/02 09:45:31  5-MIN KMSN 101545Z 26006KT 10SM FEW010 02/00 A2989 890 85 -400 260/06 RMK AO2
14837KMSN MSN20020110095011301/10/02 09:50:31  5-MIN KMSN 101550Z 27007KT 10SM FEW010 02/00 A2990 890 85 -400 270/07 RMK AO2 SLP131 T00220000
14837KMSN MSN20020110095509301/10/02 09:55:31  5-MIN KMSN 101555Z VRB06KT 10SM CLR 02/00 A2990 880 85 -400 VRB/06 RMK AO2
14837KMSN MSN20020110100009301/10/02 10:00:31  5-MIN KMSN 101600Z 28005KT 10SM CLR 02/00 A2990 890 85 -400 280/05 RMK AO2
14837KMSN MSN20020110100509301/10/02 10:05:31  5-MIN KMSN 101605Z VRB06KT 10SM CLR 03/00 A2990 880 82 -300 VRB/06 RMK AO2
14837KMSN MSN20020110101009401/10/02 10:10:31  5-MIN KMSN 101610Z VRB05KT 10SM CLR 03/M01 A2990 890 79 -300 VRB/05 RMK AO2
14837KMSN MSN20020110101509401/10/02 10:15:31  5-MIN KMSN 101615Z VRB06KT 10SM CLR 03/M01 A2990 890 76 -200 VRB/06 RMK AO2
14837KMSN MSN20020110102011001/10/02 10:20:31  5-MIN KMSN 101620Z 27007KT 230V310 10SM CLR 03/M01 A2990 890 76 -200 270/07 230V310 RMK AO2
14837KMSN MSN20020110102509401/10/02 10:25:31  5-MIN KMSN 101625Z 27010KT 10SM CLR 03/M01 A2989 890 76 -200 270/10 RMK AO2
14837KMSN MSN20020110103011601/10/02 10:30:31  5-MIN KMSN 101630Z 29009G15KT 260V330 10SM CLR 03/M01 A2989 890 72 -200 290/09G15 260V330 RMK AO2
14837KMSN MSN20020110103510001/10/02 10:35:31  5-MIN KMSN 101635Z 29007G15KT 10SM CLR 03/M01 A2989 890 72 -200 290/07G15 RMK AO2
14837KMSN MSN20020110104009401/10/02 10:40:31  5-MIN KMSN 101640Z 29010KT 10SM CLR 04/M01 A2989 890 70 -100 290/10 RMK AO2
14837KMSN MSN20020110104509401/10/02 10:45:31  5-MIN KMSN 101645Z 29009KT 10SM CLR 03/M01 A2989 890 72 -200 290/09 RMK AO2
14837KMSN MSN20020110105011101/10/02 10:50:31  5-MIN KMSN 101650Z 29010KT 10SM CLR 03/M02 A2989 890 70 -200 290/10 RMK AO2 SLP127 T00331017
14837KMSN MSN20020110105509401/10/02 10:55:31  5-MIN KMSN 101655Z VRB05KT 10SM CLR 04/M01 A2989 900 70 -100 VRB/05 RMK AO2
14837KMSN MSN20020110110009701/10/02 11:00:31  5-MIN KMSN 101700Z 30010KT 10SM SCT015 04/M01 A2989 900 67 -100 300/10 RMK AO2
14837KMSN MSN20020110110509701/10/02 11:05:31  5-MIN KMSN 101705Z 29010KT 10SM SCT040 04/M02 A2988 900 67 -100 290/10 RMK AO2
14837KMSN MSN20020110111009701/10/02 11:10:31  5-MIN KMSN 101710Z 28008KT 10SM SCT040 04/M02 A2988 900 64 -100 280/08 RMK AO2
14837KMSN MSN20020110111509701/10/02 11:15:31  5-MIN KMSN 101715Z 29009KT 10SM SCT040 04/M01 A2988 900 67 -100 290/09 RMK AO2
14837KMSN MSN20020110112009401/10/02 11:20:31  5-MIN KMSN 101720Z 28009KT 10SM SCT040 05/M01 A2988 900 64 0 280/09 RMK AO2
14837KMSN MSN20020110112509401/10/02 11:25:31  5-MIN KMSN 101725Z 28009KT 10SM SCT040 05/M02 A2987 910 62 0 280/09 RMK AO2
14837KMSN MSN20020110113010001/10/02 11:30:31  5-MIN KMSN 101730Z 30010G16KT 10SM BKN040 05/M02 A2987 910 62 0 300/10G16 RMK AO2
14837KMSN MSN20020110113509701/10/02 11:35:31  5-MIN KMSN 101735Z 30010KT 10SM BKN040 04/M02 A2988 900 64 -100 300/10 RMK AO2
14837KMSN MSN20020110114010301/10/02 11:40:31  5-MIN KMSN 101740Z 31010G15KT 10SM BKN040 04/M02 A2988 900 64 -100 300/10G15 RMK AO2
14837KMSN MSN20020110114510301/10/02 11:45:31  5-MIN KMSN 101745Z 30012G16KT 10SM BKN040 04/M01 A2988 900 70 -100 300/12G16 RMK AO2
14837KMSN MSN20020110115013801/10/02 11:50:31  5-MIN KMSN 101750Z 30011G18KT 10SM BKN040 04/M01 A2988 900 70 -100 300/11G18 RMK AO2 SLP126 T00391011 10050 21006 53012
14837KMSN MSN20020110115510301/10/02 11:55:31  5-MIN KMSN 101755Z 30012G18KT 10SM BKN043 04/M01 A2988 900 67 -100 300/12G18 RMK AO2
14837KMSN MSN20020110120010401/10/02 12:00:31  5-MIN KMSN 101800Z 30012KT 10SM SCT023 OVC043 04/M01 A2988 910 67 -100 290/12 RMK AO2
14837KMSN MSN20020110120511001/10/02 12:05:31  5-MIN KMSN 101805Z 31010G17KT 10SM BKN023 OVC043 04/M01 A2988 910 70 -100 310/10G17 RMK AO2
14837KMSN MSN20020110121010401/10/02 12:10:31  5-MIN KMSN 101810Z 30008KT 10SM BKN021 BKN043 04/M01 A2987 910 67 -100 300/08 RMK AO2
14837KMSN MSN20020110121510101/10/02 12:15:31  5-MIN KMSN 101815Z 30009KT 10SM BKN021 OVC043 05/M01 A2987 910 67 0 300/09 RMK AO2
14837KMSN MSN20020110122011001/10/02 12:20:31  5-MIN KMSN 101820Z 29012G16KT 10SM BKN021 OVC045 04/M01 A2987 910 67 -100 290/12G16 RMK AO2
14837KMSN MSN20020110122510301/10/02 12:25:31  5-MIN KMSN 101825Z 28012G16KT 10SM OVC021 04/M01 A2987 910 70 -100 280/12G16 RMK AO2
14837KMSN MSN20020110123010301/10/02 12:30:31  5-MIN KMSN 101830Z 29011G17KT 10SM OVC021 04/M01 A2987 910 70 -100 290/11G17 RMK AO2
14837KMSN MSN20020110123511001/10/02 12:35:31  5-MIN KMSN 101835Z 28011G17KT 10SM BKN019 OVC048 04/M01 A2987 910 70 -100 280/11G17 RMK AO2
14837KMSN MSN20020110124010401/10/02 12:40:31  5-MIN KMSN 101840Z 30007KT 10SM BKN019 OVC048 03/M01 A2987 910 72 -200 290/07 RMK AO2
14837KMSN MSN20020110124510401/10/02 12:45:31  5-MIN KMSN 101845Z 29007KT 10SM SCT019 OVC048 03/M01 A2988 910 72 -200 290/07 RMK AO2
14837KMSN MSN20020110125012101/10/02 12:50:31  5-MIN KMSN 101850Z 27008KT 10SM SCT019 OVC048 03/M01 A2987 910 72 -200 270/08 RMK AO2 SLP123 T00331011
14837KMSN MSN20020110125510401/10/02 12:55:31  5-MIN KMSN 101855Z 29009KT 10SM FEW019 OVC048 03/M01 A2987 910 72 -200 290/09 RMK AO2
14837KMSN MSN20020110130009701/10/02 13:00:31  5-MIN KMSN 101900Z 29009KT 10SM OVC048 03/M01 A2987 910 72 -200 290/09 RMK AO2
14837KMSN MSN20020110130509701/10/02 13:05:31  5-MIN KMSN 101905Z 29009KT 10SM SCT048 03/M01 A2987 910 72 -200 290/09 RMK AO2
14837KMSN MSN20020110131010301/10/02 13:10:31  5-MIN KMSN 101910Z 29009G14KT 10SM SCT048 03/M01 A2987 910 72 -200 280/09G14 RMK AO2
14837KMSN MSN20020110131511901/10/02 13:15:31  5-MIN KMSN 101915Z 28009G14KT 240V310 10SM BKN048 04/M01 A2987 910 67 -100 280/09G14 240V310 RMK AO2
14837KMSN MSN20020110132009701/10/02 13:20:31  5-MIN KMSN 101920Z 28009KT 10SM BKN048 04/M01 A2988 900 70 -100 280/09 RMK AO2
14837KMSN MSN20020110132509701/10/02 13:25:31  5-MIN KMSN 101925Z 29009KT 10SM BKN048 03/M01 A2988 900 72 -200 290/09 RMK AO2
14837KMSN MSN20020110133010301/10/02 13:30:31  5-MIN KMSN 101930Z 30011G17KT 10SM BKN048 03/M01 A2988 900 72 -200 300/11G17 RMK AO2
14837KMSN MSN20020110133511001/10/02 13:35:31  5-MIN KMSN 101935Z 28011G17KT 10SM BKN021 OVC055 03/M01 A2988 900 72 -200 280/11G17 RMK AO2
14837KMSN MSN20020110134010401/10/02 13:40:31  5-MIN KMSN 101940Z 29009KT 10SM BKN021 OVC055 04/M01 A2988 900 70 -100 290/09 RMK AO2
14837KMSN MSN20020110134510401/10/02 13:45:31  5-MIN KMSN 101945Z 30010KT 10SM BKN021 OVC055 03/M01 A2988 900 72 -200 300/10 RMK AO2
14837KMSN MSN20020110135012701/10/02 13:50:31  5-MIN KMSN 101950Z 29008G17KT 10SM BKN023 OVC060 03/M01 A2988 900 72 -200 290/08G17 RMK AO2 SLP126 T00331011
14837KMSN MSN20020110135511001/10/02 13:55:31  5-MIN KMSN 101955Z 29007G17KT 10SM BKN023 OVC055 03/M01 A2988 900 72 -200 290/07G17 RMK AO2
14837KMSN MSN20020110140010401/10/02 14:00:31  5-MIN KMSN 102000Z 30010KT 10SM BKN023 OVC055 03/M01 A2988 900 72 -200 300/10 RMK AO2
14837KMSN MSN20020110140510401/10/02 14:05:31  5-MIN KMSN 102005Z 29010KT 10SM BKN023 OVC055 03/M01 A2988 900 72 -200 290/10 RMK AO2
14837KMSN MSN20020110141010401/10/02 14:10:31  5-MIN KMSN 102010Z 29010KT 10SM BKN023 OVC055 03/M01 A2988 900 72 -200 290/10 RMK AO2
14837KMSN MSN20020110141510401/10/02 14:15:31  5-MIN KMSN 102015Z 29010KT 10SM SCT023 OVC060 03/M01 A2988 900 72 -200 290/10 RMK AO2
14837KMSN MSN20020110142010401/10/02 14:20:31  5-MIN KMSN 102020Z 28008KT 10SM SCT023 OVC060 03/M01 A2988 900 72 -200 280/08 RMK AO2
14837KMSN MSN20020110142510401/10/02 14:25:31  5-MIN KMSN 102025Z 27009KT 10SM SCT023 OVC060 03/M01 A2988 900 72 -200 270/09 RMK AO2
14837KMSN MSN20020110143010401/10/02 14:30:31  5-MIN KMSN 102030Z 28008KT 10SM SCT023 OVC060 03/M01 A2989 900 72 -200 280/08 RMK AO2
14837KMSN MSN20020110143512601/10/02 14:35:31  5-MIN KMSN 102035Z 29007G14KT 260V330 10SM BKN023 OVC060 03/M01 A2989 890 72 -200 290/07G14 260V330 RMK AO2
14837KMSN MSN20020110144011101/10/02 14:40:31  5-MIN KMSN 102040Z 29010KT 10SM BKN021 BKN026 OVC060 03/M01 A2989 890 72 -200 290/10 RMK AO2
14837KMSN MSN20020110144511101/10/02 14:45:31  5-MIN KMSN 102045Z 28008KT 10SM BKN021 BKN026 OVC060 03/M01 A2989 890 72 -200 280/08 RMK AO2
14837KMSN MSN20020110145012701/10/02 14:50:31  5-MIN KMSN 102050Z 28010KT 10SM BKN021 OVC026 03/M01 A2989 890 72 -200 280/10 RMK AO2 SLP131 T00331011 58001
14837KMSN MSN20020110145510401/10/02 14:55:31  5-MIN KMSN 102055Z 29009KT 10SM BKN021 OVC026 03/M01 A2989 890 72 -200 290/09 RMK AO2
14837KMSN MSN20020110150010401/10/02 15:00:31  5-MIN KMSN 102100Z 28007KT 10SM BKN021 OVC026 03/M01 A2990 890 72 -200 280/07 RMK AO2
14837KMSN MSN20020110150509701/10/02 15:05:31  5-MIN KMSN 102105Z 29006KT 10SM OVC021 03/M01 A2990 890 72 -200 290/06 RMK AO2
14837KMSN MSN20020110151009701/10/02 15:10:31  5-MIN KMSN 102110Z VRB04KT 10SM OVC023 03/M01 A2990 880 72 -200 VRB/04 RMK AO2
14837KMSN MSN20020110151509701/10/02 15:15:31  5-MIN KMSN 102115Z VRB05KT 10SM OVC023 03/M01 A2990 880 72 -200 VRB/05 RMK AO2
14837KMSN MSN20020110152009701/10/02 15:20:31  5-MIN KMSN 102120Z 28007KT 10SM OVC023 03/M01 A2990 880 72 -200 280/07 RMK AO2
14837KMSN MSN20020110152510401/10/02 15:25:31  5-MIN KMSN 102125Z VRB05KT 10SM BKN023 OVC029 03/M01 A2990 880 72 -200 VRB/05 RMK AO2
14837KMSN MSN20020110153009701/10/02 15:30:31  5-MIN KMSN 102130Z 27008KT 10SM OVC025 03/M01 A2990 880 72 -200 270/08 RMK AO2
14837KMSN MSN20020110153509701/10/02 15:35:31  5-MIN KMSN 102135Z 28006KT 10SM OVC025 03/M01 A2990 890 72 -200 280/06 RMK AO2
14837KMSN MSN20020110154009701/10/02 15:40:31  5-MIN KMSN 102140Z VRB06KT 10SM OVC027 03/M01 A2989 890 72 -200 VRB/06 RMK AO2
14837KMSN MSN20020110154509701/10/02 15:45:31  5-MIN KMSN 102145Z 28005KT 10SM OVC027 03/M01 A2989 890 72 -200 280/05 RMK AO2
14837KMSN MSN20020110155011401/10/02 15:50:31  5-MIN KMSN 102150Z 27006KT 10SM OVC027 03/M02 A2990 890 70 -200 270/06 RMK AO2 SLP132 T00331017
14837KMSN MSN20020110155509701/10/02 15:55:31  5-MIN KMSN 102155Z 28006KT 10SM OVC029 03/M02 A2990 890 70 -200 280/06 RMK AO2
14837KMSN MSN20020110160010401/10/02 16:00:31  5-MIN KMSN 102200Z 27007KT 10SM FEW025 OVC031 03/M02 A2990 890 70 -200 270/07 RMK AO2
14837KMSN MSN20020110160509701/10/02 16:05:31  5-MIN KMSN 102205Z 27005KT 10SM OVC031 03/M02 A2990 890 72 -300 270/05 RMK AO2
14837KMSN MSN20020110161010401/10/02 16:10:31  5-MIN KMSN 102210Z VRB05KT 10SM BKN031 OVC060 03/M02 A2990 880 72 -300 VRB/05 RMK AO2
14837KMSN MSN20020110161510401/10/02 16:15:31  5-MIN KMSN 102215Z 27007KT 10SM BKN031 OVC060 03/M02 A2990 880 72 -300 270/07 RMK AO2
14837KMSN MSN20020110162010401/10/02 16:20:31  5-MIN KMSN 102220Z 27005KT 10SM BKN028 OVC033 03/M02 A2990 880 72 -300 270/05 RMK AO2
14837KMSN MSN20020110162510401/10/02 16:25:31  5-MIN KMSN 102225Z VRB05KT 10SM BKN028 OVC033 03/M02 A2990 880 72 -300 VRB/05 RMK AO2
14837KMSN MSN20020110163010401/10/02 16:30:31  5-MIN KMSN 102230Z 27008KT 10SM BKN028 OVC036 03/M02 A2990 880 72 -300 270/08 RMK AO2
14837KMSN MSN20020110163510401/10/02 16:35:31  5-MIN KMSN 102235Z 27005KT 10SM BKN028 OVC034 03/M02 A2990 880 72 -300 270/05 RMK AO2
14837KMSN MSN20020110164010401/10/02 16:40:31  5-MIN KMSN 102240Z 27006KT 10SM BKN028 OVC034 03/M02 A2990 880 72 -300 270/06 RMK AO2
14837KMSN MSN20020110164511101/10/02 16:45:31  5-MIN KMSN 102245Z 27007KT 10SM BKN028 BKN034 OVC055 03/M02 A2990 880 72 -300 270/07 RMK AO2
14837KMSN MSN20020110165012801/10/02 16:50:31  5-MIN KMSN 102250Z 28008KT 10SM SCT028 BKN034 OVC055 03/M02 A2991 880 72 -300 280/08 RMK AO2 SLP135 T00281017
14837KMSN MSN20020110165511101/10/02 16:55:31  5-MIN KMSN 102255Z 28006KT 10SM SCT028 BKN034 OVC055 03/M02 A2991 880 72 -300 280/06 RMK AO2
14837KMSN MSN20020110170011101/10/02 17:00:31  5-MIN KMSN 102300Z 28006KT 10SM FEW028 BKN034 OVC055 03/M02 A2991 880 72 -300 280/06 RMK AO2
14837KMSN MSN20020110170511101/10/02 17:05:31  5-MIN KMSN 102305Z 27006KT 10SM FEW028 BKN036 OVC055 03/M02 A2991 880 72 -300 270/06 RMK AO2
14837KMSN MSN20020110171010401/10/02 17:10:31  5-MIN KMSN 102310Z 28007KT 10SM BKN036 OVC055 03/M02 A2991 880 72 -300 270/07 RMK AO2
14837KMSN MSN20020110171510401/10/02 17:15:31  5-MIN KMSN 102315Z 28007KT 10SM BKN036 OVC055 03/M02 A2991 870 72 -300 280/07 RMK AO2
14837KMSN MSN20020110172010401/10/02 17:20:31  5-MIN KMSN 102320Z 28007KT 10SM BKN034 OVC055 03/M02 A2991 870 72 -300 280/07 RMK AO2
14837KMSN MSN20020110172511101/10/02 17:25:31  5-MIN KMSN 102325Z 28006KT 10SM BKN030 BKN036 OVC055 03/M01 A2991 870 75 -300 280/06 RMK AO2
14837KMSN MSN20020110173011101/10/02 17:30:31  5-MIN KMSN 102330Z 27006KT 10SM BKN030 BKN036 OVC055 03/M01 A2991 870 75 -300 270/06 RMK AO2
14837KMSN MSN20020110173511101/10/02 17:35:31  5-MIN KMSN 102335Z 27007KT 10SM SCT027 BKN036 OVC055 03/M01 A2991 870 75 -300 270/07 RMK AO2
14837KMSN MSN20020110174011101/10/02 17:40:31  5-MIN KMSN 102340Z 28008KT 10SM SCT027 BKN036 OVC055 03/M01 A2991 870 75 -300 280/08 RMK AO2
14837KMSN MSN20020110174511101/10/02 17:45:31  5-MIN KMSN 102345Z 28007KT 10SM SCT027 BKN036 OVC055 03/M01 A2991 870 75 -300 280/07 RMK AO2
14837KMSN MSN20020110175014601/10/02 17:50:31  5-MIN KMSN 102350Z 27009KT 10SM SCT027 BKN036 OVC055 03/M01 A2992 870 75 -300 260/09 RMK AO2 SLP139 T00281011 10050 20028 53004
14837KMSN MSN20020110175511301/10/02 17:55:31  5-MIN KMSN 102355Z 28008KT 240V300 10SM OVC027 03/M01 A2992 870 75 -300 280/08 240V300 RMK AO2
14837KMSN MSN20020110180011301/10/02 18:00:31  5-MIN KMSN 110000Z 28007KT 240V310 10SM OVC025 03/M01 A2992 860 75 -300 280/07 240V310 RMK AO2
14837KMSN MSN20020110180509701/10/02 18:05:31  5-MIN KMSN 110005Z 28009KT 10SM OVC025 03/M02 A2992 860 72 -300 280/09 RMK AO2
14837KMSN MSN20020110181009701/10/02 18:10:31  5-MIN KMSN 110010Z 28007KT 10SM OVC025 03/M02 A2992 860 72 -300 280/07 RMK AO2
14837KMSN MSN20020110181509701/10/02 18:15:31  5-MIN KMSN 110015Z 28008KT 10SM OVC025 03/M02 A2992 860 72 -300 280/08 RMK AO2
14837KMSN MSN20020110182009701/10/02 18:20:31  5-MIN KMSN 110020Z 28010KT 10SM OVC025 03/M02 A2993 860 72 -300 280/10 RMK AO2
14837KMSN MSN20020110182509701/10/02 18:25:31  5-MIN KMSN 110025Z 28007KT 10SM OVC025 03/M02 A2993 860 72 -300 280/07 RMK AO2
14837KMSN MSN20020110183009701/10/02 18:30:31  5-MIN KMSN 110030Z 28008KT 10SM OVC027 03/M01 A2993 860 75 -300 280/08 RMK AO2
14837KMSN MSN20020110183509701/10/02 18:35:31  5-MIN KMSN 110035Z 28010KT 10SM OVC027 03/M01 A2993 860 75 -300 280/10 RMK AO2
14837KMSN MSN20020110184009701/10/02 18:40:31  5-MIN KMSN 110040Z 28008KT 10SM OVC027 03/M01 A2993 860 75 -300 280/08 RMK AO2
14837KMSN MSN20020110184509701/10/02 18:45:31  5-MIN KMSN 110045Z 29009KT 10SM OVC027 02/M01 A2993 850 78 -400 290/09 RMK AO2
14837KMSN MSN20020110185011401/10/02 18:50:31  5-MIN KMSN 110050Z 28008KT 10SM OVC027 02/M01 A2993 850 78 -400 280/08 RMK AO2 SLP145 T00221011
14837KMSN MSN20020110185510401/10/02 18:55:31  5-MIN KMSN 110055Z 28008KT 10SM BKN027 OVC034 02/M01 A2994 850 78 -400 280/08 RMK AO2
14837KMSN MSN20020110190010401/10/02 19:00:31  5-MIN KMSN 110100Z 29008KT 10SM BKN025 OVC032 02/M01 A2994 850 78 -400 290/08 RMK AO2
14837KMSN MSN20020110190511101/10/02 19:05:31  5-MIN KMSN 110105Z 28006KT 10SM SCT025 BKN029 OVC034 02/M01 A2994 850 78 -400 280/06 RMK AO2
14837KMSN MSN20020110191010401/10/02 19:10:31  5-MIN KMSN 110110Z 26008KT 10SM BKN025 OVC034 02/M01 A2994 850 78 -400 260/08 RMK AO2
14837KMSN MSN20020110191510401/10/02 19:15:31  5-MIN KMSN 110115Z 28007KT 10SM BKN025 OVC034 02/M01 A2994 850 78 -400 270/07 RMK AO2
14837KMSN MSN20020110192010401/10/02 19:20:31  5-MIN KMSN 110120Z 28005KT 10SM BKN025 OVC060 02/M01 A2994 850 78 -400 280/05 RMK AO2
14837KMSN MSN20020110192510401/10/02 19:25:31  5-MIN KMSN 110125Z 28007KT 10SM SCT025 OVC060 02/M01 A2994 840 78 -400 280/07 RMK AO2
14837KMSN MSN20020110193011101/10/02 19:30:31  5-MIN KMSN 110130Z 29007KT 10SM SCT025 SCT034 OVC060 02/M01 A2994 840 78 -400 280/07 RMK AO2
14837KMSN MSN20020110193511101/10/02 19:35:31  5-MIN KMSN 110135Z 29006KT 10SM FEW025 BKN036 OVC060 02/M01 A2995 840 78 -400 290/06 RMK AO2
14837KMSN MSN20020110194011101/10/02 19:40:31  5-MIN KMSN 110140Z 28007KT 10SM FEW024 BKN036 OVC060 02/M01 A2995 840 78 -400 280/07 RMK AO2
14837KMSN MSN20020110194511101/10/02 19:45:31  5-MIN KMSN 110145Z 29006KT 10SM FEW021 BKN038 OVC060 02/M01 A2995 840 78 -400 290/06 RMK AO2
14837KMSN MSN20020110195012801/10/02 19:50:31  5-MIN KMSN 110150Z 28006KT 10SM SCT021 BKN030 OVC060 02/M01 A2995 840 78 -400 280/06 RMK AO2 SLP150 T00221011
14837KMSN MSN20020110195511101/10/02 19:55:31  5-MIN KMSN 110155Z 27004KT 10SM SCT021 BKN030 OVC037 02/M01 A2995 840 78 -400 270/04 RMK AO2
14837KMSN MSN20020110200011101/10/02 20:00:31  5-MIN KMSN 110200Z 27005KT 10SM SCT021 BKN030 OVC037 02/M01 A2995 830 78 -400 270/05 RMK AO2
14837KMSN MSN20020110200511101/10/02 20:05:31  5-MIN KMSN 110205Z 28004KT 10SM SCT021 BKN030 OVC037 02/M01 A2995 830 78 -400 280/04 RMK AO2
14837KMSN MSN20020110201011101/10/02 20:10:31  5-MIN KMSN 110210Z VRB04KT 10SM SCT021 BKN030 OVC037 02/M01 A2996 830 78 -400 VRB/04 RMK AO2
14837KMSN MSN20020110201511101/10/02 20:15:31  5-MIN KMSN 110215Z 27005KT 10SM SCT021 BKN030 OVC037 02/M01 A2996 830 78 -400 270/05 RMK AO2
14837KMSN MSN20020110202011101/10/02 20:20:31  5-MIN KMSN 110220Z 28006KT 10SM SCT021 BKN030 OVC037 02/M01 A2996 830 78 -400 280/06 RMK AO2
14837KMSN MSN20020110202511101/10/02 20:25:31  5-MIN KMSN 110225Z 28007KT 10SM SCT021 BKN030 OVC037 02/M01 A2996 830 78 -400 280/07 RMK AO2
14837KMSN MSN20020110203010401/10/02 20:30:31  5-MIN KMSN 110230Z 29007KT 10SM BKN019 OVC026 02/M01 A2996 830 82 -500 290/07 RMK AO2
14837KMSN MSN20020110203511001/10/02 20:35:31  5-MIN KMSN 110235Z 28009KT 9SM BKN016 BKN023 OVC027 02/M01 A2996 830 85 -500 280/09 RMK AO2
14837KMSN MSN20020110204011601/10/02 20:40:31  5-MIN KMSN 110240Z 27009G14KT 9SM BKN016 BKN023 OVC038 02/M01 A2996 830 85 -500 270/09G14 RMK AO2
14837KMSN MSN20020110204511601/10/02 20:45:31  5-MIN KMSN 110245Z 29007G14KT 8SM SCT016 BKN023 OVC038 02/M01 A2996 830 85 -500 290/07G14 RMK AO2
14837KMSN MSN20020110205015501/10/02 20:50:31  5-MIN KMSN 110250Z 29009KT 8SM -DZ FEW016 BKN025 OVC035 02/M01 A2996 830 85 -500 290/09 RMK AO2 DZB50 SLP153 P0000 60000 T00171006 53009
14837KMSN MSN20020110205512001/10/02 20:55:31  5-MIN KMSN 110255Z 28007KT 9SM -DZ FEW016 SCT025 OVC035 02/M01 A2996 830 85 -500 280/07 RMK AO2 P0000
14837KMSN MSN20020110210011301/10/02 21:00:31  5-MIN KMSN 110300Z 28008KT 9SM -DZ FEW016 OVC035 02/M01 A2996 830 85 -500 280/08 RMK AO2 P0000
14837KMSN MSN20020110210511301/10/02 21:05:31  5-MIN KMSN 110305Z 29007KT 9SM -DZ FEW025 OVC035 02/M01 A2996 830 85 -500 290/07 RMK AO2 P0000
14837KMSN MSN20020110211011501/10/02 21:10:31  5-MIN KMSN 110310Z 29008KT 9SM BKN030 OVC035 02/M01 A2996 830 85 -500 290/08 RMK AO2 DZE07 P0000
14837KMSN MSN20020110211510801/10/02 21:15:31  5-MIN KMSN 110315Z 28006KT 9SM OVC033 02/M01 A2996 830 85 -500 280/06 RMK AO2 DZE07 P0000
14837KMSN MSN20020110212010901/10/02 21:20:31  5-MIN KMSN 110320Z 29008KT 10SM OVC033 02/M01 A2996 830 85 -500 290/08 RMK AO2 DZE07 P0000
14837KMSN MSN20020110212511601/10/02 21:25:31  5-MIN KMSN 110325Z 29008KT 10SM BKN033 OVC040 02/M01 A2996 820 82 -500 290/08 RMK AO2 DZE07 P0000
14837KMSN MSN20020110213011601/10/02 21:30:31  5-MIN KMSN 110330Z 29006KT 10SM BKN033 OVC040 02/M01 A2996 830 82 -500 290/06 RMK AO2 DZE07 P0000
14837KMSN MSN20020110213510901/10/02 21:35:31  5-MIN KMSN 110335Z 29005KT 10SM OVC035 02/M01 A2996 830 82 -500 290/05 RMK AO2 DZE07 P0000
14837KMSN MSN20020110214011601/10/02 21:40:31  5-MIN KMSN 110340Z 29008KT 10SM FEW028 OVC035 01/M01 A2996 830 85 -600 290/08 RMK AO2 DZE07 P0000
14837KMSN MSN20020110214512201/10/02 21:45:31  5-MIN KMSN 110345Z 31011G16KT 10SM BKN028 OVC037 02/M02 A2996 830 75 -500 310/11G16 RMK AO2 DZE07 P0000
14837KMSN MSN20020110215013901/10/02 21:50:31  5-MIN KMSN 110350Z 31010G16KT 10SM BKN028 OVC037 02/M03 A2996 830 72 -500 310/10G16 RMK AO2 DZE07 SLP155 P0000 T00171028
14837KMSN MSN20020110215510401/10/02 21:55:31  5-MIN KMSN 110355Z 31007KT 10SM BKN028 OVC037 02/M03 A2996 820 72 -500 300/07 RMK AO2
14837KMSN MSN20020110220009701/10/02 22:00:31  5-MIN KMSN 110400Z 30008KT 10SM OVC026 02/M03 A2996 820 72 -500 300/08 RMK AO2
14837KMSN MSN20020110220509701/10/02 22:05:31  5-MIN KMSN 110405Z 31008KT 10SM OVC026 02/M03 A2996 820 72 -500 300/08 RMK AO2
14837KMSN MSN20020110221009701/10/02 22:10:31  5-MIN KMSN 110410Z 32008KT 10SM OVC026 02/M03 A2997 820 72 -500 320/08 RMK AO2
14837KMSN MSN20020110221509701/10/02 22:15:31  5-MIN KMSN 110415Z 31007KT 10SM OVC026 02/M03 A2997 820 72 -500 310/07 RMK AO2
14837KMSN MSN20020110222009701/10/02 22:20:31  5-MIN KMSN 110420Z 31007KT 10SM OVC024 02/M03 A2997 820 72 -500 310/07 RMK AO2
14837KMSN MSN20020110222509701/10/02 22:25:31  5-MIN KMSN 110425Z 31007KT 10SM OVC024 02/M03 A2997 810 72 -500 310/07 RMK AO2
14837KMSN MSN20020110223009701/10/02 22:30:31  5-MIN KMSN 110430Z 31007KT 10SM OVC024 02/M03 A2998 810 72 -500 310/07 RMK AO2
14837KMSN MSN20020110223509701/10/02 22:35:31  5-MIN KMSN 110435Z 30009KT 10SM OVC024 02/M03 A2998 810 72 -500 300/09 RMK AO2
14837KMSN MSN20020110224009701/10/02 22:40:31  5-MIN KMSN 110440Z 31007KT 10SM OVC024 02/M03 A2998 810 72 -500 310/07 RMK AO2
14837KMSN MSN20020110224509701/10/02 22:45:31  5-MIN KMSN 110445Z 30008KT 10SM OVC024 02/M03 A2998 810 72 -500 300/08 RMK AO2
14837KMSN MSN20020110225011401/10/02 22:50:31  5-MIN KMSN 110450Z 30006KT 10SM OVC024 02/M03 A2998 810 72 -500 300/06 RMK AO2 SLP159 T00171028
14837KMSN MSN20020110225511301/10/02 22:55:31  5-MIN KMSN 110455Z 30007KT 280V350 10SM OVC024 02/M03 A2998 810 72 -500 300/07 280V350 RMK AO2
14837KMSN MSN20020110230009701/10/02 23:00:31  5-MIN KMSN 110500Z 30007KT 10SM OVC024 02/M03 A2998 810 72 -500 300/07 RMK AO2
14837KMSN MSN20020110230509701/10/02 23:05:31  5-MIN KMSN 110505Z 30006KT 10SM OVC024 02/M03 A2998 810 72 -500 300/06 RMK AO2
14837KMSN MSN20020110231009701/10/02 23:10:31  5-MIN KMSN 110510Z 28006KT 10SM OVC024 02/M03 A2998 810 72 -500 280/06 RMK AO2
14837KMSN MSN20020110231509701/10/02 23:15:31  5-MIN KMSN 110515Z 30006KT 10SM OVC024 02/M03 A2998 810 72 -500 300/06 RMK AO2
14837KMSN MSN20020110232009701/10/02 23:20:31  5-MIN KMSN 110520Z 29006KT 10SM OVC026 02/M03 A2998 800 72 -500 290/06 RMK AO2
14837KMSN MSN20020110232509701/10/02 23:25:31  5-MIN KMSN 110525Z VRB06KT 10SM OVC026 02/M03 A2998 800 72 -500 VRB/06 RMK AO2
14837KMSN MSN20020110233009701/10/02 23:30:31  5-MIN KMSN 110530Z 29006KT 10SM OVC026 02/M03 A2998 800 69 -500 290/06 RMK AO2
14837KMSN MSN20020110233509701/10/02 23:35:31  5-MIN KMSN 110535Z 29007KT 10SM OVC026 02/M03 A2999 800 69 -500 290/07 RMK AO2
14837KMSN MSN20020110234009701/10/02 23:40:31  5-MIN KMSN 110540Z 29009KT 10SM OVC026 02/M03 A2999 800 69 -500 290/09 RMK AO2
14837KMSN MSN20020110234509701/10/02 23:45:31  5-MIN KMSN 110545Z 30007KT 10SM OVC026 02/M03 A2999 800 69 -500 300/07 RMK AO2
14837KMSN MSN20020110235014801/10/02 23:50:31  5-MIN KMSN 110550Z 30008KT 10SM OVC026 02/M03 A2999 800 69 -500 300/08 RMK AO2 SLP162 60000 T00171033 10028 20011 400501006 51013
14837KMSN MSN20020110235509701/10/02 23:55:31  5-MIN KMSN 110555Z 30007KT 10SM OVC026 02/M04 A2999 800 66 -500 300/07 RMK AO2
14837KMSN MSN20020111000009701/11/02 00:00:31  5-MIN KMSN 110600Z 31009KT 10SM OVC026 02/M04 A2999 800 66 -500 310/09 RMK AO2
14837KMSN MSN20020111000509701/11/02 00:05:31  5-MIN KMSN 110605Z 30007KT 10SM OVC026 02/M04 A2999 800 66 -500 300/07 RMK AO2
14837KMSN MSN20020111001011301/11/02 00:10:31  5-MIN KMSN 110610Z 29008KT 260V330 10SM OVC026 02/M04 A2999 800 66 -500 290/08 260V330 RMK AO2
14837KMSN MSN20020111001509701/11/02 00:15:31  5-MIN KMSN 110615Z 29008KT 10SM OVC026 02/M04 A2999 800 66 -500 280/08 RMK AO2
14837KMSN MSN20020111002009701/11/02 00:20:31  5-MIN KMSN 110620Z 29006KT 10SM OVC026 02/M04 A2998 800 66 -500 290/06 RMK AO2
14837KMSN MSN20020111002509701/11/02 00:25:31  5-MIN KMSN 110625Z 29006KT 10SM OVC026 02/M04 A2998 810 66 -500 290/06 RMK AO2
14837KMSN MSN20020111003009701/11/02 00:30:31  5-MIN KMSN 110630Z 29009KT 10SM OVC026 02/M04 A2998 810 66 -500 290/09 RMK AO2
14837KMSN MSN20020111003509701/11/02 00:35:31  5-MIN KMSN 110635Z 29005KT 10SM OVC026 02/M04 A2998 810 66 -500 290/05 RMK AO2
14837KMSN MSN20020111004009701/11/02 00:40:31  5-MIN KMSN 110640Z VRB04KT 10SM OVC026 01/M04 A2998 810 69 -600 VRB/04 RMK AO2
14837KMSN MSN20020111004509701/11/02 00:45:31  5-MIN KMSN 110645Z VRB06KT 10SM OVC026 02/M04 A2998 810 66 -500 VRB/06 RMK AO2
14837KMSN MSN20020111005011401/11/02 00:50:31  5-MIN KMSN 110650Z 28005KT 10SM OVC026 01/M04 A2998 810 69 -600 280/05 RMK AO2 SLP162 T00111039
14837KMSN MSN20020111005509701/11/02 00:55:31  5-MIN KMSN 110655Z 30005KT 10SM OVC026 01/M04 A2998 810 69 -600 300/05 RMK AO2
14837KMSN MSN20020111010009701/11/02 01:00:31  5-MIN KMSN 110700Z 29009KT 10SM OVC026 01/M04 A2998 810 69 -600 290/09 RMK AO2
14837KMSN MSN20020111010509701/11/02 01:05:31  5-MIN KMSN 110705Z 29007KT 10SM OVC026 01/M04 A2998 810 69 -600 290/07 RMK AO2
14837KMSN MSN20020111011009701/11/02 01:10:31  5-MIN KMSN 110710Z 28006KT 10SM OVC026 01/M04 A2998 800 69 -600 280/06 RMK AO2
14837KMSN MSN20020111011509701/11/02 01:15:31  5-MIN KMSN 110715Z VRB06KT 10SM OVC026 01/M04 A2999 800 69 -600 VRB/06 RMK AO2
14837KMSN MSN20020111012009701/11/02 01:20:31  5-MIN KMSN 110720Z 28008KT 10SM OVC026 01/M04 A2999 800 69 -600 280/08 RMK AO2
14837KMSN MSN20020111012509701/11/02 01:25:31  5-MIN KMSN 110725Z 29006KT 10SM OVC026 01/M04 A2999 800 69 -600 280/06 RMK AO2
14837KMSN MSN20020111013011301/11/02 01:30:31  5-MIN KMSN 110730Z 28007KT 240V310 10SM OVC026 01/M04 A2999 800 69 -600 280/07 240V310 RMK AO2
14837KMSN MSN20020111013510301/11/02 01:35:31  5-MIN KMSN 110735Z VRB06G14KT 10SM OVC026 01/M04 A2999 800 69 -600 VRB/06G14 RMK AO2
14837KMSN MSN20020111014010301/11/02 01:40:31  5-MIN KMSN 110740Z 28009G14KT 10SM OVC026 01/M04 A2999 800 69 -600 280/09G14 RMK AO2
14837KMSN MSN20020111014510301/11/02 01:45:31  5-MIN KMSN 110745Z 30005G14KT 10SM OVC026 01/M04 A2999 800 66 -600 300/05G14 RMK AO2
14837KMSN MSN20020111015011401/11/02 01:50:31  5-MIN KMSN 110750Z VRB06KT 10SM OVC026 01/M04 A2999 800 66 -600 VRB/06 RMK AO2 SLP165 T00111044
14837KMSN MSN20020111015509701/11/02 01:55:31  5-MIN KMSN 110755Z 30008KT 10SM OVC026 01/M04 A2999 800 66 -600 300/08 RMK AO2
14837KMSN MSN20020111020009701/11/02 02:00:31  5-MIN KMSN 110800Z 28008KT 10SM OVC026 01/M04 A3000 790 66 -600 280/08 RMK AO2
14837KMSN MSN20020111020509701/11/02 02:05:31  5-MIN KMSN 110805Z 29009KT 10SM OVC026 01/M04 A3000 790 66 -600 290/09 RMK AO2
14837KMSN MSN20020111021009701/11/02 02:10:31  5-MIN KMSN 110810Z 28008KT 10SM OVC026 01/M04 A3000 790 66 -600 280/08 RMK AO2
14837KMSN MSN20020111021509701/11/02 02:15:31  5-MIN KMSN 110815Z 29010KT 10SM OVC026 01/M04 A3000 790 66 -600 280/10 RMK AO2
14837KMSN MSN20020111022009701/11/02 02:20:31  5-MIN KMSN 110820Z 29007KT 10SM OVC026 01/M04 A3000 800 66 -600 290/07 RMK AO2
14837KMSN MSN20020111022510301/11/02 02:25:31  5-MIN KMSN 110825Z 28009G15KT 10SM OVC026 01/M04 A3000 790 66 -600 280/09G15 RMK AO2
14837KMSN MSN20020111023010301/11/02 02:30:31  5-MIN KMSN 110830Z 29014G18KT 10SM OVC026 01/M04 A3000 790 66 -600 290/14G18 RMK AO2
14837KMSN MSN20020111023510301/11/02 02:35:31  5-MIN KMSN 110835Z 31010G18KT 10SM OVC026 01/M04 A3000 790 66 -600 310/10G18 RMK AO2
14837KMSN MSN20020111024010301/11/02 02:40:31  5-MIN KMSN 110840Z 30011G17KT 10SM OVC026 01/M04 A3001 790 66 -600 300/11G17 RMK AO2
14837KMSN MSN20020111024509701/11/02 02:45:31  5-MIN KMSN 110845Z 30010KT 10SM OVC026 01/M04 A3000 790 66 -600 300/10 RMK AO2
14837KMSN MSN20020111025012001/11/02 02:50:31  5-MIN KMSN 110850Z 29009KT 10SM OVC026 01/M04 A3001 780 66 -600 290/09 RMK AO2 SLP170 T00111044 53009
14837KMSN MSN20020111025509701/11/02 02:55:31  5-MIN KMSN 110855Z 29005KT 10SM OVC026 01/M04 A3001 780 66 -600 290/05 RMK AO2
14837KMSN MSN20020111030009701/11/02 03:00:31  5-MIN KMSN 110900Z 30006KT 10SM OVC026 01/M04 A3001 780 66 -600 300/06 RMK AO2
14837KMSN MSN20020111030509701/11/02 03:05:31  5-MIN KMSN 110905Z 29007KT 10SM OVC026 01/M04 A3001 780 66 -600 290/07 RMK AO2
14837KMSN MSN20020111031009701/11/02 03:10:31  5-MIN KMSN 110910Z 27005KT 10SM OVC026 01/M04 A3001 780 66 -600 270/05 RMK AO2
14837KMSN MSN20020111031509701/11/02 03:15:31  5-MIN KMSN 110915Z VRB05KT 10SM OVC026 01/M04 A3001 780 69 -700 VRB/05 RMK AO2
14837KMSN MSN20020111032009701/11/02 03:20:31  5-MIN KMSN 110920Z 28005KT 10SM OVC026 01/M04 A3001 780 69 -700 280/05 RMK AO2
14837KMSN MSN20020111032509701/11/02 03:25:31  5-MIN KMSN 110925Z 28008KT 10SM OVC026 01/M04 A3001 780 69 -700 280/08 RMK AO2
14837KMSN MSN20020111033009701/11/02 03:30:31  5-MIN KMSN 110930Z 29006KT 10SM OVC026 01/M04 A3001 780 69 -700 290/06 RMK AO2
14837KMSN MSN20020111033509701/11/02 03:35:31  5-MIN KMSN 110935Z 30007KT 10SM OVC026 01/M04 A3001 780 69 -700 290/07 RMK AO2
14837KMSN MSN20020111034009701/11/02 03:40:31  5-MIN KMSN 110940Z 28007KT 10SM OVC026 01/M04 A3001 780 69 -700 280/07 RMK AO2
14837KMSN MSN20020111034509701/11/02 03:45:31  5-MIN KMSN 110945Z 29006KT 10SM OVC026 01/M05 A3001 780 66 -700 290/06 RMK AO2
14837KMSN MSN20020111121509401/11/02 12:15:31  5-MIN KMSN 111815Z 23007KT 10SM CLR 04/M03 A2998 810 59 -200 230/07 RMK AO2
14837KMSN MSN20020111122009401/11/02 12:20:31  5-MIN KMSN 111820Z 22008KT 10SM CLR 04/M03 A2997 820 59 -200 220/08 RMK AO2
14837KMSN MSN20020111122509401/11/02 12:25:31  5-MIN KMSN 111825Z 22008KT 10SM CLR 05/M03 A2997 820 57 -100 210/08 RMK AO2
14837KMSN MSN20020111123011001/11/02 12:30:31  5-MIN KMSN 111830Z 23007KT 200V260 10SM CLR 05/M03 A2997 820 57 -100 230/07 200V260 RMK AO2
14837KMSN MSN20020111123509401/11/02 12:35:31  5-MIN KMSN 111835Z 23008KT 10SM CLR 05/M03 A2997 820 57 -100 230/08 RMK AO2
14837KMSN MSN20020111124009401/11/02 12:40:31  5-MIN KMSN 111840Z 22009KT 10SM CLR 05/M03 A2996 830 57 -100 220/09 RMK AO2
14837KMSN MSN20020111124509401/11/02 12:45:31  5-MIN KMSN 111845Z 22009KT 10SM CLR 05/M03 A2996 830 57 -100 220/09 RMK AO2
14837KMSN MSN20020111125010801/11/02 12:50:31  5-MIN KMSN 111850Z 23009KT 10SM CLR 06/M03 A2996 830 55 0 230/09 RMK AO2 SLP152 T00561028
14837KMSN MSN20020111125509701/11/02 12:55:31  5-MIN KMSN 111855Z 23009G14KT 10SM CLR 06/M03 A2995 830 55 0 230/09G14 RMK AO2
14837KMSN MSN20020111130009701/11/02 13:00:31  5-MIN KMSN 111900Z 23009G14KT 10SM CLR 06/M03 A2995 840 55 0 230/09G14 RMK AO2
14837KMSN MSN20020111130509101/11/02 13:05:31  5-MIN KMSN 111905Z 22009KT 10SM CLR 06/M03 A2995 840 53 0 220/09 RMK AO2
14837KMSN MSN20020111131009101/11/02 13:10:31  5-MIN KMSN 111910Z 23010KT 10SM CLR 06/M03 A2995 840 55 0 230/10 RMK AO2
14837KMSN MSN20020111131509101/11/02 13:15:31  5-MIN KMSN 111915Z 23009KT 10SM CLR 06/M03 A2995 840 53 0 230/09 RMK AO2
14837KMSN MSN20020111132010701/11/02 13:20:31  5-MIN KMSN 111920Z 23010KT 200V270 10SM CLR 06/M03 A2994 840 53 0 230/10 200V270 RMK AO2
14837KMSN MSN20020111132509101/11/02 13:25:31  5-MIN KMSN 111925Z 23008KT 10SM CLR 06/M03 A2994 850 53 0 230/08 RMK AO2
14837KMSN MSN20020111133009101/11/02 13:30:31  5-MIN KMSN 111930Z 22009KT 10SM CLR 06/M03 A2994 850 53 0 220/09 RMK AO2
14837KMSN MSN20020111133509301/11/02 13:35:31  5-MIN KMSN 111935Z 23008KT 10SM CLR 07/M03 A2994 850 49 100 230/08 RMK AO2
14837KMSN MSN20020111134009901/11/02 13:40:31  5-MIN KMSN 111940Z 23010G15KT 10SM CLR 07/M03 A2994 850 49 100 230/10G15 RMK AO2
14837KMSN MSN20020111134509901/11/02 13:45:31  5-MIN KMSN 111945Z 23008G15KT 10SM CLR 07/M03 A2994 850 49 100 230/08G15 RMK AO2
14837KMSN MSN20020111135011001/11/02 13:50:31  5-MIN KMSN 111950Z 23010KT 10SM CLR 07/M03 A2993 850 49 100 230/10 RMK AO2 SLP144 T00671033
14837KMSN MSN20020111135509901/11/02 13:55:31  5-MIN KMSN 111955Z 23010G15KT 10SM CLR 07/M03 A2993 850 49 100 230/10G15 RMK AO2
14837KMSN MSN20020111140009901/11/02 14:00:31  5-MIN KMSN 112000Z 23009G15KT 10SM CLR 07/M03 A2993 850 49 100 230/09G15 RMK AO2
14837KMSN MSN20020111140510901/11/02 14:05:31  5-MIN KMSN 112005Z 23007KT 190V260 10SM CLR 07/M03 A2993 860 49 100 230/07 190V260 RMK AO2
14837KMSN MSN20020111141009301/11/02 14:10:31  5-MIN KMSN 112010Z 23007KT 10SM CLR 07/M03 A2993 860 51 100 230/07 RMK AO2
14837KMSN MSN20020111141509301/11/02 14:15:31  5-MIN KMSN 112015Z 23009KT 10SM CLR 07/M03 A2992 860 51 100 230/09 RMK AO2
14837KMSN MSN20020111142009301/11/02 14:20:31  5-MIN KMSN 112020Z 23006KT 10SM CLR 07/M03 A2992 860 49 200 230/06 RMK AO2
14837KMSN MSN20020111142509301/11/02 14:25:31  5-MIN KMSN 112025Z 23008KT 10SM CLR 07/M03 A2992 860 49 200 230/08 RMK AO2
14837KMSN MSN20020111143009301/11/02 14:30:31  5-MIN KMSN 112030Z 22010KT 10SM CLR 07/M03 A2992 860 49 200 220/10 RMK AO2
14837KMSN MSN20020111143509301/11/02 14:35:31  5-MIN KMSN 112035Z 22008KT 10SM CLR 07/M03 A2992 870 49 200 220/08 RMK AO2
14837KMSN MSN20020111144009301/11/02 14:40:31  5-MIN KMSN 112040Z 23009KT 10SM CLR 07/M03 A2992 870 49 200 230/09 RMK AO2
14837KMSN MSN20020111144509301/11/02 14:45:31  5-MIN KMSN 112045Z 22010KT 10SM CLR 07/M03 A2991 870 49 200 220/10 RMK AO2
14837KMSN MSN20020111145011601/11/02 14:50:31  5-MIN KMSN 112050Z 22009KT 10SM CLR 07/M03 A2991 870 51 100 220/09 RMK AO2 SLP137 T00671028 58014
14837KMSN MSN20020111145509301/11/02 14:55:31  5-MIN KMSN 112055Z 23010KT 10SM CLR 07/M03 A2991 870 49 200 230/10 RMK AO2
14837KMSN MSN20020111150009301/11/02 15:00:31  5-MIN KMSN 112100Z 23009KT 10SM CLR 07/M03 A2991 870 49 200 230/09 RMK AO2
14837KMSN MSN20020111150509301/11/02 15:05:31  5-MIN KMSN 112105Z 22009KT 10SM CLR 07/M03 A2991 880 49 200 220/09 RMK AO2
14837KMSN MSN20020111151010901/11/02 15:10:31  5-MIN KMSN 112110Z 23010KT 200V260 10SM CLR 07/M03 A2991 880 49 100 220/10 200V260 RMK AO2
14837KMSN MSN20020111151509901/11/02 15:15:31  5-MIN KMSN 112115Z 23011G17KT 10SM CLR 07/M03 A2991 880 49 100 230/11G17 RMK AO2
14837KMSN MSN20020111152009901/11/02 15:20:31  5-MIN KMSN 112120Z 23008G17KT 10SM CLR 07/M03 A2991 880 49 100 230/08G17 RMK AO2
14837KMSN MSN20020111152509901/11/02 15:25:31  5-MIN KMSN 112125Z 23010G16KT 10SM CLR 07/M03 A2991 880 49 100 230/10G16 RMK AO2
14837KMSN MSN20020111153009901/11/02 15:30:31  5-MIN KMSN 112130Z 24008G16KT 10SM CLR 07/M03 A2991 880 49 100 240/08G16 RMK AO2
14837KMSN MSN20020111153510901/11/02 15:35:31  5-MIN KMSN 112135Z 23009KT 190V260 10SM CLR 07/M03 A2990 880 49 100 230/09 190V260 RMK AO2
14837KMSN MSN20020111154009301/11/02 15:40:31  5-MIN KMSN 112140Z 23007KT 10SM CLR 07/M03 A2990 880 49 100 230/07 RMK AO2
14837KMSN MSN20020111154509301/11/02 15:45:31  5-MIN KMSN 112145Z 23009KT 10SM CLR 07/M03 A2990 880 49 100 220/09 RMK AO2
14837KMSN MSN20020111155011001/11/02 15:50:31  5-MIN KMSN 112150Z 23008KT 10SM CLR 07/M03 A2991 880 49 100 220/08 RMK AO2 SLP134 T00671033
14837KMSN MSN20020111155509301/11/02 15:55:31  5-MIN KMSN 112155Z 23008KT 10SM CLR 07/M03 A2990 880 49 100 230/08 RMK AO2
14837KMSN MSN20020111160009301/11/02 16:00:31  5-MIN KMSN 112200Z 22009KT 10SM CLR 07/M03 A2990 880 49 100 220/09 RMK AO2
14837KMSN MSN20020111160509301/11/02 16:05:31  5-MIN KMSN 112205Z 22007KT 10SM CLR 06/M03 A2990 890 51 100 220/07 RMK AO2
14837KMSN MSN20020111161009301/11/02 16:10:31  5-MIN KMSN 112210Z 22008KT 10SM CLR 06/M03 A2990 890 51 100 220/08 RMK AO2
14837KMSN MSN20020111161509301/11/02 16:15:31  5-MIN KMSN 112215Z 22007KT 10SM CLR 06/M03 A2990 890 51 100 220/07 RMK AO2
14837KMSN MSN20020111162009301/11/02 16:20:31  5-MIN KMSN 112220Z 23008KT 10SM CLR 06/M03 A2990 880 51 100 230/08 RMK AO2
14837KMSN MSN20020111162509301/11/02 16:25:31  5-MIN KMSN 112225Z 23009KT 10SM CLR 06/M03 A2990 880 51 100 230/09 RMK AO2
14837KMSN MSN20020111163009301/11/02 16:30:31  5-MIN KMSN 112230Z 22007KT 10SM CLR 06/M03 A2990 880 51 100 220/07 RMK AO2
14837KMSN MSN20020111163509101/11/02 16:35:31  5-MIN KMSN 112235Z 22008KT 10SM CLR 06/M03 A2990 880 53 0 220/08 RMK AO2
14837KMSN MSN20020111164009101/11/02 16:40:31  5-MIN KMSN 112240Z 23007KT 10SM CLR 06/M03 A2990 880 53 0 220/07 RMK AO2
14837KMSN MSN20020111164509101/11/02 16:45:31  5-MIN KMSN 112245Z 23007KT 10SM CLR 06/M03 A2990 880 53 0 230/07 RMK AO2
14837KMSN MSN20020111165010801/11/02 16:50:31  5-MIN KMSN 112250Z 22007KT 10SM CLR 06/M03 A2990 880 53 0 220/07 RMK AO2 SLP133 T00561033
14837KMSN MSN20020111165509101/11/02 16:55:31  5-MIN KMSN 112255Z 23007KT 10SM CLR 06/M03 A2990 880 53 0 220/07 RMK AO2
14837KMSN MSN20020111170009101/11/02 17:00:31  5-MIN KMSN 112300Z 23007KT 10SM CLR 06/M03 A2990 880 53 0 230/07 RMK AO2
14837KMSN MSN20020111170509101/11/02 17:05:31  5-MIN KMSN 112305Z 23007KT 10SM CLR 06/M03 A2990 880 53 0 230/07 RMK AO2
14837KMSN MSN20020111171009101/11/02 17:10:31  5-MIN KMSN 112310Z 23008KT 10SM CLR 05/M03 A2990 880 55 0 230/08 RMK AO2
14837KMSN MSN20020111171509101/11/02 17:15:31  5-MIN KMSN 112315Z 23006KT 10SM CLR 05/M03 A2990 880 55 0 230/06 RMK AO2
14837KMSN MSN20020111172009101/11/02 17:20:31  5-MIN KMSN 112320Z 23006KT 10SM CLR 05/M03 A2990 880 55 0 220/06 RMK AO2
14837KMSN MSN20020111172509101/11/02 17:25:31  5-MIN KMSN 112325Z 23006KT 10SM CLR 05/M03 A2990 880 55 0 220/06 RMK AO2
14837KMSN MSN20020111173009101/11/02 17:30:31  5-MIN KMSN 112330Z 23006KT 10SM CLR 05/M03 A2990 880 55 0 230/06 RMK AO2
14837KMSN MSN20020111173509101/11/02 17:35:31  5-MIN KMSN 112335Z 23006KT 10SM CLR 05/M03 A2990 880 55 0 230/06 RMK AO2
14837KMSN MSN20020111174009101/11/02 17:40:31  5-MIN KMSN 112340Z 23005KT 10SM CLR 05/M03 A2990 880 55 0 230/05 RMK AO2
14837KMSN MSN20020111174509101/11/02 17:45:31  5-MIN KMSN 112345Z 23006KT 10SM CLR 05/M03 A2990 880 55 0 230/06 RMK AO2
14837KMSN MSN20020111175012901/11/02 17:50:31  5-MIN KMSN 112350Z 23006KT 10SM CLR 04/M03 A2990 880 57 -100 230/06 RMK AO2 SLP134 T00441033 10072 20039 56023
14837KMSN MSN20020111175509401/11/02 17:55:31  5-MIN KMSN 112355Z 23006KT 10SM CLR 04/M03 A2990 880 57 -100 230/06 RMK AO2
14837KMSN MSN20020111180009401/11/02 18:00:31  5-MIN KMSN 120000Z 23006KT 10SM CLR 04/M03 A2990 880 57 -100 230/06 RMK AO2
14837KMSN MSN20020111180509401/11/02 18:05:31  5-MIN KMSN 120005Z 23006KT 10SM CLR 04/M03 A2990 880 57 -100 230/06 RMK AO2
14837KMSN MSN20020111181009401/11/02 18:10:31  5-MIN KMSN 120010Z 23005KT 10SM CLR 04/M03 A2990 880 59 -100 230/05 RMK AO2
14837KMSN MSN20020111181509401/11/02 18:15:31  5-MIN KMSN 120015Z 23007KT 10SM CLR 04/M03 A2991 880 59 -100 230/07 RMK AO2
14837KMSN MSN20020111182009401/11/02 18:20:31  5-MIN KMSN 120020Z 22007KT 10SM CLR 04/M03 A2990 880 59 -100 220/07 RMK AO2
14837KMSN MSN20020111182509401/11/02 18:25:31  5-MIN KMSN 120025Z 23007KT 10SM CLR 04/M03 A2991 880 59 -100 220/07 RMK AO2
14837KMSN MSN20020111183009401/11/02 18:30:31  5-MIN KMSN 120030Z 23006KT 10SM CLR 04/M03 A2991 880 62 -200 230/06 RMK AO2
14837KMSN MSN20020111183509401/11/02 18:35:31  5-MIN KMSN 120035Z 23007KT 10SM CLR 04/M03 A2991 880 62 -200 230/07 RMK AO2
14837KMSN MSN20020111184009401/11/02 18:40:31  5-MIN KMSN 120040Z VRB05KT 10SM CLR 04/M03 A2991 880 62 -200 VRB/05 RMK AO2
14837KMSN MSN20020111184509401/11/02 18:45:31  5-MIN KMSN 120045Z 23006KT 10SM CLR 04/M03 A2991 880 62 -200 230/06 RMK AO2
14837KMSN MSN20020111185011101/11/02 18:50:31  5-MIN KMSN 120050Z 23006KT 10SM CLR 04/M03 A2990 880 62 -200 230/06 RMK AO2 SLP135 T00391028
14837KMSN MSN20020111185509401/11/02 18:55:31  5-MIN KMSN 120055Z 23005KT 10SM CLR 03/M03 A2990 880 64 -200 230/05 RMK AO2
14837KMSN MSN20020111190009401/11/02 19:00:31  5-MIN KMSN 120100Z 22005KT 10SM CLR 03/M03 A2990 880 64 -200 220/05 RMK AO2
14837KMSN MSN20020111190509401/11/02 19:05:31  5-MIN KMSN 120105Z 23006KT 10SM CLR 03/M03 A2990 880 64 -200 230/06 RMK AO2
14837KMSN MSN20020111191009401/11/02 19:10:31  5-MIN KMSN 120110Z 22006KT 10SM CLR 03/M03 A2990 880 64 -200 220/06 RMK AO2
14837KMSN MSN20020111191509401/11/02 19:15:31  5-MIN KMSN 120115Z 23005KT 10SM CLR 03/M03 A2990 880 64 -200 220/05 RMK AO2
14837KMSN MSN20020111192009401/11/02 19:20:31  5-MIN KMSN 120120Z 22006KT 10SM CLR 03/M03 A2990 880 64 -200 220/06 RMK AO2
14837KMSN MSN20020111192509401/11/02 19:25:31  5-MIN KMSN 120125Z 22007KT 10SM CLR 04/M03 A2990 890 62 -200 220/07 RMK AO2
14837KMSN MSN20020111193009401/11/02 19:30:31  5-MIN KMSN 120130Z 22006KT 10SM CLR 03/M03 A2989 890 64 -200 220/06 RMK AO2
14837KMSN MSN20020111193509401/11/02 19:35:31  5-MIN KMSN 120135Z 23006KT 10SM CLR 03/M03 A2989 890 64 -200 220/06 RMK AO2
14837KMSN MSN20020111194009401/11/02 19:40:31  5-MIN KMSN 120140Z 23006KT 10SM CLR 03/M03 A2989 890 61 -200 230/06 RMK AO2
14837KMSN MSN20020111194509401/11/02 19:45:31  5-MIN KMSN 120145Z 23004KT 10SM CLR 03/M03 A2989 900 64 -300 230/04 RMK AO2
14837KMSN MSN20020111195011101/11/02 19:50:31  5-MIN KMSN 120150Z 22005KT 10SM CLR 03/M03 A2988 900 64 -300 220/05 RMK AO2 SLP129 T00281033
14837KMSN MSN20020111195509401/11/02 19:55:31  5-MIN KMSN 120155Z 22005KT 10SM CLR 03/M03 A2988 900 64 -300 220/05 RMK AO2
14837KMSN MSN20020111200009401/11/02 20:00:31  5-MIN KMSN 120200Z 23004KT 10SM CLR 03/M03 A2988 900 64 -300 230/04 RMK AO2
14837KMSN MSN20020111200509401/11/02 20:05:31  5-MIN KMSN 120205Z 24004KT 10SM CLR 03/M03 A2988 900 64 -300 240/04 RMK AO2
14837KMSN MSN20020111201009401/11/02 20:10:31  5-MIN KMSN 120210Z 23005KT 10SM CLR 03/M03 A2988 900 64 -300 230/05 RMK AO2
14837KMSN MSN20020111201509401/11/02 20:15:31  5-MIN KMSN 120215Z 23004KT 10SM CLR 03/M03 A2988 910 64 -300 230/04 RMK AO2
14837KMSN MSN20020111202009401/11/02 20:20:31  5-MIN KMSN 120220Z VRB04KT 10SM CLR 03/M03 A2987 910 64 -300 VRB/04 RMK AO2
14837KMSN MSN20020111202509401/11/02 20:25:31  5-MIN KMSN 120225Z 22005KT 10SM CLR 03/M03 A2987 910 64 -300 220/05 RMK AO2
14837KMSN MSN20020111203009401/11/02 20:30:31  5-MIN KMSN 120230Z 23004KT 10SM CLR 02/M03 A2987 910 67 -300 230/04 RMK AO2
14837KMSN MSN20020111203509401/11/02 20:35:31  5-MIN KMSN 120235Z 23004KT 10SM CLR 03/M03 A2987 910 64 -300 230/04 RMK AO2
14837KMSN MSN20020111204009401/11/02 20:40:31  5-MIN KMSN 120240Z VRB03KT 10SM CLR 03/M03 A2987 910 64 -300 VRB/03 RMK AO2
14837KMSN MSN20020111204509401/11/02 20:45:31  5-MIN KMSN 120245Z 00000KT 10SM CLR 03/M03 A2987 910 64 -300 000/00 RMK AO2
14837KMSN MSN20020111205011701/11/02 20:50:31  5-MIN KMSN 120250Z VRB03KT 10SM CLR 03/M03 A2987 910 64 -300 VRB/03 RMK AO2 SLP123 T00281033 55004
14837KMSN MSN20020111205509401/11/02 20:55:31  5-MIN KMSN 120255Z 22003KT 10SM CLR 02/M03 A2987 910 67 -300 220/03 RMK AO2
14837KMSN MSN20020111210009401/11/02 21:00:31  5-MIN KMSN 120300Z 21003KT 10SM CLR 02/M03 A2987 920 67 -300 210/03 RMK AO2
14837KMSN MSN20020111210509401/11/02 21:05:31  5-MIN KMSN 120305Z 21004KT 10SM CLR 02/M03 A2986 920 67 -300 200/04 RMK AO2
14837KMSN MSN20020111211009401/11/02 21:10:31  5-MIN KMSN 120310Z 21003KT 10SM CLR 02/M03 A2986 920 67 -300 210/03 RMK AO2
14837KMSN MSN20020111211509401/11/02 21:15:31  5-MIN KMSN 120315Z VRB03KT 10SM CLR 02/M03 A2986 920 67 -300 VRB/03 RMK AO2
14837KMSN MSN20020111212009401/11/02 21:20:31  5-MIN KMSN 120320Z 21004KT 10SM CLR 02/M03 A2986 920 67 -300 210/04 RMK AO2
14837KMSN MSN20020111212509401/11/02 21:25:31  5-MIN KMSN 120325Z 21004KT 10SM CLR 02/M03 A2986 920 69 -400 210/04 RMK AO2
14837KMSN MSN20020111213009401/11/02 21:30:31  5-MIN KMSN 120330Z 21004KT 10SM CLR 02/M03 A2986 920 69 -400 210/04 RMK AO2
14837KMSN MSN20020111213509401/11/02 21:35:31  5-MIN KMSN 120335Z 21005KT 10SM CLR 02/M03 A2986 920 69 -400 210/05 RMK AO2
14837KMSN MSN20020111214009401/11/02 21:40:31  5-MIN KMSN 120340Z 21005KT 10SM CLR 02/M03 A2986 920 67 -300 210/05 RMK AO2
14837KMSN MSN20020111214509401/11/02 21:45:31  5-MIN KMSN 120345Z 22004KT 10SM CLR 02/M03 A2986 920 69 -400 210/04 RMK AO2
14837KMSN MSN20020111215011101/11/02 21:50:31  5-MIN KMSN 120350Z 22004KT 10SM CLR 01/M04 A2985 930 72 -500 220/04 RMK AO2 SLP118 T00061039
14837KMSN MSN20020111215509401/11/02 21:55:31  5-MIN KMSN 120355Z 21004KT 10SM CLR 01/M03 A2985 930 72 -400 210/04 RMK AO2
14837KMSN MSN20020111220009401/11/02 22:00:31  5-MIN KMSN 120400Z 21003KT 10SM CLR 01/M04 A2985 930 72 -500 210/03 RMK AO2
14837KMSN MSN20020111220509401/11/02 22:05:31  5-MIN KMSN 120405Z 00000KT 10SM CLR 00/M04 A2985 930 75 -600 000/00 RMK AO2
14837KMSN MSN20020111221009501/11/02 22:10:31  5-MIN KMSN 120410Z 22003KT 10SM CLR M01/M04 A2985 930 78 -700 210/03 RMK AO2
14837KMSN MSN20020111221509501/11/02 22:15:31  5-MIN KMSN 120415Z 21003KT 10SM CLR M01/M04 A2985 930 78 -700 210/03 RMK AO2
14837KMSN MSN20020111222009501/11/02 22:20:31  5-MIN KMSN 120420Z 20003KT 10SM CLR M01/M04 A2985 930 78 -700 200/03 RMK AO2
14837KMSN MSN20020111222509401/11/02 22:25:31  5-MIN KMSN 120425Z 20004KT 10SM CLR 00/M04 A2985 930 75 -600 200/04 RMK AO2
14837KMSN MSN20020111223009501/11/02 22:30:31  5-MIN KMSN 120430Z 20004KT 10SM CLR M01/M04 A2985 930 75 -700 200/04 RMK AO2
14837KMSN MSN20020111223509501/11/02 22:35:31  5-MIN KMSN 120435Z 20004KT 10SM CLR M01/M04 A2984 930 75 -600 200/04 RMK AO2
14837KMSN MSN20020111224009401/11/02 22:40:31  5-MIN KMSN 120440Z 20003KT 10SM CLR 00/M04 A2984 930 75 -600 200/03 RMK AO2
14837KMSN MSN20020111224509401/11/02 22:45:31  5-MIN KMSN 120445Z 21003KT 10SM CLR 01/M04 A2984 940 72 -500 210/03 RMK AO2
14837KMSN MSN20020111225011101/11/02 22:50:31  5-MIN KMSN 120450Z 21003KT 10SM CLR 01/M04 A2984 940 69 -400 210/03 RMK AO2 SLP112 T00111039
14837KMSN MSN20020111225509501/11/02 22:55:31  5-MIN KMSN 120455Z 00000KT 10SM CLR M01/M05 A2984 940 75 -700 000/00 RMK AO2
14837KMSN MSN20020111230009501/11/02 23:00:31  5-MIN KMSN 120500Z 00000KT 10SM CLR M03/M06 A2984 940 78 -900 000/00 RMK AO2
14837KMSN MSN20020111230509601/11/02 23:05:31  5-MIN KMSN 120505Z 00000KT 10SM CLR M03/M06 A2984 940 81 -1000 000/00 RMK AO2
14837KMSN MSN20020111231009601/11/02 23:10:31  5-MIN KMSN 120510Z 00000KT 10SM CLR M04/M07 A2984 940 81 -1100 000/00 RMK AO2
14837KMSN MSN20020111231509601/11/02 23:15:31  5-MIN KMSN 120515Z 00000KT 10SM CLR M03/M06 A2983 940 81 -1000 000/00 RMK AO2
14837KMSN MSN20020111232009501/11/02 23:20:31  5-MIN KMSN 120520Z 00000KT 10SM CLR M03/M06 A2983 950 78 -900 000/00 RMK AO2
14837KMSN MSN20020111232509501/11/02 23:25:31  5-MIN KMSN 120525Z 20003KT 10SM CLR M02/M06 A2983 950 75 -800 200/03 RMK AO2
14837KMSN MSN20020111233009501/11/02 23:30:31  5-MIN KMSN 120530Z 20003KT 10SM CLR M02/M06 A2983 950 75 -800 200/03 RMK AO2
14837KMSN MSN20020111233509501/11/02 23:35:31  5-MIN KMSN 120535Z 20004KT 10SM CLR M01/M05 A2982 960 75 -700 200/04 RMK AO2
14837KMSN MSN20020111234009501/11/02 23:40:31  5-MIN KMSN 120540Z 20004KT 10SM CLR M01/M06 A2982 960 72 -700 200/04 RMK AO2
14837KMSN MSN20020111234509401/11/02 23:45:31  5-MIN KMSN 120545Z 21005KT 10SM CLR 00/M04 A2982 960 72 -500 200/05 RMK AO2
14837KMSN MSN20020111235013901/11/02 23:50:31  5-MIN KMSN 120550Z 21005KT 10SM CLR 01/M04 A2982 960 69 -500 210/05 RMK AO2 SLP105 T00061044 10044 21039 400721039 58011
14837KMSN MSN20020111235509401/11/02 23:55:31  5-MIN KMSN 120555Z 21004KT 10SM CLR 01/M04 A2982 960 69 -500 210/04 RMK AO2
14837KMSN MSN20020112000009401/12/02 00:00:31  5-MIN KMSN 120600Z 21005KT 10SM CLR 01/M04 A2982 960 66 -400 210/05 RMK AO2
14837KMSN MSN20020112000509401/12/02 00:05:31  5-MIN KMSN 120605Z 21005KT 10SM CLR 01/M04 A2982 960 66 -400 210/05 RMK AO2
14837KMSN MSN20020112001009401/12/02 00:10:31  5-MIN KMSN 120610Z 22006KT 10SM CLR 01/M04 A2982 960 69 -400 210/06 RMK AO2
14837KMSN MSN20020112001509401/12/02 00:15:31  5-MIN KMSN 120615Z 21005KT 10SM CLR 01/M04 A2982 960 69 -400 210/05 RMK AO2
14837KMSN MSN20020112002009401/12/02 00:20:31  5-MIN KMSN 120620Z 22006KT 10SM CLR 01/M04 A2981 960 69 -400 220/06 RMK AO2
14837KMSN MSN20020112002509401/12/02 00:25:31  5-MIN KMSN 120625Z 22007KT 10SM CLR 01/M04 A2981 970 69 -400 220/07 RMK AO2
14837KMSN MSN20020112003009401/12/02 00:30:31  5-MIN KMSN 120630Z 21007KT 10SM CLR 02/M04 A2981 970 66 -300 210/07 RMK AO2
14837KMSN MSN20020112003509701/12/02 00:35:31  5-MIN KMSN 120635Z 21006KT 10SM FEW110 02/M04 A2981 970 66 -300 210/06 RMK AO2
14837KMSN MSN20020112004009701/12/02 00:40:31  5-MIN KMSN 120640Z 21006KT 10SM SCT110 02/M04 A2981 970 66 -300 210/06 RMK AO2
14837KMSN MSN20020112004509701/12/02 00:45:31  5-MIN KMSN 120645Z 21005KT 10SM BKN120 02/M04 A2980 970 66 -300 210/05 RMK AO2
14837KMSN MSN20020112005011401/12/02 00:50:31  5-MIN KMSN 120650Z 21005KT 10SM BKN120 02/M04 A2980 970 66 -300 200/05 RMK AO2 SLP099 T00171039
14837KMSN MSN20020112005509701/12/02 00:55:31  5-MIN KMSN 120655Z 21004KT 10SM BKN120 01/M04 A2980 970 69 -400 200/04 RMK AO2
14837KMSN MSN20020112010009701/12/02 01:00:31  5-MIN KMSN 120700Z 21005KT 10SM BKN120 01/M04 A2980 970 69 -400 210/05 RMK AO2
14837KMSN MSN20020112010509701/12/02 01:05:31  5-MIN KMSN 120705Z 21005KT 10SM BKN120 01/M04 A2980 980 69 -400 210/05 RMK AO2
14837KMSN MSN20020112011009701/12/02 01:10:31  5-MIN KMSN 120710Z VRB05KT 10SM SCT120 01/M04 A2980 980 69 -400 VRB/05 RMK AO2
14837KMSN MSN20020112011509701/12/02 01:15:31  5-MIN KMSN 120715Z 21004KT 10SM SCT120 01/M04 A2980 980 69 -400 210/04 RMK AO2
14837KMSN MSN20020112012009701/12/02 01:20:31  5-MIN KMSN 120720Z 00000KT 10SM FEW120 01/M04 A2980 980 69 -400 000/00 RMK AO2
14837KMSN MSN20020112012509401/12/02 01:25:31  5-MIN KMSN 120725Z 00000KT 10SM CLR 01/M04 A2980 980 69 -400 000/00 RMK AO2
14837KMSN MSN20020112013009501/12/02 01:30:31  5-MIN KMSN 120730Z 00000KT 10SM CLR M01/M05 A2980 980 75 -700 000/00 RMK AO2
14837KMSN MSN20020112013509501/12/02 01:35:31  5-MIN KMSN 120735Z 00000KT 10SM CLR M01/M04 A2980 980 78 -700 000/00 RMK AO2
14837KMSN MSN20020112014009401/12/02 01:40:31  5-MIN KMSN 120740Z VRB03KT 10SM CLR 00/M04 A2980 970 72 -500 VRB/03 RMK AO2
14837KMSN MSN20020112014509401/12/02 01:45:31  5-MIN KMSN 120745Z VRB03KT 10SM CLR 01/M04 A2980 970 72 -500 VRB/03 RMK AO2
14837KMSN MSN20020112015011101/12/02 01:50:31  5-MIN KMSN 120750Z 21005KT 10SM CLR 01/M04 A2980 980 69 -400 210/05 RMK AO2 SLP098 T00111039
14837KMSN MSN20020112015509401/12/02 01:55:31  5-MIN KMSN 120755Z 22006KT 10SM CLR 01/M04 A2980 980 69 -400 220/06 RMK AO2
14837KMSN MSN20020112020009401/12/02 02:00:31  5-MIN KMSN 120800Z 22006KT 10SM CLR 01/M04 A2980 980 69 -400 220/06 RMK AO2
14837KMSN MSN20020112020509401/12/02 02:05:31  5-MIN KMSN 120805Z 21006KT 10SM CLR 01/M04 A2980 980 69 -400 210/06 RMK AO2
14837KMSN MSN20020112021009401/12/02 02:10:31  5-MIN KMSN 120810Z 21004KT 10SM CLR 01/M04 A2979 980 69 -400 210/04 RMK AO2
14837KMSN MSN20020112021509701/12/02 02:15:31  5-MIN KMSN 120815Z VRB05KT 10SM FEW120 01/M04 A2979 980 69 -400 VRB/05 RMK AO2
14837KMSN MSN20020112022009701/12/02 02:20:31  5-MIN KMSN 120820Z VRB03KT 10SM FEW120 01/M04 A2979 980 69 -400 VRB/03 RMK AO2
14837KMSN MSN20020112022509701/12/02 02:25:31  5-MIN KMSN 120825Z VRB03KT 10SM SCT120 01/M04 A2979 980 69 -400 VRB/03 RMK AO2
14837KMSN MSN20020112023009701/12/02 02:30:31  5-MIN KMSN 120830Z 20004KT 10SM BKN120 01/M04 A2979 980 69 -400 200/04 RMK AO2
14837KMSN MSN20020112023509701/12/02 02:35:31  5-MIN KMSN 120835Z 21004KT 10SM BKN120 01/M04 A2979 980 69 -400 210/04 RMK AO2
14837KMSN MSN20020112024009701/12/02 02:40:31  5-MIN KMSN 120840Z 20003KT 10SM BKN120 01/M04 A2979 990 69 -400 200/03 RMK AO2
14837KMSN MSN20020112024509701/12/02 02:45:31  5-MIN KMSN 120845Z VRB04KT 10SM OVC120 01/M04 A2979 990 66 -400 VRB/04 RMK AO2
14837KMSN MSN20020112025012001/12/02 02:50:31  5-MIN KMSN 120850Z 21005KT 10SM BKN120 01/M04 A2979 990 66 -400 210/05 RMK AO2 SLP093 T00111044 58017
14837KMSN MSN20020112025509701/12/02 02:55:31  5-MIN KMSN 120855Z 22006KT 10SM BKN120 01/M04 A2978 990 66 -400 220/06 RMK AO2
14837KMSN MSN20020112030009701/12/02 03:00:31  5-MIN KMSN 120900Z 22006KT 10SM BKN120 01/M04 A2978 990 69 -400 220/06 RMK AO2
14837KMSN MSN20020112030509701/12/02 03:05:31  5-MIN KMSN 120905Z 22005KT 10SM BKN120 01/M04 A2978 990 69 -400 220/05 RMK AO2
14837KMSN MSN20020112031009701/12/02 03:10:31  5-MIN KMSN 120910Z 23006KT 10SM BKN120 01/M04 A2978 990 69 -400 230/06 RMK AO2
14837KMSN MSN20020112031509701/12/02 03:15:31  5-MIN KMSN 120915Z 23005KT 10SM BKN120 01/M04 A2978 990 69 -400 230/05 RMK AO2
14837KMSN MSN20020112120510301/12/02 12:05:31  5-MIN KMSN 121805Z 30011G19KT 10SM FEW026 04/M05 A2966 1100 50 100 300/11G19 RMK AO2
14837KMSN MSN20020112121011901/12/02 12:10:31  5-MIN KMSN 121810Z 29012G19KT 250V320 10SM FEW026 04/M05 A2966 1110 50 100 290/12G19 250V320 RMK AO2
14837KMSN MSN20020112121510301/12/02 12:15:31  5-MIN KMSN 121815Z 29015G20KT 10SM FEW026 04/M06 A2966 1110 50 100 290/15G20 RMK AO2
14837KMSN MSN20020112122010301/12/02 12:20:31  5-MIN KMSN 121820Z 30013G21KT 10SM FEW026 04/M06 A2965 1110 50 100 290/13G21 RMK AO2
14837KMSN MSN20020112122510301/12/02 12:25:31  5-MIN KMSN 121825Z 31013G21KT 10SM FEW026 04/M06 A2965 1110 48 100 310/13G21 RMK AO2
14837KMSN MSN20020112123010301/12/02 12:30:31  5-MIN KMSN 121830Z 31012G19KT 10SM FEW026 04/M06 A2965 1120 48 100 310/12G19 RMK AO2
14837KMSN MSN20020112123510301/12/02 12:35:31  5-MIN KMSN 121835Z 31014G21KT 10SM FEW026 04/M06 A2965 1120 48 200 310/14G21 RMK AO2
14837KMSN MSN20020112124010301/12/02 12:40:31  5-MIN KMSN 121840Z 29014G21KT 10SM FEW026 04/M06 A2965 1120 48 100 290/14G21 RMK AO2
14837KMSN MSN20020112124510301/12/02 12:45:31  5-MIN KMSN 121845Z 30011G20KT 10SM FEW026 04/M06 A2964 1120 48 200 300/11G20 RMK AO2
14837KMSN MSN20020112125013801/12/02 12:50:31  5-MIN KMSN 121850Z 31017G26KT 10SM FEW026 05/M06 A2964 1120 44 200 310/17G26 RMK AO2 PK WND 30026/1850 SLP045 T00501061
14837KMSN MSN20020112125510001/12/02 12:55:31  5-MIN KMSN 121855Z 30014G26KT 10SM CLR 04/M06 A2964 1120 46 200 300/14G26 RMK AO2
14837KMSN MSN20020112130010001/12/02 13:00:31  5-MIN KMSN 121900Z 30015G23KT 10SM CLR 04/M06 A2964 1120 46 200 300/15G23 RMK AO2
14837KMSN MSN20020112130510301/12/02 13:05:31  5-MIN KMSN 121905Z 31016G22KT 10SM FEW026 04/M07 A2964 1120 44 200 310/16G22 RMK AO2
14837KMSN MSN20020112131010301/12/02 13:10:31  5-MIN KMSN 121910Z 31014G22KT 10SM FEW026 04/M06 A2964 1120 46 200 300/14G22 RMK AO2
14837KMSN MSN20020112131511901/12/02 13:15:31  5-MIN KMSN 121915Z 29016G24KT 260V330 10SM FEW026 05/M06 A2964 1120 44 200 290/16G24 260V330 RMK AO2
14837KMSN MSN20020112132012101/12/02 13:20:31  5-MIN KMSN 121920Z 31019G26KT 10SM FEW026 04/M07 A2964 1130 44 200 310/19G26 RMK AO2 PK WND 30026/1920
14837KMSN MSN20020112132513701/12/02 13:25:31  5-MIN KMSN 121925Z 30013G26KT 270V330 10SM FEW026 05/M07 A2964 1130 41 200 300/13G26 270V330 RMK AO2 PK WND 30026/1920
14837KMSN MSN20020112133012101/12/02 13:30:31  5-MIN KMSN 121930Z 29012G24KT 10SM FEW026 05/M07 A2964 1130 42 200 290/12G24 RMK AO2 PK WND 30026/1920
14837KMSN MSN20020112133512101/12/02 13:35:31  5-MIN KMSN 121935Z 30011G22KT 10SM FEW026 05/M07 A2964 1130 42 200 300/11G22 RMK AO2 PK WND 30026/1920
14837KMSN MSN20020112134012101/12/02 13:40:31  5-MIN KMSN 121940Z 29015G27KT 10SM FEW035 04/M07 A2964 1130 44 200 290/15G27 RMK AO2 PK WND 29027/1939
14837KMSN MSN20020112134512101/12/02 13:45:31  5-MIN KMSN 121945Z 30014G27KT 10SM FEW035 05/M07 A2964 1130 42 200 300/14G27 RMK AO2 PK WND 29027/1939
14837KMSN MSN20020112135013801/12/02 13:50:31  5-MIN KMSN 121950Z 31015G23KT 10SM FEW050 05/M07 A2963 1130 41 200 310/15G23 RMK AO2 PK WND 29027/1939 SLP042 T00501072
14837KMSN MSN20020112135510301/12/02 13:55:31  5-MIN KMSN 121955Z 31015G23KT 10SM FEW050 04/M07 A2963 1130 42 200 310/15G23 RMK AO2
14837KMSN MSN20020112140010301/12/02 14:00:31  5-MIN KMSN 122000Z 30013G22KT 10SM FEW050 04/M07 A2964 1130 42 200 300/13G22 RMK AO2
14837KMSN MSN20020112140510301/12/02 14:05:31  5-MIN KMSN 122005Z 31013G18KT 10SM FEW050 05/M07 A2964 1130 42 200 310/13G18 RMK AO2
14837KMSN MSN20020112141010301/12/02 14:10:31  5-MIN KMSN 122010Z 31016G20KT 10SM FEW050 05/M07 A2964 1130 42 200 310/16G20 RMK AO2
14837KMSN MSN20020112141510301/12/02 14:15:31  5-MIN KMSN 122015Z 32016G22KT 10SM FEW055 04/M07 A2964 1130 42 200 320/16G22 RMK AO2
14837KMSN MSN20020112142010301/12/02 14:20:31  5-MIN KMSN 122020Z 31017G22KT 10SM FEW060 04/M07 A2964 1120 42 200 310/17G22 RMK AO2
14837KMSN MSN20020112142510301/12/02 14:25:31  5-MIN KMSN 122025Z 31015G22KT 10SM SCT060 04/M08 A2964 1120 41 200 310/15G22 RMK AO2
14837KMSN MSN20020112143010301/12/02 14:30:31  5-MIN KMSN 122030Z 31013G22KT 10SM SCT060 04/M08 A2965 1120 42 100 310/13G22 RMK AO2
14837KMSN MSN20020112143510301/12/02 14:35:31  5-MIN KMSN 122035Z 31012G22KT 10SM SCT060 04/M08 A2964 1120 41 200 310/12G22 RMK AO2
14837KMSN MSN20020112144010301/12/02 14:40:31  5-MIN KMSN 122040Z 31013G22KT 10SM SCT060 04/M07 A2965 1120 44 100 310/13G22 RMK AO2
14837KMSN MSN20020112144510301/12/02 14:45:31  5-MIN KMSN 122045Z 32015G21KT 10SM SCT060 04/M08 A2965 1110 42 100 320/15G21 RMK AO2
14837KMSN MSN20020112145012401/12/02 14:50:31  5-MIN KMSN 122050Z 31013G21KT 10SM FEW060 03/M08 A2965 1120 44 0 310/13G21 RMK AO2 SLP048 T00331078 58019
14837KMSN MSN20020112145510101/12/02 14:55:31  5-MIN KMSN 122055Z 31014G21KT 10SM SCT055 03/M08 A2965 1110 44 0 310/14G21 RMK AO2
14837KMSN MSN20020112150011701/12/02 15:00:31  5-MIN KMSN 122100Z 32011G21KT 270V340 10SM BKN055 03/M08 A2965 1110 44 0 310/11G21 270V340 RMK AO2
14837KMSN MSN20020112150510101/12/02 15:05:31  5-MIN KMSN 122105Z 32012G19KT 10SM BKN055 03/M07 A2966 1110 46 0 310/12G19 RMK AO2
14837KMSN MSN20020112151010101/12/02 15:10:31  5-MIN KMSN 122110Z 32013G19KT 10SM BKN055 03/M07 A2966 1110 46 0 320/13G19 RMK AO2
14837KMSN MSN20020112151510101/12/02 15:15:31  5-MIN KMSN 122115Z 32009G19KT 10SM BKN055 03/M07 A2966 1110 46 0 320/09G19 RMK AO2
14837KMSN MSN20020112152010101/12/02 15:20:31  5-MIN KMSN 122120Z 31010G19KT 10SM BKN055 03/M07 A2966 1110 46 0 310/10G19 RMK AO2
14837KMSN MSN20020112152510101/12/02 15:25:31  5-MIN KMSN 122125Z 32013G19KT 10SM OVC050 03/M07 A2966 1100 46 0 320/13G19 RMK AO2
14837KMSN MSN20020112153010101/12/02 15:30:31  5-MIN KMSN 122130Z 31013G19KT 10SM OVC055 03/M07 A2966 1100 48 0 310/13G19 RMK AO2
14837KMSN MSN20020112153510101/12/02 15:35:31  5-MIN KMSN 122135Z 31011G19KT 10SM BKN050 03/M07 A2967 1100 48 0 310/11G19 RMK AO2
14837KMSN MSN20020112154010101/12/02 15:40:31  5-MIN KMSN 122140Z 31014G21KT 10SM BKN050 03/M07 A2967 1100 46 0 310/14G21 RMK AO2
14837KMSN MSN20020112154510101/12/02 15:45:31  5-MIN KMSN 122145Z 30012G21KT 10SM OVC050 03/M07 A2967 1100 46 0 300/12G21 RMK AO2
14837KMSN MSN20020112155011801/12/02 15:50:31  5-MIN KMSN 122150Z 31015G20KT 10SM BKN055 03/M07 A2967 1100 46 0 310/15G20 RMK AO2 SLP055 T00331072
14837KMSN MSN20020112155510101/12/02 15:55:31  5-MIN KMSN 122155Z 30014G19KT 10SM BKN055 03/M07 A2967 1090 46 0 300/14G19 RMK AO2
14837KMSN MSN20020112160009501/12/02 16:00:31  5-MIN KMSN 122200Z 30015KT 10SM OVC055 03/M07 A2968 1090 46 0 300/15 RMK AO2
14837KMSN MSN20020112160510101/12/02 16:05:31  5-MIN KMSN 122205Z 30014G19KT 10SM BKN055 03/M07 A2968 1090 48 0 300/14G19 RMK AO2
14837KMSN MSN20020112161010101/12/02 16:10:31  5-MIN KMSN 122210Z 31013G19KT 10SM BKN055 03/M07 A2968 1080 48 0 310/13G19 RMK AO2
14837KMSN MSN20020112161510401/12/02 16:15:31  5-MIN KMSN 122215Z 30012G20KT 10SM BKN055 03/M07 A2969 1080 48 -100 300/12G20 RMK AO2
14837KMSN MSN20020112162010401/12/02 16:20:31  5-MIN KMSN 122220Z 31012G20KT 10SM BKN050 03/M07 A2969 1080 48 -100 300/12G20 RMK AO2
14837KMSN MSN20020112162510401/12/02 16:25:31  5-MIN KMSN 122225Z 30009G17KT 10SM BKN050 03/M07 A2969 1080 48 -100 300/09G17 RMK AO2
14837KMSN MSN20020112163010401/12/02 16:30:31  5-MIN KMSN 122230Z 30010G17KT 10SM BKN050 03/M07 A2969 1080 50 -100 300/10G17 RMK AO2
14837KMSN MSN20020112163510401/12/02 16:35:31  5-MIN KMSN 122235Z 30007G17KT 10SM OVC049 02/M07 A2969 1070 52 -100 300/07G17 RMK AO2
14837KMSN MSN20020112164010501/12/02 16:40:31  5-MIN KMSN 122240Z 31011KT 10SM BKN047 OVC055 02/M07 A2970 1070 52 -100 310/11 RMK AO2
14837KMSN MSN20020112164510501/12/02 16:45:31  5-MIN KMSN 122245Z 30008KT 10SM BKN047 OVC055 02/M07 A2970 1070 52 -100 300/08 RMK AO2
14837KMSN MSN20020112165012201/12/02 16:50:31  5-MIN KMSN 122250Z 31006KT 10SM BKN047 BKN055 02/M07 A2970 1070 52 -100 310/06 RMK AO2 SLP064 T00221067
14837KMSN MSN20020112165510501/12/02 16:55:31  5-MIN KMSN 122255Z 31008KT 10SM BKN047 BKN055 02/M07 A2970 1070 52 -100 310/08 RMK AO2
14837KMSN MSN20020112170010501/12/02 17:00:31  5-MIN KMSN 122300Z 32007KT 10SM BKN047 BKN055 02/M07 A2970 1070 52 -100 320/07 RMK AO2
14837KMSN MSN20020112170511101/12/02 17:05:31  5-MIN KMSN 122305Z 31010G15KT 10SM BKN047 BKN055 02/M07 A2970 1070 54 -200 310/10G15 RMK AO2
14837KMSN MSN20020112171011101/12/02 17:10:31  5-MIN KMSN 122310Z 31011G16KT 10SM BKN047 BKN055 02/M07 A2970 1070 54 -200 310/11G16 RMK AO2
14837KMSN MSN20020112171511101/12/02 17:15:31  5-MIN KMSN 122315Z 31008G16KT 10SM BKN047 BKN055 02/M07 A2970 1060 52 -200 310/08G16 RMK AO2
14837KMSN MSN20020112172010501/12/02 17:20:31  5-MIN KMSN 122320Z 31008KT 10SM BKN047 BKN055 02/M07 A2971 1060 52 -200 310/08 RMK AO2
14837KMSN MSN20020112172509801/12/02 17:25:31  5-MIN KMSN 122325Z 30007KT 10SM SCT047 01/M07 A2971 1060 54 -300 300/07 RMK AO2
14837KMSN MSN20020112173009801/12/02 17:30:31  5-MIN KMSN 122330Z 30007KT 10SM FEW045 01/M07 A2971 1060 54 -300 300/07 RMK AO2
14837KMSN MSN20020112173509801/12/02 17:35:31  5-MIN KMSN 122335Z 30006KT 10SM FEW045 01/M07 A2971 1060 54 -300 300/06 RMK AO2
14837KMSN MSN20020112174009801/12/02 17:40:31  5-MIN KMSN 122340Z VRB05KT 10SM FEW045 01/M07 A2971 1060 56 -300 VRB/05 RMK AO2
14837KMSN MSN20020112174509801/12/02 17:45:31  5-MIN KMSN 122345Z 30007KT 10SM FEW045 01/M07 A2971 1060 54 -300 300/07 RMK AO2
14837KMSN MSN20020112175013301/12/02 17:50:31  5-MIN KMSN 122350Z 30007KT 10SM FEW045 01/M07 A2971 1060 56 -300 300/07 RMK AO2 SLP071 T00111067 10050 20011 55004
14837KMSN MSN20020112175510401/12/02 17:55:31  5-MIN KMSN 122355Z 30008G15KT 10SM FEW045 01/M07 A2971 1060 54 -300 300/08G15 RMK AO2
14837KMSN MSN20020112180010101/12/02 18:00:31  5-MIN KMSN 130000Z 30009G15KT 10SM CLR 01/M07 A2972 1050 56 -300 300/09G15 RMK AO2
14837KMSN MSN20020112180509501/12/02 18:05:31  5-MIN KMSN 130005Z 30008KT 10SM CLR 01/M07 A2972 1050 56 -300 300/08 RMK AO2
14837KMSN MSN20020112181009501/12/02 18:10:31  5-MIN KMSN 130010Z 30008KT 10SM CLR 01/M07 A2972 1050 58 -400 300/08 RMK AO2
14837KMSN MSN20020112181509501/12/02 18:15:31  5-MIN KMSN 130015Z 30007KT 10SM CLR 01/M07 A2972 1050 58 -400 300/07 RMK AO2
14837KMSN MSN20020112182009501/12/02 18:20:31  5-MIN KMSN 130020Z 31007KT 10SM CLR 01/M07 A2972 1050 58 -400 300/07 RMK AO2
14837KMSN MSN20020112182509501/12/02 18:25:31  5-MIN KMSN 130025Z 30006KT 10SM CLR 01/M07 A2972 1050 58 -400 300/06 RMK AO2
14837KMSN MSN20020112183009501/12/02 18:30:31  5-MIN KMSN 130030Z 30005KT 10SM CLR 01/M07 A2972 1050 58 -400 300/05 RMK AO2
14837KMSN MSN20020112183509501/12/02 18:35:31  5-MIN KMSN 130035Z 30005KT 10SM CLR 00/M07 A2972 1050 61 -400 300/05 RMK AO2
14837KMSN MSN20020112184009501/12/02 18:40:31  5-MIN KMSN 130040Z 29005KT 10SM CLR 00/M07 A2972 1050 61 -400 290/05 RMK AO2
14837KMSN MSN20020112184509501/12/02 18:45:31  5-MIN KMSN 130045Z 30005KT 10SM CLR 00/M07 A2972 1050 61 -400 300/05 RMK AO2
14837KMSN MSN20020112185011201/12/02 18:50:31  5-MIN KMSN 130050Z 29005KT 10SM CLR 00/M07 A2972 1050 61 -400 290/05 RMK AO2 SLP073 T00001067
14837KMSN MSN20020112185509501/12/02 18:55:31  5-MIN KMSN 130055Z 29005KT 10SM CLR 00/M07 A2972 1050 61 -400 290/05 RMK AO2
14837KMSN MSN20020112190009501/12/02 19:00:31  5-MIN KMSN 130100Z 28004KT 10SM CLR 00/M07 A2972 1050 61 -400 280/04 RMK AO2
14837KMSN MSN20020112190509601/12/02 19:05:31  5-MIN KMSN 130105Z VRB03KT 10SM CLR M01/M07 A2972 1050 63 -500 VRB/03 RMK AO2
14837KMSN MSN20020112191009601/12/02 19:10:31  5-MIN KMSN 130110Z VRB03KT 10SM CLR M01/M07 A2972 1050 63 -500 VRB/03 RMK AO2
14837KMSN MSN20020112191509601/12/02 19:15:31  5-MIN KMSN 130115Z VRB03KT 10SM CLR M01/M07 A2972 1050 61 -500 VRB/03 RMK AO2
14837KMSN MSN20020112192009601/12/02 19:20:31  5-MIN KMSN 130120Z VRB03KT 10SM CLR M01/M07 A2972 1050 66 -600 VRB/03 RMK AO2
14837KMSN MSN20020112192509601/12/02 19:25:31  5-MIN KMSN 130125Z 00000KT 10SM CLR M01/M07 A2972 1050 63 -500 000/00 RMK AO2
14837KMSN MSN20020112193009601/12/02 19:30:31  5-MIN KMSN 130130Z 00000KT 10SM CLR M01/M07 A2972 1050 63 -600 000/00 RMK AO2
14837KMSN MSN20020112193509601/12/02 19:35:31  5-MIN KMSN 130135Z 00000KT 10SM CLR M01/M07 A2972 1050 63 -600 000/00 RMK AO2
14837KMSN MSN20020112194009601/12/02 19:40:31  5-MIN KMSN 130140Z VRB03KT 10SM CLR M01/M07 A2971 1060 66 -600 VRB/03 RMK AO2
14837KMSN MSN20020112194509601/12/02 19:45:31  5-MIN KMSN 130145Z 26003KT 10SM CLR M02/M07 A2971 1060 69 -600 260/03 RMK AO2
14837KMSN MSN20020112195011301/12/02 19:50:31  5-MIN KMSN 130150Z VRB03KT 10SM CLR M01/M07 A2972 1050 66 -600 VRB/03 RMK AO2 SLP071 T10111067
14837KMSN MSN20020112195509601/12/02 19:55:31  5-MIN KMSN 130155Z VRB03KT 10SM CLR M01/M07 A2972 1050 66 -600 VRB/03 RMK AO2
14837KMSN MSN20020112200009601/12/02 20:00:31  5-MIN KMSN 130200Z VRB03KT 10SM CLR M02/M07 A2972 1050 66 -600 VRB/03 RMK AO2
14837KMSN MSN20020112200509601/12/02 20:05:31  5-MIN KMSN 130205Z VRB03KT 10SM CLR M02/M07 A2972 1050 69 -600 VRB/03 RMK AO2
14837KMSN MSN20020112201009601/12/02 20:10:31  5-MIN KMSN 130210Z 00000KT 10SM CLR M02/M07 A2972 1050 69 -600 000/00 RMK AO2
14837KMSN MSN20020112201509601/12/02 20:15:31  5-MIN KMSN 130215Z VRB03KT 10SM CLR M02/M07 A2972 1050 69 -600 VRB/03 RMK AO2
14837KMSN MSN20020112202009601/12/02 20:20:31  5-MIN KMSN 130220Z VRB04KT 10SM CLR M01/M07 A2972 1050 66 -600 VRB/04 RMK AO2
14837KMSN MSN20020112202509601/12/02 20:25:31  5-MIN KMSN 130225Z 24004KT 10SM CLR M02/M07 A2972 1050 69 -600 240/04 RMK AO2
14837KMSN MSN20020112203009601/12/02 20:30:31  5-MIN KMSN 130230Z VRB04KT 10SM CLR M02/M07 A2972 1050 66 -600 VRB/04 RMK AO2
14837KMSN MSN20020112203509601/12/02 20:35:31  5-MIN KMSN 130235Z 00000KT 10SM CLR M02/M07 A2972 1050 69 -600 000/00 RMK AO2
14837KMSN MSN20020112204009601/12/02 20:40:31  5-MIN KMSN 130240Z VRB03KT 10SM CLR M01/M07 A2972 1050 63 -600 VRB/03 RMK AO2
14837KMSN MSN20020112204509601/12/02 20:45:31  5-MIN KMSN 130245Z VRB04KT 10SM CLR M01/M07 A2972 1050 66 -600 VRB/04 RMK AO2
14837KMSN MSN20020112205011901/12/02 20:50:31  5-MIN KMSN 130250Z 24003KT 10SM CLR M01/M07 A2972 1050 66 -600 240/03 RMK AO2 SLP072 T10111067 51021
14837KMSN MSN20020112205509601/12/02 20:55:31  5-MIN KMSN 130255Z VRB03KT 10SM CLR M01/M07 A2972 1050 66 -600 VRB/03 RMK AO2
14837KMSN MSN20020112210009601/12/02 21:00:31  5-MIN KMSN 130300Z VRB03KT 10SM CLR M01/M07 A2972 1050 66 -600 VRB/03 RMK AO2
14837KMSN MSN20020112210509601/12/02 21:05:31  5-MIN KMSN 130305Z 00000KT 10SM CLR M01/M07 A2971 1060 66 -600 000/00 RMK AO2
14837KMSN MSN20020112211009601/12/02 21:10:31  5-MIN KMSN 130310Z VRB03KT 10SM CLR M01/M07 A2971 1060 66 -600 VRB/03 RMK AO2
14837KMSN MSN20020112211509601/12/02 21:15:31  5-MIN KMSN 130315Z VRB03KT 10SM CLR M01/M07 A2971 1060 66 -600 VRB/03 RMK AO2
14837KMSN MSN20020112212009601/12/02 21:20:31  5-MIN KMSN 130320Z VRB04KT 10SM CLR M02/M07 A2972 1050 69 -600 VRB/04 RMK AO2
14837KMSN MSN20020112212509601/12/02 21:25:31  5-MIN KMSN 130325Z VRB04KT 10SM CLR M02/M07 A2971 1050 69 -600 VRB/04 RMK AO2
14837KMSN MSN20020112213009601/12/02 21:30:31  5-MIN KMSN 130330Z 27004KT 10SM CLR M02/M07 A2972 1050 69 -600 270/04 RMK AO2
14837KMSN MSN20020112213509601/12/02 21:35:31  5-MIN KMSN 130335Z VRB03KT 10SM CLR M01/M07 A2972 1050 66 -600 VRB/03 RMK AO2
14837KMSN MSN20020112214009601/12/02 21:40:31  5-MIN KMSN 130340Z VRB04KT 10SM CLR M01/M07 A2972 1050 66 -600 VRB/04 RMK AO2
14837KMSN MSN20020112214509601/12/02 21:45:31  5-MIN KMSN 130345Z VRB03KT 10SM CLR M01/M07 A2972 1050 66 -600 VRB/03 RMK AO2
14837KMSN MSN20020112215011301/12/02 21:50:31  5-MIN KMSN 130350Z VRB04KT 10SM CLR M01/M07 A2972 1050 66 -600 VRB/04 RMK AO2 SLP072 T10111067
14837KMSN MSN20020112215509601/12/02 21:55:31  5-MIN KMSN 130355Z 00000KT 10SM CLR M01/M07 A2972 1050 66 -600 000/00 RMK AO2
14837KMSN MSN20020112220009601/12/02 22:00:31  5-MIN KMSN 130400Z VRB03KT 10SM CLR M01/M07 A2971 1050 66 -600 VRB/03 RMK AO2
14837KMSN MSN20020112220509601/12/02 22:05:31  5-MIN KMSN 130405Z 00000KT 10SM CLR M01/M07 A2972 1050 66 -600 000/00 RMK AO2
14837KMSN MSN20020112221009601/12/02 22:10:31  5-MIN KMSN 130410Z VRB03KT 10SM CLR M02/M07 A2972 1050 69 -600 VRB/03 RMK AO2
14837KMSN MSN20020112221509601/12/02 22:15:31  5-MIN KMSN 130415Z VRB03KT 10SM CLR M01/M07 A2972 1050 66 -600 VRB/03 RMK AO2
14837KMSN MSN20020112222009601/12/02 22:20:31  5-MIN KMSN 130420Z VRB03KT 10SM CLR M02/M07 A2972 1050 69 -600 VRB/03 RMK AO2
14837KMSN MSN20020112222509601/12/02 22:25:31  5-MIN KMSN 130425Z 00000KT 10SM CLR M02/M07 A2972 1050 69 -600 000/00 RMK AO2
14837KMSN MSN20020112223009601/12/02 22:30:31  5-MIN KMSN 130430Z VRB03KT 10SM CLR M02/M07 A2972 1050 69 -600 VRB/03 RMK AO2
14837KMSN MSN20020112223509601/12/02 22:35:31  5-MIN KMSN 130435Z VRB04KT 10SM CLR M02/M07 A2972 1050 69 -600 VRB/04 RMK AO2
14837KMSN MSN20020112224009601/12/02 22:40:31  5-MIN KMSN 130440Z VRB03KT 10SM CLR M02/M07 A2972 1050 69 -600 VRB/03 RMK AO2
14837KMSN MSN20020112224509601/12/02 22:45:31  5-MIN KMSN 130445Z VRB03KT 10SM CLR M02/M07 A2972 1050 69 -600 VRB/03 RMK AO2
14837KMSN MSN20020112225011301/12/02 22:50:31  5-MIN KMSN 130450Z VRB05KT 10SM CLR M02/M07 A2972 1050 69 -600 VRB/05 RMK AO2 SLP073 T10171067
14837KMSN MSN20020112225509601/12/02 22:55:31  5-MIN KMSN 130455Z VRB05KT 10SM CLR M02/M07 A2972 1050 69 -600 VRB/05 RMK AO2
14837KMSN MSN20020112230009601/12/02 23:00:31  5-MIN KMSN 130500Z 27005KT 10SM CLR M01/M07 A2972 1050 66 -600 270/05 RMK AO2
14837KMSN MSN20020112230509601/12/02 23:05:31  5-MIN KMSN 130505Z 27005KT 10SM CLR M02/M07 A2972 1050 69 -600 270/05 RMK AO2
14837KMSN MSN20020112231009601/12/02 23:10:31  5-MIN KMSN 130510Z VRB04KT 10SM CLR M02/M07 A2972 1050 69 -600 VRB/04 RMK AO2
14837KMSN MSN20020112231509601/12/02 23:15:31  5-MIN KMSN 130515Z VRB04KT 10SM CLR M02/M07 A2972 1050 69 -600 VRB/04 RMK AO2
14837KMSN MSN20020112232009601/12/02 23:20:31  5-MIN KMSN 130520Z VRB04KT 10SM CLR M02/M07 A2972 1050 69 -600 VRB/04 RMK AO2
14837KMSN MSN20020112232509601/12/02 23:25:31  5-MIN KMSN 130525Z VRB03KT 10SM CLR M02/M07 A2972 1050 69 -600 VRB/03 RMK AO2
14837KMSN MSN20020112233009601/12/02 23:30:31  5-MIN KMSN 130530Z 25004KT 10SM CLR M02/M07 A2972 1050 69 -600 250/04 RMK AO2
14837KMSN MSN20020112233509601/12/02 23:35:31  5-MIN KMSN 130535Z 25004KT 10SM CLR M02/M06 A2971 1050 72 -600 250/04 RMK AO2
14837KMSN MSN20020112234009601/12/02 23:40:31  5-MIN KMSN 130540Z 26004KT 10SM CLR M02/M07 A2971 1060 69 -600 260/04 RMK AO2
14837KMSN MSN20020112234509601/12/02 23:45:31  5-MIN KMSN 130545Z VRB03KT 10SM CLR M02/M06 A2971 1060 72 -600 VRB/03 RMK AO2
14837KMSN MSN20020112235014101/12/02 23:50:31  5-MIN KMSN 130550Z VRB03KT 10SM CLR M02/M07 A2971 1060 69 -600 VRB/03 RMK AO2 SLP067 T10171067 10011 21017 400501017 51001
14837KMSN MSN20020112235509601/12/02 23:55:31  5-MIN KMSN 130555Z VRB03KT 10SM CLR M02/M06 A2970 1060 72 -600 VRB/03 RMK AO2
14837KMSN MSN20020113000009601/13/02 00:00:31  5-MIN KMSN 130600Z VRB04KT 10SM CLR M02/M06 A2970 1060 75 -700 VRB/04 RMK AO2
14837KMSN MSN20020113000509601/13/02 00:05:31  5-MIN KMSN 130605Z VRB03KT 10SM CLR M02/M06 A2970 1070 75 -700 VRB/03 RMK AO2
14837KMSN MSN20020113001009601/13/02 00:10:31  5-MIN KMSN 130610Z VRB04KT 10SM CLR M02/M06 A2970 1070 72 -600 VRB/04 RMK AO2
14837KMSN MSN20020113001509601/13/02 00:15:31  5-MIN KMSN 130615Z 25003KT 10SM CLR M02/M06 A2970 1070 75 -700 250/03 RMK AO2
14837KMSN MSN20020113002009601/13/02 00:20:31  5-MIN KMSN 130620Z 25004KT 10SM CLR M02/M06 A2970 1070 75 -700 250/04 RMK AO2
14837KMSN MSN20020113002509601/13/02 00:25:31  5-MIN KMSN 130625Z VRB03KT 10SM CLR M02/M06 A2970 1070 75 -700 VRB/03 RMK AO2
14837KMSN MSN20020113003009601/13/02 00:30:31  5-MIN KMSN 130630Z 24004KT 10SM CLR M02/M06 A2970 1070 75 -700 240/04 RMK AO2
14837KMSN MSN20020113003509601/13/02 00:35:31  5-MIN KMSN 130635Z VRB03KT 10SM CLR M02/M06 A2971 1060 75 -700 VRB/03 RMK AO2
14837KMSN MSN20020113004009601/13/02 00:40:31  5-MIN KMSN 130640Z VRB04KT 10SM CLR M02/M06 A2971 1060 75 -700 VRB/04 RMK AO2
14837KMSN MSN20020113004509601/13/02 00:45:31  5-MIN KMSN 130645Z 24005KT 10SM CLR M02/M06 A2971 1060 75 -700 240/05 RMK AO2
14837KMSN MSN20020113005011301/13/02 00:50:31  5-MIN KMSN 130650Z VRB04KT 10SM CLR M02/M06 A2971 1060 75 -700 VRB/04 RMK AO2 SLP068 T10221061
14837KMSN MSN20020113005509601/13/02 00:55:31  5-MIN KMSN 130655Z VRB03KT 10SM CLR M02/M06 A2971 1060 75 -700 VRB/03 RMK AO2
14837KMSN MSN20020113010009601/13/02 01:00:31  5-MIN KMSN 130700Z VRB03KT 10SM CLR M02/M06 A2971 1060 75 -700 VRB/03 RMK AO2
14837KMSN MSN20020113010509601/13/02 01:05:31  5-MIN KMSN 130705Z VRB03KT 10SM CLR M02/M06 A2971 1060 75 -700 VRB/03 RMK AO2
14837KMSN MSN20020113011009601/13/02 01:10:31  5-MIN KMSN 130710Z VRB03KT 10SM CLR M02/M06 A2971 1060 75 -700 VRB/03 RMK AO2
14837KMSN MSN20020113011509601/13/02 01:15:31  5-MIN KMSN 130715Z 00000KT 10SM CLR M02/M06 A2971 1060 75 -700 000/00 RMK AO2
14837KMSN MSN20020113012009601/13/02 01:20:31  5-MIN KMSN 130720Z 00000KT 10SM CLR M02/M06 A2971 1060 75 -700 000/00 RMK AO2
14837KMSN MSN20020113012509601/13/02 01:25:31  5-MIN KMSN 130725Z 00000KT 10SM CLR M03/M06 A2971 1060 78 -800 000/00 RMK AO2
14837KMSN MSN20020113013009601/13/02 01:30:31  5-MIN KMSN 130730Z VRB03KT 10SM CLR M03/M06 A2971 1060 78 -800 VRB/03 RMK AO2
14837KMSN MSN20020113013509601/13/02 01:35:31  5-MIN KMSN 130735Z VRB04KT 10SM CLR M03/M06 A2971 1060 78 -800 VRB/04 RMK AO2
14837KMSN MSN20020113014009601/13/02 01:40:31  5-MIN KMSN 130740Z VRB05KT 10SM CLR M02/M06 A2972 1050 75 -700 VRB/05 RMK AO2
14837KMSN MSN20020113014509601/13/02 01:45:31  5-MIN KMSN 130745Z VRB04KT 10SM CLR M03/M06 A2972 1050 78 -800 VRB/04 RMK AO2
14837KMSN MSN20020113015011301/13/02 01:50:31  5-MIN KMSN 130750Z VRB03KT 10SM CLR M03/M06 A2972 1050 78 -800 VRB/03 RMK AO2 SLP071 T10281061
14837KMSN MSN20020113015509601/13/02 01:55:31  5-MIN KMSN 130755Z VRB04KT 10SM CLR M03/M06 A2972 1050 78 -800 VRB/04 RMK AO2
14837KMSN MSN20020113020009601/13/02 02:00:31  5-MIN KMSN 130800Z VRB03KT 10SM CLR M03/M06 A2972 1050 78 -800 VRB/03 RMK AO2
14837KMSN MSN20020113020509601/13/02 02:05:31  5-MIN KMSN 130805Z 24004KT 10SM CLR M03/M06 A2972 1050 78 -800 240/04 RMK AO2
14837KMSN MSN20020113021009601/13/02 02:10:31  5-MIN KMSN 130810Z VRB03KT 10SM CLR M03/M06 A2972 1050 78 -800 VRB/03 RMK AO2
14837KMSN MSN20020113021509601/13/02 02:15:31  5-MIN KMSN 130815Z VRB05KT 10SM CLR M03/M06 A2972 1050 78 -800 VRB/05 RMK AO2
14837KMSN MSN20020113022009601/13/02 02:20:31  5-MIN KMSN 130820Z VRB04KT 10SM CLR M03/M06 A2972 1050 78 -800 VRB/04 RMK AO2
14837KMSN MSN20020113022509601/13/02 02:25:31  5-MIN KMSN 130825Z 24004KT 10SM CLR M03/M06 A2972 1050 81 -900 240/04 RMK AO2
14837KMSN MSN20020113023009601/13/02 02:30:31  5-MIN KMSN 130830Z VRB03KT 10SM CLR M03/M06 A2972 1050 78 -800 VRB/03 RMK AO2
14837KMSN MSN20020113023509601/13/02 02:35:31  5-MIN KMSN 130835Z 00000KT 10SM CLR M03/M06 A2972 1050 81 -800 000/00 RMK AO2
14837KMSN MSN20020113024009601/13/02 02:40:31  5-MIN KMSN 130840Z VRB03KT 10SM CLR M03/M06 A2972 1050 81 -800 VRB/03 RMK AO2
14837KMSN MSN20020113024509601/13/02 02:45:31  5-MIN KMSN 130845Z VRB03KT 10SM CLR M03/M07 A2972 1050 71 -800 VRB/03 RMK AO2
14837KMSN MSN20020113025011901/13/02 02:50:31  5-MIN KMSN 130850Z 00000KT 10SM CLR M03/M07 A2972 1050 74 -900 000/00 RMK AO2 SLP073 T10331072 58004
14837KMSN MSN20020113025509601/13/02 02:55:31  5-MIN KMSN 130855Z 00000KT 10SM CLR M03/M07 A2973 1050 78 -900 000/00 RMK AO2
14837KMSN MSN20020113030009601/13/02 03:00:31  5-MIN KMSN 130900Z 00000KT 10SM CLR M04/M07 A2973 1040 81 -900 000/00 RMK AO2
14837KMSN MSN20020113030509601/13/02 03:05:31  5-MIN KMSN 130905Z 00000KT 10SM CLR M04/M07 A2973 1040 81 -900 000/00 RMK AO2
14837KMSN MSN20020113031009601/13/02 03:10:31  5-MIN KMSN 130910Z 00000KT 10SM CLR M03/M06 A2973 1040 81 -900 000/00 RMK AO2
14837KMSN MSN20020113031509601/13/02 03:15:31  5-MIN KMSN 130915Z VRB03KT 10SM CLR M03/M06 A2972 1050 81 -900 VRB/03 RMK AO2
14837KMSN MSN20020113032009601/13/02 03:20:31  5-MIN KMSN 130920Z 00000KT 10SM CLR M03/M06 A2972 1050 81 -900 000/00 RMK AO2
14837KMSN MSN20020113032509601/13/02 03:25:31  5-MIN KMSN 130925Z 00000KT 10SM CLR M03/M06 A2972 1050 81 -900 000/00 RMK AO2
14837KMSN MSN20020113033009601/13/02 03:30:31  5-MIN KMSN 130930Z VRB03KT 10SM CLR M03/M06 A2972 1050 81 -900 VRB/03 RMK AO2
14837KMSN MSN20020113033509601/13/02 03:35:31  5-MIN KMSN 130935Z VRB03KT 10SM CLR M03/M06 A2972 1050 81 -900 VRB/03 RMK AO2
14837KMSN MSN20020113034009601/13/02 03:40:31  5-MIN KMSN 130940Z 00000KT 10SM CLR M03/M06 A2972 1050 81 -900 000/00 RMK AO2
14837KMSN MSN20020113034509601/13/02 03:45:31  5-MIN KMSN 130945Z VRB04KT 10SM CLR M03/M06 A2972 1050 81 -900 VRB/04 RMK AO2
14837KMSN MSN20020113035011301/13/02 03:50:31  5-MIN KMSN 130950Z 00000KT 10SM CLR M03/M06 A2972 1050 81 -900 000/00 RMK AO2 SLP073 T10331061
14837KMSN MSN20020113035509601/13/02 03:55:31  5-MIN KMSN 130955Z 00000KT 10SM CLR M03/M06 A2972 1050 81 -900 000/00 RMK AO2
14837KMSN MSN20020113040009601/13/02 04:00:31  5-MIN KMSN 131000Z 00000KT 10SM CLR M03/M06 A2972 1050 81 -900 000/00 RMK AO2
14837KMSN MSN20020113040509601/13/02 04:05:31  5-MIN KMSN 131005Z 00000KT 10SM CLR M03/M06 A2972 1050 81 -900 000/00 RMK AO2
14837KMSN MSN20020113041009601/13/02 04:10:31  5-MIN KMSN 131010Z 00000KT 10SM CLR M03/M06 A2972 1050 81 -900 000/00 RMK AO2
14837KMSN MSN20020113041509601/13/02 04:15:31  5-MIN KMSN 131015Z 25003KT 10SM CLR M04/M07 A2972 1050 81 -900 250/03 RMK AO2
14837KMSN MSN20020113042009601/13/02 04:20:31  5-MIN KMSN 131020Z VRB03KT 10SM CLR M04/M06 A2972 1050 85 -900 VRB/03 RMK AO2
14837KMSN MSN20020113042509601/13/02 04:25:31  5-MIN KMSN 131025Z 00000KT 10SM CLR M03/M06 A2972 1050 81 -900 000/00 RMK AO2
14837KMSN MSN20020113043009601/13/02 04:30:31  5-MIN KMSN 131030Z 00000KT 10SM CLR M04/M07 A2972 1050 81 -900 000/00 RMK AO2
14837KMSN MSN20020113043509601/13/02 04:35:31  5-MIN KMSN 131035Z 25003KT 10SM CLR M04/M06 A2972 1050 85 -900 250/03 RMK AO2
14837KMSN MSN20020113044009601/13/02 04:40:31  5-MIN KMSN 131040Z 00000KT 10SM CLR M04/M07 A2972 1050 81 -900 000/00 RMK AO2
14837KMSN MSN20020113044509601/13/02 04:45:31  5-MIN KMSN 131045Z 00000KT 10SM CLR M04/M06 A2972 1050 85 -900 000/00 RMK AO2
14837KMSN MSN20020113045011301/13/02 04:50:31  5-MIN KMSN 131050Z 00000KT 10SM CLR M04/M06 A2971 1060 85 -900 000/00 RMK AO2 SLP072 T10391061
14837KMSN MSN20020113045509701/13/02 04:55:31  5-MIN KMSN 131055Z 00000KT 10SM CLR M04/M07 A2971 1060 84 -1000 000/00 RMK AO2
14837KMSN MSN20020113050009701/13/02 05:00:31  5-MIN KMSN 131100Z 00000KT 10SM CLR M04/M07 A2972 1050 84 -1000 000/00 RMK AO2
14837KMSN MSN20020113050509701/13/02 05:05:31  5-MIN KMSN 131105Z 00000KT 10SM CLR M05/M07 A2972 1050 88 -1100 000/00 RMK AO2
14837KMSN MSN20020113051009701/13/02 05:10:31  5-MIN KMSN 131110Z 00000KT 10SM CLR M04/M07 A2971 1060 84 -1000 000/00 RMK AO2
14837KMSN MSN20020113051509601/13/02 05:15:31  5-MIN KMSN 131115Z 00000KT 10SM CLR M04/M07 A2971 1060 81 -900 000/00 RMK AO2
14837KMSN MSN20020113052009601/13/02 05:20:31  5-MIN KMSN 131120Z 00000KT 10SM CLR M04/M06 A2971 1060 85 -900 000/00 RMK AO2
14837KMSN MSN20020113052509701/13/02 05:25:31  5-MIN KMSN 131125Z 00000KT 10SM CLR M04/M07 A2971 1060 84 -1000 000/00 RMK AO2
14837KMSN MSN20020113053009701/13/02 05:30:31  5-MIN KMSN 131130Z 00000KT 10SM CLR M04/M07 A2971 1050 84 -1000 000/00 RMK AO2
14837KMSN MSN20020113053509701/13/02 05:35:31  5-MIN KMSN 131135Z 00000KT 10SM CLR M05/M07 A2972 1050 88 -1100 000/00 RMK AO2
14837KMSN MSN20020113054009601/13/02 05:40:31  5-MIN KMSN 131140Z 00000KT 10SM CLR M04/M06 A2971 1060 85 -900 000/00 RMK AO2
14837KMSN MSN20020113054509601/13/02 05:45:31  5-MIN KMSN 131145Z 00000KT 10SM CLR M04/M07 A2971 1050 81 -900 000/00 RMK AO2
14837KMSN MSN20020113055013201/13/02 05:50:31  5-MIN KMSN 131150Z 00000KT 10SM CLR M05/M07 A2972 1050 84 -1100 000/00 RMK AO2 SLP074 T10501072 11017 21050 52005
14837KMSN MSN20020113055509701/13/02 05:55:31  5-MIN KMSN 131155Z 00000KT 10SM CLR M05/M07 A2972 1050 84 -1100 000/00 RMK AO2
14837KMSN MSN20020113060009701/13/02 06:00:31  5-MIN KMSN 131200Z 00000KT 10SM CLR M04/M07 A2972 1050 84 -1000 000/00 RMK AO2
14837KMSN MSN20020113060509601/13/02 06:05:31  5-MIN KMSN 131205Z 00000KT 10SM CLR M04/M06 A2972 1050 85 -900 000/00 RMK AO2
14837KMSN MSN20020113061009601/13/02 06:10:31  5-MIN KMSN 131210Z 00000KT 10SM CLR M04/M06 A2972 1050 85 -900 000/00 RMK AO2
14837KMSN MSN20020113061509701/13/02 06:15:31  5-MIN KMSN 131215Z 00000KT 10SM CLR M04/M07 A2972 1050 84 -1000 000/00 RMK AO2
14837KMSN MSN20020113062009601/13/02 06:20:31  5-MIN KMSN 131220Z 00000KT 10SM CLR M04/M07 A2972 1050 81 -900 000/00 RMK AO2
14837KMSN MSN20020113062509701/13/02 06:25:31  5-MIN KMSN 131225Z 00000KT 10SM CLR M05/M07 A2972 1050 88 -1100 000/00 RMK AO2
14837KMSN MSN20020113063009701/13/02 06:30:31  5-MIN KMSN 131230Z 00000KT 10SM CLR M04/M07 A2972 1050 84 -1000 000/00 RMK AO2
14837KMSN MSN20020113063509701/13/02 06:35:31  5-MIN KMSN 131235Z 00000KT 10SM CLR M04/M07 A2973 1040 84 -1000 000/00 RMK AO2
14837KMSN MSN20020113064009701/13/02 06:40:31  5-MIN KMSN 131240Z 00000KT 10SM CLR M04/M07 A2973 1040 84 -1000 000/00 RMK AO2
14837KMSN MSN20020113064509701/13/02 06:45:31  5-MIN KMSN 131245Z 00000KT 10SM CLR M05/M07 A2973 1040 88 -1100 000/00 RMK AO2
14837KMSN MSN20020113065011401/13/02 06:50:31  5-MIN KMSN 131250Z 00000KT 10SM CLR M05/M07 A2973 1040 88 -1100 000/00 RMK AO2 SLP077 T10501067
14837KMSN MSN20020113065509701/13/02 06:55:31  5-MIN KMSN 131255Z 00000KT 10SM CLR M04/M07 A2973 1040 84 -1000 000/00 RMK AO2
14837KMSN MSN20020113070009701/13/02 07:00:31  5-MIN KMSN 131300Z 00000KT 10SM CLR M04/M07 A2973 1040 84 -1000 000/00 RMK AO2
14837KMSN MSN20020113070509701/13/02 07:05:31  5-MIN KMSN 131305Z 00000KT 10SM CLR M04/M06 A2973 1040 88 -1000 000/00 RMK AO2
14837KMSN MSN20020113071009701/13/02 07:10:31  5-MIN KMSN 131310Z 00000KT 10SM CLR M04/M06 A2973 1040 88 -1000 000/00 RMK AO2
14837KMSN MSN20020113071509701/13/02 07:15:31  5-MIN KMSN 131315Z 00000KT 10SM CLR M04/M06 A2973 1040 88 -1000 000/00 RMK AO2
14837KMSN MSN20020113072009701/13/02 07:20:31  5-MIN KMSN 131320Z 00000KT 10SM CLR M04/M06 A2973 1040 88 -1000 000/00 RMK AO2
14837KMSN MSN20020113072509601/13/02 07:25:31  5-MIN KMSN 131325Z 00000KT 10SM CLR M04/M06 A2973 1040 85 -900 000/00 RMK AO2
14837KMSN MSN20020113073009601/13/02 07:30:31  5-MIN KMSN 131330Z 15003KT 10SM CLR M04/M06 A2973 1040 85 -900 150/03 RMK AO2
14837KMSN MSN20020113073509601/13/02 07:35:31  5-MIN KMSN 131335Z 14003KT 10SM CLR M04/M06 A2973 1040 85 -900 140/03 RMK AO2
14837KMSN MSN20020113074009601/13/02 07:40:31  5-MIN KMSN 131340Z 15003KT 10SM CLR M04/M06 A2973 1040 85 -900 150/03 RMK AO2
14837KMSN MSN20020113074509601/13/02 07:45:31  5-MIN KMSN 131345Z 16003KT 10SM CLR M04/M06 A2973 1040 85 -900 160/03 RMK AO2
14837KMSN MSN20020113075011301/13/02 07:50:31  5-MIN KMSN 131350Z 17003KT 10SM CLR M04/M06 A2974 1030 85 -900 170/03 RMK AO2 SLP081 T10391061
14837KMSN MSN20020113075509601/13/02 07:55:31  5-MIN KMSN 131355Z 17004KT 10SM CLR M03/M06 A2974 1030 85 -900 170/04 RMK AO2
14837KMSN MSN20020113080009601/13/02 08:00:31  5-MIN KMSN 131400Z 15004KT 10SM CLR M04/M06 A2974 1040 88 -900 150/04 RMK AO2
14837KMSN MSN20020113080509601/13/02 08:05:31  5-MIN KMSN 131405Z 18004KT 10SM CLR M03/M06 A2974 1040 85 -900 180/04 RMK AO2
14837KMSN MSN20020113081009601/13/02 08:10:31  5-MIN KMSN 131410Z 17004KT 10SM CLR M03/M06 A2973 1040 85 -900 170/04 RMK AO2
14837KMSN MSN20020113081509601/13/02 08:15:31  5-MIN KMSN 131415Z 16003KT 10SM CLR M03/M06 A2974 1030 85 -900 160/03 RMK AO2
14837KMSN MSN20020113082009601/13/02 08:20:31  5-MIN KMSN 131420Z 15004KT 10SM CLR M03/M05 A2974 1040 88 -900 150/04 RMK AO2
14837KMSN MSN20020113082509601/13/02 08:25:31  5-MIN KMSN 131425Z 16004KT 10SM CLR M03/M05 A2974 1030 88 -900 160/04 RMK AO2
14837KMSN MSN20020113083009601/13/02 08:30:31  5-MIN KMSN 131430Z 15004KT 10SM CLR M03/M05 A2974 1030 85 -800 150/04 RMK AO2
14837KMSN MSN20020113083509601/13/02 08:35:31  5-MIN KMSN 131435Z 15005KT 10SM CLR M03/M05 A2974 1040 85 -800 150/05 RMK AO2
14837KMSN MSN20020113084009601/13/02 08:40:31  5-MIN KMSN 131440Z 16005KT 10SM CLR M03/M05 A2974 1030 85 -800 160/05 RMK AO2
14837KMSN MSN20020113084509601/13/02 08:45:31  5-MIN KMSN 131445Z 17005KT 10SM CLR M03/M05 A2974 1030 85 -800 170/05 RMK AO2
14837KMSN MSN20020113085011901/13/02 08:50:31  5-MIN KMSN 131450Z 17006KT 10SM CLR M03/M05 A2975 1030 85 -800 170/06 RMK AO2 SLP083 T10281050 55001
14837KMSN MSN20020113085509601/13/02 08:55:31  5-MIN KMSN 131455Z 18005KT 10SM CLR M02/M05 A2975 1020 81 -800 180/05 RMK AO2
14837KMSN MSN20020113090009601/13/02 09:00:31  5-MIN KMSN 131500Z 18006KT 10SM CLR M02/M05 A2975 1020 81 -800 180/06 RMK AO2
14837KMSN MSN20020113090509601/13/02 09:05:31  5-MIN KMSN 131505Z 16005KT 10SM CLR M03/M05 A2975 1020 85 -800 160/05 RMK AO2
14837KMSN MSN20020113091009601/13/02 09:10:31  5-MIN KMSN 131510Z 17005KT 10SM CLR M03/M05 A2975 1020 85 -800 170/05 RMK AO2
14837KMSN MSN20020113091509601/13/02 09:15:31  5-MIN KMSN 131515Z 16005KT 10SM CLR M02/M05 A2975 1020 81 -800 160/05 RMK AO2
14837KMSN MSN20020113092009601/13/02 09:20:31  5-MIN KMSN 131520Z 18005KT 10SM CLR M02/M05 A2976 1020 81 -800 170/05 RMK AO2
14837KMSN MSN20020113092509601/13/02 09:25:31  5-MIN KMSN 131525Z 17005KT 10SM CLR M02/M05 A2976 1010 81 -800 170/05 RMK AO2
14837KMSN MSN20020113093009601/13/02 09:30:31  5-MIN KMSN 131530Z 17005KT 10SM CLR M02/M05 A2976 1010 81 -800 170/05 RMK AO2
14837KMSN MSN20020113093509901/13/02 09:35:31  5-MIN KMSN 131535Z 18006KT 10SM SCT100 M02/M05 A2976 1010 81 -800 180/06 RMK AO2
14837KMSN MSN20020113094009901/13/02 09:40:31  5-MIN KMSN 131540Z 18005KT 10SM SCT100 M02/M05 A2976 1010 81 -800 180/05 RMK AO2
14837KMSN MSN20020113094509901/13/02 09:45:31  5-MIN KMSN 131545Z 18005KT 10SM BKN100 M02/M05 A2976 1010 81 -800 180/05 RMK AO2
14837KMSN MSN20020113095011601/13/02 09:50:31  5-MIN KMSN 131550Z 17006KT 10SM BKN100 M02/M04 A2977 1010 85 -800 160/06 RMK AO2 SLP089 T10221044
14837KMSN MSN20020113095509901/13/02 09:55:31  5-MIN KMSN 131555Z 16005KT 10SM SCT100 M02/M05 A2977 1010 81 -800 160/05 RMK AO2
14837KMSN MSN20020113100009901/13/02 10:00:31  5-MIN KMSN 131600Z 16006KT 10SM SCT100 M02/M04 A2977 1000 81 -700 160/06 RMK AO2
14837KMSN MSN20020113120509801/13/02 12:05:31  5-MIN KMSN 131805Z 12009KT 10SM BKN110 02/M04 A2970 1070 64 -200 120/09 RMK AO2
14837KMSN MSN20020113121009801/13/02 12:10:31  5-MIN KMSN 131810Z 13010KT 10SM BKN110 02/M04 A2970 1070 64 -200 130/10 RMK AO2
14837KMSN MSN20020113121509801/13/02 12:15:31  5-MIN KMSN 131815Z 12010KT 10SM BKN110 02/M04 A2969 1070 64 -200 120/10 RMK AO2
14837KMSN MSN20020113122009801/13/02 12:20:31  5-MIN KMSN 131820Z 12009KT 10SM BKN110 02/M04 A2969 1080 64 -200 120/09 RMK AO2
14837KMSN MSN20020113122509801/13/02 12:25:31  5-MIN KMSN 131825Z 13009KT 10SM BKN110 01/M04 A2969 1070 66 -300 130/09 RMK AO2
14837KMSN MSN20020113123009801/13/02 12:30:31  5-MIN KMSN 131830Z 14009KT 10SM BKN110 01/M04 A2969 1080 66 -300 130/09 RMK AO2
14837KMSN MSN20020113123509801/13/02 12:35:31  5-MIN KMSN 131835Z 14008KT 10SM BKN110 01/M04 A2969 1080 66 -300 140/08 RMK AO2
14837KMSN MSN20020113124009801/13/02 12:40:31  5-MIN KMSN 131840Z 13009KT 10SM BKN090 01/M04 A2969 1080 66 -300 120/09 RMK AO2
14837KMSN MSN20020113124509801/13/02 12:45:31  5-MIN KMSN 131845Z 12008KT 10SM BKN090 01/M04 A2969 1070 66 -300 120/08 RMK AO2
14837KMSN MSN20020113125011501/13/02 12:50:31  5-MIN KMSN 131850Z 13010KT 10SM BKN090 02/M04 A2969 1070 64 -200 130/10 RMK AO2 SLP064 T00171044
14837KMSN MSN20020113125509801/13/02 12:55:31  5-MIN KMSN 131855Z 11009KT 10SM BKN085 02/M04 A2969 1080 64 -200 110/09 RMK AO2
14837KMSN MSN20020113130009801/13/02 13:00:31  5-MIN KMSN 131900Z 10011KT 10SM SCT080 02/M04 A2967 1090 64 -200 100/11 RMK AO2
14837KMSN MSN20020113130509801/13/02 13:05:31  5-MIN KMSN 131905Z 11005KT 10SM SCT080 02/M04 A2968 1080 64 -200 110/05 RMK AO2
14837KMSN MSN20020113131009801/13/02 13:10:31  5-MIN KMSN 131910Z 11008KT 10SM BKN080 02/M04 A2968 1090 64 -200 110/08 RMK AO2
14837KMSN MSN20020113131509801/13/02 13:15:31  5-MIN KMSN 131915Z 11008KT 10SM BKN080 02/M04 A2968 1090 64 -200 110/08 RMK AO2
14837KMSN MSN20020113132009801/13/02 13:20:31  5-MIN KMSN 131920Z 12010KT 10SM BKN080 02/M04 A2967 1090 64 -200 120/10 RMK AO2
14837KMSN MSN20020113132509801/13/02 13:25:31  5-MIN KMSN 131925Z 12009KT 10SM BKN080 02/M04 A2967 1100 64 -200 110/09 RMK AO2
14837KMSN MSN20020113133009801/13/02 13:30:31  5-MIN KMSN 131930Z 11010KT 10SM BKN090 02/M04 A2966 1100 64 -200 110/10 RMK AO2
14837KMSN MSN20020113133509801/13/02 13:35:31  5-MIN KMSN 131935Z 12012KT 10SM BKN090 02/M04 A2966 1110 64 -200 110/12 RMK AO2
14837KMSN MSN20020113134009801/13/02 13:40:31  5-MIN KMSN 131940Z 11009KT 10SM BKN090 02/M04 A2966 1110 64 -200 110/09 RMK AO2
14837KMSN MSN20020113134510501/13/02 13:45:31  5-MIN KMSN 131945Z 11009KT 10SM FEW080 OVC090 02/M04 A2965 1110 61 -100 110/09 RMK AO2
14837KMSN MSN20020113135012201/13/02 13:50:31  5-MIN KMSN 131950Z 11010KT 10SM FEW080 OVC090 02/M04 A2965 1110 61 -100 110/10 RMK AO2 SLP051 T00221044
14837KMSN MSN20020113135509801/13/02 13:55:31  5-MIN KMSN 131955Z 11010KT 10SM SCT090 02/M04 A2965 1120 61 -100 110/10 RMK AO2
14837KMSN MSN20020113140010501/13/02 14:00:31  5-MIN KMSN 132000Z 10012KT 10SM FEW080 OVC090 02/M04 A2964 1120 61 -100 100/12 RMK AO2
14837KMSN MSN20020113140510501/13/02 14:05:31  5-MIN KMSN 132005Z 11012KT 10SM FEW080 OVC090 02/M04 A2964 1130 61 -100 110/12 RMK AO2
14837KMSN MSN20020113141010501/13/02 14:10:31  5-MIN KMSN 132010Z 11011KT 10SM FEW080 OVC090 02/M04 A2964 1130 61 -100 110/11 RMK AO2
14837KMSN MSN20020113141510501/13/02 14:15:31  5-MIN KMSN 132015Z 11011KT 10SM FEW080 OVC090 02/M04 A2964 1120 61 -100 110/11 RMK AO2
14837KMSN MSN20020113142010501/13/02 14:20:31  5-MIN KMSN 132020Z 11013KT 10SM FEW080 OVC090 02/M04 A2964 1120 61 -100 110/13 RMK AO2
14837KMSN MSN20020113142510501/13/02 14:25:31  5-MIN KMSN 132025Z 11011KT 10SM FEW080 OVC090 02/M04 A2964 1120 61 -100 110/11 RMK AO2
14837KMSN MSN20020113143010501/13/02 14:30:31  5-MIN KMSN 132030Z 11011KT 10SM FEW080 OVC090 02/M04 A2964 1120 61 -100 110/11 RMK AO2
14837KMSN MSN20020113143510501/13/02 14:35:31  5-MIN KMSN 132035Z 10010KT 10SM FEW080 OVC090 02/M04 A2964 1120 61 -100 100/10 RMK AO2
14837KMSN MSN20020113144010501/13/02 14:40:31  5-MIN KMSN 132040Z 11012KT 10SM FEW080 OVC090 02/M04 A2965 1120 61 -100 110/12 RMK AO2
14837KMSN MSN20020113144510201/13/02 14:45:31  5-MIN KMSN 132045Z 11010KT 10SM FEW080 OVC090 03/M04 A2965 1120 59 0 110/10 RMK AO2
14837KMSN MSN20020113145012501/13/02 14:50:31  5-MIN KMSN 132050Z 11012KT 10SM FEW080 OVC090 03/M04 A2965 1120 59 0 110/12 RMK AO2 SLP048 T00281044 58013
14837KMSN MSN20020113145509501/13/02 14:55:31  5-MIN KMSN 132055Z 12012KT 10SM BKN090 03/M04 A2965 1120 59 0 120/12 RMK AO2
14837KMSN MSN20020113150009501/13/02 15:00:31  5-MIN KMSN 132100Z 12012KT 10SM BKN090 03/M04 A2965 1120 59 0 120/12 RMK AO2
14837KMSN MSN20020113150509501/13/02 15:05:31  5-MIN KMSN 132105Z 12011KT 10SM OVC090 03/M05 A2965 1120 56 0 120/11 RMK AO2
14837KMSN MSN20020113151009501/13/02 15:10:31  5-MIN KMSN 132110Z 12013KT 10SM OVC090 03/M04 A2965 1120 59 0 120/13 RMK AO2
14837KMSN MSN20020113151509501/13/02 15:15:31  5-MIN KMSN 132115Z 12011KT 10SM OVC090 03/M05 A2965 1120 56 0 120/11 RMK AO2
14837KMSN MSN20020113152009501/13/02 15:20:31  5-MIN KMSN 132120Z 12015KT 10SM OVC090 03/M05 A2964 1130 56 0 120/15 RMK AO2
14837KMSN MSN20020113152509501/13/02 15:25:31  5-MIN KMSN 132125Z 12013KT 10SM OVC090 03/M05 A2964 1130 56 0 120/13 RMK AO2
14837KMSN MSN20020113153009501/13/02 15:30:31  5-MIN KMSN 132130Z 13013KT 10SM OVC090 03/M05 A2964 1120 56 0 130/13 RMK AO2
14837KMSN MSN20020113153509501/13/02 15:35:31  5-MIN KMSN 132135Z 12012KT 10SM OVC100 03/M05 A2964 1120 56 0 120/12 RMK AO2
14837KMSN MSN20020113154009501/13/02 15:40:31  5-MIN KMSN 132140Z 12013KT 10SM OVC100 03/M05 A2965 1120 56 0 120/13 RMK AO2
14837KMSN MSN20020113154509501/13/02 15:45:31  5-MIN KMSN 132145Z 12012KT 10SM OVC100 03/M05 A2965 1120 56 0 120/12 RMK AO2
14837KMSN MSN20020113155011201/13/02 15:50:31  5-MIN KMSN 132150Z 12012KT 10SM OVC100 03/M05 A2965 1120 56 0 120/12 RMK AO2 SLP049 T00281050
14837KMSN MSN20020113155509501/13/02 15:55:31  5-MIN KMSN 132155Z 12012KT 10SM OVC110 03/M05 A2964 1120 56 0 120/12 RMK AO2
14837KMSN MSN20020113160009501/13/02 16:00:31  5-MIN KMSN 132200Z 12014KT 10SM OVC110 03/M05 A2964 1120 56 0 120/14 RMK AO2
14837KMSN MSN20020113160510101/13/02 16:05:31  5-MIN KMSN 132205Z 12015G19KT 10SM BKN110 03/M05 A2964 1120 56 0 120/15G19 RMK AO2
14837KMSN MSN20020113161010101/13/02 16:10:31  5-MIN KMSN 132210Z 12012G19KT 10SM BKN100 03/M05 A2964 1120 56 0 120/12G19 RMK AO2
14837KMSN MSN20020113161509501/13/02 16:15:31  5-MIN KMSN 132215Z 12012KT 10SM OVC100 03/M05 A2964 1120 56 0 120/12 RMK AO2
14837KMSN MSN20020113162009501/13/02 16:20:31  5-MIN KMSN 132220Z 11013KT 10SM OVC100 03/M04 A2964 1120 59 0 110/13 RMK AO2
14837KMSN MSN20020113162509501/13/02 16:25:31  5-MIN KMSN 132225Z 12013KT 10SM OVC095 03/M04 A2965 1110 59 0 120/13 RMK AO2
14837KMSN MSN20020113163009501/13/02 16:30:31  5-MIN KMSN 132230Z 13009KT 10SM OVC095 03/M04 A2966 1110 59 0 130/09 RMK AO2
14837KMSN MSN20020113163509501/13/02 16:35:31  5-MIN KMSN 132235Z 12009KT 10SM OVC095 03/M04 A2966 1110 59 0 120/09 RMK AO2
14837KMSN MSN20020113164009801/13/02 16:40:31  5-MIN KMSN 132240Z 12010KT 10SM OVC090 02/M04 A2966 1110 61 -100 110/10 RMK AO2
14837KMSN MSN20020113164509801/13/02 16:45:31  5-MIN KMSN 132245Z 12012KT 10SM OVC090 02/M04 A2966 1110 61 -100 120/12 RMK AO2
14837KMSN MSN20020113165011501/13/02 16:50:31  5-MIN KMSN 132250Z 12009KT 10SM OVC085 02/M04 A2966 1110 61 -100 120/09 RMK AO2 SLP054 T00221044
14837KMSN MSN20020113165509801/13/02 16:55:31  5-MIN KMSN 132255Z 11011KT 10SM OVC085 02/M04 A2966 1110 61 -100 110/11 RMK AO2
14837KMSN MSN20020113170009801/13/02 17:00:31  5-MIN KMSN 132300Z 12010KT 10SM OVC085 02/M04 A2966 1110 61 -100 110/10 RMK AO2
14837KMSN MSN20020113170509801/13/02 17:05:31  5-MIN KMSN 132305Z 12010KT 10SM OVC080 02/M04 A2966 1100 61 -100 120/10 RMK AO2
14837KMSN MSN20020113171010501/13/02 17:10:31  5-MIN KMSN 132310Z 11009KT 10SM BKN070 OVC085 02/M04 A2966 1110 61 -100 110/09 RMK AO2
14837KMSN MSN20020113171510501/13/02 17:15:31  5-MIN KMSN 132315Z 12010KT 10SM BKN055 OVC085 02/M04 A2966 1100 61 -100 120/10 RMK AO2
14837KMSN MSN20020113172010501/13/02 17:20:31  5-MIN KMSN 132320Z 11011KT 10SM BKN048 OVC085 02/M04 A2966 1100 61 -100 110/11 RMK AO2
14837KMSN MSN20020113172510501/13/02 17:25:31  5-MIN KMSN 132325Z 11011KT 10SM BKN042 OVC080 02/M04 A2966 1110 61 -100 110/11 RMK AO2
14837KMSN MSN20020113173010401/13/02 17:30:31  5-MIN KMSN 132330Z 11015G19KT 10SM OVC040 02/M04 A2966 1110 61 -100 110/15G19 RMK AO2
14837KMSN MSN20020113173510401/13/02 17:35:31  5-MIN KMSN 132335Z 11015G19KT 10SM OVC036 02/M05 A2966 1110 59 -100 110/15G19 RMK AO2
14837KMSN MSN20020113174009801/13/02 17:40:31  5-MIN KMSN 132340Z 12012KT 10SM OVC032 02/M04 A2966 1110 61 -100 120/12 RMK AO2
14837KMSN MSN20020113174509801/13/02 17:45:31  5-MIN KMSN 132345Z 12011KT 10SM OVC028 02/M04 A2966 1110 61 -100 120/11 RMK AO2
14837KMSN MSN20020113175015401/13/02 17:50:31  5-MIN KMSN 132350Z 12013KT 7SM -SN OVC026 02/M04 A2966 1110 61 -100 120/13 RMK AO2 SNB47 SLP053 P0000 60000 T00221044 10028 20011 56020
14837KMSN MSN20020113175510701/13/02 17:55:31  5-MIN KMSN 132355Z 12014KT 5SM -SN OVC024 02/M04 A2966 1110 64 -100 120/14 RMK AO2 P0000
14837KMSN MSN20020113180010701/13/02 18:00:31  5-MIN KMSN 140000Z 12016KT 4SM -SN OVC022 02/M03 A2967 1100 69 -200 120/16 RMK AO2 P0000
14837KMSN MSN20020113180510701/13/02 18:05:31  5-MIN KMSN 140005Z 12015KT 3SM -SN OVC020 02/M03 A2967 1100 72 -200 120/15 RMK AO2 P0000
14837KMSN MSN20020113181010701/13/02 18:10:31  5-MIN KMSN 140010Z 12013KT 3SM -SN OVC018 01/M02 A2967 1100 78 -200 120/13 RMK AO2 P0000
14837KMSN MSN20020113181511401/13/02 18:15:31  5-MIN KMSN 140015Z 12014KT 3SM -SN BKN018 OVC050 01/M02 A2967 1090 78 -200 120/14 RMK AO2 P0000
14837KMSN MSN20020113182012101/13/02 18:20:31  5-MIN KMSN 140020Z 12011KT 3SM -SN BKN018 BKN034 OVC050 01/M02 A2968 1090 82 -200 120/11 RMK AO2 P0000
14837KMSN MSN20020113182512801/13/02 18:25:31  5-MIN KMSN 140025Z 13010KT 2 1/2SM -SN BR BKN018 BKN036 OVC050 01/M02 A2968 1090 85 -300 120/10 RMK AO2 P0000
14837KMSN MSN20020113183012801/13/02 18:30:31  5-MIN KMSN 140030Z 12011KT 2 1/2SM -SN BKN018 OVC050 01/M02 A2968 1090 82 -300 120/11 RMK AO2 TWR VIS 3 P0000
14837KMSN MSN20020113183513801/13/02 18:35:31  5-MIN KMSN 140035Z 12008KT 2 1/2SM -SN BR BKN018 BKN033 OVC050 01/M02 A2969 1080 85 -300 120/08 RMK AO2 TWR VIS 3 P0000
14837KMSN MSN20020113184013101/13/02 18:40:31  5-MIN KMSN 140040Z 12008KT 2 1/2SM -SN BR BKN018 OVC033 01/M01 A2969 1080 89 -300 120/08 RMK AO2 TWR VIS 3 P0000
14837KMSN MSN20020113184513801/13/02 18:45:31  5-MIN KMSN 140045Z 11008KT 2 1/2SM -SN BR BKN018 BKN027 OVC033 01/M02 A2969 1080 85 -300 110/08 RMK AO2 TWR VIS 3 P0000
14837KMSN MSN20020113185014101/13/02 18:50:31  5-MIN KMSN 140050Z 12009KT 2SM -SN BR BKN014 BKN027 OVC033 00/M02 A2969 1080 85 -400 110/09 RMK AO2 SLP063 P0000 T00001022
14837KMSN MSN20020113185513801/13/02 18:55:31  5-MIN KMSN 140055Z 12010KT 1 1/4SM -SN BR BKN012 BKN027 OVC032 00/M02 A2969 1080 88 -400 120/10 RMK AO2 TWR VIS 2 P0000
14837KMSN MSN20020113190013801/13/02 19:00:31  5-MIN KMSN 140100Z 12010KT 1 1/2SM -SN BR BKN010 BKN018 OVC032 00/M02 A2969 1080 88 -400 120/10 RMK AO2 TWR VIS 2 P0000
14837KMSN MSN20020113190513801/13/02 19:05:31  5-MIN KMSN 140105Z 12010KT 1 1/2SM -SN BR SCT010 BKN016 OVC027 00/M02 A2969 1080 88 -400 120/10 RMK AO2 TWR VIS 2 P0000
14837KMSN MSN20020113191013801/13/02 19:10:31  5-MIN KMSN 140110Z 12010KT 1 1/2SM -SN BR SCT010 BKN014 OVC027 00/M01 A2968 1080 92 -400 120/10 RMK AO2 TWR VIS 2 P0000
14837KMSN MSN20020113191513801/13/02 19:15:31  5-MIN KMSN 140115Z 12011KT 1 1/2SM -SN BR BKN010 BKN014 OVC027 00/M02 A2968 1090 88 -400 120/11 RMK AO2 TWR VIS 2 P0000
14837KMSN MSN20020113192013101/13/02 19:20:31  5-MIN KMSN 140120Z 12010KT 1 1/2SM -SN BR BKN010 OVC016 00/M01 A2968 1090 92 -400 120/10 RMK AO2 TWR VIS 2 P0000
14837KMSN MSN20020113192513101/13/02 19:25:31  5-MIN KMSN 140125Z 12009KT 1 1/2SM -SN BR BKN008 OVC016 00/M02 A2968 1090 88 -400 120/09 RMK AO2 TWR VIS 2 P0000
14837KMSN MSN20020113193013101/13/02 19:30:31  5-MIN KMSN 140130Z 12010KT 1 1/2SM -SN BR BKN008 OVC013 00/M01 A2967 1090 92 -400 120/10 RMK AO2 TWR VIS 2 P0000
14837KMSN MSN20020113193513801/13/02 19:35:31  5-MIN KMSN 140135Z 12011KT 2SM -SN BR BKN008 BKN013 OVC050 00/M01 A2967 1090 92 -400 120/11 RMK AO2 SFC VIS 2 1/2 P0000
14837KMSN MSN20020113194012101/13/02 19:40:31  5-MIN KMSN 140140Z 12011KT 2 1/2SM -SN BR BKN008 OVC050 00/M01 A2967 1090 92 -400 120/11 RMK AO2 P0000
14837KMSN MSN20020113194513001/13/02 19:45:31  5-MIN KMSN 140145Z 12011KT 2 1/2SM -SN BKN008 OVC055 00/M03 A2967 1100 81 -400 110/11 RMK AO2 CIG 004V012 P0000
14837KMSN MSN20020113195015001/13/02 19:50:31  5-MIN KMSN 140150Z 12011KT 2 1/2SM -SN BR BKN008 OVC055 00/M01 A2967 1100 92 -400 120/11 RMK AO2 CIG 004V011 SLP056 P0000 T00001011
14837KMSN MSN20020113195512901/13/02 19:55:31  5-MIN KMSN 140155Z 12010KT 5SM -SN BR BKN008 OVC055 00/M01 A2967 1100 92 -400 120/10 RMK AO2 CIG 004V011 P0000
14837KMSN MSN20020113200012901/13/02 20:00:31  5-MIN KMSN 140200Z 12009KT 5SM -SN BR BKN006 OVC055 00/M01 A2966 1100 92 -400 120/09 RMK AO2 CIG 004V011 P0000
14837KMSN MSN20020113200511701/13/02 20:05:31  5-MIN KMSN 140205Z 12009KT 5SM -SN BR SCT006 OVC055 00/M01 A2966 1110 92 -400 120/09 RMK AO2 P0000
14837KMSN MSN20020113201011701/13/02 20:10:31  5-MIN KMSN 140210Z 12009KT 5SM -SN BR SCT006 OVC055 00/M01 A2966 1110 96 -400 120/09 RMK AO2 P0000
14837KMSN MSN20020113201511701/13/02 20:15:31  5-MIN KMSN 140215Z 11009KT 5SM -SN BR BKN006 OVC055 00/M01 A2966 1110 92 -400 110/09 RMK AO2 P0000
14837KMSN MSN20020113202011701/13/02 20:20:31  5-MIN KMSN 140220Z 12009KT 5SM -SN BR SCT006 OVC060 01/M01 A2966 1100 89 -300 120/09 RMK AO2 P0000
14837KMSN MSN20020113202511701/13/02 20:25:31  5-MIN KMSN 140225Z 12010KT 6SM -SN BR SCT006 OVC060 01/M01 A2966 1110 89 -300 120/10 RMK AO2 P0000
14837KMSN MSN20020113203011701/13/02 20:30:31  5-MIN KMSN 140230Z 12010KT 6SM -SN BR SCT006 OVC060 01/M01 A2966 1110 89 -300 120/10 RMK AO2 P0000
14837KMSN MSN20020113203511401/13/02 20:35:31  5-MIN KMSN 140235Z 12009KT 7SM -SN FEW006 OVC060 01/M02 A2966 1110 85 -300 110/09 RMK AO2 P0000
14837KMSN MSN20020113204011401/13/02 20:40:31  5-MIN KMSN 140240Z 11010KT 7SM -SN FEW006 OVC060 01/M01 A2966 1110 92 -300 110/10 RMK AO2 P0000
14837KMSN MSN20020113204512101/13/02 20:45:31  5-MIN KMSN 140245Z 11011KT 7SM -SN FEW006 BKN060 OVC080 01/M01 A2966 1110 92 -300 110/11 RMK AO2 P0000
14837KMSN MSN20020113205014601/13/02 20:50:31  5-MIN KMSN 140250Z 11011KT 6SM -SN BR BKN060 OVC080 01/M01 A2966 1110 92 -300 110/11 RMK AO2 SLP052 P0000 60000 T00061006 53003
14837KMSN MSN20020113205511701/13/02 20:55:31  5-MIN KMSN 140255Z 11010KT 6SM -SN BR BKN060 OVC080 01/M01 A2965 1110 92 -300 110/10 RMK AO2 P0000
14837KMSN MSN20020113210011401/13/02 21:00:31  5-MIN KMSN 140300Z 12010KT 7SM -SN SCT060 OVC080 01/M01 A2965 1110 89 -300 120/10 RMK AO2 P0000
14837KMSN MSN20020113210511401/13/02 21:05:31  5-MIN KMSN 140305Z 11009KT 7SM -SN SCT065 OVC080 01/M01 A2965 1110 92 -300 110/09 RMK AO2 P0000
14837KMSN MSN20020113211011401/13/02 21:10:31  5-MIN KMSN 140310Z 11009KT 7SM -SN BKN070 OVC080 01/M01 A2965 1110 89 -300 110/09 RMK AO2 P0000
14837KMSN MSN20020113211511401/13/02 21:15:31  5-MIN KMSN 140315Z 11008KT 7SM -SN SCT065 OVC085 01/M02 A2965 1120 85 -300 110/08 RMK AO2 P0000
14837KMSN MSN20020113212011401/13/02 21:20:31  5-MIN KMSN 140320Z 11009KT 7SM -SN SCT065 OVC085 01/M01 A2965 1120 89 -300 110/09 RMK AO2 P0000
14837KMSN MSN20020113212511601/13/02 21:25:31  5-MIN KMSN 140325Z 11008KT 8SM BKN060 OVC085 01/M01 A2965 1120 89 -300 110/08 RMK AO2 SNE21 P0000
14837KMSN MSN20020113213012101/13/02 21:30:31  5-MIN KMSN 140330Z 11007KT 7SM -SN BKN065 BKN080 OVC090 01/M01 A2965 1120 89 -300 110/07 RMK AO2 P0000
14837KMSN MSN20020113213511401/13/02 21:35:31  5-MIN KMSN 140335Z 11008KT 7SM -SN BKN065 OVC080 01/M01 A2965 1120 89 -300 110/08 RMK AO2 P0000
14837KMSN MSN20020113214011601/13/02 21:40:31  5-MIN KMSN 140340Z 11009KT 8SM BKN065 OVC080 01/M01 A2965 1120 89 -300 110/09 RMK AO2 SNE38 P0000
14837KMSN MSN20020113214510901/13/02 21:45:31  5-MIN KMSN 140345Z 11008KT 9SM OVC060 01/M01 A2964 1120 89 -300 110/08 RMK AO2 SNE38 P0000
14837KMSN MSN20020113215012701/13/02 21:50:31  5-MIN KMSN 140350Z 11008KT 10SM OVC060 01/M01 A2964 1120 89 -300 110/08 RMK AO2 SNE38 SLP048 P0000 T00061011
14837KMSN MSN20020113215509801/13/02 21:55:31  5-MIN KMSN 140355Z 11009KT 10SM OVC055 01/M01 A2965 1120 89 -300 110/09 RMK AO2
14837KMSN MSN20020113220010501/13/02 22:00:31  5-MIN KMSN 140400Z 11008KT 10SM BKN055 OVC120 01/M01 A2965 1120 89 -300 110/08 RMK AO2
14837KMSN MSN20020113220510501/13/02 22:05:31  5-MIN KMSN 140405Z 11008KT 10SM BKN060 OVC120 01/M01 A2965 1120 89 -300 110/08 RMK AO2
14837KMSN MSN20020113221010501/13/02 22:10:31  5-MIN KMSN 140410Z 11009KT 10SM SCT060 OVC120 01/M02 A2965 1120 85 -300 110/09 RMK AO2
14837KMSN MSN20020113221510501/13/02 22:15:31  5-MIN KMSN 140415Z 11009KT 10SM SCT060 OVC120 01/M02 A2964 1120 85 -300 110/09 RMK AO2
14837KMSN MSN20020113222010501/13/02 22:20:31  5-MIN KMSN 140420Z 11009KT 10SM FEW060 OVC120 01/M02 A2964 1120 85 -300 110/09 RMK AO2
14837KMSN MSN20020113222510501/13/02 22:25:31  5-MIN KMSN 140425Z 11010KT 10SM FEW070 OVC120 00/M02 A2964 1120 85 -300 110/10 RMK AO2
14837KMSN MSN20020113223010501/13/02 22:30:31  5-MIN KMSN 140430Z 11009KT 10SM SCT065 OVC120 01/M02 A2964 1120 82 -300 110/09 RMK AO2
14837KMSN MSN20020113223510501/13/02 22:35:31  5-MIN KMSN 140435Z 10009KT 10SM BKN060 OVC120 01/M02 A2964 1120 85 -300 100/09 RMK AO2
14837KMSN MSN20020113224010501/13/02 22:40:31  5-MIN KMSN 140440Z 11008KT 10SM BKN060 OVC120 01/M02 A2964 1120 85 -300 100/08 RMK AO2
14837KMSN MSN20020113224510501/13/02 22:45:31  5-MIN KMSN 140445Z 11008KT 10SM BKN060 OVC120 01/M02 A2964 1120 85 -300 110/08 RMK AO2
14837KMSN MSN20020113225011501/13/02 22:50:31  5-MIN KMSN 140450Z 11009KT 10SM OVC055 01/M02 A2964 1130 85 -300 110/09 RMK AO2 SLP045 T00061017
14837KMSN MSN20020113225509801/13/02 22:55:31  5-MIN KMSN 140455Z 12007KT 10SM OVC055 01/M02 A2964 1130 85 -300 110/07 RMK AO2
14837KMSN MSN20020113230009801/13/02 23:00:31  5-MIN KMSN 140500Z 11008KT 10SM OVC055 01/M02 A2964 1130 82 -300 110/08 RMK AO2
14837KMSN MSN20020113230509801/13/02 23:05:31  5-MIN KMSN 140505Z 10008KT 10SM OVC055 01/M02 A2963 1130 82 -300 100/08 RMK AO2
14837KMSN MSN20020113231009801/13/02 23:10:31  5-MIN KMSN 140510Z 10008KT 10SM OVC055 01/M02 A2963 1130 85 -300 100/08 RMK AO2
14837KMSN MSN20020113231509801/13/02 23:15:31  5-MIN KMSN 140515Z 10008KT 10SM OVC050 01/M02 A2963 1140 85 -300 100/08 RMK AO2
14837KMSN MSN20020113232009801/13/02 23:20:31  5-MIN KMSN 140520Z 10008KT 10SM OVC050 01/M02 A2963 1140 82 -300 100/08 RMK AO2
14837KMSN MSN20020113232509801/13/02 23:25:31  5-MIN KMSN 140525Z 10007KT 10SM OVC050 01/M02 A2963 1140 85 -300 100/07 RMK AO2
14837KMSN MSN20020113233009801/13/02 23:30:31  5-MIN KMSN 140530Z 10008KT 10SM OVC050 01/M02 A2962 1140 85 -300 100/08 RMK AO2
14837KMSN MSN20020113233509801/13/02 23:35:31  5-MIN KMSN 140535Z 10009KT 10SM OVC050 01/M02 A2962 1140 85 -300 100/09 RMK AO2
14837KMSN MSN20020113234009801/13/02 23:40:31  5-MIN KMSN 140540Z 11010KT 10SM OVC050 01/M02 A2962 1150 85 -200 110/10 RMK AO2
14837KMSN MSN20020113234509801/13/02 23:45:31  5-MIN KMSN 140545Z 11008KT 10SM OVC048 01/M02 A2962 1150 85 -200 110/08 RMK AO2
14837KMSN MSN20020113235014301/13/02 23:50:31  5-MIN KMSN 140550Z 12008KT 10SM OVC048 01/M02 A2962 1150 85 -200 120/08 RMK AO2 SLP037 T00061017 10022 20000 400281056 58002
14837KMSN MSN20020113235509801/13/02 23:55:31  5-MIN KMSN 140555Z 11008KT 10SM OVC046 01/M02 A2962 1150 82 -200 110/08 RMK AO2
14837KMSN MSN20020114000009801/14/02 00:00:31  5-MIN KMSN 140600Z 11009KT 10SM OVC046 01/M02 A2961 1150 82 -200 110/09 RMK AO2
14837KMSN MSN20020114000509801/14/02 00:05:31  5-MIN KMSN 140605Z 10008KT 10SM OVC044 01/M02 A2961 1150 82 -200 100/08 RMK AO2
14837KMSN MSN20020114001009801/14/02 00:10:31  5-MIN KMSN 140610Z 11008KT 10SM OVC044 01/M02 A2961 1150 85 -200 110/08 RMK AO2
14837KMSN MSN20020114001509801/14/02 00:15:31  5-MIN KMSN 140615Z 11008KT 10SM OVC044 01/M02 A2961 1150 85 -200 110/08 RMK AO2
14837KMSN MSN20020114002009801/14/02 00:20:31  5-MIN KMSN 140620Z 11010KT 10SM OVC044 01/M02 A2961 1160 82 -200 110/10 RMK AO2
14837KMSN MSN20020114002509801/14/02 00:25:31  5-MIN KMSN 140625Z 11010KT 10SM OVC044 01/M02 A2960 1160 85 -200 110/10 RMK AO2
14837KMSN MSN20020114003009801/14/02 00:30:31  5-MIN KMSN 140630Z 12012KT 10SM OVC044 01/M02 A2960 1160 82 -200 120/12 RMK AO2
14837KMSN MSN20020114003509801/14/02 00:35:31  5-MIN KMSN 140635Z 12011KT 10SM OVC044 01/M01 A2960 1160 85 -200 120/11 RMK AO2
14837KMSN MSN20020114004009801/14/02 00:40:31  5-MIN KMSN 140640Z 12012KT 10SM OVC044 01/M01 A2960 1160 85 -200 120/12 RMK AO2
14837KMSN MSN20020114004509801/14/02 00:45:31  5-MIN KMSN 140645Z 12010KT 10SM OVC042 01/M01 A2960 1170 85 -200 120/10 RMK AO2
14837KMSN MSN20020114005011501/14/02 00:50:31  5-MIN KMSN 140650Z 12010KT 10SM OVC042 01/M01 A2960 1170 85 -200 120/10 RMK AO2 SLP030 T00111011
14837KMSN MSN20020114005509801/14/02 00:55:31  5-MIN KMSN 140655Z 12008KT 10SM OVC042 01/M01 A2960 1160 89 -200 120/08 RMK AO2
14837KMSN MSN20020114010009801/14/02 01:00:31  5-MIN KMSN 140700Z 13006KT 10SM OVC042 01/M01 A2960 1160 89 -200 120/06 RMK AO2
14837KMSN MSN20020114010509701/14/02 01:05:31  5-MIN KMSN 140705Z 12009KT 9SM OVC042 01/M01 A2960 1170 89 -200 120/09 RMK AO2
14837KMSN MSN20020114011009701/14/02 01:10:31  5-MIN KMSN 140710Z 11008KT 8SM OVC042 01/M01 A2959 1170 89 -200 110/08 RMK AO2
14837KMSN MSN20020114011509701/14/02 01:15:31  5-MIN KMSN 140715Z 11009KT 8SM OVC042 01/M01 A2959 1170 89 -200 110/09 RMK AO2
14837KMSN MSN20020114012009701/14/02 01:20:31  5-MIN KMSN 140720Z 11007KT 8SM OVC042 01/M01 A2959 1170 92 -200 110/07 RMK AO2
14837KMSN MSN20020114012509701/14/02 01:25:31  5-MIN KMSN 140725Z 11007KT 7SM OVC042 01/M01 A2960 1170 92 -200 110/07 RMK AO2
14837KMSN MSN20020114013009701/14/02 01:30:31  5-MIN KMSN 140730Z 11007KT 7SM OVC042 01/M01 A2960 1160 92 -200 110/07 RMK AO2
14837KMSN MSN20020114013509701/14/02 01:35:31  5-MIN KMSN 140735Z 11007KT 7SM OVC042 01/M01 A2960 1170 92 -200 110/07 RMK AO2
14837KMSN MSN20020114014009701/14/02 01:40:31  5-MIN KMSN 140740Z 11006KT 7SM OVC042 01/M01 A2960 1160 92 -200 110/06 RMK AO2
14837KMSN MSN20020114014509701/14/02 01:45:31  5-MIN KMSN 140745Z 11008KT 7SM OVC042 01/M01 A2960 1170 92 -200 110/08 RMK AO2
14837KMSN MSN20020114015011401/14/02 01:50:31  5-MIN KMSN 140750Z 10007KT 7SM OVC042 01/M01 A2959 1170 92 -200 100/07 RMK AO2 SLP028 T00061006
14837KMSN MSN20020114015509701/14/02 01:55:31  5-MIN KMSN 140755Z 10008KT 7SM OVC044 01/M01 A2959 1170 92 -200 090/08 RMK AO2
14837KMSN MSN20020114020010001/14/02 02:00:31  5-MIN KMSN 140800Z 10006KT 6SM BR OVC044 01/M01 A2959 1170 92 -200 100/06 RMK AO2
14837KMSN MSN20020114020510001/14/02 02:05:31  5-MIN KMSN 140805Z 11008KT 6SM BR OVC044 01/M01 A2959 1170 92 -200 110/08 RMK AO2
14837KMSN MSN20020114021010001/14/02 02:10:31  5-MIN KMSN 140810Z 10008KT 6SM BR OVC044 01/M01 A2959 1170 92 -200 100/08 RMK AO2
14837KMSN MSN20020114021510001/14/02 02:15:31  5-MIN KMSN 140815Z 11008KT 6SM BR OVC044 01/M01 A2959 1170 92 -200 100/08 RMK AO2
14837KMSN MSN20020114022010001/14/02 02:20:31  5-MIN KMSN 140820Z 11008KT 6SM BR OVC044 01/M01 A2959 1170 92 -200 110/08 RMK AO2
14837KMSN MSN20020114022510001/14/02 02:25:31  5-MIN KMSN 140825Z 12008KT 6SM BR OVC044 01/M01 A2959 1170 92 -200 110/08 RMK AO2
14837KMSN MSN20020114023010001/14/02 02:30:31  5-MIN KMSN 140830Z 12007KT 6SM BR OVC044 01/M01 A2959 1170 92 -200 120/07 RMK AO2
14837KMSN MSN20020114023510001/14/02 02:35:31  5-MIN KMSN 140835Z 12007KT 5SM BR OVC044 01/M01 A2959 1170 92 -200 120/07 RMK AO2
14837KMSN MSN20020114024010001/14/02 02:40:31  5-MIN KMSN 140840Z 12007KT 5SM BR OVC044 01/M01 A2959 1170 92 -200 120/07 RMK AO2
14837KMSN MSN20020114024510001/14/02 02:45:31  5-MIN KMSN 140845Z 12007KT 5SM BR OVC044 01/M01 A2959 1170 92 -200 120/07 RMK AO2
14837KMSN MSN20020114025012301/14/02 02:50:31  5-MIN KMSN 140850Z 11007KT 5SM BR OVC044 01/M01 A2959 1170 92 -200 110/07 RMK AO2 SLP027 T00061006 58012
14837KMSN MSN20020114025510001/14/02 02:55:31  5-MIN KMSN 140855Z 11008KT 5SM BR OVC044 01/M01 A2958 1180 92 -200 100/08 RMK AO2
14837KMSN MSN20020114030010001/14/02 03:00:31  5-MIN KMSN 140900Z 10006KT 5SM BR OVC044 01/M01 A2958 1180 92 -200 100/06 RMK AO2
14837KMSN MSN20020114030510701/14/02 03:05:31  5-MIN KMSN 140905Z 10007KT 5SM BR BKN044 OVC100 00/M01 A2958 1180 96 -300 100/07 RMK AO2
14837KMSN MSN20020114031010701/14/02 03:10:31  5-MIN KMSN 140910Z 11007KT 5SM BR BKN044 OVC100 00/M01 A2957 1190 96 -300 110/07 RMK AO2
14837KMSN MSN20020114031511401/14/02 03:15:31  5-MIN KMSN 140915Z 11007KT 5SM BR FEW007 BKN044 OVC100 00/M01 A2957 1190 92 -300 110/07 RMK AO2
14837KMSN MSN20020114032011401/14/02 03:20:31  5-MIN KMSN 140920Z 11006KT 5SM BR FEW007 BKN044 OVC100 00/M01 A2958 1180 96 -300 110/06 RMK AO2
14837KMSN MSN20020114032511401/14/02 03:25:31  5-MIN KMSN 140925Z 11005KT 5SM BR SCT007 BKN044 OVC100 00/M01 A2958 1180 96 -300 110/05 RMK AO2
14837KMSN MSN20020114033011401/14/02 03:30:31  5-MIN KMSN 140930Z 12004KT 5SM BR SCT007 BKN044 OVC100 00/M01 A2958 1180 96 -300 120/04 RMK AO2
14837KMSN MSN20020114033511401/14/02 03:35:31  5-MIN KMSN 140935Z 10005KT 5SM BR SCT007 BKN044 OVC100 00/M01 A2958 1180 96 -300 100/05 RMK AO2
14837KMSN MSN20020114034011401/14/02 03:40:31  5-MIN KMSN 140940Z 11006KT 5SM BR SCT007 BKN044 OVC100 01/M01 A2958 1180 92 -200 100/06 RMK AO2
14837KMSN MSN20020114034510701/14/02 03:45:31  5-MIN KMSN 140945Z 10004KT 5SM BR SCT007 OVC044 01/M01 A2958 1180 92 -200 100/04 RMK AO2
14837KMSN MSN20020114035012401/14/02 03:50:31  5-MIN KMSN 140950Z 10006KT 5SM BR SCT007 OVC044 01/M01 A2957 1190 92 -200 100/06 RMK AO2 SLP022 T00061006
14837KMSN MSN20020114035510701/14/02 03:55:31  5-MIN KMSN 140955Z 10006KT 5SM BR SCT007 OVC044 01/M01 A2957 1190 92 -200 100/06 RMK AO2
14837KMSN MSN20020114040010701/14/02 04:00:31  5-MIN KMSN 141000Z 10007KT 5SM BR SCT007 OVC044 01/M01 A2957 1190 92 -200 100/07 RMK AO2
14837KMSN MSN20020114040510701/14/02 04:05:31  5-MIN KMSN 141005Z 11007KT 5SM BR SCT007 OVC044 01/M01 A2957 1190 92 -200 100/07 RMK AO2
14837KMSN MSN20020114041010701/14/02 04:10:31  5-MIN KMSN 141010Z 10006KT 4SM BR SCT007 OVC044 01/M01 A2956 1200 92 -200 100/06 RMK AO2
14837KMSN MSN20020114041510701/14/02 04:15:31  5-MIN KMSN 141015Z 10007KT 4SM BR FEW007 OVC044 01/M01 A2956 1200 92 -200 100/07 RMK AO2
14837KMSN MSN20020114042010701/14/02 04:20:31  5-MIN KMSN 141020Z 10007KT 4SM BR FEW007 OVC044 01/M01 A2956 1200 92 -200 100/07 RMK AO2
14837KMSN MSN20020114042511401/14/02 04:25:31  5-MIN KMSN 141025Z 10007KT 4SM BR FEW007 BKN044 OVC100 01/M01 A2955 1200 92 -200 100/07 RMK AO2
14837KMSN MSN20020114043011401/14/02 04:30:31  5-MIN KMSN 141030Z 10007KT 4SM BR FEW007 BKN044 OVC065 01/M01 A2955 1210 92 -200 100/07 RMK AO2
14837KMSN MSN20020114043511401/14/02 04:35:31  5-MIN KMSN 141035Z 11005KT 4SM BR FEW007 BKN044 OVC060 01/M01 A2955 1210 92 -200 110/05 RMK AO2
14837KMSN MSN20020114044011401/14/02 04:40:31  5-MIN KMSN 141040Z 10004KT 4SM BR FEW007 BKN044 OVC060 00/M01 A2955 1210 96 -200 100/04 RMK AO2
14837KMSN MSN20020114044511401/14/02 04:45:31  5-MIN KMSN 141045Z 10005KT 4SM BR FEW007 BKN044 OVC095 00/M01 A2955 1210 96 -200 100/05 RMK AO2
14837KMSN MSN20020114045013101/14/02 04:50:31  5-MIN KMSN 141050Z 10004KT 4SM BR SCT007 BKN042 OVC095 01/M01 A2955 1210 92 -200 100/04 RMK AO2 SLP013 T00061006
14837KMSN MSN20020114045511401/14/02 04:55:31  5-MIN KMSN 141055Z 10005KT 5SM BR BKN007 BKN042 OVC060 00/M01 A2955 1210 96 -200 100/05 RMK AO2
14837KMSN MSN20020114050011401/14/02 05:00:31  5-MIN KMSN 141100Z 10006KT 4SM BR BKN007 BKN042 OVC090 00/M01 A2954 1210 96 -200 100/06 RMK AO2
14837KMSN MSN20020114050511401/14/02 05:05:31  5-MIN KMSN 141105Z 09006KT 4SM BR BKN007 BKN060 OVC095 00/M01 A2954 1210 96 -200 090/06 RMK AO2
14837KMSN MSN20020114051011401/14/02 05:10:31  5-MIN KMSN 141110Z 08006KT 4SM BR BKN007 BKN060 OVC095 00/M01 A2954 1210 96 -200 080/06 RMK AO2
14837KMSN MSN20020114051511401/14/02 05:15:31  5-MIN KMSN 141115Z 09006KT 4SM BR BKN007 BKN060 OVC095 01/M01 A2954 1220 92 -200 090/06 RMK AO2
14837KMSN MSN20020114052011401/14/02 05:20:31  5-MIN KMSN 141120Z 09007KT 4SM BR BKN007 BKN060 OVC095 01/M01 A2954 1220 92 -200 080/07 RMK AO2
14837KMSN MSN20020114052511401/14/02 05:25:31  5-MIN KMSN 141125Z 09008KT 4SM BR FEW007 BKN050 OVC090 01/M01 A2954 1220 92 -200 090/08 RMK AO2
14837KMSN MSN20020114053011401/14/02 05:30:31  5-MIN KMSN 141130Z 09008KT 4SM BR FEW007 BKN050 OVC090 01/M01 A2953 1220 92 -100 090/08 RMK AO2
14837KMSN MSN20020114053511401/14/02 05:35:31  5-MIN KMSN 141135Z 09009KT 4SM BR FEW007 BKN055 OVC090 00/M01 A2953 1220 96 -200 090/09 RMK AO2
14837KMSN MSN20020114054011401/14/02 05:40:31  5-MIN KMSN 141140Z 10007KT 4SM BR SCT050 BKN065 OVC090 00/M01 A2954 1220 96 -200 100/07 RMK AO2
14837KMSN MSN20020114054510701/14/02 05:45:31  5-MIN KMSN 141145Z 11006KT 4SM BR SCT048 OVC065 01/M01 A2954 1220 92 -200 110/06 RMK AO2
14837KMSN MSN20020114055015501/14/02 05:50:31  5-MIN KMSN 141150Z 10007KT 5SM BR FEW048 BKN060 OVC070 01/M01 A2954 1220 92 -200 100/07 RMK AO2 SLP011 70002 T00061006 10011 20000 56010
14837KMSN MSN20020114055510701/14/02 05:55:31  5-MIN KMSN 141155Z 10006KT 5SM BR BKN055 OVC070 01/M01 A2954 1220 92 -200 100/06 RMK AO2
14837KMSN MSN20020114060010701/14/02 06:00:31  5-MIN KMSN 141200Z 11007KT 5SM BR BKN055 OVC070 00/M01 A2954 1220 96 -200 110/07 RMK AO2
14837KMSN MSN20020114060510701/14/02 06:05:31  5-MIN KMSN 141205Z 12007KT 5SM BR BKN055 OVC070 01/M01 A2955 1210 89 -200 120/07 RMK AO2
14837KMSN MSN20020114061010001/14/02 06:10:31  5-MIN KMSN 141210Z 13007KT 5SM BR OVC050 01/M01 A2955 1210 92 -200 130/07 RMK AO2
14837KMSN MSN20020114061510001/14/02 06:15:31  5-MIN KMSN 141215Z 13006KT 5SM BR OVC050 01/M01 A2955 1210 92 -200 120/06 RMK AO2
14837KMSN MSN20020114062010701/14/02 06:20:31  5-MIN KMSN 141220Z 12006KT 5SM BR FEW036 OVC050 00/M01 A2955 1210 96 -200 120/06 RMK AO2
14837KMSN MSN20020114062510701/14/02 06:25:31  5-MIN KMSN 141225Z 12006KT 5SM BR FEW036 OVC050 01/M01 A2955 1210 92 -200 120/06 RMK AO2
14837KMSN MSN20020114063010701/14/02 06:30:31  5-MIN KMSN 141230Z 11006KT 5SM BR FEW036 OVC050 01/M01 A2955 1210 92 -200 110/06 RMK AO2
14837KMSN MSN20020114063511401/14/02 06:35:31  5-MIN KMSN 141235Z 10005KT 5SM BR FEW036 BKN050 OVC070 00/M01 A2955 1210 96 -200 100/05 RMK AO2
14837KMSN MSN20020114064011401/14/02 06:40:31  5-MIN KMSN 141240Z 11006KT 5SM BR SCT041 BKN050 OVC060 00/M01 A2955 1210 92 -200 110/06 RMK AO2
14837KMSN MSN20020114064510701/14/02 06:45:31  5-MIN KMSN 141245Z 10006KT 5SM BR BKN041 OVC050 01/M01 A2955 1210 92 -200 100/06 RMK AO2
14837KMSN MSN20020114065012401/14/02 06:50:31  5-MIN KMSN 141250Z 11005KT 5SM BR BKN039 OVC050 01/M01 A2955 1210 92 -200 110/05 RMK AO2 SLP014 T00061006
14837KMSN MSN20020114065510701/14/02 06:55:31  5-MIN KMSN 141255Z 10005KT 5SM BR BKN039 OVC050 01/M01 A2955 1210 92 -200 100/05 RMK AO2
14837KMSN MSN20020114070010001/14/02 07:00:31  5-MIN KMSN 141300Z 09006KT 5SM BR OVC038 01/M01 A2955 1210 92 -200 090/06 RMK AO2
14837KMSN MSN20020114070510001/14/02 07:05:31  5-MIN KMSN 141305Z 09004KT 5SM BR OVC038 01/M01 A2955 1210 92 -200 080/04 RMK AO2
14837KMSN MSN20020114071010001/14/02 07:10:31  5-MIN KMSN 141310Z 08005KT 5SM BR OVC036 01/M01 A2954 1210 92 -200 080/05 RMK AO2
14837KMSN MSN20020114071510701/14/02 07:15:31  5-MIN KMSN 141315Z 09006KT 5SM BR FEW019 OVC036 01/M01 A2954 1220 92 -200 090/06 RMK AO2
14837KMSN MSN20020114072012701/14/02 07:20:31  5-MIN KMSN 141320Z 08006KT 2 1/2SM -SN BR SCT013 OVC036 01/M01 A2954 1220 92 -200 080/06 RMK AO2 SNB18 P0000
14837KMSN MSN20020114072513701/14/02 07:25:31  5-MIN KMSN 141325Z 08007KT 1SM -SN BR BKN011 OVC036 01/M01 A2954 1220 92 -200 080/07 RMK AO2 SFC VIS 1 1/2 SNB18 P0001
14837KMSN MSN20020114073013701/14/02 07:30:31  5-MIN KMSN 141330Z 08007KT 1SM -SN BR SCT011 OVC038 00/M01 A2954 1220 96 -200 080/07 RMK AO2 SFC VIS 1 1/2 SNB18 P0001
14837KMSN MSN20020114073514401/14/02 07:35:31  5-MIN KMSN 141335Z 08007KT 1SM -SN BR SCT011 BKN030 OVC037 00/M01 A2954 1220 96 -200 080/07 RMK AO2 SFC VIS 2 1/2 SNB18 P0001
14837KMSN MSN20020114074013401/14/02 07:40:31  5-MIN KMSN 141340Z 08007KT 2 1/2SM -SN BR SCT011 BKN028 OVC038 01/M01 A2954 1220 92 -200 080/07 RMK AO2 SNB18 P0001
14837KMSN MSN20020114074513401/14/02 07:45:31  5-MIN KMSN 141345Z 08006KT 2 1/2SM -SN BR FEW009 BKN028 OVC035 01/M01 A2954 1220 92 -200 080/06 RMK AO2 SNB18 P0001
14837KMSN MSN20020114075014401/14/02 07:50:31  5-MIN KMSN 141350Z 09005KT 2 1/2SM -SN BR FEW020 OVC030 01/M01 A2954 1220 92 -200 090/05 RMK AO2 SNB18 SLP012 P0002 T00061006
14837KMSN MSN20020114075513801/14/02 07:55:31  5-MIN KMSN 141355Z 08007KT 1SM -SN BR FEW021 BKN026 OVC033 01/M01 A2954 1220 92 -200 080/07 RMK AO2 SFC VIS 1 1/2 P0000
14837KMSN MSN20020114080012701/14/02 08:00:31  5-MIN KMSN 141400Z 07007KT 1SM -SN BR SCT023 OVC030 01/M01 A2953 1220 92 -100 070/07 RMK AO2 SFC VIS 2 P0001
14837KMSN MSN20020114080514401/14/02 08:05:31  5-MIN KMSN 141405Z 07008KT 1SM -RA BR BKN025 OVC035 01/M01 A2953 1230 92 -100 070/08 RMK AO2 SFC VIS 2 1/2 RAB01SNE01 P0001 $
14837KMSN MSN20020114081014001/14/02 08:10:31  5-MIN KMSN 141410Z 07007KT 1SM -RA BR SCT025 OVC035 01/M01 A2953 1230 92 -100 060/07 RMK AO2 SFC VIS 2 RAB01SNE01 P0001 $
14837KMSN MSN20020114081513001/14/02 08:15:31  5-MIN KMSN 141415Z 07008KT 2SM -RA BR SCT025 OVC037 01/M01 A2953 1230 92 -100 070/08 RMK AO2 RAB01SNE01 P0001 $
14837KMSN MSN20020114082012901/14/02 08:20:31  5-MIN KMSN 141420Z 07009KT 2SM BR FEW020 OVC037 01/M01 A2953 1230 92 -100 070/09 RMK AO2 RAB01E17SNE01 P0001 $
14837KMSN MSN20020114082512901/14/02 08:25:31  5-MIN KMSN 141425Z 07007KT 2SM BR FEW026 OVC037 01/M01 A2953 1230 92 -100 070/07 RMK AO2 RAB01E17SNE01 P0001 $
14837KMSN MSN20020114083012201/14/02 08:30:31  5-MIN KMSN 141430Z 08007KT 2SM BR OVC035 01/M01 A2953 1230 92 -100 080/07 RMK AO2 RAB01E17SNE01 P0001 $
14837KMSN MSN20020114083512201/14/02 08:35:31  5-MIN KMSN 141435Z 08007KT 2SM BR OVC033 01/M01 A2953 1230 92 -100 080/07 RMK AO2 RAB01E17SNE01 P0001 $
14837KMSN MSN20020114084013401/14/02 08:40:31  5-MIN KMSN 141440Z 08007KT 2SM BR OVC033 01/M01 A2953 1230 92 -100 080/07 RMK AO2 SFC VIS 2 1/2 RAB01E17SNE01 P0001
14837KMSN MSN20020114084513401/14/02 08:45:31  5-MIN KMSN 141445Z 09006KT 2SM BR OVC033 01/M01 A2953 1230 92 -100 090/06 RMK AO2 SFC VIS 2 1/2 RAB01E17SNE01 P0001
14837KMSN MSN20020114085015901/14/02 08:50:31  5-MIN KMSN 141450Z 08007KT 2SM BR OVC031 01/M01 A2953 1230 92 -100 080/07 RMK AO2 SFC VIS 3 RAB01E17SNE01 SLP007 P0001 60003 T00061006 56015
14837KMSN MSN20020114085511401/14/02 08:55:31  5-MIN KMSN 141455Z 08008KT 2 1/2SM BR OVC031 01/M01 A2953 1230 92 -100 080/08 RMK AO2 TWR VIS 3
14837KMSN MSN20020114090011401/14/02 09:00:31  5-MIN KMSN 141500Z 08006KT 2 1/2SM BR OVC031 01/M01 A2953 1230 92 -100 080/06 RMK AO2 TWR VIS 3
14837KMSN MSN20020114090510001/14/02 09:05:31  5-MIN KMSN 141505Z 08008KT 3SM BR OVC031 01/M01 A2953 1230 92 -100 080/08 RMK AO2
14837KMSN MSN20020114091010001/14/02 09:10:31  5-MIN KMSN 141510Z 08008KT 3SM BR OVC031 01/M01 A2953 1230 92 -100 070/08 RMK AO2
14837KMSN MSN20020114091510001/14/02 09:15:31  5-MIN KMSN 141515Z 07007KT 3SM BR OVC031 01/M01 A2953 1230 92 -100 070/07 RMK AO2
14837KMSN MSN20020114092010001/14/02 09:20:31  5-MIN KMSN 141520Z 08007KT 3SM BR OVC031 01/M01 A2953 1230 92 -100 080/07 RMK AO2
14837KMSN MSN20020114092510001/14/02 09:25:31  5-MIN KMSN 141525Z 09006KT 3SM BR OVC031 01/M01 A2953 1230 92 -100 090/06 RMK AO2
14837KMSN MSN20020114093010001/14/02 09:30:31  5-MIN KMSN 141530Z VRB04KT 3SM BR OVC029 01/M01 A2954 1220 92 -200 VRB/04 RMK AO2
14837KMSN MSN20020114093510701/14/02 09:35:31  5-MIN KMSN 141535Z 16005KT 3SM BR FEW006 OVC029 01/M01 A2954 1210 92 -200 150/05 RMK AO2
14837KMSN MSN20020114094010701/14/02 09:40:31  5-MIN KMSN 141540Z 16006KT 3SM BR BKN006 OVC029 01/M01 A2955 1210 92 -200 160/06 RMK AO2
14837KMSN MSN20020114094510701/14/02 09:45:31  5-MIN KMSN 141545Z 16006KT 3SM BR BKN006 OVC029 01/M01 A2955 1210 92 -200 160/06 RMK AO2
14837KMSN MSN20020114095012401/14/02 09:50:31  5-MIN KMSN 141550Z 15005KT 3SM BR BKN006 OVC027 01/M01 A2955 1210 92 -200 150/05 RMK AO2 SLP015 T00061006
14837KMSN MSN20020114095510001/14/02 09:55:31  5-MIN KMSN 141555Z 14004KT 3SM BR OVC006 01/M01 A2955 1210 92 -200 130/04 RMK AO2
14837KMSN MSN20020114100010001/14/02 10:00:31  5-MIN KMSN 141600Z 12004KT 3SM BR OVC006 01/M01 A2955 1210 92 -200 120/04 RMK AO2
14837KMSN MSN20020114100510001/14/02 10:05:31  5-MIN KMSN 141605Z 12005KT 3SM BR OVC006 01/M01 A2955 1210 92 -200 120/05 RMK AO2
14837KMSN MSN20020114101010701/14/02 10:10:31  5-MIN KMSN 141610Z 10004KT 3SM BR BKN006 OVC016 01/M01 A2955 1210 89 -100 100/04 RMK AO2
14837KMSN MSN20020114101510701/14/02 10:15:31  5-MIN KMSN 141615Z 10004KT 3SM BR BKN006 OVC016 01/M01 A2955 1210 92 -200 100/04 RMK AO2
14837KMSN MSN20020114102010701/14/02 10:20:31  5-MIN KMSN 141620Z 11004KT 3SM BR BKN006 OVC016 01/M01 A2955 1210 89 -100 110/04 RMK AO2
14837KMSN MSN20020114102510701/14/02 10:25:31  5-MIN KMSN 141625Z 08004KT 3SM BR BKN006 OVC016 01/M01 A2955 1210 89 -100 080/04 RMK AO2
14837KMSN MSN20020114103010701/14/02 10:30:31  5-MIN KMSN 141630Z 08004KT 3SM BR SCT006 OVC016 01/M01 A2955 1210 89 -100 080/04 RMK AO2
14837KMSN MSN20020114103513401/14/02 10:35:31  5-MIN KMSN 141635Z 08005KT 2 1/2SM -SN FEW006 OVC018 01/M01 A2955 1210 89 -100 080/05 RMK AO2 TWR VIS 3 SNB31 P0000
14837KMSN MSN20020114104012001/14/02 10:40:31  5-MIN KMSN 141640Z 07005KT 3SM -SN FEW006 OVC018 01/M01 A2955 1210 89 -100 070/05 RMK AO2 SNB31 P0000
14837KMSN MSN20020114104511301/14/02 10:45:31  5-MIN KMSN 141645Z 09004KT 3SM -SN OVC018 01/M01 A2955 1210 89 -100 090/04 RMK AO2 SNB31 P0000
14837KMSN MSN20020114105015901/14/02 10:50:31  5-MIN KMSN 141650Z 08004KT 2SM -SN FEW007 OVC018 01/M01 A2955 1210 89 -100 080/04 RMK AO2 TWR VIS 2 1/2 DZB47E48SNB31 SLP014 P0000 T00111006
14837KMSN MSN20020114105512801/14/02 10:55:31  5-MIN KMSN 141655Z 07004KT 2SM -SN FEW007 OVC018 01/M01 A2955 1210 92 -200 070/04 RMK AO2 TWR VIS 2 1/2 P0000
14837KMSN MSN20020114110011801/14/02 11:00:31  5-MIN KMSN 141700Z 07004KT 2 1/2SM -SN FEW007 OVC018 01/M01 A2954 1210 92 -200 060/04 RMK AO2 P0000
14837KMSN MSN20020114110511801/14/02 11:05:31  5-MIN KMSN 141705Z 07005KT 2 1/2SM -SN FEW007 OVC018 01/M01 A2954 1210 89 -100 070/05 RMK AO2 P0000
14837KMSN MSN20020114111011801/14/02 11:10:31  5-MIN KMSN 141710Z 08005KT 2 1/2SM -SN FEW007 OVC018 01/M01 A2954 1210 92 -200 080/05 RMK AO2 P0000
14837KMSN MSN20020114111511801/14/02 11:15:31  5-MIN KMSN 141715Z 10004KT 2 1/2SM -SN SCT007 OVC018 01/M01 A2955 1210 89 -100 090/04 RMK AO2 P0000
14837KMSN MSN20020114112011801/14/02 11:20:31  5-MIN KMSN 141720Z 09003KT 2 1/2SM -SN SCT007 OVC018 01/M01 A2954 1210 89 -100 090/03 RMK AO2 P0000
14837KMSN MSN20020114112512801/14/02 11:25:31  5-MIN KMSN 141725Z 08004KT 2SM -SN FEW007 OVC018 01/M01 A2954 1220 89 -100 080/04 RMK AO2 TWR VIS 2 1/2 P0000
14837KMSN MSN20020114113012801/14/02 11:30:31  5-MIN KMSN 141730Z 06003KT 2SM -SN FEW007 OVC020 01/M01 A2954 1220 92 -200 060/03 RMK AO2 TWR VIS 2 1/2 P0000
14837KMSN MSN20020114113512801/14/02 11:35:31  5-MIN KMSN 141735Z 06003KT 2SM -SN SCT007 OVC020 01/M01 A2954 1220 92 -200 060/03 RMK AO2 TWR VIS 2 1/2 P0000
14837KMSN MSN20020114114012801/14/02 11:40:31  5-MIN KMSN 141740Z 07003KT 2SM -SN SCT007 OVC020 01/M01 A2954 1220 92 -200 070/03 RMK AO2 TWR VIS 2 1/2 P0000
14837KMSN MSN20020114114514501/14/02 11:45:31  5-MIN KMSN 141745Z 08003KT 2SM BR BKN007 OVC020 01/M01 A2954 1220 89 -100 080/03 RMK AO2 TWR VIS 2 1/2 SNE42 CIG 005V009 P0000
14837KMSN MSN20020114115017101/14/02 11:50:31  5-MIN KMSN 141750Z 07004KT 2 1/2SM -SN BKN007 OVC020 01/M01 A2954 1220 89 -100 070/04 RMK AO2 CIG 005V009 SLP009 P0000 60003 T00111006 10011 20000 58005
14837KMSN MSN20020114115511801/14/02 11:55:31  5-MIN KMSN 141755Z 06004KT 2 1/2SM -SN SCT007 OVC020 01/M01 A2954 1220 92 -200 060/04 RMK AO2 P0000
14837KMSN MSN20020114120011401/14/02 12:00:31  5-MIN KMSN 141800Z 08004KT 2SM -SN SCT007 OVC020 01/M01 A2954 1220 92 -200 080/04 RMK AO2 P0000
14837KMSN MSN20020114120513001/14/02 12:05:31  5-MIN KMSN 141805Z 08004KT 1 3/4SM -SN BKN007 OVC020 01/M01 A2954 1220 89 -100 080/04 RMK AO2 CIG 005V010 P0000
14837KMSN MSN20020114121013301/14/02 12:10:31  5-MIN KMSN 141810Z 08004KT 1 1/2SM -SN BR BKN007 OVC020 01/M01 A2954 1220 89 -100 080/04 RMK AO2 CIG 005V010 P0001
14837KMSN MSN20020114121512101/14/02 12:15:31  5-MIN KMSN 141815Z 07005KT 1 1/2SM -SN BR BKN007 OVC020 01/M01 A2953 1220 92 -100 070/05 RMK AO2 P0001
14837KMSN MSN20020114122012101/14/02 12:20:31  5-MIN KMSN 141820Z 06004KT 1 1/4SM -SN BR BKN005 OVC020 01/M01 A2954 1220 92 -200 060/04 RMK AO2 P0001
14837KMSN MSN20020114122511401/14/02 12:25:31  5-MIN KMSN 141825Z 00000KT 1 1/2SM -SN BR OVC005 01/M01 A2954 1220 92 -200 000/00 RMK AO2 P0001
14837KMSN MSN20020114123011401/14/02 12:30:31  5-MIN KMSN 141830Z 04003KT 1 1/2SM -SN BR OVC005 01/M01 A2953 1220 89 -100 040/03 RMK AO2 P0001
14837KMSN MSN20020114123511401/14/02 12:35:31  5-MIN KMSN 141835Z 05004KT 1 1/2SM -SN BR OVC005 01/M01 A2953 1230 89 -100 040/04 RMK AO2 P0001
14837KMSN MSN20020114124011601/14/02 12:40:31  5-MIN KMSN 141840Z 06004KT 1 3/4SM BR OVC005 01/M01 A2953 1230 89 -100 060/04 RMK AO2 SNE39 P0001
14837KMSN MSN20020114124511601/14/02 12:45:31  5-MIN KMSN 141845Z 07004KT 2 1/2SM BR OVC005 01/M01 A2953 1220 89 -100 070/04 RMK AO2 SNE39 P0001
14837KMSN MSN20020114125013301/14/02 12:50:31  5-MIN KMSN 141850Z 06003KT 2 1/2SM BR OVC005 01/M01 A2953 1230 89 -100 060/03 RMK AO2 SNE39 SLP008 P0001 T00111006
14837KMSN MSN20020114125510401/14/02 12:55:31  5-MIN KMSN 141855Z 06003KT 2 1/2SM BR OVC005 01/M01 A2953 1220 89 -100 060/03 RMK AO2
14837KMSN MSN20020114130011601/14/02 13:00:31  5-MIN KMSN 141900Z 07003KT 2 1/2SM BR OVC005 01/M01 A2954 1220 89 -100 070/03 RMK AO2 CIG 003V007
14837KMSN MSN20020114130511601/14/02 13:05:31  5-MIN KMSN 141905Z 08003KT 2 1/2SM BR OVC005 01/M01 A2954 1220 89 -100 080/03 RMK AO2 CIG 003V007
14837KMSN MSN20020114131011601/14/02 13:10:31  5-MIN KMSN 141910Z 09003KT 2 1/2SM BR OVC005 01/M01 A2954 1220 89 -100 090/03 RMK AO2 CIG 003V007
14837KMSN MSN20020114131510401/14/02 13:15:31  5-MIN KMSN 141915Z 08003KT 2 1/2SM BR OVC005 01/M01 A2954 1220 89 -100 080/03 RMK AO2
14837KMSN MSN20020114132010401/14/02 13:20:31  5-MIN KMSN 141920Z 00000KT 2 1/2SM BR OVC005 01/M01 A2954 1220 89 -100 000/00 RMK AO2
14837KMSN MSN20020114132510401/14/02 13:25:31  5-MIN KMSN 141925Z 00000KT 2 1/2SM BR OVC005 01/M01 A2954 1220 89 -100 000/00 RMK AO2
14837KMSN MSN20020114133010401/14/02 13:30:31  5-MIN KMSN 141930Z 00000KT 2 1/2SM BR OVC005 01/M01 A2954 1220 89 -100 000/00 RMK AO2
14837KMSN MSN20020114133510401/14/02 13:35:31  5-MIN KMSN 141935Z 00000KT 2 1/2SM BR OVC005 01/M01 A2954 1220 89 -100 000/00 RMK AO2
14837KMSN MSN20020114134010101/14/02 13:40:31  5-MIN KMSN 141940Z 00000KT 2 1/2SM BR OVC005 02/M01 A2954 1220 85 0 000/00 RMK AO2
14837KMSN MSN20020114134510101/14/02 13:45:31  5-MIN KMSN 141945Z 00000KT 2 1/2SM BR OVC005 02/M01 A2954 1220 85 0 000/00 RMK AO2
14837KMSN MSN20020114135011801/14/02 13:50:31  5-MIN KMSN 141950Z 00000KT 2 1/2SM BR OVC005 02/M01 A2954 1220 85 0 000/00 RMK AO2 SLP010 T00171006
14837KMSN MSN20020114135510101/14/02 13:55:31  5-MIN KMSN 141955Z 00000KT 2 1/2SM BR OVC005 02/M01 A2954 1220 85 0 000/00 RMK AO2
14837KMSN MSN20020114140010101/14/02 14:00:31  5-MIN KMSN 142000Z 00000KT 2 1/2SM BR OVC005 02/M01 A2954 1210 85 0 000/00 RMK AO2
14837KMSN MSN20020114140509701/14/02 14:05:31  5-MIN KMSN 142005Z 00000KT 3SM BR OVC005 02/M01 A2955 1210 85 0 000/00 RMK AO2
14837KMSN MSN20020114141009701/14/02 14:10:31  5-MIN KMSN 142010Z 00000KT 3SM BR OVC005 02/M01 A2955 1210 85 0 000/00 RMK AO2
14837KMSN MSN20020114141509701/14/02 14:15:31  5-MIN KMSN 142015Z 00000KT 3SM BR OVC005 02/M01 A2955 1210 85 0 000/00 RMK AO2
14837KMSN MSN20020114142009701/14/02 14:20:31  5-MIN KMSN 142020Z 00000KT 3SM BR OVC005 02/M01 A2955 1210 85 0 000/00 RMK AO2
14837KMSN MSN20020114142509701/14/02 14:25:31  5-MIN KMSN 142025Z 00000KT 3SM BR OVC007 02/M01 A2955 1200 85 0 000/00 RMK AO2
14837KMSN MSN20020114143009701/14/02 14:30:31  5-MIN KMSN 142030Z 31003KT 3SM BR OVC007 02/M01 A2956 1200 85 0 300/03 RMK AO2
14837KMSN MSN20020114143509701/14/02 14:35:31  5-MIN KMSN 142035Z 32003KT 3SM BR OVC007 02/M01 A2956 1200 85 0 320/03 RMK AO2
14837KMSN MSN20020114144009701/14/02 14:40:31  5-MIN KMSN 142040Z 30003KT 3SM BR OVC007 02/M01 A2956 1200 85 0 300/03 RMK AO2
14837KMSN MSN20020114144509701/14/02 14:45:31  5-MIN KMSN 142045Z 31003KT 3SM BR OVC007 02/M01 A2956 1200 85 0 310/03 RMK AO2
14837KMSN MSN20020114145012601/14/02 14:50:31  5-MIN KMSN 142050Z 31003KT 3SM BR OVC007 02/M01 A2956 1200 85 0 310/03 RMK AO2 SLP018 60001 T00171006 50002
14837KMSN MSN20020114145511101/14/02 14:55:31  5-MIN KMSN 142055Z 30003KT 2 1/2SM BR OVC007 02/M01 A2957 1190 85 0 300/03 RMK AO2 SFC VIS 3
14837KMSN MSN20020114150011101/14/02 15:00:31  5-MIN KMSN 142100Z 00000KT 2 1/2SM BR OVC007 02/M01 A2957 1190 85 0 000/00 RMK AO2 SFC VIS 3
14837KMSN MSN20020114150511101/14/02 15:05:31  5-MIN KMSN 142105Z 30003KT 2 1/2SM BR OVC007 02/M01 A2957 1190 85 0 300/03 RMK AO2 SFC VIS 3
14837KMSN MSN20020114151011401/14/02 15:10:31  5-MIN KMSN 142110Z 32003KT 2 1/2SM BR OVC007 02/M01 A2957 1190 85 -100 320/03 RMK AO2 SFC VIS 3
14837KMSN MSN20020114151510401/14/02 15:15:31  5-MIN KMSN 142115Z 30003KT 2 1/2SM BR OVC007 02/M01 A2957 1190 85 -100 300/03 RMK AO2
14837KMSN MSN20020114152010301/14/02 15:20:31  5-MIN KMSN 142120Z 29004KT 2 1/2SM BR OVC007 02/00 A2958 1180 89 -100 290/04 RMK AO2
14837KMSN MSN20020114152510401/14/02 15:25:31  5-MIN KMSN 142125Z 30003KT 2 1/2SM BR OVC007 02/M01 A2958 1180 85 -100 300/03 RMK AO2
14837KMSN MSN20020114153010401/14/02 15:30:31  5-MIN KMSN 142130Z 30004KT 2 1/2SM BR OVC007 02/M01 A2959 1170 85 -100 300/04 RMK AO2
14837KMSN MSN20020114153510401/14/02 15:35:31  5-MIN KMSN 142135Z 30004KT 2 1/2SM BR OVC007 02/M01 A2959 1170 85 -100 300/04 RMK AO2
14837KMSN MSN20020114154010401/14/02 15:40:31  5-MIN KMSN 142140Z 31004KT 2 1/2SM BR OVC007 02/M01 A2959 1170 85 -100 300/04 RMK AO2
14837KMSN MSN20020114154510401/14/02 15:45:31  5-MIN KMSN 142145Z 31004KT 2 1/2SM BR OVC007 02/M01 A2960 1170 85 -100 310/04 RMK AO2
14837KMSN MSN20020114155012101/14/02 15:50:31  5-MIN KMSN 142150Z 29004KT 2 1/2SM BR OVC007 02/M01 A2960 1160 85 -100 290/04 RMK AO2 SLP031 T00171006
14837KMSN MSN20020114155510401/14/02 15:55:31  5-MIN KMSN 142155Z 30004KT 2 1/2SM BR OVC007 01/M01 A2960 1160 89 -200 300/04 RMK AO2
14837KMSN MSN20020114160010401/14/02 16:00:31  5-MIN KMSN 142200Z 31005KT 2 1/2SM BR OVC007 01/M01 A2960 1160 89 -200 310/05 RMK AO2
14837KMSN MSN20020114160510401/14/02 16:05:31  5-MIN KMSN 142205Z 31006KT 2 1/2SM BR OVC007 01/M01 A2960 1160 89 -200 310/06 RMK AO2
14837KMSN MSN20020114161010401/14/02 16:10:31  5-MIN KMSN 142210Z 31004KT 2 1/2SM BR OVC005 01/M01 A2961 1160 85 -200 310/04 RMK AO2
14837KMSN MSN20020114161510001/14/02 16:15:31  5-MIN KMSN 142215Z 31005KT 2SM BR OVC005 01/M01 A2961 1150 85 -200 310/05 RMK AO2
14837KMSN MSN20020114162010001/14/02 16:20:31  5-MIN KMSN 142220Z 30005KT 2SM BR OVC005 01/M01 A2962 1150 85 -200 300/05 RMK AO2
14837KMSN MSN20020114162510001/14/02 16:25:31  5-MIN KMSN 142225Z VRB04KT 2SM BR OVC005 01/M01 A2962 1150 85 -200 VRB/04 RMK AO2
14837KMSN MSN20020114163010001/14/02 16:30:31  5-MIN KMSN 142230Z 30004KT 2SM HZ OVC005 01/M02 A2962 1150 82 -200 300/04 RMK AO2
14837KMSN MSN20020114163510001/14/02 16:35:31  5-MIN KMSN 142235Z 29004KT 2SM BR OVC005 01/M01 A2962 1140 85 -200 290/04 RMK AO2
14837KMSN MSN20020114164011801/14/02 16:40:31  5-MIN KMSN 142240Z 31006KT 1 1/4SM BR OVC005 01/M01 A2962 1140 85 -200 300/06 RMK AO2 TWR VIS 1 1/2
14837KMSN MSN20020114164511801/14/02 16:45:31  5-MIN KMSN 142245Z 29006KT 1 1/4SM BR OVC005 01/M01 A2962 1140 85 -200 290/06 RMK AO2 TWR VIS 1 1/2
14837KMSN MSN20020114165013301/14/02 16:50:31  5-MIN KMSN 142250Z 30005KT 1SM -DZ BR OVC005 01/M01 A2963 1140 85 -200 300/05 RMK AO2 DZB48 SLP040 P0000 T00111011
14837KMSN MSN20020114165511001/14/02 16:55:31  5-MIN KMSN 142255Z 31006KT 1SM -DZ BR OVC003 01/M01 A2963 1130 85 -200 310/06 RMK AO2 P0000
14837KMSN MSN20020114170011001/14/02 17:00:31  5-MIN KMSN 142300Z 31004KT 1SM -DZ BR OVC003 01/M01 A2963 1130 85 -200 300/04 RMK AO2 P0000
14837KMSN MSN20020114170511001/14/02 17:05:31  5-MIN KMSN 142305Z 30005KT 1SM -DZ BR OVC003 01/M01 A2964 1130 85 -200 300/05 RMK AO2 P0000
14837KMSN MSN20020114171011001/14/02 17:10:31  5-MIN KMSN 142310Z 29005KT 1SM -DZ BR OVC003 01/M01 A2964 1120 85 -200 290/05 RMK AO2 P0000
14837KMSN MSN20020114171512201/14/02 17:15:31  5-MIN KMSN 142315Z 30005KT 1SM -DZ BR OVC003 01/M01 A2964 1120 89 -200 300/05 RMK AO2 CIG 002V006 P0000
14837KMSN MSN20020114172012201/14/02 17:20:31  5-MIN KMSN 142320Z 30004KT 1SM -DZ BR OVC003 01/M01 A2964 1120 85 -200 300/04 RMK AO2 CIG 002V006 P0000
14837KMSN MSN20020114172512201/14/02 17:25:31  5-MIN KMSN 142325Z 30005KT 1SM -DZ BR OVC003 01/M01 A2964 1120 85 -200 300/05 RMK AO2 CIG 002V007 P0000
14837KMSN MSN20020114173011701/14/02 17:30:31  5-MIN KMSN 142330Z 30005KT 1SM -DZ BR BKN003 OVC007 01/M01 A2964 1120 89 -200 300/05 RMK AO2 P0000
14837KMSN MSN20020114173512201/14/02 17:35:31  5-MIN KMSN 142335Z 30005KT 1SM -DZ BR OVC003 01/M01 A2964 1120 85 -200 300/05 RMK AO2 CIG 002V007 P0000
14837KMSN MSN20020114174012201/14/02 17:40:31  5-MIN KMSN 142340Z 31005KT 1SM -DZ BR OVC005 01/M01 A2965 1120 85 -200 310/05 RMK AO2 CIG 002V008 P0000
14837KMSN MSN20020114174512201/14/02 17:45:31  5-MIN KMSN 142345Z 30004KT 1SM -DZ BR OVC005 01/M01 A2965 1120 85 -200 300/04 RMK AO2 CIG 002V008 P0000
14837KMSN MSN20020114175017701/14/02 17:50:31  5-MIN KMSN 142350Z 30006KT 1SM -DZ BR OVC005 01/M01 A2965 1110 85 -200 300/06 RMK AO2 TWR VIS 1 1/4 CIG 002V008 SLP049 P0000 60001 T00111011 10017 20006 53009
14837KMSN MSN20020114175513601/14/02 17:55:31  5-MIN KMSN 142355Z 30007KT 1SM -DZ BR OVC005 01/M01 A2966 1110 85 -200 300/07 RMK AO2 TWR VIS 1 1/4 CIG 002V008 P0000
14837KMSN MSN20020114180013601/14/02 18:00:31  5-MIN KMSN 150000Z 30007KT 1SM -DZ BR OVC005 01/M01 A2966 1110 85 -200 300/07 RMK AO2 TWR VIS 1 1/4 CIG 002V008 P0000
14837KMSN MSN20020114180513601/14/02 18:05:31  5-MIN KMSN 150005Z 31006KT 1SM -DZ BR OVC005 01/M01 A2966 1110 89 -300 310/06 RMK AO2 TWR VIS 1 1/4 CIG 003V007 P0000
14837KMSN MSN20020114181013601/14/02 18:10:31  5-MIN KMSN 150010Z 31005KT 1SM -DZ BR OVC005 01/M01 A2966 1100 89 -300 310/05 RMK AO2 TWR VIS 1 1/4 CIG 003V007 P0000
14837KMSN MSN20020114181514001/14/02 18:15:31  5-MIN KMSN 150015Z 31007KT 1 1/4SM -DZ BR OVC005 01/M01 A2966 1100 89 -300 300/07 RMK AO2 SFC VIS 1 1/2 CIG 003V008 P0000
14837KMSN MSN20020114182014001/14/02 18:20:31  5-MIN KMSN 150020Z 31005KT 1 1/4SM -DZ BR OVC005 01/M01 A2967 1100 89 -300 310/05 RMK AO2 SFC VIS 1 1/2 CIG 003V008 P0000
14837KMSN MSN20020114182514001/14/02 18:25:31  5-MIN KMSN 150025Z 32007KT 1 1/4SM -DZ BR OVC005 01/M01 A2967 1100 89 -300 320/07 RMK AO2 SFC VIS 1 1/2 CIG 003V008 P0000
14837KMSN MSN20020114183014001/14/02 18:30:31  5-MIN KMSN 150030Z 32005KT 1 1/4SM -DZ BR OVC005 01/M01 A2967 1100 89 -300 320/05 RMK AO2 SFC VIS 1 1/2 CIG 003V008 P0000
14837KMSN MSN20020114183514001/14/02 18:35:31  5-MIN KMSN 150035Z 32007KT 1 1/4SM -DZ BR OVC005 01/M01 A2967 1100 89 -300 320/07 RMK AO2 SFC VIS 1 1/2 CIG 003V008 P0000
14837KMSN MSN20020114184014001/14/02 18:40:31  5-MIN KMSN 150040Z 33006KT 1 1/4SM -DZ BR OVC005 01/M01 A2967 1100 89 -300 330/06 RMK AO2 SFC VIS 1 1/2 CIG 003V008 P0000
14837KMSN MSN20020114184514001/14/02 18:45:31  5-MIN KMSN 150045Z 33007KT 1 1/4SM -DZ BR OVC005 01/M01 A2967 1100 92 -300 330/07 RMK AO2 SFC VIS 1 1/2 CIG 003V008 P0000
14837KMSN MSN20020114185014701/14/02 18:50:31  5-MIN KMSN 150050Z 32006KT 2SM -DZSN BR OVC005 01/M01 A2967 1090 89 -300 320/06 RMK AO2 SNB49 CIG 003V008 SLP057 P0000 T00061011
14837KMSN MSN20020114185512401/14/02 18:55:31  5-MIN KMSN 150055Z 32004KT 2SM -DZSN BR OVC005 01/M01 A2967 1090 89 -300 320/04 RMK AO2 CIG 003V008 P0000
14837KMSN MSN20020114190012401/14/02 19:00:31  5-MIN KMSN 150100Z 32007KT 2SM -DZSN BR OVC005 01/M01 A2968 1090 89 -300 320/07 RMK AO2 CIG 003V008 P0000
14837KMSN MSN20020114190512401/14/02 19:05:31  5-MIN KMSN 150105Z 31007KT 2SM -DZSN BR OVC005 01/M01 A2968 1090 89 -300 310/07 RMK AO2 CIG 003V008 P0000
14837KMSN MSN20020114191011201/14/02 19:10:31  5-MIN KMSN 150110Z 32006KT 2SM -DZSN BR OVC005 01/M01 A2968 1090 89 -300 320/06 RMK AO2 P0000
14837KMSN MSN20020114191512401/14/02 19:15:31  5-MIN KMSN 150115Z 32005KT 2SM -DZSN BR OVC005 01/M01 A2968 1090 92 -300 320/05 RMK AO2 CIG 003V008 P0000
14837KMSN MSN20020114192012401/14/02 19:20:31  5-MIN KMSN 150120Z 32006KT 2SM -DZSN BR OVC005 01/M01 A2968 1090 89 -300 320/06 RMK AO2 CIG 003V008 P0000
14837KMSN MSN20020114192511201/14/02 19:25:31  5-MIN KMSN 150125Z 32005KT 2SM -DZSN BR OVC005 01/M01 A2968 1090 92 -300 320/05 RMK AO2 P0000
14837KMSN MSN20020114193011201/14/02 19:30:31  5-MIN KMSN 150130Z 32005KT 2SM -DZSN BR OVC005 01/M01 A2968 1080 92 -300 320/05 RMK AO2 P0000
14837KMSN MSN20020114193511201/14/02 19:35:31  5-MIN KMSN 150135Z 32006KT 2SM -DZSN BR OVC005 01/M01 A2969 1080 89 -300 320/06 RMK AO2 P0000
14837KMSN MSN20020114194012401/14/02 19:40:31  5-MIN KMSN 150140Z 33005KT 2SM -DZSN BR OVC005 01/M01 A2969 1080 92 -300 320/05 RMK AO2 CIG 003V009 P0000
14837KMSN MSN20020114194512401/14/02 19:45:31  5-MIN KMSN 150145Z 32006KT 2SM -DZSN BR OVC005 01/M01 A2969 1080 92 -300 320/06 RMK AO2 CIG 003V009 P0000
14837KMSN MSN20020114195015501/14/02 19:50:31  5-MIN KMSN 150150Z 32004KT 2SM -DZ BR OVC005 01/M01 A2969 1080 92 -300 320/04 RMK AO2 SFC VIS 3 SNE46 CIG 003V009 SLP063 P0000 T00061006
14837KMSN MSN20020114195512201/14/02 19:55:31  5-MIN KMSN 150155Z 32005KT 3SM -DZ BR OVC005 01/M01 A2969 1080 89 -300 320/05 RMK AO2 CIG 004V009 P0000
14837KMSN MSN20020114200012901/14/02 20:00:31  5-MIN KMSN 150200Z 32005KT 3SM -DZ BR BKN005 OVC011 01/M01 A2969 1080 92 -300 320/05 RMK AO2 CIG 004V008 P0000
14837KMSN MSN20020114200512201/14/02 20:05:31  5-MIN KMSN 150205Z 32005KT 3SM -DZ BR OVC007 01/M01 A2969 1080 89 -300 320/05 RMK AO2 CIG 004V010 P0000
14837KMSN MSN20020114201012201/14/02 20:10:31  5-MIN KMSN 150210Z 31005KT 3SM -DZ BR OVC007 01/M01 A2970 1070 92 -300 310/05 RMK AO2 CIG 004V010 P0000
14837KMSN MSN20020114201512901/14/02 20:15:31  5-MIN KMSN 150215Z 31004KT 4SM -DZ BR BKN007 OVC012 01/M01 A2970 1070 92 -300 310/04 RMK AO2 CIG 004V010 P0000
14837KMSN MSN20020114202012901/14/02 20:20:31  5-MIN KMSN 150220Z 32005KT 4SM -DZ BR BKN007 OVC012 01/M01 A2970 1070 89 -300 320/05 RMK AO2 CIG 004V010 P0000
14837KMSN MSN20020114202512901/14/02 20:25:31  5-MIN KMSN 150225Z 31003KT 4SM -DZ BR BKN007 OVC011 01/M01 A2970 1070 92 -300 310/03 RMK AO2 CIG 004V010 P0000
14837KMSN MSN20020114203012201/14/02 20:30:31  5-MIN KMSN 150230Z 31004KT 4SM -DZ BR OVC009 01/M01 A2971 1060 92 -300 310/04 RMK AO2 CIG 004V013 P0000
14837KMSN MSN20020114203513301/14/02 20:35:31  5-MIN KMSN 150235Z 31005KT 3SM -SN BR OVC009 01/M02 A2971 1060 85 -300 310/05 RMK AO2 DZE34SNB34 CIG 004V013 P0000
14837KMSN MSN20020114204013301/14/02 20:40:31  5-MIN KMSN 150240Z VRB03KT 3SM -SN BR OVC007 01/M01 A2971 1060 92 -400 VRB/03 RMK AO2 DZE34SNB34 CIG 004V011 P0000
14837KMSN MSN20020114204514001/14/02 20:45:31  5-MIN KMSN 150245Z 32005KT 2SM -SN BR BKN007 OVC010 00/M01 A2971 1060 96 -400 320/05 RMK AO2 DZE34SNB34 CIG 003V009 P0001
14837KMSN MSN20020114205017301/14/02 20:50:31  5-MIN KMSN 150250Z 32004KT 1 1/2SM -SN BR BKN007 OVC010 00/M01 A2971 1060 92 -400 320/04 RMK AO2 DZE34SNB34 CIG 003V009 SLP069 P0001 60001 T00001011 51030
14837KMSN MSN20020114205512901/14/02 20:55:31  5-MIN KMSN 150255Z 30005KT 1SM -SN BR BKN005 OVC010 00/M01 A2971 1060 96 -400 300/05 RMK AO2 CIG 003V009 P0000
14837KMSN MSN20020114210012901/14/02 21:00:31  5-MIN KMSN 150300Z 31004KT 1SM -SN BR BKN005 OVC012 00/M01 A2972 1050 92 -400 300/04 RMK AO2 CIG 003V010 P0001
14837KMSN MSN20020114210515001/14/02 21:05:31  5-MIN KMSN 150305Z 31004KT 1SM -SN BR BKN005 BKN012 OVC025 00/M01 A2972 1050 96 -400 310/04 RMK AO2 TWR VIS 1 1/2 CIG 003V008 P0001
14837KMSN MSN20020114211014001/14/02 21:10:31  5-MIN KMSN 150310Z 31005KT 1 1/2SM -SN BR BKN005 BKN012 OVC022 00/M01 A2972 1050 96 -400 310/05 RMK AO2 CIG 003V008 P0001
14837KMSN MSN20020114211512801/14/02 21:15:31  5-MIN KMSN 150315Z 30003KT 1 1/2SM -SN BR SCT005 BKN012 OVC019 00/M01 A2972 1050 96 -400 300/03 RMK AO2 P0001
14837KMSN MSN20020114212013801/14/02 21:20:31  5-MIN KMSN 150320Z 30003KT 1 1/2SM -SN BR SCT005 BKN014 OVC019 00/M01 A2972 1050 96 -400 300/03 RMK AO2 SFC VIS 2 P0001
14837KMSN MSN20020114212514201/14/02 21:25:31  5-MIN KMSN 150325Z 29003KT 1 1/2SM -SN BR SCT005 BKN014 OVC019 00/M01 A2973 1040 96 -400 290/03 RMK AO2 SFC VIS 2 1/2 P0001
14837KMSN MSN20020114213014201/14/02 21:30:31  5-MIN KMSN 150330Z 29003KT 1 1/2SM -SN BR SCT007 BKN014 OVC019 00/M01 A2973 1040 96 -400 290/03 RMK AO2 SFC VIS 2 1/2 P0001
14837KMSN MSN20020114213514201/14/02 21:35:31  5-MIN KMSN 150335Z 30004KT 1 1/2SM -SN BR SCT007 BKN014 OVC019 00/M01 A2973 1040 96 -400 300/04 RMK AO2 SFC VIS 2 1/2 P0001
14837KMSN MSN20020114214013101/14/02 21:40:31  5-MIN KMSN 150340Z 30003KT 1 1/2SM -SN BR FEW007 OVC016 00/M01 A2973 1040 96 -400 300/03 RMK AO2 SFC VIS 3 P0001
14837KMSN MSN20020114214514201/14/02 21:45:31  5-MIN KMSN 150345Z 30004KT 1 1/2SM -SN BR FEW007 BKN016 OVC025 00/M01 A2973 1040 96 -400 300/04 RMK AO2 SFC VIS 2 1/2 P0001
14837KMSN MSN20020114215014501/14/02 21:50:31  5-MIN KMSN 150350Z VRB03KT 1 1/2SM -SN BR FEW007 BKN016 OVC025 00/M01 A2974 1040 96 -500 VRB/03 RMK AO2 SLP078 P0001 T00001006
14837KMSN MSN20020114215512801/14/02 21:55:31  5-MIN KMSN 150355Z 00000KT 1 1/2SM -SN BR FEW007 BKN016 OVC025 00/M01 A2974 1030 96 -500 000/00 RMK AO2 P0000
14837KMSN MSN20020114220012801/14/02 22:00:31  5-MIN KMSN 150400Z 28003KT 1 1/2SM -SN BR SCT007 BKN016 OVC025 00/M01 A2974 1030 96 -500 280/03 RMK AO2 P0001
14837KMSN MSN20020114220513801/14/02 22:05:31  5-MIN KMSN 150405Z 28004KT 1SM -SN BR BKN005 BKN018 OVC025 00/M01 A2974 1030 96 -500 280/04 RMK AO2 SFC VIS 1 1/2 P0001
14837KMSN MSN20020114221013101/14/02 22:10:31  5-MIN KMSN 150410Z 28003KT 1SM -SN BR BKN005 OVC025 00/M01 A2974 1030 96 -500 280/03 RMK AO2 SFC VIS 1 1/2 P0001
14837KMSN MSN20020114221513801/14/02 22:15:31  5-MIN KMSN 150415Z 28004KT 1SM -SN BR BKN005 BKN010 OVC025 00/M01 A2974 1030 96 -500 280/04 RMK AO2 SFC VIS 1 1/2 P0002
14837KMSN MSN20020114222013101/14/02 22:20:31  5-MIN KMSN 150420Z VRB03KT 1SM -SN BR BKN005 OVC010 00/M01 A2974 1030 96 -500 VRB/03 RMK AO2 SFC VIS 1 1/2 P0002
14837KMSN MSN20020114222513101/14/02 22:25:31  5-MIN KMSN 150425Z 28005KT 1SM -SN BR BKN005 OVC010 00/M01 A2974 1030 96 -500 280/05 RMK AO2 SFC VIS 1 1/2 P0002
14837KMSN MSN20020114223013801/14/02 22:30:31  5-MIN KMSN 150430Z 27005KT 1SM -SN BR BKN005 BKN010 OVC015 00/M01 A2975 1030 96 -500 270/05 RMK AO2 SFC VIS 1 1/2 P0003
14837KMSN MSN20020114223513801/14/02 22:35:31  5-MIN KMSN 150435Z 28006KT 1SM -SN BR BKN005 BKN010 OVC015 00/M01 A2975 1020 96 -500 280/06 RMK AO2 SFC VIS 1 1/2 P0003
14837KMSN MSN20020114224013801/14/02 22:40:31  5-MIN KMSN 150440Z 29005KT 1SM -SN BR SCT005 BKN012 OVC021 00/M01 A2975 1020 96 -500 290/05 RMK AO2 SFC VIS 1 1/2 P0003
14837KMSN MSN20020114224515001/14/02 22:45:31  5-MIN KMSN 150445Z 27005KT 1SM -SN BR FEW003 BKN007 OVC021 00/M01 A2975 1020 96 -500 270/05 RMK AO2 SFC VIS 1 1/2 CIG 005V009 P0003
14837KMSN MSN20020114225016701/14/02 22:50:31  5-MIN KMSN 150450Z 28005KT 1SM -SN BR FEW003 BKN007 OVC016 00/M01 A2975 1020 96 -500 280/05 RMK AO2 SFC VIS 1 1/2 CIG 005V012 SLP084 P0003 T00001006
14837KMSN MSN20020114225513901/14/02 22:55:31  5-MIN KMSN 150455Z 28004KT 1SM -SN BR BKN007 OVC016 00/M01 A2975 1020 96 -500 280/04 RMK AO2 SFC VIS 2 CIG 004V012 P0000
14837KMSN MSN20020114230013901/14/02 23:00:31  5-MIN KMSN 150500Z 28006KT 1SM -SN BR BKN007 OVC016 00/M01 A2976 1020 96 -500 270/06 RMK AO2 SFC VIS 2 CIG 005V012 P0000
14837KMSN MSN20020114230512201/14/02 23:05:31  5-MIN KMSN 150505Z 28006KT 2SM -SN BR OVC009 00/M01 A2976 1010 92 -500 280/06 RMK AO2 CIG 005V012 P0000
14837KMSN MSN20020114231012201/14/02 23:10:31  5-MIN KMSN 150510Z 28007KT 2SM -SN BR OVC009 00/M01 A2976 1010 92 -500 280/07 RMK AO2 CIG 005V013 P0000
14837KMSN MSN20020114231512901/14/02 23:15:31  5-MIN KMSN 150515Z 28006KT 3SM -SN BR BKN009 OVC013 00/M01 A2976 1010 92 -500 280/06 RMK AO2 CIG 005V011 P0000
14837KMSN MSN20020114232011701/14/02 23:20:31  5-MIN KMSN 150520Z 28005KT 3SM -SN BR SCT009 OVC013 00/M01 A2976 1010 92 -500 280/05 RMK AO2 P0000
14837KMSN MSN20020114232511001/14/02 23:25:31  5-MIN KMSN 150525Z 28006KT 3SM -SN BR OVC013 00/M01 A2977 1010 92 -500 280/06 RMK AO2 P0000
14837KMSN MSN20020114233011001/14/02 23:30:31  5-MIN KMSN 150530Z 28007KT 4SM -SN BR OVC013 00/M01 A2977 1010 92 -500 270/07 RMK AO2 P0000
14837KMSN MSN20020114233511701/14/02 23:35:31  5-MIN KMSN 150535Z 29006KT 3SM -SN BR BKN013 OVC028 00/M01 A2977 1010 92 -500 290/06 RMK AO2 P0000
14837KMSN MSN20020114234012401/14/02 23:40:31  5-MIN KMSN 150540Z 29006KT 3SM -SN BR BKN013 BKN028 OVC036 00/M01 A2977 1010 92 -500 280/06 RMK AO2 P0000
14837KMSN MSN20020114234512401/14/02 23:45:31  5-MIN KMSN 150545Z 28006KT 3SM -SN BR BKN013 BKN028 OVC036 00/M01 A2977 1010 92 -500 280/06 RMK AO2 P0000
14837KMSN MSN20020114235018501/14/02 23:50:31  5-MIN KMSN 150550Z 28005KT 1 1/2SM -SN BR BKN013 BKN028 OVC036 00/M01 A2977 1010 92 -500 280/05 RMK AO2 SLP089 4/001 P0000 60005 T00001011 10011 20000 400170000 53020
14837KMSN MSN20020114235512901/14/02 23:55:31  5-MIN KMSN 150555Z 28005KT 1 1/2SM -SN BR BKN013 BKN028 OVC036 M01/M01 A2977 1000 96 -600 270/05 RMK AO2 P0000
14837KMSN MSN20020115000012901/15/02 00:00:31  5-MIN KMSN 150600Z 28005KT 1 1/2SM -SN BR BKN015 BKN026 OVC036 M01/M01 A2977 1000 96 -600 280/05 RMK AO2 P0000
14837KMSN MSN20020115000512901/15/02 00:05:31  5-MIN KMSN 150605Z VRB04KT 1 1/4SM -SN BR FEW005 BKN015 OVC036 M01/M01 A2977 1000 96 -600 VRB/04 RMK AO2 P0001
14837KMSN MSN20020115001012901/15/02 00:10:31  5-MIN KMSN 150610Z VRB05KT 1 1/4SM -SN BR SCT005 BKN010 OVC025 M01/M01 A2977 1000 96 -600 VRB/05 RMK AO2 P0001
14837KMSN MSN20020115001512901/15/02 00:15:31  5-MIN KMSN 150615Z VRB05KT 1 1/2SM -SN BR FEW005 SCT010 OVC014 M01/M01 A2977 1000 96 -600 VRB/05 RMK AO2 P0001
14837KMSN MSN20020115002012901/15/02 00:20:31  5-MIN KMSN 150620Z 28009KT 1 1/2SM -SN BR FEW005 BKN014 OVC027 M01/M01 A2977 1000 96 -600 280/09 RMK AO2 P0001
14837KMSN MSN20020115002512901/15/02 00:25:31  5-MIN KMSN 150625Z 28007KT 1 1/2SM -SN BR FEW005 BKN014 OVC029 M01/M02 A2978 1000 92 -600 280/07 RMK AO2 P0001
14837KMSN MSN20020115003012901/15/02 00:30:31  5-MIN KMSN 150630Z 28006KT 1 1/2SM -SN BR FEW005 BKN014 OVC029 M01/M02 A2978 1000 92 -600 270/06 RMK AO2 P0001
14837KMSN MSN20020115003512801/15/02 00:35:31  5-MIN KMSN 150635Z VRB06KT 1 1/2SM -SN BR FEW005 BKN012 OVC029 M01/M02 A2978 990 96 -600 VRB/06 RMK AO2 P0001
14837KMSN MSN20020115004012101/15/02 00:40:31  5-MIN KMSN 150640Z 28007KT 1 1/2SM -SN BR BKN012 OVC029 M01/M02 A2978 990 96 -600 280/07 RMK AO2 P0001
14837KMSN MSN20020115004512101/15/02 00:45:31  5-MIN KMSN 150645Z 28005KT 1 1/4SM -SN BR BKN012 OVC029 M01/M02 A2979 990 92 -700 280/05 RMK AO2 P0001
14837KMSN MSN20020115005013101/15/02 00:50:31  5-MIN KMSN 150650Z 27006KT 1 1/4SM -SN BR OVC012 M01/M02 A2979 980 92 -700 270/06 RMK AO2 SLP097 P0002 T10111022
14837KMSN MSN20020115005510901/15/02 00:55:31  5-MIN KMSN 150655Z 27007KT 1SM -SN BR VV010 M01/M02 A2979 980 96 -700 270/07 RMK AO2 P0000
14837KMSN MSN20020115010011001/15/02 01:00:31  5-MIN KMSN 150700Z 27007KT 1SM -SN BR OVC010 M01/M02 A2979 980 96 -700 270/07 RMK AO2 P0000
14837KMSN MSN20020115010511001/15/02 01:05:31  5-MIN KMSN 150705Z 27006KT 1SM -SN BR OVC008 M01/M02 A2980 980 92 -700 270/06 RMK AO2 P0000
14837KMSN MSN20020115011011001/15/02 01:10:31  5-MIN KMSN 150710Z 27004KT 1SM -SN BR OVC008 M01/M02 A2980 980 92 -700 270/04 RMK AO2 P0001
14837KMSN MSN20020115011511401/15/02 01:15:31  5-MIN KMSN 150715Z 28006KT 1 1/2SM -SN BR OVC008 M01/M02 A2980 970 92 -700 280/06 RMK AO2 P0001
14837KMSN MSN20020115012011401/15/02 01:20:31  5-MIN KMSN 150720Z 27007KT 1 1/2SM -SN BR OVC008 M01/M02 A2980 970 92 -700 260/07 RMK AO2 P0001
14837KMSN MSN20020115012511401/15/02 01:25:31  5-MIN KMSN 150725Z 27006KT 1 1/2SM -SN BR OVC008 M01/M02 A2980 970 92 -700 270/06 RMK AO2 P0001
14837KMSN MSN20020115013012801/15/02 01:30:31  5-MIN KMSN 150730Z 27008KT 1 1/2SM -SN BR BKN008 BKN014 OVC043 M01/M02 A2981 970 92 -700 270/08 RMK AO2 P0001
14837KMSN MSN20020115013512801/15/02 01:35:31  5-MIN KMSN 150735Z 27006KT 1 3/4SM -SN BR SCT008 BKN012 OVC043 M02/M03 A2981 970 92 -700 270/06 RMK AO2 P0001
14837KMSN MSN20020115014012401/15/02 01:40:31  5-MIN KMSN 150740Z 28007KT 2SM -SN BR SCT008 BKN012 OVC050 M02/M03 A2981 960 92 -800 280/07 RMK AO2 P0001
14837KMSN MSN20020115014512801/15/02 01:45:31  5-MIN KMSN 150745Z 27006KT 2 1/2SM -SN BR FEW008 BKN012 OVC050 M02/M03 A2981 960 92 -800 270/06 RMK AO2 P0001
14837KMSN MSN20020115015014101/15/02 01:50:31  5-MIN KMSN 150750Z 27007KT 3SM -SN BR FEW008 BKN043 OVC050 M02/M03 A2982 960 92 -800 270/07 RMK AO2 SLP106 P0001 T10171028
14837KMSN MSN20020115015511701/15/02 01:55:31  5-MIN KMSN 150755Z 27008KT 5SM -SN BR FEW008 OVC048 M02/M03 A2982 960 92 -800 270/08 RMK AO2 P0000
14837KMSN MSN20020115020012101/15/02 02:00:31  5-MIN KMSN 150800Z 27006KT 6SM BR FEW008 OVC048 M02/M03 A2982 960 88 -800 260/06 RMK AO2 SNE0757 P0000
14837KMSN MSN20020115020512101/15/02 02:05:31  5-MIN KMSN 150805Z 27007KT 6SM BR FEW008 OVC048 M02/M03 A2983 950 88 -800 270/07 RMK AO2 SNE0757 P0000
14837KMSN MSN20020115021011801/15/02 02:10:31  5-MIN KMSN 150810Z 27006KT 7SM FEW014 OVC048 M02/M03 A2983 950 88 -800 270/06 RMK AO2 SNE0757 P0000
14837KMSN MSN20020115021511801/15/02 02:15:31  5-MIN KMSN 150815Z 27007KT 7SM SCT014 OVC048 M02/M03 A2983 950 88 -800 270/07 RMK AO2 SNE0757 P0000
14837KMSN MSN20020115022011801/15/02 02:20:31  5-MIN KMSN 150820Z 28007KT 7SM SCT014 OVC048 M02/M03 A2983 950 88 -800 270/07 RMK AO2 SNE0757 P0000
14837KMSN MSN20020115022511801/15/02 02:25:31  5-MIN KMSN 150825Z 27007KT 7SM BKN014 OVC048 M02/M03 A2984 940 88 -800 260/07 RMK AO2 SNE0757 P0000
14837KMSN MSN20020115023011801/15/02 02:30:31  5-MIN KMSN 150830Z 27007KT 7SM BKN014 OVC048 M02/M03 A2984 940 88 -800 270/07 RMK AO2 SNE0757 P0000
14837KMSN MSN20020115023511101/15/02 02:35:31  5-MIN KMSN 150835Z 27007KT 7SM OVC014 M02/M03 A2984 940 88 -800 270/07 RMK AO2 SNE0757 P0000
14837KMSN MSN20020115024011101/15/02 02:40:31  5-MIN KMSN 150840Z 27007KT 7SM OVC014 M02/M03 A2984 940 88 -800 270/07 RMK AO2 SNE0757 P0000
14837KMSN MSN20020115024511101/15/02 02:45:31  5-MIN KMSN 150845Z 27007KT 8SM OVC014 M02/M04 A2984 940 88 -900 270/07 RMK AO2 SNE0757 P0000
14837KMSN MSN20020115025014001/15/02 02:50:31  5-MIN KMSN 150850Z VRB06KT 8SM OVC014 M02/M04 A2984 940 88 -900 VRB/06 RMK AO2 SNE0757 SLP115 P0000 60003 T10221039 51018
14837KMSN MSN20020115025509701/15/02 02:55:31  5-MIN KMSN 150855Z VRB05KT 8SM OVC014 M02/M04 A2984 930 88 -900 VRB/05 RMK AO2
14837KMSN MSN20020115030009701/15/02 03:00:31  5-MIN KMSN 150900Z 27007KT 8SM OVC014 M02/M04 A2985 930 88 -900 270/07 RMK AO2
14837KMSN MSN20020115030509701/15/02 03:05:31  5-MIN KMSN 150905Z 28008KT 8SM OVC014 M02/M04 A2985 930 88 -900 280/08 RMK AO2
14837KMSN MSN20020115031009701/15/02 03:10:31  5-MIN KMSN 150910Z 27008KT 8SM OVC014 M02/M04 A2985 930 85 -900 270/08 RMK AO2
14837KMSN MSN20020115031509701/15/02 03:15:31  5-MIN KMSN 150915Z 28007KT 9SM OVC014 M02/M04 A2985 930 85 -900 280/07 RMK AO2
14837KMSN MSN20020115032009701/15/02 03:20:31  5-MIN KMSN 150920Z 27008KT 9SM OVC014 M02/M04 A2986 920 85 -900 270/08 RMK AO2
14837KMSN MSN20020115032512001/15/02 03:25:31  5-MIN KMSN 150925Z 27007KT 250V310 9SM BKN014 OVC046 M02/M04 A2986 920 85 -900 270/07 250V310 RMK AO2
14837KMSN MSN20020115033010401/15/02 03:30:31  5-MIN KMSN 150930Z 28006KT 9SM BKN014 OVC046 M02/M04 A2986 920 85 -900 280/06 RMK AO2
14837KMSN MSN20020115033510401/15/02 03:35:31  5-MIN KMSN 150935Z 28009KT 9SM BKN014 OVC046 M02/M04 A2986 920 85 -900 280/09 RMK AO2
14837KMSN MSN20020115034010401/15/02 03:40:31  5-MIN KMSN 150940Z 28008KT 9SM BKN016 OVC046 M02/M04 A2986 920 85 -900 280/08 RMK AO2
14837KMSN MSN20020115034509801/15/02 03:45:31  5-MIN KMSN 150945Z 28008KT 10SM OVC016 M02/M04 A2986 920 85 -900 280/08 RMK AO2
14837KMSN MSN20020115035012201/15/02 03:50:31  5-MIN KMSN 150950Z VRB06KT 10SM BKN016 OVC038 M02/M04 A2986 920 85 -900 VRB/06 RMK AO2 SLP121 T10221044
14837KMSN MSN20020115035510401/15/02 03:55:31  5-MIN KMSN 150955Z 29007KT 9SM BKN016 OVC038 M02/M04 A2986 920 85 -900 290/07 RMK AO2
14837KMSN MSN20020115040011101/15/02 04:00:31  5-MIN KMSN 151000Z 29009KT 9SM BKN016 BKN038 OVC049 M02/M04 A2986 920 85 -900 290/09 RMK AO2
14837KMSN MSN20020115040511101/15/02 04:05:31  5-MIN KMSN 151005Z 29008KT 9SM SCT016 BKN038 OVC049 M02/M04 A2987 920 85 -900 290/08 RMK AO2
14837KMSN MSN20020115041011201/15/02 04:10:31  5-MIN KMSN 151010Z 29006KT 10SM SCT016 BKN038 OVC049 M02/M04 A2987 910 85 -900 290/06 RMK AO2
14837KMSN MSN20020115041511201/15/02 04:15:31  5-MIN KMSN 151015Z 28007KT 10SM FEW016 SCT038 OVC049 M02/M04 A2987 910 85 -900 280/07 RMK AO2
14837KMSN MSN20020115042011101/15/02 04:20:31  5-MIN KMSN 151020Z 28006G14KT 10SM FEW016 OVC049 M02/M04 A2987 910 85 -900 280/06G14 RMK AO2
14837KMSN MSN20020115042512801/15/02 04:25:31  5-MIN KMSN 151025Z 29007KT 270V330 10SM FEW016 SCT044 OVC049 M02/M04 A2987 910 85 -900 290/07 270V330 RMK AO2
14837KMSN MSN20020115043012101/15/02 04:30:31  5-MIN KMSN 151030Z 29008KT 10SM -SN FEW016 OVC049 M02/M04 A2987 910 85 -900 280/08 RMK AO2 SNB29 P0000
14837KMSN MSN20020115043512101/15/02 04:35:31  5-MIN KMSN 151035Z 29008KT 10SM -SN FEW016 OVC049 M02/M04 A2987 910 85 -900 290/08 RMK AO2 SNB29 P0000
14837KMSN MSN20020115044011401/15/02 04:40:31  5-MIN KMSN 151040Z 28008KT 10SM -SN OVC047 M02/M04 A2987 910 85 -900 280/08 RMK AO2 SNB29 P0000
14837KMSN MSN20020115044512101/15/02 04:45:31  5-MIN KMSN 151045Z 29007KT 10SM -SN BKN047 OVC055 M02/M04 A2987 910 85 -900 290/07 RMK AO2 SNB29 P0000
14837KMSN MSN20020115045013301/15/02 04:50:31  5-MIN KMSN 151050Z 28009KT 4SM -SN BR OVC047 M02/M04 A2987 910 85 -900 280/09 RMK AO2 SNB29 SLP125 P0000 T10221044
14837KMSN MSN20020115045511001/15/02 04:55:31  5-MIN KMSN 151055Z 29007KT 4SM -SN BR OVC047 M02/M04 A2987 910 85 -900 280/07 RMK AO2 P0000
14837KMSN MSN20020115050011001/15/02 05:00:31  5-MIN KMSN 151100Z 28007KT 4SM -SN BR OVC049 M02/M04 A2988 910 85 -900 280/07 RMK AO2 P0000
14837KMSN MSN20020115050511701/15/02 05:05:31  5-MIN KMSN 151105Z 28007KT 4SM -SN BR BKN049 OVC080 M02/M04 A2988 900 85 -900 280/07 RMK AO2 P0000
14837KMSN MSN20020115051011701/15/02 05:10:31  5-MIN KMSN 151110Z 28007KT 4SM -SN BR BKN049 OVC080 M02/M04 A2988 900 85 -900 280/07 RMK AO2 P0000
14837KMSN MSN20020115051511701/15/02 05:15:31  5-MIN KMSN 151115Z 28007KT 5SM -SN BR BKN049 OVC080 M02/M04 A2988 900 85 -900 280/07 RMK AO2 P0000
14837KMSN MSN20020115052011701/15/02 05:20:31  5-MIN KMSN 151120Z 28007KT 5SM -SN BR BKN049 OVC080 M02/M04 A2988 900 85 -900 280/07 RMK AO2 P0000
14837KMSN MSN20020115052511701/15/02 05:25:31  5-MIN KMSN 151125Z 28007KT 5SM -SN BR BKN049 OVC080 M02/M04 A2989 900 85 -900 280/07 RMK AO2 P0000
14837KMSN MSN20020115053011701/15/02 05:30:31  5-MIN KMSN 151130Z 28008KT 5SM -SN BR BKN049 OVC080 M02/M04 A2989 890 85 -900 280/08 RMK AO2 P0000
14837KMSN MSN20020115053511901/15/02 05:35:31  5-MIN KMSN 151135Z 29008KT 5SM BR BKN049 OVC080 M02/M04 A2989 890 85 -900 290/08 RMK AO2 SNE35 P0000
14837KMSN MSN20020115054011201/15/02 05:40:31  5-MIN KMSN 151140Z 28007KT 6SM BR OVC049 M02/M04 A2989 890 85 -900 280/07 RMK AO2 SNE35 P0000
14837KMSN MSN20020115054511201/15/02 05:45:31  5-MIN KMSN 151145Z 28007KT 6SM BR OVC049 M02/M04 A2989 890 88 -900 280/07 RMK AO2 SNE35 P0000
14837KMSN MSN20020115055016001/15/02 05:50:31  5-MIN KMSN 151150Z 29007KT 7SM -SN OVC049 M02/M04 A2990 890 88 -900 290/07 RMK AO2 SLP134 P0000 60006 70015 4/002 T10221039 11006 21022 53024
14837KMSN MSN20020115055511001/15/02 05:55:31  5-MIN KMSN 151155Z 29007KT 6SM -SN BR OVC049 M02/M04 A2990 890 88 -900 290/07 RMK AO2 P0000
14837KMSN MSN20020115060011201/15/02 06:00:31  5-MIN KMSN 151200Z 28007KT 6SM BR OVC049 M02/M04 A2990 880 88 -900 280/07 RMK AO2 SNE00 P0000
14837KMSN MSN20020115060511201/15/02 06:05:31  5-MIN KMSN 151205Z 29005KT 6SM BR OVC049 M02/M04 A2990 880 88 -900 280/05 RMK AO2 SNE00 P0000
14837KMSN MSN20020115061011201/15/02 06:10:31  5-MIN KMSN 151210Z 28007KT 5SM BR OVC049 M02/M04 A2991 880 88 -900 280/07 RMK AO2 SNE00 P0000
14837KMSN MSN20020115061511201/15/02 06:15:31  5-MIN KMSN 151215Z 29006KT 5SM BR OVC049 M02/M04 A2991 880 88 -900 290/06 RMK AO2 SNE00 P0000
14837KMSN MSN20020115062011201/15/02 06:20:31  5-MIN KMSN 151220Z 28007KT 6SM BR OVC049 M02/M04 A2991 870 85 -900 280/07 RMK AO2 SNE00 P0000
14837KMSN MSN20020115062511201/15/02 06:25:31  5-MIN KMSN 151225Z 28006KT 6SM BR OVC049 M02/M04 A2992 870 85 -900 280/06 RMK AO2 SNE00 P0000
14837KMSN MSN20020115063011201/15/02 06:30:31  5-MIN KMSN 151230Z 28007KT 5SM BR OVC049 M02/M04 A2992 870 85 -900 280/07 RMK AO2 SNE00 P0000
14837KMSN MSN20020115063511301/15/02 06:35:31  5-MIN KMSN 151235Z 29005KT 5SM BR OVC049 M02/M04 A2992 860 85 -1000 290/05 RMK AO2 SNE00 P0000
14837KMSN MSN20020115064012001/15/02 06:40:31  5-MIN KMSN 151240Z 28006KT 5SM -SN BR OVC049 M02/M04 A2993 860 85 -1000 280/06 RMK AO2 SNE00B40 P0000
14837KMSN MSN20020115064512701/15/02 06:45:31  5-MIN KMSN 151245Z 28005KT 4SM -SN BR BKN049 OVC070 M02/M04 A2993 860 85 -1000 280/05 RMK AO2 SNE00B40 P0000
14837KMSN MSN20020115065014401/15/02 06:50:31  5-MIN KMSN 151250Z 29006KT 3SM -SN BR BKN049 OVC070 M02/M04 A2993 850 85 -1000 290/06 RMK AO2 SNE00B40 SLP146 P0000 T10221044
14837KMSN MSN20020115065512501/15/02 06:55:31  5-MIN KMSN 151255Z 29006KT 3SM -SN BR FEW023 BKN055 OVC075 M02/M04 A2994 850 85 -1000 280/06 RMK AO2 P0000
14837KMSN MSN20020115070012501/15/02 07:00:31  5-MIN KMSN 151300Z 29006KT 3SM -SN BR FEW023 BKN055 OVC075 M02/M04 A2994 850 88 -1000 290/06 RMK AO2 P0000
14837KMSN MSN20020115070512501/15/02 07:05:31  5-MIN KMSN 151305Z 29007KT 4SM -SN BR FEW023 SCT055 OVC070 M02/M04 A2994 840 85 -1000 290/07 RMK AO2 P0000
14837KMSN MSN20020115071011801/15/02 07:10:31  5-MIN KMSN 151310Z 29005KT 4SM -SN BR SCT023 OVC070 M02/M04 A2995 840 88 -1000 290/05 RMK AO2 P0000
14837KMSN MSN20020115071511801/15/02 07:15:31  5-MIN KMSN 151315Z 28006KT 4SM -SN BR SCT023 OVC065 M02/M04 A2995 840 85 -1000 280/06 RMK AO2 P0000
14837KMSN MSN20020115072012001/15/02 07:20:31  5-MIN KMSN 151320Z 29008KT 5SM BR SCT023 OVC065 M02/M04 A2995 840 85 -1000 290/08 RMK AO2 SNE18 P0000
14837KMSN MSN20020115072511701/15/02 07:25:31  5-MIN KMSN 151325Z 29007KT 7SM SCT020 OVC065 M02/M04 A2996 830 85 -1000 290/07 RMK AO2 SNE18 P0000
14837KMSN MSN20020115073012401/15/02 07:30:31  5-MIN KMSN 151330Z 28008KT 7SM FEW017 BKN022 OVC065 M02/M04 A2996 830 85 -1000 280/08 RMK AO2 SNE18 P0000
14837KMSN MSN20020115073512701/15/02 07:35:31  5-MIN KMSN 151335Z 28008KT 6SM BR FEW017 BKN022 OVC065 M02/M04 A2996 830 85 -1000 280/08 RMK AO2 SNE18 P0000
14837KMSN MSN20020115074012701/15/02 07:40:31  5-MIN KMSN 151340Z 29009KT 6SM BR FEW017 BKN022 OVC065 M02/M04 A2996 830 85 -1000 290/09 RMK AO2 SNE18 P0000
14837KMSN MSN20020115074512701/15/02 07:45:31  5-MIN KMSN 151345Z 29008KT 6SM BR FEW017 BKN024 OVC065 M02/M04 A2997 820 85 -1000 290/08 RMK AO2 SNE18 P0000
14837KMSN MSN20020115075014401/15/02 07:50:31  5-MIN KMSN 151350Z 29008KT 5SM BR FEW017 BKN024 OVC070 M02/M04 A2997 820 85 -1000 280/08 RMK AO2 SNE18 SLP159 P0000 T10221044
14837KMSN MSN20020115075511501/15/02 07:55:31  5-MIN KMSN 151355Z 28007KT 5SM BR FEW019 BKN024 OVC070 M02/M04 A2997 820 85 -1000 280/07 RMK AO2
14837KMSN MSN20020115080010101/15/02 08:00:31  5-MIN KMSN 151400Z 28009KT 6SM BR OVC024 M02/M04 A2998 810 88 -1000 280/09 RMK AO2
14837KMSN MSN20020115080510101/15/02 08:05:31  5-MIN KMSN 151405Z 29008KT 6SM BR OVC024 M02/M04 A2998 810 85 -1000 290/08 RMK AO2
14837KMSN MSN20020115081010101/15/02 08:10:31  5-MIN KMSN 151410Z 29007KT 6SM BR OVC024 M02/M04 A2998 810 85 -1000 290/07 RMK AO2
14837KMSN MSN20020115081510101/15/02 08:15:31  5-MIN KMSN 151415Z 29008KT 6SM BR OVC024 M02/M04 A2999 800 88 -1000 290/08 RMK AO2
14837KMSN MSN20020115082010101/15/02 08:20:31  5-MIN KMSN 151420Z 29008KT 6SM BR OVC024 M02/M04 A2999 800 88 -1000 290/08 RMK AO2
14837KMSN MSN20020115082510101/15/02 08:25:31  5-MIN KMSN 151425Z 29008KT 6SM BR OVC024 M02/M04 A2999 800 85 -1000 290/08 RMK AO2
14837KMSN MSN20020115083010101/15/02 08:30:31  5-MIN KMSN 151430Z 29008KT 6SM BR OVC022 M02/M04 A2999 800 85 -1000 290/08 RMK AO2
14837KMSN MSN20020115083510101/15/02 08:35:31  5-MIN KMSN 151435Z 30009KT 6SM BR OVC022 M02/M04 A3000 790 85 -1000 290/09 RMK AO2
14837KMSN MSN20020115084009801/15/02 08:40:31  5-MIN KMSN 151440Z 30008KT 7SM OVC022 M02/M04 A3000 790 81 -1000 300/08 RMK AO2
14837KMSN MSN20020115084509801/15/02 08:45:31  5-MIN KMSN 151445Z 30006KT 8SM OVC020 M02/M04 A3000 790 81 -1000 300/06 RMK AO2
14837KMSN MSN20020115085012701/15/02 08:50:31  5-MIN KMSN 151450Z 30008KT 8SM OVC020 M02/M04 A3000 790 81 -1000 300/08 RMK AO2 SLP171 60000 T10171044 53018
14837KMSN MSN20020115085509801/15/02 08:55:31  5-MIN KMSN 151455Z 29008KT 8SM OVC019 M02/M04 A3001 780 81 -1000 290/08 RMK AO2
14837KMSN MSN20020115090009901/15/02 09:00:31  5-MIN KMSN 151500Z 30007KT 10SM OVC019 M02/M04 A3001 780 81 -1000 300/07 RMK AO2
14837KMSN MSN20020115090509901/15/02 09:05:31  5-MIN KMSN 151505Z 30008KT 10SM OVC017 M02/M04 A3001 780 81 -1000 300/08 RMK AO2
14837KMSN MSN20020115091009901/15/02 09:10:31  5-MIN KMSN 151510Z 30010KT 10SM BKN017 M02/M04 A3002 780 81 -1000 300/10 RMK AO2
14837KMSN MSN20020115091509901/15/02 09:15:31  5-MIN KMSN 151515Z 31011KT 10SM BKN017 M02/M04 A3002 770 81 -1000 300/11 RMK AO2
14837KMSN MSN20020115092009901/15/02 09:20:31  5-MIN KMSN 151520Z 30007KT 10SM BKN017 M02/M04 A3002 770 81 -1000 300/07 RMK AO2
14837KMSN MSN20020115092509901/15/02 09:25:31  5-MIN KMSN 151525Z 31007KT 10SM BKN017 M02/M04 A3003 770 81 -1000 310/07 RMK AO2
14837KMSN MSN20020115093010501/15/02 09:30:31  5-MIN KMSN 151530Z 30011G15KT 10SM BKN017 M02/M04 A3003 770 81 -1000 300/11G15 RMK AO2
14837KMSN MSN20020115093509901/15/02 09:35:31  5-MIN KMSN 151535Z 30011KT 10SM BKN017 M02/M04 A3003 760 81 -1000 300/11 RMK AO2
14837KMSN MSN20020115094009901/15/02 09:40:31  5-MIN KMSN 151540Z 31011KT 10SM BKN017 M02/M04 A3003 760 81 -1000 310/11 RMK AO2
14837KMSN MSN20020115094510501/15/02 09:45:31  5-MIN KMSN 151545Z 31012G18KT 10SM BKN017 M02/M04 A3003 760 81 -1000 310/12G18 RMK AO2
14837KMSN MSN20020115095012201/15/02 09:50:31  5-MIN KMSN 151550Z 31010G18KT 10SM OVC017 M02/M04 A3003 760 81 -1000 310/10G18 RMK AO2 SLP181 T10171044
14837KMSN MSN20020115095510501/15/02 09:55:31  5-MIN KMSN 151555Z 31009G17KT 10SM OVC017 M02/M04 A3004 760 81 -1000 300/09G17 RMK AO2
14837KMSN MSN20020115100009901/15/02 10:00:31  5-MIN KMSN 151600Z 32011KT 10SM OVC017 M02/M04 A3004 750 81 -1000 320/11 RMK AO2
14837KMSN MSN20020115100509901/15/02 10:05:31  5-MIN KMSN 151605Z 32008KT 10SM OVC017 M02/M04 A3005 750 81 -1000 320/08 RMK AO2
14837KMSN MSN20020115101009901/15/02 10:10:31  5-MIN KMSN 151610Z 32007KT 10SM OVC017 M02/M04 A3005 740 81 -1000 320/07 RMK AO2
14837KMSN MSN20020115101511501/15/02 10:15:31  5-MIN KMSN 151615Z 31007KT 290V350 10SM OVC017 M02/M04 A3005 740 81 -1000 310/07 290V350 RMK AO2
14837KMSN MSN20020115102009901/15/02 10:20:31  5-MIN KMSN 151620Z 30010KT 10SM OVC017 M01/M04 A3006 740 78 -1000 300/10 RMK AO2
14837KMSN MSN20020115102509901/15/02 10:25:31  5-MIN KMSN 151625Z 32009KT 10SM OVC017 M01/M04 A3006 740 78 -1000 320/09 RMK AO2
14837KMSN MSN20020115103011501/15/02 10:30:31  5-MIN KMSN 151630Z 32009KT 280V350 10SM OVC017 M01/M04 A3006 740 78 -1000 320/09 280V350 RMK AO2
14837KMSN MSN20020115103510601/15/02 10:35:31  5-MIN KMSN 151635Z 31009KT 10SM BKN019 OVC028 M01/M04 A3006 740 78 -1000 310/09 RMK AO2
14837KMSN MSN20020115104011201/15/02 10:40:31  5-MIN KMSN 151640Z 32010G15KT 10SM BKN019 OVC028 M01/M04 A3006 740 78 -1000 320/10G15 RMK AO2
14837KMSN MSN20020115104511201/15/02 10:45:31  5-MIN KMSN 151645Z 32010G17KT 10SM BKN019 OVC028 M01/M04 A3006 740 78 -1000 320/10G17 RMK AO2
14837KMSN MSN20020115105012901/15/02 10:50:31  5-MIN KMSN 151650Z 31010G17KT 10SM BKN019 OVC028 M01/M04 A3006 730 78 -1000 310/10G17 RMK AO2 SLP190 T10111044
14837KMSN MSN20020115105510601/15/02 10:55:31  5-MIN KMSN 151655Z 32007KT 10SM BKN019 OVC028 M01/M04 A3006 730 78 -1000 320/07 RMK AO2
14837KMSN MSN20020115110010601/15/02 11:00:31  5-MIN KMSN 151700Z 31010KT 10SM BKN021 OVC028 M01/M04 A3006 730 78 -1000 310/10 RMK AO2
14837KMSN MSN20020115110511201/15/02 11:05:31  5-MIN KMSN 151705Z 31011G15KT 10SM BKN021 OVC028 M01/M04 A3006 730 78 -1000 310/11G15 RMK AO2
14837KMSN MSN20020115111011201/15/02 11:10:31  5-MIN KMSN 151710Z 31008G15KT 10SM BKN021 OVC028 M01/M04 A3007 730 78 -1000 310/08G15 RMK AO2
14837KMSN MSN20020115111510501/15/02 11:15:31  5-MIN KMSN 151715Z 31010G15KT 10SM OVC023 M01/M04 A3007 730 78 -1000 310/10G15 RMK AO2
14837KMSN MSN20020115112010601/15/02 11:20:31  5-MIN KMSN 151720Z 31007KT 10SM BKN023 OVC028 M01/M04 A3007 730 78 -1000 300/07 RMK AO2
14837KMSN MSN20020115112510601/15/02 11:25:31  5-MIN KMSN 151725Z 31007KT 10SM BKN023 OVC028 M01/M04 A3007 730 78 -1000 310/07 RMK AO2
14837KMSN MSN20020115113010601/15/02 11:30:31  5-MIN KMSN 151730Z 31008KT 10SM BKN023 OVC028 M01/M04 A3007 730 78 -1000 310/08 RMK AO2
14837KMSN MSN20020115113509901/15/02 11:35:31  5-MIN KMSN 151735Z 30006KT 10SM OVC026 M01/M04 A3007 730 78 -1000 300/06 RMK AO2
14837KMSN MSN20020115114009801/15/02 11:40:31  5-MIN KMSN 151740Z 31009KT 10SM BKN026 M01/M04 A3007 730 75 -900 310/09 RMK AO2
14837KMSN MSN20020115114510401/15/02 11:45:31  5-MIN KMSN 151745Z 32010G15KT 10SM BKN026 M01/M04 A3007 730 75 -900 320/10G15 RMK AO2
14837KMSN MSN20020115115015201/15/02 11:50:31  5-MIN KMSN 151750Z 31009G15KT 10SM BKN022 OVC028 M01/M04 A3007 730 75 -900 300/09G15 RMK AO2 SLP191 60000 T10061044 11006 21022 51036
14837KMSN MSN20020115115510601/15/02 11:55:31  5-MIN KMSN 151755Z 30010KT 10SM BKN022 OVC028 M01/M04 A3007 730 78 -1000 300/10 RMK AO2
14837KMSN MSN20020115120009901/15/02 12:00:31  5-MIN KMSN 151800Z 32011KT 10SM OVC022 M01/M04 A3007 730 78 -1000 320/11 RMK AO2
14837KMSN MSN20020115120509901/15/02 12:05:31  5-MIN KMSN 151805Z 31009KT 10SM BKN022 M01/M04 A3007 730 78 -1000 310/09 RMK AO2
14837KMSN MSN20020115121009901/15/02 12:10:31  5-MIN KMSN 151810Z 30010KT 10SM OVC022 M01/M04 A3007 730 78 -1000 300/10 RMK AO2
14837KMSN MSN20020115121509801/15/02 12:15:31  5-MIN KMSN 151815Z 31011KT 10SM OVC020 M01/M04 A3007 730 75 -900 300/11 RMK AO2
14837KMSN MSN20020115122010501/15/02 12:20:31  5-MIN KMSN 151820Z 30009G17KT 10SM OVC020 M01/M04 A3007 730 78 -1000 300/09G17 RMK AO2
14837KMSN MSN20020115122512001/15/02 12:25:31  5-MIN KMSN 151825Z 31009G17KT 260V340 10SM BKN020 M01/M04 A3007 730 75 -900 310/09G17 260V340 RMK AO2
14837KMSN MSN20020115123009801/15/02 12:30:31  5-MIN KMSN 151830Z 32009KT 10SM BKN020 M01/M04 A3007 730 75 -900 320/09 RMK AO2
14837KMSN MSN20020115123509801/15/02 12:35:31  5-MIN KMSN 151835Z 30007KT 10SM BKN020 M01/M04 A3007 730 75 -900 300/07 RMK AO2
14837KMSN MSN20020115124009801/15/02 12:40:31  5-MIN KMSN 151840Z 30008KT 10SM BKN020 M01/M04 A3007 730 75 -900 300/08 RMK AO2
14837KMSN MSN20020115124509801/15/02 12:45:31  5-MIN KMSN 151845Z 31008KT 10SM BKN020 M01/M04 A3007 730 75 -900 310/08 RMK AO2
14837KMSN MSN20020115125011501/15/02 12:50:31  5-MIN KMSN 151850Z 31007KT 10SM BKN020 M01/M04 A3006 730 75 -900 310/07 RMK AO2 SLP191 T10061044
14837KMSN MSN20020115125510501/15/02 12:55:31  5-MIN KMSN 151855Z 31008KT 10SM BKN022 OVC029 M01/M04 A3007 730 75 -900 310/08 RMK AO2
14837KMSN MSN20020115130010501/15/02 13:00:31  5-MIN KMSN 151900Z 31006KT 10SM BKN022 OVC029 M01/M04 A3007 730 75 -900 300/06 RMK AO2
14837KMSN MSN20020115130510501/15/02 13:05:31  5-MIN KMSN 151905Z 30004KT 10SM SCT020 OVC027 M01/M04 A3007 730 75 -900 300/04 RMK AO2
14837KMSN MSN20020115131010501/15/02 13:10:31  5-MIN KMSN 151910Z 30004KT 10SM SCT020 OVC027 M01/M04 A3007 730 78 -900 290/04 RMK AO2
14837KMSN MSN20020115131510501/15/02 13:15:31  5-MIN KMSN 151915Z VRB03KT 10SM SCT020 OVC029 M01/M04 A3007 730 78 -900 VRB/03 RMK AO2
14837KMSN MSN20020115132010501/15/02 13:20:31  5-MIN KMSN 151920Z 27004KT 10SM FEW020 OVC027 M01/M04 A3007 730 78 -900 270/04 RMK AO2
14837KMSN MSN20020115132510501/15/02 13:25:31  5-MIN KMSN 151925Z VRB04KT 10SM SCT020 OVC029 M01/M04 A3007 720 75 -900 VRB/04 RMK AO2
14837KMSN MSN20020115133010501/15/02 13:30:31  5-MIN KMSN 151930Z 28005KT 10SM BKN022 OVC029 M01/M04 A3007 720 78 -900 280/05 RMK AO2
14837KMSN MSN20020115133511201/15/02 13:35:31  5-MIN KMSN 151935Z 28006KT 10SM SCT019 BKN024 OVC029 M01/M04 A3008 720 78 -900 270/06 RMK AO2
14837KMSN MSN20020115134010501/15/02 13:40:31  5-MIN KMSN 151940Z 27006KT 10SM BKN019 OVC027 M01/M04 A3008 720 78 -900 270/06 RMK AO2
14837KMSN MSN20020115134510501/15/02 13:45:31  5-MIN KMSN 151945Z 27007KT 10SM SCT019 OVC027 M01/M04 A3008 720 78 -900 260/07 RMK AO2
14837KMSN MSN20020115135012201/15/02 13:50:31  5-MIN KMSN 151950Z VRB04KT 10SM FEW019 OVC027 M01/M04 A3008 710 75 -900 VRB/04 RMK AO2 SLP198 T10061044
14837KMSN MSN20020115135510501/15/02 13:55:31  5-MIN KMSN 151955Z 26006KT 10SM FEW019 OVC027 M01/M04 A3009 710 75 -900 260/06 RMK AO2
14837KMSN MSN20020115140010501/15/02 14:00:31  5-MIN KMSN 152000Z VRB05KT 10SM FEW019 OVC027 M01/M04 A3009 710 78 -900 VRB/05 RMK AO2
14837KMSN MSN20020115140509801/15/02 14:05:31  5-MIN KMSN 152005Z 27007KT 10SM OVC024 M01/M04 A3009 710 78 -900 270/07 RMK AO2
14837KMSN MSN20020115141010501/15/02 14:10:31  5-MIN KMSN 152010Z 26007KT 10SM BKN022 OVC027 M01/M04 A3009 710 78 -900 260/07 RMK AO2
14837KMSN MSN20020115141510601/15/02 14:15:31  5-MIN KMSN 152015Z 28005KT 10SM BKN022 OVC027 M01/M04 A3009 710 78 -1000 280/05 RMK AO2
14837KMSN MSN20020115142009901/15/02 14:20:31  5-MIN KMSN 152020Z 28007KT 10SM OVC020 M01/M04 A3009 710 78 -1000 280/07 RMK AO2
14837KMSN MSN20020115142509901/15/02 14:25:31  5-MIN KMSN 152025Z 30006KT 10SM OVC022 M01/M04 A3009 710 78 -1000 290/06 RMK AO2
14837KMSN MSN20020115143010601/15/02 14:30:31  5-MIN KMSN 152030Z 29006KT 10SM BKN022 OVC027 M01/M04 A3009 710 78 -1000 280/06 RMK AO2
14837KMSN MSN20020115143510501/15/02 14:35:31  5-MIN KMSN 152035Z VRB04KT 10SM BKN022 OVC029 M01/M04 A3009 700 75 -900 VRB/04 RMK AO2
14837KMSN MSN20020115144010501/15/02 14:40:31  5-MIN KMSN 152040Z 28006KT 10SM BKN020 OVC029 M01/M04 A3010 700 75 -900 280/06 RMK AO2
14837KMSN MSN20020115144510501/15/02 14:45:31  5-MIN KMSN 152045Z VRB05KT 10SM SCT020 OVC029 M01/M04 A3010 700 75 -900 VRB/05 RMK AO2
14837KMSN MSN20020115145012801/15/02 14:50:31  5-MIN KMSN 152050Z VRB04KT 10SM FEW020 OVC029 M01/M04 A3010 700 75 -900 VRB/04 RMK AO2 SLP204 T10061044 51020
14837KMSN MSN20020115145510501/15/02 14:55:31  5-MIN KMSN 152055Z 27005KT 10SM FEW020 OVC031 M01/M04 A3010 700 75 -900 270/05 RMK AO2
14837KMSN MSN20020115150009801/15/02 15:00:31  5-MIN KMSN 152100Z 28007KT 10SM OVC031 M01/M04 A3011 690 75 -900 270/07 RMK AO2
14837KMSN MSN20020115150510601/15/02 15:05:31  5-MIN KMSN 152105Z 29005KT 10SM FEW020 OVC031 M01/M04 A3011 690 75 -1000 290/05 RMK AO2
14837KMSN MSN20020115151010601/15/02 15:10:31  5-MIN KMSN 152110Z 28004KT 10SM SCT023 OVC031 M01/M04 A3011 690 78 -1000 280/04 RMK AO2
14837KMSN MSN20020115151511301/15/02 15:15:31  5-MIN KMSN 152115Z 28005KT 10SM SCT021 BKN028 OVC033 M01/M04 A3011 690 78 -1000 280/05 RMK AO2
14837KMSN MSN20020115152010501/15/02 15:20:31  5-MIN KMSN 152120Z 29006KT 8SM BKN021 OVC027 M01/M04 A3011 690 78 -1000 280/06 RMK AO2
14837KMSN MSN20020115152510501/15/02 15:25:31  5-MIN KMSN 152125Z 26004KT 8SM BKN021 OVC028 M01/M04 A3011 690 78 -1000 260/04 RMK AO2
14837KMSN MSN20020115153010501/15/02 15:30:31  5-MIN KMSN 152130Z 28006KT 7SM BKN021 OVC026 M01/M04 A3012 680 81 -1000 270/06 RMK AO2
14837KMSN MSN20020115153509801/15/02 15:35:31  5-MIN KMSN 152135Z 27005KT 7SM OVC023 M01/M04 A3012 680 81 -1000 260/05 RMK AO2
14837KMSN MSN20020115154010501/15/02 15:40:31  5-MIN KMSN 152140Z 26007KT 7SM BKN023 OVC027 M01/M04 A3012 680 78 -1000 260/07 RMK AO2
14837KMSN MSN20020115154510501/15/02 15:45:31  5-MIN KMSN 152145Z 27005KT 7SM BKN025 OVC029 M01/M04 A3012 680 78 -1000 270/05 RMK AO2
14837KMSN MSN20020115155012201/15/02 15:50:31  5-MIN KMSN 152150Z 26005KT 7SM BKN025 OVC029 M01/M04 A3013 670 81 -1000 260/05 RMK AO2 SLP213 T10111039
14837KMSN MSN20020115155511701/15/02 15:55:31  5-MIN KMSN 152155Z 27007KT 240V300 6SM HZ OVC027 M01/M04 A3013 670 78 -1000 270/07 240V300 RMK AO2
14837KMSN MSN20020115160010101/15/02 16:00:31  5-MIN KMSN 152200Z 27006KT 6SM HZ OVC027 M01/M04 A3013 670 78 -1000 270/06 RMK AO2
14837KMSN MSN20020115160510101/15/02 16:05:31  5-MIN KMSN 152205Z 27006KT 6SM HZ OVC027 M01/M04 A3013 670 78 -1000 270/06 RMK AO2
14837KMSN MSN20020115161011401/15/02 16:10:31  5-MIN KMSN 152210Z 27007KT 6SM -SN OVC027 M01/M04 A3013 670 78 -1000 270/07 RMK AO2 SNB10 P0000
14837KMSN MSN20020115161511401/15/02 16:15:31  5-MIN KMSN 152215Z 27006KT 6SM -SN OVC027 M01/M04 A3013 670 78 -1100 270/06 RMK AO2 SNB10 P0000
14837KMSN MSN20020115162011301/15/02 16:20:31  5-MIN KMSN 152220Z 27008KT 8SM OVC029 M01/M04 A3013 670 78 -1100 270/08 RMK AO2 SNB10E18 P0000
14837KMSN MSN20020115162511301/15/02 16:25:31  5-MIN KMSN 152225Z VRB05KT 8SM OVC029 M01/M05 A3013 670 75 -1100 VRB/05 RMK AO2 SNB10E18 P0000
14837KMSN MSN20020115163011401/15/02 16:30:31  5-MIN KMSN 152230Z 28006KT 10SM OVC029 M01/M05 A3013 670 75 -1100 280/06 RMK AO2 SNB10E18 P0000
14837KMSN MSN20020115163511401/15/02 16:35:31  5-MIN KMSN 152235Z 27005KT 10SM OVC031 M01/M05 A3014 670 75 -1100 270/05 RMK AO2 SNB10E18 P0000
14837KMSN MSN20020115164011401/15/02 16:40:31  5-MIN KMSN 152240Z 28009KT 10SM OVC031 M02/M05 A3013 670 78 -1100 270/09 RMK AO2 SNB10E18 P0000
14837KMSN MSN20020115164511401/15/02 16:45:31  5-MIN KMSN 152245Z 28006KT 10SM OVC031 M02/M06 A3014 660 75 -1100 280/06 RMK AO2 SNB10E18 P0000
14837KMSN MSN20020115165013101/15/02 16:50:31  5-MIN KMSN 152250Z 29006KT 10SM OVC031 M02/M06 A3014 670 75 -1100 290/06 RMK AO2 SNB10E18 SLP216 P0000 T10171056
14837KMSN MSN20020115165509901/15/02 16:55:31  5-MIN KMSN 152255Z 29006KT 10SM OVC031 M02/M06 A3013 670 72 -1100 290/06 RMK AO2
14837KMSN MSN20020115170009901/15/02 17:00:31  5-MIN KMSN 152300Z 29006KT 10SM OVC031 M02/M06 A3014 670 75 -1100 290/06 RMK AO2
14837KMSN MSN20020115170509901/15/02 17:05:31  5-MIN KMSN 152305Z VRB06KT 10SM OVC031 M02/M06 A3014 670 72 -1100 VRB/06 RMK AO2
14837KMSN MSN20020115171009901/15/02 17:10:31  5-MIN KMSN 152310Z 29005KT 10SM OVC031 M02/M06 A3014 670 72 -1100 290/05 RMK AO2
14837KMSN MSN20020115171509901/15/02 17:15:31  5-MIN KMSN 152315Z 28006KT 10SM OVC029 M02/M06 A3014 670 75 -1100 280/06 RMK AO2
14837KMSN MSN20020115172011501/15/02 17:20:31  5-MIN KMSN 152320Z 30009KT 270V340 10SM OVC029 M02/M06 A3013 670 72 -1100 300/09 270V340 RMK AO2
14837KMSN MSN20020115172509901/15/02 17:25:31  5-MIN KMSN 152325Z 28006KT 10SM OVC029 M02/M06 A3013 670 75 -1200 280/06 RMK AO2
14837KMSN MSN20020115173009901/15/02 17:30:31  5-MIN KMSN 152330Z 29007KT 10SM OVC029 M02/M06 A3013 670 75 -1200 290/07 RMK AO2
14837KMSN MSN20020115173509901/15/02 17:35:31  5-MIN KMSN 152335Z 27006KT 10SM OVC029 M02/M06 A3014 660 75 -1200 270/06 RMK AO2
14837KMSN MSN20020115174009901/15/02 17:40:31  5-MIN KMSN 152340Z VRB06KT 10SM OVC029 M02/M06 A3014 660 75 -1200 VRB/06 RMK AO2
14837KMSN MSN20020115174509901/15/02 17:45:31  5-MIN KMSN 152345Z 27004KT 10SM OVC029 M02/M06 A3014 660 75 -1200 270/04 RMK AO2
14837KMSN MSN20020115175014601/15/02 17:50:31  5-MIN KMSN 152350Z 28004KT 10SM OVC029 M02/M06 A3014 660 75 -1200 280/04 RMK AO2 SLP218 4/001 60000 T10221061 11006 21022 53012
14837KMSN MSN20020115175509901/15/02 17:55:31  5-MIN KMSN 152355Z 28006KT 10SM OVC029 M02/M06 A3014 660 75 -1200 280/06 RMK AO2
14837KMSN MSN20020115180009901/15/02 18:00:31  5-MIN KMSN 160000Z VRB03KT 10SM OVC029 M02/M06 A3014 660 75 -1200 VRB/03 RMK AO2
14837KMSN MSN20020115180509901/15/02 18:05:31  5-MIN KMSN 160005Z 27005KT 10SM OVC029 M02/M06 A3015 660 75 -1200 270/05 RMK AO2
14837KMSN MSN20020115181009901/15/02 18:10:31  5-MIN KMSN 160010Z 27005KT 10SM OVC029 M02/M06 A3015 660 75 -1200 270/05 RMK AO2
14837KMSN MSN20020115181509901/15/02 18:15:31  5-MIN KMSN 160015Z 27005KT 10SM OVC027 M02/M06 A3015 660 75 -1200 260/05 RMK AO2
14837KMSN MSN20020115182009901/15/02 18:20:31  5-MIN KMSN 160020Z VRB06KT 10SM OVC027 M02/M07 A3015 650 72 -1200 VRB/06 RMK AO2
14837KMSN MSN20020115182509901/15/02 18:25:31  5-MIN KMSN 160025Z 28006KT 10SM OVC027 M02/M07 A3015 650 72 -1200 280/06 RMK AO2
14837KMSN MSN20020115183009901/15/02 18:30:31  5-MIN KMSN 160030Z 29007KT 10SM OVC025 M02/M07 A3015 650 72 -1200 290/07 RMK AO2
14837KMSN MSN20020115183509901/15/02 18:35:31  5-MIN KMSN 160035Z 28003KT 10SM OVC025 M02/M07 A3015 650 72 -1200 280/03 RMK AO2
14837KMSN MSN20020115184009901/15/02 18:40:31  5-MIN KMSN 160040Z VRB05KT 10SM OVC023 M02/M07 A3015 650 72 -1200 VRB/05 RMK AO2
14837KMSN MSN20020115184509901/15/02 18:45:31  5-MIN KMSN 160045Z VRB04KT 10SM OVC023 M02/M07 A3015 650 72 -1200 VRB/04 RMK AO2
14837KMSN MSN20020115185011601/15/02 18:50:31  5-MIN KMSN 160050Z 24006KT 10SM OVC023 M02/M07 A3015 650 72 -1200 240/06 RMK AO2 SLP223 T10221067
14837KMSN MSN20020115185509901/15/02 18:55:31  5-MIN KMSN 160055Z 28004KT 10SM OVC023 M02/M06 A3015 650 75 -1200 280/04 RMK AO2
14837KMSN MSN20020115190009901/15/02 19:00:31  5-MIN KMSN 160100Z VRB04KT 10SM OVC023 M02/M06 A3015 650 75 -1200 VRB/04 RMK AO2
14837KMSN MSN20020115190509901/15/02 19:05:31  5-MIN KMSN 160105Z 26005KT 10SM OVC023 M02/M06 A3016 650 75 -1200 260/05 RMK AO2
14837KMSN MSN20020115191009901/15/02 19:10:31  5-MIN KMSN 160110Z 26005KT 10SM OVC023 M03/M06 A3016 650 78 -1300 260/05 RMK AO2
14837KMSN MSN20020115191509901/15/02 19:15:31  5-MIN KMSN 160115Z 27007KT 10SM OVC023 M03/M06 A3016 650 78 -1300 260/07 RMK AO2
14837KMSN MSN20020115192009901/15/02 19:20:31  5-MIN KMSN 160120Z 27005KT 10SM OVC023 M03/M06 A3016 650 78 -1300 270/05 RMK AO2
14837KMSN MSN20020115192509901/15/02 19:25:31  5-MIN KMSN 160125Z 28007KT 10SM OVC023 M03/M07 A3016 650 75 -1300 280/07 RMK AO2
14837KMSN MSN20020115193009901/15/02 19:30:31  5-MIN KMSN 160130Z 28006KT 10SM OVC023 M03/M07 A3015 650 75 -1300 280/06 RMK AO2
14837KMSN MSN20020115193509901/15/02 19:35:31  5-MIN KMSN 160135Z 29006KT 10SM OVC023 M03/M07 A3016 650 75 -1300 280/06 RMK AO2
14837KMSN MSN20020115194009901/15/02 19:40:31  5-MIN KMSN 160140Z 26005KT 10SM OVC023 M03/M07 A3015 650 75 -1300 260/05 RMK AO2
14837KMSN MSN20020115194509901/15/02 19:45:31  5-MIN KMSN 160145Z 27005KT 10SM OVC023 M03/M07 A3015 650 75 -1300 270/05 RMK AO2
14837KMSN MSN20020115195011601/15/02 19:50:31  5-MIN KMSN 160150Z 28006KT 10SM OVC023 M03/M07 A3015 650 74 -1400 280/06 RMK AO2 SLP222 T10331072
14837KMSN MSN20020115195511501/15/02 19:55:31  5-MIN KMSN 160155Z 28008KT 250V310 10SM OVC023 M03/M07 A3015 650 74 -1400 280/08 250V310 RMK AO2
14837KMSN MSN20020115200009901/15/02 20:00:31  5-MIN KMSN 160200Z 28007KT 10SM OVC023 M03/M07 A3015 650 74 -1400 280/07 RMK AO2
14837KMSN MSN20020115200509901/15/02 20:05:31  5-MIN KMSN 160205Z VRB05KT 10SM OVC023 M03/M07 A3015 650 74 -1400 VRB/05 RMK AO2
14837KMSN MSN20020115201009901/15/02 20:10:31  5-MIN KMSN 160210Z 27005KT 10SM OVC023 M03/M07 A3015 650 74 -1400 270/05 RMK AO2
14837KMSN MSN20020115201509901/15/02 20:15:31  5-MIN KMSN 160215Z 26006KT 10SM OVC023 M03/M07 A3015 650 74 -1400 260/06 RMK AO2
14837KMSN MSN20020115202009901/15/02 20:20:31  5-MIN KMSN 160220Z 28007KT 10SM OVC023 M03/M08 A3015 650 71 -1400 280/07 RMK AO2
14837KMSN MSN20020115202509901/15/02 20:25:31  5-MIN KMSN 160225Z 28005KT 10SM OVC025 M03/M07 A3015 650 74 -1400 270/05 RMK AO2
14837KMSN MSN20020115203009901/15/02 20:30:31  5-MIN KMSN 160230Z VRB04KT 10SM OVC025 M03/M07 A3015 650 74 -1400 VRB/04 RMK AO2
14837KMSN MSN20020115203509901/15/02 20:35:31  5-MIN KMSN 160235Z VRB03KT 10SM OVC025 M03/M07 A3016 650 74 -1400 VRB/03 RMK AO2
14837KMSN MSN20020115204009901/15/02 20:40:31  5-MIN KMSN 160240Z 26005KT 10SM OVC025 M03/M08 A3016 650 71 -1400 260/05 RMK AO2
14837KMSN MSN20020115204509901/15/02 20:45:31  5-MIN KMSN 160245Z 26004KT 10SM OVC025 M03/M08 A3016 640 71 -1400 260/04 RMK AO2
14837KMSN MSN20020115205012201/15/02 20:50:31  5-MIN KMSN 160250Z 27004KT 10SM OVC025 M03/M08 A3016 640 71 -1400 270/04 RMK AO2 SLP225 T10331078 51013
14837KMSN MSN20020115205509901/15/02 20:55:31  5-MIN KMSN 160255Z 26005KT 10SM OVC025 M03/M08 A3016 650 71 -1400 260/05 RMK AO2
14837KMSN MSN20020115210009901/15/02 21:00:31  5-MIN KMSN 160300Z 27005KT 10SM OVC025 M03/M08 A3016 650 71 -1400 270/05 RMK AO2
14837KMSN MSN20020115210509901/15/02 21:05:31  5-MIN KMSN 160305Z VRB04KT 10SM OVC025 M03/M08 A3016 650 71 -1400 VRB/04 RMK AO2
14837KMSN MSN20020115211009901/15/02 21:10:31  5-MIN KMSN 160310Z 27004KT 10SM OVC025 M03/M08 A3016 640 71 -1400 270/04 RMK AO2
14837KMSN MSN20020115211509901/15/02 21:15:31  5-MIN KMSN 160315Z 27004KT 10SM OVC025 M03/M08 A3016 640 71 -1400 270/04 RMK AO2
14837KMSN MSN20020115212009901/15/02 21:20:31  5-MIN KMSN 160320Z 28005KT 10SM OVC025 M03/M08 A3017 640 71 -1400 280/05 RMK AO2
14837KMSN MSN20020115212509901/15/02 21:25:31  5-MIN KMSN 160325Z VRB04KT 10SM OVC025 M04/M08 A3016 640 74 -1400 VRB/04 RMK AO2
14837KMSN MSN20020115213009901/15/02 21:30:31  5-MIN KMSN 160330Z 26004KT 10SM OVC025 M04/M08 A3016 640 74 -1400 260/04 RMK AO2
14837KMSN MSN20020115213509901/15/02 21:35:31  5-MIN KMSN 160335Z 27006KT 10SM OVC025 M04/M08 A3016 640 74 -1400 270/06 RMK AO2
14837KMSN MSN20020115214010601/15/02 21:40:31  5-MIN KMSN 160340Z 28006KT 10SM FEW018 OVC025 M04/M08 A3016 640 74 -1400 280/06 RMK AO2
14837KMSN MSN20020115214510601/15/02 21:45:31  5-MIN KMSN 160345Z 28006KT 10SM FEW018 OVC025 M04/M08 A3017 630 74 -1400 270/06 RMK AO2
14837KMSN MSN20020115215011601/15/02 21:50:31  5-MIN KMSN 160350Z 28006KT 10SM OVC025 M04/M08 A3017 630 74 -1400 280/06 RMK AO2 SLP229 T10391078
14837KMSN MSN20020115215509901/15/02 21:55:31  5-MIN KMSN 160355Z VRB05KT 10SM OVC025 M04/M08 A3017 630 74 -1400 VRB/05 RMK AO2
14837KMSN MSN20020115220009901/15/02 22:00:31  5-MIN KMSN 160400Z 28006KT 10SM OVC025 M04/M08 A3017 630 74 -1400 280/06 RMK AO2
14837KMSN MSN20020115220509901/15/02 22:05:31  5-MIN KMSN 160405Z 28005KT 10SM OVC025 M04/M08 A3017 630 74 -1500 280/05 RMK AO2
14837KMSN MSN20020115221009901/15/02 22:10:31  5-MIN KMSN 160410Z 29006KT 10SM OVC025 M04/M08 A3017 630 74 -1500 290/06 RMK AO2
14837KMSN MSN20020115221509901/15/02 22:15:31  5-MIN KMSN 160415Z 29008KT 10SM OVC025 M04/M08 A3018 630 74 -1500 280/08 RMK AO2
14837KMSN MSN20020115222009901/15/02 22:20:31  5-MIN KMSN 160420Z 29006KT 10SM OVC025 M04/M08 A3018 630 71 -1500 290/06 RMK AO2
14837KMSN MSN20020115222509901/15/02 22:25:31  5-MIN KMSN 160425Z 29007KT 10SM OVC025 M04/M08 A3017 630 74 -1500 290/07 RMK AO2
14837KMSN MSN20020115223009901/15/02 22:30:31  5-MIN KMSN 160430Z 29006KT 10SM OVC025 M04/M08 A3017 630 74 -1500 290/06 RMK AO2
14837KMSN MSN20020115223509901/15/02 22:35:31  5-MIN KMSN 160435Z 29006KT 10SM OVC025 M04/M08 A3018 630 74 -1500 280/06 RMK AO2
14837KMSN MSN20020115224009901/15/02 22:40:31  5-MIN KMSN 160440Z 29005KT 10SM OVC025 M04/M08 A3018 620 74 -1500 290/05 RMK AO2
14837KMSN MSN20020115224509901/15/02 22:45:31  5-MIN KMSN 160445Z 29005KT 10SM OVC025 M04/M08 A3018 630 74 -1500 290/05 RMK AO2
14837KMSN MSN20020115225011601/15/02 22:50:31  5-MIN KMSN 160450Z 30003KT 10SM OVC025 M04/M08 A3018 630 71 -1500 300/03 RMK AO2 SLP231 T10391083
14837KMSN MSN20020115225509901/15/02 22:55:31  5-MIN KMSN 160455Z 28004KT 10SM OVC025 M04/M08 A3018 620 74 -1500 280/04 RMK AO2
14837KMSN MSN20020115230009901/15/02 23:00:31  5-MIN KMSN 160500Z 28003KT 10SM OVC025 M04/M08 A3018 620 74 -1500 280/03 RMK AO2
14837KMSN MSN20020115230509901/15/02 23:05:31  5-MIN KMSN 160505Z 00000KT 10SM OVC025 M04/M08 A3018 620 74 -1500 000/00 RMK AO2
14837KMSN MSN20020115231009901/15/02 23:10:31  5-MIN KMSN 160510Z 29003KT 10SM OVC025 M04/M08 A3018 620 74 -1500 290/03 RMK AO2
14837KMSN MSN20020115231509901/15/02 23:15:31  5-MIN KMSN 160515Z 00000KT 10SM OVC025 M04/M08 A3018 620 74 -1500 000/00 RMK AO2
14837KMSN MSN20020115232009901/15/02 23:20:31  5-MIN KMSN 160520Z 00000KT 10SM OVC025 M04/M08 A3018 620 74 -1500 000/00 RMK AO2
14837KMSN MSN20020115232509901/15/02 23:25:31  5-MIN KMSN 160525Z 27003KT 10SM OVC025 M04/M08 A3018 620 74 -1500 270/03 RMK AO2
14837KMSN MSN20020115233009901/15/02 23:30:31  5-MIN KMSN 160530Z 25003KT 10SM OVC025 M04/M08 A3019 620 74 -1500 250/03 RMK AO2
14837KMSN MSN20020115233509901/15/02 23:35:31  5-MIN KMSN 160535Z 23004KT 10SM OVC025 M04/M08 A3019 620 74 -1500 230/04 RMK AO2
14837KMSN MSN20020115234009901/15/02 23:40:31  5-MIN KMSN 160540Z 24005KT 10SM OVC025 M04/M08 A3019 620 74 -1500 240/05 RMK AO2
14837KMSN MSN20020115234509901/15/02 23:45:31  5-MIN KMSN 160545Z 24005KT 10SM OVC025 M04/M08 A3019 620 74 -1500 240/05 RMK AO2
14837KMSN MSN20020115235014401/15/02 23:50:31  5-MIN KMSN 160550Z 25004KT 10SM OVC025 M04/M08 A3019 620 74 -1500 250/04 RMK AO2 SLP235 T10391078 11022 21039 410061039 51005
14837KMSN MSN20020115235509901/15/02 23:55:31  5-MIN KMSN 160555Z VRB04KT 10SM OVC025 M04/M08 A3019 620 74 -1500 VRB/04 RMK AO2
14837KMSN MSN20020116000009901/16/02 00:00:31  5-MIN KMSN 160600Z 26004KT 10SM OVC025 M04/M08 A3019 620 74 -1500 260/04 RMK AO2
14837KMSN MSN20020116000509901/16/02 00:05:31  5-MIN KMSN 160605Z VRB05KT 10SM OVC025 M04/M08 A3019 620 74 -1500 VRB/05 RMK AO2
14837KMSN MSN20020116001009901/16/02 00:10:31  5-MIN KMSN 160610Z VRB05KT 10SM OVC025 M04/M08 A3018 620 71 -1500 VRB/05 RMK AO2
14837KMSN MSN20020116001509901/16/02 00:15:31  5-MIN KMSN 160615Z 26004KT 10SM OVC025 M04/M08 A3019 620 74 -1500 260/04 RMK AO2
14837KMSN MSN20020116002009901/16/02 00:20:31  5-MIN KMSN 160620Z 27004KT 10SM OVC025 M04/M08 A3018 620 74 -1500 270/04 RMK AO2
14837KMSN MSN20020116002509901/16/02 00:25:31  5-MIN KMSN 160625Z 27005KT 10SM OVC025 M04/M08 A3019 620 74 -1500 270/05 RMK AO2
14837KMSN MSN20020116003009901/16/02 00:30:31  5-MIN KMSN 160630Z 26006KT 10SM OVC025 M04/M08 A3019 620 74 -1500 260/06 RMK AO2
14837KMSN MSN20020116003509901/16/02 00:35:31  5-MIN KMSN 160635Z 26007KT 10SM OVC025 M04/M08 A3019 620 74 -1500 260/07 RMK AO2
14837KMSN MSN20020116004009901/16/02 00:40:31  5-MIN KMSN 160640Z 26005KT 10SM OVC025 M04/M08 A3019 610 74 -1500 260/05 RMK AO2
14837KMSN MSN20020116004509901/16/02 00:45:31  5-MIN KMSN 160645Z 25006KT 10SM OVC025 M04/M08 A3020 610 74 -1500 250/06 RMK AO2
14837KMSN MSN20020116005011601/16/02 00:50:31  5-MIN KMSN 160650Z 25008KT 10SM OVC025 M04/M08 A3020 610 74 -1500 250/08 RMK AO2 SLP237 T10391078
14837KMSN MSN20020116005509901/16/02 00:55:31  5-MIN KMSN 160655Z 25006KT 10SM OVC025 M04/M08 A3019 610 78 -1500 250/06 RMK AO2
14837KMSN MSN20020116010009901/16/02 01:00:31  5-MIN KMSN 160700Z VRB05KT 10SM OVC025 M04/M08 A3020 610 78 -1500 VRB/05 RMK AO2
14837KMSN MSN20020116010509901/16/02 01:05:31  5-MIN KMSN 160705Z 26005KT 10SM OVC025 M04/M08 A3020 610 78 -1500 260/05 RMK AO2
14837KMSN MSN20020116011010601/16/02 01:10:31  5-MIN KMSN 160710Z VRB06KT 10SM BKN027 OVC032 M04/M08 A3020 610 74 -1500 VRB/06 RMK AO2
14837KMSN MSN20020116011510601/16/02 01:15:31  5-MIN KMSN 160715Z VRB04KT 10SM BKN025 OVC032 M04/M08 A3019 610 74 -1500 VRB/04 RMK AO2
14837KMSN MSN20020116012010601/16/02 01:20:31  5-MIN KMSN 160720Z 26005KT 10SM BKN025 BKN032 M04/M08 A3019 610 74 -1500 260/05 RMK AO2
14837KMSN MSN20020116012510601/16/02 01:25:31  5-MIN KMSN 160725Z 27005KT 10SM BKN025 BKN032 M04/M08 A3019 610 74 -1500 270/05 RMK AO2
14837KMSN MSN20020116013010601/16/02 01:30:31  5-MIN KMSN 160730Z 27004KT 10SM BKN025 BKN032 M04/M08 A3019 620 74 -1500 270/04 RMK AO2
14837KMSN MSN20020116013510601/16/02 01:35:31  5-MIN KMSN 160735Z VRB03KT 10SM BKN025 BKN032 M05/M09 A3019 620 74 -1600 VRB/03 RMK AO2
14837KMSN MSN20020116014010601/16/02 01:40:31  5-MIN KMSN 160740Z 27004KT 10SM BKN025 OVC030 M05/M08 A3019 620 77 -1600 270/04 RMK AO2
14837KMSN MSN20020116014509901/16/02 01:45:31  5-MIN KMSN 160745Z 27004KT 10SM OVC027 M05/M08 A3019 610 77 -1600 270/04 RMK AO2
14837KMSN MSN20020116015011601/16/02 01:50:31  5-MIN KMSN 160750Z VRB03KT 10SM OVC027 M04/M08 A3019 620 74 -1500 VRB/03 RMK AO2 SLP234 T10441083
14837KMSN MSN20020116015510601/16/02 01:55:31  5-MIN KMSN 160755Z 29003KT 10SM BKN025 OVC030 M04/M08 A3019 620 74 -1500 290/03 RMK AO2
14837KMSN MSN20020116020010601/16/02 02:00:31  5-MIN KMSN 160800Z VRB03KT 10SM BKN025 OVC030 M04/M08 A3019 610 74 -1500 VRB/03 RMK AO2
14837KMSN MSN20020116020510601/16/02 02:05:31  5-MIN KMSN 160805Z 28004KT 10SM BKN025 OVC030 M04/M08 A3019 620 74 -1500 280/04 RMK AO2
14837KMSN MSN20020116021009901/16/02 02:10:31  5-MIN KMSN 160810Z VRB04KT 10SM OVC025 M04/M08 A3019 620 74 -1500 VRB/04 RMK AO2
14837KMSN MSN20020116021509901/16/02 02:15:31  5-MIN KMSN 160815Z 30003KT 10SM OVC025 M04/M08 A3019 620 74 -1500 300/03 RMK AO2
14837KMSN MSN20020116022009901/16/02 02:20:31  5-MIN KMSN 160820Z 33003KT 10SM OVC025 M04/M08 A3019 620 74 -1500 330/03 RMK AO2
14837KMSN MSN20020116022509901/16/02 02:25:31  5-MIN KMSN 160825Z 00000KT 10SM OVC025 M04/M08 A3019 620 74 -1500 000/00 RMK AO2
14837KMSN MSN20020116023009901/16/02 02:30:31  5-MIN KMSN 160830Z 00000KT 10SM OVC025 M05/M08 A3018 630 77 -1600 000/00 RMK AO2
14837KMSN MSN20020116023509901/16/02 02:35:31  5-MIN KMSN 160835Z 00000KT 10SM OVC025 M05/M08 A3018 630 81 -1600 000/00 RMK AO2
14837KMSN MSN20020116024009901/16/02 02:40:31  5-MIN KMSN 160840Z 00000KT 10SM OVC025 M04/M08 A3018 630 78 -1500 000/00 RMK AO2
14837KMSN MSN20020116024509901/16/02 02:45:31  5-MIN KMSN 160845Z 00000KT 10SM OVC023 M05/M09 A3018 630 71 -1600 000/00 RMK AO2
14837KMSN MSN20020116025012201/16/02 02:50:31  5-MIN KMSN 160850Z 00000KT 10SM OVC023 M05/M09 A3018 630 74 -1600 000/00 RMK AO2 SLP231 T10501089 51011
14837KMSN MSN20020116025509901/16/02 02:55:31  5-MIN KMSN 160855Z 00000KT 10SM OVC023 M04/M08 A3018 630 74 -1500 000/00 RMK AO2
14837KMSN MSN20020116030009901/16/02 03:00:31  5-MIN KMSN 160900Z 00000KT 10SM OVC023 M04/M08 A3019 620 74 -1500 000/00 RMK AO2
14837KMSN MSN20020116030509901/16/02 03:05:31  5-MIN KMSN 160905Z 00000KT 10SM OVC023 M04/M08 A3019 620 74 -1500 000/00 RMK AO2
14837KMSN MSN20020116031009901/16/02 03:10:31  5-MIN KMSN 160910Z 00000KT 10SM OVC023 M04/M08 A3019 620 74 -1500 000/00 RMK AO2
14837KMSN MSN20020116031509901/16/02 03:15:31  5-MIN KMSN 160915Z 00000KT 10SM OVC023 M04/M08 A3018 630 74 -1500 000/00 RMK AO2
14837KMSN MSN20020116032009901/16/02 03:20:31  5-MIN KMSN 160920Z 00000KT 10SM OVC023 M04/M08 A3018 620 74 -1500 000/00 RMK AO2
14837KMSN MSN20020116032509901/16/02 03:25:31  5-MIN KMSN 160925Z 00000KT 10SM OVC023 M04/M08 A3018 630 74 -1500 000/00 RMK AO2
14837KMSN MSN20020116033009901/16/02 03:30:31  5-MIN KMSN 160930Z 00000KT 10SM OVC023 M04/M08 A3018 630 74 -1500 000/00 RMK AO2
14837KMSN MSN20020116033509901/16/02 03:35:31  5-MIN KMSN 160935Z 00000KT 10SM OVC023 M04/M08 A3018 630 74 -1500 000/00 RMK AO2
14837KMSN MSN20020116034009901/16/02 03:40:31  5-MIN KMSN 160940Z 00000KT 10SM OVC023 M04/M08 A3017 630 74 -1500 000/00 RMK AO2
14837KMSN MSN20020116034509901/16/02 03:45:31  5-MIN KMSN 160945Z 00000KT 10SM OVC023 M04/M08 A3017 630 74 -1500 000/00 RMK AO2
14837KMSN MSN20020116035011601/16/02 03:50:31  5-MIN KMSN 160950Z 00000KT 10SM OVC023 M04/M08 A3017 640 74 -1500 000/00 RMK AO2 SLP227 T10441083
14837KMSN MSN20020116035509901/16/02 03:55:31  5-MIN KMSN 160955Z 00000KT 10SM OVC023 M04/M08 A3017 640 74 -1500 000/00 RMK AO2
14837KMSN MSN20020116040009901/16/02 04:00:31  5-MIN KMSN 161000Z 00000KT 10SM OVC023 M04/M08 A3016 640 74 -1500 000/00 RMK AO2
14837KMSN MSN20020116040509901/16/02 04:05:31  5-MIN KMSN 161005Z 00000KT 10SM OVC023 M04/M08 A3016 640 74 -1500 000/00 RMK AO2
14837KMSN MSN20020116041009901/16/02 04:10:31  5-MIN KMSN 161010Z 00000KT 10SM OVC023 M04/M08 A3016 640 74 -1500 000/00 RMK AO2
14837KMSN MSN20020116041509901/16/02 04:15:31  5-MIN KMSN 161015Z 00000KT 10SM OVC023 M04/M08 A3016 640 74 -1500 000/00 RMK AO2
14837KMSN MSN20020116042009901/16/02 04:20:31  5-MIN KMSN 161020Z 00000KT 10SM OVC023 M04/M08 A3016 640 74 -1500 000/00 RMK AO2
14837KMSN MSN20020116042509901/16/02 04:25:31  5-MIN KMSN 161025Z 00000KT 10SM OVC023 M04/M08 A3016 640 74 -1500 000/00 RMK AO2
14837KMSN MSN20020116043009901/16/02 04:30:31  5-MIN KMSN 161030Z 00000KT 10SM OVC023 M04/M08 A3015 650 74 -1500 000/00 RMK AO2
14837KMSN MSN20020116043509901/16/02 04:35:31  5-MIN KMSN 161035Z 00000KT 10SM OVC023 M04/M09 A3015 650 71 -1500 000/00 RMK AO2
14837KMSN MSN20020116044009901/16/02 04:40:31  5-MIN KMSN 161040Z 00000KT 10SM OVC023 M04/M08 A3015 650 74 -1500 000/00 RMK AO2
14837KMSN MSN20020116044509901/16/02 04:45:31  5-MIN KMSN 161045Z 00000KT 10SM OVC023 M04/M09 A3015 650 71 -1500 000/00 RMK AO2
14837KMSN MSN20020116045011601/16/02 04:50:31  5-MIN KMSN 161050Z 00000KT 10SM OVC023 M04/M08 A3015 650 74 -1500 000/00 RMK AO2 SLP222 T10441083
14837KMSN MSN20020116045509901/16/02 04:55:31  5-MIN KMSN 161055Z 00000KT 10SM OVC023 M04/M08 A3015 650 74 -1500 000/00 RMK AO2
14837KMSN MSN20020116050009901/16/02 05:00:31  5-MIN KMSN 161100Z 00000KT 10SM OVC023 M04/M08 A3015 660 74 -1500 000/00 RMK AO2
14837KMSN MSN20020116050509901/16/02 05:05:31  5-MIN KMSN 161105Z 00000KT 10SM OVC021 M04/M08 A3014 660 74 -1500 000/00 RMK AO2
14837KMSN MSN20020116051010601/16/02 05:10:31  5-MIN KMSN 161110Z 00000KT 10SM BKN021 OVC065 M04/M08 A3014 660 74 -1500 000/00 RMK AO2
14837KMSN MSN20020116051510601/16/02 05:15:31  5-MIN KMSN 161115Z 16003KT 10SM BKN021 OVC065 M04/M08 A3014 660 78 -1500 160/03 RMK AO2
14837KMSN MSN20020116052010601/16/02 05:20:31  5-MIN KMSN 161120Z 16003KT 10SM BKN021 OVC065 M04/M08 A3014 660 74 -1500 160/03 RMK AO2
14837KMSN MSN20020116052510601/16/02 05:25:31  5-MIN KMSN 161125Z 18006KT 10SM BKN021 OVC065 M04/M08 A3014 660 74 -1500 180/06 RMK AO2
14837KMSN MSN20020116053010601/16/02 05:30:31  5-MIN KMSN 161130Z 19005KT 10SM BKN021 OVC060 M04/M08 A3014 660 78 -1500 190/05 RMK AO2
14837KMSN MSN20020116053511301/16/02 05:35:31  5-MIN KMSN 161135Z 19005KT 10SM BKN023 BKN060 OVC090 M04/M08 A3014 660 78 -1500 190/05 RMK AO2
14837KMSN MSN20020116054012901/16/02 05:40:31  5-MIN KMSN 161140Z 19005KT 10SM -SN BKN023 BKN048 OVC085 M04/M08 A3014 660 74 -1500 190/05 RMK AO2 SNB40 P0000
14837KMSN MSN20020116054512801/16/02 05:45:31  5-MIN KMSN 161145Z 20004KT 9SM -SN SCT023 BKN040 OVC080 M04/M08 A3014 660 78 -1500 200/04 RMK AO2 SNB40 P0000
14837KMSN MSN20020116055016901/16/02 05:50:31  5-MIN KMSN 161150Z 19005KT 7SM -SN FEW023 BKN036 OVC080 M04/M08 A3014 660 78 -1500 190/05 RMK AO2 SNB40 SLP219 P0000 60000 T10441078 11039 21050 58004
14837KMSN MSN20020116055512201/16/02 05:55:31  5-MIN KMSN 161155Z 19005KT 5SM -SN FEW023 BKN034 OVC090 M04/M08 A3014 660 78 -1500 190/05 RMK AO2 P0000
14837KMSN MSN20020116060012201/16/02 06:00:31  5-MIN KMSN 161200Z 19005KT 5SM -SN FEW023 BKN043 OVC085 M04/M08 A3014 660 78 -1500 190/05 RMK AO2 P0000
14837KMSN MSN20020116060512201/16/02 06:05:31  5-MIN KMSN 161205Z 19005KT 6SM -SN BKN050 BKN080 OVC090 M04/M08 A3013 670 78 -1500 180/05 RMK AO2 P0000
14837KMSN MSN20020116061012201/16/02 06:10:31  5-MIN KMSN 161210Z 19005KT 5SM -SN BKN055 BKN080 OVC090 M04/M07 A3012 680 81 -1500 190/05 RMK AO2 P0000
14837KMSN MSN20020116061511501/16/02 06:15:31  5-MIN KMSN 161215Z 19005KT 5SM -SN BKN060 OVC090 M04/M07 A3013 670 81 -1500 190/05 RMK AO2 P0000
14837KMSN MSN20020116062011501/16/02 06:20:31  5-MIN KMSN 161220Z 19004KT 5SM -SN BKN070 OVC090 M04/M07 A3013 670 81 -1500 190/04 RMK AO2 P0000
14837KMSN MSN20020116062511501/16/02 06:25:31  5-MIN KMSN 161225Z 20003KT 5SM -SN BKN075 OVC090 M04/M07 A3012 680 81 -1500 200/03 RMK AO2 P0000
14837KMSN MSN20020116063011501/16/02 06:30:31  5-MIN KMSN 161230Z 19005KT 5SM -SN BKN075 OVC090 M04/M07 A3012 680 81 -1500 190/05 RMK AO2 P0000
14837KMSN MSN20020116063511501/16/02 06:35:31  5-MIN KMSN 161235Z 19004KT 5SM -SN BKN070 OVC090 M04/M07 A3012 680 81 -1500 190/04 RMK AO2 P0000
14837KMSN MSN20020116064011501/16/02 06:40:31  5-MIN KMSN 161240Z 19004KT 4SM -SN BKN075 OVC090 M04/M07 A3011 690 81 -1500 190/04 RMK AO2 P0000
14837KMSN MSN20020116064511801/16/02 06:45:31  5-MIN KMSN 161245Z 17005KT 4SM -SN BR BKN080 OVC090 M04/M07 A3011 690 84 -1400 170/05 RMK AO2 P0000
14837KMSN MSN20020116065012801/16/02 06:50:31  5-MIN KMSN 161250Z 17006KT 4SM -SN BR OVC080 M04/M07 A3011 690 84 -1500 170/06 RMK AO2 SLP209 P0000 T10441067
14837KMSN MSN20020116065511101/16/02 06:55:31  5-MIN KMSN 161255Z 18005KT 4SM -SN BR OVC080 M04/M07 A3011 690 84 -1500 170/05 RMK AO2 P0000
14837KMSN MSN20020116070011801/16/02 07:00:31  5-MIN KMSN 161300Z 16005KT 4SM -SN BR BKN080 OVC095 M04/M07 A3011 690 84 -1400 160/05 RMK AO2 P0000
14837KMSN MSN20020116070511801/16/02 07:05:31  5-MIN KMSN 161305Z 18005KT 4SM -SN BR BKN080 OVC090 M04/M07 A3011 690 84 -1500 180/05 RMK AO2 P0000
14837KMSN MSN20020116071011801/16/02 07:10:31  5-MIN KMSN 161310Z 18006KT 4SM -SN BR BKN070 OVC090 M04/M07 A3011 690 84 -1500 180/06 RMK AO2 P0000
14837KMSN MSN20020116071511801/16/02 07:15:31  5-MIN KMSN 161315Z 16006KT 4SM -SN BR BKN065 OVC090 M04/M06 A3011 690 88 -1500 160/06 RMK AO2 P0000
14837KMSN MSN20020116072011801/16/02 07:20:31  5-MIN KMSN 161320Z 17006KT 4SM -SN BR BKN060 OVC085 M04/M07 A3011 690 84 -1500 160/06 RMK AO2 P0000
14837KMSN MSN20020116072511801/16/02 07:25:31  5-MIN KMSN 161325Z 16006KT 4SM -SN BR BKN050 OVC090 M04/M06 A3011 690 88 -1500 160/06 RMK AO2 P0000
14837KMSN MSN20020116073011101/16/02 07:30:31  5-MIN KMSN 161330Z 16007KT 2SM -SN BR OVC044 M04/M06 A3011 690 88 -1500 160/07 RMK AO2 P0000
14837KMSN MSN20020116073511101/16/02 07:35:31  5-MIN KMSN 161335Z 16006KT 2SM -SN BR OVC035 M04/M06 A3011 690 88 -1400 160/06 RMK AO2 P0000
14837KMSN MSN20020116074011101/16/02 07:40:31  5-MIN KMSN 161340Z 16007KT 2SM -SN BR OVC030 M05/M06 A3011 690 92 -1500 160/07 RMK AO2 P0000
14837KMSN MSN20020116074512501/16/02 07:45:31  5-MIN KMSN 161345Z 16006KT 1 1/2SM -SN BR OVC024 M04/M06 A3010 700 88 -1400 160/06 RMK AO2 TWR VIS 2 P0000
14837KMSN MSN20020116075013701/16/02 07:50:31  5-MIN KMSN 161350Z 15005KT 1SM -SN BR VV019 M04/M06 A3010 700 88 -1400 150/05 RMK AO2 TWR VIS 2 SLP205 P0000 T10441061
14837KMSN MSN20020116075512201/16/02 07:55:31  5-MIN KMSN 161355Z 16005KT 3/4SM -SN BR VV014 M04/M06 A3010 700 88 -1400 160/05 RMK AO2 TWR VIS 2 P0000
14837KMSN MSN20020116080011001/16/02 08:00:31  5-MIN KMSN 161400Z 16005KT 1SM -SN BR VV013 M04/M06 A3010 700 88 -1400 150/05 RMK AO2 P0000
14837KMSN MSN20020116080511001/16/02 08:05:31  5-MIN KMSN 161405Z 16005KT 1SM -SN BR VV013 M04/M06 A3009 700 88 -1400 160/05 RMK AO2 P0000
14837KMSN MSN20020116081011001/16/02 08:10:31  5-MIN KMSN 161410Z 15005KT 1SM -SN BR VV014 M04/M06 A3009 710 88 -1400 150/05 RMK AO2 P0000
14837KMSN MSN20020116081511001/16/02 08:15:31  5-MIN KMSN 161415Z 16005KT 1SM -SN BR VV015 M04/M06 A3009 710 88 -1400 160/05 RMK AO2 P0000
14837KMSN MSN20020116082011801/16/02 08:20:31  5-MIN KMSN 161420Z 17005KT 1SM -SN BR BKN015 OVC025 M04/M06 A3010 700 88 -1400 170/05 RMK AO2 P0000
14837KMSN MSN20020116082513201/16/02 08:25:31  5-MIN KMSN 161425Z 17005KT 1 1/2SM -SN BR BKN015 OVC025 M04/M06 A3009 700 92 -1400 170/05 RMK AO2 TWR VIS 2 P0000
14837KMSN MSN20020116083013201/16/02 08:30:31  5-MIN KMSN 161430Z 16005KT 1 1/2SM -SN BR BKN017 OVC025 M04/M06 A3009 710 88 -1400 160/05 RMK AO2 TWR VIS 2 P0000
14837KMSN MSN20020116083513201/16/02 08:35:31  5-MIN KMSN 161435Z 16006KT 1 1/4SM -SN BR BKN017 OVC025 M04/M06 A3009 710 92 -1400 160/06 RMK AO2 TWR VIS 2 P0000
14837KMSN MSN20020116084012801/16/02 08:40:31  5-MIN KMSN 161440Z 15005KT 1SM -SN BR BKN017 OVC025 M04/M06 A3008 720 92 -1400 150/05 RMK AO2 TWR VIS 2 P0000
14837KMSN MSN20020116084512801/16/02 08:45:31  5-MIN KMSN 161445Z 15006KT 1SM -SN BR BKN015 OVC025 M04/M06 A3008 720 92 -1400 150/06 RMK AO2 TWR VIS 2 P0001
14837KMSN MSN20020116085013901/16/02 08:50:31  5-MIN KMSN 161450Z 16005KT 1SM -SN BR VV014 M04/M06 A3008 720 92 -1400 160/05 RMK AO2 SLP198 P0001 60001 T10441056 56013
14837KMSN MSN20020116085511001/16/02 08:55:31  5-MIN KMSN 161455Z 16006KT 1SM -SN BR VV013 M04/M06 A3008 720 92 -1400 160/06 RMK AO2 P0000
14837KMSN MSN20020116090011001/16/02 09:00:31  5-MIN KMSN 161500Z 16005KT 1SM -SN BR VV012 M04/M06 A3008 720 88 -1400 160/05 RMK AO2 P0000
14837KMSN MSN20020116090511201/16/02 09:05:31  5-MIN KMSN 161505Z 17006KT 3/4SM -SN BR VV010 M04/M06 A3008 720 92 -1400 170/06 RMK AO2 P0000
14837KMSN MSN20020116091011201/16/02 09:10:31  5-MIN KMSN 161510Z 17006KT 3/4SM -SN BR VV008 M04/M06 A3008 720 92 -1400 170/06 RMK AO2 P0000
14837KMSN MSN20020116091511201/16/02 09:15:31  5-MIN KMSN 161515Z 17007KT 3/4SM -SN BR VV008 M04/M06 A3007 720 92 -1400 170/07 RMK AO2 P0000
14837KMSN MSN20020116092012001/16/02 09:20:31  5-MIN KMSN 161520Z 17007KT 3/4SM -SN BR BKN008 OVC019 M04/M06 A3008 720 92 -1400 170/07 RMK AO2 P0000
14837KMSN MSN20020116092512001/16/02 09:25:31  5-MIN KMSN 161525Z 16007KT 3/4SM -SN BR BKN008 OVC019 M04/M06 A3008 720 92 -1400 160/07 RMK AO2 P0001
14837KMSN MSN20020116093012001/16/02 09:30:31  5-MIN KMSN 161530Z 17007KT 3/4SM -SN BR BKN008 OVC019 M04/M06 A3008 720 92 -1400 160/07 RMK AO2 P0001
14837KMSN MSN20020116093513301/16/02 09:35:31  5-MIN KMSN 161535Z 15004KT 1/2SM SN FZFG BKN008 OVC019 M04/M06 A3007 720 92 -1400 150/04 RMK AO2 TWR VIS 3/4 P0001
14837KMSN MSN20020116094012001/16/02 09:40:31  5-MIN KMSN 161540Z 16004KT 3/4SM -SN BR BKN008 OVC019 M04/M06 A3007 720 92 -1400 160/04 RMK AO2 P0001
14837KMSN MSN20020116094512001/16/02 09:45:31  5-MIN KMSN 161545Z 17006KT 3/4SM -SN BR BKN008 OVC019 M04/M06 A3008 720 92 -1400 170/06 RMK AO2 P0001
14837KMSN MSN20020116095014801/16/02 09:50:31  5-MIN KMSN 161550Z 16005KT 3/4SM -SN BR BKN008 OVC019 M04/M06 A3008 720 92 -1400 160/05 RMK AO2 SLP198 SNINCR 1/2 P0003 T10441056
14837KMSN MSN20020116095512001/16/02 09:55:31  5-MIN KMSN 161555Z 17005KT 3/4SM -SN BR BKN008 OVC019 M04/M06 A3008 720 92 -1400 170/05 RMK AO2 P0000
14837KMSN MSN20020116100011201/16/02 10:00:31  5-MIN KMSN 161600Z 18006KT 3/4SM -SN BR VV008 M04/M06 A3008 720 88 -1300 180/06 RMK AO2 P0000
14837KMSN MSN20020116100512001/16/02 10:05:31  5-MIN KMSN 161605Z 16006KT 3/4SM -SN BR BKN008 OVC012 M04/M06 A3007 720 88 -1300 160/06 RMK AO2 P0000
14837KMSN MSN20020116101012701/16/02 10:10:31  5-MIN KMSN 161610Z 16007KT 3/4SM -SN BR BKN008 BKN012 OVC020 M04/M06 A3007 730 92 -1400 160/07 RMK AO2 P0000
14837KMSN MSN20020116101512001/16/02 10:15:31  5-MIN KMSN 161615Z 16005KT 3/4SM -SN BR BKN008 OVC017 M04/M06 A3007 730 88 -1300 160/05 RMK AO2 P0001
14837KMSN MSN20020116102012001/16/02 10:20:31  5-MIN KMSN 161620Z 17005KT 3/4SM -SN BR BKN008 OVC015 M04/M06 A3007 730 92 -1400 170/05 RMK AO2 P0001
14837KMSN MSN20020116102512001/16/02 10:25:31  5-MIN KMSN 161625Z 18005KT 3/4SM -SN BR BKN008 OVC015 M04/M05 A3006 730 92 -1300 180/05 RMK AO2 P0001
14837KMSN MSN20020116103012001/16/02 10:30:31  5-MIN KMSN 161630Z 18005KT 3/4SM -SN BR BKN008 OVC015 M04/M06 A3006 730 88 -1300 180/05 RMK AO2 P0001
14837KMSN MSN20020116103511201/16/02 10:35:31  5-MIN KMSN 161635Z 17004KT 3/4SM -SN BR VV009 M04/M06 A3006 740 88 -1300 170/04 RMK AO2 P0002
14837KMSN MSN20020116104011201/16/02 10:40:31  5-MIN KMSN 161640Z 17004KT 3/4SM -SN BR VV008 M04/M06 A3006 740 88 -1300 170/04 RMK AO2 P0002
14837KMSN MSN20020116104511201/16/02 10:45:31  5-MIN KMSN 161645Z 16004KT 3/4SM -SN BR VV008 M04/M05 A3005 740 92 -1300 160/04 RMK AO2 P0002
14837KMSN MSN20020116105014001/16/02 10:50:31  5-MIN KMSN 161650Z 16003KT 3/4SM -SN BR VV008 M04/M05 A3005 750 92 -1300 160/03 RMK AO2 SLP187 SNINCR 1/2 P0004 T10391050
14837KMSN MSN20020116105511201/16/02 10:55:31  5-MIN KMSN 161655Z 16004KT 3/4SM -SN BR VV008 M04/M05 A3004 750 92 -1300 160/04 RMK AO2 P0000
14837KMSN MSN20020116110012001/16/02 11:00:31  5-MIN KMSN 161700Z 16004KT 3/4SM -SN BR BKN008 OVC022 M04/M05 A3004 750 92 -1300 160/04 RMK AO2 P0001
14837KMSN MSN20020116110512001/16/02 11:05:31  5-MIN KMSN 161705Z 17005KT 3/4SM -SN BR BKN010 OVC022 M04/M05 A3004 750 92 -1300 160/05 RMK AO2 P0001
14837KMSN MSN20020116111013001/16/02 11:10:31  5-MIN KMSN 161710Z 16004KT 3/4SM -SN BR BKN010 OVC024 M04/M05 A3004 750 92 -1300 160/04 RMK AO2 SFC VIS 1 P0001
14837KMSN MSN20020116111513001/16/02 11:15:31  5-MIN KMSN 161715Z 17004KT 3/4SM -SN BR BKN012 OVC024 M04/M05 A3003 760 92 -1300 170/04 RMK AO2 SFC VIS 1 P0001
14837KMSN MSN20020116112013001/16/02 11:20:31  5-MIN KMSN 161720Z 18005KT 3/4SM -SN BR BKN014 OVC024 M04/M05 A3003 770 92 -1300 180/05 RMK AO2 SFC VIS 1 P0001
14837KMSN MSN20020116112513001/16/02 11:25:31  5-MIN KMSN 161725Z 17004KT 3/4SM -SN BR BKN016 OVC024 M04/M05 A3002 770 92 -1300 170/04 RMK AO2 SFC VIS 1 P0001
14837KMSN MSN20020116113012001/16/02 11:30:31  5-MIN KMSN 161730Z 16005KT 3/4SM -SN BR BKN016 OVC026 M04/M05 A3002 770 92 -1300 160/05 RMK AO2 P0002
14837KMSN MSN20020116113512701/16/02 11:35:31  5-MIN KMSN 161735Z 16003KT 3/4SM -SN BR BKN011 BKN018 OVC026 M04/M05 A3002 780 92 -1300 160/03 RMK AO2 P0002
14837KMSN MSN20020116114012001/16/02 11:40:31  5-MIN KMSN 161740Z 17004KT 3/4SM -SN BR BKN009 OVC018 M04/M05 A3001 780 92 -1300 170/04 RMK AO2 P0002
14837KMSN MSN20020116114512001/16/02 11:45:31  5-MIN KMSN 161745Z 16005KT 3/4SM -SN BR BKN009 OVC018 M04/M05 A3001 780 92 -1300 160/05 RMK AO2 P0002
14837KMSN MSN20020116115017401/16/02 11:50:31  5-MIN KMSN 161750Z 16004KT 3/4SM -SN BR BKN007 OVC018 M04/M05 A3000 790 92 -1300 160/04 RMK AO2 PRESFR SLP171 P0003 60011 4/003 T10391050 11039 21050 56021
14837KMSN MSN20020116115513201/16/02 11:55:31  5-MIN KMSN 161755Z 16003KT 1/2SM -SN BR BKN007 OVC016 M04/M05 A3000 790 92 -1200 160/03 RMK AO2 TWR VIS 3/4 P0000
14837KMSN MSN20020116120011201/16/02 12:00:31  5-MIN KMSN 161800Z 14003KT 3/4SM -SN BR VV007 M04/M05 A2999 800 92 -1200 140/03 RMK AO2 P0000
14837KMSN MSN20020116120511201/16/02 12:05:31  5-MIN KMSN 161805Z 00000KT 3/4SM -SN BR VV007 M04/M04 A2999 800 96 -1200 000/00 RMK AO2 P0000
14837KMSN MSN20020116121011201/16/02 12:10:31  5-MIN KMSN 161810Z 00000KT 3/4SM -SN BR VV007 M04/M04 A2999 800 96 -1200 000/00 RMK AO2 P0001
14837KMSN MSN20020116121511201/16/02 12:15:31  5-MIN KMSN 161815Z 00000KT 3/4SM -SN BR VV007 M03/M04 A2998 810 92 -1200 000/00 RMK AO2 P0001
14837KMSN MSN20020116122012001/16/02 12:20:31  5-MIN KMSN 161820Z 00000KT 3/4SM -SN BR BKN007 OVC019 M03/M04 A2998 810 92 -1200 000/00 RMK AO2 P0001
14837KMSN MSN20020116122512001/16/02 12:25:31  5-MIN KMSN 161825Z 00000KT 3/4SM -SN BR BKN007 OVC019 M03/M04 A2997 820 92 -1200 000/00 RMK AO2 P0001
14837KMSN MSN20020116123012701/16/02 12:30:31  5-MIN KMSN 161830Z 00000KT 3/4SM -SN BR BKN008 OVC020 M03/M04 A2996 820 92 -1100 000/00 RMK AO2 PRESFR P0002
14837KMSN MSN20020116123512001/16/02 12:35:31  5-MIN KMSN 161835Z 00000KT 3/4SM -SN BR BKN008 OVC020 M03/M04 A2996 830 92 -1100 000/00 RMK AO2 P0002
14837KMSN MSN20020116124012001/16/02 12:40:31  5-MIN KMSN 161840Z 00000KT 3/4SM -SN BR BKN007 OVC020 M03/M04 A2996 830 92 -1100 000/00 RMK AO2 P0002
14837KMSN MSN20020116124512001/16/02 12:45:31  5-MIN KMSN 161845Z 00000KT 3/4SM -SN BR BKN007 OVC020 M03/M04 A2995 830 92 -1100 000/00 RMK AO2 P0002
14837KMSN MSN20020116125012901/16/02 12:50:31  5-MIN KMSN 161850Z 00000KT 3/4SM -SN BR VV007 M03/M04 A2995 840 88 -1100 000/00 RMK AO2 SLP154 P0003 T10281044
14837KMSN MSN20020116125511201/16/02 12:55:31  5-MIN KMSN 161855Z 00000KT 3/4SM -SN BR VV007 M03/M04 A2994 840 92 -1100 000/00 RMK AO2 P0000
14837KMSN MSN20020116130012701/16/02 13:00:31  5-MIN KMSN 161900Z 00000KT 3/4SM -SN BR BKN008 OVC023 M03/M04 A2994 850 92 -1100 000/00 RMK AO2 PRESFR P0000
14837KMSN MSN20020116130512001/16/02 13:05:31  5-MIN KMSN 161905Z 00000KT 3/4SM -SN BR BKN008 OVC023 M03/M04 A2993 850 88 -1000 000/00 RMK AO2 P0000
14837KMSN MSN20020116131012001/16/02 13:10:31  5-MIN KMSN 161910Z 00000KT 3/4SM -SN BR BKN008 OVC021 M03/M04 A2993 850 88 -1000 000/00 RMK AO2 P0000
14837KMSN MSN20020116131512701/16/02 13:15:31  5-MIN KMSN 161915Z 00000KT 3/4SM -SN BR OVC010 M03/M04 A2993 850 88 -1000 000/00 RMK AO2 SFC VIS 1 1/4 P0000
14837KMSN MSN20020116132012301/16/02 13:20:31  5-MIN KMSN 161920Z 00000KT 3/4SM -SN BR OVC012 M03/M04 A2993 860 88 -1000 000/00 RMK AO2 SFC VIS 2 P0000
14837KMSN MSN20020116132512301/16/02 13:25:31  5-MIN KMSN 161925Z 00000KT 3/4SM -SN BR OVC012 M03/M04 A2993 860 88 -1000 000/00 RMK AO2 SFC VIS 2 P0001
14837KMSN MSN20020116133012701/16/02 13:30:31  5-MIN KMSN 161930Z 00000KT 3/4SM -SN BR OVC012 M03/M04 A2993 860 88 -1000 000/00 RMK AO2 SFC VIS 1 1/2 P0001
14837KMSN MSN20020116133512701/16/02 13:35:31  5-MIN KMSN 161935Z 00000KT 3/4SM -SN BR OVC014 M03/M04 A2993 850 88 -1000 000/00 RMK AO2 SFC VIS 1 1/2 P0001
14837KMSN MSN20020116134012701/16/02 13:40:31  5-MIN KMSN 161940Z 00000KT 3/4SM -SN BR OVC016 M03/M04 A2993 860 88 -1000 000/00 RMK AO2 SFC VIS 1 1/2 P0001
14837KMSN MSN20020116134512701/16/02 13:45:31  5-MIN KMSN 161945Z 00000KT 3/4SM -SN BR OVC016 M03/M04 A2993 860 92 -1100 000/00 RMK AO2 SFC VIS 1 1/2 P0001
14837KMSN MSN20020116135015101/16/02 13:50:31  5-MIN KMSN 161950Z 00000KT 3/4SM -SN BR BKN016 OVC030 M03/M04 A2992 860 92 -1100 000/00 RMK AO2 SFC VIS 1 1/2 SLP144 P0001 T10331044
14837KMSN MSN20020116135512001/16/02 13:55:31  5-MIN KMSN 161955Z 00000KT 3/4SM -SN BR BKN016 OVC030 M03/M04 A2991 870 92 -1100 000/00 RMK AO2 P0000
14837KMSN MSN20020116140013401/16/02 14:00:31  5-MIN KMSN 162000Z 00000KT 3/4SM -SN BR BKN016 OVC030 M03/M04 A2991 870 92 -1100 000/00 RMK AO2 SFC VIS 1 1/4 P0000
14837KMSN MSN20020116140513401/16/02 14:05:31  5-MIN KMSN 162005Z 00000KT 3/4SM -SN BR SCT016 OVC030 M03/M04 A2992 870 92 -1100 000/00 RMK AO2 SFC VIS 1 1/4 P0000
14837KMSN MSN20020116141012501/16/02 14:10:31  5-MIN KMSN 162010Z 00000KT 1SM -SN BR FEW007 SCT014 OVC030 M03/M04 A2991 870 88 -1000 000/00 RMK AO2 P0000
14837KMSN MSN20020116141513901/16/02 14:15:31  5-MIN KMSN 162015Z 00000KT 1SM -SN BR SCT007 BKN019 OVC030 M03/M04 A2992 870 88 -1000 000/00 RMK AO2 SFC VIS 1 1/4 P0001
14837KMSN MSN20020116142013501/16/02 14:20:31  5-MIN KMSN 162020Z 00000KT 1SM -SN BR SCT009 BKN019 OVC030 M03/M04 A2992 870 88 -1000 000/00 RMK AO2 SFC VIS 2 P0001
14837KMSN MSN20020116142513501/16/02 14:25:31  5-MIN KMSN 162025Z 00000KT 1SM -SN BR BKN009 BKN019 OVC030 M03/M04 A2991 870 88 -1000 000/00 RMK AO2 SFC VIS 2 P0001
14837KMSN MSN20020116143013501/16/02 14:30:31  5-MIN KMSN 162030Z 01003KT 1SM -SN BR BKN007 BKN019 OVC030 M03/M04 A2991 870 88 -1000 010/03 RMK AO2 SFC VIS 2 P0001
14837KMSN MSN20020116143514401/16/02 14:35:31  5-MIN KMSN 162035Z 35004KT 1SM -SN BR BKN007 OVC019 M03/M04 A2992 870 88 -1000 350/04 RMK AO2 SFC VIS 1 3/4 CIG 006V011 P0001
14837KMSN MSN20020116144014401/16/02 14:40:31  5-MIN KMSN 162040Z 36006KT 1SM -SN BR BKN009 OVC014 M03/M04 A2991 870 88 -1000 360/06 RMK AO2 SFC VIS 1 1/4 CIG 006V011 P0001
14837KMSN MSN20020116144514401/16/02 14:45:31  5-MIN KMSN 162045Z 36006KT 1SM -SN BR BKN009 OVC014 M03/M04 A2991 870 88 -1000 360/06 RMK AO2 SFC VIS 1 1/4 CIG 006V010 P0001
14837KMSN MSN20020116145016601/16/02 14:50:31  5-MIN KMSN 162050Z 01005KT 1SM -SN BR OVC009 M03/M04 A2991 870 88 -1000 010/05 RMK AO2 SFC VIS 1 1/4 CIG 006V012 SLP142 P0001 60005 T10281044 58026
14837KMSN MSN20020116145513001/16/02 14:55:31  5-MIN KMSN 162055Z 01006KT 1SM -SN BR BKN009 OVC013 M03/M04 A2991 870 92 -1100 010/06 RMK AO2 CIG 006V011 P0000
14837KMSN MSN20020116150013001/16/02 15:00:31  5-MIN KMSN 162100Z 01007KT 1SM -SN BR BKN007 OVC013 M03/M04 A2991 870 92 -1100 360/07 RMK AO2 CIG 006V009 P0001
14837KMSN MSN20020116171011801/16/02 17:10:31  5-MIN KMSN 162310Z 33003KT 2SM -SN BR BKN017 OVC036 M04/M05 A2991 870 92 -1200 330/03 RMK AO2 P0000
14837KMSN MSN20020116171511801/16/02 17:15:31  5-MIN KMSN 162315Z 32005KT 2SM -SN BR FEW012 OVC017 M04/M05 A2991 870 92 -1200 310/05 RMK AO2 P0000
14837KMSN MSN20020116172013901/16/02 17:20:31  5-MIN KMSN 162320Z 32003KT 2SM -SN BR FEW012 BKN017 OVC034 M04/M05 A2991 870 92 -1200 320/03 RMK AO2 SFC VIS 2 1/2 P0000
14837KMSN MSN20020116172513901/16/02 17:25:31  5-MIN KMSN 162325Z 32004KT 2SM -SN BR FEW012 BKN017 OVC034 M04/M06 A2991 870 88 -1200 320/04 RMK AO2 SFC VIS 2 1/2 P0000
14837KMSN MSN20020116173012901/16/02 17:30:31  5-MIN KMSN 162330Z 31006KT 2 1/2SM -SN BR SCT018 SCT023 OVC036 M04/M05 A2991 870 92 -1200 300/06 RMK AO2 P0000
14837KMSN MSN20020116173512901/16/02 17:35:31  5-MIN KMSN 162335Z 31006KT 2 1/2SM -SN BR FEW018 BKN036 OVC045 M04/M06 A2991 870 88 -1200 310/06 RMK AO2 P0000
14837KMSN MSN20020116174012901/16/02 17:40:31  5-MIN KMSN 162340Z 31007KT 2 1/2SM -SN BR FEW016 BKN036 OVC045 M04/M06 A2992 870 85 -1200 310/07 RMK AO2 P0000
14837KMSN MSN20020116174513201/16/02 17:45:31  5-MIN KMSN 162345Z 31005KT 2 1/2SM -SN BR BKN038 OVC045 M04/M06 A2991 870 88 -1200 300/05 RMK AO2 SFC VIS 4 P0000
14837KMSN MSN20020116175015901/16/02 17:50:31  5-MIN KMSN 162350Z 30007KT 4SM -SN BR BKN038 OVC045 M04/M06 A2991 870 88 -1200 300/07 RMK AO2 SLP142 P0000 60007 T10391056 11028 21039 56028
14837KMSN MSN20020116175511101/16/02 17:55:31  5-MIN KMSN 162355Z 30006KT 3SM -SN BR OVC041 M04/M06 A2992 870 85 -1200 300/06 RMK AO2 P0000
14837KMSN MSN20020116180011101/16/02 18:00:31  5-MIN KMSN 170000Z 30007KT 4SM -SN BR OVC043 M04/M06 A2992 860 85 -1200 300/07 RMK AO2 P0000
14837KMSN MSN20020116180511801/16/02 18:05:31  5-MIN KMSN 170005Z 30007KT 4SM -SN BR FEW022 OVC043 M04/M06 A2992 860 85 -1200 300/07 RMK AO2 P0000
14837KMSN MSN20020116181011801/16/02 18:10:31  5-MIN KMSN 170010Z 30008KT 4SM -SN BR BKN020 OVC043 M04/M06 A2992 860 85 -1200 300/08 RMK AO2 P0000
14837KMSN MSN20020116181511801/16/02 18:15:31  5-MIN KMSN 170015Z 30006KT 4SM -SN BR BKN020 OVC043 M04/M06 A2992 860 85 -1200 300/06 RMK AO2 P0000
14837KMSN MSN20020116182011501/16/02 18:20:31  5-MIN KMSN 170020Z 31007KT 3SM -SN BKN020 OVC045 M04/M07 A2992 860 81 -1200 310/07 RMK AO2 P0000
14837KMSN MSN20020116182511101/16/02 18:25:31  5-MIN KMSN 170025Z 30005KT 3SM -SN BR OVC018 M04/M06 A2993 860 85 -1200 300/05 RMK AO2 P0000
14837KMSN MSN20020116183011101/16/02 18:30:31  5-MIN KMSN 170030Z 30006KT 4SM -SN BR OVC018 M04/M06 A2993 860 85 -1200 300/06 RMK AO2 P0000
14837KMSN MSN20020116183511101/16/02 18:35:31  5-MIN KMSN 170035Z 30007KT 4SM -SN BR OVC016 M04/M06 A2993 860 88 -1200 300/07 RMK AO2 P0000
14837KMSN MSN20020116184011101/16/02 18:40:31  5-MIN KMSN 170040Z 30007KT 4SM -SN BR OVC016 M04/M06 A2993 860 88 -1200 300/07 RMK AO2 P0000
14837KMSN MSN20020116184511101/16/02 18:45:31  5-MIN KMSN 170045Z 30007KT 4SM -SN BR OVC016 M04/M06 A2993 860 88 -1200 300/07 RMK AO2 P0000
14837KMSN MSN20020116185013501/16/02 18:50:31  5-MIN KMSN 170050Z 30007KT 5SM -SN BR BKN016 OVC022 M04/M07 A2993 860 84 -1200 300/07 RMK AO2 SLP148 P0000 T10441067
14837KMSN MSN20020116185511801/16/02 18:55:31  5-MIN KMSN 170055Z 30007KT 6SM -SN BR BKN018 OVC023 M04/M07 A2993 850 84 -1200 300/07 RMK AO2 P0000
14837KMSN MSN20020116190012901/16/02 19:00:31  5-MIN KMSN 170100Z VRB05KT 5SM BR SCT018 BKN023 OVC065 M04/M07 A2993 850 84 -1200 VRB/05 RMK AO2 SNE0056 P0000
14837KMSN MSN20020116190512901/16/02 19:05:31  5-MIN KMSN 170105Z 29008KT 5SM BR SCT018 BKN025 OVC065 M04/M07 A2993 860 84 -1200 280/08 RMK AO2 SNE0056 P0000
14837KMSN MSN20020116191012701/16/02 19:10:31  5-MIN KMSN 170110Z 29006KT 10SM SCT018 SCT025 OVC065 M04/M07 A2993 850 84 -1200 290/06 RMK AO2 SNE0056 P0000
14837KMSN MSN20020116191513601/16/02 19:15:31  5-MIN KMSN 170115Z 29008KT 270V330 10SM SCT022 OVC065 M04/M07 A2993 850 81 -1200 290/08 270V330 RMK AO2 SNE0056 P0000
14837KMSN MSN20020116192012001/16/02 19:20:31  5-MIN KMSN 170120Z 29007KT 10SM FEW024 OVC065 M04/M07 A2993 850 81 -1200 290/07 RMK AO2 SNE0056 P0000
14837KMSN MSN20020116192512001/16/02 19:25:31  5-MIN KMSN 170125Z 30006KT 10SM FEW024 OVC060 M04/M08 A2993 850 78 -1200 300/06 RMK AO2 SNE0056 P0000
14837KMSN MSN20020116193011301/16/02 19:30:31  5-MIN KMSN 170130Z 30007KT 10SM OVC060 M05/M08 A2994 850 81 -1300 290/07 RMK AO2 SNE0056 P0000
14837KMSN MSN20020116193511301/16/02 19:35:31  5-MIN KMSN 170135Z 29008KT 10SM OVC060 M05/M08 A2994 850 81 -1300 290/08 RMK AO2 SNE0056 P0000
14837KMSN MSN20020116194011301/16/02 19:40:31  5-MIN KMSN 170140Z 30006KT 10SM OVC060 M05/M08 A2994 850 77 -1300 290/06 RMK AO2 SNE0056 P0000
14837KMSN MSN20020116194512001/16/02 19:45:31  5-MIN KMSN 170145Z 29005KT 10SM FEW024 OVC060 M05/M08 A2994 840 81 -1300 290/05 RMK AO2 SNE0056 P0000
14837KMSN MSN20020116195013701/16/02 19:50:31  5-MIN KMSN 170150Z 29005KT 10SM FEW024 BKN060 M05/M08 A2994 840 81 -1300 290/05 RMK AO2 SNE0056 SLP153 P0000 T10501078
14837KMSN MSN20020116195510601/16/02 19:55:31  5-MIN KMSN 170155Z 30007KT 10SM SCT024 OVC060 M05/M08 A2994 840 81 -1300 290/07 RMK AO2
14837KMSN MSN20020116200010601/16/02 20:00:31  5-MIN KMSN 170200Z 30006KT 10SM SCT024 OVC060 M05/M08 A2994 840 81 -1300 300/06 RMK AO2
14837KMSN MSN20020116200510601/16/02 20:05:31  5-MIN KMSN 170205Z 29005KT 10SM SCT024 OVC060 M05/M08 A2994 840 81 -1300 290/05 RMK AO2
14837KMSN MSN20020116201010601/16/02 20:10:31  5-MIN KMSN 170210Z 29004KT 10SM SCT024 OVC060 M04/M07 A2994 840 81 -1300 290/04 RMK AO2
14837KMSN MSN20020116201511501/16/02 20:15:31  5-MIN KMSN 170215Z 31007KT 270V340 10SM OVC020 M05/M07 A2994 840 84 -1300 310/07 270V340 RMK AO2
14837KMSN MSN20020116202009901/16/02 20:20:31  5-MIN KMSN 170220Z 30007KT 10SM OVC020 M04/M08 A2995 840 78 -1300 300/07 RMK AO2
14837KMSN MSN20020116202510501/16/02 20:25:31  5-MIN KMSN 170225Z 30011G16KT 10SM OVC020 M04/M08 A2995 840 78 -1300 300/11G16 RMK AO2
14837KMSN MSN20020116203010501/16/02 20:30:31  5-MIN KMSN 170230Z 30009G16KT 10SM OVC020 M04/M08 A2995 840 78 -1300 300/09G16 RMK AO2
14837KMSN MSN20020116203509901/16/02 20:35:31  5-MIN KMSN 170235Z 29007KT 10SM OVC020 M04/M08 A2995 840 74 -1300 290/07 RMK AO2
14837KMSN MSN20020116204009901/16/02 20:40:31  5-MIN KMSN 170240Z 29008KT 10SM OVC020 M04/M08 A2995 840 78 -1300 290/08 RMK AO2
14837KMSN MSN20020116204509901/16/02 20:45:31  5-MIN KMSN 170245Z VRB05KT 10SM OVC020 M04/M08 A2995 840 78 -1300 VRB/05 RMK AO2
14837KMSN MSN20020116205012801/16/02 20:50:31  5-MIN KMSN 170250Z VRB06KT 10SM OVC020 M04/M08 A2995 840 78 -1300 VRB/06 RMK AO2 SLP155 60000 T10441078 53001
14837KMSN MSN20020116205509901/16/02 20:55:31  5-MIN KMSN 170255Z 29007KT 10SM OVC022 M04/M08 A2995 840 74 -1300 290/07 RMK AO2
14837KMSN MSN20020116210009901/16/02 21:00:31  5-MIN KMSN 170300Z VRB06KT 10SM OVC022 M04/M08 A2995 840 74 -1300 VRB/06 RMK AO2
14837KMSN MSN20020116210509901/16/02 21:05:31  5-MIN KMSN 170305Z 27007KT 10SM OVC024 M04/M08 A2995 840 74 -1300 270/07 RMK AO2
14837KMSN MSN20020116211011501/16/02 21:10:31  5-MIN KMSN 170310Z 28008KT 230V300 10SM OVC024 M05/M08 A2995 830 77 -1300 280/08 230V300 RMK AO2
14837KMSN MSN20020116211509901/16/02 21:15:31  5-MIN KMSN 170315Z 28009KT 10SM OVC024 M05/M08 A2995 830 77 -1300 280/09 RMK AO2
14837KMSN MSN20020116212009901/16/02 21:20:31  5-MIN KMSN 170320Z 28007KT 10SM OVC024 M05/M09 A2996 830 74 -1300 280/07 RMK AO2
14837KMSN MSN20020116212509901/16/02 21:25:31  5-MIN KMSN 170325Z 29010KT 10SM OVC024 M05/M09 A2996 830 74 -1300 290/10 RMK AO2
14837KMSN MSN20020116213010501/16/02 21:30:31  5-MIN KMSN 170330Z 28012G18KT 10SM OVC024 M05/M10 A2996 830 68 -1300 280/12G18 RMK AO2
14837KMSN MSN20020116213510501/16/02 21:35:31  5-MIN KMSN 170335Z 27012G18KT 10SM OVC024 M05/M09 A2996 830 71 -1400 270/12G18 RMK AO2
14837KMSN MSN20020116214012101/16/02 21:40:31  5-MIN KMSN 170340Z 28009G17KT 250V310 10SM OVC024 M05/M09 A2996 820 71 -1400 280/09G17 250V310 RMK AO2
14837KMSN MSN20020116214510501/16/02 21:45:31  5-MIN KMSN 170345Z 29011G19KT 10SM OVC024 M06/M09 A2997 820 74 -1400 290/11G19 RMK AO2
14837KMSN MSN20020116215012201/16/02 21:50:31  5-MIN KMSN 170350Z 29010G19KT 10SM OVC024 M06/M10 A2997 820 71 -1400 290/10G19 RMK AO2 SLP161 T10561100
14837KMSN MSN20020116215510501/16/02 21:55:31  5-MIN KMSN 170355Z 29010G16KT 10SM OVC024 M06/M10 A2997 820 71 -1400 290/10G16 RMK AO2
14837KMSN MSN20020116220010501/16/02 22:00:31  5-MIN KMSN 170400Z 29012G15KT 10SM OVC024 M06/M10 A2997 820 74 -1500 290/12G15 RMK AO2
14837KMSN MSN20020116220510501/16/02 22:05:31  5-MIN KMSN 170405Z 28008G16KT 10SM BKN024 M06/M10 A2997 820 74 -1500 280/08G16 RMK AO2
14837KMSN MSN20020116221010501/16/02 22:10:31  5-MIN KMSN 170410Z 29008G16KT 10SM BKN024 M07/M10 A2998 810 77 -1600 290/08G16 RMK AO2
14837KMSN MSN20020116221510501/16/02 22:15:31  5-MIN KMSN 170415Z 28010G17KT 10SM BKN024 M07/M11 A2998 810 74 -1600 280/10G17 RMK AO2
14837KMSN MSN20020116222010501/16/02 22:20:31  5-MIN KMSN 170420Z 28013G17KT 10SM BKN024 M07/M11 A2998 810 74 -1600 280/13G17 RMK AO2
14837KMSN MSN20020116222510501/16/02 22:25:31  5-MIN KMSN 170425Z 29009G17KT 10SM BKN024 M07/M11 A2999 800 74 -1600 290/09G17 RMK AO2
14837KMSN MSN20020116223010501/16/02 22:30:31  5-MIN KMSN 170430Z 29009G17KT 10SM BKN024 M07/M11 A2999 800 74 -1600 290/09G17 RMK AO2
14837KMSN MSN20020116223510501/16/02 22:35:31  5-MIN KMSN 170435Z 30012G17KT 10SM SCT024 M07/M11 A2999 800 74 -1600 300/12G17 RMK AO2
14837KMSN MSN20020116224010501/16/02 22:40:31  5-MIN KMSN 170440Z 30012G17KT 10SM SCT024 M07/M11 A2999 800 71 -1600 300/12G17 RMK AO2
14837KMSN MSN20020116224510501/16/02 22:45:31  5-MIN KMSN 170445Z 30008G17KT 10SM SCT024 M07/M11 A2999 800 74 -1700 300/08G17 RMK AO2
14837KMSN MSN20020116225011601/16/02 22:50:31  5-MIN KMSN 170450Z 30011KT 10SM SCT024 M07/M11 A2999 800 77 -1700 300/11 RMK AO2 SLP169 T10721106
14837KMSN MSN20020116225510501/16/02 22:55:31  5-MIN KMSN 170455Z 31015G18KT 10SM SCT024 M07/M11 A2999 800 74 -1700 310/15G18 RMK AO2
14837KMSN MSN20020116230010501/16/02 23:00:31  5-MIN KMSN 170500Z 31012G18KT 10SM SCT024 M07/M11 A2999 800 74 -1700 310/12G18 RMK AO2
14837KMSN MSN20020116230510501/16/02 23:05:31  5-MIN KMSN 170505Z 31011G17KT 10SM SCT024 M07/M12 A3000 790 71 -1700 310/11G17 RMK AO2
14837KMSN MSN20020116231010501/16/02 23:10:31  5-MIN KMSN 170510Z 31011G17KT 10SM SCT024 M07/M11 A3000 790 74 -1700 310/11G17 RMK AO2
14837KMSN MSN20020116231510501/16/02 23:15:31  5-MIN KMSN 170515Z 31009G16KT 10SM SCT024 M07/M11 A3000 790 74 -1700 310/09G16 RMK AO2
14837KMSN MSN20020116232009901/16/02 23:20:31  5-MIN KMSN 170520Z 30008KT 10SM SCT024 M07/M11 A3000 790 74 -1700 300/08 RMK AO2
14837KMSN MSN20020116232509901/16/02 23:25:31  5-MIN KMSN 170525Z 29009KT 10SM BKN022 M07/M11 A3000 790 74 -1700 290/09 RMK AO2
14837KMSN MSN20020116233010501/16/02 23:30:31  5-MIN KMSN 170530Z 29009G15KT 10SM BKN022 M07/M11 A3000 790 77 -1700 290/09G15 RMK AO2
14837KMSN MSN20020116233509901/16/02 23:35:31  5-MIN KMSN 170535Z 27006KT 10SM BKN022 M07/M11 A3000 790 77 -1700 270/06 RMK AO2
14837KMSN MSN20020116234010501/16/02 23:40:31  5-MIN KMSN 170540Z 28009G14KT 10SM BKN022 M07/M11 A3000 790 77 -1700 280/09G14 RMK AO2
14837KMSN MSN20020116234509901/16/02 23:45:31  5-MIN KMSN 170545Z 27010KT 10SM BKN022 M07/M11 A3000 790 74 -1700 270/10 RMK AO2
14837KMSN MSN20020116235015001/16/02 23:50:31  5-MIN KMSN 170550Z 28007KT 10SM BKN022 M07/M11 A3000 790 74 -1700 280/07 RMK AO2 SLP174 60000 T10721111 11039 21072 410281072 51011
14837KMSN MSN20020116235510501/16/02 23:55:31  5-MIN KMSN 170555Z 28008G15KT 10SM OVC022 M07/M12 A3000 790 71 -1700 270/08G15 RMK AO2
14837KMSN MSN20020117000010501/17/02 00:00:31  5-MIN KMSN 170600Z 28009G16KT 10SM OVC022 M07/M11 A3001 790 74 -1700 280/09G16 RMK AO2
14837KMSN MSN20020117000510501/17/02 00:05:31  5-MIN KMSN 170605Z 29011G16KT 10SM OVC024 M07/M12 A3001 780 71 -1700 280/11G16 RMK AO2
14837KMSN MSN20020117001010501/17/02 00:10:31  5-MIN KMSN 170610Z 28009G16KT 10SM OVC024 M07/M12 A3001 780 71 -1700 280/09G16 RMK AO2
14837KMSN MSN20020117001510501/17/02 00:15:31  5-MIN KMSN 170615Z 28007G16KT 10SM OVC024 M07/M12 A3001 780 68 -1700 280/07G16 RMK AO2
14837KMSN MSN20020117002009901/17/02 00:20:31  5-MIN KMSN 170620Z 28008KT 10SM OVC024 M07/M12 A3001 780 71 -1700 280/08 RMK AO2
14837KMSN MSN20020117002509901/17/02 00:25:31  5-MIN KMSN 170625Z 28008KT 10SM OVC024 M08/M12 A3001 780 74 -1800 280/08 RMK AO2
14837KMSN MSN20020117003009901/17/02 00:30:31  5-MIN KMSN 170630Z 28008KT 10SM OVC024 M08/M12 A3002 780 74 -1800 280/08 RMK AO2
14837KMSN MSN20020117003509901/17/02 00:35:31  5-MIN KMSN 170635Z 28006KT 10SM OVC024 M08/M12 A3002 770 74 -1800 280/06 RMK AO2
14837KMSN MSN20020117004009901/17/02 00:40:31  5-MIN KMSN 170640Z 29005KT 10SM OVC024 M08/M12 A3002 770 74 -1800 290/05 RMK AO2
14837KMSN MSN20020117004509901/17/02 00:45:31  5-MIN KMSN 170645Z 29005KT 10SM OVC024 M08/M12 A3002 780 77 -1800 290/05 RMK AO2
14837KMSN MSN20020117005011601/17/02 00:50:31  5-MIN KMSN 170650Z 29005KT 10SM OVC024 M08/M12 A3001 780 74 -1800 290/05 RMK AO2 SLP177 T10831122
14837KMSN MSN20020117005509901/17/02 00:55:31  5-MIN KMSN 170655Z 29004KT 10SM OVC024 M08/M12 A3001 780 77 -1800 290/04 RMK AO2
14837KMSN MSN20020117010009901/17/02 01:00:31  5-MIN KMSN 170700Z 30006KT 10SM OVC024 M08/M12 A3001 780 77 -1800 290/06 RMK AO2
14837KMSN MSN20020117010509901/17/02 01:05:31  5-MIN KMSN 170705Z 30004KT 10SM OVC022 M08/M12 A3001 780 77 -1800 290/04 RMK AO2
14837KMSN MSN20020117011009901/17/02 01:10:31  5-MIN KMSN 170710Z 00000KT 10SM OVC022 M08/M12 A3000 790 77 -1800 000/00 RMK AO2
14837KMSN MSN20020117011509901/17/02 01:15:31  5-MIN KMSN 170715Z 28003KT 10SM OVC022 M09/M12 A3000 790 80 -1900 280/03 RMK AO2
14837KMSN MSN20020117012009901/17/02 01:20:31  5-MIN KMSN 170720Z 28004KT 10SM OVC022 M09/M12 A3000 790 80 -1900 280/04 RMK AO2
14837KMSN MSN20020117012509901/17/02 01:25:31  5-MIN KMSN 170725Z 29003KT 10SM OVC022 M09/M12 A3000 790 80 -1900 290/03 RMK AO2
14837KMSN MSN20020117013009901/17/02 01:30:31  5-MIN KMSN 170730Z 00000KT 10SM OVC022 M09/M12 A3001 780 77 -1900 000/00 RMK AO2
14837KMSN MSN20020117013509901/17/02 01:35:31  5-MIN KMSN 170735Z 00000KT 10SM BKN022 M09/M12 A3001 780 80 -1900 000/00 RMK AO2
14837KMSN MSN20020117014009901/17/02 01:40:31  5-MIN KMSN 170740Z 00000KT 10SM BKN022 M09/M12 A3001 780 80 -2000 000/00 RMK AO2
14837KMSN MSN20020117014509901/17/02 01:45:31  5-MIN KMSN 170745Z 00000KT 10SM BKN022 M09/M12 A3001 780 80 -2000 000/00 RMK AO2
14837KMSN MSN20020117015011601/17/02 01:50:31  5-MIN KMSN 170750Z 26003KT 10SM SCT022 M09/M12 A3001 780 80 -2000 250/03 RMK AO2 SLP178 T10941122
14837KMSN MSN20020117015509901/17/02 01:55:31  5-MIN KMSN 170755Z VRB03KT 10SM SCT020 M09/M12 A3002 770 80 -2000 VRB/03 RMK AO2
14837KMSN MSN20020117020009901/17/02 02:00:31  5-MIN KMSN 170800Z 00000KT 10SM FEW020 M09/M12 A3002 770 84 -2000 000/00 RMK AO2
14837KMSN MSN20020117020509901/17/02 02:05:31  5-MIN KMSN 170805Z 22003KT 10SM FEW020 M10/M12 A3002 770 84 -2100 220/03 RMK AO2
14837KMSN MSN20020117021009601/17/02 02:10:31  5-MIN KMSN 170810Z 23003KT 10SM CLR M10/M12 A3002 770 84 -2100 230/03 RMK AO2
14837KMSN MSN20020117021509601/17/02 02:15:31  5-MIN KMSN 170815Z 24003KT 10SM CLR M10/M12 A3002 770 84 -2100 230/03 RMK AO2
14837KMSN MSN20020117022009601/17/02 02:20:31  5-MIN KMSN 170820Z 24003KT 10SM CLR M10/M13 A3002 770 80 -2100 240/03 RMK AO2
14837KMSN MSN20020117022509601/17/02 02:25:31  5-MIN KMSN 170825Z VRB03KT 10SM CLR M10/M13 A3002 770 80 -2100 VRB/03 RMK AO2
14837KMSN MSN20020117023009601/17/02 02:30:31  5-MIN KMSN 170830Z 00000KT 10SM CLR M11/M13 A3002 770 84 -2100 000/00 RMK AO2
14837KMSN MSN20020117023509601/17/02 02:35:31  5-MIN KMSN 170835Z 00000KT 10SM CLR M11/M12 A3002 770 88 -2100 000/00 RMK AO2
14837KMSN MSN20020117024009601/17/02 02:40:31  5-MIN KMSN 170840Z 00000KT 10SM CLR M11/M12 A3003 770 92 -2200 000/00 RMK AO2
14837KMSN MSN20020117024509601/17/02 02:45:31  5-MIN KMSN 170845Z 00000KT 10SM CLR M11/M15 A3003 770 73 -2200 000/00 RMK AO2
14837KMSN MSN20020117025011901/17/02 02:50:31  5-MIN KMSN 170850Z VRB04KT 10SM CLR M11/M14 A3003 760 80 -2200 VRB/04 RMK AO2 SLP183 T11111139 51018
14837KMSN MSN20020117025509601/17/02 02:55:31  5-MIN KMSN 170855Z VRB04KT 10SM CLR M11/M13 A3003 760 84 -2200 VRB/04 RMK AO2
14837KMSN MSN20020117030009601/17/02 03:00:31  5-MIN KMSN 170900Z 23004KT 10SM CLR M11/M13 A3004 760 84 -2200 230/04 RMK AO2
14837KMSN MSN20020117030509601/17/02 03:05:31  5-MIN KMSN 170905Z 24004KT 10SM CLR M11/M13 A3004 760 84 -2200 240/04 RMK AO2
14837KMSN MSN20020117031009601/17/02 03:10:31  5-MIN KMSN 170910Z 25004KT 10SM CLR M11/M13 A3004 760 84 -2200 250/04 RMK AO2
14837KMSN MSN20020117031509501/17/02 03:15:31  5-MIN KMSN 170915Z 25003KT 9SM CLR M11/M13 A3004 760 84 -2200 240/03 RMK AO2
14837KMSN MSN20020117032009501/17/02 03:20:31  5-MIN KMSN 170920Z 24004KT 9SM CLR M11/M13 A3004 760 84 -2200 240/04 RMK AO2
14837KMSN MSN20020117032509501/17/02 03:25:31  5-MIN KMSN 170925Z 25003KT 8SM CLR M10/M13 A3004 760 80 -2100 250/03 RMK AO2
14837KMSN MSN20020117033009501/17/02 03:30:31  5-MIN KMSN 170930Z VRB03KT 8SM CLR M11/M13 A3004 760 84 -2200 VRB/03 RMK AO2
14837KMSN MSN20020117033509501/17/02 03:35:31  5-MIN KMSN 170935Z 24004KT 8SM CLR M11/M13 A3004 760 84 -2200 240/04 RMK AO2
14837KMSN MSN20020117034009501/17/02 03:40:31  5-MIN KMSN 170940Z 25004KT 8SM CLR M11/M13 A3004 760 84 -2200 250/04 RMK AO2
14837KMSN MSN20020117034509501/17/02 03:45:31  5-MIN KMSN 170945Z VRB04KT 9SM CLR M11/M13 A3004 760 88 -2200 VRB/04 RMK AO2
14837KMSN MSN20020117035011201/17/02 03:50:31  5-MIN KMSN 170950Z VRB04KT 9SM CLR M11/M13 A3004 760 84 -2200 VRB/04 RMK AO2 SLP186 T11061128
14837KMSN MSN20020117035509501/17/02 03:55:31  5-MIN KMSN 170955Z 25003KT 9SM CLR M11/M13 A3004 760 84 -2200 250/03 RMK AO2
14837KMSN MSN20020117040009501/17/02 04:00:31  5-MIN KMSN 171000Z VRB04KT 9SM CLR M11/M13 A3004 760 88 -2200 VRB/04 RMK AO2
14837KMSN MSN20020117040509501/17/02 04:05:31  5-MIN KMSN 171005Z 25004KT 9SM CLR M11/M13 A3004 760 84 -2200 250/04 RMK AO2
14837KMSN MSN20020117041009501/17/02 04:10:31  5-MIN KMSN 171010Z 25004KT 8SM CLR M11/M13 A3004 760 88 -2200 250/04 RMK AO2
14837KMSN MSN20020117041509501/17/02 04:15:31  5-MIN KMSN 171015Z 26003KT 8SM CLR M11/M13 A3004 760 88 -2200 260/03 RMK AO2
14837KMSN MSN20020117042009501/17/02 04:20:31  5-MIN KMSN 171020Z VRB04KT 8SM CLR M11/M12 A3004 760 88 -2200 VRB/04 RMK AO2
14837KMSN MSN20020117042509501/17/02 04:25:31  5-MIN KMSN 171025Z 24004KT 8SM CLR M11/M13 A3004 760 84 -2200 240/04 RMK AO2
14837KMSN MSN20020117043009501/17/02 04:30:31  5-MIN KMSN 171030Z 23004KT 8SM CLR M11/M13 A3004 750 88 -2200 230/04 RMK AO2
14837KMSN MSN20020117043509501/17/02 04:35:31  5-MIN KMSN 171035Z 24004KT 7SM CLR M11/M12 A3004 750 92 -2200 240/04 RMK AO2
14837KMSN MSN20020117044009501/17/02 04:40:31  5-MIN KMSN 171040Z VRB05KT 7SM CLR M11/M12 A3005 750 88 -2200 VRB/05 RMK AO2
14837KMSN MSN20020117044509501/17/02 04:45:31  5-MIN KMSN 171045Z VRB03KT 8SM CLR M11/M12 A3004 750 88 -2200 VRB/03 RMK AO2
14837KMSN MSN20020117045011201/17/02 04:50:31  5-MIN KMSN 171050Z VRB03KT 8SM CLR M11/M12 A3004 750 88 -2200 VRB/03 RMK AO2 SLP188 T11061122
14837KMSN MSN20020117045509501/17/02 04:55:31  5-MIN KMSN 171055Z VRB03KT 8SM CLR M11/M12 A3004 750 88 -2200 VRB/03 RMK AO2
14837KMSN MSN20020117050009501/17/02 05:00:31  5-MIN KMSN 171100Z 26003KT 8SM CLR M11/M12 A3004 750 88 -2200 250/03 RMK AO2
14837KMSN MSN20020117050509501/17/02 05:05:31  5-MIN KMSN 171105Z VRB03KT 8SM CLR M11/M12 A3005 750 92 -2200 VRB/03 RMK AO2
14837KMSN MSN20020117051009501/17/02 05:10:31  5-MIN KMSN 171110Z VRB03KT 8SM CLR M10/M12 A3004 750 88 -2100 VRB/03 RMK AO2
14837KMSN MSN20020117051509501/17/02 05:15:31  5-MIN KMSN 171115Z VRB03KT 8SM CLR M11/M12 A3004 750 92 -2200 VRB/03 RMK AO2
14837KMSN MSN20020117052009501/17/02 05:20:31  5-MIN KMSN 171120Z VRB04KT 8SM CLR M11/M12 A3004 750 92 -2200 VRB/04 RMK AO2
14837KMSN MSN20020117052509501/17/02 05:25:31  5-MIN KMSN 171125Z VRB03KT 8SM CLR M11/M12 A3004 750 92 -2200 VRB/03 RMK AO2
14837KMSN MSN20020117053009501/17/02 05:30:31  5-MIN KMSN 171130Z VRB05KT 8SM CLR M10/M12 A3005 750 88 -2100 VRB/05 RMK AO2
14837KMSN MSN20020117053509501/17/02 05:35:31  5-MIN KMSN 171135Z VRB05KT 8SM CLR M10/M12 A3005 750 88 -2100 VRB/05 RMK AO2
14837KMSN MSN20020117054009501/17/02 05:40:31  5-MIN KMSN 171140Z VRB05KT 8SM CLR M10/M12 A3005 750 88 -2100 VRB/05 RMK AO2
14837KMSN MSN20020117054509501/17/02 05:45:31  5-MIN KMSN 171145Z 26005KT 8SM CLR M11/M12 A3005 750 92 -2200 260/05 RMK AO2
14837KMSN MSN20020117055014201/17/02 05:50:31  5-MIN KMSN 171150Z 25004KT 7SM CLR M11/M12 A3005 740 92 -2200 250/04 RMK AO2 SLP192 70021 4/004 T11061117 11072 21111 53008
14837KMSN MSN20020117055509501/17/02 05:55:31  5-MIN KMSN 171155Z 26004KT 7SM CLR M11/M12 A3005 740 88 -2200 260/04 RMK AO2
14837KMSN MSN20020117060009501/17/02 06:00:31  5-MIN KMSN 171200Z VRB05KT 7SM CLR M11/M12 A3006 740 88 -2200 VRB/05 RMK AO2
14837KMSN MSN20020117060509501/17/02 06:05:31  5-MIN KMSN 171205Z 26004KT 7SM CLR M11/M12 A3006 740 88 -2200 260/04 RMK AO2
14837KMSN MSN20020117061009501/17/02 06:10:31  5-MIN KMSN 171210Z 26004KT 7SM CLR M11/M12 A3006 740 92 -2200 250/04 RMK AO2
14837KMSN MSN20020117061509501/17/02 06:15:31  5-MIN KMSN 171215Z 26005KT 7SM CLR M11/M12 A3006 740 88 -2200 260/05 RMK AO2
14837KMSN MSN20020117062009501/17/02 06:20:31  5-MIN KMSN 171220Z 25005KT 7SM CLR M11/M12 A3006 740 88 -2200 250/05 RMK AO2
14837KMSN MSN20020117062509501/17/02 06:25:31  5-MIN KMSN 171225Z VRB04KT 7SM CLR M11/M12 A3006 730 88 -2200 VRB/04 RMK AO2
14837KMSN MSN20020117063009501/17/02 06:30:31  5-MIN KMSN 171230Z VRB05KT 7SM CLR M11/M12 A3007 730 88 -2200 VRB/05 RMK AO2
14837KMSN MSN20020117063509501/17/02 06:35:31  5-MIN KMSN 171235Z 26005KT 7SM CLR M11/M12 A3007 730 88 -2200 260/05 RMK AO2
14837KMSN MSN20020117064009801/17/02 06:40:31  5-MIN KMSN 171240Z 26006KT 6SM BR CLR M11/M12 A3007 730 88 -2200 260/06 RMK AO2
14837KMSN MSN20020117064509801/17/02 06:45:31  5-MIN KMSN 171245Z 26005KT 6SM BR CLR M11/M12 A3007 730 88 -2200 250/05 RMK AO2
14837KMSN MSN20020117065011501/17/02 06:50:31  5-MIN KMSN 171250Z 26005KT 6SM BR CLR M11/M13 A3007 730 88 -2300 260/05 RMK AO2 SLP197 T11111128
14837KMSN MSN20020117065509501/17/02 06:55:31  5-MIN KMSN 171255Z VRB05KT 7SM CLR M11/M12 A3007 730 92 -2300 VRB/05 RMK AO2
14837KMSN MSN20020117070009501/17/02 07:00:31  5-MIN KMSN 171300Z 27005KT 7SM CLR M11/M13 A3006 730 88 -2300 270/05 RMK AO2
14837KMSN MSN20020117070509501/17/02 07:05:31  5-MIN KMSN 171305Z VRB04KT 7SM CLR M11/M13 A3007 730 88 -2300 VRB/04 RMK AO2
14837KMSN MSN20020117071009501/17/02 07:10:31  5-MIN KMSN 171310Z 29004KT 7SM CLR M12/M13 A3007 730 87 -2300 280/04 RMK AO2
14837KMSN MSN20020117071509501/17/02 07:15:31  5-MIN KMSN 171315Z VRB03KT 7SM CLR M11/M13 A3007 730 88 -2300 VRB/03 RMK AO2
14837KMSN MSN20020117072009501/17/02 07:20:31  5-MIN KMSN 171320Z VRB03KT 7SM CLR M11/M13 A3007 730 88 -2300 VRB/03 RMK AO2
14837KMSN MSN20020117072509801/17/02 07:25:31  5-MIN KMSN 171325Z 00000KT 6SM BR CLR M12/M13 A3007 720 91 -2400 000/00 RMK AO2
14837KMSN MSN20020117073009801/17/02 07:30:31  5-MIN KMSN 171330Z 00000KT 6SM BR CLR M12/M13 A3008 720 91 -2400 000/00 RMK AO2
14837KMSN MSN20020117073509801/17/02 07:35:31  5-MIN KMSN 171335Z 27003KT 6SM BR CLR M11/M13 A3008 720 88 -2300 270/03 RMK AO2
14837KMSN MSN20020117074009801/17/02 07:40:31  5-MIN KMSN 171340Z VRB03KT 6SM BR CLR M12/M13 A3008 710 91 -2400 VRB/03 RMK AO2
14837KMSN MSN20020117074509801/17/02 07:45:31  5-MIN KMSN 171345Z 25004KT 6SM BR CLR M12/M13 A3009 710 91 -2400 250/04 RMK AO2
14837KMSN MSN20020117075011501/17/02 07:50:31  5-MIN KMSN 171350Z 25004KT 6SM BR CLR M12/M13 A3009 710 91 -2400 250/04 RMK AO2 SLP204 T11171128
14837KMSN MSN20020117075509801/17/02 07:55:31  5-MIN KMSN 171355Z VRB03KT 5SM BR CLR M12/M13 A3008 710 91 -2400 VRB/03 RMK AO2
14837KMSN MSN20020117080009801/17/02 08:00:31  5-MIN KMSN 171400Z VRB04KT 5SM BR CLR M11/M13 A3008 710 88 -2300 VRB/04 RMK AO2
14837KMSN MSN20020117080509801/17/02 08:05:31  5-MIN KMSN 171405Z VRB03KT 5SM BR CLR M11/M13 A3008 710 88 -2300 VRB/03 RMK AO2
14837KMSN MSN20020117081009801/17/02 08:10:31  5-MIN KMSN 171410Z 26004KT 5SM BR CLR M11/M12 A3009 710 92 -2300 250/04 RMK AO2
14837KMSN MSN20020117081509801/17/02 08:15:31  5-MIN KMSN 171415Z VRB05KT 5SM BR CLR M11/M12 A3009 710 92 -2300 VRB/05 RMK AO2
14837KMSN MSN20020117082009801/17/02 08:20:31  5-MIN KMSN 171420Z VRB04KT 6SM BR CLR M11/M12 A3009 710 88 -2200 VRB/04 RMK AO2
14837KMSN MSN20020117082509801/17/02 08:25:31  5-MIN KMSN 171425Z 25004KT 6SM BR CLR M11/M12 A3009 700 88 -2200 250/04 RMK AO2
14837KMSN MSN20020117083009801/17/02 08:30:31  5-MIN KMSN 171430Z 25005KT 5SM BR CLR M11/M12 A3010 700 88 -2200 250/05 RMK AO2
14837KMSN MSN20020117083509801/17/02 08:35:31  5-MIN KMSN 171435Z 24005KT 5SM BR CLR M11/M12 A3010 700 88 -2200 240/05 RMK AO2
14837KMSN MSN20020117084009801/17/02 08:40:31  5-MIN KMSN 171440Z VRB04KT 5SM BR CLR M10/M12 A3010 700 88 -2200 VRB/04 RMK AO2
14837KMSN MSN20020117084509801/17/02 08:45:31  5-MIN KMSN 171445Z VRB05KT 6SM BR CLR M10/M12 A3010 700 88 -2200 VRB/05 RMK AO2
14837KMSN MSN20020117085012101/17/02 08:50:31  5-MIN KMSN 171450Z 26007KT 6SM BR CLR M10/M12 A3010 700 88 -2200 260/07 RMK AO2 SLP207 T11001117 53008
14837KMSN MSN20020117085509801/17/02 08:55:31  5-MIN KMSN 171455Z VRB05KT 6SM BR CLR M09/M12 A3010 700 84 -2100 VRB/05 RMK AO2
14837KMSN MSN20020117090009801/17/02 09:00:31  5-MIN KMSN 171500Z 26005KT 6SM BR CLR M09/M12 A3010 700 84 -2100 260/05 RMK AO2
14837KMSN MSN20020117090509801/17/02 09:05:31  5-MIN KMSN 171505Z 26005KT 6SM BR CLR M09/M12 A3010 700 84 -2100 260/05 RMK AO2
14837KMSN MSN20020117091009501/17/02 09:10:31  5-MIN KMSN 171510Z 27006KT 7SM CLR M09/M12 A3010 700 84 -2100 270/06 RMK AO2
14837KMSN MSN20020117091509501/17/02 09:15:31  5-MIN KMSN 171515Z 27004KT 7SM CLR M09/M12 A3010 700 84 -2100 270/04 RMK AO2
14837KMSN MSN20020117092009501/17/02 09:20:31  5-MIN KMSN 171520Z 27006KT 7SM CLR M09/M12 A3011 690 84 -2100 270/06 RMK AO2
14837KMSN MSN20020117092509501/17/02 09:25:31  5-MIN KMSN 171525Z 27004KT 7SM CLR M09/M12 A3011 690 84 -2100 270/04 RMK AO2
14837KMSN MSN20020117093009501/17/02 09:30:31  5-MIN KMSN 171530Z 27007KT 7SM CLR M09/M12 A3011 690 84 -2100 270/07 RMK AO2
14837KMSN MSN20020117093509501/17/02 09:35:31  5-MIN KMSN 171535Z 27006KT 7SM CLR M09/M12 A3012 680 84 -2100 270/06 RMK AO2
14837KMSN MSN20020117094009501/17/02 09:40:31  5-MIN KMSN 171540Z 27006KT 7SM CLR M09/M12 A3012 680 84 -2100 270/06 RMK AO2
14837KMSN MSN20020117094509501/17/02 09:45:31  5-MIN KMSN 171545Z 26005KT 7SM CLR M09/M12 A3012 680 84 -2100 260/05 RMK AO2
14837KMSN MSN20020117095011501/17/02 09:50:31  5-MIN KMSN 171550Z 25005KT 6SM BR CLR M09/M12 A3012 680 84 -2100 250/05 RMK AO2 SLP215 T10941117
14837KMSN MSN20020117095509801/17/02 09:55:31  5-MIN KMSN 171555Z VRB05KT 6SM BR CLR M09/M12 A3013 680 84 -2100 VRB/05 RMK AO2
14837KMSN MSN20020117100009801/17/02 10:00:31  5-MIN KMSN 171600Z 26006KT 6SM BR CLR M09/M12 A3013 680 84 -2100 260/06 RMK AO2
14837KMSN MSN20020117100510101/17/02 10:05:31  5-MIN KMSN 171605Z 25006KT 6SM BR FEW060 M09/M12 A3013 670 84 -2100 250/06 RMK AO2
14837KMSN MSN20020117101010101/17/02 10:10:31  5-MIN KMSN 171610Z 26007KT 5SM HZ FEW040 M09/M12 A3013 670 80 -2000 260/07 RMK AO2
14837KMSN MSN20020117101510101/17/02 10:15:31  5-MIN KMSN 171615Z VRB06KT 6SM HZ FEW040 M09/M12 A3013 670 80 -2000 VRB/06 RMK AO2
14837KMSN MSN20020117102010101/17/02 10:20:31  5-MIN KMSN 171620Z 26007KT 6SM HZ FEW040 M09/M12 A3013 670 80 -2100 260/07 RMK AO2
14837KMSN MSN20020117102509801/17/02 10:25:31  5-MIN KMSN 171625Z 24006KT 7SM FEW040 M09/M11 A3013 670 84 -2100 240/06 RMK AO2
14837KMSN MSN20020117103009801/17/02 10:30:31  5-MIN KMSN 171630Z 27006KT 7SM FEW040 M08/M11 A3013 670 80 -2000 270/06 RMK AO2
14837KMSN MSN20020117103509801/17/02 10:35:31  5-MIN KMSN 171635Z 27006KT 6SM HZ CLR M08/M12 A3013 670 77 -2000 270/06 RMK AO2
14837KMSN MSN20020117104009801/17/02 10:40:31  5-MIN KMSN 171640Z 24005KT 7SM FEW009 M08/M11 A3013 670 84 -2000 240/05 RMK AO2
14837KMSN MSN20020117104509801/17/02 10:45:31  5-MIN KMSN 171645Z VRB05KT 7SM SCT009 M08/M11 A3013 670 80 -2000 VRB/05 RMK AO2
14837KMSN MSN20020117105011501/17/02 10:50:31  5-MIN KMSN 171650Z 22007KT 7SM SCT009 M08/M11 A3012 680 80 -2000 220/07 RMK AO2 SLP216 T10831111
14837KMSN MSN20020117105509801/17/02 10:55:31  5-MIN KMSN 171655Z 23007KT 8SM FEW009 M08/M11 A3012 680 80 -2000 230/07 RMK AO2
14837KMSN MSN20020117110009801/17/02 11:00:31  5-MIN KMSN 171700Z 24006KT 8SM FEW009 M08/M11 A3012 680 77 -1900 240/06 RMK AO2
14837KMSN MSN20020117110509801/17/02 11:05:31  5-MIN KMSN 171705Z 21007KT 8SM FEW009 M08/M11 A3012 680 77 -1900 210/07 RMK AO2
14837KMSN MSN20020117111009801/17/02 11:10:31  5-MIN KMSN 171710Z VRB05KT 8SM FEW009 M08/M11 A3012 680 77 -1900 VRB/05 RMK AO2
14837KMSN MSN20020117111509501/17/02 11:15:31  5-MIN KMSN 171715Z 21006KT 8SM CLR M08/M11 A3012 680 77 -1900 210/06 RMK AO2
14837KMSN MSN20020117112009501/17/02 11:20:31  5-MIN KMSN 171720Z VRB03KT 7SM CLR M07/M11 A3012 680 74 -1800 VRB/03 RMK AO2
14837KMSN MSN20020117112509501/17/02 11:25:31  5-MIN KMSN 171725Z 22007KT 7SM CLR M07/M11 A3012 680 77 -1800 210/07 RMK AO2
14837KMSN MSN20020117113009501/17/02 11:30:31  5-MIN KMSN 171730Z 23007KT 7SM CLR M07/M11 A3012 680 77 -1800 230/07 RMK AO2
14837KMSN MSN20020117113509501/17/02 11:35:31  5-MIN KMSN 171735Z 23008KT 8SM CLR M07/M11 A3012 680 77 -1800 230/08 RMK AO2
14837KMSN MSN20020117114009501/17/02 11:40:31  5-MIN KMSN 171740Z 23008KT 8SM CLR M07/M11 A3011 690 77 -1800 230/08 RMK AO2
14837KMSN MSN20020117114509501/17/02 11:45:31  5-MIN KMSN 171745Z 22007KT 8SM CLR M07/M11 A3011 690 77 -1800 210/07 RMK AO2
14837KMSN MSN20020117115013301/17/02 11:50:31  5-MIN KMSN 171750Z 23007KT 8SM FEW100 M07/M10 A3011 690 77 -1700 230/07 RMK AO2 SLP212 T10671100 11067 21117 52014
14837KMSN MSN20020117115509801/17/02 11:55:31  5-MIN KMSN 171755Z 22005KT 8SM FEW060 M07/M10 A3011 690 77 -1700 210/05 RMK AO2
14837KMSN MSN20020117120010501/17/02 12:00:31  5-MIN KMSN 171800Z 22007KT 9SM FEW016 SCT035 M07/M10 A3011 690 77 -1700 220/07 RMK AO2
14837KMSN MSN20020117120509801/17/02 12:05:31  5-MIN KMSN 171805Z VRB05KT 9SM SCT035 M07/M09 A3010 690 81 -1700 VRB/05 RMK AO2
14837KMSN MSN20020117121009801/17/02 12:10:31  5-MIN KMSN 171810Z 22008KT 8SM BKN035 M06/M09 A3010 700 77 -1700 210/08 RMK AO2
14837KMSN MSN20020117121510501/17/02 12:15:31  5-MIN KMSN 171815Z 24007KT 9SM FEW015 BKN035 M06/M09 A3010 700 77 -1700 240/07 RMK AO2
14837KMSN MSN20020117122010701/17/02 12:20:31  5-MIN KMSN 171820Z VRB06KT 9SM FEW015 SCT035 M06/M09 A3010 700 77 -1600 VRB/06 RMK AO2 $
14837KMSN MSN20020117122510701/17/02 12:25:31  5-MIN KMSN 171825Z 23007KT 9SM FEW018 SCT035 M06/M09 A3010 700 74 -1600 230/07 RMK AO2 $
14837KMSN MSN20020117123010701/17/02 12:30:31  5-MIN KMSN 171830Z 23006KT 9SM FEW018 SCT035 M06/M09 A3010 700 77 -1600 230/06 RMK AO2 $
14837KMSN MSN20020117123510701/17/02 12:35:31  5-MIN KMSN 171835Z 22007KT 9SM SCT018 SCT035 M06/M09 A3009 710 74 -1600 220/07 RMK AO2 $
14837KMSN MSN20020117124009801/17/02 12:40:31  5-MIN KMSN 171840Z 23005KT 9SM SCT018 M06/M09 A3009 710 77 -1600 230/05 RMK AO2
14837KMSN MSN20020117124509801/17/02 12:45:31  5-MIN KMSN 171845Z 21005KT 8SM BKN018 M06/M09 A3009 710 77 -1600 210/05 RMK AO2
14837KMSN MSN20020117125011501/17/02 12:50:31  5-MIN KMSN 171850Z 21007KT 8SM BKN018 M06/M09 A3008 710 77 -1600 210/07 RMK AO2 SLP202 T10561089
14837KMSN MSN20020117125509801/17/02 12:55:31  5-MIN KMSN 171855Z 23007KT 8SM BKN018 M06/M09 A3008 720 77 -1600 230/07 RMK AO2
14837KMSN MSN20020117130009801/17/02 13:00:31  5-MIN KMSN 171900Z 22007KT 8SM OVC018 M06/M09 A3008 720 77 -1600 220/07 RMK AO2
14837KMSN MSN20020117130509801/17/02 13:05:31  5-MIN KMSN 171905Z VRB04KT 8SM BKN018 M05/M09 A3008 720 74 -1500 VRB/04 RMK AO2
14837KMSN MSN20020117131009801/17/02 13:10:31  5-MIN KMSN 171910Z VRB06KT 9SM BKN018 M05/M09 A3007 720 71 -1500 VRB/06 RMK AO2
14837KMSN MSN20020117131509801/17/02 13:15:31  5-MIN KMSN 171915Z 26006KT 7SM BKN018 M05/M09 A3008 720 71 -1500 260/06 RMK AO2
14837KMSN MSN20020117132013101/17/02 13:20:31  5-MIN KMSN 171920Z 24007KT 200V270 5SM HZ BKN020 BKN026 BKN031 M05/M09 A3008 720 74 -1500 240/07 200V270 RMK AO2
14837KMSN MSN20020117132511501/17/02 13:25:31  5-MIN KMSN 171925Z 23005KT 4SM HZ BKN020 BKN026 BKN031 M05/M08 A3008 720 77 -1500 230/05 RMK AO2
14837KMSN MSN20020117133011401/17/02 13:30:31  5-MIN KMSN 171930Z VRB05KT 6SM -SN OVC020 M05/M08 A3008 720 77 -1500 VRB/05 RMK AO2 SNB28 P0000
14837KMSN MSN20020117133511401/17/02 13:35:31  5-MIN KMSN 171935Z 23007KT 6SM -SN OVC020 M05/M08 A3008 720 77 -1500 230/07 RMK AO2 SNB28 P0000
14837KMSN MSN20020117134011401/17/02 13:40:31  5-MIN KMSN 171940Z 22007KT 6SM -SN OVC018 M05/M08 A3008 720 77 -1500 220/07 RMK AO2 SNB28 P0000
14837KMSN MSN20020117134511401/17/02 13:45:31  5-MIN KMSN 171945Z 23006KT 6SM -SN OVC018 M05/M08 A3007 720 77 -1500 230/06 RMK AO2 SNB28 P0000
14837KMSN MSN20020117135014701/17/02 13:50:31  5-MIN KMSN 171950Z 23007KT 190V280 6SM -SN OVC018 M05/M08 A3007 730 81 -1500 220/07 190V280 RMK AO2 SNB28 SLP198 P0000 T10501078
14837KMSN MSN20020117135510801/17/02 13:55:31  5-MIN KMSN 171955Z 25009KT 5SM -SN OVC018 M05/M08 A3007 730 77 -1500 240/09 RMK AO2 P0000
14837KMSN MSN20020117140012401/17/02 14:00:31  5-MIN KMSN 172000Z 24008KT 210V270 5SM -SN OVC018 M05/M08 A3007 730 77 -1500 240/08 210V270 RMK AO2 P0000
14837KMSN MSN20020117140512401/17/02 14:05:31  5-MIN KMSN 172005Z 25007KT 220V290 6SM -SN OVC018 M04/M09 A3006 730 71 -1400 240/07 220V290 RMK AO2 P0000
14837KMSN MSN20020117141011501/17/02 14:10:31  5-MIN KMSN 172010Z 24009KT 6SM -SN BKN018 OVC023 M05/M08 A3006 730 77 -1500 240/09 RMK AO2 P0000
14837KMSN MSN20020117141513101/17/02 14:15:31  5-MIN KMSN 172015Z 23008KT 200V270 6SM -SN BKN018 BKN023 M05/M08 A3006 730 77 -1500 230/08 200V270 RMK AO2 P0000
14837KMSN MSN20020117142011501/17/02 14:20:31  5-MIN KMSN 172020Z 24008KT 6SM -SN BKN018 BKN023 M05/M09 A3007 730 74 -1500 240/08 RMK AO2 P0000
14837KMSN MSN20020117142512001/17/02 14:25:31  5-MIN KMSN 172025Z 24007KT 6SM HZ BKN018 BKN023 M05/M09 A3007 730 74 -1500 240/07 RMK AO2 SNE22 P0000
14837KMSN MSN20020117143012001/17/02 14:30:31  5-MIN KMSN 172030Z 25006KT 6SM HZ BKN018 BKN023 M05/M08 A3007 730 77 -1500 250/06 RMK AO2 SNE22 P0000
14837KMSN MSN20020117143511701/17/02 14:35:31  5-MIN KMSN 172035Z 26008KT 7SM BKN018 BKN023 M05/M09 A3007 730 74 -1500 260/08 RMK AO2 SNE22 P0000
14837KMSN MSN20020117144011701/17/02 14:40:31  5-MIN KMSN 172040Z 26008KT 7SM BKN018 BKN023 M05/M09 A3007 730 71 -1500 260/08 RMK AO2 SNE22 P0000
14837KMSN MSN20020117144513301/17/02 14:45:31  5-MIN KMSN 172045Z 24008KT 210V270 8SM BKN018 BKN023 M05/M09 A3006 730 71 -1500 240/08 210V270 RMK AO2 SNE22 P0000
14837KMSN MSN20020117145013901/17/02 14:50:31  5-MIN KMSN 172050Z 27008KT 9SM BKN021 M04/M09 A3006 730 68 -1400 270/08 RMK AO2 SNE22 SLP196 P0000 60000 T10441094 50006
14837KMSN MSN20020117145509901/17/02 14:55:31  5-MIN KMSN 172055Z 27009KT 10SM BKN021 M04/M09 A3007 730 68 -1400 270/09 RMK AO2
14837KMSN MSN20020117150009901/17/02 15:00:31  5-MIN KMSN 172100Z 29008KT 10SM BKN021 M04/M09 A3006 730 68 -1400 290/08 RMK AO2
14837KMSN MSN20020117150511501/17/02 15:05:31  5-MIN KMSN 172105Z 27009KT 230V290 10SM BKN021 M04/M10 A3007 730 65 -1400 270/09 230V290 RMK AO2
14837KMSN MSN20020117151009901/17/02 15:10:31  5-MIN KMSN 172110Z 26008KT 10SM BKN021 M04/M10 A3007 730 65 -1400 260/08 RMK AO2
14837KMSN MSN20020117151511501/17/02 15:15:31  5-MIN KMSN 172115Z 28009KT 250V320 10SM SCT021 M04/M10 A3007 730 65 -1400 280/09 250V320 RMK AO2
14837KMSN MSN20020117152009901/17/02 15:20:31  5-MIN KMSN 172120Z 28009KT 10SM FEW021 M04/M10 A3007 720 65 -1400 270/09 RMK AO2
14837KMSN MSN20020117152509901/17/02 15:25:31  5-MIN KMSN 172125Z 27007KT 10SM FEW021 M04/M10 A3007 730 65 -1400 270/07 RMK AO2
14837KMSN MSN20020117153011501/17/02 15:30:31  5-MIN KMSN 172130Z 28007KT 250V310 10SM FEW021 M04/M10 A3007 730 65 -1400 280/07 250V310 RMK AO2
14837KMSN MSN20020117153511501/17/02 15:35:31  5-MIN KMSN 172135Z 28008KT 240V300 10SM FEW023 M04/M10 A3007 730 65 -1400 280/08 240V300 RMK AO2
14837KMSN MSN20020117154009601/17/02 15:40:31  5-MIN KMSN 172140Z VRB05KT 10SM CLR M04/M11 A3007 730 62 -1400 VRB/05 RMK AO2
14837KMSN MSN20020117154509601/17/02 15:45:31  5-MIN KMSN 172145Z 27006KT 10SM CLR M04/M11 A3007 720 62 -1400 270/06 RMK AO2
14837KMSN MSN20020117155011301/17/02 15:50:31  5-MIN KMSN 172150Z 27006KT 10SM CLR M05/M10 A3007 730 68 -1500 270/06 RMK AO2 SLP198 T10501100
14837KMSN MSN20020117155509601/17/02 15:55:31  5-MIN KMSN 172155Z 27006KT 10SM CLR M05/M10 A3007 730 68 -1500 270/06 RMK AO2
14837KMSN MSN20020117160009601/17/02 16:00:31  5-MIN KMSN 172200Z 27005KT 10SM CLR M05/M11 A3007 730 65 -1500 270/05 RMK AO2
14837KMSN MSN20020117160509601/17/02 16:05:31  5-MIN KMSN 172205Z 27006KT 10SM CLR M05/M11 A3007 730 65 -1500 270/06 RMK AO2
14837KMSN MSN20020117161009601/17/02 16:10:31  5-MIN KMSN 172210Z 27005KT 10SM CLR M05/M11 A3007 730 65 -1500 270/05 RMK AO2
14837KMSN MSN20020117161509601/17/02 16:15:31  5-MIN KMSN 172215Z 27004KT 10SM CLR M05/M11 A3007 730 65 -1500 270/04 RMK AO2
14837KMSN MSN20020117162009601/17/02 16:20:31  5-MIN KMSN 172220Z 25004KT 10SM CLR M05/M11 A3007 720 65 -1500 250/04 RMK AO2
14837KMSN MSN20020117162509601/17/02 16:25:31  5-MIN KMSN 172225Z 25003KT 10SM CLR M05/M11 A3007 720 65 -1500 250/03 RMK AO2
14837KMSN MSN20020117163009601/17/02 16:30:31  5-MIN KMSN 172230Z 00000KT 10SM CLR M06/M11 A3008 720 68 -1600 000/00 RMK AO2
14837KMSN MSN20020117163509601/17/02 16:35:31  5-MIN KMSN 172235Z VRB03KT 10SM CLR M06/M11 A3008 720 68 -1600 VRB/03 RMK AO2
14837KMSN MSN20020117164009601/17/02 16:40:31  5-MIN KMSN 172240Z 00000KT 10SM CLR M06/M11 A3008 720 68 -1600 000/00 RMK AO2
14837KMSN MSN20020117164509601/17/02 16:45:31  5-MIN KMSN 172245Z 00000KT 10SM CLR M06/M11 A3007 720 68 -1600 000/00 RMK AO2
14837KMSN MSN20020117165011301/17/02 16:50:31  5-MIN KMSN 172250Z 26003KT 10SM CLR M06/M11 A3008 720 68 -1600 260/03 RMK AO2 SLP200 T10561106
14837KMSN MSN20020117165509601/17/02 16:55:31  5-MIN KMSN 172255Z 27003KT 10SM CLR M06/M11 A3008 720 71 -1600 260/03 RMK AO2
14837KMSN MSN20020117170009601/17/02 17:00:31  5-MIN KMSN 172300Z VRB03KT 10SM CLR M06/M11 A3008 720 71 -1600 VRB/03 RMK AO2
14837KMSN MSN20020117170509601/17/02 17:05:31  5-MIN KMSN 172305Z VRB04KT 10SM CLR M06/M11 A3008 720 71 -1600 VRB/04 RMK AO2
14837KMSN MSN20020117171009601/17/02 17:10:31  5-MIN KMSN 172310Z 26004KT 10SM CLR M06/M11 A3008 720 68 -1600 260/04 RMK AO2
14837KMSN MSN20020117171509601/17/02 17:15:31  5-MIN KMSN 172315Z VRB03KT 10SM CLR M06/M11 A3008 720 68 -1600 VRB/03 RMK AO2
14837KMSN MSN20020117172009601/17/02 17:20:31  5-MIN KMSN 172320Z 28003KT 10SM CLR M06/M11 A3008 720 71 -1600 280/03 RMK AO2
14837KMSN MSN20020117172509601/17/02 17:25:31  5-MIN KMSN 172325Z 28003KT 10SM CLR M06/M11 A3008 720 71 -1600 280/03 RMK AO2
14837KMSN MSN20020117173009601/17/02 17:30:31  5-MIN KMSN 172330Z 27003KT 10SM CLR M07/M11 A3008 720 71 -1700 270/03 RMK AO2
14837KMSN MSN20020117173509601/17/02 17:35:31  5-MIN KMSN 172335Z 00000KT 10SM CLR M07/M11 A3008 710 71 -1700 000/00 RMK AO2
14837KMSN MSN20020117174010201/17/02 17:40:31  5-MIN KMSN 172340Z 25003KT 10SM CLR M07/M11 A3008 710 71 -1700 250/03 RMK AO2 4/003
14837KMSN MSN20020117174510201/17/02 17:45:31  5-MIN KMSN 172345Z VRB03KT 10SM CLR M07/M11 A3009 710 71 -1700 VRB/03 RMK AO2 4/003
14837KMSN MSN20020117175014301/17/02 17:50:31  5-MIN KMSN 172350Z 26004KT 10SM CLR M07/M11 A3009 710 74 -1800 260/04 RMK AO2 SLP205 4/003 60000 T10721111 11044 21072 56016
14837KMSN MSN20020117175509601/17/02 17:55:31  5-MIN KMSN 172355Z VRB03KT 10SM CLR M07/M11 A3009 710 71 -1700 VRB/03 RMK AO2
14837KMSN MSN20020117180009601/17/02 18:00:31  5-MIN KMSN 180000Z VRB03KT 10SM CLR M07/M11 A3009 710 74 -1800 VRB/03 RMK AO2
14837KMSN MSN20020117180509601/17/02 18:05:31  5-MIN KMSN 180005Z 26004KT 10SM CLR M07/M11 A3009 710 71 -1700 260/04 RMK AO2
14837KMSN MSN20020117181009601/17/02 18:10:31  5-MIN KMSN 180010Z VRB04KT 10SM CLR M07/M11 A3008 710 71 -1700 VRB/04 RMK AO2
14837KMSN MSN20020117181509601/17/02 18:15:31  5-MIN KMSN 180015Z 25004KT 10SM CLR M07/M12 A3008 720 68 -1700 250/04 RMK AO2
14837KMSN MSN20020117182009601/17/02 18:20:31  5-MIN KMSN 180020Z 27003KT 10SM CLR M07/M11 A3008 710 71 -1700 270/03 RMK AO2
14837KMSN MSN20020117182509601/17/02 18:25:31  5-MIN KMSN 180025Z 25004KT 10SM CLR M07/M11 A3009 710 74 -1800 250/04 RMK AO2
14837KMSN MSN20020117183009601/17/02 18:30:31  5-MIN KMSN 180030Z 24003KT 10SM CLR M07/M11 A3009 710 74 -1800 240/03 RMK AO2
14837KMSN MSN20020117183509601/17/02 18:35:31  5-MIN KMSN 180035Z 00000KT 10SM CLR M07/M12 A3009 710 71 -1800 000/00 RMK AO2
14837KMSN MSN20020117184009601/17/02 18:40:31  5-MIN KMSN 180040Z VRB03KT 10SM CLR M07/M12 A3009 710 71 -1800 VRB/03 RMK AO2
14837KMSN MSN20020117184509601/17/02 18:45:31  5-MIN KMSN 180045Z VRB04KT 10SM CLR M07/M11 A3009 710 74 -1800 VRB/04 RMK AO2
14837KMSN MSN20020117185011301/17/02 18:50:31  5-MIN KMSN 180050Z 25003KT 10SM CLR M07/M12 A3009 710 68 -1700 250/03 RMK AO2 SLP206 T10671117
14837KMSN MSN20020117185509601/17/02 18:55:31  5-MIN KMSN 180055Z 00000KT 10SM CLR M07/M12 A3009 710 71 -1800 000/00 RMK AO2
14837KMSN MSN20020117190009601/17/02 19:00:31  5-MIN KMSN 180100Z VRB03KT 10SM CLR M07/M12 A3009 710 71 -1800 VRB/03 RMK AO2
14837KMSN MSN20020117190509601/17/02 19:05:31  5-MIN KMSN 180105Z VRB03KT 10SM CLR M07/M12 A3009 710 71 -1800 VRB/03 RMK AO2
14837KMSN MSN20020117191009601/17/02 19:10:31  5-MIN KMSN 180110Z 26004KT 10SM CLR M07/M12 A3008 710 71 -1800 260/04 RMK AO2
14837KMSN MSN20020117191509601/17/02 19:15:31  5-MIN KMSN 180115Z VRB03KT 10SM CLR M07/M12 A3009 710 71 -1800 VRB/03 RMK AO2
14837KMSN MSN20020117192009601/17/02 19:20:31  5-MIN KMSN 180120Z VRB03KT 10SM CLR M07/M11 A3009 710 74 -1800 VRB/03 RMK AO2
14837KMSN MSN20020117192509601/17/02 19:25:31  5-MIN KMSN 180125Z VRB03KT 10SM CLR M07/M12 A3009 710 71 -1800 VRB/03 RMK AO2
14837KMSN MSN20020117193009601/17/02 19:30:31  5-MIN KMSN 180130Z VRB03KT 10SM CLR M07/M12 A3009 710 71 -1800 VRB/03 RMK AO2
14837KMSN MSN20020117193509601/17/02 19:35:31  5-MIN KMSN 180135Z 24004KT 10SM CLR M07/M12 A3009 710 71 -1800 240/04 RMK AO2
14837KMSN MSN20020117194009601/17/02 19:40:31  5-MIN KMSN 180140Z VRB04KT 10SM CLR M07/M12 A3009 700 71 -1800 VRB/04 RMK AO2
14837KMSN MSN20020117194509601/17/02 19:45:31  5-MIN KMSN 180145Z VRB04KT 10SM CLR M07/M12 A3009 710 71 -1800 VRB/04 RMK AO2
14837KMSN MSN20020117195011301/17/02 19:50:31  5-MIN KMSN 180150Z VRB04KT 10SM CLR M07/M12 A3009 710 71 -1800 VRB/04 RMK AO2 SLP205 T10721117
14837KMSN MSN20020117195509601/17/02 19:55:31  5-MIN KMSN 180155Z VRB03KT 10SM CLR M07/M12 A3009 710 71 -1800 VRB/03 RMK AO2
14837KMSN MSN20020117200009601/17/02 20:00:31  5-MIN KMSN 180200Z 25006KT 10SM CLR M07/M12 A3009 710 71 -1800 250/06 RMK AO2
14837KMSN MSN20020117200509601/17/02 20:05:31  5-MIN KMSN 180205Z 25006KT 10SM CLR M07/M12 A3009 710 71 -1800 250/06 RMK AO2
14837KMSN MSN20020117201009601/17/02 20:10:31  5-MIN KMSN 180210Z VRB04KT 10SM CLR M07/M12 A3009 710 71 -1800 VRB/04 RMK AO2
14837KMSN MSN20020117201509601/17/02 20:15:31  5-MIN KMSN 180215Z 25005KT 10SM CLR M07/M11 A3009 710 74 -1800 250/05 RMK AO2
14837KMSN MSN20020117202009601/17/02 20:20:31  5-MIN KMSN 180220Z 25006KT 10SM CLR M07/M12 A3009 710 71 -1800 250/06 RMK AO2
14837KMSN MSN20020117202509601/17/02 20:25:31  5-MIN KMSN 180225Z VRB05KT 10SM CLR M07/M12 A3009 710 71 -1800 VRB/05 RMK AO2
14837KMSN MSN20020117203009601/17/02 20:30:31  5-MIN KMSN 180230Z 26005KT 10SM CLR M07/M12 A3009 710 68 -1800 250/05 RMK AO2
14837KMSN MSN20020117203509601/17/02 20:35:31  5-MIN KMSN 180235Z 25008KT 10SM CLR M07/M12 A3009 710 71 -1800 250/08 RMK AO2
14837KMSN MSN20020117204009601/17/02 20:40:31  5-MIN KMSN 180240Z 25007KT 10SM CLR M07/M12 A3009 710 71 -1800 250/07 RMK AO2
14837KMSN MSN20020117204509601/17/02 20:45:31  5-MIN KMSN 180245Z 26008KT 10SM CLR M07/M12 A3009 710 71 -1800 250/08 RMK AO2
14837KMSN MSN20020117205011901/17/02 20:50:31  5-MIN KMSN 180250Z 25006KT 10SM CLR M07/M12 A3009 710 71 -1800 250/06 RMK AO2 SLP206 T10721117 53007
14837KMSN MSN20020117205509601/17/02 20:55:31  5-MIN KMSN 180255Z VRB06KT 10SM CLR M07/M12 A3009 710 71 -1800 VRB/06 RMK AO2
14837KMSN MSN20020117210011201/17/02 21:00:31  5-MIN KMSN 180300Z 25007KT 220V290 10SM CLR M08/M12 A3009 710 74 -1900 250/07 220V290 RMK AO2
14837KMSN MSN20020117210509601/17/02 21:05:31  5-MIN KMSN 180305Z 26007KT 10SM CLR M08/M11 A3009 710 77 -1900 260/07 RMK AO2
14837KMSN MSN20020117211009601/17/02 21:10:31  5-MIN KMSN 180310Z 28008KT 10SM CLR M08/M12 A3010 700 71 -1900 280/08 RMK AO2
14837KMSN MSN20020117211509601/17/02 21:15:31  5-MIN KMSN 180315Z 27006KT 10SM CLR M08/M12 A3010 700 74 -1900 270/06 RMK AO2
14837KMSN MSN20020117212009601/17/02 21:20:31  5-MIN KMSN 180320Z 26007KT 10SM CLR M08/M12 A3010 700 74 -1900 260/07 RMK AO2
14837KMSN MSN20020117212509601/17/02 21:25:31  5-MIN KMSN 180325Z 27007KT 10SM CLR M08/M12 A3010 700 77 -1900 270/07 RMK AO2
14837KMSN MSN20020117213009601/17/02 21:30:31  5-MIN KMSN 180330Z 27007KT 10SM CLR M08/M12 A3010 700 74 -1900 270/07 RMK AO2
14837KMSN MSN20020117213511201/17/02 21:35:31  5-MIN KMSN 180335Z 27007KT 230V300 10SM CLR M08/M12 A3010 700 77 -1900 260/07 230V300 RMK AO2
14837KMSN MSN20020117214009601/17/02 21:40:31  5-MIN KMSN 180340Z 27007KT 10SM CLR M08/M12 A3010 700 77 -1900 270/07 RMK AO2
14837KMSN MSN20020117214509601/17/02 21:45:31  5-MIN KMSN 180345Z 27006KT 10SM CLR M08/M12 A3010 700 74 -1900 270/06 RMK AO2
14837KMSN MSN20020117215011301/17/02 21:50:31  5-MIN KMSN 180350Z 27008KT 10SM CLR M08/M12 A3010 700 74 -1900 270/08 RMK AO2 SLP210 T10831122
14837KMSN MSN20020117215509601/17/02 21:55:31  5-MIN KMSN 180355Z 27007KT 10SM CLR M08/M12 A3010 700 77 -1900 270/07 RMK AO2
14837KMSN MSN20020117220009601/17/02 22:00:31  5-MIN KMSN 180400Z 27009KT 10SM CLR M08/M12 A3010 690 77 -1900 260/09 RMK AO2
14837KMSN MSN20020117220509601/17/02 22:05:31  5-MIN KMSN 180405Z 27008KT 10SM CLR M08/M12 A3010 690 74 -1900 270/08 RMK AO2
14837KMSN MSN20020117221009601/17/02 22:10:31  5-MIN KMSN 180410Z 27007KT 10SM CLR M08/M12 A3010 690 77 -1900 270/07 RMK AO2
14837KMSN MSN20020117221509601/17/02 22:15:31  5-MIN KMSN 180415Z 27007KT 10SM CLR M08/M12 A3010 700 74 -1900 270/07 RMK AO2
14837KMSN MSN20020117222009601/17/02 22:20:31  5-MIN KMSN 180420Z 26009KT 10SM CLR M09/M12 A3010 700 77 -2000 260/09 RMK AO2
14837KMSN MSN20020117222509601/17/02 22:25:31  5-MIN KMSN 180425Z 26008KT 10SM CLR M09/M12 A3011 690 77 -2000 260/08 RMK AO2
14837KMSN MSN20020117223009601/17/02 22:30:31  5-MIN KMSN 180430Z 27008KT 10SM CLR M09/M12 A3011 690 80 -2000 270/08 RMK AO2
14837KMSN MSN20020117223509601/17/02 22:35:31  5-MIN KMSN 180435Z 28007KT 10SM CLR M09/M12 A3011 690 77 -2000 280/07 RMK AO2
14837KMSN MSN20020117224009601/17/02 22:40:31  5-MIN KMSN 180440Z 27008KT 10SM CLR M09/M12 A3011 690 77 -2000 270/08 RMK AO2
14837KMSN MSN20020117224509601/17/02 22:45:31  5-MIN KMSN 180445Z 27008KT 10SM CLR M09/M12 A3011 690 77 -2000 270/08 RMK AO2
14837KMSN MSN20020117225011301/17/02 22:50:31  5-MIN KMSN 180450Z 27008KT 10SM CLR M09/M12 A3012 680 77 -2000 270/08 RMK AO2 SLP215 T10891122
14837KMSN MSN20020117225509601/17/02 22:55:31  5-MIN KMSN 180455Z 27006KT 10SM CLR M09/M12 A3012 680 80 -2100 270/06 RMK AO2
14837KMSN MSN20020117230009601/17/02 23:00:31  5-MIN KMSN 180500Z 27007KT 10SM CLR M09/M12 A3012 680 80 -2100 270/07 RMK AO2
14837KMSN MSN20020117230509601/17/02 23:05:31  5-MIN KMSN 180505Z 27007KT 10SM CLR M09/M12 A3012 680 80 -2100 270/07 RMK AO2
14837KMSN MSN20020117231009601/17/02 23:10:31  5-MIN KMSN 180510Z 27006KT 10SM CLR M09/M12 A3012 680 80 -2100 270/06 RMK AO2
14837KMSN MSN20020117231509601/17/02 23:15:31  5-MIN KMSN 180515Z VRB05KT 10SM CLR M09/M12 A3011 690 84 -2100 VRB/05 RMK AO2
14837KMSN MSN20020117232009601/17/02 23:20:31  5-MIN KMSN 180520Z 27005KT 10SM CLR M09/M13 A3011 690 77 -2100 270/05 RMK AO2
14837KMSN MSN20020117232509601/17/02 23:25:31  5-MIN KMSN 180525Z 27004KT 10SM CLR M10/M13 A3011 690 80 -2200 270/04 RMK AO2
14837KMSN MSN20020117233009601/17/02 23:30:31  5-MIN KMSN 180530Z 27006KT 10SM CLR M10/M13 A3011 690 80 -2200 270/06 RMK AO2
14837KMSN MSN20020117233509601/17/02 23:35:31  5-MIN KMSN 180535Z 28005KT 10SM CLR M10/M12 A3012 680 84 -2200 280/05 RMK AO2
14837KMSN MSN20020117234009601/17/02 23:40:31  5-MIN KMSN 180540Z 27005KT 10SM CLR M10/M12 A3012 680 84 -2200 270/05 RMK AO2
14837KMSN MSN20020117234509601/17/02 23:45:31  5-MIN KMSN 180545Z 27005KT 10SM CLR M10/M13 A3012 680 80 -2200 270/05 RMK AO2
14837KMSN MSN20020117235014101/17/02 23:50:31  5-MIN KMSN 180550Z 27006KT 10SM CLR M10/M13 A3012 680 80 -2200 270/06 RMK AO2 SLP215 T11001128 11067 21100 410441117 53002
14837KMSN MSN20020117235509601/17/02 23:55:31  5-MIN KMSN 180555Z 26005KT 10SM CLR M10/M13 A3012 680 80 -2200 260/05 RMK AO2
14837KMSN MSN20020118000009601/18/02 00:00:31  5-MIN KMSN 180600Z 27004KT 10SM CLR M10/M13 A3012 680 80 -2200 270/04 RMK AO2
14837KMSN MSN20020118000509601/18/02 00:05:31  5-MIN KMSN 180605Z 27005KT 10SM CLR M11/M13 A3012 680 84 -2300 270/05 RMK AO2
14837KMSN MSN20020118001009601/18/02 00:10:31  5-MIN KMSN 180610Z 26005KT 10SM CLR M11/M13 A3012 680 84 -2300 260/05 RMK AO2
14837KMSN MSN20020118001509601/18/02 00:15:31  5-MIN KMSN 180615Z 27005KT 10SM CLR M11/M12 A3011 690 88 -2300 270/05 RMK AO2
14837KMSN MSN20020118002009601/18/02 00:20:31  5-MIN KMSN 180620Z 26004KT 10SM CLR M11/M13 A3011 690 80 -2300 260/04 RMK AO2
14837KMSN MSN20020118002509601/18/02 00:25:31  5-MIN KMSN 180625Z 26004KT 10SM CLR M11/M13 A3011 690 84 -2300 260/04 RMK AO2
14837KMSN MSN20020118003009601/18/02 00:30:31  5-MIN KMSN 180630Z 27004KT 10SM CLR M11/M13 A3011 690 84 -2300 270/04 RMK AO2
14837KMSN MSN20020118003509501/18/02 00:35:31  5-MIN KMSN 180635Z 27004KT 9SM CLR M11/M13 A3012 680 84 -2300 270/04 RMK AO2
14837KMSN MSN20020118004009501/18/02 00:40:31  5-MIN KMSN 180640Z VRB04KT 9SM CLR M11/M13 A3012 680 88 -2300 VRB/04 RMK AO2
14837KMSN MSN20020118004509501/18/02 00:45:31  5-MIN KMSN 180645Z VRB04KT 9SM CLR M11/M13 A3012 680 88 -2300 VRB/04 RMK AO2
14837KMSN MSN20020118005011201/18/02 00:50:31  5-MIN KMSN 180650Z 26005KT 9SM CLR M11/M13 A3012 680 88 -2300 260/05 RMK AO2 SLP216 T11111128
14837KMSN MSN20020118005509501/18/02 00:55:31  5-MIN KMSN 180655Z VRB03KT 9SM CLR M11/M13 A3012 680 84 -2300 VRB/03 RMK AO2
14837KMSN MSN20020118010009501/18/02 01:00:31  5-MIN KMSN 180700Z 27004KT 9SM CLR M11/M13 A3012 680 88 -2300 270/04 RMK AO2
14837KMSN MSN20020118010509501/18/02 01:05:31  5-MIN KMSN 180705Z VRB04KT 9SM CLR M11/M13 A3012 680 84 -2300 VRB/04 RMK AO2
14837KMSN MSN20020118011009501/18/02 01:10:31  5-MIN KMSN 180710Z VRB04KT 9SM CLR M11/M13 A3012 680 84 -2300 VRB/04 RMK AO2
14837KMSN MSN20020118011509501/18/02 01:15:31  5-MIN KMSN 180715Z 27004KT 9SM CLR M11/M13 A3012 680 84 -2300 270/04 RMK AO2
14837KMSN MSN20020118012009501/18/02 01:20:31  5-MIN KMSN 180720Z 25004KT 9SM CLR M11/M13 A3012 680 84 -2300 250/04 RMK AO2
14837KMSN MSN20020118012509501/18/02 01:25:31  5-MIN KMSN 180725Z 26004KT 9SM CLR M11/M13 A3012 680 88 -2300 260/04 RMK AO2
14837KMSN MSN20020118013009501/18/02 01:30:31  5-MIN KMSN 180730Z 26004KT 9SM CLR M11/M13 A3012 680 88 -2300 260/04 RMK AO2
14837KMSN MSN20020118013509501/18/02 01:35:31  5-MIN KMSN 180735Z 26004KT 9SM CLR M11/M13 A3012 680 88 -2300 260/04 RMK AO2
14837KMSN MSN20020118014009501/18/02 01:40:31  5-MIN KMSN 180740Z 26004KT 9SM CLR M11/M13 A3012 680 84 -2300 260/04 RMK AO2
14837KMSN MSN20020118014509501/18/02 01:45:31  5-MIN KMSN 180745Z VRB04KT 9SM CLR M11/M13 A3013 670 84 -2300 VRB/04 RMK AO2
14837KMSN MSN20020118015011201/18/02 01:50:31  5-MIN KMSN 180750Z VRB04KT 8SM CLR M11/M14 A3013 670 80 -2300 VRB/04 RMK AO2 SLP220 T11111139
14837KMSN MSN20020118015509501/18/02 01:55:31  5-MIN KMSN 180755Z VRB04KT 8SM CLR M12/M13 A3014 670 87 -2400 VRB/04 RMK AO2
14837KMSN MSN20020118020009501/18/02 02:00:31  5-MIN KMSN 180800Z VRB04KT 8SM CLR M11/M13 A3014 660 84 -2400 VRB/04 RMK AO2
14837KMSN MSN20020118020509501/18/02 02:05:31  5-MIN KMSN 180805Z 24004KT 8SM CLR M11/M13 A3014 670 84 -2300 240/04 RMK AO2
14837KMSN MSN20020118021009501/18/02 02:10:31  5-MIN KMSN 180810Z 26004KT 8SM CLR M12/M13 A3014 660 87 -2400 260/04 RMK AO2
14837KMSN MSN20020118021509501/18/02 02:15:31  5-MIN KMSN 180815Z 26004KT 8SM CLR M12/M13 A3014 660 87 -2400 260/04 RMK AO2
14837KMSN MSN20020118022009501/18/02 02:20:31  5-MIN KMSN 180820Z 26004KT 8SM CLR M12/M13 A3014 660 87 -2400 260/04 RMK AO2
14837KMSN MSN20020118022509501/18/02 02:25:31  5-MIN KMSN 180825Z 27004KT 8SM CLR M12/M13 A3014 660 87 -2400 270/04 RMK AO2
14837KMSN MSN20020118023009501/18/02 02:30:31  5-MIN KMSN 180830Z 28004KT 8SM CLR M12/M14 A3014 660 84 -2400 280/04 RMK AO2
14837KMSN MSN20020118023509501/18/02 02:35:31  5-MIN KMSN 180835Z 27005KT 8SM CLR M12/M14 A3014 660 84 -2400 270/05 RMK AO2
14837KMSN MSN20020118024009501/18/02 02:40:31  5-MIN KMSN 180840Z 27005KT 8SM CLR M12/M14 A3014 660 84 -2400 270/05 RMK AO2
14837KMSN MSN20020118024509501/18/02 02:45:31  5-MIN KMSN 180845Z VRB05KT 8SM CLR M12/M15 A3014 660 76 -2400 VRB/05 RMK AO2
14837KMSN MSN20020118025011801/18/02 02:50:31  5-MIN KMSN 180850Z 28005KT 8SM CLR M12/M14 A3014 660 80 -2400 280/05 RMK AO2 SLP223 T11171144 51009
14837KMSN MSN20020118025509501/18/02 02:55:31  5-MIN KMSN 180855Z 28006KT 8SM CLR M12/M14 A3014 660 80 -2400 280/06 RMK AO2
14837KMSN MSN20020118030009501/18/02 03:00:31  5-MIN KMSN 180900Z 29006KT 9SM CLR M12/M14 A3015 650 84 -2400 290/06 RMK AO2
14837KMSN MSN20020118030509501/18/02 03:05:31  5-MIN KMSN 180905Z 28005KT 9SM CLR M12/M14 A3015 650 80 -2400 280/05 RMK AO2
14837KMSN MSN20020118031009501/18/02 03:10:31  5-MIN KMSN 180910Z 28006KT 9SM CLR M12/M14 A3015 660 80 -2400 280/06 RMK AO2
14837KMSN MSN20020118031509501/18/02 03:15:31  5-MIN KMSN 180915Z 29006KT 9SM CLR M12/M14 A3015 650 80 -2400 290/06 RMK AO2
14837KMSN MSN20020118032009501/18/02 03:20:31  5-MIN KMSN 180920Z 29005KT 9SM CLR M12/M14 A3015 650 80 -2400 290/05 RMK AO2
14837KMSN MSN20020118032509501/18/02 03:25:31  5-MIN KMSN 180925Z 29005KT 9SM CLR M12/M14 A3015 650 80 -2400 290/05 RMK AO2
14837KMSN MSN20020118033009501/18/02 03:30:31  5-MIN KMSN 180930Z 29005KT 9SM CLR M12/M14 A3015 650 80 -2400 290/05 RMK AO2
14837KMSN MSN20020118033509501/18/02 03:35:31  5-MIN KMSN 180935Z VRB04KT 9SM CLR M12/M15 A3015 650 80 -2500 VRB/04 RMK AO2
14837KMSN MSN20020118034009501/18/02 03:40:31  5-MIN KMSN 180940Z VRB05KT 9SM CLR M12/M15 A3015 650 80 -2500 VRB/05 RMK AO2
14837KMSN MSN20020118034509501/18/02 03:45:31  5-MIN KMSN 180945Z 28005KT 9SM CLR M12/M15 A3015 650 80 -2500 280/05 RMK AO2
14837KMSN MSN20020118035011201/18/02 03:50:31  5-MIN KMSN 180950Z 27004KT 9SM CLR M12/M15 A3015 650 80 -2500 270/04 RMK AO2 SLP228 T11221150
14837KMSN MSN20020118035509501/18/02 03:55:31  5-MIN KMSN 180955Z 28004KT 9SM CLR M13/M15 A3015 650 84 -2600 280/04 RMK AO2
14837KMSN MSN20020118040009501/18/02 04:00:31  5-MIN KMSN 181000Z VRB04KT 9SM CLR M13/M15 A3016 650 84 -2600 VRB/04 RMK AO2
14837KMSN MSN20020118040509501/18/02 04:05:31  5-MIN KMSN 181005Z VRB03KT 9SM CLR M13/M15 A3016 650 84 -2600 VRB/03 RMK AO2
14837KMSN MSN20020118041009501/18/02 04:10:31  5-MIN KMSN 181010Z VRB03KT 9SM CLR M13/M15 A3016 650 84 -2600 VRB/03 RMK AO2
14837KMSN MSN20020118041509501/18/02 04:15:31  5-MIN KMSN 181015Z VRB03KT 9SM CLR M13/M15 A3016 650 84 -2600 VRB/03 RMK AO2
14837KMSN MSN20020118042009501/18/02 04:20:31  5-MIN KMSN 181020Z VRB03KT 9SM CLR M13/M15 A3016 640 84 -2600 VRB/03 RMK AO2
14837KMSN MSN20020118042509501/18/02 04:25:31  5-MIN KMSN 181025Z VRB04KT 9SM CLR M13/M15 A3016 640 84 -2600 VRB/04 RMK AO2
14837KMSN MSN20020118043009501/18/02 04:30:31  5-MIN KMSN 181030Z 27004KT 9SM CLR M13/M16 A3016 640 80 -2600 270/04 RMK AO2
14837KMSN MSN20020118043509501/18/02 04:35:31  5-MIN KMSN 181035Z VRB03KT 9SM CLR M13/M16 A3016 650 80 -2600 VRB/03 RMK AO2
14837KMSN MSN20020118044009501/18/02 04:40:31  5-MIN KMSN 181040Z VRB03KT 9SM CLR M13/M16 A3016 640 80 -2600 VRB/03 RMK AO2
14837KMSN MSN20020118044509501/18/02 04:45:31  5-MIN KMSN 181045Z 00000KT 9SM CLR M13/M16 A3016 640 80 -2600 000/00 RMK AO2
14837KMSN MSN20020118045011301/18/02 04:50:31  5-MIN KMSN 181050Z VRB03KT 10SM CLR M13/M16 A3016 640 80 -2600 VRB/03 RMK AO2 SLP231 T11281156
14837KMSN MSN20020118045509601/18/02 04:55:31  5-MIN KMSN 181055Z VRB03KT 10SM CLR M13/M16 A3016 640 83 -2700 VRB/03 RMK AO2
14837KMSN MSN20020118050009601/18/02 05:00:31  5-MIN KMSN 181100Z 24003KT 10SM CLR M13/M16 A3016 640 80 -2700 240/03 RMK AO2
14837KMSN MSN20020118050509601/18/02 05:05:31  5-MIN KMSN 181105Z VRB04KT 10SM CLR M13/M16 A3017 640 83 -2700 VRB/04 RMK AO2
14837KMSN MSN20020118051009601/18/02 05:10:31  5-MIN KMSN 181110Z 25003KT 10SM CLR M13/M16 A3017 640 80 -2700 250/03 RMK AO2
14837KMSN MSN20020118051509601/18/02 05:15:31  5-MIN KMSN 181115Z 26004KT 10SM CLR M13/M16 A3017 630 80 -2700 260/04 RMK AO2
14837KMSN MSN20020118052009601/18/02 05:20:31  5-MIN KMSN 181120Z 26004KT 10SM CLR M14/M16 A3017 630 83 -2800 260/04 RMK AO2
14837KMSN MSN20020118052509601/18/02 05:25:31  5-MIN KMSN 181125Z 27005KT 10SM CLR M14/M17 A3017 630 80 -2800 270/05 RMK AO2
14837KMSN MSN20020118053009601/18/02 05:30:31  5-MIN KMSN 181130Z 26005KT 10SM CLR M14/M16 A3017 630 83 -2800 260/05 RMK AO2
14837KMSN MSN20020118053509601/18/02 05:35:31  5-MIN KMSN 181135Z 26004KT 10SM CLR M14/M17 A3017 630 83 -2800 260/04 RMK AO2
14837KMSN MSN20020118054009601/18/02 05:40:31  5-MIN KMSN 181140Z 27005KT 10SM CLR M14/M17 A3017 630 80 -2800 270/05 RMK AO2
14837KMSN MSN20020118054510201/18/02 05:45:31  5-MIN KMSN 181145Z 28004KT 10SM CLR M14/M17 A3017 630 80 -2800 280/04 RMK AO2 4/003
14837KMSN MSN20020118055013701/18/02 05:50:31  5-MIN KMSN 181150Z 28004KT 10SM CLR M14/M17 A3017 630 80 -2800 280/04 RMK AO2 SLP235 4/003 T11391167 11100 21144 53008
14837KMSN MSN20020118055509601/18/02 05:55:31  5-MIN KMSN 181155Z 28004KT 10SM CLR M14/M16 A3017 630 83 -2800 280/04 RMK AO2
14837KMSN MSN20020118060009601/18/02 06:00:31  5-MIN KMSN 181200Z 31004KT 10SM CLR M13/M17 A3017 630 76 -2700 310/04 RMK AO2
14837KMSN MSN20020118060509601/18/02 06:05:31  5-MIN KMSN 181205Z 32004KT 10SM CLR M13/M17 A3017 630 76 -2700 320/04 RMK AO2
14837KMSN MSN20020118061009601/18/02 06:10:31  5-MIN KMSN 181210Z VRB06KT 10SM CLR M13/M17 A3018 630 76 -2700 VRB/06 RMK AO2
14837KMSN MSN20020118061509601/18/02 06:15:31  5-MIN KMSN 181215Z 30005KT 10SM CLR M13/M17 A3018 620 76 -2700 300/05 RMK AO2
14837KMSN MSN20020118062009601/18/02 06:20:31  5-MIN KMSN 181220Z 30005KT 10SM CLR M13/M17 A3018 620 76 -2700 300/05 RMK AO2
14837KMSN MSN20020118062509601/18/02 06:25:31  5-MIN KMSN 181225Z VRB04KT 10SM CLR M13/M17 A3019 620 76 -2700 VRB/04 RMK AO2
14837KMSN MSN20020118063009601/18/02 06:30:31  5-MIN KMSN 181230Z 28003KT 10SM CLR M13/M17 A3019 620 76 -2700 280/03 RMK AO2
14837KMSN MSN20020118063509601/18/02 06:35:31  5-MIN KMSN 181235Z 29004KT 10SM CLR M13/M17 A3019 620 76 -2700 290/04 RMK AO2
14837KMSN MSN20020118064009601/18/02 06:40:31  5-MIN KMSN 181240Z 29006KT 10SM CLR M14/M17 A3019 610 80 -2800 290/06 RMK AO2
14837KMSN MSN20020118064509601/18/02 06:45:31  5-MIN KMSN 181245Z 29006KT 10SM CLR M13/M17 A3020 610 76 -2700 290/06 RMK AO2
14837KMSN MSN20020118065011301/18/02 06:50:31  5-MIN KMSN 181250Z 29008KT 10SM CLR M13/M17 A3020 610 73 -2700 290/08 RMK AO2 SLP243 T11331172
14837KMSN MSN20020118065509601/18/02 06:55:31  5-MIN KMSN 181255Z 29008KT 10SM CLR M13/M17 A3020 610 73 -2700 290/08 RMK AO2
14837KMSN MSN20020118070009601/18/02 07:00:31  5-MIN KMSN 181300Z 30006KT 10SM CLR M13/M17 A3020 610 73 -2700 300/06 RMK AO2
14837KMSN MSN20020118070509601/18/02 07:05:31  5-MIN KMSN 181305Z 31006KT 10SM CLR M13/M17 A3020 610 73 -2700 300/06 RMK AO2
14837KMSN MSN20020118071009601/18/02 07:10:31  5-MIN KMSN 181310Z 31006KT 10SM CLR M13/M18 A3020 610 69 -2700 310/06 RMK AO2
14837KMSN MSN20020118071509601/18/02 07:15:31  5-MIN KMSN 181315Z 31005KT 10SM CLR M14/M18 A3020 600 73 -2800 310/05 RMK AO2
14837KMSN MSN20020118072009601/18/02 07:20:31  5-MIN KMSN 181320Z 31005KT 10SM CLR M14/M18 A3020 600 73 -2800 310/05 RMK AO2
14837KMSN MSN20020118072509601/18/02 07:25:31  5-MIN KMSN 181325Z 31005KT 10SM CLR M14/M18 A3020 600 73 -2800 310/05 RMK AO2
14837KMSN MSN20020118073009601/18/02 07:30:31  5-MIN KMSN 181330Z 31006KT 10SM CLR M14/M18 A3020 610 73 -2800 310/06 RMK AO2
14837KMSN MSN20020118073509601/18/02 07:35:31  5-MIN KMSN 181335Z 31006KT 10SM CLR M14/M18 A3020 600 73 -2800 300/06 RMK AO2
14837KMSN MSN20020118074009601/18/02 07:40:31  5-MIN KMSN 181340Z 31004KT 10SM CLR M14/M18 A3021 600 73 -2800 310/04 RMK AO2
14837KMSN MSN20020118074509601/18/02 07:45:31  5-MIN KMSN 181345Z 30004KT 10SM CLR M14/M18 A3021 600 69 -2800 300/04 RMK AO2
14837KMSN MSN20020118075011301/18/02 07:50:31  5-MIN KMSN 181350Z 33004KT 10SM CLR M14/M18 A3021 600 73 -2900 330/04 RMK AO2 SLP247 T11441183
14837KMSN MSN20020118075509601/18/02 07:55:31  5-MIN KMSN 181355Z 33005KT 10SM CLR M14/M18 A3021 600 73 -2900 330/05 RMK AO2
14837KMSN MSN20020118080009601/18/02 08:00:31  5-MIN KMSN 181400Z 32007KT 10SM CLR M14/M18 A3021 600 73 -2900 320/07 RMK AO2
14837KMSN MSN20020118080509601/18/02 08:05:31  5-MIN KMSN 181405Z 31006KT 10SM CLR M14/M18 A3021 590 69 -2800 310/06 RMK AO2
14837KMSN MSN20020118081009601/18/02 08:10:31  5-MIN KMSN 181410Z 31008KT 10SM CLR M14/M18 A3022 590 69 -2800 310/08 RMK AO2
14837KMSN MSN20020118081509601/18/02 08:15:31  5-MIN KMSN 181415Z 31006KT 10SM CLR M14/M18 A3022 590 69 -2800 310/06 RMK AO2
14837KMSN MSN20020118082009601/18/02 08:20:31  5-MIN KMSN 181420Z 31007KT 10SM CLR M14/M18 A3022 580 69 -2800 310/07 RMK AO2
14837KMSN MSN20020118082509601/18/02 08:25:31  5-MIN KMSN 181425Z 31005KT 10SM CLR M14/M18 A3023 580 69 -2800 310/05 RMK AO2
14837KMSN MSN20020118083009601/18/02 08:30:31  5-MIN KMSN 181430Z 30007KT 10SM CLR M14/M19 A3023 570 66 -2800 300/07 RMK AO2
14837KMSN MSN20020118083509601/18/02 08:35:31  5-MIN KMSN 181435Z 30005KT 10SM CLR M14/M18 A3024 570 69 -2800 290/05 RMK AO2
14837KMSN MSN20020118084009601/18/02 08:40:31  5-MIN KMSN 181440Z 30006KT 10SM CLR M14/M19 A3024 570 66 -2800 300/06 RMK AO2
14837KMSN MSN20020118084509601/18/02 08:45:31  5-MIN KMSN 181445Z 31007KT 10SM CLR M14/M18 A3024 570 69 -2800 310/07 RMK AO2
14837KMSN MSN20020118085011901/18/02 08:50:31  5-MIN KMSN 181450Z 30006KT 10SM CLR M14/M19 A3024 570 66 -2800 300/06 RMK AO2 SLP258 T11391189 52009
14837KMSN MSN20020118085509601/18/02 08:55:31  5-MIN KMSN 181455Z 31009KT 10SM CLR M14/M18 A3024 570 69 -2800 310/09 RMK AO2
14837KMSN MSN20020118090009601/18/02 09:00:31  5-MIN KMSN 181500Z 31008KT 10SM CLR M14/M19 A3024 570 66 -2800 310/08 RMK AO2
14837KMSN MSN20020118090509601/18/02 09:05:31  5-MIN KMSN 181505Z 32008KT 10SM CLR M14/M19 A3024 570 66 -2800 320/08 RMK AO2
14837KMSN MSN20020118091009601/18/02 09:10:31  5-MIN KMSN 181510Z 32010KT 10SM CLR M14/M19 A3024 570 63 -2800 320/10 RMK AO2
14837KMSN MSN20020118091509601/18/02 09:15:31  5-MIN KMSN 181515Z 32008KT 10SM CLR M14/M19 A3024 570 63 -2800 320/08 RMK AO2
14837KMSN MSN20020118092011201/18/02 09:20:31  5-MIN KMSN 181520Z 32007KT 290V360 10SM CLR M14/M19 A3025 560 63 -2800 320/07 290V360 RMK AO2
14837KMSN MSN20020118092511201/18/02 09:25:31  5-MIN KMSN 181525Z 31007KT 280V350 10SM CLR M13/M19 A3025 560 60 -2800 310/07 280V350 RMK AO2
14837KMSN MSN20020118093011201/18/02 09:30:31  5-MIN KMSN 181530Z 32009KT 270V340 10SM CLR M13/M19 A3025 560 60 -2800 320/09 270V340 RMK AO2
14837KMSN MSN20020118093509601/18/02 09:35:31  5-MIN KMSN 181535Z 31006KT 10SM CLR M13/M19 A3025 560 60 -2800 310/06 RMK AO2
14837KMSN MSN20020118094009601/18/02 09:40:31  5-MIN KMSN 181540Z 30007KT 10SM CLR M13/M19 A3026 560 63 -2800 300/07 RMK AO2
14837KMSN MSN20020118094509601/18/02 09:45:31  5-MIN KMSN 181545Z 30008KT 10SM CLR M13/M19 A3025 560 60 -2800 300/08 RMK AO2
14837KMSN MSN20020118095011301/18/02 09:50:31  5-MIN KMSN 181550Z 32010KT 10SM CLR M13/M19 A3025 560 60 -2800 310/10 RMK AO2 SLP262 T11331194
14837KMSN MSN20020118095509601/18/02 09:55:31  5-MIN KMSN 181555Z 30008KT 10SM CLR M13/M19 A3025 560 63 -2800 300/08 RMK AO2
14837KMSN MSN20020118100009601/18/02 10:00:31  5-MIN KMSN 181600Z 32008KT 10SM CLR M13/M19 A3025 560 60 -2800 310/08 RMK AO2
14837KMSN MSN20020118100511201/18/02 10:05:31  5-MIN KMSN 181605Z 31008KT 280V350 10SM CLR M13/M19 A3025 560 63 -2800 310/08 280V350 RMK AO2
14837KMSN MSN20020118101009601/18/02 10:10:31  5-MIN KMSN 181610Z 33007KT 10SM CLR M13/M19 A3025 560 63 -2800 330/07 RMK AO2
14837KMSN MSN20020118101509601/18/02 10:15:31  5-MIN KMSN 181615Z 30008KT 10SM CLR M13/M19 A3025 560 63 -2800 300/08 RMK AO2
14837KMSN MSN20020118102009601/18/02 10:20:31  5-MIN KMSN 181620Z 31009KT 10SM CLR M13/M19 A3025 560 60 -2800 310/09 RMK AO2
14837KMSN MSN20020118102509601/18/02 10:25:31  5-MIN KMSN 181625Z 31009KT 10SM CLR M13/M19 A3025 560 60 -2800 310/09 RMK AO2
14837KMSN MSN20020118103009601/18/02 10:30:31  5-MIN KMSN 181630Z 32009KT 10SM CLR M13/M19 A3026 560 60 -2800 320/09 RMK AO2
14837KMSN MSN20020118103509601/18/02 10:35:31  5-MIN KMSN 181635Z 30008KT 10SM CLR M13/M20 A3025 560 58 -2800 300/08 RMK AO2
14837KMSN MSN20020118104009601/18/02 10:40:31  5-MIN KMSN 181640Z VRB05KT 10SM CLR M13/M20 A3026 550 58 -2800 VRB/05 RMK AO2
14837KMSN MSN20020118104509601/18/02 10:45:31  5-MIN KMSN 181645Z 31007KT 10SM CLR M13/M20 A3026 550 58 -2800 300/07 RMK AO2
14837KMSN MSN20020118105011301/18/02 10:50:31  5-MIN KMSN 181650Z 27007KT 10SM CLR M13/M19 A3027 550 60 -2800 270/07 RMK AO2 SLP268 T11331194
14837KMSN MSN20020118105509601/18/02 10:55:31  5-MIN KMSN 181655Z 31007KT 10SM CLR M13/M20 A3027 540 55 -2700 310/07 RMK AO2
14837KMSN MSN20020118110009601/18/02 11:00:31  5-MIN KMSN 181700Z 31008KT 10SM CLR M13/M20 A3026 550 58 -2800 310/08 RMK AO2
14837KMSN MSN20020118110509601/18/02 11:05:31  5-MIN KMSN 181705Z 31005KT 10SM CLR M13/M20 A3026 550 58 -2800 310/05 RMK AO2
14837KMSN MSN20020118111009601/18/02 11:10:31  5-MIN KMSN 181710Z 32006KT 10SM CLR M13/M20 A3026 550 55 -2700 320/06 RMK AO2
14837KMSN MSN20020118111509601/18/02 11:15:31  5-MIN KMSN 181715Z 31008KT 10SM CLR M13/M19 A3026 560 58 -2700 300/08 RMK AO2
14837KMSN MSN20020118112009601/18/02 11:20:31  5-MIN KMSN 181720Z 29007KT 10SM CLR M13/M20 A3026 560 55 -2700 290/07 RMK AO2
14837KMSN MSN20020118112509601/18/02 11:25:31  5-MIN KMSN 181725Z 28005KT 10SM CLR M13/M21 A3026 550 53 -2700 280/05 RMK AO2
14837KMSN MSN20020118113009601/18/02 11:30:31  5-MIN KMSN 181730Z 31008KT 10SM CLR M13/M21 A3026 550 53 -2700 310/08 RMK AO2
14837KMSN MSN20020118113509601/18/02 11:35:31  5-MIN KMSN 181735Z VRB06KT 10SM CLR M13/M20 A3026 550 55 -2700 VRB/06 RMK AO2
14837KMSN MSN20020118114009601/18/02 11:40:31  5-MIN KMSN 181740Z 30006KT 10SM CLR M13/M21 A3026 560 53 -2700 300/06 RMK AO2
14837KMSN MSN20020118114509601/18/02 11:45:31  5-MIN KMSN 181745Z 31007KT 10SM CLR M13/M20 A3026 560 55 -2700 310/07 RMK AO2
14837KMSN MSN20020118115013101/18/02 11:50:31  5-MIN KMSN 181750Z 27007KT 10SM CLR M12/M19 A3026 560 55 -2600 270/07 RMK AO2 SLP264 T11221194 11122 21144 53022
14837KMSN MSN20020118115509601/18/02 11:55:31  5-MIN KMSN 181755Z 27007KT 10SM CLR M13/M20 A3026 550 55 -2700 270/07 RMK AO2
14837KMSN MSN20020118120009601/18/02 12:00:31  5-MIN KMSN 181800Z 26006KT 10SM CLR M12/M20 A3026 550 53 -2600 260/06 RMK AO2
14837KMSN MSN20020118120509601/18/02 12:05:31  5-MIN KMSN 181805Z 26008KT 10SM CLR M12/M20 A3026 560 53 -2600 260/08 RMK AO2
14837KMSN MSN20020118121009601/18/02 12:10:31  5-MIN KMSN 181810Z 29006KT 10SM CLR M12/M20 A3025 560 53 -2600 290/06 RMK AO2
14837KMSN MSN20020118121509601/18/02 12:15:31  5-MIN KMSN 181815Z VRB06KT 10SM CLR M12/M19 A3025 560 55 -2600 VRB/06 RMK AO2
14837KMSN MSN20020118122009601/18/02 12:20:31  5-MIN KMSN 181820Z 25007KT 10SM CLR M12/M20 A3025 560 53 -2600 250/07 RMK AO2
14837KMSN MSN20020118122509601/18/02 12:25:31  5-MIN KMSN 181825Z VRB04KT 10SM CLR M12/M19 A3025 560 55 -2600 VRB/04 RMK AO2
14837KMSN MSN20020118123009601/18/02 12:30:31  5-MIN KMSN 181830Z 24005KT 10SM CLR M12/M19 A3025 560 55 -2600 240/05 RMK AO2
14837KMSN MSN20020118123509601/18/02 12:35:31  5-MIN KMSN 181835Z 28005KT 10SM CLR M12/M19 A3024 570 53 -2500 280/05 RMK AO2
14837KMSN MSN20020118124009601/18/02 12:40:31  5-MIN KMSN 181840Z 28007KT 10SM CLR M12/M19 A3024 570 53 -2500 280/07 RMK AO2
14837KMSN MSN20020118124509601/18/02 12:45:31  5-MIN KMSN 181845Z 30006KT 10SM CLR M12/M19 A3024 570 53 -2500 300/06 RMK AO2
14837KMSN MSN20020118125011301/18/02 12:50:31  5-MIN KMSN 181850Z 26008KT 10SM CLR M12/M19 A3024 570 53 -2500 260/08 RMK AO2 SLP259 T11171194
14837KMSN MSN20020118125509601/18/02 12:55:31  5-MIN KMSN 181855Z VRB06KT 10SM CLR M12/M20 A3024 570 50 -2500 VRB/06 RMK AO2
14837KMSN MSN20020118130009601/18/02 13:00:31  5-MIN KMSN 181900Z VRB04KT 10SM CLR M12/M20 A3023 570 50 -2500 VRB/04 RMK AO2
14837KMSN MSN20020118130509601/18/02 13:05:31  5-MIN KMSN 181905Z 30006KT 10SM CLR M12/M20 A3023 580 50 -2500 300/06 RMK AO2
14837KMSN MSN20020118131009601/18/02 13:10:31  5-MIN KMSN 181910Z VRB06KT 10SM CLR M11/M21 A3023 580 46 -2500 VRB/06 RMK AO2
14837KMSN MSN20020118131509601/18/02 13:15:31  5-MIN KMSN 181915Z VRB06KT 10SM CLR M11/M21 A3023 580 46 -2500 VRB/06 RMK AO2
14837KMSN MSN20020118132009601/18/02 13:20:31  5-MIN KMSN 181920Z VRB04KT 10SM CLR M11/M21 A3022 590 46 -2400 VRB/04 RMK AO2
14837KMSN MSN20020118132509601/18/02 13:25:31  5-MIN KMSN 181925Z 29007KT 10SM CLR M11/M20 A3022 590 48 -2400 280/07 RMK AO2
14837KMSN MSN20020118133009601/18/02 13:30:31  5-MIN KMSN 181930Z 30007KT 10SM CLR M11/M21 A3022 590 46 -2400 300/07 RMK AO2
14837KMSN MSN20020118133509601/18/02 13:35:31  5-MIN KMSN 181935Z 30007KT 10SM CLR M11/M21 A3022 590 46 -2400 300/07 RMK AO2
14837KMSN MSN20020118134009601/18/02 13:40:31  5-MIN KMSN 181940Z 29006KT 10SM CLR M11/M21 A3022 590 46 -2400 290/06 RMK AO2
14837KMSN MSN20020118134509601/18/02 13:45:31  5-MIN KMSN 181945Z 24006KT 10SM CLR M11/M21 A3022 590 46 -2400 240/06 RMK AO2
14837KMSN MSN20020118135011301/18/02 13:50:31  5-MIN KMSN 181950Z 26005KT 10SM CLR M11/M20 A3022 590 48 -2400 260/05 RMK AO2 SLP253 T11111200
14837KMSN MSN20020118135509601/18/02 13:55:31  5-MIN KMSN 181955Z 27005KT 10SM CLR M11/M20 A3022 590 46 -2400 270/05 RMK AO2
14837KMSN MSN20020118140009601/18/02 14:00:31  5-MIN KMSN 182000Z 26005KT 10SM CLR M11/M20 A3022 590 46 -2400 250/05 RMK AO2
14837KMSN MSN20020118170509601/18/02 17:05:31  5-MIN KMSN 182305Z 00000KT 10SM CLR M13/M18 A3019 620 66 -2600 000/00 RMK AO2
14837KMSN MSN20020118171009601/18/02 17:10:31  5-MIN KMSN 182310Z 00000KT 10SM CLR M13/M18 A3019 620 66 -2600 000/00 RMK AO2
14837KMSN MSN20020118171509601/18/02 17:15:31  5-MIN KMSN 182315Z 00000KT 10SM CLR M13/M18 A3019 620 66 -2700 000/00 RMK AO2
14837KMSN MSN20020118172009601/18/02 17:20:31  5-MIN KMSN 182320Z 00000KT 10SM CLR M13/M18 A3019 620 66 -2700 000/00 RMK AO2
14837KMSN MSN20020118172509601/18/02 17:25:31  5-MIN KMSN 182325Z 00000KT 10SM CLR M13/M18 A3019 620 69 -2700 000/00 RMK AO2
14837KMSN MSN20020118173009601/18/02 17:30:31  5-MIN KMSN 182330Z 17003KT 10SM CLR M13/M19 A3019 620 60 -2700 170/03 RMK AO2
14837KMSN MSN20020118173509601/18/02 17:35:31  5-MIN KMSN 182335Z 16003KT 10SM CLR M13/M18 A3018 620 63 -2600 160/03 RMK AO2
14837KMSN MSN20020118174009601/18/02 17:40:31  5-MIN KMSN 182340Z 00000KT 10SM CLR M12/M18 A3018 620 61 -2600 000/00 RMK AO2
14837KMSN MSN20020118174510201/18/02 17:45:31  5-MIN KMSN 182345Z 00000KT 10SM CLR M15/M18 A3018 620 76 -2900 000/00 RMK AO2 4/003
14837KMSN MSN20020118175013701/18/02 17:50:31  5-MIN KMSN 182350Z 00000KT 10SM CLR M15/M19 A3018 630 72 -2900 000/00 RMK AO2 SLP240 4/003 T11501189 11094 21150 56016
14837KMSN MSN20020118175509601/18/02 17:55:31  5-MIN KMSN 182355Z 24003KT 10SM CLR M15/M19 A3018 630 69 -2900 240/03 RMK AO2
14837KMSN MSN20020118180009601/18/02 18:00:31  5-MIN KMSN 190000Z 00000KT 10SM CLR M14/M19 A3017 630 66 -2800 000/00 RMK AO2
14837KMSN MSN20020118180509601/18/02 18:05:31  5-MIN KMSN 190005Z 00000KT 10SM CLR M14/M20 A3017 630 63 -2800 000/00 RMK AO2
14837KMSN MSN20020118181009601/18/02 18:10:31  5-MIN KMSN 190010Z 00000KT 10SM CLR M15/M19 A3017 630 69 -2900 000/00 RMK AO2
14837KMSN MSN20020118181509601/18/02 18:15:31  5-MIN KMSN 190015Z 27003KT 10SM CLR M14/M19 A3018 630 69 -2800 270/03 RMK AO2
14837KMSN MSN20020118182009601/18/02 18:20:31  5-MIN KMSN 190020Z 28003KT 10SM CLR M14/M19 A3017 630 69 -2800 280/03 RMK AO2
14837KMSN MSN20020118182509601/18/02 18:25:31  5-MIN KMSN 190025Z 00000KT 10SM CLR M14/M18 A3017 630 69 -2800 000/00 RMK AO2
14837KMSN MSN20020118183009601/18/02 18:30:31  5-MIN KMSN 190030Z 00000KT 10SM CLR M12/M18 A3017 630 61 -2500 000/00 RMK AO2
14837KMSN MSN20020118183509601/18/02 18:35:31  5-MIN KMSN 190035Z 24003KT 10SM CLR M13/M18 A3017 630 66 -2700 240/03 RMK AO2
14837KMSN MSN20020118184009601/18/02 18:40:31  5-MIN KMSN 190040Z 00000KT 10SM CLR M14/M18 A3017 630 69 -2800 000/00 RMK AO2
14837KMSN MSN20020118184509601/18/02 18:45:31  5-MIN KMSN 190045Z 00000KT 10SM CLR M15/M18 A3017 630 76 -2900 000/00 RMK AO2
14837KMSN MSN20020118185011301/18/02 18:50:31  5-MIN KMSN 190050Z 00000KT 10SM CLR M14/M18 A3017 640 73 -2800 000/00 RMK AO2 SLP237 T11441183
14837KMSN MSN20020118185509601/18/02 18:55:31  5-MIN KMSN 190055Z 00000KT 10SM CLR M15/M19 A3017 640 72 -2900 000/00 RMK AO2
14837KMSN MSN20020118190009601/18/02 19:00:31  5-MIN KMSN 190100Z 00000KT 10SM CLR M15/M18 A3017 640 76 -2900 000/00 RMK AO2
14837KMSN MSN20020118190509601/18/02 19:05:31  5-MIN KMSN 190105Z 00000KT 10SM CLR M14/M18 A3017 640 73 -2800 000/00 RMK AO2
14837KMSN MSN20020118191009601/18/02 19:10:31  5-MIN KMSN 190110Z 25003KT 10SM CLR M14/M18 A3017 640 73 -2800 250/03 RMK AO2
14837KMSN MSN20020118191509601/18/02 19:15:31  5-MIN KMSN 190115Z VRB03KT 10SM CLR M14/M18 A3017 640 69 -2800 VRB/03 RMK AO2
14837KMSN MSN20020118192009601/18/02 19:20:31  5-MIN KMSN 190120Z 00000KT 10SM CLR M14/M19 A3017 640 69 -2800 000/00 RMK AO2
14837KMSN MSN20020118192509601/18/02 19:25:31  5-MIN KMSN 190125Z 00000KT 10SM CLR M14/M18 A3017 640 73 -2800 000/00 RMK AO2
14837KMSN MSN20020118193009601/18/02 19:30:31  5-MIN KMSN 190130Z 00000KT 10SM CLR M14/M18 A3017 640 69 -2800 000/00 RMK AO2
14837KMSN MSN20020118193509601/18/02 19:35:31  5-MIN KMSN 190135Z 00000KT 10SM CLR M14/M18 A3017 640 73 -2800 000/00 RMK AO2
14837KMSN MSN20020118194009601/18/02 19:40:31  5-MIN KMSN 190140Z 00000KT 10SM CLR M14/M18 A3017 640 69 -2800 000/00 RMK AO2
14837KMSN MSN20020118194509601/18/02 19:45:31  5-MIN KMSN 190145Z 00000KT 10SM CLR M14/M19 A3017 640 66 -2800 000/00 RMK AO2
14837KMSN MSN20020118195011301/18/02 19:50:31  5-MIN KMSN 190150Z 00000KT 10SM CLR M14/M19 A3017 640 69 -2800 000/00 RMK AO2 SLP237 T11441189
14837KMSN MSN20020118195509601/18/02 19:55:31  5-MIN KMSN 190155Z 00000KT 10SM CLR M14/M18 A3017 640 69 -2800 000/00 RMK AO2
14837KMSN MSN20020118200009601/18/02 20:00:31  5-MIN KMSN 190200Z 00000KT 10SM CLR M13/M18 A3017 640 66 -2700 000/00 RMK AO2
14837KMSN MSN20020118200509601/18/02 20:05:31  5-MIN KMSN 190205Z 00000KT 10SM CLR M13/M18 A3016 640 63 -2600 000/00 RMK AO2
14837KMSN MSN20020118201009601/18/02 20:10:31  5-MIN KMSN 190210Z 26003KT 10SM CLR M13/M18 A3016 640 63 -2600 260/03 RMK AO2
14837KMSN MSN20020118201509601/18/02 20:15:31  5-MIN KMSN 190215Z VRB03KT 10SM CLR M13/M18 A3016 640 66 -2700 VRB/03 RMK AO2
14837KMSN MSN20020118202009601/18/02 20:20:31  5-MIN KMSN 190220Z VRB03KT 10SM CLR M13/M18 A3016 640 66 -2700 VRB/03 RMK AO2
14837KMSN MSN20020118202509601/18/02 20:25:31  5-MIN KMSN 190225Z VRB03KT 10SM CLR M13/M18 A3016 640 66 -2700 VRB/03 RMK AO2
14837KMSN MSN20020118203009601/18/02 20:30:31  5-MIN KMSN 190230Z 00000KT 10SM CLR M13/M18 A3016 640 63 -2600 000/00 RMK AO2
14837KMSN MSN20020118203509601/18/02 20:35:31  5-MIN KMSN 190235Z VRB03KT 10SM CLR M13/M19 A3016 640 63 -2700 VRB/03 RMK AO2
14837KMSN MSN20020118204009601/18/02 20:40:31  5-MIN KMSN 190240Z 00000KT 10SM CLR M14/M19 A3016 640 66 -2800 000/00 RMK AO2
14837KMSN MSN20020118204509601/18/02 20:45:31  5-MIN KMSN 190245Z 00000KT 10SM CLR M14/M18 A3016 640 69 -2800 000/00 RMK AO2
14837KMSN MSN20020118205011901/18/02 20:50:31  5-MIN KMSN 190250Z 00000KT 10SM CLR M13/M18 A3016 640 66 -2700 000/00 RMK AO2 SLP235 T11331183 58010
14837KMSN MSN20020118205509601/18/02 20:55:31  5-MIN KMSN 190255Z 00000KT 10SM CLR M13/M19 A3016 640 63 -2700 000/00 RMK AO2
14837KMSN MSN20020118210009601/18/02 21:00:31  5-MIN KMSN 190300Z 00000KT 10SM CLR M14/M19 A3016 640 66 -2700 000/00 RMK AO2
14837KMSN MSN20020118210509601/18/02 21:05:31  5-MIN KMSN 190305Z 00000KT 10SM CLR M15/M18 A3016 650 80 -2900 000/00 RMK AO2
14837KMSN MSN20020118211009601/18/02 21:10:31  5-MIN KMSN 190310Z 00000KT 10SM CLR M16/M18 A3015 650 83 -3000 000/00 RMK AO2
14837KMSN MSN20020118211509601/18/02 21:15:31  5-MIN KMSN 190315Z 00000KT 10SM CLR M16/M19 A3015 650 79 -3000 000/00 RMK AO2
14837KMSN MSN20020118212009601/18/02 21:20:31  5-MIN KMSN 190320Z 00000KT 10SM CLR M16/M18 A3015 650 83 -3000 000/00 RMK AO2
14837KMSN MSN20020118212509601/18/02 21:25:31  5-MIN KMSN 190325Z 00000KT 10SM CLR M16/M18 A3015 660 83 -3000 000/00 RMK AO2
14837KMSN MSN20020118213009601/18/02 21:30:31  5-MIN KMSN 190330Z 00000KT 10SM CLR M16/M18 A3015 660 79 -3000 000/00 RMK AO2
14837KMSN MSN20020118213509601/18/02 21:35:31  5-MIN KMSN 190335Z 20003KT 10SM CLR M16/M18 A3014 660 79 -3000 200/03 RMK AO2
14837KMSN MSN20020118214009601/18/02 21:40:31  5-MIN KMSN 190340Z 00000KT 10SM CLR M15/M18 A3015 660 76 -2900 000/00 RMK AO2
14837KMSN MSN20020118214509601/18/02 21:45:31  5-MIN KMSN 190345Z 19005KT 10SM CLR M14/M18 A3015 660 76 -2800 190/05 RMK AO2
14837KMSN MSN20020118215011301/18/02 21:50:31  5-MIN KMSN 190350Z 17006KT 10SM CLR M14/M18 A3014 660 76 -2800 170/06 RMK AO2 SLP227 T11441178
14837KMSN MSN20020118215509601/18/02 21:55:31  5-MIN KMSN 190355Z 18006KT 10SM CLR M14/M18 A3014 660 73 -2700 180/06 RMK AO2
14837KMSN MSN20020118220009601/18/02 22:00:31  5-MIN KMSN 190400Z 17007KT 10SM CLR M14/M18 A3014 670 73 -2800 170/07 RMK AO2
14837KMSN MSN20020118220509601/18/02 22:05:31  5-MIN KMSN 190405Z 18005KT 10SM CLR M14/M18 A3013 670 76 -2800 180/05 RMK AO2
14837KMSN MSN20020118221009601/18/02 22:10:31  5-MIN KMSN 190410Z 19003KT 10SM CLR M14/M18 A3013 670 73 -2800 180/03 RMK AO2
14837KMSN MSN20020118221509601/18/02 22:15:31  5-MIN KMSN 190415Z 00000KT 10SM CLR M14/M18 A3013 670 76 -2800 000/00 RMK AO2
14837KMSN MSN20020118222009601/18/02 22:20:31  5-MIN KMSN 190420Z 00000KT 10SM CLR M15/M18 A3013 670 80 -2900 000/00 RMK AO2
14837KMSN MSN20020118222509601/18/02 22:25:31  5-MIN KMSN 190425Z 00000KT 10SM CLR M16/M18 A3013 670 79 -2900 000/00 RMK AO2
14837KMSN MSN20020118223009601/18/02 22:30:31  5-MIN KMSN 190430Z 00000KT 10SM CLR M16/M18 A3013 670 83 -3000 000/00 RMK AO2
14837KMSN MSN20020118223509601/18/02 22:35:31  5-MIN KMSN 190435Z 00000KT 10SM CLR M16/M18 A3013 670 83 -2900 000/00 RMK AO2
14837KMSN MSN20020118224009601/18/02 22:40:31  5-MIN KMSN 190440Z 00000KT 10SM CLR M17/M19 A3013 670 83 -3100 000/00 RMK AO2
14837KMSN MSN20020118224509601/18/02 22:45:31  5-MIN KMSN 190445Z 00000KT 10SM CLR M17/M19 A3013 670 83 -3100 000/00 RMK AO2
14837KMSN MSN20020118225011301/18/02 22:50:31  5-MIN KMSN 190450Z 00000KT 10SM CLR M16/M18 A3013 670 83 -3000 000/00 RMK AO2 SLP222 T11611183
14837KMSN MSN20020118225509601/18/02 22:55:31  5-MIN KMSN 190455Z 00000KT 10SM CLR M17/M19 A3013 670 83 -3100 000/00 RMK AO2
14837KMSN MSN20020118230009601/18/02 23:00:31  5-MIN KMSN 190500Z 00000KT 10SM CLR M17/M19 A3013 670 83 -3100 000/00 RMK AO2
14837KMSN MSN20020118230509601/18/02 23:05:31  5-MIN KMSN 190505Z 00000KT 10SM CLR M17/M18 A3013 670 87 -3100 000/00 RMK AO2
14837KMSN MSN20020118231009601/18/02 23:10:31  5-MIN KMSN 190510Z 20003KT 10SM CLR M16/M18 A3013 670 83 -3000 200/03 RMK AO2
14837KMSN MSN20020118231509601/18/02 23:15:31  5-MIN KMSN 190515Z 00000KT 10SM CLR M17/M19 A3013 680 83 -3100 000/00 RMK AO2
14837KMSN MSN20020118232009601/18/02 23:20:31  5-MIN KMSN 190520Z 00000KT 10SM CLR M17/M18 A3012 680 87 -3100 000/00 RMK AO2
14837KMSN MSN20020118232509501/18/02 23:25:31  5-MIN KMSN 190525Z 00000KT 9SM CLR M17/M18 A3013 680 87 -3100 000/00 RMK AO2
14837KMSN MSN20020118233009601/18/02 23:30:31  5-MIN KMSN 190530Z 00000KT 10SM CLR M16/M18 A3013 680 83 -3000 000/00 RMK AO2
14837KMSN MSN20020118233509601/18/02 23:35:31  5-MIN KMSN 190535Z 00000KT 10SM CLR M16/M18 A3013 670 83 -3000 000/00 RMK AO2
14837KMSN MSN20020118234009601/18/02 23:40:31  5-MIN KMSN 190540Z 00000KT 10SM CLR M16/M17 A3013 670 87 -2900 000/00 RMK AO2
14837KMSN MSN20020118234509601/18/02 23:45:31  5-MIN KMSN 190545Z 00000KT 10SM CLR M16/M18 A3013 670 79 -2900 000/00 RMK AO2
14837KMSN MSN20020118235014101/18/02 23:50:31  5-MIN KMSN 190550Z 00000KT 10SM CLR M16/M18 A3012 680 83 -3000 000/00 RMK AO2 SLP221 T11611183 11122 21172 410941172 56005
14837KMSN MSN20020118235509601/18/02 23:55:31  5-MIN KMSN 190555Z 17003KT 10SM CLR M16/M18 A3012 680 83 -2900 170/03 RMK AO2
14837KMSN MSN20020119000009601/19/02 00:00:31  5-MIN KMSN 190600Z 17003KT 10SM CLR M16/M18 A3012 680 83 -2900 170/03 RMK AO2
14837KMSN MSN20020119000509601/19/02 00:05:31  5-MIN KMSN 190605Z 18004KT 10SM CLR M16/M18 A3012 680 83 -2900 170/04 RMK AO2
14837KMSN MSN20020119001009601/19/02 00:10:31  5-MIN KMSN 190610Z 18003KT 10SM CLR M16/M19 A3011 690 76 -2900 180/03 RMK AO2
14837KMSN MSN20020119001509601/19/02 00:15:31  5-MIN KMSN 190615Z 17003KT 10SM CLR M16/M18 A3011 690 79 -2900 170/03 RMK AO2
14837KMSN MSN20020119002009601/19/02 00:20:31  5-MIN KMSN 190620Z 17003KT 10SM CLR M15/M18 A3011 690 80 -2800 170/03 RMK AO2
14837KMSN MSN20020119002509601/19/02 00:25:31  5-MIN KMSN 190625Z 17003KT 10SM CLR M15/M18 A3011 690 80 -2800 170/03 RMK AO2
14837KMSN MSN20020119003009601/19/02 00:30:31  5-MIN KMSN 190630Z 00000KT 10SM CLR M15/M18 A3010 700 80 -2800 000/00 RMK AO2
14837KMSN MSN20020119003509601/19/02 00:35:31  5-MIN KMSN 190635Z 16003KT 10SM CLR M15/M18 A3010 700 76 -2800 160/03 RMK AO2
14837KMSN MSN20020119004009601/19/02 00:40:31  5-MIN KMSN 190640Z 16004KT 10SM CLR M14/M18 A3009 700 76 -2700 160/04 RMK AO2
14837KMSN MSN20020119004509601/19/02 00:45:31  5-MIN KMSN 190645Z 16003KT 10SM CLR M16/M18 A3009 700 79 -2900 160/03 RMK AO2
14837KMSN MSN20020119005011301/19/02 00:50:31  5-MIN KMSN 190650Z 16003KT 10SM CLR M16/M18 A3009 710 79 -2900 160/03 RMK AO2 SLP210 T11561183
14837KMSN MSN20020119005509601/19/02 00:55:31  5-MIN KMSN 190655Z 00000KT 10SM CLR M16/M18 A3009 710 79 -2900 000/00 RMK AO2
14837KMSN MSN20020119010009601/19/02 01:00:31  5-MIN KMSN 190700Z 17004KT 10SM CLR M16/M18 A3009 710 79 -2900 170/04 RMK AO2
14837KMSN MSN20020119010509601/19/02 01:05:31  5-MIN KMSN 190705Z 17005KT 10SM CLR M16/M18 A3008 710 79 -2900 170/05 RMK AO2
14837KMSN MSN20020119011009601/19/02 01:10:31  5-MIN KMSN 190710Z 17005KT 10SM CLR M14/M17 A3008 720 80 -2700 170/05 RMK AO2
14837KMSN MSN20020119011509601/19/02 01:15:31  5-MIN KMSN 190715Z 17005KT 10SM CLR M14/M18 A3008 720 76 -2700 170/05 RMK AO2
14837KMSN MSN20020119012009601/19/02 01:20:31  5-MIN KMSN 190720Z 17005KT 10SM CLR M14/M18 A3007 720 73 -2700 170/05 RMK AO2
14837KMSN MSN20020119012509601/19/02 01:25:31  5-MIN KMSN 190725Z 17005KT 10SM CLR M14/M18 A3007 720 76 -2700 170/05 RMK AO2
14837KMSN MSN20020119013009601/19/02 01:30:31  5-MIN KMSN 190730Z 17006KT 10SM CLR M14/M18 A3007 730 73 -2600 170/06 RMK AO2
14837KMSN MSN20020119013509601/19/02 01:35:31  5-MIN KMSN 190735Z 17005KT 10SM CLR M14/M18 A3007 730 73 -2600 170/05 RMK AO2
14837KMSN MSN20020119014009601/19/02 01:40:31  5-MIN KMSN 190740Z 18005KT 10SM CLR M14/M18 A3006 730 76 -2700 180/05 RMK AO2
14837KMSN MSN20020119014509601/19/02 01:45:31  5-MIN KMSN 190745Z 18005KT 10SM CLR M14/M18 A3006 740 73 -2600 180/05 RMK AO2
14837KMSN MSN20020119015011301/19/02 01:50:31  5-MIN KMSN 190750Z 18004KT 10SM CLR M14/M18 A3006 740 73 -2600 180/04 RMK AO2 SLP197 T11391178
14837KMSN MSN20020119015509601/19/02 01:55:31  5-MIN KMSN 190755Z VRB03KT 10SM CLR M14/M18 A3005 740 73 -2600 VRB/03 RMK AO2
14837KMSN MSN20020119020009601/19/02 02:00:31  5-MIN KMSN 190800Z 18003KT 10SM CLR M14/M18 A3005 740 73 -2600 180/03 RMK AO2
14837KMSN MSN20020119020509601/19/02 02:05:31  5-MIN KMSN 190805Z 18004KT 10SM CLR M14/M18 A3005 740 73 -2600 180/04 RMK AO2
14837KMSN MSN20020119021009601/19/02 02:10:31  5-MIN KMSN 190810Z 00000KT 10SM CLR M14/M18 A3005 740 73 -2600 000/00 RMK AO2
14837KMSN MSN20020119021509601/19/02 02:15:31  5-MIN KMSN 190815Z 00000KT 10SM CLR M14/M18 A3005 750 73 -2700 000/00 RMK AO2
14837KMSN MSN20020119022009601/19/02 02:20:31  5-MIN KMSN 190820Z 00000KT 10SM CLR M16/M18 A3005 750 79 -2800 000/00 RMK AO2
14837KMSN MSN20020119022509601/19/02 02:25:31  5-MIN KMSN 190825Z 00000KT 10SM CLR M14/M18 A3005 750 73 -2700 000/00 RMK AO2
14837KMSN MSN20020119023009601/19/02 02:30:31  5-MIN KMSN 190830Z 00000KT 10SM CLR M14/M18 A3005 750 73 -2700 000/00 RMK AO2
14837KMSN MSN20020119023509601/19/02 02:35:31  5-MIN KMSN 190835Z 19003KT 10SM CLR M14/M18 A3004 750 76 -2700 190/03 RMK AO2
14837KMSN MSN20020119024009601/19/02 02:40:31  5-MIN KMSN 190840Z 18003KT 10SM CLR M14/M18 A3004 750 76 -2700 180/03 RMK AO2
14837KMSN MSN20020119024509601/19/02 02:45:31  5-MIN KMSN 190845Z 18003KT 10SM CLR M14/M21 A3004 760 60 -2700 180/03 RMK AO2
14837KMSN MSN20020119025011901/19/02 02:50:31  5-MIN KMSN 190850Z 00000KT 10SM CLR M14/M19 A3004 760 69 -2700 000/00 RMK AO2 SLP190 T11441189 56014
14837KMSN MSN20020119025509601/19/02 02:55:31  5-MIN KMSN 190855Z 18003KT 10SM CLR M14/M18 A3003 760 73 -2700 180/03 RMK AO2
14837KMSN MSN20020119030009901/19/02 03:00:31  5-MIN KMSN 190900Z 18005KT 10SM SCT060 M15/M18 A3003 760 76 -2700 180/05 RMK AO2
14837KMSN MSN20020119030509901/19/02 03:05:31  5-MIN KMSN 190905Z 18004KT 10SM SCT060 M15/M18 A3003 760 76 -2700 180/04 RMK AO2
14837KMSN MSN20020119031009901/19/02 03:10:31  5-MIN KMSN 190910Z 18005KT 10SM SCT060 M15/M18 A3003 770 76 -2700 180/05 RMK AO2
14837KMSN MSN20020119031509901/19/02 03:15:31  5-MIN KMSN 190915Z 18005KT 10SM SCT060 M15/M18 A3002 770 76 -2700 180/05 RMK AO2
14837KMSN MSN20020119032009901/19/02 03:20:31  5-MIN KMSN 190920Z 17007KT 10SM SCT060 M15/M18 A3002 770 80 -2700 170/07 RMK AO2
14837KMSN MSN20020119032509901/19/02 03:25:31  5-MIN KMSN 190925Z 17005KT 10SM SCT060 M15/M18 A3003 770 80 -2700 170/05 RMK AO2
14837KMSN MSN20020119033009901/19/02 03:30:31  5-MIN KMSN 190930Z 17006KT 10SM BKN060 M14/M18 A3002 770 76 -2700 170/06 RMK AO2
14837KMSN MSN20020119033510601/19/02 03:35:31  5-MIN KMSN 190935Z 17005KT 10SM BKN060 BKN070 M15/M18 A3002 770 76 -2700 170/05 RMK AO2
14837KMSN MSN20020119034010601/19/02 03:40:31  5-MIN KMSN 190940Z 17005KT 10SM BKN060 BKN070 M15/M18 A3002 770 76 -2700 170/05 RMK AO2
14837KMSN MSN20020119034510601/19/02 03:45:31  5-MIN KMSN 190945Z 17004KT 10SM BKN060 BKN090 M15/M18 A3001 780 76 -2700 170/04 RMK AO2
14837KMSN MSN20020119035012301/19/02 03:50:31  5-MIN KMSN 190950Z 17004KT 10SM BKN065 BKN090 M14/M18 A3001 780 76 -2600 170/04 RMK AO2 SLP182 T11441178
14837KMSN MSN20020119035510601/19/02 03:55:31  5-MIN KMSN 190955Z 17006KT 10SM SCT070 BKN085 M15/M18 A3001 780 80 -2700 170/06 RMK AO2
14837KMSN MSN20020119040009901/19/02 04:00:31  5-MIN KMSN 191000Z 18007KT 10SM BKN080 M14/M18 A3001 780 73 -2600 180/07 RMK AO2
14837KMSN MSN20020119040509901/19/02 04:05:31  5-MIN KMSN 191005Z 18007KT 10SM BKN080 M14/M18 A3001 780 73 -2600 180/07 RMK AO2
14837KMSN MSN20020119041010601/19/02 04:10:31  5-MIN KMSN 191010Z 17007KT 10SM BKN075 OVC090 M14/M18 A3000 790 73 -2600 170/07 RMK AO2
14837KMSN MSN20020119041510601/19/02 04:15:31  5-MIN KMSN 191015Z 17006KT 10SM BKN070 OVC090 M14/M18 A3000 790 73 -2600 170/06 RMK AO2
14837KMSN MSN20020119042010601/19/02 04:20:31  5-MIN KMSN 191020Z 17007KT 10SM BKN070 OVC090 M14/M18 A3000 790 73 -2600 170/07 RMK AO2
14837KMSN MSN20020119042510601/19/02 04:25:31  5-MIN KMSN 191025Z 19006KT 10SM BKN070 OVC090 M13/M17 A3000 800 73 -2500 190/06 RMK AO2
14837KMSN MSN20020119043010601/19/02 04:30:31  5-MIN KMSN 191030Z VRB03KT 10SM BKN070 OVC090 M13/M17 A3000 800 73 -2500 VRB/03 RMK AO2
14837KMSN MSN20020119043510601/19/02 04:35:31  5-MIN KMSN 191035Z 00000KT 10SM BKN065 OVC090 M13/M17 A3000 790 73 -2500 000/00 RMK AO2
14837KMSN MSN20020119044010601/19/02 04:40:31  5-MIN KMSN 191040Z 00000KT 10SM BKN070 OVC090 M14/M18 A3000 790 73 -2600 000/00 RMK AO2
14837KMSN MSN20020119044510601/19/02 04:45:31  5-MIN KMSN 191045Z 00000KT 10SM BKN070 OVC090 M13/M17 A3000 790 73 -2500 000/00 RMK AO2
14837KMSN MSN20020119045012301/19/02 04:50:31  5-MIN KMSN 191050Z 00000KT 10SM BKN075 OVC090 M13/M17 A3000 790 73 -2500 000/00 RMK AO2 SLP179 T11331172
14837KMSN MSN20020119045510601/19/02 04:55:31  5-MIN KMSN 191055Z 02003KT 10SM BKN080 OVC090 M14/M17 A3001 790 76 -2600 020/03 RMK AO2
14837KMSN MSN20020119050009901/19/02 05:00:31  5-MIN KMSN 191100Z 00000KT 10SM OVC080 M14/M17 A3001 790 80 -2600 000/00 RMK AO2
14837KMSN MSN20020119050509901/19/02 05:05:31  5-MIN KMSN 191105Z 02003KT 10SM OVC080 M14/M18 A3000 790 76 -2600 020/03 RMK AO2
14837KMSN MSN20020119051010601/19/02 05:10:31  5-MIN KMSN 191110Z 01004KT 10SM BKN075 OVC090 M14/M17 A3000 790 80 -2600 010/04 RMK AO2
14837KMSN MSN20020119051510601/19/02 05:15:31  5-MIN KMSN 191115Z 01004KT 10SM BKN075 OVC090 M14/M17 A3000 790 80 -2600 010/04 RMK AO2
14837KMSN MSN20020119052009901/19/02 05:20:31  5-MIN KMSN 191120Z 03003KT 10SM OVC075 M14/M17 A2999 800 83 -2600 030/03 RMK AO2
14837KMSN MSN20020119052509901/19/02 05:25:31  5-MIN KMSN 191125Z 03003KT 10SM OVC075 M14/M17 A2999 800 80 -2600 030/03 RMK AO2
14837KMSN MSN20020119053009901/19/02 05:30:31  5-MIN KMSN 191130Z 00000KT 10SM OVC070 M14/M17 A2999 800 80 -2600 000/00 RMK AO2
14837KMSN MSN20020119053510601/19/02 05:35:31  5-MIN KMSN 191135Z 01003KT 10SM BKN065 OVC080 M13/M17 A2999 800 76 -2500 010/03 RMK AO2
14837KMSN MSN20020119054010601/19/02 05:40:31  5-MIN KMSN 191140Z 00000KT 10SM BKN070 OVC085 M13/M17 A2999 800 76 -2500 000/00 RMK AO2
14837KMSN MSN20020119054510601/19/02 05:45:31  5-MIN KMSN 191145Z 00000KT 10SM BKN065 OVC085 M13/M17 A2999 800 76 -2500 000/00 RMK AO2
14837KMSN MSN20020119055014701/19/02 05:50:31  5-MIN KMSN 191150Z 00000KT 10SM BKN065 OVC080 M13/M17 A2999 800 76 -2500 000/00 RMK AO2 SLP176 4/003 T11331167 11133 21156 56029
14837KMSN MSN20020119055510601/19/02 05:55:31  5-MIN KMSN 191155Z 00000KT 10SM BKN070 OVC085 M13/M16 A2999 800 80 -2500 000/00 RMK AO2
14837KMSN MSN20020119060010601/19/02 06:00:31  5-MIN KMSN 191200Z 00000KT 10SM SCT070 OVC085 M13/M17 A2999 800 76 -2500 000/00 RMK AO2
14837KMSN MSN20020119060509901/19/02 06:05:31  5-MIN KMSN 191205Z 00000KT 10SM OVC075 M13/M17 A2999 800 76 -2500 000/00 RMK AO2
14837KMSN MSN20020119061009901/19/02 06:10:31  5-MIN KMSN 191210Z 00000KT 10SM OVC075 M13/M17 A2999 800 73 -2500 000/00 RMK AO2
14837KMSN MSN20020119061509901/19/02 06:15:31  5-MIN KMSN 191215Z 00000KT 10SM OVC075 M13/M17 A2998 810 76 -2500 000/00 RMK AO2
14837KMSN MSN20020119062010601/19/02 06:20:31  5-MIN KMSN 191220Z 00000KT 10SM BKN070 OVC090 M13/M17 A2998 810 76 -2500 000/00 RMK AO2
14837KMSN MSN20020119062510601/19/02 06:25:31  5-MIN KMSN 191225Z 15003KT 10SM BKN070 OVC090 M13/M17 A2998 810 73 -2400 150/03 RMK AO2
14837KMSN MSN20020119063009901/19/02 06:30:31  5-MIN KMSN 191230Z 00000KT 10SM OVC065 M13/M16 A2998 810 76 -2400 000/00 RMK AO2
14837KMSN MSN20020119063509901/19/02 06:35:31  5-MIN KMSN 191235Z 00000KT 10SM OVC065 M13/M16 A2998 810 83 -2500 000/00 RMK AO2
14837KMSN MSN20020119064010601/19/02 06:40:31  5-MIN KMSN 191240Z 18004KT 10SM BKN065 OVC090 M13/M16 A2998 810 80 -2400 170/04 RMK AO2
14837KMSN MSN20020119064510601/19/02 06:45:31  5-MIN KMSN 191245Z 17006KT 10SM BKN065 OVC095 M12/M16 A2997 810 70 -2200 170/06 RMK AO2
14837KMSN MSN20020119065011601/19/02 06:50:31  5-MIN KMSN 191250Z 18006KT 10SM OVC065 M12/M16 A2998 810 70 -2200 180/06 RMK AO2 SLP170 T11171161
14837KMSN MSN20020119065509901/19/02 06:55:31  5-MIN KMSN 191255Z 17006KT 10SM OVC065 M12/M16 A2997 820 73 -2200 170/06 RMK AO2
14837KMSN MSN20020119070010601/19/02 07:00:31  5-MIN KMSN 191300Z 19005KT 10SM BKN065 OVC090 M12/M16 A2997 820 73 -2200 190/05 RMK AO2
14837KMSN MSN20020119070509901/19/02 07:05:31  5-MIN KMSN 191305Z 19005KT 10SM OVC065 M12/M16 A2997 820 73 -2200 190/05 RMK AO2
14837KMSN MSN20020119071009901/19/02 07:10:31  5-MIN KMSN 191310Z 19004KT 10SM OVC070 M11/M16 A2997 820 70 -2200 190/04 RMK AO2
14837KMSN MSN20020119071509901/19/02 07:15:31  5-MIN KMSN 191315Z VRB04KT 10SM OVC070 M11/M16 A2997 820 67 -2200 VRB/04 RMK AO2
14837KMSN MSN20020119072009901/19/02 07:20:31  5-MIN KMSN 191320Z 18006KT 10SM OVC070 M11/M16 A2997 820 70 -2200 180/06 RMK AO2
14837KMSN MSN20020119072510601/19/02 07:25:31  5-MIN KMSN 191325Z 18006KT 10SM BKN060 OVC075 M11/M16 A2997 820 70 -2200 180/06 RMK AO2
14837KMSN MSN20020119073010601/19/02 07:30:31  5-MIN KMSN 191330Z 19006KT 10SM BKN060 OVC075 M11/M16 A2997 820 67 -2100 190/06 RMK AO2
14837KMSN MSN20020119073510601/19/02 07:35:31  5-MIN KMSN 191335Z 19006KT 10SM BKN060 OVC075 M11/M15 A2996 820 70 -2100 180/06 RMK AO2
14837KMSN MSN20020119074011201/19/02 07:40:31  5-MIN KMSN 191340Z 18006KT 9SM SCT049 BKN060 OVC075 M11/M16 A2996 830 67 -2100 180/06 RMK AO2
14837KMSN MSN20020119074512201/19/02 07:45:31  5-MIN KMSN 191345Z 17007KT 10SM -SN BKN060 OVC075 M11/M15 A2996 830 70 -2100 170/07 RMK AO2 SNB45 P0000
14837KMSN MSN20020119075013801/19/02 07:50:31  5-MIN KMSN 191350Z 17007KT 6SM -SN BKN055 OVC070 M11/M14 A2995 830 73 -2100 170/07 RMK AO2 SNB45 SLP163 P0000 T11061144
14837KMSN MSN20020119075511501/19/02 07:55:31  5-MIN KMSN 191355Z 17006KT 7SM -SN BKN049 OVC060 M11/M14 A2995 830 73 -2100 170/06 RMK AO2 P0000
14837KMSN MSN20020119080011501/19/02 08:00:31  5-MIN KMSN 191400Z 17007KT 7SM -SN BKN049 OVC060 M11/M14 A2995 840 73 -2100 170/07 RMK AO2 P0000
14837KMSN MSN20020119080510801/19/02 08:05:31  5-MIN KMSN 191405Z 17005KT 7SM -SN OVC049 M11/M14 A2995 840 73 -2100 170/05 RMK AO2 P0000
14837KMSN MSN20020119081011501/19/02 08:10:31  5-MIN KMSN 191410Z 19005KT 7SM -SN BKN049 OVC065 M11/M14 A2995 840 73 -2100 190/05 RMK AO2 P0000
14837KMSN MSN20020119081511501/19/02 08:15:31  5-MIN KMSN 191415Z 19004KT 7SM -SN BKN049 OVC060 M11/M15 A2995 830 70 -2100 190/04 RMK AO2 P0000
14837KMSN MSN20020119082011001/19/02 08:20:31  5-MIN KMSN 191420Z 19004KT 8SM OVC055 M11/M15 A2995 830 70 -2100 190/04 RMK AO2 SNE20 P0000
14837KMSN MSN20020119082511001/19/02 08:25:31  5-MIN KMSN 191425Z 00000KT 9SM OVC060 M10/M14 A2996 830 70 -2000 000/00 RMK AO2 SNE20 P0000
14837KMSN MSN20020119083011101/19/02 08:30:31  5-MIN KMSN 191430Z 00000KT 10SM OVC060 M11/M15 A2995 830 70 -2100 000/00 RMK AO2 SNE20 P0000
14837KMSN MSN20020119083511101/19/02 08:35:31  5-MIN KMSN 191435Z 17003KT 10SM OVC060 M11/M14 A2996 830 73 -2100 170/03 RMK AO2 SNE20 P0000
14837KMSN MSN20020119084011101/19/02 08:40:31  5-MIN KMSN 191440Z 18004KT 10SM OVC060 M11/M14 A2995 830 77 -2100 180/04 RMK AO2 SNE20 P0000
14837KMSN MSN20020119084511101/19/02 08:45:31  5-MIN KMSN 191445Z 18003KT 10SM OVC055 M11/M14 A2995 840 73 -2100 180/03 RMK AO2 SNE20 P0000
14837KMSN MSN20020119085014601/19/02 08:50:31  5-MIN KMSN 191450Z 19004KT 8SM FEW050 SCT065 M10/M14 A2995 840 70 -2000 190/04 RMK AO2 SNE20 SLP160 P0000 60000 T11001144 56014
14837KMSN MSN20020119085510501/19/02 08:55:31  5-MIN KMSN 191455Z 17005KT 7SM BKN048 OVC060 M10/M14 A2995 840 73 -2000 170/05 RMK AO2
14837KMSN MSN20020119090010501/19/02 09:00:31  5-MIN KMSN 191500Z 18006KT 7SM BKN048 OVC065 M10/M14 A2994 840 70 -2000 180/06 RMK AO2
14837KMSN MSN20020119090510501/19/02 09:05:31  5-MIN KMSN 191505Z 18006KT 8SM BKN048 OVC070 M10/M14 A2994 840 73 -2000 180/06 RMK AO2
14837KMSN MSN20020119091011201/19/02 09:10:31  5-MIN KMSN 191510Z 17006KT 9SM SCT048 BKN055 OVC070 M10/M14 A2994 850 73 -2000 170/06 RMK AO2
14837KMSN MSN20020119091511201/19/02 09:15:31  5-MIN KMSN 191515Z 18006KT 9SM FEW046 BKN055 OVC070 M10/M14 A2994 850 73 -2000 170/06 RMK AO2
14837KMSN MSN20020119092010501/19/02 09:20:31  5-MIN KMSN 191520Z 18006KT 9SM BKN055 OVC070 M09/M13 A2994 850 73 -1900 170/06 RMK AO2
14837KMSN MSN20020119092511401/19/02 09:25:31  5-MIN KMSN 191525Z 18006KT 7SM -SN SCT050 M09/M13 A2993 850 73 -1900 180/06 RMK AO2 SNB21 P0000
14837KMSN MSN20020119093011401/19/02 09:30:31  5-MIN KMSN 191530Z 18006KT 6SM -SN SCT050 M09/M13 A2993 850 73 -1900 180/06 RMK AO2 SNB21 P0000
14837KMSN MSN20020119093511401/19/02 09:35:31  5-MIN KMSN 191535Z 18006KT 5SM -SN SCT050 M09/M13 A2993 850 74 -1800 180/06 RMK AO2 SNB21 P0000
14837KMSN MSN20020119094011401/19/02 09:40:31  5-MIN KMSN 191540Z 19007KT 7SM -SN SCT050 M08/M13 A2993 860 70 -1700 190/07 RMK AO2 SNB21 P0000
14837KMSN MSN20020119094511401/19/02 09:45:31  5-MIN KMSN 191545Z 19008KT 7SM -SN SCT050 M08/M12 A2993 850 74 -1700 190/08 RMK AO2 SNB21 P0000
14837KMSN MSN20020119095013701/19/02 09:50:31  5-MIN KMSN 191550Z 19009KT 7SM FEW030 SCT042 M08/M12 A2993 860 71 -1700 190/09 RMK AO2 SNB21E48 SLP153 P0000 T10781122
14837KMSN MSN20020119095511201/19/02 09:55:31  5-MIN KMSN 191555Z 19008KT 8SM FEW015 BKN030 OVC042 M08/M12 A2993 850 74 -1700 190/08 RMK AO2
14837KMSN MSN20020119100010501/19/02 10:00:31  5-MIN KMSN 191600Z 19009KT 8SM FEW030 SCT042 M07/M12 A2993 850 71 -1600 190/09 RMK AO2
14837KMSN MSN20020119100510501/19/02 10:05:31  5-MIN KMSN 191605Z 20009KT 8SM FEW030 SCT042 M07/M12 A2994 850 68 -1600 200/09 RMK AO2
14837KMSN MSN20020119101010501/19/02 10:10:31  5-MIN KMSN 191610Z 19009KT 8SM FEW030 SCT042 M07/M12 A2993 850 71 -1600 190/09 RMK AO2
14837KMSN MSN20020119101510501/19/02 10:15:31  5-MIN KMSN 191615Z 20009KT 8SM FEW030 SCT042 M07/M12 A2993 850 71 -1600 190/09 RMK AO2
14837KMSN MSN20020119102010501/19/02 10:20:31  5-MIN KMSN 191620Z 19009KT 8SM FEW030 SCT042 M07/M12 A2993 850 68 -1500 190/09 RMK AO2
14837KMSN MSN20020119102510501/19/02 10:25:31  5-MIN KMSN 191625Z 19009KT 8SM FEW030 SCT042 M07/M12 A2993 860 68 -1500 190/09 RMK AO2
14837KMSN MSN20020119103010501/19/02 10:30:31  5-MIN KMSN 191630Z 20007KT 8SM FEW030 SCT042 M07/M12 A2993 860 68 -1500 200/07 RMK AO2
14837KMSN MSN20020119103510501/19/02 10:35:31  5-MIN KMSN 191635Z 20010KT 8SM FEW030 SCT042 M07/M12 A2993 860 68 -1500 200/10 RMK AO2
14837KMSN MSN20020119104010501/19/02 10:40:31  5-MIN KMSN 191640Z 20010KT 8SM FEW030 SCT042 M07/M12 A2993 860 68 -1500 200/10 RMK AO2
14837KMSN MSN20020119104510501/19/02 10:45:31  5-MIN KMSN 191645Z 20006KT 8SM FEW030 SCT042 M07/M11 A2992 860 71 -1500 200/06 RMK AO2
14837KMSN MSN20020119105011501/19/02 10:50:31  5-MIN KMSN 191650Z 19009KT 8SM BKN021 M07/M11 A2992 870 71 -1500 190/09 RMK AO2 SLP150 T10671111
14837KMSN MSN20020119105509801/19/02 10:55:31  5-MIN KMSN 191655Z 19008KT 8SM OVC021 M06/M11 A2992 870 68 -1400 190/08 RMK AO2
14837KMSN MSN20020119110009801/19/02 11:00:31  5-MIN KMSN 191700Z 19011KT 8SM OVC021 M06/M11 A2991 870 68 -1400 190/11 RMK AO2
14837KMSN MSN20020119110509801/19/02 11:05:31  5-MIN KMSN 191705Z 19010KT 8SM OVC021 M06/M12 A2991 870 65 -1400 190/10 RMK AO2
14837KMSN MSN20020119111009801/19/02 11:10:31  5-MIN KMSN 191710Z 19011KT 8SM OVC021 M06/M11 A2990 880 68 -1400 180/11 RMK AO2
14837KMSN MSN20020119111512101/19/02 11:15:31  5-MIN KMSN 191715Z 19011KT 7SM -SN BKN021 OVC050 M06/M11 A2990 880 68 -1400 190/11 RMK AO2 SNB14 P0000
14837KMSN MSN20020119112012101/19/02 11:20:31  5-MIN KMSN 191720Z 20008KT 6SM -SN BKN021 OVC050 M06/M11 A2990 880 68 -1300 200/08 RMK AO2 SNB14 P0000
14837KMSN MSN20020119112512101/19/02 11:25:31  5-MIN KMSN 191725Z 21009KT 6SM -SN BKN023 OVC050 M06/M11 A2990 890 68 -1300 210/09 RMK AO2 SNB14 P0000
14837KMSN MSN20020119113012101/19/02 11:30:31  5-MIN KMSN 191730Z 21008KT 7SM -SN BKN022 OVC050 M06/M10 A2989 890 71 -1300 210/08 RMK AO2 SNB14 P0000
14837KMSN MSN20020119113512101/19/02 11:35:31  5-MIN KMSN 191735Z 22007KT 7SM -SN BKN022 OVC050 M06/M10 A2989 890 71 -1300 220/07 RMK AO2 SNB14 P0000
14837KMSN MSN20020119114012101/19/02 11:40:31  5-MIN KMSN 191740Z 20008KT 7SM -SN BKN022 OVC050 M05/M10 A2988 900 68 -1300 200/08 RMK AO2 SNB14 P0000
14837KMSN MSN20020119114512101/19/02 11:45:31  5-MIN KMSN 191745Z 22007KT 7SM -SN BKN022 BKN050 M05/M09 A2988 900 71 -1300 220/07 RMK AO2 SNB14 P0000
14837KMSN MSN20020119115016201/19/02 11:50:31  5-MIN KMSN 191750Z 22008KT 7SM -SN BKN022 BKN050 M05/M09 A2988 900 71 -1300 220/08 RMK AO2 SNB14 SLP135 P0000 60000 T10501094 11050 21133 56014
14837KMSN MSN20020119115512201/19/02 11:55:31  5-MIN KMSN 191755Z 21009KT 7SM -SN BKN022 BKN027 OVC050 M05/M09 A2987 910 71 -1200 210/09 RMK AO2 P0000
14837KMSN MSN20020119120011501/19/02 12:00:31  5-MIN KMSN 191800Z 20009KT 7SM -SN SCT022 BKN050 M05/M09 A2987 910 71 -1200 200/09 RMK AO2 P0000
14837KMSN MSN20020119120511501/19/02 12:05:31  5-MIN KMSN 191805Z 21010KT 7SM -SN SCT022 BKN050 M04/M09 A2987 910 68 -1200 210/10 RMK AO2 P0000
14837KMSN MSN20020119121011501/19/02 12:10:31  5-MIN KMSN 191810Z 21008KT 6SM -SN SCT022 BKN050 M04/M09 A2986 920 71 -1200 210/08 RMK AO2 P0000
14837KMSN MSN20020119121511501/19/02 12:15:31  5-MIN KMSN 191815Z 21006KT 5SM -SN SCT022 BKN050 M04/M08 A2986 920 74 -1200 210/06 RMK AO2 P0000
14837KMSN MSN20020119122011501/19/02 12:20:31  5-MIN KMSN 191820Z 21009KT 6SM -SN SCT022 BKN050 M04/M08 A2985 920 74 -1200 210/09 RMK AO2 P0000
14837KMSN MSN20020119122511501/19/02 12:25:31  5-MIN KMSN 191825Z 21008KT 6SM -SN SCT022 BKN050 M04/M08 A2985 930 74 -1100 210/08 RMK AO2 P0000
14837KMSN MSN20020119123011501/19/02 12:30:31  5-MIN KMSN 191830Z 21010KT 6SM -SN SCT022 BKN050 M04/M08 A2984 940 71 -1100 210/10 RMK AO2 P0000
14837KMSN MSN20020119123511501/19/02 12:35:31  5-MIN KMSN 191835Z 20007KT 6SM -SN SCT022 BKN050 M04/M08 A2984 940 71 -1100 200/07 RMK AO2 P0000
14837KMSN MSN20020119124011501/19/02 12:40:31  5-MIN KMSN 191840Z 21008KT 6SM -SN SCT022 BKN050 M04/M08 A2984 940 74 -1100 210/08 RMK AO2 P0000
14837KMSN MSN20020119124511501/19/02 12:45:31  5-MIN KMSN 191845Z 21008KT 6SM -SN SCT022 BKN050 M04/M08 A2984 940 74 -1100 200/08 RMK AO2 P0000
14837KMSN MSN20020119125013201/19/02 12:50:31  5-MIN KMSN 191850Z 21008KT 6SM -SN BKN018 BKN050 M04/M08 A2984 930 74 -1100 210/08 RMK AO2 SLP122 P0000 T10391078
14837KMSN MSN20020119125511501/19/02 12:55:31  5-MIN KMSN 191855Z 22010KT 6SM -SN BKN018 OVC050 M04/M08 A2984 940 74 -1100 220/10 RMK AO2 P0000
14837KMSN MSN20020119130011501/19/02 13:00:31  5-MIN KMSN 191900Z 22007KT 6SM -SN BKN018 OVC050 M03/M08 A2984 940 71 -1000 210/07 RMK AO2 P0000
14837KMSN MSN20020119130510801/19/02 13:05:31  5-MIN KMSN 191905Z 22008KT 7SM -SN OVC018 M03/M08 A2984 940 71 -1000 220/08 RMK AO2 P0000
14837KMSN MSN20020119131012401/19/02 13:10:31  5-MIN KMSN 191910Z 21008KT 180V240 7SM -SN OVC018 M03/M08 A2983 950 71 -1000 210/08 180V240 RMK AO2 P0000
14837KMSN MSN20020119131510801/19/02 13:15:31  5-MIN KMSN 191915Z 21010KT 7SM -SN OVC018 M04/M08 A2983 950 74 -1100 210/10 RMK AO2 P0000
14837KMSN MSN20020119132010801/19/02 13:20:31  5-MIN KMSN 191920Z 22007KT 7SM -SN OVC018 M04/M08 A2983 950 74 -1100 220/07 RMK AO2 P0000
14837KMSN MSN20020119132511401/19/02 13:25:31  5-MIN KMSN 191925Z 22009G15KT 7SM -SN OVC018 M03/M07 A2983 950 74 -1000 220/09G15 RMK AO2 P0000
14837KMSN MSN20020119133011601/19/02 13:30:31  5-MIN KMSN 191930Z 22012G16KT 7SM OVC018 M03/M07 A2983 950 74 -1000 220/12G16 RMK AO2 SNE27 P0000
14837KMSN MSN20020119133511601/19/02 13:35:31  5-MIN KMSN 191935Z 21010G16KT 8SM OVC018 M03/M07 A2982 950 74 -1000 210/10G16 RMK AO2 SNE27 P0000
14837KMSN MSN20020119134011001/19/02 13:40:31  5-MIN KMSN 191940Z 22010KT 8SM OVC018 M03/M07 A2982 960 74 -1000 220/10 RMK AO2 SNE27 P0000
14837KMSN MSN20020119134511001/19/02 13:45:31  5-MIN KMSN 191945Z 21010KT 8SM OVC018 M03/M07 A2982 960 74 -1000 210/10 RMK AO2 SNE27 P0000
14837KMSN MSN20020119135013401/19/02 13:50:31  5-MIN KMSN 191950Z 21008KT 8SM BKN016 OVC037 M03/M07 A2982 960 74 -1000 210/08 RMK AO2 SNE27 SLP113 P0000 T10331072
14837KMSN MSN20020119135509801/19/02 13:55:31  5-MIN KMSN 191955Z 20009KT 7SM OVC016 M03/M07 A2981 960 74 -1000 200/09 RMK AO2
14837KMSN MSN20020119140010501/19/02 14:00:31  5-MIN KMSN 192000Z 20009KT 7SM BKN016 OVC038 M03/M07 A2981 970 78 -1000 200/09 RMK AO2
14837KMSN MSN20020119140510501/19/02 14:05:31  5-MIN KMSN 192005Z 20009KT 7SM BKN016 OVC038 M03/M07 A2981 970 74 -1000 200/09 RMK AO2
14837KMSN MSN20020119141010501/19/02 14:10:31  5-MIN KMSN 192010Z 21008KT 7SM BKN016 OVC036 M03/M07 A2981 960 74 -1000 210/08 RMK AO2
14837KMSN MSN20020119141511101/19/02 14:15:31  5-MIN KMSN 192015Z 20007G16KT 7SM BKN016 OVC036 M03/M07 A2981 970 74 -1000 200/07G16 RMK AO2
14837KMSN MSN20020119142011101/19/02 14:20:31  5-MIN KMSN 192020Z 21009G16KT 7SM BKN016 OVC036 M03/M07 A2981 960 78 -1000 200/09G16 RMK AO2
14837KMSN MSN20020119142511401/19/02 14:25:31  5-MIN KMSN 192025Z 21010G16KT 6SM HZ BKN016 OVC036 M03/M07 A2982 960 78 -1000 210/10G16 RMK AO2
14837KMSN MSN20020119143010701/19/02 14:30:31  5-MIN KMSN 192030Z 22009KT 6SM HZ BKN016 OVC036 M03/M07 A2982 960 75 -900 220/09 RMK AO2
14837KMSN MSN20020119143511301/19/02 14:35:31  5-MIN KMSN 192035Z 22008G18KT 6SM HZ BKN016 OVC036 M03/M06 A2982 960 78 -900 220/08G18 RMK AO2
14837KMSN MSN20020119144011301/19/02 14:40:31  5-MIN KMSN 192040Z 22009G18KT 6SM HZ BKN016 OVC034 M03/M06 A2981 970 78 -900 220/09G18 RMK AO2
14837KMSN MSN20020119144511301/19/02 14:45:31  5-MIN KMSN 192045Z 23011G16KT 6SM HZ BKN016 OVC034 M03/M06 A2981 960 78 -900 230/11G16 RMK AO2
14837KMSN MSN20020119145014201/19/02 14:50:31  5-MIN KMSN 192050Z 22012G17KT 6SM HZ BKN018 OVC034 M03/M06 A2982 960 78 -900 220/12G17 RMK AO2 SLP112 60000 T10281061 58024
14837KMSN MSN20020119145512901/19/02 14:55:31  5-MIN KMSN 192055Z 22008G17KT 180V260 6SM HZ BKN018 OVC034 M03/M06 A2982 960 78 -900 220/08G17 180V260 RMK AO2
14837KMSN MSN20020119150010701/19/02 15:00:31  5-MIN KMSN 192100Z 23010KT 6SM HZ BKN018 OVC034 M03/M06 A2982 960 78 -900 230/10 RMK AO2
14837KMSN MSN20020119150510701/19/02 15:05:31  5-MIN KMSN 192105Z 23009KT 6SM HZ BKN018 OVC034 M03/M06 A2982 960 78 -900 230/09 RMK AO2
14837KMSN MSN20020119151010701/19/02 15:10:31  5-MIN KMSN 192110Z 21010KT 6SM HZ BKN018 OVC032 M03/M06 A2982 960 78 -900 210/10 RMK AO2
14837KMSN MSN20020119151510701/19/02 15:15:31  5-MIN KMSN 192115Z 21010KT 6SM HZ BKN018 OVC032 M03/M06 A2982 960 78 -900 210/10 RMK AO2
14837KMSN MSN20020119152011301/19/02 15:20:31  5-MIN KMSN 192120Z 22010G17KT 6SM HZ BKN020 OVC032 M03/M06 A2982 960 78 -900 220/10G17 RMK AO2
14837KMSN MSN20020119152510601/19/02 15:25:31  5-MIN KMSN 192125Z 22009G17KT 6SM HZ OVC020 M03/M06 A2982 960 78 -900 220/09G17 RMK AO2
14837KMSN MSN20020119153010701/19/02 15:30:31  5-MIN KMSN 192130Z 22009KT 6SM HZ BKN018 OVC025 M03/M06 A2982 960 78 -900 220/09 RMK AO2
14837KMSN MSN20020119153510701/19/02 15:35:31  5-MIN KMSN 192135Z 22009KT 6SM HZ BKN018 OVC025 M03/M06 A2982 960 78 -900 220/09 RMK AO2
14837KMSN MSN20020119154012901/19/02 15:40:31  5-MIN KMSN 192140Z 23011G18KT 200V270 6SM HZ BKN018 OVC025 M03/M06 A2982 960 78 -900 230/11G18 200V270 RMK AO2
14837KMSN MSN20020119154510601/19/02 15:45:31  5-MIN KMSN 192145Z 22011G18KT 6SM HZ OVC018 M02/M06 A2983 950 75 -800 220/11G18 RMK AO2
14837KMSN MSN20020119155011701/19/02 15:50:31  5-MIN KMSN 192150Z 22009KT 6SM HZ OVC018 M02/M06 A2982 950 75 -800 220/09 RMK AO2 SLP115 T10221061
14837KMSN MSN20020119155510001/19/02 15:55:31  5-MIN KMSN 192155Z 22011KT 5SM HZ OVC018 M02/M06 A2982 950 78 -800 220/11 RMK AO2
14837KMSN MSN20020119160010601/19/02 16:00:31  5-MIN KMSN 192200Z 22010G17KT 5SM HZ OVC020 M02/M06 A2982 960 78 -800 220/10G17 RMK AO2
14837KMSN MSN20020119160511901/19/02 16:05:31  5-MIN KMSN 192205Z 22009G17KT 5SM -SN OVC020 M02/M06 A2982 960 78 -800 220/09G17 RMK AO2 SNB01 P0000
14837KMSN MSN20020119161011301/19/02 16:10:31  5-MIN KMSN 192210Z 22009KT 5SM -SN OVC020 M02/M06 A2981 960 78 -800 220/09 RMK AO2 SNB01 P0000
14837KMSN MSN20020120135509801/20/02 13:55:31  5-MIN KMSN 201955Z 18011KT 5SM HZ CLR M01/M06 A2978 1000 72 -600 180/11 RMK AO2
14837KMSN MSN20020120140009801/20/02 14:00:31  5-MIN KMSN 202000Z 18011KT 6SM HZ CLR M01/M06 A2977 1000 72 -600 180/11 RMK AO2
14837KMSN MSN20020120140509801/20/02 14:05:31  5-MIN KMSN 202005Z 19012KT 6SM HZ CLR M01/M06 A2977 1000 69 -600 190/12 RMK AO2
14837KMSN MSN20020120141009801/20/02 14:10:31  5-MIN KMSN 202010Z 18012KT 6SM HZ CLR M01/M06 A2977 1000 69 -600 180/12 RMK AO2
14837KMSN MSN20020120141509801/20/02 14:15:31  5-MIN KMSN 202015Z 19010KT 6SM HZ CLR M01/M06 A2977 1010 69 -600 180/10 RMK AO2
14837KMSN MSN20020120142009801/20/02 14:20:31  5-MIN KMSN 202020Z 18010KT 6SM HZ CLR M01/M06 A2977 1010 69 -600 180/10 RMK AO2
14837KMSN MSN20020120142509801/20/02 14:25:31  5-MIN KMSN 202025Z 18013KT 6SM HZ CLR M01/M06 A2976 1010 69 -600 180/13 RMK AO2
14837KMSN MSN20020120143009801/20/02 14:30:31  5-MIN KMSN 202030Z 18011KT 6SM HZ CLR M01/M06 A2976 1010 69 -600 180/11 RMK AO2
14837KMSN MSN20020120143509801/20/02 14:35:31  5-MIN KMSN 202035Z 18009KT 6SM HZ CLR M01/M06 A2976 1020 69 -600 180/09 RMK AO2
14837KMSN MSN20020120144009801/20/02 14:40:31  5-MIN KMSN 202040Z 18011KT 6SM HZ CLR M01/M06 A2976 1020 69 -600 180/11 RMK AO2
14837KMSN MSN20020120144509801/20/02 14:45:31  5-MIN KMSN 202045Z 18009KT 6SM HZ CLR M01/M06 A2975 1020 69 -600 180/09 RMK AO2
14837KMSN MSN20020120145012101/20/02 14:50:31  5-MIN KMSN 202050Z 18010KT 6SM HZ CLR M01/M06 A2976 1020 69 -600 180/10 RMK AO2 SLP087 T10111061 58007
14837KMSN MSN20020120145509801/20/02 14:55:31  5-MIN KMSN 202055Z 18009KT 6SM HZ CLR M01/M06 A2975 1020 69 -600 180/09 RMK AO2
14837KMSN MSN20020120150009801/20/02 15:00:31  5-MIN KMSN 202100Z 18011KT 6SM HZ CLR M01/M06 A2975 1020 69 -600 180/11 RMK AO2
14837KMSN MSN20020120150509501/20/02 15:05:31  5-MIN KMSN 202105Z 18012KT 7SM CLR M01/M06 A2975 1020 69 -600 180/12 RMK AO2
14837KMSN MSN20020120151009501/20/02 15:10:31  5-MIN KMSN 202110Z 17012KT 7SM CLR M01/M06 A2975 1020 69 -600 170/12 RMK AO2
14837KMSN MSN20020120151509501/20/02 15:15:31  5-MIN KMSN 202115Z 17013KT 7SM CLR M01/M06 A2975 1020 69 -600 170/13 RMK AO2
14837KMSN MSN20020120152009801/20/02 15:20:31  5-MIN KMSN 202120Z 18012KT 6SM HZ CLR M01/M06 A2975 1020 72 -600 180/12 RMK AO2
14837KMSN MSN20020120152509801/20/02 15:25:31  5-MIN KMSN 202125Z 19012KT 6SM HZ CLR M01/M06 A2975 1020 69 -600 190/12 RMK AO2
14837KMSN MSN20020120153009501/20/02 15:30:31  5-MIN KMSN 202130Z 19010KT 7SM CLR M01/M07 A2975 1020 66 -600 190/10 RMK AO2
14837KMSN MSN20020120153509501/20/02 15:35:31  5-MIN KMSN 202135Z 19012KT 7SM CLR M01/M07 A2975 1020 66 -600 190/12 RMK AO2
14837KMSN MSN20020120154009501/20/02 15:40:31  5-MIN KMSN 202140Z 19010KT 7SM CLR M01/M07 A2975 1020 66 -600 190/10 RMK AO2
14837KMSN MSN20020120154509501/20/02 15:45:31  5-MIN KMSN 202145Z 18010KT 7SM CLR M01/M06 A2975 1020 69 -600 180/10 RMK AO2
14837KMSN MSN20020120155011201/20/02 15:50:31  5-MIN KMSN 202150Z 19009KT 7SM CLR M01/M06 A2975 1020 69 -600 180/09 RMK AO2 SLP085 T10111061
14837KMSN MSN20020120155509501/20/02 15:55:31  5-MIN KMSN 202155Z 19010KT 7SM CLR M01/M06 A2975 1030 69 -600 190/10 RMK AO2
14837KMSN MSN20020120160009501/20/02 16:00:31  5-MIN KMSN 202200Z 19010KT 7SM CLR M01/M07 A2975 1030 66 -600 180/10 RMK AO2
14837KMSN MSN20020120160509501/20/02 16:05:31  5-MIN KMSN 202205Z 19011KT 7SM CLR M01/M07 A2975 1030 66 -600 190/11 RMK AO2
14837KMSN MSN20020120161009501/20/02 16:10:31  5-MIN KMSN 202210Z 18008KT 7SM CLR M01/M07 A2975 1030 66 -600 180/08 RMK AO2
14837KMSN MSN20020120161509501/20/02 16:15:31  5-MIN KMSN 202215Z 18008KT 7SM CLR M01/M07 A2974 1030 66 -600 180/08 RMK AO2
14837KMSN MSN20020120162009501/20/02 16:20:31  5-MIN KMSN 202220Z 18008KT 7SM CLR M01/M06 A2974 1030 69 -600 180/08 RMK AO2
14837KMSN MSN20020120162509801/20/02 16:25:31  5-MIN KMSN 202225Z 17009KT 6SM HZ CLR M02/M06 A2974 1030 72 -700 170/09 RMK AO2
14837KMSN MSN20020120163009801/20/02 16:30:31  5-MIN KMSN 202230Z 17008KT 6SM HZ CLR M02/M06 A2974 1030 72 -700 170/08 RMK AO2
14837KMSN MSN20020120163509801/20/02 16:35:31  5-MIN KMSN 202235Z 17008KT 6SM HZ CLR M02/M06 A2974 1030 75 -700 170/08 RMK AO2
14837KMSN MSN20020120164009801/20/02 16:40:31  5-MIN KMSN 202240Z 17009KT 6SM HZ CLR M02/M06 A2974 1030 75 -700 170/09 RMK AO2
14837KMSN MSN20020120164509801/20/02 16:45:31  5-MIN KMSN 202245Z 17009KT 6SM HZ CLR M02/M06 A2974 1030 75 -700 170/09 RMK AO2
14837KMSN MSN20020120165011201/20/02 16:50:31  5-MIN KMSN 202250Z 17008KT 7SM CLR M02/M06 A2974 1040 75 -700 170/08 RMK AO2 SLP081 T10221061
14837KMSN MSN20020120165509801/20/02 16:55:31  5-MIN KMSN 202255Z 17008KT 6SM HZ CLR M02/M06 A2974 1030 75 -700 170/08 RMK AO2
14837KMSN MSN20020120170009801/20/02 17:00:31  5-MIN KMSN 202300Z 17009KT 6SM HZ CLR M02/M06 A2973 1040 72 -700 170/09 RMK AO2
14837KMSN MSN20020120170509801/20/02 17:05:31  5-MIN KMSN 202305Z 17008KT 6SM HZ CLR M02/M06 A2973 1040 75 -700 170/08 RMK AO2
14837KMSN MSN20020120171009801/20/02 17:10:31  5-MIN KMSN 202310Z 17008KT 6SM HZ CLR M02/M06 A2973 1040 78 -700 170/08 RMK AO2
14837KMSN MSN20020120171509501/20/02 17:15:31  5-MIN KMSN 202315Z 18009KT 7SM CLR M02/M06 A2973 1040 75 -700 180/09 RMK AO2
14837KMSN MSN20020120172009501/20/02 17:20:31  5-MIN KMSN 202320Z 18009KT 7SM CLR M02/M06 A2973 1040 72 -700 180/09 RMK AO2
14837KMSN MSN20020120172509501/20/02 17:25:31  5-MIN KMSN 202325Z 18008KT 7SM CLR M02/M06 A2973 1040 78 -700 180/08 RMK AO2
14837KMSN MSN20020120173009501/20/02 17:30:31  5-MIN KMSN 202330Z 18009KT 7SM CLR M02/M06 A2973 1040 75 -700 180/09 RMK AO2
14837KMSN MSN20020120173509501/20/02 17:35:31  5-MIN KMSN 202335Z 17007KT 7SM CLR M02/M06 A2973 1040 78 -700 170/07 RMK AO2
14837KMSN MSN20020120174009501/20/02 17:40:31  5-MIN KMSN 202340Z 17007KT 7SM CLR M03/M06 A2973 1040 81 -800 170/07 RMK AO2
14837KMSN MSN20020120174509501/20/02 17:45:31  5-MIN KMSN 202345Z 18008KT 7SM CLR M02/M06 A2972 1050 75 -700 180/08 RMK AO2
14837KMSN MSN20020120175013601/20/02 17:50:31  5-MIN KMSN 202350Z 17007KT 7SM CLR M03/M06 A2972 1050 78 -800 170/07 RMK AO2 SLP077 4/003 T10281061 11011 21028 56031
14837KMSN MSN20020120175509501/20/02 17:55:31  5-MIN KMSN 202355Z 17008KT 7SM CLR M03/M06 A2972 1050 78 -800 170/08 RMK AO2
14837KMSN MSN20020120180009501/20/02 18:00:31  5-MIN KMSN 210000Z 17008KT 7SM CLR M03/M06 A2972 1050 78 -800 170/08 RMK AO2
14837KMSN MSN20020120180509501/20/02 18:05:31  5-MIN KMSN 210005Z 17009KT 7SM CLR M03/M06 A2972 1050 78 -800 170/09 RMK AO2
14837KMSN MSN20020120181009501/20/02 18:10:31  5-MIN KMSN 210010Z 17010KT 7SM CLR M03/M06 A2972 1050 78 -800 170/10 RMK AO2
14837KMSN MSN20020120181509501/20/02 18:15:31  5-MIN KMSN 210015Z 16008KT 7SM CLR M03/M06 A2971 1060 78 -800 160/08 RMK AO2
14837KMSN MSN20020120182009501/20/02 18:20:31  5-MIN KMSN 210020Z 17008KT 7SM CLR M03/M06 A2971 1060 78 -800 170/08 RMK AO2
14837KMSN MSN20020120182509501/20/02 18:25:31  5-MIN KMSN 210025Z 17008KT 7SM CLR M03/M06 A2971 1060 78 -800 170/08 RMK AO2
14837KMSN MSN20020120183009501/20/02 18:30:31  5-MIN KMSN 210030Z 17009KT 7SM CLR M03/M06 A2971 1060 81 -800 170/09 RMK AO2
14837KMSN MSN20020120183509501/20/02 18:35:31  5-MIN KMSN 210035Z 18010KT 7SM CLR M03/M06 A2971 1060 81 -800 180/10 RMK AO2
14837KMSN MSN20020120184009501/20/02 18:40:31  5-MIN KMSN 210040Z 18011KT 7SM CLR M02/M06 A2971 1060 78 -700 180/11 RMK AO2
14837KMSN MSN20020120184509501/20/02 18:45:31  5-MIN KMSN 210045Z 18012KT 7SM CLR M02/M05 A2971 1060 81 -700 180/12 RMK AO2
14837KMSN MSN20020120185011201/20/02 18:50:31  5-MIN KMSN 210050Z 18012KT 7SM CLR M02/M06 A2970 1060 78 -700 170/12 RMK AO2 SLP072 T10221056
14837KMSN MSN20020120185509501/20/02 18:55:31  5-MIN KMSN 210055Z 18011KT 7SM CLR M02/M06 A2970 1070 78 -700 180/11 RMK AO2
14837KMSN MSN20020120190009501/20/02 19:00:31  5-MIN KMSN 210100Z 18012KT 7SM CLR M02/M06 A2970 1070 78 -700 180/12 RMK AO2
14837KMSN MSN20020120190509501/20/02 19:05:31  5-MIN KMSN 210105Z 18012KT 7SM CLR M02/M06 A2970 1070 78 -700 170/12 RMK AO2
14837KMSN MSN20020120191009501/20/02 19:10:31  5-MIN KMSN 210110Z 18011KT 7SM CLR M02/M06 A2970 1070 78 -700 180/11 RMK AO2
14837KMSN MSN20020120191509501/20/02 19:15:31  5-MIN KMSN 210115Z 18013KT 7SM CLR M02/M05 A2969 1070 81 -700 170/13 RMK AO2
14837KMSN MSN20020120192009501/20/02 19:20:31  5-MIN KMSN 210120Z 18011KT 7SM CLR M02/M06 A2969 1080 75 -700 180/11 RMK AO2
14837KMSN MSN20020120192509501/20/02 19:25:31  5-MIN KMSN 210125Z 18012KT 7SM CLR M02/M06 A2969 1080 78 -700 180/12 RMK AO2
14837KMSN MSN20020120193009501/20/02 19:30:31  5-MIN KMSN 210130Z 18012KT 7SM CLR M03/M06 A2969 1080 81 -800 180/12 RMK AO2
14837KMSN MSN20020120193509501/20/02 19:35:31  5-MIN KMSN 210135Z 18012KT 7SM CLR M03/M06 A2969 1080 81 -800 180/12 RMK AO2
14837KMSN MSN20020120194009501/20/02 19:40:31  5-MIN KMSN 210140Z 18013KT 7SM CLR M03/M06 A2969 1070 81 -800 180/13 RMK AO2
14837KMSN MSN20020120194509501/20/02 19:45:31  5-MIN KMSN 210145Z 18013KT 7SM CLR M03/M05 A2970 1070 85 -800 180/13 RMK AO2
14837KMSN MSN20020120195011201/20/02 19:50:31  5-MIN KMSN 210150Z 18012KT 7SM CLR M03/M06 A2970 1070 78 -800 180/12 RMK AO2 SLP069 T10281061
14837KMSN MSN20020120195509501/20/02 19:55:31  5-MIN KMSN 210155Z 18012KT 7SM CLR M03/M06 A2970 1070 78 -800 180/12 RMK AO2
14837KMSN MSN20020120200009501/20/02 20:00:31  5-MIN KMSN 210200Z 18011KT 7SM CLR M03/M06 A2969 1070 78 -800 180/11 RMK AO2
14837KMSN MSN20020120200509501/20/02 20:05:31  5-MIN KMSN 210205Z 18011KT 7SM CLR M03/M06 A2969 1070 78 -800 180/11 RMK AO2
14837KMSN MSN20020120201009501/20/02 20:10:31  5-MIN KMSN 210210Z 18012KT 7SM CLR M03/M06 A2969 1080 78 -800 180/12 RMK AO2
14837KMSN MSN20020120201509501/20/02 20:15:31  5-MIN KMSN 210215Z 18011KT 7SM CLR M03/M06 A2969 1080 78 -800 170/11 RMK AO2
14837KMSN MSN20020120202009501/20/02 20:20:31  5-MIN KMSN 210220Z 17011KT 7SM CLR M03/M06 A2969 1080 81 -800 170/11 RMK AO2
14837KMSN MSN20020120202509501/20/02 20:25:31  5-MIN KMSN 210225Z 17012KT 7SM CLR M03/M06 A2969 1080 81 -800 170/12 RMK AO2
14837KMSN MSN20020120203009501/20/02 20:30:31  5-MIN KMSN 210230Z 17012KT 7SM CLR M03/M06 A2969 1080 81 -800 170/12 RMK AO2
14837KMSN MSN20020120203509501/20/02 20:35:31  5-MIN KMSN 210235Z 17012KT 7SM CLR M03/M06 A2968 1080 81 -800 170/12 RMK AO2
14837KMSN MSN20020120204009801/20/02 20:40:31  5-MIN KMSN 210240Z 17012KT 6SM HZ CLR M03/M06 A2968 1080 81 -800 170/12 RMK AO2
14837KMSN MSN20020120204510101/20/02 20:45:31  5-MIN KMSN 210245Z 17012KT 6SM BR FEW015 M03/M06 A2968 1080 85 -800 170/12 RMK AO2
14837KMSN MSN20020120205012101/20/02 20:50:31  5-MIN KMSN 210250Z 17012KT 7SM SCT015 M03/M06 A2969 1080 85 -800 170/12 RMK AO2 SLP065 T10331056 58011
14837KMSN MSN20020120205509801/20/02 20:55:31  5-MIN KMSN 210255Z 18011KT 7SM BKN015 M03/M06 A2969 1080 81 -800 180/11 RMK AO2
14837KMSN MSN20020120210009801/20/02 21:00:31  5-MIN KMSN 210300Z 18011KT 7SM BKN015 M03/M06 A2969 1080 81 -700 180/11 RMK AO2
14837KMSN MSN20020120210509801/20/02 21:05:31  5-MIN KMSN 210305Z 17011KT 7SM BKN015 M03/M06 A2969 1080 81 -700 170/11 RMK AO2
14837KMSN MSN20020120211009801/20/02 21:10:31  5-MIN KMSN 210310Z 17011KT 7SM OVC015 M03/M05 A2969 1080 85 -700 170/11 RMK AO2
14837KMSN MSN20020120211509801/20/02 21:15:31  5-MIN KMSN 210315Z 18011KT 7SM OVC013 M03/M05 A2968 1080 85 -700 180/11 RMK AO2
14837KMSN MSN20020120212009801/20/02 21:20:31  5-MIN KMSN 210320Z 18013KT 7SM OVC013 M02/M05 A2968 1090 81 -700 180/13 RMK AO2
14837KMSN MSN20020120212510401/20/02 21:25:31  5-MIN KMSN 210325Z 18018G24KT 7SM OVC013 M02/M04 A2968 1090 85 -700 180/18G24 RMK AO2
14837KMSN MSN20020120213010401/20/02 21:30:31  5-MIN KMSN 210330Z 18015G24KT 7SM OVC013 M02/M04 A2968 1080 85 -700 180/15G24 RMK AO2
14837KMSN MSN20020120213510401/20/02 21:35:31  5-MIN KMSN 210335Z 18016G21KT 7SM OVC013 M02/M04 A2968 1080 81 -600 180/16G21 RMK AO2
14837KMSN MSN20020120214009801/20/02 21:40:31  5-MIN KMSN 210340Z 19014KT 7SM OVC013 M02/M04 A2968 1090 81 -600 190/14 RMK AO2
14837KMSN MSN20020120214510401/20/02 21:45:31  5-MIN KMSN 210345Z 18015G20KT 7SM OVC013 M02/M04 A2968 1080 81 -600 180/15G20 RMK AO2
14837KMSN MSN20020120215012101/20/02 21:50:31  5-MIN KMSN 210350Z 19016G21KT 8SM OVC013 M02/M04 A2968 1080 81 -600 190/16G21 RMK AO2 SLP064 T10171044
14837KMSN MSN20020120215510401/20/02 21:55:31  5-MIN KMSN 210355Z 19017G21KT 7SM OVC013 M02/M04 A2969 1080 81 -600 190/17G21 RMK AO2
14837KMSN MSN20020120220010401/20/02 22:00:31  5-MIN KMSN 210400Z 19014G20KT 7SM OVC013 M02/M04 A2969 1080 85 -600 190/14G20 RMK AO2
14837KMSN MSN20020120220510401/20/02 22:05:31  5-MIN KMSN 210405Z 20011G20KT 7SM OVC013 M02/M04 A2969 1080 81 -600 200/11G20 RMK AO2
14837KMSN MSN20020120221009801/20/02 22:10:31  5-MIN KMSN 210410Z 20010KT 7SM OVC013 M02/M04 A2969 1070 81 -600 200/10 RMK AO2
14837KMSN MSN20020120221509801/20/02 22:15:31  5-MIN KMSN 210415Z 20011KT 7SM OVC013 M02/M04 A2969 1080 81 -600 190/11 RMK AO2
14837KMSN MSN20020120222009801/20/02 22:20:31  5-MIN KMSN 210420Z 19012KT 7SM OVC013 M02/M04 A2969 1080 81 -600 190/12 RMK AO2
14837KMSN MSN20020120222510401/20/02 22:25:31  5-MIN KMSN 210425Z 19010G15KT 7SM OVC013 M02/M04 A2969 1080 81 -600 190/10G15 RMK AO2
14837KMSN MSN20020120223009801/20/02 22:30:31  5-MIN KMSN 210430Z 20011KT 7SM OVC017 M02/M04 A2969 1080 81 -600 200/11 RMK AO2
14837KMSN MSN20020120223510401/20/02 22:35:31  5-MIN KMSN 210435Z 20012G17KT 7SM OVC017 M02/M04 A2969 1080 81 -600 200/12G17 RMK AO2
14837KMSN MSN20020120224010401/20/02 22:40:31  5-MIN KMSN 210440Z 20010G17KT 7SM OVC017 M02/M04 A2968 1090 81 -600 200/10G17 RMK AO2
14837KMSN MSN20020120224509801/20/02 22:45:31  5-MIN KMSN 210445Z 20009KT 7SM OVC017 M02/M04 A2968 1090 81 -600 200/09 RMK AO2
14837KMSN MSN20020120225011501/20/02 22:50:31  5-MIN KMSN 210450Z 20010KT 7SM OVC019 M02/M04 A2968 1090 81 -600 200/10 RMK AO2 SLP060 T10171044
14837KMSN MSN20020120225510801/20/02 22:55:31  5-MIN KMSN 210455Z 20008KT 7SM -SN OVC019 M02/M04 A2967 1090 81 -600 200/08 RMK AO2 P0000
14837KMSN MSN20020120230010801/20/02 23:00:31  5-MIN KMSN 210500Z 19009KT 6SM -SN OVC019 M02/M04 A2967 1090 81 -600 190/09 RMK AO2 P0000
14837KMSN MSN20020120230510801/20/02 23:05:31  5-MIN KMSN 210505Z 19008KT 6SM -SN OVC019 M02/M04 A2967 1090 81 -600 190/08 RMK AO2 P0000
14837KMSN MSN20020120231010801/20/02 23:10:31  5-MIN KMSN 210510Z 19009KT 6SM -SN OVC017 M02/M04 A2967 1100 81 -600 190/09 RMK AO2 P0000
14837KMSN MSN20020120231511501/20/02 23:15:31  5-MIN KMSN 210515Z 20008KT 6SM -SN BKN017 OVC025 M02/M04 A2967 1100 81 -600 190/08 RMK AO2 P0000
14837KMSN MSN20020120232011501/20/02 23:20:31  5-MIN KMSN 210520Z 19009KT 6SM -SN BKN017 OVC025 M02/M04 A2966 1100 81 -600 190/09 RMK AO2 P0000
14837KMSN MSN20020120232511501/20/02 23:25:31  5-MIN KMSN 210525Z 19010KT 6SM -SN SCT017 OVC023 M02/M04 A2966 1110 81 -600 190/10 RMK AO2 P0000
14837KMSN MSN20020120233010801/20/02 23:30:31  5-MIN KMSN 210530Z 19008KT 6SM -SN OVC023 M02/M04 A2965 1110 81 -600 190/08 RMK AO2 P0000
14837KMSN MSN20020120233511501/20/02 23:35:31  5-MIN KMSN 210535Z 19009KT 6SM -SN FEW017 OVC023 M01/M04 A2965 1120 78 -500 190/09 RMK AO2 P0000
14837KMSN MSN20020120234010801/20/02 23:40:31  5-MIN KMSN 210540Z 19008KT 7SM -SN OVC023 M01/M04 A2964 1120 78 -500 190/08 RMK AO2 P0000
14837KMSN MSN20020120234510801/20/02 23:45:31  5-MIN KMSN 210545Z 19009KT 7SM -SN OVC023 M01/M04 A2964 1130 78 -500 190/09 RMK AO2 P0000
14837KMSN MSN20020120235016801/20/02 23:50:31  5-MIN KMSN 210550Z 19007KT 8SM BKN025 OVC110 M02/M04 A2964 1130 81 -500 190/07 RMK AO2 SNE46 SLP047 P0000 60000 T10171044 11011 21033 410111078 56011
14837KMSN MSN20020120235511201/20/02 23:55:31  5-MIN KMSN 210555Z 19008KT 7SM FEW019 BKN025 OVC110 M02/M04 A2964 1130 81 -500 190/08 RMK AO2
14837KMSN MSN20020121000010501/21/02 00:00:31  5-MIN KMSN 210600Z 19007KT 7SM BKN025 OVC110 M02/M04 A2963 1130 81 -500 190/07 RMK AO2
14837KMSN MSN20020121000510501/21/02 00:05:31  5-MIN KMSN 210605Z 19008KT 7SM BKN027 OVC110 M02/M04 A2963 1130 81 -500 180/08 RMK AO2
14837KMSN MSN20020121001010501/21/02 00:10:31  5-MIN KMSN 210610Z 19008KT 7SM BKN027 OVC110 M02/M04 A2963 1140 81 -500 190/08 RMK AO2
14837KMSN MSN20020121001510501/21/02 00:15:31  5-MIN KMSN 210615Z 18011KT 7SM BKN027 OVC110 M02/M04 A2962 1140 85 -500 180/11 RMK AO2
14837KMSN MSN20020121002010501/21/02 00:20:31  5-MIN KMSN 210620Z 18010KT 7SM BKN027 OVC110 M02/M04 A2962 1150 81 -500 180/10 RMK AO2
14837KMSN MSN20020121002510501/21/02 00:25:31  5-MIN KMSN 210625Z 19010KT 7SM BKN027 OVC110 M02/M05 A2961 1150 78 -500 180/10 RMK AO2
14837KMSN MSN20020121003009801/21/02 00:30:31  5-MIN KMSN 210630Z 18009KT 7SM OVC027 M02/M04 A2961 1150 81 -500 180/09 RMK AO2
14837KMSN MSN20020121003509801/21/02 00:35:31  5-MIN KMSN 210635Z 18010KT 7SM OVC025 M02/M04 A2961 1150 81 -500 180/10 RMK AO2
14837KMSN MSN20020121004009801/21/02 00:40:31  5-MIN KMSN 210640Z 18010KT 7SM OVC023 M02/M04 A2961 1160 81 -500 180/10 RMK AO2
14837KMSN MSN20020121004509801/21/02 00:45:31  5-MIN KMSN 210645Z 18011KT 7SM OVC023 M02/M04 A2961 1160 81 -500 180/11 RMK AO2
14837KMSN MSN20020121005011501/21/02 00:50:31  5-MIN KMSN 210650Z 19008KT 7SM OVC023 M02/M04 A2960 1160 81 -500 190/08 RMK AO2 SLP035 T10171044
14837KMSN MSN20020121005509801/21/02 00:55:31  5-MIN KMSN 210655Z 19008KT 7SM OVC023 M02/M04 A2961 1160 81 -500 190/08 RMK AO2
14837KMSN MSN20020121010009801/21/02 01:00:31  5-MIN KMSN 210700Z 19009KT 7SM OVC021 M02/M04 A2960 1160 81 -500 190/09 RMK AO2
14837KMSN MSN20020121010509801/21/02 01:05:31  5-MIN KMSN 210705Z 20006KT 7SM OVC021 M02/M04 A2960 1160 81 -500 200/06 RMK AO2
14837KMSN MSN20020121011009801/21/02 01:10:31  5-MIN KMSN 210710Z 19012KT 7SM OVC021 M02/M04 A2960 1160 81 -500 190/12 RMK AO2
14837KMSN MSN20020121011509801/21/02 01:15:31  5-MIN KMSN 210715Z 19010KT 7SM OVC019 M02/M04 A2960 1160 81 -500 190/10 RMK AO2
14837KMSN MSN20020121012009801/21/02 01:20:31  5-MIN KMSN 210720Z 19009KT 7SM OVC019 M02/M04 A2960 1160 85 -500 190/09 RMK AO2
14837KMSN MSN20020121012509801/21/02 01:25:31  5-MIN KMSN 210725Z 19010KT 7SM OVC019 M02/M04 A2959 1170 85 -500 190/10 RMK AO2
14837KMSN MSN20020121013009801/21/02 01:30:31  5-MIN KMSN 210730Z 19009KT 7SM OVC019 M02/M04 A2959 1170 85 -500 190/09 RMK AO2
14837KMSN MSN20020121013509801/21/02 01:35:31  5-MIN KMSN 210735Z 20008KT 7SM OVC017 M02/M04 A2959 1170 85 -500 190/08 RMK AO2
14837KMSN MSN20020121014009801/21/02 01:40:31  5-MIN KMSN 210740Z 20009KT 7SM OVC017 M02/M04 A2959 1170 85 -500 200/09 RMK AO2
14837KMSN MSN20020121014509801/21/02 01:45:31  5-MIN KMSN 210745Z 20008KT 7SM OVC015 M02/M04 A2959 1170 85 -500 200/08 RMK AO2
14837KMSN MSN20020121015011501/21/02 01:50:31  5-MIN KMSN 210750Z 19007KT 7SM OVC015 M02/M04 A2959 1170 85 -500 190/07 RMK AO2 SLP029 T10171039
14837KMSN MSN20020121015509801/21/02 01:55:31  5-MIN KMSN 210755Z 19008KT 7SM OVC015 M02/M04 A2959 1170 85 -500 190/08 RMK AO2
14837KMSN MSN20020121020010101/21/02 02:00:31  5-MIN KMSN 210800Z 20007KT 6SM BR OVC015 M02/M04 A2959 1170 85 -500 200/07 RMK AO2
14837KMSN MSN20020121020510101/21/02 02:05:31  5-MIN KMSN 210805Z 20006KT 6SM BR OVC015 M02/M04 A2959 1170 85 -500 190/06 RMK AO2
14837KMSN MSN20020121021010101/21/02 02:10:31  5-MIN KMSN 210810Z 20006KT 6SM BR OVC013 M02/M04 A2959 1170 85 -500 200/06 RMK AO2
14837KMSN MSN20020121021510101/21/02 02:15:31  5-MIN KMSN 210815Z 19006KT 6SM BR OVC013 M02/M04 A2959 1170 85 -500 190/06 RMK AO2
14837KMSN MSN20020121022010101/21/02 02:20:31  5-MIN KMSN 210820Z 20006KT 6SM BR OVC013 M02/M04 A2960 1170 85 -500 200/06 RMK AO2
14837KMSN MSN20020121022510101/21/02 02:25:31  5-MIN KMSN 210825Z 19006KT 6SM BR OVC013 M02/M04 A2959 1170 85 -500 190/06 RMK AO2
14837KMSN MSN20020121023010101/21/02 02:30:31  5-MIN KMSN 210830Z 20006KT 6SM BR OVC013 M02/M04 A2959 1170 85 -500 190/06 RMK AO2
14837KMSN MSN20020121023510101/21/02 02:35:31  5-MIN KMSN 210835Z 20006KT 6SM BR OVC013 M02/M04 A2959 1170 85 -500 200/06 RMK AO2
14837KMSN MSN20020121024010101/21/02 02:40:31  5-MIN KMSN 210840Z 19007KT 6SM BR OVC013 M02/M04 A2959 1170 85 -500 180/07 RMK AO2
14837KMSN MSN20020121024510101/21/02 02:45:31  5-MIN KMSN 210845Z 19007KT 6SM HZ OVC013 M02/M04 A2959 1180 81 -500 190/07 RMK AO2
14837KMSN MSN20020121025012401/21/02 02:50:31  5-MIN KMSN 210850Z 21005KT 6SM HZ OVC013 M02/M04 A2959 1170 81 -500 200/05 RMK AO2 SLP029 T10171044 58016
14837KMSN MSN20020121025510101/21/02 02:55:31  5-MIN KMSN 210855Z 19006KT 6SM HZ OVC013 M02/M04 A2958 1180 81 -500 190/06 RMK AO2
14837KMSN MSN20020121030010101/21/02 03:00:31  5-MIN KMSN 210900Z 18007KT 6SM HZ OVC013 M02/M04 A2958 1180 81 -500 180/07 RMK AO2
14837KMSN MSN20020121030511701/21/02 03:05:31  5-MIN KMSN 210905Z 20007KT 170V230 6SM BR OVC011 M02/M04 A2958 1180 85 -500 200/07 170V230 RMK AO2
14837KMSN MSN20020121031010101/21/02 03:10:31  5-MIN KMSN 210910Z 21006KT 6SM BR OVC011 M02/M04 A2958 1180 85 -500 210/06 RMK AO2
14837KMSN MSN20020121031510101/21/02 03:15:31  5-MIN KMSN 210915Z 20005KT 6SM BR OVC011 M02/M04 A2958 1180 85 -500 200/05 RMK AO2
14837KMSN MSN20020121032010101/21/02 03:20:31  5-MIN KMSN 210920Z 19007KT 6SM BR OVC011 M02/M04 A2958 1180 85 -500 190/07 RMK AO2
14837KMSN MSN20020121032510101/21/02 03:25:31  5-MIN KMSN 210925Z 20007KT 6SM BR OVC011 M02/M04 A2958 1180 85 -500 200/07 RMK AO2
14837KMSN MSN20020121033010101/21/02 03:30:31  5-MIN KMSN 210930Z 20006KT 6SM BR OVC011 M02/M04 A2958 1180 85 -500 200/06 RMK AO2
14837KMSN MSN20020121033510101/21/02 03:35:31  5-MIN KMSN 210935Z VRB04KT 5SM BR OVC011 M02/M04 A2958 1180 85 -500 VRB/04 RMK AO2
14837KMSN MSN20020121034010101/21/02 03:40:31  5-MIN KMSN 210940Z 19005KT 5SM BR OVC011 M02/M04 A2958 1180 85 -500 190/05 RMK AO2
14837KMSN MSN20020121034510101/21/02 03:45:31  5-MIN KMSN 210945Z 21005KT 5SM BR OVC011 M02/M04 A2958 1180 85 -500 210/05 RMK AO2
14837KMSN MSN20020121035011801/21/02 03:50:31  5-MIN KMSN 210950Z 21005KT 5SM BR OVC011 M02/M04 A2958 1180 85 -500 210/05 RMK AO2 SLP025 T10171039
14837KMSN MSN20020121035510101/21/02 03:55:31  5-MIN KMSN 210955Z 20005KT 5SM BR OVC011 M01/M03 A2958 1180 85 -400 200/05 RMK AO2
14837KMSN MSN20020121040010101/21/02 04:00:31  5-MIN KMSN 211000Z 20005KT 5SM HZ OVC011 M01/M04 A2957 1190 81 -400 200/05 RMK AO2
14837KMSN MSN20020121040510101/21/02 04:05:31  5-MIN KMSN 211005Z 21004KT 5SM BR OVC013 M01/M03 A2957 1190 85 -400 210/04 RMK AO2
14837KMSN MSN20020121041010101/21/02 04:10:31  5-MIN KMSN 211010Z 21005KT 5SM BR OVC013 M01/M03 A2957 1190 85 -400 210/05 RMK AO2
14837KMSN MSN20020121041510101/21/02 04:15:31  5-MIN KMSN 211015Z 22006KT 5SM BR OVC013 M01/M03 A2957 1190 85 -400 220/06 RMK AO2
14837KMSN MSN20020121042010801/21/02 04:20:31  5-MIN KMSN 211020Z 21005KT 5SM BR BKN013 OVC020 M01/M03 A2957 1190 85 -400 210/05 RMK AO2
14837KMSN MSN20020121042510801/21/02 04:25:31  5-MIN KMSN 211025Z 21008KT 5SM BR BKN013 OVC022 M01/M03 A2957 1190 85 -400 210/08 RMK AO2
14837KMSN MSN20020121043010801/21/02 04:30:31  5-MIN KMSN 211030Z 22007KT 6SM BR BKN013 OVC022 M01/M03 A2957 1190 85 -400 220/07 RMK AO2
14837KMSN MSN20020121043510801/21/02 04:35:31  5-MIN KMSN 211035Z 22006KT 6SM BR BKN013 OVC022 M01/M03 A2957 1190 85 -400 220/06 RMK AO2
14837KMSN MSN20020121044010801/21/02 04:40:31  5-MIN KMSN 211040Z 22008KT 6SM BR SCT013 OVC022 M01/M03 A2957 1190 85 -400 220/08 RMK AO2
14837KMSN MSN20020121044510801/21/02 04:45:31  5-MIN KMSN 211045Z 22007KT 6SM BR FEW013 OVC022 M01/M03 A2958 1180 85 -400 220/07 RMK AO2
14837KMSN MSN20020121045012501/21/02 04:50:31  5-MIN KMSN 211050Z 22007KT 6SM BR FEW013 OVC020 M01/M03 A2958 1180 85 -400 220/07 RMK AO2 SLP025 T10111033
14837KMSN MSN20020121045510101/21/02 04:55:31  5-MIN KMSN 211055Z 22006KT 6SM BR OVC020 M01/M03 A2957 1190 85 -400 220/06 RMK AO2
14837KMSN MSN20020121050010101/21/02 05:00:31  5-MIN KMSN 211100Z 21005KT 6SM BR OVC020 M01/M03 A2957 1190 85 -400 210/05 RMK AO2
14837KMSN MSN20020121050510101/21/02 05:05:31  5-MIN KMSN 211105Z 22005KT 6SM BR OVC018 M01/M03 A2957 1190 85 -400 210/05 RMK AO2
14837KMSN MSN20020121051010101/21/02 05:10:31  5-MIN KMSN 211110Z 23005KT 6SM BR OVC018 M01/M03 A2957 1190 85 -400 230/05 RMK AO2
14837KMSN MSN20020121051510101/21/02 05:15:31  5-MIN KMSN 211115Z 22005KT 6SM BR OVC018 M01/M03 A2957 1190 85 -400 220/05 RMK AO2
14837KMSN MSN20020121052010101/21/02 05:20:31  5-MIN KMSN 211120Z 22005KT 6SM BR OVC018 M01/M03 A2957 1190 85 -400 220/05 RMK AO2
14837KMSN MSN20020121052510101/21/02 05:25:31  5-MIN KMSN 211125Z VRB06KT 6SM BR OVC018 M01/M03 A2957 1190 85 -400 VRB/06 RMK AO2
14837KMSN MSN20020121053010801/21/02 05:30:31  5-MIN KMSN 211130Z VRB05KT 6SM BR BKN018 OVC080 M01/M03 A2958 1180 85 -400 VRB/05 RMK AO2
14837KMSN MSN20020121053510801/21/02 05:35:31  5-MIN KMSN 211135Z 22005KT 6SM HZ BKN018 OVC080 M01/M03 A2958 1180 81 -300 220/05 RMK AO2
14837KMSN MSN20020121054011501/21/02 05:40:31  5-MIN KMSN 211140Z 22006KT 6SM HZ BKN018 BKN070 OVC090 M01/M03 A2958 1180 81 -300 220/06 RMK AO2
14837KMSN MSN20020121054510801/21/02 05:45:31  5-MIN KMSN 211145Z 23004KT 6SM HZ BKN018 OVC080 M01/M03 A2958 1180 81 -300 230/04 RMK AO2
14837KMSN MSN20020121055015001/21/02 05:50:31  5-MIN KMSN 211150Z 24006KT 6SM HZ SCT018 SCT065 OVC085 M01/M03 A2958 1180 81 -300 240/06 RMK AO2 SLP026 T10061033 11006 21017 56018
14837KMSN MSN20020121055511501/21/02 05:55:31  5-MIN KMSN 211155Z 23004KT 6SM HZ FEW018 BKN080 OVC090 M01/M03 A2958 1180 81 -300 230/04 RMK AO2
14837KMSN MSN20020121060010801/21/02 06:00:31  5-MIN KMSN 211200Z 23005KT 6SM HZ FEW018 OVC080 M01/M03 A2959 1180 81 -300 230/05 RMK AO2
14837KMSN MSN20020121060510801/21/02 06:05:31  5-MIN KMSN 211205Z 22004KT 6SM HZ FEW065 OVC080 M01/M03 A2959 1180 81 -300 220/04 RMK AO2
14837KMSN MSN20020121061010101/21/02 06:10:31  5-MIN KMSN 211210Z 24005KT 6SM HZ OVC075 M01/M03 A2959 1170 81 -300 240/05 RMK AO2
14837KMSN MSN20020121061510101/21/02 06:15:31  5-MIN KMSN 211215Z VRB05KT 6SM HZ OVC075 M01/M03 A2959 1170 81 -400 VRB/05 RMK AO2
14837KMSN MSN20020121062010101/21/02 06:20:31  5-MIN KMSN 211220Z 25004KT 6SM HZ OVC070 M01/M03 A2960 1160 81 -400 250/04 RMK AO2
14837KMSN MSN20020121062510101/21/02 06:25:31  5-MIN KMSN 211225Z 25005KT 6SM HZ OVC070 M01/M03 A2960 1160 81 -400 250/05 RMK AO2
14837KMSN MSN20020121063010801/21/02 06:30:31  5-MIN KMSN 211230Z 24006KT 6SM HZ FEW018 OVC070 M01/M03 A2960 1160 81 -400 240/06 RMK AO2
14837KMSN MSN20020121063510801/21/02 06:35:31  5-MIN KMSN 211235Z VRB05KT 6SM BR SCT018 OVC070 M01/M03 A2960 1160 85 -400 VRB/05 RMK AO2
14837KMSN MSN20020121064010801/21/02 06:40:31  5-MIN KMSN 211240Z 23006KT 6SM BR BKN018 OVC065 M01/M03 A2961 1160 85 -400 230/06 RMK AO2
14837KMSN MSN20020121064510801/21/02 06:45:31  5-MIN KMSN 211245Z 25005KT 6SM BR BKN016 OVC065 M01/M03 A2961 1150 85 -400 240/05 RMK AO2
14837KMSN MSN20020121065014101/21/02 06:50:31  5-MIN KMSN 211250Z 24008KT 200V270 6SM HZ BKN016 OVC065 M01/M03 A2961 1150 81 -400 240/08 200V270 RMK AO2 SLP037 T10061033
14837KMSN MSN20020121065510701/21/02 06:55:31  5-MIN KMSN 211255Z 24008G15KT 6SM HZ OVC016 M01/M03 A2961 1150 81 -400 240/08G15 RMK AO2
14837KMSN MSN20020121070010701/21/02 07:00:31  5-MIN KMSN 211300Z 25007G15KT 6SM HZ OVC014 M01/M04 A2961 1150 78 -400 240/07G15 RMK AO2
14837KMSN MSN20020121070511701/21/02 07:05:31  5-MIN KMSN 211305Z 25007KT 210V280 6SM HZ OVC014 M01/M04 A2961 1150 78 -400 240/07 210V280 RMK AO2
14837KMSN MSN20020121071010101/21/02 07:10:31  5-MIN KMSN 211310Z 26006KT 6SM HZ OVC014 M01/M04 A2962 1150 81 -500 260/06 RMK AO2
14837KMSN MSN20020121071510101/21/02 07:15:31  5-MIN KMSN 211315Z VRB05KT 6SM HZ OVC014 M01/M04 A2962 1140 81 -500 VRB/05 RMK AO2
14837KMSN MSN20020121072010101/21/02 07:20:31  5-MIN KMSN 211320Z 26004KT 6SM HZ OVC014 M01/M04 A2962 1140 81 -500 260/04 RMK AO2
14837KMSN MSN20020121072510101/21/02 07:25:31  5-MIN KMSN 211325Z VRB05KT 6SM HZ OVC014 M01/M04 A2963 1140 81 -500 VRB/05 RMK AO2
14837KMSN MSN20020121073010101/21/02 07:30:31  5-MIN KMSN 211330Z 25005KT 5SM HZ OVC014 M01/M04 A2963 1130 81 -500 250/05 RMK AO2
14837KMSN MSN20020121073510101/21/02 07:35:31  5-MIN KMSN 211335Z VRB04KT 4SM HZ OVC014 M01/M04 A2964 1130 81 -500 VRB/04 RMK AO2
14837KMSN MSN20020121074010101/21/02 07:40:31  5-MIN KMSN 211340Z VRB06KT 5SM HZ OVC014 M01/M04 A2964 1130 81 -500 VRB/06 RMK AO2
14837KMSN MSN20020121074510101/21/02 07:45:31  5-MIN KMSN 211345Z VRB06KT 5SM HZ OVC014 M01/M04 A2964 1120 81 -500 VRB/06 RMK AO2
14837KMSN MSN20020121075011801/21/02 07:50:31  5-MIN KMSN 211350Z VRB05KT 5SM HZ OVC014 M01/M04 A2965 1120 81 -500 VRB/05 RMK AO2 SLP049 T10111039
14837KMSN MSN20020121075510101/21/02 07:55:31  5-MIN KMSN 211355Z 27009KT 5SM HZ OVC014 M01/M04 A2965 1120 81 -500 270/09 RMK AO2
14837KMSN MSN20020121080011701/21/02 08:00:31  5-MIN KMSN 211400Z 27009KT 220V310 5SM HZ OVC014 M01/M04 A2965 1110 78 -500 270/09 220V310 RMK AO2
14837KMSN MSN20020121080512301/21/02 08:05:31  5-MIN KMSN 211405Z 27008G15KT 230V300 6SM HZ OVC014 M02/M04 A2966 1110 81 -600 260/08G15 230V300 RMK AO2
14837KMSN MSN20020121081010701/21/02 08:10:31  5-MIN KMSN 211410Z 28008G15KT 6SM HZ OVC014 M02/M04 A2966 1110 81 -600 270/08G15 RMK AO2
14837KMSN MSN20020121081510101/21/02 08:15:31  5-MIN KMSN 211415Z 28008KT 6SM HZ OVC014 M02/M04 A2967 1100 81 -600 280/08 RMK AO2
14837KMSN MSN20020121082010101/21/02 08:20:31  5-MIN KMSN 211420Z 27009KT 6SM HZ OVC014 M01/M04 A2967 1100 78 -500 270/09 RMK AO2
14837KMSN MSN20020121082512301/21/02 08:25:31  5-MIN KMSN 211425Z 28011G16KT 250V320 6SM HZ OVC014 M01/M04 A2967 1100 78 -500 280/11G16 250V320 RMK AO2
14837KMSN MSN20020121083010701/21/02 08:30:31  5-MIN KMSN 211430Z 28010G16KT 6SM HZ OVC014 M01/M04 A2967 1090 78 -500 280/10G16 RMK AO2
14837KMSN MSN20020121083510701/21/02 08:35:31  5-MIN KMSN 211435Z 29015G18KT 6SM HZ OVC014 M02/M05 A2968 1090 78 -600 290/15G18 RMK AO2
14837KMSN MSN20020121084010701/21/02 08:40:31  5-MIN KMSN 211440Z 30013G19KT 6SM HZ OVC014 M02/M05 A2968 1090 78 -600 300/13G19 RMK AO2
14837KMSN MSN20020121084510701/21/02 08:45:31  5-MIN KMSN 211445Z 29012G19KT 6SM HZ OVC016 M02/M05 A2968 1080 78 -600 290/12G19 RMK AO2
14837KMSN MSN20020121085013001/21/02 08:50:31  5-MIN KMSN 211450Z 28010G19KT 6SM HZ OVC016 M02/M06 A2969 1080 75 -600 280/10G19 RMK AO2 SLP064 T10171056 55001
14837KMSN MSN20020121085510701/21/02 08:55:31  5-MIN KMSN 211455Z 28011G19KT 6SM HZ OVC016 M02/M06 A2969 1080 75 -600 270/11G19 RMK AO2
14837KMSN MSN20020121090010701/21/02 09:00:31  5-MIN KMSN 211500Z 27013G18KT 6SM HZ OVC016 M02/M06 A2970 1070 75 -600 270/13G18 RMK AO2
14837KMSN MSN20020121090510701/21/02 09:05:31  5-MIN KMSN 211505Z 28011G18KT 6SM HZ OVC016 M02/M06 A2970 1070 75 -600 280/11G18 RMK AO2
14837KMSN MSN20020121091010401/21/02 09:10:31  5-MIN KMSN 211510Z 29009G16KT 7SM OVC018 M02/M06 A2970 1070 72 -600 290/09G16 RMK AO2
14837KMSN MSN20020121091510401/21/02 09:15:31  5-MIN KMSN 211515Z 29010G16KT 8SM OVC018 M02/M06 A2971 1060 72 -600 290/10G16 RMK AO2
14837KMSN MSN20020121092009801/21/02 09:20:31  5-MIN KMSN 211520Z 29008KT 8SM OVC018 M02/M06 A2971 1060 75 -600 290/08 RMK AO2
14837KMSN MSN20020121092509801/21/02 09:25:31  5-MIN KMSN 211525Z 30008KT 8SM OVC018 M02/M06 A2972 1050 75 -600 300/08 RMK AO2
14837KMSN MSN20020121093009801/21/02 09:30:31  5-MIN KMSN 211530Z 30011KT 8SM OVC018 M02/M06 A2972 1050 75 -600 300/11 RMK AO2
14837KMSN MSN20020121093510401/21/02 09:35:31  5-MIN KMSN 211535Z 30011G16KT 8SM OVC018 M02/M06 A2973 1040 75 -700 300/11G16 RMK AO2
14837KMSN MSN20020121094010501/21/02 09:40:31  5-MIN KMSN 211540Z 30009KT 8SM OVC018 M02/M07 A2973 1040 72 -700 300/09 RMK AO2 PRESRR
14837KMSN MSN20020121094509801/21/02 09:45:31  5-MIN KMSN 211545Z 30012KT 8SM OVC018 M02/M07 A2974 1030 72 -700 300/12 RMK AO2
14837KMSN MSN20020121095011501/21/02 09:50:31  5-MIN KMSN 211550Z 30009KT 8SM OVC018 M02/M07 A2974 1030 72 -700 300/09 RMK AO2 SLP080 T10221067
14837KMSN MSN20020121095509801/21/02 09:55:31  5-MIN KMSN 211555Z 29011KT 7SM OVC018 M02/M07 A2974 1030 72 -700 290/11 RMK AO2
14837KMSN MSN20020121100009801/21/02 10:00:31  5-MIN KMSN 211600Z 29010KT 8SM OVC020 M02/M07 A2975 1020 72 -700 290/10 RMK AO2
14837KMSN MSN20020121100509901/21/02 10:05:31  5-MIN KMSN 211605Z 29012KT 10SM BKN020 M02/M07 A2975 1020 72 -700 290/12 RMK AO2
14837KMSN MSN20020121101009901/21/02 10:10:31  5-MIN KMSN 211610Z 30012KT 10SM BKN020 M02/M07 A2975 1020 69 -700 300/12 RMK AO2
14837KMSN MSN20020121101509901/21/02 10:15:31  5-MIN KMSN 211615Z 31012KT 10SM BKN020 M02/M07 A2976 1010 72 -800 310/12 RMK AO2
14837KMSN MSN20020121102009901/21/02 10:20:31  5-MIN KMSN 211620Z 30008KT 10SM BKN020 M02/M07 A2976 1010 69 -700 290/08 RMK AO2
14837KMSN MSN20020121102510601/21/02 10:25:31  5-MIN KMSN 211625Z 30010KT 10SM BKN020 M02/M07 A2977 1000 69 -700 300/10 RMK AO2 PRESRR
14837KMSN MSN20020121103009901/21/02 10:30:31  5-MIN KMSN 211630Z 28009KT 10SM BKN020 M02/M07 A2977 1000 69 -700 280/09 RMK AO2
14837KMSN MSN20020121103510401/21/02 10:35:31  5-MIN KMSN 211635Z 29010G17KT 10SM BKN020 M02/M07 A2978 990 69 -700 290/10G17 RMK AO2
14837KMSN MSN20020121104010401/21/02 10:40:31  5-MIN KMSN 211640Z 28012G17KT 10SM BKN020 M02/M07 A2978 990 69 -700 280/12G17 RMK AO2
14837KMSN MSN20020121104509801/21/02 10:45:31  5-MIN KMSN 211645Z 29010KT 10SM SCT020 M02/M07 A2979 990 66 -700 290/10 RMK AO2
14837KMSN MSN20020121105011501/21/02 10:50:31  5-MIN KMSN 211650Z 29008KT 10SM SCT020 M02/M07 A2979 990 69 -700 290/08 RMK AO2 SLP097 T10171067
14837KMSN MSN20020121105509701/21/02 10:55:31  5-MIN KMSN 211655Z 27008KT 8SM BKN020 M02/M07 A2979 990 69 -700 270/08 RMK AO2
14837KMSN MSN20020121110009801/21/02 11:00:31  5-MIN KMSN 211700Z 27009KT 10SM SCT020 M02/M07 A2979 990 69 -700 270/09 RMK AO2
14837KMSN MSN20020121110510401/21/02 11:05:31  5-MIN KMSN 211705Z 28012G18KT 10SM FEW020 M02/M07 A2979 990 69 -700 280/12G18 RMK AO2
14837KMSN MSN20020121111010401/21/02 11:10:31  5-MIN KMSN 211710Z 28011G18KT 10SM FEW020 M02/M07 A2979 990 69 -700 270/11G18 RMK AO2
14837KMSN MSN20020121111510401/21/02 11:15:31  5-MIN KMSN 211715Z 27012G17KT 10SM FEW020 M02/M07 A2979 980 66 -700 270/12G17 RMK AO2
14837KMSN MSN20020121112012001/21/02 11:20:31  5-MIN KMSN 211720Z 28010G16KT 250V310 10SM FEW020 M02/M07 A2979 980 69 -700 280/10G16 250V310 RMK AO2
14837KMSN MSN20020121112510101/21/02 11:25:31  5-MIN KMSN 211725Z 28010G17KT 10SM CLR M02/M07 A2979 980 69 -700 280/10G17 RMK AO2
14837KMSN MSN20020121113010101/21/02 11:30:31  5-MIN KMSN 211730Z 26009G17KT 10SM CLR M02/M07 A2980 980 69 -700 260/09G17 RMK AO2
14837KMSN MSN20020121113510101/21/02 11:35:31  5-MIN KMSN 211735Z 27010G15KT 10SM CLR M02/M07 A2980 980 69 -700 270/10G15 RMK AO2
14837KMSN MSN20020121114010101/21/02 11:40:31  5-MIN KMSN 211740Z 26011G16KT 10SM CLR M02/M07 A2980 980 69 -700 260/11G16 RMK AO2
14837KMSN MSN20020121114510401/21/02 11:45:31  5-MIN KMSN 211745Z 27013G16KT 10SM FEW020 M02/M07 A2980 970 69 -700 270/13G16 RMK AO2
14837KMSN MSN20020121115013301/21/02 11:50:31  5-MIN KMSN 211750Z 27011KT 10SM FEW020 M01/M07 A2980 970 66 -700 270/11 RMK AO2 SLP102 T10111067 11006 21022 53036
14837KMSN MSN20020121115509401/21/02 11:55:31  5-MIN KMSN 211755Z 27012KT 9SM CLR M01/M07 A2980 970 66 -700 270/12 RMK AO2
14837KMSN MSN20020121120009501/21/02 12:00:31  5-MIN KMSN 211800Z 28010KT 10SM CLR M01/M07 A2980 970 66 -700 280/10 RMK AO2
14837KMSN MSN20020121120511101/21/02 12:05:31  5-MIN KMSN 211805Z 27011KT 240V300 10SM CLR M01/M07 A2980 970 63 -700 270/11 240V300 RMK AO2
14837KMSN MSN20020121121010101/21/02 12:10:31  5-MIN KMSN 211810Z 28007G15KT 10SM CLR M01/M07 A2980 970 63 -600 280/07G15 RMK AO2
14837KMSN MSN20020121121510101/21/02 12:15:31  5-MIN KMSN 211815Z 27010G16KT 10SM CLR M01/M07 A2980 970 61 -600 270/10G16 RMK AO2
14837KMSN MSN20020121122010101/21/02 12:20:31  5-MIN KMSN 211820Z 28010G16KT 10SM CLR M01/M07 A2981 970 61 -600 280/10G16 RMK AO2
14837KMSN MSN20020121122510101/21/02 12:25:31  5-MIN KMSN 211825Z 28008G16KT 10SM CLR M01/M07 A2980 970 61 -600 280/08G16 RMK AO2
14837KMSN MSN20020121123011701/21/02 12:30:31  5-MIN KMSN 211830Z 27009G15KT 240V300 10SM CLR M01/M07 A2981 970 61 -600 270/09G15 240V300 RMK AO2
14837KMSN MSN20020121123510101/21/02 12:35:31  5-MIN KMSN 211835Z 27010G17KT 10SM CLR M01/M07 A2980 970 61 -600 270/10G17 RMK AO2
14837KMSN MSN20020121124010101/21/02 12:40:31  5-MIN KMSN 211840Z 27010G17KT 10SM CLR M01/M07 A2980 970 61 -600 270/10G17 RMK AO2
14837KMSN MSN20020121124510101/21/02 12:45:31  5-MIN KMSN 211845Z 27009G15KT 10SM CLR M01/M07 A2981 970 61 -600 270/09G15 RMK AO2
14837KMSN MSN20020121125011101/21/02 12:50:31  5-MIN KMSN 211850Z 27010KT 10SM CLR 00/M07 A2981 970 61 -500 260/10 RMK AO2 SLP103 T00001067
14837KMSN MSN20020121125511601/21/02 12:55:31  5-MIN KMSN 211855Z 27008G14KT 230V300 10SM CLR 00/M07 A2980 970 61 -500 270/08G14 230V300 RMK AO2
14837KMSN MSN20020121130011601/21/02 13:00:31  5-MIN KMSN 211900Z 27009G14KT 240V300 10SM CLR 00/M07 A2981 970 61 -500 270/09G14 240V300 RMK AO2
14837KMSN MSN20020121130510001/21/02 13:05:31  5-MIN KMSN 211905Z 27011G16KT 10SM CLR 00/M07 A2981 970 61 -500 260/11G16 RMK AO2
14837KMSN MSN20020121131010001/21/02 13:10:31  5-MIN KMSN 211910Z 27007G16KT 10SM CLR 00/M07 A2981 960 61 -500 270/07G16 RMK AO2
14837KMSN MSN20020121131509401/21/02 13:15:31  5-MIN KMSN 211915Z 28007KT 10SM CLR 01/M07 A2981 960 58 -500 280/07 RMK AO2
14837KMSN MSN20020121132009401/21/02 13:20:31  5-MIN KMSN 211920Z 27008KT 10SM CLR 01/M07 A2981 960 58 -500 270/08 RMK AO2
14837KMSN MSN20020121132511001/21/02 13:25:31  5-MIN KMSN 211925Z 26007KT 230V290 10SM CLR 01/M07 A2981 960 58 -500 260/07 230V290 RMK AO2
14837KMSN MSN20020121133009401/21/02 13:30:31  5-MIN KMSN 211930Z 28008KT 10SM CLR 01/M07 A2982 960 58 -500 280/08 RMK AO2
14837KMSN MSN20020121133509401/21/02 13:35:31  5-MIN KMSN 211935Z 26010KT 10SM CLR 01/M07 A2982 960 58 -500 260/10 RMK AO2
14837KMSN MSN20020121134011001/21/02 13:40:31  5-MIN KMSN 211940Z 26008KT 230V310 10SM CLR 01/M07 A2981 960 56 -400 260/08 230V310 RMK AO2
14837KMSN MSN20020121134509401/21/02 13:45:31  5-MIN KMSN 211945Z 27006KT 10SM CLR 01/M07 A2981 970 56 -400 260/06 RMK AO2
14837KMSN MSN20020121135011101/21/02 13:50:31  5-MIN KMSN 211950Z 26008KT 10SM CLR 01/M07 A2981 960 56 -400 260/08 RMK AO2 SLP105 T00111067
14837KMSN MSN20020121135509401/21/02 13:55:31  5-MIN KMSN 211955Z 28009KT 10SM CLR 01/M07 A2982 960 56 -400 280/09 RMK AO2
14837KMSN MSN20020121140009401/21/02 14:00:31  5-MIN KMSN 212000Z 29006KT 10SM CLR 01/M07 A2982 960 56 -400 290/06 RMK AO2
14837KMSN MSN20020121140509401/21/02 14:05:31  5-MIN KMSN 212005Z VRB06KT 10SM CLR 01/M06 A2982 960 58 -400 VRB/06 RMK AO2
14837KMSN MSN20020121141009401/21/02 14:10:31  5-MIN KMSN 212010Z 27006KT 10SM CLR 01/M06 A2982 960 58 -400 270/06 RMK AO2
14837KMSN MSN20020121141509401/21/02 14:15:31  5-MIN KMSN 212015Z VRB04KT 10SM CLR 02/M06 A2981 970 56 -300 VRB/04 RMK AO2
14837KMSN MSN20020121142009401/21/02 14:20:31  5-MIN KMSN 212020Z VRB06KT 10SM CLR 02/M07 A2982 960 54 -300 VRB/06 RMK AO2
14837KMSN MSN20020121142511001/21/02 14:25:31  5-MIN KMSN 212025Z 27007KT 240V320 10SM CLR 02/M07 A2982 960 54 -300 270/07 240V320 RMK AO2
14837KMSN MSN20020121143009401/21/02 14:30:31  5-MIN KMSN 212030Z VRB04KT 10SM CLR 02/M07 A2982 960 54 -300 VRB/04 RMK AO2
14837KMSN MSN20020121143509401/21/02 14:35:31  5-MIN KMSN 212035Z 27006KT 10SM CLR 02/M06 A2982 960 56 -300 270/06 RMK AO2
14837KMSN MSN20020121144009401/21/02 14:40:31  5-MIN KMSN 212040Z 25007KT 10SM CLR 02/M07 A2982 960 54 -300 250/07 RMK AO2
14837KMSN MSN20020121144509401/21/02 14:45:31  5-MIN KMSN 212045Z 25005KT 10SM CLR 02/M06 A2982 960 56 -300 250/05 RMK AO2
14837KMSN MSN20020121145011701/21/02 14:50:31  5-MIN KMSN 212050Z 27007KT 10SM CLR 02/M07 A2982 950 52 -300 270/07 RMK AO2 SLP109 T00221067 51037
14837KMSN MSN20020121145509401/21/02 14:55:31  5-MIN KMSN 212055Z 25005KT 10SM CLR 02/M07 A2983 950 52 -300 250/05 RMK AO2
14837KMSN MSN20020121150009401/21/02 15:00:31  5-MIN KMSN 212100Z VRB06KT 10SM CLR 02/M07 A2983 950 52 -300 VRB/06 RMK AO2
14837KMSN MSN20020121150509401/21/02 15:05:31  5-MIN KMSN 212105Z 26004KT 10SM CLR 02/M07 A2983 950 52 -300 260/04 RMK AO2
14837KMSN MSN20020121151009401/21/02 15:10:31  5-MIN KMSN 212110Z 27003KT 10SM CLR 02/M07 A2984 940 52 -300 260/03 RMK AO2
14837KMSN MSN20020121151509401/21/02 15:15:31  5-MIN KMSN 212115Z VRB04KT 10SM CLR 02/M07 A2984 940 52 -300 VRB/04 RMK AO2
14837KMSN MSN20020121152009401/21/02 15:20:31  5-MIN KMSN 212120Z 29004KT 10SM CLR 02/M07 A2984 940 52 -300 290/04 RMK AO2
14837KMSN MSN20020121152509701/21/02 15:25:31  5-MIN KMSN 212125Z VRB05KT 10SM FEW045 02/M07 A2984 940 52 -300 VRB/05 RMK AO2
14837KMSN MSN20020121153009701/21/02 15:30:31  5-MIN KMSN 212130Z 24003KT 10SM FEW045 02/M07 A2984 940 52 -300 240/03 RMK AO2
14837KMSN MSN20020121153509701/21/02 15:35:31  5-MIN KMSN 212135Z 21005KT 10SM FEW045 02/M07 A2984 940 52 -300 210/05 RMK AO2
14837KMSN MSN20020121154009701/21/02 15:40:31  5-MIN KMSN 212140Z 22006KT 10SM FEW045 02/M06 A2985 930 54 -300 220/06 RMK AO2
14837KMSN MSN20020121154509401/21/02 15:45:31  5-MIN KMSN 212145Z 23005KT 10SM CLR 02/M06 A2985 930 56 -400 230/05 RMK AO2
14837KMSN MSN20020121155011401/21/02 15:50:31  5-MIN KMSN 212150Z 21003KT 10SM FEW035 02/M06 A2985 930 56 -400 210/03 RMK AO2 SLP117 T00171061
14837KMSN MSN20020121155509401/21/02 15:55:31  5-MIN KMSN 212155Z 21004KT 10SM CLR 02/M06 A2985 930 59 -400 210/04 RMK AO2
14837KMSN MSN20020121160009701/21/02 16:00:31  5-MIN KMSN 212200Z 21005KT 10SM FEW035 02/M06 A2985 930 59 -400 210/05 RMK AO2
14837KMSN MSN20020121160509701/21/02 16:05:31  5-MIN KMSN 212205Z 21004KT 10SM FEW035 02/M06 A2986 920 56 -400 210/04 RMK AO2
14837KMSN MSN20020121161009701/21/02 16:10:31  5-MIN KMSN 212210Z 22006KT 10SM FEW035 02/M06 A2986 920 56 -400 220/06 RMK AO2
14837KMSN MSN20020121161509701/21/02 16:15:31  5-MIN KMSN 212215Z 21005KT 10SM FEW035 02/M06 A2986 920 56 -400 200/05 RMK AO2
14837KMSN MSN20020121162009701/21/02 16:20:31  5-MIN KMSN 212220Z 20005KT 10SM FEW035 02/M06 A2987 910 59 -400 200/05 RMK AO2
14837KMSN MSN20020121162509701/21/02 16:25:31  5-MIN KMSN 212225Z 20005KT 10SM FEW035 01/M06 A2987 910 61 -500 200/05 RMK AO2
14837KMSN MSN20020121163009701/21/02 16:30:31  5-MIN KMSN 212230Z 21004KT 10SM FEW035 01/M06 A2987 910 58 -500 210/04 RMK AO2
14837KMSN MSN20020121163509701/21/02 16:35:31  5-MIN KMSN 212235Z 21006KT 10SM FEW035 02/M06 A2987 910 56 -400 210/06 RMK AO2
14837KMSN MSN20020121164009701/21/02 16:40:31  5-MIN KMSN 212240Z 21005KT 10SM FEW035 01/M06 A2987 910 58 -500 210/05 RMK AO2
14837KMSN MSN20020121164509701/21/02 16:45:31  5-MIN KMSN 212245Z 21005KT 10SM FEW035 01/M06 A2988 900 58 -500 210/05 RMK AO2
14837KMSN MSN20020121165011401/21/02 16:50:31  5-MIN KMSN 212250Z 21005KT 10SM FEW035 01/M06 A2988 900 58 -500 210/05 RMK AO2 SLP128 T00111061
14837KMSN MSN20020121165509401/21/02 16:55:31  5-MIN KMSN 212255Z 21004KT 10SM CLR 01/M06 A2988 900 58 -500 200/04 RMK AO2
14837KMSN MSN20020121170009401/21/02 17:00:31  5-MIN KMSN 212300Z 20004KT 10SM CLR 01/M06 A2988 900 61 -600 200/04 RMK AO2
14837KMSN MSN20020121170509401/21/02 17:05:31  5-MIN KMSN 212305Z 20004KT 10SM CLR 01/M06 A2988 900 58 -500 200/04 RMK AO2
14837KMSN MSN20020121171009401/21/02 17:10:31  5-MIN KMSN 212310Z 20005KT 10SM CLR 01/M06 A2989 900 61 -600 200/05 RMK AO2
14837KMSN MSN20020121171509401/21/02 17:15:31  5-MIN KMSN 212315Z 20005KT 10SM CLR 01/M06 A2989 890 61 -600 200/05 RMK AO2
14837KMSN MSN20020121172009701/21/02 17:20:31  5-MIN KMSN 212320Z 20005KT 10SM FEW090 01/M06 A2989 890 61 -600 200/05 RMK AO2
14837KMSN MSN20020121172509701/21/02 17:25:31  5-MIN KMSN 212325Z 20005KT 10SM SCT090 01/M06 A2989 890 61 -600 200/05 RMK AO2
14837KMSN MSN20020121173009701/21/02 17:30:31  5-MIN KMSN 212330Z 20005KT 10SM SCT090 01/M06 A2989 890 63 -600 200/05 RMK AO2
14837KMSN MSN20020121173509701/21/02 17:35:31  5-MIN KMSN 212335Z 20005KT 10SM FEW090 01/M06 A2989 890 63 -600 200/05 RMK AO2
14837KMSN MSN20020121174009701/21/02 17:40:31  5-MIN KMSN 212340Z 18006KT 10SM FEW090 01/M06 A2989 890 63 -600 180/06 RMK AO2
14837KMSN MSN20020121174509701/21/02 17:45:31  5-MIN KMSN 212345Z 19007KT 10SM FEW090 01/M06 A2989 890 61 -600 190/07 RMK AO2
14837KMSN MSN20020121175013201/21/02 17:50:31  5-MIN KMSN 212350Z 18006KT 10SM FEW090 01/M06 A2989 890 63 -600 180/06 RMK AO2 SLP132 T00061056 10022 21011 53008
14837KMSN MSN20020121175509401/21/02 17:55:31  5-MIN KMSN 212355Z 18007KT 10SM CLR 00/M06 A2989 890 63 -600 180/07 RMK AO2
14837KMSN MSN20020121180009401/21/02 18:00:31  5-MIN KMSN 220000Z 18007KT 10SM CLR 00/M06 A2990 890 63 -600 180/07 RMK AO2
14837KMSN MSN20020121180509401/21/02 18:05:31  5-MIN KMSN 220005Z 18007KT 10SM CLR 00/M06 A2990 880 63 -600 180/07 RMK AO2
14837KMSN MSN20020121181009501/21/02 18:10:31  5-MIN KMSN 220010Z 18007KT 10SM CLR M01/M06 A2990 880 66 -700 180/07 RMK AO2
14837KMSN MSN20020121181509401/21/02 18:15:31  5-MIN KMSN 220015Z 18007KT 10SM CLR 00/M06 A2990 880 63 -600 180/07 RMK AO2
14837KMSN MSN20020121182009501/21/02 18:20:31  5-MIN KMSN 220020Z 17006KT 10SM CLR M01/M06 A2990 880 66 -700 170/06 RMK AO2
14837KMSN MSN20020121182509501/21/02 18:25:31  5-MIN KMSN 220025Z 17005KT 10SM CLR M01/M06 A2990 880 69 -800 170/05 RMK AO2
14837KMSN MSN20020121183009501/21/02 18:30:31  5-MIN KMSN 220030Z 17006KT 10SM CLR M01/M06 A2990 880 69 -800 170/06 RMK AO2
14837KMSN MSN20020121183509501/21/02 18:35:31  5-MIN KMSN 220035Z 17007KT 10SM CLR M01/M06 A2990 880 69 -800 170/07 RMK AO2
14837KMSN MSN20020121184009501/21/02 18:40:31  5-MIN KMSN 220040Z 17007KT 10SM CLR M01/M06 A2990 880 69 -700 170/07 RMK AO2
14837KMSN MSN20020121184509501/21/02 18:45:31  5-MIN KMSN 220045Z 18009KT 10SM CLR M01/M06 A2990 880 69 -700 170/09 RMK AO2
14837KMSN MSN20020121185011201/21/02 18:50:31  5-MIN KMSN 220050Z 17008KT 10SM CLR M01/M06 A2990 880 69 -800 170/08 RMK AO2 SLP135 T10111061
14837KMSN MSN20020121185509501/21/02 18:55:31  5-MIN KMSN 220055Z 18008KT 10SM CLR M01/M06 A2990 880 72 -800 180/08 RMK AO2
14837KMSN MSN20020121190009501/21/02 19:00:31  5-MIN KMSN 220100Z 18008KT 10SM CLR M01/M06 A2990 880 72 -800 180/08 RMK AO2
14837KMSN MSN20020121190509501/21/02 19:05:31  5-MIN KMSN 220105Z 18007KT 10SM CLR M01/M06 A2990 880 72 -800 180/07 RMK AO2
14837KMSN MSN20020121191009501/21/02 19:10:31  5-MIN KMSN 220110Z 19006KT 10SM CLR M01/M06 A2990 880 72 -800 190/06 RMK AO2
14837KMSN MSN20020121191509501/21/02 19:15:31  5-MIN KMSN 220115Z 19005KT 10SM CLR M01/M06 A2990 880 72 -800 190/05 RMK AO2
14837KMSN MSN20020121192009501/21/02 19:20:31  5-MIN KMSN 220120Z 18006KT 10SM CLR M01/M05 A2991 880 75 -800 180/06 RMK AO2
14837KMSN MSN20020121192509501/21/02 19:25:31  5-MIN KMSN 220125Z 18005KT 10SM CLR M01/M05 A2990 880 75 -800 180/05 RMK AO2
14837KMSN MSN20020121193009501/21/02 19:30:31  5-MIN KMSN 220130Z 18005KT 10SM CLR M02/M05 A2990 880 78 -900 180/05 RMK AO2
14837KMSN MSN20020121193509501/21/02 19:35:31  5-MIN KMSN 220135Z 18004KT 10SM CLR M02/M06 A2990 880 75 -900 180/04 RMK AO2
14837KMSN MSN20020121194009401/21/02 19:40:31  5-MIN KMSN 220140Z 17004KT 9SM CLR M02/M06 A2990 880 78 -900 170/04 RMK AO2
14837KMSN MSN20020121194509401/21/02 19:45:31  5-MIN KMSN 220145Z 17005KT 9SM CLR M02/M05 A2990 880 81 -900 170/05 RMK AO2
14837KMSN MSN20020121195011201/21/02 19:50:31  5-MIN KMSN 220150Z 18005KT 10SM CLR M02/M06 A2990 880 78 -900 180/05 RMK AO2 SLP137 T10221056
14837KMSN MSN20020121195509501/21/02 19:55:31  5-MIN KMSN 220155Z 18004KT 8SM CLR M03/M06 A2990 880 81 -1000 170/04 RMK AO2
14837KMSN MSN20020121200009501/21/02 20:00:31  5-MIN KMSN 220200Z 17005KT 8SM CLR M03/M06 A2991 880 85 -1100 170/05 RMK AO2
14837KMSN MSN20020121200509401/21/02 20:05:31  5-MIN KMSN 220205Z 17004KT 8SM CLR M02/M05 A2991 880 81 -900 170/04 RMK AO2
14837KMSN MSN20020121201009401/21/02 20:10:31  5-MIN KMSN 220210Z 17004KT 8SM CLR M02/M04 A2990 880 85 -900 170/04 RMK AO2
14837KMSN MSN20020121201509401/21/02 20:15:31  5-MIN KMSN 220215Z 16005KT 8SM CLR M02/M05 A2990 880 81 -900 160/05 RMK AO2
14837KMSN MSN20020121202009501/21/02 20:20:31  5-MIN KMSN 220220Z 17005KT 8SM CLR M03/M06 A2990 880 81 -1000 170/05 RMK AO2
14837KMSN MSN20020121202509501/21/02 20:25:31  5-MIN KMSN 220225Z 19004KT 8SM CLR M03/M06 A2991 880 81 -1000 190/04 RMK AO2
14837KMSN MSN20020121203009401/21/02 20:30:31  5-MIN KMSN 220230Z 17004KT 8SM CLR M02/M04 A2990 880 85 -900 170/04 RMK AO2
14837KMSN MSN20020121203509401/21/02 20:35:31  5-MIN KMSN 220235Z 18004KT 8SM CLR M02/M04 A2990 880 85 -900 180/04 RMK AO2
14837KMSN MSN20020121204009501/21/02 20:40:31  5-MIN KMSN 220240Z 19004KT 8SM CLR M03/M05 A2990 880 85 -1000 190/04 RMK AO2
14837KMSN MSN20020121204509401/21/02 20:45:31  5-MIN KMSN 220245Z 18004KT 8SM CLR M02/M04 A2990 880 85 -900 180/04 RMK AO2
14837KMSN MSN20020121205011801/21/02 20:50:31  5-MIN KMSN 220250Z 18003KT 10SM CLR M02/M04 A2990 880 85 -900 180/03 RMK AO2 SLP136 T10221044 51022
14837KMSN MSN20020121205509401/21/02 20:55:31  5-MIN KMSN 220255Z 18004KT 8SM CLR M02/M04 A2990 880 81 -900 180/04 RMK AO2
14837KMSN MSN20020121210009501/21/02 21:00:31  5-MIN KMSN 220300Z 18004KT 10SM CLR M02/M04 A2990 880 81 -900 180/04 RMK AO2
14837KMSN MSN20020121210509501/21/02 21:05:31  5-MIN KMSN 220305Z 18003KT 10SM CLR M02/M04 A2990 890 81 -900 170/03 RMK AO2
14837KMSN MSN20020121211009501/21/02 21:10:31  5-MIN KMSN 220310Z 18004KT 10SM CLR M02/M04 A2990 890 85 -900 180/04 RMK AO2
14837KMSN MSN20020121211509501/21/02 21:15:31  5-MIN KMSN 220315Z 18003KT 10SM CLR M02/M04 A2990 880 85 -900 180/03 RMK AO2
14837KMSN MSN20020121212009501/21/02 21:20:31  5-MIN KMSN 220320Z 19005KT 10SM CLR M02/M04 A2990 880 85 -900 190/05 RMK AO2
14837KMSN MSN20020121212509501/21/02 21:25:31  5-MIN KMSN 220325Z 20005KT 10SM CLR M02/M04 A2990 880 81 -900 190/05 RMK AO2
14837KMSN MSN20020121213009501/21/02 21:30:31  5-MIN KMSN 220330Z 19007KT 10SM CLR M01/M04 A2990 880 81 -800 190/07 RMK AO2
14837KMSN MSN20020121213509501/21/02 21:35:31  5-MIN KMSN 220335Z 19007KT 10SM CLR M01/M04 A2990 880 81 -800 190/07 RMK AO2
14837KMSN MSN20020121214009501/21/02 21:40:31  5-MIN KMSN 220340Z 19008KT 10SM CLR M01/M04 A2990 880 78 -800 190/08 RMK AO2
14837KMSN MSN20020121214509501/21/02 21:45:31  5-MIN KMSN 220345Z 19009KT 10SM CLR M01/M04 A2990 880 78 -700 190/09 RMK AO2
14837KMSN MSN20020121215011201/21/02 21:50:31  5-MIN KMSN 220350Z 19008KT 10SM CLR M01/M04 A2990 880 78 -700 190/08 RMK AO2 SLP135 T10061039
14837KMSN MSN20020121215509401/21/02 21:55:31  5-MIN KMSN 220355Z 20007KT 9SM CLR M01/M04 A2990 880 75 -700 200/07 RMK AO2
14837KMSN MSN20020121220009401/21/02 22:00:31  5-MIN KMSN 220400Z 20007KT 9SM CLR M01/M04 A2990 880 78 -700 200/07 RMK AO2
14837KMSN MSN20020121220509401/21/02 22:05:31  5-MIN KMSN 220405Z 20007KT 9SM CLR M01/M04 A2990 880 78 -700 200/07 RMK AO2
14837KMSN MSN20020121221009401/21/02 22:10:31  5-MIN KMSN 220410Z 20007KT 9SM CLR M01/M04 A2990 880 78 -700 200/07 RMK AO2
14837KMSN MSN20020121221509401/21/02 22:15:31  5-MIN KMSN 220415Z 20007KT 9SM CLR M01/M04 A2990 880 75 -700 200/07 RMK AO2
14837KMSN MSN20020121222009501/21/02 22:20:31  5-MIN KMSN 220420Z 20007KT 10SM CLR M01/M04 A2990 880 75 -700 200/07 RMK AO2
14837KMSN MSN20020121222509501/21/02 22:25:31  5-MIN KMSN 220425Z 20006KT 10SM CLR M01/M04 A2990 880 78 -700 200/06 RMK AO2
14837KMSN MSN20020121223009501/21/02 22:30:31  5-MIN KMSN 220430Z 20007KT 10SM CLR M01/M04 A2991 880 78 -700 200/07 RMK AO2
14837KMSN MSN20020121223509501/21/02 22:35:31  5-MIN KMSN 220435Z 20007KT 10SM CLR M01/M04 A2991 870 78 -700 200/07 RMK AO2
14837KMSN MSN20020121224009401/21/02 22:40:31  5-MIN KMSN 220440Z 21006KT 10SM CLR 00/M04 A2991 870 72 -700 200/06 RMK AO2
14837KMSN MSN20020121224509401/21/02 22:45:31  5-MIN KMSN 220445Z 21006KT 10SM CLR 00/M04 A2991 870 75 -700 200/06 RMK AO2
14837KMSN MSN20020121225011101/21/02 22:50:31  5-MIN KMSN 220450Z 21006KT 10SM CLR 00/M04 A2991 870 72 -700 210/06 RMK AO2 SLP140 T00001044
14837KMSN MSN20020121225509501/21/02 22:55:31  5-MIN KMSN 220455Z 21005KT 10SM CLR M01/M04 A2992 870 75 -700 210/05 RMK AO2
14837KMSN MSN20020121230009401/21/02 23:00:31  5-MIN KMSN 220500Z 20005KT 10SM CLR 00/M04 A2991 870 72 -700 190/05 RMK AO2
14837KMSN MSN20020121230509501/21/02 23:05:31  5-MIN KMSN 220505Z 20005KT 10SM CLR M01/M04 A2992 870 75 -700 200/05 RMK AO2
14837KMSN MSN20020121231009501/21/02 23:10:31  5-MIN KMSN 220510Z 20006KT 10SM CLR M01/M04 A2992 870 75 -700 190/06 RMK AO2
14837KMSN MSN20020121231509501/21/02 23:15:31  5-MIN KMSN 220515Z 19007KT 10SM CLR M01/M04 A2992 860 75 -700 190/07 RMK AO2
14837KMSN MSN20020121232009501/21/02 23:20:31  5-MIN KMSN 220520Z 19007KT 10SM CLR M01/M04 A2992 860 75 -700 190/07 RMK AO2
14837KMSN MSN20020121232509501/21/02 23:25:31  5-MIN KMSN 220525Z 19007KT 10SM CLR M01/M04 A2992 860 78 -800 190/07 RMK AO2
14837KMSN MSN20020121233009501/21/02 23:30:31  5-MIN KMSN 220530Z 19007KT 10SM CLR M01/M04 A2992 860 78 -800 190/07 RMK AO2
14837KMSN MSN20020121233509501/21/02 23:35:31  5-MIN KMSN 220535Z 19006KT 10SM CLR M01/M04 A2992 860 78 -800 180/06 RMK AO2
14837KMSN MSN20020121234009501/21/02 23:40:31  5-MIN KMSN 220540Z 19006KT 10SM CLR M02/M05 A2992 860 78 -900 190/06 RMK AO2
14837KMSN MSN20020121234509401/21/02 23:45:31  5-MIN KMSN 220545Z 19006KT 9SM CLR M02/M04 A2992 860 81 -900 190/06 RMK AO2
14837KMSN MSN20020121235014001/21/02 23:50:31  5-MIN KMSN 220550Z 18006KT 10SM CLR M02/M06 A2992 860 78 -900 180/06 RMK AO2 SLP143 T10221056 10000 21033 400221033 50003
14837KMSN MSN20020121235509501/21/02 23:55:31  5-MIN KMSN 220555Z 19006KT 10SM CLR M02/M05 A2992 860 81 -900 190/06 RMK AO2
14837KMSN MSN20020122000009601/22/02 00:00:31  5-MIN KMSN 220600Z 19006KT 10SM CLR M02/M06 A2992 860 78 -1000 190/06 RMK AO2
14837KMSN MSN20020122000509501/22/02 00:05:31  5-MIN KMSN 220605Z 20005KT 10SM CLR M02/M05 A2993 860 78 -900 190/05 RMK AO2
14837KMSN MSN20020122001009501/22/02 00:10:31  5-MIN KMSN 220610Z 20006KT 10SM CLR M02/M05 A2993 860 78 -900 190/06 RMK AO2
14837KMSN MSN20020122001509501/22/02 00:15:31  5-MIN KMSN 220615Z 19005KT 10SM CLR M02/M05 A2993 850 78 -900 190/05 RMK AO2
14837KMSN MSN20020122002009501/22/02 00:20:31  5-MIN KMSN 220620Z 20003KT 10SM CLR M01/M05 A2993 850 75 -800 200/03 RMK AO2
14837KMSN MSN20020122002509501/22/02 00:25:31  5-MIN KMSN 220625Z 21003KT 10SM CLR M02/M06 A2994 850 75 -900 210/03 RMK AO2
14837KMSN MSN20020122003009601/22/02 00:30:31  5-MIN KMSN 220630Z 20003KT 10SM CLR M02/M06 A2994 850 78 -1000 200/03 RMK AO2
14837KMSN MSN20020122003509601/22/02 00:35:31  5-MIN KMSN 220635Z 20003KT 10SM CLR M03/M06 A2993 850 78 -1000 200/03 RMK AO2
14837KMSN MSN20020122004009601/22/02 00:40:31  5-MIN KMSN 220640Z 20004KT 10SM CLR M03/M06 A2993 850 81 -1100 200/04 RMK AO2
14837KMSN MSN20020122004509601/22/02 00:45:31  5-MIN KMSN 220645Z 19005KT 10SM CLR M02/M06 A2993 850 78 -1000 190/05 RMK AO2
14837KMSN MSN20020122005011301/22/02 00:50:31  5-MIN KMSN 220650Z 19004KT 10SM CLR M02/M06 A2993 860 75 -1000 190/04 RMK AO2 SLP146 T10221061
14837KMSN MSN20020122005509601/22/02 00:55:31  5-MIN KMSN 220655Z 18004KT 10SM CLR M04/M07 A2993 860 81 -1200 180/04 RMK AO2
14837KMSN MSN20020122010009601/22/02 01:00:31  5-MIN KMSN 220700Z 18003KT 10SM CLR M03/M06 A2993 850 81 -1100 180/03 RMK AO2
14837KMSN MSN20020122010509601/22/02 01:05:31  5-MIN KMSN 220705Z 00000KT 10SM CLR M03/M06 A2994 850 78 -1000 000/00 RMK AO2
14837KMSN MSN20020122011009601/22/02 01:10:31  5-MIN KMSN 220710Z 16003KT 10SM CLR M04/M07 A2994 850 81 -1200 160/03 RMK AO2
14837KMSN MSN20020122011509601/22/02 01:15:31  5-MIN KMSN 220715Z 00000KT 10SM CLR M03/M06 A2995 840 78 -1000 000/00 RMK AO2
14837KMSN MSN20020122012009601/22/02 01:20:31  5-MIN KMSN 220720Z 18004KT 10SM CLR M04/M07 A2995 840 81 -1200 180/04 RMK AO2
14837KMSN MSN20020122012509601/22/02 01:25:31  5-MIN KMSN 220725Z 18004KT 10SM CLR M04/M07 A2995 840 81 -1200 180/04 RMK AO2
14837KMSN MSN20020122013009601/22/02 01:30:31  5-MIN KMSN 220730Z 19005KT 10SM CLR M03/M06 A2995 840 81 -1100 190/05 RMK AO2
14837KMSN MSN20020122013509601/22/02 01:35:31  5-MIN KMSN 220735Z 19004KT 10SM CLR M04/M07 A2994 840 81 -1200 190/04 RMK AO2
14837KMSN MSN20020122014009601/22/02 01:40:31  5-MIN KMSN 220740Z 17005KT 10SM CLR M04/M07 A2994 840 81 -1200 170/05 RMK AO2
14837KMSN MSN20020122014509601/22/02 01:45:31  5-MIN KMSN 220745Z 18004KT 10SM CLR M03/M06 A2994 840 81 -1100 180/04 RMK AO2
14837KMSN MSN20020122015011301/22/02 01:50:31  5-MIN KMSN 220750Z 17003KT 10SM CLR M03/M06 A2994 840 81 -1100 170/03 RMK AO2 SLP149 T10331061
14837KMSN MSN20020122015509601/22/02 01:55:31  5-MIN KMSN 220755Z 00000KT 10SM CLR M04/M07 A2994 840 81 -1200 000/00 RMK AO2
14837KMSN MSN20020122020009601/22/02 02:00:31  5-MIN KMSN 220800Z 15003KT 10SM CLR M03/M06 A2994 840 81 -1100 150/03 RMK AO2
14837KMSN MSN20020122020509601/22/02 02:05:31  5-MIN KMSN 220805Z 17003KT 10SM CLR M04/M07 A2994 840 81 -1200 170/03 RMK AO2
14837KMSN MSN20020122021009601/22/02 02:10:31  5-MIN KMSN 220810Z 18003KT 10SM CLR M05/M07 A2995 840 84 -1300 180/03 RMK AO2
14837KMSN MSN20020122021509601/22/02 02:15:31  5-MIN KMSN 220815Z 18005KT 10SM CLR M04/M07 A2994 840 84 -1300 180/05 RMK AO2
14837KMSN MSN20020122022009601/22/02 02:20:31  5-MIN KMSN 220820Z 18005KT 10SM CLR M04/M07 A2994 850 81 -1300 180/05 RMK AO2
14837KMSN MSN20020122022509601/22/02 02:25:31  5-MIN KMSN 220825Z 18007KT 10SM CLR M04/M07 A2994 840 81 -1300 180/07 RMK AO2
14837KMSN MSN20020122023009601/22/02 02:30:31  5-MIN KMSN 220830Z 18007KT 10SM CLR M03/M06 A2994 840 78 -1000 180/07 RMK AO2
14837KMSN MSN20020122023509601/22/02 02:35:31  5-MIN KMSN 220835Z 19006KT 10SM CLR M02/M06 A2994 850 75 -1000 180/06 RMK AO2
14837KMSN MSN20020122024009601/22/02 02:40:31  5-MIN KMSN 220840Z 18007KT 10SM CLR M03/M06 A2994 840 78 -1000 180/07 RMK AO2
14837KMSN MSN20020122024509601/22/02 02:45:31  5-MIN KMSN 220845Z 18006KT 10SM CLR M02/M07 A2994 840 69 -1000 180/06 RMK AO2
14837KMSN MSN20020122025011901/22/02 02:50:31  5-MIN KMSN 220850Z 19006KT 10SM CLR M02/M07 A2994 840 69 -1000 190/06 RMK AO2 SLP149 T10221072 53007
14837KMSN MSN20020122025509601/22/02 02:55:31  5-MIN KMSN 220855Z 19007KT 10SM CLR M02/M07 A2994 850 72 -1000 190/07 RMK AO2
14837KMSN MSN20020122030009601/22/02 03:00:31  5-MIN KMSN 220900Z 18007KT 10SM CLR M02/M07 A2994 840 72 -1000 180/07 RMK AO2
14837KMSN MSN20020122030509601/22/02 03:05:31  5-MIN KMSN 220905Z 19007KT 10SM CLR M02/M07 A2994 840 72 -1000 190/07 RMK AO2
14837KMSN MSN20020122031009601/22/02 03:10:31  5-MIN KMSN 220910Z 19006KT 10SM CLR M02/M07 A2994 850 72 -1000 190/06 RMK AO2
14837KMSN MSN20020122031509601/22/02 03:15:31  5-MIN KMSN 220915Z 18005KT 10SM CLR M02/M07 A2994 850 72 -1000 180/05 RMK AO2
14837KMSN MSN20020122032009601/22/02 03:20:31  5-MIN KMSN 220920Z 18006KT 10SM CLR M02/M07 A2994 850 72 -1000 180/06 RMK AO2
14837KMSN MSN20020122032509601/22/02 03:25:31  5-MIN KMSN 220925Z 18006KT 10SM CLR M02/M07 A2994 850 72 -1000 180/06 RMK AO2
14837KMSN MSN20020122033009601/22/02 03:30:31  5-MIN KMSN 220930Z 18004KT 10SM CLR M03/M07 A2994 850 74 -1100 180/04 RMK AO2
14837KMSN MSN20020122033509601/22/02 03:35:31  5-MIN KMSN 220935Z 18004KT 10SM CLR M03/M07 A2993 850 74 -1100 180/04 RMK AO2
14837KMSN MSN20020122034009601/22/02 03:40:31  5-MIN KMSN 220940Z 18004KT 10SM CLR M03/M07 A2994 850 74 -1100 180/04 RMK AO2
14837KMSN MSN20020122034509601/22/02 03:45:31  5-MIN KMSN 220945Z 19005KT 10SM CLR M03/M07 A2994 850 74 -1100 190/05 RMK AO2
14837KMSN MSN20020122035011301/22/02 03:50:31  5-MIN KMSN 220950Z 19008KT 10SM CLR M03/M07 A2995 840 71 -1100 190/08 RMK AO2 SLP152 T10281072
14837KMSN MSN20020122035509601/22/02 03:55:31  5-MIN KMSN 220955Z 19009KT 10SM CLR M02/M07 A2995 840 72 -1000 190/09 RMK AO2
14837KMSN MSN20020122040009501/22/02 04:00:31  5-MIN KMSN 221000Z 19009KT 10SM CLR M02/M07 A2995 840 69 -900 190/09 RMK AO2
14837KMSN MSN20020122040509501/22/02 04:05:31  5-MIN KMSN 221005Z 19008KT 10SM CLR M02/M07 A2995 840 69 -900 190/08 RMK AO2
14837KMSN MSN20020122041009501/22/02 04:10:31  5-MIN KMSN 221010Z 18008KT 10SM CLR M02/M07 A2995 840 69 -900 180/08 RMK AO2
14837KMSN MSN20020122041509501/22/02 04:15:31  5-MIN KMSN 221015Z 18008KT 10SM CLR M02/M07 A2995 840 69 -900 180/08 RMK AO2
14837KMSN MSN20020122042009501/22/02 04:20:31  5-MIN KMSN 221020Z 18008KT 10SM CLR M02/M07 A2995 840 69 -900 180/08 RMK AO2
14837KMSN MSN20020122042509501/22/02 04:25:31  5-MIN KMSN 221025Z 18007KT 10SM CLR M02/M07 A2994 840 69 -900 180/07 RMK AO2
14837KMSN MSN20020122043009601/22/02 04:30:31  5-MIN KMSN 221030Z 18007KT 10SM CLR M02/M07 A2994 840 72 -1000 180/07 RMK AO2
14837KMSN MSN20020122043509601/22/02 04:35:31  5-MIN KMSN 221035Z 18008KT 10SM CLR M02/M07 A2994 840 72 -1000 180/08 RMK AO2
14837KMSN MSN20020122044009501/22/02 04:40:31  5-MIN KMSN 221040Z 18008KT 10SM CLR M02/M07 A2994 840 69 -900 180/08 RMK AO2
14837KMSN MSN20020122044509501/22/02 04:45:31  5-MIN KMSN 221045Z 18009KT 10SM CLR M02/M07 A2994 840 69 -900 180/09 RMK AO2
14837KMSN MSN20020122045011201/22/02 04:50:31  5-MIN KMSN 221050Z 18009KT 10SM CLR M02/M07 A2994 850 69 -900 180/09 RMK AO2 SLP148 T10171067
14837KMSN MSN20020122045509501/22/02 04:55:31  5-MIN KMSN 221055Z 18009KT 10SM CLR M02/M07 A2994 840 69 -900 180/09 RMK AO2
14837KMSN MSN20020122050009501/22/02 05:00:31  5-MIN KMSN 221100Z 19011KT 10SM CLR M02/M07 A2994 840 69 -900 180/11 RMK AO2
14837KMSN MSN20020122050509501/22/02 05:05:31  5-MIN KMSN 221105Z 19010KT 10SM CLR M02/M07 A2994 840 69 -900 190/10 RMK AO2
14837KMSN MSN20020122051009501/22/02 05:10:31  5-MIN KMSN 221110Z 19009KT 10SM CLR M02/M07 A2994 840 69 -900 190/09 RMK AO2
14837KMSN MSN20020122051509501/22/02 05:15:31  5-MIN KMSN 221115Z 19010KT 10SM CLR M01/M07 A2994 840 66 -800 190/10 RMK AO2
14837KMSN MSN20020122052009501/22/02 05:20:31  5-MIN KMSN 221120Z 19010KT 10SM CLR M01/M07 A2994 840 66 -800 190/10 RMK AO2
14837KMSN MSN20020122052509501/22/02 05:25:31  5-MIN KMSN 221125Z 19010KT 10SM CLR M01/M07 A2994 840 66 -800 190/10 RMK AO2
14837KMSN MSN20020122053009501/22/02 05:30:31  5-MIN KMSN 221130Z 19009KT 10SM CLR M01/M07 A2994 850 66 -800 190/09 RMK AO2
14837KMSN MSN20020122053509501/22/02 05:35:31  5-MIN KMSN 221135Z 19010KT 10SM CLR M01/M07 A2994 840 66 -800 190/10 RMK AO2
14837KMSN MSN20020122054009501/22/02 05:40:31  5-MIN KMSN 221140Z 19009KT 10SM CLR M01/M07 A2994 850 66 -800 190/09 RMK AO2
14837KMSN MSN20020122054510101/22/02 05:45:31  5-MIN KMSN 221145Z 19010KT 10SM CLR M01/M07 A2994 850 66 -800 190/10 RMK AO2 4/002
14837KMSN MSN20020122055013601/22/02 05:50:31  5-MIN KMSN 221150Z 19010KT 10SM CLR M01/M07 A2994 850 66 -800 190/10 RMK AO2 SLP147 4/002 T10111067 11011 21050 50006
14837KMSN MSN20020122055509501/22/02 05:55:31  5-MIN KMSN 221155Z 19010KT 10SM CLR M02/M07 A2994 850 69 -900 190/10 RMK AO2
14837KMSN MSN20020122060009501/22/02 06:00:31  5-MIN KMSN 221200Z 19011KT 10SM CLR M01/M07 A2994 850 66 -800 180/11 RMK AO2
14837KMSN MSN20020122060509501/22/02 06:05:31  5-MIN KMSN 221205Z 19012KT 10SM CLR M01/M07 A2994 850 66 -800 190/12 RMK AO2
14837KMSN MSN20020122061009501/22/02 06:10:31  5-MIN KMSN 221210Z 19012KT 10SM CLR M01/M07 A2994 840 66 -800 190/12 RMK AO2
14837KMSN MSN20020122061509501/22/02 06:15:31  5-MIN KMSN 221215Z 19013KT 10SM CLR M01/M07 A2994 840 66 -800 190/13 RMK AO2
14837KMSN MSN20020122062009501/22/02 06:20:31  5-MIN KMSN 221220Z 19011KT 10SM CLR M01/M07 A2994 840 66 -800 190/11 RMK AO2
14837KMSN MSN20020122062509501/22/02 06:25:31  5-MIN KMSN 221225Z 19012KT 10SM CLR M01/M07 A2994 840 66 -800 190/12 RMK AO2
14837KMSN MSN20020122063009501/22/02 06:30:31  5-MIN KMSN 221230Z 19011KT 10SM CLR M01/M06 A2995 840 69 -800 190/11 RMK AO2
14837KMSN MSN20020122063509501/22/02 06:35:31  5-MIN KMSN 221235Z 19010KT 10SM CLR M01/M06 A2995 840 69 -800 190/10 RMK AO2
14837KMSN MSN20020122064009501/22/02 06:40:31  5-MIN KMSN 221240Z 19010KT 10SM CLR M01/M06 A2995 830 66 -800 190/10 RMK AO2
14837KMSN MSN20020122064509501/22/02 06:45:31  5-MIN KMSN 221245Z 19007KT 10SM CLR M01/M06 A2995 830 69 -800 190/07 RMK AO2
14837KMSN MSN20020122065011201/22/02 06:50:31  5-MIN KMSN 221250Z 19007KT 10SM CLR M01/M07 A2995 830 63 -800 190/07 RMK AO2 SLP154 T10061067
14837KMSN MSN20020122065509501/22/02 06:55:31  5-MIN KMSN 221255Z 19006KT 10SM CLR M01/M06 A2995 830 69 -800 190/06 RMK AO2
14837KMSN MSN20020122070009501/22/02 07:00:31  5-MIN KMSN 221300Z 19006KT 10SM CLR M01/M06 A2995 830 69 -800 190/06 RMK AO2
14837KMSN MSN20020122070509501/22/02 07:05:31  5-MIN KMSN 221305Z 19008KT 10SM CLR M01/M06 A2995 830 69 -800 190/08 RMK AO2
14837KMSN MSN20020122071009501/22/02 07:10:31  5-MIN KMSN 221310Z 19007KT 10SM CLR M01/M06 A2995 830 66 -800 190/07 RMK AO2
14837KMSN MSN20020122071509501/22/02 07:15:31  5-MIN KMSN 221315Z 19009KT 10SM CLR M01/M06 A2996 830 66 -800 190/09 RMK AO2
14837KMSN MSN20020122072009501/22/02 07:20:31  5-MIN KMSN 221320Z 19009KT 10SM CLR M01/M06 A2996 830 66 -800 190/09 RMK AO2
14837KMSN MSN20020122072509501/22/02 07:25:31  5-MIN KMSN 221325Z 19009KT 10SM CLR M01/M06 A2996 830 66 -800 190/09 RMK AO2
14837KMSN MSN20020122073009501/22/02 07:30:31  5-MIN KMSN 221330Z 19010KT 10SM CLR M01/M06 A2996 830 66 -800 190/10 RMK AO2
14837KMSN MSN20020122073509501/22/02 07:35:31  5-MIN KMSN 221335Z 19009KT 10SM CLR M01/M06 A2996 830 66 -800 190/09 RMK AO2
14837KMSN MSN20020122074009501/22/02 07:40:31  5-MIN KMSN 221340Z 19009KT 10SM CLR M01/M06 A2996 830 66 -800 190/09 RMK AO2
14837KMSN MSN20020122074509401/22/02 07:45:31  5-MIN KMSN 221345Z 19008KT 10SM CLR 00/M06 A2996 830 63 -700 190/08 RMK AO2
14837KMSN MSN20020122075011201/22/02 07:50:31  5-MIN KMSN 221350Z 19010KT 10SM CLR M01/M06 A2996 830 66 -800 190/10 RMK AO2 SLP155 T10061061
14837KMSN MSN20020122075509501/22/02 07:55:31  5-MIN KMSN 221355Z 19009KT 10SM CLR M01/M06 A2996 830 66 -800 190/09 RMK AO2
14837KMSN MSN20020122080009401/22/02 08:00:31  5-MIN KMSN 221400Z 19010KT 10SM CLR 00/M06 A2996 830 63 -700 190/10 RMK AO2
14837KMSN MSN20020122080509401/22/02 08:05:31  5-MIN KMSN 221405Z 19009KT 10SM CLR 00/M06 A2996 830 63 -700 190/09 RMK AO2
14837KMSN MSN20020122081009401/22/02 08:10:31  5-MIN KMSN 221410Z 19009KT 10SM CLR 00/M06 A2996 830 63 -700 190/09 RMK AO2
14837KMSN MSN20020122081509401/22/02 08:15:31  5-MIN KMSN 221415Z 19010KT 10SM CLR 00/M06 A2996 830 63 -700 190/10 RMK AO2
14837KMSN MSN20020122082009401/22/02 08:20:31  5-MIN KMSN 221420Z 19011KT 10SM CLR 00/M06 A2996 830 63 -700 190/11 RMK AO2
14837KMSN MSN20020122082509401/22/02 08:25:31  5-MIN KMSN 221425Z 19010KT 10SM CLR 00/M06 A2996 830 63 -700 190/10 RMK AO2
14837KMSN MSN20020122083009401/22/02 08:30:31  5-MIN KMSN 221430Z 19009KT 10SM CLR 00/M06 A2996 830 63 -700 190/09 RMK AO2
14837KMSN MSN20020122083509501/22/02 08:35:31  5-MIN KMSN 221435Z 19007KT 10SM CLR M01/M06 A2996 830 66 -800 190/07 RMK AO2
14837KMSN MSN20020122084009501/22/02 08:40:31  5-MIN KMSN 221440Z 19007KT 10SM CLR M01/M06 A2996 830 66 -800 190/07 RMK AO2
14837KMSN MSN20020122084509501/22/02 08:45:31  5-MIN KMSN 221445Z 18007KT 10SM CLR M01/M06 A2996 830 66 -800 180/07 RMK AO2
14837KMSN MSN20020122085011801/22/02 08:50:31  5-MIN KMSN 221450Z 18005KT 10SM CLR M01/M06 A2996 830 66 -800 180/05 RMK AO2 SLP154 T10061061 58001
14837KMSN MSN20020122085509401/22/02 08:55:31  5-MIN KMSN 221455Z 18004KT 9SM CLR M01/M06 A2996 830 69 -800 180/04 RMK AO2
14837KMSN MSN20020122090009501/22/02 09:00:31  5-MIN KMSN 221500Z 18005KT 10SM CLR M01/M06 A2996 830 69 -800 180/05 RMK AO2
14837KMSN MSN20020122090509401/22/02 09:05:31  5-MIN KMSN 221505Z 17006KT 10SM CLR 00/M06 A2995 830 66 -700 170/06 RMK AO2
14837KMSN MSN20020122091009401/22/02 09:10:31  5-MIN KMSN 221510Z 18007KT 10SM CLR 00/M06 A2995 830 66 -700 180/07 RMK AO2
14837KMSN MSN20020122091509401/22/02 09:15:31  5-MIN KMSN 221515Z 18008KT 10SM CLR 00/M06 A2995 830 66 -700 180/08 RMK AO2
14837KMSN MSN20020122092009401/22/02 09:20:31  5-MIN KMSN 221520Z 18008KT 10SM CLR 00/M06 A2995 840 66 -700 180/08 RMK AO2
14837KMSN MSN20020122092509401/22/02 09:25:31  5-MIN KMSN 221525Z 17007KT 10SM CLR 00/M06 A2995 840 66 -700 170/07 RMK AO2
14837KMSN MSN20020122093009401/22/02 09:30:31  5-MIN KMSN 221530Z 18008KT 10SM CLR 00/M06 A2995 840 66 -700 170/08 RMK AO2
14837KMSN MSN20020122093509401/22/02 09:35:31  5-MIN KMSN 221535Z 17008KT 10SM CLR 01/M06 A2994 850 63 -600 170/08 RMK AO2
14837KMSN MSN20020122094009401/22/02 09:40:31  5-MIN KMSN 221540Z 17008KT 10SM CLR 01/M05 A2994 850 66 -600 170/08 RMK AO2
14837KMSN MSN20020122094509401/22/02 09:45:31  5-MIN KMSN 221545Z 17008KT 10SM CLR 01/M06 A2994 850 61 -500 170/08 RMK AO2
14837KMSN MSN20020122095011101/22/02 09:50:31  5-MIN KMSN 221550Z 17009KT 10SM CLR 01/M05 A2994 850 64 -500 170/09 RMK AO2 SLP147 T00111050
14837KMSN MSN20020122095509401/22/02 09:55:31  5-MIN KMSN 221555Z 18009KT 10SM CLR 01/M06 A2994 850 61 -500 170/09 RMK AO2
14837KMSN MSN20020122100009401/22/02 10:00:31  5-MIN KMSN 221600Z 18008KT 10SM CLR 01/M05 A2994 850 64 -500 180/08 RMK AO2
14837KMSN MSN20020122100509401/22/02 10:05:31  5-MIN KMSN 221605Z 18008KT 10SM CLR 02/M05 A2994 850 61 -500 180/08 RMK AO2
14837KMSN MSN20020122101009401/22/02 10:10:31  5-MIN KMSN 221610Z 18008KT 10SM CLR 02/M05 A2993 850 61 -500 180/08 RMK AO2
14837KMSN MSN20020122101509401/22/02 10:15:31  5-MIN KMSN 221615Z 17008KT 10SM CLR 02/M05 A2993 850 59 -400 170/08 RMK AO2
14837KMSN MSN20020122102009401/22/02 10:20:31  5-MIN KMSN 221620Z 17008KT 10SM CLR 02/M05 A2993 850 59 -400 170/08 RMK AO2
14837KMSN MSN20020122102509401/22/02 10:25:31  5-MIN KMSN 221625Z 18007KT 10SM CLR 03/M05 A2993 850 56 -300 180/07 RMK AO2
14837KMSN MSN20020122103009401/22/02 10:30:31  5-MIN KMSN 221630Z 17007KT 10SM CLR 03/M04 A2993 860 59 -300 170/07 RMK AO2
14837KMSN MSN20020122103509401/22/02 10:35:31  5-MIN KMSN 221635Z 17008KT 10SM CLR 03/M04 A2993 850 59 -300 170/08 RMK AO2
14837KMSN MSN20020122104009401/22/02 10:40:31  5-MIN KMSN 221640Z 17009KT 10SM CLR 03/M04 A2993 860 57 -300 170/09 RMK AO2
14837KMSN MSN20020122104509401/22/02 10:45:31  5-MIN KMSN 221645Z 18011KT 10SM CLR 04/M05 A2992 860 52 -200 180/11 RMK AO2
14837KMSN MSN20020122105011101/22/02 10:50:31  5-MIN KMSN 221650Z 18011KT 10SM CLR 04/M05 A2992 870 52 -200 180/11 RMK AO2 SLP139 T00391050
14837KMSN MSN20020122105509401/22/02 10:55:31  5-MIN KMSN 221655Z 19011KT 10SM CLR 04/M06 A2992 870 50 -200 190/11 RMK AO2
14837KMSN MSN20020122110009401/22/02 11:00:31  5-MIN KMSN 221700Z 18012KT 10SM CLR 04/M06 A2991 870 48 -100 180/12 RMK AO2
14837KMSN MSN20020122110510001/22/02 11:05:31  5-MIN KMSN 221705Z 18012G18KT 10SM CLR 04/M06 A2991 880 48 -100 180/12G18 RMK AO2
14837KMSN MSN20020122111010001/22/02 11:10:31  5-MIN KMSN 221710Z 18011G18KT 10SM CLR 04/M05 A2990 880 50 -100 180/11G18 RMK AO2
14837KMSN MSN20020122111509401/22/02 11:15:31  5-MIN KMSN 221715Z 19015KT 10SM CLR 04/M05 A2990 880 50 -100 190/15 RMK AO2
14837KMSN MSN20020122112009401/22/02 11:20:31  5-MIN KMSN 221720Z 19014KT 10SM CLR 04/M06 A2990 880 48 -100 190/14 RMK AO2
14837KMSN MSN20020122112509401/22/02 11:25:31  5-MIN KMSN 221725Z 19012KT 10SM CLR 04/M05 A2990 890 50 -100 190/12 RMK AO2
14837KMSN MSN20020122113009401/22/02 11:30:31  5-MIN KMSN 221730Z 18013KT 10SM CLR 04/M05 A2989 890 50 -100 180/13 RMK AO2
14837KMSN MSN20020122113509401/22/02 11:35:31  5-MIN KMSN 221735Z 18011KT 10SM CLR 04/M05 A2988 900 50 -100 180/11 RMK AO2
14837KMSN MSN20020122114009101/22/02 11:40:31  5-MIN KMSN 221740Z 18011KT 10SM CLR 05/M04 A2988 900 50 0 180/11 RMK AO2
14837KMSN MSN20020122114509101/22/02 11:45:31  5-MIN KMSN 221745Z 18010KT 10SM CLR 05/M04 A2988 900 50 0 180/10 RMK AO2
14837KMSN MSN20020122115012601/22/02 11:50:31  5-MIN KMSN 221750Z 18012KT 10SM CLR 05/M04 A2987 910 50 0 180/12 RMK AO2 SLP125 T00501044 10050 21017 50006
14837KMSN MSN20020122115509101/22/02 11:55:31  5-MIN KMSN 221755Z 18011KT 10SM CLR 05/M04 A2987 910 50 0 180/11 RMK AO2
14837KMSN MSN20020122120009101/22/02 12:00:31  5-MIN KMSN 221800Z 18012KT 10SM CLR 05/M04 A2987 910 52 0 180/12 RMK AO2
14837KMSN MSN20020122120509101/22/02 12:05:31  5-MIN KMSN 221805Z 18013KT 10SM CLR 06/M04 A2986 920 50 0 180/13 RMK AO2
14837KMSN MSN20020122121009101/22/02 12:10:31  5-MIN KMSN 221810Z 18013KT 10SM CLR 06/M04 A2986 920 48 0 180/13 RMK AO2
14837KMSN MSN20020122121509101/22/02 12:15:31  5-MIN KMSN 221815Z 18011KT 10SM CLR 06/M04 A2986 920 50 0 180/11 RMK AO2
14837KMSN MSN20020122122009301/22/02 12:20:31  5-MIN KMSN 221820Z 18012KT 10SM CLR 06/M03 A2985 930 53 100 170/12 RMK AO2
14837KMSN MSN20020122122509301/22/02 12:25:31  5-MIN KMSN 221825Z 18013KT 10SM CLR 06/M03 A2985 930 53 100 180/13 RMK AO2
14837KMSN MSN20020122123009301/22/02 12:30:31  5-MIN KMSN 221830Z 18011KT 10SM CLR 06/M04 A2984 940 50 100 180/11 RMK AO2
14837KMSN MSN20020122123509301/22/02 12:35:31  5-MIN KMSN 221835Z 18013KT 10SM CLR 06/M04 A2984 940 48 100 180/13 RMK AO2
14837KMSN MSN20020122124009901/22/02 12:40:31  5-MIN KMSN 221840Z 18015G20KT 10SM CLR 06/M04 A2984 940 48 100 180/15G20 RMK AO2
14837KMSN MSN20020122124509901/22/02 12:45:31  5-MIN KMSN 221845Z 18013G20KT 10SM CLR 06/M04 A2984 940 48 100 180/13G20 RMK AO2
14837KMSN MSN20020122125011001/22/02 12:50:31  5-MIN KMSN 221850Z 18011KT 10SM CLR 06/M04 A2983 950 48 100 180/11 RMK AO2 SLP110 T00611039
14837KMSN MSN20020122125509301/22/02 12:55:31  5-MIN KMSN 221855Z 18012KT 10SM CLR 07/M04 A2982 950 47 200 180/12 RMK AO2
14837KMSN MSN20020122130009301/22/02 13:00:31  5-MIN KMSN 221900Z 18012KT 10SM CLR 07/M04 A2982 960 47 200 180/12 RMK AO2
14837KMSN MSN20020122130509301/22/02 13:05:31  5-MIN KMSN 221905Z 18013KT 10SM CLR 07/M04 A2981 960 47 200 180/13 RMK AO2
14837KMSN MSN20020122131009301/22/02 13:10:31  5-MIN KMSN 221910Z 18014KT 10SM CLR 07/M04 A2981 970 45 300 180/14 RMK AO2
14837KMSN MSN20020122131509301/22/02 13:15:31  5-MIN KMSN 221915Z 19013KT 10SM CLR 07/M04 A2981 970 47 200 190/13 RMK AO2
14837KMSN MSN20020122132009301/22/02 13:20:31  5-MIN KMSN 221920Z 19012KT 10SM CLR 07/M04 A2980 970 45 300 180/12 RMK AO2
14837KMSN MSN20020122132509901/22/02 13:25:31  5-MIN KMSN 221925Z 18014G18KT 10SM CLR 07/M04 A2980 980 45 300 180/14G18 RMK AO2
14837KMSN MSN20020122133009301/22/02 13:30:31  5-MIN KMSN 221930Z 19014KT 10SM CLR 07/M04 A2980 980 45 300 180/14 RMK AO2
14837KMSN MSN20020122133509301/22/02 13:35:31  5-MIN KMSN 221935Z 19013KT 10SM CLR 07/M04 A2980 980 45 300 180/13 RMK AO2
14837KMSN MSN20020122134009301/22/02 13:40:31  5-MIN KMSN 221940Z 18013KT 10SM CLR 07/M04 A2979 980 45 300 180/13 RMK AO2
14837KMSN MSN20020122134509301/22/02 13:45:31  5-MIN KMSN 221945Z 18014KT 10SM CLR 07/M04 A2979 990 45 300 180/14 RMK AO2
14837KMSN MSN20020122135011001/22/02 13:50:31  5-MIN KMSN 221950Z 18010KT 10SM CLR 07/M04 A2978 990 45 300 180/10 RMK AO2 SLP094 T00721039
14837KMSN MSN20020122135509301/22/02 13:55:31  5-MIN KMSN 221955Z 17011KT 10SM CLR 07/M03 A2978 990 47 300 170/11 RMK AO2
14837KMSN MSN20020122140009401/22/02 14:00:31  5-MIN KMSN 222000Z 18012KT 10SM CLR 07/M03 A2978 1000 49 300 170/12 RMK AO2
14837KMSN MSN20020122140509401/22/02 14:05:31  5-MIN KMSN 222005Z 18013KT 10SM CLR 07/M03 A2978 1000 47 300 180/13 RMK AO2
14837KMSN MSN20020122141009401/22/02 14:10:31  5-MIN KMSN 222010Z 18014KT 10SM CLR 07/M03 A2977 1000 47 300 180/14 RMK AO2
14837KMSN MSN20020122141509401/22/02 14:15:31  5-MIN KMSN 222015Z 17013KT 10SM CLR 08/M03 A2977 1010 45 400 170/13 RMK AO2
14837KMSN MSN20020122142009401/22/02 14:20:31  5-MIN KMSN 222020Z 17014KT 10SM CLR 08/M03 A2976 1010 45 400 170/14 RMK AO2
14837KMSN MSN20020122142509401/22/02 14:25:31  5-MIN KMSN 222025Z 18013KT 10SM CLR 08/M03 A2976 1010 47 400 180/13 RMK AO2
14837KMSN MSN20020122143010001/22/02 14:30:31  5-MIN KMSN 222030Z 18014G18KT 10SM CLR 08/M03 A2976 1020 47 400 180/14G18 RMK AO2
14837KMSN MSN20020122143509401/22/02 14:35:31  5-MIN KMSN 222035Z 17013KT 10SM CLR 08/M03 A2975 1020 45 500 170/13 RMK AO2
14837KMSN MSN20020122144009401/22/02 14:40:31  5-MIN KMSN 222040Z 17013KT 10SM CLR 08/M03 A2975 1020 43 500 170/13 RMK AO2
14837KMSN MSN20020122144509401/22/02 14:45:31  5-MIN KMSN 222045Z 17012KT 10SM CLR 08/M03 A2975 1020 45 500 170/12 RMK AO2
14837KMSN MSN20020122145011701/22/02 14:50:31  5-MIN KMSN 222050Z 17015KT 10SM CLR 08/M03 A2974 1030 45 500 170/15 RMK AO2 SLP079 T00831028 58028
14837KMSN MSN20020122145509401/22/02 14:55:31  5-MIN KMSN 222055Z 17015KT 10SM CLR 08/M03 A2974 1030 47 400 170/15 RMK AO2
14837KMSN MSN20020122150009401/22/02 15:00:31  5-MIN KMSN 222100Z 17016KT 10SM CLR 08/M03 A2974 1030 45 500 170/16 RMK AO2
14837KMSN MSN20020122150509401/22/02 15:05:31  5-MIN KMSN 222105Z 17014KT 10SM CLR 08/M03 A2974 1030 45 500 170/14 RMK AO2
14837KMSN MSN20020122151009401/22/02 15:10:31  5-MIN KMSN 222110Z 17017KT 10SM CLR 08/M03 A2974 1040 43 500 170/17 RMK AO2
14837KMSN MSN20020122151510001/22/02 15:15:31  5-MIN KMSN 222115Z 17015G21KT 10SM CLR 08/M03 A2973 1040 45 500 170/15G21 RMK AO2
14837KMSN MSN20020122152010001/22/02 15:20:31  5-MIN KMSN 222120Z 18013G21KT 10SM CLR 08/M03 A2973 1040 43 500 170/13G21 RMK AO2
14837KMSN MSN20020122152510001/22/02 15:25:31  5-MIN KMSN 222125Z 17013G21KT 10SM CLR 08/M03 A2973 1040 43 500 170/13G21 RMK AO2
14837KMSN MSN20020122153009401/22/02 15:30:31  5-MIN KMSN 222130Z 17013KT 10SM CLR 08/M03 A2973 1040 45 500 170/13 RMK AO2
14837KMSN MSN20020122153509401/22/02 15:35:31  5-MIN KMSN 222135Z 17014KT 10SM CLR 08/M03 A2973 1050 47 500 170/14 RMK AO2
14837KMSN MSN20020122154009401/22/02 15:40:31  5-MIN KMSN 222140Z 17014KT 10SM CLR 08/M02 A2973 1040 49 500 170/14 RMK AO2
14837KMSN MSN20020122154510001/22/02 15:45:31  5-MIN KMSN 222145Z 17014G20KT 10SM CLR 08/M02 A2972 1050 49 500 170/14G20 RMK AO2
14837KMSN MSN20020122155011701/22/02 15:50:31  5-MIN KMSN 222150Z 17013G20KT 10SM CLR 08/M02 A2972 1050 49 500 170/13G20 RMK AO2 SLP072 T00781022
14837KMSN MSN20020122155509401/22/02 15:55:31  5-MIN KMSN 222155Z 17013KT 10SM CLR 07/M02 A2972 1050 53 400 170/13 RMK AO2
14837KMSN MSN20020122160009401/22/02 16:00:31  5-MIN KMSN 222200Z 16013KT 10SM CLR 07/M02 A2971 1060 51 400 160/13 RMK AO2
14837KMSN MSN20020122160509401/22/02 16:05:31  5-MIN KMSN 222205Z 16013KT 10SM CLR 07/M02 A2971 1060 51 400 160/13 RMK AO2
14837KMSN MSN20020122161009401/22/02 16:10:31  5-MIN KMSN 222210Z 17013KT 10SM CLR 07/M02 A2970 1060 51 400 170/13 RMK AO2
14837KMSN MSN20020122161510001/22/02 16:15:31  5-MIN KMSN 222215Z 17014G20KT 10SM CLR 08/M02 A2970 1070 49 500 170/14G20 RMK AO2
14837KMSN MSN20020122162010001/22/02 16:20:31  5-MIN KMSN 222220Z 17015G20KT 10SM CLR 08/M03 A2970 1070 47 500 160/15G20 RMK AO2
14837KMSN MSN20020122162509401/22/02 16:25:31  5-MIN KMSN 222225Z 17015KT 10SM CLR 07/M02 A2969 1080 51 400 170/15 RMK AO2
14837KMSN MSN20020122163009401/22/02 16:30:31  5-MIN KMSN 222230Z 17015KT 10SM CLR 07/M02 A2969 1080 51 400 170/15 RMK AO2
14837KMSN MSN20020122163509401/22/02 16:35:31  5-MIN KMSN 222235Z 16016KT 10SM CLR 07/M02 A2968 1090 51 400 160/16 RMK AO2
14837KMSN MSN20020122164009401/22/02 16:40:31  5-MIN KMSN 222240Z 17017KT 10SM CLR 07/M03 A2968 1090 49 500 160/17 RMK AO2
14837KMSN MSN20020122164509401/22/02 16:45:31  5-MIN KMSN 222245Z 17016KT 10SM CLR 07/M02 A2968 1090 51 500 170/16 RMK AO2
14837KMSN MSN20020122165011701/22/02 16:50:31  5-MIN KMSN 222250Z 17013G21KT 10SM CLR 07/M03 A2968 1090 51 400 170/13G21 RMK AO2 SLP056 T00671028
14837KMSN MSN20020122165509401/22/02 16:55:31  5-MIN KMSN 222255Z 17015KT 10SM CLR 07/M03 A2968 1090 51 400 170/15 RMK AO2
14837KMSN MSN20020122170010001/22/02 17:00:31  5-MIN KMSN 222300Z 17014G20KT 10SM CLR 07/M03 A2967 1100 51 400 170/14G20 RMK AO2
14837KMSN MSN20020122170509401/22/02 17:05:31  5-MIN KMSN 222305Z 17014KT 10SM CLR 07/M03 A2968 1090 51 400 170/14 RMK AO2
14837KMSN MSN20020122171009401/22/02 17:10:31  5-MIN KMSN 222310Z 18013KT 10SM CLR 07/M03 A2968 1090 51 400 180/13 RMK AO2
14837KMSN MSN20020122171509401/22/02 17:15:31  5-MIN KMSN 222315Z 18011KT 10SM CLR 07/M03 A2968 1090 49 500 180/11 RMK AO2
14837KMSN MSN20020122172009401/22/02 17:20:31  5-MIN KMSN 222320Z 18012KT 10SM CLR 07/M03 A2968 1090 49 500 180/12 RMK AO2
14837KMSN MSN20020122172509401/22/02 17:25:31  5-MIN KMSN 222325Z 17013KT 10SM CLR 07/M03 A2968 1090 51 400 170/13 RMK AO2
14837KMSN MSN20020122173009401/22/02 17:30:31  5-MIN KMSN 222330Z 17012KT 10SM CLR 07/M03 A2968 1090 51 400 170/12 RMK AO2
14837KMSN MSN20020122173509401/22/02 17:35:31  5-MIN KMSN 222335Z 17013KT 10SM CLR 07/M03 A2967 1090 51 400 170/13 RMK AO2
14837KMSN MSN20020122174010001/22/02 17:40:31  5-MIN KMSN 222340Z 17013G19KT 10SM CLR 07/M03 A2967 1090 51 400 170/13G19 RMK AO2
14837KMSN MSN20020122174510001/22/02 17:45:31  5-MIN KMSN 222345Z 18012G19KT 10SM CLR 07/M03 A2967 1100 51 400 170/12G19 RMK AO2
14837KMSN MSN20020122175013501/22/02 17:50:31  5-MIN KMSN 222350Z 18011KT 10SM CLR 07/M03 A2967 1090 51 400 180/11 RMK AO2 SLP055 4/001 T00671028 10083 20050 56042
14837KMSN MSN20020122175509401/22/02 17:55:31  5-MIN KMSN 222355Z 18012KT 10SM CLR 07/M03 A2967 1090 51 400 180/12 RMK AO2
14837KMSN MSN20020122180009401/22/02 18:00:31  5-MIN KMSN 230000Z 17011KT 10SM CLR 07/M03 A2967 1090 51 400 170/11 RMK AO2
14837KMSN MSN20020122180509401/22/02 18:05:31  5-MIN KMSN 230005Z 18013KT 10SM CLR 06/M03 A2967 1090 53 300 170/13 RMK AO2
14837KMSN MSN20020122181009401/22/02 18:10:31  5-MIN KMSN 230010Z 18014KT 10SM CLR 06/M03 A2967 1100 51 300 180/14 RMK AO2
14837KMSN MSN20020122181509401/22/02 18:15:31  5-MIN KMSN 230015Z 18016KT 10SM CLR 06/M03 A2967 1100 53 300 180/16 RMK AO2
14837KMSN MSN20020122182009401/22/02 18:20:31  5-MIN KMSN 230020Z 18015KT 10SM CLR 07/M03 A2967 1090 49 400 170/15 RMK AO2
14837KMSN MSN20020122182510001/22/02 18:25:31  5-MIN KMSN 230025Z 18016G25KT 10SM CLR 07/M04 A2967 1100 47 400 180/16G25 RMK AO2
14837KMSN MSN20020122183010001/22/02 18:30:31  5-MIN KMSN 230030Z 18017G25KT 10SM CLR 07/M04 A2967 1100 47 400 180/17G25 RMK AO2
14837KMSN MSN20020122183510001/22/02 18:35:31  5-MIN KMSN 230035Z 18015G22KT 10SM CLR 07/M03 A2968 1090 49 400 180/15G22 RMK AO2
14837KMSN MSN20020122184010001/22/02 18:40:31  5-MIN KMSN 230040Z 18017G22KT 10SM CLR 07/M04 A2968 1090 47 400 180/17G22 RMK AO2
14837KMSN MSN20020122184510001/22/02 18:45:31  5-MIN KMSN 230045Z 18016G22KT 10SM CLR 07/M04 A2968 1090 47 400 180/16G22 RMK AO2
14837KMSN MSN20020122185011101/22/02 18:50:31  5-MIN KMSN 230050Z 18015KT 10SM CLR 06/M04 A2968 1090 48 300 180/15 RMK AO2 SLP058 T00611039
14837KMSN MSN20020122185509401/22/02 18:55:31  5-MIN KMSN 230055Z 18013KT 10SM CLR 06/M03 A2969 1080 51 300 180/13 RMK AO2
14837KMSN MSN20020122190009401/22/02 19:00:31  5-MIN KMSN 230100Z 18014KT 10SM CLR 06/M03 A2969 1080 51 300 180/14 RMK AO2
14837KMSN MSN20020122190509401/22/02 19:05:31  5-MIN KMSN 230105Z 19013KT 10SM CLR 06/M03 A2969 1080 51 300 180/13 RMK AO2
14837KMSN MSN20020122191009401/22/02 19:10:31  5-MIN KMSN 230110Z 19011KT 10SM CLR 06/M03 A2969 1070 51 300 180/11 RMK AO2
14837KMSN MSN20020122191509401/22/02 19:15:31  5-MIN KMSN 230115Z 18011KT 10SM CLR 06/M03 A2970 1070 53 200 180/11 RMK AO2
14837KMSN MSN20020122192009401/22/02 19:20:31  5-MIN KMSN 230120Z 19010KT 10SM CLR 06/M03 A2969 1080 53 200 180/10 RMK AO2
14837KMSN MSN20020122192509401/22/02 19:25:31  5-MIN KMSN 230125Z 18013KT 10SM CLR 06/M03 A2969 1080 53 200 180/13 RMK AO2
14837KMSN MSN20020122193009401/22/02 19:30:31  5-MIN KMSN 230130Z 19010KT 10SM CLR 06/M03 A2970 1070 53 200 190/10 RMK AO2
14837KMSN MSN20020122193509401/22/02 19:35:31  5-MIN KMSN 230135Z 19012KT 10SM CLR 06/M03 A2970 1070 53 200 190/12 RMK AO2
14837KMSN MSN20020122194010001/22/02 19:40:31  5-MIN KMSN 230140Z 19015G19KT 10SM CLR 06/M03 A2969 1070 53 200 190/15G19 RMK AO2
14837KMSN MSN20020122194510001/22/02 19:45:31  5-MIN KMSN 230145Z 19014G19KT 10SM CLR 06/M04 A2969 1070 48 300 190/14G19 RMK AO2
14837KMSN MSN20020122195011101/22/02 19:50:31  5-MIN KMSN 230150Z 19013KT 10SM CLR 06/M04 A2970 1070 50 200 190/13 RMK AO2 SLP063 T00561039
14837KMSN MSN20020122195509401/22/02 19:55:31  5-MIN KMSN 230155Z 19012KT 10SM CLR 06/M03 A2970 1070 53 200 190/12 RMK AO2
14837KMSN MSN20020122200009401/22/02 20:00:31  5-MIN KMSN 230200Z 20012KT 10SM CLR 06/M03 A2970 1070 53 200 200/12 RMK AO2
14837KMSN MSN20020122200509401/22/02 20:05:31  5-MIN KMSN 230205Z 19014KT 10SM CLR 06/M03 A2970 1070 53 200 190/14 RMK AO2
14837KMSN MSN20020122201009401/22/02 20:10:31  5-MIN KMSN 230210Z 19013KT 10SM CLR 06/M03 A2970 1070 53 200 190/13 RMK AO2
14837KMSN MSN20020122201509401/22/02 20:15:31  5-MIN KMSN 230215Z 19014KT 10SM CLR 06/M03 A2969 1080 53 200 190/14 RMK AO2
14837KMSN MSN20020122202009401/22/02 20:20:31  5-MIN KMSN 230220Z 19015KT 10SM CLR 06/M03 A2969 1080 53 200 190/15 RMK AO2
14837KMSN MSN20020122202509401/22/02 20:25:31  5-MIN KMSN 230225Z 19016KT 10SM CLR 06/M03 A2969 1080 53 200 190/16 RMK AO2
14837KMSN MSN20020122203010001/22/02 20:30:31  5-MIN KMSN 230230Z 19012G19KT 10SM CLR 06/M03 A2969 1080 53 200 190/12G19 RMK AO2
14837KMSN MSN20020122203509401/22/02 20:35:31  5-MIN KMSN 230235Z 19012KT 10SM CLR 06/M03 A2969 1080 53 200 190/12 RMK AO2
14837KMSN MSN20020122204009401/22/02 20:40:31  5-MIN KMSN 230240Z 19012KT 10SM CLR 05/M03 A2969 1080 57 200 190/12 RMK AO2
14837KMSN MSN20020122204509401/22/02 20:45:31  5-MIN KMSN 230245Z 19012KT 10SM CLR 05/M03 A2969 1080 57 200 190/12 RMK AO2
14837KMSN MSN20020122205012301/22/02 20:50:31  5-MIN KMSN 230250Z 19012G18KT 10SM CLR 05/M03 A2969 1080 57 200 190/12G18 RMK AO2 SLP062 T00501028 56023
14837KMSN MSN20020122205509401/22/02 20:55:31  5-MIN KMSN 230255Z 19011KT 10SM CLR 05/M03 A2969 1080 57 200 180/11 RMK AO2
14837KMSN MSN20020122210009401/22/02 21:00:31  5-MIN KMSN 230300Z 19011KT 10SM CLR 05/M03 A2969 1080 57 200 180/11 RMK AO2
14837KMSN MSN20020122210509401/22/02 21:05:31  5-MIN KMSN 230305Z 19012KT 10SM CLR 05/M03 A2969 1080 57 200 180/12 RMK AO2
14837KMSN MSN20020122211009401/22/02 21:10:31  5-MIN KMSN 230310Z 18012KT 10SM CLR 05/M03 A2969 1080 57 200 180/12 RMK AO2
14837KMSN MSN20020122211509401/22/02 21:15:31  5-MIN KMSN 230315Z 19012KT 10SM CLR 05/M03 A2969 1080 57 200 180/12 RMK AO2
14837KMSN MSN20020122212009401/22/02 21:20:31  5-MIN KMSN 230320Z 19011KT 10SM CLR 04/M03 A2969 1080 59 100 180/11 RMK AO2
14837KMSN MSN20020122212509401/22/02 21:25:31  5-MIN KMSN 230325Z 19011KT 10SM CLR 04/M03 A2969 1080 59 100 180/11 RMK AO2
14837KMSN MSN20020122213009401/22/02 21:30:31  5-MIN KMSN 230330Z 18012KT 10SM CLR 04/M03 A2969 1080 59 100 180/12 RMK AO2
14837KMSN MSN20020122213509401/22/02 21:35:31  5-MIN KMSN 230335Z 19011KT 10SM CLR 04/M03 A2968 1080 59 100 180/11 RMK AO2
14837KMSN MSN20020122214009401/22/02 21:40:31  5-MIN KMSN 230340Z 19012KT 10SM CLR 04/M03 A2969 1080 59 100 190/12 RMK AO2
14837KMSN MSN20020122214509401/22/02 21:45:31  5-MIN KMSN 230345Z 18012KT 10SM CLR 04/M03 A2968 1080 59 100 180/12 RMK AO2
14837KMSN MSN20020122215011101/22/02 21:50:31  5-MIN KMSN 230350Z 19011KT 10SM CLR 04/M03 A2968 1080 59 100 180/11 RMK AO2 SLP058 T00441028
14837KMSN MSN20020122215509401/22/02 21:55:31  5-MIN KMSN 230355Z 19011KT 10SM CLR 04/M03 A2968 1090 59 100 190/11 RMK AO2
14837KMSN MSN20020122220009401/22/02 22:00:31  5-MIN KMSN 230400Z 19012KT 10SM CLR 04/M03 A2968 1090 59 100 190/12 RMK AO2
14837KMSN MSN20020122220509401/22/02 22:05:31  5-MIN KMSN 230405Z 19011KT 10SM CLR 04/M03 A2968 1090 59 100 190/11 RMK AO2
14837KMSN MSN20020122221009401/22/02 22:10:31  5-MIN KMSN 230410Z 19012KT 10SM CLR 04/M03 A2968 1090 59 100 190/12 RMK AO2
14837KMSN MSN20020122221510001/22/02 22:15:31  5-MIN KMSN 230415Z 19011G17KT 10SM CLR 04/M02 A2967 1090 62 100 190/11G17 RMK AO2
14837KMSN MSN20020122222009401/22/02 22:20:31  5-MIN KMSN 230420Z 19011KT 10SM CLR 04/M03 A2967 1090 59 100 190/11 RMK AO2
14837KMSN MSN20020122222509401/22/02 22:25:31  5-MIN KMSN 230425Z 19012KT 10SM CLR 04/M03 A2967 1090 59 100 190/12 RMK AO2
14837KMSN MSN20020122223009401/22/02 22:30:31  5-MIN KMSN 230430Z 19009KT 10SM CLR 04/M03 A2967 1090 59 100 190/09 RMK AO2
14837KMSN MSN20020122223509401/22/02 22:35:31  5-MIN KMSN 230435Z 19011KT 10SM CLR 04/M03 A2968 1090 59 100 190/11 RMK AO2
14837KMSN MSN20020122224009401/22/02 22:40:31  5-MIN KMSN 230440Z 19011KT 10SM CLR 04/M02 A2968 1090 62 100 190/11 RMK AO2
14837KMSN MSN20020122224509401/22/02 22:45:31  5-MIN KMSN 230445Z 19011KT 10SM CLR 04/M03 A2967 1090 59 100 190/11 RMK AO2
14837KMSN MSN20020122225011101/22/02 22:50:31  5-MIN KMSN 230450Z 19012KT 10SM CLR 04/M02 A2967 1090 62 100 190/12 RMK AO2 SLP054 T00441022
14837KMSN MSN20020122225509401/22/02 22:55:31  5-MIN KMSN 230455Z 19010KT 10SM CLR 04/M03 A2967 1090 59 100 190/10 RMK AO2
14837KMSN MSN20020122230009401/22/02 23:00:31  5-MIN KMSN 230500Z 19012KT 10SM CLR 04/M02 A2967 1090 62 100 190/12 RMK AO2
14837KMSN MSN20020122230510001/22/02 23:05:31  5-MIN KMSN 230505Z 19010G17KT 10SM CLR 04/M02 A2967 1090 62 100 190/10G17 RMK AO2
14837KMSN MSN20020122231009401/22/02 23:10:31  5-MIN KMSN 230510Z 19010KT 10SM CLR 04/M03 A2968 1090 59 100 190/10 RMK AO2
14837KMSN MSN20020122231509401/22/02 23:15:31  5-MIN KMSN 230515Z 20010KT 10SM CLR 04/M02 A2967 1090 64 100 190/10 RMK AO2
14837KMSN MSN20020122232009401/22/02 23:20:31  5-MIN KMSN 230520Z 20009KT 10SM CLR 04/M02 A2968 1090 62 100 200/09 RMK AO2
14837KMSN MSN20020122232509401/22/02 23:25:31  5-MIN KMSN 230525Z 20009KT 10SM CLR 04/M02 A2967 1090 64 100 200/09 RMK AO2
14837KMSN MSN20020122233009401/22/02 23:30:31  5-MIN KMSN 230530Z 20009KT 10SM CLR 04/M02 A2967 1090 64 100 190/09 RMK AO2
14837KMSN MSN20020122233509401/22/02 23:35:31  5-MIN KMSN 230535Z 20008KT 10SM CLR 04/M02 A2967 1090 64 100 200/08 RMK AO2
14837KMSN MSN20020122234009401/22/02 23:40:31  5-MIN KMSN 230540Z 20009KT 10SM CLR 04/M02 A2967 1090 64 100 200/09 RMK AO2
14837KMSN MSN20020122234509401/22/02 23:45:31  5-MIN KMSN 230545Z 20008KT 10SM CLR 04/M02 A2968 1090 64 100 200/08 RMK AO2
14837KMSN MSN20020122235013901/22/02 23:50:31  5-MIN KMSN 230550Z 20008KT 10SM CLR 04/M02 A2967 1090 64 100 200/08 RMK AO2 SLP054 T00391022 10067 20039 400831050 50006
14837KMSN MSN20020122235509401/22/02 23:55:31  5-MIN KMSN 230555Z 19008KT 10SM CLR 04/M02 A2967 1100 64 100 190/08 RMK AO2
14837KMSN MSN20020123000009401/23/02 00:00:31  5-MIN KMSN 230600Z 20008KT 10SM CLR 04/M02 A2967 1100 64 100 200/08 RMK AO2
14837KMSN MSN20020123000509401/23/02 00:05:31  5-MIN KMSN 230605Z 20006KT 10SM CLR 04/M02 A2967 1100 64 100 200/06 RMK AO2
14837KMSN MSN20020123001009401/23/02 00:10:31  5-MIN KMSN 230610Z 20008KT 10SM CLR 04/M02 A2967 1100 64 100 200/08 RMK AO2
14837KMSN MSN20020123001509401/23/02 00:15:31  5-MIN KMSN 230615Z 20006KT 10SM CLR 04/M02 A2967 1100 64 100 200/06 RMK AO2
14837KMSN MSN20020123002009401/23/02 00:20:31  5-MIN KMSN 230620Z 20006KT 10SM CLR 04/M02 A2967 1100 64 100 200/06 RMK AO2
14837KMSN MSN20020123002509401/23/02 00:25:31  5-MIN KMSN 230625Z 21006KT 10SM CLR 04/M02 A2966 1100 64 100 210/06 RMK AO2
14837KMSN MSN20020123003009401/23/02 00:30:31  5-MIN KMSN 230630Z 21006KT 10SM CLR 04/M02 A2966 1100 64 100 210/06 RMK AO2
14837KMSN MSN20020123003509401/23/02 00:35:31  5-MIN KMSN 230635Z 22006KT 10SM CLR 04/M02 A2966 1100 64 100 210/06 RMK AO2
14837KMSN MSN20020123004009401/23/02 00:40:31  5-MIN KMSN 230640Z 20006KT 10SM CLR 04/M02 A2966 1100 64 100 200/06 RMK AO2
14837KMSN MSN20020123004509401/23/02 00:45:31  5-MIN KMSN 230645Z 21007KT 10SM CLR 04/M02 A2966 1100 64 100 200/07 RMK AO2
14837KMSN MSN20020123005011101/23/02 00:50:31  5-MIN KMSN 230650Z 21008KT 10SM CLR 04/M02 A2967 1100 64 100 210/08 RMK AO2 SLP051 T00391022
14837KMSN MSN20020123005509401/23/02 00:55:31  5-MIN KMSN 230655Z 21008KT 10SM CLR 04/M02 A2966 1100 64 100 210/08 RMK AO2
14837KMSN MSN20020123010009401/23/02 01:00:31  5-MIN KMSN 230700Z 20008KT 10SM CLR 04/M02 A2966 1100 64 100 200/08 RMK AO2
14837KMSN MSN20020123010509401/23/02 01:05:31  5-MIN KMSN 230705Z 20008KT 10SM CLR 04/M02 A2966 1100 64 100 200/08 RMK AO2
14837KMSN MSN20020123011009401/23/02 01:10:31  5-MIN KMSN 230710Z 20006KT 10SM CLR 04/M02 A2966 1110 64 100 200/06 RMK AO2
14837KMSN MSN20020123011509201/23/02 01:15:31  5-MIN KMSN 230715Z VRB05KT 10SM CLR 03/M02 A2966 1100 67 0 VRB/05 RMK AO2
14837KMSN MSN20020123012009401/23/02 01:20:31  5-MIN KMSN 230720Z VRB04KT 10SM CLR 04/M02 A2966 1100 64 100 VRB/04 RMK AO2
14837KMSN MSN20020123012509401/23/02 01:25:31  5-MIN KMSN 230725Z VRB04KT 10SM CLR 04/M02 A2967 1100 64 100 VRB/04 RMK AO2
14837KMSN MSN20020123013009401/23/02 01:30:31  5-MIN KMSN 230730Z 22005KT 10SM CLR 04/M02 A2967 1100 64 100 220/05 RMK AO2
14837KMSN MSN20020123013509401/23/02 01:35:31  5-MIN KMSN 230735Z 21006KT 10SM CLR 04/M02 A2967 1100 67 100 210/06 RMK AO2
14837KMSN MSN20020123014009401/23/02 01:40:31  5-MIN KMSN 230740Z VRB05KT 10SM CLR 04/M02 A2967 1090 64 100 VRB/05 RMK AO2
14837KMSN MSN20020123014509201/23/02 01:45:31  5-MIN KMSN 230745Z 20005KT 10SM CLR 03/M02 A2967 1100 67 0 200/05 RMK AO2
14837KMSN MSN20020123015010901/23/02 01:50:31  5-MIN KMSN 230750Z 21006KT 10SM CLR 03/M02 A2967 1100 70 0 200/06 RMK AO2 SLP052 T00331017
14837KMSN MSN20020123015509201/23/02 01:55:31  5-MIN KMSN 230755Z 20006KT 10SM CLR 03/M02 A2967 1100 70 0 200/06 RMK AO2
14837KMSN MSN20020123020009201/23/02 02:00:31  5-MIN KMSN 230800Z 20007KT 10SM CLR 03/M02 A2966 1100 70 0 200/07 RMK AO2
14837KMSN MSN20020123020509201/23/02 02:05:31  5-MIN KMSN 230805Z 20006KT 10SM CLR 03/M02 A2967 1100 70 0 200/06 RMK AO2
14837KMSN MSN20020123021009201/23/02 02:10:31  5-MIN KMSN 230810Z 20006KT 10SM CLR 03/M02 A2967 1100 70 0 200/06 RMK AO2
14837KMSN MSN20020123021509201/23/02 02:15:31  5-MIN KMSN 230815Z 20007KT 10SM CLR 03/M02 A2967 1100 70 0 200/07 RMK AO2
14837KMSN MSN20020123022009201/23/02 02:20:31  5-MIN KMSN 230820Z 21007KT 10SM CLR 03/M02 A2967 1100 70 0 210/07 RMK AO2
14837KMSN MSN20020123022509201/23/02 02:25:31  5-MIN KMSN 230825Z 21007KT 10SM CLR 03/M02 A2967 1100 70 0 210/07 RMK AO2
14837KMSN MSN20020123023009201/23/02 02:30:31  5-MIN KMSN 230830Z 20006KT 10SM CLR 03/M02 A2967 1100 72 0 200/06 RMK AO2
14837KMSN MSN20020123023509201/23/02 02:35:31  5-MIN KMSN 230835Z 21005KT 10SM CLR 03/M02 A2967 1100 72 0 200/05 RMK AO2
14837KMSN MSN20020123024009201/23/02 02:40:31  5-MIN KMSN 230840Z 20005KT 10SM CLR 03/M02 A2967 1100 72 0 200/05 RMK AO2
14837KMSN MSN20020123024509201/23/02 02:45:31  5-MIN KMSN 230845Z 20005KT 10SM CLR 03/M03 A2966 1100 64 0 200/05 RMK AO2
14837KMSN MSN20020123025011501/23/02 02:50:31  5-MIN KMSN 230850Z 21005KT 10SM CLR 03/M02 A2967 1100 69 0 210/05 RMK AO2 SLP052 T00281022 56007
14837KMSN MSN20020123025509201/23/02 02:55:31  5-MIN KMSN 230855Z 21005KT 10SM CLR 03/M02 A2967 1100 72 0 210/05 RMK AO2
14837KMSN MSN20020123030009201/23/02 03:00:31  5-MIN KMSN 230900Z 21006KT 10SM CLR 03/M02 A2967 1090 72 0 210/06 RMK AO2
14837KMSN MSN20020123030509501/23/02 03:05:31  5-MIN KMSN 230905Z 20006KT 10SM CLR 02/M01 A2967 1100 78 -100 190/06 RMK AO2
14837KMSN MSN20020123031009501/23/02 03:10:31  5-MIN KMSN 230910Z 20006KT 10SM CLR 02/M02 A2967 1090 75 -100 200/06 RMK AO2
14837KMSN MSN20020123031509501/23/02 03:15:31  5-MIN KMSN 230915Z 20005KT 10SM CLR 02/M01 A2968 1090 78 -100 200/05 RMK AO2
14837KMSN MSN20020123032009501/23/02 03:20:31  5-MIN KMSN 230920Z 20005KT 10SM CLR 02/M01 A2968 1090 78 -100 200/05 RMK AO2
14837KMSN MSN20020123032509501/23/02 03:25:31  5-MIN KMSN 230925Z 20003KT 10SM CLR 02/M01 A2968 1090 78 -100 200/03 RMK AO2
14837KMSN MSN20020123033009501/23/02 03:30:31  5-MIN KMSN 230930Z 21003KT 10SM CLR 02/M01 A2968 1090 78 -100 210/03 RMK AO2
14837KMSN MSN20020123033509501/23/02 03:35:31  5-MIN KMSN 230935Z 00000KT 10SM CLR 02/M01 A2968 1080 78 -100 000/00 RMK AO2
14837KMSN MSN20020123034009501/23/02 03:40:31  5-MIN KMSN 230940Z 00000KT 10SM CLR 01/M02 A2968 1080 82 -300 000/00 RMK AO2
14837KMSN MSN20020123034509501/23/02 03:45:31  5-MIN KMSN 230945Z 19003KT 10SM CLR 02/M02 A2968 1080 78 -200 190/03 RMK AO2
14837KMSN MSN20020123035011201/23/02 03:50:31  5-MIN KMSN 230950Z 18003KT 10SM CLR 01/M02 A2968 1090 78 -300 180/03 RMK AO2 SLP057 T00111022
14837KMSN MSN20020123035509501/23/02 03:55:31  5-MIN KMSN 230955Z 17003KT 10SM CLR 01/M02 A2968 1090 82 -300 170/03 RMK AO2
14837KMSN MSN20020123040009501/23/02 04:00:31  5-MIN KMSN 231000Z 18003KT 10SM CLR 01/M02 A2968 1090 82 -300 180/03 RMK AO2
14837KMSN MSN20020123040509501/23/02 04:05:31  5-MIN KMSN 231005Z 18003KT 10SM CLR 00/M02 A2968 1090 85 -400 180/03 RMK AO2
14837KMSN MSN20020123041009501/23/02 04:10:31  5-MIN KMSN 231010Z 00000KT 10SM CLR 01/M02 A2967 1090 82 -300 000/00 RMK AO2
14837KMSN MSN20020123041509501/23/02 04:15:31  5-MIN KMSN 231015Z 00000KT 10SM CLR 00/M02 A2968 1090 85 -400 000/00 RMK AO2
14837KMSN MSN20020123042009601/23/02 04:20:31  5-MIN KMSN 231020Z 00000KT 10SM CLR M01/M02 A2967 1090 88 -500 000/00 RMK AO2
14837KMSN MSN20020123042509501/23/02 04:25:31  5-MIN KMSN 231025Z 18003KT 10SM CLR 00/M02 A2967 1090 85 -400 180/03 RMK AO2
14837KMSN MSN20020123043009601/23/02 04:30:31  5-MIN KMSN 231030Z 18005KT 10SM CLR M01/M02 A2967 1090 88 -500 180/05 RMK AO2
14837KMSN MSN20020123043509501/23/02 04:35:31  5-MIN KMSN 231035Z 19005KT 10SM CLR 00/M02 A2967 1090 85 -400 190/05 RMK AO2
14837KMSN MSN20020123044009501/23/02 04:40:31  5-MIN KMSN 231040Z 20003KT 10SM CLR 01/M02 A2968 1090 85 -300 200/03 RMK AO2
14837KMSN MSN20020123044509601/23/02 04:45:31  5-MIN KMSN 231045Z 20003KT 10SM CLR M01/M02 A2968 1090 88 -500 190/03 RMK AO2
14837KMSN MSN20020123045011301/23/02 04:50:31  5-MIN KMSN 231050Z 00000KT 10SM CLR M01/M02 A2968 1080 88 -500 000/00 RMK AO2 SLP059 T10061022
14837KMSN MSN20020123045509601/23/02 04:55:31  5-MIN KMSN 231055Z 00000KT 10SM CLR M02/M03 A2969 1080 88 -600 000/00 RMK AO2
14837KMSN MSN20020123050009501/23/02 05:00:31  5-MIN KMSN 231100Z 00000KT 9SM CLR M02/M03 A2969 1080 92 -600 000/00 RMK AO2
14837KMSN MSN20020123050509501/23/02 05:05:31  5-MIN KMSN 231105Z 00000KT 9SM CLR M01/M03 A2969 1080 88 -500 000/00 RMK AO2
14837KMSN MSN20020123051009501/23/02 05:10:31  5-MIN KMSN 231110Z 17003KT 9SM CLR M01/M03 A2969 1080 88 -500 170/03 RMK AO2
14837KMSN MSN20020123051509501/23/02 05:15:31  5-MIN KMSN 231115Z 17005KT 8SM CLR M02/M03 A2969 1080 92 -700 170/05 RMK AO2
14837KMSN MSN20020123052009501/23/02 05:20:31  5-MIN KMSN 231120Z 19005KT 8SM CLR M01/M03 A2969 1080 88 -500 190/05 RMK AO2
14837KMSN MSN20020123052509401/23/02 05:25:31  5-MIN KMSN 231125Z 18004KT 9SM CLR 00/M02 A2968 1090 85 -400 180/04 RMK AO2
14837KMSN MSN20020123053009501/23/02 05:30:31  5-MIN KMSN 231130Z 17003KT 9SM CLR M01/M02 A2968 1090 88 -500 170/03 RMK AO2
14837KMSN MSN20020123053509501/23/02 05:35:31  5-MIN KMSN 231135Z 18005KT 8SM CLR M01/M02 A2967 1090 88 -500 180/05 RMK AO2
14837KMSN MSN20020123054009401/23/02 05:40:31  5-MIN KMSN 231140Z 18007KT 8SM CLR 00/M02 A2967 1090 88 -400 180/07 RMK AO2
14837KMSN MSN20020123054509401/23/02 05:45:31  5-MIN KMSN 231145Z 18005KT 8SM CLR 01/M02 A2968 1090 85 -300 180/05 RMK AO2
14837KMSN MSN20020123055013601/23/02 05:50:31  5-MIN KMSN 231150Z 19004KT 10SM CLR 01/M02 A2968 1090 85 -300 190/04 RMK AO2 SLP056 4/001 T00061017 10039 21022 55000
14837KMSN MSN20020123055509401/23/02 05:55:31  5-MIN KMSN 231155Z 00000KT 9SM CLR 01/M01 A2968 1090 89 -300 000/00 RMK AO2
14837KMSN MSN20020123060009501/23/02 06:00:31  5-MIN KMSN 231200Z 19003KT 9SM CLR M01/M02 A2969 1080 88 -500 190/03 RMK AO2
14837KMSN MSN20020123060509501/23/02 06:05:31  5-MIN KMSN 231205Z 00000KT 8SM CLR M02/M03 A2969 1080 92 -600 000/00 RMK AO2
14837KMSN MSN20020123061009501/23/02 06:10:31  5-MIN KMSN 231210Z 00000KT 7SM CLR M02/M03 A2969 1070 92 -700 000/00 RMK AO2
14837KMSN MSN20020123061509501/23/02 06:15:31  5-MIN KMSN 231215Z 00000KT 7SM CLR M03/M04 A2970 1070 92 -800 000/00 RMK AO2
14837KMSN MSN20020123062009501/23/02 06:20:31  5-MIN KMSN 231220Z 00000KT 7SM CLR M02/M03 A2970 1070 92 -600 000/00 RMK AO2
14837KMSN MSN20020123062509501/23/02 06:25:31  5-MIN KMSN 231225Z 00000KT 7SM CLR M02/M03 A2970 1070 92 -700 000/00 RMK AO2
14837KMSN MSN20020123063009501/23/02 06:30:31  5-MIN KMSN 231230Z 00000KT 7SM CLR M02/M03 A2970 1070 92 -700 000/00 RMK AO2
14837KMSN MSN20020123063509801/23/02 06:35:31  5-MIN KMSN 231235Z 00000KT 6SM BR CLR M02/M03 A2970 1070 92 -700 000/00 RMK AO2
14837KMSN MSN20020123064009501/23/02 06:40:31  5-MIN KMSN 231240Z 16003KT 7SM CLR M02/M03 A2970 1070 92 -600 160/03 RMK AO2
14837KMSN MSN20020123064509401/23/02 06:45:31  5-MIN KMSN 231245Z 19003KT 8SM CLR 00/M02 A2970 1070 88 -400 190/03 RMK AO2
14837KMSN MSN20020123065011101/23/02 06:50:31  5-MIN KMSN 231250Z 19004KT 8SM CLR 00/M02 A2970 1070 88 -400 190/04 RMK AO2 SLP065 T00001017
14837KMSN MSN20020123065509501/23/02 06:55:31  5-MIN KMSN 231255Z 20003KT 8SM CLR M01/M02 A2971 1060 88 -500 200/03 RMK AO2
14837KMSN MSN20020123070009501/23/02 07:00:31  5-MIN KMSN 231300Z 24003KT 7SM CLR M02/M03 A2971 1060 92 -600 230/03 RMK AO2
14837KMSN MSN20020123070509501/23/02 07:05:31  5-MIN KMSN 231305Z 00000KT 7SM CLR M01/M02 A2972 1050 88 -500 000/00 RMK AO2
14837KMSN MSN20020123071009401/23/02 07:10:31  5-MIN KMSN 231310Z 00000KT 8SM CLR 01/M01 A2972 1050 89 -400 000/00 RMK AO2
14837KMSN MSN20020123071509401/23/02 07:15:31  5-MIN KMSN 231315Z 29003KT 8SM CLR 01/M01 A2973 1040 89 -400 290/03 RMK AO2
14837KMSN MSN20020123072009401/23/02 07:20:31  5-MIN KMSN 231320Z 28003KT 7SM CLR 00/M02 A2973 1040 88 -400 280/03 RMK AO2
14837KMSN MSN20020123072509801/23/02 07:25:31  5-MIN KMSN 231325Z 00000KT 6SM BR CLR M02/M03 A2974 1040 92 -700 000/00 RMK AO2
14837KMSN MSN20020123073009801/23/02 07:30:31  5-MIN KMSN 231330Z 00000KT 5SM BR CLR M01/M02 A2974 1030 92 -600 000/00 RMK AO2
14837KMSN MSN20020123073509801/23/02 07:35:31  5-MIN KMSN 231335Z 00000KT 4SM BR CLR M02/M03 A2974 1030 92 -700 000/00 RMK AO2
14837KMSN MSN20020123074009801/23/02 07:40:31  5-MIN KMSN 231340Z 00000KT 3SM BR CLR M02/M02 A2974 1030 96 -700 000/00 RMK AO2
14837KMSN MSN20020123074509801/23/02 07:45:31  5-MIN KMSN 231345Z 00000KT 6SM BR CLR M02/M02 A2974 1030 96 -700 000/00 RMK AO2
14837KMSN MSN20020123075011501/23/02 07:50:31  5-MIN KMSN 231350Z 00000KT 6SM BR CLR M01/M02 A2975 1030 92 -600 000/00 RMK AO2 SLP081 T10111022
14837KMSN MSN20020123075509801/23/02 07:55:31  5-MIN KMSN 231355Z 00000KT 4SM BR CLR M02/M02 A2975 1020 96 -700 000/00 RMK AO2
14837KMSN MSN20020123080009501/23/02 08:00:31  5-MIN KMSN 231400Z 16003KT 7SM CLR M01/M02 A2975 1020 92 -600 160/03 RMK AO2
14837KMSN MSN20020123080509501/23/02 08:05:31  5-MIN KMSN 231405Z 18004KT 7SM CLR M01/M03 A2976 1010 88 -600 180/04 RMK AO2
14837KMSN MSN20020123081009401/23/02 08:10:31  5-MIN KMSN 231410Z 19005KT 7SM CLR 00/M02 A2977 1010 88 -500 190/05 RMK AO2
14837KMSN MSN20020123081509401/23/02 08:15:31  5-MIN KMSN 231415Z 20003KT 7SM CLR 01/M01 A2977 1010 89 -400 190/03 RMK AO2
14837KMSN MSN20020123082009401/23/02 08:20:31  5-MIN KMSN 231420Z 22003KT 7SM CLR 01/M01 A2976 1010 85 -300 220/03 RMK AO2
14837KMSN MSN20020123082509401/23/02 08:25:31  5-MIN KMSN 231425Z VRB03KT 7SM CLR 01/M01 A2976 1010 85 -300 VRB/03 RMK AO2
14837KMSN MSN20020123083009501/23/02 08:30:31  5-MIN KMSN 231430Z 00000KT 10SM CLR 02/M01 A2976 1010 82 -300 000/00 RMK AO2
14837KMSN MSN20020123083509501/23/02 08:35:31  5-MIN KMSN 231435Z 00000KT 10SM CLR 02/M01 A2976 1010 85 -300 000/00 RMK AO2
14837KMSN MSN20020123084009501/23/02 08:40:31  5-MIN KMSN 231440Z 00000KT 10SM CLR 02/M01 A2976 1010 82 -200 000/00 RMK AO2
14837KMSN MSN20020123084509501/23/02 08:45:31  5-MIN KMSN 231445Z 00000KT 10SM CLR 02/M01 A2976 1010 82 -200 000/00 RMK AO2
14837KMSN MSN20020123085011801/23/02 08:50:31  5-MIN KMSN 231450Z 00000KT 10SM CLR 02/M01 A2976 1010 82 -200 000/00 RMK AO2 SLP086 T00221006 50002
14837KMSN MSN20020124080509901/24/02 08:05:31  5-MIN KMSN 241405Z 31006KT 10SM OVC022 M02/M07 A2999 800 72 -1000 310/06 RMK AO2
14837KMSN MSN20020124081009901/24/02 08:10:31  5-MIN KMSN 241410Z 30006KT 10SM OVC022 M02/M06 A2999 800 75 -1000 300/06 RMK AO2
14837KMSN MSN20020124081509901/24/02 08:15:31  5-MIN KMSN 241415Z 28006KT 10SM OVC022 M02/M07 A3000 790 72 -1000 280/06 RMK AO2
14837KMSN MSN20020124082009901/24/02 08:20:31  5-MIN KMSN 241420Z 31006KT 10SM OVC022 M02/M06 A3000 790 75 -1000 310/06 RMK AO2
14837KMSN MSN20020124082509901/24/02 08:25:31  5-MIN KMSN 241425Z 30006KT 10SM OVC020 M02/M06 A3001 790 75 -1000 300/06 RMK AO2
14837KMSN MSN20020124083009901/24/02 08:30:31  5-MIN KMSN 241430Z 28006KT 10SM OVC020 M02/M06 A3001 780 72 -1000 280/06 RMK AO2
14837KMSN MSN20020124083509901/24/02 08:35:31  5-MIN KMSN 241435Z 30006KT 10SM OVC020 M02/M06 A3001 780 72 -1000 300/06 RMK AO2
14837KMSN MSN20020124084009901/24/02 08:40:31  5-MIN KMSN 241440Z 29008KT 10SM OVC020 M02/M06 A3001 780 72 -1000 290/08 RMK AO2
14837KMSN MSN20020124084509901/24/02 08:45:31  5-MIN KMSN 241445Z 27009KT 10SM OVC020 M02/M07 A3001 780 72 -1100 270/09 RMK AO2
14837KMSN MSN20020124085012201/24/02 08:50:31  5-MIN KMSN 241450Z 31007KT 10SM OVC020 M02/M07 A3002 770 72 -1100 310/07 RMK AO2 SLP175 T10221067 53010
14837KMSN MSN20020124085509901/24/02 08:55:31  5-MIN KMSN 241455Z 30007KT 10SM BKN020 M02/M07 A3002 780 69 -1000 290/07 RMK AO2
14837KMSN MSN20020124090011501/24/02 09:00:31  5-MIN KMSN 241500Z 28007KT 250V310 10SM BKN020 M02/M06 A3002 770 72 -1000 280/07 250V310 RMK AO2
14837KMSN MSN20020124090509901/24/02 09:05:31  5-MIN KMSN 241505Z 27009KT 10SM BKN020 M02/M07 A3002 770 69 -1000 270/09 RMK AO2
14837KMSN MSN20020124091009901/24/02 09:10:31  5-MIN KMSN 241510Z 29007KT 10SM BKN020 M02/M07 A3002 770 69 -1000 290/07 RMK AO2
14837KMSN MSN20020124091509901/24/02 09:15:31  5-MIN KMSN 241515Z 28006KT 10SM BKN020 M02/M06 A3002 770 72 -1000 280/06 RMK AO2
14837KMSN MSN20020124092009901/24/02 09:20:31  5-MIN KMSN 241520Z 28006KT 10SM BKN020 M02/M06 A3002 770 72 -1000 280/06 RMK AO2
14837KMSN MSN20020124092509901/24/02 09:25:31  5-MIN KMSN 241525Z 29007KT 10SM BKN020 M02/M07 A3002 770 69 -1000 290/07 RMK AO2
14837KMSN MSN20020124093009801/24/02 09:30:31  5-MIN KMSN 241530Z 28008KT 10SM BKN020 M01/M06 A3002 770 69 -900 280/08 RMK AO2
14837KMSN MSN20020124093509901/24/02 09:35:31  5-MIN KMSN 241535Z 29009KT 10SM BKN020 M02/M07 A3002 770 69 -1000 290/09 RMK AO2
14837KMSN MSN20020124094009901/24/02 09:40:31  5-MIN KMSN 241540Z VRB06KT 10SM SCT020 M02/M06 A3002 780 72 -1000 VRB/06 RMK AO2
14837KMSN MSN20020124094509901/24/02 09:45:31  5-MIN KMSN 241545Z 29009KT 10SM SCT020 M02/M07 A3002 770 69 -1000 290/09 RMK AO2
14837KMSN MSN20020124095011601/24/02 09:50:31  5-MIN KMSN 241550Z 29009KT 10SM SCT020 M02/M07 A3002 770 69 -1000 280/09 RMK AO2 SLP174 T10171067
14837KMSN MSN20020124095509901/24/02 09:55:31  5-MIN KMSN 241555Z 29006KT 10SM FEW020 M02/M07 A3002 770 69 -1000 290/06 RMK AO2
14837KMSN MSN20020124100009901/24/02 10:00:31  5-MIN KMSN 241600Z 28009KT 10SM FEW020 M02/M07 A3002 770 69 -1000 280/09 RMK AO2
14837KMSN MSN20020124100511501/24/02 10:05:31  5-MIN KMSN 241605Z 28007KT 250V310 10SM FEW020 M02/M07 A3002 770 69 -1000 280/07 250V310 RMK AO2
14837KMSN MSN20020124101009901/24/02 10:10:31  5-MIN KMSN 241610Z 26006KT 10SM FEW020 M02/M07 A3002 770 69 -1000 260/06 RMK AO2
14837KMSN MSN20020124101511101/24/02 10:15:31  5-MIN KMSN 241615Z 27009KT 240V310 10SM CLR M01/M07 A3003 770 66 -900 270/09 240V310 RMK AO2
14837KMSN MSN20020124102009601/24/02 10:20:31  5-MIN KMSN 241620Z 26007KT 10SM CLR M02/M07 A3003 760 69 -1000 260/07 RMK AO2
14837KMSN MSN20020124102509801/24/02 10:25:31  5-MIN KMSN 241625Z VRB06KT 10SM FEW020 M01/M07 A3002 770 66 -900 VRB/06 RMK AO2
14837KMSN MSN20020124103009801/24/02 10:30:31  5-MIN KMSN 241630Z VRB06KT 10SM FEW020 M01/M06 A3002 770 66 -900 VRB/06 RMK AO2
14837KMSN MSN20020124103509801/24/02 10:35:31  5-MIN KMSN 241635Z 28008KT 10SM FEW020 M01/M06 A3001 780 69 -900 280/08 RMK AO2
14837KMSN MSN20020124104009501/24/02 10:40:31  5-MIN KMSN 241640Z 28007KT 10SM CLR M01/M06 A3001 780 66 -800 280/07 RMK AO2
14837KMSN MSN20020124104509501/24/02 10:45:31  5-MIN KMSN 241645Z 29008KT 10SM CLR M01/M06 A3001 780 66 -800 290/08 RMK AO2
14837KMSN MSN20020124105012801/24/02 10:50:31  5-MIN KMSN 241650Z 27007KT 250V320 10SM CLR M01/M06 A3001 780 66 -800 270/07 250V320 RMK AO2 SLP173 T10061061
14837KMSN MSN20020124105509501/24/02 10:55:31  5-MIN KMSN 241655Z 30007KT 10SM CLR M01/M06 A3001 780 66 -800 300/07 RMK AO2
14837KMSN MSN20020124110009501/24/02 11:00:31  5-MIN KMSN 241700Z VRB06KT 10SM CLR M01/M06 A3001 790 66 -800 VRB/06 RMK AO2
14837KMSN MSN20020124110509501/24/02 11:05:31  5-MIN KMSN 241705Z 29009KT 10SM CLR M01/M06 A3000 790 66 -800 290/09 RMK AO2
14837KMSN MSN20020124111009501/24/02 11:10:31  5-MIN KMSN 241710Z 29009KT 10SM CLR M01/M06 A3000 790 66 -800 290/09 RMK AO2
14837KMSN MSN20020124111509401/24/02 11:15:31  5-MIN KMSN 241715Z VRB06KT 10SM CLR 00/M06 A2999 800 63 -800 VRB/06 RMK AO2
14837KMSN MSN20020124112009401/24/02 11:20:31  5-MIN KMSN 241720Z 28008KT 10SM CLR 00/M06 A2999 800 63 -700 280/08 RMK AO2
14837KMSN MSN20020124112509401/24/02 11:25:31  5-MIN KMSN 241725Z 29007KT 10SM CLR 00/M07 A2999 800 61 -700 290/07 RMK AO2
14837KMSN MSN20020124113009401/24/02 11:30:31  5-MIN KMSN 241730Z 27007KT 10SM CLR 00/M06 A2999 800 63 -700 270/07 RMK AO2
14837KMSN MSN20020124113509401/24/02 11:35:31  5-MIN KMSN 241735Z 29007KT 10SM CLR 00/M06 A2998 810 63 -700 280/07 RMK AO2
14837KMSN MSN20020124114011001/24/02 11:40:31  5-MIN KMSN 241740Z 28007KT 250V320 10SM CLR 00/M06 A2998 810 63 -700 280/07 250V320 RMK AO2
14837KMSN MSN20020124114509401/24/02 11:45:31  5-MIN KMSN 241745Z 24006KT 10SM CLR 00/M06 A2998 810 63 -700 240/06 RMK AO2
14837KMSN MSN20020124115012901/24/02 11:50:31  5-MIN KMSN 241750Z 24008KT 10SM CLR 00/M06 A2998 810 63 -700 240/08 RMK AO2 SLP161 T00001061 10006 21022 53018
14837KMSN MSN20020124115509401/24/02 11:55:31  5-MIN KMSN 241755Z 25007KT 10SM CLR 01/M06 A2998 810 61 -700 250/07 RMK AO2
14837KMSN MSN20020124120011001/24/02 12:00:31  5-MIN KMSN 241800Z 23008KT 200V290 10SM CLR 01/M06 A2998 810 61 -700 230/08 200V290 RMK AO2
14837KMSN MSN20020124120509401/24/02 12:05:31  5-MIN KMSN 241805Z 22008KT 10SM CLR 01/M06 A2998 810 63 -700 220/08 RMK AO2
14837KMSN MSN20020124121009401/24/02 12:10:31  5-MIN KMSN 241810Z 25008KT 10SM CLR 00/M06 A2997 820 63 -700 250/08 RMK AO2
14837KMSN MSN20020124121509401/24/02 12:15:31  5-MIN KMSN 241815Z VRB06KT 10SM CLR 01/M06 A2997 820 63 -700 VRB/06 RMK AO2
14837KMSN MSN20020124122009401/24/02 12:20:31  5-MIN KMSN 241820Z VRB06KT 10SM CLR 01/M06 A2997 820 61 -600 VRB/06 RMK AO2
14837KMSN MSN20020124122509401/24/02 12:25:31  5-MIN KMSN 241825Z VRB06KT 10SM CLR 01/M06 A2997 820 61 -600 VRB/06 RMK AO2
14837KMSN MSN20020124123009401/24/02 12:30:31  5-MIN KMSN 241830Z VRB06KT 10SM CLR 01/M06 A2996 830 61 -600 VRB/06 RMK AO2
14837KMSN MSN20020124123511001/24/02 12:35:31  5-MIN KMSN 241835Z 26007KT 220V310 10SM CLR 01/M06 A2996 830 61 -600 260/07 220V310 RMK AO2
14837KMSN MSN20020124124009401/24/02 12:40:31  5-MIN KMSN 241840Z 28009KT 10SM CLR 01/M06 A2996 830 58 -600 280/09 RMK AO2
14837KMSN MSN20020124124509401/24/02 12:45:31  5-MIN KMSN 241845Z VRB06KT 10SM CLR 02/M06 A2995 830 56 -500 VRB/06 RMK AO2
14837KMSN MSN20020124125011101/24/02 12:50:31  5-MIN KMSN 241850Z 26008KT 10SM CLR 02/M06 A2995 840 56 -500 260/08 RMK AO2 SLP149 T00171061
14837KMSN MSN20020124125509401/24/02 12:55:31  5-MIN KMSN 241855Z 24007KT 10SM CLR 02/M06 A2995 840 56 -500 230/07 RMK AO2
14837KMSN MSN20020124130009401/24/02 13:00:31  5-MIN KMSN 241900Z 24008KT 10SM CLR 02/M07 A2995 840 54 -500 230/08 RMK AO2
14837KMSN MSN20020124130509401/24/02 13:05:31  5-MIN KMSN 241905Z VRB06KT 10SM CLR 02/M07 A2995 840 54 -500 VRB/06 RMK AO2
14837KMSN MSN20020124131009401/24/02 13:10:31  5-MIN KMSN 241910Z VRB06KT 10SM CLR 02/M06 A2994 840 54 -400 VRB/06 RMK AO2
14837KMSN MSN20020124131509401/24/02 13:15:31  5-MIN KMSN 241915Z VRB06KT 10SM CLR 02/M06 A2994 840 54 -400 VRB/06 RMK AO2
14837KMSN MSN20020124132009401/24/02 13:20:31  5-MIN KMSN 241920Z 23006KT 10SM CLR 02/M07 A2994 850 52 -400 230/06 RMK AO2
14837KMSN MSN20020124132509401/24/02 13:25:31  5-MIN KMSN 241925Z 26006KT 10SM CLR 02/M06 A2994 850 54 -400 260/06 RMK AO2
14837KMSN MSN20020124133009401/24/02 13:30:31  5-MIN KMSN 241930Z 21008KT 10SM CLR 03/M06 A2994 850 52 -300 210/08 RMK AO2
14837KMSN MSN20020124133509401/24/02 13:35:31  5-MIN KMSN 241935Z 23009KT 10SM CLR 02/M07 A2994 850 52 -400 230/09 RMK AO2
14837KMSN MSN20020124134009401/24/02 13:40:31  5-MIN KMSN 241940Z 22008KT 10SM CLR 03/M06 A2993 850 52 -300 220/08 RMK AO2
14837KMSN MSN20020124134511001/24/02 13:45:31  5-MIN KMSN 241945Z 26007KT 230V290 10SM CLR 03/M07 A2993 850 48 -300 250/07 230V290 RMK AO2
14837KMSN MSN20020124135011101/24/02 13:50:31  5-MIN KMSN 241950Z VRB05KT 10SM CLR 03/M07 A2993 850 46 -300 VRB/05 RMK AO2 SLP145 T00331072
14837KMSN MSN20020124135509401/24/02 13:55:31  5-MIN KMSN 241955Z 22007KT 10SM CLR 03/M07 A2993 850 50 -300 220/07 RMK AO2
14837KMSN MSN20020124140009401/24/02 14:00:31  5-MIN KMSN 242000Z 21007KT 10SM CLR 03/M07 A2993 860 50 -300 210/07 RMK AO2
14837KMSN MSN20020124140509401/24/02 14:05:31  5-MIN KMSN 242005Z 21006KT 10SM CLR 03/M07 A2993 860 48 -300 210/06 RMK AO2
14837KMSN MSN20020124141009401/24/02 14:10:31  5-MIN KMSN 242010Z 24006KT 10SM CLR 03/M07 A2993 860 48 -300 230/06 RMK AO2
14837KMSN MSN20020124141509401/24/02 14:15:31  5-MIN KMSN 242015Z 21009KT 10SM CLR 03/M07 A2993 860 48 -300 210/09 RMK AO2
14837KMSN MSN20020124142009401/24/02 14:20:31  5-MIN KMSN 242020Z VRB06KT 10SM CLR 03/M07 A2993 860 50 -300 VRB/06 RMK AO2
14837KMSN MSN20020124142509401/24/02 14:25:31  5-MIN KMSN 242025Z 22008KT 10SM CLR 03/M07 A2993 860 46 -300 220/08 RMK AO2
14837KMSN MSN20020124143009401/24/02 14:30:31  5-MIN KMSN 242030Z VRB06KT 10SM CLR 03/M07 A2993 860 46 -300 VRB/06 RMK AO2
14837KMSN MSN20020124143509401/24/02 14:35:31  5-MIN KMSN 242035Z 22008KT 10SM CLR 03/M07 A2993 860 46 -300 210/08 RMK AO2
14837KMSN MSN20020124144009401/24/02 14:40:31  5-MIN KMSN 242040Z VRB06KT 10SM CLR 03/M07 A2992 860 46 -300 VRB/06 RMK AO2
14837KMSN MSN20020124144509401/24/02 14:45:31  5-MIN KMSN 242045Z 23008KT 10SM CLR 03/M07 A2992 860 46 -300 230/08 RMK AO2
14837KMSN MSN20020124145013301/24/02 14:50:31  5-MIN KMSN 242050Z 23008KT 200V260 10SM CLR 03/M07 A2993 860 46 -300 230/08 200V260 RMK AO2 SLP142 T00331072 58013
14837KMSN MSN20020124145509401/24/02 14:55:31  5-MIN KMSN 242055Z 22008KT 10SM CLR 03/M07 A2993 860 46 -300 220/08 RMK AO2
14837KMSN MSN20020124150009401/24/02 15:00:31  5-MIN KMSN 242100Z 23009KT 10SM CLR 03/M07 A2993 860 48 -300 230/09 RMK AO2
14837KMSN MSN20020124150509401/24/02 15:05:31  5-MIN KMSN 242105Z 22008KT 10SM CLR 03/M07 A2993 860 48 -300 220/08 RMK AO2
14837KMSN MSN20020124151009401/24/02 15:10:31  5-MIN KMSN 242110Z 23008KT 10SM CLR 03/M07 A2993 860 48 -300 230/08 RMK AO2
14837KMSN MSN20020124151509401/24/02 15:15:31  5-MIN KMSN 242115Z 23008KT 10SM CLR 03/M07 A2993 860 48 -300 220/08 RMK AO2
14837KMSN MSN20020124152009401/24/02 15:20:31  5-MIN KMSN 242120Z 23008KT 10SM CLR 03/M07 A2993 860 48 -300 230/08 RMK AO2
14837KMSN MSN20020124152509401/24/02 15:25:31  5-MIN KMSN 242125Z 23007KT 10SM CLR 03/M07 A2993 860 48 -300 230/07 RMK AO2
14837KMSN MSN20020124153009401/24/02 15:30:31  5-MIN KMSN 242130Z 22009KT 10SM CLR 03/M07 A2993 860 48 -300 220/09 RMK AO2
14837KMSN MSN20020124153510001/24/02 15:35:31  5-MIN KMSN 242135Z 23011G15KT 10SM CLR 03/M07 A2993 860 48 -300 230/11G15 RMK AO2
14837KMSN MSN20020124154009401/24/02 15:40:31  5-MIN KMSN 242140Z 23009KT 10SM CLR 03/M07 A2993 850 48 -300 230/09 RMK AO2
14837KMSN MSN20020124154509401/24/02 15:45:31  5-MIN KMSN 242145Z 24009KT 10SM CLR 03/M07 A2993 850 48 -300 230/09 RMK AO2
14837KMSN MSN20020124155011101/24/02 15:50:31  5-MIN KMSN 242150Z 24009KT 10SM CLR 03/M07 A2993 850 48 -300 240/09 RMK AO2 SLP145 T00331067
14837KMSN MSN20020124155511001/24/02 15:55:31  5-MIN KMSN 242155Z 23007KT 200V260 10SM CLR 03/M07 A2993 850 48 -300 230/07 200V260 RMK AO2
14837KMSN MSN20020124160009401/24/02 16:00:31  5-MIN KMSN 242200Z 23006KT 10SM CLR 03/M07 A2993 850 48 -300 220/06 RMK AO2
14837KMSN MSN20020124160509401/24/02 16:05:31  5-MIN KMSN 242205Z 23008KT 10SM CLR 03/M07 A2993 850 50 -300 230/08 RMK AO2
14837KMSN MSN20020124161009401/24/02 16:10:31  5-MIN KMSN 242210Z 24009KT 10SM CLR 03/M07 A2993 850 50 -300 230/09 RMK AO2
14837KMSN MSN20020124161510001/24/02 16:15:31  5-MIN KMSN 242215Z 24009G14KT 10SM CLR 03/M07 A2993 850 50 -300 240/09G14 RMK AO2
14837KMSN MSN20020124162011601/24/02 16:20:31  5-MIN KMSN 242220Z 23007G14KT 210V270 10SM CLR 03/M07 A2993 860 50 -300 230/07G14 210V270 RMK AO2
14837KMSN MSN20020124162509401/24/02 16:25:31  5-MIN KMSN 242225Z 23006KT 10SM CLR 03/M07 A2993 860 50 -300 230/06 RMK AO2
14837KMSN MSN20020124163009401/24/02 16:30:31  5-MIN KMSN 242230Z 23006KT 10SM CLR 03/M07 A2993 860 50 -300 230/06 RMK AO2
14837KMSN MSN20020124163509401/24/02 16:35:31  5-MIN KMSN 242235Z 24006KT 10SM CLR 03/M07 A2993 860 50 -300 240/06 RMK AO2
14837KMSN MSN20020124164009401/24/02 16:40:31  5-MIN KMSN 242240Z 23007KT 10SM CLR 03/M07 A2993 860 50 -300 220/07 RMK AO2
14837KMSN MSN20020124164509401/24/02 16:45:31  5-MIN KMSN 242245Z 23008KT 10SM CLR 03/M07 A2993 860 50 -300 230/08 RMK AO2
14837KMSN MSN20020124165012701/24/02 16:50:31  5-MIN KMSN 242250Z 24007KT 210V270 10SM CLR 02/M07 A2993 850 52 -400 230/07 210V270 RMK AO2 SLP145 T00221067
14837KMSN MSN20020124165511001/24/02 16:55:31  5-MIN KMSN 242255Z 24008KT 210V280 10SM CLR 02/M07 A2993 850 52 -400 240/08 210V280 RMK AO2
14837KMSN MSN20020124170009401/24/02 17:00:31  5-MIN KMSN 242300Z 23006KT 10SM CLR 02/M07 A2993 850 52 -400 230/06 RMK AO2
14837KMSN MSN20020124170509401/24/02 17:05:31  5-MIN KMSN 242305Z VRB05KT 10SM CLR 02/M07 A2993 850 52 -400 VRB/05 RMK AO2
14837KMSN MSN20020124171009401/24/02 17:10:31  5-MIN KMSN 242310Z 22005KT 10SM CLR 02/M07 A2993 850 54 -500 220/05 RMK AO2
14837KMSN MSN20020124171509401/24/02 17:15:31  5-MIN KMSN 242315Z 22006KT 10SM CLR 02/M06 A2993 850 54 -400 220/06 RMK AO2
14837KMSN MSN20020124172009401/24/02 17:20:31  5-MIN KMSN 242320Z 22005KT 10SM CLR 02/M07 A2994 850 54 -500 220/05 RMK AO2
14837KMSN MSN20020124172509401/24/02 17:25:31  5-MIN KMSN 242325Z 22005KT 10SM CLR 02/M07 A2994 850 54 -500 220/05 RMK AO2
14837KMSN MSN20020124173009401/24/02 17:30:31  5-MIN KMSN 242330Z 23005KT 10SM CLR 02/M07 A2994 850 54 -500 220/05 RMK AO2
14837KMSN MSN20020124173509701/24/02 17:35:31  5-MIN KMSN 242335Z 23005KT 10SM FEW090 02/M07 A2994 850 54 -500 230/05 RMK AO2
14837KMSN MSN20020124174009701/24/02 17:40:31  5-MIN KMSN 242340Z 22005KT 10SM FEW090 02/M07 A2994 850 54 -500 220/05 RMK AO2
14837KMSN MSN20020124174509701/24/02 17:45:31  5-MIN KMSN 242345Z 22004KT 10SM FEW090 02/M07 A2994 850 54 -500 220/04 RMK AO2
14837KMSN MSN20020124175012901/24/02 17:50:31  5-MIN KMSN 242350Z 22004KT 10SM CLR 01/M07 A2994 850 56 -600 220/04 RMK AO2 SLP148 T00111067 10033 20000 56018
14837KMSN MSN20020124175509401/24/02 17:55:31  5-MIN KMSN 242355Z 22005KT 10SM CLR 01/M07 A2994 840 56 -600 220/05 RMK AO2
14837KMSN MSN20020124180009401/24/02 18:00:31  5-MIN KMSN 250000Z 22005KT 10SM CLR 02/M07 A2994 840 54 -500 220/05 RMK AO2
14837KMSN MSN20020124180509401/24/02 18:05:31  5-MIN KMSN 250005Z 22006KT 10SM CLR 02/M07 A2995 840 54 -500 220/06 RMK AO2
14837KMSN MSN20020124181009401/24/02 18:10:31  5-MIN KMSN 250010Z 22004KT 10SM CLR 01/M07 A2995 840 56 -600 220/04 RMK AO2
14837KMSN MSN20020124181509401/24/02 18:15:31  5-MIN KMSN 250015Z 22005KT 10SM CLR 01/M07 A2995 840 56 -600 220/05 RMK AO2
14837KMSN MSN20020124182009401/24/02 18:20:31  5-MIN KMSN 250020Z 21006KT 10SM CLR 01/M07 A2995 840 56 -600 210/06 RMK AO2
14837KMSN MSN20020124182509401/24/02 18:25:31  5-MIN KMSN 250025Z 22006KT 10SM CLR 01/M07 A2995 840 56 -600 220/06 RMK AO2
14837KMSN MSN20020124183009401/24/02 18:30:31  5-MIN KMSN 250030Z 22006KT 10SM CLR 01/M07 A2995 840 56 -600 220/06 RMK AO2
14837KMSN MSN20020124183509401/24/02 18:35:31  5-MIN KMSN 250035Z 22005KT 10SM CLR 01/M07 A2995 830 56 -600 220/05 RMK AO2
14837KMSN MSN20020124184009401/24/02 18:40:31  5-MIN KMSN 250040Z 22005KT 10SM CLR 01/M07 A2995 840 54 -600 210/05 RMK AO2
14837KMSN MSN20020124184509401/24/02 18:45:31  5-MIN KMSN 250045Z 22005KT 10SM CLR 01/M07 A2995 840 54 -600 220/05 RMK AO2
14837KMSN MSN20020124185011101/24/02 18:50:31  5-MIN KMSN 250050Z 21005KT 10SM CLR 01/M07 A2995 840 54 -600 210/05 RMK AO2 SLP152 T00111072
14837KMSN MSN20020124185509401/24/02 18:55:31  5-MIN KMSN 250055Z 21005KT 10SM CLR 01/M07 A2995 840 54 -600 210/05 RMK AO2
14837KMSN MSN20020124190009401/24/02 19:00:31  5-MIN KMSN 250100Z 20005KT 10SM CLR 01/M07 A2995 830 54 -600 200/05 RMK AO2
14837KMSN MSN20020124190509401/24/02 19:05:31  5-MIN KMSN 250105Z 20005KT 10SM CLR 01/M07 A2995 840 54 -600 200/05 RMK AO2
14837KMSN MSN20020124191009401/24/02 19:10:31  5-MIN KMSN 250110Z 20006KT 10SM CLR 01/M07 A2995 840 56 -600 200/06 RMK AO2
14837KMSN MSN20020124191509401/24/02 19:15:31  5-MIN KMSN 250115Z 21005KT 10SM CLR 01/M07 A2995 840 56 -600 210/05 RMK AO2
14837KMSN MSN20020124192009401/24/02 19:20:31  5-MIN KMSN 250120Z 20005KT 10SM CLR 01/M07 A2995 840 58 -600 200/05 RMK AO2
14837KMSN MSN20020124192509401/24/02 19:25:31  5-MIN KMSN 250125Z 20006KT 10SM CLR 01/M07 A2995 840 58 -600 190/06 RMK AO2
14837KMSN MSN20020124193009401/24/02 19:30:31  5-MIN KMSN 250130Z 20006KT 10SM CLR 01/M07 A2995 840 58 -600 190/06 RMK AO2
14837KMSN MSN20020124193509701/24/02 19:35:31  5-MIN KMSN 250135Z 20007KT 10SM FEW100 01/M07 A2994 840 58 -600 200/07 RMK AO2
14837KMSN MSN20020124194009701/24/02 19:40:31  5-MIN KMSN 250140Z 20006KT 10SM SCT100 01/M06 A2994 850 61 -600 200/06 RMK AO2
14837KMSN MSN20020124194509701/24/02 19:45:31  5-MIN KMSN 250145Z 20009KT 10SM BKN100 01/M06 A2994 850 61 -600 200/09 RMK AO2
14837KMSN MSN20020124195011401/24/02 19:50:31  5-MIN KMSN 250150Z 21007KT 10SM BKN100 01/M06 A2994 850 61 -600 210/07 RMK AO2 SLP148 T00061061
14837KMSN MSN20020124195509701/24/02 19:55:31  5-MIN KMSN 250155Z 21009KT 10SM BKN100 01/M06 A2994 850 61 -600 210/09 RMK AO2
14837KMSN MSN20020124200009701/24/02 20:00:31  5-MIN KMSN 250200Z 21010KT 10SM BKN100 01/M06 A2994 850 61 -600 210/10 RMK AO2
14837KMSN MSN20020124200509701/24/02 20:05:31  5-MIN KMSN 250205Z 21009KT 10SM BKN100 01/M07 A2994 850 58 -600 210/09 RMK AO2
14837KMSN MSN20020124201009701/24/02 20:10:31  5-MIN KMSN 250210Z 21010KT 10SM SCT100 01/M06 A2994 850 61 -600 210/10 RMK AO2
14837KMSN MSN20020124201509701/24/02 20:15:31  5-MIN KMSN 250215Z 22008KT 10SM SCT100 01/M07 A2994 850 58 -600 210/08 RMK AO2
14837KMSN MSN20020124202009701/24/02 20:20:31  5-MIN KMSN 250220Z 22009KT 10SM FEW100 01/M07 A2993 850 58 -600 220/09 RMK AO2
14837KMSN MSN20020124202509401/24/02 20:25:31  5-MIN KMSN 250225Z 22009KT 10SM CLR 01/M07 A2993 850 58 -600 220/09 RMK AO2
14837KMSN MSN20020124203009401/24/02 20:30:31  5-MIN KMSN 250230Z 22009KT 10SM CLR 01/M07 A2993 850 58 -600 220/09 RMK AO2
14837KMSN MSN20020124203509401/24/02 20:35:31  5-MIN KMSN 250235Z 22008KT 10SM CLR 01/M07 A2993 850 58 -600 220/08 RMK AO2
14837KMSN MSN20020124204009401/24/02 20:40:31  5-MIN KMSN 250240Z 22010KT 10SM CLR 01/M07 A2993 850 58 -600 220/10 RMK AO2
14837KMSN MSN20020124204509401/24/02 20:45:31  5-MIN KMSN 250245Z 22009KT 10SM CLR 01/M07 A2993 850 58 -600 220/09 RMK AO2
14837KMSN MSN20020124205011701/24/02 20:50:31  5-MIN KMSN 250250Z 22010KT 10SM CLR 01/M07 A2993 850 58 -600 220/10 RMK AO2 SLP147 T00061067 53005
14837KMSN MSN20020124205509401/24/02 20:55:31  5-MIN KMSN 250255Z 22008KT 10SM CLR 01/M07 A2994 850 58 -600 220/08 RMK AO2
14837KMSN MSN20020124210011601/24/02 21:00:31  5-MIN KMSN 250300Z 23009G15KT 200V260 10SM CLR 01/M07 A2994 850 58 -600 220/09G15 200V260 RMK AO2
14837KMSN MSN20020124210511601/24/02 21:05:31  5-MIN KMSN 250305Z 24008G15KT 200V260 10SM CLR 01/M07 A2994 850 58 -600 230/08G15 200V260 RMK AO2
14837KMSN MSN20020124211009401/24/02 21:10:31  5-MIN KMSN 250310Z 23009KT 10SM CLR 01/M07 A2994 850 58 -600 230/09 RMK AO2
14837KMSN MSN20020124211509401/24/02 21:15:31  5-MIN KMSN 250315Z 23008KT 10SM CLR 01/M07 A2994 840 58 -600 230/08 RMK AO2
14837KMSN MSN20020124212009401/24/02 21:20:31  5-MIN KMSN 250320Z 23008KT 10SM CLR 01/M07 A2994 840 58 -600 230/08 RMK AO2
14837KMSN MSN20020124212511001/24/02 21:25:31  5-MIN KMSN 250325Z 23008KT 200V260 10SM CLR 01/M07 A2994 840 58 -600 230/08 200V260 RMK AO2
14837KMSN MSN20020124213009401/24/02 21:30:31  5-MIN KMSN 250330Z 23009KT 10SM CLR 01/M07 A2994 840 58 -600 230/09 RMK AO2
14837KMSN MSN20020124213509401/24/02 21:35:31  5-MIN KMSN 250335Z 23008KT 10SM CLR 01/M07 A2995 840 58 -600 230/08 RMK AO2
14837KMSN MSN20020124214009401/24/02 21:40:31  5-MIN KMSN 250340Z 23007KT 10SM CLR 00/M07 A2995 840 61 -700 230/07 RMK AO2
14837KMSN MSN20020124214509401/24/02 21:45:31  5-MIN KMSN 250345Z 24007KT 10SM CLR 00/M07 A2995 840 61 -700 240/07 RMK AO2
14837KMSN MSN20020124215011101/24/02 21:50:31  5-MIN KMSN 250350Z 24006KT 10SM CLR 00/M07 A2995 840 61 -700 240/06 RMK AO2 SLP151 T00001067
14837KMSN MSN20020124215509401/24/02 21:55:31  5-MIN KMSN 250355Z 23007KT 10SM CLR 00/M07 A2995 840 61 -700 230/07 RMK AO2
14837KMSN MSN20020124220009401/24/02 22:00:31  5-MIN KMSN 250400Z 23005KT 10SM CLR 00/M07 A2995 840 61 -700 230/05 RMK AO2
14837KMSN MSN20020124220509401/24/02 22:05:31  5-MIN KMSN 250405Z 24004KT 10SM CLR 00/M07 A2995 840 61 -700 230/04 RMK AO2
14837KMSN MSN20020124221009401/24/02 22:10:31  5-MIN KMSN 250410Z 24005KT 10SM CLR 00/M07 A2995 840 61 -700 240/05 RMK AO2
14837KMSN MSN20020124221509401/24/02 22:15:31  5-MIN KMSN 250415Z 23005KT 10SM CLR 00/M07 A2995 840 61 -700 230/05 RMK AO2
14837KMSN MSN20020124222009401/24/02 22:20:31  5-MIN KMSN 250420Z VRB04KT 10SM CLR 00/M06 A2995 840 63 -700 VRB/04 RMK AO2
14837KMSN MSN20020124222509401/24/02 22:25:31  5-MIN KMSN 250425Z 23005KT 10SM CLR 00/M06 A2995 840 63 -700 230/05 RMK AO2
14837KMSN MSN20020124223009501/24/02 22:30:31  5-MIN KMSN 250430Z 24004KT 10SM CLR M01/M06 A2995 840 66 -800 240/04 RMK AO2
14837KMSN MSN20020124223509501/24/02 22:35:31  5-MIN KMSN 250435Z VRB04KT 10SM CLR M01/M06 A2995 840 66 -800 VRB/04 RMK AO2
14837KMSN MSN20020124224009501/24/02 22:40:31  5-MIN KMSN 250440Z 24004KT 10SM CLR M01/M06 A2995 840 66 -800 230/04 RMK AO2
14837KMSN MSN20020124224509501/24/02 22:45:31  5-MIN KMSN 250445Z VRB05KT 10SM CLR M01/M06 A2995 830 66 -800 VRB/05 RMK AO2
14837KMSN MSN20020124225011201/24/02 22:50:31  5-MIN KMSN 250450Z 24005KT 10SM CLR M01/M06 A2995 830 66 -800 230/05 RMK AO2 SLP153 T10061061
14837KMSN MSN20020124225509501/24/02 22:55:31  5-MIN KMSN 250455Z 24005KT 10SM CLR M01/M06 A2995 830 66 -800 240/05 RMK AO2
14837KMSN MSN20020124230009501/24/02 23:00:31  5-MIN KMSN 250500Z 23005KT 10SM CLR M01/M06 A2995 840 66 -800 230/05 RMK AO2
14837KMSN MSN20020124230509501/24/02 23:05:31  5-MIN KMSN 250505Z VRB05KT 10SM CLR M01/M06 A2995 830 66 -800 VRB/05 RMK AO2
14837KMSN MSN20020124231009501/24/02 23:10:31  5-MIN KMSN 250510Z 23006KT 10SM CLR M01/M06 A2996 830 66 -800 230/06 RMK AO2
14837KMSN MSN20020124231509501/24/02 23:15:31  5-MIN KMSN 250515Z VRB05KT 10SM CLR M01/M06 A2996 830 66 -800 VRB/05 RMK AO2
14837KMSN MSN20020124232009501/24/02 23:20:31  5-MIN KMSN 250520Z 23005KT 10SM CLR M01/M06 A2996 830 66 -800 230/05 RMK AO2
14837KMSN MSN20020124232509501/24/02 23:25:31  5-MIN KMSN 250525Z 22005KT 10SM CLR M01/M07 A2996 830 63 -800 220/05 RMK AO2
14837KMSN MSN20020124233009501/24/02 23:30:31  5-MIN KMSN 250530Z 22005KT 10SM CLR M01/M07 A2996 830 63 -800 220/05 RMK AO2
14837KMSN MSN20020124233509501/24/02 23:35:31  5-MIN KMSN 250535Z 23006KT 10SM CLR M01/M07 A2996 830 63 -800 230/06 RMK AO2
14837KMSN MSN20020124234009501/24/02 23:40:31  5-MIN KMSN 250540Z 23007KT 10SM CLR M01/M07 A2996 830 63 -800 230/07 RMK AO2
14837KMSN MSN20020124234509501/24/02 23:45:31  5-MIN KMSN 250545Z 23006KT 10SM CLR M01/M07 A2996 820 63 -800 220/06 RMK AO2
14837KMSN MSN20020124235014001/24/02 23:50:31  5-MIN KMSN 250550Z 23006KT 10SM CLR M01/M07 A2997 820 63 -800 230/06 RMK AO2 SLP157 T10061067 10017 21006 400331022 58002
14837KMSN MSN20020124235509501/24/02 23:55:31  5-MIN KMSN 250555Z 23007KT 10SM CLR M01/M07 A2997 820 63 -800 230/07 RMK AO2
14837KMSN MSN20020125000009501/25/02 00:00:31  5-MIN KMSN 250600Z 22007KT 10SM CLR M01/M07 A2996 820 63 -800 220/07 RMK AO2
14837KMSN MSN20020125000509501/25/02 00:05:31  5-MIN KMSN 250605Z 22007KT 10SM CLR M01/M07 A2996 830 63 -800 220/07 RMK AO2
14837KMSN MSN20020125001009501/25/02 00:10:31  5-MIN KMSN 250610Z 23005KT 10SM CLR M01/M07 A2996 830 63 -800 220/05 RMK AO2
14837KMSN MSN20020125001509501/25/02 00:15:31  5-MIN KMSN 250615Z 23007KT 10SM CLR M01/M06 A2996 830 66 -800 230/07 RMK AO2
14837KMSN MSN20020125002009501/25/02 00:20:31  5-MIN KMSN 250620Z 23007KT 10SM CLR M01/M07 A2996 830 63 -800 230/07 RMK AO2
14837KMSN MSN20020125002509501/25/02 00:25:31  5-MIN KMSN 250625Z 22006KT 10SM CLR M01/M06 A2996 820 69 -900 220/06 RMK AO2
14837KMSN MSN20020125003009501/25/02 00:30:31  5-MIN KMSN 250630Z 22006KT 10SM CLR M01/M07 A2996 820 63 -800 220/06 RMK AO2
14837KMSN MSN20020125003509501/25/02 00:35:31  5-MIN KMSN 250635Z 22007KT 10SM CLR M01/M07 A2997 820 63 -800 220/07 RMK AO2
14837KMSN MSN20020125004009501/25/02 00:40:31  5-MIN KMSN 250640Z 23006KT 10SM CLR M01/M07 A2997 820 66 -900 230/06 RMK AO2
14837KMSN MSN20020125004509501/25/02 00:45:31  5-MIN KMSN 250645Z 23006KT 10SM CLR M01/M07 A2997 820 66 -900 230/06 RMK AO2
14837KMSN MSN20020125005011201/25/02 00:50:31  5-MIN KMSN 250650Z 22005KT 10SM CLR M01/M07 A2997 820 66 -900 220/05 RMK AO2 SLP158 T10111067
14837KMSN MSN20020125005509501/25/02 00:55:31  5-MIN KMSN 250655Z 23005KT 10SM CLR M01/M07 A2997 820 66 -900 230/05 RMK AO2
14837KMSN MSN20020125010009501/25/02 01:00:31  5-MIN KMSN 250700Z 23005KT 10SM CLR M01/M07 A2997 820 66 -900 230/05 RMK AO2
14837KMSN MSN20020125010509501/25/02 01:05:31  5-MIN KMSN 250705Z 24004KT 10SM CLR M01/M07 A2997 820 66 -900 240/04 RMK AO2
14837KMSN MSN20020125011009501/25/02 01:10:31  5-MIN KMSN 250710Z VRB04KT 10SM CLR M01/M07 A2997 820 66 -900 VRB/04 RMK AO2
14837KMSN MSN20020125011509501/25/02 01:15:31  5-MIN KMSN 250715Z 23003KT 10SM CLR M01/M07 A2997 820 66 -900 230/03 RMK AO2
14837KMSN MSN20020125012009501/25/02 01:20:31  5-MIN KMSN 250720Z VRB03KT 10SM CLR M02/M07 A2997 810 69 -900 VRB/03 RMK AO2
14837KMSN MSN20020125012509501/25/02 01:25:31  5-MIN KMSN 250725Z 24004KT 10SM CLR M01/M07 A2997 820 66 -900 240/04 RMK AO2
14837KMSN MSN20020125013009501/25/02 01:30:31  5-MIN KMSN 250730Z VRB03KT 10SM CLR M01/M07 A2997 820 66 -900 VRB/03 RMK AO2
14837KMSN MSN20020125013509501/25/02 01:35:31  5-MIN KMSN 250735Z 22004KT 10SM CLR M01/M07 A2997 820 66 -900 220/04 RMK AO2
14837KMSN MSN20020125014009501/25/02 01:40:31  5-MIN KMSN 250740Z 20004KT 10SM CLR M01/M07 A2997 820 66 -900 200/04 RMK AO2
14837KMSN MSN20020125014509501/25/02 01:45:31  5-MIN KMSN 250745Z 22004KT 10SM CLR M02/M07 A2997 820 69 -900 210/04 RMK AO2
14837KMSN MSN20020125015011201/25/02 01:50:31  5-MIN KMSN 250750Z 21004KT 10SM CLR M02/M07 A2997 820 69 -900 210/04 RMK AO2 SLP157 T10171067
14837KMSN MSN20020125015509501/25/02 01:55:31  5-MIN KMSN 250755Z 22004KT 10SM CLR M02/M07 A2997 820 69 -900 220/04 RMK AO2
14837KMSN MSN20020125020009501/25/02 02:00:31  5-MIN KMSN 250800Z 23003KT 10SM CLR M02/M07 A2997 820 69 -900 230/03 RMK AO2
14837KMSN MSN20020125020509501/25/02 02:05:31  5-MIN KMSN 250805Z 22003KT 10SM CLR M02/M06 A2997 820 72 -900 220/03 RMK AO2
14837KMSN MSN20020125021009501/25/02 02:10:31  5-MIN KMSN 250810Z 22004KT 10SM CLR M02/M07 A2997 820 69 -900 220/04 RMK AO2
14837KMSN MSN20020125021509501/25/02 02:15:31  5-MIN KMSN 250815Z 24005KT 10SM CLR M02/M07 A2997 820 69 -900 230/05 RMK AO2
14837KMSN MSN20020125022009501/25/02 02:20:31  5-MIN KMSN 250820Z VRB04KT 10SM CLR M02/M07 A2997 820 69 -900 VRB/04 RMK AO2
14837KMSN MSN20020125022509501/25/02 02:25:31  5-MIN KMSN 250825Z VRB04KT 10SM CLR M01/M07 A2997 820 66 -900 VRB/04 RMK AO2
14837KMSN MSN20020125023009501/25/02 02:30:31  5-MIN KMSN 250830Z VRB03KT 10SM CLR M02/M07 A2997 820 69 -900 VRB/03 RMK AO2
14837KMSN MSN20020125023509501/25/02 02:35:31  5-MIN KMSN 250835Z VRB05KT 10SM CLR M01/M05 A2997 820 75 -900 VRB/05 RMK AO2
14837KMSN MSN20020125024009501/25/02 02:40:31  5-MIN KMSN 250840Z VRB06KT 10SM CLR M01/M05 A2997 820 75 -900 VRB/06 RMK AO2
14837KMSN MSN20020125024509501/25/02 02:45:31  5-MIN KMSN 250845Z 23005KT 10SM CLR M01/M08 A2997 820 58 -900 220/05 RMK AO2
14837KMSN MSN20020125025011801/25/02 02:50:31  5-MIN KMSN 250850Z 23004KT 10SM CLR M01/M08 A2997 820 58 -900 230/04 RMK AO2 SLP158 T10111083 53010
14837KMSN MSN20020125025509501/25/02 02:55:31  5-MIN KMSN 250855Z VRB03KT 10SM CLR M01/M08 A2998 810 60 -900 VRB/03 RMK AO2
14837KMSN MSN20020125030009501/25/02 03:00:31  5-MIN KMSN 250900Z 20003KT 10SM CLR M02/M08 A2998 810 63 -900 200/03 RMK AO2
14837KMSN MSN20020125030509501/25/02 03:05:31  5-MIN KMSN 250905Z VRB03KT 10SM CLR M02/M07 A2997 810 66 -900 VRB/03 RMK AO2
14837KMSN MSN20020125031009601/25/02 03:10:31  5-MIN KMSN 250910Z 21004KT 10SM CLR M02/M07 A2997 820 72 -1000 210/04 RMK AO2
14837KMSN MSN20020125031509501/25/02 03:15:31  5-MIN KMSN 250915Z 22004KT 10SM CLR M02/M07 A2997 810 69 -900 210/04 RMK AO2
14837KMSN MSN20020125032009601/25/02 03:20:31  5-MIN KMSN 250920Z 22004KT 10SM CLR M02/M07 A2998 810 72 -1000 220/04 RMK AO2
14837KMSN MSN20020125032509601/25/02 03:25:31  5-MIN KMSN 250925Z 21004KT 10SM CLR M02/M07 A2998 810 72 -1000 210/04 RMK AO2
14837KMSN MSN20020125033009601/25/02 03:30:31  5-MIN KMSN 250930Z 21004KT 10SM CLR M02/M07 A2998 810 72 -1000 210/04 RMK AO2
14837KMSN MSN20020125033509601/25/02 03:35:31  5-MIN KMSN 250935Z 22006KT 10SM CLR M02/M07 A2997 810 72 -1000 220/06 RMK AO2
14837KMSN MSN20020125034009601/25/02 03:40:31  5-MIN KMSN 250940Z 21005KT 10SM CLR M02/M07 A2997 820 72 -1000 210/05 RMK AO2
14837KMSN MSN20020125034509601/25/02 03:45:31  5-MIN KMSN 250945Z 22005KT 10SM CLR M02/M07 A2997 820 72 -1000 220/05 RMK AO2
14837KMSN MSN20020125035011301/25/02 03:50:31  5-MIN KMSN 250950Z 22004KT 10SM CLR M02/M07 A2997 820 72 -1000 220/04 RMK AO2 SLP158 T10221067
14837KMSN MSN20020125035509601/25/02 03:55:31  5-MIN KMSN 250955Z VRB03KT 10SM CLR M02/M07 A2997 820 72 -1000 VRB/03 RMK AO2
14837KMSN MSN20020125040009601/25/02 04:00:31  5-MIN KMSN 251000Z 22004KT 10SM CLR M02/M07 A2997 820 72 -1000 220/04 RMK AO2
14837KMSN MSN20020125040509601/25/02 04:05:31  5-MIN KMSN 251005Z VRB04KT 10SM CLR M02/M07 A2997 820 72 -1000 VRB/04 RMK AO2
14837KMSN MSN20020125041009601/25/02 04:10:31  5-MIN KMSN 251010Z 23004KT 10SM CLR M02/M07 A2997 810 72 -1000 220/04 RMK AO2
14837KMSN MSN20020125041509601/25/02 04:15:31  5-MIN KMSN 251015Z 23003KT 10SM CLR M02/M07 A2998 810 72 -1000 220/03 RMK AO2
14837KMSN MSN20020125042009601/25/02 04:20:31  5-MIN KMSN 251020Z VRB04KT 10SM CLR M02/M07 A2998 810 72 -1000 VRB/04 RMK AO2
14837KMSN MSN20020125042509601/25/02 04:25:31  5-MIN KMSN 251025Z 22006KT 10SM CLR M02/M07 A2998 810 72 -1000 220/06 RMK AO2
14837KMSN MSN20020125043009601/25/02 04:30:31  5-MIN KMSN 251030Z 22005KT 10SM CLR M02/M07 A2998 810 72 -1000 220/05 RMK AO2
14837KMSN MSN20020125043509601/25/02 04:35:31  5-MIN KMSN 251035Z 23005KT 10SM CLR M02/M07 A2998 810 72 -1000 230/05 RMK AO2
14837KMSN MSN20020125044009601/25/02 04:40:31  5-MIN KMSN 251040Z 22005KT 10SM CLR M02/M07 A2998 810 72 -1000 220/05 RMK AO2
14837KMSN MSN20020125044509601/25/02 04:45:31  5-MIN KMSN 251045Z 22005KT 10SM CLR M02/M07 A2998 810 72 -1000 220/05 RMK AO2
14837KMSN MSN20020125045011201/25/02 04:50:31  5-MIN KMSN 251050Z 22007KT 10SM CLR M02/M07 A2997 810 69 -900 220/07 RMK AO2 SLP160 T10171067
14837KMSN MSN20020125045509501/25/02 04:55:31  5-MIN KMSN 251055Z 22008KT 10SM CLR M02/M07 A2998 810 69 -900 220/08 RMK AO2
14837KMSN MSN20020125050009501/25/02 05:00:31  5-MIN KMSN 251100Z 22008KT 10SM CLR M02/M07 A2997 810 69 -900 220/08 RMK AO2
14837KMSN MSN20020125050509501/25/02 05:05:31  5-MIN KMSN 251105Z 22009KT 10SM CLR M02/M07 A2998 810 69 -900 220/09 RMK AO2
14837KMSN MSN20020125051009501/25/02 05:10:31  5-MIN KMSN 251110Z 23007KT 10SM CLR M02/M07 A2997 810 69 -900 230/07 RMK AO2
14837KMSN MSN20020125051509501/25/02 05:15:31  5-MIN KMSN 251115Z 22008KT 10SM CLR M02/M07 A2997 820 69 -900 220/08 RMK AO2
14837KMSN MSN20020125052009501/25/02 05:20:31  5-MIN KMSN 251120Z 22007KT 10SM CLR M02/M07 A2997 820 66 -900 220/07 RMK AO2
14837KMSN MSN20020125052509501/25/02 05:25:31  5-MIN KMSN 251125Z 22009KT 10SM CLR M02/M07 A2997 820 66 -900 220/09 RMK AO2
14837KMSN MSN20020125053009501/25/02 05:30:31  5-MIN KMSN 251130Z 22010KT 10SM CLR M02/M07 A2997 820 69 -900 220/10 RMK AO2
14837KMSN MSN20020125053509501/25/02 05:35:31  5-MIN KMSN 251135Z 22010KT 10SM CLR M02/M07 A2997 820 66 -900 220/10 RMK AO2
14837KMSN MSN20020125054009501/25/02 05:40:31  5-MIN KMSN 251140Z 22008KT 10SM CLR M02/M07 A2997 820 66 -900 220/08 RMK AO2
14837KMSN MSN20020125054509501/25/02 05:45:31  5-MIN KMSN 251145Z 22008KT 10SM CLR M02/M07 A2996 830 66 -900 220/08 RMK AO2
14837KMSN MSN20020125055013001/25/02 05:50:31  5-MIN KMSN 251150Z 22008KT 10SM CLR M02/M07 A2996 820 66 -900 220/08 RMK AO2 SLP156 T10171072 11006 21022 53003
14837KMSN MSN20020125055509501/25/02 05:55:31  5-MIN KMSN 251155Z 22007KT 10SM CLR M02/M07 A2997 820 66 -900 220/07 RMK AO2
14837KMSN MSN20020125060009501/25/02 06:00:31  5-MIN KMSN 251200Z 22007KT 10SM CLR M02/M07 A2997 820 66 -900 220/07 RMK AO2
14837KMSN MSN20020125060509501/25/02 06:05:31  5-MIN KMSN 251205Z 22007KT 10SM CLR M02/M07 A2997 820 66 -900 210/07 RMK AO2
14837KMSN MSN20020125061009501/25/02 06:10:31  5-MIN KMSN 251210Z 22008KT 10SM CLR M02/M07 A2997 820 66 -900 220/08 RMK AO2
14837KMSN MSN20020125061509501/25/02 06:15:31  5-MIN KMSN 251215Z 22007KT 10SM CLR M02/M07 A2997 820 66 -900 220/07 RMK AO2
14837KMSN MSN20020125062009501/25/02 06:20:31  5-MIN KMSN 251220Z 22008KT 10SM CLR M02/M07 A2997 820 66 -900 210/08 RMK AO2
14837KMSN MSN20020125062509501/25/02 06:25:31  5-MIN KMSN 251225Z 21008KT 10SM CLR M01/M08 A2997 820 60 -900 210/08 RMK AO2
14837KMSN MSN20020125063009501/25/02 06:30:31  5-MIN KMSN 251230Z 22009KT 10SM CLR M01/M08 A2997 820 60 -900 210/09 RMK AO2
14837KMSN MSN20020125063509501/25/02 06:35:31  5-MIN KMSN 251235Z 22009KT 10SM CLR M01/M08 A2997 820 60 -900 220/09 RMK AO2
14837KMSN MSN20020125064009501/25/02 06:40:31  5-MIN KMSN 251240Z 22007KT 10SM CLR M01/M08 A2997 820 60 -900 220/07 RMK AO2
14837KMSN MSN20020125064509501/25/02 06:45:31  5-MIN KMSN 251245Z 21007KT 10SM CLR M02/M08 A2997 820 63 -900 210/07 RMK AO2
14837KMSN MSN20020125065011201/25/02 06:50:31  5-MIN KMSN 251250Z 22007KT 10SM CLR M02/M08 A2997 810 63 -900 220/07 RMK AO2 SLP160 T10171078
14837KMSN MSN20020125065509501/25/02 06:55:31  5-MIN KMSN 251255Z 20006KT 10SM CLR M02/M08 A2997 820 63 -900 200/06 RMK AO2
14837KMSN MSN20020125070009501/25/02 07:00:31  5-MIN KMSN 251300Z 20007KT 10SM CLR M02/M08 A2997 820 63 -900 200/07 RMK AO2
14837KMSN MSN20020125090509701/25/02 09:05:31  5-MIN KMSN 251505Z 21010KT 10SM BKN120 02/M08 A2994 850 47 -500 210/10 RMK AO2
14837KMSN MSN20020125091009701/25/02 09:10:31  5-MIN KMSN 251510Z 21009KT 10SM BKN120 02/M08 A2994 850 45 -400 210/09 RMK AO2
14837KMSN MSN20020125091510301/25/02 09:15:31  5-MIN KMSN 251515Z 21011G18KT 10SM BKN120 03/M08 A2994 850 44 -300 210/11G18 RMK AO2
14837KMSN MSN20020125092010301/25/02 09:20:31  5-MIN KMSN 251520Z 22010G18KT 10SM SCT120 03/M08 A2994 840 44 -300 220/10G18 RMK AO2
14837KMSN MSN20020125092510301/25/02 09:25:31  5-MIN KMSN 251525Z 22012G18KT 10SM SCT120 03/M08 A2994 840 42 -300 220/12G18 RMK AO2
14837KMSN MSN20020125093010301/25/02 09:30:31  5-MIN KMSN 251530Z 22012G18KT 10SM SCT120 03/M08 A2995 840 42 -300 210/12G18 RMK AO2
14837KMSN MSN20020125093509701/25/02 09:35:31  5-MIN KMSN 251535Z 22009KT 10SM SCT120 03/M08 A2995 840 44 -300 220/09 RMK AO2
14837KMSN MSN20020125094009701/25/02 09:40:31  5-MIN KMSN 251540Z 22012KT 10SM SCT120 04/M08 A2995 840 42 -200 220/12 RMK AO2
14837KMSN MSN20020125094511901/25/02 09:45:31  5-MIN KMSN 251545Z 22012G18KT 190V250 10SM SCT120 04/M08 A2994 840 42 -200 220/12G18 190V250 RMK AO2
14837KMSN MSN20020125095012001/25/02 09:50:31  5-MIN KMSN 251550Z 22013G18KT 10SM SCT120 04/M08 A2994 840 41 -100 220/13G18 RMK AO2 SLP148 T00441078
14837KMSN MSN20020125095510001/25/02 09:55:31  5-MIN KMSN 251555Z 22011G18KT 10SM CLR 04/M08 A2994 840 41 -100 220/11G18 RMK AO2
14837KMSN MSN20020125100010301/25/02 10:00:31  5-MIN KMSN 251600Z 23013G18KT 10SM SCT120 04/M08 A2994 840 39 -100 220/13G18 RMK AO2
14837KMSN MSN20020125100510301/25/02 10:05:31  5-MIN KMSN 251605Z 22012G22KT 10SM SCT120 05/M08 A2994 840 37 -100 220/12G22 RMK AO2
14837KMSN MSN20020125101010301/25/02 10:10:31  5-MIN KMSN 251610Z 23011G22KT 10SM SCT120 05/M08 A2994 840 37 -100 230/11G22 RMK AO2
14837KMSN MSN20020125101510301/25/02 10:15:31  5-MIN KMSN 251615Z 22012G19KT 10SM SCT120 05/M08 A2995 840 39 -100 220/12G19 RMK AO2
14837KMSN MSN20020125102010301/25/02 10:20:31  5-MIN KMSN 251620Z 23011G19KT 10SM SCT120 05/M08 A2995 840 37 -100 220/11G19 RMK AO2
14837KMSN MSN20020125102511601/25/02 10:25:31  5-MIN KMSN 251625Z 22010G16KT 190V260 10SM SCT120 06/M08 A2995 840 36 0 220/10G16 190V260 RMK AO2
14837KMSN MSN20020125103010001/25/02 10:30:31  5-MIN KMSN 251630Z 22010G17KT 10SM FEW120 06/M08 A2995 840 37 0 220/10G17 RMK AO2
14837KMSN MSN20020125103510001/25/02 10:35:31  5-MIN KMSN 251635Z 21010G17KT 10SM FEW120 06/M08 A2995 840 36 0 210/10G17 RMK AO2
14837KMSN MSN20020125104010001/25/02 10:40:31  5-MIN KMSN 251640Z 22011G21KT 10SM FEW120 06/M08 A2995 840 35 0 220/11G21 RMK AO2
14837KMSN MSN20020125104510001/25/02 10:45:31  5-MIN KMSN 251645Z 22011G21KT 10SM FEW120 06/M08 A2994 840 35 0 220/11G21 RMK AO2
14837KMSN MSN20020125105011701/25/02 10:50:31  5-MIN KMSN 251650Z 22012G20KT 10SM FEW120 06/M08 A2994 850 35 0 220/12G20 RMK AO2 SLP146 T00611083
14837KMSN MSN20020125105509901/25/02 10:55:31  5-MIN KMSN 251655Z 22013G19KT 10SM CLR 07/M08 A2994 850 33 100 220/13G19 RMK AO2
14837KMSN MSN20020125110009901/25/02 11:00:31  5-MIN KMSN 251700Z 21012G19KT 10SM CLR 07/M08 A2994 850 33 100 210/12G19 RMK AO2
14837KMSN MSN20020125110509901/25/02 11:05:31  5-MIN KMSN 251705Z 22013G18KT 10SM CLR 07/M08 A2994 850 33 100 220/13G18 RMK AO2
14837KMSN MSN20020125111011501/25/02 11:10:31  5-MIN KMSN 251710Z 22013G19KT 190V250 10SM CLR 07/M08 A2994 850 32 200 220/13G19 190V250 RMK AO2
14837KMSN MSN20020125111509901/25/02 11:15:31  5-MIN KMSN 251715Z 20011G19KT 10SM CLR 07/M08 A2993 850 32 200 200/11G19 RMK AO2
14837KMSN MSN20020125112009901/25/02 11:20:31  5-MIN KMSN 251720Z 21012G17KT 10SM CLR 07/M08 A2993 860 32 200 210/12G17 RMK AO2
14837KMSN MSN20020125112509901/25/02 11:25:31  5-MIN KMSN 251725Z 21011G18KT 10SM CLR 07/M08 A2993 860 33 200 210/11G18 RMK AO2
14837KMSN MSN20020125113009901/25/02 11:30:31  5-MIN KMSN 251730Z 21012G18KT 10SM CLR 07/M08 A2992 860 32 200 210/12G18 RMK AO2
14837KMSN MSN20020125113509901/25/02 11:35:31  5-MIN KMSN 251735Z 21011G18KT 10SM CLR 08/M08 A2992 870 32 200 210/11G18 RMK AO2
14837KMSN MSN20020125114009901/25/02 11:40:31  5-MIN KMSN 251740Z 22013G18KT 10SM CLR 08/M08 A2991 870 32 300 220/13G18 RMK AO2
14837KMSN MSN20020125114509901/25/02 11:45:31  5-MIN KMSN 251745Z 22013G20KT 10SM CLR 08/M08 A2991 870 31 300 220/13G20 RMK AO2
14837KMSN MSN20020125115013401/25/02 11:50:31  5-MIN KMSN 251750Z 21012G20KT 10SM CLR 08/M08 A2991 880 30 300 210/12G20 RMK AO2 SLP134 T00831083 10083 21022 58007
14837KMSN MSN20020125115509901/25/02 11:55:31  5-MIN KMSN 251755Z 22013G19KT 10SM CLR 08/M08 A2990 880 30 300 220/13G19 RMK AO2
14837KMSN MSN20020125120009901/25/02 12:00:31  5-MIN KMSN 251800Z 22014G19KT 10SM CLR 09/M08 A2990 880 30 400 220/14G19 RMK AO2
14837KMSN MSN20020125120509901/25/02 12:05:31  5-MIN KMSN 251805Z 22015G20KT 10SM CLR 09/M08 A2989 890 28 400 220/15G20 RMK AO2
14837KMSN MSN20020125121009901/25/02 12:10:31  5-MIN KMSN 251810Z 23015G21KT 10SM CLR 09/M08 A2989 890 28 400 230/15G21 RMK AO2
14837KMSN MSN20020125121509901/25/02 12:15:31  5-MIN KMSN 251815Z 22015G21KT 10SM CLR 09/M08 A2989 890 30 400 220/15G21 RMK AO2
14837KMSN MSN20020125122009901/25/02 12:20:31  5-MIN KMSN 251820Z 22010G21KT 10SM CLR 09/M08 A2989 890 30 400 220/10G21 RMK AO2
14837KMSN MSN20020125122509901/25/02 12:25:31  5-MIN KMSN 251825Z 22011G19KT 10SM CLR 09/M08 A2989 890 30 400 220/11G19 RMK AO2
14837KMSN MSN20020125123009901/25/02 12:30:31  5-MIN KMSN 251830Z 23010G21KT 10SM CLR 09/M08 A2989 890 30 400 220/10G21 RMK AO2
14837KMSN MSN20020125123509901/25/02 12:35:31  5-MIN KMSN 251835Z 23013G21KT 10SM CLR 09/M08 A2989 890 29 500 230/13G21 RMK AO2
14837KMSN MSN20020125124009901/25/02 12:40:31  5-MIN KMSN 251840Z 23011G19KT 10SM CLR 09/M08 A2989 900 29 500 230/11G19 RMK AO2
14837KMSN MSN20020125124509901/25/02 12:45:31  5-MIN KMSN 251845Z 23012G19KT 10SM CLR 09/M08 A2988 900 30 400 230/12G19 RMK AO2
14837KMSN MSN20020125125011601/25/02 12:50:31  5-MIN KMSN 251850Z 22010G19KT 10SM CLR 09/M08 A2988 900 29 500 220/10G19 RMK AO2 SLP126 T00941078
14837KMSN MSN20020125125509901/25/02 12:55:31  5-MIN KMSN 251855Z 23013G22KT 10SM CLR 09/M08 A2988 900 29 500 230/13G22 RMK AO2
14837KMSN MSN20020125130009901/25/02 13:00:31  5-MIN KMSN 251900Z 22012G23KT 10SM CLR 09/M08 A2988 900 29 500 220/12G23 RMK AO2
14837KMSN MSN20020125130509901/25/02 13:05:31  5-MIN KMSN 251905Z 22015G23KT 10SM CLR 10/M08 A2988 900 28 600 220/15G23 RMK AO2
14837KMSN MSN20020125131009901/25/02 13:10:31  5-MIN KMSN 251910Z 23012G20KT 10SM CLR 10/M08 A2988 900 28 600 220/12G20 RMK AO2
14837KMSN MSN20020125131509901/25/02 13:15:31  5-MIN KMSN 251915Z 22010G23KT 10SM CLR 10/M08 A2987 910 28 600 220/10G23 RMK AO2
14837KMSN MSN20020125132009901/25/02 13:20:31  5-MIN KMSN 251920Z 22010G25KT 10SM CLR 10/M08 A2987 910 28 600 220/10G25 RMK AO2
14837KMSN MSN20020125132509901/25/02 13:25:31  5-MIN KMSN 251925Z 22010G25KT 10SM CLR 10/M07 A2987 910 29 600 220/10G25 RMK AO2
14837KMSN MSN20020125133009901/25/02 13:30:31  5-MIN KMSN 251930Z 22013G20KT 10SM CLR 10/M07 A2987 910 29 600 220/13G20 RMK AO2
14837KMSN MSN20020125133509901/25/02 13:35:31  5-MIN KMSN 251935Z 21010G21KT 10SM CLR 11/M08 A2987 910 27 600 210/10G21 RMK AO2
14837KMSN MSN20020125134009901/25/02 13:40:31  5-MIN KMSN 251940Z 22014G21KT 10SM CLR 11/M08 A2986 920 27 600 220/14G21 RMK AO2
14837KMSN MSN20020125134509901/25/02 13:45:31  5-MIN KMSN 251945Z 22014G21KT 10SM CLR 11/M08 A2987 920 27 600 220/14G21 RMK AO2
14837KMSN MSN20020125135011601/25/02 13:50:31  5-MIN KMSN 251950Z 22011G20KT 10SM CLR 11/M08 A2986 920 27 600 220/11G20 RMK AO2 SLP119 T01061078
14837KMSN MSN20020125135509901/25/02 13:55:31  5-MIN KMSN 251955Z 22011G18KT 10SM CLR 11/M07 A2986 920 28 600 220/11G18 RMK AO2
14837KMSN MSN20020125140011501/25/02 14:00:31  5-MIN KMSN 252000Z 22012G20KT 190V250 10SM CLR 11/M08 A2986 920 27 600 210/12G20 190V250 RMK AO2
14837KMSN MSN20020125140509901/25/02 14:05:31  5-MIN KMSN 252005Z 23013G20KT 10SM CLR 11/M08 A2986 920 27 600 230/13G20 RMK AO2
14837KMSN MSN20020125141009901/25/02 14:10:31  5-MIN KMSN 252010Z 21010G20KT 10SM CLR 11/M08 A2986 920 27 600 210/10G20 RMK AO2
14837KMSN MSN20020125141509901/25/02 14:15:31  5-MIN KMSN 252015Z 22014G20KT 10SM CLR 11/M08 A2986 920 26 700 220/14G20 RMK AO2
14837KMSN MSN20020125142009901/25/02 14:20:31  5-MIN KMSN 252020Z 22013G20KT 10SM CLR 11/M08 A2986 920 26 700 220/13G20 RMK AO2
14837KMSN MSN20020125142509901/25/02 14:25:31  5-MIN KMSN 252025Z 21008G17KT 10SM CLR 11/M08 A2985 930 26 700 210/08G17 RMK AO2
14837KMSN MSN20020125143009901/25/02 14:30:31  5-MIN KMSN 252030Z 21011G17KT 10SM CLR 11/M07 A2985 930 27 700 210/11G17 RMK AO2
14837KMSN MSN20020125143509301/25/02 14:35:31  5-MIN KMSN 252035Z 20011KT 10SM CLR 11/M07 A2985 930 27 700 200/11 RMK AO2
14837KMSN MSN20020125144009901/25/02 14:40:31  5-MIN KMSN 252040Z 21012G17KT 10SM CLR 11/M07 A2985 930 27 700 210/12G17 RMK AO2
14837KMSN MSN20020125144509901/25/02 14:45:31  5-MIN KMSN 252045Z 21010G17KT 10SM CLR 11/M07 A2985 930 27 700 210/10G17 RMK AO2
14837KMSN MSN20020125145012201/25/02 14:50:31  5-MIN KMSN 252050Z 21011G17KT 10SM CLR 11/M07 A2985 930 27 700 210/11G17 RMK AO2 SLP115 T01111072 58012
14837KMSN MSN20020125145509901/25/02 14:55:31  5-MIN KMSN 252055Z 20011G17KT 10SM CLR 11/M07 A2985 930 27 700 200/11G17 RMK AO2
14837KMSN MSN20020125150009901/25/02 15:00:31  5-MIN KMSN 252100Z 21012G20KT 10SM CLR 11/M08 A2985 930 26 700 210/12G20 RMK AO2
14837KMSN MSN20020125150509901/25/02 15:05:31  5-MIN KMSN 252105Z 21011G20KT 10SM CLR 11/M07 A2985 930 27 700 210/11G20 RMK AO2
14837KMSN MSN20020125151009301/25/02 15:10:31  5-MIN KMSN 252110Z 21012KT 10SM CLR 11/M08 A2985 930 26 700 210/12 RMK AO2
14837KMSN MSN20020125151509901/25/02 15:15:31  5-MIN KMSN 252115Z 21011G18KT 10SM CLR 11/M07 A2985 930 27 700 210/11G18 RMK AO2
14837KMSN MSN20020125152009901/25/02 15:20:31  5-MIN KMSN 252120Z 21011G18KT 10SM CLR 11/M07 A2985 930 27 700 210/11G18 RMK AO2
14837KMSN MSN20020125152509301/25/02 15:25:31  5-MIN KMSN 252125Z 21009KT 10SM CLR 11/M07 A2985 930 27 700 210/09 RMK AO2
14837KMSN MSN20020125153009301/25/02 15:30:31  5-MIN KMSN 252130Z 20009KT 10SM CLR 11/M07 A2985 930 27 700 200/09 RMK AO2
14837KMSN MSN20020125153509301/25/02 15:35:31  5-MIN KMSN 252135Z 20008KT 10SM CLR 11/M07 A2985 930 27 700 200/08 RMK AO2
14837KMSN MSN20020125154009301/25/02 15:40:31  5-MIN KMSN 252140Z 20009KT 10SM CLR 11/M07 A2985 930 28 700 200/09 RMK AO2
14837KMSN MSN20020125154509301/25/02 15:45:31  5-MIN KMSN 252145Z 21008KT 10SM CLR 11/M07 A2984 940 27 700 210/08 RMK AO2
14837KMSN MSN20020125155011001/25/02 15:50:31  5-MIN KMSN 252150Z 20009KT 10SM CLR 11/M07 A2984 940 28 700 200/09 RMK AO2 SLP111 T01061072
14837KMSN MSN20020125155509301/25/02 15:55:31  5-MIN KMSN 252155Z 20008KT 10SM CLR 11/M07 A2984 940 28 700 200/08 RMK AO2
14837KMSN MSN20020125160009301/25/02 16:00:31  5-MIN KMSN 252200Z 20008KT 10SM CLR 11/M07 A2984 940 29 700 200/08 RMK AO2
14837KMSN MSN20020125160509301/25/02 16:05:31  5-MIN KMSN 252205Z 21008KT 10SM CLR 11/M07 A2984 940 28 700 210/08 RMK AO2
14837KMSN MSN20020125161009301/25/02 16:10:31  5-MIN KMSN 252210Z 21008KT 10SM CLR 11/M07 A2984 940 28 700 210/08 RMK AO2
14837KMSN MSN20020125161509301/25/02 16:15:31  5-MIN KMSN 252215Z 21010KT 10SM CLR 11/M07 A2984 940 27 700 210/10 RMK AO2
14837KMSN MSN20020125162009301/25/02 16:20:31  5-MIN KMSN 252220Z 21009KT 10SM CLR 11/M08 A2984 940 26 700 210/09 RMK AO2
14837KMSN MSN20020125162509301/25/02 16:25:31  5-MIN KMSN 252225Z 21008KT 10SM CLR 11/M08 A2984 940 27 700 210/08 RMK AO2
14837KMSN MSN20020125163009901/25/02 16:30:31  5-MIN KMSN 252230Z 21013G19KT 10SM CLR 11/M08 A2984 940 26 700 210/13G19 RMK AO2
14837KMSN MSN20020125163509901/25/02 16:35:31  5-MIN KMSN 252235Z 22011G19KT 10SM CLR 11/M08 A2984 940 26 700 220/11G19 RMK AO2
14837KMSN MSN20020125164009301/25/02 16:40:31  5-MIN KMSN 252240Z 22010KT 10SM CLR 11/M08 A2984 940 25 700 220/10 RMK AO2
14837KMSN MSN20020125164509901/25/02 16:45:31  5-MIN KMSN 252245Z 22012G16KT 10SM CLR 11/M08 A2984 940 25 700 220/12G16 RMK AO2
14837KMSN MSN20020125165011601/25/02 16:50:31  5-MIN KMSN 252250Z 21008G16KT 10SM CLR 11/M08 A2984 940 25 700 210/08G16 RMK AO2 SLP112 T01061083
14837KMSN MSN20020125165509901/25/02 16:55:31  5-MIN KMSN 252255Z 22010G15KT 10SM CLR 11/M08 A2984 940 25 700 220/10G15 RMK AO2
14837KMSN MSN20020125170009301/25/02 17:00:31  5-MIN KMSN 252300Z 22010KT 10SM CLR 11/M08 A2984 940 25 700 220/10 RMK AO2
14837KMSN MSN20020125170509301/25/02 17:05:31  5-MIN KMSN 252305Z 22011KT 10SM CLR 11/M08 A2985 930 25 700 220/11 RMK AO2
14837KMSN MSN20020125171009301/25/02 17:10:31  5-MIN KMSN 252310Z 22010KT 10SM CLR 11/M08 A2985 930 25 700 220/10 RMK AO2
14837KMSN MSN20020125171509301/25/02 17:15:31  5-MIN KMSN 252315Z 22009KT 10SM CLR 11/M08 A2984 940 25 700 220/09 RMK AO2
14837KMSN MSN20020125172009301/25/02 17:20:31  5-MIN KMSN 252320Z 21009KT 10SM CLR 11/M08 A2984 930 25 700 210/09 RMK AO2
14837KMSN MSN20020125172509301/25/02 17:25:31  5-MIN KMSN 252325Z 21008KT 10SM CLR 10/M08 A2984 940 26 600 210/08 RMK AO2
14837KMSN MSN20020125173009301/25/02 17:30:31  5-MIN KMSN 252330Z 21009KT 10SM CLR 09/M08 A2985 930 27 500 210/09 RMK AO2
14837KMSN MSN20020125173509301/25/02 17:35:31  5-MIN KMSN 252335Z 22009KT 10SM CLR 09/M08 A2985 930 29 500 220/09 RMK AO2
14837KMSN MSN20020125174009901/25/02 17:40:31  5-MIN KMSN 252340Z 21010G15KT 10SM CLR 10/M08 A2985 930 26 600 210/10G15 RMK AO2
14837KMSN MSN20020125174509301/25/02 17:45:31  5-MIN KMSN 252345Z 21009KT 10SM CLR 09/M08 A2985 930 27 500 210/09 RMK AO2
14837KMSN MSN20020125175012801/25/02 17:50:31  5-MIN KMSN 252350Z 22009KT 10SM CLR 09/M08 A2985 930 27 500 210/09 RMK AO2 SLP116 T00941083 10111 20083 56019
14837KMSN MSN20020125175509301/25/02 17:55:31  5-MIN KMSN 252355Z 21009KT 10SM CLR 09/M08 A2985 930 27 500 210/09 RMK AO2
14837KMSN MSN20020125180009301/25/02 18:00:31  5-MIN KMSN 260000Z 21009KT 10SM CLR 09/M08 A2985 930 27 500 210/09 RMK AO2
14837KMSN MSN20020125180509301/25/02 18:05:31  5-MIN KMSN 260005Z 21010KT 10SM CLR 09/M08 A2985 930 28 500 210/10 RMK AO2
14837KMSN MSN20020125181009301/25/02 18:10:31  5-MIN KMSN 260010Z 21010KT 10SM CLR 09/M08 A2985 930 30 500 210/10 RMK AO2
14837KMSN MSN20020125181509301/25/02 18:15:31  5-MIN KMSN 260015Z 21009KT 10SM CLR 09/M08 A2985 930 30 500 210/09 RMK AO2
14837KMSN MSN20020125182009301/25/02 18:20:31  5-MIN KMSN 260020Z 21010KT 10SM CLR 09/M08 A2985 930 30 500 210/10 RMK AO2
14837KMSN MSN20020125182509901/25/02 18:25:31  5-MIN KMSN 260025Z 21011G16KT 10SM CLR 09/M08 A2985 930 30 500 210/11G16 RMK AO2
14837KMSN MSN20020125183009901/25/02 18:30:31  5-MIN KMSN 260030Z 21011G18KT 10SM CLR 09/M08 A2985 930 30 500 210/11G18 RMK AO2
14837KMSN MSN20020125183509901/25/02 18:35:31  5-MIN KMSN 260035Z 21011G18KT 10SM CLR 09/M08 A2985 930 30 500 210/11G18 RMK AO2
14837KMSN MSN20020125184009301/25/02 18:40:31  5-MIN KMSN 260040Z 21010KT 10SM CLR 09/M08 A2985 930 30 500 210/10 RMK AO2
14837KMSN MSN20020125184509901/25/02 18:45:31  5-MIN KMSN 260045Z 21009G18KT 10SM CLR 09/M08 A2985 930 30 500 210/09G18 RMK AO2
14837KMSN MSN20020125185011601/25/02 18:50:31  5-MIN KMSN 260050Z 21011G18KT 10SM CLR 08/M08 A2986 920 31 400 210/11G18 RMK AO2 SLP118 T00831078
14837KMSN MSN20020125185509901/25/02 18:55:31  5-MIN KMSN 260055Z 21012G19KT 10SM CLR 09/M08 A2986 920 28 400 210/12G19 RMK AO2
14837KMSN MSN20020125190009901/25/02 19:00:31  5-MIN KMSN 260100Z 21009G19KT 10SM CLR 08/M08 A2986 920 30 400 210/09G19 RMK AO2
14837KMSN MSN20020125190509901/25/02 19:05:31  5-MIN KMSN 260105Z 22011G17KT 10SM CLR 08/M08 A2986 920 30 400 220/11G17 RMK AO2
14837KMSN MSN20020125191009901/25/02 19:10:31  5-MIN KMSN 260110Z 21011G17KT 10SM CLR 08/M08 A2986 920 30 400 210/11G17 RMK AO2
14837KMSN MSN20020125191509301/25/02 19:15:31  5-MIN KMSN 260115Z 22011KT 10SM CLR 08/M08 A2986 920 30 400 220/11 RMK AO2
14837KMSN MSN20020125192009301/25/02 19:20:31  5-MIN KMSN 260120Z 21009KT 10SM CLR 08/M08 A2987 920 32 300 210/09 RMK AO2
14837KMSN MSN20020125192509901/25/02 19:25:31  5-MIN KMSN 260125Z 21009G17KT 10SM CLR 08/M08 A2987 910 32 300 210/09G17 RMK AO2
14837KMSN MSN20020125193009901/25/02 19:30:31  5-MIN KMSN 260130Z 22011G17KT 10SM CLR 08/M08 A2987 910 30 400 220/11G17 RMK AO2
14837KMSN MSN20020125193509901/25/02 19:35:31  5-MIN KMSN 260135Z 22012G17KT 10SM CLR 08/M08 A2987 910 31 300 220/12G17 RMK AO2
14837KMSN MSN20020125194009901/25/02 19:40:31  5-MIN KMSN 260140Z 22010G18KT 10SM CLR 08/M08 A2987 910 30 400 210/10G18 RMK AO2
14837KMSN MSN20020125194509901/25/02 19:45:31  5-MIN KMSN 260145Z 22010G18KT 10SM CLR 08/M08 A2987 910 30 400 220/10G18 RMK AO2
14837KMSN MSN20020125195011601/25/02 19:50:31  5-MIN KMSN 260150Z 23012G18KT 10SM CLR 08/M08 A2987 910 30 400 230/12G18 RMK AO2 SLP122 T00831083
14837KMSN MSN20020125195509901/25/02 19:55:31  5-MIN KMSN 260155Z 21012G18KT 10SM CLR 08/M08 A2987 910 31 300 210/12G18 RMK AO2
14837KMSN MSN20020125200009901/25/02 20:00:31  5-MIN KMSN 260200Z 22010G18KT 10SM CLR 08/M08 A2987 910 31 300 220/10G18 RMK AO2
14837KMSN MSN20020125200509301/25/02 20:05:31  5-MIN KMSN 260205Z 21012KT 10SM CLR 08/M08 A2987 910 31 300 210/12 RMK AO2
14837KMSN MSN20020125201009901/25/02 20:10:31  5-MIN KMSN 260210Z 22012G16KT 10SM CLR 08/M08 A2987 910 31 300 210/12G16 RMK AO2
14837KMSN MSN20020125201509901/25/02 20:15:31  5-MIN KMSN 260215Z 21011G16KT 10SM CLR 08/M08 A2987 910 31 300 210/11G16 RMK AO2
14837KMSN MSN20020125202009301/25/02 20:20:31  5-MIN KMSN 260220Z 21011KT 10SM CLR 08/M08 A2987 910 31 300 210/11 RMK AO2
14837KMSN MSN20020125202509301/25/02 20:25:31  5-MIN KMSN 260225Z 22012KT 10SM CLR 07/M08 A2987 910 32 200 210/12 RMK AO2
14837KMSN MSN20020125203009301/25/02 20:30:31  5-MIN KMSN 260230Z 21012KT 10SM CLR 07/M08 A2987 910 32 200 210/12 RMK AO2
14837KMSN MSN20020125203509901/25/02 20:35:31  5-MIN KMSN 260235Z 21012G17KT 10SM CLR 07/M08 A2987 910 32 200 210/12G17 RMK AO2
14837KMSN MSN20020125204009901/25/02 20:40:31  5-MIN KMSN 260240Z 21010G17KT 10SM CLR 07/M08 A2987 910 32 200 210/10G17 RMK AO2
14837KMSN MSN20020125204509301/25/02 20:45:31  5-MIN KMSN 260245Z 21010KT 10SM CLR 07/M08 A2987 910 33 200 210/10 RMK AO2
14837KMSN MSN20020125205011601/25/02 20:50:31  5-MIN KMSN 260250Z 21011KT 10SM CLR 07/M08 A2988 900 32 200 210/11 RMK AO2 SLP124 T00721083 53001
14837KMSN MSN20020125205509301/25/02 20:55:31  5-MIN KMSN 260255Z 21009KT 10SM CLR 07/M08 A2988 900 32 200 210/09 RMK AO2
14837KMSN MSN20020125210009901/25/02 21:00:31  5-MIN KMSN 260300Z 21011G18KT 10SM CLR 07/M08 A2988 900 32 200 210/11G18 RMK AO2
14837KMSN MSN20020125210509901/25/02 21:05:31  5-MIN KMSN 260305Z 21011G18KT 10SM CLR 07/M08 A2988 900 32 200 210/11G18 RMK AO2
14837KMSN MSN20020125211009301/25/02 21:10:31  5-MIN KMSN 260310Z 22011KT 10SM CLR 07/M08 A2988 900 32 200 220/11 RMK AO2
14837KMSN MSN20020125211509301/25/02 21:15:31  5-MIN KMSN 260315Z 21011KT 10SM CLR 07/M08 A2988 900 32 200 210/11 RMK AO2
14837KMSN MSN20020125212009901/25/02 21:20:31  5-MIN KMSN 260320Z 22011G18KT 10SM CLR 07/M08 A2988 900 32 200 210/11G18 RMK AO2
14837KMSN MSN20020125212509901/25/02 21:25:31  5-MIN KMSN 260325Z 22010G18KT 10SM CLR 07/M08 A2988 900 32 200 220/10G18 RMK AO2
14837KMSN MSN20020125213009901/25/02 21:30:31  5-MIN KMSN 260330Z 21011G16KT 10SM CLR 07/M08 A2989 900 32 200 210/11G16 RMK AO2
14837KMSN MSN20020125213509301/25/02 21:35:31  5-MIN KMSN 260335Z 21012KT 10SM CLR 07/M08 A2989 900 32 200 210/12 RMK AO2
14837KMSN MSN20020125214009301/25/02 21:40:31  5-MIN KMSN 260340Z 21011KT 10SM CLR 07/M08 A2989 900 32 200 210/11 RMK AO2
14837KMSN MSN20020125214509901/25/02 21:45:31  5-MIN KMSN 260345Z 21012G16KT 10SM CLR 07/M08 A2989 900 33 100 210/12G16 RMK AO2
14837KMSN MSN20020125215011001/25/02 21:50:31  5-MIN KMSN 260350Z 21011KT 10SM CLR 07/M08 A2989 900 33 100 210/11 RMK AO2 SLP126 T00671083
14837KMSN MSN20020125215509301/25/02 21:55:31  5-MIN KMSN 260355Z 21009KT 10SM CLR 07/M08 A2989 900 35 100 210/09 RMK AO2
14837KMSN MSN20020125220009301/25/02 22:00:31  5-MIN KMSN 260400Z 21009KT 10SM CLR 07/M08 A2989 900 35 100 210/09 RMK AO2
14837KMSN MSN20020125220509901/25/02 22:05:31  5-MIN KMSN 260405Z 22011G16KT 10SM CLR 07/M08 A2989 890 33 100 220/11G16 RMK AO2
14837KMSN MSN20020125221009901/25/02 22:10:31  5-MIN KMSN 260410Z 22008G16KT 10SM CLR 07/M08 A2989 890 33 100 220/08G16 RMK AO2
14837KMSN MSN20020125221509301/25/02 22:15:31  5-MIN KMSN 260415Z 22010KT 10SM CLR 07/M08 A2989 890 35 100 210/10 RMK AO2
14837KMSN MSN20020125222009901/25/02 22:20:31  5-MIN KMSN 260420Z 22011G15KT 10SM CLR 07/M08 A2989 890 35 100 210/11G15 RMK AO2
14837KMSN MSN20020125222509901/25/02 22:25:31  5-MIN KMSN 260425Z 21009G15KT 10SM CLR 06/M08 A2989 890 36 100 210/09G15 RMK AO2
14837KMSN MSN20020125223009301/25/02 22:30:31  5-MIN KMSN 260430Z 21009KT 10SM CLR 06/M08 A2989 890 36 100 210/09 RMK AO2
14837KMSN MSN20020125223509301/25/02 22:35:31  5-MIN KMSN 260435Z 22007KT 10SM CLR 06/M08 A2989 890 36 100 210/07 RMK AO2
14837KMSN MSN20020125224009301/25/02 22:40:31  5-MIN KMSN 260440Z 22008KT 10SM CLR 06/M08 A2989 890 36 100 210/08 RMK AO2
14837KMSN MSN20020125224509301/25/02 22:45:31  5-MIN KMSN 260445Z 21008KT 10SM CLR 06/M08 A2990 890 36 100 210/08 RMK AO2
14837KMSN MSN20020125225011001/25/02 22:50:31  5-MIN KMSN 260450Z 21010KT 10SM CLR 06/M08 A2990 890 36 100 210/10 RMK AO2 SLP129 T00611078
14837KMSN MSN20020125225509301/25/02 22:55:31  5-MIN KMSN 260455Z 21008KT 10SM CLR 06/M08 A2989 890 36 100 210/08 RMK AO2
14837KMSN MSN20020125230009701/25/02 23:00:31  5-MIN KMSN 260500Z 21010G15KT 10SM CLR 06/M08 A2990 890 37 0 210/10G15 RMK AO2
14837KMSN MSN20020125230509701/25/02 23:05:31  5-MIN KMSN 260505Z 21007G15KT 10SM CLR 06/M08 A2990 890 37 0 210/07G15 RMK AO2
14837KMSN MSN20020125231009101/25/02 23:10:31  5-MIN KMSN 260510Z 21008KT 10SM CLR 06/M08 A2989 890 37 0 210/08 RMK AO2
14837KMSN MSN20020125231509101/25/02 23:15:31  5-MIN KMSN 260515Z 22008KT 10SM CLR 06/M08 A2989 890 37 0 220/08 RMK AO2
14837KMSN MSN20020125232009101/25/02 23:20:31  5-MIN KMSN 260520Z 22007KT 10SM CLR 06/M08 A2989 890 37 0 220/07 RMK AO2
14837KMSN MSN20020125232509101/25/02 23:25:31  5-MIN KMSN 260525Z 22009KT 10SM CLR 06/M08 A2989 890 37 0 220/09 RMK AO2
14837KMSN MSN20020125233009701/25/02 23:30:31  5-MIN KMSN 260530Z 21011G15KT 10SM CLR 06/M08 A2990 890 37 0 210/11G15 RMK AO2
14837KMSN MSN20020125233509701/25/02 23:35:31  5-MIN KMSN 260535Z 21010G15KT 10SM CLR 06/M08 A2989 890 37 0 210/10G15 RMK AO2
14837KMSN MSN20020125234009101/25/02 23:40:31  5-MIN KMSN 260540Z 22009KT 10SM CLR 06/M08 A2990 890 37 0 220/09 RMK AO2
14837KMSN MSN20020125234509101/25/02 23:45:31  5-MIN KMSN 260545Z 21010KT 10SM CLR 06/M08 A2989 890 37 0 210/10 RMK AO2
14837KMSN MSN20020125235013601/25/02 23:50:31  5-MIN KMSN 260550Z 22009KT 10SM CLR 06/M08 A2989 890 37 0 210/09 RMK AO2 SLP127 T00561078 10094 20056 401111022 53008
14837KMSN MSN20020125235509101/25/02 23:55:31  5-MIN KMSN 260555Z 21009KT 10SM CLR 06/M08 A2989 890 37 0 210/09 RMK AO2
14837KMSN MSN20020126000009101/26/02 00:00:31  5-MIN KMSN 260600Z 21007KT 10SM CLR 06/M08 A2989 890 37 0 210/07 RMK AO2
14837KMSN MSN20020126000509101/26/02 00:05:31  5-MIN KMSN 260605Z 21010KT 10SM CLR 06/M08 A2989 890 37 0 210/10 RMK AO2
14837KMSN MSN20020126001009101/26/02 00:10:31  5-MIN KMSN 260610Z 22008KT 10SM CLR 05/M08 A2989 890 39 0 220/08 RMK AO2
14837KMSN MSN20020126001509101/26/02 00:15:31  5-MIN KMSN 260615Z 22008KT 10SM CLR 05/M08 A2990 890 39 0 220/08 RMK AO2
14837KMSN MSN20020126002009701/26/02 00:20:31  5-MIN KMSN 260620Z 22010G15KT 10SM CLR 06/M08 A2989 890 37 0 220/10G15 RMK AO2
14837KMSN MSN20020126002509101/26/02 00:25:31  5-MIN KMSN 260625Z 22010KT 10SM CLR 06/M08 A2990 890 37 0 220/10 RMK AO2
14837KMSN MSN20020126003009101/26/02 00:30:31  5-MIN KMSN 260630Z 22008KT 10SM CLR 06/M08 A2990 890 37 0 220/08 RMK AO2
14837KMSN MSN20020126003509101/26/02 00:35:31  5-MIN KMSN 260635Z 22009KT 10SM CLR 05/M08 A2990 890 39 0 220/09 RMK AO2
14837KMSN MSN20020126004009101/26/02 00:40:31  5-MIN KMSN 260640Z 22009KT 10SM CLR 05/M08 A2990 890 39 0 220/09 RMK AO2
14837KMSN MSN20020126004509101/26/02 00:45:31  5-MIN KMSN 260645Z 22008KT 10SM CLR 05/M08 A2990 890 39 0 210/08 RMK AO2
14837KMSN MSN20020126005010801/26/02 00:50:31  5-MIN KMSN 260650Z 22007KT 10SM CLR 05/M08 A2989 890 39 0 220/07 RMK AO2 SLP127 T00501078
14837KMSN MSN20020126005509101/26/02 00:55:31  5-MIN KMSN 260655Z 22010KT 10SM CLR 05/M08 A2989 890 39 0 220/10 RMK AO2
14837KMSN MSN20020126010009101/26/02 01:00:31  5-MIN KMSN 260700Z 21009KT 10SM CLR 05/M08 A2989 890 39 0 210/09 RMK AO2
14837KMSN MSN20020126010509101/26/02 01:05:31  5-MIN KMSN 260705Z 22009KT 10SM CLR 05/M08 A2989 890 39 0 220/09 RMK AO2
14837KMSN MSN20020126011009101/26/02 01:10:31  5-MIN KMSN 260710Z 22009KT 10SM CLR 05/M08 A2989 890 39 0 220/09 RMK AO2
14837KMSN MSN20020126011509401/26/02 01:15:31  5-MIN KMSN 260715Z 22008KT 10SM CLR 04/M08 A2990 890 41 -100 220/08 RMK AO2
14837KMSN MSN20020126012009401/26/02 01:20:31  5-MIN KMSN 260720Z 21008KT 10SM CLR 04/M08 A2990 890 41 -100 210/08 RMK AO2
14837KMSN MSN20020126012509401/26/02 01:25:31  5-MIN KMSN 260725Z 22007KT 10SM CLR 04/M08 A2990 890 41 -100 220/07 RMK AO2
14837KMSN MSN20020126013009401/26/02 01:30:31  5-MIN KMSN 260730Z 22007KT 10SM CLR 04/M08 A2990 880 41 -100 220/07 RMK AO2
14837KMSN MSN20020126013509401/26/02 01:35:31  5-MIN KMSN 260735Z 22007KT 10SM CLR 04/M08 A2990 880 41 -100 220/07 RMK AO2
14837KMSN MSN20020126014009401/26/02 01:40:31  5-MIN KMSN 260740Z 22008KT 10SM CLR 04/M08 A2990 880 41 -100 220/08 RMK AO2
14837KMSN MSN20020126014509401/26/02 01:45:31  5-MIN KMSN 260745Z 22008KT 10SM CLR 04/M08 A2990 880 41 -100 220/08 RMK AO2
14837KMSN MSN20020126015011101/26/02 01:50:31  5-MIN KMSN 260750Z 22008KT 10SM CLR 04/M08 A2990 880 41 -100 220/08 RMK AO2 SLP130 T00441078
14837KMSN MSN20020126015509401/26/02 01:55:31  5-MIN KMSN 260755Z 22008KT 10SM CLR 04/M08 A2990 880 41 -100 220/08 RMK AO2
14837KMSN MSN20020126020009401/26/02 02:00:31  5-MIN KMSN 260800Z 22008KT 10SM CLR 04/M08 A2990 880 42 -200 220/08 RMK AO2
14837KMSN MSN20020126020509401/26/02 02:05:31  5-MIN KMSN 260805Z 21008KT 10SM CLR 04/M08 A2991 880 41 -100 210/08 RMK AO2
14837KMSN MSN20020126021009401/26/02 02:10:31  5-MIN KMSN 260810Z 22008KT 10SM CLR 04/M08 A2991 880 41 -100 220/08 RMK AO2
14837KMSN MSN20020126021509401/26/02 02:15:31  5-MIN KMSN 260815Z 21007KT 10SM CLR 04/M08 A2991 880 41 -100 210/07 RMK AO2
14837KMSN MSN20020126022009401/26/02 02:20:31  5-MIN KMSN 260820Z 21007KT 10SM CLR 04/M08 A2991 880 42 -200 210/07 RMK AO2
14837KMSN MSN20020126022509401/26/02 02:25:31  5-MIN KMSN 260825Z 22006KT 10SM CLR 04/M08 A2991 870 42 -200 220/06 RMK AO2
14837KMSN MSN20020126023009401/26/02 02:30:31  5-MIN KMSN 260830Z 23005KT 10SM CLR 04/M08 A2991 870 42 -200 220/05 RMK AO2
14837KMSN MSN20020126023509401/26/02 02:35:31  5-MIN KMSN 260835Z 21007KT 10SM CLR 04/M08 A2991 870 42 -200 210/07 RMK AO2
14837KMSN MSN20020126024009401/26/02 02:40:31  5-MIN KMSN 260840Z 22006KT 10SM CLR 04/M08 A2991 870 42 -200 220/06 RMK AO2
14837KMSN MSN20020126024509401/26/02 02:45:31  5-MIN KMSN 260845Z 22005KT 10SM CLR 04/M08 A2991 870 40 -200 220/05 RMK AO2
14837KMSN MSN20020126025011701/26/02 02:50:31  5-MIN KMSN 260850Z 21005KT 10SM CLR 04/M08 A2991 870 40 -200 210/05 RMK AO2 SLP133 T00391083 50005
14837KMSN MSN20020126025509401/26/02 02:55:31  5-MIN KMSN 260855Z 22006KT 10SM CLR 04/M08 A2991 870 40 -200 220/06 RMK AO2
14837KMSN MSN20020126030009401/26/02 03:00:31  5-MIN KMSN 260900Z 22005KT 10SM CLR 03/M08 A2991 870 42 -200 220/05 RMK AO2
14837KMSN MSN20020126030509401/26/02 03:05:31  5-MIN KMSN 260905Z 21004KT 10SM CLR 03/M08 A2991 870 42 -200 210/04 RMK AO2
14837KMSN MSN20020126031009401/26/02 03:10:31  5-MIN KMSN 260910Z 22005KT 10SM CLR 03/M08 A2991 870 42 -200 220/05 RMK AO2
14837KMSN MSN20020126031509401/26/02 03:15:31  5-MIN KMSN 260915Z 22004KT 10SM CLR 03/M08 A2991 870 42 -200 210/04 RMK AO2
14837KMSN MSN20020126032009401/26/02 03:20:31  5-MIN KMSN 260920Z 22004KT 10SM CLR 03/M08 A2991 870 42 -200 220/04 RMK AO2
14837KMSN MSN20020126032509401/26/02 03:25:31  5-MIN KMSN 260925Z 21004KT 10SM CLR 03/M08 A2991 870 44 -200 210/04 RMK AO2
14837KMSN MSN20020126033009401/26/02 03:30:31  5-MIN KMSN 260930Z 21005KT 10SM CLR 03/M08 A2991 870 46 -300 210/05 RMK AO2
14837KMSN MSN20020126033509401/26/02 03:35:31  5-MIN KMSN 260935Z 21003KT 10SM CLR 03/M08 A2991 870 44 -200 210/03 RMK AO2
14837KMSN MSN20020126034009401/26/02 03:40:31  5-MIN KMSN 260940Z 22004KT 10SM CLR 03/M08 A2992 870 44 -200 220/04 RMK AO2
14837KMSN MSN20020126034509401/26/02 03:45:31  5-MIN KMSN 260945Z 20004KT 10SM CLR 03/M08 A2992 870 44 -200 200/04 RMK AO2
14837KMSN MSN20020126035011101/26/02 03:50:31  5-MIN KMSN 260950Z 19004KT 10SM CLR 03/M07 A2992 870 48 -300 190/04 RMK AO2 SLP136 T00281072
14837KMSN MSN20020126035509401/26/02 03:55:31  5-MIN KMSN 260955Z 19005KT 10SM CLR 02/M07 A2992 870 50 -400 190/05 RMK AO2
14837KMSN MSN20020126040009401/26/02 04:00:31  5-MIN KMSN 261000Z 18005KT 10SM CLR 03/M07 A2992 870 48 -300 180/05 RMK AO2
14837KMSN MSN20020126040509401/26/02 04:05:31  5-MIN KMSN 261005Z 19005KT 10SM CLR 02/M07 A2992 870 52 -500 190/05 RMK AO2
14837KMSN MSN20020126041009401/26/02 04:10:31  5-MIN KMSN 261010Z 19005KT 10SM CLR 03/M07 A2992 870 50 -300 190/05 RMK AO2
14837KMSN MSN20020126041509401/26/02 04:15:31  5-MIN KMSN 261015Z 21003KT 10SM CLR 03/M07 A2991 870 48 -300 200/03 RMK AO2
14837KMSN MSN20020126042009401/26/02 04:20:31  5-MIN KMSN 261020Z 20004KT 10SM CLR 03/M07 A2991 870 48 -300 200/04 RMK AO2
14837KMSN MSN20020126042509401/26/02 04:25:31  5-MIN KMSN 261025Z 21003KT 10SM CLR 02/M07 A2991 870 50 -400 210/03 RMK AO2
14837KMSN MSN20020126043009401/26/02 04:30:31  5-MIN KMSN 261030Z 20004KT 10SM CLR 02/M07 A2991 870 50 -400 200/04 RMK AO2
14837KMSN MSN20020126043509401/26/02 04:35:31  5-MIN KMSN 261035Z 21005KT 10SM CLR 02/M07 A2991 870 50 -400 210/05 RMK AO2
14837KMSN MSN20020126044009401/26/02 04:40:31  5-MIN KMSN 261040Z 21005KT 10SM CLR 02/M07 A2991 870 50 -400 210/05 RMK AO2
14837KMSN MSN20020126044509401/26/02 04:45:31  5-MIN KMSN 261045Z 21005KT 10SM CLR 03/M07 A2991 880 48 -300 210/05 RMK AO2
14837KMSN MSN20020126045011101/26/02 04:50:31  5-MIN KMSN 261050Z 21006KT 10SM CLR 03/M07 A2991 880 48 -300 210/06 RMK AO2 SLP133 T00281072
14837KMSN MSN20020126045509401/26/02 04:55:31  5-MIN KMSN 261055Z 21004KT 10SM CLR 03/M07 A2991 880 48 -300 210/04 RMK AO2
14837KMSN MSN20020126050009401/26/02 05:00:31  5-MIN KMSN 261100Z 20005KT 10SM CLR 03/M07 A2991 880 48 -300 200/05 RMK AO2
14837KMSN MSN20020126050509401/26/02 05:05:31  5-MIN KMSN 261105Z 20006KT 10SM CLR 03/M07 A2990 880 48 -300 200/06 RMK AO2
14837KMSN MSN20020126051009401/26/02 05:10:31  5-MIN KMSN 261110Z 19005KT 10SM CLR 02/M07 A2990 880 52 -400 190/05 RMK AO2
14837KMSN MSN20020126051509401/26/02 05:15:31  5-MIN KMSN 261115Z 18006KT 10SM CLR 02/M07 A2990 880 52 -400 180/06 RMK AO2
14837KMSN MSN20020126052009401/26/02 05:20:31  5-MIN KMSN 261120Z 18006KT 10SM CLR 02/M07 A2990 880 52 -400 180/06 RMK AO2
14837KMSN MSN20020126052509401/26/02 05:25:31  5-MIN KMSN 261125Z 18007KT 10SM CLR 02/M07 A2990 880 54 -400 180/07 RMK AO2
14837KMSN MSN20020126053009401/26/02 05:30:31  5-MIN KMSN 261130Z 19005KT 10SM CLR 02/M07 A2990 880 54 -400 190/05 RMK AO2
14837KMSN MSN20020126053509401/26/02 05:35:31  5-MIN KMSN 261135Z 20005KT 10SM CLR 02/M07 A2990 880 52 -400 190/05 RMK AO2
14837KMSN MSN20020126054009401/26/02 05:40:31  5-MIN KMSN 261140Z 20006KT 10SM CLR 02/M07 A2990 880 52 -400 200/06 RMK AO2
14837KMSN MSN20020126054509401/26/02 05:45:31  5-MIN KMSN 261145Z 19006KT 10SM CLR 02/M07 A2990 880 52 -400 190/06 RMK AO2
14837KMSN MSN20020126055012901/26/02 05:50:31  5-MIN KMSN 261150Z 19006KT 10SM CLR 02/M07 A2991 880 52 -400 190/06 RMK AO2 SLP132 T00221067 10056 20017 53006
14837KMSN MSN20020126055509401/26/02 05:55:31  5-MIN KMSN 261155Z 19005KT 10SM CLR 02/M07 A2991 880 52 -400 190/05 RMK AO2
14837KMSN MSN20020126060009401/26/02 06:00:31  5-MIN KMSN 261200Z 19005KT 10SM CLR 02/M07 A2991 880 54 -400 190/05 RMK AO2
14837KMSN MSN20020126060509401/26/02 06:05:31  5-MIN KMSN 261205Z 19006KT 10SM CLR 02/M07 A2991 870 54 -400 190/06 RMK AO2
14837KMSN MSN20020126061009401/26/02 06:10:31  5-MIN KMSN 261210Z 20004KT 10SM CLR 02/M07 A2991 870 54 -400 200/04 RMK AO2
14837KMSN MSN20020126061509401/26/02 06:15:31  5-MIN KMSN 261215Z 19004KT 10SM CLR 02/M07 A2991 870 52 -400 190/04 RMK AO2
14837KMSN MSN20020126062009501/26/02 06:20:31  5-MIN KMSN 261220Z 18003KT 10SM CLR M01/M07 A2991 870 63 -800 180/03 RMK AO2
14837KMSN MSN20020126062509501/26/02 06:25:31  5-MIN KMSN 261225Z 16004KT 10SM CLR M02/M07 A2991 870 69 -900 160/04 RMK AO2
14837KMSN MSN20020126063009501/26/02 06:30:31  5-MIN KMSN 261230Z 16006KT 10SM CLR M01/M07 A2991 870 66 -800 160/06 RMK AO2
14837KMSN MSN20020126063509501/26/02 06:35:31  5-MIN KMSN 261235Z 17007KT 10SM CLR M01/M07 A2991 870 63 -700 170/07 RMK AO2
14837KMSN MSN20020126064009401/26/02 06:40:31  5-MIN KMSN 261240Z 18007KT 10SM CLR 01/M06 A2991 880 61 -600 170/07 RMK AO2
14837KMSN MSN20020126064509401/26/02 06:45:31  5-MIN KMSN 261245Z 18007KT 10SM CLR 01/M06 A2991 880 61 -600 180/07 RMK AO2
14837KMSN MSN20020126065011101/26/02 06:50:31  5-MIN KMSN 261250Z 17006KT 10SM CLR 01/M06 A2990 880 61 -600 170/06 RMK AO2 SLP133 T00061061
14837KMSN MSN20020126065509401/26/02 06:55:31  5-MIN KMSN 261255Z 18006KT 10SM CLR 01/M06 A2991 870 61 -600 180/06 RMK AO2
14837KMSN MSN20020126070009401/26/02 07:00:31  5-MIN KMSN 261300Z 17005KT 10SM CLR 00/M06 A2991 880 63 -700 170/05 RMK AO2
14837KMSN MSN20020126070509501/26/02 07:05:31  5-MIN KMSN 261305Z 17006KT 10SM CLR M01/M07 A2991 870 63 -700 170/06 RMK AO2
14837KMSN MSN20020126071009501/26/02 07:10:31  5-MIN KMSN 261310Z 18006KT 10SM CLR M01/M07 A2991 870 66 -800 180/06 RMK AO2
14837KMSN MSN20020126071509401/26/02 07:15:31  5-MIN KMSN 261315Z 18007KT 10SM CLR 00/M06 A2991 870 63 -700 180/07 RMK AO2
14837KMSN MSN20020126072009401/26/02 07:20:31  5-MIN KMSN 261320Z 18006KT 10SM CLR 01/M06 A2991 870 61 -600 180/06 RMK AO2
14837KMSN MSN20020126072509401/26/02 07:25:31  5-MIN KMSN 261325Z 18005KT 10SM CLR 01/M06 A2992 860 61 -600 180/05 RMK AO2
14837KMSN MSN20020126073009401/26/02 07:30:31  5-MIN KMSN 261330Z 19004KT 10SM CLR 01/M06 A2992 860 61 -600 190/04 RMK AO2
14837KMSN MSN20020126073509401/26/02 07:35:31  5-MIN KMSN 261335Z 18005KT 10SM CLR 01/M06 A2992 860 61 -600 180/05 RMK AO2
14837KMSN MSN20020126074009401/26/02 07:40:31  5-MIN KMSN 261340Z 18005KT 10SM CLR 01/M06 A2993 860 61 -600 180/05 RMK AO2
14837KMSN MSN20020126074509401/26/02 07:45:31  5-MIN KMSN 261345Z 18005KT 10SM CLR 01/M06 A2993 860 61 -600 180/05 RMK AO2
14837KMSN MSN20020126075011101/26/02 07:50:31  5-MIN KMSN 261350Z 18005KT 10SM CLR 01/M06 A2993 850 61 -600 180/05 RMK AO2 SLP142 T00061061
14837KMSN MSN20020126075509401/26/02 07:55:31  5-MIN KMSN 261355Z 17005KT 10SM CLR 00/M06 A2993 850 63 -700 170/05 RMK AO2
14837KMSN MSN20020126080009401/26/02 08:00:31  5-MIN KMSN 261400Z 16006KT 10SM CLR 00/M06 A2993 850 63 -700 160/06 RMK AO2
14837KMSN MSN20020126080509401/26/02 08:05:31  5-MIN KMSN 261405Z 15005KT 10SM CLR 00/M06 A2993 860 63 -700 150/05 RMK AO2
14837KMSN MSN20020126081009401/26/02 08:10:31  5-MIN KMSN 261410Z 16005KT 10SM CLR 00/M06 A2993 850 66 -700 160/05 RMK AO2
14837KMSN MSN20020126081509401/26/02 08:15:31  5-MIN KMSN 261415Z 16006KT 10SM CLR 00/M06 A2993 860 66 -700 160/06 RMK AO2
14837KMSN MSN20020126082009401/26/02 08:20:31  5-MIN KMSN 261420Z 16006KT 10SM CLR 00/M06 A2993 860 66 -700 160/06 RMK AO2
14837KMSN MSN20020126082509401/26/02 08:25:31  5-MIN KMSN 261425Z 17007KT 10SM CLR 01/M05 A2992 860 66 -600 160/07 RMK AO2
14837KMSN MSN20020126083009401/26/02 08:30:31  5-MIN KMSN 261430Z 17006KT 10SM CLR 01/M05 A2992 860 66 -600 170/06 RMK AO2
14837KMSN MSN20020126083509401/26/02 08:35:31  5-MIN KMSN 261435Z 17006KT 10SM CLR 01/M06 A2992 860 63 -600 160/06 RMK AO2
14837KMSN MSN20020126084009401/26/02 08:40:31  5-MIN KMSN 261440Z 17006KT 10SM CLR 01/M05 A2992 860 66 -600 170/06 RMK AO2
14837KMSN MSN20020126084509401/26/02 08:45:31  5-MIN KMSN 261445Z 17008KT 10SM CLR 01/M05 A2991 870 64 -500 160/08 RMK AO2
14837KMSN MSN20020126085011701/26/02 08:50:31  5-MIN KMSN 261450Z 17007KT 10SM CLR 02/M05 A2991 870 61 -400 170/07 RMK AO2 SLP135 T00171050 58002
14837KMSN MSN20020126085509401/26/02 08:55:31  5-MIN KMSN 261455Z 17009KT 10SM CLR 02/M06 A2991 870 59 -400 170/09 RMK AO2
14837KMSN MSN20020126090009401/26/02 09:00:31  5-MIN KMSN 261500Z 18008KT 10SM CLR 02/M06 A2992 870 59 -500 180/08 RMK AO2
14837KMSN MSN20020126090509401/26/02 09:05:31  5-MIN KMSN 261505Z 17009KT 10SM CLR 02/M06 A2992 870 56 -400 170/09 RMK AO2
14837KMSN MSN20020126091009401/26/02 09:10:31  5-MIN KMSN 261510Z 19008KT 10SM CLR 02/M05 A2992 860 59 -400 190/08 RMK AO2
14837KMSN MSN20020126091509401/26/02 09:15:31  5-MIN KMSN 261515Z 18008KT 10SM CLR 03/M06 A2992 860 54 -300 180/08 RMK AO2
14837KMSN MSN20020126092009401/26/02 09:20:31  5-MIN KMSN 261520Z 18007KT 10SM CLR 03/M06 A2993 860 54 -300 180/07 RMK AO2
14837KMSN MSN20020126092509401/26/02 09:25:31  5-MIN KMSN 261525Z 19008KT 10SM CLR 03/M05 A2993 860 54 -300 190/08 RMK AO2
14837KMSN MSN20020126093009401/26/02 09:30:31  5-MIN KMSN 261530Z 19007KT 10SM CLR 03/M06 A2992 860 52 -300 190/07 RMK AO2
14837KMSN MSN20020126093509401/26/02 09:35:31  5-MIN KMSN 261535Z 20008KT 10SM CLR 03/M06 A2992 860 52 -300 200/08 RMK AO2
14837KMSN MSN20020126094009401/26/02 09:40:31  5-MIN KMSN 261540Z 19010KT 10SM CLR 04/M06 A2991 870 50 -200 190/10 RMK AO2
14837KMSN MSN20020126094509401/26/02 09:45:31  5-MIN KMSN 261545Z 20010KT 10SM CLR 04/M06 A2991 880 48 -200 200/10 RMK AO2
14837KMSN MSN20020126095011101/26/02 09:50:31  5-MIN KMSN 261550Z 19009KT 10SM CLR 04/M06 A2991 870 46 -100 190/09 RMK AO2 SLP134 T00441061
14837KMSN MSN20020126095509401/26/02 09:55:31  5-MIN KMSN 261555Z 19010KT 10SM CLR 04/M06 A2991 870 46 -100 190/10 RMK AO2
14837KMSN MSN20020126100009401/26/02 10:00:31  5-MIN KMSN 261600Z 19009KT 10SM CLR 04/M06 A2992 870 48 -100 190/09 RMK AO2
14837KMSN MSN20020126100509401/26/02 10:05:31  5-MIN KMSN 261605Z 20008KT 10SM CLR 04/M06 A2992 860 46 -100 200/08 RMK AO2
14837KMSN MSN20020126101009101/26/02 10:10:31  5-MIN KMSN 261610Z 20010KT 10SM CLR 05/M06 A2992 870 46 0 200/10 RMK AO2
14837KMSN MSN20020126101509401/26/02 10:15:31  5-MIN KMSN 261615Z 20010KT 10SM CLR 04/M06 A2992 870 46 -100 200/10 RMK AO2
14837KMSN MSN20020126102009401/26/02 10:20:31  5-MIN KMSN 261620Z 20010KT 10SM CLR 04/M06 A2991 870 46 -100 200/10 RMK AO2
14837KMSN MSN20020126102509101/26/02 10:25:31  5-MIN KMSN 261625Z 21009KT 10SM CLR 05/M06 A2992 870 44 0 210/09 RMK AO2
14837KMSN MSN20020126103009101/26/02 10:30:31  5-MIN KMSN 261630Z 20009KT 10SM CLR 05/M06 A2992 860 44 0 200/09 RMK AO2
14837KMSN MSN20020126103509101/26/02 10:35:31  5-MIN KMSN 261635Z 20009KT 10SM CLR 05/M06 A2992 860 44 0 200/09 RMK AO2
14837KMSN MSN20020126104009101/26/02 10:40:31  5-MIN KMSN 261640Z 20007KT 10SM CLR 05/M06 A2991 870 46 0 200/07 RMK AO2
14837KMSN MSN20020126104509101/26/02 10:45:31  5-MIN KMSN 261645Z 21009KT 10SM CLR 06/M06 A2991 870 44 0 210/09 RMK AO2
14837KMSN MSN20020126105010801/26/02 10:50:31  5-MIN KMSN 261650Z 20009KT 10SM CLR 06/M06 A2991 870 44 0 200/09 RMK AO2 SLP134 T00561056
14837KMSN MSN20020126105509301/26/02 10:55:31  5-MIN KMSN 261655Z 20008KT 10SM CLR 06/M06 A2991 880 43 100 190/08 RMK AO2
14837KMSN MSN20020126110009301/26/02 11:00:31  5-MIN KMSN 261700Z 20007KT 10SM CLR 06/M06 A2990 880 43 100 200/07 RMK AO2
14837KMSN MSN20020126110509301/26/02 11:05:31  5-MIN KMSN 261705Z 20007KT 10SM CLR 06/M06 A2991 880 41 100 200/07 RMK AO2
14837KMSN MSN20020126111009301/26/02 11:10:31  5-MIN KMSN 261710Z 20008KT 10SM CLR 06/M06 A2990 880 43 100 200/08 RMK AO2
14837KMSN MSN20020126111509301/26/02 11:15:31  5-MIN KMSN 261715Z 20008KT 10SM CLR 06/M06 A2989 890 41 100 200/08 RMK AO2
14837KMSN MSN20020126112009301/26/02 11:20:31  5-MIN KMSN 261720Z 20007KT 10SM CLR 07/M06 A2989 890 41 100 200/07 RMK AO2
14837KMSN MSN20020126112509301/26/02 11:25:31  5-MIN KMSN 261725Z 19008KT 10SM CLR 07/M06 A2988 900 39 100 190/08 RMK AO2
14837KMSN MSN20020126113009301/26/02 11:30:31  5-MIN KMSN 261730Z 21010KT 10SM CLR 07/M06 A2988 900 39 200 210/10 RMK AO2
14837KMSN MSN20020126113509301/26/02 11:35:31  5-MIN KMSN 261735Z 20008KT 10SM CLR 07/M06 A2988 900 38 200 200/08 RMK AO2
14837KMSN MSN20020126114009301/26/02 11:40:31  5-MIN KMSN 261740Z 21008KT 10SM CLR 07/M06 A2988 900 38 200 210/08 RMK AO2
14837KMSN MSN20020126114509301/26/02 11:45:31  5-MIN KMSN 261745Z VRB06KT 10SM CLR 07/M06 A2988 900 40 200 VRB/06 RMK AO2
14837KMSN MSN20020126115012801/26/02 11:50:31  5-MIN KMSN 261750Z 20009KT 10SM CLR 07/M06 A2988 910 40 200 200/09 RMK AO2 SLP122 T00721056 10078 21022 50002
14837KMSN MSN20020126115509301/26/02 11:55:31  5-MIN KMSN 261755Z 19007KT 10SM CLR 08/M06 A2987 910 38 300 190/07 RMK AO2
14837KMSN MSN20020126120009301/26/02 12:00:31  5-MIN KMSN 261800Z 21008KT 10SM CLR 08/M06 A2987 910 38 300 210/08 RMK AO2
14837KMSN MSN20020126120509301/26/02 12:05:31  5-MIN KMSN 261805Z 22008KT 10SM CLR 08/M06 A2987 910 36 300 220/08 RMK AO2
14837KMSN MSN20020126121009301/26/02 12:10:31  5-MIN KMSN 261810Z 20008KT 10SM CLR 08/M06 A2987 910 36 300 200/08 RMK AO2
14837KMSN MSN20020126121509301/26/02 12:15:31  5-MIN KMSN 261815Z 19009KT 10SM CLR 08/M06 A2987 910 38 300 190/09 RMK AO2
14837KMSN MSN20020126122009301/26/02 12:20:31  5-MIN KMSN 261820Z 23009KT 10SM CLR 08/M06 A2987 910 38 300 220/09 RMK AO2
14837KMSN MSN20020126122509301/26/02 12:25:31  5-MIN KMSN 261825Z 19008KT 10SM CLR 08/M06 A2987 910 37 400 190/08 RMK AO2
14837KMSN MSN20020126123009301/26/02 12:30:31  5-MIN KMSN 261830Z 20008KT 10SM CLR 08/M06 A2987 910 37 400 200/08 RMK AO2
14837KMSN MSN20020126123509301/26/02 12:35:31  5-MIN KMSN 261835Z 20007KT 10SM CLR 08/M06 A2986 920 35 400 200/07 RMK AO2
14837KMSN MSN20020126124009301/26/02 12:40:31  5-MIN KMSN 261840Z 19010KT 10SM CLR 08/M06 A2986 920 37 400 190/10 RMK AO2
14837KMSN MSN20020126124509301/26/02 12:45:31  5-MIN KMSN 261845Z 20009KT 10SM CLR 08/M06 A2986 920 37 400 200/09 RMK AO2
14837KMSN MSN20020126125011001/26/02 12:50:31  5-MIN KMSN 261850Z 21006KT 10SM CLR 08/M06 A2985 930 37 400 210/06 RMK AO2 SLP115 T00831056
14837KMSN MSN20020126125509301/26/02 12:55:31  5-MIN KMSN 261855Z VRB05KT 10SM CLR 09/M06 A2985 930 35 500 VRB/05 RMK AO2
14837KMSN MSN20020126130009301/26/02 13:00:31  5-MIN KMSN 261900Z 22007KT 10SM CLR 09/M06 A2986 920 35 500 220/07 RMK AO2
14837KMSN MSN20020126130509301/26/02 13:05:31  5-MIN KMSN 261905Z 21008KT 10SM CLR 09/M06 A2985 930 35 500 210/08 RMK AO2
14837KMSN MSN20020126131009301/26/02 13:10:31  5-MIN KMSN 261910Z 20008KT 10SM CLR 09/M06 A2985 930 35 500 200/08 RMK AO2
14837KMSN MSN20020126131509301/26/02 13:15:31  5-MIN KMSN 261915Z 20009KT 10SM CLR 09/M06 A2985 930 34 500 200/09 RMK AO2
14837KMSN MSN20020126132009301/26/02 13:20:31  5-MIN KMSN 261920Z 20008KT 10SM CLR 09/M06 A2985 930 34 500 200/08 RMK AO2
14837KMSN MSN20020126132509301/26/02 13:25:31  5-MIN KMSN 261925Z 20008KT 10SM CLR 09/M06 A2985 930 34 500 200/08 RMK AO2
14837KMSN MSN20020126133009301/26/02 13:30:31  5-MIN KMSN 261930Z 19008KT 10SM CLR 09/M06 A2985 930 34 500 190/08 RMK AO2
14837KMSN MSN20020126133510901/26/02 13:35:31  5-MIN KMSN 261935Z 20007KT 180V240 10SM CLR 09/M06 A2985 930 34 500 200/07 180V240 RMK AO2
14837KMSN MSN20020126134009301/26/02 13:40:31  5-MIN KMSN 261940Z 21007KT 10SM CLR 09/M06 A2985 930 34 500 210/07 RMK AO2
14837KMSN MSN20020126134509301/26/02 13:45:31  5-MIN KMSN 261945Z 19009KT 10SM CLR 09/M06 A2985 930 34 500 190/09 RMK AO2
14837KMSN MSN20020126135011001/26/02 13:50:31  5-MIN KMSN 261950Z 20009KT 10SM CLR 10/M05 A2985 930 34 600 200/09 RMK AO2 SLP111 T01001050
14837KMSN MSN20020126135509301/26/02 13:55:31  5-MIN KMSN 261955Z 20010KT 10SM CLR 09/M06 A2985 930 34 500 200/10 RMK AO2
14837KMSN MSN20020126140009301/26/02 14:00:31  5-MIN KMSN 262000Z 20008KT 10SM CLR 09/M06 A2985 930 34 500 200/08 RMK AO2
14837KMSN MSN20020126140509301/26/02 14:05:31  5-MIN KMSN 262005Z 19012KT 10SM CLR 09/M05 A2985 930 35 500 190/12 RMK AO2
14837KMSN MSN20020126141009301/26/02 14:10:31  5-MIN KMSN 262010Z 20010KT 10SM CLR 10/M05 A2985 930 34 600 200/10 RMK AO2
14837KMSN MSN20020126141509301/26/02 14:15:31  5-MIN KMSN 262015Z 20009KT 10SM CLR 10/M05 A2985 930 34 600 200/09 RMK AO2
14837KMSN MSN20020126142009301/26/02 14:20:31  5-MIN KMSN 262020Z 20008KT 10SM CLR 10/M05 A2985 930 34 600 200/08 RMK AO2
14837KMSN MSN20020126142509301/26/02 14:25:31  5-MIN KMSN 262025Z 19009KT 10SM CLR 10/M05 A2985 930 34 600 190/09 RMK AO2
14837KMSN MSN20020126143009301/26/02 14:30:31  5-MIN KMSN 262030Z 21008KT 10SM CLR 10/M05 A2985 930 34 600 210/08 RMK AO2
14837KMSN MSN20020126143509301/26/02 14:35:31  5-MIN KMSN 262035Z 19011KT 10SM CLR 10/M05 A2985 930 34 600 190/11 RMK AO2
14837KMSN MSN20020126144009301/26/02 14:40:31  5-MIN KMSN 262040Z 19009KT 10SM CLR 11/M05 A2985 930 33 700 190/09 RMK AO2
14837KMSN MSN20020126144509301/26/02 14:45:31  5-MIN KMSN 262045Z 20009KT 10SM CLR 11/M05 A2985 930 33 700 200/09 RMK AO2
14837KMSN MSN20020126145011601/26/02 14:50:31  5-MIN KMSN 262050Z 20010KT 10SM CLR 11/M06 A2985 930 31 700 200/10 RMK AO2 SLP112 T01061056 58012
14837KMSN MSN20020126145509301/26/02 14:55:31  5-MIN KMSN 262055Z 19008KT 10SM CLR 10/M06 A2985 930 33 600 190/08 RMK AO2
14837KMSN MSN20020126150009301/26/02 15:00:31  5-MIN KMSN 262100Z 19010KT 10SM CLR 11/M06 A2985 930 31 700 190/10 RMK AO2
14837KMSN MSN20020126150509301/26/02 15:05:31  5-MIN KMSN 262105Z 19010KT 10SM CLR 10/M06 A2985 930 33 600 190/10 RMK AO2
14837KMSN MSN20020126151009301/26/02 15:10:31  5-MIN KMSN 262110Z 20009KT 10SM CLR 11/M05 A2985 930 33 700 200/09 RMK AO2
14837KMSN MSN20020126151509301/26/02 15:15:31  5-MIN KMSN 262115Z 20009KT 10SM CLR 11/M05 A2985 930 33 700 200/09 RMK AO2
14837KMSN MSN20020126152009301/26/02 15:20:31  5-MIN KMSN 262120Z 20006KT 10SM CLR 11/M05 A2985 930 33 700 200/06 RMK AO2
14837KMSN MSN20020126152509301/26/02 15:25:31  5-MIN KMSN 262125Z 19009KT 10SM CLR 11/M05 A2985 930 33 700 190/09 RMK AO2
14837KMSN MSN20020126153009301/26/02 15:30:31  5-MIN KMSN 262130Z 19008KT 10SM CLR 11/M04 A2985 930 34 700 190/08 RMK AO2
14837KMSN MSN20020126153509301/26/02 15:35:31  5-MIN KMSN 262135Z 20005KT 10SM CLR 11/M04 A2985 930 34 700 200/05 RMK AO2
14837KMSN MSN20020126154009301/26/02 15:40:31  5-MIN KMSN 262140Z 19005KT 10SM CLR 11/M04 A2986 920 34 700 190/05 RMK AO2
14837KMSN MSN20020126154509301/26/02 15:45:31  5-MIN KMSN 262145Z 18010KT 10SM CLR 11/M04 A2985 930 34 700 180/10 RMK AO2
14837KMSN MSN20020126155011001/26/02 15:50:31  5-MIN KMSN 262150Z 18010KT 10SM CLR 10/M04 A2985 930 36 600 180/10 RMK AO2 SLP114 T01001044
14837KMSN MSN20020126155509301/26/02 15:55:31  5-MIN KMSN 262155Z 18010KT 10SM CLR 10/M04 A2985 930 36 600 180/10 RMK AO2
14837KMSN MSN20020126160009301/26/02 16:00:31  5-MIN KMSN 262200Z 18008KT 10SM CLR 10/M04 A2986 920 37 600 180/08 RMK AO2
14837KMSN MSN20020126160509301/26/02 16:05:31  5-MIN KMSN 262205Z 18008KT 10SM CLR 10/M04 A2986 920 37 600 180/08 RMK AO2
14837KMSN MSN20020126161009301/26/02 16:10:31  5-MIN KMSN 262210Z 18007KT 10SM CLR 10/M04 A2986 920 37 600 180/07 RMK AO2
14837KMSN MSN20020126161509301/26/02 16:15:31  5-MIN KMSN 262215Z 18007KT 10SM CLR 10/M04 A2986 920 37 600 180/07 RMK AO2
14837KMSN MSN20020126162009301/26/02 16:20:31  5-MIN KMSN 262220Z 17007KT 10SM CLR 09/M04 A2986 920 39 500 170/07 RMK AO2
14837KMSN MSN20020126162509301/26/02 16:25:31  5-MIN KMSN 262225Z 17006KT 10SM CLR 09/M04 A2986 920 40 500 170/06 RMK AO2
14837KMSN MSN20020126163009301/26/02 16:30:31  5-MIN KMSN 262230Z 17007KT 10SM CLR 08/M04 A2986 920 42 400 170/07 RMK AO2
14837KMSN MSN20020126163509301/26/02 16:35:31  5-MIN KMSN 262235Z 18007KT 10SM CLR 09/M04 A2986 920 40 500 170/07 RMK AO2
14837KMSN MSN20020126164009301/26/02 16:40:31  5-MIN KMSN 262240Z 17007KT 10SM CLR 08/M04 A2986 920 43 300 170/07 RMK AO2
14837KMSN MSN20020126164509301/26/02 16:45:31  5-MIN KMSN 262245Z 17006KT 10SM CLR 08/M04 A2986 920 43 300 170/06 RMK AO2
14837KMSN MSN20020126165011001/26/02 16:50:31  5-MIN KMSN 262250Z 18006KT 10SM CLR 08/M04 A2986 920 43 300 180/06 RMK AO2 SLP117 T00781039
14837KMSN MSN20020126165509301/26/02 16:55:31  5-MIN KMSN 262255Z 18005KT 10SM CLR 08/M04 A2986 920 42 400 180/05 RMK AO2
14837KMSN MSN20020126170009301/26/02 17:00:31  5-MIN KMSN 262300Z 18006KT 10SM CLR 07/M04 A2987 920 43 200 180/06 RMK AO2
14837KMSN MSN20020126170509301/26/02 17:05:31  5-MIN KMSN 262305Z 17005KT 10SM CLR 07/M04 A2987 920 43 200 170/05 RMK AO2
14837KMSN MSN20020126171009301/26/02 17:10:31  5-MIN KMSN 262310Z 18006KT 10SM CLR 07/M04 A2987 920 45 200 180/06 RMK AO2
14837KMSN MSN20020126171509301/26/02 17:15:31  5-MIN KMSN 262315Z 18006KT 10SM CLR 07/M04 A2987 910 43 200 180/06 RMK AO2
14837KMSN MSN20020126172009301/26/02 17:20:31  5-MIN KMSN 262320Z 17005KT 10SM CLR 07/M04 A2987 910 45 200 170/05 RMK AO2
14837KMSN MSN20020126172509301/26/02 17:25:31  5-MIN KMSN 262325Z 18004KT 10SM CLR 06/M04 A2987 910 46 100 180/04 RMK AO2
14837KMSN MSN20020126173009301/26/02 17:30:31  5-MIN KMSN 262330Z 18005KT 10SM CLR 07/M04 A2987 910 45 200 180/05 RMK AO2
14837KMSN MSN20020126173509301/26/02 17:35:31  5-MIN KMSN 262335Z 17005KT 10SM CLR 07/M04 A2987 910 47 200 170/05 RMK AO2
14837KMSN MSN20020126174009301/26/02 17:40:31  5-MIN KMSN 262340Z 18005KT 10SM CLR 06/M04 A2987 910 48 100 170/05 RMK AO2
14837KMSN MSN20020126174509301/26/02 17:45:31  5-MIN KMSN 262345Z 17004KT 10SM CLR 06/M04 A2987 910 48 100 160/04 RMK AO2
14837KMSN MSN20020126175012801/26/02 17:50:31  5-MIN KMSN 262350Z 16005KT 10SM CLR 06/M04 A2988 910 48 100 160/05 RMK AO2 SLP123 T00611039 10106 20056 55008
14837KMSN MSN20020126175509301/26/02 17:55:31  5-MIN KMSN 262355Z 17007KT 10SM CLR 06/M04 A2987 910 48 100 170/07 RMK AO2
14837KMSN MSN20020126180009301/26/02 18:00:31  5-MIN KMSN 270000Z 17005KT 10SM CLR 07/M04 A2987 910 47 200 170/05 RMK AO2
14837KMSN MSN20020126180509301/26/02 18:05:31  5-MIN KMSN 270005Z 18005KT 10SM CLR 06/M04 A2987 910 48 100 180/05 RMK AO2
14837KMSN MSN20020126181009301/26/02 18:10:31  5-MIN KMSN 270010Z 18006KT 10SM CLR 06/M04 A2988 900 48 100 180/06 RMK AO2
14837KMSN MSN20020126181509301/26/02 18:15:31  5-MIN KMSN 270015Z 18006KT 10SM CLR 06/M04 A2988 910 48 100 180/06 RMK AO2
14837KMSN MSN20020126182009301/26/02 18:20:31  5-MIN KMSN 270020Z 18005KT 10SM CLR 07/M04 A2988 900 47 200 180/05 RMK AO2
14837KMSN MSN20020126182509301/26/02 18:25:31  5-MIN KMSN 270025Z 18005KT 10SM CLR 06/M04 A2987 910 48 100 180/05 RMK AO2
14837KMSN MSN20020126183009301/26/02 18:30:31  5-MIN KMSN 270030Z 17005KT 10SM CLR 06/M04 A2987 910 48 100 170/05 RMK AO2
14837KMSN MSN20020126183509101/26/02 18:35:31  5-MIN KMSN 270035Z 17006KT 10SM CLR 05/M04 A2987 910 50 0 170/06 RMK AO2
14837KMSN MSN20020126184009101/26/02 18:40:31  5-MIN KMSN 270040Z 17006KT 10SM CLR 05/M04 A2987 910 52 0 170/06 RMK AO2
14837KMSN MSN20020126184509101/26/02 18:45:31  5-MIN KMSN 270045Z 17005KT 10SM CLR 06/M04 A2987 910 50 0 170/05 RMK AO2
14837KMSN MSN20020126185010801/26/02 18:50:31  5-MIN KMSN 270050Z 18005KT 10SM CLR 06/M04 A2988 900 50 0 170/05 RMK AO2 SLP125 T00561039
14837KMSN MSN20020126185509101/26/02 18:55:31  5-MIN KMSN 270055Z 17006KT 10SM CLR 05/M04 A2988 900 50 0 170/06 RMK AO2
14837KMSN MSN20020126190009101/26/02 19:00:31  5-MIN KMSN 270100Z 17006KT 10SM CLR 05/M04 A2988 910 52 0 170/06 RMK AO2
14837KMSN MSN20020126190509401/26/02 19:05:31  5-MIN KMSN 270105Z 17006KT 10SM CLR 04/M04 A2987 910 54 -100 170/06 RMK AO2
14837KMSN MSN20020126191009401/26/02 19:10:31  5-MIN KMSN 270110Z 17005KT 10SM CLR 04/M04 A2987 910 55 -100 170/05 RMK AO2
14837KMSN MSN20020126191509401/26/02 19:15:31  5-MIN KMSN 270115Z 17005KT 10SM CLR 04/M04 A2987 910 55 -100 170/05 RMK AO2
14837KMSN MSN20020126192009401/26/02 19:20:31  5-MIN KMSN 270120Z 17005KT 10SM CLR 04/M04 A2987 910 55 -100 170/05 RMK AO2
14837KMSN MSN20020126192509401/26/02 19:25:31  5-MIN KMSN 270125Z 18005KT 10SM CLR 04/M04 A2987 910 57 -100 180/05 RMK AO2
14837KMSN MSN20020126193009401/26/02 19:30:31  5-MIN KMSN 270130Z 18005KT 10SM CLR 03/M04 A2987 910 59 -200 170/05 RMK AO2
14837KMSN MSN20020126193509401/26/02 19:35:31  5-MIN KMSN 270135Z 18005KT 10SM CLR 02/M04 A2987 910 61 -300 180/05 RMK AO2
14837KMSN MSN20020126194009401/26/02 19:40:31  5-MIN KMSN 270140Z 17005KT 10SM CLR 02/M04 A2987 910 61 -300 170/05 RMK AO2
14837KMSN MSN20020126194509401/26/02 19:45:31  5-MIN KMSN 270145Z 18004KT 10SM CLR 03/M04 A2987 910 57 -200 180/04 RMK AO2
14837KMSN MSN20020126195011101/26/02 19:50:31  5-MIN KMSN 270150Z 18003KT 10SM CLR 02/M04 A2987 910 61 -300 180/03 RMK AO2 SLP124 T00221044
14837KMSN MSN20020126195509401/26/02 19:55:31  5-MIN KMSN 270155Z 19004KT 10SM CLR 03/M04 A2987 910 59 -300 180/04 RMK AO2
14837KMSN MSN20020126200009401/26/02 20:00:31  5-MIN KMSN 270200Z 19004KT 10SM CLR 03/M04 A2987 910 59 -300 190/04 RMK AO2
14837KMSN MSN20020126200509401/26/02 20:05:31  5-MIN KMSN 270205Z 19003KT 10SM CLR 04/M04 A2987 910 54 -100 180/03 RMK AO2
14837KMSN MSN20020126201009401/26/02 20:10:31  5-MIN KMSN 270210Z 19004KT 10SM CLR 03/M04 A2987 910 57 -200 190/04 RMK AO2
14837KMSN MSN20020126201509401/26/02 20:15:31  5-MIN KMSN 270215Z 18004KT 10SM CLR 03/M04 A2987 910 59 -300 180/04 RMK AO2
14837KMSN MSN20020126202009401/26/02 20:20:31  5-MIN KMSN 270220Z 19005KT 10SM CLR 03/M04 A2987 910 59 -300 190/05 RMK AO2
14837KMSN MSN20020126202509101/26/02 20:25:31  5-MIN KMSN 270225Z 19004KT 10SM CLR 05/M04 A2987 910 52 0 190/04 RMK AO2
14837KMSN MSN20020126203009301/26/02 20:30:31  5-MIN KMSN 270230Z 20006KT 10SM CLR 06/M04 A2987 910 48 100 200/06 RMK AO2
14837KMSN MSN20020126203509301/26/02 20:35:31  5-MIN KMSN 270235Z 19006KT 10SM CLR 07/M04 A2987 910 47 200 190/06 RMK AO2
14837KMSN MSN20020126204009301/26/02 20:40:31  5-MIN KMSN 270240Z 20006KT 10SM CLR 07/M04 A2987 910 47 200 190/06 RMK AO2
14837KMSN MSN20020126204509301/26/02 20:45:31  5-MIN KMSN 270245Z 20006KT 10SM CLR 07/M04 A2987 910 45 200 200/06 RMK AO2
14837KMSN MSN20020126205011601/26/02 20:50:31  5-MIN KMSN 270250Z 20005KT 10SM CLR 07/M04 A2987 910 45 200 200/05 RMK AO2 SLP120 T00671044 53008
14837KMSN MSN20020126205509301/26/02 20:55:31  5-MIN KMSN 270255Z 19006KT 10SM CLR 07/M04 A2987 910 45 200 190/06 RMK AO2
14837KMSN MSN20020126210009301/26/02 21:00:31  5-MIN KMSN 270300Z 19006KT 10SM CLR 06/M04 A2987 910 46 100 190/06 RMK AO2
14837KMSN MSN20020126210509301/26/02 21:05:31  5-MIN KMSN 270305Z 19006KT 10SM CLR 06/M04 A2987 910 46 100 190/06 RMK AO2
14837KMSN MSN20020126211009301/26/02 21:10:31  5-MIN KMSN 270310Z 20006KT 10SM CLR 06/M04 A2987 910 48 100 190/06 RMK AO2
14837KMSN MSN20020126211509301/26/02 21:15:31  5-MIN KMSN 270315Z 19005KT 10SM CLR 06/M04 A2987 910 48 100 190/05 RMK AO2
14837KMSN MSN20020126212009301/26/02 21:20:31  5-MIN KMSN 270320Z 19005KT 10SM CLR 06/M04 A2987 910 46 100 190/05 RMK AO2
14837KMSN MSN20020126212509301/26/02 21:25:31  5-MIN KMSN 270325Z 19006KT 10SM CLR 06/M04 A2987 910 46 100 190/06 RMK AO2
14837KMSN MSN20020126213009301/26/02 21:30:31  5-MIN KMSN 270330Z 20005KT 10SM CLR 06/M04 A2987 910 46 100 200/05 RMK AO2
14837KMSN MSN20020126213509301/26/02 21:35:31  5-MIN KMSN 270335Z 20006KT 10SM CLR 06/M04 A2987 910 48 100 200/06 RMK AO2
14837KMSN MSN20020126214009301/26/02 21:40:31  5-MIN KMSN 270340Z 20007KT 10SM CLR 06/M04 A2987 910 48 100 200/07 RMK AO2
14837KMSN MSN20020126214509101/26/02 21:45:31  5-MIN KMSN 270345Z 20006KT 10SM CLR 06/M04 A2987 910 50 0 200/06 RMK AO2
14837KMSN MSN20020126215011001/26/02 21:50:31  5-MIN KMSN 270350Z 19006KT 10SM CLR 06/M04 A2987 910 48 100 190/06 RMK AO2 SLP121 T00611039
14837KMSN MSN20020126215509101/26/02 21:55:31  5-MIN KMSN 270355Z 19006KT 10SM CLR 06/M04 A2987 910 50 0 190/06 RMK AO2
14837KMSN MSN20020126220009101/26/02 22:00:31  5-MIN KMSN 270400Z 18006KT 10SM CLR 06/M04 A2987 910 50 0 180/06 RMK AO2
14837KMSN MSN20020126220509401/26/02 22:05:31  5-MIN KMSN 270405Z 18006KT 10SM CLR 04/M04 A2987 910 52 -100 180/06 RMK AO2
14837KMSN MSN20020126221009401/26/02 22:10:31  5-MIN KMSN 270410Z 18005KT 10SM CLR 03/M04 A2987 910 57 -200 170/05 RMK AO2
14837KMSN MSN20020126221509401/26/02 22:15:31  5-MIN KMSN 270415Z 18006KT 10SM CLR 03/M04 A2987 910 57 -200 180/06 RMK AO2
14837KMSN MSN20020126222009401/26/02 22:20:31  5-MIN KMSN 270420Z 19006KT 10SM CLR 03/M04 A2987 910 57 -200 190/06 RMK AO2
14837KMSN MSN20020126222509101/26/02 22:25:31  5-MIN KMSN 270425Z 19007KT 10SM CLR 06/M03 A2987 910 53 0 190/07 RMK AO2
14837KMSN MSN20020126223009101/26/02 22:30:31  5-MIN KMSN 270430Z 19006KT 10SM CLR 06/M04 A2987 910 50 0 190/06 RMK AO2
14837KMSN MSN20020126223509101/26/02 22:35:31  5-MIN KMSN 270435Z 20006KT 10SM CLR 06/M04 A2987 910 50 0 200/06 RMK AO2
14837KMSN MSN20020126224009301/26/02 22:40:31  5-MIN KMSN 270440Z 20005KT 10SM CLR 06/M04 A2987 910 48 100 200/05 RMK AO2
14837KMSN MSN20020126224509301/26/02 22:45:31  5-MIN KMSN 270445Z 20005KT 10SM CLR 06/M04 A2987 910 48 100 200/05 RMK AO2
14837KMSN MSN20020126225011101/26/02 22:50:31  5-MIN KMSN 270450Z 19005KT 10SM CLR 04/M04 A2987 920 54 -100 190/05 RMK AO2 SLP120 T00391044
14837KMSN MSN20020126225509401/26/02 22:55:31  5-MIN KMSN 270455Z 19005KT 10SM CLR 03/M04 A2987 910 59 -300 190/05 RMK AO2
14837KMSN MSN20020126230009401/26/02 23:00:31  5-MIN KMSN 270500Z 19006KT 10SM CLR 04/M03 A2987 910 59 -100 190/06 RMK AO2
14837KMSN MSN20020126230509401/26/02 23:05:31  5-MIN KMSN 270505Z 18006KT 10SM CLR 04/M04 A2987 910 57 -100 180/06 RMK AO2
14837KMSN MSN20020126231009401/26/02 23:10:31  5-MIN KMSN 270510Z 17009KT 10SM CLR 04/M03 A2987 910 59 -100 170/09 RMK AO2
14837KMSN MSN20020126231509401/26/02 23:15:31  5-MIN KMSN 270515Z 17008KT 10SM CLR 04/M03 A2987 910 57 -100 170/08 RMK AO2
14837KMSN MSN20020126232009401/26/02 23:20:31  5-MIN KMSN 270520Z 17008KT 10SM CLR 04/M03 A2987 910 57 -100 170/08 RMK AO2
14837KMSN MSN20020126232509401/26/02 23:25:31  5-MIN KMSN 270525Z 18006KT 10SM CLR 04/M03 A2987 910 59 -100 180/06 RMK AO2
14837KMSN MSN20020126233009401/26/02 23:30:31  5-MIN KMSN 270530Z 18006KT 10SM CLR 04/M04 A2987 910 57 -100 180/06 RMK AO2
14837KMSN MSN20020126233509401/26/02 23:35:31  5-MIN KMSN 270535Z 18005KT 10SM CLR 03/M03 A2987 910 61 -200 180/05 RMK AO2
14837KMSN MSN20020126234009401/26/02 23:40:31  5-MIN KMSN 270540Z 18006KT 10SM CLR 04/M04 A2987 910 57 -100 180/06 RMK AO2
14837KMSN MSN20020126234509401/26/02 23:45:31  5-MIN KMSN 270545Z 19006KT 10SM CLR 03/M04 A2986 920 59 -200 190/06 RMK AO2
14837KMSN MSN20020126235013601/26/02 23:50:31  5-MIN KMSN 270550Z 19006KT 10SM CLR 04/M03 A2986 920 57 0 190/06 RMK AO2 SLP117 T00441033 10067 20022 401061022 58002
14837KMSN MSN20020126235509101/26/02 23:55:31  5-MIN KMSN 270555Z 19006KT 10SM CLR 04/M04 A2986 920 55 0 190/06 RMK AO2
14837KMSN MSN20020127000009101/27/02 00:00:31  5-MIN KMSN 270600Z 20006KT 10SM CLR 05/M03 A2986 920 55 0 200/06 RMK AO2
14837KMSN MSN20020127000509101/27/02 00:05:31  5-MIN KMSN 270605Z 20006KT 10SM CLR 05/M04 A2986 920 52 0 200/06 RMK AO2
14837KMSN MSN20020127001009101/27/02 00:10:31  5-MIN KMSN 270610Z 20007KT 10SM CLR 05/M03 A2986 920 55 0 200/07 RMK AO2
14837KMSN MSN20020127001509101/27/02 00:15:31  5-MIN KMSN 270615Z 20006KT 10SM CLR 05/M04 A2986 920 52 0 200/06 RMK AO2
14837KMSN MSN20020127002009101/27/02 00:20:31  5-MIN KMSN 270620Z 20006KT 10SM CLR 05/M04 A2986 920 52 0 200/06 RMK AO2
14837KMSN MSN20020127002509101/27/02 00:25:31  5-MIN KMSN 270625Z 20008KT 10SM CLR 05/M04 A2986 920 52 0 190/08 RMK AO2
14837KMSN MSN20020127003009101/27/02 00:30:31  5-MIN KMSN 270630Z 19009KT 10SM CLR 06/M03 A2986 920 53 0 190/09 RMK AO2
14837KMSN MSN20020127003509101/27/02 00:35:31  5-MIN KMSN 270635Z 20009KT 10SM CLR 06/M03 A2986 920 53 0 200/09 RMK AO2
14837KMSN MSN20020127004009301/27/02 00:40:31  5-MIN KMSN 270640Z 19010KT 10SM CLR 06/M03 A2985 930 53 100 190/10 RMK AO2
14837KMSN MSN20020127004509301/27/02 00:45:31  5-MIN KMSN 270645Z 19010KT 10SM CLR 06/M03 A2985 930 53 100 190/10 RMK AO2
14837KMSN MSN20020127005010801/27/02 00:50:31  5-MIN KMSN 270650Z 19010KT 10SM CLR 05/M03 A2985 930 55 0 190/10 RMK AO2 SLP115 T00501033
14837KMSN MSN20020127005509101/27/02 00:55:31  5-MIN KMSN 270655Z 19010KT 10SM CLR 05/M03 A2986 920 55 0 190/10 RMK AO2
14837KMSN MSN20020127010009101/27/02 01:00:31  5-MIN KMSN 270700Z 19010KT 10SM CLR 05/M03 A2985 930 55 0 190/10 RMK AO2
14837KMSN MSN20020127010509101/27/02 01:05:31  5-MIN KMSN 270705Z 19010KT 10SM CLR 05/M03 A2986 920 55 0 190/10 RMK AO2
14837KMSN MSN20020127011009101/27/02 01:10:31  5-MIN KMSN 270710Z 19010KT 10SM CLR 05/M03 A2986 920 55 0 190/10 RMK AO2
14837KMSN MSN20020127011509101/27/02 01:15:31  5-MIN KMSN 270715Z 19010KT 10SM CLR 04/M03 A2986 920 57 0 190/10 RMK AO2
14837KMSN MSN20020127012009101/27/02 01:20:31  5-MIN KMSN 270720Z 19008KT 10SM CLR 05/M03 A2985 920 55 0 190/08 RMK AO2
14837KMSN MSN20020127012509101/27/02 01:25:31  5-MIN KMSN 270725Z 19008KT 10SM CLR 04/M03 A2986 920 57 0 180/08 RMK AO2
14837KMSN MSN20020127013009101/27/02 01:30:31  5-MIN KMSN 270730Z 18009KT 10SM CLR 04/M03 A2986 920 57 0 180/09 RMK AO2
14837KMSN MSN20020127013509101/27/02 01:35:31  5-MIN KMSN 270735Z 18009KT 10SM CLR 04/M03 A2985 930 57 0 180/09 RMK AO2
14837KMSN MSN20020127014009101/27/02 01:40:31  5-MIN KMSN 270740Z 19008KT 10SM CLR 04/M03 A2986 920 57 0 190/08 RMK AO2
14837KMSN MSN20020127014509101/27/02 01:45:31  5-MIN KMSN 270745Z 19007KT 10SM CLR 04/M03 A2986 920 57 0 190/07 RMK AO2
14837KMSN MSN20020127015010801/27/02 01:50:31  5-MIN KMSN 270750Z 19006KT 10SM CLR 04/M03 A2986 920 57 0 190/06 RMK AO2 SLP115 T00441033
14837KMSN MSN20020127015509101/27/02 01:55:31  5-MIN KMSN 270755Z 20005KT 10SM CLR 04/M03 A2986 920 57 0 200/05 RMK AO2
14837KMSN MSN20020127020009101/27/02 02:00:31  5-MIN KMSN 270800Z 20006KT 10SM CLR 05/M03 A2985 930 55 0 200/06 RMK AO2
14837KMSN MSN20020127020509101/27/02 02:05:31  5-MIN KMSN 270805Z 20007KT 10SM CLR 05/M03 A2985 930 55 0 200/07 RMK AO2
14837KMSN MSN20020127021009701/27/02 02:10:31  5-MIN KMSN 270810Z 20007G16KT 10SM CLR 06/M03 A2985 930 55 0 200/07G16 RMK AO2
14837KMSN MSN20020127021509701/27/02 02:15:31  5-MIN KMSN 270815Z 20008G16KT 10SM CLR 06/M03 A2985 930 53 0 190/08G16 RMK AO2
14837KMSN MSN20020127022009101/27/02 02:20:31  5-MIN KMSN 270820Z 20008KT 10SM CLR 06/M03 A2985 930 53 0 200/08 RMK AO2
14837KMSN MSN20020127022509101/27/02 02:25:31  5-MIN KMSN 270825Z 20006KT 10SM CLR 06/M03 A2985 930 53 0 200/06 RMK AO2
14837KMSN MSN20020127023009101/27/02 02:30:31  5-MIN KMSN 270830Z 19008KT 10SM CLR 06/M03 A2986 920 53 0 190/08 RMK AO2
14837KMSN MSN20020127023509101/27/02 02:35:31  5-MIN KMSN 270835Z 19008KT 10SM CLR 06/M03 A2985 930 53 0 190/08 RMK AO2
14837KMSN MSN20020127024009301/27/02 02:40:31  5-MIN KMSN 270840Z 20008KT 10SM CLR 06/M03 A2985 930 53 100 190/08 RMK AO2
14837KMSN MSN20020127024509301/27/02 02:45:31  5-MIN KMSN 270845Z 19009KT 10SM CLR 06/M04 A2985 930 50 100 190/09 RMK AO2
14837KMSN MSN20020127025011601/27/02 02:50:31  5-MIN KMSN 270850Z 20008KT 10SM CLR 06/M03 A2984 930 53 100 190/08 RMK AO2 SLP110 T00561033 58002
14837KMSN MSN20020127025509301/27/02 02:55:31  5-MIN KMSN 270855Z 19008KT 10SM CLR 06/M03 A2984 940 53 100 190/08 RMK AO2
14837KMSN MSN20020127030009301/27/02 03:00:31  5-MIN KMSN 270900Z 19008KT 10SM CLR 06/M03 A2984 940 53 100 190/08 RMK AO2
14837KMSN MSN20020127030509301/27/02 03:05:31  5-MIN KMSN 270905Z 20008KT 10SM CLR 06/M03 A2984 940 53 100 190/08 RMK AO2
14837KMSN MSN20020127031009301/27/02 03:10:31  5-MIN KMSN 270910Z 20008KT 10SM CLR 06/M03 A2984 940 53 100 200/08 RMK AO2
14837KMSN MSN20020127031509301/27/02 03:15:31  5-MIN KMSN 270915Z 20008KT 10SM CLR 06/M03 A2984 940 53 100 190/08 RMK AO2
14837KMSN MSN20020127032009301/27/02 03:20:31  5-MIN KMSN 270920Z 19008KT 10SM CLR 06/M03 A2984 940 53 100 190/08 RMK AO2
14837KMSN MSN20020127032509101/27/02 03:25:31  5-MIN KMSN 270925Z 19008KT 10SM CLR 05/M03 A2984 940 55 0 190/08 RMK AO2
14837KMSN MSN20020127033009301/27/02 03:30:31  5-MIN KMSN 270930Z 20009KT 10SM CLR 06/M03 A2984 940 53 100 200/09 RMK AO2
14837KMSN MSN20020127033509301/27/02 03:35:31  5-MIN KMSN 270935Z 20007KT 10SM CLR 06/M03 A2984 940 53 100 200/07 RMK AO2
14837KMSN MSN20020127034009301/27/02 03:40:31  5-MIN KMSN 270940Z 20007KT 10SM CLR 06/M03 A2983 940 53 100 200/07 RMK AO2
14837KMSN MSN20020127034509301/27/02 03:45:31  5-MIN KMSN 270945Z 20009KT 10SM CLR 06/M03 A2983 950 53 100 200/09 RMK AO2
14837KMSN MSN20020127035011001/27/02 03:50:31  5-MIN KMSN 270950Z 20008KT 10SM CLR 06/M03 A2983 950 53 100 200/08 RMK AO2 SLP105 T00561033
14837KMSN MSN20020127035509301/27/02 03:55:31  5-MIN KMSN 270955Z 20008KT 10SM CLR 06/M03 A2983 950 53 100 200/08 RMK AO2
14837KMSN MSN20020127040009301/27/02 04:00:31  5-MIN KMSN 271000Z 20007KT 10SM CLR 06/M03 A2983 950 53 100 200/07 RMK AO2
14837KMSN MSN20020127040509101/27/02 04:05:31  5-MIN KMSN 271005Z 20006KT 10SM CLR 05/M03 A2983 950 55 0 200/06 RMK AO2
14837KMSN MSN20020127041009101/27/02 04:10:31  5-MIN KMSN 271010Z 21006KT 10SM CLR 05/M03 A2983 950 55 0 210/06 RMK AO2
14837KMSN MSN20020127041509101/27/02 04:15:31  5-MIN KMSN 271015Z 20007KT 10SM CLR 05/M03 A2983 950 55 0 200/07 RMK AO2
14837KMSN MSN20020127042009101/27/02 04:20:31  5-MIN KMSN 271020Z 20007KT 10SM CLR 05/M03 A2983 950 55 0 200/07 RMK AO2
14837KMSN MSN20020127042509301/27/02 04:25:31  5-MIN KMSN 271025Z 21008KT 10SM CLR 06/M03 A2983 950 53 100 210/08 RMK AO2
14837KMSN MSN20020127043009101/27/02 04:30:31  5-MIN KMSN 271030Z 20007KT 10SM CLR 05/M03 A2983 950 55 0 200/07 RMK AO2
14837KMSN MSN20020127043509101/27/02 04:35:31  5-MIN KMSN 271035Z 21008KT 10SM CLR 05/M03 A2983 950 55 0 200/08 RMK AO2
14837KMSN MSN20020127044009101/27/02 04:40:31  5-MIN KMSN 271040Z 21007KT 10SM CLR 05/M03 A2983 950 55 0 210/07 RMK AO2
14837KMSN MSN20020127044509101/27/02 04:45:31  5-MIN KMSN 271045Z 21007KT 10SM CLR 05/M03 A2983 950 55 0 200/07 RMK AO2
14837KMSN MSN20020127045010801/27/02 04:50:31  5-MIN KMSN 271050Z 21008KT 10SM CLR 05/M03 A2983 950 55 0 210/08 RMK AO2 SLP105 T00501033
14837KMSN MSN20020127045509101/27/02 04:55:31  5-MIN KMSN 271055Z 20008KT 10SM CLR 05/M03 A2982 950 55 0 200/08 RMK AO2
14837KMSN MSN20020127050009101/27/02 05:00:31  5-MIN KMSN 271100Z 21007KT 10SM CLR 05/M03 A2982 960 55 0 210/07 RMK AO2
14837KMSN MSN20020127050509101/27/02 05:05:31  5-MIN KMSN 271105Z 21008KT 10SM CLR 05/M03 A2982 960 55 0 200/08 RMK AO2
14837KMSN MSN20020127051009101/27/02 05:10:31  5-MIN KMSN 271110Z 20007KT 10SM CLR 05/M03 A2982 960 55 0 200/07 RMK AO2
14837KMSN MSN20020127051509101/27/02 05:15:31  5-MIN KMSN 271115Z 20008KT 10SM CLR 04/M03 A2982 950 57 0 200/08 RMK AO2
14837KMSN MSN20020127052009101/27/02 05:20:31  5-MIN KMSN 271120Z 20008KT 10SM CLR 04/M03 A2983 950 57 0 200/08 RMK AO2
14837KMSN MSN20020127052509101/27/02 05:25:31  5-MIN KMSN 271125Z 20007KT 10SM CLR 04/M03 A2982 950 57 0 200/07 RMK AO2
14837KMSN MSN20020127053009101/27/02 05:30:31  5-MIN KMSN 271130Z 20007KT 10SM CLR 04/M03 A2983 950 57 0 200/07 RMK AO2
14837KMSN MSN20020127053509101/27/02 05:35:31  5-MIN KMSN 271135Z 20008KT 10SM CLR 04/M03 A2982 950 57 0 200/08 RMK AO2
14837KMSN MSN20020127054009101/27/02 05:40:31  5-MIN KMSN 271140Z 20007KT 10SM CLR 04/M03 A2983 950 57 0 200/07 RMK AO2
14837KMSN MSN20020127054509101/27/02 05:45:31  5-MIN KMSN 271145Z 21007KT 10SM CLR 04/M03 A2983 950 57 0 200/07 RMK AO2
14837KMSN MSN20020127055012601/27/02 05:50:31  5-MIN KMSN 271150Z 20007KT 10SM CLR 04/M03 A2983 950 57 0 200/07 RMK AO2 SLP106 T00441033 10061 20044 58006
14837KMSN MSN20020127055509101/27/02 05:55:31  5-MIN KMSN 271155Z 20009KT 10SM CLR 04/M04 A2983 950 55 0 200/09 RMK AO2
14837KMSN MSN20020127060009101/27/02 06:00:31  5-MIN KMSN 271200Z 20009KT 10SM CLR 04/M03 A2983 950 57 0 200/09 RMK AO2
14837KMSN MSN20020127060509101/27/02 06:05:31  5-MIN KMSN 271205Z 21007KT 10SM CLR 04/M03 A2983 940 57 0 210/07 RMK AO2
14837KMSN MSN20020127061009101/27/02 06:10:31  5-MIN KMSN 271210Z 20008KT 10SM CLR 04/M03 A2983 950 57 0 200/08 RMK AO2
14837KMSN MSN20020127061509101/27/02 06:15:31  5-MIN KMSN 271215Z 21008KT 10SM CLR 04/M03 A2983 940 57 0 200/08 RMK AO2
14837KMSN MSN20020127062009401/27/02 06:20:31  5-MIN KMSN 271220Z 20008KT 10SM CLR 04/M03 A2983 950 59 -100 200/08 RMK AO2
14837KMSN MSN20020127062509401/27/02 06:25:31  5-MIN KMSN 271225Z 21009KT 10SM CLR 04/M03 A2983 950 59 -100 200/09 RMK AO2
14837KMSN MSN20020127063009401/27/02 06:30:31  5-MIN KMSN 271230Z 20009KT 10SM CLR 04/M03 A2983 950 59 -100 200/09 RMK AO2
14837KMSN MSN20020127063509401/27/02 06:35:31  5-MIN KMSN 271235Z 20008KT 10SM CLR 04/M03 A2983 950 59 -100 200/08 RMK AO2
14837KMSN MSN20020127064009401/27/02 06:40:31  5-MIN KMSN 271240Z 20008KT 10SM CLR 04/M03 A2983 950 59 -100 200/08 RMK AO2
14837KMSN MSN20020127064509401/27/02 06:45:31  5-MIN KMSN 271245Z 20008KT 10SM CLR 04/M03 A2984 940 59 -100 200/08 RMK AO2
14837KMSN MSN20020127065011101/27/02 06:50:31  5-MIN KMSN 271250Z 20008KT 10SM CLR 04/M03 A2983 940 59 -100 200/08 RMK AO2 SLP109 T00391033
14837KMSN MSN20020127065509401/27/02 06:55:31  5-MIN KMSN 271255Z 20008KT 10SM CLR 04/M03 A2984 940 59 -100 200/08 RMK AO2
14837KMSN MSN20020127070009401/27/02 07:00:31  5-MIN KMSN 271300Z 20008KT 10SM CLR 03/M04 A2984 940 59 -200 200/08 RMK AO2
14837KMSN MSN20020127070509401/27/02 07:05:31  5-MIN KMSN 271305Z 20007KT 10SM CLR 04/M04 A2984 940 57 -100 200/07 RMK AO2
14837KMSN MSN20020127071009401/27/02 07:10:31  5-MIN KMSN 271310Z 20008KT 10SM CLR 04/M04 A2984 940 57 -100 200/08 RMK AO2
14837KMSN MSN20020127071509401/27/02 07:15:31  5-MIN KMSN 271315Z 21006KT 10SM CLR 04/M03 A2984 930 59 -100 210/06 RMK AO2
14837KMSN MSN20020127072009401/27/02 07:20:31  5-MIN KMSN 271320Z 20008KT 10SM CLR 04/M03 A2984 940 59 -100 200/08 RMK AO2
14837KMSN MSN20020127072509401/27/02 07:25:31  5-MIN KMSN 271325Z 20006KT 10SM CLR 04/M03 A2984 930 59 -100 200/06 RMK AO2
14837KMSN MSN20020127073009401/27/02 07:30:31  5-MIN KMSN 271330Z 21007KT 10SM CLR 04/M03 A2985 930 59 -100 210/07 RMK AO2
14837KMSN MSN20020127073509401/27/02 07:35:31  5-MIN KMSN 271335Z 20008KT 10SM CLR 04/M03 A2985 930 59 -100 200/08 RMK AO2
14837KMSN MSN20020127074009401/27/02 07:40:31  5-MIN KMSN 271340Z 20008KT 10SM CLR 04/M03 A2985 930 59 -100 200/08 RMK AO2
14837KMSN MSN20020127074509401/27/02 07:45:31  5-MIN KMSN 271345Z 21007KT 10SM CLR 04/M03 A2985 930 59 -100 210/07 RMK AO2
14837KMSN MSN20020127075010801/27/02 07:50:31  5-MIN KMSN 271350Z 20008KT 10SM CLR 04/M03 A2985 930 57 0 200/08 RMK AO2 SLP115 T00441033
14837KMSN MSN20020127075509101/27/02 07:55:31  5-MIN KMSN 271355Z 20007KT 10SM CLR 04/M03 A2985 930 57 0 200/07 RMK AO2
14837KMSN MSN20020127080009101/27/02 08:00:31  5-MIN KMSN 271400Z 21007KT 10SM CLR 04/M03 A2985 930 57 0 200/07 RMK AO2
14837KMSN MSN20020127080509101/27/02 08:05:31  5-MIN KMSN 271405Z 20008KT 10SM CLR 04/M03 A2985 930 57 0 200/08 RMK AO2
14837KMSN MSN20020127081009101/27/02 08:10:31  5-MIN KMSN 271410Z 20008KT 10SM CLR 04/M03 A2986 920 57 0 200/08 RMK AO2
14837KMSN MSN20020127081509101/27/02 08:15:31  5-MIN KMSN 271415Z 20008KT 10SM CLR 04/M03 A2986 920 57 0 200/08 RMK AO2
14837KMSN MSN20020127082009101/27/02 08:20:31  5-MIN KMSN 271420Z 21009KT 10SM CLR 04/M03 A2985 930 57 0 210/09 RMK AO2
14837KMSN MSN20020127082509101/27/02 08:25:31  5-MIN KMSN 271425Z 20008KT 10SM CLR 04/M03 A2985 930 57 0 200/08 RMK AO2
14837KMSN MSN20020127083009101/27/02 08:30:31  5-MIN KMSN 271430Z 20009KT 10SM CLR 04/M03 A2985 930 57 0 200/09 RMK AO2
14837KMSN MSN20020127083509101/27/02 08:35:31  5-MIN KMSN 271435Z 19009KT 10SM CLR 04/M03 A2985 930 57 0 190/09 RMK AO2
14837KMSN MSN20020127084009101/27/02 08:40:31  5-MIN KMSN 271440Z 20008KT 10SM CLR 05/M03 A2985 930 55 0 200/08 RMK AO2
14837KMSN MSN20020127084509101/27/02 08:45:31  5-MIN KMSN 271445Z 21008KT 10SM CLR 05/M03 A2985 930 55 0 200/08 RMK AO2
14837KMSN MSN20020127085011401/27/02 08:50:31  5-MIN KMSN 271450Z 20008KT 10SM CLR 05/M03 A2985 930 55 0 200/08 RMK AO2 SLP115 T00501033 55004
14837KMSN MSN20020127085509101/27/02 08:55:31  5-MIN KMSN 271455Z 20007KT 10SM CLR 05/M03 A2985 930 55 0 200/07 RMK AO2
14837KMSN MSN20020127090009101/27/02 09:00:31  5-MIN KMSN 271500Z 20008KT 10SM CLR 06/M03 A2986 920 53 0 200/08 RMK AO2
14837KMSN MSN20020127090509101/27/02 09:05:31  5-MIN KMSN 271505Z 20009KT 10SM CLR 06/M03 A2986 920 53 0 200/09 RMK AO2
14837KMSN MSN20020127091009101/27/02 09:10:31  5-MIN KMSN 271510Z 21008KT 10SM CLR 06/M03 A2986 920 55 0 210/08 RMK AO2
14837KMSN MSN20020127091509101/27/02 09:15:31  5-MIN KMSN 271515Z 20007KT 10SM CLR 06/M03 A2985 930 55 0 200/07 RMK AO2
14837KMSN MSN20020127092009301/27/02 09:20:31  5-MIN KMSN 271520Z 21007KT 10SM CLR 06/M03 A2985 930 53 100 210/07 RMK AO2
14837KMSN MSN20020127092509301/27/02 09:25:31  5-MIN KMSN 271525Z 20007KT 10SM CLR 06/M03 A2985 930 53 100 200/07 RMK AO2
14837KMSN MSN20020127093010901/27/02 09:30:31  5-MIN KMSN 271530Z 21010KT 170V240 10SM CLR 06/M03 A2985 930 51 100 210/10 170V240 RMK AO2
14837KMSN MSN20020127093509301/27/02 09:35:31  5-MIN KMSN 271535Z 21010KT 10SM CLR 06/M03 A2985 930 51 100 210/10 RMK AO2
14837KMSN MSN20020127094009301/27/02 09:40:31  5-MIN KMSN 271540Z 22010KT 10SM CLR 06/M03 A2985 930 53 100 210/10 RMK AO2
14837KMSN MSN20020127094509301/27/02 09:45:31  5-MIN KMSN 271545Z 22011KT 10SM CLR 06/M03 A2985 930 53 100 210/11 RMK AO2
14837KMSN MSN20020127095011001/27/02 09:50:31  5-MIN KMSN 271550Z 21012KT 10SM CLR 07/M03 A2985 930 51 200 210/12 RMK AO2 SLP115 T00671028
14837KMSN MSN20020127095509301/27/02 09:55:31  5-MIN KMSN 271555Z 21012KT 10SM CLR 07/M03 A2986 920 51 200 210/12 RMK AO2
14837KMSN MSN20020127100009901/27/02 10:00:31  5-MIN KMSN 271600Z 21012G18KT 10SM CLR 07/M03 A2985 930 49 300 210/12G18 RMK AO2
14837KMSN MSN20020127100509901/27/02 10:05:31  5-MIN KMSN 271605Z 21012G18KT 10SM CLR 07/M03 A2985 930 49 300 210/12G18 RMK AO2
14837KMSN MSN20020127101009301/27/02 10:10:31  5-MIN KMSN 271610Z 21012KT 10SM CLR 07/M03 A2985 930 49 300 210/12 RMK AO2
14837KMSN MSN20020127101509301/27/02 10:15:31  5-MIN KMSN 271615Z 21014KT 10SM CLR 07/M03 A2985 930 49 300 210/14 RMK AO2
14837KMSN MSN20020127102009301/27/02 10:20:31  5-MIN KMSN 271620Z 22012KT 10SM CLR 08/M03 A2985 930 47 300 220/12 RMK AO2
14837KMSN MSN20020127102509301/27/02 10:25:31  5-MIN KMSN 271625Z 21011KT 10SM CLR 08/M03 A2985 930 47 300 210/11 RMK AO2
14837KMSN MSN20020127103009301/27/02 10:30:31  5-MIN KMSN 271630Z 22012KT 10SM CLR 08/M03 A2985 930 45 400 210/12 RMK AO2
14837KMSN MSN20020127103509301/27/02 10:35:31  5-MIN KMSN 271635Z 22011KT 10SM CLR 08/M03 A2985 930 45 400 220/11 RMK AO2
14837KMSN MSN20020127104009301/27/02 10:40:31  5-MIN KMSN 271640Z 21011KT 10SM CLR 08/M03 A2985 930 45 400 210/11 RMK AO2
14837KMSN MSN20020127104509301/27/02 10:45:31  5-MIN KMSN 271645Z 20011KT 10SM CLR 08/M03 A2985 930 45 400 200/11 RMK AO2
14837KMSN MSN20020127105011001/27/02 10:50:31  5-MIN KMSN 271650Z 21011KT 10SM CLR 09/M03 A2985 930 43 500 210/11 RMK AO2 SLP114 T00891028
14837KMSN MSN20020127105509301/27/02 10:55:31  5-MIN KMSN 271655Z 21009KT 10SM CLR 09/M03 A2985 930 43 500 210/09 RMK AO2
14837KMSN MSN20020127110009901/27/02 11:00:31  5-MIN KMSN 271700Z 20008G16KT 10SM CLR 09/M02 A2985 930 44 500 200/08G16 RMK AO2
14837KMSN MSN20020127110509901/27/02 11:05:31  5-MIN KMSN 271705Z 20010G16KT 10SM CLR 09/M02 A2984 940 44 500 200/10G16 RMK AO2
14837KMSN MSN20020127111009901/27/02 11:10:31  5-MIN KMSN 271710Z 20012G16KT 10SM CLR 09/M02 A2984 940 44 500 200/12G16 RMK AO2
14837KMSN MSN20020127111509301/27/02 11:15:31  5-MIN KMSN 271715Z 20011KT 10SM CLR 09/M02 A2984 940 44 500 200/11 RMK AO2
14837KMSN MSN20020127112009301/27/02 11:20:31  5-MIN KMSN 271720Z 21011KT 10SM CLR 09/M02 A2984 940 44 500 210/11 RMK AO2
14837KMSN MSN20020127112509901/27/02 11:25:31  5-MIN KMSN 271725Z 20009G17KT 10SM CLR 09/M02 A2984 940 44 500 200/09G17 RMK AO2
14837KMSN MSN20020127113009901/27/02 11:30:31  5-MIN KMSN 271730Z 20008G17KT 10SM CLR 09/M02 A2983 940 44 500 200/08G17 RMK AO2
14837KMSN MSN20020127113509301/27/02 11:35:31  5-MIN KMSN 271735Z 20010KT 10SM CLR 09/M02 A2983 950 44 500 200/10 RMK AO2
14837KMSN MSN20020127114009301/27/02 11:40:31  5-MIN KMSN 271740Z 20008KT 10SM CLR 09/M02 A2983 950 44 500 200/08 RMK AO2
14837KMSN MSN20020127114509301/27/02 11:45:31  5-MIN KMSN 271745Z 21009KT 10SM CLR 09/M02 A2983 950 44 600 210/09 RMK AO2
14837KMSN MSN20020127115012801/27/02 11:50:31  5-MIN KMSN 271750Z 20008KT 10SM CLR 10/M02 A2982 950 42 600 200/08 RMK AO2 SLP104 T01001022 10100 20033 51007
14837KMSN MSN20020127115509301/27/02 11:55:31  5-MIN KMSN 271755Z 20010KT 10SM CLR 10/M02 A2982 960 42 600 200/10 RMK AO2
14837KMSN MSN20020127120009301/27/02 12:00:31  5-MIN KMSN 271800Z 21010KT 10SM CLR 10/M02 A2982 960 42 600 200/10 RMK AO2
14837KMSN MSN20020127120509301/27/02 12:05:31  5-MIN KMSN 271805Z 20011KT 10SM CLR 10/M02 A2982 960 42 600 200/11 RMK AO2
14837KMSN MSN20020127121009301/27/02 12:10:31  5-MIN KMSN 271810Z 21010KT 10SM CLR 10/M02 A2982 960 42 600 200/10 RMK AO2
14837KMSN MSN20020127121509301/27/02 12:15:31  5-MIN KMSN 271815Z 20009KT 10SM CLR 10/M02 A2981 960 44 600 200/09 RMK AO2
14837KMSN MSN20020127122009301/27/02 12:20:31  5-MIN KMSN 271820Z 21010KT 10SM CLR 11/M02 A2981 970 42 700 210/10 RMK AO2
14837KMSN MSN20020127122509301/27/02 12:25:31  5-MIN KMSN 271825Z 20012KT 10SM CLR 11/M02 A2981 970 42 700 200/12 RMK AO2
14837KMSN MSN20020127123009301/27/02 12:30:31  5-MIN KMSN 271830Z 21011KT 10SM CLR 11/M02 A2980 970 42 700 210/11 RMK AO2
14837KMSN MSN20020127123509301/27/02 12:35:31  5-MIN KMSN 271835Z 21011KT 10SM CLR 11/M02 A2980 980 42 700 210/11 RMK AO2
14837KMSN MSN20020127124009301/27/02 12:40:31  5-MIN KMSN 271840Z 21011KT 10SM CLR 11/M02 A2980 980 42 700 210/11 RMK AO2
14837KMSN MSN20020127124509301/27/02 12:45:31  5-MIN KMSN 271845Z 22011KT 10SM CLR 11/M02 A2979 980 42 700 220/11 RMK AO2
14837KMSN MSN20020127125011001/27/02 12:50:31  5-MIN KMSN 271850Z 20012KT 10SM CLR 11/M02 A2980 980 41 800 200/12 RMK AO2 SLP094 T01111017
14837KMSN MSN20020127125509301/27/02 12:55:31  5-MIN KMSN 271855Z 21011KT 10SM CLR 11/M02 A2979 980 41 800 210/11 RMK AO2
14837KMSN MSN20020127130009301/27/02 13:00:31  5-MIN KMSN 271900Z 20011KT 10SM CLR 11/M02 A2979 990 41 800 200/11 RMK AO2
14837KMSN MSN20020127130509301/27/02 13:05:31  5-MIN KMSN 271905Z 21009KT 10SM CLR 12/M02 A2979 990 39 900 210/09 RMK AO2
14837KMSN MSN20020127131009301/27/02 13:10:31  5-MIN KMSN 271910Z 20010KT 10SM CLR 12/M02 A2978 990 39 900 200/10 RMK AO2
14837KMSN MSN20020127131509301/27/02 13:15:31  5-MIN KMSN 271915Z 21012KT 10SM CLR 12/M02 A2978 990 39 900 210/12 RMK AO2
14837KMSN MSN20020127132009301/27/02 13:20:31  5-MIN KMSN 271920Z 21011KT 10SM CLR 12/M02 A2978 990 39 900 210/11 RMK AO2
14837KMSN MSN20020127132509301/27/02 13:25:31  5-MIN KMSN 271925Z 21010KT 10SM CLR 12/M02 A2978 990 38 900 210/10 RMK AO2
14837KMSN MSN20020127133009301/27/02 13:30:31  5-MIN KMSN 271930Z 21011KT 10SM CLR 12/M02 A2978 990 39 900 210/11 RMK AO2
14837KMSN MSN20020127133509901/27/02 13:35:31  5-MIN KMSN 271935Z 21012G17KT 10SM CLR 12/M02 A2978 990 39 900 210/12G17 RMK AO2
14837KMSN MSN20020127134010001/27/02 13:40:31  5-MIN KMSN 271940Z 22011G17KT 10SM CLR 12/M02 A2978 1000 39 900 220/11G17 RMK AO2
14837KMSN MSN20020127134510001/27/02 13:45:31  5-MIN KMSN 271945Z 21010G16KT 10SM CLR 12/M02 A2978 1000 39 900 210/10G16 RMK AO2
14837KMSN MSN20020127135011701/27/02 13:50:31  5-MIN KMSN 271950Z 20009G16KT 10SM CLR 12/M01 A2977 1000 39 900 200/09G16 RMK AO2 SLP087 T01221011
14837KMSN MSN20020127135509401/27/02 13:55:31  5-MIN KMSN 271955Z 20011KT 10SM CLR 12/M01 A2978 1000 39 900 200/11 RMK AO2
14837KMSN MSN20020127140009401/27/02 14:00:31  5-MIN KMSN 272000Z 20010KT 10SM CLR 12/M01 A2978 1000 39 900 200/10 RMK AO2
14837KMSN MSN20020127140509401/27/02 14:05:31  5-MIN KMSN 272005Z 21009KT 10SM CLR 12/M01 A2977 1000 39 900 210/09 RMK AO2
14837KMSN MSN20020127141010001/27/02 14:10:31  5-MIN KMSN 272010Z 21011G16KT 10SM CLR 12/M01 A2977 1000 41 900 210/11G16 RMK AO2
14837KMSN MSN20020127141509501/27/02 14:15:31  5-MIN KMSN 272015Z 20009KT 10SM CLR 12/M01 A2977 1010 39 1000 200/09 RMK AO2
14837KMSN MSN20020127142009501/27/02 14:20:31  5-MIN KMSN 272020Z 20010KT 10SM CLR 12/M01 A2977 1010 39 1000 200/10 RMK AO2
14837KMSN MSN20020127142509401/27/02 14:25:31  5-MIN KMSN 272025Z 20009KT 10SM CLR 12/M01 A2976 1010 41 900 200/09 RMK AO2
14837KMSN MSN20020127143009401/27/02 14:30:31  5-MIN KMSN 272030Z 20010KT 10SM CLR 12/M01 A2976 1010 41 900 200/10 RMK AO2
14837KMSN MSN20020127143509401/27/02 14:35:31  5-MIN KMSN 272035Z 21010KT 10SM CLR 12/M01 A2976 1010 41 900 210/10 RMK AO2
14837KMSN MSN20020127144009401/27/02 14:40:31  5-MIN KMSN 272040Z 20008KT 10SM CLR 12/M01 A2976 1010 41 900 200/08 RMK AO2
14837KMSN MSN20020127144509401/27/02 14:45:31  5-MIN KMSN 272045Z 20007KT 10SM CLR 12/M01 A2976 1010 41 900 200/07 RMK AO2
14837KMSN MSN20020127145011701/27/02 14:50:31  5-MIN KMSN 272050Z 20006KT 10SM CLR 12/M01 A2976 1010 41 900 200/06 RMK AO2 SLP082 T01171011 58010
14837KMSN MSN20020127145509501/27/02 14:55:31  5-MIN KMSN 272055Z 20007KT 10SM CLR 12/M01 A2976 1010 39 1000 200/07 RMK AO2
14837KMSN MSN20020127150009501/27/02 15:00:31  5-MIN KMSN 272100Z 21007KT 10SM CLR 12/M01 A2976 1010 39 1000 210/07 RMK AO2
14837KMSN MSN20020127150509501/27/02 15:05:31  5-MIN KMSN 272105Z 19006KT 10SM CLR 12/M01 A2976 1010 41 1000 190/06 RMK AO2
14837KMSN MSN20020127151009501/27/02 15:10:31  5-MIN KMSN 272110Z 20007KT 10SM CLR 12/M01 A2977 1010 41 1000 200/07 RMK AO2
14837KMSN MSN20020127151509501/27/02 15:15:31  5-MIN KMSN 272115Z 20007KT 10SM CLR 13/M01 A2977 1010 39 1000 200/07 RMK AO2
14837KMSN MSN20020127152009501/27/02 15:20:31  5-MIN KMSN 272120Z 20010KT 10SM CLR 13/M01 A2977 1010 39 1000 200/10 RMK AO2
14837KMSN MSN20020127152509501/27/02 15:25:31  5-MIN KMSN 272125Z 19008KT 10SM CLR 13/M01 A2977 1010 39 1000 190/08 RMK AO2
14837KMSN MSN20020127153009501/27/02 15:30:31  5-MIN KMSN 272130Z 21007KT 10SM CLR 13/M01 A2977 1010 39 1000 210/07 RMK AO2
14837KMSN MSN20020127153509501/27/02 15:35:31  5-MIN KMSN 272135Z 20006KT 10SM CLR 12/M01 A2977 1010 41 1000 200/06 RMK AO2
14837KMSN MSN20020127154009501/27/02 15:40:31  5-MIN KMSN 272140Z 21006KT 10SM CLR 12/M01 A2977 1010 41 1000 200/06 RMK AO2
14837KMSN MSN20020127154509501/27/02 15:45:31  5-MIN KMSN 272145Z 21008KT 10SM CLR 12/M01 A2977 1010 41 1000 210/08 RMK AO2
14837KMSN MSN20020127155011201/27/02 15:50:31  5-MIN KMSN 272150Z 21007KT 10SM CLR 13/M01 A2977 1000 39 1000 210/07 RMK AO2 SLP084 T01281006
14837KMSN MSN20020127155509501/27/02 15:55:31  5-MIN KMSN 272155Z 20008KT 10SM CLR 13/M01 A2977 1000 39 1000 200/08 RMK AO2
14837KMSN MSN20020127160009401/27/02 16:00:31  5-MIN KMSN 272200Z 19009KT 10SM CLR 12/M01 A2977 1000 41 900 190/09 RMK AO2
14837KMSN MSN20020127160509501/27/02 16:05:31  5-MIN KMSN 272205Z 20010KT 10SM CLR 12/M01 A2977 1000 41 1000 190/10 RMK AO2
14837KMSN MSN20020127161009401/27/02 16:10:31  5-MIN KMSN 272210Z 20009KT 10SM CLR 12/M01 A2977 1000 41 900 200/09 RMK AO2
14837KMSN MSN20020127161509401/27/02 16:15:31  5-MIN KMSN 272215Z 20010KT 10SM CLR 12/M01 A2977 1000 41 900 200/10 RMK AO2
14837KMSN MSN20020127162009401/27/02 16:20:31  5-MIN KMSN 272220Z 20008KT 10SM CLR 12/M01 A2977 1000 41 900 200/08 RMK AO2
14837KMSN MSN20020127162509401/27/02 16:25:31  5-MIN KMSN 272225Z 19009KT 10SM CLR 12/M01 A2977 1000 41 900 190/09 RMK AO2
14837KMSN MSN20020127163009401/27/02 16:30:31  5-MIN KMSN 272230Z 20008KT 10SM CLR 12/M01 A2977 1000 42 900 200/08 RMK AO2
14837KMSN MSN20020127163509401/27/02 16:35:31  5-MIN KMSN 272235Z 20008KT 10SM CLR 12/M01 A2977 1000 42 900 190/08 RMK AO2
14837KMSN MSN20020127164009401/27/02 16:40:31  5-MIN KMSN 272240Z 20007KT 10SM CLR 12/M01 A2977 1000 42 900 200/07 RMK AO2
14837KMSN MSN20020127164509401/27/02 16:45:31  5-MIN KMSN 272245Z 20007KT 10SM CLR 12/M01 A2977 1000 42 900 200/07 RMK AO2
14837KMSN MSN20020127165011101/27/02 16:50:31  5-MIN KMSN 272250Z 20008KT 10SM CLR 11/M01 A2977 1000 44 800 200/08 RMK AO2 SLP086 T01111006
14837KMSN MSN20020127165509401/27/02 16:55:31  5-MIN KMSN 272255Z 20007KT 10SM CLR 11/M01 A2977 1010 44 800 190/07 RMK AO2
14837KMSN MSN20020127170009401/27/02 17:00:31  5-MIN KMSN 272300Z 20006KT 10SM CLR 12/M01 A2977 1000 42 900 200/06 RMK AO2
14837KMSN MSN20020127170509401/27/02 17:05:31  5-MIN KMSN 272305Z 20010KT 10SM CLR 12/M01 A2978 1000 42 900 200/10 RMK AO2
14837KMSN MSN20020127171009301/27/02 17:10:31  5-MIN KMSN 272310Z 20007KT 10SM CLR 12/M01 A2978 990 42 900 200/07 RMK AO2
14837KMSN MSN20020127171509301/27/02 17:15:31  5-MIN KMSN 272315Z 20009KT 10SM CLR 12/M01 A2978 990 42 900 200/09 RMK AO2
14837KMSN MSN20020127172009301/27/02 17:20:31  5-MIN KMSN 272320Z 20009KT 10SM CLR 12/M01 A2978 990 41 900 200/09 RMK AO2
14837KMSN MSN20020127172509301/27/02 17:25:31  5-MIN KMSN 272325Z 20010KT 10SM CLR 12/M01 A2979 990 41 900 200/10 RMK AO2
14837KMSN MSN20020127173009301/27/02 17:30:31  5-MIN KMSN 272330Z 20009KT 10SM CLR 11/M01 A2979 990 42 800 200/09 RMK AO2
14837KMSN MSN20020127173509301/27/02 17:35:31  5-MIN KMSN 272335Z 21009KT 10SM CLR 11/M01 A2979 990 42 800 210/09 RMK AO2
14837KMSN MSN20020127174009301/27/02 17:40:31  5-MIN KMSN 272340Z 21009KT 10SM CLR 11/M01 A2979 980 42 800 210/09 RMK AO2
14837KMSN MSN20020127174509301/27/02 17:45:31  5-MIN KMSN 272345Z 21008KT 10SM CLR 11/M01 A2979 980 44 700 210/08 RMK AO2
14837KMSN MSN20020127175012801/27/02 17:50:31  5-MIN KMSN 272350Z 22007KT 10SM CLR 11/M01 A2979 980 44 700 220/07 RMK AO2 SLP092 T01061011 10128 20100 56019
14837KMSN MSN20020127175509301/27/02 17:55:31  5-MIN KMSN 272355Z 21009KT 10SM CLR 11/M01 A2979 980 42 800 210/09 RMK AO2
14837KMSN MSN20020127180009301/27/02 18:00:31  5-MIN KMSN 280000Z 21008KT 10SM CLR 11/M01 A2980 980 44 700 210/08 RMK AO2
14837KMSN MSN20020127180509301/27/02 18:05:31  5-MIN KMSN 280005Z 22007KT 10SM CLR 11/M02 A2980 980 42 700 220/07 RMK AO2
14837KMSN MSN20020127181009301/27/02 18:10:31  5-MIN KMSN 280010Z 22006KT 10SM CLR 11/M02 A2980 980 42 700 220/06 RMK AO2
14837KMSN MSN20020127181509301/27/02 18:15:31  5-MIN KMSN 280015Z 22005KT 10SM CLR 11/M02 A2980 980 42 700 220/05 RMK AO2
14837KMSN MSN20020127182009301/27/02 18:20:31  5-MIN KMSN 280020Z VRB03KT 10SM CLR 10/M02 A2981 970 44 600 VRB/03 RMK AO2
14837KMSN MSN20020127182509301/27/02 18:25:31  5-MIN KMSN 280025Z VRB04KT 10SM CLR 10/M02 A2981 970 44 600 VRB/04 RMK AO2
14837KMSN MSN20020127183009301/27/02 18:30:31  5-MIN KMSN 280030Z VRB03KT 10SM CLR 09/M02 A2981 970 45 600 VRB/03 RMK AO2
14837KMSN MSN20020127183509301/27/02 18:35:31  5-MIN KMSN 280035Z VRB03KT 10SM CLR 09/M02 A2981 960 47 500 VRB/03 RMK AO2
14837KMSN MSN20020127184009301/27/02 18:40:31  5-MIN KMSN 280040Z 22004KT 10SM CLR 09/M02 A2981 970 47 500 220/04 RMK AO2
14837KMSN MSN20020127184509301/27/02 18:45:31  5-MIN KMSN 280045Z 24004KT 10SM CLR 09/M02 A2981 960 47 500 240/04 RMK AO2
14837KMSN MSN20020127185011001/27/02 18:50:31  5-MIN KMSN 280050Z 24004KT 10SM CLR 09/M02 A2981 970 47 500 240/04 RMK AO2 SLP100 T00891017
14837KMSN MSN20020127185509301/27/02 18:55:31  5-MIN KMSN 280055Z 23004KT 10SM CLR 09/M02 A2981 970 47 500 230/04 RMK AO2
14837KMSN MSN20020127190009301/27/02 19:00:31  5-MIN KMSN 280100Z 22004KT 10SM CLR 08/M02 A2982 960 49 400 220/04 RMK AO2
14837KMSN MSN20020127190509301/27/02 19:05:31  5-MIN KMSN 280105Z 21004KT 10SM CLR 08/M02 A2982 960 49 400 210/04 RMK AO2
14837KMSN MSN20020127191009301/27/02 19:10:31  5-MIN KMSN 280110Z 22003KT 10SM CLR 08/M02 A2982 960 49 400 220/03 RMK AO2
14837KMSN MSN20020127191509301/27/02 19:15:31  5-MIN KMSN 280115Z 00000KT 10SM CLR 06/M02 A2983 950 57 100 000/00 RMK AO2
14837KMSN MSN20020127192009301/27/02 19:20:31  5-MIN KMSN 280120Z 00000KT 10SM CLR 06/M02 A2982 960 55 200 000/00 RMK AO2
14837KMSN MSN20020127192509301/27/02 19:25:31  5-MIN KMSN 280125Z 19003KT 10SM CLR 07/M02 A2983 950 53 200 190/03 RMK AO2
14837KMSN MSN20020127193009301/27/02 19:30:31  5-MIN KMSN 280130Z 20003KT 10SM CLR 07/M02 A2983 950 51 300 200/03 RMK AO2
14837KMSN MSN20020127193509301/27/02 19:35:31  5-MIN KMSN 280135Z 19003KT 10SM CLR 07/M02 A2982 950 53 200 190/03 RMK AO2
14837KMSN MSN20020127194009301/27/02 19:40:31  5-MIN KMSN 280140Z 18003KT 10SM CLR 06/M02 A2982 960 57 100 180/03 RMK AO2
14837KMSN MSN20020127194509301/27/02 19:45:31  5-MIN KMSN 280145Z 19004KT 10SM CLR 06/M02 A2982 950 57 100 190/04 RMK AO2
14837KMSN MSN20020127195010801/27/02 19:50:31  5-MIN KMSN 280150Z 20003KT 10SM CLR 05/M03 A2983 950 57 0 190/03 RMK AO2 SLP106 T00501028
14837KMSN MSN20020127195509301/27/02 19:55:31  5-MIN KMSN 280155Z 19003KT 10SM CLR 06/M02 A2983 950 55 100 190/03 RMK AO2
14837KMSN MSN20020127200009301/27/02 20:00:31  5-MIN KMSN 280200Z 19003KT 10SM CLR 07/M02 A2983 950 53 200 180/03 RMK AO2
14837KMSN MSN20020127200509101/27/02 20:05:31  5-MIN KMSN 280205Z 17003KT 10SM CLR 04/M02 A2982 950 62 0 170/03 RMK AO2
14837KMSN MSN20020127201009101/27/02 20:10:31  5-MIN KMSN 280210Z 17003KT 10SM CLR 05/M02 A2983 950 59 0 170/03 RMK AO2
14837KMSN MSN20020127201509101/27/02 20:15:31  5-MIN KMSN 280215Z 00000KT 10SM CLR 05/M02 A2983 950 62 0 000/00 RMK AO2
14837KMSN MSN20020127202009101/27/02 20:20:31  5-MIN KMSN 280220Z 00000KT 10SM CLR 04/M02 A2983 950 62 0 000/00 RMK AO2
14837KMSN MSN20020127202509101/27/02 20:25:31  5-MIN KMSN 280225Z 00000KT 10SM CLR 04/M02 A2982 950 62 0 000/00 RMK AO2
14837KMSN MSN20020127203009101/27/02 20:30:31  5-MIN KMSN 280230Z 00000KT 10SM CLR 04/M02 A2983 950 62 0 000/00 RMK AO2
14837KMSN MSN20020127203509101/27/02 20:35:31  5-MIN KMSN 280235Z 00000KT 10SM CLR 05/M02 A2983 950 59 0 000/00 RMK AO2
14837KMSN MSN20020127204009101/27/02 20:40:31  5-MIN KMSN 280240Z 20003KT 10SM CLR 04/M02 A2982 950 62 0 200/03 RMK AO2
14837KMSN MSN20020127204509101/27/02 20:45:31  5-MIN KMSN 280245Z 00000KT 10SM CLR 05/M02 A2983 950 59 0 000/00 RMK AO2
14837KMSN MSN20020127205011601/27/02 20:50:31  5-MIN KMSN 280250Z 21003KT 10SM CLR 06/M02 A2983 950 55 100 210/03 RMK AO2 SLP106 T00611022 53009
14837KMSN MSN20020127205509301/27/02 20:55:31  5-MIN KMSN 280255Z 21003KT 10SM CLR 06/M02 A2983 950 55 100 210/03 RMK AO2
14837KMSN MSN20020127210009301/27/02 21:00:31  5-MIN KMSN 280300Z 21003KT 10SM CLR 06/M02 A2983 950 55 100 210/03 RMK AO2
14837KMSN MSN20020127210509301/27/02 21:05:31  5-MIN KMSN 280305Z 00000KT 10SM CLR 06/M02 A2983 950 57 100 000/00 RMK AO2
14837KMSN MSN20020127211009101/27/02 21:10:31  5-MIN KMSN 280310Z 00000KT 10SM CLR 05/M02 A2983 950 59 0 000/00 RMK AO2
14837KMSN MSN20020127211509101/27/02 21:15:31  5-MIN KMSN 280315Z 00000KT 10SM CLR 04/M02 A2983 950 62 0 000/00 RMK AO2
14837KMSN MSN20020127212009301/27/02 21:20:31  5-MIN KMSN 280320Z 23003KT 10SM CLR 06/M02 A2983 950 57 100 230/03 RMK AO2
14837KMSN MSN20020127212509101/27/02 21:25:31  5-MIN KMSN 280325Z 00000KT 10SM CLR 05/M02 A2983 950 59 0 000/00 RMK AO2
14837KMSN MSN20020127213009401/27/02 21:30:31  5-MIN KMSN 280330Z 00000KT 10SM CLR 04/M02 A2983 950 64 -100 000/00 RMK AO2
14837KMSN MSN20020127213509401/27/02 21:35:31  5-MIN KMSN 280335Z 00000KT 10SM CLR 03/M02 A2983 950 69 -200 000/00 RMK AO2
14837KMSN MSN20020127214009401/27/02 21:40:31  5-MIN KMSN 280340Z 00000KT 10SM CLR 04/M02 A2983 950 64 -100 000/00 RMK AO2
14837KMSN MSN20020127214509401/27/02 21:45:31  5-MIN KMSN 280345Z 00000KT 10SM CLR 03/M02 A2983 950 69 -200 000/00 RMK AO2
14837KMSN MSN20020127215011101/27/02 21:50:31  5-MIN KMSN 280350Z 00000KT 10SM CLR 03/M02 A2983 950 67 -100 000/00 RMK AO2 SLP107 T00331022
14837KMSN MSN20020127215509401/27/02 21:55:31  5-MIN KMSN 280355Z 00000KT 10SM CLR 03/M02 A2983 950 67 -200 000/00 RMK AO2
14837KMSN MSN20020127220009401/27/02 22:00:31  5-MIN KMSN 280400Z 00000KT 10SM CLR 03/M02 A2984 940 69 -200 000/00 RMK AO2
14837KMSN MSN20020127220509401/27/02 22:05:31  5-MIN KMSN 280405Z 00000KT 10SM CLR 03/M02 A2983 940 69 -200 000/00 RMK AO2
14837KMSN MSN20020127221009401/27/02 22:10:31  5-MIN KMSN 280410Z 00000KT 10SM CLR 03/M02 A2984 940 67 -200 000/00 RMK AO2
14837KMSN MSN20020127221509401/27/02 22:15:31  5-MIN KMSN 280415Z 00000KT 10SM CLR 03/M02 A2984 940 69 -200 000/00 RMK AO2
14837KMSN MSN20020127222009401/27/02 22:20:31  5-MIN KMSN 280420Z 00000KT 10SM CLR 02/M02 A2984 940 72 -300 000/00 RMK AO2
14837KMSN MSN20020127222509401/27/02 22:25:31  5-MIN KMSN 280425Z 00000KT 10SM CLR 03/M02 A2984 940 69 -200 000/00 RMK AO2
14837KMSN MSN20020127223009401/27/02 22:30:31  5-MIN KMSN 280430Z 00000KT 10SM CLR 02/M03 A2984 940 72 -400 000/00 RMK AO2
14837KMSN MSN20020127223509401/27/02 22:35:31  5-MIN KMSN 280435Z 00000KT 10SM CLR 01/M03 A2984 940 75 -400 000/00 RMK AO2
14837KMSN MSN20020127224009401/27/02 22:40:31  5-MIN KMSN 280440Z 15004KT 10SM CLR 00/M03 A2984 940 81 -600 150/04 RMK AO2
14837KMSN MSN20020127224509401/27/02 22:45:31  5-MIN KMSN 280445Z 17005KT 10SM CLR 02/M02 A2984 940 75 -400 170/05 RMK AO2
14837KMSN MSN20020127225011101/27/02 22:50:31  5-MIN KMSN 280450Z 17005KT 10SM CLR 03/M02 A2984 940 67 -200 170/05 RMK AO2 SLP110 T00331022
14837KMSN MSN20020127225509401/27/02 22:55:31  5-MIN KMSN 280455Z 19004KT 10SM CLR 04/M02 A2984 940 64 -100 190/04 RMK AO2
14837KMSN MSN20020127230009401/27/02 23:00:31  5-MIN KMSN 280500Z 00000KT 10SM CLR 02/M02 A2984 940 75 -400 000/00 RMK AO2
14837KMSN MSN20020127230509401/27/02 23:05:31  5-MIN KMSN 280505Z 00000KT 10SM CLR 00/M03 A2984 940 78 -600 000/00 RMK AO2
14837KMSN MSN20020127231009401/27/02 23:10:31  5-MIN KMSN 280510Z 00000KT 10SM CLR 00/M03 A2985 930 78 -600 000/00 RMK AO2
14837KMSN MSN20020127231509401/27/02 23:15:31  5-MIN KMSN 280515Z 00000KT 10SM CLR 00/M03 A2984 940 78 -600 000/00 RMK AO2
14837KMSN MSN20020127232009401/27/02 23:20:31  5-MIN KMSN 280520Z 00000KT 10SM CLR 01/M03 A2984 940 75 -400 000/00 RMK AO2
14837KMSN MSN20020127232509401/27/02 23:25:31  5-MIN KMSN 280525Z 00000KT 10SM CLR 01/M03 A2985 930 78 -500 000/00 RMK AO2
14837KMSN MSN20020127233009401/27/02 23:30:31  5-MIN KMSN 280530Z 00000KT 10SM CLR 01/M03 A2985 930 75 -400 000/00 RMK AO2
14837KMSN MSN20020127233509401/27/02 23:35:31  5-MIN KMSN 280535Z 00000KT 10SM CLR 01/M03 A2985 930 75 -400 000/00 RMK AO2
14837KMSN MSN20020127234009401/27/02 23:40:31  5-MIN KMSN 280540Z 00000KT 10SM CLR 00/M03 A2985 930 78 -600 000/00 RMK AO2
14837KMSN MSN20020127234509401/27/02 23:45:31  5-MIN KMSN 280545Z 00000KT 10SM CLR 01/M03 A2985 930 75 -400 000/00 RMK AO2
14837KMSN MSN20020127235013901/27/02 23:50:31  5-MIN KMSN 280550Z 00000KT 10SM CLR 01/M03 A2985 930 78 -500 000/00 RMK AO2 SLP112 T00061028 10111 21006 401281006 51013
14837KMSN MSN20020127235509401/27/02 23:55:31  5-MIN KMSN 280555Z 15003KT 10SM CLR 01/M03 A2984 930 78 -500 150/03 RMK AO2
14837KMSN MSN20020128000009401/28/02 00:00:31  5-MIN KMSN 280600Z 17003KT 10SM CLR 02/M03 A2984 940 72 -400 170/03 RMK AO2
14837KMSN MSN20020128000509401/28/02 00:05:31  5-MIN KMSN 280605Z 18003KT 10SM CLR 01/M03 A2984 940 78 -500 180/03 RMK AO2
14837KMSN MSN20020128001009401/28/02 00:10:31  5-MIN KMSN 280610Z 18003KT 10SM CLR 00/M03 A2984 940 78 -600 180/03 RMK AO2
14837KMSN MSN20020128001509401/28/02 00:15:31  5-MIN KMSN 280615Z 19003KT 10SM CLR 00/M03 A2984 940 78 -600 190/03 RMK AO2
14837KMSN MSN20020128002009401/28/02 00:20:31  5-MIN KMSN 280620Z 00000KT 10SM CLR 00/M03 A2985 930 78 -600 000/00 RMK AO2
14837KMSN MSN20020128002509501/28/02 00:25:31  5-MIN KMSN 280625Z 00000KT 10SM CLR M01/M04 A2985 930 81 -700 000/00 RMK AO2
14837KMSN MSN20020128003009501/28/02 00:30:31  5-MIN KMSN 280630Z 00000KT 10SM CLR M01/M04 A2985 930 81 -700 000/00 RMK AO2
14837KMSN MSN20020128003509501/28/02 00:35:31  5-MIN KMSN 280635Z 00000KT 10SM CLR M01/M03 A2985 930 81 -700 000/00 RMK AO2
14837KMSN MSN20020128004009401/28/02 00:40:31  5-MIN KMSN 280640Z 00000KT 10SM CLR 00/M03 A2986 920 81 -600 000/00 RMK AO2
14837KMSN MSN20020128004509501/28/02 00:45:31  5-MIN KMSN 280645Z 00000KT 10SM CLR M01/M03 A2986 920 81 -700 000/00 RMK AO2
14837KMSN MSN20020128005011101/28/02 00:50:31  5-MIN KMSN 280650Z 00000KT 10SM CLR 00/M03 A2986 920 81 -600 000/00 RMK AO2 SLP117 T00001028
14837KMSN MSN20020128005509401/28/02 00:55:31  5-MIN KMSN 280655Z 00000KT 10SM CLR 00/M03 A2986 920 81 -600 000/00 RMK AO2
14837KMSN MSN20020128010009501/28/02 01:00:31  5-MIN KMSN 280700Z 00000KT 10SM CLR M01/M03 A2986 920 81 -700 000/00 RMK AO2
14837KMSN MSN20020128010509501/28/02 01:05:31  5-MIN KMSN 280705Z 00000KT 10SM CLR M01/M04 A2986 920 81 -700 000/00 RMK AO2
14837KMSN MSN20020128011009501/28/02 01:10:31  5-MIN KMSN 280710Z 00000KT 10SM CLR M01/M03 A2986 920 85 -700 000/00 RMK AO2
14837KMSN MSN20020128011509501/28/02 01:15:31  5-MIN KMSN 280715Z 00000KT 10SM CLR M02/M04 A2987 920 85 -800 000/00 RMK AO2
14837KMSN MSN20020128012009501/28/02 01:20:31  5-MIN KMSN 280720Z 00000KT 10SM CLR M02/M04 A2987 910 85 -800 000/00 RMK AO2
14837KMSN MSN20020128012509401/28/02 01:25:31  5-MIN KMSN 280725Z 35008KT 10SM CLR 01/M02 A2987 910 82 -500 350/08 RMK AO2
14837KMSN MSN20020128013009401/28/02 01:30:31  5-MIN KMSN 280730Z 35006KT 10SM CLR 01/M02 A2987 910 78 -500 350/06 RMK AO2
14837KMSN MSN20020128013509401/28/02 01:35:31  5-MIN KMSN 280735Z 34006KT 10SM CLR 01/M02 A2987 910 78 -500 340/06 RMK AO2
14837KMSN MSN20020128014009401/28/02 01:40:31  5-MIN KMSN 280740Z 34006KT 10SM CLR 02/M02 A2987 910 75 -400 340/06 RMK AO2
14837KMSN MSN20020128014509401/28/02 01:45:31  5-MIN KMSN 280745Z 34005KT 10SM CLR 02/M02 A2987 910 72 -300 340/05 RMK AO2
14837KMSN MSN20020128015011101/28/02 01:50:31  5-MIN KMSN 280750Z 33005KT 10SM CLR 02/M03 A2988 910 72 -400 330/05 RMK AO2 SLP121 T00171028
14837KMSN MSN20020128015509401/28/02 01:55:31  5-MIN KMSN 280755Z 34005KT 10SM CLR 01/M03 A2988 900 75 -500 340/05 RMK AO2
14837KMSN MSN20020128020009401/28/02 02:00:31  5-MIN KMSN 280800Z 34005KT 10SM CLR 02/M02 A2988 910 72 -300 340/05 RMK AO2
14837KMSN MSN20020128020509401/28/02 02:05:31  5-MIN KMSN 280805Z 34005KT 10SM CLR 02/M02 A2987 910 75 -400 340/05 RMK AO2
14837KMSN MSN20020128021009401/28/02 02:10:31  5-MIN KMSN 280810Z 34005KT 10SM CLR 02/M02 A2987 910 75 -400 340/05 RMK AO2
14837KMSN MSN20020128021509401/28/02 02:15:31  5-MIN KMSN 280815Z 33005KT 10SM CLR 02/M02 A2988 900 72 -300 330/05 RMK AO2
14837KMSN MSN20020128022009401/28/02 02:20:31  5-MIN KMSN 280820Z 33006KT 10SM CLR 02/M02 A2988 900 75 -400 330/06 RMK AO2
14837KMSN MSN20020128022509401/28/02 02:25:31  5-MIN KMSN 280825Z 34005KT 10SM CLR 02/M02 A2988 900 75 -400 330/05 RMK AO2
14837KMSN MSN20020128023009401/28/02 02:30:31  5-MIN KMSN 280830Z 33004KT 10SM CLR 02/M02 A2988 900 75 -400 330/04 RMK AO2
14837KMSN MSN20020128023509401/28/02 02:35:31  5-MIN KMSN 280835Z 34006KT 10SM CLR 02/M02 A2988 900 75 -400 340/06 RMK AO2
14837KMSN MSN20020128024009401/28/02 02:40:31  5-MIN KMSN 280840Z 34007KT 10SM CLR 02/M02 A2988 900 75 -400 340/07 RMK AO2
14837KMSN MSN20020128024509401/28/02 02:45:31  5-MIN KMSN 280845Z 34006KT 10SM CLR 02/M02 A2987 910 75 -400 340/06 RMK AO2
14837KMSN MSN20020128025011701/28/02 02:50:31  5-MIN KMSN 280850Z 34005KT 10SM CLR 02/M02 A2987 910 75 -400 340/05 RMK AO2 SLP122 T00171022 52005
14837KMSN MSN20020128025509401/28/02 02:55:31  5-MIN KMSN 280855Z 34005KT 10SM CLR 02/M02 A2987 910 75 -400 340/05 RMK AO2
14837KMSN MSN20020128030009401/28/02 03:00:31  5-MIN KMSN 280900Z 34005KT 10SM CLR 01/M02 A2988 900 78 -500 340/05 RMK AO2
14837KMSN MSN20020128030509401/28/02 03:05:31  5-MIN KMSN 280905Z 34007KT 10SM CLR 02/M02 A2988 900 75 -400 340/07 RMK AO2
14837KMSN MSN20020128031009401/28/02 03:10:31  5-MIN KMSN 280910Z 33006KT 10SM CLR 01/M02 A2989 890 78 -500 330/06 RMK AO2
14837KMSN MSN20020128031509401/28/02 03:15:31  5-MIN KMSN 280915Z 34006KT 10SM CLR 01/M02 A2989 890 78 -500 340/06 RMK AO2
14837KMSN MSN20020128032009401/28/02 03:20:31  5-MIN KMSN 280920Z 33007KT 10SM CLR 01/M02 A2989 890 78 -500 330/07 RMK AO2
14837KMSN MSN20020128032509401/28/02 03:25:31  5-MIN KMSN 280925Z 35005KT 10SM CLR 01/M02 A2988 900 78 -500 350/05 RMK AO2
14837KMSN MSN20020128033009401/28/02 03:30:31  5-MIN KMSN 280930Z 36004KT 10SM CLR 01/M02 A2988 900 78 -500 360/04 RMK AO2
14837KMSN MSN20020128033509401/28/02 03:35:31  5-MIN KMSN 280935Z 36005KT 10SM CLR 01/M02 A2988 900 78 -500 360/05 RMK AO2
14837KMSN MSN20020128034009401/28/02 03:40:31  5-MIN KMSN 280940Z 34005KT 10SM CLR 01/M02 A2989 890 82 -600 340/05 RMK AO2
14837KMSN MSN20020128034509401/28/02 03:45:31  5-MIN KMSN 280945Z 34006KT 10SM CLR 01/M02 A2989 890 82 -600 340/06 RMK AO2
14837KMSN MSN20020128035011001/28/02 03:50:31  5-MIN KMSN 280950Z 34006KT 9SM CLR 01/M02 A2989 890 78 -500 340/06 RMK AO2 SLP125 T00111022
14837KMSN MSN20020128035509301/28/02 03:55:31  5-MIN KMSN 280955Z 33006KT 9SM CLR 01/M02 A2989 900 82 -600 330/06 RMK AO2
14837KMSN MSN20020128040009301/28/02 04:00:31  5-MIN KMSN 281000Z 33006KT 9SM CLR 01/M02 A2989 890 82 -600 330/06 RMK AO2
14837KMSN MSN20020128040509301/28/02 04:05:31  5-MIN KMSN 281005Z 33006KT 9SM CLR 01/M02 A2990 890 82 -600 330/06 RMK AO2
14837KMSN MSN20020128041009301/28/02 04:10:31  5-MIN KMSN 281010Z 33007KT 8SM CLR 01/M02 A2990 890 82 -600 330/07 RMK AO2
14837KMSN MSN20020128041509301/28/02 04:15:31  5-MIN KMSN 281015Z 34007KT 8SM CLR 01/M02 A2989 890 82 -600 340/07 RMK AO2
14837KMSN MSN20020128042009301/28/02 04:20:31  5-MIN KMSN 281020Z 35007KT 8SM CLR 01/M02 A2989 890 82 -600 350/07 RMK AO2
14837KMSN MSN20020128042509301/28/02 04:25:31  5-MIN KMSN 281025Z 35007KT 8SM CLR 00/M02 A2988 900 85 -600 350/07 RMK AO2
14837KMSN MSN20020128043009301/28/02 04:30:31  5-MIN KMSN 281030Z 34006KT 8SM CLR 00/M02 A2988 900 85 -600 340/06 RMK AO2
14837KMSN MSN20020128043509301/28/02 04:35:31  5-MIN KMSN 281035Z 35006KT 7SM CLR 00/M02 A2988 900 85 -600 350/06 RMK AO2
14837KMSN MSN20020128044009301/28/02 04:40:31  5-MIN KMSN 281040Z 36007KT 7SM CLR 00/M02 A2988 900 85 -600 350/07 RMK AO2
14837KMSN MSN20020128044509301/28/02 04:45:31  5-MIN KMSN 281045Z VRB03KT 7SM CLR 00/M03 A2988 900 81 -600 VRB/03 RMK AO2
14837KMSN MSN20020128045011001/28/02 04:50:31  5-MIN KMSN 281050Z VRB03KT 7SM CLR 00/M03 A2988 900 81 -600 VRB/03 RMK AO2 SLP124 T00001028
14837KMSN MSN20020128045509301/28/02 04:55:31  5-MIN KMSN 281055Z 36003KT 7SM CLR 00/M03 A2988 900 81 -600 360/03 RMK AO2
14837KMSN MSN20020128050009401/28/02 05:00:31  5-MIN KMSN 281100Z 36003KT 7SM CLR M01/M03 A2988 900 85 -700 360/03 RMK AO2
14837KMSN MSN20020128050509401/28/02 05:05:31  5-MIN KMSN 281105Z 34004KT 7SM CLR M01/M03 A2988 900 85 -700 340/04 RMK AO2
14837KMSN MSN20020128051009401/28/02 05:10:31  5-MIN KMSN 281110Z 34004KT 7SM CLR M01/M03 A2989 900 85 -700 340/04 RMK AO2
14837KMSN MSN20020128051509301/28/02 05:15:31  5-MIN KMSN 281115Z 33004KT 7SM CLR 00/M03 A2989 890 81 -600 330/04 RMK AO2
14837KMSN MSN20020128052009401/28/02 05:20:31  5-MIN KMSN 281120Z 33006KT 7SM CLR M01/M03 A2989 890 85 -700 330/06 RMK AO2
14837KMSN MSN20020128052509401/28/02 05:25:31  5-MIN KMSN 281125Z 33008KT 7SM CLR M01/M03 A2989 890 85 -700 330/08 RMK AO2
14837KMSN MSN20020128053009401/28/02 05:30:31  5-MIN KMSN 281130Z 34005KT 7SM CLR M01/M03 A2989 890 85 -700 340/05 RMK AO2
14837KMSN MSN20020128053509401/28/02 05:35:31  5-MIN KMSN 281135Z 34006KT 7SM CLR M01/M03 A2990 880 85 -700 340/06 RMK AO2
14837KMSN MSN20020128054009401/28/02 05:40:31  5-MIN KMSN 281140Z 35006KT 7SM CLR M01/M03 A2990 890 85 -700 350/06 RMK AO2
14837KMSN MSN20020128054509401/28/02 05:45:31  5-MIN KMSN 281145Z 35005KT 7SM CLR M01/M03 A2989 890 85 -700 350/05 RMK AO2
14837KMSN MSN20020128055012901/28/02 05:50:31  5-MIN KMSN 281150Z 35006KT 7SM CLR M01/M03 A2989 890 85 -700 350/06 RMK AO2 SLP128 T10061028 10022 21017 50010
14837KMSN MSN20020128055509401/28/02 05:55:31  5-MIN KMSN 281155Z 35005KT 7SM CLR M01/M03 A2989 890 85 -700 350/05 RMK AO2
14837KMSN MSN20020128060009401/28/02 06:00:31  5-MIN KMSN 281200Z 34005KT 7SM CLR M01/M03 A2990 890 85 -700 340/05 RMK AO2
14837KMSN MSN20020128060509401/28/02 06:05:31  5-MIN KMSN 281205Z 35005KT 7SM CLR M01/M03 A2990 890 85 -700 350/05 RMK AO2
14837KMSN MSN20020128061009401/28/02 06:10:31  5-MIN KMSN 281210Z 34005KT 7SM CLR M01/M03 A2990 880 85 -700 330/05 RMK AO2
14837KMSN MSN20020128061509401/28/02 06:15:31  5-MIN KMSN 281215Z 35005KT 7SM CLR M01/M03 A2990 880 85 -700 340/05 RMK AO2
14837KMSN MSN20020128062009401/28/02 06:20:31  5-MIN KMSN 281220Z 35006KT 7SM CLR M01/M03 A2990 880 85 -700 350/06 RMK AO2
14837KMSN MSN20020128062509401/28/02 06:25:31  5-MIN KMSN 281225Z 35006KT 7SM CLR M01/M03 A2990 880 85 -700 350/06 RMK AO2
14837KMSN MSN20020128063009401/28/02 06:30:31  5-MIN KMSN 281230Z 35005KT 7SM CLR M01/M03 A2990 880 85 -700 350/05 RMK AO2
14837KMSN MSN20020128063509401/28/02 06:35:31  5-MIN KMSN 281235Z 34006KT 7SM CLR M01/M03 A2991 880 85 -700 340/06 RMK AO2
14837KMSN MSN20020128064009401/28/02 06:40:31  5-MIN KMSN 281240Z 36006KT 7SM CLR M01/M03 A2990 880 85 -700 360/06 RMK AO2
14837KMSN MSN20020128064509401/28/02 06:45:31  5-MIN KMSN 281245Z 35006KT 7SM CLR M01/M03 A2991 870 85 -700 350/06 RMK AO2
14837KMSN MSN20020128065011101/28/02 06:50:31  5-MIN KMSN 281250Z 36005KT 7SM CLR M01/M03 A2991 870 85 -700 350/05 RMK AO2 SLP135 T10061028
14837KMSN MSN20020128065509401/28/02 06:55:31  5-MIN KMSN 281255Z 36006KT 7SM CLR M01/M03 A2991 870 88 -800 360/06 RMK AO2
14837KMSN MSN20020128070009401/28/02 07:00:31  5-MIN KMSN 281300Z 02006KT 7SM CLR M01/M03 A2991 880 88 -800 010/06 RMK AO2
14837KMSN MSN20020128070509701/28/02 07:05:31  5-MIN KMSN 281305Z 01006KT 7SM SCT010 M01/M03 A2990 880 85 -700 010/06 RMK AO2
14837KMSN MSN20020128071010001/28/02 07:10:31  5-MIN KMSN 281310Z 02006KT 6SM BR BKN010 M01/M03 A2990 880 85 -700 020/06 RMK AO2
14837KMSN MSN20020128071510001/28/02 07:15:31  5-MIN KMSN 281315Z 02006KT 6SM BR BKN010 M01/M03 A2991 880 88 -800 020/06 RMK AO2
14837KMSN MSN20020128072010001/28/02 07:20:31  5-MIN KMSN 281320Z 02010KT 6SM BR BKN010 M01/M02 A2991 880 88 -700 020/10 RMK AO2
14837KMSN MSN20020128072509901/28/02 07:25:31  5-MIN KMSN 281325Z 03011KT 6SM BR OVC010 00/M02 A2991 880 88 -700 030/11 RMK AO2
14837KMSN MSN20020128073012101/28/02 07:30:31  5-MIN KMSN 281330Z 04011KT 3SM BR OVC010 00/M02 A2991 870 88 -700 030/11 RMK AO2 SFC VIS 5 CIG 007V011
14837KMSN MSN20020128073512101/28/02 07:35:31  5-MIN KMSN 281335Z 02013KT 3SM BR OVC008 00/M01 A2992 870 92 -700 020/13 RMK AO2 SFC VIS 4 CIG 007V011
14837KMSN MSN20020128074010901/28/02 07:40:31  5-MIN KMSN 281340Z 02010KT 3SM BR OVC008 00/M01 A2992 870 92 -700 020/10 RMK AO2 SFC VIS 4
14837KMSN MSN20020128074510901/28/02 07:45:31  5-MIN KMSN 281345Z 04013KT 3SM BR OVC008 00/M01 A2992 870 92 -700 030/13 RMK AO2 SFC VIS 4
14837KMSN MSN20020128075011601/28/02 07:50:31  5-MIN KMSN 281350Z 03012KT 3SM BR OVC008 00/M01 A2992 870 92 -700 030/12 RMK AO2 SLP138 T00001011
14837KMSN MSN20020128075509901/28/02 07:55:31  5-MIN KMSN 281355Z 04013KT 3SM BR OVC008 00/M01 A2992 870 92 -700 040/13 RMK AO2
14837KMSN MSN20020128080009901/28/02 08:00:31  5-MIN KMSN 281400Z 04011KT 3SM BR OVC008 00/M01 A2992 860 92 -700 040/11 RMK AO2
14837KMSN MSN20020128080509901/28/02 08:05:31  5-MIN KMSN 281405Z 04011KT 3SM BR OVC008 00/M01 A2992 860 92 -700 040/11 RMK AO2
14837KMSN MSN20020128081009901/28/02 08:10:31  5-MIN KMSN 281410Z 05011KT 3SM BR OVC006 00/M01 A2992 860 92 -700 050/11 RMK AO2
14837KMSN MSN20020128081509901/28/02 08:15:31  5-MIN KMSN 281415Z 04012KT 3SM BR OVC006 00/M01 A2993 860 92 -700 040/12 RMK AO2
14837KMSN MSN20020128082009901/28/02 08:20:31  5-MIN KMSN 281420Z 04011KT 3SM BR OVC006 00/M01 A2993 860 92 -700 040/11 RMK AO2
14837KMSN MSN20020128082509901/28/02 08:25:31  5-MIN KMSN 281425Z 05011KT 3SM BR OVC006 00/M01 A2993 850 92 -700 040/11 RMK AO2
14837KMSN MSN20020128083009901/28/02 08:30:31  5-MIN KMSN 281430Z 05012KT 3SM BR OVC006 00/M01 A2993 850 92 -700 040/12 RMK AO2
14837KMSN MSN20020128083509901/28/02 08:35:31  5-MIN KMSN 281435Z 04009KT 3SM BR OVC006 00/M01 A2994 850 92 -700 040/09 RMK AO2
14837KMSN MSN20020128084009901/28/02 08:40:31  5-MIN KMSN 281440Z 05012KT 3SM BR OVC006 01/M01 A2994 850 89 -600 050/12 RMK AO2
14837KMSN MSN20020128084510901/28/02 08:45:31  5-MIN KMSN 281445Z 06010KT 3SM BR OVC006 01/M01 A2994 850 89 -600 050/10 RMK AO2 SFC VIS 3
14837KMSN MSN20020128085013201/28/02 08:50:31  5-MIN KMSN 281450Z 05010KT 3SM BR OVC006 01/M01 A2994 850 89 -600 050/10 RMK AO2 SFC VIS 3 SLP146 T00061011 51006
14837KMSN MSN20020128085510901/28/02 08:55:31  5-MIN KMSN 281455Z 05012KT 3SM BR OVC006 01/M01 A2994 840 89 -600 050/12 RMK AO2 SFC VIS 3
14837KMSN MSN20020128090009901/28/02 09:00:31  5-MIN KMSN 281500Z 04014KT 3SM BR OVC006 01/M01 A2995 840 89 -600 040/14 RMK AO2
14837KMSN MSN20020128090509901/28/02 09:05:31  5-MIN KMSN 281505Z 05012KT 3SM BR OVC006 01/M01 A2994 840 89 -600 050/12 RMK AO2
14837KMSN MSN20020128091009901/28/02 09:10:31  5-MIN KMSN 281510Z 06012KT 3SM BR OVC006 01/M01 A2994 840 92 -600 060/12 RMK AO2
14837KMSN MSN20020128091509901/28/02 09:15:31  5-MIN KMSN 281515Z 06010KT 3SM BR OVC006 01/M01 A2994 840 92 -600 060/10 RMK AO2
14837KMSN MSN20020128092009901/28/02 09:20:31  5-MIN KMSN 281520Z 07008KT 3SM BR OVC006 01/M01 A2994 840 92 -600 060/08 RMK AO2
14837KMSN MSN20020128092509901/28/02 09:25:31  5-MIN KMSN 281525Z 06009KT 3SM BR OVC006 01/M01 A2994 840 92 -600 060/09 RMK AO2
14837KMSN MSN20020128093009901/28/02 09:30:31  5-MIN KMSN 281530Z 06010KT 3SM BR OVC006 01/M01 A2994 850 92 -600 050/10 RMK AO2
14837KMSN MSN20020128093509901/28/02 09:35:31  5-MIN KMSN 281535Z 06011KT 3SM BR OVC006 01/M01 A2992 860 92 -600 060/11 RMK AO2
14837KMSN MSN20020128094009901/28/02 09:40:31  5-MIN KMSN 281540Z 07011KT 3SM BR OVC006 01/M01 A2992 860 92 -600 070/11 RMK AO2
14837KMSN MSN20020128094509901/28/02 09:45:31  5-MIN KMSN 281545Z 07010KT 3SM BR OVC006 01/M01 A2991 870 89 -500 070/10 RMK AO2
14837KMSN MSN20020128095011601/28/02 09:50:31  5-MIN KMSN 281550Z 06011KT 3SM BR OVC006 01/M01 A2991 870 89 -500 060/11 RMK AO2 SLP138 T00111006
14837KMSN MSN20020128095509801/28/02 09:55:31  5-MIN KMSN 281555Z 06011KT 3SM BR OVC006 01/00 A2992 870 92 -500 060/11 RMK AO2
14837KMSN MSN20020128100009801/28/02 10:00:31  5-MIN KMSN 281600Z 06011KT 3SM BR OVC006 01/00 A2992 860 92 -500 060/11 RMK AO2
14837KMSN MSN20020128100509801/28/02 10:05:31  5-MIN KMSN 281605Z 06009KT 3SM BR OVC006 01/00 A2993 860 92 -500 060/09 RMK AO2
14837KMSN MSN20020128101010801/28/02 10:10:31  5-MIN KMSN 281610Z 07010KT 3SM BR OVC006 01/00 A2993 860 92 -500 060/10 RMK AO2 SFC VIS 3
14837KMSN MSN20020128101510801/28/02 10:15:31  5-MIN KMSN 281615Z 06009KT 3SM BR OVC006 01/00 A2993 850 92 -500 060/09 RMK AO2 SFC VIS 3
14837KMSN MSN20020128102010801/28/02 10:20:31  5-MIN KMSN 281620Z 04009KT 3SM BR OVC006 01/00 A2994 850 92 -500 040/09 RMK AO2 SFC VIS 3
14837KMSN MSN20020128102510801/28/02 10:25:31  5-MIN KMSN 281625Z 04010KT 3SM BR OVC006 01/00 A2994 850 92 -500 040/10 RMK AO2 SFC VIS 3
14837KMSN MSN20020128103010801/28/02 10:30:31  5-MIN KMSN 281630Z 05011KT 3SM BR OVC006 01/00 A2993 850 92 -500 040/11 RMK AO2 SFC VIS 3
14837KMSN MSN20020128103510801/28/02 10:35:31  5-MIN KMSN 281635Z 05012KT 3SM BR OVC006 01/00 A2993 860 92 -500 050/12 RMK AO2 SFC VIS 3
14837KMSN MSN20020128104010801/28/02 10:40:31  5-MIN KMSN 281640Z 04013KT 3SM BR OVC006 01/00 A2993 860 92 -500 040/13 RMK AO2 SFC VIS 3
14837KMSN MSN20020128104510801/28/02 10:45:31  5-MIN KMSN 281645Z 05010KT 3SM BR OVC006 01/00 A2993 860 92 -500 040/10 RMK AO2 SFC VIS 4
14837KMSN MSN20020128105012501/28/02 10:50:31  5-MIN KMSN 281650Z 04013KT 3SM BR OVC006 01/00 A2993 860 92 -500 040/13 RMK AO2 SFC VIS 4 SLP143 T00110000
14837KMSN MSN20020128105509801/28/02 10:55:31  5-MIN KMSN 281655Z 03011KT 3SM BR OVC006 01/00 A2993 850 92 -500 030/11 RMK AO2
14837KMSN MSN20020128110009801/28/02 11:00:31  5-MIN KMSN 281700Z 03013KT 3SM BR OVC006 01/00 A2993 860 92 -500 030/13 RMK AO2
14837KMSN MSN20020128110509801/28/02 11:05:31  5-MIN KMSN 281705Z 03012KT 3SM BR OVC006 01/00 A2993 860 92 -500 030/12 RMK AO2
14837KMSN MSN20020128111009801/28/02 11:10:31  5-MIN KMSN 281710Z 04011KT 3SM BR OVC006 01/00 A2993 860 92 -500 040/11 RMK AO2
14837KMSN MSN20020128111509801/28/02 11:15:31  5-MIN KMSN 281715Z 04011KT 3SM BR OVC006 01/00 A2993 850 92 -500 040/11 RMK AO2
14837KMSN MSN20020128112009801/28/02 11:20:31  5-MIN KMSN 281720Z 04012KT 3SM BR OVC006 01/00 A2993 860 92 -500 040/12 RMK AO2
14837KMSN MSN20020128112509801/28/02 11:25:31  5-MIN KMSN 281725Z 05010KT 3SM BR OVC006 01/00 A2992 860 92 -500 040/10 RMK AO2
14837KMSN MSN20020128113009801/28/02 11:30:31  5-MIN KMSN 281730Z 04010KT 3SM BR OVC006 01/00 A2992 860 92 -500 040/10 RMK AO2
14837KMSN MSN20020128113509801/28/02 11:35:31  5-MIN KMSN 281735Z 05012KT 3SM BR OVC006 01/00 A2992 860 92 -500 050/12 RMK AO2
14837KMSN MSN20020128114009801/28/02 11:40:31  5-MIN KMSN 281740Z 06011KT 3SM BR OVC006 01/00 A2991 870 92 -500 060/11 RMK AO2
14837KMSN MSN20020128114510801/28/02 11:45:31  5-MIN KMSN 281745Z 05012KT 3SM BR OVC006 01/00 A2992 860 92 -500 050/12 RMK AO2 SFC VIS 4
14837KMSN MSN20020128115014301/28/02 11:50:31  5-MIN KMSN 281750Z 05011KT 3SM BR OVC006 01/00 A2992 870 92 -500 050/11 RMK AO2 SFC VIS 4 SLP139 T00110000 10011 21011 53017
14837KMSN MSN20020128115510801/28/02 11:55:31  5-MIN KMSN 281755Z 05010KT 3SM BR OVC006 01/00 A2991 870 92 -500 050/10 RMK AO2 SFC VIS 5
14837KMSN MSN20020128120010901/28/02 12:00:31  5-MIN KMSN 281800Z 05011KT 3SM BR OVC006 01/M01 A2991 870 89 -500 050/11 RMK AO2 SFC VIS 5
14837KMSN MSN20020128120510901/28/02 12:05:31  5-MIN KMSN 281805Z 04012KT 3SM BR OVC006 01/M01 A2992 860 89 -500 040/12 RMK AO2 SFC VIS 5
14837KMSN MSN20020128121010901/28/02 12:10:31  5-MIN KMSN 281810Z 04012KT 3SM BR OVC006 01/M01 A2992 860 89 -500 040/12 RMK AO2 SFC VIS 5
14837KMSN MSN20020128121509901/28/02 12:15:31  5-MIN KMSN 281815Z 05009KT 6SM BR OVC006 01/M01 A2992 870 89 -500 050/09 RMK AO2
14837KMSN MSN20020128122009901/28/02 12:20:31  5-MIN KMSN 281820Z 05011KT 6SM BR OVC006 01/M01 A2992 870 89 -500 050/11 RMK AO2
14837KMSN MSN20020128122509901/28/02 12:25:31  5-MIN KMSN 281825Z 05011KT 6SM BR OVC006 01/M01 A2992 870 89 -500 050/11 RMK AO2
14837KMSN MSN20020128123009901/28/02 12:30:31  5-MIN KMSN 281830Z 06011KT 6SM BR OVC006 01/M01 A2991 880 89 -500 060/11 RMK AO2
14837KMSN MSN20020128123509901/28/02 12:35:31  5-MIN KMSN 281835Z 07012KT 6SM BR OVC006 01/M01 A2990 890 89 -500 070/12 RMK AO2
14837KMSN MSN20020128124009601/28/02 12:40:31  5-MIN KMSN 281840Z 08012KT 7SM OVC008 01/M01 A2990 890 89 -500 070/12 RMK AO2
14837KMSN MSN20020128124509601/28/02 12:45:31  5-MIN KMSN 281845Z 05010KT 7SM OVC008 01/M01 A2990 890 89 -500 050/10 RMK AO2
14837KMSN MSN20020128125011301/28/02 12:50:31  5-MIN KMSN 281850Z 06010KT 7SM OVC008 01/M01 A2989 890 89 -500 060/10 RMK AO2 SLP131 T00111006
14837KMSN MSN20020128125509601/28/02 12:55:31  5-MIN KMSN 281855Z 06009KT 7SM OVC008 01/M01 A2990 890 89 -500 060/09 RMK AO2
14837KMSN MSN20020128130009601/28/02 13:00:31  5-MIN KMSN 281900Z 07009KT 7SM OVC008 01/M01 A2989 890 89 -500 070/09 RMK AO2
14837KMSN MSN20020128130509601/28/02 13:05:31  5-MIN KMSN 281905Z 08011KT 7SM OVC008 01/M01 A2988 900 89 -500 070/11 RMK AO2
14837KMSN MSN20020128131009601/28/02 13:10:31  5-MIN KMSN 281910Z 07013KT 7SM OVC008 01/M01 A2988 900 89 -500 070/13 RMK AO2
14837KMSN MSN20020128131509601/28/02 13:15:31  5-MIN KMSN 281915Z 08012KT 8SM OVC008 01/M01 A2988 900 85 -500 080/12 RMK AO2
14837KMSN MSN20020128132009601/28/02 13:20:31  5-MIN KMSN 281920Z 08011KT 8SM OVC008 01/M01 A2987 910 85 -500 080/11 RMK AO2
14837KMSN MSN20020128132509601/28/02 13:25:31  5-MIN KMSN 281925Z 07013KT 8SM OVC008 01/M01 A2987 910 85 -500 070/13 RMK AO2
14837KMSN MSN20020128133009601/28/02 13:30:31  5-MIN KMSN 281930Z 07009KT 8SM OVC008 01/M01 A2986 920 85 -500 070/09 RMK AO2
14837KMSN MSN20020128133509601/28/02 13:35:31  5-MIN KMSN 281935Z 06011KT 8SM OVC008 01/M01 A2986 920 85 -500 060/11 RMK AO2
14837KMSN MSN20020128134009601/28/02 13:40:31  5-MIN KMSN 281940Z 08011KT 8SM OVC008 01/M01 A2986 920 85 -500 070/11 RMK AO2
14837KMSN MSN20020128134509601/28/02 13:45:31  5-MIN KMSN 281945Z 07009KT 8SM OVC008 01/M01 A2986 920 85 -500 070/09 RMK AO2
14837KMSN MSN20020128135011301/28/02 13:50:31  5-MIN KMSN 281950Z 07009KT 8SM OVC008 01/M01 A2986 920 85 -500 070/09 RMK AO2 SLP120 T00111011
14837KMSN MSN20020128135509701/28/02 13:55:31  5-MIN KMSN 281955Z 06009KT 10SM OVC008 02/M01 A2986 920 82 -400 060/09 RMK AO2
14837KMSN MSN20020128140009701/28/02 14:00:31  5-MIN KMSN 282000Z 07010KT 10SM OVC008 02/M01 A2986 920 82 -400 070/10 RMK AO2
14837KMSN MSN20020128140509701/28/02 14:05:31  5-MIN KMSN 282005Z 07010KT 10SM OVC010 02/M01 A2985 930 82 -400 070/10 RMK AO2
14837KMSN MSN20020128141009701/28/02 14:10:31  5-MIN KMSN 282010Z 06010KT 10SM OVC010 02/M01 A2986 920 82 -400 060/10 RMK AO2
14837KMSN MSN20020128141509701/28/02 14:15:31  5-MIN KMSN 282015Z 06009KT 10SM OVC010 02/M01 A2986 920 82 -400 060/09 RMK AO2
14837KMSN MSN20020128142009701/28/02 14:20:31  5-MIN KMSN 282020Z 05008KT 10SM OVC010 02/M01 A2987 910 82 -400 050/08 RMK AO2
14837KMSN MSN20020128142509701/28/02 14:25:31  5-MIN KMSN 282025Z 05009KT 10SM OVC010 01/M01 A2987 910 85 -500 050/09 RMK AO2
14837KMSN MSN20020128143009701/28/02 14:30:31  5-MIN KMSN 282030Z 05008KT 10SM OVC010 01/M01 A2986 920 85 -500 050/08 RMK AO2
14837KMSN MSN20020128143509701/28/02 14:35:31  5-MIN KMSN 282035Z 05009KT 10SM OVC010 02/M01 A2987 920 82 -400 050/09 RMK AO2
14837KMSN MSN20020128144009701/28/02 14:40:31  5-MIN KMSN 282040Z 04009KT 10SM OVC010 01/M01 A2986 920 85 -500 040/09 RMK AO2
14837KMSN MSN20020128144509701/28/02 14:45:31  5-MIN KMSN 282045Z 04008KT 10SM OVC010 01/M01 A2986 920 85 -500 040/08 RMK AO2
14837KMSN MSN20020128145012001/28/02 14:50:31  5-MIN KMSN 282050Z 03010KT 10SM OVC010 01/M01 A2987 910 85 -500 030/10 RMK AO2 SLP122 T00111011 56009
14837KMSN MSN20020128145509701/28/02 14:55:31  5-MIN KMSN 282055Z 04009KT 10SM OVC010 01/M01 A2987 910 85 -500 040/09 RMK AO2
14837KMSN MSN20020128150009701/28/02 15:00:31  5-MIN KMSN 282100Z 03010KT 10SM OVC010 01/M01 A2987 910 85 -500 030/10 RMK AO2
14837KMSN MSN20020128150509701/28/02 15:05:31  5-MIN KMSN 282105Z 03010KT 10SM OVC010 01/M01 A2987 910 85 -500 030/10 RMK AO2
14837KMSN MSN20020128151009701/28/02 15:10:31  5-MIN KMSN 282110Z 02009KT 10SM OVC010 01/M01 A2988 900 85 -500 020/09 RMK AO2
14837KMSN MSN20020128151509701/28/02 15:15:31  5-MIN KMSN 282115Z 04010KT 10SM OVC010 01/M01 A2988 900 85 -500 040/10 RMK AO2
14837KMSN MSN20020128152009701/28/02 15:20:31  5-MIN KMSN 282120Z 04009KT 10SM OVC010 01/M01 A2988 900 85 -500 040/09 RMK AO2
14837KMSN MSN20020128152509701/28/02 15:25:31  5-MIN KMSN 282125Z 03010KT 10SM OVC010 01/M01 A2989 900 89 -600 030/10 RMK AO2
14837KMSN MSN20020128153009701/28/02 15:30:31  5-MIN KMSN 282130Z 03010KT 10SM OVC010 01/M01 A2989 890 85 -500 030/10 RMK AO2
14837KMSN MSN20020128153509701/28/02 15:35:31  5-MIN KMSN 282135Z 04009KT 10SM OVC010 01/M02 A2989 890 85 -600 040/09 RMK AO2
14837KMSN MSN20020128154009701/28/02 15:40:31  5-MIN KMSN 282140Z 04009KT 10SM OVC010 01/M02 A2989 890 85 -600 040/09 RMK AO2
14837KMSN MSN20020128154509701/28/02 15:45:31  5-MIN KMSN 282145Z 04010KT 10SM OVC010 01/M02 A2989 900 85 -600 040/10 RMK AO2
14837KMSN MSN20020128155011401/28/02 15:50:31  5-MIN KMSN 282150Z 04008KT 10SM OVC010 01/M02 A2988 900 85 -600 040/08 RMK AO2 SLP127 T00061017
14837KMSN MSN20020128155509701/28/02 15:55:31  5-MIN KMSN 282155Z 05011KT 10SM OVC010 01/M02 A2988 900 85 -600 040/11 RMK AO2
14837KMSN MSN20020128160009701/28/02 16:00:31  5-MIN KMSN 282200Z 04010KT 10SM OVC010 01/M02 A2988 900 85 -500 040/10 RMK AO2
14837KMSN MSN20020128160509701/28/02 16:05:31  5-MIN KMSN 282205Z 04009KT 10SM OVC010 01/M02 A2988 900 85 -500 030/09 RMK AO2
14837KMSN MSN20020128161009701/28/02 16:10:31  5-MIN KMSN 282210Z 03011KT 10SM OVC010 01/M02 A2988 910 85 -500 030/11 RMK AO2
14837KMSN MSN20020128161509701/28/02 16:15:31  5-MIN KMSN 282215Z 04011KT 10SM OVC010 01/M02 A2988 910 85 -500 040/11 RMK AO2
14837KMSN MSN20020128162009701/28/02 16:20:31  5-MIN KMSN 282220Z 03008KT 10SM OVC010 01/M02 A2988 900 85 -600 030/08 RMK AO2
14837KMSN MSN20020128162509701/28/02 16:25:31  5-MIN KMSN 282225Z 03010KT 10SM OVC010 01/M02 A2988 900 85 -600 030/10 RMK AO2
14837KMSN MSN20020128163009701/28/02 16:30:31  5-MIN KMSN 282230Z 04008KT 10SM OVC010 01/M02 A2988 900 85 -600 040/08 RMK AO2
14837KMSN MSN20020128163509701/28/02 16:35:31  5-MIN KMSN 282235Z 04010KT 10SM OVC010 00/M02 A2988 900 85 -600 040/10 RMK AO2
14837KMSN MSN20020128164009701/28/02 16:40:31  5-MIN KMSN 282240Z 03009KT 10SM OVC010 00/M02 A2988 900 85 -600 030/09 RMK AO2
14837KMSN MSN20020128164509701/28/02 16:45:31  5-MIN KMSN 282245Z 03010KT 10SM OVC010 00/M02 A2989 890 85 -600 030/10 RMK AO2
14837KMSN MSN20020128165011401/28/02 16:50:31  5-MIN KMSN 282250Z 03009KT 10SM OVC010 00/M02 A2989 890 85 -600 030/09 RMK AO2 SLP133 T00001022
14837KMSN MSN20020128165509701/28/02 16:55:31  5-MIN KMSN 282255Z 03010KT 10SM OVC010 00/M02 A2990 890 85 -600 030/10 RMK AO2
14837KMSN MSN20020128170009701/28/02 17:00:31  5-MIN KMSN 282300Z 04010KT 10SM OVC010 00/M02 A2989 890 85 -600 040/10 RMK AO2
14837KMSN MSN20020128170509701/28/02 17:05:31  5-MIN KMSN 282305Z 04010KT 10SM OVC010 00/M02 A2990 890 85 -600 040/10 RMK AO2
14837KMSN MSN20020128171009701/28/02 17:10:31  5-MIN KMSN 282310Z 03010KT 10SM OVC010 00/M02 A2990 880 85 -600 030/10 RMK AO2
14837KMSN MSN20020128171509701/28/02 17:15:31  5-MIN KMSN 282315Z 03010KT 10SM OVC010 00/M02 A2990 890 85 -600 030/10 RMK AO2
14837KMSN MSN20020128172009701/28/02 17:20:31  5-MIN KMSN 282320Z 03010KT 10SM OVC012 00/M02 A2991 880 85 -700 030/10 RMK AO2
14837KMSN MSN20020128172509701/28/02 17:25:31  5-MIN KMSN 282325Z 03009KT 10SM OVC012 00/M02 A2991 880 85 -600 030/09 RMK AO2
14837KMSN MSN20020128173009701/28/02 17:30:31  5-MIN KMSN 282330Z 03011KT 10SM OVC012 00/M02 A2991 880 85 -700 030/11 RMK AO2
14837KMSN MSN20020128173509701/28/02 17:35:31  5-MIN KMSN 282335Z 04011KT 10SM OVC012 00/M02 A2990 880 85 -600 040/11 RMK AO2
14837KMSN MSN20020128174009701/28/02 17:40:31  5-MIN KMSN 282340Z 04012KT 10SM OVC012 00/M02 A2990 880 85 -600 040/12 RMK AO2
14837KMSN MSN20020128174509701/28/02 17:45:31  5-MIN KMSN 282345Z 03011KT 10SM OVC012 00/M02 A2990 880 85 -600 030/11 RMK AO2
14837KMSN MSN20020128175013101/28/02 17:50:31  5-MIN KMSN 282350Z 03012KT 9SM OVC012 00/M02 A2990 880 85 -600 030/12 RMK AO2 SLP134 T00001022 10017 20000 55013
14837KMSN MSN20020128175509601/28/02 17:55:31  5-MIN KMSN 282355Z 03011KT 9SM OVC012 00/M02 A2990 880 85 -600 030/11 RMK AO2
14837KMSN MSN20020128180009601/28/02 18:00:31  5-MIN KMSN 290000Z 03010KT 8SM OVC012 00/M02 A2990 880 85 -600 030/10 RMK AO2
14837KMSN MSN20020128180509701/28/02 18:05:31  5-MIN KMSN 290005Z 02011KT 8SM OVC012 M01/M02 A2991 880 88 -700 020/11 RMK AO2
14837KMSN MSN20020128181010901/28/02 18:10:31  5-MIN KMSN 290010Z 02011KT 8SM OVC010 M01/M02 A2991 870 88 -700 020/11 RMK AO2 CIG 009V013
14837KMSN MSN20020128181510901/28/02 18:15:31  5-MIN KMSN 290015Z 02008KT 8SM OVC010 M01/M02 A2991 870 88 -700 020/08 RMK AO2 CIG 008V012
14837KMSN MSN20020128182010901/28/02 18:20:31  5-MIN KMSN 290020Z 02011KT 7SM OVC010 M01/M02 A2991 870 88 -700 020/11 RMK AO2 CIG 008V013
14837KMSN MSN20020128182510901/28/02 18:25:31  5-MIN KMSN 290025Z 02010KT 7SM OVC010 M01/M02 A2991 870 88 -700 020/10 RMK AO2 CIG 007V013
14837KMSN MSN20020128183010001/28/02 18:30:31  5-MIN KMSN 290030Z 03010KT 6SM BR OVC010 M01/M02 A2992 870 88 -700 020/10 RMK AO2
14837KMSN MSN20020128183510001/28/02 18:35:31  5-MIN KMSN 290035Z 03011KT 5SM BR OVC008 M01/M02 A2992 860 88 -700 030/11 RMK AO2
14837KMSN MSN20020128184011201/28/02 18:40:31  5-MIN KMSN 290040Z 02010KT 5SM BR OVC008 M01/M02 A2992 860 88 -700 020/10 RMK AO2 CIG 007V011
14837KMSN MSN20020128184511201/28/02 18:45:31  5-MIN KMSN 290045Z 03009KT 5SM BR OVC008 M01/M02 A2993 860 88 -700 020/09 RMK AO2 CIG 006V011
14837KMSN MSN20020128185012901/28/02 18:50:31  5-MIN KMSN 290050Z 03011KT 5SM BR OVC008 M01/M02 A2993 860 88 -700 030/11 RMK AO2 CIG 006V010 SLP144 T10061022
14837KMSN MSN20020128185511201/28/02 18:55:31  5-MIN KMSN 290055Z 04011KT 6SM BR OVC008 M01/M02 A2993 860 92 -800 030/11 RMK AO2 CIG 006V010
14837KMSN MSN20020128190011201/28/02 19:00:31  5-MIN KMSN 290100Z 04013KT 6SM BR OVC008 M01/M02 A2993 860 92 -800 040/13 RMK AO2 CIG 006V010
14837KMSN MSN20020128190511201/28/02 19:05:31  5-MIN KMSN 290105Z 03012KT 6SM BR OVC006 M01/M02 A2992 860 92 -800 030/12 RMK AO2 CIG 005V009
14837KMSN MSN20020128191011201/28/02 19:10:31  5-MIN KMSN 290110Z 04013KT 5SM BR OVC006 M01/M02 A2991 870 92 -800 040/13 RMK AO2 CIG 005V010
14837KMSN MSN20020128191511201/28/02 19:15:31  5-MIN KMSN 290115Z 03013KT 5SM BR OVC006 M01/M02 A2991 880 92 -800 030/13 RMK AO2 CIG 004V010
14837KMSN MSN20020128192011201/28/02 19:20:31  5-MIN KMSN 290120Z 03013KT 4SM BR OVC006 M01/M02 A2991 880 92 -800 030/13 RMK AO2 CIG 004V009
14837KMSN MSN20020128192510001/28/02 19:25:31  5-MIN KMSN 290125Z 03013KT 4SM BR OVC006 M02/M03 A2991 880 92 -900 030/13 RMK AO2
14837KMSN MSN20020128193010001/28/02 19:30:31  5-MIN KMSN 290130Z 03010KT 4SM BR OVC006 M02/M03 A2991 870 92 -900 030/10 RMK AO2
14837KMSN MSN20020128193510001/28/02 19:35:31  5-MIN KMSN 290135Z 03012KT 4SM BR OVC006 M02/M03 A2991 870 92 -900 030/12 RMK AO2
14837KMSN MSN20020128194010001/28/02 19:40:31  5-MIN KMSN 290140Z 03011KT 5SM BR OVC006 M02/M03 A2991 870 92 -900 030/11 RMK AO2
14837KMSN MSN20020128194510001/28/02 19:45:31  5-MIN KMSN 290145Z 03011KT 5SM BR OVC006 M02/M03 A2991 870 92 -900 030/11 RMK AO2
14837KMSN MSN20020128195011701/28/02 19:50:31  5-MIN KMSN 290150Z 04009KT 5SM BR OVC006 M02/M03 A2991 870 92 -900 040/09 RMK AO2 SLP139 T10171028
14837KMSN MSN20020128195510001/28/02 19:55:31  5-MIN KMSN 290155Z 04012KT 5SM BR OVC006 M02/M03 A2991 870 92 -900 040/12 RMK AO2
14837KMSN MSN20020128200010001/28/02 20:00:31  5-MIN KMSN 290200Z 04011KT 5SM BR OVC006 M02/M03 A2991 880 92 -900 040/11 RMK AO2
14837KMSN MSN20020128200511201/28/02 20:05:31  5-MIN KMSN 290205Z 04013KT 6SM BR OVC006 M02/M03 A2991 880 92 -900 040/13 RMK AO2 CIG 004V009
14837KMSN MSN20020128201009701/28/02 20:10:31  5-MIN KMSN 290210Z 04013KT 7SM OVC006 M02/M03 A2990 890 92 -800 040/13 RMK AO2
14837KMSN MSN20020128201510901/28/02 20:15:31  5-MIN KMSN 290215Z 04015KT 8SM OVC006 M02/M03 A2991 880 92 -900 040/15 RMK AO2 CIG 004V009
14837KMSN MSN20020128202010901/28/02 20:20:31  5-MIN KMSN 290220Z 03010KT 9SM OVC006 M02/M03 A2992 870 92 -900 030/10 RMK AO2 CIG 004V009
14837KMSN MSN20020128202510901/28/02 20:25:31  5-MIN KMSN 290225Z 03013KT 9SM OVC006 M02/M03 A2991 880 88 -900 030/13 RMK AO2 CIG 004V009
14837KMSN MSN20020128203009701/28/02 20:30:31  5-MIN KMSN 290230Z 03012KT 9SM OVC006 M02/M03 A2991 870 88 -900 030/12 RMK AO2
14837KMSN MSN20020128203509701/28/02 20:35:31  5-MIN KMSN 290235Z 04010KT 9SM OVC006 M02/M03 A2992 860 88 -900 040/10 RMK AO2
14837KMSN MSN20020128204009701/28/02 20:40:31  5-MIN KMSN 290240Z 05014KT 9SM OVC006 M02/M03 A2991 870 88 -900 050/14 RMK AO2
14837KMSN MSN20020128204509701/28/02 20:45:31  5-MIN KMSN 290245Z 05013KT 9SM OVC008 M02/M03 A2992 870 88 -900 040/13 RMK AO2
14837KMSN MSN20020128205012001/28/02 20:50:31  5-MIN KMSN 290250Z 03013KT 9SM OVC008 M02/M03 A2992 870 88 -900 030/13 RMK AO2 SLP141 T10171033 51008
14837KMSN MSN20020128205509701/28/02 20:55:31  5-MIN KMSN 290255Z 03015KT 9SM OVC008 M02/M03 A2991 870 88 -900 030/15 RMK AO2
14837KMSN MSN20020128210009701/28/02 21:00:31  5-MIN KMSN 290300Z 03013KT 9SM OVC008 M02/M03 A2992 860 88 -900 030/13 RMK AO2
14837KMSN MSN20020128210509701/28/02 21:05:31  5-MIN KMSN 290305Z 04012KT 9SM OVC008 M02/M04 A2993 860 85 -900 040/12 RMK AO2
14837KMSN MSN20020128211009801/28/02 21:10:31  5-MIN KMSN 290310Z 04014KT 10SM OVC008 M02/M04 A2992 860 85 -900 040/14 RMK AO2
14837KMSN MSN20020128211510501/28/02 21:15:31  5-MIN KMSN 290315Z 04011KT 10SM OVC008 M02/M04 A2994 850 85 -900 040/11 RMK AO2 PRESRR
14837KMSN MSN20020128212009801/28/02 21:20:31  5-MIN KMSN 290320Z 03009KT 10SM OVC008 M02/M04 A2994 850 85 -900 030/09 RMK AO2
14837KMSN MSN20020128212509801/28/02 21:25:31  5-MIN KMSN 290325Z 03013KT 10SM OVC008 M02/M04 A2993 850 85 -900 030/13 RMK AO2
14837KMSN MSN20020128213009801/28/02 21:30:31  5-MIN KMSN 290330Z 03011KT 10SM OVC008 M02/M04 A2994 850 85 -900 030/11 RMK AO2
14837KMSN MSN20020128213509801/28/02 21:35:31  5-MIN KMSN 290335Z 04010KT 10SM OVC008 M02/M04 A2994 850 85 -900 040/10 RMK AO2
14837KMSN MSN20020128214009801/28/02 21:40:31  5-MIN KMSN 290340Z 03009KT 10SM OVC008 M02/M04 A2993 850 85 -900 030/09 RMK AO2
14837KMSN MSN20020128214509801/28/02 21:45:31  5-MIN KMSN 290345Z 03010KT 10SM OVC008 M02/M04 A2993 850 85 -900 030/10 RMK AO2
14837KMSN MSN20020128215011501/28/02 21:50:31  5-MIN KMSN 290350Z 03009KT 10SM OVC010 M02/M04 A2993 850 85 -900 030/09 RMK AO2 SLP145 T10171039
14837KMSN MSN20020128215509801/28/02 21:55:31  5-MIN KMSN 290355Z 03012KT 10SM OVC010 M02/M04 A2994 850 85 -900 030/12 RMK AO2
14837KMSN MSN20020128220009801/28/02 22:00:31  5-MIN KMSN 290400Z 02010KT 10SM OVC010 M02/M04 A2994 840 81 -900 020/10 RMK AO2
14837KMSN MSN20020128220509801/28/02 22:05:31  5-MIN KMSN 290405Z 04010KT 10SM OVC010 M02/M04 A2995 840 81 -900 030/10 RMK AO2
14837KMSN MSN20020128221009801/28/02 22:10:31  5-MIN KMSN 290410Z 02010KT 10SM OVC010 M02/M04 A2994 840 81 -900 020/10 RMK AO2
14837KMSN MSN20020128221509801/28/02 22:15:31  5-MIN KMSN 290415Z 02012KT 10SM OVC010 M02/M04 A2995 840 81 -900 020/12 RMK AO2
14837KMSN MSN20020128222009801/28/02 22:20:31  5-MIN KMSN 290420Z 02012KT 10SM OVC010 M02/M04 A2995 840 81 -900 020/12 RMK AO2
14837KMSN MSN20020128222509801/28/02 22:25:31  5-MIN KMSN 290425Z 03010KT 10SM OVC010 M02/M04 A2995 840 81 -900 030/10 RMK AO2
14837KMSN MSN20020128223009801/28/02 22:30:31  5-MIN KMSN 290430Z 03011KT 10SM OVC010 M02/M04 A2994 840 81 -900 030/11 RMK AO2
14837KMSN MSN20020129003009801/29/02 00:30:31  5-MIN KMSN 290630Z 03009KT 8SM OVC010 M03/M05 A2994 840 85 -1000 030/09 RMK AO2
14837KMSN MSN20020129003509801/29/02 00:35:31  5-MIN KMSN 290635Z 03010KT 8SM OVC010 M03/M05 A2995 840 85 -1000 030/10 RMK AO2
14837KMSN MSN20020129004009801/29/02 00:40:31  5-MIN KMSN 290640Z 04012KT 8SM OVC010 M03/M05 A2994 840 85 -1000 040/12 RMK AO2
14837KMSN MSN20020129004509801/29/02 00:45:31  5-MIN KMSN 290645Z 05011KT 8SM OVC010 M03/M05 A2994 840 85 -1000 050/11 RMK AO2
14837KMSN MSN20020129005011501/29/02 00:50:31  5-MIN KMSN 290650Z 05014KT 9SM OVC010 M03/M05 A2994 840 85 -1000 050/14 RMK AO2 SLP150 T10281050
14837KMSN MSN20020129005511001/29/02 00:55:31  5-MIN KMSN 290655Z 06012KT 9SM OVC010 M03/M06 A2995 840 81 -1100 060/12 RMK AO2 CIG 009V013
14837KMSN MSN20020129010009801/29/02 01:00:31  5-MIN KMSN 290700Z 05012KT 9SM OVC010 M03/M06 A2995 840 81 -1100 050/12 RMK AO2
14837KMSN MSN20020129010509801/29/02 01:05:31  5-MIN KMSN 290705Z 04009KT 9SM OVC010 M03/M06 A2995 840 81 -1100 040/09 RMK AO2
14837KMSN MSN20020129011009801/29/02 01:10:31  5-MIN KMSN 290710Z 03012KT 8SM OVC010 M03/M05 A2995 830 85 -1100 030/12 RMK AO2
14837KMSN MSN20020129011509801/29/02 01:15:31  5-MIN KMSN 290715Z 05012KT 8SM OVC010 M03/M06 A2996 830 81 -1100 040/12 RMK AO2
14837KMSN MSN20020129012009801/29/02 01:20:31  5-MIN KMSN 290720Z 04011KT 8SM OVC010 M03/M06 A2996 830 81 -1100 040/11 RMK AO2
14837KMSN MSN20020129012509801/29/02 01:25:31  5-MIN KMSN 290725Z 03015KT 8SM OVC010 M03/M06 A2996 830 81 -1100 030/15 RMK AO2
14837KMSN MSN20020129013009801/29/02 01:30:31  5-MIN KMSN 290730Z 04012KT 9SM OVC010 M03/M06 A2996 830 81 -1100 040/12 RMK AO2
14837KMSN MSN20020129013509801/29/02 01:35:31  5-MIN KMSN 290735Z 04012KT 9SM OVC010 M03/M06 A2995 830 81 -1100 040/12 RMK AO2
14837KMSN MSN20020129014009801/29/02 01:40:31  5-MIN KMSN 290740Z 04011KT 9SM OVC010 M03/M06 A2996 830 81 -1100 040/11 RMK AO2
14837KMSN MSN20020129014509801/29/02 01:45:31  5-MIN KMSN 290745Z 02009KT 8SM OVC010 M03/M06 A2996 820 81 -1100 020/09 RMK AO2
14837KMSN MSN20020129015011501/29/02 01:50:31  5-MIN KMSN 290750Z 02014KT 9SM OVC010 M03/M06 A2997 820 85 -1100 020/14 RMK AO2 SLP159 T10331056
14837KMSN MSN20020129015509801/29/02 01:55:31  5-MIN KMSN 290755Z 02015KT 9SM OVC010 M03/M06 A2997 820 81 -1100 020/15 RMK AO2
14837KMSN MSN20020129020009801/29/02 02:00:31  5-MIN KMSN 290800Z 02015KT 9SM OVC010 M03/M06 A2997 820 81 -1100 020/15 RMK AO2
14837KMSN MSN20020129020509901/29/02 02:05:31  5-MIN KMSN 290805Z 03014KT 10SM OVC010 M03/M06 A2997 820 81 -1100 030/14 RMK AO2
14837KMSN MSN20020129021009901/29/02 02:10:31  5-MIN KMSN 290810Z 03013KT 10SM OVC010 M03/M06 A2998 810 81 -1200 030/13 RMK AO2
14837KMSN MSN20020129021509901/29/02 02:15:31  5-MIN KMSN 290815Z 04014KT 10SM OVC010 M03/M06 A2997 820 81 -1100 030/14 RMK AO2
14837KMSN MSN20020129022009901/29/02 02:20:31  5-MIN KMSN 290820Z 03011KT 10SM OVC010 M03/M06 A2997 820 81 -1100 030/11 RMK AO2
14837KMSN MSN20020129022509901/29/02 02:25:31  5-MIN KMSN 290825Z 03011KT 10SM OVC010 M03/M06 A2998 810 81 -1200 030/11 RMK AO2
14837KMSN MSN20020129023009901/29/02 02:30:31  5-MIN KMSN 290830Z 03012KT 10SM OVC010 M03/M06 A2999 800 81 -1200 030/12 RMK AO2
14837KMSN MSN20020129023509901/29/02 02:35:31  5-MIN KMSN 290835Z 04011KT 10SM OVC010 M03/M06 A2999 800 81 -1200 040/11 RMK AO2
14837KMSN MSN20020129024009901/29/02 02:40:31  5-MIN KMSN 290840Z 04012KT 10SM OVC010 M03/M07 A2999 800 78 -1200 040/12 RMK AO2
14837KMSN MSN20020129024509901/29/02 02:45:31  5-MIN KMSN 290845Z 05013KT 10SM OVC010 M03/M07 A2999 800 78 -1200 050/13 RMK AO2
14837KMSN MSN20020129025012201/29/02 02:50:31  5-MIN KMSN 290850Z 04012KT 10SM OVC010 M03/M07 A2999 800 78 -1200 040/12 RMK AO2 SLP167 T10331067 51009
14837KMSN MSN20020129025509901/29/02 02:55:31  5-MIN KMSN 290855Z 04013KT 10SM OVC012 M03/M07 A3001 780 78 -1200 040/13 RMK AO2
14837KMSN MSN20020129030009901/29/02 03:00:31  5-MIN KMSN 290900Z 04012KT 10SM OVC012 M03/M07 A3001 780 78 -1200 040/12 RMK AO2
14837KMSN MSN20020129030509901/29/02 03:05:31  5-MIN KMSN 290905Z 04013KT 10SM OVC012 M03/M07 A3000 790 78 -1200 040/13 RMK AO2
14837KMSN MSN20020129031009901/29/02 03:10:31  5-MIN KMSN 290910Z 04011KT 10SM OVC012 M03/M07 A3000 790 78 -1200 040/11 RMK AO2
14837KMSN MSN20020129031509901/29/02 03:15:31  5-MIN KMSN 290915Z 04011KT 10SM OVC012 M03/M06 A2999 800 81 -1200 040/11 RMK AO2
14837KMSN MSN20020129032009901/29/02 03:20:31  5-MIN KMSN 290920Z 04012KT 10SM OVC012 M03/M06 A3000 790 81 -1200 030/12 RMK AO2
14837KMSN MSN20020129032509901/29/02 03:25:31  5-MIN KMSN 290925Z 05010KT 10SM OVC012 M03/M06 A3000 790 81 -1200 050/10 RMK AO2
14837KMSN MSN20020129033009901/29/02 03:30:31  5-MIN KMSN 290930Z 05010KT 10SM OVC012 M04/M06 A3000 790 85 -1300 050/10 RMK AO2
14837KMSN MSN20020129033509901/29/02 03:35:31  5-MIN KMSN 290935Z 04011KT 10SM OVC012 M04/M06 A3000 790 85 -1300 040/11 RMK AO2
14837KMSN MSN20020129034009901/29/02 03:40:31  5-MIN KMSN 290940Z 04012KT 10SM OVC012 M04/M06 A3000 790 85 -1300 040/12 RMK AO2
14837KMSN MSN20020129034509901/29/02 03:45:31  5-MIN KMSN 290945Z 05012KT 10SM OVC012 M04/M07 A2999 800 81 -1200 040/12 RMK AO2
14837KMSN MSN20020129035011601/29/02 03:50:31  5-MIN KMSN 290950Z 04010KT 10SM OVC012 M04/M06 A2999 800 85 -1200 030/10 RMK AO2 SLP167 T10391061
14837KMSN MSN20020129035509901/29/02 03:55:31  5-MIN KMSN 290955Z 02012KT 10SM OVC012 M04/M06 A2999 800 85 -1200 020/12 RMK AO2
14837KMSN MSN20020129040009901/29/02 04:00:31  5-MIN KMSN 291000Z 02014KT 10SM OVC012 M04/M07 A2999 800 81 -1200 020/14 RMK AO2
14837KMSN MSN20020129040509901/29/02 04:05:31  5-MIN KMSN 291005Z 02013KT 10SM OVC012 M04/M07 A3000 790 81 -1200 020/13 RMK AO2
14837KMSN MSN20020129041009901/29/02 04:10:31  5-MIN KMSN 291010Z 04011KT 10SM OVC012 M04/M07 A3000 790 81 -1200 040/11 RMK AO2
14837KMSN MSN20020129041509901/29/02 04:15:31  5-MIN KMSN 291015Z 04012KT 10SM OVC012 M04/M07 A3000 790 81 -1300 040/12 RMK AO2
14837KMSN MSN20020129042009901/29/02 04:20:31  5-MIN KMSN 291020Z 03010KT 10SM OVC012 M04/M07 A3000 790 81 -1300 030/10 RMK AO2
14837KMSN MSN20020129042509901/29/02 04:25:31  5-MIN KMSN 291025Z 04012KT 10SM OVC014 M04/M07 A3000 790 81 -1200 040/12 RMK AO2
14837KMSN MSN20020129043010601/29/02 04:30:31  5-MIN KMSN 291030Z 04013KT 10SM BKN014 OVC038 M04/M07 A2999 800 78 -1200 030/13 RMK AO2
14837KMSN MSN20020129043510601/29/02 04:35:31  5-MIN KMSN 291035Z 03011KT 10SM BKN014 OVC040 M04/M07 A3000 790 78 -1300 030/11 RMK AO2
14837KMSN MSN20020129044010601/29/02 04:40:31  5-MIN KMSN 291040Z 03011KT 10SM BKN014 OVC040 M04/M07 A2999 800 78 -1200 030/11 RMK AO2
14837KMSN MSN20020129044510601/29/02 04:45:31  5-MIN KMSN 291045Z 03010KT 10SM BKN014 BKN040 M04/M07 A2999 800 81 -1200 030/10 RMK AO2
14837KMSN MSN20020129045012301/29/02 04:50:31  5-MIN KMSN 291050Z 04009KT 10SM SCT014 BKN040 M04/M07 A3000 790 78 -1200 040/09 RMK AO2 SLP168 T10391072
14837KMSN MSN20020129045510601/29/02 04:55:31  5-MIN KMSN 291055Z 03009KT 10SM SCT014 BKN040 M04/M07 A3000 790 78 -1300 030/09 RMK AO2
14837KMSN MSN20020129050010601/29/02 05:00:31  5-MIN KMSN 291100Z 04011KT 10SM SCT014 BKN040 M04/M07 A2999 800 84 -1300 040/11 RMK AO2
14837KMSN MSN20020129050509901/29/02 05:05:31  5-MIN KMSN 291105Z 03011KT 10SM BKN014 M04/M07 A3001 780 81 -1300 030/11 RMK AO2
14837KMSN MSN20020129051009901/29/02 05:10:31  5-MIN KMSN 291110Z 05010KT 10SM BKN014 M04/M07 A3001 780 84 -1300 050/10 RMK AO2
14837KMSN MSN20020129051509901/29/02 05:15:31  5-MIN KMSN 291115Z 04010KT 10SM BKN014 M04/M07 A3000 790 84 -1300 040/10 RMK AO2
14837KMSN MSN20020129052009901/29/02 05:20:31  5-MIN KMSN 291120Z 03010KT 10SM BKN014 M04/M07 A3000 790 84 -1300 030/10 RMK AO2
14837KMSN MSN20020129052509901/29/02 05:25:31  5-MIN KMSN 291125Z 04012KT 10SM BKN014 M04/M07 A2999 800 84 -1300 030/12 RMK AO2
14837KMSN MSN20020129053009901/29/02 05:30:31  5-MIN KMSN 291130Z 04013KT 10SM OVC014 M04/M07 A3000 790 84 -1300 040/13 RMK AO2
14837KMSN MSN20020129053509901/29/02 05:35:31  5-MIN KMSN 291135Z 05011KT 10SM OVC014 M04/M07 A3000 790 84 -1300 050/11 RMK AO2
14837KMSN MSN20020129054009901/29/02 05:40:31  5-MIN KMSN 291140Z 04013KT 10SM OVC014 M04/M07 A3000 790 84 -1300 040/13 RMK AO2
14837KMSN MSN20020129054509901/29/02 05:45:31  5-MIN KMSN 291145Z 04013KT 10SM OVC014 M04/M07 A2999 800 81 -1300 040/13 RMK AO2
14837KMSN MSN20020129055013401/29/02 05:50:31  5-MIN KMSN 291150Z 04010KT 10SM OVC014 M04/M07 A3000 790 81 -1300 040/10 RMK AO2 SLP169 T10441072 11022 21044 53020
14837KMSN MSN20020129055509901/29/02 05:55:31  5-MIN KMSN 291155Z 05010KT 10SM OVC014 M04/M07 A3000 790 81 -1300 050/10 RMK AO2
14837KMSN MSN20020129060009901/29/02 06:00:31  5-MIN KMSN 291200Z 04009KT 10SM OVC014 M04/M07 A3000 790 81 -1300 040/09 RMK AO2
14837KMSN MSN20020129060509901/29/02 06:05:31  5-MIN KMSN 291205Z 05010KT 10SM OVC014 M04/M07 A3001 780 84 -1300 050/10 RMK AO2
14837KMSN MSN20020129061009901/29/02 06:10:31  5-MIN KMSN 291210Z 05010KT 10SM OVC014 M04/M07 A3001 780 81 -1300 050/10 RMK AO2
14837KMSN MSN20020129061509901/29/02 06:15:31  5-MIN KMSN 291215Z 05009KT 10SM OVC014 M04/M07 A3001 790 81 -1300 050/09 RMK AO2
14837KMSN MSN20020129062009901/29/02 06:20:31  5-MIN KMSN 291220Z 04007KT 10SM OVC014 M04/M07 A3001 780 84 -1300 040/07 RMK AO2
14837KMSN MSN20020129062509901/29/02 06:25:31  5-MIN KMSN 291225Z 04010KT 10SM OVC014 M04/M07 A3001 780 84 -1300 040/10 RMK AO2
14837KMSN MSN20020129063009901/29/02 06:30:31  5-MIN KMSN 291230Z 04013KT 10SM OVC014 M04/M07 A3000 790 84 -1300 040/13 RMK AO2
14837KMSN MSN20020129063509901/29/02 06:35:31  5-MIN KMSN 291235Z 06011KT 10SM OVC014 M04/M07 A3001 780 81 -1300 050/11 RMK AO2
14837KMSN MSN20020129064009901/29/02 06:40:31  5-MIN KMSN 291240Z 06011KT 10SM OVC014 M04/M07 A3001 780 81 -1300 050/11 RMK AO2
14837KMSN MSN20020129064509901/29/02 06:45:31  5-MIN KMSN 291245Z 05010KT 10SM OVC014 M04/M07 A3001 780 81 -1300 050/10 RMK AO2
14837KMSN MSN20020129065011601/29/02 06:50:31  5-MIN KMSN 291250Z 04012KT 10SM OVC014 M04/M07 A3001 780 81 -1300 040/12 RMK AO2 SLP173 T10441072
14837KMSN MSN20020129065509901/29/02 06:55:31  5-MIN KMSN 291255Z 04012KT 10SM OVC014 M04/M07 A3001 780 81 -1300 040/12 RMK AO2
14837KMSN MSN20020129070009901/29/02 07:00:31  5-MIN KMSN 291300Z 04012KT 10SM OVC014 M04/M08 A3002 780 78 -1300 040/12 RMK AO2
14837KMSN MSN20020129070509901/29/02 07:05:31  5-MIN KMSN 291305Z 04011KT 10SM OVC014 M04/M07 A3002 770 81 -1300 040/11 RMK AO2
14837KMSN MSN20020129071009901/29/02 07:10:31  5-MIN KMSN 291310Z 04012KT 10SM OVC014 M04/M07 A3002 780 81 -1300 040/12 RMK AO2
14837KMSN MSN20020129071509901/29/02 07:15:31  5-MIN KMSN 291315Z 04010KT 10SM OVC014 M04/M08 A3002 770 78 -1300 040/10 RMK AO2
14837KMSN MSN20020129072009901/29/02 07:20:31  5-MIN KMSN 291320Z 04011KT 10SM OVC014 M04/M08 A3002 770 78 -1300 040/11 RMK AO2
14837KMSN MSN20020129072509901/29/02 07:25:31  5-MIN KMSN 291325Z 04011KT 10SM OVC014 M04/M07 A3002 770 81 -1300 040/11 RMK AO2
14837KMSN MSN20020129073009901/29/02 07:30:31  5-MIN KMSN 291330Z 04012KT 10SM OVC014 M04/M08 A3002 770 78 -1300 040/12 RMK AO2
14837KMSN MSN20020129073509901/29/02 07:35:31  5-MIN KMSN 291335Z 04013KT 10SM OVC014 M04/M08 A3002 770 78 -1300 040/13 RMK AO2
14837KMSN MSN20020129074009901/29/02 07:40:31  5-MIN KMSN 291340Z 04009KT 10SM OVC014 M04/M07 A3002 770 81 -1300 040/09 RMK AO2
14837KMSN MSN20020129074509901/29/02 07:45:31  5-MIN KMSN 291345Z 05011KT 10SM OVC014 M04/M08 A3001 780 78 -1300 050/11 RMK AO2
14837KMSN MSN20020129075011601/29/02 07:50:31  5-MIN KMSN 291350Z 05014KT 10SM OVC014 M04/M08 A3001 780 78 -1300 050/14 RMK AO2 SLP173 T10441078
14837KMSN MSN20020129075509901/29/02 07:55:31  5-MIN KMSN 291355Z 05014KT 10SM OVC014 M04/M08 A3000 790 78 -1300 050/14 RMK AO2
14837KMSN MSN20020129080009901/29/02 08:00:31  5-MIN KMSN 291400Z 05013KT 10SM OVC014 M04/M08 A3000 790 78 -1300 050/13 RMK AO2
14837KMSN MSN20020129080509901/29/02 08:05:31  5-MIN KMSN 291405Z 06014KT 10SM OVC014 M04/M08 A2999 800 78 -1300 060/14 RMK AO2
14837KMSN MSN20020129081009901/29/02 08:10:31  5-MIN KMSN 291410Z 05012KT 10SM OVC014 M04/M08 A2999 800 78 -1300 050/12 RMK AO2
14837KMSN MSN20020129081509901/29/02 08:15:31  5-MIN KMSN 291415Z 06009KT 10SM OVC014 M04/M07 A2999 800 81 -1300 060/09 RMK AO2
14837KMSN MSN20020129082009901/29/02 08:20:31  5-MIN KMSN 291420Z 05010KT 10SM OVC014 M04/M08 A2999 800 78 -1300 050/10 RMK AO2
14837KMSN MSN20020129082509901/29/02 08:25:31  5-MIN KMSN 291425Z 06011KT 10SM OVC014 M04/M08 A3000 800 78 -1300 060/11 RMK AO2
14837KMSN MSN20020129083009901/29/02 08:30:31  5-MIN KMSN 291430Z 04010KT 10SM OVC014 M04/M08 A3000 790 78 -1300 040/10 RMK AO2
14837KMSN MSN20020129083509901/29/02 08:35:31  5-MIN KMSN 291435Z 05010KT 10SM OVC014 M04/M07 A3000 790 81 -1300 050/10 RMK AO2
14837KMSN MSN20020129084010601/29/02 08:40:31  5-MIN KMSN 291440Z 03010KT 10SM OVC014 M04/M07 A3001 780 81 -1300 030/10 RMK AO2 PRESRR
14837KMSN MSN20020129084510601/29/02 08:45:31  5-MIN KMSN 291445Z 35007KT 10SM OVC014 M04/M07 A3005 750 81 -1400 350/07 RMK AO2 PRESRR
14837KMSN MSN20020129085012201/29/02 08:50:31  5-MIN KMSN 291450Z 03008KT 10SM OVC014 M04/M07 A3005 750 81 -1400 030/08 RMK AO2 SLP187 T10441072 55001
14837KMSN MSN20020129085510601/29/02 08:55:31  5-MIN KMSN 291455Z 35007KT 10SM OVC014 M04/M07 A3007 730 81 -1400 350/07 RMK AO2 PRESRR
14837KMSN MSN20020129090009901/29/02 09:00:31  5-MIN KMSN 291500Z 01009KT 10SM OVC014 M04/M07 A3008 720 81 -1400 010/09 RMK AO2
14837KMSN MSN20020129090509901/29/02 09:05:31  5-MIN KMSN 291505Z 02008KT 10SM OVC014 M04/M07 A3008 720 81 -1400 020/08 RMK AO2
14837KMSN MSN20020129091009901/29/02 09:10:31  5-MIN KMSN 291510Z 03008KT 10SM OVC014 M04/M07 A3006 740 81 -1400 030/08 RMK AO2
14837KMSN MSN20020129091509901/29/02 09:15:31  5-MIN KMSN 291515Z 04009KT 10SM OVC014 M04/M07 A3006 740 78 -1300 040/09 RMK AO2
14837KMSN MSN20020129092009901/29/02 09:20:31  5-MIN KMSN 291520Z 03009KT 10SM OVC014 M04/M07 A3006 730 78 -1300 030/09 RMK AO2
14837KMSN MSN20020129092509901/29/02 09:25:31  5-MIN KMSN 291525Z 03009KT 10SM OVC016 M04/M07 A3006 730 78 -1300 030/09 RMK AO2
14837KMSN MSN20020129093009901/29/02 09:30:31  5-MIN KMSN 291530Z 03010KT 10SM OVC016 M04/M07 A3005 740 81 -1400 030/10 RMK AO2
14837KMSN MSN20020129093509901/29/02 09:35:31  5-MIN KMSN 291535Z 04008KT 10SM OVC016 M04/M07 A3005 740 78 -1300 040/08 RMK AO2
14837KMSN MSN20020129094009901/29/02 09:40:31  5-MIN KMSN 291540Z 04010KT 10SM OVC016 M04/M07 A3005 740 78 -1300 030/10 RMK AO2
14837KMSN MSN20020129094509901/29/02 09:45:31  5-MIN KMSN 291545Z 03009KT 10SM OVC016 M04/M07 A3005 740 78 -1300 030/09 RMK AO2
14837KMSN MSN20020129095011601/29/02 09:50:31  5-MIN KMSN 291550Z 02010KT 10SM OVC016 M04/M07 A3005 750 78 -1300 020/10 RMK AO2 SLP187 T10391072
14837KMSN MSN20020129095509901/29/02 09:55:31  5-MIN KMSN 291555Z 02010KT 10SM OVC016 M04/M08 A3006 740 74 -1300 020/10 RMK AO2
14837KMSN MSN20020129100009901/29/02 10:00:31  5-MIN KMSN 291600Z 03011KT 10SM OVC016 M04/M08 A3005 740 74 -1300 030/11 RMK AO2
14837KMSN MSN20020129100509901/29/02 10:05:31  5-MIN KMSN 291605Z 03009KT 10SM OVC016 M04/M07 A3005 750 78 -1300 030/09 RMK AO2
14837KMSN MSN20020129101009901/29/02 10:10:31  5-MIN KMSN 291610Z 03010KT 10SM OVC016 M04/M07 A3004 750 78 -1300 030/10 RMK AO2
14837KMSN MSN20020129101509901/29/02 10:15:31  5-MIN KMSN 291615Z 03011KT 10SM OVC016 M04/M07 A3005 750 78 -1300 030/11 RMK AO2
14837KMSN MSN20020129102009901/29/02 10:20:31  5-MIN KMSN 291620Z 02012KT 10SM OVC016 M04/M07 A3005 740 78 -1300 020/12 RMK AO2
14837KMSN MSN20020129102509901/29/02 10:25:31  5-MIN KMSN 291625Z 02011KT 10SM OVC016 M04/M07 A3005 740 78 -1300 020/11 RMK AO2
14837KMSN MSN20020129103009901/29/02 10:30:31  5-MIN KMSN 291630Z 03011KT 10SM OVC016 M04/M07 A3005 750 78 -1300 030/11 RMK AO2
14837KMSN MSN20020129103509901/29/02 10:35:31  5-MIN KMSN 291635Z 03010KT 10SM OVC016 M04/M07 A3004 760 78 -1300 030/10 RMK AO2
14837KMSN MSN20020129104009901/29/02 10:40:31  5-MIN KMSN 291640Z 03010KT 10SM OVC016 M04/M07 A3004 760 78 -1300 030/10 RMK AO2
14837KMSN MSN20020129104509901/29/02 10:45:31  5-MIN KMSN 291645Z 02010KT 10SM OVC016 M04/M07 A3005 750 78 -1300 020/10 RMK AO2
14837KMSN MSN20020129105011601/29/02 10:50:31  5-MIN KMSN 291650Z 02011KT 10SM OVC016 M04/M07 A3005 740 78 -1300 020/11 RMK AO2 SLP188 T10391072
14837KMSN MSN20020129105509901/29/02 10:55:31  5-MIN KMSN 291655Z 02011KT 10SM OVC016 M04/M07 A3006 740 78 -1300 020/11 RMK AO2
14837KMSN MSN20020129110009901/29/02 11:00:31  5-MIN KMSN 291700Z 02011KT 10SM OVC016 M04/M07 A3005 750 78 -1300 010/11 RMK AO2
14837KMSN MSN20020129110509901/29/02 11:05:31  5-MIN KMSN 291705Z 02009KT 10SM OVC016 M04/M07 A3004 750 78 -1300 020/09 RMK AO2
14837KMSN MSN20020129111009901/29/02 11:10:31  5-MIN KMSN 291710Z 02010KT 10SM OVC016 M04/M07 A3005 750 78 -1300 020/10 RMK AO2
14837KMSN MSN20020129111509901/29/02 11:15:31  5-MIN KMSN 291715Z 02010KT 10SM OVC014 M04/M07 A3005 740 78 -1300 020/10 RMK AO2
14837KMSN MSN20020129112009901/29/02 11:20:31  5-MIN KMSN 291720Z 01011KT 10SM OVC014 M04/M07 A3005 750 78 -1300 010/11 RMK AO2
14837KMSN MSN20020129112509901/29/02 11:25:31  5-MIN KMSN 291725Z 01011KT 10SM OVC014 M04/M07 A3004 750 78 -1300 010/11 RMK AO2
14837KMSN MSN20020129113009901/29/02 11:30:31  5-MIN KMSN 291730Z 01013KT 10SM OVC014 M04/M07 A3004 750 81 -1300 010/13 RMK AO2
14837KMSN MSN20020129113509901/29/02 11:35:31  5-MIN KMSN 291735Z 02011KT 10SM OVC014 M04/M07 A3005 740 81 -1300 020/11 RMK AO2
14837KMSN MSN20020129114009901/29/02 11:40:31  5-MIN KMSN 291740Z 02013KT 10SM OVC014 M04/M07 A3006 740 81 -1300 010/13 RMK AO2
14837KMSN MSN20020129114509901/29/02 11:45:31  5-MIN KMSN 291745Z 02013KT 10SM OVC012 M04/M07 A3006 730 81 -1300 020/13 RMK AO2
14837KMSN MSN20020129115013401/29/02 11:50:31  5-MIN KMSN 291750Z 01014KT 10SM OVC012 M04/M07 A3006 730 81 -1300 010/14 RMK AO2 SLP192 T10391067 11039 21044 53023
14837KMSN MSN20020129115509901/29/02 11:55:31  5-MIN KMSN 291755Z 02011KT 10SM OVC012 M04/M07 A3006 740 81 -1300 020/11 RMK AO2
14837KMSN MSN20020129120009901/29/02 12:00:31  5-MIN KMSN 291800Z 01010KT 10SM OVC012 M04/M07 A3006 740 81 -1300 010/10 RMK AO2
14837KMSN MSN20020129120509901/29/02 12:05:31  5-MIN KMSN 291805Z 02009KT 10SM OVC012 M04/M07 A3005 740 81 -1300 020/09 RMK AO2
14837KMSN MSN20020129121009901/29/02 12:10:31  5-MIN KMSN 291810Z 03011KT 10SM OVC012 M04/M07 A3005 750 81 -1300 030/11 RMK AO2
14837KMSN MSN20020129121509901/29/02 12:15:31  5-MIN KMSN 291815Z 02010KT 10SM OVC012 M04/M07 A3004 750 84 -1400 020/10 RMK AO2
14837KMSN MSN20020129122009901/29/02 12:20:31  5-MIN KMSN 291820Z 02012KT 10SM OVC012 M04/M07 A3004 750 81 -1300 020/12 RMK AO2
14837KMSN MSN20020129122509901/29/02 12:25:31  5-MIN KMSN 291825Z 02013KT 10SM OVC012 M04/M06 A3004 750 88 -1400 020/13 RMK AO2
14837KMSN MSN20020129123009901/29/02 12:30:31  5-MIN KMSN 291830Z 03012KT 10SM OVC012 M04/M06 A3004 750 88 -1400 020/12 RMK AO2
14837KMSN MSN20020129123509901/29/02 12:35:31  5-MIN KMSN 291835Z 02012KT 10SM OVC012 M04/M06 A3003 760 88 -1400 020/12 RMK AO2
14837KMSN MSN20020129124009901/29/02 12:40:31  5-MIN KMSN 291840Z 02012KT 10SM OVC010 M04/M06 A3004 760 88 -1400 020/12 RMK AO2
14837KMSN MSN20020129124510101/29/02 12:45:31  5-MIN KMSN 291845Z 02011KT 5SM BR OVC010 M04/M06 A3003 760 88 -1400 020/11 RMK AO2
14837KMSN MSN20020129125011801/29/02 12:50:31  5-MIN KMSN 291850Z 03013KT 4SM BR OVC010 M04/M06 A3002 770 88 -1300 030/13 RMK AO2 SLP179 T10441061
14837KMSN MSN20020129125510101/29/02 12:55:31  5-MIN KMSN 291855Z 03011KT 3SM BR OVC010 M04/M06 A3002 780 88 -1300 030/11 RMK AO2
14837KMSN MSN20020129130010801/29/02 13:00:31  5-MIN KMSN 291900Z 03010KT 3SM BR OVC010 M04/M06 A3001 790 88 -1300 030/10 RMK AO2 PRESFR
14837KMSN MSN20020129130510101/29/02 13:05:31  5-MIN KMSN 291905Z 02010KT 4SM BR OVC010 M04/M06 A3001 780 92 -1300 020/10 RMK AO2
14837KMSN MSN20020129131010101/29/02 13:10:31  5-MIN KMSN 291910Z 02012KT 4SM BR OVC010 M04/M06 A3001 780 92 -1300 020/12 RMK AO2
14837KMSN MSN20020129131510101/29/02 13:15:31  5-MIN KMSN 291915Z 02010KT 5SM BR OVC010 M04/M06 A3002 780 88 -1300 020/10 RMK AO2
14837KMSN MSN20020129132010101/29/02 13:20:31  5-MIN KMSN 291920Z 03010KT 5SM BR OVC010 M04/M06 A3002 780 92 -1300 030/10 RMK AO2
14837KMSN MSN20020129132510101/29/02 13:25:31  5-MIN KMSN 291925Z 01011KT 5SM BR OVC010 M04/M06 A3002 770 88 -1300 010/11 RMK AO2
14837KMSN MSN20020129133010101/29/02 13:30:31  5-MIN KMSN 291930Z 03009KT 6SM BR OVC010 M04/M06 A3001 780 88 -1300 030/09 RMK AO2
14837KMSN MSN20020129133510101/29/02 13:35:31  5-MIN KMSN 291935Z 03009KT 6SM BR OVC010 M04/M06 A3001 780 88 -1300 030/09 RMK AO2
14837KMSN MSN20020129134010101/29/02 13:40:31  5-MIN KMSN 291940Z 02010KT 6SM BR OVC010 M04/M06 A3002 770 88 -1300 020/10 RMK AO2
14837KMSN MSN20020129134510101/29/02 13:45:31  5-MIN KMSN 291945Z 03011KT 6SM BR OVC010 M04/M06 A3002 770 88 -1300 030/11 RMK AO2
14837KMSN MSN20020129135011801/29/02 13:50:31  5-MIN KMSN 291950Z 03011KT 6SM BR OVC008 M04/M06 A3002 770 88 -1300 030/11 RMK AO2 SLP177 T10441061
14837KMSN MSN20020129135509801/29/02 13:55:31  5-MIN KMSN 291955Z 04011KT 7SM OVC008 M04/M06 A3001 780 88 -1300 030/11 RMK AO2
14837KMSN MSN20020129140009801/29/02 14:00:31  5-MIN KMSN 292000Z 04009KT 7SM OVC008 M04/M06 A3001 780 88 -1300 040/09 RMK AO2
14837KMSN MSN20020129140509801/29/02 14:05:31  5-MIN KMSN 292005Z 04008KT 7SM OVC008 M04/M06 A3000 790 85 -1300 030/08 RMK AO2
14837KMSN MSN20020129141009801/29/02 14:10:31  5-MIN KMSN 292010Z 04010KT 7SM OVC008 M04/M06 A3000 790 88 -1300 040/10 RMK AO2
14837KMSN MSN20020129141509801/29/02 14:15:31  5-MIN KMSN 292015Z 04011KT 7SM OVC008 M04/M06 A3001 780 85 -1300 040/11 RMK AO2
14837KMSN MSN20020129142009801/29/02 14:20:31  5-MIN KMSN 292020Z 05011KT 7SM OVC008 M04/M06 A3000 790 85 -1200 050/11 RMK AO2
14837KMSN MSN20020129142509801/29/02 14:25:31  5-MIN KMSN 292025Z 04009KT 7SM OVC008 M04/M06 A3000 790 85 -1300 040/09 RMK AO2
14837KMSN MSN20020129143009801/29/02 14:30:31  5-MIN KMSN 292030Z 04008KT 7SM OVC008 M04/M06 A3000 790 85 -1300 040/08 RMK AO2
14837KMSN MSN20020129143509801/29/02 14:35:31  5-MIN KMSN 292035Z 03009KT 8SM OVC008 M04/M06 A3001 780 85 -1300 030/09 RMK AO2
14837KMSN MSN20020129144009801/29/02 14:40:31  5-MIN KMSN 292040Z 03009KT 8SM OVC008 M04/M06 A3002 780 85 -1300 030/09 RMK AO2
14837KMSN MSN20020129144509801/29/02 14:45:31  5-MIN KMSN 292045Z 02010KT 7SM OVC008 M04/M06 A3001 780 85 -1300 020/10 RMK AO2
14837KMSN MSN20020129145012101/29/02 14:50:31  5-MIN KMSN 292050Z 04010KT 7SM OVC008 M04/M06 A3001 780 85 -1300 030/10 RMK AO2 SLP176 T10391061 55003
14837KMSN MSN20020129145509801/29/02 14:55:31  5-MIN KMSN 292055Z 03008KT 7SM OVC008 M04/M06 A3002 770 85 -1300 020/08 RMK AO2
14837KMSN MSN20020129150010101/29/02 15:00:31  5-MIN KMSN 292100Z 02011KT 6SM BR OVC008 M04/M06 A3002 770 88 -1300 020/11 RMK AO2
14837KMSN MSN20020129150510101/29/02 15:05:31  5-MIN KMSN 292105Z 03010KT 6SM BR OVC008 M04/M06 A3001 780 85 -1300 030/10 RMK AO2
14837KMSN MSN20020129151010101/29/02 15:10:31  5-MIN KMSN 292110Z 04010KT 5SM BR OVC008 M04/M06 A3001 780 88 -1300 040/10 RMK AO2
14837KMSN MSN20020129151510101/29/02 15:15:31  5-MIN KMSN 292115Z 03009KT 5SM BR OVC008 M04/M06 A3002 770 85 -1300 030/09 RMK AO2
14837KMSN MSN20020129152010101/29/02 15:20:31  5-MIN KMSN 292120Z 03008KT 5SM BR OVC008 M04/M06 A3002 780 88 -1300 030/08 RMK AO2
14837KMSN MSN20020129152511301/29/02 15:25:31  5-MIN KMSN 292125Z 02011KT 4SM BR OVC008 M04/M06 A3002 770 88 -1300 020/11 RMK AO2 CIG 007V011
14837KMSN MSN20020129153010101/29/02 15:30:31  5-MIN KMSN 292130Z 02011KT 4SM BR OVC008 M04/M06 A3002 770 92 -1300 020/11 RMK AO2
14837KMSN MSN20020129153511301/29/02 15:35:31  5-MIN KMSN 292135Z 03009KT 4SM BR OVC008 M04/M06 A3001 780 92 -1300 030/09 RMK AO2 CIG 007V011
14837KMSN MSN20020129154011301/29/02 15:40:31  5-MIN KMSN 292140Z 02010KT 3SM BR OVC008 M04/M06 A3002 770 92 -1300 020/10 RMK AO2 CIG 006V011
14837KMSN MSN20020129154511701/29/02 15:45:31  5-MIN KMSN 292145Z 03008KT 2 1/2SM BR OVC008 M04/M06 A3002 770 92 -1300 030/08 RMK AO2 CIG 006V011
14837KMSN MSN20020129155014701/29/02 15:50:31  5-MIN KMSN 292150Z 02009KT 2 1/2SM -SN OVC008 M04/M06 A3003 770 92 -1400 020/09 RMK AO2 SNB49 CIG 006V011 SLP180 P0000 T10441056
14837KMSN MSN20020129155512701/29/02 15:55:31  5-MIN KMSN 292155Z 03008KT 2 1/2SM -SN BR OVC008 M04/M06 A3003 760 92 -1400 030/08 RMK AO2 CIG 006V011 P0000
14837KMSN MSN20020129160012301/29/02 16:00:31  5-MIN KMSN 292200Z 03007KT 2SM -SN BR OVC008 M04/M06 A3003 770 92 -1400 030/07 RMK AO2 CIG 005V011 P0000
14837KMSN MSN20020129160512701/29/02 16:05:31  5-MIN KMSN 292205Z 02008KT 1 3/4SM -SN BR OVC008 M04/M05 A3003 760 96 -1400 020/08 RMK AO2 CIG 005V011 P0000
14837KMSN MSN20020129161012701/29/02 16:10:31  5-MIN KMSN 292210Z 01009KT 1 3/4SM -SN BR OVC008 M04/M05 A3003 760 96 -1400 010/09 RMK AO2 CIG 005V011 P0000
14837KMSN MSN20020129161512701/29/02 16:15:31  5-MIN KMSN 292215Z 02010KT 1 1/2SM -SN BR OVC008 M04/M05 A3003 760 96 -1400 020/10 RMK AO2 CIG 004V011 P0000
14837KMSN MSN20020129162012701/29/02 16:20:31  5-MIN KMSN 292220Z 03009KT 1 1/2SM -SN BR OVC008 M04/M06 A3004 760 92 -1400 030/09 RMK AO2 CIG 004V011 P0000
14837KMSN MSN20020129162513401/29/02 16:25:31  5-MIN KMSN 292225Z 04008KT 1 1/2SM -SN BR BKN006 OVC010 M04/M06 A3003 760 92 -1400 040/08 RMK AO2 CIG 004V009 P0000
14837KMSN MSN20020129163012701/29/02 16:30:31  5-MIN KMSN 292230Z 04011KT 1 1/2SM -SN BR OVC008 M04/M06 A3003 760 92 -1400 030/11 RMK AO2 CIG 004V012 P0000
14837KMSN MSN20020129163513901/29/02 16:35:31  5-MIN KMSN 292235Z 03008KT 1 1/2SM -FZDZSN BR OVC008 M04/M06 A3003 770 92 -1400 030/08 RMK AO2 FZDZB34 CIG 004V012 P0000
14837KMSN MSN20020129164013901/29/02 16:40:31  5-MIN KMSN 292240Z 03010KT 1 1/2SM -FZDZSN BR OVC008 M04/M06 A3003 770 92 -1400 030/10 RMK AO2 FZDZB34 CIG 004V012 P0000
14837KMSN MSN20020129164515301/29/02 16:45:31  5-MIN KMSN 292245Z 04009KT 1 1/2SM -FZDZSN BR OVC008 M04/M06 A3003 760 92 -1400 040/09 RMK AO2 SFC VIS 1 3/4 FZDZB34 CIG 005V012 P0000
14837KMSN MSN20020129165016601/29/02 16:50:31  5-MIN KMSN 292250Z 03009KT 1 1/2SM -FZDZSN BR OVC008 M04/M06 A3003 760 92 -1400 030/09 RMK AO2 SFC VIS 2 FZDZB34 CIG 005V010 SLP181 P0000 T10441056
14837KMSN MSN20020129165514801/29/02 16:55:31  5-MIN KMSN 292255Z 02010KT 1 1/2SM -FZDZSN BR BKN006 OVC011 M04/M06 A3003 760 92 -1400 020/10 RMK AO2 SFC VIS 2 CIG 004V008 P0000
14837KMSN MSN20020129170014801/29/02 17:00:31  5-MIN KMSN 292300Z 03012KT 1 1/2SM -FZDZSN BR BKN006 OVC010 M04/M06 A3003 760 92 -1400 030/12 RMK AO2 SFC VIS 3 CIG 004V008 P0000
14837KMSN MSN20020129170514101/29/02 17:05:31  5-MIN KMSN 292305Z 03010KT 1 1/2SM -FZDZSN BR OVC009 M04/M06 A3003 760 92 -1400 030/10 RMK AO2 SFC VIS 3 CIG 004V010 P0000
14837KMSN MSN20020129171014101/29/02 17:10:31  5-MIN KMSN 292310Z 02012KT 1 1/2SM -FZDZSN BR OVC007 M04/M06 A3003 760 92 -1400 010/12 RMK AO2 SFC VIS 3 CIG 004V010 P0000
14837KMSN MSN20020129171514101/29/02 17:15:31  5-MIN KMSN 292315Z 02011KT 1 1/2SM -FZDZSN BR OVC007 M05/M06 A3004 760 96 -1400 020/11 RMK AO2 SFC VIS 3 CIG 004V010 P0000
14837KMSN MSN20020129172014101/29/02 17:20:31  5-MIN KMSN 292320Z 03010KT 1 1/2SM -FZDZSN BR OVC007 M05/M06 A3004 750 92 -1400 030/10 RMK AO2 SFC VIS 3 CIG 004V011 P0000
14837KMSN MSN20020129172514101/29/02 17:25:31  5-MIN KMSN 292325Z 02011KT 1 1/2SM -FZDZSN BR OVC007 M05/M06 A3005 750 96 -1400 020/11 RMK AO2 SFC VIS 3 CIG 005V009 P0000
14837KMSN MSN20020129173014101/29/02 17:30:31  5-MIN KMSN 292330Z 02009KT 1 1/2SM -FZDZSN BR OVC007 M04/M06 A3005 740 92 -1400 020/09 RMK AO2 SFC VIS 3 CIG 005V011 P0000
14837KMSN MSN20020129173512901/29/02 17:35:31  5-MIN KMSN 292335Z 01012KT 1 1/2SM -FZDZSN BR OVC007 M05/M06 A3005 740 92 -1500 010/12 RMK AO2 SFC VIS 3 P0000
14837KMSN MSN20020129174012901/29/02 17:40:31  5-MIN KMSN 292340Z 01012KT 1 1/2SM -FZDZSN BR OVC007 M05/M06 A3006 740 92 -1500 010/12 RMK AO2 SFC VIS 4 P0000
14837KMSN MSN20020129174514101/29/02 17:45:31  5-MIN KMSN 292345Z 02012KT 1 1/2SM -FZDZSN BR OVC007 M05/M06 A3006 730 92 -1500 020/12 RMK AO2 SFC VIS 4 CIG 005V009 P0000
14837KMSN MSN20020129175016801/29/02 17:50:31  5-MIN KMSN 292350Z 02011KT 4SM -FZDZSN BR OVC007 M05/M06 A3006 730 96 -1500 020/11 RMK AO2 CIG 005V010 SLP193 P0000 60000 T10501056 11039 21050 55013
14837KMSN MSN20020129175512701/29/02 17:55:31  5-MIN KMSN 292355Z 02013KT 4SM -FZDZSN BR OVC007 M05/M06 A3006 730 92 -1500 020/13 RMK AO2 CIG 005V010 P0000
14837KMSN MSN20020129180011501/29/02 18:00:31  5-MIN KMSN 300000Z 02011KT 4SM -FZDZSN BR OVC007 M05/M06 A3006 730 92 -1500 020/11 RMK AO2 P0000
14837KMSN MSN20020129180511501/29/02 18:05:31  5-MIN KMSN 300005Z 02010KT 4SM -FZDZSN BR OVC007 M05/M06 A3007 730 92 -1500 020/10 RMK AO2 P0000
14837KMSN MSN20020129181011501/29/02 18:10:31  5-MIN KMSN 300010Z 02011KT 4SM -FZDZSN BR OVC007 M05/M06 A3007 730 92 -1500 020/11 RMK AO2 P0000
14837KMSN MSN20020129181512701/29/02 18:15:31  5-MIN KMSN 300015Z 03009KT 4SM -FZDZSN BR OVC007 M05/M06 A3006 730 92 -1500 030/09 RMK AO2 CIG 006V011 P0000
14837KMSN MSN20020129182012701/29/02 18:20:31  5-MIN KMSN 300020Z 02009KT 4SM -FZDZSN BR OVC007 M05/M06 A3007 730 92 -1500 020/09 RMK AO2 CIG 006V011 P0000
14837KMSN MSN20020129182512701/29/02 18:25:31  5-MIN KMSN 300025Z 03008KT 3SM -FZDZSN BR OVC007 M05/M06 A3007 730 92 -1500 030/08 RMK AO2 CIG 006V011 P0000
14837KMSN MSN20020129183012701/29/02 18:30:31  5-MIN KMSN 300030Z 03006KT 3SM -FZDZSN BR OVC007 M05/M06 A3007 730 92 -1500 030/06 RMK AO2 CIG 005V011 P0000
14837KMSN MSN20020129183512701/29/02 18:35:31  5-MIN KMSN 300035Z 03008KT 3SM -FZDZSN BR OVC007 M05/M06 A3007 720 96 -1500 030/08 RMK AO2 CIG 005V008 P0000
14837KMSN MSN20020129184012701/29/02 18:40:31  5-MIN KMSN 300040Z 01009KT 3SM -FZDZSN BR OVC007 M05/M06 A3007 730 96 -1500 010/09 RMK AO2 CIG 004V009 P0000
14837KMSN MSN20020129184512701/29/02 18:45:31  5-MIN KMSN 300045Z 02010KT 3SM -FZDZSN BR OVC007 M05/M06 A3007 730 92 -1500 020/10 RMK AO2 CIG 004V009 P0000
14837KMSN MSN20020129185013201/29/02 18:50:31  5-MIN KMSN 300050Z 02010KT 4SM -FZDZSN BR OVC007 M05/M06 A3007 730 92 -1500 020/10 RMK AO2 SLP196 P0000 T10501061
14837KMSN MSN20020129185512701/29/02 18:55:31  5-MIN KMSN 300055Z 03009KT 4SM -FZDZSN BR OVC007 M05/M06 A3007 720 92 -1500 030/09 RMK AO2 CIG 004V009 P0000
14837KMSN MSN20020129190013401/29/02 19:00:31  5-MIN KMSN 300100Z 03009KT 4SM -FZDZSN BR BKN007 OVC010 M05/M06 A3008 720 92 -1500 030/09 RMK AO2 CIG 004V009 P0000
14837KMSN MSN20020129190513401/29/02 19:05:31  5-MIN KMSN 300105Z 02010KT 4SM -FZDZSN BR BKN007 OVC010 M05/M06 A3008 720 92 -1500 020/10 RMK AO2 CIG 004V008 P0000
14837KMSN MSN20020129191012701/29/02 19:10:31  5-MIN KMSN 300110Z 02010KT 4SM -FZDZSN BR OVC007 M05/M06 A3008 720 92 -1500 020/10 RMK AO2 CIG 005V011 P0000
14837KMSN MSN20020129191512701/29/02 19:15:31  5-MIN KMSN 300115Z 03009KT 4SM -FZDZSN BR OVC007 M05/M06 A3008 720 92 -1500 030/09 RMK AO2 CIG 005V010 P0000
14837KMSN MSN20020129192012701/29/02 19:20:31  5-MIN KMSN 300120Z 02011KT 4SM -FZDZSN BR OVC007 M05/M06 A3008 720 92 -1500 020/11 RMK AO2 CIG 005V010 P0000
14837KMSN MSN20020129192512701/29/02 19:25:31  5-MIN KMSN 300125Z 01011KT 5SM -FZDZSN BR OVC007 M05/M06 A3008 720 92 -1500 010/11 RMK AO2 CIG 005V012 P0000
14837KMSN MSN20020129193011501/29/02 19:30:31  5-MIN KMSN 300130Z 01011KT 5SM -FZDZSN BR OVC007 M05/M06 A3008 720 92 -1500 010/11 RMK AO2 P0000
14837KMSN MSN20020129193511501/29/02 19:35:31  5-MIN KMSN 300135Z 01009KT 5SM -FZDZSN BR OVC007 M05/M06 A3008 720 92 -1500 010/09 RMK AO2 P0000
14837KMSN MSN20020129194011501/29/02 19:40:31  5-MIN KMSN 300140Z 02009KT 5SM -FZDZSN BR OVC007 M05/M06 A3008 720 92 -1500 020/09 RMK AO2 P0000
14837KMSN MSN20020129194512701/29/02 19:45:31  5-MIN KMSN 300145Z 03008KT 5SM -FZDZSN BR OVC007 M05/M06 A3007 720 92 -1500 030/08 RMK AO2 CIG 006V010 P0000
14837KMSN MSN20020129195013201/29/02 19:50:31  5-MIN KMSN 300150Z 03007KT 5SM -FZDZSN BR OVC007 M05/M06 A3008 720 92 -1500 020/07 RMK AO2 SLP199 P0000 T10501061
14837KMSN MSN20020129195512701/29/02 19:55:31  5-MIN KMSN 300155Z 03008KT 5SM -FZDZSN BR OVC007 M05/M06 A3008 720 92 -1500 030/08 RMK AO2 CIG 005V010 P0000
14837KMSN MSN20020129200012701/29/02 20:00:31  5-MIN KMSN 300200Z 02008KT 4SM -FZDZSN BR OVC007 M05/M06 A3008 720 96 -1500 020/08 RMK AO2 CIG 005V010 P0000
14837KMSN MSN20020129200511501/29/02 20:05:31  5-MIN KMSN 300205Z 36008KT 4SM -FZDZSN BR OVC007 M05/M06 A3008 710 96 -1500 360/08 RMK AO2 P0000
14837KMSN MSN20020129201011501/29/02 20:10:31  5-MIN KMSN 300210Z 01009KT 3SM -FZDZSN BR OVC005 M05/M06 A3008 720 96 -1500 010/09 RMK AO2 P0000
14837KMSN MSN20020129201511501/29/02 20:15:31  5-MIN KMSN 300215Z 01010KT 4SM -FZDZSN BR OVC005 M05/M06 A3008 720 96 -1500 010/10 RMK AO2 P0000
14837KMSN MSN20020129202011501/29/02 20:20:31  5-MIN KMSN 300220Z 03008KT 4SM -FZDZSN BR OVC005 M05/M06 A3008 720 92 -1500 020/08 RMK AO2 P0000
14837KMSN MSN20020129202511501/29/02 20:25:31  5-MIN KMSN 300225Z 03009KT 4SM -FZDZSN BR OVC005 M05/M06 A3008 720 92 -1500 030/09 RMK AO2 P0000
14837KMSN MSN20020129203011501/29/02 20:30:31  5-MIN KMSN 300230Z 02006KT 4SM -FZDZSN BR OVC005 M05/M06 A3008 720 92 -1500 020/06 RMK AO2 P0000
14837KMSN MSN20020129203511501/29/02 20:35:31  5-MIN KMSN 300235Z 02007KT 4SM -FZDZSN BR OVC005 M05/M06 A3008 720 96 -1500 020/07 RMK AO2 P0000
14837KMSN MSN20020129204011501/29/02 20:40:31  5-MIN KMSN 300240Z 02009KT 4SM -FZDZSN BR OVC005 M05/M06 A3008 720 92 -1500 020/09 RMK AO2 P0000
14837KMSN MSN20020129204511501/29/02 20:45:31  5-MIN KMSN 300245Z 03008KT 4SM -FZDZSN BR OVC005 M05/M06 A3008 720 92 -1500 030/08 RMK AO2 P0000
14837KMSN MSN20020129205014401/29/02 20:50:31  5-MIN KMSN 300250Z 01008KT 4SM -FZDZSN BR OVC005 M05/M06 A3008 710 96 -1500 010/08 RMK AO2 SLP201 P0000 60000 T10501056 53015
14837KMSN MSN20020129205511501/29/02 20:55:31  5-MIN KMSN 300255Z 36008KT 4SM -FZDZSN BR OVC005 M05/M06 A3009 710 96 -1500 360/08 RMK AO2 P0000
14837KMSN MSN20020129210011501/29/02 21:00:31  5-MIN KMSN 300300Z 02009KT 4SM -FZDZSN BR OVC005 M05/M06 A3008 710 96 -1500 020/09 RMK AO2 P0000
14837KMSN MSN20020129210511501/29/02 21:05:31  5-MIN KMSN 300305Z 03008KT 5SM -FZDZSN BR OVC005 M05/M06 A3008 720 92 -1500 020/08 RMK AO2 P0000
14837KMSN MSN20020129211011501/29/02 21:10:31  5-MIN KMSN 300310Z 03008KT 5SM -FZDZSN BR OVC005 M05/M06 A3008 720 92 -1500 030/08 RMK AO2 P0000
14837KMSN MSN20020129211511501/29/02 21:15:31  5-MIN KMSN 300315Z 02007KT 5SM -FZDZSN BR OVC005 M05/M06 A3008 710 96 -1500 020/07 RMK AO2 P0000
14837KMSN MSN20020129212011501/29/02 21:20:31  5-MIN KMSN 300320Z 02010KT 5SM -FZDZSN BR OVC005 M05/M06 A3008 710 96 -1500 020/10 RMK AO2 P0000
14837KMSN MSN20020129212511501/29/02 21:25:31  5-MIN KMSN 300325Z 01010KT 5SM -FZDZSN BR OVC005 M05/M06 A3009 710 96 -1500 010/10 RMK AO2 P0000
14837KMSN MSN20020129213011501/29/02 21:30:31  5-MIN KMSN 300330Z 01009KT 5SM -FZDZSN BR OVC005 M05/M06 A3009 710 92 -1500 010/09 RMK AO2 P0000
14837KMSN MSN20020129213511901/29/02 21:35:31  5-MIN KMSN 300335Z 01010KT 5SM -SN BR OVC005 M05/M06 A3009 710 92 -1500 010/10 RMK AO2 FZDZE32 P0000
14837KMSN MSN20020129214011901/29/02 21:40:31  5-MIN KMSN 300340Z 01008KT 6SM -SN BR OVC005 M05/M06 A3009 700 92 -1500 010/08 RMK AO2 FZDZE32 P0000
14837KMSN MSN20020129214513101/29/02 21:45:31  5-MIN KMSN 300345Z 03009KT 5SM -SN BR OVC005 M05/M06 A3009 700 92 -1500 020/09 RMK AO2 FZDZE32 CIG 005V010 P0000
14837KMSN MSN20020129215014801/29/02 21:50:31  5-MIN KMSN 300350Z 03007KT 3SM -SN BR OVC005 M05/M06 A3009 700 92 -1500 030/07 RMK AO2 FZDZE32 CIG 005V010 SLP205 P0000 T10501061
14837KMSN MSN20020129215511101/29/02 21:55:31  5-MIN KMSN 300355Z 03007KT 3SM -SN BR OVC005 M05/M06 A3010 700 96 -1500 020/07 RMK AO2 P0000
14837KMSN MSN20020129220012301/29/02 22:00:31  5-MIN KMSN 300400Z 01008KT 5SM -SN BR OVC005 M05/M06 A3010 700 96 -1500 010/08 RMK AO2 CIG 005V010 P0000
14837KMSN MSN20020129220512301/29/02 22:05:31  5-MIN KMSN 300405Z 01008KT 5SM -SN BR OVC005 M05/M06 A3010 700 96 -1500 010/08 RMK AO2 CIG 005V010 P0000
14837KMSN MSN20020129221012301/29/02 22:10:31  5-MIN KMSN 300410Z 01008KT 5SM -SN BR OVC005 M05/M06 A3010 700 96 -1500 010/08 RMK AO2 CIG 005V009 P0000
14837KMSN MSN20020129221511101/29/02 22:15:31  5-MIN KMSN 300415Z 01008KT 5SM -SN BR OVC005 M05/M06 A3010 700 96 -1500 010/08 RMK AO2 P0000
14837KMSN MSN20020129222011101/29/02 22:20:31  5-MIN KMSN 300420Z 01008KT 5SM -SN BR OVC005 M05/M06 A3010 700 96 -1500 010/08 RMK AO2 P0000
14837KMSN MSN20020129222511101/29/02 22:25:31  5-MIN KMSN 300425Z 02009KT 5SM -SN BR OVC005 M05/M06 A3010 700 96 -1500 020/09 RMK AO2 P0000
14837KMSN MSN20020129223011101/29/02 22:30:31  5-MIN KMSN 300430Z 01007KT 5SM -SN BR OVC005 M05/M06 A3010 700 96 -1500 010/07 RMK AO2 P0000
14837KMSN MSN20020129223511101/29/02 22:35:31  5-MIN KMSN 300435Z 02009KT 5SM -SN BR OVC005 M05/M06 A3009 700 92 -1500 020/09 RMK AO2 P0000
14837KMSN MSN20020129224011101/29/02 22:40:31  5-MIN KMSN 300440Z 02010KT 5SM -SN BR OVC005 M05/M06 A3010 700 92 -1500 020/10 RMK AO2 P0000
14837KMSN MSN20020129224511301/29/02 22:45:31  5-MIN KMSN 300445Z 02009KT 5SM BR OVC005 M05/M06 A3010 700 92 -1500 020/09 RMK AO2 SNE42 P0000
14837KMSN MSN20020129225013001/29/02 22:50:31  5-MIN KMSN 300450Z 01008KT 5SM BR OVC005 M05/M06 A3010 690 92 -1500 360/08 RMK AO2 SNE42 SLP208 P0000 T10501061
14837KMSN MSN20020129225510101/29/02 22:55:31  5-MIN KMSN 300455Z 01008KT 6SM BR OVC005 M05/M06 A3011 690 92 -1500 010/08 RMK AO2
14837KMSN MSN20020129230010101/29/02 23:00:31  5-MIN KMSN 300500Z 03006KT 5SM BR OVC005 M05/M06 A3011 690 96 -1500 020/06 RMK AO2
14837KMSN MSN20020129230510101/29/02 23:05:31  5-MIN KMSN 300505Z 01007KT 6SM BR OVC005 M05/M06 A3011 690 96 -1500 010/07 RMK AO2
14837KMSN MSN20020129231010101/29/02 23:10:31  5-MIN KMSN 300510Z 01007KT 6SM BR OVC005 M05/M06 A3011 690 96 -1500 010/07 RMK AO2
14837KMSN MSN20020129231510101/29/02 23:15:31  5-MIN KMSN 300515Z 02008KT 6SM BR OVC005 M05/M06 A3011 690 96 -1500 020/08 RMK AO2
14837KMSN MSN20020129232010101/29/02 23:20:31  5-MIN KMSN 300520Z 36008KT 5SM BR OVC005 M05/M06 A3012 680 96 -1500 360/08 RMK AO2
14837KMSN MSN20020129232510101/29/02 23:25:31  5-MIN KMSN 300525Z 35004KT 4SM BR OVC005 M05/M06 A3012 680 96 -1500 350/04 RMK AO2
14837KMSN MSN20020129233011301/29/02 23:30:31  5-MIN KMSN 300530Z 36005KT 4SM BR OVC005 M05/M06 A3013 670 96 -1500 360/05 RMK AO2 CIG 003V007
14837KMSN MSN20020129233511301/29/02 23:35:31  5-MIN KMSN 300535Z 36006KT 4SM BR OVC005 M05/M06 A3013 670 96 -1500 360/06 RMK AO2 CIG 003V007
14837KMSN MSN20020129234010101/29/02 23:40:31  5-MIN KMSN 300540Z 36005KT 4SM BR OVC005 M05/M06 A3013 670 96 -1500 350/05 RMK AO2
14837KMSN MSN20020129234510101/29/02 23:45:31  5-MIN KMSN 300545Z 01008KT 4SM BR OVC003 M05/M06 A3013 670 96 -1500 010/08 RMK AO2
14837KMSN MSN20020129235015201/29/02 23:50:31  5-MIN KMSN 300550Z 01006KT 4SM BR OVC003 M05/M06 A3012 680 96 -1500 360/06 RMK AO2 SLP214 60000 T10501056 11050 21050 410221050 52007
14837KMSN MSN20020129235510101/29/02 23:55:31  5-MIN KMSN 300555Z 01006KT 4SM BR OVC003 M05/M06 A3012 680 96 -1500 010/06 RMK AO2
14837KMSN MSN20020130000010101/30/02 00:00:31  5-MIN KMSN 300600Z 02006KT 4SM BR OVC005 M05/M06 A3012 680 96 -1500 020/06 RMK AO2
14837KMSN MSN20020130000510101/30/02 00:05:31  5-MIN KMSN 300605Z 02007KT 5SM BR OVC005 M05/M06 A3011 690 96 -1500 020/07 RMK AO2
14837KMSN MSN20020130001010101/30/02 00:10:31  5-MIN KMSN 300610Z 03008KT 6SM BR OVC005 M05/M06 A3011 690 96 -1500 030/08 RMK AO2
14837KMSN MSN20020130001510101/30/02 00:15:31  5-MIN KMSN 300615Z 03007KT 6SM BR OVC005 M05/M06 A3011 690 96 -1500 030/07 RMK AO2
14837KMSN MSN20020130002010101/30/02 00:20:31  5-MIN KMSN 300620Z 03007KT 5SM BR OVC005 M05/M06 A3011 690 96 -1500 030/07 RMK AO2
14837KMSN MSN20020130002510101/30/02 00:25:31  5-MIN KMSN 300625Z 04007KT 5SM BR OVC005 M05/M06 A3012 680 96 -1500 040/07 RMK AO2
14837KMSN MSN20020130003010101/30/02 00:30:31  5-MIN KMSN 300630Z 03005KT 5SM BR OVC005 M05/M06 A3012 680 96 -1500 030/05 RMK AO2
14837KMSN MSN20020130003510101/30/02 00:35:31  5-MIN KMSN 300635Z 04007KT 5SM BR OVC005 M05/M06 A3012 680 96 -1500 040/07 RMK AO2
14837KMSN MSN20020130004010101/30/02 00:40:31  5-MIN KMSN 300640Z 03005KT 5SM BR OVC005 M05/M06 A3012 680 96 -1500 030/05 RMK AO2
14837KMSN MSN20020130004510101/30/02 00:45:31  5-MIN KMSN 300645Z 05006KT 6SM BR OVC005 M05/M06 A3012 680 96 -1500 050/06 RMK AO2
14837KMSN MSN20020130005011801/30/02 00:50:31  5-MIN KMSN 300650Z 03005KT 6SM BR OVC005 M05/M06 A3013 670 92 -1500 030/05 RMK AO2 SLP216 T10501061
14837KMSN MSN20020130005509801/30/02 00:55:31  5-MIN KMSN 300655Z 04005KT 7SM OVC005 M05/M06 A3013 670 92 -1500 040/05 RMK AO2
14837KMSN MSN20020130010009801/30/02 01:00:31  5-MIN KMSN 300700Z 04004KT 7SM OVC005 M05/M06 A3013 670 92 -1500 040/04 RMK AO2
14837KMSN MSN20020130010509801/30/02 01:05:31  5-MIN KMSN 300705Z 03005KT 7SM OVC005 M05/M06 A3013 670 92 -1500 030/05 RMK AO2
14837KMSN MSN20020130011009801/30/02 01:10:31  5-MIN KMSN 300710Z 03006KT 7SM OVC005 M05/M06 A3013 670 92 -1500 020/06 RMK AO2
14837KMSN MSN20020130011509801/30/02 01:15:31  5-MIN KMSN 300715Z 02005KT 7SM OVC005 M05/M06 A3014 660 92 -1600 020/05 RMK AO2
14837KMSN MSN20020130012010101/30/02 01:20:31  5-MIN KMSN 300720Z 01006KT 6SM BR OVC005 M05/M06 A3013 670 92 -1500 010/06 RMK AO2
14837KMSN MSN20020130012510101/30/02 01:25:31  5-MIN KMSN 300725Z 02005KT 6SM BR OVC005 M05/M06 A3013 670 92 -1500 010/05 RMK AO2
14837KMSN MSN20020130013010101/30/02 01:30:31  5-MIN KMSN 300730Z 02005KT 6SM BR OVC005 M05/M06 A3012 680 96 -1500 020/05 RMK AO2
14837KMSN MSN20020130013510101/30/02 01:35:31  5-MIN KMSN 300735Z 01005KT 6SM BR OVC005 M05/M06 A3012 680 96 -1500 010/05 RMK AO2
14837KMSN MSN20020130014010101/30/02 01:40:31  5-MIN KMSN 300740Z 36006KT 6SM BR OVC005 M05/M06 A3012 680 96 -1500 360/06 RMK AO2
14837KMSN MSN20020130014510101/30/02 01:45:31  5-MIN KMSN 300745Z 02006KT 6SM BR OVC005 M05/M06 A3012 680 96 -1500 020/06 RMK AO2
14837KMSN MSN20020130015011801/30/02 01:50:31  5-MIN KMSN 300750Z 03007KT 6SM BR OVC005 M05/M06 A3012 680 96 -1500 030/07 RMK AO2 SLP213 T10501056
14837KMSN MSN20020130015510101/30/02 01:55:31  5-MIN KMSN 300755Z 02007KT 6SM BR OVC005 M05/M06 A3012 680 96 -1500 020/07 RMK AO2
14837KMSN MSN20020130020010101/30/02 02:00:31  5-MIN KMSN 300800Z 01008KT 6SM BR OVC005 M05/M06 A3013 670 96 -1500 010/08 RMK AO2
14837KMSN MSN20020130020510101/30/02 02:05:31  5-MIN KMSN 300805Z 01008KT 6SM BR OVC005 M05/M06 A3013 670 92 -1500 010/08 RMK AO2
14837KMSN MSN20020130021009801/30/02 02:10:31  5-MIN KMSN 300810Z 02006KT 7SM OVC005 M05/M06 A3013 670 92 -1500 020/06 RMK AO2
14837KMSN MSN20020130021510101/30/02 02:15:31  5-MIN KMSN 300815Z 03005KT 6SM BR OVC005 M05/M06 A3013 670 92 -1500 030/05 RMK AO2
14837KMSN MSN20020130022010101/30/02 02:20:31  5-MIN KMSN 300820Z 01006KT 6SM BR OVC005 M05/M06 A3014 660 92 -1600 010/06 RMK AO2
14837KMSN MSN20020130022510101/30/02 02:25:31  5-MIN KMSN 300825Z 01006KT 6SM BR OVC005 M05/M06 A3014 660 92 -1600 010/06 RMK AO2
14837KMSN MSN20020130023010101/30/02 02:30:31  5-MIN KMSN 300830Z 01006KT 6SM BR OVC005 M05/M06 A3015 660 96 -1600 010/06 RMK AO2
14837KMSN MSN20020130023510101/30/02 02:35:31  5-MIN KMSN 300835Z 03006KT 6SM BR OVC007 M04/M06 A3015 650 92 -1500 030/06 RMK AO2
14837KMSN MSN20020130024010101/30/02 02:40:31  5-MIN KMSN 300840Z 04006KT 6SM BR OVC007 M05/M07 A3015 650 88 -1600 030/06 RMK AO2
14837KMSN MSN20020130024509801/30/02 02:45:31  5-MIN KMSN 300845Z 02006KT 7SM OVC007 M05/M07 A3016 650 88 -1600 020/06 RMK AO2
14837KMSN MSN20020130025012101/30/02 02:50:31  5-MIN KMSN 300850Z 01005KT 7SM OVC007 M05/M07 A3015 650 88 -1600 010/05 RMK AO2 SLP225 T10501067 53012
14837KMSN MSN20020130025509801/30/02 02:55:31  5-MIN KMSN 300855Z 02004KT 7SM OVC007 M05/M07 A3016 650 88 -1600 020/04 RMK AO2
14837KMSN MSN20020130030009801/30/02 03:00:31  5-MIN KMSN 300900Z 03006KT 7SM OVC007 M05/M06 A3015 650 92 -1600 020/06 RMK AO2
14837KMSN MSN20020130030509801/30/02 03:05:31  5-MIN KMSN 300905Z 02004KT 7SM OVC007 M05/M07 A3015 650 88 -1600 020/04 RMK AO2
14837KMSN MSN20020130031009801/30/02 03:10:31  5-MIN KMSN 300910Z 03004KT 7SM OVC007 M05/M06 A3015 650 92 -1600 030/04 RMK AO2
14837KMSN MSN20020130031509801/30/02 03:15:31  5-MIN KMSN 300915Z 03005KT 7SM OVC007 M05/M06 A3016 650 92 -1600 030/05 RMK AO2
14837KMSN MSN20020130032009801/30/02 03:20:31  5-MIN KMSN 300920Z 02005KT 7SM OVC007 M05/M06 A3015 650 92 -1600 020/05 RMK AO2
14837KMSN MSN20020130032509801/30/02 03:25:31  5-MIN KMSN 300925Z 03005KT 7SM OVC007 M05/M06 A3016 640 92 -1600 030/05 RMK AO2
14837KMSN MSN20020130033009801/30/02 03:30:31  5-MIN KMSN 300930Z 02006KT 7SM OVC007 M05/M06 A3017 640 92 -1600 020/06 RMK AO2
14837KMSN MSN20020130033509801/30/02 03:35:31  5-MIN KMSN 300935Z 01006KT 7SM OVC007 M05/M06 A3017 630 92 -1600 360/06 RMK AO2
14837KMSN MSN20020130034010501/30/02 03:40:31  5-MIN KMSN 300940Z 36005KT 7SM OVC007 M05/M06 A3018 630 92 -1600 360/05 RMK AO2 PRESRR
14837KMSN MSN20020130034510501/30/02 03:45:31  5-MIN KMSN 300945Z 35004KT 7SM OVC007 M05/M07 A3018 620 88 -1600 350/04 RMK AO2 PRESRR
14837KMSN MSN20020130035011501/30/02 03:50:31  5-MIN KMSN 300950Z 36005KT 7SM OVC007 M05/M06 A3018 620 92 -1600 360/05 RMK AO2 SLP235 T10501061
14837KMSN MSN20020130035509801/30/02 03:55:31  5-MIN KMSN 300955Z 36004KT 7SM OVC007 M05/M06 A3018 620 92 -1600 360/04 RMK AO2
14837KMSN MSN20020130040009801/30/02 04:00:31  5-MIN KMSN 301000Z 35004KT 7SM OVC009 M05/M06 A3018 630 92 -1600 350/04 RMK AO2
14837KMSN MSN20020130040510501/30/02 04:05:31  5-MIN KMSN 301005Z 01004KT 7SM BKN009 OVC014 M05/M06 A3017 630 92 -1600 360/04 RMK AO2
14837KMSN MSN20020130041010501/30/02 04:10:31  5-MIN KMSN 301010Z 36004KT 7SM BKN009 OVC014 M05/M06 A3017 630 92 -1600 360/04 RMK AO2
14837KMSN MSN20020130041509801/30/02 04:15:31  5-MIN KMSN 301015Z 36005KT 7SM OVC009 M05/M06 A3017 630 92 -1600 360/05 RMK AO2
14837KMSN MSN20020130042009801/30/02 04:20:31  5-MIN KMSN 301020Z 35005KT 7SM OVC009 M05/M06 A3018 630 92 -1600 350/05 RMK AO2
14837KMSN MSN20020130042509801/30/02 04:25:31  5-MIN KMSN 301025Z 36006KT 7SM OVC009 M05/M06 A3017 630 92 -1600 350/06 RMK AO2
14837KMSN MSN20020130043009801/30/02 04:30:31  5-MIN KMSN 301030Z 35005KT 7SM OVC009 M05/M06 A3018 630 92 -1600 350/05 RMK AO2
14837KMSN MSN20020130043510101/30/02 04:35:31  5-MIN KMSN 301035Z 35005KT 6SM BR OVC009 M05/M06 A3018 630 92 -1600 350/05 RMK AO2
14837KMSN MSN20020130044010101/30/02 04:40:31  5-MIN KMSN 301040Z VRB06KT 6SM BR OVC009 M05/M06 A3018 620 92 -1600 VRB/06 RMK AO2
14837KMSN MSN20020130044510101/30/02 04:45:31  5-MIN KMSN 301045Z 34005KT 6SM BR OVC009 M05/M06 A3019 620 92 -1600 340/05 RMK AO2
14837KMSN MSN20020130045011501/30/02 04:50:31  5-MIN KMSN 301050Z 35005KT 7SM OVC009 M05/M06 A3018 620 92 -1600 350/05 RMK AO2 SLP235 T10501061
14837KMSN MSN20020130045509801/30/02 04:55:31  5-MIN KMSN 301055Z 35005KT 7SM OVC009 M05/M06 A3019 620 92 -1600 350/05 RMK AO2
14837KMSN MSN20020130050009801/30/02 05:00:31  5-MIN KMSN 301100Z VRB04KT 7SM OVC009 M05/M07 A3020 610 88 -1600 VRB/04 RMK AO2
14837KMSN MSN20020130050509801/30/02 05:05:31  5-MIN KMSN 301105Z 34004KT 7SM OVC009 M05/M07 A3020 600 88 -1600 340/04 RMK AO2
14837KMSN MSN20020130051009801/30/02 05:10:31  5-MIN KMSN 301110Z 35005KT 7SM OVC009 M05/M07 A3020 610 88 -1600 350/05 RMK AO2
14837KMSN MSN20020130051509801/30/02 05:15:31  5-MIN KMSN 301115Z 36004KT 7SM OVC009 M05/M07 A3020 610 88 -1600 360/04 RMK AO2
14837KMSN MSN20020130052009801/30/02 05:20:31  5-MIN KMSN 301120Z 35003KT 7SM OVC009 M05/M07 A3020 610 88 -1600 350/03 RMK AO2
14837KMSN MSN20020130052509801/30/02 05:25:31  5-MIN KMSN 301125Z 36005KT 7SM OVC009 M05/M07 A3020 610 88 -1600 360/05 RMK AO2
14837KMSN MSN20020130053009801/30/02 05:30:31  5-MIN KMSN 301130Z 36006KT 7SM OVC009 M05/M07 A3020 610 88 -1600 360/06 RMK AO2
14837KMSN MSN20020130053509801/30/02 05:35:31  5-MIN KMSN 301135Z 01006KT 7SM BKN009 M05/M07 A3019 620 88 -1600 010/06 RMK AO2
14837KMSN MSN20020130054009801/30/02 05:40:31  5-MIN KMSN 301140Z 35004KT 7SM BKN009 M05/M07 A3020 610 88 -1600 350/04 RMK AO2
14837KMSN MSN20020130054509801/30/02 05:45:31  5-MIN KMSN 301145Z 36004KT 7SM BKN009 M05/M07 A3020 610 88 -1600 350/04 RMK AO2
14837KMSN MSN20020130055013301/30/02 05:50:31  5-MIN KMSN 301150Z 35004KT 7SM BKN009 M05/M07 A3020 600 88 -1600 350/04 RMK AO2 SLP242 T10501067 11044 21050 53010
14837KMSN MSN20020130055509801/30/02 05:55:31  5-MIN KMSN 301155Z 36004KT 7SM BKN009 M05/M07 A3020 610 88 -1600 360/04 RMK AO2
14837KMSN MSN20020130060009801/30/02 06:00:31  5-MIN KMSN 301200Z 35005KT 7SM BKN009 M05/M07 A3020 610 88 -1600 350/05 RMK AO2
14837KMSN MSN20020130060509801/30/02 06:05:31  5-MIN KMSN 301205Z 36005KT 7SM BKN009 M05/M07 A3020 610 88 -1600 360/05 RMK AO2
14837KMSN MSN20020130061009801/30/02 06:10:31  5-MIN KMSN 301210Z 36005KT 7SM BKN009 M05/M07 A3020 610 88 -1600 360/05 RMK AO2
14837KMSN MSN20020130061509801/30/02 06:15:31  5-MIN KMSN 301215Z 36005KT 7SM OVC009 M05/M07 A3020 610 88 -1600 360/05 RMK AO2
14837KMSN MSN20020130062009801/30/02 06:20:31  5-MIN KMSN 301220Z 34005KT 7SM OVC009 M05/M07 A3020 600 88 -1600 340/05 RMK AO2
14837KMSN MSN20020130062509801/30/02 06:25:31  5-MIN KMSN 301225Z 35004KT 7SM OVC009 M05/M07 A3021 600 88 -1600 350/04 RMK AO2
14837KMSN MSN20020130063009801/30/02 06:30:31  5-MIN KMSN 301230Z 35005KT 7SM OVC009 M05/M07 A3021 600 88 -1600 350/05 RMK AO2
14837KMSN MSN20020130063509801/30/02 06:35:31  5-MIN KMSN 301235Z 36004KT 7SM OVC009 M05/M07 A3020 600 88 -1600 360/04 RMK AO2
14837KMSN MSN20020130064009801/30/02 06:40:31  5-MIN KMSN 301240Z 35004KT 7SM OVC009 M05/M07 A3021 600 88 -1600 350/04 RMK AO2
14837KMSN MSN20020130064509801/30/02 06:45:31  5-MIN KMSN 301245Z 36005KT 7SM OVC009 M05/M07 A3021 590 88 -1600 360/05 RMK AO2
14837KMSN MSN20020130065011501/30/02 06:50:31  5-MIN KMSN 301250Z 36006KT 7SM OVC009 M05/M07 A3022 590 88 -1600 360/06 RMK AO2 SLP247 T10501067
14837KMSN MSN20020130065509801/30/02 06:55:31  5-MIN KMSN 301255Z 36006KT 7SM OVC009 M05/M07 A3021 590 88 -1600 360/06 RMK AO2
14837KMSN MSN20020130070009801/30/02 07:00:31  5-MIN KMSN 301300Z 36005KT 7SM OVC009 M05/M07 A3022 590 88 -1600 360/05 RMK AO2
14837KMSN MSN20020130070509801/30/02 07:05:31  5-MIN KMSN 301305Z 01005KT 7SM OVC009 M05/M07 A3021 590 88 -1600 010/05 RMK AO2
14837KMSN MSN20020130071009801/30/02 07:10:31  5-MIN KMSN 301310Z 01007KT 7SM OVC009 M05/M06 A3022 590 92 -1600 010/07 RMK AO2
14837KMSN MSN20020130071509801/30/02 07:15:31  5-MIN KMSN 301315Z 01007KT 7SM OVC009 M05/M07 A3022 590 88 -1600 010/07 RMK AO2
14837KMSN MSN20020130072009801/30/02 07:20:31  5-MIN KMSN 301320Z 36006KT 7SM BKN009 M05/M07 A3022 590 88 -1600 360/06 RMK AO2
14837KMSN MSN20020130072509801/30/02 07:25:31  5-MIN KMSN 301325Z 01007KT 8SM BKN009 M05/M07 A3022 590 88 -1600 010/07 RMK AO2
14837KMSN MSN20020130073009801/30/02 07:30:31  5-MIN KMSN 301330Z 01008KT 8SM BKN009 M05/M07 A3022 590 88 -1600 010/08 RMK AO2
14837KMSN MSN20020130073509801/30/02 07:35:31  5-MIN KMSN 301335Z 01006KT 7SM BKN009 M05/M07 A3022 590 88 -1600 010/06 RMK AO2
14837KMSN MSN20020130074010101/30/02 07:40:31  5-MIN KMSN 301340Z 01007KT 6SM BR BKN009 M05/M07 A3022 590 88 -1600 010/07 RMK AO2
14837KMSN MSN20020130122009901/30/02 12:20:31  5-MIN KMSN 301820Z 02008KT 10SM OVC013 M03/M06 A3028 530 78 -1400 020/08 RMK AO2
14837KMSN MSN20020130122509901/30/02 12:25:31  5-MIN KMSN 301825Z 02008KT 10SM OVC013 M03/M06 A3028 530 78 -1400 020/08 RMK AO2
14837KMSN MSN20020130123009901/30/02 12:30:31  5-MIN KMSN 301830Z 04007KT 10SM OVC013 M03/M06 A3027 540 78 -1400 040/07 RMK AO2
14837KMSN MSN20020130123509901/30/02 12:35:31  5-MIN KMSN 301835Z 06008KT 10SM BKN013 M03/M06 A3027 540 78 -1400 060/08 RMK AO2
14837KMSN MSN20020130124009901/30/02 12:40:31  5-MIN KMSN 301840Z 03008KT 10SM BKN013 M03/M06 A3027 540 78 -1400 030/08 RMK AO2
14837KMSN MSN20020130124509901/30/02 12:45:31  5-MIN KMSN 301845Z 02008KT 10SM BKN015 M03/M06 A3027 540 78 -1400 020/08 RMK AO2
14837KMSN MSN20020130125011601/30/02 12:50:31  5-MIN KMSN 301850Z 05007KT 10SM BKN015 M03/M06 A3027 540 78 -1400 050/07 RMK AO2 SLP265 T10281061
14837KMSN MSN20020130125509901/30/02 12:55:31  5-MIN KMSN 301855Z 04008KT 10SM BKN015 M03/M06 A3027 540 78 -1400 030/08 RMK AO2
14837KMSN MSN20020130130009901/30/02 13:00:31  5-MIN KMSN 301900Z 03006KT 10SM BKN015 M03/M06 A3027 540 78 -1400 030/06 RMK AO2
14837KMSN MSN20020130130509901/30/02 13:05:31  5-MIN KMSN 301905Z 05007KT 10SM BKN015 M02/M06 A3027 540 75 -1400 050/07 RMK AO2
14837KMSN MSN20020130131009901/30/02 13:10:31  5-MIN KMSN 301910Z 04008KT 10SM BKN015 M03/M06 A3028 540 78 -1400 030/08 RMK AO2
14837KMSN MSN20020130131509901/30/02 13:15:31  5-MIN KMSN 301915Z 03008KT 10SM BKN015 M03/M06 A3027 540 78 -1400 030/08 RMK AO2
14837KMSN MSN20020130132009901/30/02 13:20:31  5-MIN KMSN 301920Z 05007KT 10SM BKN015 M03/M06 A3027 540 78 -1400 050/07 RMK AO2
14837KMSN MSN20020130132509901/30/02 13:25:31  5-MIN KMSN 301925Z 03007KT 10SM BKN015 M02/M06 A3027 540 75 -1300 030/07 RMK AO2
14837KMSN MSN20020130133009901/30/02 13:30:31  5-MIN KMSN 301930Z 03007KT 10SM BKN015 M02/M06 A3027 540 75 -1400 030/07 RMK AO2
14837KMSN MSN20020130133509901/30/02 13:35:31  5-MIN KMSN 301935Z 06008KT 10SM BKN015 M02/M06 A3027 540 75 -1300 060/08 RMK AO2
14837KMSN MSN20020130134009901/30/02 13:40:31  5-MIN KMSN 301940Z 06007KT 10SM BKN015 M02/M06 A3027 550 75 -1300 060/07 RMK AO2
14837KMSN MSN20020130134509901/30/02 13:45:31  5-MIN KMSN 301945Z 04007KT 10SM SCT015 M02/M06 A3027 540 75 -1400 040/07 RMK AO2
14837KMSN MSN20020130135011601/30/02 13:50:31  5-MIN KMSN 301950Z 05006KT 10SM SCT015 M02/M06 A3028 530 75 -1400 040/06 RMK AO2 SLP267 T10221061
14837KMSN MSN20020130135510601/30/02 13:55:31  5-MIN KMSN 301955Z 04006KT 10SM SCT015 BKN044 M02/M07 A3028 540 72 -1400 030/06 RMK AO2
14837KMSN MSN20020130140010601/30/02 14:00:31  5-MIN KMSN 302000Z 06005KT 10SM SCT015 BKN044 M02/M06 A3027 540 75 -1400 060/05 RMK AO2
14837KMSN MSN20020130140510601/30/02 14:05:31  5-MIN KMSN 302005Z 06008KT 10SM SCT015 BKN044 M02/M06 A3027 540 75 -1400 060/08 RMK AO2
14837KMSN MSN20020130141010601/30/02 14:10:31  5-MIN KMSN 302010Z 07007KT 10SM SCT015 SCT044 M02/M07 A3027 540 72 -1400 070/07 RMK AO2
14837KMSN MSN20020130141511301/30/02 14:15:31  5-MIN KMSN 302015Z 04008KT 10SM FEW017 SCT044 SCT110 M02/M07 A3027 540 72 -1400 040/08 RMK AO2
14837KMSN MSN20020130142011301/30/02 14:20:31  5-MIN KMSN 302020Z 05007KT 10SM FEW017 SCT044 SCT120 M02/M07 A3027 540 72 -1400 040/07 RMK AO2
14837KMSN MSN20020130142510601/30/02 14:25:31  5-MIN KMSN 302025Z 04006KT 10SM FEW017 SCT120 M02/M07 A3027 550 72 -1300 040/06 RMK AO2
14837KMSN MSN20020130143010601/30/02 14:30:31  5-MIN KMSN 302030Z 06007KT 10SM FEW017 SCT120 M02/M06 A3027 540 75 -1300 060/07 RMK AO2
14837KMSN MSN20020130143509901/30/02 14:35:31  5-MIN KMSN 302035Z 03007KT 10SM SCT017 M02/M06 A3026 550 75 -1300 030/07 RMK AO2
14837KMSN MSN20020130144009901/30/02 14:40:31  5-MIN KMSN 302040Z 06007KT 10SM SCT017 M02/M07 A3026 550 72 -1300 060/07 RMK AO2
14837KMSN MSN20020130144509901/30/02 14:45:31  5-MIN KMSN 302045Z 07007KT 10SM SCT017 M02/M06 A3027 550 75 -1300 060/07 RMK AO2
14837KMSN MSN20020130145012201/30/02 14:50:31  5-MIN KMSN 302050Z 03008KT 10SM SCT017 M02/M06 A3026 550 75 -1300 030/08 RMK AO2 SLP261 T10221061 50014
14837KMSN MSN20020130145509901/30/02 14:55:31  5-MIN KMSN 302055Z 03009KT 10SM FEW017 M02/M06 A3026 550 75 -1300 030/09 RMK AO2
14837KMSN MSN20020130150009901/30/02 15:00:31  5-MIN KMSN 302100Z 07008KT 10SM FEW017 M02/M06 A3026 550 75 -1300 070/08 RMK AO2
14837KMSN MSN20020130150509901/30/02 15:05:31  5-MIN KMSN 302105Z 05008KT 10SM FEW017 M02/M06 A3026 550 72 -1300 050/08 RMK AO2
14837KMSN MSN20020130151009901/30/02 15:10:31  5-MIN KMSN 302110Z 05008KT 10SM FEW017 M02/M07 A3026 550 72 -1300 050/08 RMK AO2
14837KMSN MSN20020130151509901/30/02 15:15:31  5-MIN KMSN 302115Z 05009KT 10SM FEW017 M02/M07 A3026 550 72 -1300 050/09 RMK AO2
14837KMSN MSN20020130152009601/30/02 15:20:31  5-MIN KMSN 302120Z 06007KT 10SM CLR M02/M06 A3027 540 75 -1300 060/07 RMK AO2
14837KMSN MSN20020130152509601/30/02 15:25:31  5-MIN KMSN 302125Z 07009KT 10SM CLR M02/M06 A3027 540 75 -1300 070/09 RMK AO2
14837KMSN MSN20020130153009601/30/02 15:30:31  5-MIN KMSN 302130Z 07008KT 10SM CLR M02/M07 A3027 550 72 -1300 070/08 RMK AO2
14837KMSN MSN20020130153509901/30/02 15:35:31  5-MIN KMSN 302135Z 07007KT 10SM SCT017 M02/M07 A3027 550 72 -1300 070/07 RMK AO2
14837KMSN MSN20020130154009901/30/02 15:40:31  5-MIN KMSN 302140Z 05008KT 10SM SCT017 M02/M06 A3027 540 72 -1300 050/08 RMK AO2
14837KMSN MSN20020130154509901/30/02 15:45:31  5-MIN KMSN 302145Z 06007KT 10SM SCT018 M02/M06 A3027 540 75 -1400 050/07 RMK AO2
14837KMSN MSN20020130155011601/30/02 15:50:31  5-MIN KMSN 302150Z 05007KT 10SM SCT018 M02/M07 A3028 530 72 -1400 050/07 RMK AO2 SLP268 T10221067
14837KMSN MSN20020130155509901/30/02 15:55:31  5-MIN KMSN 302155Z 07007KT 10SM SCT018 M02/M07 A3029 530 72 -1400 070/07 RMK AO2
14837KMSN MSN20020130160009901/30/02 16:00:31  5-MIN KMSN 302200Z 05008KT 10SM SCT018 M02/M07 A3028 530 72 -1400 050/08 RMK AO2
14837KMSN MSN20020130160509901/30/02 16:05:31  5-MIN KMSN 302205Z 06008KT 10SM SCT018 M02/M07 A3028 540 72 -1400 060/08 RMK AO2
14837KMSN MSN20020130161009901/30/02 16:10:31  5-MIN KMSN 302210Z 05008KT 10SM SCT018 M02/M07 A3028 530 72 -1400 050/08 RMK AO2
14837KMSN MSN20020130161509901/30/02 16:15:31  5-MIN KMSN 302215Z 05008KT 10SM SCT018 M02/M06 A3028 530 75 -1400 050/08 RMK AO2
14837KMSN MSN20020130162009901/30/02 16:20:31  5-MIN KMSN 302220Z 05009KT 10SM SCT018 M02/M07 A3028 530 72 -1400 050/09 RMK AO2
14837KMSN MSN20020130162510601/30/02 16:25:31  5-MIN KMSN 302225Z 06008KT 10SM SCT018 BKN044 M02/M07 A3028 530 72 -1400 060/08 RMK AO2
14837KMSN MSN20020130163010601/30/02 16:30:31  5-MIN KMSN 302230Z 06008KT 10SM FEW018 BKN044 M02/M07 A3028 540 72 -1400 060/08 RMK AO2
14837KMSN MSN20020130163510601/30/02 16:35:31  5-MIN KMSN 302235Z 06008KT 10SM SCT018 BKN044 M02/M07 A3028 530 72 -1400 060/08 RMK AO2
14837KMSN MSN20020130164010601/30/02 16:40:31  5-MIN KMSN 302240Z 07008KT 10SM FEW018 BKN044 M02/M07 A3028 530 72 -1400 070/08 RMK AO2
14837KMSN MSN20020130164510601/30/02 16:45:31  5-MIN KMSN 302245Z 06007KT 10SM FEW018 SCT044 M02/M07 A3029 530 72 -1400 060/07 RMK AO2
14837KMSN MSN20020130165012301/30/02 16:50:31  5-MIN KMSN 302250Z 06007KT 10SM FEW018 SCT044 M02/M07 A3029 530 72 -1400 060/07 RMK AO2 SLP270 T10221067
14837KMSN MSN20020130165509901/30/02 16:55:31  5-MIN KMSN 302255Z 05007KT 10SM FEW018 M03/M06 A3029 530 78 -1400 050/07 RMK AO2
14837KMSN MSN20020130170009901/30/02 17:00:31  5-MIN KMSN 302300Z 05009KT 10SM FEW044 M03/M07 A3029 530 75 -1400 050/09 RMK AO2
14837KMSN MSN20020130170509601/30/02 17:05:31  5-MIN KMSN 302305Z 05007KT 10SM CLR M03/M07 A3029 520 75 -1400 050/07 RMK AO2
14837KMSN MSN20020130171009601/30/02 17:10:31  5-MIN KMSN 302310Z 05008KT 10SM CLR M03/M07 A3029 530 75 -1400 050/08 RMK AO2
14837KMSN MSN20020130171509601/30/02 17:15:31  5-MIN KMSN 302315Z 05009KT 10SM CLR M03/M07 A3029 530 75 -1400 050/09 RMK AO2
14837KMSN MSN20020130172009601/30/02 17:20:31  5-MIN KMSN 302320Z 05007KT 10SM CLR M03/M06 A3029 530 78 -1400 050/07 RMK AO2
14837KMSN MSN20020130172509601/30/02 17:25:31  5-MIN KMSN 302325Z 05008KT 10SM CLR M03/M07 A3029 530 75 -1400 050/08 RMK AO2
14837KMSN MSN20020130173009601/30/02 17:30:31  5-MIN KMSN 302330Z 05009KT 10SM CLR M03/M07 A3028 530 75 -1400 050/09 RMK AO2
14837KMSN MSN20020130173509601/30/02 17:35:31  5-MIN KMSN 302335Z 05008KT 10SM CLR M03/M07 A3028 540 75 -1400 050/08 RMK AO2
14837KMSN MSN20020130174009601/30/02 17:40:31  5-MIN KMSN 302340Z 05006KT 10SM CLR M03/M07 A3028 540 75 -1400 050/06 RMK AO2
14837KMSN MSN20020130174509601/30/02 17:45:31  5-MIN KMSN 302345Z 05008KT 10SM CLR M03/M07 A3028 540 75 -1400 050/08 RMK AO2
14837KMSN MSN20020130175013401/30/02 17:50:31  5-MIN KMSN 302350Z 05007KT 10SM FEW110 M03/M06 A3028 530 78 -1400 050/07 RMK AO2 SLP268 T10281061 11017 21028 58010
14837KMSN MSN20020130175509901/30/02 17:55:31  5-MIN KMSN 302355Z 05007KT 10SM SCT110 M03/M06 A3029 530 78 -1400 050/07 RMK AO2
14837KMSN MSN20020130180009901/30/02 18:00:31  5-MIN KMSN 310000Z 04008KT 10SM SCT110 M03/M06 A3029 530 78 -1400 040/08 RMK AO2
14837KMSN MSN20020130180509901/30/02 18:05:31  5-MIN KMSN 310005Z 03006KT 10SM SCT100 M03/M06 A3029 530 78 -1400 030/06 RMK AO2
14837KMSN MSN20020130181009901/30/02 18:10:31  5-MIN KMSN 310010Z 04007KT 10SM SCT100 M03/M06 A3029 530 78 -1400 030/07 RMK AO2
14837KMSN MSN20020130181509901/30/02 18:15:31  5-MIN KMSN 310015Z 04009KT 10SM SCT100 M03/M06 A3028 530 78 -1400 040/09 RMK AO2
14837KMSN MSN20020130182009901/30/02 18:20:31  5-MIN KMSN 310020Z 04007KT 10SM SCT100 M03/M06 A3028 540 78 -1400 040/07 RMK AO2
14837KMSN MSN20020130182509901/30/02 18:25:31  5-MIN KMSN 310025Z 04007KT 10SM FEW100 M03/M06 A3027 550 78 -1400 040/07 RMK AO2
14837KMSN MSN20020130183010601/30/02 18:30:31  5-MIN KMSN 310030Z 04010KT 10SM FEW100 M03/M06 A3026 550 78 -1400 040/10 RMK AO2 PRESFR
14837KMSN MSN20020130183509901/30/02 18:35:31  5-MIN KMSN 310035Z 04010KT 10SM FEW100 M03/M06 A3026 560 78 -1400 040/10 RMK AO2
14837KMSN MSN20020130184009601/30/02 18:40:31  5-MIN KMSN 310040Z 04008KT 10SM CLR M03/M06 A3026 550 78 -1400 040/08 RMK AO2
14837KMSN MSN20020130184509601/30/02 18:45:31  5-MIN KMSN 310045Z 04008KT 10SM CLR M03/M06 A3026 550 78 -1400 040/08 RMK AO2
14837KMSN MSN20020130185011601/30/02 18:50:31  5-MIN KMSN 310050Z 05007KT 10SM FEW040 M03/M06 A3027 550 78 -1400 050/07 RMK AO2 SLP262 T10281061
14837KMSN MSN20020130185509901/30/02 18:55:31  5-MIN KMSN 310055Z 05008KT 10SM FEW110 M03/M06 A3027 540 78 -1400 050/08 RMK AO2
14837KMSN MSN20020130190010601/30/02 19:00:31  5-MIN KMSN 310100Z 05008KT 10SM FEW042 SCT100 M03/M06 A3027 540 78 -1400 050/08 RMK AO2
14837KMSN MSN20020130190510601/30/02 19:05:31  5-MIN KMSN 310105Z 05007KT 10SM FEW042 BKN100 M03/M06 A3027 540 78 -1400 050/07 RMK AO2
14837KMSN MSN20020130191009901/30/02 19:10:31  5-MIN KMSN 310110Z 04009KT 10SM BKN100 M03/M06 A3027 540 78 -1400 040/09 RMK AO2
14837KMSN MSN20020130191510601/30/02 19:15:31  5-MIN KMSN 310115Z 04008KT 10SM FEW042 BKN100 M03/M06 A3028 540 78 -1400 040/08 RMK AO2
14837KMSN MSN20020130192010601/30/02 19:20:31  5-MIN KMSN 310120Z 05008KT 10SM FEW042 OVC100 M03/M06 A3028 530 78 -1400 050/08 RMK AO2
14837KMSN MSN20020130192510601/30/02 19:25:31  5-MIN KMSN 310125Z 05007KT 10SM SCT042 OVC100 M03/M06 A3028 530 78 -1400 040/07 RMK AO2
14837KMSN MSN20020130193011301/30/02 19:30:31  5-MIN KMSN 310130Z 05006KT 10SM BKN042 OVC100 M03/M06 A3029 520 78 -1400 040/06 RMK AO2 PRESRR
14837KMSN MSN20020130193510601/30/02 19:35:31  5-MIN KMSN 310135Z 04006KT 10SM BKN042 OVC100 M03/M06 A3029 520 78 -1400 040/06 RMK AO2
14837KMSN MSN20020130194010601/30/02 19:40:31  5-MIN KMSN 310140Z 04005KT 10SM BKN042 OVC100 M03/M06 A3030 520 78 -1500 040/05 RMK AO2
14837KMSN MSN20020130194510601/30/02 19:45:31  5-MIN KMSN 310145Z 04005KT 10SM BKN042 OVC100 M03/M06 A3029 520 78 -1400 040/05 RMK AO2
14837KMSN MSN20020130195011601/30/02 19:50:31  5-MIN KMSN 310150Z 04007KT 10SM OVC042 M03/M06 A3030 520 78 -1500 040/07 RMK AO2 SLP272 T10281061
14837KMSN MSN20020130195509901/30/02 19:55:31  5-MIN KMSN 310155Z 05008KT 10SM OVC042 M03/M06 A3029 520 78 -1400 050/08 RMK AO2
14837KMSN MSN20020130200009901/30/02 20:00:31  5-MIN KMSN 310200Z 04007KT 10SM OVC042 M03/M06 A3029 520 78 -1400 030/07 RMK AO2
14837KMSN MSN20020130200509901/30/02 20:05:31  5-MIN KMSN 310205Z 04007KT 10SM OVC042 M03/M06 A3029 520 78 -1400 030/07 RMK AO2
14837KMSN MSN20020130201009901/30/02 20:10:31  5-MIN KMSN 310210Z 03008KT 10SM OVC042 M03/M06 A3029 520 78 -1400 030/08 RMK AO2
14837KMSN MSN20020130201509901/30/02 20:15:31  5-MIN KMSN 310215Z 03008KT 10SM OVC042 M03/M06 A3029 520 78 -1400 030/08 RMK AO2
14837KMSN MSN20020130202009901/30/02 20:20:31  5-MIN KMSN 310220Z 03008KT 10SM OVC042 M03/M06 A3029 520 78 -1400 030/08 RMK AO2
14837KMSN MSN20020130202510601/30/02 20:25:31  5-MIN KMSN 310225Z 03008KT 10SM FEW018 OVC042 M03/M06 A3030 520 78 -1500 030/08 RMK AO2
14837KMSN MSN20020130203010601/30/02 20:30:31  5-MIN KMSN 310230Z 03007KT 10SM SCT018 OVC042 M03/M06 A3029 520 78 -1400 030/07 RMK AO2
14837KMSN MSN20020130203510601/30/02 20:35:31  5-MIN KMSN 310235Z 04008KT 10SM BKN018 OVC042 M03/M06 A3029 530 78 -1400 040/08 RMK AO2
14837KMSN MSN20020130204010601/30/02 20:40:31  5-MIN KMSN 310240Z 04007KT 10SM BKN020 OVC040 M03/M06 A3029 530 78 -1400 040/07 RMK AO2
14837KMSN MSN20020130204510601/30/02 20:45:31  5-MIN KMSN 310245Z 03007KT 10SM BKN020 OVC040 M03/M06 A3029 530 78 -1400 030/07 RMK AO2
14837KMSN MSN20020130205012901/30/02 20:50:31  5-MIN KMSN 310250Z 03007KT 10SM BKN018 OVC022 M03/M06 A3029 530 78 -1400 030/07 RMK AO2 SLP269 T10281061 50009
14837KMSN MSN20020130205510601/30/02 20:55:31  5-MIN KMSN 310255Z 03007KT 10SM BKN018 OVC022 M03/M06 A3029 520 78 -1400 030/07 RMK AO2
14837KMSN MSN20020130210010601/30/02 21:00:31  5-MIN KMSN 310300Z 03007KT 10SM BKN018 OVC022 M03/M06 A3029 520 78 -1400 030/07 RMK AO2
14837KMSN MSN20020130210509901/30/02 21:05:31  5-MIN KMSN 310305Z 04007KT 10SM OVC018 M03/M06 A3029 520 78 -1400 040/07 RMK AO2
14837KMSN MSN20020130211009901/30/02 21:10:31  5-MIN KMSN 310310Z 03007KT 10SM OVC018 M03/M06 A3029 520 78 -1400 030/07 RMK AO2
14837KMSN MSN20020130211509901/30/02 21:15:31  5-MIN KMSN 310315Z 03007KT 10SM OVC018 M03/M06 A3029 530 78 -1400 030/07 RMK AO2
14837KMSN MSN20020130212009901/30/02 21:20:31  5-MIN KMSN 310320Z 03008KT 10SM OVC018 M03/M06 A3029 530 78 -1400 020/08 RMK AO2
14837KMSN MSN20020130212509901/30/02 21:25:31  5-MIN KMSN 310325Z 03007KT 10SM OVC018 M03/M06 A3028 530 78 -1400 030/07 RMK AO2
14837KMSN MSN20020130213009901/30/02 21:30:31  5-MIN KMSN 310330Z 03009KT 10SM OVC018 M03/M06 A3028 530 78 -1400 030/09 RMK AO2
14837KMSN MSN20020130213509901/30/02 21:35:31  5-MIN KMSN 310335Z 03011KT 10SM OVC018 M03/M06 A3027 540 81 -1500 030/11 RMK AO2
14837KMSN MSN20020130214009901/30/02 21:40:31  5-MIN KMSN 310340Z 03010KT 10SM OVC018 M03/M06 A3028 540 81 -1500 030/10 RMK AO2
14837KMSN MSN20020130214509901/30/02 21:45:31  5-MIN KMSN 310345Z 03010KT 10SM OVC016 M03/M07 A3028 540 78 -1500 030/10 RMK AO2
14837KMSN MSN20020130215011601/30/02 21:50:31  5-MIN KMSN 310350Z 03009KT 10SM OVC016 M03/M06 A3027 540 81 -1500 030/09 RMK AO2 SLP264 T10331061
14837KMSN MSN20020130215509901/30/02 21:55:31  5-MIN KMSN 310355Z 04010KT 10SM OVC016 M03/M07 A3027 540 78 -1500 040/10 RMK AO2
14837KMSN MSN20020130220009901/30/02 22:00:31  5-MIN KMSN 310400Z 03010KT 10SM OVC016 M03/M07 A3027 550 78 -1500 030/10 RMK AO2
14837KMSN MSN20020130220509901/30/02 22:05:31  5-MIN KMSN 310405Z 03011KT 10SM OVC014 M03/M07 A3026 550 78 -1500 030/11 RMK AO2
14837KMSN MSN20020130221009901/30/02 22:10:31  5-MIN KMSN 310410Z 03008KT 10SM OVC014 M03/M07 A3027 550 78 -1500 030/08 RMK AO2
14837KMSN MSN20020130221509901/30/02 22:15:31  5-MIN KMSN 310415Z 03009KT 10SM OVC014 M03/M06 A3027 540 81 -1500 030/09 RMK AO2
14837KMSN MSN20020130222009901/30/02 22:20:31  5-MIN KMSN 310420Z 03009KT 10SM OVC014 M03/M06 A3027 550 81 -1500 030/09 RMK AO2
14837KMSN MSN20020130222509901/30/02 22:25:31  5-MIN KMSN 310425Z 03008KT 10SM OVC014 M03/M06 A3026 550 81 -1500 030/08 RMK AO2
14837KMSN MSN20020130223009901/30/02 22:30:31  5-MIN KMSN 310430Z 04008KT 10SM OVC014 M03/M06 A3026 550 81 -1500 040/08 RMK AO2
14837KMSN MSN20020130223509901/30/02 22:35:31  5-MIN KMSN 310435Z 04010KT 10SM OVC014 M03/M06 A3026 550 81 -1500 030/10 RMK AO2
14837KMSN MSN20020130224009901/30/02 22:40:31  5-MIN KMSN 310440Z 04011KT 10SM OVC014 M03/M06 A3026 550 81 -1500 040/11 RMK AO2
14837KMSN MSN20020130224509901/30/02 22:45:31  5-MIN KMSN 310445Z 04009KT 10SM OVC016 M03/M06 A3026 550 81 -1500 040/09 RMK AO2
14837KMSN MSN20020130225011601/30/02 22:50:31  5-MIN KMSN 310450Z 04010KT 10SM OVC018 M03/M06 A3026 550 81 -1500 040/10 RMK AO2 SLP260 T10331061
14837KMSN MSN20020130225510601/30/02 22:55:31  5-MIN KMSN 310455Z 04010KT 10SM BKN016 OVC021 M03/M06 A3025 560 81 -1500 040/10 RMK AO2
14837KMSN MSN20020130230010601/30/02 23:00:31  5-MIN KMSN 310500Z 04010KT 10SM SCT016 OVC021 M03/M06 A3025 560 81 -1500 040/10 RMK AO2
14837KMSN MSN20020130230510601/30/02 23:05:31  5-MIN KMSN 310505Z 04011KT 10SM BKN021 OVC055 M03/M06 A3025 560 81 -1500 040/11 RMK AO2
14837KMSN MSN20020130231010601/30/02 23:10:31  5-MIN KMSN 310510Z 04012KT 10SM BKN021 OVC055 M03/M06 A3025 560 81 -1500 040/12 RMK AO2
14837KMSN MSN20020130231510601/30/02 23:15:31  5-MIN KMSN 310515Z 04012KT 10SM BKN021 OVC055 M03/M06 A3024 570 81 -1500 040/12 RMK AO2
14837KMSN MSN20020130232010601/30/02 23:20:31  5-MIN KMSN 310520Z 04010KT 10SM BKN021 OVC055 M03/M07 A3024 570 78 -1500 040/10 RMK AO2
14837KMSN MSN20020130232511401/30/02 23:25:31  5-MIN KMSN 310525Z 03009KT 9SM -SN OVC021 M03/M06 A3024 570 81 -1500 030/09 RMK AO2 SNB25 P0000
14837KMSN MSN20020130233011501/30/02 23:30:31  5-MIN KMSN 310530Z 03011KT 10SM -SN OVC019 M03/M06 A3023 580 81 -1500 030/11 RMK AO2 SNB25 P0000
14837KMSN MSN20020130233512201/30/02 23:35:31  5-MIN KMSN 310535Z 03010KT 10SM -SN OVC019 M03/M06 A3022 590 81 -1400 030/10 RMK AO2 SNB25 PRESFR P0000
14837KMSN MSN20020130234012201/30/02 23:40:31  5-MIN KMSN 310540Z 04012KT 10SM -SN BKN019 OVC047 M03/M06 A3022 590 81 -1400 030/12 RMK AO2 SNB25 P0000
14837KMSN MSN20020130234512801/30/02 23:45:31  5-MIN KMSN 310545Z 04009KT 8SM -SN BKN019 BKN037 OVC047 M03/M06 A3022 590 81 -1400 040/09 RMK AO2 SNB25 P0000
14837KMSN MSN20020130235017901/30/02 23:50:31  5-MIN KMSN 310550Z 03010KT 8SM -SN SCT019 BKN032 OVC047 M03/M06 A3023 580 81 -1400 030/10 RMK AO2 SNB25 SLP248 P0000 60000 T10331061 11028 21033 410171050 53001
14837KMSN MSN20020130235512501/30/02 23:55:31  5-MIN KMSN 310555Z 04010KT 5SM -SN BR SCT019 BKN030 OVC047 M03/M06 A3023 580 85 -1400 040/10 RMK AO2 P0000
14837KMSN MSN20020131000012501/31/02 00:00:31  5-MIN KMSN 310600Z 03011KT 4SM -SN BR FEW019 BKN028 OVC047 M03/M06 A3023 580 85 -1400 030/11 RMK AO2 P0000
14837KMSN MSN20020131000511801/31/02 00:05:31  5-MIN KMSN 310605Z 03010KT 3SM -SN BR BKN028 OVC047 M03/M06 A3023 580 85 -1400 030/10 RMK AO2 P0000
14837KMSN MSN20020131001011801/31/02 00:10:31  5-MIN KMSN 310610Z 03009KT 4SM -SN BR BKN028 OVC047 M03/M06 A3022 590 85 -1400 030/09 RMK AO2 P0000
14837KMSN MSN20020131001511801/31/02 00:15:31  5-MIN KMSN 310615Z 04011KT 3SM -SN BR BKN026 OVC045 M03/M06 A3022 590 85 -1400 040/11 RMK AO2 P0000
14837KMSN MSN20020131002011801/31/02 00:20:31  5-MIN KMSN 310620Z 04012KT 3SM -SN BR BKN026 OVC043 M03/M06 A3022 590 85 -1400 040/12 RMK AO2 P0000
14837KMSN MSN20020131002511101/31/02 00:25:31  5-MIN KMSN 310625Z 04011KT 3SM -SN BR OVC024 M03/M06 A3021 600 85 -1400 040/11 RMK AO2 P0000
14837KMSN MSN20020131003011101/31/02 00:30:31  5-MIN KMSN 310630Z 03010KT 3SM -SN BR OVC022 M03/M06 A3020 610 85 -1400 030/10 RMK AO2 P0000
14837KMSN MSN20020131003511801/31/02 00:35:31  5-MIN KMSN 310635Z 03011KT 3SM -SN BR OVC022 M04/M06 A3019 620 88 -1500 030/11 RMK AO2 PRESFR P0000
14837KMSN MSN20020131004011101/31/02 00:40:31  5-MIN KMSN 310640Z 03010KT 3SM -SN BR OVC022 M04/M06 A3019 610 88 -1500 030/10 RMK AO2 P0000
14837KMSN MSN20020131004511101/31/02 00:45:31  5-MIN KMSN 310645Z 03010KT 3SM -SN BR OVC020 M04/M05 A3020 610 92 -1500 030/10 RMK AO2 P0000
14837KMSN MSN20020131005012801/31/02 00:50:31  5-MIN KMSN 310650Z 03009KT 3SM -SN BR OVC020 M04/M06 A3020 610 88 -1500 030/09 RMK AO2 SLP239 P0000 T10391056
14837KMSN MSN20020131005511101/31/02 00:55:31  5-MIN KMSN 310655Z 03010KT 2SM -SN BR OVC018 M04/M05 A3020 610 92 -1500 030/10 RMK AO2 P0000
14837KMSN MSN20020131010011501/31/02 01:00:31  5-MIN KMSN 310700Z 04009KT 1 3/4SM -SN BR OVC018 M04/M05 A3021 600 92 -1500 030/09 RMK AO2 P0000
14837KMSN MSN20020131010511101/31/02 01:05:31  5-MIN KMSN 310705Z 03009KT 2SM -SN BR OVC016 M04/M05 A3020 600 92 -1500 030/09 RMK AO2 P0000
14837KMSN MSN20020131011011101/31/02 01:10:31  5-MIN KMSN 310710Z 03009KT 2SM -SN BR OVC016 M04/M05 A3020 610 92 -1500 030/09 RMK AO2 P0000
14837KMSN MSN20020131011511101/31/02 01:15:31  5-MIN KMSN 310715Z 04012KT 2SM -SN BR OVC016 M04/M05 A3018 620 92 -1500 030/12 RMK AO2 P0000
14837KMSN MSN20020131012011801/31/02 01:20:31  5-MIN KMSN 310720Z 03010KT 2SM -SN BR OVC016 M04/M05 A3018 630 92 -1500 030/10 RMK AO2 PRESFR P0000
14837KMSN MSN20020131012511501/31/02 01:25:31  5-MIN KMSN 310725Z 03009KT 1 3/4SM -SN BR OVC016 M04/M05 A3019 610 92 -1500 030/09 RMK AO2 P0000
14837KMSN MSN20020131013011501/31/02 01:30:31  5-MIN KMSN 310730Z 03009KT 1 3/4SM -SN BR OVC016 M04/M05 A3020 610 92 -1500 030/09 RMK AO2 P0000
14837KMSN MSN20020131013511501/31/02 01:35:31  5-MIN KMSN 310735Z 03008KT 1 3/4SM -SN BR OVC014 M04/M05 A3019 610 92 -1500 030/08 RMK AO2 P0000
14837KMSN MSN20020131014011501/31/02 01:40:31  5-MIN KMSN 310740Z 04009KT 1 1/2SM -SN BR OVC014 M04/M05 A3019 620 92 -1500 040/09 RMK AO2 P0000
14837KMSN MSN20020131014511501/31/02 01:45:31  5-MIN KMSN 310745Z 04010KT 1 1/2SM -SN BR OVC014 M04/M05 A3018 620 92 -1500 040/10 RMK AO2 P0001
14837KMSN MSN20020131015013201/31/02 01:50:31  5-MIN KMSN 310750Z 03010KT 1 1/4SM -SN BR OVC012 M04/M04 A3018 620 96 -1500 030/10 RMK AO2 SLP232 P0001 T10391044
14837KMSN MSN20020131015511501/31/02 01:55:31  5-MIN KMSN 310755Z 03009KT 1 1/4SM -SN BR OVC012 M04/M05 A3018 630 92 -1500 030/09 RMK AO2 P0000
14837KMSN MSN20020131020011501/31/02 02:00:31  5-MIN KMSN 310800Z 04010KT 1 1/4SM -SN BR OVC012 M03/M04 A3017 630 92 -1400 040/10 RMK AO2 P0000
14837KMSN MSN20020131020511501/31/02 02:05:31  5-MIN KMSN 310805Z 03008KT 1 1/4SM -SN BR OVC012 M03/M04 A3017 630 92 -1400 030/08 RMK AO2 P0000
14837KMSN MSN20020131021011501/31/02 02:10:31  5-MIN KMSN 310810Z 03010KT 1 1/4SM -SN BR OVC012 M03/M04 A3017 630 92 -1400 030/10 RMK AO2 P0000
14837KMSN MSN20020131021511501/31/02 02:15:31  5-MIN KMSN 310815Z 03010KT 1 1/2SM -SN BR OVC014 M03/M04 A3018 630 92 -1400 030/10 RMK AO2 P0000
14837KMSN MSN20020131022011501/31/02 02:20:31  5-MIN KMSN 310820Z 04010KT 1 1/2SM -SN BR OVC014 M03/M04 A3018 630 92 -1400 040/10 RMK AO2 P0000
14837KMSN MSN20020131022511501/31/02 02:25:31  5-MIN KMSN 310825Z 03010KT 1 1/2SM -SN BR OVC014 M03/M04 A3017 630 92 -1400 030/10 RMK AO2 P0001
14837KMSN MSN20020131023011501/31/02 02:30:31  5-MIN KMSN 310830Z 03011KT 1 1/4SM -SN BR OVC014 M03/M04 A3016 640 92 -1400 030/11 RMK AO2 P0001
14837KMSN MSN20020131023511501/31/02 02:35:31  5-MIN KMSN 310835Z 03010KT 1 1/4SM -SN BR OVC014 M03/M04 A3016 640 92 -1400 030/10 RMK AO2 P0001
14837KMSN MSN20020131024011501/31/02 02:40:31  5-MIN KMSN 310840Z 04009KT 1 1/4SM -SN BR OVC014 M03/M06 A3016 640 85 -1400 030/09 RMK AO2 P0001
14837KMSN MSN20020131024511501/31/02 02:45:31  5-MIN KMSN 310845Z 03010KT 1 1/4SM -SN BR OVC012 M03/M06 A3016 640 85 -1400 030/10 RMK AO2 P0001
14837KMSN MSN20020131025013901/31/02 02:50:31  5-MIN KMSN 310850Z 03012KT 1SM -SN BR VV010 M03/M05 A3015 650 88 -1400 030/12 RMK AO2 SLP223 P0003 60004 T10331050 58020
14837KMSN MSN20020131025511001/31/02 02:55:31  5-MIN KMSN 310855Z 03011KT 1SM -SN BR VV010 M03/M05 A3016 640 88 -1400 030/11 RMK AO2 P0001
14837KMSN MSN20020131030011501/31/02 03:00:31  5-MIN KMSN 310900Z 03011KT 1 1/4SM -SN BR OVC010 M03/M04 A3017 630 92 -1400 020/11 RMK AO2 P0001
14837KMSN MSN20020131030511501/31/02 03:05:31  5-MIN KMSN 310905Z 03010KT 1 1/2SM -SN BR OVC010 M03/M04 A3017 630 92 -1400 030/10 RMK AO2 P0001
14837KMSN MSN20020131031011501/31/02 03:10:31  5-MIN KMSN 310910Z 02010KT 1 1/2SM -SN BR OVC012 M03/M04 A3018 630 92 -1400 020/10 RMK AO2 P0001
14837KMSN MSN20020131031511501/31/02 03:15:31  5-MIN KMSN 310915Z 03009KT 1 1/2SM -SN BR OVC012 M03/M04 A3017 630 92 -1400 030/09 RMK AO2 P0001
14837KMSN MSN20020131032011501/31/02 03:20:31  5-MIN KMSN 310920Z 03009KT 1 1/4SM -SN BR OVC012 M03/M04 A3017 640 92 -1400 030/09 RMK AO2 P0001
14837KMSN MSN20020131032511501/31/02 03:25:31  5-MIN KMSN 310925Z 03010KT 1 1/4SM -SN BR OVC012 M03/M04 A3017 640 92 -1400 030/10 RMK AO2 P0001
14837KMSN MSN20020131033011501/31/02 03:30:31  5-MIN KMSN 310930Z 02011KT 1 1/4SM -SN BR OVC012 M03/M04 A3016 650 92 -1400 020/11 RMK AO2 P0002
14837KMSN MSN20020131033511701/31/02 03:35:31  5-MIN KMSN 310935Z 03011KT 1SM -SN BR VV010 M03/M04 A3014 660 92 -1300 030/11 RMK AO2 PRESFR P0002
14837KMSN MSN20020131034011701/31/02 03:40:31  5-MIN KMSN 310940Z 03010KT 1SM -SN BR VV009 M03/M04 A3013 670 92 -1300 030/10 RMK AO2 PRESFR P0002
14837KMSN MSN20020131034511701/31/02 03:45:31  5-MIN KMSN 310945Z 03013KT 1SM -SN BR VV009 M03/M04 A3012 680 92 -1300 030/13 RMK AO2 PRESFR P0002
14837KMSN MSN20020131035013401/31/02 03:50:31  5-MIN KMSN 310950Z 04013KT 1SM -SN BR VV008 M03/M04 A3010 700 92 -1300 040/13 RMK AO2 PRESFR SLP205 P0002 T10331044
14837KMSN MSN20020131035511601/31/02 03:55:31  5-MIN KMSN 310955Z 03010G19KT 1SM -SN BR VV008 M03/M04 A3012 680 92 -1300 030/10G19 RMK AO2 P0000
14837KMSN MSN20020131040011601/31/02 04:00:31  5-MIN KMSN 311000Z 03011G19KT 1SM -SN BR VV008 M03/M04 A3012 680 92 -1300 030/11G19 RMK AO2 P0000
14837KMSN MSN20020131040511001/31/02 04:05:31  5-MIN KMSN 311005Z 03011KT 1SM -SN BR VV008 M03/M04 A3012 680 92 -1300 030/11 RMK AO2 P0001
14837KMSN MSN20020131041011501/31/02 04:10:31  5-MIN KMSN 311010Z 03009KT 1 1/4SM -SN BR OVC008 M03/M04 A3013 670 92 -1300 030/09 RMK AO2 P0001
14837KMSN MSN20020131041511501/31/02 04:15:31  5-MIN KMSN 311015Z 03011KT 1 1/4SM -SN BR OVC010 M03/M04 A3012 680 92 -1300 030/11 RMK AO2 P0001
14837KMSN MSN20020131042012201/31/02 04:20:31  5-MIN KMSN 311020Z 03012KT 1 1/4SM -SN BR FEW010 OVC014 M03/M04 A3013 670 92 -1300 030/12 RMK AO2 P0001
14837KMSN MSN20020131042512201/31/02 04:25:31  5-MIN KMSN 311025Z 03011KT 1 3/4SM -SN BR FEW010 OVC019 M03/M04 A3013 670 92 -1300 030/11 RMK AO2 P0001
14837KMSN MSN20020131043012201/31/02 04:30:31  5-MIN KMSN 311030Z 04011KT 2 1/2SM -SN BR FEW010 OVC023 M03/M04 A3014 660 92 -1300 040/11 RMK AO2 P0001
14837KMSN MSN20020131043512201/31/02 04:35:31  5-MIN KMSN 311035Z 04011KT 2 1/2SM -SN BR BKN023 OVC050 M03/M04 A3013 670 92 -1300 040/11 RMK AO2 P0001
14837KMSN MSN20020131044012501/31/02 04:40:31  5-MIN KMSN 311040Z 04012KT 3SM -SN BR FEW012 BKN025 OVC055 M03/M04 A3011 690 92 -1300 040/12 RMK AO2 P0001
14837KMSN MSN20020131044512501/31/02 04:45:31  5-MIN KMSN 311045Z 04012KT 3SM -SN BR FEW012 BKN050 OVC060 M03/M04 A3012 680 92 -1300 040/12 RMK AO2 P0001
14837KMSN MSN20020131045014901/31/02 04:50:31  5-MIN KMSN 311050Z 03012KT 3SM -SN BR FEW012 SCT029 OVC055 M03/M04 A3010 700 92 -1300 030/12 RMK AO2 PRESFR SLP206 P0001 T10331044
14837KMSN MSN20020131045512501/31/02 04:55:31  5-MIN KMSN 311055Z 03013KT 3SM -SN BR FEW031 OVC055 M03/M04 A3010 700 92 -1300 030/13 RMK AO2 PRESFR P0000
14837KMSN MSN20020131050012501/31/02 05:00:31  5-MIN KMSN 311100Z 03013KT 3SM -SN BR FEW039 SCT050 OVC060 M03/M04 A3010 700 92 -1300 030/13 RMK AO2 P0000
14837KMSN MSN20020131050512501/31/02 05:05:31  5-MIN KMSN 311105Z 04011KT 3SM -SN BR FEW039 BKN050 OVC060 M03/M04 A3010 700 88 -1200 030/11 RMK AO2 P0000
14837KMSN MSN20020131051012501/31/02 05:10:31  5-MIN KMSN 311110Z 04011KT 3SM -SN BR FEW037 BKN048 OVC060 M03/M04 A3010 700 88 -1200 040/11 RMK AO2 P0000
14837KMSN MSN20020131051512501/31/02 05:15:31  5-MIN KMSN 311115Z 03013KT 4SM -SN BR SCT037 BKN048 OVC060 M03/M04 A3010 700 88 -1200 030/13 RMK AO2 P0000
14837KMSN MSN20020131052012501/31/02 05:20:31  5-MIN KMSN 311120Z 03011KT 4SM -SN BR SCT037 BKN048 OVC060 M03/M04 A3010 700 88 -1200 030/11 RMK AO2 P0000
14837KMSN MSN20020131052512501/31/02 05:25:31  5-MIN KMSN 311125Z 03012KT 4SM -SN BR FEW010 SCT037 OVC048 M03/M04 A3008 710 92 -1200 030/12 RMK AO2 P0000
14837KMSN MSN20020131053012501/31/02 05:30:31  5-MIN KMSN 311130Z 03012KT 4SM -SN BR FEW008 BKN032 OVC048 M03/M04 A3009 710 88 -1200 030/12 RMK AO2 P0000
14837KMSN MSN20020131053512501/31/02 05:35:31  5-MIN KMSN 311135Z 02012KT 3SM -SN BR SCT008 BKN014 OVC048 M03/M04 A3010 700 88 -1200 020/12 RMK AO2 P0000
14837KMSN MSN20020131054012901/31/02 05:40:31  5-MIN KMSN 311140Z 02011KT 2 1/2SM -SN BR FEW008 BKN014 OVC048 M03/M04 A3011 690 92 -1200 020/11 RMK AO2 P0000
14837KMSN MSN20020131054512501/31/02 05:45:31  5-MIN KMSN 311145Z 03013KT 3SM -SN BR SCT010 BKN014 OVC023 M03/M04 A3009 710 92 -1200 030/13 RMK AO2 P0000
14837KMSN MSN20020131055017101/31/02 05:50:31  5-MIN KMSN 311150Z 03014KT 2SM -SN BR SCT010 OVC016 M03/M04 A3008 720 92 -1200 020/14 RMK AO2 SLP196 P0000 60007 70007 4/001 T10281039 11028 21039 56025
14837KMSN MSN20020131055512201/31/02 05:55:31  5-MIN KMSN 311155Z 02012KT 1 3/4SM -SN BR FEW010 OVC016 M03/M04 A3008 710 88 -1200 020/12 RMK AO2 P0000
14837KMSN MSN20020131060012201/31/02 06:00:31  5-MIN KMSN 311200Z 01013KT 1 1/2SM -SN BR BKN012 OVC017 M03/M04 A3010 700 92 -1200 010/13 RMK AO2 P0000
14837KMSN MSN20020131060512201/31/02 06:05:31  5-MIN KMSN 311205Z 01013KT 1 1/2SM -SN BR FEW009 OVC014 M03/M04 A3009 710 92 -1200 010/13 RMK AO2 P0000
14837KMSN MSN20020131061011501/31/02 06:10:31  5-MIN KMSN 311210Z 02011KT 1 1/2SM -SN BR OVC014 M03/M04 A3008 720 92 -1200 020/11 RMK AO2 P0000
14837KMSN MSN20020131061511501/31/02 06:15:31  5-MIN KMSN 311215Z 03015KT 1 1/2SM -SN BR OVC014 M03/M04 A3006 730 92 -1200 030/15 RMK AO2 P0000
14837KMSN MSN20020131062011501/31/02 06:20:31  5-MIN KMSN 311220Z 03012KT 1 3/4SM -SN BR OVC014 M03/M04 A3008 720 92 -1200 030/12 RMK AO2 P0000
14837KMSN MSN20020131062511501/31/02 06:25:31  5-MIN KMSN 311225Z 02012KT 1 3/4SM -SN BR OVC014 M03/M04 A3008 720 92 -1200 020/12 RMK AO2 P0000
14837KMSN MSN20020131063011501/31/02 06:30:31  5-MIN KMSN 311230Z 03013KT 1 3/4SM -SN BR OVC014 M03/M04 A3008 720 92 -1200 030/13 RMK AO2 P0000
14837KMSN MSN20020131063512501/31/02 06:35:31  5-MIN KMSN 311235Z 02014KT 1 3/4SM -SN BR OVC016 M03/M04 A3008 720 92 -1200 020/14 RMK AO2 TWR VIS 2 P0000
14837KMSN MSN20020131064012501/31/02 06:40:31  5-MIN KMSN 311240Z 03011KT 2SM -SN BR FEW009 OVC016 M03/M04 A3010 700 92 -1200 030/11 RMK AO2 PRESRR P0000
14837KMSN MSN20020131064512501/31/02 06:45:31  5-MIN KMSN 311245Z 03011KT 2SM -SN BR FEW009 OVC016 M03/M04 A3011 690 92 -1200 030/11 RMK AO2 PRESRR P0000
14837KMSN MSN20020131065014201/31/02 06:50:31  5-MIN KMSN 311250Z 03009KT 2SM -SN BR FEW009 OVC016 M03/M04 A3012 680 92 -1300 030/09 RMK AO2 PRESRR SLP212 P0000 T10281039
14837KMSN MSN20020131065513901/31/02 06:55:31  5-MIN KMSN 311255Z 03009KT 1 3/4SM -SN BR FEW009 OVC016 M03/M04 A3013 670 92 -1300 030/09 RMK AO2 TWR VIS 2 PRESRR P0000
14837KMSN MSN20020131070012201/31/02 07:00:31  5-MIN KMSN 311300Z 03011KT 1 3/4SM -SN BR FEW009 OVC016 M03/M04 A3012 680 92 -1300 030/11 RMK AO2 P0000
14837KMSN MSN20020131070513601/31/02 07:05:31  5-MIN KMSN 311305Z 03010KT 1 1/2SM -SN BR FEW009 OVC018 M03/M04 A3012 680 92 -1200 030/10 RMK AO2 SFC VIS 1 3/4 P0000
14837KMSN MSN20020131071013201/31/02 07:10:31  5-MIN KMSN 311310Z 03011KT 1 1/2SM -SN BR FEW009 OVC020 M03/M04 A3011 690 92 -1200 030/11 RMK AO2 SFC VIS 2 P0000
14837KMSN MSN20020131071513201/31/02 07:15:31  5-MIN KMSN 311315Z 03012KT 1 1/2SM -SN BR FEW009 OVC020 M03/M04 A3011 690 92 -1200 030/12 RMK AO2 SFC VIS 2 P0000
14837KMSN MSN20020131072013601/31/02 07:20:31  5-MIN KMSN 311320Z 03012KT 1 1/4SM -SN BR FEW009 OVC020 M03/M04 A3011 690 92 -1200 030/12 RMK AO2 TWR VIS 1 1/2 P0000
14837KMSN MSN20020131072512901/31/02 07:25:31  5-MIN KMSN 311325Z 03012KT 1 1/4SM -SN BR OVC020 M03/M04 A3011 690 92 -1200 020/12 RMK AO2 TWR VIS 1 1/2 P0000
14837KMSN MSN20020131073012901/31/02 07:30:31  5-MIN KMSN 311330Z 02012KT 1 1/4SM -SN BR OVC020 M03/M04 A3010 690 92 -1200 020/12 RMK AO2 TWR VIS 1 1/2 P0000
14837KMSN MSN20020131073512501/31/02 07:35:31  5-MIN KMSN 311335Z 03010KT 1 1/2SM -SN BR OVC020 M03/M04 A3010 700 92 -1200 030/10 RMK AO2 SFC VIS 2 P0000
14837KMSN MSN20020131074012501/31/02 07:40:31  5-MIN KMSN 311340Z 03010KT 1 1/2SM -SN BR OVC020 M03/M04 A3009 710 92 -1200 030/10 RMK AO2 SFC VIS 2 P0000
14837KMSN MSN20020131074512501/31/02 07:45:31  5-MIN KMSN 311345Z 03011KT 2SM -SN BR OVC020 M03/M04 A3009 700 92 -1200 030/11 RMK AO2 SFC VIS 2 1/2 P0000
14837KMSN MSN20020131075014201/31/02 07:50:31  5-MIN KMSN 311350Z 03011KT 2SM -SN BR OVC020 M03/M04 A3009 710 92 -1200 030/11 RMK AO2 SFC VIS 2 1/2 SLP202 P0000 T10281039
14837KMSN MSN20020131075513501/31/02 07:55:31  5-MIN KMSN 311355Z 03011KT 2SM -SN BR FEW009 BKN020 OVC043 M03/M04 A3009 710 92 -1200 030/11 RMK AO2 SFC VIS 3 P0000
14837KMSN MSN20020131080013901/31/02 08:00:31  5-MIN KMSN 311400Z 03012KT 2SM -SN BR FEW009 BKN022 OVC030 M03/M04 A3009 710 92 -1200 030/12 RMK AO2 SFC VIS 2 1/2 P0000
14837KMSN MSN20020131080513901/31/02 08:05:31  5-MIN KMSN 311405Z 03011KT 2SM -SN BR SCT009 BKN024 OVC030 M03/M04 A3009 710 92 -1200 030/11 RMK AO2 SFC VIS 2 1/2 P0000
14837KMSN MSN20020131081013901/31/02 08:10:31  5-MIN KMSN 311410Z 03012KT 2SM -SN BR SCT009 BKN024 OVC030 M03/M04 A3009 710 88 -1200 030/12 RMK AO2 SFC VIS 2 1/2 P0000
14837KMSN MSN20020131081513901/31/02 08:15:31  5-MIN KMSN 311415Z 03012KT 2SM -SN BR SCT009 BKN024 OVC030 M03/M04 A3009 710 92 -1200 030/12 RMK AO2 SFC VIS 2 1/2 P0000
14837KMSN MSN20020131082013901/31/02 08:20:31  5-MIN KMSN 311420Z 03011KT 2SM -SN BR SCT009 BKN024 OVC030 M03/M04 A3009 710 92 -1200 030/11 RMK AO2 SFC VIS 2 1/2 P0000
14837KMSN MSN20020131082512501/31/02 08:25:31  5-MIN KMSN 311425Z 03010KT 2SM -SN BR SCT009 BKN024 OVC031 M03/M04 A3009 710 92 -1200 030/10 RMK AO2 P0000
14837KMSN MSN20020131083012501/31/02 08:30:31  5-MIN KMSN 311430Z 03010KT 2SM -SN BR SCT009 BKN013 OVC024 M03/M04 A3009 700 92 -1200 030/10 RMK AO2 P0000
14837KMSN MSN20020131083511801/31/02 08:35:31  5-MIN KMSN 311435Z 03011KT 2SM -SN BR BKN011 OVC022 M03/M04 A3009 710 92 -1200 030/11 RMK AO2 P0000
14837KMSN MSN20020131084012901/31/02 08:40:31  5-MIN KMSN 311440Z 03013KT 1 1/2SM -SN BR BKN011 BKN014 OVC020 M03/M04 A3008 710 92 -1200 030/13 RMK AO2 P0000
14837KMSN MSN20020131084512201/31/02 08:45:31  5-MIN KMSN 311445Z 03011KT 1 1/2SM -SN BR BKN011 OVC016 M03/M04 A3008 710 92 -1200 030/11 RMK AO2 P0000
14837KMSN MSN20020131085015801/31/02 08:50:31  5-MIN KMSN 311450Z 03011KT 1 1/4SM -SN BR OVC011 M03/M04 A3009 710 92 -1200 030/11 RMK AO2 TWR VIS 1 1/2 SLP200 P0001 60001 T10281039 56023
14837KMSN MSN20020131085511101/31/02 08:55:31  5-MIN KMSN 311455Z 03011KT 1SM -SN BR OVC011 M03/M04 A3008 710 92 -1200 030/11 RMK AO2 P0000
14837KMSN MSN20020131090011101/31/02 09:00:31  5-MIN KMSN 311500Z 03009KT 1SM -SN BR OVC009 M03/M04 A3009 710 92 -1200 030/09 RMK AO2 P0000
14837KMSN MSN20020131090511001/31/02 09:05:31  5-MIN KMSN 311505Z 03009KT 1SM -SN BR VV009 M03/M04 A3010 700 92 -1200 030/09 RMK AO2 P0000
14837KMSN MSN20020131091011001/31/02 09:10:31  5-MIN KMSN 311510Z 03010KT 1SM -SN BR VV008 M02/M04 A3010 700 88 -1200 030/10 RMK AO2 P0001
14837KMSN MSN20020131091512201/31/02 09:15:31  5-MIN KMSN 311515Z 03009KT 3/4SM -SN BR VV007 M02/M04 A3010 700 88 -1200 030/09 RMK AO2 TWR VIS 1 P0001
14837KMSN MSN20020131092012201/31/02 09:20:31  5-MIN KMSN 311520Z 03011KT 3/4SM -SN BR VV007 M02/M04 A3010 700 88 -1200 030/11 RMK AO2 TWR VIS 1 P0001
14837KMSN MSN20020131092512201/31/02 09:25:31  5-MIN KMSN 311525Z 02011KT 3/4SM -SN BR VV006 M02/M03 A3009 710 92 -1100 020/11 RMK AO2 TWR VIS 1 P0001
14837KMSN MSN20020131093012201/31/02 09:30:31  5-MIN KMSN 311530Z 02011KT 3/4SM -SN BR VV007 M02/M04 A3009 710 88 -1100 020/11 RMK AO2 TWR VIS 1 P0001
14837KMSN MSN20020131093511001/31/02 09:35:31  5-MIN KMSN 311535Z 02011KT 1SM -SN BR VV007 M02/M03 A3009 710 92 -1100 020/11 RMK AO2 P0001
14837KMSN MSN20020131094011001/31/02 09:40:31  5-MIN KMSN 311540Z 02012KT 1SM -SN BR VV008 M02/M03 A3009 710 92 -1100 020/12 RMK AO2 P0001
14837KMSN MSN20020131094511001/31/02 09:45:31  5-MIN KMSN 311545Z 02013KT 1SM -SN BR VV008 M02/M03 A3009 710 92 -1100 020/13 RMK AO2 P0001
14837KMSN MSN20020131095014201/31/02 09:50:31  5-MIN KMSN 311550Z 02013KT 1SM -SN BR OVC009 M02/M03 A3008 710 92 -1100 020/13 RMK AO2 SFC VIS 1 1/4 SLP199 P0002 T10221033
14837KMSN MSN20020131095511801/31/02 09:55:31  5-MIN KMSN 311555Z 02013KT 1SM -SN BR BKN009 OVC029 M02/M03 A3008 710 92 -1100 020/13 RMK AO2 P0000
14837KMSN MSN20020131100013201/31/02 10:00:31  5-MIN KMSN 311600Z 03013KT 1SM -SN BR BKN009 OVC029 M02/M03 A3009 710 92 -1100 020/13 RMK AO2 SFC VIS 1 1/2 P0000
14837KMSN MSN20020131100513201/31/02 10:05:31  5-MIN KMSN 311605Z 02012KT 1SM -SN BR SCT009 OVC029 M02/M03 A3008 710 92 -1100 020/12 RMK AO2 SFC VIS 1 1/2 P0000
14837KMSN MSN20020131101013201/31/02 10:10:31  5-MIN KMSN 311610Z 02014KT 1SM -SN BR FEW009 OVC029 M02/M03 A3008 720 92 -1100 020/14 RMK AO2 SFC VIS 1 1/2 P0000
14837KMSN MSN20020131101513501/31/02 10:15:31  5-MIN KMSN 311615Z 02015KT 1SM -SN BR FEW007 SCT021 OVC029 M02/M03 A3008 720 92 -1100 020/15 RMK AO2 SFC VIS 2 P0000
14837KMSN MSN20020131102012801/31/02 10:20:31  5-MIN KMSN 311620Z 02016KT 1SM -SN BR FEW007 OVC029 M02/M03 A3007 720 92 -1100 020/16 RMK AO2 SFC VIS 2 P0000
14837KMSN MSN20020131102513901/31/02 10:25:31  5-MIN KMSN 311625Z 02015KT 1 1/2SM -SN BR FEW007 BKN024 OVC036 M02/M03 A3007 730 88 -1100 020/15 RMK AO2 SFC VIS 2 P0000
14837KMSN MSN20020131103013901/31/02 10:30:31  5-MIN KMSN 311630Z 02015KT 1 1/2SM -SN BR FEW009 BKN022 OVC036 M02/M03 A3006 740 88 -1000 020/15 RMK AO2 SFC VIS 2 P0000
14837KMSN MSN20020131103513901/31/02 10:35:31  5-MIN KMSN 311635Z 02016KT 1 1/2SM -SN BR FEW009 BKN020 OVC036 M02/M03 A3006 740 88 -1000 020/16 RMK AO2 SFC VIS 2 P0000
14837KMSN MSN20020131104013901/31/02 10:40:31  5-MIN KMSN 311640Z 02015KT 1 1/2SM -SN BR FEW009 BKN020 OVC036 M02/M03 A3007 730 88 -1000 020/15 RMK AO2 SFC VIS 2 P0000
14837KMSN MSN20020131104513901/31/02 10:45:31  5-MIN KMSN 311645Z 02016KT 1 1/2SM -SN BR FEW009 SCT020 OVC036 M02/M03 A3007 730 88 -1100 020/16 RMK AO2 SFC VIS 2 P0000
14837KMSN MSN20020131105016301/31/02 10:50:31  5-MIN KMSN 311650Z 02016KT 1 1/2SM -SN BR FEW011 SCT020 OVC036 M02/M03 A3008 720 88 -1100 020/16 RMK AO2 SFC VIS 2 PRESRR SLP198 P0001 T10171033
14837KMSN MSN20020131105513901/31/02 10:55:31  5-MIN KMSN 311655Z 03016KT 1 1/2SM -SN BR FEW011 SCT017 OVC036 M02/M03 A3007 730 88 -1000 020/16 RMK AO2 SFC VIS 2 P0000
14837KMSN MSN20020131110014201/31/02 11:00:31  5-MIN KMSN 311700Z 03016G21KT 1 1/2SM -SN BR FEW011 OVC036 M02/M04 A3006 730 85 -1000 030/16G21 RMK AO2 SFC VIS 2 1/2 P0000
14837KMSN MSN20020131110513801/31/02 11:05:31  5-MIN KMSN 311705Z 03015G21KT 2 1/2SM -SN BR FEW011 OVC036 M02/M03 A3006 730 88 -1000 030/15G21 RMK AO2 SFC VIS 3 P0000
14837KMSN MSN20020131111013401/31/02 11:10:31  5-MIN KMSN 311710Z 03012KT 2 1/2SM BR FEW011 OVC036 M01/M03 A3007 730 85 -1000 030/12 RMK AO2 SFC VIS 3 SNE08 P0000
14837KMSN MSN20020131111513401/31/02 11:15:31  5-MIN KMSN 311715Z 03015KT 2 1/2SM BR FEW011 OVC036 M02/M03 A3006 730 88 -1000 030/15 RMK AO2 SFC VIS 3 SNE08 P0000
14837KMSN MSN20020131112013401/31/02 11:20:31  5-MIN KMSN 311720Z 03014KT 2 1/2SM BR FEW011 OVC036 M02/M03 A3006 730 88 -1000 030/14 RMK AO2 SFC VIS 3 SNE08 P0000
14837KMSN MSN20020131112513201/31/02 11:25:31  5-MIN KMSN 311725Z 04014KT 2 1/2SM -SN BR FEW013 OVC036 M01/M03 A3006 740 85 -1000 040/14 RMK AO2 SFC VIS 3 P0000
14837KMSN MSN20020131113013401/31/02 11:30:31  5-MIN KMSN 311730Z 03015KT 2 1/2SM BR FEW011 OVC036 M01/M03 A3005 740 85 -1000 030/15 RMK AO2 SFC VIS 3 SNE30 P0000
14837KMSN MSN20020131113514001/31/02 11:35:31  5-MIN KMSN 311735Z 04017KT 2 1/2SM BR SCT013 OVC036 M01/M03 A3004 750 85 -900 030/17 RMK AO2 SFC VIS 3 SNE30 PRESFR P0000
14837KMSN MSN20020131114014001/31/02 11:40:31  5-MIN KMSN 311740Z 03014KT 2 1/2SM BR SCT013 OVC036 M01/M03 A3004 760 85 -900 030/14 RMK AO2 SFC VIS 3 SNE30 PRESFR P0000
14837KMSN MSN20020131114514701/31/02 11:45:31  5-MIN KMSN 311745Z 04016KT 2 1/2SM BR BKN013 BKN017 OVC036 M01/M03 A3003 770 85 -900 040/16 RMK AO2 SFC VIS 3 SNE30 PRESFR P0000
14837KMSN MSN20020131115019401/31/02 11:50:31  5-MIN KMSN 311750Z 04019G24KT 2 1/2SM BR BKN013 BKN017 OVC036 M01/M03 A3002 770 85 -900 040/19G24 RMK AO2 SFC VIS 3 SNE30 PRESFR SLP178 P0000 60004 T10111033 11011 21028 50001
14837KMSN MSN20020131115513401/31/02 11:55:31  5-MIN KMSN 311755Z 04017G24KT 2 1/2SM BR BKN013 OVC034 M01/M03 A3001 780 85 -900 040/17G24 RMK AO2 SFC VIS 4 PRESFR
14837KMSN MSN20020131120012101/31/02 12:00:31  5-MIN KMSN 311800Z 04018KT 2 1/2SM BR BKN013 OVC034 M01/M03 A3001 780 85 -900 040/18 RMK AO2 SFC VIS 4
14837KMSN MSN20020131120512801/31/02 12:05:31  5-MIN KMSN 311805Z 03015KT 2 1/2SM BR BKN013 BKN018 OVC034 M01/M03 A3001 790 85 -900 030/15 RMK AO2 SFC VIS 4
14837KMSN MSN20020131121012801/31/02 12:10:31  5-MIN KMSN 311810Z 04016KT 2 1/2SM BR BKN013 BKN018 OVC031 M01/M03 A3000 790 85 -900 040/16 RMK AO2 SFC VIS 3
14837KMSN MSN20020131121512101/31/02 12:15:31  5-MIN KMSN 311815Z 04015KT 2 1/2SM BR BKN013 OVC029 M01/M03 A3000 790 85 -900 040/15 RMK AO2 SFC VIS 3
14837KMSN MSN20020131122011401/31/02 12:20:31  5-MIN KMSN 311820Z 03017KT 2 1/2SM BR OVC013 M01/M03 A3000 790 85 -900 030/17 RMK AO2 SFC VIS 3
14837KMSN MSN20020131122510401/31/02 12:25:31  5-MIN KMSN 311825Z 04013KT 2 1/2SM BR OVC013 M01/M03 A3000 790 85 -900 040/13 RMK AO2
14837KMSN MSN20020131123010401/31/02 12:30:31  5-MIN KMSN 311830Z 04015KT 2 1/2SM BR OVC013 M01/M03 A3000 790 85 -900 030/15 RMK AO2
14837KMSN MSN20020131123511401/31/02 12:35:31  5-MIN KMSN 311835Z 04017KT 2 1/2SM BR OVC013 M01/M03 A3000 790 85 -900 040/17 RMK AO2 SFC VIS 3
14837KMSN MSN20020131124011401/31/02 12:40:31  5-MIN KMSN 311840Z 04013KT 2 1/2SM BR OVC013 M01/M03 A3000 790 85 -900 040/13 RMK AO2 SFC VIS 3
14837KMSN MSN20020131124511401/31/02 12:45:31  5-MIN KMSN 311845Z 04012KT 2 1/2SM BR OVC013 M01/M03 A2999 800 85 -900 040/12 RMK AO2 SFC VIS 4
14837KMSN MSN20020131125011701/31/02 12:50:31  5-MIN KMSN 311850Z 04014KT 5SM BR OVC013 M01/M03 A3000 790 85 -900 040/14 RMK AO2 SLP169 T10111033
14837KMSN MSN20020131125510001/31/02 12:55:31  5-MIN KMSN 311855Z 05015KT 5SM BR OVC013 M01/M03 A3000 790 85 -900 050/15 RMK AO2
14837KMSN MSN20020131130010001/31/02 13:00:31  5-MIN KMSN 311900Z 05016KT 5SM BR OVC013 M01/M03 A3000 790 85 -900 050/16 RMK AO2
14837KMSN MSN20020131130510001/31/02 13:05:31  5-MIN KMSN 311905Z 05012KT 5SM BR OVC013 M01/M03 A3001 790 85 -900 050/12 RMK AO2
14837KMSN MSN20020131131009701/31/02 13:10:31  5-MIN KMSN 311910Z 04013KT 7SM OVC013 M01/M03 A3000 790 85 -900 040/13 RMK AO2
14837KMSN MSN20020131131509701/31/02 13:15:31  5-MIN KMSN 311915Z 05014KT 7SM OVC013 M01/M03 A2999 800 88 -900 050/14 RMK AO2
14837KMSN MSN20020131132009801/31/02 13:20:31  5-MIN KMSN 311920Z 05014KT 10SM OVC013 M01/M03 A2999 800 85 -900 050/14 RMK AO2
14837KMSN MSN20020131132509801/31/02 13:25:31  5-MIN KMSN 311925Z 05015KT 10SM OVC013 M01/M03 A2998 810 85 -900 050/15 RMK AO2
14837KMSN MSN20020131133009801/31/02 13:30:31  5-MIN KMSN 311930Z 05015KT 10SM OVC013 M01/M03 A2997 810 85 -900 040/15 RMK AO2
14837KMSN MSN20020131133509801/31/02 13:35:31  5-MIN KMSN 311935Z 05015KT 10SM OVC013 M01/M03 A2997 820 85 -900 050/15 RMK AO2
14837KMSN MSN20020131134009801/31/02 13:40:31  5-MIN KMSN 311940Z 05015KT 10SM OVC011 M01/M03 A2997 820 88 -900 050/15 RMK AO2
14837KMSN MSN20020131134509801/31/02 13:45:31  5-MIN KMSN 311945Z 05013KT 10SM OVC011 M01/M03 A2997 820 88 -900 050/13 RMK AO2
14837KMSN MSN20020131135012701/31/02 13:50:31  5-MIN KMSN 311950Z 05014KT 10SM OVC011 M01/M03 A2998 810 88 -900 050/14 RMK AO2 CIG 009V015 SLP162 T10111028
14837KMSN MSN20020131135511001/31/02 13:55:31  5-MIN KMSN 311955Z 05013KT 10SM OVC011 M01/M03 A2998 810 88 -900 050/13 RMK AO2 CIG 009V013
14837KMSN MSN20020131140009801/31/02 14:00:31  5-MIN KMSN 312000Z 05016KT 10SM OVC011 M01/M03 A2997 820 85 -900 050/16 RMK AO2
14837KMSN MSN20020131140510401/31/02 14:05:31  5-MIN KMSN 312005Z 05011G19KT 10SM OVC011 M01/M03 A2997 820 88 -900 050/11G19 RMK AO2
14837KMSN MSN20020131141009801/31/02 14:10:31  5-MIN KMSN 312010Z 05012KT 10SM OVC011 M01/M03 A2997 820 88 -900 050/12 RMK AO2
14837KMSN MSN20020131141509801/31/02 14:15:31  5-MIN KMSN 312015Z 05012KT 10SM OVC011 M01/M03 A2997 820 88 -900 050/12 RMK AO2
14837KMSN MSN20020131142009801/31/02 14:20:31  5-MIN KMSN 312020Z 05012KT 10SM OVC011 M01/M03 A2997 820 88 -900 050/12 RMK AO2
14837KMSN MSN20020131142509801/31/02 14:25:31  5-MIN KMSN 312025Z 05013KT 10SM OVC011 M01/M03 A2996 830 88 -900 050/13 RMK AO2
14837KMSN MSN20020131143009801/31/02 14:30:31  5-MIN KMSN 312030Z 05014KT 10SM OVC011 M01/M03 A2996 830 88 -900 050/14 RMK AO2
14837KMSN MSN20020131143509801/31/02 14:35:31  5-MIN KMSN 312035Z 04012KT 10SM OVC011 M01/M03 A2997 820 88 -900 040/12 RMK AO2
14837KMSN MSN20020131144009801/31/02 14:40:31  5-MIN KMSN 312040Z 04012KT 10SM OVC011 M01/M03 A2996 820 88 -900 040/12 RMK AO2
14837KMSN MSN20020131144509801/31/02 14:45:31  5-MIN KMSN 312045Z 04012KT 10SM OVC011 M01/M03 A2997 820 88 -900 040/12 RMK AO2
14837KMSN MSN20020131145012101/31/02 14:50:31  5-MIN KMSN 312050Z 04010KT 10SM OVC011 M01/M03 A2998 810 88 -900 040/10 RMK AO2 SLP162 T10111028 58024
14837KMSN MSN20020131145509801/31/02 14:55:31  5-MIN KMSN 312055Z 04011KT 10SM OVC011 M01/M03 A2997 820 88 -900 040/11 RMK AO2
14837KMSN MSN20020131150009801/31/02 15:00:31  5-MIN KMSN 312100Z 05010KT 10SM OVC011 M01/M03 A2996 830 88 -900 050/10 RMK AO2
14837KMSN MSN20020131150509801/31/02 15:05:31  5-MIN KMSN 312105Z 04010KT 10SM OVC011 M01/M03 A2996 830 88 -900 040/10 RMK AO2
14837KMSN MSN20020131151009801/31/02 15:10:31  5-MIN KMSN 312110Z 06013KT 10SM OVC011 M01/M03 A2996 820 85 -900 060/13 RMK AO2
14837KMSN MSN20020131151509801/31/02 15:15:31  5-MIN KMSN 312115Z 05011KT 10SM OVC011 M01/M03 A2996 830 88 -800 050/11 RMK AO2
14837KMSN MSN20020131152009801/31/02 15:20:31  5-MIN KMSN 312120Z 04010KT 10SM OVC011 M01/M03 A2997 820 88 -900 040/10 RMK AO2
14837KMSN MSN20020131152509801/31/02 15:25:31  5-MIN KMSN 312125Z 05011KT 10SM OVC011 M01/M03 A2996 820 88 -900 040/11 RMK AO2
14837KMSN MSN20020131153009801/31/02 15:30:31  5-MIN KMSN 312130Z 04012KT 10SM OVC011 M01/M03 A2996 820 88 -900 040/12 RMK AO2
14837KMSN MSN20020131153511001/31/02 15:35:31  5-MIN KMSN 312135Z 04012KT 10SM OVC011 M01/M03 A2995 830 88 -800 040/12 RMK AO2 CIG 009V013
14837KMSN MSN20020131154011001/31/02 15:40:31  5-MIN KMSN 312140Z 04012KT 10SM OVC011 M01/M03 A2995 840 88 -800 040/12 RMK AO2 CIG 009V013
14837KMSN MSN20020131154509801/31/02 15:45:31  5-MIN KMSN 312145Z 04012KT 10SM OVC011 M01/M03 A2994 840 88 -800 040/12 RMK AO2
14837KMSN MSN20020131155012201/31/02 15:50:31  5-MIN KMSN 312150Z 05011KT 10SM OVC011 M01/M03 A2994 850 88 -800 050/11 RMK AO2 PRESFR SLP149 T10111028
14837KMSN MSN20020131155509801/31/02 15:55:31  5-MIN KMSN 312155Z 05011KT 10SM OVC011 M01/M03 A2994 850 88 -800 050/11 RMK AO2
14837KMSN MSN20020131160009801/31/02 16:00:31  5-MIN KMSN 312200Z 05010KT 10SM OVC011 M01/M03 A2994 850 88 -800 050/10 RMK AO2
14837KMSN MSN20020131160509801/31/02 16:05:31  5-MIN KMSN 312205Z 05013KT 10SM OVC011 M01/M03 A2994 840 88 -800 050/13 RMK AO2
14837KMSN MSN20020131161009801/31/02 16:10:31  5-MIN KMSN 312210Z 06013KT 10SM OVC011 M01/M03 A2995 840 88 -800 060/13 RMK AO2
14837KMSN MSN20020131161509801/31/02 16:15:31  5-MIN KMSN 312215Z 06010KT 10SM OVC011 M01/M03 A2994 840 88 -800 060/10 RMK AO2
14837KMSN MSN20020131192012801/31/02 19:20:31  5-MIN KMSN 010120Z 05012KT 1 1/2SM -FZDZSN BR OVC011 M01/M02 A2983 950 92 -700 050/12 RMK AO2 TWR VIS 2 P0001
14837KMSN MSN20020131192514101/31/02 19:25:31  5-MIN KMSN 010125Z 04010KT 2SM -FZDZPLSN BR BKN009 OVC014 M01/M02 A2983 950 96 -700 040/10 RMK AO2 PLB21 CIG 006V011 P0001
14837KMSN MSN20020131193013501/31/02 19:30:31  5-MIN KMSN 010130Z 04012KT 2SM -FZDZSN BR OVC009 M01/M03 A2982 950 88 -700 040/12 RMK AO2 PLB21E28 CIG 006V014 P0002
14837KMSN MSN20020131193512301/31/02 19:35:31  5-MIN KMSN 010135Z 05014KT 2SM -FZDZSN BR OVC009 M01/M02 A2983 950 92 -700 050/14 RMK AO2 PLB21E28 P0002
14837KMSN MSN20020131194012301/31/02 19:40:31  5-MIN KMSN 010140Z 04012KT 2SM -FZDZSN BR OVC009 M01/M02 A2982 950 96 -700 040/12 RMK AO2 PLB21E28 P0002
14837KMSN MSN20020131194515601/31/02 19:45:31  5-MIN KMSN 010145Z 04011KT 2SM -FZDZSN BR BKN009 OVC013 M01/M02 A2982 960 92 -700 040/11 RMK AO2 SFC VIS 2 1/2 PLB21E28 CIG 006V011 P0002
14837KMSN MSN20020131195016601/31/02 19:50:31  5-MIN KMSN 010150Z 03012KT 2SM -FZDZSN BR OVC009 M01/M02 A2981 960 92 -700 030/12 RMK AO2 SFC VIS 2 1/2 PLB21E28 CIG 006V013 SLP106 P0002 T10111022
14837KMSN MSN20020131195512801/31/02 19:55:31  5-MIN KMSN 010155Z 03010KT 1 3/4SM -FZDZSN BR OVC009 M01/M02 A2982 960 92 -700 030/10 RMK AO2 TWR VIS 2 P0001
14837KMSN MSN20020131200011801/31/02 20:00:31  5-MIN KMSN 010200Z 03010KT 1 1/2SM -FZDZSN BR OVC009 M01/M02 A2982 960 92 -700 020/10 RMK AO2 P0001
14837KMSN MSN20020131200511801/31/02 20:05:31  5-MIN KMSN 010205Z 03011KT 1 1/2SM -FZDZSN BR OVC009 M01/M02 A2981 960 92 -700 030/11 RMK AO2 P0001
14837KMSN MSN20020131201011801/31/02 20:10:31  5-MIN KMSN 010210Z 02011KT 1 1/2SM -FZDZSN BR OVC009 M01/M02 A2981 960 92 -700 020/11 RMK AO2 P0001
14837KMSN MSN20020131201512801/31/02 20:15:31  5-MIN KMSN 010215Z 02011KT 1SM -FZDZSN BR OVC009 M01/M02 A2981 970 92 -700 020/11 RMK AO2 TWR VIS 1 1/2 P0001
14837KMSN MSN20020131202013501/31/02 20:20:31  5-MIN KMSN 010220Z 02013KT 1SM -FZDZSN BR BKN006 OVC011 M02/M02 A2980 980 96 -700 020/13 RMK AO2 TWR VIS 1 1/2 P0002
14837KMSN MSN20020131202512101/31/02 20:25:31  5-MIN KMSN 010225Z 02013KT 1SM -FZDZSN BR BKN006 OVC011 M02/M02 A2980 980 96 -700 020/13 RMK AO2 P0002
14837KMSN MSN20020131203011301/31/02 20:30:31  5-MIN KMSN 010230Z 01012KT 1SM -FZDZSN BR VV006 M02/M02 A2980 980 96 -700 010/12 RMK AO2 P0003
14837KMSN MSN20020131203511301/31/02 20:35:31  5-MIN KMSN 010235Z 02011KT 1SM -FZDZSN BR VV005 M02/M02 A2979 980 96 -700 020/11 RMK AO2 P0003
14837KMSN MSN20020131204011301/31/02 20:40:31  5-MIN KMSN 010240Z 02013KT 1SM -FZDZSN BR VV006 M02/M02 A2978 990 96 -700 020/13 RMK AO2 P0004
14837KMSN MSN20020131204512201/31/02 20:45:31  5-MIN KMSN 010245Z 03013KT 1SM -FZDZSN BR BKN006 OVC019 M02/M02 A2978 1000 96 -700 030/13 RMK AO2 P0004
14837KMSN MSN20020131205014301/31/02 20:50:31  5-MIN KMSN 010250Z 02010KT 1SM -FZDZSN BR OVC006 M02/M02 A2978 990 96 -700 020/10 RMK AO2 SLP095 P0004 60006 T10171022 58030
14837KMSN MSN20020131205512201/31/02 20:55:31  5-MIN KMSN 010255Z 02014KT 1SM -FZDZSN BR BKN006 OVC019 M02/M02 A2978 1000 96 -700 020/14 RMK AO2 P0000
14837KMSN MSN20020131210012901/31/02 21:00:31  5-MIN KMSN 010300Z 02013KT 1SM -FZDZSN BR BKN006 BKN019 OVC025 M02/M02 A2977 1000 96 -700 020/13 RMK AO2 P0000
14837KMSN MSN20020131210512201/31/02 21:05:31  5-MIN KMSN 010305Z 01014KT 1SM -FZDZSN BR BKN008 OVC023 M02/M03 A2977 1000 92 -700 010/14 RMK AO2 P0000
14837KMSN MSN20020131211012901/31/02 21:10:31  5-MIN KMSN 010310Z 02013KT 1SM -FZDZSN BR BKN008 BKN019 OVC025 M02/M03 A2977 1000 92 -700 010/13 RMK AO2 P0000
14837KMSN MSN20020131211512201/31/02 21:15:31  5-MIN KMSN 010315Z 02014KT 1SM -FZDZSN BR BKN008 OVC023 M02/M03 A2977 1000 92 -700 020/14 RMK AO2 P0001
14837KMSN MSN20020131212012901/31/02 21:20:31  5-MIN KMSN 010320Z 01015KT 1SM -FZDZSN BR BKN008 BKN018 OVC023 M02/M03 A2977 1000 92 -700 010/15 RMK AO2 P0001
14837KMSN MSN20020131212512201/31/02 21:25:31  5-MIN KMSN 010325Z 02014KT 1SM -FZDZSN BR SCT008 OVC023 M02/M03 A2977 1000 92 -700 010/14 RMK AO2 P0001
14837KMSN MSN20020131213012201/31/02 21:30:31  5-MIN KMSN 010330Z 01013KT 1SM -FZDZSN BR BKN008 OVC023 M02/M03 A2976 1010 92 -700 010/13 RMK AO2 P0001
14837KMSN MSN20020131213512201/31/02 21:35:31  5-MIN KMSN 010335Z 01014KT 1SM -FZDZSN BR BKN008 OVC023 M02/M03 A2976 1010 92 -700 010/14 RMK AO2 P0001
14837KMSN MSN20020131214012201/31/02 21:40:31  5-MIN KMSN 010340Z 01014KT 1SM -FZDZSN BR FEW008 OVC023 M02/M03 A2976 1010 92 -700 010/14 RMK AO2 P0001
14837KMSN MSN20020131214512201/31/02 21:45:31  5-MIN KMSN 010345Z 01014KT 1SM -FZDZSN BR FEW008 OVC023 M02/M03 A2976 1010 92 -700 010/14 RMK AO2 P0001
14837KMSN MSN20020131215014301/31/02 21:50:31  5-MIN KMSN 010350Z 01014KT 1SM -SN BR SCT008 OVC023 M02/M03 A2976 1020 92 -700 010/14 RMK AO2 FZDZE47 SLP087 P0002 T10171028
14837KMSN MSN20020131215511801/31/02 21:55:31  5-MIN KMSN 010355Z 01013KT 1SM -SN BR SCT008 OVC023 M02/M03 A2976 1020 92 -700 010/13 RMK AO2 P0000
14837KMSN MSN20020131220011801/31/02 22:00:31  5-MIN KMSN 010400Z 01016KT 1SM -SN BR SCT008 OVC023 M02/M03 A2975 1020 96 -800 010/16 RMK AO2 P0000
14837KMSN MSN20020131220511801/31/02 22:05:31  5-MIN KMSN 010405Z 36017KT 1SM -SN BR BKN008 OVC023 M03/M03 A2975 1030 96 -800 360/17 RMK AO2 P0000
14837KMSN MSN20020131221012501/31/02 22:10:31  5-MIN KMSN 010410Z 36016KT 1SM -SN BR BKN008 BKN013 OVC023 M03/M04 A2974 1030 92 -800 360/16 RMK AO2 P0000
14837KMSN MSN20020131221511801/31/02 22:15:31  5-MIN KMSN 010415Z 01016KT 1SM -SN BR BKN008 OVC017 M03/M04 A2974 1030 92 -800 360/16 RMK AO2 P0000
14837KMSN MSN20020131222011801/31/02 22:20:31  5-MIN KMSN 010420Z 36015KT 1SM -SN BR BKN006 OVC015 M03/M04 A2974 1030 92 -800 360/15 RMK AO2 P0000
14837KMSN MSN20020131222511801/31/02 22:25:31  5-MIN KMSN 010425Z 36014KT 1SM -SN BR BKN006 OVC011 M03/M04 A2974 1030 92 -800 360/14 RMK AO2 P0000
14837KMSN MSN20020131223013101/31/02 22:30:31  5-MIN KMSN 010430Z 01020G23KT 1SM -SN BR BKN006 OVC015 M03/M04 A2972 1050 96 -900 010/20G23 RMK AO2 PRESFR P0000
14837KMSN MSN20020131223511601/31/02 22:35:31  5-MIN KMSN 010435Z 36014G23KT 1SM -SN BR VV006 M03/M04 A2974 1040 92 -900 360/14G23 RMK AO2 P0000
14837KMSN MSN20020131224011601/31/02 22:40:31  5-MIN KMSN 010440Z 36012G18KT 1SM -SN BR VV006 M03/M04 A2973 1040 96 -900 360/12G18 RMK AO2 P0000
14837KMSN MSN20020131224511001/31/02 22:45:31  5-MIN KMSN 010445Z 36013KT 1SM -SN BR VV006 M03/M04 A2974 1030 92 -900 350/13 RMK AO2 P0001
14837KMSN MSN20020131225014201/31/02 22:50:31  5-MIN KMSN 010450Z 36014G19KT 1SM -SN BR BKN006 OVC018 M04/M04 A2974 1030 96 -1000 360/14G19 RMK AO2 SLP083 P0001 T10391044
14837KMSN MSN20020131225512501/31/02 22:55:31  5-MIN KMSN 010455Z 36014G19KT 1SM -SN BR BKN006 OVC018 M04/M06 A2974 1030 88 -1000 360/14G19 RMK AO2 P0000
14837KMSN MSN20020131230011901/31/02 23:00:31  5-MIN KMSN 010500Z 36014KT 1SM -SN BR BKN006 OVC018 M04/M05 A2974 1030 92 -1000 360/14 RMK AO2 P0000
14837KMSN MSN20020131230511901/31/02 23:05:31  5-MIN KMSN 010505Z 01014KT 1SM -SN BR BKN008 OVC018 M04/M06 A2973 1040 92 -1000 360/14 RMK AO2 P0000
14837KMSN MSN20020131231011901/31/02 23:10:31  5-MIN KMSN 010510Z 36014KT 1SM -SN BR BKN008 OVC018 M04/M06 A2973 1040 92 -1000 360/14 RMK AO2 P0000
14837KMSN MSN20020131231511901/31/02 23:15:31  5-MIN KMSN 010515Z 36014KT 1SM -SN BR BKN006 OVC020 M04/M06 A2973 1040 92 -1000 360/14 RMK AO2 P0000
14837KMSN MSN20020131232011101/31/02 23:20:31  5-MIN KMSN 010520Z 36013KT 1SM -SN BR VV006 M04/M06 A2973 1040 92 -1000 360/13 RMK AO2 P0000
14837KMSN MSN20020131232511101/31/02 23:25:31  5-MIN KMSN 010525Z 36014KT 1SM -SN BR VV006 M04/M06 A2973 1040 92 -1000 360/14 RMK AO2 P0000
14837KMSN MSN20020131233011101/31/02 23:30:31  5-MIN KMSN 010530Z 36014KT 1SM -SN BR VV006 M04/M06 A2973 1040 92 -1000 360/14 RMK AO2 P0000
14837KMSN MSN20020131233511701/31/02 23:35:31  5-MIN KMSN 010535Z 36015G18KT 1SM -SN BR VV006 M04/M06 A2972 1050 92 -1000 360/15G18 RMK AO2 P0000
14837KMSN MSN20020131234011701/31/02 23:40:31  5-MIN KMSN 010540Z 36012G18KT 1SM -SN BR VV005 M04/M06 A2973 1040 92 -1000 360/12G18 RMK AO2 P0000
14837KMSN MSN20020131234511101/31/02 23:45:31  5-MIN KMSN 010545Z 36012KT 1SM -SN BR VV005 M04/M05 A2973 1040 96 -1000 360/12 RMK AO2 P0001
14837KMSN MSN20020131235016201/31/02 23:50:31  5-MIN KMSN 010550Z 36012KT 1SM -SN BR VV005 M04/M06 A2973 1040 92 -1000 360/12 RMK AO2 SLP077 P0001 60010 T10441056 11011 21044 410111044 56032
14837KMSN MSN20020131235511101/31/02 23:55:31  5-MIN KMSN 010555Z 36011KT 1SM -SN BR VV005 M04/M06 A2972 1050 92 -1000 360/11 RMK AO2 P0000
