14837KMSN MSN20051001000009210/01/05 00:00:49  5-MIN KMSN 010600Z 18006KT 10SM CLR 14/06 A2995 840 59 900 180/06 RMK AO2
14837KMSN MSN20051001000509210/01/05 00:05:31  5-MIN KMSN 010605Z 18005KT 10SM CLR 14/06 A2995 840 59 900 180/05 RMK AO2
14837KMSN MSN20051001001009210/01/05 00:10:31  5-MIN KMSN 010610Z 18006KT 10SM CLR 14/06 A2995 840 59 900 180/06 RMK AO2
14837KMSN MSN20051001001509210/01/05 00:15:31  5-MIN KMSN 010615Z 18006KT 10SM CLR 14/06 A2995 830 59 900 180/06 RMK AO2
14837KMSN MSN20051001002009210/01/05 00:20:31  5-MIN KMSN 010620Z 18005KT 10SM CLR 14/06 A2995 830 59 900 180/05 RMK AO2
14837KMSN MSN20051001002509210/01/05 00:25:31  5-MIN KMSN 010625Z 19004KT 10SM CLR 14/06 A2996 830 59 900 190/04 RMK AO2
14837KMSN MSN20051001003009210/01/05 00:30:31  5-MIN KMSN 010630Z 18006KT 10SM CLR 14/06 A2996 830 59 900 180/06 RMK AO2
14837KMSN MSN20051001003509210/01/05 00:35:31  5-MIN KMSN 010635Z 19005KT 10SM CLR 13/06 A2996 830 61 900 180/05 RMK AO2
14837KMSN MSN20051001004009210/01/05 00:40:31  5-MIN KMSN 010640Z 19006KT 10SM CLR 13/06 A2996 830 61 900 180/06 RMK AO2
14837KMSN MSN20051001004509210/01/05 00:45:31  5-MIN KMSN 010645Z 18007KT 10SM CLR 14/06 A2996 830 59 900 180/07 RMK AO2
14837KMSN MSN20051001005010910/01/05 00:50:31  5-MIN KMSN 010650Z 18007KT 10SM CLR 14/06 A2996 830 59 900 180/07 RMK AO2 SLP144 T01390061
14837KMSN MSN20051001005509210/01/05 00:55:31  5-MIN KMSN 010655Z 18007KT 10SM CLR 14/06 A2996 830 59 900 180/07 RMK AO2
14837KMSN MSN20051001010009210/01/05 01:00:31  5-MIN KMSN 010700Z 18008KT 10SM CLR 14/06 A2996 830 59 900 180/08 RMK AO2
14837KMSN MSN20051001010509210/01/05 01:05:31  5-MIN KMSN 010705Z 18006KT 10SM CLR 14/06 A2996 830 59 900 180/06 RMK AO2
14837KMSN MSN20051001011009210/01/05 01:10:31  5-MIN KMSN 010710Z 18007KT 10SM CLR 13/06 A2996 830 61 900 180/07 RMK AO2
14837KMSN MSN20051001011509210/01/05 01:15:31  5-MIN KMSN 010715Z 18007KT 10SM CLR 13/06 A2996 820 61 900 180/07 RMK AO2
14837KMSN MSN20051001012009210/01/05 01:20:31  5-MIN KMSN 010720Z 18007KT 10SM CLR 13/06 A2996 830 61 900 180/07 RMK AO2
14837KMSN MSN20051001012509210/01/05 01:25:31  5-MIN KMSN 010725Z 18009KT 10SM CLR 13/07 A2996 830 64 900 180/09 RMK AO2
14837KMSN MSN20051001013009210/01/05 01:30:31  5-MIN KMSN 010730Z 19007KT 10SM CLR 13/07 A2996 830 64 900 190/07 RMK AO2
14837KMSN MSN20051001013509210/01/05 01:35:31  5-MIN KMSN 010735Z 19007KT 10SM CLR 13/07 A2996 830 64 900 180/07 RMK AO2
14837KMSN MSN20051001014009210/01/05 01:40:31  5-MIN KMSN 010740Z 19007KT 10SM CLR 13/07 A2996 830 64 900 180/07 RMK AO2
14837KMSN MSN20051001014509210/01/05 01:45:31  5-MIN KMSN 010745Z 18006KT 10SM CLR 13/07 A2996 830 64 900 180/06 RMK AO2
14837KMSN MSN20051001015010910/01/05 01:50:31  5-MIN KMSN 010750Z 18006KT 10SM CLR 13/07 A2996 830 66 800 180/06 RMK AO2 SLP145 T01280067
14837KMSN MSN20051001015509210/01/05 01:55:31  5-MIN KMSN 010755Z 18006KT 10SM CLR 13/07 A2996 830 64 900 180/06 RMK AO2
14837KMSN MSN20051001020009210/01/05 02:00:31  5-MIN KMSN 010800Z 18006KT 10SM CLR 13/07 A2996 830 66 800 180/06 RMK AO2
14837KMSN MSN20051001020509210/01/05 02:05:31  5-MIN KMSN 010805Z 19006KT 10SM CLR 13/07 A2996 820 66 800 190/06 RMK AO2
14837KMSN MSN20051001021009210/01/05 02:10:31  5-MIN KMSN 010810Z 20006KT 10SM CLR 13/07 A2996 820 66 800 200/06 RMK AO2
14837KMSN MSN20051001021509210/01/05 02:15:31  5-MIN KMSN 010815Z 19006KT 10SM CLR 13/07 A2996 820 64 900 190/06 RMK AO2
14837KMSN MSN20051001022009210/01/05 02:20:31  5-MIN KMSN 010820Z 19006KT 10SM CLR 13/07 A2996 820 64 900 190/06 RMK AO2
14837KMSN MSN20051001022509210/01/05 02:25:31  5-MIN KMSN 010825Z 19007KT 10SM CLR 13/07 A2996 820 64 900 190/07 RMK AO2
14837KMSN MSN20051001023009210/01/05 02:30:31  5-MIN KMSN 010830Z 19007KT 10SM CLR 13/07 A2996 830 64 900 190/07 RMK AO2
14837KMSN MSN20051001023509210/01/05 02:35:31  5-MIN KMSN 010835Z 19008KT 10SM CLR 13/07 A2996 830 64 900 190/08 RMK AO2
14837KMSN MSN20051001024009210/01/05 02:40:31  5-MIN KMSN 010840Z 19007KT 10SM CLR 13/07 A2996 830 66 800 190/07 RMK AO2
14837KMSN MSN20051001024509210/01/05 02:45:31  5-MIN KMSN 010845Z 19007KT 10SM CLR 13/07 A2997 820 66 800 190/07 RMK AO2
14837KMSN MSN20051001025011510/01/05 02:50:31  5-MIN KMSN 010850Z 20006KT 10SM CLR 13/07 A2997 820 64 900 200/06 RMK AO2 SLP147 T01330067 50007
14837KMSN MSN20051001025509210/01/05 02:55:31  5-MIN KMSN 010855Z 19007KT 10SM CLR 13/07 A2997 820 66 800 190/07 RMK AO2
14837KMSN MSN20051001030009210/01/05 03:00:31  5-MIN KMSN 010900Z 20007KT 10SM CLR 13/07 A2997 820 64 900 200/07 RMK AO2
14837KMSN MSN20051001030509210/01/05 03:05:31  5-MIN KMSN 010905Z 20006KT 10SM CLR 13/07 A2997 820 64 900 200/06 RMK AO2
14837KMSN MSN20051001031009210/01/05 03:10:31  5-MIN KMSN 010910Z 20007KT 10SM CLR 13/07 A2997 820 64 900 200/07 RMK AO2
14837KMSN MSN20051001031509210/01/05 03:15:31  5-MIN KMSN 010915Z 21006KT 10SM CLR 13/07 A2997 820 64 900 210/06 RMK AO2
14837KMSN MSN20051001032009210/01/05 03:20:31  5-MIN KMSN 010920Z 20008KT 10SM CLR 13/07 A2997 820 64 900 200/08 RMK AO2
14837KMSN MSN20051001032509210/01/05 03:25:31  5-MIN KMSN 010925Z 19008KT 10SM CLR 13/07 A2997 820 66 800 190/08 RMK AO2
14837KMSN MSN20051001033009210/01/05 03:30:31  5-MIN KMSN 010930Z 20007KT 10SM CLR 13/07 A2997 820 64 800 200/07 RMK AO2
14837KMSN MSN20051001033509210/01/05 03:35:31  5-MIN KMSN 010935Z 19008KT 10SM CLR 13/07 A2997 820 66 800 190/08 RMK AO2
14837KMSN MSN20051001034009210/01/05 03:40:31  5-MIN KMSN 010940Z 20007KT 10SM CLR 13/07 A2998 810 66 800 190/07 RMK AO2
14837KMSN MSN20051001034509210/01/05 03:45:31  5-MIN KMSN 010945Z 19009KT 10SM CLR 13/07 A2998 810 66 800 190/09 RMK AO2
14837KMSN MSN20051001035010910/01/05 03:50:31  5-MIN KMSN 010950Z 19009KT 10SM CLR 13/07 A2998 810 66 800 190/09 RMK AO2 SLP150 T01280067
14837KMSN MSN20051001035509210/01/05 03:55:31  5-MIN KMSN 010955Z 19008KT 10SM CLR 13/07 A2998 810 69 800 190/08 RMK AO2
14837KMSN MSN20051001040009210/01/05 04:00:31  5-MIN KMSN 011000Z 19008KT 10SM CLR 13/07 A2998 810 69 800 190/08 RMK AO2
14837KMSN MSN20051001040509210/01/05 04:05:31  5-MIN KMSN 011005Z 19007KT 10SM CLR 13/07 A2998 810 69 800 190/07 RMK AO2
14837KMSN MSN20051001041009210/01/05 04:10:31  5-MIN KMSN 011010Z 18007KT 10SM CLR 13/07 A2998 810 69 800 180/07 RMK AO2
14837KMSN MSN20051001041509210/01/05 04:15:31  5-MIN KMSN 011015Z 18008KT 10SM CLR 12/07 A2998 810 71 700 180/08 RMK AO2
14837KMSN MSN20051001042009210/01/05 04:20:31  5-MIN KMSN 011020Z 18007KT 10SM CLR 13/07 A2998 810 69 800 180/07 RMK AO2
14837KMSN MSN20051001042509210/01/05 04:25:31  5-MIN KMSN 011025Z 18007KT 10SM CLR 13/07 A2999 800 69 800 180/07 RMK AO2
14837KMSN MSN20051001043009210/01/05 04:30:31  5-MIN KMSN 011030Z 18008KT 10SM CLR 13/07 A2999 800 69 800 180/08 RMK AO2
14837KMSN MSN20051001043509210/01/05 04:35:31  5-MIN KMSN 011035Z 18008KT 10SM CLR 12/07 A2999 800 71 700 180/08 RMK AO2
14837KMSN MSN20051001044009210/01/05 04:40:31  5-MIN KMSN 011040Z 18008KT 10SM CLR 12/07 A2999 800 71 700 180/08 RMK AO2
14837KMSN MSN20051001044509210/01/05 04:45:31  5-MIN KMSN 011045Z 19008KT 10SM CLR 12/07 A2999 800 71 700 190/08 RMK AO2
14837KMSN MSN20051001045010910/01/05 04:50:31  5-MIN KMSN 011050Z 18007KT 10SM CLR 12/07 A3000 790 71 700 180/07 RMK AO2 SLP157 T01220072
14837KMSN MSN20051001045509210/01/05 04:55:31  5-MIN KMSN 011055Z 18007KT 10SM CLR 12/07 A3000 790 71 700 180/07 RMK AO2
14837KMSN MSN20051001050009210/01/05 05:00:31  5-MIN KMSN 011100Z 18007KT 10SM CLR 12/07 A3000 790 74 600 180/07 RMK AO2
14837KMSN MSN20051001050509210/01/05 05:05:31  5-MIN KMSN 011105Z 18007KT 10SM CLR 12/08 A3000 790 74 700 170/07 RMK AO2
14837KMSN MSN20051001051009210/01/05 05:10:31  5-MIN KMSN 011110Z 18006KT 10SM CLR 12/08 A3000 790 77 600 180/06 RMK AO2
14837KMSN MSN20051001051509210/01/05 05:15:31  5-MIN KMSN 011115Z 18007KT 10SM CLR 12/08 A3000 790 77 600 180/07 RMK AO2
14837KMSN MSN20051001052009210/01/05 05:20:31  5-MIN KMSN 011120Z 18007KT 10SM CLR 12/08 A3001 790 77 600 180/07 RMK AO2
14837KMSN MSN20051001052509210/01/05 05:25:31  5-MIN KMSN 011125Z 18006KT 10SM CLR 12/08 A3001 780 77 600 180/06 RMK AO2
14837KMSN MSN20051001053009210/01/05 05:30:31  5-MIN KMSN 011130Z 18006KT 10SM CLR 12/08 A3001 790 77 600 180/06 RMK AO2
14837KMSN MSN20051001053509210/01/05 05:35:31  5-MIN KMSN 011135Z 19006KT 10SM CLR 12/08 A3001 780 74 700 190/06 RMK AO2
14837KMSN MSN20051001054009210/01/05 05:40:31  5-MIN KMSN 011140Z 19006KT 10SM CLR 12/08 A3001 780 74 700 190/06 RMK AO2
14837KMSN MSN20051001054509210/01/05 05:45:31  5-MIN KMSN 011145Z 19006KT 10SM CLR 12/08 A3002 780 74 700 190/06 RMK AO2
14837KMSN MSN20051001055012710/01/05 05:50:31  5-MIN KMSN 011150Z 19007KT 10SM CLR 12/07 A3002 780 71 700 190/07 RMK AO2 SLP163 T01220072 10144 20117 51007
14837KMSN MSN20051001055509210/01/05 05:55:31  5-MIN KMSN 011155Z 19007KT 10SM CLR 12/08 A3002 780 74 700 190/07 RMK AO2
14837KMSN MSN20051001060009210/01/05 06:00:31  5-MIN KMSN 011200Z 20005KT 10SM CLR 12/07 A3002 780 71 700 200/05 RMK AO2
14837KMSN MSN20051001060509210/01/05 06:05:31  5-MIN KMSN 011205Z 19005KT 10SM CLR 12/07 A3002 780 71 700 190/05 RMK AO2
14837KMSN MSN20051001061009210/01/05 06:10:31  5-MIN KMSN 011210Z 19005KT 10SM CLR 12/07 A3002 770 71 700 190/05 RMK AO2
14837KMSN MSN20051001061509210/01/05 06:15:31  5-MIN KMSN 011215Z 19003KT 10SM CLR 12/08 A3002 770 74 700 190/03 RMK AO2
14837KMSN MSN20051001062009210/01/05 06:20:31  5-MIN KMSN 011220Z 00000KT 10SM CLR 12/08 A3002 770 74 700 000/00 RMK AO2
14837KMSN MSN20051001062509210/01/05 06:25:31  5-MIN KMSN 011225Z 19005KT 10SM CLR 13/08 A3002 770 71 700 190/05 RMK AO2
14837KMSN MSN20051001063009210/01/05 06:30:31  5-MIN KMSN 011230Z 18006KT 10SM CLR 13/08 A3003 760 71 700 180/06 RMK AO2
14837KMSN MSN20051001063509210/01/05 06:35:31  5-MIN KMSN 011235Z 19007KT 10SM CLR 13/08 A3003 760 71 700 190/07 RMK AO2
14837KMSN MSN20051001064009210/01/05 06:40:31  5-MIN KMSN 011240Z 19007KT 10SM CLR 13/08 A3003 760 71 700 190/07 RMK AO2
14837KMSN MSN20051001064509210/01/05 06:45:31  5-MIN KMSN 011245Z 19006KT 10SM CLR 13/08 A3004 760 71 700 190/06 RMK AO2
14837KMSN MSN20051001065010910/01/05 06:50:31  5-MIN KMSN 011250Z 18007KT 10SM CLR 13/08 A3004 760 71 700 180/07 RMK AO2 SLP171 T01280078
14837KMSN MSN20051001065509210/01/05 06:55:31  5-MIN KMSN 011255Z 18007KT 10SM CLR 13/08 A3004 760 71 800 180/07 RMK AO2
14837KMSN MSN20051001070009210/01/05 07:00:31  5-MIN KMSN 011300Z 19006KT 10SM CLR 13/08 A3004 760 71 800 190/06 RMK AO2
14837KMSN MSN20051001070509210/01/05 07:05:31  5-MIN KMSN 011305Z 18006KT 10SM CLR 14/08 A3004 760 69 800 180/06 RMK AO2
14837KMSN MSN20051001071009210/01/05 07:10:31  5-MIN KMSN 011310Z 19006KT 10SM CLR 14/08 A3004 760 69 800 180/06 RMK AO2
14837KMSN MSN20051001071509210/01/05 07:15:31  5-MIN KMSN 011315Z 19005KT 10SM CLR 14/08 A3004 760 69 800 190/05 RMK AO2
14837KMSN MSN20051001072009210/01/05 07:20:31  5-MIN KMSN 011320Z 18004KT 10SM CLR 14/08 A3004 760 69 800 180/04 RMK AO2
14837KMSN MSN20051001072509210/01/05 07:25:31  5-MIN KMSN 011325Z 17005KT 10SM CLR 14/08 A3004 750 66 900 170/05 RMK AO2
14837KMSN MSN20051001073009210/01/05 07:30:31  5-MIN KMSN 011330Z 18006KT 10SM CLR 14/08 A3004 750 66 900 180/06 RMK AO2
14837KMSN MSN20051001073509210/01/05 07:35:31  5-MIN KMSN 011335Z 19006KT 10SM CLR 14/08 A3004 750 66 900 190/06 RMK AO2
14837KMSN MSN20051001074009310/01/05 07:40:31  5-MIN KMSN 011340Z 20007KT 10SM CLR 15/09 A3005 750 66 1000 200/07 RMK AO2
14837KMSN MSN20051001074509310/01/05 07:45:31  5-MIN KMSN 011345Z 19007KT 10SM CLR 15/09 A3005 750 66 1000 190/07 RMK AO2
14837KMSN MSN20051001075011010/01/05 07:50:31  5-MIN KMSN 011350Z 20008KT 10SM CLR 15/09 A3005 750 66 1000 200/08 RMK AO2 SLP174 T01500089
14837KMSN MSN20051001075509310/01/05 07:55:31  5-MIN KMSN 011355Z 20006KT 10SM CLR 16/09 A3005 750 64 1000 190/06 RMK AO2
14837KMSN MSN20051001080009310/01/05 08:00:31  5-MIN KMSN 011400Z 20007KT 10SM CLR 16/09 A3005 750 64 1000 200/07 RMK AO2
14837KMSN MSN20051001080509310/01/05 08:05:31  5-MIN KMSN 011405Z 20006KT 10SM CLR 16/09 A3005 750 64 1100 200/06 RMK AO2
14837KMSN MSN20051001081009310/01/05 08:10:31  5-MIN KMSN 011410Z 19007KT 10SM CLR 16/09 A3005 750 64 1100 190/07 RMK AO2
14837KMSN MSN20051001081509310/01/05 08:15:31  5-MIN KMSN 011415Z 19009KT 10SM CLR 16/09 A3004 750 62 1100 190/09 RMK AO2
14837KMSN MSN20051001082009310/01/05 08:20:31  5-MIN KMSN 011420Z 19007KT 10SM CLR 17/09 A3005 750 62 1200 190/07 RMK AO2
14837KMSN MSN20051001082509310/01/05 08:25:31  5-MIN KMSN 011425Z 20007KT 10SM CLR 17/09 A3005 750 62 1200 190/07 RMK AO2
14837KMSN MSN20051001083009310/01/05 08:30:31  5-MIN KMSN 011430Z 19007KT 10SM CLR 17/09 A3005 740 60 1200 190/07 RMK AO2
14837KMSN MSN20051001083509310/01/05 08:35:31  5-MIN KMSN 011435Z VRB06KT 10SM CLR 17/09 A3005 740 60 1200 VRB/06 RMK AO2
14837KMSN MSN20051001084009310/01/05 08:40:31  5-MIN KMSN 011440Z 20005KT 10SM CLR 18/10 A3006 740 60 1300 200/05 RMK AO2
14837KMSN MSN20051001084509310/01/05 08:45:31  5-MIN KMSN 011445Z 22005KT 10SM CLR 18/10 A3006 740 60 1300 210/05 RMK AO2
14837KMSN MSN20051001085011610/01/05 08:50:31  5-MIN KMSN 011450Z 18006KT 10SM CLR 18/10 A3006 740 58 1300 180/06 RMK AO2 SLP176 T01830100 53015
14837KMSN MSN20051001085509310/01/05 08:55:31  5-MIN KMSN 011455Z 20007KT 10SM CLR 18/10 A3006 740 58 1300 200/07 RMK AO2
14837KMSN MSN20051001090009310/01/05 09:00:31  5-MIN KMSN 011500Z 19009KT 10SM CLR 18/10 A3006 740 58 1300 190/09 RMK AO2
14837KMSN MSN20051001090509310/01/05 09:05:31  5-MIN KMSN 011505Z 19008KT 10SM CLR 18/10 A3006 740 58 1300 190/08 RMK AO2
14837KMSN MSN20051001091009310/01/05 09:10:31  5-MIN KMSN 011510Z 21007KT 10SM CLR 18/11 A3006 740 60 1300 210/07 RMK AO2
14837KMSN MSN20051001091509310/01/05 09:15:31  5-MIN KMSN 011515Z 20007KT 10SM CLR 18/10 A3006 740 58 1300 200/07 RMK AO2
14837KMSN MSN20051001092009310/01/05 09:20:31  5-MIN KMSN 011520Z 19008KT 10SM CLR 19/11 A3006 740 58 1400 190/08 RMK AO2
14837KMSN MSN20051001092509310/01/05 09:25:31  5-MIN KMSN 011525Z 22006KT 10SM CLR 19/11 A3006 740 58 1400 220/06 RMK AO2
14837KMSN MSN20051001093009310/01/05 09:30:31  5-MIN KMSN 011530Z 19008KT 10SM CLR 19/11 A3006 740 58 1400 190/08 RMK AO2
14837KMSN MSN20051001093510910/01/05 09:35:31  5-MIN KMSN 011535Z 20007KT 170V240 10SM CLR 19/11 A3006 730 56 1500 200/07 170V240 RMK AO2
14837KMSN MSN20051001094010910/01/05 09:40:31  5-MIN KMSN 011540Z 21007KT 180V240 10SM CLR 19/11 A3006 730 58 1500 210/07 180V240 RMK AO2
14837KMSN MSN20051001094509310/01/05 09:45:31  5-MIN KMSN 011545Z 20008KT 10SM CLR 19/11 A3006 740 58 1500 190/08 RMK AO2
14837KMSN MSN20051001095011010/01/05 09:50:31  5-MIN KMSN 011550Z VRB04KT 10SM CLR 19/11 A3006 740 58 1500 VRB/04 RMK AO2 SLP176 T01940111
14837KMSN MSN20051001095509310/01/05 09:55:31  5-MIN KMSN 011555Z 21006KT 10SM CLR 19/11 A3006 740 58 1500 210/06 RMK AO2
14837KMSN MSN20051001100009310/01/05 10:00:31  5-MIN KMSN 011600Z 23006KT 10SM CLR 20/11 A3006 740 56 1500 220/06 RMK AO2
14837KMSN MSN20051001100509310/01/05 10:05:31  5-MIN KMSN 011605Z 19005KT 10SM CLR 21/12 A3006 740 56 1600 190/05 RMK AO2
14837KMSN MSN20051001101009310/01/05 10:10:31  5-MIN KMSN 011610Z 20006KT 10SM CLR 21/12 A3006 740 56 1600 200/06 RMK AO2
14837KMSN MSN20051001101509310/01/05 10:15:31  5-MIN KMSN 011615Z 19007KT 10SM CLR 21/12 A3006 740 54 1700 190/07 RMK AO2
14837KMSN MSN20051001102009310/01/05 10:20:31  5-MIN KMSN 011620Z 19006KT 10SM CLR 21/12 A3005 740 56 1700 180/06 RMK AO2
14837KMSN MSN20051001102509310/01/05 10:25:31  5-MIN KMSN 011625Z 19008KT 10SM CLR 21/12 A3006 740 54 1700 190/08 RMK AO2
14837KMSN MSN20051001103009310/01/05 10:30:31  5-MIN KMSN 011630Z 18006KT 10SM CLR 22/12 A3006 740 54 1700 180/06 RMK AO2
14837KMSN MSN20051001103509310/01/05 10:35:31  5-MIN KMSN 011635Z 17008KT 10SM CLR 22/12 A3006 740 54 1700 170/08 RMK AO2
14837KMSN MSN20051001104009310/01/05 10:40:31  5-MIN KMSN 011640Z 18007KT 10SM CLR 22/12 A3006 740 54 1700 180/07 RMK AO2
14837KMSN MSN20051001104509310/01/05 10:45:31  5-MIN KMSN 011645Z 17009KT 10SM CLR 22/12 A3006 740 52 1800 170/09 RMK AO2
14837KMSN MSN20051001105011010/01/05 10:50:31  5-MIN KMSN 011650Z 19009KT 10SM CLR 22/12 A3006 740 54 1700 190/09 RMK AO2 SLP176 T02170122
14837KMSN MSN20051001105509310/01/05 10:55:31  5-MIN KMSN 011655Z 20006KT 10SM CLR 22/12 A3006 740 52 1800 200/06 RMK AO2
14837KMSN MSN20051001110009310/01/05 11:00:31  5-MIN KMSN 011700Z 18009KT 10SM CLR 22/12 A3006 740 52 1800 180/09 RMK AO2
14837KMSN MSN20051001110509310/01/05 11:05:31  5-MIN KMSN 011705Z 18010KT 10SM CLR 23/13 A3006 740 53 1800 180/10 RMK AO2
14837KMSN MSN20051001111009310/01/05 11:10:31  5-MIN KMSN 011710Z 18008KT 10SM CLR 23/13 A3006 740 51 1900 170/08 RMK AO2
14837KMSN MSN20051001111509310/01/05 11:15:31  5-MIN KMSN 011715Z 17009KT 10SM CLR 23/13 A3005 740 53 1900 170/09 RMK AO2
14837KMSN MSN20051001112009310/01/05 11:20:31  5-MIN KMSN 011720Z 19009KT 10SM CLR 23/13 A3005 740 53 1900 180/09 RMK AO2
14837KMSN MSN20051001112509310/01/05 11:25:31  5-MIN KMSN 011725Z 17010KT 10SM CLR 23/13 A3005 740 51 1900 170/10 RMK AO2
14837KMSN MSN20051001113009310/01/05 11:30:31  5-MIN KMSN 011730Z 18007KT 10SM CLR 24/13 A3005 740 49 2000 180/07 RMK AO2
14837KMSN MSN20051001113509310/01/05 11:35:31  5-MIN KMSN 011735Z 17007KT 10SM CLR 24/13 A3005 740 51 2000 170/07 RMK AO2
14837KMSN MSN20051001114009310/01/05 11:40:31  5-MIN KMSN 011740Z 18008KT 10SM CLR 24/14 A3005 750 51 2000 180/08 RMK AO2
14837KMSN MSN20051001114509310/01/05 11:45:31  5-MIN KMSN 011745Z 18009KT 10SM CLR 24/13 A3005 750 49 2100 180/09 RMK AO2
14837KMSN MSN20051001115012810/01/05 11:50:31  5-MIN KMSN 011750Z VRB05KT 10SM CLR 24/13 A3005 750 49 2100 VRB/05 RMK AO2 SLP172 T02440133 10244 20122 51014
14837KMSN MSN20051001115509310/01/05 11:55:31  5-MIN KMSN 011755Z 18007KT 10SM CLR 25/14 A3005 750 49 2100 180/07 RMK AO2
14837KMSN MSN20051001120009310/01/05 12:00:31  5-MIN KMSN 011800Z 19008KT 10SM CLR 25/14 A3005 750 49 2100 190/08 RMK AO2
14837KMSN MSN20051001120509310/01/05 12:05:31  5-MIN KMSN 011805Z VRB06KT 10SM CLR 24/14 A3004 750 51 2100 VRB/06 RMK AO2
14837KMSN MSN20051001121009310/01/05 12:10:31  5-MIN KMSN 011810Z 20007KT 10SM CLR 25/14 A3004 750 49 2100 200/07 RMK AO2
14837KMSN MSN20051001121509310/01/05 12:15:31  5-MIN KMSN 011815Z VRB06KT 10SM CLR 25/14 A3004 750 49 2100 VRB/06 RMK AO2
14837KMSN MSN20051001122009310/01/05 12:20:31  5-MIN KMSN 011820Z VRB06KT 10SM CLR 25/14 A3004 750 49 2100 VRB/06 RMK AO2
14837KMSN MSN20051001122509310/01/05 12:25:31  5-MIN KMSN 011825Z VRB06KT 10SM CLR 25/14 A3004 750 49 2100 VRB/06 RMK AO2
14837KMSN MSN20051001123009310/01/05 12:30:31  5-MIN KMSN 011830Z 20004KT 10SM CLR 26/14 A3004 750 48 2200 200/04 RMK AO2
14837KMSN MSN20051001123509310/01/05 12:35:31  5-MIN KMSN 011835Z 20007KT 10SM CLR 26/14 A3004 760 49 2200 200/07 RMK AO2
14837KMSN MSN20051001124009310/01/05 12:40:31  5-MIN KMSN 011840Z VRB06KT 10SM CLR 26/14 A3004 760 48 2200 VRB/06 RMK AO2
14837KMSN MSN20051001124509310/01/05 12:45:31  5-MIN KMSN 011845Z VRB06KT 10SM CLR 26/14 A3004 760 48 2200 VRB/06 RMK AO2
14837KMSN MSN20051001125011010/01/05 12:50:31  5-MIN KMSN 011850Z VRB06KT 10SM CLR 26/14 A3004 760 48 2300 VRB/06 RMK AO2 SLP168 T02610144
14837KMSN MSN20051001125509310/01/05 12:55:31  5-MIN KMSN 011855Z 22007KT 10SM CLR 26/14 A3004 760 46 2300 220/07 RMK AO2
14837KMSN MSN20051001130009310/01/05 13:00:31  5-MIN KMSN 011900Z VRB06KT 10SM CLR 26/14 A3003 760 49 2200 VRB/06 RMK AO2
14837KMSN MSN20051001130509310/01/05 13:05:31  5-MIN KMSN 011905Z 23006KT 10SM CLR 26/14 A3003 760 46 2300 230/06 RMK AO2
14837KMSN MSN20051001131009910/01/05 13:10:31  5-MIN KMSN 011910Z 19010G14KT 10SM CLR 26/14 A3003 760 46 2300 190/10G14 RMK AO2
14837KMSN MSN20051001131511510/01/05 13:15:31  5-MIN KMSN 011915Z 21007G14KT 170V260 10SM CLR 27/14 A3003 760 45 2300 210/07G14 170V260 RMK AO2
14837KMSN MSN20051001132009310/01/05 13:20:31  5-MIN KMSN 011920Z 19009KT 10SM CLR 26/14 A3003 760 46 2300 190/09 RMK AO2
14837KMSN MSN20051001132509310/01/05 13:25:31  5-MIN KMSN 011925Z 20006KT 10SM CLR 27/14 A3003 760 45 2300 200/06 RMK AO2
14837KMSN MSN20051001133009310/01/05 13:30:31  5-MIN KMSN 011930Z 21006KT 10SM CLR 27/14 A3003 760 45 2300 210/06 RMK AO2
14837KMSN MSN20051001133509310/01/05 13:35:31  5-MIN KMSN 011935Z 22008KT 10SM CLR 27/14 A3003 760 46 2300 220/08 RMK AO2
14837KMSN MSN20051001134009310/01/05 13:40:31  5-MIN KMSN 011940Z 20010KT 10SM CLR 27/14 A3003 760 45 2300 200/10 RMK AO2
14837KMSN MSN20051001134510910/01/05 13:45:31  5-MIN KMSN 011945Z 21007KT 170V250 10SM CLR 27/14 A3003 760 45 2300 210/07 170V250 RMK AO2
14837KMSN MSN20051001135011010/01/05 13:50:31  5-MIN KMSN 011950Z 19007KT 10SM CLR 27/14 A3003 760 45 2300 190/07 RMK AO2 SLP166 T02670139
14837KMSN MSN20051001135509310/01/05 13:55:31  5-MIN KMSN 011955Z VRB06KT 10SM CLR 27/14 A3003 770 43 2400 VRB/06 RMK AO2
14837KMSN MSN20051001140009310/01/05 14:00:31  5-MIN KMSN 012000Z 21008KT 10SM CLR 27/14 A3003 760 45 2400 210/08 RMK AO2
14837KMSN MSN20051001140509310/01/05 14:05:31  5-MIN KMSN 012005Z 23010KT 10SM CLR 27/14 A3003 760 45 2300 230/10 RMK AO2
14837KMSN MSN20051001141009310/01/05 14:10:31  5-MIN KMSN 012010Z 23008KT 10SM CLR 27/14 A3003 760 45 2300 220/08 RMK AO2
14837KMSN MSN20051001141509310/01/05 14:15:31  5-MIN KMSN 012015Z 22006KT 10SM CLR 27/14 A3003 760 45 2300 220/06 RMK AO2
14837KMSN MSN20051001142009310/01/05 14:20:31  5-MIN KMSN 012020Z 22008KT 10SM CLR 27/14 A3003 760 45 2400 220/08 RMK AO2
14837KMSN MSN20051001142509310/01/05 14:25:31  5-MIN KMSN 012025Z 20008KT 10SM CLR 27/14 A3003 760 43 2400 200/08 RMK AO2
14837KMSN MSN20051001143009310/01/05 14:30:31  5-MIN KMSN 012030Z 23008KT 10SM CLR 27/14 A3003 760 45 2300 220/08 RMK AO2
14837KMSN MSN20051001143509310/01/05 14:35:31  5-MIN KMSN 012035Z VRB05KT 10SM CLR 27/14 A3003 760 45 2300 VRB/05 RMK AO2
14837KMSN MSN20051001144010910/01/05 14:40:31  5-MIN KMSN 012040Z 21007KT 180V250 10SM CLR 27/14 A3003 770 45 2300 210/07 180V250 RMK AO2
14837KMSN MSN20051001144509310/01/05 14:45:31  5-MIN KMSN 012045Z 21007KT 10SM CLR 27/14 A3003 760 45 2300 210/07 RMK AO2
14837KMSN MSN20051001150509310/01/05 15:05:31  5-MIN KMSN 012105Z 18011KT 10SM CLR 27/14 A3003 760 45 2300 180/11 RMK AO2
14837KMSN MSN20051001151009310/01/05 15:10:31  5-MIN KMSN 012110Z 18009KT 10SM CLR 27/14 A3003 760 45 2300 180/09 RMK AO2
14837KMSN MSN20051001151509310/01/05 15:15:31  5-MIN KMSN 012115Z 18010KT 10SM CLR 27/14 A3003 760 45 2300 180/10 RMK AO2
14837KMSN MSN20051001152009310/01/05 15:20:31  5-MIN KMSN 012120Z 18010KT 10SM CLR 27/14 A3003 760 45 2400 180/10 RMK AO2
14837KMSN MSN20051001152509310/01/05 15:25:31  5-MIN KMSN 012125Z 17010KT 10SM CLR 27/14 A3003 760 45 2300 170/10 RMK AO2
14837KMSN MSN20051001153009310/01/05 15:30:31  5-MIN KMSN 012130Z 18008KT 10SM CLR 27/14 A3003 760 45 2300 180/08 RMK AO2
14837KMSN MSN20051001153509310/01/05 15:35:31  5-MIN KMSN 012135Z 21008KT 10SM CLR 27/14 A3003 760 45 2300 200/08 RMK AO2
14837KMSN MSN20051001154009310/01/05 15:40:31  5-MIN KMSN 012140Z 20007KT 10SM CLR 27/14 A3003 760 45 2300 200/07 RMK AO2
14837KMSN MSN20051001154509310/01/05 15:45:31  5-MIN KMSN 012145Z 20005KT 10SM CLR 27/14 A3003 770 45 2300 200/05 RMK AO2
14837KMSN MSN20051001155011010/01/05 15:50:31  5-MIN KMSN 012150Z 18007KT 10SM CLR 27/14 A3003 770 45 2300 180/07 RMK AO2 SLP165 T02670139
14837KMSN MSN20051001155509310/01/05 15:55:31  5-MIN KMSN 012155Z 17009KT 10SM CLR 27/14 A3003 760 45 2300 170/09 RMK AO2
14837KMSN MSN20051001160009310/01/05 16:00:31  5-MIN KMSN 012200Z 17008KT 10SM CLR 27/14 A3003 770 45 2300 170/08 RMK AO2
14837KMSN MSN20051001160509310/01/05 16:05:31  5-MIN KMSN 012205Z 17009KT 10SM CLR 26/14 A3003 760 46 2300 170/09 RMK AO2
14837KMSN MSN20051001161009310/01/05 16:10:31  5-MIN KMSN 012210Z 18009KT 10SM CLR 26/14 A3003 760 46 2300 180/09 RMK AO2
14837KMSN MSN20051001161509310/01/05 16:15:31  5-MIN KMSN 012215Z 18007KT 10SM CLR 26/14 A3003 760 46 2300 180/07 RMK AO2
14837KMSN MSN20051001162009310/01/05 16:20:31  5-MIN KMSN 012220Z 17008KT 10SM CLR 26/14 A3003 760 46 2300 170/08 RMK AO2
14837KMSN MSN20051001162509310/01/05 16:25:31  5-MIN KMSN 012225Z 17007KT 10SM CLR 26/14 A3003 760 46 2300 170/07 RMK AO2
14837KMSN MSN20051001163009310/01/05 16:30:31  5-MIN KMSN 012230Z 18006KT 10SM CLR 26/14 A3003 760 48 2200 180/06 RMK AO2
14837KMSN MSN20051001163509310/01/05 16:35:31  5-MIN KMSN 012235Z 18007KT 10SM CLR 26/13 A3004 760 46 2200 170/07 RMK AO2
14837KMSN MSN20051001164009310/01/05 16:40:31  5-MIN KMSN 012240Z 18007KT 10SM CLR 26/13 A3004 750 46 2200 180/07 RMK AO2
14837KMSN MSN20051001164509310/01/05 16:45:31  5-MIN KMSN 012245Z 18006KT 10SM CLR 25/13 A3004 750 48 2100 180/06 RMK AO2
14837KMSN MSN20051001165011010/01/05 16:50:31  5-MIN KMSN 012250Z 18006KT 10SM CLR 25/14 A3005 750 49 2100 180/06 RMK AO2 SLP173 T02500139
14837KMSN MSN20051001165509310/01/05 16:55:31  5-MIN KMSN 012255Z 19004KT 10SM CLR 24/13 A3005 740 49 2000 190/04 RMK AO2
14837KMSN MSN20051001170009310/01/05 17:00:31  5-MIN KMSN 012300Z 18005KT 10SM CLR 24/14 A3005 740 53 2000 180/05 RMK AO2
14837KMSN MSN20051001170509310/01/05 17:05:31  5-MIN KMSN 012305Z 18005KT 10SM CLR 24/13 A3005 740 49 2000 180/05 RMK AO2
14837KMSN MSN20051001171009310/01/05 17:10:31  5-MIN KMSN 012310Z 17005KT 10SM CLR 23/14 A3005 740 55 1900 170/05 RMK AO2
14837KMSN MSN20051001171509310/01/05 17:15:31  5-MIN KMSN 012315Z 19004KT 10SM CLR 23/14 A3005 740 55 1900 180/04 RMK AO2
14837KMSN MSN20051001172009310/01/05 17:20:31  5-MIN KMSN 012320Z 17004KT 10SM CLR 23/14 A3005 740 55 1900 170/04 RMK AO2
14837KMSN MSN20051001172509310/01/05 17:25:31  5-MIN KMSN 012325Z 17005KT 10SM CLR 23/14 A3006 740 57 1900 170/05 RMK AO2
14837KMSN MSN20051001173009310/01/05 17:30:31  5-MIN KMSN 012330Z 18004KT 10SM CLR 23/14 A3006 740 55 1900 180/04 RMK AO2
14837KMSN MSN20051001173509310/01/05 17:35:31  5-MIN KMSN 012335Z 17004KT 10SM CLR 23/14 A3006 740 55 1900 170/04 RMK AO2
14837KMSN MSN20051001174009310/01/05 17:40:31  5-MIN KMSN 012340Z 17004KT 10SM CLR 23/14 A3006 740 57 1800 170/04 RMK AO2
14837KMSN MSN20051001174509310/01/05 17:45:31  5-MIN KMSN 012345Z 18004KT 10SM CLR 23/13 A3006 740 55 1800 180/04 RMK AO2
14837KMSN MSN20051001175012810/01/05 17:50:31  5-MIN KMSN 012350Z 17004KT 10SM CLR 23/14 A3006 740 57 1800 170/04 RMK AO2 SLP177 T02280139 10272 20228 56006
14837KMSN MSN20051001175509310/01/05 17:55:31  5-MIN KMSN 012355Z 17004KT 10SM CLR 22/14 A3006 740 59 1800 170/04 RMK AO2
14837KMSN MSN20051001180009310/01/05 18:00:31  5-MIN KMSN 020000Z 17006KT 10SM CLR 22/13 A3006 730 56 1800 170/06 RMK AO2
14837KMSN MSN20051001180509310/01/05 18:05:31  5-MIN KMSN 020005Z 17006KT 10SM CLR 22/13 A3006 730 56 1800 170/06 RMK AO2
14837KMSN MSN20051001181009310/01/05 18:10:31  5-MIN KMSN 020010Z 17006KT 10SM CLR 23/13 A3006 730 55 1800 160/06 RMK AO2
14837KMSN MSN20051001181509310/01/05 18:15:31  5-MIN KMSN 020015Z 16005KT 10SM CLR 22/13 A3006 730 58 1700 160/05 RMK AO2
14837KMSN MSN20051001182009310/01/05 18:20:31  5-MIN KMSN 020020Z 16005KT 10SM CLR 22/13 A3006 740 58 1700 160/05 RMK AO2
14837KMSN MSN20051001182509310/01/05 18:25:31  5-MIN KMSN 020025Z 16005KT 10SM CLR 22/13 A3006 730 58 1700 150/05 RMK AO2
14837KMSN MSN20051001183009310/01/05 18:30:31  5-MIN KMSN 020030Z 16004KT 10SM CLR 21/13 A3006 740 61 1700 160/04 RMK AO2
14837KMSN MSN20051001183509310/01/05 18:35:31  5-MIN KMSN 020035Z 14005KT 10SM CLR 22/13 A3006 740 58 1700 140/05 RMK AO2
14837KMSN MSN20051001184009310/01/05 18:40:31  5-MIN KMSN 020040Z 14005KT 10SM CLR 21/13 A3006 740 61 1700 140/05 RMK AO2
14837KMSN MSN20051001184509310/01/05 18:45:31  5-MIN KMSN 020045Z 14006KT 10SM CLR 21/13 A3006 740 63 1600 130/06 RMK AO2
14837KMSN MSN20051001185011010/01/05 18:50:31  5-MIN KMSN 020050Z 14006KT 10SM CLR 20/13 A3006 740 65 1500 140/06 RMK AO2 SLP177 T02000133
14837KMSN MSN20051001185509310/01/05 18:55:31  5-MIN KMSN 020055Z 14007KT 10SM CLR 21/13 A3006 730 63 1600 140/07 RMK AO2
14837KMSN MSN20051001190009310/01/05 19:00:31  5-MIN KMSN 020100Z 14007KT 10SM CLR 21/13 A3006 730 61 1700 140/07 RMK AO2
14837KMSN MSN20051001190509310/01/05 19:05:31  5-MIN KMSN 020105Z 13007KT 10SM CLR 21/13 A3006 740 61 1700 130/07 RMK AO2
14837KMSN MSN20051001191009310/01/05 19:10:31  5-MIN KMSN 020110Z 12007KT 10SM CLR 21/13 A3006 740 63 1600 120/07 RMK AO2
14837KMSN MSN20051001191509310/01/05 19:15:31  5-MIN KMSN 020115Z 14007KT 10SM CLR 21/13 A3006 730 63 1600 140/07 RMK AO2
14837KMSN MSN20051001192009310/01/05 19:20:31  5-MIN KMSN 020120Z 15006KT 10SM CLR 20/13 A3007 730 65 1500 150/06 RMK AO2
14837KMSN MSN20051001192509310/01/05 19:25:31  5-MIN KMSN 020125Z VRB03KT 10SM CLR 20/13 A3007 720 65 1500 VRB/03 RMK AO2
14837KMSN MSN20051001193009310/01/05 19:30:31  5-MIN KMSN 020130Z 17004KT 10SM CLR 21/13 A3007 720 63 1600 170/04 RMK AO2
14837KMSN MSN20051001193509310/01/05 19:35:31  5-MIN KMSN 020135Z 17005KT 10SM CLR 21/13 A3008 720 61 1600 170/05 RMK AO2
14837KMSN MSN20051001194009310/01/05 19:40:31  5-MIN KMSN 020140Z 17005KT 10SM CLR 21/13 A3008 720 61 1600 170/05 RMK AO2
14837KMSN MSN20051001194509310/01/05 19:45:31  5-MIN KMSN 020145Z 17006KT 10SM CLR 21/13 A3008 720 61 1600 170/06 RMK AO2
14837KMSN MSN20051001195011010/01/05 19:50:31  5-MIN KMSN 020150Z 17006KT 10SM CLR 21/13 A3008 720 61 1600 170/06 RMK AO2 SLP185 T02110133
14837KMSN MSN20051001195509310/01/05 19:55:31  5-MIN KMSN 020155Z 18006KT 10SM CLR 21/13 A3008 710 63 1600 180/06 RMK AO2
14837KMSN MSN20051001200009310/01/05 20:00:31  5-MIN KMSN 020200Z 17006KT 10SM CLR 21/13 A3009 710 61 1600 170/06 RMK AO2
14837KMSN MSN20051001200509310/01/05 20:05:31  5-MIN KMSN 020205Z 17005KT 10SM CLR 21/13 A3009 710 61 1600 170/05 RMK AO2
14837KMSN MSN20051001201009310/01/05 20:10:31  5-MIN KMSN 020210Z 17005KT 10SM CLR 21/13 A3009 710 63 1600 170/05 RMK AO2
14837KMSN MSN20051001201509310/01/05 20:15:31  5-MIN KMSN 020215Z 17005KT 10SM CLR 21/13 A3009 710 63 1600 170/05 RMK AO2
14837KMSN MSN20051001202009310/01/05 20:20:31  5-MIN KMSN 020220Z 18005KT 10SM CLR 21/13 A3009 710 60 1600 180/05 RMK AO2
14837KMSN MSN20051001202509310/01/05 20:25:31  5-MIN KMSN 020225Z 17006KT 10SM CLR 20/13 A3009 710 63 1500 170/06 RMK AO2
14837KMSN MSN20051001203009310/01/05 20:30:31  5-MIN KMSN 020230Z 17007KT 10SM CLR 20/13 A3009 710 63 1500 170/07 RMK AO2
14837KMSN MSN20051001203509310/01/05 20:35:31  5-MIN KMSN 020235Z 17006KT 10SM CLR 21/13 A3009 710 60 1600 170/06 RMK AO2
14837KMSN MSN20051001204009310/01/05 20:40:31  5-MIN KMSN 020240Z 17006KT 10SM CLR 20/13 A3010 700 63 1500 170/06 RMK AO2
14837KMSN MSN20051001204509310/01/05 20:45:31  5-MIN KMSN 020245Z 17006KT 10SM CLR 20/13 A3010 700 63 1500 170/06 RMK AO2
14837KMSN MSN20051001205011610/01/05 20:50:31  5-MIN KMSN 020250Z 16006KT 10SM CLR 20/13 A3010 700 63 1500 160/06 RMK AO2 SLP188 T02000128 53010
14837KMSN MSN20051001205509310/01/05 20:55:31  5-MIN KMSN 020255Z 16007KT 10SM CLR 19/13 A3010 700 65 1400 160/07 RMK AO2
14837KMSN MSN20051001210009310/01/05 21:00:31  5-MIN KMSN 020300Z 16007KT 10SM CLR 19/13 A3010 700 65 1400 160/07 RMK AO2
14837KMSN MSN20051001210509310/01/05 21:05:31  5-MIN KMSN 020305Z 17006KT 10SM CLR 19/13 A3010 700 65 1400 170/06 RMK AO2
14837KMSN MSN20051001211009310/01/05 21:10:31  5-MIN KMSN 020310Z 16006KT 10SM CLR 19/13 A3010 700 65 1400 160/06 RMK AO2
14837KMSN MSN20051001211509310/01/05 21:15:31  5-MIN KMSN 020315Z 16006KT 10SM CLR 19/13 A3010 700 65 1400 160/06 RMK AO2
14837KMSN MSN20051001212009310/01/05 21:20:31  5-MIN KMSN 020320Z 16006KT 10SM CLR 19/13 A3009 700 67 1400 160/06 RMK AO2
14837KMSN MSN20051001212509310/01/05 21:25:31  5-MIN KMSN 020325Z 17006KT 10SM CLR 19/13 A3010 700 67 1400 170/06 RMK AO2
14837KMSN MSN20051001213009310/01/05 21:30:31  5-MIN KMSN 020330Z 17005KT 10SM CLR 19/13 A3010 700 65 1400 170/05 RMK AO2
14837KMSN MSN20051001213509310/01/05 21:35:31  5-MIN KMSN 020335Z 18006KT 10SM CLR 19/13 A3010 700 65 1400 180/06 RMK AO2
14837KMSN MSN20051001214009310/01/05 21:40:31  5-MIN KMSN 020340Z 18007KT 10SM CLR 19/12 A3010 700 62 1400 180/07 RMK AO2
14837KMSN MSN20051001214509310/01/05 21:45:31  5-MIN KMSN 020345Z 17007KT 10SM CLR 19/12 A3010 700 62 1400 170/07 RMK AO2
14837KMSN MSN20051001215011010/01/05 21:50:31  5-MIN KMSN 020350Z 17006KT 10SM CLR 19/13 A3010 700 67 1400 170/06 RMK AO2 SLP188 T01890128
14837KMSN MSN20051001215509310/01/05 21:55:31  5-MIN KMSN 020355Z 18007KT 10SM CLR 19/12 A3010 700 65 1400 180/07 RMK AO2
14837KMSN MSN20051001220009310/01/05 22:00:31  5-MIN KMSN 020400Z 18008KT 10SM CLR 19/12 A3010 700 62 1400 180/08 RMK AO2
14837KMSN MSN20051001220509310/01/05 22:05:31  5-MIN KMSN 020405Z 18008KT 10SM CLR 19/12 A3010 700 62 1400 180/08 RMK AO2
14837KMSN MSN20051001221009310/01/05 22:10:31  5-MIN KMSN 020410Z 18009KT 10SM CLR 19/12 A3010 700 62 1400 180/09 RMK AO2
14837KMSN MSN20051001221509310/01/05 22:15:31  5-MIN KMSN 020415Z 18008KT 10SM CLR 19/12 A3010 700 62 1400 170/08 RMK AO2
14837KMSN MSN20051001222009310/01/05 22:20:31  5-MIN KMSN 020420Z 18008KT 10SM CLR 19/12 A3010 700 62 1400 170/08 RMK AO2
14837KMSN MSN20051001222509310/01/05 22:25:31  5-MIN KMSN 020425Z 18008KT 10SM CLR 19/12 A3010 700 62 1400 170/08 RMK AO2
14837KMSN MSN20051001223009310/01/05 22:30:31  5-MIN KMSN 020430Z 18008KT 10SM CLR 19/12 A3010 700 62 1400 180/08 RMK AO2
14837KMSN MSN20051001223509310/01/05 22:35:31  5-MIN KMSN 020435Z 17008KT 10SM CLR 19/12 A3010 700 62 1400 170/08 RMK AO2
14837KMSN MSN20051001224009310/01/05 22:40:31  5-MIN KMSN 020440Z 18007KT 10SM CLR 19/12 A3010 700 62 1400 170/07 RMK AO2
14837KMSN MSN20051001224509310/01/05 22:45:31  5-MIN KMSN 020445Z 18007KT 10SM CLR 19/12 A3010 700 60 1400 180/07 RMK AO2
14837KMSN MSN20051001225011010/01/05 22:50:31  5-MIN KMSN 020450Z 18007KT 10SM CLR 19/12 A3010 690 62 1400 180/07 RMK AO2 SLP191 T01890117
14837KMSN MSN20051001225509310/01/05 22:55:31  5-MIN KMSN 020455Z 18007KT 10SM CLR 19/12 A3010 690 62 1400 180/07 RMK AO2
14837KMSN MSN20051001230009310/01/05 23:00:31  5-MIN KMSN 020500Z 18007KT 10SM CLR 19/12 A3010 690 62 1300 180/07 RMK AO2
14837KMSN MSN20051001230509310/01/05 23:05:31  5-MIN KMSN 020505Z 18007KT 10SM CLR 19/12 A3011 690 62 1300 180/07 RMK AO2
14837KMSN MSN20051001231009310/01/05 23:10:31  5-MIN KMSN 020510Z 19006KT 10SM CLR 19/12 A3011 690 62 1300 190/06 RMK AO2
14837KMSN MSN20051001231509310/01/05 23:15:31  5-MIN KMSN 020515Z 18006KT 10SM CLR 19/12 A3011 690 62 1300 180/06 RMK AO2
14837KMSN MSN20051001232009310/01/05 23:20:31  5-MIN KMSN 020520Z 18006KT 10SM CLR 19/12 A3011 690 62 1300 180/06 RMK AO2
14837KMSN MSN20051001232509310/01/05 23:25:31  5-MIN KMSN 020525Z 18006KT 10SM CLR 19/12 A3011 690 62 1300 180/06 RMK AO2
14837KMSN MSN20051001233009310/01/05 23:30:31  5-MIN KMSN 020530Z 17005KT 10SM CLR 18/12 A3011 690 65 1300 170/05 RMK AO2
14837KMSN MSN20051001233509310/01/05 23:35:31  5-MIN KMSN 020535Z 17005KT 10SM CLR 17/12 A3011 690 69 1200 170/05 RMK AO2
14837KMSN MSN20051001234009310/01/05 23:40:31  5-MIN KMSN 020540Z 16005KT 10SM CLR 17/12 A3011 690 69 1200 160/05 RMK AO2
14837KMSN MSN20051001234509310/01/05 23:45:31  5-MIN KMSN 020545Z 17005KT 10SM CLR 17/12 A3011 690 69 1200 170/05 RMK AO2
14837KMSN MSN20051001235013810/01/05 23:50:31  5-MIN KMSN 020550Z 17005KT 10SM CLR 18/12 A3010 690 67 1200 170/05 RMK AO2 SLP190 T01780117 10228 20172 402720117 53012
14837KMSN MSN20051001235509310/01/05 23:55:31  5-MIN KMSN 020555Z 17005KT 10SM CLR 18/11 A3010 700 64 1200 170/05 RMK AO2
14837KMSN MSN20051002000009310/02/05 00:00:38  5-MIN KMSN 020600Z 17005KT 10SM CLR 17/11 A3011 690 67 1200 170/05 RMK AO2
14837KMSN MSN20051002000509310/02/05 00:05:31  5-MIN KMSN 020605Z 18004KT 10SM CLR 18/11 A3011 690 64 1200 170/04 RMK AO2
14837KMSN MSN20051002001009310/02/05 00:10:31  5-MIN KMSN 020610Z 17003KT 10SM CLR 18/11 A3010 700 64 1200 170/03 RMK AO2
14837KMSN MSN20051002001509310/02/05 00:15:31  5-MIN KMSN 020615Z 17003KT 10SM CLR 17/11 A3010 700 67 1200 170/03 RMK AO2
14837KMSN MSN20051002002009310/02/05 00:20:31  5-MIN KMSN 020620Z 16004KT 10SM CLR 17/11 A3010 700 67 1200 160/04 RMK AO2
14837KMSN MSN20051002002509310/02/05 00:25:31  5-MIN KMSN 020625Z 17004KT 10SM CLR 17/11 A3010 700 67 1200 170/04 RMK AO2
14837KMSN MSN20051002003009310/02/05 00:30:31  5-MIN KMSN 020630Z 16004KT 10SM CLR 17/11 A3010 700 67 1200 160/04 RMK AO2
14837KMSN MSN20051002003509310/02/05 00:35:31  5-MIN KMSN 020635Z 17004KT 10SM CLR 17/11 A3010 700 67 1100 170/04 RMK AO2
14837KMSN MSN20051002004009310/02/05 00:40:31  5-MIN KMSN 020640Z 17004KT 10SM CLR 17/11 A3010 700 64 1200 170/04 RMK AO2
14837KMSN MSN20051002004509310/02/05 00:45:31  5-MIN KMSN 020645Z 16003KT 10SM CLR 17/11 A3010 700 64 1200 160/03 RMK AO2
14837KMSN MSN20051002005011010/02/05 00:50:31  5-MIN KMSN 020650Z 17003KT 10SM CLR 17/11 A3010 700 67 1100 170/03 RMK AO2 SLP188 T01670106
14837KMSN MSN20051002005509310/02/05 00:55:31  5-MIN KMSN 020655Z 16004KT 10SM CLR 17/11 A3010 700 64 1200 160/04 RMK AO2
14837KMSN MSN20051002010009310/02/05 01:00:31  5-MIN KMSN 020700Z 18004KT 10SM CLR 17/11 A3010 700 67 1100 180/04 RMK AO2
14837KMSN MSN20051002010509310/02/05 01:05:31  5-MIN KMSN 020705Z 18005KT 10SM CLR 17/11 A3010 700 64 1200 180/05 RMK AO2
14837KMSN MSN20051002011009310/02/05 01:10:31  5-MIN KMSN 020710Z 18003KT 10SM CLR 17/11 A3009 700 64 1200 180/03 RMK AO2
14837KMSN MSN20051002011509310/02/05 01:15:31  5-MIN KMSN 020715Z 20003KT 10SM CLR 17/11 A3009 710 64 1200 200/03 RMK AO2
14837KMSN MSN20051002012009310/02/05 01:20:31  5-MIN KMSN 020720Z 00000KT 10SM CLR 17/11 A3009 710 64 1200 000/00 RMK AO2
14837KMSN MSN20051002012509310/02/05 01:25:31  5-MIN KMSN 020725Z 18004KT 10SM CLR 17/10 A3009 710 62 1200 180/04 RMK AO2
14837KMSN MSN20051002013009310/02/05 01:30:31  5-MIN KMSN 020730Z 18004KT 10SM CLR 17/10 A3009 710 62 1200 180/04 RMK AO2
14837KMSN MSN20051002013509310/02/05 01:35:31  5-MIN KMSN 020735Z 19004KT 10SM CLR 18/10 A3009 710 60 1200 190/04 RMK AO2
14837KMSN MSN20051002014009310/02/05 01:40:31  5-MIN KMSN 020740Z 18005KT 10SM CLR 17/10 A3009 710 62 1200 180/05 RMK AO2
14837KMSN MSN20051002014509310/02/05 01:45:31  5-MIN KMSN 020745Z 18005KT 10SM CLR 17/10 A3009 710 62 1200 180/05 RMK AO2
14837KMSN MSN20051002015011010/02/05 01:50:31  5-MIN KMSN 020750Z 18005KT 10SM CLR 17/10 A3009 710 62 1200 180/05 RMK AO2 SLP184 T01720100
14837KMSN MSN20051002015509310/02/05 01:55:31  5-MIN KMSN 020755Z 18004KT 10SM CLR 17/10 A3008 710 62 1200 180/04 RMK AO2
14837KMSN MSN20051002020009310/02/05 02:00:31  5-MIN KMSN 020800Z 18004KT 10SM CLR 17/10 A3008 710 64 1100 180/04 RMK AO2
14837KMSN MSN20051002020509310/02/05 02:05:31  5-MIN KMSN 020805Z 17005KT 10SM CLR 17/10 A3008 710 64 1100 170/05 RMK AO2
14837KMSN MSN20051002021009310/02/05 02:10:31  5-MIN KMSN 020810Z 19005KT 10SM CLR 17/10 A3008 710 64 1100 180/05 RMK AO2
14837KMSN MSN20051002021509310/02/05 02:15:31  5-MIN KMSN 020815Z 17005KT 10SM CLR 17/10 A3008 710 64 1100 170/05 RMK AO2
14837KMSN MSN20051002022009310/02/05 02:20:31  5-MIN KMSN 020820Z 17004KT 10SM CLR 16/10 A3008 720 67 1100 170/04 RMK AO2
14837KMSN MSN20051002022509310/02/05 02:25:31  5-MIN KMSN 020825Z 17005KT 10SM CLR 16/10 A3008 720 67 1100 170/05 RMK AO2
14837KMSN MSN20051002023009310/02/05 02:30:31  5-MIN KMSN 020830Z 18004KT 10SM CLR 16/10 A3008 720 67 1100 180/04 RMK AO2
14837KMSN MSN20051002023509310/02/05 02:35:31  5-MIN KMSN 020835Z 18004KT 10SM CLR 16/10 A3008 720 67 1100 180/04 RMK AO2
14837KMSN MSN20051002024009310/02/05 02:40:31  5-MIN KMSN 020840Z 18005KT 10SM CLR 17/10 A3008 710 64 1100 180/05 RMK AO2
14837KMSN MSN20051002024509310/02/05 02:45:31  5-MIN KMSN 020845Z 18005KT 10SM CLR 17/09 A3008 720 62 1100 170/05 RMK AO2
14837KMSN MSN20051002025011610/02/05 02:50:31  5-MIN KMSN 020850Z 17004KT 10SM CLR 17/09 A3008 720 62 1100 170/04 RMK AO2 SLP182 T01670094 50002
14837KMSN MSN20051002025509310/02/05 02:55:31  5-MIN KMSN 020855Z 17005KT 10SM CLR 16/09 A3008 720 64 1100 170/05 RMK AO2
14837KMSN MSN20051002030009310/02/05 03:00:31  5-MIN KMSN 020900Z 17005KT 10SM CLR 16/09 A3008 720 64 1100 170/05 RMK AO2
14837KMSN MSN20051002030509310/02/05 03:05:31  5-MIN KMSN 020905Z 17005KT 10SM CLR 16/09 A3008 720 64 1100 170/05 RMK AO2
14837KMSN MSN20051002031009310/02/05 03:10:31  5-MIN KMSN 020910Z 17004KT 10SM CLR 16/09 A3008 720 64 1100 170/04 RMK AO2
14837KMSN MSN20051002031509310/02/05 03:15:31  5-MIN KMSN 020915Z 18004KT 10SM CLR 17/09 A3008 720 62 1100 180/04 RMK AO2
14837KMSN MSN20051002032009310/02/05 03:20:31  5-MIN KMSN 020920Z 18005KT 10SM CLR 17/09 A3008 720 62 1100 180/05 RMK AO2
14837KMSN MSN20051002032509310/02/05 03:25:31  5-MIN KMSN 020925Z 18005KT 10SM CLR 17/09 A3008 720 62 1100 170/05 RMK AO2
14837KMSN MSN20051002033009310/02/05 03:30:31  5-MIN KMSN 020930Z 18005KT 10SM CLR 17/09 A3008 720 62 1100 180/05 RMK AO2
14837KMSN MSN20051002033509310/02/05 03:35:31  5-MIN KMSN 020935Z 18006KT 10SM CLR 17/09 A3008 710 62 1100 170/06 RMK AO2
14837KMSN MSN20051002034009310/02/05 03:40:31  5-MIN KMSN 020940Z 17006KT 10SM CLR 17/09 A3008 710 62 1100 170/06 RMK AO2
14837KMSN MSN20051002034509310/02/05 03:45:31  5-MIN KMSN 020945Z 17005KT 10SM CLR 16/09 A3009 710 67 1000 170/05 RMK AO2
14837KMSN MSN20051002035011010/02/05 03:50:31  5-MIN KMSN 020950Z 17006KT 10SM CLR 16/09 A3009 710 67 1000 170/06 RMK AO2 SLP185 T01560094
14837KMSN MSN20051002035509310/02/05 03:55:31  5-MIN KMSN 020955Z 17006KT 10SM CLR 16/09 A3009 710 67 1000 170/06 RMK AO2
14837KMSN MSN20051002040009310/02/05 04:00:31  5-MIN KMSN 021000Z 17006KT 10SM CLR 16/09 A3009 710 67 1000 170/06 RMK AO2
14837KMSN MSN20051002040509310/02/05 04:05:31  5-MIN KMSN 021005Z 17006KT 10SM CLR 16/09 A3009 700 67 1000 170/06 RMK AO2
14837KMSN MSN20051002041009310/02/05 04:10:31  5-MIN KMSN 021010Z 17006KT 10SM CLR 16/09 A3009 710 67 1000 170/06 RMK AO2
14837KMSN MSN20051002041509210/02/05 04:15:31  5-MIN KMSN 021015Z 18005KT 10SM CLR 15/09 A3010 700 69 900 170/05 RMK AO2
14837KMSN MSN20051002042009310/02/05 04:20:31  5-MIN KMSN 021020Z 18006KT 10SM CLR 16/09 A3010 700 67 1000 180/06 RMK AO2
14837KMSN MSN20051002042509310/02/05 04:25:31  5-MIN KMSN 021025Z 18005KT 10SM CLR 16/09 A3010 700 67 1000 180/05 RMK AO2
14837KMSN MSN20051002043009310/02/05 04:30:31  5-MIN KMSN 021030Z 18006KT 10SM CLR 16/09 A3010 700 67 1000 180/06 RMK AO2
14837KMSN MSN20051002043509310/02/05 04:35:31  5-MIN KMSN 021035Z 18006KT 10SM CLR 16/09 A3010 700 67 1000 180/06 RMK AO2
14837KMSN MSN20051002044009310/02/05 04:40:31  5-MIN KMSN 021040Z 17006KT 10SM CLR 16/09 A3010 700 67 1000 170/06 RMK AO2
14837KMSN MSN20051002044509310/02/05 04:45:31  5-MIN KMSN 021045Z 16006KT 10SM CLR 16/09 A3010 690 67 1000 160/06 RMK AO2
14837KMSN MSN20051002045010910/02/05 04:50:31  5-MIN KMSN 021050Z 16006KT 10SM CLR 14/09 A3010 690 72 800 160/06 RMK AO2 SLP191 T01440094
14837KMSN MSN20051002045509210/02/05 04:55:31  5-MIN KMSN 021055Z 16007KT 10SM CLR 14/09 A3010 690 72 800 160/07 RMK AO2
14837KMSN MSN20051002050009210/02/05 05:00:31  5-MIN KMSN 021100Z 16006KT 10SM CLR 14/09 A3011 690 72 800 160/06 RMK AO2
14837KMSN MSN20051002050509210/02/05 05:05:31  5-MIN KMSN 021105Z 17005KT 10SM CLR 14/09 A3011 690 72 800 170/05 RMK AO2
14837KMSN MSN20051002051009210/02/05 05:10:31  5-MIN KMSN 021110Z 17006KT 10SM CLR 15/09 A3011 690 69 900 170/06 RMK AO2
14837KMSN MSN20051002051509210/02/05 05:15:31  5-MIN KMSN 021115Z 16007KT 10SM CLR 14/09 A3011 690 72 800 160/07 RMK AO2
14837KMSN MSN20051002052009210/02/05 05:20:31  5-MIN KMSN 021120Z 16007KT 10SM CLR 14/09 A3011 690 72 800 160/07 RMK AO2
14837KMSN MSN20051002052509210/02/05 05:25:31  5-MIN KMSN 021125Z 16007KT 10SM CLR 14/09 A3011 690 74 800 160/07 RMK AO2
14837KMSN MSN20051002053009210/02/05 05:30:31  5-MIN KMSN 021130Z 16007KT 10SM CLR 14/09 A3011 690 74 800 160/07 RMK AO2
14837KMSN MSN20051002053509210/02/05 05:35:31  5-MIN KMSN 021135Z 16008KT 10SM CLR 13/09 A3011 690 77 700 160/08 RMK AO2
14837KMSN MSN20051002054009210/02/05 05:40:31  5-MIN KMSN 021140Z 16007KT 10SM CLR 14/09 A3011 690 74 800 160/07 RMK AO2
14837KMSN MSN20051002054509210/02/05 05:45:31  5-MIN KMSN 021145Z 16007KT 10SM CLR 14/09 A3011 690 74 800 150/07 RMK AO2
14837KMSN MSN20051002055012710/02/05 05:50:31  5-MIN KMSN 021150Z 15006KT 10SM CLR 13/09 A3011 690 77 700 150/06 RMK AO2 SLP194 T01330094 10178 20133 56008
14837KMSN MSN20051002055509210/02/05 05:55:31  5-MIN KMSN 021155Z 14004KT 10SM CLR 13/09 A3011 690 77 700 140/04 RMK AO2
14837KMSN MSN20051002060009210/02/05 06:00:31  5-MIN KMSN 021200Z 13005KT 10SM CLR 13/09 A3011 690 77 700 130/05 RMK AO2
14837KMSN MSN20051002060509210/02/05 06:05:31  5-MIN KMSN 021205Z 13006KT 10SM CLR 13/09 A3011 690 77 700 130/06 RMK AO2
14837KMSN MSN20051002061009210/02/05 06:10:31  5-MIN KMSN 021210Z 13006KT 10SM CLR 14/09 A3010 690 74 800 130/06 RMK AO2
14837KMSN MSN20051002061509210/02/05 06:15:31  5-MIN KMSN 021215Z 14006KT 10SM CLR 14/09 A3010 700 74 800 140/06 RMK AO2
14837KMSN MSN20051002062009210/02/05 06:20:31  5-MIN KMSN 021220Z 14005KT 10SM CLR 14/10 A3010 700 77 800 140/05 RMK AO2
14837KMSN MSN20051002062509210/02/05 06:25:31  5-MIN KMSN 021225Z 13005KT 10SM CLR 14/10 A3010 700 77 800 130/05 RMK AO2
14837KMSN MSN20051002063009210/02/05 06:30:31  5-MIN KMSN 021230Z 14005KT 10SM CLR 14/10 A3010 690 77 800 140/05 RMK AO2
14837KMSN MSN20051002063509210/02/05 06:35:31  5-MIN KMSN 021235Z 16005KT 10SM CLR 14/10 A3011 690 74 800 160/05 RMK AO2
14837KMSN MSN20051002064009210/02/05 06:40:31  5-MIN KMSN 021240Z 16005KT 10SM CLR 14/10 A3011 690 74 800 160/05 RMK AO2
14837KMSN MSN20051002064509210/02/05 06:45:31  5-MIN KMSN 021245Z 16006KT 10SM CLR 14/10 A3011 690 74 800 160/06 RMK AO2
14837KMSN MSN20051002065010910/02/05 06:50:31  5-MIN KMSN 021250Z 17006KT 10SM CLR 15/10 A3011 690 72 900 170/06 RMK AO2 SLP195 T01500100
14837KMSN MSN20051002065509210/02/05 06:55:31  5-MIN KMSN 021255Z 17006KT 10SM CLR 15/10 A3011 690 72 900 160/06 RMK AO2
14837KMSN MSN20051002070009210/02/05 07:00:31  5-MIN KMSN 021300Z 17007KT 10SM CLR 15/11 A3011 690 74 900 160/07 RMK AO2
14837KMSN MSN20051002070509210/02/05 07:05:31  5-MIN KMSN 021305Z 17008KT 10SM CLR 15/11 A3011 690 74 900 160/08 RMK AO2
14837KMSN MSN20051002071009310/02/05 07:10:31  5-MIN KMSN 021310Z 17007KT 10SM CLR 16/11 A3011 690 72 1000 170/07 RMK AO2
14837KMSN MSN20051002071509310/02/05 07:15:31  5-MIN KMSN 021315Z 16006KT 10SM CLR 16/11 A3011 690 72 1000 160/06 RMK AO2
14837KMSN MSN20051002072009210/02/05 07:20:31  5-MIN KMSN 021320Z 16008KT 10SM CLR 16/11 A3012 680 74 900 150/08 RMK AO2
14837KMSN MSN20051002072509310/02/05 07:25:31  5-MIN KMSN 021325Z 16007KT 10SM CLR 16/11 A3011 690 72 1000 160/07 RMK AO2
14837KMSN MSN20051002073009310/02/05 07:30:31  5-MIN KMSN 021330Z 17007KT 10SM CLR 16/11 A3011 690 72 1000 160/07 RMK AO2
14837KMSN MSN20051002073509310/02/05 07:35:31  5-MIN KMSN 021335Z 16007KT 10SM CLR 17/11 A3011 690 69 1100 150/07 RMK AO2
14837KMSN MSN20051002074009310/02/05 07:40:31  5-MIN KMSN 021340Z 16007KT 10SM CLR 17/12 A3011 690 72 1100 160/07 RMK AO2
14837KMSN MSN20051002074509310/02/05 07:45:31  5-MIN KMSN 021345Z 16007KT 10SM CLR 17/12 A3011 690 72 1100 150/07 RMK AO2
14837KMSN MSN20051002075011010/02/05 07:50:31  5-MIN KMSN 021350Z 16007KT 10SM CLR 17/12 A3011 690 69 1200 160/07 RMK AO2 SLP193 T01720117
14837KMSN MSN20051002075509310/02/05 07:55:31  5-MIN KMSN 021355Z 16008KT 10SM CLR 17/12 A3011 690 72 1200 160/08 RMK AO2
14837KMSN MSN20051002080009310/02/05 08:00:31  5-MIN KMSN 021400Z 15008KT 10SM CLR 18/12 A3011 690 69 1200 150/08 RMK AO2
14837KMSN MSN20051002080509210/02/05 08:05:31  5-MIN KMSN 021405Z 15008KT 9SM CLR 18/13 A3010 690 72 1200 140/08 RMK AO2
14837KMSN MSN20051002081009210/02/05 08:10:31  5-MIN KMSN 021410Z 16008KT 9SM CLR 18/13 A3010 700 72 1200 160/08 RMK AO2
14837KMSN MSN20051002081509210/02/05 08:15:31  5-MIN KMSN 021415Z 15009KT 9SM CLR 18/13 A3011 690 70 1300 150/09 RMK AO2
14837KMSN MSN20051002082009210/02/05 08:20:31  5-MIN KMSN 021420Z 16009KT 9SM CLR 18/13 A3011 690 72 1300 160/09 RMK AO2
14837KMSN MSN20051002082509210/02/05 08:25:31  5-MIN KMSN 021425Z 15009KT 8SM CLR 18/13 A3011 690 72 1300 150/09 RMK AO2
14837KMSN MSN20051002083009210/02/05 08:30:31  5-MIN KMSN 021430Z 16009KT 8SM CLR 19/14 A3011 690 72 1300 160/09 RMK AO2
14837KMSN MSN20051002083509510/02/05 08:35:31  5-MIN KMSN 021435Z 17009KT 8SM FEW022 19/14 A3011 690 72 1300 170/09 RMK AO2
14837KMSN MSN20051002084009510/02/05 08:40:31  5-MIN KMSN 021440Z 16010KT 8SM FEW022 19/14 A3011 690 72 1400 160/10 RMK AO2
14837KMSN MSN20051002084509510/02/05 08:45:31  5-MIN KMSN 021445Z 17008KT 8SM FEW022 19/14 A3011 690 72 1400 160/08 RMK AO2
14837KMSN MSN20051002085011510/02/05 08:50:31  5-MIN KMSN 021450Z 16009KT 9SM CLR 19/14 A3011 690 72 1400 160/09 RMK AO2 SLP193 T01940144 51010
14837KMSN MSN20051002085509510/02/05 08:55:31  5-MIN KMSN 021455Z 16008KT 8SM FEW023 20/15 A3011 690 72 1500 160/08 RMK AO2
14837KMSN MSN20051002090009510/02/05 09:00:31  5-MIN KMSN 021500Z 16009KT 7SM FEW023 20/15 A3011 690 72 1500 160/09 RMK AO2
14837KMSN MSN20051002090509510/02/05 09:05:31  5-MIN KMSN 021505Z 18008KT 7SM FEW023 21/16 A3011 690 73 1500 180/08 RMK AO2
14837KMSN MSN20051002091009210/02/05 09:10:31  5-MIN KMSN 021510Z 18010KT 7SM CLR 21/16 A3010 700 70 1600 170/10 RMK AO2
14837KMSN MSN20051002091509210/02/05 09:15:31  5-MIN KMSN 021515Z 17009KT 7SM CLR 21/16 A3010 700 73 1600 160/09 RMK AO2
14837KMSN MSN20051002092009210/02/05 09:20:31  5-MIN KMSN 021520Z 16011KT 7SM CLR 22/16 A3010 700 70 1700 160/11 RMK AO2
14837KMSN MSN20051002092509210/02/05 09:25:31  5-MIN KMSN 021525Z 18010KT 7SM CLR 22/16 A3010 700 70 1700 170/10 RMK AO2
14837KMSN MSN20051002093009210/02/05 09:30:31  5-MIN KMSN 021530Z 17010KT 7SM CLR 22/17 A3010 700 73 1700 170/10 RMK AO2
14837KMSN MSN20051002093509510/02/05 09:35:31  5-MIN KMSN 021535Z 17009KT 6SM HZ CLR 22/17 A3010 700 70 1700 170/09 RMK AO2
14837KMSN MSN20051002094009510/02/05 09:40:31  5-MIN KMSN 021540Z 17010KT 6SM HZ CLR 23/17 A3010 690 70 1800 170/10 RMK AO2
14837KMSN MSN20051002094510110/02/05 09:45:31  5-MIN KMSN 021545Z 19012G16KT 6SM HZ CLR 23/17 A3011 690 70 1800 190/12G16 RMK AO2
14837KMSN MSN20051002095011210/02/05 09:50:31  5-MIN KMSN 021550Z 19011KT 8SM FEW035 23/17 A3010 700 70 1800 190/11 RMK AO2 SLP190 T02280172
14837KMSN MSN20051002095509510/02/05 09:55:31  5-MIN KMSN 021555Z 19012KT 6SM HZ CLR 23/17 A3010 690 68 1800 190/12 RMK AO2
14837KMSN MSN20051002100009210/02/05 10:00:31  5-MIN KMSN 021600Z 18013KT 7SM CLR 23/17 A3010 700 70 1800 170/13 RMK AO2
14837KMSN MSN20051002100509210/02/05 10:05:31  5-MIN KMSN 021605Z 17014KT 7SM CLR 23/17 A3010 700 68 1900 170/14 RMK AO2
14837KMSN MSN20051002101009210/02/05 10:10:31  5-MIN KMSN 021610Z 18013KT 7SM CLR 23/17 A3011 690 68 1900 180/13 RMK AO2
14837KMSN MSN20051002101509210/02/05 10:15:31  5-MIN KMSN 021615Z 19015KT 7SM CLR 23/17 A3011 690 70 1800 190/15 RMK AO2
14837KMSN MSN20051002102009210/02/05 10:20:31  5-MIN KMSN 021620Z 19012KT 7SM CLR 23/17 A3011 690 68 1800 190/12 RMK AO2
14837KMSN MSN20051002102509510/02/05 10:25:31  5-MIN KMSN 021625Z 18010KT 7SM FEW035 23/17 A3011 690 70 1800 180/10 RMK AO2
14837KMSN MSN20051002103009510/02/05 10:30:31  5-MIN KMSN 021630Z 19012KT 7SM FEW035 23/17 A3011 690 68 1800 190/12 RMK AO2
14837KMSN MSN20051002103509510/02/05 10:35:31  5-MIN KMSN 021635Z 18012KT 7SM FEW035 23/17 A3011 690 68 1900 180/12 RMK AO2
14837KMSN MSN20051002104009510/02/05 10:40:31  5-MIN KMSN 021640Z 17014KT 7SM FEW035 24/17 A3011 690 66 1900 170/14 RMK AO2
14837KMSN MSN20051002104509510/02/05 10:45:31  5-MIN KMSN 021645Z 18010KT 7SM FEW035 23/17 A3011 690 68 1900 180/10 RMK AO2
14837KMSN MSN20051002105012210/02/05 10:50:31  5-MIN KMSN 021650Z 18011KT 6SM HZ FEW037 SCT045 23/17 A3010 700 68 1900 180/11 RMK AO2 SLP189 T02330172
14837KMSN MSN20051002105510510/02/05 10:55:31  5-MIN KMSN 021655Z 18012KT 6SM HZ FEW037 SCT049 24/18 A3010 700 68 1900 180/12 RMK AO2
14837KMSN MSN20051002110009810/02/05 11:00:31  5-MIN KMSN 021700Z 18011KT 6SM HZ FEW035 24/18 A3010 700 66 2000 180/11 RMK AO2
14837KMSN MSN20051002110510210/02/05 11:05:31  5-MIN KMSN 021705Z 17012KT 7SM FEW035 SCT048 24/18 A3010 700 68 1900 170/12 RMK AO2
14837KMSN MSN20051002111010510/02/05 11:10:31  5-MIN KMSN 021710Z 19010KT 6SM HZ FEW035 SCT048 24/18 A3010 700 68 1900 190/10 RMK AO2
14837KMSN MSN20051002111510510/02/05 11:15:31  5-MIN KMSN 021715Z 19012KT 6SM HZ FEW039 SCT048 23/17 A3010 700 68 1900 180/12 RMK AO2
14837KMSN MSN20051002112010210/02/05 11:20:31  5-MIN KMSN 021720Z 19010KT 7SM SCT039 BKN048 24/17 A3010 700 66 1900 190/10 RMK AO2
14837KMSN MSN20051002112510210/02/05 11:25:31  5-MIN KMSN 021725Z 18009KT 7SM BKN037 BKN048 23/17 A3010 700 68 1900 180/09 RMK AO2
14837KMSN MSN20051002113010210/02/05 11:30:31  5-MIN KMSN 021730Z 17010KT 7SM BKN037 OVC048 24/18 A3009 700 68 1900 170/10 RMK AO2
14837KMSN MSN20051002113510210/02/05 11:35:31  5-MIN KMSN 021735Z 17011KT 7SM SCT039 BKN046 24/18 A3009 710 66 2000 170/11 RMK AO2
14837KMSN MSN20051002114010210/02/05 11:40:31  5-MIN KMSN 021740Z 19009KT 7SM SCT039 BKN046 25/18 A3009 700 64 2100 190/09 RMK AO2
14837KMSN MSN20051002114510210/02/05 11:45:31  5-MIN KMSN 021745Z 18013KT 7SM SCT039 SCT046 25/18 A3009 700 64 2100 180/13 RMK AO2
14837KMSN MSN20051002115014410/02/05 11:50:31  5-MIN KMSN 021750Z 19011KT 7SM FEW036 SCT046 SCT060 25/18 A3009 710 64 2100 190/11 RMK AO2 SLP186 T02500178 10250 20133 58000
14837KMSN MSN20051002115510210/02/05 11:55:31  5-MIN KMSN 021755Z 17009KT 7SM FEW045 SCT060 25/18 A3009 710 64 2100 170/09 RMK AO2
14837KMSN MSN20051002120009510/02/05 12:00:31  5-MIN KMSN 021800Z 18011KT 7SM FEW060 25/18 A3009 710 64 2100 180/11 RMK AO2
14837KMSN MSN20051002120509510/02/05 12:05:31  5-MIN KMSN 021805Z 18012KT 7SM FEW065 24/18 A3008 710 66 2000 180/12 RMK AO2
14837KMSN MSN20051002121009810/02/05 12:10:31  5-MIN KMSN 021810Z 17011KT 6SM HZ FEW065 25/18 A3008 720 64 2100 170/11 RMK AO2
14837KMSN MSN20051002121509810/02/05 12:15:31  5-MIN KMSN 021815Z 18011KT 6SM HZ FEW065 24/18 A3008 720 66 2000 180/11 RMK AO2
14837KMSN MSN20051002122009810/02/05 12:20:31  5-MIN KMSN 021820Z 18011KT 6SM HZ FEW055 24/18 A3008 720 68 2000 180/11 RMK AO2
14837KMSN MSN20051002122509810/02/05 12:25:31  5-MIN KMSN 021825Z 17010KT 6SM HZ FEW055 25/18 A3007 720 66 2100 170/10 RMK AO2
14837KMSN MSN20051002123009810/02/05 12:30:31  5-MIN KMSN 021830Z 18012KT 6SM HZ FEW055 26/18 A3007 730 64 2100 180/12 RMK AO2
14837KMSN MSN20051002123509510/02/05 12:35:31  5-MIN KMSN 021835Z 17012KT 7SM FEW055 25/18 A3007 730 64 2100 170/12 RMK AO2
14837KMSN MSN20051002124009510/02/05 12:40:31  5-MIN KMSN 021840Z 18010KT 7SM FEW055 25/18 A3007 730 64 2100 170/10 RMK AO2
14837KMSN MSN20051002124509510/02/05 12:45:31  5-MIN KMSN 021845Z 18010KT 7SM FEW055 25/18 A3006 730 64 2100 180/10 RMK AO2
14837KMSN MSN20051002125011210/02/05 12:50:31  5-MIN KMSN 021850Z 17009KT 7SM FEW055 25/18 A3006 730 64 2100 170/09 RMK AO2 SLP177 T02500178
14837KMSN MSN20051002125509510/02/05 12:55:31  5-MIN KMSN 021855Z 17010KT 7SM BKN070 25/18 A3006 730 66 2100 170/10 RMK AO2
14837KMSN MSN20051002130009510/02/05 13:00:31  5-MIN KMSN 021900Z 16011KT 7SM BKN070 25/18 A3006 730 66 2100 160/11 RMK AO2
14837KMSN MSN20051002130509510/02/05 13:05:31  5-MIN KMSN 021905Z 17008KT 7SM BKN075 25/18 A3006 730 66 2100 170/08 RMK AO2
14837KMSN MSN20051002131009510/02/05 13:10:31  5-MIN KMSN 021910Z 16010KT 7SM BKN075 25/18 A3006 740 66 2100 160/10 RMK AO2
14837KMSN MSN20051002131509510/02/05 13:15:31  5-MIN KMSN 021915Z 17009KT 8SM BKN075 26/18 A3006 740 59 2200 170/09 RMK AO2
14837KMSN MSN20051002132009510/02/05 13:20:31  5-MIN KMSN 021920Z 18010KT 9SM SCT075 26/17 A3006 740 57 2200 180/10 RMK AO2
14837KMSN MSN20051002132509510/02/05 13:25:31  5-MIN KMSN 021925Z 17011KT 9SM SCT075 26/17 A3006 740 59 2200 160/11 RMK AO2
14837KMSN MSN20051002133009510/02/05 13:30:31  5-MIN KMSN 021930Z 18011KT 9SM FEW075 26/17 A3005 740 59 2200 180/11 RMK AO2
14837KMSN MSN20051002133509510/02/05 13:35:31  5-MIN KMSN 021935Z 18012KT 9SM FEW075 26/17 A3006 740 59 2200 180/12 RMK AO2
14837KMSN MSN20051002134009210/02/05 13:40:31  5-MIN KMSN 021940Z 18015KT 9SM CLR 26/17 A3005 740 59 2200 180/15 RMK AO2
14837KMSN MSN20051002134509810/02/05 13:45:31  5-MIN KMSN 021945Z 18013G18KT 9SM CLR 26/17 A3005 740 59 2200 180/13G18 RMK AO2
14837KMSN MSN20051002135011810/02/05 13:50:31  5-MIN KMSN 021950Z 18013G18KT 9SM SCT075 26/17 A3005 750 59 2200 180/13G18 RMK AO2 SLP171 T02560172
14837KMSN MSN20051002135509210/02/05 13:55:31  5-MIN KMSN 021955Z 17016KT 9SM CLR 26/17 A3005 750 57 2200 170/16 RMK AO2
14837KMSN MSN20051002140009510/02/05 14:00:31  5-MIN KMSN 022000Z 17016KT 9SM SCT075 25/17 A3004 750 59 2100 170/16 RMK AO2
14837KMSN MSN20051002140509510/02/05 14:05:31  5-MIN KMSN 022005Z 18014KT 9SM SCT075 25/17 A3004 750 59 2100 180/14 RMK AO2
14837KMSN MSN20051002141009510/02/05 14:10:31  5-MIN KMSN 022010Z 18013KT 9SM SCT075 25/17 A3004 750 59 2100 180/13 RMK AO2
14837KMSN MSN20051002141509510/02/05 14:15:31  5-MIN KMSN 022015Z 17015KT 9SM SCT075 25/17 A3004 760 59 2100 160/15 RMK AO2
14837KMSN MSN20051002142010110/02/05 14:20:31  5-MIN KMSN 022020Z 17012G19KT 9SM FEW075 25/17 A3003 760 61 2100 170/12G19 RMK AO2
14837KMSN MSN20051002142510110/02/05 14:25:31  5-MIN KMSN 022025Z 17014G19KT 9SM FEW075 25/17 A3003 760 61 2100 170/14G19 RMK AO2
14837KMSN MSN20051002143009510/02/05 14:30:31  5-MIN KMSN 022030Z 18010KT 9SM FEW075 25/17 A3003 760 61 2100 180/10 RMK AO2
14837KMSN MSN20051002143509510/02/05 14:35:31  5-MIN KMSN 022035Z 18011KT 8SM FEW075 25/17 A3003 760 61 2100 170/11 RMK AO2
14837KMSN MSN20051002144009510/02/05 14:40:31  5-MIN KMSN 022040Z 18012KT 8SM FEW075 25/17 A3003 760 61 2100 170/12 RMK AO2
14837KMSN MSN20051002144509510/02/05 14:45:31  5-MIN KMSN 022045Z 16014KT 8SM FEW075 25/18 A3003 760 64 2100 160/14 RMK AO2
14837KMSN MSN20051002145011810/02/05 14:50:31  5-MIN KMSN 022050Z 17014KT 8SM FEW075 25/18 A3003 760 64 2100 170/14 RMK AO2 SLP166 T02500178 58006
14837KMSN MSN20051002145509210/02/05 14:55:31  5-MIN KMSN 022055Z 16013KT 8SM CLR 26/18 A3003 760 61 2200 160/13 RMK AO2
14837KMSN MSN20051002150009210/02/05 15:00:31  5-MIN KMSN 022100Z 17013KT 8SM CLR 26/18 A3003 760 64 2200 170/13 RMK AO2
14837KMSN MSN20051002150509210/02/05 15:05:31  5-MIN KMSN 022105Z 17014KT 8SM CLR 26/18 A3003 760 61 2200 170/14 RMK AO2
14837KMSN MSN20051002151009810/02/05 15:10:31  5-MIN KMSN 022110Z 17012G18KT 8SM CLR 26/18 A3003 760 61 2200 170/12G18 RMK AO2
14837KMSN MSN20051002151509210/02/05 15:15:31  5-MIN KMSN 022115Z 16012KT 8SM CLR 26/18 A3003 760 61 2200 160/12 RMK AO2
14837KMSN MSN20051002152009210/02/05 15:20:31  5-MIN KMSN 022120Z 18012KT 8SM CLR 26/18 A3003 760 61 2200 180/12 RMK AO2
14837KMSN MSN20051002152509510/02/05 15:25:31  5-MIN KMSN 022125Z 16015KT 8SM FEW120 25/18 A3003 770 64 2100 160/15 RMK AO2
14837KMSN MSN20051002153009510/02/05 15:30:31  5-MIN KMSN 022130Z 16016KT 8SM FEW120 24/18 A3003 760 66 2100 160/16 RMK AO2
14837KMSN MSN20051002153509210/02/05 15:35:31  5-MIN KMSN 022135Z 16014KT 8SM CLR 24/18 A3003 760 66 2100 160/14 RMK AO2
14837KMSN MSN20051002154009210/02/05 15:40:31  5-MIN KMSN 022140Z 16015KT 8SM CLR 24/18 A3003 760 66 2100 160/15 RMK AO2
14837KMSN MSN20051002154509210/02/05 15:45:31  5-MIN KMSN 022145Z 17016KT 8SM CLR 24/18 A3003 760 66 2100 170/16 RMK AO2
14837KMSN MSN20051002155011210/02/05 15:50:31  5-MIN KMSN 022150Z 16016KT 8SM FEW120 25/18 A3003 760 64 2100 160/16 RMK AO2 SLP165 T02500178
14837KMSN MSN20051002155509210/02/05 15:55:31  5-MIN KMSN 022155Z 16013KT 9SM CLR 25/18 A3003 760 64 2100 160/13 RMK AO2
14837KMSN MSN20051002160009810/02/05 16:00:31  5-MIN KMSN 022200Z 17014G19KT 9SM CLR 25/18 A3003 760 64 2100 170/14G19 RMK AO2
14837KMSN MSN20051002160509810/02/05 16:05:31  5-MIN KMSN 022205Z 17014G19KT 9SM CLR 24/18 A3003 760 66 2100 170/14G19 RMK AO2
14837KMSN MSN20051002161009810/02/05 16:10:31  5-MIN KMSN 022210Z 17015G21KT 9SM CLR 25/18 A3003 760 64 2100 170/15G21 RMK AO2
14837KMSN MSN20051002161509810/02/05 16:15:31  5-MIN KMSN 022215Z 17015G21KT 8SM CLR 25/18 A3003 760 64 2100 170/15G21 RMK AO2
14837KMSN MSN20051002162009210/02/05 16:20:31  5-MIN KMSN 022220Z 16012KT 8SM CLR 25/18 A3003 760 66 2100 160/12 RMK AO2
14837KMSN MSN20051002162509210/02/05 16:25:31  5-MIN KMSN 022225Z 16014KT 8SM CLR 25/18 A3003 760 66 2100 160/14 RMK AO2
14837KMSN MSN20051002163009210/02/05 16:30:31  5-MIN KMSN 022230Z 16014KT 7SM CLR 25/18 A3003 760 66 2100 160/14 RMK AO2
14837KMSN MSN20051002163509210/02/05 16:35:31  5-MIN KMSN 022235Z 17011KT 7SM CLR 25/18 A3003 760 66 2100 160/11 RMK AO2
14837KMSN MSN20051002164009510/02/05 16:40:31  5-MIN KMSN 022240Z 17012KT 7SM FEW090 25/19 A3003 760 68 2100 170/12 RMK AO2
14837KMSN MSN20051002164509510/02/05 16:45:31  5-MIN KMSN 022245Z 17013KT 7SM SCT090 25/19 A3003 760 68 2100 170/13 RMK AO2
14837KMSN MSN20051002165012610/02/05 16:50:31  5-MIN KMSN 022250Z 17011KT 7SM FEW025 SCT070 BKN090 25/19 A3003 760 68 2100 170/11 RMK AO2 SLP167 T02500189
14837KMSN MSN20051002165510210/02/05 16:55:31  5-MIN KMSN 022255Z 17010KT 7SM FEW040 BKN090 24/19 A3003 760 71 2100 170/10 RMK AO2
14837KMSN MSN20051002170010210/02/05 17:00:31  5-MIN KMSN 022300Z 17009KT 7SM FEW040 BKN090 25/19 A3003 760 68 2100 170/09 RMK AO2
14837KMSN MSN20051002170510910/02/05 17:05:31  5-MIN KMSN 022305Z 18010KT 7SM SCT038 SCT047 BKN090 24/19 A3003 760 71 2100 180/10 RMK AO2
14837KMSN MSN20051002171010910/02/05 17:10:31  5-MIN KMSN 022310Z 18011KT 7SM FEW038 SCT044 BKN090 25/18 A3003 760 66 2100 180/11 RMK AO2
14837KMSN MSN20051002171510810/02/05 17:15:31  5-MIN KMSN 022315Z 18014G18KT 8SM SCT038 BKN090 24/18 A3003 760 66 2100 180/14G18 RMK AO2
14837KMSN MSN20051002172010810/02/05 17:20:31  5-MIN KMSN 022320Z 18012G18KT 9SM FEW038 SCT090 24/17 A3003 760 63 2100 180/12G18 RMK AO2
14837KMSN MSN20051002172511010/02/05 17:25:31  5-MIN KMSN 022325Z 19014KT 10SM FEW038 SCT075 SCT090 24/17 A3003 760 61 2100 190/14 RMK AO2
14837KMSN MSN20051002173010910/02/05 17:30:31  5-MIN KMSN 022330Z 18010G18KT 10SM FEW039 BKN075 25/17 A3003 770 59 2100 180/10G18 RMK AO2
14837KMSN MSN20051002173510910/02/05 17:35:31  5-MIN KMSN 022335Z 19012G17KT 10SM FEW039 BKN075 24/16 A3003 770 59 2100 190/12G17 RMK AO2
14837KMSN MSN20051002174010210/02/05 17:40:31  5-MIN KMSN 022340Z 19012G17KT 10SM BKN070 24/16 A3003 770 59 2100 190/12G17 RMK AO2
14837KMSN MSN20051002174510310/02/05 17:45:31  5-MIN KMSN 022345Z 19010KT 10SM BKN070 BKN090 24/16 A3003 770 59 2100 180/10 RMK AO2
14837KMSN MSN20051002175014510/02/05 17:50:31  5-MIN KMSN 022350Z 19011KT 10SM FEW030 BKN070 BKN090 24/16 A3003 760 59 2100 190/11 RMK AO2 SLP166 T02440161 10261 20244 56019
14837KMSN MSN20051002175509610/02/05 17:55:31  5-MIN KMSN 022355Z 19011KT 10SM OVC065 24/16 A3003 760 59 2100 190/11 RMK AO2
14837KMSN MSN20051002180009610/02/05 18:00:31  5-MIN KMSN 030000Z 19009KT 10SM OVC065 24/16 A3003 760 59 2100 180/09 RMK AO2
14837KMSN MSN20051002180509610/02/05 18:05:31  5-MIN KMSN 030005Z 18010KT 10SM BKN070 24/16 A3004 760 61 2000 180/10 RMK AO2
14837KMSN MSN20051002181009610/02/05 18:10:31  5-MIN KMSN 030010Z 18009KT 10SM OVC065 24/16 A3004 760 61 2000 180/09 RMK AO2
14837KMSN MSN20051002181510310/02/05 18:15:31  5-MIN KMSN 030015Z 18008KT 10SM BKN065 OVC080 24/16 A3004 760 61 2000 180/08 RMK AO2
14837KMSN MSN20051002182010310/02/05 18:20:31  5-MIN KMSN 030020Z 18008KT 10SM BKN070 OVC080 23/16 A3004 750 63 1900 170/08 RMK AO2
14837KMSN MSN20051002182509610/02/05 18:25:31  5-MIN KMSN 030025Z 17011KT 10SM OVC075 23/16 A3005 750 63 1900 170/11 RMK AO2
14837KMSN MSN20051002183009610/02/05 18:30:31  5-MIN KMSN 030030Z 18011KT 10SM BKN075 23/17 A3005 750 66 1900 180/11 RMK AO2
14837KMSN MSN20051002183509610/02/05 18:35:31  5-MIN KMSN 030035Z 17011KT 10SM BKN080 23/17 A3005 750 66 1900 170/11 RMK AO2
14837KMSN MSN20051002184009610/02/05 18:40:31  5-MIN KMSN 030040Z 17010KT 10SM BKN080 23/17 A3005 740 66 1900 170/10 RMK AO2
14837KMSN MSN20051002184509610/02/05 18:45:31  5-MIN KMSN 030045Z 18011KT 10SM BKN075 23/17 A3005 740 66 1900 180/11 RMK AO2
14837KMSN MSN20051002185011310/02/05 18:50:31  5-MIN KMSN 030050Z 17008KT 10SM BKN075 23/17 A3005 740 68 1900 170/08 RMK AO2 SLP174 T02280167
14837KMSN MSN20051002185509610/02/05 18:55:31  5-MIN KMSN 030055Z 17009KT 10SM BKN075 23/17 A3005 740 68 1900 170/09 RMK AO2
14837KMSN MSN20051002190010310/02/05 19:00:31  5-MIN KMSN 030100Z 17008KT 10SM FEW047 OVC075 23/17 A3006 740 68 1900 170/08 RMK AO2
14837KMSN MSN20051002190510310/02/05 19:05:31  5-MIN KMSN 030105Z 17012KT 10SM SCT049 OVC070 23/17 A3006 740 70 1900 170/12 RMK AO2
14837KMSN MSN20051002191011010/02/05 19:10:31  5-MIN KMSN 030110Z 18013KT 10SM SCT047 BKN055 OVC070 23/17 A3006 740 68 1900 180/13 RMK AO2
14837KMSN MSN20051002191510310/02/05 19:15:31  5-MIN KMSN 030115Z 18012KT 10SM BKN047 OVC070 23/17 A3006 740 68 1900 180/12 RMK AO2
14837KMSN MSN20051002192011010/02/05 19:20:31  5-MIN KMSN 030120Z 18013KT 10SM BKN047 BKN060 OVC070 23/17 A3006 740 68 1900 170/13 RMK AO2
14837KMSN MSN20051002192511010/02/05 19:25:31  5-MIN KMSN 030125Z 18013KT 10SM BKN047 BKN055 OVC070 23/17 A3006 740 68 1900 180/13 RMK AO2
14837KMSN MSN20051002193011010/02/05 19:30:31  5-MIN KMSN 030130Z 18011KT 10SM BKN047 BKN055 OVC070 23/17 A3006 730 68 1900 180/11 RMK AO2
14837KMSN MSN20051002193511010/02/05 19:35:31  5-MIN KMSN 030135Z 18012KT 10SM BKN047 BKN060 BKN070 23/17 A3006 740 70 1800 180/12 RMK AO2
14837KMSN MSN20051002194010310/02/05 19:40:31  5-MIN KMSN 030140Z 18011KT 10SM BKN049 BKN070 23/18 A3006 740 73 1800 170/11 RMK AO2
14837KMSN MSN20051002194511010/02/05 19:45:31  5-MIN KMSN 030145Z 18012KT 10SM SCT049 BKN060 BKN070 23/18 A3006 740 73 1800 180/12 RMK AO2
14837KMSN MSN20051002195012710/02/05 19:50:31  5-MIN KMSN 030150Z 18013KT 10SM SCT049 BKN065 BKN080 23/18 A3006 730 73 1800 180/13 RMK AO2 SLP177 T02280178
14837KMSN MSN20051002195510310/02/05 19:55:31  5-MIN KMSN 030155Z 18012KT 10SM BKN055 BKN075 23/18 A3006 730 73 1800 180/12 RMK AO2
14837KMSN MSN20051002200010310/02/05 20:00:31  5-MIN KMSN 030200Z 18013KT 10SM BKN055 BKN075 23/18 A3007 730 73 1800 180/13 RMK AO2
14837KMSN MSN20051002200510310/02/05 20:05:31  5-MIN KMSN 030205Z 18010KT 10SM BKN055 BKN070 23/18 A3006 730 73 1800 170/10 RMK AO2
14837KMSN MSN20051002201011010/02/05 20:10:31  5-MIN KMSN 030210Z 16012KT 10SM FEW026 BKN055 OVC075 23/18 A3006 730 73 1800 160/12 RMK AO2
14837KMSN MSN20051002201511010/02/05 20:15:31  5-MIN KMSN 030215Z 17011KT 10SM SCT026 BKN055 OVC075 23/18 A3006 730 73 1800 170/11 RMK AO2
14837KMSN MSN20051002202010210/02/05 20:20:31  5-MIN KMSN 030220Z 17012KT 9SM SCT026 OVC055 23/18 A3006 730 76 1800 170/12 RMK AO2
14837KMSN MSN20051002202510210/02/05 20:25:31  5-MIN KMSN 030225Z 17012KT 9SM BKN026 OVC055 23/18 A3006 730 76 1800 170/12 RMK AO2
14837KMSN MSN20051002203010810/02/05 20:30:31  5-MIN KMSN 030230Z 16014G18KT 9SM BKN026 OVC055 23/18 A3006 730 76 1800 160/14G18 RMK AO2
14837KMSN MSN20051002203510210/02/05 20:35:31  5-MIN KMSN 030235Z 17014KT 9SM BKN026 OVC050 23/18 A3006 730 76 1800 170/14 RMK AO2
14837KMSN MSN20051002204010910/02/05 20:40:31  5-MIN KMSN 030240Z 17014KT 9SM BKN026 BKN055 OVC070 23/18 A3006 730 76 1800 170/14 RMK AO2
14837KMSN MSN20051002204510810/02/05 20:45:31  5-MIN KMSN 030245Z 17016G20KT 9SM SCT026 OVC055 23/18 A3006 730 76 1800 160/16G20 RMK AO2
14837KMSN MSN20051002205011510/02/05 20:50:31  5-MIN KMSN 030250Z 16013G20KT 9SM FEW024 BKN050 OVC060 23/18 A3006 730 76 1800 160/13G20 RMK AO2
14837KMSN MSN20051002205510910/02/05 20:55:31  5-MIN KMSN 030255Z 16013KT 9SM FEW024 BKN048 OVC060 23/18 A3006 730 76 1800 160/13 RMK AO2
14837KMSN MSN20051002210010910/02/05 21:00:31  5-MIN KMSN 030300Z 18012KT 9SM SCT022 BKN048 OVC060 23/18 A3007 730 76 1800 180/12 RMK AO2
14837KMSN MSN20051002210510910/02/05 21:05:31  5-MIN KMSN 030305Z 18012KT 9SM SCT022 BKN048 OVC065 23/18 A3006 730 76 1800 170/12 RMK AO2
14837KMSN MSN20051002211010910/02/05 21:10:31  5-MIN KMSN 030310Z 17014KT 9SM SCT022 BKN048 OVC075 23/18 A3007 730 76 1800 170/14 RMK AO2
14837KMSN MSN20051002211510910/02/05 21:15:31  5-MIN KMSN 030315Z 17012KT 9SM FEW022 BKN048 OVC070 23/18 A3007 730 76 1800 170/12 RMK AO2
14837KMSN MSN20051002212010910/02/05 21:20:31  5-MIN KMSN 030320Z 17011KT 9SM FEW022 BKN055 OVC070 23/18 A3007 730 76 1800 170/11 RMK AO2
14837KMSN MSN20051002212510910/02/05 21:25:31  5-MIN KMSN 030325Z 17011KT 9SM FEW022 SCT047 OVC075 23/18 A3007 730 76 1800 170/11 RMK AO2
14837KMSN MSN20051002213010910/02/05 21:30:31  5-MIN KMSN 030330Z 18012KT 8SM FEW022 SCT055 BKN070 23/18 A3007 730 76 1800 170/12 RMK AO2
14837KMSN MSN20051002213510210/02/05 21:35:31  5-MIN KMSN 030335Z 18013KT 8SM BKN060 OVC075 23/18 A3007 730 76 1800 180/13 RMK AO2
14837KMSN MSN20051002214010210/02/05 21:40:31  5-MIN KMSN 030340Z 18012KT 8SM SCT055 OVC070 23/18 A3007 730 76 1800 180/12 RMK AO2
14837KMSN MSN20051002214510210/02/05 21:45:31  5-MIN KMSN 030345Z 17013KT 8SM BKN060 OVC070 23/18 A3007 730 76 1800 170/13 RMK AO2
14837KMSN MSN20051002215011910/02/05 21:50:31  5-MIN KMSN 030350Z 17011KT 8SM BKN060 BKN075 23/18 A3007 730 76 1800 170/11 RMK AO2 SLP176 T02280183
14837KMSN MSN20051002215510210/02/05 21:55:31  5-MIN KMSN 030355Z 17013KT 8SM BKN060 OVC070 23/18 A3006 730 76 1800 170/13 RMK AO2
14837KMSN MSN20051002220010210/02/05 22:00:31  5-MIN KMSN 030400Z 17013KT 8SM FEW050 BKN065 23/19 A3006 730 78 1800 170/13 RMK AO2
14837KMSN MSN20051002220510210/02/05 22:05:31  5-MIN KMSN 030405Z 17013KT 8SM BKN055 OVC070 23/19 A3006 730 78 1800 170/13 RMK AO2
14837KMSN MSN20051002221009510/02/05 22:10:31  5-MIN KMSN 030410Z 17011KT 7SM OVC055 23/19 A3006 740 78 1800 170/11 RMK AO2
14837KMSN MSN20051002221510210/02/05 22:15:31  5-MIN KMSN 030415Z 17013KT 7SM BKN049 OVC060 23/19 A3006 730 78 1800 170/13 RMK AO2
14837KMSN MSN20051002222010210/02/05 22:20:31  5-MIN KMSN 030420Z 18011KT 7SM BKN049 BKN060 23/19 A3006 730 78 1800 180/11 RMK AO2
14837KMSN MSN20051002222510910/02/05 22:25:31  5-MIN KMSN 030425Z 18011KT 7SM FEW023 BKN049 BKN055 23/19 A3006 730 78 1800 180/11 RMK AO2
14837KMSN MSN20051002223010810/02/05 22:30:31  5-MIN KMSN 030430Z 18013G18KT 7SM FEW023 BKN049 23/19 A3006 740 78 1800 170/13G18 RMK AO2
14837KMSN MSN20051002223510210/02/05 22:35:31  5-MIN KMSN 030435Z 18013KT 7SM FEW023 BKN049 23/19 A3006 740 81 1800 180/13 RMK AO2
14837KMSN MSN20051002224010810/02/05 22:40:31  5-MIN KMSN 030440Z 18013G20KT 7SM SCT021 SCT049 23/19 A3006 740 81 1800 180/13G20 RMK AO2
14837KMSN MSN20051002224510110/02/05 22:45:31  5-MIN KMSN 030445Z 19014G20KT 7SM FEW021 23/19 A3006 740 81 1800 180/14G20 RMK AO2
14837KMSN MSN20051002225011210/02/05 22:50:31  5-MIN KMSN 030450Z 18013KT 7SM FEW021 23/19 A3006 730 81 1800 180/13 RMK AO2 SLP174 T02280194
14837KMSN MSN20051002225509510/02/05 22:55:31  5-MIN KMSN 030455Z 18011KT 7SM FEW021 23/19 A3006 730 81 1800 180/11 RMK AO2
14837KMSN MSN20051002230010110/02/05 23:00:31  5-MIN KMSN 030500Z 18014G18KT 7SM FEW019 23/19 A3006 730 81 1800 180/14G18 RMK AO2
14837KMSN MSN20051002230509510/02/05 23:05:31  5-MIN KMSN 030505Z 18012KT 7SM FEW019 23/19 A3006 730 81 1800 180/12 RMK AO2
14837KMSN MSN20051002231010110/02/05 23:10:31  5-MIN KMSN 030510Z 18010G18KT 7SM FEW019 23/19 A3007 730 81 1800 180/10G18 RMK AO2
14837KMSN MSN20051002231509510/02/05 23:15:31  5-MIN KMSN 030515Z 18013KT 7SM FEW019 23/19 A3006 730 81 1800 180/13 RMK AO2
14837KMSN MSN20051002232009510/02/05 23:20:31  5-MIN KMSN 030520Z 18011KT 7SM FEW019 23/19 A3006 730 81 1800 180/11 RMK AO2
14837KMSN MSN20051002232509810/02/05 23:25:31  5-MIN KMSN 030525Z 19011KT 6SM HZ FEW019 23/19 A3006 730 81 1800 180/11 RMK AO2
14837KMSN MSN20051002233009810/02/05 23:30:31  5-MIN KMSN 030530Z 19012KT 6SM HZ SCT021 23/19 A3006 730 81 1800 190/12 RMK AO2
14837KMSN MSN20051002233509510/02/05 23:35:31  5-MIN KMSN 030535Z 19011KT 7SM SCT021 23/19 A3006 730 81 1800 190/11 RMK AO2
14837KMSN MSN20051002234010410/02/05 23:40:31  5-MIN KMSN 030540Z 19014G18KT 6SM HZ SCT021 23/19 A3007 730 81 1800 180/14G18 RMK AO2
14837KMSN MSN20051002234510410/02/05 23:45:31  5-MIN KMSN 030545Z 18011G18KT 6SM HZ SCT021 23/19 A3007 730 81 1800 180/11G18 RMK AO2
14837KMSN MSN20051002235010810/02/05 23:50:31  5-MIN KMSN 030550Z 19011KT 6SM HZ BKN019 23/19 A3007 730 81 1800 190/11 RMK AO2 402610133
14837KMSN MSN20051002235510410/02/05 23:55:31  5-MIN KMSN 030555Z 18013G17KT 6SM HZ BKN019 23/19 A3007 730 81 1800 180/13G17 RMK AO2
14837KMSN MSN20051003000009810/03/05 00:00:38  5-MIN KMSN 030600Z 19011KT 6SM HZ SCT019 23/19 A3007 730 81 1800 180/11 RMK AO2
14837KMSN MSN20051003000509810/03/05 00:05:31  5-MIN KMSN 030605Z 18011KT 6SM HZ SCT019 23/19 A3007 730 81 1800 180/11 RMK AO2
14837KMSN MSN20051003001009810/03/05 00:10:31  5-MIN KMSN 030610Z 18009KT 6SM HZ SCT019 22/19 A3007 730 84 1800 180/09 RMK AO2
14837KMSN MSN20051003001509810/03/05 00:15:32  5-MIN KMSN 030615Z 18011KT 6SM HZ SCT019 22/19 A3007 720 84 1800 180/11 RMK AO2
14837KMSN MSN20051003002010410/03/05 00:20:31  5-MIN KMSN 030620Z 19012G17KT 6SM HZ SCT017 23/19 A3007 720 81 1800 190/12G17 RMK AO2
14837KMSN MSN20051003002510410/03/05 00:25:31  5-MIN KMSN 030625Z 19009G17KT 6SM HZ SCT017 22/19 A3007 720 84 1800 190/09G17 RMK AO2
14837KMSN MSN20051003003009810/03/05 00:30:31  5-MIN KMSN 030630Z 18011KT 6SM HZ SCT017 23/19 A3007 720 81 1800 180/11 RMK AO2
14837KMSN MSN20051003003509810/03/05 00:35:31  5-MIN KMSN 030635Z 19010KT 6SM HZ SCT017 22/19 A3008 720 84 1800 190/10 RMK AO2
14837KMSN MSN20051003004011410/03/05 00:40:31  5-MIN KMSN 030640Z 19010KT 160V220 6SM HZ SCT017 22/19 A3008 720 84 1800 190/10 160V220 RMK AO2
14837KMSN MSN20051003004509810/03/05 00:45:31  5-MIN KMSN 030645Z 20008KT 6SM HZ SCT017 22/19 A3008 720 84 1800 190/08 RMK AO2
14837KMSN MSN20051003005011510/03/05 00:50:31  5-MIN KMSN 030650Z 20011KT 6SM HZ SCT017 22/19 A3008 720 84 1800 200/11 RMK AO2 SLP182 T02220194
14837KMSN MSN20051003005509810/03/05 00:55:31  5-MIN KMSN 030655Z 19010KT 6SM HZ SCT017 22/19 A3008 720 84 1800 190/10 RMK AO2
14837KMSN MSN20051003010009810/03/05 01:00:31  5-MIN KMSN 030700Z 20007KT 6SM HZ FEW017 22/19 A3008 720 84 1800 200/07 RMK AO2
14837KMSN MSN20051003010509810/03/05 01:05:31  5-MIN KMSN 030705Z 19010KT 6SM HZ FEW017 22/19 A3008 720 84 1800 190/10 RMK AO2
14837KMSN MSN20051003011009810/03/05 01:10:31  5-MIN KMSN 030710Z 19010KT 6SM HZ FEW017 22/19 A3008 720 84 1800 190/10 RMK AO2
14837KMSN MSN20051003011509810/03/05 01:15:31  5-MIN KMSN 030715Z 19010KT 6SM HZ FEW017 22/19 A3008 720 84 1800 190/10 RMK AO2
14837KMSN MSN20051003012009810/03/05 01:20:31  5-MIN KMSN 030720Z 19011KT 6SM HZ FEW017 22/19 A3008 720 84 1800 190/11 RMK AO2
14837KMSN MSN20051003012509510/03/05 01:25:31  5-MIN KMSN 030725Z 19008KT 6SM BR CLR 22/19 A3007 720 87 1700 190/08 RMK AO2
14837KMSN MSN20051003013009510/03/05 01:30:31  5-MIN KMSN 030730Z 20009KT 5SM HZ CLR 22/19 A3007 720 84 1800 190/09 RMK AO2
14837KMSN MSN20051003013509510/03/05 01:35:31  5-MIN KMSN 030735Z 19012KT 5SM BR CLR 22/19 A3007 720 87 1700 190/12 RMK AO2
14837KMSN MSN20051003014009510/03/05 01:40:31  5-MIN KMSN 030740Z 19009KT 5SM BR CLR 22/19 A3007 730 87 1700 190/09 RMK AO2
14837KMSN MSN20051003014509810/03/05 01:45:31  5-MIN KMSN 030745Z 19010KT 5SM BR FEW017 22/19 A3007 730 87 1700 180/10 RMK AO2
14837KMSN MSN20051003015011510/03/05 01:50:31  5-MIN KMSN 030750Z 18010KT 5SM BR FEW017 22/19 A3007 730 87 1700 180/10 RMK AO2 SLP177 T02170194
14837KMSN MSN20051003015509510/03/05 01:55:31  5-MIN KMSN 030755Z 18011KT 5SM BR CLR 22/19 A3007 730 87 1700 180/11 RMK AO2
14837KMSN MSN20051003020009510/03/05 02:00:31  5-MIN KMSN 030800Z 19011KT 5SM BR CLR 22/19 A3007 730 87 1700 190/11 RMK AO2
14837KMSN MSN20051003020509510/03/05 02:05:31  5-MIN KMSN 030805Z 19011KT 5SM BR CLR 22/19 A3007 730 87 1700 190/11 RMK AO2
14837KMSN MSN20051003021009510/03/05 02:10:31  5-MIN KMSN 030810Z 19011KT 5SM BR CLR 22/19 A3007 730 87 1700 190/11 RMK AO2
14837KMSN MSN20051003021509510/03/05 02:15:31  5-MIN KMSN 030815Z 19010KT 5SM BR CLR 22/19 A3007 730 87 1700 190/10 RMK AO2
14837KMSN MSN20051003022009510/03/05 02:20:31  5-MIN KMSN 030820Z 19011KT 5SM HZ CLR 22/19 A3007 730 84 1800 190/11 RMK AO2
14837KMSN MSN20051003022509510/03/05 02:25:31  5-MIN KMSN 030825Z 19012KT 5SM HZ CLR 22/19 A3007 730 84 1800 190/12 RMK AO2
14837KMSN MSN20051003023009510/03/05 02:30:31  5-MIN KMSN 030830Z 19010KT 5SM BR CLR 22/19 A3007 730 87 1700 190/10 RMK AO2
14837KMSN MSN20051003023509510/03/05 02:35:31  5-MIN KMSN 030835Z 19010KT 5SM BR CLR 22/19 A3007 720 87 1700 190/10 RMK AO2
14837KMSN MSN20051003024009510/03/05 02:40:31  5-MIN KMSN 030840Z 19009KT 5SM BR CLR 22/19 A3007 720 87 1700 190/09 RMK AO2
14837KMSN MSN20051003024509510/03/05 02:45:31  5-MIN KMSN 030845Z 19010KT 5SM BR CLR 22/19 A3007 730 87 1700 190/10 RMK AO2
14837KMSN MSN20051003025011810/03/05 02:50:31  5-MIN KMSN 030850Z 20010KT 5SM BR CLR 22/19 A3007 720 87 1700 190/10 RMK AO2 SLP178 T02170194 55000
14837KMSN MSN20051003025509510/03/05 02:55:31  5-MIN KMSN 030855Z 19010KT 5SM BR CLR 22/19 A3007 720 87 1700 190/10 RMK AO2
14837KMSN MSN20051003030009510/03/05 03:00:31  5-MIN KMSN 030900Z 19010KT 5SM BR CLR 22/19 A3007 720 87 1700 190/10 RMK AO2
14837KMSN MSN20051003030509510/03/05 03:05:31  5-MIN KMSN 030905Z 19009KT 5SM BR CLR 22/19 A3007 720 87 1700 190/09 RMK AO2
14837KMSN MSN20051003031009510/03/05 03:10:31  5-MIN KMSN 030910Z 19008KT 5SM BR CLR 22/19 A3007 720 87 1700 190/08 RMK AO2
14837KMSN MSN20051003031509510/03/05 03:15:31  5-MIN KMSN 030915Z 19008KT 5SM BR CLR 22/19 A3007 720 87 1700 190/08 RMK AO2
14837KMSN MSN20051003032009510/03/05 03:20:31  5-MIN KMSN 030920Z 19007KT 5SM BR CLR 22/19 A3007 720 87 1700 190/07 RMK AO2
14837KMSN MSN20051003032509510/03/05 03:25:31  5-MIN KMSN 030925Z 19008KT 5SM BR CLR 22/19 A3008 720 87 1700 190/08 RMK AO2
14837KMSN MSN20051003033009510/03/05 03:30:31  5-MIN KMSN 030930Z 19008KT 5SM HZ CLR 22/19 A3008 720 84 1800 190/08 RMK AO2
14837KMSN MSN20051003033509510/03/05 03:35:31  5-MIN KMSN 030935Z 19008KT 5SM BR CLR 22/19 A3008 720 87 1700 190/08 RMK AO2
14837KMSN MSN20051003034009510/03/05 03:40:31  5-MIN KMSN 030940Z 19006KT 5SM BR CLR 22/19 A3007 720 87 1700 190/06 RMK AO2
14837KMSN MSN20051003034509510/03/05 03:45:31  5-MIN KMSN 030945Z 20006KT 5SM BR CLR 22/19 A3008 720 87 1700 190/06 RMK AO2
14837KMSN MSN20051003035011210/03/05 03:50:31  5-MIN KMSN 030950Z 20006KT 5SM BR CLR 22/19 A3008 720 87 1700 200/06 RMK AO2 SLP179 T02170194
14837KMSN MSN20051003035509510/03/05 03:55:31  5-MIN KMSN 030955Z 20008KT 5SM HZ CLR 22/19 A3007 720 84 1800 190/08 RMK AO2
14837KMSN MSN20051003040009510/03/05 04:00:31  5-MIN KMSN 031000Z 19007KT 5SM HZ CLR 22/19 A3007 720 84 1800 190/07 RMK AO2
14837KMSN MSN20051003040509510/03/05 04:05:31  5-MIN KMSN 031005Z 19007KT 5SM HZ CLR 22/19 A3008 720 84 1800 190/07 RMK AO2
14837KMSN MSN20051003041009510/03/05 04:10:31  5-MIN KMSN 031010Z 19005KT 5SM HZ CLR 22/19 A3008 720 84 1800 190/05 RMK AO2
14837KMSN MSN20051003041509510/03/05 04:15:31  5-MIN KMSN 031015Z 19008KT 5SM BR CLR 22/19 A3008 720 87 1700 180/08 RMK AO2
14837KMSN MSN20051003042009810/03/05 04:20:31  5-MIN KMSN 031020Z 19007KT 5SM BR FEW016 22/19 A3008 720 87 1700 190/07 RMK AO2
14837KMSN MSN20051003042509810/03/05 04:25:31  5-MIN KMSN 031025Z 18008KT 5SM BR FEW016 22/20 A3008 720 90 1700 180/08 RMK AO2
14837KMSN MSN20051003043009810/03/05 04:30:31  5-MIN KMSN 031030Z 18008KT 5SM BR SCT014 22/20 A3008 720 90 1700 170/08 RMK AO2
14837KMSN MSN20051003043509810/03/05 04:35:31  5-MIN KMSN 031035Z 18007KT 5SM BR SCT014 22/20 A3008 720 90 1700 180/07 RMK AO2
14837KMSN MSN20051003044009810/03/05 04:40:31  5-MIN KMSN 031040Z 19008KT 5SM BR SCT014 22/19 A3008 720 87 1700 190/08 RMK AO2
14837KMSN MSN20051003044509810/03/05 04:45:31  5-MIN KMSN 031045Z 18008KT 5SM BR SCT014 22/20 A3008 720 90 1700 180/08 RMK AO2
14837KMSN MSN20051003045011510/03/05 04:50:31  5-MIN KMSN 031050Z 18007KT 5SM BR SCT014 22/19 A3008 720 87 1700 180/07 RMK AO2 SLP180 T02170194
14837KMSN MSN20051003045509810/03/05 04:55:31  5-MIN KMSN 031055Z 18007KT 4SM BR SCT014 21/19 A3008 720 90 1600 180/07 RMK AO2
14837KMSN MSN20051003050009810/03/05 05:00:31  5-MIN KMSN 031100Z 18008KT 4SM BR SCT014 22/19 A3008 720 87 1700 180/08 RMK AO2
14837KMSN MSN20051003050509810/03/05 05:05:31  5-MIN KMSN 031105Z 18008KT 4SM BR SCT012 22/19 A3008 720 87 1700 180/08 RMK AO2
14837KMSN MSN20051003051009810/03/05 05:10:31  5-MIN KMSN 031110Z 18008KT 4SM BR SCT012 21/19 A3008 710 90 1600 180/08 RMK AO2
14837KMSN MSN20051003051510010/03/05 05:15:31  5-MIN KMSN 031115Z 18008KT 4SM BR SCT012 21/19 A3008 710 90 1600 180/08 RMK AO2 $
14837KMSN MSN20051003052010010/03/05 05:20:31  5-MIN KMSN 031120Z 19008KT 4SM BR SCT012 21/19 A3009 710 90 1600 180/08 RMK AO2 $
14837KMSN MSN20051003052510010/03/05 05:25:31  5-MIN KMSN 031125Z 18007KT 4SM BR BKN012 21/19 A3009 710 90 1600 180/07 RMK AO2 $
14837KMSN MSN20051003053010010/03/05 05:30:31  5-MIN KMSN 031130Z 18008KT 4SM BR BKN012 21/19 A3009 710 90 1600 180/08 RMK AO2 $
14837KMSN MSN20051003053511210/03/05 05:35:31  5-MIN KMSN 031135Z 19008KT 4SM BR BKN010 21/19 A3009 710 90 1600 190/08 RMK AO2 CIG 010V013 $
14837KMSN MSN20051003054010010/03/05 05:40:31  5-MIN KMSN 031140Z 18006KT 4SM BR BKN010 21/19 A3009 710 90 1600 180/06 RMK AO2 $
14837KMSN MSN20051003054511210/03/05 05:45:31  5-MIN KMSN 031145Z 18007KT 4SM BR BKN010 21/19 A3009 710 90 1600 180/07 RMK AO2 CIG 009V014 $
14837KMSN MSN20051003055014710/03/05 05:50:31  5-MIN KMSN 031150Z 18006KT 3SM BR BKN010 21/19 A3008 710 90 1600 180/06 RMK AO2 CIG 009V013 SLP183 T02110194 10228 20211 51002 $
14837KMSN MSN20051003055512210/03/05 05:55:31  5-MIN KMSN 031155Z 19006KT 3SM BR BKN010 21/19 A3009 710 90 1600 180/06 RMK AO2 SFC VIS 4 CIG 009V013 $
14837KMSN MSN20051003060011210/03/05 06:00:31  5-MIN KMSN 031200Z 18008KT 3SM BR BKN010 21/19 A3009 710 90 1600 180/08 RMK AO2 CIG 009V013 $
14837KMSN MSN20051003060511010/03/05 06:05:31  5-MIN KMSN 031205Z 18006KT 3SM BR OVC010 21/19 A3009 710 90 1600 170/06 RMK AO2 CIG 009V013
14837KMSN MSN20051003061011010/03/05 06:10:31  5-MIN KMSN 031210Z 18007KT 3SM BR OVC010 21/20 A3009 710 93 1600 180/07 RMK AO2 CIG 008V013
14837KMSN MSN20051003061511010/03/05 06:15:31  5-MIN KMSN 031215Z 18009KT 3SM BR OVC010 21/20 A3009 710 93 1600 180/09 RMK AO2 CIG 008V013
14837KMSN MSN20051003062011010/03/05 06:20:31  5-MIN KMSN 031220Z 18010KT 3SM BR OVC010 21/20 A3009 710 93 1600 180/10 RMK AO2 CIG 008V013
14837KMSN MSN20051003062511010/03/05 06:25:31  5-MIN KMSN 031225Z 18010KT 3SM BR OVC010 21/20 A3009 710 93 1600 180/10 RMK AO2 CIG 008V015
14837KMSN MSN20051003063011010/03/05 06:30:31  5-MIN KMSN 031230Z 18009KT 3SM BR OVC010 21/20 A3009 710 93 1600 180/09 RMK AO2 CIG 008V015
14837KMSN MSN20051003063511010/03/05 06:35:31  5-MIN KMSN 031235Z 18009KT 3SM BR OVC010 21/20 A3009 710 93 1600 180/09 RMK AO2 CIG 008V015
14837KMSN MSN20051003064011010/03/05 06:40:31  5-MIN KMSN 031240Z 18009KT 3SM BR OVC010 21/20 A3009 710 93 1600 180/09 RMK AO2 CIG 009V015
14837KMSN MSN20051003064511010/03/05 06:45:31  5-MIN KMSN 031245Z 18010KT 3SM BR OVC010 21/20 A3009 710 93 1600 180/10 RMK AO2 CIG 009V014
14837KMSN MSN20051003065011510/03/05 06:50:31  5-MIN KMSN 031250Z 19011KT 3SM BR OVC010 22/20 A3009 700 90 1700 190/11 RMK AO2 SLP187 T02170200
14837KMSN MSN20051003065511010/03/05 06:55:31  5-MIN KMSN 031255Z 18009KT 3SM BR OVC010 22/20 A3010 700 90 1700 180/09 RMK AO2 CIG 009V014
14837KMSN MSN20051003070011010/03/05 07:00:31  5-MIN KMSN 031300Z 19010KT 3SM BR OVC010 22/20 A3010 700 90 1700 190/10 RMK AO2 CIG 009V013
14837KMSN MSN20051003070510410/03/05 07:05:31  5-MIN KMSN 031305Z 19010G16KT 3SM BR OVC010 22/20 A3010 700 90 1700 190/10G16 RMK AO2
14837KMSN MSN20051003071009810/03/05 07:10:31  5-MIN KMSN 031310Z 18011KT 3SM BR OVC010 22/20 A3010 700 90 1700 180/11 RMK AO2
14837KMSN MSN20051003071511010/03/05 07:15:31  5-MIN KMSN 031315Z 19009KT 3SM BR OVC010 22/20 A3010 700 90 1700 190/09 RMK AO2 CIG 009V014
14837KMSN MSN20051003072011010/03/05 07:20:31  5-MIN KMSN 031320Z 19009KT 3SM BR OVC010 22/20 A3010 700 90 1700 190/09 RMK AO2 CIG 009V014
14837KMSN MSN20051003072511710/03/05 07:25:31  5-MIN KMSN 031325Z 18011KT 3SM BR BKN010 OVC014 22/20 A3010 700 87 1700 180/11 RMK AO2 CIG 009V012
14837KMSN MSN20051003073010510/03/05 07:30:31  5-MIN KMSN 031330Z 19012KT 3SM BR BKN010 OVC014 22/20 A3010 700 87 1700 180/12 RMK AO2
14837KMSN MSN20051003073511010/03/05 07:35:31  5-MIN KMSN 031335Z 19011KT 3SM BR BKN010 22/20 A3010 700 87 1700 190/11 RMK AO2 CIG 009V012
14837KMSN MSN20051003074009810/03/05 07:40:31  5-MIN KMSN 031340Z 19010KT 3SM BR BKN010 22/20 A3010 700 87 1700 190/10 RMK AO2
14837KMSN MSN20051003074511510/03/05 07:45:31  5-MIN KMSN 031345Z 19013KT 3SM BR BKN010 OVC015 22/20 A3010 700 87 1700 190/13 RMK AO2 SFC VIS 3
14837KMSN MSN20051003075014010/03/05 07:50:31  5-MIN KMSN 031350Z 19008G16KT 4SM BR BKN010 OVC015 22/20 A3010 690 87 1700 190/08G16 RMK AO2 CIG 009V013 SLP189 T02220200
14837KMSN MSN20051003075509810/03/05 07:55:31  5-MIN KMSN 031355Z 19011KT 4SM BR OVC010 22/20 A3010 700 87 1700 180/11 RMK AO2
14837KMSN MSN20051003080009810/03/05 08:00:31  5-MIN KMSN 031400Z 19011KT 4SM BR OVC012 22/20 A3010 690 87 1700 190/11 RMK AO2
14837KMSN MSN20051003080509810/03/05 08:05:31  5-MIN KMSN 031405Z 19009KT 4SM HZ OVC012 23/20 A3010 690 84 1800 190/09 RMK AO2
14837KMSN MSN20051003081009810/03/05 08:10:31  5-MIN KMSN 031410Z 19009KT 4SM HZ OVC012 23/20 A3010 700 84 1800 190/09 RMK AO2
14837KMSN MSN20051003081509810/03/05 08:15:31  5-MIN KMSN 031415Z 19011KT 4SM HZ OVC012 23/20 A3010 690 84 1800 190/11 RMK AO2
14837KMSN MSN20051003082009810/03/05 08:20:31  5-MIN KMSN 031420Z 19009KT 4SM HZ OVC012 23/20 A3011 690 84 1800 190/09 RMK AO2
14837KMSN MSN20051003082509810/03/05 08:25:31  5-MIN KMSN 031425Z 19009KT 4SM HZ OVC012 23/20 A3011 690 81 1900 190/09 RMK AO2
14837KMSN MSN20051003083009810/03/05 08:30:31  5-MIN KMSN 031430Z 19010KT 4SM HZ BKN012 23/20 A3010 690 81 1900 190/10 RMK AO2
14837KMSN MSN20051003083509810/03/05 08:35:31  5-MIN KMSN 031435Z 20009KT 4SM HZ BKN012 23/20 A3011 690 81 1900 200/09 RMK AO2
14837KMSN MSN20051003084009810/03/05 08:40:31  5-MIN KMSN 031440Z 19011KT 4SM HZ SCT012 23/20 A3011 690 81 1900 190/11 RMK AO2
14837KMSN MSN20051003084509810/03/05 08:45:31  5-MIN KMSN 031445Z 19010KT 4SM HZ BKN012 24/20 A3011 690 78 1900 190/10 RMK AO2
14837KMSN MSN20051003085012110/03/05 08:50:31  5-MIN KMSN 031450Z 20008KT 4SM HZ BKN012 24/21 A3011 690 81 1900 200/08 RMK AO2 SLP191 T02390206 53005
14837KMSN MSN20051003085509810/03/05 08:55:31  5-MIN KMSN 031455Z 19014KT 5SM HZ SCT014 24/20 A3011 690 78 1900 190/14 RMK AO2
14837KMSN MSN20051003090010410/03/05 09:00:31  5-MIN KMSN 031500Z 20007G15KT 5SM HZ SCT014 24/20 A3011 690 78 1900 200/07G15 RMK AO2
14837KMSN MSN20051003090509810/03/05 09:05:31  5-MIN KMSN 031505Z 19010KT 5SM HZ SCT014 24/20 A3011 690 78 1900 190/10 RMK AO2
14837KMSN MSN20051003091009810/03/05 09:10:31  5-MIN KMSN 031510Z 19010KT 5SM HZ SCT014 24/20 A3011 690 78 1900 190/10 RMK AO2
14837KMSN MSN20051003091509810/03/05 09:15:31  5-MIN KMSN 031515Z 19010KT 5SM HZ FEW014 24/20 A3011 690 78 1900 190/10 RMK AO2
14837KMSN MSN20051003092009810/03/05 09:20:31  5-MIN KMSN 031520Z 18010KT 5SM HZ FEW014 24/20 A3011 690 78 1900 180/10 RMK AO2
14837KMSN MSN20051003092509810/03/05 09:25:31  5-MIN KMSN 031525Z 19009KT 5SM HZ FEW014 24/20 A3011 690 78 1900 190/09 RMK AO2
14837KMSN MSN20051003093009810/03/05 09:30:31  5-MIN KMSN 031530Z 19009KT 5SM HZ FEW015 24/20 A3011 690 78 1900 190/09 RMK AO2
14837KMSN MSN20051003093509810/03/05 09:35:31  5-MIN KMSN 031535Z 18008KT 5SM HZ FEW015 24/21 A3011 690 81 1900 180/08 RMK AO2
14837KMSN MSN20051003094009810/03/05 09:40:31  5-MIN KMSN 031540Z 18008KT 5SM HZ FEW015 24/21 A3011 690 81 1900 180/08 RMK AO2
14837KMSN MSN20051003094509810/03/05 09:45:31  5-MIN KMSN 031545Z 18008KT 5SM HZ FEW015 24/21 A3011 690 81 1900 180/08 RMK AO2
14837KMSN MSN20051003095011510/03/05 09:50:31  5-MIN KMSN 031550Z 18007KT 5SM HZ FEW015 24/21 A3010 700 78 2000 180/07 RMK AO2 SLP189 T02440206
14837KMSN MSN20051003095509810/03/05 09:55:31  5-MIN KMSN 031555Z 18009KT 5SM HZ FEW015 25/21 A3010 700 76 2100 180/09 RMK AO2
14837KMSN MSN20051003100009510/03/05 10:00:31  5-MIN KMSN 031600Z 18008KT 6SM HZ CLR 26/21 A3010 700 73 2200 180/08 RMK AO2
14837KMSN MSN20051003100509510/03/05 10:05:31  5-MIN KMSN 031605Z 19009KT 6SM HZ CLR 26/21 A3010 700 73 2200 190/09 RMK AO2
14837KMSN MSN20051003101009510/03/05 10:10:31  5-MIN KMSN 031610Z 20011KT 6SM HZ CLR 27/21 A3010 700 69 2200 200/11 RMK AO2
14837KMSN MSN20051003101510110/03/05 10:15:31  5-MIN KMSN 031615Z 20010G16KT 6SM HZ CLR 26/21 A3010 700 71 2200 200/10G16 RMK AO2
14837KMSN MSN20051003102010110/03/05 10:20:31  5-MIN KMSN 031620Z 20010G16KT 7SM FEW024 26/21 A3010 700 71 2200 200/10G16 RMK AO2
14837KMSN MSN20051003102509510/03/05 10:25:31  5-MIN KMSN 031625Z 20008KT 7SM FEW024 26/21 A3010 700 71 2200 200/08 RMK AO2
14837KMSN MSN20051003103009510/03/05 10:30:31  5-MIN KMSN 031630Z 19010KT 7SM FEW024 26/21 A3010 700 71 2200 190/10 RMK AO2
14837KMSN MSN20051003103509510/03/05 10:35:31  5-MIN KMSN 031635Z 20010KT 7SM FEW024 27/21 A3010 700 69 2200 200/10 RMK AO2
14837KMSN MSN20051003104009510/03/05 10:40:31  5-MIN KMSN 031640Z 19008KT 7SM FEW024 27/21 A3010 700 69 2200 190/08 RMK AO2
14837KMSN MSN20051003104509510/03/05 10:45:31  5-MIN KMSN 031645Z 20009KT 7SM FEW024 27/21 A3010 700 66 2300 200/09 RMK AO2
14837KMSN MSN20051003105011810/03/05 10:50:31  5-MIN KMSN 031650Z 20011G15KT 7SM FEW024 27/21 A3010 700 66 2300 200/11G15 RMK AO2 SLP185 T02720206
14837KMSN MSN20051003105509510/03/05 10:55:31  5-MIN KMSN 031655Z 19011KT 7SM FEW028 27/21 A3009 700 69 2200 190/11 RMK AO2
14837KMSN MSN20051003110009510/03/05 11:00:31  5-MIN KMSN 031700Z 21010KT 7SM FEW028 27/20 A3009 710 66 2200 210/10 RMK AO2
14837KMSN MSN20051003110509510/03/05 11:05:31  5-MIN KMSN 031705Z 21008KT 7SM FEW028 27/21 A3009 710 66 2300 210/08 RMK AO2
14837KMSN MSN20051003111009510/03/05 11:10:31  5-MIN KMSN 031710Z 22005KT 7SM FEW028 27/21 A3009 710 69 2300 220/05 RMK AO2
14837KMSN MSN20051003111511110/03/05 11:15:31  5-MIN KMSN 031715Z 22007KT 200V260 7SM FEW028 27/21 A3009 710 66 2300 220/07 200V260 RMK AO2
14837KMSN MSN20051003112009510/03/05 11:20:31  5-MIN KMSN 031720Z VRB06KT 7SM FEW028 27/21 A3009 710 66 2300 VRB/06 RMK AO2
14837KMSN MSN20051003112509510/03/05 11:25:31  5-MIN KMSN 031725Z 21007KT 7SM FEW028 28/21 A3009 710 64 2400 210/07 RMK AO2
14837KMSN MSN20051003113009510/03/05 11:30:31  5-MIN KMSN 031730Z 19011KT 7SM FEW028 28/21 A3009 710 64 2400 190/11 RMK AO2
14837KMSN MSN20051003113509510/03/05 11:35:31  5-MIN KMSN 031735Z 20010KT 8SM FEW028 28/21 A3008 710 64 2400 200/10 RMK AO2
14837KMSN MSN20051003114009510/03/05 11:40:31  5-MIN KMSN 031740Z 21007KT 8SM FEW028 28/21 A3008 710 62 2400 210/07 RMK AO2
14837KMSN MSN20051003114509510/03/05 11:45:31  5-MIN KMSN 031745Z 19009KT 8SM FEW028 28/21 A3008 710 62 2400 190/09 RMK AO2
14837KMSN MSN20051003115013010/03/05 11:50:31  5-MIN KMSN 031750Z 22007KT 8SM FEW035 28/21 A3009 710 62 2400 220/07 RMK AO2 SLP182 T02830206 10283 20211 51007
14837KMSN MSN20051003115509510/03/05 11:55:31  5-MIN KMSN 031755Z 20007KT 8SM FEW035 28/21 A3008 710 64 2400 200/07 RMK AO2
14837KMSN MSN20051003120009510/03/05 12:00:31  5-MIN KMSN 031800Z 20009KT 8SM FEW035 28/21 A3008 720 62 2400 200/09 RMK AO2
14837KMSN MSN20051003120511110/03/05 12:05:31  5-MIN KMSN 031805Z 20007KT 180V240 8SM FEW035 29/21 A3008 720 60 2500 200/07 180V240 RMK AO2
14837KMSN MSN20051003121009510/03/05 12:10:31  5-MIN KMSN 031810Z 19008KT 8SM SCT035 29/21 A3008 720 60 2500 190/08 RMK AO2
14837KMSN MSN20051003121509510/03/05 12:15:31  5-MIN KMSN 031815Z 20008KT 8SM SCT035 28/21 A3008 720 62 2500 190/08 RMK AO2
14837KMSN MSN20051003122011110/03/05 12:20:31  5-MIN KMSN 031820Z 22008KT 170V240 8SM BKN037 28/21 A3008 720 62 2500 220/08 170V240 RMK AO2
14837KMSN MSN20051003122509510/03/05 12:25:31  5-MIN KMSN 031825Z 21010KT 8SM BKN037 28/21 A3008 720 62 2500 210/10 RMK AO2
14837KMSN MSN20051003123009510/03/05 12:30:31  5-MIN KMSN 031830Z 21007KT 9SM BKN037 28/20 A3008 720 60 2500 210/07 RMK AO2
14837KMSN MSN20051003123509510/03/05 12:35:31  5-MIN KMSN 031835Z 20010KT 9SM BKN037 29/21 A3007 720 60 2500 190/10 RMK AO2
14837KMSN MSN20051003124009510/03/05 12:40:31  5-MIN KMSN 031840Z 21009KT 9SM BKN037 29/20 A3007 720 58 2500 210/09 RMK AO2
14837KMSN MSN20051003124511110/03/05 12:45:31  5-MIN KMSN 031845Z 22009KT 180V250 9SM BKN037 29/21 A3007 730 58 2600 220/09 180V250 RMK AO2
14837KMSN MSN20051003125013410/03/05 12:50:31  5-MIN KMSN 031850Z 20008G15KT 170V240 9SM BKN041 29/21 A3007 730 58 2600 200/08G15 170V240 RMK AO2 SLP176 T02940206
14837KMSN MSN20051003125510110/03/05 12:55:31  5-MIN KMSN 031855Z 21008G15KT 9SM BKN041 29/20 A3007 730 58 2500 210/08G15 RMK AO2
14837KMSN MSN20051003130010110/03/05 13:00:31  5-MIN KMSN 031900Z 21008G15KT 9SM SCT041 29/20 A3007 730 58 2500 210/08G15 RMK AO2
14837KMSN MSN20051003130509510/03/05 13:05:31  5-MIN KMSN 031905Z 20008KT 9SM FEW043 29/20 A3007 730 58 2500 200/08 RMK AO2
14837KMSN MSN20051003131009510/03/05 13:10:31  5-MIN KMSN 031910Z 21008KT 9SM SCT043 29/20 A3007 730 58 2500 210/08 RMK AO2
14837KMSN MSN20051003131511110/03/05 13:15:31  5-MIN KMSN 031915Z 21009KT 190V250 9SM SCT043 29/20 A3007 730 58 2500 210/09 190V250 RMK AO2
14837KMSN MSN20051003132009510/03/05 13:20:31  5-MIN KMSN 031920Z 20010KT 9SM SCT043 29/20 A3007 730 58 2500 200/10 RMK AO2
14837KMSN MSN20051003132509510/03/05 13:25:31  5-MIN KMSN 031925Z 20010KT 9SM SCT043 29/20 A3007 730 58 2500 200/10 RMK AO2
14837KMSN MSN20051003133009610/03/05 13:30:31  5-MIN KMSN 031930Z 20009KT 10SM SCT043 29/20 A3007 730 58 2500 200/09 RMK AO2
14837KMSN MSN20051003133509610/03/05 13:35:31  5-MIN KMSN 031935Z 21008KT 10SM SCT043 29/20 A3007 730 58 2500 200/08 RMK AO2
14837KMSN MSN20051003134010210/03/05 13:40:31  5-MIN KMSN 031940Z 19010G14KT 10SM SCT043 29/20 A3007 730 58 2500 190/10G14 RMK AO2
14837KMSN MSN20051003134510110/03/05 13:45:31  5-MIN KMSN 031945Z 21009G14KT 9SM SCT043 29/20 A3006 730 58 2500 200/09G14 RMK AO2
14837KMSN MSN20051003135011210/03/05 13:50:31  5-MIN KMSN 031950Z 21010KT 9SM SCT043 29/20 A3006 730 58 2500 210/10 RMK AO2 SLP174 T02890200
14837KMSN MSN20051003135509510/03/05 13:55:31  5-MIN KMSN 031955Z 21009KT 9SM FEW040 29/20 A3007 730 58 2500 210/09 RMK AO2
14837KMSN MSN20051003140011110/03/05 14:00:31  5-MIN KMSN 032000Z 21009KT 180V270 9SM FEW040 29/19 A3006 730 56 2500 210/09 180V270 RMK AO2
14837KMSN MSN20051003140509610/03/05 14:05:31  5-MIN KMSN 032005Z 21008KT 10SM FEW040 28/19 A3006 730 58 2500 210/08 RMK AO2
14837KMSN MSN20051003141009510/03/05 14:10:31  5-MIN KMSN 032010Z 22007KT 9SM FEW040 28/19 A3006 730 58 2500 220/07 RMK AO2
14837KMSN MSN20051003141509510/03/05 14:15:31  5-MIN KMSN 032015Z 22008KT 9SM FEW040 28/19 A3006 730 58 2500 210/08 RMK AO2
14837KMSN MSN20051003142009510/03/05 14:20:31  5-MIN KMSN 032020Z 19009KT 9SM FEW040 28/20 A3006 730 60 2500 190/09 RMK AO2
14837KMSN MSN20051003142509510/03/05 14:25:31  5-MIN KMSN 032025Z 19009KT 9SM FEW040 28/20 A3006 740 60 2500 190/09 RMK AO2
14837KMSN MSN20051003143009510/03/05 14:30:31  5-MIN KMSN 032030Z 18009KT 9SM FEW040 28/20 A3006 740 60 2500 170/09 RMK AO2
14837KMSN MSN20051003143509510/03/05 14:35:31  5-MIN KMSN 032035Z 19009KT 9SM FEW040 28/20 A3006 740 60 2500 190/09 RMK AO2
14837KMSN MSN20051003144009510/03/05 14:40:31  5-MIN KMSN 032040Z 18010KT 9SM FEW040 28/20 A3006 740 60 2500 180/10 RMK AO2
14837KMSN MSN20051003144509510/03/05 14:45:31  5-MIN KMSN 032045Z 19009KT 9SM FEW040 28/20 A3006 740 60 2500 190/09 RMK AO2
14837KMSN MSN20051003145011810/03/05 14:50:31  5-MIN KMSN 032050Z 18009KT 9SM FEW040 28/20 A3006 740 60 2500 180/09 RMK AO2 SLP173 T02830200 58008
14837KMSN MSN20051003145509210/03/05 14:55:31  5-MIN KMSN 032055Z 19009KT 9SM CLR 28/20 A3006 740 60 2500 190/09 RMK AO2
14837KMSN MSN20051003150009210/03/05 15:00:31  5-MIN KMSN 032100Z 17010KT 9SM CLR 28/20 A3005 740 60 2500 170/10 RMK AO2
14837KMSN MSN20051003150509510/03/05 15:05:31  5-MIN KMSN 032105Z 18012KT 9SM FEW038 28/20 A3005 740 60 2500 180/12 RMK AO2
14837KMSN MSN20051003151009510/03/05 15:10:31  5-MIN KMSN 032110Z 18010KT 9SM FEW038 28/20 A3005 740 60 2500 170/10 RMK AO2
14837KMSN MSN20051003151509510/03/05 15:15:31  5-MIN KMSN 032115Z 18009KT 9SM FEW038 28/20 A3005 740 60 2500 180/09 RMK AO2
14837KMSN MSN20051003152009510/03/05 15:20:31  5-MIN KMSN 032120Z 18010KT 9SM FEW038 28/20 A3006 740 60 2500 180/10 RMK AO2
14837KMSN MSN20051003152509510/03/05 15:25:31  5-MIN KMSN 032125Z 18009KT 9SM FEW038 28/20 A3005 740 60 2500 180/09 RMK AO2
14837KMSN MSN20051003153009510/03/05 15:30:31  5-MIN KMSN 032130Z 18010KT 9SM FEW038 28/20 A3005 740 60 2500 180/10 RMK AO2
14837KMSN MSN20051003153509510/03/05 15:35:31  5-MIN KMSN 032135Z 17008KT 9SM FEW038 28/20 A3005 740 60 2500 170/08 RMK AO2
14837KMSN MSN20051003154009510/03/05 15:40:31  5-MIN KMSN 032140Z 18010KT 9SM FEW038 28/21 A3005 740 62 2500 170/10 RMK AO2
14837KMSN MSN20051003154509510/03/05 15:45:31  5-MIN KMSN 032145Z 16007KT 9SM FEW038 28/21 A3005 740 62 2500 160/07 RMK AO2
14837KMSN MSN20051003155011310/03/05 15:50:31  5-MIN KMSN 032150Z 16008KT 10SM FEW038 28/21 A3005 740 62 2500 160/08 RMK AO2 SLP170 T02830206
14837KMSN MSN20051003155509510/03/05 15:55:31  5-MIN KMSN 032155Z 16008KT 9SM FEW040 28/21 A3005 740 62 2500 160/08 RMK AO2
14837KMSN MSN20051003160009510/03/05 16:00:31  5-MIN KMSN 032200Z 16009KT 9SM FEW040 28/21 A3005 740 62 2500 160/09 RMK AO2
14837KMSN MSN20051003160509510/03/05 16:05:31  5-MIN KMSN 032205Z 16009KT 9SM FEW040 28/21 A3005 740 62 2500 160/09 RMK AO2
14837KMSN MSN20051003161009510/03/05 16:10:31  5-MIN KMSN 032210Z 16009KT 9SM FEW040 28/21 A3005 750 62 2500 160/09 RMK AO2
14837KMSN MSN20051003161509510/03/05 16:15:31  5-MIN KMSN 032215Z 16010KT 9SM FEW040 28/21 A3005 750 62 2500 160/10 RMK AO2
14837KMSN MSN20051003162009510/03/05 16:20:31  5-MIN KMSN 032220Z 17009KT 9SM FEW040 28/21 A3005 740 62 2500 170/09 RMK AO2
14837KMSN MSN20051003162509510/03/05 16:25:31  5-MIN KMSN 032225Z 16009KT 9SM FEW040 28/21 A3005 740 62 2500 160/09 RMK AO2
14837KMSN MSN20051003163009510/03/05 16:30:31  5-MIN KMSN 032230Z 17011KT 9SM FEW040 28/21 A3005 740 62 2500 170/11 RMK AO2
14837KMSN MSN20051003163509210/03/05 16:35:31  5-MIN KMSN 032235Z 18008KT 9SM CLR 28/21 A3005 740 62 2500 180/08 RMK AO2
14837KMSN MSN20051003164009510/03/05 16:40:31  5-MIN KMSN 032240Z 18010KT 9SM FEW046 28/21 A3005 740 62 2500 180/10 RMK AO2
14837KMSN MSN20051003164510110/03/05 16:45:31  5-MIN KMSN 032245Z 19013G17KT 9SM FEW046 28/20 A3005 740 60 2500 190/13G17 RMK AO2
14837KMSN MSN20051003165011910/03/05 16:50:31  5-MIN KMSN 032250Z 18012G17KT 10SM FEW046 28/19 A3005 740 58 2500 180/12G17 RMK AO2 SLP170 T02830194
14837KMSN MSN20051003165509610/03/05 16:55:31  5-MIN KMSN 032255Z 19009KT 10SM FEW046 28/19 A3005 740 58 2500 180/09 RMK AO2
14837KMSN MSN20051003170009610/03/05 17:00:31  5-MIN KMSN 032300Z 18011KT 10SM FEW046 28/19 A3005 740 58 2500 180/11 RMK AO2
14837KMSN MSN20051003170509610/03/05 17:05:31  5-MIN KMSN 032305Z 17009KT 10SM FEW046 28/19 A3005 740 60 2400 170/09 RMK AO2
14837KMSN MSN20051003171009610/03/05 17:10:31  5-MIN KMSN 032310Z 17008KT 10SM FEW046 28/19 A3005 740 60 2400 170/08 RMK AO2
14837KMSN MSN20051003171509610/03/05 17:15:31  5-MIN KMSN 032315Z 17008KT 10SM FEW046 27/19 A3006 740 62 2400 170/08 RMK AO2
14837KMSN MSN20051003172009610/03/05 17:20:31  5-MIN KMSN 032320Z 18008KT 10SM FEW046 27/19 A3006 740 62 2400 180/08 RMK AO2
14837KMSN MSN20051003172509610/03/05 17:25:31  5-MIN KMSN 032325Z 18008KT 10SM FEW046 27/19 A3006 740 62 2400 180/08 RMK AO2
14837KMSN MSN20051003173009610/03/05 17:30:31  5-MIN KMSN 032330Z 18009KT 10SM FEW046 27/19 A3006 740 62 2400 180/09 RMK AO2
14837KMSN MSN20051003173509610/03/05 17:35:31  5-MIN KMSN 032335Z 18009KT 10SM FEW046 27/19 A3006 740 62 2400 180/09 RMK AO2
14837KMSN MSN20051003174009610/03/05 17:40:31  5-MIN KMSN 032340Z 18010KT 10SM FEW046 27/19 A3006 740 62 2300 180/10 RMK AO2
14837KMSN MSN20051003174509310/03/05 17:45:31  5-MIN KMSN 032345Z 18009KT 10SM CLR 27/19 A3006 730 62 2300 180/09 RMK AO2
14837KMSN MSN20051003175012810/03/05 17:50:31  5-MIN KMSN 032350Z 17008KT 10SM CLR 27/19 A3006 730 64 2300 170/08 RMK AO2 SLP176 T02670194 10294 20267 56009
14837KMSN MSN20051003175509310/03/05 17:55:31  5-MIN KMSN 032355Z 17008KT 10SM CLR 27/19 A3007 730 64 2300 170/08 RMK AO2
14837KMSN MSN20051003180009310/03/05 18:00:31  5-MIN KMSN 040000Z 17009KT 10SM CLR 27/19 A3007 730 64 2300 170/09 RMK AO2
14837KMSN MSN20051003180509310/03/05 18:05:31  5-MIN KMSN 040005Z 17007KT 10SM CLR 26/19 A3007 730 66 2200 170/07 RMK AO2
14837KMSN MSN20051003181009310/03/05 18:10:31  5-MIN KMSN 040010Z 17008KT 10SM CLR 26/19 A3007 730 66 2200 170/08 RMK AO2
14837KMSN MSN20051003181509310/03/05 18:15:31  5-MIN KMSN 040015Z 17008KT 10SM CLR 26/19 A3007 730 66 2200 170/08 RMK AO2
14837KMSN MSN20051003182009310/03/05 18:20:31  5-MIN KMSN 040020Z 17008KT 10SM CLR 26/20 A3007 730 71 2100 170/08 RMK AO2
14837KMSN MSN20051003182509310/03/05 18:25:31  5-MIN KMSN 040025Z 17008KT 10SM CLR 26/20 A3007 730 71 2100 170/08 RMK AO2
14837KMSN MSN20051003183009310/03/05 18:30:31  5-MIN KMSN 040030Z 17007KT 10SM CLR 26/20 A3007 720 71 2100 170/07 RMK AO2
14837KMSN MSN20051003183509310/03/05 18:35:31  5-MIN KMSN 040035Z 17008KT 10SM CLR 26/20 A3007 720 71 2100 170/08 RMK AO2
14837KMSN MSN20051003184009310/03/05 18:40:31  5-MIN KMSN 040040Z 17008KT 10SM CLR 26/20 A3007 720 71 2100 170/08 RMK AO2
14837KMSN MSN20051003184509310/03/05 18:45:31  5-MIN KMSN 040045Z 18008KT 10SM CLR 26/20 A3008 720 71 2100 180/08 RMK AO2
14837KMSN MSN20051004150010210/04/05 15:00:31  5-MIN KMSN 042100Z 20012G18KT 10SM SCT049 29/18 A3000 790 50 2700 190/12G18 RMK AO2
14837KMSN MSN20051004150510210/04/05 15:05:31  5-MIN KMSN 042105Z 19014G18KT 10SM SCT049 29/18 A3000 790 50 2700 190/14G18 RMK AO2
14837KMSN MSN20051004151010210/04/05 15:10:31  5-MIN KMSN 042110Z 19013G18KT 10SM SCT049 29/18 A3000 790 50 2700 190/13G18 RMK AO2
14837KMSN MSN20051004151510210/04/05 15:15:31  5-MIN KMSN 042115Z 19015G18KT 10SM SCT049 29/18 A3000 790 50 2700 190/15G18 RMK AO2
14837KMSN MSN20051004152009610/04/05 15:20:31  5-MIN KMSN 042120Z 18013KT 10SM SCT049 29/18 A3000 790 50 2700 180/13 RMK AO2
14837KMSN MSN20051004152509610/04/05 15:25:31  5-MIN KMSN 042125Z 19013KT 10SM SCT049 29/18 A3000 790 50 2700 190/13 RMK AO2
14837KMSN MSN20051004153009610/04/05 15:30:31  5-MIN KMSN 042130Z 18012KT 10SM SCT049 29/18 A3000 790 50 2700 180/12 RMK AO2
14837KMSN MSN20051004153510210/04/05 15:35:31  5-MIN KMSN 042135Z 19013G20KT 10SM SCT049 30/18 A3000 800 49 2700 190/13G20 RMK AO2
14837KMSN MSN20051004154010210/04/05 15:40:31  5-MIN KMSN 042140Z 18010G20KT 10SM SCT049 30/18 A3000 790 49 2700 180/10G20 RMK AO2
14837KMSN MSN20051004154509610/04/05 15:45:31  5-MIN KMSN 042145Z 18012KT 10SM SCT049 29/18 A3000 790 50 2700 180/12 RMK AO2
14837KMSN MSN20051004155011310/04/05 15:50:31  5-MIN KMSN 042150Z 19010KT 10SM SCT049 29/18 A3000 790 50 2700 190/10 RMK AO2 SLP152 T02940183
14837KMSN MSN20051004155510910/04/05 15:55:31  5-MIN KMSN 042155Z 19010G16KT 10SM FEW049 SCT060 29/18 A3000 790 50 2700 190/10G16 RMK AO2
14837KMSN MSN20051004160011810/04/05 16:00:31  5-MIN KMSN 042200Z 20011G16KT 170V240 10SM FEW049 29/18 A3000 790 50 2700 200/11G16 170V240 RMK AO2
14837KMSN MSN20051004160509610/04/05 16:05:31  5-MIN KMSN 042205Z 19011KT 10SM FEW049 29/18 A3000 790 50 2700 190/11 RMK AO2
14837KMSN MSN20051004161009610/04/05 16:10:31  5-MIN KMSN 042210Z 19011KT 10SM FEW049 29/18 A3000 790 49 2700 190/11 RMK AO2
14837KMSN MSN20051004161509610/04/05 16:15:31  5-MIN KMSN 042215Z 20009KT 10SM FEW050 29/18 A3000 790 49 2700 200/09 RMK AO2
14837KMSN MSN20051004162009610/04/05 16:20:31  5-MIN KMSN 042220Z 20009KT 10SM FEW050 29/18 A3000 790 50 2700 200/09 RMK AO2
14837KMSN MSN20051004162509610/04/05 16:25:31  5-MIN KMSN 042225Z 20009KT 10SM FEW050 29/18 A3000 790 52 2600 200/09 RMK AO2
14837KMSN MSN20051004163009610/04/05 16:30:31  5-MIN KMSN 042230Z 21006KT 10SM FEW050 29/18 A3000 790 52 2600 210/06 RMK AO2
14837KMSN MSN20051004163509610/04/05 16:35:31  5-MIN KMSN 042235Z 20011KT 10SM FEW050 29/18 A3000 790 52 2600 200/11 RMK AO2
14837KMSN MSN20051004164009610/04/05 16:40:31  5-MIN KMSN 042240Z 19013KT 10SM FEW050 29/18 A3000 790 52 2600 190/13 RMK AO2
14837KMSN MSN20051004164509610/04/05 16:45:31  5-MIN KMSN 042245Z 20008KT 10SM FEW050 29/18 A3000 790 52 2600 190/08 RMK AO2
14837KMSN MSN20051004165011310/04/05 16:50:31  5-MIN KMSN 042250Z 19010KT 10SM FEW050 28/18 A2999 800 54 2500 190/10 RMK AO2 SLP151 T02830183
14837KMSN MSN20051004165509610/04/05 16:55:31  5-MIN KMSN 042255Z 18010KT 10SM FEW050 28/18 A2999 800 54 2500 180/10 RMK AO2
14837KMSN MSN20051004170009610/04/05 17:00:31  5-MIN KMSN 042300Z 18010KT 10SM FEW050 28/18 A2999 800 54 2500 180/10 RMK AO2
14837KMSN MSN20051004170509610/04/05 17:05:31  5-MIN KMSN 042305Z 17010KT 10SM FEW050 28/18 A2999 800 56 2500 170/10 RMK AO2
14837KMSN MSN20051004171009610/04/05 17:10:31  5-MIN KMSN 042310Z 18007KT 10SM FEW050 28/18 A2999 800 56 2500 180/07 RMK AO2
14837KMSN MSN20051004171509610/04/05 17:15:31  5-MIN KMSN 042315Z 18009KT 10SM FEW050 28/18 A2999 800 56 2500 180/09 RMK AO2
14837KMSN MSN20051004172009610/04/05 17:20:31  5-MIN KMSN 042320Z 18007KT 10SM FEW050 28/18 A2999 800 56 2500 180/07 RMK AO2
14837KMSN MSN20051004172509610/04/05 17:25:31  5-MIN KMSN 042325Z 18007KT 10SM FEW050 28/18 A2999 800 56 2500 180/07 RMK AO2
14837KMSN MSN20051004173009610/04/05 17:30:31  5-MIN KMSN 042330Z 18008KT 10SM FEW050 28/18 A2999 800 56 2500 180/08 RMK AO2
14837KMSN MSN20051004173509610/04/05 17:35:31  5-MIN KMSN 042335Z 18007KT 10SM FEW050 28/18 A2998 800 56 2500 180/07 RMK AO2
14837KMSN MSN20051004174009610/04/05 17:40:31  5-MIN KMSN 042340Z 19008KT 10SM FEW050 28/18 A2998 810 56 2500 190/08 RMK AO2
14837KMSN MSN20051004174509310/04/05 17:45:31  5-MIN KMSN 042345Z 18007KT 10SM CLR 28/18 A2998 810 56 2500 180/07 RMK AO2
14837KMSN MSN20051004175012810/04/05 17:50:31  5-MIN KMSN 042350Z 17006KT 10SM CLR 27/18 A2998 810 60 2400 170/06 RMK AO2 SLP146 T02670183 10306 20267 56024
14837KMSN MSN20051004175509310/04/05 17:55:31  5-MIN KMSN 042355Z 17007KT 10SM CLR 26/18 A2998 810 64 2300 170/07 RMK AO2
14837KMSN MSN20051004180009310/04/05 18:00:31  5-MIN KMSN 050000Z 17008KT 10SM CLR 26/18 A2997 820 64 2300 170/08 RMK AO2
14837KMSN MSN20051004180509310/04/05 18:05:31  5-MIN KMSN 050005Z 17007KT 10SM CLR 26/18 A2997 820 64 2300 170/07 RMK AO2
14837KMSN MSN20051004181009310/04/05 18:10:31  5-MIN KMSN 050010Z 17007KT 10SM CLR 26/18 A2997 820 64 2300 170/07 RMK AO2
14837KMSN MSN20051004181509310/04/05 18:15:31  5-MIN KMSN 050015Z 18007KT 10SM CLR 26/18 A2997 820 62 2300 170/07 RMK AO2
14837KMSN MSN20051004182009310/04/05 18:20:31  5-MIN KMSN 050020Z 18006KT 10SM CLR 26/18 A2997 820 62 2300 170/06 RMK AO2
14837KMSN MSN20051004182509310/04/05 18:25:31  5-MIN KMSN 050025Z 18007KT 10SM CLR 26/18 A2997 820 62 2300 180/07 RMK AO2
14837KMSN MSN20051004183009310/04/05 18:30:31  5-MIN KMSN 050030Z 18006KT 10SM CLR 26/18 A2997 820 62 2300 180/06 RMK AO2
14837KMSN MSN20051004183509310/04/05 18:35:31  5-MIN KMSN 050035Z 18008KT 10SM CLR 26/18 A2997 820 62 2300 180/08 RMK AO2
14837KMSN MSN20051004184009310/04/05 18:40:31  5-MIN KMSN 050040Z 17007KT 10SM CLR 26/18 A2997 820 64 2300 170/07 RMK AO2
14837KMSN MSN20051004184509310/04/05 18:45:31  5-MIN KMSN 050045Z 18007KT 10SM CLR 26/18 A2996 820 64 2300 170/07 RMK AO2
14837KMSN MSN20051004185011010/04/05 18:50:31  5-MIN KMSN 050050Z 18008KT 10SM CLR 26/18 A2996 820 62 2300 180/08 RMK AO2 SLP141 T02610183
14837KMSN MSN20051004185509310/04/05 18:55:31  5-MIN KMSN 050055Z 17009KT 10SM CLR 26/18 A2996 820 62 2300 170/09 RMK AO2
14837KMSN MSN20051004190009310/04/05 19:00:31  5-MIN KMSN 050100Z 18008KT 10SM CLR 26/18 A2996 820 62 2300 180/08 RMK AO2
14837KMSN MSN20051004190509310/04/05 19:05:31  5-MIN KMSN 050105Z 18009KT 10SM CLR 26/18 A2997 820 59 2300 180/09 RMK AO2
14837KMSN MSN20051004191009310/04/05 19:10:31  5-MIN KMSN 050110Z 17008KT 10SM CLR 26/18 A2997 820 59 2300 170/08 RMK AO2
14837KMSN MSN20051004191509310/04/05 19:15:31  5-MIN KMSN 050115Z 17008KT 10SM CLR 26/18 A2997 820 61 2300 170/08 RMK AO2
14837KMSN MSN20051004192009310/04/05 19:20:31  5-MIN KMSN 050120Z 18008KT 10SM CLR 26/18 A2996 830 61 2300 170/08 RMK AO2
14837KMSN MSN20051004192509310/04/05 19:25:31  5-MIN KMSN 050125Z 17009KT 10SM CLR 26/18 A2996 820 61 2300 170/09 RMK AO2
14837KMSN MSN20051004193009310/04/05 19:30:31  5-MIN KMSN 050130Z 18009KT 10SM CLR 26/18 A2996 820 61 2300 170/09 RMK AO2
14837KMSN MSN20051004193509310/04/05 19:35:31  5-MIN KMSN 050135Z 18009KT 10SM CLR 26/18 A2997 820 61 2300 180/09 RMK AO2
14837KMSN MSN20051004194009310/04/05 19:40:31  5-MIN KMSN 050140Z 18009KT 10SM CLR 26/18 A2997 820 61 2300 180/09 RMK AO2
14837KMSN MSN20051004194509310/04/05 19:45:31  5-MIN KMSN 050145Z 18009KT 10SM CLR 26/18 A2997 820 61 2300 180/09 RMK AO2
14837KMSN MSN20051004195011010/04/05 19:50:31  5-MIN KMSN 050150Z 17010KT 10SM CLR 26/18 A2997 820 61 2300 170/10 RMK AO2 SLP142 T02560178
14837KMSN MSN20051004195509310/04/05 19:55:31  5-MIN KMSN 050155Z 18011KT 10SM CLR 26/18 A2997 820 61 2300 180/11 RMK AO2
14837KMSN MSN20051004200009310/04/05 20:00:31  5-MIN KMSN 050200Z 18010KT 10SM CLR 26/18 A2997 820 61 2300 180/10 RMK AO2
14837KMSN MSN20051004200509310/04/05 20:05:31  5-MIN KMSN 050205Z 18010KT 10SM CLR 26/18 A2997 820 61 2300 180/10 RMK AO2
14837KMSN MSN20051004201009310/04/05 20:10:31  5-MIN KMSN 050210Z 18010KT 10SM CLR 26/18 A2996 820 61 2300 180/10 RMK AO2
14837KMSN MSN20051004201509310/04/05 20:15:31  5-MIN KMSN 050215Z 18010KT 10SM CLR 26/18 A2997 820 61 2300 170/10 RMK AO2
14837KMSN MSN20051004202009310/04/05 20:20:31  5-MIN KMSN 050220Z 18010KT 10SM CLR 25/18 A2997 820 64 2200 180/10 RMK AO2
14837KMSN MSN20051004202509310/04/05 20:25:31  5-MIN KMSN 050225Z 18010KT 10SM CLR 25/18 A2997 820 64 2200 180/10 RMK AO2
14837KMSN MSN20051004203009310/04/05 20:30:31  5-MIN KMSN 050230Z 18010KT 10SM CLR 25/18 A2997 820 64 2200 180/10 RMK AO2
14837KMSN MSN20051004203509310/04/05 20:35:31  5-MIN KMSN 050235Z 18011KT 10SM CLR 25/18 A2997 820 64 2200 180/11 RMK AO2
14837KMSN MSN20051004204009310/04/05 20:40:31  5-MIN KMSN 050240Z 18010KT 10SM CLR 25/18 A2997 820 64 2200 180/10 RMK AO2
14837KMSN MSN20051004204509310/04/05 20:45:31  5-MIN KMSN 050245Z 18010KT 10SM CLR 25/18 A2997 820 64 2200 180/10 RMK AO2
14837KMSN MSN20051004205011610/04/05 20:50:31  5-MIN KMSN 050250Z 18009KT 10SM CLR 25/18 A2997 810 64 2200 180/09 RMK AO2 SLP145 T02500178 58007
14837KMSN MSN20051004205509310/04/05 20:55:31  5-MIN KMSN 050255Z 18010KT 10SM CLR 24/18 A2998 810 66 2100 180/10 RMK AO2
14837KMSN MSN20051004210009310/04/05 21:00:31  5-MIN KMSN 050300Z 18009KT 10SM CLR 24/18 A2998 810 66 2100 180/09 RMK AO2
14837KMSN MSN20051004210509310/04/05 21:05:31  5-MIN KMSN 050305Z 18009KT 10SM CLR 24/18 A2998 810 66 2100 180/09 RMK AO2
14837KMSN MSN20051004211009310/04/05 21:10:31  5-MIN KMSN 050310Z 18009KT 10SM CLR 24/18 A2998 810 66 2100 180/09 RMK AO2
14837KMSN MSN20051004211509310/04/05 21:15:31  5-MIN KMSN 050315Z 18009KT 10SM CLR 24/18 A2998 810 66 2100 180/09 RMK AO2
14837KMSN MSN20051004212009310/04/05 21:20:31  5-MIN KMSN 050320Z 18009KT 10SM CLR 24/18 A2998 810 66 2100 180/09 RMK AO2
14837KMSN MSN20051004212509310/04/05 21:25:31  5-MIN KMSN 050325Z 18008KT 10SM CLR 24/18 A2998 810 66 2100 180/08 RMK AO2
14837KMSN MSN20051004213009310/04/05 21:30:31  5-MIN KMSN 050330Z 19009KT 10SM CLR 24/18 A2999 800 66 2100 180/09 RMK AO2
14837KMSN MSN20051004213509310/04/05 21:35:31  5-MIN KMSN 050335Z 18008KT 10SM CLR 24/18 A2998 810 66 2100 180/08 RMK AO2
14837KMSN MSN20051004214009310/04/05 21:40:31  5-MIN KMSN 050340Z 18008KT 10SM CLR 24/18 A2998 810 68 2100 180/08 RMK AO2
14837KMSN MSN20051004214509310/04/05 21:45:31  5-MIN KMSN 050345Z 19007KT 10SM CLR 24/18 A2999 800 66 2100 190/07 RMK AO2
14837KMSN MSN20051004215011010/04/05 21:50:31  5-MIN KMSN 050350Z 18007KT 10SM CLR 24/18 A2999 800 68 2100 180/07 RMK AO2 SLP149 T02390178
14837KMSN MSN20051004215509310/04/05 21:55:31  5-MIN KMSN 050355Z 18006KT 10SM CLR 24/18 A2999 800 68 2100 180/06 RMK AO2
14837KMSN MSN20051004220009310/04/05 22:00:31  5-MIN KMSN 050400Z 18006KT 10SM CLR 23/18 A3000 800 70 2000 180/06 RMK AO2
14837KMSN MSN20051004220509310/04/05 22:05:31  5-MIN KMSN 050405Z 18007KT 10SM CLR 24/18 A2999 800 68 2000 180/07 RMK AO2
14837KMSN MSN20051004221009310/04/05 22:10:31  5-MIN KMSN 050410Z 18007KT 10SM CLR 24/18 A3000 790 68 2000 180/07 RMK AO2
14837KMSN MSN20051004221509310/04/05 22:15:31  5-MIN KMSN 050415Z 18007KT 10SM CLR 24/18 A3000 790 68 2000 180/07 RMK AO2
14837KMSN MSN20051004222009310/04/05 22:20:31  5-MIN KMSN 050420Z 18007KT 10SM CLR 24/18 A3000 790 68 2000 180/07 RMK AO2
14837KMSN MSN20051004222509310/04/05 22:25:31  5-MIN KMSN 050425Z 18008KT 10SM CLR 24/18 A3000 790 68 2000 180/08 RMK AO2
14837KMSN MSN20051004223009310/04/05 22:30:31  5-MIN KMSN 050430Z 18008KT 10SM CLR 24/18 A3000 790 68 2000 180/08 RMK AO2
14837KMSN MSN20051004223509310/04/05 22:35:31  5-MIN KMSN 050435Z 18008KT 10SM CLR 24/18 A3000 790 68 2000 180/08 RMK AO2
14837KMSN MSN20051004224009310/04/05 22:40:31  5-MIN KMSN 050440Z 18006KT 10SM CLR 24/18 A3000 790 68 2000 170/06 RMK AO2
14837KMSN MSN20051004224509310/04/05 22:45:31  5-MIN KMSN 050445Z 17006KT 10SM CLR 23/18 A3000 790 70 2000 170/06 RMK AO2
14837KMSN MSN20051004225011010/04/05 22:50:31  5-MIN KMSN 050450Z 17006KT 10SM CLR 23/18 A3000 790 73 1900 170/06 RMK AO2 SLP153 T02280178
14837KMSN MSN20051004225509310/04/05 22:55:31  5-MIN KMSN 050455Z 17006KT 10SM CLR 23/18 A3000 790 73 1900 170/06 RMK AO2
14837KMSN MSN20051004230009310/04/05 23:00:31  5-MIN KMSN 050500Z 17007KT 10SM CLR 23/18 A3000 790 73 1900 170/07 RMK AO2
14837KMSN MSN20051004230509310/04/05 23:05:31  5-MIN KMSN 050505Z 17008KT 10SM CLR 23/18 A3000 790 73 1900 170/08 RMK AO2
14837KMSN MSN20051004231009310/04/05 23:10:31  5-MIN KMSN 050510Z 17006KT 10SM CLR 23/18 A3000 790 73 1900 170/06 RMK AO2
14837KMSN MSN20051004231509310/04/05 23:15:31  5-MIN KMSN 050515Z 17006KT 10SM CLR 23/18 A3000 790 73 1900 170/06 RMK AO2
14837KMSN MSN20051004232009310/04/05 23:20:31  5-MIN KMSN 050520Z 17006KT 10SM CLR 23/18 A3000 790 73 1900 170/06 RMK AO2
14837KMSN MSN20051004232509310/04/05 23:25:31  5-MIN KMSN 050525Z 17006KT 10SM CLR 23/18 A3000 790 70 2000 170/06 RMK AO2
14837KMSN MSN20051004233009310/04/05 23:30:31  5-MIN KMSN 050530Z 17006KT 10SM CLR 23/18 A3000 790 70 2000 170/06 RMK AO2
14837KMSN MSN20051004233509310/04/05 23:35:31  5-MIN KMSN 050535Z 17006KT 10SM CLR 23/18 A3000 790 70 2000 170/06 RMK AO2
14837KMSN MSN20051004234009310/04/05 23:40:31  5-MIN KMSN 050540Z 18007KT 10SM CLR 23/18 A3000 790 73 1900 180/07 RMK AO2
14837KMSN MSN20051004234509310/04/05 23:45:31  5-MIN KMSN 050545Z 17006KT 10SM CLR 23/18 A3000 790 70 2000 170/06 RMK AO2
14837KMSN MSN20051004235013810/04/05 23:50:31  5-MIN KMSN 050550Z 17006KT 10SM CLR 23/18 A3000 790 73 1900 170/06 RMK AO2 SLP154 T02280178 10261 20228 403060206 55001
14837KMSN MSN20051004235509310/04/05 23:55:31  5-MIN KMSN 050555Z 18007KT 10SM CLR 23/18 A3000 790 70 2000 180/07 RMK AO2
14837KMSN MSN20051005000009310/05/05 00:00:38  5-MIN KMSN 050600Z 18006KT 10SM CLR 23/18 A3000 790 73 1900 180/06 RMK AO2
14837KMSN MSN20051005000509310/05/05 00:05:31  5-MIN KMSN 050605Z 18007KT 10SM CLR 23/18 A3001 780 70 2000 180/07 RMK AO2
14837KMSN MSN20051005001009310/05/05 00:10:31  5-MIN KMSN 050610Z 18006KT 10SM CLR 23/18 A3001 780 73 1900 180/06 RMK AO2
14837KMSN MSN20051005001509310/05/05 00:15:31  5-MIN KMSN 050615Z 17005KT 10SM CLR 23/18 A3001 780 73 1900 170/05 RMK AO2
14837KMSN MSN20051005002009310/05/05 00:20:31  5-MIN KMSN 050620Z 17006KT 10SM CLR 22/18 A3001 780 75 1800 170/06 RMK AO2
14837KMSN MSN20051005002509310/05/05 00:25:31  5-MIN KMSN 050625Z 17007KT 10SM CLR 22/18 A3001 780 75 1800 170/07 RMK AO2
14837KMSN MSN20051005003009310/05/05 00:30:31  5-MIN KMSN 050630Z 17006KT 10SM CLR 22/18 A3001 780 75 1800 170/06 RMK AO2
14837KMSN MSN20051005003509310/05/05 00:35:31  5-MIN KMSN 050635Z 17006KT 10SM CLR 22/18 A3001 780 75 1800 170/06 RMK AO2
14837KMSN MSN20051005004009310/05/05 00:40:31  5-MIN KMSN 050640Z 18006KT 10SM CLR 22/18 A3001 780 75 1800 180/06 RMK AO2
14837KMSN MSN20051005004509310/05/05 00:45:31  5-MIN KMSN 050645Z 17006KT 10SM CLR 22/18 A3001 780 75 1800 170/06 RMK AO2
14837KMSN MSN20051005005011010/05/05 00:50:31  5-MIN KMSN 050650Z 17006KT 10SM CLR 22/18 A3001 780 75 1800 170/06 RMK AO2 SLP155 T02220178
14837KMSN MSN20051005005509310/05/05 00:55:31  5-MIN KMSN 050655Z 18006KT 10SM CLR 22/18 A3001 780 75 1800 180/06 RMK AO2
14837KMSN MSN20051005010009310/05/05 01:00:31  5-MIN KMSN 050700Z 18006KT 10SM CLR 22/18 A3001 780 78 1800 180/06 RMK AO2
14837KMSN MSN20051005010509310/05/05 01:05:31  5-MIN KMSN 050705Z 18007KT 10SM CLR 22/18 A3001 780 81 1800 180/07 RMK AO2
14837KMSN MSN20051005011009310/05/05 01:10:31  5-MIN KMSN 050710Z 18006KT 10SM CLR 22/18 A3001 780 78 1800 180/06 RMK AO2
14837KMSN MSN20051005011509310/05/05 01:15:31  5-MIN KMSN 050715Z 18006KT 10SM CLR 22/18 A3000 790 78 1800 180/06 RMK AO2
14837KMSN MSN20051005012009310/05/05 01:20:31  5-MIN KMSN 050720Z 18008KT 10SM CLR 22/18 A3001 790 78 1800 180/08 RMK AO2
14837KMSN MSN20051005012509310/05/05 01:25:31  5-MIN KMSN 050725Z 18006KT 10SM CLR 22/18 A3000 790 78 1800 180/06 RMK AO2
14837KMSN MSN20051005013009310/05/05 01:30:31  5-MIN KMSN 050730Z 18007KT 10SM CLR 22/18 A3000 790 78 1800 180/07 RMK AO2
14837KMSN MSN20051005013509310/05/05 01:35:31  5-MIN KMSN 050735Z 18006KT 10SM CLR 22/18 A3000 790 78 1800 180/06 RMK AO2
14837KMSN MSN20051005014009210/05/05 01:40:31  5-MIN KMSN 050740Z 18007KT 9SM CLR 22/18 A3000 790 78 1800 180/07 RMK AO2
14837KMSN MSN20051005014509210/05/05 01:45:31  5-MIN KMSN 050745Z 18007KT 9SM CLR 22/18 A3000 790 78 1800 180/07 RMK AO2
14837KMSN MSN20051005015010910/05/05 01:50:31  5-MIN KMSN 050750Z 17006KT 9SM CLR 22/18 A3000 790 81 1800 170/06 RMK AO2 SLP153 T02170183
14837KMSN MSN20051005015509210/05/05 01:55:31  5-MIN KMSN 050755Z 17006KT 9SM CLR 22/18 A3000 790 81 1800 170/06 RMK AO2
14837KMSN MSN20051005020009210/05/05 02:00:31  5-MIN KMSN 050800Z 17007KT 9SM CLR 22/18 A3000 790 81 1800 170/07 RMK AO2
14837KMSN MSN20051005020509210/05/05 02:05:31  5-MIN KMSN 050805Z 18006KT 9SM CLR 22/18 A3000 790 81 1800 180/06 RMK AO2
14837KMSN MSN20051005021009210/05/05 02:10:31  5-MIN KMSN 050810Z 18007KT 9SM CLR 22/18 A3000 790 81 1800 180/07 RMK AO2
14837KMSN MSN20051005021509210/05/05 02:15:31  5-MIN KMSN 050815Z 18008KT 8SM CLR 22/18 A3000 790 78 1900 180/08 RMK AO2
14837KMSN MSN20051005022009210/05/05 02:20:31  5-MIN KMSN 050820Z 19007KT 8SM CLR 22/18 A3000 790 78 1900 190/07 RMK AO2
14837KMSN MSN20051005022509210/05/05 02:25:31  5-MIN KMSN 050825Z 19008KT 8SM CLR 22/18 A3000 790 78 1900 190/08 RMK AO2
14837KMSN MSN20051005023009210/05/05 02:30:31  5-MIN KMSN 050830Z 19008KT 8SM CLR 23/18 A3000 790 76 1900 190/08 RMK AO2
14837KMSN MSN20051005023509210/05/05 02:35:31  5-MIN KMSN 050835Z 19007KT 8SM CLR 23/18 A3000 790 76 1900 190/07 RMK AO2
14837KMSN MSN20051005024009210/05/05 02:40:31  5-MIN KMSN 050840Z 19005KT 8SM CLR 22/18 A3000 790 78 1900 190/05 RMK AO2
14837KMSN MSN20051005024509210/05/05 02:45:31  5-MIN KMSN 050845Z 20008KT 8SM CLR 22/18 A3000 790 78 1900 190/08 RMK AO2
14837KMSN MSN20051005025011510/05/05 02:50:31  5-MIN KMSN 050850Z 19008KT 8SM CLR 22/18 A3000 790 78 1900 190/08 RMK AO2 SLP153 T02220183 51009
14837KMSN MSN20051005025509210/05/05 02:55:31  5-MIN KMSN 050855Z 19007KT 8SM CLR 22/18 A3000 790 78 1800 190/07 RMK AO2
14837KMSN MSN20051005100010410/05/05 10:00:31  5-MIN KMSN 051600Z 19012G17KT 6SM HZ FEW030 26/18 A2999 800 61 2200 190/12G17 RMK AO2
14837KMSN MSN20051005100510410/05/05 10:05:31  5-MIN KMSN 051605Z 20011G17KT 6SM HZ FEW030 26/18 A2998 800 61 2200 200/11G17 RMK AO2
14837KMSN MSN20051005101010410/05/05 10:10:31  5-MIN KMSN 051610Z 20012G17KT 6SM HZ FEW030 26/18 A2998 810 59 2300 190/12G17 RMK AO2
14837KMSN MSN20051005101509810/05/05 10:15:31  5-MIN KMSN 051615Z 20012KT 6SM HZ FEW030 26/18 A2998 810 59 2300 200/12 RMK AO2
14837KMSN MSN20051005102009810/05/05 10:20:31  5-MIN KMSN 051620Z 20010KT 6SM HZ FEW030 26/18 A2998 810 59 2300 200/10 RMK AO2
14837KMSN MSN20051005102509810/05/05 10:25:31  5-MIN KMSN 051625Z 21011KT 6SM HZ FEW030 26/18 A2998 810 59 2300 210/11 RMK AO2
14837KMSN MSN20051005103009810/05/05 10:30:31  5-MIN KMSN 051630Z 19011KT 6SM HZ FEW030 26/18 A2998 810 59 2300 190/11 RMK AO2
14837KMSN MSN20051005103510410/05/05 10:35:31  5-MIN KMSN 051635Z 19013G17KT 6SM HZ FEW030 26/18 A2998 810 59 2300 190/13G17 RMK AO2
14837KMSN MSN20051005104010410/05/05 10:40:31  5-MIN KMSN 051640Z 19014G18KT 6SM HZ FEW030 26/18 A2998 810 59 2300 190/14G18 RMK AO2
14837KMSN MSN20051005104510410/05/05 10:45:31  5-MIN KMSN 051645Z 20010G18KT 6SM HZ FEW030 27/18 A2997 820 57 2400 190/10G18 RMK AO2
14837KMSN MSN20051005105011510/05/05 10:50:31  5-MIN KMSN 051650Z 18012KT 6SM HZ FEW030 27/18 A2997 820 57 2400 180/12 RMK AO2 SLP143 T02670178
14837KMSN MSN20051005105509810/05/05 10:55:31  5-MIN KMSN 051655Z 19012KT 6SM HZ FEW035 27/18 A2997 820 60 2400 190/12 RMK AO2
14837KMSN MSN20051005110010410/05/05 11:00:31  5-MIN KMSN 051700Z 18013G17KT 6SM HZ FEW035 27/18 A2997 820 56 2500 180/13G17 RMK AO2
14837KMSN MSN20051005110509510/05/05 11:05:31  5-MIN KMSN 051705Z 18012KT 7SM FEW035 27/18 A2996 820 56 2500 180/12 RMK AO2
14837KMSN MSN20051005111009810/05/05 11:10:31  5-MIN KMSN 051710Z 17015KT 6SM HZ FEW035 27/18 A2996 830 57 2400 170/15 RMK AO2
14837KMSN MSN20051005111509810/05/05 11:15:31  5-MIN KMSN 051715Z 19014G20KT 7SM CLR 27/18 A2996 830 56 2500 190/14G20 RMK AO2
14837KMSN MSN20051005112009810/05/05 11:20:31  5-MIN KMSN 051720Z 19013G21KT 7SM CLR 27/18 A2996 830 56 2500 190/13G21 RMK AO2
14837KMSN MSN20051005112509810/05/05 11:25:31  5-MIN KMSN 051725Z 18014G21KT 7SM CLR 27/17 A2996 830 54 2500 180/14G21 RMK AO2
14837KMSN MSN20051005113009210/05/05 11:30:31  5-MIN KMSN 051730Z 18014KT 7SM CLR 27/17 A2995 830 54 2500 180/14 RMK AO2
14837KMSN MSN20051005113509210/05/05 11:35:31  5-MIN KMSN 051735Z 18011KT 7SM CLR 27/17 A2995 830 54 2500 180/11 RMK AO2
14837KMSN MSN20051005114009810/05/05 11:40:31  5-MIN KMSN 051740Z 18012G18KT 7SM CLR 28/17 A2995 840 52 2500 180/12G18 RMK AO2
14837KMSN MSN20051005114509810/05/05 11:45:31  5-MIN KMSN 051745Z 19012G18KT 7SM CLR 28/17 A2995 840 50 2500 190/12G18 RMK AO2
14837KMSN MSN20051005115013310/05/05 11:50:31  5-MIN KMSN 051750Z 19015G18KT 8SM CLR 28/17 A2994 840 48 2600 190/15G18 RMK AO2 SLP134 T02830167 10283 20211 58004
14837KMSN MSN20051005115509810/05/05 11:55:31  5-MIN KMSN 051755Z 19013G18KT 8SM CLR 28/17 A2994 840 50 2500 180/13G18 RMK AO2
14837KMSN MSN20051005120009210/05/05 12:00:31  5-MIN KMSN 051800Z 19014KT 8SM CLR 28/16 A2994 850 47 2600 180/14 RMK AO2
14837KMSN MSN20051005120509810/05/05 12:05:31  5-MIN KMSN 051805Z 18016G19KT 8SM CLR 28/16 A2994 850 45 2600 180/16G19 RMK AO2
14837KMSN MSN20051005121009810/05/05 12:10:31  5-MIN KMSN 051810Z 18016G19KT 8SM CLR 28/16 A2994 850 45 2600 180/16G19 RMK AO2
14837KMSN MSN20051005121509810/05/05 12:15:31  5-MIN KMSN 051815Z 19013G23KT 9SM CLR 28/15 A2993 850 43 2600 190/13G23 RMK AO2
14837KMSN MSN20051005122009810/05/05 12:20:31  5-MIN KMSN 051820Z 19014G23KT 9SM CLR 29/16 A2993 850 44 2700 190/14G23 RMK AO2
14837KMSN MSN20051005122509810/05/05 12:25:31  5-MIN KMSN 051825Z 20012G18KT 9SM CLR 29/15 A2993 850 42 2700 200/12G18 RMK AO2
14837KMSN MSN20051005123009810/05/05 12:30:31  5-MIN KMSN 051830Z 18014G19KT 9SM CLR 29/16 A2993 850 44 2700 180/14G19 RMK AO2
14837KMSN MSN20051005123509810/05/05 12:35:31  5-MIN KMSN 051835Z 18011G19KT 9SM CLR 29/16 A2993 850 44 2700 180/11G19 RMK AO2
14837KMSN MSN20051005124009810/05/05 12:40:31  5-MIN KMSN 051840Z 17015G21KT 9SM CLR 29/16 A2993 850 44 2700 170/15G21 RMK AO2
14837KMSN MSN20051005124509810/05/05 12:45:31  5-MIN KMSN 051845Z 18015G21KT 9SM CLR 29/15 A2993 860 42 2700 180/15G21 RMK AO2
14837KMSN MSN20051005125011510/05/05 12:50:31  5-MIN KMSN 051850Z 19013G19KT 9SM CLR 29/15 A2993 860 42 2700 190/13G19 RMK AO2 SLP128 T02890150
14837KMSN MSN20051005125509510/05/05 12:55:31  5-MIN KMSN 051855Z 21013KT 9SM FEW055 29/14 A2993 860 40 2700 210/13 RMK AO2
14837KMSN MSN20051005130010110/05/05 13:00:31  5-MIN KMSN 051900Z 20011G20KT 9SM FEW055 29/14 A2993 860 40 2700 200/11G20 RMK AO2
14837KMSN MSN20051005130510210/05/05 13:05:31  5-MIN KMSN 051905Z 21012G21KT 10SM FEW055 29/14 A2993 860 40 2700 210/12G21 RMK AO2
14837KMSN MSN20051005131011810/05/05 13:10:31  5-MIN KMSN 051910Z 20014G21KT 160V230 10SM FEW055 29/14 A2993 860 40 2700 200/14G21 160V230 RMK AO2
14837KMSN MSN20051005131510110/05/05 13:15:31  5-MIN KMSN 051915Z 20010G20KT 9SM FEW055 29/14 A2993 860 40 2700 200/10G20 RMK AO2
14837KMSN MSN20051005132010210/05/05 13:20:31  5-MIN KMSN 051920Z 22010G20KT 10SM FEW055 29/15 A2993 860 42 2700 220/10G20 RMK AO2
14837KMSN MSN20051005132510210/05/05 13:25:31  5-MIN KMSN 051925Z 21010G16KT 10SM FEW055 29/14 A2993 860 40 2700 210/10G16 RMK AO2
14837KMSN MSN20051005133010210/05/05 13:30:31  5-MIN KMSN 051930Z 20010G16KT 10SM FEW055 29/15 A2993 860 41 2700 200/10G16 RMK AO2
14837KMSN MSN20051005133510210/05/05 13:35:31  5-MIN KMSN 051935Z 19016G20KT 10SM FEW055 29/14 A2992 860 40 2700 190/16G20 RMK AO2
14837KMSN MSN20051005134010210/05/05 13:40:31  5-MIN KMSN 051940Z 21014G22KT 10SM FEW055 29/14 A2992 860 40 2700 200/14G22 RMK AO2
14837KMSN MSN20051005134510210/05/05 13:45:31  5-MIN KMSN 051945Z 19015G22KT 10SM FEW055 29/14 A2992 870 39 2700 190/15G22 RMK AO2
14837KMSN MSN20051005135011910/05/05 13:50:31  5-MIN KMSN 051950Z 18016G22KT 10SM FEW055 29/14 A2992 870 40 2700 180/16G22 RMK AO2 SLP124 T02890144
14837KMSN MSN20051005135509910/05/05 13:55:31  5-MIN KMSN 051955Z 19013G22KT 10SM CLR 29/14 A2992 870 40 2700 180/13G22 RMK AO2
14837KMSN MSN20051005140009910/05/05 14:00:31  5-MIN KMSN 052000Z 18016G20KT 10SM CLR 29/14 A2991 870 40 2700 180/16G20 RMK AO2
14837KMSN MSN20051005140509910/05/05 14:05:31  5-MIN KMSN 052005Z 18015G20KT 10SM CLR 29/14 A2991 870 40 2700 180/15G20 RMK AO2
14837KMSN MSN20051005141009910/05/05 14:10:31  5-MIN KMSN 052010Z 19013G20KT 10SM CLR 29/14 A2992 870 40 2700 190/13G20 RMK AO2
14837KMSN MSN20051005141510210/05/05 14:15:31  5-MIN KMSN 052015Z 20011G18KT 10SM FEW060 29/14 A2992 870 39 2800 200/11G18 RMK AO2
14837KMSN MSN20051005142009610/05/05 14:20:31  5-MIN KMSN 052020Z 19013KT 10SM FEW055 29/14 A2992 870 39 2800 190/13 RMK AO2
14837KMSN MSN20051005142509610/05/05 14:25:31  5-MIN KMSN 052025Z 20013KT 10SM FEW055 29/14 A2992 860 38 2800 200/13 RMK AO2
14837KMSN MSN20051005143010210/05/05 14:30:31  5-MIN KMSN 052030Z 21012G19KT 10SM FEW055 29/14 A2992 860 40 2700 210/12G19 RMK AO2
14837KMSN MSN20051005143510210/05/05 14:35:31  5-MIN KMSN 052035Z 20015G21KT 10SM SCT055 29/14 A2992 870 40 2700 200/15G21 RMK AO2
14837KMSN MSN20051005144010210/05/05 14:40:31  5-MIN KMSN 052040Z 20012G21KT 10SM BKN055 28/14 A2992 870 42 2600 200/12G21 RMK AO2
14837KMSN MSN20051005144510210/05/05 14:45:31  5-MIN KMSN 052045Z 22008G20KT 10SM BKN055 28/15 A2992 860 43 2600 220/08G20 RMK AO2
14837KMSN MSN20051005145013510/05/05 14:50:31  5-MIN KMSN 052050Z 22009KT 190V270 10SM BKN055 28/15 A2992 860 43 2600 220/09 190V270 RMK AO2 SLP127 T02830150 58017
14837KMSN MSN20051005145509610/05/05 14:55:31  5-MIN KMSN 052055Z 20010KT 10SM BKN055 28/16 A2992 860 45 2600 200/10 RMK AO2
14837KMSN MSN20051005150009610/05/05 15:00:31  5-MIN KMSN 052100Z 20008KT 10SM BKN055 29/16 A2992 860 44 2700 200/08 RMK AO2
14837KMSN MSN20051005150509610/05/05 15:05:31  5-MIN KMSN 052105Z 21010KT 10SM BKN055 28/16 A2992 860 45 2600 200/10 RMK AO2
14837KMSN MSN20051005151010210/05/05 15:10:31  5-MIN KMSN 052110Z 20008G15KT 10SM BKN055 28/16 A2992 860 47 2600 200/08G15 RMK AO2
14837KMSN MSN20051005151510210/05/05 15:15:31  5-MIN KMSN 052115Z 19013G18KT 10SM BKN055 28/16 A2992 870 47 2600 190/13G18 RMK AO2
14837KMSN MSN20051005152010210/05/05 15:20:31  5-MIN KMSN 052120Z 19011G18KT 10SM BKN055 28/16 A2992 870 47 2600 190/11G18 RMK AO2
14837KMSN MSN20051005152510210/05/05 15:25:31  5-MIN KMSN 052125Z 19014G18KT 10SM BKN055 28/16 A2991 870 47 2600 190/14G18 RMK AO2
14837KMSN MSN20051005153010110/05/05 15:30:31  5-MIN KMSN 052130Z 19014G19KT 9SM BKN055 28/16 A2991 870 47 2600 190/14G19 RMK AO2
14837KMSN MSN20051005153510110/05/05 15:35:31  5-MIN KMSN 052135Z 18012G19KT 9SM BKN055 28/17 A2991 870 48 2600 180/12G19 RMK AO2
14837KMSN MSN20051005154009510/05/05 15:40:31  5-MIN KMSN 052140Z 20011KT 9SM BKN055 28/17 A2991 870 48 2600 200/11 RMK AO2
14837KMSN MSN20051005154510110/05/05 15:45:31  5-MIN KMSN 052145Z 21011G17KT 9SM FEW050 28/17 A2991 870 48 2600 210/11G17 RMK AO2
14837KMSN MSN20051005155011810/05/05 15:50:31  5-MIN KMSN 052150Z 19011G17KT 9SM FEW050 28/17 A2991 870 48 2600 190/11G17 RMK AO2 SLP122 T02830167
14837KMSN MSN20051005155509210/05/05 15:55:31  5-MIN KMSN 052155Z 18010KT 9SM CLR 28/17 A2991 880 48 2600 180/10 RMK AO2
14837KMSN MSN20051005160009510/05/05 16:00:31  5-MIN KMSN 052200Z 19009KT 9SM FEW050 28/17 A2990 880 50 2600 190/09 RMK AO2
14837KMSN MSN20051005160509510/05/05 16:05:31  5-MIN KMSN 052205Z 19014KT 9SM FEW050 28/17 A2990 880 48 2600 190/14 RMK AO2
14837KMSN MSN20051005161009510/05/05 16:10:31  5-MIN KMSN 052210Z 18013KT 9SM FEW050 28/17 A2990 880 50 2600 180/13 RMK AO2
14837KMSN MSN20051005161509510/05/05 16:15:31  5-MIN KMSN 052215Z 18012KT 9SM FEW050 28/17 A2990 880 50 2600 180/12 RMK AO2
14837KMSN MSN20051005162009510/05/05 16:20:31  5-MIN KMSN 052220Z 19012KT 9SM FEW050 28/17 A2990 880 50 2600 190/12 RMK AO2
14837KMSN MSN20051005162509510/05/05 16:25:31  5-MIN KMSN 052225Z 18013KT 9SM FEW050 28/17 A2990 880 50 2600 180/13 RMK AO2
14837KMSN MSN20051005163009510/05/05 16:30:31  5-MIN KMSN 052230Z 19012KT 9SM FEW050 28/17 A2990 880 50 2600 190/12 RMK AO2
14837KMSN MSN20051005163510110/05/05 16:35:31  5-MIN KMSN 052235Z 20012G18KT 9SM FEW050 28/17 A2990 880 50 2600 200/12G18 RMK AO2
14837KMSN MSN20051005164010110/05/05 16:40:31  5-MIN KMSN 052240Z 20012G18KT 9SM FEW050 28/17 A2991 880 50 2600 200/12G18 RMK AO2
14837KMSN MSN20051005164510110/05/05 16:45:31  5-MIN KMSN 052245Z 20008G17KT 9SM FEW050 27/17 A2990 880 52 2500 200/08G17 RMK AO2
14837KMSN MSN20051005165011210/05/05 16:50:31  5-MIN KMSN 052250Z 20009KT 9SM FEW050 27/17 A2990 880 52 2500 200/09 RMK AO2 SLP120 T02720167
14837KMSN MSN20051005165509510/05/05 16:55:31  5-MIN KMSN 052255Z 19009KT 9SM FEW050 27/17 A2990 880 52 2500 190/09 RMK AO2
14837KMSN MSN20051005170009510/05/05 17:00:31  5-MIN KMSN 052300Z 19010KT 9SM FEW055 27/17 A2990 890 52 2500 190/10 RMK AO2
14837KMSN MSN20051005170509510/05/05 17:05:31  5-MIN KMSN 052305Z 19009KT 9SM FEW055 27/17 A2990 890 52 2500 190/09 RMK AO2
14837KMSN MSN20051005171009510/05/05 17:10:31  5-MIN KMSN 052310Z 18010KT 8SM FEW055 27/17 A2989 890 53 2500 180/10 RMK AO2
14837KMSN MSN20051005171509510/05/05 17:15:31  5-MIN KMSN 052315Z 18011KT 8SM FEW055 27/17 A2989 900 53 2500 180/11 RMK AO2
14837KMSN MSN20051005172009510/05/05 17:20:31  5-MIN KMSN 052320Z 18011KT 9SM FEW055 27/17 A2988 900 53 2500 180/11 RMK AO2
14837KMSN MSN20051005172509510/05/05 17:25:31  5-MIN KMSN 052325Z 18009KT 9SM FEW055 27/17 A2989 890 53 2500 180/09 RMK AO2
14837KMSN MSN20051005173009510/05/05 17:30:31  5-MIN KMSN 052330Z 18008KT 9SM FEW055 27/17 A2989 890 53 2500 180/08 RMK AO2
14837KMSN MSN20051005173509510/05/05 17:35:31  5-MIN KMSN 052335Z 19009KT 9SM FEW055 27/17 A2989 890 53 2500 190/09 RMK AO2
14837KMSN MSN20051005174009510/05/05 17:40:31  5-MIN KMSN 052340Z 18009KT 9SM FEW055 26/17 A2989 890 55 2400 180/09 RMK AO2
14837KMSN MSN20051005174509610/05/05 17:45:31  5-MIN KMSN 052345Z 18010KT 10SM FEW055 27/17 A2989 890 53 2500 180/10 RMK AO2
14837KMSN MSN20051005175013110/05/05 17:50:31  5-MIN KMSN 052350Z 18009KT 10SM FEW055 26/17 A2989 890 55 2400 180/09 RMK AO2 SLP118 T02610167 10294 20261 55006
14837KMSN MSN20051005175509610/05/05 17:55:31  5-MIN KMSN 052355Z 18009KT 10SM FEW120 26/17 A2989 890 55 2400 180/09 RMK AO2
14837KMSN MSN20051005180009310/05/05 18:00:31  5-MIN KMSN 060000Z 18007KT 10SM CLR 26/17 A2989 890 55 2400 180/07 RMK AO2
14837KMSN MSN20051005180509610/05/05 18:05:31  5-MIN KMSN 060005Z 18009KT 10SM FEW120 26/17 A2989 890 55 2400 180/09 RMK AO2
14837KMSN MSN20051005181013810/05/05 18:10:31  5-MIN KMSN 060010Z 18008KT 10SM TS FEW060 26/17 A2989 890 55 2400 180/08 RMK AO2 TSB10 OCNL LTGICCA VC W TS VC W MOV NE
14837KMSN MSN20051005181513810/05/05 18:15:31  5-MIN KMSN 060015Z 18008KT 10SM TS FEW060 26/17 A2989 890 57 2400 180/08 RMK AO2 TSB10 OCNL LTGICCA VC W TS VC W MOV NE
14837KMSN MSN20051005182013810/05/05 18:20:31  5-MIN KMSN 060020Z 18008KT 10SM TS FEW060 26/17 A2989 890 57 2400 180/08 RMK AO2 TSB10 OCNL LTGICCA VC W TS VC W MOV NE
14837KMSN MSN20051005182513810/05/05 18:25:31  5-MIN KMSN 060025Z 19007KT 10SM TS FEW060 26/17 A2989 890 57 2400 190/07 RMK AO2 TSB10 OCNL LTGICCA VC W TS VC W MOV NE
14837KMSN MSN20051005183013810/05/05 18:30:31  5-MIN KMSN 060030Z 19008KT 10SM TS FEW060 26/17 A2989 890 55 2400 190/08 RMK AO2 TSB10 OCNL LTGICCA VC W TS VC W MOV NE
14837KMSN MSN20051005183515410/05/05 18:35:31  5-MIN KMSN 060035Z 23007KT 190V250 10SM TS FEW060 26/17 A2990 880 55 2400 230/07 190V250 RMK AO2 TSB10 OCNL LTGICCA VC W TS VC W MOV NE
14837KMSN MSN20051005184016410/05/05 18:40:31  5-MIN KMSN 060040Z 26008G17KT 6SM -TSRA BKN050 BKN070 24/18 A2990 880 66 2200 260/08G17 RMK AO2 TSB10RAB36 OCNL LTGICCA VC W TS VC W MOV NE P0000
14837KMSN MSN20051005184516910/05/05 18:45:31  5-MIN KMSN 060045Z 25007G17KT 5SM -TSRA FEW035 BKN050 BKN070 23/19 A2990 880 76 2100 250/07G17 RMK AO2 TSB10RAB36 OCNL LTGICCA OHD TS OHD MOV NE P0001
14837KMSN MSN20051005185013310/05/05 18:50:31  5-MIN KMSN 060050Z VRB04KT 6SM -RA FEW031 BKN050 BKN070 22/19 A2990 880 84 2000 VRB/04 RMK AO2 TSB10E50RAB36 P0003
14837KMSN MSN20051005185511910/05/05 18:55:31  5-MIN KMSN 060055Z VRB05KT 6SM -RA FEW029 BKN050 BKN065 22/19 A2990 880 84 2000 VRB/05 RMK AO2 P0000
14837KMSN MSN20051005190011910/05/05 19:00:31  5-MIN KMSN 060100Z 23006KT 6SM -RA FEW031 SCT050 BKN065 22/19 A2990 890 84 2000 230/06 RMK AO2 P0000
14837KMSN MSN20051005190511910/05/05 19:05:31  5-MIN KMSN 060105Z VRB04KT 6SM -RA FEW031 BKN065 OVC110 23/19 A2990 880 81 2000 VRB/04 RMK AO2 P0000
14837KMSN MSN20051005191011410/05/05 19:10:31  5-MIN KMSN 060110Z VRB05KT 7SM SCT050 BKN065 22/19 A2991 880 84 2000 VRB/05 RMK AO2 RAE07 P0000
14837KMSN MSN20051005191510710/05/05 19:15:31  5-MIN KMSN 060115Z 24006KT 7SM BKN055 22/19 A2991 880 84 2000 240/06 RMK AO2 RAE07 P0000
14837KMSN MSN20051005192011210/05/05 19:20:31  5-MIN KMSN 060120Z 23006KT 7SM -RA BKN050 OVC060 22/19 A2991 880 84 2000 230/06 RMK AO2 P0000
14837KMSN MSN20051005192512510/05/05 19:25:31  5-MIN KMSN 060125Z 27006KT 7SM SCT045 OVC055 22/19 A2991 870 84 2000 270/06 RMK AO2 RAE25 LTG DSNT E P0000
14837KMSN MSN20051005193012510/05/05 19:30:31  5-MIN KMSN 060130Z VRB05KT 7SM BKN047 OVC055 22/19 A2992 870 84 1900 VRB/05 RMK AO2 RAE25 LTG DSNT E P0000
14837KMSN MSN20051005193512510/05/05 19:35:31  5-MIN KMSN 060135Z 22007KT 7SM BKN045 OVC055 22/19 A2992 870 84 1900 220/07 RMK AO2 RAE25 LTG DSNT E P0000
14837KMSN MSN20051005194012110/05/05 19:40:31  5-MIN KMSN 060140Z 22006KT 7SM BKN047 BKN060 BKN080 22/19 A2992 870 84 1900 220/06 RMK AO2 RAE25 P0000
14837KMSN MSN20051005194511410/05/05 19:45:31  5-MIN KMSN 060145Z VRB06KT 7SM SCT015 BKN047 22/19 A2992 860 84 1900 VRB/06 RMK AO2 RAE25 P0000
14837KMSN MSN20051005195011710/05/05 19:50:31  5-MIN KMSN 060150Z VRB06KT 6SM BR BKN015 OVC045 22/20 A2992 860 90 1900 VRB/06 RMK AO2 RAE25 P0000
14837KMSN MSN20051005195511110/05/05 19:55:31  5-MIN KMSN 060155Z 28008G14KT 6SM BR BKN013 OVC045 22/19 A2993 860 87 1900 280/08G14 RMK AO2
14837KMSN MSN20051005200012710/05/05 20:00:31  5-MIN KMSN 060200Z 27007G14KT 240V310 6SM BR BKN013 OVC045 21/19 A2993 860 87 1800 270/07G14 240V310 RMK AO2
14837KMSN MSN20051005200509510/05/05 20:05:31  5-MIN KMSN 060205Z VRB06KT 7SM OVC013 21/19 A2993 860 87 1800 VRB/06 RMK AO2
14837KMSN MSN20051005201009510/05/05 20:10:31  5-MIN KMSN 060210Z 28008KT 7SM OVC013 21/18 A2993 860 84 1800 280/08 RMK AO2
14837KMSN MSN20051005201509510/05/05 20:15:31  5-MIN KMSN 060215Z 29008KT 7SM OVC013 21/18 A2993 850 87 1700 290/08 RMK AO2
14837KMSN MSN20051005202010110/05/05 20:20:31  5-MIN KMSN 060220Z 29011G15KT 8SM OVC013 20/18 A2994 850 87 1700 290/11G15 RMK AO2
14837KMSN MSN20051005202510110/05/05 20:25:31  5-MIN KMSN 060225Z 29012G17KT 9SM OVC013 19/17 A2995 840 87 1600 290/12G17 RMK AO2
14837KMSN MSN20051005203010210/05/05 20:30:31  5-MIN KMSN 060230Z 29010G17KT 10SM OVC013 19/16 A2995 840 84 1500 290/10G17 RMK AO2
14837KMSN MSN20051005203510210/05/05 20:35:31  5-MIN KMSN 060235Z 29011G17KT 10SM OVC013 19/16 A2996 830 84 1500 280/11G17 RMK AO2
14837KMSN MSN20051005204010210/05/05 20:40:31  5-MIN KMSN 060240Z 29014G17KT 10SM OVC013 18/16 A2996 830 84 1500 290/14G17 RMK AO2
14837KMSN MSN20051005204510210/05/05 20:45:31  5-MIN KMSN 060245Z 28011G18KT 10SM OVC013 18/15 A2996 830 83 1400 280/11G18 RMK AO2
14837KMSN MSN20051005205011810/05/05 20:50:31  5-MIN KMSN 060250Z 27010G18KT 220V300 10SM OVC015 17/15 A2996 830 87 1300 270/10G18 220V300 RMK AO2
14837KMSN MSN20051005205512510/05/05 20:55:31  5-MIN KMSN 060255Z 27011G17KT 230V310 10SM BKN015 OVC021 17/14 A2996 820 83 1300 270/11G17 230V310 RMK AO2
14837KMSN MSN20051005210010910/05/05 21:00:31  5-MIN KMSN 060300Z 28011G16KT 10SM BKN015 OVC021 17/14 A2997 820 83 1300 280/11G16 RMK AO2
14837KMSN MSN20051005210512510/05/05 21:05:31  5-MIN KMSN 060305Z 27007G15KT 240V300 10SM BKN015 OVC021 16/13 A2998 810 83 1200 270/07G15 240V300 RMK AO2
14837KMSN MSN20051005211011710/05/05 21:10:31  5-MIN KMSN 060310Z 29008KT 5SM RA SCT015 OVC021 16/13 A2997 820 80 1200 290/08 RMK AO2 RAB08 P0000
14837KMSN MSN20051005211514710/05/05 21:15:31  5-MIN KMSN 060315Z 27008G14KT 230V300 5SM -RA FEW015 BKN021 OVC027 16/13 A2998 810 83 1100 270/08G14 230V300 RMK AO2 RAB08 P0002
14837KMSN MSN20051005212013110/05/05 21:20:31  5-MIN KMSN 060320Z 27008G14KT 9SM -RA FEW013 BKN021 OVC027 15/13 A2998 810 86 1000 270/08G14 RMK AO2 RAB08 P0002
14837KMSN MSN20051005212513110/05/05 21:25:31  5-MIN KMSN 060325Z 28010G14KT 10SM FEW013 BKN021 OVC027 15/12 A2998 810 83 1000 280/10G14 RMK AO2 RAB08E23 P0002
14837KMSN MSN20051005213015410/05/05 21:30:31  5-MIN KMSN 060330Z 24007G14KT 200V270 10SM FEW013 SCT021 OVC029 15/12 A3000 790 83 1000 240/07G14 200V270 RMK AO2 RAB08E23 PRESRR P0002
14837KMSN MSN20051005213516110/05/05 21:35:31  5-MIN KMSN 060335Z 28011G16KT 10SM TS SCT019 OVC029 14/12 A2999 800 86 1000 280/11G16 RMK AO2 TSB32RAB08E23 OCNL LTGIC OHD TS OHD MOV NE P0002
14837KMSN MSN20051005214016810/05/05 21:40:31  5-MIN KMSN 060340Z 27010G16KT 10SM TS SCT016 BKN022 OVC029 14/12 A2999 800 86 1000 270/10G16 RMK AO2 TSB32RAB08E23 OCNL LTGIC OHD TS OHD MOV NE P0002
14837KMSN MSN20051005214516810/05/05 21:45:31  5-MIN KMSN 060345Z 27011G18KT 10SM TS BKN016 BKN024 OVC029 14/12 A2999 800 86 1000 270/11G18 RMK AO2 TSB32RAB08E23 OCNL LTGIC OHD TS OHD MOV NE P0002
14837KMSN MSN20051005215017810/05/05 21:50:31  5-MIN KMSN 060350Z 28008G18KT 10SM TS BKN016 OVC029 14/12 A2999 800 86 1000 280/08G18 RMK AO2 TSB32RAB08E23 SLP152 OCNL LTGIC OHD TS OHD MOV NE P0002 T01440122
14837KMSN MSN20051005215512710/05/05 21:55:31  5-MIN KMSN 060355Z 28006KT 10SM TS OVC014 14/12 A2999 800 90 900 280/06 RMK AO2 OCNL LTGIC OHD TS OHD MOV NE
14837KMSN MSN20051005220012710/05/05 22:00:31  5-MIN KMSN 060400Z 27006KT 10SM TS OVC014 14/12 A2999 800 90 900 270/06 RMK AO2 OCNL LTGIC OHD TS OHD MOV NE
14837KMSN MSN20051005220514210/05/05 22:05:31  5-MIN KMSN 060405Z 29006KT 10SM -TSRA OVC014 14/12 A3000 790 90 900 290/06 RMK AO2 RAB01 OCNL LTGIC OHD TS OHD MOV NE P0000
14837KMSN MSN20051005221014910/05/05 22:10:31  5-MIN KMSN 060410Z 30009KT 10SM -TSRA BKN014 OVC021 13/12 A3000 790 89 800 300/09 RMK AO2 RAB01 OCNL LTGIC OHD TS OHD MOV NE P0000
14837KMSN MSN20051005221515510/05/05 22:15:31  5-MIN KMSN 060415Z 29008G15KT 10SM -TSRA BKN012 OVC021 13/11 A3000 790 86 800 290/08G15 RMK AO2 RAB01 OCNL LTGIC OHD TS OHD MOV NE P0000
14837KMSN MSN20051005222014810/05/05 22:20:31  5-MIN KMSN 060420Z 28009G15KT 10SM TS OVC014 13/11 A3001 780 86 700 280/09G15 RMK AO2 RAB01E16 OCNL LTGIC OHD TS OHD MOV NE P0000
14837KMSN MSN20051005222512810/05/05 22:25:31  5-MIN KMSN 060425Z 29008G16KT 10SM SCT012 OVC017 13/10 A3001 780 83 700 290/08G16 RMK AO2 TSE22RAB01E16 P0000
14837KMSN MSN20051005223014210/05/05 22:30:31  5-MIN KMSN 060430Z 30010G16KT 10SM SCT012 BKN017 OVC035 12/10 A3002 770 86 700 300/10G16 RMK AO2 TSE22RAB01E16 PRESRR P0000
14837KMSN MSN20051005223512910/05/05 22:35:31  5-MIN KMSN 060435Z 30008KT 10SM BKN017 BKN021 OVC035 12/10 A3002 770 86 700 300/08 RMK AO2 TSE22RAB01E16 P0000
14837KMSN MSN20051005224012810/05/05 22:40:31  5-MIN KMSN 060440Z 30008G15KT 10SM BKN015 OVC035 12/10 A3002 770 86 700 300/08G15 RMK AO2 TSE22RAB01E16 P0000
14837KMSN MSN20051005224512810/05/05 22:45:31  5-MIN KMSN 060445Z 30006G15KT 10SM BKN015 OVC035 12/10 A3002 770 86 700 300/06G15 RMK AO2 TSE22RAB01E16 P0000
14837KMSN MSN20051005225015310/05/05 22:50:31  5-MIN KMSN 060450Z 30008KT 10SM -RA FEW010 BKN015 OVC035 12/10 A3002 770 86 700 290/08 RMK AO2 TSE22RAB01E16B46 SLP162 P0000 T01220100
14837KMSN MSN20051005225511410/05/05 22:55:31  5-MIN KMSN 060455Z 30006KT 6SM -RA BR BKN013 OVC035 12/10 A3001 780 89 600 300/06 RMK AO2 P0000
14837KMSN MSN20051005230011410/05/05 23:00:31  5-MIN KMSN 060500Z VRB06KT 5SM -RA BR BKN013 OVC035 12/10 A3002 780 89 600 VRB/06 RMK AO2 P0001
14837KMSN MSN20051005230511410/05/05 23:05:31  5-MIN KMSN 060505Z VRB06KT 6SM -RA BR BKN013 OVC037 12/10 A3003 770 89 600 VRB/06 RMK AO2 P0001
14837KMSN MSN20051005231010710/05/05 23:10:31  5-MIN KMSN 060510Z 27008KT 5SM -RA BR OVC013 12/11 A3003 760 93 600 270/08 RMK AO2 P0003
14837KMSN MSN20051005231512710/05/05 23:15:31  5-MIN KMSN 060515Z 27011G15KT 5SM -RA BR BKN013 OVC042 12/10 A3004 750 89 600 270/11G15 RMK AO2 PRESRR P0003
14837KMSN MSN20051005232011710/05/05 23:20:31  5-MIN KMSN 060520Z 27007G15KT 7SM -RA SCT013 OVC042 12/09 A3003 760 86 600 270/07G15 RMK AO2 P0003
14837KMSN MSN20051005232511210/05/05 23:25:31  5-MIN KMSN 060525Z 28009KT 10SM -RA SCT013 OVC042 11/09 A3002 770 89 500 280/09 RMK AO2 P0004
14837KMSN MSN20051005233011410/05/05 23:30:31  5-MIN KMSN 060530Z 28008KT 10SM SCT013 OVC044 11/09 A3003 760 86 500 270/08 RMK AO2 RAE30 P0004
14837KMSN MSN20051005233511210/05/05 23:35:31  5-MIN KMSN 060535Z 27007KT 10SM -RA FEW013 BKN044 11/09 A3004 750 86 500 270/07 RMK AO2 P0004
14837KMSN MSN20051005234011910/05/05 23:40:31  5-MIN KMSN 060540Z 29008KT 10SM -RA FEW023 BKN044 OVC050 11/09 A3003 760 86 500 290/08 RMK AO2 P0004
14837KMSN MSN20051005234512610/05/05 23:45:31  5-MIN KMSN 060545Z 27008G14KT 230V310 9SM -RA OVC046 11/08 A3003 760 86 400 270/08G14 230V310 RMK AO2 P0004
14837KMSN MSN20051005235015710/05/05 23:50:31  5-MIN KMSN 060550Z VRB04KT 6SM RA BR OVC046 11/08 A3004 760 86 400 VRB/04 RMK AO2 SLP168 P0005 60010 T01060083 10261 20106 402940106 53023
14837KMSN MSN20051005235510410/05/05 23:55:31  5-MIN KMSN 060555Z 28007KT 7SM -RA OVC046 11/08 A3003 760 86 500 280/07 RMK AO2 P0000
14837KMSN MSN20051006000010610/06/05 00:00:38  5-MIN KMSN 060600Z 27007KT 5SM RA BR OVC048 11/08 A3004 750 86 400 270/07 RMK AO2 P0000
14837KMSN MSN20051006000511410/06/05 00:05:31  5-MIN KMSN 060605Z VRB06KT 4SM -RA BR FEW038 OVC048 10/09 A3005 750 93 400 VRB/06 RMK AO2 P0002
14837KMSN MSN20051006001011110/06/05 00:10:31  5-MIN KMSN 060610Z 28005KT 8SM -RA FEW038 OVC048 10/08 A3004 760 89 400 280/05 RMK AO2 P0002
14837KMSN MSN20051006001511410/06/05 00:15:33  5-MIN KMSN 060615Z 28007KT 10SM FEW038 OVC050 10/08 A3003 760 89 400 280/07 RMK AO2 RAE15 P0002
14837KMSN MSN20051006002011210/06/05 00:20:31  5-MIN KMSN 060620Z 27006KT 10SM -RA FEW038 OVC050 10/08 A3004 760 89 400 270/06 RMK AO2 P0002
14837KMSN MSN20051006002511110/06/05 00:25:31  5-MIN KMSN 060625Z VRB05KT 7SM -RA FEW038 OVC050 10/08 A3004 750 89 400 VRB/05 RMK AO2 P0002
14837KMSN MSN20051006003012110/06/05 00:30:31  5-MIN KMSN 060630Z 26005KT 5SM -RA BR FEW012 BKN050 OVC060 10/09 A3005 750 93 400 260/05 RMK AO2 P0003
14837KMSN MSN20051006003512010/06/05 00:35:31  5-MIN KMSN 060635Z VRB04KT 3SM RA BR FEW010 BKN050 OVC060 10/09 A3005 750 93 400 VRB/04 RMK AO2 P0004
14837KMSN MSN20051006004012010/06/05 00:40:31  5-MIN KMSN 060640Z VRB05KT 3SM RA BR FEW008 SCT015 OVC055 10/09 A3004 750 93 400 VRB/05 RMK AO2 P0005
14837KMSN MSN20051006004512110/06/05 00:45:31  5-MIN KMSN 060645Z VRB06KT 4SM -RA BR SCT012 BKN024 OVC055 10/09 A3003 760 93 400 VRB/06 RMK AO2 P0006
14837KMSN MSN20051006005013810/06/05 00:50:31  5-MIN KMSN 060650Z 24006KT 6SM -RA BR SCT010 BKN020 OVC055 10/09 A3004 750 93 400 240/06 RMK AO2 SLP169 P0007 T01000089
14837KMSN MSN20051006005513510/06/05 00:55:31  5-MIN KMSN 060655Z 24007KT 220V280 10SM -RA SCT012 BKN060 OVC090 10/08 A3004 760 89 400 240/07 220V280 RMK AO2 P0000
14837KMSN MSN20051006010012310/06/05 01:00:31  5-MIN KMSN 060700Z VRB04KT 10SM SCT012 BKN060 OVC090 10/08 A3003 770 86 400 VRB/04 RMK AO2 RAE0657 P0000
14837KMSN MSN20051006010513910/06/05 01:05:31  5-MIN KMSN 060705Z 26007KT 220V300 10SM FEW014 SCT060 OVC085 10/08 A3003 760 86 400 260/07 220V300 RMK AO2 RAE0657 P0000
14837KMSN MSN20051006011011610/06/05 01:10:31  5-MIN KMSN 060710Z VRB06KT 10SM FEW012 OVC085 10/08 A3004 760 86 400 VRB/06 RMK AO2 RAE0657 P0000
14837KMSN MSN20051006011510910/06/05 01:15:31  5-MIN KMSN 060715Z 26007KT 10SM OVC080 10/08 A3002 770 86 400 260/07 RMK AO2 RAE0657 P0000
14837KMSN MSN20051006012012510/06/05 01:20:31  5-MIN KMSN 060720Z 28007KT 230V320 10SM OVC085 09/07 A3002 780 86 300 280/07 230V320 RMK AO2 RAE0657 P0000
14837KMSN MSN20051006012510910/06/05 01:25:31  5-MIN KMSN 060725Z 27008KT 10SM OVC080 09/07 A3003 770 83 300 270/08 RMK AO2 RAE0657 P0000
14837KMSN MSN20051006013013110/06/05 01:30:31  5-MIN KMSN 060730Z 27007G14KT 220V290 10SM OVC080 09/07 A3003 760 83 300 270/07G14 220V290 RMK AO2 RAE0657 P0000
14837KMSN MSN20051006013511510/06/05 01:35:31  5-MIN KMSN 060735Z VRB06G14KT 10SM OVC080 09/07 A3004 750 83 300 VRB/06G14 RMK AO2 RAE0657 P0000
14837KMSN MSN20051006014010910/06/05 01:40:31  5-MIN KMSN 060740Z 25007KT 10SM OVC085 09/07 A3004 760 83 300 250/07 RMK AO2 RAE0657 P0000
14837KMSN MSN20051006014512510/06/05 01:45:31  5-MIN KMSN 060745Z 25009KT 220V280 10SM OVC085 09/07 A3004 750 83 300 250/09 220V280 RMK AO2 RAE0657 P0000
14837KMSN MSN20051006015012610/06/05 01:50:31  5-MIN KMSN 060750Z 27006KT 10SM OVC090 09/07 A3004 760 83 300 270/06 RMK AO2 RAE0657 SLP168 P0000 T00940067
14837KMSN MSN20051006015510210/06/05 01:55:31  5-MIN KMSN 060755Z VRB06KT 10SM BKN085 OVC100 09/07 A3004 760 83 300 VRB/06 RMK AO2
14837KMSN MSN20051006020010210/06/05 02:00:31  5-MIN KMSN 060800Z 27006KT 10SM BKN085 OVC100 09/07 A3003 760 83 300 260/06 RMK AO2
14837KMSN MSN20051006020512410/06/05 02:05:31  5-MIN KMSN 060805Z 28008G15KT 230V300 10SM BKN090 OVC110 09/07 A3003 760 83 300 280/08G15 230V300 RMK AO2
14837KMSN MSN20051006021013110/06/05 02:10:31  5-MIN KMSN 060810Z 26008G15KT 230V310 10SM FEW016 SCT085 BKN110 09/07 A3003 760 83 300 260/08G15 230V310 RMK AO2
14837KMSN MSN20051006021510910/06/05 02:15:31  5-MIN KMSN 060815Z VRB05KT 10SM FEW016 SCT085 BKN110 09/07 A3003 760 86 300 VRB/05 RMK AO2
14837KMSN MSN20051006022010810/06/05 02:20:31  5-MIN KMSN 060820Z 26009G16KT 10SM FEW016 BKN110 09/07 A3004 760 86 200 260/09G16 RMK AO2
14837KMSN MSN20051006022510810/06/05 02:25:31  5-MIN KMSN 060825Z 26009G16KT 10SM FEW016 SCT110 09/07 A3003 760 86 200 260/09G16 RMK AO2
14837KMSN MSN20051006023011710/06/05 02:30:31  5-MIN KMSN 060830Z 26007G14KT 220V310 10SM FEW016 09/06 A3003 760 83 200 260/07G14 220V310 RMK AO2
14837KMSN MSN20051006023509510/06/05 02:35:31  5-MIN KMSN 060835Z VRB06KT 10SM FEW016 08/06 A3003 760 82 200 VRB/06 RMK AO2
14837KMSN MSN20051006024010810/06/05 02:40:31  5-MIN KMSN 060840Z 27007KT 230V310 10SM CLR 08/06 A3003 760 82 200 270/07 230V310 RMK AO2
14837KMSN MSN20051006024510810/06/05 02:45:31  5-MIN KMSN 060845Z 27007KT 240V310 10SM CLR 08/06 A3003 760 82 200 270/07 240V310 RMK AO2
14837KMSN MSN20051006025012410/06/05 02:50:31  5-MIN KMSN 060850Z 27008KT 10SM FEW090 08/05 A3003 760 79 200 270/08 RMK AO2 SLP168 60007 T00830050 51025
14837KMSN MSN20051006025509210/06/05 02:55:31  5-MIN KMSN 060855Z 28006KT 10SM CLR 08/05 A3003 760 79 200 280/06 RMK AO2
14837KMSN MSN20051006030009210/06/05 03:00:31  5-MIN KMSN 060900Z 26007KT 10SM CLR 08/05 A3004 760 82 100 260/07 RMK AO2
14837KMSN MSN20051006030509210/06/05 03:05:31  5-MIN KMSN 060905Z 27006KT 10SM CLR 08/05 A3003 760 82 100 270/06 RMK AO2
14837KMSN MSN20051006031009210/06/05 03:10:31  5-MIN KMSN 060910Z 26007KT 10SM CLR 08/05 A3003 760 82 100 260/07 RMK AO2
14837KMSN MSN20051006031509210/06/05 03:15:31  5-MIN KMSN 060915Z VRB05KT 10SM CLR 08/05 A3003 760 82 100 VRB/05 RMK AO2
14837KMSN MSN20051006032009210/06/05 03:20:31  5-MIN KMSN 060920Z 27009KT 10SM CLR 08/04 A3003 760 79 100 270/09 RMK AO2
14837KMSN MSN20051006032509010/06/05 03:25:31  5-MIN KMSN 060925Z 27007KT 10SM CLR 07/04 A3003 760 82 0 270/07 RMK AO2
14837KMSN MSN20051006033009010/06/05 03:30:31  5-MIN KMSN 060930Z 28007KT 10SM CLR 07/04 A3003 760 82 0 280/07 RMK AO2
14837KMSN MSN20051006033509010/06/05 03:35:31  5-MIN KMSN 060935Z VRB05KT 10SM CLR 07/04 A3003 760 79 0 VRB/05 RMK AO2
14837KMSN MSN20051006034010610/06/05 03:40:31  5-MIN KMSN 060940Z 27007KT 240V300 10SM CLR 07/04 A3003 760 79 0 270/07 240V300 RMK AO2
14837KMSN MSN20051006034509610/06/05 03:45:31  5-MIN KMSN 060945Z 26010G14KT 10SM CLR 07/04 A3003 760 79 0 260/10G14 RMK AO2
14837KMSN MSN20051006035011310/06/05 03:50:31  5-MIN KMSN 060950Z 27007G14KT 10SM CLR 07/03 A3003 760 76 0 260/07G14 RMK AO2 SLP167 T00720033
14837KMSN MSN20051006035509010/06/05 03:55:31  5-MIN KMSN 060955Z 27008KT 10SM CLR 07/03 A3003 760 76 0 270/08 RMK AO2
14837KMSN MSN20051006040009010/06/05 04:00:31  5-MIN KMSN 061000Z 26007KT 10SM CLR 07/03 A3003 760 76 0 260/07 RMK AO2
14837KMSN MSN20051006040509010/06/05 04:05:31  5-MIN KMSN 061005Z 26007KT 10SM CLR 07/03 A3003 760 76 0 260/07 RMK AO2
14837KMSN MSN20051006041009010/06/05 04:10:31  5-MIN KMSN 061010Z 26007KT 10SM CLR 07/03 A3003 760 76 0 260/07 RMK AO2
14837KMSN MSN20051006041509010/06/05 04:15:31  5-MIN KMSN 061015Z 27007KT 10SM CLR 07/03 A3003 760 76 0 270/07 RMK AO2
14837KMSN MSN20051006042009010/06/05 04:20:31  5-MIN KMSN 061020Z 28008KT 10SM CLR 07/03 A3004 760 76 0 270/08 RMK AO2
14837KMSN MSN20051006042509010/06/05 04:25:31  5-MIN KMSN 061025Z VRB05KT 10SM CLR 07/03 A3003 760 76 0 VRB/05 RMK AO2
14837KMSN MSN20051006043009010/06/05 04:30:31  5-MIN KMSN 061030Z VRB06KT 10SM CLR 07/02 A3003 760 73 0 VRB/06 RMK AO2
14837KMSN MSN20051006043509010/06/05 04:35:31  5-MIN KMSN 061035Z VRB06KT 10SM CLR 07/02 A3003 760 73 0 VRB/06 RMK AO2
14837KMSN MSN20051006044009010/06/05 04:40:31  5-MIN KMSN 061040Z VRB05KT 10SM CLR 06/02 A3003 760 76 0 VRB/05 RMK AO2
14837KMSN MSN20051006044509010/06/05 04:45:31  5-MIN KMSN 061045Z VRB06KT 10SM CLR 06/02 A3003 760 76 0 VRB/06 RMK AO2
14837KMSN MSN20051006045012310/06/05 04:50:31  5-MIN KMSN 061050Z 27007KT 220V300 10SM CLR 06/02 A3003 760 76 0 270/07 220V300 RMK AO2 SLP169 T00610022
14837KMSN MSN20051006045509010/06/05 04:55:31  5-MIN KMSN 061055Z VRB06KT 10SM CLR 06/02 A3003 760 76 0 VRB/06 RMK AO2
14837KMSN MSN20051006050009010/06/05 05:00:31  5-MIN KMSN 061100Z 26006KT 10SM CLR 06/02 A3004 750 76 0 260/06 RMK AO2
14837KMSN MSN20051006050509010/06/05 05:05:31  5-MIN KMSN 061105Z VRB04KT 10SM CLR 06/02 A3004 750 76 0 VRB/04 RMK AO2
14837KMSN MSN20051006051009310/06/05 05:10:31  5-MIN KMSN 061110Z VRB06KT 10SM CLR 06/02 A3004 750 76 -100 VRB/06 RMK AO2
14837KMSN MSN20051006051509310/06/05 05:15:31  5-MIN KMSN 061115Z 27006KT 10SM CLR 06/02 A3005 750 76 -100 270/06 RMK AO2
14837KMSN MSN20051006052009310/06/05 05:20:31  5-MIN KMSN 061120Z VRB06KT 10SM CLR 06/02 A3004 750 79 -100 VRB/06 RMK AO2
14837KMSN MSN20051006052509310/06/05 05:25:31  5-MIN KMSN 061125Z 26004KT 10SM CLR 06/02 A3005 750 79 -100 260/04 RMK AO2
14837KMSN MSN20051006053009310/06/05 05:30:31  5-MIN KMSN 061130Z VRB06KT 10SM CLR 06/02 A3005 750 79 -100 VRB/06 RMK AO2
14837KMSN MSN20051006053509310/06/05 05:35:31  5-MIN KMSN 061135Z 27005KT 10SM CLR 06/02 A3005 750 76 -100 270/05 RMK AO2
14837KMSN MSN20051006054010910/06/05 05:40:31  5-MIN KMSN 061140Z 26007KT 220V280 10SM CLR 06/02 A3005 750 76 -100 260/07 220V280 RMK AO2
14837KMSN MSN20051006054509310/06/05 05:45:31  5-MIN KMSN 061145Z 26007KT 10SM CLR 06/02 A3005 750 76 -100 260/07 RMK AO2
14837KMSN MSN20051006055015910/06/05 05:50:31  5-MIN KMSN 061150Z 27007KT 240V330 10SM FEW015 06/02 A3005 750 76 -100 270/07 240V330 RMK AO2 SLP174 60007 70017 T00560017 10106 20056 58000
14837KMSN MSN20051006055511210/06/05 05:55:31  5-MIN KMSN 061155Z 27007KT 230V020 10SM FEW015 06/02 A3005 750 76 -100 270/07 230V020 RMK AO2
14837KMSN MSN20051006060009610/06/05 06:00:31  5-MIN KMSN 061200Z VRB06KT 10SM FEW015 06/02 A3005 750 76 -100 VRB/06 RMK AO2
14837KMSN MSN20051006060509610/06/05 06:05:31  5-MIN KMSN 061205Z VRB06KT 10SM FEW015 05/02 A3005 740 79 -200 VRB/06 RMK AO2
14837KMSN MSN20051006061009610/06/05 06:10:31  5-MIN KMSN 061210Z 26006KT 10SM FEW015 05/02 A3005 740 79 -200 260/06 RMK AO2
14837KMSN MSN20051006061511210/06/05 06:15:31  5-MIN KMSN 061215Z 27007KT 240V310 10SM FEW015 05/02 A3005 740 79 -200 270/07 240V310 RMK AO2
14837KMSN MSN20051006062009610/06/05 06:20:31  5-MIN KMSN 061220Z 26007KT 10SM FEW015 05/02 A3005 740 79 -200 260/07 RMK AO2
14837KMSN MSN20051006062509610/06/05 06:25:31  5-MIN KMSN 061225Z VRB05KT 10SM FEW020 05/02 A3005 740 79 -200 VRB/05 RMK AO2
14837KMSN MSN20051006063011210/06/05 06:30:31  5-MIN KMSN 061230Z 27007KT 230V310 10SM FEW020 05/02 A3006 740 79 -200 270/07 230V310 RMK AO2
14837KMSN MSN20051006063509610/06/05 06:35:31  5-MIN KMSN 061235Z VRB05KT 10SM FEW020 05/02 A3006 740 79 -200 VRB/05 RMK AO2
14837KMSN MSN20051006064011210/06/05 06:40:31  5-MIN KMSN 061240Z 26007KT 230V310 10SM FEW020 05/02 A3006 740 79 -200 260/07 230V310 RMK AO2
14837KMSN MSN20051006064511210/06/05 06:45:31  5-MIN KMSN 061245Z 28010KT 230V300 10SM FEW020 05/01 A3005 740 76 -200 270/10 230V300 RMK AO2
14837KMSN MSN20051006065012910/06/05 06:50:31  5-MIN KMSN 061250Z 27009KT 230V310 10SM FEW020 05/01 A3006 740 76 -200 270/09 230V310 RMK AO2 SLP178 T00500011
14837KMSN MSN20051006065509310/06/05 06:55:31  5-MIN KMSN 061255Z VRB06KT 10SM CLR 05/01 A3005 740 76 -200 VRB/06 RMK AO2
14837KMSN MSN20051006070009310/06/05 07:00:31  5-MIN KMSN 061300Z VRB06KT 10SM CLR 05/01 A3006 740 76 -200 VRB/06 RMK AO2
14837KMSN MSN20051006070511510/06/05 07:05:31  5-MIN KMSN 061305Z 26008G17KT 230V290 10SM CLR 05/01 A3006 740 76 -200 260/08G17 230V290 RMK AO2
14837KMSN MSN20051006071011510/06/05 07:10:31  5-MIN KMSN 061310Z 28007G17KT 240V310 10SM CLR 05/01 A3006 740 76 -200 270/07G17 240V310 RMK AO2
14837KMSN MSN20051006071511810/06/05 07:15:31  5-MIN KMSN 061315Z 27008G14KT 230V290 10SM FEW020 05/01 A3007 730 76 -200 260/08G14 230V290 RMK AO2
14837KMSN MSN20051006072011810/06/05 07:20:31  5-MIN KMSN 061320Z 27007G14KT 230V300 10SM FEW020 06/01 A3007 730 73 -100 260/07G14 230V300 RMK AO2
14837KMSN MSN20051006072509610/06/05 07:25:31  5-MIN KMSN 061325Z VRB06KT 10SM FEW020 06/01 A3007 730 73 -100 VRB/06 RMK AO2
14837KMSN MSN20051006073009610/06/05 07:30:31  5-MIN KMSN 061330Z VRB06KT 10SM SCT020 06/01 A3006 730 73 -100 VRB/06 RMK AO2
14837KMSN MSN20051006073509610/06/05 07:35:31  5-MIN KMSN 061335Z 28006KT 10SM BKN020 06/02 A3007 730 76 -100 280/06 RMK AO2
14837KMSN MSN20051006074009610/06/05 07:40:31  5-MIN KMSN 061340Z 26008KT 10SM BKN020 06/02 A3007 730 76 -200 260/08 RMK AO2
14837KMSN MSN20051006074511810/06/05 07:45:31  5-MIN KMSN 061345Z 28009G16KT 250V080 10SM BKN022 06/01 A3007 720 73 -200 280/09G16 250V080 RMK AO2
14837KMSN MSN20051006075013510/06/05 07:50:31  5-MIN KMSN 061350Z 26012G16KT 220V290 10SM BKN022 06/01 A3007 720 73 -200 260/12G16 220V290 RMK AO2 SLP185 T00560011
14837KMSN MSN20051006075510210/06/05 07:55:31  5-MIN KMSN 061355Z 26008G15KT 10SM BKN022 06/01 A3007 720 73 -200 260/08G15 RMK AO2
14837KMSN MSN20051006080010210/06/05 08:00:31  5-MIN KMSN 061400Z 30010G16KT 10SM OVC022 06/01 A3008 720 73 -200 300/10G16 RMK AO2
14837KMSN MSN20051006080510210/06/05 08:05:31  5-MIN KMSN 061405Z 28012G17KT 10SM OVC022 06/01 A3008 720 70 -200 280/12G17 RMK AO2
14837KMSN MSN20051006081010210/06/05 08:10:31  5-MIN KMSN 061410Z 29011G17KT 10SM OVC022 06/01 A3008 710 70 -200 290/11G17 RMK AO2
14837KMSN MSN20051006081511810/06/05 08:15:31  5-MIN KMSN 061415Z 29009G17KT 250V310 10SM BKN022 06/01 A3008 710 70 -200 290/09G17 250V310 RMK AO2
14837KMSN MSN20051006082011210/06/05 08:20:31  5-MIN KMSN 061420Z 29009KT 220V340 10SM BKN022 06/01 A3009 710 70 -200 290/09 220V340 RMK AO2
14837KMSN MSN20051006082510210/06/05 08:25:31  5-MIN KMSN 061425Z 29010G14KT 10SM BKN022 06/01 A3009 710 73 -200 290/10G14 RMK AO2
14837KMSN MSN20051006083010210/06/05 08:30:31  5-MIN KMSN 061430Z 28008G16KT 10SM BKN022 06/01 A3009 710 70 -200 280/08G16 RMK AO2
14837KMSN MSN20051006083511810/06/05 08:35:31  5-MIN KMSN 061435Z 28008G16KT 250V310 10SM BKN022 06/01 A3009 700 70 -200 280/08G16 250V310 RMK AO2
14837KMSN MSN20051006084010210/06/05 08:40:31  5-MIN KMSN 061440Z 29011G15KT 10SM BKN022 06/01 A3009 700 70 -200 290/11G15 RMK AO2
14837KMSN MSN20051006084510210/06/05 08:45:31  5-MIN KMSN 061445Z 28013G17KT 10SM OVC024 06/01 A3010 700 70 -200 280/13G17 RMK AO2
14837KMSN MSN20051006085014110/06/05 08:50:31  5-MIN KMSN 061450Z 29011G17KT 250V320 10SM OVC024 06/01 A3010 700 70 -200 290/11G17 250V320 RMK AO2 SLP194 T00560006 53004
14837KMSN MSN20051006085510210/06/05 08:55:31  5-MIN KMSN 061455Z 28007G15KT 10SM OVC024 06/01 A3010 700 70 -200 270/07G15 RMK AO2
14837KMSN MSN20051006090010210/06/05 09:00:31  5-MIN KMSN 061500Z 29011G16KT 10SM OVC024 06/01 A3010 700 67 -100 280/11G16 RMK AO2
14837KMSN MSN20051006090510210/06/05 09:05:31  5-MIN KMSN 061505Z 28007G16KT 10SM OVC024 06/01 A3010 700 70 -100 280/07G16 RMK AO2
14837KMSN MSN20051006091011810/06/05 09:10:31  5-MIN KMSN 061510Z 28010G15KT 240V310 10SM OVC024 06/01 A3010 700 70 -100 280/10G15 240V310 RMK AO2
14837KMSN MSN20051006091510210/06/05 09:15:31  5-MIN KMSN 061515Z 27010G15KT 10SM OVC024 06/01 A3010 700 67 -100 270/10G15 RMK AO2
14837KMSN MSN20051006092010210/06/05 09:20:31  5-MIN KMSN 061520Z 30011G14KT 10SM OVC024 06/01 A3010 700 70 -100 300/11G14 RMK AO2
14837KMSN MSN20051006092510210/06/05 09:25:31  5-MIN KMSN 061525Z 28011G14KT 10SM OVC024 06/01 A3010 700 70 -100 280/11G14 RMK AO2
14837KMSN MSN20051006093009310/06/05 09:30:31  5-MIN KMSN 061530Z 29010KT 10SM OVC024 07/01 A3010 700 67 0 290/10 RMK AO2
14837KMSN MSN20051006093509910/06/05 09:35:31  5-MIN KMSN 061535Z 29011G17KT 10SM OVC024 07/01 A3010 700 67 0 280/11G17 RMK AO2
14837KMSN MSN20051006094009910/06/05 09:40:31  5-MIN KMSN 061540Z 28011G17KT 10SM OVC024 07/01 A3010 700 67 0 280/11G17 RMK AO2
14837KMSN MSN20051006094510210/06/05 09:45:31  5-MIN KMSN 061545Z 30011G17KT 10SM OVC024 07/01 A3010 700 67 -100 300/11G17 RMK AO2
14837KMSN MSN20051006095011610/06/05 09:50:31  5-MIN KMSN 061550Z 28009G16KT 10SM BKN024 07/01 A3011 690 65 0 280/09G16 RMK AO2 SLP197 T00720011
14837KMSN MSN20051006095509910/06/05 09:55:31  5-MIN KMSN 061555Z 29010G16KT 10SM OVC026 07/01 A3010 700 65 0 290/10G16 RMK AO2
14837KMSN MSN20051006100009910/06/05 10:00:31  5-MIN KMSN 061600Z 31012G16KT 10SM OVC026 07/01 A3011 690 65 0 310/12G16 RMK AO2
14837KMSN MSN20051006100510210/06/05 10:05:31  5-MIN KMSN 061605Z 29012G17KT 10SM OVC026 07/01 A3011 690 65 -100 290/12G17 RMK AO2
14837KMSN MSN20051006101009910/06/05 10:10:31  5-MIN KMSN 061610Z 30010G17KT 10SM OVC026 07/01 A3011 690 65 0 300/10G17 RMK AO2
14837KMSN MSN20051006101509310/06/05 10:15:31  5-MIN KMSN 061615Z 31010KT 10SM OVC026 07/01 A3011 690 65 0 310/10 RMK AO2
14837KMSN MSN20051006102009310/06/05 10:20:31  5-MIN KMSN 061620Z 30008KT 10SM OVC028 07/01 A3011 690 65 0 300/08 RMK AO2
14837KMSN MSN20051006102510910/06/05 10:25:31  5-MIN KMSN 061625Z 28007KT 250V320 10SM OVC028 07/01 A3011 690 65 0 280/07 250V320 RMK AO2
14837KMSN MSN20051006103010910/06/05 10:30:31  5-MIN KMSN 061630Z 29007KT 250V330 10SM OVC028 07/01 A3011 680 65 0 290/07 250V330 RMK AO2
14837KMSN MSN20051006103509910/06/05 10:35:31  5-MIN KMSN 061635Z 29008G15KT 10SM OVC028 07/01 A3012 680 65 0 290/08G15 RMK AO2
14837KMSN MSN20051006104009910/06/05 10:40:31  5-MIN KMSN 061640Z VRB06G15KT 10SM OVC028 07/01 A3012 680 65 0 VRB/06G15 RMK AO2
14837KMSN MSN20051006104509310/06/05 10:45:31  5-MIN KMSN 061645Z 29006KT 10SM OVC028 07/01 A3012 680 65 0 290/06 RMK AO2
14837KMSN MSN20051006105012610/06/05 10:50:31  5-MIN KMSN 061650Z 30007KT 270V330 10SM OVC028 07/01 A3012 680 65 0 300/07 270V330 RMK AO2 SLP202 T00720011
14837KMSN MSN20051006105509310/06/05 10:55:31  5-MIN KMSN 061655Z 30009KT 10SM OVC028 08/01 A3012 680 62 0 300/09 RMK AO2
14837KMSN MSN20051006110009910/06/05 11:00:31  5-MIN KMSN 061700Z 28009G14KT 10SM OVC028 08/01 A3012 680 62 0 280/09G14 RMK AO2
14837KMSN MSN20051006110509310/06/05 11:05:31  5-MIN KMSN 061705Z 29009KT 10SM OVC028 08/01 A3012 680 62 0 290/09 RMK AO2
14837KMSN MSN20051006111009310/06/05 11:10:31  5-MIN KMSN 061710Z 28008KT 10SM OVC028 08/01 A3012 680 62 0 280/08 RMK AO2
14837KMSN MSN20051006111509310/06/05 11:15:31  5-MIN KMSN 061715Z 28008KT 10SM OVC028 08/01 A3012 680 62 0 280/08 RMK AO2
14837KMSN MSN20051006112009910/06/05 11:20:31  5-MIN KMSN 061720Z 29010G15KT 10SM OVC028 08/01 A3012 680 62 0 290/10G15 RMK AO2
14837KMSN MSN20051006112509910/06/05 11:25:31  5-MIN KMSN 061725Z 30009G15KT 10SM OVC028 08/01 A3012 680 62 0 300/09G15 RMK AO2
14837KMSN MSN20051006113009310/06/05 11:30:31  5-MIN KMSN 061730Z 28007KT 10SM OVC028 08/01 A3013 670 62 0 280/07 RMK AO2
14837KMSN MSN20051006113511110/06/05 11:35:31  5-MIN KMSN 061735Z 29009KT 240V310 10SM OVC028 08/02 A3013 670 63 100 280/09 240V310 RMK AO2
14837KMSN MSN20051006114010910/06/05 11:40:31  5-MIN KMSN 061740Z 29009KT 250V320 10SM OVC028 08/01 A3013 670 62 0 290/09 250V320 RMK AO2
14837KMSN MSN20051006114509310/06/05 11:45:31  5-MIN KMSN 061745Z 28008KT 10SM OVC028 08/01 A3013 670 62 0 280/08 RMK AO2
14837KMSN MSN20051006115014410/06/05 11:50:31  5-MIN KMSN 061750Z 29008KT 240V340 10SM OVC028 08/02 A3012 680 65 0 290/08 240V340 RMK AO2 SLP205 T00780017 10083 20050 53017
14837KMSN MSN20051006115509310/06/05 11:55:31  5-MIN KMSN 061755Z 29009KT 10SM OVC030 08/01 A3012 680 62 0 290/09 RMK AO2
14837KMSN MSN20051006120009510/06/05 12:00:31  5-MIN KMSN 061800Z 27007KT 10SM OVC030 08/02 A3013 670 63 100 270/07 RMK AO2
14837KMSN MSN20051006120509310/06/05 12:05:31  5-MIN KMSN 061805Z 26007KT 10SM OVC030 08/01 A3013 670 62 0 260/07 RMK AO2
14837KMSN MSN20051006121010910/06/05 12:10:31  5-MIN KMSN 061810Z 28008KT 250V330 10SM OVC030 08/01 A3012 680 62 0 280/08 250V330 RMK AO2
14837KMSN MSN20051006121509510/06/05 12:15:31  5-MIN KMSN 061815Z 31009KT 10SM OVC030 08/02 A3012 680 63 100 310/09 RMK AO2
14837KMSN MSN20051006122009510/06/05 12:20:31  5-MIN KMSN 061820Z 26007KT 10SM OVC030 08/02 A3012 680 63 100 260/07 RMK AO2
14837KMSN MSN20051006122509510/06/05 12:25:31  5-MIN KMSN 061825Z 31006KT 10SM OVC030 08/01 A3012 680 60 100 310/06 RMK AO2
14837KMSN MSN20051006123009510/06/05 12:30:31  5-MIN KMSN 061830Z 28009KT 10SM OVC030 09/02 A3012 680 60 100 280/09 RMK AO2
14837KMSN MSN20051006123511110/06/05 12:35:31  5-MIN KMSN 061835Z 27008KT 240V310 10SM OVC030 08/01 A3012 680 60 100 270/08 240V310 RMK AO2
14837KMSN MSN20051006124010110/06/05 12:40:31  5-MIN KMSN 061840Z 28010G14KT 10SM OVC030 08/01 A3012 680 60 100 280/10G14 RMK AO2
14837KMSN MSN20051006124511710/06/05 12:45:31  5-MIN KMSN 061845Z 29007G14KT 250V330 10SM OVC032 08/01 A3012 680 60 100 290/07G14 250V330 RMK AO2
14837KMSN MSN20051006125011210/06/05 12:50:31  5-MIN KMSN 061850Z 31008KT 10SM OVC032 08/02 A3012 680 63 100 310/08 RMK AO2 SLP204 T00830017
14837KMSN MSN20051006125509510/06/05 12:55:31  5-MIN KMSN 061855Z 28009KT 10SM OVC032 08/02 A3012 680 63 100 270/09 RMK AO2
14837KMSN MSN20051006130009510/06/05 13:00:31  5-MIN KMSN 061900Z 28007KT 10SM OVC032 08/02 A3012 680 63 100 280/07 RMK AO2
14837KMSN MSN20051006130509510/06/05 13:05:31  5-MIN KMSN 061905Z VRB04KT 10SM OVC032 08/02 A3012 680 63 100 VRB/04 RMK AO2
14837KMSN MSN20051006131011710/06/05 13:10:31  5-MIN KMSN 061910Z 29009G14KT 240V330 10SM OVC032 09/02 A3012 680 60 200 290/09G14 240V330 RMK AO2
14837KMSN MSN20051006131510110/06/05 13:15:31  5-MIN KMSN 061915Z 29010G14KT 10SM OVC030 08/02 A3012 680 63 100 290/10G14 RMK AO2
14837KMSN MSN20051006132009510/06/05 13:20:31  5-MIN KMSN 061920Z 29009KT 10SM OVC030 08/02 A3012 680 63 100 280/09 RMK AO2
14837KMSN MSN20051006132511110/06/05 13:25:31  5-MIN KMSN 061925Z 28008KT 220V320 10SM OVC030 08/02 A3012 680 63 100 280/08 220V320 RMK AO2
14837KMSN MSN20051006133011110/06/05 13:30:31  5-MIN KMSN 061930Z 28007KT 240V320 10SM OVC030 08/02 A3012 680 63 100 280/07 240V320 RMK AO2
14837KMSN MSN20051006133509510/06/05 13:35:31  5-MIN KMSN 061935Z 29009KT 10SM OVC030 08/02 A3012 680 63 100 290/09 RMK AO2
14837KMSN MSN20051006134009510/06/05 13:40:31  5-MIN KMSN 061940Z 28008KT 10SM OVC030 08/02 A3012 680 63 100 270/08 RMK AO2
14837KMSN MSN20051006134511110/06/05 13:45:31  5-MIN KMSN 061945Z 29008KT 250V310 10SM OVC030 08/02 A3012 680 63 100 290/08 250V310 RMK AO2
14837KMSN MSN20051006135011210/06/05 13:50:31  5-MIN KMSN 061950Z 29009KT 10SM OVC030 08/02 A3011 690 63 100 280/09 RMK AO2 SLP202 T00830017
14837KMSN MSN20051006135510110/06/05 13:55:31  5-MIN KMSN 061955Z 30011G16KT 10SM OVC030 08/02 A3012 680 63 100 290/11G16 RMK AO2
14837KMSN MSN20051006140011710/06/05 14:00:31  5-MIN KMSN 062000Z 28010G16KT 250V320 10SM OVC030 08/02 A3012 680 63 100 280/10G16 250V320 RMK AO2
14837KMSN MSN20051006140511110/06/05 14:05:31  5-MIN KMSN 062005Z 29008KT 260V330 10SM OVC030 08/02 A3012 680 63 100 290/08 260V330 RMK AO2
14837KMSN MSN20051006141010110/06/05 14:10:31  5-MIN KMSN 062010Z 31011G14KT 10SM OVC030 08/02 A3012 680 63 100 310/11G14 RMK AO2
14837KMSN MSN20051006141510110/06/05 14:15:31  5-MIN KMSN 062015Z 28009G14KT 10SM OVC030 08/02 A3012 680 63 100 280/09G14 RMK AO2
14837KMSN MSN20051006142010110/06/05 14:20:31  5-MIN KMSN 062020Z 27008G15KT 10SM OVC030 08/02 A3012 680 63 100 270/08G15 RMK AO2
14837KMSN MSN20051006142510110/06/05 14:25:31  5-MIN KMSN 062025Z 29010G15KT 10SM OVC030 08/02 A3012 680 63 100 290/10G15 RMK AO2
14837KMSN MSN20051006143009510/06/05 14:30:31  5-MIN KMSN 062030Z 28009KT 10SM OVC030 08/02 A3012 680 63 100 280/09 RMK AO2
14837KMSN MSN20051006143509510/06/05 14:35:31  5-MIN KMSN 062035Z VRB06KT 10SM OVC030 08/01 A3012 680 60 100 VRB/06 RMK AO2
14837KMSN MSN20051006144010110/06/05 14:40:31  5-MIN KMSN 062040Z 31010G15KT 10SM OVC030 08/01 A3013 670 60 100 310/10G15 RMK AO2
14837KMSN MSN20051006144510110/06/05 14:45:31  5-MIN KMSN 062045Z 29008G15KT 10SM OVC030 08/02 A3013 670 63 100 290/08G15 RMK AO2
14837KMSN MSN20051006145011610/06/05 14:50:31  5-MIN KMSN 062050Z 29009KT 10SM OVC030 08/02 A3013 680 65 0 290/09 RMK AO2 SLP206 T00780017 52009
14837KMSN MSN20051006145509510/06/05 14:55:31  5-MIN KMSN 062055Z 30007KT 10SM OVC030 08/02 A3013 670 63 100 300/07 RMK AO2
14837KMSN MSN20051006150009510/06/05 15:00:31  5-MIN KMSN 062100Z 29007KT 10SM OVC030 08/02 A3013 670 63 100 280/07 RMK AO2
14837KMSN MSN20051006150509510/06/05 15:05:31  5-MIN KMSN 062105Z 30007KT 10SM OVC030 08/02 A3013 670 63 100 300/07 RMK AO2
14837KMSN MSN20051006151009310/06/05 15:10:31  5-MIN KMSN 062110Z 30008KT 10SM OVC030 08/02 A3013 670 65 0 300/08 RMK AO2
14837KMSN MSN20051006151509310/06/05 15:15:31  5-MIN KMSN 062115Z VRB05KT 10SM OVC030 08/02 A3014 670 65 0 VRB/05 RMK AO2
14837KMSN MSN20051006152009310/06/05 15:20:31  5-MIN KMSN 062120Z 28007KT 10SM OVC030 08/02 A3013 670 65 0 280/07 RMK AO2
14837KMSN MSN20051006152509310/06/05 15:25:31  5-MIN KMSN 062125Z 29009KT 10SM OVC030 08/02 A3014 660 65 0 290/09 RMK AO2
14837KMSN MSN20051006153009310/06/05 15:30:31  5-MIN KMSN 062130Z 29008KT 10SM OVC030 08/02 A3014 660 65 0 290/08 RMK AO2
14837KMSN MSN20051006153509310/06/05 15:35:31  5-MIN KMSN 062135Z 30008KT 10SM OVC030 08/01 A3014 670 62 0 290/08 RMK AO2
14837KMSN MSN20051006154009310/06/05 15:40:31  5-MIN KMSN 062140Z VRB06KT 10SM OVC030 08/02 A3014 670 65 0 VRB/06 RMK AO2
14837KMSN MSN20051006154509910/06/05 15:45:31  5-MIN KMSN 062145Z 29010G14KT 10SM OVC030 08/01 A3014 660 62 0 290/10G14 RMK AO2
14837KMSN MSN20051006155011010/06/05 15:50:31  5-MIN KMSN 062150Z 29010KT 10SM OVC030 08/01 A3014 660 62 0 290/10 RMK AO2 SLP211 T00780011
14837KMSN MSN20051006155509310/06/05 15:55:31  5-MIN KMSN 062155Z 30011KT 10SM OVC030 08/01 A3014 660 62 0 300/11 RMK AO2
14837KMSN MSN20051006160009310/06/05 16:00:31  5-MIN KMSN 062200Z 30009KT 10SM OVC030 08/01 A3015 660 62 0 300/09 RMK AO2
14837KMSN MSN20051006160509310/06/05 16:05:31  5-MIN KMSN 062205Z 31007KT 10SM OVC030 08/01 A3015 660 62 0 310/07 RMK AO2
14837KMSN MSN20051006161009310/06/05 16:10:31  5-MIN KMSN 062210Z 29006KT 10SM OVC030 08/02 A3015 650 65 0 290/06 RMK AO2
14837KMSN MSN20051006161509310/06/05 16:15:31  5-MIN KMSN 062215Z 29009KT 10SM OVC030 08/02 A3015 650 65 0 290/09 RMK AO2
14837KMSN MSN20051006162009310/06/05 16:20:31  5-MIN KMSN 062220Z 29009KT 10SM OVC030 07/02 A3015 650 68 0 290/09 RMK AO2
14837KMSN MSN20051006162509310/06/05 16:25:31  5-MIN KMSN 062225Z 29007KT 10SM OVC030 07/02 A3015 650 68 0 290/07 RMK AO2
14837KMSN MSN20051006163009310/06/05 16:30:31  5-MIN KMSN 062230Z 28007KT 10SM OVC030 07/02 A3015 650 68 0 280/07 RMK AO2
14837KMSN MSN20051006163509310/06/05 16:35:31  5-MIN KMSN 062235Z 29008KT 10SM OVC030 07/02 A3016 650 68 0 280/08 RMK AO2
14837KMSN MSN20051006164009310/06/05 16:40:31  5-MIN KMSN 062240Z 29007KT 10SM OVC030 07/02 A3015 650 68 0 290/07 RMK AO2
14837KMSN MSN20051006164509910/06/05 16:45:31  5-MIN KMSN 062245Z 29010G15KT 10SM OVC030 07/01 A3015 650 65 0 290/10G15 RMK AO2
14837KMSN MSN20051006165011610/06/05 16:50:31  5-MIN KMSN 062250Z 29010G15KT 10SM OVC030 07/01 A3016 650 65 0 290/10G15 RMK AO2 SLP218 T00720011
14837KMSN MSN20051006165509910/06/05 16:55:31  5-MIN KMSN 062255Z 31009G14KT 10SM OVC030 07/01 A3016 650 65 0 300/09G14 RMK AO2
14837KMSN MSN20051006170009310/06/05 17:00:31  5-MIN KMSN 062300Z 29007KT 10SM OVC030 07/01 A3016 650 65 0 290/07 RMK AO2
14837KMSN MSN20051006170511210/06/05 17:05:31  5-MIN KMSN 062305Z 29008KT 250V320 10SM OVC030 07/01 A3016 640 65 -100 280/08 250V320 RMK AO2
14837KMSN MSN20051006171009910/06/05 17:10:31  5-MIN KMSN 062310Z 31009G14KT 10SM OVC030 07/01 A3016 640 65 0 310/09G14 RMK AO2
14837KMSN MSN20051006171509310/06/05 17:15:31  5-MIN KMSN 062315Z 32009KT 10SM OVC030 07/01 A3016 640 65 0 320/09 RMK AO2
14837KMSN MSN20051006172009610/06/05 17:20:31  5-MIN KMSN 062320Z 31009KT 10SM OVC030 07/01 A3016 640 65 -100 310/09 RMK AO2
14837KMSN MSN20051006172509610/06/05 17:25:31  5-MIN KMSN 062325Z 31009KT 10SM OVC030 07/01 A3016 640 65 -100 310/09 RMK AO2
14837KMSN MSN20051006173009610/06/05 17:30:31  5-MIN KMSN 062330Z 32008KT 10SM OVC030 07/01 A3016 640 65 -100 320/08 RMK AO2
14837KMSN MSN20051006173511210/06/05 17:35:31  5-MIN KMSN 062335Z 30007KT 270V330 10SM OVC030 07/01 A3017 640 65 -100 300/07 270V330 RMK AO2
14837KMSN MSN20051006174009610/06/05 17:40:31  5-MIN KMSN 062340Z 30007KT 10SM OVC028 07/02 A3016 640 70 -100 300/07 RMK AO2
14837KMSN MSN20051006174509610/06/05 17:45:31  5-MIN KMSN 062345Z 30010KT 10SM OVC028 07/01 A3016 640 67 -100 300/10 RMK AO2
14837KMSN MSN20051006175013110/06/05 17:50:31  5-MIN KMSN 062350Z 30009KT 10SM OVC028 07/02 A3016 640 70 -100 290/09 RMK AO2 SLP220 T00670017 10089 20067 53001
14837KMSN MSN20051006175509610/06/05 17:55:31  5-MIN KMSN 062355Z 29007KT 10SM OVC028 07/02 A3016 640 70 -100 290/07 RMK AO2
14837KMSN MSN20051006180009610/06/05 18:00:31  5-MIN KMSN 070000Z 30009KT 10SM OVC028 07/01 A3017 640 67 -100 290/09 RMK AO2
14837KMSN MSN20051006180509610/06/05 18:05:31  5-MIN KMSN 070005Z 29009KT 10SM OVC028 07/01 A3017 640 67 -100 290/09 RMK AO2
14837KMSN MSN20051006181009610/06/05 18:10:31  5-MIN KMSN 070010Z 30008KT 10SM OVC026 07/01 A3017 640 67 -100 300/08 RMK AO2
14837KMSN MSN20051006181510210/06/05 18:15:31  5-MIN KMSN 070015Z 31006G16KT 10SM OVC026 07/01 A3017 630 67 -100 310/06G16 RMK AO2
14837KMSN MSN20051006182010210/06/05 18:20:31  5-MIN KMSN 070020Z 30007G16KT 10SM OVC026 07/02 A3017 630 70 -100 300/07G16 RMK AO2
14837KMSN MSN20051006182509610/06/05 18:25:31  5-MIN KMSN 070025Z 31008KT 10SM OVC026 07/01 A3017 630 67 -100 310/08 RMK AO2
14837KMSN MSN20051006183010210/06/05 18:30:31  5-MIN KMSN 070030Z 30009G15KT 10SM OVC026 07/01 A3017 630 67 -100 290/09G15 RMK AO2
14837KMSN MSN20051006183510210/06/05 18:35:31  5-MIN KMSN 070035Z 30008G15KT 10SM OVC026 07/01 A3017 630 67 -100 300/08G15 RMK AO2
14837KMSN MSN20051006184009610/06/05 18:40:31  5-MIN KMSN 070040Z 32008KT 10SM OVC026 07/01 A3017 630 67 -100 320/08 RMK AO2
14837KMSN MSN20051006184509610/06/05 18:45:31  5-MIN KMSN 070045Z 31009KT 10SM OVC026 06/01 A3017 630 70 -200 310/09 RMK AO2
14837KMSN MSN20051006185011310/06/05 18:50:31  5-MIN KMSN 070050Z 31007KT 10SM OVC026 06/01 A3017 630 70 -200 310/07 RMK AO2 SLP223 T00610011
14837KMSN MSN20051006185509610/06/05 18:55:31  5-MIN KMSN 070055Z 32011KT 10SM OVC026 06/01 A3017 640 70 -200 320/11 RMK AO2
14837KMSN MSN20051006190009610/06/05 19:00:31  5-MIN KMSN 070100Z 31008KT 10SM OVC026 06/01 A3017 630 70 -200 310/08 RMK AO2
14837KMSN MSN20051006190509610/06/05 19:05:31  5-MIN KMSN 070105Z 32008KT 10SM OVC026 06/01 A3017 630 70 -200 320/08 RMK AO2
14837KMSN MSN20051006191009610/06/05 19:10:31  5-MIN KMSN 070110Z 32008KT 10SM OVC026 06/01 A3017 630 70 -200 320/08 RMK AO2
14837KMSN MSN20051006191509610/06/05 19:15:31  5-MIN KMSN 070115Z 32009KT 10SM OVC026 06/01 A3017 630 70 -200 320/09 RMK AO2
14837KMSN MSN20051006192009610/06/05 19:20:31  5-MIN KMSN 070120Z 32010KT 10SM OVC026 06/01 A3017 630 70 -200 310/10 RMK AO2
14837KMSN MSN20051006192509610/06/05 19:25:31  5-MIN KMSN 070125Z 33005KT 10SM OVC026 06/01 A3017 630 70 -200 320/05 RMK AO2
14837KMSN MSN20051006193009610/06/05 19:30:31  5-MIN KMSN 070130Z 33007KT 10SM OVC026 06/01 A3017 630 70 -200 330/07 RMK AO2
14837KMSN MSN20051006193509610/06/05 19:35:31  5-MIN KMSN 070135Z 33008KT 10SM OVC026 06/01 A3017 630 70 -200 330/08 RMK AO2
14837KMSN MSN20051006194009610/06/05 19:40:31  5-MIN KMSN 070140Z 34007KT 10SM OVC026 06/02 A3017 630 73 -200 340/07 RMK AO2
14837KMSN MSN20051006194509610/06/05 19:45:31  5-MIN KMSN 070145Z 33007KT 10SM OVC026 06/01 A3018 630 70 -200 330/07 RMK AO2
14837KMSN MSN20051006195011310/06/05 19:50:31  5-MIN KMSN 070150Z 33005KT 10SM OVC028 06/01 A3018 630 70 -200 330/05 RMK AO2 SLP225 T00610011
14837KMSN MSN20051006195509610/06/05 19:55:31  5-MIN KMSN 070155Z 33005KT 10SM OVC028 06/01 A3018 630 70 -200 330/05 RMK AO2
14837KMSN MSN20051006200009610/06/05 20:00:31  5-MIN KMSN 070200Z 33006KT 10SM OVC030 06/01 A3018 630 70 -200 330/06 RMK AO2
14837KMSN MSN20051006200509610/06/05 20:05:31  5-MIN KMSN 070205Z 32005KT 10SM OVC030 06/01 A3018 630 70 -200 320/05 RMK AO2
14837KMSN MSN20051006201009610/06/05 20:10:31  5-MIN KMSN 070210Z 32004KT 10SM OVC030 06/01 A3018 620 70 -200 320/04 RMK AO2
14837KMSN MSN20051006201509610/06/05 20:15:31  5-MIN KMSN 070215Z 33006KT 10SM OVC030 06/01 A3018 630 70 -200 330/06 RMK AO2
14837KMSN MSN20051006202010310/06/05 20:20:31  5-MIN KMSN 070220Z VRB06KT 10SM BKN030 OVC036 06/01 A3018 620 70 -200 VRB/06 RMK AO2
14837KMSN MSN20051006202510310/06/05 20:25:31  5-MIN KMSN 070225Z 31007KT 10SM BKN030 OVC036 06/01 A3018 620 70 -200 310/07 RMK AO2
14837KMSN MSN20051006203010310/06/05 20:30:31  5-MIN KMSN 070230Z 33005KT 10SM BKN030 OVC036 06/01 A3018 620 70 -200 330/05 RMK AO2
14837KMSN MSN20051006203510310/06/05 20:35:31  5-MIN KMSN 070235Z 32008KT 10SM SCT028 OVC035 06/01 A3018 620 70 -200 320/08 RMK AO2
14837KMSN MSN20051006204010310/06/05 20:40:31  5-MIN KMSN 070240Z 34006KT 10SM FEW028 BKN035 06/01 A3018 620 73 -300 340/06 RMK AO2
14837KMSN MSN20051006204510310/06/05 20:45:31  5-MIN KMSN 070245Z 34005KT 10SM FEW028 BKN035 06/01 A3018 620 73 -300 340/05 RMK AO2
14837KMSN MSN20051006205011910/06/05 20:50:31  5-MIN KMSN 070250Z 34006KT 10SM BKN035 06/01 A3018 620 73 -300 340/06 RMK AO2 SLP227 T00560011 51012
14837KMSN MSN20051006205509610/06/05 20:55:31  5-MIN KMSN 070255Z 33005KT 10SM BKN035 06/01 A3019 620 73 -300 320/05 RMK AO2
14837KMSN MSN20051006210009610/06/05 21:00:31  5-MIN KMSN 070300Z 32003KT 10SM SCT035 05/02 A3019 620 79 -400 320/03 RMK AO2
14837KMSN MSN20051006210509610/06/05 21:05:31  5-MIN KMSN 070305Z 33003KT 10SM SCT035 06/02 A3019 620 76 -300 330/03 RMK AO2
14837KMSN MSN20051006211009610/06/05 21:10:31  5-MIN KMSN 070310Z 32004KT 10SM SCT035 06/02 A3019 610 76 -300 320/04 RMK AO2
14837KMSN MSN20051006211509610/06/05 21:15:31  5-MIN KMSN 070315Z 33003KT 10SM BKN035 06/02 A3019 620 76 -300 330/03 RMK AO2
14837KMSN MSN20051006212009610/06/05 21:20:31  5-MIN KMSN 070320Z 33003KT 10SM BKN035 06/02 A3019 620 76 -300 330/03 RMK AO2
14837KMSN MSN20051006212509610/06/05 21:25:31  5-MIN KMSN 070325Z 33004KT 10SM BKN035 06/02 A3019 620 79 -300 330/04 RMK AO2
14837KMSN MSN20051006213009610/06/05 21:30:31  5-MIN KMSN 070330Z 32004KT 10SM BKN035 06/02 A3019 620 79 -300 320/04 RMK AO2
14837KMSN MSN20051006213509610/06/05 21:35:31  5-MIN KMSN 070335Z 33004KT 10SM OVC033 06/02 A3019 610 76 -300 330/04 RMK AO2
14837KMSN MSN20051006214009610/06/05 21:40:31  5-MIN KMSN 070340Z 34004KT 10SM OVC033 06/02 A3019 610 76 -300 330/04 RMK AO2
14837KMSN MSN20051006214509610/06/05 21:45:31  5-MIN KMSN 070345Z 33004KT 10SM OVC033 06/02 A3019 610 76 -300 330/04 RMK AO2
14837KMSN MSN20051006215011310/06/05 21:50:31  5-MIN KMSN 070350Z 33004KT 10SM OVC033 06/02 A3019 610 76 -300 330/04 RMK AO2 SLP231 T00560017
14837KMSN MSN20051006215509610/06/05 21:55:31  5-MIN KMSN 070355Z 33005KT 10SM OVC033 06/02 A3019 620 76 -300 330/05 RMK AO2
14837KMSN MSN20051006220009610/06/05 22:00:31  5-MIN KMSN 070400Z 34005KT 10SM OVC033 06/02 A3019 620 76 -300 330/05 RMK AO2
14837KMSN MSN20051006220509610/06/05 22:05:31  5-MIN KMSN 070405Z 34005KT 10SM OVC035 06/02 A3019 620 76 -300 330/05 RMK AO2
14837KMSN MSN20051006221009610/06/05 22:10:31  5-MIN KMSN 070410Z 33004KT 10SM OVC035 06/02 A3019 620 76 -300 330/04 RMK AO2
14837KMSN MSN20051006221509610/06/05 22:15:31  5-MIN KMSN 070415Z 32003KT 10SM OVC035 06/02 A3019 620 76 -300 320/03 RMK AO2
14837KMSN MSN20051006222009610/06/05 22:20:31  5-MIN KMSN 070420Z 32004KT 10SM OVC035 06/02 A3019 620 76 -300 320/04 RMK AO2
14837KMSN MSN20051006222509610/06/05 22:25:31  5-MIN KMSN 070425Z 32004KT 10SM OVC035 06/02 A3019 620 76 -300 320/04 RMK AO2
14837KMSN MSN20051006223009610/06/05 22:30:31  5-MIN KMSN 070430Z 32004KT 10SM OVC035 06/02 A3019 620 76 -300 320/04 RMK AO2
14837KMSN MSN20051006223509610/06/05 22:35:31  5-MIN KMSN 070435Z 33005KT 10SM OVC035 06/02 A3018 620 76 -300 330/05 RMK AO2
14837KMSN MSN20051006224009610/06/05 22:40:31  5-MIN KMSN 070440Z 00000KT 10SM OVC035 06/02 A3019 620 76 -300 000/00 RMK AO2
14837KMSN MSN20051006224509610/06/05 22:45:31  5-MIN KMSN 070445Z 00000KT 10SM OVC035 06/02 A3019 620 76 -300 000/00 RMK AO2
14837KMSN MSN20051006225012010/06/05 22:50:31  5-MIN KMSN 070450Z 32003KT 10SM FEW028 OVC035 06/02 A3019 620 76 -300 320/03 RMK AO2 SLP228 T00560017
14837KMSN MSN20051006225510310/06/05 22:55:31  5-MIN KMSN 070455Z 32003KT 10SM FEW028 OVC035 06/02 A3019 620 76 -300 310/03 RMK AO2
14837KMSN MSN20051006230009610/06/05 23:00:31  5-MIN KMSN 070500Z 32003KT 10SM OVC035 06/02 A3018 620 79 -300 320/03 RMK AO2
14837KMSN MSN20051006230510310/06/05 23:05:31  5-MIN KMSN 070505Z 31004KT 10SM FEW029 OVC035 06/02 A3018 620 79 -300 310/04 RMK AO2
14837KMSN MSN20051006231010310/06/05 23:10:31  5-MIN KMSN 070510Z 31005KT 10SM FEW029 OVC037 06/02 A3018 620 79 -300 310/05 RMK AO2
14837KMSN MSN20051006231510310/06/05 23:15:31  5-MIN KMSN 070515Z VRB03KT 10SM FEW027 OVC037 06/02 A3018 620 79 -300 VRB/03 RMK AO2
14837KMSN MSN20051006232010310/06/05 23:20:31  5-MIN KMSN 070520Z 32004KT 10SM FEW027 OVC037 06/02 A3018 620 79 -300 320/04 RMK AO2
14837KMSN MSN20051006232510310/06/05 23:25:31  5-MIN KMSN 070525Z 32005KT 10SM SCT027 OVC037 06/02 A3018 620 79 -300 320/05 RMK AO2
14837KMSN MSN20051006233010310/06/05 23:30:31  5-MIN KMSN 070530Z 33005KT 10SM SCT027 OVC037 06/02 A3018 620 79 -300 330/05 RMK AO2
14837KMSN MSN20051006233510310/06/05 23:35:31  5-MIN KMSN 070535Z 32004KT 10SM SCT027 OVC037 06/02 A3019 620 76 -300 320/04 RMK AO2
14837KMSN MSN20051006234010310/06/05 23:40:31  5-MIN KMSN 070540Z 32005KT 10SM BKN027 OVC037 06/02 A3019 620 79 -300 320/05 RMK AO2
14837KMSN MSN20051006234510310/06/05 23:45:31  5-MIN KMSN 070545Z 32006KT 10SM BKN025 OVC035 06/02 A3019 620 76 -300 320/06 RMK AO2
14837KMSN MSN20051006235014810/06/05 23:50:31  5-MIN KMSN 070550Z 31006KT 10SM BKN025 OVC037 06/02 A3019 620 76 -300 310/06 RMK AO2 SLP228 T00560017 10067 20050 401060050 53007
14837KMSN MSN20051006235510310/06/05 23:55:31  5-MIN KMSN 070555Z 32006KT 10SM BKN025 OVC037 06/02 A3019 620 76 -300 310/06 RMK AO2
14837KMSN MSN20051007000010310/07/05 00:00:38  5-MIN KMSN 070600Z 32006KT 10SM SCT025 OVC037 06/02 A3019 620 76 -300 320/06 RMK AO2
14837KMSN MSN20051007000510310/07/05 00:05:31  5-MIN KMSN 070605Z 32007KT 10SM SCT023 OVC039 06/02 A3019 620 76 -300 320/07 RMK AO2
14837KMSN MSN20051007001010310/07/05 00:10:31  5-MIN KMSN 070610Z 34010KT 10SM FEW023 OVC039 06/02 A3019 620 76 -300 340/10 RMK AO2
14837KMSN MSN20051007001510310/07/05 00:15:32  5-MIN KMSN 070615Z 33006KT 10SM FEW023 OVC039 06/02 A3019 620 76 -300 330/06 RMK AO2
14837KMSN MSN20051007002009610/07/05 00:20:31  5-MIN KMSN 070620Z 33007KT 10SM OVC039 06/02 A3019 620 76 -300 330/07 RMK AO2
14837KMSN MSN20051007002509610/07/05 00:25:31  5-MIN KMSN 070625Z 33005KT 10SM OVC039 06/02 A3019 620 76 -300 330/05 RMK AO2
14837KMSN MSN20051007003010310/07/05 00:30:31  5-MIN KMSN 070630Z 33006KT 10SM FEW029 OVC038 06/02 A3019 620 79 -300 330/06 RMK AO2
14837KMSN MSN20051007003510310/07/05 00:35:31  5-MIN KMSN 070635Z 32006KT 10SM SCT029 OVC038 06/02 A3019 620 76 -300 320/06 RMK AO2
14837KMSN MSN20051007004010310/07/05 00:40:31  5-MIN KMSN 070640Z 34005KT 10SM SCT029 OVC038 06/02 A3019 620 79 -300 330/05 RMK AO2
14837KMSN MSN20051007004510310/07/05 00:45:31  5-MIN KMSN 070645Z 32006KT 10SM FEW029 OVC038 06/02 A3019 620 79 -300 310/06 RMK AO2
14837KMSN MSN20051007005012010/07/05 00:50:31  5-MIN KMSN 070650Z 32006KT 10SM FEW029 OVC038 06/02 A3019 620 79 -300 320/06 RMK AO2 SLP228 T00560022
14837KMSN MSN20051007005510310/07/05 00:55:31  5-MIN KMSN 070655Z 32006KT 10SM FEW029 OVC038 06/02 A3019 620 79 -300 320/06 RMK AO2
14837KMSN MSN20051007010010310/07/05 01:00:31  5-MIN KMSN 070700Z 33007KT 10SM FEW029 OVC038 06/02 A3019 620 79 -300 330/07 RMK AO2
14837KMSN MSN20051007010509610/07/05 01:05:31  5-MIN KMSN 070705Z 33009KT 10SM OVC038 06/02 A3019 620 79 -300 330/09 RMK AO2
14837KMSN MSN20051007011009610/07/05 01:10:31  5-MIN KMSN 070710Z 34008KT 10SM OVC038 06/02 A3019 620 79 -300 340/08 RMK AO2
14837KMSN MSN20051007011510310/07/05 01:15:31  5-MIN KMSN 070715Z 34008KT 10SM FEW030 OVC038 06/02 A3019 620 79 -300 340/08 RMK AO2
14837KMSN MSN20051007012010310/07/05 01:20:31  5-MIN KMSN 070720Z 34007KT 10SM SCT030 OVC038 06/02 A3019 620 79 -300 340/07 RMK AO2
14837KMSN MSN20051007012510310/07/05 01:25:31  5-MIN KMSN 070725Z 34008KT 10SM SCT030 OVC038 06/02 A3019 620 79 -300 340/08 RMK AO2
14837KMSN MSN20051007013010310/07/05 01:30:31  5-MIN KMSN 070730Z 33007KT 10SM FEW030 OVC038 06/02 A3019 620 79 -300 330/07 RMK AO2
14837KMSN MSN20051007013509610/07/05 01:35:31  5-MIN KMSN 070735Z 34006KT 10SM OVC036 06/02 A3019 620 79 -300 340/06 RMK AO2
14837KMSN MSN20051007014010310/07/05 01:40:31  5-MIN KMSN 070740Z 33007KT 10SM SCT031 OVC039 06/02 A3018 620 79 -300 330/07 RMK AO2
14837KMSN MSN20051007014510310/07/05 01:45:31  5-MIN KMSN 070745Z 34007KT 10SM SCT031 OVC039 06/02 A3018 620 79 -300 340/07 RMK AO2
14837KMSN MSN20051007015012010/07/05 01:50:31  5-MIN KMSN 070750Z 34007KT 10SM SCT031 OVC039 06/02 A3018 620 79 -300 340/07 RMK AO2 SLP226 T00560022
14837KMSN MSN20051007015510310/07/05 01:55:31  5-MIN KMSN 070755Z 33008KT 10SM SCT028 OVC039 06/02 A3018 620 79 -300 330/08 RMK AO2
14837KMSN MSN20051007020010310/07/05 02:00:31  5-MIN KMSN 070800Z 34007KT 10SM SCT028 OVC039 06/02 A3018 630 79 -300 340/07 RMK AO2
14837KMSN MSN20051007020510310/07/05 02:05:31  5-MIN KMSN 070805Z 35006KT 10SM SCT028 OVC039 06/02 A3017 630 79 -300 340/06 RMK AO2
14837KMSN MSN20051007021010310/07/05 02:10:31  5-MIN KMSN 070810Z 33008KT 10SM BKN028 OVC039 06/02 A3018 620 79 -300 330/08 RMK AO2
14837KMSN MSN20051007021510310/07/05 02:15:31  5-MIN KMSN 070815Z 34007KT 10SM BKN028 OVC039 06/02 A3018 630 79 -300 340/07 RMK AO2
14837KMSN MSN20051007022010310/07/05 02:20:31  5-MIN KMSN 070820Z 34009KT 10SM BKN028 OVC039 06/02 A3018 630 79 -300 340/09 RMK AO2
14837KMSN MSN20051007022510310/07/05 02:25:31  5-MIN KMSN 070825Z 34008KT 10SM BKN028 OVC041 06/02 A3018 630 79 -300 340/08 RMK AO2
14837KMSN MSN20051007023010310/07/05 02:30:31  5-MIN KMSN 070830Z 34008KT 10SM BKN028 OVC041 06/02 A3017 630 79 -300 340/08 RMK AO2
14837KMSN MSN20051007023510310/07/05 02:35:31  5-MIN KMSN 070835Z 35007KT 10SM BKN028 OVC041 06/02 A3018 630 79 -300 350/07 RMK AO2
14837KMSN MSN20051007024010310/07/05 02:40:31  5-MIN KMSN 070840Z 34007KT 10SM BKN028 OVC041 06/02 A3018 630 79 -300 340/07 RMK AO2
14837KMSN MSN20051007024510310/07/05 02:45:31  5-MIN KMSN 070845Z 34008KT 10SM BKN028 OVC041 06/02 A3018 630 79 -300 340/08 RMK AO2
14837KMSN MSN20051007025010310/07/05 02:50:31  5-MIN KMSN 070850Z 34007KT 10SM SCT028 OVC045 06/02 A3018 630 79 -300 340/07 RMK AO2
14837KMSN MSN20051007025509610/07/05 02:55:31  5-MIN KMSN 070855Z 35008KT 10SM OVC047 06/02 A3017 630 79 -300 350/08 RMK AO2
14837KMSN MSN20051007030009610/07/05 03:00:31  5-MIN KMSN 070900Z 35010KT 10SM OVC047 06/03 A3017 630 82 -300 350/10 RMK AO2
14837KMSN MSN20051007030509610/07/05 03:05:31  5-MIN KMSN 070905Z 34007KT 10SM OVC047 05/03 A3018 630 85 -300 340/07 RMK AO2
14837KMSN MSN20051007031009610/07/05 03:10:31  5-MIN KMSN 070910Z 35007KT 10SM OVC049 05/03 A3018 630 85 -300 350/07 RMK AO2
14837KMSN MSN20051007031509610/07/05 03:15:31  5-MIN KMSN 070915Z 34006KT 10SM OVC049 05/03 A3018 620 85 -300 340/06 RMK AO2
14837KMSN MSN20051007032009610/07/05 03:20:31  5-MIN KMSN 070920Z 34007KT 10SM OVC049 05/03 A3018 620 85 -300 340/07 RMK AO2
14837KMSN MSN20051007032509610/07/05 03:25:31  5-MIN KMSN 070925Z 34007KT 10SM OVC049 05/03 A3018 620 85 -300 340/07 RMK AO2
14837KMSN MSN20051007033009610/07/05 03:30:31  5-MIN KMSN 070930Z 34007KT 10SM OVC049 05/03 A3018 620 85 -300 340/07 RMK AO2
14837KMSN MSN20051007033510310/07/05 03:35:31  5-MIN KMSN 070935Z 35007KT 10SM FEW029 OVC049 05/03 A3018 620 85 -300 350/07 RMK AO2
14837KMSN MSN20051007034010310/07/05 03:40:31  5-MIN KMSN 070940Z 35007KT 10SM SCT029 OVC049 05/03 A3019 620 85 -300 350/07 RMK AO2
14837KMSN MSN20051007034510310/07/05 03:45:31  5-MIN KMSN 070945Z 35007KT 10SM FEW029 OVC049 05/03 A3018 620 85 -300 350/07 RMK AO2
14837KMSN MSN20051007035012010/07/05 03:50:31  5-MIN KMSN 070950Z 35007KT 10SM FEW029 OVC049 05/03 A3018 620 85 -300 350/07 RMK AO2 SLP227 T00500028
14837KMSN MSN20051007035510310/07/05 03:55:31  5-MIN KMSN 070955Z 35006KT 10SM FEW029 OVC049 05/03 A3019 620 85 -400 350/06 RMK AO2
14837KMSN MSN20051007040010310/07/05 04:00:31  5-MIN KMSN 071000Z 35006KT 10SM SCT031 OVC049 05/03 A3019 620 85 -400 350/06 RMK AO2
14837KMSN MSN20051007040510310/07/05 04:05:31  5-MIN KMSN 071005Z 35005KT 10SM SCT031 OVC049 05/03 A3019 610 85 -400 350/05 RMK AO2
14837KMSN MSN20051007041010310/07/05 04:10:31  5-MIN KMSN 071010Z 35005KT 10SM BKN035 OVC049 05/03 A3019 610 85 -400 350/05 RMK AO2
14837KMSN MSN20051007041510310/07/05 04:15:31  5-MIN KMSN 071015Z 35006KT 10SM BKN035 OVC049 05/03 A3019 610 85 -400 350/06 RMK AO2
14837KMSN MSN20051007042010310/07/05 04:20:31  5-MIN KMSN 071020Z 34006KT 10SM SCT035 OVC047 05/03 A3019 610 85 -400 340/06 RMK AO2
14837KMSN MSN20051007042510310/07/05 04:25:31  5-MIN KMSN 071025Z 34006KT 10SM SCT035 OVC045 05/03 A3019 610 85 -400 340/06 RMK AO2
14837KMSN MSN20051007043011010/07/05 04:30:31  5-MIN KMSN 071030Z 34006KT 10SM FEW015 SCT035 OVC045 05/03 A3020 610 85 -400 340/06 RMK AO2
14837KMSN MSN20051007043511010/07/05 04:35:31  5-MIN KMSN 071035Z 34006KT 10SM FEW015 SCT035 OVC045 05/03 A3020 610 85 -400 340/06 RMK AO2
14837KMSN MSN20051007044010310/07/05 04:40:31  5-MIN KMSN 071040Z 34006KT 10SM SCT035 OVC045 05/03 A3020 610 85 -400 340/06 RMK AO2
14837KMSN MSN20051007044510310/07/05 04:45:31  5-MIN KMSN 071045Z 35007KT 10SM SCT035 OVC045 05/03 A3020 610 85 -400 350/07 RMK AO2
14837KMSN MSN20051007045012010/07/05 04:50:31  5-MIN KMSN 071050Z 35006KT 10SM BKN035 OVC045 05/03 A3020 610 85 -400 350/06 RMK AO2 SLP232 T00500028
14837KMSN MSN20051007045510310/07/05 04:55:31  5-MIN KMSN 071055Z 36008KT 10SM BKN035 OVC045 05/03 A3020 610 85 -400 360/08 RMK AO2
14837KMSN MSN20051007050010310/07/05 05:00:31  5-MIN KMSN 071100Z 36009KT 10SM BKN035 OVC045 05/03 A3020 610 85 -400 360/09 RMK AO2
14837KMSN MSN20051007050510310/07/05 05:05:31  5-MIN KMSN 071105Z 36010KT 10SM SCT035 OVC045 05/03 A3019 610 85 -400 360/10 RMK AO2
14837KMSN MSN20051007051010310/07/05 05:10:31  5-MIN KMSN 071110Z 36011KT 10SM SCT035 OVC045 05/02 A3020 610 82 -400 360/11 RMK AO2
14837KMSN MSN20051007051510310/07/05 05:15:31  5-MIN KMSN 071115Z 36011KT 10SM FEW035 OVC045 05/02 A3020 610 82 -400 360/11 RMK AO2
14837KMSN MSN20051007052010310/07/05 05:20:31  5-MIN KMSN 071120Z 36008KT 10SM FEW037 OVC045 05/02 A3020 600 82 -400 350/08 RMK AO2
14837KMSN MSN20051007052509610/07/05 05:25:31  5-MIN KMSN 071125Z 35009KT 10SM OVC043 05/02 A3021 600 82 -400 350/09 RMK AO2
14837KMSN MSN20051007053009610/07/05 05:30:31  5-MIN KMSN 071130Z 36011KT 10SM OVC043 05/02 A3021 600 82 -400 360/11 RMK AO2
14837KMSN MSN20051007053509610/07/05 05:35:31  5-MIN KMSN 071135Z 36011KT 10SM OVC041 05/02 A3021 600 82 -400 360/11 RMK AO2
14837KMSN MSN20051007054009610/07/05 05:40:31  5-MIN KMSN 071140Z 35009KT 10SM OVC041 05/02 A3021 600 82 -400 350/09 RMK AO2
14837KMSN MSN20051007054509610/07/05 05:45:31  5-MIN KMSN 071145Z 36011KT 10SM OVC041 05/02 A3021 600 82 -400 360/11 RMK AO2
14837KMSN MSN20051007055013110/07/05 05:50:31  5-MIN KMSN 071150Z 36009KT 10SM OVC041 05/03 A3021 600 85 -400 360/09 RMK AO2 SLP236 T00500028 10056 20050 58004
14837KMSN MSN20051007055509610/07/05 05:55:31  5-MIN KMSN 071155Z 36012KT 10SM OVC041 05/02 A3021 600 82 -400 360/12 RMK AO2
14837KMSN MSN20051007060010310/07/05 06:00:31  5-MIN KMSN 071200Z 35010KT 10SM BKN039 OVC046 05/02 A3022 590 82 -400 350/10 RMK AO2
14837KMSN MSN20051007060509610/07/05 06:05:31  5-MIN KMSN 071205Z 36011KT 10SM OVC041 05/02 A3022 590 82 -400 360/11 RMK AO2
14837KMSN MSN20051007061009610/07/05 06:10:31  5-MIN KMSN 071210Z 35009KT 10SM OVC043 05/02 A3022 590 82 -400 350/09 RMK AO2
14837KMSN MSN20051007061510310/07/05 06:15:31  5-MIN KMSN 071215Z 35009KT 10SM SCT039 OVC046 05/02 A3022 590 82 -400 350/09 RMK AO2
14837KMSN MSN20051007062011010/07/05 06:20:31  5-MIN KMSN 071220Z 35010KT 10SM FEW018 SCT039 OVC046 05/02 A3022 590 82 -400 350/10 RMK AO2
14837KMSN MSN20051007062510310/07/05 06:25:31  5-MIN KMSN 071225Z 35012KT 10SM FEW018 OVC046 05/02 A3022 590 79 -400 350/12 RMK AO2
14837KMSN MSN20051007063009610/07/05 06:30:31  5-MIN KMSN 071230Z 36013KT 10SM OVC046 05/02 A3022 590 79 -400 360/13 RMK AO2
14837KMSN MSN20051007063509610/07/05 06:35:31  5-MIN KMSN 071235Z 35010KT 10SM OVC046 05/02 A3022 580 79 -400 350/10 RMK AO2
14837KMSN MSN20051007064009610/07/05 06:40:31  5-MIN KMSN 071240Z 36011KT 10SM OVC046 05/02 A3022 580 79 -400 360/11 RMK AO2
14837KMSN MSN20051007064509610/07/05 06:45:31  5-MIN KMSN 071245Z 36010KT 10SM OVC046 05/02 A3022 580 79 -400 360/10 RMK AO2
14837KMSN MSN20051007065011310/07/05 06:50:31  5-MIN KMSN 071250Z 36011KT 10SM OVC046 04/02 A3023 580 82 -500 360/11 RMK AO2 SLP241 T00440017
14837KMSN MSN20051007065510610/07/05 06:55:31  5-MIN KMSN 071255Z 36010KT 10SM -RA OVC048 04/02 A3023 580 82 -500 360/10 RMK AO2 P0000
14837KMSN MSN20051007070010610/07/05 07:00:31  5-MIN KMSN 071300Z 36011KT 10SM -RA OVC048 04/02 A3023 580 82 -500 360/11 RMK AO2 P0000
14837KMSN MSN20051007070510810/07/05 07:05:31  5-MIN KMSN 071305Z 36009KT 10SM OVC048 04/02 A3023 580 82 -500 360/09 RMK AO2 RAE03 P0000
14837KMSN MSN20051007071011510/07/05 07:10:31  5-MIN KMSN 071310Z 36012KT 10SM FEW015 OVC050 04/02 A3023 580 82 -500 360/12 RMK AO2 RAE03 P0000
14837KMSN MSN20051007071511510/07/05 07:15:31  5-MIN KMSN 071315Z 36013KT 10SM FEW015 OVC048 04/02 A3023 580 82 -500 360/13 RMK AO2 RAE03 P0000
14837KMSN MSN20051007072011510/07/05 07:20:31  5-MIN KMSN 071320Z 36011KT 10SM FEW015 OVC048 04/02 A3023 580 82 -500 360/11 RMK AO2 RAE03 P0000
14837KMSN MSN20051007072511510/07/05 07:25:31  5-MIN KMSN 071325Z 01012KT 10SM FEW015 OVC048 04/02 A3024 570 82 -500 010/12 RMK AO2 RAE03 P0000
14837KMSN MSN20051007073011510/07/05 07:30:31  5-MIN KMSN 071330Z 01014KT 10SM FEW015 OVC048 05/02 A3024 570 79 -400 010/14 RMK AO2 RAE03 P0000
14837KMSN MSN20051007073511510/07/05 07:35:31  5-MIN KMSN 071335Z 01011KT 10SM BKN015 BKN048 05/02 A3024 570 79 -400 010/11 RMK AO2 RAE03 P0000
14837KMSN MSN20051007074011510/07/05 07:40:31  5-MIN KMSN 071340Z 36012KT 10SM BKN015 BKN048 05/02 A3024 570 79 -400 360/12 RMK AO2 RAE03 P0000
14837KMSN MSN20051007074511510/07/05 07:45:31  5-MIN KMSN 071345Z 36013KT 10SM BKN015 BKN048 05/02 A3024 570 79 -400 360/13 RMK AO2 RAE03 P0000
14837KMSN MSN20051007075013210/07/05 07:50:31  5-MIN KMSN 071350Z 36013KT 10SM BKN015 BKN048 05/02 A3024 570 79 -400 360/13 RMK AO2 RAE03 SLP245 P0000 T00500017
14837KMSN MSN20051007075510310/07/05 07:55:31  5-MIN KMSN 071355Z 36012KT 10SM BKN015 BKN050 05/02 A3024 570 79 -400 360/12 RMK AO2
14837KMSN MSN20051007080010310/07/05 08:00:31  5-MIN KMSN 071400Z 36010KT 10SM BKN015 BKN050 05/02 A3023 580 79 -400 350/10 RMK AO2
14837KMSN MSN20051007080510310/07/05 08:05:31  5-MIN KMSN 071405Z 36012KT 10SM BKN015 BKN050 05/02 A3023 580 79 -400 360/12 RMK AO2
14837KMSN MSN20051007081010310/07/05 08:10:31  5-MIN KMSN 071410Z 36013KT 10SM BKN015 BKN050 05/02 A3023 580 79 -400 360/13 RMK AO2
14837KMSN MSN20051007081510310/07/05 08:15:31  5-MIN KMSN 071415Z 01012KT 10SM BKN015 BKN050 05/01 A3023 580 76 -400 360/12 RMK AO2
14837KMSN MSN20051007082010310/07/05 08:20:31  5-MIN KMSN 071420Z 01013KT 10SM BKN015 BKN050 05/02 A3024 570 79 -400 010/13 RMK AO2
14837KMSN MSN20051007082510310/07/05 08:25:31  5-MIN KMSN 071425Z 02013KT 10SM SCT015 BKN050 05/02 A3024 570 79 -400 020/13 RMK AO2
14837KMSN MSN20051007083010310/07/05 08:30:31  5-MIN KMSN 071430Z 01011KT 10SM SCT015 BKN050 06/02 A3023 580 76 -300 010/11 RMK AO2
14837KMSN MSN20051007083510310/07/05 08:35:31  5-MIN KMSN 071435Z 01013KT 10SM SCT015 BKN050 06/02 A3023 580 76 -300 010/13 RMK AO2
14837KMSN MSN20051007084010310/07/05 08:40:31  5-MIN KMSN 071440Z 36013KT 10SM SCT015 BKN050 06/02 A3023 580 76 -300 360/13 RMK AO2
14837KMSN MSN20051007084510310/07/05 08:45:31  5-MIN KMSN 071445Z 36012KT 10SM SCT015 BKN050 06/02 A3023 580 76 -300 360/12 RMK AO2
14837KMSN MSN20051007085013210/07/05 08:50:31  5-MIN KMSN 071450Z 01011KT 10SM SCT015 BKN050 06/02 A3023 580 76 -300 360/11 RMK AO2 SLP244 60000 T00560017 53012
14837KMSN MSN20051007085510310/07/05 08:55:31  5-MIN KMSN 071455Z 36011KT 10SM SCT018 BKN050 06/02 A3023 580 76 -300 360/11 RMK AO2
14837KMSN MSN20051007090010310/07/05 09:00:31  5-MIN KMSN 071500Z 01011KT 10SM SCT018 BKN050 06/02 A3023 580 76 -300 010/11 RMK AO2
14837KMSN MSN20051007090510310/07/05 09:05:31  5-MIN KMSN 071505Z 35010KT 10SM SCT018 BKN050 07/02 A3023 580 73 -200 350/10 RMK AO2
14837KMSN MSN20051007091010310/07/05 09:10:31  5-MIN KMSN 071510Z 01013KT 10SM SCT018 BKN050 07/02 A3023 580 73 -200 010/13 RMK AO2
14837KMSN MSN20051007091510310/07/05 09:15:31  5-MIN KMSN 071515Z 36012KT 10SM SCT018 BKN050 07/02 A3023 580 73 -200 360/12 RMK AO2
14837KMSN MSN20051007092010310/07/05 09:20:31  5-MIN KMSN 071520Z 01009KT 10SM SCT018 BKN050 07/02 A3023 580 70 -100 010/09 RMK AO2
14837KMSN MSN20051007092510310/07/05 09:25:31  5-MIN KMSN 071525Z 02010KT 10SM SCT018 BKN050 08/03 A3022 590 70 -100 010/10 RMK AO2
14837KMSN MSN20051007093010310/07/05 09:30:31  5-MIN KMSN 071530Z 01013KT 10SM BKN018 BKN055 08/02 A3022 580 68 -100 010/13 RMK AO2
14837KMSN MSN20051007093510310/07/05 09:35:31  5-MIN KMSN 071535Z 35011KT 10SM BKN018 BKN055 07/02 A3022 590 70 -100 350/11 RMK AO2
14837KMSN MSN20051007094010010/07/05 09:40:31  5-MIN KMSN 071540Z 35011KT 10SM BKN018 BKN055 08/02 A3022 580 65 0 350/11 RMK AO2
14837KMSN MSN20051007094510310/07/05 09:45:31  5-MIN KMSN 071545Z 01009KT 10SM BKN018 BKN055 08/02 A3022 580 68 -100 010/09 RMK AO2
14837KMSN MSN20051007095012010/07/05 09:50:31  5-MIN KMSN 071550Z 36011KT 10SM BKN018 BKN055 08/02 A3022 580 68 -100 360/11 RMK AO2 SLP241 T00780022
14837KMSN MSN20051007095510310/07/05 09:55:31  5-MIN KMSN 071555Z 01011KT 10SM BKN020 BKN055 08/02 A3022 590 65 -100 010/11 RMK AO2
14837KMSN MSN20051007100010310/07/05 10:00:31  5-MIN KMSN 071600Z 01011KT 10SM BKN020 BKN055 07/02 A3022 590 70 -100 010/11 RMK AO2
14837KMSN MSN20051007100510010/07/05 10:05:31  5-MIN KMSN 071605Z 02008KT 10SM BKN020 BKN055 08/02 A3022 590 68 0 010/08 RMK AO2
14837KMSN MSN20051007101010010/07/05 10:10:31  5-MIN KMSN 071610Z 34010KT 10SM BKN020 BKN055 08/02 A3022 590 65 0 340/10 RMK AO2
14837KMSN MSN20051007101510010/07/05 10:15:31  5-MIN KMSN 071615Z 03010KT 10SM BKN020 BKN055 08/02 A3022 590 63 0 020/10 RMK AO2
14837KMSN MSN20051007102010010/07/05 10:20:31  5-MIN KMSN 071620Z 03012KT 10SM BKN025 BKN055 09/02 A3022 590 60 0 030/12 RMK AO2
14837KMSN MSN20051007102510010/07/05 10:25:31  5-MIN KMSN 071625Z 36012KT 10SM BKN025 BKN055 08/02 A3022 590 63 0 350/12 RMK AO2
14837KMSN MSN20051007103009310/07/05 10:30:31  5-MIN KMSN 071630Z 34010KT 10SM BKN027 09/02 A3022 590 63 0 340/10 RMK AO2
14837KMSN MSN20051007103509310/07/05 10:35:31  5-MIN KMSN 071635Z 35009KT 10SM SCT027 08/02 A3022 590 63 0 350/09 RMK AO2
14837KMSN MSN20051007104010010/07/05 10:40:31  5-MIN KMSN 071640Z 34012KT 10SM SCT027 BKN055 09/02 A3021 600 63 0 340/12 RMK AO2
14837KMSN MSN20051007104510010/07/05 10:45:31  5-MIN KMSN 071645Z 34011KT 10SM SCT027 BKN055 09/02 A3021 600 60 0 340/11 RMK AO2
14837KMSN MSN20051007105011710/07/05 10:50:31  5-MIN KMSN 071650Z 36012KT 10SM SCT027 BKN055 09/01 A3021 600 58 0 360/12 RMK AO2 SLP235 T00890011
14837KMSN MSN20051007105510210/07/05 10:55:31  5-MIN KMSN 071655Z VRB06KT 10SM SCT029 BKN055 09/02 A3021 600 60 100 VRB/06 RMK AO2
14837KMSN MSN20051007110010810/07/05 11:00:31  5-MIN KMSN 071700Z 34011G15KT 10SM SCT029 BKN055 09/02 A3021 600 58 100 340/11G15 RMK AO2
14837KMSN MSN20051007110509510/07/05 11:05:31  5-MIN KMSN 071705Z 34011KT 10SM SCT029 09/02 A3020 600 58 100 330/11 RMK AO2
14837KMSN MSN20051007111009510/07/05 11:10:31  5-MIN KMSN 071710Z 36011KT 10SM FEW029 09/01 A3020 610 56 100 360/11 RMK AO2
14837KMSN MSN20051007111509510/07/05 11:15:31  5-MIN KMSN 071715Z 36012KT 10SM SCT029 09/01 A3020 610 56 100 360/12 RMK AO2
14837KMSN MSN20051007112009510/07/05 11:20:31  5-MIN KMSN 071720Z 01013KT 10SM SCT029 10/01 A3020 610 54 200 010/13 RMK AO2
14837KMSN MSN20051007112509510/07/05 11:25:31  5-MIN KMSN 071725Z 35013KT 10SM SCT029 09/01 A3020 610 56 100 350/13 RMK AO2
14837KMSN MSN20051007113010210/07/05 11:30:31  5-MIN KMSN 071730Z 01012KT 10SM SCT031 BKN055 09/02 A3020 610 58 100 010/12 RMK AO2
14837KMSN MSN20051007113510210/07/05 11:35:31  5-MIN KMSN 071735Z 01014KT 10SM SCT031 BKN055 09/01 A3020 610 56 100 010/14 RMK AO2
14837KMSN MSN20051007114010210/07/05 11:40:31  5-MIN KMSN 071740Z 36013KT 10SM SCT031 BKN055 09/01 A3020 610 56 100 360/13 RMK AO2
14837KMSN MSN20051007114510210/07/05 11:45:31  5-MIN KMSN 071745Z 01011KT 10SM SCT031 BKN055 09/01 A3020 610 56 100 010/11 RMK AO2
14837KMSN MSN20051007115014310/07/05 11:50:31  5-MIN KMSN 071750Z 35011KT 10SM SCT031 BKN055 09/01 A3020 610 53 100 350/11 RMK AO2 SLP231 60000 T00940006 10100 20044 50007
14837KMSN MSN20051007115510810/07/05 11:55:31  5-MIN KMSN 071755Z 36010G17KT 10SM SCT032 BKN060 09/01 A3020 610 56 100 360/10G17 RMK AO2
14837KMSN MSN20051007120010810/07/05 12:00:31  5-MIN KMSN 071800Z 03014G17KT 10SM SCT032 BKN060 10/01 A3020 610 54 200 020/14G17 RMK AO2
14837KMSN MSN20051007120510210/07/05 12:05:31  5-MIN KMSN 071805Z 02015KT 10SM SCT032 BKN060 10/01 A3019 610 54 200 010/15 RMK AO2
14837KMSN MSN20051007121010210/07/05 12:10:31  5-MIN KMSN 071810Z 35011KT 10SM SCT032 BKN060 10/01 A3019 610 54 200 350/11 RMK AO2
14837KMSN MSN20051007121510210/07/05 12:15:31  5-MIN KMSN 071815Z 35011KT 10SM SCT032 BKN060 10/02 A3019 610 56 200 350/11 RMK AO2
14837KMSN MSN20051007122010210/07/05 12:20:31  5-MIN KMSN 071820Z 35014KT 10SM SCT032 BKN060 10/02 A3019 620 56 200 350/14 RMK AO2
14837KMSN MSN20051007122510210/07/05 12:25:31  5-MIN KMSN 071825Z 35009KT 10SM SCT032 BKN060 09/01 A3019 620 56 100 350/09 RMK AO2
14837KMSN MSN20051007123010210/07/05 12:30:31  5-MIN KMSN 071830Z 36013KT 10SM BKN035 OVC060 10/02 A3019 620 56 200 360/13 RMK AO2
14837KMSN MSN20051007123510210/07/05 12:35:31  5-MIN KMSN 071835Z 01013KT 10SM BKN035 BKN060 09/01 A3018 620 56 100 010/13 RMK AO2
14837KMSN MSN20051007124010210/07/05 12:40:31  5-MIN KMSN 071840Z 03012KT 10SM BKN035 BKN060 10/01 A3018 630 54 200 020/12 RMK AO2
14837KMSN MSN20051007124510810/07/05 12:45:31  5-MIN KMSN 071845Z 36014G19KT 10SM BKN035 BKN060 10/01 A3018 630 54 200 360/14G19 RMK AO2
14837KMSN MSN20051007125012510/07/05 12:50:31  5-MIN KMSN 071850Z 36015G19KT 10SM BKN037 BKN060 09/01 A3018 630 56 200 360/15G19 RMK AO2 SLP224 T00940011
14837KMSN MSN20051007125510210/07/05 12:55:31  5-MIN KMSN 071855Z 01010KT 10SM BKN037 OVC060 09/01 A3017 630 53 200 010/10 RMK AO2
14837KMSN MSN20051007130010210/07/05 13:00:31  5-MIN KMSN 071900Z 01009KT 10SM BKN037 OVC060 11/02 A3017 630 54 300 360/09 RMK AO2
14837KMSN MSN20051007130510810/07/05 13:05:31  5-MIN KMSN 071905Z 02015G19KT 10SM BKN037 OVC060 11/02 A3017 630 54 300 020/15G19 RMK AO2
14837KMSN MSN20051007131010210/07/05 13:10:31  5-MIN KMSN 071910Z 03013KT 10SM BKN037 BKN060 09/02 A3017 630 58 200 030/13 RMK AO2
14837KMSN MSN20051007131510210/07/05 13:15:31  5-MIN KMSN 071915Z 02012KT 10SM BKN037 BKN060 09/01 A3017 630 56 200 020/12 RMK AO2
14837KMSN MSN20051007132010210/07/05 13:20:31  5-MIN KMSN 071920Z 03013KT 10SM BKN037 BKN060 09/01 A3017 630 56 200 030/13 RMK AO2
14837KMSN MSN20051007132510810/07/05 13:25:31  5-MIN KMSN 071925Z 02013G19KT 10SM BKN037 BKN060 10/02 A3017 630 56 200 020/13G19 RMK AO2
14837KMSN MSN20051007133010210/07/05 13:30:31  5-MIN KMSN 071930Z 02013KT 10SM BKN037 BKN060 09/01 A3017 630 56 200 020/13 RMK AO2
14837KMSN MSN20051007133510210/07/05 13:35:31  5-MIN KMSN 071935Z 02014KT 10SM BKN037 BKN060 09/01 A3017 630 58 100 020/14 RMK AO2
14837KMSN MSN20051007134010210/07/05 13:40:31  5-MIN KMSN 071940Z 03012KT 10SM BKN037 BKN060 10/01 A3017 630 54 200 030/12 RMK AO2
14837KMSN MSN20051007134510210/07/05 13:45:31  5-MIN KMSN 071945Z 02012KT 10SM BKN037 BKN060 10/01 A3017 640 54 200 010/12 RMK AO2
14837KMSN MSN20051007135011910/07/05 13:50:31  5-MIN KMSN 071950Z 03013KT 10SM BKN037 BKN060 11/02 A3017 640 56 300 030/13 RMK AO2 SLP221 T01060022
14837KMSN MSN20051007135509510/07/05 13:55:31  5-MIN KMSN 071955Z 03013KT 10SM BKN035 09/02 A3017 640 58 200 030/13 RMK AO2
14837KMSN MSN20051007140009510/07/05 14:00:31  5-MIN KMSN 072000Z 04011KT 10SM BKN037 09/01 A3017 640 56 200 040/11 RMK AO2
14837KMSN MSN20051007140509510/07/05 14:05:31  5-MIN KMSN 072005Z 02014KT 10SM BKN037 11/02 A3016 640 54 300 020/14 RMK AO2
14837KMSN MSN20051007141009510/07/05 14:10:31  5-MIN KMSN 072010Z 02014KT 10SM BKN037 10/02 A3016 640 56 200 020/14 RMK AO2
14837KMSN MSN20051007141509510/07/05 14:15:31  5-MIN KMSN 072015Z 02013KT 10SM BKN037 10/01 A3017 640 54 200 020/13 RMK AO2
14837KMSN MSN20051007142009510/07/05 14:20:31  5-MIN KMSN 072020Z 36010KT 10SM SCT037 10/01 A3017 640 54 200 360/10 RMK AO2
14837KMSN MSN20051007142509510/07/05 14:25:31  5-MIN KMSN 072025Z 36012KT 10SM FEW037 11/01 A3017 640 52 300 360/12 RMK AO2
14837KMSN MSN20051007143009510/07/05 14:30:31  5-MIN KMSN 072030Z 01012KT 10SM FEW037 11/02 A3016 640 54 300 360/12 RMK AO2
14837KMSN MSN20051007143509510/07/05 14:35:31  5-MIN KMSN 072035Z 02016KT 10SM SCT037 11/02 A3016 640 54 300 020/16 RMK AO2
14837KMSN MSN20051007144010110/07/05 14:40:31  5-MIN KMSN 072040Z 01012G18KT 10SM SCT037 09/01 A3017 640 56 200 010/12G18 RMK AO2
14837KMSN MSN20051007144509510/07/05 14:45:31  5-MIN KMSN 072045Z 01010KT 10SM SCT037 09/01 A3017 640 58 100 010/10 RMK AO2
14837KMSN MSN20051007145011810/07/05 14:50:31  5-MIN KMSN 072050Z 02007KT 10SM SCT037 09/01 A3017 640 58 100 020/07 RMK AO2 SLP221 T00890011 58012
14837KMSN MSN20051007145510210/07/05 14:55:31  5-MIN KMSN 072055Z 01008KT 10SM SCT037 SCT060 10/01 A3016 640 54 200 010/08 RMK AO2
14837KMSN MSN20051007150010110/07/05 15:00:31  5-MIN KMSN 072100Z 02015G19KT 10SM BKN037 10/02 A3017 640 56 200 020/15G19 RMK AO2
14837KMSN MSN20051007150510810/07/05 15:05:31  5-MIN KMSN 072105Z 02010G19KT 10SM BKN039 BKN060 09/01 A3017 640 56 200 020/10G19 RMK AO2
14837KMSN MSN20051007151010210/07/05 15:10:31  5-MIN KMSN 072110Z 03008KT 10SM BKN041 BKN060 09/01 A3017 640 56 200 020/08 RMK AO2
14837KMSN MSN20051007151509510/07/05 15:15:31  5-MIN KMSN 072115Z 01008KT 10SM BKN040 10/01 A3017 640 54 200 010/08 RMK AO2
14837KMSN MSN20051007152010110/07/05 15:20:31  5-MIN KMSN 072120Z 02013G17KT 10SM BKN040 10/02 A3017 630 56 200 020/13G17 RMK AO2
14837KMSN MSN20051007152510110/07/05 15:25:31  5-MIN KMSN 072125Z 02013G17KT 10SM OVC040 09/02 A3017 630 58 200 020/13G17 RMK AO2
14837KMSN MSN20051007153009510/07/05 15:30:31  5-MIN KMSN 072130Z 02014KT 10SM OVC040 09/02 A3017 630 60 100 020/14 RMK AO2
14837KMSN MSN20051007153509510/07/05 15:35:31  5-MIN KMSN 072135Z 02014KT 10SM BKN038 09/02 A3017 630 60 100 020/14 RMK AO2
14837KMSN MSN20051007154009510/07/05 15:40:31  5-MIN KMSN 072140Z 01012KT 10SM OVC038 09/01 A3018 630 58 100 010/12 RMK AO2
14837KMSN MSN20051007154509510/07/05 15:45:31  5-MIN KMSN 072145Z 02012KT 10SM OVC038 09/01 A3018 630 58 100 020/12 RMK AO2
14837KMSN MSN20051007155011910/07/05 15:50:31  5-MIN KMSN 072150Z 02010KT 10SM BKN038 OVC060 09/01 A3018 630 58 100 010/10 RMK AO2 SLP223 T00890011
14837KMSN MSN20051007155510210/07/05 15:55:31  5-MIN KMSN 072155Z 02011KT 10SM BKN038 OVC060 09/01 A3018 630 58 100 020/11 RMK AO2
14837KMSN MSN20051007160010210/07/05 16:00:31  5-MIN KMSN 072200Z 02009KT 10SM BKN038 OVC060 09/01 A3018 630 58 100 020/09 RMK AO2
14837KMSN MSN20051007160510210/07/05 16:05:31  5-MIN KMSN 072205Z 03012KT 10SM BKN038 OVC060 09/02 A3018 630 60 100 030/12 RMK AO2
14837KMSN MSN20051007161010210/07/05 16:10:31  5-MIN KMSN 072210Z 02013KT 10SM BKN038 OVC060 09/02 A3018 630 60 100 020/13 RMK AO2
14837KMSN MSN20051007161510210/07/05 16:15:31  5-MIN KMSN 072215Z 03012KT 10SM BKN038 OVC060 09/02 A3018 630 60 100 030/12 RMK AO2
14837KMSN MSN20051007162010210/07/05 16:20:31  5-MIN KMSN 072220Z 02014KT 10SM BKN038 OVC060 09/02 A3018 630 60 100 020/14 RMK AO2
14837KMSN MSN20051007162510210/07/05 16:25:31  5-MIN KMSN 072225Z 03012KT 10SM BKN038 OVC060 09/02 A3018 630 60 100 030/12 RMK AO2
14837KMSN MSN20051007163010210/07/05 16:30:31  5-MIN KMSN 072230Z 01012KT 10SM BKN040 OVC060 09/02 A3018 630 60 100 010/12 RMK AO2
14837KMSN MSN20051007163510210/07/05 16:35:31  5-MIN KMSN 072235Z 02010KT 10SM BKN040 OVC060 09/02 A3018 630 60 100 020/10 RMK AO2
14837KMSN MSN20051007164010210/07/05 16:40:31  5-MIN KMSN 072240Z 02012KT 10SM BKN040 OVC060 09/02 A3018 630 60 100 020/12 RMK AO2
14837KMSN MSN20051007164510210/07/05 16:45:31  5-MIN KMSN 072245Z 02012KT 10SM BKN040 OVC060 09/01 A3018 630 58 100 020/12 RMK AO2
14837KMSN MSN20051007165011710/07/05 16:50:31  5-MIN KMSN 072250Z 02011KT 10SM BKN040 OVC060 08/01 A3018 630 60 0 020/11 RMK AO2 SLP226 T00830011
14837KMSN MSN20051007165509310/07/05 16:55:31  5-MIN KMSN 072255Z 01010KT 10SM OVC040 08/01 A3018 630 60 0 010/10 RMK AO2
14837KMSN MSN20051007170009310/07/05 17:00:31  5-MIN KMSN 072300Z 03009KT 10SM OVC040 08/01 A3018 630 60 0 020/09 RMK AO2
14837KMSN MSN20051007170509310/07/05 17:05:31  5-MIN KMSN 072305Z 03008KT 10SM OVC040 08/01 A3018 630 60 0 030/08 RMK AO2
14837KMSN MSN20051007171009310/07/05 17:10:31  5-MIN KMSN 072310Z 03010KT 10SM OVC040 08/01 A3018 630 60 0 030/10 RMK AO2
14837KMSN MSN20051007171509310/07/05 17:15:31  5-MIN KMSN 072315Z 03008KT 10SM OVC040 08/01 A3018 630 60 0 030/08 RMK AO2
14837KMSN MSN20051007172009310/07/05 17:20:31  5-MIN KMSN 072320Z 04008KT 10SM OVC040 08/02 A3018 630 63 0 040/08 RMK AO2
14837KMSN MSN20051007172509310/07/05 17:25:31  5-MIN KMSN 072325Z 03008KT 10SM OVC038 08/02 A3018 630 63 0 030/08 RMK AO2
14837KMSN MSN20051007173009310/07/05 17:30:31  5-MIN KMSN 072330Z 04012KT 10SM OVC038 08/01 A3018 630 60 0 040/12 RMK AO2
14837KMSN MSN20051007173509310/07/05 17:35:31  5-MIN KMSN 072335Z 03010KT 10SM OVC038 08/01 A3018 630 60 0 030/10 RMK AO2
14837KMSN MSN20051007174009310/07/05 17:40:31  5-MIN KMSN 072340Z 03010KT 10SM OVC040 08/01 A3018 630 60 0 030/10 RMK AO2
14837KMSN MSN20051007174509310/07/05 17:45:31  5-MIN KMSN 072345Z 04009KT 10SM OVC040 08/01 A3018 630 60 0 030/09 RMK AO2
14837KMSN MSN20051007175012810/07/05 17:50:31  5-MIN KMSN 072350Z 05010KT 10SM OVC042 08/01 A3018 630 60 0 040/10 RMK AO2 SLP225 T00830011 10111 20083 56010
14837KMSN MSN20051007175509310/07/05 17:55:31  5-MIN KMSN 072355Z 03010KT 10SM OVC042 08/01 A3018 630 60 0 030/10 RMK AO2
14837KMSN MSN20051007180009310/07/05 18:00:31  5-MIN KMSN 080000Z 04011KT 10SM OVC042 08/01 A3018 630 60 0 040/11 RMK AO2
14837KMSN MSN20051007180509310/07/05 18:05:31  5-MIN KMSN 080005Z 03009KT 10SM OVC044 08/01 A3018 630 62 0 030/09 RMK AO2
14837KMSN MSN20051007181009310/07/05 18:10:31  5-MIN KMSN 080010Z 03010KT 10SM OVC044 08/01 A3018 620 62 0 030/10 RMK AO2
14837KMSN MSN20051007181509310/07/05 18:15:31  5-MIN KMSN 080015Z 04007KT 10SM OVC044 08/01 A3018 620 62 0 030/07 RMK AO2
14837KMSN MSN20051007182009310/07/05 18:20:31  5-MIN KMSN 080020Z 03009KT 10SM OVC044 08/01 A3018 620 62 0 030/09 RMK AO2
14837KMSN MSN20051007182509310/07/05 18:25:31  5-MIN KMSN 080025Z 03006KT 10SM OVC044 08/01 A3018 620 62 0 030/06 RMK AO2
14837KMSN MSN20051007183009310/07/05 18:30:31  5-MIN KMSN 080030Z 04010KT 10SM OVC044 08/01 A3018 620 62 0 040/10 RMK AO2
14837KMSN MSN20051007183509310/07/05 18:35:31  5-MIN KMSN 080035Z 04010KT 10SM OVC044 08/01 A3018 620 62 0 040/10 RMK AO2
14837KMSN MSN20051007184009310/07/05 18:40:31  5-MIN KMSN 080040Z 04008KT 10SM OVC044 08/01 A3019 620 62 0 040/08 RMK AO2
14837KMSN MSN20051007184509310/07/05 18:45:31  5-MIN KMSN 080045Z 04009KT 10SM OVC044 08/01 A3018 620 62 0 040/09 RMK AO2
14837KMSN MSN20051007185011010/07/05 18:50:31  5-MIN KMSN 080050Z 03007KT 10SM OVC044 08/01 A3019 620 62 0 030/07 RMK AO2 SLP228 T00780011
14837KMSN MSN20051007185509310/07/05 18:55:31  5-MIN KMSN 080055Z 04008KT 10SM OVC044 08/01 A3019 620 62 0 040/08 RMK AO2
14837KMSN MSN20051007190009310/07/05 19:00:31  5-MIN KMSN 080100Z 05007KT 10SM OVC044 08/01 A3019 620 62 0 040/07 RMK AO2
14837KMSN MSN20051007190509310/07/05 19:05:31  5-MIN KMSN 080105Z 05008KT 10SM OVC046 08/01 A3019 620 62 0 050/08 RMK AO2
14837KMSN MSN20051007191009610/07/05 19:10:31  5-MIN KMSN 080110Z 05009KT 10SM OVC046 07/02 A3019 620 68 -100 050/09 RMK AO2
14837KMSN MSN20051007191509610/07/05 19:15:31  5-MIN KMSN 080115Z 04009KT 10SM OVC046 07/01 A3019 620 65 -100 040/09 RMK AO2
14837KMSN MSN20051007192009610/07/05 19:20:31  5-MIN KMSN 080120Z 04010KT 10SM OVC046 07/01 A3019 620 62 -100 040/10 RMK AO2
14837KMSN MSN20051007192509610/07/05 19:25:31  5-MIN KMSN 080125Z 05010KT 10SM OVC046 07/01 A3018 620 62 -100 040/10 RMK AO2
14837KMSN MSN20051007193009610/07/05 19:30:31  5-MIN KMSN 080130Z 04010KT 10SM OVC046 07/01 A3019 620 62 -100 040/10 RMK AO2
14837KMSN MSN20051007193509610/07/05 19:35:31  5-MIN KMSN 080135Z 05008KT 10SM OVC046 07/01 A3019 620 62 -100 040/08 RMK AO2
14837KMSN MSN20051007194009610/07/05 19:40:31  5-MIN KMSN 080140Z 05009KT 10SM OVC046 07/01 A3019 620 62 -100 050/09 RMK AO2
14837KMSN MSN20051007194509610/07/05 19:45:31  5-MIN KMSN 080145Z 05009KT 10SM OVC046 07/01 A3019 620 62 -100 050/09 RMK AO2
14837KMSN MSN20051007195011310/07/05 19:50:31  5-MIN KMSN 080150Z 05011KT 10SM OVC046 07/00 A3019 620 60 -100 050/11 RMK AO2 SLP228 T00720000
14837KMSN MSN20051007195509610/07/05 19:55:31  5-MIN KMSN 080155Z 05008KT 10SM OVC046 07/00 A3019 620 60 -100 050/08 RMK AO2
14837KMSN MSN20051007200009610/07/05 20:00:31  5-MIN KMSN 080200Z 05010KT 10SM OVC046 07/00 A3019 620 60 -100 050/10 RMK AO2
14837KMSN MSN20051007200509610/07/05 20:05:31  5-MIN KMSN 080205Z 04009KT 10SM OVC046 07/01 A3019 620 65 -100 040/09 RMK AO2
14837KMSN MSN20051007201009610/07/05 20:10:31  5-MIN KMSN 080210Z 05010KT 10SM OVC046 07/00 A3019 620 60 -100 050/10 RMK AO2
14837KMSN MSN20051007201509610/07/05 20:15:31  5-MIN KMSN 080215Z 05010KT 10SM OVC046 07/01 A3019 620 65 -200 050/10 RMK AO2
14837KMSN MSN20051007202009610/07/05 20:20:31  5-MIN KMSN 080220Z 05010KT 10SM OVC046 07/01 A3019 620 65 -100 050/10 RMK AO2
14837KMSN MSN20051007202509610/07/05 20:25:31  5-MIN KMSN 080225Z 05009KT 10SM OVC044 07/01 A3019 620 65 -100 050/09 RMK AO2
14837KMSN MSN20051007203009610/07/05 20:30:31  5-MIN KMSN 080230Z 05009KT 10SM OVC044 07/01 A3019 620 65 -100 050/09 RMK AO2
14837KMSN MSN20051007203509610/07/05 20:35:31  5-MIN KMSN 080235Z 05011KT 10SM OVC044 07/01 A3019 620 65 -100 050/11 RMK AO2
14837KMSN MSN20051007204009610/07/05 20:40:31  5-MIN KMSN 080240Z 05009KT 10SM OVC044 07/01 A3019 620 65 -100 050/09 RMK AO2
14837KMSN MSN20051007204509610/07/05 20:45:31  5-MIN KMSN 080245Z 05010KT 10SM OVC044 07/01 A3019 620 65 -100 050/10 RMK AO2
14837KMSN MSN20051007205011910/07/05 20:50:31  5-MIN KMSN 080250Z 05011KT 10SM OVC044 07/01 A3019 620 65 -100 050/11 RMK AO2 SLP228 T00670006 50004
14837KMSN MSN20051007205509610/07/05 20:55:31  5-MIN KMSN 080255Z 06011KT 10SM OVC044 07/01 A3019 620 65 -100 060/11 RMK AO2
14837KMSN MSN20051007210009610/07/05 21:00:31  5-MIN KMSN 080300Z 06011KT 10SM OVC044 07/00 A3019 620 62 -100 050/11 RMK AO2
14837KMSN MSN20051007210509610/07/05 21:05:31  5-MIN KMSN 080305Z 05012KT 10SM OVC044 07/00 A3019 620 62 -100 050/12 RMK AO2
14837KMSN MSN20051007211009610/07/05 21:10:31  5-MIN KMSN 080310Z 06009KT 10SM OVC044 07/00 A3019 620 62 -200 060/09 RMK AO2
14837KMSN MSN20051007211509610/07/05 21:15:31  5-MIN KMSN 080315Z 06010KT 10SM BKN044 06/00 A3019 620 65 -200 050/10 RMK AO2
14837KMSN MSN20051007212009610/07/05 21:20:31  5-MIN KMSN 080320Z 06007KT 10SM BKN044 06/00 A3019 620 67 -300 060/07 RMK AO2
14837KMSN MSN20051007212509610/07/05 21:25:31  5-MIN KMSN 080325Z 06008KT 10SM SCT044 06/00 A3019 620 67 -300 060/08 RMK AO2
14837KMSN MSN20051007213009610/07/05 21:30:31  5-MIN KMSN 080330Z 06007KT 10SM SCT044 05/00 A3019 620 70 -400 060/07 RMK AO2
14837KMSN MSN20051007213509610/07/05 21:35:31  5-MIN KMSN 080335Z 05005KT 10SM FEW044 04/00 A3019 620 73 -400 050/05 RMK AO2
14837KMSN MSN20051007214009310/07/05 21:40:31  5-MIN KMSN 080340Z 05006KT 10SM CLR 04/00 A3019 620 73 -400 050/06 RMK AO2
14837KMSN MSN20051007214509410/07/05 21:45:31  5-MIN KMSN 080345Z 04006KT 10SM CLR 04/M01 A3019 620 73 -500 040/06 RMK AO2
14837KMSN MSN20051007215011110/07/05 21:50:31  5-MIN KMSN 080350Z 03005KT 10SM CLR 04/M01 A3019 620 73 -500 020/05 RMK AO2 SLP228 T00391006
14837KMSN MSN20051007215509410/07/05 21:55:31  5-MIN KMSN 080355Z 03005KT 10SM CLR 04/M01 A3018 620 73 -500 030/05 RMK AO2
14837KMSN MSN20051007220009410/07/05 22:00:31  5-MIN KMSN 080400Z 03005KT 10SM CLR 04/M01 A3018 620 73 -500 030/05 RMK AO2
14837KMSN MSN20051007220509310/07/05 22:05:31  5-MIN KMSN 080405Z 03005KT 10SM CLR 04/00 A3018 620 76 -500 030/05 RMK AO2
14837KMSN MSN20051007221009310/07/05 22:10:31  5-MIN KMSN 080410Z 03005KT 10SM CLR 04/00 A3018 620 76 -500 030/05 RMK AO2
14837KMSN MSN20051007221509310/07/05 22:15:31  5-MIN KMSN 080415Z 02005KT 10SM CLR 04/00 A3018 620 76 -500 020/05 RMK AO2
14837KMSN MSN20051007222009410/07/05 22:20:31  5-MIN KMSN 080420Z 36004KT 10SM CLR 03/M01 A3018 620 76 -600 360/04 RMK AO2
14837KMSN MSN20051007222509310/07/05 22:25:31  5-MIN KMSN 080425Z 35004KT 10SM CLR 04/00 A3018 620 76 -500 350/04 RMK AO2
14837KMSN MSN20051007223009310/07/05 22:30:31  5-MIN KMSN 080430Z 34004KT 10SM CLR 04/00 A3018 620 76 -500 340/04 RMK AO2
14837KMSN MSN20051007223509310/07/05 22:35:31  5-MIN KMSN 080435Z 34004KT 10SM CLR 04/00 A3018 620 76 -500 340/04 RMK AO2
14837KMSN MSN20051007224009310/07/05 22:40:31  5-MIN KMSN 080440Z 34005KT 10SM CLR 03/00 A3018 620 79 -600 340/05 RMK AO2
14837KMSN MSN20051007224509310/07/05 22:45:31  5-MIN KMSN 080445Z 34005KT 10SM CLR 03/00 A3018 620 79 -600 330/05 RMK AO2
14837KMSN MSN20051007225011010/07/05 22:50:31  5-MIN KMSN 080450Z 33005KT 10SM CLR 03/00 A3018 620 79 -600 330/05 RMK AO2 SLP227 T00330000
14837KMSN MSN20051007225509310/07/05 22:55:31  5-MIN KMSN 080455Z 33005KT 10SM CLR 03/00 A3018 620 79 -600 330/05 RMK AO2
14837KMSN MSN20051007230009310/07/05 23:00:31  5-MIN KMSN 080500Z 34005KT 10SM CLR 03/00 A3018 620 79 -600 340/05 RMK AO2
14837KMSN MSN20051007230509310/07/05 23:05:31  5-MIN KMSN 080505Z 34005KT 10SM CLR 03/00 A3018 620 79 -600 340/05 RMK AO2
14837KMSN MSN20051007231009310/07/05 23:10:31  5-MIN KMSN 080510Z 34004KT 10SM CLR 03/00 A3018 620 79 -600 340/04 RMK AO2
14837KMSN MSN20051007231509310/07/05 23:15:31  5-MIN KMSN 080515Z 34004KT 10SM CLR 03/00 A3018 620 79 -600 340/04 RMK AO2
14837KMSN MSN20051007232009310/07/05 23:20:31  5-MIN KMSN 080520Z 34004KT 10SM CLR 03/00 A3018 620 82 -600 340/04 RMK AO2
14837KMSN MSN20051007232509310/07/05 23:25:31  5-MIN KMSN 080525Z 34005KT 10SM CLR 03/00 A3018 630 82 -600 340/05 RMK AO2
14837KMSN MSN20051007233009610/07/05 23:30:31  5-MIN KMSN 080530Z 35005KT 10SM FEW040 03/00 A3018 630 82 -600 350/05 RMK AO2
14837KMSN MSN20051007233509610/07/05 23:35:31  5-MIN KMSN 080535Z 34005KT 10SM FEW040 03/00 A3018 630 82 -600 340/05 RMK AO2
14837KMSN MSN20051007234009610/07/05 23:40:31  5-MIN KMSN 080540Z 34005KT 10SM FEW040 03/00 A3018 630 82 -600 340/05 RMK AO2
14837KMSN MSN20051007234509610/07/05 23:45:31  5-MIN KMSN 080545Z 34006KT 10SM FEW040 03/00 A3018 630 82 -600 340/06 RMK AO2
14837KMSN MSN20051007235014110/07/05 23:50:31  5-MIN KMSN 080550Z 34006KT 10SM SCT040 03/00 A3018 630 82 -600 340/06 RMK AO2 SLP225 T00280000 10083 20028 401110028 51003
14837KMSN MSN20051007235509610/07/05 23:55:31  5-MIN KMSN 080555Z 35006KT 10SM SCT040 03/01 A3018 630 82 -500 340/06 RMK AO2
14837KMSN MSN20051008000009610/08/05 00:00:38  5-MIN KMSN 080600Z 35006KT 10SM SCT040 03/01 A3018 630 85 -600 340/06 RMK AO2
14837KMSN MSN20051008000509610/08/05 00:05:31  5-MIN KMSN 080605Z 35006KT 10SM SCT040 03/01 A3018 630 85 -600 350/06 RMK AO2
14837KMSN MSN20051008001009610/08/05 00:10:31  5-MIN KMSN 080610Z 34006KT 10SM SCT040 03/01 A3017 630 85 -600 340/06 RMK AO2
14837KMSN MSN20051008001509610/08/05 00:15:32  5-MIN KMSN 080615Z 34006KT 10SM SCT040 03/01 A3017 630 85 -600 340/06 RMK AO2
14837KMSN MSN20051008002009610/08/05 00:20:31  5-MIN KMSN 080620Z 34006KT 10SM FEW040 03/01 A3017 630 85 -600 340/06 RMK AO2
14837KMSN MSN20051008002509610/08/05 00:25:31  5-MIN KMSN 080625Z 35006KT 10SM FEW040 03/01 A3017 630 85 -600 350/06 RMK AO2
14837KMSN MSN20051008003009610/08/05 00:30:31  5-MIN KMSN 080630Z 35006KT 10SM FEW040 03/01 A3017 630 85 -600 350/06 RMK AO2
14837KMSN MSN20051008003509310/08/05 00:35:31  5-MIN KMSN 080635Z 36005KT 10SM CLR 03/01 A3017 640 85 -600 350/05 RMK AO2
14837KMSN MSN20051008004009310/08/05 00:40:31  5-MIN KMSN 080640Z 36006KT 10SM CLR 02/01 A3017 640 89 -700 360/06 RMK AO2
14837KMSN MSN20051008004509310/08/05 00:45:31  5-MIN KMSN 080645Z 01006KT 10SM CLR 02/01 A3017 640 89 -700 010/06 RMK AO2
14837KMSN MSN20051008005011310/08/05 00:50:31  5-MIN KMSN 080650Z 01006KT 10SM FEW040 02/01 A3017 640 89 -700 010/06 RMK AO2 SLP221 T00220006
14837KMSN MSN20051008005509310/08/05 00:55:31  5-MIN KMSN 080655Z 01007KT 10SM CLR 02/01 A3017 640 89 -700 010/07 RMK AO2
14837KMSN MSN20051008010009310/08/05 01:00:31  5-MIN KMSN 080700Z 36006KT 10SM CLR 03/01 A3017 630 85 -600 360/06 RMK AO2
14837KMSN MSN20051008010509310/08/05 01:05:31  5-MIN KMSN 080705Z 35006KT 10SM CLR 03/01 A3017 630 85 -600 350/06 RMK AO2
14837KMSN MSN20051008011009310/08/05 01:10:31  5-MIN KMSN 080710Z 35005KT 10SM CLR 03/01 A3017 630 85 -600 350/05 RMK AO2
14837KMSN MSN20051008011509310/08/05 01:15:31  5-MIN KMSN 080715Z 36006KT 10SM CLR 03/01 A3017 630 85 -600 350/06 RMK AO2
14837KMSN MSN20051008012009310/08/05 01:20:31  5-MIN KMSN 080720Z 35006KT 10SM CLR 03/01 A3017 630 85 -600 350/06 RMK AO2
14837KMSN MSN20051008012509310/08/05 01:25:31  5-MIN KMSN 080725Z 36006KT 10SM CLR 03/01 A3017 630 89 -600 360/06 RMK AO2
14837KMSN MSN20051008013009310/08/05 01:30:31  5-MIN KMSN 080730Z 36005KT 10SM CLR 02/01 A3017 630 89 -700 350/05 RMK AO2
14837KMSN MSN20051008013509310/08/05 01:35:31  5-MIN KMSN 080735Z 35005KT 10SM CLR 02/01 A3017 630 92 -700 350/05 RMK AO2
14837KMSN MSN20051008014009310/08/05 01:40:31  5-MIN KMSN 080740Z 35005KT 10SM CLR 02/01 A3017 630 92 -700 350/05 RMK AO2
14837KMSN MSN20051008014509310/08/05 01:45:31  5-MIN KMSN 080745Z 35004KT 10SM CLR 03/01 A3017 630 89 -600 350/04 RMK AO2
14837KMSN MSN20051008015011310/08/05 01:50:31  5-MIN KMSN 080750Z 35004KT 10SM FEW040 03/01 A3017 630 89 -600 350/04 RMK AO2 SLP223 T00280011
14837KMSN MSN20051008015509310/08/05 01:55:31  5-MIN KMSN 080755Z 35004KT 10SM CLR 03/01 A3017 640 89 -600 350/04 RMK AO2
14837KMSN MSN20051008020009310/08/05 02:00:31  5-MIN KMSN 080800Z 35004KT 10SM CLR 03/01 A3017 640 89 -600 350/04 RMK AO2
14837KMSN MSN20051008020509310/08/05 02:05:31  5-MIN KMSN 080805Z 36005KT 10SM CLR 02/01 A3017 640 92 -700 350/05 RMK AO2
14837KMSN MSN20051008021009310/08/05 02:10:31  5-MIN KMSN 080810Z 35006KT 10SM CLR 03/01 A3017 640 89 -600 350/06 RMK AO2
14837KMSN MSN20051008021509310/08/05 02:15:31  5-MIN KMSN 080815Z 36005KT 10SM CLR 02/01 A3017 640 92 -700 360/05 RMK AO2
14837KMSN MSN20051008022009310/08/05 02:20:31  5-MIN KMSN 080820Z 01005KT 10SM CLR 02/01 A3016 640 89 -700 360/05 RMK AO2
14837KMSN MSN20051008022509310/08/05 02:25:31  5-MIN KMSN 080825Z 01006KT 10SM CLR 02/01 A3016 640 89 -700 010/06 RMK AO2
14837KMSN MSN20051008023009310/08/05 02:30:31  5-MIN KMSN 080830Z 01005KT 10SM CLR 02/01 A3016 640 89 -700 010/05 RMK AO2
14837KMSN MSN20051008023509310/08/05 02:35:31  5-MIN KMSN 080835Z 01006KT 10SM CLR 02/01 A3016 640 89 -700 010/06 RMK AO2
14837KMSN MSN20051008024009310/08/05 02:40:31  5-MIN KMSN 080840Z 01005KT 10SM CLR 02/01 A3017 640 89 -700 010/05 RMK AO2
14837KMSN MSN20051008024509310/08/05 02:45:31  5-MIN KMSN 080845Z 01005KT 10SM CLR 02/01 A3017 640 89 -700 360/05 RMK AO2
14837KMSN MSN20051008025011910/08/05 02:50:31  5-MIN KMSN 080850Z 36008KT 10SM SCT038 02/01 A3017 630 92 -700 360/08 RMK AO2 SLP222 T00220011 58003
14837KMSN MSN20051008025509610/08/05 02:55:31  5-MIN KMSN 080855Z 36006KT 10SM SCT038 03/01 A3017 630 89 -600 350/06 RMK AO2
14837KMSN MSN20051008030009610/08/05 03:00:31  5-MIN KMSN 080900Z 36006KT 10SM SCT038 03/01 A3017 630 89 -600 360/06 RMK AO2
14837KMSN MSN20051008030509610/08/05 03:05:31  5-MIN KMSN 080905Z 36007KT 10SM BKN038 03/01 A3017 630 89 -600 360/07 RMK AO2
14837KMSN MSN20051008031009610/08/05 03:10:31  5-MIN KMSN 080910Z 01008KT 10SM BKN038 03/02 A3017 630 89 -500 010/08 RMK AO2
14837KMSN MSN20051008031509610/08/05 03:15:31  5-MIN KMSN 080915Z 01008KT 10SM OVC038 03/02 A3017 630 89 -500 360/08 RMK AO2
14837KMSN MSN20051008032009610/08/05 03:20:31  5-MIN KMSN 080920Z 36006KT 10SM OVC038 03/02 A3017 630 89 -500 360/06 RMK AO2
14837KMSN MSN20051008032509610/08/05 03:25:31  5-MIN KMSN 080925Z 36008KT 10SM OVC038 04/02 A3017 630 85 -500 360/08 RMK AO2
14837KMSN MSN20051008033009610/08/05 03:30:31  5-MIN KMSN 080930Z 01007KT 10SM OVC038 04/02 A3017 630 85 -500 010/07 RMK AO2
14837KMSN MSN20051008033509610/08/05 03:35:31  5-MIN KMSN 080935Z 01006KT 10SM OVC038 04/02 A3017 630 85 -500 010/06 RMK AO2
14837KMSN MSN20051008034009610/08/05 03:40:31  5-MIN KMSN 080940Z 01007KT 10SM OVC038 04/02 A3017 630 89 -500 010/07 RMK AO2
14837KMSN MSN20051008034509610/08/05 03:45:31  5-MIN KMSN 080945Z 01006KT 10SM OVC038 04/02 A3017 630 89 -500 010/06 RMK AO2
14837KMSN MSN20051008035011310/08/05 03:50:31  5-MIN KMSN 080950Z 36006KT 10SM BKN038 04/02 A3017 630 89 -500 360/06 RMK AO2 SLP224 T00390022
14837KMSN MSN20051008035509610/08/05 03:55:31  5-MIN KMSN 080955Z 36006KT 10SM OVC038 04/02 A3017 630 89 -500 360/06 RMK AO2
14837KMSN MSN20051008040009610/08/05 04:00:31  5-MIN KMSN 081000Z 36006KT 10SM OVC038 04/02 A3017 630 89 -500 360/06 RMK AO2
14837KMSN MSN20051008040509610/08/05 04:05:31  5-MIN KMSN 081005Z 36006KT 10SM OVC038 04/02 A3017 630 89 -500 360/06 RMK AO2
14837KMSN MSN20051008041009610/08/05 04:10:31  5-MIN KMSN 081010Z 36006KT 10SM OVC038 04/02 A3017 630 89 -500 360/06 RMK AO2
14837KMSN MSN20051008041509610/08/05 04:15:31  5-MIN KMSN 081015Z 01007KT 10SM OVC038 04/02 A3018 630 89 -500 010/07 RMK AO2
14837KMSN MSN20051008042009610/08/05 04:20:31  5-MIN KMSN 081020Z 02008KT 10SM OVC038 04/02 A3018 630 89 -500 010/08 RMK AO2
14837KMSN MSN20051008042509610/08/05 04:25:31  5-MIN KMSN 081025Z 01007KT 10SM OVC038 04/02 A3018 630 85 -400 010/07 RMK AO2
14837KMSN MSN20051008043009610/08/05 04:30:31  5-MIN KMSN 081030Z 02008KT 10SM OVC038 04/02 A3018 620 85 -400 020/08 RMK AO2
14837KMSN MSN20051008043509610/08/05 04:35:31  5-MIN KMSN 081035Z 02007KT 10SM OVC038 04/02 A3018 620 85 -400 020/07 RMK AO2
14837KMSN MSN20051008044009610/08/05 04:40:31  5-MIN KMSN 081040Z 02007KT 10SM OVC038 04/02 A3018 620 85 -400 020/07 RMK AO2
14837KMSN MSN20051008044509610/08/05 04:45:31  5-MIN KMSN 081045Z 02008KT 10SM OVC038 04/02 A3018 620 85 -400 020/08 RMK AO2
14837KMSN MSN20051008045011310/08/05 04:50:31  5-MIN KMSN 081050Z 02008KT 10SM BKN038 04/02 A3019 620 85 -400 010/08 RMK AO2 SLP228 T00440022
14837KMSN MSN20051008045509610/08/05 04:55:31  5-MIN KMSN 081055Z 02006KT 10SM OVC038 04/02 A3019 620 85 -400 020/06 RMK AO2
14837KMSN MSN20051008051009610/08/05 05:10:31  5-MIN KMSN 081110Z 02007KT 10SM OVC038 04/03 A3019 620 89 -400 020/07 RMK AO2
14837KMSN MSN20051008051509610/08/05 05:15:31  5-MIN KMSN 081115Z 01008KT 10SM OVC038 04/03 A3019 620 89 -400 010/08 RMK AO2
14837KMSN MSN20051008052009610/08/05 05:20:31  5-MIN KMSN 081120Z 01007KT 10SM OVC038 04/03 A3019 610 89 -400 010/07 RMK AO2
14837KMSN MSN20051008052509610/08/05 05:25:31  5-MIN KMSN 081125Z 01008KT 10SM OVC038 04/03 A3019 610 89 -400 010/08 RMK AO2
14837KMSN MSN20051008053009610/08/05 05:30:31  5-MIN KMSN 081130Z 01008KT 10SM OVC036 04/03 A3019 610 89 -400 010/08 RMK AO2
14837KMSN MSN20051008053509610/08/05 05:35:31  5-MIN KMSN 081135Z 36006KT 10SM OVC036 04/03 A3019 610 89 -400 360/06 RMK AO2
14837KMSN MSN20051008054009610/08/05 05:40:31  5-MIN KMSN 081140Z 36006KT 10SM OVC036 04/03 A3020 610 89 -400 360/06 RMK AO2
14837KMSN MSN20051008054509610/08/05 05:45:31  5-MIN KMSN 081145Z 01007KT 10SM OVC036 04/03 A3020 610 89 -400 360/07 RMK AO2
14837KMSN MSN20051008055013110/08/05 05:50:31  5-MIN KMSN 081150Z 36006KT 10SM OVC034 04/03 A3020 610 89 -400 360/06 RMK AO2 SLP232 T00440028 10044 20022 55002
14837KMSN MSN20051008055509610/08/05 05:55:31  5-MIN KMSN 081155Z 36006KT 10SM OVC034 04/03 A3020 610 89 -400 360/06 RMK AO2
14837KMSN MSN20051008060009610/08/05 06:00:31  5-MIN KMSN 081200Z 36006KT 10SM OVC034 04/03 A3020 610 89 -400 360/06 RMK AO2
14837KMSN MSN20051008060509610/08/05 06:05:31  5-MIN KMSN 081205Z 36006KT 10SM OVC034 04/03 A3020 610 89 -400 360/06 RMK AO2
14837KMSN MSN20051008061009610/08/05 06:10:31  5-MIN KMSN 081210Z 36006KT 10SM OVC034 04/03 A3020 610 89 -400 360/06 RMK AO2
14837KMSN MSN20051008061509610/08/05 06:15:31  5-MIN KMSN 081215Z 36007KT 10SM OVC032 04/03 A3020 610 89 -400 360/07 RMK AO2
14837KMSN MSN20051008062009610/08/05 06:20:31  5-MIN KMSN 081220Z 35006KT 10SM OVC032 04/03 A3020 610 89 -400 350/06 RMK AO2
14837KMSN MSN20051008062509610/08/05 06:25:31  5-MIN KMSN 081225Z 35006KT 10SM OVC032 04/03 A3020 610 89 -400 350/06 RMK AO2
14837KMSN MSN20051008063009610/08/05 06:30:31  5-MIN KMSN 081230Z 35007KT 10SM OVC032 04/03 A3020 610 89 -400 350/07 RMK AO2
14837KMSN MSN20051008063509610/08/05 06:35:31  5-MIN KMSN 081235Z 35006KT 10SM OVC032 04/03 A3020 610 89 -400 350/06 RMK AO2
14837KMSN MSN20051008064009610/08/05 06:40:31  5-MIN KMSN 081240Z 35007KT 10SM OVC032 04/03 A3020 600 89 -400 350/07 RMK AO2
14837KMSN MSN20051008064509610/08/05 06:45:31  5-MIN KMSN 081245Z 35007KT 10SM OVC032 04/03 A3020 600 89 -400 350/07 RMK AO2
14837KMSN MSN20051008065011310/08/05 06:50:31  5-MIN KMSN 081250Z 35007KT 10SM OVC032 04/03 A3020 600 89 -400 350/07 RMK AO2 SLP234 T00440028
14837KMSN MSN20051008065509610/08/05 06:55:31  5-MIN KMSN 081255Z 35007KT 10SM OVC032 04/03 A3020 600 89 -400 350/07 RMK AO2
14837KMSN MSN20051008070009610/08/05 07:00:31  5-MIN KMSN 081300Z 36008KT 10SM OVC032 04/03 A3020 600 89 -400 350/08 RMK AO2
14837KMSN MSN20051008070509610/08/05 07:05:31  5-MIN KMSN 081305Z 35006KT 10SM OVC032 04/03 A3020 600 89 -400 350/06 RMK AO2
14837KMSN MSN20051008071009610/08/05 07:10:31  5-MIN KMSN 081310Z 36007KT 10SM OVC032 04/03 A3020 600 89 -400 360/07 RMK AO2
14837KMSN MSN20051008071509610/08/05 07:15:31  5-MIN KMSN 081315Z 35007KT 10SM OVC032 04/03 A3020 600 89 -400 350/07 RMK AO2
14837KMSN MSN20051008072009610/08/05 07:20:31  5-MIN KMSN 081320Z 36006KT 10SM OVC032 04/03 A3021 600 89 -400 360/06 RMK AO2
14837KMSN MSN20051008072509610/08/05 07:25:31  5-MIN KMSN 081325Z 36007KT 10SM OVC032 05/03 A3020 600 85 -400 360/07 RMK AO2
14837KMSN MSN20051008073009610/08/05 07:30:31  5-MIN KMSN 081330Z 01007KT 10SM OVC032 05/03 A3020 600 85 -400 010/07 RMK AO2
14837KMSN MSN20051008073509610/08/05 07:35:31  5-MIN KMSN 081335Z 01006KT 10SM OVC032 05/03 A3021 600 85 -400 010/06 RMK AO2
14837KMSN MSN20051008074009610/08/05 07:40:31  5-MIN KMSN 081340Z 35006KT 10SM OVC032 05/03 A3020 600 85 -400 350/06 RMK AO2
14837KMSN MSN20051008074509610/08/05 07:45:31  5-MIN KMSN 081345Z 35007KT 10SM OVC032 05/03 A3021 600 85 -400 350/07 RMK AO2
14837KMSN MSN20051008075011310/08/05 07:50:31  5-MIN KMSN 081350Z 36006KT 10SM OVC032 05/03 A3021 600 85 -400 360/06 RMK AO2 SLP235 T00500028
14837KMSN MSN20051008075509610/08/05 07:55:31  5-MIN KMSN 081355Z 01007KT 10SM OVC032 05/03 A3021 600 85 -400 010/07 RMK AO2
14837KMSN MSN20051008080009610/08/05 08:00:31  5-MIN KMSN 081400Z 36006KT 10SM OVC032 05/03 A3021 600 85 -400 360/06 RMK AO2
14837KMSN MSN20051008080509610/08/05 08:05:31  5-MIN KMSN 081405Z 36005KT 10SM OVC032 06/03 A3021 600 85 -300 350/05 RMK AO2
14837KMSN MSN20051008081009510/08/05 08:10:31  5-MIN KMSN 081410Z 36005KT 8SM OVC032 06/03 A3021 600 85 -300 360/05 RMK AO2
14837KMSN MSN20051008081509510/08/05 08:15:31  5-MIN KMSN 081415Z 02006KT 8SM OVC032 06/03 A3021 600 85 -300 010/06 RMK AO2
14837KMSN MSN20051008082009610/08/05 08:20:31  5-MIN KMSN 081420Z 35006KT 10SM OVC032 06/03 A3021 600 85 -300 350/06 RMK AO2
14837KMSN MSN20051008082509610/08/05 08:25:31  5-MIN KMSN 081425Z 36007KT 10SM OVC032 06/03 A3021 600 85 -300 360/07 RMK AO2
14837KMSN MSN20051008083009610/08/05 08:30:31  5-MIN KMSN 081430Z 01007KT 10SM OVC032 06/03 A3021 600 82 -200 360/07 RMK AO2
14837KMSN MSN20051008083509610/08/05 08:35:31  5-MIN KMSN 081435Z 36005KT 10SM OVC032 06/03 A3020 600 82 -200 360/05 RMK AO2
14837KMSN MSN20051008084009610/08/05 08:40:31  5-MIN KMSN 081440Z 36007KT 10SM OVC032 06/03 A3020 600 82 -200 360/07 RMK AO2
14837KMSN MSN20051008084509610/08/05 08:45:31  5-MIN KMSN 081445Z 36009KT 10SM OVC032 06/03 A3020 600 82 -200 360/09 RMK AO2
14837KMSN MSN20051008085011910/08/05 08:50:31  5-MIN KMSN 081450Z 01009KT 10SM OVC032 06/03 A3020 600 82 -200 360/09 RMK AO2 SLP233 T00610033 53009
14837KMSN MSN20051008085509610/08/05 08:55:31  5-MIN KMSN 081455Z 36009KT 10SM OVC032 06/03 A3020 600 82 -200 360/09 RMK AO2
14837KMSN MSN20051008090009610/08/05 09:00:31  5-MIN KMSN 081500Z 36009KT 10SM OVC032 07/03 A3020 600 79 -200 360/09 RMK AO2
14837KMSN MSN20051008090509610/08/05 09:05:31  5-MIN KMSN 081505Z 01009KT 10SM OVC032 07/03 A3020 600 79 -200 010/09 RMK AO2
14837KMSN MSN20051008091009610/08/05 09:10:31  5-MIN KMSN 081510Z 36009KT 10SM OVC032 07/04 A3020 600 82 -200 360/09 RMK AO2
14837KMSN MSN20051008091509610/08/05 09:15:31  5-MIN KMSN 081515Z 36008KT 10SM OVC032 07/04 A3020 600 82 -200 360/08 RMK AO2
14837KMSN MSN20051008092009610/08/05 09:20:31  5-MIN KMSN 081520Z 36009KT 10SM OVC032 07/04 A3021 600 82 -200 360/09 RMK AO2
14837KMSN MSN20051008092509610/08/05 09:25:31  5-MIN KMSN 081525Z 36008KT 10SM OVC032 07/04 A3020 600 82 -200 360/08 RMK AO2
14837KMSN MSN20051008093009610/08/05 09:30:31  5-MIN KMSN 081530Z 01008KT 10SM OVC032 07/04 A3021 600 79 -100 010/08 RMK AO2
14837KMSN MSN20051008093509610/08/05 09:35:31  5-MIN KMSN 081535Z 01007KT 10SM OVC032 07/04 A3021 600 79 -100 010/07 RMK AO2
14837KMSN MSN20051008094009610/08/05 09:40:31  5-MIN KMSN 081540Z 36008KT 10SM OVC032 07/04 A3020 600 79 -100 360/08 RMK AO2
14837KMSN MSN20051008094509610/08/05 09:45:31  5-MIN KMSN 081545Z 35006KT 10SM OVC032 07/04 A3020 600 79 -100 350/06 RMK AO2
14837KMSN MSN20051008095011010/08/05 09:50:31  5-MIN KMSN 081550Z 35007KT 10SM OVC032 08/04 A3020 610 76 0 350/07 RMK AO2 SLP233 T00780039
14837KMSN MSN20051008095509310/08/05 09:55:31  5-MIN KMSN 081555Z 35007KT 10SM OVC032 08/04 A3020 610 76 0 350/07 RMK AO2
14837KMSN MSN20051008100009310/08/05 10:00:31  5-MIN KMSN 081600Z 35006KT 10SM OVC032 08/04 A3020 610 73 0 350/06 RMK AO2
14837KMSN MSN20051008100509310/08/05 10:05:31  5-MIN KMSN 081605Z 34006KT 10SM OVC034 08/04 A3020 610 73 0 340/06 RMK AO2
14837KMSN MSN20051008101009310/08/05 10:10:31  5-MIN KMSN 081610Z 33007KT 10SM OVC034 08/04 A3020 610 76 0 330/07 RMK AO2
14837KMSN MSN20051008101509310/08/05 10:15:31  5-MIN KMSN 081615Z 35008KT 10SM OVC034 08/04 A3020 610 73 0 340/08 RMK AO2
14837KMSN MSN20051008102009510/08/05 10:20:31  5-MIN KMSN 081620Z 02008KT 10SM OVC036 09/04 A3020 610 71 100 010/08 RMK AO2
14837KMSN MSN20051008102509510/08/05 10:25:31  5-MIN KMSN 081625Z 02009KT 10SM OVC036 09/04 A3019 610 71 100 020/09 RMK AO2
14837KMSN MSN20051008103010210/08/05 10:30:31  5-MIN KMSN 081630Z 36007KT 10SM FEW025 BKN036 09/04 A3019 610 71 100 350/07 RMK AO2
14837KMSN MSN20051008103510210/08/05 10:35:31  5-MIN KMSN 081635Z 35009KT 10SM FEW025 BKN036 09/04 A3019 610 71 100 350/09 RMK AO2
14837KMSN MSN20051008104010210/08/05 10:40:31  5-MIN KMSN 081640Z 35008KT 10SM FEW025 BKN036 09/04 A3019 610 71 100 350/08 RMK AO2
14837KMSN MSN20051008104510210/08/05 10:45:31  5-MIN KMSN 081645Z 34006KT 10SM SCT025 BKN037 09/04 A3019 620 68 100 340/06 RMK AO2
14837KMSN MSN20051008105011910/08/05 10:50:31  5-MIN KMSN 081650Z 01006KT 10SM SCT025 BKN037 10/04 A3019 620 68 200 360/06 RMK AO2 SLP229 T01000044
14837KMSN MSN20051008105510910/08/05 10:55:31  5-MIN KMSN 081655Z 02007KT 10SM FEW025 SCT030 OVC037 09/04 A3019 620 68 100 020/07 RMK AO2
14837KMSN MSN20051008110010910/08/05 11:00:31  5-MIN KMSN 081700Z 03009KT 10SM FEW025 SCT030 OVC037 09/04 A3019 620 68 100 030/09 RMK AO2
14837KMSN MSN20051008110510210/08/05 11:05:31  5-MIN KMSN 081705Z 03009KT 10SM FEW024 OVC035 09/03 A3019 620 65 100 030/09 RMK AO2
14837KMSN MSN20051008111010210/08/05 11:10:31  5-MIN KMSN 081710Z 02007KT 10SM SCT026 OVC035 09/04 A3019 620 68 100 020/07 RMK AO2
14837KMSN MSN20051008111510210/08/05 11:15:31  5-MIN KMSN 081715Z 04009KT 10SM BKN028 OVC035 09/03 A3018 620 65 100 040/09 RMK AO2
14837KMSN MSN20051008112010210/08/05 11:20:31  5-MIN KMSN 081720Z 04009KT 10SM BKN028 OVC035 10/03 A3018 620 63 200 040/09 RMK AO2
14837KMSN MSN20051008112510210/08/05 11:25:31  5-MIN KMSN 081725Z 04008KT 10SM BKN028 OVC035 10/03 A3018 630 63 200 040/08 RMK AO2
14837KMSN MSN20051008113010210/08/05 11:30:31  5-MIN KMSN 081730Z 06008KT 10SM BKN028 OVC035 10/03 A3018 630 63 200 060/08 RMK AO2
14837KMSN MSN20051008113510210/08/05 11:35:31  5-MIN KMSN 081735Z 05011KT 10SM BKN028 OVC035 10/03 A3017 630 63 200 050/11 RMK AO2
14837KMSN MSN20051008114010210/08/05 11:40:31  5-MIN KMSN 081740Z 07008KT 10SM BKN028 OVC035 09/03 A3017 630 65 200 060/08 RMK AO2
14837KMSN MSN20051008114510210/08/05 11:45:31  5-MIN KMSN 081745Z 05010KT 10SM BKN028 OVC035 10/03 A3017 640 63 200 050/10 RMK AO2
14837KMSN MSN20051008115013710/08/05 11:50:31  5-MIN KMSN 081750Z 03009KT 10SM BKN028 OVC035 10/04 A3017 640 65 200 030/09 RMK AO2 SLP222 T01000039 10100 20044 50001
14837KMSN MSN20051008115510210/08/05 11:55:31  5-MIN KMSN 081755Z 05007KT 10SM BKN029 BKN034 10/03 A3016 640 63 200 050/07 RMK AO2
14837KMSN MSN20051008120010210/08/05 12:00:31  5-MIN KMSN 081800Z 04008KT 10SM BKN029 BKN034 10/03 A3016 640 63 200 040/08 RMK AO2
14837KMSN MSN20051008120510210/08/05 12:05:31  5-MIN KMSN 081805Z 06009KT 10SM BKN029 BKN034 11/03 A3016 640 61 300 060/09 RMK AO2
14837KMSN MSN20051008121010210/08/05 12:10:31  5-MIN KMSN 081810Z 06009KT 10SM BKN029 BKN034 10/03 A3016 650 60 200 050/09 RMK AO2
14837KMSN MSN20051008121510210/08/05 12:15:31  5-MIN KMSN 081815Z 06008KT 10SM BKN029 BKN034 11/04 A3015 650 63 300 060/08 RMK AO2
14837KMSN MSN20051008122010210/08/05 12:20:31  5-MIN KMSN 081820Z 06008KT 10SM BKN029 BKN034 11/04 A3015 650 63 300 060/08 RMK AO2
14837KMSN MSN20051008122510210/08/05 12:25:31  5-MIN KMSN 081825Z 07009KT 10SM SCT029 BKN034 11/03 A3015 650 61 300 070/09 RMK AO2
14837KMSN MSN20051008123010210/08/05 12:30:31  5-MIN KMSN 081830Z VRB06KT 10SM SCT029 BKN034 11/03 A3015 650 61 300 VRB/06 RMK AO2
14837KMSN MSN20051008123510210/08/05 12:35:31  5-MIN KMSN 081835Z 06006KT 10SM SCT029 BKN034 11/03 A3015 650 61 300 060/06 RMK AO2
14837KMSN MSN20051008124010210/08/05 12:40:31  5-MIN KMSN 081840Z VRB04KT 10SM SCT029 BKN034 11/03 A3015 650 58 400 VRB/04 RMK AO2
14837KMSN MSN20051008124510210/08/05 12:45:31  5-MIN KMSN 081845Z 04008KT 10SM SCT029 BKN034 11/03 A3015 650 58 400 040/08 RMK AO2
14837KMSN MSN20051008125011910/08/05 12:50:31  5-MIN KMSN 081850Z 05007KT 10SM SCT029 BKN034 11/03 A3015 660 61 300 050/07 RMK AO2 SLP215 T01060033
14837KMSN MSN20051008125509510/08/05 12:55:31  5-MIN KMSN 081855Z 06009KT 10SM OVC034 11/03 A3015 660 58 400 060/09 RMK AO2
14837KMSN MSN20051008130009510/08/05 13:00:31  5-MIN KMSN 081900Z 05009KT 10SM BKN034 11/03 A3014 660 61 300 050/09 RMK AO2
14837KMSN MSN20051008130509510/08/05 13:05:31  5-MIN KMSN 081905Z 04004KT 10SM BKN034 11/03 A3014 660 58 300 040/04 RMK AO2
14837KMSN MSN20051008131009510/08/05 13:10:31  5-MIN KMSN 081910Z VRB05KT 10SM BKN034 12/03 A3014 660 56 500 VRB/05 RMK AO2
14837KMSN MSN20051008131509510/08/05 13:15:31  5-MIN KMSN 081915Z VRB04KT 10SM BKN034 12/03 A3014 660 54 500 VRB/04 RMK AO2
14837KMSN MSN20051008132009510/08/05 13:20:31  5-MIN KMSN 081920Z 36009KT 10SM BKN034 11/04 A3014 660 61 400 360/09 RMK AO2
14837KMSN MSN20051008132509510/08/05 13:25:31  5-MIN KMSN 081925Z 01010KT 10SM BKN034 11/04 A3014 670 61 400 010/10 RMK AO2
14837KMSN MSN20051008133009510/08/05 13:30:31  5-MIN KMSN 081930Z 03006KT 10SM BKN034 11/03 A3013 670 58 400 030/06 RMK AO2
14837KMSN MSN20051008133509510/08/05 13:35:31  5-MIN KMSN 081935Z 03010KT 10SM BKN034 12/04 A3013 670 56 500 030/10 RMK AO2
14837KMSN MSN20051008134009510/08/05 13:40:31  5-MIN KMSN 081940Z 01007KT 10SM BKN034 11/03 A3013 670 58 400 010/07 RMK AO2
14837KMSN MSN20051008134509510/08/05 13:45:31  5-MIN KMSN 081945Z 04009KT 10SM BKN034 11/04 A3013 670 61 400 040/09 RMK AO2
14837KMSN MSN20051008135011210/08/05 13:50:31  5-MIN KMSN 081950Z 04009KT 10SM BKN035 11/03 A3013 670 58 400 040/09 RMK AO2 SLP208 T01110033
14837KMSN MSN20051008135509510/08/05 13:55:31  5-MIN KMSN 081955Z 06008KT 10SM BKN037 11/03 A3013 670 58 400 060/08 RMK AO2
14837KMSN MSN20051008140009510/08/05 14:00:31  5-MIN KMSN 082000Z VRB03KT 10SM BKN039 12/03 A3013 670 56 500 VRB/03 RMK AO2
14837KMSN MSN20051008140509510/08/05 14:05:31  5-MIN KMSN 082005Z VRB03KT 10SM BKN037 12/03 A3012 680 56 500 VRB/03 RMK AO2
14837KMSN MSN20051008141009510/08/05 14:10:31  5-MIN KMSN 082010Z 03011KT 10SM BKN037 12/03 A3012 680 54 500 030/11 RMK AO2
14837KMSN MSN20051008141509510/08/05 14:15:31  5-MIN KMSN 082015Z 03011KT 10SM BKN037 12/04 A3012 680 58 500 030/11 RMK AO2
14837KMSN MSN20051008142009510/08/05 14:20:31  5-MIN KMSN 082020Z 04009KT 10SM OVC037 11/03 A3012 680 58 400 030/09 RMK AO2
14837KMSN MSN20051008142509510/08/05 14:25:31  5-MIN KMSN 082025Z 03007KT 10SM BKN037 11/03 A3012 680 58 400 030/07 RMK AO2
14837KMSN MSN20051008143009510/08/05 14:30:31  5-MIN KMSN 082030Z 04008KT 10SM BKN037 11/04 A3012 680 61 400 040/08 RMK AO2
14837KMSN MSN20051008143509510/08/05 14:35:31  5-MIN KMSN 082035Z 01008KT 10SM BKN037 11/03 A3012 680 58 400 010/08 RMK AO2
14837KMSN MSN20051008144009510/08/05 14:40:31  5-MIN KMSN 082040Z 04006KT 10SM BKN037 12/03 A3012 680 56 500 040/06 RMK AO2
14837KMSN MSN20051008144509510/08/05 14:45:31  5-MIN KMSN 082045Z 03007KT 10SM BKN037 12/04 A3012 680 56 600 030/07 RMK AO2
14837KMSN MSN20051008145011810/08/05 14:50:31  5-MIN KMSN 082050Z VRB06KT 10SM SCT037 13/04 A3011 690 54 600 VRB/06 RMK AO2 SLP202 T01280039 58012
14837KMSN MSN20051008145509510/08/05 14:55:31  5-MIN KMSN 082055Z 03008KT 10SM BKN037 13/04 A3011 690 56 600 030/08 RMK AO2
14837KMSN MSN20051008150009510/08/05 15:00:31  5-MIN KMSN 082100Z 02007KT 10SM BKN037 11/03 A3011 690 58 400 020/07 RMK AO2
14837KMSN MSN20051008150509510/08/05 15:05:31  5-MIN KMSN 082105Z 01008KT 10SM SCT037 11/03 A3011 690 58 400 010/08 RMK AO2
14837KMSN MSN20051008151009510/08/05 15:10:31  5-MIN KMSN 082110Z 01008KT 10SM SCT037 12/04 A3011 690 56 600 010/08 RMK AO2
14837KMSN MSN20051008151509510/08/05 15:15:31  5-MIN KMSN 082115Z VRB06KT 10SM BKN037 13/04 A3011 690 54 600 VRB/06 RMK AO2
14837KMSN MSN20051008152009510/08/05 15:20:31  5-MIN KMSN 082120Z 03009KT 10SM SCT037 13/04 A3011 690 54 600 030/09 RMK AO2
14837KMSN MSN20051008152509510/08/05 15:25:31  5-MIN KMSN 082125Z 02011KT 10SM SCT037 12/04 A3011 690 56 600 020/11 RMK AO2
14837KMSN MSN20051008153009510/08/05 15:30:31  5-MIN KMSN 082130Z 01009KT 10SM SCT037 11/03 A3011 690 61 400 010/09 RMK AO2
14837KMSN MSN20051008153509510/08/05 15:35:31  5-MIN KMSN 082135Z 01008KT 10SM SCT037 11/04 A3011 690 63 400 010/08 RMK AO2
14837KMSN MSN20051008154009510/08/05 15:40:31  5-MIN KMSN 082140Z 36006KT 10SM SCT037 12/04 A3011 690 58 500 360/06 RMK AO2
14837KMSN MSN20051008154509510/08/05 15:45:31  5-MIN KMSN 082145Z 36005KT 10SM SCT037 12/04 A3011 690 58 500 360/05 RMK AO2
14837KMSN MSN20051008155011210/08/05 15:50:31  5-MIN KMSN 082150Z 02006KT 10SM SCT037 12/03 A3011 690 54 600 020/06 RMK AO2 SLP200 T01220033
14837KMSN MSN20051008155510110/08/05 15:55:31  5-MIN KMSN 082155Z 04012G15KT 10SM SCT039 12/04 A3011 690 56 600 040/12G15 RMK AO2
14837KMSN MSN20051008160010110/08/05 16:00:31  5-MIN KMSN 082200Z 04010G15KT 10SM SCT039 12/03 A3011 690 56 500 040/10G15 RMK AO2
14837KMSN MSN20051008160509510/08/05 16:05:31  5-MIN KMSN 082205Z 02007KT 10SM FEW039 11/03 A3011 690 58 400 020/07 RMK AO2
14837KMSN MSN20051008161009510/08/05 16:10:31  5-MIN KMSN 082210Z 02007KT 10SM SCT039 11/03 A3011 690 61 400 010/07 RMK AO2
14837KMSN MSN20051008161509510/08/05 16:15:31  5-MIN KMSN 082215Z 01007KT 10SM SCT039 10/03 A3011 690 63 300 010/07 RMK AO2
14837KMSN MSN20051008162009510/08/05 16:20:31  5-MIN KMSN 082220Z 01007KT 10SM SCT039 11/04 A3011 690 61 400 010/07 RMK AO2
14837KMSN MSN20051008162509510/08/05 16:25:31  5-MIN KMSN 082225Z 03008KT 10SM SCT039 12/04 A3011 690 58 500 030/08 RMK AO2
14837KMSN MSN20051008163009510/08/05 16:30:31  5-MIN KMSN 082230Z 04008KT 10SM SCT039 12/04 A3011 690 58 500 040/08 RMK AO2
14837KMSN MSN20051008163509510/08/05 16:35:31  5-MIN KMSN 082235Z 05011KT 10SM SCT039 12/04 A3011 690 58 500 050/11 RMK AO2
14837KMSN MSN20051008164009510/08/05 16:40:31  5-MIN KMSN 082240Z 05010KT 10SM SCT039 11/03 A3011 690 58 400 050/10 RMK AO2
14837KMSN MSN20051008164509510/08/05 16:45:31  5-MIN KMSN 082245Z 05009KT 10SM SCT039 11/04 A3011 690 63 400 050/09 RMK AO2
14837KMSN MSN20051008165011210/08/05 16:50:31  5-MIN KMSN 082250Z 04009KT 10SM SCT039 11/03 A3011 690 61 400 040/09 RMK AO2 SLP201 T01060033
14837KMSN MSN20051008165509510/08/05 16:55:31  5-MIN KMSN 082255Z 04008KT 10SM SCT039 10/03 A3011 690 63 300 040/08 RMK AO2
14837KMSN MSN20051008170009510/08/05 17:00:31  5-MIN KMSN 082300Z 03009KT 10SM FEW039 10/03 A3011 690 63 300 030/09 RMK AO2
14837KMSN MSN20051008170509510/08/05 17:05:31  5-MIN KMSN 082305Z 03009KT 10SM FEW039 09/03 A3011 690 65 200 020/09 RMK AO2
14837KMSN MSN20051008171009510/08/05 17:10:31  5-MIN KMSN 082310Z 02008KT 10SM FEW039 09/04 A3011 690 68 200 020/08 RMK AO2
14837KMSN MSN20051008171509510/08/05 17:15:31  5-MIN KMSN 082315Z 03007KT 10SM FEW039 09/04 A3011 690 71 200 030/07 RMK AO2
14837KMSN MSN20051008172009510/08/05 17:20:31  5-MIN KMSN 082320Z 03008KT 10SM FEW039 09/04 A3011 690 71 200 020/08 RMK AO2
14837KMSN MSN20051008172509510/08/05 17:25:31  5-MIN KMSN 082325Z 03007KT 10SM FEW039 09/04 A3011 690 71 200 030/07 RMK AO2
14837KMSN MSN20051008173009510/08/05 17:30:31  5-MIN KMSN 082330Z 03007KT 10SM FEW039 08/04 A3011 690 73 100 030/07 RMK AO2
14837KMSN MSN20051008173509510/08/05 17:35:31  5-MIN KMSN 082335Z 03006KT 10SM FEW039 08/04 A3011 690 73 100 030/06 RMK AO2
14837KMSN MSN20051008174009310/08/05 17:40:31  5-MIN KMSN 082340Z 03006KT 10SM FEW039 08/03 A3011 690 73 0 030/06 RMK AO2
14837KMSN MSN20051008174509310/08/05 17:45:31  5-MIN KMSN 082345Z 03006KT 10SM FEW039 07/03 A3011 690 76 0 030/06 RMK AO2
14837KMSN MSN20051008175012810/08/05 17:50:31  5-MIN KMSN 082350Z 03006KT 10SM FEW039 07/03 A3011 690 76 0 030/06 RMK AO2 SLP203 T00720033 10133 20072 56017
14837KMSN MSN20051008175509010/08/05 17:55:31  5-MIN KMSN 082355Z 03006KT 10SM CLR 07/03 A3011 690 76 0 030/06 RMK AO2
14837KMSN MSN20051008180009010/08/05 18:00:31  5-MIN KMSN 090000Z 03005KT 10SM CLR 07/03 A3011 690 76 0 030/05 RMK AO2
14837KMSN MSN20051008180509010/08/05 18:05:31  5-MIN KMSN 090005Z 03005KT 10SM CLR 07/03 A3012 680 76 0 030/05 RMK AO2
14837KMSN MSN20051008181009310/08/05 18:10:31  5-MIN KMSN 090010Z 03005KT 10SM CLR 07/03 A3012 680 79 -100 030/05 RMK AO2
14837KMSN MSN20051008181509310/08/05 18:15:31  5-MIN KMSN 090015Z 04005KT 10SM CLR 07/03 A3012 680 79 -100 040/05 RMK AO2
14837KMSN MSN20051008182009310/08/05 18:20:31  5-MIN KMSN 090020Z 04006KT 10SM CLR 07/03 A3012 680 79 -100 030/06 RMK AO2
14837KMSN MSN20051008182509310/08/05 18:25:31  5-MIN KMSN 090025Z 03006KT 10SM CLR 07/03 A3012 680 76 -100 030/06 RMK AO2
14837KMSN MSN20051008183009310/08/05 18:30:31  5-MIN KMSN 090030Z 03006KT 10SM CLR 06/03 A3012 680 79 -100 030/06 RMK AO2
14837KMSN MSN20051008183509310/08/05 18:35:31  5-MIN KMSN 090035Z 03006KT 10SM CLR 06/03 A3012 680 82 -100 030/06 RMK AO2
14837KMSN MSN20051008184009310/08/05 18:40:31  5-MIN KMSN 090040Z 03006KT 10SM CLR 06/03 A3012 680 82 -100 030/06 RMK AO2
14837KMSN MSN20051008184509310/08/05 18:45:31  5-MIN KMSN 090045Z 04006KT 10SM CLR 06/03 A3012 680 82 -100 040/06 RMK AO2
14837KMSN MSN20051008185011010/08/05 18:50:31  5-MIN KMSN 090050Z 04005KT 10SM CLR 06/03 A3012 680 79 -100 040/05 RMK AO2 SLP206 T00610028
14837KMSN MSN20051008185509310/08/05 18:55:31  5-MIN KMSN 090055Z 04005KT 10SM CLR 06/03 A3012 680 79 -100 040/05 RMK AO2
14837KMSN MSN20051008190009310/08/05 19:00:31  5-MIN KMSN 090100Z 04005KT 10SM CLR 06/03 A3012 680 82 -200 040/05 RMK AO2
14837KMSN MSN20051008190509310/08/05 19:05:31  5-MIN KMSN 090105Z 04005KT 10SM CLR 06/03 A3012 680 82 -200 040/05 RMK AO2
14837KMSN MSN20051008191009310/08/05 19:10:31  5-MIN KMSN 090110Z 03005KT 10SM CLR 06/03 A3012 680 82 -200 030/05 RMK AO2
14837KMSN MSN20051008191509310/08/05 19:15:31  5-MIN KMSN 090115Z 03004KT 10SM CLR 06/03 A3012 680 82 -200 030/04 RMK AO2
14837KMSN MSN20051008192009310/08/05 19:20:31  5-MIN KMSN 090120Z 04004KT 10SM CLR 06/03 A3012 680 79 -100 040/04 RMK AO2
14837KMSN MSN20051008192509310/08/05 19:25:31  5-MIN KMSN 090125Z 04005KT 10SM CLR 06/03 A3012 680 79 -100 040/05 RMK AO2
14837KMSN MSN20051008193009310/08/05 19:30:31  5-MIN KMSN 090130Z 04006KT 10SM CLR 06/03 A3012 680 82 -200 040/06 RMK AO2
14837KMSN MSN20051008193509310/08/05 19:35:31  5-MIN KMSN 090135Z 04005KT 10SM CLR 05/03 A3012 680 85 -300 040/05 RMK AO2
14837KMSN MSN20051008194009310/08/05 19:40:31  5-MIN KMSN 090140Z 04005KT 10SM CLR 05/03 A3012 680 85 -300 040/05 RMK AO2
14837KMSN MSN20051008194509310/08/05 19:45:31  5-MIN KMSN 090145Z 05005KT 10SM CLR 05/02 A3012 680 82 -300 050/05 RMK AO2
14837KMSN MSN20051008195011010/08/05 19:50:31  5-MIN KMSN 090150Z 04005KT 10SM CLR 04/02 A3012 680 85 -300 040/05 RMK AO2 SLP208 T00440022
14837KMSN MSN20051008195509310/08/05 19:55:31  5-MIN KMSN 090155Z 05005KT 10SM CLR 04/02 A3012 680 89 -400 050/05 RMK AO2
14837KMSN MSN20051008200009310/08/05 20:00:31  5-MIN KMSN 090200Z 05004KT 10SM CLR 04/02 A3013 680 89 -400 040/04 RMK AO2
14837KMSN MSN20051008200509310/08/05 20:05:31  5-MIN KMSN 090205Z 05004KT 10SM CLR 04/02 A3013 680 89 -400 050/04 RMK AO2
14837KMSN MSN20051008201009310/08/05 20:10:31  5-MIN KMSN 090210Z 04003KT 10SM CLR 04/02 A3013 670 89 -400 040/03 RMK AO2
14837KMSN MSN20051008201509310/08/05 20:15:31  5-MIN KMSN 090215Z 03003KT 10SM CLR 04/02 A3013 670 89 -400 030/03 RMK AO2
14837KMSN MSN20051008202009310/08/05 20:20:31  5-MIN KMSN 090220Z 03005KT 10SM CLR 04/02 A3013 670 89 -400 030/05 RMK AO2
14837KMSN MSN20051008202509310/08/05 20:25:31  5-MIN KMSN 090225Z 02004KT 10SM CLR 04/03 A3013 670 89 -400 020/04 RMK AO2
14837KMSN MSN20051008203009310/08/05 20:30:31  5-MIN KMSN 090230Z 02003KT 10SM CLR 05/03 A3013 670 85 -300 020/03 RMK AO2
14837KMSN MSN20051008203509310/08/05 20:35:31  5-MIN KMSN 090235Z 01003KT 10SM CLR 05/03 A3013 670 85 -300 010/03 RMK AO2
14837KMSN MSN20051008204009310/08/05 20:40:31  5-MIN KMSN 090240Z 35003KT 10SM CLR 04/03 A3013 670 89 -400 350/03 RMK AO2
14837KMSN MSN20051008204509310/08/05 20:45:31  5-MIN KMSN 090245Z 35004KT 10SM CLR 04/03 A3013 670 89 -400 350/04 RMK AO2
14837KMSN MSN20051008205011610/08/05 20:50:31  5-MIN KMSN 090250Z 36004KT 10SM CLR 04/03 A3013 670 89 -400 360/04 RMK AO2 SLP208 T00440028 55000
14837KMSN MSN20051008205509210/08/05 20:55:31  5-MIN KMSN 090255Z 36004KT 9SM CLR 04/03 A3013 670 89 -400 360/04 RMK AO2
14837KMSN MSN20051008210009210/08/05 21:00:31  5-MIN KMSN 090300Z 01004KT 9SM CLR 04/03 A3013 670 89 -400 010/04 RMK AO2
14837KMSN MSN20051008210509310/08/05 21:05:31  5-MIN KMSN 090305Z 03003KT 10SM CLR 04/03 A3013 670 89 -400 030/03 RMK AO2
14837KMSN MSN20051008211009310/08/05 21:10:31  5-MIN KMSN 090310Z 03003KT 10SM CLR 04/03 A3013 680 89 -300 030/03 RMK AO2
14837KMSN MSN20051008211509310/08/05 21:15:31  5-MIN KMSN 090315Z 04004KT 10SM CLR 04/03 A3012 680 89 -300 040/04 RMK AO2
14837KMSN MSN20051008212009310/08/05 21:20:31  5-MIN KMSN 090320Z 05005KT 10SM CLR 04/02 A3012 680 89 -400 050/05 RMK AO2
14837KMSN MSN20051008212509310/08/05 21:25:31  5-MIN KMSN 090325Z 05005KT 10SM CLR 04/02 A3012 680 89 -400 050/05 RMK AO2
14837KMSN MSN20051008213009310/08/05 21:30:31  5-MIN KMSN 090330Z 05005KT 10SM CLR 04/02 A3012 680 85 -400 050/05 RMK AO2
14837KMSN MSN20051008213509310/08/05 21:35:31  5-MIN KMSN 090335Z 04004KT 10SM CLR 03/02 A3012 680 89 -500 040/04 RMK AO2
14837KMSN MSN20051008214009310/08/05 21:40:31  5-MIN KMSN 090340Z 04004KT 10SM CLR 04/02 A3012 680 85 -400 040/04 RMK AO2
14837KMSN MSN20051008214509310/08/05 21:45:31  5-MIN KMSN 090345Z 02003KT 10SM CLR 03/02 A3012 680 89 -500 020/03 RMK AO2
14837KMSN MSN20051008215011010/08/05 21:50:31  5-MIN KMSN 090350Z 01003KT 10SM CLR 04/02 A3012 680 89 -400 010/03 RMK AO2 SLP206 T00390022
14837KMSN MSN20051008215509310/08/05 21:55:31  5-MIN KMSN 090355Z 00000KT 10SM CLR 03/02 A3012 680 96 -600 000/00 RMK AO2
14837KMSN MSN20051008220009310/08/05 22:00:31  5-MIN KMSN 090400Z 00000KT 10SM CLR 03/02 A3012 680 92 -500 000/00 RMK AO2
14837KMSN MSN20051008220509210/08/05 22:05:31  5-MIN KMSN 090405Z 00000KT 9SM CLR 04/02 A3012 680 89 -400 000/00 RMK AO2
14837KMSN MSN20051008221009210/08/05 22:10:31  5-MIN KMSN 090410Z 00000KT 7SM CLR 04/02 A3012 680 89 -400 000/00 RMK AO2
14837KMSN MSN20051008221509510/08/05 22:15:31  5-MIN KMSN 090415Z 00000KT 5SM BR CLR 04/02 A3012 680 89 -400 000/00 RMK AO2
14837KMSN MSN20051008222009510/08/05 22:20:31  5-MIN KMSN 090420Z 00000KT 5SM BR CLR 03/02 A3012 680 89 -500 000/00 RMK AO2
14837KMSN MSN20051008222509510/08/05 22:25:31  5-MIN KMSN 090425Z 00000KT 6SM BR CLR 03/02 A3012 680 92 -500 000/00 RMK AO2
14837KMSN MSN20051008223009210/08/05 22:30:31  5-MIN KMSN 090430Z 00000KT 9SM CLR 03/02 A3012 680 92 -500 000/00 RMK AO2
14837KMSN MSN20051008223509310/08/05 22:35:31  5-MIN KMSN 090435Z 00000KT 10SM CLR 03/02 A3012 680 92 -500 000/00 RMK AO2
14837KMSN MSN20051008224009210/08/05 22:40:31  5-MIN KMSN 090440Z 00000KT 9SM CLR 03/02 A3012 680 92 -500 000/00 RMK AO2
14837KMSN MSN20051008224509210/08/05 22:45:31  5-MIN KMSN 090445Z 00000KT 9SM CLR 03/02 A3011 690 92 -500 000/00 RMK AO2
14837KMSN MSN20051008225010910/08/05 22:50:31  5-MIN KMSN 090450Z 00000KT 9SM CLR 02/02 A3012 680 96 -600 000/00 RMK AO2 SLP204 T00220017
14837KMSN MSN20051008225509210/08/05 22:55:31  5-MIN KMSN 090455Z 00000KT 9SM CLR 02/02 A3012 680 96 -600 000/00 RMK AO2
14837KMSN MSN20051008230009210/08/05 23:00:31  5-MIN KMSN 090500Z 00000KT 8SM CLR 02/02 A3011 690 96 -600 000/00 RMK AO2
14837KMSN MSN20051008230509510/08/05 23:05:31  5-MIN KMSN 090505Z 00000KT 5SM BR CLR 02/01 A3012 680 92 -600 000/00 RMK AO2
14837KMSN MSN20051008231009510/08/05 23:10:31  5-MIN KMSN 090510Z 00000KT 4SM BR CLR 02/01 A3012 680 92 -600 000/00 RMK AO2
14837KMSN MSN20051008231509510/08/05 23:15:31  5-MIN KMSN 090515Z 00000KT 5SM BR CLR 02/01 A3012 680 96 -700 000/00 RMK AO2
14837KMSN MSN20051008232009610/08/05 23:20:31  5-MIN KMSN 090520Z 00000KT 6SM BR CLR 01/01 A3011 680 100 -800 000/00 RMK AO2
14837KMSN MSN20051008232509510/08/05 23:25:31  5-MIN KMSN 090525Z 00000KT 6SM BR CLR 01/01 A3012 680 96 -800 000/00 RMK AO2
14837KMSN MSN20051008233009510/08/05 23:30:31  5-MIN KMSN 090530Z 00000KT 6SM BR CLR 02/01 A3012 680 96 -700 000/00 RMK AO2
14837KMSN MSN20051008233509510/08/05 23:35:31  5-MIN KMSN 090535Z 00000KT 6SM BR CLR 02/01 A3011 690 96 -700 000/00 RMK AO2
14837KMSN MSN20051008234009510/08/05 23:40:31  5-MIN KMSN 090540Z 00000KT 6SM BR CLR 02/01 A3011 690 92 -600 000/00 RMK AO2
14837KMSN MSN20051008234509210/08/05 23:45:31  5-MIN KMSN 090545Z 00000KT 7SM CLR 02/01 A3011 690 92 -600 000/00 RMK AO2
14837KMSN MSN20051008235014010/08/05 23:50:31  5-MIN KMSN 090550Z 00000KT 7SM FEW040 02/01 A3011 690 96 -700 000/00 RMK AO2 SLP203 T00170011 10078 20011 401330011 51004
14837KMSN MSN20051008235509510/08/05 23:55:31  5-MIN KMSN 090555Z 00000KT 7SM FEW026 02/01 A3011 690 96 -700 000/00 RMK AO2
14837KMSN MSN20051009000009910/09/05 00:00:38  5-MIN KMSN 090600Z 00000KT 6SM BR FEW026 01/01 A3011 690 100 -700 000/00 RMK AO2
14837KMSN MSN20051009000509810/09/05 00:05:31  5-MIN KMSN 090605Z 00000KT 5SM BR SCT026 01/01 A3011 690 96 -700 000/00 RMK AO2
14837KMSN MSN20051009001009610/09/05 00:10:31  5-MIN KMSN 090610Z 00000KT 7SM BKN026 01/01 A3011 690 100 -700 000/00 RMK AO2
14837KMSN MSN20051009001509510/09/05 00:15:31  5-MIN KMSN 090615Z 00000KT 7SM BKN026 02/01 A3011 690 96 -700 000/00 RMK AO2
14837KMSN MSN20051009002009510/09/05 00:20:31  5-MIN KMSN 090620Z 32003KT 7SM BKN026 01/01 A3011 690 96 -700 320/03 RMK AO2
14837KMSN MSN20051009002509510/09/05 00:25:31  5-MIN KMSN 090625Z 00000KT 7SM BKN026 01/01 A3011 690 96 -700 000/00 RMK AO2
14837KMSN MSN20051009003009610/09/05 00:30:31  5-MIN KMSN 090630Z 00000KT 7SM OVC026 01/01 A3011 690 100 -700 000/00 RMK AO2
14837KMSN MSN20051009003509510/09/05 00:35:31  5-MIN KMSN 090635Z 33003KT 7SM OVC026 02/01 A3011 690 96 -700 330/03 RMK AO2
14837KMSN MSN20051009004009810/09/05 00:40:31  5-MIN KMSN 090640Z 33003KT 6SM BR OVC026 02/01 A3011 690 96 -700 330/03 RMK AO2
14837KMSN MSN20051009004509610/09/05 00:45:31  5-MIN KMSN 090645Z 33003KT 7SM OVC026 02/02 A3011 690 100 -700 330/03 RMK AO2
14837KMSN MSN20051009005011210/09/05 00:50:31  5-MIN KMSN 090650Z 00000KT 7SM BKN026 02/02 A3011 680 96 -600 000/00 RMK AO2 SLP204 T00220017
14837KMSN MSN20051009005509510/09/05 00:55:31  5-MIN KMSN 090655Z 00000KT 8SM OVC026 02/02 A3011 690 96 -600 000/00 RMK AO2
14837KMSN MSN20051009010009510/09/05 01:00:31  5-MIN KMSN 090700Z 00000KT 8SM OVC026 02/02 A3012 680 96 -600 000/00 RMK AO2
14837KMSN MSN20051009010509510/09/05 01:05:31  5-MIN KMSN 090705Z 00000KT 8SM OVC026 02/02 A3012 680 96 -600 000/00 RMK AO2
14837KMSN MSN20051009011009510/09/05 01:10:31  5-MIN KMSN 090710Z 31003KT 8SM OVC026 02/02 A3011 690 96 -600 310/03 RMK AO2
14837KMSN MSN20051009011509510/09/05 01:15:31  5-MIN KMSN 090715Z 32003KT 8SM OVC026 02/02 A3012 680 96 -600 320/03 RMK AO2
14837KMSN MSN20051009012009510/09/05 01:20:31  5-MIN KMSN 090720Z 33003KT 8SM OVC026 03/02 A3011 680 96 -500 330/03 RMK AO2
14837KMSN MSN20051009012509510/09/05 01:25:31  5-MIN KMSN 090725Z 32003KT 8SM OVC026 02/02 A3011 690 96 -600 310/03 RMK AO2
14837KMSN MSN20051009013009510/09/05 01:30:31  5-MIN KMSN 090730Z 34003KT 8SM OVC026 03/02 A3012 680 96 -500 340/03 RMK AO2
14837KMSN MSN20051009013509510/09/05 01:35:31  5-MIN KMSN 090735Z 35004KT 8SM OVC026 02/02 A3012 680 96 -600 340/04 RMK AO2
14837KMSN MSN20051009014009510/09/05 01:40:31  5-MIN KMSN 090740Z 34005KT 8SM OVC026 03/02 A3011 680 92 -500 340/05 RMK AO2
14837KMSN MSN20051009014509510/09/05 01:45:31  5-MIN KMSN 090745Z 35005KT 8SM OVC026 03/02 A3011 690 96 -500 350/05 RMK AO2
14837KMSN MSN20051009015011210/09/05 01:50:31  5-MIN KMSN 090750Z 33004KT 8SM BKN026 03/02 A3011 690 96 -500 330/04 RMK AO2 SLP202 T00280022
14837KMSN MSN20051009015509510/09/05 01:55:31  5-MIN KMSN 090755Z 35004KT 8SM OVC028 03/02 A3011 690 96 -500 350/04 RMK AO2
14837KMSN MSN20051009020009510/09/05 02:00:31  5-MIN KMSN 090800Z 34004KT 9SM OVC028 03/02 A3011 690 92 -500 340/04 RMK AO2
14837KMSN MSN20051009020509510/09/05 02:05:31  5-MIN KMSN 090805Z 34005KT 9SM OVC028 03/02 A3011 690 92 -500 340/05 RMK AO2
14837KMSN MSN20051009021009510/09/05 02:10:31  5-MIN KMSN 090810Z 34005KT 8SM OVC028 03/02 A3011 690 92 -500 340/05 RMK AO2
14837KMSN MSN20051009021509510/09/05 02:15:31  5-MIN KMSN 090815Z 34004KT 8SM OVC028 03/02 A3012 680 92 -500 340/04 RMK AO2
14837KMSN MSN20051009022009510/09/05 02:20:31  5-MIN KMSN 090820Z 34003KT 8SM OVC028 03/02 A3012 680 92 -500 340/03 RMK AO2
14837KMSN MSN20051009022509510/09/05 02:25:31  5-MIN KMSN 090825Z 33003KT 9SM OVC028 03/02 A3012 680 92 -500 330/03 RMK AO2
14837KMSN MSN20051009023009510/09/05 02:30:31  5-MIN KMSN 090830Z 35004KT 9SM OVC028 03/02 A3012 680 92 -500 350/04 RMK AO2
14837KMSN MSN20051009023509510/09/05 02:35:31  5-MIN KMSN 090835Z 34003KT 9SM OVC028 03/02 A3012 680 92 -500 340/03 RMK AO2
14837KMSN MSN20051009024009510/09/05 02:40:31  5-MIN KMSN 090840Z 00000KT 9SM OVC028 03/02 A3011 680 92 -500 000/00 RMK AO2
14837KMSN MSN20051009024509510/09/05 02:45:31  5-MIN KMSN 090845Z 32003KT 9SM OVC028 03/02 A3011 690 92 -500 320/03 RMK AO2
14837KMSN MSN20051009031009510/09/05 03:10:31  5-MIN KMSN 090910Z 33004KT 9SM OVC028 04/03 A3012 680 92 -400 330/04 RMK AO2
14837KMSN MSN20051009031509510/09/05 03:15:31  5-MIN KMSN 090915Z 00000KT 9SM OVC028 04/03 A3012 680 92 -400 000/00 RMK AO2
14837KMSN MSN20051009032009510/09/05 03:20:31  5-MIN KMSN 090920Z 34003KT 9SM OVC028 04/03 A3012 680 92 -300 330/03 RMK AO2
14837KMSN MSN20051009032509610/09/05 03:25:31  5-MIN KMSN 090925Z 34004KT 10SM OVC028 04/03 A3012 680 92 -300 340/04 RMK AO2
14837KMSN MSN20051009033009610/09/05 03:30:31  5-MIN KMSN 090930Z 00000KT 10SM OVC028 04/03 A3012 680 92 -300 000/00 RMK AO2
14837KMSN MSN20051009033509610/09/05 03:35:31  5-MIN KMSN 090935Z 00000KT 10SM OVC028 04/03 A3012 680 92 -300 000/00 RMK AO2
14837KMSN MSN20051009034009610/09/05 03:40:31  5-MIN KMSN 090940Z 00000KT 10SM OVC028 04/03 A3012 680 92 -300 000/00 RMK AO2
14837KMSN MSN20051009034509610/09/05 03:45:31  5-MIN KMSN 090945Z 00000KT 10SM OVC028 04/03 A3012 680 92 -300 000/00 RMK AO2
14837KMSN MSN20051009035011310/09/05 03:50:31  5-MIN KMSN 090950Z 00000KT 10SM OVC028 04/03 A3012 680 92 -300 000/00 RMK AO2 SLP205 T00440033
14837KMSN MSN20051009035509610/09/05 03:55:31  5-MIN KMSN 090955Z 34004KT 10SM OVC028 04/03 A3012 680 92 -300 340/04 RMK AO2
14837KMSN MSN20051009040009610/09/05 04:00:31  5-MIN KMSN 091000Z 33004KT 10SM OVC028 04/03 A3012 680 92 -300 330/04 RMK AO2
14837KMSN MSN20051009040509610/09/05 04:05:31  5-MIN KMSN 091005Z 00000KT 10SM OVC028 04/04 A3012 680 96 -300 000/00 RMK AO2
14837KMSN MSN20051009041009610/09/05 04:10:31  5-MIN KMSN 091010Z 00000KT 10SM OVC028 05/04 A3013 670 92 -300 000/00 RMK AO2
14837KMSN MSN20051009041509610/09/05 04:15:31  5-MIN KMSN 091015Z 33003KT 10SM OVC028 05/04 A3012 680 92 -300 330/03 RMK AO2
14837KMSN MSN20051009042009610/09/05 04:20:31  5-MIN KMSN 091020Z 35003KT 10SM OVC028 05/04 A3012 680 92 -300 340/03 RMK AO2
14837KMSN MSN20051009042509610/09/05 04:25:31  5-MIN KMSN 091025Z 00000KT 10SM OVC028 05/04 A3013 680 92 -300 000/00 RMK AO2
14837KMSN MSN20051009043009610/09/05 04:30:31  5-MIN KMSN 091030Z 36003KT 10SM OVC028 05/04 A3013 670 92 -300 360/03 RMK AO2
14837KMSN MSN20051009043509610/09/05 04:35:31  5-MIN KMSN 091035Z 36003KT 10SM OVC028 06/04 A3013 670 92 -200 360/03 RMK AO2
14837KMSN MSN20051009044009610/09/05 04:40:31  5-MIN KMSN 091040Z 35003KT 10SM OVC028 06/04 A3013 670 92 -200 350/03 RMK AO2
14837KMSN MSN20051009044509610/09/05 04:45:31  5-MIN KMSN 091045Z 36003KT 10SM OVC028 06/04 A3013 670 92 -200 360/03 RMK AO2
14837KMSN MSN20051009045011310/09/05 04:50:31  5-MIN KMSN 091050Z 36003KT 10SM BKN028 06/04 A3013 670 92 -200 360/03 RMK AO2 SLP207 T00560044
14837KMSN MSN20051009045509610/09/05 04:55:31  5-MIN KMSN 091055Z 36004KT 10SM OVC028 06/04 A3013 670 92 -200 360/04 RMK AO2
14837KMSN MSN20051009050009610/09/05 05:00:31  5-MIN KMSN 091100Z 01003KT 10SM OVC028 06/04 A3013 670 92 -200 010/03 RMK AO2
14837KMSN MSN20051009050509610/09/05 05:05:31  5-MIN KMSN 091105Z 35003KT 10SM OVC028 06/04 A3013 670 92 -200 350/03 RMK AO2
14837KMSN MSN20051009051009610/09/05 05:10:31  5-MIN KMSN 091110Z 01003KT 10SM OVC028 06/04 A3013 670 92 -200 010/03 RMK AO2
14837KMSN MSN20051009051509610/09/05 05:15:31  5-MIN KMSN 091115Z 01004KT 10SM OVC028 06/04 A3013 670 92 -200 360/04 RMK AO2
14837KMSN MSN20051009052009610/09/05 05:20:31  5-MIN KMSN 091120Z 36004KT 10SM OVC028 06/04 A3014 660 92 -200 360/04 RMK AO2
14837KMSN MSN20051009052509610/09/05 05:25:31  5-MIN KMSN 091125Z 36004KT 10SM OVC028 06/04 A3014 660 92 -200 360/04 RMK AO2
14837KMSN MSN20051009053009610/09/05 05:30:31  5-MIN KMSN 091130Z 36004KT 10SM OVC028 06/04 A3014 660 92 -200 360/04 RMK AO2
14837KMSN MSN20051009053509610/09/05 05:35:31  5-MIN KMSN 091135Z 01004KT 10SM OVC028 06/04 A3014 660 92 -200 360/04 RMK AO2
14837KMSN MSN20051009054009610/09/05 05:40:31  5-MIN KMSN 091140Z 35004KT 10SM OVC028 06/04 A3014 660 92 -200 350/04 RMK AO2
14837KMSN MSN20051009054509610/09/05 05:45:31  5-MIN KMSN 091145Z 36004KT 10SM OVC028 06/04 A3014 660 92 -200 360/04 RMK AO2
14837KMSN MSN20051009055013110/09/05 05:50:31  5-MIN KMSN 091150Z 36004KT 10SM BKN028 06/04 A3014 660 92 -200 360/04 RMK AO2 SLP213 T00560044 10056 20011 52001
14837KMSN MSN20051009055509610/09/05 05:55:31  5-MIN KMSN 091155Z 36004KT 10SM OVC030 06/04 A3015 660 92 -200 360/04 RMK AO2
14837KMSN MSN20051009060009610/09/05 06:00:31  5-MIN KMSN 091200Z 35003KT 10SM OVC030 06/04 A3015 660 92 -200 350/03 RMK AO2
14837KMSN MSN20051009060509610/09/05 06:05:31  5-MIN KMSN 091205Z 36003KT 10SM OVC030 06/04 A3015 660 92 -200 360/03 RMK AO2
14837KMSN MSN20051009061009610/09/05 06:10:31  5-MIN KMSN 091210Z 36004KT 10SM OVC030 06/04 A3015 650 92 -200 360/04 RMK AO2
14837KMSN MSN20051009061509610/09/05 06:15:31  5-MIN KMSN 091215Z 36004KT 10SM OVC030 06/04 A3015 650 92 -200 360/04 RMK AO2
14837KMSN MSN20051009062009610/09/05 06:20:31  5-MIN KMSN 091220Z 01004KT 10SM OVC030 06/04 A3015 650 92 -200 360/04 RMK AO2
14837KMSN MSN20051009062509610/09/05 06:25:31  5-MIN KMSN 091225Z 36005KT 10SM OVC030 06/04 A3015 650 92 -200 360/05 RMK AO2
14837KMSN MSN20051009063009610/09/05 06:30:31  5-MIN KMSN 091230Z 36005KT 10SM OVC030 06/04 A3015 650 89 -200 360/05 RMK AO2
14837KMSN MSN20051009063509610/09/05 06:35:31  5-MIN KMSN 091235Z 36004KT 10SM OVC030 06/04 A3015 650 89 -200 360/04 RMK AO2
14837KMSN MSN20051009064009610/09/05 06:40:31  5-MIN KMSN 091240Z 02005KT 10SM OVC030 06/04 A3015 650 89 -200 020/05 RMK AO2
14837KMSN MSN20051009064509610/09/05 06:45:31  5-MIN KMSN 091245Z 03005KT 10SM OVC030 06/04 A3015 650 89 -200 020/05 RMK AO2
14837KMSN MSN20051009065011310/09/05 06:50:31  5-MIN KMSN 091250Z 01004KT 10SM BKN030 06/04 A3015 650 89 -200 010/04 RMK AO2 SLP216 T00610044
14837KMSN MSN20051009065509610/09/05 06:55:31  5-MIN KMSN 091255Z 01004KT 10SM OVC030 06/04 A3015 650 89 -200 010/04 RMK AO2
14837KMSN MSN20051009070009610/09/05 07:00:31  5-MIN KMSN 091300Z 36003KT 10SM BKN030 06/05 A3015 650 93 -200 360/03 RMK AO2
14837KMSN MSN20051009070509610/09/05 07:05:31  5-MIN KMSN 091305Z 00000KT 10SM BKN030 06/04 A3016 650 89 -200 000/00 RMK AO2
14837KMSN MSN20051009071009610/09/05 07:10:31  5-MIN KMSN 091310Z 33004KT 10SM BKN030 06/05 A3016 650 93 -200 330/04 RMK AO2
14837KMSN MSN20051009071509610/09/05 07:15:31  5-MIN KMSN 091315Z 33003KT 10SM BKN030 06/05 A3016 650 93 -200 330/03 RMK AO2
14837KMSN MSN20051009072009610/09/05 07:20:31  5-MIN KMSN 091320Z 33004KT 10SM BKN030 06/05 A3016 650 93 -200 330/04 RMK AO2
14837KMSN MSN20051009072509610/09/05 07:25:31  5-MIN KMSN 091325Z 35004KT 10SM BKN030 06/05 A3016 650 93 -200 350/04 RMK AO2
14837KMSN MSN20051009073009610/09/05 07:30:31  5-MIN KMSN 091330Z 00000KT 10SM BKN030 07/05 A3016 650 89 -100 000/00 RMK AO2
14837KMSN MSN20051009073509610/09/05 07:35:31  5-MIN KMSN 091335Z 34003KT 10SM BKN030 07/05 A3016 650 89 -100 340/03 RMK AO2
14837KMSN MSN20051009074009310/09/05 07:40:31  5-MIN KMSN 091340Z 03003KT 10SM BKN030 07/05 A3016 650 86 0 030/03 RMK AO2
14837KMSN MSN20051009074509310/09/05 07:45:31  5-MIN KMSN 091345Z 02004KT 10SM BKN030 07/05 A3016 650 86 0 020/04 RMK AO2
14837KMSN MSN20051009075009310/09/05 07:50:31  5-MIN KMSN 091350Z 02004KT 10SM BKN029 07/05 A3016 640 86 0 020/04 RMK AO2
14837KMSN MSN20051009075509310/09/05 07:55:31  5-MIN KMSN 091355Z 01004KT 10SM OVC029 07/05 A3016 640 86 0 010/04 RMK AO2
14837KMSN MSN20051009080009310/09/05 08:00:31  5-MIN KMSN 091400Z 03003KT 10SM OVC029 07/05 A3016 640 86 0 030/03 RMK AO2
14837KMSN MSN20051009080509310/09/05 08:05:31  5-MIN KMSN 091405Z 03003KT 10SM OVC029 08/05 A3016 640 82 0 030/03 RMK AO2
14837KMSN MSN20051009081009310/09/05 08:10:31  5-MIN KMSN 091410Z 04004KT 10SM OVC029 08/05 A3016 640 79 0 040/04 RMK AO2
14837KMSN MSN20051009081509310/09/05 08:15:31  5-MIN KMSN 091415Z 04004KT 10SM OVC029 08/05 A3016 640 79 0 040/04 RMK AO2
14837KMSN MSN20051009082009310/09/05 08:20:31  5-MIN KMSN 091420Z 05006KT 10SM OVC029 08/06 A3016 640 82 0 050/06 RMK AO2
14837KMSN MSN20051009082509510/09/05 08:25:31  5-MIN KMSN 091425Z 06006KT 10SM OVC029 09/06 A3016 640 79 100 060/06 RMK AO2
14837KMSN MSN20051009083009510/09/05 08:30:31  5-MIN KMSN 091430Z 06007KT 10SM BKN029 09/06 A3016 640 79 100 060/07 RMK AO2
14837KMSN MSN20051009083509510/09/05 08:35:31  5-MIN KMSN 091435Z 07008KT 10SM BKN029 09/06 A3016 640 76 200 070/08 RMK AO2
14837KMSN MSN20051009084009510/09/05 08:40:31  5-MIN KMSN 091440Z 06006KT 10SM BKN029 09/05 A3016 650 74 200 060/06 RMK AO2
14837KMSN MSN20051009084509510/09/05 08:45:31  5-MIN KMSN 091445Z 06006KT 10SM BKN029 09/06 A3015 650 76 200 060/06 RMK AO2
14837KMSN MSN20051009085011810/09/05 08:50:31  5-MIN KMSN 091450Z 08008KT 10SM BKN029 10/05 A3015 650 71 200 080/08 RMK AO2 SLP216 T01000050 53009
14837KMSN MSN20051009085510210/09/05 08:55:31  5-MIN KMSN 091455Z 08007KT 10SM FEW020 SCT027 10/05 A3015 650 71 200 070/07 RMK AO2
14837KMSN MSN20051009090010210/09/05 09:00:31  5-MIN KMSN 091500Z 07008KT 10SM FEW020 SCT027 11/05 A3015 650 68 300 070/08 RMK AO2
14837KMSN MSN20051009090510210/09/05 09:05:31  5-MIN KMSN 091505Z 10007KT 10SM SCT022 SCT027 11/04 A3015 650 66 300 100/07 RMK AO2
14837KMSN MSN20051009091010210/09/05 09:10:31  5-MIN KMSN 091510Z 06011KT 10SM SCT022 SCT027 11/04 A3015 660 66 300 060/11 RMK AO2
14837KMSN MSN20051009091510210/09/05 09:15:31  5-MIN KMSN 091515Z 06010KT 10SM SCT022 SCT027 11/04 A3015 660 63 400 060/10 RMK AO2
14837KMSN MSN20051009092009510/09/05 09:20:31  5-MIN KMSN 091520Z 07009KT 10SM SCT025 11/04 A3015 660 63 400 070/09 RMK AO2
14837KMSN MSN20051009092509510/09/05 09:25:31  5-MIN KMSN 091525Z 08009KT 10SM SCT025 11/04 A3015 660 66 300 080/09 RMK AO2
14837KMSN MSN20051009093009510/09/05 09:30:31  5-MIN KMSN 091530Z 07010KT 10SM SCT025 10/04 A3015 660 65 300 070/10 RMK AO2
14837KMSN MSN20051009093509510/09/05 09:35:31  5-MIN KMSN 091535Z 08009KT 10SM SCT025 10/04 A3014 660 68 300 080/09 RMK AO2
14837KMSN MSN20051009094009510/09/05 09:40:31  5-MIN KMSN 091540Z 06010KT 10SM SCT025 11/04 A3014 660 63 400 060/10 RMK AO2
14837KMSN MSN20051009094509510/09/05 09:45:31  5-MIN KMSN 091545Z 07009KT 10SM SCT025 11/05 A3014 660 66 400 070/09 RMK AO2
14837KMSN MSN20051009095011210/09/05 09:50:31  5-MIN KMSN 091550Z 06009KT 10SM SCT027 12/04 A3014 660 61 500 060/09 RMK AO2 SLP212 T01170044
14837KMSN MSN20051009095509510/09/05 09:55:31  5-MIN KMSN 091555Z 09008KT 10SM SCT027 12/04 A3014 660 59 500 090/08 RMK AO2
14837KMSN MSN20051009100009510/09/05 10:00:31  5-MIN KMSN 091600Z 08010KT 10SM SCT027 12/04 A3014 660 56 500 080/10 RMK AO2
14837KMSN MSN20051009100509510/09/05 10:05:31  5-MIN KMSN 091605Z 09010KT 10SM SCT027 12/04 A3014 660 61 500 090/10 RMK AO2
14837KMSN MSN20051009101009510/09/05 10:10:31  5-MIN KMSN 091610Z 08009KT 10SM FEW027 12/04 A3014 660 61 500 080/09 RMK AO2
14837KMSN MSN20051009101509510/09/05 10:15:31  5-MIN KMSN 091615Z 05008KT 10SM FEW029 12/04 A3014 660 61 500 050/08 RMK AO2
14837KMSN MSN20051009102009510/09/05 10:20:31  5-MIN KMSN 091620Z 07008KT 10SM SCT029 13/05 A3014 670 59 600 070/08 RMK AO2
14837KMSN MSN20051009102509510/09/05 10:25:31  5-MIN KMSN 091625Z 06009KT 10SM FEW029 12/05 A3014 670 61 500 060/09 RMK AO2
14837KMSN MSN20051009103009510/09/05 10:30:31  5-MIN KMSN 091630Z VRB06KT 10SM FEW029 12/04 A3013 670 59 500 VRB/06 RMK AO2
14837KMSN MSN20051009103509510/09/05 10:35:31  5-MIN KMSN 091635Z 06009KT 10SM FEW029 13/04 A3013 670 56 600 060/09 RMK AO2
14837KMSN MSN20051009104009510/09/05 10:40:31  5-MIN KMSN 091640Z 04007KT 10SM FEW029 13/04 A3013 670 56 600 040/07 RMK AO2
14837KMSN MSN20051009104509510/09/05 10:45:31  5-MIN KMSN 091645Z 06009KT 10SM FEW029 13/04 A3013 670 56 600 060/09 RMK AO2
14837KMSN MSN20051009105011210/09/05 10:50:31  5-MIN KMSN 091650Z 09008KT 10SM FEW029 13/04 A3013 670 54 600 090/08 RMK AO2 SLP207 T01280039
14837KMSN MSN20051009105509810/09/05 10:55:31  5-MIN KMSN 091655Z 04010G15KT 10SM CLR 13/04 A3012 680 54 700 040/10G15 RMK AO2
14837KMSN MSN20051009110009810/09/05 11:00:31  5-MIN KMSN 091700Z 05008G15KT 10SM CLR 13/04 A3012 680 52 700 050/08G15 RMK AO2
14837KMSN MSN20051009110509210/09/05 11:05:31  5-MIN KMSN 091705Z 07008KT 10SM CLR 13/04 A3012 680 54 700 070/08 RMK AO2
14837KMSN MSN20051009111009210/09/05 11:10:31  5-MIN KMSN 091710Z 05011KT 10SM CLR 13/04 A3012 680 54 700 050/11 RMK AO2
14837KMSN MSN20051009111509810/09/05 11:15:31  5-MIN KMSN 091715Z 06008G14KT 10SM CLR 13/04 A3012 680 54 700 060/08G14 RMK AO2
14837KMSN MSN20051009112009210/09/05 11:20:31  5-MIN KMSN 091720Z 08009KT 10SM CLR 13/04 A3012 680 54 700 080/09 RMK AO2
14837KMSN MSN20051009112509210/09/05 11:25:31  5-MIN KMSN 091725Z 05007KT 10SM CLR 14/04 A3011 690 52 800 050/07 RMK AO2
14837KMSN MSN20051009113009510/09/05 11:30:31  5-MIN KMSN 091730Z 06010KT 10SM FEW030 14/04 A3011 690 52 800 060/10 RMK AO2
14837KMSN MSN20051009113509510/09/05 11:35:31  5-MIN KMSN 091735Z 06008KT 10SM FEW030 14/04 A3011 690 52 800 060/08 RMK AO2
14837KMSN MSN20051009114011110/09/05 11:40:31  5-MIN KMSN 091740Z 06009KT 020V080 10SM FEW030 14/04 A3011 690 52 800 050/09 020V080 RMK AO2
14837KMSN MSN20051009114509510/09/05 11:45:31  5-MIN KMSN 091745Z VRB06KT 10SM FEW030 14/05 A3011 690 53 800 VRB/06 RMK AO2
14837KMSN MSN20051009115013010/09/05 11:50:31  5-MIN KMSN 091750Z 11010KT 10SM FEW030 14/05 A3011 690 53 800 110/10 RMK AO2 SLP199 T01440050 10144 20056 50003
14837KMSN MSN20051009115509210/09/05 11:55:31  5-MIN KMSN 091755Z 05006KT 10SM CLR 14/05 A3010 700 55 800 050/06 RMK AO2
14837KMSN MSN20051009120009210/09/05 12:00:31  5-MIN KMSN 091800Z 05011KT 10SM CLR 14/05 A3010 700 55 800 050/11 RMK AO2
14837KMSN MSN20051009120509810/09/05 12:05:31  5-MIN KMSN 091805Z 08010G15KT 10SM CLR 14/05 A3010 700 53 800 080/10G15 RMK AO2
14837KMSN MSN20051009121009810/09/05 12:10:31  5-MIN KMSN 091810Z 05008G15KT 10SM CLR 14/04 A3010 700 51 800 050/08G15 RMK AO2
14837KMSN MSN20051009121509210/09/05 12:15:31  5-MIN KMSN 091815Z 07008KT 10SM CLR 14/04 A3010 700 52 800 070/08 RMK AO2
14837KMSN MSN20051009122009210/09/05 12:20:31  5-MIN KMSN 091820Z VRB04KT 10SM CLR 14/04 A3010 700 51 800 VRB/04 RMK AO2
14837KMSN MSN20051009122510810/09/05 12:25:31  5-MIN KMSN 091825Z 06008KT 020V120 10SM CLR 14/05 A3009 710 53 800 060/08 020V120 RMK AO2
14837KMSN MSN20051009123009210/09/05 12:30:31  5-MIN KMSN 091830Z 05010KT 10SM CLR 14/04 A3009 710 51 800 050/10 RMK AO2
14837KMSN MSN20051009123509210/09/05 12:35:31  5-MIN KMSN 091835Z 09008KT 10SM CLR 14/04 A3009 710 51 800 090/08 RMK AO2
14837KMSN MSN20051009124009210/09/05 12:40:31  5-MIN KMSN 091840Z 05009KT 10SM CLR 14/04 A3009 710 51 900 050/09 RMK AO2
14837KMSN MSN20051009124509210/09/05 12:45:31  5-MIN KMSN 091845Z 05011KT 10SM CLR 15/05 A3008 710 51 900 050/11 RMK AO2
14837KMSN MSN20051009125010910/09/05 12:50:31  5-MIN KMSN 091850Z 07010KT 10SM CLR 15/05 A3008 710 51 900 070/10 RMK AO2 SLP191 T01500050
14837KMSN MSN20051009125509210/09/05 12:55:31  5-MIN KMSN 091855Z 08010KT 10SM CLR 14/04 A3008 720 51 900 080/10 RMK AO2
14837KMSN MSN20051009130010810/09/05 13:00:31  5-MIN KMSN 091900Z 07008KT 030V110 10SM CLR 14/04 A3008 720 51 900 070/08 030V110 RMK AO2
14837KMSN MSN20051009130509210/09/05 13:05:31  5-MIN KMSN 091905Z 07011KT 10SM CLR 15/04 A3008 720 49 900 070/11 RMK AO2
14837KMSN MSN20051009131009210/09/05 13:10:31  5-MIN KMSN 091910Z 11009KT 10SM CLR 15/04 A3008 720 49 900 100/09 RMK AO2
14837KMSN MSN20051009131509210/09/05 13:15:31  5-MIN KMSN 091915Z 08007KT 10SM CLR 15/05 A3007 720 51 900 080/07 RMK AO2
14837KMSN MSN20051009132010810/09/05 13:20:31  5-MIN KMSN 091920Z 04007KT 020V090 10SM CLR 15/05 A3007 720 51 900 040/07 020V090 RMK AO2
14837KMSN MSN20051009132509210/09/05 13:25:31  5-MIN KMSN 091925Z VRB06KT 10SM CLR 15/04 A3007 720 49 900 VRB/06 RMK AO2
14837KMSN MSN20051009133009910/09/05 13:30:31  5-MIN KMSN 091930Z 04010G14KT 10SM CLR 16/05 A3007 720 49 1000 040/10G14 RMK AO2
14837KMSN MSN20051009133509310/09/05 13:35:31  5-MIN KMSN 091935Z 09007KT 10SM CLR 16/04 A3007 720 47 1000 090/07 RMK AO2
14837KMSN MSN20051009134009210/09/05 13:40:31  5-MIN KMSN 091940Z 06007KT 10SM CLR 15/04 A3007 720 49 900 060/07 RMK AO2
14837KMSN MSN20051009134509310/09/05 13:45:31  5-MIN KMSN 091945Z 04010KT 10SM CLR 16/05 A3007 730 49 1000 040/10 RMK AO2
14837KMSN MSN20051009135011010/09/05 13:50:31  5-MIN KMSN 091950Z 06010KT 10SM CLR 16/04 A3007 730 47 1000 060/10 RMK AO2 SLP186 T01560044
14837KMSN MSN20051009135509310/09/05 13:55:31  5-MIN KMSN 091955Z 07008KT 10SM CLR 16/05 A3007 730 49 1000 060/08 RMK AO2
14837KMSN MSN20051009140009310/09/05 14:00:31  5-MIN KMSN 092000Z 06010KT 10SM CLR 16/05 A3007 730 49 1000 060/10 RMK AO2
14837KMSN MSN20051009140509310/09/05 14:05:31  5-MIN KMSN 092005Z 04009KT 10SM CLR 16/05 A3007 730 47 1100 040/09 RMK AO2
14837KMSN MSN20051009141009310/09/05 14:10:31  5-MIN KMSN 092010Z 08007KT 10SM CLR 16/05 A3007 730 49 1000 070/07 RMK AO2
14837KMSN MSN20051009141509310/09/05 14:15:31  5-MIN KMSN 092015Z 06009KT 10SM CLR 16/05 A3007 730 49 1000 060/09 RMK AO2
14837KMSN MSN20051009142009310/09/05 14:20:31  5-MIN KMSN 092020Z 06008KT 10SM CLR 16/04 A3007 730 47 1000 060/08 RMK AO2
14837KMSN MSN20051009142509310/09/05 14:25:31  5-MIN KMSN 092025Z 06009KT 10SM CLR 16/05 A3007 730 47 1100 060/09 RMK AO2
14837KMSN MSN20051009143009310/09/05 14:30:31  5-MIN KMSN 092030Z 05008KT 10SM CLR 16/05 A3007 730 47 1100 050/08 RMK AO2
14837KMSN MSN20051009143509310/09/05 14:35:31  5-MIN KMSN 092035Z 04008KT 10SM CLR 16/05 A3007 730 47 1100 040/08 RMK AO2
14837KMSN MSN20051009144009910/09/05 14:40:31  5-MIN KMSN 092040Z VRB05G19KT 10SM CLR 16/04 A3007 730 45 1100 VRB/05G19 RMK AO2
14837KMSN MSN20051009144509310/09/05 14:45:31  5-MIN KMSN 092045Z 04009KT 10SM CLR 16/04 A3007 730 47 1000 040/09 RMK AO2
14837KMSN MSN20051009145011610/09/05 14:50:31  5-MIN KMSN 092050Z 04010KT 10SM CLR 16/05 A3007 730 47 1100 040/10 RMK AO2 SLP184 T01610050 58016
14837KMSN MSN20051009145509310/09/05 14:55:31  5-MIN KMSN 092055Z 05006KT 10SM CLR 16/04 A3006 730 47 1000 050/06 RMK AO2
14837KMSN MSN20051009150009310/09/05 15:00:31  5-MIN KMSN 092100Z 05011KT 10SM CLR 16/05 A3006 730 47 1100 050/11 RMK AO2
14837KMSN MSN20051009150509310/09/05 15:05:31  5-MIN KMSN 092105Z 07011KT 10SM CLR 16/04 A3007 730 47 1000 070/11 RMK AO2
14837KMSN MSN20051009151009310/09/05 15:10:31  5-MIN KMSN 092110Z 06008KT 10SM CLR 16/04 A3007 730 47 1000 060/08 RMK AO2
14837KMSN MSN20051009151509310/09/05 15:15:31  5-MIN KMSN 092115Z 04008KT 10SM CLR 16/04 A3007 730 47 1000 040/08 RMK AO2
14837KMSN MSN20051009152009310/09/05 15:20:31  5-MIN KMSN 092120Z 04009KT 10SM CLR 16/04 A3006 730 47 1000 040/09 RMK AO2
14837KMSN MSN20051009152509310/09/05 15:25:31  5-MIN KMSN 092125Z 08009KT 10SM CLR 16/05 A3007 730 49 1000 070/09 RMK AO2
14837KMSN MSN20051009153009310/09/05 15:30:31  5-MIN KMSN 092130Z 06010KT 10SM CLR 16/05 A3007 730 49 1000 060/10 RMK AO2
14837KMSN MSN20051009153509310/09/05 15:35:31  5-MIN KMSN 092135Z 05012KT 10SM CLR 16/04 A3007 730 47 1000 050/12 RMK AO2
14837KMSN MSN20051009154009310/09/05 15:40:31  5-MIN KMSN 092140Z 06006KT 10SM CLR 16/04 A3007 730 47 1000 060/06 RMK AO2
14837KMSN MSN20051009154509210/09/05 15:45:31  5-MIN KMSN 092145Z 06008KT 10SM CLR 15/04 A3007 730 49 900 060/08 RMK AO2
14837KMSN MSN20051009155011010/09/05 15:50:31  5-MIN KMSN 092150Z 06010KT 10SM CLR 16/05 A3007 730 49 1000 060/10 RMK AO2 SLP185 T01560050
14837KMSN MSN20051009155509210/09/05 15:55:31  5-MIN KMSN 092155Z 06011KT 10SM CLR 15/05 A3007 720 51 900 060/11 RMK AO2
14837KMSN MSN20051009160009210/09/05 16:00:31  5-MIN KMSN 092200Z 06010KT 10SM CLR 15/05 A3007 720 51 900 060/10 RMK AO2
14837KMSN MSN20051009160509210/09/05 16:05:31  5-MIN KMSN 092205Z 06009KT 10SM CLR 15/05 A3008 720 51 900 060/09 RMK AO2
14837KMSN MSN20051009161009210/09/05 16:10:31  5-MIN KMSN 092210Z 06008KT 10SM CLR 14/05 A3008 720 53 900 060/08 RMK AO2
14837KMSN MSN20051009161509210/09/05 16:15:31  5-MIN KMSN 092215Z 07009KT 10SM CLR 14/05 A3008 720 53 900 070/09 RMK AO2
14837KMSN MSN20051009162009210/09/05 16:20:31  5-MIN KMSN 092220Z 06008KT 10SM CLR 14/04 A3008 720 51 900 060/08 RMK AO2
14837KMSN MSN20051009162509210/09/05 16:25:31  5-MIN KMSN 092225Z 06009KT 10SM CLR 14/04 A3008 720 51 900 060/09 RMK AO2
14837KMSN MSN20051009163009210/09/05 16:30:31  5-MIN KMSN 092230Z 06009KT 10SM CLR 14/04 A3008 720 51 900 060/09 RMK AO2
14837KMSN MSN20051009163509210/09/05 16:35:31  5-MIN KMSN 092235Z 07008KT 10SM CLR 14/05 A3008 720 55 800 060/08 RMK AO2
14837KMSN MSN20051009164009210/09/05 16:40:31  5-MIN KMSN 092240Z 06009KT 10SM CLR 14/05 A3008 720 55 800 060/09 RMK AO2
14837KMSN MSN20051009164509210/09/05 16:45:31  5-MIN KMSN 092245Z 05007KT 10SM CLR 14/04 A3008 720 52 800 050/07 RMK AO2
14837KMSN MSN20051009165010910/09/05 16:50:31  5-MIN KMSN 092250Z 06008KT 10SM CLR 13/05 A3008 720 57 700 060/08 RMK AO2 SLP190 T01330050
14837KMSN MSN20051009165509210/09/05 16:55:31  5-MIN KMSN 092255Z 06009KT 10SM CLR 13/04 A3008 710 54 700 060/09 RMK AO2
14837KMSN MSN20051009170009210/09/05 17:00:31  5-MIN KMSN 092300Z 06007KT 10SM CLR 13/04 A3008 710 56 700 060/07 RMK AO2
14837KMSN MSN20051009170509210/09/05 17:05:31  5-MIN KMSN 092305Z 06007KT 10SM CLR 12/04 A3008 710 59 600 060/07 RMK AO2
14837KMSN MSN20051009171009210/09/05 17:10:31  5-MIN KMSN 092310Z 06007KT 10SM CLR 12/04 A3008 710 61 500 060/07 RMK AO2
14837KMSN MSN20051009171509210/09/05 17:15:31  5-MIN KMSN 092315Z 07007KT 10SM CLR 12/04 A3008 710 61 500 060/07 RMK AO2
14837KMSN MSN20051009172009210/09/05 17:20:31  5-MIN KMSN 092320Z 07007KT 10SM CLR 11/04 A3008 710 63 500 070/07 RMK AO2
14837KMSN MSN20051009172509210/09/05 17:25:31  5-MIN KMSN 092325Z 07007KT 10SM CLR 11/04 A3008 710 66 400 060/07 RMK AO2
14837KMSN MSN20051009173009210/09/05 17:30:31  5-MIN KMSN 092330Z 06007KT 10SM CLR 11/04 A3009 710 66 400 060/07 RMK AO2
14837KMSN MSN20051009173509210/09/05 17:35:31  5-MIN KMSN 092335Z 06006KT 10SM CLR 10/04 A3009 710 68 300 060/06 RMK AO2
14837KMSN MSN20051009174009210/09/05 17:40:31  5-MIN KMSN 092340Z 06007KT 10SM CLR 10/04 A3009 710 68 300 060/07 RMK AO2
14837KMSN MSN20051009174509210/09/05 17:45:31  5-MIN KMSN 092345Z 06006KT 10SM CLR 10/04 A3009 710 65 300 060/06 RMK AO2
14837KMSN MSN20051009175012710/09/05 17:50:31  5-MIN KMSN 092350Z 06006KT 10SM CLR 09/04 A3009 710 68 300 060/06 RMK AO2 SLP193 T00940039 10161 20094 56012
14837KMSN MSN20051009175509210/09/05 17:55:31  5-MIN KMSN 092355Z 07007KT 10SM CLR 09/04 A3009 710 68 300 070/07 RMK AO2
14837KMSN MSN20051009180009210/09/05 18:00:31  5-MIN KMSN 100000Z 07007KT 10SM CLR 09/04 A3009 710 68 300 070/07 RMK AO2
14837KMSN MSN20051009180509210/09/05 18:05:31  5-MIN KMSN 100005Z 07006KT 10SM CLR 09/04 A3009 710 71 200 070/06 RMK AO2
14837KMSN MSN20051009181009210/09/05 18:10:31  5-MIN KMSN 100010Z 07006KT 10SM CLR 09/04 A3009 710 71 200 070/06 RMK AO2
14837KMSN MSN20051009181509210/09/05 18:15:31  5-MIN KMSN 100015Z 07007KT 10SM CLR 09/04 A3009 710 71 200 070/07 RMK AO2
14837KMSN MSN20051009182009210/09/05 18:20:31  5-MIN KMSN 100020Z 07007KT 10SM CLR 09/04 A3009 710 71 200 070/07 RMK AO2
14837KMSN MSN20051009182509210/09/05 18:25:31  5-MIN KMSN 100025Z 07007KT 10SM CLR 09/04 A3009 710 71 200 070/07 RMK AO2
14837KMSN MSN20051009183009210/09/05 18:30:31  5-MIN KMSN 100030Z 07007KT 10SM CLR 08/04 A3009 700 73 100 070/07 RMK AO2
14837KMSN MSN20051009183509210/09/05 18:35:31  5-MIN KMSN 100035Z 07006KT 10SM CLR 08/04 A3010 700 73 100 070/06 RMK AO2
14837KMSN MSN20051009184009210/09/05 18:40:31  5-MIN KMSN 100040Z 07006KT 10SM CLR 08/04 A3010 700 73 100 070/06 RMK AO2
14837KMSN MSN20051009184509210/09/05 18:45:31  5-MIN KMSN 100045Z 08007KT 10SM CLR 08/04 A3010 700 73 100 070/07 RMK AO2
14837KMSN MSN20051009185010910/09/05 18:50:31  5-MIN KMSN 100050Z 07006KT 10SM CLR 08/04 A3010 700 73 100 070/06 RMK AO2 SLP198 T00830039
14837KMSN MSN20051009185509210/09/05 18:55:31  5-MIN KMSN 100055Z 07007KT 10SM CLR 08/04 A3010 700 73 100 070/07 RMK AO2
14837KMSN MSN20051009190009210/09/05 19:00:31  5-MIN KMSN 100100Z 08007KT 10SM CLR 08/04 A3010 690 73 100 070/07 RMK AO2
14837KMSN MSN20051009190509010/09/05 19:05:31  5-MIN KMSN 100105Z 07006KT 10SM CLR 08/04 A3011 690 76 0 070/06 RMK AO2
14837KMSN MSN20051009191009010/09/05 19:10:31  5-MIN KMSN 100110Z 07006KT 10SM CLR 08/04 A3011 690 76 0 070/06 RMK AO2
14837KMSN MSN20051009191509010/09/05 19:15:31  5-MIN KMSN 100115Z 07006KT 10SM CLR 08/04 A3011 690 76 0 070/06 RMK AO2
14837KMSN MSN20051009192009010/09/05 19:20:31  5-MIN KMSN 100120Z 08006KT 10SM CLR 08/04 A3012 680 76 0 080/06 RMK AO2
14837KMSN MSN20051009192509010/09/05 19:25:31  5-MIN KMSN 100125Z 08005KT 10SM CLR 08/04 A3012 680 79 0 080/05 RMK AO2
14837KMSN MSN20051009193009010/09/05 19:30:31  5-MIN KMSN 100130Z 10005KT 10SM CLR 08/04 A3012 680 76 0 100/05 RMK AO2
14837KMSN MSN20051009193509210/09/05 19:35:31  5-MIN KMSN 100135Z 09008KT 10SM CLR 08/04 A3012 680 76 100 090/08 RMK AO2
14837KMSN MSN20051009194009210/09/05 19:40:31  5-MIN KMSN 100140Z 10008KT 10SM CLR 08/04 A3012 680 76 100 100/08 RMK AO2
14837KMSN MSN20051009194509210/09/05 19:45:31  5-MIN KMSN 100145Z 09007KT 10SM CLR 08/04 A3012 680 76 100 090/07 RMK AO2
14837KMSN MSN20051009195010710/09/05 19:50:31  5-MIN KMSN 100150Z 09006KT 10SM CLR 08/04 A3012 680 79 0 090/06 RMK AO2 SLP205 T00780044
14837KMSN MSN20051009195509010/09/05 19:55:31  5-MIN KMSN 100155Z 09007KT 10SM CLR 08/04 A3012 680 79 0 090/07 RMK AO2
14837KMSN MSN20051009200009010/09/05 20:00:31  5-MIN KMSN 100200Z 09007KT 10SM CLR 08/04 A3012 680 79 0 090/07 RMK AO2
14837KMSN MSN20051009200509010/09/05 20:05:31  5-MIN KMSN 100205Z 09006KT 10SM CLR 08/04 A3012 680 79 0 090/06 RMK AO2
14837KMSN MSN20051009201009010/09/05 20:10:31  5-MIN KMSN 100210Z 09006KT 10SM CLR 08/04 A3013 670 79 0 090/06 RMK AO2
14837KMSN MSN20051009201509010/09/05 20:15:31  5-MIN KMSN 100215Z 10007KT 10SM CLR 07/04 A3013 670 82 0 090/07 RMK AO2
14837KMSN MSN20051009202009010/09/05 20:20:31  5-MIN KMSN 100220Z 10006KT 10SM CLR 07/04 A3013 670 82 0 100/06 RMK AO2
14837KMSN MSN20051009202509010/09/05 20:25:31  5-MIN KMSN 100225Z 09005KT 10SM CLR 07/04 A3013 670 82 0 090/05 RMK AO2
14837KMSN MSN20051009203009010/09/05 20:30:31  5-MIN KMSN 100230Z 08005KT 10SM CLR 07/04 A3013 670 79 0 080/05 RMK AO2
14837KMSN MSN20051009203509310/09/05 20:35:31  5-MIN KMSN 100235Z 09006KT 10SM CLR 07/04 A3013 680 82 -100 090/06 RMK AO2
14837KMSN MSN20051009204009310/09/05 20:40:31  5-MIN KMSN 100240Z 08005KT 10SM CLR 07/04 A3013 670 82 -100 080/05 RMK AO2
14837KMSN MSN20051009204509310/09/05 20:45:31  5-MIN KMSN 100245Z 07005KT 10SM CLR 07/04 A3013 670 82 -100 070/05 RMK AO2
14837KMSN MSN20051009205011610/09/05 20:50:31  5-MIN KMSN 100250Z 06005KT 10SM CLR 06/03 A3013 670 82 -100 060/05 RMK AO2 SLP207 T00610033 51006
14837KMSN MSN20051009205509310/09/05 20:55:31  5-MIN KMSN 100255Z 06005KT 10SM CLR 06/03 A3013 670 82 -100 060/05 RMK AO2
14837KMSN MSN20051009210009310/09/05 21:00:31  5-MIN KMSN 100300Z 06005KT 10SM CLR 06/03 A3013 670 85 -200 060/05 RMK AO2
14837KMSN MSN20051009210509310/09/05 21:05:31  5-MIN KMSN 100305Z 05004KT 10SM CLR 06/03 A3013 670 85 -200 050/04 RMK AO2
14837KMSN MSN20051009211009310/09/05 21:10:31  5-MIN KMSN 100310Z 05004KT 10SM CLR 06/03 A3013 670 85 -200 050/04 RMK AO2
14837KMSN MSN20051009211509310/09/05 21:15:31  5-MIN KMSN 100315Z 05003KT 10SM CLR 06/03 A3013 670 82 -100 040/03 RMK AO2
14837KMSN MSN20051009212009310/09/05 21:20:31  5-MIN KMSN 100320Z 04004KT 10SM CLR 06/04 A3013 670 86 -100 040/04 RMK AO2
14837KMSN MSN20051009212509610/09/05 21:25:31  5-MIN KMSN 100325Z 05003KT 10SM FEW021 06/03 A3013 670 85 -200 050/03 RMK AO2
14837KMSN MSN20051009213009610/09/05 21:30:31  5-MIN KMSN 100330Z 05003KT 10SM BKN021 06/04 A3013 670 86 -100 050/03 RMK AO2
14837KMSN MSN20051009213509610/09/05 21:35:31  5-MIN KMSN 100335Z 04003KT 10SM BKN021 06/04 A3013 670 86 -100 040/03 RMK AO2
14837KMSN MSN20051009214009610/09/05 21:40:31  5-MIN KMSN 100340Z 04003KT 10SM BKN021 07/04 A3013 670 82 -100 040/03 RMK AO2
14837KMSN MSN20051009214509610/09/05 21:45:31  5-MIN KMSN 100345Z 05003KT 10SM BKN021 07/04 A3013 670 82 -100 050/03 RMK AO2
14837KMSN MSN20051009215011310/09/05 21:50:31  5-MIN KMSN 100350Z 03003KT 10SM OVC021 07/04 A3013 670 86 -100 020/03 RMK AO2 SLP206 T00670044
14837KMSN MSN20051009215509610/09/05 21:55:31  5-MIN KMSN 100355Z 04003KT 10SM OVC021 07/04 A3013 670 86 -100 040/03 RMK AO2
14837KMSN MSN20051009220009310/09/05 22:00:31  5-MIN KMSN 100400Z 00000KT 10SM OVC021 07/04 A3013 670 82 0 000/00 RMK AO2
14837KMSN MSN20051009220509310/09/05 22:05:31  5-MIN KMSN 100405Z 04003KT 10SM BKN021 07/04 A3013 670 82 0 040/03 RMK AO2
14837KMSN MSN20051009221009310/09/05 22:10:31  5-MIN KMSN 100410Z 04003KT 10SM BKN021 07/04 A3013 670 82 0 040/03 RMK AO2
14837KMSN MSN20051009221509310/09/05 22:15:31  5-MIN KMSN 100415Z 05003KT 10SM SCT021 07/04 A3013 670 82 0 050/03 RMK AO2
14837KMSN MSN20051009222009310/09/05 22:20:31  5-MIN KMSN 100420Z 03003KT 10SM FEW021 07/04 A3013 670 82 0 030/03 RMK AO2
14837KMSN MSN20051009222509610/09/05 22:25:31  5-MIN KMSN 100425Z 00000KT 10SM FEW021 07/04 A3012 680 86 -100 000/00 RMK AO2
14837KMSN MSN20051009223009310/09/05 22:30:31  5-MIN KMSN 100430Z 00000KT 10SM CLR 06/04 A3012 680 89 -100 000/00 RMK AO2
14837KMSN MSN20051009223509310/09/05 22:35:31  5-MIN KMSN 100435Z 00000KT 10SM CLR 06/04 A3012 680 89 -100 000/00 RMK AO2
14837KMSN MSN20051009224009310/09/05 22:40:31  5-MIN KMSN 100440Z 33003KT 10SM CLR 06/04 A3012 680 89 -200 330/03 RMK AO2
14837KMSN MSN20051009224509310/09/05 22:45:31  5-MIN KMSN 100445Z 31003KT 10SM CLR 05/04 A3012 680 92 -300 310/03 RMK AO2
14837KMSN MSN20051009225011010/09/05 22:50:31  5-MIN KMSN 100450Z 30003KT 10SM CLR 05/04 A3012 680 92 -300 300/03 RMK AO2 SLP205 T00500039
14837KMSN MSN20051009225509310/09/05 22:55:31  5-MIN KMSN 100455Z 32003KT 10SM CLR 05/04 A3012 680 92 -300 320/03 RMK AO2
14837KMSN MSN20051009230009310/09/05 23:00:31  5-MIN KMSN 100500Z 34004KT 10SM CLR 05/04 A3012 680 92 -300 340/04 RMK AO2
14837KMSN MSN20051009230509310/09/05 23:05:31  5-MIN KMSN 100505Z 34003KT 10SM CLR 05/04 A3012 680 92 -300 340/03 RMK AO2
14837KMSN MSN20051009231009210/09/05 23:10:31  5-MIN KMSN 100510Z 34004KT 9SM CLR 05/04 A3012 680 92 -300 340/04 RMK AO2
14837KMSN MSN20051009231509210/09/05 23:15:31  5-MIN KMSN 100515Z 34004KT 9SM CLR 05/04 A3012 680 92 -300 340/04 RMK AO2
14837KMSN MSN20051009232009210/09/05 23:20:31  5-MIN KMSN 100520Z 34004KT 9SM CLR 05/04 A3012 680 92 -300 340/04 RMK AO2
14837KMSN MSN20051009232509210/09/05 23:25:31  5-MIN KMSN 100525Z 34003KT 9SM CLR 05/04 A3012 680 92 -300 340/03 RMK AO2
14837KMSN MSN20051009233009210/09/05 23:30:31  5-MIN KMSN 100530Z 34004KT 9SM CLR 04/04 A3012 680 96 -300 340/04 RMK AO2
14837KMSN MSN20051009233509210/09/05 23:35:31  5-MIN KMSN 100535Z 34004KT 8SM CLR 04/04 A3012 680 96 -300 330/04 RMK AO2
14837KMSN MSN20051009234009210/09/05 23:40:31  5-MIN KMSN 100540Z 33004KT 9SM CLR 04/04 A3012 680 96 -300 330/04 RMK AO2
14837KMSN MSN20051009234509210/09/05 23:45:31  5-MIN KMSN 100545Z 32004KT 8SM CLR 04/04 A3012 680 96 -300 320/04 RMK AO2
14837KMSN MSN20051009235013710/09/05 23:50:31  5-MIN KMSN 100550Z 33003KT 8SM CLR 04/04 A3012 680 96 -300 330/03 RMK AO2 SLP204 T00440039 10094 20044 401610011 51015
14837KMSN MSN20051009235509210/09/05 23:55:31  5-MIN KMSN 100555Z 33004KT 8SM CLR 05/04 A3012 680 92 -300 330/04 RMK AO2
14837KMSN MSN20051010000009210/10/05 00:00:38  5-MIN KMSN 100600Z 33003KT 8SM CLR 04/03 A3012 680 92 -300 330/03 RMK AO2
14837KMSN MSN20051010000509210/10/05 00:05:31  5-MIN KMSN 100605Z 33003KT 7SM CLR 04/03 A3012 680 96 -400 320/03 RMK AO2
14837KMSN MSN20051010001009210/10/05 00:10:31  5-MIN KMSN 100610Z 33003KT 7SM CLR 04/03 A3012 680 96 -400 330/03 RMK AO2
14837KMSN MSN20051010001509510/10/05 00:15:31  5-MIN KMSN 100615Z 33003KT 6SM BR CLR 04/03 A3012 680 96 -400 330/03 RMK AO2
14837KMSN MSN20051010002009510/10/05 00:20:31  5-MIN KMSN 100620Z 34003KT 6SM BR CLR 04/03 A3012 680 96 -400 340/03 RMK AO2
14837KMSN MSN20051010002509510/10/05 00:25:31  5-MIN KMSN 100625Z 34004KT 6SM BR CLR 04/03 A3012 680 96 -400 340/04 RMK AO2
14837KMSN MSN20051010003009510/10/05 00:30:31  5-MIN KMSN 100630Z 32003KT 6SM BR CLR 04/03 A3012 680 96 -400 320/03 RMK AO2
14837KMSN MSN20051010003509510/10/05 00:35:31  5-MIN KMSN 100635Z 32003KT 6SM BR CLR 04/03 A3012 680 96 -400 320/03 RMK AO2
14837KMSN MSN20051010004009510/10/05 00:40:31  5-MIN KMSN 100640Z 32004KT 5SM BR CLR 04/03 A3012 680 96 -400 320/04 RMK AO2
14837KMSN MSN20051010004509510/10/05 00:45:31  5-MIN KMSN 100645Z 33003KT 6SM BR CLR 04/03 A3012 680 96 -400 330/03 RMK AO2
14837KMSN MSN20051010005011210/10/05 00:50:31  5-MIN KMSN 100650Z 00000KT 5SM BR CLR 04/03 A3012 680 96 -400 000/00 RMK AO2 SLP205 T00390033
14837KMSN MSN20051010005509510/10/05 00:55:31  5-MIN KMSN 100655Z 00000KT 6SM BR CLR 04/03 A3012 680 92 -400 000/00 RMK AO2
14837KMSN MSN20051010010009510/10/05 01:00:31  5-MIN KMSN 100700Z 33003KT 6SM BR CLR 03/03 A3012 680 96 -500 330/03 RMK AO2
14837KMSN MSN20051010010509510/10/05 01:05:31  5-MIN KMSN 100705Z 34003KT 5SM BR CLR 03/03 A3012 680 96 -500 340/03 RMK AO2
14837KMSN MSN20051010011009210/10/05 01:10:31  5-MIN KMSN 100710Z 35003KT 7SM CLR 03/03 A3012 680 96 -500 350/03 RMK AO2
14837KMSN MSN20051010011509510/10/05 01:15:31  5-MIN KMSN 100715Z 36003KT 5SM BR CLR 03/02 A3012 680 96 -600 360/03 RMK AO2
14837KMSN MSN20051010012009510/10/05 01:20:31  5-MIN KMSN 100720Z 36004KT 4SM BR CLR 03/02 A3012 680 96 -500 350/04 RMK AO2
14837KMSN MSN20051010012509510/10/05 01:25:31  5-MIN KMSN 100725Z 36004KT 4SM BR CLR 03/02 A3012 680 96 -500 360/04 RMK AO2
14837KMSN MSN20051010013009510/10/05 01:30:31  5-MIN KMSN 100730Z 35004KT 4SM BR CLR 03/02 A3012 680 96 -500 350/04 RMK AO2
14837KMSN MSN20051010013509510/10/05 01:35:31  5-MIN KMSN 100735Z 34004KT 4SM BR CLR 03/02 A3012 680 96 -500 340/04 RMK AO2
14837KMSN MSN20051010014009610/10/05 01:40:31  5-MIN KMSN 100740Z 33003KT 4SM BR CLR 03/03 A3012 680 100 -500 320/03 RMK AO2
14837KMSN MSN20051010014509510/10/05 01:45:31  5-MIN KMSN 100745Z 33003KT 4SM BR CLR 03/03 A3012 680 96 -500 330/03 RMK AO2
14837KMSN MSN20051010015011210/10/05 01:50:31  5-MIN KMSN 100750Z 34003KT 4SM BR CLR 03/03 A3012 680 96 -500 340/03 RMK AO2 SLP202 T00330028
14837KMSN MSN20051010015509610/10/05 01:55:31  5-MIN KMSN 100755Z 00000KT 3SM BR CLR 03/03 A3011 690 100 -500 000/00 RMK AO2
14837KMSN MSN20051010020009510/10/05 02:00:31  5-MIN KMSN 100800Z 35003KT 4SM BR CLR 03/02 A3011 690 96 -500 350/03 RMK AO2
14837KMSN MSN20051010020509510/10/05 02:05:31  5-MIN KMSN 100805Z 34003KT 6SM BR CLR 03/03 A3011 690 96 -500 340/03 RMK AO2
14837KMSN MSN20051010021009610/10/05 02:10:31  5-MIN KMSN 100810Z 33004KT 4SM BR CLR 03/03 A3011 690 100 -500 330/04 RMK AO2
14837KMSN MSN20051010021509510/10/05 02:15:31  5-MIN KMSN 100815Z 32004KT 4SM BR CLR 03/03 A3011 690 96 -500 320/04 RMK AO2
14837KMSN MSN20051010022009510/10/05 02:20:31  5-MIN KMSN 100820Z 33004KT 4SM BR CLR 03/03 A3011 690 96 -500 330/04 RMK AO2
14837KMSN MSN20051010022509610/10/05 02:25:31  5-MIN KMSN 100825Z 33004KT 5SM BR CLR 03/03 A3011 690 100 -500 330/04 RMK AO2
14837KMSN MSN20051010023009510/10/05 02:30:31  5-MIN KMSN 100830Z 32004KT 5SM BR CLR 03/03 A3011 690 96 -500 320/04 RMK AO2
14837KMSN MSN20051010023509610/10/05 02:35:31  5-MIN KMSN 100835Z 33004KT 5SM BR CLR 03/03 A3011 690 100 -500 330/04 RMK AO2
14837KMSN MSN20051010024009510/10/05 02:40:31  5-MIN KMSN 100840Z 33004KT 4SM BR CLR 03/03 A3011 690 96 -500 330/04 RMK AO2
14837KMSN MSN20051010024509510/10/05 02:45:31  5-MIN KMSN 100845Z 33004KT 4SM BR CLR 03/03 A3011 690 96 -500 330/04 RMK AO2
14837KMSN MSN20051010025011810/10/05 02:50:31  5-MIN KMSN 100850Z 33004KT 4SM BR CLR 03/03 A3011 690 96 -500 330/04 RMK AO2 SLP197 T00330028 57003
14837KMSN MSN20051010025509510/10/05 02:55:31  5-MIN KMSN 100855Z 32004KT 4SM BR CLR 03/03 A3011 690 96 -500 320/04 RMK AO2
14837KMSN MSN20051010030009510/10/05 03:00:31  5-MIN KMSN 100900Z 32004KT 4SM BR CLR 03/03 A3011 690 96 -500 320/04 RMK AO2
14837KMSN MSN20051010030509510/10/05 03:05:31  5-MIN KMSN 100905Z 33004KT 4SM BR CLR 03/03 A3011 690 96 -500 330/04 RMK AO2
14837KMSN MSN20051010031009610/10/05 03:10:31  5-MIN KMSN 100910Z 32003KT 4SM BR CLR 03/03 A3011 690 100 -500 320/03 RMK AO2
14837KMSN MSN20051010031509510/10/05 03:15:31  5-MIN KMSN 100915Z 32004KT 4SM BR CLR 03/03 A3011 690 96 -500 320/04 RMK AO2
14837KMSN MSN20051010032009610/10/05 03:20:31  5-MIN KMSN 100920Z 33004KT 4SM BR CLR 03/03 A3011 690 100 -500 330/04 RMK AO2
14837KMSN MSN20051010032509610/10/05 03:25:31  5-MIN KMSN 100925Z 33003KT 3SM BR CLR 03/03 A3011 690 100 -500 320/03 RMK AO2
14837KMSN MSN20051010033009510/10/05 03:30:31  5-MIN KMSN 100930Z 32003KT 3SM BR CLR 03/03 A3011 690 96 -500 320/03 RMK AO2
14837KMSN MSN20051010033509610/10/05 03:35:31  5-MIN KMSN 100935Z 32004KT 3SM BR CLR 03/03 A3011 690 100 -500 320/04 RMK AO2
14837KMSN MSN20051010034009610/10/05 03:40:31  5-MIN KMSN 100940Z 32004KT 3SM BR CLR 03/03 A3011 690 100 -500 320/04 RMK AO2
14837KMSN MSN20051010034509610/10/05 03:45:31  5-MIN KMSN 100945Z 32004KT 3SM BR CLR 03/03 A3011 680 100 -500 320/04 RMK AO2
14837KMSN MSN20051010035011210/10/05 03:50:31  5-MIN KMSN 100950Z 31003KT 3SM BR CLR 03/03 A3012 680 96 -500 310/03 RMK AO2 SLP202 T00330028
14837KMSN MSN20051010035509510/10/05 03:55:31  5-MIN KMSN 100955Z 32004KT 3SM BR CLR 03/03 A3012 680 96 -500 320/04 RMK AO2
14837KMSN MSN20051010040009510/10/05 04:00:31  5-MIN KMSN 101000Z 33003KT 3SM BR CLR 03/03 A3012 680 96 -500 330/03 RMK AO2
14837KMSN MSN20051010040509610/10/05 04:05:31  5-MIN KMSN 101005Z 33003KT 3SM BR CLR 03/03 A3012 680 100 -500 330/03 RMK AO2
14837KMSN MSN20051010041009510/10/05 04:10:31  5-MIN KMSN 101010Z 32003KT 3SM BR CLR 03/03 A3012 680 96 -500 320/03 RMK AO2
14837KMSN MSN20051010041509510/10/05 04:15:31  5-MIN KMSN 101015Z 32003KT 3SM BR CLR 03/03 A3012 680 96 -500 320/03 RMK AO2
14837KMSN MSN20051010042009510/10/05 04:20:31  5-MIN KMSN 101020Z 33003KT 3SM BR CLR 03/03 A3012 680 96 -500 330/03 RMK AO2
14837KMSN MSN20051010042510210/10/05 04:25:31  5-MIN KMSN 101025Z 33003KT 2 1/2SM BR FEW004 03/03 A3012 680 96 -500 320/03 RMK AO2
14837KMSN MSN20051010043009710/10/05 04:30:31  5-MIN KMSN 101030Z 00000KT 1SM BR VV004 03/03 A3012 680 96 -500 000/00 RMK AO2
14837KMSN MSN20051010043509810/10/05 04:35:31  5-MIN KMSN 101035Z 33003KT 1SM BR BKN004 03/03 A3012 680 96 -500 330/03 RMK AO2
14837KMSN MSN20051010044010210/10/05 04:40:31  5-MIN KMSN 101040Z 34003KT 1 1/2SM BR BKN004 03/03 A3013 670 96 -500 330/03 RMK AO2
14837KMSN MSN20051010044510210/10/05 04:45:31  5-MIN KMSN 101045Z 33004KT 2 1/2SM BR BKN004 03/02 A3013 670 96 -600 330/04 RMK AO2
14837KMSN MSN20051010045011610/10/05 04:50:31  5-MIN KMSN 101050Z 32003KT 3SM BR OVC004 02/02 A3013 670 100 -600 320/03 RMK AO2 SLP208 T00220022
14837KMSN MSN20051010045509910/10/05 04:55:31  5-MIN KMSN 101055Z 33003KT 1SM BR OVC004 02/02 A3013 670 100 -600 330/03 RMK AO2
14837KMSN MSN20051010050009910/10/05 05:00:31  5-MIN KMSN 101100Z 33003KT 1SM BR OVC004 02/02 A3013 670 100 -600 330/03 RMK AO2
14837KMSN MSN20051010050509810/10/05 05:05:31  5-MIN KMSN 101105Z 32003KT 1SM BR OVC002 03/02 A3013 670 96 -600 320/03 RMK AO2
14837KMSN MSN20051010051011010/10/05 05:10:31  5-MIN KMSN 101110Z 33005KT 1/4SM BR OVC002 03/03 A3013 670 96 -500 330/05 RMK AO2 SFC VIS 1
14837KMSN MSN20051010051511110/10/05 05:15:31  5-MIN KMSN 101115Z 33005KT 1/4SM FG VV002 03/03 A3014 660 96 -500 330/05 RMK AO2 TWR VIS 1/4
14837KMSN MSN20051010052011210/10/05 05:20:31  5-MIN KMSN 101120Z 33004KT 1/4SM FG VV001 03/03 A3014 660 100 -500 330/04 RMK AO2 TWR VIS 1/4
14837KMSN MSN20051010052511210/10/05 05:25:31  5-MIN KMSN 101125Z 34004KT 1/4SM FG VV001 04/04 A3014 660 100 -400 330/04 RMK AO2 TWR VIS 1/4
14837KMSN MSN20051010053011210/10/05 05:30:31  5-MIN KMSN 101130Z 35003KT 1/4SM FG VV001 04/04 A3014 660 100 -400 350/03 RMK AO2 TWR VIS 1/4
14837KMSN MSN20051010053511110/10/05 05:35:31  5-MIN KMSN 101135Z 34004KT 1/4SM FG VV001 04/04 A3014 660 96 -400 340/04 RMK AO2 TWR VIS 1/4
14837KMSN MSN20051010054011910/10/05 05:40:31  5-MIN KMSN 101140Z 34004KT 1/4SM FG BKN001 OVC024 04/04 A3014 660 96 -400 340/04 RMK AO2 TWR VIS 1/4
14837KMSN MSN20051010054511910/10/05 05:45:31  5-MIN KMSN 101145Z 35004KT 1/4SM FG BKN001 OVC024 04/04 A3014 660 96 -400 350/04 RMK AO2 TWR VIS 1/4
14837KMSN MSN20051010055011910/10/05 05:50:31  5-MIN KMSN 101150Z 35004KT 1/4SM FG SCT001 OVC024 04/04 A3014 660 96 -400 350/04 RMK AO2 TWR VIS 1/4
14837KMSN MSN20051010055510710/10/05 05:55:31  5-MIN KMSN 101155Z 34003KT 1/4SM FG SCT001 OVC024 04/04 A3015 660 96 -400 340/03 RMK AO2
14837KMSN MSN20051010060010810/10/05 06:00:31  5-MIN KMSN 101200Z VRB03KT 1/4SM FG FEW001 OVC024 04/04 A3015 650 100 -400 VRB/03 RMK AO2
14837KMSN MSN20051010060512010/10/05 06:05:31  5-MIN KMSN 101205Z 34003KT 1/4SM FG FEW001 OVC024 04/04 A3015 650 100 -400 340/03 RMK AO2 SFC VIS 1/2
14837KMSN MSN20051010061011910/10/05 06:10:31  5-MIN KMSN 101210Z 34004KT 1/4SM FG SCT001 OVC024 05/04 A3015 650 96 -300 340/04 RMK AO2 SFC VIS 1/2
14837KMSN MSN20051010061511910/10/05 06:15:31  5-MIN KMSN 101215Z 34004KT 1/4SM FG BKN001 OVC024 05/04 A3015 650 96 -300 340/04 RMK AO2 SFC VIS 1/2
14837KMSN MSN20051010062010710/10/05 06:20:31  5-MIN KMSN 101220Z 34004KT 1/4SM FG BKN001 OVC024 05/04 A3015 650 96 -300 340/04 RMK AO2
14837KMSN MSN20051010062511910/10/05 06:25:31  5-MIN KMSN 101225Z 34004KT 1/4SM FG BKN001 OVC024 05/04 A3015 650 96 -300 340/04 RMK AO2 SFC VIS 1/2
14837KMSN MSN20051010063011310/10/05 06:30:31  5-MIN KMSN 101230Z 34004KT 1/4SM BR OVC001 05/05 A3015 650 100 -300 340/04 RMK AO2 SFC VIS 3/4
14837KMSN MSN20051010063512010/10/05 06:35:31  5-MIN KMSN 101235Z 35004KT 1SM BR BKN001 OVC025 05/05 A3015 650 100 -300 350/04 RMK AO2 SFC VIS 1 1/4
14837KMSN MSN20051010064011610/10/05 06:40:31  5-MIN KMSN 101240Z 35004KT 1SM BR BKN001 OVC027 05/05 A3015 650 100 -300 350/04 RMK AO2 SFC VIS 3
14837KMSN MSN20051010064510610/10/05 06:45:31  5-MIN KMSN 101245Z 35004KT 3SM BR BKN001 OVC027 05/05 A3015 650 100 -300 350/04 RMK AO2
14837KMSN MSN20051010065010610/10/05 06:50:31  5-MIN KMSN 101250Z 35005KT 3SM BR SCT001 OVC027 05/05 A3016 650 100 -300 350/05 RMK AO2
14837KMSN MSN20051010065510510/10/05 06:55:31  5-MIN KMSN 101255Z 35004KT 3SM BR FEW003 OVC027 06/05 A3016 640 96 -300 350/04 RMK AO2
14837KMSN MSN20051010070010510/10/05 07:00:31  5-MIN KMSN 101300Z 35004KT 3SM BR FEW003 OVC027 06/05 A3016 640 96 -300 350/04 RMK AO2
14837KMSN MSN20051010070510510/10/05 07:05:31  5-MIN KMSN 101305Z 35005KT 3SM BR FEW003 OVC027 06/05 A3016 640 96 -300 350/05 RMK AO2
14837KMSN MSN20051010071010510/10/05 07:10:31  5-MIN KMSN 101310Z 36004KT 3SM BR FEW003 OVC027 06/05 A3016 640 96 -300 350/04 RMK AO2
14837KMSN MSN20051010071510610/10/05 07:15:31  5-MIN KMSN 101315Z 36005KT 3SM BR FEW003 OVC027 06/06 A3016 640 100 -300 360/05 RMK AO2
14837KMSN MSN20051010072010610/10/05 07:20:31  5-MIN KMSN 101320Z 36005KT 3SM BR FEW003 OVC027 06/06 A3016 640 100 -300 360/05 RMK AO2
14837KMSN MSN20051010072511510/10/05 07:25:31  5-MIN KMSN 101325Z 36006KT 3SM BR FEW003 OVC027 06/06 A3017 640 96 -200 360/06 RMK AO2 SFC VIS 3
14837KMSN MSN20051010073010510/10/05 07:30:31  5-MIN KMSN 101330Z 36007KT 3SM BR FEW003 OVC027 06/06 A3017 640 96 -200 360/07 RMK AO2
14837KMSN MSN20051010073511510/10/05 07:35:31  5-MIN KMSN 101335Z 35005KT 3SM BR FEW005 OVC027 06/06 A3017 640 96 -200 350/05 RMK AO2 SFC VIS 3
14837KMSN MSN20051010074011610/10/05 07:40:31  5-MIN KMSN 101340Z 35004KT 3SM BR FEW005 OVC027 06/06 A3017 630 100 -200 350/04 RMK AO2 SFC VIS 3
14837KMSN MSN20051010074511510/10/05 07:45:31  5-MIN KMSN 101345Z 35004KT 3SM BR SCT005 OVC027 07/06 A3017 630 96 -100 340/04 RMK AO2 SFC VIS 3
14837KMSN MSN20051010075013210/10/05 07:50:31  5-MIN KMSN 101350Z 36004KT 3SM BR SCT005 OVC027 07/06 A3017 640 96 -100 360/04 RMK AO2 SFC VIS 4 SLP221 T00670061
14837KMSN MSN20051010075510510/10/05 07:55:31  5-MIN KMSN 101355Z 01005KT 4SM BR SCT005 OVC027 07/07 A3017 640 96 -100 010/05 RMK AO2
14837KMSN MSN20051010080010510/10/05 08:00:31  5-MIN KMSN 101400Z 01006KT 5SM BR SCT005 OVC027 07/07 A3017 640 96 -100 010/06 RMK AO2
14837KMSN MSN20051010080510510/10/05 08:05:31  5-MIN KMSN 101405Z 01006KT 5SM BR SCT005 OVC027 07/07 A3017 630 96 -100 010/06 RMK AO2
14837KMSN MSN20051010081010510/10/05 08:10:31  5-MIN KMSN 101410Z 01005KT 5SM BR SCT005 OVC027 07/07 A3017 630 96 -100 010/05 RMK AO2
14837KMSN MSN20051010081510510/10/05 08:15:31  5-MIN KMSN 101415Z 36004KT 6SM BR FEW005 OVC027 07/07 A3017 630 96 -100 360/04 RMK AO2
14837KMSN MSN20051010082010210/10/05 08:20:31  5-MIN KMSN 101420Z 35003KT 6SM BR FEW005 OVC027 08/07 A3018 630 93 0 350/03 RMK AO2
14837KMSN MSN20051010082510210/10/05 08:25:31  5-MIN KMSN 101425Z 35004KT 6SM BR FEW005 OVC027 08/07 A3018 630 93 0 350/04 RMK AO2
14837KMSN MSN20051010083009510/10/05 08:30:31  5-MIN KMSN 101430Z 36005KT 6SM BR OVC027 08/07 A3018 630 93 0 360/05 RMK AO2
14837KMSN MSN20051010083509510/10/05 08:35:31  5-MIN KMSN 101435Z 35004KT 6SM BR OVC027 08/07 A3018 630 89 0 350/04 RMK AO2
14837KMSN MSN20051010084009510/10/05 08:40:31  5-MIN KMSN 101440Z 36004KT 6SM BR OVC027 08/07 A3018 620 93 0 360/04 RMK AO2
14837KMSN MSN20051010084509510/10/05 08:45:31  5-MIN KMSN 101445Z 35004KT 6SM BR OVC027 08/07 A3018 620 93 0 350/04 RMK AO2
14837KMSN MSN20051010085012010/10/05 08:50:31  5-MIN KMSN 101450Z 35003KT 6SM BR OVC027 09/08 A3018 620 93 100 350/03 RMK AO2 SLP225 T00890078 53013
14837KMSN MSN20051010085510110/10/05 08:55:31  5-MIN KMSN 101455Z 36004KT 7SM FEW008 BKN027 09/08 A3018 620 93 100 360/04 RMK AO2
14837KMSN MSN20051010090010110/10/05 09:00:31  5-MIN KMSN 101500Z 35004KT 7SM FEW008 BKN027 09/08 A3018 620 93 100 350/04 RMK AO2
14837KMSN MSN20051010090510110/10/05 09:05:31  5-MIN KMSN 101505Z 02004KT 7SM FEW008 BKN027 09/08 A3018 620 89 100 020/04 RMK AO2
14837KMSN MSN20051010091009410/10/05 09:10:31  5-MIN KMSN 101510Z 35004KT 8SM BKN027 10/08 A3018 620 86 200 350/04 RMK AO2
14837KMSN MSN20051010091510110/10/05 09:15:31  5-MIN KMSN 101515Z 35004KT 8SM FEW010 SCT027 11/08 A3018 620 86 300 340/04 RMK AO2
14837KMSN MSN20051010092009410/10/05 09:20:31  5-MIN KMSN 101520Z 33004KT 9SM SCT027 11/08 A3018 620 86 300 330/04 RMK AO2
14837KMSN MSN20051010092509510/10/05 09:25:31  5-MIN KMSN 101525Z 35004KT 10SM SCT027 11/08 A3018 620 83 300 340/04 RMK AO2
14837KMSN MSN20051010093009510/10/05 09:30:31  5-MIN KMSN 101530Z 35004KT 10SM SCT027 12/08 A3018 620 80 400 350/04 RMK AO2
14837KMSN MSN20051010093510210/10/05 09:35:31  5-MIN KMSN 101535Z 02005KT 10SM FEW015 SCT027 12/09 A3018 620 80 500 020/05 RMK AO2
14837KMSN MSN20051010094010210/10/05 09:40:31  5-MIN KMSN 101540Z 02007KT 10SM FEW015 SCT027 13/08 A3018 620 74 500 020/07 RMK AO2
14837KMSN MSN20051010094509510/10/05 09:45:31  5-MIN KMSN 101545Z 01006KT 10SM SCT025 13/08 A3018 620 71 600 010/06 RMK AO2
14837KMSN MSN20051010095011210/10/05 09:50:31  5-MIN KMSN 101550Z 01007KT 10SM SCT025 13/08 A3018 620 71 500 010/07 RMK AO2 SLP224 T01280078
14837KMSN MSN20051010095509510/10/05 09:55:31  5-MIN KMSN 101555Z 35006KT 10SM BKN022 13/07 A3018 620 66 600 350/06 RMK AO2
14837KMSN MSN20051010100009510/10/05 10:00:31  5-MIN KMSN 101600Z 01007KT 10SM BKN022 13/07 A3018 620 69 500 010/07 RMK AO2
14837KMSN MSN20051010100509510/10/05 10:05:31  5-MIN KMSN 101605Z 05007KT 10SM BKN022 13/07 A3018 620 69 500 050/07 RMK AO2
14837KMSN MSN20051010101011110/10/05 10:10:31  5-MIN KMSN 101610Z 35007KT 310V010 10SM BKN022 13/08 A3018 620 71 500 350/07 310V010 RMK AO2
14837KMSN MSN20051010101511810/10/05 10:15:31  5-MIN KMSN 101615Z 35007KT 310V020 10SM BKN026 BKN030 13/07 A3018 620 69 500 350/07 310V020 RMK AO2
14837KMSN MSN20051010102010210/10/05 10:20:31  5-MIN KMSN 101620Z 36006KT 10SM BKN024 BKN030 13/07 A3018 620 69 500 360/06 RMK AO2
14837KMSN MSN20051010102510210/10/05 10:25:31  5-MIN KMSN 101625Z 36008KT 10SM BKN024 BKN030 13/08 A3018 620 69 600 350/08 RMK AO2
14837KMSN MSN20051010103010210/10/05 10:30:31  5-MIN KMSN 101630Z 35006KT 10SM BKN024 BKN030 14/08 A3018 630 66 700 350/06 RMK AO2
14837KMSN MSN20051010103510210/10/05 10:35:31  5-MIN KMSN 101635Z 36008KT 10SM BKN024 BKN032 13/08 A3018 630 69 600 360/08 RMK AO2
14837KMSN MSN20051010104010210/10/05 10:40:31  5-MIN KMSN 101640Z 36009KT 10SM BKN024 BKN032 13/08 A3018 630 69 600 360/09 RMK AO2
14837KMSN MSN20051010104510210/10/05 10:45:31  5-MIN KMSN 101645Z 03008KT 10SM BKN027 BKN032 14/08 A3017 630 64 800 030/08 RMK AO2
14837KMSN MSN20051010105011210/10/05 10:50:31  5-MIN KMSN 101650Z 36008KT 10SM BKN027 14/08 A3017 630 64 800 350/08 RMK AO2 SLP220 T01440078
14837KMSN MSN20051010105509510/10/05 10:55:31  5-MIN KMSN 101655Z 36010KT 10SM BKN027 15/08 A3017 630 64 800 360/10 RMK AO2
14837KMSN MSN20051010110009510/10/05 11:00:31  5-MIN KMSN 101700Z 01010KT 10SM BKN027 14/07 A3017 630 61 700 010/10 RMK AO2
14837KMSN MSN20051010110509510/10/05 11:05:31  5-MIN KMSN 101705Z 04007KT 10SM BKN030 13/07 A3017 630 64 600 040/07 RMK AO2
14837KMSN MSN20051010111009510/10/05 11:10:31  5-MIN KMSN 101710Z 03010KT 10SM BKN030 14/07 A3017 630 59 800 030/10 RMK AO2
14837KMSN MSN20051010111509510/10/05 11:15:31  5-MIN KMSN 101715Z 03008KT 10SM BKN030 14/07 A3017 640 59 800 030/08 RMK AO2
14837KMSN MSN20051010112009510/10/05 11:20:31  5-MIN KMSN 101720Z 04007KT 10SM BKN030 14/07 A3017 640 59 800 040/07 RMK AO2
14837KMSN MSN20051010112509510/10/05 11:25:31  5-MIN KMSN 101725Z 36009KT 10SM BKN030 15/07 A3017 640 59 800 360/09 RMK AO2
14837KMSN MSN20051010113009510/10/05 11:30:31  5-MIN KMSN 101730Z 01011KT 10SM BKN030 14/07 A3016 640 61 800 010/11 RMK AO2
14837KMSN MSN20051010113509510/10/05 11:35:31  5-MIN KMSN 101735Z 01012KT 10SM BKN030 14/07 A3016 640 61 800 360/12 RMK AO2
14837KMSN MSN20051010114009510/10/05 11:40:31  5-MIN KMSN 101740Z 01011KT 10SM BKN030 14/07 A3016 640 61 800 010/11 RMK AO2
14837KMSN MSN20051010114510110/10/05 11:45:31  5-MIN KMSN 101745Z 01008G16KT 10SM BKN030 15/07 A3016 650 59 800 010/08G16 RMK AO2
14837KMSN MSN20051010115013010/10/05 11:50:31  5-MIN KMSN 101750Z 01010KT 10SM BKN030 15/07 A3015 650 59 800 010/10 RMK AO2 SLP214 T01500072 10156 20044 53012
14837KMSN MSN20051010115509510/10/05 11:55:31  5-MIN KMSN 101755Z 02012KT 10SM BKN030 15/07 A3015 650 59 800 020/12 RMK AO2
14837KMSN MSN20051010120009510/10/05 12:00:31  5-MIN KMSN 101800Z 01014KT 10SM BKN028 14/08 A3015 650 64 800 010/14 RMK AO2
14837KMSN MSN20051010120509510/10/05 12:05:31  5-MIN KMSN 101805Z 01013KT 10SM BKN028 14/07 A3015 650 64 700 360/13 RMK AO2
14837KMSN MSN20051010121009510/10/05 12:10:31  5-MIN KMSN 101810Z 03009KT 10SM BKN028 14/08 A3015 650 66 700 030/09 RMK AO2
14837KMSN MSN20051010121509510/10/05 12:15:31  5-MIN KMSN 101815Z 01013KT 10SM BKN028 14/08 A3015 650 66 700 010/13 RMK AO2
14837KMSN MSN20051010122009510/10/05 12:20:31  5-MIN KMSN 101820Z 03012KT 10SM OVC026 14/08 A3015 650 66 700 030/12 RMK AO2
14837KMSN MSN20051010122509510/10/05 12:25:31  5-MIN KMSN 101825Z 02013KT 10SM OVC026 13/08 A3015 650 69 600 020/13 RMK AO2
14837KMSN MSN20051010123009510/10/05 12:30:31  5-MIN KMSN 101830Z 04011KT 10SM OVC026 13/08 A3015 650 69 600 040/11 RMK AO2
14837KMSN MSN20051010123510110/10/05 12:35:31  5-MIN KMSN 101835Z 03012G18KT 10SM OVC026 13/08 A3015 650 69 600 030/12G18 RMK AO2
14837KMSN MSN20051010124010110/10/05 12:40:31  5-MIN KMSN 101840Z 04013G18KT 10SM OVC026 13/08 A3015 650 69 600 040/13G18 RMK AO2
14837KMSN MSN20051010124509510/10/05 12:45:31  5-MIN KMSN 101845Z 04014KT 10SM OVC026 13/08 A3015 650 69 600 040/14 RMK AO2
14837KMSN MSN20051010125011210/10/05 12:50:31  5-MIN KMSN 101850Z 05013KT 10SM OVC024 13/07 A3015 650 69 600 050/13 RMK AO2 SLP214 T01280072
14837KMSN MSN20051010125509510/10/05 12:55:31  5-MIN KMSN 101855Z 04013KT 10SM BKN024 13/07 A3015 650 66 600 040/13 RMK AO2
14837KMSN MSN20051010130009510/10/05 13:00:31  5-MIN KMSN 101900Z 06012KT 10SM BKN024 13/07 A3015 660 69 600 060/12 RMK AO2
14837KMSN MSN20051010130509510/10/05 13:05:31  5-MIN KMSN 101905Z 04010KT 10SM BKN024 13/07 A3014 660 66 700 040/10 RMK AO2
14837KMSN MSN20051010131009510/10/05 13:10:31  5-MIN KMSN 101910Z 05011KT 10SM BKN024 13/08 A3014 660 71 600 050/11 RMK AO2
14837KMSN MSN20051010131509510/10/05 13:15:31  5-MIN KMSN 101915Z 05011KT 10SM BKN024 12/08 A3014 660 74 500 050/11 RMK AO2
14837KMSN MSN20051010132009510/10/05 13:20:31  5-MIN KMSN 101920Z 05012KT 10SM BKN024 12/07 A3014 660 71 500 050/12 RMK AO2
14837KMSN MSN20051010132511110/10/05 13:25:31  5-MIN KMSN 101925Z 03007KT 010V070 10SM BKN019 13/08 A3014 660 71 600 030/07 010V070 RMK AO2
14837KMSN MSN20051010133009510/10/05 13:30:31  5-MIN KMSN 101930Z 02008KT 10SM BKN019 13/08 A3014 660 69 700 020/08 RMK AO2
14837KMSN MSN20051010133509510/10/05 13:35:31  5-MIN KMSN 101935Z 02010KT 10SM BKN019 13/08 A3014 660 69 700 020/10 RMK AO2
14837KMSN MSN20051010134009510/10/05 13:40:31  5-MIN KMSN 101940Z 01009KT 10SM BKN019 13/07 A3014 660 69 600 010/09 RMK AO2
14837KMSN MSN20051010134509510/10/05 13:45:31  5-MIN KMSN 101945Z 04006KT 10SM BKN019 13/08 A3014 660 69 700 040/06 RMK AO2
14837KMSN MSN20051010135011210/10/05 13:50:31  5-MIN KMSN 101950Z 05011KT 10SM BKN019 14/07 A3014 670 64 700 050/11 RMK AO2 SLP209 T01390072
14837KMSN MSN20051010135509510/10/05 13:55:31  5-MIN KMSN 101955Z 02010KT 10SM BKN019 14/08 A3014 660 66 700 010/10 RMK AO2
14837KMSN MSN20051010140009510/10/05 14:00:31  5-MIN KMSN 102000Z 36008KT 10SM BKN019 14/07 A3014 660 64 700 360/08 RMK AO2
14837KMSN MSN20051010140509510/10/05 14:05:31  5-MIN KMSN 102005Z 01012KT 10SM BKN019 14/08 A3014 670 66 700 010/12 RMK AO2
14837KMSN MSN20051010141009510/10/05 14:10:31  5-MIN KMSN 102010Z 03008KT 10SM BKN019 14/07 A3014 670 64 700 030/08 RMK AO2
14837KMSN MSN20051010141509510/10/05 14:15:31  5-MIN KMSN 102015Z 03010KT 10SM BKN019 14/07 A3014 660 61 800 030/10 RMK AO2
14837KMSN MSN20051010142009510/10/05 14:20:31  5-MIN KMSN 102020Z 05008KT 10SM BKN019 14/07 A3014 660 61 800 050/08 RMK AO2
14837KMSN MSN20051010142509510/10/05 14:25:31  5-MIN KMSN 102025Z 36006KT 10SM BKN019 14/07 A3014 660 61 800 360/06 RMK AO2
14837KMSN MSN20051010143009510/10/05 14:30:31  5-MIN KMSN 102030Z 05008KT 10SM BKN025 14/07 A3014 660 61 800 040/08 RMK AO2
14837KMSN MSN20051010143509510/10/05 14:35:31  5-MIN KMSN 102035Z 01006KT 10SM BKN025 14/07 A3014 660 61 800 010/06 RMK AO2
14837KMSN MSN20051010144009510/10/05 14:40:31  5-MIN KMSN 102040Z 02008KT 10SM BKN025 14/07 A3014 670 61 800 020/08 RMK AO2
14837KMSN MSN20051010144509510/10/05 14:45:31  5-MIN KMSN 102045Z 01008KT 10SM SCT028 14/07 A3014 670 64 700 010/08 RMK AO2
14837KMSN MSN20051010145009510/10/05 14:50:31  5-MIN KMSN 102050Z 02006KT 10SM FEW028 14/08 A3013 670 64 800 020/06 RMK AO2
14837KMSN MSN20051010145509510/10/05 14:55:31  5-MIN KMSN 102055Z 02006KT 10SM SCT028 14/07 A3013 670 61 800 020/06 RMK AO2
14837KMSN MSN20051010150009510/10/05 15:00:31  5-MIN KMSN 102100Z VRB05KT 10SM SCT028 15/07 A3013 670 59 900 VRB/05 RMK AO2
14837KMSN MSN20051010150509510/10/05 15:05:31  5-MIN KMSN 102105Z 01010KT 10SM SCT028 14/07 A3013 670 61 800 010/10 RMK AO2
14837KMSN MSN20051010151009510/10/05 15:10:31  5-MIN KMSN 102110Z 03007KT 10SM SCT028 14/07 A3013 670 61 700 030/07 RMK AO2
14837KMSN MSN20051010151509510/10/05 15:15:31  5-MIN KMSN 102115Z 01005KT 10SM SCT028 14/07 A3013 670 61 800 010/05 RMK AO2
14837KMSN MSN20051010152009510/10/05 15:20:31  5-MIN KMSN 102120Z 36011KT 10SM FEW028 15/07 A3013 670 59 900 360/11 RMK AO2
14837KMSN MSN20051010152509510/10/05 15:25:31  5-MIN KMSN 102125Z 01009KT 10SM FEW028 14/07 A3013 670 64 700 010/09 RMK AO2
14837KMSN MSN20051010153009510/10/05 15:30:31  5-MIN KMSN 102130Z 05010KT 10SM FEW028 14/07 A3014 660 61 700 050/10 RMK AO2
14837KMSN MSN20051010153509510/10/05 15:35:31  5-MIN KMSN 102135Z 03008KT 10SM FEW028 14/07 A3013 670 59 800 030/08 RMK AO2
14837KMSN MSN20051010154009510/10/05 15:40:31  5-MIN KMSN 102140Z 05007KT 10SM FEW028 14/07 A3013 670 59 800 050/07 RMK AO2
14837KMSN MSN20051010154509510/10/05 15:45:31  5-MIN KMSN 102145Z 01009KT 10SM FEW028 14/07 A3014 660 61 800 010/09 RMK AO2
14837KMSN MSN20051010155011210/10/05 15:50:31  5-MIN KMSN 102150Z 01008KT 10SM FEW031 14/07 A3014 670 64 700 010/08 RMK AO2 SLP209 T01390072
14837KMSN MSN20051010155509510/10/05 15:55:31  5-MIN KMSN 102155Z 04009KT 10SM FEW031 14/07 A3014 660 64 700 040/09 RMK AO2
14837KMSN MSN20051010160009510/10/05 16:00:31  5-MIN KMSN 102200Z 05006KT 10SM FEW031 14/07 A3014 660 61 700 050/06 RMK AO2
14837KMSN MSN20051010160509510/10/05 16:05:31  5-MIN KMSN 102205Z 04006KT 10SM FEW031 14/07 A3014 660 61 700 040/06 RMK AO2
14837KMSN MSN20051010161009510/10/05 16:10:31  5-MIN KMSN 102210Z 04008KT 10SM FEW031 14/07 A3014 660 61 700 040/08 RMK AO2
14837KMSN MSN20051010161509510/10/05 16:15:31  5-MIN KMSN 102215Z 06009KT 10SM FEW031 14/07 A3014 660 61 700 060/09 RMK AO2
14837KMSN MSN20051010162009510/10/05 16:20:31  5-MIN KMSN 102220Z 03006KT 10SM FEW031 13/07 A3014 660 64 700 030/06 RMK AO2
14837KMSN MSN20051010162509510/10/05 16:25:31  5-MIN KMSN 102225Z 03006KT 10SM FEW031 14/07 A3014 660 61 700 030/06 RMK AO2
14837KMSN MSN20051010163009510/10/05 16:30:31  5-MIN KMSN 102230Z 03006KT 10SM FEW031 13/07 A3014 660 64 700 030/06 RMK AO2
14837KMSN MSN20051010163509510/10/05 16:35:31  5-MIN KMSN 102235Z 04006KT 10SM FEW031 13/07 A3014 660 64 700 040/06 RMK AO2
14837KMSN MSN20051010164009510/10/05 16:40:31  5-MIN KMSN 102240Z 03005KT 10SM FEW031 13/07 A3015 660 64 700 030/05 RMK AO2
14837KMSN MSN20051010164509510/10/05 16:45:31  5-MIN KMSN 102245Z 03005KT 10SM FEW031 13/07 A3014 660 66 600 030/05 RMK AO2
14837KMSN MSN20051010165011210/10/05 16:50:31  5-MIN KMSN 102250Z 01006KT 10SM FEW031 12/07 A3015 660 68 500 010/06 RMK AO2 SLP213 T01220067
14837KMSN MSN20051010165509210/10/05 16:55:31  5-MIN KMSN 102255Z 36006KT 10SM CLR 12/07 A3015 650 71 500 360/06 RMK AO2
14837KMSN MSN20051010170009210/10/05 17:00:31  5-MIN KMSN 102300Z 36004KT 10SM CLR 12/07 A3015 650 68 500 360/04 RMK AO2
14837KMSN MSN20051010170509210/10/05 17:05:31  5-MIN KMSN 102305Z 36005KT 10SM CLR 11/06 A3015 650 71 400 360/05 RMK AO2
14837KMSN MSN20051010171009210/10/05 17:10:31  5-MIN KMSN 102310Z 34004KT 10SM CLR 12/07 A3015 650 71 400 340/04 RMK AO2
14837KMSN MSN20051010171509210/10/05 17:15:31  5-MIN KMSN 102315Z 35004KT 10SM CLR 12/07 A3015 650 71 400 350/04 RMK AO2
14837KMSN MSN20051010172009210/10/05 17:20:31  5-MIN KMSN 102320Z 32004KT 10SM CLR 12/07 A3015 650 71 400 320/04 RMK AO2
14837KMSN MSN20051010172509210/10/05 17:25:31  5-MIN KMSN 102325Z 33005KT 10SM CLR 11/07 A3016 650 77 300 330/05 RMK AO2
14837KMSN MSN20051010173009110/10/05 17:30:31  5-MIN KMSN 102330Z 33006KT 9SM CLR 11/07 A3016 650 77 300 330/06 RMK AO2
14837KMSN MSN20051010173509110/10/05 17:35:31  5-MIN KMSN 102335Z 33005KT 9SM CLR 11/07 A3016 650 77 300 330/05 RMK AO2
14837KMSN MSN20051010174009110/10/05 17:40:31  5-MIN KMSN 102340Z 33005KT 9SM CLR 10/07 A3016 640 80 200 330/05 RMK AO2
14837KMSN MSN20051010174509110/10/05 17:45:31  5-MIN KMSN 102345Z 33005KT 9SM CLR 10/07 A3016 640 80 200 330/05 RMK AO2
14837KMSN MSN20051010175012610/10/05 17:50:31  5-MIN KMSN 102350Z 32004KT 9SM CLR 09/07 A3016 640 83 200 320/04 RMK AO2 SLP218 T00940067 10150 20094 56005
14837KMSN MSN20051010175509110/10/05 17:55:31  5-MIN KMSN 102355Z 33004KT 9SM CLR 09/07 A3016 640 83 200 330/04 RMK AO2
14837KMSN MSN20051010180009110/10/05 18:00:31  5-MIN KMSN 110000Z 32004KT 9SM CLR 09/07 A3016 640 83 200 320/04 RMK AO2
14837KMSN MSN20051010180509110/10/05 18:05:31  5-MIN KMSN 110005Z 32004KT 9SM CLR 09/07 A3017 640 83 200 320/04 RMK AO2
14837KMSN MSN20051010181009110/10/05 18:10:31  5-MIN KMSN 110010Z 32003KT 8SM CLR 09/07 A3017 640 83 200 310/03 RMK AO2
14837KMSN MSN20051010181509110/10/05 18:15:31  5-MIN KMSN 110015Z 31003KT 8SM CLR 09/07 A3017 640 86 100 310/03 RMK AO2
14837KMSN MSN20051010182009110/10/05 18:20:31  5-MIN KMSN 110020Z 31003KT 8SM CLR 09/07 A3017 640 86 100 310/03 RMK AO2
14837KMSN MSN20051010182509110/10/05 18:25:31  5-MIN KMSN 110025Z 32003KT 8SM CLR 09/07 A3017 640 86 100 320/03 RMK AO2
14837KMSN MSN20051010183008910/10/05 18:30:31  5-MIN KMSN 110030Z 00000KT 8SM CLR 08/07 A3017 640 89 0 000/00 RMK AO2
14837KMSN MSN20051010183508910/10/05 18:35:31  5-MIN KMSN 110035Z 33003KT 8SM CLR 08/07 A3017 640 89 0 330/03 RMK AO2
14837KMSN MSN20051010184008910/10/05 18:40:31  5-MIN KMSN 110040Z 00000KT 7SM CLR 08/06 A3017 640 86 0 000/00 RMK AO2
14837KMSN MSN20051010184508910/10/05 18:45:31  5-MIN KMSN 110045Z 00000KT 7SM CLR 08/07 A3017 630 93 0 000/00 RMK AO2
14837KMSN MSN20051010185010610/10/05 18:50:31  5-MIN KMSN 110050Z 00000KT 7SM CLR 08/06 A3017 630 89 0 000/00 RMK AO2 SLP223 T00780061
14837KMSN MSN20051010185509510/10/05 18:55:31  5-MIN KMSN 110055Z 00000KT 6SM BR CLR 07/06 A3017 630 93 -100 000/00 RMK AO2
14837KMSN MSN20051010190009510/10/05 19:00:31  5-MIN KMSN 110100Z 32003KT 6SM BR CLR 07/06 A3018 630 93 -100 320/03 RMK AO2
14837KMSN MSN20051010190509210/10/05 19:05:31  5-MIN KMSN 110105Z 33003KT 7SM CLR 07/06 A3018 630 93 -100 330/03 RMK AO2
14837KMSN MSN20051010191008910/10/05 19:10:31  5-MIN KMSN 110110Z 33004KT 7SM CLR 08/06 A3017 630 89 0 330/04 RMK AO2
14837KMSN MSN20051010191508910/10/05 19:15:31  5-MIN KMSN 110115Z 33003KT 7SM CLR 08/06 A3017 630 89 0 330/03 RMK AO2
14837KMSN MSN20051010192009510/10/05 19:20:31  5-MIN KMSN 110120Z 00000KT 6SM BR CLR 07/06 A3018 630 93 -100 000/00 RMK AO2
14837KMSN MSN20051010192509510/10/05 19:25:31  5-MIN KMSN 110125Z 00000KT 6SM BR CLR 07/06 A3018 630 89 -100 000/00 RMK AO2
14837KMSN MSN20051010193009510/10/05 19:30:31  5-MIN KMSN 110130Z 36003KT 6SM BR CLR 07/06 A3018 630 93 -100 360/03 RMK AO2
14837KMSN MSN20051010193509210/10/05 19:35:31  5-MIN KMSN 110135Z 35003KT 6SM BR CLR 08/06 A3018 630 89 0 350/03 RMK AO2
14837KMSN MSN20051010194009510/10/05 19:40:31  5-MIN KMSN 110140Z 32003KT 6SM BR CLR 07/06 A3018 630 89 -100 320/03 RMK AO2
14837KMSN MSN20051010194509510/10/05 19:45:31  5-MIN KMSN 110145Z 34003KT 6SM BR CLR 07/06 A3018 620 93 -100 340/03 RMK AO2
14837KMSN MSN20051010195011210/10/05 19:50:31  5-MIN KMSN 110150Z 00000KT 6SM BR CLR 07/06 A3018 630 96 -100 000/00 RMK AO2 SLP226 T00670061
14837KMSN MSN20051010195509510/10/05 19:55:31  5-MIN KMSN 110155Z 34003KT 6SM BR CLR 06/06 A3018 620 96 -200 340/03 RMK AO2
14837KMSN MSN20051010200009510/10/05 20:00:31  5-MIN KMSN 110200Z 36003KT 6SM BR CLR 07/06 A3018 630 93 -100 360/03 RMK AO2
14837KMSN MSN20051010200509510/10/05 20:05:31  5-MIN KMSN 110205Z 36003KT 6SM BR CLR 07/06 A3018 630 93 -100 360/03 RMK AO2
14837KMSN MSN20051010201009510/10/05 20:10:31  5-MIN KMSN 110210Z 34003KT 6SM BR CLR 07/06 A3018 630 96 -100 340/03 RMK AO2
14837KMSN MSN20051010201509510/10/05 20:15:31  5-MIN KMSN 110215Z 34004KT 5SM BR CLR 06/06 A3018 630 96 -200 340/04 RMK AO2
14837KMSN MSN20051010202009510/10/05 20:20:31  5-MIN KMSN 110220Z 33004KT 5SM BR CLR 06/06 A3018 630 96 -200 330/04 RMK AO2
14837KMSN MSN20051010202509510/10/05 20:25:31  5-MIN KMSN 110225Z 33004KT 5SM BR CLR 07/06 A3018 630 93 -100 330/04 RMK AO2
14837KMSN MSN20051010203009510/10/05 20:30:31  5-MIN KMSN 110230Z 32003KT 5SM BR CLR 06/06 A3018 630 96 -200 320/03 RMK AO2
14837KMSN MSN20051010203509510/10/05 20:35:31  5-MIN KMSN 110235Z 00000KT 6SM BR CLR 06/05 A3017 630 93 -200 000/00 RMK AO2
14837KMSN MSN20051010204009510/10/05 20:40:31  5-MIN KMSN 110240Z 00000KT 5SM BR CLR 06/05 A3017 630 96 -300 000/00 RMK AO2
14837KMSN MSN20051010204509510/10/05 20:45:31  5-MIN KMSN 110245Z 00000KT 5SM BR CLR 06/05 A3018 630 96 -300 000/00 RMK AO2
14837KMSN MSN20051010205011810/10/05 20:50:31  5-MIN KMSN 110250Z 00000KT 5SM BR CLR 06/05 A3017 630 96 -300 000/00 RMK AO2 SLP223 T00560050 53010
14837KMSN MSN20051010205509510/10/05 20:55:31  5-MIN KMSN 110255Z 00000KT 5SM BR CLR 06/05 A3017 630 96 -300 000/00 RMK AO2
14837KMSN MSN20051010210009510/10/05 21:00:31  5-MIN KMSN 110300Z 36003KT 5SM BR CLR 06/05 A3017 630 96 -300 360/03 RMK AO2
14837KMSN MSN20051010210509510/10/05 21:05:31  5-MIN KMSN 110305Z 35003KT 5SM BR CLR 06/05 A3017 630 96 -300 340/03 RMK AO2
14837KMSN MSN20051010211009510/10/05 21:10:31  5-MIN KMSN 110310Z 33004KT 4SM BR CLR 06/05 A3017 630 96 -300 330/04 RMK AO2
14837KMSN MSN20051010211509510/10/05 21:15:31  5-MIN KMSN 110315Z 31003KT 4SM BR CLR 06/05 A3017 630 96 -300 310/03 RMK AO2
14837KMSN MSN20051010212009510/10/05 21:20:31  5-MIN KMSN 110320Z 31003KT 4SM BR CLR 05/04 A3017 630 96 -300 310/03 RMK AO2
14837KMSN MSN20051010212509510/10/05 21:25:31  5-MIN KMSN 110325Z 33004KT 5SM BR CLR 05/04 A3017 640 96 -300 330/04 RMK AO2
14837KMSN MSN20051010213009510/10/05 21:30:31  5-MIN KMSN 110330Z 33004KT 5SM BR CLR 05/04 A3017 640 96 -300 330/04 RMK AO2
14837KMSN MSN20051010213509510/10/05 21:35:31  5-MIN KMSN 110335Z 34003KT 5SM BR CLR 06/05 A3017 640 96 -300 330/03 RMK AO2
14837KMSN MSN20051010214009510/10/05 21:40:31  5-MIN KMSN 110340Z 33004KT 5SM BR CLR 06/05 A3017 640 96 -300 330/04 RMK AO2
14837KMSN MSN20051010214509610/10/05 21:45:31  5-MIN KMSN 110345Z 33003KT 4SM BR CLR 05/05 A3016 640 100 -300 330/03 RMK AO2
14837KMSN MSN20051010215011210/10/05 21:50:31  5-MIN KMSN 110350Z 31003KT 4SM BR CLR 05/04 A3016 640 96 -300 310/03 RMK AO2 SLP219 T00500044
14837KMSN MSN20051010215509610/10/05 21:55:31  5-MIN KMSN 110355Z 30003KT 4SM BR CLR 04/04 A3016 640 100 -400 300/03 RMK AO2
14837KMSN MSN20051010220009610/10/05 22:00:31  5-MIN KMSN 110400Z 31003KT 5SM BR CLR 04/04 A3016 640 100 -400 300/03 RMK AO2
14837KMSN MSN20051010220509510/10/05 22:05:31  5-MIN KMSN 110405Z 31003KT 6SM BR CLR 05/04 A3016 640 96 -300 310/03 RMK AO2
14837KMSN MSN20051010221009510/10/05 22:10:31  5-MIN KMSN 110410Z 32003KT 5SM BR CLR 05/04 A3016 640 96 -300 320/03 RMK AO2
14837KMSN MSN20051010221509510/10/05 22:15:31  5-MIN KMSN 110415Z 00000KT 5SM BR CLR 05/04 A3016 640 96 -300 000/00 RMK AO2
14837KMSN MSN20051010222009610/10/05 22:20:31  5-MIN KMSN 110420Z 30003KT 5SM BR CLR 04/04 A3016 640 100 -400 300/03 RMK AO2
14837KMSN MSN20051010222509510/10/05 22:25:31  5-MIN KMSN 110425Z 31004KT 5SM BR CLR 05/04 A3016 640 96 -300 310/04 RMK AO2
14837KMSN MSN20051010223009510/10/05 22:30:31  5-MIN KMSN 110430Z 00000KT 5SM BR CLR 05/04 A3017 640 96 -300 000/00 RMK AO2
14837KMSN MSN20051010223509510/10/05 22:35:31  5-MIN KMSN 110435Z 31004KT 6SM BR CLR 06/04 A3016 640 92 -300 310/04 RMK AO2
14837KMSN MSN20051011060010510/11/05 06:00:31  5-MIN KMSN 111200Z 01006KT 3SM BR BKN035 OVC048 06/06 A3018 620 96 -200 010/06 RMK AO2
14837KMSN MSN20051011060510510/11/05 06:05:31  5-MIN KMSN 111205Z 36005KT 4SM BR SCT035 OVC048 07/06 A3018 620 96 -100 360/05 RMK AO2
14837KMSN MSN20051011061010510/11/05 06:10:31  5-MIN KMSN 111210Z 01005KT 3SM BR FEW035 OVC046 07/06 A3019 620 96 -100 010/05 RMK AO2
14837KMSN MSN20051011061510510/11/05 06:15:31  5-MIN KMSN 111215Z 01005KT 3SM BR FEW035 OVC046 07/06 A3019 620 96 -100 010/05 RMK AO2
14837KMSN MSN20051011062009810/11/05 06:20:31  5-MIN KMSN 111220Z 01004KT 4SM BR OVC046 07/06 A3019 620 96 -100 010/04 RMK AO2
14837KMSN MSN20051011062509810/11/05 06:25:31  5-MIN KMSN 111225Z 36003KT 4SM BR OVC046 07/07 A3019 620 96 -100 360/03 RMK AO2
14837KMSN MSN20051011063009810/11/05 06:30:31  5-MIN KMSN 111230Z 00000KT 4SM BR BKN046 07/07 A3019 610 96 -100 000/00 RMK AO2
14837KMSN MSN20051011063510510/11/05 06:35:31  5-MIN KMSN 111235Z 00000KT 4SM BR FEW006 BKN046 07/07 A3019 610 96 -100 000/00 RMK AO2
14837KMSN MSN20051011064010510/11/05 06:40:31  5-MIN KMSN 111240Z VRB04KT 4SM BR FEW006 OVC046 07/07 A3020 610 96 -100 VRB/04 RMK AO2
14837KMSN MSN20051011064510210/11/05 06:45:31  5-MIN KMSN 111245Z 02005KT 4SM BR FEW006 OVC046 08/07 A3020 610 96 0 020/05 RMK AO2
14837KMSN MSN20051011065011910/11/05 06:50:31  5-MIN KMSN 111250Z 02004KT 5SM BR FEW006 OVC046 08/07 A3019 610 93 0 020/04 RMK AO2 SLP230 T00830072
14837KMSN MSN20051011065510210/11/05 06:55:31  5-MIN KMSN 111255Z 02005KT 6SM BR FEW006 OVC046 08/07 A3019 610 93 0 020/05 RMK AO2
14837KMSN MSN20051011070010210/11/05 07:00:31  5-MIN KMSN 111300Z 03005KT 6SM BR FEW006 OVC046 08/07 A3019 610 93 0 030/05 RMK AO2
14837KMSN MSN20051011070509510/11/05 07:05:31  5-MIN KMSN 111305Z 04004KT 6SM BR OVC046 08/07 A3019 610 93 0 030/04 RMK AO2
14837KMSN MSN20051011071010210/11/05 07:10:31  5-MIN KMSN 111310Z 04003KT 6SM BR FEW006 BKN046 08/08 A3019 610 96 0 040/03 RMK AO2
14837KMSN MSN20051011071510410/11/05 07:15:31  5-MIN KMSN 111315Z 03003KT 6SM BR FEW006 BKN046 09/08 A3019 610 93 100 030/03 RMK AO2
14837KMSN MSN20051011072010410/11/05 07:20:31  5-MIN KMSN 111320Z 03004KT 6SM BR FEW006 BKN046 09/08 A3019 610 93 100 030/04 RMK AO2
14837KMSN MSN20051011072510410/11/05 07:25:31  5-MIN KMSN 111325Z 00000KT 6SM BR FEW006 BKN046 09/08 A3019 610 93 100 000/00 RMK AO2
14837KMSN MSN20051011073010410/11/05 07:30:31  5-MIN KMSN 111330Z 01003KT 6SM BR FEW006 BKN046 09/08 A3019 610 96 100 010/03 RMK AO2
14837KMSN MSN20051011073510410/11/05 07:35:31  5-MIN KMSN 111335Z 00000KT 6SM BR BKN006 OVC046 09/08 A3019 610 93 100 000/00 RMK AO2
14837KMSN MSN20051011074010410/11/05 07:40:31  5-MIN KMSN 111340Z 00000KT 6SM BR BKN006 OVC046 09/08 A3019 610 93 100 000/00 RMK AO2
14837KMSN MSN20051011074509710/11/05 07:45:31  5-MIN KMSN 111345Z 35003KT 5SM BR OVC006 09/08 A3019 610 93 100 350/03 RMK AO2
14837KMSN MSN20051011075011410/11/05 07:50:31  5-MIN KMSN 111350Z 35003KT 5SM BR OVC006 09/08 A3019 610 93 100 350/03 RMK AO2 SLP229 T00940083
14837KMSN MSN20051011075509710/11/05 07:55:31  5-MIN KMSN 111355Z 02003KT 5SM BR OVC006 10/08 A3019 610 89 200 020/03 RMK AO2
14837KMSN MSN20051011080009710/11/05 08:00:31  5-MIN KMSN 111400Z 03004KT 6SM BR OVC006 10/09 A3019 610 93 200 030/04 RMK AO2
14837KMSN MSN20051011080509710/11/05 08:05:31  5-MIN KMSN 111405Z 03003KT 6SM BR BKN006 10/09 A3019 610 93 200 030/03 RMK AO2
14837KMSN MSN20051011081009710/11/05 08:10:31  5-MIN KMSN 111410Z 04004KT 6SM BR BKN006 11/09 A3019 610 93 300 030/04 RMK AO2
14837KMSN MSN20051011081509710/11/05 08:15:31  5-MIN KMSN 111415Z VRB04KT 6SM BR BKN006 11/09 A3019 610 93 300 VRB/04 RMK AO2
14837KMSN MSN20051011082010410/11/05 08:20:31  5-MIN KMSN 111420Z 07005KT 5SM BR BKN006 OVC045 11/09 A3019 610 93 300 070/05 RMK AO2
14837KMSN MSN20051011082510410/11/05 08:25:31  5-MIN KMSN 111425Z 07006KT 5SM BR BKN006 OVC045 11/09 A3019 610 93 300 070/06 RMK AO2
14837KMSN MSN20051011083010410/11/05 08:30:31  5-MIN KMSN 111430Z 06006KT 4SM BR BKN006 OVC045 11/09 A3019 610 93 300 060/06 RMK AO2
14837KMSN MSN20051011083510410/11/05 08:35:31  5-MIN KMSN 111435Z 07005KT 4SM BR BKN006 OVC045 11/09 A3019 610 93 300 070/05 RMK AO2
14837KMSN MSN20051011084010410/11/05 08:40:31  5-MIN KMSN 111440Z 06006KT 4SM BR BKN006 OVC045 11/09 A3020 610 93 300 060/06 RMK AO2
14837KMSN MSN20051011084510410/11/05 08:45:31  5-MIN KMSN 111445Z 06006KT 4SM BR BKN006 OVC045 11/09 A3020 610 93 300 060/06 RMK AO2
14837KMSN MSN20051011085012010/11/05 08:50:31  5-MIN KMSN 111450Z 06006KT 3SM BR OVC006 11/09 A3020 610 93 300 060/06 RMK AO2 SLP230 T01060094 51005
14837KMSN MSN20051011085509710/11/05 08:55:31  5-MIN KMSN 111455Z 06007KT 4SM BR OVC006 11/10 A3020 610 96 300 060/07 RMK AO2
14837KMSN MSN20051011090009710/11/05 09:00:31  5-MIN KMSN 111500Z 07006KT 3SM BR OVC006 11/10 A3020 610 96 300 070/06 RMK AO2
14837KMSN MSN20051011090509710/11/05 09:05:31  5-MIN KMSN 111505Z 08007KT 3SM BR OVC006 11/09 A3020 610 89 300 080/07 RMK AO2
14837KMSN MSN20051011091009710/11/05 09:10:31  5-MIN KMSN 111510Z 08006KT 3SM BR OVC006 11/10 A3020 610 93 300 070/06 RMK AO2
14837KMSN MSN20051011091509710/11/05 09:15:31  5-MIN KMSN 111515Z 06007KT 3SM BR OVC006 11/10 A3020 610 93 300 060/07 RMK AO2
14837KMSN MSN20051011092009710/11/05 09:20:31  5-MIN KMSN 111520Z 08007KT 3SM BR OVC006 11/10 A3020 610 93 300 080/07 RMK AO2
14837KMSN MSN20051011092509710/11/05 09:25:31  5-MIN KMSN 111525Z 07007KT 3SM BR OVC006 11/10 A3020 610 93 300 070/07 RMK AO2
14837KMSN MSN20051011093009710/11/05 09:30:31  5-MIN KMSN 111530Z 08005KT 3SM BR OVC006 12/10 A3020 610 89 400 080/05 RMK AO2
14837KMSN MSN20051011093509710/11/05 09:35:31  5-MIN KMSN 111535Z 07007KT 3SM BR OVC006 12/10 A3020 610 89 400 070/07 RMK AO2
14837KMSN MSN20051011094009710/11/05 09:40:31  5-MIN KMSN 111540Z 07006KT 3SM BR OVC006 12/10 A3019 610 89 400 070/06 RMK AO2
14837KMSN MSN20051011094509710/11/05 09:45:31  5-MIN KMSN 111545Z 06006KT 3SM BR OVC006 12/10 A3019 610 86 500 060/06 RMK AO2
14837KMSN MSN20051011095012410/11/05 09:50:31  5-MIN KMSN 111550Z 07005KT 3SM BR OVC006 12/11 A3019 610 89 500 070/05 RMK AO2 TWR VIS 4 SLP228 T01220106
14837KMSN MSN20051011095509710/11/05 09:55:31  5-MIN KMSN 111555Z 06006KT 4SM BR BKN006 13/11 A3019 620 86 500 060/06 RMK AO2
14837KMSN MSN20051011100010410/11/05 10:00:31  5-MIN KMSN 111600Z 05006KT 4SM BR BKN006 OVC010 13/11 A3019 620 86 500 050/06 RMK AO2
14837KMSN MSN20051011100509710/11/05 10:05:31  5-MIN KMSN 111605Z 07006KT 4SM BR BKN006 13/11 A3019 620 86 500 070/06 RMK AO2
14837KMSN MSN20051011101010910/11/05 10:10:31  5-MIN KMSN 111610Z 09007KT 4SM HZ BKN008 13/11 A3018 620 83 600 090/07 RMK AO2 CIG 006V010
14837KMSN MSN20051011101511610/11/05 10:15:31  5-MIN KMSN 111615Z 07007KT 5SM HZ BKN008 BKN013 14/11 A3018 620 80 700 070/07 RMK AO2 CIG 006V010
14837KMSN MSN20051011102009710/11/05 10:20:31  5-MIN KMSN 111620Z 09004KT 6SM HZ BKN010 14/11 A3018 620 80 700 080/04 RMK AO2
14837KMSN MSN20051011102509710/11/05 10:25:31  5-MIN KMSN 111625Z 07007KT 6SM HZ BKN010 14/11 A3018 620 77 700 070/07 RMK AO2
14837KMSN MSN20051011103009410/11/05 10:30:31  5-MIN KMSN 111630Z 09009KT 8SM BKN010 16/11 A3018 620 72 900 090/09 RMK AO2
14837KMSN MSN20051011103509410/11/05 10:35:31  5-MIN KMSN 111635Z 08006KT 9SM SCT016 16/10 A3018 630 69 900 080/06 RMK AO2
14837KMSN MSN20051011104009410/11/05 10:40:31  5-MIN KMSN 111640Z 07009KT 9SM FEW016 16/10 A3018 630 69 900 070/09 RMK AO2
14837KMSN MSN20051011104509510/11/05 10:45:31  5-MIN KMSN 111645Z 08007KT 10SM SCT016 16/10 A3017 630 67 900 080/07 RMK AO2
14837KMSN MSN20051011105011210/11/05 10:50:31  5-MIN KMSN 111650Z 09008KT 10SM SCT016 16/09 A3017 630 64 900 090/08 RMK AO2 SLP221 T01610094
14837KMSN MSN20051011105511110/11/05 10:55:31  5-MIN KMSN 111655Z 08008KT 050V120 10SM SCT018 16/09 A3017 630 64 900 080/08 050V120 RMK AO2
14837KMSN MSN20051011110009610/11/05 11:00:31  5-MIN KMSN 111700Z 08008KT 10SM SCT018 17/10 A3017 630 64 1000 080/08 RMK AO2
14837KMSN MSN20051011110509610/11/05 11:05:31  5-MIN KMSN 111705Z 09008KT 10SM SCT018 17/09 A3017 630 62 1000 090/08 RMK AO2
14837KMSN MSN20051011111009610/11/05 11:10:31  5-MIN KMSN 111710Z 08009KT 10SM SCT018 17/09 A3017 630 62 1000 080/09 RMK AO2
14837KMSN MSN20051011111509610/11/05 11:15:31  5-MIN KMSN 111715Z 09008KT 10SM SCT018 17/09 A3017 630 62 1000 090/08 RMK AO2
14837KMSN MSN20051011112009610/11/05 11:20:31  5-MIN KMSN 111720Z 10009KT 10SM SCT018 17/09 A3017 640 60 1000 100/09 RMK AO2
14837KMSN MSN20051011112509610/11/05 11:25:31  5-MIN KMSN 111725Z 08008KT 10SM SCT018 17/09 A3017 640 60 1000 080/08 RMK AO2
14837KMSN MSN20051011113009610/11/05 11:30:31  5-MIN KMSN 111730Z 08006KT 10SM SCT020 17/09 A3017 640 60 1000 080/06 RMK AO2
14837KMSN MSN20051011113509610/11/05 11:35:31  5-MIN KMSN 111735Z 10007KT 10SM SCT020 17/09 A3017 640 57 1100 100/07 RMK AO2
14837KMSN MSN20051011114009610/11/05 11:40:31  5-MIN KMSN 111740Z 09009KT 10SM BKN030 17/09 A3017 640 57 1100 090/09 RMK AO2
14837KMSN MSN20051011114511210/11/05 11:45:31  5-MIN KMSN 111745Z 06007KT 040V100 10SM BKN030 17/09 A3016 640 60 1100 060/07 040V100 RMK AO2
14837KMSN MSN20051011115013710/11/05 11:50:31  5-MIN KMSN 111750Z 07009G14KT 10SM BKN030 17/09 A3016 640 60 1100 070/09G14 RMK AO2 SLP218 T01720094 10178 20061 51005
14837KMSN MSN20051011115509610/11/05 11:55:31  5-MIN KMSN 111755Z 10007KT 10SM BKN030 17/09 A3016 640 62 1000 100/07 RMK AO2
14837KMSN MSN20051011120009610/11/05 12:00:31  5-MIN KMSN 111800Z 08005KT 10SM BKN030 16/09 A3016 640 64 1000 080/05 RMK AO2
14837KMSN MSN20051011120509610/11/05 12:05:31  5-MIN KMSN 111805Z 06007KT 10SM BKN030 17/09 A3016 650 62 1000 060/07 RMK AO2
14837KMSN MSN20051011121009610/11/05 12:10:31  5-MIN KMSN 111810Z 08008KT 10SM BKN030 17/09 A3015 650 60 1000 080/08 RMK AO2
14837KMSN MSN20051011121509610/11/05 12:15:31  5-MIN KMSN 111815Z 11008KT 10SM SCT030 17/09 A3015 650 60 1100 110/08 RMK AO2
14837KMSN MSN20051011122009610/11/05 12:20:31  5-MIN KMSN 111820Z 09008KT 10SM BKN030 18/09 A3015 650 58 1200 090/08 RMK AO2
14837KMSN MSN20051011122509610/11/05 12:25:31  5-MIN KMSN 111825Z 05009KT 10SM BKN030 18/09 A3015 650 56 1200 050/09 RMK AO2
14837KMSN MSN20051011123009610/11/05 12:30:31  5-MIN KMSN 111830Z 06009KT 10SM BKN030 17/09 A3015 650 57 1100 050/09 RMK AO2
14837KMSN MSN20051011123509610/11/05 12:35:31  5-MIN KMSN 111835Z 06008KT 10SM BKN030 17/09 A3015 650 60 1000 060/08 RMK AO2
14837KMSN MSN20051011124009610/11/05 12:40:31  5-MIN KMSN 111840Z 07006KT 10SM BKN030 17/09 A3015 650 57 1100 070/06 RMK AO2
14837KMSN MSN20051011124509610/11/05 12:45:31  5-MIN KMSN 111845Z VRB05KT 10SM BKN030 18/09 A3015 660 55 1200 VRB/05 RMK AO2
14837KMSN MSN20051011125011310/11/05 12:50:31  5-MIN KMSN 111850Z 08008KT 10SM BKN030 18/09 A3015 650 54 1200 080/08 RMK AO2 SLP211 T01830089
14837KMSN MSN20051011125509610/11/05 12:55:31  5-MIN KMSN 111855Z 09008KT 10SM BKN034 18/08 A3015 660 53 1200 090/08 RMK AO2
14837KMSN MSN20051011130009610/11/05 13:00:31  5-MIN KMSN 111900Z 08006KT 10SM BKN034 18/08 A3015 660 52 1200 070/06 RMK AO2
14837KMSN MSN20051011130509610/11/05 13:05:31  5-MIN KMSN 111905Z 11005KT 10SM BKN034 18/08 A3014 660 51 1200 110/05 RMK AO2
14837KMSN MSN20051011131009610/11/05 13:10:31  5-MIN KMSN 111910Z 10007KT 10SM BKN034 18/08 A3014 660 52 1200 100/07 RMK AO2
14837KMSN MSN20051011131509610/11/05 13:15:31  5-MIN KMSN 111915Z 11005KT 10SM BKN034 18/08 A3014 660 52 1200 110/05 RMK AO2
14837KMSN MSN20051011132009610/11/05 13:20:31  5-MIN KMSN 111920Z 04009KT 10SM BKN034 19/09 A3014 660 52 1300 040/09 RMK AO2
14837KMSN MSN20051011132509610/11/05 13:25:31  5-MIN KMSN 111925Z 04009KT 10SM BKN034 19/09 A3014 660 52 1300 040/09 RMK AO2
14837KMSN MSN20051011133009610/11/05 13:30:31  5-MIN KMSN 111930Z 04008KT 10SM BKN034 19/09 A3014 660 52 1300 040/08 RMK AO2
14837KMSN MSN20051011133509610/11/05 13:35:31  5-MIN KMSN 111935Z 06008KT 10SM BKN034 19/08 A3014 660 50 1300 060/08 RMK AO2
14837KMSN MSN20051011134009610/11/05 13:40:31  5-MIN KMSN 111940Z 06008KT 10SM BKN034 18/08 A3014 660 50 1200 060/08 RMK AO2
14837KMSN MSN20051011134509610/11/05 13:45:31  5-MIN KMSN 111945Z 06009KT 10SM BKN034 17/08 A3014 660 53 1100 060/09 RMK AO2
14837KMSN MSN20051011135011310/11/05 13:50:31  5-MIN KMSN 111950Z 05007KT 10SM BKN034 17/08 A3014 660 55 1100 050/07 RMK AO2 SLP209 T01670078
14837KMSN MSN20051011135509610/11/05 13:55:31  5-MIN KMSN 111955Z 07005KT 10SM BKN040 17/08 A3014 660 53 1100 070/05 RMK AO2
14837KMSN MSN20051011140009610/11/05 14:00:31  5-MIN KMSN 112000Z VRB04KT 10SM BKN040 18/07 A3014 660 49 1200 VRB/04 RMK AO2
14837KMSN MSN20051011140509610/11/05 14:05:31  5-MIN KMSN 112005Z 11006KT 10SM BKN040 18/08 A3014 670 50 1300 100/06 RMK AO2
14837KMSN MSN20051011141009610/11/05 14:10:31  5-MIN KMSN 112010Z 11005KT 10SM BKN040 18/08 A3013 670 51 1200 110/05 RMK AO2
14837KMSN MSN20051011141511210/11/05 14:15:31  5-MIN KMSN 112015Z 09009KT 060V160 10SM BKN040 18/08 A3013 670 50 1300 090/09 060V160 RMK AO2
14837KMSN MSN20051011142009610/11/05 14:20:31  5-MIN KMSN 112020Z 06008KT 10SM BKN040 19/08 A3013 670 48 1300 060/08 RMK AO2
14837KMSN MSN20051011142509610/11/05 14:25:31  5-MIN KMSN 112025Z 05008KT 10SM BKN040 19/08 A3013 670 48 1300 050/08 RMK AO2
14837KMSN MSN20051011143009610/11/05 14:30:31  5-MIN KMSN 112030Z 06008KT 10SM BKN040 18/08 A3013 670 50 1300 060/08 RMK AO2
14837KMSN MSN20051011143509610/11/05 14:35:31  5-MIN KMSN 112035Z 05006KT 10SM BKN040 18/08 A3013 670 51 1200 050/06 RMK AO2
14837KMSN MSN20051011144009610/11/05 14:40:31  5-MIN KMSN 112040Z 07009KT 10SM BKN040 18/08 A3012 680 52 1300 070/09 RMK AO2
14837KMSN MSN20051011144509610/11/05 14:45:31  5-MIN KMSN 112045Z 08009KT 10SM BKN040 18/08 A3012 680 50 1300 080/09 RMK AO2
14837KMSN MSN20051011145011910/11/05 14:50:31  5-MIN KMSN 112050Z 08009KT 10SM SCT043 18/08 A3012 680 51 1200 080/09 RMK AO2 SLP203 T01780078 58011
14837KMSN MSN20051011145509610/11/05 14:55:31  5-MIN KMSN 112055Z 09008KT 10SM SCT045 18/08 A3012 680 51 1200 090/08 RMK AO2
14837KMSN MSN20051011150009610/11/05 15:00:31  5-MIN KMSN 112100Z 09009KT 10SM SCT045 18/08 A3012 680 51 1200 090/09 RMK AO2
14837KMSN MSN20051011150509610/11/05 15:05:31  5-MIN KMSN 112105Z 05007KT 10SM SCT045 18/08 A3012 680 52 1300 040/07 RMK AO2
14837KMSN MSN20051011151009610/11/05 15:10:31  5-MIN KMSN 112110Z 06009KT 10SM SCT045 18/08 A3012 680 50 1300 060/09 RMK AO2
14837KMSN MSN20051011151509610/11/05 15:15:31  5-MIN KMSN 112115Z 03010KT 10SM FEW043 18/08 A3012 680 53 1200 030/10 RMK AO2
14837KMSN MSN20051011152009610/11/05 15:20:31  5-MIN KMSN 112120Z 06011KT 10SM FEW043 18/08 A3012 680 51 1200 060/11 RMK AO2
14837KMSN MSN20051011152509610/11/05 15:25:31  5-MIN KMSN 112125Z 06009KT 10SM FEW043 17/08 A3012 680 53 1100 060/09 RMK AO2
14837KMSN MSN20051011153009610/11/05 15:30:31  5-MIN KMSN 112130Z 07009KT 10SM FEW043 17/08 A3012 680 53 1100 070/09 RMK AO2
14837KMSN MSN20051011153509610/11/05 15:35:31  5-MIN KMSN 112135Z 06008KT 10SM FEW043 17/08 A3012 680 53 1100 060/08 RMK AO2
14837KMSN MSN20051011154009610/11/05 15:40:31  5-MIN KMSN 112140Z 07012KT 10SM FEW043 17/08 A3011 690 55 1100 070/12 RMK AO2
14837KMSN MSN20051011154509610/11/05 15:45:31  5-MIN KMSN 112145Z 06012KT 10SM FEW043 17/08 A3011 680 57 1100 060/12 RMK AO2
14837KMSN MSN20051011155011310/11/05 15:50:31  5-MIN KMSN 112150Z 06012KT 10SM FEW043 17/08 A3012 680 57 1100 060/12 RMK AO2 SLP201 T01670083
14837KMSN MSN20051011155509310/11/05 15:55:31  5-MIN KMSN 112155Z 07010KT 10SM CLR 17/08 A3012 680 57 1100 070/10 RMK AO2
14837KMSN MSN20051011160009610/11/05 16:00:31  5-MIN KMSN 112200Z 07011KT 10SM FEW045 16/08 A3012 680 59 1000 070/11 RMK AO2
14837KMSN MSN20051011160509610/11/05 16:05:31  5-MIN KMSN 112205Z 07011KT 10SM FEW045 16/08 A3012 680 59 1000 070/11 RMK AO2
14837KMSN MSN20051011161009610/11/05 16:10:31  5-MIN KMSN 112210Z 08011KT 10SM FEW045 16/08 A3012 680 59 1000 080/11 RMK AO2
14837KMSN MSN20051011161509610/11/05 16:15:31  5-MIN KMSN 112215Z 09011KT 10SM FEW045 16/08 A3013 670 59 1000 090/11 RMK AO2
14837KMSN MSN20051011162009510/11/05 16:20:31  5-MIN KMSN 112220Z 09012KT 10SM FEW045 16/08 A3013 670 62 900 090/12 RMK AO2
14837KMSN MSN20051011162509510/11/05 16:25:31  5-MIN KMSN 112225Z 09011KT 10SM FEW045 16/08 A3013 670 62 900 080/11 RMK AO2
14837KMSN MSN20051011163009510/11/05 16:30:31  5-MIN KMSN 112230Z 08012KT 10SM FEW045 15/08 A3013 670 64 900 080/12 RMK AO2
14837KMSN MSN20051011163509210/11/05 16:35:31  5-MIN KMSN 112235Z 07012KT 10SM CLR 14/08 A3013 670 66 800 070/12 RMK AO2
14837KMSN MSN20051011164009210/11/05 16:40:31  5-MIN KMSN 112240Z 07012KT 10SM CLR 14/08 A3013 670 64 800 070/12 RMK AO2
14837KMSN MSN20051011164509210/11/05 16:45:31  5-MIN KMSN 112245Z 07009KT 10SM CLR 14/08 A3014 670 66 700 070/09 RMK AO2
14837KMSN MSN20051011165010910/11/05 16:50:31  5-MIN KMSN 112250Z 07009KT 10SM CLR 14/08 A3014 660 66 700 070/09 RMK AO2 SLP210 T01390078
14837KMSN MSN20051011165509210/11/05 16:55:31  5-MIN KMSN 112255Z 07008KT 10SM CLR 13/08 A3014 660 69 700 060/08 RMK AO2
14837KMSN MSN20051011170009210/11/05 17:00:31  5-MIN KMSN 112300Z 07008KT 10SM CLR 13/08 A3014 660 69 700 070/08 RMK AO2
14837KMSN MSN20051011170509210/11/05 17:05:31  5-MIN KMSN 112305Z 08007KT 10SM CLR 13/08 A3014 660 71 600 080/07 RMK AO2
14837KMSN MSN20051011171009210/11/05 17:10:31  5-MIN KMSN 112310Z 08007KT 10SM CLR 13/08 A3014 660 69 700 080/07 RMK AO2
14837KMSN MSN20051011171509510/11/05 17:15:31  5-MIN KMSN 112315Z 08006KT 10SM FEW060 13/08 A3014 660 69 700 080/06 RMK AO2
14837KMSN MSN20051011172009510/11/05 17:20:31  5-MIN KMSN 112320Z 07006KT 10SM BKN060 13/08 A3015 660 69 700 070/06 RMK AO2
14837KMSN MSN20051011172509510/11/05 17:25:31  5-MIN KMSN 112325Z 07007KT 10SM BKN060 13/08 A3015 660 69 700 070/07 RMK AO2
14837KMSN MSN20051011173009510/11/05 17:30:31  5-MIN KMSN 112330Z 06005KT 10SM BKN060 13/08 A3015 660 69 700 060/05 RMK AO2
14837KMSN MSN20051011173509510/11/05 17:35:31  5-MIN KMSN 112335Z 08006KT 10SM OVC060 13/08 A3015 660 69 700 080/06 RMK AO2
14837KMSN MSN20051011174009510/11/05 17:40:31  5-MIN KMSN 112340Z 07007KT 10SM OVC060 14/08 A3015 660 66 700 070/07 RMK AO2
14837KMSN MSN20051011174509510/11/05 17:45:31  5-MIN KMSN 112345Z 08008KT 10SM OVC060 14/08 A3015 660 66 700 070/08 RMK AO2
14837KMSN MSN20051011175013010/11/05 17:50:31  5-MIN KMSN 112350Z 08008KT 10SM OVC060 14/08 A3015 650 66 700 080/08 RMK AO2 SLP212 T01390078 10194 20128 58014
14837KMSN MSN20051011175509510/11/05 17:55:31  5-MIN KMSN 112355Z 07006KT 10SM OVC060 13/08 A3015 650 71 600 070/06 RMK AO2
14837KMSN MSN20051011180509510/11/05 18:05:31  5-MIN KMSN 120005Z 07007KT 10SM OVC060 13/08 A3015 650 71 700 070/07 RMK AO2
14837KMSN MSN20051011181009510/11/05 18:10:31  5-MIN KMSN 120010Z 06007KT 10SM OVC060 13/08 A3015 660 71 700 060/07 RMK AO2
14837KMSN MSN20051011181509510/11/05 18:15:31  5-MIN KMSN 120015Z 06007KT 10SM OVC060 13/08 A3014 660 71 700 060/07 RMK AO2
14837KMSN MSN20051011182009510/11/05 18:20:31  5-MIN KMSN 120020Z 07008KT 10SM OVC060 13/08 A3015 660 71 700 060/08 RMK AO2
14837KMSN MSN20051011182509510/11/05 18:25:31  5-MIN KMSN 120025Z 07009KT 10SM OVC060 13/08 A3014 660 71 700 070/09 RMK AO2
14837KMSN MSN20051011183009510/11/05 18:30:31  5-MIN KMSN 120030Z 06006KT 10SM OVC060 13/08 A3014 660 71 700 060/06 RMK AO2
14837KMSN MSN20051011183509510/11/05 18:35:31  5-MIN KMSN 120035Z 06006KT 10SM OVC060 13/08 A3015 660 71 700 060/06 RMK AO2
14837KMSN MSN20051011184009510/11/05 18:40:31  5-MIN KMSN 120040Z 06006KT 10SM OVC060 13/08 A3015 650 71 600 060/06 RMK AO2
14837KMSN MSN20051011184509510/11/05 18:45:31  5-MIN KMSN 120045Z 07006KT 10SM OVC060 13/08 A3015 650 71 600 070/06 RMK AO2
14837KMSN MSN20051011185011210/11/05 18:50:31  5-MIN KMSN 120050Z 06006KT 10SM OVC060 13/08 A3015 650 71 600 060/06 RMK AO2 SLP214 T01330083
14837KMSN MSN20051011185509510/11/05 18:55:31  5-MIN KMSN 120055Z 07006KT 10SM OVC060 13/08 A3015 650 71 600 070/06 RMK AO2
14837KMSN MSN20051011190009510/11/05 19:00:31  5-MIN KMSN 120100Z 06006KT 10SM OVC060 13/08 A3015 650 71 600 060/06 RMK AO2
14837KMSN MSN20051011190509510/11/05 19:05:31  5-MIN KMSN 120105Z 06006KT 10SM OVC060 13/08 A3016 640 71 600 060/06 RMK AO2
14837KMSN MSN20051011191009510/11/05 19:10:31  5-MIN KMSN 120110Z 06006KT 10SM OVC060 13/08 A3016 640 74 600 060/06 RMK AO2
14837KMSN MSN20051011191509510/11/05 19:15:31  5-MIN KMSN 120115Z 06005KT 10SM OVC060 13/08 A3016 640 74 600 060/05 RMK AO2
14837KMSN MSN20051011192009510/11/05 19:20:31  5-MIN KMSN 120120Z 06006KT 10SM OVC060 13/08 A3016 640 74 600 060/06 RMK AO2
14837KMSN MSN20051011192509510/11/05 19:25:31  5-MIN KMSN 120125Z 06004KT 10SM OVC060 13/08 A3016 640 74 600 060/04 RMK AO2
14837KMSN MSN20051011193009510/11/05 19:30:31  5-MIN KMSN 120130Z 06005KT 10SM OVC060 13/08 A3016 640 74 600 060/05 RMK AO2
14837KMSN MSN20051011193509510/11/05 19:35:31  5-MIN KMSN 120135Z 06006KT 10SM OVC060 13/08 A3016 640 74 600 060/06 RMK AO2
14837KMSN MSN20051011194009510/11/05 19:40:31  5-MIN KMSN 120140Z 06005KT 10SM OVC060 13/08 A3016 640 74 600 060/05 RMK AO2
14837KMSN MSN20051011194509510/11/05 19:45:31  5-MIN KMSN 120145Z 07005KT 10SM OVC060 13/08 A3016 640 74 600 070/05 RMK AO2
14837KMSN MSN20051011195011210/11/05 19:50:31  5-MIN KMSN 120150Z 06006KT 10SM OVC060 13/08 A3016 640 74 600 060/06 RMK AO2 SLP216 T01280083
14837KMSN MSN20051011195509510/11/05 19:55:31  5-MIN KMSN 120155Z 07004KT 10SM OVC060 13/08 A3017 640 74 600 060/04 RMK AO2
14837KMSN MSN20051011200009510/11/05 20:00:31  5-MIN KMSN 120200Z 06006KT 10SM OVC060 13/08 A3016 640 74 600 060/06 RMK AO2
14837KMSN MSN20051011200509510/11/05 20:05:31  5-MIN KMSN 120205Z 06006KT 10SM OVC060 13/08 A3016 640 74 600 060/06 RMK AO2
14837KMSN MSN20051011201009510/11/05 20:10:31  5-MIN KMSN 120210Z 06006KT 10SM OVC060 13/08 A3016 640 74 600 060/06 RMK AO2
14837KMSN MSN20051011201509510/11/05 20:15:31  5-MIN KMSN 120215Z 06005KT 10SM OVC060 13/08 A3016 640 74 600 060/05 RMK AO2
14837KMSN MSN20051011202009510/11/05 20:20:31  5-MIN KMSN 120220Z 06006KT 10SM OVC060 13/08 A3016 650 74 600 060/06 RMK AO2
14837KMSN MSN20051011202509510/11/05 20:25:31  5-MIN KMSN 120225Z 07005KT 10SM OVC060 13/08 A3016 650 74 600 060/05 RMK AO2
14837KMSN MSN20051011203009510/11/05 20:30:31  5-MIN KMSN 120230Z 07004KT 10SM OVC060 13/08 A3016 640 74 600 070/04 RMK AO2
14837KMSN MSN20051011203509510/11/05 20:35:31  5-MIN KMSN 120235Z 07006KT 10SM OVC060 12/08 A3016 650 77 500 070/06 RMK AO2
14837KMSN MSN20051011204009510/11/05 20:40:31  5-MIN KMSN 120240Z 07005KT 10SM OVC060 12/08 A3016 650 77 500 070/05 RMK AO2
14837KMSN MSN20051011204510210/11/05 20:45:31  5-MIN KMSN 120245Z 07005KT 10SM FEW018 OVC060 12/08 A3016 640 77 500 070/05 RMK AO2
14837KMSN MSN20051011205012510/11/05 20:50:31  5-MIN KMSN 120250Z 07005KT 10SM SCT018 OVC060 13/08 A3016 650 74 600 070/05 RMK AO2 SLP214 T01280083 53009
14837KMSN MSN20051011205510210/11/05 20:55:31  5-MIN KMSN 120255Z 06004KT 10SM BKN018 OVC060 12/09 A3016 640 80 500 060/04 RMK AO2
14837KMSN MSN20051011210010210/11/05 21:00:31  5-MIN KMSN 120300Z 06005KT 10SM BKN018 OVC060 12/09 A3016 650 80 500 060/05 RMK AO2
14837KMSN MSN20051011210510210/11/05 21:05:31  5-MIN KMSN 120305Z 06005KT 10SM BKN018 OVC060 12/09 A3016 650 80 500 060/05 RMK AO2
14837KMSN MSN20051011211010210/11/05 21:10:31  5-MIN KMSN 120310Z 06005KT 10SM BKN018 OVC060 12/09 A3016 650 80 500 060/05 RMK AO2
14837KMSN MSN20051011211510210/11/05 21:15:31  5-MIN KMSN 120315Z 06004KT 10SM BKN018 OVC060 12/09 A3016 640 80 500 060/04 RMK AO2
14837KMSN MSN20051011212010210/11/05 21:20:31  5-MIN KMSN 120320Z 06004KT 10SM BKN018 OVC060 12/09 A3016 640 80 500 060/04 RMK AO2
14837KMSN MSN20051011212510210/11/05 21:25:31  5-MIN KMSN 120325Z 06004KT 10SM BKN018 OVC060 12/09 A3016 640 80 500 060/04 RMK AO2
14837KMSN MSN20051011213010210/11/05 21:30:31  5-MIN KMSN 120330Z 06004KT 10SM BKN015 OVC060 12/09 A3016 640 80 500 060/04 RMK AO2
14837KMSN MSN20051011213509510/11/05 21:35:31  5-MIN KMSN 120335Z 06005KT 10SM OVC015 12/09 A3016 650 80 500 060/05 RMK AO2
14837KMSN MSN20051011214009510/11/05 21:40:31  5-MIN KMSN 120340Z 06006KT 10SM OVC015 12/09 A3016 650 83 500 060/06 RMK AO2
14837KMSN MSN20051011214509510/11/05 21:45:31  5-MIN KMSN 120345Z 06005KT 10SM OVC015 12/09 A3016 640 83 500 060/05 RMK AO2
14837KMSN MSN20051011215011210/11/05 21:50:31  5-MIN KMSN 120350Z 06004KT 10SM OVC015 12/09 A3016 650 83 500 060/04 RMK AO2 SLP214 T01220094
14837KMSN MSN20051011215509510/11/05 21:55:31  5-MIN KMSN 120355Z 06004KT 10SM OVC013 12/09 A3015 650 83 500 060/04 RMK AO2
14837KMSN MSN20051011220009410/11/05 22:00:31  5-MIN KMSN 120400Z 06005KT 9SM OVC013 12/09 A3015 650 83 500 060/05 RMK AO2
14837KMSN MSN20051011220509410/11/05 22:05:31  5-MIN KMSN 120405Z 07005KT 9SM OVC013 12/09 A3015 650 83 500 070/05 RMK AO2
14837KMSN MSN20051011221009410/11/05 22:10:31  5-MIN KMSN 120410Z 06006KT 9SM OVC013 12/09 A3015 650 83 500 060/06 RMK AO2
14837KMSN MSN20051011221509510/11/05 22:15:31  5-MIN KMSN 120415Z 07006KT 10SM OVC013 12/09 A3015 650 83 500 060/06 RMK AO2
14837KMSN MSN20051011222009510/11/05 22:20:31  5-MIN KMSN 120420Z 07006KT 10SM OVC013 12/09 A3015 650 83 500 070/06 RMK AO2
14837KMSN MSN20051011222509510/11/05 22:25:31  5-MIN KMSN 120425Z 07006KT 10SM OVC013 12/09 A3015 650 83 500 070/06 RMK AO2
14837KMSN MSN20051011223009410/11/05 22:30:31  5-MIN KMSN 120430Z 06007KT 9SM OVC013 12/09 A3015 650 83 500 060/07 RMK AO2
14837KMSN MSN20051011223510110/11/05 22:35:31  5-MIN KMSN 120435Z 06005KT 9SM BKN010 OVC013 12/09 A3015 650 83 500 060/05 RMK AO2
14837KMSN MSN20051011224010110/11/05 22:40:31  5-MIN KMSN 120440Z 06007KT 9SM BKN010 OVC015 12/09 A3015 660 83 500 060/07 RMK AO2
14837KMSN MSN20051011224509410/11/05 22:45:31  5-MIN KMSN 120445Z 07006KT 9SM OVC010 12/09 A3015 650 83 500 060/06 RMK AO2
14837KMSN MSN20051011225011110/11/05 22:50:31  5-MIN KMSN 120450Z 06006KT 9SM OVC010 12/10 A3015 650 86 500 060/06 RMK AO2 SLP211 T01220100
14837KMSN MSN20051011225509410/11/05 22:55:31  5-MIN KMSN 120455Z 07005KT 8SM OVC010 12/10 A3015 650 86 500 070/05 RMK AO2
14837KMSN MSN20051011230009410/11/05 23:00:31  5-MIN KMSN 120500Z 07007KT 8SM OVC010 12/10 A3015 650 86 500 070/07 RMK AO2
14837KMSN MSN20051011230509410/11/05 23:05:31  5-MIN KMSN 120505Z 06006KT 7SM OVC010 12/10 A3015 650 86 500 060/06 RMK AO2
14837KMSN MSN20051011231009410/11/05 23:10:31  5-MIN KMSN 120510Z 06006KT 7SM OVC008 12/10 A3015 660 86 500 060/06 RMK AO2
14837KMSN MSN20051011231509410/11/05 23:15:31  5-MIN KMSN 120515Z 06005KT 7SM OVC008 12/10 A3015 650 86 500 060/05 RMK AO2
14837KMSN MSN20051011232010610/11/05 23:20:31  5-MIN KMSN 120520Z 07003KT 7SM OVC008 12/10 A3015 650 86 500 070/03 RMK AO2 CIG 007V010
14837KMSN MSN20051011232510910/11/05 23:25:31  5-MIN KMSN 120525Z 00000KT 6SM BR OVC008 12/11 A3015 650 89 500 000/00 RMK AO2 CIG 007V010
14837KMSN MSN20051011233009410/11/05 23:30:31  5-MIN KMSN 120530Z 07003KT 7SM OVC008 12/11 A3015 650 89 500 070/03 RMK AO2
14837KMSN MSN20051011233509710/11/05 23:35:31  5-MIN KMSN 120535Z 05004KT 6SM BR OVC008 12/11 A3015 650 89 500 050/04 RMK AO2
14837KMSN MSN20051011234009710/11/05 23:40:31  5-MIN KMSN 120540Z 08004KT 5SM BR OVC008 12/11 A3015 650 89 500 080/04 RMK AO2
14837KMSN MSN20051011234509710/11/05 23:45:31  5-MIN KMSN 120545Z 09003KT 5SM BR OVC008 12/11 A3015 650 89 500 090/03 RMK AO2
14837KMSN MSN20051011235014210/11/05 23:50:31  5-MIN KMSN 120550Z 00000KT 5SM BR OVC006 12/11 A3015 650 89 500 000/00 RMK AO2 SLP210 T01220106 10133 20117 401940028 50004
14837KMSN MSN20051011235509710/11/05 23:55:31  5-MIN KMSN 120555Z 03003KT 4SM BR OVC006 12/11 A3015 650 93 500 030/03 RMK AO2
14837KMSN MSN20051012000009710/12/05 00:00:38  5-MIN KMSN 120600Z 03003KT 4SM BR OVC006 12/11 A3015 650 93 500 030/03 RMK AO2
14837KMSN MSN20051012000509710/12/05 00:05:31  5-MIN KMSN 120605Z 03003KT 3SM BR OVC006 12/11 A3015 660 93 500 030/03 RMK AO2
14837KMSN MSN20051012001009710/12/05 00:10:31  5-MIN KMSN 120610Z 04003KT 3SM BR OVC006 12/11 A3015 660 96 500 040/03 RMK AO2
14837KMSN MSN20051012001509710/12/05 00:15:32  5-MIN KMSN 120615Z 02003KT 3SM BR OVC006 12/11 A3015 650 93 500 020/03 RMK AO2
14837KMSN MSN20051012002009710/12/05 00:20:31  5-MIN KMSN 120620Z 03004KT 3SM BR OVC006 12/11 A3014 660 93 500 030/04 RMK AO2
14837KMSN MSN20051012002509710/12/05 00:25:31  5-MIN KMSN 120625Z 36005KT 3SM BR OVC006 12/11 A3014 670 93 500 360/05 RMK AO2
14837KMSN MSN20051012003009710/12/05 00:30:31  5-MIN KMSN 120630Z 36004KT 3SM BR OVC006 12/11 A3014 660 93 500 360/04 RMK AO2
14837KMSN MSN20051012003510110/12/05 00:35:31  5-MIN KMSN 120635Z 35003KT 2 1/2SM BR OVC006 12/11 A3014 660 93 500 350/03 RMK AO2
14837KMSN MSN20051012004010110/12/05 00:40:31  5-MIN KMSN 120640Z 36003KT 2 1/2SM BR OVC006 12/11 A3014 660 93 500 360/03 RMK AO2
14837KMSN MSN20051012004509710/12/05 00:45:31  5-MIN KMSN 120645Z 01005KT 2SM BR OVC006 12/11 A3013 670 93 500 010/05 RMK AO2
14837KMSN MSN20051012005013410/12/05 00:50:31  5-MIN KMSN 120650Z 02005KT 1 3/4SM -DZ BR OVC004 12/11 A3013 670 96 500 020/05 RMK AO2 DZB48 SLP204 P0000 T01170111
14837KMSN MSN20051012005512310/12/05 00:55:31  5-MIN KMSN 120655Z 02005KT 1 1/4SM -DZ BR OVC004 12/11 A3013 670 96 500 020/05 RMK AO2 CIG 002V006 P0000
14837KMSN MSN20051012010012310/12/05 01:00:31  5-MIN KMSN 120700Z 03003KT 1 1/4SM -DZ BR OVC004 12/11 A3013 670 96 500 030/03 RMK AO2 CIG 002V006 P0000
14837KMSN MSN20051012010512310/12/05 01:05:31  5-MIN KMSN 120705Z 03003KT 1 1/4SM -DZ BR OVC004 12/11 A3013 670 96 500 030/03 RMK AO2 CIG 002V006 P0000
14837KMSN MSN20051012011012310/12/05 01:10:31  5-MIN KMSN 120710Z 03004KT 1 1/4SM -DZ BR OVC004 12/11 A3013 670 96 500 030/04 RMK AO2 CIG 002V006 P0000
14837KMSN MSN20051012011512310/12/05 01:15:31  5-MIN KMSN 120715Z 03004KT 1 1/4SM -DZ BR OVC004 12/11 A3013 670 96 500 030/04 RMK AO2 CIG 002V006 P0000
14837KMSN MSN20051012012011910/12/05 01:20:31  5-MIN KMSN 120720Z 04003KT 1SM -DZ BR OVC004 12/11 A3013 670 96 500 030/03 RMK AO2 CIG 002V006 P0000
14837KMSN MSN20051012012512310/12/05 01:25:31  5-MIN KMSN 120725Z 03003KT 1 1/4SM -DZ BR OVC004 12/11 A3012 680 96 500 030/03 RMK AO2 CIG 001V005 P0000
14837KMSN MSN20051012013011110/12/05 01:30:31  5-MIN KMSN 120730Z 03004KT 1 1/4SM -DZ BR OVC004 12/11 A3012 680 96 500 030/04 RMK AO2 P0000
14837KMSN MSN20051012013511110/12/05 01:35:31  5-MIN KMSN 120735Z 02004KT 1 1/4SM -DZ BR OVC004 12/11 A3012 680 96 500 020/04 RMK AO2 P0000
14837KMSN MSN20051012014011110/12/05 01:40:31  5-MIN KMSN 120740Z 02004KT 1 1/2SM -DZ BR OVC004 12/11 A3012 680 96 500 020/04 RMK AO2 P0000
14837KMSN MSN20051012014511110/12/05 01:45:31  5-MIN KMSN 120745Z 02003KT 1 1/2SM -DZ BR OVC004 12/11 A3011 690 96 500 020/03 RMK AO2 P0001
14837KMSN MSN20051012015012810/12/05 01:50:31  5-MIN KMSN 120750Z 01003KT 1 1/2SM -DZ BR OVC004 12/11 A3011 690 96 500 010/03 RMK AO2 SLP198 P0001 T01170111
14837KMSN MSN20051012015511110/12/05 01:55:31  5-MIN KMSN 120755Z 00000KT 1 3/4SM -DZ BR OVC004 12/11 A3011 690 96 500 000/00 RMK AO2 P0000
14837KMSN MSN20051012020011110/12/05 02:00:31  5-MIN KMSN 120800Z 00000KT 1 3/4SM -DZ BR OVC002 12/11 A3012 680 96 500 000/00 RMK AO2 P0000
14837KMSN MSN20051012020511110/12/05 02:05:31  5-MIN KMSN 120805Z 00000KT 1 3/4SM -DZ BR OVC002 12/11 A3011 690 96 500 000/00 RMK AO2 P0000
14837KMSN MSN20051012021011110/12/05 02:10:31  5-MIN KMSN 120810Z 00000KT 1 1/2SM -DZ BR OVC002 12/11 A3011 690 96 500 000/00 RMK AO2 P0000
14837KMSN MSN20051012021511110/12/05 02:15:31  5-MIN KMSN 120815Z 00000KT 1 1/2SM -DZ BR OVC002 12/11 A3011 690 96 500 000/00 RMK AO2 P0000
14837KMSN MSN20051012022011110/12/05 02:20:31  5-MIN KMSN 120820Z 00000KT 1 1/2SM -DZ BR OVC002 12/11 A3011 690 96 500 000/00 RMK AO2 P0000
14837KMSN MSN20051012022511310/12/05 02:25:31  5-MIN KMSN 120825Z 34003KT 1 3/4SM BR OVC002 12/11 A3011 690 96 500 330/03 RMK AO2 DZE21 P0000
14837KMSN MSN20051012023011310/12/05 02:30:31  5-MIN KMSN 120830Z 35003KT 1 3/4SM BR OVC002 12/11 A3011 690 96 500 350/03 RMK AO2 DZE21 P0000
14837KMSN MSN20051012023511310/12/05 02:35:31  5-MIN KMSN 120835Z 00000KT 1 3/4SM BR OVC002 12/11 A3011 690 96 500 000/00 RMK AO2 DZE21 P0000
14837KMSN MSN20051012024011310/12/05 02:40:31  5-MIN KMSN 120840Z 00000KT 1 3/4SM BR OVC002 12/11 A3011 690 96 500 000/00 RMK AO2 DZE21 P0000
14837KMSN MSN20051012024512010/12/05 02:45:31  5-MIN KMSN 120845Z 00000KT 1 3/4SM -DZ BR OVC002 12/11 A3011 690 96 500 000/00 RMK AO2 DZE21B43 P0000
14837KMSN MSN20051012025014910/12/05 02:50:31  5-MIN KMSN 120850Z 36003KT 1 1/2SM -DZ BR OVC002 12/11 A3011 690 96 500 360/03 RMK AO2 DZE21B43 SLP195 P0000 60001 T01170111 58004
14837KMSN MSN20051012025511110/12/05 02:55:31  5-MIN KMSN 120855Z 00000KT 1 1/4SM -DZ BR OVC002 12/11 A3011 690 96 500 000/00 RMK AO2 P0000
14837KMSN MSN20051012030011110/12/05 03:00:31  5-MIN KMSN 120900Z 36003KT 1 1/2SM -DZ BR OVC002 12/11 A3010 700 96 500 360/03 RMK AO2 P0000
14837KMSN MSN20051012030511110/12/05 03:05:31  5-MIN KMSN 120905Z 36003KT 1 3/4SM -DZ BR OVC002 12/11 A3010 700 96 500 360/03 RMK AO2 P0000
14837KMSN MSN20051012031011110/12/05 03:10:31  5-MIN KMSN 120910Z 01003KT 1 3/4SM -DZ BR OVC002 12/11 A3010 700 96 500 010/03 RMK AO2 P0000
14837KMSN MSN20051012031511110/12/05 03:15:31  5-MIN KMSN 120915Z 04004KT 1 3/4SM -DZ BR OVC002 12/11 A3010 700 96 500 040/04 RMK AO2 P0000
14837KMSN MSN20051012032011110/12/05 03:20:31  5-MIN KMSN 120920Z 03004KT 1 3/4SM -DZ BR OVC002 12/11 A3010 700 96 500 030/04 RMK AO2 P0000
14837KMSN MSN20051012032511110/12/05 03:25:31  5-MIN KMSN 120925Z 03003KT 1 3/4SM -DZ BR OVC002 12/11 A3010 700 96 500 030/03 RMK AO2 P0000
14837KMSN MSN20051012033011110/12/05 03:30:31  5-MIN KMSN 120930Z 03003KT 1 3/4SM -DZ BR OVC002 12/11 A3010 700 96 500 030/03 RMK AO2 P0000
14837KMSN MSN20051012033511110/12/05 03:35:31  5-MIN KMSN 120935Z 01003KT 1 3/4SM -DZ BR OVC002 12/11 A3010 700 96 500 010/03 RMK AO2 P0000
14837KMSN MSN20051012034011110/12/05 03:40:31  5-MIN KMSN 120940Z 00000KT 1 3/4SM -DZ BR OVC002 12/11 A3010 700 96 500 000/00 RMK AO2 P0000
14837KMSN MSN20051012034511110/12/05 03:45:31  5-MIN KMSN 120945Z 00000KT 1 3/4SM -DZ BR OVC002 12/11 A3010 700 96 500 000/00 RMK AO2 P0000
14837KMSN MSN20051012035012810/12/05 03:50:31  5-MIN KMSN 120950Z 03003KT 1 3/4SM -DZ BR OVC002 12/11 A3010 700 96 500 030/03 RMK AO2 SLP193 P0000 T01170111
14837KMSN MSN20051012035511110/12/05 03:55:31  5-MIN KMSN 120955Z 00000KT 1 3/4SM -DZ BR OVC002 12/11 A3010 700 96 500 000/00 RMK AO2 P0000
14837KMSN MSN20051012040011110/12/05 04:00:31  5-MIN KMSN 121000Z 00000KT 1 3/4SM -DZ BR OVC002 12/11 A3010 700 96 500 000/00 RMK AO2 P0000
14837KMSN MSN20051012040511110/12/05 04:05:31  5-MIN KMSN 121005Z 00000KT 1 3/4SM -DZ BR OVC002 12/11 A3010 700 96 500 000/00 RMK AO2 P0000
14837KMSN MSN20051012041011110/12/05 04:10:31  5-MIN KMSN 121010Z 00000KT 1 3/4SM -DZ BR OVC002 12/11 A3010 700 96 500 000/00 RMK AO2 P0000
14837KMSN MSN20051012041511110/12/05 04:15:31  5-MIN KMSN 121015Z 00000KT 1 3/4SM -DZ BR OVC002 12/11 A3010 700 96 500 000/00 RMK AO2 P0000
14837KMSN MSN20051012042011110/12/05 04:20:31  5-MIN KMSN 121020Z 00000KT 1 3/4SM -DZ BR OVC002 12/11 A3010 700 96 500 000/00 RMK AO2 P0000
14837KMSN MSN20051012042511110/12/05 04:25:31  5-MIN KMSN 121025Z 00000KT 1 3/4SM -DZ BR OVC002 12/11 A3010 700 96 500 000/00 RMK AO2 P0000
14837KMSN MSN20051012043010910/12/05 04:30:31  5-MIN KMSN 121030Z 00000KT 2SM BR OVC002 12/11 A3010 700 96 500 000/00 RMK AO2 DZE26 P0000
14837KMSN MSN20051012043511310/12/05 04:35:31  5-MIN KMSN 121035Z 00000KT 1 3/4SM BR OVC002 12/11 A3010 700 96 500 000/00 RMK AO2 DZE26 P0000
14837KMSN MSN20051012044011310/12/05 04:40:31  5-MIN KMSN 121040Z 00000KT 1 3/4SM BR OVC002 12/11 A3010 700 96 500 000/00 RMK AO2 DZE26 P0000
14837KMSN MSN20051012044511310/12/05 04:45:31  5-MIN KMSN 121045Z 00000KT 1 3/4SM BR OVC002 12/11 A3010 700 96 500 000/00 RMK AO2 DZE26 P0000
14837KMSN MSN20051012045010910/12/05 04:50:31  5-MIN KMSN 121050Z 00000KT 2SM BR OVC002 12/11 A3010 700 96 500 000/00 RMK AO2 DZE26 P0000
14837KMSN MSN20051012045509710/12/05 04:55:31  5-MIN KMSN 121055Z 00000KT 2SM BR OVC002 12/11 A3010 700 96 500 000/00 RMK AO2
14837KMSN MSN20051012050010110/12/05 05:00:31  5-MIN KMSN 121100Z 04004KT 2 1/2SM BR OVC002 12/11 A3009 700 96 500 040/04 RMK AO2
14837KMSN MSN20051012050509710/12/05 05:05:31  5-MIN KMSN 121105Z 05003KT 2SM BR OVC002 12/11 A3009 700 96 500 050/03 RMK AO2
14837KMSN MSN20051012051009710/12/05 05:10:31  5-MIN KMSN 121110Z 04003KT 2SM BR OVC002 12/11 A3010 700 96 500 040/03 RMK AO2
14837KMSN MSN20051012051510110/12/05 05:15:31  5-MIN KMSN 121115Z 00000KT 1 3/4SM BR OVC002 12/11 A3010 700 96 500 000/00 RMK AO2
14837KMSN MSN20051012052010210/12/05 05:20:31  5-MIN KMSN 121120Z 00000KT 1 3/4SM BR OVC002 12/12 A3010 700 100 500 000/00 RMK AO2
14837KMSN MSN20051012052511210/12/05 05:25:31  5-MIN KMSN 121125Z 00000KT 1 3/4SM BR OVC002 12/12 A3010 700 100 500 000/00 RMK AO2 SFC VIS 2
14837KMSN MSN20051012053010210/12/05 05:30:31  5-MIN KMSN 121130Z 00000KT 1 3/4SM BR OVC002 12/12 A3010 690 100 500 000/00 RMK AO2
14837KMSN MSN20051012053510210/12/05 05:35:31  5-MIN KMSN 121135Z 00000KT 1 3/4SM BR OVC002 12/12 A3010 700 100 500 000/00 RMK AO2
14837KMSN MSN20051012054010110/12/05 05:40:31  5-MIN KMSN 121140Z 08003KT 1 3/4SM BR OVC002 12/12 A3010 700 96 600 080/03 RMK AO2
14837KMSN MSN20051012054511510/12/05 05:45:31  5-MIN KMSN 121145Z 00000KT 1 1/2SM BR OVC002 12/12 A3010 700 96 600 000/00 RMK AO2 TWR VIS 1 3/4
14837KMSN MSN20051012055014810/12/05 05:50:31  5-MIN KMSN 121150Z 00000KT 1 1/2SM BR OVC002 12/12 A3011 690 96 600 000/00 RMK AO2 SLP195 60001 70001 T01220117 10122 20117 56013
14837KMSN MSN20051012055510110/12/05 05:55:31  5-MIN KMSN 121155Z 00000KT 1 1/2SM BR OVC002 12/12 A3010 700 96 600 000/00 RMK AO2
14837KMSN MSN20051012060010210/12/05 06:00:31  5-MIN KMSN 121200Z 00000KT 1 1/2SM BR OVC002 12/12 A3010 700 100 500 000/00 RMK AO2
14837KMSN MSN20051012060510210/12/05 06:05:31  5-MIN KMSN 121205Z 00000KT 1 1/2SM BR OVC002 12/12 A3010 700 100 500 000/00 RMK AO2
14837KMSN MSN20051012061010210/12/05 06:10:31  5-MIN KMSN 121210Z 00000KT 1 1/2SM BR OVC002 12/12 A3009 700 100 500 000/00 RMK AO2
14837KMSN MSN20051012061511510/12/05 06:15:31  5-MIN KMSN 121215Z 00000KT 1 1/4SM BR OVC002 12/12 A3010 700 96 600 000/00 RMK AO2 TWR VIS 1 1/2
14837KMSN MSN20051012062011510/12/05 06:20:31  5-MIN KMSN 121220Z 00000KT 1 1/4SM BR OVC002 12/12 A3010 700 96 600 000/00 RMK AO2 TWR VIS 1 1/2
14837KMSN MSN20051012062511110/12/05 06:25:31  5-MIN KMSN 121225Z 00000KT 1SM BR OVC002 12/12 A3011 690 96 600 000/00 RMK AO2 SFC VIS 1 1/4
14837KMSN MSN20051012063011110/12/05 06:30:31  5-MIN KMSN 121230Z 00000KT 1SM BR OVC002 12/12 A3010 690 96 600 000/00 RMK AO2 SFC VIS 1 1/4
14837KMSN MSN20051012063511110/12/05 06:35:31  5-MIN KMSN 121235Z 00000KT 1SM BR OVC002 12/12 A3011 690 96 600 000/00 RMK AO2 SFC VIS 1 1/4
14837KMSN MSN20051012064011110/12/05 06:40:31  5-MIN KMSN 121240Z 00000KT 1SM BR OVC002 12/12 A3011 690 96 600 000/00 RMK AO2 SFC VIS 1 1/4
14837KMSN MSN20051012064511110/12/05 06:45:31  5-MIN KMSN 121245Z 00000KT 1SM BR OVC002 12/12 A3010 700 96 600 000/00 RMK AO2 SFC VIS 1 1/4
14837KMSN MSN20051012065012810/12/05 06:50:31  5-MIN KMSN 121250Z 00000KT 1SM BR OVC002 12/12 A3010 700 96 600 000/00 RMK AO2 SFC VIS 1 1/4 SLP195 T01220117
14837KMSN MSN20051012065509710/12/05 06:55:31  5-MIN KMSN 121255Z 32003KT 1SM BR OVC002 12/12 A3010 700 96 600 320/03 RMK AO2
14837KMSN MSN20051012070009710/12/05 07:00:31  5-MIN KMSN 121300Z 00000KT 1SM BR OVC002 12/12 A3010 690 96 600 000/00 RMK AO2
14837KMSN MSN20051012070509910/12/05 07:05:31  5-MIN KMSN 121305Z 32003KT 3/4SM BR OVC002 12/12 A3010 700 96 600 320/03 RMK AO2
14837KMSN MSN20051012071011510/12/05 07:10:31  5-MIN KMSN 121310Z 00000KT 1/2SM -DZ FG OVC002 12/12 A3010 700 96 600 000/00 RMK AO2 DZB08 P0000
14837KMSN MSN20051012071511510/12/05 07:15:31  5-MIN KMSN 121315Z 00000KT 1/2SM -DZ FG OVC002 12/12 A3010 700 96 600 000/00 RMK AO2 DZB08 P0000
14837KMSN MSN20051012072011410/12/05 07:20:31  5-MIN KMSN 121320Z VRB03KT 1/2SM FG OVC002 12/12 A3010 700 96 600 VRB/03 RMK AO2 DZB08E18 P0000
14837KMSN MSN20051012072511410/12/05 07:25:31  5-MIN KMSN 121325Z 29003KT 1/2SM FG OVC002 12/12 A3011 690 96 600 290/03 RMK AO2 DZB08E18 P0000
14837KMSN MSN20051012073011410/12/05 07:30:31  5-MIN KMSN 121330Z 29003KT 1/2SM FG OVC002 12/12 A3011 690 96 600 290/03 RMK AO2 DZB08E18 P0000
14837KMSN MSN20051012073512610/12/05 07:35:31  5-MIN KMSN 121335Z 00000KT 1/2SM BR OVC002 12/12 A3011 690 96 600 000/00 RMK AO2 SFC VIS 3/4 DZB08E18 P0000
14837KMSN MSN20051012074012610/12/05 07:40:31  5-MIN KMSN 121340Z 27003KT 1/2SM BR OVC002 12/12 A3011 690 96 600 270/03 RMK AO2 SFC VIS 3/4 DZB08E18 P0000
14837KMSN MSN20051012074512410/12/05 07:45:31  5-MIN KMSN 121345Z 00000KT 1/2SM BR OVC002 12/12 A3012 680 96 600 000/00 RMK AO2 SFC VIS 1 DZB08E18 P0000
14837KMSN MSN20051012075011710/12/05 07:50:31  5-MIN KMSN 121350Z 00000KT 1 1/4SM BR OVC002 12/12 A3011 690 100 600 000/00 RMK AO2 DZB08E18 P0000
14837KMSN MSN20051012075511210/12/05 07:55:31  5-MIN KMSN 121355Z 00000KT 1SM BR OVC002 12/12 A3011 690 100 600 000/00 RMK AO2 SFC VIS 1 1/4
14837KMSN MSN20051012080011210/12/05 08:00:31  5-MIN KMSN 121400Z 00000KT 1SM BR OVC002 12/12 A3011 690 100 600 000/00 RMK AO2 SFC VIS 1 1/2
14837KMSN MSN20051012080511210/12/05 08:05:31  5-MIN KMSN 121405Z 00000KT 1SM BR OVC002 12/12 A3011 690 100 600 000/00 RMK AO2 SFC VIS 1 1/2
14837KMSN MSN20051012081011210/12/05 08:10:31  5-MIN KMSN 121410Z 00000KT 1SM BR OVC002 12/12 A3012 680 100 600 000/00 RMK AO2 SFC VIS 1 3/4
14837KMSN MSN20051012081511210/12/05 08:15:31  5-MIN KMSN 121415Z 00000KT 1SM BR OVC002 12/12 A3011 690 100 600 000/00 RMK AO2 SFC VIS 1 3/4
14837KMSN MSN20051012082011110/12/05 08:20:31  5-MIN KMSN 121420Z 00000KT 1SM BR OVC002 13/12 A3011 690 96 600 000/00 RMK AO2 SFC VIS 1 3/4
14837KMSN MSN20051012082510710/12/05 08:25:31  5-MIN KMSN 121425Z 00000KT 1SM BR OVC002 13/12 A3011 690 96 600 000/00 RMK AO2 SFC VIS 2
14837KMSN MSN20051012083011110/12/05 08:30:31  5-MIN KMSN 121430Z 00000KT 1SM BR OVC002 13/12 A3011 690 96 600 000/00 RMK AO2 SFC VIS 1 3/4
14837KMSN MSN20051012083511110/12/05 08:35:31  5-MIN KMSN 121435Z 00000KT 1SM BR OVC002 13/12 A3011 690 96 600 000/00 RMK AO2 SFC VIS 1 1/2
14837KMSN MSN20051012084011110/12/05 08:40:31  5-MIN KMSN 121440Z 00000KT 1SM BR OVC002 13/12 A3011 690 96 600 000/00 RMK AO2 SFC VIS 1 1/2
14837KMSN MSN20051012084511110/12/05 08:45:31  5-MIN KMSN 121445Z 00000KT 1SM BR OVC002 13/12 A3012 680 96 600 000/00 RMK AO2 SFC VIS 1 1/2
14837KMSN MSN20051012085014010/12/05 08:50:31  5-MIN KMSN 121450Z 00000KT 1SM BR OVC002 13/12 A3012 680 96 600 000/00 RMK AO2 SFC VIS 1 1/2 SLP201 60000 T01280122 55001
14837KMSN MSN20051012085511110/12/05 08:55:31  5-MIN KMSN 121455Z 00000KT 1SM BR OVC002 13/12 A3012 680 96 600 000/00 RMK AO2 SFC VIS 1 1/2
14837KMSN MSN20051012090011110/12/05 09:00:31  5-MIN KMSN 121500Z 00000KT 1SM BR OVC002 13/12 A3012 680 96 600 000/00 RMK AO2 SFC VIS 1 3/4
14837KMSN MSN20051012090510710/12/05 09:05:31  5-MIN KMSN 121505Z 00000KT 1SM BR OVC002 13/12 A3012 680 96 600 000/00 RMK AO2 SFC VIS 2
14837KMSN MSN20051012091010710/12/05 09:10:31  5-MIN KMSN 121510Z 00000KT 1SM BR OVC002 13/12 A3012 680 96 600 000/00 RMK AO2 SFC VIS 2
14837KMSN MSN20051012091510710/12/05 09:15:31  5-MIN KMSN 121515Z 00000KT 1SM BR OVC002 13/12 A3012 680 96 600 000/00 RMK AO2 SFC VIS 2
14837KMSN MSN20051012092010710/12/05 09:20:31  5-MIN KMSN 121520Z 00000KT 1SM BR OVC002 13/12 A3012 680 96 600 000/00 RMK AO2 SFC VIS 2
14837KMSN MSN20051012092511110/12/05 09:25:31  5-MIN KMSN 121525Z 00000KT 1 1/2SM BR OVC002 13/12 A3012 680 96 600 000/00 RMK AO2 SFC VIS 2
14837KMSN MSN20051012093011110/12/05 09:30:31  5-MIN KMSN 121530Z 31003KT 1 1/2SM BR OVC002 13/12 A3011 680 93 700 310/03 RMK AO2 SFC VIS 2
14837KMSN MSN20051012093511110/12/05 09:35:31  5-MIN KMSN 121535Z 00000KT 1 1/2SM BR OVC002 13/12 A3011 690 93 700 000/00 RMK AO2 SFC VIS 2
14837KMSN MSN20051012094012310/12/05 09:40:31  5-MIN KMSN 121540Z 00000KT 1 1/2SM BR OVC004 13/12 A3011 690 93 700 000/00 RMK AO2 SFC VIS 2 CIG 002V006
14837KMSN MSN20051012094512310/12/05 09:45:31  5-MIN KMSN 121545Z 00000KT 1 1/2SM BR OVC004 14/13 A3011 690 93 800 000/00 RMK AO2 SFC VIS 2 CIG 002V006
14837KMSN MSN20051012095011910/12/05 09:50:31  5-MIN KMSN 121550Z 05003KT 2SM BR OVC004 14/13 A3011 690 93 800 050/03 RMK AO2 TWR VIS 3 CIG 002V006
14837KMSN MSN20051012095511110/12/05 09:55:31  5-MIN KMSN 121555Z 00000KT 2 1/2SM BR OVC005 14/13 A3011 690 93 800 000/00 RMK AO2 TWR VIS 3
14837KMSN MSN20051012100011110/12/05 10:00:31  5-MIN KMSN 121600Z 02003KT 2 1/2SM BR OVC005 14/13 A3011 690 93 800 020/03 RMK AO2 TWR VIS 3
14837KMSN MSN20051012100509710/12/05 10:05:31  5-MIN KMSN 121605Z 00000KT 3SM BR OVC005 14/13 A3011 690 90 800 000/00 RMK AO2
14837KMSN MSN20051012101011610/12/05 10:10:31  5-MIN KMSN 121610Z 00000KT 3SM BR BKN005 OVC013 14/13 A3011 690 90 800 000/00 RMK AO2 CIG 005V010
14837KMSN MSN20051012101511610/12/05 10:15:31  5-MIN KMSN 121615Z 00000KT 3SM BR BKN005 OVC013 14/13 A3011 690 90 800 000/00 RMK AO2 CIG 005V011
14837KMSN MSN20051012102011610/12/05 10:20:31  5-MIN KMSN 121620Z 00000KT 3SM BR BKN007 OVC012 14/13 A3011 690 90 800 000/00 RMK AO2 CIG 005V009
14837KMSN MSN20051012102511610/12/05 10:25:31  5-MIN KMSN 121625Z 00000KT 3SM BR BKN007 OVC014 14/13 A3010 690 90 800 000/00 RMK AO2 CIG 005V009
14837KMSN MSN20051012103010410/12/05 10:30:31  5-MIN KMSN 121630Z 00000KT 3SM BR SCT007 OVC014 15/13 A3010 700 86 900 000/00 RMK AO2
14837KMSN MSN20051012103510410/12/05 10:35:31  5-MIN KMSN 121635Z 00000KT 3SM HZ BKN007 OVC014 15/12 A3010 700 83 900 000/00 RMK AO2
14837KMSN MSN20051012104010410/12/05 10:40:31  5-MIN KMSN 121640Z 00000KT 3SM BR BKN007 OVC014 14/12 A3010 700 86 800 000/00 RMK AO2
14837KMSN MSN20051012104511410/12/05 10:45:31  5-MIN KMSN 121645Z 00000KT 3SM BR BKN007 OVC016 14/12 A3010 700 86 800 000/00 RMK AO2 SFC VIS 4
14837KMSN MSN20051012105013110/12/05 10:50:31  5-MIN KMSN 121650Z 00000KT 3SM HZ BKN007 OVC016 15/12 A3010 700 80 900 000/00 RMK AO2 SFC VIS 5 SLP195 T01500117
14837KMSN MSN20051012105509710/12/05 10:55:31  5-MIN KMSN 121655Z 00000KT 5SM HZ OVC016 15/12 A3010 700 83 900 000/00 RMK AO2
14837KMSN MSN20051012110009710/12/05 11:00:31  5-MIN KMSN 121700Z 00000KT 5SM HZ OVC016 15/12 A3010 700 83 900 000/00 RMK AO2
14837KMSN MSN20051012110509710/12/05 11:05:31  5-MIN KMSN 121705Z 00000KT 5SM HZ OVC016 15/12 A3010 700 80 900 000/00 RMK AO2
14837KMSN MSN20051012111009710/12/05 11:10:31  5-MIN KMSN 121710Z 00000KT 5SM HZ OVC016 15/12 A3010 700 83 900 000/00 RMK AO2
14837KMSN MSN20051012111509710/12/05 11:15:31  5-MIN KMSN 121715Z 00000KT 5SM HZ OVC016 15/12 A3010 700 83 900 000/00 RMK AO2
14837KMSN MSN20051012112009710/12/05 11:20:31  5-MIN KMSN 121720Z 00000KT 5SM HZ OVC016 15/12 A3010 700 83 900 000/00 RMK AO2
14837KMSN MSN20051012112509810/12/05 11:25:31  5-MIN KMSN 121725Z 00000KT 5SM HZ OVC016 16/12 A3009 700 80 1000 000/00 RMK AO2
14837KMSN MSN20051012113009710/12/05 11:30:31  5-MIN KMSN 121730Z 00000KT 5SM HZ OVC016 15/12 A3009 700 83 900 000/00 RMK AO2
14837KMSN MSN20051012113509710/12/05 11:35:31  5-MIN KMSN 121735Z 00000KT 5SM HZ OVC016 15/12 A3009 710 83 900 000/00 RMK AO2
14837KMSN MSN20051012114010410/12/05 11:40:31  5-MIN KMSN 121740Z 00000KT 6SM HZ BKN016 OVC022 15/12 A3009 710 83 900 000/00 RMK AO2
14837KMSN MSN20051012114510410/12/05 11:45:31  5-MIN KMSN 121745Z 00000KT 6SM HZ SCT014 OVC020 15/12 A3009 710 83 900 000/00 RMK AO2
14837KMSN MSN20051012115013910/12/05 11:50:31  5-MIN KMSN 121750Z 00000KT 6SM HZ OVC020 16/12 A3009 710 80 1000 000/00 RMK AO2 SLP190 60000 T01560122 10156 20117 53004
14837KMSN MSN20051012115509810/12/05 11:55:31  5-MIN KMSN 121755Z 00000KT 6SM HZ OVC020 16/12 A3009 710 80 1000 000/00 RMK AO2
14837KMSN MSN20051012120009810/12/05 12:00:31  5-MIN KMSN 121800Z 00000KT 6SM HZ OVC024 16/12 A3009 710 80 1000 000/00 RMK AO2
14837KMSN MSN20051012120509810/12/05 12:05:31  5-MIN KMSN 121805Z 00000KT 6SM HZ OVC024 16/12 A3008 710 80 1000 000/00 RMK AO2
14837KMSN MSN20051012121009510/12/05 12:10:31  5-MIN KMSN 121810Z 00000KT 7SM OVC024 16/12 A3008 710 77 1100 000/00 RMK AO2
14837KMSN MSN20051012121510210/12/05 12:15:31  5-MIN KMSN 121815Z 00000KT 7SM FEW018 OVC024 16/12 A3008 710 77 1100 000/00 RMK AO2
14837KMSN MSN20051012122010210/12/05 12:20:31  5-MIN KMSN 121820Z 00000KT 7SM SCT016 OVC024 16/12 A3008 720 77 1100 000/00 RMK AO2
14837KMSN MSN20051012122510210/12/05 12:25:31  5-MIN KMSN 121825Z 31004KT 7SM BKN016 OVC024 16/12 A3008 720 77 1100 310/04 RMK AO2
14837KMSN MSN20051012123010910/12/05 12:30:31  5-MIN KMSN 121830Z 00000KT 8SM SCT016 BKN024 OVC029 16/12 A3008 720 77 1100 000/00 RMK AO2
14837KMSN MSN20051012123510910/12/05 12:35:31  5-MIN KMSN 121835Z 00000KT 8SM SCT016 BKN024 OVC029 17/13 A3008 720 77 1100 000/00 RMK AO2
14837KMSN MSN20051012124010210/12/05 12:40:31  5-MIN KMSN 121840Z 00000KT 8SM SCT016 OVC027 16/12 A3008 720 77 1100 000/00 RMK AO2
14837KMSN MSN20051012124510210/12/05 12:45:31  5-MIN KMSN 121845Z VRB03KT 8SM SCT016 OVC027 16/12 A3008 720 75 1100 VRB/03 RMK AO2
14837KMSN MSN20051012125011910/12/05 12:50:31  5-MIN KMSN 121850Z 26004KT 8SM FEW016 OVC029 16/12 A3007 720 75 1100 260/04 RMK AO2 SLP185 T01610117
14837KMSN MSN20051012125509510/12/05 12:55:31  5-MIN KMSN 121855Z VRB03KT 8SM OVC029 16/12 A3007 730 75 1100 VRB/03 RMK AO2
14837KMSN MSN20051012130010210/12/05 13:00:31  5-MIN KMSN 121900Z 24003KT 9SM FEW023 OVC029 16/12 A3007 730 75 1100 240/03 RMK AO2
14837KMSN MSN20051012130509510/12/05 13:05:31  5-MIN KMSN 121905Z 23004KT 9SM OVC027 16/12 A3007 720 75 1100 230/04 RMK AO2
14837KMSN MSN20051012131010210/12/05 13:10:31  5-MIN KMSN 121910Z 22004KT 9SM FEW022 OVC027 16/12 A3007 720 75 1100 220/04 RMK AO2
14837KMSN MSN20051012131510210/12/05 13:15:31  5-MIN KMSN 121915Z 24004KT 9SM SCT022 OVC029 16/11 A3007 720 74 1000 240/04 RMK AO2
14837KMSN MSN20051012132010210/12/05 13:20:31  5-MIN KMSN 121920Z VRB03KT 9SM BKN022 OVC027 16/12 A3007 730 75 1100 VRB/03 RMK AO2
14837KMSN MSN20051012132510210/12/05 13:25:31  5-MIN KMSN 121925Z VRB03KT 9SM BKN024 OVC029 16/12 A3007 730 75 1100 VRB/03 RMK AO2
14837KMSN MSN20051012133010310/12/05 13:30:31  5-MIN KMSN 121930Z 21004KT 10SM BKN024 OVC031 16/12 A3007 730 75 1100 210/04 RMK AO2
14837KMSN MSN20051012133510310/12/05 13:35:31  5-MIN KMSN 121935Z 00000KT 10SM BKN024 OVC031 16/12 A3007 730 75 1100 000/00 RMK AO2
14837KMSN MSN20051012134010210/12/05 13:40:31  5-MIN KMSN 121940Z VRB03KT 9SM BKN024 OVC031 16/12 A3007 730 75 1100 VRB/03 RMK AO2
14837KMSN MSN20051012134510210/12/05 13:45:31  5-MIN KMSN 121945Z 31004KT 9SM BKN024 OVC033 17/12 A3006 730 72 1100 310/04 RMK AO2
14837KMSN MSN20051012135011910/12/05 13:50:31  5-MIN KMSN 121950Z 29003KT 8SM BKN024 OVC033 17/12 A3006 740 75 1100 290/03 RMK AO2 SLP180 T01670122
14837KMSN MSN20051012135510210/12/05 13:55:31  5-MIN KMSN 121955Z VRB05KT 7SM BKN022 OVC033 17/12 A3006 740 72 1200 VRB/05 RMK AO2
14837KMSN MSN20051012140009510/12/05 14:00:31  5-MIN KMSN 122000Z 00000KT 7SM OVC021 17/12 A3006 740 75 1100 000/00 RMK AO2
14837KMSN MSN20051012140509510/12/05 14:05:31  5-MIN KMSN 122005Z 34004KT 7SM BKN021 17/12 A3006 740 72 1200 340/04 RMK AO2
14837KMSN MSN20051012141009510/12/05 14:10:31  5-MIN KMSN 122010Z 34003KT 7SM BKN021 17/12 A3006 740 72 1100 340/03 RMK AO2
14837KMSN MSN20051012141509510/12/05 14:15:31  5-MIN KMSN 122015Z 00000KT 7SM BKN021 17/12 A3006 740 72 1100 000/00 RMK AO2
14837KMSN MSN20051012142009510/12/05 14:20:31  5-MIN KMSN 122020Z 00000KT 7SM BKN021 17/12 A3006 740 72 1100 000/00 RMK AO2
14837KMSN MSN20051012142509510/12/05 14:25:31  5-MIN KMSN 122025Z 00000KT 7SM BKN021 17/12 A3006 740 72 1100 000/00 RMK AO2
14837KMSN MSN20051012143009510/12/05 14:30:31  5-MIN KMSN 122030Z VRB03KT 7SM BKN021 17/12 A3006 740 72 1100 VRB/03 RMK AO2
14837KMSN MSN20051012143509510/12/05 14:35:31  5-MIN KMSN 122035Z 00000KT 7SM BKN021 17/12 A3006 740 72 1100 000/00 RMK AO2
14837KMSN MSN20051012144009510/12/05 14:40:31  5-MIN KMSN 122040Z 34004KT 7SM BKN021 17/12 A3006 730 72 1100 340/04 RMK AO2
14837KMSN MSN20051012144509510/12/05 14:45:31  5-MIN KMSN 122045Z 32003KT 7SM BKN021 17/12 A3006 730 72 1100 320/03 RMK AO2
14837KMSN MSN20051012145012510/12/05 14:50:31  5-MIN KMSN 122050Z 30003KT 7SM BKN025 OVC029 17/12 A3006 730 72 1100 300/03 RMK AO2 SLP181 T01670117 58010
14837KMSN MSN20051012145510210/12/05 14:55:31  5-MIN KMSN 122055Z 23003KT 7SM BKN023 OVC029 17/12 A3006 730 72 1100 230/03 RMK AO2
14837KMSN MSN20051012150010210/12/05 15:00:31  5-MIN KMSN 122100Z VRB05KT 8SM BKN023 OVC029 17/12 A3006 730 72 1100 VRB/05 RMK AO2
14837KMSN MSN20051012150510210/12/05 15:05:31  5-MIN KMSN 122105Z 00000KT 8SM BKN023 BKN029 17/11 A3006 740 69 1100 000/00 RMK AO2
14837KMSN MSN20051012151010210/12/05 15:10:31  5-MIN KMSN 122110Z VRB04KT 9SM BKN023 BKN029 17/11 A3006 740 69 1100 VRB/04 RMK AO2
14837KMSN MSN20051012151510210/12/05 15:15:31  5-MIN KMSN 122115Z VRB03KT 9SM BKN023 BKN029 17/11 A3006 740 69 1100 VRB/03 RMK AO2
14837KMSN MSN20051012152010210/12/05 15:20:31  5-MIN KMSN 122120Z VRB03KT 9SM BKN023 BKN029 17/11 A3006 740 69 1100 VRB/03 RMK AO2
14837KMSN MSN20051012152510210/12/05 15:25:31  5-MIN KMSN 122125Z VRB03KT 9SM BKN023 BKN029 17/11 A3006 740 69 1100 VRB/03 RMK AO2
14837KMSN MSN20051012153010210/12/05 15:30:31  5-MIN KMSN 122130Z 00000KT 9SM BKN023 BKN029 17/11 A3006 740 69 1100 000/00 RMK AO2
14837KMSN MSN20051012153510210/12/05 15:35:31  5-MIN KMSN 122135Z VRB03KT 9SM BKN023 BKN029 17/11 A3006 730 69 1100 VRB/03 RMK AO2
14837KMSN MSN20051012154010210/12/05 15:40:31  5-MIN KMSN 122140Z 23004KT 9SM SCT025 BKN029 17/11 A3006 730 69 1100 230/04 RMK AO2
14837KMSN MSN20051012154510210/12/05 15:45:31  5-MIN KMSN 122145Z 00000KT 9SM FEW025 BKN034 17/11 A3006 730 69 1100 000/00 RMK AO2
14837KMSN MSN20051012155011910/12/05 15:50:31  5-MIN KMSN 122150Z 00000KT 9SM FEW025 BKN034 17/11 A3006 740 67 1200 000/00 RMK AO2 SLP180 T01720111
14837KMSN MSN20051012155510210/12/05 15:55:31  5-MIN KMSN 122155Z VRB03KT 9SM FEW025 BKN034 17/11 A3006 740 67 1200 VRB/03 RMK AO2
14837KMSN MSN20051012160010210/12/05 16:00:31  5-MIN KMSN 122200Z 00000KT 9SM FEW025 BKN034 17/11 A3006 730 67 1200 000/00 RMK AO2
14837KMSN MSN20051012160510210/12/05 16:05:31  5-MIN KMSN 122205Z 30004KT 8SM FEW025 BKN034 17/11 A3006 730 67 1200 290/04 RMK AO2
14837KMSN MSN20051012161010210/12/05 16:10:31  5-MIN KMSN 122210Z 29003KT 8SM FEW025 BKN034 17/11 A3006 730 69 1100 290/03 RMK AO2
14837KMSN MSN20051012161509510/12/05 16:15:31  5-MIN KMSN 122215Z 31003KT 8SM BKN034 17/11 A3006 730 69 1100 310/03 RMK AO2
14837KMSN MSN20051012162009510/12/05 16:20:31  5-MIN KMSN 122220Z 31004KT 8SM BKN034 17/11 A3006 730 69 1100 300/04 RMK AO2
14837KMSN MSN20051012162509510/12/05 16:25:31  5-MIN KMSN 122225Z 32004KT 7SM BKN034 17/12 A3007 730 72 1100 320/04 RMK AO2
14837KMSN MSN20051012163009510/12/05 16:30:31  5-MIN KMSN 122230Z 32003KT 7SM BKN034 16/12 A3007 730 75 1100 310/03 RMK AO2
14837KMSN MSN20051012163509510/12/05 16:35:31  5-MIN KMSN 122235Z 32003KT 7SM BKN034 16/12 A3007 730 75 1100 320/03 RMK AO2
14837KMSN MSN20051012164009810/12/05 16:40:31  5-MIN KMSN 122240Z 31003KT 6SM HZ OVC034 16/12 A3007 730 75 1100 310/03 RMK AO2
14837KMSN MSN20051012164509810/12/05 16:45:31  5-MIN KMSN 122245Z 32003KT 6SM HZ BKN034 16/12 A3007 730 75 1100 320/03 RMK AO2
14837KMSN MSN20051012165011510/12/05 16:50:31  5-MIN KMSN 122250Z 31003KT 6SM HZ BKN034 16/12 A3007 730 75 1100 310/03 RMK AO2 SLP182 T01610117
14837KMSN MSN20051012165509810/12/05 16:55:31  5-MIN KMSN 122255Z 32003KT 6SM HZ BKN034 16/12 A3007 730 75 1100 320/03 RMK AO2
14837KMSN MSN20051012170009810/12/05 17:00:31  5-MIN KMSN 122300Z 33003KT 6SM HZ BKN034 16/12 A3007 730 75 1100 330/03 RMK AO2
14837KMSN MSN20051012170509810/12/05 17:05:31  5-MIN KMSN 122305Z 00000KT 6SM HZ BKN034 16/12 A3007 730 75 1100 000/00 RMK AO2
14837KMSN MSN20051012171009810/12/05 17:10:31  5-MIN KMSN 122310Z 00000KT 6SM HZ BKN034 16/12 A3007 730 77 1000 000/00 RMK AO2
14837KMSN MSN20051012171509710/12/05 17:15:31  5-MIN KMSN 122315Z 00000KT 6SM HZ BKN034 15/12 A3007 730 80 900 000/00 RMK AO2
14837KMSN MSN20051012172009710/12/05 17:20:31  5-MIN KMSN 122320Z 32003KT 6SM HZ BKN034 14/12 A3007 730 83 900 320/03 RMK AO2
14837KMSN MSN20051012172509710/12/05 17:25:31  5-MIN KMSN 122325Z 00000KT 6SM HZ BKN034 15/12 A3007 730 80 900 000/00 RMK AO2
14837KMSN MSN20051012173009710/12/05 17:30:31  5-MIN KMSN 122330Z 00000KT 6SM HZ SCT034 14/12 A3007 720 83 900 000/00 RMK AO2
14837KMSN MSN20051012173509410/12/05 17:35:31  5-MIN KMSN 122335Z 00000KT 7SM FEW034 14/12 A3007 720 83 900 000/00 RMK AO2
14837KMSN MSN20051012174009410/12/05 17:40:31  5-MIN KMSN 122340Z 00000KT 7SM FEW034 14/11 A3007 720 83 800 000/00 RMK AO2
14837KMSN MSN20051012174509410/12/05 17:45:31  5-MIN KMSN 122345Z 00000KT 7SM FEW034 13/11 A3007 720 86 700 000/00 RMK AO2
14837KMSN MSN20051012175012910/12/05 17:50:31  5-MIN KMSN 122350Z 00000KT 7SM FEW034 13/11 A3007 720 86 700 000/00 RMK AO2 SLP186 T01330111 10172 20133 55008
14837KMSN MSN20051012175509410/12/05 17:55:31  5-MIN KMSN 122355Z 00000KT 7SM FEW034 13/11 A3007 720 86 700 000/00 RMK AO2
14837KMSN MSN20051012180009410/12/05 18:00:31  5-MIN KMSN 130000Z 00000KT 7SM FEW034 13/11 A3007 720 89 700 000/00 RMK AO2
14837KMSN MSN20051012180509710/12/05 18:05:31  5-MIN KMSN 130005Z 00000KT 6SM BR FEW034 13/11 A3007 720 89 700 000/00 RMK AO2
14837KMSN MSN20051012181009710/12/05 18:10:31  5-MIN KMSN 130010Z 00000KT 6SM BR FEW034 12/11 A3008 720 93 600 000/00 RMK AO2
14837KMSN MSN20051012181509710/12/05 18:15:31  5-MIN KMSN 130015Z 00000KT 6SM BR FEW034 13/11 A3008 720 89 700 000/00 RMK AO2
14837KMSN MSN20051012182009410/12/05 18:20:31  5-MIN KMSN 130020Z 00000KT 6SM BR CLR 12/11 A3008 720 93 600 000/00 RMK AO2
14837KMSN MSN20051012182509410/12/05 18:25:31  5-MIN KMSN 130025Z 00000KT 6SM BR CLR 12/11 A3008 720 93 500 000/00 RMK AO2
14837KMSN MSN20051012183009410/12/05 18:30:31  5-MIN KMSN 130030Z 00000KT 5SM BR CLR 12/11 A3008 720 93 500 000/00 RMK AO2
14837KMSN MSN20051012183509410/12/05 18:35:31  5-MIN KMSN 130035Z 00000KT 5SM BR CLR 12/11 A3008 720 93 500 000/00 RMK AO2
14837KMSN MSN20051012184009410/12/05 18:40:31  5-MIN KMSN 130040Z 00000KT 5SM BR CLR 11/11 A3008 720 96 500 000/00 RMK AO2
14837KMSN MSN20051012184509410/12/05 18:45:31  5-MIN KMSN 130045Z 00000KT 5SM BR CLR 11/10 A3008 720 93 500 000/00 RMK AO2
14837KMSN MSN20051012185011110/12/05 18:50:31  5-MIN KMSN 130050Z 00000KT 5SM BR CLR 11/10 A3008 720 96 400 000/00 RMK AO2 SLP187 T01060100
14837KMSN MSN20051012185509410/12/05 18:55:31  5-MIN KMSN 130055Z 00000KT 5SM BR CLR 11/10 A3008 720 93 500 000/00 RMK AO2
14837KMSN MSN20051012190009410/12/05 19:00:31  5-MIN KMSN 130100Z 00000KT 5SM BR CLR 11/10 A3008 720 93 500 000/00 RMK AO2
14837KMSN MSN20051012190509410/12/05 19:05:31  5-MIN KMSN 130105Z 00000KT 4SM BR CLR 11/10 A3008 720 96 400 000/00 RMK AO2
14837KMSN MSN20051012191009410/12/05 19:10:31  5-MIN KMSN 130110Z 00000KT 4SM BR CLR 11/10 A3008 720 93 500 000/00 RMK AO2
14837KMSN MSN20051012191509410/12/05 19:15:31  5-MIN KMSN 130115Z 00000KT 4SM BR CLR 11/10 A3008 710 93 500 000/00 RMK AO2
14837KMSN MSN20051012192009410/12/05 19:20:31  5-MIN KMSN 130120Z 00000KT 4SM BR CLR 11/10 A3008 710 93 500 000/00 RMK AO2
14837KMSN MSN20051012192509510/12/05 19:25:31  5-MIN KMSN 130125Z 00000KT 4SM BR CLR 11/11 A3008 720 100 400 000/00 RMK AO2
14837KMSN MSN20051012193009410/12/05 19:30:31  5-MIN KMSN 130130Z 00000KT 4SM BR CLR 11/10 A3008 710 96 400 000/00 RMK AO2
14837KMSN MSN20051012193509410/12/05 19:35:31  5-MIN KMSN 130135Z 00000KT 4SM BR CLR 11/10 A3008 710 96 400 000/00 RMK AO2
14837KMSN MSN20051012194009410/12/05 19:40:31  5-MIN KMSN 130140Z 00000KT 4SM BR CLR 11/09 A3008 710 93 400 000/00 RMK AO2
14837KMSN MSN20051012194509410/12/05 19:45:31  5-MIN KMSN 130145Z 00000KT 4SM BR CLR 11/09 A3008 710 93 400 000/00 RMK AO2
14837KMSN MSN20051012195011110/12/05 19:50:31  5-MIN KMSN 130150Z 00000KT 4SM BR CLR 11/10 A3008 710 96 400 000/00 RMK AO2 SLP189 T01060100
14837KMSN MSN20051012195509810/12/05 19:55:31  5-MIN KMSN 130155Z 00000KT 2 1/2SM BR CLR 10/09 A3009 710 96 300 000/00 RMK AO2
14837KMSN MSN20051012200009710/12/05 20:00:31  5-MIN KMSN 130200Z 00000KT 4SM BR FEW055 10/09 A3009 710 96 300 000/00 RMK AO2
14837KMSN MSN20051012200509710/12/05 20:05:31  5-MIN KMSN 130205Z 00000KT 4SM BR SCT055 11/10 A3009 710 96 400 000/00 RMK AO2
14837KMSN MSN20051012201009810/12/05 20:10:31  5-MIN KMSN 130210Z 00000KT 4SM BR BKN055 10/10 A3009 710 100 300 000/00 RMK AO2
14837KMSN MSN20051012201509710/12/05 20:15:31  5-MIN KMSN 130215Z 00000KT 4SM BR BKN055 10/09 A3008 710 96 300 000/00 RMK AO2
14837KMSN MSN20051012202009710/12/05 20:20:31  5-MIN KMSN 130220Z 00000KT 4SM BR BKN055 10/09 A3008 710 96 300 000/00 RMK AO2
14837KMSN MSN20051012202509710/12/05 20:25:31  5-MIN KMSN 130225Z 00000KT 4SM BR BKN055 10/09 A3008 720 93 300 000/00 RMK AO2
14837KMSN MSN20051012203009710/12/05 20:30:31  5-MIN KMSN 130230Z 00000KT 4SM BR BKN055 10/09 A3008 720 96 300 000/00 RMK AO2
14837KMSN MSN20051012203509710/12/05 20:35:31  5-MIN KMSN 130235Z 00000KT 4SM BR BKN055 11/10 A3008 720 96 400 000/00 RMK AO2
14837KMSN MSN20051012204009710/12/05 20:40:31  5-MIN KMSN 130240Z 00000KT 4SM BR BKN055 10/09 A3008 720 96 300 000/00 RMK AO2
14837KMSN MSN20051012204509710/12/05 20:45:31  5-MIN KMSN 130245Z 00000KT 4SM BR BKN055 10/09 A3008 720 96 300 000/00 RMK AO2
14837KMSN MSN20051012205012010/12/05 20:50:31  5-MIN KMSN 130250Z 00000KT 4SM BR BKN055 10/09 A3008 720 96 300 000/00 RMK AO2 SLP188 T01000094 53004
14837KMSN MSN20051012205509710/12/05 20:55:31  5-MIN KMSN 130255Z 00000KT 4SM BR BKN055 11/09 A3008 720 93 400 000/00 RMK AO2
14837KMSN MSN20051012210009810/12/05 21:00:31  5-MIN KMSN 130300Z 00000KT 4SM BR BKN050 10/10 A3008 720 100 300 000/00 RMK AO2
14837KMSN MSN20051012210509710/12/05 21:05:31  5-MIN KMSN 130305Z 00000KT 4SM BR BKN050 10/09 A3008 720 96 300 000/00 RMK AO2
14837KMSN MSN20051012211009710/12/05 21:10:31  5-MIN KMSN 130310Z 00000KT 4SM BR BKN050 10/09 A3008 720 96 300 000/00 RMK AO2
14837KMSN MSN20051012211509710/12/05 21:15:31  5-MIN KMSN 130315Z 00000KT 4SM BR OVC050 10/09 A3008 720 96 300 000/00 RMK AO2
14837KMSN MSN20051012212009710/12/05 21:20:31  5-MIN KMSN 130320Z 00000KT 4SM BR BKN050 10/09 A3008 720 96 300 000/00 RMK AO2
14837KMSN MSN20051012212509710/12/05 21:25:31  5-MIN KMSN 130325Z 00000KT 4SM BR BKN050 10/09 A3008 720 96 300 000/00 RMK AO2
14837KMSN MSN20051012213009710/12/05 21:30:31  5-MIN KMSN 130330Z 00000KT 4SM BR BKN050 10/09 A3008 720 93 300 000/00 RMK AO2
14837KMSN MSN20051012213509710/12/05 21:35:31  5-MIN KMSN 130335Z 00000KT 4SM BR SCT050 10/09 A3008 720 96 300 000/00 RMK AO2
14837KMSN MSN20051012214009710/12/05 21:40:31  5-MIN KMSN 130340Z 00000KT 4SM BR FEW050 10/09 A3008 720 96 300 000/00 RMK AO2
14837KMSN MSN20051012214509710/12/05 21:45:31  5-MIN KMSN 130345Z 00000KT 4SM BR FEW050 09/09 A3008 720 96 300 000/00 RMK AO2
14837KMSN MSN20051012215011410/12/05 21:50:31  5-MIN KMSN 130350Z 00000KT 4SM BR FEW050 09/09 A3008 720 96 300 000/00 RMK AO2 SLP186 T00940089
14837KMSN MSN20051012215509810/12/05 21:55:31  5-MIN KMSN 130355Z 00000KT 4SM BR FEW050 09/09 A3007 720 100 300 000/00 RMK AO2
14837KMSN MSN20051012220009710/12/05 22:00:31  5-MIN KMSN 130400Z 00000KT 4SM BR FEW050 09/09 A3007 720 96 300 000/00 RMK AO2
14837KMSN MSN20051012220509710/12/05 22:05:31  5-MIN KMSN 130405Z 00000KT 4SM BR FEW050 09/09 A3007 720 96 300 000/00 RMK AO2
14837KMSN MSN20051012221009710/12/05 22:10:31  5-MIN KMSN 130410Z 00000KT 4SM BR FEW050 09/09 A3007 720 96 300 000/00 RMK AO2
14837KMSN MSN20051012221509410/12/05 22:15:31  5-MIN KMSN 130415Z 00000KT 4SM BR CLR 09/09 A3007 720 96 300 000/00 RMK AO2
14837KMSN MSN20051012222009510/12/05 22:20:31  5-MIN KMSN 130420Z 00000KT 4SM BR CLR 09/09 A3007 720 100 200 000/00 RMK AO2
14837KMSN MSN20051012222509510/12/05 22:25:31  5-MIN KMSN 130425Z 00000KT 4SM BR CLR 09/09 A3007 720 100 200 000/00 RMK AO2
14837KMSN MSN20051012223009410/12/05 22:30:31  5-MIN KMSN 130430Z 00000KT 4SM BR CLR 09/08 A3007 720 96 200 000/00 RMK AO2
14837KMSN MSN20051012223509510/12/05 22:35:31  5-MIN KMSN 130435Z 00000KT 4SM BR CLR 09/09 A3007 720 100 200 000/00 RMK AO2
14837KMSN MSN20051012224009810/12/05 22:40:31  5-MIN KMSN 130440Z 00000KT 4SM BR FEW080 09/09 A3007 720 100 200 000/00 RMK AO2
14837KMSN MSN20051012224509810/12/05 22:45:31  5-MIN KMSN 130445Z 00000KT 4SM BR FEW080 09/09 A3007 730 100 200 000/00 RMK AO2
14837KMSN MSN20051012225011410/12/05 22:50:31  5-MIN KMSN 130450Z 00000KT 4SM BR FEW080 09/08 A3007 730 96 200 000/00 RMK AO2 SLP184 T00890083
14837KMSN MSN20051012225509710/12/05 22:55:31  5-MIN KMSN 130455Z 00000KT 4SM BR SCT060 08/08 A3007 730 96 100 000/00 RMK AO2
14837KMSN MSN20051012230009710/12/05 23:00:31  5-MIN KMSN 130500Z 00000KT 4SM BR BKN060 09/08 A3007 730 96 200 000/00 RMK AO2
14837KMSN MSN20051012230509710/12/05 23:05:31  5-MIN KMSN 130505Z 00000KT 4SM BR BKN060 09/08 A3007 730 96 200 000/00 RMK AO2
14837KMSN MSN20051012231009710/12/05 23:10:31  5-MIN KMSN 130510Z 00000KT 4SM BR BKN060 09/09 A3007 730 96 300 000/00 RMK AO2
14837KMSN MSN20051012231509710/12/05 23:15:31  5-MIN KMSN 130515Z 00000KT 4SM BR OVC060 10/09 A3007 730 96 300 000/00 RMK AO2
14837KMSN MSN20051012232009710/12/05 23:20:31  5-MIN KMSN 130520Z 00000KT 4SM BR OVC060 10/09 A3007 730 96 300 000/00 RMK AO2
14837KMSN MSN20051012232509710/12/05 23:25:31  5-MIN KMSN 130525Z 00000KT 3SM BR OVC060 10/09 A3007 730 96 300 000/00 RMK AO2
14837KMSN MSN20051012233009710/12/05 23:30:31  5-MIN KMSN 130530Z 00000KT 3SM BR OVC060 10/09 A3007 730 96 300 000/00 RMK AO2
14837KMSN MSN20051012233509710/12/05 23:35:31  5-MIN KMSN 130535Z 31003KT 4SM BR OVC060 10/09 A3007 730 96 300 310/03 RMK AO2
14837KMSN MSN20051012234009710/12/05 23:40:31  5-MIN KMSN 130540Z 00000KT 4SM BR OVC060 10/09 A3006 730 96 300 000/00 RMK AO2
14837KMSN MSN20051012234509710/12/05 23:45:31  5-MIN KMSN 130545Z 00000KT 5SM BR OVC060 10/09 A3007 730 96 300 000/00 RMK AO2
14837KMSN MSN20051012235014210/12/05 23:50:31  5-MIN KMSN 130550Z 00000KT 5SM BR OVC060 10/09 A3007 730 96 300 000/00 RMK AO2 SLP184 T01000094 10133 20083 401720083 50003
14837KMSN MSN20051012235509710/12/05 23:55:31  5-MIN KMSN 130555Z 00000KT 5SM BR OVC060 10/09 A3007 730 96 300 000/00 RMK AO2
14837KMSN MSN20051013000009710/13/05 00:00:38  5-MIN KMSN 130600Z 00000KT 4SM BR OVC060 10/09 A3007 730 96 300 000/00 RMK AO2
14837KMSN MSN20051013000509710/13/05 00:05:31  5-MIN KMSN 130605Z 00000KT 3SM BR OVC060 10/09 A3007 730 96 300 000/00 RMK AO2
14837KMSN MSN20051013001009810/13/05 00:10:31  5-MIN KMSN 130610Z 00000KT 3SM BR OVC060 10/10 A3007 730 100 300 000/00 RMK AO2
14837KMSN MSN20051013001509710/13/05 00:15:33  5-MIN KMSN 130615Z 00000KT 3SM BR OVC060 11/10 A3007 730 96 400 000/00 RMK AO2
14837KMSN MSN20051013002009810/13/05 00:20:31  5-MIN KMSN 130620Z 00000KT 3SM BR OVC060 10/10 A3006 730 100 300 000/00 RMK AO2
14837KMSN MSN20051013002509710/13/05 00:25:31  5-MIN KMSN 130625Z 00000KT 3SM BR OVC060 10/09 A3006 730 96 300 000/00 RMK AO2
14837KMSN MSN20051013003009710/13/05 00:30:31  5-MIN KMSN 130630Z 00000KT 3SM BR OVC060 11/09 A3006 730 93 400 000/00 RMK AO2
14837KMSN MSN20051013003509710/13/05 00:35:31  5-MIN KMSN 130635Z 00000KT 3SM BR OVC060 11/10 A3006 730 96 400 000/00 RMK AO2
14837KMSN MSN20051013004009710/13/05 00:40:31  5-MIN KMSN 130640Z 00000KT 3SM BR OVC060 11/10 A3006 740 96 400 000/00 RMK AO2
14837KMSN MSN20051013004509710/13/05 00:45:31  5-MIN KMSN 130645Z 00000KT 4SM BR OVC065 11/10 A3006 740 96 400 000/00 RMK AO2
14837KMSN MSN20051013005011410/13/05 00:50:31  5-MIN KMSN 130650Z 00000KT 4SM BR OVC065 11/10 A3006 730 96 400 000/00 RMK AO2 SLP180 T01060100
14837KMSN MSN20051013005509710/13/05 00:55:31  5-MIN KMSN 130655Z 00000KT 4SM BR OVC065 11/10 A3006 730 96 400 000/00 RMK AO2
14837KMSN MSN20051013010009710/13/05 01:00:31  5-MIN KMSN 130700Z 00000KT 4SM BR OVC065 11/10 A3006 730 96 400 000/00 RMK AO2
14837KMSN MSN20051013010509710/13/05 01:05:31  5-MIN KMSN 130705Z 00000KT 4SM BR OVC065 11/10 A3006 730 96 400 000/00 RMK AO2
14837KMSN MSN20051013011009710/13/05 01:10:31  5-MIN KMSN 130710Z 00000KT 4SM BR OVC065 11/10 A3006 740 93 500 000/00 RMK AO2
14837KMSN MSN20051013011509710/13/05 01:15:31  5-MIN KMSN 130715Z 00000KT 4SM BR OVC060 11/10 A3006 730 96 400 000/00 RMK AO2
14837KMSN MSN20051013012009710/13/05 01:20:31  5-MIN KMSN 130720Z 00000KT 3SM BR OVC060 11/10 A3006 740 96 400 000/00 RMK AO2
14837KMSN MSN20051013012509710/13/05 01:25:31  5-MIN KMSN 130725Z 00000KT 3SM BR OVC060 11/10 A3006 740 96 400 000/00 RMK AO2
14837KMSN MSN20051013013009710/13/05 01:30:31  5-MIN KMSN 130730Z 00000KT 3SM BR OVC060 11/10 A3006 740 93 500 000/00 RMK AO2
14837KMSN MSN20051013013509710/13/05 01:35:31  5-MIN KMSN 130735Z 00000KT 4SM BR OVC060 11/11 A3006 740 96 500 000/00 RMK AO2
14837KMSN MSN20051013014009710/13/05 01:40:31  5-MIN KMSN 130740Z 00000KT 4SM BR OVC060 11/11 A3006 740 96 500 000/00 RMK AO2
14837KMSN MSN20051013014509710/13/05 01:45:31  5-MIN KMSN 130745Z 00000KT 3SM BR OVC060 11/10 A3006 740 93 500 000/00 RMK AO2
14837KMSN MSN20051013015011410/13/05 01:50:31  5-MIN KMSN 130750Z 00000KT 4SM BR OVC060 11/10 A3006 740 93 500 000/00 RMK AO2 SLP178 T01110100
14837KMSN MSN20051013015509710/13/05 01:55:31  5-MIN KMSN 130755Z 00000KT 3SM BR OVC060 11/10 A3005 740 93 500 000/00 RMK AO2
14837KMSN MSN20051013020009710/13/05 02:00:31  5-MIN KMSN 130800Z 00000KT 3SM BR OVC060 11/10 A3005 740 93 500 000/00 RMK AO2
14837KMSN MSN20051013020509710/13/05 02:05:31  5-MIN KMSN 130805Z 00000KT 3SM BR OVC060 11/10 A3005 740 96 400 000/00 RMK AO2
14837KMSN MSN20051013021009710/13/05 02:10:31  5-MIN KMSN 130810Z 00000KT 3SM BR OVC060 11/10 A3006 740 96 400 000/00 RMK AO2
14837KMSN MSN20051013021510410/13/05 02:15:31  5-MIN KMSN 130815Z 00000KT 3SM BR BKN060 BKN120 11/10 A3005 740 96 400 000/00 RMK AO2
14837KMSN MSN20051013022009710/13/05 02:20:31  5-MIN KMSN 130820Z 00000KT 4SM BR BKN060 11/10 A3006 740 96 400 000/00 RMK AO2
14837KMSN MSN20051013022510410/13/05 02:25:31  5-MIN KMSN 130825Z 00000KT 4SM BR BKN065 BKN120 11/10 A3005 740 96 400 000/00 RMK AO2
14837KMSN MSN20051013023010410/13/05 02:30:31  5-MIN KMSN 130830Z 00000KT 4SM BR SCT065 BKN120 11/10 A3005 740 96 400 000/00 RMK AO2
14837KMSN MSN20051013023510410/13/05 02:35:31  5-MIN KMSN 130835Z 00000KT 4SM BR SCT065 BKN120 11/10 A3005 740 96 400 000/00 RMK AO2
14837KMSN MSN20051013024010510/13/05 02:40:31  5-MIN KMSN 130840Z 00000KT 4SM BR FEW065 BKN120 10/10 A3005 740 100 400 000/00 RMK AO2
14837KMSN MSN20051013024510410/13/05 02:45:31  5-MIN KMSN 130845Z 00000KT 4SM BR FEW065 BKN120 11/10 A3005 740 96 400 000/00 RMK AO2
14837KMSN MSN20051013025012710/13/05 02:50:31  5-MIN KMSN 130850Z 00000KT 4SM BR FEW065 BKN120 11/10 A3005 740 96 400 000/00 RMK AO2 SLP177 T01060100 56004
14837KMSN MSN20051013025510410/13/05 02:55:31  5-MIN KMSN 130855Z 00000KT 4SM BR FEW065 BKN120 11/10 A3005 740 96 400 000/00 RMK AO2
14837KMSN MSN20051013105511510/13/05 10:55:31  5-MIN KMSN 131655Z 17005KT 3SM HZ FEW018 BKN026 16/13 A3006 740 80 1100 160/05 RMK AO2 SFC VIS 4
14837KMSN MSN20051013110011510/13/05 11:00:31  5-MIN KMSN 131700Z 18005KT 3SM HZ SCT018 BKN026 17/13 A3005 740 80 1100 180/05 RMK AO2 SFC VIS 4
14837KMSN MSN20051013110511510/13/05 11:05:31  5-MIN KMSN 131705Z 18007KT 3SM HZ FEW018 OVC026 17/13 A3005 740 77 1200 180/07 RMK AO2 SFC VIS 4
14837KMSN MSN20051013111011510/13/05 11:10:31  5-MIN KMSN 131710Z 18007KT 3SM HZ FEW020 OVC026 17/13 A3005 740 77 1200 170/07 RMK AO2 SFC VIS 4
14837KMSN MSN20051013111510810/13/05 11:15:31  5-MIN KMSN 131715Z 19008KT 3SM HZ OVC026 17/13 A3005 740 77 1200 190/08 RMK AO2 SFC VIS 4
14837KMSN MSN20051013112011510/13/05 11:20:31  5-MIN KMSN 131720Z 18008KT 3SM HZ BKN020 OVC026 17/13 A3005 740 77 1200 180/08 RMK AO2 SFC VIS 4
14837KMSN MSN20051013112511510/13/05 11:25:31  5-MIN KMSN 131725Z 19006KT 3SM HZ BKN020 OVC026 17/13 A3005 750 77 1200 180/06 RMK AO2 SFC VIS 4
14837KMSN MSN20051013113011510/13/05 11:30:31  5-MIN KMSN 131730Z 17008KT 3SM HZ BKN022 OVC026 17/13 A3005 750 77 1200 170/08 RMK AO2 SFC VIS 4
14837KMSN MSN20051013113511510/13/05 11:35:31  5-MIN KMSN 131735Z 18007KT 3SM HZ BKN022 OVC026 17/13 A3004 750 77 1200 180/07 RMK AO2 SFC VIS 4
14837KMSN MSN20051013114011510/13/05 11:40:31  5-MIN KMSN 131740Z 19007KT 3SM HZ BKN022 OVC026 17/13 A3004 750 77 1200 190/07 RMK AO2 SFC VIS 4
14837KMSN MSN20051013114511510/13/05 11:45:31  5-MIN KMSN 131745Z 18008KT 3SM HZ BKN020 OVC026 17/13 A3004 750 75 1200 180/08 RMK AO2 SFC VIS 4
14837KMSN MSN20051013115016310/13/05 11:50:31  5-MIN KMSN 131750Z 19006KT 3SM HZ SCT020 BKN026 BKN032 17/13 A3004 760 75 1200 180/06 RMK AO2 SFC VIS 4 SLP173 60011 T01720128 10172 20122 51002
14837KMSN MSN20051013115512210/13/05 11:55:31  5-MIN KMSN 131755Z 22006KT 3SM HZ SCT020 BKN026 OVC032 17/13 A3004 760 75 1200 220/06 RMK AO2 SFC VIS 4
14837KMSN MSN20051013120011510/13/05 12:00:31  5-MIN KMSN 131800Z 22005KT 3SM HZ BKN020 OVC026 17/13 A3004 760 77 1200 220/05 RMK AO2 SFC VIS 4
14837KMSN MSN20051013120511510/13/05 12:05:31  5-MIN KMSN 131805Z 22006KT 3SM HZ BKN020 OVC026 17/13 A3003 760 77 1200 210/06 RMK AO2 SFC VIS 4
14837KMSN MSN20051013121011510/13/05 12:10:31  5-MIN KMSN 131810Z 20007KT 3SM HZ BKN020 OVC026 17/13 A3003 760 77 1200 200/07 RMK AO2 SFC VIS 4
14837KMSN MSN20051013121510810/13/05 12:15:31  5-MIN KMSN 131815Z 21005KT 3SM HZ BKN020 18/13 A3003 760 75 1300 210/05 RMK AO2 SFC VIS 4
14837KMSN MSN20051013122010810/13/05 12:20:31  5-MIN KMSN 131820Z 24005KT 3SM HZ OVC020 17/13 A3003 760 78 1200 230/05 RMK AO2 SFC VIS 4
14837KMSN MSN20051013122510510/13/05 12:25:31  5-MIN KMSN 131825Z 23005KT 4SM HZ BKN020 OVC027 17/13 A3003 760 78 1200 230/05 RMK AO2
14837KMSN MSN20051013123010510/13/05 12:30:31  5-MIN KMSN 131830Z 23004KT 4SM HZ BKN020 OVC027 17/13 A3003 760 75 1200 230/04 RMK AO2
14837KMSN MSN20051013123511210/13/05 12:35:31  5-MIN KMSN 131835Z 22006KT 4SM HZ BKN020 BKN027 OVC055 17/13 A3003 770 75 1200 220/06 RMK AO2
14837KMSN MSN20051013124011210/13/05 12:40:31  5-MIN KMSN 131840Z 20007KT 4SM HZ SCT020 BKN027 OVC060 17/13 A3003 760 78 1200 200/07 RMK AO2
14837KMSN MSN20051013124511210/13/05 12:45:31  5-MIN KMSN 131845Z 22008KT 4SM HZ FEW020 BKN030 BKN060 18/13 A3003 770 72 1300 210/08 RMK AO2
14837KMSN MSN20051013125012910/13/05 12:50:31  5-MIN KMSN 131850Z 23005KT 4SM HZ FEW020 BKN030 BKN060 18/13 A3003 770 72 1300 230/05 RMK AO2 SLP169 T01780128
14837KMSN MSN20051013125511210/13/05 12:55:31  5-MIN KMSN 131855Z VRB04KT 4SM HZ FEW026 SCT032 BKN060 18/14 A3003 770 75 1400 VRB/04 RMK AO2
14837KMSN MSN20051013130012810/13/05 13:00:31  5-MIN KMSN 131900Z 22007KT 190V260 4SM HZ FEW024 SCT032 SCT060 18/13 A3003 770 72 1400 220/07 190V260 RMK AO2
14837KMSN MSN20051013130510510/13/05 13:05:31  5-MIN KMSN 131905Z VRB06KT 4SM HZ FEW024 BKN060 17/12 A3002 770 72 1200 VRB/06 RMK AO2
14837KMSN MSN20051013131010510/13/05 13:10:31  5-MIN KMSN 131910Z 20005KT 4SM HZ FEW024 BKN060 17/13 A3002 770 75 1300 200/05 RMK AO2
14837KMSN MSN20051013131511210/13/05 13:15:31  5-MIN KMSN 131915Z 00000KT 4SM HZ FEW024 SCT033 BKN041 18/13 A3002 780 75 1300 000/00 RMK AO2
14837KMSN MSN20051013132010510/13/05 13:20:31  5-MIN KMSN 131920Z VRB06KT 4SM HZ FEW024 SCT033 18/13 A3002 780 72 1400 VRB/06 RMK AO2
14837KMSN MSN20051013132510510/13/05 13:25:31  5-MIN KMSN 131925Z 25003KT 4SM HZ FEW024 SCT035 17/13 A3002 770 75 1300 250/03 RMK AO2
14837KMSN MSN20051013133011210/13/05 13:30:31  5-MIN KMSN 131930Z 23005KT 4SM HZ FEW024 SCT035 SCT045 17/13 A3002 770 75 1300 230/05 RMK AO2
14837KMSN MSN20051013133511210/13/05 13:35:31  5-MIN KMSN 131935Z 26006KT 4SM HZ FEW024 SCT033 BKN047 17/13 A3002 770 75 1300 260/06 RMK AO2
14837KMSN MSN20051013134011210/13/05 13:40:31  5-MIN KMSN 131940Z VRB06KT 4SM HZ FEW030 SCT037 SCT047 18/13 A3002 770 75 1300 VRB/06 RMK AO2
14837KMSN MSN20051013134510510/13/05 13:45:31  5-MIN KMSN 131945Z 23007KT 4SM HZ FEW030 SCT047 18/13 A3002 770 72 1300 230/07 RMK AO2
14837KMSN MSN20051013135012210/13/05 13:50:31  5-MIN KMSN 131950Z 23005KT 4SM HZ FEW039 SCT047 17/13 A3002 770 75 1300 230/05 RMK AO2 SLP167 T01720128
14837KMSN MSN20051013135511210/13/05 13:55:31  5-MIN KMSN 131955Z VRB04KT 4SM HZ FEW028 SCT039 BKN049 18/13 A3002 770 72 1300 VRB/04 RMK AO2
14837KMSN MSN20051013140011210/13/05 14:00:31  5-MIN KMSN 132000Z VRB03KT 4SM HZ FEW030 SCT042 BKN049 17/13 A3002 770 75 1300 VRB/03 RMK AO2
14837KMSN MSN20051013140511210/13/05 14:05:31  5-MIN KMSN 132005Z VRB05KT 4SM HZ FEW030 SCT037 BKN049 17/13 A3002 770 75 1300 VRB/05 RMK AO2
14837KMSN MSN20051013141011210/13/05 14:10:31  5-MIN KMSN 132010Z VRB03KT 4SM HZ SCT030 BKN037 BKN050 17/13 A3002 770 75 1300 VRB/03 RMK AO2
14837KMSN MSN20051013141511210/13/05 14:15:31  5-MIN KMSN 132015Z VRB04KT 4SM HZ FEW023 BKN030 OVC048 18/13 A3002 770 72 1300 VRB/04 RMK AO2
14837KMSN MSN20051013142011210/13/05 14:20:31  5-MIN KMSN 132020Z VRB05KT 4SM HZ FEW023 BKN037 OVC050 18/13 A3002 770 72 1300 VRB/05 RMK AO2
14837KMSN MSN20051013142511210/13/05 14:25:31  5-MIN KMSN 132025Z VRB06KT 5SM HZ FEW023 BKN030 OVC038 18/12 A3002 770 69 1300 VRB/06 RMK AO2
14837KMSN MSN20051013143012810/13/05 14:30:31  5-MIN KMSN 132030Z 23008KT 200V260 5SM HZ FEW023 BKN030 BKN038 18/12 A3003 770 67 1400 220/08 200V260 RMK AO2
14837KMSN MSN20051013143511210/13/05 14:35:31  5-MIN KMSN 132035Z VRB05KT 5SM HZ FEW023 BKN030 BKN038 18/12 A3002 770 69 1300 VRB/05 RMK AO2
14837KMSN MSN20051013144011210/13/05 14:40:31  5-MIN KMSN 132040Z 23008KT 5SM HZ FEW023 SCT030 SCT038 18/12 A3003 770 69 1300 230/08 RMK AO2
14837KMSN MSN20051013144510510/13/05 14:45:31  5-MIN KMSN 132045Z 23007KT 5SM HZ FEW029 SCT038 17/12 A3003 770 69 1200 230/07 RMK AO2
14837KMSN MSN20051013145012110/13/05 14:50:31  5-MIN KMSN 132050Z 24006KT 5SM HZ SCT033 17/12 A3003 770 69 1200 240/06 RMK AO2 SLP168 T01720117 58009
14837KMSN MSN20051013145510510/13/05 14:55:31  5-MIN KMSN 132055Z 23006KT 4SM HZ SCT033 SCT043 17/12 A3003 770 69 1200 230/06 RMK AO2
14837KMSN MSN20051013150010510/13/05 15:00:31  5-MIN KMSN 132100Z VRB06KT 5SM HZ FEW033 BKN043 17/12 A3003 760 69 1200 VRB/06 RMK AO2
14837KMSN MSN20051013150510510/13/05 15:05:31  5-MIN KMSN 132105Z VRB05KT 5SM HZ FEW033 BKN043 17/12 A3003 760 69 1200 VRB/05 RMK AO2
14837KMSN MSN20051013151010510/13/05 15:10:31  5-MIN KMSN 132110Z 25006KT 5SM HZ FEW033 BKN043 17/12 A3003 760 69 1200 250/06 RMK AO2
14837KMSN MSN20051013151512110/13/05 15:15:31  5-MIN KMSN 132115Z 24008KT 220V290 5SM HZ FEW033 BKN043 17/12 A3003 770 69 1200 240/08 220V290 RMK AO2
14837KMSN MSN20051013152010510/13/05 15:20:31  5-MIN KMSN 132120Z VRB05KT 5SM HZ FEW033 SCT043 17/12 A3003 770 72 1200 VRB/05 RMK AO2
14837KMSN MSN20051013152510510/13/05 15:25:31  5-MIN KMSN 132125Z VRB06KT 5SM HZ FEW033 SCT043 17/12 A3003 770 72 1200 VRB/06 RMK AO2
14837KMSN MSN20051013153009810/13/05 15:30:31  5-MIN KMSN 132130Z VRB06KT 4SM HZ FEW041 17/12 A3002 770 72 1200 VRB/06 RMK AO2
14837KMSN MSN20051013153509810/13/05 15:35:31  5-MIN KMSN 132135Z VRB03KT 5SM HZ FEW041 17/12 A3002 770 75 1200 VRB/03 RMK AO2
14837KMSN MSN20051013154009810/13/05 15:40:31  5-MIN KMSN 132140Z VRB06KT 5SM HZ FEW041 17/12 A3002 770 75 1200 VRB/06 RMK AO2
14837KMSN MSN20051013154509810/13/05 15:45:31  5-MIN KMSN 132145Z VRB05KT 5SM HZ FEW041 17/12 A3003 770 72 1200 VRB/05 RMK AO2
14837KMSN MSN20051013155011510/13/05 15:50:31  5-MIN KMSN 132150Z 22006KT 5SM HZ FEW041 17/12 A3003 770 72 1200 220/06 RMK AO2 SLP169 T01670117
14837KMSN MSN20051013155509810/13/05 15:55:31  5-MIN KMSN 132155Z 22006KT 5SM HZ FEW038 17/12 A3003 770 72 1200 220/06 RMK AO2
14837KMSN MSN20051013160009810/13/05 16:00:31  5-MIN KMSN 132200Z 22004KT 5SM HZ FEW038 17/12 A3003 770 72 1200 220/04 RMK AO2
14837KMSN MSN20051013160509810/13/05 16:05:31  5-MIN KMSN 132205Z 23004KT 5SM HZ FEW038 17/12 A3003 760 72 1200 220/04 RMK AO2
14837KMSN MSN20051013161009810/13/05 16:10:31  5-MIN KMSN 132210Z 23004KT 5SM HZ FEW038 17/12 A3003 760 72 1200 230/04 RMK AO2
14837KMSN MSN20051013161509810/13/05 16:15:31  5-MIN KMSN 132215Z 25004KT 5SM HZ FEW038 17/12 A3003 760 72 1200 240/04 RMK AO2
14837KMSN MSN20051013162009810/13/05 16:20:31  5-MIN KMSN 132220Z VRB04KT 5SM HZ FEW038 17/12 A3003 760 72 1200 VRB/04 RMK AO2
14837KMSN MSN20051013162509810/13/05 16:25:31  5-MIN KMSN 132225Z 22004KT 5SM HZ FEW038 16/12 A3003 760 75 1100 220/04 RMK AO2
14837KMSN MSN20051013163009810/13/05 16:30:31  5-MIN KMSN 132230Z VRB04KT 5SM HZ FEW038 16/12 A3003 760 75 1100 VRB/04 RMK AO2
14837KMSN MSN20051013163509810/13/05 16:35:31  5-MIN KMSN 132235Z 22005KT 5SM HZ FEW038 17/12 A3003 760 72 1200 220/05 RMK AO2
14837KMSN MSN20051013164009810/13/05 16:40:31  5-MIN KMSN 132240Z 22005KT 5SM HZ FEW038 16/12 A3003 760 75 1100 220/05 RMK AO2
14837KMSN MSN20051013164509810/13/05 16:45:31  5-MIN KMSN 132245Z VRB05KT 5SM HZ FEW038 16/12 A3003 760 75 1100 VRB/05 RMK AO2
14837KMSN MSN20051013165011210/13/05 16:50:31  5-MIN KMSN 132250Z VRB04KT 5SM HZ CLR 16/12 A3003 760 75 1100 VRB/04 RMK AO2 SLP171 T01610117
14837KMSN MSN20051013165509510/13/05 16:55:31  5-MIN KMSN 132255Z VRB04KT 5SM HZ CLR 16/12 A3003 760 75 1100 VRB/04 RMK AO2
14837KMSN MSN20051013170009510/13/05 17:00:31  5-MIN KMSN 132300Z VRB04KT 5SM HZ CLR 16/12 A3004 760 77 1000 VRB/04 RMK AO2
14837KMSN MSN20051013170509510/13/05 17:05:31  5-MIN KMSN 132305Z 23003KT 5SM HZ CLR 16/12 A3004 760 77 1000 230/03 RMK AO2
14837KMSN MSN20051013171009510/13/05 17:10:31  5-MIN KMSN 132310Z 25003KT 5SM HZ CLR 16/12 A3004 760 77 1000 250/03 RMK AO2
14837KMSN MSN20051013171509510/13/05 17:15:31  5-MIN KMSN 132315Z VRB03KT 4SM HZ CLR 16/12 A3004 760 77 1000 VRB/03 RMK AO2
14837KMSN MSN20051013172009510/13/05 17:20:31  5-MIN KMSN 132320Z VRB03KT 4SM HZ CLR 15/12 A3004 760 80 1000 VRB/03 RMK AO2
14837KMSN MSN20051013172509510/13/05 17:25:31  5-MIN KMSN 132325Z 00000KT 4SM HZ CLR 16/12 A3004 760 77 1000 000/00 RMK AO2
14837KMSN MSN20051013173009510/13/05 17:30:31  5-MIN KMSN 132330Z 00000KT 4SM HZ CLR 15/12 A3004 760 80 1000 000/00 RMK AO2
14837KMSN MSN20051013173509510/13/05 17:35:31  5-MIN KMSN 132335Z 00000KT 4SM HZ CLR 15/12 A3004 760 80 1000 000/00 RMK AO2
14837KMSN MSN20051013174009510/13/05 17:40:31  5-MIN KMSN 132340Z 00000KT 4SM HZ CLR 15/12 A3004 750 80 1000 000/00 RMK AO2
14837KMSN MSN20051013174509510/13/05 17:45:31  5-MIN KMSN 132345Z 00000KT 4SM HZ CLR 15/12 A3004 750 80 1000 000/00 RMK AO2
14837KMSN MSN20051013175013010/13/05 17:50:31  5-MIN KMSN 132350Z 00000KT 5SM HZ CLR 15/12 A3004 750 80 1000 000/00 RMK AO2 SLP173 T01500117 10183 20150 55001
14837KMSN MSN20051013175509410/13/05 17:55:31  5-MIN KMSN 132355Z 23003KT 6SM HZ CLR 14/12 A3004 750 83 900 230/03 RMK AO2
14837KMSN MSN20051013180009410/13/05 18:00:31  5-MIN KMSN 140000Z 23003KT 6SM HZ CLR 14/12 A3004 750 83 900 220/03 RMK AO2
14837KMSN MSN20051013180509410/13/05 18:05:31  5-MIN KMSN 140005Z 00000KT 5SM BR CLR 13/12 A3004 750 89 800 000/00 RMK AO2
14837KMSN MSN20051013181009410/13/05 18:10:31  5-MIN KMSN 140010Z 00000KT 5SM BR CLR 13/12 A3004 750 93 700 000/00 RMK AO2
14837KMSN MSN20051013181509410/13/05 18:15:31  5-MIN KMSN 140015Z 00000KT 5SM BR CLR 13/11 A3004 750 86 800 000/00 RMK AO2
14837KMSN MSN20051013182009410/13/05 18:20:31  5-MIN KMSN 140020Z 00000KT 5SM BR CLR 13/12 A3004 750 89 800 000/00 RMK AO2
14837KMSN MSN20051013182509410/13/05 18:25:31  5-MIN KMSN 140025Z 00000KT 5SM BR CLR 13/12 A3004 750 93 700 000/00 RMK AO2
14837KMSN MSN20051013183009410/13/05 18:30:31  5-MIN KMSN 140030Z 00000KT 4SM BR CLR 12/11 A3004 750 93 600 000/00 RMK AO2
14837KMSN MSN20051013183509410/13/05 18:35:31  5-MIN KMSN 140035Z 00000KT 4SM BR CLR 12/11 A3004 750 93 600 000/00 RMK AO2
14837KMSN MSN20051013184009410/13/05 18:40:31  5-MIN KMSN 140040Z 00000KT 4SM BR CLR 12/11 A3004 750 96 600 000/00 RMK AO2
14837KMSN MSN20051013184509410/13/05 18:45:31  5-MIN KMSN 140045Z 00000KT 4SM BR CLR 13/11 A3004 750 89 700 000/00 RMK AO2
14837KMSN MSN20051013185011110/13/05 18:50:31  5-MIN KMSN 140050Z 22003KT 4SM BR CLR 13/11 A3004 750 89 700 220/03 RMK AO2 SLP175 T01280111
14837KMSN MSN20051013185509410/13/05 18:55:31  5-MIN KMSN 140055Z 23003KT 4SM BR CLR 13/11 A3004 750 89 700 230/03 RMK AO2
14837KMSN MSN20051013190009410/13/05 19:00:31  5-MIN KMSN 140100Z 00000KT 4SM BR CLR 12/11 A3004 750 93 600 000/00 RMK AO2
14837KMSN MSN20051013190509410/13/05 19:05:31  5-MIN KMSN 140105Z 22003KT 4SM BR CLR 12/11 A3004 750 93 600 220/03 RMK AO2
14837KMSN MSN20051013191009410/13/05 19:10:31  5-MIN KMSN 140110Z VRB03KT 4SM BR CLR 12/11 A3004 750 93 600 VRB/03 RMK AO2
14837KMSN MSN20051013191509410/13/05 19:15:31  5-MIN KMSN 140115Z 00000KT 4SM BR CLR 13/11 A3004 750 89 700 000/00 RMK AO2
14837KMSN MSN20051013192009410/13/05 19:20:31  5-MIN KMSN 140120Z 00000KT 4SM BR CLR 13/11 A3005 750 89 700 000/00 RMK AO2
14837KMSN MSN20051013192509410/13/05 19:25:31  5-MIN KMSN 140125Z 00000KT 4SM BR CLR 12/11 A3005 750 93 600 000/00 RMK AO2
14837KMSN MSN20051013193009410/13/05 19:30:31  5-MIN KMSN 140130Z 00000KT 4SM BR CLR 12/11 A3005 750 96 600 000/00 RMK AO2
14837KMSN MSN20051013193509410/13/05 19:35:31  5-MIN KMSN 140135Z 00000KT 4SM BR CLR 12/11 A3005 750 96 600 000/00 RMK AO2
14837KMSN MSN20051013194009410/13/05 19:40:31  5-MIN KMSN 140140Z 00000KT 4SM BR CLR 12/11 A3005 750 96 600 000/00 RMK AO2
14837KMSN MSN20051013194509410/13/05 19:45:31  5-MIN KMSN 140145Z 00000KT 4SM BR CLR 12/11 A3005 750 93 600 000/00 RMK AO2
14837KMSN MSN20051013195011110/13/05 19:50:31  5-MIN KMSN 140150Z 00000KT 4SM BR CLR 12/11 A3005 740 93 600 000/00 RMK AO2 SLP177 T01220111
14837KMSN MSN20051013195509410/13/05 19:55:31  5-MIN KMSN 140155Z 00000KT 4SM BR CLR 12/11 A3005 740 93 600 000/00 RMK AO2
14837KMSN MSN20051013200009410/13/05 20:00:31  5-MIN KMSN 140200Z 00000KT 4SM BR CLR 11/11 A3005 740 96 500 000/00 RMK AO2
14837KMSN MSN20051013200509410/13/05 20:05:31  5-MIN KMSN 140205Z 00000KT 4SM BR CLR 10/09 A3005 740 96 400 000/00 RMK AO2
14837KMSN MSN20051013201009410/13/05 20:10:31  5-MIN KMSN 140210Z 00000KT 4SM BR CLR 11/10 A3005 740 93 500 000/00 RMK AO2
14837KMSN MSN20051013201509410/13/05 20:15:31  5-MIN KMSN 140215Z 00000KT 4SM BR CLR 12/11 A3005 740 93 600 000/00 RMK AO2
14837KMSN MSN20051013202009410/13/05 20:20:31  5-MIN KMSN 140220Z 00000KT 4SM BR CLR 11/10 A3005 740 93 500 000/00 RMK AO2
14837KMSN MSN20051013202509410/13/05 20:25:31  5-MIN KMSN 140225Z 00000KT 4SM BR CLR 11/11 A3005 740 96 500 000/00 RMK AO2
14837KMSN MSN20051013203009410/13/05 20:30:31  5-MIN KMSN 140230Z 00000KT 4SM BR CLR 11/10 A3005 740 93 500 000/00 RMK AO2
14837KMSN MSN20051013203509410/13/05 20:35:31  5-MIN KMSN 140235Z 00000KT 4SM BR CLR 11/10 A3005 740 93 500 000/00 RMK AO2
14837KMSN MSN20051013204009410/13/05 20:40:31  5-MIN KMSN 140240Z 00000KT 4SM BR CLR 10/09 A3005 740 93 400 000/00 RMK AO2
14837KMSN MSN20051013204509410/13/05 20:45:31  5-MIN KMSN 140245Z 00000KT 4SM BR CLR 09/08 A3006 740 93 300 000/00 RMK AO2
14837KMSN MSN20051013205011710/13/05 20:50:31  5-MIN KMSN 140250Z 00000KT 4SM BR CLR 09/08 A3006 740 89 300 000/00 RMK AO2 SLP180 T00940078 53005
14837KMSN MSN20051013205509410/13/05 20:55:31  5-MIN KMSN 140255Z 00000KT 5SM BR CLR 09/08 A3006 740 93 300 000/00 RMK AO2
14837KMSN MSN20051013210009410/13/05 21:00:31  5-MIN KMSN 140300Z 00000KT 5SM BR CLR 10/08 A3006 740 89 400 000/00 RMK AO2
14837KMSN MSN20051013210509410/13/05 21:05:31  5-MIN KMSN 140305Z 00000KT 4SM BR CLR 10/09 A3006 740 93 400 000/00 RMK AO2
14837KMSN MSN20051013211009410/13/05 21:10:31  5-MIN KMSN 140310Z 00000KT 4SM BR CLR 09/09 A3006 740 96 300 000/00 RMK AO2
14837KMSN MSN20051013211509410/13/05 21:15:31  5-MIN KMSN 140315Z 00000KT 4SM BR CLR 10/09 A3006 740 96 400 000/00 RMK AO2
14837KMSN MSN20051013212009410/13/05 21:20:31  5-MIN KMSN 140320Z 00000KT 4SM BR CLR 10/09 A3006 730 96 300 000/00 RMK AO2
14837KMSN MSN20051013212509410/13/05 21:25:31  5-MIN KMSN 140325Z 00000KT 4SM BR CLR 09/09 A3006 730 96 300 000/00 RMK AO2
14837KMSN MSN20051013213009410/13/05 21:30:31  5-MIN KMSN 140330Z 00000KT 4SM BR CLR 09/09 A3006 730 96 300 000/00 RMK AO2
14837KMSN MSN20051013213509410/13/05 21:35:31  5-MIN KMSN 140335Z 00000KT 4SM BR CLR 09/08 A3006 730 96 200 000/00 RMK AO2
14837KMSN MSN20051013214009410/13/05 21:40:31  5-MIN KMSN 140340Z 00000KT 4SM BR CLR 09/08 A3006 730 96 200 000/00 RMK AO2
14837KMSN MSN20051013214509410/13/05 21:45:31  5-MIN KMSN 140345Z 00000KT 4SM BR CLR 09/08 A3006 730 93 200 000/00 RMK AO2
14837KMSN MSN20051013215011110/13/05 21:50:31  5-MIN KMSN 140350Z 00000KT 4SM BR CLR 09/08 A3006 730 93 200 000/00 RMK AO2 SLP182 T00890078
14837KMSN MSN20051013215509910/13/05 21:55:31  5-MIN KMSN 140355Z 00000KT 4SM BR BCFG CLR 09/08 A3006 730 96 200 000/00 RMK AO2
14837KMSN MSN20051013220009910/13/05 22:00:31  5-MIN KMSN 140400Z 00000KT 4SM BR BCFG CLR 09/08 A3006 730 96 200 000/00 RMK AO2
14837KMSN MSN20051013220510210/13/05 22:05:31  5-MIN KMSN 140405Z 00000KT 2SM BR BCFG FEW001 09/09 A3006 730 96 300 000/00 RMK AO2
14837KMSN MSN20051013221010310/13/05 22:10:31  5-MIN KMSN 140410Z 00000KT 1 1/2SM BR BCFG CLR 09/08 A3006 730 93 300 000/00 RMK AO2
14837KMSN MSN20051013221510310/13/05 22:15:31  5-MIN KMSN 140415Z 00000KT 1 1/2SM BR BCFG CLR 09/09 A3006 730 96 300 000/00 RMK AO2
14837KMSN MSN20051013222009910/13/05 22:20:31  5-MIN KMSN 140420Z 00000KT 1SM BR BCFG CLR 09/09 A3006 730 96 300 000/00 RMK AO2
14837KMSN MSN20051013222509910/13/05 22:25:31  5-MIN KMSN 140425Z 00000KT 1SM BR BCFG CLR 09/08 A3006 730 93 300 000/00 RMK AO2
14837KMSN MSN20051013223009910/13/05 22:30:31  5-MIN KMSN 140430Z 00000KT 2SM BR BCFG CLR 09/08 A3006 730 96 200 000/00 RMK AO2
14837KMSN MSN20051013223510010/13/05 22:35:31  5-MIN KMSN 140435Z 00000KT 4SM BR BCFG CLR 08/08 A3006 730 100 100 000/00 RMK AO2
14837KMSN MSN20051013224009910/13/05 22:40:31  5-MIN KMSN 140440Z 00000KT 4SM BR BCFG CLR 09/08 A3006 730 96 200 000/00 RMK AO2
14837KMSN MSN20051013224510010/13/05 22:45:31  5-MIN KMSN 140445Z 00000KT 2SM BR BCFG CLR 08/08 A3006 730 100 100 000/00 RMK AO2
14837KMSN MSN20051013225011710/13/05 22:50:31  5-MIN KMSN 140450Z 00000KT 2SM BR BCFG CLR 08/08 A3006 740 100 200 000/00 RMK AO2 SLP181 T00830083
14837KMSN MSN20051013225510410/13/05 22:55:31  5-MIN KMSN 140455Z 00000KT 1 1/2SM BR BCFG CLR 08/08 A3006 740 100 200 000/00 RMK AO2
14837KMSN MSN20051013230010310/13/05 23:00:31  5-MIN KMSN 140500Z 00000KT 1 1/2SM BR BCFG CLR 08/08 A3006 740 96 200 000/00 RMK AO2
14837KMSN MSN20051013230510310/13/05 23:05:31  5-MIN KMSN 140505Z 00000KT 1 1/2SM BR BCFG CLR 09/08 A3006 740 93 200 000/00 RMK AO2
14837KMSN MSN20051013231010410/13/05 23:10:31  5-MIN KMSN 140510Z 00000KT 3/4SM BCFG BR FEW001 08/07 A3006 740 96 100 000/00 RMK AO2
14837KMSN MSN20051013231510410/13/05 23:15:31  5-MIN KMSN 140515Z 00000KT 3/4SM BCFG BR FEW001 08/07 A3006 740 93 100 000/00 RMK AO2
14837KMSN MSN20051013232010410/13/05 23:20:31  5-MIN KMSN 140520Z 00000KT 3/4SM BCFG BR FEW001 08/07 A3006 740 96 100 000/00 RMK AO2
14837KMSN MSN20051013232509910/13/05 23:25:31  5-MIN KMSN 140525Z 00000KT 1/2SM FG FEW001 08/08 A3006 730 96 100 000/00 RMK AO2
14837KMSN MSN20051013233010010/13/05 23:30:31  5-MIN KMSN 140530Z 00000KT 1/2SM FG FEW001 08/08 A3006 730 100 100 000/00 RMK AO2
14837KMSN MSN20051013233509910/13/05 23:35:31  5-MIN KMSN 140535Z 00000KT 1/2SM FG FEW001 08/08 A3006 740 96 200 000/00 RMK AO2
14837KMSN MSN20051013234010510/13/05 23:40:31  5-MIN KMSN 140540Z 00000KT 3/4SM BCFG BR FEW001 08/08 A3006 730 100 100 000/00 RMK AO2
14837KMSN MSN20051013234510310/13/05 23:45:31  5-MIN KMSN 140545Z 00000KT 3/4SM BCFG BR FEW001 07/07 A3006 730 100 0 000/00 RMK AO2
14837KMSN MSN20051013235014310/13/05 23:50:31  5-MIN KMSN 140550Z 00000KT 1/2SM FG FEW001 07/07 A3006 730 100 0 000/00 RMK AO2 SLP181 T00720072 10144 20072 401830072 53006
14837KMSN MSN20051013235509910/13/05 23:55:31  5-MIN KMSN 140555Z 00000KT 1/2SM FG VV001 08/08 A3006 740 100 100 000/00 RMK AO2
14837KMSN MSN20051014000009810/14/05 00:00:38  5-MIN KMSN 140600Z 00000KT 1/4SM FG VV001 08/07 A3006 740 96 100 000/00 RMK AO2
14837KMSN MSN20051014000509710/14/05 00:05:31  5-MIN KMSN 140605Z 00000KT 1/4SM FG VV001 07/07 A3006 740 100 0 000/00 RMK AO2
14837KMSN MSN20051014001009610/14/05 00:10:31  5-MIN KMSN 140610Z 00000KT 1/4SM FG VV001 07/06 A3006 740 96 0 000/00 RMK AO2
14837KMSN MSN20051014001509610/14/05 00:15:33  5-MIN KMSN 140615Z 00000KT 1/4SM FG VV001 07/06 A3006 740 96 0 000/00 RMK AO2
14837KMSN MSN20051014002009610/14/05 00:20:31  5-MIN KMSN 140620Z 00000KT 1/2SM FG VV001 07/06 A3006 740 96 0 000/00 RMK AO2
14837KMSN MSN20051014002509810/14/05 00:25:31  5-MIN KMSN 140625Z 00000KT 3/4SM BCFG VV001 07/07 A3005 740 96 0 000/00 RMK AO2
14837KMSN MSN20051014003009810/14/05 00:30:31  5-MIN KMSN 140630Z 00000KT 3/4SM BCFG VV001 07/07 A3005 740 96 0 000/00 RMK AO2
14837KMSN MSN20051014003509910/14/05 00:35:31  5-MIN KMSN 140635Z 00000KT 3/4SM BCFG VV001 07/07 A3005 740 100 0 000/00 RMK AO2
14837KMSN MSN20051014004010210/14/05 00:40:31  5-MIN KMSN 140640Z 00000KT 3/4SM BCFG VV001 06/06 A3005 740 100 -100 000/00 RMK AO2
14837KMSN MSN20051014004509910/14/05 00:45:31  5-MIN KMSN 140645Z 00000KT 3/4SM BCFG VV001 07/07 A3005 740 100 0 000/00 RMK AO2
14837KMSN MSN20051014005011610/14/05 00:50:31  5-MIN KMSN 140650Z 00000KT 3/4SM BCFG VV001 07/07 A3005 740 100 0 000/00 RMK AO2 SLP178 T00670067
14837KMSN MSN20051014005509610/14/05 00:55:31  5-MIN KMSN 140655Z 00000KT 1/2SM FG VV001 07/07 A3005 740 96 0 000/00 RMK AO2
14837KMSN MSN20051014010009610/14/05 01:00:31  5-MIN KMSN 140700Z 00000KT 1/2SM FG VV001 07/07 A3005 740 96 0 000/00 RMK AO2
14837KMSN MSN20051014010509610/14/05 01:05:31  5-MIN KMSN 140705Z 00000KT 1/2SM FG VV001 07/07 A3005 740 96 0 000/00 RMK AO2
14837KMSN MSN20051014011009610/14/05 01:10:31  5-MIN KMSN 140710Z 00000KT 1/2SM FG VV001 07/07 A3005 740 96 0 000/00 RMK AO2
14837KMSN MSN20051014011509610/14/05 01:15:31  5-MIN KMSN 140715Z 00000KT 1/2SM FG VV001 07/07 A3005 740 96 0 000/00 RMK AO2
14837KMSN MSN20051014012009910/14/05 01:20:31  5-MIN KMSN 140720Z 00000KT 1SM BCFG BR VV001 07/07 A3005 740 96 0 000/00 RMK AO2
14837KMSN MSN20051014012510110/14/05 01:25:31  5-MIN KMSN 140725Z 00000KT 3/4SM BCFG BR VV001 07/07 A3005 740 96 0 000/00 RMK AO2
14837KMSN MSN20051014013009910/14/05 01:30:31  5-MIN KMSN 140730Z 00000KT 1SM BCFG BR VV001 07/07 A3005 740 96 0 000/00 RMK AO2
14837KMSN MSN20051014013509910/14/05 01:35:31  5-MIN KMSN 140735Z 00000KT 1SM BCFG BR VV001 07/07 A3005 740 96 0 000/00 RMK AO2
14837KMSN MSN20051014014009910/14/05 01:40:31  5-MIN KMSN 140740Z 00000KT 1SM BCFG BR CLR 08/07 A3005 740 96 100 000/00 RMK AO2
14837KMSN MSN20051014014509710/14/05 01:45:31  5-MIN KMSN 140745Z 00000KT 1SM BCFG BR CLR 07/07 A3005 750 96 0 000/00 RMK AO2
14837KMSN MSN20051014015009510/14/05 01:50:31  5-MIN KMSN 140750Z 00000KT 4SM BR CLR 06/06 A3005 750 96 -100 000/00 RMK AO2
14837KMSN MSN20051014015509510/14/05 01:55:31  5-MIN KMSN 140755Z 00000KT 4SM BR CLR 06/06 A3005 750 96 -100 000/00 RMK AO2
14837KMSN MSN20051014020009510/14/05 02:00:31  5-MIN KMSN 140800Z 00000KT 5SM BR CLR 06/06 A3005 750 96 -100 000/00 RMK AO2
14837KMSN MSN20051014020509210/14/05 02:05:31  5-MIN KMSN 140805Z 00000KT 4SM BR CLR 07/07 A3005 750 96 0 000/00 RMK AO2
14837KMSN MSN20051014021009210/14/05 02:10:31  5-MIN KMSN 140810Z 00000KT 4SM BR CLR 07/07 A3004 750 96 0 000/00 RMK AO2
14837KMSN MSN20051014021509410/14/05 02:15:31  5-MIN KMSN 140815Z 00000KT 4SM BR CLR 08/07 A3004 750 96 100 000/00 RMK AO2
14837KMSN MSN20051014022009310/14/05 02:20:31  5-MIN KMSN 140820Z 00000KT 4SM BR CLR 07/07 A3004 750 100 0 000/00 RMK AO2
14837KMSN MSN20051014022509410/14/05 02:25:31  5-MIN KMSN 140825Z 00000KT 3SM BR CLR 08/07 A3005 750 96 100 000/00 RMK AO2
14837KMSN MSN20051014023009710/14/05 02:30:31  5-MIN KMSN 140830Z 00000KT 2 1/2SM BR CLR 07/07 A3005 750 100 0 000/00 RMK AO2
14837KMSN MSN20051014023509210/14/05 02:35:31  5-MIN KMSN 140835Z 00000KT 3SM BR CLR 07/07 A3005 750 96 0 000/00 RMK AO2
14837KMSN MSN20051014024009210/14/05 02:40:31  5-MIN KMSN 140840Z 00000KT 3SM BR CLR 07/06 A3005 750 96 0 000/00 RMK AO2
14837KMSN MSN20051014024509610/14/05 02:45:31  5-MIN KMSN 140845Z 00000KT 1 1/4SM BR CLR 07/06 A3005 750 96 0 000/00 RMK AO2
14837KMSN MSN20051014025009610/14/05 02:50:31  5-MIN KMSN 140850Z 00000KT 3/4SM BR VV001 07/06 A3005 750 96 0 000/00 RMK AO2
14837KMSN MSN20051014025509610/14/05 02:55:31  5-MIN KMSN 140855Z 00000KT 3/4SM BR VV001 07/06 A3005 750 96 0 000/00 RMK AO2
14837KMSN MSN20051014030009610/14/05 03:00:31  5-MIN KMSN 140900Z 00000KT 1/2SM FG VV001 07/06 A3005 750 96 0 000/00 RMK AO2
14837KMSN MSN20051014030509610/14/05 03:05:31  5-MIN KMSN 140905Z 00000KT 1/4SM FG VV001 07/06 A3005 750 96 0 000/00 RMK AO2
14837KMSN MSN20051014031010010/14/05 03:10:31  5-MIN KMSN 140910Z 00000KT 1/2SM FG VV001 06/06 A3005 750 100 -100 000/00 RMK AO2
14837KMSN MSN20051014031509610/14/05 03:15:31  5-MIN KMSN 140915Z 00000KT 1/4SM FG VV001 07/06 A3005 750 96 0 000/00 RMK AO2
14837KMSN MSN20051014032010010/14/05 03:20:31  5-MIN KMSN 140920Z 00000KT 1/4SM FG VV001 06/06 A3005 750 100 -100 000/00 RMK AO2
14837KMSN MSN20051014032510010/14/05 03:25:31  5-MIN KMSN 140925Z 00000KT 1/2SM FG VV001 06/06 A3005 750 100 -100 000/00 RMK AO2
14837KMSN MSN20051014033009610/14/05 03:30:31  5-MIN KMSN 140930Z 00000KT 1/2SM FG VV001 07/06 A3005 750 96 0 000/00 RMK AO2
14837KMSN MSN20051014033509610/14/05 03:35:31  5-MIN KMSN 140935Z 00000KT 1/2SM FG VV001 07/06 A3005 750 93 0 000/00 RMK AO2
14837KMSN MSN20051014034009610/14/05 03:40:31  5-MIN KMSN 140940Z 00000KT 1/2SM FG VV001 07/06 A3005 750 96 0 000/00 RMK AO2
14837KMSN MSN20051014034509910/14/05 03:45:31  5-MIN KMSN 140945Z 00000KT 1/2SM FG VV001 06/06 A3005 750 96 -100 000/00 RMK AO2
14837KMSN MSN20051014035009810/14/05 03:50:31  5-MIN KMSN 140950Z 00000KT 1/4SM FG CLR 06/06 A3005 750 100 -100 000/00 RMK AO2
14837KMSN MSN20051014035510710/14/05 03:55:31  5-MIN KMSN 140955Z 00000KT 1/4SM FG BKN001 OVC008 06/06 A3005 740 96 -100 000/00 RMK AO2
14837KMSN MSN20051014040010410/14/05 04:00:31  5-MIN KMSN 141000Z 00000KT 1/4SM FG BKN001 OVC008 07/06 A3005 750 96 0 000/00 RMK AO2
14837KMSN MSN20051014040510810/14/05 04:05:31  5-MIN KMSN 141005Z 00000KT M1/4SM FG BKN001 OVC008 06/06 A3005 740 96 -100 000/00 RMK AO2
14837KMSN MSN20051014041010010/14/05 04:10:31  5-MIN KMSN 141010Z 00000KT 1/8SM FG VV001 06/06 A3005 740 100 -100 000/00 RMK AO2
14837KMSN MSN20051014041510010/14/05 04:15:31  5-MIN KMSN 141015Z 00000KT 1/8SM FG VV001 06/06 A3005 740 100 -100 000/00 RMK AO2
14837KMSN MSN20051014042010010/14/05 04:20:31  5-MIN KMSN 141020Z 00000KT 1/8SM FG VV001 06/06 A3005 740 100 -100 000/00 RMK AO2
14837KMSN MSN20051014042510710/14/05 04:25:31  5-MIN KMSN 141025Z 00000KT 1/4SM FG BKN001 OVC008 06/05 A3005 740 96 -100 000/00 RMK AO2
14837KMSN MSN20051014043010810/14/05 04:30:31  5-MIN KMSN 141030Z 00000KT 1/4SM FG BKN001 OVC008 06/06 A3005 740 100 -100 000/00 RMK AO2
14837KMSN MSN20051014043511410/14/05 04:35:31  5-MIN KMSN 141035Z 00000KT 3/4SM BR BKN001 BKN008 OVC065 06/05 A3005 740 96 -100 000/00 RMK AO2
14837KMSN MSN20051014044011410/14/05 04:40:31  5-MIN KMSN 141040Z 00000KT 3/4SM BR BKN001 BKN010 BKN065 06/06 A3005 750 96 -100 000/00 RMK AO2
14837KMSN MSN20051014044510810/14/05 04:45:31  5-MIN KMSN 141045Z 00000KT 3/4SM BR SCT001 BKN065 06/06 A3005 740 100 -100 000/00 RMK AO2
14837KMSN MSN20051014045012510/14/05 04:50:31  5-MIN KMSN 141050Z 00000KT 3/4SM BR SCT001 SCT065 06/06 A3005 740 100 -100 000/00 RMK AO2 SLP179 T00560056
14837KMSN MSN20051014045510510/14/05 04:55:31  5-MIN KMSN 141055Z 00000KT 3SM BR FEW001 SCT065 06/05 A3005 740 96 -100 000/00 RMK AO2
14837KMSN MSN20051014050009910/14/05 05:00:31  5-MIN KMSN 141100Z 00000KT 3SM BR FEW065 06/06 A3005 740 100 -100 000/00 RMK AO2
14837KMSN MSN20051014050509810/14/05 05:05:31  5-MIN KMSN 141105Z 00000KT 3SM BR FEW065 06/06 A3005 740 96 -100 000/00 RMK AO2
14837KMSN MSN20051014051009510/14/05 05:10:31  5-MIN KMSN 141110Z 00000KT 3SM BR CLR 06/06 A3005 740 96 -100 000/00 RMK AO2
14837KMSN MSN20051014051509810/14/05 05:15:31  5-MIN KMSN 141115Z 15003KT 3SM BR FEW047 06/06 A3005 740 96 -100 150/03 RMK AO2
14837KMSN MSN20051014052009510/14/05 05:20:31  5-MIN KMSN 141120Z 00000KT 3SM BR SCT047 07/06 A3005 740 96 0 000/00 RMK AO2
14837KMSN MSN20051014052509910/14/05 05:25:31  5-MIN KMSN 141125Z 00000KT 4SM BR SCT049 06/06 A3006 740 100 -100 000/00 RMK AO2
14837KMSN MSN20051014053009610/14/05 05:30:31  5-MIN KMSN 141130Z 00000KT 4SM BR SCT049 07/07 A3006 740 100 0 000/00 RMK AO2
14837KMSN MSN20051014053509910/14/05 05:35:31  5-MIN KMSN 141135Z 00000KT 3SM BR FEW049 06/06 A3006 740 100 -100 000/00 RMK AO2
14837KMSN MSN20051014054009510/14/05 05:40:31  5-MIN KMSN 141140Z 00000KT 3SM BR SCT049 07/06 A3006 740 96 0 000/00 RMK AO2
14837KMSN MSN20051014054510510/14/05 05:45:31  5-MIN KMSN 141145Z 00000KT 1SM BR SCT049 07/06 A3006 740 96 0 000/00 RMK AO2 TWR VIS 4
14837KMSN MSN20051014055014610/14/05 05:50:31  5-MIN KMSN 141150Z 00000KT 1SM BR FEW049 07/06 A3006 740 96 0 000/00 RMK AO2 TWR VIS 4 SLP181 70011 T00670061 10078 20056 56004
14837KMSN MSN20051014055511010/14/05 05:55:31  5-MIN KMSN 141155Z 00000KT 3SM BCFG BR FEW047 07/06 A3006 740 96 0 000/00 RMK AO2 TWR VIS 4
14837KMSN MSN20051014060011010/14/05 06:00:31  5-MIN KMSN 141200Z 00000KT 3SM BCFG BR FEW047 07/06 A3006 740 96 0 000/00 RMK AO2 TWR VIS 4
14837KMSN MSN20051014060511010/14/05 06:05:31  5-MIN KMSN 141205Z 00000KT 3SM BCFG BR FEW047 07/06 A3006 740 96 0 000/00 RMK AO2 TWR VIS 4
14837KMSN MSN20051014061011110/14/05 06:10:31  5-MIN KMSN 141210Z 00000KT 3SM BCFG BR CLR 06/06 A3006 740 100 -100 000/00 RMK AO2 TWR VIS 4
14837KMSN MSN20051014061511410/14/05 06:15:31  5-MIN KMSN 141215Z 00000KT 3SM BCFG BR FEW001 06/06 A3006 730 100 -100 000/00 RMK AO2 TWR VIS 4
14837KMSN MSN20051014062011410/14/05 06:20:31  5-MIN KMSN 141220Z 00000KT 3SM BCFG BR FEW001 06/06 A3006 730 100 -100 000/00 RMK AO2 TWR VIS 4
14837KMSN MSN20051014062510710/14/05 06:25:31  5-MIN KMSN 141225Z 00000KT 3SM BCFG BR CLR 07/06 A3006 740 96 0 000/00 RMK AO2 TWR VIS 4
14837KMSN MSN20051014063011010/14/05 06:30:31  5-MIN KMSN 141230Z 00000KT 3SM BCFG BR FEW001 07/06 A3006 740 96 0 000/00 RMK AO2 TWR VIS 4
14837KMSN MSN20051014063511010/14/05 06:35:31  5-MIN KMSN 141235Z 18004KT 3SM BCFG BR FEW001 07/07 A3006 740 96 0 180/04 RMK AO2 TWR VIS 4
14837KMSN MSN20051014064011010/14/05 06:40:31  5-MIN KMSN 141240Z 19004KT 3SM BCFG BR FEW001 07/07 A3006 730 96 0 190/04 RMK AO2 TWR VIS 4
14837KMSN MSN20051014064510910/14/05 06:45:31  5-MIN KMSN 141245Z 19003KT 3SM BCFG BR CLR 08/07 A3006 730 96 100 190/03 RMK AO2 TWR VIS 4
14837KMSN MSN20051014065012610/14/05 06:50:31  5-MIN KMSN 141250Z 18003KT 3SM BCFG BR CLR 08/07 A3006 730 96 100 180/03 RMK AO2 TWR VIS 4 SLP182 T00780072
14837KMSN MSN20051014065510410/14/05 06:55:31  5-MIN KMSN 141255Z 18004KT 3SM BR CLR 09/08 A3006 740 93 200 180/04 RMK AO2 TWR VIS 4
14837KMSN MSN20051014070010410/14/05 07:00:31  5-MIN KMSN 141300Z 19004KT 3SM BR CLR 09/09 A3006 740 96 300 190/04 RMK AO2 TWR VIS 4
14837KMSN MSN20051014070510410/14/05 07:05:31  5-MIN KMSN 141305Z 19005KT 3SM BR CLR 10/09 A3006 730 96 400 190/05 RMK AO2 TWR VIS 4
14837KMSN MSN20051014071010410/14/05 07:10:31  5-MIN KMSN 141310Z 19005KT 3SM BR CLR 11/09 A3006 740 93 400 180/05 RMK AO2 TWR VIS 4
14837KMSN MSN20051014071510410/14/05 07:15:31  5-MIN KMSN 141315Z 19005KT 3SM BR CLR 11/10 A3006 740 96 400 190/05 RMK AO2 TWR VIS 4
14837KMSN MSN20051014072010410/14/05 07:20:31  5-MIN KMSN 141320Z 19005KT 3SM BR CLR 11/10 A3006 740 96 400 190/05 RMK AO2 TWR VIS 4
14837KMSN MSN20051014072510410/14/05 07:25:31  5-MIN KMSN 141325Z 19006KT 3SM BR CLR 11/10 A3006 740 93 500 190/06 RMK AO2 TWR VIS 4
14837KMSN MSN20051014073010410/14/05 07:30:31  5-MIN KMSN 141330Z 20005KT 3SM BR CLR 12/10 A3006 740 89 600 200/05 RMK AO2 TWR VIS 4
14837KMSN MSN20051014073510410/14/05 07:35:31  5-MIN KMSN 141335Z 20005KT 3SM BR CLR 12/10 A3006 740 89 600 200/05 RMK AO2 TWR VIS 4
14837KMSN MSN20051014074010410/14/05 07:40:31  5-MIN KMSN 141340Z 21004KT 3SM BR CLR 12/11 A3006 740 89 600 210/04 RMK AO2 TWR VIS 4
14837KMSN MSN20051014074510410/14/05 07:45:31  5-MIN KMSN 141345Z 20004KT 3SM BR CLR 12/11 A3006 740 89 600 200/04 RMK AO2 TWR VIS 4
14837KMSN MSN20051014075012110/14/05 07:50:31  5-MIN KMSN 141350Z 21005KT 3SM BR CLR 12/11 A3006 740 89 600 210/05 RMK AO2 TWR VIS 4 SLP180 T01220106
14837KMSN MSN20051014075509410/14/05 07:55:31  5-MIN KMSN 141355Z 19004KT 4SM BR CLR 13/11 A3006 740 86 700 190/04 RMK AO2
14837KMSN MSN20051014080010410/14/05 08:00:31  5-MIN KMSN 141400Z 19004KT 3SM BR CLR 13/11 A3006 740 86 700 190/04 RMK AO2 TWR VIS 4
14837KMSN MSN20051014080510410/14/05 08:05:31  5-MIN KMSN 141405Z 20004KT 3SM HZ CLR 13/11 A3006 740 83 800 200/04 RMK AO2 TWR VIS 4
14837KMSN MSN20051014081009410/14/05 08:10:31  5-MIN KMSN 141410Z 20005KT 4SM HZ CLR 13/11 A3006 740 83 800 190/05 RMK AO2
14837KMSN MSN20051014081509410/14/05 08:15:31  5-MIN KMSN 141415Z 18006KT 4SM BR CLR 13/11 A3006 740 86 800 180/06 RMK AO2
14837KMSN MSN20051014082009410/14/05 08:20:31  5-MIN KMSN 141420Z 19005KT 4SM BR CLR 13/11 A3006 740 86 800 190/05 RMK AO2
14837KMSN MSN20051014082509410/14/05 08:25:31  5-MIN KMSN 141425Z 19005KT 4SM BR CLR 13/11 A3006 740 86 800 180/05 RMK AO2
14837KMSN MSN20051014083009410/14/05 08:30:31  5-MIN KMSN 141430Z 18006KT 4SM HZ CLR 14/11 A3005 740 83 800 180/06 RMK AO2
14837KMSN MSN20051014083509410/14/05 08:35:31  5-MIN KMSN 141435Z 17006KT 5SM HZ CLR 14/11 A3005 750 83 800 170/06 RMK AO2
14837KMSN MSN20051014084009410/14/05 08:40:31  5-MIN KMSN 141440Z 18006KT 5SM HZ CLR 14/11 A3005 750 83 800 180/06 RMK AO2
14837KMSN MSN20051014084509410/14/05 08:45:31  5-MIN KMSN 141445Z 18006KT 5SM HZ CLR 14/11 A3005 750 83 800 180/06 RMK AO2
14837KMSN MSN20051014085011710/14/05 08:50:31  5-MIN KMSN 141450Z 20005KT 5SM HZ CLR 14/11 A3005 750 80 900 200/05 RMK AO2 SLP177 T01440111 53002
14837KMSN MSN20051014085509410/14/05 08:55:31  5-MIN KMSN 141455Z 19004KT 5SM HZ CLR 14/11 A3005 740 80 900 190/04 RMK AO2
14837KMSN MSN20051014090009510/14/05 09:00:31  5-MIN KMSN 141500Z VRB03KT 6SM HZ CLR 15/11 A3005 740 77 1000 VRB/03 RMK AO2
14837KMSN MSN20051014090509510/14/05 09:05:31  5-MIN KMSN 141505Z VRB03KT 6SM HZ CLR 15/11 A3005 740 77 1000 VRB/03 RMK AO2
14837KMSN MSN20051014091009510/14/05 09:10:31  5-MIN KMSN 141510Z 24005KT 6SM HZ CLR 16/11 A3005 740 74 1000 240/05 RMK AO2
14837KMSN MSN20051014091509510/14/05 09:15:31  5-MIN KMSN 141515Z 25005KT 6SM HZ CLR 15/11 A3005 740 74 1000 250/05 RMK AO2
14837KMSN MSN20051014092009210/14/05 09:20:31  5-MIN KMSN 141520Z VRB04KT 7SM CLR 15/11 A3005 740 74 1000 VRB/04 RMK AO2
14837KMSN MSN20051014092509210/14/05 09:25:31  5-MIN KMSN 141525Z 24005KT 7SM CLR 16/11 A3005 740 72 1000 240/05 RMK AO2
14837KMSN MSN20051014093009210/14/05 09:30:31  5-MIN KMSN 141530Z 23005KT 7SM CLR 16/11 A3005 740 72 1000 230/05 RMK AO2
14837KMSN MSN20051014093509210/14/05 09:35:31  5-MIN KMSN 141535Z 24005KT 7SM CLR 16/11 A3005 740 72 1000 240/05 RMK AO2
14837KMSN MSN20051014094009210/14/05 09:40:31  5-MIN KMSN 141540Z VRB04KT 7SM CLR 16/11 A3005 740 72 1000 VRB/04 RMK AO2
14837KMSN MSN20051014094509210/14/05 09:45:31  5-MIN KMSN 141545Z VRB04KT 7SM CLR 16/11 A3005 740 69 1100 VRB/04 RMK AO2
14837KMSN MSN20051014095010910/14/05 09:50:31  5-MIN KMSN 141550Z VRB04KT 8SM CLR 16/11 A3006 740 69 1100 VRB/04 RMK AO2 SLP180 T01610106
14837KMSN MSN20051014095509210/14/05 09:55:31  5-MIN KMSN 141555Z 23005KT 8SM CLR 17/11 A3005 740 67 1100 230/05 RMK AO2
14837KMSN MSN20051014100009210/14/05 10:00:31  5-MIN KMSN 141600Z 22005KT 8SM CLR 17/11 A3005 750 67 1200 220/05 RMK AO2
14837KMSN MSN20051014100509210/14/05 10:05:31  5-MIN KMSN 141605Z 20006KT 8SM CLR 17/11 A3005 750 64 1200 200/06 RMK AO2
14837KMSN MSN20051014101009210/14/05 10:10:31  5-MIN KMSN 141610Z 23006KT 9SM CLR 17/10 A3004 750 62 1200 230/06 RMK AO2
14837KMSN MSN20051014101509310/14/05 10:15:31  5-MIN KMSN 141615Z 23006KT 10SM CLR 18/10 A3004 750 60 1300 230/06 RMK AO2
14837KMSN MSN20051014102009310/14/05 10:20:31  5-MIN KMSN 141620Z 25007KT 10SM CLR 18/10 A3004 750 60 1300 250/07 RMK AO2
14837KMSN MSN20051014102509310/14/05 10:25:31  5-MIN KMSN 141625Z 22005KT 10SM CLR 18/10 A3004 750 60 1300 220/05 RMK AO2
14837KMSN MSN20051014103009310/14/05 10:30:31  5-MIN KMSN 141630Z VRB05KT 10SM CLR 18/11 A3004 760 60 1400 VRB/05 RMK AO2
14837KMSN MSN20051014103509310/14/05 10:35:31  5-MIN KMSN 141635Z 24004KT 10SM CLR 18/11 A3004 760 60 1400 240/04 RMK AO2
14837KMSN MSN20051014104009310/14/05 10:40:31  5-MIN KMSN 141640Z 24007KT 10SM CLR 18/11 A3004 760 60 1400 240/07 RMK AO2
14837KMSN MSN20051014104509310/14/05 10:45:31  5-MIN KMSN 141645Z VRB06KT 10SM CLR 18/10 A3003 760 58 1400 VRB/06 RMK AO2
14837KMSN MSN20051014105011010/14/05 10:50:31  5-MIN KMSN 141650Z VRB06KT 10SM CLR 19/10 A3003 760 56 1400 VRB/06 RMK AO2 SLP170 T01890100
14837KMSN MSN20051014105509310/14/05 10:55:31  5-MIN KMSN 141655Z 23007KT 10SM CLR 19/10 A3003 760 56 1400 230/07 RMK AO2
14837KMSN MSN20051014110009310/14/05 11:00:31  5-MIN KMSN 141700Z VRB05KT 10SM CLR 19/10 A3003 760 56 1400 VRB/05 RMK AO2
14837KMSN MSN20051014110509310/14/05 11:05:31  5-MIN KMSN 141705Z VRB05KT 10SM CLR 19/10 A3003 770 56 1400 VRB/05 RMK AO2
14837KMSN MSN20051014111010910/14/05 11:10:31  5-MIN KMSN 141710Z 23007KT 200V270 10SM CLR 19/10 A3003 770 56 1400 230/07 200V270 RMK AO2
14837KMSN MSN20051014111509310/14/05 11:15:31  5-MIN KMSN 141715Z 22006KT 10SM CLR 19/10 A3003 770 54 1500 220/06 RMK AO2
14837KMSN MSN20051014112010910/14/05 11:20:31  5-MIN KMSN 141720Z 24007KT 200V260 10SM CLR 19/10 A3003 760 54 1500 230/07 200V260 RMK AO2
14837KMSN MSN20051014112509310/14/05 11:25:31  5-MIN KMSN 141725Z 21005KT 10SM CLR 20/09 A3002 770 50 1600 210/05 RMK AO2
14837KMSN MSN20051014113009310/14/05 11:30:31  5-MIN KMSN 141730Z VRB05KT 10SM CLR 21/10 A3002 770 50 1600 VRB/05 RMK AO2
14837KMSN MSN20051014113509310/14/05 11:35:31  5-MIN KMSN 141735Z VRB06KT 10SM CLR 21/09 A3002 770 48 1600 VRB/06 RMK AO2
14837KMSN MSN20051014114009310/14/05 11:40:31  5-MIN KMSN 141740Z VRB05KT 10SM CLR 21/09 A3002 770 46 1600 VRB/05 RMK AO2
14837KMSN MSN20051014114509310/14/05 11:45:31  5-MIN KMSN 141745Z 21006KT 10SM CLR 21/09 A3002 780 46 1600 210/06 RMK AO2
14837KMSN MSN20051014115013110/14/05 11:50:31  5-MIN KMSN 141750Z VRB05KT 10SM FEW075 21/08 A3001 780 45 1700 VRB/05 RMK AO2 SLP163 T02060083 10206 20061 58002
14837KMSN MSN20051014115509610/14/05 11:55:31  5-MIN KMSN 141755Z 23005KT 10SM FEW075 21/08 A3001 790 43 1700 230/05 RMK AO2
14837KMSN MSN20051014120009610/14/05 12:00:31  5-MIN KMSN 141800Z 23008KT 10SM FEW075 21/08 A3000 790 42 1700 230/08 RMK AO2
14837KMSN MSN20051014120509610/14/05 12:05:31  5-MIN KMSN 141805Z 25006KT 10SM FEW075 21/07 A3000 790 40 1700 240/06 RMK AO2
14837KMSN MSN20051014121009610/14/05 12:10:31  5-MIN KMSN 141810Z 24007KT 10SM FEW075 22/08 A2999 800 40 1800 240/07 RMK AO2
14837KMSN MSN20051014121509610/14/05 12:15:31  5-MIN KMSN 141815Z 23008KT 10SM FEW075 21/07 A2999 800 40 1700 230/08 RMK AO2
14837KMSN MSN20051014122009310/14/05 12:20:31  5-MIN KMSN 141820Z VRB06KT 10SM CLR 22/07 A2999 800 39 1800 VRB/06 RMK AO2
14837KMSN MSN20051014122509310/14/05 12:25:31  5-MIN KMSN 141825Z 22008KT 10SM CLR 22/07 A2999 800 39 1800 220/08 RMK AO2
14837KMSN MSN20051014123009910/14/05 12:30:31  5-MIN KMSN 141830Z 23009G14KT 10SM CLR 22/07 A2998 810 39 1800 230/09G14 RMK AO2
14837KMSN MSN20051014123511510/14/05 12:35:31  5-MIN KMSN 141835Z 24008G14KT 180V270 10SM CLR 22/08 A2998 810 40 1800 240/08G14 180V270 RMK AO2
14837KMSN MSN20051014124009310/14/05 12:40:31  5-MIN KMSN 141840Z 23008KT 10SM CLR 22/08 A2998 810 40 1800 230/08 RMK AO2
14837KMSN MSN20051014124510910/14/05 12:45:31  5-MIN KMSN 141845Z 22007KT 200V260 10SM CLR 22/08 A2997 820 42 1800 220/07 200V260 RMK AO2
14837KMSN MSN20051014125012610/14/05 12:50:31  5-MIN KMSN 141850Z 24008KT 210V280 10SM CLR 22/08 A2997 820 42 1800 240/08 210V280 RMK AO2 SLP149 T02170083
14837KMSN MSN20051014125510910/14/05 12:55:31  5-MIN KMSN 141855Z 22007KT 190V270 10SM CLR 22/09 A2997 820 43 1800 220/07 190V270 RMK AO2
14837KMSN MSN20051014130009310/14/05 13:00:31  5-MIN KMSN 141900Z 23006KT 10SM CLR 22/09 A2996 830 43 1800 230/06 RMK AO2
14837KMSN MSN20051014130510910/14/05 13:05:31  5-MIN KMSN 141905Z 23008KT 190V250 10SM CLR 22/09 A2996 830 42 1900 220/08 190V250 RMK AO2
14837KMSN MSN20051014131010910/14/05 13:10:31  5-MIN KMSN 141910Z 23008KT 180V260 10SM CLR 22/08 A2996 830 42 1800 230/08 180V260 RMK AO2
14837KMSN MSN20051014131509310/14/05 13:15:31  5-MIN KMSN 141915Z 24008KT 10SM CLR 23/09 A2996 830 40 2000 240/08 RMK AO2
14837KMSN MSN20051014132009310/14/05 13:20:31  5-MIN KMSN 141920Z 23007KT 10SM CLR 22/08 A2995 830 40 1900 230/07 RMK AO2
14837KMSN MSN20051014132509310/14/05 13:25:31  5-MIN KMSN 141925Z 23008KT 10SM CLR 22/08 A2995 830 40 1900 230/08 RMK AO2
14837KMSN MSN20051014133009310/14/05 13:30:31  5-MIN KMSN 141930Z 22008KT 10SM CLR 22/08 A2996 830 40 1900 220/08 RMK AO2
14837KMSN MSN20051014133509310/14/05 13:35:31  5-MIN KMSN 141935Z 24007KT 10SM CLR 23/08 A2996 830 37 2000 240/07 RMK AO2
14837KMSN MSN20051014134009310/14/05 13:40:31  5-MIN KMSN 141940Z VRB06KT 10SM CLR 23/08 A2995 830 39 2000 VRB/06 RMK AO2
14837KMSN MSN20051014134509310/14/05 13:45:31  5-MIN KMSN 141945Z 22009KT 10SM CLR 23/08 A2995 840 39 2000 220/09 RMK AO2
14837KMSN MSN20051014135013210/14/05 13:50:31  5-MIN KMSN 141950Z 23008G15KT 190V260 10SM CLR 23/08 A2995 840 37 2000 230/08G15 190V260 RMK AO2 SLP141 T02280078
14837KMSN MSN20051014135509910/14/05 13:55:31  5-MIN KMSN 141955Z 22010G19KT 10SM CLR 23/08 A2994 840 37 2000 220/10G19 RMK AO2
14837KMSN MSN20051014140009910/14/05 14:00:31  5-MIN KMSN 142000Z 22008G19KT 10SM CLR 23/08 A2994 840 37 2000 220/08G19 RMK AO2
14837KMSN MSN20051014140511510/14/05 14:05:31  5-MIN KMSN 142005Z 23008G17KT 210V270 10SM CLR 23/08 A2994 840 37 2000 230/08G17 210V270 RMK AO2
14837KMSN MSN20051014141009910/14/05 14:10:31  5-MIN KMSN 142010Z 24008G14KT 10SM CLR 23/08 A2994 840 39 2000 240/08G14 RMK AO2
14837KMSN MSN20051014141509910/14/05 14:15:31  5-MIN KMSN 142015Z 23005G14KT 10SM CLR 23/08 A2994 840 39 2000 230/05G14 RMK AO2
14837KMSN MSN20051014142009310/14/05 14:20:31  5-MIN KMSN 142020Z 23009KT 10SM CLR 23/09 A2994 840 40 2000 230/09 RMK AO2
14837KMSN MSN20051014142509310/14/05 14:25:31  5-MIN KMSN 142025Z 23007KT 10SM CLR 23/09 A2994 840 40 2000 230/07 RMK AO2
14837KMSN MSN20051014143010910/14/05 14:30:31  5-MIN KMSN 142030Z 24007KT 200V290 10SM CLR 23/09 A2994 840 42 2000 240/07 200V290 RMK AO2
14837KMSN MSN20051014143509310/14/05 14:35:31  5-MIN KMSN 142035Z 23009KT 10SM CLR 23/09 A2994 840 40 2000 230/09 RMK AO2
14837KMSN MSN20051014144009310/14/05 14:40:31  5-MIN KMSN 142040Z 23009KT 10SM CLR 23/09 A2994 840 40 2000 230/09 RMK AO2
14837KMSN MSN20051014144510910/14/05 14:45:31  5-MIN KMSN 142045Z 22009KT 200V270 10SM CLR 23/09 A2994 850 40 2000 220/09 200V270 RMK AO2
14837KMSN MSN20051014145013810/14/05 14:50:31  5-MIN KMSN 142050Z 24010G15KT 200V270 10SM CLR 23/09 A2994 850 42 2000 240/10G15 200V270 RMK AO2 SLP137 T02280094 58014
14837KMSN MSN20051014145509910/14/05 14:55:31  5-MIN KMSN 142055Z 23009G15KT 10SM CLR 23/09 A2994 850 42 2000 230/09G15 RMK AO2
14837KMSN MSN20051014150010910/14/05 15:00:31  5-MIN KMSN 142100Z 23009KT 200V260 10SM CLR 23/09 A2993 850 42 2000 230/09 200V260 RMK AO2
14837KMSN MSN20051014150509310/14/05 15:05:31  5-MIN KMSN 142105Z 24009KT 10SM CLR 23/09 A2993 850 42 2000 230/09 RMK AO2
14837KMSN MSN20051014151011510/14/05 15:10:31  5-MIN KMSN 142110Z 23007G15KT 200V270 10SM CLR 23/09 A2993 850 42 2000 230/07G15 200V270 RMK AO2
14837KMSN MSN20051014151511510/14/05 15:15:31  5-MIN KMSN 142115Z 23009G15KT 190V270 10SM CLR 23/09 A2993 850 42 2000 230/09G15 190V270 RMK AO2
14837KMSN MSN20051014152011510/14/05 15:20:31  5-MIN KMSN 142120Z 23008G15KT 180V270 10SM CLR 23/09 A2993 850 42 2000 230/08G15 180V270 RMK AO2
14837KMSN MSN20051014152510910/14/05 15:25:31  5-MIN KMSN 142125Z 24008KT 210V270 10SM CLR 23/09 A2993 850 42 2000 230/08 210V270 RMK AO2
14837KMSN MSN20051014153009910/14/05 15:30:31  5-MIN KMSN 142130Z 24009G14KT 10SM CLR 23/09 A2993 850 42 2000 240/09G14 RMK AO2
14837KMSN MSN20051014153509310/14/05 15:35:31  5-MIN KMSN 142135Z VRB04KT 10SM CLR 23/09 A2993 850 42 2000 VRB/04 RMK AO2
14837KMSN MSN20051014154009310/14/05 15:40:31  5-MIN KMSN 142140Z VRB06KT 10SM CLR 23/09 A2993 850 42 2000 VRB/06 RMK AO2
14837KMSN MSN20051014154510910/14/05 15:45:31  5-MIN KMSN 142145Z 25007KT 220V300 10SM CLR 23/09 A2993 850 42 2000 250/07 220V300 RMK AO2
14837KMSN MSN20051014155011010/14/05 15:50:31  5-MIN KMSN 142150Z VRB06KT 10SM CLR 23/09 A2993 850 42 2000 VRB/06 RMK AO2 SLP137 T02280094
14837KMSN MSN20051014155509310/14/05 15:55:31  5-MIN KMSN 142155Z VRB06KT 10SM CLR 23/09 A2993 850 42 2000 VRB/06 RMK AO2
14837KMSN MSN20051014160009310/14/05 16:00:31  5-MIN KMSN 142200Z VRB06KT 10SM CLR 23/09 A2993 860 42 2000 VRB/06 RMK AO2
14837KMSN MSN20051014160509310/14/05 16:05:31  5-MIN KMSN 142205Z VRB06KT 10SM CLR 23/09 A2993 860 42 2000 VRB/06 RMK AO2
14837KMSN MSN20051014161009310/14/05 16:10:31  5-MIN KMSN 142210Z VRB06KT 10SM CLR 23/09 A2993 860 42 2000 VRB/06 RMK AO2
14837KMSN MSN20051014161509310/14/05 16:15:31  5-MIN KMSN 142215Z VRB06KT 10SM CLR 23/09 A2993 860 42 2000 VRB/06 RMK AO2
14837KMSN MSN20051014162009310/14/05 16:20:31  5-MIN KMSN 142220Z VRB05KT 10SM CLR 22/09 A2993 850 43 1900 VRB/05 RMK AO2
14837KMSN MSN20051014162509310/14/05 16:25:31  5-MIN KMSN 142225Z 24004KT 10SM CLR 22/09 A2993 850 43 1900 240/04 RMK AO2
14837KMSN MSN20051014163009310/14/05 16:30:31  5-MIN KMSN 142230Z VRB04KT 10SM CLR 22/09 A2993 850 43 1900 VRB/04 RMK AO2
14837KMSN MSN20051014163509310/14/05 16:35:31  5-MIN KMSN 142235Z VRB04KT 10SM CLR 22/09 A2993 850 43 1900 VRB/04 RMK AO2
14837KMSN MSN20051014164009310/14/05 16:40:31  5-MIN KMSN 142240Z VRB04KT 10SM CLR 22/09 A2993 850 43 1900 VRB/04 RMK AO2
14837KMSN MSN20051014164509310/14/05 16:45:31  5-MIN KMSN 142245Z VRB03KT 10SM CLR 22/09 A2993 850 45 1900 VRB/03 RMK AO2
14837KMSN MSN20051014165011010/14/05 16:50:31  5-MIN KMSN 142250Z VRB04KT 10SM CLR 22/09 A2993 850 45 1900 VRB/04 RMK AO2 SLP136 T02170094
14837KMSN MSN20051014165509310/14/05 16:55:31  5-MIN KMSN 142255Z 22004KT 10SM CLR 22/09 A2993 860 45 1900 220/04 RMK AO2
14837KMSN MSN20051014170009310/14/05 17:00:31  5-MIN KMSN 142300Z 22004KT 10SM CLR 22/09 A2993 850 45 1900 220/04 RMK AO2
14837KMSN MSN20051014170509310/14/05 17:05:31  5-MIN KMSN 142305Z 22003KT 10SM CLR 21/09 A2993 850 47 1800 210/03 RMK AO2
14837KMSN MSN20051014171009310/14/05 17:10:31  5-MIN KMSN 142310Z 22003KT 10SM CLR 21/09 A2993 850 48 1700 220/03 RMK AO2
14837KMSN MSN20051014171509310/14/05 17:15:31  5-MIN KMSN 142315Z 22004KT 10SM CLR 20/10 A2993 850 52 1700 220/04 RMK AO2
14837KMSN MSN20051014172009310/14/05 17:20:31  5-MIN KMSN 142320Z 22003KT 10SM CLR 20/10 A2993 850 52 1700 220/03 RMK AO2
14837KMSN MSN20051014172509310/14/05 17:25:31  5-MIN KMSN 142325Z 22003KT 10SM CLR 20/10 A2994 850 52 1700 220/03 RMK AO2
14837KMSN MSN20051014173009310/14/05 17:30:31  5-MIN KMSN 142330Z 00000KT 10SM CLR 19/11 A2994 850 56 1600 000/00 RMK AO2
14837KMSN MSN20051014173509310/14/05 17:35:31  5-MIN KMSN 142335Z 22003KT 10SM CLR 19/10 A2994 850 56 1500 220/03 RMK AO2
14837KMSN MSN20051014174009310/14/05 17:40:31  5-MIN KMSN 142340Z 00000KT 10SM CLR 19/10 A2994 850 56 1500 000/00 RMK AO2
14837KMSN MSN20051014174509310/14/05 17:45:31  5-MIN KMSN 142345Z 00000KT 10SM CLR 19/10 A2994 850 56 1500 000/00 RMK AO2
14837KMSN MSN20051014175012810/14/05 17:50:31  5-MIN KMSN 142350Z 00000KT 10SM CLR 18/10 A2994 850 60 1400 000/00 RMK AO2 SLP140 T01780100 10228 20178 56024
14837KMSN MSN20051014175509310/14/05 17:55:31  5-MIN KMSN 142355Z 00000KT 10SM CLR 18/09 A2994 850 56 1500 000/00 RMK AO2
14837KMSN MSN20051014180009310/14/05 18:00:31  5-MIN KMSN 150000Z VRB03KT 10SM CLR 19/09 A2994 850 54 1500 VRB/03 RMK AO2
14837KMSN MSN20051014180509310/14/05 18:05:31  5-MIN KMSN 150005Z VRB03KT 10SM CLR 19/09 A2994 850 52 1500 VRB/03 RMK AO2
14837KMSN MSN20051014181009310/14/05 18:10:31  5-MIN KMSN 150010Z 00000KT 10SM CLR 19/09 A2994 850 52 1500 000/00 RMK AO2
14837KMSN MSN20051014181509310/14/05 18:15:31  5-MIN KMSN 150015Z 00000KT 10SM CLR 19/09 A2994 850 52 1500 000/00 RMK AO2
14837KMSN MSN20051014182009310/14/05 18:20:31  5-MIN KMSN 150020Z 25003KT 10SM CLR 18/09 A2994 840 54 1500 240/03 RMK AO2
14837KMSN MSN20051014182509310/14/05 18:25:31  5-MIN KMSN 150025Z VRB03KT 10SM CLR 19/09 A2994 850 52 1500 VRB/03 RMK AO2
14837KMSN MSN20051014183009310/14/05 18:30:31  5-MIN KMSN 150030Z 00000KT 10SM CLR 19/09 A2994 840 52 1500 000/00 RMK AO2
14837KMSN MSN20051014183509310/14/05 18:35:31  5-MIN KMSN 150035Z VRB03KT 10SM CLR 18/09 A2994 840 54 1500 VRB/03 RMK AO2
14837KMSN MSN20051014184009310/14/05 18:40:31  5-MIN KMSN 150040Z 00000KT 10SM CLR 18/09 A2994 840 54 1500 000/00 RMK AO2
14837KMSN MSN20051014184509310/14/05 18:45:31  5-MIN KMSN 150045Z VRB03KT 10SM CLR 19/08 A2994 840 50 1500 VRB/03 RMK AO2
14837KMSN MSN20051014185011010/14/05 18:50:31  5-MIN KMSN 150050Z 29004KT 10SM CLR 18/08 A2995 840 52 1500 290/04 RMK AO2 SLP141 T01830083
14837KMSN MSN20051014185509310/14/05 18:55:31  5-MIN KMSN 150055Z 28008KT 10SM CLR 18/08 A2995 840 52 1500 280/08 RMK AO2
14837KMSN MSN20051014190009310/14/05 19:00:31  5-MIN KMSN 150100Z 29009KT 10SM CLR 19/08 A2995 840 48 1500 290/09 RMK AO2
14837KMSN MSN20051014190509310/14/05 19:05:31  5-MIN KMSN 150105Z VRB06KT 10SM CLR 18/08 A2995 830 50 1500 VRB/06 RMK AO2
14837KMSN MSN20051014191009310/14/05 19:10:31  5-MIN KMSN 150110Z 29006KT 10SM CLR 18/08 A2996 830 50 1500 280/06 RMK AO2
14837KMSN MSN20051014191509310/14/05 19:15:31  5-MIN KMSN 150115Z 29007KT 10SM CLR 18/07 A2996 830 48 1500 290/07 RMK AO2
14837KMSN MSN20051014192009310/14/05 19:20:31  5-MIN KMSN 150120Z 28006KT 10SM CLR 18/07 A2996 830 48 1500 280/06 RMK AO2
14837KMSN MSN20051014192509310/14/05 19:25:31  5-MIN KMSN 150125Z 29006KT 10SM CLR 18/07 A2996 830 48 1500 290/06 RMK AO2
14837KMSN MSN20051014193009310/14/05 19:30:31  5-MIN KMSN 150130Z 29006KT 10SM CLR 18/07 A2996 830 48 1400 290/06 RMK AO2
14837KMSN MSN20051014193509310/14/05 19:35:31  5-MIN KMSN 150135Z 29006KT 10SM CLR 18/07 A2996 830 49 1400 290/06 RMK AO2
14837KMSN MSN20051014194009310/14/05 19:40:31  5-MIN KMSN 150140Z 30006KT 10SM CLR 18/07 A2996 830 49 1400 290/06 RMK AO2
14837KMSN MSN20051014194509310/14/05 19:45:31  5-MIN KMSN 150145Z 30005KT 10SM CLR 18/07 A2996 830 49 1400 300/05 RMK AO2
14837KMSN MSN20051014195011010/14/05 19:50:31  5-MIN KMSN 150150Z 30006KT 10SM CLR 17/07 A2996 820 51 1300 300/06 RMK AO2 SLP147 T01720072
14837KMSN MSN20051014195509310/14/05 19:55:31  5-MIN KMSN 150155Z 30005KT 10SM CLR 17/07 A2996 820 53 1300 300/05 RMK AO2
14837KMSN MSN20051014200009310/14/05 20:00:31  5-MIN KMSN 150200Z 30005KT 10SM CLR 17/07 A2997 820 49 1300 290/05 RMK AO2
14837KMSN MSN20051014200509310/14/05 20:05:31  5-MIN KMSN 150205Z 29005KT 10SM CLR 17/07 A2997 820 49 1300 290/05 RMK AO2
14837KMSN MSN20051014201009310/14/05 20:10:31  5-MIN KMSN 150210Z 29004KT 10SM CLR 17/07 A2997 820 49 1300 290/04 RMK AO2
14837KMSN MSN20051014201509310/14/05 20:15:31  5-MIN KMSN 150215Z 29004KT 10SM CLR 17/07 A2997 820 51 1200 290/04 RMK AO2
14837KMSN MSN20051014202009310/14/05 20:20:31  5-MIN KMSN 150220Z 28004KT 10SM CLR 16/07 A2997 820 53 1200 280/04 RMK AO2
14837KMSN MSN20051014202509310/14/05 20:25:31  5-MIN KMSN 150225Z 28005KT 10SM CLR 16/07 A2998 810 53 1200 270/05 RMK AO2
14837KMSN MSN20051014203009310/14/05 20:30:31  5-MIN KMSN 150230Z 28004KT 10SM CLR 16/06 A2998 810 51 1200 280/04 RMK AO2
14837KMSN MSN20051014203509310/14/05 20:35:31  5-MIN KMSN 150235Z 29005KT 10SM CLR 16/06 A2998 810 51 1200 290/05 RMK AO2
14837KMSN MSN20051014204009310/14/05 20:40:31  5-MIN KMSN 150240Z 29005KT 10SM CLR 17/06 A2998 810 49 1200 290/05 RMK AO2
14837KMSN MSN20051014204509310/14/05 20:45:31  5-MIN KMSN 150245Z 28006KT 10SM CLR 16/06 A2998 810 51 1200 280/06 RMK AO2
14837KMSN MSN20051014205011610/14/05 20:50:31  5-MIN KMSN 150250Z 29007KT 10SM CLR 16/06 A2998 810 51 1200 290/07 RMK AO2 SLP151 T01610061 53001
14837KMSN MSN20051014205509310/14/05 20:55:31  5-MIN KMSN 150255Z 30006KT 10SM CLR 16/06 A2998 810 49 1200 300/06 RMK AO2
14837KMSN MSN20051014210009310/14/05 21:00:31  5-MIN KMSN 150300Z 30008KT 10SM CLR 16/06 A2998 810 49 1200 300/08 RMK AO2
14837KMSN MSN20051014210509310/14/05 21:05:31  5-MIN KMSN 150305Z 30008KT 10SM CLR 17/05 A2998 810 45 1200 300/08 RMK AO2
14837KMSN MSN20051014211009310/14/05 21:10:31  5-MIN KMSN 150310Z 30008KT 10SM CLR 17/05 A2998 810 45 1200 300/08 RMK AO2
14837KMSN MSN20051014211509310/14/05 21:15:31  5-MIN KMSN 150315Z 31006KT 10SM CLR 16/04 A2998 810 45 1200 310/06 RMK AO2
14837KMSN MSN20051014212009310/14/05 21:20:31  5-MIN KMSN 150320Z 31006KT 10SM CLR 16/04 A2998 810 45 1200 300/06 RMK AO2
14837KMSN MSN20051014212509310/14/05 21:25:31  5-MIN KMSN 150325Z 31006KT 10SM CLR 16/04 A2998 800 45 1200 310/06 RMK AO2
14837KMSN MSN20051014213009310/14/05 21:30:31  5-MIN KMSN 150330Z 30007KT 10SM CLR 16/04 A2999 800 45 1200 300/07 RMK AO2
14837KMSN MSN20051014213509310/14/05 21:35:31  5-MIN KMSN 150335Z 29009KT 10SM CLR 16/04 A2998 800 44 1200 290/09 RMK AO2
14837KMSN MSN20051014214009310/14/05 21:40:31  5-MIN KMSN 150340Z 30009KT 10SM CLR 17/03 A2998 800 40 1200 300/09 RMK AO2
14837KMSN MSN20051014214509310/14/05 21:45:31  5-MIN KMSN 150345Z 30007KT 10SM CLR 16/03 A2999 800 42 1200 300/07 RMK AO2
14837KMSN MSN20051014215011010/14/05 21:50:31  5-MIN KMSN 150350Z 30006KT 10SM CLR 16/03 A2999 800 42 1200 300/06 RMK AO2 SLP154 T01610033
14837KMSN MSN20051014215509310/14/05 21:55:31  5-MIN KMSN 150355Z 30007KT 10SM CLR 16/03 A2999 800 42 1200 300/07 RMK AO2
14837KMSN MSN20051014220009310/14/05 22:00:31  5-MIN KMSN 150400Z 31008KT 10SM CLR 16/03 A2999 800 42 1200 310/08 RMK AO2
14837KMSN MSN20051014220509310/14/05 22:05:31  5-MIN KMSN 150405Z 30007KT 10SM CLR 16/03 A2999 800 42 1200 300/07 RMK AO2
14837KMSN MSN20051014221009310/14/05 22:10:31  5-MIN KMSN 150410Z 31007KT 10SM CLR 16/03 A2999 800 43 1100 310/07 RMK AO2
14837KMSN MSN20051014221509310/14/05 22:15:31  5-MIN KMSN 150415Z 31007KT 10SM CLR 16/03 A2999 800 43 1100 310/07 RMK AO2
14837KMSN MSN20051014222009310/14/05 22:20:31  5-MIN KMSN 150420Z 30008KT 10SM CLR 16/03 A3000 800 43 1100 300/08 RMK AO2
14837KMSN MSN20051014222509310/14/05 22:25:31  5-MIN KMSN 150425Z 31008KT 10SM CLR 15/03 A3000 790 45 1000 310/08 RMK AO2
14837KMSN MSN20051014223009310/14/05 22:30:31  5-MIN KMSN 150430Z 30007KT 10SM CLR 16/03 A3000 790 43 1100 300/07 RMK AO2
14837KMSN MSN20051014223509310/14/05 22:35:31  5-MIN KMSN 150435Z 30007KT 10SM CLR 15/03 A3000 790 45 1000 300/07 RMK AO2
14837KMSN MSN20051014224009310/14/05 22:40:31  5-MIN KMSN 150440Z 31008KT 10SM CLR 16/03 A3000 790 43 1100 310/08 RMK AO2
14837KMSN MSN20051014224509310/14/05 22:45:31  5-MIN KMSN 150445Z 30008KT 10SM CLR 15/03 A3000 790 45 1000 300/08 RMK AO2
14837KMSN MSN20051014225011010/14/05 22:50:31  5-MIN KMSN 150450Z 31008KT 10SM CLR 15/03 A3000 790 45 1000 310/08 RMK AO2 SLP158 T01500033
14837KMSN MSN20051014225509310/14/05 22:55:31  5-MIN KMSN 150455Z 31007KT 10SM CLR 15/03 A3000 790 45 1000 300/07 RMK AO2
14837KMSN MSN20051014230009310/14/05 23:00:31  5-MIN KMSN 150500Z 31007KT 10SM CLR 15/03 A3000 790 45 1000 300/07 RMK AO2
14837KMSN MSN20051014230509310/14/05 23:05:31  5-MIN KMSN 150505Z 31007KT 10SM CLR 15/03 A3000 790 45 1000 300/07 RMK AO2
14837KMSN MSN20051014231009210/14/05 23:10:31  5-MIN KMSN 150510Z 30007KT 10SM CLR 14/03 A3000 790 47 900 300/07 RMK AO2
14837KMSN MSN20051014231509210/14/05 23:15:31  5-MIN KMSN 150515Z 31007KT 10SM CLR 14/03 A3001 790 47 900 300/07 RMK AO2
14837KMSN MSN20051014232009210/14/05 23:20:31  5-MIN KMSN 150520Z 30007KT 10SM CLR 14/03 A3001 780 47 900 300/07 RMK AO2
14837KMSN MSN20051014232509210/14/05 23:25:31  5-MIN KMSN 150525Z 30007KT 10SM CLR 14/03 A3001 780 47 900 300/07 RMK AO2
14837KMSN MSN20051014233009210/14/05 23:30:31  5-MIN KMSN 150530Z 30007KT 10SM CLR 14/03 A3001 780 47 900 300/07 RMK AO2
14837KMSN MSN20051014233509210/14/05 23:35:31  5-MIN KMSN 150535Z 31007KT 10SM CLR 14/03 A3001 780 48 900 300/07 RMK AO2
14837KMSN MSN20051014234009210/14/05 23:40:31  5-MIN KMSN 150540Z 31007KT 10SM CLR 14/03 A3001 780 48 900 300/07 RMK AO2
14837KMSN MSN20051014234509210/14/05 23:45:31  5-MIN KMSN 150545Z 30006KT 10SM CLR 14/03 A3001 780 48 900 300/06 RMK AO2
14837KMSN MSN20051014235013710/14/05 23:50:31  5-MIN KMSN 150550Z 30007KT 10SM CLR 14/03 A3001 780 48 900 300/07 RMK AO2 SLP161 T01390033 10194 20139 402280056 53013
14837KMSN MSN20051014235509210/14/05 23:55:31  5-MIN KMSN 150555Z 30008KT 10SM CLR 14/03 A3001 780 48 900 300/08 RMK AO2
14837KMSN MSN20051015000009210/15/05 00:00:38  5-MIN KMSN 150600Z 31006KT 10SM CLR 13/03 A3001 780 50 800 300/06 RMK AO2
14837KMSN MSN20051015000509210/15/05 00:05:31  5-MIN KMSN 150605Z 30007KT 10SM CLR 14/03 A3001 780 48 900 300/07 RMK AO2
14837KMSN MSN20051015001009210/15/05 00:10:31  5-MIN KMSN 150610Z 30007KT 10SM CLR 13/03 A3001 780 50 800 300/07 RMK AO2
14837KMSN MSN20051015001509210/15/05 00:15:32  5-MIN KMSN 150615Z 30006KT 10SM CLR 13/03 A3001 780 50 800 300/06 RMK AO2
14837KMSN MSN20051015002009210/15/05 00:20:31  5-MIN KMSN 150620Z 30006KT 10SM CLR 13/03 A3001 780 52 700 300/06 RMK AO2
14837KMSN MSN20051015002509210/15/05 00:25:31  5-MIN KMSN 150625Z 29006KT 10SM CLR 13/03 A3002 780 50 800 290/06 RMK AO2
14837KMSN MSN20051015003009210/15/05 00:30:31  5-MIN KMSN 150630Z 30005KT 10SM CLR 13/03 A3002 780 52 700 300/05 RMK AO2
14837KMSN MSN20051015003509210/15/05 00:35:31  5-MIN KMSN 150635Z 30006KT 10SM CLR 13/03 A3002 780 52 700 290/06 RMK AO2
14837KMSN MSN20051015004009210/15/05 00:40:31  5-MIN KMSN 150640Z 29006KT 10SM CLR 13/03 A3002 780 52 700 290/06 RMK AO2
14837KMSN MSN20051015004509210/15/05 00:45:31  5-MIN KMSN 150645Z 30006KT 10SM CLR 13/03 A3002 770 52 700 290/06 RMK AO2
14837KMSN MSN20051015005010910/15/05 00:50:31  5-MIN KMSN 150650Z 30005KT 10SM CLR 12/03 A3002 770 54 700 300/05 RMK AO2 SLP164 T01220033
14837KMSN MSN20051015005509210/15/05 00:55:31  5-MIN KMSN 150655Z 30006KT 10SM CLR 13/03 A3002 770 52 700 300/06 RMK AO2
14837KMSN MSN20051015010009210/15/05 01:00:31  5-MIN KMSN 150700Z 30008KT 10SM CLR 12/03 A3002 770 54 700 300/08 RMK AO2
14837KMSN MSN20051015010509210/15/05 01:05:31  5-MIN KMSN 150705Z 30007KT 10SM CLR 13/03 A3002 770 52 700 300/07 RMK AO2
14837KMSN MSN20051015011009210/15/05 01:10:31  5-MIN KMSN 150710Z 30007KT 10SM CLR 12/03 A3002 770 54 700 300/07 RMK AO2
14837KMSN MSN20051015011509210/15/05 01:15:31  5-MIN KMSN 150715Z 30008KT 10SM CLR 12/03 A3002 770 54 700 300/08 RMK AO2
14837KMSN MSN20051015012009210/15/05 01:20:31  5-MIN KMSN 150720Z 30007KT 10SM CLR 12/03 A3002 770 54 700 300/07 RMK AO2
14837KMSN MSN20051015012509210/15/05 01:25:31  5-MIN KMSN 150725Z 30006KT 10SM CLR 12/03 A3002 770 54 700 300/06 RMK AO2
14837KMSN MSN20051015013009210/15/05 01:30:31  5-MIN KMSN 150730Z 30005KT 10SM CLR 12/03 A3002 770 54 700 300/05 RMK AO2
14837KMSN MSN20051015013509210/15/05 01:35:31  5-MIN KMSN 150735Z 31006KT 10SM CLR 12/03 A3002 770 56 600 300/06 RMK AO2
14837KMSN MSN20051015014009210/15/05 01:40:31  5-MIN KMSN 150740Z 31005KT 10SM CLR 12/03 A3002 770 56 600 300/05 RMK AO2
14837KMSN MSN20051015014509210/15/05 01:45:31  5-MIN KMSN 150745Z 30006KT 10SM CLR 12/03 A3002 770 56 600 300/06 RMK AO2
14837KMSN MSN20051015015010910/15/05 01:50:31  5-MIN KMSN 150750Z 31005KT 10SM CLR 12/03 A3003 770 56 600 310/05 RMK AO2 SLP166 T01170033
14837KMSN MSN20051015015509210/15/05 01:55:31  5-MIN KMSN 150755Z 31005KT 10SM CLR 12/03 A3003 770 56 600 300/05 RMK AO2
14837KMSN MSN20051015020009210/15/05 02:00:31  5-MIN KMSN 150800Z 30005KT 10SM CLR 12/03 A3003 770 56 600 300/05 RMK AO2
14837KMSN MSN20051015020509210/15/05 02:05:31  5-MIN KMSN 150805Z VRB04KT 10SM CLR 11/03 A3003 770 58 500 VRB/04 RMK AO2
14837KMSN MSN20051015021009210/15/05 02:10:31  5-MIN KMSN 150810Z 31005KT 10SM CLR 11/03 A3003 770 58 500 310/05 RMK AO2
14837KMSN MSN20051015021509210/15/05 02:15:31  5-MIN KMSN 150815Z 31004KT 10SM CLR 11/03 A3003 770 58 500 310/04 RMK AO2
14837KMSN MSN20051015022009210/15/05 02:20:31  5-MIN KMSN 150820Z 32006KT 10SM CLR 11/03 A3003 770 58 500 310/06 RMK AO2
14837KMSN MSN20051015022509210/15/05 02:25:31  5-MIN KMSN 150825Z 31006KT 10SM CLR 11/03 A3003 770 58 500 310/06 RMK AO2
14837KMSN MSN20051015023009210/15/05 02:30:31  5-MIN KMSN 150830Z 31008KT 10SM CLR 11/03 A3003 770 58 500 310/08 RMK AO2
14837KMSN MSN20051015023509210/15/05 02:35:31  5-MIN KMSN 150835Z 31006KT 10SM CLR 11/03 A3003 760 58 500 310/06 RMK AO2
14837KMSN MSN20051015024009210/15/05 02:40:31  5-MIN KMSN 150840Z 31007KT 10SM CLR 11/03 A3003 760 58 500 310/07 RMK AO2
14837KMSN MSN20051015024509210/15/05 02:45:31  5-MIN KMSN 150845Z VRB05KT 10SM CLR 11/03 A3003 760 58 500 VRB/05 RMK AO2
14837KMSN MSN20051015025011510/15/05 02:50:31  5-MIN KMSN 150850Z 31006KT 10SM CLR 11/03 A3003 760 61 400 310/06 RMK AO2 SLP169 T01060033 51011
14837KMSN MSN20051015025509210/15/05 02:55:31  5-MIN KMSN 150855Z 31006KT 10SM CLR 11/03 A3003 760 61 400 310/06 RMK AO2
14837KMSN MSN20051015030009210/15/05 03:00:31  5-MIN KMSN 150900Z 31005KT 10SM CLR 11/03 A3004 760 61 400 310/05 RMK AO2
14837KMSN MSN20051015030509210/15/05 03:05:31  5-MIN KMSN 150905Z 30006KT 10SM CLR 11/03 A3004 760 61 400 300/06 RMK AO2
14837KMSN MSN20051015031009210/15/05 03:10:31  5-MIN KMSN 150910Z 30004KT 10SM CLR 11/03 A3004 750 61 400 300/04 RMK AO2
14837KMSN MSN20051015031509210/15/05 03:15:31  5-MIN KMSN 150915Z 30004KT 10SM CLR 11/03 A3004 750 61 400 300/04 RMK AO2
14837KMSN MSN20051015032009210/15/05 03:20:31  5-MIN KMSN 150920Z 30004KT 10SM CLR 10/03 A3004 750 63 400 300/04 RMK AO2
14837KMSN MSN20051015032509210/15/05 03:25:31  5-MIN KMSN 150925Z 30005KT 10SM CLR 10/03 A3004 750 63 400 300/05 RMK AO2
14837KMSN MSN20051015033009210/15/05 03:30:31  5-MIN KMSN 150930Z 30004KT 10SM CLR 10/03 A3004 750 63 400 300/04 RMK AO2
14837KMSN MSN20051015033509210/15/05 03:35:31  5-MIN KMSN 150935Z 30004KT 10SM CLR 10/03 A3004 750 63 400 300/04 RMK AO2
14837KMSN MSN20051015034009210/15/05 03:40:31  5-MIN KMSN 150940Z 30004KT 10SM CLR 10/03 A3004 750 63 400 300/04 RMK AO2
14837KMSN MSN20051015034509210/15/05 03:45:31  5-MIN KMSN 150945Z VRB03KT 10SM CLR 10/03 A3004 750 63 400 VRB/03 RMK AO2
14837KMSN MSN20051015035010910/15/05 03:50:31  5-MIN KMSN 150950Z 28004KT 10SM CLR 09/03 A3005 750 65 300 270/04 RMK AO2 SLP173 T00940033
14837KMSN MSN20051015035509210/15/05 03:55:31  5-MIN KMSN 150955Z 27004KT 10SM CLR 09/03 A3005 750 65 300 270/04 RMK AO2
14837KMSN MSN20051015040009210/15/05 04:00:31  5-MIN KMSN 151000Z 28003KT 10SM CLR 09/03 A3005 750 65 300 280/03 RMK AO2
14837KMSN MSN20051015040509210/15/05 04:05:31  5-MIN KMSN 151005Z 28003KT 10SM CLR 09/03 A3005 750 65 300 280/03 RMK AO2
14837KMSN MSN20051015041009210/15/05 04:10:31  5-MIN KMSN 151010Z 28003KT 10SM CLR 09/03 A3005 750 68 200 270/03 RMK AO2
14837KMSN MSN20051015041509210/15/05 04:15:31  5-MIN KMSN 151015Z 28003KT 10SM CLR 09/03 A3005 750 68 200 280/03 RMK AO2
14837KMSN MSN20051015042009210/15/05 04:20:31  5-MIN KMSN 151020Z 29003KT 10SM CLR 09/03 A3005 750 68 200 290/03 RMK AO2
14837KMSN MSN20051015042509210/15/05 04:25:31  5-MIN KMSN 151025Z VRB03KT 10SM CLR 09/03 A3005 740 68 200 VRB/03 RMK AO2
14837KMSN MSN20051015043009210/15/05 04:30:31  5-MIN KMSN 151030Z 29003KT 10SM CLR 09/03 A3005 740 68 200 280/03 RMK AO2
14837KMSN MSN20051015043509210/15/05 04:35:31  5-MIN KMSN 151035Z 27003KT 10SM CLR 09/03 A3006 740 68 200 270/03 RMK AO2
14837KMSN MSN20051015044009210/15/05 04:40:31  5-MIN KMSN 151040Z 26003KT 10SM CLR 09/03 A3006 740 68 200 260/03 RMK AO2
14837KMSN MSN20051015044509210/15/05 04:45:31  5-MIN KMSN 151045Z VRB03KT 10SM CLR 09/03 A3006 740 68 200 VRB/03 RMK AO2
14837KMSN MSN20051015045010910/15/05 04:50:31  5-MIN KMSN 151050Z 27003KT 10SM CLR 09/03 A3006 730 68 200 270/03 RMK AO2 SLP180 T00890033
14837KMSN MSN20051015045509210/15/05 04:55:31  5-MIN KMSN 151055Z 26003KT 10SM CLR 09/03 A3006 730 68 200 260/03 RMK AO2
14837KMSN MSN20051015050009210/15/05 05:00:31  5-MIN KMSN 151100Z 27004KT 10SM CLR 09/03 A3007 730 68 200 270/04 RMK AO2
14837KMSN MSN20051015050509210/15/05 05:05:31  5-MIN KMSN 151105Z 28003KT 10SM CLR 09/03 A3007 730 68 200 280/03 RMK AO2
14837KMSN MSN20051015051009210/15/05 05:10:31  5-MIN KMSN 151110Z 28003KT 10SM CLR 08/03 A3007 730 70 100 280/03 RMK AO2
14837KMSN MSN20051015051509210/15/05 05:15:31  5-MIN KMSN 151115Z 29003KT 10SM CLR 08/03 A3007 730 70 100 290/03 RMK AO2
14837KMSN MSN20051015052009210/15/05 05:20:31  5-MIN KMSN 151120Z 00000KT 10SM CLR 08/03 A3007 730 68 100 000/00 RMK AO2
14837KMSN MSN20051015052509210/15/05 05:25:31  5-MIN KMSN 151125Z 27003KT 10SM CLR 08/03 A3007 730 70 100 270/03 RMK AO2
14837KMSN MSN20051015053009210/15/05 05:30:31  5-MIN KMSN 151130Z 00000KT 10SM CLR 08/03 A3007 730 68 100 000/00 RMK AO2
14837KMSN MSN20051015053509210/15/05 05:35:31  5-MIN KMSN 151135Z 00000KT 10SM CLR 08/03 A3007 730 68 100 000/00 RMK AO2
14837KMSN MSN20051015054009210/15/05 05:40:31  5-MIN KMSN 151140Z 00000KT 10SM CLR 08/03 A3007 730 68 100 000/00 RMK AO2
14837KMSN MSN20051015054509210/15/05 05:45:31  5-MIN KMSN 151145Z 28004KT 10SM CLR 08/03 A3007 730 70 100 280/04 RMK AO2
14837KMSN MSN20051015055012710/15/05 05:50:31  5-MIN KMSN 151150Z 29003KT 10SM CLR 08/03 A3007 730 70 100 290/03 RMK AO2 SLP185 T00780028 10139 20078 51008
14837KMSN MSN20051015055509210/15/05 05:55:31  5-MIN KMSN 151155Z 00000KT 10SM CLR 08/03 A3007 730 70 100 000/00 RMK AO2
14837KMSN MSN20051015060009210/15/05 06:00:31  5-MIN KMSN 151200Z 00000KT 10SM CLR 08/03 A3007 720 70 100 000/00 RMK AO2
14837KMSN MSN20051015060509210/15/05 06:05:31  5-MIN KMSN 151205Z 30003KT 10SM CLR 08/03 A3008 720 70 100 290/03 RMK AO2
14837KMSN MSN20051015061009010/15/05 06:10:31  5-MIN KMSN 151210Z 30003KT 10SM CLR 07/03 A3008 720 73 0 300/03 RMK AO2
14837KMSN MSN20051015061509010/15/05 06:15:31  5-MIN KMSN 151215Z 28004KT 10SM CLR 07/03 A3008 720 76 0 280/04 RMK AO2
14837KMSN MSN20051015062009310/15/05 06:20:31  5-MIN KMSN 151220Z 27003KT 10SM CLR 06/03 A3008 720 79 -100 270/03 RMK AO2
14837KMSN MSN20051015062509010/15/05 06:25:31  5-MIN KMSN 151225Z 00000KT 10SM CLR 07/03 A3008 720 73 0 000/00 RMK AO2
14837KMSN MSN20051015063009010/15/05 06:30:31  5-MIN KMSN 151230Z 00000KT 10SM CLR 07/03 A3008 720 73 0 000/00 RMK AO2
14837KMSN MSN20051015063509210/15/05 06:35:31  5-MIN KMSN 151235Z 00000KT 10SM CLR 08/03 A3008 710 70 100 000/00 RMK AO2
14837KMSN MSN20051015064009210/15/05 06:40:31  5-MIN KMSN 151240Z 00000KT 10SM CLR 08/03 A3008 710 70 100 000/00 RMK AO2
14837KMSN MSN20051015064509210/15/05 06:45:31  5-MIN KMSN 151245Z 00000KT 10SM CLR 08/03 A3008 710 70 100 000/00 RMK AO2
14837KMSN MSN20051015065010910/15/05 06:50:31  5-MIN KMSN 151250Z 00000KT 10SM CLR 08/03 A3009 710 70 100 000/00 RMK AO2 SLP189 T00780028
14837KMSN MSN20051015065509210/15/05 06:55:31  5-MIN KMSN 151255Z VRB03KT 10SM CLR 08/03 A3008 710 70 100 VRB/03 RMK AO2
14837KMSN MSN20051015070009210/15/05 07:00:31  5-MIN KMSN 151300Z VRB04KT 10SM CLR 08/03 A3009 710 70 100 VRB/04 RMK AO2
14837KMSN MSN20051015070509210/15/05 07:05:31  5-MIN KMSN 151305Z VRB03KT 10SM CLR 09/03 A3009 710 68 200 VRB/03 RMK AO2
14837KMSN MSN20051015071009210/15/05 07:10:31  5-MIN KMSN 151310Z VRB04KT 10SM CLR 09/03 A3009 710 68 200 VRB/04 RMK AO2
14837KMSN MSN20051015071509210/15/05 07:15:31  5-MIN KMSN 151315Z VRB04KT 10SM CLR 09/03 A3009 710 68 200 VRB/04 RMK AO2
14837KMSN MSN20051015072009210/15/05 07:20:31  5-MIN KMSN 151320Z VRB06KT 10SM CLR 09/03 A3009 710 65 300 VRB/06 RMK AO2
14837KMSN MSN20051015072509210/15/05 07:25:31  5-MIN KMSN 151325Z VRB04KT 10SM CLR 09/03 A3009 710 65 300 VRB/04 RMK AO2
14837KMSN MSN20051015073009210/15/05 07:30:31  5-MIN KMSN 151330Z 27005KT 10SM CLR 09/03 A3009 710 65 300 270/05 RMK AO2
14837KMSN MSN20051015073509210/15/05 07:35:31  5-MIN KMSN 151335Z VRB04KT 10SM CLR 10/04 A3009 710 65 300 VRB/04 RMK AO2
14837KMSN MSN20051015074009210/15/05 07:40:31  5-MIN KMSN 151340Z 28006KT 10SM CLR 10/04 A3009 710 65 300 280/06 RMK AO2
14837KMSN MSN20051015074509210/15/05 07:45:31  5-MIN KMSN 151345Z 29007KT 10SM CLR 10/04 A3009 710 65 300 290/07 RMK AO2
14837KMSN MSN20051015075010910/15/05 07:50:31  5-MIN KMSN 151350Z 30007KT 10SM CLR 11/04 A3009 700 63 400 290/07 RMK AO2 SLP191 T01060039
14837KMSN MSN20051015075510810/15/05 07:55:31  5-MIN KMSN 151355Z 29007KT 250V310 10SM CLR 11/04 A3009 700 63 400 290/07 250V310 RMK AO2
14837KMSN MSN20051015080009210/15/05 08:00:31  5-MIN KMSN 151400Z 28006KT 10SM CLR 11/04 A3010 700 63 400 280/06 RMK AO2
14837KMSN MSN20051015080509210/15/05 08:05:31  5-MIN KMSN 151405Z 28006KT 10SM CLR 11/04 A3010 700 61 400 280/06 RMK AO2
14837KMSN MSN20051015081009210/15/05 08:10:31  5-MIN KMSN 151410Z VRB05KT 10SM CLR 11/04 A3010 700 63 400 VRB/05 RMK AO2
14837KMSN MSN20051015081509210/15/05 08:15:31  5-MIN KMSN 151415Z 30006KT 10SM CLR 12/04 A3010 700 61 500 300/06 RMK AO2
14837KMSN MSN20051015082009210/15/05 08:20:31  5-MIN KMSN 151420Z 29006KT 10SM CLR 12/04 A3010 700 61 500 290/06 RMK AO2
14837KMSN MSN20051015082509210/15/05 08:25:31  5-MIN KMSN 151425Z 30007KT 10SM CLR 12/04 A3010 700 58 500 290/07 RMK AO2
14837KMSN MSN20051015083010810/15/05 08:30:31  5-MIN KMSN 151430Z 30007KT 260V320 10SM CLR 12/04 A3009 700 61 500 300/07 260V320 RMK AO2
14837KMSN MSN20051015083509210/15/05 08:35:31  5-MIN KMSN 151435Z 31007KT 10SM CLR 12/04 A3010 700 56 600 310/07 RMK AO2
14837KMSN MSN20051015084009210/15/05 08:40:31  5-MIN KMSN 151440Z 29009KT 10SM CLR 12/04 A3009 700 56 600 290/09 RMK AO2
14837KMSN MSN20051015084509210/15/05 08:45:31  5-MIN KMSN 151445Z VRB05KT 10SM CLR 13/04 A3010 700 54 600 VRB/05 RMK AO2
14837KMSN MSN20051015085011510/15/05 08:50:31  5-MIN KMSN 151450Z 29008KT 10SM CLR 13/04 A3010 700 54 600 290/08 RMK AO2 SLP192 T01280039 51012
14837KMSN MSN20051015085509210/15/05 08:55:31  5-MIN KMSN 151455Z 31007KT 10SM CLR 13/04 A3009 700 54 600 310/07 RMK AO2
14837KMSN MSN20051015090009210/15/05 09:00:31  5-MIN KMSN 151500Z 31007KT 10SM CLR 13/04 A3010 700 52 700 310/07 RMK AO2
14837KMSN MSN20051015090509210/15/05 09:05:31  5-MIN KMSN 151505Z 30008KT 10SM CLR 13/04 A3010 700 52 700 300/08 RMK AO2
14837KMSN MSN20051015091010810/15/05 09:10:31  5-MIN KMSN 151510Z 29007KT 250V020 10SM CLR 14/04 A3009 700 50 800 290/07 250V020 RMK AO2
14837KMSN MSN20051015091510810/15/05 09:15:31  5-MIN KMSN 151515Z 29008KT 260V320 10SM CLR 14/03 A3009 710 48 800 290/08 260V320 RMK AO2
14837KMSN MSN20051015092010810/15/05 09:20:31  5-MIN KMSN 151520Z 31009KT 270V340 10SM CLR 14/04 A3009 710 50 800 300/09 270V340 RMK AO2
14837KMSN MSN20051015092510810/15/05 09:25:31  5-MIN KMSN 151525Z 29009KT 260V330 10SM CLR 14/03 A3009 710 48 800 290/09 260V330 RMK AO2
14837KMSN MSN20051015093009210/15/05 09:30:31  5-MIN KMSN 151530Z 32011KT 10SM CLR 14/03 A3009 710 48 800 310/11 RMK AO2
14837KMSN MSN20051015093509210/15/05 09:35:31  5-MIN KMSN 151535Z 30010KT 10SM CLR 14/03 A3009 710 47 800 300/10 RMK AO2
14837KMSN MSN20051015094009210/15/05 09:40:31  5-MIN KMSN 151540Z 33008KT 10SM CLR 15/04 A3009 710 47 900 330/08 RMK AO2
14837KMSN MSN20051015094509810/15/05 09:45:31  5-MIN KMSN 151545Z 32012G17KT 10SM CLR 14/03 A3009 710 47 800 320/12G17 RMK AO2
14837KMSN MSN20051015095011510/15/05 09:50:31  5-MIN KMSN 151550Z 31011G17KT 10SM CLR 14/03 A3009 710 47 900 310/11G17 RMK AO2 SLP188 T01440033
14837KMSN MSN20051015095509810/15/05 09:55:31  5-MIN KMSN 151555Z 31010G18KT 10SM CLR 14/03 A3009 710 47 900 310/10G18 RMK AO2
14837KMSN MSN20051015100009810/15/05 10:00:31  5-MIN KMSN 151600Z 32011G18KT 10SM CLR 15/03 A3009 710 43 900 320/11G18 RMK AO2
14837KMSN MSN20051015100510810/15/05 10:05:31  5-MIN KMSN 151605Z 30011KT 260V330 10SM CLR 15/03 A3009 710 43 900 300/11 260V330 RMK AO2
14837KMSN MSN20051015101009210/15/05 10:10:31  5-MIN KMSN 151610Z 31012KT 10SM CLR 15/03 A3009 710 43 900 310/12 RMK AO2
14837KMSN MSN20051015101509210/15/05 10:15:31  5-MIN KMSN 151615Z 31008KT 10SM CLR 15/03 A3009 710 43 900 310/08 RMK AO2
14837KMSN MSN20051015102009310/15/05 10:20:31  5-MIN KMSN 151620Z 32010KT 10SM CLR 16/03 A3009 710 42 1000 310/10 RMK AO2
14837KMSN MSN20051015102509910/15/05 10:25:31  5-MIN KMSN 151625Z 32011G16KT 10SM CLR 16/02 A3009 710 40 1000 320/11G16 RMK AO2
14837KMSN MSN20051015103009810/15/05 10:30:31  5-MIN KMSN 151630Z 30008G16KT 10SM CLR 15/02 A3009 710 42 900 300/08G16 RMK AO2
14837KMSN MSN20051015103509910/15/05 10:35:31  5-MIN KMSN 151635Z 30013G17KT 10SM CLR 16/02 A3009 710 40 1000 290/13G17 RMK AO2
14837KMSN MSN20051015104009910/15/05 10:40:31  5-MIN KMSN 151640Z 31011G17KT 10SM CLR 16/02 A3008 710 39 1000 300/11G17 RMK AO2
14837KMSN MSN20051015104509910/15/05 10:45:31  5-MIN KMSN 151645Z 30013G16KT 10SM CLR 16/02 A3008 710 39 1000 300/13G16 RMK AO2
14837KMSN MSN20051015105011610/15/05 10:50:31  5-MIN KMSN 151650Z 30013G16KT 10SM CLR 16/02 A3008 710 39 1000 300/13G16 RMK AO2 SLP187 T01560017
14837KMSN MSN20051015105509910/15/05 10:55:31  5-MIN KMSN 151655Z 31011G17KT 10SM CLR 16/02 A3008 720 39 1100 300/11G17 RMK AO2
14837KMSN MSN20051015110009910/15/05 11:00:31  5-MIN KMSN 151700Z 32013G18KT 10SM CLR 16/02 A3008 720 39 1100 320/13G18 RMK AO2
14837KMSN MSN20051015110509910/15/05 11:05:31  5-MIN KMSN 151705Z 31012G18KT 10SM CLR 16/02 A3007 720 37 1100 310/12G18 RMK AO2
14837KMSN MSN20051015111011510/15/05 11:10:31  5-MIN KMSN 151710Z 29010G18KT 250V320 10SM CLR 16/02 A3007 730 37 1100 290/10G18 250V320 RMK AO2
14837KMSN MSN20051015111509310/15/05 11:15:31  5-MIN KMSN 151715Z 30010KT 10SM CLR 17/02 A3007 720 37 1100 300/10 RMK AO2
14837KMSN MSN20051015112009910/15/05 11:20:31  5-MIN KMSN 151720Z 30010G18KT 10SM CLR 16/01 A3007 730 36 1100 300/10G18 RMK AO2
14837KMSN MSN20051015112509910/15/05 11:25:31  5-MIN KMSN 151725Z 30011G18KT 10SM CLR 16/01 A3007 730 36 1100 300/11G18 RMK AO2
14837KMSN MSN20051015113009910/15/05 11:30:31  5-MIN KMSN 151730Z 31015G21KT 10SM CLR 16/01 A3007 730 34 1100 310/15G21 RMK AO2
14837KMSN MSN20051015113509910/15/05 11:35:31  5-MIN KMSN 151735Z 29010G21KT 10SM CLR 17/01 A3006 730 33 1100 290/10G21 RMK AO2
14837KMSN MSN20051015114011510/15/05 11:40:31  5-MIN KMSN 151740Z 30010G19KT 280V340 10SM CLR 17/01 A3006 730 33 1100 300/10G19 280V340 RMK AO2
14837KMSN MSN20051015114509910/15/05 11:45:31  5-MIN KMSN 151745Z 30011G17KT 10SM CLR 17/01 A3006 730 34 1100 300/11G17 RMK AO2
14837KMSN MSN20051015115013410/15/05 11:50:31  5-MIN KMSN 151750Z 29011G17KT 10SM CLR 17/01 A3006 740 34 1100 280/11G17 RMK AO2 SLP178 T01670011 10167 20061 51008
14837KMSN MSN20051015115509910/15/05 11:55:31  5-MIN KMSN 151755Z 30012G16KT 10SM CLR 17/01 A3006 740 34 1100 300/12G16 RMK AO2
14837KMSN MSN20051015120011510/15/05 12:00:31  5-MIN KMSN 151800Z 28011G18KT 230V320 10SM CLR 17/01 A3006 740 34 1100 270/11G18 230V320 RMK AO2
14837KMSN MSN20051015120509910/15/05 12:05:31  5-MIN KMSN 151805Z 28010G18KT 10SM CLR 17/02 A3005 740 36 1200 270/10G18 RMK AO2
14837KMSN MSN20051015121009910/15/05 12:10:31  5-MIN KMSN 151810Z 30010G16KT 10SM CLR 17/01 A3005 740 33 1200 300/10G16 RMK AO2
14837KMSN MSN20051015121511510/15/05 12:15:31  5-MIN KMSN 151815Z 29010G16KT 230V320 10SM CLR 17/01 A3005 740 33 1200 290/10G16 230V320 RMK AO2
14837KMSN MSN20051015122009910/15/05 12:20:31  5-MIN KMSN 151820Z 31012G18KT 10SM CLR 17/01 A3005 750 32 1200 310/12G18 RMK AO2
14837KMSN MSN20051015122509910/15/05 12:25:31  5-MIN KMSN 151825Z 31010G18KT 10SM CLR 17/01 A3005 750 32 1200 310/10G18 RMK AO2
14837KMSN MSN20051015123009910/15/05 12:30:31  5-MIN KMSN 151830Z 28012G18KT 10SM CLR 17/01 A3005 750 32 1200 280/12G18 RMK AO2
14837KMSN MSN20051015123511510/15/05 12:35:31  5-MIN KMSN 151835Z 30008G18KT 270V330 10SM CLR 17/00 A3004 750 31 1200 300/08G18 270V330 RMK AO2
14837KMSN MSN20051015124009910/15/05 12:40:31  5-MIN KMSN 151840Z 30010G19KT 10SM CLR 17/00 A3004 750 31 1200 300/10G19 RMK AO2
14837KMSN MSN20051015124509910/15/05 12:45:31  5-MIN KMSN 151845Z 29009G19KT 10SM CLR 18/00 A3004 750 30 1300 290/09G19 RMK AO2
14837KMSN MSN20051015125013210/15/05 12:50:31  5-MIN KMSN 151850Z 28012G19KT 260V330 10SM CLR 18/00 A3004 750 30 1300 280/12G19 260V330 RMK AO2 SLP172 T01780000
14837KMSN MSN20051015125510010/15/05 12:55:31  5-MIN KMSN 151855Z 30013G19KT 10SM CLR 17/M01 A3004 760 28 1200 300/13G19 RMK AO2
14837KMSN MSN20051015130011010/15/05 13:00:31  5-MIN KMSN 151900Z 30010KT 270V340 10SM CLR 17/M01 A3004 760 28 1200 300/10 270V340 RMK AO2
14837KMSN MSN20051015130510910/15/05 13:05:31  5-MIN KMSN 151905Z 29010KT 270V330 10SM CLR 18/00 A3004 760 30 1300 290/10 270V330 RMK AO2
14837KMSN MSN20051015131010010/15/05 13:10:31  5-MIN KMSN 151910Z 29011G16KT 10SM CLR 18/M01 A3003 760 28 1300 290/11G16 RMK AO2
14837KMSN MSN20051015131509410/15/05 13:15:31  5-MIN KMSN 151915Z 31014KT 10SM CLR 18/M01 A3003 760 27 1300 310/14 RMK AO2
14837KMSN MSN20051015132010010/15/05 13:20:31  5-MIN KMSN 151920Z 31012G18KT 10SM CLR 18/M02 A3003 760 26 1300 310/12G18 RMK AO2
14837KMSN MSN20051015132511610/15/05 13:25:31  5-MIN KMSN 151925Z 30010G18KT 270V330 10SM CLR 18/M01 A3003 760 27 1300 300/10G18 270V330 RMK AO2
14837KMSN MSN20051015133010010/15/05 13:30:31  5-MIN KMSN 151930Z 31011G17KT 10SM CLR 18/M02 A3003 760 26 1300 310/11G17 RMK AO2
14837KMSN MSN20051015133510010/15/05 13:35:31  5-MIN KMSN 151935Z 32012G17KT 10SM CLR 18/M02 A3003 760 25 1400 320/12G17 RMK AO2
14837KMSN MSN20051015134010010/15/05 13:40:31  5-MIN KMSN 151940Z 30010G16KT 10SM CLR 18/M02 A3003 760 25 1400 300/10G16 RMK AO2
14837KMSN MSN20051015134510010/15/05 13:45:31  5-MIN KMSN 151945Z 30011G15KT 10SM CLR 18/M02 A3003 760 26 1300 290/11G15 RMK AO2
14837KMSN MSN20051015135011710/15/05 13:50:31  5-MIN KMSN 151950Z 29011G16KT 10SM CLR 18/M02 A3003 770 26 1300 290/11G16 RMK AO2 SLP168 T01781017
14837KMSN MSN20051015135510010/15/05 13:55:31  5-MIN KMSN 151955Z 31010G17KT 10SM CLR 18/M02 A3003 770 26 1300 310/10G17 RMK AO2
14837KMSN MSN20051015140010010/15/05 14:00:31  5-MIN KMSN 152000Z 30011G19KT 10SM CLR 18/M02 A3003 770 25 1300 290/11G19 RMK AO2
14837KMSN MSN20051015140510010/15/05 14:05:31  5-MIN KMSN 152005Z 30012G19KT 10SM CLR 18/M02 A3003 770 25 1300 300/12G19 RMK AO2
14837KMSN MSN20051015141010010/15/05 14:10:31  5-MIN KMSN 152010Z 31012G17KT 10SM CLR 18/M02 A3003 770 25 1300 310/12G17 RMK AO2
14837KMSN MSN20051015141510010/15/05 14:15:31  5-MIN KMSN 152015Z 30013G19KT 10SM CLR 18/M02 A3003 770 24 1400 300/13G19 RMK AO2
14837KMSN MSN20051015142010010/15/05 14:20:31  5-MIN KMSN 152020Z 30008G19KT 10SM CLR 18/M02 A3003 770 25 1300 300/08G19 RMK AO2
14837KMSN MSN20051015142510010/15/05 14:25:31  5-MIN KMSN 152025Z 31016G20KT 10SM CLR 18/M02 A3003 770 25 1300 310/16G20 RMK AO2
14837KMSN MSN20051015143010010/15/05 14:30:31  5-MIN KMSN 152030Z 30011G20KT 10SM CLR 18/M03 A3003 770 24 1300 300/11G20 RMK AO2
14837KMSN MSN20051015143510010/15/05 14:35:31  5-MIN KMSN 152035Z 30014G19KT 10SM CLR 18/M02 A3003 770 25 1300 300/14G19 RMK AO2
14837KMSN MSN20051015144010010/15/05 14:40:31  5-MIN KMSN 152040Z 31013G18KT 10SM CLR 18/M02 A3003 770 25 1300 310/13G18 RMK AO2
14837KMSN MSN20051015144510010/15/05 14:45:31  5-MIN KMSN 152045Z 28012G18KT 10SM CLR 18/M02 A3003 770 26 1300 280/12G18 RMK AO2
14837KMSN MSN20051015145012310/15/05 14:50:31  5-MIN KMSN 152050Z 30010G16KT 10SM CLR 18/M02 A3003 770 25 1300 300/10G16 RMK AO2 SLP169 T01781022 58012
14837KMSN MSN20051015145509410/15/05 14:55:31  5-MIN KMSN 152055Z 30010KT 10SM CLR 18/M02 A3003 770 25 1300 300/10 RMK AO2
14837KMSN MSN20051015150010010/15/05 15:00:31  5-MIN KMSN 152100Z 30009G19KT 10SM CLR 18/M02 A3003 770 25 1300 300/09G19 RMK AO2
14837KMSN MSN20051015150510010/15/05 15:05:31  5-MIN KMSN 152105Z 31013G19KT 10SM CLR 18/M02 A3003 770 25 1300 310/13G19 RMK AO2
14837KMSN MSN20051015151010010/15/05 15:10:31  5-MIN KMSN 152110Z 31012G18KT 10SM CLR 18/M02 A3003 770 25 1300 310/12G18 RMK AO2
14837KMSN MSN20051015151510010/15/05 15:15:31  5-MIN KMSN 152115Z 31009G15KT 10SM CLR 18/M02 A3003 770 26 1300 310/09G15 RMK AO2
14837KMSN MSN20051015152009410/15/05 15:20:31  5-MIN KMSN 152120Z 31011KT 10SM CLR 18/M02 A3002 770 26 1300 310/11 RMK AO2
14837KMSN MSN20051015152509410/15/05 15:25:31  5-MIN KMSN 152125Z 30013KT 10SM CLR 18/M02 A3003 770 26 1300 300/13 RMK AO2
14837KMSN MSN20051015153010010/15/05 15:30:31  5-MIN KMSN 152130Z 31014G19KT 10SM CLR 18/M03 A3003 770 24 1300 300/14G19 RMK AO2
14837KMSN MSN20051015153510010/15/05 15:35:31  5-MIN KMSN 152135Z 30013G19KT 10SM CLR 17/M03 A3003 770 25 1200 300/13G19 RMK AO2
14837KMSN MSN20051015154010010/15/05 15:40:31  5-MIN KMSN 152140Z 31013G18KT 10SM CLR 17/M02 A3003 770 26 1200 310/13G18 RMK AO2
14837KMSN MSN20051015154509410/15/05 15:45:31  5-MIN KMSN 152145Z 31011KT 10SM CLR 17/M02 A3003 770 26 1200 310/11 RMK AO2
14837KMSN MSN20051015155011110/15/05 15:50:31  5-MIN KMSN 152150Z 31010KT 10SM CLR 17/M02 A3003 770 27 1200 310/10 RMK AO2 SLP169 T01721017
14837KMSN MSN20051015155509410/15/05 15:55:31  5-MIN KMSN 152155Z 32011KT 10SM CLR 17/M02 A3003 770 27 1200 320/11 RMK AO2
14837KMSN MSN20051015160010010/15/05 16:00:31  5-MIN KMSN 152200Z 30011G20KT 10SM CLR 17/M02 A3003 770 27 1200 300/11G20 RMK AO2
14837KMSN MSN20051015160510010/15/05 16:05:31  5-MIN KMSN 152205Z 30010G20KT 10SM CLR 17/M02 A3003 760 27 1200 300/10G20 RMK AO2
14837KMSN MSN20051015161010010/15/05 16:10:31  5-MIN KMSN 152210Z 31009G17KT 10SM CLR 17/M02 A3003 760 28 1200 310/09G17 RMK AO2
14837KMSN MSN20051015161510010/15/05 16:15:31  5-MIN KMSN 152215Z 31008G16KT 10SM CLR 17/M01 A3003 760 29 1200 310/08G16 RMK AO2
14837KMSN MSN20051015162009410/15/05 16:20:31  5-MIN KMSN 152220Z 31009KT 10SM CLR 17/M01 A3003 760 29 1200 300/09 RMK AO2
14837KMSN MSN20051015162510010/15/05 16:25:31  5-MIN KMSN 152225Z 30009G14KT 10SM CLR 17/M01 A3003 760 29 1200 300/09G14 RMK AO2
14837KMSN MSN20051015163009410/15/05 16:30:31  5-MIN KMSN 152230Z 31009KT 10SM CLR 17/M02 A3003 760 28 1200 300/09 RMK AO2
14837KMSN MSN20051015163509410/15/05 16:35:31  5-MIN KMSN 152235Z 31008KT 10SM CLR 16/M02 A3003 760 29 1100 310/08 RMK AO2
14837KMSN MSN20051015164009410/15/05 16:40:31  5-MIN KMSN 152240Z 32008KT 10SM CLR 16/M01 A3003 760 30 1100 310/08 RMK AO2
14837KMSN MSN20051015164509410/15/05 16:45:31  5-MIN KMSN 152245Z 32006KT 10SM CLR 16/M01 A3003 760 31 1000 320/06 RMK AO2
14837KMSN MSN20051015165011110/15/05 16:50:31  5-MIN KMSN 152250Z 32006KT 10SM CLR 15/M01 A3004 760 33 1000 310/06 RMK AO2 SLP173 T01501011
14837KMSN MSN20051015165509410/15/05 16:55:31  5-MIN KMSN 152255Z 31006KT 10SM CLR 15/M01 A3004 760 34 1000 310/06 RMK AO2
14837KMSN MSN20051015170009410/15/05 17:00:31  5-MIN KMSN 152300Z 31005KT 10SM CLR 15/M01 A3004 750 34 1000 310/05 RMK AO2
14837KMSN MSN20051015170509310/15/05 17:05:31  5-MIN KMSN 152305Z 32005KT 10SM CLR 14/M01 A3004 750 35 900 320/05 RMK AO2
14837KMSN MSN20051015171009310/15/05 17:10:31  5-MIN KMSN 152310Z 31006KT 10SM CLR 14/M01 A3004 750 35 900 310/06 RMK AO2
14837KMSN MSN20051015171509310/15/05 17:15:31  5-MIN KMSN 152315Z 31005KT 10SM CLR 14/M01 A3004 750 35 900 300/05 RMK AO2
14837KMSN MSN20051015172009210/15/05 17:20:31  5-MIN KMSN 152320Z 31004KT 10SM CLR 14/00 A3004 750 38 800 310/04 RMK AO2
14837KMSN MSN20051015172509210/15/05 17:25:31  5-MIN KMSN 152325Z 31003KT 10SM CLR 14/00 A3005 750 38 800 300/03 RMK AO2
14837KMSN MSN20051015173009210/15/05 17:30:31  5-MIN KMSN 152330Z 00000KT 10SM CLR 13/00 A3005 750 40 800 000/00 RMK AO2
14837KMSN MSN20051015173509210/15/05 17:35:31  5-MIN KMSN 152335Z VRB03KT 10SM CLR 13/00 A3005 750 40 800 VRB/03 RMK AO2
14837KMSN MSN20051015174009210/15/05 17:40:31  5-MIN KMSN 152340Z 00000KT 10SM CLR 13/01 A3005 750 43 700 000/00 RMK AO2
14837KMSN MSN20051015174509210/15/05 17:45:31  5-MIN KMSN 152345Z 30003KT 10SM CLR 12/01 A3005 740 44 600 300/03 RMK AO2
14837KMSN MSN20051015175012710/15/05 17:50:31  5-MIN KMSN 152350Z 00000KT 10SM CLR 12/01 A3005 740 44 600 000/00 RMK AO2 SLP179 T01220006 10183 20122 56011
14837KMSN MSN20051015175509210/15/05 17:55:31  5-MIN KMSN 152355Z 00000KT 10SM CLR 12/01 A3005 740 48 600 000/00 RMK AO2
14837KMSN MSN20051015180009210/15/05 18:00:31  5-MIN KMSN 160000Z 26003KT 10SM CLR 11/02 A3006 740 52 500 260/03 RMK AO2
14837KMSN MSN20051015180509210/15/05 18:05:31  5-MIN KMSN 160005Z 28003KT 10SM CLR 11/02 A3006 740 54 400 280/03 RMK AO2
14837KMSN MSN20051015181009210/15/05 18:10:31  5-MIN KMSN 160010Z 30004KT 10SM CLR 11/01 A3006 740 52 400 300/04 RMK AO2
14837KMSN MSN20051015181509210/15/05 18:15:31  5-MIN KMSN 160015Z 30004KT 10SM CLR 11/01 A3006 730 50 400 300/04 RMK AO2
14837KMSN MSN20051015182009210/15/05 18:20:31  5-MIN KMSN 160020Z 30004KT 10SM CLR 11/00 A3006 730 48 400 300/04 RMK AO2
14837KMSN MSN20051015182509210/15/05 18:25:31  5-MIN KMSN 160025Z 30004KT 10SM CLR 11/00 A3006 730 46 500 300/04 RMK AO2
14837KMSN MSN20051015183009210/15/05 18:30:31  5-MIN KMSN 160030Z 30003KT 10SM CLR 11/00 A3007 730 48 400 300/03 RMK AO2
14837KMSN MSN20051015183509210/15/05 18:35:31  5-MIN KMSN 160035Z 30003KT 10SM CLR 10/01 A3007 730 52 300 300/03 RMK AO2
14837KMSN MSN20051015184009210/15/05 18:40:31  5-MIN KMSN 160040Z 29004KT 10SM CLR 10/01 A3007 730 52 300 290/04 RMK AO2
14837KMSN MSN20051015184509210/15/05 18:45:31  5-MIN KMSN 160045Z 29005KT 10SM CLR 10/01 A3007 730 54 300 290/05 RMK AO2
14837KMSN MSN20051015185010910/15/05 18:50:31  5-MIN KMSN 160050Z 29005KT 10SM CLR 10/01 A3007 730 52 300 290/05 RMK AO2 SLP187 T01000006
14837KMSN MSN20051015185509210/15/05 18:55:31  5-MIN KMSN 160055Z 29004KT 10SM CLR 11/00 A3007 720 48 400 290/04 RMK AO2
14837KMSN MSN20051015190009210/15/05 19:00:31  5-MIN KMSN 160100Z 29004KT 10SM CLR 11/00 A3007 720 48 400 290/04 RMK AO2
14837KMSN MSN20051015190509210/15/05 19:05:31  5-MIN KMSN 160105Z 30005KT 10SM CLR 11/00 A3008 720 48 400 300/05 RMK AO2
14837KMSN MSN20051015191009310/15/05 19:10:31  5-MIN KMSN 160110Z 30004KT 10SM CLR 11/M01 A3008 720 44 500 300/04 RMK AO2
14837KMSN MSN20051015191509310/15/05 19:15:31  5-MIN KMSN 160115Z 30004KT 10SM CLR 11/M01 A3008 720 46 400 300/04 RMK AO2
14837KMSN MSN20051015192009310/15/05 19:20:31  5-MIN KMSN 160120Z 31005KT 10SM CLR 11/M01 A3008 720 46 400 310/05 RMK AO2
14837KMSN MSN20051015192509310/15/05 19:25:31  5-MIN KMSN 160125Z 30005KT 10SM CLR 11/M01 A3008 720 44 500 300/05 RMK AO2
14837KMSN MSN20051015193009310/15/05 19:30:31  5-MIN KMSN 160130Z 29005KT 10SM CLR 11/M01 A3008 710 46 400 290/05 RMK AO2
14837KMSN MSN20051015193509210/15/05 19:35:31  5-MIN KMSN 160135Z 29004KT 10SM CLR 10/00 A3008 710 49 300 280/04 RMK AO2
14837KMSN MSN20051015194009210/15/05 19:40:31  5-MIN KMSN 160140Z 28003KT 10SM CLR 10/01 A3009 710 52 300 280/03 RMK AO2
14837KMSN MSN20051015194509210/15/05 19:45:31  5-MIN KMSN 160145Z 00000KT 10SM CLR 09/01 A3009 710 53 300 000/00 RMK AO2
14837KMSN MSN20051015195010910/15/05 19:50:31  5-MIN KMSN 160150Z 00000KT 10SM CLR 10/00 A3009 710 49 300 000/00 RMK AO2 SLP192 T01000000
14837KMSN MSN20051015195509210/15/05 19:55:31  5-MIN KMSN 160155Z 00000KT 10SM CLR 09/01 A3009 710 56 200 000/00 RMK AO2
14837KMSN MSN20051015200009210/15/05 20:00:31  5-MIN KMSN 160200Z 00000KT 10SM CLR 09/01 A3009 700 56 200 000/00 RMK AO2
14837KMSN MSN20051015200509210/15/05 20:05:31  5-MIN KMSN 160205Z 00000KT 10SM CLR 09/01 A3010 700 56 200 000/00 RMK AO2
14837KMSN MSN20051015201009010/15/05 20:10:31  5-MIN KMSN 160210Z 00000KT 10SM CLR 08/01 A3010 700 60 0 000/00 RMK AO2
14837KMSN MSN20051015201509010/15/05 20:15:31  5-MIN KMSN 160215Z 00000KT 10SM CLR 07/01 A3010 700 62 0 000/00 RMK AO2
14837KMSN MSN20051015202009010/15/05 20:20:31  5-MIN KMSN 160220Z 00000KT 10SM CLR 07/01 A3010 700 65 0 000/00 RMK AO2
14837KMSN MSN20051015202509310/15/05 20:25:31  5-MIN KMSN 160225Z 00000KT 10SM CLR 06/01 A3010 700 67 -100 000/00 RMK AO2
14837KMSN MSN20051015203009010/15/05 20:30:31  5-MIN KMSN 160230Z 00000KT 10SM CLR 07/01 A3010 700 65 0 000/00 RMK AO2
14837KMSN MSN20051015203509310/15/05 20:35:31  5-MIN KMSN 160235Z 00000KT 10SM CLR 07/01 A3010 700 65 -100 000/00 RMK AO2
14837KMSN MSN20051015204009310/15/05 20:40:31  5-MIN KMSN 160240Z 00000KT 10SM CLR 07/01 A3010 700 65 -100 000/00 RMK AO2
14837KMSN MSN20051015204509010/15/05 20:45:31  5-MIN KMSN 160245Z 00000KT 10SM CLR 07/01 A3010 700 65 0 000/00 RMK AO2
14837KMSN MSN20051015205011310/15/05 20:50:31  5-MIN KMSN 160250Z 00000KT 10SM CLR 07/01 A3010 700 65 0 000/00 RMK AO2 SLP196 T00670006 53009
14837KMSN MSN20051015205509310/15/05 20:55:31  5-MIN KMSN 160255Z 00000KT 10SM CLR 07/01 A3010 700 65 -100 000/00 RMK AO2
14837KMSN MSN20051015210009310/15/05 21:00:31  5-MIN KMSN 160300Z 00000KT 10SM CLR 06/01 A3010 700 70 -100 000/00 RMK AO2
14837KMSN MSN20051015210509310/15/05 21:05:31  5-MIN KMSN 160305Z 00000KT 10SM CLR 07/02 A3010 690 70 -100 000/00 RMK AO2
14837KMSN MSN20051015211009310/15/05 21:10:31  5-MIN KMSN 160310Z 34003KT 10SM CLR 07/02 A3011 690 70 -100 340/03 RMK AO2
14837KMSN MSN20051015211509310/15/05 21:15:31  5-MIN KMSN 160315Z 31003KT 10SM CLR 06/02 A3011 690 76 -100 310/03 RMK AO2
14837KMSN MSN20051015212009310/15/05 21:20:31  5-MIN KMSN 160320Z 31004KT 10SM CLR 05/02 A3010 690 79 -300 310/04 RMK AO2
14837KMSN MSN20051015212509310/15/05 21:25:31  5-MIN KMSN 160325Z 31003KT 10SM CLR 05/01 A3011 690 76 -300 310/03 RMK AO2
14837KMSN MSN20051015213009310/15/05 21:30:31  5-MIN KMSN 160330Z 31003KT 10SM CLR 06/01 A3010 690 73 -200 310/03 RMK AO2
14837KMSN MSN20051015213509310/15/05 21:35:31  5-MIN KMSN 160335Z 00000KT 10SM CLR 06/02 A3011 690 76 -100 000/00 RMK AO2
14837KMSN MSN20051015214009310/15/05 21:40:31  5-MIN KMSN 160340Z 00000KT 10SM CLR 06/02 A3011 690 73 -100 000/00 RMK AO2
14837KMSN MSN20051015214509310/15/05 21:45:31  5-MIN KMSN 160345Z 00000KT 10SM CLR 06/02 A3011 690 79 -200 000/00 RMK AO2
14837KMSN MSN20051015215011010/15/05 21:50:31  5-MIN KMSN 160350Z 34003KT 10SM CLR 05/02 A3011 690 79 -300 340/03 RMK AO2 SLP199 T00500017
14837KMSN MSN20051015215509310/15/05 21:55:31  5-MIN KMSN 160355Z 02007KT 10SM CLR 05/01 A3011 690 76 -300 010/07 RMK AO2
14837KMSN MSN20051015220009310/15/05 22:00:31  5-MIN KMSN 160400Z 35005KT 10SM CLR 03/01 A3011 690 82 -500 340/05 RMK AO2
14837KMSN MSN20051015220509310/15/05 22:05:31  5-MIN KMSN 160405Z 35006KT 10SM CLR 04/01 A3011 690 79 -400 350/06 RMK AO2
14837KMSN MSN20051015221009310/15/05 22:10:31  5-MIN KMSN 160410Z 36006KT 10SM CLR 06/01 A3011 690 70 -200 360/06 RMK AO2
14837KMSN MSN20051015221509310/15/05 22:15:31  5-MIN KMSN 160415Z 35006KT 10SM CLR 06/01 A3011 690 70 -200 340/06 RMK AO2
14837KMSN MSN20051015222009310/15/05 22:20:31  5-MIN KMSN 160420Z 34006KT 10SM CLR 06/01 A3011 690 70 -200 340/06 RMK AO2
14837KMSN MSN20051015222509310/15/05 22:25:31  5-MIN KMSN 160425Z 33006KT 10SM CLR 06/01 A3011 690 67 -100 330/06 RMK AO2
14837KMSN MSN20051015223009310/15/05 22:30:31  5-MIN KMSN 160430Z 34006KT 10SM CLR 06/01 A3011 690 70 -100 340/06 RMK AO2
14837KMSN MSN20051015223509310/15/05 22:35:31  5-MIN KMSN 160435Z 34006KT 10SM CLR 06/01 A3011 690 70 -100 340/06 RMK AO2
14837KMSN MSN20051015224009310/15/05 22:40:31  5-MIN KMSN 160440Z 33005KT 10SM CLR 06/01 A3011 690 73 -200 330/05 RMK AO2
14837KMSN MSN20051015224509310/15/05 22:45:31  5-MIN KMSN 160445Z 33004KT 10SM CLR 06/01 A3012 680 73 -200 330/04 RMK AO2
14837KMSN MSN20051015225011010/15/05 22:50:31  5-MIN KMSN 160450Z 33005KT 10SM CLR 06/01 A3012 680 70 -100 330/05 RMK AO2 SLP202 T00610011
14837KMSN MSN20051015225509310/15/05 22:55:31  5-MIN KMSN 160455Z 32004KT 10SM CLR 06/01 A3012 680 73 -200 310/04 RMK AO2
14837KMSN MSN20051015230009310/15/05 23:00:31  5-MIN KMSN 160500Z 31004KT 10SM CLR 06/01 A3012 680 70 -100 300/04 RMK AO2
14837KMSN MSN20051015230509310/15/05 23:05:31  5-MIN KMSN 160505Z 30004KT 10SM CLR 06/01 A3012 680 70 -100 300/04 RMK AO2
14837KMSN MSN20051015231009310/15/05 23:10:31  5-MIN KMSN 160510Z 31004KT 10SM CLR 06/01 A3012 680 73 -200 310/04 RMK AO2
14837KMSN MSN20051015231509310/15/05 23:15:31  5-MIN KMSN 160515Z 32004KT 10SM CLR 06/01 A3012 680 70 -100 320/04 RMK AO2
14837KMSN MSN20051015232009310/15/05 23:20:31  5-MIN KMSN 160520Z 31004KT 10SM CLR 06/01 A3012 680 73 -200 310/04 RMK AO2
14837KMSN MSN20051015232509310/15/05 23:25:31  5-MIN KMSN 160525Z 30003KT 10SM CLR 05/01 A3012 680 76 -300 300/03 RMK AO2
14837KMSN MSN20051015233009310/15/05 23:30:31  5-MIN KMSN 160530Z 00000KT 10SM CLR 05/01 A3012 680 76 -300 000/00 RMK AO2
14837KMSN MSN20051015233509310/15/05 23:35:31  5-MIN KMSN 160535Z 00000KT 10SM CLR 05/01 A3013 670 73 -300 000/00 RMK AO2
14837KMSN MSN20051015234009310/15/05 23:40:31  5-MIN KMSN 160540Z 30003KT 10SM CLR 05/01 A3013 680 76 -300 300/03 RMK AO2
14837KMSN MSN20051015234509310/15/05 23:45:31  5-MIN KMSN 160545Z 29003KT 10SM CLR 04/01 A3013 670 79 -400 290/03 RMK AO2
14837KMSN MSN20051015235013810/15/05 23:50:31  5-MIN KMSN 160550Z 30004KT 10SM CLR 04/01 A3013 670 79 -400 290/04 RMK AO2 SLP205 T00440011 10117 20028 401830028 51016
14837KMSN MSN20051015235509310/15/05 23:55:31  5-MIN KMSN 160555Z 31004KT 10SM CLR 04/01 A3013 670 79 -300 310/04 RMK AO2
14837KMSN MSN20051016000009310/16/05 00:00:38  5-MIN KMSN 160600Z 33003KT 10SM CLR 06/02 A3013 670 76 -200 330/03 RMK AO2
14837KMSN MSN20051016000509310/16/05 00:05:31  5-MIN KMSN 160605Z 00000KT 10SM CLR 04/01 A3013 670 82 -400 000/00 RMK AO2
14837KMSN MSN20051016001009310/16/05 00:10:31  5-MIN KMSN 160610Z 00000KT 10SM CLR 04/01 A3013 670 79 -400 000/00 RMK AO2
14837KMSN MSN20051016001509310/16/05 00:15:31  5-MIN KMSN 160615Z 00000KT 10SM CLR 04/01 A3013 670 82 -400 000/00 RMK AO2
14837KMSN MSN20051016002009310/16/05 00:20:31  5-MIN KMSN 160620Z 00000KT 10SM CLR 04/01 A3013 670 82 -400 000/00 RMK AO2
14837KMSN MSN20051016002509310/16/05 00:25:31  5-MIN KMSN 160625Z 00000KT 10SM CLR 04/01 A3013 670 79 -400 000/00 RMK AO2
14837KMSN MSN20051016003009310/16/05 00:30:31  5-MIN KMSN 160630Z 00000KT 10SM CLR 04/02 A3013 670 82 -400 000/00 RMK AO2
14837KMSN MSN20051016003509310/16/05 00:35:31  5-MIN KMSN 160635Z 00000KT 10SM CLR 04/02 A3013 670 82 -400 000/00 RMK AO2
14837KMSN MSN20051016004009310/16/05 00:40:31  5-MIN KMSN 160640Z 00000KT 10SM CLR 04/02 A3013 670 82 -400 000/00 RMK AO2
14837KMSN MSN20051016004509310/16/05 00:45:31  5-MIN KMSN 160645Z 00000KT 10SM CLR 04/02 A3013 670 82 -400 000/00 RMK AO2
14837KMSN MSN20051016005011010/16/05 00:50:31  5-MIN KMSN 160650Z 00000KT 10SM CLR 04/02 A3013 670 82 -400 000/00 RMK AO2 SLP207 T00440017
14837KMSN MSN20051016005509310/16/05 00:55:31  5-MIN KMSN 160655Z 36003KT 10SM CLR 04/02 A3013 670 85 -400 360/03 RMK AO2
14837KMSN MSN20051016010009310/16/05 01:00:31  5-MIN KMSN 160700Z 36003KT 10SM CLR 04/02 A3013 670 85 -400 360/03 RMK AO2
14837KMSN MSN20051016010509310/16/05 01:05:31  5-MIN KMSN 160705Z 36004KT 10SM CLR 03/01 A3013 670 85 -500 360/04 RMK AO2
14837KMSN MSN20051016011009310/16/05 01:10:31  5-MIN KMSN 160710Z 00000KT 10SM CLR 03/01 A3013 670 85 -500 000/00 RMK AO2
14837KMSN MSN20051016011509310/16/05 01:15:31  5-MIN KMSN 160715Z 00000KT 10SM CLR 03/01 A3013 670 85 -500 000/00 RMK AO2
14837KMSN MSN20051016012009310/16/05 01:20:31  5-MIN KMSN 160720Z 00000KT 10SM CLR 03/02 A3014 670 89 -500 000/00 RMK AO2
14837KMSN MSN20051016012509310/16/05 01:25:31  5-MIN KMSN 160725Z 00000KT 10SM CLR 03/02 A3014 670 89 -500 000/00 RMK AO2
14837KMSN MSN20051016013009310/16/05 01:30:31  5-MIN KMSN 160730Z 00000KT 10SM CLR 03/02 A3014 670 89 -500 000/00 RMK AO2
14837KMSN MSN20051016013509310/16/05 01:35:31  5-MIN KMSN 160735Z 00000KT 10SM CLR 03/02 A3014 660 92 -600 000/00 RMK AO2
14837KMSN MSN20051016014009310/16/05 01:40:31  5-MIN KMSN 160740Z 00000KT 10SM CLR 03/02 A3014 660 92 -600 000/00 RMK AO2
14837KMSN MSN20051016014509310/16/05 01:45:31  5-MIN KMSN 160745Z 00000KT 10SM CLR 03/02 A3014 660 92 -600 000/00 RMK AO2
14837KMSN MSN20051016015011010/16/05 01:50:31  5-MIN KMSN 160750Z 00000KT 10SM CLR 02/01 A3014 660 92 -600 000/00 RMK AO2 SLP209 T00220011
14837KMSN MSN20051016015509310/16/05 01:55:31  5-MIN KMSN 160755Z 00000KT 10SM CLR 02/01 A3014 660 92 -600 000/00 RMK AO2
14837KMSN MSN20051016020009310/16/05 02:00:31  5-MIN KMSN 160800Z 00000KT 10SM CLR 02/01 A3014 660 92 -600 000/00 RMK AO2
14837KMSN MSN20051016020509310/16/05 02:05:31  5-MIN KMSN 160805Z 00000KT 10SM CLR 02/02 A3014 660 96 -600 000/00 RMK AO2
14837KMSN MSN20051016021009310/16/05 02:10:31  5-MIN KMSN 160810Z 00000KT 10SM CLR 02/02 A3015 660 96 -600 000/00 RMK AO2
14837KMSN MSN20051016021509310/16/05 02:15:31  5-MIN KMSN 160815Z 00000KT 10SM CLR 02/01 A3015 660 92 -600 000/00 RMK AO2
14837KMSN MSN20051016022009310/16/05 02:20:31  5-MIN KMSN 160820Z 00000KT 10SM CLR 02/01 A3015 660 92 -600 000/00 RMK AO2
14837KMSN MSN20051016022509310/16/05 02:25:31  5-MIN KMSN 160825Z 00000KT 10SM CLR 02/01 A3015 660 92 -600 000/00 RMK AO2
14837KMSN MSN20051016023009310/16/05 02:30:31  5-MIN KMSN 160830Z 00000KT 10SM CLR 02/01 A3015 650 92 -700 000/00 RMK AO2
14837KMSN MSN20051016023509310/16/05 02:35:31  5-MIN KMSN 160835Z 00000KT 10SM CLR 02/01 A3015 650 92 -700 000/00 RMK AO2
14837KMSN MSN20051016024009310/16/05 02:40:31  5-MIN KMSN 160840Z 00000KT 10SM CLR 03/01 A3015 660 89 -600 000/00 RMK AO2
14837KMSN MSN20051016024509310/16/05 02:45:31  5-MIN KMSN 160845Z 00000KT 10SM CLR 02/01 A3015 650 92 -700 000/00 RMK AO2
14837KMSN MSN20051016025011610/16/05 02:50:31  5-MIN KMSN 160850Z 00000KT 10SM CLR 02/01 A3015 660 92 -600 000/00 RMK AO2 SLP212 T00220011 51008
14837KMSN MSN20051016025509310/16/05 02:55:31  5-MIN KMSN 160855Z 00000KT 10SM CLR 02/01 A3015 650 92 -700 000/00 RMK AO2
14837KMSN MSN20051016030009310/16/05 03:00:31  5-MIN KMSN 160900Z 00000KT 10SM CLR 02/01 A3015 660 92 -600 000/00 RMK AO2
14837KMSN MSN20051016030509310/16/05 03:05:31  5-MIN KMSN 160905Z 00000KT 10SM CLR 02/01 A3015 660 96 -700 000/00 RMK AO2
14837KMSN MSN20051016031009310/16/05 03:10:31  5-MIN KMSN 160910Z 00000KT 10SM CLR 02/01 A3014 660 96 -700 000/00 RMK AO2
14837KMSN MSN20051016031509310/16/05 03:15:31  5-MIN KMSN 160915Z 00000KT 10SM CLR 02/01 A3014 660 92 -700 000/00 RMK AO2
14837KMSN MSN20051016032009310/16/05 03:20:31  5-MIN KMSN 160920Z 00000KT 10SM CLR 02/01 A3015 660 92 -700 000/00 RMK AO2
14837KMSN MSN20051016032509310/16/05 03:25:31  5-MIN KMSN 160925Z 00000KT 10SM CLR 02/01 A3015 660 92 -700 000/00 RMK AO2
14837KMSN MSN20051016033009310/16/05 03:30:31  5-MIN KMSN 160930Z 00000KT 10SM CLR 02/01 A3015 650 92 -700 000/00 RMK AO2
14837KMSN MSN20051016033509310/16/05 03:35:31  5-MIN KMSN 160935Z 00000KT 10SM CLR 02/01 A3015 650 92 -700 000/00 RMK AO2
14837KMSN MSN20051016034009310/16/05 03:40:31  5-MIN KMSN 160940Z 00000KT 10SM CLR 02/01 A3015 650 96 -700 000/00 RMK AO2
14837KMSN MSN20051016034509310/16/05 03:45:31  5-MIN KMSN 160945Z 00000KT 10SM CLR 02/01 A3015 650 92 -700 000/00 RMK AO2
14837KMSN MSN20051016035011010/16/05 03:50:31  5-MIN KMSN 160950Z 00000KT 10SM CLR 01/01 A3016 650 96 -800 000/00 RMK AO2 SLP216 T00110006
14837KMSN MSN20051016035509310/16/05 03:55:31  5-MIN KMSN 160955Z 00000KT 10SM CLR 01/01 A3016 650 96 -800 000/00 RMK AO2
14837KMSN MSN20051016040009210/16/05 04:00:31  5-MIN KMSN 161000Z 00000KT 9SM CLR 01/01 A3016 640 96 -800 000/00 RMK AO2
14837KMSN MSN20051016040509310/16/05 04:05:31  5-MIN KMSN 161005Z 00000KT 10SM CLR 01/01 A3016 640 96 -800 000/00 RMK AO2
14837KMSN MSN20051016041009210/16/05 04:10:31  5-MIN KMSN 161010Z 00000KT 9SM CLR 02/01 A3017 640 92 -700 000/00 RMK AO2
14837KMSN MSN20051016041509210/16/05 04:15:31  5-MIN KMSN 161015Z 00000KT 9SM CLR 02/01 A3017 640 92 -700 000/00 RMK AO2
14837KMSN MSN20051016042009310/16/05 04:20:31  5-MIN KMSN 161020Z 00000KT 10SM CLR 01/01 A3017 640 96 -800 000/00 RMK AO2
14837KMSN MSN20051016042509310/16/05 04:25:31  5-MIN KMSN 161025Z 00000KT 10SM CLR 01/01 A3017 630 96 -800 000/00 RMK AO2
14837KMSN MSN20051016043009310/16/05 04:30:31  5-MIN KMSN 161030Z 00000KT 10SM CLR 01/01 A3017 630 96 -800 000/00 RMK AO2
14837KMSN MSN20051016043509310/16/05 04:35:31  5-MIN KMSN 161035Z 00000KT 10SM CLR 01/00 A3017 630 92 -800 000/00 RMK AO2
14837KMSN MSN20051016044009310/16/05 04:40:31  5-MIN KMSN 161040Z 00000KT 10SM CLR 01/00 A3017 630 96 -900 000/00 RMK AO2
14837KMSN MSN20051016044509310/16/05 04:45:31  5-MIN KMSN 161045Z 00000KT 10SM CLR 01/01 A3017 630 96 -800 000/00 RMK AO2
14837KMSN MSN20051016045011010/16/05 04:50:31  5-MIN KMSN 161050Z 00000KT 10SM CLR 01/01 A3017 630 96 -800 000/00 RMK AO2 SLP223 T00110006
14837KMSN MSN20051016045509310/16/05 04:55:31  5-MIN KMSN 161055Z 00000KT 9SM CLR 01/01 A3017 630 100 -900 000/00 RMK AO2
14837KMSN MSN20051016050009210/16/05 05:00:31  5-MIN KMSN 161100Z 36003KT 9SM CLR 01/01 A3018 630 96 -800 360/03 RMK AO2
14837KMSN MSN20051016050509210/16/05 05:05:31  5-MIN KMSN 161105Z 00000KT 9SM CLR 01/00 A3018 630 96 -900 000/00 RMK AO2
14837KMSN MSN20051016051009310/16/05 05:10:31  5-MIN KMSN 161110Z 00000KT 10SM CLR 01/00 A3018 630 92 -800 000/00 RMK AO2
14837KMSN MSN20051016051509310/16/05 05:15:31  5-MIN KMSN 161115Z 00000KT 10SM CLR 01/00 A3018 630 92 -800 000/00 RMK AO2
14837KMSN MSN20051016052009210/16/05 05:20:31  5-MIN KMSN 161120Z 00000KT 9SM CLR 01/00 A3018 630 96 -900 000/00 RMK AO2
14837KMSN MSN20051016052509210/16/05 05:25:31  5-MIN KMSN 161125Z 00000KT 8SM CLR 01/00 A3018 630 96 -900 000/00 RMK AO2
14837KMSN MSN20051016053009210/16/05 05:30:31  5-MIN KMSN 161130Z 00000KT 8SM CLR 01/00 A3018 630 96 -900 000/00 RMK AO2
14837KMSN MSN20051016053509210/16/05 05:35:31  5-MIN KMSN 161135Z 00000KT 7SM CLR 01/00 A3018 630 96 -900 000/00 RMK AO2
14837KMSN MSN20051016054009210/16/05 05:40:31  5-MIN KMSN 161140Z 00000KT 7SM CLR 01/00 A3018 630 96 -900 000/00 RMK AO2
14837KMSN MSN20051016054509210/16/05 05:45:31  5-MIN KMSN 161145Z 00000KT 8SM CLR 01/00 A3018 630 96 -900 000/00 RMK AO2
14837KMSN MSN20051016055012710/16/05 05:50:31  5-MIN KMSN 161150Z 00000KT 7SM CLR 01/00 A3018 630 96 -900 000/00 RMK AO2 SLP225 T00060000 10056 20006 51007
14837KMSN MSN20051016055509210/16/05 05:55:31  5-MIN KMSN 161155Z 00000KT 7SM CLR 01/00 A3018 630 96 -900 000/00 RMK AO2
14837KMSN MSN20051016060009310/16/05 06:00:31  5-MIN KMSN 161200Z 00000KT 8SM CLR 01/M01 A3018 630 92 -900 000/00 RMK AO2
14837KMSN MSN20051016060509410/16/05 06:05:31  5-MIN KMSN 161205Z 00000KT 7SM CLR 00/M01 A3018 630 96 -1000 000/00 RMK AO2
14837KMSN MSN20051016061009710/16/05 06:10:31  5-MIN KMSN 161210Z 00000KT 6SM BR CLR 00/00 A3018 630 100 -1000 000/00 RMK AO2
14837KMSN MSN20051016061509210/16/05 06:15:31  5-MIN KMSN 161215Z 00000KT 7SM CLR 01/00 A3018 630 96 -900 000/00 RMK AO2
14837KMSN MSN20051016062009410/16/05 06:20:31  5-MIN KMSN 161220Z 00000KT 9SM CLR 00/M01 A3018 630 96 -1000 000/00 RMK AO2
14837KMSN MSN20051016062509510/16/05 06:25:31  5-MIN KMSN 161225Z 00000KT 10SM CLR 00/M01 A3018 630 96 -1000 000/00 RMK AO2
14837KMSN MSN20051016063009510/16/05 06:30:31  5-MIN KMSN 161230Z 00000KT 10SM CLR 00/M01 A3018 620 96 -1000 000/00 RMK AO2
14837KMSN MSN20051016063509410/16/05 06:35:31  5-MIN KMSN 161235Z 00000KT 8SM CLR 00/M01 A3018 620 96 -1000 000/00 RMK AO2
14837KMSN MSN20051016064009210/16/05 06:40:31  5-MIN KMSN 161240Z 00000KT 8SM CLR 01/00 A3018 620 96 -900 000/00 RMK AO2
14837KMSN MSN20051016064509310/16/05 06:45:31  5-MIN KMSN 161245Z 00000KT 10SM CLR 01/00 A3019 620 92 -800 000/00 RMK AO2
14837KMSN MSN20051016065011010/16/05 06:50:31  5-MIN KMSN 161250Z 00000KT 10SM CLR 01/01 A3019 620 96 -800 000/00 RMK AO2 SLP228 T00110006
14837KMSN MSN20051016065509210/16/05 06:55:31  5-MIN KMSN 161255Z 00000KT 8SM CLR 01/01 A3019 620 96 -800 000/00 RMK AO2
14837KMSN MSN20051016070009210/16/05 07:00:31  5-MIN KMSN 161300Z 00000KT 7SM CLR 02/01 A3019 620 92 -800 000/00 RMK AO2
14837KMSN MSN20051016070509510/16/05 07:05:31  5-MIN KMSN 161305Z 00000KT 6SM BR CLR 02/01 A3019 610 92 -700 000/00 RMK AO2
14837KMSN MSN20051016071009210/16/05 07:10:31  5-MIN KMSN 161310Z 00000KT 7SM CLR 02/01 A3019 620 92 -700 000/00 RMK AO2
14837KMSN MSN20051016071509210/16/05 07:15:31  5-MIN KMSN 161315Z 00000KT 9SM CLR 03/01 A3019 620 89 -600 000/00 RMK AO2
14837KMSN MSN20051016072009310/16/05 07:20:31  5-MIN KMSN 161320Z 00000KT 10SM CLR 03/01 A3019 620 89 -600 000/00 RMK AO2
14837KMSN MSN20051016072509310/16/05 07:25:31  5-MIN KMSN 161325Z 00000KT 10SM CLR 04/02 A3019 610 89 -500 000/00 RMK AO2
14837KMSN MSN20051016073009310/16/05 07:30:31  5-MIN KMSN 161330Z 00000KT 10SM CLR 04/02 A3019 610 85 -400 000/00 RMK AO2
14837KMSN MSN20051016073509310/16/05 07:35:31  5-MIN KMSN 161335Z 00000KT 10SM CLR 04/03 A3019 610 89 -400 000/00 RMK AO2
14837KMSN MSN20051016074009310/16/05 07:40:31  5-MIN KMSN 161340Z 00000KT 10SM CLR 05/03 A3020 610 85 -400 000/00 RMK AO2
14837KMSN MSN20051016074509310/16/05 07:45:31  5-MIN KMSN 161345Z 00000KT 10SM CLR 06/03 A3020 610 82 -300 000/00 RMK AO2
14837KMSN MSN20051016075011010/16/05 07:50:31  5-MIN KMSN 161350Z 00000KT 10SM CLR 06/03 A3020 610 82 -200 000/00 RMK AO2 SLP232 T00610033
14837KMSN MSN20051016075509310/16/05 07:55:31  5-MIN KMSN 161355Z 00000KT 10SM CLR 06/03 A3020 610 82 -200 000/00 RMK AO2
14837KMSN MSN20051016080009310/16/05 08:00:31  5-MIN KMSN 161400Z 03003KT 10SM CLR 07/04 A3020 610 82 -200 030/03 RMK AO2
14837KMSN MSN20051016080509310/16/05 08:05:31  5-MIN KMSN 161405Z 02003KT 10SM CLR 07/04 A3020 610 82 -200 020/03 RMK AO2
14837KMSN MSN20051016081009310/16/05 08:10:31  5-MIN KMSN 161410Z VRB03KT 10SM CLR 07/04 A3020 610 79 -100 VRB/03 RMK AO2
14837KMSN MSN20051016081509010/16/05 08:15:31  5-MIN KMSN 161415Z 36003KT 10SM CLR 08/04 A3020 610 76 0 360/03 RMK AO2
14837KMSN MSN20051016082009010/16/05 08:20:31  5-MIN KMSN 161420Z 36004KT 10SM CLR 08/04 A3020 610 76 0 360/04 RMK AO2
14837KMSN MSN20051016082509010/16/05 08:25:31  5-MIN KMSN 161425Z 36005KT 10SM CLR 08/04 A3020 610 76 0 360/05 RMK AO2
14837KMSN MSN20051016083009210/16/05 08:30:31  5-MIN KMSN 161430Z 36006KT 10SM CLR 09/04 A3020 610 73 100 360/06 RMK AO2
14837KMSN MSN20051016083509210/16/05 08:35:31  5-MIN KMSN 161435Z 35005KT 10SM CLR 09/05 A3020 600 76 100 350/05 RMK AO2
14837KMSN MSN20051016084009210/16/05 08:40:31  5-MIN KMSN 161440Z 35005KT 10SM CLR 09/05 A3020 600 74 100 350/05 RMK AO2
14837KMSN MSN20051016084509210/16/05 08:45:31  5-MIN KMSN 161445Z 34004KT 10SM CLR 10/05 A3021 600 71 200 340/04 RMK AO2
14837KMSN MSN20051016085011510/16/05 08:50:31  5-MIN KMSN 161450Z 33003KT 10SM CLR 10/05 A3021 600 71 200 320/03 RMK AO2 SLP234 T01000050 51010
14837KMSN MSN20051016085509210/16/05 08:55:31  5-MIN KMSN 161455Z 35003KT 10SM CLR 10/05 A3021 600 71 200 350/03 RMK AO2
14837KMSN MSN20051016090009210/16/05 09:00:31  5-MIN KMSN 161500Z VRB03KT 10SM CLR 11/05 A3021 600 68 300 VRB/03 RMK AO2
14837KMSN MSN20051016090509210/16/05 09:05:31  5-MIN KMSN 161505Z VRB03KT 10SM CLR 11/05 A3021 600 66 300 VRB/03 RMK AO2
14837KMSN MSN20051016091009210/16/05 09:10:31  5-MIN KMSN 161510Z 02005KT 10SM CLR 11/05 A3021 600 66 300 020/05 RMK AO2
14837KMSN MSN20051016091509210/16/05 09:15:31  5-MIN KMSN 161515Z 03006KT 10SM CLR 11/05 A3021 600 66 300 030/06 RMK AO2
14837KMSN MSN20051016092009210/16/05 09:20:31  5-MIN KMSN 161520Z 02006KT 10SM CLR 11/04 A3021 600 63 300 020/06 RMK AO2
14837KMSN MSN20051016092509210/16/05 09:25:31  5-MIN KMSN 161525Z 36006KT 10SM CLR 12/04 A3021 600 61 400 360/06 RMK AO2
14837KMSN MSN20051016093009210/16/05 09:30:31  5-MIN KMSN 161530Z VRB04KT 10SM CLR 12/05 A3021 600 63 400 VRB/04 RMK AO2
14837KMSN MSN20051016093509210/16/05 09:35:31  5-MIN KMSN 161535Z 33006KT 10SM CLR 12/04 A3021 590 61 400 330/06 RMK AO2
14837KMSN MSN20051016094009210/16/05 09:40:31  5-MIN KMSN 161540Z 01005KT 10SM CLR 12/04 A3021 590 59 400 010/05 RMK AO2
14837KMSN MSN20051016094509210/16/05 09:45:31  5-MIN KMSN 161545Z 00000KT 10SM CLR 12/04 A3021 600 59 400 000/00 RMK AO2
14837KMSN MSN20051016095010910/16/05 09:50:31  5-MIN KMSN 161550Z VRB06KT 10SM CLR 12/05 A3021 600 61 400 VRB/06 RMK AO2 SLP235 T01220050
14837KMSN MSN20051016095509210/16/05 09:55:31  5-MIN KMSN 161555Z VRB04KT 10SM CLR 12/04 A3021 590 61 400 VRB/04 RMK AO2
14837KMSN MSN20051016100009210/16/05 10:00:31  5-MIN KMSN 161600Z 31006KT 10SM CLR 12/04 A3021 590 59 400 310/06 RMK AO2
14837KMSN MSN20051016100509210/16/05 10:05:31  5-MIN KMSN 161605Z 30007KT 10SM CLR 12/04 A3021 590 59 400 300/07 RMK AO2
14837KMSN MSN20051016101009210/16/05 10:10:31  5-MIN KMSN 161610Z 26005KT 10SM CLR 12/04 A3021 600 56 400 260/05 RMK AO2
14837KMSN MSN20051016101509210/16/05 10:15:31  5-MIN KMSN 161615Z VRB03KT 10SM CLR 13/04 A3021 600 56 500 VRB/03 RMK AO2
14837KMSN MSN20051016102009210/16/05 10:20:31  5-MIN KMSN 161620Z VRB05KT 10SM CLR 13/04 A3021 600 56 500 VRB/05 RMK AO2
14837KMSN MSN20051016102509210/16/05 10:25:31  5-MIN KMSN 161625Z 30005KT 10SM CLR 13/04 A3021 600 56 500 300/05 RMK AO2
14837KMSN MSN20051016103009210/16/05 10:30:31  5-MIN KMSN 161630Z 30006KT 10SM CLR 12/04 A3021 600 59 500 300/06 RMK AO2
14837KMSN MSN20051016103509210/16/05 10:35:31  5-MIN KMSN 161635Z 35004KT 10SM CLR 13/04 A3021 600 54 500 350/04 RMK AO2
14837KMSN MSN20051016104009210/16/05 10:40:31  5-MIN KMSN 161640Z 29005KT 10SM CLR 13/04 A3021 600 54 600 290/05 RMK AO2
14837KMSN MSN20051016104509210/16/05 10:45:31  5-MIN KMSN 161645Z 33006KT 10SM CLR 13/04 A3020 600 54 600 330/06 RMK AO2
14837KMSN MSN20051016105010910/16/05 10:50:31  5-MIN KMSN 161650Z VRB06KT 10SM CLR 13/04 A3020 610 54 500 VRB/06 RMK AO2 SLP231 T01280039
14837KMSN MSN20051016105509210/16/05 10:55:31  5-MIN KMSN 161655Z VRB04KT 10SM CLR 13/04 A3020 610 52 600 VRB/04 RMK AO2
14837KMSN MSN20051016110009210/16/05 11:00:31  5-MIN KMSN 161700Z 35007KT 10SM CLR 13/04 A3020 610 52 600 350/07 RMK AO2
14837KMSN MSN20051016110509210/16/05 11:05:31  5-MIN KMSN 161705Z VRB05KT 10SM CLR 13/04 A3020 610 52 600 VRB/05 RMK AO2
14837KMSN MSN20051016111009210/16/05 11:10:31  5-MIN KMSN 161710Z 33006KT 10SM CLR 14/04 A3019 610 52 700 330/06 RMK AO2
14837KMSN MSN20051016111509210/16/05 11:15:31  5-MIN KMSN 161715Z VRB04KT 10SM CLR 14/04 A3019 610 50 700 VRB/04 RMK AO2
14837KMSN MSN20051016112009210/16/05 11:20:31  5-MIN KMSN 161720Z 35005KT 10SM CLR 14/04 A3019 620 52 700 350/05 RMK AO2
14837KMSN MSN20051016112509210/16/05 11:25:31  5-MIN KMSN 161725Z 32006KT 10SM CLR 14/04 A3019 620 51 700 320/06 RMK AO2
14837KMSN MSN20051016113009210/16/05 11:30:31  5-MIN KMSN 161730Z 00000KT 10SM CLR 14/04 A3018 620 52 700 000/00 RMK AO2
14837KMSN MSN20051016113509210/16/05 11:35:31  5-MIN KMSN 161735Z VRB04KT 10SM CLR 14/04 A3018 620 51 700 VRB/04 RMK AO2
14837KMSN MSN20051016114009210/16/05 11:40:31  5-MIN KMSN 161740Z 28005KT 10SM CLR 14/04 A3018 620 49 700 280/05 RMK AO2
14837KMSN MSN20051016114509210/16/05 11:45:31  5-MIN KMSN 161745Z 31007KT 10SM CLR 14/04 A3018 620 51 700 310/07 RMK AO2
14837KMSN MSN20051016115012710/16/05 11:50:31  5-MIN KMSN 161750Z 35006KT 10SM CLR 14/04 A3018 630 49 700 350/06 RMK AO2 SLP223 T01440039 10144 20000 51009
14837KMSN MSN20051016115509210/16/05 11:55:31  5-MIN KMSN 161755Z 31008KT 10SM CLR 14/04 A3018 630 49 700 310/08 RMK AO2
14837KMSN MSN20051016120009210/16/05 12:00:31  5-MIN KMSN 161800Z VRB06KT 10SM CLR 14/04 A3018 630 49 800 VRB/06 RMK AO2
14837KMSN MSN20051016120509210/16/05 12:05:31  5-MIN KMSN 161805Z VRB06KT 10SM CLR 14/04 A3017 630 49 800 VRB/06 RMK AO2
14837KMSN MSN20051016121009210/16/05 12:10:31  5-MIN KMSN 161810Z 33006KT 10SM CLR 15/04 A3017 630 47 800 330/06 RMK AO2
14837KMSN MSN20051016121509210/16/05 12:15:31  5-MIN KMSN 161815Z 34006KT 10SM CLR 15/04 A3017 640 47 800 340/06 RMK AO2
14837KMSN MSN20051016122009210/16/05 12:20:31  5-MIN KMSN 161820Z 32005KT 10SM CLR 15/04 A3016 640 47 800 310/05 RMK AO2
14837KMSN MSN20051016122509210/16/05 12:25:31  5-MIN KMSN 161825Z 00000KT 10SM CLR 14/04 A3016 650 49 800 000/00 RMK AO2
14837KMSN MSN20051016123009210/16/05 12:30:31  5-MIN KMSN 161830Z 00000KT 10SM CLR 16/04 A3015 650 47 900 000/00 RMK AO2
14837KMSN MSN20051016123509210/16/05 12:35:31  5-MIN KMSN 161835Z 32006KT 10SM CLR 16/04 A3015 650 45 900 310/06 RMK AO2
14837KMSN MSN20051016124009210/16/05 12:40:31  5-MIN KMSN 161840Z 33005KT 10SM CLR 16/03 A3015 660 43 900 330/05 RMK AO2
14837KMSN MSN20051016124509210/16/05 12:45:31  5-MIN KMSN 161845Z 00000KT 10SM CLR 15/03 A3014 660 45 900 000/00 RMK AO2
14837KMSN MSN20051016125010910/16/05 12:50:31  5-MIN KMSN 161850Z 34005KT 10SM CLR 16/04 A3014 660 45 900 340/05 RMK AO2 SLP210 T01560039
14837KMSN MSN20051016125509210/16/05 12:55:31  5-MIN KMSN 161855Z 31005KT 10SM CLR 16/03 A3014 660 43 900 310/05 RMK AO2
14837KMSN MSN20051016130009210/16/05 13:00:31  5-MIN KMSN 161900Z VRB03KT 10SM CLR 15/03 A3014 660 45 900 VRB/03 RMK AO2
14837KMSN MSN20051016130509310/16/05 13:05:31  5-MIN KMSN 161905Z VRB04KT 10SM CLR 16/04 A3014 660 44 1000 VRB/04 RMK AO2
14837KMSN MSN20051016131009210/16/05 13:10:31  5-MIN KMSN 161910Z 29006KT 10SM CLR 16/03 A3014 660 43 900 290/06 RMK AO2
14837KMSN MSN20051016131509210/16/05 13:15:31  5-MIN KMSN 161915Z VRB04KT 10SM CLR 16/03 A3014 670 43 900 VRB/04 RMK AO2
14837KMSN MSN20051016132009210/16/05 13:20:31  5-MIN KMSN 161920Z 30004KT 10SM CLR 16/03 A3013 670 42 900 300/04 RMK AO2
14837KMSN MSN20051016132509310/16/05 13:25:31  5-MIN KMSN 161925Z VRB05KT 10SM CLR 16/03 A3013 670 40 1000 VRB/05 RMK AO2
14837KMSN MSN20051016133009310/16/05 13:30:31  5-MIN KMSN 161930Z VRB03KT 10SM CLR 16/03 A3013 670 40 1000 VRB/03 RMK AO2
14837KMSN MSN20051016133509310/16/05 13:35:31  5-MIN KMSN 161935Z 01003KT 10SM CLR 17/03 A3013 670 39 1100 010/03 RMK AO2
14837KMSN MSN20051016134009310/16/05 13:40:31  5-MIN KMSN 161940Z 00000KT 10SM CLR 16/03 A3013 680 40 1000 000/00 RMK AO2
14837KMSN MSN20051016134509310/16/05 13:45:31  5-MIN KMSN 161945Z 00000KT 10SM CLR 16/03 A3012 680 40 1000 000/00 RMK AO2
14837KMSN MSN20051016135011010/16/05 13:50:31  5-MIN KMSN 161950Z 28005KT 10SM CLR 17/03 A3012 680 40 1100 280/05 RMK AO2 SLP204 T01670033
14837KMSN MSN20051016135509310/16/05 13:55:31  5-MIN KMSN 161955Z 33005KT 10SM CLR 17/04 A3012 680 42 1100 330/05 RMK AO2
14837KMSN MSN20051016140009310/16/05 14:00:31  5-MIN KMSN 162000Z 33005KT 10SM CLR 17/04 A3012 680 42 1100 330/05 RMK AO2
14837KMSN MSN20051016140509310/16/05 14:05:31  5-MIN KMSN 162005Z 02004KT 10SM CLR 17/04 A3012 680 42 1100 020/04 RMK AO2
14837KMSN MSN20051016141009310/16/05 14:10:31  5-MIN KMSN 162010Z VRB03KT 10SM CLR 16/04 A3012 680 44 1000 VRB/03 RMK AO2
14837KMSN MSN20051016141509310/16/05 14:15:31  5-MIN KMSN 162015Z VRB05KT 10SM CLR 16/04 A3011 690 45 1000 VRB/05 RMK AO2
14837KMSN MSN20051016142009310/16/05 14:20:31  5-MIN KMSN 162020Z 22004KT 10SM CLR 16/04 A3011 690 45 1000 220/04 RMK AO2
14837KMSN MSN20051016142509310/16/05 14:25:31  5-MIN KMSN 162025Z 22005KT 10SM CLR 16/04 A3011 690 45 1000 220/05 RMK AO2
14837KMSN MSN20051016143009310/16/05 14:30:31  5-MIN KMSN 162030Z 26005KT 10SM CLR 16/04 A3011 690 45 1000 260/05 RMK AO2
14837KMSN MSN20051016143509310/16/05 14:35:31  5-MIN KMSN 162035Z 23005KT 10SM CLR 16/04 A3011 690 45 1000 230/05 RMK AO2
14837KMSN MSN20051016144009310/16/05 14:40:31  5-MIN KMSN 162040Z 25004KT 10SM CLR 16/04 A3012 680 44 1000 250/04 RMK AO2
14837KMSN MSN20051016144509210/16/05 14:45:31  5-MIN KMSN 162045Z 19006KT 9SM CLR 16/04 A3011 690 44 1000 190/06 RMK AO2
14837KMSN MSN20051016145011610/16/05 14:50:31  5-MIN KMSN 162050Z 19004KT 10SM CLR 16/04 A3011 690 45 1000 190/04 RMK AO2 SLP201 T01560039 58010
14837KMSN MSN20051016145509310/16/05 14:55:31  5-MIN KMSN 162055Z 21003KT 10SM CLR 16/04 A3011 690 44 1000 210/03 RMK AO2
14837KMSN MSN20051016150009310/16/05 15:00:31  5-MIN KMSN 162100Z 20005KT 10SM CLR 16/04 A3011 690 44 1000 200/05 RMK AO2
14837KMSN MSN20051016150509210/16/05 15:05:31  5-MIN KMSN 162105Z VRB03KT 6SM CLR 16/04 A3011 690 44 1000 VRB/03 RMK AO2
14837KMSN MSN20051016151009310/16/05 15:10:31  5-MIN KMSN 162110Z 19005KT 10SM CLR 16/04 A3011 690 44 1000 190/05 RMK AO2
14837KMSN MSN20051016151509310/16/05 15:15:31  5-MIN KMSN 162115Z 21004KT 10SM CLR 16/04 A3010 700 44 1000 210/04 RMK AO2
14837KMSN MSN20051016152009310/16/05 15:20:31  5-MIN KMSN 162120Z 19006KT 10SM CLR 16/03 A3010 700 42 1000 190/06 RMK AO2
14837KMSN MSN20051016152509310/16/05 15:25:31  5-MIN KMSN 162125Z VRB03KT 10SM CLR 16/03 A3010 700 43 1000 VRB/03 RMK AO2
14837KMSN MSN20051016153009310/16/05 15:30:31  5-MIN KMSN 162130Z VRB04KT 10SM CLR 16/03 A3010 700 42 1000 VRB/04 RMK AO2
14837KMSN MSN20051016153509310/16/05 15:35:31  5-MIN KMSN 162135Z 00000KT 10SM CLR 16/03 A3010 700 42 1000 000/00 RMK AO2
14837KMSN MSN20051016154009310/16/05 15:40:31  5-MIN KMSN 162140Z 00000KT 10SM CLR 17/03 A3009 700 39 1100 000/00 RMK AO2
14837KMSN MSN20051016154509310/16/05 15:45:31  5-MIN KMSN 162145Z 00000KT 10SM CLR 16/03 A3009 700 42 1000 000/00 RMK AO2
14837KMSN MSN20051016155011010/16/05 15:50:31  5-MIN KMSN 162150Z 00000KT 10SM CLR 17/03 A3009 710 40 1100 000/00 RMK AO2 SLP194 T01670033
14837KMSN MSN20051016155509210/16/05 15:55:31  5-MIN KMSN 162155Z 00000KT 5SM CLR 17/03 A3009 710 40 1100 000/00 RMK AO2
14837KMSN MSN20051016160009210/16/05 16:00:31  5-MIN KMSN 162200Z 00000KT 6SM CLR 16/03 A3009 710 40 1000 000/00 RMK AO2
14837KMSN MSN20051016160509210/16/05 16:05:31  5-MIN KMSN 162205Z 00000KT 6SM CLR 16/03 A3009 710 40 1000 000/00 RMK AO2
14837KMSN MSN20051016161009210/16/05 16:10:31  5-MIN KMSN 162210Z 00000KT 8SM CLR 17/03 A3008 710 40 1100 000/00 RMK AO2
14837KMSN MSN20051016161509310/16/05 16:15:31  5-MIN KMSN 162215Z 00000KT 10SM CLR 17/03 A3008 710 39 1100 000/00 RMK AO2
14837KMSN MSN20051016162009310/16/05 16:20:31  5-MIN KMSN 162220Z 00000KT 10SM CLR 16/04 A3008 710 44 1100 000/00 RMK AO2
14837KMSN MSN20051016162509310/16/05 16:25:31  5-MIN KMSN 162225Z 00000KT 10SM CLR 16/03 A3008 720 42 1100 000/00 RMK AO2
14837KMSN MSN20051016163009310/16/05 16:30:31  5-MIN KMSN 162230Z 00000KT 10SM CLR 16/03 A3008 720 43 1000 000/00 RMK AO2
14837KMSN MSN20051016163509310/16/05 16:35:31  5-MIN KMSN 162235Z 00000KT 10SM CLR 16/03 A3008 720 43 1000 000/00 RMK AO2
14837KMSN MSN20051016164009210/16/05 16:40:31  5-MIN KMSN 162240Z 00000KT 10SM CLR 15/04 A3008 720 47 900 000/00 RMK AO2
14837KMSN MSN20051016164509210/16/05 16:45:31  5-MIN KMSN 162245Z 00000KT 10SM CLR 15/04 A3008 720 47 900 000/00 RMK AO2
14837KMSN MSN20051016165010910/16/05 16:50:31  5-MIN KMSN 162250Z 00000KT 10SM CLR 14/03 A3008 720 48 800 000/00 RMK AO2 SLP190 T01390033
14837KMSN MSN20051016165509210/16/05 16:55:31  5-MIN KMSN 162255Z 00000KT 10SM CLR 14/03 A3008 720 48 800 000/00 RMK AO2
14837KMSN MSN20051016170009210/16/05 17:00:31  5-MIN KMSN 162300Z 00000KT 10SM CLR 13/04 A3008 720 54 700 000/00 RMK AO2
14837KMSN MSN20051016170509210/16/05 17:05:31  5-MIN KMSN 162305Z 00000KT 10SM CLR 13/03 A3008 720 52 700 000/00 RMK AO2
14837KMSN MSN20051016171009210/16/05 17:10:31  5-MIN KMSN 162310Z 00000KT 10SM CLR 13/03 A3008 720 50 700 000/00 RMK AO2
14837KMSN MSN20051016171509210/16/05 17:15:31  5-MIN KMSN 162315Z 00000KT 10SM CLR 12/04 A3008 720 56 600 000/00 RMK AO2
14837KMSN MSN20051016172009210/16/05 17:20:31  5-MIN KMSN 162320Z 00000KT 10SM CLR 12/03 A3007 720 56 500 000/00 RMK AO2
14837KMSN MSN20051016172509210/16/05 17:25:31  5-MIN KMSN 162325Z 00000KT 10SM CLR 12/04 A3007 730 58 500 000/00 RMK AO2
14837KMSN MSN20051016173009210/16/05 17:30:31  5-MIN KMSN 162330Z 00000KT 10SM CLR 11/04 A3007 730 63 500 000/00 RMK AO2
14837KMSN MSN20051016173509210/16/05 17:35:31  5-MIN KMSN 162335Z 00000KT 10SM CLR 11/05 A3007 730 66 500 000/00 RMK AO2
14837KMSN MSN20051016174009110/16/05 17:40:31  5-MIN KMSN 162340Z 00000KT 7SM CLR 11/04 A3007 730 63 500 000/00 RMK AO2
14837KMSN MSN20051016174509110/16/05 17:45:31  5-MIN KMSN 162345Z 00000KT 3SM CLR 11/04 A3007 730 63 400 000/00 RMK AO2
14837KMSN MSN20051016175012710/16/05 17:50:31  5-MIN KMSN 162350Z 00000KT 10SM CLR 10/04 A3007 730 65 300 000/00 RMK AO2 SLP188 T01000039 10167 20100 56022
14837KMSN MSN20051016175509110/16/05 17:55:31  5-MIN KMSN 162355Z 00000KT 3SM CLR 10/04 A3007 730 68 300 000/00 RMK AO2
14837KMSN MSN20051016180009110/16/05 18:00:31  5-MIN KMSN 170000Z 00000KT 8SM CLR 10/04 A3007 730 68 300 000/00 RMK AO2
14837KMSN MSN20051016180509110/16/05 18:05:31  5-MIN KMSN 170005Z 00000KT 8SM CLR 09/04 A3007 730 71 300 000/00 RMK AO2
14837KMSN MSN20051016181009110/16/05 18:10:31  5-MIN KMSN 170010Z 00000KT 8SM CLR 09/04 A3006 730 71 300 000/00 RMK AO2
14837KMSN MSN20051016181509110/16/05 18:15:31  5-MIN KMSN 170015Z 00000KT 8SM CLR 09/04 A3006 730 68 300 000/00 RMK AO2
14837KMSN MSN20051016182009110/16/05 18:20:31  5-MIN KMSN 170020Z 00000KT 8SM CLR 09/04 A3006 730 68 300 000/00 RMK AO2
14837KMSN MSN20051016182509210/16/05 18:25:31  5-MIN KMSN 170025Z 00000KT 10SM CLR 09/04 A3006 730 71 200 000/00 RMK AO2
14837KMSN MSN20051016183009110/16/05 18:30:31  5-MIN KMSN 170030Z 00000KT 8SM CLR 09/04 A3006 730 71 200 000/00 RMK AO2
14837KMSN MSN20051016183509410/16/05 18:35:31  5-MIN KMSN 170035Z 00000KT 5SM HZ CLR 09/04 A3006 730 73 200 000/00 RMK AO2
14837KMSN MSN20051016184009410/16/05 18:40:31  5-MIN KMSN 170040Z 00000KT 5SM HZ CLR 08/04 A3006 730 76 100 000/00 RMK AO2
14837KMSN MSN20051016184509410/16/05 18:45:31  5-MIN KMSN 170045Z 00000KT 6SM HZ CLR 08/04 A3006 740 79 100 000/00 RMK AO2
14837KMSN MSN20051016185010810/16/05 18:50:31  5-MIN KMSN 170050Z 00000KT 8SM CLR 08/04 A3006 740 73 200 000/00 RMK AO2 SLP185 T00830039
14837KMSN MSN20051016185509110/16/05 18:55:31  5-MIN KMSN 170055Z 00000KT 8SM CLR 09/04 A3006 740 73 200 000/00 RMK AO2
14837KMSN MSN20051016190009410/16/05 19:00:31  5-MIN KMSN 170100Z 00000KT 6SM HZ CLR 08/04 A3005 740 76 200 000/00 RMK AO2
14837KMSN MSN20051016190509410/16/05 19:05:31  5-MIN KMSN 170105Z 00000KT 5SM HZ CLR 09/04 A3005 740 73 200 000/00 RMK AO2
14837KMSN MSN20051016191009410/16/05 19:10:31  5-MIN KMSN 170110Z 00000KT 5SM HZ CLR 08/04 A3005 740 79 100 000/00 RMK AO2
14837KMSN MSN20051016191509410/16/05 19:15:31  5-MIN KMSN 170115Z 00000KT 5SM HZ CLR 08/04 A3005 740 79 100 000/00 RMK AO2
14837KMSN MSN20051016192009410/16/05 19:20:31  5-MIN KMSN 170120Z 00000KT 5SM HZ CLR 08/04 A3006 740 76 100 000/00 RMK AO2
14837KMSN MSN20051016192509410/16/05 19:25:31  5-MIN KMSN 170125Z 00000KT 5SM HZ CLR 08/04 A3005 740 76 100 000/00 RMK AO2
14837KMSN MSN20051016193009410/16/05 19:30:31  5-MIN KMSN 170130Z 00000KT 5SM HZ CLR 08/04 A3005 740 76 100 000/00 RMK AO2
14837KMSN MSN20051016193509110/16/05 19:35:31  5-MIN KMSN 170135Z 00000KT 7SM CLR 08/04 A3005 740 76 100 000/00 RMK AO2
14837KMSN MSN20051016194009110/16/05 19:40:31  5-MIN KMSN 170140Z 00000KT 9SM CLR 08/04 A3005 740 76 100 000/00 RMK AO2
14837KMSN MSN20051016194508910/16/05 19:45:31  5-MIN KMSN 170145Z 00000KT 9SM CLR 07/04 A3005 740 79 0 000/00 RMK AO2
14837KMSN MSN20051016195010610/16/05 19:50:31  5-MIN KMSN 170150Z 00000KT 9SM CLR 07/04 A3005 740 79 0 000/00 RMK AO2 SLP182 T00720039
14837KMSN MSN20051016195509210/16/05 19:55:31  5-MIN KMSN 170155Z 00000KT 10SM CLR 08/04 A3005 750 76 100 000/00 RMK AO2
14837KMSN MSN20051016200009010/16/05 20:00:31  5-MIN KMSN 170200Z 00000KT 10SM CLR 07/03 A3005 750 76 0 000/00 RMK AO2
14837KMSN MSN20051016200509010/16/05 20:05:31  5-MIN KMSN 170205Z 00000KT 10SM CLR 07/04 A3005 750 79 0 000/00 RMK AO2
14837KMSN MSN20051016201009010/16/05 20:10:31  5-MIN KMSN 170210Z 00000KT 10SM CLR 07/03 A3005 750 76 0 000/00 RMK AO2
14837KMSN MSN20051016201509010/16/05 20:15:31  5-MIN KMSN 170215Z 00000KT 10SM CLR 07/04 A3005 750 79 0 000/00 RMK AO2
14837KMSN MSN20051016202009010/16/05 20:20:31  5-MIN KMSN 170220Z 00000KT 10SM CLR 07/03 A3005 750 76 0 000/00 RMK AO2
14837KMSN MSN20051016202509010/16/05 20:25:31  5-MIN KMSN 170225Z 00000KT 10SM CLR 07/03 A3005 750 79 0 000/00 RMK AO2
14837KMSN MSN20051016203009010/16/05 20:30:31  5-MIN KMSN 170230Z 00000KT 10SM CLR 07/03 A3005 750 76 0 000/00 RMK AO2
14837KMSN MSN20051016203509010/16/05 20:35:31  5-MIN KMSN 170235Z 00000KT 10SM CLR 07/03 A3004 750 76 0 000/00 RMK AO2
14837KMSN MSN20051016204009010/16/05 20:40:31  5-MIN KMSN 170240Z 00000KT 10SM CLR 07/03 A3004 750 79 0 000/00 RMK AO2
14837KMSN MSN20051016204509010/16/05 20:45:31  5-MIN KMSN 170245Z 00000KT 10SM CLR 07/03 A3004 750 76 0 000/00 RMK AO2
14837KMSN MSN20051016205011310/16/05 20:50:31  5-MIN KMSN 170250Z 00000KT 10SM CLR 07/04 A3004 750 82 0 000/00 RMK AO2 SLP177 T00670039 56015
14837KMSN MSN20051016205509010/16/05 20:55:31  5-MIN KMSN 170255Z 00000KT 10SM CLR 06/04 A3004 750 86 0 000/00 RMK AO2
14837KMSN MSN20051016210009010/16/05 21:00:31  5-MIN KMSN 170300Z 00000KT 10SM CLR 06/04 A3004 750 86 0 000/00 RMK AO2
14837KMSN MSN20051016210509010/16/05 21:05:31  5-MIN KMSN 170305Z 00000KT 10SM CLR 07/04 A3004 750 82 0 000/00 RMK AO2
14837KMSN MSN20051016211009010/16/05 21:10:31  5-MIN KMSN 170310Z 00000KT 10SM CLR 07/03 A3004 760 79 0 000/00 RMK AO2
14837KMSN MSN20051016211509010/16/05 21:15:31  5-MIN KMSN 170315Z 17003KT 10SM CLR 07/03 A3004 760 79 0 170/03 RMK AO2
14837KMSN MSN20051016212009010/16/05 21:20:31  5-MIN KMSN 170320Z 00000KT 10SM CLR 06/03 A3004 760 82 0 000/00 RMK AO2
14837KMSN MSN20051016212509010/16/05 21:25:31  5-MIN KMSN 170325Z 00000KT 10SM CLR 06/03 A3004 760 82 0 000/00 RMK AO2
14837KMSN MSN20051016213009010/16/05 21:30:31  5-MIN KMSN 170330Z 00000KT 10SM CLR 06/03 A3004 760 82 0 000/00 RMK AO2
14837KMSN MSN20051016213509010/16/05 21:35:31  5-MIN KMSN 170335Z 00000KT 10SM CLR 06/03 A3003 760 82 0 000/00 RMK AO2
14837KMSN MSN20051016214009010/16/05 21:40:31  5-MIN KMSN 170340Z 00000KT 10SM CLR 06/03 A3003 760 79 0 000/00 RMK AO2
14837KMSN MSN20051016214509310/16/05 21:45:31  5-MIN KMSN 170345Z 00000KT 10SM CLR 06/03 A3003 760 85 -100 000/00 RMK AO2
14837KMSN MSN20051016215010710/16/05 21:50:31  5-MIN KMSN 170350Z 00000KT 10SM CLR 06/03 A3003 760 82 0 000/00 RMK AO2 SLP174 T00610033
14837KMSN MSN20051016215509310/16/05 21:55:31  5-MIN KMSN 170355Z 00000KT 10SM CLR 06/03 A3003 760 85 -100 000/00 RMK AO2
14837KMSN MSN20051016220009010/16/05 22:00:31  5-MIN KMSN 170400Z 00000KT 10SM CLR 06/03 A3003 760 79 0 000/00 RMK AO2
14837KMSN MSN20051016220509010/16/05 22:05:31  5-MIN KMSN 170405Z 00000KT 10SM CLR 06/03 A3003 760 82 0 000/00 RMK AO2
14837KMSN MSN20051016221009010/16/05 22:10:31  5-MIN KMSN 170410Z 00000KT 10SM CLR 07/03 A3003 760 79 0 000/00 RMK AO2
14837KMSN MSN20051016221509010/16/05 22:15:31  5-MIN KMSN 170415Z 14003KT 10SM CLR 06/03 A3003 760 82 0 140/03 RMK AO2
14837KMSN MSN20051016222009010/16/05 22:20:31  5-MIN KMSN 170420Z 00000KT 10SM CLR 06/03 A3003 760 79 0 000/00 RMK AO2
14837KMSN MSN20051016222509310/16/05 22:25:31  5-MIN KMSN 170425Z 15003KT 10SM CLR 06/03 A3003 760 82 -100 150/03 RMK AO2
14837KMSN MSN20051016223009010/16/05 22:30:31  5-MIN KMSN 170430Z 16004KT 10SM CLR 06/03 A3003 760 79 0 160/04 RMK AO2
14837KMSN MSN20051016223509010/16/05 22:35:31  5-MIN KMSN 170435Z 17005KT 10SM CLR 06/03 A3003 760 79 0 170/05 RMK AO2
14837KMSN MSN20051016224009010/16/05 22:40:31  5-MIN KMSN 170440Z 18004KT 10SM CLR 07/03 A3003 760 73 0 180/04 RMK AO2
14837KMSN MSN20051016224509210/16/05 22:45:31  5-MIN KMSN 170445Z 17006KT 10SM CLR 08/03 A3003 760 70 200 170/06 RMK AO2
14837KMSN MSN20051016225010910/16/05 22:50:31  5-MIN KMSN 170450Z 17006KT 10SM CLR 09/03 A3003 760 68 300 160/06 RMK AO2 SLP171 T00890033
14837KMSN MSN20051016225509210/16/05 22:55:31  5-MIN KMSN 170455Z 17006KT 10SM CLR 08/03 A3003 770 70 200 170/06 RMK AO2
14837KMSN MSN20051016230009210/16/05 23:00:31  5-MIN KMSN 170500Z 17006KT 10SM CLR 08/03 A3002 770 70 200 170/06 RMK AO2
14837KMSN MSN20051016230509210/16/05 23:05:31  5-MIN KMSN 170505Z 17006KT 10SM CLR 09/03 A3003 770 68 300 170/06 RMK AO2
14837KMSN MSN20051016231009210/16/05 23:10:31  5-MIN KMSN 170510Z 17005KT 10SM CLR 09/03 A3002 770 68 300 170/05 RMK AO2
14837KMSN MSN20051016231509210/16/05 23:15:31  5-MIN KMSN 170515Z 18004KT 10SM CLR 08/03 A3003 770 70 200 180/04 RMK AO2
14837KMSN MSN20051016232009210/16/05 23:20:31  5-MIN KMSN 170520Z 17003KT 10SM CLR 09/03 A3002 770 68 300 170/03 RMK AO2
14837KMSN MSN20051016232509210/16/05 23:25:31  5-MIN KMSN 170525Z 16003KT 10SM CLR 08/03 A3002 770 70 200 160/03 RMK AO2
14837KMSN MSN20051016233009210/16/05 23:30:31  5-MIN KMSN 170530Z 17004KT 10SM CLR 08/03 A3002 770 70 200 160/04 RMK AO2
14837KMSN MSN20051016233509210/16/05 23:35:31  5-MIN KMSN 170535Z 17003KT 10SM CLR 08/03 A3001 780 70 200 170/03 RMK AO2
14837KMSN MSN20051016234009210/16/05 23:40:31  5-MIN KMSN 170540Z 15003KT 10SM CLR 08/03 A3001 780 70 200 150/03 RMK AO2
14837KMSN MSN20051016234509210/16/05 23:45:31  5-MIN KMSN 170545Z 00000KT 10SM CLR 08/03 A3001 780 73 100 000/00 RMK AO2
14837KMSN MSN20051016235013710/16/05 23:50:31  5-MIN KMSN 170550Z 15003KT 10SM CLR 08/03 A3001 780 70 200 150/03 RMK AO2 SLP165 T00830033 10100 20056 401670000 56009
14837KMSN MSN20051016235509210/16/05 23:55:31  5-MIN KMSN 170555Z 16003KT 10SM CLR 08/03 A3001 780 70 200 160/03 RMK AO2
14837KMSN MSN20051017000009210/17/05 00:00:38  5-MIN KMSN 170600Z 18003KT 10SM CLR 08/03 A3001 780 73 100 180/03 RMK AO2
14837KMSN MSN20051017000509210/17/05 00:05:31  5-MIN KMSN 170605Z 18004KT 10SM CLR 08/03 A3000 790 73 100 180/04 RMK AO2
14837KMSN MSN20051017001009210/17/05 00:10:31  5-MIN KMSN 170610Z 18006KT 10SM CLR 08/04 A3000 790 73 200 180/06 RMK AO2
14837KMSN MSN20051017001509210/17/05 00:15:31  5-MIN KMSN 170615Z 17005KT 10SM CLR 08/04 A3000 790 73 200 170/05 RMK AO2
14837KMSN MSN20051017002009210/17/05 00:20:31  5-MIN KMSN 170620Z 18006KT 10SM CLR 08/04 A2999 800 73 200 170/06 RMK AO2
14837KMSN MSN20051017002509210/17/05 00:25:31  5-MIN KMSN 170625Z 16007KT 10SM CLR 08/04 A2999 800 73 200 160/07 RMK AO2
14837KMSN MSN20051017003009210/17/05 00:30:31  5-MIN KMSN 170630Z 16007KT 10SM CLR 08/04 A2999 800 76 200 160/07 RMK AO2
14837KMSN MSN20051017003509210/17/05 00:35:31  5-MIN KMSN 170635Z 16007KT 10SM CLR 08/04 A2998 810 76 200 160/07 RMK AO2
14837KMSN MSN20051017004009210/17/05 00:40:31  5-MIN KMSN 170640Z 17007KT 10SM CLR 08/04 A2998 810 76 200 170/07 RMK AO2
14837KMSN MSN20051017004509210/17/05 00:45:31  5-MIN KMSN 170645Z 17007KT 10SM CLR 08/04 A2998 810 73 200 170/07 RMK AO2
14837KMSN MSN20051017005010910/17/05 00:50:31  5-MIN KMSN 170650Z 16007KT 10SM CLR 08/04 A2998 810 76 200 160/07 RMK AO2 SLP153 T00830044
14837KMSN MSN20051017005509210/17/05 00:55:31  5-MIN KMSN 170655Z 16007KT 10SM CLR 08/04 A2998 810 76 200 160/07 RMK AO2
14837KMSN MSN20051017010009210/17/05 01:00:31  5-MIN KMSN 170700Z 16006KT 10SM CLR 08/04 A2997 820 76 200 160/06 RMK AO2
14837KMSN MSN20051017010509210/17/05 01:05:31  5-MIN KMSN 170705Z 16006KT 10SM CLR 08/04 A2997 820 73 300 160/06 RMK AO2
14837KMSN MSN20051017011009210/17/05 01:10:31  5-MIN KMSN 170710Z 17006KT 10SM CLR 08/04 A2997 820 73 300 170/06 RMK AO2
14837KMSN MSN20051017011509210/17/05 01:15:31  5-MIN KMSN 170715Z 17006KT 10SM CLR 08/04 A2997 820 73 300 170/06 RMK AO2
14837KMSN MSN20051017012009210/17/05 01:20:31  5-MIN KMSN 170720Z 17006KT 10SM CLR 08/04 A2997 820 73 300 170/06 RMK AO2
14837KMSN MSN20051017012509210/17/05 01:25:31  5-MIN KMSN 170725Z 17005KT 10SM CLR 08/04 A2996 830 73 300 170/05 RMK AO2
14837KMSN MSN20051017013009210/17/05 01:30:31  5-MIN KMSN 170730Z 17003KT 10SM CLR 08/04 A2996 820 73 300 170/03 RMK AO2
14837KMSN MSN20051017013509210/17/05 01:35:31  5-MIN KMSN 170735Z 00000KT 10SM CLR 09/04 A2996 820 71 300 000/00 RMK AO2
14837KMSN MSN20051017014009210/17/05 01:40:31  5-MIN KMSN 170740Z 19004KT 10SM CLR 09/04 A2996 820 71 300 190/04 RMK AO2
14837KMSN MSN20051017014509210/17/05 01:45:31  5-MIN KMSN 170745Z 19006KT 10SM CLR 09/04 A2996 820 68 400 190/06 RMK AO2
14837KMSN MSN20051017015010910/17/05 01:50:31  5-MIN KMSN 170750Z 19006KT 10SM CLR 09/04 A2996 830 68 400 190/06 RMK AO2 SLP145 T00940039
14837KMSN MSN20051017015509210/17/05 01:55:31  5-MIN KMSN 170755Z 18006KT 10SM CLR 09/04 A2995 830 68 400 180/06 RMK AO2
14837KMSN MSN20051017020009210/17/05 02:00:31  5-MIN KMSN 170800Z 18006KT 10SM CLR 09/04 A2995 840 68 400 180/06 RMK AO2
14837KMSN MSN20051017020509210/17/05 02:05:31  5-MIN KMSN 170805Z 18007KT 10SM CLR 09/04 A2994 840 68 400 180/07 RMK AO2
14837KMSN MSN20051017021009210/17/05 02:10:31  5-MIN KMSN 170810Z 17007KT 10SM CLR 09/03 A2994 850 65 400 170/07 RMK AO2
14837KMSN MSN20051017021509210/17/05 02:15:31  5-MIN KMSN 170815Z 17008KT 10SM CLR 09/04 A2994 850 71 400 170/08 RMK AO2
14837KMSN MSN20051017022009210/17/05 02:20:31  5-MIN KMSN 170820Z 17006KT 10SM CLR 09/04 A2993 850 71 400 170/06 RMK AO2
14837KMSN MSN20051017022509210/17/05 02:25:31  5-MIN KMSN 170825Z 17006KT 10SM CLR 09/04 A2993 850 71 400 170/06 RMK AO2
14837KMSN MSN20051017023009210/17/05 02:30:31  5-MIN KMSN 170830Z 17007KT 10SM CLR 09/04 A2993 850 71 400 160/07 RMK AO2
14837KMSN MSN20051017023509210/17/05 02:35:31  5-MIN KMSN 170835Z 17008KT 10SM CLR 09/04 A2993 860 71 400 160/08 RMK AO2
14837KMSN MSN20051017024009210/17/05 02:40:31  5-MIN KMSN 170840Z 17007KT 10SM CLR 09/04 A2993 860 71 400 170/07 RMK AO2
14837KMSN MSN20051017024509210/17/05 02:45:31  5-MIN KMSN 170845Z 18006KT 10SM CLR 09/04 A2993 860 71 400 180/06 RMK AO2
14837KMSN MSN20051017025011510/17/05 02:50:31  5-MIN KMSN 170850Z 18007KT 10SM CLR 09/04 A2992 860 71 400 180/07 RMK AO2 SLP134 T00890039 58009
14837KMSN MSN20051017025509210/17/05 02:55:31  5-MIN KMSN 170855Z 17007KT 10SM CLR 09/04 A2992 860 68 400 170/07 RMK AO2
14837KMSN MSN20051017030009210/17/05 03:00:31  5-MIN KMSN 170900Z 17007KT 10SM CLR 09/04 A2992 860 71 400 170/07 RMK AO2
14837KMSN MSN20051017030509210/17/05 03:05:31  5-MIN KMSN 170905Z 19006KT 10SM CLR 09/04 A2993 860 71 400 180/06 RMK AO2
14837KMSN MSN20051017031009210/17/05 03:10:31  5-MIN KMSN 170910Z 18005KT 10SM CLR 09/04 A2993 860 68 400 180/05 RMK AO2
14837KMSN MSN20051017031509210/17/05 03:15:31  5-MIN KMSN 170915Z 18006KT 10SM CLR 09/04 A2992 860 68 400 180/06 RMK AO2
14837KMSN MSN20051017032009210/17/05 03:20:31  5-MIN KMSN 170920Z 17005KT 10SM CLR 09/04 A2992 860 68 400 170/05 RMK AO2
14837KMSN MSN20051017032509210/17/05 03:25:31  5-MIN KMSN 170925Z 17007KT 10SM CLR 09/04 A2991 870 68 500 160/07 RMK AO2
14837KMSN MSN20051017033009210/17/05 03:30:31  5-MIN KMSN 170930Z 17005KT 10SM CLR 09/04 A2992 870 73 400 170/05 RMK AO2
14837KMSN MSN20051017033509210/17/05 03:35:31  5-MIN KMSN 170935Z 19004KT 10SM CLR 09/04 A2992 860 68 400 190/04 RMK AO2
14837KMSN MSN20051017034009210/17/05 03:40:31  5-MIN KMSN 170940Z 18004KT 10SM CLR 09/04 A2992 870 68 400 180/04 RMK AO2
14837KMSN MSN20051017034509210/17/05 03:45:31  5-MIN KMSN 170945Z 00000KT 10SM CLR 09/04 A2992 870 68 400 000/00 RMK AO2
14837KMSN MSN20051017035010810/17/05 03:50:31  5-MIN KMSN 170950Z 00000KT 9SM CLR 09/04 A2991 870 68 500 000/00 RMK AO2 SLP130 T00940039
14837KMSN MSN20051017035509110/17/05 03:55:31  5-MIN KMSN 170955Z 16005KT 9SM CLR 09/04 A2991 880 68 500 160/05 RMK AO2
14837KMSN MSN20051017100009710/17/05 10:00:31  5-MIN KMSN 171600Z 21008KT 10SM FEW080 13/09 A2977 1000 77 1000 210/08 RMK AO2
14837KMSN MSN20051017100509710/17/05 10:05:31  5-MIN KMSN 171605Z 21008KT 10SM FEW080 13/09 A2977 1000 77 1000 210/08 RMK AO2
14837KMSN MSN20051017101009410/17/05 10:10:31  5-MIN KMSN 171610Z 20009KT 10SM CLR 13/09 A2977 1010 74 1100 200/09 RMK AO2
14837KMSN MSN20051017101509410/17/05 10:15:31  5-MIN KMSN 171615Z 22008KT 10SM CLR 13/09 A2977 1010 74 1100 220/08 RMK AO2
14837KMSN MSN20051017102009410/17/05 10:20:31  5-MIN KMSN 171620Z 20008KT 10SM CLR 14/09 A2977 1010 74 1100 190/08 RMK AO2
14837KMSN MSN20051017102509410/17/05 10:25:31  5-MIN KMSN 171625Z 21007KT 10SM CLR 14/09 A2976 1010 74 1200 210/07 RMK AO2
14837KMSN MSN20051017103009410/17/05 10:30:31  5-MIN KMSN 171630Z VRB06KT 10SM CLR 14/10 A2976 1010 74 1200 VRB/06 RMK AO2
14837KMSN MSN20051017103509410/17/05 10:35:31  5-MIN KMSN 171635Z 21007KT 10SM CLR 15/11 A2976 1020 74 1300 210/07 RMK AO2
14837KMSN MSN20051017104009410/17/05 10:40:31  5-MIN KMSN 171640Z 20009KT 10SM CLR 14/10 A2976 1020 74 1200 200/09 RMK AO2
14837KMSN MSN20051017104509410/17/05 10:45:31  5-MIN KMSN 171645Z VRB05KT 10SM CLR 14/10 A2976 1020 74 1200 VRB/05 RMK AO2
14837KMSN MSN20051017105011110/17/05 10:50:31  5-MIN KMSN 171650Z 22008KT 10SM CLR 15/11 A2976 1010 74 1300 220/08 RMK AO2 SLP078 T01500106
14837KMSN MSN20051017105509710/17/05 10:55:31  5-MIN KMSN 171655Z VRB06KT 10SM FEW120 16/11 A2976 1020 72 1400 VRB/06 RMK AO2
14837KMSN MSN20051017110009710/17/05 11:00:31  5-MIN KMSN 171700Z VRB05KT 10SM FEW120 16/11 A2975 1020 74 1400 VRB/05 RMK AO2
14837KMSN MSN20051017110509710/17/05 11:05:31  5-MIN KMSN 171705Z VRB06KT 10SM FEW120 16/11 A2975 1020 72 1400 VRB/06 RMK AO2
14837KMSN MSN20051017111011310/17/05 11:10:31  5-MIN KMSN 171710Z 24007KT 200V290 10SM FEW120 16/12 A2975 1020 75 1400 240/07 200V290 RMK AO2
14837KMSN MSN20051017111509710/17/05 11:15:31  5-MIN KMSN 171715Z 22007KT 10SM FEW120 17/11 A2975 1020 69 1500 220/07 RMK AO2
14837KMSN MSN20051017112011910/17/05 11:20:31  5-MIN KMSN 171720Z 24010G14KT 210V270 10SM FEW120 16/11 A2974 1030 72 1400 240/10G14 210V270 RMK AO2
14837KMSN MSN20051017112511910/17/05 11:25:31  5-MIN KMSN 171725Z 22008G14KT 180V280 10SM FEW120 17/11 A2974 1030 69 1500 220/08G14 180V280 RMK AO2
14837KMSN MSN20051017113009710/17/05 11:30:31  5-MIN KMSN 171730Z 23007KT 10SM SCT120 17/11 A2974 1040 69 1500 230/07 RMK AO2
14837KMSN MSN20051017113509710/17/05 11:35:31  5-MIN KMSN 171735Z 23006KT 10SM SCT120 17/12 A2973 1040 69 1600 230/06 RMK AO2
14837KMSN MSN20051017114009710/17/05 11:40:31  5-MIN KMSN 171740Z 23005KT 10SM SCT120 17/12 A2973 1040 69 1600 230/05 RMK AO2
14837KMSN MSN20051017114511310/17/05 11:45:31  5-MIN KMSN 171745Z 23008KT 200V260 10SM SCT120 17/12 A2973 1040 69 1600 230/08 200V260 RMK AO2
14837KMSN MSN20051017115013810/17/05 11:50:31  5-MIN KMSN 171750Z 23008KT 10SM SCT120 18/12 A2972 1050 67 1700 230/08 RMK AO2 SLP064 60018 T01780117 10178 20094 58019
14837KMSN MSN20051017115510410/17/05 11:55:31  5-MIN KMSN 171755Z 24008KT 10SM FEW030 SCT090 18/12 A2972 1050 69 1700 230/08 RMK AO2
14837KMSN MSN20051017120012010/17/05 12:00:31  5-MIN KMSN 171800Z 24008KT 210V270 10SM FEW030 SCT090 18/12 A2972 1050 67 1700 240/08 210V270 RMK AO2
14837KMSN MSN20051017120510410/17/05 12:05:31  5-MIN KMSN 171805Z 23010KT 10SM FEW030 SCT090 18/12 A2971 1050 67 1700 230/10 RMK AO2
14837KMSN MSN20051017121010410/17/05 12:10:31  5-MIN KMSN 171810Z VRB06KT 10SM FEW030 SCT090 18/12 A2972 1050 67 1700 VRB/06 RMK AO2
14837KMSN MSN20051017121510410/17/05 12:15:31  5-MIN KMSN 171815Z VRB06KT 10SM FEW030 SCT090 19/12 A2971 1060 65 1800 VRB/06 RMK AO2
14837KMSN MSN20051017122010410/17/05 12:20:31  5-MIN KMSN 171820Z VRB06KT 10SM FEW030 SCT090 19/12 A2971 1060 65 1800 VRB/06 RMK AO2
14837KMSN MSN20051017122512610/17/05 12:25:31  5-MIN KMSN 171825Z 28010G15KT 240V310 10SM FEW030 SCT090 19/13 A2971 1060 65 1900 280/10G15 240V310 RMK AO2
14837KMSN MSN20051017123011910/17/05 12:30:31  5-MIN KMSN 171830Z 27009G15KT 240V300 10SM FEW090 19/12 A2971 1060 62 1900 270/09G15 240V300 RMK AO2
14837KMSN MSN20051017123509710/17/05 12:35:31  5-MIN KMSN 171835Z 24009KT 10SM FEW090 19/12 A2971 1060 62 1900 240/09 RMK AO2
14837KMSN MSN20051017124010310/17/05 12:40:31  5-MIN KMSN 171840Z 26008G15KT 10SM FEW090 19/12 A2971 1060 62 1900 260/08G15 RMK AO2
14837KMSN MSN20051017124511910/17/05 12:45:31  5-MIN KMSN 171845Z 26007G18KT 230V290 10SM FEW090 19/12 A2971 1060 62 1900 260/07G18 230V290 RMK AO2
14837KMSN MSN20051017125011710/17/05 12:50:31  5-MIN KMSN 171850Z 25010G18KT 10SM CLR 19/12 A2970 1060 62 1900 250/10G18 RMK AO2 SLP059 T01940122
14837KMSN MSN20051017125511010/17/05 12:55:31  5-MIN KMSN 171855Z 26007KT 220V300 10SM CLR 19/12 A2970 1070 62 1900 260/07 220V300 RMK AO2
14837KMSN MSN20051017130011010/17/05 13:00:31  5-MIN KMSN 171900Z 25009KT 220V300 10SM CLR 20/12 A2970 1070 60 1900 250/09 220V300 RMK AO2
14837KMSN MSN20051017130511010/17/05 13:05:31  5-MIN KMSN 171905Z 24008KT 170V260 10SM CLR 20/12 A2970 1070 60 1900 230/08 170V260 RMK AO2
14837KMSN MSN20051017131011010/17/05 13:10:31  5-MIN KMSN 171910Z 25008KT 220V280 10SM CLR 20/12 A2970 1070 60 1900 250/08 220V280 RMK AO2
14837KMSN MSN20051017131509410/17/05 13:15:31  5-MIN KMSN 171915Z 26007KT 10SM CLR 21/12 A2970 1070 56 2000 250/07 RMK AO2
14837KMSN MSN20051017132011010/17/05 13:20:31  5-MIN KMSN 171920Z 26008KT 220V310 10SM CLR 21/12 A2970 1070 56 2000 260/08 220V310 RMK AO2
14837KMSN MSN20051017132510010/17/05 13:25:31  5-MIN KMSN 171925Z 24010G17KT 10SM CLR 21/12 A2969 1070 54 2100 240/10G17 RMK AO2
14837KMSN MSN20051017133011610/17/05 13:30:31  5-MIN KMSN 171930Z 28008G17KT 230V300 10SM CLR 21/11 A2969 1070 54 2000 280/08G17 230V300 RMK AO2
14837KMSN MSN20051017133511010/17/05 13:35:31  5-MIN KMSN 171935Z 26009KT 220V280 10SM CLR 21/11 A2969 1080 52 2100 260/09 220V280 RMK AO2
14837KMSN MSN20051017134010010/17/05 13:40:31  5-MIN KMSN 171940Z 27010G16KT 10SM CLR 21/11 A2969 1070 52 2100 270/10G16 RMK AO2
14837KMSN MSN20051017134511610/17/05 13:45:31  5-MIN KMSN 171945Z 25008G16KT 200V300 10SM CLR 21/11 A2970 1070 50 2100 250/08G16 200V300 RMK AO2
14837KMSN MSN20051017135011710/17/05 13:50:31  5-MIN KMSN 171950Z 26012G16KT 10SM CLR 21/11 A2970 1070 50 2100 260/12G16 RMK AO2 SLP055 T02110106
14837KMSN MSN20051017135510010/17/05 13:55:31  5-MIN KMSN 171955Z 28010G16KT 10SM CLR 22/09 A2970 1070 45 2100 280/10G16 RMK AO2
14837KMSN MSN20051017140011610/17/05 14:00:31  5-MIN KMSN 172000Z 29007G14KT 240V310 10SM CLR 22/09 A2970 1070 45 2100 290/07G14 240V310 RMK AO2
14837KMSN MSN20051017140511010/17/05 14:05:31  5-MIN KMSN 172005Z 27008KT 220V320 10SM CLR 22/09 A2970 1070 43 2200 270/08 220V320 RMK AO2
14837KMSN MSN20051017141010010/17/05 14:10:31  5-MIN KMSN 172010Z 28010G16KT 10SM CLR 22/09 A2970 1070 43 2100 280/10G16 RMK AO2
14837KMSN MSN20051017141511610/17/05 14:15:31  5-MIN KMSN 172015Z 27009G16KT 230V300 10SM CLR 22/09 A2970 1070 42 2200 270/09G16 230V300 RMK AO2
14837KMSN MSN20051017142010010/17/05 14:20:31  5-MIN KMSN 172020Z 29010G16KT 10SM CLR 22/09 A2970 1070 42 2200 280/10G16 RMK AO2
14837KMSN MSN20051017142511610/17/05 14:25:31  5-MIN KMSN 172025Z 27009G18KT 240V310 10SM CLR 22/09 A2970 1070 43 2100 270/09G18 240V310 RMK AO2
14837KMSN MSN20051017143011610/17/05 14:30:31  5-MIN KMSN 172030Z 27009G18KT 240V310 10SM CLR 22/09 A2969 1070 42 2200 270/09G18 240V310 RMK AO2
14837KMSN MSN20051017143510010/17/05 14:35:31  5-MIN KMSN 172035Z 29010G16KT 10SM CLR 22/08 A2970 1070 42 2100 290/10G16 RMK AO2
14837KMSN MSN20051017144011610/17/05 14:40:31  5-MIN KMSN 172040Z 28010G16KT 240V300 10SM CLR 22/09 A2970 1070 42 2200 280/10G16 240V300 RMK AO2
14837KMSN MSN20051017144511610/17/05 14:45:31  5-MIN KMSN 172045Z 28011G20KT 260V340 10SM CLR 22/08 A2970 1070 40 2200 280/11G20 260V340 RMK AO2
14837KMSN MSN20051017145012310/17/05 14:50:31  5-MIN KMSN 172050Z 28011G20KT 10SM CLR 22/08 A2970 1070 40 2200 280/11G20 RMK AO2 SLP055 T02220083 58024
14837KMSN MSN20051017145510010/17/05 14:55:31  5-MIN KMSN 172055Z 28011G19KT 10SM CLR 22/07 A2970 1070 37 2200 280/11G19 RMK AO2
14837KMSN MSN20051017150011610/17/05 15:00:31  5-MIN KMSN 172100Z 28011G19KT 240V310 10SM CLR 22/06 A2969 1070 35 2200 280/11G19 240V310 RMK AO2
14837KMSN MSN20051017150510010/17/05 15:05:31  5-MIN KMSN 172105Z 28010G17KT 10SM CLR 22/06 A2970 1070 35 2200 280/10G17 RMK AO2
14837KMSN MSN20051017151010010/17/05 15:10:31  5-MIN KMSN 172110Z 28011G17KT 10SM CLR 22/06 A2970 1070 33 2200 280/11G17 RMK AO2
14837KMSN MSN20051017151510010/17/05 15:15:31  5-MIN KMSN 172115Z 29012G18KT 10SM CLR 22/05 A2970 1070 32 2200 290/12G18 RMK AO2
14837KMSN MSN20051017152010010/17/05 15:20:31  5-MIN KMSN 172120Z 28012G18KT 10SM CLR 22/04 A2970 1070 31 2200 280/12G18 RMK AO2
14837KMSN MSN20051017152511610/17/05 15:25:31  5-MIN KMSN 172125Z 29010G17KT 260V320 10SM CLR 22/04 A2970 1070 31 2200 290/10G17 260V320 RMK AO2
14837KMSN MSN20051017153010010/17/05 15:30:31  5-MIN KMSN 172130Z 29009G15KT 10SM CLR 22/05 A2969 1080 32 2200 290/09G15 RMK AO2
14837KMSN MSN20051017153510010/17/05 15:35:31  5-MIN KMSN 172135Z 29013G19KT 10SM CLR 22/04 A2969 1080 31 2200 290/13G19 RMK AO2
14837KMSN MSN20051017154011610/17/05 15:40:31  5-MIN KMSN 172140Z 29010G19KT 270V330 10SM CLR 22/04 A2970 1070 31 2100 290/10G19 270V330 RMK AO2
14837KMSN MSN20051017154510010/17/05 15:45:31  5-MIN KMSN 172145Z 29007G16KT 10SM CLR 22/04 A2970 1070 31 2100 290/07G16 RMK AO2
14837KMSN MSN20051017155011110/17/05 15:50:31  5-MIN KMSN 172150Z 28008KT 10SM CLR 22/04 A2970 1070 32 2100 280/08 RMK AO2 SLP057 T02170044
14837KMSN MSN20051017155509410/17/05 15:55:31  5-MIN KMSN 172155Z 28008KT 10SM CLR 22/05 A2970 1070 33 2100 280/08 RMK AO2
14837KMSN MSN20051017160011010/17/05 16:00:31  5-MIN KMSN 172200Z 29007KT 240V310 10SM CLR 21/04 A2970 1070 33 2100 280/07 240V310 RMK AO2
14837KMSN MSN20051017160509410/17/05 16:05:31  5-MIN KMSN 172205Z 28008KT 10SM CLR 21/04 A2971 1060 34 2000 280/08 RMK AO2
14837KMSN MSN20051017161009410/17/05 16:10:31  5-MIN KMSN 172210Z 30007KT 10SM CLR 21/04 A2971 1060 34 2000 300/07 RMK AO2
14837KMSN MSN20051017161509410/17/05 16:15:31  5-MIN KMSN 172215Z 29008KT 10SM CLR 21/04 A2971 1060 33 2000 290/08 RMK AO2
14837KMSN MSN20051017162009410/17/05 16:20:31  5-MIN KMSN 172220Z 29008KT 10SM CLR 21/04 A2971 1060 33 2000 290/08 RMK AO2
14837KMSN MSN20051017162509410/17/05 16:25:31  5-MIN KMSN 172225Z 29005KT 10SM CLR 21/04 A2972 1050 33 2000 290/05 RMK AO2
14837KMSN MSN20051017163009410/17/05 16:30:31  5-MIN KMSN 172230Z VRB05KT 10SM CLR 20/04 A2972 1050 35 1900 VRB/05 RMK AO2
14837KMSN MSN20051017163509410/17/05 16:35:31  5-MIN KMSN 172235Z VRB06KT 10SM CLR 20/04 A2972 1050 34 1900 VRB/06 RMK AO2
14837KMSN MSN20051017164009410/17/05 16:40:31  5-MIN KMSN 172240Z 29005KT 10SM CLR 19/04 A2972 1050 35 1800 290/05 RMK AO2
14837KMSN MSN20051017164509410/17/05 16:45:31  5-MIN KMSN 172245Z VRB05KT 10SM CLR 19/04 A2972 1050 35 1800 VRB/05 RMK AO2
14837KMSN MSN20051017165011110/17/05 16:50:31  5-MIN KMSN 172250Z 28007KT 10SM CLR 19/04 A2973 1040 35 1800 280/07 RMK AO2 SLP065 T01940039
14837KMSN MSN20051017165509710/17/05 16:55:31  5-MIN KMSN 172255Z 28006KT 10SM FEW090 19/04 A2973 1040 36 1800 280/06 RMK AO2
14837KMSN MSN20051017170009710/17/05 17:00:31  5-MIN KMSN 172300Z 28005KT 10SM FEW090 19/04 A2973 1040 36 1800 280/05 RMK AO2
14837KMSN MSN20051017170509710/17/05 17:05:31  5-MIN KMSN 172305Z 28007KT 10SM FEW090 18/03 A2973 1040 36 1700 280/07 RMK AO2
14837KMSN MSN20051017171009710/17/05 17:10:31  5-MIN KMSN 172310Z 28008KT 10SM FEW090 18/03 A2973 1040 35 1700 280/08 RMK AO2
14837KMSN MSN20051017171509710/17/05 17:15:31  5-MIN KMSN 172315Z 29008KT 10SM FEW090 19/03 A2973 1040 34 1800 290/08 RMK AO2
14837KMSN MSN20051017172009710/17/05 17:20:31  5-MIN KMSN 172320Z 29009KT 10SM FEW090 18/02 A2973 1040 34 1700 290/09 RMK AO2
14837KMSN MSN20051017172509710/17/05 17:25:31  5-MIN KMSN 172325Z 28008KT 10SM FEW090 18/02 A2974 1040 34 1700 280/08 RMK AO2
14837KMSN MSN20051017173011010/17/05 17:30:31  5-MIN KMSN 172330Z 28007KT 230V300 10SM CLR 18/02 A2974 1030 34 1700 280/07 230V300 RMK AO2
14837KMSN MSN20051017173510010/17/05 17:35:31  5-MIN KMSN 172335Z 28007G15KT 10SM CLR 18/02 A2974 1030 35 1600 280/07G15 RMK AO2
14837KMSN MSN20051017174010010/17/05 17:40:31  5-MIN KMSN 172340Z VRB06G15KT 10SM CLR 18/02 A2974 1030 32 1700 VRB/06G15 RMK AO2
14837KMSN MSN20051017174510010/17/05 17:45:31  5-MIN KMSN 172345Z 28008G14KT 10SM CLR 18/02 A2974 1030 33 1600 280/08G14 RMK AO2
14837KMSN MSN20051017175012910/17/05 17:50:31  5-MIN KMSN 172350Z 29007KT 10SM CLR 18/02 A2975 1030 33 1600 290/07 RMK AO2 SLP073 T01780017 10222 20178 56007
14837KMSN MSN20051017175509410/17/05 17:55:31  5-MIN KMSN 172355Z 28008KT 10SM CLR 18/02 A2975 1020 33 1600 280/08 RMK AO2
14837KMSN MSN20051017180009410/17/05 18:00:31  5-MIN KMSN 180000Z 29007KT 10SM CLR 18/02 A2975 1020 35 1600 290/07 RMK AO2
14837KMSN MSN20051017180509410/17/05 18:05:31  5-MIN KMSN 180005Z 28007KT 10SM CLR 18/02 A2975 1020 35 1600 280/07 RMK AO2
14837KMSN MSN20051017181009410/17/05 18:10:31  5-MIN KMSN 180010Z 28007KT 10SM CLR 17/02 A2976 1010 36 1600 280/07 RMK AO2
14837KMSN MSN20051017181509410/17/05 18:15:31  5-MIN KMSN 180015Z 29008KT 10SM CLR 17/02 A2976 1010 36 1500 290/08 RMK AO2
14837KMSN MSN20051017182009410/17/05 18:20:31  5-MIN KMSN 180020Z 28007KT 10SM CLR 17/02 A2976 1010 36 1500 280/07 RMK AO2
14837KMSN MSN20051017182509410/17/05 18:25:31  5-MIN KMSN 180025Z 28008KT 10SM CLR 17/02 A2976 1010 36 1500 280/08 RMK AO2
14837KMSN MSN20051017183009410/17/05 18:30:31  5-MIN KMSN 180030Z 28006KT 10SM CLR 17/02 A2977 1010 37 1500 280/06 RMK AO2
14837KMSN MSN20051017183509410/17/05 18:35:31  5-MIN KMSN 180035Z 27007KT 10SM CLR 17/02 A2977 1010 37 1500 270/07 RMK AO2
14837KMSN MSN20051017184009410/17/05 18:40:31  5-MIN KMSN 180040Z 28006KT 10SM CLR 17/02 A2977 1010 37 1500 280/06 RMK AO2
14837KMSN MSN20051017184509410/17/05 18:45:31  5-MIN KMSN 180045Z VRB05KT 10SM CLR 17/02 A2977 1010 37 1500 VRB/05 RMK AO2
14837KMSN MSN20051017185011110/17/05 18:50:31  5-MIN KMSN 180050Z 28005KT 10SM CLR 16/03 A2977 1010 40 1400 280/05 RMK AO2 SLP081 T01610028
14837KMSN MSN20051017185509410/17/05 18:55:31  5-MIN KMSN 180055Z 28005KT 10SM CLR 16/03 A2977 1000 40 1400 280/05 RMK AO2
14837KMSN MSN20051017190009410/17/05 19:00:31  5-MIN KMSN 180100Z 28006KT 10SM CLR 16/03 A2977 1000 40 1400 280/06 RMK AO2
14837KMSN MSN20051017190509410/17/05 19:05:31  5-MIN KMSN 180105Z 28006KT 10SM CLR 16/03 A2978 1000 42 1300 280/06 RMK AO2
14837KMSN MSN20051017191009410/17/05 19:10:31  5-MIN KMSN 180110Z 27006KT 10SM CLR 16/03 A2978 1000 42 1300 270/06 RMK AO2
14837KMSN MSN20051017191509310/17/05 19:15:31  5-MIN KMSN 180115Z 28005KT 10SM CLR 16/03 A2978 990 42 1300 280/05 RMK AO2
14837KMSN MSN20051017192009310/17/05 19:20:31  5-MIN KMSN 180120Z VRB03KT 10SM CLR 15/03 A2978 990 43 1300 VRB/03 RMK AO2
14837KMSN MSN20051017192509310/17/05 19:25:31  5-MIN KMSN 180125Z VRB05KT 10SM CLR 15/03 A2978 990 43 1300 VRB/05 RMK AO2
14837KMSN MSN20051017193009310/17/05 19:30:31  5-MIN KMSN 180130Z VRB05KT 10SM CLR 15/03 A2979 990 43 1300 VRB/05 RMK AO2
14837KMSN MSN20051017193509310/17/05 19:35:31  5-MIN KMSN 180135Z 28005KT 10SM CLR 15/03 A2979 990 43 1300 280/05 RMK AO2
14837KMSN MSN20051017194009310/17/05 19:40:31  5-MIN KMSN 180140Z 29005KT 10SM CLR 14/03 A2979 980 45 1200 290/05 RMK AO2
14837KMSN MSN20051017194509310/17/05 19:45:31  5-MIN KMSN 180145Z VRB04KT 10SM CLR 14/03 A2979 980 45 1200 VRB/04 RMK AO2
14837KMSN MSN20051017195011010/17/05 19:50:31  5-MIN KMSN 180150Z 29005KT 10SM CLR 14/03 A2979 980 47 1200 290/05 RMK AO2 SLP090 T01440033
14837KMSN MSN20051017195509310/17/05 19:55:31  5-MIN KMSN 180155Z VRB06KT 10SM CLR 15/03 A2980 980 45 1200 VRB/06 RMK AO2
14837KMSN MSN20051017200009310/17/05 20:00:31  5-MIN KMSN 180200Z 30005KT 10SM CLR 15/03 A2980 980 45 1200 300/05 RMK AO2
14837KMSN MSN20051017200509310/17/05 20:05:31  5-MIN KMSN 180205Z 28005KT 10SM CLR 14/03 A2980 980 47 1200 280/05 RMK AO2
14837KMSN MSN20051017201009310/17/05 20:10:31  5-MIN KMSN 180210Z 29005KT 10SM CLR 14/03 A2980 970 47 1200 290/05 RMK AO2
14837KMSN MSN20051017201509310/17/05 20:15:31  5-MIN KMSN 180215Z 29005KT 10SM CLR 14/03 A2980 970 47 1200 290/05 RMK AO2
14837KMSN MSN20051017202009310/17/05 20:20:31  5-MIN KMSN 180220Z 29006KT 10SM CLR 14/03 A2981 970 47 1200 290/06 RMK AO2
14837KMSN MSN20051017202509310/17/05 20:25:31  5-MIN KMSN 180225Z 28006KT 10SM CLR 14/03 A2981 970 47 1200 280/06 RMK AO2
14837KMSN MSN20051017203009310/17/05 20:30:31  5-MIN KMSN 180230Z 28004KT 10SM CLR 14/03 A2981 970 47 1200 280/04 RMK AO2
14837KMSN MSN20051017203509310/17/05 20:35:31  5-MIN KMSN 180235Z VRB04KT 10SM CLR 14/03 A2981 960 48 1100 VRB/04 RMK AO2
14837KMSN MSN20051017204009310/17/05 20:40:31  5-MIN KMSN 180240Z VRB03KT 10SM CLR 14/03 A2981 960 48 1100 VRB/03 RMK AO2
14837KMSN MSN20051017204509310/17/05 20:45:31  5-MIN KMSN 180245Z VRB04KT 10SM CLR 14/03 A2981 960 48 1100 VRB/04 RMK AO2
14837KMSN MSN20051017205011610/17/05 20:50:31  5-MIN KMSN 180250Z 28003KT 10SM CLR 14/03 A2981 960 48 1100 280/03 RMK AO2 SLP097 T01390033 53017
14837KMSN MSN20051017205509310/17/05 20:55:31  5-MIN KMSN 180255Z 00000KT 10SM CLR 13/03 A2981 960 50 1000 000/00 RMK AO2
14837KMSN MSN20051017210009310/17/05 21:00:31  5-MIN KMSN 180300Z VRB03KT 10SM CLR 13/03 A2981 960 50 1000 VRB/03 RMK AO2
14837KMSN MSN20051017210509310/17/05 21:05:31  5-MIN KMSN 180305Z 28003KT 10SM CLR 13/03 A2982 960 50 1000 280/03 RMK AO2
14837KMSN MSN20051017211009310/17/05 21:10:31  5-MIN KMSN 180310Z 28003KT 10SM CLR 13/03 A2982 960 50 1000 270/03 RMK AO2
14837KMSN MSN20051017211509310/17/05 21:15:31  5-MIN KMSN 180315Z VRB03KT 10SM CLR 13/03 A2982 960 52 1000 VRB/03 RMK AO2
14837KMSN MSN20051017212009310/17/05 21:20:31  5-MIN KMSN 180320Z VRB03KT 10SM CLR 13/03 A2982 960 52 1000 VRB/03 RMK AO2
14837KMSN MSN20051017212509310/17/05 21:25:31  5-MIN KMSN 180325Z 00000KT 10SM CLR 13/03 A2982 960 52 1000 000/00 RMK AO2
14837KMSN MSN20051017213009310/17/05 21:30:31  5-MIN KMSN 180330Z 00000KT 10SM CLR 13/03 A2982 960 52 1000 000/00 RMK AO2
14837KMSN MSN20051017213509210/17/05 21:35:31  5-MIN KMSN 180335Z 00000KT 10SM CLR 12/03 A2982 960 54 900 000/00 RMK AO2
14837KMSN MSN20051017214009210/17/05 21:40:31  5-MIN KMSN 180340Z 00000KT 10SM CLR 12/03 A2982 960 54 900 000/00 RMK AO2
14837KMSN MSN20051017214509310/17/05 21:45:31  5-MIN KMSN 180345Z 00000KT 10SM CLR 13/04 A2982 960 54 1000 000/00 RMK AO2
14837KMSN MSN20051017215010910/17/05 21:50:31  5-MIN KMSN 180350Z 00000KT 10SM CLR 11/04 A2982 960 63 700 000/00 RMK AO2 SLP101 T01060039
14837KMSN MSN20051017215509210/17/05 21:55:31  5-MIN KMSN 180355Z 00000KT 10SM CLR 11/04 A2982 960 61 800 000/00 RMK AO2
14837KMSN MSN20051017220009210/17/05 22:00:31  5-MIN KMSN 180400Z 00000KT 10SM CLR 11/04 A2982 950 61 800 000/00 RMK AO2
14837KMSN MSN20051017220509210/17/05 22:05:31  5-MIN KMSN 180405Z 00000KT 10SM CLR 11/04 A2982 960 63 700 000/00 RMK AO2
14837KMSN MSN20051017221009210/17/05 22:10:31  5-MIN KMSN 180410Z 29003KT 10SM CLR 11/04 A2982 960 63 700 290/03 RMK AO2
14837KMSN MSN20051017221509210/17/05 22:15:31  5-MIN KMSN 180415Z 00000KT 10SM CLR 10/04 A2982 960 65 600 000/00 RMK AO2
14837KMSN MSN20051017222009210/17/05 22:20:31  5-MIN KMSN 180420Z 29003KT 10SM CLR 09/04 A2982 950 68 600 290/03 RMK AO2
14837KMSN MSN20051017222509210/17/05 22:25:31  5-MIN KMSN 180425Z 00000KT 10SM CLR 10/03 A2982 950 63 600 000/00 RMK AO2
14837KMSN MSN20051017223009210/17/05 22:30:31  5-MIN KMSN 180430Z 00000KT 10SM CLR 10/04 A2983 950 65 600 000/00 RMK AO2
14837KMSN MSN20051017223509210/17/05 22:35:31  5-MIN KMSN 180435Z VRB03KT 10SM CLR 10/04 A2983 950 65 600 VRB/03 RMK AO2
14837KMSN MSN20051017224009210/17/05 22:40:31  5-MIN KMSN 180440Z 00000KT 10SM CLR 11/04 A2983 950 63 700 000/00 RMK AO2
14837KMSN MSN20051017224509210/17/05 22:45:31  5-MIN KMSN 180445Z 00000KT 10SM CLR 10/04 A2983 950 65 600 000/00 RMK AO2
14837KMSN MSN20051017225010910/17/05 22:50:31  5-MIN KMSN 180450Z 00000KT 10SM CLR 09/04 A2983 950 71 500 000/00 RMK AO2 SLP102 T00890039
14837KMSN MSN20051017225509210/17/05 22:55:31  5-MIN KMSN 180455Z 00000KT 10SM CLR 09/04 A2983 950 68 500 000/00 RMK AO2
14837KMSN MSN20051017230009210/17/05 23:00:31  5-MIN KMSN 180500Z 00000KT 10SM CLR 09/04 A2983 950 71 500 000/00 RMK AO2
14837KMSN MSN20051017230509210/17/05 23:05:31  5-MIN KMSN 180505Z 00000KT 10SM CLR 09/04 A2983 950 71 500 000/00 RMK AO2
14837KMSN MSN20051017231009210/17/05 23:10:31  5-MIN KMSN 180510Z 00000KT 10SM CLR 09/04 A2983 940 71 500 000/00 RMK AO2
14837KMSN MSN20051017231509210/17/05 23:15:31  5-MIN KMSN 180515Z 00000KT 10SM CLR 09/04 A2984 940 71 500 000/00 RMK AO2
14837KMSN MSN20051017232009210/17/05 23:20:31  5-MIN KMSN 180520Z 00000KT 10SM CLR 08/04 A2983 940 76 400 000/00 RMK AO2
14837KMSN MSN20051017232509210/17/05 23:25:31  5-MIN KMSN 180525Z 00000KT 10SM CLR 08/04 A2984 940 79 300 000/00 RMK AO2
14837KMSN MSN20051017233009210/17/05 23:30:31  5-MIN KMSN 180530Z 00000KT 10SM CLR 08/04 A2983 940 79 300 000/00 RMK AO2
14837KMSN MSN20051017233509210/17/05 23:35:31  5-MIN KMSN 180535Z 00000KT 10SM CLR 08/04 A2984 940 79 300 000/00 RMK AO2
14837KMSN MSN20051017234009210/17/05 23:40:31  5-MIN KMSN 180540Z 00000KT 10SM CLR 08/04 A2984 940 79 300 000/00 RMK AO2
14837KMSN MSN20051017234509210/17/05 23:45:31  5-MIN KMSN 180545Z 27003KT 10SM CLR 08/04 A2984 940 79 300 270/03 RMK AO2
14837KMSN MSN20051017235013710/17/05 23:50:31  5-MIN KMSN 180550Z 27003KT 10SM CLR 08/04 A2984 940 76 400 270/03 RMK AO2 SLP104 T00830044 10178 20078 402220078 51022
14837KMSN MSN20051017235509210/17/05 23:55:31  5-MIN KMSN 180555Z 28003KT 10SM CLR 09/04 A2984 940 71 500 280/03 RMK AO2
14837KMSN MSN20051018000009210/18/05 00:00:38  5-MIN KMSN 180600Z 28003KT 10SM CLR 09/04 A2984 940 71 500 280/03 RMK AO2
14837KMSN MSN20051018000509210/18/05 00:05:31  5-MIN KMSN 180605Z 00000KT 10SM CLR 10/04 A2984 940 68 600 000/00 RMK AO2
14837KMSN MSN20051018001009210/18/05 00:10:31  5-MIN KMSN 180610Z 27003KT 10SM CLR 09/04 A2984 940 71 500 270/03 RMK AO2
14837KMSN MSN20051018001509210/18/05 00:15:32  5-MIN KMSN 180615Z VRB03KT 10SM CLR 09/04 A2984 940 71 500 VRB/03 RMK AO2
14837KMSN MSN20051018002009210/18/05 00:20:31  5-MIN KMSN 180620Z 00000KT 10SM CLR 09/04 A2984 940 73 500 000/00 RMK AO2
14837KMSN MSN20051018002509210/18/05 00:25:31  5-MIN KMSN 180625Z 00000KT 10SM CLR 09/04 A2984 940 73 500 000/00 RMK AO2
14837KMSN MSN20051018003009210/18/05 00:30:31  5-MIN KMSN 180630Z 28003KT 10SM CLR 08/04 A2985 930 76 400 280/03 RMK AO2
14837KMSN MSN20051018003509210/18/05 00:35:31  5-MIN KMSN 180635Z 00000KT 10SM CLR 09/04 A2985 930 73 500 000/00 RMK AO2
14837KMSN MSN20051018004009210/18/05 00:40:31  5-MIN KMSN 180640Z 27003KT 10SM CLR 09/04 A2985 930 71 500 270/03 RMK AO2
14837KMSN MSN20051018004509210/18/05 00:45:31  5-MIN KMSN 180645Z 30003KT 10SM CLR 10/04 A2985 930 68 600 300/03 RMK AO2
14837KMSN MSN20051018005010910/18/05 00:50:31  5-MIN KMSN 180650Z 29004KT 10SM CLR 09/04 A2985 930 71 500 290/04 RMK AO2 SLP108 T00940044
14837KMSN MSN20051018005509210/18/05 00:55:31  5-MIN KMSN 180655Z 29004KT 10SM CLR 09/04 A2985 930 71 500 280/04 RMK AO2
14837KMSN MSN20051018010009210/18/05 01:00:31  5-MIN KMSN 180700Z 29004KT 10SM CLR 09/04 A2985 930 71 500 290/04 RMK AO2
14837KMSN MSN20051018010509210/18/05 01:05:31  5-MIN KMSN 180705Z 28004KT 10SM CLR 09/04 A2985 930 71 500 280/04 RMK AO2
14837KMSN MSN20051018011009210/18/05 01:10:31  5-MIN KMSN 180710Z VRB03KT 10SM CLR 10/04 A2986 920 68 600 VRB/03 RMK AO2
14837KMSN MSN20051018011509210/18/05 01:15:31  5-MIN KMSN 180715Z 30004KT 10SM CLR 10/04 A2986 920 68 600 300/04 RMK AO2
14837KMSN MSN20051018012009210/18/05 01:20:31  5-MIN KMSN 180720Z 30003KT 10SM CLR 09/04 A2986 920 71 500 300/03 RMK AO2
14837KMSN MSN20051018012509210/18/05 01:25:31  5-MIN KMSN 180725Z 29003KT 10SM CLR 10/05 A2986 920 71 600 290/03 RMK AO2
14837KMSN MSN20051018013009210/18/05 01:30:31  5-MIN KMSN 180730Z 30003KT 10SM CLR 09/04 A2986 920 71 500 300/03 RMK AO2
14837KMSN MSN20051018013509210/18/05 01:35:31  5-MIN KMSN 180735Z 30004KT 10SM CLR 09/04 A2986 920 71 500 300/04 RMK AO2
14837KMSN MSN20051018014009210/18/05 01:40:31  5-MIN KMSN 180740Z 29005KT 10SM CLR 10/05 A2986 920 71 600 290/05 RMK AO2
14837KMSN MSN20051018014509210/18/05 01:45:31  5-MIN KMSN 180745Z 30004KT 10SM CLR 09/05 A2986 920 74 500 300/04 RMK AO2
14837KMSN MSN20051018015010910/18/05 01:50:31  5-MIN KMSN 180750Z 30004KT 10SM CLR 09/04 A2986 920 73 400 290/04 RMK AO2 SLP111 T00890044
14837KMSN MSN20051018015509210/18/05 01:55:31  5-MIN KMSN 180755Z 29004KT 10SM CLR 09/04 A2986 920 73 400 290/04 RMK AO2
14837KMSN MSN20051018020009210/18/05 02:00:31  5-MIN KMSN 180800Z 27005KT 10SM CLR 09/04 A2986 920 73 400 270/05 RMK AO2
14837KMSN MSN20051018020509210/18/05 02:05:31  5-MIN KMSN 180805Z 28004KT 10SM CLR 09/05 A2987 910 74 500 280/04 RMK AO2
14837KMSN MSN20051018021009210/18/05 02:10:31  5-MIN KMSN 180810Z 28005KT 10SM CLR 09/04 A2987 910 71 500 280/05 RMK AO2
14837KMSN MSN20051018021509210/18/05 02:15:31  5-MIN KMSN 180815Z VRB04KT 10SM CLR 09/05 A2987 910 74 500 VRB/04 RMK AO2
14837KMSN MSN20051018022009210/18/05 02:20:31  5-MIN KMSN 180820Z 29004KT 10SM CLR 09/05 A2987 910 74 500 290/04 RMK AO2
14837KMSN MSN20051018022509210/18/05 02:25:31  5-MIN KMSN 180825Z 29006KT 10SM CLR 09/05 A2987 910 74 500 290/06 RMK AO2
14837KMSN MSN20051018023009210/18/05 02:30:31  5-MIN KMSN 180830Z 29006KT 10SM CLR 10/05 A2987 910 71 600 290/06 RMK AO2
14837KMSN MSN20051018023509210/18/05 02:35:31  5-MIN KMSN 180835Z 29006KT 10SM CLR 10/05 A2987 910 71 600 290/06 RMK AO2
14837KMSN MSN20051018024009210/18/05 02:40:31  5-MIN KMSN 180840Z 29006KT 10SM CLR 10/05 A2987 910 71 600 290/06 RMK AO2
14837KMSN MSN20051018024509210/18/05 02:45:31  5-MIN KMSN 180845Z 29007KT 10SM CLR 10/05 A2987 910 71 600 290/07 RMK AO2
14837KMSN MSN20051018025011510/18/05 02:50:31  5-MIN KMSN 180850Z 29006KT 10SM CLR 10/05 A2987 910 71 600 290/06 RMK AO2 SLP113 T01000050 53008
14837KMSN MSN20051018025509210/18/05 02:55:31  5-MIN KMSN 180855Z 29006KT 10SM CLR 10/05 A2987 910 71 600 290/06 RMK AO2
14837KMSN MSN20051018030009210/18/05 03:00:31  5-MIN KMSN 180900Z 29006KT 10SM CLR 10/05 A2987 910 71 600 290/06 RMK AO2
14837KMSN MSN20051018030509210/18/05 03:05:31  5-MIN KMSN 180905Z 29006KT 10SM CLR 10/05 A2987 910 71 600 290/06 RMK AO2
14837KMSN MSN20051018031009210/18/05 03:10:31  5-MIN KMSN 180910Z 28006KT 10SM CLR 09/05 A2987 910 74 500 280/06 RMK AO2
14837KMSN MSN20051018031509210/18/05 03:15:31  5-MIN KMSN 180915Z 29005KT 10SM CLR 09/05 A2987 910 74 500 280/05 RMK AO2
14837KMSN MSN20051018032009210/18/05 03:20:31  5-MIN KMSN 180920Z 28005KT 10SM CLR 09/05 A2987 910 74 500 280/05 RMK AO2
14837KMSN MSN20051018032509210/18/05 03:25:31  5-MIN KMSN 180925Z 29005KT 10SM CLR 09/05 A2987 910 74 500 290/05 RMK AO2
14837KMSN MSN20051018033009210/18/05 03:30:31  5-MIN KMSN 180930Z 29004KT 10SM CLR 09/05 A2987 910 74 500 290/04 RMK AO2
14837KMSN MSN20051018033509210/18/05 03:35:31  5-MIN KMSN 180935Z 29005KT 10SM CLR 09/05 A2987 910 74 500 290/05 RMK AO2
14837KMSN MSN20051018034009210/18/05 03:40:31  5-MIN KMSN 180940Z 29005KT 10SM CLR 09/05 A2987 910 76 400 290/05 RMK AO2
14837KMSN MSN20051018034509210/18/05 03:45:31  5-MIN KMSN 180945Z 29004KT 10SM CLR 09/05 A2987 910 76 400 290/04 RMK AO2
14837KMSN MSN20051018035010910/18/05 03:50:31  5-MIN KMSN 180950Z 28004KT 10SM CLR 08/04 A2987 910 79 300 280/04 RMK AO2 SLP115 T00780044
14837KMSN MSN20051018035509210/18/05 03:55:31  5-MIN KMSN 180955Z 28004KT 10SM CLR 09/05 A2987 910 74 500 280/04 RMK AO2
14837KMSN MSN20051018040009210/18/05 04:00:31  5-MIN KMSN 181000Z 00000KT 10SM CLR 08/04 A2987 910 79 300 000/00 RMK AO2
14837KMSN MSN20051018040509210/18/05 04:05:31  5-MIN KMSN 181005Z VRB03KT 10SM CLR 06/03 A2988 900 82 100 VRB/03 RMK AO2
14837KMSN MSN20051018041009210/18/05 04:10:31  5-MIN KMSN 181010Z 00000KT 10SM CLR 07/04 A2988 900 82 200 000/00 RMK AO2
14837KMSN MSN20051018041509210/18/05 04:15:31  5-MIN KMSN 181015Z 00000KT 10SM CLR 06/04 A2988 900 86 100 000/00 RMK AO2
14837KMSN MSN20051018042009210/18/05 04:20:31  5-MIN KMSN 181020Z 30003KT 10SM CLR 07/04 A2988 900 82 200 300/03 RMK AO2
14837KMSN MSN20051018042509210/18/05 04:25:31  5-MIN KMSN 181025Z 30003KT 10SM CLR 07/04 A2988 900 82 200 300/03 RMK AO2
14837KMSN MSN20051018043009210/18/05 04:30:31  5-MIN KMSN 181030Z 30005KT 10SM CLR 07/04 A2988 900 82 200 300/05 RMK AO2
14837KMSN MSN20051018043509210/18/05 04:35:31  5-MIN KMSN 181035Z 30004KT 10SM CLR 08/04 A2989 900 79 300 300/04 RMK AO2
14837KMSN MSN20051018044009210/18/05 04:40:31  5-MIN KMSN 181040Z 29004KT 10SM CLR 08/04 A2989 900 76 400 290/04 RMK AO2
14837KMSN MSN20051018044509210/18/05 04:45:31  5-MIN KMSN 181045Z 29004KT 10SM CLR 08/05 A2989 900 79 400 280/04 RMK AO2
14837KMSN MSN20051018045010910/18/05 04:50:31  5-MIN KMSN 181050Z 28005KT 10SM CLR 08/05 A2989 900 79 300 280/05 RMK AO2 SLP121 T00830050
14837KMSN MSN20051018045509210/18/05 04:55:31  5-MIN KMSN 181055Z 28003KT 10SM CLR 09/05 A2988 900 76 400 280/03 RMK AO2
14837KMSN MSN20051018050009210/18/05 05:00:31  5-MIN KMSN 181100Z 00000KT 10SM CLR 09/05 A2989 900 76 400 000/00 RMK AO2
14837KMSN MSN20051018050509210/18/05 05:05:31  5-MIN KMSN 181105Z 00000KT 10SM CLR 09/05 A2989 900 76 400 000/00 RMK AO2
14837KMSN MSN20051018051009210/18/05 05:10:31  5-MIN KMSN 181110Z 00000KT 10SM CLR 09/05 A2989 890 76 400 000/00 RMK AO2
14837KMSN MSN20051018051509210/18/05 05:15:31  5-MIN KMSN 181115Z 30003KT 10SM CLR 09/05 A2989 890 76 400 300/03 RMK AO2
14837KMSN MSN20051018052009210/18/05 05:20:31  5-MIN KMSN 181120Z 30004KT 10SM CLR 08/05 A2989 890 82 300 300/04 RMK AO2
14837KMSN MSN20051018052509210/18/05 05:25:31  5-MIN KMSN 181125Z 00000KT 10SM CLR 07/04 A2989 890 82 200 000/00 RMK AO2
14837KMSN MSN20051018053009010/18/05 05:30:31  5-MIN KMSN 181130Z 00000KT 10SM CLR 06/03 A2989 890 85 0 000/00 RMK AO2
14837KMSN MSN20051018053509010/18/05 05:35:31  5-MIN KMSN 181135Z 00000KT 10SM CLR 05/03 A2989 890 89 0 000/00 RMK AO2
14837KMSN MSN20051018054009010/18/05 05:40:31  5-MIN KMSN 181140Z 00000KT 10SM CLR 06/03 A2990 890 85 0 000/00 RMK AO2
14837KMSN MSN20051018054509210/18/05 05:45:31  5-MIN KMSN 181145Z 00000KT 10SM CLR 06/04 A2990 890 86 100 000/00 RMK AO2
14837KMSN MSN20051018055013310/18/05 05:50:31  5-MIN KMSN 181150Z VRB03KT 10SM CLR 06/04 A2990 880 86 100 VRB/03 RMK AO2 SLP126 70018 T00610039 10100 20050 51010
14837KMSN MSN20051018055509210/18/05 05:55:31  5-MIN KMSN 181155Z 00000KT 10SM CLR 06/04 A2990 880 86 100 000/00 RMK AO2
14837KMSN MSN20051018060009210/18/05 06:00:31  5-MIN KMSN 181200Z 00000KT 10SM CLR 06/04 A2990 890 86 100 000/00 RMK AO2
14837KMSN MSN20051018060509210/18/05 06:05:31  5-MIN KMSN 181205Z 30003KT 10SM CLR 07/04 A2990 890 86 100 290/03 RMK AO2
14837KMSN MSN20051018061009210/18/05 06:10:31  5-MIN KMSN 181210Z 30003KT 10SM CLR 06/04 A2990 880 86 100 300/03 RMK AO2
14837KMSN MSN20051018061509010/18/05 06:15:31  5-MIN KMSN 181215Z 00000KT 10SM CLR 06/04 A2990 880 92 0 000/00 RMK AO2
14837KMSN MSN20051018062009010/18/05 06:20:31  5-MIN KMSN 181220Z 00000KT 10SM CLR 06/04 A2990 880 89 0 000/00 RMK AO2
14837KMSN MSN20051018062509010/18/05 06:25:31  5-MIN KMSN 181225Z 00000KT 10SM CLR 05/03 A2990 880 89 0 000/00 RMK AO2
14837KMSN MSN20051018063009310/18/05 06:30:31  5-MIN KMSN 181230Z 00000KT 10SM CLR 04/03 A2990 880 89 -100 000/00 RMK AO2
14837KMSN MSN20051018063509010/18/05 06:35:31  5-MIN KMSN 181235Z 00000KT 10SM CLR 06/03 A2990 880 85 0 000/00 RMK AO2
14837KMSN MSN20051018064009210/18/05 06:40:31  5-MIN KMSN 181240Z 00000KT 10SM CLR 06/04 A2990 880 86 100 000/00 RMK AO2
14837KMSN MSN20051018064509010/18/05 06:45:31  5-MIN KMSN 181245Z 00000KT 10SM CLR 06/03 A2990 880 85 0 000/00 RMK AO2
14837KMSN MSN20051018065010910/18/05 06:50:31  5-MIN KMSN 181250Z 26003KT 10SM CLR 07/04 A2990 880 86 100 260/03 RMK AO2 SLP128 T00670044
14837KMSN MSN20051018065509210/18/05 06:55:31  5-MIN KMSN 181255Z 00000KT 10SM CLR 07/04 A2991 880 86 100 000/00 RMK AO2
14837KMSN MSN20051018070009210/18/05 07:00:31  5-MIN KMSN 181300Z 00000KT 10SM CLR 07/04 A2991 880 86 100 000/00 RMK AO2
14837KMSN MSN20051018070509210/18/05 07:05:31  5-MIN KMSN 181305Z 00000KT 10SM CLR 07/04 A2991 880 86 100 000/00 RMK AO2
14837KMSN MSN20051018071009210/18/05 07:10:31  5-MIN KMSN 181310Z 00000KT 10SM CLR 08/05 A2991 880 82 300 000/00 RMK AO2
14837KMSN MSN20051018071509210/18/05 07:15:31  5-MIN KMSN 181315Z 00000KT 10SM CLR 08/05 A2991 880 82 300 000/00 RMK AO2
14837KMSN MSN20051018072009210/18/05 07:20:31  5-MIN KMSN 181320Z 00000KT 10SM CLR 08/06 A2991 870 82 300 000/00 RMK AO2
14837KMSN MSN20051018072509210/18/05 07:25:31  5-MIN KMSN 181325Z 00000KT 10SM CLR 09/07 A2991 870 83 500 000/00 RMK AO2
14837KMSN MSN20051018073009210/18/05 07:30:31  5-MIN KMSN 181330Z 00000KT 10SM CLR 10/06 A2991 870 77 500 000/00 RMK AO2
14837KMSN MSN20051018073509210/18/05 07:35:31  5-MIN KMSN 181335Z 00000KT 10SM CLR 10/07 A2991 870 80 500 000/00 RMK AO2
14837KMSN MSN20051018074009210/18/05 07:40:31  5-MIN KMSN 181340Z 00000KT 10SM CLR 10/07 A2992 870 80 500 000/00 RMK AO2
14837KMSN MSN20051018074509210/18/05 07:45:31  5-MIN KMSN 181345Z 00000KT 10SM CLR 11/07 A2992 870 80 600 000/00 RMK AO2
14837KMSN MSN20051018075010910/18/05 07:50:31  5-MIN KMSN 181350Z 00000KT 10SM CLR 11/07 A2992 870 74 600 000/00 RMK AO2 SLP133 T01110067
14837KMSN MSN20051018075509210/18/05 07:55:31  5-MIN KMSN 181355Z 00000KT 10SM CLR 12/07 A2992 870 71 700 000/00 RMK AO2
14837KMSN MSN20051018080009210/18/05 08:00:31  5-MIN KMSN 181400Z 00000KT 10SM CLR 12/07 A2992 860 71 700 000/00 RMK AO2
14837KMSN MSN20051018080509210/18/05 08:05:31  5-MIN KMSN 181405Z 00000KT 10SM CLR 12/07 A2992 860 68 800 000/00 RMK AO2
14837KMSN MSN20051018081009210/18/05 08:10:31  5-MIN KMSN 181410Z 00000KT 10SM CLR 12/07 A2992 860 68 800 000/00 RMK AO2
14837KMSN MSN20051018081509210/18/05 08:15:31  5-MIN KMSN 181415Z 00000KT 10SM CLR 13/07 A2993 860 66 800 000/00 RMK AO2
14837KMSN MSN20051018082009210/18/05 08:20:31  5-MIN KMSN 181420Z 00000KT 10SM CLR 13/07 A2993 860 66 800 000/00 RMK AO2
14837KMSN MSN20051018082509210/18/05 08:25:31  5-MIN KMSN 181425Z 30003KT 10SM CLR 13/07 A2993 860 66 800 300/03 RMK AO2
14837KMSN MSN20051018083009210/18/05 08:30:31  5-MIN KMSN 181430Z VRB03KT 10SM CLR 13/07 A2993 860 66 800 VRB/03 RMK AO2
14837KMSN MSN20051018083509210/18/05 08:35:31  5-MIN KMSN 181435Z 00000KT 10SM CLR 13/06 A2992 860 63 800 000/00 RMK AO2
14837KMSN MSN20051018084009210/18/05 08:40:31  5-MIN KMSN 181440Z 00000KT 10SM CLR 13/06 A2992 860 61 900 000/00 RMK AO2
14837KMSN MSN20051018084509210/18/05 08:45:31  5-MIN KMSN 181445Z 00000KT 10SM CLR 13/06 A2992 860 61 900 000/00 RMK AO2
14837KMSN MSN20051018085011610/18/05 08:50:31  5-MIN KMSN 181450Z 00000KT 10SM CLR 14/07 A2992 860 61 1000 000/00 RMK AO2 SLP134 T01390067 53010
14837KMSN MSN20051018085509310/18/05 08:55:31  5-MIN KMSN 181455Z 00000KT 10SM CLR 14/06 A2992 860 59 1000 000/00 RMK AO2
14837KMSN MSN20051018090009310/18/05 09:00:31  5-MIN KMSN 181500Z 00000KT 10SM CLR 14/07 A2992 860 59 1000 000/00 RMK AO2
14837KMSN MSN20051018090509310/18/05 09:05:31  5-MIN KMSN 181505Z VRB03KT 10SM CLR 14/07 A2992 860 59 1000 VRB/03 RMK AO2
14837KMSN MSN20051018091009310/18/05 09:10:31  5-MIN KMSN 181510Z VRB03KT 10SM CLR 14/07 A2992 860 59 1000 VRB/03 RMK AO2
14837KMSN MSN20051018091509310/18/05 09:15:31  5-MIN KMSN 181515Z VRB03KT 10SM CLR 14/07 A2993 860 61 1000 VRB/03 RMK AO2
14837KMSN MSN20051018092009310/18/05 09:20:31  5-MIN KMSN 181520Z 00000KT 10SM CLR 14/07 A2993 860 59 1000 000/00 RMK AO2
14837KMSN MSN20051018092509310/18/05 09:25:31  5-MIN KMSN 181525Z VRB04KT 10SM CLR 15/07 A2993 860 59 1100 VRB/04 RMK AO2
14837KMSN MSN20051018093009310/18/05 09:30:31  5-MIN KMSN 181530Z VRB04KT 10SM CLR 15/07 A2993 860 59 1100 VRB/04 RMK AO2
14837KMSN MSN20051018093509310/18/05 09:35:31  5-MIN KMSN 181535Z VRB03KT 10SM CLR 15/07 A2993 860 57 1100 VRB/03 RMK AO2
14837KMSN MSN20051018094009310/18/05 09:40:31  5-MIN KMSN 181540Z 23004KT 10SM CLR 15/06 A2993 850 55 1100 230/04 RMK AO2
14837KMSN MSN20051018094509310/18/05 09:45:31  5-MIN KMSN 181545Z VRB04KT 10SM CLR 15/07 A2993 850 57 1100 VRB/04 RMK AO2
14837KMSN MSN20051018095011010/18/05 09:50:31  5-MIN KMSN 181550Z 22005KT 10SM CLR 15/07 A2993 860 57 1100 220/05 RMK AO2 SLP136 T01500067
14837KMSN MSN20051018095509310/18/05 09:55:31  5-MIN KMSN 181555Z 22003KT 10SM CLR 16/06 A2993 860 53 1200 210/03 RMK AO2
14837KMSN MSN20051018100009310/18/05 10:00:31  5-MIN KMSN 181600Z 19005KT 10SM CLR 16/07 A2993 860 53 1200 190/05 RMK AO2
14837KMSN MSN20051018100509310/18/05 10:05:31  5-MIN KMSN 181605Z VRB03KT 10SM CLR 16/06 A2992 860 51 1200 VRB/03 RMK AO2
14837KMSN MSN20051018101009310/18/05 10:10:31  5-MIN KMSN 181610Z VRB03KT 10SM CLR 16/07 A2992 860 53 1200 VRB/03 RMK AO2
14837KMSN MSN20051018101509310/18/05 10:15:31  5-MIN KMSN 181615Z VRB03KT 10SM CLR 16/06 A2992 860 51 1200 VRB/03 RMK AO2
14837KMSN MSN20051018102009310/18/05 10:20:31  5-MIN KMSN 181620Z VRB04KT 10SM CLR 17/06 A2992 860 49 1300 VRB/04 RMK AO2
14837KMSN MSN20051018102509310/18/05 10:25:31  5-MIN KMSN 181625Z VRB04KT 10SM CLR 17/07 A2993 860 51 1300 VRB/04 RMK AO2
14837KMSN MSN20051018103009310/18/05 10:30:31  5-MIN KMSN 181630Z VRB04KT 10SM CLR 17/06 A2993 860 49 1300 VRB/04 RMK AO2
14837KMSN MSN20051018103509310/18/05 10:35:31  5-MIN KMSN 181635Z VRB05KT 10SM CLR 17/06 A2993 860 49 1300 VRB/05 RMK AO2
14837KMSN MSN20051018104009310/18/05 10:40:31  5-MIN KMSN 181640Z VRB03KT 10SM CLR 17/06 A2992 860 47 1400 VRB/03 RMK AO2
14837KMSN MSN20051018104509310/18/05 10:45:31  5-MIN KMSN 181645Z VRB04KT 10SM CLR 17/07 A2992 860 49 1400 VRB/04 RMK AO2
14837KMSN MSN20051018105011010/18/05 10:50:31  5-MIN KMSN 181650Z VRB05KT 10SM CLR 18/07 A2992 860 48 1400 VRB/05 RMK AO2 SLP133 T01780067
14837KMSN MSN20051018105509310/18/05 10:55:31  5-MIN KMSN 181655Z VRB03KT 10SM CLR 17/06 A2992 870 47 1400 VRB/03 RMK AO2
14837KMSN MSN20051018110009310/18/05 11:00:31  5-MIN KMSN 181700Z 22005KT 10SM CLR 18/07 A2992 870 48 1400 220/05 RMK AO2
14837KMSN MSN20051018110509310/18/05 11:05:31  5-MIN KMSN 181705Z 21004KT 10SM CLR 18/06 A2992 870 46 1400 210/04 RMK AO2
14837KMSN MSN20051018111009310/18/05 11:10:31  5-MIN KMSN 181710Z 16005KT 10SM CLR 18/07 A2991 870 46 1500 160/05 RMK AO2
14837KMSN MSN20051018111509310/18/05 11:15:31  5-MIN KMSN 181715Z 18005KT 10SM CLR 18/07 A2991 870 46 1500 180/05 RMK AO2
14837KMSN MSN20051018112009310/18/05 11:20:31  5-MIN KMSN 181720Z VRB06KT 10SM CLR 18/07 A2991 880 46 1500 VRB/06 RMK AO2
14837KMSN MSN20051018112509310/18/05 11:25:31  5-MIN KMSN 181725Z VRB04KT 10SM CLR 18/06 A2990 880 44 1500 VRB/04 RMK AO2
14837KMSN MSN20051018113009310/18/05 11:30:31  5-MIN KMSN 181730Z VRB04KT 10SM CLR 19/07 A2990 880 44 1600 VRB/04 RMK AO2
14837KMSN MSN20051018113509310/18/05 11:35:31  5-MIN KMSN 181735Z 21006KT 10SM CLR 19/07 A2990 880 44 1600 210/06 RMK AO2
14837KMSN MSN20051018114009310/18/05 11:40:31  5-MIN KMSN 181740Z VRB06KT 10SM CLR 19/07 A2990 890 44 1600 VRB/06 RMK AO2
14837KMSN MSN20051018114509310/18/05 11:45:31  5-MIN KMSN 181745Z 16006KT 10SM CLR 19/07 A2990 890 44 1600 160/06 RMK AO2
14837KMSN MSN20051018115012810/18/05 11:50:31  5-MIN KMSN 181750Z VRB05KT 10SM CLR 19/07 A2989 890 44 1700 VRB/05 RMK AO2 SLP123 T01940072 10194 20044 51008
14837KMSN MSN20051018115509310/18/05 11:55:31  5-MIN KMSN 181755Z VRB06KT 10SM CLR 19/07 A2989 890 44 1700 VRB/06 RMK AO2
14837KMSN MSN20051018120009310/18/05 12:00:31  5-MIN KMSN 181800Z VRB03KT 10SM CLR 19/07 A2989 890 44 1700 VRB/03 RMK AO2
14837KMSN MSN20051018120509310/18/05 12:05:31  5-MIN KMSN 181805Z 19006KT 10SM CLR 20/07 A2988 900 41 1700 190/06 RMK AO2
14837KMSN MSN20051018121009310/18/05 12:10:31  5-MIN KMSN 181810Z 20006KT 10SM CLR 20/07 A2988 900 43 1700 190/06 RMK AO2
14837KMSN MSN20051018121509310/18/05 12:15:31  5-MIN KMSN 181815Z VRB05KT 10SM CLR 21/07 A2988 900 41 1800 VRB/05 RMK AO2
14837KMSN MSN20051018122009310/18/05 12:20:31  5-MIN KMSN 181820Z 26005KT 10SM CLR 21/07 A2987 910 40 1800 250/05 RMK AO2
14837KMSN MSN20051018122509310/18/05 12:25:31  5-MIN KMSN 181825Z VRB06KT 10SM CLR 21/07 A2987 910 40 1900 VRB/06 RMK AO2
14837KMSN MSN20051018123009310/18/05 12:30:31  5-MIN KMSN 181830Z VRB06KT 10SM CLR 21/07 A2987 910 41 1800 VRB/06 RMK AO2
14837KMSN MSN20051018123509310/18/05 12:35:31  5-MIN KMSN 181835Z VRB06KT 10SM CLR 21/07 A2987 910 41 1800 VRB/06 RMK AO2
14837KMSN MSN20051018124009310/18/05 12:40:31  5-MIN KMSN 181840Z 22007KT 10SM CLR 21/07 A2987 910 41 1800 220/07 RMK AO2
14837KMSN MSN20051018124509310/18/05 12:45:31  5-MIN KMSN 181845Z 24006KT 10SM CLR 21/07 A2987 920 40 1900 240/06 RMK AO2
14837KMSN MSN20051018125011010/18/05 12:50:31  5-MIN KMSN 181850Z VRB06KT 10SM CLR 21/07 A2986 920 40 1900 VRB/06 RMK AO2 SLP111 T02110072
14837KMSN MSN20051018125509310/18/05 12:55:31  5-MIN KMSN 181855Z 22007KT 10SM CLR 21/07 A2985 930 40 1900 220/07 RMK AO2
14837KMSN MSN20051018130009310/18/05 13:00:31  5-MIN KMSN 181900Z 23006KT 10SM CLR 21/07 A2985 930 40 1900 220/06 RMK AO2
14837KMSN MSN20051018130509310/18/05 13:05:31  5-MIN KMSN 181905Z 21008KT 10SM CLR 21/07 A2985 930 40 1900 210/08 RMK AO2
14837KMSN MSN20051018131009310/18/05 13:10:31  5-MIN KMSN 181910Z 21007KT 10SM CLR 22/07 A2985 930 39 2000 210/07 RMK AO2
14837KMSN MSN20051018131509310/18/05 13:15:31  5-MIN KMSN 181915Z 19009KT 10SM CLR 22/07 A2985 930 39 2000 190/09 RMK AO2
14837KMSN MSN20051018132010910/18/05 13:20:31  5-MIN KMSN 181920Z 20008KT 180V250 10SM CLR 22/07 A2984 940 37 2000 200/08 180V250 RMK AO2
14837KMSN MSN20051018132509310/18/05 13:25:31  5-MIN KMSN 181925Z 25007KT 10SM CLR 22/07 A2984 940 39 2000 250/07 RMK AO2
14837KMSN MSN20051018133009310/18/05 13:30:31  5-MIN KMSN 181930Z VRB06KT 10SM CLR 22/07 A2984 940 39 2000 VRB/06 RMK AO2
14837KMSN MSN20051018133509310/18/05 13:35:31  5-MIN KMSN 181935Z VRB06KT 10SM CLR 22/07 A2984 940 37 2000 VRB/06 RMK AO2
14837KMSN MSN20051018134009310/18/05 13:40:31  5-MIN KMSN 181940Z VRB04KT 10SM CLR 22/07 A2984 940 37 2000 VRB/04 RMK AO2
14837KMSN MSN20051018134509310/18/05 13:45:31  5-MIN KMSN 181945Z 22009KT 10SM CLR 22/07 A2984 940 37 2000 220/09 RMK AO2
14837KMSN MSN20051018135011010/18/05 13:50:31  5-MIN KMSN 181950Z 22005KT 10SM CLR 22/07 A2984 940 36 2000 220/05 RMK AO2 SLP103 T02220067
14837KMSN MSN20051018135509310/18/05 13:55:31  5-MIN KMSN 181955Z 23008KT 10SM CLR 22/07 A2983 940 37 2000 230/08 RMK AO2
14837KMSN MSN20051018140009310/18/05 14:00:31  5-MIN KMSN 182000Z 22005KT 10SM CLR 22/07 A2983 950 36 2000 220/05 RMK AO2
14837KMSN MSN20051018140509310/18/05 14:05:31  5-MIN KMSN 182005Z 23008KT 10SM CLR 22/07 A2983 950 36 2000 230/08 RMK AO2
14837KMSN MSN20051018141009310/18/05 14:10:31  5-MIN KMSN 182010Z VRB06KT 10SM CLR 22/07 A2983 950 36 2000 VRB/06 RMK AO2
14837KMSN MSN20051018141509310/18/05 14:15:31  5-MIN KMSN 182015Z VRB06KT 10SM CLR 22/07 A2983 950 36 2000 VRB/06 RMK AO2
14837KMSN MSN20051018142009310/18/05 14:20:31  5-MIN KMSN 182020Z 21008KT 10SM CLR 22/06 A2982 950 35 2100 210/08 RMK AO2
14837KMSN MSN20051018142509310/18/05 14:25:31  5-MIN KMSN 182025Z 22010KT 10SM CLR 22/06 A2982 960 35 2100 220/10 RMK AO2
14837KMSN MSN20051018143009310/18/05 14:30:31  5-MIN KMSN 182030Z VRB06KT 10SM CLR 23/06 A2982 960 33 2100 VRB/06 RMK AO2
14837KMSN MSN20051018143509310/18/05 14:35:31  5-MIN KMSN 182035Z 22006KT 10SM CLR 22/06 A2982 960 35 2100 220/06 RMK AO2
14837KMSN MSN20051018144009310/18/05 14:40:31  5-MIN KMSN 182040Z 23007KT 10SM CLR 23/06 A2981 960 33 2100 230/07 RMK AO2
14837KMSN MSN20051018144509310/18/05 14:45:31  5-MIN KMSN 182045Z 19009KT 10SM CLR 23/06 A2981 970 33 2100 190/09 RMK AO2
14837KMSN MSN20051018145011610/18/05 14:50:31  5-MIN KMSN 182050Z VRB06KT 10SM CLR 23/06 A2981 970 33 2100 VRB/06 RMK AO2 SLP092 T02280061 58010
14837KMSN MSN20051018145509310/18/05 14:55:31  5-MIN KMSN 182055Z 22008KT 10SM CLR 23/06 A2980 970 33 2100 220/08 RMK AO2
14837KMSN MSN20051018150009310/18/05 15:00:31  5-MIN KMSN 182100Z 20008KT 10SM CLR 23/06 A2980 970 33 2100 200/08 RMK AO2
14837KMSN MSN20051018150509310/18/05 15:05:31  5-MIN KMSN 182105Z VRB06KT 10SM CLR 23/06 A2980 980 33 2100 VRB/06 RMK AO2
14837KMSN MSN20051018151009310/18/05 15:10:31  5-MIN KMSN 182110Z 20009KT 10SM CLR 23/06 A2980 980 33 2100 200/09 RMK AO2
14837KMSN MSN20051018151509310/18/05 15:15:31  5-MIN KMSN 182115Z 21007KT 10SM CLR 23/06 A2979 980 33 2100 210/07 RMK AO2
14837KMSN MSN20051018152009310/18/05 15:20:31  5-MIN KMSN 182120Z 19008KT 10SM CLR 23/06 A2979 980 33 2200 190/08 RMK AO2
14837KMSN MSN20051018152509310/18/05 15:25:31  5-MIN KMSN 182125Z 19007KT 10SM CLR 23/07 A2979 990 35 2200 190/07 RMK AO2
14837KMSN MSN20051018153009310/18/05 15:30:31  5-MIN KMSN 182130Z 19011KT 10SM CLR 23/06 A2979 990 33 2200 190/11 RMK AO2
14837KMSN MSN20051018153509310/18/05 15:35:31  5-MIN KMSN 182135Z 19012KT 10SM CLR 22/06 A2979 990 35 2100 190/12 RMK AO2
14837KMSN MSN20051018154009310/18/05 15:40:31  5-MIN KMSN 182140Z 18012KT 10SM CLR 22/06 A2978 990 35 2100 180/12 RMK AO2
14837KMSN MSN20051018154509310/18/05 15:45:31  5-MIN KMSN 182145Z 20008KT 10SM CLR 22/07 A2978 990 36 2100 200/08 RMK AO2
14837KMSN MSN20051018155011010/18/05 15:50:31  5-MIN KMSN 182150Z 19011KT 10SM CLR 22/06 A2978 990 35 2100 190/11 RMK AO2 SLP084 T02220061
14837KMSN MSN20051018155509410/18/05 15:55:31  5-MIN KMSN 182155Z 20010KT 10SM CLR 22/06 A2978 1000 35 2100 190/10 RMK AO2
14837KMSN MSN20051018160009310/18/05 16:00:31  5-MIN KMSN 182200Z 21010KT 10SM CLR 22/06 A2978 990 35 2100 210/10 RMK AO2
14837KMSN MSN20051018160510010/18/05 16:05:31  5-MIN KMSN 182205Z 20012G16KT 10SM CLR 22/06 A2978 1000 35 2100 200/12G16 RMK AO2
14837KMSN MSN20051018161010010/18/05 16:10:31  5-MIN KMSN 182210Z 20009G16KT 10SM CLR 22/06 A2978 1000 36 2000 200/09G16 RMK AO2
14837KMSN MSN20051018161509410/18/05 16:15:31  5-MIN KMSN 182215Z 20007KT 10SM CLR 22/06 A2978 1000 36 2000 200/07 RMK AO2
14837KMSN MSN20051018162009410/18/05 16:20:31  5-MIN KMSN 182220Z 20008KT 10SM CLR 22/07 A2977 1000 37 2000 200/08 RMK AO2
14837KMSN MSN20051018162510010/18/05 16:25:31  5-MIN KMSN 182225Z 20007G14KT 10SM CLR 22/07 A2977 1000 37 2000 200/07G14 RMK AO2
14837KMSN MSN20051018163009410/18/05 16:30:31  5-MIN KMSN 182230Z 20008KT 10SM CLR 22/07 A2977 1000 37 2000 200/08 RMK AO2
14837KMSN MSN20051018163509410/18/05 16:35:31  5-MIN KMSN 182235Z 19006KT 10SM CLR 21/07 A2977 1000 38 2000 190/06 RMK AO2
14837KMSN MSN20051018164009410/18/05 16:40:31  5-MIN KMSN 182240Z 19009KT 10SM CLR 21/07 A2977 1000 38 2000 190/09 RMK AO2
14837KMSN MSN20051018164509410/18/05 16:45:31  5-MIN KMSN 182245Z 19009KT 10SM CLR 21/06 A2977 1000 37 2000 190/09 RMK AO2
14837KMSN MSN20051018165011110/18/05 16:50:31  5-MIN KMSN 182250Z 19010KT 10SM CLR 21/06 A2977 1000 37 2000 190/10 RMK AO2 SLP080 T02110061
14837KMSN MSN20051018165509410/18/05 16:55:31  5-MIN KMSN 182255Z 19011KT 10SM CLR 21/06 A2977 1010 37 2000 190/11 RMK AO2
14837KMSN MSN20051018170009410/18/05 17:00:31  5-MIN KMSN 182300Z 19009KT 10SM CLR 21/06 A2976 1010 37 2000 190/09 RMK AO2
14837KMSN MSN20051018170509410/18/05 17:05:31  5-MIN KMSN 182305Z 19008KT 10SM CLR 21/07 A2976 1010 40 1900 190/08 RMK AO2
14837KMSN MSN20051018171009410/18/05 17:10:31  5-MIN KMSN 182310Z 19009KT 10SM CLR 21/07 A2976 1010 40 1900 190/09 RMK AO2
14837KMSN MSN20051018171509410/18/05 17:15:31  5-MIN KMSN 182315Z 18009KT 10SM CLR 20/07 A2975 1020 41 1900 180/09 RMK AO2
14837KMSN MSN20051018172009410/18/05 17:20:31  5-MIN KMSN 182320Z 19010KT 10SM CLR 21/07 A2975 1020 40 1900 180/10 RMK AO2
14837KMSN MSN20051018172509410/18/05 17:25:31  5-MIN KMSN 182325Z 19010KT 10SM CLR 20/07 A2975 1020 41 1900 180/10 RMK AO2
14837KMSN MSN20051018173009410/18/05 17:30:31  5-MIN KMSN 182330Z 18010KT 10SM CLR 21/07 A2975 1020 40 1900 180/10 RMK AO2
14837KMSN MSN20051018173509410/18/05 17:35:31  5-MIN KMSN 182335Z 19009KT 10SM CLR 20/07 A2975 1020 41 1900 180/09 RMK AO2
14837KMSN MSN20051018174009410/18/05 17:40:31  5-MIN KMSN 182340Z 19009KT 10SM CLR 19/07 A2975 1020 43 1800 180/09 RMK AO2
14837KMSN MSN20051018174509410/18/05 17:45:31  5-MIN KMSN 182345Z 19008KT 10SM CLR 19/07 A2975 1020 43 1800 180/08 RMK AO2
14837KMSN MSN20051018175012910/18/05 17:50:31  5-MIN KMSN 182350Z 19008KT 10SM CLR 19/07 A2975 1020 44 1800 180/08 RMK AO2 SLP076 T01890067 10228 20189 56028
14837KMSN MSN20051018175509410/18/05 17:55:31  5-MIN KMSN 182355Z 18008KT 10SM CLR 19/07 A2975 1020 43 1800 180/08 RMK AO2
14837KMSN MSN20051018180009410/18/05 18:00:31  5-MIN KMSN 190000Z 19009KT 10SM CLR 19/07 A2975 1020 44 1800 190/09 RMK AO2
14837KMSN MSN20051018180509410/18/05 18:05:31  5-MIN KMSN 190005Z 19008KT 10SM CLR 19/07 A2975 1020 44 1800 180/08 RMK AO2
14837KMSN MSN20051018181009410/18/05 18:10:31  5-MIN KMSN 190010Z 18008KT 10SM CLR 19/07 A2975 1020 44 1800 180/08 RMK AO2
14837KMSN MSN20051018181509410/18/05 18:15:31  5-MIN KMSN 190015Z 18007KT 10SM CLR 19/07 A2975 1020 44 1800 180/07 RMK AO2
14837KMSN MSN20051018182009410/18/05 18:20:31  5-MIN KMSN 190020Z 18008KT 10SM CLR 18/07 A2974 1030 46 1700 180/08 RMK AO2
14837KMSN MSN20051018182509410/18/05 18:25:31  5-MIN KMSN 190025Z 18008KT 10SM CLR 18/07 A2974 1030 46 1700 180/08 RMK AO2
14837KMSN MSN20051018183009410/18/05 18:30:31  5-MIN KMSN 190030Z 18008KT 10SM CLR 19/06 A2974 1030 43 1800 180/08 RMK AO2
14837KMSN MSN20051018183509410/18/05 18:35:31  5-MIN KMSN 190035Z 19008KT 10SM CLR 19/06 A2974 1030 43 1800 190/08 RMK AO2
14837KMSN MSN20051018184009410/18/05 18:40:31  5-MIN KMSN 190040Z 19010KT 10SM CLR 19/06 A2974 1030 41 1800 190/10 RMK AO2
14837KMSN MSN20051018184509410/18/05 18:45:31  5-MIN KMSN 190045Z 19009KT 10SM CLR 19/06 A2974 1030 41 1800 190/09 RMK AO2
14837KMSN MSN20051018185011710/18/05 18:50:31  5-MIN KMSN 190050Z 19009G16KT 10SM CLR 19/06 A2974 1030 40 1800 190/09G16 RMK AO2 SLP070 T01940056
14837KMSN MSN20051018185509410/18/05 18:55:31  5-MIN KMSN 190055Z 19009KT 10SM CLR 19/06 A2974 1030 40 1800 190/09 RMK AO2
14837KMSN MSN20051018190009410/18/05 19:00:31  5-MIN KMSN 190100Z 19010KT 10SM CLR 19/06 A2974 1030 40 1800 190/10 RMK AO2
14837KMSN MSN20051018190509410/18/05 19:05:31  5-MIN KMSN 190105Z 20009KT 10SM CLR 19/06 A2974 1030 41 1800 190/09 RMK AO2
14837KMSN MSN20051018191009410/18/05 19:10:31  5-MIN KMSN 190110Z 19008KT 10SM CLR 19/06 A2974 1030 41 1800 190/08 RMK AO2
14837KMSN MSN20051018191509410/18/05 19:15:31  5-MIN KMSN 190115Z 19010KT 10SM CLR 19/06 A2974 1040 41 1800 190/10 RMK AO2
14837KMSN MSN20051018192009410/18/05 19:20:31  5-MIN KMSN 190120Z 19008KT 10SM CLR 19/06 A2974 1040 41 1800 190/08 RMK AO2
14837KMSN MSN20051018192509410/18/05 19:25:31  5-MIN KMSN 190125Z 19007KT 10SM CLR 18/06 A2974 1040 42 1700 190/07 RMK AO2
14837KMSN MSN20051018193009410/18/05 19:30:31  5-MIN KMSN 190130Z 19007KT 10SM CLR 18/06 A2973 1040 42 1700 190/07 RMK AO2
14837KMSN MSN20051018193509410/18/05 19:35:31  5-MIN KMSN 190135Z 19007KT 10SM CLR 18/06 A2973 1040 42 1700 190/07 RMK AO2
14837KMSN MSN20051018194009410/18/05 19:40:31  5-MIN KMSN 190140Z 19006KT 10SM CLR 18/06 A2974 1030 44 1700 190/06 RMK AO2
14837KMSN MSN20051018194509410/18/05 19:45:31  5-MIN KMSN 190145Z 19006KT 10SM CLR 18/06 A2974 1030 46 1600 190/06 RMK AO2
14837KMSN MSN20051018195011110/18/05 19:50:31  5-MIN KMSN 190150Z 18006KT 10SM CLR 18/06 A2974 1040 46 1600 180/06 RMK AO2 SLP070 T01780061
14837KMSN MSN20051018195509410/18/05 19:55:31  5-MIN KMSN 190155Z 19007KT 10SM CLR 18/06 A2974 1040 46 1600 190/07 RMK AO2
14837KMSN MSN20051018200009410/18/05 20:00:31  5-MIN KMSN 190200Z 19007KT 10SM CLR 18/06 A2974 1040 46 1600 190/07 RMK AO2
14837KMSN MSN20051018200509410/18/05 20:05:31  5-MIN KMSN 190205Z 19006KT 10SM CLR 18/06 A2974 1040 46 1600 190/06 RMK AO2
14837KMSN MSN20051018201009410/18/05 20:10:31  5-MIN KMSN 190210Z 19007KT 10SM CLR 18/06 A2973 1040 44 1600 190/07 RMK AO2
14837KMSN MSN20051018201509410/18/05 20:15:31  5-MIN KMSN 190215Z 20008KT 10SM CLR 18/06 A2973 1040 46 1600 200/08 RMK AO2
14837KMSN MSN20051018202009410/18/05 20:20:31  5-MIN KMSN 190220Z 19009KT 10SM CLR 18/06 A2973 1040 42 1700 190/09 RMK AO2
14837KMSN MSN20051018202509410/18/05 20:25:31  5-MIN KMSN 190225Z 19008KT 10SM CLR 18/06 A2973 1040 42 1700 190/08 RMK AO2
14837KMSN MSN20051018203009410/18/05 20:30:31  5-MIN KMSN 190230Z 20008KT 10SM CLR 18/06 A2973 1040 44 1600 200/08 RMK AO2
14837KMSN MSN20051018203509410/18/05 20:35:31  5-MIN KMSN 190235Z 19008KT 10SM CLR 18/06 A2973 1040 44 1600 190/08 RMK AO2
14837KMSN MSN20051018204009410/18/05 20:40:31  5-MIN KMSN 190240Z 19008KT 10SM CLR 18/06 A2973 1040 44 1600 190/08 RMK AO2
14837KMSN MSN20051018204509410/18/05 20:45:31  5-MIN KMSN 190245Z 20008KT 10SM CLR 18/06 A2973 1040 46 1600 190/08 RMK AO2
14837KMSN MSN20051018205011710/18/05 20:50:31  5-MIN KMSN 190250Z 20008KT 10SM CLR 18/06 A2973 1040 46 1600 200/08 RMK AO2 SLP065 T01780061 56018
14837KMSN MSN20051018205509410/18/05 20:55:31  5-MIN KMSN 190255Z 20008KT 10SM CLR 18/06 A2973 1040 46 1700 200/08 RMK AO2
14837KMSN MSN20051018210009410/18/05 21:00:31  5-MIN KMSN 190300Z 20008KT 10SM CLR 18/06 A2972 1050 46 1700 200/08 RMK AO2
14837KMSN MSN20051018210510010/18/05 21:05:31  5-MIN KMSN 190305Z 20009G15KT 10SM CLR 18/06 A2972 1050 46 1700 200/09G15 RMK AO2
14837KMSN MSN20051018211009410/18/05 21:10:31  5-MIN KMSN 190310Z 20009KT 10SM CLR 18/06 A2972 1050 42 1700 200/09 RMK AO2
14837KMSN MSN20051018211509410/18/05 21:15:31  5-MIN KMSN 190315Z 19009KT 10SM CLR 18/06 A2972 1050 44 1700 190/09 RMK AO2
14837KMSN MSN20051018212010010/18/05 21:20:31  5-MIN KMSN 190320Z 20010G15KT 10SM CLR 18/06 A2972 1050 44 1700 200/10G15 RMK AO2
14837KMSN MSN20051018212509410/18/05 21:25:31  5-MIN KMSN 190325Z 20011KT 10SM CLR 18/06 A2972 1050 42 1700 200/11 RMK AO2
14837KMSN MSN20051018213009410/18/05 21:30:31  5-MIN KMSN 190330Z 20009KT 10SM CLR 18/06 A2971 1060 46 1700 200/09 RMK AO2
14837KMSN MSN20051018213510010/18/05 21:35:31  5-MIN KMSN 190335Z 19012G16KT 10SM CLR 18/06 A2971 1050 44 1700 190/12G16 RMK AO2
14837KMSN MSN20051018214009410/18/05 21:40:31  5-MIN KMSN 190340Z 20011KT 10SM CLR 18/06 A2971 1060 46 1700 200/11 RMK AO2
14837KMSN MSN20051018214509410/18/05 21:45:31  5-MIN KMSN 190345Z 20010KT 10SM CLR 18/06 A2971 1060 46 1700 190/10 RMK AO2
14837KMSN MSN20051018215011110/18/05 21:50:31  5-MIN KMSN 190350Z 20010KT 10SM CLR 18/06 A2971 1060 46 1700 200/10 RMK AO2 SLP060 T01780061
14837KMSN MSN20051018215510010/18/05 21:55:31  5-MIN KMSN 190355Z 20009G15KT 10SM CLR 18/06 A2971 1060 46 1700 200/09G15 RMK AO2
14837KMSN MSN20051018220009410/18/05 22:00:31  5-MIN KMSN 190400Z 20007KT 10SM CLR 18/06 A2971 1060 46 1700 200/07 RMK AO2
14837KMSN MSN20051018220509410/18/05 22:05:31  5-MIN KMSN 190405Z 20009KT 10SM CLR 17/06 A2971 1060 47 1600 200/09 RMK AO2
14837KMSN MSN20051018221009410/18/05 22:10:31  5-MIN KMSN 190410Z 20009KT 10SM CLR 18/06 A2971 1060 46 1700 200/09 RMK AO2
14837KMSN MSN20051018221509410/18/05 22:15:31  5-MIN KMSN 190415Z 20009KT 10SM CLR 17/06 A2970 1060 47 1600 200/09 RMK AO2
14837KMSN MSN20051018222009410/18/05 22:20:31  5-MIN KMSN 190420Z 20009KT 10SM CLR 17/06 A2970 1070 47 1600 200/09 RMK AO2
14837KMSN MSN20051018222509410/18/05 22:25:31  5-MIN KMSN 190425Z 19010KT 10SM CLR 17/06 A2970 1070 47 1600 190/10 RMK AO2
14837KMSN MSN20051018223009410/18/05 22:30:31  5-MIN KMSN 190430Z 20009KT 10SM CLR 18/06 A2970 1070 46 1700 190/09 RMK AO2
14837KMSN MSN20051018223509410/18/05 22:35:31  5-MIN KMSN 190435Z 20011KT 10SM CLR 17/06 A2970 1070 47 1600 200/11 RMK AO2
14837KMSN MSN20051018224009410/18/05 22:40:31  5-MIN KMSN 190440Z 20010KT 10SM CLR 18/06 A2970 1070 46 1700 200/10 RMK AO2
14837KMSN MSN20051018224509410/18/05 22:45:31  5-MIN KMSN 190445Z 20009KT 10SM CLR 18/06 A2970 1070 46 1700 200/09 RMK AO2
14837KMSN MSN20051018225011110/18/05 22:50:31  5-MIN KMSN 190450Z 21010KT 10SM CLR 18/06 A2969 1070 46 1700 200/10 RMK AO2 SLP053 T01780061
14837KMSN MSN20051018225509410/18/05 22:55:31  5-MIN KMSN 190455Z 20009KT 10SM CLR 18/06 A2969 1080 46 1700 200/09 RMK AO2
14837KMSN MSN20051018230009410/18/05 23:00:31  5-MIN KMSN 190500Z 20008KT 10SM CLR 18/06 A2969 1080 46 1700 200/08 RMK AO2
14837KMSN MSN20051018230509410/18/05 23:05:31  5-MIN KMSN 190505Z 21009KT 10SM CLR 18/06 A2969 1080 46 1700 210/09 RMK AO2
14837KMSN MSN20051018231009410/18/05 23:10:31  5-MIN KMSN 190510Z 21007KT 10SM CLR 18/06 A2969 1080 46 1700 200/07 RMK AO2
14837KMSN MSN20051018231509410/18/05 23:15:31  5-MIN KMSN 190515Z 20009KT 10SM CLR 18/07 A2969 1080 48 1700 200/09 RMK AO2
14837KMSN MSN20051018232009410/18/05 23:20:31  5-MIN KMSN 190520Z 20010KT 10SM CLR 18/07 A2969 1080 48 1700 200/10 RMK AO2
14837KMSN MSN20051018232509410/18/05 23:25:31  5-MIN KMSN 190525Z 20008KT 10SM CLR 18/07 A2969 1080 48 1700 200/08 RMK AO2
14837KMSN MSN20051018233009410/18/05 23:30:31  5-MIN KMSN 190530Z 20008KT 10SM CLR 18/07 A2968 1080 48 1700 200/08 RMK AO2
14837KMSN MSN20051018233509410/18/05 23:35:31  5-MIN KMSN 190535Z 21008KT 10SM CLR 18/07 A2969 1080 48 1700 210/08 RMK AO2
14837KMSN MSN20051018234011610/18/05 23:40:31  5-MIN KMSN 190540Z 21010G16KT 170V240 10SM CLR 18/07 A2969 1080 48 1700 210/10G16 170V240 RMK AO2
14837KMSN MSN20051018234510010/18/05 23:45:31  5-MIN KMSN 190545Z 21010G16KT 10SM CLR 18/07 A2969 1080 48 1700 210/10G16 RMK AO2
14837KMSN MSN20051018235013910/18/05 23:50:31  5-MIN KMSN 190550Z 21010KT 10SM CLR 18/07 A2969 1070 46 1800 210/10 RMK AO2 SLP052 T01830067 10194 20172 402280044 56008
14837KMSN MSN20051018235510010/18/05 23:55:31  5-MIN KMSN 190555Z 21011G16KT 10SM CLR 18/07 A2969 1080 46 1800 210/11G16 RMK AO2
14837KMSN MSN20051019000010010/19/05 00:00:38  5-MIN KMSN 190600Z 22008G16KT 10SM CLR 18/07 A2970 1070 46 1800 220/08G16 RMK AO2
14837KMSN MSN20051019000510010/19/05 00:05:31  5-MIN KMSN 190605Z 21010G18KT 10SM CLR 18/07 A2969 1070 46 1800 210/10G18 RMK AO2
14837KMSN MSN20051019001010010/19/05 00:10:31  5-MIN KMSN 190610Z 22012G18KT 10SM CLR 18/07 A2969 1080 46 1800 220/12G18 RMK AO2
14837KMSN MSN20051019001510010/19/05 00:15:31  5-MIN KMSN 190615Z 23011G18KT 10SM CLR 18/07 A2970 1070 46 1800 230/11G18 RMK AO2
14837KMSN MSN20051019002009410/19/05 00:20:31  5-MIN KMSN 190620Z 21009KT 10SM CLR 18/07 A2969 1080 48 1800 210/09 RMK AO2
14837KMSN MSN20051019002511610/19/05 00:25:31  5-MIN KMSN 190625Z 22008G18KT 180V240 10SM CLR 18/07 A2969 1070 48 1800 220/08G18 180V240 RMK AO2
14837KMSN MSN20051019003011610/19/05 00:30:31  5-MIN KMSN 190630Z 22008G18KT 190V260 10SM CLR 18/07 A2969 1080 48 1800 220/08G18 190V260 RMK AO2
14837KMSN MSN20051019003510010/19/05 00:35:31  5-MIN KMSN 190635Z 22009G16KT 10SM CLR 18/08 A2970 1070 50 1800 220/09G16 RMK AO2
14837KMSN MSN20051019004010010/19/05 00:40:31  5-MIN KMSN 190640Z 23008G16KT 10SM CLR 18/08 A2970 1070 50 1700 220/08G16 RMK AO2
14837KMSN MSN20051019004510010/19/05 00:45:31  5-MIN KMSN 190645Z 22008G14KT 10SM CLR 18/08 A2970 1070 50 1700 220/08G14 RMK AO2
14837KMSN MSN20051019005013310/19/05 00:50:31  5-MIN KMSN 190650Z 23010G16KT 200V260 10SM CLR 18/08 A2970 1070 51 1700 230/10G16 200V260 RMK AO2 SLP053 T01780078
14837KMSN MSN20051019005510010/19/05 00:55:31  5-MIN KMSN 190655Z 23008G16KT 10SM CLR 18/08 A2970 1070 53 1700 220/08G16 RMK AO2
14837KMSN MSN20051019010009410/19/05 01:00:31  5-MIN KMSN 190700Z 23009KT 10SM CLR 18/08 A2971 1060 53 1700 230/09 RMK AO2
14837KMSN MSN20051019010509410/19/05 01:05:31  5-MIN KMSN 190705Z 23009KT 10SM CLR 18/08 A2971 1060 53 1700 230/09 RMK AO2
14837KMSN MSN20051019011011010/19/05 01:10:31  5-MIN KMSN 190710Z 22008KT 190V250 10SM CLR 17/08 A2971 1060 55 1600 220/08 190V250 RMK AO2
14837KMSN MSN20051019011509410/19/05 01:15:31  5-MIN KMSN 190715Z 23008KT 10SM CLR 17/08 A2971 1060 53 1600 230/08 RMK AO2
14837KMSN MSN20051019012009410/19/05 01:20:31  5-MIN KMSN 190720Z 23008KT 10SM CLR 17/08 A2971 1060 53 1600 220/08 RMK AO2
14837KMSN MSN20051019012509410/19/05 01:25:31  5-MIN KMSN 190725Z VRB06KT 10SM CLR 17/08 A2971 1060 55 1600 VRB/06 RMK AO2
14837KMSN MSN20051019013011010/19/05 01:30:31  5-MIN KMSN 190730Z 24007KT 210V280 10SM CLR 17/08 A2971 1060 55 1600 240/07 210V280 RMK AO2
14837KMSN MSN20051019013509410/19/05 01:35:31  5-MIN KMSN 190735Z VRB04KT 10SM CLR 17/08 A2971 1060 55 1600 VRB/04 RMK AO2
14837KMSN MSN20051019014009410/19/05 01:40:31  5-MIN KMSN 190740Z VRB03KT 10SM CLR 17/08 A2972 1050 57 1500 VRB/03 RMK AO2
14837KMSN MSN20051019014509410/19/05 01:45:31  5-MIN KMSN 190745Z VRB04KT 10SM CLR 17/08 A2972 1050 57 1500 VRB/04 RMK AO2
14837KMSN MSN20051019015011110/19/05 01:50:31  5-MIN KMSN 190750Z 26005KT 10SM CLR 17/08 A2972 1050 57 1500 260/05 RMK AO2 SLP061 T01670083
14837KMSN MSN20051019015509410/19/05 01:55:31  5-MIN KMSN 190755Z VRB05KT 10SM CLR 17/08 A2972 1050 57 1500 VRB/05 RMK AO2
14837KMSN MSN20051019020009410/19/05 02:00:31  5-MIN KMSN 190800Z 28006KT 10SM CLR 17/08 A2973 1040 57 1500 280/06 RMK AO2
14837KMSN MSN20051019020509410/19/05 02:05:31  5-MIN KMSN 190805Z 29007KT 10SM CLR 17/08 A2973 1040 57 1500 290/07 RMK AO2
14837KMSN MSN20051019021010010/19/05 02:10:31  5-MIN KMSN 190810Z 30012G20KT 10SM CLR 17/08 A2973 1040 55 1500 300/12G20 RMK AO2
14837KMSN MSN20051019021510710/19/05 02:15:31  5-MIN KMSN 190815Z 31016G20KT 10SM CLR 17/08 A2974 1030 55 1500 310/16G20 RMK AO2 PRESRR
14837KMSN MSN20051019022010710/19/05 02:20:31  5-MIN KMSN 190820Z 33011G20KT 10SM CLR 16/08 A2975 1020 57 1400 330/11G20 RMK AO2 PRESRR
14837KMSN MSN20051019022510710/19/05 02:25:31  5-MIN KMSN 190825Z 31014G21KT 10SM CLR 16/08 A2976 1020 57 1400 310/14G21 RMK AO2 PRESRR
14837KMSN MSN20051019023010710/19/05 02:30:31  5-MIN KMSN 190830Z 33013G21KT 10SM CLR 16/07 A2976 1010 57 1400 330/13G21 RMK AO2 PRESRR
14837KMSN MSN20051019023510010/19/05 02:35:31  5-MIN KMSN 190835Z 32015G22KT 10SM CLR 15/07 A2977 1010 59 1300 320/15G22 RMK AO2
14837KMSN MSN20051019024010010/19/05 02:40:31  5-MIN KMSN 190840Z 32015G22KT 10SM CLR 15/07 A2977 1000 57 1300 320/15G22 RMK AO2
14837KMSN MSN20051019024510010/19/05 02:45:31  5-MIN KMSN 190845Z 32017G20KT 10SM CLR 14/07 A2978 1000 59 1200 320/17G20 RMK AO2
14837KMSN MSN20051019025012210/19/05 02:50:31  5-MIN KMSN 190850Z 32016G20KT 10SM CLR 14/07 A2978 990 59 1200 320/16G20 RMK AO2 SLP082 T01440067 56011
14837KMSN MSN20051019025509910/19/05 02:55:31  5-MIN KMSN 190855Z 32012G19KT 10SM CLR 14/07 A2979 990 61 1100 320/12G19 RMK AO2
14837KMSN MSN20051019030010610/19/05 03:00:31  5-MIN KMSN 190900Z 33018G25KT 10SM CLR 13/06 A2980 980 61 1100 330/18G25 RMK AO2 PRESRR
14837KMSN MSN20051019030510510/19/05 03:05:31  5-MIN KMSN 190905Z 32015G25KT 10SM CLR 12/06 A2980 970 66 900 320/15G25 RMK AO2 PRESRR
14837KMSN MSN20051019031010510/19/05 03:10:31  5-MIN KMSN 190910Z 32015G24KT 10SM CLR 12/06 A2981 960 68 800 320/15G24 RMK AO2 PRESRR
14837KMSN MSN20051019031510510/19/05 03:15:31  5-MIN KMSN 190915Z 33012G24KT 10SM CLR 12/06 A2982 960 68 800 320/12G24 RMK AO2 PRESRR
14837KMSN MSN20051019032011610/19/05 03:20:31  5-MIN KMSN 190920Z 34017G28KT 10SM CLR 11/06 A2982 960 68 800 340/17G28 RMK AO2 PK WND 33028/0917
14837KMSN MSN20051019032511610/19/05 03:25:31  5-MIN KMSN 190925Z 33018G28KT 10SM CLR 11/06 A2983 950 68 700 330/18G28 RMK AO2 PK WND 33028/0917
14837KMSN MSN20051019033011610/19/05 03:30:31  5-MIN KMSN 190930Z 32018G25KT 10SM CLR 11/06 A2983 940 71 700 320/18G25 RMK AO2 PK WND 33028/0917
14837KMSN MSN20051019033511610/19/05 03:35:31  5-MIN KMSN 190935Z 32012G24KT 10SM CLR 11/05 A2984 940 68 700 320/12G24 RMK AO2 PK WND 33028/0917
14837KMSN MSN20051019034011610/19/05 03:40:31  5-MIN KMSN 190940Z 33013G22KT 10SM CLR 10/05 A2984 930 71 600 330/13G22 RMK AO2 PK WND 33028/0917
14837KMSN MSN20051019034512310/19/05 03:45:31  5-MIN KMSN 190945Z 33010G22KT 10SM CLR 10/05 A2985 930 71 600 330/10G22 RMK AO2 PK WND 33028/0917 PRESRR
14837KMSN MSN20051019035013610/19/05 03:50:31  5-MIN KMSN 190950Z 32012G18KT 10SM FEW025 10/05 A2986 920 71 600 320/12G18 RMK AO2 PK WND 33028/0917 SLP108 T01000050
14837KMSN MSN20051019035510110/19/05 03:55:31  5-MIN KMSN 190955Z 33012G17KT 10SM FEW027 10/05 A2986 920 71 600 330/12G17 RMK AO2
14837KMSN MSN20051019040010110/19/05 04:00:31  5-MIN KMSN 191000Z 34017G20KT 10SM FEW027 10/05 A2986 920 71 600 340/17G20 RMK AO2
14837KMSN MSN20051019040509510/19/05 04:05:31  5-MIN KMSN 191005Z 34018KT 10SM FEW027 10/04 A2986 920 68 600 340/18 RMK AO2
14837KMSN MSN20051019041010110/19/05 04:10:31  5-MIN KMSN 191010Z 33016G21KT 10SM FEW027 09/04 A2987 920 68 500 330/16G21 RMK AO2
14837KMSN MSN20051019041510110/19/05 04:15:31  5-MIN KMSN 191015Z 34013G21KT 10SM FEW027 09/04 A2987 910 68 500 340/13G21 RMK AO2
14837KMSN MSN20051019042009810/19/05 04:20:31  5-MIN KMSN 191020Z 33014G21KT 10SM CLR 09/04 A2988 910 68 500 330/14G21 RMK AO2
14837KMSN MSN20051019042509810/19/05 04:25:31  5-MIN KMSN 191025Z 34012G20KT 10SM CLR 09/04 A2988 900 68 500 340/12G20 RMK AO2
14837KMSN MSN20051019043009210/19/05 04:30:31  5-MIN KMSN 191030Z 34011KT 10SM CLR 09/04 A2988 900 71 400 340/11 RMK AO2
14837KMSN MSN20051019043509210/19/05 04:35:31  5-MIN KMSN 191035Z 34013KT 10SM CLR 09/04 A2989 900 71 400 340/13 RMK AO2
14837KMSN MSN20051019044009210/19/05 04:40:31  5-MIN KMSN 191040Z 34011KT 10SM CLR 09/03 A2989 890 68 400 340/11 RMK AO2
14837KMSN MSN20051019044509810/19/05 04:45:31  5-MIN KMSN 191045Z 34014G20KT 10SM CLR 08/03 A2990 890 70 300 340/14G20 RMK AO2
14837KMSN MSN20051019045011810/19/05 04:50:31  5-MIN KMSN 191050Z 33011G20KT 10SM FEW027 08/03 A2990 880 70 300 330/11G20 RMK AO2 SLP125 T00830033
14837KMSN MSN20051019045509810/19/05 04:55:31  5-MIN KMSN 191055Z 34013G20KT 10SM CLR 08/03 A2991 880 70 300 340/13G20 RMK AO2
14837KMSN MSN20051019050009810/19/05 05:00:31  5-MIN KMSN 191100Z 34012G20KT 10SM CLR 08/03 A2991 870 70 300 340/12G20 RMK AO2
14837KMSN MSN20051019050509210/19/05 05:05:31  5-MIN KMSN 191105Z 34013KT 10SM CLR 08/03 A2991 870 73 300 330/13 RMK AO2
14837KMSN MSN20051019051009810/19/05 05:10:31  5-MIN KMSN 191110Z 33010G17KT 10SM CLR 08/03 A2991 870 73 300 330/10G17 RMK AO2
14837KMSN MSN20051019051509210/19/05 05:15:31  5-MIN KMSN 191115Z 33011KT 10SM CLR 08/03 A2991 870 70 200 330/11 RMK AO2
14837KMSN MSN20051019052009810/19/05 05:20:31  5-MIN KMSN 191120Z 34013G16KT 10SM CLR 08/03 A2992 870 70 200 340/13G16 RMK AO2
14837KMSN MSN20051019052509210/19/05 05:25:31  5-MIN KMSN 191125Z 34010KT 10SM CLR 08/03 A2992 860 70 200 340/10 RMK AO2
14837KMSN MSN20051019053009210/19/05 05:30:31  5-MIN KMSN 191130Z 34011KT 10SM CLR 08/03 A2993 860 70 200 340/11 RMK AO2
14837KMSN MSN20051019053509810/19/05 05:35:31  5-MIN KMSN 191135Z 34014G19KT 10SM CLR 07/03 A2993 860 73 200 340/14G19 RMK AO2
14837KMSN MSN20051019054009810/19/05 05:40:31  5-MIN KMSN 191140Z 34015G19KT 10SM CLR 07/03 A2993 860 73 200 340/15G19 RMK AO2
14837KMSN MSN20051019054509210/19/05 05:45:31  5-MIN KMSN 191145Z 34014KT 10SM CLR 07/03 A2993 860 73 200 340/14 RMK AO2
14837KMSN MSN20051019055012710/19/05 05:50:31  5-MIN KMSN 191150Z 34015KT 10SM CLR 07/03 A2993 850 73 200 340/15 RMK AO2 SLP136 T00720028 10183 20072 53030
14837KMSN MSN20051019204009310/19/05 20:40:31  5-MIN KMSN 200240Z 00000KT 10SM CLR 04/02 A3007 730 85 -400 000/00 RMK AO2
14837KMSN MSN20051019204509310/19/05 20:45:31  5-MIN KMSN 200245Z 34003KT 10SM CLR 04/01 A3007 730 82 -300 340/03 RMK AO2
14837KMSN MSN20051019205011610/19/05 20:50:31  5-MIN KMSN 200250Z 00000KT 10SM CLR 03/01 A3007 730 85 -400 000/00 RMK AO2 SLP187 T00330011 53012
14837KMSN MSN20051019205509310/19/05 20:55:31  5-MIN KMSN 200255Z 34003KT 10SM CLR 04/02 A3007 730 85 -400 340/03 RMK AO2
14837KMSN MSN20051019210009310/19/05 21:00:31  5-MIN KMSN 200300Z 00000KT 10SM CLR 03/02 A3007 730 89 -400 000/00 RMK AO2
14837KMSN MSN20051019210509310/19/05 21:05:31  5-MIN KMSN 200305Z 00000KT 10SM CLR 04/01 A3006 730 82 -300 000/00 RMK AO2
14837KMSN MSN20051019211009310/19/05 21:10:31  5-MIN KMSN 200310Z 02003KT 10SM CLR 04/01 A3007 730 82 -300 020/03 RMK AO2
14837KMSN MSN20051019211509310/19/05 21:15:31  5-MIN KMSN 200315Z 00000KT 10SM CLR 04/01 A3007 730 82 -300 000/00 RMK AO2
14837KMSN MSN20051019212009310/19/05 21:20:31  5-MIN KMSN 200320Z 00000KT 10SM CLR 04/01 A3007 730 82 -300 000/00 RMK AO2
14837KMSN MSN20051019212509310/19/05 21:25:31  5-MIN KMSN 200325Z 00000KT 10SM CLR 04/01 A3007 730 82 -300 000/00 RMK AO2
14837KMSN MSN20051019213009310/19/05 21:30:31  5-MIN KMSN 200330Z 00000KT 10SM CLR 04/01 A3007 730 82 -300 000/00 RMK AO2
14837KMSN MSN20051019213509310/19/05 21:35:31  5-MIN KMSN 200335Z 00000KT 10SM CLR 04/01 A3007 730 82 -400 000/00 RMK AO2
14837KMSN MSN20051019214009310/19/05 21:40:31  5-MIN KMSN 200340Z 00000KT 10SM CLR 04/01 A3007 730 82 -400 000/00 RMK AO2
14837KMSN MSN20051019214509310/19/05 21:45:31  5-MIN KMSN 200345Z 00000KT 10SM CLR 04/01 A3006 730 82 -300 000/00 RMK AO2
14837KMSN MSN20051019215011010/19/05 21:50:31  5-MIN KMSN 200350Z 00000KT 10SM CLR 04/01 A3006 730 79 -300 000/00 RMK AO2 SLP185 T00440011
14837KMSN MSN20051019215509310/19/05 21:55:31  5-MIN KMSN 200355Z 00000KT 10SM CLR 04/01 A3006 740 79 -300 000/00 RMK AO2
14837KMSN MSN20051019220009310/19/05 22:00:31  5-MIN KMSN 200400Z 00000KT 10SM CLR 04/02 A3006 740 82 -300 000/00 RMK AO2
14837KMSN MSN20051019220509310/19/05 22:05:31  5-MIN KMSN 200405Z 00000KT 10SM CLR 04/02 A3006 740 85 -300 000/00 RMK AO2
14837KMSN MSN20051019221009310/19/05 22:10:31  5-MIN KMSN 200410Z 00000KT 10SM CLR 04/01 A3006 740 82 -300 000/00 RMK AO2
14837KMSN MSN20051019221509310/19/05 22:15:31  5-MIN KMSN 200415Z 00000KT 10SM CLR 04/01 A3006 740 82 -300 000/00 RMK AO2
14837KMSN MSN20051019222009310/19/05 22:20:31  5-MIN KMSN 200420Z 00000KT 10SM CLR 04/01 A3006 740 82 -300 000/00 RMK AO2
14837KMSN MSN20051019222509310/19/05 22:25:31  5-MIN KMSN 200425Z 00000KT 10SM CLR 04/01 A3006 740 79 -300 000/00 RMK AO2
14837KMSN MSN20051019223009310/19/05 22:30:31  5-MIN KMSN 200430Z 00000KT 10SM CLR 04/01 A3006 740 79 -300 000/00 RMK AO2
14837KMSN MSN20051019223509310/19/05 22:35:31  5-MIN KMSN 200435Z 00000KT 10SM CLR 04/02 A3006 730 85 -300 000/00 RMK AO2
14837KMSN MSN20051019224009310/19/05 22:40:31  5-MIN KMSN 200440Z 00000KT 10SM CLR 04/01 A3006 730 82 -300 000/00 RMK AO2
14837KMSN MSN20051019224509310/19/05 22:45:31  5-MIN KMSN 200445Z 00000KT 10SM CLR 04/01 A3006 740 82 -300 000/00 RMK AO2
14837KMSN MSN20051019225011010/19/05 22:50:31  5-MIN KMSN 200450Z 00000KT 10SM CLR 03/02 A3006 730 89 -400 000/00 RMK AO2 SLP185 T00330017
14837KMSN MSN20051019225509310/19/05 22:55:31  5-MIN KMSN 200455Z 00000KT 10SM CLR 04/02 A3006 730 85 -300 000/00 RMK AO2
14837KMSN MSN20051019230009310/19/05 23:00:31  5-MIN KMSN 200500Z 00000KT 10SM CLR 04/02 A3006 730 85 -300 000/00 RMK AO2
14837KMSN MSN20051019230509310/19/05 23:05:31  5-MIN KMSN 200505Z 00000KT 10SM CLR 04/02 A3006 740 85 -300 000/00 RMK AO2
14837KMSN MSN20051019231009310/19/05 23:10:31  5-MIN KMSN 200510Z 00000KT 10SM CLR 04/02 A3006 740 85 -300 000/00 RMK AO2
14837KMSN MSN20051019231509310/19/05 23:15:31  5-MIN KMSN 200515Z 36003KT 10SM CLR 03/01 A3006 740 89 -500 360/03 RMK AO2
14837KMSN MSN20051019232009310/19/05 23:20:31  5-MIN KMSN 200520Z 35003KT 10SM CLR 03/02 A3006 740 89 -400 350/03 RMK AO2
14837KMSN MSN20051019232509310/19/05 23:25:31  5-MIN KMSN 200525Z 33003KT 10SM CLR 03/02 A3006 730 89 -400 320/03 RMK AO2
14837KMSN MSN20051019233009310/19/05 23:30:31  5-MIN KMSN 200530Z 34003KT 10SM CLR 04/02 A3006 740 85 -300 340/03 RMK AO2
14837KMSN MSN20051019233509310/19/05 23:35:31  5-MIN KMSN 200535Z 34003KT 10SM CLR 03/02 A3005 740 89 -400 340/03 RMK AO2
14837KMSN MSN20051019234009310/19/05 23:40:31  5-MIN KMSN 200540Z 33004KT 10SM CLR 03/02 A3005 740 89 -400 320/04 RMK AO2
14837KMSN MSN20051019234509310/19/05 23:45:31  5-MIN KMSN 200545Z 00000KT 10SM CLR 03/02 A3005 740 89 -400 000/00 RMK AO2
14837KMSN MSN20051019235013810/19/05 23:50:31  5-MIN KMSN 200550Z 00000KT 10SM CLR 04/02 A3005 740 85 -300 000/00 RMK AO2 SLP181 T00390017 10083 20028 401830028 50000
14837KMSN MSN20051019235509310/19/05 23:55:31  5-MIN KMSN 200555Z 00000KT 10SM CLR 04/02 A3005 740 89 -300 000/00 RMK AO2
14837KMSN MSN20051020000009310/20/05 00:00:38  5-MIN KMSN 200600Z 00000KT 10SM CLR 04/02 A3005 750 85 -300 000/00 RMK AO2
14837KMSN MSN20051020000509310/20/05 00:05:31  5-MIN KMSN 200605Z 00000KT 10SM CLR 04/02 A3005 740 89 -300 000/00 RMK AO2
14837KMSN MSN20051020001009310/20/05 00:10:31  5-MIN KMSN 200610Z 00000KT 10SM CLR 04/02 A3005 740 85 -300 000/00 RMK AO2
14837KMSN MSN20051020001509310/20/05 00:15:31  5-MIN KMSN 200615Z 00000KT 10SM CLR 04/02 A3006 740 85 -300 000/00 RMK AO2
14837KMSN MSN20051020002009310/20/05 00:20:31  5-MIN KMSN 200620Z 00000KT 10SM CLR 03/02 A3006 730 89 -400 000/00 RMK AO2
14837KMSN MSN20051020002509310/20/05 00:25:31  5-MIN KMSN 200625Z 00000KT 10SM CLR 03/02 A3006 740 89 -400 000/00 RMK AO2
14837KMSN MSN20051020003009310/20/05 00:30:31  5-MIN KMSN 200630Z 00000KT 10SM CLR 04/02 A3006 740 82 -300 000/00 RMK AO2
14837KMSN MSN20051020003509310/20/05 00:35:31  5-MIN KMSN 200635Z 00000KT 10SM CLR 04/02 A3006 740 89 -300 000/00 RMK AO2
14837KMSN MSN20051020004009310/20/05 00:40:31  5-MIN KMSN 200640Z 00000KT 10SM CLR 04/02 A3006 740 89 -300 000/00 RMK AO2
14837KMSN MSN20051020004509310/20/05 00:45:31  5-MIN KMSN 200645Z 00000KT 10SM CLR 04/02 A3006 730 89 -300 000/00 RMK AO2
14837KMSN MSN20051020005011010/20/05 00:50:31  5-MIN KMSN 200650Z 00000KT 10SM CLR 04/02 A3006 740 89 -300 000/00 RMK AO2 SLP183 T00390022
14837KMSN MSN20051020005509310/20/05 00:55:31  5-MIN KMSN 200655Z 00000KT 10SM CLR 04/02 A3006 740 89 -300 000/00 RMK AO2
14837KMSN MSN20051020010009310/20/05 01:00:31  5-MIN KMSN 200700Z 00000KT 10SM CLR 04/02 A3005 740 89 -300 000/00 RMK AO2
14837KMSN MSN20051020010509310/20/05 01:05:31  5-MIN KMSN 200705Z 00000KT 10SM CLR 04/02 A3005 740 85 -300 000/00 RMK AO2
14837KMSN MSN20051020011009310/20/05 01:10:31  5-MIN KMSN 200710Z 00000KT 10SM CLR 04/02 A3005 740 89 -300 000/00 RMK AO2
14837KMSN MSN20051020011509310/20/05 01:15:31  5-MIN KMSN 200715Z 02003KT 10SM CLR 04/02 A3006 740 85 -300 020/03 RMK AO2
14837KMSN MSN20051020012009310/20/05 01:20:31  5-MIN KMSN 200720Z 00000KT 10SM CLR 03/02 A3006 740 89 -400 000/00 RMK AO2
14837KMSN MSN20051020012509310/20/05 01:25:31  5-MIN KMSN 200725Z 00000KT 10SM CLR 03/02 A3005 740 89 -400 000/00 RMK AO2
14837KMSN MSN20051020013009310/20/05 01:30:31  5-MIN KMSN 200730Z 00000KT 10SM CLR 03/02 A3005 740 89 -400 000/00 RMK AO2
14837KMSN MSN20051020013509310/20/05 01:35:31  5-MIN KMSN 200735Z 00000KT 10SM CLR 03/02 A3005 740 89 -400 000/00 RMK AO2
14837KMSN MSN20051020014009310/20/05 01:40:31  5-MIN KMSN 200740Z 00000KT 10SM CLR 03/02 A3005 740 89 -400 000/00 RMK AO2
14837KMSN MSN20051020014509310/20/05 01:45:31  5-MIN KMSN 200745Z 00000KT 10SM CLR 03/02 A3005 740 92 -500 000/00 RMK AO2
14837KMSN MSN20051020015011010/20/05 01:50:31  5-MIN KMSN 200750Z 00000KT 10SM CLR 03/02 A3005 740 92 -500 000/00 RMK AO2 SLP181 T00280017
14837KMSN MSN20051020015509310/20/05 01:55:31  5-MIN KMSN 200755Z 32003KT 10SM CLR 03/02 A3005 740 92 -500 320/03 RMK AO2
14837KMSN MSN20051020020009310/20/05 02:00:31  5-MIN KMSN 200800Z 00000KT 10SM CLR 03/01 A3005 740 89 -500 000/00 RMK AO2
14837KMSN MSN20051020020509310/20/05 02:05:31  5-MIN KMSN 200805Z 00000KT 10SM CLR 03/02 A3006 740 92 -500 000/00 RMK AO2
14837KMSN MSN20051020021009310/20/05 02:10:31  5-MIN KMSN 200810Z 00000KT 10SM CLR 03/01 A3006 740 89 -500 000/00 RMK AO2
14837KMSN MSN20051020021509310/20/05 02:15:31  5-MIN KMSN 200815Z 31003KT 10SM CLR 02/01 A3006 740 92 -500 310/03 RMK AO2
14837KMSN MSN20051020022009310/20/05 02:20:31  5-MIN KMSN 200820Z 00000KT 10SM CLR 02/01 A3005 740 92 -500 000/00 RMK AO2
14837KMSN MSN20051020022509310/20/05 02:25:31  5-MIN KMSN 200825Z 00000KT 10SM CLR 02/01 A3005 740 92 -500 000/00 RMK AO2
14837KMSN MSN20051020023009310/20/05 02:30:31  5-MIN KMSN 200830Z 00000KT 10SM CLR 03/01 A3005 750 89 -500 000/00 RMK AO2
14837KMSN MSN20051020023509310/20/05 02:35:31  5-MIN KMSN 200835Z 35003KT 10SM CLR 03/01 A3005 750 89 -500 340/03 RMK AO2
14837KMSN MSN20051020024009210/20/05 02:40:31  5-MIN KMSN 200840Z 35003KT 9SM CLR 02/01 A3005 750 92 -500 350/03 RMK AO2
14837KMSN MSN20051020024509210/20/05 02:45:31  5-MIN KMSN 200845Z 00000KT 9SM CLR 02/01 A3005 750 92 -600 000/00 RMK AO2
14837KMSN MSN20051020025011510/20/05 02:50:31  5-MIN KMSN 200850Z 00000KT 9SM CLR 02/01 A3004 750 92 -600 000/00 RMK AO2 SLP178 T00170006 58005
14837KMSN MSN20051020025509210/20/05 02:55:31  5-MIN KMSN 200855Z 00000KT 9SM CLR 02/01 A3004 750 92 -500 000/00 RMK AO2
14837KMSN MSN20051020030009210/20/05 03:00:31  5-MIN KMSN 200900Z 34003KT 9SM CLR 02/01 A3005 750 92 -500 340/03 RMK AO2
14837KMSN MSN20051020030509210/20/05 03:05:31  5-MIN KMSN 200905Z 00000KT 8SM CLR 02/01 A3005 750 96 -600 000/00 RMK AO2
14837KMSN MSN20051020031009210/20/05 03:10:31  5-MIN KMSN 200910Z 00000KT 8SM CLR 02/01 A3005 740 89 -500 000/00 RMK AO2
14837KMSN MSN20051020031509210/20/05 03:15:31  5-MIN KMSN 200915Z 00000KT 9SM CLR 02/01 A3006 740 92 -600 000/00 RMK AO2
14837KMSN MSN20051020032009210/20/05 03:20:31  5-MIN KMSN 200920Z 00000KT 9SM CLR 02/01 A3006 740 92 -600 000/00 RMK AO2
14837KMSN MSN20051020032509210/20/05 03:25:31  5-MIN KMSN 200925Z 00000KT 9SM CLR 02/01 A3006 730 89 -600 000/00 RMK AO2
14837KMSN MSN20051020033009210/20/05 03:30:31  5-MIN KMSN 200930Z 00000KT 9SM CLR 02/01 A3006 730 92 -600 000/00 RMK AO2
14837KMSN MSN20051020033509210/20/05 03:35:31  5-MIN KMSN 200935Z 00000KT 8SM CLR 02/01 A3006 730 96 -600 000/00 RMK AO2
14837KMSN MSN20051020034009210/20/05 03:40:31  5-MIN KMSN 200940Z 00000KT 8SM CLR 02/01 A3007 730 92 -600 000/00 RMK AO2
14837KMSN MSN20051020034509210/20/05 03:45:31  5-MIN KMSN 200945Z 00000KT 7SM CLR 02/01 A3006 730 92 -600 000/00 RMK AO2
14837KMSN MSN20051020035010910/20/05 03:50:31  5-MIN KMSN 200950Z 00000KT 7SM CLR 01/01 A3007 730 96 -700 000/00 RMK AO2 SLP186 T00110006
14837KMSN MSN20051020035509210/20/05 03:55:31  5-MIN KMSN 200955Z 00000KT 7SM CLR 02/01 A3007 730 96 -600 000/00 RMK AO2
14837KMSN MSN20051020040009310/20/05 04:00:31  5-MIN KMSN 201000Z 00000KT 7SM CLR 01/01 A3007 730 100 -700 000/00 RMK AO2
14837KMSN MSN20051020040509510/20/05 04:05:31  5-MIN KMSN 201005Z 31003KT 6SM BR CLR 01/01 A3007 730 96 -700 310/03 RMK AO2
14837KMSN MSN20051020041009510/20/05 04:10:31  5-MIN KMSN 201010Z 32003KT 6SM BR CLR 01/01 A3007 730 96 -700 320/03 RMK AO2
14837KMSN MSN20051020041509510/20/05 04:15:31  5-MIN KMSN 201015Z 00000KT 6SM BR CLR 02/01 A3007 730 96 -600 000/00 RMK AO2
14837KMSN MSN20051020042009510/20/05 04:20:31  5-MIN KMSN 201020Z 33003KT 6SM BR CLR 01/01 A3006 730 96 -700 330/03 RMK AO2
14837KMSN MSN20051020042509510/20/05 04:25:31  5-MIN KMSN 201025Z 34004KT 6SM BR CLR 01/01 A3006 730 96 -700 340/04 RMK AO2
14837KMSN MSN20051020043009210/20/05 04:30:31  5-MIN KMSN 201030Z 34005KT 7SM CLR 01/01 A3006 740 96 -700 340/05 RMK AO2
14837KMSN MSN20051020043509210/20/05 04:35:31  5-MIN KMSN 201035Z 34004KT 7SM CLR 01/00 A3006 740 92 -700 340/04 RMK AO2
14837KMSN MSN20051020044009210/20/05 04:40:31  5-MIN KMSN 201040Z 34005KT 7SM CLR 01/00 A3006 740 92 -700 340/05 RMK AO2
14837KMSN MSN20051020044509210/20/05 04:45:31  5-MIN KMSN 201045Z 34005KT 7SM CLR 01/01 A3005 740 96 -700 340/05 RMK AO2
14837KMSN MSN20051020045011210/20/05 04:50:31  5-MIN KMSN 201050Z 34006KT 6SM BR CLR 01/01 A3005 740 96 -700 330/06 RMK AO2 SLP183 T00110006
14837KMSN MSN20051020045509510/20/05 04:55:31  5-MIN KMSN 201055Z 33004KT 6SM BR CLR 01/01 A3005 740 96 -700 330/04 RMK AO2
14837KMSN MSN20051020050009510/20/05 05:00:31  5-MIN KMSN 201100Z 33004KT 6SM BR CLR 02/01 A3005 740 92 -600 330/04 RMK AO2
14837KMSN MSN20051020050509510/20/05 05:05:31  5-MIN KMSN 201105Z 33003KT 6SM BR CLR 02/01 A3005 750 92 -600 330/03 RMK AO2
14837KMSN MSN20051020051009510/20/05 05:10:31  5-MIN KMSN 201110Z 33004KT 6SM BR CLR 01/01 A3005 740 96 -700 330/04 RMK AO2
14837KMSN MSN20051020051509510/20/05 05:15:31  5-MIN KMSN 201115Z 33003KT 6SM BR CLR 01/01 A3005 740 96 -700 330/03 RMK AO2
14837KMSN MSN20051020052009510/20/05 05:20:31  5-MIN KMSN 201120Z 00000KT 5SM BR CLR 01/01 A3006 740 96 -700 000/00 RMK AO2
14837KMSN MSN20051020052509510/20/05 05:25:31  5-MIN KMSN 201125Z 00000KT 5SM BR CLR 01/00 A3006 740 92 -700 000/00 RMK AO2
14837KMSN MSN20051020053009510/20/05 05:30:31  5-MIN KMSN 201130Z 00000KT 6SM BR CLR 01/00 A3006 730 92 -700 000/00 RMK AO2
14837KMSN MSN20051020053509510/20/05 05:35:31  5-MIN KMSN 201135Z 00000KT 6SM BR CLR 01/00 A3007 730 92 -700 000/00 RMK AO2
14837KMSN MSN20051020054009510/20/05 05:40:31  5-MIN KMSN 201140Z 00000KT 5SM BR CLR 01/00 A3006 730 96 -800 000/00 RMK AO2
14837KMSN MSN20051020054509510/20/05 05:45:31  5-MIN KMSN 201145Z 34003KT 5SM BR CLR 01/01 A3006 730 96 -700 340/03 RMK AO2
14837KMSN MSN20051020055013010/20/05 05:50:31  5-MIN KMSN 201150Z 34004KT 6SM BR CLR 01/00 A3006 730 96 -800 340/04 RMK AO2 SLP186 T00060000 10044 20006 58002
14837KMSN MSN20051020055509510/20/05 05:55:31  5-MIN KMSN 201155Z 34004KT 4SM BR CLR 01/00 A3006 730 96 -800 340/04 RMK AO2
14837KMSN MSN20051020060009510/20/05 06:00:31  5-MIN KMSN 201200Z 31003KT 4SM BR CLR 01/00 A3006 730 96 -800 310/03 RMK AO2
14837KMSN MSN20051020060509510/20/05 06:05:31  5-MIN KMSN 201205Z 00000KT 4SM BR CLR 01/00 A3007 730 96 -800 000/00 RMK AO2
14837KMSN MSN20051020061009510/20/05 06:10:31  5-MIN KMSN 201210Z 33003KT 4SM BR CLR 01/00 A3007 730 96 -800 330/03 RMK AO2
14837KMSN MSN20051020061509510/20/05 06:15:31  5-MIN KMSN 201215Z 33004KT 4SM BR CLR 01/00 A3007 730 96 -800 330/04 RMK AO2
14837KMSN MSN20051020062009610/20/05 06:20:31  5-MIN KMSN 201220Z 34005KT 3SM BR CLR 01/M01 A3007 730 92 -800 340/05 RMK AO2
14837KMSN MSN20051020062509610/20/05 06:25:31  5-MIN KMSN 201225Z 34005KT 5SM BR CLR 00/M01 A3007 730 96 -800 340/05 RMK AO2
14837KMSN MSN20051020063009610/20/05 06:30:31  5-MIN KMSN 201230Z 34005KT 5SM BR CLR 01/M01 A3007 730 92 -800 340/05 RMK AO2
14837KMSN MSN20051020063509610/20/05 06:35:31  5-MIN KMSN 201235Z 34006KT 5SM BR CLR 01/M01 A3007 730 92 -800 340/06 RMK AO2
14837KMSN MSN20051020064009510/20/05 06:40:31  5-MIN KMSN 201240Z 34006KT 5SM BR CLR 01/00 A3007 730 96 -800 340/06 RMK AO2
14837KMSN MSN20051020064509510/20/05 06:45:31  5-MIN KMSN 201245Z 33005KT 5SM BR CLR 01/00 A3007 730 92 -700 330/05 RMK AO2
14837KMSN MSN20051020065011210/20/05 06:50:31  5-MIN KMSN 201250Z VRB03KT 5SM BR CLR 02/01 A3007 730 92 -600 VRB/03 RMK AO2 SLP190 T00170006
14837KMSN MSN20051020065509510/20/05 06:55:31  5-MIN KMSN 201255Z 32003KT 4SM BR CLR 02/01 A3007 720 96 -600 320/03 RMK AO2
14837KMSN MSN20051020070009510/20/05 07:00:31  5-MIN KMSN 201300Z 32003KT 4SM BR CLR 02/01 A3008 720 96 -600 320/03 RMK AO2
14837KMSN MSN20051020070509510/20/05 07:05:31  5-MIN KMSN 201305Z 32003KT 3SM BR CLR 02/01 A3008 720 92 -600 320/03 RMK AO2
14837KMSN MSN20051020071009510/20/05 07:10:31  5-MIN KMSN 201310Z 33003KT 4SM BR CLR 02/01 A3008 720 92 -600 330/03 RMK AO2
14837KMSN MSN20051020071509510/20/05 07:15:31  5-MIN KMSN 201315Z 33003KT 3SM BR CLR 03/02 A3008 710 92 -500 330/03 RMK AO2
14837KMSN MSN20051020072009510/20/05 07:20:31  5-MIN KMSN 201320Z 34003KT 4SM BR CLR 03/02 A3008 720 96 -500 340/03 RMK AO2
14837KMSN MSN20051020072509510/20/05 07:25:31  5-MIN KMSN 201325Z 34004KT 4SM BR CLR 03/02 A3008 720 92 -400 340/04 RMK AO2
14837KMSN MSN20051020073009510/20/05 07:30:31  5-MIN KMSN 201330Z 34003KT 4SM BR CLR 04/02 A3008 720 89 -400 340/03 RMK AO2
14837KMSN MSN20051020073509510/20/05 07:35:31  5-MIN KMSN 201335Z 35003KT 4SM BR CLR 04/03 A3008 710 92 -400 340/03 RMK AO2
14837KMSN MSN20051020074009510/20/05 07:40:31  5-MIN KMSN 201340Z 35004KT 5SM BR CLR 04/03 A3008 720 89 -300 350/04 RMK AO2
14837KMSN MSN20051020074509510/20/05 07:45:31  5-MIN KMSN 201345Z 35004KT 5SM BR CLR 04/03 A3008 720 89 -300 350/04 RMK AO2
14837KMSN MSN20051020075011210/20/05 07:50:31  5-MIN KMSN 201350Z 34004KT 5SM BR CLR 04/03 A3008 720 89 -300 340/04 RMK AO2 SLP190 T00440028
14837KMSN MSN20051020075509510/20/05 07:55:31  5-MIN KMSN 201355Z 33003KT 4SM BR CLR 04/03 A3008 720 89 -300 330/03 RMK AO2
14837KMSN MSN20051020080009510/20/05 08:00:31  5-MIN KMSN 201400Z 34004KT 4SM BR CLR 04/03 A3008 720 92 -300 340/04 RMK AO2
14837KMSN MSN20051020080509510/20/05 08:05:31  5-MIN KMSN 201405Z 32003KT 4SM BR CLR 05/03 A3008 720 89 -200 320/03 RMK AO2
14837KMSN MSN20051020081009510/20/05 08:10:31  5-MIN KMSN 201410Z 00000KT 4SM BR CLR 06/04 A3008 720 89 -200 000/00 RMK AO2
14837KMSN MSN20051020081509510/20/05 08:15:31  5-MIN KMSN 201415Z VRB03KT 5SM BR CLR 06/04 A3008 720 89 -100 VRB/03 RMK AO2
14837KMSN MSN20051020082009210/20/05 08:20:31  5-MIN KMSN 201420Z 01004KT 5SM BR CLR 07/05 A3008 720 89 0 010/04 RMK AO2
14837KMSN MSN20051020082509210/20/05 08:25:31  5-MIN KMSN 201425Z 36003KT 6SM BR CLR 07/05 A3008 720 86 0 360/03 RMK AO2
14837KMSN MSN20051020083009210/20/05 08:30:31  5-MIN KMSN 201430Z 36003KT 5SM BR CLR 07/05 A3007 720 86 0 360/03 RMK AO2
14837KMSN MSN20051020083509410/20/05 08:35:31  5-MIN KMSN 201435Z 02004KT 6SM BR CLR 08/06 A3008 720 86 100 020/04 RMK AO2
14837KMSN MSN20051020190009010/20/05 19:00:31  5-MIN KMSN 210100Z 08006KT 10SM CLR 07/03 A3006 740 73 0 070/06 RMK AO2
14837KMSN MSN20051020190509010/20/05 19:05:31  5-MIN KMSN 210105Z 08006KT 10SM CLR 07/03 A3006 740 73 0 070/06 RMK AO2
14837KMSN MSN20051020191009010/20/05 19:10:31  5-MIN KMSN 210110Z 07006KT 10SM CLR 07/03 A3006 740 73 0 070/06 RMK AO2
14837KMSN MSN20051020191509010/20/05 19:15:31  5-MIN KMSN 210115Z 07006KT 10SM CLR 07/03 A3006 740 76 0 070/06 RMK AO2
14837KMSN MSN20051020192009010/20/05 19:20:31  5-MIN KMSN 210120Z 07006KT 10SM CLR 07/03 A3006 740 76 0 070/06 RMK AO2
14837KMSN MSN20051020192509310/20/05 19:25:31  5-MIN KMSN 210125Z 08006KT 10SM CLR 06/03 A3006 730 79 -100 070/06 RMK AO2
14837KMSN MSN20051020193009310/20/05 19:30:31  5-MIN KMSN 210130Z 07006KT 10SM CLR 06/02 A3006 730 76 -100 070/06 RMK AO2
14837KMSN MSN20051020193509310/20/05 19:35:31  5-MIN KMSN 210135Z 08006KT 10SM CLR 06/02 A3007 730 76 -100 070/06 RMK AO2
14837KMSN MSN20051020194009310/20/05 19:40:31  5-MIN KMSN 210140Z 08006KT 10SM CLR 06/03 A3007 730 79 -100 080/06 RMK AO2
14837KMSN MSN20051020194509310/20/05 19:45:31  5-MIN KMSN 210145Z 08006KT 10SM CLR 06/02 A3007 730 76 -100 080/06 RMK AO2
14837KMSN MSN20051020195011010/20/05 19:50:31  5-MIN KMSN 210150Z 09005KT 10SM CLR 06/02 A3007 730 79 -200 080/05 RMK AO2 SLP189 T00560022
14837KMSN MSN20051020195509310/20/05 19:55:31  5-MIN KMSN 210155Z 08005KT 10SM CLR 06/02 A3007 730 76 -100 080/05 RMK AO2
14837KMSN MSN20051020200009310/20/05 20:00:31  5-MIN KMSN 210200Z 08005KT 10SM CLR 06/02 A3007 720 76 -100 080/05 RMK AO2
14837KMSN MSN20051020200509310/20/05 20:05:31  5-MIN KMSN 210205Z 07005KT 10SM CLR 06/02 A3007 720 79 -200 060/05 RMK AO2
14837KMSN MSN20051020201009310/20/05 20:10:31  5-MIN KMSN 210210Z 06005KT 10SM CLR 05/02 A3008 720 82 -200 050/05 RMK AO2
14837KMSN MSN20051020201509310/20/05 20:15:31  5-MIN KMSN 210215Z 05005KT 10SM CLR 05/02 A3008 720 82 -200 050/05 RMK AO2
14837KMSN MSN20051020202009310/20/05 20:20:31  5-MIN KMSN 210220Z 06004KT 10SM CLR 05/02 A3008 720 82 -200 050/04 RMK AO2
14837KMSN MSN20051020202509310/20/05 20:25:31  5-MIN KMSN 210225Z 04005KT 10SM CLR 06/03 A3008 720 82 -200 040/05 RMK AO2
14837KMSN MSN20051020203009310/20/05 20:30:31  5-MIN KMSN 210230Z 04005KT 10SM CLR 06/02 A3008 720 79 -200 040/05 RMK AO2
14837KMSN MSN20051020203509310/20/05 20:35:31  5-MIN KMSN 210235Z 04005KT 10SM CLR 05/02 A3008 720 82 -200 040/05 RMK AO2
14837KMSN MSN20051020204009310/20/05 20:40:31  5-MIN KMSN 210240Z 04005KT 10SM CLR 05/02 A3008 720 82 -200 040/05 RMK AO2
14837KMSN MSN20051020204509310/20/05 20:45:31  5-MIN KMSN 210245Z 04005KT 10SM CLR 05/02 A3008 720 82 -200 040/05 RMK AO2
14837KMSN MSN20051020205011610/20/05 20:50:31  5-MIN KMSN 210250Z 04006KT 10SM CLR 05/03 A3008 720 85 -200 040/06 RMK AO2 SLP192 T00500028 53006
14837KMSN MSN20051020205509310/20/05 20:55:31  5-MIN KMSN 210255Z 03006KT 10SM CLR 05/03 A3008 710 85 -200 030/06 RMK AO2
14837KMSN MSN20051020210009310/20/05 21:00:31  5-MIN KMSN 210300Z 03006KT 10SM CLR 05/03 A3008 710 85 -200 030/06 RMK AO2
14837KMSN MSN20051020210509310/20/05 21:05:31  5-MIN KMSN 210305Z 03005KT 10SM CLR 05/03 A3008 710 89 -200 030/05 RMK AO2
14837KMSN MSN20051020211009310/20/05 21:10:31  5-MIN KMSN 210310Z 01005KT 10SM CLR 05/03 A3009 710 89 -200 360/05 RMK AO2
14837KMSN MSN20051020211509310/20/05 21:15:31  5-MIN KMSN 210315Z 36005KT 10SM CLR 06/03 A3009 710 85 -200 360/05 RMK AO2
14837KMSN MSN20051020212009310/20/05 21:20:31  5-MIN KMSN 210320Z 01005KT 10SM CLR 05/03 A3009 710 89 -200 010/05 RMK AO2
14837KMSN MSN20051020212509310/20/05 21:25:31  5-MIN KMSN 210325Z 01005KT 10SM CLR 05/03 A3009 710 89 -200 010/05 RMK AO2
14837KMSN MSN20051020213009310/20/05 21:30:31  5-MIN KMSN 210330Z 02004KT 10SM CLR 05/03 A3009 710 89 -200 010/04 RMK AO2
14837KMSN MSN20051020213509310/20/05 21:35:31  5-MIN KMSN 210335Z 01005KT 10SM CLR 05/03 A3009 710 89 -200 010/05 RMK AO2
14837KMSN MSN20051020214009210/20/05 21:40:31  5-MIN KMSN 210340Z 01006KT 9SM CLR 05/03 A3009 710 89 -200 010/06 RMK AO2
14837KMSN MSN20051020214509210/20/05 21:45:31  5-MIN KMSN 210345Z 01006KT 9SM CLR 05/03 A3009 710 85 -200 010/06 RMK AO2
14837KMSN MSN20051020215011010/20/05 21:50:31  5-MIN KMSN 210350Z 02006KT 10SM CLR 04/03 A3008 710 89 -300 010/06 RMK AO2 SLP192 T00440028
14837KMSN MSN20051020215509210/20/05 21:55:31  5-MIN KMSN 210355Z 01005KT 9SM CLR 04/03 A3008 710 89 -300 010/05 RMK AO2
14837KMSN MSN20051020220009210/20/05 22:00:31  5-MIN KMSN 210400Z 01005KT 9SM CLR 04/03 A3008 710 89 -300 360/05 RMK AO2
14837KMSN MSN20051020220509210/20/05 22:05:31  5-MIN KMSN 210405Z 01005KT 9SM CLR 05/03 A3008 710 89 -200 010/05 RMK AO2
14837KMSN MSN20051020221009210/20/05 22:10:31  5-MIN KMSN 210410Z 36005KT 9SM CLR 04/03 A3009 710 92 -300 360/05 RMK AO2
14837KMSN MSN20051020221509210/20/05 22:15:31  5-MIN KMSN 210415Z 36005KT 8SM CLR 04/03 A3009 710 92 -300 360/05 RMK AO2
14837KMSN MSN20051020222009210/20/05 22:20:31  5-MIN KMSN 210420Z 36005KT 8SM CLR 04/03 A3008 710 92 -300 360/05 RMK AO2
14837KMSN MSN20051020222509210/20/05 22:25:31  5-MIN KMSN 210425Z 36005KT 8SM CLR 04/03 A3008 720 92 -300 360/05 RMK AO2
14837KMSN MSN20051020223009210/20/05 22:30:31  5-MIN KMSN 210430Z 36006KT 8SM CLR 04/03 A3008 720 92 -300 360/06 RMK AO2
14837KMSN MSN20051020223509210/20/05 22:35:31  5-MIN KMSN 210435Z 36005KT 8SM CLR 04/03 A3008 720 92 -300 360/05 RMK AO2
14837KMSN MSN20051020224009210/20/05 22:40:31  5-MIN KMSN 210440Z 36005KT 8SM CLR 04/03 A3008 720 92 -300 360/05 RMK AO2
14837KMSN MSN20051020224509210/20/05 22:45:31  5-MIN KMSN 210445Z 01004KT 7SM CLR 05/03 A3008 720 89 -200 010/04 RMK AO2
14837KMSN MSN20051020225010910/20/05 22:50:31  5-MIN KMSN 210450Z 01004KT 7SM CLR 04/03 A3008 720 92 -300 010/04 RMK AO2 SLP191 T00440033
14837KMSN MSN20051020225509210/20/05 22:55:31  5-MIN KMSN 210455Z 01004KT 7SM CLR 04/03 A3008 720 92 -300 010/04 RMK AO2
14837KMSN MSN20051020230009210/20/05 23:00:31  5-MIN KMSN 210500Z 01004KT 7SM CLR 04/03 A3008 720 92 -300 010/04 RMK AO2
14837KMSN MSN20051020230509210/20/05 23:05:31  5-MIN KMSN 210505Z 36005KT 7SM CLR 04/03 A3008 720 92 -300 360/05 RMK AO2
14837KMSN MSN20051020231009510/20/05 23:10:31  5-MIN KMSN 210510Z 36005KT 6SM BR CLR 04/03 A3008 720 96 -400 360/05 RMK AO2
14837KMSN MSN20051020231509510/20/05 23:15:31  5-MIN KMSN 210515Z 36004KT 6SM BR CLR 04/03 A3008 720 96 -400 360/04 RMK AO2
14837KMSN MSN20051020232009510/20/05 23:20:31  5-MIN KMSN 210520Z 36004KT 6SM BR CLR 04/03 A3008 720 96 -400 360/04 RMK AO2
14837KMSN MSN20051020232509510/20/05 23:25:31  5-MIN KMSN 210525Z 36004KT 6SM BR CLR 04/03 A3008 720 96 -400 360/04 RMK AO2
14837KMSN MSN20051020233009510/20/05 23:30:31  5-MIN KMSN 210530Z 34004KT 5SM BR CLR 04/03 A3008 710 96 -400 340/04 RMK AO2
14837KMSN MSN20051020233509510/20/05 23:35:31  5-MIN KMSN 210535Z 33003KT 5SM BR CLR 03/03 A3009 710 96 -400 330/03 RMK AO2
14837KMSN MSN20051020234009510/20/05 23:40:31  5-MIN KMSN 210540Z 34004KT 5SM BR CLR 03/03 A3009 710 96 -400 340/04 RMK AO2
14837KMSN MSN20051020234509510/20/05 23:45:31  5-MIN KMSN 210545Z 34003KT 5SM BR CLR 03/03 A3008 710 96 -400 340/03 RMK AO2
14837KMSN MSN20051020235014010/20/05 23:50:31  5-MIN KMSN 210550Z 35003KT 5SM BR CLR 03/03 A3008 710 96 -400 350/03 RMK AO2 SLP192 T00330028 10083 20028 401280000 52013
14837KMSN MSN20051020235509510/20/05 23:55:31  5-MIN KMSN 210555Z 35003KT 5SM BR CLR 04/03 A3008 720 96 -400 350/03 RMK AO2
14837KMSN MSN20051021000009510/21/05 00:00:38  5-MIN KMSN 210600Z 35003KT 5SM BR CLR 03/03 A3008 720 96 -400 350/03 RMK AO2
14837KMSN MSN20051021000509610/21/05 00:05:31  5-MIN KMSN 210605Z 35003KT 4SM BR CLR 03/03 A3008 720 100 -400 350/03 RMK AO2
14837KMSN MSN20051021001009610/21/05 00:10:31  5-MIN KMSN 210610Z 36003KT 4SM BR CLR 03/03 A3008 720 100 -400 360/03 RMK AO2
14837KMSN MSN20051021001509510/21/05 00:15:31  5-MIN KMSN 210615Z 36003KT 4SM BR CLR 04/03 A3008 720 96 -400 360/03 RMK AO2
14837KMSN MSN20051021002009510/21/05 00:20:31  5-MIN KMSN 210620Z 01004KT 5SM BR CLR 04/03 A3008 720 96 -400 010/04 RMK AO2
14837KMSN MSN20051021002509510/21/05 00:25:31  5-MIN KMSN 210625Z 01003KT 5SM BR CLR 03/03 A3008 720 96 -400 010/03 RMK AO2
14837KMSN MSN20051021003009510/21/05 00:30:31  5-MIN KMSN 210630Z 01003KT 5SM BR CLR 04/03 A3008 720 92 -400 010/03 RMK AO2
14837KMSN MSN20051021003509510/21/05 00:35:31  5-MIN KMSN 210635Z 03003KT 5SM BR CLR 03/03 A3008 720 96 -400 030/03 RMK AO2
14837KMSN MSN20051021004009510/21/05 00:40:31  5-MIN KMSN 210640Z 03003KT 5SM BR CLR 03/03 A3008 720 96 -400 030/03 RMK AO2
14837KMSN MSN20051021004509510/21/05 00:45:31  5-MIN KMSN 210645Z 04003KT 6SM BR CLR 04/03 A3007 720 92 -400 040/03 RMK AO2
14837KMSN MSN20051021005011210/21/05 00:50:31  5-MIN KMSN 210650Z 04003KT 6SM BR CLR 03/03 A3007 720 96 -400 040/03 RMK AO2 SLP189 T00330028
14837KMSN MSN20051021005509510/21/05 00:55:31  5-MIN KMSN 210655Z 03004KT 6SM BR CLR 03/03 A3007 720 96 -400 030/04 RMK AO2
14837KMSN MSN20051021010009510/21/05 01:00:31  5-MIN KMSN 210700Z 03005KT 6SM BR CLR 03/03 A3008 720 96 -400 020/05 RMK AO2
14837KMSN MSN20051021010509510/21/05 01:05:31  5-MIN KMSN 210705Z 35004KT 6SM BR CLR 03/03 A3007 720 96 -400 350/04 RMK AO2
14837KMSN MSN20051021011009510/21/05 01:10:31  5-MIN KMSN 210710Z 36004KT 6SM BR CLR 03/03 A3008 720 96 -400 350/04 RMK AO2
14837KMSN MSN20051021011509510/21/05 01:15:31  5-MIN KMSN 210715Z 01005KT 6SM BR CLR 03/03 A3008 720 96 -400 010/05 RMK AO2
14837KMSN MSN20051021012009510/21/05 01:20:31  5-MIN KMSN 210720Z 01004KT 6SM BR CLR 03/03 A3008 720 96 -400 010/04 RMK AO2
14837KMSN MSN20051021012509510/21/05 01:25:31  5-MIN KMSN 210725Z 02005KT 6SM BR CLR 03/03 A3008 720 96 -400 020/05 RMK AO2
14837KMSN MSN20051021013009510/21/05 01:30:31  5-MIN KMSN 210730Z 02005KT 6SM BR CLR 03/03 A3007 720 96 -400 020/05 RMK AO2
14837KMSN MSN20051021013509210/21/05 01:35:31  5-MIN KMSN 210735Z 03005KT 7SM CLR 03/03 A3007 720 96 -400 020/05 RMK AO2
14837KMSN MSN20051021014009210/21/05 01:40:31  5-MIN KMSN 210740Z 03006KT 8SM CLR 03/02 A3007 720 92 -400 030/06 RMK AO2
14837KMSN MSN20051021014509210/21/05 01:45:31  5-MIN KMSN 210745Z 03006KT 8SM CLR 03/02 A3007 720 92 -400 030/06 RMK AO2
14837KMSN MSN20051021015010910/21/05 01:50:31  5-MIN KMSN 210750Z 03006KT 8SM CLR 03/03 A3007 720 96 -400 030/06 RMK AO2 SLP188 T00330028
14837KMSN MSN20051021015509210/21/05 01:55:31  5-MIN KMSN 210755Z 03006KT 8SM CLR 03/03 A3007 720 96 -400 030/06 RMK AO2
14837KMSN MSN20051021020009210/21/05 02:00:31  5-MIN KMSN 210800Z 03006KT 9SM CLR 04/03 A3007 720 92 -400 030/06 RMK AO2
14837KMSN MSN20051021020509210/21/05 02:05:31  5-MIN KMSN 210805Z 03006KT 8SM CLR 04/03 A3007 720 92 -400 030/06 RMK AO2
14837KMSN MSN20051021021009210/21/05 02:10:31  5-MIN KMSN 210810Z 02006KT 8SM CLR 04/03 A3007 720 92 -400 020/06 RMK AO2
14837KMSN MSN20051021021509210/21/05 02:15:31  5-MIN KMSN 210815Z 03006KT 8SM CLR 04/03 A3008 720 92 -400 030/06 RMK AO2
14837KMSN MSN20051021022009210/21/05 02:20:31  5-MIN KMSN 210820Z 03006KT 8SM CLR 04/03 A3007 720 92 -400 030/06 RMK AO2
14837KMSN MSN20051021022509210/21/05 02:25:31  5-MIN KMSN 210825Z 03006KT 8SM CLR 04/03 A3007 720 92 -400 020/06 RMK AO2
14837KMSN MSN20051021023009210/21/05 02:30:31  5-MIN KMSN 210830Z 03005KT 8SM CLR 04/03 A3007 720 92 -400 030/05 RMK AO2
14837KMSN MSN20051021023509210/21/05 02:35:31  5-MIN KMSN 210835Z 02005KT 8SM CLR 04/03 A3008 720 92 -400 020/05 RMK AO2
14837KMSN MSN20051021024009210/21/05 02:40:31  5-MIN KMSN 210840Z 02005KT 8SM CLR 03/03 A3008 720 96 -400 020/05 RMK AO2
14837KMSN MSN20051021024509210/21/05 02:45:31  5-MIN KMSN 210845Z 02006KT 8SM CLR 03/03 A3007 720 96 -400 020/06 RMK AO2
14837KMSN MSN20051021025011510/21/05 02:50:31  5-MIN KMSN 210850Z 01004KT 7SM CLR 03/03 A3007 720 96 -400 010/04 RMK AO2 SLP189 T00330028 58000
14837KMSN MSN20051021025509210/21/05 02:55:31  5-MIN KMSN 210855Z 35003KT 7SM CLR 03/03 A3007 720 96 -400 350/03 RMK AO2
14837KMSN MSN20051021030009510/21/05 03:00:31  5-MIN KMSN 210900Z 01004KT 6SM BR CLR 03/02 A3007 720 92 -400 010/04 RMK AO2
14837KMSN MSN20051021030509510/21/05 03:05:31  5-MIN KMSN 210905Z 36004KT 6SM BR CLR 03/03 A3007 720 96 -400 360/04 RMK AO2
14837KMSN MSN20051021031009510/21/05 03:10:31  5-MIN KMSN 210910Z 36004KT 6SM BR CLR 03/02 A3007 720 92 -400 360/04 RMK AO2
14837KMSN MSN20051021031509510/21/05 03:15:31  5-MIN KMSN 210915Z 00000KT 6SM BR CLR 03/03 A3007 720 96 -400 000/00 RMK AO2
14837KMSN MSN20051021032009510/21/05 03:20:31  5-MIN KMSN 210920Z 00000KT 5SM BR CLR 03/03 A3007 720 96 -400 000/00 RMK AO2
14837KMSN MSN20051021032509510/21/05 03:25:31  5-MIN KMSN 210925Z 00000KT 5SM BR CLR 03/02 A3007 720 92 -400 000/00 RMK AO2
14837KMSN MSN20051021033009510/21/05 03:30:31  5-MIN KMSN 210930Z 33003KT 5SM BR CLR 03/02 A3007 720 96 -500 330/03 RMK AO2
14837KMSN MSN20051021033509510/21/05 03:35:31  5-MIN KMSN 210935Z 34003KT 5SM BR CLR 03/02 A3007 720 96 -500 340/03 RMK AO2
14837KMSN MSN20051021034009510/21/05 03:40:31  5-MIN KMSN 210940Z 35003KT 5SM BR CLR 03/02 A3007 720 96 -500 350/03 RMK AO2
14837KMSN MSN20051021034509510/21/05 03:45:31  5-MIN KMSN 210945Z 36003KT 5SM BR CLR 03/02 A3007 720 96 -500 360/03 RMK AO2
14837KMSN MSN20051021035011210/21/05 03:50:31  5-MIN KMSN 210950Z 36003KT 5SM BR CLR 03/02 A3007 720 96 -500 360/03 RMK AO2 SLP188 T00280022
14837KMSN MSN20051021035509510/21/05 03:55:31  5-MIN KMSN 210955Z 36003KT 5SM BR CLR 03/02 A3007 720 96 -500 360/03 RMK AO2
14837KMSN MSN20051021040009510/21/05 04:00:31  5-MIN KMSN 211000Z 01004KT 5SM BR CLR 03/02 A3007 720 96 -500 010/04 RMK AO2
14837KMSN MSN20051021040509510/21/05 04:05:31  5-MIN KMSN 211005Z 01003KT 6SM BR CLR 03/02 A3007 730 96 -500 010/03 RMK AO2
14837KMSN MSN20051021041009210/21/05 04:10:31  5-MIN KMSN 211010Z 03005KT 7SM CLR 03/02 A3007 720 96 -500 030/05 RMK AO2
14837KMSN MSN20051021041509210/21/05 04:15:31  5-MIN KMSN 211015Z 03006KT 7SM CLR 03/02 A3007 720 92 -500 030/06 RMK AO2
14837KMSN MSN20051021042009210/21/05 04:20:31  5-MIN KMSN 211020Z 02006KT 8SM CLR 03/02 A3008 720 96 -500 020/06 RMK AO2
14837KMSN MSN20051021042509210/21/05 04:25:31  5-MIN KMSN 211025Z 02006KT 9SM CLR 03/02 A3008 720 92 -400 020/06 RMK AO2
14837KMSN MSN20051021043009210/21/05 04:30:31  5-MIN KMSN 211030Z 34004KT 8SM CLR 03/02 A3008 720 96 -500 340/04 RMK AO2
14837KMSN MSN20051021043509210/21/05 04:35:31  5-MIN KMSN 211035Z 34004KT 7SM CLR 03/02 A3008 720 92 -500 340/04 RMK AO2
14837KMSN MSN20051021044009210/21/05 04:40:31  5-MIN KMSN 211040Z 34004KT 7SM CLR 03/02 A3008 720 96 -500 340/04 RMK AO2
14837KMSN MSN20051021044509210/21/05 04:45:31  5-MIN KMSN 211045Z VRB03KT 7SM CLR 03/02 A3008 720 96 -500 VRB/03 RMK AO2
14837KMSN MSN20051021045010910/21/05 04:50:31  5-MIN KMSN 211050Z 01003KT 7SM CLR 03/02 A3008 720 96 -500 010/03 RMK AO2 SLP191 T00280022
14837KMSN MSN20051021045509210/21/05 04:55:31  5-MIN KMSN 211055Z 00000KT 7SM CLR 03/02 A3008 720 96 -500 000/00 RMK AO2
14837KMSN MSN20051021050009210/21/05 05:00:31  5-MIN KMSN 211100Z 03004KT 8SM CLR 03/02 A3008 720 96 -500 030/04 RMK AO2
14837KMSN MSN20051021050509210/21/05 05:05:31  5-MIN KMSN 211105Z 03004KT 8SM CLR 03/02 A3008 720 92 -500 030/04 RMK AO2
14837KMSN MSN20051021051009210/21/05 05:10:31  5-MIN KMSN 211110Z 01004KT 9SM CLR 03/02 A3008 710 92 -500 010/04 RMK AO2
14837KMSN MSN20051021051509210/21/05 05:15:31  5-MIN KMSN 211115Z 36004KT 9SM CLR 02/02 A3009 710 96 -600 360/04 RMK AO2
14837KMSN MSN20051021052009210/21/05 05:20:31  5-MIN KMSN 211120Z 35004KT 8SM CLR 02/02 A3009 710 96 -600 350/04 RMK AO2
14837KMSN MSN20051021052509210/21/05 05:25:31  5-MIN KMSN 211125Z 34004KT 8SM CLR 02/02 A3009 710 96 -600 340/04 RMK AO2
14837KMSN MSN20051021053009210/21/05 05:30:31  5-MIN KMSN 211130Z 33003KT 8SM CLR 03/02 A3009 710 92 -500 330/03 RMK AO2
14837KMSN MSN20051021053509210/21/05 05:35:31  5-MIN KMSN 211135Z 33004KT 7SM CLR 02/02 A3009 710 96 -600 330/04 RMK AO2
14837KMSN MSN20051021054009210/21/05 05:40:31  5-MIN KMSN 211140Z 32003KT 7SM CLR 02/02 A3009 710 96 -600 320/03 RMK AO2
14837KMSN MSN20051021054509610/21/05 05:45:31  5-MIN KMSN 211145Z 32003KT 6SM BR CLR 02/02 A3009 710 100 -700 320/03 RMK AO2
14837KMSN MSN20051021055013010/21/05 05:50:31  5-MIN KMSN 211150Z 31003KT 6SM BR CLR 02/01 A3009 700 96 -700 310/03 RMK AO2 SLP198 T00170011 10039 20017 55002
14837KMSN MSN20051021055509510/21/05 05:55:31  5-MIN KMSN 211155Z 32003KT 6SM BR CLR 02/01 A3010 700 96 -700 320/03 RMK AO2
14837KMSN MSN20051021060009510/21/05 06:00:31  5-MIN KMSN 211200Z 34003KT 6SM BR CLR 02/01 A3010 700 96 -700 340/03 RMK AO2
14837KMSN MSN20051021060509510/21/05 06:05:31  5-MIN KMSN 211205Z 34004KT 6SM BR CLR 02/02 A3010 700 96 -600 340/04 RMK AO2
14837KMSN MSN20051021061009510/21/05 06:10:31  5-MIN KMSN 211210Z 35003KT 6SM BR CLR 02/02 A3010 700 96 -600 340/03 RMK AO2
14837KMSN MSN20051021061509510/21/05 06:15:31  5-MIN KMSN 211215Z 35003KT 6SM BR CLR 03/02 A3010 700 92 -500 350/03 RMK AO2
14837KMSN MSN20051021062009510/21/05 06:20:31  5-MIN KMSN 211220Z 35004KT 5SM BR CLR 02/02 A3010 700 96 -600 340/04 RMK AO2
14837KMSN MSN20051021062509510/21/05 06:25:31  5-MIN KMSN 211225Z 34004KT 4SM BR CLR 02/01 A3010 700 92 -600 340/04 RMK AO2
14837KMSN MSN20051021063009510/21/05 06:30:31  5-MIN KMSN 211230Z 34004KT 4SM BR CLR 02/01 A3010 700 96 -700 340/04 RMK AO2
14837KMSN MSN20051021063509510/21/05 06:35:31  5-MIN KMSN 211235Z 34004KT 4SM BR CLR 02/01 A3010 700 96 -700 340/04 RMK AO2
14837KMSN MSN20051021064009510/21/05 06:40:31  5-MIN KMSN 211240Z 34003KT 5SM BR CLR 02/01 A3010 700 92 -600 340/03 RMK AO2
14837KMSN MSN20051021064509510/21/05 06:45:31  5-MIN KMSN 211245Z 34004KT 5SM BR CLR 02/02 A3011 690 96 -600 340/04 RMK AO2
14837KMSN MSN20051021065011210/21/05 06:50:31  5-MIN KMSN 211250Z 33004KT 5SM BR CLR 02/02 A3011 690 96 -600 330/04 RMK AO2 SLP202 T00220017
14837KMSN MSN20051021065509510/21/05 06:55:31  5-MIN KMSN 211255Z 34004KT 5SM BR CLR 03/02 A3011 690 92 -500 340/04 RMK AO2
14837KMSN MSN20051021070009510/21/05 07:00:31  5-MIN KMSN 211300Z 33004KT 6SM BR CLR 03/02 A3011 690 92 -500 330/04 RMK AO2
14837KMSN MSN20051021070509510/21/05 07:05:31  5-MIN KMSN 211305Z 33004KT 6SM BR CLR 03/02 A3011 690 92 -500 330/04 RMK AO2
14837KMSN MSN20051021071009510/21/05 07:10:31  5-MIN KMSN 211310Z 34004KT 6SM BR CLR 03/02 A3011 690 92 -500 330/04 RMK AO2
14837KMSN MSN20051021071509210/21/05 07:15:31  5-MIN KMSN 211315Z 34004KT 7SM CLR 03/02 A3011 690 92 -500 340/04 RMK AO2
14837KMSN MSN20051021072009210/21/05 07:20:31  5-MIN KMSN 211320Z 34003KT 7SM CLR 03/02 A3011 690 92 -500 340/03 RMK AO2
14837KMSN MSN20051021072509210/21/05 07:25:31  5-MIN KMSN 211325Z 34004KT 7SM CLR 04/02 A3011 690 89 -400 340/04 RMK AO2
14837KMSN MSN20051021073009210/21/05 07:30:31  5-MIN KMSN 211330Z 34004KT 7SM CLR 04/02 A3011 680 89 -400 340/04 RMK AO2
14837KMSN MSN20051021073509210/21/05 07:35:31  5-MIN KMSN 211335Z 35004KT 8SM CLR 04/03 A3012 680 89 -300 350/04 RMK AO2
14837KMSN MSN20051021074009210/21/05 07:40:31  5-MIN KMSN 211340Z 34005KT 8SM CLR 04/03 A3012 680 89 -300 340/05 RMK AO2
14837KMSN MSN20051021074509210/21/05 07:45:31  5-MIN KMSN 211345Z 34005KT 8SM CLR 05/03 A3012 680 85 -300 340/05 RMK AO2
14837KMSN MSN20051021075010910/21/05 07:50:31  5-MIN KMSN 211350Z 35005KT 8SM CLR 05/03 A3012 680 89 -300 350/05 RMK AO2 SLP205 T00500033
14837KMSN MSN20051021075509210/21/05 07:55:31  5-MIN KMSN 211355Z 35005KT 8SM CLR 06/03 A3012 680 85 -200 340/05 RMK AO2
14837KMSN MSN20051021080009210/21/05 08:00:31  5-MIN KMSN 211400Z 35005KT 9SM CLR 06/03 A3012 680 85 -200 350/05 RMK AO2
14837KMSN MSN20051021080509210/21/05 08:05:31  5-MIN KMSN 211405Z 35005KT 9SM CLR 06/04 A3012 680 86 -100 350/05 RMK AO2
14837KMSN MSN20051021081009210/21/05 08:10:31  5-MIN KMSN 211410Z 35005KT 9SM CLR 06/04 A3012 680 86 -100 350/05 RMK AO2
14837KMSN MSN20051021081509210/21/05 08:15:31  5-MIN KMSN 211415Z 36006KT 9SM CLR 07/04 A3012 680 82 -100 350/06 RMK AO2
14837KMSN MSN20051021082009010/21/05 08:20:31  5-MIN KMSN 211420Z 01006KT 10SM CLR 07/04 A3012 680 82 0 010/06 RMK AO2
14837KMSN MSN20051021082509010/21/05 08:25:31  5-MIN KMSN 211425Z 02006KT 10SM CLR 08/04 A3012 680 79 0 020/06 RMK AO2
14837KMSN MSN20051021083009010/21/05 08:30:31  5-MIN KMSN 211430Z 03007KT 10SM CLR 08/04 A3012 680 79 0 030/07 RMK AO2
14837KMSN MSN20051021083509010/21/05 08:35:31  5-MIN KMSN 211435Z 03006KT 10SM CLR 08/04 A3012 680 79 0 030/06 RMK AO2
14837KMSN MSN20051021084009210/21/05 08:40:31  5-MIN KMSN 211440Z 03008KT 10SM CLR 08/04 A3012 680 76 100 030/08 RMK AO2
14837KMSN MSN20051021084509210/21/05 08:45:31  5-MIN KMSN 211445Z 03008KT 10SM CLR 08/04 A3012 680 76 100 030/08 RMK AO2
14837KMSN MSN20051021085011510/21/05 08:50:31  5-MIN KMSN 211450Z 04010KT 10SM CLR 08/04 A3012 680 76 100 040/10 RMK AO2 SLP204 T00830044 53007
14837KMSN MSN20051021085509210/21/05 08:55:31  5-MIN KMSN 211455Z 04008KT 10SM CLR 08/04 A3012 680 76 100 040/08 RMK AO2
14837KMSN MSN20051021090009210/21/05 09:00:31  5-MIN KMSN 211500Z 04008KT 10SM CLR 09/04 A3012 680 73 200 040/08 RMK AO2
14837KMSN MSN20051021090509210/21/05 09:05:31  5-MIN KMSN 211505Z 03009KT 10SM CLR 09/04 A3012 680 73 200 030/09 RMK AO2
14837KMSN MSN20051021091009210/21/05 09:10:31  5-MIN KMSN 211510Z 04009KT 10SM CLR 09/04 A3012 680 73 200 040/09 RMK AO2
14837KMSN MSN20051021091509210/21/05 09:15:31  5-MIN KMSN 211515Z 05010KT 10SM CLR 09/04 A3012 680 71 200 050/10 RMK AO2
14837KMSN MSN20051021092009210/21/05 09:20:31  5-MIN KMSN 211520Z 05008KT 10SM CLR 09/04 A3012 680 71 200 040/08 RMK AO2
14837KMSN MSN20051021092509210/21/05 09:25:31  5-MIN KMSN 211525Z 04010KT 10SM CLR 10/05 A3012 680 71 300 040/10 RMK AO2
14837KMSN MSN20051021093009210/21/05 09:30:31  5-MIN KMSN 211530Z 06010KT 10SM CLR 10/04 A3012 680 68 300 060/10 RMK AO2
14837KMSN MSN20051021093509210/21/05 09:35:31  5-MIN KMSN 211535Z 04011KT 10SM CLR 10/04 A3011 690 68 300 040/11 RMK AO2
14837KMSN MSN20051021094009210/21/05 09:40:31  5-MIN KMSN 211540Z 04010KT 10SM CLR 11/04 A3012 680 63 400 040/10 RMK AO2
14837KMSN MSN20051021094509210/21/05 09:45:31  5-MIN KMSN 211545Z 04010KT 10SM CLR 11/04 A3011 690 66 400 040/10 RMK AO2
14837KMSN MSN20051021095010910/21/05 09:50:31  5-MIN KMSN 211550Z 04010KT 10SM CLR 10/04 A3011 690 65 300 040/10 RMK AO2 SLP202 T01000039
14837KMSN MSN20051021095509510/21/05 09:55:31  5-MIN KMSN 211555Z 06006KT 10SM FEW030 11/04 A3011 690 63 400 050/06 RMK AO2
14837KMSN MSN20051021100009510/21/05 10:00:31  5-MIN KMSN 211600Z 06009KT 10SM FEW030 11/04 A3011 690 63 400 060/09 RMK AO2
14837KMSN MSN20051021100509210/21/05 10:05:31  5-MIN KMSN 211605Z 04010KT 10SM CLR 11/04 A3011 690 63 400 040/10 RMK AO2
14837KMSN MSN20051021101009210/21/05 10:10:31  5-MIN KMSN 211610Z 04007KT 10SM CLR 11/04 A3011 690 61 400 030/07 RMK AO2
14837KMSN MSN20051021101509510/21/05 10:15:31  5-MIN KMSN 211615Z 05008KT 10SM FEW030 11/04 A3010 700 61 400 050/08 RMK AO2
14837KMSN MSN20051021102009510/21/05 10:20:31  5-MIN KMSN 211620Z 04008KT 10SM FEW030 12/04 A3010 700 58 500 040/08 RMK AO2
14837KMSN MSN20051021102509510/21/05 10:25:31  5-MIN KMSN 211625Z 04007KT 10SM FEW030 12/04 A3010 700 58 500 040/07 RMK AO2
14837KMSN MSN20051021103009510/21/05 10:30:31  5-MIN KMSN 211630Z 07008KT 10SM FEW030 11/03 A3010 700 58 400 070/08 RMK AO2
14837KMSN MSN20051021103511110/21/05 10:35:31  5-MIN KMSN 211635Z 05007KT 030V090 10SM FEW030 12/04 A3010 700 58 500 050/07 030V090 RMK AO2
14837KMSN MSN20051021104009510/21/05 10:40:31  5-MIN KMSN 211640Z 03006KT 10SM FEW030 12/03 A3010 700 56 500 030/06 RMK AO2
14837KMSN MSN20051021104509510/21/05 10:45:31  5-MIN KMSN 211645Z 04006KT 10SM FEW030 12/03 A3010 700 56 500 040/06 RMK AO2
14837KMSN MSN20051021105011210/21/05 10:50:31  5-MIN KMSN 211650Z VRB05KT 10SM FEW035 12/03 A3010 700 54 500 VRB/05 RMK AO2 SLP197 T01170028
14837KMSN MSN20051021105509510/21/05 10:55:31  5-MIN KMSN 211655Z VRB06KT 10SM FEW035 12/03 A3010 700 56 500 VRB/06 RMK AO2
14837KMSN MSN20051021110009510/21/05 11:00:31  5-MIN KMSN 211700Z 04007KT 10SM FEW035 12/03 A3009 710 54 600 040/07 RMK AO2
14837KMSN MSN20051021110509510/21/05 11:05:31  5-MIN KMSN 211705Z VRB03KT 10SM FEW035 12/03 A3009 710 54 500 VRB/03 RMK AO2
14837KMSN MSN20051021111009510/21/05 11:10:31  5-MIN KMSN 211710Z 03007KT 10SM FEW035 12/03 A3008 710 54 600 030/07 RMK AO2
14837KMSN MSN20051021111509510/21/05 11:15:31  5-MIN KMSN 211715Z VRB03KT 10SM FEW035 12/03 A3008 710 54 500 VRB/03 RMK AO2
14837KMSN MSN20051021112009510/21/05 11:20:31  5-MIN KMSN 211720Z 02008KT 10SM FEW035 12/03 A3008 720 52 600 020/08 RMK AO2
14837KMSN MSN20051021112509510/21/05 11:25:31  5-MIN KMSN 211725Z VRB05KT 10SM FEW035 12/03 A3008 720 52 600 VRB/05 RMK AO2
14837KMSN MSN20051021113009510/21/05 11:30:31  5-MIN KMSN 211730Z 36005KT 10SM FEW035 13/03 A3008 720 50 700 350/05 RMK AO2
14837KMSN MSN20051021113509510/21/05 11:35:31  5-MIN KMSN 211735Z 01005KT 10SM FEW035 12/03 A3008 720 52 600 010/05 RMK AO2
14837KMSN MSN20051021114009510/21/05 11:40:31  5-MIN KMSN 211740Z 36005KT 10SM FEW035 12/02 A3007 720 48 600 360/05 RMK AO2
14837KMSN MSN20051021114509510/21/05 11:45:31  5-MIN KMSN 211745Z 01008KT 10SM FEW035 13/02 A3007 720 48 700 010/08 RMK AO2
14837KMSN MSN20051021115013010/21/05 11:50:31  5-MIN KMSN 211750Z VRB04KT 10SM FEW035 13/02 A3007 730 46 700 VRB/04 RMK AO2 SLP187 T01280017 10128 20017 51007
14837KMSN MSN20051021115509510/21/05 11:55:31  5-MIN KMSN 211755Z 07005KT 10SM FEW045 13/02 A3007 730 48 700 060/05 RMK AO2
14837KMSN MSN20051021120009510/21/05 12:00:31  5-MIN KMSN 211800Z VRB05KT 10SM FEW045 13/02 A3006 730 48 700 VRB/05 RMK AO2
14837KMSN MSN20051021120509510/21/05 12:05:31  5-MIN KMSN 211805Z 02006KT 10SM FEW045 13/02 A3006 730 45 700 020/06 RMK AO2
14837KMSN MSN20051021121009510/21/05 12:10:31  5-MIN KMSN 211810Z 05005KT 10SM FEW045 13/02 A3006 730 46 700 050/05 RMK AO2
14837KMSN MSN20051021121509510/21/05 12:15:31  5-MIN KMSN 211815Z 03005KT 10SM FEW045 13/01 A3006 740 44 700 020/05 RMK AO2
14837KMSN MSN20051021122009510/21/05 12:20:31  5-MIN KMSN 211820Z 05006KT 10SM FEW045 13/01 A3006 740 44 700 050/06 RMK AO2
14837KMSN MSN20051021122509510/21/05 12:25:31  5-MIN KMSN 211825Z 01004KT 10SM FEW045 13/01 A3006 740 44 700 010/04 RMK AO2
14837KMSN MSN20051021123009510/21/05 12:30:31  5-MIN KMSN 211830Z 01007KT 10SM FEW045 13/01 A3006 740 43 800 010/07 RMK AO2
14837KMSN MSN20051021123509510/21/05 12:35:31  5-MIN KMSN 211835Z 34005KT 10SM FEW045 13/01 A3006 740 41 800 340/05 RMK AO2
14837KMSN MSN20051021124009510/21/05 12:40:31  5-MIN KMSN 211840Z 36006KT 10SM FEW045 13/00 A3005 740 40 800 360/06 RMK AO2
14837KMSN MSN20051021124509510/21/05 12:45:31  5-MIN KMSN 211845Z 03007KT 10SM FEW045 13/00 A3005 740 40 800 030/07 RMK AO2
14837KMSN MSN20051021125011310/21/05 12:50:31  5-MIN KMSN 211850Z 00000KT 10SM FEW050 13/M01 A3005 740 38 800 000/00 RMK AO2 SLP181 T01331006
14837KMSN MSN20051021125509610/21/05 12:55:31  5-MIN KMSN 211855Z 01004KT 10SM FEW050 14/M01 A3005 750 37 800 010/04 RMK AO2
14837KMSN MSN20051021130011210/21/05 13:00:31  5-MIN KMSN 211900Z 32008KT 300V360 10SM FEW050 14/M01 A3005 750 37 800 320/08 300V360 RMK AO2
14837KMSN MSN20051021130509610/21/05 13:05:31  5-MIN KMSN 211905Z 35006KT 10SM FEW050 13/M01 A3005 750 38 800 350/06 RMK AO2
14837KMSN MSN20051021131009610/21/05 13:10:31  5-MIN KMSN 211910Z 36004KT 10SM FEW050 13/M01 A3005 750 38 800 360/04 RMK AO2
14837KMSN MSN20051021131509610/21/05 13:15:31  5-MIN KMSN 211915Z VRB05KT 10SM FEW050 13/M01 A3005 750 38 800 VRB/05 RMK AO2
14837KMSN MSN20051021132009610/21/05 13:20:31  5-MIN KMSN 211920Z 02006KT 10SM FEW050 14/M01 A3005 750 37 800 020/06 RMK AO2
14837KMSN MSN20051021132509610/21/05 13:25:31  5-MIN KMSN 211925Z 00000KT 10SM FEW050 14/M01 A3004 750 37 800 000/00 RMK AO2
14837KMSN MSN20051021133009610/21/05 13:30:31  5-MIN KMSN 211930Z VRB05KT 10SM FEW050 14/M01 A3004 750 37 800 VRB/05 RMK AO2
14837KMSN MSN20051021133509510/21/05 13:35:31  5-MIN KMSN 211935Z 36008KT 10SM FEW050 14/00 A3004 750 37 900 360/08 RMK AO2
14837KMSN MSN20051021134009610/21/05 13:40:31  5-MIN KMSN 211940Z VRB05KT 10SM FEW050 14/M01 A3004 750 35 800 VRB/05 RMK AO2
14837KMSN MSN20051021134509610/21/05 13:45:31  5-MIN KMSN 211945Z 01009KT 10SM FEW050 14/M01 A3004 750 37 800 010/09 RMK AO2
14837KMSN MSN20051021135011310/21/05 13:50:31  5-MIN KMSN 211950Z 36009KT 10SM FEW050 13/M01 A3004 760 38 800 360/09 RMK AO2 SLP176 T01331006
14837KMSN MSN20051021135509510/21/05 13:55:31  5-MIN KMSN 211955Z 34008KT 10SM FEW050 14/01 A3003 760 40 800 340/08 RMK AO2
14837KMSN MSN20051021140009510/21/05 14:00:31  5-MIN KMSN 212000Z 36007KT 10SM FEW050 14/00 A3003 760 38 800 360/07 RMK AO2
14837KMSN MSN20051021140510110/21/05 14:05:31  5-MIN KMSN 212005Z 36009G14KT 10SM FEW050 14/00 A3003 760 38 800 360/09G14 RMK AO2
14837KMSN MSN20051021141010110/21/05 14:10:31  5-MIN KMSN 212010Z 01008G14KT 10SM FEW050 13/00 A3003 760 40 800 010/08G14 RMK AO2
14837KMSN MSN20051021141509510/21/05 14:15:31  5-MIN KMSN 212015Z 01011KT 10SM FEW050 13/00 A3003 760 40 800 010/11 RMK AO2
14837KMSN MSN20051021142009610/21/05 14:20:31  5-MIN KMSN 212020Z 02010KT 10SM FEW050 14/M01 A3003 760 37 800 020/10 RMK AO2
14837KMSN MSN20051021142509610/21/05 14:25:31  5-MIN KMSN 212025Z 01009KT 10SM FEW050 13/M01 A3003 760 38 800 010/09 RMK AO2
14837KMSN MSN20051021143009510/21/05 14:30:31  5-MIN KMSN 212030Z 36009KT 10SM FEW050 14/00 A3003 760 38 800 360/09 RMK AO2
14837KMSN MSN20051021143509610/21/05 14:35:31  5-MIN KMSN 212035Z 36004KT 10SM FEW050 13/M01 A3003 770 38 800 360/04 RMK AO2
14837KMSN MSN20051021144009510/21/05 14:40:31  5-MIN KMSN 212040Z 02007KT 10SM FEW050 14/01 A3003 770 41 900 020/07 RMK AO2
14837KMSN MSN20051021144509510/21/05 14:45:31  5-MIN KMSN 212045Z 35009KT 10SM FEW050 13/01 A3002 770 43 800 350/09 RMK AO2
14837KMSN MSN20051021145011810/21/05 14:50:31  5-MIN KMSN 212050Z 02010KT 10SM FEW050 13/01 A3002 770 44 700 010/10 RMK AO2 SLP172 T01280011 58016
14837KMSN MSN20051021145509510/21/05 14:55:31  5-MIN KMSN 212055Z 36009KT 10SM FEW050 13/01 A3003 770 43 800 360/09 RMK AO2
14837KMSN MSN20051021150009510/21/05 15:00:31  5-MIN KMSN 212100Z 36009KT 10SM FEW050 13/01 A3003 770 43 800 360/09 RMK AO2
14837KMSN MSN20051021150509510/21/05 15:05:31  5-MIN KMSN 212105Z 01010KT 10SM FEW050 13/01 A3003 770 43 700 010/10 RMK AO2
14837KMSN MSN20051021151009510/21/05 15:10:31  5-MIN KMSN 212110Z 35007KT 10SM FEW050 12/01 A3003 770 44 700 340/07 RMK AO2
14837KMSN MSN20051021151509510/21/05 15:15:31  5-MIN KMSN 212115Z 35007KT 10SM FEW050 12/01 A3003 770 44 700 350/07 RMK AO2
14837KMSN MSN20051021152009510/21/05 15:20:31  5-MIN KMSN 212120Z 32006KT 10SM FEW050 12/01 A3003 760 46 700 320/06 RMK AO2
14837KMSN MSN20051021152509510/21/05 15:25:31  5-MIN KMSN 212125Z 34009KT 10SM FEW050 12/02 A3003 760 48 700 340/09 RMK AO2
14837KMSN MSN20051021153009510/21/05 15:30:31  5-MIN KMSN 212130Z 33008KT 10SM FEW050 12/01 A3003 760 46 700 330/08 RMK AO2
14837KMSN MSN20051021153509510/21/05 15:35:31  5-MIN KMSN 212135Z 34005KT 10SM FEW050 12/01 A3003 760 46 700 340/05 RMK AO2
14837KMSN MSN20051021154009510/21/05 15:40:31  5-MIN KMSN 212140Z 34008KT 10SM FEW050 12/01 A3003 760 46 700 340/08 RMK AO2
14837KMSN MSN20051021154509510/21/05 15:45:31  5-MIN KMSN 212145Z 35007KT 10SM FEW050 12/02 A3003 770 48 700 350/07 RMK AO2
14837KMSN MSN20051021155011210/21/05 15:50:31  5-MIN KMSN 212150Z 35008KT 10SM FEW050 12/02 A3003 760 48 700 350/08 RMK AO2 SLP174 T01220017
14837KMSN MSN20051021155509210/21/05 15:55:31  5-MIN KMSN 212155Z 35007KT 10SM CLR 12/02 A3003 760 48 700 350/07 RMK AO2
14837KMSN MSN20051021160009510/21/05 16:00:31  5-MIN KMSN 212200Z 34007KT 10SM FEW050 12/02 A3003 760 50 600 340/07 RMK AO2
14837KMSN MSN20051021160509510/21/05 16:05:31  5-MIN KMSN 212205Z 34007KT 10SM FEW050 12/01 A3003 760 48 600 340/07 RMK AO2
14837KMSN MSN20051021161009510/21/05 16:10:31  5-MIN KMSN 212210Z 34007KT 10SM FEW050 12/01 A3003 760 48 600 340/07 RMK AO2
14837KMSN MSN20051021161509510/21/05 16:15:31  5-MIN KMSN 212215Z 33005KT 10SM FEW050 12/01 A3003 760 48 600 330/05 RMK AO2
14837KMSN MSN20051021162009510/21/05 16:20:31  5-MIN KMSN 212220Z 34004KT 10SM FEW050 11/02 A3003 760 52 500 340/04 RMK AO2
14837KMSN MSN20051021162509510/21/05 16:25:31  5-MIN KMSN 212225Z 34005KT 10SM FEW050 11/02 A3003 760 52 500 340/05 RMK AO2
14837KMSN MSN20051021163009510/21/05 16:30:31  5-MIN KMSN 212230Z 33005KT 10SM FEW050 11/02 A3004 760 54 400 320/05 RMK AO2
14837KMSN MSN20051021163509510/21/05 16:35:31  5-MIN KMSN 212235Z 32004KT 10SM FEW050 11/02 A3004 760 52 500 320/04 RMK AO2
14837KMSN MSN20051021164009510/21/05 16:40:31  5-MIN KMSN 212240Z 00000KT 10SM FEW060 11/02 A3003 760 54 400 000/00 RMK AO2
14837KMSN MSN20051021164509510/21/05 16:45:31  5-MIN KMSN 212245Z 35004KT 10SM FEW060 11/02 A3003 760 54 500 350/04 RMK AO2
14837KMSN MSN20051021165011210/21/05 16:50:31  5-MIN KMSN 212250Z 35004KT 10SM FEW060 11/02 A3003 760 54 500 350/04 RMK AO2 SLP175 T01060017
14837KMSN MSN20051021165509510/21/05 16:55:31  5-MIN KMSN 212255Z 35003KT 10SM FEW060 11/02 A3003 760 54 500 350/03 RMK AO2
14837KMSN MSN20051021170009510/21/05 17:00:31  5-MIN KMSN 212300Z 33003KT 10SM FEW060 11/02 A3003 760 54 500 330/03 RMK AO2
14837KMSN MSN20051021170509510/21/05 17:05:31  5-MIN KMSN 212305Z 33003KT 10SM FEW060 10/02 A3003 760 56 400 330/03 RMK AO2
14837KMSN MSN20051021171009510/21/05 17:10:31  5-MIN KMSN 212310Z 34003KT 10SM FEW060 10/02 A3003 760 58 400 340/03 RMK AO2
14837KMSN MSN20051021171509510/21/05 17:15:31  5-MIN KMSN 212315Z 00000KT 10SM FEW060 10/02 A3003 760 56 400 000/00 RMK AO2
14837KMSN MSN20051021172009510/21/05 17:20:31  5-MIN KMSN 212320Z 00000KT 10SM FEW060 10/02 A3003 760 58 400 000/00 RMK AO2
14837KMSN MSN20051021172509210/21/05 17:25:31  5-MIN KMSN 212325Z 00000KT 10SM CLR 10/02 A3003 760 58 400 000/00 RMK AO2
14837KMSN MSN20051021173009210/21/05 17:30:31  5-MIN KMSN 212330Z 00000KT 10SM CLR 09/02 A3003 770 60 300 000/00 RMK AO2
14837KMSN MSN20051021173509510/21/05 17:35:31  5-MIN KMSN 212335Z 00000KT 10SM FEW120 09/02 A3003 770 60 300 000/00 RMK AO2
14837KMSN MSN20051021174009510/21/05 17:40:31  5-MIN KMSN 212340Z 00000KT 10SM FEW120 09/03 A3003 770 65 300 000/00 RMK AO2
14837KMSN MSN20051021174509510/21/05 17:45:31  5-MIN KMSN 212345Z 00000KT 10SM FEW120 09/03 A3002 770 65 300 000/00 RMK AO2
14837KMSN MSN20051021175013010/21/05 17:50:31  5-MIN KMSN 212350Z 00000KT 10SM FEW120 09/03 A3002 770 65 300 000/00 RMK AO2 SLP173 T00890028 10144 20089 56014
14837KMSN MSN20051021175509510/21/05 17:55:31  5-MIN KMSN 212355Z 00000KT 10SM FEW120 09/02 A3002 770 63 300 000/00 RMK AO2
14837KMSN MSN20051021180009510/21/05 18:00:31  5-MIN KMSN 220000Z 00000KT 10SM FEW120 09/03 A3003 770 65 300 000/00 RMK AO2
14837KMSN MSN20051021180509510/21/05 18:05:31  5-MIN KMSN 220005Z 00000KT 10SM SCT120 09/03 A3003 770 63 300 000/00 RMK AO2
14837KMSN MSN20051021181009510/21/05 18:10:31  5-MIN KMSN 220010Z 00000KT 10SM BKN120 09/03 A3002 770 63 300 000/00 RMK AO2
14837KMSN MSN20051021181509510/21/05 18:15:31  5-MIN KMSN 220015Z 00000KT 10SM BKN120 09/03 A3002 770 65 300 000/00 RMK AO2
14837KMSN MSN20051021182009510/21/05 18:20:31  5-MIN KMSN 220020Z 00000KT 10SM BKN120 09/03 A3002 770 65 300 000/00 RMK AO2
14837KMSN MSN20051021182509510/21/05 18:25:31  5-MIN KMSN 220025Z 00000KT 10SM BKN120 08/03 A3003 770 68 200 000/00 RMK AO2
14837KMSN MSN20051021183009510/21/05 18:30:31  5-MIN KMSN 220030Z 00000KT 10SM BKN120 08/03 A3002 770 68 200 000/00 RMK AO2
14837KMSN MSN20051021183509510/21/05 18:35:31  5-MIN KMSN 220035Z 00000KT 10SM BKN120 08/03 A3002 770 68 200 000/00 RMK AO2
14837KMSN MSN20051021184009510/21/05 18:40:31  5-MIN KMSN 220040Z 00000KT 10SM BKN120 08/03 A3002 770 68 200 000/00 RMK AO2
14837KMSN MSN20051021184509510/21/05 18:45:31  5-MIN KMSN 220045Z 00000KT 10SM SCT120 08/03 A3002 770 73 100 000/00 RMK AO2
14837KMSN MSN20051021185011210/21/05 18:50:31  5-MIN KMSN 220050Z 00000KT 10SM SCT120 08/03 A3002 770 68 200 000/00 RMK AO2 SLP170 T00830028
14837KMSN MSN20051021185509510/21/05 18:55:31  5-MIN KMSN 220055Z 00000KT 10SM FEW120 08/03 A3002 780 70 100 000/00 RMK AO2
14837KMSN MSN20051021190009510/21/05 19:00:31  5-MIN KMSN 220100Z 00000KT 10SM FEW120 08/02 A3001 780 65 200 000/00 RMK AO2
14837KMSN MSN20051021190509210/21/05 19:05:31  5-MIN KMSN 220105Z 00000KT 10SM CLR 08/03 A3002 780 70 100 000/00 RMK AO2
14837KMSN MSN20051021191009210/21/05 19:10:31  5-MIN KMSN 220110Z 00000KT 10SM CLR 08/03 A3001 780 68 200 000/00 RMK AO2
14837KMSN MSN20051021191509210/21/05 19:15:31  5-MIN KMSN 220115Z 00000KT 10SM CLR 08/03 A3001 780 73 100 000/00 RMK AO2
14837KMSN MSN20051021192009510/21/05 19:20:31  5-MIN KMSN 220120Z 00000KT 10SM FEW050 07/03 A3001 780 73 100 000/00 RMK AO2
14837KMSN MSN20051021192509510/21/05 19:25:31  5-MIN KMSN 220125Z 00000KT 10SM FEW050 07/03 A3001 780 73 100 000/00 RMK AO2
14837KMSN MSN20051021193009510/21/05 19:30:31  5-MIN KMSN 220130Z 00000KT 10SM FEW050 07/03 A3001 780 73 100 000/00 RMK AO2
14837KMSN MSN20051021193509510/21/05 19:35:31  5-MIN KMSN 220135Z 00000KT 10SM FEW050 08/03 A3001 780 70 100 000/00 RMK AO2
14837KMSN MSN20051021194009510/21/05 19:40:31  5-MIN KMSN 220140Z 00000KT 10SM FEW050 07/03 A3001 780 73 100 000/00 RMK AO2
14837KMSN MSN20051021194509510/21/05 19:45:31  5-MIN KMSN 220145Z 00000KT 10SM FEW050 07/03 A3001 780 76 100 000/00 RMK AO2
14837KMSN MSN20051021195010910/21/05 19:50:31  5-MIN KMSN 220150Z 00000KT 10SM CLR 08/03 A3001 780 70 100 000/00 RMK AO2 SLP167 T00780028
14837KMSN MSN20051021195509210/21/05 19:55:31  5-MIN KMSN 220155Z 00000KT 10SM CLR 08/03 A3001 780 70 100 000/00 RMK AO2
14837KMSN MSN20051021200009210/21/05 20:00:31  5-MIN KMSN 220200Z 00000KT 10SM CLR 07/03 A3001 780 76 100 000/00 RMK AO2
14837KMSN MSN20051021200509210/21/05 20:05:31  5-MIN KMSN 220205Z 00000KT 10SM CLR 07/03 A3001 790 76 100 000/00 RMK AO2
14837KMSN MSN20051021201009510/21/05 20:10:31  5-MIN KMSN 220210Z 00000KT 10SM FEW050 08/03 A3000 790 70 100 000/00 RMK AO2
14837KMSN MSN20051021201509510/21/05 20:15:31  5-MIN KMSN 220215Z 07004KT 10SM FEW050 07/03 A3000 790 76 100 060/04 RMK AO2
14837KMSN MSN20051021202009510/21/05 20:20:31  5-MIN KMSN 220220Z 00000KT 10SM FEW050 07/03 A3000 790 76 100 000/00 RMK AO2
14837KMSN MSN20051021202510010/21/05 20:25:31  5-MIN KMSN 220225Z 00000KT 10SM FEW050 SCT110 07/03 A3000 790 79 0 000/00 RMK AO2
14837KMSN MSN20051021203010210/21/05 20:30:31  5-MIN KMSN 220230Z 00000KT 10SM FEW050 BKN110 07/03 A3000 790 76 100 000/00 RMK AO2
14837KMSN MSN20051021203510210/21/05 20:35:31  5-MIN KMSN 220235Z 00000KT 10SM FEW050 BKN110 07/03 A3000 790 76 100 000/00 RMK AO2
14837KMSN MSN20051021204009510/21/05 20:40:31  5-MIN KMSN 220240Z 00000KT 10SM BKN110 07/03 A3000 790 73 100 000/00 RMK AO2
14837KMSN MSN20051021204509510/21/05 20:45:31  5-MIN KMSN 220245Z 00000KT 10SM BKN110 07/03 A3000 790 76 100 000/00 RMK AO2
14837KMSN MSN20051021205011810/21/05 20:50:31  5-MIN KMSN 220250Z 00000KT 10SM OVC100 07/03 A3000 790 76 100 000/00 RMK AO2 SLP164 T00720033 58000
14837KMSN MSN20051021205509510/21/05 20:55:31  5-MIN KMSN 220255Z 00000KT 10SM OVC100 07/03 A3000 790 76 100 000/00 RMK AO2
14837KMSN MSN20051021210009510/21/05 21:00:31  5-MIN KMSN 220300Z 00000KT 10SM OVC100 07/03 A3000 790 76 100 000/00 RMK AO2
14837KMSN MSN20051021210509510/21/05 21:05:31  5-MIN KMSN 220305Z 00000KT 10SM OVC095 08/03 A3000 790 73 200 000/00 RMK AO2
14837KMSN MSN20051021211010210/21/05 21:10:31  5-MIN KMSN 220310Z 00000KT 10SM FEW043 OVC095 08/04 A3000 790 76 200 000/00 RMK AO2
14837KMSN MSN20051021211510910/21/05 21:15:31  5-MIN KMSN 220315Z 00000KT 10SM FEW042 SCT050 OVC090 08/03 A3000 790 73 200 000/00 RMK AO2
14837KMSN MSN20051021212010910/21/05 21:20:31  5-MIN KMSN 220320Z 00000KT 10SM FEW041 BKN070 OVC090 07/03 A3000 790 76 100 000/00 RMK AO2
14837KMSN MSN20051021212510910/21/05 21:25:31  5-MIN KMSN 220325Z 00000KT 10SM BKN046 BKN070 OVC090 07/03 A3000 800 76 100 000/00 RMK AO2
14837KMSN MSN20051021213010910/21/05 21:30:31  5-MIN KMSN 220330Z 00000KT 10SM BKN043 BKN050 OVC090 07/04 A2999 800 79 100 000/00 RMK AO2
14837KMSN MSN20051021213510210/21/05 21:35:31  5-MIN KMSN 220335Z 00000KT 10SM BKN043 OVC050 07/04 A3000 790 79 100 000/00 RMK AO2
14837KMSN MSN20051021214011710/21/05 21:40:31  5-MIN KMSN 220340Z 00000KT 9SM -RA BKN043 OVC050 07/04 A3000 800 79 100 000/00 RMK AO2 RAB39 P0000
14837KMSN MSN20051021214511010/21/05 21:45:31  5-MIN KMSN 220345Z 00000KT 8SM -RA OVC043 07/04 A3000 790 82 100 000/00 RMK AO2 RAB39 P0000
14837KMSN MSN20051021215012710/21/05 21:50:31  5-MIN KMSN 220350Z 27003KT 8SM -RA OVC041 07/04 A3000 790 82 100 260/03 RMK AO2 RAB39 SLP162 P0000 T00720044
14837KMSN MSN20051021215510410/21/05 21:55:31  5-MIN KMSN 220355Z 26004KT 7SM -RA OVC041 08/04 A3000 790 79 200 260/04 RMK AO2 P0000
14837KMSN MSN20051021220010410/21/05 22:00:31  5-MIN KMSN 220400Z 27005KT 7SM -RA OVC041 08/04 A3000 790 79 200 270/05 RMK AO2 P0000
14837KMSN MSN20051021220510410/21/05 22:05:31  5-MIN KMSN 220405Z VRB03KT 7SM -RA OVC041 08/04 A3000 790 79 200 VRB/03 RMK AO2 P0000
14837KMSN MSN20051021221010410/21/05 22:10:31  5-MIN KMSN 220410Z 27003KT 7SM -RA OVC041 08/04 A3000 790 79 200 270/03 RMK AO2 P0001
14837KMSN MSN20051021221510410/21/05 22:15:31  5-MIN KMSN 220415Z 27004KT 8SM -RA OVC041 08/04 A3000 790 79 200 270/04 RMK AO2 P0001
14837KMSN MSN20051021222011110/21/05 22:20:31  5-MIN KMSN 220420Z 27003KT 8SM -RA BKN039 OVC055 08/04 A3000 790 79 200 260/03 RMK AO2 P0001
14837KMSN MSN20051021222511110/21/05 22:25:31  5-MIN KMSN 220425Z 00000KT 7SM -RA BKN039 OVC055 08/05 A3000 790 82 200 000/00 RMK AO2 P0001
14837KMSN MSN20051021223011410/21/05 22:30:31  5-MIN KMSN 220430Z 00000KT 6SM -RA BR SCT039 OVC050 07/06 A2999 800 89 100 000/00 RMK AO2 P0001
14837KMSN MSN20051021223511410/21/05 22:35:31  5-MIN KMSN 220435Z 28003KT 5SM -RA BR FEW039 OVC050 07/06 A2999 800 89 100 280/03 RMK AO2 P0001
14837KMSN MSN20051021224011410/21/05 22:40:31  5-MIN KMSN 220440Z 00000KT 5SM -RA BR BKN045 OVC055 07/06 A2999 800 89 100 000/00 RMK AO2 P0002
14837KMSN MSN20051021224511410/21/05 22:45:31  5-MIN KMSN 220445Z 00000KT 5SM -RA BR SCT034 OVC050 07/06 A2999 800 89 100 000/00 RMK AO2 P0002
14837KMSN MSN20051021225013110/21/05 22:50:31  5-MIN KMSN 220450Z 00000KT 5SM -RA BR SCT034 OVC050 07/06 A2998 810 89 100 000/00 RMK AO2 SLP157 P0002 T00720056
14837KMSN MSN20051021225511410/21/05 22:55:31  5-MIN KMSN 220455Z 00000KT 6SM -RA BR BKN036 OVC048 07/06 A2998 810 93 100 000/00 RMK AO2 P0000
14837KMSN MSN20051021230012110/21/05 23:00:31  5-MIN KMSN 220500Z 00000KT 6SM -RA BR BKN036 BKN048 OVC080 07/06 A2998 810 93 100 000/00 RMK AO2 P0000
14837KMSN MSN20051021230511810/21/05 23:05:31  5-MIN KMSN 220505Z 00000KT 7SM -RA BKN038 BKN046 OVC080 07/06 A2998 810 93 100 000/00 RMK AO2 P0000
14837KMSN MSN20051021231011410/21/05 23:10:31  5-MIN KMSN 220510Z 00000KT 6SM -RA BR SCT038 OVC080 07/06 A2998 810 93 100 000/00 RMK AO2 P0001
14837KMSN MSN20051021231512110/21/05 23:15:31  5-MIN KMSN 220515Z 00000KT 6SM -RA BR SCT040 SCT060 OVC080 08/06 A2997 820 89 200 000/00 RMK AO2 P0001
14837KMSN MSN20051021232011110/21/05 23:20:31  5-MIN KMSN 220520Z 00000KT 7SM -RA SCT045 OVC080 08/06 A2997 820 86 200 000/00 RMK AO2 P0001
14837KMSN MSN20051021232511110/21/05 23:25:31  5-MIN KMSN 220525Z 00000KT 8SM -RA FEW049 OVC080 08/06 A2997 820 89 200 000/00 RMK AO2 P0001
14837KMSN MSN20051021233011110/21/05 23:30:31  5-MIN KMSN 220530Z 10003KT 8SM -RA FEW055 OVC075 07/06 A2997 820 93 100 090/03 RMK AO2 P0001
14837KMSN MSN20051021233511310/21/05 23:35:31  5-MIN KMSN 220535Z 00000KT 8SM BKN060 OVC080 07/06 A2997 820 93 100 000/00 RMK AO2 RAE34 P0001
14837KMSN MSN20051021234011310/21/05 23:40:31  5-MIN KMSN 220540Z 00000KT 8SM BKN060 OVC080 07/06 A2997 820 93 100 000/00 RMK AO2 RAE34 P0001
14837KMSN MSN20051021234511310/21/05 23:45:31  5-MIN KMSN 220545Z 00000KT 7SM BKN060 OVC080 07/06 A2997 820 93 100 000/00 RMK AO2 RAE34 P0001
14837KMSN MSN20051021235016010/21/05 23:50:31  5-MIN KMSN 220550Z 00000KT 6SM BR OVC060 07/06 A2996 820 93 100 000/00 RMK AO2 RAE34 SLP149 P0001 60003 T00720061 10094 20067 401440017 58008
14837KMSN MSN20051021235509710/21/05 23:55:31  5-MIN KMSN 220555Z 00000KT 5SM BR OVC055 07/06 A2996 830 93 100 000/00 RMK AO2
14837KMSN MSN20051022000009710/22/05 00:00:38  5-MIN KMSN 220600Z 00000KT 5SM BR OVC055 07/06 A2996 830 93 100 000/00 RMK AO2
14837KMSN MSN20051022000509710/22/05 00:05:31  5-MIN KMSN 220605Z 00000KT 5SM BR OVC055 07/06 A2996 830 93 100 000/00 RMK AO2
14837KMSN MSN20051022001009710/22/05 00:10:31  5-MIN KMSN 220610Z 00000KT 6SM BR OVC055 07/06 A2996 830 93 100 000/00 RMK AO2
14837KMSN MSN20051022001509710/22/05 00:15:31  5-MIN KMSN 220615Z 00000KT 5SM BR OVC055 07/07 A2996 830 96 100 000/00 RMK AO2
14837KMSN MSN20051022002009810/22/05 00:20:31  5-MIN KMSN 220620Z 00000KT 5SM BR OVC055 07/07 A2996 830 100 100 000/00 RMK AO2
14837KMSN MSN20051022002509710/22/05 00:25:31  5-MIN KMSN 220625Z 00000KT 5SM BR OVC055 07/06 A2995 830 96 100 000/00 RMK AO2
14837KMSN MSN20051022003009710/22/05 00:30:31  5-MIN KMSN 220630Z 00000KT 5SM BR OVC050 07/07 A2995 840 96 100 000/00 RMK AO2
14837KMSN MSN20051022003509710/22/05 00:35:31  5-MIN KMSN 220635Z 00000KT 5SM BR OVC050 07/06 A2995 840 93 100 000/00 RMK AO2
14837KMSN MSN20051022004009710/22/05 00:40:31  5-MIN KMSN 220640Z 00000KT 6SM BR OVC050 08/06 A2995 840 89 200 000/00 RMK AO2
14837KMSN MSN20051022004509710/22/05 00:45:31  5-MIN KMSN 220645Z 00000KT 6SM BR OVC050 07/06 A2995 840 93 100 000/00 RMK AO2
14837KMSN MSN20051022005011110/22/05 00:50:31  5-MIN KMSN 220650Z 16003KT 7SM OVC048 08/06 A2995 840 89 200 160/03 RMK AO2 SLP143 T00780061
14837KMSN MSN20051022005509410/22/05 00:55:31  5-MIN KMSN 220655Z 16004KT 8SM OVC048 08/06 A2994 840 86 200 150/04 RMK AO2
14837KMSN MSN20051022010009410/22/05 01:00:31  5-MIN KMSN 220700Z 16004KT 9SM OVC048 08/06 A2994 850 86 200 160/04 RMK AO2
14837KMSN MSN20051022010509410/22/05 01:05:31  5-MIN KMSN 220705Z 16004KT 8SM OVC048 08/06 A2994 850 89 200 150/04 RMK AO2
14837KMSN MSN20051022011009410/22/05 01:10:31  5-MIN KMSN 220710Z 16005KT 9SM OVC046 08/06 A2994 850 86 200 160/05 RMK AO2
14837KMSN MSN20051022011509410/22/05 01:15:31  5-MIN KMSN 220715Z 16005KT 9SM OVC046 08/06 A2994 850 86 200 160/05 RMK AO2
14837KMSN MSN20051022012009510/22/05 01:20:31  5-MIN KMSN 220720Z 16005KT 10SM OVC046 08/06 A2994 850 86 200 160/05 RMK AO2
14837KMSN MSN20051022012509510/22/05 01:25:31  5-MIN KMSN 220725Z 16004KT 10SM OVC046 08/06 A2993 850 86 200 160/04 RMK AO2
14837KMSN MSN20051022013009410/22/05 01:30:31  5-MIN KMSN 220730Z 17004KT 9SM OVC044 08/06 A2993 850 89 200 170/04 RMK AO2
14837KMSN MSN20051022013509410/22/05 01:35:31  5-MIN KMSN 220735Z 17004KT 9SM OVC044 08/06 A2993 850 86 200 170/04 RMK AO2
14837KMSN MSN20051022014009510/22/05 01:40:31  5-MIN KMSN 220740Z 17004KT 10SM OVC044 08/06 A2993 850 86 200 170/04 RMK AO2
14837KMSN MSN20051022014509510/22/05 01:45:31  5-MIN KMSN 220745Z 16005KT 10SM OVC044 08/06 A2993 850 86 200 160/05 RMK AO2
14837KMSN MSN20051022015011110/22/05 01:50:31  5-MIN KMSN 220750Z 17005KT 9SM OVC044 08/06 A2993 860 86 200 170/05 RMK AO2 SLP138 T00780056
14837KMSN MSN20051022015509410/22/05 01:55:31  5-MIN KMSN 220755Z 17004KT 9SM OVC044 08/06 A2993 860 86 200 160/04 RMK AO2
14837KMSN MSN20051022020010110/22/05 02:00:31  5-MIN KMSN 220800Z 17006KT 9SM FEW038 OVC046 08/06 A2993 860 86 200 170/06 RMK AO2
14837KMSN MSN20051022020509410/22/05 02:05:31  5-MIN KMSN 220805Z 17005KT 9SM OVC046 08/06 A2992 860 86 200 170/05 RMK AO2
14837KMSN MSN20051022021009410/22/05 02:10:31  5-MIN KMSN 220810Z 18004KT 9SM OVC046 08/06 A2992 860 86 200 180/04 RMK AO2
14837KMSN MSN20051022021509410/22/05 02:15:31  5-MIN KMSN 220815Z 17005KT 9SM OVC044 08/06 A2992 860 86 200 170/05 RMK AO2
14837KMSN MSN20051022022009410/22/05 02:20:31  5-MIN KMSN 220820Z 17004KT 9SM OVC042 08/06 A2992 870 86 200 170/04 RMK AO2
14837KMSN MSN20051022022509410/22/05 02:25:31  5-MIN KMSN 220825Z 18004KT 9SM OVC042 08/06 A2992 870 89 200 180/04 RMK AO2
14837KMSN MSN20051022023009410/22/05 02:30:31  5-MIN KMSN 220830Z 18004KT 9SM OVC040 08/06 A2992 870 86 200 180/04 RMK AO2
14837KMSN MSN20051022023509410/22/05 02:35:31  5-MIN KMSN 220835Z 19005KT 9SM OVC038 08/06 A2992 870 86 200 190/05 RMK AO2
14837KMSN MSN20051022024009410/22/05 02:40:31  5-MIN KMSN 220840Z 19005KT 9SM OVC038 08/06 A2991 870 86 200 190/05 RMK AO2
14837KMSN MSN20051022024509510/22/05 02:45:31  5-MIN KMSN 220845Z 18005KT 10SM OVC036 08/06 A2991 870 82 300 180/05 RMK AO2
14837KMSN MSN20051022025011810/22/05 02:50:31  5-MIN KMSN 220850Z 18005KT 10SM OVC036 08/05 A2991 870 79 300 180/05 RMK AO2 SLP131 T00830050 58013
14837KMSN MSN20051022025509510/22/05 02:55:31  5-MIN KMSN 220855Z 19005KT 10SM OVC034 08/05 A2991 870 79 300 180/05 RMK AO2
14837KMSN MSN20051022030009510/22/05 03:00:31  5-MIN KMSN 220900Z 19005KT 10SM OVC034 08/05 A2991 870 79 300 190/05 RMK AO2
14837KMSN MSN20051022030509510/22/05 03:05:31  5-MIN KMSN 220905Z 20004KT 10SM OVC036 08/05 A2991 870 82 300 200/04 RMK AO2
14837KMSN MSN20051022031009510/22/05 03:10:31  5-MIN KMSN 220910Z 21003KT 10SM OVC036 08/05 A2991 880 82 300 210/03 RMK AO2
14837KMSN MSN20051022031509510/22/05 03:15:31  5-MIN KMSN 220915Z 22003KT 10SM OVC036 08/05 A2991 880 82 300 220/03 RMK AO2
14837KMSN MSN20051022032009510/22/05 03:20:31  5-MIN KMSN 220920Z 21003KT 10SM OVC036 08/05 A2991 880 82 300 210/03 RMK AO2
14837KMSN MSN20051022032509510/22/05 03:25:31  5-MIN KMSN 220925Z 22003KT 10SM OVC036 08/05 A2991 880 82 300 210/03 RMK AO2
14837KMSN MSN20051022033009510/22/05 03:30:31  5-MIN KMSN 220930Z 21003KT 10SM OVC036 08/05 A2991 880 82 300 210/03 RMK AO2
14837KMSN MSN20051022033509510/22/05 03:35:31  5-MIN KMSN 220935Z 22004KT 10SM OVC036 08/05 A2991 880 82 300 220/04 RMK AO2
14837KMSN MSN20051022034009510/22/05 03:40:31  5-MIN KMSN 220940Z 23003KT 10SM OVC036 08/05 A2990 880 82 300 230/03 RMK AO2
14837KMSN MSN20051022034509510/22/05 03:45:31  5-MIN KMSN 220945Z 00000KT 10SM OVC036 08/06 A2990 880 86 300 000/00 RMK AO2
14837KMSN MSN20051022035011110/22/05 03:50:31  5-MIN KMSN 220950Z 00000KT 9SM OVC036 08/05 A2990 880 82 300 000/00 RMK AO2 SLP128 T00780050
14837KMSN MSN20051022035509410/22/05 03:55:31  5-MIN KMSN 220955Z 00000KT 9SM OVC036 08/05 A2990 880 82 300 000/00 RMK AO2
14837KMSN MSN20051022040009410/22/05 04:00:31  5-MIN KMSN 221000Z 00000KT 8SM OVC036 08/06 A2990 890 86 300 000/00 RMK AO2
14837KMSN MSN20051022040509410/22/05 04:05:31  5-MIN KMSN 221005Z 00000KT 8SM OVC036 08/06 A2989 890 86 300 000/00 RMK AO2
14837KMSN MSN20051022041009410/22/05 04:10:31  5-MIN KMSN 221010Z 00000KT 8SM OVC036 08/06 A2989 890 86 300 000/00 RMK AO2
14837KMSN MSN20051022041509410/22/05 04:15:31  5-MIN KMSN 221015Z 22003KT 8SM OVC034 08/06 A2989 890 86 300 220/03 RMK AO2
14837KMSN MSN20051022042009410/22/05 04:20:31  5-MIN KMSN 221020Z 00000KT 9SM OVC034 08/06 A2989 890 82 300 000/00 RMK AO2
14837KMSN MSN20051022042509410/22/05 04:25:31  5-MIN KMSN 221025Z 00000KT 9SM OVC034 08/05 A2989 890 79 300 000/00 RMK AO2
14837KMSN MSN20051022043009410/22/05 04:30:31  5-MIN KMSN 221030Z 00000KT 9SM OVC032 08/05 A2989 890 79 300 000/00 RMK AO2
14837KMSN MSN20051022043509410/22/05 04:35:31  5-MIN KMSN 221035Z 00000KT 9SM OVC032 08/05 A2989 890 79 300 000/00 RMK AO2
14837KMSN MSN20051022044010110/22/05 04:40:31  5-MIN KMSN 221040Z 00000KT 9SM FEW023 OVC032 08/05 A2989 890 79 300 000/00 RMK AO2
14837KMSN MSN20051022044510110/22/05 04:45:31  5-MIN KMSN 221045Z 00000KT 9SM FEW023 OVC030 08/06 A2989 900 86 300 000/00 RMK AO2
14837KMSN MSN20051022045009410/22/05 04:50:31  5-MIN KMSN 221050Z 00000KT 9SM OVC028 08/06 A2989 900 86 300 000/00 RMK AO2
14837KMSN MSN20051022045510110/22/05 04:55:31  5-MIN KMSN 221055Z 00000KT 8SM BKN026 OVC031 08/06 A2989 900 89 300 000/00 RMK AO2
14837KMSN MSN20051022050010110/22/05 05:00:31  5-MIN KMSN 221100Z 00000KT 7SM BKN021 OVC029 08/06 A2988 900 89 300 000/00 RMK AO2
14837KMSN MSN20051022050510110/22/05 05:05:31  5-MIN KMSN 221105Z VRB04KT 7SM BKN021 OVC027 08/06 A2988 900 86 300 VRB/04 RMK AO2
14837KMSN MSN20051022051010110/22/05 05:10:31  5-MIN KMSN 221110Z 00000KT 7SM BKN018 OVC025 08/06 A2988 900 86 300 000/00 RMK AO2
14837KMSN MSN20051022051510110/22/05 05:15:31  5-MIN KMSN 221115Z VRB03KT 7SM BKN017 OVC025 08/06 A2988 900 86 300 VRB/03 RMK AO2
14837KMSN MSN20051022052010110/22/05 05:20:31  5-MIN KMSN 221120Z 00000KT 7SM BKN015 OVC021 08/06 A2988 900 86 300 000/00 RMK AO2
14837KMSN MSN20051022052512010/22/05 05:25:31  5-MIN KMSN 221125Z 00000KT 6SM -DZ BR BKN014 OVC020 08/06 A2988 910 86 300 000/00 RMK AO2 DZB25 P0000
14837KMSN MSN20051022053011310/22/05 05:30:31  5-MIN KMSN 221130Z 00000KT 6SM -DZ BR OVC014 07/06 A2988 910 93 200 000/00 RMK AO2 DZB25 P0000
14837KMSN MSN20051022053511310/22/05 05:35:31  5-MIN KMSN 221135Z 28003KT 3SM -DZ BR OVC016 07/06 A2988 910 93 200 280/03 RMK AO2 DZB25 P0000
14837KMSN MSN20051022054012410/22/05 05:40:31  5-MIN KMSN 221140Z VRB03KT 2 1/2SM -DZ BR SCT008 OVC015 07/06 A2988 900 93 200 VRB/03 RMK AO2 DZB25 P0000
14837KMSN MSN20051022054513610/22/05 05:45:31  5-MIN KMSN 221145Z VRB03KT 2 1/2SM -DZ BR BKN008 OVC015 07/06 A2988 900 93 200 VRB/03 RMK AO2 DZB25 CIG 007V010 P0000
14837KMSN MSN20051022055013610/22/05 05:50:31  5-MIN KMSN 221150Z 29003KT 2 1/2SM -DZ BR BKN010 OVC017 07/06 A2988 910 93 200 290/03 RMK AO2 DZB25 CIG 007V014 P0000
14837KMSN MSN20051022055513010/22/05 05:55:31  5-MIN KMSN 221155Z 29003KT 2 1/2SM -DZ BR BKN010 OVC017 07/06 A2988 910 93 200 290/03 RMK AO2 CIG 007V013 P0000
14837KMSN MSN20051022060012210/22/05 06:00:31  5-MIN KMSN 221200Z VRB03KT 2 1/2SM BR BKN008 OVC012 07/06 A2988 910 93 200 VRB/03 RMK AO2 DZE1159 P0000
14837KMSN MSN20051022060512710/22/05 06:05:31  5-MIN KMSN 221205Z 00000KT 2 1/2SM BR OVC008 07/07 A2987 910 96 200 000/00 RMK AO2 DZE1159 CIG 007V010 P0000
14837KMSN MSN20051022061013410/22/05 06:10:31  5-MIN KMSN 221210Z 29003KT 2 1/2SM BR BKN008 OVC013 07/06 A2987 910 93 200 290/03 RMK AO2 DZE1159 CIG 007V011 P0000
14837KMSN MSN20051022061512210/22/05 06:15:31  5-MIN KMSN 221215Z 29003KT 2 1/2SM BR SCT008 OVC011 07/06 A2987 910 93 200 290/03 RMK AO2 DZE1159 P0000
14837KMSN MSN20051022062012710/22/05 06:20:31  5-MIN KMSN 221220Z 00000KT 2 1/2SM BR OVC008 07/06 A2987 910 93 200 000/00 RMK AO2 DZE1159 CIG 007V012 P0000
14837KMSN MSN20051022062512710/22/05 06:25:31  5-MIN KMSN 221225Z 29003KT 2 1/2SM BR OVC008 07/06 A2987 910 93 200 290/03 RMK AO2 DZE1159 CIG 007V012 P0000
14837KMSN MSN20051022063012710/22/05 06:30:31  5-MIN KMSN 221230Z 00000KT 2 1/2SM BR OVC010 07/06 A2987 910 93 200 000/00 RMK AO2 DZE1159 CIG 007V012 P0000
14837KMSN MSN20051022063512210/22/05 06:35:31  5-MIN KMSN 221235Z 29003KT 2 1/2SM BR BKN008 OVC012 07/06 A2987 910 93 200 290/03 RMK AO2 DZE1159 P0000
14837KMSN MSN20051022064012710/22/05 06:40:31  5-MIN KMSN 221240Z VRB03KT 2 1/2SM BR OVC008 07/07 A2987 910 96 200 VRB/03 RMK AO2 DZE1159 CIG 007V012 P0000
14837KMSN MSN20051022064513610/22/05 06:45:31  5-MIN KMSN 221245Z 30003KT 2 1/2SM -RA BR OVC008 07/07 A2987 910 96 200 290/03 RMK AO2 DZE1159RAB45 CIG 007V011 P0000
14837KMSN MSN20051022065015010/22/05 06:50:31  5-MIN KMSN 221250Z 00000KT 1 3/4SM -RA BR OVC008 07/07 A2987 910 96 200 000/00 RMK AO2 TWR VIS 2 1/2 DZE1159RAB45 CIG 005V010 P0000
14837KMSN MSN20051022065513310/22/05 06:55:31  5-MIN KMSN 221255Z 29003KT 1 1/2SM -RA BR OVC008 07/07 A2987 910 96 200 290/03 RMK AO2 TWR VIS 2 CIG 003V009 P0000
14837KMSN MSN20051022070012310/22/05 07:00:31  5-MIN KMSN 221300Z 31003KT 1 1/2SM -RA BR OVC006 07/07 A2987 910 96 200 310/03 RMK AO2 CIG 003V010 P0000
14837KMSN MSN20051022070512310/22/05 07:05:31  5-MIN KMSN 221305Z 32007KT 1 1/2SM -RA BR OVC006 07/07 A2988 900 96 200 320/07 RMK AO2 CIG 003V010 P0000
14837KMSN MSN20051022071013010/22/05 07:10:31  5-MIN KMSN 221310Z 32007KT 1 1/2SM -RA BR BKN006 OVC015 07/07 A2988 900 96 200 320/07 RMK AO2 CIG 003V010 P0000
14837KMSN MSN20051022071513010/22/05 07:15:31  5-MIN KMSN 221315Z 33008KT 1 1/2SM -RA BR BKN006 OVC015 07/07 A2988 900 96 200 330/08 RMK AO2 CIG 003V010 P0001
14837KMSN MSN20051022072013210/22/05 07:20:31  5-MIN KMSN 221320Z 33007KT 1 3/4SM -RA BR SCT006 OVC017 07/06 A2988 900 93 200 330/07 RMK AO2 TWR VIS 2 1/2 P0001
14837KMSN MSN20051022072512410/22/05 07:25:31  5-MIN KMSN 221325Z 34008KT 3SM -RA BR FEW006 OVC017 07/06 A2988 900 93 200 330/08 RMK AO2 SFC VIS 4 P0001
14837KMSN MSN20051022073012410/22/05 07:30:31  5-MIN KMSN 221330Z 34007KT 3SM -RA BR FEW006 OVC019 07/06 A2988 910 93 200 340/07 RMK AO2 SFC VIS 4 P0001
14837KMSN MSN20051022073512410/22/05 07:35:31  5-MIN KMSN 221335Z 33005KT 3SM -RA BR SCT012 OVC019 07/06 A2988 910 93 200 330/05 RMK AO2 SFC VIS 4 P0001
14837KMSN MSN20051022074012110/22/05 07:40:31  5-MIN KMSN 221340Z 33006KT 7SM -RA BR FEW007 BKN012 OVC019 07/06 A2988 900 93 200 330/06 RMK AO2 P0001
14837KMSN MSN20051022074512110/22/05 07:45:31  5-MIN KMSN 221345Z 34005KT 7SM -RA BR FEW007 BKN012 OVC019 07/06 A2988 900 93 200 330/05 RMK AO2 P0001
14837KMSN MSN20051022075012810/22/05 07:50:31  5-MIN KMSN 221350Z 33004KT 8SM -RA BKN012 OVC019 07/06 A2988 900 93 200 330/04 RMK AO2 SLP121 P0001 T00720061
14837KMSN MSN20051022075510410/22/05 07:55:31  5-MIN KMSN 221355Z 34005KT 9SM -RA OVC012 07/06 A2988 910 93 200 330/05 RMK AO2 P0000
14837KMSN MSN20051022080011610/22/05 08:00:31  5-MIN KMSN 221400Z 33005KT 9SM -RA OVC010 07/06 A2987 910 93 200 330/05 RMK AO2 CIG 007V013 P0000
14837KMSN MSN20051022080511610/22/05 08:05:31  5-MIN KMSN 221405Z 34006KT 9SM -RA OVC010 07/06 A2987 910 93 200 340/06 RMK AO2 CIG 007V012 P0000
14837KMSN MSN20051022081011810/22/05 08:10:31  5-MIN KMSN 221410Z 33006KT 9SM OVC010 07/06 A2988 910 93 200 330/06 RMK AO2 RAE08 CIG 007V012 P0000
14837KMSN MSN20051022081511910/22/05 08:15:31  5-MIN KMSN 221415Z 33006KT 10SM OVC010 07/06 A2988 910 93 200 330/06 RMK AO2 RAE08 CIG 007V012 P0000
14837KMSN MSN20051022082011910/22/05 08:20:31  5-MIN KMSN 221420Z 33006KT 10SM OVC010 07/06 A2988 910 93 200 330/06 RMK AO2 RAE08 CIG 007V012 P0000
14837KMSN MSN20051022082511410/22/05 08:25:31  5-MIN KMSN 221425Z 33007KT 10SM BKN008 OVC012 07/06 A2987 910 93 200 320/07 RMK AO2 RAE08 P0000
14837KMSN MSN20051022083011410/22/05 08:30:31  5-MIN KMSN 221430Z 33007KT 10SM BKN008 OVC012 07/06 A2987 910 93 200 330/07 RMK AO2 RAE08 P0000
14837KMSN MSN20051022083511410/22/05 08:35:31  5-MIN KMSN 221435Z 32008KT 10SM BKN008 OVC012 07/06 A2987 910 93 200 320/08 RMK AO2 RAE08 P0000
14837KMSN MSN20051022084011410/22/05 08:40:31  5-MIN KMSN 221440Z 33007KT 10SM BKN008 OVC012 07/06 A2987 910 93 200 320/07 RMK AO2 RAE08 P0000
14837KMSN MSN20051022084511410/22/05 08:45:31  5-MIN KMSN 221445Z 32008KT 10SM BKN008 OVC012 08/06 A2987 910 89 300 320/08 RMK AO2 RAE08 P0000
14837KMSN MSN20051022085014310/22/05 08:50:31  5-MIN KMSN 221450Z 32007KT 10SM BKN008 OVC012 08/06 A2987 910 86 300 320/07 RMK AO2 RAE08 SLP119 P0000 60001 T00780056 56008
14837KMSN MSN20051022085511410/22/05 08:55:31  5-MIN KMSN 221455Z 32010KT 10SM BKN010 OVC015 08/06 A2987 910 86 300 320/10 RMK AO2 CIG 007V013
14837KMSN MSN20051022090010910/22/05 09:00:31  5-MIN KMSN 221500Z 33008KT 10SM FEW009 BKN010 OVC015 08/06 A2987 910 86 300 330/08 RMK AO2
14837KMSN MSN20051022090510910/22/05 09:05:31  5-MIN KMSN 221505Z 33008KT 10SM SCT009 BKN011 OVC045 08/06 A2987 910 86 300 330/08 RMK AO2
14837KMSN MSN20051022091010910/22/05 09:10:31  5-MIN KMSN 221510Z 31008KT 10SM SCT009 BKN011 OVC045 08/06 A2987 910 86 300 310/08 RMK AO2
14837KMSN MSN20051022091510910/22/05 09:15:31  5-MIN KMSN 221515Z 33008KT 10SM SCT009 BKN011 OVC045 07/05 A2987 910 86 200 330/08 RMK AO2
14837KMSN MSN20051022092010910/22/05 09:20:31  5-MIN KMSN 221520Z 31008KT 10SM SCT009 BKN011 OVC045 07/05 A2987 910 86 200 310/08 RMK AO2
14837KMSN MSN20051022092510910/22/05 09:25:31  5-MIN KMSN 221525Z 31008KT 10SM FEW009 BKN011 OVC020 07/05 A2987 910 86 200 310/08 RMK AO2
14837KMSN MSN20051022093010910/22/05 09:30:31  5-MIN KMSN 221530Z 33006KT 10SM FEW009 BKN011 OVC020 07/05 A2987 910 86 200 320/06 RMK AO2
14837KMSN MSN20051022093510210/22/05 09:35:31  5-MIN KMSN 221535Z 32007KT 10SM FEW009 OVC011 07/05 A2987 910 86 200 320/07 RMK AO2
14837KMSN MSN20051022094010210/22/05 09:40:31  5-MIN KMSN 221540Z 31009KT 10SM FEW009 OVC011 07/05 A2987 910 86 200 310/09 RMK AO2
14837KMSN MSN20051022094510210/22/05 09:45:31  5-MIN KMSN 221545Z 30007KT 10SM FEW009 OVC011 07/05 A2987 910 86 200 300/07 RMK AO2
14837KMSN MSN20051022095011910/22/05 09:50:31  5-MIN KMSN 221550Z 32007KT 10SM FEW009 OVC011 07/05 A2987 910 86 200 320/07 RMK AO2 SLP120 T00720050
14837KMSN MSN20051022095509510/22/05 09:55:31  5-MIN KMSN 221555Z 31009KT 10SM OVC013 07/05 A2987 910 86 200 310/09 RMK AO2
14837KMSN MSN20051022100009510/22/05 10:00:31  5-MIN KMSN 221600Z 31009KT 10SM OVC013 07/04 A2987 910 82 200 310/09 RMK AO2
14837KMSN MSN20051022100509510/22/05 10:05:31  5-MIN KMSN 221605Z 32009KT 10SM OVC013 07/04 A2987 910 82 200 320/09 RMK AO2
14837KMSN MSN20051022101009510/22/05 10:10:31  5-MIN KMSN 221610Z 32007KT 10SM OVC013 07/04 A2987 910 82 200 320/07 RMK AO2
14837KMSN MSN20051022101509510/22/05 10:15:31  5-MIN KMSN 221615Z 32009KT 10SM OVC015 07/04 A2987 910 82 200 320/09 RMK AO2
14837KMSN MSN20051022102009510/22/05 10:20:31  5-MIN KMSN 221620Z 30009KT 10SM OVC015 07/04 A2987 910 82 200 300/09 RMK AO2
14837KMSN MSN20051022102509510/22/05 10:25:31  5-MIN KMSN 221625Z 31007KT 10SM OVC015 07/04 A2987 910 82 200 310/07 RMK AO2
14837KMSN MSN20051022103009510/22/05 10:30:31  5-MIN KMSN 221630Z 31006KT 10SM OVC015 07/04 A2987 910 82 200 310/06 RMK AO2
14837KMSN MSN20051022103509510/22/05 10:35:31  5-MIN KMSN 221635Z 32007KT 10SM OVC015 07/04 A2987 910 82 200 320/07 RMK AO2
14837KMSN MSN20051022104009510/22/05 10:40:31  5-MIN KMSN 221640Z 32006KT 10SM OVC015 07/04 A2987 910 82 200 320/06 RMK AO2
14837KMSN MSN20051022104509510/22/05 10:45:31  5-MIN KMSN 221645Z 31007KT 10SM OVC013 07/04 A2987 910 82 200 310/07 RMK AO2
14837KMSN MSN20051022105009510/22/05 10:50:31  5-MIN KMSN 221650Z 29008KT 10SM OVC013 07/04 A2987 910 86 200 290/08 RMK AO2
14837KMSN MSN20051022105509410/22/05 10:55:31  5-MIN KMSN 221655Z 30008KT 9SM OVC013 07/04 A2987 910 86 200 300/08 RMK AO2
14837KMSN MSN20051022110009410/22/05 11:00:31  5-MIN KMSN 221700Z 31009KT 9SM OVC011 07/04 A2987 910 82 200 310/09 RMK AO2
14837KMSN MSN20051022110509410/22/05 11:05:31  5-MIN KMSN 221705Z 30008KT 9SM OVC011 07/04 A2987 910 86 200 300/08 RMK AO2
14837KMSN MSN20051022111009410/22/05 11:10:31  5-MIN KMSN 221710Z 31007KT 9SM OVC011 07/04 A2987 910 82 200 310/07 RMK AO2
14837KMSN MSN20051022111509510/22/05 11:15:31  5-MIN KMSN 221715Z 29008KT 10SM OVC011 07/04 A2986 920 82 200 290/08 RMK AO2
14837KMSN MSN20051022112009510/22/05 11:20:31  5-MIN KMSN 221720Z 29007KT 10SM OVC011 07/04 A2986 920 82 200 290/07 RMK AO2
14837KMSN MSN20051022112509510/22/05 11:25:31  5-MIN KMSN 221725Z 30007KT 10SM OVC011 07/04 A2986 920 82 200 300/07 RMK AO2
14837KMSN MSN20051022113009510/22/05 11:30:31  5-MIN KMSN 221730Z 31006KT 10SM OVC011 07/04 A2986 920 86 200 310/06 RMK AO2
14837KMSN MSN20051022113509510/22/05 11:35:31  5-MIN KMSN 221735Z 31006KT 10SM OVC011 07/04 A2986 920 86 200 310/06 RMK AO2
14837KMSN MSN20051022114009510/22/05 11:40:31  5-MIN KMSN 221740Z 29008KT 10SM OVC011 07/04 A2986 920 86 200 290/08 RMK AO2
14837KMSN MSN20051022114509510/22/05 11:45:31  5-MIN KMSN 221745Z 31008KT 10SM OVC011 07/04 A2986 920 79 200 310/08 RMK AO2
14837KMSN MSN20051022115013610/22/05 11:50:31  5-MIN KMSN 221750Z 30008KT 10SM OVC013 07/04 A2986 920 79 200 300/08 RMK AO2 SLP115 60001 T00720039 10078 20067 58001
14837KMSN MSN20051022115509510/22/05 11:55:31  5-MIN KMSN 221755Z 30007KT 10SM OVC013 07/04 A2986 920 79 200 300/07 RMK AO2
14837KMSN MSN20051022120009510/22/05 12:00:31  5-MIN KMSN 221800Z 33008KT 10SM OVC013 07/04 A2986 920 82 200 320/08 RMK AO2
14837KMSN MSN20051022120509510/22/05 12:05:31  5-MIN KMSN 221805Z 31007KT 10SM OVC016 07/04 A2985 930 79 300 310/07 RMK AO2
14837KMSN MSN20051022121009510/22/05 12:10:31  5-MIN KMSN 221810Z 29010KT 10SM OVC016 07/04 A2985 930 79 300 290/10 RMK AO2
14837KMSN MSN20051022121510210/22/05 12:15:31  5-MIN KMSN 221815Z 29007KT 10SM BKN016 OVC022 07/03 A2985 930 76 300 290/07 RMK AO2
14837KMSN MSN20051022122010210/22/05 12:20:31  5-MIN KMSN 221820Z 30007KT 10SM BKN016 OVC022 07/03 A2985 930 76 300 300/07 RMK AO2
14837KMSN MSN20051022122509510/22/05 12:25:31  5-MIN KMSN 221825Z 28008KT 10SM OVC020 07/03 A2985 930 76 300 280/08 RMK AO2
14837KMSN MSN20051022123009510/22/05 12:30:31  5-MIN KMSN 221830Z 29008KT 10SM OVC020 07/03 A2985 930 76 300 290/08 RMK AO2
14837KMSN MSN20051022123509510/22/05 12:35:31  5-MIN KMSN 221835Z 30008KT 10SM OVC020 07/03 A2985 930 76 300 290/08 RMK AO2
14837KMSN MSN20051022124009510/22/05 12:40:31  5-MIN KMSN 221840Z 30007KT 10SM OVC020 07/03 A2985 930 76 300 300/07 RMK AO2
14837KMSN MSN20051022124509510/22/05 12:45:31  5-MIN KMSN 221845Z 29008KT 10SM OVC020 08/03 A2985 930 73 300 290/08 RMK AO2
14837KMSN MSN20051022125011210/22/05 12:50:31  5-MIN KMSN 221850Z 32006KT 10SM OVC020 08/03 A2984 930 73 300 320/06 RMK AO2 SLP111 T00780033
14837KMSN MSN20051022125510210/22/05 12:55:31  5-MIN KMSN 221855Z 33010KT 10SM BKN021 OVC027 08/03 A2984 940 70 400 330/10 RMK AO2
14837KMSN MSN20051022130011810/22/05 13:00:31  5-MIN KMSN 221900Z 32008KT 280V350 10SM BKN023 OVC028 08/03 A2984 940 70 400 320/08 280V350 RMK AO2
14837KMSN MSN20051022130510910/22/05 13:05:31  5-MIN KMSN 221905Z 30008KT 10SM SCT023 BKN028 OVC048 09/03 A2984 940 68 500 300/08 RMK AO2
14837KMSN MSN20051022131010910/22/05 13:10:31  5-MIN KMSN 221910Z VRB06KT 10SM BKN023 BKN028 OVC048 08/03 A2984 940 68 400 VRB/06 RMK AO2
14837KMSN MSN20051022131510210/22/05 13:15:31  5-MIN KMSN 221915Z 29009KT 10SM BKN026 OVC048 08/03 A2984 940 68 400 290/09 RMK AO2
14837KMSN MSN20051022132010910/22/05 13:20:31  5-MIN KMSN 221920Z 29008KT 10SM BKN028 BKN033 OVC048 08/03 A2984 940 68 400 290/08 RMK AO2
14837KMSN MSN20051022132510910/22/05 13:25:31  5-MIN KMSN 221925Z 30007KT 10SM BKN028 BKN033 BKN048 08/03 A2984 940 68 400 300/07 RMK AO2
14837KMSN MSN20051022133010910/22/05 13:30:31  5-MIN KMSN 221930Z 31008KT 10SM BKN028 BKN033 BKN048 09/03 A2984 940 68 500 310/08 RMK AO2
14837KMSN MSN20051022133510910/22/05 13:35:31  5-MIN KMSN 221935Z 29009KT 10SM BKN028 BKN033 BKN048 08/03 A2984 940 68 400 290/09 RMK AO2
14837KMSN MSN20051022134010910/22/05 13:40:31  5-MIN KMSN 221940Z 31008KT 10SM BKN028 BKN033 BKN048 08/02 A2984 940 65 400 300/08 RMK AO2
14837KMSN MSN20051022134510910/22/05 13:45:31  5-MIN KMSN 221945Z 31008KT 10SM BKN028 BKN033 BKN048 08/02 A2984 940 65 400 310/08 RMK AO2
14837KMSN MSN20051022135012610/22/05 13:50:31  5-MIN KMSN 221950Z 30008KT 10SM BKN028 BKN033 BKN048 08/02 A2984 940 65 400 300/08 RMK AO2 SLP108 T00830022
14837KMSN MSN20051022135510210/22/05 13:55:31  5-MIN KMSN 221955Z 31008KT 10SM BKN032 OVC048 09/02 A2983 940 60 500 310/08 RMK AO2
14837KMSN MSN20051022140009510/22/05 14:00:31  5-MIN KMSN 222000Z 30008KT 10SM OVC032 09/02 A2984 940 63 500 300/08 RMK AO2
14837KMSN MSN20051022140509510/22/05 14:05:31  5-MIN KMSN 222005Z 30009KT 10SM OVC032 09/02 A2984 940 63 500 300/09 RMK AO2
14837KMSN MSN20051022141010210/22/05 14:10:31  5-MIN KMSN 222010Z 31007KT 10SM BKN030 OVC036 09/02 A2984 940 63 500 310/07 RMK AO2
14837KMSN MSN20051022141510210/22/05 14:15:31  5-MIN KMSN 222015Z 32007KT 10SM BKN030 OVC038 09/03 A2984 940 65 500 320/07 RMK AO2
14837KMSN MSN20051022142010210/22/05 14:20:31  5-MIN KMSN 222020Z 30009KT 10SM BKN030 OVC038 08/02 A2984 940 65 400 300/09 RMK AO2
14837KMSN MSN20051022142510210/22/05 14:25:31  5-MIN KMSN 222025Z 32010KT 10SM BKN030 OVC038 08/02 A2984 940 63 400 320/10 RMK AO2
14837KMSN MSN20051022143010210/22/05 14:30:31  5-MIN KMSN 222030Z 31009KT 10SM SCT030 OVC040 08/02 A2984 940 63 400 310/09 RMK AO2
14837KMSN MSN20051022143510210/22/05 14:35:31  5-MIN KMSN 222035Z 32009KT 10SM SCT030 OVC040 08/02 A2984 940 63 400 320/09 RMK AO2
14837KMSN MSN20051022144010210/22/05 14:40:31  5-MIN KMSN 222040Z 32009KT 10SM SCT032 OVC040 08/02 A2984 930 63 400 320/09 RMK AO2
14837KMSN MSN20051022144510210/22/05 14:45:31  5-MIN KMSN 222045Z 32009KT 10SM SCT032 BKN040 08/02 A2985 930 63 400 310/09 RMK AO2
14837KMSN MSN20051022145012510/22/05 14:50:31  5-MIN KMSN 222050Z 31007KT 10SM SCT032 BKN040 08/01 A2985 930 60 400 310/07 RMK AO2 SLP112 T00830011 58006
14837KMSN MSN20051022145509510/22/05 14:55:31  5-MIN KMSN 222055Z 30009KT 10SM OVC040 08/01 A2985 930 60 400 300/09 RMK AO2
14837KMSN MSN20051022150009510/22/05 15:00:31  5-MIN KMSN 222100Z 30009KT 10SM OVC038 08/01 A2985 930 60 300 300/09 RMK AO2
14837KMSN MSN20051022150509510/22/05 15:05:31  5-MIN KMSN 222105Z 30009KT 10SM OVC036 08/01 A2985 930 60 300 300/09 RMK AO2
14837KMSN MSN20051022151009510/22/05 15:10:31  5-MIN KMSN 222110Z 30009KT 10SM BKN036 08/01 A2985 930 60 300 300/09 RMK AO2
14837KMSN MSN20051022151509510/22/05 15:15:31  5-MIN KMSN 222115Z 28006KT 10SM BKN036 08/01 A2985 930 60 300 280/06 RMK AO2
14837KMSN MSN20051022152009510/22/05 15:20:31  5-MIN KMSN 222120Z 30006KT 10SM BKN036 08/01 A2985 930 60 300 300/06 RMK AO2
14837KMSN MSN20051022152510210/22/05 15:25:31  5-MIN KMSN 222125Z 29008KT 10SM FEW034 OVC044 08/01 A2986 920 60 300 280/08 RMK AO2
14837KMSN MSN20051022153009510/22/05 15:30:31  5-MIN KMSN 222130Z 28008KT 10SM OVC044 08/01 A2986 920 60 300 280/08 RMK AO2
14837KMSN MSN20051022153509510/22/05 15:35:31  5-MIN KMSN 222135Z 28006KT 10SM OVC044 08/01 A2985 930 60 300 280/06 RMK AO2
14837KMSN MSN20051022154009510/22/05 15:40:31  5-MIN KMSN 222140Z 29008KT 10SM OVC046 08/01 A2986 920 60 300 290/08 RMK AO2
14837KMSN MSN20051022154509510/22/05 15:45:31  5-MIN KMSN 222145Z 29006KT 10SM BKN046 07/01 A2986 920 62 200 290/06 RMK AO2
14837KMSN MSN20051022155011210/22/05 15:50:31  5-MIN KMSN 222150Z VRB06KT 10SM BKN046 07/01 A2986 920 62 200 VRB/06 RMK AO2 SLP116 T00720006
14837KMSN MSN20051022155509510/22/05 15:55:31  5-MIN KMSN 222155Z 29006KT 10SM OVC046 07/01 A2986 920 62 200 290/06 RMK AO2
14837KMSN MSN20051022160009510/22/05 16:00:31  5-MIN KMSN 222200Z 29009KT 10SM OVC046 07/00 A2986 920 60 200 290/09 RMK AO2
14837KMSN MSN20051022160509510/22/05 16:05:31  5-MIN KMSN 222205Z 30007KT 10SM OVC046 07/00 A2986 920 60 200 300/07 RMK AO2
14837KMSN MSN20051022161009510/22/05 16:10:31  5-MIN KMSN 222210Z 29007KT 10SM OVC046 07/00 A2986 920 60 200 290/07 RMK AO2
14837KMSN MSN20051022161510210/22/05 16:15:31  5-MIN KMSN 222215Z 29009G15KT 10SM BKN046 07/M01 A2986 920 57 200 290/09G15 RMK AO2
14837KMSN MSN20051022162010210/22/05 16:20:31  5-MIN KMSN 222220Z 29007G15KT 10SM BKN046 07/M02 A2986 920 53 200 290/07G15 RMK AO2
14837KMSN MSN20051022162509610/22/05 16:25:31  5-MIN KMSN 222225Z 31005KT 10SM BKN046 07/M02 A2986 920 53 200 310/05 RMK AO2
14837KMSN MSN20051022163009610/22/05 16:30:31  5-MIN KMSN 222230Z 31005KT 10SM BKN046 07/M01 A2986 920 57 200 310/05 RMK AO2
14837KMSN MSN20051022163509610/22/05 16:35:31  5-MIN KMSN 222235Z 30004KT 10SM BKN046 07/M01 A2986 920 60 200 300/04 RMK AO2
14837KMSN MSN20051022164009610/22/05 16:40:31  5-MIN KMSN 222240Z 30003KT 10SM BKN046 07/M01 A2986 920 60 200 290/03 RMK AO2
14837KMSN MSN20051022164509610/22/05 16:45:31  5-MIN KMSN 222245Z 30003KT 10SM BKN046 06/M01 A2986 920 62 100 300/03 RMK AO2
14837KMSN MSN20051022165011310/22/05 16:50:31  5-MIN KMSN 222250Z 00000KT 10SM BKN046 06/M01 A2986 920 62 100 000/00 RMK AO2 SLP116 T00611006
14837KMSN MSN20051022165509310/22/05 16:55:31  5-MIN KMSN 222255Z 00000KT 10SM CLR 06/M01 A2986 920 62 100 000/00 RMK AO2
14837KMSN MSN20051022170009310/22/05 17:00:31  5-MIN KMSN 222300Z 00000KT 10SM BKN045 06/00 A2986 920 67 0 000/00 RMK AO2
14837KMSN MSN20051022170509310/22/05 17:05:31  5-MIN KMSN 222305Z 26003KT 10SM BKN045 05/00 A2986 920 70 0 260/03 RMK AO2
14837KMSN MSN20051022171009310/22/05 17:10:31  5-MIN KMSN 222310Z 26003KT 10SM BKN045 06/00 A2986 920 67 0 260/03 RMK AO2
14837KMSN MSN20051022171509310/22/05 17:15:31  5-MIN KMSN 222315Z 26003KT 10SM BKN045 05/00 A2986 920 70 0 260/03 RMK AO2
14837KMSN MSN20051022172009310/22/05 17:20:31  5-MIN KMSN 222320Z 00000KT 10SM BKN045 04/00 A2986 920 73 0 000/00 RMK AO2
14837KMSN MSN20051022172509310/22/05 17:25:31  5-MIN KMSN 222325Z 00000KT 10SM SCT048 04/00 A2986 920 73 0 000/00 RMK AO2
14837KMSN MSN20051022173009310/22/05 17:30:31  5-MIN KMSN 222330Z 28003KT 10SM SCT048 04/00 A2986 920 73 0 280/03 RMK AO2
14837KMSN MSN20051022173509610/22/05 17:35:31  5-MIN KMSN 222335Z 28003KT 10SM SCT048 04/00 A2986 920 76 -100 280/03 RMK AO2
14837KMSN MSN20051022174009610/22/05 17:40:31  5-MIN KMSN 222340Z 00000KT 10SM SCT048 03/00 A2987 910 79 -200 000/00 RMK AO2
14837KMSN MSN20051022174509610/22/05 17:45:31  5-MIN KMSN 222345Z 00000KT 10SM SCT048 03/00 A2987 910 79 -200 000/00 RMK AO2
14837KMSN MSN20051022175012910/22/05 17:50:31  5-MIN KMSN 222350Z 00000KT 10SM CLR 03/M01 A2987 910 79 -300 000/00 RMK AO2 SLP120 T00281006 10094 20028 55003
14837KMSN MSN20051022175509310/22/05 17:55:31  5-MIN KMSN 222355Z 00000KT 10SM CLR 03/00 A2987 910 79 -200 000/00 RMK AO2
14837KMSN MSN20051022180009410/22/05 18:00:31  5-MIN KMSN 230000Z 00000KT 10SM CLR 03/M01 A2987 910 79 -300 000/00 RMK AO2
14837KMSN MSN20051022180509410/22/05 18:05:31  5-MIN KMSN 230005Z 00000KT 10SM CLR 03/M01 A2987 910 79 -300 000/00 RMK AO2
14837KMSN MSN20051022181009410/22/05 18:10:31  5-MIN KMSN 230010Z 00000KT 10SM CLR 03/M01 A2987 910 79 -300 000/00 RMK AO2
14837KMSN MSN20051022181509410/22/05 18:15:31  5-MIN KMSN 230015Z 00000KT 10SM CLR 02/M01 A2987 910 82 -300 000/00 RMK AO2
14837KMSN MSN20051022182009410/22/05 18:20:31  5-MIN KMSN 230020Z 00000KT 10SM CLR 02/M01 A2987 910 82 -300 000/00 RMK AO2
14837KMSN MSN20051022182509410/22/05 18:25:31  5-MIN KMSN 230025Z 00000KT 10SM CLR 02/M01 A2987 910 82 -300 000/00 RMK AO2
14837KMSN MSN20051022183009410/22/05 18:30:31  5-MIN KMSN 230030Z 00000KT 10SM CLR 02/M01 A2987 910 85 -400 000/00 RMK AO2
14837KMSN MSN20051022183509410/22/05 18:35:31  5-MIN KMSN 230035Z 00000KT 10SM CLR 02/M01 A2987 910 82 -300 000/00 RMK AO2
14837KMSN MSN20051022184009410/22/05 18:40:31  5-MIN KMSN 230040Z 00000KT 10SM CLR 02/M01 A2987 910 82 -300 000/00 RMK AO2
14837KMSN MSN20051022184509310/22/05 18:45:31  5-MIN KMSN 230045Z 00000KT 10SM CLR 02/00 A2987 910 85 -300 000/00 RMK AO2
14837KMSN MSN20051022185011010/22/05 18:50:31  5-MIN KMSN 230050Z 31003KT 10SM CLR 02/00 A2987 910 85 -300 310/03 RMK AO2 SLP122 T00220000
14837KMSN MSN20051022185509410/22/05 18:55:31  5-MIN KMSN 230055Z 00000KT 10SM CLR 01/M01 A2987 910 89 -500 000/00 RMK AO2
14837KMSN MSN20051022190009410/22/05 19:00:31  5-MIN KMSN 230100Z 00000KT 10SM CLR 01/M01 A2987 910 89 -500 000/00 RMK AO2
14837KMSN MSN20051022190509310/22/05 19:05:31  5-MIN KMSN 230105Z 00000KT 10SM CLR 02/00 A2987 910 89 -400 000/00 RMK AO2
14837KMSN MSN20051022191009310/22/05 19:10:31  5-MIN KMSN 230110Z 00000KT 10SM CLR 02/00 A2987 910 89 -400 000/00 RMK AO2
14837KMSN MSN20051022191509310/22/05 19:15:31  5-MIN KMSN 230115Z 00000KT 10SM CLR 02/00 A2987 910 89 -400 000/00 RMK AO2
14837KMSN MSN20051022192009310/22/05 19:20:31  5-MIN KMSN 230120Z 00000KT 10SM CLR 02/00 A2987 910 89 -400 000/00 RMK AO2
14837KMSN MSN20051022192509310/22/05 19:25:31  5-MIN KMSN 230125Z 00000KT 10SM CLR 02/00 A2987 910 85 -300 000/00 RMK AO2
14837KMSN MSN20051022193009610/22/05 19:30:31  5-MIN KMSN 230130Z 27003KT 10SM FEW060 01/00 A2987 910 92 -500 260/03 RMK AO2
14837KMSN MSN20051022193509710/22/05 19:35:31  5-MIN KMSN 230135Z 28003KT 10SM SCT060 01/M01 A2987 910 89 -500 270/03 RMK AO2
14837KMSN MSN20051022194009710/22/05 19:40:31  5-MIN KMSN 230140Z 28004KT 10SM SCT060 02/M01 A2987 910 85 -400 280/04 RMK AO2
14837KMSN MSN20051022194509710/22/05 19:45:31  5-MIN KMSN 230145Z 28004KT 10SM BKN060 02/M01 A2987 910 82 -300 280/04 RMK AO2
14837KMSN MSN20051022195011410/22/05 19:50:31  5-MIN KMSN 230150Z 28004KT 10SM BKN060 03/M01 A2987 910 79 -300 280/04 RMK AO2 SLP121 T00281006
14837KMSN MSN20051022195509710/22/05 19:55:31  5-MIN KMSN 230155Z 29005KT 10SM BKN060 03/M01 A2987 910 79 -300 290/05 RMK AO2
14837KMSN MSN20051022200009710/22/05 20:00:31  5-MIN KMSN 230200Z 29005KT 10SM OVC060 03/M01 A2987 910 79 -300 290/05 RMK AO2
14837KMSN MSN20051022200509710/22/05 20:05:31  5-MIN KMSN 230205Z 28005KT 10SM OVC060 03/M01 A2987 920 72 -200 280/05 RMK AO2
14837KMSN MSN20051022201009710/22/05 20:10:31  5-MIN KMSN 230210Z 28004KT 10SM OVC060 03/M01 A2987 920 76 -200 280/04 RMK AO2
14837KMSN MSN20051022201509710/22/05 20:15:31  5-MIN KMSN 230215Z 28005KT 10SM OVC060 03/M01 A2986 920 76 -200 280/05 RMK AO2
14837KMSN MSN20051022202009710/22/05 20:20:31  5-MIN KMSN 230220Z 28005KT 10SM BKN060 03/M01 A2986 920 76 -200 280/05 RMK AO2
14837KMSN MSN20051022202509710/22/05 20:25:31  5-MIN KMSN 230225Z 30005KT 10SM BKN060 03/M01 A2986 920 76 -200 300/05 RMK AO2
14837KMSN MSN20051022203009710/22/05 20:30:31  5-MIN KMSN 230230Z 29005KT 10SM SCT060 03/M01 A2987 920 76 -200 290/05 RMK AO2
14837KMSN MSN20051022203509710/22/05 20:35:31  5-MIN KMSN 230235Z 30004KT 10SM SCT060 03/M01 A2986 920 76 -200 290/04 RMK AO2
14837KMSN MSN20051022204009710/22/05 20:40:31  5-MIN KMSN 230240Z 31003KT 10SM FEW060 03/M01 A2986 920 79 -300 300/03 RMK AO2
14837KMSN MSN20051022204509710/22/05 20:45:31  5-MIN KMSN 230245Z 00000KT 10SM FEW060 02/M01 A2986 920 82 -300 000/00 RMK AO2
14837KMSN MSN20051022205011710/22/05 20:50:31  5-MIN KMSN 230250Z 34004KT 10SM CLR 00/M02 A2987 910 88 -600 340/04 RMK AO2 SLP121 T00001017 51006
14837KMSN MSN20051022205509410/22/05 20:55:31  5-MIN KMSN 230255Z 36004KT 10SM CLR 01/M01 A2987 920 85 -500 350/04 RMK AO2
14837KMSN MSN20051022210009710/22/05 21:00:31  5-MIN KMSN 230300Z 00000KT 10SM SCT060 02/M01 A2987 910 85 -400 000/00 RMK AO2
14837KMSN MSN20051022210509710/22/05 21:05:31  5-MIN KMSN 230305Z 00000KT 10SM SCT060 01/M01 A2986 920 89 -500 000/00 RMK AO2
14837KMSN MSN20051022211009710/22/05 21:10:31  5-MIN KMSN 230310Z 00000KT 10SM SCT060 01/M01 A2986 920 85 -500 000/00 RMK AO2
14837KMSN MSN20051022211509710/22/05 21:15:31  5-MIN KMSN 230315Z 00000KT 10SM SCT060 01/M01 A2986 920 85 -500 000/00 RMK AO2
14837KMSN MSN20051022212009710/22/05 21:20:31  5-MIN KMSN 230320Z 00000KT 10SM BKN060 01/M01 A2986 920 89 -500 000/00 RMK AO2
14837KMSN MSN20051022212509710/22/05 21:25:31  5-MIN KMSN 230325Z 00000KT 10SM BKN060 01/M01 A2986 920 89 -500 000/00 RMK AO2
14837KMSN MSN20051022213009710/22/05 21:30:31  5-MIN KMSN 230330Z 00000KT 10SM BKN060 01/M01 A2986 920 89 -500 000/00 RMK AO2
14837KMSN MSN20051022213509710/22/05 21:35:31  5-MIN KMSN 230335Z 00000KT 10SM BKN060 01/M01 A2986 920 89 -500 000/00 RMK AO2
14837KMSN MSN20051022214009710/22/05 21:40:31  5-MIN KMSN 230340Z 00000KT 10SM BKN060 01/M01 A2986 920 89 -500 000/00 RMK AO2
14837KMSN MSN20051022214509710/22/05 21:45:31  5-MIN KMSN 230345Z 00000KT 10SM BKN060 01/M01 A2986 920 92 -500 000/00 RMK AO2
14837KMSN MSN20051022215011310/22/05 21:50:31  5-MIN KMSN 230350Z 00000KT 9SM SCT060 01/M01 A2986 920 92 -500 000/00 RMK AO2 SLP119 T00061006
14837KMSN MSN20051022215509610/22/05 21:55:31  5-MIN KMSN 230355Z 00000KT 9SM FEW060 01/M01 A2986 920 92 -500 000/00 RMK AO2
14837KMSN MSN20051022220009610/22/05 22:00:31  5-MIN KMSN 230400Z 00000KT 9SM FEW060 01/M01 A2986 920 92 -500 000/00 RMK AO2
14837KMSN MSN20051022220509410/22/05 22:05:31  5-MIN KMSN 230405Z 00000KT 10SM CLR 01/M01 A2986 920 89 -500 000/00 RMK AO2
14837KMSN MSN20051022221009410/22/05 22:10:31  5-MIN KMSN 230410Z 00000KT 10SM CLR 00/M01 A2986 920 92 -600 000/00 RMK AO2
14837KMSN MSN20051022221509410/22/05 22:15:31  5-MIN KMSN 230415Z 00000KT 10SM CLR 00/M01 A2986 920 92 -600 000/00 RMK AO2
14837KMSN MSN20051022222009410/22/05 22:20:31  5-MIN KMSN 230420Z 00000KT 10SM CLR 01/M01 A2986 920 89 -500 000/00 RMK AO2
14837KMSN MSN20051022222509410/22/05 22:25:31  5-MIN KMSN 230425Z 00000KT 10SM CLR 00/M01 A2986 920 92 -600 000/00 RMK AO2
14837KMSN MSN20051022223009710/22/05 22:30:31  5-MIN KMSN 230430Z 00000KT 10SM FEW060 00/M01 A2986 920 92 -600 000/00 RMK AO2
14837KMSN MSN20051022223509710/22/05 22:35:31  5-MIN KMSN 230435Z 00000KT 10SM SCT060 01/M01 A2986 920 92 -500 000/00 RMK AO2
14837KMSN MSN20051022224009710/22/05 22:40:31  5-MIN KMSN 230440Z 00000KT 10SM BKN060 00/M01 A2986 920 92 -600 000/00 RMK AO2
14837KMSN MSN20051022224509810/22/05 22:45:31  5-MIN KMSN 230445Z 00000KT 10SM BKN060 M01/M02 A2986 920 92 -700 000/00 RMK AO2
14837KMSN MSN20051022225011510/22/05 22:50:31  5-MIN KMSN 230450Z 00000KT 10SM BKN060 M01/M02 A2986 920 88 -700 000/00 RMK AO2 SLP120 T10061022
14837KMSN MSN20051022225509810/22/05 22:55:31  5-MIN KMSN 230455Z 00000KT 10SM BKN060 M01/M03 A2986 920 88 -700 000/00 RMK AO2
14837KMSN MSN20051022230009810/22/05 23:00:31  5-MIN KMSN 230500Z 00000KT 10SM BKN060 M01/M03 A2986 920 85 -700 000/00 RMK AO2
14837KMSN MSN20051022230509810/22/05 23:05:31  5-MIN KMSN 230505Z 27003KT 10SM BKN060 M01/M02 A2986 920 88 -700 260/03 RMK AO2
14837KMSN MSN20051022231009710/22/05 23:10:31  5-MIN KMSN 230510Z 26003KT 10SM BKN060 00/M02 A2986 920 85 -600 260/03 RMK AO2
14837KMSN MSN20051022231509710/22/05 23:15:31  5-MIN KMSN 230515Z 00000KT 10SM BKN060 01/M02 A2986 920 85 -500 000/00 RMK AO2
14837KMSN MSN20051022232009710/22/05 23:20:31  5-MIN KMSN 230520Z 00000KT 10SM BKN060 01/M02 A2986 920 85 -500 000/00 RMK AO2
14837KMSN MSN20051022232509710/22/05 23:25:31  5-MIN KMSN 230525Z 00000KT 10SM BKN060 00/M02 A2986 920 88 -600 000/00 RMK AO2
14837KMSN MSN20051022233009710/22/05 23:30:31  5-MIN KMSN 230530Z 00000KT 10SM BKN060 01/M02 A2986 920 78 -500 000/00 RMK AO2
14837KMSN MSN20051022233509710/22/05 23:35:31  5-MIN KMSN 230535Z 29003KT 10SM OVC060 02/M02 A2986 920 75 -400 290/03 RMK AO2
14837KMSN MSN20051022234009710/22/05 23:40:31  5-MIN KMSN 230540Z 29003KT 10SM OVC060 02/M02 A2987 910 75 -400 290/03 RMK AO2
14837KMSN MSN20051022234509710/22/05 23:45:31  5-MIN KMSN 230545Z 29003KT 10SM BKN060 02/M02 A2987 910 75 -400 290/03 RMK AO2
14837KMSN MSN20051022235014210/22/05 23:50:31  5-MIN KMSN 230550Z 29003KT 10SM BKN060 02/M02 A2987 920 75 -400 290/03 RMK AO2 SLP120 T00171022 10033 21011 400941011 58001
14837KMSN MSN20051022235509710/22/05 23:55:31  5-MIN KMSN 230555Z 29004KT 10SM BKN060 02/M02 A2986 920 75 -400 290/04 RMK AO2
14837KMSN MSN20051023000009710/23/05 00:00:38  5-MIN KMSN 230600Z 30003KT 10SM SCT060 02/M02 A2986 920 72 -300 300/03 RMK AO2
14837KMSN MSN20051023000509710/23/05 00:05:31  5-MIN KMSN 230605Z 00000KT 10SM SCT060 02/M02 A2986 920 78 -400 000/00 RMK AO2
14837KMSN MSN20051023001010410/23/05 00:10:31  5-MIN KMSN 230610Z 29003KT 10SM SCT037 BKN060 01/M02 A2986 920 78 -500 290/03 RMK AO2
14837KMSN MSN20051023001511110/23/05 00:15:34  5-MIN KMSN 230615Z 00000KT 10SM FEW019 SCT037 BKN060 01/M02 A2987 920 78 -500 000/00 RMK AO2
14837KMSN MSN20051023002011110/23/05 00:20:31  5-MIN KMSN 230620Z 00000KT 10SM SCT019 BKN035 BKN060 01/M02 A2986 920 78 -500 000/00 RMK AO2
14837KMSN MSN20051023002511110/23/05 00:25:31  5-MIN KMSN 230625Z 29003KT 10SM BKN017 BKN035 BKN060 02/M02 A2987 920 75 -400 290/03 RMK AO2
14837KMSN MSN20051023003011110/23/05 00:30:31  5-MIN KMSN 230630Z 30004KT 10SM BKN017 BKN035 OVC060 02/M02 A2986 920 75 -300 300/04 RMK AO2
14837KMSN MSN20051023003510410/23/05 00:35:31  5-MIN KMSN 230635Z 30004KT 10SM BKN017 OVC035 02/M02 A2987 910 75 -300 300/04 RMK AO2
14837KMSN MSN20051023004009710/23/05 00:40:31  5-MIN KMSN 230640Z 31004KT 10SM OVC017 02/M01 A2987 910 78 -300 310/04 RMK AO2
14837KMSN MSN20051023004509710/23/05 00:45:31  5-MIN KMSN 230645Z 31004KT 10SM OVC015 02/M01 A2987 910 78 -300 310/04 RMK AO2
14837KMSN MSN20051023005011410/23/05 00:50:31  5-MIN KMSN 230650Z 31003KT 10SM OVC015 03/M01 A2987 910 75 -300 300/03 RMK AO2 SLP119 T00281011
14837KMSN MSN20051023005509710/23/05 00:55:31  5-MIN KMSN 230655Z 31003KT 10SM OVC017 03/M01 A2987 910 79 -300 310/03 RMK AO2
14837KMSN MSN20051023010009710/23/05 01:00:31  5-MIN KMSN 230700Z 00000KT 10SM OVC017 03/M01 A2987 910 79 -300 000/00 RMK AO2
14837KMSN MSN20051023010509710/23/05 01:05:31  5-MIN KMSN 230705Z 00000KT 10SM OVC017 03/M01 A2987 910 79 -300 000/00 RMK AO2
14837KMSN MSN20051023011009610/23/05 01:10:31  5-MIN KMSN 230710Z 00000KT 10SM OVC017 03/00 A2986 920 82 -300 000/00 RMK AO2
14837KMSN MSN20051023011509610/23/05 01:15:31  5-MIN KMSN 230715Z 00000KT 10SM OVC017 02/00 A2986 920 85 -300 000/00 RMK AO2
14837KMSN MSN20051023012009610/23/05 01:20:31  5-MIN KMSN 230720Z 00000KT 10SM OVC017 02/00 A2986 920 85 -300 000/00 RMK AO2
14837KMSN MSN20051023012509610/23/05 01:25:31  5-MIN KMSN 230725Z 31003KT 10SM OVC017 03/00 A2986 920 82 -300 310/03 RMK AO2
14837KMSN MSN20051023013009610/23/05 01:30:31  5-MIN KMSN 230730Z 30003KT 10SM OVC017 03/01 A2986 920 82 -200 300/03 RMK AO2
14837KMSN MSN20051023013509610/23/05 01:35:31  5-MIN KMSN 230735Z 30003KT 10SM OVC017 03/01 A2986 920 82 -200 300/03 RMK AO2
14837KMSN MSN20051023014009610/23/05 01:40:31  5-MIN KMSN 230740Z 30003KT 10SM OVC017 03/01 A2986 920 82 -200 300/03 RMK AO2
14837KMSN MSN20051023014510310/23/05 01:45:31  5-MIN KMSN 230745Z 30003KT 10SM BKN013 OVC018 03/01 A2986 920 85 -200 300/03 RMK AO2
14837KMSN MSN20051023015011310/23/05 01:50:31  5-MIN KMSN 230750Z 00000KT 10SM OVC015 03/01 A2986 920 85 -200 000/00 RMK AO2 SLP115 T00330011
14837KMSN MSN20051023015509610/23/05 01:55:31  5-MIN KMSN 230755Z 28003KT 10SM OVC015 03/01 A2986 920 82 -200 270/03 RMK AO2
14837KMSN MSN20051023020010310/23/05 02:00:31  5-MIN KMSN 230800Z 28003KT 10SM BKN013 OVC018 03/00 A2986 920 79 -200 280/03 RMK AO2
14837KMSN MSN20051023020510310/23/05 02:05:31  5-MIN KMSN 230805Z 28004KT 10SM BKN013 OVC020 03/00 A2986 920 79 -200 280/04 RMK AO2
14837KMSN MSN20051023021010310/23/05 02:10:31  5-MIN KMSN 230810Z 28004KT 10SM BKN013 OVC020 03/00 A2986 920 79 -200 270/04 RMK AO2
14837KMSN MSN20051023021509610/23/05 02:15:31  5-MIN KMSN 230815Z 28004KT 10SM OVC013 03/00 A2986 920 79 -200 270/04 RMK AO2
14837KMSN MSN20051023022009610/23/05 02:20:31  5-MIN KMSN 230820Z 28003KT 10SM OVC013 03/00 A2986 920 79 -200 280/03 RMK AO2
14837KMSN MSN20051023022509610/23/05 02:25:31  5-MIN KMSN 230825Z 28003KT 10SM OVC011 03/00 A2986 920 79 -200 280/03 RMK AO2
14837KMSN MSN20051023023009610/23/05 02:30:31  5-MIN KMSN 230830Z 28003KT 10SM OVC011 03/00 A2985 930 79 -200 280/03 RMK AO2
14837KMSN MSN20051023023511510/23/05 02:35:31  5-MIN KMSN 230835Z 28003KT 10SM BKN011 OVC014 03/01 A2985 930 82 -200 280/03 RMK AO2 CIG 008V013
14837KMSN MSN20051023024009610/23/05 02:40:31  5-MIN KMSN 230840Z 29003KT 10SM OVC011 03/01 A2985 930 82 -200 290/03 RMK AO2
14837KMSN MSN20051023024509610/23/05 02:45:31  5-MIN KMSN 230845Z 29004KT 10SM OVC011 03/01 A2985 930 85 -200 290/04 RMK AO2
14837KMSN MSN20051023025011910/23/05 02:50:31  5-MIN KMSN 230850Z 30003KT 10SM OVC011 03/01 A2985 930 85 -200 300/03 RMK AO2 SLP115 T00330011 55000
14837KMSN MSN20051023025509610/23/05 02:55:31  5-MIN KMSN 230855Z 30003KT 10SM OVC011 03/02 A2985 930 89 -200 290/03 RMK AO2
14837KMSN MSN20051023145011910/23/05 14:50:31  5-MIN KMSN 232050Z 36013KT 10SM -RA SCT026 OVC035 07/03 A3000 790 76 0 360/13 RMK AO2 RAE16B34 P0000
14837KMSN MSN20051023145511710/23/05 14:55:31  5-MIN KMSN 232055Z 01012KT 10SM -RA SCT022 BKN030 OVC037 07/03 A3001 780 79 0 360/12 RMK AO2 P0000
14837KMSN MSN20051023150011710/23/05 15:00:31  5-MIN KMSN 232100Z 01013KT 10SM -RA SCT022 BKN030 OVC037 07/03 A3001 780 79 0 010/13 RMK AO2 P0000
14837KMSN MSN20051023150511710/23/05 15:05:31  5-MIN KMSN 232105Z 01013KT 10SM -RA SCT022 BKN030 OVC037 07/03 A3001 780 76 0 010/13 RMK AO2 P0000
14837KMSN MSN20051023151011710/23/05 15:10:31  5-MIN KMSN 232110Z 01014KT 10SM -RA SCT022 BKN030 OVC037 07/03 A3001 780 76 0 010/14 RMK AO2 P0000
14837KMSN MSN20051023151511710/23/05 15:15:31  5-MIN KMSN 232115Z 01011KT 10SM -RA SCT022 BKN030 OVC037 07/03 A3001 780 76 0 010/11 RMK AO2 P0000
14837KMSN MSN20051023152011710/23/05 15:20:31  5-MIN KMSN 232120Z 01009KT 10SM -RA SCT022 BKN030 OVC037 07/03 A3001 780 76 0 010/09 RMK AO2 P0000
14837KMSN MSN20051023152511710/23/05 15:25:31  5-MIN KMSN 232125Z 36012KT 10SM -RA SCT022 BKN030 OVC037 07/03 A3001 780 76 0 360/12 RMK AO2 P0000
14837KMSN MSN20051023153011710/23/05 15:30:31  5-MIN KMSN 232130Z 36012KT 10SM -RA SCT022 BKN030 OVC037 07/03 A3002 780 76 0 360/12 RMK AO2 P0000
14837KMSN MSN20051023153511710/23/05 15:35:31  5-MIN KMSN 232135Z 36009KT 10SM -RA SCT022 BKN030 OVC037 07/03 A3002 780 76 0 360/09 RMK AO2 P0000
14837KMSN MSN20051023154011710/23/05 15:40:31  5-MIN KMSN 232140Z 36008KT 10SM -RA SCT022 BKN030 OVC037 07/03 A3002 780 76 0 360/08 RMK AO2 P0000
14837KMSN MSN20051023154511710/23/05 15:45:31  5-MIN KMSN 232145Z 36009KT 10SM -RA SCT022 BKN030 OVC037 07/03 A3002 770 76 0 360/09 RMK AO2 P0000
14837KMSN MSN20051023155013110/23/05 15:50:31  5-MIN KMSN 232150Z 34006KT 10SM SCT025 BKN040 07/03 A3002 780 73 100 340/06 RMK AO2 RAE50 SLP170 P0000 T00720028
14837KMSN MSN20051023155510210/23/05 15:55:31  5-MIN KMSN 232155Z 35008KT 10SM SCT036 OVC047 07/03 A3002 770 73 100 350/08 RMK AO2
14837KMSN MSN20051023160010910/23/05 16:00:31  5-MIN KMSN 232200Z 35006KT 10SM FEW034 SCT043 OVC050 07/03 A3002 770 73 100 350/06 RMK AO2
14837KMSN MSN20051023160510210/23/05 16:05:31  5-MIN KMSN 232205Z 36006KT 10SM BKN046 OVC055 07/03 A3002 770 73 100 350/06 RMK AO2
14837KMSN MSN20051023161010910/23/05 16:10:31  5-MIN KMSN 232210Z 35007KT 10SM FEW041 BKN050 OVC060 07/03 A3002 770 73 100 350/07 RMK AO2
14837KMSN MSN20051023161510910/23/05 16:15:31  5-MIN KMSN 232215Z 35007KT 10SM SCT039 BKN050 OVC060 07/03 A3002 770 73 100 350/07 RMK AO2
14837KMSN MSN20051023162010910/23/05 16:20:31  5-MIN KMSN 232220Z 35005KT 10SM SCT039 BKN050 BKN060 07/03 A3002 770 73 100 350/05 RMK AO2
14837KMSN MSN20051023162510910/23/05 16:25:31  5-MIN KMSN 232225Z 33006KT 10SM SCT039 BKN050 BKN060 07/02 A3003 770 70 100 330/06 RMK AO2
14837KMSN MSN20051023163010910/23/05 16:30:31  5-MIN KMSN 232230Z 34006KT 10SM SCT039 BKN050 BKN060 07/02 A3003 770 70 100 340/06 RMK AO2
14837KMSN MSN20051023163510910/23/05 16:35:31  5-MIN KMSN 232235Z 35005KT 10SM SCT039 BKN050 BKN060 07/02 A3003 760 70 100 340/05 RMK AO2
14837KMSN MSN20051023164010910/23/05 16:40:31  5-MIN KMSN 232240Z 34006KT 10SM SCT039 BKN050 BKN060 07/02 A3003 760 70 100 340/06 RMK AO2
14837KMSN MSN20051023164510710/23/05 16:45:31  5-MIN KMSN 232245Z 34005KT 10SM SCT039 BKN050 BKN060 07/02 A3003 760 70 0 340/05 RMK AO2
14837KMSN MSN20051023165012610/23/05 16:50:31  5-MIN KMSN 232250Z 33006KT 10SM BKN039 BKN045 BKN055 07/02 A3003 760 70 100 330/06 RMK AO2 SLP175 T00720022
14837KMSN MSN20051023165510210/23/05 16:55:31  5-MIN KMSN 232255Z 33009KT 10SM SCT039 OVC055 07/02 A3003 760 70 100 330/09 RMK AO2
14837KMSN MSN20051023170010910/23/05 17:00:31  5-MIN KMSN 232300Z 34008KT 10SM SCT039 BKN049 OVC060 07/02 A3003 760 68 100 340/08 RMK AO2
14837KMSN MSN20051023170510710/23/05 17:05:31  5-MIN KMSN 232305Z 34010KT 10SM FEW041 SCT049 OVC060 07/02 A3003 760 68 0 340/10 RMK AO2
14837KMSN MSN20051023171010710/23/05 17:10:31  5-MIN KMSN 232310Z 35009KT 10SM FEW039 SCT049 OVC060 07/02 A3003 760 68 0 350/09 RMK AO2
14837KMSN MSN20051023171510010/23/05 17:15:31  5-MIN KMSN 232315Z 34007KT 10SM FEW049 OVC060 07/02 A3003 760 68 0 340/07 RMK AO2
14837KMSN MSN20051023172010010/23/05 17:20:31  5-MIN KMSN 232320Z 34008KT 10SM FEW049 OVC060 07/02 A3003 760 68 0 340/08 RMK AO2
14837KMSN MSN20051023172509310/23/05 17:25:31  5-MIN KMSN 232325Z 34011KT 10SM OVC060 07/02 A3004 760 68 0 340/11 RMK AO2
14837KMSN MSN20051023173009310/23/05 17:30:31  5-MIN KMSN 232330Z 34011KT 10SM OVC060 07/02 A3004 760 68 0 340/11 RMK AO2
14837KMSN MSN20051023173509310/23/05 17:35:31  5-MIN KMSN 232335Z 34010KT 10SM OVC060 07/02 A3004 760 68 0 340/10 RMK AO2
14837KMSN MSN20051023174009310/23/05 17:40:31  5-MIN KMSN 232340Z 35011KT 10SM OVC055 07/02 A3004 760 68 0 350/11 RMK AO2
14837KMSN MSN20051023174510010/23/05 17:45:31  5-MIN KMSN 232345Z 34010KT 10SM BKN050 OVC060 07/02 A3004 750 70 0 340/10 RMK AO2
14837KMSN MSN20051023175014110/23/05 17:50:31  5-MIN KMSN 232350Z 34009KT 10SM BKN048 OVC055 07/02 A3004 750 70 0 340/09 RMK AO2 SLP179 60000 T00720022 10083 20067 53012
14837KMSN MSN20051023175510710/23/05 17:55:31  5-MIN KMSN 232355Z 35008KT 10SM BKN040 BKN050 OVC060 07/02 A3004 750 70 0 340/08 RMK AO2
14837KMSN MSN20051023180010610/23/05 18:00:31  5-MIN KMSN 240000Z 35009KT 8SM FEW030 BKN040 OVC050 07/02 A3005 740 70 0 350/09 RMK AO2
14837KMSN MSN20051023180512810/23/05 18:05:31  5-MIN KMSN 240005Z 35010G15KT 6SM -RA FEW025 BKN039 OVC050 07/03 A3005 740 76 0 340/10G15 RMK AO2 RAB01 P0000
14837KMSN MSN20051023181012410/23/05 18:10:31  5-MIN KMSN 240010Z 36010G17KT 7SM -RA FEW025 OVC042 06/03 A3005 740 79 -100 360/10G17 RMK AO2 RAB01 P0000
14837KMSN MSN20051023181512510/23/05 18:15:31  5-MIN KMSN 240015Z 35010KT 9SM -RA FEW025 SCT035 OVC042 06/03 A3005 740 82 -100 350/10 RMK AO2 RAB01 P0000
14837KMSN MSN20051023182012510/23/05 18:20:31  5-MIN KMSN 240020Z 35008KT 10SM FEW027 BKN037 OVC050 06/03 A3005 740 82 -100 350/08 RMK AO2 RAB01E19 P0000
14837KMSN MSN20051023182512510/23/05 18:25:31  5-MIN KMSN 240025Z 35007KT 10SM FEW027 BKN043 OVC050 06/03 A3005 740 82 -100 350/07 RMK AO2 RAB01E19 P0000
14837KMSN MSN20051023183012510/23/05 18:30:31  5-MIN KMSN 240030Z 35007KT 10SM FEW025 BKN043 OVC050 06/03 A3005 750 82 -100 350/07 RMK AO2 RAB01E19 P0000
14837KMSN MSN20051023183511810/23/05 18:35:31  5-MIN KMSN 240035Z 35005KT 10SM BKN043 OVC050 06/03 A3005 740 82 -100 350/05 RMK AO2 RAB01E19 P0000
14837KMSN MSN20051023184011810/23/05 18:40:31  5-MIN KMSN 240040Z 35005KT 10SM SCT041 OVC050 06/03 A3005 740 85 -100 340/05 RMK AO2 RAB01E19 P0000
14837KMSN MSN20051023184511810/23/05 18:45:31  5-MIN KMSN 240045Z 35005KT 10SM BKN043 OVC050 06/03 A3005 740 82 -100 340/05 RMK AO2 RAB01E19 P0000
14837KMSN MSN20051023185012810/23/05 18:50:31  5-MIN KMSN 240050Z 35005KT 10SM OVC045 06/03 A3005 740 82 -100 350/05 RMK AO2 RAB01E19 SLP184 P0000 T00610033
14837KMSN MSN20051023185511010/23/05 18:55:31  5-MIN KMSN 240055Z 35005KT 10SM SCT041 BKN048 OVC080 06/03 A3006 740 85 -100 350/05 RMK AO2
14837KMSN MSN20051023190011010/23/05 19:00:31  5-MIN KMSN 240100Z 35005KT 10SM FEW041 BKN048 OVC080 06/03 A3006 740 85 -100 350/05 RMK AO2
14837KMSN MSN20051023190510310/23/05 19:05:31  5-MIN KMSN 240105Z 35005KT 10SM BKN043 OVC080 06/03 A3006 740 85 -100 350/05 RMK AO2
14837KMSN MSN20051023191011010/23/05 19:10:31  5-MIN KMSN 240110Z 34005KT 10SM FEW028 BKN045 OVC080 06/03 A3006 740 85 -100 340/05 RMK AO2
14837KMSN MSN20051023191511010/23/05 19:15:31  5-MIN KMSN 240115Z 34004KT 10SM FEW028 BKN045 OVC080 06/03 A3006 740 85 -100 340/04 RMK AO2
14837KMSN MSN20051023192011010/23/05 19:20:31  5-MIN KMSN 240120Z 34005KT 10SM FEW032 BKN055 OVC080 06/03 A3006 740 85 -100 340/05 RMK AO2
14837KMSN MSN20051023192511010/23/05 19:25:31  5-MIN KMSN 240125Z 34006KT 10SM FEW036 SCT060 OVC080 06/03 A3006 730 82 -100 340/06 RMK AO2
14837KMSN MSN20051023193011010/23/05 19:30:31  5-MIN KMSN 240130Z 34006KT 10SM FEW036 SCT055 OVC075 06/03 A3006 730 85 -100 340/06 RMK AO2
14837KMSN MSN20051023193511010/23/05 19:35:31  5-MIN KMSN 240135Z 35006KT 10SM FEW036 SCT060 OVC075 06/03 A3006 730 82 -100 350/06 RMK AO2
14837KMSN MSN20051023194011010/23/05 19:40:31  5-MIN KMSN 240140Z 34007KT 10SM SCT046 BKN060 OVC075 06/03 A3007 730 82 -100 340/07 RMK AO2
14837KMSN MSN20051023194511010/23/05 19:45:31  5-MIN KMSN 240145Z 35006KT 10SM BKN044 BKN055 OVC075 06/03 A3007 730 82 -100 350/06 RMK AO2
14837KMSN MSN20051023195012710/23/05 19:50:31  5-MIN KMSN 240150Z 34006KT 10SM FEW035 BKN044 OVC075 06/03 A3007 730 82 -100 340/06 RMK AO2 SLP188 T00610033
14837KMSN MSN20051023195511010/23/05 19:55:31  5-MIN KMSN 240155Z 35007KT 10SM SCT030 BKN037 OVC080 06/03 A3007 730 82 -100 350/07 RMK AO2
14837KMSN MSN20051023200011010/23/05 20:00:31  5-MIN KMSN 240200Z 35008KT 10SM SCT030 BKN037 OVC045 06/03 A3007 730 82 -100 350/08 RMK AO2
14837KMSN MSN20051023200511010/23/05 20:05:31  5-MIN KMSN 240205Z 36008KT 10SM BKN028 BKN033 OVC045 06/03 A3007 730 82 -100 360/08 RMK AO2
14837KMSN MSN20051023201011010/23/05 20:10:31  5-MIN KMSN 240210Z 36008KT 10SM SCT028 BKN035 OVC045 06/03 A3007 730 82 -100 350/08 RMK AO2
14837KMSN MSN20051023201511010/23/05 20:15:31  5-MIN KMSN 240215Z 36008KT 10SM BKN030 BKN035 OVC045 06/03 A3007 730 82 -100 360/08 RMK AO2
14837KMSN MSN20051023202012610/23/05 20:20:31  5-MIN KMSN 240220Z 36008KT 10SM -RA BKN030 BKN036 OVC047 06/03 A3007 730 79 -100 360/08 RMK AO2 RAB20 P0000
14837KMSN MSN20051023202512610/23/05 20:25:31  5-MIN KMSN 240225Z 36009KT 10SM -RA BKN028 BKN036 OVC047 06/03 A3007 730 82 -100 360/09 RMK AO2 RAB20 P0000
14837KMSN MSN20051023203012510/23/05 20:30:31  5-MIN KMSN 240230Z 01010KT 10SM FEW022 BKN028 OVC047 06/03 A3007 720 82 -100 360/10 RMK AO2 RAB20E29 P0000
14837KMSN MSN20051023203512510/23/05 20:35:31  5-MIN KMSN 240235Z 36011KT 10SM BKN024 BKN028 OVC047 06/03 A3007 720 82 -100 360/11 RMK AO2 RAB20E29 P0000
14837KMSN MSN20051023204011810/23/05 20:40:31  5-MIN KMSN 240240Z 01009KT 10SM BKN022 OVC028 06/03 A3008 720 82 -100 010/09 RMK AO2 RAB20E29 P0000
14837KMSN MSN20051023204511810/23/05 20:45:31  5-MIN KMSN 240245Z 01008KT 10SM BKN022 OVC028 06/03 A3008 720 82 -100 010/08 RMK AO2 RAB20E29 P0000
14837KMSN MSN20051023205014710/23/05 20:50:31  5-MIN KMSN 240250Z 03007KT 10SM BKN020 OVC026 06/03 A3008 720 82 -100 030/07 RMK AO2 RAB20E29 SLP190 P0000 60000 T00610033 53012
14837KMSN MSN20051023205510310/23/05 20:55:31  5-MIN KMSN 240255Z 04013KT 10SM BKN017 OVC023 06/03 A3008 720 85 -200 040/13 RMK AO2
14837KMSN MSN20051023210010210/23/05 21:00:31  5-MIN KMSN 240300Z 02013KT 7SM BKN017 OVC023 05/03 A3008 720 85 -200 020/13 RMK AO2
14837KMSN MSN20051023210510510/23/05 21:05:31  5-MIN KMSN 240305Z 02017KT 4SM BR BKN017 OVC023 05/03 A3008 710 85 -200 020/17 RMK AO2
14837KMSN MSN20051023211012810/23/05 21:10:31  5-MIN KMSN 240310Z 01013KT 4SM -RA BR SCT017 BKN023 OVC029 05/03 A3008 710 85 -200 010/13 RMK AO2 RAB07 P0000
14837KMSN MSN20051023211512710/23/05 21:15:31  5-MIN KMSN 240315Z 02015G20KT 6SM -RA BR SCT017 OVC025 05/03 A3008 720 85 -200 020/15G20 RMK AO2 RAB07 P0001
14837KMSN MSN20051023212013210/23/05 21:20:31  5-MIN KMSN 240320Z 02013G20KT 10SM -RA FEW015 BKN025 OVC029 05/03 A3008 710 85 -200 020/13G20 RMK AO2 RAB07 P0001
14837KMSN MSN20051023212511710/23/05 21:25:31  5-MIN KMSN 240325Z 36013KT 9SM BKN025 OVC029 05/03 A3008 720 85 -200 360/13 RMK AO2 RAB07E24 P0001
14837KMSN MSN20051023213012410/23/05 21:30:31  5-MIN KMSN 240330Z 36010KT 8SM SCT025 BKN030 OVC034 05/03 A3008 720 85 -200 360/10 RMK AO2 RAB07E24 P0001
14837KMSN MSN20051023213511810/23/05 21:35:31  5-MIN KMSN 240335Z 36011KT 10SM SCT027 OVC034 05/03 A3008 720 85 -200 360/11 RMK AO2 RAB07E24 P0001
14837KMSN MSN20051023214011810/23/05 21:40:31  5-MIN KMSN 240340Z 35010KT 10SM SCT027 OVC034 05/03 A3008 720 85 -200 350/10 RMK AO2 RAB07E24 P0001
14837KMSN MSN20051023214512510/23/05 21:45:31  5-MIN KMSN 240345Z 35008KT 10SM FEW027 BKN036 OVC045 05/03 A3008 720 85 -200 350/08 RMK AO2 RAB07E24 P0001
14837KMSN MSN20051023215014210/23/05 21:50:31  5-MIN KMSN 240350Z 36009KT 10SM BKN036 BKN048 OVC070 04/03 A3008 720 89 -300 360/09 RMK AO2 RAB07E24 SLP192 P0001 T00440028
14837KMSN MSN20051023215510310/23/05 21:55:31  5-MIN KMSN 240355Z 36009KT 10SM BKN036 OVC045 04/03 A3008 720 89 -300 350/09 RMK AO2
14837KMSN MSN20051023220010310/23/05 22:00:31  5-MIN KMSN 240400Z 35008KT 10SM SCT036 BKN045 04/03 A3008 720 89 -300 350/08 RMK AO2
14837KMSN MSN20051023220510310/23/05 22:05:31  5-MIN KMSN 240405Z 36008KT 10SM SCT036 BKN045 04/03 A3008 720 89 -300 350/08 RMK AO2
14837KMSN MSN20051023221010310/23/05 22:10:31  5-MIN KMSN 240410Z 36008KT 10SM SCT036 BKN045 04/03 A3008 720 89 -300 360/08 RMK AO2
14837KMSN MSN20051023221510310/23/05 22:15:31  5-MIN KMSN 240415Z 36009KT 10SM SCT036 BKN045 04/03 A3008 710 89 -300 360/09 RMK AO2
14837KMSN MSN20051023222010310/23/05 22:20:31  5-MIN KMSN 240420Z 36008KT 10SM SCT036 BKN045 04/02 A3008 710 89 -400 360/08 RMK AO2
14837KMSN MSN20051023222510310/23/05 22:25:31  5-MIN KMSN 240425Z 35008KT 10SM SCT036 BKN045 04/02 A3008 710 89 -400 350/08 RMK AO2
14837KMSN MSN20051023223010310/23/05 22:30:31  5-MIN KMSN 240430Z 35007KT 10SM SCT036 BKN045 04/02 A3008 710 89 -400 350/07 RMK AO2
14837KMSN MSN20051023223510310/23/05 22:35:31  5-MIN KMSN 240435Z 36007KT 10SM SCT036 BKN045 04/02 A3008 710 89 -400 350/07 RMK AO2
14837KMSN MSN20051023224009610/23/05 22:40:31  5-MIN KMSN 240440Z 35006KT 10SM SCT065 03/02 A3008 710 89 -400 350/06 RMK AO2
14837KMSN MSN20051023224509610/23/05 22:45:31  5-MIN KMSN 240445Z 35007KT 10SM SCT065 03/02 A3008 710 89 -400 350/07 RMK AO2
14837KMSN MSN20051023225011310/23/05 22:50:31  5-MIN KMSN 240450Z 35007KT 10SM FEW065 03/02 A3008 710 89 -400 350/07 RMK AO2 SLP193 T00330017
14837KMSN MSN20051023225509610/23/05 22:55:31  5-MIN KMSN 240455Z 35007KT 10SM FEW065 03/02 A3009 710 89 -400 350/07 RMK AO2
14837KMSN MSN20051023230009310/23/05 23:00:31  5-MIN KMSN 240500Z 35007KT 10SM CLR 03/02 A3009 710 89 -400 350/07 RMK AO2
14837KMSN MSN20051023230509310/23/05 23:05:31  5-MIN KMSN 240505Z 35009KT 10SM CLR 03/02 A3009 710 89 -400 350/09 RMK AO2
14837KMSN MSN20051023231009310/23/05 23:10:31  5-MIN KMSN 240510Z 35008KT 10SM CLR 03/02 A3009 710 89 -400 350/08 RMK AO2
14837KMSN MSN20051023231509310/23/05 23:15:31  5-MIN KMSN 240515Z 35009KT 10SM CLR 03/02 A3009 710 89 -400 350/09 RMK AO2
14837KMSN MSN20051023232009310/23/05 23:20:31  5-MIN KMSN 240520Z 35010KT 10SM CLR 03/02 A3009 710 89 -400 350/10 RMK AO2
14837KMSN MSN20051023232509310/23/05 23:25:31  5-MIN KMSN 240525Z 36009KT 10SM CLR 03/02 A3009 710 89 -400 350/09 RMK AO2
14837KMSN MSN20051023233009310/23/05 23:30:31  5-MIN KMSN 240530Z 36010KT 10SM CLR 03/02 A3009 710 89 -400 360/10 RMK AO2
14837KMSN MSN20051023233509310/23/05 23:35:31  5-MIN KMSN 240535Z 36010KT 10SM CLR 03/01 A3009 710 85 -400 350/10 RMK AO2
14837KMSN MSN20051023234009310/23/05 23:40:31  5-MIN KMSN 240540Z 36010KT 10SM CLR 03/01 A3009 710 85 -400 360/10 RMK AO2
14837KMSN MSN20051023234509310/23/05 23:45:31  5-MIN KMSN 240545Z 36009KT 10SM CLR 03/01 A3009 700 89 -500 360/09 RMK AO2
14837KMSN MSN20051023235014410/23/05 23:50:31  5-MIN KMSN 240550Z 35008KT 10SM CLR 03/01 A3009 700 89 -500 350/08 RMK AO2 SLP196 60001 T00280011 10072 20028 400830011 51012
14837KMSN MSN20051023235509310/23/05 23:55:31  5-MIN KMSN 240555Z 35008KT 10SM CLR 03/01 A3010 700 89 -500 350/08 RMK AO2
14837KMSN MSN20051024000009310/24/05 00:00:38  5-MIN KMSN 240600Z 35008KT 10SM CLR 03/01 A3009 700 89 -500 350/08 RMK AO2
14837KMSN MSN20051024000509310/24/05 00:05:31  5-MIN KMSN 240605Z 35009KT 10SM CLR 03/01 A3010 700 89 -500 350/09 RMK AO2
14837KMSN MSN20051024001009310/24/05 00:10:31  5-MIN KMSN 240610Z 35009KT 10SM CLR 03/01 A3010 700 85 -500 350/09 RMK AO2
14837KMSN MSN20051024001509310/24/05 00:15:34  5-MIN KMSN 240615Z 35008KT 10SM CLR 03/01 A3010 700 85 -500 350/08 RMK AO2
14837KMSN MSN20051024002009610/24/05 00:20:31  5-MIN KMSN 240620Z 35008KT 10SM SCT026 03/01 A3010 700 85 -500 350/08 RMK AO2
14837KMSN MSN20051024002509610/24/05 00:25:31  5-MIN KMSN 240625Z 35008KT 10SM BKN026 03/01 A3010 700 85 -500 350/08 RMK AO2
14837KMSN MSN20051024003009610/24/05 00:30:31  5-MIN KMSN 240630Z 35006KT 10SM BKN026 03/01 A3010 700 85 -500 350/06 RMK AO2
14837KMSN MSN20051024003509610/24/05 00:35:31  5-MIN KMSN 240635Z 35006KT 10SM BKN026 03/01 A3010 700 85 -500 350/06 RMK AO2
14837KMSN MSN20051024004009610/24/05 00:40:31  5-MIN KMSN 240640Z 34006KT 10SM OVC026 03/01 A3010 700 85 -500 340/06 RMK AO2
14837KMSN MSN20051024004509610/24/05 00:45:31  5-MIN KMSN 240645Z 34006KT 10SM OVC026 03/01 A3010 700 85 -500 330/06 RMK AO2
14837KMSN MSN20051024005011310/24/05 00:50:31  5-MIN KMSN 240650Z 33007KT 10SM OVC026 03/01 A3010 700 85 -500 330/07 RMK AO2 SLP198 T00330011
14837KMSN MSN20051024005509610/24/05 00:55:31  5-MIN KMSN 240655Z 33008KT 10SM OVC028 03/02 A3010 700 89 -500 330/08 RMK AO2
14837KMSN MSN20051024010009610/24/05 01:00:31  5-MIN KMSN 240700Z 34009KT 10SM OVC028 03/02 A3010 700 89 -500 340/09 RMK AO2
14837KMSN MSN20051024010509610/24/05 01:05:31  5-MIN KMSN 240705Z 34008KT 10SM OVC028 03/02 A3010 700 89 -500 340/08 RMK AO2
14837KMSN MSN20051024011009610/24/05 01:10:31  5-MIN KMSN 240710Z 34009KT 10SM OVC028 04/01 A3010 700 82 -400 340/09 RMK AO2
14837KMSN MSN20051024011509610/24/05 01:15:31  5-MIN KMSN 240715Z 34010KT 10SM OVC028 03/01 A3010 700 85 -500 340/10 RMK AO2
14837KMSN MSN20051024012009610/24/05 01:20:31  5-MIN KMSN 240720Z 34009KT 10SM OVC028 03/01 A3010 700 85 -500 340/09 RMK AO2
14837KMSN MSN20051024012509610/24/05 01:25:31  5-MIN KMSN 240725Z 34009KT 10SM OVC028 03/01 A3010 700 85 -500 340/09 RMK AO2
14837KMSN MSN20051024013009610/24/05 01:30:31  5-MIN KMSN 240730Z 34009KT 10SM OVC028 03/01 A3010 700 85 -500 340/09 RMK AO2
14837KMSN MSN20051024013509610/24/05 01:35:31  5-MIN KMSN 240735Z 34009KT 10SM BKN028 03/01 A3010 700 85 -500 340/09 RMK AO2
14837KMSN MSN20051024014009610/24/05 01:40:31  5-MIN KMSN 240740Z 34009KT 10SM BKN028 03/01 A3010 700 85 -500 340/09 RMK AO2
14837KMSN MSN20051024014509610/24/05 01:45:31  5-MIN KMSN 240745Z 34008KT 10SM BKN026 03/01 A3010 700 82 -500 340/08 RMK AO2
14837KMSN MSN20051024015009610/24/05 01:50:31  5-MIN KMSN 240750Z 34008KT 10SM SCT026 03/01 A3010 700 85 -500 340/08 RMK AO2
14837KMSN MSN20051024015509610/24/05 01:55:31  5-MIN KMSN 240755Z 34006KT 10SM SCT026 03/01 A3010 700 85 -500 340/06 RMK AO2
14837KMSN MSN20051024020009610/24/05 02:00:31  5-MIN KMSN 240800Z 34007KT 10SM SCT026 03/01 A3010 700 85 -500 340/07 RMK AO2
14837KMSN MSN20051024020509610/24/05 02:05:31  5-MIN KMSN 240805Z 34007KT 10SM SCT026 03/01 A3010 700 85 -500 340/07 RMK AO2
14837KMSN MSN20051024021009610/24/05 02:10:31  5-MIN KMSN 240810Z 34008KT 10SM SCT026 03/01 A3010 700 85 -500 340/08 RMK AO2
14837KMSN MSN20051024021509610/24/05 02:15:31  5-MIN KMSN 240815Z 33006KT 10SM SCT026 03/01 A3010 700 85 -500 330/06 RMK AO2
14837KMSN MSN20051024022009610/24/05 02:20:31  5-MIN KMSN 240820Z 33008KT 10SM SCT024 03/01 A3010 700 85 -500 330/08 RMK AO2
14837KMSN MSN20051024022509610/24/05 02:25:31  5-MIN KMSN 240825Z 34007KT 10SM SCT024 03/01 A3010 700 85 -500 340/07 RMK AO2
14837KMSN MSN20051024023009610/24/05 02:30:31  5-MIN KMSN 240830Z 34007KT 10SM FEW024 03/01 A3010 700 85 -500 340/07 RMK AO2
14837KMSN MSN20051024023509610/24/05 02:35:31  5-MIN KMSN 240835Z 34007KT 10SM FEW024 02/00 A3010 700 85 -600 340/07 RMK AO2
14837KMSN MSN20051024024009310/24/05 02:40:31  5-MIN KMSN 240840Z 34006KT 10SM CLR 02/00 A3010 700 85 -600 340/06 RMK AO2
14837KMSN MSN20051024024509310/24/05 02:45:31  5-MIN KMSN 240845Z 34007KT 10SM CLR 02/00 A3010 700 85 -600 340/07 RMK AO2
14837KMSN MSN20051024025011610/24/05 02:50:31  5-MIN KMSN 240850Z 34008KT 10SM CLR 02/00 A3010 700 85 -600 340/08 RMK AO2 SLP200 T00220000 53005
14837KMSN MSN20051024025509310/24/05 02:55:31  5-MIN KMSN 240855Z 34008KT 10SM CLR 02/00 A3010 700 85 -600 340/08 RMK AO2
14837KMSN MSN20051024030009310/24/05 03:00:31  5-MIN KMSN 240900Z 34007KT 10SM CLR 02/00 A3010 700 85 -600 340/07 RMK AO2
14837KMSN MSN20051024030509310/24/05 03:05:31  5-MIN KMSN 240905Z 34008KT 10SM CLR 02/00 A3010 700 85 -600 340/08 RMK AO2
14837KMSN MSN20051024031009310/24/05 03:10:31  5-MIN KMSN 240910Z 33008KT 10SM CLR 02/00 A3011 690 85 -600 330/08 RMK AO2
14837KMSN MSN20051024031509610/24/05 03:15:31  5-MIN KMSN 240915Z 33006KT 10SM FEW022 02/00 A3011 690 85 -600 330/06 RMK AO2
14837KMSN MSN20051024032009610/24/05 03:20:31  5-MIN KMSN 240920Z 33006KT 10SM FEW022 02/00 A3011 690 85 -600 330/06 RMK AO2
14837KMSN MSN20051024032509610/24/05 03:25:31  5-MIN KMSN 240925Z 34007KT 10SM FEW022 02/00 A3011 690 85 -600 340/07 RMK AO2
14837KMSN MSN20051024033009610/24/05 03:30:31  5-MIN KMSN 240930Z 34007KT 10SM FEW022 02/00 A3011 690 85 -600 340/07 RMK AO2
14837KMSN MSN20051024033510310/24/05 03:35:31  5-MIN KMSN 240935Z 34007KT 10SM FEW022 SCT035 02/00 A3011 690 85 -600 340/07 RMK AO2
14837KMSN MSN20051024034010310/24/05 03:40:31  5-MIN KMSN 240940Z 33005KT 10SM FEW022 BKN037 02/00 A3011 690 85 -600 330/05 RMK AO2
14837KMSN MSN20051024034509610/24/05 03:45:31  5-MIN KMSN 240945Z 33007KT 10SM BKN037 02/01 A3011 690 89 -600 330/07 RMK AO2
14837KMSN MSN20051024035011310/24/05 03:50:31  5-MIN KMSN 240950Z 34007KT 10SM BKN037 02/01 A3011 690 89 -600 330/07 RMK AO2 SLP202 T00220006
14837KMSN MSN20051024035509610/24/05 03:55:31  5-MIN KMSN 240955Z 34007KT 10SM BKN037 02/00 A3011 690 85 -600 340/07 RMK AO2
14837KMSN MSN20051024040009610/24/05 04:00:31  5-MIN KMSN 241000Z 34008KT 10SM OVC037 02/01 A3011 690 89 -600 340/08 RMK AO2
14837KMSN MSN20051024040509610/24/05 04:05:31  5-MIN KMSN 241005Z 34008KT 10SM OVC037 03/01 A3011 690 85 -500 340/08 RMK AO2
14837KMSN MSN20051024041009610/24/05 04:10:31  5-MIN KMSN 241010Z 34009KT 10SM OVC035 03/01 A3011 690 85 -500 340/09 RMK AO2
14837KMSN MSN20051024041509610/24/05 04:15:31  5-MIN KMSN 241015Z 33010KT 10SM OVC035 03/01 A3011 690 85 -500 330/10 RMK AO2
14837KMSN MSN20051024042009610/24/05 04:20:31  5-MIN KMSN 241020Z 34007KT 10SM OVC035 03/01 A3011 690 85 -500 330/07 RMK AO2
14837KMSN MSN20051024042509610/24/05 04:25:31  5-MIN KMSN 241025Z 33007KT 10SM OVC033 03/01 A3011 690 85 -500 330/07 RMK AO2
14837KMSN MSN20051024043009610/24/05 04:30:31  5-MIN KMSN 241030Z 34009KT 10SM OVC033 03/01 A3011 690 85 -500 330/09 RMK AO2
14837KMSN MSN20051024043509610/24/05 04:35:31  5-MIN KMSN 241035Z 34009KT 10SM OVC033 03/01 A3011 690 82 -500 340/09 RMK AO2
14837KMSN MSN20051024044009610/24/05 04:40:31  5-MIN KMSN 241040Z 33007KT 10SM OVC033 03/01 A3011 690 82 -500 330/07 RMK AO2
14837KMSN MSN20051024044509610/24/05 04:45:31  5-MIN KMSN 241045Z 34008KT 10SM OVC033 03/01 A3011 690 85 -500 340/08 RMK AO2
14837KMSN MSN20051024045011310/24/05 04:50:31  5-MIN KMSN 241050Z 34008KT 10SM OVC033 03/01 A3011 690 85 -500 340/08 RMK AO2 SLP203 T00330011
14837KMSN MSN20051024045509610/24/05 04:55:31  5-MIN KMSN 241055Z 34009KT 10SM OVC033 03/01 A3012 680 85 -500 340/09 RMK AO2
14837KMSN MSN20051024050009610/24/05 05:00:31  5-MIN KMSN 241100Z 33009KT 10SM OVC033 03/01 A3012 680 85 -500 330/09 RMK AO2
14837KMSN MSN20051024050509610/24/05 05:05:31  5-MIN KMSN 241105Z 34009KT 10SM OVC033 03/01 A3012 680 85 -500 340/09 RMK AO2
14837KMSN MSN20051024051009610/24/05 05:10:31  5-MIN KMSN 241110Z 34009KT 10SM OVC033 03/01 A3012 680 85 -500 340/09 RMK AO2
14837KMSN MSN20051024051509610/24/05 05:15:31  5-MIN KMSN 241115Z 34006KT 10SM OVC033 03/01 A3012 680 85 -500 330/06 RMK AO2
14837KMSN MSN20051024052009610/24/05 05:20:31  5-MIN KMSN 241120Z 34009KT 10SM OVC033 03/01 A3012 680 85 -500 330/09 RMK AO2
14837KMSN MSN20051024052509610/24/05 05:25:31  5-MIN KMSN 241125Z 34009KT 10SM OVC033 03/01 A3012 680 85 -500 340/09 RMK AO2
14837KMSN MSN20051024053009610/24/05 05:30:31  5-MIN KMSN 241130Z 34008KT 10SM OVC033 03/01 A3012 680 85 -500 330/08 RMK AO2
14837KMSN MSN20051024053509610/24/05 05:35:31  5-MIN KMSN 241135Z 34008KT 10SM OVC033 03/01 A3012 680 85 -500 340/08 RMK AO2
14837KMSN MSN20051024054009610/24/05 05:40:31  5-MIN KMSN 241140Z 34009KT 10SM OVC033 03/01 A3012 680 85 -500 340/09 RMK AO2
14837KMSN MSN20051024054509610/24/05 05:45:31  5-MIN KMSN 241145Z 34008KT 10SM OVC033 03/01 A3012 680 85 -500 340/08 RMK AO2
14837KMSN MSN20051024055013710/24/05 05:50:31  5-MIN KMSN 241150Z 34007KT 10SM OVC031 03/01 A3013 680 85 -500 340/07 RMK AO2 SLP207 70010 T00330011 10039 20022 51003
14837KMSN MSN20051024055509610/24/05 05:55:31  5-MIN KMSN 241155Z 34008KT 10SM OVC031 03/01 A3013 670 85 -500 340/08 RMK AO2
14837KMSN MSN20051024060009610/24/05 06:00:31  5-MIN KMSN 241200Z 34008KT 10SM OVC031 03/01 A3013 670 85 -500 340/08 RMK AO2
14837KMSN MSN20051024060509610/24/05 06:05:31  5-MIN KMSN 241205Z 34009KT 10SM OVC033 03/01 A3013 670 85 -500 340/09 RMK AO2
14837KMSN MSN20051024061009610/24/05 06:10:31  5-MIN KMSN 241210Z 34006KT 10SM BKN033 03/01 A3013 670 82 -500 340/06 RMK AO2
14837KMSN MSN20051024061509610/24/05 06:15:31  5-MIN KMSN 241215Z 33008KT 10SM BKN033 03/01 A3013 670 85 -600 330/08 RMK AO2
14837KMSN MSN20051024062009610/24/05 06:20:31  5-MIN KMSN 241220Z 34008KT 10SM BKN035 03/01 A3013 670 85 -600 340/08 RMK AO2
14837KMSN MSN20051024062509610/24/05 06:25:31  5-MIN KMSN 241225Z 34008KT 10SM BKN037 03/01 A3013 670 85 -600 330/08 RMK AO2
14837KMSN MSN20051024063009610/24/05 06:30:31  5-MIN KMSN 241230Z 34008KT 10SM BKN037 03/01 A3013 670 85 -600 340/08 RMK AO2
14837KMSN MSN20051024063509610/24/05 06:35:31  5-MIN KMSN 241235Z 34008KT 10SM BKN037 03/01 A3013 670 85 -600 330/08 RMK AO2
14837KMSN MSN20051024064009610/24/05 06:40:31  5-MIN KMSN 241240Z 34009KT 10SM BKN037 03/01 A3013 670 85 -600 340/09 RMK AO2
14837KMSN MSN20051024064509610/24/05 06:45:31  5-MIN KMSN 241245Z 34009KT 10SM BKN037 03/01 A3013 670 85 -600 340/09 RMK AO2
14837KMSN MSN20051024065011310/24/05 06:50:31  5-MIN KMSN 241250Z 34009KT 10SM OVC037 03/01 A3014 670 82 -500 340/09 RMK AO2 SLP212 T00330006
14837KMSN MSN20051024065509610/24/05 06:55:31  5-MIN KMSN 241255Z 34008KT 10SM OVC037 03/01 A3014 660 85 -500 340/08 RMK AO2
14837KMSN MSN20051024070009610/24/05 07:00:31  5-MIN KMSN 241300Z 34009KT 10SM OVC037 03/01 A3014 660 85 -500 340/09 RMK AO2
14837KMSN MSN20051024070509610/24/05 07:05:31  5-MIN KMSN 241305Z 35008KT 10SM BKN037 03/01 A3014 660 85 -500 350/08 RMK AO2
14837KMSN MSN20051024071009610/24/05 07:10:31  5-MIN KMSN 241310Z 34008KT 10SM BKN037 03/01 A3014 660 85 -500 340/08 RMK AO2
14837KMSN MSN20051024071509610/24/05 07:15:31  5-MIN KMSN 241315Z 35009KT 10SM BKN037 03/01 A3015 660 85 -500 340/09 RMK AO2
14837KMSN MSN20051024072009610/24/05 07:20:31  5-MIN KMSN 241320Z 35010KT 10SM BKN037 04/01 A3015 650 82 -400 350/10 RMK AO2
14837KMSN MSN20051024072509610/24/05 07:25:31  5-MIN KMSN 241325Z 34008KT 10SM BKN037 04/01 A3015 660 82 -400 340/08 RMK AO2
14837KMSN MSN20051024073009610/24/05 07:30:31  5-MIN KMSN 241330Z 34009KT 10SM BKN037 04/01 A3015 660 82 -400 340/09 RMK AO2
14837KMSN MSN20051024073509610/24/05 07:35:31  5-MIN KMSN 241335Z 34010KT 10SM BKN037 04/01 A3015 660 82 -400 340/10 RMK AO2
14837KMSN MSN20051024074009610/24/05 07:40:31  5-MIN KMSN 241340Z 34010KT 10SM BKN037 04/02 A3015 650 82 -400 340/10 RMK AO2
14837KMSN MSN20051024074509610/24/05 07:45:31  5-MIN KMSN 241345Z 35011KT 10SM BKN037 04/02 A3015 650 82 -400 340/11 RMK AO2
14837KMSN MSN20051024075011310/24/05 07:50:31  5-MIN KMSN 241350Z 34010KT 10SM BKN037 04/02 A3015 650 82 -400 340/10 RMK AO2 SLP215 T00440017
14837KMSN MSN20051024075510310/24/05 07:55:31  5-MIN KMSN 241355Z 35010KT 10SM FEW015 BKN037 04/02 A3015 650 82 -400 340/10 RMK AO2
14837KMSN MSN20051024080010310/24/05 08:00:31  5-MIN KMSN 241400Z 35012KT 10SM FEW015 BKN037 04/02 A3015 650 82 -400 350/12 RMK AO2
14837KMSN MSN20051024080510310/24/05 08:05:31  5-MIN KMSN 241405Z 35012KT 10SM FEW015 BKN037 04/02 A3015 650 82 -400 340/12 RMK AO2
14837KMSN MSN20051024081010310/24/05 08:10:31  5-MIN KMSN 241410Z 34010KT 10SM FEW015 BKN037 05/02 A3015 650 79 -300 340/10 RMK AO2
14837KMSN MSN20051024081510310/24/05 08:15:31  5-MIN KMSN 241415Z 34011KT 10SM FEW015 BKN037 05/02 A3015 650 79 -300 340/11 RMK AO2
14837KMSN MSN20051024082010310/24/05 08:20:31  5-MIN KMSN 241420Z 34013KT 10SM FEW015 BKN037 05/02 A3015 650 79 -300 340/13 RMK AO2
14837KMSN MSN20051024082510310/24/05 08:25:31  5-MIN KMSN 241425Z 34013KT 10SM FEW015 BKN037 05/02 A3016 650 79 -300 340/13 RMK AO2
14837KMSN MSN20051024083010310/24/05 08:30:31  5-MIN KMSN 241430Z 35012KT 10SM FEW015 BKN037 05/02 A3016 650 79 -300 350/12 RMK AO2
14837KMSN MSN20051024083510310/24/05 08:35:31  5-MIN KMSN 241435Z 34010KT 10SM FEW015 BKN037 05/02 A3016 650 79 -300 340/10 RMK AO2
14837KMSN MSN20051024084010310/24/05 08:40:31  5-MIN KMSN 241440Z 34012KT 10SM FEW015 BKN037 05/02 A3015 650 79 -300 340/12 RMK AO2
14837KMSN MSN20051024084510310/24/05 08:45:31  5-MIN KMSN 241445Z 34011KT 10SM FEW015 BKN037 05/02 A3015 650 79 -300 340/11 RMK AO2
14837KMSN MSN20051024085012610/24/05 08:50:31  5-MIN KMSN 241450Z 34011KT 10SM FEW015 BKN037 05/02 A3015 650 79 -300 340/11 RMK AO2 SLP217 T00500017 53008
14837KMSN MSN20051024085510310/24/05 08:55:31  5-MIN KMSN 241455Z 35009KT 10SM FEW016 BKN039 06/02 A3015 650 76 -200 350/09 RMK AO2
14837KMSN MSN20051024090010310/24/05 09:00:31  5-MIN KMSN 241500Z 35012KT 10SM FEW016 BKN039 06/02 A3015 650 76 -200 350/12 RMK AO2
14837KMSN MSN20051024090510310/24/05 09:05:31  5-MIN KMSN 241505Z 35010KT 10SM FEW016 BKN039 06/02 A3015 650 76 -200 350/10 RMK AO2
14837KMSN MSN20051024091010310/24/05 09:10:31  5-MIN KMSN 241510Z 34009KT 10SM FEW016 BKN039 06/02 A3015 650 76 -200 340/09 RMK AO2
14837KMSN MSN20051024091510310/24/05 09:15:31  5-MIN KMSN 241515Z 35010KT 10SM FEW016 BKN039 06/02 A3015 650 76 -200 350/10 RMK AO2
14837KMSN MSN20051024092010910/24/05 09:20:31  5-MIN KMSN 241520Z 35010G16KT 10SM FEW016 BKN039 06/02 A3015 650 73 -200 350/10G16 RMK AO2
14837KMSN MSN20051024092510910/24/05 09:25:31  5-MIN KMSN 241525Z 35011G16KT 10SM FEW016 BKN039 06/02 A3015 650 73 -200 350/11G16 RMK AO2
14837KMSN MSN20051024093010910/24/05 09:30:31  5-MIN KMSN 241530Z 35013G16KT 10SM FEW016 BKN039 06/02 A3015 650 73 -200 350/13G16 RMK AO2
14837KMSN MSN20051024093510310/24/05 09:35:31  5-MIN KMSN 241535Z 35012KT 10SM FEW016 BKN039 06/02 A3015 650 76 -200 350/12 RMK AO2
14837KMSN MSN20051024094010310/24/05 09:40:31  5-MIN KMSN 241540Z 35010KT 10SM FEW016 BKN039 06/02 A3015 650 76 -200 350/10 RMK AO2
14837KMSN MSN20051024094510910/24/05 09:45:31  5-MIN KMSN 241545Z 34012G19KT 10SM FEW016 BKN043 07/02 A3015 650 73 -100 340/12G19 RMK AO2
14837KMSN MSN20051024095012610/24/05 09:50:31  5-MIN KMSN 241550Z 35010G19KT 10SM FEW016 BKN043 07/02 A3015 650 73 -100 350/10G19 RMK AO2 SLP217 T00670022
14837KMSN MSN20051024095510910/24/05 09:55:31  5-MIN KMSN 241555Z 34013G18KT 10SM SCT020 BKN043 07/02 A3015 650 73 -100 340/13G18 RMK AO2
14837KMSN MSN20051024100010910/24/05 10:00:31  5-MIN KMSN 241600Z 36014G18KT 10SM SCT020 BKN043 07/02 A3015 650 73 -100 360/14G18 RMK AO2
14837KMSN MSN20051024100510310/24/05 10:05:31  5-MIN KMSN 241605Z 34011KT 10SM SCT020 BKN043 07/02 A3015 650 73 -100 340/11 RMK AO2
14837KMSN MSN20051024101010010/24/05 10:10:31  5-MIN KMSN 241610Z 35014KT 10SM SCT025 BKN041 07/02 A3015 650 68 0 350/14 RMK AO2
14837KMSN MSN20051024101510010/24/05 10:15:31  5-MIN KMSN 241615Z 34012KT 10SM SCT025 BKN041 08/02 A3015 650 68 0 340/12 RMK AO2
14837KMSN MSN20051024102010610/24/05 10:20:31  5-MIN KMSN 241620Z 34013G18KT 10SM BKN025 BKN041 08/02 A3015 650 68 0 340/13G18 RMK AO2
14837KMSN MSN20051024102510610/24/05 10:25:31  5-MIN KMSN 241625Z 35011G18KT 10SM BKN025 BKN041 07/02 A3015 650 70 0 350/11G18 RMK AO2
14837KMSN MSN20051024103010010/24/05 10:30:31  5-MIN KMSN 241630Z 01013KT 10SM BKN025 BKN041 07/02 A3015 650 70 0 360/13 RMK AO2
14837KMSN MSN20051024103510010/24/05 10:35:31  5-MIN KMSN 241635Z 34011KT 10SM BKN025 BKN041 07/02 A3015 650 70 0 340/11 RMK AO2
14837KMSN MSN20051024104010010/24/05 10:40:31  5-MIN KMSN 241640Z 35013KT 10SM BKN025 BKN041 07/02 A3015 650 68 0 350/13 RMK AO2
14837KMSN MSN20051024104510010/24/05 10:45:31  5-MIN KMSN 241645Z 01011KT 10SM BKN025 BKN041 07/02 A3015 650 68 0 010/11 RMK AO2
14837KMSN MSN20051024105012010/24/05 10:50:31  5-MIN KMSN 241650Z 36012KT 10SM BKN028 OVC036 07/01 A3015 650 67 -100 360/12 RMK AO2 SLP218 T00670011
14837KMSN MSN20051024105509610/24/05 10:55:31  5-MIN KMSN 241655Z 35012KT 10SM OVC030 07/01 A3015 650 67 -100 350/12 RMK AO2
14837KMSN MSN20051024110010310/24/05 11:00:31  5-MIN KMSN 241700Z 35011KT 10SM BKN028 OVC034 07/02 A3015 650 70 -100 350/11 RMK AO2
14837KMSN MSN20051024110510010/24/05 11:05:31  5-MIN KMSN 241705Z 35011KT 10SM BKN029 OVC034 07/02 A3015 650 68 0 350/11 RMK AO2
14837KMSN MSN20051024111009910/24/05 11:10:31  5-MIN KMSN 241710Z 36013G18KT 10SM OVC031 07/01 A3015 650 65 0 360/13G18 RMK AO2
14837KMSN MSN20051024111510010/24/05 11:15:31  5-MIN KMSN 241715Z 36014KT 10SM SCT028 OVC033 07/02 A3015 650 68 0 360/14 RMK AO2
14837KMSN MSN20051024112010010/24/05 11:20:31  5-MIN KMSN 241720Z 34010KT 10SM FEW028 OVC033 07/02 A3015 650 68 0 340/10 RMK AO2
14837KMSN MSN20051024112510010/24/05 11:25:31  5-MIN KMSN 241725Z 35011KT 10SM FEW026 OVC033 07/02 A3015 660 68 0 350/11 RMK AO2
14837KMSN MSN20051024113009310/24/05 11:30:31  5-MIN KMSN 241730Z 36009KT 10SM OVC033 08/01 A3014 660 62 0 350/09 RMK AO2
14837KMSN MSN20051024113509310/24/05 11:35:31  5-MIN KMSN 241735Z 35012KT 10SM OVC033 08/01 A3014 660 62 0 350/12 RMK AO2
14837KMSN MSN20051024114009910/24/05 11:40:31  5-MIN KMSN 241740Z 01014G19KT 10SM OVC033 08/01 A3014 660 60 0 010/14G19 RMK AO2
14837KMSN MSN20051024114509310/24/05 11:45:31  5-MIN KMSN 241745Z 02014KT 10SM OVC033 08/01 A3014 660 62 0 010/14 RMK AO2
14837KMSN MSN20051024115012810/24/05 11:50:31  5-MIN KMSN 241750Z 36011KT 10SM OVC033 08/01 A3014 660 62 0 360/11 RMK AO2 SLP213 T00780011 10078 20028 51009
14837KMSN MSN20051024115509310/24/05 11:55:31  5-MIN KMSN 241755Z 35011KT 10SM OVC033 07/02 A3014 660 68 0 350/11 RMK AO2
14837KMSN MSN20051024120009310/24/05 12:00:31  5-MIN KMSN 241800Z 36011KT 10SM OVC033 08/02 A3014 660 65 0 360/11 RMK AO2
14837KMSN MSN20051024120509310/24/05 12:05:31  5-MIN KMSN 241805Z 01011KT 10SM OVC033 07/02 A3014 660 68 0 010/11 RMK AO2
14837KMSN MSN20051024121009310/24/05 12:10:31  5-MIN KMSN 241810Z 01012KT 10SM OVC035 08/02 A3014 670 68 0 010/12 RMK AO2
14837KMSN MSN20051024121509310/24/05 12:15:31  5-MIN KMSN 241815Z 02012KT 10SM OVC035 08/02 A3013 670 65 0 010/12 RMK AO2
14837KMSN MSN20051024122010110/24/05 12:20:31  5-MIN KMSN 241820Z 36012G18KT 10SM OVC037 08/02 A3013 670 63 100 360/12G18 RMK AO2
14837KMSN MSN20051024122510110/24/05 12:25:31  5-MIN KMSN 241825Z 01011G18KT 10SM OVC037 08/02 A3013 670 63 100 010/11G18 RMK AO2
14837KMSN MSN20051024123009310/24/05 12:30:31  5-MIN KMSN 241830Z 01011KT 10SM OVC037 08/01 A3013 670 62 0 360/11 RMK AO2
14837KMSN MSN20051024123509310/24/05 12:35:31  5-MIN KMSN 241835Z 01010KT 10SM OVC037 08/02 A3013 670 65 0 360/10 RMK AO2
14837KMSN MSN20051024124009310/24/05 12:40:31  5-MIN KMSN 241840Z 01014KT 10SM OVC037 08/02 A3013 670 65 0 010/14 RMK AO2
14837KMSN MSN20051024124509310/24/05 12:45:31  5-MIN KMSN 241845Z 36012KT 10SM OVC037 08/02 A3013 670 65 0 360/12 RMK AO2
14837KMSN MSN20051024125011010/24/05 12:50:31  5-MIN KMSN 241850Z 01012KT 10SM OVC037 08/02 A3013 670 65 0 010/12 RMK AO2 SLP208 T00780017
14837KMSN MSN20051024125510010/24/05 12:55:31  5-MIN KMSN 241855Z 36009KT 10SM BKN034 OVC041 08/02 A3013 670 65 0 360/09 RMK AO2
14837KMSN MSN20051024130010210/24/05 13:00:31  5-MIN KMSN 241900Z 36012KT 10SM BKN034 OVC043 08/02 A3013 670 63 100 360/12 RMK AO2
14837KMSN MSN20051024130510810/24/05 13:05:31  5-MIN KMSN 241905Z 01013G19KT 10SM BKN036 OVC043 08/02 A3013 670 63 100 010/13G19 RMK AO2
14837KMSN MSN20051024131010810/24/05 13:10:31  5-MIN KMSN 241910Z 36012G19KT 10SM FEW030 OVC041 08/02 A3013 670 63 100 360/12G19 RMK AO2
14837KMSN MSN20051024131510010/24/05 13:15:31  5-MIN KMSN 241915Z 36014KT 10SM FEW030 OVC039 08/01 A3013 670 62 0 360/14 RMK AO2
14837KMSN MSN20051024132010010/24/05 13:20:31  5-MIN KMSN 241920Z 35011KT 10SM FEW031 OVC041 08/02 A3013 670 65 0 350/11 RMK AO2
14837KMSN MSN20051024132510010/24/05 13:25:31  5-MIN KMSN 241925Z 33012KT 10SM FEW031 OVC041 08/02 A3013 670 65 0 330/12 RMK AO2
14837KMSN MSN20051024133009310/24/05 13:30:31  5-MIN KMSN 241930Z 34009KT 10SM OVC041 08/02 A3013 670 65 0 340/09 RMK AO2
14837KMSN MSN20051024133509310/24/05 13:35:31  5-MIN KMSN 241935Z 34010KT 10SM OVC039 08/02 A3013 670 68 0 340/10 RMK AO2
14837KMSN MSN20051024134009310/24/05 13:40:31  5-MIN KMSN 241940Z 34010KT 10SM OVC041 08/02 A3013 670 68 0 340/10 RMK AO2
14837KMSN MSN20051024134509510/24/05 13:45:31  5-MIN KMSN 241945Z 35009KT 10SM OVC043 08/02 A3013 670 63 100 350/09 RMK AO2
14837KMSN MSN20051024135011910/24/05 13:50:31  5-MIN KMSN 241950Z 34009KT 10SM FEW036 BKN043 08/02 A3013 670 65 100 340/09 RMK AO2 SLP209 T00830022
14837KMSN MSN20051024135509510/24/05 13:55:31  5-MIN KMSN 241955Z 35012KT 10SM OVC045 08/02 A3013 670 65 100 340/12 RMK AO2
14837KMSN MSN20051024140010210/24/05 14:00:31  5-MIN KMSN 242000Z 34011KT 10SM FEW033 OVC047 08/02 A3013 670 63 100 340/11 RMK AO2
14837KMSN MSN20051024140510210/24/05 14:05:31  5-MIN KMSN 242005Z 36013KT 10SM FEW031 OVC047 08/02 A3013 670 63 100 360/13 RMK AO2
14837KMSN MSN20051024141010710/24/05 14:10:31  5-MIN KMSN 242010Z 33010KT 10SM FEW029 BKN043 OVC050 08/02 A3013 670 65 0 330/10 RMK AO2
14837KMSN MSN20051024141510010/24/05 14:15:31  5-MIN KMSN 242015Z 34008KT 10SM FEW031 BKN045 08/02 A3013 670 65 0 330/08 RMK AO2
14837KMSN MSN20051024142010010/24/05 14:20:31  5-MIN KMSN 242020Z 34009KT 10SM FEW031 BKN045 08/02 A3013 670 65 0 340/09 RMK AO2
14837KMSN MSN20051024142510010/24/05 14:25:31  5-MIN KMSN 242025Z 35008KT 10SM FEW031 BKN045 08/02 A3013 670 65 0 350/08 RMK AO2
14837KMSN MSN20051024143010010/24/05 14:30:31  5-MIN KMSN 242030Z 34009KT 10SM FEW031 BKN045 08/02 A3013 670 65 0 340/09 RMK AO2
14837KMSN MSN20051024143510210/24/05 14:35:31  5-MIN KMSN 242035Z 33008KT 10SM FEW031 BKN045 08/02 A3013 670 63 100 330/08 RMK AO2
14837KMSN MSN20051024144010210/24/05 14:40:31  5-MIN KMSN 242040Z 34010KT 10SM FEW031 BKN045 09/02 A3013 680 60 100 340/10 RMK AO2
14837KMSN MSN20051024144510210/24/05 14:45:31  5-MIN KMSN 242045Z 35009KT 10SM FEW031 BKN045 08/02 A3013 670 63 100 350/09 RMK AO2
14837KMSN MSN20051024145012510/24/05 14:50:31  5-MIN KMSN 242050Z 35010KT 10SM FEW033 BKN049 08/02 A3013 670 65 100 350/10 RMK AO2 SLP207 T00830022 58004
14837KMSN MSN20051024145510210/24/05 14:55:31  5-MIN KMSN 242055Z 35010KT 10SM FEW033 OVC049 08/02 A3013 670 63 100 340/10 RMK AO2
14837KMSN MSN20051024150010210/24/05 15:00:31  5-MIN KMSN 242100Z 34009KT 10SM FEW033 OVC049 08/02 A3013 680 63 100 340/09 RMK AO2
14837KMSN MSN20051024150510210/24/05 15:05:31  5-MIN KMSN 242105Z 32010KT 10SM FEW033 OVC049 08/02 A3013 680 63 100 320/10 RMK AO2
14837KMSN MSN20051024151010210/24/05 15:10:31  5-MIN KMSN 242110Z 35010KT 10SM FEW035 OVC049 08/02 A3013 680 63 100 350/10 RMK AO2
14837KMSN MSN20051024151510210/24/05 15:15:31  5-MIN KMSN 242115Z 34009KT 10SM FEW033 OVC049 08/02 A3012 680 63 100 340/09 RMK AO2
14837KMSN MSN20051024152010210/24/05 15:20:31  5-MIN KMSN 242120Z 35008KT 10SM FEW033 OVC049 08/02 A3012 680 65 100 350/08 RMK AO2
14837KMSN MSN20051024152510210/24/05 15:25:31  5-MIN KMSN 242125Z 35012KT 10SM FEW030 OVC049 08/02 A3012 680 65 100 350/12 RMK AO2
14837KMSN MSN20051024153010810/24/05 15:30:31  5-MIN KMSN 242130Z 34013G18KT 10SM SCT033 OVC049 08/02 A3013 670 63 100 340/13G18 RMK AO2
14837KMSN MSN20051024153510610/24/05 15:35:31  5-MIN KMSN 242135Z 34013G18KT 10SM SCT033 OVC049 08/02 A3013 670 65 0 340/13G18 RMK AO2
14837KMSN MSN20051024154010610/24/05 15:40:31  5-MIN KMSN 242140Z 34011G18KT 10SM FEW033 OVC049 08/02 A3013 670 65 0 340/11G18 RMK AO2
14837KMSN MSN20051024154510610/24/05 15:45:31  5-MIN KMSN 242145Z 33012G18KT 10SM FEW033 OVC049 08/02 A3013 670 65 0 330/12G18 RMK AO2
14837KMSN MSN20051024155012310/24/05 15:50:31  5-MIN KMSN 242150Z 34009G16KT 10SM FEW031 OVC047 08/02 A3013 670 65 0 340/09G16 RMK AO2 SLP209 T00780017
14837KMSN MSN20051024155510610/24/05 15:55:31  5-MIN KMSN 242155Z 34012G16KT 10SM FEW031 OVC045 08/02 A3013 670 65 0 330/12G16 RMK AO2
14837KMSN MSN20051024160009910/24/05 16:00:31  5-MIN KMSN 242200Z 34009G16KT 10SM OVC045 08/02 A3013 670 65 0 340/09G16 RMK AO2
14837KMSN MSN20051024160509310/24/05 16:05:31  5-MIN KMSN 242205Z 34009KT 10SM OVC047 08/02 A3013 670 65 0 340/09 RMK AO2
14837KMSN MSN20051024161009310/24/05 16:10:31  5-MIN KMSN 242210Z 34009KT 10SM OVC048 08/02 A3013 670 65 0 340/09 RMK AO2
14837KMSN MSN20051024161509310/24/05 16:15:31  5-MIN KMSN 242215Z 33010KT 10SM OVC048 08/02 A3013 670 65 0 330/10 RMK AO2
14837KMSN MSN20051024162009310/24/05 16:20:31  5-MIN KMSN 242220Z 33008KT 10SM OVC050 08/02 A3013 670 65 0 330/08 RMK AO2
14837KMSN MSN20051024162509310/24/05 16:25:31  5-MIN KMSN 242225Z 33008KT 10SM OVC050 07/02 A3013 670 68 0 330/08 RMK AO2
14837KMSN MSN20051024163009310/24/05 16:30:31  5-MIN KMSN 242230Z 33008KT 10SM OVC050 08/02 A3014 670 65 0 330/08 RMK AO2
14837KMSN MSN20051024163509310/24/05 16:35:31  5-MIN KMSN 242235Z 34008KT 10SM OVC050 07/02 A3014 660 68 0 340/08 RMK AO2
14837KMSN MSN20051024164009310/24/05 16:40:31  5-MIN KMSN 242240Z 33006KT 10SM OVC050 07/02 A3014 660 68 0 330/06 RMK AO2
14837KMSN MSN20051024164509310/24/05 16:45:31  5-MIN KMSN 242245Z 33008KT 10SM OVC050 07/02 A3014 660 68 0 330/08 RMK AO2
14837KMSN MSN20051024165011010/24/05 16:50:31  5-MIN KMSN 242250Z 34008KT 10SM BKN050 07/02 A3014 660 68 0 340/08 RMK AO2 SLP212 T00720017
14837KMSN MSN20051024165509310/24/05 16:55:31  5-MIN KMSN 242255Z 33006KT 10SM OVC050 07/02 A3014 660 68 0 330/06 RMK AO2
14837KMSN MSN20051024170009310/24/05 17:00:31  5-MIN KMSN 242300Z 33007KT 10SM OVC050 07/02 A3014 660 68 0 330/07 RMK AO2
14837KMSN MSN20051024170509310/24/05 17:05:31  5-MIN KMSN 242305Z 34008KT 10SM OVC050 07/02 A3014 660 68 0 340/08 RMK AO2
14837KMSN MSN20051024171009310/24/05 17:10:31  5-MIN KMSN 242310Z 34009KT 10SM OVC050 07/02 A3014 660 68 0 340/09 RMK AO2
14837KMSN MSN20051024171509310/24/05 17:15:31  5-MIN KMSN 242315Z 34008KT 10SM OVC050 07/02 A3015 660 68 0 340/08 RMK AO2
14837KMSN MSN20051024172009310/24/05 17:20:31  5-MIN KMSN 242320Z 34009KT 10SM OVC050 07/02 A3015 660 68 0 340/09 RMK AO2
14837KMSN MSN20051024172509310/24/05 17:25:31  5-MIN KMSN 242325Z 34008KT 10SM OVC050 07/02 A3015 660 68 0 340/08 RMK AO2
14837KMSN MSN20051024173009610/24/05 17:30:31  5-MIN KMSN 242330Z 34008KT 10SM OVC055 07/02 A3015 650 70 -100 340/08 RMK AO2
14837KMSN MSN20051024173509610/24/05 17:35:31  5-MIN KMSN 242335Z 33009KT 10SM OVC055 07/02 A3015 650 70 -100 330/09 RMK AO2
14837KMSN MSN20051024174009610/24/05 17:40:31  5-MIN KMSN 242340Z 33009KT 10SM OVC055 07/02 A3015 650 70 -100 330/09 RMK AO2
14837KMSN MSN20051024174509610/24/05 17:45:31  5-MIN KMSN 242345Z 34009KT 10SM OVC050 07/02 A3015 650 70 -100 340/09 RMK AO2
14837KMSN MSN20051024175013110/24/05 17:50:31  5-MIN KMSN 242350Z 34009KT 10SM OVC050 07/02 A3015 650 70 -100 340/09 RMK AO2 SLP218 T00670017 10089 20067 56005
14837KMSN MSN20051024175509610/24/05 17:55:31  5-MIN KMSN 242355Z 33007KT 10SM OVC050 07/02 A3016 650 70 -100 330/07 RMK AO2
14837KMSN MSN20051024180009610/24/05 18:00:31  5-MIN KMSN 250000Z 34007KT 10SM OVC055 07/02 A3016 650 70 -100 340/07 RMK AO2
14837KMSN MSN20051024180509610/24/05 18:05:31  5-MIN KMSN 250005Z 34008KT 10SM OVC055 07/02 A3016 650 70 -100 340/08 RMK AO2
14837KMSN MSN20051024181009610/24/05 18:10:31  5-MIN KMSN 250010Z 34008KT 10SM OVC055 07/02 A3016 650 70 -100 340/08 RMK AO2
14837KMSN MSN20051024181509610/24/05 18:15:31  5-MIN KMSN 250015Z 33007KT 10SM OVC055 07/02 A3016 650 73 -100 330/07 RMK AO2
14837KMSN MSN20051024182009610/24/05 18:20:31  5-MIN KMSN 250020Z 33006KT 10SM OVC055 07/02 A3016 650 73 -100 330/06 RMK AO2
14837KMSN MSN20051024182509610/24/05 18:25:31  5-MIN KMSN 250025Z 34006KT 10SM OVC055 07/02 A3015 650 73 -100 340/06 RMK AO2
14837KMSN MSN20051024183009610/24/05 18:30:31  5-MIN KMSN 250030Z 33006KT 10SM OVC055 07/02 A3015 650 73 -100 330/06 RMK AO2
14837KMSN MSN20051024183509610/24/05 18:35:31  5-MIN KMSN 250035Z 34006KT 10SM OVC055 07/02 A3015 650 73 -100 340/06 RMK AO2
14837KMSN MSN20051024184009610/24/05 18:40:31  5-MIN KMSN 250040Z 34005KT 10SM OVC055 07/02 A3015 650 73 -100 340/05 RMK AO2
14837KMSN MSN20051024184509610/24/05 18:45:31  5-MIN KMSN 250045Z 34006KT 10SM OVC055 07/02 A3015 660 73 -100 340/06 RMK AO2
14837KMSN MSN20051024185011310/24/05 18:50:31  5-MIN KMSN 250050Z 34005KT 10SM OVC055 07/02 A3015 660 73 -100 340/05 RMK AO2 SLP216 T00670022
14837KMSN MSN20051024185509610/24/05 18:55:31  5-MIN KMSN 250055Z 34005KT 10SM OVC060 07/02 A3015 650 73 -100 340/05 RMK AO2
14837KMSN MSN20051024190009610/24/05 19:00:31  5-MIN KMSN 250100Z 34005KT 10SM OVC060 06/02 A3015 650 76 -200 340/05 RMK AO2
14837KMSN MSN20051024190509610/24/05 19:05:31  5-MIN KMSN 250105Z 33004KT 10SM OVC060 07/02 A3015 660 73 -100 330/04 RMK AO2
14837KMSN MSN20051024191009610/24/05 19:10:31  5-MIN KMSN 250110Z 33004KT 10SM OVC060 07/02 A3015 660 70 -100 330/04 RMK AO2
14837KMSN MSN20051024191509610/24/05 19:15:31  5-MIN KMSN 250115Z 32005KT 10SM OVC060 07/02 A3014 660 70 -100 320/05 RMK AO2
14837KMSN MSN20051024192009610/24/05 19:20:31  5-MIN KMSN 250120Z 32005KT 10SM OVC060 07/02 A3014 660 70 -100 320/05 RMK AO2
14837KMSN MSN20051024192509610/24/05 19:25:31  5-MIN KMSN 250125Z 32004KT 10SM OVC060 07/02 A3014 660 70 -100 320/04 RMK AO2
14837KMSN MSN20051024193009610/24/05 19:30:31  5-MIN KMSN 250130Z 33004KT 10SM OVC060 07/02 A3014 660 70 -100 330/04 RMK AO2
14837KMSN MSN20051024193509610/24/05 19:35:31  5-MIN KMSN 250135Z 32006KT 10SM OVC060 07/02 A3014 660 70 -100 320/06 RMK AO2
14837KMSN MSN20051024194009610/24/05 19:40:31  5-MIN KMSN 250140Z 32005KT 10SM OVC060 07/02 A3014 660 70 -100 320/05 RMK AO2
14837KMSN MSN20051024194509610/24/05 19:45:31  5-MIN KMSN 250145Z 32005KT 10SM OVC060 07/02 A3014 660 70 -100 320/05 RMK AO2
14837KMSN MSN20051024195011310/24/05 19:50:31  5-MIN KMSN 250150Z 32005KT 10SM OVC060 07/02 A3014 660 70 -100 320/05 RMK AO2 SLP212 T00670017
14837KMSN MSN20051024195509610/24/05 19:55:31  5-MIN KMSN 250155Z 32004KT 10SM OVC060 07/02 A3014 660 70 -100 320/04 RMK AO2
14837KMSN MSN20051024200009610/24/05 20:00:31  5-MIN KMSN 250200Z 33005KT 10SM OVC060 07/02 A3014 660 70 -100 330/05 RMK AO2
14837KMSN MSN20051024200509610/24/05 20:05:31  5-MIN KMSN 250205Z 32005KT 10SM OVC060 07/02 A3014 660 70 -100 320/05 RMK AO2
14837KMSN MSN20051024201009610/24/05 20:10:31  5-MIN KMSN 250210Z 32005KT 10SM OVC060 07/02 A3014 660 70 -100 320/05 RMK AO2
14837KMSN MSN20051024201509610/24/05 20:15:31  5-MIN KMSN 250215Z 33005KT 10SM OVC060 07/02 A3014 660 70 -100 330/05 RMK AO2
14837KMSN MSN20051024202009610/24/05 20:20:31  5-MIN KMSN 250220Z 32006KT 10SM OVC060 07/01 A3014 660 67 -100 320/06 RMK AO2
14837KMSN MSN20051024202509610/24/05 20:25:31  5-MIN KMSN 250225Z 32006KT 10SM OVC060 07/01 A3014 660 67 -100 320/06 RMK AO2
14837KMSN MSN20051024203010310/24/05 20:30:31  5-MIN KMSN 250230Z 33005KT 10SM FEW048 OVC060 07/01 A3014 670 67 -100 330/05 RMK AO2
14837KMSN MSN20051024203510310/24/05 20:35:31  5-MIN KMSN 250235Z 33006KT 10SM FEW046 OVC060 07/01 A3014 670 67 -100 330/06 RMK AO2
14837KMSN MSN20051024204010310/24/05 20:40:31  5-MIN KMSN 250240Z 32005KT 10SM SCT044 OVC060 07/01 A3014 670 67 -100 320/05 RMK AO2
14837KMSN MSN20051024204510310/24/05 20:45:31  5-MIN KMSN 250245Z 32006KT 10SM BKN044 OVC060 07/01 A3014 670 67 -100 320/06 RMK AO2
14837KMSN MSN20051024205012610/24/05 20:50:31  5-MIN KMSN 250250Z 33006KT 10SM BKN042 OVC065 07/01 A3014 670 67 -100 330/06 RMK AO2 SLP211 T00670011 53009
14837KMSN MSN20051024205510310/24/05 20:55:31  5-MIN KMSN 250255Z 33004KT 10SM BKN042 OVC065 06/02 A3013 670 73 -200 330/04 RMK AO2
14837KMSN MSN20051024210010310/24/05 21:00:31  5-MIN KMSN 250300Z 33005KT 10SM BKN042 OVC065 06/02 A3013 670 73 -200 330/05 RMK AO2
14837KMSN MSN20051024210510310/24/05 21:05:31  5-MIN KMSN 250305Z 33004KT 10SM BKN042 OVC065 06/02 A3013 670 73 -200 330/04 RMK AO2
14837KMSN MSN20051024211009610/24/05 21:10:31  5-MIN KMSN 250310Z 33004KT 10SM OVC042 06/02 A3013 670 73 -200 330/04 RMK AO2
14837KMSN MSN20051024211509610/24/05 21:15:31  5-MIN KMSN 250315Z 33003KT 10SM OVC042 06/02 A3013 670 73 -200 330/03 RMK AO2
14837KMSN MSN20051024212010310/24/05 21:20:31  5-MIN KMSN 250320Z 34003KT 10SM BKN042 OVC065 06/02 A3013 670 73 -200 340/03 RMK AO2
14837KMSN MSN20051024212510310/24/05 21:25:31  5-MIN KMSN 250325Z 36004KT 10SM BKN042 OVC065 06/02 A3013 670 73 -200 360/04 RMK AO2
14837KMSN MSN20051024213010310/24/05 21:30:31  5-MIN KMSN 250330Z 03005KT 10SM BKN042 OVC065 06/02 A3013 670 76 -200 020/05 RMK AO2
14837KMSN MSN20051024213510310/24/05 21:35:31  5-MIN KMSN 250335Z 01004KT 10SM BKN044 OVC065 06/02 A3013 670 76 -200 010/04 RMK AO2
14837KMSN MSN20051024214010310/24/05 21:40:31  5-MIN KMSN 250340Z 36004KT 10SM SCT044 OVC065 06/02 A3013 670 76 -200 360/04 RMK AO2
14837KMSN MSN20051024214510310/24/05 21:45:31  5-MIN KMSN 250345Z 35004KT 10SM SCT042 OVC065 06/02 A3013 670 76 -200 350/04 RMK AO2
14837KMSN MSN20051024215012010/24/05 21:50:31  5-MIN KMSN 250350Z 35004KT 10SM FEW042 OVC065 06/02 A3013 670 76 -200 350/04 RMK AO2 SLP210 T00560017
14837KMSN MSN20051024215510310/24/05 21:55:31  5-MIN KMSN 250355Z 35004KT 10SM FEW042 OVC065 06/02 A3013 670 76 -200 350/04 RMK AO2
14837KMSN MSN20051024220010310/24/05 22:00:31  5-MIN KMSN 250400Z 35004KT 10SM FEW040 OVC065 06/02 A3013 670 76 -200 350/04 RMK AO2
14837KMSN MSN20051024220510310/24/05 22:05:31  5-MIN KMSN 250405Z 34005KT 10SM FEW043 OVC065 06/02 A3013 670 76 -200 340/05 RMK AO2
14837KMSN MSN20051024221010310/24/05 22:10:31  5-MIN KMSN 250410Z 34005KT 10SM SCT045 OVC065 06/02 A3013 670 76 -200 340/05 RMK AO2
14837KMSN MSN20051024221510310/24/05 22:15:31  5-MIN KMSN 250415Z 34005KT 10SM SCT045 OVC065 06/02 A3013 670 76 -200 340/05 RMK AO2
14837KMSN MSN20051024222011010/24/05 22:20:31  5-MIN KMSN 250420Z 33006KT 10SM SCT040 SCT047 OVC065 06/02 A3013 670 76 -200 330/06 RMK AO2
14837KMSN MSN20051024222511010/24/05 22:25:31  5-MIN KMSN 250425Z 33005KT 10SM SCT040 SCT047 OVC070 06/02 A3013 670 76 -200 330/05 RMK AO2
14837KMSN MSN20051024223011010/24/05 22:30:31  5-MIN KMSN 250430Z 33005KT 10SM FEW029 BKN047 OVC070 06/02 A3013 670 76 -200 330/05 RMK AO2
14837KMSN MSN20051024223511010/24/05 22:35:31  5-MIN KMSN 250435Z 32005KT 10SM SCT029 BKN038 OVC070 06/02 A3013 670 76 -200 320/05 RMK AO2
14837KMSN MSN20051024224011010/24/05 22:40:31  5-MIN KMSN 250440Z 33005KT 10SM FEW030 BKN038 OVC070 06/02 A3013 670 76 -200 330/05 RMK AO2
14837KMSN MSN20051024224511010/24/05 22:45:31  5-MIN KMSN 250445Z 34006KT 10SM FEW030 BKN038 OVC070 06/02 A3013 670 76 -200 330/06 RMK AO2
14837KMSN MSN20051024225012710/24/05 22:50:31  5-MIN KMSN 250450Z 34008KT 10SM FEW030 BKN038 OVC070 06/02 A3013 670 76 -200 340/08 RMK AO2 SLP207 T00560017
14837KMSN MSN20051024225510310/24/05 22:55:31  5-MIN KMSN 250455Z 34006KT 10SM SCT027 OVC038 06/02 A3013 680 76 -200 340/06 RMK AO2
14837KMSN MSN20051024230011010/24/05 23:00:31  5-MIN KMSN 250500Z 33007KT 10SM FEW025 BKN038 OVC065 06/02 A3013 680 76 -200 330/07 RMK AO2
14837KMSN MSN20051024230511010/24/05 23:05:31  5-MIN KMSN 250505Z 35006KT 10SM FEW027 BKN038 OVC065 06/02 A3012 680 76 -200 340/06 RMK AO2
14837KMSN MSN20051024231011010/24/05 23:10:31  5-MIN KMSN 250510Z 35008KT 10SM FEW027 SCT038 OVC065 06/02 A3012 680 76 -200 350/08 RMK AO2
14837KMSN MSN20051024231510310/24/05 23:15:31  5-MIN KMSN 250515Z 34007KT 10SM FEW027 OVC065 06/02 A3012 680 76 -200 340/07 RMK AO2
14837KMSN MSN20051024232010310/24/05 23:20:31  5-MIN KMSN 250520Z 36008KT 10SM FEW025 OVC065 06/02 A3012 680 79 -200 350/08 RMK AO2
14837KMSN MSN20051024232509610/24/05 23:25:31  5-MIN KMSN 250525Z 35008KT 10SM OVC065 06/02 A3012 680 79 -200 350/08 RMK AO2
14837KMSN MSN20051024233011910/24/05 23:30:31  5-MIN KMSN 250530Z 35009KT 10SM -RA FEW031 OVC070 06/02 A3012 680 79 -200 350/09 RMK AO2 RAB29 P0000
14837KMSN MSN20051024233512610/24/05 23:35:31  5-MIN KMSN 250535Z 35008KT 10SM -RA FEW031 SCT050 OVC070 06/02 A3012 680 79 -200 350/08 RMK AO2 RAB29 P0000
14837KMSN MSN20051024234012610/24/05 23:40:31  5-MIN KMSN 250540Z 35010KT 10SM -RA FEW033 SCT049 OVC065 06/02 A3012 680 79 -200 350/10 RMK AO2 RAB29 P0000
14837KMSN MSN20051024234512510/24/05 23:45:31  5-MIN KMSN 250545Z 35008KT 10SM FEW033 BKN055 OVC070 06/02 A3012 680 79 -200 350/08 RMK AO2 RAB29E42 P0000
14837KMSN MSN20051024235017610/24/05 23:50:31  5-MIN KMSN 250550Z 35008KT 10SM FEW033 SCT050 OVC070 06/02 A3012 680 79 -200 350/08 RMK AO2 RAB29E42 SLP205 P0000 60000 T00560022 10067 20056 400890022 56006
14837KMSN MSN20051024235511010/24/05 23:55:31  5-MIN KMSN 250555Z 35008KT 10SM FEW033 SCT050 OVC065 06/02 A3012 680 79 -200 350/08 RMK AO2
14837KMSN MSN20051025000010310/25/05 00:00:38  5-MIN KMSN 250600Z 35009KT 10SM FEW050 OVC065 06/02 A3012 680 79 -200 350/09 RMK AO2
14837KMSN MSN20051025000510310/25/05 00:05:31  5-MIN KMSN 250605Z 35009KT 10SM FEW050 OVC065 06/02 A3012 680 79 -200 350/09 RMK AO2
14837KMSN MSN20051025001009610/25/05 00:10:31  5-MIN KMSN 250610Z 35009KT 10SM OVC070 05/02 A3012 680 82 -300 350/09 RMK AO2
14837KMSN MSN20051025001509610/25/05 00:15:32  5-MIN KMSN 250615Z 35008KT 10SM OVC070 06/02 A3012 680 79 -200 350/08 RMK AO2
14837KMSN MSN20051025002009610/25/05 00:20:31  5-MIN KMSN 250620Z 35007KT 10SM OVC070 05/02 A3012 680 82 -300 350/07 RMK AO2
14837KMSN MSN20051025002509610/25/05 00:25:31  5-MIN KMSN 250625Z 34008KT 10SM BKN070 05/02 A3012 680 82 -300 340/08 RMK AO2
14837KMSN MSN20051025003009610/25/05 00:30:31  5-MIN KMSN 250630Z 35008KT 10SM BKN070 05/02 A3012 680 82 -300 340/08 RMK AO2
14837KMSN MSN20051025003509610/25/05 00:35:31  5-MIN KMSN 250635Z 35008KT 10SM BKN065 05/02 A3012 680 82 -300 350/08 RMK AO2
14837KMSN MSN20051025004010310/25/05 00:40:31  5-MIN KMSN 250640Z 35008KT 10SM BKN065 BKN110 04/02 A3012 680 85 -300 340/08 RMK AO2
14837KMSN MSN20051025004510310/25/05 00:45:31  5-MIN KMSN 250645Z 35009KT 10SM BKN065 BKN110 05/02 A3012 680 82 -300 350/09 RMK AO2
14837KMSN MSN20051025005011310/25/05 00:50:31  5-MIN KMSN 250650Z 34008KT 10SM BKN065 04/02 A3012 680 85 -300 340/08 RMK AO2 SLP206 T00440022
14837KMSN MSN20051025005509610/25/05 00:55:31  5-MIN KMSN 250655Z 34009KT 10SM SCT065 04/02 A3012 680 85 -300 340/09 RMK AO2
14837KMSN MSN20051025010010310/25/05 01:00:31  5-MIN KMSN 250700Z 34008KT 10SM SCT065 SCT110 04/02 A3012 680 85 -300 340/08 RMK AO2
14837KMSN MSN20051025010510310/25/05 01:05:31  5-MIN KMSN 250705Z 35009KT 10SM SCT065 BKN110 04/02 A3012 680 85 -300 350/09 RMK AO2
14837KMSN MSN20051025011009610/25/05 01:10:31  5-MIN KMSN 250710Z 34008KT 10SM BKN065 04/02 A3013 680 85 -300 340/08 RMK AO2
14837KMSN MSN20051025011509610/25/05 01:15:31  5-MIN KMSN 250715Z 35008KT 10SM SCT065 04/02 A3013 670 85 -400 350/08 RMK AO2
14837KMSN MSN20051025012009610/25/05 01:20:31  5-MIN KMSN 250720Z 34007KT 10SM SCT065 04/02 A3013 670 85 -400 340/07 RMK AO2
14837KMSN MSN20051025012509610/25/05 01:25:31  5-MIN KMSN 250725Z 35008KT 10SM FEW065 04/02 A3013 670 85 -400 350/08 RMK AO2
14837KMSN MSN20051025013009610/25/05 01:30:31  5-MIN KMSN 250730Z 35009KT 10SM FEW065 04/02 A3013 670 85 -400 350/09 RMK AO2
14837KMSN MSN20051025013509610/25/05 01:35:31  5-MIN KMSN 250735Z 35009KT 10SM FEW060 04/02 A3013 670 85 -400 350/09 RMK AO2
14837KMSN MSN20051025014009310/25/05 01:40:31  5-MIN KMSN 250740Z 35009KT 10SM CLR 04/01 A3013 670 82 -400 350/09 RMK AO2
14837KMSN MSN20051025014509310/25/05 01:45:31  5-MIN KMSN 250745Z 35008KT 10SM CLR 04/01 A3013 670 82 -400 350/08 RMK AO2
14837KMSN MSN20051025015011010/25/05 01:50:31  5-MIN KMSN 250750Z 35006KT 10SM CLR 03/01 A3013 670 85 -500 350/06 RMK AO2 SLP207 T00330011
14837KMSN MSN20051025015509310/25/05 01:55:31  5-MIN KMSN 250755Z 34007KT 10SM CLR 03/01 A3013 670 85 -500 340/07 RMK AO2
14837KMSN MSN20051025020009310/25/05 02:00:31  5-MIN KMSN 250800Z 33008KT 10SM CLR 03/01 A3013 670 85 -500 330/08 RMK AO2
14837KMSN MSN20051025020509610/25/05 02:05:31  5-MIN KMSN 250805Z 33007KT 10SM FEW050 03/01 A3013 670 85 -500 330/07 RMK AO2
14837KMSN MSN20051025021009610/25/05 02:10:31  5-MIN KMSN 250810Z 33007KT 10SM FEW050 03/01 A3013 670 85 -500 330/07 RMK AO2
14837KMSN MSN20051025021509310/25/05 02:15:31  5-MIN KMSN 250815Z 33008KT 10SM CLR 03/01 A3013 670 85 -500 330/08 RMK AO2
14837KMSN MSN20051025022009310/25/05 02:20:31  5-MIN KMSN 250820Z 34009KT 10SM CLR 03/01 A3013 670 89 -600 330/09 RMK AO2
14837KMSN MSN20051025022509610/25/05 02:25:31  5-MIN KMSN 250825Z 33008KT 10SM FEW050 03/01 A3013 670 89 -600 330/08 RMK AO2
14837KMSN MSN20051025023009610/25/05 02:30:31  5-MIN KMSN 250830Z 34009KT 10SM FEW050 03/01 A3013 670 89 -600 340/09 RMK AO2
14837KMSN MSN20051025023509310/25/05 02:35:31  5-MIN KMSN 250835Z 34009KT 10SM CLR 03/01 A3013 670 89 -600 340/09 RMK AO2
14837KMSN MSN20051025024009310/25/05 02:40:31  5-MIN KMSN 250840Z 34008KT 10SM CLR 03/01 A3013 670 89 -600 340/08 RMK AO2
14837KMSN MSN20051025024509310/25/05 02:45:31  5-MIN KMSN 250845Z 34008KT 10SM CLR 03/01 A3013 670 89 -600 340/08 RMK AO2
14837KMSN MSN20051025025011610/25/05 02:50:31  5-MIN KMSN 250850Z 34008KT 10SM CLR 03/01 A3013 670 85 -600 340/08 RMK AO2 SLP209 T00280006 58005
14837KMSN MSN20051025025509310/25/05 02:55:31  5-MIN KMSN 250855Z 34007KT 10SM CLR 03/01 A3013 670 85 -600 340/07 RMK AO2
14837KMSN MSN20051025030009310/25/05 03:00:31  5-MIN KMSN 250900Z 34008KT 10SM CLR 03/01 A3013 670 85 -600 340/08 RMK AO2
14837KMSN MSN20051025030509310/25/05 03:05:31  5-MIN KMSN 250905Z 34008KT 10SM CLR 02/01 A3013 670 89 -600 340/08 RMK AO2
14837KMSN MSN20051025031009310/25/05 03:10:31  5-MIN KMSN 250910Z 34008KT 10SM CLR 02/01 A3013 670 89 -600 340/08 RMK AO2
14837KMSN MSN20051025031509310/25/05 03:15:31  5-MIN KMSN 250915Z 34008KT 10SM CLR 02/01 A3013 670 89 -600 340/08 RMK AO2
14837KMSN MSN20051025032009310/25/05 03:20:31  5-MIN KMSN 250920Z 34007KT 10SM CLR 02/01 A3014 670 89 -600 340/07 RMK AO2
14837KMSN MSN20051025032509310/25/05 03:25:31  5-MIN KMSN 250925Z 34008KT 10SM CLR 02/01 A3014 670 89 -600 340/08 RMK AO2
14837KMSN MSN20051025033009310/25/05 03:30:31  5-MIN KMSN 250930Z 34008KT 10SM CLR 02/01 A3014 660 89 -600 340/08 RMK AO2
14837KMSN MSN20051025033509310/25/05 03:35:31  5-MIN KMSN 250935Z 34008KT 10SM CLR 02/01 A3014 660 89 -600 340/08 RMK AO2
14837KMSN MSN20051025034009310/25/05 03:40:31  5-MIN KMSN 250940Z 34008KT 10SM CLR 02/01 A3014 660 89 -600 340/08 RMK AO2
14837KMSN MSN20051025034509310/25/05 03:45:31  5-MIN KMSN 250945Z 35008KT 10SM CLR 02/00 A3014 660 85 -600 340/08 RMK AO2
14837KMSN MSN20051025035011010/25/05 03:50:31  5-MIN KMSN 250950Z 34008KT 10SM CLR 02/00 A3014 660 89 -700 340/08 RMK AO2 SLP213 T00170000
14837KMSN MSN20051025035509310/25/05 03:55:31  5-MIN KMSN 250955Z 34009KT 10SM CLR 02/00 A3014 660 85 -600 340/09 RMK AO2
14837KMSN MSN20051025040009310/25/05 04:00:31  5-MIN KMSN 251000Z 34009KT 10SM CLR 02/00 A3014 660 89 -700 340/09 RMK AO2
14837KMSN MSN20051025040509310/25/05 04:05:31  5-MIN KMSN 251005Z 34008KT 10SM CLR 02/00 A3014 660 89 -700 340/08 RMK AO2
14837KMSN MSN20051025041009310/25/05 04:10:31  5-MIN KMSN 251010Z 34008KT 10SM CLR 02/00 A3014 660 89 -700 340/08 RMK AO2
14837KMSN MSN20051025041509310/25/05 04:15:31  5-MIN KMSN 251015Z 34007KT 10SM CLR 02/00 A3014 660 89 -700 340/07 RMK AO2
14837KMSN MSN20051025042009310/25/05 04:20:31  5-MIN KMSN 251020Z 34007KT 10SM CLR 02/00 A3014 660 89 -700 340/07 RMK AO2
14837KMSN MSN20051025042509310/25/05 04:25:31  5-MIN KMSN 251025Z 34008KT 10SM CLR 01/00 A3014 660 92 -800 340/08 RMK AO2
14837KMSN MSN20051025043009310/25/05 04:30:31  5-MIN KMSN 251030Z 34007KT 10SM CLR 01/00 A3015 660 92 -800 340/07 RMK AO2
14837KMSN MSN20051025043509310/25/05 04:35:31  5-MIN KMSN 251035Z 34008KT 10SM CLR 01/00 A3014 660 92 -800 340/08 RMK AO2
14837KMSN MSN20051025044009310/25/05 04:40:31  5-MIN KMSN 251040Z 34008KT 10SM CLR 02/00 A3015 660 89 -700 340/08 RMK AO2
14837KMSN MSN20051025044509310/25/05 04:45:31  5-MIN KMSN 251045Z 34008KT 10SM CLR 02/00 A3015 660 89 -700 340/08 RMK AO2
14837KMSN MSN20051025045011010/25/05 04:50:31  5-MIN KMSN 251050Z 34007KT 10SM CLR 01/00 A3015 650 92 -800 340/07 RMK AO2 SLP216 T00110000
14837KMSN MSN20051025045509310/25/05 04:55:31  5-MIN KMSN 251055Z 35007KT 10SM CLR 01/00 A3015 650 92 -800 350/07 RMK AO2
14837KMSN MSN20051025050009310/25/05 05:00:31  5-MIN KMSN 251100Z 34008KT 10SM CLR 01/00 A3015 650 92 -800 340/08 RMK AO2
14837KMSN MSN20051025050509410/25/05 05:05:31  5-MIN KMSN 251105Z 34007KT 10SM CLR 01/M01 A3015 650 89 -800 340/07 RMK AO2
14837KMSN MSN20051025051009410/25/05 05:10:31  5-MIN KMSN 251110Z 34008KT 10SM CLR 01/M01 A3015 650 89 -800 340/08 RMK AO2
14837KMSN MSN20051025051509410/25/05 05:15:31  5-MIN KMSN 251115Z 34008KT 10SM CLR 01/M01 A3015 650 89 -800 340/08 RMK AO2
14837KMSN MSN20051025052009410/25/05 05:20:31  5-MIN KMSN 251120Z 34007KT 10SM CLR 01/M01 A3015 650 89 -800 340/07 RMK AO2
14837KMSN MSN20051025052509410/25/05 05:25:31  5-MIN KMSN 251125Z 34007KT 10SM CLR 01/M01 A3015 650 89 -800 340/07 RMK AO2
14837KMSN MSN20051025053009410/25/05 05:30:31  5-MIN KMSN 251130Z 34008KT 10SM CLR 01/M01 A3015 650 89 -800 330/08 RMK AO2
14837KMSN MSN20051025053509410/25/05 05:35:31  5-MIN KMSN 251135Z 34008KT 10SM CLR 01/M01 A3015 650 89 -800 340/08 RMK AO2
14837KMSN MSN20051025054009410/25/05 05:40:31  5-MIN KMSN 251140Z 34008KT 10SM CLR 01/M01 A3015 650 89 -800 340/08 RMK AO2
14837KMSN MSN20051025054509410/25/05 05:45:31  5-MIN KMSN 251145Z 34008KT 10SM CLR 01/M01 A3015 650 89 -800 340/08 RMK AO2
14837KMSN MSN20051025055012910/25/05 05:50:31  5-MIN KMSN 251150Z 34008KT 10SM CLR 01/M01 A3015 650 89 -800 340/08 RMK AO2 SLP217 T00111006 10056 20011 53004
14837KMSN MSN20051025055509410/25/05 05:55:31  5-MIN KMSN 251155Z 33008KT 10SM CLR 01/M01 A3015 650 89 -800 330/08 RMK AO2
14837KMSN MSN20051025060009410/25/05 06:00:31  5-MIN KMSN 251200Z 34006KT 10SM CLR 01/M01 A3015 650 92 -900 340/06 RMK AO2
14837KMSN MSN20051025060509410/25/05 06:05:31  5-MIN KMSN 251205Z 34007KT 10SM CLR 01/M01 A3015 650 92 -900 340/07 RMK AO2
14837KMSN MSN20051025061009410/25/05 06:10:31  5-MIN KMSN 251210Z 34006KT 10SM CLR 01/M01 A3015 650 92 -900 340/06 RMK AO2
14837KMSN MSN20051025061509710/25/05 06:15:31  5-MIN KMSN 251215Z 34007KT 10SM SCT025 01/M01 A3015 650 92 -900 340/07 RMK AO2
14837KMSN MSN20051025062009710/25/05 06:20:31  5-MIN KMSN 251220Z 34007KT 10SM BKN025 01/M01 A3015 650 92 -900 340/07 RMK AO2
14837KMSN MSN20051025062509710/25/05 06:25:31  5-MIN KMSN 251225Z 33006KT 10SM BKN025 01/M01 A3015 650 89 -800 330/06 RMK AO2
14837KMSN MSN20051025063009710/25/05 06:30:31  5-MIN KMSN 251230Z 34007KT 10SM BKN025 01/M01 A3015 650 92 -900 340/07 RMK AO2
14837KMSN MSN20051025063509710/25/05 06:35:31  5-MIN KMSN 251235Z 34008KT 10SM SCT025 01/M01 A3015 650 92 -900 340/08 RMK AO2
14837KMSN MSN20051025064009710/25/05 06:40:31  5-MIN KMSN 251240Z 34007KT 10SM SCT025 01/M01 A3015 650 92 -900 330/07 RMK AO2
14837KMSN MSN20051025064509710/25/05 06:45:31  5-MIN KMSN 251245Z 34007KT 10SM SCT025 01/M01 A3015 650 92 -900 340/07 RMK AO2
14837KMSN MSN20051025065011410/25/05 06:50:31  5-MIN KMSN 251250Z 34007KT 10SM FEW025 01/M01 A3016 650 89 -800 340/07 RMK AO2 SLP219 T00111006
14837KMSN MSN20051025065509410/25/05 06:55:31  5-MIN KMSN 251255Z 34007KT 10SM CLR 01/M01 A3016 650 89 -800 340/07 RMK AO2
14837KMSN MSN20051025070009710/25/05 07:00:31  5-MIN KMSN 251300Z 34006KT 10SM FEW025 01/M01 A3016 650 89 -800 340/06 RMK AO2
14837KMSN MSN20051025070509710/25/05 07:05:31  5-MIN KMSN 251305Z 35007KT 10SM FEW025 01/M01 A3016 640 89 -800 350/07 RMK AO2
14837KMSN MSN20051025071009710/25/05 07:10:31  5-MIN KMSN 251310Z 34007KT 10SM SCT025 01/M01 A3016 640 89 -800 340/07 RMK AO2
14837KMSN MSN20051025071509710/25/05 07:15:31  5-MIN KMSN 251315Z 34007KT 10SM SCT010 01/M01 A3016 640 89 -800 340/07 RMK AO2
14837KMSN MSN20051025072009710/25/05 07:20:31  5-MIN KMSN 251320Z 34006KT 10SM BKN013 01/M01 A3017 640 89 -800 340/06 RMK AO2
14837KMSN MSN20051025072509610/25/05 07:25:31  5-MIN KMSN 251325Z 35007KT 10SM BKN013 01/00 A3017 640 92 -800 350/07 RMK AO2
14837KMSN MSN20051025073009610/25/05 07:30:31  5-MIN KMSN 251330Z 35006KT 10SM BKN013 02/00 A3017 640 89 -700 350/06 RMK AO2
14837KMSN MSN20051025073509610/25/05 07:35:31  5-MIN KMSN 251335Z 34006KT 10SM BKN013 02/00 A3017 630 89 -700 340/06 RMK AO2
14837KMSN MSN20051025074009610/25/05 07:40:31  5-MIN KMSN 251340Z 34006KT 10SM OVC013 02/00 A3017 630 89 -700 340/06 RMK AO2
14837KMSN MSN20051025074509610/25/05 07:45:31  5-MIN KMSN 251345Z 34006KT 10SM OVC013 02/01 A3017 630 89 -700 340/06 RMK AO2
14837KMSN MSN20051025075011310/25/05 07:50:31  5-MIN KMSN 251350Z 36006KT 10SM OVC013 02/01 A3017 640 89 -700 360/06 RMK AO2 SLP223 T00220006
14837KMSN MSN20051025075509610/25/05 07:55:31  5-MIN KMSN 251355Z 36005KT 10SM BKN013 02/01 A3017 640 89 -700 360/05 RMK AO2
14837KMSN MSN20051025080009610/25/05 08:00:31  5-MIN KMSN 251400Z 36007KT 10SM BKN013 02/01 A3017 640 89 -700 360/07 RMK AO2
14837KMSN MSN20051025080509610/25/05 08:05:31  5-MIN KMSN 251405Z 36007KT 10SM BKN013 03/01 A3017 640 89 -600 360/07 RMK AO2
14837KMSN MSN20051025081009610/25/05 08:10:31  5-MIN KMSN 251410Z 36008KT 10SM SCT013 03/01 A3017 640 85 -500 360/08 RMK AO2
14837KMSN MSN20051025081509610/25/05 08:15:31  5-MIN KMSN 251415Z 36009KT 10SM SCT013 03/01 A3016 640 85 -500 360/09 RMK AO2
14837KMSN MSN20051025082009610/25/05 08:20:31  5-MIN KMSN 251420Z 36011KT 10SM SCT013 04/01 A3016 640 82 -500 360/11 RMK AO2
14837KMSN MSN20051025082509610/25/05 08:25:31  5-MIN KMSN 251425Z 36010KT 10SM BKN013 04/01 A3016 640 82 -500 360/10 RMK AO2
14837KMSN MSN20051025083009610/25/05 08:30:31  5-MIN KMSN 251430Z 36008KT 10SM BKN013 04/01 A3016 640 82 -500 350/08 RMK AO2
14837KMSN MSN20051025083509610/25/05 08:35:31  5-MIN KMSN 251435Z 01012KT 10SM BKN013 04/02 A3016 640 82 -400 010/12 RMK AO2
14837KMSN MSN20051025084009610/25/05 08:40:31  5-MIN KMSN 251440Z 02011KT 10SM BKN013 04/02 A3016 640 82 -400 020/11 RMK AO2
14837KMSN MSN20051025084509610/25/05 08:45:31  5-MIN KMSN 251445Z 01010KT 10SM BKN013 05/02 A3016 640 79 -300 010/10 RMK AO2
14837KMSN MSN20051025085011910/25/05 08:50:31  5-MIN KMSN 251450Z 02011KT 10SM BKN013 04/02 A3016 640 82 -400 020/11 RMK AO2 SLP219 T00440017 51006
14837KMSN MSN20051025085509610/25/05 08:55:31  5-MIN KMSN 251455Z 02010KT 10SM BKN013 05/02 A3016 640 79 -300 020/10 RMK AO2
14837KMSN MSN20051025090009610/25/05 09:00:31  5-MIN KMSN 251500Z 02010KT 10SM BKN013 04/02 A3016 640 82 -400 020/10 RMK AO2
14837KMSN MSN20051025090509610/25/05 09:05:31  5-MIN KMSN 251505Z 03009KT 10SM BKN013 05/02 A3016 640 79 -300 030/09 RMK AO2
14837KMSN MSN20051025091009610/25/05 09:10:31  5-MIN KMSN 251510Z 02011KT 10SM BKN013 05/02 A3016 640 79 -300 020/11 RMK AO2
14837KMSN MSN20051025091509610/25/05 09:15:31  5-MIN KMSN 251515Z 03008KT 10SM BKN013 04/02 A3016 640 82 -400 030/08 RMK AO2
14837KMSN MSN20051025092009610/25/05 09:20:31  5-MIN KMSN 251520Z 03010KT 10SM BKN013 06/02 A3016 640 76 -300 030/10 RMK AO2
14837KMSN MSN20051025092509610/25/05 09:25:31  5-MIN KMSN 251525Z 02007KT 10SM BKN013 05/02 A3016 640 79 -300 020/07 RMK AO2
14837KMSN MSN20051025093009610/25/05 09:30:31  5-MIN KMSN 251530Z 04008KT 10SM BKN013 06/02 A3016 640 76 -200 040/08 RMK AO2
14837KMSN MSN20051025093509610/25/05 09:35:31  5-MIN KMSN 251535Z 01010KT 10SM BKN013 07/03 A3016 640 76 -100 010/10 RMK AO2
14837KMSN MSN20051025094009610/25/05 09:40:31  5-MIN KMSN 251540Z 01008KT 10SM BKN013 06/02 A3016 640 76 -200 010/08 RMK AO2
14837KMSN MSN20051025094509610/25/05 09:45:31  5-MIN KMSN 251545Z 03007KT 10SM BKN013 06/02 A3016 640 76 -300 030/07 RMK AO2
14837KMSN MSN20051025095009610/25/05 09:50:31  5-MIN KMSN 251550Z 05008KT 10SM SCT015 07/02 A3016 640 73 -100 050/08 RMK AO2
14837KMSN MSN20051025095509610/25/05 09:55:31  5-MIN KMSN 251555Z 36008KT 10SM SCT015 07/02 A3016 640 73 -100 360/08 RMK AO2
14837KMSN MSN20051025100009610/25/05 10:00:31  5-MIN KMSN 251600Z 36009KT 10SM SCT015 07/02 A3016 640 73 -100 360/09 RMK AO2
14837KMSN MSN20051025100509610/25/05 10:05:31  5-MIN KMSN 251605Z 03008KT 10SM SCT015 07/02 A3016 640 73 -100 020/08 RMK AO2
14837KMSN MSN20051025101009610/25/05 10:10:31  5-MIN KMSN 251610Z 02007KT 10SM SCT015 07/02 A3016 640 73 -100 020/07 RMK AO2
14837KMSN MSN20051025101509610/25/05 10:15:31  5-MIN KMSN 251615Z 02006KT 10SM BKN015 07/02 A3016 640 73 -100 020/06 RMK AO2
14837KMSN MSN20051025102009310/25/05 10:20:31  5-MIN KMSN 251620Z 02008KT 10SM BKN015 08/03 A3016 640 70 0 020/08 RMK AO2
14837KMSN MSN20051025102509310/25/05 10:25:31  5-MIN KMSN 251625Z 03005KT 10SM SCT019 08/03 A3016 640 70 0 030/05 RMK AO2
14837KMSN MSN20051025103009310/25/05 10:30:31  5-MIN KMSN 251630Z 02005KT 10SM SCT019 08/03 A3016 650 70 0 020/05 RMK AO2
14837KMSN MSN20051025103509310/25/05 10:35:31  5-MIN KMSN 251635Z 34008KT 10SM SCT019 08/03 A3016 650 68 0 340/08 RMK AO2
14837KMSN MSN20051025104009310/25/05 10:40:31  5-MIN KMSN 251640Z VRB04KT 10SM SCT019 08/03 A3016 650 70 0 VRB/04 RMK AO2
14837KMSN MSN20051025104509310/25/05 10:45:31  5-MIN KMSN 251645Z 02005KT 10SM SCT019 08/02 A3015 650 65 0 020/05 RMK AO2
14837KMSN MSN20051025105011010/25/05 10:50:31  5-MIN KMSN 251650Z 02006KT 10SM SCT019 08/03 A3015 650 68 0 020/06 RMK AO2 SLP216 T00830028
14837KMSN MSN20051025105509510/25/05 10:55:31  5-MIN KMSN 251655Z 03007KT 10SM BKN019 09/03 A3015 650 65 100 030/07 RMK AO2
14837KMSN MSN20051025110009510/25/05 11:00:31  5-MIN KMSN 251700Z 01006KT 10SM BKN019 09/03 A3015 650 63 200 360/06 RMK AO2
14837KMSN MSN20051025110509510/25/05 11:05:31  5-MIN KMSN 251705Z 02006KT 10SM BKN019 09/03 A3015 650 65 100 020/06 RMK AO2
14837KMSN MSN20051025111009510/25/05 11:10:31  5-MIN KMSN 251710Z VRB05KT 10SM BKN019 10/03 A3015 650 60 300 VRB/05 RMK AO2
14837KMSN MSN20051025111509510/25/05 11:15:31  5-MIN KMSN 251715Z 34005KT 10SM BKN024 09/03 A3015 650 63 200 340/05 RMK AO2
14837KMSN MSN20051025112009510/25/05 11:20:31  5-MIN KMSN 251720Z 36011KT 10SM BKN024 09/02 A3015 660 63 100 360/11 RMK AO2
14837KMSN MSN20051025112509510/25/05 11:25:31  5-MIN KMSN 251725Z 01009KT 10SM BKN024 09/02 A3015 660 63 100 010/09 RMK AO2
14837KMSN MSN20051025113009510/25/05 11:30:31  5-MIN KMSN 251730Z 02009KT 10SM BKN024 09/02 A3014 660 63 100 020/09 RMK AO2
14837KMSN MSN20051025113509510/25/05 11:35:31  5-MIN KMSN 251735Z 02010KT 10SM BKN024 10/02 A3014 660 58 300 020/10 RMK AO2
14837KMSN MSN20051025114009510/25/05 11:40:31  5-MIN KMSN 251740Z VRB06KT 10SM BKN027 10/02 A3014 660 58 300 VRB/06 RMK AO2
14837KMSN MSN20051025114509510/25/05 11:45:31  5-MIN KMSN 251745Z 36011KT 10SM BKN027 11/03 A3014 660 58 300 360/11 RMK AO2
14837KMSN MSN20051025115013010/25/05 11:50:31  5-MIN KMSN 251750Z VRB05KT 10SM BKN027 09/02 A3014 660 60 100 VRB/05 RMK AO2 SLP211 T00890017 10106 20006 50003
14837KMSN MSN20051025115509510/25/05 11:55:31  5-MIN KMSN 251755Z 02009KT 10SM BKN029 11/02 A3014 660 56 300 020/09 RMK AO2
14837KMSN MSN20051025120009510/25/05 12:00:31  5-MIN KMSN 251800Z 01012KT 10SM BKN029 10/02 A3014 660 58 300 360/12 RMK AO2
14837KMSN MSN20051025120509510/25/05 12:05:31  5-MIN KMSN 251805Z 34007KT 10SM BKN029 09/01 A3014 670 58 100 340/07 RMK AO2
14837KMSN MSN20051025121009510/25/05 12:10:31  5-MIN KMSN 251810Z 02008KT 10SM BKN029 11/02 A3013 670 56 300 020/08 RMK AO2
14837KMSN MSN20051025121509510/25/05 12:15:31  5-MIN KMSN 251815Z 02005KT 10SM BKN029 10/02 A3013 670 56 300 020/05 RMK AO2
14837KMSN MSN20051025122010210/25/05 12:20:31  5-MIN KMSN 251820Z 35008KT 10SM BKN032 BKN040 09/02 A3013 670 58 200 350/08 RMK AO2
14837KMSN MSN20051025122509510/25/05 12:25:31  5-MIN KMSN 251825Z 01006KT 10SM BKN034 09/02 A3013 670 60 100 010/06 RMK AO2
14837KMSN MSN20051025123009510/25/05 12:30:31  5-MIN KMSN 251830Z 35008KT 10SM BKN034 09/01 A3013 670 56 200 350/08 RMK AO2
14837KMSN MSN20051025123509510/25/05 12:35:31  5-MIN KMSN 251835Z 01008KT 10SM BKN036 10/01 A3013 670 54 300 010/08 RMK AO2
14837KMSN MSN20051025124009510/25/05 12:40:31  5-MIN KMSN 251840Z 01007KT 10SM OVC034 09/01 A3013 670 56 200 010/07 RMK AO2
14837KMSN MSN20051025124509510/25/05 12:45:31  5-MIN KMSN 251845Z 35009KT 10SM BKN034 09/02 A3013 670 58 200 350/09 RMK AO2
14837KMSN MSN20051025125011210/25/05 12:50:31  5-MIN KMSN 251850Z VRB06KT 10SM BKN036 09/02 A3012 680 58 200 VRB/06 RMK AO2 SLP206 T00940017
14837KMSN MSN20051025125509510/25/05 12:55:31  5-MIN KMSN 251855Z 36012KT 10SM BKN036 10/01 A3012 680 54 300 360/12 RMK AO2
14837KMSN MSN20051025130009510/25/05 13:00:31  5-MIN KMSN 251900Z 35007KT 10SM BKN036 09/01 A3012 680 56 200 350/07 RMK AO2
14837KMSN MSN20051025130509510/25/05 13:05:31  5-MIN KMSN 251905Z 36010KT 10SM BKN036 11/02 A3012 680 52 400 360/10 RMK AO2
14837KMSN MSN20051025131010110/25/05 13:10:31  5-MIN KMSN 251910Z 36010G16KT 10SM BKN036 09/02 A3012 680 58 200 360/10G16 RMK AO2
14837KMSN MSN20051025131510110/25/05 13:15:31  5-MIN KMSN 251915Z 36008G16KT 10SM BKN036 09/01 A3012 680 56 200 350/08G16 RMK AO2
14837KMSN MSN20051025132009510/25/05 13:20:31  5-MIN KMSN 251920Z 32006KT 10SM BKN036 09/01 A3012 680 56 200 320/06 RMK AO2
14837KMSN MSN20051025132511110/25/05 13:25:31  5-MIN KMSN 251925Z 35008KT 300V020 10SM BKN036 11/02 A3012 680 52 400 350/08 300V020 RMK AO2
14837KMSN MSN20051025133009510/25/05 13:30:31  5-MIN KMSN 251930Z 01010KT 10SM BKN036 10/01 A3011 690 54 300 010/10 RMK AO2
14837KMSN MSN20051025133509510/25/05 13:35:31  5-MIN KMSN 251935Z 02010KT 10SM BKN038 09/01 A3011 690 56 200 020/10 RMK AO2
14837KMSN MSN20051025134009510/25/05 13:40:31  5-MIN KMSN 251940Z 35006KT 10SM BKN038 09/01 A3011 690 56 200 340/06 RMK AO2
14837KMSN MSN20051025134510210/25/05 13:45:31  5-MIN KMSN 251945Z 35007KT 10SM SCT038 SCT047 09/01 A3011 690 56 200 350/07 RMK AO2
14837KMSN MSN20051025135011910/25/05 13:50:31  5-MIN KMSN 251950Z 35006KT 10SM BKN040 BKN047 10/01 A3011 690 54 300 350/06 RMK AO2 SLP202 T01000011
14837KMSN MSN20051025135509510/25/05 13:55:31  5-MIN KMSN 251955Z 34006KT 10SM BKN042 11/01 A3011 690 52 400 340/06 RMK AO2
14837KMSN MSN20051025140009510/25/05 14:00:31  5-MIN KMSN 252000Z 33007KT 10SM BKN042 10/01 A3011 690 54 300 330/07 RMK AO2
14837KMSN MSN20051025140509510/25/05 14:05:31  5-MIN KMSN 252005Z 35008KT 10SM BKN042 10/01 A3011 690 52 300 350/08 RMK AO2
14837KMSN MSN20051025141009510/25/05 14:10:31  5-MIN KMSN 252010Z 35010KT 10SM OVC042 10/01 A3011 690 54 300 350/10 RMK AO2
14837KMSN MSN20051025141509510/25/05 14:15:31  5-MIN KMSN 252015Z 35007KT 10SM BKN042 09/01 A3011 690 56 200 350/07 RMK AO2
14837KMSN MSN20051025142009510/25/05 14:20:31  5-MIN KMSN 252020Z 34005KT 10SM BKN042 09/01 A3011 690 53 200 340/05 RMK AO2
14837KMSN MSN20051025142509510/25/05 14:25:31  5-MIN KMSN 252025Z 36005KT 10SM BKN042 11/01 A3011 690 52 400 360/05 RMK AO2
14837KMSN MSN20051025143009510/25/05 14:30:31  5-MIN KMSN 252030Z VRB05KT 10SM BKN044 11/01 A3011 690 50 400 VRB/05 RMK AO2
14837KMSN MSN20051025143509510/25/05 14:35:31  5-MIN KMSN 252035Z 35009KT 10SM BKN044 11/01 A3011 690 50 400 350/09 RMK AO2
14837KMSN MSN20051025144009510/25/05 14:40:31  5-MIN KMSN 252040Z 34008KT 10SM BKN044 11/01 A3011 690 48 400 330/08 RMK AO2
14837KMSN MSN20051025144509510/25/05 14:45:31  5-MIN KMSN 252045Z 33008KT 10SM BKN044 11/01 A3011 690 50 400 330/08 RMK AO2
14837KMSN MSN20051025145011810/25/05 14:50:31  5-MIN KMSN 252050Z 33006KT 10SM OVC044 10/01 A3011 690 52 300 330/06 RMK AO2 SLP201 T01000006 58007
14837KMSN MSN20051025145509510/25/05 14:55:31  5-MIN KMSN 252055Z 31007KT 10SM OVC044 11/01 A3011 690 50 400 310/07 RMK AO2
14837KMSN MSN20051025150009510/25/05 15:00:31  5-MIN KMSN 252100Z 35007KT 10SM BKN044 10/01 A3011 690 52 300 350/07 RMK AO2
14837KMSN MSN20051025150509510/25/05 15:05:31  5-MIN KMSN 252105Z 34006KT 10SM BKN044 10/01 A3011 690 52 300 340/06 RMK AO2
14837KMSN MSN20051025151009510/25/05 15:10:31  5-MIN KMSN 252110Z 33007KT 10SM BKN044 10/01 A3011 690 52 300 330/07 RMK AO2
14837KMSN MSN20051025151509510/25/05 15:15:31  5-MIN KMSN 252115Z 33007KT 10SM BKN044 10/01 A3011 690 52 300 320/07 RMK AO2
14837KMSN MSN20051025152009510/25/05 15:20:31  5-MIN KMSN 252120Z 33008KT 10SM BKN044 10/01 A3011 690 52 300 330/08 RMK AO2
14837KMSN MSN20051025152509510/25/05 15:25:31  5-MIN KMSN 252125Z 36009KT 10SM BKN044 10/01 A3010 690 52 300 360/09 RMK AO2
14837KMSN MSN20051025153009510/25/05 15:30:31  5-MIN KMSN 252130Z 36007KT 10SM BKN044 10/01 A3011 690 52 300 360/07 RMK AO2
14837KMSN MSN20051025153509510/25/05 15:35:31  5-MIN KMSN 252135Z 35006KT 10SM BKN044 10/01 A3011 690 52 300 350/06 RMK AO2
14837KMSN MSN20051025154009510/25/05 15:40:31  5-MIN KMSN 252140Z 35007KT 10SM BKN044 10/01 A3011 690 52 300 350/07 RMK AO2
14837KMSN MSN20051025154509510/25/05 15:45:31  5-MIN KMSN 252145Z 36007KT 10SM BKN044 10/01 A3011 690 52 300 360/07 RMK AO2
14837KMSN MSN20051025155011210/25/05 15:50:31  5-MIN KMSN 252150Z 34007KT 10SM BKN044 09/01 A3011 690 53 200 340/07 RMK AO2 SLP200 T00940006
14837KMSN MSN20051025155509510/25/05 15:55:31  5-MIN KMSN 252155Z 34007KT 10SM BKN046 09/01 A3011 690 53 200 340/07 RMK AO2
14837KMSN MSN20051025160009510/25/05 16:00:31  5-MIN KMSN 252200Z 34005KT 10SM BKN046 09/01 A3011 690 53 200 340/05 RMK AO2
14837KMSN MSN20051025160509510/25/05 16:05:31  5-MIN KMSN 252205Z 34006KT 10SM BKN046 09/01 A3011 690 53 200 340/06 RMK AO2
14837KMSN MSN20051025161009510/25/05 16:10:31  5-MIN KMSN 252210Z 34006KT 10SM BKN046 10/01 A3011 690 52 300 340/06 RMK AO2
14837KMSN MSN20051025161509510/25/05 16:15:31  5-MIN KMSN 252215Z 36006KT 10SM BKN046 09/01 A3011 690 53 200 360/06 RMK AO2
14837KMSN MSN20051025162009510/25/05 16:20:31  5-MIN KMSN 252220Z 36006KT 10SM BKN046 09/01 A3011 690 53 200 350/06 RMK AO2
14837KMSN MSN20051025162509510/25/05 16:25:31  5-MIN KMSN 252225Z 36005KT 10SM BKN046 09/01 A3011 690 56 200 360/05 RMK AO2
14837KMSN MSN20051025163009510/25/05 16:30:31  5-MIN KMSN 252230Z 36005KT 10SM BKN046 08/01 A3011 690 58 100 360/05 RMK AO2
14837KMSN MSN20051025163509510/25/05 16:35:31  5-MIN KMSN 252235Z 36005KT 10SM BKN046 08/01 A3011 690 58 100 360/05 RMK AO2
14837KMSN MSN20051025164009510/25/05 16:40:31  5-MIN KMSN 252240Z 35004KT 10SM BKN046 08/01 A3011 690 60 100 350/04 RMK AO2
14837KMSN MSN20051025164509510/25/05 16:45:31  5-MIN KMSN 252245Z 34003KT 10SM BKN046 08/01 A3011 690 58 100 340/03 RMK AO2
14837KMSN MSN20051025165011210/25/05 16:50:31  5-MIN KMSN 252250Z 34004KT 10SM BKN048 08/01 A3011 690 58 100 340/04 RMK AO2 SLP203 T00830006
14837KMSN MSN20051025165509510/25/05 16:55:31  5-MIN KMSN 252255Z 33003KT 10SM BKN048 08/01 A3011 690 58 100 330/03 RMK AO2
14837KMSN MSN20051025170009510/25/05 17:00:31  5-MIN KMSN 252300Z 34003KT 10SM BKN048 08/01 A3011 690 58 100 340/03 RMK AO2
14837KMSN MSN20051025170509310/25/05 17:05:31  5-MIN KMSN 252305Z 34004KT 10SM BKN048 08/01 A3011 690 60 0 340/04 RMK AO2
14837KMSN MSN20051025171009310/25/05 17:10:31  5-MIN KMSN 252310Z 34003KT 10SM BKN048 08/01 A3011 690 60 0 340/03 RMK AO2
14837KMSN MSN20051025171509310/25/05 17:15:31  5-MIN KMSN 252315Z 34004KT 10SM BKN048 08/01 A3011 690 60 0 340/04 RMK AO2
14837KMSN MSN20051025172009310/25/05 17:20:31  5-MIN KMSN 252320Z 34004KT 10SM BKN048 08/01 A3011 690 60 0 340/04 RMK AO2
14837KMSN MSN20051025172509310/25/05 17:25:31  5-MIN KMSN 252325Z 32003KT 10SM BKN048 07/01 A3011 690 62 0 320/03 RMK AO2
14837KMSN MSN20051025173009610/25/05 17:30:31  5-MIN KMSN 252330Z 00000KT 10SM SCT048 07/01 A3011 690 65 -100 000/00 RMK AO2
14837KMSN MSN20051025173509610/25/05 17:35:31  5-MIN KMSN 252335Z 00000KT 10SM SCT048 06/01 A3011 690 67 -100 000/00 RMK AO2
14837KMSN MSN20051025174009610/25/05 17:40:31  5-MIN KMSN 252340Z 00000KT 10SM FEW048 06/01 A3011 690 70 -100 000/00 RMK AO2
14837KMSN MSN20051025174509610/25/05 17:45:31  5-MIN KMSN 252345Z 00000KT 10SM FEW048 06/01 A3011 690 70 -100 000/00 RMK AO2
14837KMSN MSN20051025175013110/25/05 17:50:31  5-MIN KMSN 252350Z 00000KT 10SM FEW048 06/01 A3011 690 67 -100 000/00 RMK AO2 SLP205 T00610006 10111 20061 56010
14837KMSN MSN20051025175509610/25/05 17:55:31  5-MIN KMSN 252355Z 33003KT 10SM FEW050 06/01 A3011 690 67 -100 330/03 RMK AO2
14837KMSN MSN20051025181009610/25/05 18:10:31  5-MIN KMSN 260010Z 32003KT 10SM FEW050 06/01 A3012 680 67 -100 320/03 RMK AO2
14837KMSN MSN20051025181509610/25/05 18:15:31  5-MIN KMSN 260015Z 32003KT 10SM FEW050 06/01 A3012 680 73 -200 320/03 RMK AO2
14837KMSN MSN20051025182009610/25/05 18:20:31  5-MIN KMSN 260020Z 00000KT 10SM FEW050 05/01 A3012 680 76 -300 000/00 RMK AO2
14837KMSN MSN20051025182509610/25/05 18:25:31  5-MIN KMSN 260025Z 31003KT 10SM FEW050 06/01 A3012 680 73 -200 310/03 RMK AO2
14837KMSN MSN20051025183009610/25/05 18:30:31  5-MIN KMSN 260030Z 30003KT 10SM FEW050 06/01 A3012 680 73 -200 300/03 RMK AO2
14837KMSN MSN20051025183509610/25/05 18:35:31  5-MIN KMSN 260035Z 31003KT 10SM FEW050 06/01 A3012 680 73 -200 310/03 RMK AO2
14837KMSN MSN20051025184009610/25/05 18:40:31  5-MIN KMSN 260040Z 31003KT 10SM FEW050 06/01 A3012 680 73 -200 310/03 RMK AO2
14837KMSN MSN20051025184509310/25/05 18:45:31  5-MIN KMSN 260045Z 31003KT 10SM CLR 06/01 A3012 680 70 -200 310/03 RMK AO2
14837KMSN MSN20051025185011310/25/05 18:50:31  5-MIN KMSN 260050Z 31003KT 10SM FEW085 06/01 A3012 680 70 -200 310/03 RMK AO2 SLP206 T00560006
14837KMSN MSN20051025185509310/25/05 18:55:31  5-MIN KMSN 260055Z 32003KT 10SM CLR 06/01 A3012 680 70 -200 320/03 RMK AO2
14837KMSN MSN20051025190009310/25/05 19:00:31  5-MIN KMSN 260100Z 01003KT 10SM CLR 05/01 A3012 680 76 -300 010/03 RMK AO2
14837KMSN MSN20051025190509310/25/05 19:05:31  5-MIN KMSN 260105Z 00000KT 10SM CLR 05/01 A3012 680 76 -300 000/00 RMK AO2
14837KMSN MSN20051025191009310/25/05 19:10:31  5-MIN KMSN 260110Z 34003KT 10SM CLR 06/01 A3012 680 70 -200 340/03 RMK AO2
14837KMSN MSN20051025191509310/25/05 19:15:31  5-MIN KMSN 260115Z 00000KT 10SM CLR 06/01 A3012 680 73 -200 000/00 RMK AO2
14837KMSN MSN20051025192009610/25/05 19:20:31  5-MIN KMSN 260120Z 00000KT 10SM FEW048 05/01 A3012 680 76 -300 000/00 RMK AO2
14837KMSN MSN20051025192509610/25/05 19:25:31  5-MIN KMSN 260125Z 00000KT 10SM SCT048 05/01 A3012 680 76 -300 000/00 RMK AO2
14837KMSN MSN20051025193009610/25/05 19:30:31  5-MIN KMSN 260130Z 00000KT 10SM SCT048 05/01 A3012 680 76 -300 000/00 RMK AO2
14837KMSN MSN20051025193509610/25/05 19:35:31  5-MIN KMSN 260135Z 00000KT 10SM SCT046 05/02 A3012 680 79 -300 000/00 RMK AO2
14837KMSN MSN20051025194009610/25/05 19:40:31  5-MIN KMSN 260140Z 00000KT 10SM BKN046 05/02 A3011 690 79 -300 000/00 RMK AO2
14837KMSN MSN20051025194509610/25/05 19:45:31  5-MIN KMSN 260145Z 00000KT 10SM SCT046 05/02 A3012 680 79 -300 000/00 RMK AO2
14837KMSN MSN20051025195011310/25/05 19:50:31  5-MIN KMSN 260150Z 00000KT 10SM SCT046 05/01 A3012 680 76 -300 000/00 RMK AO2 SLP206 T00500011
14837KMSN MSN20051025195509610/25/05 19:55:31  5-MIN KMSN 260155Z 00000KT 10SM FEW046 04/01 A3011 690 76 -300 000/00 RMK AO2
14837KMSN MSN20051025200009610/25/05 20:00:31  5-MIN KMSN 260200Z 00000KT 10SM FEW046 05/01 A3011 690 73 -300 000/00 RMK AO2
14837KMSN MSN20051025200509310/25/05 20:05:31  5-MIN KMSN 260205Z 00000KT 10SM CLR 05/01 A3011 690 76 -300 000/00 RMK AO2
14837KMSN MSN20051025201009310/25/05 20:10:31  5-MIN KMSN 260210Z 00000KT 10SM CLR 04/01 A3011 690 79 -300 000/00 RMK AO2
14837KMSN MSN20051025201509310/25/05 20:15:31  5-MIN KMSN 260215Z 00000KT 10SM CLR 04/01 A3011 690 79 -300 000/00 RMK AO2
14837KMSN MSN20051025202009310/25/05 20:20:31  5-MIN KMSN 260220Z 00000KT 10SM CLR 04/02 A3011 690 82 -300 000/00 RMK AO2
14837KMSN MSN20051025202509310/25/05 20:25:31  5-MIN KMSN 260225Z 00000KT 10SM CLR 04/01 A3011 690 79 -300 000/00 RMK AO2
14837KMSN MSN20051025203009310/25/05 20:30:31  5-MIN KMSN 260230Z 00000KT 10SM CLR 04/01 A3011 690 79 -300 000/00 RMK AO2
14837KMSN MSN20051025203509310/25/05 20:35:31  5-MIN KMSN 260235Z 00000KT 10SM CLR 04/01 A3012 680 82 -400 000/00 RMK AO2
14837KMSN MSN20051025204009310/25/05 20:40:31  5-MIN KMSN 260240Z 00000KT 10SM CLR 04/01 A3011 690 79 -300 000/00 RMK AO2
14837KMSN MSN20051025204509310/25/05 20:45:31  5-MIN KMSN 260245Z 00000KT 10SM CLR 04/01 A3011 690 79 -300 000/00 RMK AO2
14837KMSN MSN20051025205011610/25/05 20:50:31  5-MIN KMSN 260250Z 00000KT 10SM CLR 04/01 A3011 690 79 -300 000/00 RMK AO2 SLP204 T00440011 53002
14837KMSN MSN20051025205509310/25/05 20:55:31  5-MIN KMSN 260255Z 00000KT 10SM CLR 04/01 A3011 690 82 -400 000/00 RMK AO2
14837KMSN MSN20051025210009310/25/05 21:00:31  5-MIN KMSN 260300Z 00000KT 10SM CLR 04/01 A3012 680 82 -400 000/00 RMK AO2
14837KMSN MSN20051025210509310/25/05 21:05:31  5-MIN KMSN 260305Z 00000KT 10SM CLR 04/01 A3012 680 82 -400 000/00 RMK AO2
14837KMSN MSN20051025211009310/25/05 21:10:31  5-MIN KMSN 260310Z 00000KT 10SM CLR 04/01 A3012 680 82 -400 000/00 RMK AO2
14837KMSN MSN20051025211509310/25/05 21:15:31  5-MIN KMSN 260315Z 00000KT 10SM CLR 04/01 A3012 680 82 -400 000/00 RMK AO2
14837KMSN MSN20051025212009310/25/05 21:20:31  5-MIN KMSN 260320Z 00000KT 10SM CLR 04/01 A3012 680 82 -400 000/00 RMK AO2
14837KMSN MSN20051025212509310/25/05 21:25:31  5-MIN KMSN 260325Z 35003KT 10SM CLR 04/01 A3012 680 79 -300 350/03 RMK AO2
14837KMSN MSN20051025213009310/25/05 21:30:31  5-MIN KMSN 260330Z 34003KT 10SM CLR 04/02 A3012 680 82 -300 340/03 RMK AO2
14837KMSN MSN20051025213509310/25/05 21:35:31  5-MIN KMSN 260335Z 34003KT 10SM CLR 04/01 A3012 680 79 -300 340/03 RMK AO2
14837KMSN MSN20051025214009310/25/05 21:40:31  5-MIN KMSN 260340Z 33003KT 10SM CLR 04/01 A3012 680 79 -300 330/03 RMK AO2
14837KMSN MSN20051025214509610/25/05 21:45:31  5-MIN KMSN 260345Z 34003KT 10SM FEW090 04/01 A3012 680 79 -300 340/03 RMK AO2
14837KMSN MSN20051025215011310/25/05 21:50:31  5-MIN KMSN 260350Z 34003KT 10SM FEW090 04/01 A3012 680 79 -300 340/03 RMK AO2 SLP204 T00440011
14837KMSN MSN20051025215509310/25/05 21:55:31  5-MIN KMSN 260355Z 00000KT 10SM CLR 04/01 A3012 680 79 -300 000/00 RMK AO2
14837KMSN MSN20051025220009610/25/05 22:00:31  5-MIN KMSN 260400Z 34003KT 10SM FEW090 04/01 A3012 680 82 -400 340/03 RMK AO2
14837KMSN MSN20051025220509610/25/05 22:05:31  5-MIN KMSN 260405Z 00000KT 10SM FEW090 04/01 A3011 690 82 -400 000/00 RMK AO2
14837KMSN MSN20051025221009610/25/05 22:10:31  5-MIN KMSN 260410Z 00000KT 10SM FEW090 04/01 A3011 690 82 -400 000/00 RMK AO2
14837KMSN MSN20051025221509610/25/05 22:15:31  5-MIN KMSN 260415Z 00000KT 10SM FEW090 03/01 A3011 690 85 -500 000/00 RMK AO2
14837KMSN MSN20051025222009610/25/05 22:20:31  5-MIN KMSN 260420Z 00000KT 10SM FEW090 03/01 A3011 690 85 -500 000/00 RMK AO2
14837KMSN MSN20051025222509610/25/05 22:25:31  5-MIN KMSN 260425Z 00000KT 10SM FEW090 04/01 A3011 690 82 -400 000/00 RMK AO2
14837KMSN MSN20051025223009610/25/05 22:30:31  5-MIN KMSN 260430Z 00000KT 10SM SCT100 04/02 A3011 690 85 -400 000/00 RMK AO2
14837KMSN MSN20051025223509610/25/05 22:35:31  5-MIN KMSN 260435Z 00000KT 10SM SCT100 03/02 A3011 690 89 -500 000/00 RMK AO2
14837KMSN MSN20051025224009610/25/05 22:40:31  5-MIN KMSN 260440Z 00000KT 10SM FEW100 03/01 A3011 690 85 -500 000/00 RMK AO2
14837KMSN MSN20051025224509610/25/05 22:45:31  5-MIN KMSN 260445Z 00000KT 10SM FEW100 03/01 A3011 690 85 -500 000/00 RMK AO2
14837KMSN MSN20051025225011310/25/05 22:50:31  5-MIN KMSN 260450Z 00000KT 10SM FEW100 03/01 A3011 690 85 -500 000/00 RMK AO2 SLP201 T00330011
14837KMSN MSN20051025225509610/25/05 22:55:31  5-MIN KMSN 260455Z 00000KT 10SM FEW100 03/01 A3011 690 85 -500 000/00 RMK AO2
14837KMSN MSN20051025230009310/25/05 23:00:31  5-MIN KMSN 260500Z 00000KT 10SM CLR 03/01 A3011 690 85 -500 000/00 RMK AO2
14837KMSN MSN20051025230509610/25/05 23:05:31  5-MIN KMSN 260505Z 00000KT 10SM FEW100 03/01 A3011 690 85 -500 000/00 RMK AO2
14837KMSN MSN20051025231009610/25/05 23:10:31  5-MIN KMSN 260510Z 00000KT 10SM FEW100 03/02 A3011 690 89 -500 000/00 RMK AO2
14837KMSN MSN20051025231509310/25/05 23:15:31  5-MIN KMSN 260515Z 00000KT 10SM CLR 03/01 A3011 690 85 -500 000/00 RMK AO2
14837KMSN MSN20051025232009310/25/05 23:20:31  5-MIN KMSN 260520Z 00000KT 10SM CLR 03/01 A3011 690 85 -500 000/00 RMK AO2
14837KMSN MSN20051025232509310/25/05 23:25:31  5-MIN KMSN 260525Z 00000KT 10SM CLR 03/01 A3011 690 85 -500 000/00 RMK AO2
14837KMSN MSN20051025233009310/25/05 23:30:31  5-MIN KMSN 260530Z 00000KT 10SM CLR 03/01 A3011 690 85 -500 000/00 RMK AO2
14837KMSN MSN20051025233509310/25/05 23:35:31  5-MIN KMSN 260535Z 00000KT 10SM CLR 03/01 A3011 690 89 -500 000/00 RMK AO2
14837KMSN MSN20051025234009310/25/05 23:40:31  5-MIN KMSN 260540Z 00000KT 10SM CLR 03/01 A3011 690 89 -500 000/00 RMK AO2
14837KMSN MSN20051025234509310/25/05 23:45:31  5-MIN KMSN 260545Z 00000KT 10SM CLR 03/01 A3011 690 85 -500 000/00 RMK AO2
14837KMSN MSN20051025235013810/25/05 23:50:31  5-MIN KMSN 260550Z 00000KT 10SM CLR 03/01 A3011 690 85 -500 000/00 RMK AO2 SLP202 T00330011 10061 20028 401110006 50000
14837KMSN MSN20051025235509310/25/05 23:55:31  5-MIN KMSN 260555Z 00000KT 10SM CLR 03/01 A3011 690 89 -500 000/00 RMK AO2
14837KMSN MSN20051026000009310/26/05 00:00:38  5-MIN KMSN 260600Z 00000KT 10SM CLR 03/01 A3011 690 89 -500 000/00 RMK AO2
14837KMSN MSN20051026000509310/26/05 00:05:31  5-MIN KMSN 260605Z 00000KT 10SM CLR 03/01 A3011 690 89 -500 000/00 RMK AO2
14837KMSN MSN20051026001009310/26/05 00:10:31  5-MIN KMSN 260610Z 00000KT 10SM CLR 03/01 A3011 690 89 -500 000/00 RMK AO2
14837KMSN MSN20051026001509610/26/05 00:15:31  5-MIN KMSN 260615Z 00000KT 10SM FEW100 03/02 A3011 690 92 -500 000/00 RMK AO2
14837KMSN MSN20051026002009610/26/05 00:20:31  5-MIN KMSN 260620Z 00000KT 10SM SCT100 03/02 A3011 690 92 -500 000/00 RMK AO2
14837KMSN MSN20051026002509610/26/05 00:25:31  5-MIN KMSN 260625Z 00000KT 10SM SCT100 03/01 A3011 690 89 -500 000/00 RMK AO2
14837KMSN MSN20051026003009610/26/05 00:30:31  5-MIN KMSN 260630Z 00000KT 10SM SCT100 03/01 A3011 690 89 -500 000/00 RMK AO2
14837KMSN MSN20051026003509610/26/05 00:35:31  5-MIN KMSN 260635Z 00000KT 10SM FEW100 02/01 A3011 690 92 -600 000/00 RMK AO2
14837KMSN MSN20051026004009610/26/05 00:40:31  5-MIN KMSN 260640Z 00000KT 10SM FEW100 03/01 A3011 690 89 -500 000/00 RMK AO2
14837KMSN MSN20051026004509610/26/05 00:45:31  5-MIN KMSN 260645Z 00000KT 10SM FEW100 03/01 A3011 690 89 -500 000/00 RMK AO2
14837KMSN MSN20051026005011310/26/05 00:50:31  5-MIN KMSN 260650Z 00000KT 10SM FEW100 02/01 A3011 690 92 -600 000/00 RMK AO2 SLP202 T00220011
14837KMSN MSN20051026005509310/26/05 00:55:31  5-MIN KMSN 260655Z 00000KT 10SM CLR 02/01 A3011 690 92 -600 000/00 RMK AO2
14837KMSN MSN20051026010009310/26/05 01:00:31  5-MIN KMSN 260700Z 00000KT 10SM CLR 02/01 A3011 690 96 -700 000/00 RMK AO2
14837KMSN MSN20051026010509310/26/05 01:05:31  5-MIN KMSN 260705Z 00000KT 10SM CLR 02/01 A3011 690 92 -700 000/00 RMK AO2
14837KMSN MSN20051026011009610/26/05 01:10:31  5-MIN KMSN 260710Z 00000KT 10SM SCT037 02/01 A3011 690 92 -700 000/00 RMK AO2
14837KMSN MSN20051026011509610/26/05 01:15:31  5-MIN KMSN 260715Z 00000KT 10SM BKN037 02/01 A3012 680 92 -700 000/00 RMK AO2
14837KMSN MSN20051026012009610/26/05 01:20:31  5-MIN KMSN 260720Z 00000KT 10SM BKN037 02/01 A3012 680 92 -700 000/00 RMK AO2
14837KMSN MSN20051026012509610/26/05 01:25:31  5-MIN KMSN 260725Z 00000KT 10SM BKN037 02/01 A3012 680 92 -600 000/00 RMK AO2
14837KMSN MSN20051026013009610/26/05 01:30:31  5-MIN KMSN 260730Z 00000KT 10SM OVC037 02/01 A3012 680 92 -700 000/00 RMK AO2
14837KMSN MSN20051026013509610/26/05 01:35:31  5-MIN KMSN 260735Z 00000KT 10SM OVC037 02/01 A3012 680 92 -700 000/00 RMK AO2
14837KMSN MSN20051026014009610/26/05 01:40:31  5-MIN KMSN 260740Z 00000KT 10SM OVC039 02/01 A3012 680 89 -600 000/00 RMK AO2
14837KMSN MSN20051026014509610/26/05 01:45:31  5-MIN KMSN 260745Z 00000KT 10SM OVC039 02/01 A3012 680 92 -600 000/00 RMK AO2
14837KMSN MSN20051026015011310/26/05 01:50:31  5-MIN KMSN 260750Z 00000KT 10SM OVC039 02/01 A3012 680 92 -600 000/00 RMK AO2 SLP204 T00220011
14837KMSN MSN20051026015509610/26/05 01:55:31  5-MIN KMSN 260755Z 00000KT 10SM OVC039 02/01 A3012 680 92 -600 000/00 RMK AO2
14837KMSN MSN20051026020009610/26/05 02:00:31  5-MIN KMSN 260800Z 00000KT 10SM OVC039 01/00 A3012 680 92 -800 000/00 RMK AO2
14837KMSN MSN20051026020509610/26/05 02:05:31  5-MIN KMSN 260805Z 00000KT 10SM OVC039 01/00 A3012 680 92 -800 000/00 RMK AO2
14837KMSN MSN20051026021009610/26/05 02:10:31  5-MIN KMSN 260810Z 00000KT 10SM OVC039 02/01 A3011 690 92 -700 000/00 RMK AO2
14837KMSN MSN20051026021509610/26/05 02:15:31  5-MIN KMSN 260815Z 00000KT 10SM OVC039 02/01 A3011 690 92 -700 000/00 RMK AO2
14837KMSN MSN20051026022009610/26/05 02:20:31  5-MIN KMSN 260820Z 00000KT 10SM OVC039 02/01 A3011 690 96 -700 000/00 RMK AO2
14837KMSN MSN20051026022509610/26/05 02:25:31  5-MIN KMSN 260825Z 00000KT 10SM OVC039 02/01 A3011 690 96 -700 000/00 RMK AO2
14837KMSN MSN20051026023009610/26/05 02:30:31  5-MIN KMSN 260830Z 00000KT 10SM OVC039 02/01 A3011 690 96 -700 000/00 RMK AO2
14837KMSN MSN20051026023509610/26/05 02:35:31  5-MIN KMSN 260835Z 00000KT 10SM OVC039 02/01 A3011 690 96 -700 000/00 RMK AO2
14837KMSN MSN20051026024009610/26/05 02:40:31  5-MIN KMSN 260840Z 00000KT 10SM OVC041 02/01 A3011 690 92 -600 000/00 RMK AO2
14837KMSN MSN20051026024509610/26/05 02:45:31  5-MIN KMSN 260845Z 00000KT 10SM OVC041 02/01 A3011 690 92 -600 000/00 RMK AO2
14837KMSN MSN20051026025011910/26/05 02:50:31  5-MIN KMSN 260850Z 00000KT 10SM OVC041 02/01 A3011 690 92 -600 000/00 RMK AO2 SLP202 T00220011 58002
14837KMSN MSN20051026025509610/26/05 02:55:31  5-MIN KMSN 260855Z 00000KT 10SM OVC041 02/01 A3011 690 92 -600 000/00 RMK AO2
14837KMSN MSN20051026030009610/26/05 03:00:31  5-MIN KMSN 260900Z 00000KT 10SM OVC041 02/01 A3011 690 92 -600 000/00 RMK AO2
14837KMSN MSN20051026030509610/26/05 03:05:31  5-MIN KMSN 260905Z 00000KT 10SM OVC041 02/01 A3011 690 92 -600 000/00 RMK AO2
14837KMSN MSN20051026031009610/26/05 03:10:31  5-MIN KMSN 260910Z 00000KT 10SM OVC041 03/01 A3011 690 89 -500 000/00 RMK AO2
14837KMSN MSN20051026031509610/26/05 03:15:31  5-MIN KMSN 260915Z 00000KT 10SM OVC039 02/01 A3011 690 92 -600 000/00 RMK AO2
14837KMSN MSN20051026032009610/26/05 03:20:31  5-MIN KMSN 260920Z 00000KT 10SM BKN039 02/01 A3011 690 89 -600 000/00 RMK AO2
14837KMSN MSN20051026032509610/26/05 03:25:31  5-MIN KMSN 260925Z 00000KT 10SM BKN039 02/01 A3011 690 92 -700 000/00 RMK AO2
14837KMSN MSN20051026033009610/26/05 03:30:31  5-MIN KMSN 260930Z 00000KT 10SM SCT039 02/01 A3011 690 92 -700 000/00 RMK AO2
14837KMSN MSN20051026033509610/26/05 03:35:31  5-MIN KMSN 260935Z 00000KT 10SM SCT039 01/01 A3011 690 96 -700 000/00 RMK AO2
14837KMSN MSN20051026034009610/26/05 03:40:31  5-MIN KMSN 260940Z 00000KT 10SM SCT039 01/01 A3011 690 96 -700 000/00 RMK AO2
14837KMSN MSN20051026034510310/26/05 03:45:31  5-MIN KMSN 260945Z 00000KT 10SM BKN041 BKN070 01/01 A3011 690 96 -700 000/00 RMK AO2
14837KMSN MSN20051026035012710/26/05 03:50:31  5-MIN KMSN 260950Z 00000KT 10SM SCT041 SCT055 BKN070 02/01 A3011 690 92 -700 000/00 RMK AO2 SLP202 T00170006
14837KMSN MSN20051026035510910/26/05 03:55:31  5-MIN KMSN 260955Z 00000KT 9SM FEW041 BKN055 BKN070 02/01 A3011 690 92 -700 000/00 RMK AO2
14837KMSN MSN20051026040010910/26/05 04:00:31  5-MIN KMSN 261000Z 00000KT 9SM FEW041 BKN050 OVC070 02/01 A3011 690 92 -700 000/00 RMK AO2
14837KMSN MSN20051026040510910/26/05 04:05:31  5-MIN KMSN 261005Z 00000KT 9SM FEW041 BKN050 OVC070 02/01 A3012 680 92 -700 000/00 RMK AO2
14837KMSN MSN20051026041010910/26/05 04:10:31  5-MIN KMSN 261010Z 00000KT 9SM FEW041 BKN050 OVC070 01/01 A3012 680 96 -800 000/00 RMK AO2
14837KMSN MSN20051026041509510/26/05 04:15:31  5-MIN KMSN 261015Z 00000KT 9SM OVC050 02/01 A3012 680 96 -700 000/00 RMK AO2
14837KMSN MSN20051026042009610/26/05 04:20:31  5-MIN KMSN 261020Z 00000KT 10SM OVC050 02/01 A3012 680 92 -600 000/00 RMK AO2
14837KMSN MSN20051026042510310/26/05 04:25:31  5-MIN KMSN 261025Z 00000KT 10SM FEW042 OVC050 02/01 A3012 680 96 -700 000/00 RMK AO2
14837KMSN MSN20051026043010310/26/05 04:30:31  5-MIN KMSN 261030Z 00000KT 10SM FEW042 OVC050 02/01 A3012 680 96 -700 000/00 RMK AO2
14837KMSN MSN20051026043509610/26/05 04:35:31  5-MIN KMSN 261035Z 00000KT 10SM OVC050 02/01 A3012 680 96 -700 000/00 RMK AO2
14837KMSN MSN20051026044010310/26/05 04:40:31  5-MIN KMSN 261040Z 33003KT 10SM FEW041 OVC050 02/01 A3012 680 96 -700 330/03 RMK AO2
14837KMSN MSN20051026044510310/26/05 04:45:31  5-MIN KMSN 261045Z 00000KT 10SM SCT041 OVC048 02/01 A3012 680 96 -700 000/00 RMK AO2
14837KMSN MSN20051026045011310/26/05 04:50:31  5-MIN KMSN 261050Z 00000KT 10SM OVC045 02/01 A3012 680 92 -600 000/00 RMK AO2 SLP206 T00220011
14837KMSN MSN20051026045509610/26/05 04:55:31  5-MIN KMSN 261055Z 00000KT 10SM OVC045 02/01 A3012 680 92 -600 000/00 RMK AO2
14837KMSN MSN20051026050009610/26/05 05:00:31  5-MIN KMSN 261100Z 00000KT 10SM OVC043 02/01 A3012 680 92 -600 000/00 RMK AO2
14837KMSN MSN20051026050509510/26/05 05:05:31  5-MIN KMSN 261105Z 00000KT 9SM OVC043 02/01 A3013 680 92 -600 000/00 RMK AO2
14837KMSN MSN20051026051009510/26/05 05:10:31  5-MIN KMSN 261110Z 00000KT 9SM OVC043 02/01 A3013 680 92 -600 000/00 RMK AO2
14837KMSN MSN20051026051509510/26/05 05:15:31  5-MIN KMSN 261115Z 34003KT 9SM OVC043 02/01 A3013 670 92 -600 340/03 RMK AO2
14837KMSN MSN20051026052009510/26/05 05:20:31  5-MIN KMSN 261120Z 00000KT 9SM OVC041 03/01 A3013 670 89 -600 000/00 RMK AO2
14837KMSN MSN20051026052509610/26/05 05:25:31  5-MIN KMSN 261125Z 00000KT 10SM OVC039 03/01 A3013 670 89 -600 000/00 RMK AO2
14837KMSN MSN20051026053009610/26/05 05:30:31  5-MIN KMSN 261130Z 00000KT 10SM OVC039 03/02 A3013 670 92 -600 000/00 RMK AO2
14837KMSN MSN20051026053509610/26/05 05:35:31  5-MIN KMSN 261135Z 00000KT 10SM OVC039 03/01 A3013 670 89 -600 000/00 RMK AO2
14837KMSN MSN20051026054009610/26/05 05:40:31  5-MIN KMSN 261140Z 00000KT 10SM OVC037 03/01 A3013 670 89 -600 000/00 RMK AO2
14837KMSN MSN20051026054509610/26/05 05:45:31  5-MIN KMSN 261145Z 00000KT 10SM OVC037 03/01 A3013 670 89 -600 000/00 RMK AO2
14837KMSN MSN20051026055013110/26/05 05:50:31  5-MIN KMSN 261150Z 00000KT 10SM OVC037 03/01 A3013 670 89 -600 000/00 RMK AO2 SLP211 T00280011 10028 20011 50001
14837KMSN MSN20051026055509610/26/05 05:55:31  5-MIN KMSN 261155Z 00000KT 10SM OVC037 03/01 A3013 670 89 -600 000/00 RMK AO2
14837KMSN MSN20051026060009610/26/05 06:00:31  5-MIN KMSN 261200Z 00000KT 10SM OVC037 03/02 A3013 670 92 -600 000/00 RMK AO2
14837KMSN MSN20051026060509610/26/05 06:05:31  5-MIN KMSN 261205Z 00000KT 10SM OVC037 03/02 A3013 670 92 -600 000/00 RMK AO2
14837KMSN MSN20051026061009610/26/05 06:10:31  5-MIN KMSN 261210Z 00000KT 10SM OVC037 03/02 A3013 670 92 -600 000/00 RMK AO2
14837KMSN MSN20051026061509610/26/05 06:15:31  5-MIN KMSN 261215Z 00000KT 10SM OVC037 03/02 A3014 670 92 -600 000/00 RMK AO2
14837KMSN MSN20051026062009610/26/05 06:20:31  5-MIN KMSN 261220Z 00000KT 10SM OVC037 03/02 A3014 670 92 -600 000/00 RMK AO2
14837KMSN MSN20051026062509610/26/05 06:25:31  5-MIN KMSN 261225Z 00000KT 10SM OVC037 03/02 A3014 670 92 -600 000/00 RMK AO2
14837KMSN MSN20051026063009610/26/05 06:30:31  5-MIN KMSN 261230Z 00000KT 10SM OVC037 03/01 A3014 670 85 -500 000/00 RMK AO2
14837KMSN MSN20051026063509610/26/05 06:35:31  5-MIN KMSN 261235Z 00000KT 10SM OVC039 03/02 A3014 660 89 -500 000/00 RMK AO2
14837KMSN MSN20051026064009610/26/05 06:40:31  5-MIN KMSN 261240Z 00000KT 10SM OVC039 03/02 A3014 660 89 -500 000/00 RMK AO2
14837KMSN MSN20051026064509510/26/05 06:45:31  5-MIN KMSN 261245Z 00000KT 9SM OVC039 03/02 A3014 660 89 -500 000/00 RMK AO2
14837KMSN MSN20051026065011210/26/05 06:50:31  5-MIN KMSN 261250Z 00000KT 9SM OVC039 03/02 A3015 660 89 -500 000/00 RMK AO2 SLP216 T00330017
14837KMSN MSN20051026065509510/26/05 06:55:31  5-MIN KMSN 261255Z 00000KT 9SM OVC039 03/02 A3015 650 89 -500 000/00 RMK AO2
14837KMSN MSN20051026070009510/26/05 07:00:31  5-MIN KMSN 261300Z 00000KT 8SM OVC041 03/02 A3015 650 89 -500 000/00 RMK AO2
14837KMSN MSN20051026070509510/26/05 07:05:31  5-MIN KMSN 261305Z 00000KT 8SM OVC041 03/02 A3015 650 89 -500 000/00 RMK AO2
14837KMSN MSN20051026071009510/26/05 07:10:31  5-MIN KMSN 261310Z 00000KT 9SM OVC041 04/02 A3015 650 85 -400 000/00 RMK AO2
14837KMSN MSN20051026071509510/26/05 07:15:31  5-MIN KMSN 261315Z 00000KT 9SM OVC041 04/02 A3015 650 85 -400 000/00 RMK AO2
14837KMSN MSN20051026072009510/26/05 07:20:31  5-MIN KMSN 261320Z 00000KT 9SM OVC041 04/02 A3015 650 85 -400 000/00 RMK AO2
14837KMSN MSN20051026072509510/26/05 07:25:31  5-MIN KMSN 261325Z 00000KT 9SM OVC041 04/02 A3015 650 85 -500 000/00 RMK AO2
14837KMSN MSN20051026073009510/26/05 07:30:31  5-MIN KMSN 261330Z 00000KT 9SM OVC041 04/02 A3016 650 85 -500 000/00 RMK AO2
14837KMSN MSN20051026073509510/26/05 07:35:31  5-MIN KMSN 261335Z 00000KT 9SM OVC041 04/02 A3016 640 85 -500 000/00 RMK AO2
14837KMSN MSN20051026074009510/26/05 07:40:31  5-MIN KMSN 261340Z 00000KT 9SM OVC041 04/02 A3016 640 89 -500 000/00 RMK AO2
14837KMSN MSN20051026074509510/26/05 07:45:31  5-MIN KMSN 261345Z 00000KT 9SM OVC041 04/02 A3016 640 82 -400 000/00 RMK AO2
14837KMSN MSN20051026075011210/26/05 07:50:31  5-MIN KMSN 261350Z 35003KT 8SM OVC041 04/02 A3016 640 85 -400 340/03 RMK AO2 SLP221 T00440022
14837KMSN MSN20051026075509510/26/05 07:55:31  5-MIN KMSN 261355Z 00000KT 8SM OVC041 04/02 A3016 640 85 -400 000/00 RMK AO2
14837KMSN MSN20051026080009510/26/05 08:00:31  5-MIN KMSN 261400Z 35003KT 8SM OVC039 04/03 A3016 640 89 -400 350/03 RMK AO2
14837KMSN MSN20051026080509510/26/05 08:05:31  5-MIN KMSN 261405Z 34003KT 8SM OVC039 04/02 A3017 640 85 -400 340/03 RMK AO2
14837KMSN MSN20051026081009510/26/05 08:10:31  5-MIN KMSN 261410Z 00000KT 9SM OVC039 04/03 A3017 640 89 -400 000/00 RMK AO2
14837KMSN MSN20051026081509510/26/05 08:15:31  5-MIN KMSN 261415Z 00000KT 9SM OVC037 05/03 A3017 640 85 -300 000/00 RMK AO2
14837KMSN MSN20051026082009510/26/05 08:20:31  5-MIN KMSN 261420Z 35003KT 9SM OVC037 05/03 A3017 640 85 -300 350/03 RMK AO2
14837KMSN MSN20051026082509610/26/05 08:25:31  5-MIN KMSN 261425Z 00000KT 10SM OVC037 05/03 A3017 630 85 -300 000/00 RMK AO2
14837KMSN MSN20051026083009610/26/05 08:30:31  5-MIN KMSN 261430Z 36003KT 10SM OVC037 06/03 A3017 630 82 -300 360/03 RMK AO2
14837KMSN MSN20051026083510310/26/05 08:35:31  5-MIN KMSN 261435Z 04005KT 10SM BKN037 OVC044 06/03 A3017 630 82 -300 030/05 RMK AO2
14837KMSN MSN20051026084010310/26/05 08:40:31  5-MIN KMSN 261440Z 03003KT 10SM BKN037 OVC044 06/02 A3017 630 76 -200 030/03 RMK AO2
14837KMSN MSN20051026084511010/26/05 08:45:31  5-MIN KMSN 261445Z 04004KT 10SM BKN037 BKN044 OVC060 06/02 A3017 630 76 -200 040/04 RMK AO2
14837KMSN MSN20051026085013310/26/05 08:50:31  5-MIN KMSN 261450Z 02003KT 10SM SCT037 BKN044 OVC060 06/02 A3017 630 76 -200 020/03 RMK AO2 SLP223 T00610022 53008
14837KMSN MSN20051026085511010/26/05 08:55:31  5-MIN KMSN 261455Z 02003KT 10SM FEW037 SCT044 OVC060 07/02 A3017 630 73 -100 020/03 RMK AO2
14837KMSN MSN20051026090010310/26/05 09:00:31  5-MIN KMSN 261500Z 05005KT 10SM SCT042 OVC060 07/02 A3017 630 73 -100 050/05 RMK AO2
14837KMSN MSN20051026090511010/26/05 09:05:31  5-MIN KMSN 261505Z 04005KT 10SM FEW042 BKN060 OVC085 07/02 A3017 630 70 -100 040/05 RMK AO2
14837KMSN MSN20051026091010310/26/05 09:10:31  5-MIN KMSN 261510Z 03004KT 10SM SCT060 OVC085 07/02 A3017 640 70 -100 030/04 RMK AO2
14837KMSN MSN20051026091510310/26/05 09:15:31  5-MIN KMSN 261515Z VRB03KT 10SM SCT060 BKN085 07/02 A3017 630 70 -100 VRB/03 RMK AO2
14837KMSN MSN20051026092010310/26/05 09:20:31  5-MIN KMSN 261520Z 05004KT 10SM SCT060 BKN085 07/02 A3017 630 68 -100 050/04 RMK AO2
14837KMSN MSN20051026092510310/26/05 09:25:31  5-MIN KMSN 261525Z 04004KT 10SM SCT060 BKN085 07/01 A3017 630 65 -100 040/04 RMK AO2
14837KMSN MSN20051026093009610/26/05 09:30:31  5-MIN KMSN 261530Z 04005KT 10SM BKN085 07/01 A3017 630 65 -100 030/05 RMK AO2
14837KMSN MSN20051026093509610/26/05 09:35:31  5-MIN KMSN 261535Z 04004KT 10SM BKN085 07/01 A3017 630 62 -100 040/04 RMK AO2
14837KMSN MSN20051026094009310/26/05 09:40:31  5-MIN KMSN 261540Z VRB04KT 10SM BKN085 08/01 A3017 630 60 0 VRB/04 RMK AO2
14837KMSN MSN20051026094509310/26/05 09:45:31  5-MIN KMSN 261545Z 00000KT 10SM BKN085 08/01 A3017 630 62 0 000/00 RMK AO2
14837KMSN MSN20051026095011010/26/05 09:50:31  5-MIN KMSN 261550Z 06003KT 10SM BKN085 08/01 A3018 630 62 0 060/03 RMK AO2 SLP224 T00780011
14837KMSN MSN20051026095510710/26/05 09:55:31  5-MIN KMSN 261555Z 08004KT 10SM FEW046 SCT055 BKN085 08/01 A3018 630 60 0 080/04 RMK AO2
14837KMSN MSN20051026100010710/26/05 10:00:31  5-MIN KMSN 261600Z 00000KT 10SM FEW046 SCT055 BKN085 08/01 A3018 630 58 0 000/00 RMK AO2
14837KMSN MSN20051026100510710/26/05 10:05:31  5-MIN KMSN 261605Z 00000KT 10SM FEW046 SCT055 BKN085 08/01 A3018 630 58 0 000/00 RMK AO2
14837KMSN MSN20051026101010710/26/05 10:10:31  5-MIN KMSN 261610Z VRB03KT 10SM FEW046 SCT055 BKN085 08/01 A3018 630 58 0 VRB/03 RMK AO2
14837KMSN MSN20051026101510210/26/05 10:15:31  5-MIN KMSN 261615Z VRB04KT 10SM FEW046 OVC055 09/01 A3018 630 56 200 VRB/04 RMK AO2
14837KMSN MSN20051026102010010/26/05 10:20:31  5-MIN KMSN 261620Z 00000KT 10SM SCT048 OVC055 08/01 A3018 630 58 0 000/00 RMK AO2
14837KMSN MSN20051026102510210/26/05 10:25:31  5-MIN KMSN 261625Z VRB03KT 10SM BKN048 OVC055 09/01 A3018 630 58 100 VRB/03 RMK AO2
14837KMSN MSN20051026103010010/26/05 10:30:31  5-MIN KMSN 261630Z VRB04KT 10SM BKN048 OVC055 08/01 A3018 630 60 0 VRB/04 RMK AO2
14837KMSN MSN20051026103510010/26/05 10:35:31  5-MIN KMSN 261635Z 03004KT 10SM BKN046 OVC055 08/01 A3018 630 58 0 030/04 RMK AO2
14837KMSN MSN20051026104009510/26/05 10:40:31  5-MIN KMSN 261640Z 02005KT 10SM OVC046 09/01 A3018 620 58 100 020/05 RMK AO2
14837KMSN MSN20051026104510010/26/05 10:45:31  5-MIN KMSN 261645Z 01003KT 10SM BKN040 OVC048 08/01 A3018 620 58 0 010/03 RMK AO2
14837KMSN MSN20051026105011710/26/05 10:50:31  5-MIN KMSN 261650Z 00000KT 10SM SCT040 OVC047 08/01 A3018 620 58 0 000/00 RMK AO2 SLP226 T00830006
14837KMSN MSN20051026105510010/26/05 10:55:31  5-MIN KMSN 261655Z 35003KT 10SM SCT035 OVC046 08/01 A3018 620 58 0 350/03 RMK AO2
14837KMSN MSN20051026110010010/26/05 11:00:31  5-MIN KMSN 261700Z 04006KT 10SM BKN035 OVC046 08/01 A3018 630 58 0 040/06 RMK AO2
14837KMSN MSN20051026110510010/26/05 11:05:31  5-MIN KMSN 261705Z 03008KT 10SM BKN034 OVC046 08/01 A3018 620 60 0 030/08 RMK AO2
14837KMSN MSN20051026111010010/26/05 11:10:31  5-MIN KMSN 261710Z 04005KT 10SM BKN034 OVC046 08/01 A3018 630 60 0 040/05 RMK AO2
14837KMSN MSN20051026111510010/26/05 11:15:31  5-MIN KMSN 261715Z 06007KT 10SM SCT034 OVC046 08/01 A3018 630 60 0 060/07 RMK AO2
14837KMSN MSN20051026112010010/26/05 11:20:31  5-MIN KMSN 261720Z 05006KT 10SM SCT034 OVC046 08/01 A3018 630 60 0 050/06 RMK AO2
14837KMSN MSN20051026112510010/26/05 11:25:31  5-MIN KMSN 261725Z VRB04KT 10SM FEW032 OVC046 08/01 A3017 630 58 0 VRB/04 RMK AO2
14837KMSN MSN20051026113010010/26/05 11:30:31  5-MIN KMSN 261730Z 07004KT 10SM FEW032 OVC044 08/01 A3017 630 58 0 070/04 RMK AO2
14837KMSN MSN20051026113509310/26/05 11:35:31  5-MIN KMSN 261735Z 07005KT 10SM OVC044 08/01 A3017 630 60 0 070/05 RMK AO2
14837KMSN MSN20051026114009310/26/05 11:40:31  5-MIN KMSN 261740Z 01006KT 10SM OVC044 08/01 A3017 630 60 0 010/06 RMK AO2
14837KMSN MSN20051026114509310/26/05 11:45:31  5-MIN KMSN 261745Z 04004KT 10SM OVC044 08/01 A3017 630 60 0 040/04 RMK AO2
14837KMSN MSN20051026115013010/26/05 11:50:31  5-MIN KMSN 261750Z 01004KT 10SM OVC044 09/02 A3017 640 60 100 010/04 RMK AO2 SLP222 T00890017 10094 20028 51013
14837KMSN MSN20051026115510210/26/05 11:55:31  5-MIN KMSN 261755Z 36004KT 10SM FEW035 BKN044 09/01 A3017 640 58 100 350/04 RMK AO2
14837KMSN MSN20051026120010210/26/05 12:00:31  5-MIN KMSN 261800Z 35005KT 10SM FEW035 BKN044 09/01 A3017 640 58 100 340/05 RMK AO2
14837KMSN MSN20051026120510210/26/05 12:05:31  5-MIN KMSN 261805Z 32005KT 10SM FEW035 BKN044 09/01 A3016 640 56 200 310/05 RMK AO2
14837KMSN MSN20051026121010210/26/05 12:10:31  5-MIN KMSN 261810Z 00000KT 10SM FEW035 BKN044 09/01 A3017 640 58 100 000/00 RMK AO2
14837KMSN MSN20051026121509510/26/05 12:15:31  5-MIN KMSN 261815Z 34005KT 10SM BKN046 09/01 A3017 640 56 200 340/05 RMK AO2
14837KMSN MSN20051026122009510/26/05 12:20:31  5-MIN KMSN 261820Z VRB04KT 10SM BKN046 09/01 A3016 640 56 200 VRB/04 RMK AO2
14837KMSN MSN20051026122509510/26/05 12:25:31  5-MIN KMSN 261825Z VRB03KT 10SM BKN046 09/01 A3016 640 56 200 VRB/03 RMK AO2
14837KMSN MSN20051026123009310/26/05 12:30:31  5-MIN KMSN 261830Z 00000KT 10SM BKN046 08/01 A3016 640 60 0 000/00 RMK AO2
14837KMSN MSN20051026123509310/26/05 12:35:31  5-MIN KMSN 261835Z 00000KT 10SM BKN046 08/01 A3016 640 60 0 000/00 RMK AO2
14837KMSN MSN20051026124009510/26/05 12:40:31  5-MIN KMSN 261840Z 36008KT 10SM BKN046 09/01 A3016 640 58 100 360/08 RMK AO2
14837KMSN MSN20051026124510210/26/05 12:45:31  5-MIN KMSN 261845Z 01005KT 10SM BKN034 BKN044 09/02 A3016 640 58 200 010/05 RMK AO2
14837KMSN MSN20051026125011910/26/05 12:50:31  5-MIN KMSN 261850Z 00000KT 10SM BKN034 BKN044 09/01 A3016 640 58 100 000/00 RMK AO2 SLP218 T00890011
14837KMSN MSN20051026125510210/26/05 12:55:31  5-MIN KMSN 261855Z 01006KT 10SM BKN036 BKN044 09/01 A3016 650 58 100 010/06 RMK AO2
14837KMSN MSN20051026130010210/26/05 13:00:31  5-MIN KMSN 261900Z 36009KT 10SM BKN038 BKN044 09/01 A3016 650 58 100 360/09 RMK AO2
14837KMSN MSN20051026130509510/26/05 13:05:31  5-MIN KMSN 261905Z 34006KT 10SM BKN040 09/01 A3016 650 56 200 340/06 RMK AO2
14837KMSN MSN20051026131009510/26/05 13:10:31  5-MIN KMSN 261910Z 34007KT 10SM BKN040 09/01 A3016 650 56 200 340/07 RMK AO2
14837KMSN MSN20051026131511110/26/05 13:15:31  5-MIN KMSN 261915Z 35007KT 310V010 10SM BKN040 09/01 A3016 650 56 200 350/07 310V010 RMK AO2
14837KMSN MSN20051026132009510/26/05 13:20:31  5-MIN KMSN 261920Z 01009KT 10SM BKN040 09/01 A3016 650 56 200 010/09 RMK AO2
14837KMSN MSN20051026132509510/26/05 13:25:31  5-MIN KMSN 261925Z 35007KT 10SM OVC040 09/01 A3016 650 58 100 350/07 RMK AO2
14837KMSN MSN20051026133009510/26/05 13:30:31  5-MIN KMSN 261930Z 01010KT 10SM OVC040 09/01 A3016 650 58 100 010/10 RMK AO2
14837KMSN MSN20051026133509510/26/05 13:35:31  5-MIN KMSN 261935Z 35006KT 10SM OVC040 09/01 A3016 650 56 100 350/06 RMK AO2
14837KMSN MSN20051026134009510/26/05 13:40:31  5-MIN KMSN 261940Z 36008KT 10SM OVC040 09/01 A3016 640 58 100 360/08 RMK AO2
14837KMSN MSN20051026134509510/26/05 13:45:31  5-MIN KMSN 261945Z 36007KT 10SM OVC040 09/01 A3016 650 58 100 360/07 RMK AO2
14837KMSN MSN20051026135011210/26/05 13:50:31  5-MIN KMSN 261950Z 35007KT 10SM BKN040 09/01 A3016 650 53 200 350/07 RMK AO2 SLP218 T00940006
14837KMSN MSN20051026135509510/26/05 13:55:31  5-MIN KMSN 261955Z 35007KT 10SM BKN040 09/01 A3016 650 53 200 350/07 RMK AO2
14837KMSN MSN20051026140009510/26/05 14:00:31  5-MIN KMSN 262000Z 01007KT 10SM BKN040 09/01 A3016 650 53 200 010/07 RMK AO2
14837KMSN MSN20051026140509510/26/05 14:05:31  5-MIN KMSN 262005Z 33008KT 10SM BKN040 09/01 A3016 650 53 200 330/08 RMK AO2
14837KMSN MSN20051026141009510/26/05 14:10:31  5-MIN KMSN 262010Z 35006KT 10SM BKN040 09/00 A3016 650 51 200 350/06 RMK AO2
14837KMSN MSN20051026141509510/26/05 14:15:31  5-MIN KMSN 262015Z 34007KT 10SM BKN040 09/00 A3016 640 51 200 340/07 RMK AO2
14837KMSN MSN20051026142009510/26/05 14:20:31  5-MIN KMSN 262020Z 01010KT 10SM BKN040 09/01 A3016 640 53 200 010/10 RMK AO2
14837KMSN MSN20051026142509510/26/05 14:25:31  5-MIN KMSN 262025Z 01008KT 10SM BKN040 09/01 A3016 640 53 200 010/08 RMK AO2
14837KMSN MSN20051026143009510/26/05 14:30:31  5-MIN KMSN 262030Z 01008KT 10SM BKN040 09/01 A3016 640 53 200 010/08 RMK AO2
14837KMSN MSN20051026143509510/26/05 14:35:31  5-MIN KMSN 262035Z 35007KT 10SM BKN040 09/01 A3016 640 53 200 350/07 RMK AO2
14837KMSN MSN20051026144009510/26/05 14:40:31  5-MIN KMSN 262040Z 35006KT 10SM BKN040 09/00 A3016 640 53 100 350/06 RMK AO2
14837KMSN MSN20051026144509510/26/05 14:45:31  5-MIN KMSN 262045Z 34009KT 10SM BKN040 09/00 A3016 640 53 100 340/09 RMK AO2
14837KMSN MSN20051026145011810/26/05 14:50:31  5-MIN KMSN 262050Z 36010KT 10SM OVC044 09/01 A3016 640 56 100 360/10 RMK AO2 SLP221 T00890006 58001
14837KMSN MSN20051026145509510/26/05 14:55:31  5-MIN KMSN 262055Z 35009KT 10SM OVC046 09/01 A3017 640 56 100 350/09 RMK AO2
14837KMSN MSN20051026150009510/26/05 15:00:31  5-MIN KMSN 262100Z 01011KT 10SM OVC046 09/01 A3016 640 56 100 010/11 RMK AO2
14837KMSN MSN20051026150509510/26/05 15:05:31  5-MIN KMSN 262105Z 02009KT 10SM OVC046 09/01 A3016 640 56 100 010/09 RMK AO2
14837KMSN MSN20051026151009510/26/05 15:10:31  5-MIN KMSN 262110Z 01008KT 10SM OVC046 09/00 A3016 640 53 100 010/08 RMK AO2
14837KMSN MSN20051026151509310/26/05 15:15:31  5-MIN KMSN 262115Z 01007KT 10SM BKN046 08/01 A3016 640 58 0 360/07 RMK AO2
14837KMSN MSN20051026152009310/26/05 15:20:31  5-MIN KMSN 262120Z 36007KT 10SM BKN046 08/00 A3016 640 55 0 360/07 RMK AO2
14837KMSN MSN20051026152509310/26/05 15:25:31  5-MIN KMSN 262125Z 36010KT 10SM BKN046 08/01 A3016 640 58 0 360/10 RMK AO2
14837KMSN MSN20051026153009310/26/05 15:30:31  5-MIN KMSN 262130Z 35008KT 10SM BKN046 08/00 A3016 640 55 0 350/08 RMK AO2
14837KMSN MSN20051026153509310/26/05 15:35:31  5-MIN KMSN 262135Z 36009KT 10SM BKN046 08/00 A3016 640 58 0 360/09 RMK AO2
14837KMSN MSN20051026154009310/26/05 15:40:31  5-MIN KMSN 262140Z 35006KT 10SM BKN046 08/00 A3016 640 58 0 350/06 RMK AO2
14837KMSN MSN20051026154509310/26/05 15:45:31  5-MIN KMSN 262145Z 35005KT 10SM BKN046 08/00 A3016 640 55 0 350/05 RMK AO2
14837KMSN MSN20051026155011010/26/05 15:50:31  5-MIN KMSN 262150Z 36007KT 10SM SCT046 08/00 A3016 640 55 0 360/07 RMK AO2 SLP221 T00830000
14837KMSN MSN20051026155509310/26/05 15:55:31  5-MIN KMSN 262155Z 01007KT 10SM FEW044 08/00 A3016 640 55 0 010/07 RMK AO2
14837KMSN MSN20051026160009310/26/05 16:00:31  5-MIN KMSN 262200Z 01011KT 10SM SCT044 08/00 A3016 640 55 0 010/11 RMK AO2
14837KMSN MSN20051026160509310/26/05 16:05:31  5-MIN KMSN 262205Z 01009KT 10SM SCT044 08/00 A3016 640 58 0 010/09 RMK AO2
14837KMSN MSN20051026161009410/26/05 16:10:31  5-MIN KMSN 262210Z 01008KT 10SM SCT044 08/M01 A3016 640 55 0 010/08 RMK AO2
14837KMSN MSN20051026161509410/26/05 16:15:31  5-MIN KMSN 262215Z 01008KT 10SM SCT044 08/M01 A3017 640 55 0 010/08 RMK AO2
14837KMSN MSN20051026162009610/26/05 16:20:31  5-MIN KMSN 262220Z 01007KT 10SM SCT044 07/00 A3017 640 60 -100 010/07 RMK AO2
14837KMSN MSN20051026162509710/26/05 16:25:31  5-MIN KMSN 262225Z 36006KT 10SM SCT044 07/M01 A3017 640 60 -100 360/06 RMK AO2
14837KMSN MSN20051026163009710/26/05 16:30:31  5-MIN KMSN 262230Z 36006KT 10SM SCT040 06/M01 A3017 640 62 -200 360/06 RMK AO2
14837KMSN MSN20051026163509710/26/05 16:35:31  5-MIN KMSN 262235Z 35004KT 10SM SCT040 07/M01 A3017 630 60 -100 350/04 RMK AO2
14837KMSN MSN20051026164009710/26/05 16:40:31  5-MIN KMSN 262240Z 35004KT 10SM SCT040 07/M01 A3017 630 60 -100 350/04 RMK AO2
14837KMSN MSN20051026164509710/26/05 16:45:31  5-MIN KMSN 262245Z 35004KT 10SM SCT040 07/M01 A3017 630 60 -100 340/04 RMK AO2
14837KMSN MSN20051026165011410/26/05 16:50:31  5-MIN KMSN 262250Z 33003KT 10SM SCT043 07/M01 A3018 630 60 -100 330/03 RMK AO2 SLP225 T00671006
14837KMSN MSN20051026165509710/26/05 16:55:31  5-MIN KMSN 262255Z 00000KT 10SM SCT043 06/M01 A3018 630 62 -200 000/00 RMK AO2
14837KMSN MSN20051026170009710/26/05 17:00:31  5-MIN KMSN 262300Z 00000KT 10SM SCT043 07/M01 A3018 630 60 -100 000/00 RMK AO2
14837KMSN MSN20051026170509610/26/05 17:05:31  5-MIN KMSN 262305Z 00000KT 10SM BKN043 06/00 A3018 630 65 -200 000/00 RMK AO2
14837KMSN MSN20051026171009610/26/05 17:10:31  5-MIN KMSN 262310Z 00000KT 10SM BKN043 05/00 A3018 630 70 -300 000/00 RMK AO2
14837KMSN MSN20051026171509610/26/05 17:15:31  5-MIN KMSN 262315Z 00000KT 10SM OVC043 05/00 A3018 630 70 -300 000/00 RMK AO2
14837KMSN MSN20051026172009610/26/05 17:20:31  5-MIN KMSN 262320Z 32003KT 10SM BKN043 05/00 A3018 620 70 -300 320/03 RMK AO2
14837KMSN MSN20051026172509610/26/05 17:25:31  5-MIN KMSN 262325Z 36005KT 10SM BKN043 06/00 A3018 620 67 -300 360/05 RMK AO2
14837KMSN MSN20051026173009610/26/05 17:30:31  5-MIN KMSN 262330Z 02005KT 10SM BKN043 06/00 A3019 620 67 -300 020/05 RMK AO2
14837KMSN MSN20051026173509610/26/05 17:35:31  5-MIN KMSN 262335Z 02004KT 10SM BKN043 05/00 A3019 620 70 -400 020/04 RMK AO2
14837KMSN MSN20051026174009610/26/05 17:40:31  5-MIN KMSN 262340Z 02004KT 10SM BKN043 05/01 A3019 620 73 -400 020/04 RMK AO2
14837KMSN MSN20051026174509610/26/05 17:45:31  5-MIN KMSN 262345Z 35003KT 10SM BKN043 06/00 A3019 610 65 -200 340/03 RMK AO2
14837KMSN MSN20051026175013110/26/05 17:50:31  5-MIN KMSN 262350Z 36003KT 10SM BKN041 06/00 A3019 610 65 -200 360/03 RMK AO2 SLP231 T00610000 10094 20050 55001
14837KMSN MSN20051026175509610/26/05 17:55:31  5-MIN KMSN 262355Z 36004KT 10SM BKN041 06/00 A3020 610 65 -200 360/04 RMK AO2
14837KMSN MSN20051026180009610/26/05 18:00:31  5-MIN KMSN 270000Z 02003KT 10SM BKN041 06/00 A3020 610 67 -300 020/03 RMK AO2
14837KMSN MSN20051026180509610/26/05 18:05:31  5-MIN KMSN 270005Z 02003KT 10SM BKN041 06/00 A3020 610 67 -300 020/03 RMK AO2
14837KMSN MSN20051026181009610/26/05 18:10:31  5-MIN KMSN 270010Z 00000KT 10SM BKN041 05/00 A3020 610 70 -400 000/00 RMK AO2
14837KMSN MSN20051026181509610/26/05 18:15:31  5-MIN KMSN 270015Z 03003KT 10SM BKN041 05/00 A3020 600 70 -400 030/03 RMK AO2
14837KMSN MSN20051026182009610/26/05 18:20:31  5-MIN KMSN 270020Z 00000KT 10SM BKN041 05/00 A3021 600 70 -400 000/00 RMK AO2
14837KMSN MSN20051026182509610/26/05 18:25:31  5-MIN KMSN 270025Z 00000KT 10SM BKN041 04/01 A3021 600 76 -400 000/00 RMK AO2
14837KMSN MSN20051026183009610/26/05 18:30:31  5-MIN KMSN 270030Z 00000KT 10SM BKN041 04/00 A3021 600 73 -400 000/00 RMK AO2
14837KMSN MSN20051026183509610/26/05 18:35:31  5-MIN KMSN 270035Z 00000KT 10SM BKN041 03/00 A3021 600 79 -600 000/00 RMK AO2
14837KMSN MSN20051026184009610/26/05 18:40:31  5-MIN KMSN 270040Z 00000KT 10SM BKN041 03/00 A3021 590 79 -600 000/00 RMK AO2
14837KMSN MSN20051026184509610/26/05 18:45:31  5-MIN KMSN 270045Z 00000KT 10SM BKN041 04/00 A3021 590 76 -500 000/00 RMK AO2
14837KMSN MSN20051026185011310/26/05 18:50:31  5-MIN KMSN 270050Z 00000KT 10SM SCT041 04/00 A3022 590 76 -500 000/00 RMK AO2 SLP240 T00390000
14837KMSN MSN20051026185509610/26/05 18:55:31  5-MIN KMSN 270055Z 00000KT 10SM BKN041 03/00 A3022 590 79 -600 000/00 RMK AO2
14837KMSN MSN20051026190009610/26/05 19:00:31  5-MIN KMSN 270100Z 00000KT 10SM BKN041 03/00 A3022 590 79 -600 000/00 RMK AO2
14837KMSN MSN20051026190509610/26/05 19:05:31  5-MIN KMSN 270105Z 00000KT 10SM BKN041 04/00 A3022 590 76 -500 000/00 RMK AO2
14837KMSN MSN20051026191009610/26/05 19:10:31  5-MIN KMSN 270110Z 00000KT 10SM OVC041 03/00 A3022 590 79 -600 000/00 RMK AO2
14837KMSN MSN20051026191509610/26/05 19:15:31  5-MIN KMSN 270115Z 00000KT 10SM OVC041 03/00 A3022 590 79 -600 000/00 RMK AO2
14837KMSN MSN20051026192009610/26/05 19:20:31  5-MIN KMSN 270120Z 00000KT 10SM BKN041 03/00 A3022 590 79 -600 000/00 RMK AO2
14837KMSN MSN20051026192509610/26/05 19:25:31  5-MIN KMSN 270125Z 00000KT 10SM SCT041 03/00 A3022 590 79 -600 000/00 RMK AO2
14837KMSN MSN20051026193009710/26/05 19:30:31  5-MIN KMSN 270130Z 00000KT 10SM SCT041 03/M01 A3022 590 79 -700 000/00 RMK AO2
14837KMSN MSN20051026193509710/26/05 19:35:31  5-MIN KMSN 270135Z 00000KT 10SM FEW041 02/M01 A3022 580 82 -700 000/00 RMK AO2
14837KMSN MSN20051026194009710/26/05 19:40:31  5-MIN KMSN 270140Z 34003KT 10SM FEW041 03/M01 A3023 580 79 -700 340/03 RMK AO2
14837KMSN MSN20051026194509710/26/05 19:45:31  5-MIN KMSN 270145Z 00000KT 10SM FEW041 02/M01 A3022 580 82 -700 000/00 RMK AO2
14837KMSN MSN20051026195011410/26/05 19:50:31  5-MIN KMSN 270150Z 36004KT 10SM FEW041 02/M01 A3023 580 82 -700 360/04 RMK AO2 SLP245 T00221006
14837KMSN MSN20051026195509610/26/05 19:55:31  5-MIN KMSN 270155Z 35003KT 10SM BKN041 02/00 A3023 580 85 -700 350/03 RMK AO2
14837KMSN MSN20051026200009610/26/05 20:00:31  5-MIN KMSN 270200Z 33003KT 10SM BKN041 02/00 A3023 580 85 -700 330/03 RMK AO2
14837KMSN MSN20051026200509610/26/05 20:05:31  5-MIN KMSN 270205Z 00000KT 10SM BKN041 02/00 A3024 570 85 -800 000/00 RMK AO2
14837KMSN MSN20051026201009710/26/05 20:10:31  5-MIN KMSN 270210Z 00000KT 10SM BKN039 02/M01 A3024 570 85 -800 000/00 RMK AO2
14837KMSN MSN20051026201509710/26/05 20:15:31  5-MIN KMSN 270215Z 00000KT 10SM BKN039 02/M01 A3024 570 85 -800 000/00 RMK AO2
14837KMSN MSN20051026202009710/26/05 20:20:31  5-MIN KMSN 270220Z 00000KT 10SM BKN039 02/M01 A3024 570 85 -800 000/00 RMK AO2
14837KMSN MSN20051026202509710/26/05 20:25:31  5-MIN KMSN 270225Z 00000KT 10SM BKN039 02/M01 A3024 570 82 -800 000/00 RMK AO2
14837KMSN MSN20051026203009610/26/05 20:30:31  5-MIN KMSN 270230Z 00000KT 10SM BKN039 02/00 A3024 570 89 -800 000/00 RMK AO2
14837KMSN MSN20051026203509610/26/05 20:35:31  5-MIN KMSN 270235Z 00000KT 10SM BKN039 02/00 A3024 570 89 -800 000/00 RMK AO2
14837KMSN MSN20051026204009610/26/05 20:40:31  5-MIN KMSN 270240Z 00000KT 10SM BKN039 02/00 A3024 570 89 -800 000/00 RMK AO2
14837KMSN MSN20051026204509610/26/05 20:45:31  5-MIN KMSN 270245Z 33003KT 10SM BKN039 02/00 A3024 570 89 -800 330/03 RMK AO2
14837KMSN MSN20051026205012010/26/05 20:50:31  5-MIN KMSN 270250Z 00000KT 10SM BKN039 01/M01 A3024 570 89 -900 000/00 RMK AO2 SLP249 T00111006 53010
14837KMSN MSN20051026205509710/26/05 20:55:31  5-MIN KMSN 270255Z 00000KT 10SM BKN039 01/M01 A3024 570 89 -900 000/00 RMK AO2
14837KMSN MSN20051026210009810/26/05 21:00:31  5-MIN KMSN 270300Z 00000KT 10SM BKN039 01/M01 A3025 560 92 -1000 000/00 RMK AO2
14837KMSN MSN20051026210509710/26/05 21:05:31  5-MIN KMSN 270305Z 00000KT 10SM BKN039 01/M01 A3025 560 89 -900 000/00 RMK AO2
14837KMSN MSN20051026211009710/26/05 21:10:31  5-MIN KMSN 270310Z 00000KT 10SM BKN039 01/M01 A3025 560 89 -900 000/00 RMK AO2
14837KMSN MSN20051026211509710/26/05 21:15:31  5-MIN KMSN 270315Z 00000KT 10SM BKN039 02/M01 A3025 560 85 -800 000/00 RMK AO2
14837KMSN MSN20051026212009710/26/05 21:20:31  5-MIN KMSN 270320Z 00000KT 10SM OVC039 02/M01 A3025 560 85 -800 000/00 RMK AO2
14837KMSN MSN20051026212509610/26/05 21:25:31  5-MIN KMSN 270325Z 00000KT 10SM OVC039 02/00 A3025 560 89 -800 000/00 RMK AO2
14837KMSN MSN20051026213009610/26/05 21:30:31  5-MIN KMSN 270330Z 00000KT 10SM OVC039 02/00 A3025 560 89 -800 000/00 RMK AO2
14837KMSN MSN20051026213509610/26/05 21:35:31  5-MIN KMSN 270335Z 00000KT 10SM OVC039 01/00 A3025 560 92 -900 000/00 RMK AO2
14837KMSN MSN20051026214009610/26/05 21:40:31  5-MIN KMSN 270340Z 00000KT 10SM OVC039 02/00 A3025 560 89 -800 000/00 RMK AO2
14837KMSN MSN20051026214509710/26/05 21:45:31  5-MIN KMSN 270345Z 00000KT 10SM BKN039 02/M01 A3025 560 85 -800 000/00 RMK AO2
14837KMSN MSN20051026215011410/26/05 21:50:31  5-MIN KMSN 270350Z 00000KT 10SM BKN039 01/M01 A3025 560 89 -900 000/00 RMK AO2 SLP252 T00111006
14837KMSN MSN20051026215509710/26/05 21:55:31  5-MIN KMSN 270355Z 00000KT 10SM OVC039 01/M01 A3026 560 89 -900 000/00 RMK AO2
14837KMSN MSN20051026220009710/26/05 22:00:31  5-MIN KMSN 270400Z 00000KT 10SM BKN039 01/M01 A3026 560 89 -900 000/00 RMK AO2
14837KMSN MSN20051026220509710/26/05 22:05:31  5-MIN KMSN 270405Z 00000KT 10SM SCT039 01/M01 A3026 560 89 -900 000/00 RMK AO2
14837KMSN MSN20051026221009710/26/05 22:10:31  5-MIN KMSN 270410Z 00000KT 10SM SCT039 01/M01 A3026 550 89 -900 000/00 RMK AO2
14837KMSN MSN20051026221509710/26/05 22:15:31  5-MIN KMSN 270415Z 00000KT 10SM FEW039 01/M01 A3026 550 89 -900 000/00 RMK AO2
14837KMSN MSN20051026222009810/26/05 22:20:31  5-MIN KMSN 270420Z 00000KT 10SM FEW039 01/M01 A3026 550 92 -1000 000/00 RMK AO2
14837KMSN MSN20051026222509510/26/05 22:25:31  5-MIN KMSN 270425Z 00000KT 10SM CLR 01/M01 A3026 550 92 -1000 000/00 RMK AO2
14837KMSN MSN20051026223009510/26/05 22:30:31  5-MIN KMSN 270430Z 00000KT 10SM CLR 00/M01 A3026 550 96 -1100 000/00 RMK AO2
14837KMSN MSN20051026223509610/26/05 22:35:31  5-MIN KMSN 270435Z 00000KT 10SM CLR M01/M01 A3026 550 96 -1100 000/00 RMK AO2
14837KMSN MSN20051026224009610/26/05 22:40:31  5-MIN KMSN 270440Z 00000KT 10SM CLR M01/M01 A3026 550 96 -1100 000/00 RMK AO2
14837KMSN MSN20051026224509410/26/05 22:45:31  5-MIN KMSN 270445Z 00000KT 9SM CLR 00/M01 A3026 550 92 -1100 000/00 RMK AO2
14837KMSN MSN20051026225011510/26/05 22:50:31  5-MIN KMSN 270450Z 36003KT 10SM FEW040 01/M01 A3026 550 89 -1000 360/03 RMK AO2 SLP254 T00061011
14837KMSN MSN20051026225509510/26/05 22:55:31  5-MIN KMSN 270455Z 00000KT 10SM CLR 00/M01 A3026 550 92 -1100 000/00 RMK AO2
14837KMSN MSN20051026230009510/26/05 23:00:31  5-MIN KMSN 270500Z 00000KT 10SM CLR 00/M01 A3026 550 92 -1100 000/00 RMK AO2
14837KMSN MSN20051026230509610/26/05 23:05:31  5-MIN KMSN 270505Z 36003KT 10SM CLR M01/M02 A3026 550 92 -1100 360/03 RMK AO2
14837KMSN MSN20051026231009510/26/05 23:10:31  5-MIN KMSN 270510Z 00000KT 9SM CLR M01/M01 A3026 550 96 -1100 000/00 RMK AO2
14837KMSN MSN20051026231509610/26/05 23:15:31  5-MIN KMSN 270515Z 33004KT 9SM CLR M01/M01 A3026 550 100 -1200 330/04 RMK AO2
14837KMSN MSN20051026232009510/26/05 23:20:31  5-MIN KMSN 270520Z 31004KT 9SM CLR M01/M02 A3026 550 96 -1200 310/04 RMK AO2
14837KMSN MSN20051026232509510/26/05 23:25:31  5-MIN KMSN 270525Z 31004KT 9SM CLR M02/M02 A3026 550 96 -1300 310/04 RMK AO2
14837KMSN MSN20051026233009510/26/05 23:30:31  5-MIN KMSN 270530Z 00000KT 9SM CLR M02/M02 A3026 550 96 -1300 000/00 RMK AO2
14837KMSN MSN20051026233509510/26/05 23:35:31  5-MIN KMSN 270535Z 00000KT 9SM CLR M01/M02 A3026 550 92 -1200 000/00 RMK AO2
14837KMSN MSN20051026234009510/26/05 23:40:31  5-MIN KMSN 270540Z 00000KT 9SM CLR M01/M02 A3027 550 96 -1200 000/00 RMK AO2
14837KMSN MSN20051026234509510/26/05 23:45:31  5-MIN KMSN 270545Z 00000KT 9SM CLR M01/M02 A3027 540 92 -1100 000/00 RMK AO2
14837KMSN MSN20051026235014010/26/05 23:50:31  5-MIN KMSN 270550Z 00000KT 9SM CLR M01/M02 A3027 540 96 -1200 000/00 RMK AO2 SLP258 T10111017 10061 21017 400941017 51016
14837KMSN MSN20051026235509510/26/05 23:55:31  5-MIN KMSN 270555Z 00000KT 8SM CLR M01/M02 A3027 540 96 -1200 000/00 RMK AO2
14837KMSN MSN20051027000009510/27/05 00:00:38  5-MIN KMSN 270600Z 36003KT 8SM CLR M01/M02 A3027 540 96 -1200 360/03 RMK AO2
14837KMSN MSN20051027000509510/27/05 00:05:31  5-MIN KMSN 270605Z 35003KT 8SM CLR M01/M02 A3028 540 96 -1200 350/03 RMK AO2
14837KMSN MSN20051027001009510/27/05 00:10:31  5-MIN KMSN 270610Z 00000KT 7SM CLR M02/M02 A3027 540 96 -1300 000/00 RMK AO2
14837KMSN MSN20051027001509510/27/05 00:15:31  5-MIN KMSN 270615Z 00000KT 8SM CLR M02/M02 A3027 540 96 -1300 000/00 RMK AO2
14837KMSN MSN20051027002009510/27/05 00:20:31  5-MIN KMSN 270620Z 00000KT 8SM CLR M02/M02 A3027 540 96 -1300 000/00 RMK AO2
14837KMSN MSN20051027002509510/27/05 00:25:31  5-MIN KMSN 270625Z 00000KT 7SM CLR M02/M02 A3027 540 96 -1300 000/00 RMK AO2
14837KMSN MSN20051027003009810/27/05 00:30:31  5-MIN KMSN 270630Z 00000KT 6SM BR CLR M02/M02 A3027 540 96 -1300 000/00 RMK AO2
14837KMSN MSN20051027003509510/27/05 00:35:31  5-MIN KMSN 270635Z 00000KT 7SM CLR M02/M02 A3027 540 96 -1300 000/00 RMK AO2
14837KMSN MSN20051027004009510/27/05 00:40:31  5-MIN KMSN 270640Z 00000KT 7SM CLR M02/M02 A3027 540 96 -1300 000/00 RMK AO2
14837KMSN MSN20051027004509810/27/05 00:45:31  5-MIN KMSN 270645Z 00000KT 6SM BR CLR M02/M03 A3028 540 96 -1400 000/00 RMK AO2
14837KMSN MSN20051027005011510/27/05 00:50:31  5-MIN KMSN 270650Z 00000KT 6SM BR CLR M02/M03 A3028 530 96 -1400 000/00 RMK AO2 SLP261 T10221028
14837KMSN MSN20051027005509510/27/05 00:55:31  5-MIN KMSN 270655Z 00000KT 7SM CLR M02/M02 A3028 530 96 -1300 000/00 RMK AO2
14837KMSN MSN20051027010009510/27/05 01:00:31  5-MIN KMSN 270700Z 34003KT 8SM CLR M02/M02 A3028 530 96 -1300 340/03 RMK AO2
14837KMSN MSN20051027010509510/27/05 01:05:31  5-MIN KMSN 270705Z 00000KT 8SM CLR M02/M03 A3028 530 92 -1300 000/00 RMK AO2
14837KMSN MSN20051027011009510/27/05 01:10:31  5-MIN KMSN 270710Z 00000KT 8SM CLR M02/M03 A3028 530 96 -1400 000/00 RMK AO2
14837KMSN MSN20051027011509510/27/05 01:15:31  5-MIN KMSN 270715Z 00000KT 8SM CLR M02/M03 A3028 530 96 -1400 000/00 RMK AO2
14837KMSN MSN20051027012009510/27/05 01:20:31  5-MIN KMSN 270720Z 00000KT 7SM CLR M02/M03 A3028 530 96 -1400 000/00 RMK AO2
14837KMSN MSN20051027012509510/27/05 01:25:31  5-MIN KMSN 270725Z 00000KT 7SM CLR M02/M03 A3028 530 96 -1400 000/00 RMK AO2
14837KMSN MSN20051027013009510/27/05 01:30:31  5-MIN KMSN 270730Z 00000KT 7SM CLR M02/M03 A3028 530 96 -1400 000/00 RMK AO2
14837KMSN MSN20051027013509510/27/05 01:35:31  5-MIN KMSN 270735Z 00000KT 7SM CLR M02/M03 A3028 530 96 -1400 000/00 RMK AO2
14837KMSN MSN20051027014009510/27/05 01:40:31  5-MIN KMSN 270740Z 00000KT 7SM CLR M03/M03 A3028 530 96 -1400 000/00 RMK AO2
14837KMSN MSN20051027014509510/27/05 01:45:31  5-MIN KMSN 270745Z 00000KT 7SM CLR M02/M03 A3028 530 96 -1400 000/00 RMK AO2
14837KMSN MSN20051027015011210/27/05 01:50:31  5-MIN KMSN 270750Z 00000KT 7SM CLR M03/M03 A3028 530 96 -1400 000/00 RMK AO2 SLP262 T10281033
14837KMSN MSN20051027015509510/27/05 01:55:31  5-MIN KMSN 270755Z 00000KT 7SM CLR M02/M03 A3028 530 92 -1400 000/00 RMK AO2
14837KMSN MSN20051027020009510/27/05 02:00:31  5-MIN KMSN 270800Z 00000KT 7SM CLR M02/M03 A3028 530 96 -1400 000/00 RMK AO2
14837KMSN MSN20051027020509510/27/05 02:05:31  5-MIN KMSN 270805Z 00000KT 7SM CLR M02/M03 A3028 530 92 -1400 000/00 RMK AO2
14837KMSN MSN20051027021009510/27/05 02:10:31  5-MIN KMSN 270810Z 00000KT 8SM CLR M03/M03 A3028 530 96 -1400 000/00 RMK AO2
14837KMSN MSN20051027021509510/27/05 02:15:31  5-MIN KMSN 270815Z 00000KT 7SM CLR M03/M03 A3028 530 96 -1400 000/00 RMK AO2
14837KMSN MSN20051027022009510/27/05 02:20:31  5-MIN KMSN 270820Z 00000KT 7SM CLR M03/M03 A3028 530 96 -1400 000/00 RMK AO2
14837KMSN MSN20051027022509510/27/05 02:25:31  5-MIN KMSN 270825Z 00000KT 7SM CLR M03/M03 A3028 530 96 -1400 000/00 RMK AO2
14837KMSN MSN20051027023009510/27/05 02:30:31  5-MIN KMSN 270830Z 00000KT 7SM CLR M03/M03 A3028 530 96 -1400 000/00 RMK AO2
14837KMSN MSN20051027023509510/27/05 02:35:31  5-MIN KMSN 270835Z 00000KT 7SM CLR M03/M03 A3028 530 96 -1400 000/00 RMK AO2
14837KMSN MSN20051027024009510/27/05 02:40:31  5-MIN KMSN 270840Z 00000KT 7SM CLR M03/M03 A3028 530 96 -1400 000/00 RMK AO2
14837KMSN MSN20051027024509510/27/05 02:45:31  5-MIN KMSN 270845Z 00000KT 7SM CLR M03/M03 A3028 530 96 -1400 000/00 RMK AO2
14837KMSN MSN20051027025011810/27/05 02:50:31  5-MIN KMSN 270850Z 00000KT 7SM CLR M03/M04 A3028 530 92 -1400 000/00 RMK AO2 SLP263 T10281039 53009
14837KMSN MSN20051027025509510/27/05 02:55:31  5-MIN KMSN 270855Z 00000KT 7SM CLR M03/M04 A3028 530 92 -1400 000/00 RMK AO2
14837KMSN MSN20051027090009610/27/05 09:00:31  5-MIN KMSN 271500Z 31005KT 10SM FEW043 06/02 A3035 470 76 -500 310/05 RMK AO2
14837KMSN MSN20051027090509610/27/05 09:05:31  5-MIN KMSN 271505Z 31004KT 10SM FEW043 06/02 A3035 470 73 -400 310/04 RMK AO2
14837KMSN MSN20051027091009610/27/05 09:10:31  5-MIN KMSN 271510Z 33005KT 10SM FEW043 06/02 A3035 470 73 -400 330/05 RMK AO2
14837KMSN MSN20051027091509310/27/05 09:15:31  5-MIN KMSN 271515Z VRB04KT 10SM CLR 07/02 A3035 470 73 -300 VRB/04 RMK AO2
14837KMSN MSN20051027092009310/27/05 09:20:31  5-MIN KMSN 271520Z 33006KT 10SM CLR 07/02 A3035 470 68 -300 330/06 RMK AO2
14837KMSN MSN20051027092509310/27/05 09:25:31  5-MIN KMSN 271525Z 30006KT 10SM CLR 07/02 A3035 470 68 -300 300/06 RMK AO2
14837KMSN MSN20051027093009310/27/05 09:30:31  5-MIN KMSN 271530Z 30005KT 10SM CLR 07/02 A3035 470 68 -300 300/05 RMK AO2
14837KMSN MSN20051027093509310/27/05 09:35:31  5-MIN KMSN 271535Z 30006KT 10SM CLR 08/02 A3035 470 65 -200 300/06 RMK AO2
14837KMSN MSN20051027094009310/27/05 09:40:31  5-MIN KMSN 271540Z 30005KT 10SM CLR 08/02 A3035 470 65 -200 300/05 RMK AO2
14837KMSN MSN20051027094509310/27/05 09:45:31  5-MIN KMSN 271545Z VRB05KT 10SM CLR 08/02 A3035 470 63 -100 VRB/05 RMK AO2
14837KMSN MSN20051027095011010/27/05 09:50:31  5-MIN KMSN 271550Z 31006KT 10SM CLR 08/01 A3035 470 60 -100 300/06 RMK AO2 SLP284 T00830011
14837KMSN MSN20051027095509610/27/05 09:55:31  5-MIN KMSN 271555Z 29006KT 10SM FEW035 08/01 A3035 470 60 -100 290/06 RMK AO2
14837KMSN MSN20051027100009610/27/05 10:00:31  5-MIN KMSN 271600Z 29008KT 10SM FEW035 08/01 A3035 470 58 -100 280/08 RMK AO2
14837KMSN MSN20051027100509610/27/05 10:05:31  5-MIN KMSN 271605Z 34006KT 10SM FEW035 09/01 A3034 480 58 -100 340/06 RMK AO2
14837KMSN MSN20051027101009310/27/05 10:10:31  5-MIN KMSN 271610Z 32005KT 10SM FEW035 09/01 A3034 480 56 0 320/05 RMK AO2
14837KMSN MSN20051027101509610/27/05 10:15:31  5-MIN KMSN 271615Z 30005KT 10SM SCT035 08/00 A3034 480 55 -100 300/05 RMK AO2
14837KMSN MSN20051027102009610/27/05 10:20:31  5-MIN KMSN 271620Z 31007KT 10SM SCT035 09/00 A3034 480 53 -100 310/07 RMK AO2
14837KMSN MSN20051027102509610/27/05 10:25:31  5-MIN KMSN 271625Z 33006KT 10SM SCT035 09/00 A3034 480 53 -100 330/06 RMK AO2
14837KMSN MSN20051027103009310/27/05 10:30:31  5-MIN KMSN 271630Z 34007KT 10SM SCT035 09/00 A3034 480 51 0 340/07 RMK AO2
14837KMSN MSN20051027103509310/27/05 10:35:31  5-MIN KMSN 271635Z VRB05KT 10SM SCT035 10/01 A3034 480 52 0 VRB/05 RMK AO2
14837KMSN MSN20051027104009310/27/05 10:40:31  5-MIN KMSN 271640Z 32007KT 10SM SCT037 09/00 A3034 480 53 0 320/07 RMK AO2
14837KMSN MSN20051027104509310/27/05 10:45:31  5-MIN KMSN 271645Z 30006KT 10SM BKN037 09/00 A3034 480 51 0 300/06 RMK AO2
14837KMSN MSN20051027105011110/27/05 10:50:31  5-MIN KMSN 271650Z 31004KT 10SM BKN037 09/M01 A3034 480 51 0 310/04 RMK AO2 SLP281 T00891006
14837KMSN MSN20051027105509310/27/05 10:55:31  5-MIN KMSN 271655Z 33003KT 10SM BKN039 09/00 A3034 480 51 0 330/03 RMK AO2
14837KMSN MSN20051027110009310/27/05 11:00:31  5-MIN KMSN 271700Z 31007KT 10SM BKN039 10/00 A3034 480 49 0 310/07 RMK AO2
14837KMSN MSN20051027110509310/27/05 11:05:31  5-MIN KMSN 271705Z 32006KT 10SM SCT039 10/00 A3033 480 49 0 320/06 RMK AO2
14837KMSN MSN20051027111009310/27/05 11:10:31  5-MIN KMSN 271710Z 30009KT 10SM SCT039 10/00 A3033 490 49 0 300/09 RMK AO2
14837KMSN MSN20051027111509310/27/05 11:15:31  5-MIN KMSN 271715Z VRB05KT 10SM SCT039 10/00 A3033 490 49 0 VRB/05 RMK AO2
14837KMSN MSN20051027112009510/27/05 11:20:31  5-MIN KMSN 271720Z 36008KT 10SM SCT039 10/00 A3033 490 49 100 350/08 RMK AO2
14837KMSN MSN20051027112509510/27/05 11:25:31  5-MIN KMSN 271725Z 31005KT 10SM SCT039 10/00 A3032 490 49 100 310/05 RMK AO2
14837KMSN MSN20051027113009510/27/05 11:30:31  5-MIN KMSN 271730Z 36007KT 10SM SCT039 11/00 A3032 490 48 100 360/07 RMK AO2
14837KMSN MSN20051027113509510/27/05 11:35:31  5-MIN KMSN 271735Z 33006KT 10SM SCT039 11/00 A3032 500 48 100 330/06 RMK AO2
14837KMSN MSN20051027114009510/27/05 11:40:31  5-MIN KMSN 271740Z VRB04KT 10SM SCT039 10/00 A3032 500 49 100 VRB/04 RMK AO2
14837KMSN MSN20051027114511110/27/05 11:45:31  5-MIN KMSN 271745Z 32008KT 250V340 10SM SCT039 10/00 A3032 500 49 100 310/08 250V340 RMK AO2
14837KMSN MSN20051027115013010/27/05 11:50:31  5-MIN KMSN 271750Z 31007KT 10SM SCT039 10/00 A3032 500 49 100 300/07 RMK AO2 SLP273 T01000000 10106 21044 51012
14837KMSN MSN20051027115509510/27/05 11:55:31  5-MIN KMSN 271755Z 00000KT 10SM SCT040 10/00 A3031 500 49 100 000/00 RMK AO2
14837KMSN MSN20051027120009510/27/05 12:00:31  5-MIN KMSN 271800Z 34006KT 10SM SCT040 11/00 A3031 500 48 100 340/06 RMK AO2
14837KMSN MSN20051027120509510/27/05 12:05:31  5-MIN KMSN 271805Z 30005KT 10SM SCT040 11/00 A3031 500 48 100 300/05 RMK AO2
14837KMSN MSN20051027121009510/27/05 12:10:31  5-MIN KMSN 271810Z VRB03KT 10SM SCT040 11/00 A3031 510 48 100 VRB/03 RMK AO2
14837KMSN MSN20051027121509510/27/05 12:15:31  5-MIN KMSN 271815Z VRB05KT 10SM SCT040 10/00 A3031 510 49 100 VRB/05 RMK AO2
14837KMSN MSN20051027122009510/27/05 12:20:31  5-MIN KMSN 271820Z VRB05KT 10SM SCT040 11/00 A3031 510 48 100 VRB/05 RMK AO2
14837KMSN MSN20051027122509510/27/05 12:25:31  5-MIN KMSN 271825Z 35007KT 10SM SCT040 11/00 A3031 510 48 100 350/07 RMK AO2
14837KMSN MSN20051027123009510/27/05 12:30:31  5-MIN KMSN 271830Z VRB03KT 10SM SCT040 11/00 A3030 510 48 100 VRB/03 RMK AO2
14837KMSN MSN20051027123509510/27/05 12:35:31  5-MIN KMSN 271835Z 33008KT 10SM SCT040 11/00 A3030 510 48 100 320/08 RMK AO2
14837KMSN MSN20051027124009510/27/05 12:40:31  5-MIN KMSN 271840Z 31006KT 10SM SCT040 11/00 A3030 510 48 100 310/06 RMK AO2
14837KMSN MSN20051027124509510/27/05 12:45:31  5-MIN KMSN 271845Z 31005KT 10SM SCT040 10/00 A3030 510 49 100 310/05 RMK AO2
14837KMSN MSN20051027125011210/27/05 12:50:31  5-MIN KMSN 271850Z 27005KT 10SM SCT040 11/00 A3030 510 48 100 270/05 RMK AO2 SLP268 T01060000
14837KMSN MSN20051027125509510/27/05 12:55:31  5-MIN KMSN 271855Z 00000KT 10SM SCT040 10/00 A3030 520 49 100 000/00 RMK AO2
14837KMSN MSN20051027130009510/27/05 13:00:31  5-MIN KMSN 271900Z VRB03KT 10SM SCT040 11/01 A3030 520 50 200 VRB/03 RMK AO2
14837KMSN MSN20051027130509510/27/05 13:05:31  5-MIN KMSN 271905Z VRB05KT 10SM SCT040 11/01 A3030 520 48 200 VRB/05 RMK AO2
14837KMSN MSN20051027131011110/27/05 13:10:31  5-MIN KMSN 271910Z 34007KT 280V020 10SM SCT040 11/01 A3030 520 48 200 340/07 280V020 RMK AO2
14837KMSN MSN20051027131509510/27/05 13:15:31  5-MIN KMSN 271915Z 33005KT 10SM SCT040 11/00 A3030 520 46 200 330/05 RMK AO2
14837KMSN MSN20051027132009510/27/05 13:20:31  5-MIN KMSN 271920Z 36004KT 10SM SCT040 11/00 A3030 520 46 200 360/04 RMK AO2
14837KMSN MSN20051027132509510/27/05 13:25:31  5-MIN KMSN 271925Z VRB04KT 10SM SCT040 11/00 A3029 520 46 200 VRB/04 RMK AO2
14837KMSN MSN20051027133009510/27/05 13:30:31  5-MIN KMSN 271930Z 31007KT 10SM SCT040 11/00 A3030 520 46 200 310/07 RMK AO2
14837KMSN MSN20051027133509510/27/05 13:35:31  5-MIN KMSN 271935Z 32007KT 10SM SCT040 12/00 A3030 520 44 300 320/07 RMK AO2
14837KMSN MSN20051027134009510/27/05 13:40:31  5-MIN KMSN 271940Z 31006KT 10SM SCT040 11/00 A3029 520 46 200 300/06 RMK AO2
14837KMSN MSN20051027134509510/27/05 13:45:31  5-MIN KMSN 271945Z 31005KT 10SM SCT040 11/00 A3029 520 46 200 310/05 RMK AO2
14837KMSN MSN20051027135011210/27/05 13:50:31  5-MIN KMSN 271950Z 34003KT 10SM SCT045 11/00 A3029 520 46 200 340/03 RMK AO2 SLP264 T01110000
14837KMSN MSN20051027135511110/27/05 13:55:31  5-MIN KMSN 271955Z 31008KT 280V360 10SM SCT045 12/01 A3029 520 46 300 310/08 280V360 RMK AO2
14837KMSN MSN20051027140009510/27/05 14:00:31  5-MIN KMSN 272000Z 01007KT 10SM SCT045 12/00 A3029 520 44 300 360/07 RMK AO2
14837KMSN MSN20051027140509510/27/05 14:05:31  5-MIN KMSN 272005Z 36007KT 10SM SCT045 12/00 A3029 520 44 300 360/07 RMK AO2
14837KMSN MSN20051027141011110/27/05 14:10:31  5-MIN KMSN 272010Z 36007KT 330V030 10SM SCT045 12/01 A3029 530 46 300 360/07 330V030 RMK AO2
14837KMSN MSN20051027141509510/27/05 14:15:31  5-MIN KMSN 272015Z 34006KT 10SM SCT045 12/00 A3029 520 43 400 340/06 RMK AO2
14837KMSN MSN20051027142009510/27/05 14:20:31  5-MIN KMSN 272020Z 33005KT 10SM SCT045 11/00 A3029 520 46 200 330/05 RMK AO2
14837KMSN MSN20051027142509510/27/05 14:25:31  5-MIN KMSN 272025Z 30007KT 10SM FEW045 12/00 A3029 520 44 300 300/07 RMK AO2
14837KMSN MSN20051027143009510/27/05 14:30:31  5-MIN KMSN 272030Z 31006KT 10SM FEW045 11/00 A3029 530 46 200 310/06 RMK AO2
14837KMSN MSN20051027143509510/27/05 14:35:31  5-MIN KMSN 272035Z 29007KT 10SM FEW045 11/00 A3029 520 46 200 290/07 RMK AO2
14837KMSN MSN20051027144009510/27/05 14:40:31  5-MIN KMSN 272040Z VRB05KT 10SM FEW045 11/00 A3029 530 46 200 VRB/05 RMK AO2
14837KMSN MSN20051027144509510/27/05 14:45:31  5-MIN KMSN 272045Z 36008KT 10SM FEW045 12/00 A3029 530 44 300 360/08 RMK AO2
14837KMSN MSN20051027145011810/27/05 14:50:31  5-MIN KMSN 272050Z 33007KT 10SM FEW045 11/00 A3029 530 46 200 330/07 RMK AO2 SLP263 T01110000 58013
14837KMSN MSN20051027145509210/27/05 14:55:31  5-MIN KMSN 272055Z 31006KT 10SM CLR 11/00 A3028 530 46 200 310/06 RMK AO2
14837KMSN MSN20051027150009210/27/05 15:00:31  5-MIN KMSN 272100Z VRB03KT 10SM CLR 11/00 A3028 530 46 200 VRB/03 RMK AO2
14837KMSN MSN20051027150509210/27/05 15:05:31  5-MIN KMSN 272105Z VRB03KT 10SM CLR 12/00 A3028 530 44 300 VRB/03 RMK AO2
14837KMSN MSN20051027151009210/27/05 15:10:31  5-MIN KMSN 272110Z 35006KT 10SM CLR 12/00 A3028 530 44 300 340/06 RMK AO2
14837KMSN MSN20051027151509210/27/05 15:15:31  5-MIN KMSN 272115Z 36003KT 10SM CLR 12/00 A3028 530 44 300 360/03 RMK AO2
14837KMSN MSN20051027152009210/27/05 15:20:31  5-MIN KMSN 272120Z VRB04KT 10SM CLR 12/00 A3028 530 44 300 VRB/04 RMK AO2
14837KMSN MSN20051027152509210/27/05 15:25:31  5-MIN KMSN 272125Z 31006KT 10SM CLR 11/00 A3028 530 46 200 310/06 RMK AO2
14837KMSN MSN20051027153009310/27/05 15:30:31  5-MIN KMSN 272130Z 31005KT 10SM CLR 11/M01 A3028 530 44 200 310/05 RMK AO2
14837KMSN MSN20051027153509310/27/05 15:35:31  5-MIN KMSN 272135Z 28004KT 10SM CLR 11/M01 A3028 540 44 200 280/04 RMK AO2
14837KMSN MSN20051027154009310/27/05 15:40:31  5-MIN KMSN 272140Z 31006KT 10SM CLR 11/M01 A3028 540 44 200 310/06 RMK AO2
14837KMSN MSN20051027154509210/27/05 15:45:31  5-MIN KMSN 272145Z 31007KT 10SM CLR 11/00 A3028 540 46 200 310/07 RMK AO2
14837KMSN MSN20051027155010910/27/05 15:50:31  5-MIN KMSN 272150Z 29005KT 10SM CLR 11/00 A3028 540 46 200 290/05 RMK AO2 SLP261 T01110000
14837KMSN MSN20051027155509310/27/05 15:55:31  5-MIN KMSN 272155Z 30005KT 10SM CLR 11/M01 A3028 540 46 200 300/05 RMK AO2
14837KMSN MSN20051027160009310/27/05 16:00:31  5-MIN KMSN 272200Z 30004KT 10SM CLR 11/M01 A3027 540 46 200 300/04 RMK AO2
14837KMSN MSN20051027160509210/27/05 16:05:31  5-MIN KMSN 272205Z 29005KT 10SM CLR 11/00 A3028 540 48 200 290/05 RMK AO2
14837KMSN MSN20051027161009310/27/05 16:10:31  5-MIN KMSN 272210Z 29006KT 10SM CLR 11/M01 A3028 540 46 200 290/06 RMK AO2
14837KMSN MSN20051027161509210/27/05 16:15:31  5-MIN KMSN 272215Z 30005KT 10SM CLR 11/00 A3028 540 48 200 300/05 RMK AO2
14837KMSN MSN20051027162009210/27/05 16:20:31  5-MIN KMSN 272220Z 30003KT 10SM CLR 10/00 A3028 530 49 100 300/03 RMK AO2
14837KMSN MSN20051027162509210/27/05 16:25:31  5-MIN KMSN 272225Z 31004KT 10SM CLR 10/00 A3028 530 49 100 300/04 RMK AO2
14837KMSN MSN20051027163009210/27/05 16:30:31  5-MIN KMSN 272230Z 31003KT 10SM CLR 10/00 A3028 530 49 100 300/03 RMK AO2
14837KMSN MSN20051027163509010/27/05 16:35:31  5-MIN KMSN 272235Z 00000KT 10SM CLR 09/00 A3028 530 51 0 000/00 RMK AO2
14837KMSN MSN20051027164009010/27/05 16:40:31  5-MIN KMSN 272240Z 00000KT 10SM CLR 09/00 A3028 530 51 0 000/00 RMK AO2
14837KMSN MSN20051027164509010/27/05 16:45:31  5-MIN KMSN 272245Z 00000KT 10SM CLR 09/00 A3028 530 51 0 000/00 RMK AO2
14837KMSN MSN20051027165010710/27/05 16:50:31  5-MIN KMSN 272250Z 00000KT 10SM CLR 09/00 A3028 530 53 0 000/00 RMK AO2 SLP262 T00890000
14837KMSN MSN20051027165509310/27/05 16:55:31  5-MIN KMSN 272255Z 00000KT 10SM CLR 08/00 A3028 530 55 -100 000/00 RMK AO2
14837KMSN MSN20051027170009310/27/05 17:00:31  5-MIN KMSN 272300Z 00000KT 10SM CLR 08/00 A3028 530 55 -100 000/00 RMK AO2
14837KMSN MSN20051027170509310/27/05 17:05:31  5-MIN KMSN 272305Z 00000KT 10SM CLR 07/01 A3029 530 62 -200 000/00 RMK AO2
14837KMSN MSN20051027171009310/27/05 17:10:31  5-MIN KMSN 272310Z 00000KT 10SM CLR 07/01 A3029 530 65 -300 000/00 RMK AO2
14837KMSN MSN20051027171509310/27/05 17:15:31  5-MIN KMSN 272315Z 00000KT 10SM CLR 06/00 A3029 530 65 -300 000/00 RMK AO2
14837KMSN MSN20051027172009310/27/05 17:20:31  5-MIN KMSN 272320Z 00000KT 10SM CLR 07/00 A3029 520 62 -300 000/00 RMK AO2
14837KMSN MSN20051027172509310/27/05 17:25:31  5-MIN KMSN 272325Z 00000KT 10SM CLR 07/00 A3029 520 62 -300 000/00 RMK AO2
14837KMSN MSN20051027173009310/27/05 17:30:31  5-MIN KMSN 272330Z 00000KT 10SM CLR 06/00 A3029 520 67 -400 000/00 RMK AO2
14837KMSN MSN20051027173509310/27/05 17:35:31  5-MIN KMSN 272335Z 00000KT 10SM CLR 05/00 A3029 520 70 -500 000/00 RMK AO2
14837KMSN MSN20051027174009310/27/05 17:40:31  5-MIN KMSN 272340Z 00000KT 10SM CLR 05/00 A3030 520 70 -500 000/00 RMK AO2
14837KMSN MSN20051027174509310/27/05 17:45:31  5-MIN KMSN 272345Z 00000KT 10SM CLR 06/00 A3030 520 67 -400 000/00 RMK AO2
14837KMSN MSN20051027175012810/27/05 17:50:31  5-MIN KMSN 272350Z 00000KT 10SM CLR 06/00 A3030 520 67 -400 000/00 RMK AO2 SLP269 T00560000 10122 20044 56010
14837KMSN MSN20051027175509310/27/05 17:55:31  5-MIN KMSN 272355Z 00000KT 10SM CLR 05/00 A3030 520 70 -500 000/00 RMK AO2
14837KMSN MSN20051027180009310/27/05 18:00:31  5-MIN KMSN 280000Z 00000KT 10SM CLR 04/00 A3030 520 73 -500 000/00 RMK AO2
14837KMSN MSN20051027180509310/27/05 18:05:31  5-MIN KMSN 280005Z 00000KT 10SM CLR 04/00 A3030 520 76 -600 000/00 RMK AO2
14837KMSN MSN20051027181009310/27/05 18:10:31  5-MIN KMSN 280010Z 00000KT 10SM CLR 04/00 A3030 520 76 -600 000/00 RMK AO2
14837KMSN MSN20051027181509310/27/05 18:15:31  5-MIN KMSN 280015Z 00000KT 10SM CLR 04/00 A3030 520 76 -600 000/00 RMK AO2
14837KMSN MSN20051027182009310/27/05 18:20:31  5-MIN KMSN 280020Z 00000KT 10SM CLR 04/00 A3030 520 76 -600 000/00 RMK AO2
14837KMSN MSN20051027182509310/27/05 18:25:31  5-MIN KMSN 280025Z 00000KT 10SM CLR 03/00 A3030 520 79 -700 000/00 RMK AO2
14837KMSN MSN20051027183009310/27/05 18:30:31  5-MIN KMSN 280030Z 00000KT 10SM CLR 03/00 A3030 520 82 -800 000/00 RMK AO2
14837KMSN MSN20051027183509410/27/05 18:35:31  5-MIN KMSN 280035Z 00000KT 10SM CLR 02/M01 A3030 520 82 -800 000/00 RMK AO2
14837KMSN MSN20051027184009410/27/05 18:40:31  5-MIN KMSN 280040Z 00000KT 10SM CLR 03/M01 A3030 520 79 -800 000/00 RMK AO2
14837KMSN MSN20051027184509410/27/05 18:45:31  5-MIN KMSN 280045Z 00000KT 10SM CLR 03/M01 A3030 520 79 -800 000/00 RMK AO2
14837KMSN MSN20051027185011110/27/05 18:50:31  5-MIN KMSN 280050Z 00000KT 10SM CLR 02/M01 A3030 520 82 -800 000/00 RMK AO2 SLP271 T00221006
14837KMSN MSN20051027185509410/27/05 18:55:31  5-MIN KMSN 280055Z 00000KT 10SM CLR 03/M01 A3030 520 79 -800 000/00 RMK AO2
14837KMSN MSN20051027190009410/27/05 19:00:31  5-MIN KMSN 280100Z 00000KT 10SM CLR 03/M01 A3030 510 79 -800 000/00 RMK AO2
14837KMSN MSN20051027190509310/27/05 19:05:31  5-MIN KMSN 280105Z 00000KT 10SM CLR 03/00 A3030 510 79 -700 000/00 RMK AO2
14837KMSN MSN20051027191009310/27/05 19:10:31  5-MIN KMSN 280110Z 00000KT 10SM CLR 02/00 A3030 510 85 -800 000/00 RMK AO2
14837KMSN MSN20051027191509410/27/05 19:15:31  5-MIN KMSN 280115Z 00000KT 10SM CLR 02/M01 A3030 510 82 -800 000/00 RMK AO2
14837KMSN MSN20051027192009410/27/05 19:20:31  5-MIN KMSN 280120Z 00000KT 10SM CLR 03/M01 A3030 510 79 -800 000/00 RMK AO2
14837KMSN MSN20051027192509410/27/05 19:25:31  5-MIN KMSN 280125Z 00000KT 10SM CLR 03/M01 A3030 510 79 -800 000/00 RMK AO2
14837KMSN MSN20051027193009410/27/05 19:30:31  5-MIN KMSN 280130Z 00000KT 10SM CLR 03/M01 A3031 510 79 -800 000/00 RMK AO2
14837KMSN MSN20051027193509410/27/05 19:35:31  5-MIN KMSN 280135Z 00000KT 10SM CLR 02/M01 A3031 510 82 -800 000/00 RMK AO2
14837KMSN MSN20051027194009410/27/05 19:40:31  5-MIN KMSN 280140Z 00000KT 10SM CLR 02/M01 A3031 510 85 -900 000/00 RMK AO2
14837KMSN MSN20051027194509410/27/05 19:45:31  5-MIN KMSN 280145Z 00000KT 10SM CLR 02/M01 A3031 510 85 -900 000/00 RMK AO2
14837KMSN MSN20051027195011210/27/05 19:50:31  5-MIN KMSN 280150Z 00000KT 10SM CLR 01/M01 A3031 510 89 -1000 000/00 RMK AO2 SLP272 T00111006
14837KMSN MSN20051027195509510/27/05 19:55:31  5-MIN KMSN 280155Z 00000KT 10SM CLR 01/M01 A3031 510 89 -1000 000/00 RMK AO2
14837KMSN MSN20051027200009510/27/05 20:00:31  5-MIN KMSN 280200Z 00000KT 10SM CLR 01/M01 A3031 510 85 -1000 000/00 RMK AO2
14837KMSN MSN20051027200509510/27/05 20:05:31  5-MIN KMSN 280205Z 00000KT 10SM CLR 01/M01 A3031 510 89 -1000 000/00 RMK AO2
14837KMSN MSN20051027201009510/27/05 20:10:31  5-MIN KMSN 280210Z 00000KT 10SM CLR 01/M02 A3031 510 85 -1000 000/00 RMK AO2
14837KMSN MSN20051027201509510/27/05 20:15:31  5-MIN KMSN 280215Z 00000KT 10SM CLR 01/M01 A3031 510 85 -1000 000/00 RMK AO2
14837KMSN MSN20051027202009410/27/05 20:20:31  5-MIN KMSN 280220Z 00000KT 10SM CLR 02/M01 A3031 510 85 -900 000/00 RMK AO2
14837KMSN MSN20051027202509510/27/05 20:25:31  5-MIN KMSN 280225Z 00000KT 10SM CLR 01/M01 A3031 510 89 -1000 000/00 RMK AO2
14837KMSN MSN20051027203009510/27/05 20:30:31  5-MIN KMSN 280230Z 00000KT 10SM CLR 01/M01 A3031 510 89 -1000 000/00 RMK AO2
14837KMSN MSN20051027203509510/27/05 20:35:31  5-MIN KMSN 280235Z 00000KT 10SM CLR 01/M01 A3031 500 89 -1000 000/00 RMK AO2
14837KMSN MSN20051027204009510/27/05 20:40:31  5-MIN KMSN 280240Z 00000KT 10SM CLR 01/M01 A3031 500 89 -1000 000/00 RMK AO2
14837KMSN MSN20051027204509510/27/05 20:45:31  5-MIN KMSN 280245Z 00000KT 10SM CLR 01/M01 A3031 500 92 -1000 000/00 RMK AO2
14837KMSN MSN20051027205011810/27/05 20:50:31  5-MIN KMSN 280250Z 00000KT 10SM CLR 00/M01 A3031 500 92 -1100 000/00 RMK AO2 SLP274 T00001011 53004
14837KMSN MSN20051027205509410/27/05 20:55:31  5-MIN KMSN 280255Z 00000KT 9SM CLR 00/M01 A3031 500 92 -1100 000/00 RMK AO2
14837KMSN MSN20051027211009510/27/05 21:10:31  5-MIN KMSN 280310Z 00000KT 10SM CLR 01/M01 A3031 500 89 -1000 000/00 RMK AO2
14837KMSN MSN20051027211509510/27/05 21:15:31  5-MIN KMSN 280315Z 00000KT 10SM CLR 01/M02 A3032 500 85 -1100 000/00 RMK AO2
14837KMSN MSN20051027212009410/27/05 21:20:31  5-MIN KMSN 280320Z 00000KT 9SM CLR 01/M01 A3032 500 89 -1100 000/00 RMK AO2
14837KMSN MSN20051027212509510/27/05 21:25:31  5-MIN KMSN 280325Z 00000KT 10SM CLR 00/M01 A3032 500 92 -1100 000/00 RMK AO2
14837KMSN MSN20051027213009510/27/05 21:30:31  5-MIN KMSN 280330Z 00000KT 10SM CLR 00/M01 A3032 500 92 -1100 000/00 RMK AO2
14837KMSN MSN20051027213509410/27/05 21:35:31  5-MIN KMSN 280335Z 00000KT 9SM CLR 00/M01 A3032 500 92 -1100 000/00 RMK AO2
14837KMSN MSN20051027214009410/27/05 21:40:31  5-MIN KMSN 280340Z 00000KT 9SM CLR 00/M01 A3032 500 92 -1100 000/00 RMK AO2
14837KMSN MSN20051027214509410/27/05 21:45:31  5-MIN KMSN 280345Z 00000KT 9SM CLR 00/M02 A3032 500 88 -1100 000/00 RMK AO2
14837KMSN MSN20051027215011210/27/05 21:50:31  5-MIN KMSN 280350Z 00000KT 9SM CLR M01/M02 A3032 500 92 -1200 000/00 RMK AO2 SLP276 T10061017
14837KMSN MSN20051027215509510/27/05 21:55:31  5-MIN KMSN 280355Z 00000KT 9SM CLR M01/M02 A3032 500 92 -1200 000/00 RMK AO2
14837KMSN MSN20051027220009510/27/05 22:00:31  5-MIN KMSN 280400Z 00000KT 9SM CLR M01/M02 A3032 500 92 -1200 000/00 RMK AO2
14837KMSN MSN20051027220509510/27/05 22:05:31  5-MIN KMSN 280405Z 00000KT 8SM CLR M01/M02 A3032 500 92 -1200 000/00 RMK AO2
14837KMSN MSN20051027221009410/27/05 22:10:31  5-MIN KMSN 280410Z 00000KT 8SM CLR 00/M01 A3032 500 92 -1100 000/00 RMK AO2
14837KMSN MSN20051027221509410/27/05 22:15:31  5-MIN KMSN 280415Z 00000KT 8SM CLR 00/M01 A3032 500 92 -1100 000/00 RMK AO2
14837KMSN MSN20051027222009410/27/05 22:20:31  5-MIN KMSN 280420Z 00000KT 8SM CLR 00/M01 A3032 500 92 -1100 000/00 RMK AO2
14837KMSN MSN20051027222509510/27/05 22:25:31  5-MIN KMSN 280425Z 00000KT 8SM CLR M01/M02 A3032 490 92 -1200 000/00 RMK AO2
14837KMSN MSN20051027223009510/27/05 22:30:31  5-MIN KMSN 280430Z 00000KT 8SM CLR M01/M02 A3032 490 96 -1300 000/00 RMK AO2
14837KMSN MSN20051027223509510/27/05 22:35:31  5-MIN KMSN 280435Z 00000KT 7SM CLR M01/M02 A3032 490 92 -1200 000/00 RMK AO2
14837KMSN MSN20051027224009510/27/05 22:40:31  5-MIN KMSN 280440Z 00000KT 7SM CLR M01/M02 A3032 500 96 -1300 000/00 RMK AO2
14837KMSN MSN20051027224509510/27/05 22:45:31  5-MIN KMSN 280445Z 00000KT 7SM CLR M01/M02 A3032 500 96 -1300 000/00 RMK AO2
14837KMSN MSN20051027225011210/27/05 22:50:31  5-MIN KMSN 280450Z 00000KT 7SM CLR M01/M02 A3032 500 96 -1300 000/00 RMK AO2 SLP276 T10111017
14837KMSN MSN20051027225509510/27/05 22:55:31  5-MIN KMSN 280455Z 00000KT 7SM CLR M01/M02 A3032 500 96 -1300 000/00 RMK AO2
14837KMSN MSN20051027230009510/27/05 23:00:31  5-MIN KMSN 280500Z 00000KT 7SM CLR M01/M02 A3032 490 96 -1300 000/00 RMK AO2
14837KMSN MSN20051027230509510/27/05 23:05:31  5-MIN KMSN 280505Z 00000KT 7SM CLR M01/M02 A3032 500 96 -1300 000/00 RMK AO2
14837KMSN MSN20051027231009810/27/05 23:10:31  5-MIN KMSN 280510Z 00000KT 6SM BR CLR M01/M02 A3032 490 96 -1300 000/00 RMK AO2
14837KMSN MSN20051027231509810/27/05 23:15:31  5-MIN KMSN 280515Z 00000KT 6SM BR CLR M01/M02 A3032 490 96 -1300 000/00 RMK AO2
14837KMSN MSN20051027232009810/27/05 23:20:31  5-MIN KMSN 280520Z 00000KT 6SM BR CLR M01/M02 A3032 490 96 -1300 000/00 RMK AO2
14837KMSN MSN20051027232509810/27/05 23:25:31  5-MIN KMSN 280525Z 00000KT 6SM BR CLR M01/M02 A3032 490 96 -1300 000/00 RMK AO2
14837KMSN MSN20051027233009810/27/05 23:30:31  5-MIN KMSN 280530Z 01003KT 6SM BR CLR M01/M02 A3033 490 96 -1300 010/03 RMK AO2
14837KMSN MSN20051027233509810/27/05 23:35:31  5-MIN KMSN 280535Z 36004KT 6SM BR CLR M01/M02 A3033 490 96 -1300 360/04 RMK AO2
14837KMSN MSN20051027234009810/27/05 23:40:31  5-MIN KMSN 280540Z 34003KT 5SM BR CLR M01/M02 A3033 490 96 -1300 340/03 RMK AO2
14837KMSN MSN20051027234509810/27/05 23:45:31  5-MIN KMSN 280545Z 34004KT 5SM BR CLR M01/M02 A3033 490 96 -1300 340/04 RMK AO2
14837KMSN MSN20051027235014310/27/05 23:50:31  5-MIN KMSN 280550Z 00000KT 6SM BR CLR M01/M02 A3033 490 92 -1300 000/00 RMK AO2 SLP277 T10111022 10050 21017 401221044 53005
14837KMSN MSN20051027235509810/27/05 23:55:31  5-MIN KMSN 280555Z 00000KT 6SM BR CLR M02/M02 A3033 490 96 -1300 000/00 RMK AO2
14837KMSN MSN20051028000009810/28/05 00:00:38  5-MIN KMSN 280600Z 00000KT 5SM BR CLR M02/M03 A3033 490 96 -1400 000/00 RMK AO2
14837KMSN MSN20051028000509810/28/05 00:05:31  5-MIN KMSN 280605Z 00000KT 6SM BR CLR M02/M03 A3033 490 92 -1300 000/00 RMK AO2
14837KMSN MSN20051028001009510/28/05 00:10:31  5-MIN KMSN 280610Z 00000KT 7SM CLR M02/M03 A3033 490 92 -1300 000/00 RMK AO2
14837KMSN MSN20051028001509810/28/05 00:15:31  5-MIN KMSN 280615Z 00000KT 6SM BR CLR M02/M03 A3033 490 92 -1300 000/00 RMK AO2
14837KMSN MSN20051028002009810/28/05 00:20:31  5-MIN KMSN 280620Z 00000KT 6SM BR CLR M02/M02 A3033 490 96 -1300 000/00 RMK AO2
14837KMSN MSN20051028002509810/28/05 00:25:31  5-MIN KMSN 280625Z 00000KT 6SM BR CLR M02/M02 A3033 490 96 -1300 000/00 RMK AO2
14837KMSN MSN20051028003009810/28/05 00:30:31  5-MIN KMSN 280630Z 00000KT 6SM BR CLR M02/M02 A3033 490 96 -1300 000/00 RMK AO2
14837KMSN MSN20051028003509810/28/05 00:35:31  5-MIN KMSN 280635Z 00000KT 6SM BR CLR M02/M02 A3033 490 96 -1300 000/00 RMK AO2
14837KMSN MSN20051028004009810/28/05 00:40:31  5-MIN KMSN 280640Z 00000KT 6SM BR CLR M02/M02 A3033 490 96 -1300 000/00 RMK AO2
14837KMSN MSN20051028004509810/28/05 00:45:31  5-MIN KMSN 280645Z 00000KT 6SM BR CLR M02/M02 A3033 490 96 -1300 000/00 RMK AO2
14837KMSN MSN20051028005011510/28/05 00:50:31  5-MIN KMSN 280650Z 00000KT 6SM BR CLR M02/M02 A3033 490 96 -1300 000/00 RMK AO2 SLP277 T10171022
14837KMSN MSN20051028005509810/28/05 00:55:31  5-MIN KMSN 280655Z 00000KT 6SM BR CLR M02/M02 A3033 490 96 -1300 000/00 RMK AO2
14837KMSN MSN20051028010009810/28/05 01:00:31  5-MIN KMSN 280700Z 00000KT 6SM BR CLR M02/M03 A3033 490 92 -1300 000/00 RMK AO2
14837KMSN MSN20051028010509810/28/05 01:05:31  5-MIN KMSN 280705Z 00000KT 6SM BR CLR M02/M03 A3033 490 92 -1300 000/00 RMK AO2
14837KMSN MSN20051028011009810/28/05 01:10:31  5-MIN KMSN 280710Z 00000KT 6SM BR CLR M02/M03 A3033 490 96 -1400 000/00 RMK AO2
14837KMSN MSN20051028011509810/28/05 01:15:31  5-MIN KMSN 280715Z 00000KT 6SM BR CLR M02/M03 A3033 490 96 -1400 000/00 RMK AO2
14837KMSN MSN20051028012009810/28/05 01:20:31  5-MIN KMSN 280720Z 00000KT 5SM BR CLR M02/M03 A3033 480 96 -1400 000/00 RMK AO2
14837KMSN MSN20051028012509810/28/05 01:25:31  5-MIN KMSN 280725Z 00000KT 5SM BR CLR M02/M03 A3034 480 92 -1400 000/00 RMK AO2
14837KMSN MSN20051028013009810/28/05 01:30:31  5-MIN KMSN 280730Z 00000KT 5SM BR CLR M02/M03 A3034 480 96 -1400 000/00 RMK AO2
14837KMSN MSN20051028013509810/28/05 01:35:31  5-MIN KMSN 280735Z 00000KT 6SM BR CLR M02/M03 A3034 480 96 -1400 000/00 RMK AO2
14837KMSN MSN20051028014009810/28/05 01:40:31  5-MIN KMSN 280740Z 00000KT 6SM BR CLR M02/M03 A3034 480 92 -1400 000/00 RMK AO2
14837KMSN MSN20051028014509810/28/05 01:45:31  5-MIN KMSN 280745Z 00000KT 6SM BR CLR M02/M03 A3034 480 92 -1400 000/00 RMK AO2
14837KMSN MSN20051028015011510/28/05 01:50:31  5-MIN KMSN 280750Z 00000KT 6SM BR CLR M02/M03 A3034 480 92 -1400 000/00 RMK AO2 SLP280 T10171028
14837KMSN MSN20051028015509810/28/05 01:55:31  5-MIN KMSN 280755Z 00000KT 6SM BR CLR M02/M03 A3034 480 96 -1400 000/00 RMK AO2
14837KMSN MSN20051028020009810/28/05 02:00:31  5-MIN KMSN 280800Z 00000KT 6SM BR CLR M02/M03 A3034 480 92 -1400 000/00 RMK AO2
14837KMSN MSN20051028020509510/28/05 02:05:31  5-MIN KMSN 280805Z 00000KT 7SM CLR M02/M03 A3034 480 92 -1400 000/00 RMK AO2
14837KMSN MSN20051028021009510/28/05 02:10:31  5-MIN KMSN 280810Z 00000KT 8SM CLR M02/M03 A3034 480 92 -1400 000/00 RMK AO2
14837KMSN MSN20051028021509510/28/05 02:15:31  5-MIN KMSN 280815Z 00000KT 8SM CLR M02/M03 A3034 480 92 -1400 000/00 RMK AO2
14837KMSN MSN20051028022009510/28/05 02:20:31  5-MIN KMSN 280820Z 00000KT 8SM CLR M02/M03 A3034 480 92 -1400 000/00 RMK AO2
14837KMSN MSN20051028022509510/28/05 02:25:31  5-MIN KMSN 280825Z 00000KT 8SM CLR M02/M03 A3034 480 92 -1400 000/00 RMK AO2
14837KMSN MSN20051028023009510/28/05 02:30:31  5-MIN KMSN 280830Z 00000KT 8SM CLR M02/M03 A3034 480 92 -1400 000/00 RMK AO2
14837KMSN MSN20051028023509510/28/05 02:35:31  5-MIN KMSN 280835Z 00000KT 7SM CLR M02/M03 A3034 480 92 -1400 000/00 RMK AO2
14837KMSN MSN20051028024009510/28/05 02:40:31  5-MIN KMSN 280840Z 00000KT 7SM CLR M02/M03 A3034 480 92 -1400 000/00 RMK AO2
14837KMSN MSN20051028024509510/28/05 02:45:31  5-MIN KMSN 280845Z 00000KT 7SM CLR M02/M03 A3034 480 92 -1400 000/00 RMK AO2
14837KMSN MSN20051028025011810/28/05 02:50:31  5-MIN KMSN 280850Z 00000KT 7SM CLR M02/M03 A3034 480 96 -1400 000/00 RMK AO2 SLP282 T10221028 53005
14837KMSN MSN20051028025509810/28/05 02:55:31  5-MIN KMSN 280855Z 00000KT 6SM BR CLR M03/M03 A3034 480 96 -1500 000/00 RMK AO2
14837KMSN MSN20051028030009810/28/05 03:00:31  5-MIN KMSN 280900Z 00000KT 5SM BR CLR M03/M03 A3034 480 96 -1500 000/00 RMK AO2
14837KMSN MSN20051028030509810/28/05 03:05:31  5-MIN KMSN 280905Z 00000KT 5SM BR CLR M03/M03 A3034 480 96 -1500 000/00 RMK AO2
14837KMSN MSN20051028031009910/28/05 03:10:31  5-MIN KMSN 280910Z 00000KT 6SM BR CLR M03/M03 A3034 480 100 -1500 000/00 RMK AO2
14837KMSN MSN20051028031509810/28/05 03:15:31  5-MIN KMSN 280915Z 00000KT 5SM BR CLR M03/M03 A3035 470 96 -1500 000/00 RMK AO2
14837KMSN MSN20051028032009810/28/05 03:20:31  5-MIN KMSN 280920Z 00000KT 5SM BR CLR M03/M03 A3035 470 96 -1500 000/00 RMK AO2
14837KMSN MSN20051028032509810/28/05 03:25:31  5-MIN KMSN 280925Z 00000KT 6SM BR CLR M02/M04 A3035 470 88 -1400 000/00 RMK AO2
14837KMSN MSN20051028033009510/28/05 03:30:31  5-MIN KMSN 280930Z 00000KT 7SM CLR M02/M04 A3035 470 88 -1400 000/00 RMK AO2
14837KMSN MSN20051028033509810/28/05 03:35:31  5-MIN KMSN 280935Z 00000KT 6SM BR CLR M03/M03 A3035 470 96 -1500 000/00 RMK AO2
14837KMSN MSN20051028034009810/28/05 03:40:31  5-MIN KMSN 280940Z 00000KT 5SM BR CLR M03/M03 A3035 470 96 -1500 000/00 RMK AO2
14837KMSN MSN20051028034509810/28/05 03:45:31  5-MIN KMSN 280945Z 00000KT 5SM BR CLR M03/M03 A3035 470 96 -1500 000/00 RMK AO2
14837KMSN MSN20051028035011510/28/05 03:50:31  5-MIN KMSN 280950Z 00000KT 5SM BR CLR M03/M03 A3035 470 96 -1500 000/00 RMK AO2 SLP285 T10281033
14837KMSN MSN20051028035509810/28/05 03:55:31  5-MIN KMSN 280955Z 00000KT 6SM BR CLR M03/M03 A3035 470 96 -1500 000/00 RMK AO2
14837KMSN MSN20051028040009510/28/05 04:00:31  5-MIN KMSN 281000Z 00000KT 7SM CLR M03/M04 A3035 470 92 -1500 000/00 RMK AO2
14837KMSN MSN20051028040509510/28/05 04:05:31  5-MIN KMSN 281005Z 00000KT 7SM CLR M03/M04 A3035 470 96 -1600 000/00 RMK AO2
14837KMSN MSN20051028041009510/28/05 04:10:31  5-MIN KMSN 281010Z 00000KT 7SM CLR M03/M04 A3035 470 92 -1500 000/00 RMK AO2
14837KMSN MSN20051028041509510/28/05 04:15:31  5-MIN KMSN 281015Z 00000KT 7SM CLR M03/M04 A3035 470 92 -1500 000/00 RMK AO2
14837KMSN MSN20051028042009510/28/05 04:20:31  5-MIN KMSN 281020Z 00000KT 7SM CLR M03/M03 A3036 460 96 -1500 000/00 RMK AO2
14837KMSN MSN20051028042509810/28/05 04:25:31  5-MIN KMSN 281025Z 00000KT 6SM BR CLR M03/M03 A3036 460 96 -1500 000/00 RMK AO2
14837KMSN MSN20051028043009810/28/05 04:30:31  5-MIN KMSN 281030Z 00000KT 6SM BR CLR M03/M04 A3036 460 92 -1500 000/00 RMK AO2
14837KMSN MSN20051028043509810/28/05 04:35:31  5-MIN KMSN 281035Z 00000KT 6SM BR CLR M03/M04 A3036 460 96 -1600 000/00 RMK AO2
14837KMSN MSN20051028044009810/28/05 04:40:31  5-MIN KMSN 281040Z 00000KT 5SM BR CLR M03/M04 A3036 460 92 -1500 000/00 RMK AO2
14837KMSN MSN20051028044509810/28/05 04:45:31  5-MIN KMSN 281045Z 00000KT 6SM BR CLR M03/M04 A3036 460 92 -1600 000/00 RMK AO2
14837KMSN MSN20051028045011210/28/05 04:50:31  5-MIN KMSN 281050Z 00000KT 7SM CLR M03/M04 A3036 460 96 -1600 000/00 RMK AO2 SLP289 T10331039
14837KMSN MSN20051028045509810/28/05 04:55:31  5-MIN KMSN 281055Z 00000KT 6SM BR CLR M03/M04 A3036 460 96 -1600 000/00 RMK AO2
14837KMSN MSN20051028050009810/28/05 05:00:31  5-MIN KMSN 281100Z 00000KT 6SM BR CLR M03/M04 A3036 460 96 -1600 000/00 RMK AO2
14837KMSN MSN20051028050509810/28/05 05:05:31  5-MIN KMSN 281105Z 00000KT 6SM BR CLR M03/M04 A3036 460 92 -1500 000/00 RMK AO2
14837KMSN MSN20051028051009810/28/05 05:10:31  5-MIN KMSN 281110Z 00000KT 6SM BR CLR M03/M04 A3036 460 96 -1600 000/00 RMK AO2
14837KMSN MSN20051028051509510/28/05 05:15:31  5-MIN KMSN 281115Z 00000KT 7SM CLR M03/M04 A3036 460 96 -1600 000/00 RMK AO2
14837KMSN MSN20051028052009810/28/05 05:20:31  5-MIN KMSN 281120Z 00000KT 6SM BR CLR M03/M04 A3037 460 96 -1600 000/00 RMK AO2
14837KMSN MSN20051028052509810/28/05 05:25:31  5-MIN KMSN 281125Z 00000KT 6SM BR CLR M03/M04 A3036 460 96 -1600 000/00 RMK AO2
14837KMSN MSN20051028053009510/28/05 05:30:31  5-MIN KMSN 281130Z 00000KT 7SM CLR M03/M04 A3036 460 96 -1600 000/00 RMK AO2
14837KMSN MSN20051028053509510/28/05 05:35:31  5-MIN KMSN 281135Z 00000KT 7SM CLR M03/M04 A3037 450 92 -1600 000/00 RMK AO2
14837KMSN MSN20051028054009510/28/05 05:40:31  5-MIN KMSN 281140Z 35003KT 7SM CLR M03/M04 A3037 450 92 -1600 350/03 RMK AO2
14837KMSN MSN20051028054509510/28/05 05:45:31  5-MIN KMSN 281145Z 35003KT 7SM CLR M04/M04 A3037 450 96 -1700 350/03 RMK AO2
14837KMSN MSN20051028055013010/28/05 05:50:31  5-MIN KMSN 281150Z 35003KT 7SM CLR M04/M04 A3037 450 96 -1700 350/03 RMK AO2 SLP294 T10391044 11011 21039 53004
14837KMSN MSN20051028055509510/28/05 05:55:31  5-MIN KMSN 281155Z 34003KT 7SM CLR M03/M04 A3037 450 92 -1600 340/03 RMK AO2
14837KMSN MSN20051028060009810/28/05 06:00:31  5-MIN KMSN 281200Z 00000KT 6SM BR CLR M04/M04 A3037 450 96 -1700 000/00 RMK AO2
14837KMSN MSN20051028060509510/28/05 06:05:31  5-MIN KMSN 281205Z 00000KT 7SM CLR M03/M04 A3037 450 92 -1600 000/00 RMK AO2
14837KMSN MSN20051028061009510/28/05 06:10:31  5-MIN KMSN 281210Z 00000KT 7SM CLR M03/M04 A3037 450 92 -1600 000/00 RMK AO2
14837KMSN MSN20051028061509510/28/05 06:15:31  5-MIN KMSN 281215Z 00000KT 7SM CLR M04/M04 A3037 450 96 -1700 000/00 RMK AO2
14837KMSN MSN20051028062009810/28/05 06:20:31  5-MIN KMSN 281220Z 00000KT 6SM BR CLR M03/M04 A3037 450 92 -1500 000/00 RMK AO2
14837KMSN MSN20051028062509810/28/05 06:25:31  5-MIN KMSN 281225Z 00000KT 6SM BR CLR M03/M04 A3038 440 92 -1500 000/00 RMK AO2
14837KMSN MSN20051028063009810/28/05 06:30:31  5-MIN KMSN 281230Z 00000KT 5SM BR CLR M03/M04 A3038 440 92 -1500 000/00 RMK AO2
14837KMSN MSN20051028063509810/28/05 06:35:31  5-MIN KMSN 281235Z 00000KT 5SM BR CLR M03/M04 A3038 440 96 -1600 000/00 RMK AO2
14837KMSN MSN20051028064009810/28/05 06:40:31  5-MIN KMSN 281240Z 00000KT 5SM BR CLR M03/M04 A3038 440 92 -1600 000/00 RMK AO2
14837KMSN MSN20051028064509810/28/05 06:45:31  5-MIN KMSN 281245Z 00000KT 5SM BR CLR M03/M04 A3038 440 92 -1600 000/00 RMK AO2
14837KMSN MSN20051028065011510/28/05 06:50:31  5-MIN KMSN 281250Z 00000KT 6SM BR CLR M03/M04 A3038 440 92 -1500 000/00 RMK AO2 SLP299 T10281039
14837KMSN MSN20051028065509510/28/05 06:55:31  5-MIN KMSN 281255Z 00000KT 7SM CLR M03/M04 A3038 440 92 -1600 000/00 RMK AO2
14837KMSN MSN20051028070009510/28/05 07:00:31  5-MIN KMSN 281300Z 00000KT 7SM CLR M02/M04 A3038 440 88 -1500 000/00 RMK AO2
14837KMSN MSN20051028070509810/28/05 07:05:31  5-MIN KMSN 281305Z 00000KT 6SM BR CLR M02/M03 A3039 440 96 -1500 000/00 RMK AO2
14837KMSN MSN20051028071009810/28/05 07:10:31  5-MIN KMSN 281310Z 00000KT 6SM BR CLR M02/M03 A3039 430 92 -1500 000/00 RMK AO2
14837KMSN MSN20051028071509810/28/05 07:15:31  5-MIN KMSN 281315Z 00000KT 6SM BR CLR M02/M03 A3039 430 92 -1400 000/00 RMK AO2
14837KMSN MSN20051028072009810/28/05 07:20:31  5-MIN KMSN 281320Z 00000KT 6SM BR CLR M02/M03 A3039 430 92 -1400 000/00 RMK AO2
14837KMSN MSN20051028072509510/28/05 07:25:31  5-MIN KMSN 281325Z 00000KT 7SM CLR M01/M03 A3039 430 88 -1300 000/00 RMK AO2
14837KMSN MSN20051028073009510/28/05 07:30:31  5-MIN KMSN 281330Z 00000KT 7SM CLR M01/M03 A3039 430 88 -1400 000/00 RMK AO2
14837KMSN MSN20051028073509510/28/05 07:35:31  5-MIN KMSN 281335Z 00000KT 7SM CLR M01/M03 A3039 430 85 -1300 000/00 RMK AO2
14837KMSN MSN20051028074009410/28/05 07:40:31  5-MIN KMSN 281340Z 00000KT 7SM CLR 00/M02 A3040 430 85 -1200 000/00 RMK AO2
14837KMSN MSN20051028074509410/28/05 07:45:31  5-MIN KMSN 281345Z 00000KT 7SM CLR 01/M02 A3040 430 85 -1100 000/00 RMK AO2
14837KMSN MSN20051028075011110/28/05 07:50:31  5-MIN KMSN 281350Z 00000KT 7SM CLR 01/M02 A3040 420 85 -1100 000/00 RMK AO2 SLP304 T00061017
14837KMSN MSN20051028075509410/28/05 07:55:31  5-MIN KMSN 281355Z 00000KT 7SM CLR 01/M01 A3040 420 85 -1100 000/00 RMK AO2
14837KMSN MSN20051028080009410/28/05 08:00:31  5-MIN KMSN 281400Z 00000KT 7SM CLR 01/M01 A3040 420 85 -1100 000/00 RMK AO2
14837KMSN MSN20051028080509410/28/05 08:05:31  5-MIN KMSN 281405Z 00000KT 7SM CLR 02/M01 A3040 420 85 -1000 000/00 RMK AO2
14837KMSN MSN20051028081009310/28/05 08:10:31  5-MIN KMSN 281410Z 00000KT 7SM CLR 02/M01 A3040 420 82 -900 000/00 RMK AO2
14837KMSN MSN20051028081509210/28/05 08:15:31  5-MIN KMSN 281415Z 00000KT 7SM CLR 03/00 A3040 420 82 -900 000/00 RMK AO2
14837KMSN MSN20051028082009210/28/05 08:20:31  5-MIN KMSN 281420Z 00000KT 7SM CLR 03/01 A3040 420 85 -900 000/00 RMK AO2
14837KMSN MSN20051028082509210/28/05 08:25:31  5-MIN KMSN 281425Z 00000KT 7SM CLR 03/01 A3041 420 82 -800 000/00 RMK AO2
14837KMSN MSN20051028083009210/28/05 08:30:31  5-MIN KMSN 281430Z 00000KT 7SM CLR 04/01 A3040 420 82 -700 000/00 RMK AO2
14837KMSN MSN20051028083509510/28/05 08:35:31  5-MIN KMSN 281435Z 00000KT 6SM HZ CLR 04/01 A3040 420 82 -700 000/00 RMK AO2
14837KMSN MSN20051028084009210/28/05 08:40:31  5-MIN KMSN 281440Z 00000KT 7SM CLR 04/02 A3040 420 82 -700 000/00 RMK AO2
14837KMSN MSN20051028084509210/28/05 08:45:31  5-MIN KMSN 281445Z 00000KT 7SM CLR 05/02 A3040 420 82 -600 000/00 RMK AO2
14837KMSN MSN20051028085011510/28/05 08:50:31  5-MIN KMSN 281450Z 00000KT 7SM CLR 06/03 A3040 420 82 -500 000/00 RMK AO2 SLP304 T00560028 53010
14837KMSN MSN20051028085509210/28/05 08:55:31  5-MIN KMSN 281455Z 00000KT 7SM CLR 06/02 A3040 420 79 -500 000/00 RMK AO2
14837KMSN MSN20051028090009210/28/05 09:00:31  5-MIN KMSN 281500Z 00000KT 7SM CLR 06/03 A3040 420 79 -500 000/00 RMK AO2
14837KMSN MSN20051028090509210/28/05 09:05:31  5-MIN KMSN 281505Z 00000KT 7SM CLR 07/03 A3040 420 76 -400 000/00 RMK AO2
14837KMSN MSN20051028091009210/28/05 09:10:31  5-MIN KMSN 281510Z 00000KT 7SM CLR 07/03 A3040 420 76 -400 000/00 RMK AO2
14837KMSN MSN20051028091509210/28/05 09:15:31  5-MIN KMSN 281515Z 00000KT 7SM CLR 07/03 A3040 420 73 -300 000/00 RMK AO2
14837KMSN MSN20051028092009210/28/05 09:20:31  5-MIN KMSN 281520Z 00000KT 8SM CLR 07/03 A3040 420 73 -300 000/00 RMK AO2
14837KMSN MSN20051028092509210/28/05 09:25:31  5-MIN KMSN 281525Z 00000KT 8SM CLR 08/03 A3040 420 68 -200 000/00 RMK AO2
14837KMSN MSN20051028093009210/28/05 09:30:31  5-MIN KMSN 281530Z 00000KT 8SM CLR 08/03 A3040 430 68 -200 000/00 RMK AO2
14837KMSN MSN20051028093509210/28/05 09:35:31  5-MIN KMSN 281535Z 00000KT 8SM CLR 08/03 A3040 430 68 -200 000/00 RMK AO2
14837KMSN MSN20051028094009210/28/05 09:40:31  5-MIN KMSN 281540Z 00000KT 8SM CLR 08/03 A3040 430 70 -200 000/00 RMK AO2
14837KMSN MSN20051028094509210/28/05 09:45:31  5-MIN KMSN 281545Z 00000KT 8SM CLR 09/03 A3040 430 68 -100 000/00 RMK AO2
14837KMSN MSN20051028095010610/28/05 09:50:31  5-MIN KMSN 281550Z 00000KT 8SM CLR 09/04 A3040 430 68 0 000/00 RMK AO2 SLP300 T00940039
14837KMSN MSN20051028095508910/28/05 09:55:31  5-MIN KMSN 281555Z 00000KT 8SM CLR 09/03 A3040 430 65 0 000/00 RMK AO2
14837KMSN MSN20051028100008910/28/05 10:00:31  5-MIN KMSN 281600Z 00000KT 8SM CLR 10/03 A3040 430 63 0 000/00 RMK AO2
14837KMSN MSN20051028100508910/28/05 10:05:31  5-MIN KMSN 281605Z VRB03KT 8SM CLR 10/03 A3040 430 63 0 VRB/03 RMK AO2
14837KMSN MSN20051028101008910/28/05 10:10:31  5-MIN KMSN 281610Z 00000KT 8SM CLR 11/03 A3039 430 58 0 000/00 RMK AO2
14837KMSN MSN20051028101508910/28/05 10:15:31  5-MIN KMSN 281615Z 00000KT 8SM CLR 11/03 A3039 430 58 0 000/00 RMK AO2
14837KMSN MSN20051028102008910/28/05 10:20:31  5-MIN KMSN 281620Z VRB03KT 8SM CLR 11/03 A3039 430 58 0 VRB/03 RMK AO2
14837KMSN MSN20051028102508910/28/05 10:25:31  5-MIN KMSN 281625Z 16005KT 8SM CLR 11/03 A3039 430 58 0 160/05 RMK AO2
14837KMSN MSN20051028103008910/28/05 10:30:31  5-MIN KMSN 281630Z VRB03KT 8SM CLR 11/03 A3039 430 58 0 VRB/03 RMK AO2
14837KMSN MSN20051028103509110/28/05 10:35:31  5-MIN KMSN 281635Z 15004KT 8SM CLR 11/03 A3039 430 56 100 150/04 RMK AO2
14837KMSN MSN20051028104009110/28/05 10:40:31  5-MIN KMSN 281640Z 17004KT 9SM CLR 11/02 A3039 430 54 100 170/04 RMK AO2
14837KMSN MSN20051028104509210/28/05 10:45:31  5-MIN KMSN 281645Z 00000KT 10SM CLR 11/02 A3039 430 52 100 000/00 RMK AO2
14837KMSN MSN20051028105010910/28/05 10:50:31  5-MIN KMSN 281650Z 22003KT 10SM CLR 11/01 A3039 430 50 100 220/03 RMK AO2 SLP299 T01110011
14837KMSN MSN20051028105509210/28/05 10:55:31  5-MIN KMSN 281655Z VRB06KT 10SM CLR 12/02 A3039 430 50 200 VRB/06 RMK AO2
14837KMSN MSN20051028110009210/28/05 11:00:31  5-MIN KMSN 281700Z 00000KT 10SM CLR 11/01 A3039 430 50 100 000/00 RMK AO2
14837KMSN MSN20051028110509210/28/05 11:05:31  5-MIN KMSN 281705Z VRB04KT 10SM CLR 12/01 A3039 430 46 200 VRB/04 RMK AO2
14837KMSN MSN20051028111009210/28/05 11:10:31  5-MIN KMSN 281710Z 00000KT 10SM CLR 12/01 A3039 440 46 200 000/00 RMK AO2
14837KMSN MSN20051028111509210/28/05 11:15:31  5-MIN KMSN 281715Z VRB04KT 10SM CLR 12/01 A3039 440 46 200 VRB/04 RMK AO2
14837KMSN MSN20051028112009210/28/05 11:20:31  5-MIN KMSN 281720Z 16003KT 10SM CLR 12/01 A3038 440 46 200 160/03 RMK AO2
14837KMSN MSN20051028112509210/28/05 11:25:31  5-MIN KMSN 281725Z VRB04KT 10SM CLR 12/01 A3038 440 46 200 VRB/04 RMK AO2
14837KMSN MSN20051028113009210/28/05 11:30:31  5-MIN KMSN 281730Z VRB03KT 10SM CLR 12/01 A3038 440 46 300 VRB/03 RMK AO2
14837KMSN MSN20051028113509210/28/05 11:35:31  5-MIN KMSN 281735Z 19006KT 10SM CLR 12/01 A3038 440 46 300 190/06 RMK AO2
14837KMSN MSN20051028114009210/28/05 11:40:31  5-MIN KMSN 281740Z 14005KT 10SM CLR 12/01 A3037 450 46 300 140/05 RMK AO2
14837KMSN MSN20051028114509210/28/05 11:45:31  5-MIN KMSN 281745Z 11004KT 10SM CLR 12/01 A3037 450 46 300 100/04 RMK AO2
14837KMSN MSN20051028115012710/28/05 11:50:31  5-MIN KMSN 281750Z 16006KT 10SM CLR 12/02 A3037 450 48 300 160/06 RMK AO2 SLP291 T01220017 10128 21039 51010
14837KMSN MSN20051028115509210/28/05 11:55:31  5-MIN KMSN 281755Z 15005KT 10SM CLR 12/02 A3037 450 48 300 150/05 RMK AO2
14837KMSN MSN20051028120009210/28/05 12:00:31  5-MIN KMSN 281800Z 00000KT 10SM CLR 12/01 A3037 450 46 300 000/00 RMK AO2
14837KMSN MSN20051028120509210/28/05 12:05:31  5-MIN KMSN 281805Z VRB05KT 10SM CLR 13/02 A3037 450 46 300 VRB/05 RMK AO2
14837KMSN MSN20051028121009210/28/05 12:10:31  5-MIN KMSN 281810Z VRB04KT 10SM CLR 12/02 A3036 460 48 300 VRB/04 RMK AO2
14837KMSN MSN20051028121509210/28/05 12:15:31  5-MIN KMSN 281815Z VRB04KT 10SM CLR 13/02 A3036 460 46 300 VRB/04 RMK AO2
14837KMSN MSN20051028122009210/28/05 12:20:31  5-MIN KMSN 281820Z 19005KT 10SM CLR 12/01 A3036 460 46 300 190/05 RMK AO2
14837KMSN MSN20051028122509210/28/05 12:25:31  5-MIN KMSN 281825Z VRB03KT 10SM CLR 13/02 A3036 460 46 300 VRB/03 RMK AO2
14837KMSN MSN20051028123009210/28/05 12:30:31  5-MIN KMSN 281830Z 17004KT 10SM CLR 13/02 A3036 460 46 300 170/04 RMK AO2
14837KMSN MSN20051028123509210/28/05 12:35:31  5-MIN KMSN 281835Z 00000KT 10SM CLR 13/02 A3036 460 46 300 000/00 RMK AO2
14837KMSN MSN20051028124009210/28/05 12:40:31  5-MIN KMSN 281840Z 25004KT 10SM CLR 13/01 A3036 460 44 300 250/04 RMK AO2
14837KMSN MSN20051028124509210/28/05 12:45:31  5-MIN KMSN 281845Z VRB04KT 10SM CLR 13/01 A3036 460 44 300 VRB/04 RMK AO2
14837KMSN MSN20051028125010910/28/05 12:50:31  5-MIN KMSN 281850Z 00000KT 10SM CLR 13/01 A3035 470 43 400 000/00 RMK AO2 SLP285 T01330011
14837KMSN MSN20051028125509210/28/05 12:55:31  5-MIN KMSN 281855Z VRB03KT 10SM CLR 13/01 A3035 470 43 400 VRB/03 RMK AO2
14837KMSN MSN20051028130009210/28/05 13:00:31  5-MIN KMSN 281900Z 21005KT 10SM CLR 13/01 A3035 470 43 400 210/05 RMK AO2
14837KMSN MSN20051028130509210/28/05 13:05:31  5-MIN KMSN 281905Z VRB04KT 10SM CLR 13/01 A3035 470 43 400 VRB/04 RMK AO2
14837KMSN MSN20051028131009210/28/05 13:10:31  5-MIN KMSN 281910Z 25005KT 10SM CLR 13/01 A3035 470 41 400 250/05 RMK AO2
14837KMSN MSN20051028131509210/28/05 13:15:31  5-MIN KMSN 281915Z 17004KT 10SM CLR 13/01 A3035 470 43 400 170/04 RMK AO2
14837KMSN MSN20051028132009210/28/05 13:20:31  5-MIN KMSN 281920Z 00000KT 10SM CLR 13/01 A3034 480 41 400 000/00 RMK AO2
14837KMSN MSN20051028132509210/28/05 13:25:31  5-MIN KMSN 281925Z 24006KT 10SM CLR 13/01 A3034 480 41 400 240/06 RMK AO2
14837KMSN MSN20051028133009210/28/05 13:30:31  5-MIN KMSN 281930Z 00000KT 10SM CLR 13/01 A3034 480 43 400 000/00 RMK AO2
14837KMSN MSN20051028133509210/28/05 13:35:31  5-MIN KMSN 281935Z VRB03KT 10SM CLR 13/01 A3034 480 41 400 VRB/03 RMK AO2
14837KMSN MSN20051028134009210/28/05 13:40:31  5-MIN KMSN 281940Z 00000KT 10SM CLR 13/01 A3034 480 41 400 000/00 RMK AO2
14837KMSN MSN20051028134509210/28/05 13:45:31  5-MIN KMSN 281945Z VRB03KT 10SM CLR 13/01 A3034 480 41 400 VRB/03 RMK AO2
14837KMSN MSN20051028135010910/28/05 13:50:31  5-MIN KMSN 281950Z 00000KT 10SM CLR 13/01 A3033 480 41 400 000/00 RMK AO2 SLP279 T01330006
14837KMSN MSN20051028135509210/28/05 13:55:31  5-MIN KMSN 281955Z 00000KT 10SM CLR 13/01 A3033 480 41 400 000/00 RMK AO2
14837KMSN MSN20051028140009210/28/05 14:00:31  5-MIN KMSN 282000Z VRB05KT 10SM CLR 14/01 A3033 480 40 500 VRB/05 RMK AO2
14837KMSN MSN20051028140509210/28/05 14:05:31  5-MIN KMSN 282005Z VRB03KT 10SM CLR 13/01 A3033 490 41 400 VRB/03 RMK AO2
14837KMSN MSN20051028141009210/28/05 14:10:31  5-MIN KMSN 282010Z 23004KT 10SM CLR 13/00 A3033 490 40 400 230/04 RMK AO2
14837KMSN MSN20051028141509210/28/05 14:15:31  5-MIN KMSN 282015Z VRB03KT 10SM CLR 13/01 A3033 490 41 400 VRB/03 RMK AO2
14837KMSN MSN20051028142009210/28/05 14:20:31  5-MIN KMSN 282020Z 13005KT 10SM CLR 14/01 A3033 490 40 500 130/05 RMK AO2
14837KMSN MSN20051028142509210/28/05 14:25:31  5-MIN KMSN 282025Z VRB04KT 10SM CLR 14/01 A3033 490 40 500 VRB/04 RMK AO2
14837KMSN MSN20051028143009210/28/05 14:30:31  5-MIN KMSN 282030Z 16006KT 10SM CLR 13/01 A3033 490 41 400 150/06 RMK AO2
14837KMSN MSN20051028143509210/28/05 14:35:31  5-MIN KMSN 282035Z 18007KT 10SM CLR 13/01 A3033 490 41 400 180/07 RMK AO2
14837KMSN MSN20051028144009210/28/05 14:40:31  5-MIN KMSN 282040Z 16007KT 10SM CLR 13/01 A3033 490 41 400 160/07 RMK AO2
14837KMSN MSN20051028144509210/28/05 14:45:31  5-MIN KMSN 282045Z 16006KT 10SM CLR 13/01 A3033 490 41 400 160/06 RMK AO2
14837KMSN MSN20051028145011510/28/05 14:50:31  5-MIN KMSN 282050Z 17006KT 10SM CLR 14/01 A3033 490 40 500 170/06 RMK AO2 SLP276 T01390006 58011
14837KMSN MSN20051028145509210/28/05 14:55:31  5-MIN KMSN 282055Z 17007KT 10SM CLR 13/01 A3033 490 43 400 170/07 RMK AO2
14837KMSN MSN20051028150009210/28/05 15:00:31  5-MIN KMSN 282100Z 17007KT 10SM CLR 13/01 A3032 490 41 400 170/07 RMK AO2
14837KMSN MSN20051028150509210/28/05 15:05:31  5-MIN KMSN 282105Z 17005KT 10SM CLR 13/01 A3032 490 41 500 170/05 RMK AO2
14837KMSN MSN20051028151009210/28/05 15:10:31  5-MIN KMSN 282110Z 15005KT 10SM CLR 13/01 A3032 490 43 500 140/05 RMK AO2
14837KMSN MSN20051028151509210/28/05 15:15:31  5-MIN KMSN 282115Z 22004KT 10SM CLR 13/01 A3032 490 41 500 210/04 RMK AO2
14837KMSN MSN20051028152009210/28/05 15:20:31  5-MIN KMSN 282120Z 18004KT 10SM CLR 13/01 A3032 500 41 500 180/04 RMK AO2
14837KMSN MSN20051028152509210/28/05 15:25:31  5-MIN KMSN 282125Z 18005KT 10SM CLR 13/01 A3032 490 43 500 180/05 RMK AO2
14837KMSN MSN20051028153009210/28/05 15:30:31  5-MIN KMSN 282130Z 17005KT 10SM CLR 13/01 A3032 500 41 500 170/05 RMK AO2
14837KMSN MSN20051028153509210/28/05 15:35:31  5-MIN KMSN 282135Z 18005KT 10SM CLR 13/01 A3032 500 41 500 180/05 RMK AO2
14837KMSN MSN20051028154009210/28/05 15:40:31  5-MIN KMSN 282140Z 16007KT 10SM CLR 13/01 A3032 500 43 500 160/07 RMK AO2
14837KMSN MSN20051028154509210/28/05 15:45:31  5-MIN KMSN 282145Z 16006KT 10SM CLR 13/01 A3032 500 44 400 160/06 RMK AO2
14837KMSN MSN20051028155010910/28/05 15:50:31  5-MIN KMSN 282150Z 17005KT 10SM CLR 13/01 A3032 500 44 400 170/05 RMK AO2 SLP273 T01280011
14837KMSN MSN20051028155509210/28/05 15:55:31  5-MIN KMSN 282155Z 18006KT 10SM CLR 13/01 A3032 500 44 400 180/06 RMK AO2
14837KMSN MSN20051028160009210/28/05 16:00:31  5-MIN KMSN 282200Z 19008KT 10SM CLR 13/01 A3032 500 43 400 190/08 RMK AO2
14837KMSN MSN20051028160509210/28/05 16:05:31  5-MIN KMSN 282205Z 18006KT 10SM CLR 13/01 A3032 500 43 400 180/06 RMK AO2
14837KMSN MSN20051028161009210/28/05 16:10:31  5-MIN KMSN 282210Z 17006KT 10SM CLR 13/01 A3032 500 44 400 170/06 RMK AO2
14837KMSN MSN20051028161509210/28/05 16:15:31  5-MIN KMSN 282215Z 18006KT 10SM CLR 12/02 A3032 500 48 300 180/06 RMK AO2
14837KMSN MSN20051028162009210/28/05 16:20:31  5-MIN KMSN 282220Z 18006KT 10SM CLR 12/01 A3032 500 46 300 180/06 RMK AO2
14837KMSN MSN20051028162509210/28/05 16:25:31  5-MIN KMSN 282225Z 18005KT 10SM CLR 12/01 A3032 500 46 300 180/05 RMK AO2
14837KMSN MSN20051028163009210/28/05 16:30:31  5-MIN KMSN 282230Z 19006KT 10SM CLR 12/01 A3032 500 46 300 190/06 RMK AO2
14837KMSN MSN20051028163509210/28/05 16:35:31  5-MIN KMSN 282235Z 19006KT 10SM CLR 12/01 A3032 500 48 300 190/06 RMK AO2
14837KMSN MSN20051028164009210/28/05 16:40:31  5-MIN KMSN 282240Z 19006KT 10SM CLR 12/01 A3031 500 48 300 190/06 RMK AO2
14837KMSN MSN20051028164509210/28/05 16:45:31  5-MIN KMSN 282245Z 19006KT 10SM CLR 12/01 A3031 500 46 300 190/06 RMK AO2
14837KMSN MSN20051028165010910/28/05 16:50:31  5-MIN KMSN 282250Z 19006KT 10SM CLR 12/01 A3031 500 46 300 190/06 RMK AO2 SLP272 T01170006
14837KMSN MSN20051028165509210/28/05 16:55:31  5-MIN KMSN 282255Z 19005KT 10SM CLR 11/01 A3031 500 48 200 190/05 RMK AO2
14837KMSN MSN20051028170009210/28/05 17:00:31  5-MIN KMSN 282300Z 19005KT 10SM CLR 11/01 A3031 500 48 200 190/05 RMK AO2
14837KMSN MSN20051028170509210/28/05 17:05:31  5-MIN KMSN 282305Z 19005KT 10SM CLR 11/01 A3031 500 48 200 190/05 RMK AO2
14837KMSN MSN20051028171009210/28/05 17:10:31  5-MIN KMSN 282310Z 20004KT 10SM CLR 11/01 A3031 500 48 200 200/04 RMK AO2
14837KMSN MSN20051028171509210/28/05 17:15:31  5-MIN KMSN 282315Z 20003KT 10SM CLR 11/01 A3032 500 48 200 200/03 RMK AO2
14837KMSN MSN20051028172009210/28/05 17:20:31  5-MIN KMSN 282320Z VRB03KT 10SM CLR 11/01 A3032 500 48 200 VRB/03 RMK AO2
14837KMSN MSN20051028172509210/28/05 17:25:31  5-MIN KMSN 282325Z 19004KT 10SM CLR 11/01 A3032 500 48 200 190/04 RMK AO2
14837KMSN MSN20051028173009210/28/05 17:30:31  5-MIN KMSN 282330Z 19003KT 10SM CLR 11/01 A3032 500 50 100 190/03 RMK AO2
14837KMSN MSN20051028173509210/28/05 17:35:31  5-MIN KMSN 282335Z 19003KT 10SM CLR 10/01 A3032 500 52 100 190/03 RMK AO2
14837KMSN MSN20051028174009010/28/05 17:40:31  5-MIN KMSN 282340Z 00000KT 10SM CLR 09/01 A3032 500 56 0 000/00 RMK AO2
14837KMSN MSN20051028174509310/28/05 17:45:31  5-MIN KMSN 282345Z 18004KT 10SM CLR 08/01 A3032 500 58 -100 180/04 RMK AO2
14837KMSN MSN20051028175012510/28/05 17:50:31  5-MIN KMSN 282350Z 18004KT 10SM CLR 09/01 A3032 500 56 0 180/04 RMK AO2 SLP276 T00890006 10139 20083 56014
14837KMSN MSN20051028175509010/28/05 17:55:31  5-MIN KMSN 282355Z 17004KT 10SM CLR 09/01 A3032 500 56 0 170/04 RMK AO2
14837KMSN MSN20051028180009010/28/05 18:00:31  5-MIN KMSN 290000Z 17004KT 10SM CLR 09/01 A3032 500 56 0 170/04 RMK AO2
14837KMSN MSN20051028180509310/28/05 18:05:31  5-MIN KMSN 290005Z 17004KT 10SM CLR 08/01 A3032 500 58 -100 170/04 RMK AO2
14837KMSN MSN20051028181009010/28/05 18:10:31  5-MIN KMSN 290010Z 18003KT 10SM CLR 09/01 A3032 500 58 0 180/03 RMK AO2
14837KMSN MSN20051028181509310/28/05 18:15:31  5-MIN KMSN 290015Z 19003KT 10SM CLR 08/01 A3032 490 60 -100 190/03 RMK AO2
14837KMSN MSN20051028182009310/28/05 18:20:31  5-MIN KMSN 290020Z 19003KT 10SM CLR 08/01 A3032 490 62 -200 190/03 RMK AO2
14837KMSN MSN20051028182509310/28/05 18:25:31  5-MIN KMSN 290025Z 00000KT 10SM CLR 06/01 A3032 490 70 -400 000/00 RMK AO2
14837KMSN MSN20051028183009310/28/05 18:30:31  5-MIN KMSN 290030Z 00000KT 10SM CLR 06/01 A3032 490 70 -400 000/00 RMK AO2
14837KMSN MSN20051028183509310/28/05 18:35:31  5-MIN KMSN 290035Z 17003KT 10SM CLR 06/01 A3032 500 67 -400 170/03 RMK AO2
14837KMSN MSN20051028184009310/28/05 18:40:31  5-MIN KMSN 290040Z 18004KT 10SM CLR 07/01 A3032 490 65 -200 180/04 RMK AO2
14837KMSN MSN20051028184509310/28/05 18:45:31  5-MIN KMSN 290045Z 19003KT 10SM CLR 06/01 A3032 490 67 -400 180/03 RMK AO2
14837KMSN MSN20051028185011010/28/05 18:50:31  5-MIN KMSN 290050Z 00000KT 10SM CLR 06/01 A3032 490 67 -400 000/00 RMK AO2 SLP278 T00610006
14837KMSN MSN20051028185509310/28/05 18:55:31  5-MIN KMSN 290055Z 17003KT 10SM CLR 06/01 A3033 490 70 -400 170/03 RMK AO2
14837KMSN MSN20051028190009310/28/05 19:00:31  5-MIN KMSN 290100Z 17003KT 10SM CLR 05/01 A3032 490 73 -500 170/03 RMK AO2
14837KMSN MSN20051028190509310/28/05 19:05:31  5-MIN KMSN 290105Z 17004KT 10SM CLR 06/01 A3032 490 70 -400 160/04 RMK AO2
14837KMSN MSN20051028191009310/28/05 19:10:31  5-MIN KMSN 290110Z 17004KT 10SM CLR 06/01 A3032 490 67 -400 170/04 RMK AO2
14837KMSN MSN20051028191509310/28/05 19:15:31  5-MIN KMSN 290115Z 17003KT 10SM CLR 06/01 A3032 490 67 -400 160/03 RMK AO2
14837KMSN MSN20051028192009310/28/05 19:20:31  5-MIN KMSN 290120Z 17004KT 10SM CLR 06/00 A3032 500 67 -400 170/04 RMK AO2
14837KMSN MSN20051028192509310/28/05 19:25:31  5-MIN KMSN 290125Z 17003KT 10SM CLR 06/00 A3032 500 67 -400 170/03 RMK AO2
14837KMSN MSN20051028193009310/28/05 19:30:31  5-MIN KMSN 290130Z 18003KT 10SM CLR 06/00 A3032 500 67 -400 180/03 RMK AO2
14837KMSN MSN20051028193509410/28/05 19:35:31  5-MIN KMSN 290135Z 17003KT 10SM CLR 04/M01 A3032 500 73 -600 170/03 RMK AO2
14837KMSN MSN20051028194009310/28/05 19:40:31  5-MIN KMSN 290140Z 17004KT 10SM CLR 04/00 A3032 500 73 -600 170/04 RMK AO2
14837KMSN MSN20051028194509310/28/05 19:45:31  5-MIN KMSN 290145Z 17004KT 10SM CLR 05/00 A3032 500 70 -500 170/04 RMK AO2
14837KMSN MSN20051028195011010/28/05 19:50:31  5-MIN KMSN 290150Z 17004KT 10SM CLR 06/00 A3032 500 67 -400 170/04 RMK AO2 SLP275 T00560000
14837KMSN MSN20051028195509310/28/05 19:55:31  5-MIN KMSN 290155Z 18003KT 10SM CLR 06/01 A3032 500 70 -400 180/03 RMK AO2
14837KMSN MSN20051028200009310/28/05 20:00:31  5-MIN KMSN 290200Z 17003KT 10SM CLR 04/00 A3032 500 73 -600 170/03 RMK AO2
14837KMSN MSN20051028200509310/28/05 20:05:31  5-MIN KMSN 290205Z 19003KT 10SM CLR 04/01 A3032 490 76 -600 190/03 RMK AO2
14837KMSN MSN20051028201009310/28/05 20:10:31  5-MIN KMSN 290210Z 19003KT 10SM CLR 04/01 A3032 490 79 -600 190/03 RMK AO2
14837KMSN MSN20051028201509310/28/05 20:15:31  5-MIN KMSN 290215Z 18003KT 10SM CLR 05/01 A3032 490 73 -500 180/03 RMK AO2
14837KMSN MSN20051028202009310/28/05 20:20:31  5-MIN KMSN 290220Z 17004KT 10SM CLR 06/01 A3032 490 70 -400 160/04 RMK AO2
14837KMSN MSN20051028202509310/28/05 20:25:31  5-MIN KMSN 290225Z 16005KT 10SM CLR 05/00 A3032 490 70 -500 160/05 RMK AO2
14837KMSN MSN20051028203009310/28/05 20:30:31  5-MIN KMSN 290230Z 16004KT 10SM CLR 05/01 A3032 490 73 -500 160/04 RMK AO2
14837KMSN MSN20051028203509310/28/05 20:35:31  5-MIN KMSN 290235Z 17003KT 10SM CLR 05/00 A3032 490 70 -500 170/03 RMK AO2
14837KMSN MSN20051028204009310/28/05 20:40:31  5-MIN KMSN 290240Z 00000KT 10SM CLR 05/01 A3032 490 73 -500 000/00 RMK AO2
14837KMSN MSN20051028204509310/28/05 20:45:31  5-MIN KMSN 290245Z 18003KT 10SM CLR 06/01 A3032 490 70 -400 180/03 RMK AO2
14837KMSN MSN20051028205011610/28/05 20:50:31  5-MIN KMSN 290250Z 17003KT 10SM CLR 06/01 A3032 490 70 -400 170/03 RMK AO2 SLP275 T00560006 55002
14837KMSN MSN20051028205509210/28/05 20:55:31  5-MIN KMSN 290255Z 18004KT 9SM CLR 05/01 A3033 490 73 -500 180/04 RMK AO2
14837KMSN MSN20051028210009210/28/05 21:00:31  5-MIN KMSN 290300Z 18003KT 9SM CLR 06/01 A3033 490 70 -400 180/03 RMK AO2
14837KMSN MSN20051028210509310/28/05 21:05:31  5-MIN KMSN 290305Z 19003KT 10SM CLR 06/01 A3033 490 70 -400 190/03 RMK AO2
14837KMSN MSN20051028211009310/28/05 21:10:31  5-MIN KMSN 290310Z 19003KT 10SM CLR 06/01 A3033 490 70 -400 190/03 RMK AO2
14837KMSN MSN20051028211509210/28/05 21:15:31  5-MIN KMSN 290315Z 18003KT 9SM CLR 04/01 A3033 490 79 -700 180/03 RMK AO2
14837KMSN MSN20051028212009210/28/05 21:20:31  5-MIN KMSN 290320Z 18004KT 9SM CLR 04/01 A3033 490 79 -600 180/04 RMK AO2
14837KMSN MSN20051028212509210/28/05 21:25:31  5-MIN KMSN 290325Z 18003KT 9SM CLR 04/01 A3033 490 76 -600 180/03 RMK AO2
14837KMSN MSN20051028213009210/28/05 21:30:31  5-MIN KMSN 290330Z 00000KT 9SM CLR 03/01 A3033 490 82 -700 000/00 RMK AO2
14837KMSN MSN20051028213509210/28/05 21:35:31  5-MIN KMSN 290335Z 00000KT 9SM CLR 03/01 A3033 480 85 -800 000/00 RMK AO2
14837KMSN MSN20051028214009210/28/05 21:40:31  5-MIN KMSN 290340Z 00000KT 9SM CLR 02/01 A3034 480 89 -900 000/00 RMK AO2
14837KMSN MSN20051028214509310/28/05 21:45:31  5-MIN KMSN 290345Z 00000KT 10SM CLR 03/00 A3033 480 79 -700 000/00 RMK AO2
14837KMSN MSN20051028215011010/28/05 21:50:31  5-MIN KMSN 290350Z 00000KT 10SM CLR 03/00 A3034 480 79 -700 000/00 RMK AO2 SLP279 T00330000
14837KMSN MSN20051028215509210/28/05 21:55:31  5-MIN KMSN 290355Z 15003KT 9SM CLR 04/00 A3033 480 76 -700 150/03 RMK AO2
14837KMSN MSN20051028220009210/28/05 22:00:31  5-MIN KMSN 290400Z 00000KT 9SM CLR 03/00 A3034 480 79 -700 000/00 RMK AO2
14837KMSN MSN20051028220509210/28/05 22:05:31  5-MIN KMSN 290405Z 00000KT 9SM CLR 03/00 A3034 480 79 -700 000/00 RMK AO2
14837KMSN MSN20051028221009310/28/05 22:10:31  5-MIN KMSN 290410Z 00000KT 9SM CLR 02/M01 A3033 480 82 -900 000/00 RMK AO2
14837KMSN MSN20051028221509310/28/05 22:15:31  5-MIN KMSN 290415Z 00000KT 9SM CLR 02/M01 A3033 480 82 -900 000/00 RMK AO2
14837KMSN MSN20051028222009310/28/05 22:20:31  5-MIN KMSN 290420Z 00000KT 9SM CLR 02/M01 A3033 480 82 -900 000/00 RMK AO2
14837KMSN MSN20051028222509310/28/05 22:25:31  5-MIN KMSN 290425Z 00000KT 9SM CLR 03/M01 A3034 480 79 -800 000/00 RMK AO2
14837KMSN MSN20051028223009310/28/05 22:30:31  5-MIN KMSN 290430Z 00000KT 9SM CLR 03/M01 A3034 480 79 -800 000/00 RMK AO2
14837KMSN MSN20051028223509310/28/05 22:35:31  5-MIN KMSN 290435Z 00000KT 9SM CLR 03/M01 A3034 480 79 -800 000/00 RMK AO2
14837KMSN MSN20051028224009310/28/05 22:40:31  5-MIN KMSN 290440Z 00000KT 9SM CLR 02/M01 A3034 480 82 -900 000/00 RMK AO2
14837KMSN MSN20051028224509310/28/05 22:45:31  5-MIN KMSN 290445Z 00000KT 9SM CLR 02/M01 A3034 480 78 -900 000/00 RMK AO2
14837KMSN MSN20051028225011110/28/05 22:50:31  5-MIN KMSN 290450Z 00000KT 10SM CLR 02/M01 A3034 480 78 -900 000/00 RMK AO2 SLP279 T00221011
14837KMSN MSN20051028225509310/28/05 22:55:31  5-MIN KMSN 290455Z 00000KT 9SM CLR 02/M01 A3034 480 82 -900 000/00 RMK AO2
14837KMSN MSN20051028230009310/28/05 23:00:31  5-MIN KMSN 290500Z 00000KT 9SM CLR 02/M01 A3034 480 82 -900 000/00 RMK AO2
14837KMSN MSN20051028230509310/28/05 23:05:31  5-MIN KMSN 290505Z 00000KT 9SM CLR 02/M01 A3034 480 82 -900 000/00 RMK AO2
14837KMSN MSN20051028231009310/28/05 23:10:31  5-MIN KMSN 290510Z 00000KT 9SM CLR 02/M01 A3034 480 82 -900 000/00 RMK AO2
14837KMSN MSN20051028231509310/28/05 23:15:31  5-MIN KMSN 290515Z 00000KT 9SM CLR 02/M01 A3034 480 78 -900 000/00 RMK AO2
14837KMSN MSN20051028232009310/28/05 23:20:31  5-MIN KMSN 290520Z 00000KT 9SM CLR 02/M01 A3034 480 82 -900 000/00 RMK AO2
14837KMSN MSN20051028232509310/28/05 23:25:31  5-MIN KMSN 290525Z 00000KT 9SM CLR 02/M01 A3034 480 82 -900 000/00 RMK AO2
14837KMSN MSN20051028233009310/28/05 23:30:31  5-MIN KMSN 290530Z 00000KT 9SM CLR 02/M01 A3034 480 78 -900 000/00 RMK AO2
14837KMSN MSN20051028233509410/28/05 23:35:31  5-MIN KMSN 290535Z 00000KT 9SM CLR 01/M02 A3034 480 82 -1000 000/00 RMK AO2
14837KMSN MSN20051028234009410/28/05 23:40:31  5-MIN KMSN 290540Z 00000KT 9SM CLR 01/M02 A3034 480 85 -1100 000/00 RMK AO2
14837KMSN MSN20051028234509410/28/05 23:45:31  5-MIN KMSN 290545Z 00000KT 9SM CLR 01/M02 A3034 480 82 -1000 000/00 RMK AO2
14837KMSN MSN20051028235013910/28/05 23:50:31  5-MIN KMSN 290550Z 00000KT 9SM CLR 01/M01 A3034 480 85 -1000 000/00 RMK AO2 SLP281 T00111011 10089 20006 401391039 51001
14837KMSN MSN20051028235509410/28/05 23:55:31  5-MIN KMSN 290555Z 00000KT 9SM CLR 01/M01 A3034 480 85 -1000 000/00 RMK AO2
14837KMSN MSN20051029000009410/29/05 00:00:38  5-MIN KMSN 290600Z 00000KT 9SM CLR 01/M01 A3034 480 89 -1100 000/00 RMK AO2
14837KMSN MSN20051029000509410/29/05 00:05:31  5-MIN KMSN 290605Z 00000KT 9SM CLR 01/M02 A3034 480 85 -1100 000/00 RMK AO2
14837KMSN MSN20051029001009410/29/05 00:10:31  5-MIN KMSN 290610Z 00000KT 9SM CLR 01/M01 A3034 480 85 -1000 000/00 RMK AO2
14837KMSN MSN20051029001509310/29/05 00:15:31  5-MIN KMSN 290615Z 00000KT 9SM CLR 02/M01 A3034 480 85 -900 000/00 RMK AO2
14837KMSN MSN20051029002009310/29/05 00:20:31  5-MIN KMSN 290620Z 00000KT 9SM CLR 02/M01 A3034 480 85 -900 000/00 RMK AO2
14837KMSN MSN20051029002509310/29/05 00:25:31  5-MIN KMSN 290625Z 00000KT 9SM CLR 02/M01 A3034 480 78 -900 000/00 RMK AO2
14837KMSN MSN20051029003009310/29/05 00:30:31  5-MIN KMSN 290630Z 00000KT 9SM CLR 02/M01 A3034 480 78 -900 000/00 RMK AO2
14837KMSN MSN20051029003509310/29/05 00:35:31  5-MIN KMSN 290635Z 00000KT 9SM CLR 02/M01 A3034 480 82 -900 000/00 RMK AO2
14837KMSN MSN20051029004009410/29/05 00:40:31  5-MIN KMSN 290640Z 00000KT 9SM CLR 01/M02 A3034 480 85 -1100 000/00 RMK AO2
14837KMSN MSN20051029004509410/29/05 00:45:31  5-MIN KMSN 290645Z 00000KT 8SM CLR 01/M01 A3034 480 85 -1000 000/00 RMK AO2
14837KMSN MSN20051029005011010/29/05 00:50:31  5-MIN KMSN 290650Z 00000KT 8SM CLR 02/M01 A3034 480 82 -900 000/00 RMK AO2 SLP278 T00171011
14837KMSN MSN20051029005509310/29/05 00:55:31  5-MIN KMSN 290655Z 00000KT 8SM CLR 02/M01 A3034 480 82 -900 000/00 RMK AO2
14837KMSN MSN20051029010009410/29/05 01:00:31  5-MIN KMSN 290700Z 00000KT 8SM CLR 01/M01 A3033 480 85 -1000 000/00 RMK AO2
14837KMSN MSN20051029010509410/29/05 01:05:31  5-MIN KMSN 290705Z 00000KT 8SM CLR 01/M01 A3034 480 85 -1000 000/00 RMK AO2
14837KMSN MSN20051029011009410/29/05 01:10:31  5-MIN KMSN 290710Z 00000KT 8SM CLR 01/M02 A3034 480 85 -1100 000/00 RMK AO2
14837KMSN MSN20051029011509310/29/05 01:15:31  5-MIN KMSN 290715Z 00000KT 8SM CLR 02/M02 A3033 490 78 -900 000/00 RMK AO2
14837KMSN MSN20051029012009410/29/05 01:20:31  5-MIN KMSN 290720Z 00000KT 8SM CLR 01/M02 A3033 480 82 -1000 000/00 RMK AO2
14837KMSN MSN20051029012509310/29/05 01:25:31  5-MIN KMSN 290725Z 00000KT 8SM CLR 02/M01 A3034 480 82 -900 000/00 RMK AO2
14837KMSN MSN20051029013009410/29/05 01:30:31  5-MIN KMSN 290730Z 00000KT 8SM CLR 01/M02 A3034 480 82 -1000 000/00 RMK AO2
14837KMSN MSN20051029013509410/29/05 01:35:31  5-MIN KMSN 290735Z 00000KT 8SM CLR 01/M02 A3034 480 85 -1100 000/00 RMK AO2
14837KMSN MSN20051029014009410/29/05 01:40:31  5-MIN KMSN 290740Z 00000KT 8SM CLR 01/M02 A3034 480 82 -1000 000/00 RMK AO2
14837KMSN MSN20051029014509310/29/05 01:45:31  5-MIN KMSN 290745Z 00000KT 8SM CLR 02/M01 A3034 480 82 -900 000/00 RMK AO2
14837KMSN MSN20051029015011010/29/05 01:50:31  5-MIN KMSN 290750Z 00000KT 8SM CLR 02/M01 A3034 480 82 -900 000/00 RMK AO2 SLP278 T00171011
14837KMSN MSN20051029015509310/29/05 01:55:31  5-MIN KMSN 290755Z 00000KT 8SM CLR 02/M01 A3034 480 82 -900 000/00 RMK AO2
14837KMSN MSN20051029020009310/29/05 02:00:31  5-MIN KMSN 290800Z 00000KT 8SM CLR 02/M02 A3033 480 78 -900 000/00 RMK AO2
14837KMSN MSN20051029020509410/29/05 02:05:31  5-MIN KMSN 290805Z 00000KT 8SM CLR 01/M01 A3034 480 85 -1000 000/00 RMK AO2
14837KMSN MSN20051029021009410/29/05 02:10:31  5-MIN KMSN 290810Z 00000KT 8SM CLR 01/M01 A3033 480 85 -1000 000/00 RMK AO2
14837KMSN MSN20051029021509410/29/05 02:15:31  5-MIN KMSN 290815Z 00000KT 8SM CLR 01/M01 A3033 480 85 -1000 000/00 RMK AO2
14837KMSN MSN20051029022009310/29/05 02:20:31  5-MIN KMSN 290820Z 00000KT 8SM CLR 02/M01 A3034 480 82 -900 000/00 RMK AO2
14837KMSN MSN20051029022509310/29/05 02:25:31  5-MIN KMSN 290825Z 17003KT 8SM CLR 03/M01 A3033 480 79 -800 170/03 RMK AO2
14837KMSN MSN20051029023009310/29/05 02:30:31  5-MIN KMSN 290830Z 16003KT 8SM CLR 03/M01 A3033 480 79 -800 160/03 RMK AO2
14837KMSN MSN20051029023509310/29/05 02:35:31  5-MIN KMSN 290835Z 17003KT 8SM CLR 03/M01 A3033 480 79 -800 170/03 RMK AO2
14837KMSN MSN20051029024009310/29/05 02:40:31  5-MIN KMSN 290840Z 00000KT 8SM CLR 03/M01 A3034 480 79 -800 000/00 RMK AO2
14837KMSN MSN20051029024509310/29/05 02:45:31  5-MIN KMSN 290845Z 00000KT 8SM CLR 03/M01 A3034 480 79 -800 000/00 RMK AO2
14837KMSN MSN20051029025011610/29/05 02:50:31  5-MIN KMSN 290850Z 00000KT 8SM CLR 03/M01 A3034 480 79 -800 000/00 RMK AO2 SLP278 T00281006 51005
14837KMSN MSN20051029025509310/29/05 02:55:31  5-MIN KMSN 290855Z 00000KT 8SM CLR 03/M01 A3034 480 79 -800 000/00 RMK AO2
14837KMSN MSN20051029030009310/29/05 03:00:31  5-MIN KMSN 290900Z 00000KT 8SM CLR 03/M01 A3034 480 79 -800 000/00 RMK AO2
14837KMSN MSN20051029030509310/29/05 03:05:31  5-MIN KMSN 290905Z 00000KT 8SM CLR 02/M01 A3034 480 78 -900 000/00 RMK AO2
14837KMSN MSN20051029031009310/29/05 03:10:31  5-MIN KMSN 290910Z 00000KT 8SM CLR 02/M01 A3034 480 78 -900 000/00 RMK AO2
14837KMSN MSN20051029031509310/29/05 03:15:31  5-MIN KMSN 290915Z 16003KT 8SM CLR 02/M01 A3034 480 78 -900 160/03 RMK AO2
14837KMSN MSN20051029032009310/29/05 03:20:31  5-MIN KMSN 290920Z 00000KT 8SM CLR 02/M02 A3034 480 78 -900 000/00 RMK AO2
14837KMSN MSN20051029032509310/29/05 03:25:31  5-MIN KMSN 290925Z 00000KT 8SM CLR 02/M02 A3034 480 78 -900 000/00 RMK AO2
14837KMSN MSN20051029033009310/29/05 03:30:31  5-MIN KMSN 290930Z 00000KT 7SM CLR 02/M02 A3034 480 78 -900 000/00 RMK AO2
14837KMSN MSN20051029033509310/29/05 03:35:31  5-MIN KMSN 290935Z 00000KT 7SM CLR 02/M01 A3034 480 82 -900 000/00 RMK AO2
14837KMSN MSN20051029034009310/29/05 03:40:31  5-MIN KMSN 290940Z 00000KT 8SM CLR 02/M01 A3034 480 85 -900 000/00 RMK AO2
14837KMSN MSN20051029034509410/29/05 03:45:31  5-MIN KMSN 290945Z 00000KT 8SM CLR 01/M02 A3034 480 82 -1100 000/00 RMK AO2
14837KMSN MSN20051029035011110/29/05 03:50:31  5-MIN KMSN 290950Z 13003KT 7SM CLR 00/M02 A3034 480 85 -1100 130/03 RMK AO2 SLP279 T00001022
14837KMSN MSN20051029035509510/29/05 03:55:31  5-MIN KMSN 290955Z 00000KT 7SM CLR M01/M03 A3034 480 85 -1200 000/00 RMK AO2
14837KMSN MSN20051029040009510/29/05 04:00:31  5-MIN KMSN 291000Z 00000KT 8SM CLR M01/M03 A3034 480 85 -1200 000/00 RMK AO2
14837KMSN MSN20051029040509510/29/05 04:05:31  5-MIN KMSN 291005Z 00000KT 8SM CLR M01/M03 A3034 480 85 -1200 000/00 RMK AO2
14837KMSN MSN20051029041009510/29/05 04:10:31  5-MIN KMSN 291010Z 00000KT 8SM CLR M01/M03 A3034 480 85 -1200 000/00 RMK AO2
14837KMSN MSN20051029041509410/29/05 04:15:31  5-MIN KMSN 291015Z 15003KT 7SM CLR 00/M03 A3034 480 81 -1100 140/03 RMK AO2
14837KMSN MSN20051029042009410/29/05 04:20:31  5-MIN KMSN 291020Z 00000KT 7SM CLR 01/M02 A3034 480 82 -1100 000/00 RMK AO2
14837KMSN MSN20051029042509410/29/05 04:25:31  5-MIN KMSN 291025Z 00000KT 7SM CLR 01/M02 A3034 480 82 -1100 000/00 RMK AO2
14837KMSN MSN20051029043009410/29/05 04:30:31  5-MIN KMSN 291030Z 18003KT 7SM CLR 00/M02 A3034 480 85 -1100 180/03 RMK AO2
14837KMSN MSN20051029043509510/29/05 04:35:31  5-MIN KMSN 291035Z 18003KT 7SM CLR M01/M02 A3034 480 88 -1200 180/03 RMK AO2
14837KMSN MSN20051029044009510/29/05 04:40:31  5-MIN KMSN 291040Z 19003KT 7SM CLR M01/M02 A3034 480 88 -1200 190/03 RMK AO2
14837KMSN MSN20051029044509410/29/05 04:45:31  5-MIN KMSN 291045Z 19004KT 7SM CLR 01/M01 A3034 480 85 -1000 190/04 RMK AO2
14837KMSN MSN20051029045011010/29/05 04:50:31  5-MIN KMSN 291050Z 18003KT 7SM CLR 02/M01 A3034 480 82 -900 180/03 RMK AO2 SLP280 T00171011
14837KMSN MSN20051029045509310/29/05 04:55:31  5-MIN KMSN 291055Z 17003KT 7SM CLR 02/M01 A3034 480 82 -900 170/03 RMK AO2
14837KMSN MSN20051029050009310/29/05 05:00:31  5-MIN KMSN 291100Z 17004KT 7SM CLR 02/M01 A3034 480 85 -900 170/04 RMK AO2
14837KMSN MSN20051029050509410/29/05 05:05:31  5-MIN KMSN 291105Z 18004KT 7SM CLR 01/M01 A3034 480 85 -1000 180/04 RMK AO2
14837KMSN MSN20051029051009310/29/05 05:10:31  5-MIN KMSN 291110Z 18005KT 7SM CLR 02/M01 A3034 480 82 -900 180/05 RMK AO2
14837KMSN MSN20051029051509310/29/05 05:15:31  5-MIN KMSN 291115Z 19005KT 7SM CLR 02/M01 A3034 480 82 -900 190/05 RMK AO2
14837KMSN MSN20051029052009310/29/05 05:20:31  5-MIN KMSN 291120Z 19005KT 7SM CLR 03/M01 A3034 480 79 -800 190/05 RMK AO2
14837KMSN MSN20051029052509310/29/05 05:25:31  5-MIN KMSN 291125Z 19004KT 7SM CLR 03/M01 A3034 480 79 -800 190/04 RMK AO2
14837KMSN MSN20051029053009310/29/05 05:30:31  5-MIN KMSN 291130Z 18004KT 7SM CLR 03/M01 A3034 480 79 -800 180/04 RMK AO2
14837KMSN MSN20051029053509310/29/05 05:35:31  5-MIN KMSN 291135Z 19004KT 7SM CLR 03/M01 A3034 480 79 -800 190/04 RMK AO2
14837KMSN MSN20051029054009310/29/05 05:40:31  5-MIN KMSN 291140Z 18004KT 7SM CLR 03/M01 A3034 480 79 -800 180/04 RMK AO2
14837KMSN MSN20051029054509310/29/05 05:45:31  5-MIN KMSN 291145Z 18004KT 7SM CLR 02/M01 A3033 480 82 -900 170/04 RMK AO2
14837KMSN MSN20051029055012810/29/05 05:50:31  5-MIN KMSN 291150Z 18004KT 7SM CLR 02/M01 A3033 490 82 -900 180/04 RMK AO2 SLP278 T00221006 10028 21006 55001
14837KMSN MSN20051029055509310/29/05 05:55:31  5-MIN KMSN 291155Z 19004KT 7SM CLR 02/M01 A3033 480 82 -900 190/04 RMK AO2
14837KMSN MSN20051029071009610/29/05 07:10:31  5-MIN KMSN 291310Z 18004KT 6SM HZ CLR 02/M01 A3034 480 82 -900 180/04 RMK AO2
14837KMSN MSN20051029071509610/29/05 07:15:31  5-MIN KMSN 291315Z 19003KT 6SM BR CLR 02/M01 A3034 480 85 -900 190/03 RMK AO2
14837KMSN MSN20051029072009610/29/05 07:20:31  5-MIN KMSN 291320Z 18004KT 6SM BR CLR 02/M01 A3034 480 85 -900 180/04 RMK AO2
14837KMSN MSN20051029072509610/29/05 07:25:31  5-MIN KMSN 291325Z 18005KT 6SM BR CLR 02/M01 A3034 480 85 -900 180/05 RMK AO2
14837KMSN MSN20051029073009610/29/05 07:30:31  5-MIN KMSN 291330Z 18005KT 6SM HZ CLR 03/M01 A3034 480 79 -800 180/05 RMK AO2
14837KMSN MSN20051029073509510/29/05 07:35:31  5-MIN KMSN 291335Z 18006KT 6SM HZ CLR 04/00 A3034 480 76 -700 180/06 RMK AO2
14837KMSN MSN20051029074009510/29/05 07:40:31  5-MIN KMSN 291340Z 18006KT 6SM HZ CLR 04/01 A3034 480 79 -700 180/06 RMK AO2
14837KMSN MSN20051029074509510/29/05 07:45:31  5-MIN KMSN 291345Z 18006KT 6SM HZ CLR 04/01 A3034 480 76 -600 180/06 RMK AO2
14837KMSN MSN20051029075011210/29/05 07:50:31  5-MIN KMSN 291350Z 19008KT 6SM HZ CLR 05/01 A3034 480 73 -500 190/08 RMK AO2 SLP281 T00500006
14837KMSN MSN20051029075509510/29/05 07:55:31  5-MIN KMSN 291355Z 19008KT 6SM HZ CLR 06/01 A3034 480 70 -500 180/08 RMK AO2
14837KMSN MSN20051029080009510/29/05 08:00:31  5-MIN KMSN 291400Z 19007KT 6SM HZ CLR 06/01 A3034 480 73 -500 190/07 RMK AO2
14837KMSN MSN20051029080509510/29/05 08:05:31  5-MIN KMSN 291405Z 19007KT 6SM HZ CLR 06/01 A3034 480 70 -400 190/07 RMK AO2
14837KMSN MSN20051029081009510/29/05 08:10:31  5-MIN KMSN 291410Z 19007KT 6SM HZ CLR 06/01 A3034 480 70 -400 190/07 RMK AO2
14837KMSN MSN20051029081509210/29/05 08:15:31  5-MIN KMSN 291415Z 19008KT 7SM CLR 06/01 A3034 480 70 -400 190/08 RMK AO2
14837KMSN MSN20051029082009210/29/05 08:20:31  5-MIN KMSN 291420Z 18009KT 7SM CLR 07/01 A3034 480 67 -300 180/09 RMK AO2
14837KMSN MSN20051029082509210/29/05 08:25:31  5-MIN KMSN 291425Z 18008KT 7SM CLR 07/01 A3034 480 67 -300 180/08 RMK AO2
14837KMSN MSN20051029083009210/29/05 08:30:31  5-MIN KMSN 291430Z 19010KT 7SM CLR 07/01 A3034 480 67 -300 190/10 RMK AO2
14837KMSN MSN20051029083509210/29/05 08:35:31  5-MIN KMSN 291435Z 18010KT 7SM CLR 07/01 A3034 480 65 -300 180/10 RMK AO2
14837KMSN MSN20051029084009210/29/05 08:40:31  5-MIN KMSN 291440Z 19008KT 7SM CLR 07/01 A3034 480 65 -300 190/08 RMK AO2
14837KMSN MSN20051029084509210/29/05 08:45:31  5-MIN KMSN 291445Z 19010KT 7SM CLR 08/02 A3034 480 65 -200 190/10 RMK AO2
14837KMSN MSN20051029085011510/29/05 08:50:31  5-MIN KMSN 291450Z 19009KT 7SM CLR 08/01 A3034 480 62 -200 190/09 RMK AO2 SLP280 T00780011 58001
14837KMSN MSN20051029085509810/29/05 08:55:31  5-MIN KMSN 291455Z 19011G15KT 7SM CLR 08/01 A3034 480 60 -100 190/11G15 RMK AO2
14837KMSN MSN20051029090009810/29/05 09:00:31  5-MIN KMSN 291500Z 20010G15KT 7SM CLR 08/01 A3033 480 60 -100 190/10G15 RMK AO2
14837KMSN MSN20051029090508910/29/05 09:05:31  5-MIN KMSN 291505Z 20009KT 7SM CLR 09/01 A3033 480 58 0 200/09 RMK AO2
14837KMSN MSN20051029091008910/29/05 09:10:31  5-MIN KMSN 291510Z 19010KT 7SM CLR 09/01 A3033 480 56 0 190/10 RMK AO2
14837KMSN MSN20051029091508910/29/05 09:15:31  5-MIN KMSN 291515Z 19011KT 7SM CLR 09/02 A3033 490 58 0 190/11 RMK AO2
14837KMSN MSN20051029092008910/29/05 09:20:31  5-MIN KMSN 291520Z 19010KT 7SM CLR 09/01 A3033 490 56 0 190/10 RMK AO2
14837KMSN MSN20051029092508910/29/05 09:25:31  5-MIN KMSN 291525Z 19010KT 7SM CLR 10/02 A3033 490 56 0 180/10 RMK AO2
14837KMSN MSN20051029093009110/29/05 09:30:31  5-MIN KMSN 291530Z 18009KT 7SM CLR 11/02 A3033 490 54 100 180/09 RMK AO2
14837KMSN MSN20051029093509110/29/05 09:35:31  5-MIN KMSN 291535Z 19008KT 7SM CLR 11/02 A3033 490 54 100 190/08 RMK AO2
14837KMSN MSN20051029094009110/29/05 09:40:31  5-MIN KMSN 291540Z 19010KT 7SM CLR 11/02 A3033 490 54 100 190/10 RMK AO2
14837KMSN MSN20051029094509110/29/05 09:45:31  5-MIN KMSN 291545Z 19010KT 8SM CLR 11/02 A3033 490 52 200 190/10 RMK AO2
14837KMSN MSN20051029095010810/29/05 09:50:31  5-MIN KMSN 291550Z 18009KT 8SM CLR 11/02 A3032 490 52 200 180/09 RMK AO2 SLP274 T01110017
14837KMSN MSN20051029095509110/29/05 09:55:31  5-MIN KMSN 291555Z 19009KT 8SM CLR 12/02 A3032 490 52 300 190/09 RMK AO2
14837KMSN MSN20051029100009110/29/05 10:00:31  5-MIN KMSN 291600Z 18010KT 8SM CLR 12/02 A3032 500 52 300 180/10 RMK AO2
14837KMSN MSN20051029100509110/29/05 10:05:31  5-MIN KMSN 291605Z 18011KT 8SM CLR 12/02 A3032 500 52 300 180/11 RMK AO2
14837KMSN MSN20051029101009110/29/05 10:10:31  5-MIN KMSN 291610Z 19011KT 8SM CLR 12/02 A3032 500 52 300 190/11 RMK AO2
14837KMSN MSN20051029101509110/29/05 10:15:31  5-MIN KMSN 291615Z 19011KT 8SM CLR 12/02 A3032 500 50 300 190/11 RMK AO2
14837KMSN MSN20051029102009110/29/05 10:20:31  5-MIN KMSN 291620Z 18011KT 8SM CLR 12/02 A3032 500 50 300 180/11 RMK AO2
14837KMSN MSN20051029102509110/29/05 10:25:31  5-MIN KMSN 291625Z 19010KT 8SM CLR 12/02 A3032 500 50 300 190/10 RMK AO2
14837KMSN MSN20051029103009110/29/05 10:30:31  5-MIN KMSN 291630Z 19010KT 8SM CLR 12/02 A3032 500 50 300 190/10 RMK AO2
14837KMSN MSN20051029103509110/29/05 10:35:31  5-MIN KMSN 291635Z 19012KT 8SM CLR 12/02 A3031 500 50 300 190/12 RMK AO2
14837KMSN MSN20051029104009110/29/05 10:40:31  5-MIN KMSN 291640Z 18011KT 8SM CLR 13/03 A3031 500 50 400 180/11 RMK AO2
14837KMSN MSN20051029104509110/29/05 10:45:31  5-MIN KMSN 291645Z 19011KT 8SM CLR 13/03 A3031 510 50 400 190/11 RMK AO2
14837KMSN MSN20051029105010810/29/05 10:50:31  5-MIN KMSN 291650Z 19009KT 9SM CLR 13/03 A3031 510 48 500 190/09 RMK AO2 SLP268 T01330028
14837KMSN MSN20051029105509110/29/05 10:55:31  5-MIN KMSN 291655Z 18010KT 8SM CLR 13/03 A3030 510 48 500 180/10 RMK AO2
14837KMSN MSN20051029110009110/29/05 11:00:31  5-MIN KMSN 291700Z 18011KT 8SM CLR 14/03 A3030 510 47 500 180/11 RMK AO2
14837KMSN MSN20051029110509110/29/05 11:05:31  5-MIN KMSN 291705Z 19012KT 8SM CLR 14/03 A3030 510 47 500 190/12 RMK AO2
14837KMSN MSN20051029111009110/29/05 11:10:31  5-MIN KMSN 291710Z 19012KT 9SM CLR 14/03 A3030 520 47 500 190/12 RMK AO2
14837KMSN MSN20051029111509110/29/05 11:15:31  5-MIN KMSN 291715Z 18012KT 9SM CLR 14/03 A3030 520 45 600 180/12 RMK AO2
14837KMSN MSN20051029112009210/29/05 11:20:31  5-MIN KMSN 291720Z 18011KT 10SM CLR 14/03 A3029 520 45 600 180/11 RMK AO2
14837KMSN MSN20051029112509210/29/05 11:25:31  5-MIN KMSN 291725Z 19012KT 10SM CLR 15/03 A3029 520 43 700 190/12 RMK AO2
14837KMSN MSN20051029113009210/29/05 11:30:31  5-MIN KMSN 291730Z 18012KT 10SM CLR 15/03 A3029 520 43 700 180/12 RMK AO2
14837KMSN MSN20051029113509210/29/05 11:35:31  5-MIN KMSN 291735Z 18012KT 10SM CLR 15/03 A3028 530 43 700 180/12 RMK AO2
14837KMSN MSN20051029114009210/29/05 11:40:31  5-MIN KMSN 291740Z 20011KT 10SM CLR 15/03 A3028 530 43 700 200/11 RMK AO2
14837KMSN MSN20051029114509210/29/05 11:45:31  5-MIN KMSN 291745Z 19011KT 10SM CLR 16/03 A3028 540 42 800 190/11 RMK AO2
14837KMSN MSN20051029115012710/29/05 11:50:31  5-MIN KMSN 291750Z 19014KT 10SM CLR 15/03 A3027 540 43 700 190/14 RMK AO2 SLP257 T01500028 10156 20011 50001
14837KMSN MSN20051029115509210/29/05 11:55:31  5-MIN KMSN 291755Z 19012KT 10SM CLR 16/03 A3027 540 42 800 190/12 RMK AO2
14837KMSN MSN20051029120009210/29/05 12:00:31  5-MIN KMSN 291800Z 19009KT 10SM CLR 16/03 A3027 540 42 800 190/09 RMK AO2
14837KMSN MSN20051029120509810/29/05 12:05:31  5-MIN KMSN 291805Z 20012G17KT 10SM CLR 16/03 A3027 540 42 800 190/12G17 RMK AO2
14837KMSN MSN20051029121009810/29/05 12:10:31  5-MIN KMSN 291810Z 19011G17KT 10SM CLR 16/03 A3027 550 42 800 180/11G17 RMK AO2
14837KMSN MSN20051029121509810/29/05 12:15:31  5-MIN KMSN 291815Z 18012G17KT 10SM CLR 16/03 A3026 550 42 800 180/12G17 RMK AO2
14837KMSN MSN20051029122009210/29/05 12:20:31  5-MIN KMSN 291820Z 19011KT 10SM CLR 16/03 A3026 550 42 900 190/11 RMK AO2
14837KMSN MSN20051029122509210/29/05 12:25:31  5-MIN KMSN 291825Z 18014KT 10SM CLR 16/03 A3026 560 42 900 180/14 RMK AO2
14837KMSN MSN20051029123009210/29/05 12:30:31  5-MIN KMSN 291830Z 19013KT 10SM CLR 16/03 A3025 560 42 900 190/13 RMK AO2
14837KMSN MSN20051029123509210/29/05 12:35:31  5-MIN KMSN 291835Z 18011KT 10SM CLR 17/03 A3025 560 40 900 180/11 RMK AO2
14837KMSN MSN20051029124009210/29/05 12:40:31  5-MIN KMSN 291840Z 19011KT 10SM CLR 17/03 A3025 560 40 900 190/11 RMK AO2
14837KMSN MSN20051029124509210/29/05 12:45:31  5-MIN KMSN 291845Z 19010KT 10SM CLR 16/03 A3025 570 42 900 190/10 RMK AO2
14837KMSN MSN20051029125010910/29/05 12:50:31  5-MIN KMSN 291850Z 19009KT 10SM CLR 17/03 A3024 570 40 900 180/09 RMK AO2 SLP245 T01670033
14837KMSN MSN20051029125509210/29/05 12:55:31  5-MIN KMSN 291855Z 18011KT 10SM CLR 17/03 A3024 570 40 900 180/11 RMK AO2
14837KMSN MSN20051029130009210/29/05 13:00:31  5-MIN KMSN 291900Z 18014KT 10SM CLR 17/03 A3024 570 40 900 180/14 RMK AO2
14837KMSN MSN20051029130509310/29/05 13:05:31  5-MIN KMSN 291905Z 18012KT 10SM CLR 17/03 A3024 570 39 1000 180/12 RMK AO2
14837KMSN MSN20051029131009910/29/05 13:10:31  5-MIN KMSN 291910Z 19012G17KT 10SM CLR 17/04 A3023 570 41 1000 190/12G17 RMK AO2
14837KMSN MSN20051029131509910/29/05 13:15:31  5-MIN KMSN 291915Z 18011G17KT 10SM CLR 17/03 A3023 580 39 1000 180/11G17 RMK AO2
14837KMSN MSN20051029132009910/29/05 13:20:31  5-MIN KMSN 291920Z 18013G18KT 10SM CLR 17/04 A3023 580 41 1000 180/13G18 RMK AO2
14837KMSN MSN20051029132509910/29/05 13:25:31  5-MIN KMSN 291925Z 19011G18KT 10SM CLR 17/03 A3023 580 39 1000 190/11G18 RMK AO2
14837KMSN MSN20051029133009310/29/05 13:30:31  5-MIN KMSN 291930Z 18013KT 10SM CLR 17/04 A3023 580 41 1000 180/13 RMK AO2
14837KMSN MSN20051029133509310/29/05 13:35:31  5-MIN KMSN 291935Z 18010KT 10SM CLR 17/04 A3022 580 41 1000 180/10 RMK AO2
14837KMSN MSN20051029134009310/29/05 13:40:31  5-MIN KMSN 291940Z 19013KT 10SM CLR 18/04 A3022 590 39 1100 190/13 RMK AO2
14837KMSN MSN20051029134509910/29/05 13:45:31  5-MIN KMSN 291945Z 18013G18KT 10SM CLR 17/04 A3022 590 41 1000 180/13G18 RMK AO2
14837KMSN MSN20051029135011610/29/05 13:50:31  5-MIN KMSN 291950Z 18012G18KT 10SM CLR 17/04 A3022 590 41 1000 180/12G18 RMK AO2 SLP237 T01720039
14837KMSN MSN20051029135509910/29/05 13:55:31  5-MIN KMSN 291955Z 18015G19KT 10SM CLR 17/04 A3022 590 41 1000 180/15G19 RMK AO2
14837KMSN MSN20051029140009910/29/05 14:00:31  5-MIN KMSN 292000Z 19012G19KT 10SM CLR 17/04 A3022 590 41 1000 190/12G19 RMK AO2
14837KMSN MSN20051029140509310/29/05 14:05:31  5-MIN KMSN 292005Z 19010KT 10SM CLR 17/04 A3022 590 41 1000 190/10 RMK AO2
14837KMSN MSN20051029141009310/29/05 14:10:31  5-MIN KMSN 292010Z 18013KT 10SM CLR 18/04 A3021 590 39 1100 180/13 RMK AO2
14837KMSN MSN20051029141509310/29/05 14:15:31  5-MIN KMSN 292015Z 18014KT 10SM CLR 17/04 A3021 600 41 1000 180/14 RMK AO2
14837KMSN MSN20051029142009310/29/05 14:20:31  5-MIN KMSN 292020Z 18013KT 10SM CLR 18/04 A3021 600 39 1100 180/13 RMK AO2
14837KMSN MSN20051029142509310/29/05 14:25:31  5-MIN KMSN 292025Z 17010KT 10SM CLR 18/04 A3021 600 41 1100 170/10 RMK AO2
14837KMSN MSN20051029143009310/29/05 14:30:31  5-MIN KMSN 292030Z 18014KT 10SM CLR 18/04 A3021 600 41 1100 180/14 RMK AO2
14837KMSN MSN20051029143509310/29/05 14:35:31  5-MIN KMSN 292035Z 18011KT 10SM CLR 18/04 A3021 600 41 1100 180/11 RMK AO2
14837KMSN MSN20051029144009310/29/05 14:40:31  5-MIN KMSN 292040Z 18012KT 10SM CLR 18/04 A3021 600 41 1100 180/12 RMK AO2
14837KMSN MSN20051029144509310/29/05 14:45:31  5-MIN KMSN 292045Z 18011KT 10SM CLR 18/04 A3021 600 41 1100 180/11 RMK AO2
14837KMSN MSN20051029145012210/29/05 14:50:31  5-MIN KMSN 292050Z 18012G18KT 10SM CLR 18/04 A3021 600 41 1100 180/12G18 RMK AO2 SLP232 T01780044 58021
14837KMSN MSN20051029145509910/29/05 14:55:31  5-MIN KMSN 292055Z 19013G18KT 10SM CLR 17/04 A3021 600 42 1000 190/13G18 RMK AO2
14837KMSN MSN20051029150009310/29/05 15:00:31  5-MIN KMSN 292100Z 19011KT 10SM CLR 17/04 A3021 600 42 1000 190/11 RMK AO2
14837KMSN MSN20051029150509310/29/05 15:05:31  5-MIN KMSN 292105Z 19009KT 10SM CLR 17/04 A3020 600 42 1000 190/09 RMK AO2
14837KMSN MSN20051029151009310/29/05 15:10:31  5-MIN KMSN 292110Z 18011KT 10SM CLR 17/04 A3020 600 42 1000 180/11 RMK AO2
14837KMSN MSN20051029151509310/29/05 15:15:31  5-MIN KMSN 292115Z 18011KT 10SM CLR 17/04 A3020 610 42 1000 180/11 RMK AO2
14837KMSN MSN20051029152009310/29/05 15:20:31  5-MIN KMSN 292120Z 18013KT 10SM CLR 17/04 A3020 610 42 1000 170/13 RMK AO2
14837KMSN MSN20051029152509310/29/05 15:25:31  5-MIN KMSN 292125Z 18012KT 10SM CLR 17/04 A3020 610 42 1100 180/12 RMK AO2
14837KMSN MSN20051029153009310/29/05 15:30:31  5-MIN KMSN 292130Z 18010KT 10SM CLR 17/04 A3020 610 42 1100 180/10 RMK AO2
14837KMSN MSN20051029153509310/29/05 15:35:31  5-MIN KMSN 292135Z 18012KT 10SM CLR 17/04 A3020 610 44 1000 180/12 RMK AO2
14837KMSN MSN20051029154009310/29/05 15:40:31  5-MIN KMSN 292140Z 18012KT 10SM CLR 17/04 A3020 610 44 1000 180/12 RMK AO2
14837KMSN MSN20051029154509910/29/05 15:45:31  5-MIN KMSN 292145Z 19013G17KT 10SM CLR 17/04 A3020 610 44 1000 190/13G17 RMK AO2
14837KMSN MSN20051029155011610/29/05 15:50:31  5-MIN KMSN 292150Z 19010G17KT 10SM CLR 17/04 A3020 610 42 1000 180/10G17 RMK AO2 SLP230 T01670039
14837KMSN MSN20051029155509210/29/05 15:55:31  5-MIN KMSN 292155Z 19009KT 10SM CLR 16/04 A3020 610 45 900 190/09 RMK AO2
14837KMSN MSN20051029160009210/29/05 16:00:31  5-MIN KMSN 292200Z 18010KT 10SM CLR 16/04 A3020 610 45 900 180/10 RMK AO2
14837KMSN MSN20051029160509210/29/05 16:05:31  5-MIN KMSN 292205Z 18009KT 10SM CLR 16/04 A3020 610 45 900 180/09 RMK AO2
14837KMSN MSN20051029161009210/29/05 16:10:31  5-MIN KMSN 292210Z 18009KT 10SM CLR 16/04 A3020 610 45 900 180/09 RMK AO2
14837KMSN MSN20051029161509210/29/05 16:15:31  5-MIN KMSN 292215Z 18009KT 10SM CLR 16/04 A3020 610 45 900 180/09 RMK AO2
14837KMSN MSN20051029162009210/29/05 16:20:31  5-MIN KMSN 292220Z 18010KT 10SM CLR 16/04 A3020 610 45 900 180/10 RMK AO2
14837KMSN MSN20051029162509210/29/05 16:25:31  5-MIN KMSN 292225Z 18008KT 10SM CLR 16/04 A3020 610 45 900 180/08 RMK AO2
14837KMSN MSN20051029163009210/29/05 16:30:31  5-MIN KMSN 292230Z 18008KT 10SM CLR 16/04 A3020 610 47 900 180/08 RMK AO2
14837KMSN MSN20051029163509210/29/05 16:35:31  5-MIN KMSN 292235Z 18008KT 10SM CLR 16/04 A3020 610 47 900 180/08 RMK AO2
14837KMSN MSN20051029164009210/29/05 16:40:31  5-MIN KMSN 292240Z 18007KT 10SM CLR 16/04 A3020 610 47 900 180/07 RMK AO2
14837KMSN MSN20051029164509210/29/05 16:45:31  5-MIN KMSN 292245Z 17005KT 10SM CLR 14/04 A3020 610 51 700 170/05 RMK AO2
14837KMSN MSN20051029165010910/29/05 16:50:31  5-MIN KMSN 292250Z 18006KT 10SM CLR 13/04 A3020 610 54 600 180/06 RMK AO2 SLP230 T01330044
14837KMSN MSN20051029165509210/29/05 16:55:31  5-MIN KMSN 292255Z 18007KT 10SM CLR 14/04 A3020 610 52 700 180/07 RMK AO2
14837KMSN MSN20051029170009210/29/05 17:00:31  5-MIN KMSN 292300Z 17007KT 10SM CLR 13/04 A3020 610 54 600 170/07 RMK AO2
14837KMSN MSN20051029170509210/29/05 17:05:31  5-MIN KMSN 292305Z 17008KT 10SM CLR 13/04 A3019 610 54 600 170/08 RMK AO2
14837KMSN MSN20051029171009210/29/05 17:10:31  5-MIN KMSN 292310Z 17007KT 10SM CLR 13/04 A3019 610 54 600 170/07 RMK AO2
14837KMSN MSN20051029171509210/29/05 17:15:31  5-MIN KMSN 292315Z 17007KT 10SM CLR 13/04 A3019 610 52 600 170/07 RMK AO2
14837KMSN MSN20051029172009210/29/05 17:20:31  5-MIN KMSN 292320Z 17007KT 10SM CLR 13/04 A3019 610 52 600 170/07 RMK AO2
14837KMSN MSN20051029172509210/29/05 17:25:31  5-MIN KMSN 292325Z 17007KT 10SM CLR 13/04 A3019 610 52 600 170/07 RMK AO2
14837KMSN MSN20051029173009210/29/05 17:30:31  5-MIN KMSN 292330Z 17006KT 10SM CLR 13/04 A3019 610 52 600 170/06 RMK AO2
14837KMSN MSN20051029173509210/29/05 17:35:31  5-MIN KMSN 292335Z 17008KT 10SM CLR 14/04 A3019 610 50 700 170/08 RMK AO2
14837KMSN MSN20051029174009210/29/05 17:40:31  5-MIN KMSN 292340Z 18008KT 10SM CLR 14/04 A3019 610 50 700 180/08 RMK AO2
14837KMSN MSN20051029174509210/29/05 17:45:31  5-MIN KMSN 292345Z 18007KT 10SM CLR 13/04 A3019 610 52 600 170/07 RMK AO2
14837KMSN MSN20051029175012710/29/05 17:50:31  5-MIN KMSN 292350Z 17008KT 10SM CLR 13/04 A3019 610 52 600 170/08 RMK AO2 SLP229 T01330039 10178 20133 56022
14837KMSN MSN20051029175509210/29/05 17:55:31  5-MIN KMSN 292355Z 17008KT 10SM CLR 13/04 A3019 610 52 600 170/08 RMK AO2
14837KMSN MSN20051029180009210/29/05 18:00:31  5-MIN KMSN 300000Z 18009KT 10SM CLR 13/04 A3019 610 52 600 170/09 RMK AO2
14837KMSN MSN20051029180509210/29/05 18:05:31  5-MIN KMSN 300005Z 17008KT 10SM CLR 13/04 A3019 610 52 600 170/08 RMK AO2
14837KMSN MSN20051029181009210/29/05 18:10:31  5-MIN KMSN 300010Z 17008KT 10SM CLR 13/04 A3019 610 52 600 170/08 RMK AO2
14837KMSN MSN20051029181509210/29/05 18:15:31  5-MIN KMSN 300015Z 18009KT 10SM CLR 13/04 A3019 610 52 600 170/09 RMK AO2
14837KMSN MSN20051029182009210/29/05 18:20:31  5-MIN KMSN 300020Z 18009KT 10SM CLR 13/04 A3019 610 52 600 180/09 RMK AO2
14837KMSN MSN20051029182509210/29/05 18:25:31  5-MIN KMSN 300025Z 18009KT 10SM CLR 13/04 A3019 610 52 600 180/09 RMK AO2
14837KMSN MSN20051029183009210/29/05 18:30:31  5-MIN KMSN 300030Z 18009KT 10SM CLR 13/04 A3019 610 52 600 180/09 RMK AO2
14837KMSN MSN20051029183509210/29/05 18:35:31  5-MIN KMSN 300035Z 18011KT 10SM CLR 13/04 A3019 610 52 600 170/11 RMK AO2
14837KMSN MSN20051029184009210/29/05 18:40:31  5-MIN KMSN 300040Z 17010KT 10SM CLR 13/04 A3019 620 52 600 170/10 RMK AO2
14837KMSN MSN20051029184509210/29/05 18:45:31  5-MIN KMSN 300045Z 18011KT 10SM CLR 13/04 A3019 620 52 600 170/11 RMK AO2
14837KMSN MSN20051029185010910/29/05 18:50:31  5-MIN KMSN 300050Z 18010KT 10SM CLR 13/04 A3019 610 54 500 180/10 RMK AO2 SLP229 T01280039
14837KMSN MSN20051029185509210/29/05 18:55:31  5-MIN KMSN 300055Z 18009KT 10SM CLR 13/04 A3019 610 52 600 180/09 RMK AO2
14837KMSN MSN20051029190009210/29/05 19:00:31  5-MIN KMSN 300100Z 18008KT 10SM CLR 13/04 A3019 610 54 500 180/08 RMK AO2
14837KMSN MSN20051029190509210/29/05 19:05:31  5-MIN KMSN 300105Z 19009KT 10SM CLR 13/04 A3020 610 54 500 180/09 RMK AO2
14837KMSN MSN20051029191009210/29/05 19:10:31  5-MIN KMSN 300110Z 19008KT 10SM CLR 13/04 A3020 610 54 500 190/08 RMK AO2
14837KMSN MSN20051029191509210/29/05 19:15:31  5-MIN KMSN 300115Z 18008KT 10SM CLR 13/04 A3020 610 54 500 180/08 RMK AO2
14837KMSN MSN20051029192009210/29/05 19:20:31  5-MIN KMSN 300120Z 19007KT 10SM CLR 13/04 A3020 610 54 500 190/07 RMK AO2
14837KMSN MSN20051029192509210/29/05 19:25:31  5-MIN KMSN 300125Z 19008KT 10SM CLR 13/04 A3020 610 54 500 190/08 RMK AO2
14837KMSN MSN20051029193009210/29/05 19:30:31  5-MIN KMSN 300130Z 19008KT 10SM CLR 12/04 A3020 610 56 500 190/08 RMK AO2
14837KMSN MSN20051029193509210/29/05 19:35:31  5-MIN KMSN 300135Z 19007KT 10SM CLR 12/04 A3020 600 56 500 190/07 RMK AO2
14837KMSN MSN20051029194009210/29/05 19:40:31  5-MIN KMSN 300140Z 19009KT 10SM CLR 13/04 A3020 600 54 500 190/09 RMK AO2
14837KMSN MSN20051029194509210/29/05 19:45:31  5-MIN KMSN 300145Z 18008KT 10SM CLR 13/04 A3020 600 54 500 180/08 RMK AO2
14837KMSN MSN20051029195010910/29/05 19:50:31  5-MIN KMSN 300150Z 19008KT 10SM CLR 12/04 A3020 600 56 500 180/08 RMK AO2 SLP232 T01220039
14837KMSN MSN20051029195509210/29/05 19:55:31  5-MIN KMSN 300155Z 19007KT 10SM CLR 12/04 A3020 600 56 500 190/07 RMK AO2
14837KMSN MSN20051029200009210/29/05 20:00:31  5-MIN KMSN 300200Z 19005KT 10SM CLR 12/04 A3020 600 56 500 190/05 RMK AO2
14837KMSN MSN20051029200509210/29/05 20:05:31  5-MIN KMSN 300205Z 19007KT 10SM CLR 12/04 A3020 600 56 500 190/07 RMK AO2
14837KMSN MSN20051029201009210/29/05 20:10:31  5-MIN KMSN 300210Z 18005KT 10SM CLR 12/04 A3021 600 58 400 180/05 RMK AO2
14837KMSN MSN20051029201509210/29/05 20:15:31  5-MIN KMSN 300215Z 19006KT 10SM CLR 12/04 A3020 600 58 400 180/06 RMK AO2
14837KMSN MSN20051029202009210/29/05 20:20:31  5-MIN KMSN 300220Z 18007KT 10SM CLR 12/03 A3020 600 56 400 180/07 RMK AO2
14837KMSN MSN20051029202509210/29/05 20:25:31  5-MIN KMSN 300225Z 18008KT 10SM CLR 11/03 A3020 600 58 300 170/08 RMK AO2
14837KMSN MSN20051029203009210/29/05 20:30:31  5-MIN KMSN 300230Z 18007KT 10SM CLR 12/03 A3020 600 56 400 180/07 RMK AO2
14837KMSN MSN20051029203509210/29/05 20:35:31  5-MIN KMSN 300235Z 18008KT 10SM CLR 11/03 A3020 600 58 300 180/08 RMK AO2
14837KMSN MSN20051029204009210/29/05 20:40:31  5-MIN KMSN 300240Z 18009KT 10SM CLR 11/03 A3020 610 58 300 180/09 RMK AO2
14837KMSN MSN20051029204509210/29/05 20:45:31  5-MIN KMSN 300245Z 18009KT 10SM CLR 11/03 A3020 610 58 300 180/09 RMK AO2
14837KMSN MSN20051029205011510/29/05 20:50:31  5-MIN KMSN 300250Z 18009KT 10SM CLR 11/03 A3020 610 58 300 180/09 RMK AO2 SLP230 T01110033 56005
14837KMSN MSN20051029205509210/29/05 20:55:31  5-MIN KMSN 300255Z 18008KT 10SM CLR 11/03 A3020 610 58 300 180/08 RMK AO2
14837KMSN MSN20051029210009210/29/05 21:00:31  5-MIN KMSN 300300Z 19008KT 10SM CLR 11/03 A3020 600 58 300 190/08 RMK AO2
14837KMSN MSN20051029210509210/29/05 21:05:31  5-MIN KMSN 300305Z 19009KT 10SM CLR 12/03 A3020 610 56 400 190/09 RMK AO2
14837KMSN MSN20051029211009210/29/05 21:10:31  5-MIN KMSN 300310Z 19009KT 10SM CLR 11/03 A3020 610 58 300 190/09 RMK AO2
14837KMSN MSN20051029211509210/29/05 21:15:31  5-MIN KMSN 300315Z 19009KT 10SM CLR 12/03 A3020 610 56 400 190/09 RMK AO2
14837KMSN MSN20051029212009210/29/05 21:20:31  5-MIN KMSN 300320Z 19010KT 10SM CLR 12/03 A3020 610 56 400 190/10 RMK AO2
14837KMSN MSN20051029212509210/29/05 21:25:31  5-MIN KMSN 300325Z 19011KT 10SM CLR 12/03 A3020 610 56 400 190/11 RMK AO2
14837KMSN MSN20051029213009210/29/05 21:30:31  5-MIN KMSN 300330Z 19012KT 10SM CLR 12/03 A3020 610 56 400 190/12 RMK AO2
14837KMSN MSN20051029213509210/29/05 21:35:31  5-MIN KMSN 300335Z 19010KT 10SM CLR 12/03 A3020 610 56 400 190/10 RMK AO2
14837KMSN MSN20051029214009210/29/05 21:40:31  5-MIN KMSN 300340Z 18011KT 10SM CLR 12/03 A3020 610 56 400 180/11 RMK AO2
14837KMSN MSN20051029214509210/29/05 21:45:31  5-MIN KMSN 300345Z 19012KT 10SM CLR 11/03 A3020 610 58 300 190/12 RMK AO2
14837KMSN MSN20051029215010910/29/05 21:50:31  5-MIN KMSN 300350Z 19011KT 10SM CLR 12/03 A3020 600 56 400 190/11 RMK AO2 SLP229 T01170033
14837KMSN MSN20051029215509510/29/05 21:55:31  5-MIN KMSN 300355Z 19011KT 10SM FEW075 12/03 A3020 610 56 400 190/11 RMK AO2
14837KMSN MSN20051029220009510/29/05 22:00:31  5-MIN KMSN 300400Z 19012KT 10SM FEW075 12/03 A3020 610 56 400 190/12 RMK AO2
14837KMSN MSN20051029220509510/29/05 22:05:31  5-MIN KMSN 300405Z 19011KT 10SM FEW075 12/03 A3020 610 56 400 190/11 RMK AO2
14837KMSN MSN20051029221009510/29/05 22:10:31  5-MIN KMSN 300410Z 19012KT 10SM FEW075 12/03 A3020 610 56 400 190/12 RMK AO2
14837KMSN MSN20051029221509510/29/05 22:15:31  5-MIN KMSN 300415Z 19011KT 10SM FEW075 11/03 A3020 610 58 300 190/11 RMK AO2
14837KMSN MSN20051029222009510/29/05 22:20:31  5-MIN KMSN 300420Z 19010KT 10SM FEW075 11/03 A3020 610 58 300 190/10 RMK AO2
14837KMSN MSN20051029222509210/29/05 22:25:31  5-MIN KMSN 300425Z 19011KT 10SM CLR 11/03 A3020 610 58 300 190/11 RMK AO2
14837KMSN MSN20051029223009210/29/05 22:30:31  5-MIN KMSN 300430Z 19011KT 10SM CLR 11/03 A3020 610 58 300 190/11 RMK AO2
14837KMSN MSN20051029223509510/29/05 22:35:31  5-MIN KMSN 300435Z 19010KT 10SM SCT075 11/03 A3020 610 58 300 190/10 RMK AO2
14837KMSN MSN20051029224009510/29/05 22:40:31  5-MIN KMSN 300440Z 19009KT 10SM SCT075 11/03 A3020 610 58 300 190/09 RMK AO2
14837KMSN MSN20051029224509510/29/05 22:45:31  5-MIN KMSN 300445Z 19012KT 10SM SCT075 11/03 A3019 610 58 300 190/12 RMK AO2
14837KMSN MSN20051029225011110/29/05 22:50:31  5-MIN KMSN 300450Z 19011KT 9SM SCT075 11/03 A3019 610 61 300 190/11 RMK AO2 SLP226 T01060033
14837KMSN MSN20051029225509410/29/05 22:55:31  5-MIN KMSN 300455Z 19012KT 9SM SCT075 11/03 A3019 620 61 300 190/12 RMK AO2
14837KMSN MSN20051029230009410/29/05 23:00:31  5-MIN KMSN 300500Z 19011KT 9SM SCT075 11/03 A3019 620 61 300 190/11 RMK AO2
14837KMSN MSN20051029230509410/29/05 23:05:31  5-MIN KMSN 300505Z 19011KT 9SM FEW080 11/03 A3019 620 61 300 190/11 RMK AO2
14837KMSN MSN20051029231009410/29/05 23:10:31  5-MIN KMSN 300510Z 19012KT 9SM FEW080 11/03 A3019 620 61 300 190/12 RMK AO2
14837KMSN MSN20051029231509110/29/05 23:15:31  5-MIN KMSN 300515Z 19014KT 9SM CLR 11/03 A3018 620 61 300 190/14 RMK AO2
14837KMSN MSN20051029232010010/29/05 23:20:31  5-MIN KMSN 300520Z 19009G18KT 9SM FEW075 11/03 A3019 620 61 300 190/09G18 RMK AO2
14837KMSN MSN20051029232509410/29/05 23:25:31  5-MIN KMSN 300525Z 20008KT 9SM SCT080 11/03 A3019 620 61 300 200/08 RMK AO2
14837KMSN MSN20051029233009410/29/05 23:30:31  5-MIN KMSN 300530Z 19011KT 9SM BKN080 11/03 A3019 620 61 300 190/11 RMK AO2
14837KMSN MSN20051029233509410/29/05 23:35:31  5-MIN KMSN 300535Z 19011KT 9SM BKN080 11/03 A3019 620 61 300 190/11 RMK AO2
14837KMSN MSN20051029234009410/29/05 23:40:31  5-MIN KMSN 300540Z 19011KT 9SM BKN080 11/03 A3018 620 61 300 190/11 RMK AO2
14837KMSN MSN20051029234510010/29/05 23:45:31  5-MIN KMSN 300545Z 19013G17KT 9SM OVC080 11/03 A3019 620 61 300 190/13G17 RMK AO2
14837KMSN MSN20051029235013910/29/05 23:50:31  5-MIN KMSN 300550Z 19010KT 9SM OVC075 11/03 A3019 620 61 300 190/10 RMK AO2 SLP224 T01060033 10139 20106 401781006 50002
14837KMSN MSN20051029235509410/29/05 23:55:31  5-MIN KMSN 300555Z 19010KT 9SM OVC075 11/03 A3019 620 61 300 190/10 RMK AO2
14837KMSN MSN20051030000009410/30/05 00:00:38  5-MIN KMSN 300600Z 19009KT 9SM OVC075 11/03 A3019 620 61 300 190/09 RMK AO2
14837KMSN MSN20051030000509410/30/05 00:05:31  5-MIN KMSN 300605Z 19008KT 9SM OVC075 11/03 A3019 620 61 300 180/08 RMK AO2
14837KMSN MSN20051030001009410/30/05 00:10:31  5-MIN KMSN 300610Z 18008KT 9SM OVC075 11/03 A3019 620 61 300 180/08 RMK AO2
14837KMSN MSN20051030001509410/30/05 00:15:31  5-MIN KMSN 300615Z 18010KT 9SM OVC075 11/03 A3019 620 61 300 180/10 RMK AO2
14837KMSN MSN20051030002010110/30/05 00:20:31  5-MIN KMSN 300620Z 18008KT 9SM BKN075 OVC090 11/03 A3019 620 61 300 180/08 RMK AO2
14837KMSN MSN20051030002510110/30/05 00:25:31  5-MIN KMSN 300625Z 19008KT 9SM BKN075 BKN090 10/03 A3019 620 63 200 190/08 RMK AO2
14837KMSN MSN20051030003011710/30/05 00:30:31  5-MIN KMSN 300630Z 18008KT 160V220 9SM BKN075 BKN090 11/03 A3019 620 61 300 180/08 160V220 RMK AO2
14837KMSN MSN20051030003510110/30/05 00:35:31  5-MIN KMSN 300635Z 18008KT 9SM BKN075 BKN090 10/03 A3019 620 63 200 180/08 RMK AO2
14837KMSN MSN20051030004010110/30/05 00:40:31  5-MIN KMSN 300640Z 18010KT 9SM BKN075 OVC090 11/03 A3018 620 61 300 180/10 RMK AO2
14837KMSN MSN20051030004510110/30/05 00:45:31  5-MIN KMSN 300645Z 18009KT 9SM BKN075 OVC090 11/03 A3018 620 61 300 180/09 RMK AO2
14837KMSN MSN20051030005011810/30/05 00:50:31  5-MIN KMSN 300650Z 18010KT 9SM BKN075 OVC090 11/03 A3018 620 61 300 180/10 RMK AO2 SLP222 T01060033
14837KMSN MSN20051030005509410/30/05 00:55:31  5-MIN KMSN 300655Z 18012KT 9SM OVC075 11/03 A3018 620 61 300 180/12 RMK AO2
14837KMSN MSN20051030010009410/30/05 01:00:31  5-MIN KMSN 300700Z 18012KT 9SM OVC075 11/03 A3018 620 61 300 180/12 RMK AO2
14837KMSN MSN20051030010509410/30/05 01:05:31  5-MIN KMSN 300705Z 19009KT 9SM OVC075 11/03 A3018 620 61 300 190/09 RMK AO2
14837KMSN MSN20051030011009410/30/05 01:10:31  5-MIN KMSN 300710Z 19011KT 9SM OVC075 11/03 A3018 620 61 300 190/11 RMK AO2
14837KMSN MSN20051030011509410/30/05 01:15:31  5-MIN KMSN 300715Z 19011KT 9SM OVC075 11/03 A3018 620 61 300 190/11 RMK AO2
14837KMSN MSN20051030012010010/30/05 01:20:31  5-MIN KMSN 300720Z 19014G18KT 9SM OVC075 11/03 A3018 630 61 300 190/14G18 RMK AO2
14837KMSN MSN20051030012510010/30/05 01:25:31  5-MIN KMSN 300725Z 19012G18KT 9SM BKN075 11/03 A3018 630 61 300 190/12G18 RMK AO2
14837KMSN MSN20051030013009410/30/05 01:30:31  5-MIN KMSN 300730Z 19012KT 9SM BKN075 11/03 A3018 630 61 300 190/12 RMK AO2
14837KMSN MSN20051030013509410/30/05 01:35:31  5-MIN KMSN 300735Z 19010KT 9SM SCT075 10/03 A3018 630 63 200 190/10 RMK AO2
14837KMSN MSN20051030014009410/30/05 01:40:31  5-MIN KMSN 300740Z 19010KT 9SM SCT075 10/03 A3018 630 63 200 190/10 RMK AO2
14837KMSN MSN20051030014509410/30/05 01:45:31  5-MIN KMSN 300745Z 20009KT 9SM FEW075 10/03 A3018 630 63 200 190/09 RMK AO2
14837KMSN MSN20051030015011110/30/05 01:50:31  5-MIN KMSN 300750Z 19009KT 9SM SCT075 10/03 A3018 630 63 200 190/09 RMK AO2 SLP220 T01000033
14837KMSN MSN20051030015509410/30/05 01:55:31  5-MIN KMSN 300755Z 19008KT 9SM BKN075 10/03 A3018 630 63 200 190/08 RMK AO2
14837KMSN MSN20051030020010110/30/05 02:00:31  5-MIN KMSN 300800Z 19009KT 9SM BKN075 BKN095 10/03 A3018 630 63 200 190/09 RMK AO2
14837KMSN MSN20051030020510110/30/05 02:05:31  5-MIN KMSN 300805Z 20005KT 9SM BKN075 BKN095 10/03 A3018 630 63 200 200/05 RMK AO2
14837KMSN MSN20051030021010110/30/05 02:10:31  5-MIN KMSN 300810Z 19009KT 9SM BKN075 OVC100 10/03 A3017 630 63 200 190/09 RMK AO2
14837KMSN MSN20051030021510110/30/05 02:15:31  5-MIN KMSN 300815Z 20007KT 9SM BKN075 OVC100 10/03 A3017 630 63 200 200/07 RMK AO2
14837KMSN MSN20051030022010110/30/05 02:20:31  5-MIN KMSN 300820Z 20008KT 9SM SCT075 OVC100 10/03 A3017 630 63 200 200/08 RMK AO2
14837KMSN MSN20051030022510110/30/05 02:25:31  5-MIN KMSN 300825Z 21006KT 9SM SCT075 BKN100 10/03 A3017 640 63 200 210/06 RMK AO2
14837KMSN MSN20051030023010110/30/05 02:30:31  5-MIN KMSN 300830Z 20005KT 9SM FEW075 BKN100 10/03 A3017 640 63 200 200/05 RMK AO2
14837KMSN MSN20051030023510110/30/05 02:35:31  5-MIN KMSN 300835Z 19009KT 9SM FEW075 BKN100 10/03 A3017 640 63 200 190/09 RMK AO2
14837KMSN MSN20051030024011710/30/05 02:40:31  5-MIN KMSN 300840Z 20008KT 170V240 9SM FEW075 BKN100 10/03 A3017 640 63 200 200/08 170V240 RMK AO2
14837KMSN MSN20051030024509410/30/05 02:45:31  5-MIN KMSN 300845Z 21006KT 9SM SCT100 10/03 A3016 640 63 200 210/06 RMK AO2
14837KMSN MSN20051030025011710/30/05 02:50:31  5-MIN KMSN 300850Z 19007KT 9SM SCT100 10/03 A3016 640 63 200 190/07 RMK AO2 SLP214 T01000033 58004
14837KMSN MSN20051030025509410/30/05 02:55:31  5-MIN KMSN 300855Z 19009KT 9SM FEW100 10/03 A3016 640 63 200 190/09 RMK AO2
14837KMSN MSN20051030030009410/30/05 03:00:31  5-MIN KMSN 300900Z 19009KT 9SM FEW100 09/03 A3016 650 65 200 190/09 RMK AO2
14837KMSN MSN20051030030509410/30/05 03:05:31  5-MIN KMSN 300905Z 18010KT 9SM SCT100 10/03 A3016 650 63 200 180/10 RMK AO2
14837KMSN MSN20051030031009410/30/05 03:10:31  5-MIN KMSN 300910Z 19008KT 9SM SCT100 10/03 A3016 650 63 200 190/08 RMK AO2
14837KMSN MSN20051030031509410/30/05 03:15:31  5-MIN KMSN 300915Z 19010KT 9SM BKN100 09/03 A3015 650 65 200 180/10 RMK AO2
14837KMSN MSN20051030032010110/30/05 03:20:31  5-MIN KMSN 300920Z 18010KT 9SM FEW075 SCT100 09/03 A3015 650 65 200 180/10 RMK AO2
14837KMSN MSN20051030032510110/30/05 03:25:31  5-MIN KMSN 300925Z 19010KT 9SM SCT075 BKN100 09/03 A3015 650 65 200 190/10 RMK AO2
14837KMSN MSN20051030033010110/30/05 03:30:31  5-MIN KMSN 300930Z 19010KT 9SM BKN075 BKN100 09/03 A3015 650 65 200 190/10 RMK AO2
14837KMSN MSN20051030033510110/30/05 03:35:31  5-MIN KMSN 300935Z 19010KT 9SM SCT075 BKN100 09/03 A3015 650 65 200 190/10 RMK AO2
14837KMSN MSN20051030034010110/30/05 03:40:31  5-MIN KMSN 300940Z 19010KT 9SM SCT075 SCT100 09/03 A3015 650 65 200 190/10 RMK AO2
14837KMSN MSN20051030034509410/30/05 03:45:31  5-MIN KMSN 300945Z 19009KT 9SM SCT075 09/03 A3015 650 65 200 190/09 RMK AO2
14837KMSN MSN20051030035011110/30/05 03:50:31  5-MIN KMSN 300950Z 19009KT 9SM SCT075 09/03 A3015 650 68 100 190/09 RMK AO2 SLP213 T00890033
14837KMSN MSN20051030035509410/30/05 03:55:31  5-MIN KMSN 300955Z 19008KT 9SM SCT075 09/03 A3016 650 68 100 190/08 RMK AO2
14837KMSN MSN20051030040009410/30/05 04:00:31  5-MIN KMSN 301000Z 19009KT 9SM SCT075 09/03 A3016 650 68 100 190/09 RMK AO2
14837KMSN MSN20051030040509410/30/05 04:05:31  5-MIN KMSN 301005Z 19009KT 9SM BKN075 09/03 A3015 650 65 200 190/09 RMK AO2
14837KMSN MSN20051030041009410/30/05 04:10:31  5-MIN KMSN 301010Z 19011KT 9SM BKN075 09/03 A3015 650 65 200 190/11 RMK AO2
14837KMSN MSN20051030041509410/30/05 04:15:31  5-MIN KMSN 301015Z 19011KT 9SM BKN075 09/03 A3015 650 65 200 190/11 RMK AO2
14837KMSN MSN20051030042009410/30/05 04:20:31  5-MIN KMSN 301020Z 19010KT 9SM OVC075 09/03 A3015 650 65 200 190/10 RMK AO2
14837KMSN MSN20051030042509410/30/05 04:25:31  5-MIN KMSN 301025Z 19010KT 9SM OVC075 09/03 A3015 650 65 200 190/10 RMK AO2
14837KMSN MSN20051030043009410/30/05 04:30:31  5-MIN KMSN 301030Z 19010KT 9SM OVC075 09/03 A3015 650 65 200 190/10 RMK AO2
14837KMSN MSN20051030043509410/30/05 04:35:31  5-MIN KMSN 301035Z 19009KT 9SM OVC075 09/03 A3015 650 65 200 190/09 RMK AO2
14837KMSN MSN20051030044009410/30/05 04:40:31  5-MIN KMSN 301040Z 19009KT 9SM OVC075 09/03 A3015 650 68 100 190/09 RMK AO2
14837KMSN MSN20051030044509410/30/05 04:45:31  5-MIN KMSN 301045Z 19009KT 9SM OVC075 09/03 A3015 650 68 100 190/09 RMK AO2
14837KMSN MSN20051030045011110/30/05 04:50:31  5-MIN KMSN 301050Z 19009KT 9SM OVC075 09/03 A3015 650 68 100 190/09 RMK AO2 SLP212 T00890033
14837KMSN MSN20051030045509410/30/05 04:55:31  5-MIN KMSN 301055Z 19009KT 8SM OVC075 09/03 A3015 660 68 100 190/09 RMK AO2
14837KMSN MSN20051030050009410/30/05 05:00:31  5-MIN KMSN 301100Z 20007KT 8SM OVC075 09/03 A3015 660 68 100 200/07 RMK AO2
14837KMSN MSN20051030050509410/30/05 05:05:31  5-MIN KMSN 301105Z 19007KT 8SM OVC075 09/03 A3015 660 68 100 190/07 RMK AO2
14837KMSN MSN20051030051009410/30/05 05:10:31  5-MIN KMSN 301110Z 19007KT 8SM OVC075 09/03 A3014 660 68 100 190/07 RMK AO2
14837KMSN MSN20051030051509410/30/05 05:15:31  5-MIN KMSN 301115Z 19008KT 8SM OVC075 09/03 A3014 660 68 100 190/08 RMK AO2
14837KMSN MSN20051030052009410/30/05 05:20:31  5-MIN KMSN 301120Z 20008KT 8SM OVC075 09/03 A3014 660 68 100 200/08 RMK AO2
14837KMSN MSN20051030052509410/30/05 05:25:31  5-MIN KMSN 301125Z 20008KT 8SM OVC075 09/03 A3014 660 68 100 190/08 RMK AO2
14837KMSN MSN20051030053009410/30/05 05:30:31  5-MIN KMSN 301130Z 19010KT 8SM OVC075 09/03 A3014 660 68 100 190/10 RMK AO2
14837KMSN MSN20051030053509410/30/05 05:35:31  5-MIN KMSN 301135Z 19009KT 8SM OVC080 09/03 A3014 660 68 100 180/09 RMK AO2
14837KMSN MSN20051030054009410/30/05 05:40:31  5-MIN KMSN 301140Z 19009KT 8SM BKN080 08/03 A3014 660 70 100 190/09 RMK AO2
14837KMSN MSN20051030054509410/30/05 05:45:31  5-MIN KMSN 301145Z 19006KT 8SM OVC080 08/03 A3014 660 70 100 190/06 RMK AO2
14837KMSN MSN20051030055012910/30/05 05:50:31  5-MIN KMSN 301150Z 19008KT 8SM BKN080 09/03 A3014 660 68 100 190/08 RMK AO2 SLP210 T00890033 10106 20083 58009
14837KMSN MSN20051030055509410/30/05 05:55:31  5-MIN KMSN 301155Z 19007KT 8SM OVC080 09/03 A3014 660 65 100 190/07 RMK AO2
14837KMSN MSN20051030060009410/30/05 06:00:31  5-MIN KMSN 301200Z 20006KT 8SM OVC080 09/03 A3014 660 65 100 200/06 RMK AO2
14837KMSN MSN20051030060509410/30/05 06:05:31  5-MIN KMSN 301205Z 21005KT 8SM OVC080 09/03 A3014 660 65 100 210/05 RMK AO2
14837KMSN MSN20051030061011010/30/05 06:10:31  5-MIN KMSN 301210Z 20007KT 170V230 8SM OVC080 09/03 A3013 670 68 100 200/07 170V230 RMK AO2
14837KMSN MSN20051030061509410/30/05 06:15:31  5-MIN KMSN 301215Z 19008KT 8SM OVC080 09/03 A3014 670 65 100 190/08 RMK AO2
14837KMSN MSN20051030062009410/30/05 06:20:31  5-MIN KMSN 301220Z 20008KT 8SM BKN080 08/03 A3013 670 68 100 200/08 RMK AO2
14837KMSN MSN20051030062509410/30/05 06:25:31  5-MIN KMSN 301225Z 19010KT 8SM BKN085 09/03 A3013 670 65 100 190/10 RMK AO2
14837KMSN MSN20051030063009410/30/05 06:30:31  5-MIN KMSN 301230Z 18011KT 8SM BKN085 09/03 A3013 670 65 100 180/11 RMK AO2
14837KMSN MSN20051030063509410/30/05 06:35:31  5-MIN KMSN 301235Z 18007KT 8SM SCT085 08/03 A3013 670 70 100 180/07 RMK AO2
14837KMSN MSN20051030064011010/30/05 06:40:31  5-MIN KMSN 301240Z 19007KT 160V230 7SM FEW085 08/03 A3013 670 70 100 190/07 160V230 RMK AO2
14837KMSN MSN20051030064509410/30/05 06:45:31  5-MIN KMSN 301245Z 20006KT 7SM FEW090 08/03 A3013 670 70 100 190/06 RMK AO2
14837KMSN MSN20051030065011110/30/05 06:50:31  5-MIN KMSN 301250Z 19008KT 7SM FEW090 08/03 A3013 670 70 100 180/08 RMK AO2 SLP205 T00830033
14837KMSN MSN20051030065509410/30/05 06:55:31  5-MIN KMSN 301255Z VRB06KT 7SM FEW090 08/03 A3013 670 70 100 VRB/06 RMK AO2
14837KMSN MSN20051030070010710/30/05 07:00:31  5-MIN KMSN 301300Z 19007KT 160V220 7SM CLR 08/03 A3013 670 70 100 190/07 160V220 RMK AO2
14837KMSN MSN20051030070509110/30/05 07:05:31  5-MIN KMSN 301305Z 20007KT 7SM CLR 08/03 A3013 670 70 100 200/07 RMK AO2
14837KMSN MSN20051030071009710/30/05 07:10:31  5-MIN KMSN 301310Z 19012G17KT 7SM CLR 09/03 A3013 680 65 100 190/12G17 RMK AO2
14837KMSN MSN20051030071511610/30/05 07:15:31  5-MIN KMSN 301315Z 20007G17KT 170V230 7SM FEW090 08/03 A3012 680 70 100 200/07G17 170V230 RMK AO2
14837KMSN MSN20051030072010010/30/05 07:20:31  5-MIN KMSN 301320Z 19010G14KT 7SM FEW090 09/03 A3012 680 68 100 190/10G14 RMK AO2
14837KMSN MSN20051030072510010/30/05 07:25:31  5-MIN KMSN 301325Z 19011G16KT 7SM FEW090 09/03 A3012 680 68 100 190/11G16 RMK AO2
14837KMSN MSN20051030073010010/30/05 07:30:31  5-MIN KMSN 301330Z 18009G16KT 7SM FEW090 09/03 A3012 680 68 100 180/09G16 RMK AO2
14837KMSN MSN20051030073509410/30/05 07:35:31  5-MIN KMSN 301335Z 19011KT 7SM FEW090 09/03 A3012 680 68 100 180/11 RMK AO2
14837KMSN MSN20051030074009410/30/05 07:40:31  5-MIN KMSN 301340Z 19013KT 7SM FEW090 09/03 A3012 680 68 100 190/13 RMK AO2
14837KMSN MSN20051030074509110/30/05 07:45:31  5-MIN KMSN 301345Z 19012KT 7SM CLR 09/03 A3012 680 68 100 190/12 RMK AO2
14837KMSN MSN20051030075010810/30/05 07:50:31  5-MIN KMSN 301350Z 19013KT 7SM CLR 09/03 A3012 680 68 100 190/13 RMK AO2 SLP203 T00890033
14837KMSN MSN20051030075509110/30/05 07:55:31  5-MIN KMSN 301355Z 19010KT 7SM CLR 09/03 A3012 680 68 100 190/10 RMK AO2
14837KMSN MSN20051030080009110/30/05 08:00:31  5-MIN KMSN 301400Z 19010KT 7SM CLR 09/03 A3012 680 68 100 190/10 RMK AO2
14837KMSN MSN20051030080509110/30/05 08:05:31  5-MIN KMSN 301405Z 19010KT 7SM CLR 09/03 A3012 680 68 100 190/10 RMK AO2
14837KMSN MSN20051030081009110/30/05 08:10:31  5-MIN KMSN 301410Z 20011KT 8SM CLR 09/03 A3013 670 65 200 190/11 RMK AO2
14837KMSN MSN20051030081509110/30/05 08:15:31  5-MIN KMSN 301415Z 20011KT 8SM CLR 09/03 A3013 670 65 200 200/11 RMK AO2
14837KMSN MSN20051030082009110/30/05 08:20:31  5-MIN KMSN 301420Z 20012KT 8SM CLR 10/03 A3013 680 63 300 200/12 RMK AO2
14837KMSN MSN20051030082509110/30/05 08:25:31  5-MIN KMSN 301425Z 19013KT 8SM CLR 10/03 A3012 680 63 300 190/13 RMK AO2
14837KMSN MSN20051030083009110/30/05 08:30:31  5-MIN KMSN 301430Z 19011KT 8SM CLR 10/03 A3012 680 63 300 190/11 RMK AO2
14837KMSN MSN20051030083509710/30/05 08:35:31  5-MIN KMSN 301435Z 19014G17KT 8SM CLR 10/03 A3012 680 63 300 190/14G17 RMK AO2
14837KMSN MSN20051030084009410/30/05 08:40:31  5-MIN KMSN 301440Z 19011KT 8SM FEW080 11/03 A3012 680 61 300 190/11 RMK AO2
14837KMSN MSN20051030084510010/30/05 08:45:31  5-MIN KMSN 301445Z 19013G18KT 8SM FEW080 11/03 A3012 680 61 300 190/13G18 RMK AO2
14837KMSN MSN20051030085011710/30/05 08:50:31  5-MIN KMSN 301450Z 19013KT 8SM FEW080 11/03 A3012 680 61 300 190/13 RMK AO2 SLP203 T01060033 57006
14837KMSN MSN20051030085509410/30/05 08:55:31  5-MIN KMSN 301455Z 19012KT 8SM FEW080 11/03 A3012 680 61 300 190/12 RMK AO2
14837KMSN MSN20051030090009410/30/05 09:00:31  5-MIN KMSN 301500Z 19013KT 8SM FEW080 11/03 A3012 680 61 300 190/13 RMK AO2
14837KMSN MSN20051030090509410/30/05 09:05:31  5-MIN KMSN 301505Z 19012KT 8SM FEW080 11/03 A3012 680 61 400 190/12 RMK AO2
14837KMSN MSN20051030091009110/30/05 09:10:31  5-MIN KMSN 301510Z 19011KT 8SM CLR 11/03 A3012 680 58 400 190/11 RMK AO2
14837KMSN MSN20051030091509110/30/05 09:15:31  5-MIN KMSN 301515Z 20012KT 8SM CLR 11/03 A3012 680 61 400 200/12 RMK AO2
14837KMSN MSN20051030092009710/30/05 09:20:31  5-MIN KMSN 301520Z 19010G16KT 8SM CLR 11/03 A3012 680 58 400 190/10G16 RMK AO2
14837KMSN MSN20051030092509710/30/05 09:25:31  5-MIN KMSN 301525Z 19013G17KT 8SM CLR 11/03 A3011 690 58 400 190/13G17 RMK AO2
14837KMSN MSN20051030093009710/30/05 09:30:31  5-MIN KMSN 301530Z 19012G17KT 8SM CLR 11/03 A3011 690 58 400 190/12G17 RMK AO2
14837KMSN MSN20051030093509110/30/05 09:35:31  5-MIN KMSN 301535Z 19011KT 8SM CLR 11/03 A3011 690 58 400 190/11 RMK AO2
14837KMSN MSN20051030094009110/30/05 09:40:31  5-MIN KMSN 301540Z 20011KT 8SM CLR 12/03 A3011 690 56 500 200/11 RMK AO2
14837KMSN MSN20051030094509410/30/05 09:45:31  5-MIN KMSN 301545Z 19014KT 8SM FEW095 12/03 A3011 690 56 500 190/14 RMK AO2
14837KMSN MSN20051030095011110/30/05 09:50:31  5-MIN KMSN 301550Z 19011KT 8SM SCT095 12/03 A3011 690 56 500 190/11 RMK AO2 SLP199 T01170033
14837KMSN MSN20051030095509410/30/05 09:55:31  5-MIN KMSN 301555Z 19011KT 8SM FEW095 12/03 A3011 690 54 600 190/11 RMK AO2
14837KMSN MSN20051030100009410/30/05 10:00:31  5-MIN KMSN 301600Z 19010KT 8SM SCT095 12/03 A3011 690 54 600 190/10 RMK AO2
14837KMSN MSN20051030100509410/30/05 10:05:31  5-MIN KMSN 301605Z 18011KT 8SM SCT095 12/03 A3011 690 54 600 180/11 RMK AO2
14837KMSN MSN20051030101009410/30/05 10:10:31  5-MIN KMSN 301610Z 18011KT 8SM SCT095 12/03 A3011 690 54 600 180/11 RMK AO2
14837KMSN MSN20051030101509410/30/05 10:15:31  5-MIN KMSN 301615Z 18012KT 8SM FEW095 13/03 A3011 690 52 600 180/12 RMK AO2
14837KMSN MSN20051030102009410/30/05 10:20:31  5-MIN KMSN 301620Z 18011KT 8SM FEW095 13/03 A3010 700 52 600 180/11 RMK AO2
14837KMSN MSN20051030102509410/30/05 10:25:31  5-MIN KMSN 301625Z 18012KT 8SM SCT090 13/03 A3010 690 52 600 180/12 RMK AO2
14837KMSN MSN20051030103009410/30/05 10:30:31  5-MIN KMSN 301630Z 18011KT 8SM SCT080 13/03 A3011 690 52 600 180/11 RMK AO2
14837KMSN MSN20051030103509410/30/05 10:35:31  5-MIN KMSN 301635Z 18014KT 8SM SCT080 13/03 A3010 690 52 600 180/14 RMK AO2
14837KMSN MSN20051030104009410/30/05 10:40:31  5-MIN KMSN 301640Z 19012KT 8SM FEW080 13/03 A3011 690 52 600 180/12 RMK AO2
14837KMSN MSN20051030104509410/30/05 10:45:31  5-MIN KMSN 301645Z 20010KT 8SM FEW080 13/04 A3010 700 52 700 200/10 RMK AO2
14837KMSN MSN20051030105011110/30/05 10:50:31  5-MIN KMSN 301650Z 21012KT 8SM FEW080 13/03 A3010 700 50 700 210/12 RMK AO2 SLP195 T01330033
14837KMSN MSN20051030105509410/30/05 10:55:31  5-MIN KMSN 301655Z 20010KT 8SM FEW080 13/03 A3010 700 52 600 200/10 RMK AO2
14837KMSN MSN20051030110009110/30/05 11:00:31  5-MIN KMSN 301700Z 19012KT 8SM CLR 13/03 A3009 710 52 600 190/12 RMK AO2
14837KMSN MSN20051030110509110/30/05 11:05:31  5-MIN KMSN 301705Z 19014KT 8SM CLR 13/03 A3009 710 52 600 180/14 RMK AO2
14837KMSN MSN20051030111009110/30/05 11:10:31  5-MIN KMSN 301710Z 19013KT 8SM CLR 13/03 A3009 710 50 700 190/13 RMK AO2
14837KMSN MSN20051030111509410/30/05 11:15:31  5-MIN KMSN 301715Z 19011KT 8SM FEW110 13/04 A3009 710 52 700 190/11 RMK AO2
14837KMSN MSN20051030112009410/30/05 11:20:31  5-MIN KMSN 301720Z 20010KT 8SM FEW110 13/03 A3008 710 50 700 200/10 RMK AO2
14837KMSN MSN20051030112509410/30/05 11:25:31  5-MIN KMSN 301725Z 19012KT 8SM FEW110 13/03 A3008 720 50 700 190/12 RMK AO2
14837KMSN MSN20051030113010010/30/05 11:30:31  5-MIN KMSN 301730Z 19009G17KT 8SM FEW110 13/03 A3008 720 50 700 190/09G17 RMK AO2
14837KMSN MSN20051030113509410/30/05 11:35:31  5-MIN KMSN 301735Z 19012KT 8SM FEW110 14/04 A3007 720 50 800 190/12 RMK AO2
14837KMSN MSN20051030114009410/30/05 11:40:31  5-MIN KMSN 301740Z 18012KT 8SM FEW110 14/04 A3007 730 50 800 180/12 RMK AO2
14837KMSN MSN20051030114509110/30/05 11:45:31  5-MIN KMSN 301745Z 20010KT 8SM CLR 14/04 A3007 730 50 800 200/10 RMK AO2
14837KMSN MSN20051030115012610/30/05 11:50:31  5-MIN KMSN 301750Z 19010KT 8SM CLR 14/04 A3007 730 49 900 190/10 RMK AO2 SLP183 T01440039 10144 20083 56006
14837KMSN MSN20051030115509110/30/05 11:55:31  5-MIN KMSN 301755Z 20009KT 8SM CLR 14/04 A3007 730 50 800 200/09 RMK AO2
14837KMSN MSN20051030120009710/30/05 12:00:31  5-MIN KMSN 301800Z 22008G15KT 8SM CLR 14/04 A3007 730 49 900 220/08G15 RMK AO2
14837KMSN MSN20051030120509710/30/05 12:05:31  5-MIN KMSN 301805Z 21011G15KT 8SM CLR 14/04 A3006 730 49 900 210/11G15 RMK AO2
14837KMSN MSN20051030121009110/30/05 12:10:31  5-MIN KMSN 301810Z 20009KT 8SM CLR 14/04 A3006 730 49 900 200/09 RMK AO2
14837KMSN MSN20051030121511010/30/05 12:15:31  5-MIN KMSN 301815Z 20009KT 170V240 8SM FEW060 15/04 A3006 740 47 900 200/09 170V240 RMK AO2
14837KMSN MSN20051030122009510/30/05 12:20:31  5-MIN KMSN 301820Z 19010KT 8SM SCT060 15/04 A3006 740 47 1000 190/10 RMK AO2
14837KMSN MSN20051030122511010/30/05 12:25:31  5-MIN KMSN 301825Z 20010KT 180V240 8SM BKN060 14/04 A3005 740 49 900 190/10 180V240 RMK AO2
14837KMSN MSN20051030123009410/30/05 12:30:31  5-MIN KMSN 301830Z 22009KT 8SM BKN060 14/04 A3005 740 49 900 210/09 RMK AO2
14837KMSN MSN20051030123509410/30/05 12:35:31  5-MIN KMSN 301835Z 20009KT 8SM BKN060 14/04 A3005 750 49 900 200/09 RMK AO2
14837KMSN MSN20051030124009410/30/05 12:40:31  5-MIN KMSN 301840Z 20009KT 8SM BKN060 14/04 A3004 750 49 900 200/09 RMK AO2
14837KMSN MSN20051030124510010/30/05 12:45:31  5-MIN KMSN 301845Z 20011G15KT 8SM OVC060 14/04 A3004 750 49 900 200/11G15 RMK AO2
14837KMSN MSN20051030125011710/30/05 12:50:31  5-MIN KMSN 301850Z 20007G15KT 8SM BKN060 14/04 A3004 750 49 900 200/07G15 RMK AO2 SLP174 T01440039
14837KMSN MSN20051030125509410/30/05 12:55:31  5-MIN KMSN 301855Z 21007KT 8SM BKN060 14/04 A3004 750 49 900 210/07 RMK AO2
14837KMSN MSN20051030130010110/30/05 13:00:31  5-MIN KMSN 301900Z 20008KT 8SM SCT060 BKN100 14/04 A3004 750 49 900 200/08 RMK AO2
14837KMSN MSN20051030130510110/30/05 13:05:31  5-MIN KMSN 301905Z 20006KT 8SM SCT060 BKN090 14/04 A3004 760 49 900 200/06 RMK AO2
14837KMSN MSN20051030131010110/30/05 13:10:31  5-MIN KMSN 301910Z 20009KT 8SM FEW060 BKN085 14/04 A3004 760 51 900 200/09 RMK AO2
14837KMSN MSN20051030131511710/30/05 13:15:31  5-MIN KMSN 301915Z 20009KT 7SM -RA FEW039 BKN090 14/04 A3004 760 51 900 200/09 RMK AO2 RAB14 P0000
14837KMSN MSN20051030132011710/30/05 13:20:31  5-MIN KMSN 301920Z 21009KT 7SM -RA FEW035 BKN085 14/05 A3004 750 55 800 210/09 RMK AO2 RAB14 P0000
14837KMSN MSN20051030132512410/30/05 13:25:31  5-MIN KMSN 301925Z 20006KT 7SM -RA FEW033 BKN075 BKN090 14/06 A3004 760 57 800 200/06 RMK AO2 RAB14 P0000
14837KMSN MSN20051030133014010/30/05 13:30:31  5-MIN KMSN 301930Z 21008KT 180V250 8SM -RA FEW029 BKN070 OVC090 13/06 A3003 760 59 800 210/08 180V250 RMK AO2 RAB14 P0000
14837KMSN MSN20051030133512310/30/05 13:35:31  5-MIN KMSN 301935Z 19010KT 8SM FEW029 BKN065 OVC080 13/06 A3003 760 59 800 190/10 RMK AO2 RAB14E35 P0000
14837KMSN MSN20051030134012310/30/05 13:40:31  5-MIN KMSN 301940Z 21008KT 8SM FEW029 BKN065 OVC080 13/06 A3003 760 59 800 210/08 RMK AO2 RAB14E35 P0000
14837KMSN MSN20051030134511610/30/05 13:45:31  5-MIN KMSN 301945Z 22006KT 7SM BKN065 OVC080 13/06 A3003 760 59 800 220/06 RMK AO2 RAB14E35 P0000
14837KMSN MSN20051030135012610/30/05 13:50:31  5-MIN KMSN 301950Z 22006KT 8SM OVC070 13/06 A3004 760 59 800 220/06 RMK AO2 RAB14E35 SLP172 P0000 T01330056
14837KMSN MSN20051030135511810/30/05 13:55:31  5-MIN KMSN 301955Z 23006KT 7SM -RA FEW040 BKN070 BKN085 13/06 A3003 760 63 700 230/06 RMK AO2 P0000
14837KMSN MSN20051030140011810/30/05 14:00:31  5-MIN KMSN 302000Z 23005KT 6SM -RA FEW033 BKN070 BKN085 13/06 A3003 760 63 700 230/05 RMK AO2 P0000
14837KMSN MSN20051030140511810/30/05 14:05:31  5-MIN KMSN 302005Z 22006KT 7SM -RA FEW036 BKN070 BKN085 13/06 A3003 760 63 700 220/06 RMK AO2 P0000
14837KMSN MSN20051030141011310/30/05 14:10:31  5-MIN KMSN 302010Z 21005KT 8SM BKN070 BKN085 13/06 A3003 770 63 700 210/05 RMK AO2 RAE08 P0000
14837KMSN MSN20051030141511310/30/05 14:15:31  5-MIN KMSN 302015Z 19006KT 7SM BKN070 BKN085 13/06 A3002 770 63 700 190/06 RMK AO2 RAE08 P0000
14837KMSN MSN20051030142011310/30/05 14:20:31  5-MIN KMSN 302020Z 19008KT 7SM SCT065 BKN080 13/06 A3002 770 63 700 190/08 RMK AO2 RAE08 P0000
14837KMSN MSN20051030142511810/30/05 14:25:31  5-MIN KMSN 302025Z 20007KT 6SM -RA FEW027 BKN070 OVC090 13/06 A3002 770 61 800 200/07 RMK AO2 P0000
14837KMSN MSN20051030143011810/30/05 14:30:31  5-MIN KMSN 302030Z 19009KT 5SM -RA SCT027 BKN070 OVC085 13/06 A3002 770 63 700 190/09 RMK AO2 P0001
14837KMSN MSN20051030143511810/30/05 14:35:31  5-MIN KMSN 302035Z 19009KT 4SM -RA BKN025 BKN070 OVC085 12/06 A3002 780 66 700 190/09 RMK AO2 P0001
14837KMSN MSN20051030144011810/30/05 14:40:31  5-MIN KMSN 302040Z 19008KT 5SM -RA BKN023 BKN065 OVC080 12/06 A3002 770 66 700 190/08 RMK AO2 P0001
14837KMSN MSN20051030144511810/30/05 14:45:31  5-MIN KMSN 302045Z 19009KT 5SM -RA BKN023 BKN075 BKN090 12/07 A3002 780 71 600 190/09 RMK AO2 P0002
14837KMSN MSN20051030145014710/30/05 14:50:31  5-MIN KMSN 302050Z 19007KT 6SM -RA BKN023 BKN070 BKN090 12/07 A3001 780 71 600 190/07 RMK AO2 SLP166 P0002 60002 T01170067 58019
14837KMSN MSN20051030145511810/30/05 14:55:31  5-MIN KMSN 302055Z 19008KT 7SM -RA SCT023 BKN070 OVC090 12/07 A3001 780 71 600 190/08 RMK AO2 P0000
14837KMSN MSN20051030150011810/30/05 15:00:31  5-MIN KMSN 302100Z VRB05KT 7SM -RA FEW023 BKN060 OVC090 12/07 A3002 780 71 600 VRB/05 RMK AO2 P0000
14837KMSN MSN20051030150511810/30/05 15:05:31  5-MIN KMSN 302105Z 22004KT 7SM -RA FEW023 BKN055 OVC090 12/07 A3002 780 71 600 220/04 RMK AO2 P0000
14837KMSN MSN20051030151011110/30/05 15:10:31  5-MIN KMSN 302110Z 22006KT 6SM -RA BKN060 BKN090 12/07 A3002 770 71 600 220/06 RMK AO2 P0000
14837KMSN MSN20051030151511110/30/05 15:15:31  5-MIN KMSN 302115Z 21006KT 5SM -RA BKN060 OVC090 12/07 A3002 770 71 600 210/06 RMK AO2 P0000
14837KMSN MSN20051030152010410/30/05 15:20:31  5-MIN KMSN 302120Z 20006KT 4SM -RA OVC060 12/07 A3002 770 71 600 200/06 RMK AO2 P0000
14837KMSN MSN20051030152511110/30/05 15:25:31  5-MIN KMSN 302125Z 22008KT 4SM -RA SCT032 OVC060 12/07 A3003 760 74 600 220/08 RMK AO2 P0000
14837KMSN MSN20051030153011110/30/05 15:30:31  5-MIN KMSN 302130Z 22006KT 4SM -RA SCT032 OVC060 11/07 A3002 770 77 500 220/06 RMK AO2 P0000
14837KMSN MSN20051030153511810/30/05 15:35:31  5-MIN KMSN 302135Z 23005KT 6SM -RA SCT030 BKN046 OVC065 11/07 A3002 770 77 500 230/05 RMK AO2 P0000
14837KMSN MSN20051030154011810/30/05 15:40:31  5-MIN KMSN 302140Z 22005KT 6SM -RA SCT030 BKN042 OVC060 11/07 A3002 770 77 500 220/05 RMK AO2 P0000
14837KMSN MSN20051030154511810/30/05 15:45:31  5-MIN KMSN 302145Z VRB03KT 6SM -RA SCT033 BKN042 OVC065 11/07 A3001 780 77 500 VRB/03 RMK AO2 P0001
14837KMSN MSN20051030155013510/30/05 15:50:31  5-MIN KMSN 302150Z VRB04KT 4SM -RA FEW030 BKN037 OVC046 11/08 A3001 780 80 500 VRB/04 RMK AO2 SLP166 P0001 T01110078
14837KMSN MSN20051030155511810/30/05 15:55:31  5-MIN KMSN 302155Z 22006KT 4SM -RA FEW030 BKN040 OVC047 11/08 A3002 770 83 500 220/06 RMK AO2 P0000
14837KMSN MSN20051030160011110/30/05 16:00:31  5-MIN KMSN 302200Z 22007KT 5SM -RA FEW028 OVC042 11/08 A3002 770 83 500 220/07 RMK AO2 P0000
14837KMSN MSN20051030160511110/30/05 16:05:31  5-MIN KMSN 302205Z 23007KT 3SM -RA SCT028 OVC040 11/08 A3003 770 83 500 220/07 RMK AO2 P0000
14837KMSN MSN20051030161011110/30/05 16:10:31  5-MIN KMSN 302210Z 23006KT 3SM -RA BKN028 OVC040 11/08 A3003 760 83 500 230/06 RMK AO2 P0000
14837KMSN MSN20051030161511410/30/05 16:15:31  5-MIN KMSN 302215Z VRB05KT 3SM -RA BR BKN028 OVC042 10/08 A3003 760 89 400 VRB/05 RMK AO2 P0001
14837KMSN MSN20051030162013010/30/05 16:20:31  5-MIN KMSN 302220Z 22008KT 170V250 3SM -RA BR BKN028 OVC040 10/08 A3003 760 89 400 220/08 170V250 RMK AO2 P0002
14837KMSN MSN20051030162510710/30/05 16:25:31  5-MIN KMSN 302225Z 24006KT 3SM -RA BR OVC028 10/08 A3003 760 89 400 230/06 RMK AO2 P0003
14837KMSN MSN20051030163011410/30/05 16:30:31  5-MIN KMSN 302230Z VRB06KT 3SM -RA BR FEW016 OVC028 10/08 A3004 760 89 400 VRB/06 RMK AO2 P0005
14837KMSN MSN20051030163511810/30/05 16:35:31  5-MIN KMSN 302235Z 22007KT 2 1/2SM -RA BR FEW016 OVC028 10/08 A3004 760 89 400 220/07 RMK AO2 P0006
14837KMSN MSN20051030164011810/30/05 16:40:31  5-MIN KMSN 302240Z 22008KT 2 1/2SM -RA BR FEW014 OVC028 10/08 A3004 750 89 400 220/08 RMK AO2 P0007
14837KMSN MSN20051030164511810/30/05 16:45:31  5-MIN KMSN 302245Z 22006KT 2 1/2SM -RA BR SCT016 OVC028 10/08 A3004 760 89 400 220/06 RMK AO2 P0008
14837KMSN MSN20051030165011810/30/05 16:50:31  5-MIN KMSN 302250Z 22008KT 2 1/2SM -RA BR BKN014 OVC028 10/08 A3004 760 89 400 220/08 RMK AO2 P0008
14837KMSN MSN20051030165511410/30/05 16:55:31  5-MIN KMSN 302255Z 21007KT 4SM -RA BR BKN014 OVC028 10/08 A3004 760 89 400 210/07 RMK AO2 P0000
14837KMSN MSN20051030170011410/30/05 17:00:31  5-MIN KMSN 302300Z 21007KT 4SM -RA BR BKN014 OVC028 10/08 A3004 750 89 400 200/07 RMK AO2 P0001
14837KMSN MSN20051030170511410/30/05 17:05:31  5-MIN KMSN 302305Z 21008KT 4SM -RA BR BKN014 OVC024 10/08 A3004 760 89 400 210/08 RMK AO2 P0001
14837KMSN MSN20051030171011410/30/05 17:10:31  5-MIN KMSN 302310Z 21007KT 4SM -RA BR BKN014 OVC022 10/08 A3004 760 89 400 210/07 RMK AO2 P0001
14837KMSN MSN20051030171511410/30/05 17:15:31  5-MIN KMSN 302315Z 21007KT 5SM -RA BR BKN014 OVC022 10/08 A3003 760 89 400 210/07 RMK AO2 P0001
14837KMSN MSN20051030172011410/30/05 17:20:31  5-MIN KMSN 302320Z 20006KT 5SM -RA BR BKN014 OVC022 10/08 A3004 760 89 400 200/06 RMK AO2 P0001
14837KMSN MSN20051030172513010/30/05 17:25:31  5-MIN KMSN 302325Z 20008KT 170V230 4SM -RA BR BKN014 OVC022 10/08 A3004 760 89 400 200/08 170V230 RMK AO2 P0001
14837KMSN MSN20051030173011410/30/05 17:30:31  5-MIN KMSN 302330Z 22007KT 3SM -RA BR BKN014 OVC022 10/08 A3004 760 89 400 210/07 RMK AO2 P0001
14837KMSN MSN20051030173511410/30/05 17:35:31  5-MIN KMSN 302335Z 22008KT 3SM -RA BR BKN014 OVC024 10/08 A3004 760 89 400 220/08 RMK AO2 P0001
14837KMSN MSN20051030174013510/30/05 17:40:31  5-MIN KMSN 302340Z 22007KT 2 1/2SM -RA BR BKN014 BKN022 OVC027 10/08 A3004 760 89 400 220/07 RMK AO2 SFC VIS 3 P0001
14837KMSN MSN20051030174512510/30/05 17:45:31  5-MIN KMSN 302345Z 22008KT 2 1/2SM -RA BR SCT014 BKN022 OVC029 10/08 A3004 760 89 400 220/08 RMK AO2 P0001
14837KMSN MSN20051030175015910/30/05 17:50:31  5-MIN KMSN 302350Z 23006KT 2 1/2SM -RA BR FEW012 OVC026 10/08 A3004 760 89 400 220/06 RMK AO2 SLP175 P0001 60012 T01000083 10150 20100 56018
14837KMSN MSN20051030175511810/30/05 17:55:31  5-MIN KMSN 302355Z 22008KT 2 1/2SM -RA BR SCT012 OVC028 10/08 A3004 750 89 400 220/08 RMK AO2 P0000
14837KMSN MSN20051030180011810/30/05 18:00:31  5-MIN KMSN 310000Z 21009KT 2 1/2SM -RA BR SCT012 OVC026 10/08 A3004 750 89 400 210/09 RMK AO2 P0000
14837KMSN MSN20051030180512410/30/05 18:05:31  5-MIN KMSN 310005Z 21008G14KT 2 1/2SM -RA BR BKN012 OVC026 10/08 A3004 750 89 400 210/08G14 RMK AO2 P0000
14837KMSN MSN20051030181013510/30/05 18:10:31  5-MIN KMSN 310010Z 22008KT 2 1/2SM -RA BR BKN012 BKN023 OVC028 10/08 A3004 750 89 400 210/08 RMK AO2 SFC VIS 3 P0000
14837KMSN MSN20051030181512810/30/05 18:15:31  5-MIN KMSN 310015Z 22008KT 2 1/2SM -RA BR BKN012 OVC025 10/08 A3004 750 89 400 220/08 RMK AO2 SFC VIS 3 P0000
14837KMSN MSN20051030182012810/30/05 18:20:31  5-MIN KMSN 310020Z 22007KT 2 1/2SM -RA BR SCT012 OVC025 10/08 A3004 750 89 400 220/07 RMK AO2 SFC VIS 4 P0000
14837KMSN MSN20051030182513010/30/05 18:25:31  5-MIN KMSN 310025Z 22007KT 2 1/2SM BR SCT009 OVC025 10/08 A3004 750 89 400 220/07 RMK AO2 SFC VIS 4 RAE21 P0000
14837KMSN MSN20051030183014610/30/05 18:30:31  5-MIN KMSN 310030Z 23006KT 2 1/2SM -DZ BR FEW011 BKN027 OVC034 10/08 A3004 750 89 400 230/06 RMK AO2 SFC VIS 4 RAE21DZB30 P0000
14837KMSN MSN20051030183514610/30/05 18:35:31  5-MIN KMSN 310035Z 21005KT 2 1/2SM -DZ BR FEW011 BKN025 OVC034 10/08 A3004 760 89 400 200/05 RMK AO2 SFC VIS 4 RAE21DZB30 P0000
14837KMSN MSN20051030184012510/30/05 18:40:31  5-MIN KMSN 310040Z 21005KT 4SM -DZ BR SCT025 OVC036 10/08 A3004 760 89 400 210/05 RMK AO2 RAE21DZB30 P0000
14837KMSN MSN20051030184513210/30/05 18:45:31  5-MIN KMSN 310045Z 22007KT 5SM -DZ BR FEW013 SCT027 OVC038 10/08 A3004 760 89 400 220/07 RMK AO2 RAE21DZB30 P0000
14837KMSN MSN20051030185014210/30/05 18:50:31  5-MIN KMSN 310050Z 22005KT 5SM -DZ BR FEW013 OVC037 10/08 A3004 760 89 400 210/05 RMK AO2 RAE21DZB30 SLP175 P0000 T01000083
14837KMSN MSN20051030185511410/30/05 18:55:31  5-MIN KMSN 310055Z 21005KT 5SM -DZ BR BKN037 OVC047 10/08 A3004 760 89 400 210/05 RMK AO2 P0000
14837KMSN MSN20051030190012110/30/05 19:00:31  5-MIN KMSN 310100Z 22006KT 5SM -DZ BR BKN034 BKN041 OVC049 10/08 A3004 760 89 400 220/06 RMK AO2 P0000
14837KMSN MSN20051030190512110/30/05 19:05:31  5-MIN KMSN 310105Z 22005KT 5SM -DZ BR SCT030 BKN038 OVC049 10/08 A3004 760 89 400 220/05 RMK AO2 P0000
14837KMSN MSN20051030191012310/30/05 19:10:31  5-MIN KMSN 310110Z 22006KT 5SM BR SCT027 BKN033 OVC044 10/08 A3004 760 89 400 220/06 RMK AO2 DZE07 P0000
14837KMSN MSN20051030191512310/30/05 19:15:31  5-MIN KMSN 310115Z 20006KT 5SM BR BKN027 BKN033 OVC046 10/08 A3003 760 89 400 200/06 RMK AO2 DZE07 P0000
14837KMSN MSN20051030192011610/30/05 19:20:31  5-MIN KMSN 310120Z 22007KT 5SM BR BKN029 OVC035 10/08 A3003 760 89 400 220/07 RMK AO2 DZE07 P0000
14837KMSN MSN20051030192511610/30/05 19:25:31  5-MIN KMSN 310125Z 22007KT 5SM BR BKN029 OVC048 10/08 A3003 760 89 400 220/07 RMK AO2 DZE07 P0000
14837KMSN MSN20051030193011610/30/05 19:30:31  5-MIN KMSN 310130Z 21007KT 5SM BR BKN029 OVC048 10/08 A3003 760 89 400 210/07 RMK AO2 DZE07 P0000
14837KMSN MSN20051030193511610/30/05 19:35:31  5-MIN KMSN 310135Z VRB06KT 5SM BR BKN029 OVC046 10/08 A3003 760 86 400 VRB/06 RMK AO2 DZE07 P0000
14837KMSN MSN20051030194012310/30/05 19:40:31  5-MIN KMSN 310140Z 22008KT 5SM BR BKN029 BKN034 OVC046 10/08 A3003 760 86 400 220/08 RMK AO2 DZE07 P0000
14837KMSN MSN20051030194511610/30/05 19:45:31  5-MIN KMSN 310145Z 22008KT 5SM BR BKN031 OVC046 10/08 A3003 760 86 400 220/08 RMK AO2 DZE07 P0000
14837KMSN MSN20051030195013310/30/05 19:50:31  5-MIN KMSN 310150Z 22007KT 5SM BR BKN033 OVC046 10/08 A3004 760 86 400 220/07 RMK AO2 DZE07 SLP175 P0000 T01000078
14837KMSN MSN20051030195511310/30/05 19:55:31  5-MIN KMSN 310155Z 22007KT 190V260 5SM BR OVC033 10/08 A3004 760 89 400 220/07 190V260 RMK AO2
14837KMSN MSN20051030200009710/30/05 20:00:31  5-MIN KMSN 310200Z VRB06KT 5SM BR OVC033 11/08 A3004 760 86 400 VRB/06 RMK AO2
14837KMSN MSN20051030200510410/30/05 20:05:31  5-MIN KMSN 310205Z 21007KT 5SM BR FEW024 OVC033 11/08 A3004 750 86 400 210/07 RMK AO2
14837KMSN MSN20051030201010410/30/05 20:10:31  5-MIN KMSN 310210Z 22007KT 5SM BR FEW024 OVC033 11/08 A3004 750 86 400 220/07 RMK AO2
14837KMSN MSN20051030201512710/30/05 20:15:31  5-MIN KMSN 310215Z 22007KT 190V250 5SM BR SCT021 SCT026 OVC033 11/08 A3004 760 86 400 220/07 190V250 RMK AO2
14837KMSN MSN20051030202010410/30/05 20:20:31  5-MIN KMSN 310220Z 23008KT 5SM BR BKN021 OVC033 10/08 A3004 760 89 400 230/08 RMK AO2
14837KMSN MSN20051030202511110/30/05 20:25:31  5-MIN KMSN 310225Z 22007KT 5SM BR BKN021 BKN026 OVC033 11/08 A3004 760 86 400 220/07 RMK AO2
14837KMSN MSN20051030203010410/30/05 20:30:31  5-MIN KMSN 310230Z 23006KT 5SM BR BKN021 OVC033 11/08 A3004 760 86 400 230/06 RMK AO2
14837KMSN MSN20051030203510410/30/05 20:35:31  5-MIN KMSN 310235Z VRB06KT 5SM BR BKN021 OVC033 11/08 A3003 760 86 400 VRB/06 RMK AO2
14837KMSN MSN20051030204011110/30/05 20:40:31  5-MIN KMSN 310240Z 21006KT 5SM BR BKN021 BKN028 OVC033 11/08 A3003 760 86 400 210/06 RMK AO2
14837KMSN MSN20051030204510410/30/05 20:45:31  5-MIN KMSN 310245Z 21006KT 5SM BR BKN021 OVC028 11/08 A3003 760 86 400 210/06 RMK AO2
14837KMSN MSN20051030205013310/30/05 20:50:31  5-MIN KMSN 310250Z 22007KT 5SM BR BKN023 OVC032 11/08 A3003 760 86 500 220/07 RMK AO2 SLP172 60000 T01060083 51009
14837KMSN MSN20051030205510410/30/05 20:55:31  5-MIN KMSN 310255Z VRB06KT 5SM BR BKN023 OVC028 11/08 A3003 760 86 500 VRB/06 RMK AO2
14837KMSN MSN20051030210010410/30/05 21:00:31  5-MIN KMSN 310300Z VRB04KT 5SM BR BKN023 OVC031 11/08 A3003 760 86 400 VRB/04 RMK AO2
14837KMSN MSN20051030210510410/30/05 21:05:31  5-MIN KMSN 310305Z VRB05KT 5SM BR BKN025 OVC031 11/08 A3003 760 86 400 VRB/05 RMK AO2
14837KMSN MSN20051030211010410/30/05 21:10:31  5-MIN KMSN 310310Z VRB05KT 5SM BR BKN025 OVC031 11/08 A3004 760 86 400 VRB/05 RMK AO2
14837KMSN MSN20051030211510410/30/05 21:15:31  5-MIN KMSN 310315Z VRB06KT 5SM BR BKN025 OVC031 11/08 A3003 760 86 400 VRB/06 RMK AO2
14837KMSN MSN20051030212009710/30/05 21:20:31  5-MIN KMSN 310320Z 23006KT 5SM BR OVC027 11/08 A3004 760 86 400 220/06 RMK AO2
14837KMSN MSN20051030212509710/30/05 21:25:31  5-MIN KMSN 310325Z 23005KT 5SM BR OVC027 11/08 A3004 760 86 400 230/05 RMK AO2
14837KMSN MSN20051030213010410/30/05 21:30:31  5-MIN KMSN 310330Z 23007KT 5SM BR BKN025 OVC032 11/08 A3004 760 86 400 230/07 RMK AO2
14837KMSN MSN20051030213510410/30/05 21:35:31  5-MIN KMSN 310335Z 23006KT 5SM BR BKN025 OVC032 11/08 A3004 760 86 400 230/06 RMK AO2
14837KMSN MSN20051030214009710/30/05 21:40:31  5-MIN KMSN 310340Z 21006KT 5SM BR OVC025 11/08 A3004 760 86 400 210/06 RMK AO2
14837KMSN MSN20051030214509710/30/05 21:45:31  5-MIN KMSN 310345Z 22006KT 5SM BR OVC025 11/08 A3004 760 86 400 220/06 RMK AO2
14837KMSN MSN20051030215011410/30/05 21:50:31  5-MIN KMSN 310350Z 22007KT 5SM BR OVC025 11/08 A3004 760 86 400 220/07 RMK AO2 SLP174 T01060083
14837KMSN MSN20051030215509710/30/05 21:55:31  5-MIN KMSN 310355Z 23006KT 5SM BR OVC025 11/08 A3004 760 86 400 230/06 RMK AO2
14837KMSN MSN20051030220009710/30/05 22:00:31  5-MIN KMSN 310400Z 21005KT 5SM BR OVC027 11/08 A3003 760 86 400 210/05 RMK AO2
14837KMSN MSN20051030220509710/30/05 22:05:31  5-MIN KMSN 310405Z 24005KT 5SM BR OVC027 11/08 A3003 760 86 400 240/05 RMK AO2
14837KMSN MSN20051030221009710/30/05 22:10:31  5-MIN KMSN 310410Z 22004KT 5SM BR OVC027 11/08 A3003 760 86 400 220/04 RMK AO2
14837KMSN MSN20051030221509710/30/05 22:15:31  5-MIN KMSN 310415Z 22005KT 5SM BR OVC027 11/08 A3003 760 86 400 220/05 RMK AO2
14837KMSN MSN20051030222009710/30/05 22:20:31  5-MIN KMSN 310420Z VRB05KT 5SM BR OVC027 11/08 A3003 760 86 400 VRB/05 RMK AO2
14837KMSN MSN20051030222509710/30/05 22:25:31  5-MIN KMSN 310425Z VRB03KT 5SM BR OVC027 11/08 A3003 760 86 500 VRB/03 RMK AO2
14837KMSN MSN20051030223009710/30/05 22:30:31  5-MIN KMSN 310430Z VRB04KT 5SM BR OVC027 11/09 A3003 760 89 500 VRB/04 RMK AO2
14837KMSN MSN20051030223509710/30/05 22:35:31  5-MIN KMSN 310435Z VRB04KT 5SM BR OVC027 11/09 A3003 760 89 500 VRB/04 RMK AO2
14837KMSN MSN20051030224009710/30/05 22:40:31  5-MIN KMSN 310440Z VRB04KT 5SM BR OVC025 11/09 A3003 760 89 500 VRB/04 RMK AO2
14837KMSN MSN20051030224509710/30/05 22:45:31  5-MIN KMSN 310445Z 22005KT 5SM BR OVC025 11/09 A3003 760 89 500 220/05 RMK AO2
14837KMSN MSN20051030225011410/30/05 22:50:31  5-MIN KMSN 310450Z 20005KT 5SM BR OVC025 11/09 A3003 760 89 500 200/05 RMK AO2 SLP170 T01060089
14837KMSN MSN20051030225509710/30/05 22:55:31  5-MIN KMSN 310455Z 22005KT 5SM BR OVC025 11/09 A3003 760 89 500 220/05 RMK AO2
14837KMSN MSN20051030230009710/30/05 23:00:31  5-MIN KMSN 310500Z 22006KT 5SM BR OVC025 11/08 A3003 760 86 500 220/06 RMK AO2
14837KMSN MSN20051030230509710/30/05 23:05:31  5-MIN KMSN 310505Z 22006KT 5SM BR OVC027 11/08 A3003 760 86 500 220/06 RMK AO2
14837KMSN MSN20051030231009710/30/05 23:10:31  5-MIN KMSN 310510Z 21006KT 5SM BR OVC027 11/08 A3003 760 86 500 210/06 RMK AO2
14837KMSN MSN20051030231509710/30/05 23:15:31  5-MIN KMSN 310515Z 22006KT 5SM BR OVC027 11/08 A3003 760 86 500 220/06 RMK AO2
14837KMSN MSN20051030232009710/30/05 23:20:31  5-MIN KMSN 310520Z 22005KT 5SM BR OVC027 11/08 A3003 760 86 500 220/05 RMK AO2
14837KMSN MSN20051030232509710/30/05 23:25:31  5-MIN KMSN 310525Z 22005KT 5SM BR OVC027 11/08 A3003 760 86 500 220/05 RMK AO2
14837KMSN MSN20051030233009710/30/05 23:30:31  5-MIN KMSN 310530Z 22005KT 5SM BR OVC027 11/08 A3003 760 86 500 220/05 RMK AO2
14837KMSN MSN20051030233509710/30/05 23:35:31  5-MIN KMSN 310535Z 22006KT 5SM BR OVC027 11/08 A3003 760 86 400 220/06 RMK AO2
14837KMSN MSN20051030234009710/30/05 23:40:31  5-MIN KMSN 310540Z VRB04KT 5SM BR OVC027 11/08 A3003 760 86 400 VRB/04 RMK AO2
14837KMSN MSN20051030234509710/30/05 23:45:31  5-MIN KMSN 310545Z 23004KT 5SM BR OVC025 11/08 A3004 760 86 400 230/04 RMK AO2
14837KMSN MSN20051030235014810/30/05 23:50:31  5-MIN KMSN 310550Z 23005KT 5SM BR OVC025 11/08 A3003 760 86 400 220/05 RMK AO2 SLP172 60000 T01060083 10106 20100 401500083 58002
14837KMSN MSN20051030235509710/30/05 23:55:31  5-MIN KMSN 310555Z VRB04KT 5SM BR OVC025 11/09 A3004 760 89 400 VRB/04 RMK AO2
14837KMSN MSN20051031000009710/31/05 00:00:38  5-MIN KMSN 310600Z 23005KT 4SM BR OVC023 11/09 A3004 760 89 400 220/05 RMK AO2
14837KMSN MSN20051031000509710/31/05 00:05:31  5-MIN KMSN 310605Z VRB03KT 5SM BR OVC023 11/09 A3004 760 89 400 VRB/03 RMK AO2
14837KMSN MSN20051031001009710/31/05 00:10:31  5-MIN KMSN 310610Z 22004KT 5SM BR OVC021 11/09 A3004 760 89 400 220/04 RMK AO2
14837KMSN MSN20051031001509710/31/05 00:15:33  5-MIN KMSN 310615Z VRB04KT 5SM BR OVC021 11/09 A3004 760 89 400 VRB/04 RMK AO2
14837KMSN MSN20051031002009710/31/05 00:20:31  5-MIN KMSN 310620Z 23004KT 5SM BR OVC021 11/09 A3003 760 89 400 220/04 RMK AO2
14837KMSN MSN20051031002509710/31/05 00:25:31  5-MIN KMSN 310625Z 22003KT 5SM BR OVC021 11/09 A3003 760 89 400 220/03 RMK AO2
14837KMSN MSN20051031003010410/31/05 00:30:31  5-MIN KMSN 310630Z VRB03KT 5SM BR BKN021 OVC045 11/09 A3003 760 89 500 VRB/03 RMK AO2
14837KMSN MSN20051031003510410/31/05 00:35:31  5-MIN KMSN 310635Z VRB03KT 4SM BR BKN021 OVC045 11/09 A3003 760 89 500 VRB/03 RMK AO2
14837KMSN MSN20051031004010410/31/05 00:40:31  5-MIN KMSN 310640Z VRB03KT 4SM BR SCT021 OVC043 11/09 A3003 760 89 500 VRB/03 RMK AO2
14837KMSN MSN20051031004511110/31/05 00:45:31  5-MIN KMSN 310645Z 23004KT 4SM BR SCT021 BKN043 OVC055 11/09 A3003 760 89 500 230/04 RMK AO2
14837KMSN MSN20051031005012810/31/05 00:50:31  5-MIN KMSN 310650Z 22003KT 4SM BR FEW021 BKN043 OVC055 11/09 A3003 760 89 500 220/03 RMK AO2 SLP170 T01060089
14837KMSN MSN20051031005511110/31/05 00:55:31  5-MIN KMSN 310655Z 00000KT 4SM BR FEW021 BKN043 OVC055 11/09 A3003 760 89 500 000/00 RMK AO2
14837KMSN MSN20051031010011110/31/05 01:00:31  5-MIN KMSN 310700Z VRB03KT 4SM BR FEW016 BKN043 OVC055 11/09 A3003 760 89 500 VRB/03 RMK AO2
14837KMSN MSN20051031010511110/31/05 01:05:31  5-MIN KMSN 310705Z VRB03KT 4SM BR FEW016 BKN043 OVC055 11/09 A3003 760 89 500 VRB/03 RMK AO2
14837KMSN MSN20051031011011110/31/05 01:10:31  5-MIN KMSN 310710Z VRB05KT 4SM BR FEW016 BKN043 OVC055 11/09 A3003 760 89 500 VRB/05 RMK AO2
14837KMSN MSN20051031011511110/31/05 01:15:31  5-MIN KMSN 310715Z 23004KT 4SM BR FEW016 BKN043 OVC055 11/09 A3004 760 89 400 230/04 RMK AO2
14837KMSN MSN20051031012011110/31/05 01:20:31  5-MIN KMSN 310720Z VRB05KT 4SM BR SCT016 BKN043 OVC055 11/09 A3004 760 89 400 VRB/05 RMK AO2
14837KMSN MSN20051031012511110/31/05 01:25:31  5-MIN KMSN 310725Z 00000KT 4SM BR BKN016 BKN043 OVC055 11/09 A3004 760 89 400 000/00 RMK AO2
14837KMSN MSN20051031013011110/31/05 01:30:31  5-MIN KMSN 310730Z VRB04KT 4SM BR BKN014 BKN043 OVC050 11/09 A3004 760 89 400 VRB/04 RMK AO2
14837KMSN MSN20051031013510410/31/05 01:35:31  5-MIN KMSN 310735Z VRB04KT 4SM BR BKN014 OVC043 11/09 A3004 760 89 400 VRB/04 RMK AO2
14837KMSN MSN20051031014009710/31/05 01:40:31  5-MIN KMSN 310740Z VRB04KT 4SM BR OVC014 11/09 A3004 750 89 400 VRB/04 RMK AO2
14837KMSN MSN20051031014509710/31/05 01:45:31  5-MIN KMSN 310745Z 24004KT 4SM BR OVC014 11/09 A3004 750 89 400 240/04 RMK AO2
14837KMSN MSN20051031015011410/31/05 01:50:31  5-MIN KMSN 310750Z VRB05KT 4SM BR OVC014 11/09 A3004 750 89 400 VRB/05 RMK AO2 SLP175 T01060089
14837KMSN MSN20051031015509710/31/05 01:55:31  5-MIN KMSN 310755Z VRB03KT 4SM BR OVC014 11/09 A3004 750 89 400 VRB/03 RMK AO2
14837KMSN MSN20051031020009710/31/05 02:00:31  5-MIN KMSN 310800Z VRB03KT 4SM BR OVC014 11/09 A3004 750 89 400 VRB/03 RMK AO2
14837KMSN MSN20051031020509710/31/05 02:05:31  5-MIN KMSN 310805Z VRB03KT 4SM BR OVC014 11/09 A3004 750 89 400 VRB/03 RMK AO2
14837KMSN MSN20051031021009710/31/05 02:10:31  5-MIN KMSN 310810Z VRB03KT 4SM BR OVC012 11/09 A3004 750 89 400 VRB/03 RMK AO2
14837KMSN MSN20051031021509710/31/05 02:15:31  5-MIN KMSN 310815Z 29004KT 4SM BR OVC012 11/09 A3004 750 89 400 290/04 RMK AO2
14837KMSN MSN20051031022009710/31/05 02:20:31  5-MIN KMSN 310820Z VRB04KT 4SM BR OVC012 11/09 A3004 750 89 400 VRB/04 RMK AO2
14837KMSN MSN20051031022509710/31/05 02:25:31  5-MIN KMSN 310825Z VRB03KT 4SM BR OVC012 11/09 A3004 750 89 400 VRB/03 RMK AO2
14837KMSN MSN20051031023010410/31/05 02:30:31  5-MIN KMSN 310830Z 28004KT 4SM BR BKN012 OVC032 11/09 A3004 750 89 400 280/04 RMK AO2
14837KMSN MSN20051031023510410/31/05 02:35:31  5-MIN KMSN 310835Z VRB04KT 4SM BR BKN012 OVC032 11/09 A3004 750 89 400 VRB/04 RMK AO2
14837KMSN MSN20051031024011110/31/05 02:40:31  5-MIN KMSN 310840Z VRB03KT 4SM BR SCT012 BKN025 OVC032 11/09 A3005 750 89 400 VRB/03 RMK AO2
14837KMSN MSN20051031024511110/31/05 02:45:31  5-MIN KMSN 310845Z VRB04KT 4SM BR SCT012 BKN025 OVC032 11/09 A3005 750 89 400 VRB/04 RMK AO2
14837KMSN MSN20051031025013410/31/05 02:50:31  5-MIN KMSN 310850Z VRB03KT 4SM BR FEW012 BKN025 OVC032 11/09 A3005 750 89 400 VRB/03 RMK AO2 SLP177 T01060089 53001
14837KMSN MSN20051031025510410/31/05 02:55:31  5-MIN KMSN 310855Z VRB03KT 4SM BR BKN025 OVC032 11/09 A3005 750 89 400 VRB/03 RMK AO2
14837KMSN MSN20051031030010410/31/05 03:00:31  5-MIN KMSN 310900Z VRB04KT 4SM BR BKN025 OVC032 11/09 A3004 750 89 400 VRB/04 RMK AO2
14837KMSN MSN20051031030509710/31/05 03:05:31  5-MIN KMSN 310905Z 28004KT 4SM BR OVC025 11/09 A3004 750 89 400 280/04 RMK AO2
14837KMSN MSN20051031031009710/31/05 03:10:31  5-MIN KMSN 310910Z VRB03KT 4SM BR OVC025 11/09 A3004 750 89 400 VRB/03 RMK AO2
14837KMSN MSN20051031031509710/31/05 03:15:31  5-MIN KMSN 310915Z 27003KT 4SM BR OVC025 11/09 A3005 750 89 400 260/03 RMK AO2
14837KMSN MSN20051031032009710/31/05 03:20:31  5-MIN KMSN 310920Z 00000KT 4SM BR OVC025 11/09 A3005 750 89 400 000/00 RMK AO2
14837KMSN MSN20051031032509710/31/05 03:25:31  5-MIN KMSN 310925Z VRB03KT 4SM BR OVC025 11/09 A3005 750 89 400 VRB/03 RMK AO2
14837KMSN MSN20051031033009710/31/05 03:30:31  5-MIN KMSN 310930Z VRB03KT 4SM BR OVC025 11/09 A3005 750 89 400 VRB/03 RMK AO2
14837KMSN MSN20051031033509710/31/05 03:35:31  5-MIN KMSN 310935Z VRB03KT 4SM BR OVC025 11/09 A3005 740 89 400 VRB/03 RMK AO2
14837KMSN MSN20051031034009710/31/05 03:40:31  5-MIN KMSN 310940Z 00000KT 4SM BR OVC025 11/09 A3005 740 89 400 000/00 RMK AO2
14837KMSN MSN20051031034509710/31/05 03:45:31  5-MIN KMSN 310945Z 00000KT 4SM BR OVC025 11/09 A3005 750 89 400 000/00 RMK AO2
14837KMSN MSN20051031035011410/31/05 03:50:31  5-MIN KMSN 310950Z 00000KT 4SM BR OVC025 11/09 A3005 750 89 400 000/00 RMK AO2 SLP178 T01060089
14837KMSN MSN20051031035509710/31/05 03:55:31  5-MIN KMSN 310955Z 00000KT 3SM BR OVC025 11/09 A3005 750 89 400 000/00 RMK AO2
14837KMSN MSN20051031040009710/31/05 04:00:31  5-MIN KMSN 311000Z 00000KT 3SM BR OVC025 11/09 A3005 750 89 400 000/00 RMK AO2
14837KMSN MSN20051031040509710/31/05 04:05:31  5-MIN KMSN 311005Z 00000KT 3SM BR OVC027 11/09 A3004 750 89 400 000/00 RMK AO2
14837KMSN MSN20051031041009710/31/05 04:10:31  5-MIN KMSN 311010Z 00000KT 3SM BR OVC027 11/09 A3004 750 89 400 000/00 RMK AO2
14837KMSN MSN20051031041509710/31/05 04:15:31  5-MIN KMSN 311015Z 00000KT 3SM BR OVC027 11/09 A3005 750 89 400 000/00 RMK AO2
14837KMSN MSN20051031042009710/31/05 04:20:31  5-MIN KMSN 311020Z 00000KT 3SM BR OVC027 10/09 A3005 750 93 400 000/00 RMK AO2
14837KMSN MSN20051031042509710/31/05 04:25:31  5-MIN KMSN 311025Z 00000KT 3SM BR OVC027 10/09 A3005 750 93 400 000/00 RMK AO2
14837KMSN MSN20051031043009710/31/05 04:30:31  5-MIN KMSN 311030Z 27003KT 3SM BR OVC027 10/09 A3005 750 93 400 270/03 RMK AO2
14837KMSN MSN20051031043509710/31/05 04:35:31  5-MIN KMSN 311035Z VRB03KT 3SM BR OVC027 10/09 A3005 740 93 400 VRB/03 RMK AO2
14837KMSN MSN20051031044009710/31/05 04:40:31  5-MIN KMSN 311040Z 00000KT 3SM BR OVC027 10/09 A3005 740 93 400 000/00 RMK AO2
14837KMSN MSN20051031044509710/31/05 04:45:31  5-MIN KMSN 311045Z VRB03KT 3SM BR OVC027 10/09 A3005 740 93 400 VRB/03 RMK AO2
14837KMSN MSN20051031045011410/31/05 04:50:31  5-MIN KMSN 311050Z 00000KT 3SM BR OVC027 10/08 A3006 740 89 400 000/00 RMK AO2 SLP181 T01000083
14837KMSN MSN20051031045509710/31/05 04:55:31  5-MIN KMSN 311055Z 00000KT 3SM BR OVC027 10/08 A3006 740 89 400 000/00 RMK AO2
14837KMSN MSN20051031050009710/31/05 05:00:31  5-MIN KMSN 311100Z 00000KT 3SM BR OVC027 10/08 A3006 730 89 300 000/00 RMK AO2
14837KMSN MSN20051031050509710/31/05 05:05:31  5-MIN KMSN 311105Z 00000KT 3SM BR OVC027 10/09 A3006 730 93 300 000/00 RMK AO2
14837KMSN MSN20051031051009710/31/05 05:10:31  5-MIN KMSN 311110Z VRB03KT 3SM BR OVC027 10/09 A3007 730 93 300 VRB/03 RMK AO2
14837KMSN MSN20051031051509710/31/05 05:15:31  5-MIN KMSN 311115Z VRB03KT 3SM BR OVC027 10/09 A3007 730 93 300 VRB/03 RMK AO2
14837KMSN MSN20051031052009710/31/05 05:20:31  5-MIN KMSN 311120Z 00000KT 3SM BR OVC027 10/09 A3007 730 93 300 000/00 RMK AO2
14837KMSN MSN20051031052509710/31/05 05:25:31  5-MIN KMSN 311125Z 00000KT 3SM BR OVC027 10/09 A3007 730 93 300 000/00 RMK AO2
14837KMSN MSN20051031053009710/31/05 05:30:31  5-MIN KMSN 311130Z 00000KT 3SM BR OVC025 10/09 A3007 730 93 300 000/00 RMK AO2
14837KMSN MSN20051031053509710/31/05 05:35:31  5-MIN KMSN 311135Z 25004KT 3SM BR OVC025 10/09 A3007 730 93 300 250/04 RMK AO2
14837KMSN MSN20051031054009710/31/05 05:40:31  5-MIN KMSN 311140Z 00000KT 3SM BR OVC025 10/09 A3007 730 93 300 000/00 RMK AO2
14837KMSN MSN20051031054509710/31/05 05:45:31  5-MIN KMSN 311145Z VRB03KT 3SM BR OVC025 10/09 A3007 730 93 300 VRB/03 RMK AO2
14837KMSN MSN20051031055013810/31/05 05:50:31  5-MIN KMSN 311150Z VRB03KT 3SM BR OVC025 10/09 A3007 730 93 300 VRB/03 RMK AO2 SLP185 70013 T01000089 10106 20100 53004
14837KMSN MSN20051031055509710/31/05 05:55:31  5-MIN KMSN 311155Z VRB03KT 3SM BR OVC025 10/09 A3007 730 93 300 VRB/03 RMK AO2
14837KMSN MSN20051031060009710/31/05 06:00:31  5-MIN KMSN 311200Z 28005KT 3SM BR OVC025 10/09 A3006 730 93 300 280/05 RMK AO2
14837KMSN MSN20051031060509710/31/05 06:05:31  5-MIN KMSN 311205Z 28004KT 3SM BR OVC025 10/09 A3006 730 93 300 280/04 RMK AO2
14837KMSN MSN20051031061009710/31/05 06:10:31  5-MIN KMSN 311210Z 29004KT 3SM BR OVC025 10/09 A3006 730 93 400 290/04 RMK AO2
14837KMSN MSN20051031061509710/31/05 06:15:31  5-MIN KMSN 311215Z 29004KT 3SM BR OVC025 10/09 A3006 740 93 400 290/04 RMK AO2
14837KMSN MSN20051031062009710/31/05 06:20:31  5-MIN KMSN 311220Z VRB03KT 3SM BR OVC025 10/09 A3006 740 93 400 VRB/03 RMK AO2
14837KMSN MSN20051031062509710/31/05 06:25:31  5-MIN KMSN 311225Z 00000KT 3SM BR OVC025 10/09 A3006 740 93 400 000/00 RMK AO2
14837KMSN MSN20051031063009710/31/05 06:30:31  5-MIN KMSN 311230Z 00000KT 3SM BR OVC025 10/09 A3005 740 93 400 000/00 RMK AO2
14837KMSN MSN20051031063509710/31/05 06:35:31  5-MIN KMSN 311235Z 00000KT 3SM BR OVC025 10/09 A3005 740 93 400 000/00 RMK AO2
14837KMSN MSN20051031064009710/31/05 06:40:31  5-MIN KMSN 311240Z 00000KT 2SM BR OVC025 09/08 A3005 740 93 300 000/00 RMK AO2
14837KMSN MSN20051031064511110/31/05 06:45:31  5-MIN KMSN 311245Z 00000KT 1 3/4SM BR BKN025 09/08 A3005 750 93 300 000/00 RMK AO2 TWR VIS 3
14837KMSN MSN20051031065012810/31/05 06:50:31  5-MIN KMSN 311250Z 00000KT 1 1/2SM BR BKN025 09/08 A3004 750 93 300 000/00 RMK AO2 TWR VIS 3 SLP177 T00940083
14837KMSN MSN20051031065511110/31/05 06:55:31  5-MIN KMSN 311255Z 00000KT 1 1/2SM BR BKN025 09/08 A3004 750 93 300 000/00 RMK AO2 TWR VIS 3
14837KMSN MSN20051031070010910/31/05 07:00:31  5-MIN KMSN 311300Z 00000KT 3/4SM BR BKN025 09/08 A3004 750 96 200 000/00 RMK AO2 TWR VIS 3
14837KMSN MSN20051031070510710/31/05 07:05:31  5-MIN KMSN 311305Z 00000KT 1SM BR SCT025 09/08 A3004 750 96 200 000/00 RMK AO2 TWR VIS 3
14837KMSN MSN20051031071010710/31/05 07:10:31  5-MIN KMSN 311310Z 00000KT 1SM BR FEW023 08/08 A3004 750 96 200 000/00 RMK AO2 TWR VIS 3
14837KMSN MSN20051031071510710/31/05 07:15:31  5-MIN KMSN 311315Z 00000KT 1SM BR FEW023 08/08 A3005 740 96 200 000/00 RMK AO2 TWR VIS 3
14837KMSN MSN20051031072010710/31/05 07:20:31  5-MIN KMSN 311320Z 00000KT 1SM BR FEW023 08/07 A3006 740 96 100 000/00 RMK AO2 TWR VIS 3
14837KMSN MSN20051031072510710/31/05 07:25:31  5-MIN KMSN 311325Z 00000KT 1SM BR FEW023 08/07 A3006 740 96 100 000/00 RMK AO2 TWR VIS 3
14837KMSN MSN20051031073010710/31/05 07:30:31  5-MIN KMSN 311330Z 26003KT 1SM BR SCT023 08/08 A3006 740 96 200 260/03 RMK AO2 TWR VIS 3
14837KMSN MSN20051031073510710/31/05 07:35:31  5-MIN KMSN 311335Z 00000KT 1SM BR SCT023 09/08 A3006 730 96 200 000/00 RMK AO2 TWR VIS 3
14837KMSN MSN20051031074010710/31/05 07:40:31  5-MIN KMSN 311340Z 00000KT 1SM BR SCT025 10/09 A3006 730 93 300 000/00 RMK AO2 TWR VIS 3
14837KMSN MSN20051031074510710/31/05 07:45:31  5-MIN KMSN 311345Z 00000KT 2SM BR BKN025 10/08 A3006 730 89 300 000/00 RMK AO2 TWR VIS 3
14837KMSN MSN20051031075012810/31/05 07:50:31  5-MIN KMSN 311350Z VRB03KT 2 1/2SM BR BKN025 10/08 A3007 730 89 300 VRB/03 RMK AO2 TWR VIS 3 SLP184 T01000083
14837KMSN MSN20051031075509710/31/05 07:55:31  5-MIN KMSN 311355Z 22003KT 3SM BR BKN025 10/08 A3007 720 89 300 220/03 RMK AO2
14837KMSN MSN20051031080009710/31/05 08:00:31  5-MIN KMSN 311400Z 00000KT 3SM BR BKN025 10/08 A3007 720 89 300 000/00 RMK AO2
14837KMSN MSN20051031080509710/31/05 08:05:31  5-MIN KMSN 311405Z VRB03KT 3SM BR BKN025 11/09 A3007 720 89 400 VRB/03 RMK AO2
14837KMSN MSN20051031081009710/31/05 08:10:31  5-MIN KMSN 311410Z VRB03KT 3SM BR BKN025 11/08 A3008 720 86 400 VRB/03 RMK AO2
14837KMSN MSN20051031081509710/31/05 08:15:31  5-MIN KMSN 311415Z VRB03KT 3SM BR BKN025 11/08 A3008 720 86 400 VRB/03 RMK AO2
14837KMSN MSN20051031082009710/31/05 08:20:31  5-MIN KMSN 311420Z 00000KT 3SM BR OVC025 11/09 A3008 720 89 400 000/00 RMK AO2
14837KMSN MSN20051031082509710/31/05 08:25:31  5-MIN KMSN 311425Z 25003KT 3SM BR BKN025 11/08 A3008 720 86 400 250/03 RMK AO2
14837KMSN MSN20051031083010710/31/05 08:30:31  5-MIN KMSN 311430Z 27004KT 3SM BR BKN025 11/08 A3008 720 86 400 270/04 RMK AO2 SFC VIS 3
14837KMSN MSN20051031083510710/31/05 08:35:31  5-MIN KMSN 311435Z 00000KT 3SM BR BKN025 11/08 A3008 710 86 400 000/00 RMK AO2 SFC VIS 4
14837KMSN MSN20051031084010710/31/05 08:40:31  5-MIN KMSN 311440Z 23003KT 3SM BR BKN025 11/08 A3009 710 86 400 230/03 RMK AO2 SFC VIS 4
14837KMSN MSN20051031084510710/31/05 08:45:31  5-MIN KMSN 311445Z VRB05KT 3SM HZ BKN025 11/08 A3008 710 83 400 VRB/05 RMK AO2 SFC VIS 4
14837KMSN MSN20051031085012010/31/05 08:50:31  5-MIN KMSN 311450Z 00000KT 4SM HZ BKN025 11/08 A3008 710 80 500 000/00 RMK AO2 SLP190 T01110078 53007
14837KMSN MSN20051031085511110/31/05 08:55:31  5-MIN KMSN 311455Z VRB03KT 4SM HZ FEW014 SCT025 BKN080 11/08 A3008 720 80 500 VRB/03 RMK AO2
14837KMSN MSN20051031090011110/31/05 09:00:31  5-MIN KMSN 311500Z 27004KT 4SM HZ FEW014 SCT025 BKN080 11/08 A3008 720 80 500 270/04 RMK AO2
14837KMSN MSN20051031090511110/31/05 09:05:31  5-MIN KMSN 311505Z VRB03KT 4SM HZ FEW015 SCT025 BKN080 11/07 A3008 720 80 400 VRB/03 RMK AO2
14837KMSN MSN20051031091011110/31/05 09:10:31  5-MIN KMSN 311510Z 29004KT 5SM HZ FEW015 SCT025 BKN080 11/07 A3007 720 77 500 290/04 RMK AO2
14837KMSN MSN20051031091511110/31/05 09:15:31  5-MIN KMSN 311515Z 00000KT 5SM HZ FEW015 SCT025 BKN080 11/07 A3007 730 77 500 000/00 RMK AO2
14837KMSN MSN20051031092011110/31/05 09:20:31  5-MIN KMSN 311520Z 29005KT 5SM HZ FEW015 SCT025 BKN080 11/07 A3007 730 77 500 290/05 RMK AO2
14837KMSN MSN20051031092509710/31/05 09:25:31  5-MIN KMSN 311525Z 29003KT 5SM HZ BKN021 11/07 A3007 730 74 500 290/03 RMK AO2
14837KMSN MSN20051031093009710/31/05 09:30:31  5-MIN KMSN 311530Z VRB03KT 5SM HZ BKN021 12/07 A3007 730 74 500 VRB/03 RMK AO2
14837KMSN MSN20051031093509710/31/05 09:35:31  5-MIN KMSN 311535Z VRB05KT 5SM HZ BKN021 12/07 A3007 730 74 500 VRB/05 RMK AO2
14837KMSN MSN20051031094009710/31/05 09:40:31  5-MIN KMSN 311540Z VRB06KT 5SM HZ BKN021 12/07 A3007 720 71 500 VRB/06 RMK AO2
14837KMSN MSN20051031094509710/31/05 09:45:31  5-MIN KMSN 311545Z 23004KT 5SM HZ BKN021 12/07 A3007 720 71 500 230/04 RMK AO2
14837KMSN MSN20051031095011410/31/05 09:50:31  5-MIN KMSN 311550Z 27005KT 5SM HZ BKN021 12/07 A3007 720 71 500 270/05 RMK AO2 SLP187 T01170067
14837KMSN MSN20051031095509710/31/05 09:55:31  5-MIN KMSN 311555Z VRB04KT 5SM HZ BKN021 12/07 A3007 720 71 500 VRB/04 RMK AO2
14837KMSN MSN20051031100010410/31/05 10:00:31  5-MIN KMSN 311600Z VRB04KT 6SM HZ SCT021 BKN100 12/07 A3007 720 71 500 VRB/04 RMK AO2
14837KMSN MSN20051031100510410/31/05 10:05:31  5-MIN KMSN 311605Z VRB05KT 6SM HZ SCT021 BKN100 12/07 A3007 720 71 500 VRB/05 RMK AO2
14837KMSN MSN20051031101010410/31/05 10:10:31  5-MIN KMSN 311610Z VRB06KT 6SM HZ FEW021 SCT100 12/07 A3007 730 71 600 VRB/06 RMK AO2
14837KMSN MSN20051031101509710/31/05 10:15:31  5-MIN KMSN 311615Z VRB04KT 6SM HZ FEW021 12/07 A3007 730 71 600 VRB/04 RMK AO2
14837KMSN MSN20051031102010410/31/05 10:20:31  5-MIN KMSN 311620Z VRB05KT 5SM HZ FEW022 SCT100 13/08 A3007 730 71 700 VRB/05 RMK AO2
14837KMSN MSN20051031102510410/31/05 10:25:31  5-MIN KMSN 311625Z VRB04KT 5SM HZ SCT022 BKN100 12/07 A3007 730 71 600 VRB/04 RMK AO2
14837KMSN MSN20051031103010410/31/05 10:30:31  5-MIN KMSN 311630Z VRB05KT 5SM HZ SCT022 BKN100 13/07 A3007 730 69 700 VRB/05 RMK AO2
14837KMSN MSN20051031103510410/31/05 10:35:31  5-MIN KMSN 311635Z VRB04KT 5SM HZ SCT022 BKN100 13/07 A3007 730 69 700 VRB/04 RMK AO2
14837KMSN MSN20051031104010410/31/05 10:40:31  5-MIN KMSN 311640Z VRB05KT 5SM HZ SCT022 BKN100 12/07 A3006 730 68 600 VRB/05 RMK AO2
14837KMSN MSN20051031104510410/31/05 10:45:31  5-MIN KMSN 311645Z VRB05KT 6SM HZ SCT022 BKN100 13/07 A3006 730 69 700 VRB/05 RMK AO2
14837KMSN MSN20051031105012110/31/05 10:50:31  5-MIN KMSN 311650Z VRB05KT 6SM HZ SCT022 BKN100 13/07 A3006 730 66 700 VRB/05 RMK AO2 SLP182 T01330072
14837KMSN MSN20051031105509710/31/05 10:55:31  5-MIN KMSN 311655Z VRB05KT 6SM HZ SCT022 13/07 A3006 730 69 700 VRB/05 RMK AO2
14837KMSN MSN20051031110009710/31/05 11:00:31  5-MIN KMSN 311700Z VRB05KT 6SM HZ SCT022 13/07 A3006 730 66 700 VRB/05 RMK AO2
14837KMSN MSN20051031110509710/31/05 11:05:31  5-MIN KMSN 311705Z 27004KT 6SM HZ SCT022 13/07 A3006 740 66 700 270/04 RMK AO2
14837KMSN MSN20051031111009710/31/05 11:10:31  5-MIN KMSN 311710Z VRB04KT 6SM HZ SCT022 13/07 A3006 740 64 800 VRB/04 RMK AO2
14837KMSN MSN20051031111509710/31/05 11:15:31  5-MIN KMSN 311715Z VRB05KT 6SM HZ SCT022 13/07 A3006 740 64 800 VRB/05 RMK AO2
14837KMSN MSN20051031112011310/31/05 11:20:31  5-MIN KMSN 311720Z 24007KT 210V280 6SM HZ SCT022 13/07 A3005 740 66 800 230/07 210V280 RMK AO2
14837KMSN MSN20051031112509710/31/05 11:25:31  5-MIN KMSN 311725Z VRB04KT 6SM HZ SCT022 13/07 A3005 740 66 700 VRB/04 RMK AO2
14837KMSN MSN20051031113009710/31/05 11:30:31  5-MIN KMSN 311730Z VRB05KT 6SM HZ SCT026 13/07 A3005 750 69 700 VRB/05 RMK AO2
14837KMSN MSN20051031113509710/31/05 11:35:31  5-MIN KMSN 311735Z VRB05KT 6SM HZ SCT026 13/06 A3004 750 63 700 VRB/05 RMK AO2
14837KMSN MSN20051031114009710/31/05 11:40:31  5-MIN KMSN 311740Z VRB06KT 6SM HZ BKN026 13/07 A3004 750 66 700 VRB/06 RMK AO2
14837KMSN MSN20051031120510410/31/05 12:05:31  5-MIN KMSN 311805Z VRB05KT 6SM HZ SCT026 BKN085 13/07 A3003 760 64 800 VRB/05 RMK AO2
14837KMSN MSN20051031121010410/31/05 12:10:31  5-MIN KMSN 311810Z VRB05KT 6SM HZ SCT026 BKN085 13/07 A3003 760 64 800 VRB/05 RMK AO2
14837KMSN MSN20051031121510410/31/05 12:15:31  5-MIN KMSN 311815Z 30006KT 6SM HZ SCT026 BKN085 13/07 A3002 770 64 800 300/06 RMK AO2
14837KMSN MSN20051031122010410/31/05 12:20:31  5-MIN KMSN 311820Z VRB04KT 6SM HZ SCT026 BKN085 13/07 A3002 770 64 800 VRB/04 RMK AO2
14837KMSN MSN20051031122510110/31/05 12:25:31  5-MIN KMSN 311825Z VRB05KT 7SM SCT026 BKN085 13/07 A3002 770 64 800 VRB/05 RMK AO2
14837KMSN MSN20051031123010110/31/05 12:30:31  5-MIN KMSN 311830Z VRB05KT 7SM SCT026 BKN085 13/06 A3002 770 61 800 VRB/05 RMK AO2
14837KMSN MSN20051031123510110/31/05 12:35:31  5-MIN KMSN 311835Z VRB04KT 7SM SCT026 BKN085 13/06 A3002 780 61 800 VRB/04 RMK AO2
14837KMSN MSN20051031124009410/31/05 12:40:31  5-MIN KMSN 311840Z VRB05KT 7SM BKN085 13/06 A3001 780 61 800 VRB/05 RMK AO2
14837KMSN MSN20051031124509410/31/05 12:45:31  5-MIN KMSN 311845Z VRB05KT 7SM BKN085 14/07 A3001 780 61 900 VRB/05 RMK AO2
14837KMSN MSN20051031125011110/31/05 12:50:31  5-MIN KMSN 311850Z 23006KT 7SM BKN085 14/07 A3001 780 61 900 230/06 RMK AO2 SLP163 T01390067
14837KMSN MSN20051031125510110/31/05 12:55:31  5-MIN KMSN 311855Z VRB05KT 7SM FEW030 BKN085 13/06 A3001 780 61 800 VRB/05 RMK AO2
14837KMSN MSN20051031130010110/31/05 13:00:31  5-MIN KMSN 311900Z VRB05KT 7SM FEW030 BKN085 14/07 A3001 780 61 900 VRB/05 RMK AO2
14837KMSN MSN20051031130510110/31/05 13:05:31  5-MIN KMSN 311905Z VRB06KT 7SM FEW030 BKN085 14/07 A3001 780 59 900 VRB/06 RMK AO2
14837KMSN MSN20051031131011710/31/05 13:10:31  5-MIN KMSN 311910Z 29007KT 260V330 7SM FEW030 BKN085 14/07 A3001 780 59 900 290/07 260V330 RMK AO2
14837KMSN MSN20051031131510110/31/05 13:15:31  5-MIN KMSN 311915Z 30007KT 7SM FEW030 BKN085 14/06 A3001 790 57 900 300/07 RMK AO2
14837KMSN MSN20051031132010110/31/05 13:20:31  5-MIN KMSN 311920Z 30009KT 7SM FEW030 BKN085 14/06 A3000 790 57 900 300/09 RMK AO2
14837KMSN MSN20051031132510710/31/05 13:25:31  5-MIN KMSN 311925Z 30009G14KT 7SM FEW030 BKN085 14/06 A3000 790 59 900 300/09G14 RMK AO2
14837KMSN MSN20051031133010710/31/05 13:30:31  5-MIN KMSN 311930Z 30008G14KT 8SM FEW030 BKN085 14/06 A2999 800 59 900 300/08G14 RMK AO2
14837KMSN MSN20051031133510110/31/05 13:35:31  5-MIN KMSN 311935Z 30006KT 8SM FEW030 BKN085 14/06 A2999 800 59 900 300/06 RMK AO2
14837KMSN MSN20051031134010110/31/05 13:40:31  5-MIN KMSN 311940Z 30007KT 8SM FEW030 BKN085 14/06 A2999 800 59 900 300/07 RMK AO2
14837KMSN MSN20051031134509410/31/05 13:45:31  5-MIN KMSN 311945Z 27008KT 8SM FEW110 14/06 A2999 800 59 900 270/08 RMK AO2
14837KMSN MSN20051031135010810/31/05 13:50:31  5-MIN KMSN 311950Z 31008KT 7SM CLR 14/06 A2999 800 59 900 300/08 RMK AO2 SLP157 T01390061
14837KMSN MSN20051031135509410/31/05 13:55:31  5-MIN KMSN 311955Z 31008KT 7SM SCT035 14/06 A2999 800 59 900 310/08 RMK AO2
14837KMSN MSN20051031140009410/31/05 14:00:31  5-MIN KMSN 312000Z VRB05KT 7SM SCT035 14/06 A2999 800 59 900 VRB/05 RMK AO2
14837KMSN MSN20051031140509410/31/05 14:05:31  5-MIN KMSN 312005Z 29006KT 7SM SCT035 14/07 A2999 800 61 900 280/06 RMK AO2
14837KMSN MSN20051031141009410/31/05 14:10:31  5-MIN KMSN 312010Z 28007KT 7SM SCT035 13/07 A2999 800 64 800 280/07 RMK AO2
14837KMSN MSN20051031141509410/31/05 14:15:31  5-MIN KMSN 312015Z 31006KT 7SM SCT035 14/07 A2998 810 61 900 310/06 RMK AO2
14837KMSN MSN20051031142009410/31/05 14:20:31  5-MIN KMSN 312020Z 31007KT 7SM SCT035 13/07 A2998 810 64 800 310/07 RMK AO2
14837KMSN MSN20051031142509710/31/05 14:25:31  5-MIN KMSN 312025Z 33007KT 6SM HZ SCT035 13/07 A2998 810 64 800 330/07 RMK AO2
14837KMSN MSN20051031143009710/31/05 14:30:31  5-MIN KMSN 312030Z 30006KT 6SM HZ SCT035 13/07 A2998 810 64 800 300/06 RMK AO2
14837KMSN MSN20051031143509710/31/05 14:35:31  5-MIN KMSN 312035Z 32005KT 6SM HZ SCT035 13/07 A2998 810 64 800 310/05 RMK AO2
14837KMSN MSN20051031144009710/31/05 14:40:31  5-MIN KMSN 312040Z 31006KT 6SM HZ SCT046 13/07 A2998 810 64 800 310/06 RMK AO2
14837KMSN MSN20051031144509710/31/05 14:45:31  5-MIN KMSN 312045Z 33007KT 6SM HZ FEW046 13/07 A2998 810 64 800 330/07 RMK AO2
14837KMSN MSN20051031145012010/31/05 14:50:31  5-MIN KMSN 312050Z 32006KT 6SM HZ FEW046 13/07 A2998 810 66 800 320/06 RMK AO2 SLP154 T01280067 58015
14837KMSN MSN20051031145509710/31/05 14:55:31  5-MIN KMSN 312055Z 31006KT 6SM HZ SCT046 13/07 A2998 810 66 800 310/06 RMK AO2
14837KMSN MSN20051031150009710/31/05 15:00:31  5-MIN KMSN 312100Z 31005KT 6SM HZ FEW048 13/07 A2998 810 66 800 310/05 RMK AO2
14837KMSN MSN20051031150509710/31/05 15:05:31  5-MIN KMSN 312105Z 32005KT 6SM HZ FEW050 13/07 A2998 810 66 800 320/05 RMK AO2
14837KMSN MSN20051031151009710/31/05 15:10:31  5-MIN KMSN 312110Z 29005KT 6SM HZ FEW085 13/07 A2998 810 66 800 290/05 RMK AO2
14837KMSN MSN20051031151509710/31/05 15:15:31  5-MIN KMSN 312115Z 31004KT 6SM HZ FEW085 13/07 A2998 810 66 800 310/04 RMK AO2
14837KMSN MSN20051031152009710/31/05 15:20:31  5-MIN KMSN 312120Z 31005KT 6SM HZ FEW085 13/07 A2998 800 66 800 310/05 RMK AO2
14837KMSN MSN20051031152509710/31/05 15:25:31  5-MIN KMSN 312125Z 32006KT 6SM HZ SCT085 13/07 A2999 800 66 800 320/06 RMK AO2
14837KMSN MSN20051031153009710/31/05 15:30:31  5-MIN KMSN 312130Z 31005KT 6SM HZ BKN085 12/07 A2999 800 68 700 310/05 RMK AO2
14837KMSN MSN20051031153509710/31/05 15:35:31  5-MIN KMSN 312135Z 31004KT 6SM HZ BKN085 12/07 A2999 800 68 700 310/04 RMK AO2
14837KMSN MSN20051031154009710/31/05 15:40:31  5-MIN KMSN 312140Z 31004KT 6SM HZ BKN085 12/07 A2999 800 68 700 310/04 RMK AO2
14837KMSN MSN20051031154509710/31/05 15:45:31  5-MIN KMSN 312145Z 32006KT 6SM HZ BKN080 12/07 A2999 800 68 700 310/06 RMK AO2
14837KMSN MSN20051031155012110/31/05 15:50:31  5-MIN KMSN 312150Z 31003KT 6SM HZ FEW055 OVC080 12/07 A2999 800 68 700 310/03 RMK AO2 SLP157 T01220067
14837KMSN MSN20051031155510410/31/05 15:55:31  5-MIN KMSN 312155Z 32003KT 6SM HZ SCT055 OVC080 12/07 A2999 800 68 700 320/03 RMK AO2
14837KMSN MSN20051031160011110/31/05 16:00:31  5-MIN KMSN 312200Z 32004KT 6SM HZ BKN060 BKN075 OVC085 12/07 A2999 800 68 700 310/04 RMK AO2
14837KMSN MSN20051031160511110/31/05 16:05:31  5-MIN KMSN 312205Z 31004KT 6SM HZ BKN060 BKN070 OVC085 12/07 A2998 810 68 700 310/04 RMK AO2
14837KMSN MSN20051031161011110/31/05 16:10:31  5-MIN KMSN 312210Z 32006KT 6SM HZ BKN060 BKN075 OVC085 12/07 A2998 810 68 700 320/06 RMK AO2
14837KMSN MSN20051031161509710/31/05 16:15:31  5-MIN KMSN 312215Z 31006KT 6SM HZ OVC065 12/07 A2998 810 68 700 310/06 RMK AO2
14837KMSN MSN20051031162010410/31/05 16:20:31  5-MIN KMSN 312220Z 31005KT 6SM HZ BKN065 OVC075 12/07 A2999 800 68 700 310/05 RMK AO2
14837KMSN MSN20051031162510410/31/05 16:25:31  5-MIN KMSN 312225Z 31004KT 6SM HZ BKN065 BKN085 12/07 A2998 800 71 600 310/04 RMK AO2
14837KMSN MSN20051031163009710/31/05 16:30:31  5-MIN KMSN 312230Z 32004KT 6SM HZ BKN070 12/07 A2998 810 71 600 320/04 RMK AO2
14837KMSN MSN20051031163509710/31/05 16:35:31  5-MIN KMSN 312235Z 31003KT 6SM HZ OVC070 12/07 A2998 800 71 600 310/03 RMK AO2
14837KMSN MSN20051031164010410/31/05 16:40:31  5-MIN KMSN 312240Z 31004KT 5SM HZ BKN070 OVC085 12/07 A2999 800 71 600 310/04 RMK AO2
14837KMSN MSN20051031164510410/31/05 16:45:31  5-MIN KMSN 312245Z 31003KT 5SM HZ BKN070 OVC090 12/07 A2999 800 71 600 300/03 RMK AO2
14837KMSN MSN20051031165012110/31/05 16:50:31  5-MIN KMSN 312250Z 30003KT 5SM HZ SCT070 BKN080 12/07 A2999 800 71 600 300/03 RMK AO2 SLP157 T01170067
14837KMSN MSN20051031165510410/31/05 16:55:31  5-MIN KMSN 312255Z 31004KT 5SM HZ BKN075 BKN090 12/07 A2999 800 71 600 310/04 RMK AO2
14837KMSN MSN20051031170010410/31/05 17:00:31  5-MIN KMSN 312300Z 31004KT 5SM HZ BKN075 BKN085 11/07 A2998 800 74 600 310/04 RMK AO2
14837KMSN MSN20051031170510410/31/05 17:05:31  5-MIN KMSN 312305Z 30003KT 6SM HZ SCT075 BKN085 11/07 A2999 800 74 600 300/03 RMK AO2
14837KMSN MSN20051031171010110/31/05 17:10:31  5-MIN KMSN 312310Z 29004KT 7SM SCT075 BKN085 11/07 A2999 800 74 600 290/04 RMK AO2
14837KMSN MSN20051031171510110/31/05 17:15:31  5-MIN KMSN 312315Z 29005KT 7SM SCT075 BKN085 11/07 A2999 800 74 600 290/05 RMK AO2
14837KMSN MSN20051031172010110/31/05 17:20:31  5-MIN KMSN 312320Z 29005KT 7SM SCT075 BKN085 11/07 A2999 800 74 600 290/05 RMK AO2
14837KMSN MSN20051031172510110/31/05 17:25:31  5-MIN KMSN 312325Z 28004KT 7SM FEW035 SCT085 11/07 A2999 800 74 600 280/04 RMK AO2
14837KMSN MSN20051031173009410/31/05 17:30:31  5-MIN KMSN 312330Z 00000KT 7SM FEW035 11/07 A2999 800 74 600 000/00 RMK AO2
14837KMSN MSN20051031173509410/31/05 17:35:31  5-MIN KMSN 312335Z VRB03KT 7SM FEW035 11/07 A2999 800 74 600 VRB/03 RMK AO2
14837KMSN MSN20051031174009410/31/05 17:40:31  5-MIN KMSN 312340Z VRB03KT 7SM FEW035 11/07 A2999 800 74 600 VRB/03 RMK AO2
14837KMSN MSN20051031174509410/31/05 17:45:31  5-MIN KMSN 312345Z VRB03KT 7SM FEW035 11/07 A2999 800 74 600 VRB/03 RMK AO2
14837KMSN MSN20051031175012610/31/05 17:50:31  5-MIN KMSN 312350Z VRB03KT 7SM CLR 11/07 A2999 800 74 600 VRB/03 RMK AO2 SLP159 T01110067 10150 20111 56019
14837KMSN MSN20051031175509110/31/05 17:55:31  5-MIN KMSN 312355Z VRB03KT 7SM CLR 11/07 A2999 800 77 500 VRB/03 RMK AO2
14837KMSN MSN20051031180009110/31/05 18:00:31  5-MIN KMSN 010000Z 28004KT 7SM CLR 11/07 A3000 790 77 500 280/04 RMK AO2
14837KMSN MSN20051031180509110/31/05 18:05:31  5-MIN KMSN 010005Z 28004KT 7SM CLR 11/07 A3000 790 77 500 280/04 RMK AO2
14837KMSN MSN20051031181009110/31/05 18:10:31  5-MIN KMSN 010010Z 28004KT 7SM CLR 11/07 A3000 790 77 500 280/04 RMK AO2
14837KMSN MSN20051031181509110/31/05 18:15:31  5-MIN KMSN 010015Z 28003KT 7SM CLR 11/07 A3000 790 77 500 280/03 RMK AO2
14837KMSN MSN20051031182009110/31/05 18:20:31  5-MIN KMSN 010020Z 28003KT 7SM CLR 11/07 A3000 790 77 500 280/03 RMK AO2
14837KMSN MSN20051031182509110/31/05 18:25:31  5-MIN KMSN 010025Z 28003KT 7SM CLR 11/07 A3000 790 77 500 280/03 RMK AO2
14837KMSN MSN20051031183009110/31/05 18:30:31  5-MIN KMSN 010030Z 29003KT 7SM CLR 10/06 A3000 790 77 400 290/03 RMK AO2
14837KMSN MSN20051031183509110/31/05 18:35:31  5-MIN KMSN 010035Z 28003KT 7SM CLR 10/06 A3000 790 77 400 280/03 RMK AO2
14837KMSN MSN20051031184009110/31/05 18:40:31  5-MIN KMSN 010040Z 29003KT 7SM CLR 10/06 A3000 790 77 400 290/03 RMK AO2
14837KMSN MSN20051031184509410/31/05 18:45:31  5-MIN KMSN 010045Z 29004KT 7SM FEW043 10/06 A3000 790 77 400 290/04 RMK AO2
14837KMSN MSN20051031185011110/31/05 18:50:31  5-MIN KMSN 010050Z 29004KT 7SM FEW043 10/06 A3000 790 74 400 290/04 RMK AO2 SLP163 T01000056
14837KMSN MSN20051031185509410/31/05 18:55:31  5-MIN KMSN 010055Z 30003KT 8SM FEW043 10/06 A3000 790 74 400 290/03 RMK AO2
14837KMSN MSN20051031190009410/31/05 19:00:31  5-MIN KMSN 010100Z 29004KT 8SM SCT043 10/06 A3001 790 74 400 280/04 RMK AO2
14837KMSN MSN20051031190509410/31/05 19:05:31  5-MIN KMSN 010105Z 29003KT 8SM BKN045 10/06 A3000 790 74 400 280/03 RMK AO2
14837KMSN MSN20051031191009410/31/05 19:10:31  5-MIN KMSN 010110Z 29003KT 8SM SCT045 10/05 A3000 790 71 400 290/03 RMK AO2
14837KMSN MSN20051031191509410/31/05 19:15:31  5-MIN KMSN 010115Z 00000KT 8SM FEW045 10/06 A3000 790 74 400 000/00 RMK AO2
14837KMSN MSN20051031192009410/31/05 19:20:31  5-MIN KMSN 010120Z 00000KT 8SM FEW045 10/06 A3000 790 74 400 000/00 RMK AO2
14837KMSN MSN20051031192509410/31/05 19:25:31  5-MIN KMSN 010125Z VRB03KT 8SM FEW045 09/06 A3000 790 76 400 VRB/03 RMK AO2
14837KMSN MSN20051031193009410/31/05 19:30:31  5-MIN KMSN 010130Z 29004KT 8SM FEW047 09/05 A3000 790 74 400 280/04 RMK AO2
14837KMSN MSN20051031193509110/31/05 19:35:31  5-MIN KMSN 010135Z 28004KT 8SM CLR 09/05 A3000 790 74 400 280/04 RMK AO2
14837KMSN MSN20051031194009110/31/05 19:40:31  5-MIN KMSN 010140Z 28004KT 8SM CLR 09/05 A3000 790 74 400 280/04 RMK AO2
14837KMSN MSN20051031194509110/31/05 19:45:31  5-MIN KMSN 010145Z 28003KT 8SM CLR 09/05 A3000 790 74 300 280/03 RMK AO2
14837KMSN MSN20051031195010810/31/05 19:50:31  5-MIN KMSN 010150Z 28004KT 8SM CLR 09/05 A3001 790 74 300 280/04 RMK AO2 SLP163 T00940050
14837KMSN MSN20051031195509410/31/05 19:55:31  5-MIN KMSN 010155Z VRB03KT 8SM FEW038 09/05 A3001 780 74 300 VRB/03 RMK AO2
14837KMSN MSN20051031200009410/31/05 20:00:31  5-MIN KMSN 010200Z 28003KT 8SM SCT038 09/05 A3000 790 74 300 280/03 RMK AO2
14837KMSN MSN20051031200509410/31/05 20:05:31  5-MIN KMSN 010205Z 29004KT 7SM BKN036 09/05 A3000 790 74 300 290/04 RMK AO2
14837KMSN MSN20051031201010110/31/05 20:10:31  5-MIN KMSN 010210Z 29008KT 7SM FEW030 BKN036 09/05 A3001 780 74 300 290/08 RMK AO2
14837KMSN MSN20051031201511410/31/05 20:15:31  5-MIN KMSN 010215Z 30010G15KT 7SM SCT030 BKN036 BKN050 10/05 A3001 780 71 400 300/10G15 RMK AO2
14837KMSN MSN20051031202010810/31/05 20:20:31  5-MIN KMSN 010220Z 31012KT 8SM FEW030 BKN036 OVC050 09/05 A3001 780 74 300 310/12 RMK AO2
14837KMSN MSN20051031202511410/31/05 20:25:31  5-MIN KMSN 010225Z 30010G15KT 8SM FEW030 SCT036 BKN050 09/05 A3001 780 76 300 300/10G15 RMK AO2
14837KMSN MSN20051031203010710/31/05 20:30:31  5-MIN KMSN 010230Z 30011G16KT 9SM FEW030 BKN050 09/04 A3001 790 73 300 300/11G16 RMK AO2
14837KMSN MSN20051031203510110/31/05 20:35:31  5-MIN KMSN 010235Z 31010KT 9SM FEW032 SCT050 09/04 A3000 790 71 300 300/10 RMK AO2
14837KMSN MSN20051031204009410/31/05 20:40:31  5-MIN KMSN 010240Z 30011KT 9SM FEW050 08/04 A3000 790 73 200 300/11 RMK AO2
14837KMSN MSN20051031204509410/31/05 20:45:31  5-MIN KMSN 010245Z 30008KT 9SM FEW026 08/04 A3001 790 73 200 300/08 RMK AO2
14837KMSN MSN20051031205012410/31/05 20:50:31  5-MIN KMSN 010250Z 30006KT 9SM SCT026 SCT050 08/04 A3001 780 73 200 300/06 RMK AO2 SLP164 T00830039 51005
14837KMSN MSN20051031205509410/31/05 20:55:31  5-MIN KMSN 010255Z 31008KT 9SM SCT026 08/04 A3001 780 73 200 310/08 RMK AO2
14837KMSN MSN20051031210010010/31/05 21:00:31  5-MIN KMSN 010300Z 30008G14KT 9SM SCT026 08/04 A3001 780 73 200 300/08G14 RMK AO2
14837KMSN MSN20051031210509410/31/05 21:05:31  5-MIN KMSN 010305Z 30008KT 9SM BKN026 08/04 A3001 780 73 200 300/08 RMK AO2
14837KMSN MSN20051031211009410/31/05 21:10:31  5-MIN KMSN 010310Z 31006KT 9SM BKN026 08/04 A3001 790 73 200 310/06 RMK AO2
14837KMSN MSN20051031211509410/31/05 21:15:31  5-MIN KMSN 010315Z 31008KT 9SM OVC028 08/04 A3000 790 73 200 310/08 RMK AO2
14837KMSN MSN20051031212009410/31/05 21:20:31  5-MIN KMSN 010320Z 31008KT 9SM OVC028 08/04 A3000 790 73 200 310/08 RMK AO2
14837KMSN MSN20051031212509410/31/05 21:25:31  5-MIN KMSN 010325Z 31007KT 9SM OVC028 08/04 A3000 790 73 200 310/07 RMK AO2
14837KMSN MSN20051031213009410/31/05 21:30:31  5-MIN KMSN 010330Z 31008KT 8SM OVC030 08/04 A3000 790 73 200 310/08 RMK AO2
14837KMSN MSN20051031213509410/31/05 21:35:31  5-MIN KMSN 010335Z 31008KT 8SM OVC030 08/04 A3000 790 76 200 310/08 RMK AO2
14837KMSN MSN20051031214009410/31/05 21:40:31  5-MIN KMSN 010340Z 31007KT 8SM OVC030 08/03 A2999 800 73 200 310/07 RMK AO2
14837KMSN MSN20051031214509410/31/05 21:45:31  5-MIN KMSN 010345Z 31008KT 8SM OVC030 08/04 A2999 800 76 200 310/08 RMK AO2
14837KMSN MSN20051031215011110/31/05 21:50:31  5-MIN KMSN 010350Z 30007KT 8SM OVC030 08/03 A2999 800 73 200 300/07 RMK AO2 SLP160 T00780033
14837KMSN MSN20051031215509410/31/05 21:55:31  5-MIN KMSN 010355Z 30008KT 8SM OVC032 08/03 A2999 800 73 200 300/08 RMK AO2
14837KMSN MSN20051031220009410/31/05 22:00:31  5-MIN KMSN 010400Z 31008KT 8SM OVC032 08/03 A2999 800 73 200 300/08 RMK AO2
14837KMSN MSN20051031220509410/31/05 22:05:31  5-MIN KMSN 010405Z 30006KT 8SM OVC032 08/03 A2999 800 73 200 300/06 RMK AO2
14837KMSN MSN20051031221009410/31/05 22:10:31  5-MIN KMSN 010410Z 31007KT 8SM OVC034 08/03 A2999 800 73 200 300/07 RMK AO2
14837KMSN MSN20051031221509410/31/05 22:15:31  5-MIN KMSN 010415Z 31007KT 8SM OVC036 08/03 A2999 800 73 200 310/07 RMK AO2
14837KMSN MSN20051031222009410/31/05 22:20:31  5-MIN KMSN 010420Z 31006KT 8SM BKN036 07/03 A2999 800 76 100 310/06 RMK AO2
14837KMSN MSN20051031222509410/31/05 22:25:31  5-MIN KMSN 010425Z 30005KT 8SM BKN036 07/03 A2999 800 76 100 300/05 RMK AO2
14837KMSN MSN20051031223009210/31/05 22:30:31  5-MIN KMSN 010430Z 30005KT 8SM BKN038 07/03 A2999 800 76 0 300/05 RMK AO2
14837KMSN MSN20051031223509210/31/05 22:35:31  5-MIN KMSN 010435Z 29005KT 7SM BKN038 07/03 A2999 800 76 0 290/05 RMK AO2
14837KMSN MSN20051031224009210/31/05 22:40:31  5-MIN KMSN 010440Z 29005KT 7SM BKN038 07/03 A2999 800 76 0 290/05 RMK AO2
14837KMSN MSN20051031224509210/31/05 22:45:31  5-MIN KMSN 010445Z 30006KT 7SM BKN038 07/03 A2999 800 76 0 300/06 RMK AO2
14837KMSN MSN20051031225010910/31/05 22:50:31  5-MIN KMSN 010450Z 30006KT 7SM BKN038 07/03 A2999 800 76 0 300/06 RMK AO2 SLP159 T00670028
14837KMSN MSN20051031225509410/31/05 22:55:31  5-MIN KMSN 010455Z 30006KT 8SM OVC038 07/03 A3000 790 73 100 300/06 RMK AO2
14837KMSN MSN20051031230009410/31/05 23:00:31  5-MIN KMSN 010500Z 30007KT 8SM OVC038 07/03 A3000 790 73 100 300/07 RMK AO2
14837KMSN MSN20051031230509410/31/05 23:05:31  5-MIN KMSN 010505Z 30008KT 8SM OVC038 07/03 A3000 790 73 100 300/08 RMK AO2
14837KMSN MSN20051031231009410/31/05 23:10:31  5-MIN KMSN 010510Z 30007KT 8SM OVC038 07/03 A3000 790 73 100 300/07 RMK AO2
14837KMSN MSN20051031231509210/31/05 23:15:31  5-MIN KMSN 010515Z 30006KT 8SM BKN038 07/03 A3000 790 76 0 300/06 RMK AO2
14837KMSN MSN20051031232009210/31/05 23:20:31  5-MIN KMSN 010520Z 30005KT 8SM BKN038 07/02 A3000 790 73 0 300/05 RMK AO2
14837KMSN MSN20051031232509210/31/05 23:25:31  5-MIN KMSN 010525Z 30005KT 8SM SCT038 07/02 A3000 790 73 0 300/05 RMK AO2
14837KMSN MSN20051031233009210/31/05 23:30:31  5-MIN KMSN 010530Z 30003KT 8SM FEW038 06/02 A3000 790 76 0 300/03 RMK AO2
14837KMSN MSN20051031233509210/31/05 23:35:31  5-MIN KMSN 010535Z 29004KT 8SM FEW038 06/02 A3000 790 76 0 290/04 RMK AO2
14837KMSN MSN20051031234009510/31/05 23:40:31  5-MIN KMSN 010540Z VRB04KT 8SM FEW038 06/02 A3000 790 79 -100 VRB/04 RMK AO2
14837KMSN MSN20051031234509510/31/05 23:45:31  5-MIN KMSN 010545Z 29003KT 8SM FEW038 06/02 A3000 790 79 -100 290/03 RMK AO2
14837KMSN MSN20051031235013710/31/05 23:50:31  5-MIN KMSN 010550Z 29003KT 8SM CLR 06/02 A3000 790 79 -100 290/03 RMK AO2 SLP163 T00560022 10106 20056 401500056 50004
14837KMSN MSN20051031235509210/31/05 23:55:31  5-MIN KMSN 010555Z 29004KT 8SM CLR 06/02 A3000 790 79 -100 290/04 RMK AO2
